sequenceNumber,corporateNumber,process,correct,updateDate,changeDate,name,nameImageId,kind,prefectureName,cityName,streetNumber,addressImageId,prefectureCode,cityCode,postCode,addressOutside,addressOutsideImageId,closeDate,closeCause,successorCorporateNumber,changeCause,assignmentDate,latest,enName,enPrefectureName,enCityName,enAddressOutside,furigana,hihyoji
10,1010003039950,新規,0,2023-03-02,2023-03-02,合同会社雨雪,,合同会社,東京都,中央区,日本橋室町１丁目１１番１２号日本橋水野ビル７階,,13,102,1030022,,,,,,,2023-03-02,1,,,,,ウセツ,0
12,1010005036310,新規,0,2023-03-02,2023-03-02,ＲＢソーラーマリブホールディングス一般社団法人,,その他の設立登記法人,東京都,中央区,八丁堀４丁目２番１０号ＡＯＪ税理士法人内,,13,102,1040032,,,,,,,2023-03-02,1,,,,,アールビーソーラーマリブホールディングス,0
24,1010401172733,新規,0,2023-03-02,2023-03-02,Ｖｅｍｍｅｌ　Ｃｏｍｍｅｒｃｅ株式会社,,株式会社,東京都,港区,芝５丁目３６番４号札の辻スクエア９階,,13,103,1080014,,,,,,,2023-03-02,1,,,,,ヴェンメルコマース,0
25,1010401172774,新規,0,2023-03-02,2023-03-02,株式会社ＣＲＯＩＸ,,株式会社,東京都,港区,南青山６丁目１５－１３南青山レジデンス１０２,,13,103,1070062,,,,,,,2023-03-02,1,,,,,クロワ,0
26,1010401172808,新規,0,2023-03-02,2023-03-02,株式会社ＩＭＧ,,株式会社,東京都,港区,浜松町２丁目２番１５号浜松町ダイヤビル２Ｆ,,13,103,1050013,,,,,,,2023-03-02,1,,,,,アイエムジー,0
31,1010601062676,新規,0,2023-03-02,2023-03-02,株式会社Ｋ＆Ｈ,,株式会社,東京都,墨田区,東駒形４丁目１９番４号,,13,107,1300005,,,,,,,2023-03-02,1,,,,,ケイアンドエイチ,0
33,1010803004451,新規,0,2023-03-02,2023-03-02,合同会社大新不動産,,合同会社,東京都,大田区,北馬込２丁目１－９,,13,111,1430021,,,,,,,2023-03-02,1,,,,,ダイシンフドウサン,0
43,1011001152704,新規,0,2023-03-02,2023-03-02,株式会社ＳＢ,,株式会社,東京都,渋谷区,笹塚２丁目２３番６号比留間ビル２Ｆ,,13,113,1510073,,,,,,,2023-03-02,1,,,,,エスビー,0
44,1011001152943,新規,0,2023-03-02,2023-03-02,株式会社シグマ,,株式会社,東京都,渋谷区,広尾１丁目１５番６号ヒーロービル７階,,13,113,1500012,,,,,,,2023-03-02,1,,,,,シグマ,0
46,1011101102006,新規,0,2023-03-02,2023-03-02,株式会社ピンクル,,株式会社,東京都,新宿区,西新宿６丁目８番１号,,13,104,1600023,,,,,,,2023-03-02,1,,,,,ピンクル,0
50,1011301028505,新規,0,2023-03-02,2023-03-02,株式会社Ｌｏｎｇｓ,,株式会社,東京都,杉並区,高井戸西１丁目２７－２０－５０１,,13,115,1680071,,,,,,,2023-03-02,1,,,,,ロングス,0
51,1011401024932,新規,0,2023-03-02,2023-03-02,おつねストーン株式会社,,株式会社,東京都,板橋区,赤塚３丁目３８番１０－１０５号,,13,119,1750092,,,,,,,2023-03-02,1,,,,,オツネストーン,0
52,1011403003926,新規,0,2023-03-02,2023-03-02,ＰＡＤＭＡ・ＳＨＲＥＥ合同会社,,合同会社,東京都,板橋区,双葉町１５－１３アシュレ双葉町２０８号,,13,119,1730011,,,,,,,2023-03-02,1,,,,,パドマシュリー,0
59,1011703003403,新規,0,2023-03-02,2023-03-02,合同会社フォーユウ,,合同会社,東京都,江戸川区,南小岩７丁目２５番１３号ＴＫビル４階Ａ号室,,13,123,1330056,,,,,,,2023-03-02,1,,,,,フォーユウ,0
62,1011801042006,新規,0,2023-03-02,2023-03-02,ジェビトン株式会社,,株式会社,東京都,葛飾区,青戸７丁目２３番１１号,,13,122,1250062,,,,,,,2023-03-02,1,,,,,ジェビトン,0
64,1012403005854,新規,0,2023-03-02,2023-03-02,ＰｌｕＲｅｖｅ合同会社,,合同会社,東京都,府中市,清水が丘２丁目５５－３４－２０２,,13,206,1830015,,,,,,,2023-03-02,1,,,,,プルリーブ,0
65,1012403005862,新規,0,2023-03-02,2023-03-02,合同会社ライジング,,合同会社,東京都,稲城市,百村５９５－９,,13,225,2060804,,,,,,,2023-03-02,1,,,,,ライジング,0
74,1021001078312,新規,0,2023-03-02,2023-03-02,株式会社美和調剤,,株式会社,神奈川県,横須賀市,久里浜４丁目３番１２号Ｌビル２階,,14,201,2390831,,,,,,,2023-03-02,1,,,,,ミワチョウザイ,0
77,1021003012830,新規,0,2023-03-02,2023-03-02,合同会社ＳＡＮＰＥＩ,,合同会社,神奈川県,小田原市,栄町２丁目１０番１８号,,14,206,2500011,,,,,,,2023-03-02,1,,,,,サンペイ,0
84,1030001152588,新規,0,2023-03-02,2023-03-02,トライバルネット株式会社,,株式会社,埼玉県,上尾市,西宮下３丁目２１１番地１０１号,,11,219,3620043,,,,,,,2023-03-02,1,,,,,トライバルネット,0
85,1030001152613,新規,0,2023-03-02,2023-03-02,日光ハウス株式会社,,株式会社,埼玉県,北葛飾郡杉戸町,杉戸１丁目５番８号,,11,464,3450036,,,,,,,2023-03-02,1,,,,,ニッコウハウス,0
86,1030001152646,新規,0,2023-03-02,2023-03-02,株式会社ＫＲＯＣ．,,株式会社,埼玉県,さいたま市西区,大字宝来４６０番地３,,11,101,3310074,,,,,,,2023-03-02,1,,,,,クロック,0
93,1050005013215,新規,0,2023-03-02,2023-03-02,特定非営利活動法人おちゃのま家族,,その他の設立登記法人,茨城県,土浦市,荒川本郷２１８番地１１５,,08,203,3000877,,,,,,,2023-03-02,1,,,,,オチャノマカゾク,0
99,1070001040161,新規,0,2023-03-02,2023-03-02,株式会社成田壽司,,株式会社,群馬県,高崎市,本町乙１５５番地,,10,202,3700813,,,,,,,2023-03-02,1,,,,,,0
103,1080001025491,新規,0,2023-03-02,2023-03-02,株式会社ベルテック,,株式会社,静岡県,焼津市,石津向町６番地の２,,22,212,4250044,,,,,,,2023-03-02,1,,,,,ベルテック,0
104,1080003002935,新規,0,2023-03-02,2023-03-02,合同会社サンダース,,合同会社,静岡県,焼津市,中根新田１３０４－１,,22,212,4250062,,,,,,,2023-03-02,1,,,,,サンダース,0
105,1080101023817,新規,0,2023-03-02,2023-03-02,株式会社トヨキ,,株式会社,静岡県,富士宮市,小泉１４５２番地の２８,,22,207,4180022,,,,,,,2023-03-02,1,,,,,トヨキ,0
110,1080401026346,新規,0,2023-03-02,2023-03-02,株式会社のりぴよ,,株式会社,静岡県,浜松市北区,細江町中川６０番地の３,,22,135,4311304,,,,,,,2023-03-02,1,,,,,ノリピヨ,0
115,1110001037327,新規,0,2023-03-02,2023-03-02,株式会社小野空圧,,株式会社,新潟県,新潟市秋葉区,満願寺５２３９番地,,15,105,9560811,,,,,,,2023-03-02,1,,,,,オノクウアツ,0
122,1120001252833,新規,0,2023-03-02,2023-03-02,株式会社ＯＨＥＹＡ,,株式会社,大阪府,大阪市西成区,花園北２丁目１８番１３号,,27,122,5570016,,,,,,,2023-03-02,1,,,,,オヘヤ,0
123,1120003023514,新規,0,2023-03-02,2023-03-02,ジェイマット合同会社,,合同会社,大阪府,大阪市大正区,小林東３丁目２番２２号,,27,108,5510011,,,,,,,2023-03-02,1,,,,,ジェイマット,0
124,1120003023522,新規,0,2023-03-02,2023-03-02,ＴＳＵＢＡＫＩ合同会社,,合同会社,大阪府,大阪市西成区,山王３丁目１５番２３号,,27,122,5570001,,,,,,,2023-03-02,1,,,,,ツバキ,0
126,1120101067074,新規,0,2023-03-02,2023-03-02,マイトリー株式会社,,株式会社,大阪府,堺市堺区,西湊町３丁３番３１号,,27,141,5900835,,,,,,,2023-03-02,1,,,,,マイトリー,0
128,1120903004522,新規,0,2023-03-02,2023-03-02,合同会社きら星,,合同会社,大阪府,高槻市,北園町４番１－２０１号,,27,207,5690802,,,,,,,2023-03-02,1,,,,,キラボシ,0
130,1120905006434,新規,0,2023-03-02,2023-03-02,税理士法人関会計事務所,,その他の設立登記法人,大阪府,吹田市,片山町２丁目１６番８号,,27,205,5640082,,,,,,,2023-03-02,1,,,,,セキカイケイジムショ,0
132,1122001036745,新規,0,2023-03-02,2023-03-02,株式会社Ｈａｇｕｍｕ,,株式会社,大阪府,東大阪市,吉田１丁目１番２７－９０３号,,27,227,5780924,,,,,,,2023-03-02,1,,,,,,0
136,1130001073741,新規,0,2023-03-02,2023-03-02,佳潤株式会社,,株式会社,京都府,京都市左京区,二条通川端東入３筋目大文字町１５８－１０２,,26,103,6068382,,,,,,,2023-03-02,1,,,,,カジュン,0
142,1140001129261,新規,0,2023-03-02,2023-03-02,株式会社金城自動車,,株式会社,兵庫県,洲本市,下内膳４５番地１,,28,205,6560016,,,,,,,2023-03-02,1,,,,,カネシロジドウシャ,0
147,1150001026202,新規,0,2023-03-02,2023-03-02,株式会社Ｍｏｌｌｙ,,株式会社,奈良県,桜井市,大字谷１１０番地の１－３０２,,29,206,6330053,,,,,,,2023-03-02,1,,,,,モーリー,0
152,1170001017496,新規,0,2023-03-02,2023-03-02,株式会社Ｒｅｐｌａｙ,,株式会社,和歌山県,和歌山市,大谷１９０番地４,,30,201,6408472,,,,,,,2023-03-02,1,,,,,リプレイ,0
159,1180001155139,新規,0,2023-03-02,2023-03-02,株式会社たかはまメディカルサービス,,株式会社,愛知県,名古屋市緑区,南大高２丁目２０８番地,,23,114,4598016,,,,,,,2023-03-02,1,,,,,タカハマメディカルサービス,0
160,1180001155147,新規,0,2023-03-02,2023-03-02,名古屋医研サポート株式会社,,株式会社,愛知県,名古屋市中区,正木４丁目８番７号れんが橋ビル５階,,23,106,4600024,,,,,,,2023-03-02,1,,,,,ナゴヤイケンサポート,0
162,1180005020116,新規,0,2023-03-02,2023-03-02,一般社団法人みんまちエナジー,,その他の設立登記法人,愛知県,長久手市,氏神前２２２番地２,,23,238,4801125,,,,,,,2023-03-02,1,,,,,ミンマチエナジー,0
164,1190001030191,新規,0,2023-03-02,2023-03-02,株式会社金城商会,,株式会社,三重県,四日市市,清水町１－７,,24,202,5100814,,,,,,,2023-03-02,1,,,,,カネシロショウカイ,0
169,1200001041014,新規,0,2023-03-02,2023-03-02,株式会社ＧＲＩＴ,,株式会社,岐阜県,岐阜市,須賀１丁目８番３号,,21,201,5008289,,,,,,,2023-03-02,1,,,,,グリット,0
170,1200001041030,新規,0,2023-03-02,2023-03-02,ジャレオン株式会社,,株式会社,岐阜県,瑞穂市,十九条２４５番地１,,21,216,5010235,,,,,,,2023-03-02,1,,,,,ジャレオン,0
172,1200003005883,新規,0,2023-03-02,2023-03-02,合同会社Ｃｈａｓｓｅｕｒ,,合同会社,岐阜県,中津川市,福岡１６６０番地３４５,,21,206,5080203,,,,,,,2023-03-02,1,,,,,シャスール,0
173,1210001019249,新規,0,2023-03-02,2023-03-02,株式会社ＲＥｐａｉｎｔ工業,,株式会社,福井県,福井市,和田東２丁目１２１２番,,18,201,9188237,,,,,,,2023-03-02,1,,,,,リペイントコウギョウ,0
178,1220001025295,新規,0,2023-03-02,2023-03-02,ＳＨＯＪＩＮ　ＪＡＰＡＮ株式会社,,株式会社,石川県,金沢市,香林坊２丁目４番２６号ブランシュ１Ｆ,,17,201,9200961,,,,,,,2023-03-02,1,,,,,ショージンジャパン,0
187,1240001061157,新規,0,2023-03-02,2023-03-02,株式会社Ｃｌａｉｒ,,株式会社,広島県,広島市安佐北区,あさひが丘７丁目２３番３５号,,34,106,7313361,,,,,,,2023-03-02,1,,,,,クレール,0
194,1260001037675,新規,0,2023-03-02,2023-03-02,株式会社Ｃｒｅａｔｅ　Ｗｉｔｈ,,株式会社,岡山県,岡山市北区,三手５４３－４,,33,101,7011353,,,,,,,2023-03-02,1,,,,,クリエイトウィズ,0
195,1260001037691,新規,0,2023-03-02,2023-03-02,株式会社浜砂防水,,株式会社,岡山県,倉敷市,連島町連島１１７４番地２５６,,33,202,7128011,,,,,,,2023-03-02,1,,,,,ハマスナボウスイ,0
202,1270003001496,新規,0,2023-03-02,2023-03-02,合同会社ｕｎｃｌｅ２,,合同会社,鳥取県,境港市,渡町１１３０番地,,31,204,6840072,,,,,,,2023-03-02,1,,,,,アンクルアンクル,0
203,1280003001702,新規,0,2023-03-02,2023-03-02,合同会社ミクスル,,合同会社,島根県,松江市,浜乃木３丁目７番３３－７０５号ノビリティ浜乃木,,32,201,6900044,,,,,,,2023-03-02,1,,,,,ミクスル,0
209,1290001100694,新規,0,2023-03-02,2023-03-02,株式会社Ｔ．Ｏｆｆｉｃｅ,,株式会社,福岡県,太宰府市,大字北谷４７９番地,,40,221,8180114,,,,,,,2023-03-02,1,,,,,ティードットオフィス,0
210,1290001100711,新規,0,2023-03-02,2023-03-02,光洋テント工芸株式会社,,株式会社,福岡県,那珂川市,片縄西５丁目９番１３号,,40,231,8111202,,,,,,,2023-03-02,1,,,,,コウヨウテントコウゲイ,0
211,1290001100728,新規,0,2023-03-02,2023-03-02,株式会社Ｌａｕｇｈ　Ｔａｌｅ,,株式会社,福岡県,福岡市東区,香椎駅前１丁目８番１４号,,40,131,8130013,,,,,,,2023-03-02,1,,,,,ラフテル,0
212,1290001100752,新規,0,2023-03-02,2023-03-02,株式会社ＭＤＫ,,株式会社,福岡県,福岡市西区,大字吉武３３１番１号,,40,135,8190036,,,,,,,2023-03-02,1,,,,,エムディケイ,0
213,1290003013614,新規,0,2023-03-02,2023-03-02,ＰＯＬＫＳＡＬＡＤＡＮＮＩＥ合同会社,,合同会社,福岡県,糟屋郡志免町,南里１丁目８番７号,,40,343,8112207,,,,,,,2023-03-02,1,,,,,ポークサラダアニー,0
214,1290005018966,新規,0,2023-03-02,2023-03-02,みろく事業協同組合,,その他の設立登記法人,福岡県,福岡市城南区,友丘２丁目１０番３号,,40,136,8140112,,,,,,,2023-03-02,1,,,,,ミロク,0
216,1290801029316,新規,0,2023-03-02,2023-03-02,株式会社きりしま,,株式会社,福岡県,北九州市若松区,浜町１丁目５番２６号,,40,103,8080024,,,,,,,2023-03-02,1,,,,,キリシマ,0
217,1290803004358,新規,0,2023-03-02,2023-03-02,合同会社２４Ｇ,,合同会社,福岡県,北九州市小倉北区,下到津１丁目４番５号ＣＯＣＯメゾン９０２,,40,106,8030846,,,,,,,2023-03-02,1,,,,,トゥエニフォージー,0
221,1320001019601,新規,0,2023-03-02,2023-03-02,株式会社Ｓｉｏフードビレッジ,,株式会社,大分県,大分市,中央町１丁目２番１０号タジマヤビル２Ｆ,,44,201,8700035,,,,,,,2023-03-02,1,,,,,エスアイオーフードビレッジ,0
232,1370003006015,新規,0,2023-03-02,2023-03-02,合同会社石工只ノ,,合同会社,宮城県,仙台市青葉区,錦ケ丘４丁目１９番地の３,,04,101,9893123,,,,,,,2023-03-02,1,,,,,イシクタダノ,0
233,1370005010601,新規,0,2023-03-02,2023-03-02,司法書士法人りそえる,,その他の設立登記法人,宮城県,仙台市青葉区,春日町７番３２号,,04,101,9800821,,,,,,,2023-03-02,1,,,,,リソエル,0
234,1380001033514,新規,0,2023-03-02,2023-03-02,株式会社アサヒ,,株式会社,福島県,須賀川市,影沼町１２０番地５,,07,207,9620031,,,,,,,2023-03-02,1,,,,,,0
242,1450001013913,新規,0,2023-03-02,2023-03-02,株式会社モンステラ北落合,,株式会社,北海道,空知郡南富良野町,字北落合９４番地３３,,01,462,0792552,,,,,,,2023-03-02,1,,,,,モンステラキタオチアイ,0
244,1450003002303,新規,0,2023-03-02,2023-03-02,合同会社ｔｕｋｕｒｉｅ,,合同会社,北海道,富良野市,桂木町４番１０２号,,01,229,0760038,,,,,,,2023-03-02,1,,,,,ツクリエ,0
250,1470001019487,新規,0,2023-03-02,2023-03-02,株式会社庭作す森,,株式会社,香川県,木田郡三木町,大字上高岡６５５番地１,,37,341,7610613,,,,,,,2023-03-02,1,,,,,ニワナスモリ,0
251,1480001012020,新規,0,2023-03-02,2023-03-02,株式会社菱中セトル,,株式会社,徳島県,徳島市,南沖洲５丁目２番１７号,,36,201,7700874,,,,,,,2023-03-02,1,,,,,ヒシナカセトル,0
269,2010005036318,新規,0,2023-03-02,2023-03-02,クレジット・ギャランティ７号一般社団法人,,その他の設立登記法人,東京都,千代田区,内神田２丁目２番６号５階あすな会計事務所内,,13,101,1010047,,,,,,,2023-03-02,1,,,,,クレジットギャランティナナゴウ,0
270,2010101015547,新規,0,2023-03-02,2023-03-02,ＡＥＴＥＣＨ株式会社,,株式会社,東京都,八王子市,南大沢２丁目２４番地１０１号,,13,201,1920364,,,,,,,2023-03-02,1,,,,,エーイーテック,0
271,2010103002089,新規,0,2023-03-02,2023-03-02,合同会社ＡＬＬ　ｂｅｔｔｅｒ,,合同会社,東京都,八王子市,めじろ台４丁目２３番地７,,13,201,1930833,,,,,,,2023-03-02,1,,,,,オールベター,0
278,2010401172732,新規,0,2023-03-02,2023-03-02,株式会社ｌｅａｓｈ,,株式会社,東京都,港区,六本木７丁目２１番２４号ｔｈｅｍｏｄｕｌｅｒｏｐｐｏｎｇｉ４０５,,13,103,1060032,,,,,,,2023-03-02,1,,,,,リーシュ,0
279,2010401172749,新規,0,2023-03-02,2023-03-02,株式会社Ｐｌａｎ　Ｃ,,株式会社,東京都,港区,南青山３丁目１番３６号青山丸竹ビル６Ｆ,,13,103,1070062,,,,,,,2023-03-02,1,,,,,プランシー,0
280,2010401172781,新規,0,2023-03-02,2023-03-02,株式会社ｂｅｅＭｅ,,株式会社,東京都,港区,元麻布２丁目３番２４－２０１号,,13,103,1060046,,,,,,,2023-03-02,1,,,,,ビーミー,0
281,2010401172823,新規,0,2023-03-02,2023-03-02,株式会社オフィス南,,株式会社,東京都,港区,南麻布５丁目１６番９号,,13,103,1060047,,,,,,,2023-03-02,1,,,,,オフィスミナミ,0
282,2010403029633,新規,0,2023-03-02,2023-03-02,ＡＥＪ棚倉ソーラー合同会社,,合同会社,東京都,港区,六本木１丁目９番１０号アークヒルズ仙石山森タワー２８階ベーカー＆マッケンジー法律事務所（外国法共同事業）内,,13,103,1060032,,,,,,,2023-03-02,1,,,,,エーイージェータナクラソーラー,0
285,2010601062675,新規,0,2023-03-02,2023-03-02,株式会社イヴ・コーポレーション,,株式会社,東京都,墨田区,東駒形４丁目１９番４号,,13,107,1300005,,,,,,,2023-03-02,1,,,,,イヴコーポレーション,0
287,2010901052624,新規,0,2023-03-02,2023-03-02,株式会社Ｕｔｏｐｉａ,,株式会社,東京都,世田谷区,北沢１丁目９－５ＰｅａｃｅＷｅｓｔ２０１,,13,112,1550031,,,,,,,2023-03-02,1,,,,,ユートピア,0
298,2011301028495,新規,0,2023-03-02,2023-03-02,株式会社Ｌｅ　ｃｉｅｌ　ｂｌｅｕ,,株式会社,東京都,杉並区,久我山４丁目３１番１５号,,13,115,1680082,,,,,,,2023-03-02,1,,,,,ルシエルブルー,0
302,2011601026595,新規,0,2023-03-02,2023-03-02,昇輝株式会社,,株式会社,東京都,練馬区,錦１丁目２５－２５ネコパレス２３５、２０３号室,,13,120,1790082,,,,,,,2023-03-02,1,,,,,ショウキ,0
303,2011601026620,新規,0,2023-03-02,2023-03-02,株式会社慧吉,,株式会社,東京都,練馬区,関町北５丁目６番７号関町マンション４０２Ｄ,,13,120,1770051,,,,,,,2023-03-02,1,,,,,ケイキチ,0
309,2012303001787,新規,0,2023-03-02,2023-03-02,合同会社プロセスデザイン総合教育研究所,,合同会社,東京都,町田市,中町４丁目７－４－２０７,,13,209,1940021,,,,,,,2023-03-02,1,,,,,プロセスデザインソウゴウキョウイクケンキュウショ,0
312,2012401040233,新規,0,2023-03-02,2023-03-02,株式会社ルーバート,,株式会社,東京都,稲城市,平尾２丁目８２番地の９,,13,225,2060823,,,,,,,2023-03-02,1,,,,,ルーバート,0
313,2012401040241,新規,0,2023-03-02,2023-03-02,株式会社ＲＥＬＡＸ　ＨＯＭＥ,,株式会社,東京都,武蔵野市,中町３丁目１番１号浜友ビルＢ１０１,,13,203,1800006,,,,,,,2023-03-02,1,,,,,リラックスホーム,0
314,2012403005853,新規,0,2023-03-02,2023-03-02,合同会社オバイ＆ベラ,,合同会社,東京都,三鷹市,下連雀３丁目２２番３－５０５号,,13,204,1810013,,,,,,,2023-03-02,1,,,,,オバイアンドベラ,0
315,2012403005861,新規,0,2023-03-02,2023-03-02,ＫＲＥ合同会社,,合同会社,東京都,武蔵野市,桜堤２丁目８－８－Ａ１０５,,13,203,1800021,,,,,,,2023-03-02,1,,,,,ケーアールイー,0
316,2012801022161,新規,0,2023-03-02,2023-03-02,株式会社ファムキャス,,株式会社,東京都,国立市,東１丁目１５－１１、４４８ビル３Ｆ,,13,215,1860002,,,,,,,2023-03-02,1,,,,,ファムキャス,0
325,2020001150492,新規,0,2023-03-02,2023-03-02,株式会社ジュエリータウン,,株式会社,神奈川県,横浜市神奈川区,金港町１番地１１ナビューレ横浜２４１０号,,14,102,2210056,,,,,,,2023-03-02,1,,,,,ジュエリータウン,0
332,2020003023408,新規,0,2023-03-02,2023-03-02,天華商事合同会社,,合同会社,神奈川県,横浜市中区,曙町１丁目３藤和伊勢佐木ハイタウン１０１０号室,,14,104,2310057,,,,,,,2023-03-02,1,,,,,テンカショウジ,0
335,2021001078311,新規,0,2023-03-02,2023-03-02,株式会社スペースシーファイブ,,株式会社,神奈川県,鎌倉市,今泉台５丁目１０番８号,,14,204,2470053,,,,,,,2023-03-02,1,,,,,スペースシーファイブ,0
339,2030001152637,新規,0,2023-03-02,2023-03-02,株式会社ＳＯ　ＳＥＲＶＩＣＥ,,株式会社,埼玉県,さいたま市桜区,桜田２丁目２２番１９号,,11,106,3380833,,,,,,,2023-03-02,1,,,,,エスオーサービス,0
341,2030003021278,新規,0,2023-03-02,2023-03-02,ＡｄｊｕｓｔＢｌａｃｋＣｒｅｄｉｔ合同会社,,合同会社,埼玉県,草加市,両新田西町１７８番地,,11,221,3400027,,,,,,,2023-03-02,1,,,,,アジャストブラッククレディット,0
345,2050001052471,新規,0,2023-03-02,2023-03-02,株式会社まごのてメンテ,,株式会社,茨城県,水戸市,見川４丁目３９３番地の８サニーコートＢ棟２０２号,,08,201,3100912,,,,,,,2023-03-02,1,,,,,マゴノテメンテ,0
346,2050003007283,新規,0,2023-03-02,2023-03-02,合同会社Ｓ＆Ｋ,,合同会社,茨城県,牛久市,田宮町１０７４番地３,,08,219,3001236,,,,,,,2023-03-02,1,,,,,エスアンドケイ,0
349,2070001040177,新規,0,2023-03-02,2023-03-02,株式会社ＦＩＥＬＤ・ＯＮＥ,,株式会社,群馬県,前橋市,箱田町１０９８番地,,10,201,3710837,,,,,,,2023-03-02,1,,,,,フィールドワン,0
350,2070001040193,新規,0,2023-03-02,2023-03-02,株式会社リムランドアーキテクツ,,株式会社,群馬県,太田市,藤阿久町４９７番地２,,10,205,3730034,,,,,,,2023-03-02,1,,,,,リムランドアーキテクツ,0
354,2080001025482,新規,0,2023-03-02,2023-03-02,株式会社かがりび,,株式会社,静岡県,静岡市葵区,安倍町１６番地の５,,22,101,4200869,,,,,,,2023-03-02,1,,,,,カガリビ,0
355,2080001025490,新規,0,2023-03-02,2023-03-02,株式会社ファースト,,株式会社,静岡県,静岡市葵区,本通３丁目１２番地,,22,101,4200064,,,,,,,2023-03-02,1,,,,,ファースト,0
357,2080101023816,新規,0,2023-03-02,2023-03-02,株式会社３ＷＩＺ　Ｖｉｄｅｏ　Ｐｒｏｄｕｃｔｉｏｎ,,株式会社,静岡県,伊東市,八幡野１３１９番地の７,,22,208,4130232,,,,,,,2023-03-02,1,,,,,スリーワイズビデオプロダクション,0
358,2080101023824,新規,0,2023-03-02,2023-03-02,大慶建設株式会社,,株式会社,静岡県,沼津市,高砂町５番地の２３,,22,203,4100016,,,,,,,2023-03-02,1,,,,,タイケイケンセツ,0
363,2110001037326,新規,0,2023-03-02,2023-03-02,株式会社栄塗,,株式会社,新潟県,新潟市北区,鳥屋１９６番地,,15,101,9503316,,,,,,,2023-03-02,1,,,,,エイト,0
371,2120001252741,新規,0,2023-03-02,2023-03-02,株式会社リンクスエージェント,,株式会社,大阪府,大阪市北区,梅田２丁目２番２号ヒルトンプラザウエスト１９階,,27,127,5300001,,,,,,,2023-03-02,1,,,,,リンクスエージェント,0
374,2120101067065,新規,0,2023-03-02,2023-03-02,株式会社ＨＡＭＡ,,株式会社,大阪府,松原市,天美我堂２丁目３２５番地２,,27,217,5800026,,,,,,,2023-03-02,1,,,,,ハマ,0
375,2120101067073,新規,0,2023-03-02,2023-03-02,株式会社ユーケン,,株式会社,大阪府,堺市美原区,平尾１５０番地,,27,147,5870022,,,,,,,2023-03-02,1,,,,,ユーケン,0
377,2120901047217,新規,0,2023-03-02,2023-03-02,株式会社ＭＳエステート,,株式会社,大阪府,吹田市,豊津町９番１６号,,27,205,5640051,,,,,,,2023-03-02,1,,,,,エムエスエステート,0
382,2140001129252,新規,0,2023-03-02,2023-03-02,株式会社ＢＡＲＩ　ＭＩＳＳＩＯＮ,,株式会社,兵庫県,姫路市,辻井１丁目１２番２８号Ａ１０２,00129603,28,201,6700083,,,,,,,2023-03-02,1,,,,,バリミッション,0
384,2140003018783,新規,0,2023-03-02,2023-03-02,合同会社コンソラーレ,,合同会社,兵庫県,加古川市,加古川町木村３８１番地の８,,28,210,6750038,,,,,,,2023-03-02,1,,,,,コンソラーレ,0
388,2160005011165,新規,0,2023-03-02,2023-03-02,医療法人碧滄会,,その他の設立登記法人,滋賀県,大津市,京町１丁目３番３３号,,25,201,5200044,,,,,,,2023-03-02,1,,,,,ヘキソウカイ,0
389,2170001017495,新規,0,2023-03-02,2023-03-02,赤井農園株式会社,,株式会社,和歌山県,和歌山市,友田町４丁目８９番地,,30,201,6408342,,,,,,,2023-03-02,1,,,,,アカイノウエン,0
397,2180001155138,新規,0,2023-03-02,2023-03-02,株式会社ＡＲＣＡ,,株式会社,愛知県,名古屋市名東区,猪子石１丁目５０５番地,,23,115,4650021,,,,,,,2023-03-02,1,,,,,アルカ,0
398,2180001155146,新規,0,2023-03-02,2023-03-02,株式会社ＴＨ武豊,,株式会社,愛知県,知多郡武豊町,字長尾山８０番,,23,447,4702346,,,,,,,2023-03-02,1,,,,,ティーエイチタケトヨ,0
400,2180003024902,新規,0,2023-03-02,2023-03-02,合同会社プロップス,,合同会社,愛知県,名古屋市中区,富士見町１４番１５号ライオンズガーデン東別院７０９号,,23,106,4600014,,,,,,,2023-03-02,1,,,,,プロップス,0
406,2190001030199,新規,0,2023-03-02,2023-03-02,株式会社ｓｏｐｈ,,株式会社,三重県,津市,広明町６６番地１１,,24,201,5140006,,,,,,,2023-03-02,1,,,,,ソフ,0
408,2200001041038,新規,0,2023-03-02,2023-03-02,財務経営Ｓｔａｎｄａｒｄ株式会社,,株式会社,岐阜県,岐阜市,芥見南山１丁目２５番５号,,21,201,5013133,,,,,,,2023-03-02,1,,,,,ザイムケイエイスタンダード,0
412,2200003005874,新規,0,2023-03-02,2023-03-02,ＭＩＸ合同会社,,合同会社,岐阜県,瑞穂市,生津外宮東町２丁目８７番地６,,21,216,5010214,,,,,,,2023-03-02,1,,,,,ミックス,0
413,2200003005882,新規,0,2023-03-02,2023-03-02,合同会社福田テクノ,,合同会社,岐阜県,関市,下有知３８０７番地,,21,205,5013217,,,,,,,2023-03-02,1,,,,,フクタテクノ,0
416,2220003003455,新規,0,2023-03-02,2023-03-02,ベト風味合同会社,,合同会社,石川県,能美市,大浜町酉３１番地,,17,211,9290122,,,,,,,2023-03-02,1,,,,,ベトフミ,0
419,2240001061148,新規,0,2023-03-02,2023-03-02,株式会社エダマツビルディング,,株式会社,広島県,広島市西区,南観音５丁目５番１１号,,34,104,7330035,,,,,,,2023-03-02,1,,,,,エダマツビルディング,0
425,2260001037682,新規,0,2023-03-02,2023-03-02,株式会社しらいし,,株式会社,岡山県,玉野市,八浜町大崎１３４５番地１,,33,204,7060224,,,,,,,2023-03-02,1,,,,,シライシ,0
426,2260001037699,新規,0,2023-03-02,2023-03-02,株式会社マツシン塗装工業,,株式会社,岡山県,倉敷市,神田３丁目１７番２６号,,33,202,7128061,,,,,,,2023-03-02,1,,,,,マツシントソウコウギョウ,0
428,2260003004219,新規,0,2023-03-02,2023-03-02,合同会社Ｋ企画,,合同会社,岡山県,岡山市北区,柳町２丁目４番６号ソシアルイン柳町８０１号,,33,101,7000904,,,,,,,2023-03-02,1,,,,,ケイキカク,0
429,2280001008888,新規,0,2023-03-02,2023-03-02,なべやまらいす株式会社,,株式会社,島根県,雲南市,三刀屋町乙加宮１１６５番地２,,32,209,6902634,,,,,,,2023-03-02,1,,,,,ナベヤマライス,0
432,2290001100685,新規,0,2023-03-02,2023-03-02,株式会社オアシス貿易,,株式会社,福岡県,福岡市城南区,七隈４丁目５番１号,,40,136,8140133,,,,,,,2023-03-02,1,,,,,オアシスボウエキ,0
433,2290001100702,新規,0,2023-03-02,2023-03-02,株式会社宗建,,株式会社,福岡県,福岡市西区,戸切２丁目５９９番地５,,40,135,8190032,,,,,,,2023-03-02,1,,,,,ソウケン,0
434,2290001100710,新規,0,2023-03-02,2023-03-02,アイティコム株式会社,,株式会社,福岡県,福岡市中央区,薬院３丁目１６番２６号西鉄薬院ビル５階,,40,133,8100022,,,,,,,2023-03-02,1,,,,,アイティコム,0
435,2290001100743,新規,0,2023-03-02,2023-03-02,株式会社Ｍ．Ｒ,,株式会社,福岡県,福岡市中央区,春吉２丁目１２番１１－１０２号,,40,133,8100003,,,,,,,2023-03-02,1,,,,,エムドットアール,0
438,2290003013596,新規,0,2023-03-02,2023-03-02,合同会社ＫＹＢ技研,,合同会社,福岡県,大野城市,白木原１丁目１６番１７－９０５号,,40,219,8160943,,,,,,,2023-03-02,1,,,,,ケイワイビーギケン,0
439,2290003013605,新規,0,2023-03-02,2023-03-02,合同会社和．える,,合同会社,福岡県,福岡市南区,井尻２丁目１８番３６－５０６号,,40,134,8111302,,,,,,,2023-03-02,1,,,,,アエル,0
440,2290005018965,新規,0,2023-03-02,2023-03-02,司法書士法人下川・宮本事務所,,その他の設立登記法人,福岡県,福岡市中央区,舞鶴２丁目２番３号,,40,133,8100073,,,,,,,2023-03-02,1,,,,,シモカワミヤモトジムショ,0
441,2290801029315,新規,0,2023-03-02,2023-03-02,株式会社リアン,,株式会社,福岡県,北九州市小倉南区,葛原２丁目１０番３号,,40,107,8000251,,,,,,,2023-03-02,1,,,,,リアン,0
442,2290801029331,新規,0,2023-03-02,2023-03-02,株式会社Ｒｏｏｔｓ,,株式会社,福岡県,築上郡築上町,大字日奈古３６５番１,,40,647,8290322,,,,,,,2023-03-02,1,,,,,ルーツ,0
447,2310001018289,新規,0,2023-03-02,2023-03-02,株式会社波戸工業,,株式会社,長崎県,西海市,大瀬戸町瀬戸西濱郷５９４番地７１,,42,212,8572303,,,,,,,2023-03-02,1,,,,,ハトコウギョウ,0
453,2310005008658,新規,0,2023-03-02,2023-03-02,医療法人みづち会,,その他の設立登記法人,長崎県,佐世保市,早岐３丁目６番３号,,42,202,8593215,,,,,,,2023-03-02,1,,,,,ミヅチカイ,0
454,2320003004039,新規,0,2023-03-02,2023-03-02,合同会社ＨＡコンサルティング,,合同会社,大分県,大分市,はなの森１８－７,,44,201,8700880,,,,,,,2023-03-02,1,,,,,エイチエーコンサルティング,0
457,2330001030647,新規,0,2023-03-02,2023-03-02,株式会社Ｎ．Ｆｏｌｌｏｗ,,株式会社,熊本県,山鹿市,菊鹿町松尾４４番地３,,43,208,8610424,,,,,,,2023-03-02,1,,,,,エヌフォロー,0
458,2340001025398,新規,0,2023-03-02,2023-03-02,０１株式会社,,株式会社,鹿児島県,鹿児島市,西谷山２丁目７番３１号１階,,46,201,8910117,,,,,,,2023-03-02,1,,,,,ゼロワン,0
459,2340001025407,新規,0,2023-03-02,2023-03-02,松尾飼料株式会社,,株式会社,鹿児島県,薩摩郡さつま町,平川１４４３番地,,46,392,8951807,,,,,,,2023-03-02,1,,,,,マツオシリョウ,0
461,2340005009562,新規,0,2023-03-02,2023-03-02,一般社団法人竹援隊,,その他の設立登記法人,鹿児島県,霧島市,溝辺町竹子１１１９番地３,,46,218,8996402,,,,,,,2023-03-02,1,,,,,チクエンタイ,0
468,2380001033513,新規,0,2023-03-02,2023-03-02,ＲＥＳＯＮＡＴＥ．株式会社,,株式会社,福島県,いわき市,小名浜下神白字館ノ腰９番地の１下神白団地１－２０６,,07,204,9700316,,,,,,,2023-03-02,1,,,,,リゾネイト,0
477,2430001088519,新規,0,2023-03-02,2023-03-02,北永工建株式会社,,株式会社,北海道,札幌市白石区,東米里２０８１番１０３,,01,104,0030876,,,,,,,2023-03-02,1,,,,,ホクエイコウケン,0
482,2480003001945,新規,0,2023-03-02,2023-03-02,合同会社和田島岬オイスター,,合同会社,徳島県,小松島市,和田島町字西浜手１０番地の３３,,36,203,7730025,,,,,,,2023-03-02,1,,,,,ワダジマミサキオイスター,0
498,3010001233347,新規,0,2023-03-02,2023-03-02,ログシスＢＰ株式会社,,株式会社,東京都,千代田区,九段北１丁目１４番１６号,,13,101,1020073,,,,,,,2023-03-02,1,,,,,ログシスビーピー,0
502,3010005036309,新規,0,2023-03-02,2023-03-02,ＲＢソーラーディタホールディングス一般社団法人,,その他の設立登記法人,東京都,中央区,八丁堀４丁目２番１０号ＡＯＪ税理士法人内,,13,102,1040032,,,,,,,2023-03-02,1,,,,,アールビーソーラーディタホールディングス,0
503,3010005036317,新規,0,2023-03-02,2023-03-02,一般社団法人日本モンゴル交流友好協会,,その他の設立登記法人,東京都,千代田区,神田佐久間河岸８２番地５ＨＲＭ本社ビル,,13,101,1010026,,,,,,,2023-03-02,1,,,,,ニホンモンゴルコウリュウキョウカイ,0
504,3010101015546,新規,0,2023-03-02,2023-03-02,株式会社うろこ雲,,株式会社,東京都,八王子市,元八王子町１丁目９６番地７３,,13,201,1930826,,,,,,,2023-03-02,1,,,,,ウロコグモ,0
509,3010401172806,新規,0,2023-03-02,2023-03-02,セミコンダクター株式会社,,株式会社,東京都,港区,港南４丁目６番４－２６０８号,,13,103,1080075,,,,,,,2023-03-02,1,,,,,セミコンダクター,0
511,3010403029657,新規,0,2023-03-02,2023-03-02,備前雲の上合同会社,,合同会社,東京都,港区,海岸１丁目５番２０号,,13,103,1050022,,,,,,,2023-03-02,1,,,,,ビゼンクモノウエ,0
512,3010501050060,新規,0,2023-03-02,2023-03-02,株式会社アズインベストメント,,株式会社,東京都,台東区,浅草橋４丁目４番９号（内田ビル２Ｆ）,,13,106,1110053,,,,,,,2023-03-02,1,,,,,アズインベストメント,0
521,3010903008004,新規,0,2023-03-02,2023-03-02,Ｃａｐｉｔａｌ　Ｋ合同会社,,合同会社,東京都,世田谷区,船橋５丁目２１番４号,,13,112,1560055,,,,,,,2023-03-02,1,,,,,キャピタルケイ,0
529,3011203004016,新規,0,2023-03-02,2023-03-02,合同会社ａｎｗｏｒｋｓ,,合同会社,東京都,中野区,南台２丁目４番６号エクセリア南台３０１,,13,114,1640014,,,,,,,2023-03-02,1,,,,,アンワークス,0
530,3011301028494,新規,0,2023-03-02,2023-03-02,株式会社Ｋ・Ｉカンパニー,,株式会社,東京都,杉並区,高円寺南４丁目２８番１０－４０３号,,13,115,1660003,,,,,,,2023-03-02,1,,,,,ケーアイカンパニー,0
534,3011503005498,新規,0,2023-03-02,2023-03-02,合同会社塩羽組,,合同会社,東京都,北区,赤羽南１丁目３番７号長瀬ビル３階,,13,117,1150044,,,,,,,2023-03-02,1,,,,,シオバネグミ,0
539,3011701026032,新規,0,2023-03-02,2023-03-02,株式会社ｐｒｅｖｉｏｕｓ,,株式会社,東京都,江戸川区,北篠崎２丁目１０番１５－３０３号,,13,123,1330053,,,,,,,2023-03-02,1,,,,,プレビアス,0
540,3011701026049,新規,0,2023-03-02,2023-03-02,株式会社鶴亀屋,,株式会社,東京都,江戸川区,北小岩６丁目４２番４号美喜荘１号,,13,123,1330051,,,,,,,2023-03-02,1,,,,,ツルカメヤ,0
544,3012301013338,新規,0,2023-03-02,2023-03-02,株式会社Ｓｔｏｒｙｔｅｌｌｅｒ,,株式会社,東京都,町田市,南町田４丁目５番１－４０４号,,13,209,1940005,,,,,,,2023-03-02,1,,,,,ストーリーテラー,0
545,3012401040240,新規,0,2023-03-02,2023-03-02,株式会社Ｃｈｒｏｎｏｌｏｇｙ,,株式会社,東京都,府中市,天神町１丁目１－８４パークホームズ府中の森公園サザンコート１０４,,13,206,1830053,,,,,,,2023-03-02,1,,,,,クロノロジー,0
546,3012403005852,新規,0,2023-03-02,2023-03-02,合同会社上杉企画,,合同会社,東京都,調布市,仙川町２丁目１２番６号アヴェニール仙川１－Ｄ,,13,208,1820002,,,,,,,2023-03-02,1,,,,,ウエスギキカク,0
547,3012403005860,新規,0,2023-03-02,2023-03-02,ＳＫＹ　Ｂｒｉｄｇｅ合同会社,,合同会社,東京都,狛江市,岩戸南１丁目８番８号エコノスペースＣ棟３１号,,13,219,2010005,,,,,,,2023-03-02,1,,,,,スカイブリッジ,0
558,3021001078335,新規,0,2023-03-02,2023-03-02,株式会社Ｍｅｉｋｏ　Ｓａｎｏ　Ａｒｔｓ,,株式会社,神奈川県,相模原市南区,古淵２丁目３番３５号,,14,153,2520344,,,,,,,2023-03-02,1,,,,,メイコサノアーツ,0
560,3021003012812,新規,0,2023-03-02,2023-03-02,合同会社ケイジー・ネットワーカーズ,,合同会社,神奈川県,平塚市,馬入２１７６,,14,203,2540023,,,,,,,2023-03-02,1,,,,,ケイジーネットワーカーズ,0
561,3021003012829,新規,0,2023-03-02,2023-03-02,合同会社Ｋ２セキュリティサービス,,合同会社,神奈川県,相模原市緑区,西橋本３丁目８番４２号,,14,151,2520131,,,,,,,2023-03-02,1,,,,,ケイツーセキュリティサービス,0
562,3021003012837,新規,0,2023-03-02,2023-03-02,合同会社ココプラン,,合同会社,神奈川県,相模原市南区,相模台２丁目４－９－３０４,,14,153,2520321,,,,,,,2023-03-02,1,,,,,ココプラン,0
568,3030001152594,新規,0,2023-03-02,2023-03-02,昭和ホールディングス株式会社,,株式会社,埼玉県,春日部市,中央１丁目４４番地１０,,11,214,3440067,,,,,,,2023-03-02,1,,,,,ショウワホールディングス,0
569,3030001152628,新規,0,2023-03-02,2023-03-02,株式会社風間商事,,株式会社,埼玉県,さいたま市岩槻区,大字真福寺６９番２,,11,110,3390044,,,,,,,2023-03-02,1,,,,,カザマショウジ,0
570,3030001152660,新規,0,2023-03-02,2023-03-02,株式会社きたもと屋,,株式会社,埼玉県,北本市,中央４丁目３６番地２,,11,233,3640031,,,,,,,2023-03-02,1,,,,,キタモトヤ,0
571,3030001152693,新規,0,2023-03-02,2023-03-02,株式会社リープリング,,株式会社,埼玉県,さいたま市南区,文蔵３丁目３５番１６号,,11,108,3360025,,,,,,,2023-03-02,1,,,,,リープリング,0
577,3040001127331,新規,0,2023-03-02,2023-03-02,株式会社関工業,,株式会社,千葉県,東金市,油井１８８番地２８,,12,213,2830804,,,,,,,2023-03-02,1,,,,,セキコウギョウ,0
583,3050001052470,新規,0,2023-03-02,2023-03-02,株式会社エッジネクト,,株式会社,茨城県,守谷市,松ケ丘１丁目１３－１１,,08,224,3020127,,,,,,,2023-03-02,1,,,,,エッジネクト,0
584,3050001052479,新規,0,2023-03-02,2023-03-02,株式会社暁ｌｉｎｅ,,株式会社,茨城県,つくば市,吾妻３丁目１８番地７,,08,220,3050031,,,,,,,2023-03-02,1,,,,,アカツキライン,0
585,3050003007282,新規,0,2023-03-02,2023-03-02,合同会社ｉｒｏｈａ,,合同会社,茨城県,守谷市,薬師台２丁目５番地７,,08,224,3020105,,,,,,,2023-03-02,1,,,,,イロハ,0
586,3060001035747,新規,0,2023-03-02,2023-03-02,株式会社Ｌｉｇｈｔ　Ｓｎｏｗ,,株式会社,栃木県,宇都宮市,春日町３番３０号,,09,201,3210108,,,,,,,2023-03-02,1,,,,,ライトスノー,0
590,3070001040192,新規,0,2023-03-02,2023-03-02,株式会社ＭＡＳＥＣ,,株式会社,群馬県,桐生市,菱町２丁目３５２７番地の４,,10,203,3760001,,,,,,,2023-03-02,1,,,,,マセック,0
593,3080005007518,新規,0,2023-03-02,2023-03-02,一般財団法人静岡ろうきん子ども未来財団,,その他の設立登記法人,静岡県,静岡市葵区,西門町１番２０号,,22,101,4200044,,,,,,,2023-03-02,1,,,,,シズオカロウキンコドモミライ,0
595,3080401026352,新規,0,2023-03-02,2023-03-02,ヤスマルット株式会社,,株式会社,静岡県,浜松市東区,中田町６９０番地の２,,22,132,4350057,,,,,,,2023-03-02,1,,,,,ヤスマルット,0
616,3120001252740,新規,0,2023-03-02,2023-03-02,株式会社西尾オート,,株式会社,大阪府,大阪市旭区,大宮３丁目５番１５号,,27,117,5350002,,,,,,,2023-03-02,1,,,,,ニシオオート,0
617,3120001252815,新規,0,2023-03-02,2023-03-02,男博万株式会社,,株式会社,大阪府,大阪市淀川区,田川北２丁目５－３４・Ａ棟１０２,,27,123,5320021,,,,,,,2023-03-02,1,,,,,ナンバーワン,0
621,3120101067056,新規,0,2023-03-02,2023-03-02,株式会社Ｇｒａｃｅ,,株式会社,大阪府,堺市北区,新金岡町２丁５－１－１８,,27,146,5918021,,,,,,,2023-03-02,1,,,,,グレイス,0
622,3120101067080,新規,0,2023-03-02,2023-03-02,株式会社隈元建設,,株式会社,大阪府,堺市中区,深井北町７２９番地５,,27,142,5998271,,,,,,,2023-03-02,1,,,,,クマモトケンセツ,0
626,3120903004520,新規,0,2023-03-02,2023-03-02,合同会社ハッピースペース,,合同会社,大阪府,豊中市,曽根東町５丁目７－１,,27,203,5610802,,,,,,,2023-03-02,1,,,,,ハッピースペース,0
627,3122001036751,新規,0,2023-03-02,2023-03-02,株式会社仙貫興業,,株式会社,大阪府,東大阪市,三ノ瀬１丁目９－４三ノ瀬パークハイツ２０２,,27,227,5770849,,,,,,,2023-03-02,1,,,,,センガンコウギョウ,0
629,3130001073764,新規,0,2023-03-02,2023-03-02,京ｄｅリンク株式会社,,株式会社,京都府,京都市下京区,七条通油小路東入大黒町２２７番地第２キョートビル４０２,,26,106,6008223,,,,,,,2023-03-02,1,,,,,キョウデリンク,0
630,3130001073772,新規,0,2023-03-02,2023-03-02,株式会社ＨＯＵＳＥ　ＬＡＮＤ,,株式会社,京都府,乙訓郡大山崎町,字大山崎小字鏡田２６番地１４,,26,303,6180071,,,,,,,2023-03-02,1,,,,,ハウスランド,0
631,3130001073780,新規,0,2023-03-02,2023-03-02,株式会社ユリイカ,,株式会社,京都府,向日市,物集女町クヅ子５番地ハイツグレースメイト１０１,,26,208,6170001,,,,,,,2023-03-02,1,,,,,ユリイカ,0
632,3130001073789,新規,0,2023-03-02,2023-03-02,株式会社ＦＤクリエイト,,株式会社,京都府,京都市下京区,中堂寺粟田町９３,,26,106,6008815,,,,,,,2023-03-02,1,,,,,エフディクリエイト,0
638,3140001129268,新規,0,2023-03-02,2023-03-02,株式会社ＮＡＶＹ,,株式会社,兵庫県,神戸市北区,中里町２丁目２６番地の９,,28,109,6511103,,,,,,,2023-03-02,1,,,,,ネイビー,0
644,3170001017494,新規,0,2023-03-02,2023-03-02,株式会社ナル,,株式会社,和歌山県,田辺市,高雄３丁目１５番２２号,,30,206,6460028,,,,,,,2023-03-02,1,,,,,ナル,0
645,3170003001843,新規,0,2023-03-02,2023-03-02,合同会社和衷,,合同会社,和歌山県,海南市,重根２１４８番地２５,,30,202,6420023,,,,,,,2023-03-02,1,,,,,ワチュウ,0
652,3180001155137,新規,0,2023-03-02,2023-03-02,株式会社エンジェルジャパン,,株式会社,愛知県,名古屋市熱田区,六野２丁目６神宮東パークハイツ３０棟１０５号室,,23,109,4560023,,,,,,,2023-03-02,1,,,,,エンジェルジャパン,0
653,3180001155186,新規,0,2023-03-02,2023-03-02,株式会社仲真,,株式会社,愛知県,清須市,助七美里２２番地,,23,233,4520902,,,,,,,2023-03-02,1,,,,,ナカシン,0
668,3200001041004,新規,0,2023-03-02,2023-03-02,弘友クレーン株式会社,,株式会社,岐阜県,各務原市,鵜沼大伊木町６丁目７６番地５,,21,213,5090144,,,,,,,2023-03-02,1,,,,,コウユウクレーン,0
669,3200001041029,新規,0,2023-03-02,2023-03-02,株式会社五藤建設,,株式会社,岐阜県,岐阜市,水海道３丁目１７番１０号,,21,201,5008223,,,,,,,2023-03-02,1,,,,,ゴトウケンセツ,0
670,3200001041037,新規,0,2023-03-02,2023-03-02,株式会社みき,,株式会社,岐阜県,大垣市,上面２丁目５７番地６,,21,202,5030817,,,,,,,2023-03-02,1,,,,,ミキ,0
671,3200003005881,新規,0,2023-03-02,2023-03-02,合同会社タイトエンド,,合同会社,岐阜県,関市,豊岡町４丁目３番４３号,,21,205,5013916,,,,,,,2023-03-02,1,,,,,タイトエンド,0
674,3210001019247,新規,0,2023-03-02,2023-03-02,株式会社前田農場,,株式会社,福井県,福井市,高木町第１０号２１番地,,18,201,9100806,,,,,,,2023-03-02,1,,,,,マエダノウジョウ,0
677,3230001019732,新規,0,2023-03-02,2023-03-02,株式会社ランカ,,株式会社,富山県,富山市,牛島町２３番１５－５０１号レーベン富山,,16,201,9300858,,,,,,,2023-03-02,1,,,,,ランカ,0
679,3240001061139,新規,0,2023-03-02,2023-03-02,株式会社エステイトネクスト,,株式会社,広島県,広島市佐伯区,五月が丘２丁目１０番４１号,,34,108,7315101,,,,,,,2023-03-02,1,,,,,エステイトネクスト,0
688,3260001037681,新規,0,2023-03-02,2023-03-02,株式会社白石塗装,,株式会社,岡山県,玉野市,和田３丁目３８番２６号,,33,204,7060021,,,,,,,2023-03-02,1,,,,,シライシトソウ,0
690,3280001008887,新規,0,2023-03-02,2023-03-02,株式会社Ｍｕｉ,,株式会社,島根県,邑智郡邑南町,矢上３１１９番地３,,32,449,6960103,,,,,,,2023-03-02,1,,,,,ミューイ,0
698,3290001100726,新規,0,2023-03-02,2023-03-02,小笠原工業株式会社,,株式会社,福岡県,福岡市西区,小戸１丁目３５番７－３０６号,,40,135,8190001,,,,,,,2023-03-02,1,,,,,オガサワラコウギョウ,0
699,3290001100742,新規,0,2023-03-02,2023-03-02,ＴＭ商会株式会社,,株式会社,福岡県,久留米市,安武町住吉３４９番地,,40,203,8300078,,,,,,,2023-03-02,1,,,,,ティーエムショウカイ,0
700,3290001100767,新規,0,2023-03-02,2023-03-02,ＭＶＳ株式会社,,株式会社,福岡県,福岡市中央区,荒戸１丁目１１番１０－５０６号,,40,133,8100062,,,,,,,2023-03-02,1,,,,,エムブイエス,0
701,3290001100783,新規,0,2023-03-02,2023-03-02,株式会社エムジークリエイト,,株式会社,福岡県,福岡市城南区,荒江１丁目２番１号,,40,136,8140101,,,,,,,2023-03-02,1,,,,,エムジークリエイト,0
707,3290003013595,新規,0,2023-03-02,2023-03-02,西電テック合同会社,,合同会社,福岡県,福岡市博多区,博多駅南１丁目１１番２７号,,40,132,8120016,,,,,,,2023-03-02,1,,,,,ニシデンテック,0
708,3290005018964,新規,0,2023-03-02,2023-03-02,一般社団法人ＡＩラップ工法協会,,その他の設立登記法人,福岡県,福岡市博多区,住吉３丁目９番１号,,40,132,8120018,,,,,,,2023-03-02,1,,,,,アイラップコウホウキョウカイ,0
709,3290801029314,新規,0,2023-03-02,2023-03-02,株式会社ＡＫＩＴＡ,,株式会社,福岡県,田川市,大字伊田７６番地ＭＫハイツ伊田Ｉ－Ｃ－１０,00129589,40,206,8250002,,,,,,,2023-03-02,1,,,,,アキタ,0
710,3290801029322,新規,0,2023-03-02,2023-03-02,株式会社リノベ福岡,,株式会社,福岡県,直方市,溝堀１丁目５番１号,,40,204,8220013,,,,,,,2023-03-02,1,,,,,リノベフクオカ,0
711,3310001018296,新規,0,2023-03-02,2023-03-02,株式会社福志工業,,株式会社,長崎県,松浦市,福島町浅谷免８９９番地１,,42,208,8480404,,,,,,,2023-03-02,1,,,,,,0
718,3330001030646,新規,0,2023-03-02,2023-03-02,株式会社ＡｌｐｈａＢＥＴ,,株式会社,熊本県,熊本市東区,長嶺南７丁目１９番１０－４０１号,,43,102,8618039,,,,,,,2023-03-02,1,,,,,アルファベット,0
719,3330001030654,新規,0,2023-03-02,2023-03-02,株式会社神田組,,株式会社,熊本県,熊本市西区,上代１０丁目９番１５－１号,,43,103,8600068,,,,,,,2023-03-02,1,,,,,カンダグミ,0
721,3340001025397,新規,0,2023-03-02,2023-03-02,株式会社マジックシステム,,株式会社,鹿児島県,鹿児島市,清水町１２番３５号,,46,201,8920802,,,,,,,2023-03-02,1,,,,,マジックシステム,0
722,3340001025406,新規,0,2023-03-02,2023-03-02,株式会社共建,,株式会社,鹿児島県,鹿児島市,星ヶ峯４丁目２番１１号,,46,201,8910102,,,,,,,2023-03-02,1,,,,,キョウケン,0
723,3350001018210,新規,0,2023-03-02,2023-03-02,株式会社イロドリ,,株式会社,宮崎県,宮崎市,新別府町前浜１４０１番地３４１,,45,201,8800834,,,,,,,2023-03-02,1,,,,,イロドリ,0
725,3360003012739,新規,0,2023-03-02,2023-03-02,合同会社ＸＹ　ＳＴＵＤＩＯ,,合同会社,沖縄県,浦添市,宮城３丁目２番２－１０３号コーポ松本,,47,208,9012126,,,,,,,2023-03-02,1,,,,,エックスワイスタジオ,0
727,3370001049666,新規,0,2023-03-02,2023-03-02,株式会社いがらし,,株式会社,宮城県,気仙沼市,西八幡町５７番地１,,04,205,9880817,,,,,,,2023-03-02,1,,,,,イガラシ,0
739,3420003002675,新規,0,2023-03-02,2023-03-02,合同会社ＷＴＳ,,合同会社,青森県,青森市,大字幸畑字阿部野１６３番地２８７,,02,201,0300943,,,,,,,2023-03-02,1,,,,,ワタシ,0
741,3430003014777,新規,0,2023-03-02,2023-03-02,合同会社ＪＤ,,合同会社,北海道,札幌市東区,北四十五条東１丁目１番２５号,,01,103,0070845,,,,,,,2023-03-02,1,,,,,ジェイディー,0
745,3470001019485,新規,0,2023-03-02,2023-03-02,株式会社Ｍｉｃｏｒｉエネルギー,,株式会社,香川県,高松市,常磐町１丁目９番地４ＦＴビル５Ｆ,,37,201,7600054,,,,,,,2023-03-02,1,,,,,ミコリエネルギー,0
747,3500001024787,新規,0,2023-03-02,2023-03-02,株式会社Ｏｎｅ　Ｓｔｏｐ　Ｍｅｄｉｃａｌ,,株式会社,愛媛県,松山市,東方町甲７７１－２,,38,201,7911123,,,,,,,2023-03-02,1,,,,,,0
753,3700150114583,新規,0,2023-03-02,2023-03-02,Ｇｕａｎｇｚｈｏｕ　Ｃｉｔｙ　Ｂｕｙｉ　Ｉｎｆｏｒｍａｔｉｏｎ　Ｔｅｃｈｎｏｌｏｇｙ　ＣＯ　Ｌｔｄ,,外国会社等,,,,,,,,中国広東省広州市番禺区鍾村街謝村村漢渓大道中１５７号之一１０１房,00129595,,,,,2023-03-02,1,,,,,コウシユウシフイシンソクカギユウゲンコウシ,0
763,4010001233255,新規,0,2023-03-02,2023-03-02,黒猫株式会社,,株式会社,東京都,千代田区,神田佐久間町３丁目２８星野ビル５０５号室,,13,101,1010025,,,,,,,2023-03-02,1,,,,,クロネコ,0
764,4010001233395,新規,0,2023-03-02,2023-03-02,ウエルシンジャパン株式会社,,株式会社,東京都,千代田区,外神田４丁目１４番２東京タイムズタワー２２０１号,,13,101,1010021,,,,,,,2023-03-02,1,,,,,ウエルシンジャパン,0
766,4010003039956,新規,0,2023-03-02,2023-03-02,合同会社ＰｌｕｓＥｄｕｃａｔｉｏｎｓ,,合同会社,東京都,中央区,銀座１丁目１２番４号Ｎ＆ＥＢＬＤ．６Ｆ,,13,102,1040061,,,,,,,2023-03-02,1,,,,,プラスエデュケーションズ,0
770,4010005036308,新規,0,2023-03-02,2023-03-02,ＲＢソーラージェットホールディングス一般社団法人,,その他の設立登記法人,東京都,中央区,八丁堀４丁目２番１０号ＡＯＪ税理士法人内,,13,102,1040032,,,,,,,2023-03-02,1,,,,,アールビーソーラージェットホールディングス,0
780,4010401172730,新規,0,2023-03-02,2023-03-02,ＳＵＭＳ株式会社,,株式会社,東京都,港区,三田５丁目１１番１０号プロスパー藤和三田２０１,,13,103,1080073,,,,,,,2023-03-02,1,,,,,サムズ,0
781,4010401172846,新規,0,2023-03-02,2023-03-02,株式会社ＷＥＧＤＩＨ,,株式会社,東京都,港区,虎ノ門４丁目１番１号神谷町トラストタワー２３階,,13,103,1050001,,,,,,,2023-03-02,1,,,,,ウェグディ,0
782,4010403029656,新規,0,2023-03-02,2023-03-02,夢前夢ふる里合同会社,,合同会社,東京都,港区,海岸１丁目５番２０号,,13,103,1050022,,,,,,,2023-03-02,1,,,,,ユメサキユメフルサト,0
783,4010501050076,新規,0,2023-03-02,2023-03-02,ｆｅｒｒｅｔｙ株式会社,,株式会社,東京都,台東区,竜泉３丁目４２番５,,13,106,1100012,,,,,,,2023-03-02,1,,,,,フェレティ,0
785,4010601062665,新規,0,2023-03-02,2023-03-02,株式会社セントル,,株式会社,東京都,墨田区,立川３丁目７番１２号３Ｆ,,13,107,1300023,,,,,,,2023-03-02,1,,,,,セントル,0
791,4010901052630,新規,0,2023-03-02,2023-03-02,株式会社イマジナリーアクシス,,株式会社,東京都,世田谷区,上馬３丁目４番１２号,,13,112,1540011,,,,,,,2023-03-02,1,,,,,イマジナリーアクシス,0
800,4011001152809,新規,0,2023-03-02,2023-03-02,ＲＯＵＴＥＥＮ株式会社,,株式会社,東京都,渋谷区,神宮前６丁目２３番４号桑野ビル２階,,13,113,1500001,,,,,,,2023-03-02,1,,,,,ルーティーン,0
805,4011101102011,新規,0,2023-03-02,2023-03-02,株式会社ＷＤＧ　ＪＡＰＡＮ,,株式会社,東京都,新宿区,北新宿３丁目３－１６桂マンション３０６号,,13,104,1690074,,,,,,,2023-03-02,1,,,,,ダブリュディージージャパン,0
809,4011203004015,新規,0,2023-03-02,2023-03-02,ＡＮＩＭＡＮＩＡ合同会社,,合同会社,東京都,中野区,東中野５丁目５番１０－５０４号,,13,114,1640003,,,,,,,2023-03-02,1,,,,,アニマニア,0
812,4011301028493,新規,0,2023-03-02,2023-03-02,株式会社スリーベット,,株式会社,東京都,杉並区,和泉４丁目９番８号,,13,115,1680063,,,,,,,2023-03-02,1,,,,,スリーベット,0
820,4011601026619,新規,0,2023-03-02,2023-03-02,万合天宜株式会社,,株式会社,東京都,練馬区,関町北５丁目６番７号関町マンション４０２Ｃ,,13,120,1770051,,,,,,,2023-03-02,1,,,,,マンゴウテンイ,0
821,4011603003839,新規,0,2023-03-02,2023-03-02,合同会社リンクル,,合同会社,東京都,練馬区,南大泉２丁目２４番１５号,,13,120,1780064,,,,,,,2023-03-02,1,,,,,リンクル,0
823,4011701026048,新規,0,2023-03-02,2023-03-02,株式会社エスコア・コーポレーション,,株式会社,東京都,江戸川区,下篠崎町２０番１０号,,13,123,1330064,,,,,,,2023-03-02,1,,,,,エスコアコーポレーション,0
824,4011703003400,新規,0,2023-03-02,2023-03-02,合同会社みらいプランニング,,合同会社,東京都,江戸川区,東小岩５丁目２４－１１,,13,123,1330052,,,,,,,2023-03-02,1,,,,,ミライプラニング,0
827,4012303001785,新規,0,2023-03-02,2023-03-02,ＮＩＰＰＯＮ　ＥＸＰＯＲＴＳ合同会社,,合同会社,東京都,町田市,木曽東４丁目１１番イ１－３０７号,,13,209,1940036,,,,,,,2023-03-02,1,,,,,ニッポンエクスポーツ,0
828,4012401040231,新規,0,2023-03-02,2023-03-02,株式会社インテグリット,,株式会社,東京都,府中市,是政５丁目７番地の１,,13,206,1830014,,,,,,,2023-03-02,1,,,,,インテグリット,0
835,4020001150441,新規,0,2023-03-02,2023-03-02,株式会社クリーンホーム,,株式会社,神奈川県,横浜市保土ケ谷区,星川２丁目２番１９号,,14,106,2400006,,,,,,,2023-03-02,1,,,,,クリーンホーム,0
836,4020001150466,新規,0,2023-03-02,2023-03-02,株式会社ＬａｓｔＣａｐｓｕｌｅ,,株式会社,神奈川県,川崎市高津区,溝口１丁目１４－８石原ビル１Ｆ、ＯＮＥ内,,14,134,2130001,,,,,,,2023-03-02,1,,,,,ラストカプセル,0
848,4030001152643,新規,0,2023-03-02,2023-03-02,株式会社ＨＡＭＩＤＡＳＨＩ,,株式会社,埼玉県,さいたま市浦和区,高砂４丁目４番１９号ＴＡＣ高砂１Ｆ,,11,107,3300063,,,,,,,2023-03-02,1,,,,,ハミダシ,0
860,4040001127272,新規,0,2023-03-02,2023-03-02,株式会社エアコン職人まるほ,,株式会社,千葉県,柏市,加賀３丁目９－５,,12,217,2770051,,,,,,,2023-03-02,1,,,,,エアコンショクニンマルホ,0
861,4040001127363,新規,0,2023-03-02,2023-03-02,ＧｏＣｏｎｓｔｒｕｃｔｉｏｎ株式会社,,株式会社,千葉県,千葉市中央区,中央３丁目５番７－６０４号,,12,101,2600013,,,,,,,2023-03-02,1,,,,,ゴーコンストラクション,0
867,4070001040175,新規,0,2023-03-02,2023-03-02,株式会社佐藤建築,,株式会社,群馬県,伊勢崎市,茂呂町２丁目３５２２番地３,,10,204,3720034,,,,,,,2023-03-02,1,,,,,サトウケンチク,0
868,4070001040191,新規,0,2023-03-02,2023-03-02,株式会社ＭＡＮＡＢＥＤＥＳＩＧＮ,,株式会社,群馬県,前橋市,関根町７０３番地２,,10,201,3710047,,,,,,,2023-03-02,1,,,,,マナベデザイン,0
876,4080001025489,新規,0,2023-03-02,2023-03-02,株式会社ＭＫ　ｃｏｎｔｅｎｔ　ｃｒｅａｔｉｏｎ,,株式会社,静岡県,静岡市清水区,月見町９番２３号,,22,103,4240853,,,,,,,2023-03-02,1,,,,,エムケーコンテンツクリエイション,0
877,4080101023839,新規,0,2023-03-02,2023-03-02,Ｔｈｉｎｋ株式会社,,株式会社,静岡県,沼津市,大塚１０７４番地の２,,22,203,4100306,,,,,,,2023-03-02,1,,,,,シンク,0
885,4100001036186,新規,0,2023-03-02,2023-03-02,株式会社アイビーラボ,,株式会社,長野県,長野市,松代町西条３７２２番地５,,20,201,3811232,,,,,,,2023-03-02,1,,,,,アイビーラボ,0
889,4110001037332,新規,0,2023-03-02,2023-03-02,株式会社ファミくるケア,,株式会社,新潟県,新潟市中央区,旭町通１番町８２番地３,,15,103,9518122,,,,,,,2023-03-02,1,,,,,ファミクルケア,0
899,4120001252574,新規,0,2023-03-02,2023-03-02,事成株式会社,,株式会社,大阪府,大阪市大正区,三軒家西３丁目４番１６号中山ビル２０５Ａ,,27,108,5510001,,,,,,,2023-03-02,1,,,,,ジセイ,0
900,4120001252789,新規,0,2023-03-02,2023-03-02,株式会社ニューゲート,,株式会社,大阪府,大阪市西区,北堀江１丁目１９番８号四ツ橋ＫＭビル４階,,27,106,5500014,,,,,,,2023-03-02,1,,,,,ニューゲート,0
901,4120001252814,新規,0,2023-03-02,2023-03-02,株式会社ｐａｃｈｉｒａ,,株式会社,大阪府,大阪市西区,南堀江１丁目２５番１２－４０７号,,27,106,5500015,,,,,,,2023-03-02,1,,,,,パキラ,0
902,4120001252822,新規,0,2023-03-02,2023-03-02,株式会社縁幸,,株式会社,大阪府,守口市,大久保町３丁目２－１,,27,209,5700012,,,,,,,2023-03-02,1,,,,,エニシア,0
903,4120001252830,新規,0,2023-03-02,2023-03-02,株式会社ＭＹＫ,,株式会社,大阪府,大阪市北区,梅田１丁目２番２号大阪駅前第２ビル１２－１２,,27,127,5300001,,,,,,,2023-03-02,1,,,,,エムワイケー,0
908,4122001036734,新規,0,2023-03-02,2023-03-02,株式会社ヒトテマ,,株式会社,大阪府,八尾市,南木の本９丁目１２１番３号,,27,212,5810042,,,,,,,2023-03-02,1,,,,,ヒトテマ,0
909,4122001036750,新規,0,2023-03-02,2023-03-02,株式会社ＭＩＲＡＺＯＮＩＮＧ,,株式会社,大阪府,八尾市,太田３丁目１４０－Ｈ,,27,212,5810037,,,,,,,2023-03-02,1,,,,,ミラゾーニング,0
911,4130001073788,新規,0,2023-03-02,2023-03-02,株式会社オフィスキムラ,,株式会社,京都府,京都市山科区,西野小柳町９５番地,,26,110,6078354,,,,,,,2023-03-02,1,,,,,オフィスキムラ,0
916,4140001129259,新規,0,2023-03-02,2023-03-02,株式会社柚波,,株式会社,兵庫県,神戸市西区,平野町福中２１２,,28,111,6512252,,,,,,,2023-03-02,1,,,,,ユズハ,0
919,4150001026199,新規,0,2023-03-02,2023-03-02,株式会社ワンネス,,株式会社,奈良県,大和郡山市,九条町２３１番地１,,29,203,6391001,,,,,,,2023-03-02,1,,,,,ワンネス,0
925,4180001154971,新規,0,2023-03-02,2023-03-02,株式会社ロイス,,株式会社,愛知県,長久手市,打越１０９番地サンメイト１－Ｃ号,,23,238,4801152,,,,,,,2023-03-02,1,,,,,ロイス,0
926,4180001155152,新規,0,2023-03-02,2023-03-02,株式会社ｉｎｇ,,株式会社,愛知県,名古屋市中川区,清川町３丁目１番地,,23,110,4540049,,,,,,,2023-03-02,1,,,,,アイエヌジー,0
927,4180001155160,新規,0,2023-03-02,2023-03-02,株式会社ｌｌｄ,,株式会社,愛知県,名古屋市瑞穂区,大喜町４丁目２７番地の７,,23,108,4670822,,,,,,,2023-03-02,1,,,,,エルエルディー,0
931,4180003024917,新規,0,2023-03-02,2023-03-02,ＬＡＴＴＥ合同会社,,合同会社,愛知県,名古屋市南区,豊２丁目１３番２号（豊田町コーポラス７０２号）,,23,112,4570863,,,,,,,2023-03-02,1,,,,,ラテ,0
939,4190001030197,新規,0,2023-03-02,2023-03-02,株式会社ＳＴ・ＬＩＦＡＣＴ,,株式会社,三重県,松阪市,大石町２０８番地,,24,204,5151205,,,,,,,2023-03-02,1,,,,,エスティリフアクト,0
944,4200005013452,新規,0,2023-03-02,2023-03-02,農事組合法人洲本ファーム釜笛,,その他の設立登記法人,岐阜県,大垣市,釜笛１丁目５９番地,,21,202,5030937,,,,,,,2023-03-02,1,,,,,スモトファームカマフエ,0
945,4210001019246,新規,0,2023-03-02,2023-03-02,株式会社ハピフル,,株式会社,福井県,鯖江市,新横江１丁目２番１７号,,18,207,9160042,,,,,,,2023-03-02,1,,,,,ハピフル,0
953,4260001037680,新規,0,2023-03-02,2023-03-02,株式会社森本設備,,株式会社,岡山県,岡山市北区,今６丁目９番２７号,,33,101,7000975,,,,,,,2023-03-02,1,,,,,モリモトセツビ,0
954,4260001037689,新規,0,2023-03-02,2023-03-02,株式会社輝成建設,,株式会社,岡山県,岡山市南区,南輝２丁目１０番６－１号,,33,104,7028023,,,,,,,2023-03-02,1,,,,,キセイケンセツ,0
957,4280005007538,新規,0,2023-03-02,2023-03-02,一般社団法人大谷ひはやの杜,,その他の設立登記法人,島根県,松江市,玉湯町大谷３０７番地,,32,201,6990205,,,,,,,2023-03-02,1,,,,,オオダニヒハヤノモリ,0
959,4290001100709,新規,0,2023-03-02,2023-03-02,株式会社ＵＴＩＬＥ,,株式会社,福岡県,筑紫野市,上古賀４丁目１番１号,,40,217,8180041,,,,,,,2023-03-02,1,,,,,ユータイル,0
960,4290001100717,新規,0,2023-03-02,2023-03-02,株式会社奧工務店,,株式会社,福岡県,福岡市中央区,大名１丁目９番５０号２Ｆ,,40,133,8100041,,,,,,,2023-03-02,1,,,,,オクコウムテン,0
961,4290001100725,新規,0,2023-03-02,2023-03-02,株式会社ＤＩＧＮＩＴＹ,,株式会社,福岡県,柳川市,大和町中島５８６番地森田アパート３号,,40,207,8390254,,,,,,,2023-03-02,1,,,,,ディグニティ,0
962,4290001100774,新規,0,2023-03-02,2023-03-02,株式会社ＢＡＶＥ,,株式会社,福岡県,福岡市中央区,六本松２丁目３番２１－６１６号,,40,133,8100044,,,,,,,2023-03-02,1,,,,,ベイブ,0
967,4290801029321,新規,0,2023-03-02,2023-03-02,株式会社ビッグウィル,,株式会社,福岡県,北九州市八幡西区,瀬板１丁目２番１４号,,40,109,8070822,,,,,,,2023-03-02,1,,,,,ビッグウィル,0
971,4310005008664,新規,0,2023-03-02,2023-03-02,医療法人とみやす在宅クリニック,,その他の設立登記法人,長崎県,北松浦郡佐々町,羽須和免９５３番地１,,42,391,8570341,,,,,,,2023-03-02,1,,,,,トミヤスザイタククリニック,0
974,4320001019598,新規,0,2023-03-02,2023-03-02,株式会社ｌｏａｍｏｎｄ,,株式会社,大分県,大分市,府内町１丁目６番３６号,,44,201,8700021,,,,,,,2023-03-02,1,,,,,ロアモンド,0
978,4330001030645,新規,0,2023-03-02,2023-03-02,株式会社ソーマッチ,,株式会社,熊本県,熊本市南区,良町２丁目５番１０６号,,43,104,8620969,,,,,,,2023-03-02,1,,,,,ソーマッチ,0
979,4330003009745,新規,0,2023-03-02,2023-03-02,合同会社ＯＭＯＹＡ,,合同会社,熊本県,熊本市中央区,出水５丁目１１番５１号,,43,101,8620941,,,,,,,2023-03-02,1,,,,,オモヤ,0
987,4370001049649,新規,0,2023-03-02,2023-03-02,株式会社Ｏｎｅ　Ｆａｍｉｌｙ,,株式会社,宮城県,仙台市若林区,なないろの里２丁目１４－３,,04,103,9840017,,,,,,,2023-03-02,1,,,,,ワンファミリー,0
988,4370001049673,新規,0,2023-03-02,2023-03-02,株式会社Ｅ’ｓ　ｗｏｒｋｓ,,株式会社,宮城県,多賀城市,東田中２丁目７番９号,,04,209,9850863,,,,,,,2023-03-02,1,,,,,イズワークス,0
991,4380001033528,新規,0,2023-03-02,2023-03-02,株式会社梅之壱,,株式会社,福島県,福島市,宮下町１１番２２号１０３号室,,07,201,9608011,,,,,,,2023-03-02,1,,,,,ウメノイチ,0
1003,4390001017174,新規,0,2023-03-02,2023-03-02,株式会社ＣＯＣＯＭＥＬ　ＦＡＲＭ,,株式会社,山形県,東置賜郡川西町,大字上小松１８１７番地１,,06,382,9990121,,,,,,,2023-03-02,1,,,,,ココメルファーム,0
1007,4400001016166,新規,0,2023-03-02,2023-03-02,株式会社くまプロ農産,,株式会社,岩手県,花巻市,石鳥谷町大瀬川第１１地割１４６番地,,03,205,0283185,,,,,,,2023-03-02,1,,,,,クマプロノウサン,0
1010,4410001013410,新規,0,2023-03-02,2023-03-02,株式会社Ｌａ．ｆ．,,株式会社,秋田県,秋田市,千秋矢留町２番３号オリンピア千秋公園４０２号,,05,201,0100877,,,,,,,2023-03-02,1,,,,,ラエフ,0
1018,4460303000787,新規,0,2023-03-02,2023-03-02,合同会社ポンモイ,,合同会社,北海道,網走市,海岸町５番１－４号,,01,211,0930083,,,,,,,2023-03-02,1,,,,,ポンモイ,0
1021,4470001019484,新規,0,2023-03-02,2023-03-02,株式会社ＷＡＣＯＵサービス,,株式会社,香川県,高松市,伏石町２０８５番地１９,,37,201,7618071,,,,,,,2023-03-02,1,,,,,ワコウサービス,0
1027,4500001024786,新規,0,2023-03-02,2023-03-02,株式会社東商事,,株式会社,愛媛県,松山市,清水町１丁目７番地１０,,38,201,7900823,,,,,,,2023-03-02,1,,,,,ヒガシショウジ,0
1036,5010001233361,新規,0,2023-03-02,2023-03-02,ＧＯＥＮ株式会社,,株式会社,東京都,中央区,八丁堀２丁目４－２－２０１,,13,102,1040032,,,,,,,2023-03-02,1,,,,,ゴエン,0
1040,5010003039930,新規,0,2023-03-02,2023-03-02,ＪＡＰＡＮ　ＣＭＡＳ　ＩＮＳＴＲＵＣＴＯＲＳ　ＡＳＳＯＣＩＡＴＩＯＮ合同会社,,合同会社,東京都,文京区,根津２丁目１１番３号,,13,105,1130031,,,,,,,2023-03-02,1,,,,,ジャパンクマスインストラクターズアソシエーション,0
1042,5010005036298,新規,0,2023-03-02,2023-03-02,一般社団法人ＪＦ１１淀屋橋キャピタル,,その他の設立登記法人,東京都,千代田区,丸の内３丁目１番１号東京共同会計事務所内,,13,101,1000005,,,,,,,2023-03-02,1,,,,,ジェイエフイレブンヨドヤバシキャピタル,0
1049,5010401172770,新規,0,2023-03-02,2023-03-02,株式会社ベアーズキャピタル,,株式会社,東京都,港区,六本木７丁目７－７トライセブンロッポンギ８Ｆ,,13,103,1060032,,,,,,,2023-03-02,1,,,,,ベアーズキャピタル,0
1050,5010401172804,新規,0,2023-03-02,2023-03-02,株式会社ＹＯＡＫＥ,,株式会社,東京都,港区,芝３丁目３２－１０カスタリア芝公園９０４,,13,103,1050014,,,,,,,2023-03-02,1,,,,,ヨアケ,0
1052,5010403029614,新規,0,2023-03-02,2023-03-02,合同会社Ｋａｎｏｎ　Ｗｏｒｋｓ,,合同会社,東京都,港区,浜松町２丁目２番１５号浜松町ダイヤビル２Ｆ,,13,103,1050013,,,,,,,2023-03-02,1,,,,,カノンワークス,0
1061,5010601062689,新規,0,2023-03-02,2023-03-02,株式会社ＨＲＩ,,株式会社,東京都,江東区,新砂１丁目２番１－３０５号,,13,108,1360075,,,,,,,2023-03-02,1,,,,,エイチアールアイ,0
1067,5010901052613,新規,0,2023-03-02,2023-03-02,株式会社シンセティック,,株式会社,東京都,世田谷区,代田６丁目２７番１７号ブライトン下北沢１０２,,13,112,1550033,,,,,,,2023-03-02,1,,,,,シンセティック,0
1079,5011001152840,新規,0,2023-03-02,2023-03-02,株式会社ＬＡＬＡ　ＲＥＳＩＤＥＮＣＥ,,株式会社,東京都,目黒区,青葉台２丁目２１－３,,13,110,1530042,,,,,,,2023-03-02,1,,,,,ララレジデンス,0
1080,5011001152857,新規,0,2023-03-02,2023-03-02,株式会社ｒｅｐ,,株式会社,東京都,渋谷区,恵比寿３丁目１４－３,,13,113,1500013,,,,,,,2023-03-02,1,,,,,レップ,0
1086,5011101101953,新規,0,2023-03-02,2023-03-02,株式会社ビクスホールディングス,,株式会社,東京都,新宿区,西新宿８丁目４番７号,,13,104,1600023,,,,,,,2023-03-02,1,,,,,ビクスホールディングス,0
1095,5011501029002,新規,0,2023-03-02,2023-03-02,ＢＯＮＩＴＡＳ　ＬＩＮＫ株式会社,,株式会社,東京都,北区,滝野川４丁目２７番１１号トップ西巣鴨２１２号室,,13,117,1140023,,,,,,,2023-03-02,1,,,,,ボニータスリンク,0
1104,5012801022167,新規,0,2023-03-02,2023-03-02,株式会社万川集海,,株式会社,東京都,立川市,高松町３丁目２４番１６号高松レジデンス３０１号室,,13,202,1900011,,,,,,,2023-03-02,1,,,,,マンセンシュウカイ,0
1105,5013101009128,新規,0,2023-03-02,2023-03-02,株式会社ＦＩＴ‐Ｒ,,株式会社,東京都,青梅市,今井３丁目２１－１９,,13,205,1980023,,,,,,,2023-03-02,1,,,,,,0
1109,5013303006501,新規,0,2023-03-02,2023-03-02,合同会社Ｍｉｇｈｔｙ　Ｗａｙ,,合同会社,東京都,豊島区,東池袋１丁目１８番１号ＨａｒｅｚａＴｏｗｅｒ２０,,13,116,1700013,,,,,,,2023-03-02,1,,,,,マイティーウェイ,0
1127,5030001152642,新規,0,2023-03-02,2023-03-02,株式会社Ｔｏｓｈｉ　ｓｙｓｔｅｍ,,株式会社,埼玉県,入間郡毛呂山町,目白台４丁目１０番地６,,11,326,3500439,,,,,,,2023-03-02,1,,,,,トシシステム,0
1128,5030001152717,新規,0,2023-03-02,2023-03-02,株式会社ＫＩＮＧ,,株式会社,埼玉県,草加市,新栄１丁目３７番地１３,,11,221,3400056,,,,,,,2023-03-02,1,,,,,キング,0
1130,5030003021291,新規,0,2023-03-02,2023-03-02,合同会社チャートクリエイティブ,,合同会社,埼玉県,草加市,手代３丁目３０－２３,,11,221,3400021,,,,,,,2023-03-02,1,,,,,チャートクリエイティブ,0
1147,5070001040174,新規,0,2023-03-02,2023-03-02,株式会社ｔａｋａｒａ　ＦＡＲＭ　ｃｏｒｐｏｒａｔｉｏｎ,,株式会社,群馬県,太田市,上小林町６８番地１,,10,205,3730024,,,,,,,2023-03-02,1,,,,,タカラファームコーポレーション,0
1148,5070001040190,新規,0,2023-03-02,2023-03-02,株式会社有亜,,株式会社,群馬県,高崎市,筑縄町９番地６セゾンクレールＢ－２号,,10,202,3700075,,,,,,,2023-03-02,1,,,,,ユウア,0
1150,5080001025488,新規,0,2023-03-02,2023-03-02,ＫＵＲＯＣＡ株式会社,,株式会社,静岡県,静岡市葵区,幸庵新田６０番地の２,,22,101,4212117,,,,,,,2023-03-02,1,,,,,クロカ,0
1152,5080103002757,新規,0,2023-03-02,2023-03-02,ａｓｓｉｓｔ合同会社,,合同会社,静岡県,御殿場市,川島田１８１９番地の３２,,22,215,4120045,,,,,,,2023-03-02,1,,,,,アシスト,0
1153,5080401026350,新規,0,2023-03-02,2023-03-02,株式会社アシストワン,,株式会社,静岡県,磐田市,水堀２５５番地,,22,211,4380085,,,,,,,2023-03-02,1,,,,,アシストワン,0
1155,5080403004742,新規,0,2023-03-02,2023-03-02,ケイアイクリエイション合同会社,,合同会社,静岡県,浜松市東区,笠井新田町２４７―２,,22,132,4313105,,,,,,,2023-03-02,1,,,,,ケイアイクリエイション,0
1156,5110001037331,新規,0,2023-03-02,2023-03-02,株式会社ＮＩＳＳＹ,,株式会社,新潟県,新潟市中央区,上所上２丁目１２番２号ロイヤルパレス上所Ｉ４０１号,00129597,15,103,9500992,,,,,,,2023-03-02,1,,,,,ニッシー,0
1161,5120001252796,新規,0,2023-03-02,2023-03-02,瑞洋株式会社,,株式会社,大阪府,大阪市西成区,長橋３丁目６番２６号,,27,122,5570025,,,,,,,2023-03-02,1,,,,,ズイヨウ,0
1162,5120001252805,新規,0,2023-03-02,2023-03-02,株式会社聚和,,株式会社,大阪府,大阪市淀川区,三津屋南２丁目５番１５号,,27,123,5320035,,,,,,,2023-03-02,1,,,,,シュウワ,0
1163,5120001252838,新規,0,2023-03-02,2023-03-02,ＳＷＳシステム株式会社,,株式会社,大阪府,大阪市大正区,千島１丁目１０番１０号エスポワール４３－５０６号,,27,108,5510003,,,,,,,2023-03-02,1,,,,,エスダブリューエスシステム,0
1168,5120003023519,新規,0,2023-03-02,2023-03-02,合同会社Ｓｏｕｔｈ,,合同会社,大阪府,大阪市中央区,本町橋２番２３号第７松屋ビル１２３７号,,27,128,5400029,,,,,,,2023-03-02,1,,,,,サウス,0
1169,5120101067046,新規,0,2023-03-02,2023-03-02,株式会社ＨＩＧＨＧＲＡＮＤ,,株式会社,大阪府,堺市南区,御池台２丁６番８－１０５号,,27,145,5900134,,,,,,,2023-03-02,1,,,,,ハイグランド,0
1170,5120901047180,新規,0,2023-03-02,2023-03-02,株式会社ＤＯＴ２,,株式会社,大阪府,池田市,石橋１丁目９番１３号,,27,204,5630032,,,,,,,2023-03-02,1,,,,,ドットツー,0
1173,5130001073779,新規,0,2023-03-02,2023-03-02,株式会社ゆめのこまち,,株式会社,京都府,京都市上京区,七本松通一条下る三軒町６８番地,,26,102,6028341,,,,,,,2023-03-02,1,,,,,ユメノコマチ,0
1181,5160003002808,新規,0,2023-03-02,2023-03-02,合同会社ａｎｏｔｈｅｒ　ｒｅｆｌｅｃｔｉｏｎ,,合同会社,滋賀県,大津市,伊香立途中町３００番地,,25,201,5200361,,,,,,,2023-03-02,1,,,,,アナザーリフレクション,0
1182,5170001017492,新規,0,2023-03-02,2023-03-02,株式会社Ｂｌｅｓｓｅｄ,,株式会社,和歌山県,和歌山市,小雑賀６３５番地３,,30,201,6410007,,,,,,,2023-03-02,1,,,,,ブレスト,0
1189,5180003024890,新規,0,2023-03-02,2023-03-02,合同会社月雲,,合同会社,愛知県,名古屋市中区,大須２丁目２１番２０号２Ｆ,,23,106,4600011,,,,,,,2023-03-02,1,,,,,ツクモ,0
1190,5180003024899,新規,0,2023-03-02,2023-03-02,Ｋａｒａｍａｎ合同会社,,合同会社,愛知県,岩倉市,下本町丸之内１３４番地２メゾンフローレス３０２号,,23,228,4820005,,,,,,,2023-03-02,1,,,,,カラマン,0
1196,5190001030188,新規,0,2023-03-02,2023-03-02,ラピアス不動産株式会社,,株式会社,三重県,津市,安濃町東観音寺３８４番地３,,24,201,5142326,,,,,,,2023-03-02,1,,,,,ラピアスフドウサン,0
1197,5190003004248,新規,0,2023-03-02,2023-03-02,合同会社スパット,,合同会社,三重県,津市,大里窪田町２６２７番地１０リアン１０２号室,,24,201,5140125,,,,,,,2023-03-02,1,,,,,スパット,0
1200,5200001041019,新規,0,2023-03-02,2023-03-02,彦坂営農株式会社,,株式会社,岐阜県,岐阜市,彦坂川北８６番地１,,21,201,5011103,,,,,,,2023-03-02,1,,,,,ヒコサカエイノウ,0
1201,5200001041027,新規,0,2023-03-02,2023-03-02,株式会社セントレ,,株式会社,岐阜県,岐阜市,金町６丁目２１岐阜ステーションビル３０４,,21,201,5008842,,,,,,,2023-03-02,1,,,,,セントレ,0
1202,5200003005871,新規,0,2023-03-02,2023-03-02,合同会社リボンワークス,,合同会社,岐阜県,各務原市,鵜沼三ツ池町５丁目２３６番地７,,21,213,5090146,,,,,,,2023-03-02,1,,,,,リボンワークス,0
1203,5210001019245,新規,0,2023-03-02,2023-03-02,株式会社Ｒ．Ｇ工業,,株式会社,福井県,吉田郡永平寺町,松岡葵１丁目８０番地１,,18,322,9101132,,,,,,,2023-03-02,1,,,,,アールジーコウギョウ,0
1205,5230001019730,新規,0,2023-03-02,2023-03-02,シンコーテック株式会社,,株式会社,富山県,中新川郡立山町,江崎３５番地,,16,323,9303267,,,,,,,2023-03-02,1,,,,,シンコーテック,0
1206,5240001061161,新規,0,2023-03-02,2023-03-02,トゥエンティフォー株式会社,,株式会社,広島県,広島市佐伯区,八幡１丁目２１番２４号城山みとＡ棟２０１号室,,34,108,7315116,,,,,,,2023-03-02,1,,,,,トゥエンティフォー,0
1208,5240005015527,新規,0,2023-03-02,2023-03-02,医療法人藤武眼科,,その他の設立登記法人,広島県,広島市安佐南区,伴東７丁目５９番１号,,34,105,7313164,,,,,,,2023-03-02,1,,,,,フジタケガンカ,0
1216,5260001037696,新規,0,2023-03-02,2023-03-02,株式会社妹尾動物病院,,株式会社,岡山県,倉敷市,真備町箭田３１番地５,00129584,33,202,7101301,,,,,,,2023-03-02,1,,,,,セノオドウブツビョウイン,0
1221,5280005007537,新規,0,2023-03-02,2023-03-02,一般社団法人スペシャルオリンピックス日本・島根,,その他の設立登記法人,島根県,雲南市,加茂町宇治３０３番地,,32,209,6991105,,,,,,,2023-03-02,1,,,,,,0
1224,5290001100666,新規,0,2023-03-02,2023-03-02,株式会社かさねホールディングス,,株式会社,福岡県,福岡市中央区,天神４丁目９番１０号,,40,133,8100001,,,,,,,2023-03-02,1,,,,,カサネホールディングス,0
1225,5290001100690,新規,0,2023-03-02,2023-03-02,株式会社Ｙｒｅｉ,,株式会社,福岡県,糟屋郡粕屋町,仲原１丁目１３番１２号,,40,349,8112304,,,,,,,2023-03-02,1,,,,,ワイリー,0
1226,5290001100708,新規,0,2023-03-02,2023-03-02,株式会社グラベント,,株式会社,福岡県,福岡市博多区,住吉３丁目６番６号中川ビル１階,,40,132,8120018,,,,,,,2023-03-02,1,,,,,グラベント,0
1227,5290001100765,新規,0,2023-03-02,2023-03-02,ＡＯＢＩ　ＴＥＣＨ株式会社,,株式会社,福岡県,福岡市南区,井尻４丁目２９－５３ピアジェ井尻１０１,,40,134,8111302,,,,,,,2023-03-02,1,,,,,アオビテック,0
1230,5290003013593,新規,0,2023-03-02,2023-03-02,合同会社メゾン・エポック,,合同会社,福岡県,福岡市西区,愛宕４丁目２４番２４－３０２号,,40,135,8190015,,,,,,,2023-03-02,1,,,,,メゾンエポック,0
1235,5290801029312,新規,0,2023-03-02,2023-03-02,株式会社キメテハココロ,,株式会社,福岡県,田川郡添田町,大字添田１９７９番地１７,,40,602,8240602,,,,,,,2023-03-02,1,,,,,キメテワココロ,0
1236,5290801029320,新規,0,2023-03-02,2023-03-02,株式会社上原技建,,株式会社,福岡県,行橋市,大字矢留９０２番地４,,40,213,8240037,,,,,,,2023-03-02,1,,,,,ウエハラギケン,0
1237,5290801029329,新規,0,2023-03-02,2023-03-02,株式会社古賀屋,,株式会社,福岡県,北九州市八幡東区,枝光３丁目４番３０号,,40,108,8050002,,,,,,,2023-03-02,1,,,,,コガヤ,0
1238,5300003001943,新規,0,2023-03-02,2023-03-02,合同会社ＳｐｒｅａｄＯｕｔ,,合同会社,佐賀県,佐賀市,神野西２丁目２番３３－３０４号,,41,201,8400805,,,,,,,2023-03-02,1,,,,,スプレッドアウト,0
1239,5310001018294,新規,0,2023-03-02,2023-03-02,株式会社レイア,,株式会社,長崎県,長崎市,金屋町１番１７号,,42,201,8500037,,,,,,,2023-03-02,1,,,,,レイア,0
1241,5320003004036,新規,0,2023-03-02,2023-03-02,合同会社村田サイディング,,合同会社,大分県,大分市,横尾東町３丁目１６番１０号,,44,201,8700130,,,,,,,2023-03-02,1,,,,,ムラタサイディング,0
1242,5330001030636,新規,0,2023-03-02,2023-03-02,Ｄｉｓｐｅｎｓａｒｙ　Ｊａｐａｎ株式会社,,株式会社,熊本県,熊本市北区,鶴羽田２丁目１４－２０,,43,105,8615517,,,,,,,2023-03-02,1,,,,,ディスペンサリジャパン,0
1244,5340001025395,新規,0,2023-03-02,2023-03-02,株式会社ＢＬＯＯＭ,,株式会社,鹿児島県,鹿児島市,吉野町３３７３‐２ベルフィオーレ　１０５,,46,201,8920871,,,,,,,2023-03-02,1,,,,,ブルーム,0
1245,5340001025404,新規,0,2023-03-02,2023-03-02,株式会社アショカ,,株式会社,鹿児島県,鹿児島市,草牟田１丁目４番１６号Ａ．Ｋ．Ｋ．ビル１Ｆ,,46,201,8900014,,,,,,,2023-03-02,1,,,,,アショカ,0
1246,5340003004059,新規,0,2023-03-02,2023-03-02,合同会社おでん,,合同会社,鹿児島県,鹿児島市,皇徳寺台２丁目１９－１２－２,,46,201,8910103,,,,,,,2023-03-02,1,,,,,オデン,0
1247,5350001018209,新規,0,2023-03-02,2023-03-02,株式会社ホームスタイルコーポレーション,,株式会社,宮崎県,宮崎市,大塚町大塩道下４６９９番地１ニューカーサコダマＩＩＩ－１０２号,00129599,45,201,8800951,,,,,,,2023-03-02,1,,,,,ホームスタイルコーポレーション,0
1250,5360001031623,新規,0,2023-03-02,2023-03-02,株式会社Ｓａｌｌｙマルシェ,,株式会社,沖縄県,浦添市,西原１丁目１３番８号渡口アパート１０２号室,,47,208,9012101,,,,,,,2023-03-02,1,,,,,サリーマルシェ,0
1252,5360003012737,新規,0,2023-03-02,2023-03-02,合同会社ｆｅｂ．,,合同会社,沖縄県,中頭郡北谷町,伊平１丁目５番８号オーシャンテラスＩＩ５０１,00129600,47,326,9040102,,,,,,,2023-03-02,1,,,,,フェブ,0
1253,5370001049648,新規,0,2023-03-02,2023-03-02,株式会社ひがしやま食未来創生プロジェクト,,株式会社,宮城県,仙台市青葉区,中央２丁目１０番３０号仙台明芳ビル６Ｆ,,04,101,9800021,,,,,,,2023-03-02,1,,,,,ヒガシヤマショクミライソウセイプロジェクト,0
1254,5370001049656,新規,0,2023-03-02,2023-03-02,株式会社Ｒｉｖｅｒ　Ｓｔｏｒａｇｅ,,株式会社,宮城県,黒川郡大和町,まいの１丁目７番地の３Ｍ’ｓ－Ｉ１０３,00129598,04,421,9813419,,,,,,,2023-03-02,1,,,,,リバーストレージ,0
1267,5430001088549,新規,0,2023-03-02,2023-03-02,株式会社ロッソエンタープライズ,,株式会社,北海道,北広島市,希望ヶ丘３丁目１番地４１,,01,234,0611261,,,,,,,2023-03-02,1,,,,,ロッソエンタープライズ,0
1272,5460103001514,新規,0,2023-03-02,2023-03-02,合同会社コーポ芳賀,,合同会社,北海道,帯広市,西十九条南２丁目１９番９号,,01,207,0802469,,,,,,,2023-03-02,1,,,,,コーポハガ,0
1274,5470001019491,新規,0,2023-03-02,2023-03-02,株式会社リアルエステートキング,,株式会社,香川県,高松市,番町５丁目９番１０号,,37,201,7600017,,,,,,,2023-03-02,1,,,,,リアルエステートキング,0
1275,5470001019500,新規,0,2023-03-02,2023-03-02,株式会社Ｔ＆Ｃ,,株式会社,香川県,丸亀市,川西町北３９番地１５,,37,202,7630091,,,,,,,2023-03-02,1,,,,,ティーアンドシー,0
1277,5480001012025,新規,0,2023-03-02,2023-03-02,株式会社エンターラル,,株式会社,徳島県,鳴門市,撫養町南浜字蛭子前西１２０－２,,36,202,7720003,,,,,,,2023-03-02,1,,,,,エンターラル,0
1280,5500003002987,新規,0,2023-03-02,2023-03-02,カリン商事合同会社,,合同会社,愛媛県,松山市,鷹子町７８８番地１,,38,201,7900925,,,,,,,2023-03-02,1,,,,,カリンショウジ,0
1282,5700150114573,新規,0,2023-03-02,2023-03-02,Ａｔｌａｎｔｉｃ　Ｕｎｉｖｅｒｓａｌ　Ｈｏｌｄｉｎｇｓ　Ｌｔｄ,,外国会社等,東京都,港区,白金３丁目１２－６ルーセント白金,,13,103,1080072,Ｕｎｉｔ８，３／Ｆ．，Ｑｗｏｍａｒ　Ｔｒａｄｉｎｇ　Ｃｏｍｐｌｅｘ，Ｂｌａｃｋｂｕｒｎｅ　Ｒｏａｄ，ＰｏｒｔＰｕｒｃｅｌｌ，ＲｏａｄＴｏｗｎ，Ｔｏｒｔｏｌａ，Ｂｒｉｔｉｓｈ　Ｖｉｒｇｉｎ，Ｉｓｌａｎｄ，ＶＧ１１１０,,,,,,2023-03-02,1,,,,,アトランテイツクユニバーサルホールデイングスリミテツド,0
1291,6010001233402,新規,0,2023-03-02,2023-03-02,株式会社テイクシーフーズ,,株式会社,東京都,中央区,築地２丁目１１番１２号１１グリーンパーク銀座デ・プレ１１０１号室,,13,102,1040045,,,,,,,2023-03-02,1,,,,,テイクシーフーズ,0
1294,6010003039962,新規,0,2023-03-02,2023-03-02,合同会社ＤＡＮ,,合同会社,東京都,中央区,新川２丁目２７－５－８０４,,13,102,1040033,,,,,,,2023-03-02,1,,,,,ダン,0
1295,6010101015543,新規,0,2023-03-02,2023-03-02,株式会社スリーウッズ,,株式会社,東京都,八王子市,千人町３丁目１１番２３号,,13,201,1930835,,,,,,,2023-03-02,1,,,,,スリーウッズ,0
1296,6010103002093,新規,0,2023-03-02,2023-03-02,合同会社恭永工業,,合同会社,東京都,八王子市,宮下町８８０番地,,13,201,1920005,,,,,,,2023-03-02,1,,,,,キョウエイコウギョウ,0
1300,6010401172745,新規,0,2023-03-02,2023-03-02,Ｍｉｎｉ　Ｂｉｌｌ株式会社,,株式会社,東京都,港区,三田１丁目２番１８号ＴＴＤビル,,13,103,1080073,,,,,,,2023-03-02,1,,,,,ミニビル,0
1301,6010401172753,新規,0,2023-03-02,2023-03-02,株式会社ＡＩＭＯ　ＰＨＡＲＭＡＣＥＵＴＩＣＡＬ,,株式会社,東京都,港区,六本木７丁目２１－２４ＴＨＥＭＯＤＵＬＥ４０７,,13,103,1060032,,,,,,,2023-03-02,1,,,,,アイモファーマ,0
1304,6010501050090,新規,0,2023-03-02,2023-03-02,泰和煦株式会社,,株式会社,東京都,台東区,台東３丁目２７－７アポロビル１０１,,13,106,1100016,,,,,,,2023-03-02,1,,,,,タイワク,0
1307,6010701043902,新規,0,2023-03-02,2023-03-02,株式会社ＰＳＧ,,株式会社,東京都,品川区,東品川１丁目６番２３号サンイング東品川３０１,,13,109,1400002,,,,,,,2023-03-02,1,,,,,ピーエスジー,0
1314,6011003016373,新規,0,2023-03-02,2023-03-02,ＴＥＤ合同会社,,合同会社,東京都,目黒区,八雲２丁目８－６－４０１,,13,110,1520023,,,,,,,2023-03-02,1,,,,,テッド,0
1330,6011201024434,新規,0,2023-03-02,2023-03-02,連山商事株式会社,,株式会社,東京都,中野区,上高田３丁目１番１１－３０４室,,13,114,1640002,,,,,,,2023-03-02,1,,,,,レンヤマショウジ,0
1333,6011501029001,新規,0,2023-03-02,2023-03-02,潤和株式会社,,株式会社,東京都,北区,十条仲原１丁目３番５号鈴木ビル２０２号室,,13,117,1140031,,,,,,,2023-03-02,1,,,,,ジュンワ,0
1336,6011701026046,新規,0,2023-03-02,2023-03-02,ＧＴＭ実業株式会社,,株式会社,東京都,江戸川区,南葛西２丁目１６番２４ベルセゾン山村２－１０１,,13,123,1340085,,,,,,,2023-03-02,1,,,,,ジーティーエムジツギョウ,0
1344,6013105001823,新規,0,2023-03-02,2023-03-02,一般財団法人科学技術継承財団,,その他の設立登記法人,東京都,青梅市,仲町２９５番地,,13,205,1980082,,,,,,,2023-03-02,1,,,,,カガクギジュツショウケイザイダン,0
1348,6020001150456,新規,0,2023-03-02,2023-03-02,陸洋株式会社,,株式会社,神奈川県,横浜市中区,山下町２２１－１山下町ハイツ５０５号室,,14,104,2310023,,,,,,,2023-03-02,1,,,,,リクヨウ,0
1349,6020001150464,新規,0,2023-03-02,2023-03-02,株式会社リアセス,,株式会社,神奈川県,横浜市西区,浅間町１丁目７－１,,14,103,2200072,,,,,,,2023-03-02,1,,,,,リアセス,0
1362,6030001152542,新規,0,2023-03-02,2023-03-02,株式会社ヴィレクール,,株式会社,埼玉県,八潮市,大字八條２６２７番地,,11,234,3400801,,,,,,,2023-03-02,1,,,,,ヴィレクール,0
1371,6040001127262,新規,0,2023-03-02,2023-03-02,株式会社東城,,株式会社,千葉県,千葉市花見川区,長作町８１６番地４,,12,102,2620044,,,,,,,2023-03-02,1,,,,,トウジョウ,0
1372,6040001127270,新規,0,2023-03-02,2023-03-02,株式会社ＦＩＬＡＮＴＲＯＰＩＡ,,株式会社,千葉県,船橋市,夏見台４丁目８番２１号,,12,204,2730866,,,,,,,2023-03-02,1,,,,,フィラントロピア,0
1383,6080001025487,新規,0,2023-03-02,2023-03-02,ベルテックス株式会社,,株式会社,静岡県,焼津市,大島９９２番地の４,,22,212,4250066,,,,,,,2023-03-02,1,,,,,ベルテックス,0
1385,6080101023820,新規,0,2023-03-02,2023-03-02,株式会社ツバサリゾート開発,,株式会社,静岡県,熱海市,桜木町１番５号,,22,205,4130025,,,,,,,2023-03-02,1,,,,,ツバサリゾートカイハツ,0
1386,6080103002756,新規,0,2023-03-02,2023-03-02,ハイフィールズ合同会社,,合同会社,静岡県,沼津市,高尾台１６番地の１６,,22,203,4100017,,,,,,,2023-03-02,1,,,,,ハイフィールズ,0
1388,6080401026341,新規,0,2023-03-02,2023-03-02,株式会社前嶋圧送,,株式会社,静岡県,浜松市北区,引佐町花平３５７番地の２,,22,135,4312211,,,,,,,2023-03-02,1,,,,,マエシマアッソウ,0
1392,6080403004741,新規,0,2023-03-02,2023-03-02,合同会社ハピネス,,合同会社,静岡県,浜松市浜北区,本沢合７７５番地,,22,136,4340014,,,,,,,2023-03-02,1,,,,,ハピネス,0
1395,6100005012974,新規,0,2023-03-02,2023-03-02,特定非営利活動法人ＮＰＯえんしょく,,その他の設立登記法人,長野県,塩尻市,大字広丘吉田１６１０番地１,,20,215,3990701,,,,,,,2023-03-02,1,,,,,エヌピーオーエンショク,0
1405,6120001252795,新規,0,2023-03-02,2023-03-02,株式会社ルイス,,株式会社,大阪府,大阪市福島区,大開１丁目１番１２－３０５号,,27,103,5530007,,,,,,,2023-03-02,1,,,,,ルイス,0
1406,6120001252812,新規,0,2023-03-02,2023-03-02,株式会社博建装,,株式会社,大阪府,門真市,舟田町５１番１９号,,27,223,5710021,,,,,,,2023-03-02,1,,,,,ヒロシケンソウ,0
1410,6120101067078,新規,0,2023-03-02,2023-03-02,株式会社Ｈａｐｐｙ,,株式会社,大阪府,羽曳野市,西浦５丁目４０２番地の８,,27,222,5830861,,,,,,,2023-03-02,1,,,,,ハッピー,0
1411,6120105009695,新規,0,2023-03-02,2023-03-02,司法書士法人あゆむ,,その他の設立登記法人,大阪府,堺市堺区,中之町東４丁３番５号,,27,141,5900956,,,,,,,2023-03-02,1,,,,,アユム,0
1413,6122001036740,新規,0,2023-03-02,2023-03-02,株式会社岡部組,,株式会社,大阪府,東大阪市,池島町５丁目３番,,27,227,5798064,,,,,,,2023-03-02,1,,,,,オカベグミ,0
1414,6122001036749,新規,0,2023-03-02,2023-03-02,永森商事株式会社,,株式会社,大阪府,東大阪市,森河内東２丁目２１番３６号,,27,227,5770062,,,,,,,2023-03-02,1,,,,,ナガモリショウジ,0
1417,6130001073803,新規,0,2023-03-02,2023-03-02,株式会社かなせい,,株式会社,京都府,京都市伏見区,東柳町５２５番地ラグゼ中書島２１０号,,26,109,6128211,,,,,,,2023-03-02,1,,,,,カナセイ,0
1425,6140001129298,新規,0,2023-03-02,2023-03-02,株式会社Ｎｏｂ,,株式会社,兵庫県,神戸市兵庫区,兵庫町１丁目１番２１号,,28,105,6520813,,,,,,,2023-03-02,1,,,,,ノブ,0
1432,6170001017491,新規,0,2023-03-02,2023-03-02,株式会社和歌山西谷組,,株式会社,和歌山県,和歌山市,三葛５９６番地１,,30,201,6410011,,,,,,,2023-03-02,1,,,,,ワカヤマニシタニグミ,0
1435,6180001155134,新規,0,2023-03-02,2023-03-02,株式会社カネコン,,株式会社,愛知県,あま市,新居屋小船戸２７第ニコーポ村上４０２号室,,23,237,4901105,,,,,,,2023-03-02,1,,,,,カネコン,0
1437,6180003024881,新規,0,2023-03-02,2023-03-02,合同会社Ｙ・Ｓ・Ｒ,,合同会社,愛知県,名古屋市緑区,鳴海町字伝治山１番地の４,,23,114,4580844,,,,,,,2023-03-02,1,,,,,ワイエスアール,0
1443,6190001030195,新規,0,2023-03-02,2023-03-02,雄栄株式会社,,株式会社,三重県,津市,久居新町７４３番地１０,,24,201,5141118,,,,,,,2023-03-02,1,,,,,ユウエイ,0
1448,6200001041018,新規,0,2023-03-02,2023-03-02,ＨＡＲＵＫＡコーポレーション株式会社,,株式会社,岐阜県,岐阜市,上土居２丁目１番１－４０１号,,21,201,5020803,,,,,,,2023-03-02,1,,,,,ハルカコーポレーション,0
1451,6200003005879,新規,0,2023-03-02,2023-03-02,ぶたとら合同会社,,合同会社,岐阜県,瑞穂市,別府８０６番地１,,21,216,5010222,,,,,,,2023-03-02,1,,,,,ブタトラ,0
1455,6210001019244,新規,0,2023-03-02,2023-03-02,Ｔｓ’コーポレーション株式会社,,株式会社,福井県,福井市,菅谷１丁目１番２２号,,18,201,9100034,,,,,,,2023-03-02,1,,,,,ティーズコーポレーション,0
1462,6240001061160,新規,0,2023-03-02,2023-03-02,株式会社シュアテック,,株式会社,広島県,広島市安芸区,畑賀町１０５６番地１,,34,107,7360089,,,,,,,2023-03-02,1,,,,,シュアテック,0
1469,6260001037679,新規,0,2023-03-02,2023-03-02,オーエヌハウス株式会社,,株式会社,岡山県,岡山市北区,畑鮎２１９３番地,,33,101,7012153,,,,,,,2023-03-02,1,,,,,オーエヌハウス,0
1476,6290001100657,新規,0,2023-03-02,2023-03-02,株式会社ＳＡＢＲＯ,,株式会社,福岡県,福岡市中央区,大名１丁目１０番１４号ＭＡＴＣＨビル２Ｆ,,40,133,8100041,,,,,,,2023-03-02,1,,,,,サブロー,0
1477,6290001100698,新規,0,2023-03-02,2023-03-02,株式会社Ｔ‐Ｌａｂ,,株式会社,福岡県,福岡市西区,今宿東３丁目３７－２５,,40,135,8190161,,,,,,,2023-03-02,1,,,,,ティーラボ,0
1478,6290001100723,新規,0,2023-03-02,2023-03-02,株式会社冨安,,株式会社,福岡県,福岡市南区,野多目５丁目２番３０－１０５号,,40,134,8111347,,,,,,,2023-03-02,1,,,,,トミヤス,0
1480,6290801029311,新規,0,2023-03-02,2023-03-02,ＳＯＵＫＥＮ株式会社,,株式会社,福岡県,北九州市八幡西区,相生町９番１３号,,40,109,8060044,,,,,,,2023-03-02,1,,,,,ソウケン,0
1481,6290803004353,新規,0,2023-03-02,2023-03-02,フジタシステムズ合同会社,,合同会社,福岡県,北九州市小倉南区,蜷田若園３丁目５番１１号,,40,107,8020814,,,,,,,2023-03-02,1,,,,,フジタシステムズ,0
1483,6310001018293,新規,0,2023-03-02,2023-03-02,近藤工業株式会社,,株式会社,長崎県,西彼杵郡長与町,丸田郷１３４０－１,,42,307,8512124,,,,,,,2023-03-02,1,,,,,コンドウコウギョウ,0
1484,6310005008662,新規,0,2023-03-02,2023-03-02,医療法人文湛会,,その他の設立登記法人,長崎県,島原市,親和町７番地,,42,203,8550863,,,,,,,2023-03-02,1,,,,,ブンタンカイ,0
1485,6320001019596,新規,0,2023-03-02,2023-03-02,ＢＬＵＥ株式会社,,株式会社,大分県,大分市,大字千歳２６０番地７,,44,201,8700132,,,,,,,2023-03-02,1,,,,,ブルー,0
1487,6330003009743,新規,0,2023-03-02,2023-03-02,合同会社Ｋ,,合同会社,熊本県,熊本市中央区,上通町４番１７号カイツビル２階,,43,101,8600845,,,,,,,2023-03-02,1,,,,,ケー,0
1488,6340001025403,新規,0,2023-03-02,2023-03-02,ウルトラビースト株式会社,,株式会社,鹿児島県,鹿児島市,伊敷台４丁目２番１０号,,46,201,8900007,,,,,,,2023-03-02,1,,,,,ウルトラビースト,0
1490,6350001018216,新規,0,2023-03-02,2023-03-02,株式会社山奈運送,,株式会社,宮崎県,宮崎市,田野町あけぼの２丁目８番地,,45,201,8891703,,,,,,,2023-03-02,1,,,,,ヤマナウンソウ,0
1491,6350003004305,新規,0,2023-03-02,2023-03-02,合同会社結糸,,合同会社,宮崎県,日南市,大字平山２１０８番地３,,45,204,8870033,,,,,,,2023-03-02,1,,,,,ユイト,0
1498,6410001013409,新規,0,2023-03-02,2023-03-02,株式会社大丸美工,,株式会社,秋田県,秋田市,御野場新町１丁目３番１０号,,05,201,0101425,,,,,,,2023-03-02,1,,,,,ダイマルビコウ,0
1504,6430001088572,新規,0,2023-03-02,2023-03-02,株式会社カラフル,,株式会社,北海道,札幌市中央区,南二条西３丁目１３番４号,,01,101,0600062,,,,,,,2023-03-02,1,,,,,カラフル,0
1509,6460001005772,新規,0,2023-03-02,2023-03-02,株式会社オリーブ,,株式会社,北海道,釧路市,愛国東３丁目１番９号,,01,206,0850058,,,,,,,2023-03-02,1,,,,,オリーブ,0
1510,6480001012024,新規,0,2023-03-02,2023-03-02,株式会社飛鳥ホームズ,,株式会社,徳島県,徳島市,応神町東貞方字貞光１９８番地の１,,36,201,7711154,,,,,,,2023-03-02,1,,,,,アスカホームズ,0
1514,6480003001941,新規,0,2023-03-02,2023-03-02,合同会社Ｔ＆Ｒ創建,,合同会社,徳島県,三好郡東みよし町,昼間１７５１番地１Ｔ－ＡＸＩＳＩＩ,00129582,36,489,7712501,,,,,,,2023-03-02,1,,,,,ティーアンドアールソウケン,0
1520,6700150114572,新規,0,2023-03-02,2023-03-02,Ｎａｒｏ　Ｃｏｒｐ．,,外国会社等,,,,,,,,５６６８　Ｐｅｍｂｒｏｏｋｅ　Ｃｒｏｓｓｉｎｇ　Ｗｅｓｔ　Ｂｌｏｏｍｆｉｅｌｄ，ＭＩ　４８３２２,,,,,,2023-03-02,1,,,,,ナロコープ,0
1529,7010001233293,新規,0,2023-03-02,2023-03-02,株式会社中島鉄筋興業,,株式会社,東京都,中央区,月島２丁目１７番１０－１００３号,,13,102,1040052,,,,,,,2023-03-02,1,,,,,ナカジマテッキンコウギョウ,0
1530,7010001233351,新規,0,2023-03-02,2023-03-02,株式会社大菱ホールディングス,,株式会社,東京都,千代田区,紀尾井町４番１号ニューオータニガーデンコート９階,,13,101,1020094,,,,,,,2023-03-02,1,,,,,オオビシホールディングス,0
1531,7010001233401,新規,0,2023-03-02,2023-03-02,株式会社市進コンサルティング,,株式会社,東京都,文京区,本郷５丁目２５番１４号,,13,105,1130033,,,,,,,2023-03-02,1,,,,,イチシンコンサルティング,0
1535,7010005036338,新規,0,2023-03-02,2023-03-02,全国ホテル運営一般社団法人,,その他の設立登記法人,東京都,千代田区,神田須田町１丁目１６番地ＲＡＸＡ神田須田町４階,,13,101,1010041,,,,,,,2023-03-02,1,,,,,ゼンコクホテルウンエイ,0
1536,7010101015542,新規,0,2023-03-02,2023-03-02,株式会社ＰＩＫＯＲＵＡ,,株式会社,東京都,八王子市,万町１２３番地１７,,13,201,1920903,,,,,,,2023-03-02,1,,,,,ピコルア,0
1537,7010103002092,新規,0,2023-03-02,2023-03-02,合同会社Ｔ．４．Ｓ,,合同会社,東京都,八王子市,越野８番地３,,13,201,1920361,,,,,,,2023-03-02,1,,,,,ティーフォーエス,0
1541,7010401172793,新規,0,2023-03-02,2023-03-02,株式会社１．２．３,,株式会社,東京都,港区,六本木５丁目１８－１９グランメール六本木６０８,,13,103,1060032,,,,,,,2023-03-02,1,,,,,ワンツースリー,0
1545,7010403029620,新規,0,2023-03-02,2023-03-02,合同会社東京ＭＥＯ,,合同会社,東京都,港区,南青山３丁目１番３６号青山丸竹ビル６Ｆ,,13,103,1070062,,,,,,,2023-03-02,1,,,,,トウキョウエムイーオー,0
1546,7010403029645,新規,0,2023-03-02,2023-03-02,Ｒｅｎｄｅｒｉｎｇ　Ｃｏｎｓｕｌｔｉｎｇ合同会社,,合同会社,東京都,港区,赤坂２丁目１６―６ＢＩＺＭＡＲＫＳ赤坂,,13,103,1070052,,,,,,,2023-03-02,1,,,,,レンダリングコンサルディング,0
1547,7010405021848,新規,0,2023-03-02,2023-03-02,一般社団法人日本継承支援機構,,その他の設立登記法人,東京都,港区,芝浦１丁目１３番１０号第三東運ビル,,13,103,1050023,,,,,,,2023-03-02,1,,,,,ニホンケイショウシエンキコウ,0
1561,7010905004435,新規,0,2023-03-02,2023-03-02,一般社団法人しごとの一歩,,その他の設立登記法人,東京都,世田谷区,上用賀６丁目１８番１８号,,13,112,1580098,,,,,,,2023-03-02,1,,,,,シゴトノイッポ,0
1564,7011001152839,新規,0,2023-03-02,2023-03-02,株式会社ＧＣ＆Ｒ,,株式会社,東京都,渋谷区,神宮前６丁目２３番４号桑野ビル２階,,13,113,1500001,,,,,,,2023-03-02,1,,,,,ジーシーアンドアール,0
1570,7011305002888,新規,0,2023-03-02,2023-03-02,一般社団法人アースチャイルド,,その他の設立登記法人,東京都,杉並区,高円寺北２丁目２－２０－３０２東雲マンション,,13,115,1660002,,,,,,,2023-03-02,1,,,,,アースチャイルド,0
1586,7012403005857,新規,0,2023-03-02,2023-03-02,高倉合同会社,,合同会社,東京都,府中市,美好町３丁目２０番地の１,,13,206,1830045,,,,,,,2023-03-02,1,,,,,タカクラ,0
1588,7012701017505,新規,0,2023-03-02,2023-03-02,株式会社Ｌ．ＫＩＮＤ,,株式会社,東京都,東村山市,恩多町２丁目３６番地３３,,13,213,1890011,,,,,,,2023-03-02,1,,,,,エルキンド,0
1591,7013101009126,新規,0,2023-03-02,2023-03-02,株式会社光里工業,,株式会社,東京都,青梅市,今井１丁目３３７番地の１０,,13,205,1980023,,,,,,,2023-03-02,1,,,,,ヒカリコウギョウ,0
1598,7020001150430,新規,0,2023-03-02,2023-03-02,株式会社フジマル,,株式会社,神奈川県,川崎市幸区,小向西町１丁目３１番地１２,,14,132,2120004,,,,,,,2023-03-02,1,,,,,フジマル,0
1599,7020001150496,新規,0,2023-03-02,2023-03-02,株式会社ライト,,株式会社,神奈川県,横浜市南区,南太田１丁目６番１５号Ｋ’ｓ南太田２０２号室,,14,105,2320006,,,,,,,2023-03-02,1,,,,,ライト,0
1612,7021003012825,新規,0,2023-03-02,2023-03-02,萬合同会社,,合同会社,神奈川県,座間市,相模が丘２丁目２６－２９,,14,216,2520001,,,,,,,2023-03-02,1,,,,,ヨロズ,0
1617,7030003021273,新規,0,2023-03-02,2023-03-02,合同会社シークリエイト,,合同会社,埼玉県,さいたま市西区,大字宝来５４１番地４,,11,101,3310074,,,,,,,2023-03-02,1,,,,,シークリエイト,0
1624,7040003022080,新規,0,2023-03-02,2023-03-02,合同会社サクセスエージング,,合同会社,千葉県,佐倉市,井野１０５４番地６７,,12,212,2850855,,,,,,,2023-03-02,1,,,,,サクセスエージング,0
1625,7040005021915,新規,0,2023-03-02,2023-03-02,一般社団法人ＫＡＮＭＯ,,その他の設立登記法人,千葉県,流山市,駒木５０１番地の１,,12,220,2700132,,,,,,,2023-03-02,1,,,,,カンモ,0
1628,7050001052467,新規,0,2023-03-02,2023-03-02,天雲株式会社,,株式会社,茨城県,かすみがうら市,宍倉５４２９番地,,08,230,3000121,,,,,,,2023-03-02,1,,,,,テンウン,0
1632,7070001040180,新規,0,2023-03-02,2023-03-02,株式会社ＨＩＫＡＲＩＹＡ,,株式会社,群馬県,高崎市,足門町６８４番地５,,10,202,3703531,,,,,,,2023-03-02,1,,,,,ヒカリヤ,0
1633,7080001025486,新規,0,2023-03-02,2023-03-02,株式会社ＳＡＳ,,株式会社,静岡県,静岡市駿河区,下島１６２番地の１,,22,102,4228037,,,,,,,2023-03-02,1,,,,,エスエーエス,0
1639,7080401026349,新規,0,2023-03-02,2023-03-02,株式会社Ｎ＆ＣＩＴパートナーズ,,株式会社,静岡県,磐田市,福田８０２番地,,22,211,4371203,,,,,,,2023-03-02,1,,,,,エヌアンドシーアイティパートナーズ,0
1643,7080403004740,新規,0,2023-03-02,2023-03-02,合同会社一燈会,,合同会社,静岡県,掛川市,水垂８４番地の６,,22,213,4360061,,,,,,,2023-03-02,1,,,,,イットウカイ,0
1645,7090001018002,新規,0,2023-03-02,2023-03-02,株式会社ニセイ,,株式会社,山梨県,中央市,山之神１５２９番地１６,,19,214,4093845,,,,,,,2023-03-02,1,,,,,ニセイ,0
1649,7100003006903,新規,0,2023-03-02,2023-03-02,コネクト合同会社,,合同会社,長野県,下高井郡野沢温泉村,大字豊郷４３７１－７,,20,563,3892502,,,,,,,2023-03-02,1,,,,,コネクト,0
1659,7120001252794,新規,0,2023-03-02,2023-03-02,瑞祥株式会社,,株式会社,大阪府,大阪市東住吉区,中野１丁目７番９号,,27,121,5460012,,,,,,,2023-03-02,1,,,,,ズイショウ,0
1660,7120001252828,新規,0,2023-03-02,2023-03-02,エヌゼットワイ株式会社,,株式会社,大阪府,大阪市東成区,中道３丁目１３番２１号８０５号室,,27,115,5370025,,,,,,,2023-03-02,1,,,,,エヌゼットワイ,0
1661,7120001252844,新規,0,2023-03-02,2023-03-02,聖＿株式会社,00129602,株式会社,大阪府,大阪市東成区,大今里南３丁目１３－１８ライラックヴィラ大今里３０８号,,27,115,5370013,,,,,,,2023-03-02,1,,,,,セイイク,0
1663,7120003023517,新規,0,2023-03-02,2023-03-02,ＩＷＣ合同会社,,合同会社,大阪府,大阪市北区,中津２丁目６番６－２０９号,,27,127,5310071,,,,,,,2023-03-02,1,,,,,アイダブリューシー,0
1666,7120103005101,新規,0,2023-03-02,2023-03-02,大阪リペア学院合同会社,,合同会社,大阪府,貝塚市,半田１０２２番地２棟３１０号,,27,208,5970033,,,,,,,2023-03-02,1,,,,,オオサカリペアガクイン,0
1669,7120903004517,新規,0,2023-03-02,2023-03-02,合同会社ハニワ,,合同会社,大阪府,高槻市,土室町７４番４号,,27,207,5691147,,,,,,,2023-03-02,1,,,,,ハニワ,0
1672,7122001036748,新規,0,2023-03-02,2023-03-02,株式会社ＬＢ,,株式会社,大阪府,大東市,幸町２３番３６号,,27,218,5740028,,,,,,,2023-03-02,1,,,,,エルビー,0
1675,7130001073760,新規,0,2023-03-02,2023-03-02,株式会社Ｇｏｌｄ　Ｓｅｒｖｉｃｅ,,株式会社,京都府,京都市伏見区,深草北新町６８５番地５,,26,109,6120044,,,,,,,2023-03-02,1,,,,,ゴールドサービス,0
1676,7130001073769,新規,0,2023-03-02,2023-03-02,株式会社ユーマリン７,,株式会社,京都府,京都市左京区,田中大久保町３７番地,,26,103,6068236,,,,,,,2023-03-02,1,,,,,ユーマリンセブン,0
1677,7130001073785,新規,0,2023-03-02,2023-03-02,株式会社ｄ．ｈｏｍｅ,,株式会社,京都府,京都市山科区,大宅古海道町６３番地５グローバル山科４０５号,,26,110,6078177,,,,,,,2023-03-02,1,,,,,ディーホーム,0
1686,7140001129355,新規,0,2023-03-02,2023-03-02,株式会社麟商事,,株式会社,兵庫県,赤穂市,板屋町１８３番地シャトーブルー２０４,,28,212,6780248,,,,,,,2023-03-02,1,,,,,リンショウジ,0
1698,7180001155117,新規,0,2023-03-02,2023-03-02,株式会社ＡＲＴ,,株式会社,愛知県,春日井市,桃山町２丁目４３１番地,,23,206,4860802,,,,,,,2023-03-02,1,,,,,エーアールティー,0
1699,7180001155141,新規,0,2023-03-02,2023-03-02,株式会社ハヤシグループ,,株式会社,愛知県,名古屋市昭和区,阿由知通４丁目６番地（パークホームズ御器所５０５号）,,23,107,4660027,,,,,,,2023-03-02,1,,,,,ハヤシグループ,0
1700,7180003024897,新規,0,2023-03-02,2023-03-02,合同会社Ｓｈｉｎ,,合同会社,愛知県,東海市,名和町東高根７番地４,,23,222,4760002,,,,,,,2023-03-02,1,,,,,シン,0
1706,7190003004246,新規,0,2023-03-02,2023-03-02,ＭＭＫトラスト合同会社,,合同会社,三重県,伊勢市,河崎２丁目１６番２３号,,24,203,5160009,,,,,,,2023-03-02,1,,,,,エムエムケイトラスト,0
1707,7200001041017,新規,0,2023-03-02,2023-03-02,株式会社ＨａＲｕ,,株式会社,岐阜県,本巣郡北方町,北方１７１３番地,,21,421,5010431,,,,,,,2023-03-02,1,,,,,ハル,0
1716,7240001061143,新規,0,2023-03-02,2023-03-02,株式会社ＡＩＴＡＮＴＥ,,株式会社,広島県,広島市安佐北区,落合南１丁目３５番７－１号,,34,106,7391732,,,,,,,2023-03-02,1,,,,,アイタンテ,0
1722,7260001037694,新規,0,2023-03-02,2023-03-02,株式会社カンイチ,,株式会社,岡山県,岡山市北区,寿町４番２号,,33,101,7000025,,,,,,,2023-03-02,1,,,,,カンイチ,0
1725,7280001008891,新規,0,2023-03-02,2023-03-02,株式会社松江湧水の里,,株式会社,島根県,松江市,大井町４５０番地,,32,201,6900832,,,,,,,2023-03-02,1,,,,,マツエユウスイノサト,0
1736,7290001100689,新規,0,2023-03-02,2023-03-02,エムズＡ株式会社,,株式会社,福岡県,福岡市早良区,田村４丁目２４番５７号,,40,137,8140175,,,,,,,2023-03-02,1,,,,,エムズエー,0
1737,7290001100697,新規,0,2023-03-02,2023-03-02,株式会社ＶＯＬＴ,,株式会社,福岡県,福岡市南区,長丘５丁目２７番８号松繁ビル１号,,40,134,8150075,,,,,,,2023-03-02,1,,,,,ボルト,0
1738,7290001100706,新規,0,2023-03-02,2023-03-02,株式会社カナテック,,株式会社,福岡県,春日市,白水ヶ丘６丁目１１１番地１,,40,218,8160845,,,,,,,2023-03-02,1,,,,,カナテック,0
1739,7290001100714,新規,0,2023-03-02,2023-03-02,株式会社シーフェス,,株式会社,福岡県,福岡市早良区,百道１丁目１８番２５号,,40,137,8140006,,,,,,,2023-03-02,1,,,,,シーフェス,0
1740,7290001100747,新規,0,2023-03-02,2023-03-02,河福エンターテイメント株式会社,,株式会社,福岡県,福岡市西区,横浜３丁目３４番５号,,40,135,8190366,,,,,,,2023-03-02,1,,,,,コウフクエンターテイメント,0
1741,7290003013591,新規,0,2023-03-02,2023-03-02,合同会社朝倉米菓組合,,合同会社,福岡県,朝倉市,杷木古賀１８５６番地,,40,228,8381513,,,,,,,2023-03-02,1,,,,,アサクラベイカクミアイ,0
1742,7290005018969,新規,0,2023-03-02,2023-03-02,一般社団法人こどもあそび協議会,,その他の設立登記法人,福岡県,糟屋郡新宮町,大字新宮１１４番地,,40,345,8110115,,,,,,,2023-03-02,1,,,,,コドモアソビキョウギカイ,0
1745,7290801029310,新規,0,2023-03-02,2023-03-02,ＹＯＵエンタープライズ株式会社,,株式会社,福岡県,宮若市,本城１１１０番地１,,40,226,8230003,,,,,,,2023-03-02,1,,,,,ユーエンタープライズ,0
1746,7290801029319,新規,0,2023-03-02,2023-03-02,株式会社ふるさぽ新田原,,株式会社,福岡県,行橋市,大字道場寺１５０２番地８,,40,213,8240026,,,,,,,2023-03-02,1,,,,,フルサポシンデンバル,0
1747,7290801029327,新規,0,2023-03-02,2023-03-02,株式会社嶋津,,株式会社,福岡県,北九州市八幡西区,市瀬１丁目６番４２号,,40,109,8060063,,,,,,,2023-03-02,1,,,,,シマヅ,0
1748,7290801029335,新規,0,2023-03-02,2023-03-02,株式会社Ｒｅａｌｉｚｅ,,株式会社,福岡県,北九州市小倉北区,緑ケ丘１丁目８番３０‐２０１号,,40,106,8030827,,,,,,,2023-03-02,1,,,,,リアライズ,0
1750,7310001018292,新規,0,2023-03-02,2023-03-02,株式会社アイティージー,,株式会社,長崎県,長崎市,三景台町３１番５号,,42,201,8500824,,,,,,,2023-03-02,1,,,,,アイティージー,0
1751,7310005008661,新規,0,2023-03-02,2023-03-02,医療法人慶雄会,,その他の設立登記法人,長崎県,長崎市,田中町７９番地１３,,42,201,8510134,,,,,,,2023-03-02,1,,,,,ケイユウカイ,0
1753,7320005010055,新規,0,2023-03-02,2023-03-02,一般社団法人檜アカデミー,,その他の設立登記法人,大分県,大分市,国分台１７番２号,,44,201,8700863,,,,,,,2023-03-02,1,,,,,ヒノキアカデミー,0
1754,7330001030642,新規,0,2023-03-02,2023-03-02,株式会社樋口畜産,00129583,株式会社,熊本県,天草市,河浦町今田３９０６番地,,43,215,8631201,,,,,,,2023-03-02,1,,,,,ヒグチチクサン,0
1756,7330003009742,新規,0,2023-03-02,2023-03-02,ジェイディーポケット合同会社,,合同会社,熊本県,熊本市東区,湖東３丁目７番１号,,43,102,8620909,,,,,,,2023-03-02,1,,,,,ジェイディーポケット,0
1760,7340001025393,新規,0,2023-03-02,2023-03-02,株式会社湯通堂青果市場,,株式会社,鹿児島県,指宿市,十町２７６９番地,,46,210,8910402,,,,,,,2023-03-02,1,,,,,ユツドウセイカイチバ,0
1761,7340001025402,新規,0,2023-03-02,2023-03-02,株式会社ＫＥＮＳＨＩ,,株式会社,鹿児島県,鹿児島市,春山町１５８０番地２,,46,201,8992704,,,,,,,2023-03-02,1,,,,,ケンシ,0
1765,7350003004304,新規,0,2023-03-02,2023-03-02,合同会社エムズプランニング政貴,,合同会社,宮崎県,都城市,安久町５５９６番地３,,45,202,8850044,,,,,,,2023-03-02,1,,,,,エムズプランニングマサタカ,0
1770,7360001031638,新規,0,2023-03-02,2023-03-02,株式会社そら,,株式会社,沖縄県,中頭郡北中城村,字渡口４７３番地４,,47,327,9012302,,,,,,,2023-03-02,1,,,,,ソラ,0
1774,7370001049654,新規,0,2023-03-02,2023-03-02,株式会社リベルタ,,株式会社,宮城県,宮城郡利府町,森郷字関根４０番地１ラ・カンパネラＩＩＡ２０４,00129587,04,406,9810103,,,,,,,2023-03-02,1,,,,,リベルタ,0
1782,7390001017171,新規,0,2023-03-02,2023-03-02,株式会社ＫＩＵＥＭＯＮ,,株式会社,山形県,尾花沢市,大字鶴巻田５５２番地,,06,212,9994337,,,,,,,2023-03-02,1,,,,,キウエモン,0
1784,7410001013408,新規,0,2023-03-02,2023-03-02,株式会社ステポラ,,株式会社,秋田県,秋田市,中通４丁目１７番８号あっちゃんビル５Ｆ,,05,201,0100001,,,,,,,2023-03-02,1,,,,,ステポラ,0
1788,7430003014781,新規,0,2023-03-02,2023-03-02,合同会社ゼブラ,,合同会社,北海道,札幌市北区,北十一条西１丁目２番１９－２０１号,,01,102,0010011,,,,,,,2023-03-02,1,,,,,ゼブラ,0
1792,7470003002361,新規,0,2023-03-02,2023-03-02,アカイトコーヒージャパン合同会社,,合同会社,香川県,香川郡直島町,２２６９番地,,37,364,7613110,,,,,,,2023-03-02,1,,,,,アカイトコーヒージャパン,0
1821,8010003039952,新規,0,2023-03-02,2023-03-02,合同会社原商,,合同会社,東京都,文京区,千石３丁目１５－６ハイライフ千石４０５,,13,105,1120011,,,,,,,2023-03-02,1,,,,,ハラショウ,0
1824,8010101015541,新規,0,2023-03-02,2023-03-02,株式会社ＰＣＨｏｍｅ,,株式会社,東京都,八王子市,子安町１丁目１５番１号,,13,201,1920904,,,,,,,2023-03-02,1,,,,,ピーシーホーム,0
1828,8010401172768,新規,0,2023-03-02,2023-03-02,株式会社ＹＯＩＨＩ,,株式会社,東京都,港区,南青山３丁目１番３６号青山丸竹ビル６Ｆ,,13,103,1070062,,,,,,,2023-03-02,1,,,,,ヨイヒ,0
1829,8010401172776,新規,0,2023-03-02,2023-03-02,株式会社柳川アセット,,株式会社,東京都,港区,西麻布１丁目２番１２－４０１号,,13,103,1060031,,,,,,,2023-03-02,1,,,,,ヤナガワアセット,0
1835,8010501050089,新規,0,2023-03-02,2023-03-02,ＴＯＰＰＡＮ株式会社,,株式会社,東京都,台東区,台東１丁目５番１号,,13,106,1100016,,,,,,,2023-03-02,1,,,,,トッパン,0
1836,8010503006907,新規,0,2023-03-02,2023-03-02,エムテック合同会社,,合同会社,東京都,台東区,上野３丁目１６番２号天翔上野末広町ビル,,13,106,1100005,,,,,,,2023-03-02,1,,,,,エムテック,0
1842,8010601062661,新規,0,2023-03-02,2023-03-02,株式会社ＭＡＸ東京,,株式会社,東京都,江東区,有明３丁目５番７号ＴＯＣ有明ウェストタワー１７階６号室,,13,108,1350063,,,,,,,2023-03-02,1,,,,,マックストウキョウ,0
1843,8010703006590,新規,0,2023-03-02,2023-03-02,ｍｏｃｏｚｙ　ｍｇｔ．合同会社,,合同会社,東京都,品川区,二葉２丁目４番９号大健荘１階ＲＢ号,,13,109,1420043,,,,,,,2023-03-02,1,,,,,モコジマネージメント,0
1853,8011101102008,新規,0,2023-03-02,2023-03-02,株式会社ポラーナイト,,株式会社,東京都,新宿区,西新宿３丁目３－１３西新宿水間ビル６Ｆ,,13,104,1600023,,,,,,,2023-03-02,1,,,,,ポラーナイト,0
1857,8011303004687,新規,0,2023-03-02,2023-03-02,ＴＡＲＯ合同会社,,合同会社,東京都,杉並区,和田１丁目１３－１２,,13,115,1660012,,,,,,,2023-03-02,1,,,,,タロー,0
1861,8011801042008,新規,0,2023-03-02,2023-03-02,株式会社Ｂ．Ｐ．,,株式会社,東京都,葛飾区,東新小岩８丁目３１番４号,,13,122,1240023,,,,,,,2023-03-02,1,,,,,ビーピー,0
1864,8011805003245,新規,0,2023-03-02,2023-03-02,医療法人社団貴岳会,,その他の設立登記法人,東京都,葛飾区,新小岩２丁目１番２１号東晃ナカジマビル１階,,13,122,1240024,,,,,,,2023-03-02,1,,,,,キガクカイ,0
1866,8012301013333,新規,0,2023-03-02,2023-03-02,株式会社１０ＹＡＲＤＳ,,株式会社,東京都,町田市,高ヶ坂２丁目３６番１４号,,13,209,1940014,,,,,,,2023-03-02,1,,,,,テンヤード,0
1888,8020001150495,新規,0,2023-03-02,2023-03-02,株式会社ＭＫ,,株式会社,神奈川県,横浜市南区,三春台１２番地の５,,14,105,2320002,,,,,,,2023-03-02,1,,,,,エムケー,0
1895,8020003023419,新規,0,2023-03-02,2023-03-02,合同会社ＤＳＰ,,合同会社,神奈川県,横浜市西区,南幸２丁目９－９アネックス横浜３０２号,,14,103,2200005,,,,,,,2023-03-02,1,,,,,ディーエスピー,0
1896,8021001078322,新規,0,2023-03-02,2023-03-02,株式会社ＭＵＧＥＮ,,株式会社,神奈川県,足柄上郡大井町,金子９４５－５,,14,362,2580019,,,,,,,2023-03-02,1,,,,,ムゲン,0
1905,8030001152631,新規,0,2023-03-02,2023-03-02,株式会社ｎｅｘｍｏｏｖ,,株式会社,埼玉県,越谷市,蒲生３丁目１１番１３号,,11,222,3430838,,,,,,,2023-03-02,1,,,,,ネクスムーブ,0
1906,8030001152697,新規,0,2023-03-02,2023-03-02,株式会社大友商会,,株式会社,埼玉県,鶴ヶ島市,大字鶴ヶ丘１２番地７,,11,241,3502204,,,,,,,2023-03-02,1,,,,,オオトモショウカイ,0
1913,8040001127244,新規,0,2023-03-02,2023-03-02,東京製薬株式会社,,株式会社,千葉県,木更津市,かずさ鎌足１丁目１番地１,,12,206,2920818,,,,,,,2023-03-02,1,,,,,トウキョウセイヤク,0
1921,8050001052458,新規,0,2023-03-02,2023-03-02,株式会社キャピタルパートナーズ,,株式会社,茨城県,水戸市,城南２丁目８番３８号,,08,201,3100803,,,,,,,2023-03-02,1,,,,,キャピタルパートナーズ,0
1922,8050003007245,新規,0,2023-03-02,2023-03-02,合同会社スリーチェック,,合同会社,茨城県,龍ケ崎市,佐貫３丁目１４－１３,,08,208,3010032,,,,,,,2023-03-02,1,,,,,スリーチェック,0
1923,8050003007278,新規,0,2023-03-02,2023-03-02,合同会社ハルカ,,合同会社,茨城県,取手市,宮和田２８６１番地エターナル２０１,,08,217,3001514,,,,,,,2023-03-02,1,,,,,ハルカ,0
1927,8070003004843,新規,0,2023-03-02,2023-03-02,合同会社ｇｏｄｄｏｏｒ,,合同会社,群馬県,藤岡市,藤岡１５８８－５４,,10,209,3750024,,,,,,,2023-03-02,1,,,,,ゴッドドア,0
1928,8080001025485,新規,0,2023-03-02,2023-03-02,株式会社ＢＲＩＧＨＴ,,株式会社,静岡県,静岡市清水区,三保１６番地の６,,22,103,4240901,,,,,,,2023-03-02,1,,,,,ブライト,0
1932,8080101023819,新規,0,2023-03-02,2023-03-02,株式会社Ｍ‐ｃｏｒｒｅｃｔ,,株式会社,静岡県,御殿場市,永塚２０３番地の３,,22,215,4120007,,,,,,,2023-03-02,1,,,,,エムコレクト,0
1935,8090001018001,新規,0,2023-03-02,2023-03-02,高橋興業株式会社,,株式会社,山梨県,上野原市,四方津２２５３番地１,,19,212,4090121,,,,,,,2023-03-02,1,,,,,タカハシコウギョウ,0
1940,8110003004995,新規,0,2023-03-02,2023-03-02,合同会社ヨシスケ,,合同会社,新潟県,長岡市,小貫８１２番地,,15,202,9400211,,,,,,,2023-03-02,1,,,,,ヨシスケ,0
1952,8120001252793,新規,0,2023-03-02,2023-03-02,株式会社ＹＵＡ‐ＬＩＮＫ,,株式会社,大阪府,大阪市浪速区,桜川３丁目２番２－５０６号,,27,111,5560022,,,,,,,2023-03-02,1,,,,,ユーアーリンク,0
1953,8120001252843,新規,0,2023-03-02,2023-03-02,株式会社ＹＳＭ　ＪＡＰＡＮ,,株式会社,大阪府,大阪市北区,西天満２丁目１０番２号幸田ビル９０５号室,,27,127,5300047,,,,,,,2023-03-02,1,,,,,ワイエスエムジャパン,0
1958,8120003023532,新規,0,2023-03-02,2023-03-02,合同会社ｍｉｚｏｇｕ,,合同会社,大阪府,守口市,竹町２－１富士林プラザ竹町５番館３０３号室,,27,209,5700086,,,,,,,2023-03-02,1,,,,,ミゾグ,0
1961,8120005023497,新規,0,2023-03-02,2023-03-02,一般財団法人ミス・ユニバース・ジャパン財団,,その他の設立登記法人,大阪府,大阪市福島区,福島７丁目２０番１８－４２０１号,,27,103,5530003,,,,,,,2023-03-02,1,,,,,ミスユニバースジャパンザイダン,0
1969,8122005003669,新規,0,2023-03-02,2023-03-02,一般社団法人ＴＯＲＡＩ,,その他の設立登記法人,大阪府,東大阪市,源氏ケ丘１番１号,,27,227,5770822,,,,,,,2023-03-02,1,,,,,トライ,0
1980,8140005026498,新規,0,2023-03-02,2023-03-02,一般社団法人骨士道,,その他の設立登記法人,兵庫県,芦屋市,岩園町１７番１１号ダイケンコート芦屋Ａ－４,00129585,28,206,6590013,,,,,,,2023-03-02,1,,,,,コツシドウ,0
1984,8160001024875,新規,0,2023-03-02,2023-03-02,塩梅株式会社,,株式会社,滋賀県,大津市,大萱１丁目１６番１６号ヤマヤプラザ１－Ａ,,25,201,5202144,,,,,,,2023-03-02,1,,,,,アンバイ,0
1988,8180001155132,新規,0,2023-03-02,2023-03-02,株式会社わきわきカンパニー,,株式会社,愛知県,名古屋市東区,矢田３丁目１１－３７,,23,102,4610040,,,,,,,2023-03-02,1,,,,,ワキワキカンパニー,0
1989,8180001155140,新規,0,2023-03-02,2023-03-02,株式会社スタートゴール,,株式会社,愛知県,名古屋市昭和区,阿由知通４丁目６番地（パークホームズ御器所５０５号）,,23,107,4660027,,,,,,,2023-03-02,1,,,,,スタートゴール,0
1990,8180001155149,新規,0,2023-03-02,2023-03-02,株式会社進藤金属,,株式会社,愛知県,北名古屋市,久地野安田２５,,23,234,4810012,,,,,,,2023-03-02,1,,,,,シンドウキンゾク,0
1991,8180001155256,新規,0,2023-03-02,2023-03-02,ベンタス株式会社,,株式会社,愛知県,名古屋市中区,錦３丁目６番５号,,23,106,4600003,,,,,,,2023-03-02,1,,,,,ベンタス,0
2002,8200001041024,新規,0,2023-03-02,2023-03-02,ＡＴＥ株式会社,,株式会社,岐阜県,岐阜市,長旗町１丁目１２番地,,21,201,5008177,,,,,,,2023-03-02,1,,,,,エーティーイー,0
2003,8200001041040,新規,0,2023-03-02,2023-03-02,株式会社ＭＡＤＯＧＵＣＨＩ,,株式会社,岐阜県,揖斐郡池田町,沓井９２０番地,,21,404,5032401,,,,,,,2023-03-02,1,,,,,マドグチ,0
2004,8200003005869,新規,0,2023-03-02,2023-03-02,合同会社Ｓｐａｒｋｌｅ,,合同会社,岐阜県,美濃市,俵町２１０２,,21,207,5013725,,,,,,,2023-03-02,1,,,,,スパークル,0
2005,8200003005885,新規,0,2023-03-02,2023-03-02,合同会社ＭａｉｓｏｎＹａｂｕｔａ,,合同会社,岐阜県,安八郡安八町,南今ケ渕５２３－１,,21,383,5030115,,,,,,,2023-03-02,1,,,,,メゾンヤブタ,0
2007,8210001019242,新規,0,2023-03-02,2023-03-02,株式会社エム・アンド・エム,,株式会社,福井県,吉田郡永平寺町,松岡薬師２丁目４１番地,,18,322,9101118,,,,,,,2023-03-02,1,,,,,エムアンドエム,0
2012,8240001061159,新規,0,2023-03-02,2023-03-02,株式会社ＲＥＤＳＯＬＥ,,株式会社,広島県,広島市安佐南区,相田３丁目６７番７号,,34,105,7310141,,,,,,,2023-03-02,1,,,,,レッドソール,0
2014,8240003006038,新規,0,2023-03-02,2023-03-02,合同会社富母里,,合同会社,広島県,廿日市市,宮園上５丁目１番地８,,34,213,7380037,,,,,,,2023-03-02,1,,,,,トンモリ,0
2018,8260001037702,新規,0,2023-03-02,2023-03-02,ｋｏｂｃｈａｓｓ株式会社,,株式会社,岡山県,倉敷市,田ノ上６６５番地７,,33,202,7100831,,,,,,,2023-03-02,1,,,,,コブチャス,0
2026,8290001100688,新規,0,2023-03-02,2023-03-02,株式会社ＢｉｏＲｉｃｅ,,株式会社,福岡県,福岡市中央区,桜坂３丁目１２番９１‐５０２号,,40,133,8100024,,,,,,,2023-03-02,1,,,,,ビオライス,0
2027,8290001100696,新規,0,2023-03-02,2023-03-02,株式会社ヨシコー,,株式会社,福岡県,福岡市西区,戸切３丁目３８番２７号２階,,40,135,8190032,,,,,,,2023-03-02,1,,,,,ヨシコー,0
2028,8290001100713,新規,0,2023-03-02,2023-03-02,株式会社ディーエスジェイ,,株式会社,福岡県,糸島市,篠原西１丁目１７番２－１０３号,,40,230,8191129,,,,,,,2023-03-02,1,,,,,ディーエスジェイ,0
2029,8290001100721,新規,0,2023-03-02,2023-03-02,株式会社レッツスポーツ,,株式会社,福岡県,福岡市博多区,那珂１丁目４番２７号,,40,132,8120893,,,,,,,2023-03-02,1,,,,,レッツスポーツ,0
2030,8290001100746,新規,0,2023-03-02,2023-03-02,株式会社ＬＳラボ,,株式会社,福岡県,福岡市博多区,比恵町３番５号マルカビル４階,,40,132,8120014,,,,,,,2023-03-02,1,,,,,エルエスラボ,0
2031,8290001100770,新規,0,2023-03-02,2023-03-02,ＶＩＶＡ　ＪＡＰＡＮ株式会社,,株式会社,福岡県,福岡市中央区,天神４丁目６番２８号天神ファーストビル７階,,40,133,8100001,,,,,,,2023-03-02,1,,,,,ビバジャパン,0
2034,8290003013608,新規,0,2023-03-02,2023-03-02,合同会社エム・ユーコラボ,,合同会社,福岡県,春日市,春日公園８丁目３６番２－５０６号,,40,218,8160811,,,,,,,2023-03-02,1,,,,,エムユーコラボ,0
2039,8290801029318,新規,0,2023-03-02,2023-03-02,株式会社花山,,株式会社,福岡県,京都郡苅田町,京町２丁目６番地１０,,40,621,8000351,,,,,,,2023-03-02,1,,,,,ハナヤマ,0
2042,8300005007127,新規,0,2023-03-02,2023-03-02,一般社団法人子ども支援センター小鳩マナワオラ会,,その他の設立登記法人,佐賀県,佐賀市,久保泉町大字川久保８１４番地１,,41,201,8490901,,,,,,,2023-03-02,1,,,,,コドモシエンセンターコバトマナワオラカイ,0
2043,8310005008660,新規,0,2023-03-02,2023-03-02,ＮＰＯ法人児童クラブクローバー,,その他の設立登記法人,長崎県,西彼杵郡長与町,高田郷１００６番地３２５,,42,307,8512127,,,,,,,2023-03-02,1,,,,,ジドウクラブクローバー,0
2045,8320001019611,新規,0,2023-03-02,2023-03-02,株式会社西尾ホールディングス,,株式会社,大分県,速見郡日出町,１６６６番地の１,,44,341,8791506,,,,,,,2023-03-02,1,,,,,ニシオホールディングス,0
2046,8330001030641,新規,0,2023-03-02,2023-03-02,株式会社緒方林業,,株式会社,熊本県,菊池市,班蛇口２５１３番地,,43,210,8611671,,,,,,,2023-03-02,1,,,,,オガタリンギョウ,0
2047,8330001030658,新規,0,2023-03-02,2023-03-02,ヴィークレスト株式会社,,株式会社,熊本県,熊本市東区,花立５丁目１番１２号,,43,102,8620918,,,,,,,2023-03-02,1,,,,,ヴィークレスト,0
2048,8340001025401,新規,0,2023-03-02,2023-03-02,株式会社鹿光モールド,,株式会社,鹿児島県,鹿児島市,郡山町３５７６番地３,,46,201,8911105,,,,,,,2023-03-02,1,,,,,ロッコウモールド,0
2049,8340003004064,新規,0,2023-03-02,2023-03-02,合同会社かいず,,合同会社,鹿児島県,奄美市,名瀬幸町１６番１６号２階,,46,222,8940025,,,,,,,2023-03-02,1,,,,,カイズ,0
2051,8350003004303,新規,0,2023-03-02,2023-03-02,合同会社ライフサービスサポート,,合同会社,宮崎県,宮崎市,祇園４丁目９番地１第一押川ビル１０１号,,45,201,8800024,,,,,,,2023-03-02,1,,,,,ライフサービスサポート,0
2054,8370001049629,新規,0,2023-03-02,2023-03-02,株式会社ｔｏｏ　ｍｕｃｈ,,株式会社,宮城県,仙台市若林区,荒町４２番地ラ・テール荒町２０２,,04,103,9840073,,,,,,,2023-03-02,1,,,,,トゥーマッチ,0
2055,8370001049653,新規,0,2023-03-02,2023-03-02,東北マツクラホールディングス株式会社,,株式会社,宮城県,仙台市青葉区,一番町２丁目２番１３号,,04,101,9800811,,,,,,,2023-03-02,1,,,,,トウホクマツクラホールディングス,0
2056,8370001049661,新規,0,2023-03-02,2023-03-02,株式会社紅葉,,株式会社,宮城県,多賀城市,新田字初向８１番地の８,,04,209,9850854,,,,,,,2023-03-02,1,,,,,モミジ,0
2057,8370003006017,新規,0,2023-03-02,2023-03-02,合同会社Ｈｏｎｅｓｔ,,合同会社,宮城県,白石市,福岡蔵本字薬師堂１７７番地,,04,206,9890231,,,,,,,2023-03-02,1,,,,,オネスト,0
2074,8430001088513,新規,0,2023-03-02,2023-03-02,子ども活動株式会社,,株式会社,北海道,札幌市清田区,清田七条１丁目３１番１６号,,01,110,0040847,,,,,,,2023-03-02,1,,,,,コドモカツドウ,0
2082,8470003002360,新規,0,2023-03-02,2023-03-02,合同会社ＭＳＷ,,合同会社,香川県,高松市,香南町横井８２０番地７,,37,201,7611404,,,,,,,2023-03-02,1,,,,,エムエスダブル,0
2083,8480001012022,新規,0,2023-03-02,2023-03-02,株式会社ＺＥＲＯ,,株式会社,徳島県,徳島市,北田宮３丁目４番１３号,,36,201,7700003,,,,,,,2023-03-02,1,,,,,ゼロ,0
2085,8480005006945,新規,0,2023-03-02,2023-03-02,一般社団法人ＫＡＮＮＯＮ,,その他の設立登記法人,徳島県,海部郡海陽町,吉田字西沢４６番地,,36,388,7750308,,,,,,,2023-03-02,1,,,,,カンノン,0
2098,9010005036303,新規,0,2023-03-02,2023-03-02,一般社団法人アマテラス,,その他の設立登記法人,東京都,千代田区,丸の内３丁目１番１号東京共同会計事務所内,,13,101,1000005,,,,,,,2023-03-02,1,,,,,アマテラス,0
2099,9010005036311,新規,0,2023-03-02,2023-03-02,ＲＢソーラースーズホールディングス一般社団法人,,その他の設立登記法人,東京都,中央区,八丁堀４丁目２番１０号ＡＯＪ税理士法人内,,13,102,1040032,,,,,,,2023-03-02,1,,,,,アールビーソーラースーズホールディングス,0
2105,9010401172791,新規,0,2023-03-02,2023-03-02,株式会社ＡＫヘルスフロンティア,,株式会社,東京都,港区,赤坂８丁目２番１６号,,13,103,1070052,,,,,,,2023-03-02,1,,,,,エーケーヘルスフロンティア,0
2106,9010403029635,新規,0,2023-03-02,2023-03-02,合同会社グラジオラス,,合同会社,東京都,港区,南青山３丁目１番３６号青山丸竹ビル６Ｆ,,13,103,1070062,,,,,,,2023-03-02,1,,,,,グラジオラス,0
2108,9010405021854,新規,0,2023-03-02,2023-03-02,一般社団法人こどもＤＸ推進協会,,その他の設立登記法人,東京都,港区,三田３丁目１３番１６号三田４３ＭＴビル３Ｆ,,13,103,1080073,,,,,,,2023-03-02,1,,,,,コドモディーエックススイシンキョウカイ,0
2115,9010703006607,新規,0,2023-03-02,2023-03-02,合同会社栄真,,合同会社,東京都,品川区,南大井４丁目３番１５号－３０１,,13,109,1400013,,,,,,,2023-03-02,1,,,,,エイシン,0
2119,9010901052634,新規,0,2023-03-02,2023-03-02,株式会社ＧＵＭ,,株式会社,東京都,世田谷区,若林５丁目３７番７号マノワール小佐野２０６,,13,112,1540023,,,,,,,2023-03-02,1,,,,,ジーユーエム,0
2125,9011001152944,新規,0,2023-03-02,2023-03-02,株式会社ＬｏＰＡＳ,,株式会社,東京都,渋谷区,渋谷３丁目１６番３号,,13,113,1500002,,,,,,,2023-03-02,1,,,,,ロパス,0
2135,9011105010569,新規,0,2023-03-02,2023-03-02,一般社団法人日本ガストロノミー協会,,その他の設立登記法人,東京都,新宿区,北新宿２丁目２番２０号シャトレサンシャインＧ３０１,,13,104,1690074,,,,,,,2023-03-02,1,,,,,ニホンガストロノミーキョウカイ,0
2145,9012403005863,新規,0,2023-03-02,2023-03-02,合同会社ＨｉｒｏＰｒｏ,,合同会社,東京都,武蔵野市,緑町２丁目３番Ｂ６－９０３号,,13,203,1800012,,,,,,,2023-03-02,1,,,,,ヒロプロ,0
2148,9012701017511,新規,0,2023-03-02,2023-03-02,株式会社石田総合リフォーム,,株式会社,東京都,東村山市,富士見町４丁目２番地６１,,13,213,1890024,,,,,,,2023-03-02,1,,,,,イシダソウゴウリフォーム,0
2150,9013303006497,新規,0,2023-03-02,2023-03-02,合同会社Ｍｉｎｅｒｖａ,,合同会社,東京都,豊島区,千早２丁目３６－８－１０３,,13,116,1710044,,,,,,,2023-03-02,1,,,,,ミネルバ,0
2154,9020001150437,新規,0,2023-03-02,2023-03-02,株式会社パブリック,,株式会社,神奈川県,横浜市中区,初音町３丁目５８番地１マリオン横浜ＩＩ伊勢佐木北２０２,00129588,14,104,2310053,,,,,,,2023-03-02,1,,,,,パブリック,0
2161,9021001078305,新規,0,2023-03-02,2023-03-02,ＯＮＥＮＥＴＷＯＲＫ株式会社,,株式会社,神奈川県,藤沢市,柄沢２丁目１６番地の１５,,14,205,2510003,,,,,,,2023-03-02,1,,,,,,0
2162,9021001078321,新規,0,2023-03-02,2023-03-02,株式会社モトクール,,株式会社,神奈川県,藤沢市,白旗１丁目８番２１号,,14,205,2510051,,,,,,,2023-03-02,1,,,,,モトクール,0
2171,9030001152630,新規,0,2023-03-02,2023-03-02,株式会社ことせん,,株式会社,埼玉県,越谷市,南越谷１丁目１－６０Ａｖａｎｃｅ２１１,,11,222,3430845,,,,,,,2023-03-02,1,,,,,コトセン,0
2172,9030001152663,新規,0,2023-03-02,2023-03-02,株式会社リペアレジン,,株式会社,埼玉県,桶川市,大字坂田１５９７番地の２５,,11,231,3630008,,,,,,,2023-03-02,1,,,,,リペアレジン,0
2173,9030001152696,新規,0,2023-03-02,2023-03-02,栄翔産業株式会社,,株式会社,埼玉県,南埼玉郡宮代町,大字和戸１０６３番地１,,11,442,3450836,,,,,,,2023-03-02,1,,,,,エイショウサンギョウ,0
2181,9040003022079,新規,0,2023-03-02,2023-03-02,合同会社再エネ創見,,合同会社,千葉県,市川市,市川南３丁目１２パークシティ市川Ｂ棟３０７,,12,203,2720033,,,,,,,2023-03-02,1,,,,,サイエネソウケン,0
2183,9050001052457,新規,0,2023-03-02,2023-03-02,株式会社ＩｎｖｅｓＴｒｕｓｔ　Ｔｅｃｈｎｏｌｏｇｉｅｓ,,株式会社,茨城県,ひたちなか市,津田東４丁目５番地３,,08,221,3120036,,,,,,,2023-03-02,1,,,,,インベストラストテクノロジーズ,0
2191,9070001040187,新規,0,2023-03-02,2023-03-02,株式会社明和塗装,,株式会社,群馬県,佐波郡玉村町,大字上之手１６５１番地２,,10,464,3701127,,,,,,,2023-03-02,1,,,,,メイワトソウ,0
2193,9070003004842,新規,0,2023-03-02,2023-03-02,合同会社ＴＩＮＹ　ＰＩＴ,,合同会社,群馬県,太田市,藪塚町２３７８番地２,,10,205,3792301,,,,,,,2023-03-02,1,,,,,タイニーピット,0
2194,9070005010087,新規,0,2023-03-02,2023-03-02,特定非営利活動法人移動支援たすけ愛,,その他の設立登記法人,群馬県,伊勢崎市,連取町１４３０番地５,,10,204,3720812,,,,,,,2023-03-02,1,,,,,イドウシエンタスケアイ,0
2195,9080001025484,新規,0,2023-03-02,2023-03-02,株式会社ＫＯＤＯＮＡ,,株式会社,静岡県,静岡市駿河区,中島９７９番地の２ヴィラサンセール３０Ｃ,,22,102,4228046,,,,,,,2023-03-02,1,,,,,コドナ,0
2196,9080003002936,新規,0,2023-03-02,2023-03-02,Ｎ＆Ｍコンサルティング合同会社,,合同会社,静岡県,静岡市葵区,大岩１丁目４－１５－１,,22,101,4200886,,,,,,,2023-03-02,1,,,,,エヌアンドエムコンサルティング,0
2197,9080101023818,新規,0,2023-03-02,2023-03-02,ＧＬＯＢＡＬ・ＬＩＮＫ株式会社,,株式会社,静岡県,沼津市,岡一色１０４番地の２１,,22,203,4100012,,,,,,,2023-03-02,1,,,,,グローバルリンク,0
2198,9080101023826,新規,0,2023-03-02,2023-03-02,兼豊株式会社,,株式会社,静岡県,裾野市,佐野１１１０番地の２,,22,220,4101118,,,,,,,2023-03-02,1,,,,,カネトヨ,0
2201,9110001037328,新規,0,2023-03-02,2023-03-02,株式会社稲作ほしの,,株式会社,新潟県,三条市,新屋２６０番地,,15,204,9550118,,,,,,,2023-03-02,1,,,,,イナサクホシノ,0
2202,9110003004994,新規,0,2023-03-02,2023-03-02,合同会社ＨＩＲＯＳＥ,,合同会社,新潟県,新発田市,緑町２丁目１８－６－１０,,15,206,9570018,,,,,,,2023-03-02,1,,,,,ヒロセ,0
2207,9120001252834,新規,0,2023-03-02,2023-03-02,株式会社ＴＡＫＡＭＩ,,株式会社,大阪府,大阪市中央区,博労町１丁目９番９－２０１号,,27,128,5410059,,,,,,,2023-03-02,1,,,,,タカミ,0
2211,9120003023515,新規,0,2023-03-02,2023-03-02,Ｖａｎ‐Ｖａｎ合同会社,,合同会社,大阪府,大阪市西成区,山王２丁目１３番２２－３０２号,,27,122,5570001,,,,,,,2023-03-02,1,,,,,バンバン,0
2212,9120005023496,新規,0,2023-03-02,2023-03-02,一般社団法人万博サクヤヒメ会議,,その他の設立登記法人,大阪府,大阪市中央区,徳井町２丁目１番１２号,,27,128,5400025,,,,,,,2023-03-02,1,,,,,バンパクサクヤヒメカイギ,0
2215,9120101067059,新規,0,2023-03-02,2023-03-02,アンリツ建材株式会社,,株式会社,大阪府,堺市南区,宮山台３丁１２番１３号,,27,145,5900101,,,,,,,2023-03-02,1,,,,,アンリツケンザイ,0
2217,9120903004523,新規,0,2023-03-02,2023-03-02,テスカム合同会社,,合同会社,大阪府,吹田市,岸部南２丁目４０番１７号,,27,205,5640011,,,,,,,2023-03-02,1,,,,,テスカム,0
2218,9122001036738,新規,0,2023-03-02,2023-03-02,株式会社オンライズ,,株式会社,大阪府,東大阪市,荒川３丁目２１番１３号,,27,227,5770843,,,,,,,2023-03-02,1,,,,,オンライズ,0
2219,9122001036754,新規,0,2023-03-02,2023-03-02,株式会社ＪＯＧ,,株式会社,大阪府,八尾市,東久宝寺２丁目４番４号,,27,212,5810002,,,,,,,2023-03-02,1,,,,,ジョグ,0
2230,9140001129262,新規,0,2023-03-02,2023-03-02,株式会社西川建築,,株式会社,兵庫県,尼崎市,南武庫之荘８丁目１８番３０号,,28,202,6610033,,,,,,,2023-03-02,1,,,,,ニシカワケンチク,0
2232,9140003018777,新規,0,2023-03-02,2023-03-02,合同会社ＪＯＹＳ　ＦＯＯＤＳ,,合同会社,兵庫県,淡路市,岩屋３２８７－４２,,28,226,6562401,,,,,,,2023-03-02,1,,,,,ジョイズフーズ,0
2233,9170001017497,新規,0,2023-03-02,2023-03-02,株式会社Ｄｃｔ,,株式会社,和歌山県,和歌山市,伝法橋南ノ丁１１番地１－１５０２,,30,201,6408204,,,,,,,2023-03-02,1,,,,,ディーシーティー,0
2246,9190001030201,新規,0,2023-03-02,2023-03-02,株式会社Ｔｈｒｅｅ　Ｂｒｏｔｈｅｒｓ,,株式会社,三重県,伊賀市,大野木１７１７番地,,24,216,5180033,,,,,,,2023-03-02,1,,,,,スリーブラザーズ,0
2251,9200003005876,新規,0,2023-03-02,2023-03-02,合同会社エフ・カンパニー,,合同会社,岐阜県,美濃加茂市,本郷町１丁目４番３０号,,21,211,5050027,,,,,,,2023-03-02,1,,,,,エフカンパニー,0
2252,9210001019241,新規,0,2023-03-02,2023-03-02,株式会社ＢＣＯ,,株式会社,福井県,福井市,西谷１丁目１１２７番地,,18,201,9188023,,,,,,,2023-03-02,1,,,,,ビーシーオー,0
2255,9220001025296,新規,0,2023-03-02,2023-03-02,Ｉ’ｓ株式会社,,株式会社,石川県,金沢市,中央通町１番１８号プレミア金沢中央通・２１２号,,17,201,9200866,,,,,,,2023-03-02,1,,,,,アイズ,0
2264,9240001061141,新規,0,2023-03-02,2023-03-02,株式会社Ａｎｅｌａ,,株式会社,広島県,広島市中区,本川町２丁目１番１６号,,34,101,7300802,,,,,,,2023-03-02,1,,,,,アネラ,0
2265,9240005015523,新規,0,2023-03-02,2023-03-02,宗教法人福山ミッション・シャローム高島チャペル,,その他の設立登記法人,広島県,福山市,田尻町４３３１番地,,34,207,7200203,,,,,,,2023-03-02,1,,,,,フクヤマミッションシャロームタカシマチャペル,0
2270,9260001037684,新規,0,2023-03-02,2023-03-02,株式会社ｂｏｎｂｏｎｂｒｅａｄ．ｂａｋｅｓ,,株式会社,岡山県,総社市,岡谷７番地１,,33,208,7191162,,,,,,,2023-03-02,1,,,,,ボンボンブレッドベイクス,0
2271,9260001037701,新規,0,2023-03-02,2023-03-02,株式会社孝静,,株式会社,岡山県,岡山市北区,北長瀬表町２丁目６番６号,,33,101,7000962,,,,,,,2023-03-02,1,,,,,コウセイ,0
2276,9290001100704,新規,0,2023-03-02,2023-03-02,小笹電気管理株式会社,,株式会社,福岡県,糸島市,板持１０１番地８,,40,230,8191101,,,,,,,2023-03-02,1,,,,,コザサデンキカンリ,0
2277,9290001100712,新規,0,2023-03-02,2023-03-02,株式会社Ｇｌｅｎｎ,,株式会社,福岡県,福岡市博多区,中洲５丁目３番８号アクア博多５Ｆ,,40,132,8100801,,,,,,,2023-03-02,1,,,,,グレン,0
2278,9290001100720,新規,0,2023-03-02,2023-03-02,株式会社アンドパイン,,株式会社,福岡県,福岡市博多区,奈良屋町１３番１４号７５１Ｆビル１階,,40,132,8120023,,,,,,,2023-03-02,1,,,,,アンドパイン,0
2279,9290001100729,新規,0,2023-03-02,2023-03-02,株式会社Ｒｅｚｅｌｌ,,株式会社,福岡県,糟屋郡志免町,別府４丁目１３－１－１０３,,40,343,8112205,,,,,,,2023-03-02,1,,,,,リゼル,0
2280,9290001100753,新規,0,2023-03-02,2023-03-02,株式会社Ｋｎｏｗｌｅｄｇｅ　Ｒｅｗａｒｄ,,株式会社,福岡県,那珂川市,道善１丁目４２番地,,40,231,8111254,,,,,,,2023-03-02,1,,,,,ナレッジリワード,0
2281,9290001100786,新規,0,2023-03-02,2023-03-02,株式会社数珠丸カンパニー,,株式会社,福岡県,福岡市東区,唐原７丁目１６番１号,,40,131,8130001,,,,,,,2023-03-02,1,,,,,ジュジュマルカンパニー,0
2284,9290003013557,新規,0,2023-03-02,2023-03-02,ＮＴＤ合同会社,,合同会社,福岡県,久留米市,東和町４番地５プルミエ東和町５０２号,,40,203,8300035,,,,,,,2023-03-02,1,,,,,エヌティーディー,0
2285,9290003013598,新規,0,2023-03-02,2023-03-02,颯優工業合同会社,,合同会社,福岡県,福岡市西区,野方２丁目３９番３６号－３,,40,135,8190043,,,,,,,2023-03-02,1,,,,,ソウユウコウギョウ,0
2289,9290801029333,新規,0,2023-03-02,2023-03-02,株式会社スリーアローズ,,株式会社,福岡県,行橋市,大字流末１４２９番地,,40,213,8240043,,,,,,,2023-03-02,1,,,,,スリーアローズ,0
2290,9290801029341,新規,0,2023-03-02,2023-03-02,吉田牧場株式会社,,株式会社,福岡県,豊前市,大字青畑６５８番地,,40,214,8280065,,,,,,,2023-03-02,1,,,,,ヨシダボクジョウ,0
2294,9320001019602,新規,0,2023-03-02,2023-03-02,株式会社ピースデコ,,株式会社,大分県,大分市,浜の市２丁目２番２１号,,44,201,8700002,,,,,,,2023-03-02,1,,,,,ピースデコ,0
2295,9330001030640,新規,0,2023-03-02,2023-03-02,株式会社優和マネジメント,,株式会社,熊本県,熊本市西区,二本木４丁目９番４５号,,43,103,8600051,,,,,,,2023-03-02,1,,,,,ユウワマネジメント,0
2304,9410001013414,新規,0,2023-03-02,2023-03-02,株式会社二田電気工事,,株式会社,秋田県,秋田市,飯島道東１丁目１４番３６号,,05,201,0110917,,,,,,,2023-03-02,1,,,,,フタダデンキコウジ,0
2311,9430003014788,新規,0,2023-03-02,2023-03-02,合同会社カンナ・グループ,,合同会社,北海道,札幌市東区,北三十二条東１丁目６番２号,,01,103,0650032,,,,,,,2023-03-02,1,,,,,カンナグループ,0
2315,9450001013914,新規,0,2023-03-02,2023-03-02,株式会社西和,,株式会社,北海道,旭川市,西神楽二線十七号２９８番地の２０,,01,204,0788382,,,,,,,2023-03-02,1,,,,,セイワ,0
2319,9470001019488,新規,0,2023-03-02,2023-03-02,株式会社Ｓｐｅｒａｎｚａ,,株式会社,香川県,高松市,木太町３２３４番地８,,37,201,7600080,,,,,,,2023-03-02,1,,,,,スペランツァ,0
2321,9480001012021,新規,0,2023-03-02,2023-03-02,株式会社和貴,,株式会社,徳島県,鳴門市,大麻町板東字采女２７番地２１,00129601,36,202,7790234,,,,,,,2023-03-02,1,,,,,カズキ,0
