sequenceNumber,corporateNumber,process,correct,updateDate,changeDate,name,nameImageId,kind,prefectureName,cityName,streetNumber,addressImageId,prefectureCode,cityCode,postCode,addressOutside,addressOutsideImageId,closeDate,closeCause,successorCorporateNumber,changeCause,assignmentDate,latest,enName,enPrefectureName,enCityName,enAddressOutside,furigana,hihyoji
8,1010001258783,新規,0,2025-10-06,2025-10-06,ＶｅｒｄｉＳｕｒｇ　Ｉｎｔｅｌｌｉｇｅｎｃｅ株式会社,,株式会社,東京都,中央区,日本橋堀留町１丁目９番１０号日本橋ライフサイエンスビルディング７,,13,102,1030012,,,,,,,2025-10-06,1,,,,,ヴェルディサージインテリジェンス,0
9,1010001258833,新規,0,2025-10-06,2025-10-06,株式会社松井,,株式会社,東京都,千代田区,神田須田町１丁目７－８ＶＯＲＴ秋葉原ＩＶ２Ｆ,,13,101,1010041,,,,,,,2025-10-06,1,,,,,マツイ,0
10,1010001258965,新規,0,2025-10-06,2025-10-06,智能解決方案株式会社,,株式会社,東京都,文京区,千石４丁目１４番９号,,13,105,1120011,,,,,,,2025-10-06,1,,,,,チノウカイケツホウアン,0
11,1010001259039,新規,0,2025-10-06,2025-10-06,株式会社ＭＹｍｅｅ,,株式会社,東京都,中央区,勝どき４丁目６番１,,13,102,1040054,,,,,,,2025-10-06,1,,,,,マイミー,0
12,1010001259096,新規,0,2025-10-06,2025-10-06,株式会社トシックスホールディングス,,株式会社,東京都,中央区,銀座１丁目４番４号,,13,102,1040061,,,,,,,2025-10-06,1,,,,,トシックスホールディングス,0
13,1010001259105,新規,0,2025-10-06,2025-10-06,株式会社ヨシナニ,,株式会社,東京都,中央区,八丁堀３丁目１４番２号東八重洲シティビル１階,,13,102,1040032,,,,,,,2025-10-06,1,,,,,ヨシナニ,0
14,1010001259113,新規,0,2025-10-06,2025-10-06,株式会社Ｓ１,,株式会社,東京都,中央区,銀座８丁目４－２６－６階,,13,102,1040061,,,,,,,2025-10-06,1,,,,,エスワン,0
15,1010001259121,新規,0,2025-10-06,2025-10-06,ＴｅｄｉＬａｂ株式会社,,株式会社,東京都,中央区,日本橋室町１丁目１１番１２号日本橋水野ビル７階,,13,102,1030022,,,,,,,2025-10-06,1,,,,,テディラボ,0
16,1010003048902,新規,0,2025-10-06,2025-10-06,ＭａｃｈＥｄｇｅ　Ｅｎｇｉｎｅｅｒｉｎｇ合同会社,,合同会社,東京都,中央区,日本橋室町１丁目１１番１２号日本橋水野ビル７階,,13,102,1030022,,,,,,,2025-10-06,1,,,,,マッハエッジエンジニアリング,0
18,1010101016892,新規,0,2025-10-06,2025-10-06,株式会社ｉＲａｓｈｉｋｕ,,株式会社,東京都,八王子市,犬目町１２６０番地８,,13,201,1930802,,,,,,,2025-10-06,1,,,,,アイラシク,0
26,1010401193507,新規,0,2025-10-06,2025-10-06,株式会社ＤａｔａＳｔｒａｔｅｇｙ,,株式会社,東京都,港区,虎ノ門５丁目１番４号東都ビル４階,,13,103,1050001,,,,,,,2025-10-06,1,,,,,データストラテジー,0
27,1010401193564,新規,0,2025-10-06,2025-10-06,Ｃｈｅｌｏ株式会社,,株式会社,東京都,港区,赤坂４丁目８番１９号赤坂フロントタウン３階,,13,103,1070052,,,,,,,2025-10-06,1,,,,,シェロ,0
30,1010403036102,新規,0,2025-10-06,2025-10-06,船木パワー合同会社,,合同会社,東京都,港区,新橋３丁目９番１０号天翔新橋ビル７０１号室,,13,103,1050004,,,,,,,2025-10-06,1,,,,,フナキパワー,0
31,1010403036184,新規,0,2025-10-06,2025-10-06,ＪＩＣ　ＩＮＴＥＲＮＡＴＩＯＮＡＬ合同会社,,合同会社,東京都,港区,新橋２丁目２番３号ル・グラシエルＢＬＤＧ２８－４Ｆ,,13,103,1050004,,,,,,,2025-10-06,1,,,,,ジェイアイシーインターナショナル,0
37,1010501054765,新規,0,2025-10-06,2025-10-06,平生健頤株式会社,,株式会社,東京都,台東区,台東１丁目１４番３号２０２室,,13,106,1100016,,,,,,,2025-10-06,1,,,,,ヘイセイケンイ,0
38,1010501054781,新規,0,2025-10-06,2025-10-06,株式会社ｒａｎａ,,株式会社,東京都,台東区,入谷２丁目１４番１号,,13,106,1100013,,,,,,,2025-10-06,1,,,,,ラナ,0
39,1010501054798,新規,0,2025-10-06,2025-10-06,株式会社クローバー,,株式会社,東京都,台東区,東上野２丁目１９番９号,,13,106,1100015,,,,,,,2025-10-06,1,,,,,,0
43,1010601068079,新規,0,2025-10-06,2025-10-06,株式会社ＲｅａｌＤｒｅａｍ,,株式会社,東京都,江東区,東陽３丁目２３番２６号３Ｆ,,13,108,1350016,,,,,,,2025-10-06,1,,,,,リアルドリーム,0
46,1010603011838,新規,0,2025-10-06,2025-10-06,合同会社ＭＵＣＨＡ,,合同会社,東京都,江東区,亀戸２丁目６番６号,,13,108,1360071,,,,,,,2025-10-06,1,,,,,ミュシャ,0
64,1011001172355,新規,0,2025-10-06,2025-10-06,株式会社ｉｎｈｅｒｉｏ,,株式会社,東京都,渋谷区,円山町５番５号Ｎａｖｉ渋谷Ｖ３階,,13,113,1500044,,,,,,,2025-10-06,1,,,,,インヘリオ,0
65,1011001172891,新規,0,2025-10-06,2025-10-06,大成ホールディングス株式会社,,株式会社,東京都,目黒区,碑文谷５丁目２６番８号,,13,110,1520003,,,,,,,2025-10-06,1,,,,,タイセイホールディングス,0
66,1011001172925,新規,0,2025-10-06,2025-10-06,ＧＭＯ　ＴＥＣＨホールディングス株式会社,,株式会社,東京都,渋谷区,桜丘町２６番１号,,13,113,1500031,,,,,,,2025-10-06,1,,,,,ジーエムオーテックホールディングス,0
67,1011003022574,新規,0,2025-10-06,2025-10-06,ＸＩＮＵ　ＰＥＲＦＵＭＥＳ合同会社,,合同会社,東京都,渋谷区,神宮前６丁目２３番４号桑野ビル２階,,13,113,1500001,,,,,,,2025-10-06,1,,,,,シヌパフューム,0
70,1011203004835,新規,0,2025-10-06,2025-10-06,松本工務店合同会社,,合同会社,東京都,中野区,東中野５丁目２９番１２号,,13,114,1640003,,,,,,,2025-10-06,1,,,,,マツモトコウムテン,0
71,1011501032637,新規,0,2025-10-06,2025-10-06,ココノパウンドファクトリー株式会社,,株式会社,東京都,北区,王子５丁目１１番５号,,13,117,1140002,,,,,,,2025-10-06,1,,,,,ココノパウンドファクトリー,0
77,1011801046857,新規,0,2025-10-06,2025-10-06,株式会社サンアロー,,株式会社,東京都,葛飾区,青戸６丁目４番９号,,13,122,1250062,,,,,,,2025-10-06,1,,,,,サンアロー,0
78,1011803007114,新規,0,2025-10-06,2025-10-06,合同会社グレイスケア,,合同会社,東京都,足立区,六町２丁目２番７号,,13,121,1210073,,,,,,,2025-10-06,1,,,,,グレイスケア,0
79,1011803007122,新規,0,2025-10-06,2025-10-06,合同会社Ｈ　ＢＡＴＯＮ,,合同会社,東京都,足立区,千住橋戸町２０番地１５,,13,121,1200038,,,,,,,2025-10-06,1,,,,,エイチバトン,0
81,1012401043674,新規,0,2025-10-06,2025-10-06,株式会社シンシアウェルネス,,株式会社,東京都,稲城市,平尾２丁目３３番地の２,,13,225,2060823,,,,,,,2025-10-06,1,,,,,シンシアウェルネス,0
83,1012701019110,新規,0,2025-10-06,2025-10-06,株式会社さゆら,,株式会社,東京都,西東京市,新町５丁目１６番１０号,,13,229,2020023,,,,,,,2025-10-06,1,,,,,サユラ,0
84,1012801024282,新規,0,2025-10-06,2025-10-06,株式会社スイセイテック,,株式会社,東京都,武蔵村山市,大南５丁目６番地の７,,13,223,2080013,,,,,,,2025-10-06,1,,,,,スイセイテック,0
85,1012803003887,新規,0,2025-10-06,2025-10-06,合同会社新ホーム産業,,合同会社,東京都,国立市,東１丁目４番地の１１,,13,215,1860002,,,,,,,2025-10-06,1,,,,,シンホームサンギョウ,0
89,1013303007899,新規,0,2025-10-06,2025-10-06,合同会社ａｎｎ・Ｃｈａｏ,,合同会社,東京都,豊島区,東池袋２丁目６２番８号ＢＩＧオフィスプラザ池袋１２０６号,,13,116,1700013,,,,,,,2025-10-06,1,,,,,アンチャオ,0
93,1020001165054,新規,0,2025-10-06,2025-10-06,株式会社嶋守建築,,株式会社,神奈川県,横浜市港南区,芹が谷４丁目９番２４号,,14,111,2330006,,,,,,,2025-10-06,1,,,,,シマモリケンチク,0
94,1020001165070,新規,0,2025-10-06,2025-10-06,ＹＭトレーディング株式会社,,株式会社,神奈川県,横浜市保土ケ谷区,峰沢町３１３番地１リステージ横浜ＳＡＫＵＲＡＨＩＬＬＳ３０４号,,14,106,2400061,,,,,,,2025-10-06,1,,,,,ワイエムトレーディング,0
95,1020001165145,新規,0,2025-10-06,2025-10-06,株式会社Ｐｅａｃｅ　Ｒｉｖｅｒ,,株式会社,神奈川県,川崎市宮前区,白幡台２丁目２番地３白幡台住宅３－５０１,,14,136,2160025,,,,,,,2025-10-06,1,,,,,ピースリバー,0
101,1020003029546,新規,0,2025-10-06,2025-10-06,合同会社ステラ,,合同会社,神奈川県,川崎市川崎区,砂子２丁目３番地１２第４０東京ビル地下１階,,14,131,2100006,,,,,,,2025-10-06,1,,,,,ステラ,0
105,1021001086380,新規,0,2025-10-06,2025-10-06,株式会社ＩＳＯＲＡ　ｆａｍｉｌｉａ,,株式会社,神奈川県,平塚市,紅谷町５番１６号,,14,203,2540043,,,,,,,2025-10-06,1,,,,,イソラファミリア,0
106,1021001086397,新規,0,2025-10-06,2025-10-06,Ｄｉｓａｎ株式会社,,株式会社,神奈川県,鎌倉市,常盤１７５番地６,,14,204,2480022,,,,,,,2025-10-06,1,,,,,ディサン,0
107,1021001086406,新規,0,2025-10-06,2025-10-06,株式会社奈可むら,,株式会社,神奈川県,足柄下郡箱根町,二ノ平１１５６番地,,14,382,2500407,,,,,,,2025-10-06,1,,,,,ナカムラ,0
108,1021003016609,新規,0,2025-10-06,2025-10-06,ＹＡＳＩＲ　ＴＲＡＤＩＮＧ合同会社,,合同会社,神奈川県,厚木市,上荻野１３４４番地松本貸家Ｃ－１０２号室,,14,212,2430201,,,,,,,2025-10-06,1,,,,,ヤシルトレーディング,0
111,1030001168964,新規,0,2025-10-06,2025-10-06,ガイドラ株式会社,,株式会社,埼玉県,さいたま市中央区,本町西４丁目１７番２１－７１０号,,11,105,3380004,,,,,,,2025-10-06,1,,,,,ガイドラ,0
112,1030001168980,新規,0,2025-10-06,2025-10-06,株式会社ＧＬＯＢＡＬ　ＩＭＰＥＸ,,株式会社,埼玉県,久喜市,鷲宮中央２丁目５番１８号,,11,232,3400216,,,,,,,2025-10-06,1,,,,,グローバルインペックス,0
113,1030001168989,新規,0,2025-10-06,2025-10-06,株式会社憂,,株式会社,埼玉県,川口市,大字赤山１４１４番地の１２,,11,203,3330825,,,,,,,2025-10-06,1,,,,,ユウ,0
114,1030001169013,新規,0,2025-10-06,2025-10-06,株式会社ｓｕｇａｒ,,株式会社,埼玉県,さいたま市北区,本郷町９７３番地５８,,11,102,3310802,,,,,,,2025-10-06,1,,,,,シュガー,0
115,1030001169046,新規,0,2025-10-06,2025-10-06,ＭＯＪＯ株式会社,,株式会社,埼玉県,越谷市,谷中町２丁目３０１番地,,11,222,3430856,,,,,,,2025-10-06,1,,,,,モジョ,0
121,1030003027771,新規,0,2025-10-06,2025-10-06,シノキホールディングス合同会社,,合同会社,埼玉県,春日部市,豊町４丁目６－７,,11,214,3440066,,,,,,,2025-10-06,1,,,,,シノキホールディングス,0
122,1030003027788,新規,0,2025-10-06,2025-10-06,合同会社Ｄ．Ａｓｓｉｓｔ,,合同会社,埼玉県,蓮田市,藤ノ木４丁目２９番地,,11,238,3490105,,,,,,,2025-10-06,1,,,,,ディーアシスト,0
123,1030003027796,新規,0,2025-10-06,2025-10-06,ＭＳＫ企画合同会社,,合同会社,埼玉県,上尾市,谷津２丁目１－５０－３１小池ビル５Ｆ,,11,219,3620042,,,,,,,2025-10-06,1,,,,,エムスケーキカク,0
124,1030003027805,新規,0,2025-10-06,2025-10-06,合同会社医療未来設計,,合同会社,埼玉県,春日部市,大沼５丁目１１６番地１,,11,214,3440038,,,,,,,2025-10-06,1,,,,,イリョウミライセッケイ,0
135,1040001140765,新規,0,2025-10-06,2025-10-06,株式会社Ａｏｈａｎａ,,株式会社,千葉県,佐倉市,鏑木町５１番地２,,12,212,2850025,,,,,,,2025-10-06,1,,,,,アオハナ,0
140,1040003028538,新規,0,2025-10-06,2025-10-06,合同会社Ｏｗｌｉｃｅ,,合同会社,千葉県,流山市,おおたかの森北２丁目２－１－２０６,,12,220,2700119,,,,,,,2025-10-06,1,,,,,オウリス,0
141,1040003028595,新規,0,2025-10-06,2025-10-06,合同会社Ｔｉｔａｎ,,合同会社,千葉県,千葉市花見川区,幕張本郷１丁目３番３３号キャロットビル幕張７０４号,,12,102,2620033,,,,,,,2025-10-06,1,,,,,タイタン,0
142,1040003028653,新規,0,2025-10-06,2025-10-06,波屋合同会社,,合同会社,千葉県,佐倉市,臼井台１１３－９,,12,212,2850866,,,,,,,2025-10-06,1,,,,,ナミヤ,0
144,1040005022885,新規,0,2025-10-06,2025-10-06,社会福祉法人ハピサポ,,その他の設立登記法人,千葉県,我孫子市,湖北台１丁目１番１３号,,12,222,2701132,,,,,,,2025-10-06,1,,,,,ハピサポ,0
145,1040005022910,新規,0,2025-10-06,2025-10-06,医療法人社団愛翔会,,その他の設立登記法人,千葉県,印西市,内野１丁目５番地２,,12,231,2701347,,,,,,,2025-10-06,1,,,,,シャダンアイショウカイ,0
146,1050001057372,新規,0,2025-10-06,2025-10-06,株式会社ＩＪＡＺ　ＡＵＴＯＳ,,株式会社,茨城県,筑西市,関本肥土６６番地３,,08,227,3080124,,,,,,,2025-10-06,1,,,,,イジャズオート,0
147,1050001057397,新規,0,2025-10-06,2025-10-06,株式会社ＡＸＥＲ,,株式会社,茨城県,古河市,鴻巣９２４―３,,08,204,3060041,,,,,,,2025-10-06,1,,,,,アクサー,0
149,1050003009636,新規,0,2025-10-06,2025-10-06,合同会社ブラッシュ,,合同会社,茨城県,つくば市,二の宮３丁目２１番地２５,,08,220,3050051,,,,,,,2025-10-06,1,,,,,ブラッシュ,0
150,1060001038636,新規,0,2025-10-06,2025-10-06,アルテミス株式会社,,株式会社,栃木県,宇都宮市,西川田本町２丁目６番１８号,,09,201,3210158,,,,,,,2025-10-06,1,,,,,アルテミス,0
157,1080101025821,新規,0,2025-10-06,2025-10-06,株式会社優清造園土木,,株式会社,静岡県,伊東市,吉田５１３番地の９,,22,208,4140051,,,,,,,2025-10-06,1,,,,,ユウセイゾウエンドボク,0
158,1080103003437,新規,0,2025-10-06,2025-10-06,合同会社ＡＪ・ＴＲＡＤＩＮＧ,,合同会社,静岡県,沼津市,足高３１９番地の８９,,22,203,4100001,,,,,,,2025-10-06,1,,,,,エイジェイトレーディング,0
159,1080401028202,新規,0,2025-10-06,2025-10-06,株式会社ふじのくに建設,,株式会社,静岡県,菊川市,嶺田２４６０番地,,22,224,4371522,,,,,,,2025-10-06,1,,,,,フジノクニケンセツ,0
164,1100001039002,新規,0,2025-10-06,2025-10-06,株式会社ＲＯＺＥＣＯ,,株式会社,長野県,飯田市,上郷飯沼１６０１番地１,,20,205,3950002,,,,,,,2025-10-06,1,,,,,ロゼコ,0
165,1100001039019,新規,0,2025-10-06,2025-10-06,株式会社ちょこっとスマイル,,株式会社,長野県,松本市,浅間温泉１丁目２１番２１号－Ａ１０２,,20,202,3900303,,,,,,,2025-10-06,1,,,,,チョコットスマイル,0
169,1110001039620,新規,0,2025-10-06,2025-10-06,株式会社ひとたらし,,株式会社,新潟県,新潟市中央区,南万代町２番１８号,,15,103,9500902,,,,,,,2025-10-06,1,,,,,ヒトタラシ,0
184,1120001280256,新規,0,2025-10-06,2025-10-06,大日農場株式会社,,株式会社,大阪府,大阪市西区,本田４丁目９－２３プレステア九条４０１号,,27,106,5500022,,,,,,,2025-10-06,1,,,,,ダイニチノウジョウ,0
185,1120001280306,新規,0,2025-10-06,2025-10-06,曜誠株式会社,,株式会社,大阪府,大阪市西成区,玉出西２丁目８－９－４１２号,,27,122,5570045,,,,,,,2025-10-06,1,,,,,ヨウセイ,0
186,1120001280314,新規,0,2025-10-06,2025-10-06,ＪＮ株式会社,,株式会社,大阪府,大阪市中央区,本町２丁目３－４,,27,128,5410053,,,,,,,2025-10-06,1,,,,,ジェイエヌ,0
187,1120001280322,新規,0,2025-10-06,2025-10-06,啓泰株式会社,,株式会社,大阪府,大阪市東淀川区,東中島２丁目１９番１４号３Ｃ号室,,27,114,5330033,,,,,,,2025-10-06,1,,,,,ケイタイ,0
188,1120001280339,新規,0,2025-10-06,2025-10-06,全鏈テクノロジー株式会社,,株式会社,大阪府,大阪市北区,菅栄町１０番１２号６０２号室,,27,127,5300031,,,,,,,2025-10-06,1,,,,,ゼンレンテクノロジー,0
189,1120001280396,新規,0,2025-10-06,2025-10-06,達立株式会社,,株式会社,大阪府,大阪市西成区,萩之茶屋２丁目６番４号ニューかめや２６６号,,27,122,5570004,,,,,,,2025-10-06,1,,,,,タツリツ,0
190,1120001280405,新規,0,2025-10-06,2025-10-06,株式会社ｔｅｒｕｓ,,株式会社,大阪府,大阪市西区,南堀江２丁目５番７－８０９号,,27,106,5500015,,,,,,,2025-10-06,1,,,,,テラス,0
191,1120001280413,新規,0,2025-10-06,2025-10-06,株式会社勝栄,,株式会社,大阪府,大阪市浪速区,湊町１丁目２番３号マルイト難波ビル,,27,111,5560017,,,,,,,2025-10-06,1,,,,,ショウエイ,0
192,1120001280446,新規,0,2025-10-06,2025-10-06,株式会社ＹＭＯエンターテイメント,,株式会社,大阪府,大阪市北区,梅田１丁目２番２号大阪駅前第２ビル１２－１２,,27,127,5300001,,,,,,,2025-10-06,1,,,,,ワイエムオーエンターテイメント,0
193,1120001280603,新規,0,2025-10-06,2025-10-06,典羽株式会社,,株式会社,大阪府,大阪市東住吉区,中野４丁目１番１６号リベラルオリエンテ中野６１０Ａ,,27,121,5460012,,,,,,,2025-10-06,1,,,,,テンウ,0
194,1120001280611,新規,0,2025-10-06,2025-10-06,盛誠合株式会社,,株式会社,大阪府,大阪市東住吉区,中野４丁目１番１６号リベラルオリエンテ中野３１０Ｂ,,27,121,5460012,,,,,,,2025-10-06,1,,,,,セイセイゴウ,0
195,1120001280660,新規,0,2025-10-06,2025-10-06,優貴テック株式会社,,株式会社,大阪府,守口市,寺方本通４丁目４番６号,,27,209,5700048,,,,,,,2025-10-06,1,,,,,ユウキテック,0
200,1120003030782,新規,0,2025-10-06,2025-10-06,合同会社ＯＲＵＩ,,合同会社,大阪府,大阪市城東区,今福東２丁目２番３１－４１４号,,27,118,5360002,,,,,,,2025-10-06,1,,,,,オオルイ,0
201,1120003030790,新規,0,2025-10-06,2025-10-06,ＫＵＭＡＲ　ＥＮＴＥＲＰＲＩＳＥ合同会社,,合同会社,大阪府,大阪市西成区,南津守４丁目１番８６号,,27,122,5570063,,,,,,,2025-10-06,1,,,,,クマルエンタープライズ,0
202,1120003030840,新規,0,2025-10-06,2025-10-06,合同会社ＹＪ,,合同会社,大阪府,大阪市生野区,勝山北１丁目２２番１１号６０２,,27,116,5440033,,,,,,,2025-10-06,1,,,,,ワイジェイ,0
203,1120003030857,新規,0,2025-10-06,2025-10-06,合同会社まいすとーりー,,合同会社,大阪府,大阪市中央区,高津１丁目８番６－６０５号,,27,128,5420072,,,,,,,2025-10-06,1,,,,,マイストーリー,0
204,1120005025186,新規,0,2025-10-06,2025-10-06,一般社団法人ミライデザイン機構,,その他の設立登記法人,大阪府,大阪市東成区,神路４丁目６番１９－２０１号,,27,115,5370003,,,,,,,2025-10-06,1,,,,,ミライデザインキコウ,0
225,1140001140202,新規,0,2025-10-06,2025-10-06,株式会社Ｌｕｘａｒｉｕｍ,,株式会社,兵庫県,西宮市,両度町３番２－１４０４号,,28,204,6620841,,,,,,,2025-10-06,1,,,,,ルクサリウム,0
239,1180001168867,新規,0,2025-10-06,2025-10-06,セレンディップＳＰＣ４号株式会社,,株式会社,愛知県,名古屋市中区,錦１丁目５番１１号,,23,106,4600003,,,,,,,2025-10-06,1,,,,,セレンディップエスピーシーヨンゴウ,0
240,1180001168883,新規,0,2025-10-06,2025-10-06,ＴＣＦ　ＴＲＵＳＴ株式会社,,株式会社,愛知県,名古屋市東区,葵１丁目１９番３０号,,23,102,4610004,,,,,,,2025-10-06,1,,,,,ティーシーエフトラスト,0
241,1180001168900,新規,0,2025-10-06,2025-10-06,エフシーテックホールディングス株式会社,,株式会社,愛知県,名古屋市北区,志賀町２丁目３８番地,,23,103,4620037,,,,,,,2025-10-06,1,,,,,エフシーテックホールディングス,0
242,1180001168917,新規,0,2025-10-06,2025-10-06,株式会社ｙｕｍ,,株式会社,愛知県,東海市,中ノ池２丁目２１番地１,,23,222,4770033,,,,,,,2025-10-06,1,,,,,ヤム,0
243,1180001168933,新規,0,2025-10-06,2025-10-06,株式会社ハーツフット,,株式会社,愛知県,北名古屋市,薬師寺草木２４番地,,23,234,4810005,,,,,,,2025-10-06,1,,,,,ハーツフット,0
244,1180001168966,新規,0,2025-10-06,2025-10-06,Ｂｕｄｄｙ株式会社,,株式会社,愛知県,一宮市,あずら１丁目１３番地６,,23,203,4910835,,,,,,,2025-10-06,1,,,,,バディー,0
247,1180003029002,新規,0,2025-10-06,2025-10-06,ｋＰａｓｈａ合同会社,,合同会社,愛知県,豊明市,沓掛町若宮４９番地１,,23,229,4701101,,,,,,,2025-10-06,1,,,,,パシャ,0
248,1180003029175,新規,0,2025-10-06,2025-10-06,Ｐｒｉｍｅ　Ｐｏｒｔ合同会社,,合同会社,愛知県,名古屋市千種区,千種１丁目１３番３０号,,23,101,4640858,,,,,,,2025-10-06,1,,,,,プライムポート,0
249,1180003029183,新規,0,2025-10-06,2025-10-06,合同会社ａ．ｍ．ｙライフアセット,,合同会社,愛知県,瀬戸市,若宮町３丁目１１７番地の８,,23,204,4890864,,,,,,,2025-10-06,1,,,,,エーエムワイライフアセット,0
250,1180301040263,新規,0,2025-10-06,2025-10-06,株式会社家柾,,株式会社,愛知県,刈谷市,井ケ谷町後ロ田１０番地１,,23,210,4480001,,,,,,,2025-10-06,1,,,,,イエマサ,0
251,1180301040271,新規,0,2025-10-06,2025-10-06,株式会社山カ,,株式会社,愛知県,豊橋市,下五井町城屋敷２番地１,,23,201,4400091,,,,,,,2025-10-06,1,,,,,サンカ,0
252,1180303006758,新規,0,2025-10-06,2025-10-06,合同会社Ａ‐ＭＡＫ,,合同会社,愛知県,安城市,住吉町６丁目６番地１４,,23,212,4460072,,,,,,,2025-10-06,1,,,,,エーマック,0
254,1190001032576,新規,0,2025-10-06,2025-10-06,株式会社こころの杜,,株式会社,三重県,津市,藤方２１３８番地２３,,24,201,5140815,,,,,,,2025-10-06,1,,,,,ココロノモリ,0
255,1190001032592,新規,0,2025-10-06,2025-10-06,株式会社スタッフ・インターナショナル,,株式会社,三重県,津市,新町２丁目１０番５２号,,24,201,5140042,,,,,,,2025-10-06,1,,,,,スタッフインターナショナル,0
258,1190003005209,新規,0,2025-10-06,2025-10-06,ベゼラ・ジャパン合同会社,,合同会社,三重県,桑名市,多度町香取４８２番地１,,24,205,5110102,,,,,,,2025-10-06,1,,,,,ベゼラジャパン,0
259,1200001044306,新規,0,2025-10-06,2025-10-06,株式会社サクラ,,株式会社,岐阜県,可児郡御嵩町,顔戸７１０番地１,,21,521,5050122,,,,,,,2025-10-06,1,,,,,サクラ,0
269,1240003007430,新規,0,2025-10-06,2025-10-06,合同会社植野管理,,合同会社,広島県,広島市中区,白島中町１１番２－５０６号,,34,101,7300002,,,,,,,2025-10-06,1,,,,,ウエノカンリ,0
270,1250001021358,新規,0,2025-10-06,2025-10-06,株式会社ＴＳＵＢＯＭＩ　ＰＬＵＳ,,株式会社,山口県,山口市,新馬場２番地１,,35,203,7530085,,,,,,,2025-10-06,1,,,,,ツボミプラス,0
271,1250001021366,新規,0,2025-10-06,2025-10-06,金剛住機株式会社,,株式会社,山口県,下関市,貴船町４丁目１番２３号,,35,201,7510823,,,,,,,2025-10-06,1,,,,,コンゴウジュウキ,0
272,1250001021374,新規,0,2025-10-06,2025-10-06,株式会社ナカムラエンジニア,,株式会社,山口県,下関市,西観音町１６番２４号,,35,201,7520905,,,,,,,2025-10-06,1,,,,,ナカムラエンジニア,0
273,1250003003825,新規,0,2025-10-06,2025-10-06,合同会社やまぐち動画工房,,合同会社,山口県,防府市,八王子８－９デザインプラザＨＯＦＵ内,,35,206,7470000,,,,,,,2025-10-06,1,,,,,ヤマグチドウガコウボウ,0
275,1260001040613,新規,0,2025-10-06,2025-10-06,株式会社きはや,,株式会社,岡山県,倉敷市,連島町鶴新田２７５番地１１,,33,202,7128006,,,,,,,2025-10-06,1,,,,,キハヤ,0
277,1270001009293,新規,0,2025-10-06,2025-10-06,株式会社快視力,,株式会社,鳥取県,倉吉市,鍛冶町１丁目２９７１番地２,,31,203,6820864,,,,,,,2025-10-06,1,,,,,カイシリョク,0
280,1290001111709,新規,0,2025-10-06,2025-10-06,株式会社長島ウェルスマネジメント,,株式会社,福岡県,福岡市西区,愛宕浜２丁目３番１１号,,40,135,8190013,,,,,,,2025-10-06,1,,,,,ナガシマウェルスマネジメント,0
281,1290001111733,新規,0,2025-10-06,2025-10-06,株式会社ＳｈｏｋｅｎＴｒｕｓｔ,,株式会社,福岡県,大牟田市,山上町４番地１,,40,202,8360833,,,,,,,2025-10-06,1,,,,,ショウケントラスト,0
282,1290001111774,新規,0,2025-10-06,2025-10-06,株式会社Ｍ＆Ｔ　Ｆａｍｉｌｙ,,株式会社,福岡県,久留米市,中央町１番地１－２８０３号,,40,203,8300023,,,,,,,2025-10-06,1,,,,,エムアンドティファミリー,0
288,1290801031916,新規,0,2025-10-06,2025-10-06,天賜株式会社,,株式会社,福岡県,豊前市,大字八屋２０２５番地２,,40,214,8280021,,,,,,,2025-10-06,1,,,,,テンツー,0
292,1300001014372,新規,0,2025-10-06,2025-10-06,株式会社ユニテック,,株式会社,佐賀県,三養基郡基山町,大字小倉１５４３番地１,,41,341,8410201,,,,,,,2025-10-06,1,,,,,ユニテック,0
293,1300003002350,新規,0,2025-10-06,2025-10-06,合同会社キュミネ,,合同会社,佐賀県,唐津市,相知町中山４３４４番地３,,41,202,8493218,,,,,,,2025-10-06,1,,,,,キュミネ,0
296,1310001019800,新規,0,2025-10-06,2025-10-06,大和ソリューションズ株式会社,,株式会社,長崎県,佐世保市,城山町５番８号,,42,202,8570033,,,,,,,2025-10-06,1,,,,,ヤマトソリューションズ,0
298,1330001033634,新規,0,2025-10-06,2025-10-06,株式会社いさ味,,株式会社,熊本県,熊本市南区,近見８丁目４番５号,,43,104,8614101,,,,,,,2025-10-06,1,,,,,イサミ,0
299,1330001033650,新規,0,2025-10-06,2025-10-06,株式会社壱コーポレーション,,株式会社,熊本県,熊本市中央区,千葉城町５番１１－４０２号アルカサール千葉城,,43,101,8600001,,,,,,,2025-10-06,1,,,,,イチコーポレーション,0
303,1340001027684,新規,0,2025-10-06,2025-10-06,株式会社Ｎｉｃａ,,株式会社,鹿児島県,鹿屋市,寿４丁目１番５号,,46,203,8930014,,,,,,,2025-10-06,1,,,,,ニカ,0
304,1340003004970,新規,0,2025-10-06,2025-10-06,合同会社リトルステップヒラカワ,,合同会社,鹿児島県,西之表市,西町３２番地,,46,213,8913111,,,,,,,2025-10-06,1,,,,,リトルステップヒラカワ,0
311,1360001035842,新規,0,2025-10-06,2025-10-06,シンリョウ重設株式会社,,株式会社,沖縄県,うるま市,勝連平安名２４５番地１,,47,213,9042312,,,,,,,2025-10-06,1,,,,,シンリョウジュウセツ,0
312,1360001035859,新規,0,2025-10-06,2025-10-06,株式会社ディークロス,,株式会社,沖縄県,沖縄市,照屋１丁目１６番１０号,,47,211,9040011,,,,,,,2025-10-06,1,,,,,,0
313,1360001035867,新規,0,2025-10-06,2025-10-06,フレックスオートサービス株式会社,,株式会社,沖縄県,糸満市,字潮平７７６番地６,,47,210,9010302,,,,,,,2025-10-06,1,,,,,フレックスオートサービス,0
314,1360001035875,新規,0,2025-10-06,2025-10-06,株式会社就労支援サポート結カンパニー,,株式会社,沖縄県,中頭郡西原町,字津花波３３３番地２階,,47,329,9030123,,,,,,,2025-10-06,1,,,,,シュウロウシエンサポートユイカンパニー,0
315,1360001035883,新規,0,2025-10-06,2025-10-06,キキジュニア株式会社,,株式会社,沖縄県,国頭郡恩納村,字仲泊１４１１番地３２久手堅マンション４０１号,,47,311,9040415,,,,,,,2025-10-06,1,,,,,キキジュニア,0
316,1360003015297,新規,0,2025-10-06,2025-10-06,合同会社アドヴィク,,合同会社,沖縄県,那覇市,字安謝１０４番地丸進コーポ３０１,,47,201,9000003,,,,,,,2025-10-06,1,,,,,アドヴィク,0
323,1380003006154,新規,0,2025-10-06,2025-10-06,合同会社ＡＴＴＡＣＫ,,合同会社,福島県,郡山市,安積町日出山２丁目３７番地,,07,203,9630101,,,,,,,2025-10-06,1,,,,,アタック,0
325,1400001017200,新規,0,2025-10-06,2025-10-06,株式会社胆沢車体工業,,株式会社,岩手県,奥州市,胆沢若柳字土橋１８番地,,03,215,0230403,,,,,,,2025-10-06,1,,,,,イサワシャタイコウギョウ,0
329,1420003003196,新規,0,2025-10-06,2025-10-06,グッドレンタカー合同会社,,合同会社,青森県,青森市,富田５丁目１６番２号白樺ハイツ１０２号,,02,201,0380004,,,,,,,2025-10-06,1,,,,,グッドレンタカー,0
333,1430001095350,新規,0,2025-10-06,2025-10-06,株式会社ディーセカンド,,株式会社,北海道,札幌市中央区,南十七条西１１丁目１番１８‐３０２号,,01,101,0640917,,,,,,,2025-10-06,1,,,,,ディーセカンド,0
338,1430005015313,新規,0,2025-10-06,2025-10-06,医療法人社団晴陽会,,その他の設立登記法人,北海道,苫小牧市,光洋町１丁目１７番１９号,,01,213,0530811,,,,,,,2025-10-06,1,,,,,セイヨウカイ,0
339,1430005015321,新規,0,2025-10-06,2025-10-06,一般財団法人ギャラリー杣人,,その他の設立登記法人,北海道,札幌市南区,真駒内柏丘２丁目６番３６号,,01,106,0050022,,,,,,,2025-10-06,1,,,,,ギャラリーソマビト,0
342,1460001006040,新規,0,2025-10-06,2025-10-06,株式会社Ｊ＆Ｙ,,株式会社,北海道,釧路市,昭和中央３丁目１４番６号左,,01,206,0840910,,,,,,,2025-10-06,1,,,,,ジェイアンドワイ,0
343,1460105002324,新規,0,2025-10-06,2025-10-06,Ｐｒｏｇｒｅｓｓ協同組合,,その他の設立登記法人,北海道,中川郡幕別町,字南勢３３０番地３,,01,643,0890623,,,,,,,2025-10-06,1,,,,,プログレス,0
347,1500001026562,新規,0,2025-10-06,2025-10-06,橘株式会社,,株式会社,愛媛県,四国中央市,川之江町２２５０番地,,38,213,7990101,,,,,,,2025-10-06,1,,,,,タチバナ,0
361,2010001258493,新規,0,2025-10-06,2025-10-06,株式会社日本刀,,株式会社,東京都,中央区,銀座８丁目１２番１号,,13,102,1040061,,,,,,,2025-10-06,1,,,,,ニホントウ,0
362,2010001258790,新規,0,2025-10-06,2025-10-06,株式会社Ｆｒｉｅｎｄｉｆｙ,,株式会社,東京都,文京区,本郷１丁目５番１７号,,13,105,1130033,,,,,,,2025-10-06,1,,,,,フレンディファイ,0
363,2010001258881,新規,0,2025-10-06,2025-10-06,株式会社ＴＯＭＯＦＵＲＩ,,株式会社,東京都,千代田区,四番町９番地１０パークコート四番町１４０１号,,13,101,1020081,,,,,,,2025-10-06,1,,,,,トモフリ,0
364,2010001258948,新規,0,2025-10-06,2025-10-06,Ｌｕｍｉ株式会社,,株式会社,東京都,文京区,春日２丁目１４－１１－６０１号,,13,105,1120003,,,,,,,2025-10-06,1,,,,,ルミ,0
365,2010001258956,新規,0,2025-10-06,2025-10-06,株式会社ＥＩＷＡ　ＥＮＥＲＧＹ　ＴＥＣＨＮＯＬＯＧＹ,,株式会社,東京都,千代田区,内神田２丁目７番４号,,13,101,1010047,,,,,,,2025-10-06,1,,,,,エイワエナジーテクノロジー,0
366,2010001259046,新規,0,2025-10-06,2025-10-06,株式会社ＳＨ１,,株式会社,東京都,中央区,銀座８丁目６番４号村喜茂竹ビル２階,,13,102,1040061,,,,,,,2025-10-06,1,,,,,エスエイチワン,0
367,2010001259070,新規,0,2025-10-06,2025-10-06,Ｌａｏ　Ｐｕ　Ｇｏｌｄ　Ｊａｐａｎ株式会社,,株式会社,東京都,千代田区,四番町４番地９新東京国際リーガル内,,13,101,1020081,,,,,,,2025-10-06,1,,,,,ラオプゴールドジャパン,0
368,2010001259079,新規,0,2025-10-06,2025-10-06,株式会社エヴォルシオン,,株式会社,東京都,中央区,日本橋本町２丁目６番１号日本橋本町プラザビル２階,,13,102,1030023,,,,,,,2025-10-06,1,,,,,エヴォルシオン,0
369,2010001259095,新規,0,2025-10-06,2025-10-06,エクスプローラーリーシング株式会社,,株式会社,東京都,千代田区,丸の内１丁目３番２号,,13,101,1000005,,,,,,,2025-10-06,1,,,,,エクスプローラーリーシング,0
370,2010001259104,新規,0,2025-10-06,2025-10-06,株式会社東京パートナーズ,,株式会社,東京都,中央区,日本橋室町１丁目９番１２号,,13,102,1030022,,,,,,,2025-10-06,1,,,,,トウキョウパートナーズ,0
371,2010001259112,新規,0,2025-10-06,2025-10-06,株式会社Ｐｏｐ　Ｍｉｎｔ,,株式会社,東京都,中央区,銀座１丁目２２番１１号銀座大竹ビジデンス２階,,13,102,1040061,,,,,,,2025-10-06,1,,,,,ポップミント,0
372,2010001259120,新規,0,2025-10-06,2025-10-06,エムドットエステート株式会社,,株式会社,東京都,中央区,日本橋馬喰町１丁目４番１６号,,13,102,1030002,,,,,,,2025-10-06,1,,,,,エムドットエステート,0
373,2010001259129,新規,0,2025-10-06,2025-10-06,ＧＯＡＴ　Ｆｉｎａｎｃｅ株式会社,,株式会社,東京都,千代田区,永田町２丁目９番８号６０５号室,,13,101,1000014,,,,,,,2025-10-06,1,,,,,ゴートファイナンス,0
376,2010003048876,新規,0,2025-10-06,2025-10-06,ＭＣＯＫ合同会社,,合同会社,東京都,中央区,東日本橋２丁目２８番４号日本橋ＣＥＴビル２階,,13,102,1030004,,,,,,,2025-10-06,1,,,,,エムシーオーケイ,0
377,2010003048942,新規,0,2025-10-06,2025-10-06,合同会社サンジュビル,,合同会社,東京都,千代田区,神田駿河台３丁目５番地サンジュ共和十番館７Ｆ,,13,101,1010062,,,,,,,2025-10-06,1,,,,,サンジュビル,0
379,2010005040740,新規,0,2025-10-06,2025-10-06,有明プロパティ一般社団法人,,その他の設立登記法人,東京都,中央区,日本橋１丁目４番１号日本橋一丁目ビルディング,,13,102,1030027,,,,,,,2025-10-06,1,,,,,アリアケプロパティ,0
381,2010103002667,新規,0,2025-10-06,2025-10-06,合同会社Ｄ,,合同会社,東京都,八王子市,三崎町４番６号下田ビル３階,,13,201,1920084,,,,,,,2025-10-06,1,,,,,ディー,0
388,2010403036101,新規,0,2025-10-06,2025-10-06,久礼野パワー合同会社,,合同会社,東京都,港区,新橋３丁目９番１０号天翔新橋ビル７０１号室,,13,103,1050004,,,,,,,2025-10-06,1,,,,,クレノパワー,0
389,2010403036175,新規,0,2025-10-06,2025-10-06,幸浦ディーシー２合同会社,,合同会社,東京都,港区,六本木１丁目６番１号泉ガーデンタワー,,13,103,1060032,,,,,,,2025-10-06,1,,,,,サチウラディーシーツー,0
390,2010403036241,新規,0,2025-10-06,2025-10-06,合同会社オフィース天野,,合同会社,東京都,港区,浜松町２丁目７番１５号,,13,103,1050013,,,,,,,2025-10-06,1,,,,,オフィースアマノ,0
392,2010405024748,新規,0,2025-10-06,2025-10-06,医療法人社団こえのね,,その他の設立登記法人,東京都,港区,赤坂２丁目１７番６５号２階,,13,103,1070052,,,,,,,2025-10-06,1,,,,,コエノネ,0
393,2010501054789,新規,0,2025-10-06,2025-10-06,中港株式会社,,株式会社,東京都,台東区,蔵前４丁目１６－６ストーク蔵前Ｍ＆Ｋ４階４２３,,13,106,1110051,,,,,,,2025-10-06,1,,,,,チュウコウ,0
394,2010501054814,新規,0,2025-10-06,2025-10-06,アイポポグローバル株式会社,,株式会社,東京都,台東区,浅草橋５丁目２０番６－１４０３号・ＣＳタワーアネックス,,13,106,1110053,,,,,,,2025-10-06,1,,,,,アイポポグローバル,0
395,2010503008017,新規,0,2025-10-06,2025-10-06,アオイ合同会社,,合同会社,東京都,台東区,谷中３丁目１７番３号,,13,106,1100001,,,,,,,2025-10-06,1,,,,,アオイ,0
401,2010901058175,新規,0,2025-10-06,2025-10-06,株式会社ＬｕｄｉａＢａｓｅ,,株式会社,東京都,世田谷区,上北沢４丁目１０－１５上北沢マンション３０２,,13,112,1560057,,,,,,,2025-10-06,1,,,,,ルディアベース,0
403,2010903010290,新規,0,2025-10-06,2025-10-06,ＹＯＵＫＮＯＷ合同会社,,合同会社,東京都,世田谷区,大原２丁目４番２号グランエッグス大原１０３,,13,112,1560041,,,,,,,2025-10-06,1,,,,,ユーノウ,0
407,2011001172214,新規,0,2025-10-06,2025-10-06,グローバルタクシーＬｉｎｋ株式会社,,株式会社,東京都,渋谷区,道玄坂１丁目１２－１,,13,113,1500043,,,,,,,2025-10-06,1,,,,,グローバルタクシーリンク,0
410,2011003022499,新規,0,2025-10-06,2025-10-06,渋谷アセットマネジメント合同会社,,合同会社,東京都,渋谷区,円山町５番３号ＭＩＥＵＸ渋谷ビル８階,,13,113,1500044,,,,,,,2025-10-06,1,,,,,シブヤアセットマネジメント,0
411,2011003022508,新規,0,2025-10-06,2025-10-06,合同会社Ｃｏｌｌａｖｉａ,,合同会社,東京都,渋谷区,広尾１丁目２番地１号ヒカリビル４階,,13,113,1500012,,,,,,,2025-10-06,1,,,,,コラヴィア,0
412,2011003022516,新規,0,2025-10-06,2025-10-06,クロースカフェ・デザイン合同会社,,合同会社,東京都,渋谷区,桜丘町１５番８号高木産業会館３１２号室,,13,113,1500031,,,,,,,2025-10-06,1,,,,,クロースカフェデザイン,0
413,2011003022549,新規,0,2025-10-06,2025-10-06,合同会社Ｋａｋｅｈａｓｈｉ　Ｓｔｕｄｉｏ,,合同会社,東京都,渋谷区,円山町５番３号ＭＩＥＵＸ渋谷ビル８階,,13,113,1500044,,,,,,,2025-10-06,1,,,,,カケハシスタジオ,0
415,2011101113431,新規,0,2025-10-06,2025-10-06,株式会社藤田家,,株式会社,東京都,新宿区,大京町２２番地３－１２０１号,,13,104,1600015,,,,,,,2025-10-06,1,,,,,フジタケ,0
417,2011301030939,新規,0,2025-10-06,2025-10-06,テノーラ株式会社,,株式会社,東京都,杉並区,和泉１丁目２２番１９号,,13,115,1680063,,,,,,,2025-10-06,1,,,,,テノーラ,0
420,2011503006704,新規,0,2025-10-06,2025-10-06,合同会社ＳＴＵＤＩＯ　Ｓ‐ＰＬＵＳ,,合同会社,東京都,北区,豊島７丁目２０番７号４０３クレアホームズ王子神谷,,13,117,1140003,,,,,,,2025-10-06,1,,,,,スタジオエスプラス,0
424,2011703004417,新規,0,2025-10-06,2025-10-06,合同会社どんでん返し,,合同会社,東京都,江戸川区,南小岩３丁目２５番２号,,13,123,1330056,,,,,,,2025-10-06,1,,,,,ドンデンガエシ,0
429,2012401043673,新規,0,2025-10-06,2025-10-06,株式会社Ｂｌｕｅ　Ｗｏｒｋｅｒｓ,,株式会社,東京都,多摩市,豊ヶ丘１丁目５番地の４マイキャッスル多摩センター１０３,,13,224,2060031,,,,,,,2025-10-06,1,,,,,ブルーワーカーズ,0
438,2020001165061,新規,0,2025-10-06,2025-10-06,株式会社電線新聞社,,株式会社,神奈川県,横浜市港北区,新横浜３丁目９－５新横浜第３東昇ビル,,14,109,2220033,,,,,,,2025-10-06,1,,,,,デンセンシンブンシャ,0
439,2020001165144,新規,0,2025-10-06,2025-10-06,株式会社ソリッドワークス,,株式会社,神奈川県,横浜市港北区,岸根町４５１番地２８,,14,109,2220034,,,,,,,2025-10-06,1,,,,,ソリッドワークス,0
440,2020001165160,新規,0,2025-10-06,2025-10-06,株式会社ｉ．Ｐｒｅｃｉｏｕｓ,,株式会社,神奈川県,横浜市鶴見区,東寺尾６丁目１８番３８－１５号,,14,101,2300077,,,,,,,2025-10-06,1,,,,,アイプレシャス,0
441,2020001165169,新規,0,2025-10-06,2025-10-06,株式会社Ｍｏｍｅｎｔｕｍ,,株式会社,神奈川県,横浜市都筑区,大棚西３番７－７０５号,,14,118,2240028,,,,,,,2025-10-06,1,,,,,モメンタム,0
442,2020001165185,新規,0,2025-10-06,2025-10-06,ＮＴ技術サービス株式会社,,株式会社,神奈川県,横浜市神奈川区,金港町２番地６,,14,102,2210056,,,,,,,2025-10-06,1,,,,,エヌティーギジュツサービス,0
443,2020001165202,新規,0,2025-10-06,2025-10-06,株式会社プログレス,,株式会社,神奈川県,横浜市西区,浅間町１丁目１３番５号元宮ビル４０１号,,14,103,2200072,,,,,,,2025-10-06,1,,,,,プログレス,0
450,2020003029545,新規,0,2025-10-06,2025-10-06,合同会社有Ｎｉｈｏｎｇｏ　Ｌｉｎｋ,,合同会社,神奈川県,川崎市麻生区,白鳥４丁目１０番１－５０４号,,14,137,2150024,,,,,,,2025-10-06,1,,,,,ユウニホンゴリンク,0
456,2021001086396,新規,0,2025-10-06,2025-10-06,株式会社ソニヴァ,,株式会社,神奈川県,鎌倉市,御成町４番１６号,,14,204,2480012,,,,,,,2025-10-06,1,,,,,ソニヴァ,0
457,2021001086405,新規,0,2025-10-06,2025-10-06,株式会社ａｍａｍｏ,,株式会社,神奈川県,相模原市南区,相武台１丁目２３－９ＴＫビル１Ａ,,14,153,2520324,,,,,,,2025-10-06,1,,,,,アマモ,0
459,2021003016608,新規,0,2025-10-06,2025-10-06,ＮＩＨＯＮ　ＪＵＫＩ合同会社,,合同会社,神奈川県,秦野市,落合３０５番地の１－２０５,,14,211,2570025,,,,,,,2025-10-06,1,,,,,ニホンジュウキ,0
460,2021003016624,新規,0,2025-10-06,2025-10-06,七里＆ｈｉｌｌ合同会社,,合同会社,神奈川県,鎌倉市,鎌倉山２丁目１８番６０号,,14,204,2480031,,,,,,,2025-10-06,1,,,,,シチリアンドヒル,0
461,2021003016632,新規,0,2025-10-06,2025-10-06,ｖｉｒｔｕｅ合同会社,,合同会社,神奈川県,茅ヶ崎市,菱沼海岸２番２５号,,14,207,2530037,,,,,,,2025-10-06,1,,,,,ヴァーチュー,0
462,2021003016640,新規,0,2025-10-06,2025-10-06,ゴールドクレイ合同会社,,合同会社,神奈川県,相模原市緑区,西橋本１丁目１７番２－２５号,,14,151,2520131,,,,,,,2025-10-06,1,,,,,ゴールドクレイ,0
472,2030001168971,新規,0,2025-10-06,2025-10-06,グリーンワークス株式会社,,株式会社,埼玉県,戸田市,美女木２丁目１２番地の１２石井コーポ１０３号室,,11,224,3350031,,,,,,,2025-10-06,1,,,,,グリーンワークス,0
473,2030001168996,新規,0,2025-10-06,2025-10-06,株式会社えん,,株式会社,埼玉県,越谷市,宮前１丁目２番７号１０３号室,,11,222,3430014,,,,,,,2025-10-06,1,,,,,エン,0
474,2030001169020,新規,0,2025-10-06,2025-10-06,株式会社ＣＥＬＵＸＥ,,株式会社,埼玉県,さいたま市南区,別所７丁目２番１－７０１号,,11,108,3360021,,,,,,,2025-10-06,1,,,,,セリュックス,0
475,2030001169053,新規,0,2025-10-06,2025-10-06,千一橋株式会社,,株式会社,埼玉県,春日部市,南３丁目３番地１２－２０２号室,,11,214,3440064,,,,,,,2025-10-06,1,,,,,センイチキョウ,0
477,2030003027779,新規,0,2025-10-06,2025-10-06,ウィナーズ合同会社,,合同会社,埼玉県,児玉郡上里町,大字神保原町４３２番地１３,,11,385,3690305,,,,,,,2025-10-06,1,,,,,ウィナーズ,0
478,2030003027820,新規,0,2025-10-06,2025-10-06,グランペール合同会社,,合同会社,埼玉県,熊谷市,瀬南１５番地１,,11,202,3600834,,,,,,,2025-10-06,1,,,,,グランペール,0
480,2040001140707,新規,0,2025-10-06,2025-10-06,株式会社エスサポート,,株式会社,千葉県,鎌ケ谷市,道野辺本町１丁目３番１－６０１号,,12,224,2730137,,,,,,,2025-10-06,1,,,,,エスサポート,0
481,2040001140748,新規,0,2025-10-06,2025-10-06,株式会社ＳＡＳ,,株式会社,千葉県,山武市,松ヶ谷ロ７３１番地２７,,12,237,2891303,,,,,,,2025-10-06,1,,,,,エスエイエス,0
482,2040001140756,新規,0,2025-10-06,2025-10-06,ＮＴＣ株式会社,,株式会社,千葉県,木更津市,請西２丁目１０番１６号池田マンション２０３号室,,12,206,2920801,,,,,,,2025-10-06,1,,,,,エヌティーシー,0
489,2040003028685,新規,0,2025-10-06,2025-10-06,サクラドライブ合同会社,,合同会社,千葉県,木更津市,祇園１６３番地８３,00140951,12,206,2920052,,,,,,,2025-10-06,1,,,,,サクラドライブ,0
493,2050003009635,新規,0,2025-10-06,2025-10-06,合同会社バレル,,合同会社,茨城県,つくば市,二の宮３丁目２１番地２５,,08,220,3050051,,,,,,,2025-10-06,1,,,,,バレル,0
494,2050003009643,新規,0,2025-10-06,2025-10-06,合同会社Ｈａｍｍａｄ　Ｔｒａｄｉｎｇ,,合同会社,茨城県,筑西市,板橋５３番地１,,08,227,3080116,,,,,,,2025-10-06,1,,,,,ハマドトレーディング,0
500,2060001038635,新規,0,2025-10-06,2025-10-06,株式会社リツライズ,,株式会社,栃木県,宇都宮市,鐺山町１８６３－１,,09,201,3213235,,,,,,,2025-10-06,1,,,,,リツライズ,0
501,2060001038651,新規,0,2025-10-06,2025-10-06,皐月金属株式会社,,株式会社,栃木県,鹿沼市,西沢８７０番地,,09,205,3220000,,,,,,,2025-10-06,1,,,,,サツキキンゾク,0
503,2070005010432,新規,0,2025-10-06,2025-10-06,一般社団法人高崎学童,,その他の設立登記法人,群馬県,高崎市,高松町３５番地１,,10,202,3700829,,,,,,,2025-10-06,1,,,,,タカサキガクドウ,0
506,2080001027173,新規,0,2025-10-06,2025-10-06,株式会社協和鉄工,,株式会社,静岡県,牧之原市,和田１７４番地６,,22,226,4210507,,,,,,,2025-10-06,1,,,,,キョウワテッコウ,0
507,2080001027198,新規,0,2025-10-06,2025-10-06,株式会社Ｍｉｘ,,株式会社,静岡県,焼津市,祢宜島６０８－１祢宜島マンション,00140940,22,212,4250045,,,,,,,2025-10-06,1,,,,,ミックス,0
508,2080101025820,新規,0,2025-10-06,2025-10-06,株式会社リュールプラス,,株式会社,静岡県,富士市,天間１５６５番地の５,,22,210,4190205,,,,,,,2025-10-06,1,,,,,リュールプラス,0
509,2080101025829,新規,0,2025-10-06,2025-10-06,ＭＭＣロジスティクス株式会社,,株式会社,静岡県,富士宮市,西小泉町１４番地６,,22,207,4180026,,,,,,,2025-10-06,1,,,,,エムエムシーロジスティクス,0
513,2080103003436,新規,0,2025-10-06,2025-10-06,Ｍｏｎ　Ａｍｉ　Ｃｕｌｔｕｒｅ　Ｌａｂ合同会社,,合同会社,静岡県,田方郡函南町,平井２１番２６号,,22,325,4190107,,,,,,,2025-10-06,1,,,,,モナミカルチャーラボ,0
514,2080401028192,新規,0,2025-10-06,2025-10-06,株式会社シダックスタジオ,,株式会社,静岡県,周智郡森町,睦実１４９０番地の１,,22,461,4370213,,,,,,,2025-10-06,1,,,,,シダックスタジオ,0
516,2090001019525,新規,0,2025-10-06,2025-10-06,株式会社Ｍａｘ　Ｍｏｔｏｒｓ,,株式会社,山梨県,南巨摩郡富士川町,鰍沢１６０３番地４,,19,368,4000601,,,,,,,2025-10-06,1,,,,,マックスモータース,0
517,2090003002909,新規,0,2025-10-06,2025-10-06,縁結合同会社,,合同会社,山梨県,南アルプス市,百々１９４２番地,,19,208,4000214,,,,,,,2025-10-06,1,,,,,,0
519,2100001039001,新規,0,2025-10-06,2025-10-06,株式会社ココから,,株式会社,長野県,飯田市,松尾上溝２７００番地１ＭＡＴＯＩビル１階,,20,205,3950811,,,,,,,2025-10-06,1,,,,,ココカラ,0
520,2100001039018,新規,0,2025-10-06,2025-10-06,Ａｕｒｏｒａ　ｇｒｏｕｐ株式会社,,株式会社,長野県,長野市,豊野町豊野１９９５番地２,,20,201,3891105,,,,,,,2025-10-06,1,,,,,オーロラグループ,0
524,2100003008417,新規,0,2025-10-06,2025-10-06,合同会社ＥＶＥＲＧＲＥＥＮ,,合同会社,長野県,長野市,大字鶴賀上千歳町１１３７番地２３,,20,201,3800821,,,,,,,2025-10-06,1,,,,,エバーグリーン,0
527,2110001039611,新規,0,2025-10-06,2025-10-06,株式会社塩谷,,株式会社,新潟県,新潟市中央区,女池上山５丁目１１番９号,,15,103,9500945,,,,,,,2025-10-06,1,,,,,シオタニ,0
528,2110001039628,新規,0,2025-10-06,2025-10-06,新潟パソコンラボ株式会社,,株式会社,新潟県,新潟市中央区,天神１丁目１番地プラーカ３、２Ｆ、ＨＵＢ・ＳＴＡＴＩＯＮ・ＫＥＮＴＯ内,,15,103,9500917,,,,,,,2025-10-06,1,,,,,ニイガタパソコンラボ,0
531,2110003005909,新規,0,2025-10-06,2025-10-06,合同会社長岡グループ,,合同会社,新潟県,長岡市,北陽１丁目５３番地５４,,15,202,9400871,,,,,,,2025-10-06,1,,,,,ナガオカグループ,0
550,2120001279537,新規,0,2025-10-06,2025-10-06,ＳＴＬ　Ｉｎｖｅｓｔｍｅｎｔｓ株式会社,,株式会社,大阪府,枚方市,楠葉朝日３丁目６番１２号,,27,210,5731111,,,,,,,2025-10-06,1,,,,,エスティーエルインベストメンツ,0
551,2120001279768,新規,0,2025-10-06,2025-10-06,ＢＥＹＯＷＤ株式会社,,株式会社,大阪府,大阪市北区,芝田２丁目８－１１共栄ビル３Ｆ,,27,127,5300012,,,,,,,2025-10-06,1,,,,,ビヨウド,0
552,2120001280222,新規,0,2025-10-06,2025-10-06,大阪新＿泰株式会社,00140934,株式会社,大阪府,大阪市淀川区,木川西１丁目４－１９ヴィラ木川１０３,,27,123,5320013,,,,,,,2025-10-06,1,,,,,オオサカシンキンタイ,0
553,2120001280271,新規,0,2025-10-06,2025-10-06,ＨＯＡＮＧ　ＧＩＡ株式会社,,株式会社,大阪府,大阪市平野区,平野北１丁目４番２９号２０５号室,,27,126,5470041,,,,,,,2025-10-06,1,,,,,ホアンザー,0
554,2120001280305,新規,0,2025-10-06,2025-10-06,渓石縁株式会社,,株式会社,大阪府,大阪市東住吉区,湯里５丁目１６番地５号２Ｆ－Ｄ,,27,121,5460013,,,,,,,2025-10-06,1,,,,,ケイセキエン,0
555,2120001280321,新規,0,2025-10-06,2025-10-06,株式会社フェイイーＩｎｔｅｒｎａｔｉｏｎａｌ,,株式会社,大阪府,大阪市港区,三先１丁目１６番６号,,27,107,5520016,,,,,,,2025-10-06,1,,,,,フェイイーインターナショナル,0
556,2120001280338,新規,0,2025-10-06,2025-10-06,Ｖｉｓｔａ　Ｆａｙ株式会社,,株式会社,大阪府,大阪市此花区,西九条３丁目９番２４グレースハイツＩＩ５階,00140947,27,104,5540012,,,,,,,2025-10-06,1,,,,,ビスタフェイ,0
557,2120001280387,新規,0,2025-10-06,2025-10-06,株式会社梅田新業,,株式会社,大阪府,守口市,南寺方東通６丁目２番６号,,27,209,5700043,,,,,,,2025-10-06,1,,,,,ウメダシンギョウ,0
558,2120001280412,新規,0,2025-10-06,2025-10-06,ＶａｌｕｅｓＨａｔｃｈ株式会社,,株式会社,大阪府,大阪市中央区,本町４丁目５番３号大和本町ビル２Ｆ２０１,,27,128,5410053,,,,,,,2025-10-06,1,,,,,バリューズハッチ,0
559,2120001280486,新規,0,2025-10-06,2025-10-06,ＥＱＷＥＬ株式会社,,株式会社,大阪府,大阪市天王寺区,北河堀町３番１５号,,27,109,5430053,,,,,,,2025-10-06,1,,,,,イクウェル,0
560,2120001280503,新規,0,2025-10-06,2025-10-06,鵬泰株式会社,,株式会社,大阪府,大阪市住吉区,苅田８丁目５番１３号,,27,120,5580011,,,,,,,2025-10-06,1,,,,,ホウタイ,0
561,2120001280593,新規,0,2025-10-06,2025-10-06,Ｏｐｐｌａｎｄ株式会社,,株式会社,大阪府,大阪市東住吉区,中野４丁目１番１６号リベラルオリエンテ中野２０９Ａ,,27,121,5460012,,,,,,,2025-10-06,1,,,,,オプランド,0
562,2120001280602,新規,0,2025-10-06,2025-10-06,君盛株式会社,,株式会社,大阪府,大阪市東住吉区,中野４丁目１番１６号リベラルオリエンテ中野３１１Ａ,,27,121,5460012,,,,,,,2025-10-06,1,,,,,クンセイ,0
563,2120001280610,新規,0,2025-10-06,2025-10-06,熱丞株式会社,,株式会社,大阪府,大阪市東住吉区,中野４丁目１番１６号リベラルオリエンテ中野２０８Ａ,,27,121,5460012,,,,,,,2025-10-06,1,,,,,ネツショウ,0
564,2120001280619,新規,0,2025-10-06,2025-10-06,冉柯株式会社,,株式会社,大阪府,大阪市東住吉区,中野４丁目１番１６号リベラルオリエンテ中野７０４Ａ,,27,121,5460012,,,,,,,2025-10-06,1,,,,,ゼンカ,0
565,2120001280643,新規,0,2025-10-06,2025-10-06,株式会社ニッソー,,株式会社,大阪府,大阪市西淀川区,姫島４丁目１９番６号,,27,113,5550033,,,,,,,2025-10-06,1,,,,,ニッソー,0
566,2120001280726,新規,0,2025-10-06,2025-10-06,株式会社ＵｍｅＫｉｎａ,,株式会社,大阪府,大阪市福島区,海老江１丁目５番３０－１２７号,,27,103,5530001,,,,,,,2025-10-06,1,,,,,ウメキナ,0
567,2120001280800,新規,0,2025-10-06,2025-10-06,吉品株式会社,,株式会社,大阪府,大阪市都島区,中野町４丁目３番６号Ｈ２Ｈ大阪桜之宮邸２Ｄ－１,,27,102,5340027,,,,,,,2025-10-06,1,,,,,キチヒン,0
569,2120003030815,新規,0,2025-10-06,2025-10-06,合同会社グローバルリンク,,合同会社,大阪府,大阪市平野区,長吉六反３丁目１７番２５号Ｃ室,,27,126,5470012,,,,,,,2025-10-06,1,,,,,グローバルリンク,0
570,2120005025193,新規,0,2025-10-06,2025-10-06,一般社団法人Ｊｕｓｔ　Ｊａｐａｎ,,その他の設立登記法人,大阪府,大阪市中央区,瓦町３丁目２番１６号瓦町ビル,,27,128,5410048,,,,,,,2025-10-06,1,,,,,ジャストジャパン,0
572,2120901051573,新規,0,2025-10-06,2025-10-06,株式会社ＲＥＪＵ,,株式会社,大阪府,高槻市,津之江町２丁目５０番８号,,27,207,5690822,,,,,,,2025-10-06,1,,,,,リジュ,0
573,2120901051581,新規,0,2025-10-06,2025-10-06,株式会社ファースト・コンパス,,株式会社,大阪府,吹田市,桃山台３丁目３－１４,,27,205,5650854,,,,,,,2025-10-06,1,,,,,ファーストコンパス,0
577,2130001080679,新規,0,2025-10-06,2025-10-06,株式会社うなしげ,,株式会社,京都府,京都市上京区,新烏丸頭町１８０,,26,102,6020861,,,,,,,2025-10-06,1,,,,,ウナシゲ,0
578,2130001080720,新規,0,2025-10-06,2025-10-06,株式会社三興建設,,株式会社,京都府,木津川市,山城町綺田山ノ上１６番地２,,26,214,6190201,,,,,,,2025-10-06,1,,,,,サンコウケンセツ,0
580,2130005017470,新規,0,2025-10-06,2025-10-06,医療法人なかむらなおみ皮膚科クリニック,,その他の設立登記法人,京都府,京都市左京区,岩倉南河原町６８番地コンチネンタルヒロ１階,,26,103,6060019,,,,,,,2025-10-06,1,,,,,ナカムラナオミヒフカクリニック,0
584,2140001140242,新規,0,2025-10-06,2025-10-06,株式会社日進電子,,株式会社,兵庫県,三田市,小野１２９７番地２２,,28,219,6691504,,,,,,,2025-10-06,1,,,,,ニッシンデンシ,0
587,2140003022661,新規,0,2025-10-06,2025-10-06,合同会社アリシア,,合同会社,兵庫県,神戸市中央区,磯辺通１丁目１番１８号カサベラ国際プラザビル７０７号室,,28,110,6510084,,,,,,,2025-10-06,1,,,,,アリシア,0
590,2140005027650,新規,0,2025-10-06,2025-10-06,うえの税理士法人,,その他の設立登記法人,兵庫県,姫路市,三左衛門堀東の町１０７番地２,,28,201,6700949,,,,,,,2025-10-06,1,,,,,ウエノ,0
604,2180001168866,新規,0,2025-10-06,2025-10-06,セレンディップＳＰＣ３号株式会社,,株式会社,愛知県,名古屋市中区,錦１丁目５番１１号,,23,106,4600003,,,,,,,2025-10-06,1,,,,,セレンディップエスピーシーサンゴウ,0
605,2180001168874,新規,0,2025-10-06,2025-10-06,株式会社エステック,,株式会社,愛知県,春日井市,前並町２丁目１１番地２９,,23,206,4860903,,,,,,,2025-10-06,1,,,,,エステック,0
606,2180001168949,新規,0,2025-10-06,2025-10-06,株式会社水谷鉄工,,株式会社,愛知県,名古屋市港区,善南町４５番地,,23,111,4550814,,,,,,,2025-10-06,1,,,,,ミズタニテッコウ,0
607,2180001168981,新規,0,2025-10-06,2025-10-06,セキュネスト株式会社,,株式会社,愛知県,名古屋市中村区,野上町３７番地,,23,105,4530859,,,,,,,2025-10-06,1,,,,,セキュネスト,0
610,2180003029166,新規,0,2025-10-06,2025-10-06,Ａ＆Ｂ　ＩＮＴＥＲＮＡＴＩＯＮＡＬ合同会社,,合同会社,愛知県,名古屋市天白区,古川町１４２番地,,23,116,4680046,,,,,,,2025-10-06,1,,,,,エーアンドビーインターナショナル,0
611,2180003029182,新規,0,2025-10-06,2025-10-06,Ｎｅｂｕｌａ合同会社,,合同会社,愛知県,名古屋市中区,大須４丁目１番７号サンポートヤバビル地下１階,,23,106,4600011,,,,,,,2025-10-06,1,,,,,ネビュラ,0
612,2180005021253,新規,0,2025-10-06,2025-10-06,一般社団法人Ｈａｌｏｓｐｏｒｔｓ,,その他の設立登記法人,愛知県,一宮市,北方町北方字吹埋１１７番地２,,23,203,4938001,,,,,,,2025-10-06,1,,,,,ハロースポーツ,0
613,2180301040262,新規,0,2025-10-06,2025-10-06,株式会社天翔,,株式会社,愛知県,豊田市,駒場町雲目１７番地３雲目ビル二階,,23,211,4730925,,,,,,,2025-10-06,1,,,,,テンショウ,0
614,2180301040270,新規,0,2025-10-06,2025-10-06,株式会社イーグルワン,,株式会社,愛知県,豊田市,上原町一丁田３０番地１,,23,211,4700341,,,,,,,2025-10-06,1,,,,,イーグルワン,0
615,2180301040295,新規,0,2025-10-06,2025-10-06,株式会社ＬＩＭＩＮＡＬ　ＲＯＢＯＴＩＣＳ,,株式会社,愛知県,岡崎市,夏山町字ソラ１６番地,,23,202,4443621,,,,,,,2025-10-06,1,,,,,リミナルロボティクス,0
616,2180303006757,新規,0,2025-10-06,2025-10-06,合同会社ヘアキャンバス,,合同会社,愛知県,豊橋市,東脇１丁目１番地３,,23,201,4418083,,,,,,,2025-10-06,1,,,,,ヘアキャンバス,0
619,2200003007078,新規,0,2025-10-06,2025-10-06,ＳＡＨＩ　ＴＲＡＤＩＮＧ合同会社,,合同会社,岐阜県,羽島市,堀津須賀南１－９９,,21,209,5016200,,,,,,,2025-10-06,1,,,,,サヒトレーディング,0
634,2240001065586,新規,0,2025-10-06,2025-10-06,株式会社アイクロステリア,,株式会社,広島県,呉市,本通４丁目４番１号,,34,202,7370045,,,,,,,2025-10-06,1,,,,,アイクロステリア,0
635,2240001065611,新規,0,2025-10-06,2025-10-06,株式会社日ノ出,,株式会社,広島県,呉市,警固屋６丁目１２番４０号,,34,202,7370012,,,,,,,2025-10-06,1,,,,,ヒノデ,0
636,2250001021365,新規,0,2025-10-06,2025-10-06,クリーンイノベーション株式会社,,株式会社,山口県,防府市,大字江泊９３１番地の４,,35,206,7470014,,,,,,,2025-10-06,1,,,,,クリーンイノベーション,0
638,2260001040604,新規,0,2025-10-06,2025-10-06,ハウスコネクション株式会社,,株式会社,岡山県,倉敷市,中庄１１４３番地１,,33,202,7100016,,,,,,,2025-10-06,1,,,,,ハウスコネクション,0
640,2260003005373,新規,0,2025-10-06,2025-10-06,合同会社パウファーマシー,,合同会社,岡山県,瀬戸内市,邑久町尾張１６７番地１１,,33,212,7014221,,,,,,,2025-10-06,1,,,,,パウファーマシー,0
641,2280001009523,新規,0,2025-10-06,2025-10-06,原田美装株式会社,,株式会社,島根県,鹿足郡吉賀町,蔵木５７７番地１,,32,505,6995504,,,,,,,2025-10-06,1,,,,,ハラダビソウ,0
643,2290001111559,新規,0,2025-10-06,2025-10-06,株式会社Ｂｌｏｏｍ　Ｉｒｉｓ,,株式会社,福岡県,久留米市,梅満町２７７－１プレジデント正弥ＧＯＬＤ１０５,,40,203,8300048,,,,,,,2025-10-06,1,,,,,ブルームアイリス,0
644,2290001111732,新規,0,2025-10-06,2025-10-06,株式会社ヒカリ,,株式会社,福岡県,久留米市,上津町１８０６番地１５,,40,203,8300052,,,,,,,2025-10-06,1,,,,,ヒカリ,0
645,2290003017498,新規,0,2025-10-06,2025-10-06,合同会社井上鋼業,,合同会社,福岡県,太宰府市,大字北谷９２４－１,,40,221,8180114,,,,,,,2025-10-06,1,,,,,イノウエコウギョウ,0
646,2290801031915,新規,0,2025-10-06,2025-10-06,山田ホールディングス株式会社,,株式会社,福岡県,北九州市門司区,中二十町６番２３号,,40,101,8000023,,,,,,,2025-10-06,1,,,,,ヤマダホールディングス,0
649,2300001014371,新規,0,2025-10-06,2025-10-06,株式会社スカイクリーニング,,株式会社,佐賀県,伊万里市,二里町八谷搦１３番地２１,,41,205,8480031,,,,,,,2025-10-06,1,,,,,スカイクリーニング,0
658,2340001027700,新規,0,2025-10-06,2025-10-06,株式会社教材のたまり,,株式会社,鹿児島県,鹿児島市,上荒田町１０番２１号,,46,201,8900055,,,,,,,2025-10-06,1,,,,,キョウザイノタマリ,0
667,2360001035858,新規,0,2025-10-06,2025-10-06,沖縄南海交通株式会社,,株式会社,沖縄県,那覇市,泉崎２丁目２番７号ストークハイツ湖南２０２,,47,201,9000021,,,,,,,2025-10-06,1,,,,,オキナワナンカイコウツウ,0
668,2360001035866,新規,0,2025-10-06,2025-10-06,玉峰株式会社,,株式会社,沖縄県,中頭郡中城村,字南上原１０４０番地１４サンステージ４０２号室,,47,328,9012424,,,,,,,2025-10-06,1,,,,,タマミネ,0
669,2360001035874,新規,0,2025-10-06,2025-10-06,株式会社Ｃｌｏｖｅｒ　ｒｅｎｔａｌ　ｃａｒ,,株式会社,沖縄県,豊見城市,字豊見城３６１－２,,47,212,9010241,,,,,,,2025-10-06,1,,,,,,0
670,2360001035882,新規,0,2025-10-06,2025-10-06,Ｏ．Ｍ　ＬＩＮＥ株式会社,,株式会社,沖縄県,南城市,佐敷字津波古９６６番地,,47,215,9011414,,,,,,,2025-10-06,1,,,,,オーエムライン,0
672,2360003015305,新規,0,2025-10-06,2025-10-06,比嘉電気工事合同会社,,合同会社,沖縄県,那覇市,字仲井真５１番地３,,47,201,9020074,,,,,,,2025-10-06,1,,,,,ヒガデンキコウジ,0
674,2370001053090,新規,0,2025-10-06,2025-10-06,株式会社長志建設,,株式会社,宮城県,仙台市青葉区,旭ケ丘４丁目１６番３号,,04,101,9810904,,,,,,,2025-10-06,1,,,,,ナガサネケンセツ,0
675,2370001053116,新規,0,2025-10-06,2025-10-06,株式会社ＫＯＵＳＯ,,株式会社,宮城県,岩沼市,早股字土手添７５番地,,04,211,9892424,,,,,,,2025-10-06,1,,,,,コウソウ,0
677,2380003006153,新規,0,2025-10-06,2025-10-06,合同会社セレスティア,,合同会社,福島県,いわき市,常磐馬玉町寺作１番地１ホワイトハートレーン１０５,,07,204,9728314,,,,,,,2025-10-06,1,,,,,セレスティア,0
681,2410001014286,新規,0,2025-10-06,2025-10-06,株式会社あかり,,株式会社,秋田県,にかほ市,金浦字下谷地４６番地１,,05,214,0180311,,,,,,,2025-10-06,1,,,,,アカリ,0
683,2420001019292,新規,0,2025-10-06,2025-10-06,株式会社寅矢,,株式会社,青森県,弘前市,大字富士見台１丁目１１番地２１,,02,202,0368143,,,,,,,2025-10-06,1,,,,,トラヤ,0
684,2420003003195,新規,0,2025-10-06,2025-10-06,合同会社ナインズ,,合同会社,青森県,十和田市,西三番町１番２８号,,02,206,0340083,,,,,,,2025-10-06,1,,,,,ナインズ,0
689,2430001095325,新規,0,2025-10-06,2025-10-06,株式会社夢ＭＡＲＵ,,株式会社,北海道,札幌市北区,北二十七条西２丁目１番１９号ドルフィン２７Ｂ２０１号,,01,102,0010027,,,,,,,2025-10-06,1,,,,,ユメマル,0
690,2430001095341,新規,0,2025-10-06,2025-10-06,株式会社ｔｒｕｓｔｅＤ,,株式会社,北海道,札幌市豊平区,美園九条３丁目２番１８号,,01,105,0620009,,,,,,,2025-10-06,1,,,,,トラステッド,0
694,2430005015320,新規,0,2025-10-06,2025-10-06,一般社団法人糸翠会,,その他の設立登記法人,北海道,札幌市西区,発寒十四条３丁目１番１号,,01,107,0630834,,,,,,,2025-10-06,1,,,,,シスイカイ,0
697,2440003001718,新規,0,2025-10-06,2025-10-06,合同会社トラスト,,合同会社,北海道,北斗市,谷好３丁目１番２６号,,01,236,0490141,,,,,,,2025-10-06,1,,,,,トラスト,0
702,2480001012960,新規,0,2025-10-06,2025-10-06,株式会社グッダイグループ,,株式会社,徳島県,徳島市,八百屋町２丁目２１番地モナ・クレッセントビル１階,,36,201,7700841,,,,,,,2025-10-06,1,,,,,グッダイグループ,0
703,2480001012969,新規,0,2025-10-06,2025-10-06,株式会社Ａｒｃａ,,株式会社,徳島県,名西郡石井町,高川原字高川原１４２１番地７,,36,341,7793223,,,,,,,2025-10-06,1,,,,,アルカ,0
706,2500003003609,新規,0,2025-10-06,2025-10-06,合同会社ＨＡＲＥ,,合同会社,愛媛県,松山市,本町６丁目４番地６チェリー本町ビル２０６号,,38,201,7900811,,,,,,,2025-10-06,1,,,,,ハレ,0
716,3010001258732,新規,0,2025-10-06,2025-10-06,愛普株式会社,,株式会社,東京都,文京区,本郷５丁目９－５菊坂回廊ビル２０６室,,13,105,1130033,,,,,,,2025-10-06,1,,,,,アイブ,0
717,3010001259004,新規,0,2025-10-06,2025-10-06,株式会社ＴＫ＆Ｃｏｍｐａｎｙ,,株式会社,東京都,千代田区,麹町６丁目４番１７号ブライトンビル５階,,13,101,1020083,,,,,,,2025-10-06,1,,,,,ティーケーアンドカンパニー,0
718,3010001259078,新規,0,2025-10-06,2025-10-06,フラクセラ・メディカル株式会社,,株式会社,東京都,文京区,本郷１丁目２８番１０号,,13,105,1130033,,,,,,,2025-10-06,1,,,,,フラクセラメディカル,0
719,3010001259103,新規,0,2025-10-06,2025-10-06,エフィニックスジャパン株式会社,,株式会社,東京都,千代田区,九段南１丁目６番５号,,13,101,1020074,,,,,,,2025-10-06,1,,,,,エフィニックスジャパン,0
720,3010001259136,新規,0,2025-10-06,2025-10-06,株式会社日比谷プロパティ,,株式会社,東京都,千代田区,内幸町２丁目１番６号,,13,101,1000011,,,,,,,2025-10-06,1,,,,,ヒビヤプロパティ,0
723,3010003048925,新規,0,2025-10-06,2025-10-06,合同会社ＨＭＺＥＨ８,,合同会社,東京都,中央区,銀座４丁目６番１号三幸アセットマネジメント株式会社内,,13,102,1040061,,,,,,,2025-10-06,1,,,,,エイチエムゼッチエイト,0
724,3010003048941,新規,0,2025-10-06,2025-10-06,合同会社アポロのしっぽ,,合同会社,東京都,文京区,本駒込５丁目８番２号,,13,105,1130021,,,,,,,2025-10-06,1,,,,,アポロノシッポ,0
728,3010005040731,新規,0,2025-10-06,2025-10-06,一般社団法人バーチュ・アンド・エクセレンス,,その他の設立登記法人,東京都,千代田区,紀尾井町３番１２号,,13,101,1020094,,,,,,,2025-10-06,1,,,,,バーチュアンドエクセレンス,0
729,3010005040748,新規,0,2025-10-06,2025-10-06,一般財団法人アンクル財団,,その他の設立登記法人,東京都,中央区,日本橋２丁目９－４ＶＯＲＴ日本橋Ｉ－５階,00140957,13,102,1030027,,,,,,,2025-10-06,1,,,,,アンクルザイダン,0
730,3010103002666,新規,0,2025-10-06,2025-10-06,合同会社アールアンドエム,,合同会社,東京都,八王子市,めじろ台２丁目５１番地６,,13,201,1930833,,,,,,,2025-10-06,1,,,,,アールアンドエム,0
738,3010401193348,新規,0,2025-10-06,2025-10-06,株式会社ｎｏｂｉ　ｌａｗ,,株式会社,東京都,港区,虎ノ門１丁目１番２１号,,13,103,1050001,,,,,,,2025-10-06,1,,,,,ノビロー,0
739,3010401193406,新規,0,2025-10-06,2025-10-06,株式会社ＪＥＳＡＮ,,株式会社,東京都,港区,新橋２丁目９－１７第二常盤ビル４階Ｂ号室,,13,103,1050004,,,,,,,2025-10-06,1,,,,,ジェサン,0
740,3010403036174,新規,0,2025-10-06,2025-10-06,幸浦ディーシー１合同会社,,合同会社,東京都,港区,六本木１丁目６番１号泉ガーデンタワー,,13,103,1060032,,,,,,,2025-10-06,1,,,,,サチウラディーシーワン,0
741,3010403036190,新規,0,2025-10-06,2025-10-06,ＭＫＸ　Ｐａｒｔｎｅｒｓ合同会社,,合同会社,東京都,港区,白金１丁目２番１白金ザスカイＥ２２０８号,,13,103,1080072,,,,,,,2025-10-06,1,,,,,エムケーエックスパートナーズ,0
742,3010501054771,新規,0,2025-10-06,2025-10-06,仁済康橋株式会社,,株式会社,東京都,台東区,蔵前４丁目１６－６ストーク蔵前Ｍ＆Ｋ４階４２１,,13,106,1110051,,,,,,,2025-10-06,1,,,,,ジンザイコウキョウ,0
743,3010501054813,新規,0,2025-10-06,2025-10-06,龍誉貿易株式会社,,株式会社,東京都,台東区,台東１丁目２３番１０－３０４号ハイム秋葉原,,13,106,1100016,,,,,,,2025-10-06,1,,,,,リュウヨボウエキ,0
744,3010503008016,新規,0,2025-10-06,2025-10-06,合同会社ＭＩＴＳＵＧＩ　ＷＯＲＫＳ,,合同会社,東京都,台東区,三筋２丁目６－１１,,13,106,1110055,,,,,,,2025-10-06,1,,,,,ミツギワークス,0
745,3010603011836,新規,0,2025-10-06,2025-10-06,合同会社Ｍａｙｓ,,合同会社,東京都,江東区,北砂３丁目４番１５－１１０５号,,13,108,1360073,,,,,,,2025-10-06,1,,,,,メイズ,0
749,3010903010298,新規,0,2025-10-06,2025-10-06,Ａｓｐｉｒｅ　Ａｎａｌｙｔｉｃｓ合同会社,,合同会社,東京都,世田谷区,太子堂４丁目１８番１５号マガザン三軒茶屋２－３Ｆ－３,,13,112,1540004,,,,,,,2025-10-06,1,,,,,アスパイアアナリティクス,0
755,3011001172287,新規,0,2025-10-06,2025-10-06,株式会社ブライトリンク,,株式会社,東京都,渋谷区,代官山町２０番２３号３階,,13,113,1500034,,,,,,,2025-10-06,1,,,,,ブライトリンク,0
756,3011001172345,新規,0,2025-10-06,2025-10-06,株式会社サスティ,,株式会社,東京都,渋谷区,円山町５番３号ＭＩＥＵＸ渋谷ビル８階,,13,113,1500044,,,,,,,2025-10-06,1,,,,,サスティ,0
757,3011001172477,新規,0,2025-10-06,2025-10-06,株式会社ｐｈｙｓｉｃａｌ　ｉｎｎｏｖａｔｉｏｎ,,株式会社,東京都,渋谷区,東３丁目２４番８号マーサ恵比寿４０２,,13,113,1500011,,,,,,,2025-10-06,1,,,,,フィジカルイノベーション,0
759,3011003022498,新規,0,2025-10-06,2025-10-06,ａｓｏｖｉｖａ合同会社,,合同会社,東京都,渋谷区,上原１丁目１７番１４ー２０１号,,13,113,1510064,,,,,,,2025-10-06,1,,,,,アソビバ,0
760,3011003022647,新規,0,2025-10-06,2025-10-06,合同会社ＲｉｓｅＡｒｃ,,合同会社,東京都,渋谷区,円山町５番３号ＭＩＥＵＸ渋谷ビル８階,,13,113,1500044,,,,,,,2025-10-06,1,,,,,ライズアーク,0
761,3011003022721,新規,0,2025-10-06,2025-10-06,合同会社波ワークス,,合同会社,東京都,目黒区,自由が丘３丁目１７番２０号ダイアパレス自由ケ丘５０４,,13,110,1520035,,,,,,,2025-10-06,1,,,,,ナミワークス,0
766,3011101113439,新規,0,2025-10-06,2025-10-06,株式会社ＳＴＡＢＬＥ,,株式会社,東京都,新宿区,高田馬場２丁目８番６号,,13,104,1690075,,,,,,,2025-10-06,1,,,,,ステーブル,0
768,3011105011606,新規,0,2025-10-06,2025-10-06,軽井沢ＰＪ一般社団法人,,その他の設立登記法人,東京都,新宿区,四谷２丁目９番地１５東京ユナイテッド綜合事務所内,,13,104,1600004,,,,,,,2025-10-06,1,,,,,カルイザワピージェイ,0
770,3011401027462,新規,0,2025-10-06,2025-10-06,株式会社上板橋珈琲,,株式会社,東京都,板橋区,上板橋３丁目４番１１号二村ビル１階,,13,119,1740076,,,,,,,2025-10-06,1,,,,,カミイタバシコーヒー,0
772,3011601029028,新規,0,2025-10-06,2025-10-06,千語谷株式会社,,株式会社,東京都,練馬区,春日町６丁目１６番１１号フォーチュン光が丘２１０,,13,120,1790074,,,,,,,2025-10-06,1,,,,,センゴヤ,0
783,3012401043648,新規,0,2025-10-06,2025-10-06,クレセル株式会社,,株式会社,東京都,武蔵野市,境南町２丁目１３番２号,,13,203,1800023,,,,,,,2025-10-06,1,,,,,クレセル,0
784,3012401043664,新規,0,2025-10-06,2025-10-06,ｏｒｉｎ株式会社,,株式会社,東京都,武蔵野市,吉祥寺本町２丁目１６番１２号ヨキヒ吉祥寺３階Ｆ区画,,13,203,1800004,,,,,,,2025-10-06,1,,,,,オリン,0
785,3012403007378,新規,0,2025-10-06,2025-10-06,御殿山工業合同会社,,合同会社,東京都,武蔵野市,御殿山２丁目１５番７号,,13,203,1800005,,,,,,,2025-10-06,1,,,,,ゴテンヤマコウギョウ,0
786,3012701019109,新規,0,2025-10-06,2025-10-06,株式会社エイテック電気,,株式会社,東京都,西東京市,南町３丁目１０番１８号,,13,229,1880012,,,,,,,2025-10-06,1,,,,,エイテックデンキ,0
787,3012801024280,新規,0,2025-10-06,2025-10-06,株式会社勇志工業,,株式会社,東京都,昭島市,田中町２丁目７番２号,,13,207,1960014,,,,,,,2025-10-06,1,,,,,ユウシコウギョウ,0
788,3013101009823,新規,0,2025-10-06,2025-10-06,株式会社丸商,,株式会社,東京都,福生市,大字熊川５０９－１,,13,218,1970003,,,,,,,2025-10-06,1,,,,,マルショウ,0
791,3013303007897,新規,0,2025-10-06,2025-10-06,合同会社Ｒ＆Ｈ,,合同会社,東京都,豊島区,巣鴨４丁目１０番４号,,13,116,1700002,,,,,,,2025-10-06,1,,,,,アールアンドエイチ,0
801,3020001164896,新規,0,2025-10-06,2025-10-06,株式会社ダブリューティーエヌ,,株式会社,神奈川県,川崎市高津区,溝口５丁目２３番２６号コアクレスト高津３０３号,,14,134,2130001,,,,,,,2025-10-06,1,,,,,ダブリューティーエヌ,0
802,3020001164962,新規,0,2025-10-06,2025-10-06,ＡＮＤＷＩＮ株式会社,,株式会社,神奈川県,川崎市幸区,中幸町３丁目３１番２ＤＡＩＫＹＯＫＥＮＫＩＫＡＷＡＳＡＫＩＢＬＤＧＭＩＤＰＯＩＮＴ川崎８Ｆ,,14,132,2120012,,,,,,,2025-10-06,1,,,,,アンドウィン,0
803,3020001165077,新規,0,2025-10-06,2025-10-06,ＴＨＲＥＥ株式会社,,株式会社,神奈川県,横浜市都筑区,あゆみが丘１７番２１号,,14,118,2240016,,,,,,,2025-10-06,1,,,,,スリー,0
804,3020001165119,新規,0,2025-10-06,2025-10-06,株式会社ＴＲＡｎｏｖａ,,株式会社,神奈川県,横浜市鶴見区,大黒ふ頭２２番横浜港国際流通センター事務所棟３階１３０９号室,,14,101,2300054,,,,,,,2025-10-06,1,,,,,トラノヴァ,0
805,3020001165127,新規,0,2025-10-06,2025-10-06,株式会社ＴＬ,,株式会社,神奈川県,川崎市中原区,上小田中６丁目３４番３５－５０２号,,14,133,2110053,,,,,,,2025-10-06,1,,,,,ティーエル,0
806,3020001165143,新規,0,2025-10-06,2025-10-06,ＬＡＩＲＵ株式会社,,株式会社,神奈川県,川崎市川崎区,砂子２丁目１０番地１６プライムネクサス川崎砂子９０２号室,,14,131,2100006,,,,,,,2025-10-06,1,,,,,ライル,0
807,3020001165151,新規,0,2025-10-06,2025-10-06,Ａｄｖａｎｃｅｄ　Ｇｌｏｂａｌ　Ａｌｌｉａｎｃｅ株式会社,,株式会社,神奈川県,横浜市港北区,新横浜３丁目６番１２号日総第１２ビル６階,,14,109,2220033,,,,,,,2025-10-06,1,,,,,アドバンストグローバルアライアンス,0
808,3020001165201,新規,0,2025-10-06,2025-10-06,ｍｉｎａｍｏ株式会社,,株式会社,神奈川県,横浜市西区,北幸２丁目１０番４８号むつみビル３階,,14,103,2200004,,,,,,,2025-10-06,1,,,,,ミナモ,0
809,3020001165218,新規,0,2025-10-06,2025-10-06,株式会社ウェッジコ,,株式会社,神奈川県,横浜市南区,永田北２丁目２番１号,,14,105,2320071,,,,,,,2025-10-06,1,,,,,ウェッジコ,0
815,3020003029494,新規,0,2025-10-06,2025-10-06,ｒｅｃｅｐｔｉｏｎ合同会社,,合同会社,神奈川県,川崎市多摩区,堰１丁目３番１７－３号,,14,135,2140022,,,,,,,2025-10-06,1,,,,,レセプション,0
816,3020003029528,新規,0,2025-10-06,2025-10-06,ＩＭＣ合同会社,,合同会社,神奈川県,横浜市南区,睦町１丁目２９番地１１,,14,105,2320041,,,,,,,2025-10-06,1,,,,,アイエムシー,0
821,3021001086387,新規,0,2025-10-06,2025-10-06,株式会社ＣｏｒｅＶｅｒｖｅ,,株式会社,神奈川県,茅ヶ崎市,松尾２番３９号ウィステリア湘南ＩＩＩ２０３,00140938,14,207,2530065,,,,,,,2025-10-06,1,,,,,コアバーブ,0
822,3021001086412,新規,0,2025-10-06,2025-10-06,株式会社片平建設,,株式会社,神奈川県,大和市,深見西２丁目１番１０号モントーク２Ｂ,,14,213,2420018,,,,,,,2025-10-06,1,,,,,カタヒラケンセツ,0
831,3030001168921,新規,0,2025-10-06,2025-10-06,株式会社Ｈｉｍａｗａｒｉ,,株式会社,埼玉県,狭山市,柏原３１８０番地の１９,,11,215,3501335,,,,,,,2025-10-06,1,,,,,ヒマワリ,0
832,3030001168954,新規,0,2025-10-06,2025-10-06,サイキックス株式会社,,株式会社,埼玉県,さいたま市大宮区,桜木町１丁目１９５－１大宮ソラミチＫＯＺ４階,,11,103,3300854,,,,,,,2025-10-06,1,,,,,サイキックス,0
833,3030001168962,新規,0,2025-10-06,2025-10-06,株式会社ＴＯＷＡ,,株式会社,埼玉県,さいたま市浦和区,仲町４丁目１９番１５号,,11,107,3300062,,,,,,,2025-10-06,1,,,,,トワ,0
834,3030001168970,新規,0,2025-10-06,2025-10-06,株式会社ホームアライメント,,株式会社,埼玉県,熊谷市,宮本町１４５番地１熊谷オリエンタルマンション４１２,,11,202,3600822,,,,,,,2025-10-06,1,,,,,ホームアライメント,0
835,3030001168979,新規,0,2025-10-06,2025-10-06,株式会社ニューファミリーワン,,株式会社,埼玉県,熊谷市,妻沼小島２６２０番地,,11,202,3600245,,,,,,,2025-10-06,1,,,,,ニューファミリーワン,0
836,3030001169060,新規,0,2025-10-06,2025-10-06,株式会社誠真商事,,株式会社,埼玉県,草加市,松原４丁目４－５－２０,,11,221,3400041,,,,,,,2025-10-06,1,,,,,セイシンショウジ,0
843,3030003027778,新規,0,2025-10-06,2025-10-06,合同会社ＦｕｊｉＺａｋｕｒａ,,合同会社,埼玉県,川越市,神明町８番地５,,11,201,3500823,,,,,,,2025-10-06,1,,,,,フジザクラ,0
844,3030003027786,新規,0,2025-10-06,2025-10-06,Ｔｅａｍ　Ｗ合同会社,,合同会社,埼玉県,さいたま市浦和区,本太２丁目１６番５号,,11,107,3300052,,,,,,,2025-10-06,1,,,,,チームダブリュー,0
845,3030003027828,新規,0,2025-10-06,2025-10-06,ＴＳＵＣＨＩＹＡ合同会社,,合同会社,埼玉県,北本市,西高尾５丁目８０番地コーポ新井２０２,,11,233,3640035,,,,,,,2025-10-06,1,,,,,ツチヤ,0
850,3040001140672,新規,0,2025-10-06,2025-10-06,株式会社ヴィビスタ,,株式会社,千葉県,船橋市,習志野台６丁目３番１－１１１号,,12,204,2740063,,,,,,,2025-10-06,1,,,,,ヴィビスタ,0
851,3040001140714,新規,0,2025-10-06,2025-10-06,焦石株式会社,,株式会社,千葉県,千葉市若葉区,みつわ台５丁目３６番１６号２階,,12,104,2640032,,,,,,,2025-10-06,1,,,,,ショウセキ,0
852,3040001140730,新規,0,2025-10-06,2025-10-06,株式会社ＳＡ　ｔｒａｄｉｎｇ,,株式会社,千葉県,四街道市,旭ケ丘２丁目３番１３号,,12,228,2840024,,,,,,,2025-10-06,1,,,,,エスエイトレーディング,0
853,3040001140747,新規,0,2025-10-06,2025-10-06,Ａｓｈｉｔａ　Ｒｏｕｔｅ株式会社,,株式会社,千葉県,浦安市,明海１丁目３番２－１０３号,,12,227,2790014,,,,,,,2025-10-06,1,,,,,アシタルート,0
854,3040001140763,新規,0,2025-10-06,2025-10-06,株式会社ＴｅｒｒａＬｉｎｋ,,株式会社,千葉県,袖ケ浦市,神納３８５４番地１,,12,229,2990257,,,,,,,2025-10-06,1,,,,,テラリンク,0
857,3050001057338,新規,0,2025-10-06,2025-10-06,ＩＪＴ株式会社,,株式会社,茨城県,龍ケ崎市,出し山町１５９番地１,,08,208,3010839,,,,,,,2025-10-06,1,,,,,アイジェーティー,0
859,3050003009634,新規,0,2025-10-06,2025-10-06,合同会社ブルーム,,合同会社,茨城県,つくば市,二の宮３丁目２１番地２５,,08,220,3050051,,,,,,,2025-10-06,1,,,,,ブルーム,0
862,3060001038634,新規,0,2025-10-06,2025-10-06,株式会社Ｌｕｍｉｎｏｕｓ,,株式会社,栃木県,宇都宮市,東簗瀬１丁目５番１０号－１０３,,09,201,3210925,,,,,,,2025-10-06,1,,,,,ルミナス,0
863,3060001038642,新規,0,2025-10-06,2025-10-06,株式会社ニコナスランチ,,株式会社,栃木県,那須塩原市,並木町１１６番地４６,,09,213,3250031,,,,,,,2025-10-06,1,,,,,ニコナスランチ,0
866,3080001027180,新規,0,2025-10-06,2025-10-06,株式会社裕信,,株式会社,静岡県,静岡市葵区,松富２丁目１番５７号,,22,101,4200941,,,,,,,2025-10-06,1,,,,,ユウシン,0
867,3080001027189,新規,0,2025-10-06,2025-10-06,株式会社経営基盤連携推進法人,,株式会社,静岡県,静岡市葵区,上沓谷町１７番地の３,,22,101,4200815,,,,,,,2025-10-06,1,,,,,ケイエイキバンレンケイスイシンホウジン,0
868,3080001027197,新規,0,2025-10-06,2025-10-06,株式会社ＳＭＩＬＥ　ＴＯＷＮ,,株式会社,静岡県,牧之原市,細江２７１５－１・２０１号室,,22,226,4210421,,,,,,,2025-10-06,1,,,,,スマイルタウン,0
869,3080101025811,新規,0,2025-10-06,2025-10-06,株式会社光輝メディカル,,株式会社,静岡県,沼津市,大岡１３８番地,,22,203,4100022,,,,,,,2025-10-06,1,,,,,コウキメディカル,0
872,3080401028200,新規,0,2025-10-06,2025-10-06,株式会社ｃｏｃｏ　ｇｒａｃｅ,,株式会社,静岡県,浜松市中央区,雄踏町宇布見８９４４番地の２,,22,138,4310102,,,,,,,2025-10-06,1,,,,,ココグレイス,0
874,3100001039000,新規,0,2025-10-06,2025-10-06,株式会社ＨＫ工業,,株式会社,長野県,長野市,合戦場２丁目１２６番地１,,20,201,3888008,,,,,,,2025-10-06,1,,,,,エイチケーコウギョウ,0
875,3100003008408,新規,0,2025-10-06,2025-10-06,合同会社縁,,合同会社,長野県,松本市,大字内田３２２９番地１６,,20,202,3990023,,,,,,,2025-10-06,1,,,,,エン,0
876,3100003008416,新規,0,2025-10-06,2025-10-06,Ｔａｓｍａｎ合同会社,,合同会社,長野県,北安曇郡白馬村,大字神城山ノ神２２２０３番地１５２,,20,485,3999211,,,,,,,2025-10-06,1,,,,,タスマン,0
883,3110001039627,新規,0,2025-10-06,2025-10-06,株式会社佐野,,株式会社,新潟県,新潟市中央区,上大川前通１０番町１８７６番地,,15,103,9518068,,,,,,,2025-10-06,1,,,,,サノ,0
884,3110003005899,新規,0,2025-10-06,2025-10-06,ＧＳＣ　ＧＲＯＵＰ合同会社,,合同会社,新潟県,妙高市,大字田口１４５２－１０,,15,217,9492106,,,,,,,2025-10-06,1,,,,,ジーエスシーグループ,0
899,3120001280221,新規,0,2025-10-06,2025-10-06,永家株式会社,,株式会社,大阪府,大阪市淀川区,西宮原２丁目６－１６新大阪コーポビアネーズ３１７,,27,123,5320004,,,,,,,2025-10-06,1,,,,,エイカ,0
900,3120001280238,新規,0,2025-10-06,2025-10-06,宇大株式会社,,株式会社,大阪府,大阪市中央区,船場中央３丁目３番９号船場センタービル９号館２階,,27,128,5410055,,,,,,,2025-10-06,1,,,,,ウダイ,0
901,3120001280254,新規,0,2025-10-06,2025-10-06,株式会社イルミアテック,,株式会社,大阪府,大阪市北区,梅田１丁目２－２－１２－１２,,27,127,5300001,,,,,,,2025-10-06,1,,,,,イルミアテック,0
902,3120001280262,新規,0,2025-10-06,2025-10-06,錦新商貿株式会社,,株式会社,大阪府,大阪市住吉区,杉本１丁目９－１６グランビルドアビコＩＩ－２０３号,00140932,27,120,5580022,,,,,,,2025-10-06,1,,,,,キンシンショウボウ,0
903,3120001280287,新規,0,2025-10-06,2025-10-06,株式会社ＡＫ,,株式会社,大阪府,大阪市北区,芝田２丁目８－１１共栄ビル３Ｆ,,27,127,5300012,,,,,,,2025-10-06,1,,,,,エーケー,0
904,3120001280312,新規,0,2025-10-06,2025-10-06,信和株式会社,,株式会社,大阪府,大阪市生野区,新今里３丁目５番１８号ＳＥＩＫＡビル３０１号,,27,116,5440001,,,,,,,2025-10-06,1,,,,,シンワ,0
905,3120001280361,新規,0,2025-10-06,2025-10-06,株式会社アイオン・パートナーズ,,株式会社,大阪府,大阪市生野区,巽北１丁目２９番４号,00140950,27,116,5440004,,,,,,,2025-10-06,1,,,,,アイオンパートナーズ,0
906,3120001280403,新規,0,2025-10-06,2025-10-06,株式会社ｃｈｅｍｉｎ,,株式会社,大阪府,大阪市中央区,南本町４丁目５番７号東亜ビル５階１７,,27,128,5410054,,,,,,,2025-10-06,1,,,,,シュマン,0
907,3120001280436,新規,0,2025-10-06,2025-10-06,株式会社コトブキ美装,,株式会社,大阪府,大阪市住之江区,新北島３丁目３番３５号,,27,125,5590024,,,,,,,2025-10-06,1,,,,,コトブキビソウ,0
908,3120001280601,新規,0,2025-10-06,2025-10-06,恒隆株式会社,,株式会社,大阪府,大阪市東住吉区,中野４丁目１番１６号リベラルオリエンテ中野２０９Ｂ,,27,121,5460012,,,,,,,2025-10-06,1,,,,,コウシュウ,0
909,3120001280691,新規,0,2025-10-06,2025-10-06,株式会社ＳＴＥＰ　ＯＮＥ,,株式会社,大阪府,大阪市住之江区,新北島７丁目１番７２号,,27,125,5590024,,,,,,,2025-10-06,1,,,,,ステップワン,0
918,3120003030847,新規,0,2025-10-06,2025-10-06,樂享科技合同会社,,合同会社,大阪府,大阪市西成区,萩之茶屋２丁目６番４号ニューかめや１１３号室,,27,122,5570004,,,,,,,2025-10-06,1,,,,,ガクキョウカギ,0
919,3120003030913,新規,0,2025-10-06,2025-10-06,合同会社おにげん,,合同会社,大阪府,交野市,森北１丁目４番５号サンメルシー１０２,,27,230,5760036,,,,,,,2025-10-06,1,,,,,オニゲン,0
926,3120901051572,新規,0,2025-10-06,2025-10-06,株式会社コンパスアセット,,株式会社,大阪府,豊中市,中桜塚２丁目５番２０号,,27,203,5610881,,,,,,,2025-10-06,1,,,,,コンパスアセット,0
929,3122001039770,新規,0,2025-10-06,2025-10-06,株式会社ＭＲＴ,,株式会社,大阪府,東大阪市,長田中４丁目３番１１号,,27,227,5770013,,,,,,,2025-10-06,1,,,,,エムアールティ,0
931,3122003003337,新規,0,2025-10-06,2025-10-06,合同会社ｍｉｉｔ,,合同会社,大阪府,大東市,氷野１丁目１７番２１号,,27,218,5740062,,,,,,,2025-10-06,1,,,,,ミート,0
933,3130001080678,新規,0,2025-10-06,2025-10-06,株式会社ＩＮＫ　ＡＲＲＯＷ,,株式会社,京都府,京都市右京区,西院日照町６３番地メイツ西院ラヴィネス２０６号,,26,108,6150065,,,,,,,2025-10-06,1,,,,,インクアロウ,0
937,3140001140200,新規,0,2025-10-06,2025-10-06,尊牛アジア貿易株式会社,,株式会社,兵庫県,神戸市灘区,城内通５丁目５－１６－４０２,,28,102,6570836,,,,,,,2025-10-06,1,,,,,ソンギュウアジアボウエキ,0
938,3140001140209,新規,0,2025-10-06,2025-10-06,株式会社ヴィレオカーボンソリューションズ,,株式会社,兵庫県,加西市,北条町西南３７７番地,,28,220,6752323,,,,,,,2025-10-06,1,,,,,ヴィレオカーボンソリューションズ,0
939,3140001140241,新規,0,2025-10-06,2025-10-06,株式会社サンクリエイト,,株式会社,兵庫県,神戸市灘区,浜田町３丁目２番５号ＶＩＬＬＡ六甲道４０１号,,28,102,6570862,,,,,,,2025-10-06,1,,,,,サンクリエイト,0
941,3140005027658,新規,0,2025-10-06,2025-10-06,一般社団法人ＷＥＬＬＶＩＳＩＯＮＥＤ　ＰＲＯＪＥＣＴ,,その他の設立登記法人,兵庫県,神戸市垂水区,千鳥が丘３丁目２４番７５号,,28,108,6550011,,,,,,,2025-10-06,1,,,,,ウェルビジョンドプロジェクト,0
942,3150001028452,新規,0,2025-10-06,2025-10-06,株式会社ＤＥＵＸ,,株式会社,奈良県,葛城市,八川１３３番ピーアニ当麻５０１号,,29,211,6392163,,,,,,,2025-10-06,1,,,,,ドゥー,0
950,3180001168790,新規,0,2025-10-06,2025-10-06,ＤＬ商事株式会社,,株式会社,愛知県,名古屋市西区,枇杷島１丁目６番６号,,23,104,4510053,,,,,,,2025-10-06,1,,,,,ディーエルショウジ,0
951,3180001168865,新規,0,2025-10-06,2025-10-06,株式会社グリッドキャピタル,,株式会社,愛知県,小牧市,中央１丁目２２８番地１ライオンズ小牧ステーションレジデンス９０３号,,23,219,4850029,,,,,,,2025-10-06,1,,,,,グリッドキャピタル,0
952,3180001168873,新規,0,2025-10-06,2025-10-06,株式会社ＮＡＣＨＩＲＵ,,株式会社,愛知県,名古屋市昭和区,下構町１丁目２番地１,,23,107,4660025,,,,,,,2025-10-06,1,,,,,ナチル,0
953,3180001168915,新規,0,2025-10-06,2025-10-06,株式会社ＫＩＣＨＯＵ,,株式会社,愛知県,愛西市,赤目町中屋敷７４番地５,,23,232,4968046,,,,,,,2025-10-06,1,,,,,キチョウ,0
954,3180001168956,新規,0,2025-10-06,2025-10-06,株式会社秋元美術,,株式会社,愛知県,名古屋市東区,東片端町５２番地,,23,102,4610015,,,,,,,2025-10-06,1,,,,,アキモトビジュツ,0
957,3180003029124,新規,0,2025-10-06,2025-10-06,合同会社ダンドリーズ,,合同会社,愛知県,名古屋市昭和区,川名町５丁目２７コスモ川名４Ｄ,,23,107,4660856,,,,,,,2025-10-06,1,,,,,ダンドリーズ,0
961,3180301040278,新規,0,2025-10-06,2025-10-06,株式会社Ｃｉｔｙ　Ｍａｒｔ,,株式会社,愛知県,安城市,法連町１７番地１マンション久保田１階１０１号室,,23,212,4460021,,,,,,,2025-10-06,1,,,,,シティーマート,0
962,3180301040286,新規,0,2025-10-06,2025-10-06,株式会社ＬＩＢＥＲＴＹ,,株式会社,愛知県,豊田市,東山町２丁目１番地１９,,23,211,4710014,,,,,,,2025-10-06,1,,,,,リバティ,0
966,3190001032582,新規,0,2025-10-06,2025-10-06,井村屋フードサービス株式会社,,株式会社,三重県,津市,高茶屋７丁目１番１号,,24,201,5140819,,,,,,,2025-10-06,1,,,,,イムラヤフードサービス,0
972,3200001044304,新規,0,2025-10-06,2025-10-06,株式会社長勝工業,,株式会社,岐阜県,中津川市,中津川２３６４番地の２０２２,,21,206,5080001,,,,,,,2025-10-06,1,,,,,チョウショウコウギョウ,0
982,3240001065585,新規,0,2025-10-06,2025-10-06,株式会社ｓｌａｃｋ,,株式会社,広島県,廿日市市,串戸４丁目１３番２９号エコービル１０３,,34,213,7380033,,,,,,,2025-10-06,1,,,,,スラック,0
983,3240001065610,新規,0,2025-10-06,2025-10-06,株式会社エフプラン,,株式会社,広島県,広島市西区,中広町１丁目５番２０－３０４号,,34,104,7330012,,,,,,,2025-10-06,1,,,,,エフプラン,0
987,3250001021356,新規,0,2025-10-06,2025-10-06,株式会社クレアテック,,株式会社,山口県,山陽小野田市,大字鴨庄６２０番地９,,35,216,7570005,,,,,,,2025-10-06,1,,,,,クレアテック,0
988,3250001021372,新規,0,2025-10-06,2025-10-06,株式会社アンドユー,,株式会社,山口県,宇部市,大字妻崎開作８５８番地１,,35,202,7590204,,,,,,,2025-10-06,1,,,,,アンドユー,0
989,3250003003823,新規,0,2025-10-06,2025-10-06,合同会社レ・ミ・ファス,,合同会社,山口県,防府市,泉町１７番１号,,35,206,7470051,,,,,,,2025-10-06,1,,,,,レミファス,0
990,3260001040594,新規,0,2025-10-06,2025-10-06,株式会社ＨＹ,,株式会社,岡山県,岡山市北区,上中野１丁目８－１４,,33,101,7000972,,,,,,,2025-10-06,1,,,,,エイチワイ,0
991,3260003005372,新規,0,2025-10-06,2025-10-06,合同会社ｙａｓｕｔｏｙｏ,,合同会社,岡山県,岡山市中区,下５０９番地３,,33,102,7038222,,,,,,,2025-10-06,1,,,,,ヤストヨ,0
993,3280001009522,新規,0,2025-10-06,2025-10-06,エステックホールディングス株式会社,,株式会社,島根県,松江市,東出雲町揖屋２７９７番地３,,32,201,6990101,,,,,,,2025-10-06,1,,,,,エステックホールディングス,0
995,3290001111574,新規,0,2025-10-06,2025-10-06,株式会社ＥＤＥＲＬＥ,,株式会社,福岡県,福岡市中央区,天神２丁目２番１２号Ｔ＆Ｊビルディング７Ｆ,,40,133,8100001,,,,,,,2025-10-06,1,,,,,エダール,0
997,3290003017472,新規,0,2025-10-06,2025-10-06,Ｅ＆Ｈ合同会社,,合同会社,福岡県,糸島市,潤２丁目８番２７号,,40,230,8191105,,,,,,,2025-10-06,1,,,,,イーアンドエイチ,0
998,3290003017497,新規,0,2025-10-06,2025-10-06,合同会社マサヒロリビング,,合同会社,福岡県,春日市,平田台６丁目６３番地,,40,218,8160812,,,,,,,2025-10-06,1,,,,,マサヒロリビング,0
1002,3290801031897,新規,0,2025-10-06,2025-10-06,株式会社ＦＰ,,株式会社,福岡県,北九州市八幡西区,馬場山６番１６号,,40,109,8071136,,,,,,,2025-10-06,1,,,,,エフピー,0
1004,3300001014362,新規,0,2025-10-06,2025-10-06,株式会社はかせフードサービス,,株式会社,佐賀県,伊万里市,松島町９５番地１,,41,205,8480045,,,,,,,2025-10-06,1,,,,,ハカセフードサービス,0
1005,3300001014370,新規,0,2025-10-06,2025-10-06,株式会社イエローリーフ,,株式会社,佐賀県,伊万里市,二里町八谷搦１８５番地８,,41,205,8480031,,,,,,,2025-10-06,1,,,,,イエローリーフ,0
1008,3300003002349,新規,0,2025-10-06,2025-10-06,Ｔ＆Ｓデンソーサービス合同会社,,合同会社,佐賀県,三養基郡上峰町,大字前牟田１３８６番地,,41,345,8490122,,,,,,,2025-10-06,1,,,,,ティーアンドエスデンソーサービス,0
1010,3330003011256,新規,0,2025-10-06,2025-10-06,合同会社Ｉｎｖｅｓｔｍｅｎｔ,,合同会社,熊本県,熊本市中央区,水前寺４丁目１９番２０号グランピアマンション水前寺２－１０８号室,,43,101,8620950,,,,,,,2025-10-06,1,,,,,インベストメント,0
1011,3340001027699,新規,0,2025-10-06,2025-10-06,株式会社ＫＴＦトランスポート,,株式会社,鹿児島県,霧島市,隼人町姫城２６０３番地８,,46,218,8995111,,,,,,,2025-10-06,1,,,,,ケーティーエフトランスポート,0
1012,3340001027708,新規,0,2025-10-06,2025-10-06,株式会社きのこ,,株式会社,鹿児島県,鹿児島市,南林寺町１７番１３号Ｆシリーズ南林寺７０３号,,46,201,8920834,,,,,,,2025-10-06,1,,,,,キノコ,0
1013,3340003004969,新規,0,2025-10-06,2025-10-06,合同会社赤池設計,,合同会社,鹿児島県,姶良市,松原町２丁目３３番地９,,46,225,8995422,,,,,,,2025-10-06,1,,,,,アカイケセッケイ,0
1016,3350003005041,新規,0,2025-10-06,2025-10-06,合同会社Ｓｉｎ,,合同会社,宮崎県,宮崎市,大塚町窪田３３２１番地３日高ビル１０２号,,45,201,8800951,,,,,,,2025-10-06,1,,,,,シン,0
1017,3360001035849,新規,0,2025-10-06,2025-10-06,株式会社仲原組,,株式会社,沖縄県,中頭郡中城村,字南上原６２３番地・２０５,,47,328,9012424,,,,,,,2025-10-06,1,,,,,ナカハラグミ,0
1018,3360001035857,新規,0,2025-10-06,2025-10-06,株式会社Ｍｏｚｕｋｕ,,株式会社,沖縄県,宮古島市,平良字東仲宗根８７１番地６・１階,,47,214,9060007,,,,,,,2025-10-06,1,,,,,モズク,0
1022,3360003015295,新規,0,2025-10-06,2025-10-06,合同会社青道,,合同会社,沖縄県,中頭郡西原町,字我謝２－１,,47,329,9030112,,,,,,,2025-10-06,1,,,,,セイドウ,0
1023,3360003015304,新規,0,2025-10-06,2025-10-06,合同会社仲程工業,,合同会社,沖縄県,沖縄市,泡瀬５丁目３８番１号,,47,211,9042172,,,,,,,2025-10-06,1,,,,,ナカホドコウギョウ,0
1027,3380001035608,新規,0,2025-10-06,2025-10-06,株式会社ぼん天,,株式会社,福島県,耶麻郡猪苗代町,大字若宮字高森甲２９８８番地１３,,07,408,9692751,,,,,,,2025-10-06,1,,,,,ボンテン,0
1028,3380003006152,新規,0,2025-10-06,2025-10-06,ＳＳＮＡ合同会社,,合同会社,福島県,福島市,天神町１３番１７号,,07,201,9608001,,,,,,,2025-10-06,1,,,,,エスエスエヌエー,0
1038,3420003003194,新規,0,2025-10-06,2025-10-06,合同会社ティークレスト,,合同会社,青森県,青森市,大字羽白字沢田３２番地９,,02,201,0380058,,,,,,,2025-10-06,1,,,,,ティークレスト,0
1043,3430001095316,新規,0,2025-10-06,2025-10-06,株式会社森冷熱,,株式会社,北海道,札幌市豊平区,月寒東二条５丁目６番１２号,,01,105,0620052,,,,,,,2025-10-06,1,,,,,モリレイネツ,0
1044,3430001095340,新規,0,2025-10-06,2025-10-06,株式会社ＪＯ１,,株式会社,北海道,札幌市中央区,南二条西１丁目６番地２,,01,101,0600062,,,,,,,2025-10-06,1,,,,,ジョイ,0
1045,3430001095365,新規,0,2025-10-06,2025-10-06,大一商事株式会社,,株式会社,北海道,札幌市中央区,南二条西２２丁目３７番地,,01,101,0640802,,,,,,,2025-10-06,1,,,,,ダイイチショウジ,0
1046,3430003018159,新規,0,2025-10-06,2025-10-06,合同会社クリタ,,合同会社,北海道,札幌市北区,新川二条２丁目７番１２号,,01,102,0010922,,,,,,,2025-10-06,1,,,,,クリタ,0
1047,3430003018167,新規,0,2025-10-06,2025-10-06,合同会社ｈｏｐｅ,,合同会社,北海道,札幌市中央区,南八条西９丁目７５５番地２３ラベニュー札幌５０５号,,01,101,0640808,,,,,,,2025-10-06,1,,,,,ホープ,0
1048,3440003001717,新規,0,2025-10-06,2025-10-06,合同会社Ｗｈｉｔｅ　Ｓｅｅｄ,,合同会社,北海道,函館市,末広町１５番３号,,01,202,0400053,,,,,,,2025-10-06,1,,,,,ホワイトシード,0
1049,3460003001070,新規,0,2025-10-06,2025-10-06,合同会社ベイリザーブ,,合同会社,北海道,釧路郡釧路町,睦４丁目３番地５,,01,661,0880615,,,,,,,2025-10-06,1,,,,,ベイリザーブ,0
1054,3470001020914,新規,0,2025-10-06,2025-10-06,株式会社ハセガワ,,株式会社,香川県,丸亀市,飯野町東分２３２２番地１,,37,202,7630085,,,,,,,2025-10-06,1,,,,,ハセガワ,0
1058,3500001026544,新規,0,2025-10-06,2025-10-06,株式会社ＩＴＬｉｎｋｓ,,株式会社,愛媛県,今治市,東門町６丁目２番地１２,,38,202,7940033,,,,,,,2025-10-06,1,,,,,アイティーリンクス,0
1059,3500001026560,新規,0,2025-10-06,2025-10-06,株式会社メイヤ,,株式会社,愛媛県,松山市,祝谷東町乙７９２番地１,,38,201,7900835,,,,,,,2025-10-06,1,,,,,メイヤ,0
1060,3500003003599,新規,0,2025-10-06,2025-10-06,メゾン・フランセ・パリ合同会社,,合同会社,愛媛県,今治市,上徳甲１４６番地１,,38,202,7991511,,,,,,,2025-10-06,1,,,,,メゾンフランセパリ,0
1071,4010001258797,新規,0,2025-10-06,2025-10-06,秋葉原第一スタジオ株式会社,,株式会社,東京都,千代田区,神田佐久間河岸７０第二田中ビル５階５５号,,13,101,1010026,,,,,,,2025-10-06,1,,,,,アキハバラダイイチスタジオ,0
1072,4010001258913,新規,0,2025-10-06,2025-10-06,Ｅｖｅｒ　Ｍｅｔａｌ株式会社,,株式会社,東京都,千代田区,神田平河町１番地第３東ビル６Ｆ,,13,101,1010027,,,,,,,2025-10-06,1,,,,,エバーメタル,0
1073,4010001258995,新規,0,2025-10-06,2025-10-06,株式会社メディソフィア社,,株式会社,東京都,文京区,本郷１丁目３３番４号ＵＰＢＡＳＥ水道橋１０２,,13,105,1130033,,,,,,,2025-10-06,1,,,,,メディソフィアシャ,0
1074,4010001259044,新規,0,2025-10-06,2025-10-06,株式会社ＫＯＢＵＹ,,株式会社,東京都,千代田区,神田錦町２丁目２番１号,,13,101,1010054,,,,,,,2025-10-06,1,,,,,コーバイ,0
1075,4010001259052,新規,0,2025-10-06,2025-10-06,株式会社ＦＡコーポレーション,,株式会社,東京都,千代田区,神田猿楽町１丁目５番１８号千代田ビル３階,,13,101,1010064,,,,,,,2025-10-06,1,,,,,エフエーコーポレーション,0
1076,4010001259060,新規,0,2025-10-06,2025-10-06,霞ヶ関ホテルマネジメント株式会社,,株式会社,東京都,千代田区,霞が関３丁目２番１号,,13,101,1000013,,,,,,,2025-10-06,1,,,,,カスミガセキホテルマネジメント,0
1077,4010001259077,新規,0,2025-10-06,2025-10-06,ベアエイド株式会社,,株式会社,東京都,中央区,京橋３丁目３番１３号平和ビル３号館３Ｆ,,13,102,1040031,,,,,,,2025-10-06,1,,,,,ベアエイド,0
1078,4010001259085,新規,0,2025-10-06,2025-10-06,青山プランニング株式会社,,株式会社,東京都,中央区,日本橋浜町２丁目２１番７号,,13,102,1030007,,,,,,,2025-10-06,1,,,,,アオヤマプランニング,0
1079,4010001259093,新規,0,2025-10-06,2025-10-06,ナナボシリーシング株式会社,,株式会社,東京都,千代田区,丸の内１丁目３番２号,,13,101,1000005,,,,,,,2025-10-06,1,,,,,ナナボシリーシング,0
1080,4010001259102,新規,0,2025-10-06,2025-10-06,株式会社ＧＯＯＤ　ＴＩＭＥＳ,,株式会社,東京都,中央区,日本橋本町４丁目１番１３－１２０３号,,13,102,1030023,,,,,,,2025-10-06,1,,,,,グッドタイムズ,0
1081,4010001259135,新規,0,2025-10-06,2025-10-06,株式会社クリアウェル,,株式会社,東京都,中央区,銀座６丁目１０番１号ＧＩＮＺＡＳＩＸ１３Ｆ,,13,102,1040061,,,,,,,2025-10-06,1,,,,,クリアウェル,0
1084,4010003048858,新規,0,2025-10-06,2025-10-06,Ａｏｓｏｒａ　Ｊａｐａｎ合同会社,,合同会社,東京都,中央区,日本橋箱崎町２７番９号ヴェラハイツ日本橋箱崎１階,,13,102,1030015,,,,,,,2025-10-06,1,,,,,アオソラジャパン,0
1085,4010003048932,新規,0,2025-10-06,2025-10-06,合同会社Ｅｕｐｈｏｒｉａ,,合同会社,東京都,中央区,日本橋兜町１７‐２兜町葉山ビル４Ｆ,,13,102,1030026,,,,,,,2025-10-06,1,,,,,ユーフォリア,0
1094,4010401193339,新規,0,2025-10-06,2025-10-06,クロスフィア株式会社,,株式会社,東京都,港区,芝１丁目２番１－９１０号,,13,103,1050014,,,,,,,2025-10-06,1,,,,,クロスフィア,0
1095,4010401193347,新規,0,2025-10-06,2025-10-06,株式会社ＡＮＤＣＵＢＥ,,株式会社,東京都,港区,白金１丁目２－２白金ザスカイＷ１５０４号,,13,103,1080072,,,,,,,2025-10-06,1,,,,,アンドキューブ,0
1097,4010405024738,新規,0,2025-10-06,2025-10-06,一般社団法人グローバルページェント協会,,その他の設立登記法人,東京都,港区,六本木３丁目１６番１２号六本木ＫＳビル５Ｆ,,13,103,1060032,,,,,,,2025-10-06,1,,,,,グローバルページェントキョウカイ,0
1100,4010501054812,新規,0,2025-10-06,2025-10-06,株式会社エックス,,株式会社,東京都,台東区,東上野３丁目１５番１４号ＭＣオフィス東上野１０２号室,,13,106,1100015,,,,,,,2025-10-06,1,,,,,エックス,0
1104,4010601067755,新規,0,2025-10-06,2025-10-06,株式会社たまご,,株式会社,東京都,墨田区,文花３丁目２０番１５－１０１号,,13,107,1310044,,,,,,,2025-10-06,1,,,,,タマゴ,0
1105,4010601068076,新規,0,2025-10-06,2025-10-06,ぬっく株式会社,,株式会社,東京都,墨田区,両国４丁目１０番６号,,13,107,1300026,,,,,,,2025-10-06,1,,,,,ヌック,0
1114,4010901058181,新規,0,2025-10-06,2025-10-06,Ａ’ＴＥＣＨ　ＪＡＰＡＮ株式会社,,株式会社,東京都,世田谷区,上野毛１丁目２２番４号,,13,112,1580093,,,,,,,2025-10-06,1,,,,,エーテックジャパン,0
1122,4011001172360,新規,0,2025-10-06,2025-10-06,株式会社Ｓｏｌｉｄｖｅｒｓｅ,,株式会社,東京都,渋谷区,道玄坂１丁目１０番８号渋谷道玄坂東急ビル２Ｆ－Ｃ,,13,113,1500043,,,,,,,2025-10-06,1,,,,,ソリッドバース,0
1123,4011001172757,新規,0,2025-10-06,2025-10-06,株式会社サニーアーツ,,株式会社,東京都,渋谷区,広尾３丁目１２番１７－１１１号,,13,113,1500012,,,,,,,2025-10-06,1,,,,,サニーアーツ,0
1124,4011001172930,新規,0,2025-10-06,2025-10-06,株式会社スマイティ・リアルエステート,,株式会社,東京都,渋谷区,宇田川町１５番１号,,13,113,1500042,,,,,,,2025-10-06,1,,,,,スマイティリアルエステート,0
1133,4011801046887,新規,0,2025-10-06,2025-10-06,株式会社ブローニュ,,株式会社,東京都,葛飾区,白鳥３丁目１４番３号,,13,122,1250063,,,,,,,2025-10-06,1,,,,,ブローニュ,0
1135,4012401043663,新規,0,2025-10-06,2025-10-06,株式会社セールスバンス,,株式会社,東京都,調布市,東つつじケ丘３丁目２６番地５９,,13,208,1820005,,,,,,,2025-10-06,1,,,,,セールスバンス,0
1136,4012401043671,新規,0,2025-10-06,2025-10-06,株式会社４７,,株式会社,東京都,狛江市,元和泉２丁目３６番３－４０３号,,13,219,2010013,,,,,,,2025-10-06,1,,,,,ヨンナナ,0
1138,4012703003381,新規,0,2025-10-06,2025-10-06,ＭＩＮＧＡＬＡ　ＳＡＫＵＲＡ合同会社,,合同会社,東京都,東村山市,栄町２丁目１６－１サンライズマンション東村山１０５,,13,213,1890013,,,,,,,2025-10-06,1,,,,,ミンガラサクラ,0
1139,4012803003892,新規,0,2025-10-06,2025-10-06,合同会社地域福祉研究社,,合同会社,東京都,国分寺市,戸倉３丁目１７番地１０,,13,214,1850003,,,,,,,2025-10-06,1,,,,,チイキフクシケンキュウシャ,0
1148,4020001164870,新規,0,2025-10-06,2025-10-06,株式会社ＴＡＫＵ,,株式会社,神奈川県,横浜市神奈川区,平川町１２番地１１クレールクメオカ３０１,,14,102,2210812,,,,,,,2025-10-06,1,,,,,タク,0
1149,4020001165035,新規,0,2025-10-06,2025-10-06,正栄ホールディングス株式会社,,株式会社,神奈川県,川崎市中原区,中丸子１３番地１０－４１０５,,14,133,2110012,,,,,,,2025-10-06,1,,,,,ショウエイホールディングス,0
1150,4020001165043,新規,0,2025-10-06,2025-10-06,株式会社Ａｃｔ．Ｗａｌｌ,,株式会社,神奈川県,川崎市宮前区,犬蔵１丁目７番１６－３０１号エトワール,,14,136,2160011,,,,,,,2025-10-06,1,,,,,アクトウォール,0
1151,4020001165092,新規,0,2025-10-06,2025-10-06,株式会社ｌｕｕｍｘ,,株式会社,神奈川県,横浜市中区,本牧三之谷３６番２４号,,14,104,2310824,,,,,,,2025-10-06,1,,,,,ルーミックス,0
1152,4020001165118,新規,0,2025-10-06,2025-10-06,ＲＥＹ株式会社,,株式会社,神奈川県,川崎市中原区,今井南町１９番２号Ｍ１Ｋビル１０４,,14,133,2110064,,,,,,,2025-10-06,1,,,,,レイ,0
1153,4020001165126,新規,0,2025-10-06,2025-10-06,株式会社ＮＦＦ,,株式会社,神奈川県,川崎市高津区,向ケ丘７８番地２ー３０３,,14,134,2130035,,,,,,,2025-10-06,1,,,,,エヌエフエフ,0
1154,4020001165150,新規,0,2025-10-06,2025-10-06,株式会社小池工業,,株式会社,神奈川県,川崎市幸区,東古市場４７番地４,,14,132,2120051,,,,,,,2025-10-06,1,,,,,コイケコウギョウ,0
1157,4020003029493,新規,0,2025-10-06,2025-10-06,合同会社エグゼクティブサポート,,合同会社,神奈川県,川崎市宮前区,東有馬３丁目９－７,,14,136,2160002,,,,,,,2025-10-06,1,,,,,エグゼクティブサポート,0
1158,4020003029519,新規,0,2025-10-06,2025-10-06,合同会社ＳｔａｉＬ,,合同会社,神奈川県,横浜市南区,宮元町３丁目５８番地１イニシア横濱蒔田駅前８０５,,14,105,2320016,,,,,,,2025-10-06,1,,,,,エステイル,0
1163,4021001086312,新規,0,2025-10-06,2025-10-06,株式会社ＨＩＮＫ,,株式会社,神奈川県,厚木市,寿町３丁目１番１－１３０４号,,14,212,2430003,,,,,,,2025-10-06,1,,,,,ヒイノク,0
1164,4021001086378,新規,0,2025-10-06,2025-10-06,豊陽株式会社,,株式会社,神奈川県,三浦市,三崎町諸磯１１９２－５三崎町諸磯アパートＢ棟１階１０１号室,,14,210,2380224,,,,,,,2025-10-06,1,,,,,ホウヨウ,0
1169,4021003016606,新規,0,2025-10-06,2025-10-06,フォーアップ合同会社,,合同会社,神奈川県,小田原市,栄町３丁目１５番１１号,,14,206,2500011,,,,,,,2025-10-06,1,,,,,フォーアップ,0
1170,4021003016622,新規,0,2025-10-06,2025-10-06,ｈｙｇｅｅ合同会社,,合同会社,神奈川県,藤沢市,辻堂太平台１丁目１５番１３号,,14,205,2510044,,,,,,,2025-10-06,1,,,,,ヒュッゲ,0
1171,4021003016639,新規,0,2025-10-06,2025-10-06,合同会社Ｂ‐３,,合同会社,神奈川県,平塚市,松風町１７番３号松風ドリームハイツ１０１,,14,203,2540812,,,,,,,2025-10-06,1,,,,,ビーサン,0
1180,4030001168937,新規,0,2025-10-06,2025-10-06,晨和商事株式会社,,株式会社,埼玉県,さいたま市南区,白幡５丁目７番１－１０４号,,11,108,3360022,,,,,,,2025-10-06,1,,,,,シンワショウジ,0
1181,4030001168961,新規,0,2025-10-06,2025-10-06,株式会社リーバープランニング,,株式会社,埼玉県,さいたま市緑区,松木３丁目１４番地１９,,11,109,3360918,,,,,,,2025-10-06,1,,,,,リーバープランニング,0
1182,4030001168994,新規,0,2025-10-06,2025-10-06,株式会社Ｄ‐ａｃｅ,,株式会社,埼玉県,さいたま市緑区,美園１丁目２０番地１４,,11,109,3360967,,,,,,,2025-10-06,1,,,,,ディーエース,0
1185,4030003027744,新規,0,2025-10-06,2025-10-06,合同会社東京商社,,合同会社,埼玉県,羽生市,大字羽生１４７番地１ｎａｒｕｓｅ羽生ビル２０５号室,,11,216,3480055,,,,,,,2025-10-06,1,,,,,トウキョウショウシャ,0
1186,4030003027777,新規,0,2025-10-06,2025-10-06,合同会社Ｋ’ｓ　Ｌａｂ,,合同会社,埼玉県,和光市,丸山台２丁目２６番７号プリマ・クラッセ２０１,,11,229,3510112,,,,,,,2025-10-06,1,,,,,ケーズラボ,0
1187,4030003027785,新規,0,2025-10-06,2025-10-06,Ｃｒｅｄｏ　Ｊａｐａｎ合同会社,,合同会社,埼玉県,飯能市,大字笠縫３０９番地３,,11,209,3570045,,,,,,,2025-10-06,1,,,,,クレドジャパン,0
1188,4030003027793,新規,0,2025-10-06,2025-10-06,ＷＡＮＤＹ　ＪＡＰＡＮ合同会社,,合同会社,埼玉県,比企郡滑川町,月の輪３丁目１６番地１１,,11,341,3550815,,,,,,,2025-10-06,1,,,,,ワンディージャパン,0
1189,4030003027819,新規,0,2025-10-06,2025-10-06,ＡＬ　ＦＡＬＡＨ合同会社,,合同会社,埼玉県,川口市,芝樋ノ爪１丁目１０－２０川口エンゼルビル３３号室,,11,203,3330852,,,,,,,2025-10-06,1,,,,,アルファラー,0
1190,4030003027827,新規,0,2025-10-06,2025-10-06,ＭＳ合同会社,,合同会社,埼玉県,さいたま市南区,文蔵４丁目１６－１４－３０２,,11,108,3360025,,,,,,,2025-10-06,1,,,,,エムエス,0
1198,4040001140705,新規,0,2025-10-06,2025-10-06,Ｏｒｉｓｅａ株式会社,,株式会社,千葉県,千葉市美浜区,高洲３丁目６番１－８０４,,12,106,2610004,,,,,,,2025-10-06,1,,,,,オリシア,0
1199,4040001140713,新規,0,2025-10-06,2025-10-06,株式会社ＳＯＳＥＩ,,株式会社,千葉県,千葉市中央区,椿森５丁目５番１３－７１２号,,12,101,2600042,,,,,,,2025-10-06,1,,,,,ソーセイ,0
1200,4040001140746,新規,0,2025-10-06,2025-10-06,株式会社福祉の樹,,株式会社,千葉県,鎌ケ谷市,東道野辺２丁目１０番８号,,12,224,2730115,,,,,,,2025-10-06,1,,,,,フクシノイツキ,0
1201,4040001140754,新規,0,2025-10-06,2025-10-06,株式会社ミロクン,,株式会社,千葉県,八千代市,大和田新田９３７番地２１,,12,221,2760046,,,,,,,2025-10-06,1,,,,,ミロクン,0
1204,4040003028683,新規,0,2025-10-06,2025-10-06,合同会社ＳＮＧソリューションズ,,合同会社,千葉県,八千代市,大和田新田１０５４番地７ライオンズマンション西八千代１００８号,,12,221,2760046,,,,,,,2025-10-06,1,,,,,エスエヌジーソリューションズ,0
1207,4050001057337,新規,0,2025-10-06,2025-10-06,株式会社ＢＥＡＬＰＨＡ,,株式会社,茨城県,潮来市,曲松２７３６－３,,08,223,3112447,,,,,,,2025-10-06,1,,,,,ビーアルファ,0
1208,4050003009633,新規,0,2025-10-06,2025-10-06,合同会社コーラル,,合同会社,茨城県,つくば市,二の宮３丁目２１番地２５,,08,220,3050051,,,,,,,2025-10-06,1,,,,,コーラル,0
1212,4070005010430,新規,0,2025-10-06,2025-10-06,特定非営利活動法人エンゼルランプ,,その他の設立登記法人,群馬県,太田市,只上町２００４番地１,,10,205,3730011,,,,,,,2025-10-06,1,,,,,エンゼルランプ,0
1213,4080005007731,新規,0,2025-10-06,2025-10-06,弁護士法人静岡城南法律事務所,,その他の設立登記法人,静岡県,静岡市駿河区,稲川１丁目１番３号地建稲川ビル２階Ｂ,,22,102,4228062,,,,,,,2025-10-06,1,,,,,シズオカジョウナンホウリツジムショ,0
1216,4080101025819,新規,0,2025-10-06,2025-10-06,スガデン株式会社,,株式会社,静岡県,三島市,大場１０８６番地の２６９,,22,206,4110803,,,,,,,2025-10-06,1,,,,,スガデン,0
1217,4080101025827,新規,0,2025-10-06,2025-10-06,株式会社ＳＩＴＥ,,株式会社,静岡県,富士市,川成島６３８番地の１,,22,210,4160939,,,,,,,2025-10-06,1,,,,,サイト,0
1218,4080103003434,新規,0,2025-10-06,2025-10-06,合資会社グローバルネットワークス,,合資会社,静岡県,沼津市,下本町２９番地,,22,203,4100885,,,,,,,2025-10-06,1,,,,,グローバルネットワークス,0
1220,4080403005361,新規,0,2025-10-06,2025-10-06,合同会社ＮＥＸＴ,,合同会社,静岡県,浜松市中央区,高丘東４丁目１７番５号スカイヒルズ開成壱番館１０５,,22,138,4338117,,,,,,,2025-10-06,1,,,,,ネクスト,0
1226,4100001039016,新規,0,2025-10-06,2025-10-06,株式会社Ｃ＆Ｋ,,株式会社,長野県,上田市,中之条３０７番地１,,20,203,3860034,,,,,,,2025-10-06,1,,,,,シーアンドケー,0
1229,4100003008415,新規,0,2025-10-06,2025-10-06,新栄開発合同会社,,合同会社,長野県,松本市,大字和田３７２番地１,,20,202,3901242,,,,,,,2025-10-06,1,,,,,シンエイカイハツ,0
1230,4100005013396,新規,0,2025-10-06,2025-10-06,一般財団法人ＮＴ育英会,,その他の設立登記法人,長野県,埴科郡坂城町,大字坂城６６４９番地１,,20,521,3890601,,,,,,,2025-10-06,1,,,,,エヌティーイクエイカイ,0
1232,4110001039626,新規,0,2025-10-06,2025-10-06,株式会社ジーオー,,株式会社,新潟県,新潟市江南区,江口４００７番地,,15,104,9500101,,,,,,,2025-10-06,1,,,,,ジーオー,0
1235,4110003005915,新規,0,2025-10-06,2025-10-06,リビコーポ合同会社,,合同会社,新潟県,新潟市東区,東中野山６丁目３番１号,,15,102,9500836,,,,,,,2025-10-06,1,,,,,リビコーポ,0
1248,4120001279989,新規,0,2025-10-06,2025-10-06,株式会社アルデバラン・コレクション,,株式会社,大阪府,大阪市北区,天神橋７丁目１３－１８ハイツオークラ天神橋４０７号,,27,127,5310041,,,,,,,2025-10-06,1,,,,,アルデバランコレクション,0
1249,4120001280261,新規,0,2025-10-06,2025-10-06,安財株式会社,,株式会社,大阪府,大阪市西区,本田４丁目９－２３プレステア九条２０５号,,27,106,5500022,,,,,,,2025-10-06,1,,,,,アンザイ,0
1250,4120001280352,新規,0,2025-10-06,2025-10-06,遠山株式会社,,株式会社,大阪府,大阪市港区,弁天４丁目１０番２１号オーシャンハイツ弁天５０２,,27,107,5520007,,,,,,,2025-10-06,1,,,,,トオヤマ,0
1251,4120001280393,新規,0,2025-10-06,2025-10-06,星輝株式会社,,株式会社,大阪府,大阪市西成区,萩之茶屋２丁目６番４－５５号,,27,122,5570004,,,,,,,2025-10-06,1,,,,,セイキ,0
1252,4120001280402,新規,0,2025-10-06,2025-10-06,株式会社ＪＡＰＡＮ　ＴＥＣＨＮＯ,,株式会社,大阪府,守口市,南寺方東通２丁目１０番７号,,27,209,5700043,,,,,,,2025-10-06,1,,,,,ジャパンテクノ,0
1253,4120001280451,新規,0,2025-10-06,2025-10-06,株式会社ＷＯＲＫＳ,,株式会社,大阪府,大阪市西成区,玉出中２丁目４番２１号ひまわりマンション５Ａ号,,27,122,5570044,,,,,,,2025-10-06,1,,,,,ワークス,0
1254,4120001280476,新規,0,2025-10-06,2025-10-06,吉水株式会社,,株式会社,大阪府,大阪市西成区,長橋１丁目３番１５号ＮＥＯＳＰＡＣＥ長橋１０３,,27,122,5570025,,,,,,,2025-10-06,1,,,,,キッスイ,0
1255,4120001280600,新規,0,2025-10-06,2025-10-06,騰鵬株式会社,,株式会社,大阪府,大阪市東住吉区,中野４丁目１番１６号リベラルオリエンテ中野７１１Ａ,,27,121,5460012,,,,,,,2025-10-06,1,,,,,トウホウ,0
1256,4120001280609,新規,0,2025-10-06,2025-10-06,光環国際株式会社,,株式会社,大阪府,大阪市東住吉区,中野４丁目１番１６号リベラルオリエンテ中野５０６Ｂ,,27,121,5460012,,,,,,,2025-10-06,1,,,,,コウカンコクサイ,0
1257,4120001280740,新規,0,2025-10-06,2025-10-06,日翔国際株式会社,,株式会社,大阪府,大阪市北区,天神橋２丁目２番２０－２０３号,,27,127,5300041,,,,,,,2025-10-06,1,,,,,ニッショウコクサイ,0
1258,4120001280765,新規,0,2025-10-06,2025-10-06,株式会社ＸｒｏｓＳ,,株式会社,大阪府,大阪市北区,梅田１丁目２番２号大阪駅前第２ビル１２－１２,,27,127,5300001,,,,,,,2025-10-06,1,,,,,クロス,0
1262,4120003030788,新規,0,2025-10-06,2025-10-06,宝乾合同会社,,合同会社,大阪府,大阪市西成区,萩之茶屋２丁目６－４－１１１号,,27,122,5570004,,,,,,,2025-10-06,1,,,,,ホウケン,0
1263,4120003030805,新規,0,2025-10-06,2025-10-06,Ａｓｔｒａｃｅｒｅ合同会社,,合同会社,大阪府,大阪市天王寺区,上本町８丁目７番２－１３０３号,,27,109,5430001,,,,,,,2025-10-06,1,,,,,アストラセール,0
1264,4120003030862,新規,0,2025-10-06,2025-10-06,合同会社ＱｕｉｃｋＮｏｔｅｓ,,合同会社,大阪府,大阪市北区,東天満２丁目１番２３－８０４号,,27,127,5300044,,,,,,,2025-10-06,1,,,,,クイックノーツ,0
1270,4120901051571,新規,0,2025-10-06,2025-10-06,株式会社ノット,,株式会社,大阪府,高槻市,郡家本町１２番１号,,27,207,5691131,,,,,,,2025-10-06,1,,,,,ノット,0
1273,4122001039695,新規,0,2025-10-06,2025-10-06,株式会社桜芸,,株式会社,大阪府,東大阪市,渋川町２丁目１番１９号２Ｆ,,27,227,5770836,,,,,,,2025-10-06,1,,,,,サクラゲイ,0
1274,4122001039712,新規,0,2025-10-06,2025-10-06,馬上封侯株式会社,,株式会社,大阪府,八尾市,大竹７丁目１６９ブルースカイコート２０８号室,,27,212,5810854,,,,,,,2025-10-06,1,,,,,バジョウフウコウ,0
1275,4122001039761,新規,0,2025-10-06,2025-10-06,株式会社コバヤシ,,株式会社,大阪府,大東市,三箇６丁目４番３１号,,27,218,5740077,,,,,,,2025-10-06,1,,,,,コバヤシ,0
1276,4122003003336,新規,0,2025-10-06,2025-10-06,合同会社Ｂｌｏｏｍ,,合同会社,大阪府,東大阪市,新池島町３丁目７番１０－１０７号,,27,227,5798065,,,,,,,2025-10-06,1,,,,,ブローム,0
1282,4130001080685,新規,0,2025-10-06,2025-10-06,株式会社Ｏｆｆｉｃｅ７３,,株式会社,京都府,京田辺市,河原御影３０番地１１,,26,211,6100361,,,,,,,2025-10-06,1,,,,,オフィスナナジュウサン,0
1284,4140001139893,新規,0,2025-10-06,2025-10-06,株式会社三協食鳥,,株式会社,兵庫県,神戸市西区,平野町中津字北川５８９番地の１０,,28,111,6512257,,,,,,岡山県津山市河辺１１０２番地の１有限会社三協食鳥（3260002028416）、岡山市南区山田１００１番地３株式会社せとうち三協食鳥（4260001037722）、岡山県津山市河辺１１０２番地の１株式会社ナチュラルノーサン（6260001020081）、兵庫県姫路市網干区興浜２０９３番地の１３３株式会社プーレまつもと（6140002050544）、神戸市西区平野町中津字北川５８９番地の１０株式会社サンショク（2140002004561）及び京都市南区上鳥羽南島田町７２番地株式会社京都三協食鳥（8130001057151）の合併により設立,2025-10-06,1,,,,,サンキョウショクチョウ,0
1285,4140001140182,新規,0,2025-10-06,2025-10-06,のぼりみち株式会社,,株式会社,兵庫県,川西市,寺畑１丁目７番２３号グランソルＭ１階,,28,217,6660034,,,,,,,2025-10-06,1,,,,,ノボリミチ,0
1286,4140001140199,新規,0,2025-10-06,2025-10-06,株式会社リアフィット,,株式会社,兵庫県,神戸市中央区,磯辺通１丁目１番１８号カサベラ国際プラザビル７０７,,28,110,6510084,,,,,,,2025-10-06,1,,,,,リアフィット,0
1287,4140001140240,新規,0,2025-10-06,2025-10-06,株式会社ｙｕｚｅｎ,,株式会社,兵庫県,姫路市,呉服町３３ＷＯＦビル４Ｆ,,28,201,6700923,,,,,,,2025-10-06,1,,,,,ユウゼン,0
1290,4140003022668,新規,0,2025-10-06,2025-10-06,合同会社リカバリー,,合同会社,兵庫県,神戸市北区,山田町原野字樋詰２３番地,,28,109,6511252,,,,,,,2025-10-06,1,,,,,リカバリー,0
1293,4140005027649,新規,0,2025-10-06,2025-10-06,弁護士法人紫苑法律事務所,,その他の設立登記法人,兵庫県,神戸市中央区,中町通２丁目３番２号三共神戸ツインビル６階,,28,110,6500027,,,,,,,2025-10-06,1,,,,,シエンホウリツジムショ,0
1296,4160003003617,新規,0,2025-10-06,2025-10-06,合同会社エンブレム,,合同会社,滋賀県,栗東市,安養寺６丁目６－２８,,25,208,5203015,,,,,,,2025-10-06,1,,,,,エンブレム,0
1301,4180001168831,新規,0,2025-10-06,2025-10-06,株式会社ヒガシテクノ,,株式会社,愛知県,日進市,香久山４丁目２０１番地１３－１０８棟４０２,,23,230,4700134,,,,,,,2025-10-06,1,,,,,ヒガシテクノ,0
1302,4180001168856,新規,0,2025-10-06,2025-10-06,ＤＯＭＡＩＮＥ　ＧＡＫＵ株式会社,,株式会社,愛知県,知多郡東浦町,大字森岡字中町５２番地の１３,,23,442,4702101,,,,,,,2025-10-06,1,,,,,ドメーヌガク,0
1303,4180001168930,新規,0,2025-10-06,2025-10-06,株式会社健康堂,,株式会社,愛知県,瀬戸市,水南町５１番地の１,,23,204,4890913,,,,,,,2025-10-06,1,,,,,ケンコウドウ,0
1304,4180001168955,新規,0,2025-10-06,2025-10-06,株式会社シーク貿易,,株式会社,愛知県,名古屋市中村区,名駅４丁目２４番５号第２森ビル４０１,,23,105,4500002,,,,,,,2025-10-06,1,,,,,シークボウエキ,0
1311,4180003029180,新規,0,2025-10-06,2025-10-06,合同会社Ｆａｎｏｖｅ,,合同会社,愛知県,名古屋市守山区,天子田１丁目１０３番地の２,,23,113,4630037,,,,,,,2025-10-06,1,,,,,ファノーヴ,0
1312,4180301040269,新規,0,2025-10-06,2025-10-06,株式会社スターフィールドペイント,,株式会社,愛知県,豊橋市,有楽町４５番地６,,23,201,4418035,,,,,,,2025-10-06,1,,,,,スターフィールドペイント,0
1313,4180301040285,新規,0,2025-10-06,2025-10-06,株式会社アールクローバー,,株式会社,愛知県,岡崎市,大門３丁目５番地１７,,23,202,4442135,,,,,,,2025-10-06,1,,,,,アールクローバー,0
1322,4240001065576,新規,0,2025-10-06,2025-10-06,株式会社アクアクリエイション,,株式会社,広島県,福山市,南手城町４丁目１５番１号,,34,207,7210963,,,,,,,2025-10-06,1,,,,,アクアクリエイション,0
1323,4240001065584,新規,0,2025-10-06,2025-10-06,株式会社ＫＤ　ｓｔｙｌｅ,,株式会社,広島県,福山市,大門町４丁目１７番１８号ファミール大門Ａ,,34,207,7210926,,,,,,,2025-10-06,1,,,,,ケーディースタイル,0
1327,4240003007428,新規,0,2025-10-06,2025-10-06,ＳＵＢＨＡＮ　ＴＲＡＤＩＮＧ合同会社,,合同会社,広島県,尾道市,尾崎本町３番１０号尾道ハウス,,34,205,7220054,,,,,,,2025-10-06,1,,,,,スブハントレーディング,0
1329,4250001021355,新規,0,2025-10-06,2025-10-06,ＳＤＳコーポレーション株式会社,,株式会社,山口県,防府市,華城中央１丁目１番４５号,,35,206,7470848,,,,,,,2025-10-06,1,,,,,エスディーエスコーポレーション,0
1330,4260001040610,新規,0,2025-10-06,2025-10-06,株式会社Ｋ‐ｆａｒｍ,,株式会社,岡山県,倉敷市,船穂町船穂１８６５番地１,,33,202,7100261,,,,,,,2025-10-06,1,,,,,ケーファーム,0
1331,4260003005371,新規,0,2025-10-06,2025-10-06,合同会社カック倉敷,,合同会社,岡山県,倉敷市,新田３２０２－１２,,33,202,7100038,,,,,,,2025-10-06,1,,,,,カッククラシキ,0
1332,4270001009299,新規,0,2025-10-06,2025-10-06,株式会社ウィステリア,,株式会社,鳥取県,西伯郡大山町,富長１６２番地２,,31,386,6893221,,,,,,,2025-10-06,1,,,,,ウィステリア,0
1333,4270003001799,新規,0,2025-10-06,2025-10-06,合同会社ＣＯＯＬ　ＩＮＮＯＶＡＴＩＯＮ,,合同会社,鳥取県,鳥取市,幸町１４８,,31,201,6800823,,,,,,,2025-10-06,1,,,,,クールイノベーション,0
1338,4290001111557,新規,0,2025-10-06,2025-10-06,清三可株式会社,,株式会社,福岡県,福岡市南区,多賀１丁目４番２５号橋本荘１０３室,,40,134,8150072,,,,,,,2025-10-06,1,,,,,セイサンカ,0
1340,4290003017488,新規,0,2025-10-06,2025-10-06,７ＦＵＫＵＰＬＵＳ合同会社,,合同会社,福岡県,春日市,桜ヶ丘２丁目７６番地３Ｇハウス－２号,,40,218,8160872,,,,,,,2025-10-06,1,,,,,シチフクプラス,0
1341,4290003017496,新規,0,2025-10-06,2025-10-06,合同会社華新,,合同会社,福岡県,福岡市早良区,室見３丁目８－６モア室見３０２号室,,40,137,8140015,,,,,,,2025-10-06,1,,,,,カシン,0
1342,4290003017579,新規,0,2025-10-06,2025-10-06,タクタス合同会社,,合同会社,福岡県,福岡市博多区,博多駅前１丁目２３番２号ＰａｒｋＦｒｏｎｔ博多駅前１丁目５Ｆ―Ｂ,,40,132,8120011,,,,,,,2025-10-06,1,,,,,タクタス,0
1346,4300001014361,新規,0,2025-10-06,2025-10-06,株式会社Ｌｏｔｕｓ＆Ｔｒｅｅ,,株式会社,佐賀県,佐賀市,本庄町大字本庄２３番地サンパティーク本庄３０５,,41,201,8400027,,,,,,,2025-10-06,1,,,,,ロータスアンドツリー,0
1361,4350001019744,新規,0,2025-10-06,2025-10-06,株式会社Ｋ‐Ｓｔａｔｉｏｎ　Ｐｒｏ．,,株式会社,宮崎県,児湯郡新富町,大字三納代７４５番地３,,45,402,8891402,,,,,,,2025-10-06,1,,,,,ケイステーションプロ,0
1364,4360001035856,新規,0,2025-10-06,2025-10-06,株式会社ストラテリンクス,,株式会社,沖縄県,那覇市,久茂地３丁目２６番３２号ＹＳＣビル２０２,,47,201,9000015,,,,,,,2025-10-06,1,,,,,ストラテリンクス,0
1365,4360001035864,新規,0,2025-10-06,2025-10-06,株式会社ＳｅａＡｉ,,株式会社,沖縄県,那覇市,久茂地１丁目１番１号パレットくもじ９階,,47,201,9000015,,,,,,,2025-10-06,1,,,,,シーアイ,0
1366,4360001035872,新規,0,2025-10-06,2025-10-06,株式会社ＡＩＮＥＺ,,株式会社,沖縄県,那覇市,具志１丁目１７番２８号メゾン上原２０１,,47,201,9010146,,,,,,,2025-10-06,1,,,,,アインズ,0
1367,4360001035880,新規,0,2025-10-06,2025-10-06,株式会社壱門,,株式会社,沖縄県,浦添市,城間３丁目１６番１４号１Ｆ,,47,208,9012133,,,,,,,2025-10-06,1,,,,,イチモン,0
1368,4360003015303,新規,0,2025-10-06,2025-10-06,合同会社アンタカ原リゾート,,合同会社,沖縄県,国頭郡恩納村,字名嘉真７１番地,,47,311,9040401,,,,,,,2025-10-06,1,,,,,アンタカバルリゾート,0
1370,4370001053089,新規,0,2025-10-06,2025-10-06,株式会社食事処漆澤,,株式会社,宮城県,加美郡加美町,字漆沢筒砂子４番地１,,04,445,9814368,,,,,,,2025-10-06,1,,,,,ショクジドコロウルシザワ,0
1371,4370001053097,新規,0,2025-10-06,2025-10-06,Ｌｉｖｒｅ　Ｆａｍｉｌｉａ株式会社,,株式会社,宮城県,名取市,増田７丁目３番２３号マイタウン名取Ａ－５－２,,04,207,9811224,,,,,,,2025-10-06,1,,,,,リブレファミリア,0
1374,4380003006151,新規,0,2025-10-06,2025-10-06,合同会社デザインＬ,,合同会社,福島県,耶麻郡北塩原村,大字桧原字簗部沢山１０９１番地４８,,07,402,9692701,,,,,,,2025-10-06,1,,,,,デザインリンク,0
1375,4390001018123,新規,0,2025-10-06,2025-10-06,株式会社ボディリペアイトケン,,株式会社,山形県,山形市,大字漆山３１５６番地１,,06,201,9902161,,,,,,,2025-10-06,1,,,,,ボディリペアイトケン,0
1380,4400001017189,新規,0,2025-10-06,2025-10-06,株式会社西舘工務店,,株式会社,岩手県,二戸郡一戸町,中山字大塚４３番地８,,03,524,0285133,,,,,,,2025-10-06,1,,,,,ニシダテコウムテン,0
1381,4400001017197,新規,0,2025-10-06,2025-10-06,株式会社シエロ,,株式会社,岩手県,北上市,鍛冶町１丁目５番３１号,,03,206,0240062,,,,,,,2025-10-06,1,,,,,シエロ,0
1385,4410001014284,新規,0,2025-10-06,2025-10-06,株式会社俵谷技建,,株式会社,秋田県,大仙市,字刈和野１４６番地６,,05,212,0192112,,,,,,,2025-10-06,1,,,,,タワラヤギケン,0
1391,4430001095331,新規,0,2025-10-06,2025-10-06,株式会社ＦＩＮＥＲＯＯＴＳ,,株式会社,北海道,勇払郡厚真町,新町１５５番地,,01,581,0591623,,,,,,,2025-10-06,1,,,,,ファインルーツ,0
1392,4430001095348,新規,0,2025-10-06,2025-10-06,株式会社エヌリード,,株式会社,北海道,札幌市東区,東雁来町３５６番地３９,,01,103,0070820,,,,,,,2025-10-06,1,,,,,エヌリード,0
1393,4430001095364,新規,0,2025-10-06,2025-10-06,株式会社ユリシーズ,,株式会社,北海道,札幌市中央区,北八条西２４丁目１番４号,,01,101,0600008,,,,,,,2025-10-06,1,,,,,ユリシーズ,0
1397,4430003018141,新規,0,2025-10-06,2025-10-06,Ａｉｋｅｉ合同会社,,合同会社,北海道,小樽市,松ケ枝１丁目６番５号,,01,203,0470022,,,,,,,2025-10-06,1,,,,,アイケイ,0
1398,4430003018158,新規,0,2025-10-06,2025-10-06,Ｓｑｕａｒｅ　Ｆｏｏｔ合同会社,,合同会社,北海道,虻田郡倶知安町,南一条東３丁目３番地４７,,01,400,0440011,,,,,,,2025-10-06,1,,,,,スクエアフット,0
1400,4440003001716,新規,0,2025-10-06,2025-10-06,合同会社北美原開発,,合同会社,北海道,函館市,北美原１丁目７番１５号,,01,202,0410807,,,,,,,2025-10-06,1,,,,,キタミハラカイハツ,0
1405,4500001026551,新規,0,2025-10-06,2025-10-06,株式会社シップライズ,,株式会社,愛媛県,今治市,大西町宮脇甲４７３番地９,,38,202,7992205,,,,,,,2025-10-06,1,,,,,シップライズ,0
1406,4700150132394,新規,0,2025-10-06,2025-10-06,ＳＯＯＴＥＮ　ＩＮＴＥＲＮＡＴＩＯＮＡＬ　ＴＲＡＤＩＮＧ　ＣＯ．，ＬＩＭＩＴＥＤ,,外国会社等,,,,,,,,Ｒｏｏｍ　２５０２Ｂ，２５ｔｈ　Ｆｌｏｏｒ，１４８　Ｅｌｅｃｔｒｉｃ　Ｒｏａｄ，Ｎｏｒｔｈ　Ｐｏｉｎｔ，Ｈｏｎｇ　Ｋｏｎｇ,,,,,,2025-10-06,1,,,,,スーテンインターナショナルトレーディングカンパニーリミテッド,0
1417,5010001258706,新規,0,2025-10-06,2025-10-06,Ｓｈｉｎｅ　ｆｏｒ　Ｒｅｇｉｏｎ株式会社,,株式会社,東京都,千代田区,神田神保町２丁目１０番地１５サンウッドフラッツ神田神保町１３０３号,,13,101,1010051,,,,,,,2025-10-06,1,,,,,シャインフォーリージョン,0
1418,5010001258994,新規,0,2025-10-06,2025-10-06,株式会社トラストエックス,,株式会社,東京都,千代田区,神田佐久間町１丁目１３チョムチョム秋葉原６階,,13,101,1010025,,,,,,,2025-10-06,1,,,,,トラストエックス,0
1419,5010001259027,新規,0,2025-10-06,2025-10-06,株式会社化粧板ＫＩＮＧ,,株式会社,東京都,千代田区,神田佐久間町３丁目２６番地,,13,101,1010025,,,,,,,2025-10-06,1,,,,,ケショウバンキング,0
1420,5010001259068,新規,0,2025-10-06,2025-10-06,オムニノード株式会社,,株式会社,東京都,千代田区,神田須田町１丁目７番８号ＶＯＲＴ秋葉原ＩＶ２Ｆ,00140953,13,101,1010041,,,,,,,2025-10-06,1,,,,,オムニノード,0
1421,5010001259084,新規,0,2025-10-06,2025-10-06,ＭＧｐａｒｔｎｅｒ’ｓ株式会社,,株式会社,東京都,中央区,日本橋大伝馬町１７－３城野ビル１－６Ｆ,,13,102,1030011,,,,,,,2025-10-06,1,,,,,エムジーパートナーズ,0
1422,5010001259092,新規,0,2025-10-06,2025-10-06,株式会社ストライク分割準備会社,,株式会社,東京都,千代田区,大手町１丁目２番１号,,13,101,1000004,,,,,,,2025-10-06,1,,,,,ストライクブンカツジュンビカイシャ,0
1423,5010001259126,新規,0,2025-10-06,2025-10-06,ワールドパートナーズ株式会社,,株式会社,東京都,千代田区,神田錦町３丁目１７番地北の丸ビル４階,,13,101,1010054,,,,,,,2025-10-06,1,,,,,ワールドパートナーズ,0
1424,5010001259134,新規,0,2025-10-06,2025-10-06,株式会社Ｔｏ　Ｇｏ,,株式会社,東京都,中央区,銀座１丁目８番７号ＶＯＲＴ銀座ＤＤＩ１Ｆ,,13,102,1040061,,,,,,,2025-10-06,1,,,,,トゥーゴー,0
1425,5010003048915,新規,0,2025-10-06,2025-10-06,ＡＬＬｕ　ＦＩＴｓ合同会社,,合同会社,東京都,中央区,日本橋室町１丁目１１番１２号日本橋水野ビル７階,,13,102,1030022,,,,,,,2025-10-06,1,,,,,オールフィット,0
1426,5010003048923,新規,0,2025-10-06,2025-10-06,ＭＨＣエナジーアセットマネジメント合同会社,,合同会社,東京都,千代田区,丸の内１丁目５番１号,,13,101,1000005,,,,,,,2025-10-06,1,,,,,エムエイチシーエナジーアセットマネジメント,0
1427,5010003048948,新規,0,2025-10-06,2025-10-06,埼玉県鉢形バッテリーＪＳＤ２５００６合同会社,,合同会社,東京都,千代田区,飯田橋４丁目５番１６号メトロシティ飯田橋５階,,13,101,1020072,,,,,,,2025-10-06,1,,,,,サイタマケンハチガタバッテリージェイエスディーニーゴーゼロゼロロク,0
1431,5010005040738,新規,0,2025-10-06,2025-10-06,一般社団法人企業史料協議会,,その他の設立登記法人,東京都,千代田区,神田駿河台１丁目７番地７,,13,101,1010062,,,,,,,2025-10-06,1,,,,,キギョウシリョウキョウギカイ,0
1436,5010401193404,新規,0,2025-10-06,2025-10-06,株式会社ＲＥ,,株式会社,東京都,港区,南青山３丁目１８－５さくらアパートメント３ＦＡ,,13,103,1070062,,,,,,,2025-10-06,1,,,,,リー,0
1437,5010405024729,新規,0,2025-10-06,2025-10-06,特定目的会社ＴＳＭＺ１２,,その他の設立登記法人,東京都,港区,元赤坂１丁目１番７号,,13,103,1070051,,,,,,,2025-10-06,1,,,,,ティーエスエムゼットトゥエルブ,0
1438,5010405024803,新規,0,2025-10-06,2025-10-06,土地家屋調査士法人中央法務事務所,,その他の設立登記法人,東京都,港区,南青山５丁目１０番１９号,,13,103,1070062,,,,,,,2025-10-06,1,,,,,チュウオウホウムジムショ,0
1439,5010405024852,新規,0,2025-10-06,2025-10-06,一般社団法人ＹＡＥ１,,その他の設立登記法人,東京都,港区,虎ノ門５丁目１番４号,,13,103,1050001,,,,,,,2025-10-06,1,,,,,ワイエーイーワン,0
1444,5010501054794,新規,0,2025-10-06,2025-10-06,Ｌ・Ｋ株式会社,,株式会社,東京都,台東区,寿３丁目１９番２号シュロス浅草１Ｆ,,13,106,1110042,,,,,,,2025-10-06,1,,,,,エルケー,0
1445,5010503008014,新規,0,2025-10-06,2025-10-06,ＵＤ　ＬＡＮＫＡ合同会社,,合同会社,東京都,台東区,元浅草１丁目６番１２号７１６号室,,13,106,1110041,,,,,,,2025-10-06,1,,,,,ユーディーランカ,0
1452,5010901058180,新規,0,2025-10-06,2025-10-06,株式会社オーブルー・コンソーシアム,,株式会社,東京都,世田谷区,弦巻４丁目３３番４－３０７号,,13,112,1540016,,,,,,,2025-10-06,1,,,,,オーブルーコンソーシアム,0
1454,5010903010288,新規,0,2025-10-06,2025-10-06,合同会社Ｒｅｖｏｔｔａ,,合同会社,東京都,世田谷区,新町３丁目１６－１１ティニー２０４,,13,112,1540014,,,,,,,2025-10-06,1,,,,,レボッタ,0
1455,5010903010296,新規,0,2025-10-06,2025-10-06,合同会社夕星社,,合同会社,東京都,世田谷区,南烏山６丁目２７－７サーパス南烏山３１０,,13,112,1570062,,,,,,,2025-10-06,1,,,,,ユウセイシャ,0
1456,5010903010313,新規,0,2025-10-06,2025-10-06,Ｅｖｅｒｂｒｉｇｈｔ合同会社,,合同会社,東京都,世田谷区,瀬田４丁目２８―１２パラッシオ用賀４０３,,13,112,1580095,,,,,,,2025-10-06,1,,,,,エバーブライト,0
1474,5011101113420,新規,0,2025-10-06,2025-10-06,ブルーワークス株式会社,,株式会社,東京都,新宿区,天神町６５番地１８,,13,104,1620808,,,,,,,2025-10-06,1,,,,,ブルーワークス,0
1475,5011201026687,新規,0,2025-10-06,2025-10-06,株式会社ＡＩＬｅｖ,,株式会社,東京都,中野区,中央１丁目２３番２号,,13,114,1640011,,,,,,,2025-10-06,1,,,,,アイレブ,0
1476,5011203004831,新規,0,2025-10-06,2025-10-06,ＧＵＲＵ合同会社,,合同会社,東京都,中野区,江古田２丁目４－１４サンマリノ江古田２０１号室,,13,114,1650022,,,,,,,2025-10-06,1,,,,,グル,0
1488,5011801046837,新規,0,2025-10-06,2025-10-06,三ケ株式会社,,株式会社,東京都,葛飾区,新小岩１丁目３２番９号,,13,122,1240024,,,,,,,2025-10-06,1,,,,,サンケ,0
1492,5012401043662,新規,0,2025-10-06,2025-10-06,株式会社ＰＩＥＣＥ,,株式会社,東京都,多摩市,一ノ宮１丁目１３番地の６,,13,224,2060002,,,,,,,2025-10-06,1,,,,,ピース,0
1493,5012403007376,新規,0,2025-10-06,2025-10-06,村合同会社,,合同会社,東京都,調布市,菊野台３丁目２８番地３１,,13,208,1820007,,,,,,,2025-10-06,1,,,,,ムラ,0
1494,5012701019115,新規,0,2025-10-06,2025-10-06,株式会社誠工務店,,株式会社,東京都,東久留米市,滝山５丁目２８番１７号,,13,222,2030033,,,,,,,2025-10-06,1,,,,,マコトコウムテン,0
1495,5012803003891,新規,0,2025-10-06,2025-10-06,合同会社デネスト,,合同会社,東京都,国立市,青柳１丁目３０番地の１２,,13,215,1860013,,,,,,,2025-10-06,1,,,,,デネスト,0
1500,5013301055021,新規,0,2025-10-06,2025-10-06,ＴＴＣ　ＪＡＰＡＮ株式会社,,株式会社,東京都,豊島区,南大塚３丁目５２番１０号今井第五ビル６階,,13,116,1700005,,,,,,,2025-10-06,1,,,,,ティティシージャパン,0
1502,5013305003769,新規,0,2025-10-06,2025-10-06,一般社団法人翠美会,,その他の設立登記法人,東京都,豊島区,西池袋１丁目２９番７号池袋大野ビル７階,,13,116,1710021,,,,,,,2025-10-06,1,,,,,スイビカイ,0
1505,5020001165067,新規,0,2025-10-06,2025-10-06,株式会社ＹＨプロスペリテ,,株式会社,神奈川県,横浜市神奈川区,高島台１番地３１,,14,102,2210833,,,,,,,2025-10-06,1,,,,,ワイエイチプロスペリテ,0
1506,5020001165133,新規,0,2025-10-06,2025-10-06,シスミックホールディングス株式会社,,株式会社,神奈川県,横浜市神奈川区,鶴屋町２丁目２３番地２,,14,102,2210835,,,,,,,2025-10-06,1,,,,,シスミックホールディングス,0
1507,5020001165158,新規,0,2025-10-06,2025-10-06,株式会社Ｒ．Ｓ．ＴＩＬＥ,,株式会社,神奈川県,川崎市宮前区,東有馬２丁目１４－３５－１,,14,136,2160002,,,,,,,2025-10-06,1,,,,,アールエスタイル,0
1508,5020001165166,新規,0,2025-10-06,2025-10-06,匯川技術日本株式会社,,株式会社,神奈川県,横浜市西区,北幸２丁目１０番４８号むつみビル３階,,14,103,2200004,,,,,,,2025-10-06,1,,,,,カイセンギジュツニホン,0
1513,5020003029492,新規,0,2025-10-06,2025-10-06,未来支援合同会社,,合同会社,神奈川県,川崎市宮前区,宮崎６丁目３番地４７,,14,136,2160033,,,,,,,2025-10-06,1,,,,,ミライシエン,0
1514,5020003029526,新規,0,2025-10-06,2025-10-06,合同会社吉野,,合同会社,神奈川県,横浜市南区,六ツ川２丁目１２８番地２３,,14,105,2320066,,,,,,,2025-10-06,1,,,,,ヨシノ,0
1515,5020003029559,新規,0,2025-10-06,2025-10-06,ムーコン合同会社,,合同会社,神奈川県,横浜市西区,浅間町１丁目４番３号ウィザードビル４０２,,14,103,2200072,,,,,,,2025-10-06,1,,,,,ムーコン,0
1519,5021001086393,新規,0,2025-10-06,2025-10-06,株式会社総合建築金物屋桜井,,株式会社,神奈川県,鎌倉市,腰越９２１番地７,,14,204,2480033,,,,,,,2025-10-06,1,,,,,ソウゴウケンチクカナモノヤサクライ,0
1520,5021001086410,新規,0,2025-10-06,2025-10-06,株式会社Ｃｌｏｖｅｒ,,株式会社,神奈川県,茅ヶ崎市,矢畑４３９番地７,,14,207,2530085,,,,,,,2025-10-06,1,,,,,クローバー,0
1522,5021003016638,新規,0,2025-10-06,2025-10-06,Ｔｅｃｈｎｉｃａｌ　Ｓｅｒｖｉｃｅ合同会社,,合同会社,神奈川県,平塚市,宮松町１４番１－１０４号,,14,203,2540036,,,,,,,2025-10-06,1,,,,,テクニカルサービス,0
1533,5030001168837,新規,0,2025-10-06,2025-10-06,Ｙ‐ｅｃｈｏｅｓ株式会社,,株式会社,埼玉県,川口市,芝４丁目２２番８号北部ハイツ１０１号,,11,203,3330866,,,,,,,2025-10-06,1,,,,,ワイエコーズ,0
1534,5030001168878,新規,0,2025-10-06,2025-10-06,株式会社ルミナススカイ,,株式会社,埼玉県,草加市,瀬崎７丁目１１番３号コーポ浅古２０１号,,11,221,3400022,,,,,,,2025-10-06,1,,,,,ルミナススカイ,0
1535,5030001168944,新規,0,2025-10-06,2025-10-06,株式会社ＫＮＨ,,株式会社,埼玉県,さいたま市浦和区,岸町２丁目７番１０号,,11,107,3300064,,,,,,,2025-10-06,1,,,,,ケーエヌエイチ,0
1536,5030001168952,新規,0,2025-10-06,2025-10-06,株式会社ジェービーマテリアル,,株式会社,埼玉県,新座市,栄５丁目２番１２号,,11,230,3520014,,,,,,,2025-10-06,1,,,,,ジェービーマテリアル,0
1537,5030001168985,新規,0,2025-10-06,2025-10-06,株式会社一期,,株式会社,埼玉県,狭山市,広瀬台３丁目３９番１０号,,11,215,3501328,,,,,,,2025-10-06,1,,,,,イチゴ,0
1538,5030001169001,新規,0,2025-10-06,2025-10-06,株式会社ヤシト商店,,株式会社,埼玉県,春日部市,粕壁東６丁目１９番５０号,,11,214,3440062,,,,,,,2025-10-06,1,,,,,ヤシトショウテン,0
1539,5030001169018,新規,0,2025-10-06,2025-10-06,株式会社天翔電機,,株式会社,埼玉県,鶴ヶ島市,大字町屋１２１番地４,,11,241,3502224,,,,,,,2025-10-06,1,,,,,テンショウデンキ,0
1540,5030001169034,新規,0,2025-10-06,2025-10-06,ＧＬＯＷ　ＥＸ株式会社,,株式会社,埼玉県,吉川市,大字木売新田３５０番地１６の１０１室,,11,243,3420044,,,,,,,2025-10-06,1,,,,,グローエックス,0
1541,5030001169083,新規,0,2025-10-06,2025-10-06,ＲＤＨ株式会社,,株式会社,埼玉県,川口市,西川口１丁目３０番２０－４０３室,,11,203,3320021,,,,,,,2025-10-06,1,,,,,アールディーエイチ,0
1545,5030003027719,新規,0,2025-10-06,2025-10-06,合同会社わらび会,,合同会社,埼玉県,蕨市,南町２丁目２９－１２,,11,223,3350003,,,,,,,2025-10-06,1,,,,,ワラビカイ,0
1546,5030003027784,新規,0,2025-10-06,2025-10-06,合同会社ＹＯＵ,,合同会社,埼玉県,ふじみ野市,西１丁目１５番１４号アルカンシェル１０２,,11,245,3560005,,,,,,,2025-10-06,1,,,,,ユー,0
1547,5030003027792,新規,0,2025-10-06,2025-10-06,合同会社メルアクア,,合同会社,埼玉県,桶川市,坂田西２丁目２３番地の２,,11,231,3630018,,,,,,,2025-10-06,1,,,,,メルアクア,0
1548,5030003027826,新規,0,2025-10-06,2025-10-06,万位合同会社,,合同会社,埼玉県,川口市,芝富士１丁目２１－３２,,11,203,3330854,,,,,,,2025-10-06,1,,,,,マンイ,0
1552,5040001140712,新規,0,2025-10-06,2025-10-06,株式会社エイユウ,,株式会社,千葉県,市原市,平田１１９４番地３,,12,219,2900053,,,,,,,2025-10-06,1,,,,,エイユウ,0
1553,5040001140729,新規,0,2025-10-06,2025-10-06,桃花深処株式会社,,株式会社,千葉県,山武市,松ヶ谷ロ３４０５－８,,12,237,2891303,,,,,,,2025-10-06,1,,,,,トウカシンショ,0
1554,5040001140753,新規,0,2025-10-06,2025-10-06,Ｓｏｒａ　Ａｓｓｅｔ　Ｍａｎａｇｅｍｅｎｔ株式会社,,株式会社,千葉県,白井市,池の上２丁目３－７,,12,232,2701425,,,,,,,2025-10-06,1,,,,,ソラアセットマネジメント,0
1558,5040003028682,新規,0,2025-10-06,2025-10-06,合同会社神明工業,,合同会社,千葉県,市原市,君塚２丁目２１番地１５,,12,219,2900051,,,,,,,2025-10-06,1,,,,,シンメイコウギョウ,0
1560,5050001057410,新規,0,2025-10-06,2025-10-06,株式会社ジオデザイン研究所,,株式会社,茨城県,つくば市,二の宮４丁目１３番地１・２棟４０７号,,08,220,3050051,,,,,,,2025-10-06,1,,,,,ジオデザインケンキュウジョ,0
1563,5060001038640,新規,0,2025-10-06,2025-10-06,株式会社悠工業,,株式会社,栃木県,小山市,東城南４丁目３２番地８サニープレイスＩ２０３号,00140936,09,208,3230829,,,,,,,2025-10-06,1,,,,,ユウコウギョウ,0
1568,5080003003566,新規,0,2025-10-06,2025-10-06,合同会社ＳＩＡ,,合同会社,静岡県,焼津市,中里４３５－７－２０１,,22,212,4250014,,,,,,,2025-10-06,1,,,,,エスアイエー,0
1570,5080101025826,新規,0,2025-10-06,2025-10-06,株式会社富士石材,,株式会社,静岡県,富士市,松岡３９２番地の１０,,22,210,4160909,,,,,,,2025-10-06,1,,,,,フジセキザイ,0
1578,5080403005360,新規,0,2025-10-06,2025-10-06,合同会社ＴＭＲコンサルティング,,合同会社,静岡県,浜松市浜名区,細江町中川７１７２番地２２８３,,22,139,4311304,,,,,,,2025-10-06,1,,,,,ティーエムアールコンサルティング,0
1579,5090003002914,新規,0,2025-10-06,2025-10-06,ＳＩＲＯＣＣＯ合同会社,,合同会社,山梨県,北杜市,須玉町若神子４４９５―９９,,19,209,4080112,,,,,,,2025-10-06,1,,,,,シロッコ,0
1581,5100001039015,新規,0,2025-10-06,2025-10-06,ライチョウテックパートナーズ株式会社,,株式会社,長野県,長野市,南石堂町１４２３番地４,,20,201,3810000,,,,,,,2025-10-06,1,,,,,ライチョウテックパートナーズ,0
1583,5110001039609,新規,0,2025-10-06,2025-10-06,株式会社ＰＲＯＢＵＳ,,株式会社,新潟県,新潟市江南区,旭３丁目３番２３号５,,15,104,9500166,,,,,,,2025-10-06,1,,,,,プロバス,0
1608,5120001279823,新規,0,2025-10-06,2025-10-06,プオール商事株式会社,,株式会社,大阪府,大阪市北区,兎我野町１３－６東梅田皆楽ビル３０１号,,27,127,5300056,,,,,,,2025-10-06,1,,,,,プオールショウジ,0
1609,5120001280137,新規,0,2025-10-06,2025-10-06,Ｐｉｎｎａｃｌｅ　Ｔｒａｄｅ　Ｎｅｔｗｏｒｋ株式会社,,株式会社,大阪府,大阪市西成区,岸里２丁目２－４－３０８カトレアハイツ,,27,122,5570041,,,,,,,2025-10-06,1,,,,,ピナクルトレードネットワーク,0
1610,5120001280153,新規,0,2025-10-06,2025-10-06,大＿株式会社,00140935,株式会社,大阪府,大阪市西成区,玉出西２丁目１２番１１号２０２号室,,27,122,5570045,,,,,,,2025-10-06,1,,,,,ダイシン,0
1611,5120001280194,新規,0,2025-10-06,2025-10-06,佳偉株式会社,,株式会社,大阪府,大阪市港区,南市岡１丁目９－３,,27,107,5520011,,,,,,,2025-10-06,1,,,,,カイ,0
1612,5120001280277,新規,0,2025-10-06,2025-10-06,紅杉商事株式会社,,株式会社,大阪府,大阪市東淀川区,上新庄３丁目１９－１１－１Ｆ,,27,114,5330006,,,,,,,2025-10-06,1,,,,,セコイアショウジ,0
1613,5120001280293,新規,0,2025-10-06,2025-10-06,明和株式会社,,株式会社,大阪府,大阪市中央区,船場中央２丁目１番４号船場センタービル４号館Ｂ１０８ＲＯＹＡＬＯＦＦＩＣＥ内,,27,128,5410055,,,,,,,2025-10-06,1,,,,,メイワ,0
1614,5120001280368,新規,0,2025-10-06,2025-10-06,臻品株式会社,,株式会社,大阪府,大阪市中央区,大手通１丁目３番９号ＴＯＭＯＢＬＤＧ２０２号,,27,128,5400021,,,,,,,2025-10-06,1,,,,,シンヒン,0
1615,5120001280376,新規,0,2025-10-06,2025-10-06,関西百業株式会社,,株式会社,大阪府,大阪市城東区,鴫野西２丁目１５番１０号,,27,118,5360014,,,,,,,2025-10-06,1,,,,,カンサイヒャクギョウ,0
1616,5120001280418,新規,0,2025-10-06,2025-10-06,株式会社世代,,株式会社,大阪府,大阪市阿倍野区,長池町２１番１０－４０３号,,27,119,5450013,,,,,,,2025-10-06,1,,,,,セダイ,0
1617,5120001280459,新規,0,2025-10-06,2025-10-06,株式会社ＬＥＴＲＵＳ,,株式会社,大阪府,大阪市北区,天神橋６丁目２番１０号天六ビルカーサ５０３号室,,27,127,5300041,,,,,,,2025-10-06,1,,,,,レトラス,0
1618,5120001280608,新規,0,2025-10-06,2025-10-06,伍＿行株式会社,00140949,株式会社,大阪府,大阪市東住吉区,中野４丁目１番１６号リベラルオリエンテ中野２０８Ｂ,,27,121,5460012,,,,,,,2025-10-06,1,,,,,ゴバイコウ,0
1619,5120001280624,新規,0,2025-10-06,2025-10-06,心有株式会社,,株式会社,大阪府,大阪市東住吉区,湯里１丁目１９－２７,,27,121,5460013,,,,,,,2025-10-06,1,,,,,シンユウ,0
1620,5120001280756,新規,0,2025-10-06,2025-10-06,ｓｏｉｎ株式会社,,株式会社,大阪府,大阪市住吉区,庭井２丁目２０番２８号,,27,120,5580012,,,,,,,2025-10-06,1,,,,,ソワン,0
1621,5120001280806,新規,0,2025-10-06,2025-10-06,鼎豊科技株式会社,,株式会社,大阪府,大阪市東住吉区,中野４丁目１番１６号リベラルオリエンテ中野６０４Ｂ,,27,121,5460012,,,,,,,2025-10-06,1,,,,,テイホウカギ,0
1628,5120901051562,新規,0,2025-10-06,2025-10-06,株式会社アラタナバリュー,,株式会社,大阪府,茨木市,学園町３番３－２０１号,,27,211,5670833,,,,,,,2025-10-06,1,,,,,アラタナバリュー,0
1632,5122001039752,新規,0,2025-10-06,2025-10-06,ＫＯＨＡＭＡ建設株式会社,,株式会社,大阪府,四條畷市,南野２丁目３番７号,,27,229,5750021,,,,,,,2025-10-06,1,,,,,コハマケンセツ,0
1642,5140001140198,新規,0,2025-10-06,2025-10-06,株式会社くま１８５,,株式会社,兵庫県,姫路市,御国野町深志野１４１－４,,28,201,6710231,,,,,,,2025-10-06,1,,,,,クマイチハチゴ,0
1646,5140003022683,新規,0,2025-10-06,2025-10-06,エリアサイクル合同会社,,合同会社,兵庫県,西宮市,山口町名来２丁目１８番２５号,,28,204,6511411,,,,,,,2025-10-06,1,,,,,エリアサイクル,0
1649,5150001028426,新規,0,2025-10-06,2025-10-06,ゆみグローバル株式会社,,株式会社,奈良県,奈良市,秋篠町１１８１番２号,,29,201,6310811,,,,,,,2025-10-06,1,,,,,ユミグローバル,0
1650,5150001028450,新規,0,2025-10-06,2025-10-06,西和グループホールディングス株式会社,,株式会社,奈良県,磯城郡田原本町,大字阪手６３０番地,,29,363,6360247,,,,,,,2025-10-06,1,,,,,セイワグループホールディングス,0
1651,5150003003716,新規,0,2025-10-06,2025-10-06,合同会社モンド,,合同会社,奈良県,大和高田市,大字市場６５７番地３ワンライフ大和１０３号室,,29,202,6350074,,,,,,,2025-10-06,1,,,,,モンド,0
1653,5160005011443,新規,0,2025-10-06,2025-10-06,一般社団法人しがこどもホスピスプロジェクト,,その他の設立登記法人,滋賀県,守山市,焔魔堂町２９８番地２,,25,207,5240042,,,,,,,2025-10-06,1,,,,,シガコドモホスピスプロジェクト,0
1663,5180001168780,新規,0,2025-10-06,2025-10-06,株式会社スリーウェイ,,株式会社,愛知県,名古屋市緑区,桶狭間上の山２９１０番地,,23,114,4580926,,,,,,,2025-10-06,1,,,,,スリーウェイ,0
1664,5180001168839,新規,0,2025-10-06,2025-10-06,株式会社Ｖｉｖｉ,,株式会社,愛知県,名古屋市中区,錦３丁目１９番１０号シャルトル吉田ビル７Ａ,,23,106,4600003,,,,,,,2025-10-06,1,,,,,ヴィヴィ,0
1665,5180001168847,新規,0,2025-10-06,2025-10-06,Ｂｌｕｅｂｉｒｄ株式会社,,株式会社,愛知県,名古屋市熱田区,三番町１３番２１号サンハウス２号室,,23,109,4560056,,,,,,,2025-10-06,1,,,,,ブルーバード,0
1671,5180301040268,新規,0,2025-10-06,2025-10-06,株式会社ＨＡＫＫＡ,,株式会社,愛知県,豊橋市,潮崎町１３番地,,23,201,4418069,,,,,,,2025-10-06,1,,,,,キャッカ,0
1672,5180301040284,新規,0,2025-10-06,2025-10-06,株式会社ＭＦＴ,,株式会社,愛知県,豊田市,深見町細田９７３番地１３,,23,211,4700441,,,,,,,2025-10-06,1,,,,,エムエフティー,0
1685,5200001044302,新規,0,2025-10-06,2025-10-06,エヌホールディングス株式会社,,株式会社,岐阜県,羽島郡岐南町,平成５丁目９１番地サンツイン２３１号室,,21,302,5016013,,,,,,,2025-10-06,1,,,,,エヌホールディングス,0
1686,5200001044310,新規,0,2025-10-06,2025-10-06,株式会社ＷＡＺＳ　ＩＮＴＥＲＮＡＴＩＯＮＡＬ,,株式会社,岐阜県,岐阜市,一日市場北町１２番４‐１号,,21,201,5010102,,,,,,,2025-10-06,1,,,,,ワッズインターナショナル,0
1694,5220001026959,新規,0,2025-10-06,2025-10-06,株式会社勝源,,株式会社,石川県,河北郡内灘町,字鶴ケ丘１丁目１３８番地,,17,365,9200271,,,,,,,2025-10-06,1,,,,,ショウゲン,0
1701,5240001065550,新規,0,2025-10-06,2025-10-06,株式会社悠々,,株式会社,広島県,福山市,春日町浦上７０２番地４,,34,207,7210902,,,,,,,2025-10-06,1,,,,,ユウユウ,0
1702,5240001065575,新規,0,2025-10-06,2025-10-06,株式会社三共エリアウェル,,株式会社,広島県,福山市,多治米町１丁目４番１５－５０２号,,34,207,7200824,,,,,,,2025-10-06,1,,,,,サンキョウエリアウェル,0
1703,5240001065583,新規,0,2025-10-06,2025-10-06,ＶＩＡ　ＪＡＰＡＮ株式会社,,株式会社,広島県,尾道市,瀬戸田町瀬戸田４２６番地１,,34,205,7222411,,,,,,,2025-10-06,1,,,,,ヴァイアジャパン,0
1704,5240001065609,新規,0,2025-10-06,2025-10-06,株式会社ｐｌｕｇ,,株式会社,広島県,福山市,今町３０番１号,,34,207,7200046,,,,,,,2025-10-06,1,,,,,プラグ,0
1706,5250001021354,新規,0,2025-10-06,2025-10-06,株式会社イノベクト,,株式会社,山口県,宇部市,大字西岐波１５１３番地１,,35,202,7550151,,,,,,,2025-10-06,1,,,,,イノベクト,0
1707,5250001021362,新規,0,2025-10-06,2025-10-06,株式会社幡田ホールディングス,,株式会社,山口県,柳井市,新庄２３９０番地５,,35,212,7420033,,,,,,,2025-10-06,1,,,,,ハタダホールディングス,0
1711,5260001040601,新規,0,2025-10-06,2025-10-06,津山明治乳販宅配センター株式会社,,株式会社,岡山県,津山市,二宮２２３３番地２,,33,203,7080013,,,,,,,2025-10-06,1,,,,,ツヤマメイジニュウハンタクハイセンター,0
1721,5290001111556,新規,0,2025-10-06,2025-10-06,マクロジ株式会社,,株式会社,福岡県,福岡市城南区,別府３丁目２番５号,,40,136,8140104,,,,,,,2025-10-06,1,,,,,マクロジ,0
1724,5290003017487,新規,0,2025-10-06,2025-10-06,ＵＭＡＳＡＭＭＡＮＧ合同会社,,合同会社,福岡県,福岡市博多区,春町２丁目６番２３号コーポはつみ１０２号,,40,132,8120872,,,,,,,2025-10-06,1,,,,,ウマサマン,0
1725,5290003017553,新規,0,2025-10-06,2025-10-06,合同会社みらいエナジー,,合同会社,福岡県,福岡市博多区,神屋町１０番１６－８０５号ＭＯＤＥＲＮＰＡＬＡＺＺＯ天神北ＩＩ,00140944,40,132,8120022,,,,,,,2025-10-06,1,,,,,ミライエナジー,0
1728,5290801031887,新規,0,2025-10-06,2025-10-06,株式会社Ｇｅｎｅｒａｌ,,株式会社,福岡県,北九州市小倉北区,馬借２丁目１番２２－４０３号,,40,106,8020077,,,,,,,2025-10-06,1,,,,,ゼネラル,0
1734,5310001019813,新規,0,2025-10-06,2025-10-06,株式会社馳奏,,株式会社,長崎県,雲仙市,国見町土黒甲９９０番地４,,42,213,8591311,,,,,,,2025-10-06,1,,,,,チソウ,0
1747,5350001019743,新規,0,2025-10-06,2025-10-06,ミヤザキ農園株式会社,,株式会社,宮崎県,小林市,細野２６８０番地,,45,205,8860004,,,,,,,2025-10-06,1,,,,,ミヤザキノウエン,0
1752,5360001035847,新規,0,2025-10-06,2025-10-06,株式会社クリーンアシスト,,株式会社,沖縄県,南城市,大里字古堅４６１番地３,,47,215,9011207,,,,,,,2025-10-06,1,,,,,クリーンアシスト,0
1753,5360001035863,新規,0,2025-10-06,2025-10-06,株式会社あすかのね,,株式会社,沖縄県,那覇市,首里当蔵町２丁目１１番地８カーサ当蔵１Ｆ,,47,201,9030812,,,,,,,2025-10-06,1,,,,,アスカノネ,0
1754,5360001035871,新規,0,2025-10-06,2025-10-06,株式会社Ｌｕ,,株式会社,沖縄県,宮古島市,平良字久貝８３９番地６－１－Ｆ,,47,214,9060015,,,,,,,2025-10-06,1,,,,,ルー,0
1756,5360003015302,新規,0,2025-10-06,2025-10-06,合同会社藤忠,,合同会社,沖縄県,沖縄市,高原５丁目７番７号,,47,211,9042171,,,,,,,2025-10-06,1,,,,,フジチュウ,0
1768,5410003004159,新規,0,2025-10-06,2025-10-06,合同会社だいちゃんファーム,,合同会社,秋田県,横手市,十文字町字海道下２４番地１－２,,05,203,0190529,,,,,,,2025-10-06,1,,,,,ダイチャンファーム,0
1769,5420001019298,新規,0,2025-10-06,2025-10-06,三沢オートグラスサービス株式会社,,株式会社,青森県,三沢市,大字三沢字堀口１６４番地８１号,,02,207,0330022,,,,,,,2025-10-06,1,,,,,ミサワオートグラスサービス,0
1770,5420003003192,新規,0,2025-10-06,2025-10-06,合同会社ＮＥＯＮ　ＭＯＴＥＬ,,合同会社,青森県,弘前市,大字宮川３丁目２番地４,,02,202,0368051,,,,,,,2025-10-06,1,,,,,ネオンモーテル,0
1774,5430001095322,新規,0,2025-10-06,2025-10-06,Ｒｅｃｏｎｎｅ株式会社,,株式会社,北海道,札幌市中央区,南二条西５丁目３１－１ＭＲＢｌｄ．７０１,,01,101,0600062,,,,,,,2025-10-06,1,,,,,リコネ,0
1775,5430001095347,新規,0,2025-10-06,2025-10-06,株式会社ｗｈｉｔｅ,,株式会社,北海道,札幌市中央区,南二条西４丁目１２番地６第２コンタクトオフビル４Ｆ,,01,101,0600062,,,,,,,2025-10-06,1,,,,,ホワイト,0
1777,5430003018149,新規,0,2025-10-06,2025-10-06,佰盛合同会社,,合同会社,北海道,苫小牧市,新開町１丁目３番１０号グレイスＤ１０５号,,01,213,0530052,,,,,,,2025-10-06,1,,,,,ヒャクセイ,0
1778,5430005015318,新規,0,2025-10-06,2025-10-06,医療法人緑香会,,その他の設立登記法人,北海道,札幌市東区,北十六条東１６丁目１番１３号北愛ビル５０１号,,01,103,0650016,,,,,,,2025-10-06,1,,,,,リョクカカイ,0
1787,5500001026550,新規,0,2025-10-06,2025-10-06,株式会社百花蔵,,株式会社,愛媛県,松山市,中須賀３丁目１２番２１号,,38,201,7918078,,,,,,,2025-10-06,1,,,,,ヒャッカグラ,0
1791,5500003003606,新規,0,2025-10-06,2025-10-06,合同会社ドラゴン池田,,合同会社,愛媛県,大洲市,西大洲甲１００６番地１６,,38,207,7950013,,,,,,,2025-10-06,1,,,,,ドラゴンイケダ,0
1792,5700150132393,新規,0,2025-10-06,2025-10-06,ｈａｎｇｚｈｏｕｙｕｙｕｋｅｊｉｙｏｕｘｉａｎｇｏｎｇｓｉ,,外国会社等,,,,,,,,Ｎｏ．１６６６，Ｚｈｉｘｉｎｇ　Ｒｏａｄ，Ｘｉａｏｓｈａｎ　Ｅｃｏｎｏｍｉｃ　ａｎｄ　Ｔｅｃｈｎｏｌｏｇｉｃａｌ　Ｄｅｖｅｌｏｐｍｅｎｔ　Ｚｏｎｅ，Ｘｉａｏｓｈａｎ　Ｄｉｓｔｒｉｃｔ　０４－０９，Ｘｉａｏｓｈａｎ　Ｆｒｅｅ　Ｔｒａｄｅ　Ｚｏｎｅ　Ｂｕｉｌｄｉｎｇ　Ｈａｎｇｚｈｏｕ，Ｚｈｅｊｉａｎｇ,,,,,,2025-10-06,1,,,,,ハンゾウユユカギユウゲンコウシ,0
1801,6010001258886,新規,0,2025-10-06,2025-10-06,ＢＭ　ＰＬＵＳ株式会社,,株式会社,東京都,中央区,日本橋室町１丁目１１番１２号日本橋水野ビル７階,,13,102,1030022,,,,,,,2025-10-06,1,,,,,ビーエムプラス,0
1802,6010001259001,新規,0,2025-10-06,2025-10-06,株式会社Ｔ‐Ｏ,,株式会社,東京都,千代田区,神田須田町１丁目７番地８,,13,101,1010041,,,,,,,2025-10-06,1,,,,,ティーオー,0
1803,6010001259026,新規,0,2025-10-06,2025-10-06,株式会社クリエイトミー,,株式会社,東京都,中央区,銀座６丁目６番１号銀座風月堂ビル５階,,13,102,1040061,,,,,,,2025-10-06,1,,,,,クリエイトミー,0
1804,6010001259042,新規,0,2025-10-06,2025-10-06,株式会社ＳｔｒｉｖＥｄｇｅ,,株式会社,東京都,千代田区,神田淡路町２丁目２１番地１７Ｄｅａｒ淡路町３階,,13,101,1010063,,,,,,,2025-10-06,1,,,,,ストライブエッジ,0
1805,6010001259050,新規,0,2025-10-06,2025-10-06,株式会社ＶｏＸテクノロジー,,株式会社,東京都,千代田区,平河町２丁目８番９号,,13,101,1020093,,,,,,,2025-10-06,1,,,,,ヴォックステクノロジー,0
1806,6010001259059,新規,0,2025-10-06,2025-10-06,株式会社トランキーロ,,株式会社,東京都,千代田区,内神田１丁目１１番５号カーサ内神田３０２,,13,101,1010047,,,,,,,2025-10-06,1,,,,,トランキーロ,0
1807,6010001259100,新規,0,2025-10-06,2025-10-06,株式会社サンライズサン,,株式会社,東京都,中央区,日本橋人形町２丁目３０番４－３０２号,,13,102,1030013,,,,,,,2025-10-06,1,,,,,サンライズサン,0
1808,6010001259109,新規,0,2025-10-06,2025-10-06,株式会社ＣＡＭＥＬＯＴ,,株式会社,東京都,中央区,勝どき４丁目６番１－５３０７号,,13,102,1040054,,,,,,,2025-10-06,1,,,,,キャメロット,0
1809,6010001259133,新規,0,2025-10-06,2025-10-06,株式会社ＪＰＸロジ,,株式会社,東京都,千代田区,東神田１丁目５番５号馬喰町ＪＰＣビル,,13,101,1010031,,,,,,,2025-10-06,1,,,,,ジェーピーエックスロジ,0
1810,6010003048930,新規,0,2025-10-06,2025-10-06,合同会社ＲＥ３００,,合同会社,東京都,千代田区,飯田橋３丁目１番５号,,13,101,1020072,,,,,,,2025-10-06,1,,,,,アールイーサンビャク,0
1811,6010003048947,新規,0,2025-10-06,2025-10-06,埼玉県山河バッテリーＪＳＤ２５００５合同会社,,合同会社,東京都,千代田区,飯田橋４丁目５番１６号メトロシティ飯田橋５階,,13,101,1020072,,,,,,,2025-10-06,1,,,,,サイタマケンヤマガバッテリージェイエスディーニーゴーゼロゼロゴ,0
1812,6010005040729,新規,0,2025-10-06,2025-10-06,特定非営利活動法人佃フットボールクラブ,,その他の設立登記法人,東京都,中央区,銀座７丁目１５番８号タウンハイツ銀座４０６号室,,13,102,1040061,,,,,,,2025-10-06,1,,,,,ツクダフットボールクラブ,0
1813,6010005040745,新規,0,2025-10-06,2025-10-06,医療法人社団順耀会,,その他の設立登記法人,東京都,中央区,勝どき１丁目１３番６号プラザタワー勝どき２階,,13,102,1040054,,,,,,,2025-10-06,1,,,,,ジュンヨウカイ,0
1814,6010101016888,新規,0,2025-10-06,2025-10-06,Ｓｐｒｅａｄ株式会社,,株式会社,東京都,八王子市,楢原町８９７番地７,,13,201,1930803,,,,,,,2025-10-06,1,,,,,スプリード,0
1815,6010101016896,新規,0,2025-10-06,2025-10-06,和氏テクノロジー株式会社,,株式会社,東京都,八王子市,子安町１丁目４８番９号２０２号室,,13,201,1920904,,,,,,,2025-10-06,1,,,,,カズシテクノロジー,0
1820,6010401193304,新規,0,2025-10-06,2025-10-06,Ｃａｂｉｎｅｔ　Ｎａｋａｈａｔａ株式会社,,株式会社,東京都,港区,南青山５丁目１－１０－４０９,,13,103,1070062,,,,,,,2025-10-06,1,,,,,キャビネナカハタ,0
1821,6010403036213,新規,0,2025-10-06,2025-10-06,合同会社ＹＡＥ１,,合同会社,東京都,港区,虎ノ門５丁目１番４号,,13,103,1050001,,,,,,,2025-10-06,1,,,,,ワイエーイーワン,0
1822,6010501054769,新規,0,2025-10-06,2025-10-06,自然風株式会社,,株式会社,東京都,台東区,蔵前４丁目１６－６ストーク蔵前Ｍ＆Ｋ４階４２０,,13,106,1110051,,,,,,,2025-10-06,1,,,,,シゼンフウ,0
1826,6010601068066,新規,0,2025-10-06,2025-10-06,株式会社ＢＯＮＪＯＵＲ,,株式会社,東京都,墨田区,京島１丁目３５番９号,,13,107,1310046,,,,,,,2025-10-06,1,,,,,ボンジュール,0
1827,6010601068074,新規,0,2025-10-06,2025-10-06,Ｃｏｌｌｅｃｔｉｖｅ＆Ｃｏ．株式会社,,株式会社,東京都,江東区,青海２丁目７番４号ｔｈｅ・ＳＯＨＯ・１１１０号,,13,108,1350064,,,,,,,2025-10-06,1,,,,,コレクティブアンドコー,0
1836,6010903010287,新規,0,2025-10-06,2025-10-06,ゴールデンフューチャー合同会社,,合同会社,東京都,世田谷区,豪徳寺１丁目３－１８レオパレス豪徳寺２０３,,13,112,1540021,,,,,,,2025-10-06,1,,,,,ゴールデンフューチャー,0
1840,6011001172862,新規,0,2025-10-06,2025-10-06,株式会社ライフクリエーションホールディングス,,株式会社,東京都,渋谷区,桜丘町１５－１４フジビル４０．７Ｆ,,13,113,1500031,,,,,,,2025-10-06,1,,,,,ライフクリエーションホールディングス,0
1841,6011001172937,新規,0,2025-10-06,2025-10-06,株式会社まんなか,,株式会社,東京都,渋谷区,元代々木町３０番１３号ＣＨ,,13,113,1510062,,,,,,,2025-10-06,1,,,,,マンナカ,0
1843,6011003022520,新規,0,2025-10-06,2025-10-06,合同会社ＴＳ８Ｐａｒｔｎｅｒｓ,,合同会社,東京都,渋谷区,千駄ヶ谷４丁目２８－４ＫＳビル７Ｆ,,13,113,1510051,,,,,,,2025-10-06,1,,,,,ティーエスエイトパートナーズ,0
1844,6011003022545,新規,0,2025-10-06,2025-10-06,ひかりむすひ合同会社,,合同会社,東京都,目黒区,中目黒５丁目１８番２－２０２号,,13,110,1530061,,,,,,,2025-10-06,1,,,,,ヒカリムスヒ,0
1845,6011003022693,新規,0,2025-10-06,2025-10-06,合同会社ミケラス,,合同会社,東京都,目黒区,東が丘１丁目１６番２７号,,13,110,1520021,,,,,,,2025-10-06,1,,,,,ミケラス,0
1846,6011003022719,新規,0,2025-10-06,2025-10-06,合同会社Ｐｅｇｕｕｕ,,合同会社,東京都,渋谷区,神宮前６丁目２３―４桑野ビル２Ｆ,,13,113,1500001,,,,,,,2025-10-06,1,,,,,ペグー,0
1851,6011101113428,新規,0,2025-10-06,2025-10-06,株式会社末長真写真事務所,,株式会社,東京都,新宿区,新宿１丁目６番１１号永井ビル４Ｆ,,13,104,1600022,,,,,,,2025-10-06,1,,,,,スエナガマコトシャシンジムショ,0
1856,6011201026678,新規,0,2025-10-06,2025-10-06,ＮＡＴＵＲＡ　ＰＵＲＥ株式会社,,株式会社,東京都,中野区,中野１丁目４１番５１号,,13,114,1640001,,,,,,,2025-10-06,1,,,,,ナチュラピュア,0
1859,6011403004886,新規,0,2025-10-06,2025-10-06,合同会社Ｋ‐ＷＯＲＫＳ,,合同会社,東京都,板橋区,赤塚４丁目２９番１５号,,13,119,1750092,,,,,,,2025-10-06,1,,,,,ケーワークス,0
1861,6011503006709,新規,0,2025-10-06,2025-10-06,ＤＦＳ合同会社,,合同会社,東京都,荒川区,東尾久８丁目２６番２３－５０７号,,13,118,1160012,,,,,,,2025-10-06,1,,,,,ディーエフエス,0
1871,6011701028785,新規,0,2025-10-06,2025-10-06,よつ葉ワークス株式会社,,株式会社,東京都,江戸川区,鹿骨１丁目２２番１９号,,13,123,1330073,,,,,,,2025-10-06,1,,,,,ヨツバワークス,0
1873,6011801046836,新規,0,2025-10-06,2025-10-06,株式会社Ｎ＆Ｃ　Ｃｏｎｓｕｌｔｉｎｇ,,株式会社,東京都,葛飾区,東四つ木４丁目１０－７－２０２号,,13,122,1240014,,,,,,,2025-10-06,1,,,,,エヌアンドシーコンサルティング,0
1874,6011805003486,新規,0,2025-10-06,2025-10-06,一般社団法人Ｃｚｅｃｈ‐Ｊａｐａｎ　Ｈｕｂ,,その他の設立登記法人,東京都,葛飾区,立石６丁目１８番１５号山木ビル４階,,13,122,1240012,,,,,,,2025-10-06,1,,,,,チェコニホンハブ,0
1876,6012401043653,新規,0,2025-10-06,2025-10-06,株式会社Ｍａｎｇｅｔｓｕ＆Ｔａｉｙｏｕ,,株式会社,東京都,稲城市,東長沼１０６４番地,,13,225,2060802,,,,,,,2025-10-06,1,,,,,マンゲツアンドタイヨウ,0
1877,6012403007375,新規,0,2025-10-06,2025-10-06,Ｒｅｌｅａｓｅ　Ｙｏｕｒ　Ｐｏｔｅｎｔｉａｌ合同会社,,合同会社,東京都,三鷹市,下連雀６丁目１７番５－１０８号,,13,204,1810013,,,,,,,2025-10-06,1,,,,,リリースユアポテンシャル,0
1878,6012403007383,新規,0,2025-10-06,2025-10-06,エーエムジー合同会社,,合同会社,東京都,狛江市,中和泉３丁目３０番１号,,13,219,2010012,,,,,,,2025-10-06,1,,,,,エーエムジー,0
1881,6013101009820,新規,0,2025-10-06,2025-10-06,株式会社ＴＨバックオフィス,,株式会社,東京都,あきる野市,二宮東２丁目５番地２,,13,228,1970815,,,,,,,2025-10-06,1,,,,,ティーエイチバックオフィス,0
1893,6020001165058,新規,0,2025-10-06,2025-10-06,株式会社ＳＵＮｎａｎａ,,株式会社,神奈川県,川崎市高津区,久本１丁目６番８号,,14,134,2130011,,,,,,,2025-10-06,1,,,,,サンナナ,0
1894,6020001165066,新規,0,2025-10-06,2025-10-06,株式会社Ｙ’ｓ　ＢＲＩＤＧＥ,,株式会社,神奈川県,横浜市神奈川区,高島台１番地３１,,14,102,2210833,,,,,,,2025-10-06,1,,,,,ワイズブリッジ,0
1895,6020001165090,新規,0,2025-10-06,2025-10-06,Ｙ＆Ｋ　ＣＵＳＴＯＭ株式会社,,株式会社,神奈川県,横浜市泉区,ゆめが丘２番地１０コスモＡｏｉガレージハウス横浜ゆめが丘３－３Ｂ,,14,116,2450019,,,,,,,2025-10-06,1,,,,,ワイアンドケイカスタム,0
1896,6020001165132,新規,0,2025-10-06,2025-10-06,株式会社フューチャー,,株式会社,神奈川県,横浜市旭区,今宿西町３８５番地１,,14,112,2410031,,,,,,,2025-10-06,1,,,,,フューチャー,0
1897,6020001165140,新規,0,2025-10-06,2025-10-06,株式会社ＫＳコンサルティング,,株式会社,神奈川県,横浜市港北区,新吉田東６丁目２４番１３号,,14,109,2230058,,,,,,,2025-10-06,1,,,,,ケイエスコンサルティング,0
1898,6020001165165,新規,0,2025-10-06,2025-10-06,テックジャパン株式会社,,株式会社,神奈川県,横浜市泉区,上飯田町４９９番１,,14,116,2450018,,,,,,,2025-10-06,1,,,,,テックジャパン,0
1899,6020001165198,新規,0,2025-10-06,2025-10-06,ＮＸＴ株式会社,,株式会社,神奈川県,横浜市中区,山下町２１９番地カーサ丸徳２０２号,,14,104,2310023,,,,,,,2025-10-06,1,,,,,エヌエックスティー,0
1903,6020003029517,新規,0,2025-10-06,2025-10-06,合同会社高味,00140958,合同会社,神奈川県,横浜市旭区,上白根１丁目３３番８号,,14,112,2410002,,,,,,,2025-10-06,1,,,,,タカミ,0
1907,6021001086384,新規,0,2025-10-06,2025-10-06,株式会社ＵＮＯＬＤ,,株式会社,神奈川県,鎌倉市,大船１丁目１２番１０号湘南第５ビル４Ｆ,,14,204,2470056,,,,,,,2025-10-06,1,,,,,アンオールド,0
1908,6021001086491,新規,0,2025-10-06,2025-10-06,株式会社Ｌｉｌｙ　Ｃｒａｄｌｅ,,株式会社,神奈川県,海老名市,扇町５番７号クキタフューチャーハウス３階,,14,215,2430436,,,,,,,2025-10-06,1,,,,,リリークレイドル,0
1913,6021002074339,新規,0,2025-10-06,2025-10-06,有限会社湘洋商事,,有限会社,神奈川県,藤沢市,辻堂１１６７番地,00140861,14,205,2510047,,,,,,,2025-10-06,1,,,,,ショウヨウショウジ,0
1916,6021003016620,新規,0,2025-10-06,2025-10-06,リボン合同会社,,合同会社,神奈川県,横須賀市,日の出町１丁目６リアライズ横須賀３Ｆ－１１,,14,201,2380006,,,,,,,2025-10-06,1,,,,,リボン,0
1917,6021003016629,新規,0,2025-10-06,2025-10-06,利全合同会社,,合同会社,神奈川県,厚木市,上依知１３６２番地４,,14,212,2430801,,,,,,,2025-10-06,1,,,,,リゼン,0
1918,6021003016661,新規,0,2025-10-06,2025-10-06,桜合同会社,,合同会社,神奈川県,藤沢市,善行７丁目８番９号,,14,205,2510871,,,,,,,2025-10-06,1,,,,,サクラ,0
1928,6030001168935,新規,0,2025-10-06,2025-10-06,株式会社グランプリュネ,,株式会社,埼玉県,さいたま市北区,宮原町３丁目９０１番地１Ｇ－７２７,,11,102,3310812,,,,,,,2025-10-06,1,,,,,グランプリュネ,0
1929,6030001168951,新規,0,2025-10-06,2025-10-06,株式会社荒川外装,,株式会社,埼玉県,狭山市,柏原１７４番地７,,11,215,3501335,,,,,,,2025-10-06,1,,,,,アラカワガイソウ,0
1930,6030001168968,新規,0,2025-10-06,2025-10-06,株式会社白河工業,,株式会社,埼玉県,さいたま市緑区,東浦和９丁目８番地１４,,11,109,3360926,,,,,,,2025-10-06,1,,,,,シラカワコウギョウ,0
1931,6030001168976,新規,0,2025-10-06,2025-10-06,ＯＮＥ　ＢＹ　ＯＮＥ株式会社,,株式会社,埼玉県,深谷市,国済寺町８番地３１,,11,218,3660031,,,,,,,2025-10-06,1,,,,,ワンバイワン,0
1932,6030001168984,新規,0,2025-10-06,2025-10-06,株式会社ｅｎｎ,,株式会社,埼玉県,入間市,大字上藤沢９０８番地,,11,225,3580013,,,,,,,2025-10-06,1,,,,,エン,0
1933,6030001169000,新規,0,2025-10-06,2025-10-06,株式会社上里電気,,株式会社,埼玉県,児玉郡上里町,大字堤３９番地３,,11,385,3690313,,,,,,,2025-10-06,1,,,,,カミサトデンキ,0
1934,6030001169009,新規,0,2025-10-06,2025-10-06,株式会社Ｍｉｋｏｓｈｉ,,株式会社,埼玉県,久喜市,上内２０１１番地１,,11,232,3400211,,,,,,,2025-10-06,1,,,,,ミコシ,0
1935,6030001169017,新規,0,2025-10-06,2025-10-06,株式会社ＭＤＬＰ,,株式会社,埼玉県,富士見市,鶴瀬西３丁目９番２５号,,11,235,3540026,,,,,,,2025-10-06,1,,,,,エムディーエルピー,0
1936,6030001169058,新規,0,2025-10-06,2025-10-06,Ｒ＆Ｓ　Ｉｎｔｅｒｎａｔｉｏｎａｌ株式会社,,株式会社,埼玉県,新座市,栗原６丁目１４番２号,,11,230,3520035,,,,,,,2025-10-06,1,,,,,アールアンドエスインターナショナル,0
1937,6030001169066,新規,0,2025-10-06,2025-10-06,株式会社ＩＶＩＳＨ,,株式会社,埼玉県,川口市,西川口６丁目９番４０号枝番６ヴォルシュガーデンＡ棟,,11,203,3320021,,,,,,,2025-10-06,1,,,,,アイビッシュ,0
1938,6030001169082,新規,0,2025-10-06,2025-10-06,旭株式会社,,株式会社,埼玉県,川口市,西川口１丁目３０番２０－１０１号室,,11,203,3320021,,,,,,,2025-10-06,1,,,,,アサヒ,0
1943,6030003027759,新規,0,2025-10-06,2025-10-06,Ｅｎｆｉｎｉｔｉ合同会社,,合同会社,埼玉県,狭山市,大字東三ツ木２７０－１市川マンション、２階２０５号室,,11,215,3501302,,,,,,,2025-10-06,1,,,,,エンフィニティ,0
1944,6030003027775,新規,0,2025-10-06,2025-10-06,ＦＲＥＳＨ　ＶＩＢＥ合同会社,,合同会社,埼玉県,川口市,西川口１丁目４０－２１コーポハラ１０６,,11,203,3320021,,,,,,,2025-10-06,1,,,,,フレッシュヴァイブ,0
1945,6030003027791,新規,0,2025-10-06,2025-10-06,合同会社創美舎,,合同会社,埼玉県,戸田市,本町２丁目５番９号,,11,224,3350023,,,,,,,2025-10-06,1,,,,,ソウビシャ,0
1946,6030003027800,新規,0,2025-10-06,2025-10-06,ウェルフェアホーム合同会社,,合同会社,埼玉県,桶川市,大字上日出谷１２４６番地の２８,,11,231,3630026,,,,,,,2025-10-06,1,,,,,ウェルフェアホーム,0
1947,6030003027809,新規,0,2025-10-06,2025-10-06,合同会社シー・ファースト,,合同会社,埼玉県,川越市,南大塚３丁目１６番地９,00140948,11,201,3501162,,,,,,,2025-10-06,1,,,,,シーファースト,0
1948,6030003027825,新規,0,2025-10-06,2025-10-06,合同会社ムシュタック,,合同会社,埼玉県,さいたま市桜区,大字神田８５番地１－１０２,,11,106,3380812,,,,,,,2025-10-06,1,,,,,ムシュタック,0
1950,6040001140728,新規,0,2025-10-06,2025-10-06,株式会社リコネクトジャパン,,株式会社,千葉県,柏市,布施２０４９番地の１,,12,217,2770825,,,,,,,2025-10-06,1,,,,,リコネクトジャパン,0
1951,6040001140752,新規,0,2025-10-06,2025-10-06,三徳株式会社,,株式会社,千葉県,香取市,油田１０５１番地７２,,12,236,2890346,,,,,,,2025-10-06,1,,,,,サントク,0
1953,6040003028517,新規,0,2025-10-06,2025-10-06,すぎやまいちご園合同会社,,合同会社,千葉県,野田市,三ツ堀２５５－３,,12,208,2780011,,,,,,,2025-10-06,1,,,,,スギヤマイチゴエン,0
1954,6040003028590,新規,0,2025-10-06,2025-10-06,合同会社自分時間,,合同会社,千葉県,松戸市,上矢切１４０９－９,,12,207,2710094,,,,,,,2025-10-06,1,,,,,ジブンジカン,0
1960,6080001027178,新規,0,2025-10-06,2025-10-06,静岡ガスヘルスケア株式会社,,株式会社,静岡県,静岡市駿河区,池田２８,,22,102,4228005,,,,,,,2025-10-06,1,,,,,シズオカガスヘルスケア,0
1965,6090003002913,新規,0,2025-10-06,2025-10-06,合同会社かけはし,,合同会社,山梨県,笛吹市,石和町中川４３０番地２,,19,211,4060026,,,,,,,2025-10-06,1,,,,,カケハシ,0
1966,6100001039006,新規,0,2025-10-06,2025-10-06,株式会社本木興業,,株式会社,長野県,安曇野市,三郷明盛５４番地３,,20,220,3998101,,,,,,,2025-10-06,1,,,,,モトキコウギョウ,0
1969,6100003008413,新規,0,2025-10-06,2025-10-06,合同会社ＹＳＤ,,合同会社,長野県,中野市,大字吉田４２－３,,20,211,3830015,,,,,,,2025-10-06,1,,,,,ワイエスディー,0
1971,6110001039624,新規,0,2025-10-06,2025-10-06,株式会社鎚の音,,株式会社,新潟県,三条市,柳川新田３９１番地２,,15,204,9550002,,,,,,,2025-10-06,1,,,,,ツチノネ,0
1975,6110003005913,新規,0,2025-10-06,2025-10-06,ＹＫ企画合同会社,,合同会社,新潟県,新潟市西区,善久７６３番地１,,15,107,9501102,,,,,,,2025-10-06,1,,,,,ワイケーキカク,0
1994,6120001280210,新規,0,2025-10-06,2025-10-06,ＨＯＭＥ　ＴＯＷＮ株式会社,,株式会社,大阪府,大阪市住之江区,粉浜１丁目３－２５サンシティ粉浜２０１,,27,125,5590001,,,,,,,2025-10-06,1,,,,,ホームタウン,0
1995,6120001280243,新規,0,2025-10-06,2025-10-06,新生旅程株式会社,,株式会社,大阪府,大阪市西成区,萩之茶屋２丁目６番４号ニューかめや３階１０８号,,27,122,5570004,,,,,,,2025-10-06,1,,,,,シンセイリョテイ,0
1996,6120001280268,新規,0,2025-10-06,2025-10-06,ＪＨ株式会社,,株式会社,大阪府,大阪市東淀川区,小松４丁目１６－４５グランドハイツ小松５０２号,,27,114,5330004,,,,,,,2025-10-06,1,,,,,ジェイエイチ,0
1997,6120001280276,新規,0,2025-10-06,2025-10-06,株式会社華盟グローバル,,株式会社,大阪府,大阪市生野区,新今里５丁目７番６号新今里サクセスビル２０５号室,,27,116,5440001,,,,,,,2025-10-06,1,,,,,カメイグローバル,0
1998,6120001280318,新規,0,2025-10-06,2025-10-06,株式会社ケリケリ,,株式会社,大阪府,大阪市北区,梅田１丁目１２番１２号東京建物梅田ビル１２階,,27,127,5300001,,,,,,,2025-10-06,1,,,,,ケリケリ,0
1999,6120001280367,新規,0,2025-10-06,2025-10-06,恒安株式会社,,株式会社,大阪府,大阪市住吉区,山之内３丁目１６番２０号１階,,27,120,5580023,,,,,,,2025-10-06,1,,,,,コウアン,0
2000,6120001280383,新規,0,2025-10-06,2025-10-06,株式会社ネームテック,,株式会社,大阪府,大阪市西区,北堀江３丁目９番１６号大同興業ビル７階,,27,106,5500014,,,,,,,2025-10-06,1,,,,,ネームテック,0
2001,6120001280425,新規,0,2025-10-06,2025-10-06,株式会社ライズクロス,,株式会社,大阪府,大阪市中央区,北浜２丁目６番１８号,,27,128,5410041,,,,,,,2025-10-06,1,,,,,ライズクロス,0
2002,6120001280441,新規,0,2025-10-06,2025-10-06,株式会社輝,,株式会社,大阪府,大阪市西成区,太子２丁目４番１４－４０５号,,27,122,5570002,,,,,,,2025-10-06,1,,,,,カガヤキ,0
2003,6120001280474,新規,0,2025-10-06,2025-10-06,Ｓｉｎｋｅ株式会社,,株式会社,大阪府,大阪市西成区,長橋１丁目３番１５号ＮＥＯＳＰＡＣＥ長橋２０３,,27,122,5570025,,,,,,,2025-10-06,1,,,,,シンケ,0
2004,6120001280607,新規,0,2025-10-06,2025-10-06,ベストソリューション株式会社,,株式会社,大阪府,大阪市東住吉区,中野４丁目１番１６号リベラルオリエンテ中野６０７Ｂ,,27,121,5460012,,,,,,,2025-10-06,1,,,,,ベストソリューション,0
2005,6120001280821,新規,0,2025-10-06,2025-10-06,株式会社中西創建,,株式会社,大阪府,守口市,金田町３丁目３番３１号,,27,209,5700011,,,,,,,2025-10-06,1,,,,,ナカニシソウケン,0
2009,6120003030786,新規,0,2025-10-06,2025-10-06,合同会社ＲＥＳＴＡＲＴ　ＬＩＮＥ,,合同会社,大阪府,大阪市淀川区,西中島６丁目３番２４号北白石ビル西館ｋ４１１,,27,123,5320011,,,,,,,2025-10-06,1,,,,,リスタートライン,0
2010,6120003030836,新規,0,2025-10-06,2025-10-06,合同会社Ｂｅｅ　Ｐｌａｎｎｉｎｇ,,合同会社,大阪府,大阪市中央区,船越町２丁目４番１７号住地オリエント中央ビル７０１,,27,128,5400036,,,,,,,2025-10-06,1,,,,,ビープランニング,0
2011,6120003030869,新規,0,2025-10-06,2025-10-06,モフモフ合同会社,,合同会社,大阪府,大阪市西成区,萩之茶屋２丁目６－４－２６８,,27,122,5570004,,,,,,,2025-10-06,1,,,,,モフモフ,0
2020,6120901051561,新規,0,2025-10-06,2025-10-06,株式会社ＬＵＣＫＳＴＡＹ　ＳＯＬＵＴＩＯＮＳ,,株式会社,大阪府,高槻市,安岡寺町３丁目２３番１３号,,27,207,5691029,,,,,,,2025-10-06,1,,,,,ラックステイソリューションズ,0
2021,6120901051578,新規,0,2025-10-06,2025-10-06,株式会社Ｅｘｃｅｅｄ,,株式会社,大阪府,吹田市,山田東１丁目１番１０－２０２号,,27,205,5650821,,,,,,,2025-10-06,1,,,,,イクシード,0
2027,6122003003334,新規,0,2025-10-06,2025-10-06,ＪＳＫ　ｔｅｃｈｎｏｌｏｇｉｅｓ合同会社,,合同会社,大阪府,八尾市,大竹７丁目１６９番地,,27,212,5810854,,,,,,,2025-10-06,1,,,,,ジェイエスケーテクノロジーズ,0
2033,6140001140148,新規,0,2025-10-06,2025-10-06,特益株式会社,,株式会社,兵庫県,神戸市兵庫区,芦原通６丁目３－６－２０２号室,,28,105,6520882,,,,,,,2025-10-06,1,,,,,トクエキ,0
2034,6140001140189,新規,0,2025-10-06,2025-10-06,株式会社ｉＬＡＢＯ,,株式会社,兵庫県,宝塚市,塔の町３番１１－８号,,28,214,6650073,,,,,,,2025-10-06,1,,,,,アイラボ,0
2035,6140001140230,新規,0,2025-10-06,2025-10-06,株式会社エナジーアウト,,株式会社,兵庫県,西宮市,櫨塚町２－２０西宮商工会議所３Ｆにしのみや起業家支援センター内,,28,204,6620854,,,,,,,2025-10-06,1,,,,,エナジーアウト,0
2040,6140005027655,新規,0,2025-10-06,2025-10-06,特定非営利活動法人ＲｅｖｅｒＶ,,その他の設立登記法人,兵庫県,西宮市,浜松原町１番１４プライムメイツ西宮浜松原６０６号,,28,204,6620923,,,,,,,2025-10-06,1,,,,,リバーヴ,0
2041,6150001028409,新規,0,2025-10-06,2025-10-06,株式会社ＶＥＬＡＲＥ,,株式会社,奈良県,香芝市,逢坂８丁目２２２,,29,210,6390251,,,,,,,2025-10-06,1,,,,,ヴェラーレ,0
2049,6180001168846,新規,0,2025-10-06,2025-10-06,株式会社真和工業,,株式会社,愛知県,名古屋市守山区,西城２丁目１０番８号－２,,23,113,4630084,,,,,,,2025-10-06,1,,,,,シンワコウギョウ,0
2054,6180003029170,新規,0,2025-10-06,2025-10-06,合同会社Ｌｉｎｋ．ｆ,,合同会社,愛知県,名古屋市熱田区,旗屋２丁目１３番３号,,23,109,4560027,,,,,,,2025-10-06,1,,,,,リンクドットエフ,0
2068,6240001065590,新規,0,2025-10-06,2025-10-06,ヨシケン株式会社,,株式会社,広島県,福山市,神辺町大字川南４７９番地６,,34,207,7202124,,,,,,,2025-10-06,1,,,,,ヨシケン,0
2069,6240001065608,新規,0,2025-10-06,2025-10-06,株式会社龍浄,,株式会社,広島県,東広島市,安芸津町木谷４２６４番地５,,34,212,7392401,,,,,,,2025-10-06,1,,,,,リュウジョウ,0
2074,6260001040600,新規,0,2025-10-06,2025-10-06,Ａｎｍｙ株式会社,,株式会社,岡山県,岡山市南区,東畦２３１番地２３,,33,104,7010211,,,,,,,2025-10-06,1,,,,,アンミー,0
2084,6290001111555,新規,0,2025-10-06,2025-10-06,株式会社ハピネスライフ,,株式会社,福岡県,福岡市博多区,博多駅前２丁目１９番１７号トーカン博多第５ビル３１２号室,,40,132,8120011,,,,,,,2025-10-06,1,,,,,ハピネスライフ,0
2085,6290001111571,新規,0,2025-10-06,2025-10-06,株式会社エグゼクティブアソシエイツ,,株式会社,福岡県,福岡市中央区,天神２丁目３番１０号天神パインクレスト７１９号,,40,133,8100001,,,,,,,2025-10-06,1,,,,,エグゼクティブアソシエイツ,0
2086,6290001111588,新規,0,2025-10-06,2025-10-06,株式会社Ｌｉｍｉｔｒａ　ｉｎｎｏｖａｔｉｏｎＳ,,株式会社,福岡県,福岡市博多区,住吉２丁目３番７－１２１０号,,40,132,8120018,,,,,,,2025-10-06,1,,,,,リミトライノベーションズ,0
2088,6290003017544,新規,0,2025-10-06,2025-10-06,合同会社Ｐａｌｉｏ,,合同会社,福岡県,福岡市博多区,住吉３丁目８番１７－８０３号,,40,132,8120018,,,,,,,2025-10-06,1,,,,,パリオ,0
2089,6290003017552,新規,0,2025-10-06,2025-10-06,合同会社つなぐ物流,,合同会社,福岡県,宗像市,田久３丁目１７番１１－１０２号,,40,220,8114175,,,,,,,2025-10-06,1,,,,,ツナグブツリュウ,0
2093,6300001014368,新規,0,2025-10-06,2025-10-06,Ｂ‐ＳＴグループ株式会社,,株式会社,佐賀県,伊万里市,大坪町乙５４２番地５,,41,205,8480022,,,,,,,2025-10-06,1,,,,,ビーエスティーグループ,0
2094,6300001014376,新規,0,2025-10-06,2025-10-06,九州行健テック株式会社,,株式会社,佐賀県,伊万里市,立花町大尾１８９１番地４７－１０１室,,41,205,8480027,,,,,,,2025-10-06,1,,,,,キュウシュウギョウケンテック,0
2099,6310001019812,新規,0,2025-10-06,2025-10-06,株式会社いしひら電工堂,,株式会社,長崎県,大村市,鬼橋町１３０４番地２５,,42,205,8560021,,,,,,,2025-10-06,1,,,,,イシヒラデンコウドウ,0
2100,6320001021370,新規,0,2025-10-06,2025-10-06,曽宮設計株式会社,,株式会社,大分県,佐伯市,城東町３番３４号,,44,205,8760846,,,,,,,2025-10-06,1,,,,,ソミヤセッケイ,0
2105,6330001033646,新規,0,2025-10-06,2025-10-06,株式会社ＳＫコネクト,,株式会社,熊本県,上益城郡益城町,大字馬水４５５番地４,,43,443,8612232,,,,,,,2025-10-06,1,,,,,エスケイコネクト,0
2109,6340001027705,新規,0,2025-10-06,2025-10-06,株式会社ｂａｍｂｉｎｉ,,株式会社,鹿児島県,鹿児島市,甲突町４番３号さくらヒルズ甲突１１０１,,46,201,8920837,,,,,,,2025-10-06,1,,,,,バンビーニ,0
2113,6350001019742,新規,0,2025-10-06,2025-10-06,ＨＯＳＳＥＩＮ　ＴＲＡＤＩＮＧ株式会社,,株式会社,宮崎県,都城市,北原町２３街区１３号,,45,202,8850024,,,,,,,2025-10-06,1,,,,,ホセイントレーディング,0
2123,6360001035846,新規,0,2025-10-06,2025-10-06,株式会社ｉｅｙａｓｕ,,株式会社,沖縄県,中頭郡北谷町,北谷２丁目１４番地３－３０５,,47,326,9040116,,,,,,,2025-10-06,1,,,,,イエヤス,0
2124,6360001035870,新規,0,2025-10-06,2025-10-06,株式会社アセットプラス,,株式会社,沖縄県,中頭郡中城村,字南上原９５５番地６,,47,328,9012424,,,,,,,2025-10-06,1,,,,,アセットプラス,0
2128,6360005007296,新規,0,2025-10-06,2025-10-06,一般社団法人ＯＴＭモビリティ基金,,その他の設立登記法人,沖縄県,浦添市,勢理客４丁目１８番１号,,47,208,9012122,,,,,,,2025-10-06,1,,,,,オーティエムモビリティキキン,0
2130,6370001053112,新規,0,2025-10-06,2025-10-06,株式会社Ｆｉｒｅ　Ｒｅｓｃｕｅ　ＰＲＯ,,株式会社,宮城県,仙台市青葉区,中央２丁目１１－１９仙南ビル４階－Ａ,,04,101,9800021,,,,,,,2025-10-06,1,,,,,ファイアーレスキュープロ,0
2134,6370003007314,新規,0,2025-10-06,2025-10-06,合同会社曲線,,合同会社,宮城県,仙台市青葉区,八幡２丁目３番３０号,,04,101,9800871,,,,,,,2025-10-06,1,,,,,キョクセン,0
2139,6400001017187,新規,0,2025-10-06,2025-10-06,株式会社マルヨ,,株式会社,岩手県,下閉伊郡山田町,船越第６地割５１番地６,,03,482,0281371,,,,,,,2025-10-06,1,,,,,マルヨ,0
2145,6410001014282,新規,0,2025-10-06,2025-10-06,株式会社Ｔ　ＳＥＬＥＣＴ,,株式会社,秋田県,秋田市,南通みその町４番１５号,,05,201,0100012,,,,,,,2025-10-06,1,,,,,ティーセレクト,0
2146,6410003004158,新規,0,2025-10-06,2025-10-06,合同会社ティーエス企画,,合同会社,秋田県,横手市,雄物川町大沢字大沢２９番地,,05,203,0130218,,,,,,,2025-10-06,1,,,,,ティーエスキカク,0
2152,6430001095354,新規,0,2025-10-06,2025-10-06,株式会社幸祥建設,,株式会社,北海道,札幌市白石区,本郷通９丁目北２番２７－３０５号,,01,104,0030025,,,,,,,2025-10-06,1,,,,,コウショウケンセツ,0
2153,6430001095387,新規,0,2025-10-06,2025-10-06,ザイロテクト株式会社,,株式会社,北海道,札幌市東区,北四十八条東１７丁目３番１５号,,01,103,0070848,,,,,,,2025-10-06,1,,,,,ザイロテクト,0
2159,6470001020911,新規,0,2025-10-06,2025-10-06,株式会社ゆめおやつ,,株式会社,香川県,高松市,多肥下町１５３８番地１２,,37,201,7618075,,,,,,,2025-10-06,1,,,,,ユメオヤツ,0
2165,6700150132392,新規,0,2025-10-06,2025-10-06,ＤＩＶＯＯＭ　ＬＡＢ（ＨＯＮＧＫＯＮＧ）ＩＮＴＥＲＮＡＴＩＯＮＡＬ　ＣＯ．，ＬＩＭＩＴＥＤ,,外国会社等,,,,,,,,２／Ｆ，Ｙａｕ　Ｔａｋ　Ｂｕｉｌｄｉｎｇ，１６７　Ｌｏｃｋｈａｒｔ　Ｒｏａｄ，Ｗａｎ　Ｃｈａｉ，ＨＫ,,,,,,2025-10-06,1,,,,,ディヴームラボホンコンインターナショナルカンパニーリミテッド,0
2173,7010001258794,新規,0,2025-10-06,2025-10-06,株式会社ＲＨｐｌｕｓ,,株式会社,東京都,中央区,銀座１丁目１２－４Ｎ＆ＥＢＬＤ．７階,,13,102,1040061,,,,,,,2025-10-06,1,,,,,アールエイチプラス,0
2174,7010001258877,新規,0,2025-10-06,2025-10-06,株式会社石井井上,,株式会社,東京都,文京区,小石川２丁目２番４号,,13,105,1120002,,,,,,,2025-10-06,1,,,,,,0
2175,7010001258968,新規,0,2025-10-06,2025-10-06,株式会社クロポ,,株式会社,東京都,千代田区,神田須田町１丁目７番８号ＶＯＲＴ秋葉原ＩＶ２Ｆ,00140933,13,101,1010041,,,,,,,2025-10-06,1,,,,,クロポ,0
2176,7010001259025,新規,0,2025-10-06,2025-10-06,ＳＯＭＰＯウェルビーイング株式会社,,株式会社,東京都,千代田区,霞が関３丁目７番３号損保ジャパン霞が関ビル,,13,101,1000013,,,,,,,2025-10-06,1,,,,,ソンポウェルビーイング,0
2177,7010001259099,新規,0,2025-10-06,2025-10-06,株式会社ＭＵＳＡＳＨＩ　Ａｐｐｌｉｃａｔｉｏｎ,,株式会社,東京都,千代田区,神田鍛冶町３丁目７番３号花瀧ビル３階,,13,101,1010045,,,,,,,2025-10-06,1,,,,,ムサシアプリケーション,0
2178,7010001259124,新規,0,2025-10-06,2025-10-06,株式会社ＨｉＲＡＫＵエデュケーションズ,,株式会社,東京都,文京区,向丘２丁目３番１０号,,13,105,1130023,,,,,,,2025-10-06,1,,,,,ヒラクエデュケーションズ,0
2180,7010003048855,新規,0,2025-10-06,2025-10-06,合同会社シナジー,,合同会社,東京都,千代田区,神田佐久間町１丁目１６大橋ビル５０３,,13,101,1010025,,,,,,,2025-10-06,1,,,,,シナジー,0
2181,7010003048863,新規,0,2025-10-06,2025-10-06,ＭＡＸＴＡＲ合同会社,,合同会社,東京都,文京区,湯島３丁目２０番地８－３０５号,,13,105,1130034,,,,,,,2025-10-06,1,,,,,マックスター,0
2182,7010003048938,新規,0,2025-10-06,2025-10-06,アーバンベルベット・コレクティブ合同会社,,合同会社,東京都,中央区,銀座１丁目１２番４号Ｎ＆Ｅ・ＢＬＤ．６Ｆ,,13,102,1040061,,,,,,,2025-10-06,1,,,,,,0
2183,7010003048946,新規,0,2025-10-06,2025-10-06,埼玉県折之口バッテリーＪＳＤ２５００４合同会社,,合同会社,東京都,千代田区,飯田橋４丁目５番１６号メトロシティ飯田橋５階,,13,101,1020072,,,,,,,2025-10-06,1,,,,,サイタマケンオリノクチバッテリージェイエスディーニーゴーゼロゼロヨン,0
2184,7010005040744,新規,0,2025-10-06,2025-10-06,一般社団法人学校広報ＷＥＢ・ＳＮＳ研究会,,その他の設立登記法人,東京都,中央区,銀座３丁目１１番１８号眞帆ビル８Ｆ,,13,102,1040061,,,,,,,2025-10-06,1,,,,,ガッコウコウホウウェブエスエヌエスケンキュウカイ,0
2195,7010401193518,新規,0,2025-10-06,2025-10-06,東通デジタル株式会社,,株式会社,東京都,港区,新橋６丁目２０番２号,,13,103,1050004,,,,,,,2025-10-06,1,,,,,トウツウデジタル,0
2196,7010401193575,新規,0,2025-10-06,2025-10-06,株式会社Ｇｅｏ２Ｍ,,株式会社,東京都,港区,芝２丁目２７番８号,,13,103,1050014,,,,,,,2025-10-06,1,,,,,ジオミミ,0
2198,7010403036179,新規,0,2025-10-06,2025-10-06,ＲＴＸ　Ｆｉｎｔｅｃｈ合同会社,,合同会社,東京都,港区,虎ノ門１丁目１０番５号ＫＤＸ虎ノ門一丁目ビル１１階,,13,103,1050001,,,,,,,2025-10-06,1,,,,,アールティーエックスフィンテック,0
2199,7010403036237,新規,0,2025-10-06,2025-10-06,ＣＫＰＳ合同会社,,合同会社,東京都,港区,六本木３丁目１６番１２号六本木ＫＳビル５Ｆ,,13,103,1060032,,,,,,,2025-10-06,1,,,,,シーケーピーズ,0
2200,7010405024834,新規,0,2025-10-06,2025-10-06,幸浦ディーシー２一般社団法人,,その他の設立登記法人,東京都,港区,六本木１丁目６番１号泉ガーデンタワー,,13,103,1060032,,,,,,,2025-10-06,1,,,,,サチウラディーシーツー,0
2202,7010503008012,新規,0,2025-10-06,2025-10-06,合同会社Ｋａｌｅｉｄｏ,,合同会社,東京都,台東区,上野６丁目１番１７号中央ビル２０６号,,13,106,1100005,,,,,,,2025-10-06,1,,,,,カレイド,0
2203,7010603011832,新規,0,2025-10-06,2025-10-06,合同会社吉祥不動産,,合同会社,東京都,江東区,大島２丁目７番８－９０１号,,13,108,1360072,,,,,,,2025-10-06,1,,,,,キッショウフドウサン,0
2204,7010701048396,新規,0,2025-10-06,2025-10-06,ルートインホールディングス株式会社,,株式会社,東京都,品川区,大井１丁目３５番３号,,13,109,1400014,,,,,,,2025-10-06,1,,,,,ルートインホールディングス,0
2205,7010705003810,新規,0,2025-10-06,2025-10-06,一般社団法人ＭＫでんきグループ,,その他の設立登記法人,東京都,品川区,旗の台４丁目６番２８号,,13,109,1420064,,,,,,,2025-10-06,1,,,,,エムケイデンキグループ,0
2206,7010801036656,新規,0,2025-10-06,2025-10-06,株式会社正栄産業,,株式会社,東京都,大田区,東矢口１丁目３番１７号,,13,111,1460094,,,,,,,2025-10-06,1,,,,,ショウエイサンギョウ,0
2207,7010901058179,新規,0,2025-10-06,2025-10-06,Ｔｒｉｄｅｎｔ　Ｔｒａｄｉｎｇ株式会社,,株式会社,東京都,世田谷区,宇奈根２丁目２２番１３号エビサワハイツ１０２,,13,112,1570068,,,,,,,2025-10-06,1,,,,,トライデントトレーディング,0
2214,7011001172333,新規,0,2025-10-06,2025-10-06,株式会社フォーシスアンドカンパニー,,株式会社,東京都,渋谷区,桜丘町３番２号,,13,113,1500031,,,,,,,2025-10-06,1,,,,,フォーシスアンドカンパニー,0
2215,7011001172424,新規,0,2025-10-06,2025-10-06,株式会社ＬｉＡ,,株式会社,東京都,渋谷区,恵比寿西２丁目４番５号ウィンド恵比寿ビル８Ｆ,,13,113,1500021,,,,,,,2025-10-06,1,,,,,リア,0
2216,7011001172481,新規,0,2025-10-06,2025-10-06,株式会社須隆,,株式会社,東京都,渋谷区,神南１丁目１１番４号ＦＰＧリンクス神南５階,,13,113,1500041,,,,,,,2025-10-06,1,,,,,スリュウ,0
2217,7011001172597,新規,0,2025-10-06,2025-10-06,株式会社Ｌｏｃｈ,,株式会社,東京都,渋谷区,恵比寿西２丁目４番８号,,13,113,1500021,,,,,,,2025-10-06,1,,,,,ロッホ,0
2219,7011003022503,新規,0,2025-10-06,2025-10-06,合同会社ｌｕｍｅｒ,,合同会社,東京都,渋谷区,宇田川町３３番８号エミリアビル２階,,13,113,1500042,,,,,,,2025-10-06,1,,,,,ルメル,0
2220,7011101113245,新規,0,2025-10-06,2025-10-06,株式会社ＮＩＭＵ,,株式会社,東京都,新宿区,四谷３丁目１３番地ＳＥＡＢＩＲＤビル２階,,13,104,1600004,,,,,,,2025-10-06,1,,,,,ニム,0
2221,7011101113393,新規,0,2025-10-06,2025-10-06,石偉株式会社,,株式会社,東京都,新宿区,新宿７丁目２６－７ビクセル新宿５１３,,13,104,1600022,,,,,,,2025-10-06,1,,,,,セキイ,0
2223,7011201026669,新規,0,2025-10-06,2025-10-06,株式会社ＫＭＧサポート,,株式会社,東京都,中野区,中野３丁目２７番地７号メゾンヴェール１０２,,13,114,1640001,,,,,,,2025-10-06,1,,,,,ケイエムジーサポート,0
2224,7011203004838,新規,0,2025-10-06,2025-10-06,ＨＯＹＡアイケアリテイリング合同会社,,合同会社,東京都,中野区,中野４丁目１０番２号,,13,114,1640001,,,,,,,2025-10-06,1,,,,,ホーヤアイケアリテイリング,0
2226,7011601029057,新規,0,2025-10-06,2025-10-06,株式会社ｐｅａｃｅｆｕｌ,,株式会社,東京都,練馬区,小竹町１丁目３９－２－１０３,,13,120,1760004,,,,,,,2025-10-06,1,,,,,ピースフル,0
2228,7011603004867,新規,0,2025-10-06,2025-10-06,大洲合同会社,,合同会社,東京都,練馬区,春日町６丁目１６番１１号フォーチュン光が丘２５３号室,,13,120,1790074,,,,,,,2025-10-06,1,,,,,オオス,0
2231,7012401043644,新規,0,2025-10-06,2025-10-06,株式会社Ｃ＆Ｃ,,株式会社,東京都,多摩市,永山１丁目１番地５メゾン永山１Ｆ,,13,224,2060025,,,,,,,2025-10-06,1,,,,,,0
2232,7012403007366,新規,0,2025-10-06,2025-10-06,Ａ＆Ｃ合同会社,,合同会社,東京都,小金井市,東町１丁目２８番９号,,13,210,1840011,,,,,,,2025-10-06,1,,,,,エーアンドシー,0
2235,7013101009811,新規,0,2025-10-06,2025-10-06,株式会社カイハダジャパン,,株式会社,東京都,羽村市,小作台５丁目６－１３シモーヌ２０１,,13,227,2050001,,,,,,,2025-10-06,1,,,,,カイハダジャパン,0
2253,7020001165032,新規,0,2025-10-06,2025-10-06,株式会社斉寅,,株式会社,神奈川県,横浜市磯子区,磯子２丁目２９番１０－３０２号,,14,107,2350016,,,,,,,2025-10-06,1,,,,,サイトラ,0
2254,7020001165049,新規,0,2025-10-06,2025-10-06,株式会社スターユアハート,,株式会社,神奈川県,横浜市青葉区,青葉台２丁目３４番地９青葉台コートテラス５１１号,,14,117,2270062,,,,,,,2025-10-06,1,,,,,スターユアハート,0
2255,7020001165107,新規,0,2025-10-06,2025-10-06,株式会社ＹＬ商品研究所,,株式会社,神奈川県,横浜市西区,浅間町１丁目９－２０ＴＨＥ・ＢＴ・ＢＬＤＧ３０２,,14,103,2200072,,,,,,,2025-10-06,1,,,,,ワイエルショウヒンケンキュウジョ,0
2256,7020001165123,新規,0,2025-10-06,2025-10-06,株式会社ｃｈａｉｒＢ,,株式会社,神奈川県,横浜市旭区,万騎が原１０４番地１２ボヌールド・ウエマ１Ｆ,,14,112,2410836,,,,,,,2025-10-06,1,,,,,チェアービー,0
2257,7020001165214,新規,0,2025-10-06,2025-10-06,株式会社ＫＡＮＴＯキャリアサポート,,株式会社,神奈川県,横浜市西区,南軽井沢６２番地１,,14,103,2200002,,,,,,,2025-10-06,1,,,,,カントウキャリアサポート,0
2269,7020003029516,新規,0,2025-10-06,2025-10-06,合同会社Ｃｏｃｏ,,合同会社,神奈川県,横浜市神奈川区,白楽１５番地２２,,14,102,2210065,,,,,,,2025-10-06,1,,,,,ココ,0
2270,7020003029532,新規,0,2025-10-06,2025-10-06,合同会社境界線,,合同会社,神奈川県,横浜市青葉区,美しが丘５丁目３４番地２レ・ジェイド美しが丘１０１,,14,117,2250002,,,,,,,2025-10-06,1,,,,,キョウカイセン,0
2271,7020003029549,新規,0,2025-10-06,2025-10-06,合同会社ラッキー,,合同会社,神奈川県,川崎市川崎区,砂子２丁目９番地２日吉ビル３階,,14,131,2100006,,,,,,,2025-10-06,1,,,,,ラッキー,0
2272,7020005016999,新規,0,2025-10-06,2025-10-06,一般社団法人留日博士総会,,その他の設立登記法人,神奈川県,川崎市多摩区,宿河原２丁目３１番４１－２号,,14,135,2140021,,,,,,,2025-10-06,1,,,,,リュウニチハカセソウカイ,0
2273,7021001086400,新規,0,2025-10-06,2025-10-06,株式会社クレスト,,株式会社,神奈川県,相模原市中央区,上矢部１丁目１２番２２－２０１号,,14,152,2520201,,,,,,,2025-10-06,1,,,,,クレスト,0
2274,7021001086409,新規,0,2025-10-06,2025-10-06,株式会社若月工業,,株式会社,神奈川県,綾瀬市,深谷南４丁目２番３２号,,14,218,2521106,,,,,,,2025-10-06,1,,,,,ワカツキコウギョウ,0
2275,7021001086441,新規,0,2025-10-06,2025-10-06,株式会社ＢｏｎＢｏｎｏ,,株式会社,神奈川県,藤沢市,辻堂神台２丁目２番１号アイクロス湘南２階,,14,205,2510041,,,,,,,2025-10-06,1,,,,,ボンボノ,0
2276,7021001086490,新規,0,2025-10-06,2025-10-06,株式会社鴻成設備,,株式会社,神奈川県,大和市,上草柳７丁目１０番３－４号,,14,213,2420029,,,,,,,2025-10-06,1,,,,,コウセイセツビ,0
2278,7021003016628,新規,0,2025-10-06,2025-10-06,柳田合同会社,,合同会社,神奈川県,厚木市,戸田２３４１番地４テラスベルウッド１０１,,14,212,2430023,,,,,,,2025-10-06,1,,,,,ヤナギタ,0
2283,7030001168959,新規,0,2025-10-06,2025-10-06,株式会社ヘテロスタックス,,株式会社,埼玉県,飯能市,美杉台２丁目１９番地１３,,11,209,3570041,,,,,,,2025-10-06,1,,,,,ヘテロスタックス,0
2284,7030001168975,新規,0,2025-10-06,2025-10-06,ビルドエステート株式会社,,株式会社,埼玉県,吉川市,大字高富７９３番地３,,11,243,3420036,,,,,,,2025-10-06,1,,,,,ビルドエステート,0
2285,7030001168983,新規,0,2025-10-06,2025-10-06,株式会社好宮,,株式会社,埼玉県,さいたま市大宮区,高鼻町１丁目４３８番地３,,11,103,3300803,,,,,,,2025-10-06,1,,,,,ヨシミヤ,0
2286,7030001168991,新規,0,2025-10-06,2025-10-06,株式会社ａｃａ,,株式会社,埼玉県,所沢市,宮本町２丁目２２番３２号,,11,208,3591143,,,,,,,2025-10-06,1,,,,,エーシーエー,0
2287,7030001169008,新規,0,2025-10-06,2025-10-06,株式会社ＥＮＤＯホールディングス,,株式会社,埼玉県,朝霞市,西原２丁目９番２０号,,11,227,3510034,,,,,,,2025-10-06,1,,,,,エンドウホールディングス,0
2288,7030001169016,新規,0,2025-10-06,2025-10-06,株式会社ＹＤＢＬ,,株式会社,埼玉県,八潮市,大字西袋９７番地,,11,234,3400833,,,,,,,2025-10-06,1,,,,,ワイデイビーエル,0
2289,7030001169024,新規,0,2025-10-06,2025-10-06,株式会社トキタ企画,,株式会社,埼玉県,熊谷市,上之１５５０番地８,,11,202,3600012,,,,,,,2025-10-06,1,,,,,トキタキカク,0
2290,7030001169057,新規,0,2025-10-06,2025-10-06,株式会社戸倉,,株式会社,埼玉県,さいたま市浦和区,領家７丁目１７番１４号コーポＤ棟１０６,,11,107,3300072,,,,,,,2025-10-06,1,,,,,トグラ,0
2297,7030003027774,新規,0,2025-10-06,2025-10-06,ＥＮＪＯＩＮＴ合同会社,,合同会社,埼玉県,鶴ヶ島市,大字上広谷６０番地２ヒルトップガーデンＩＩ３０６号,00140942,11,241,3502203,,,,,,,2025-10-06,1,,,,,エンジョイト,0
2298,7030003027790,新規,0,2025-10-06,2025-10-06,ＪＢソシア合同会社,,合同会社,埼玉県,川越市,旭町１丁目２５番地２６,,11,201,3501126,,,,,,,2025-10-06,1,,,,,ジョイントビジネスソシア,0
2299,7030003027824,新規,0,2025-10-06,2025-10-06,合同会社ｎａｔｕｒａｌ　ｌｉｆｅ,,合同会社,埼玉県,所沢市,林３丁目５６７番地の１,,11,208,3591167,,,,,,,2025-10-06,1,,,,,ナチュラルライフ,0
2303,7040001140751,新規,0,2025-10-06,2025-10-06,株式会社大功,,株式会社,千葉県,市川市,北方町４丁目１９３０番地１（市川東レジデンス８０７号）,,12,203,2720811,,,,,,,2025-10-06,1,,,,,タイコウ,0
2307,7040003028656,新規,0,2025-10-06,2025-10-06,合同会社ｆａｂｅｒ,,合同会社,千葉県,柏市,高南台２丁目１３番地３,,12,217,2770942,,,,,,,2025-10-06,1,,,,,ファベル,0
2310,7050003009639,新規,0,2025-10-06,2025-10-06,合同会社スライド,,合同会社,茨城県,つくば市,二の宮３丁目２１番地２５,,08,220,3050051,,,,,,,2025-10-06,1,,,,,スライド,0
2311,7050003009655,新規,0,2025-10-06,2025-10-06,合同会社Ｓ．Ｃ．ＩＮＴＥＲＮＡＴＩＯＮＡＬ,,合同会社,茨城県,鉾田市,汲上１３２番地１,,08,234,3112103,,,,,,,2025-10-06,1,,,,,エスシーインターナショナル,0
2315,7060001038639,新規,0,2025-10-06,2025-10-06,道眞建設株式会社,,株式会社,栃木県,宇都宮市,下岡本町１９４５番地１,,09,201,3291104,,,,,,,2025-10-06,1,,,,,ドウシンケンセツ,0
2319,7080001027177,新規,0,2025-10-06,2025-10-06,ライフブリッジ株式会社,,株式会社,静岡県,静岡市葵区,流通センター６番２号,,22,101,4200922,,,,,,,2025-10-06,1,,,,,ライフブリッジ,0
2320,7080001027193,新規,0,2025-10-06,2025-10-06,株式会社エスケーフロンティア,,株式会社,静岡県,静岡市駿河区,中田３丁目４番３８号,,22,102,4228041,,,,,,,2025-10-06,1,,,,,エスケーフロンティア,0
2323,7080101025824,新規,0,2025-10-06,2025-10-06,株式会社サノツウ,,株式会社,静岡県,富士市,五貫島１７７番地の６,,22,210,4160946,,,,,,,2025-10-06,1,,,,,サノツウ,0
2326,7080401028196,新規,0,2025-10-06,2025-10-06,株式会社ルピナス,,株式会社,静岡県,浜松市中央区,三方原町２１４２番地の５,,22,138,4338105,,,,,,,2025-10-06,1,,,,,ルピナス,0
2328,7090001019545,新規,0,2025-10-06,2025-10-06,株式会社八農舎,,株式会社,山梨県,北杜市,高根町清里３５４５番地１２８８ヴィラージュ八ヶ岳２４２,,19,209,4070301,,,,,,,2025-10-06,1,,,,,ヤツノウシャ,0
2333,7100003008412,新規,0,2025-10-06,2025-10-06,Ｐｏｗｄｅｒ　Ｊｕｎｇｌｅ合同会社,,合同会社,長野県,北安曇郡白馬村,大字北城１４７１８番地２３５,,20,485,3999301,,,,,,,2025-10-06,1,,,,,パウダージャングル,0
2338,7110001039598,新規,0,2025-10-06,2025-10-06,株式会社コトニワ,,株式会社,新潟県,見附市,杉澤町３９７４番地,,15,211,9540022,,,,,,,2025-10-06,1,,,,,コトニワ,0
2339,7110003005912,新規,0,2025-10-06,2025-10-06,合同会社小柳地所,,合同会社,新潟県,村上市,羽黒町３番１０号,,15,212,9580851,,,,,,,2025-10-06,1,,,,,オヤナギジショ,0
2350,7120001280028,新規,0,2025-10-06,2025-10-06,福多株式会社,,株式会社,大阪府,大阪市東淀川区,南江口３丁目１３番８号,,27,114,5330003,,,,,,,2025-10-06,1,,,,,フクダ,0
2351,7120001280259,新規,0,2025-10-06,2025-10-06,善品楽土株式会社,,株式会社,大阪府,大阪市西区,本田４丁目９－２３プレステア九条９１０号,,27,106,5500022,,,,,,,2025-10-06,1,,,,,ゼンピンラクド,0
2352,7120001280267,新規,0,2025-10-06,2025-10-06,株式会社和創,,株式会社,大阪府,大阪市北区,黒崎町３－２６－３Ｃ,,27,127,5300023,,,,,,,2025-10-06,1,,,,,ワショウ,0
2353,7120001280275,新規,0,2025-10-06,2025-10-06,ＪＬＣＥＣ株式会社,,株式会社,大阪府,大阪市生野区,新今里５丁目７番６号新今里サクセスビル４０２号室,,27,116,5440001,,,,,,,2025-10-06,1,,,,,ジェエルシーイーシー,0
2354,7120001280300,新規,0,2025-10-06,2025-10-06,普瑪斯株式会社,,株式会社,大阪府,大阪市住之江区,安立２丁目１０番１４号三坂ビル２０３号室,,27,125,5590003,,,,,,,2025-10-06,1,,,,,フバシ,0
2355,7120001280374,新規,0,2025-10-06,2025-10-06,ＳＳＫＹ株式会社,,株式会社,大阪府,大阪市中央区,船場中央２丁目３番６号船場センタービル６号館Ｂ５５９号室,,27,128,5410055,,,,,,,2025-10-06,1,,,,,エスエスケイワイ,0
2356,7120001280382,新規,0,2025-10-06,2025-10-06,株式会社シルクワイエフ,,株式会社,大阪府,守口市,南寺方東通４丁目１３番５号,,27,209,5700043,,,,,,,2025-10-06,1,,,,,シルクワイエフ,0
2357,7120001280390,新規,0,2025-10-06,2025-10-06,株式会社アステック,,株式会社,大阪府,大阪市大正区,南恩加島１丁目７番７号,,27,108,5510021,,,,,,,2025-10-06,1,,,,,アステック,0
2358,7120001280440,新規,0,2025-10-06,2025-10-06,株式会社海,,株式会社,大阪府,大阪市西成区,太子２丁目４番１４－４０２号,,27,122,5570002,,,,,,,2025-10-06,1,,,,,ウミ,0
2359,7120001280457,新規,0,2025-10-06,2025-10-06,ＳＸ株式会社,,株式会社,大阪府,大阪市西成区,岸里２丁目２番４号カトレアハイツ４０２号,,27,122,5570041,,,,,,,2025-10-06,1,,,,,エスエックス,0
2360,7120001280473,新規,0,2025-10-06,2025-10-06,Ｓｔａｒｏｃｅａｎ株式会社,,株式会社,大阪府,大阪市西成区,長橋１丁目３番１５号ＮＥＯＳＰＡＣＥ長橋３０３,,27,122,5570025,,,,,,,2025-10-06,1,,,,,スターオーシャン,0
2361,7120001280597,新規,0,2025-10-06,2025-10-06,匠千株式会社,,株式会社,大阪府,大阪市東成区,大今里３丁目１５番６号ＩｍａｚａｔｏＴｏｗｅｒ５０９Ｂ,,27,115,5370012,,,,,,,2025-10-06,1,,,,,ショウセン,0
2362,7120001280606,新規,0,2025-10-06,2025-10-06,中帥株式会社,,株式会社,大阪府,大阪市東成区,大今里３丁目１５番６号ＩｍａｚａｔｏＴｏｗｅｒ５０９Ａ,,27,115,5370012,,,,,,,2025-10-06,1,,,,,チュウスイ,0
2363,7120001280614,新規,0,2025-10-06,2025-10-06,溪牛株式会社,,株式会社,大阪府,大阪市都島区,中野町４丁目３番６号Ｈ２Ｈ大阪桜之宮邸２Ｄ－２,,27,102,5340027,,,,,,,2025-10-06,1,,,,,ケイギュウ,0
2364,7120001280655,新規,0,2025-10-06,2025-10-06,株式会社カーネクト,,株式会社,大阪府,大阪市平野区,加美東５丁目１番３９号５０１,,27,126,5470002,,,,,,,2025-10-06,1,,,,,カーネクト,0
2365,7120001280746,新規,0,2025-10-06,2025-10-06,ＥＭ＆Ｃホールディングス株式会社,,株式会社,大阪府,大阪市中央区,谷町３丁目４番９号,,27,128,5400012,,,,,,,2025-10-06,1,,,,,イーエムアンドシーホールディングス,0
2370,7120003030777,新規,0,2025-10-06,2025-10-06,戴興堂合同会社,,合同会社,大阪府,大阪市東住吉区,湯里６丁目１３－７、５０３号室,,27,121,5460013,,,,,,,2025-10-06,1,,,,,ダイキョウドウ,0
2371,7120003030793,新規,0,2025-10-06,2025-10-06,ＴＨＥ　ＨＩＧＨ合同会社,,合同会社,大阪府,大阪市西区,北堀江３丁目１０番１７－３０９号,,27,106,5500014,,,,,,,2025-10-06,1,,,,,ザハイ,0
2372,7120003030810,新規,0,2025-10-06,2025-10-06,合同会社ハナマルムーア,,合同会社,大阪府,大阪市住之江区,緑木１丁目１－３５植田マンション１階,,27,125,5590022,,,,,,,2025-10-06,1,,,,,ハナマルムーア,0
2373,7120003030819,新規,0,2025-10-06,2025-10-06,ＤＩＡＮＡ合同会社,,合同会社,大阪府,大阪市生野区,巽北１丁目２０番２号下野マンション１０３,,27,116,5440004,,,,,,,2025-10-06,1,,,,,ディアナ,0
2374,7120003030835,新規,0,2025-10-06,2025-10-06,合同会社ＳＨＩＮ,,合同会社,大阪府,大阪市東成区,東今里３丁目４番５号１０２号室,,27,115,5370011,,,,,,,2025-10-06,1,,,,,シン,0
2376,7120005025189,新規,0,2025-10-06,2025-10-06,一般社団法人まもりびと,,その他の設立登記法人,大阪府,大阪市住吉区,苅田２丁目１５番２２－４０３号,,27,120,5580011,,,,,,,2025-10-06,1,,,,,マモリビト,0
2378,7120901051560,新規,0,2025-10-06,2025-10-06,株式会社ＴＳＣ,,株式会社,大阪府,吹田市,藤が丘町２６番１１号,,27,205,5640081,,,,,,,2025-10-06,1,,,,,ティーエスシー,0
2379,7120901051569,新規,0,2025-10-06,2025-10-06,株式会社もちまわり,,株式会社,大阪府,高槻市,竹の内町５番２号,,27,207,5690043,,,,,,,2025-10-06,1,,,,,モチマワリ,0
2380,7120901051577,新規,0,2025-10-06,2025-10-06,株式会社オベックマイル,,株式会社,大阪府,茨木市,玉瀬町１２番８号,,27,211,5670893,,,,,,,2025-10-06,1,,,,,オベックマイル,0
2383,7120903005886,新規,0,2025-10-06,2025-10-06,合同会社ｆａｒｍｅｒｙ,,合同会社,大阪府,茨木市,新中条町８番１９－１０６号,,27,211,5670872,,,,,,,2025-10-06,1,,,,,ファーメリー,0
2386,7122001039775,新規,0,2025-10-06,2025-10-06,株式会社ＯＢＡＬ,,株式会社,大阪府,東大阪市,永和１丁目５番７号,,27,227,5770809,,,,,,,2025-10-06,1,,,,,オーバル,0
2389,7130001080674,新規,0,2025-10-06,2025-10-06,株式会社アイズ,,株式会社,京都府,京都市右京区,太秦北路町３番地,,26,108,6168182,,,,,,,2025-10-06,1,,,,,アイズ,0
2390,7130001080708,新規,0,2025-10-06,2025-10-06,株式会社ＲＳ,,株式会社,京都府,宇治市,大久保町山ノ内１６番地１,,26,204,6110033,,,,,,,2025-10-06,1,,,,,アールエス,0
2391,7130001080716,新規,0,2025-10-06,2025-10-06,株式会社アヴェイル,,株式会社,京都府,京都市中京区,烏丸通錦小路上る手洗水町６５９烏丸中央ビル９Ｆ,,26,104,6048152,,,,,,,2025-10-06,1,,,,,アヴェイル,0
2401,7140001140205,新規,0,2025-10-06,2025-10-06,藍海株式会社,,株式会社,兵庫県,神戸市中央区,元町通６丁目１番８号,,28,110,6500022,,,,,,,2025-10-06,1,,,,,ランカイ,0
2402,7140001140254,新規,0,2025-10-06,2025-10-06,株式会社弥栄,,株式会社,兵庫県,川西市,平野１丁目２７番６号,,28,217,6660121,,,,,,,2025-10-06,1,,,,,イヤサカ,0
2405,7150003003714,新規,0,2025-10-06,2025-10-06,Ｍｙ　Ｆｏｒｗｏｒｄ合同会社,,合同会社,奈良県,奈良市,小西町２５番地の１ファインフラッツ奈良ザ・レジデンス１１２号,,29,201,6308226,,,,,,,2025-10-06,1,,,,,マイフォワード,0
2406,7160003003622,新規,0,2025-10-06,2025-10-06,織葉合同会社,,合同会社,滋賀県,長浜市,湖北町伊部２５番地,,25,203,5290313,,,,,,,2025-10-06,1,,,,,オリハ,0
2407,7170003002318,新規,0,2025-10-06,2025-10-06,合同会社アストラ,,合同会社,和歌山県,和歌山市,木ノ本７０７番地１,,30,201,6408453,,,,,,,2025-10-06,1,,,,,アストラ,0
2415,7180001168853,新規,0,2025-10-06,2025-10-06,株式会社窩家,,株式会社,愛知県,名古屋市東区,東桜２丁目３番７号東カン名古屋キャステール４２１号室,,23,102,4610005,,,,,,,2025-10-06,1,,,,,ワカ,0
2416,7180001168928,新規,0,2025-10-06,2025-10-06,株式会社エスライズ,,株式会社,愛知県,名古屋市瑞穂区,白羽根町２丁目６３番地,,23,108,4670014,,,,,,,2025-10-06,1,,,,,エスライズ,0
2417,7180001168944,新規,0,2025-10-06,2025-10-06,株式会社Ｘｉａｎｇ,,株式会社,愛知県,名古屋市中村区,名駅５丁目２４番８号,,23,105,4500002,,,,,,,2025-10-06,1,,,,,シャン,0
2418,7180001168969,新規,0,2025-10-06,2025-10-06,株式会社Ｐｒｉｍｅ,,株式会社,愛知県,小牧市,大字三ツ渕１６３２番地１アイシンビル３階,,23,219,4850075,,,,,,,2025-10-06,1,,,,,プライム,0
2421,7180005021265,新規,0,2025-10-06,2025-10-06,一般社団法人日中卓球友好協会,,その他の設立登記法人,愛知県,名古屋市中区,大井町６番１１号,,23,106,4600015,,,,,,,2025-10-06,1,,,,,ニッチュウタッキュウユウコウキョウカイ,0
2422,7180301040266,新規,0,2025-10-06,2025-10-06,明石エネライフ株式会社,,株式会社,愛知県,豊川市,宿町野川１番地１０,,23,207,4410101,,,,,,,2025-10-06,1,,,,,アカシエネライフ,0
2424,7180305009737,新規,0,2025-10-06,2025-10-06,ＯＫ税理士法人,,その他の設立登記法人,愛知県,岡崎市,材木町２丁目１６番地,,23,202,4440057,,,,,,,2025-10-06,1,,,,,オーケー,0
2426,7190001032579,新規,0,2025-10-06,2025-10-06,株式会社ｂｏｔｔｌｅ,,株式会社,三重県,松阪市,嬉野中川新町２丁目４３番地,,24,204,5152325,,,,,,,2025-10-06,1,,,,,ボトル,0
2428,7200001044300,新規,0,2025-10-06,2025-10-06,株式会社ルリアン,,株式会社,岐阜県,可児市,鳩吹台８丁目２８番地,,21,214,5090264,,,,,,,2025-10-06,1,,,,,ルリアン,0
2436,7230001021115,新規,0,2025-10-06,2025-10-06,ＳＨＥＲＲＹ　ＴＲＡＤＩＮＧ株式会社,,株式会社,富山県,富山市,北代２３５番地４８,,16,201,9300103,,,,,,,2025-10-06,1,,,,,シェリートレーディング,0
2441,7250001021369,新規,0,2025-10-06,2025-10-06,株式会社ＹＳホールディングス,,株式会社,山口県,防府市,大字植松１８７３番地４,,35,206,7470836,,,,,,,2025-10-06,1,,,,,,0
2442,7250001021377,新規,0,2025-10-06,2025-10-06,株式会社Ｗｅｌｉｎａ,,株式会社,山口県,下関市,綾羅木新町２丁目７番１７号,,35,201,7510865,,,,,,,2025-10-06,1,,,,,ウェリナ,0
2444,7260001040599,新規,0,2025-10-06,2025-10-06,株式会社オートショップイシイ,,株式会社,岡山県,加賀郡吉備中央町,上竹１２６３番地１,,33,681,7161131,,,,,,,2025-10-06,1,,,,,オートショップイシイ,0
2445,7260001040624,新規,0,2025-10-06,2025-10-06,株式会社Ｍ．Ｅ．Ｉ,,株式会社,岡山県,津山市,瓜生原７０９番地１津山中核工業団地,,33,203,7080844,,,,,,,2025-10-06,1,,,,,エムイーアイ,0
2455,7290001111538,新規,0,2025-10-06,2025-10-06,株式会社Ｌｕｍｉｎｏｕｓ　Ｌｉｆｅ　Ｓｕｐｐｏｒｔ,,株式会社,福岡県,飯塚市,鯰田１３５６番地５,,40,205,8200001,,,,,,,2025-10-06,1,,,,,ルミナスライフサポート,0
2456,7290001111694,新規,0,2025-10-06,2025-10-06,ネオリンクス株式会社,,株式会社,福岡県,福岡市東区,若宮１丁目８番２１号,,40,131,8130036,,,,,,,2025-10-06,1,,,,,ネオリンクス,0
2457,7290001111736,新規,0,2025-10-06,2025-10-06,株式会社アローズサイン,,株式会社,福岡県,福岡市博多区,博多駅南５丁目１７番４－１３０７号,,40,132,8120016,,,,,,,2025-10-06,1,,,,,アローズサイン,0
2470,7300001014375,新規,0,2025-10-06,2025-10-06,ユミコラボ株式会社,,株式会社,佐賀県,伊万里市,瀬戸町３１３４番地５２５,,41,205,8480043,,,,,,,2025-10-06,1,,,,,ユミコラボ,0
2473,7310005008876,新規,0,2025-10-06,2025-10-06,一般社団法人日本国際歯科教育協会,,その他の設立登記法人,長崎県,長崎市,万屋町１番５号,,42,201,8500852,,,,,,,2025-10-06,1,,,,,ニホンコクサイシカキョウイクキョウカイ,0
2474,7320001021378,新規,0,2025-10-06,2025-10-06,株式会社秀朋商事,,株式会社,大分県,別府市,大字鶴見４００番地７,,44,202,8740840,,,,,,,2025-10-06,1,,,,,シュウホウショウジ,0
2476,7330001033637,新規,0,2025-10-06,2025-10-06,株式会社たなかじゅんじ設備室,,株式会社,熊本県,熊本市中央区,帯山４丁目３７番４号,,43,101,8620924,,,,,,,2025-10-06,1,,,,,タナカジュンジセツビシツ,0
2484,7340001027687,新規,0,2025-10-06,2025-10-06,株式会社ＴＡＧＭＡ,,株式会社,鹿児島県,鹿児島市,東千石町１７－１６フラミンゴアパート２０１,,46,201,8920842,,,,,,,2025-10-06,1,,,,,タグマ,0
2490,7360001035845,新規,0,2025-10-06,2025-10-06,株式会社竹田,,株式会社,沖縄県,浦添市,内間４丁目２２番３０号,,47,208,9012121,,,,,,,2025-10-06,1,,,,,タケダ,0
2494,7360003015300,新規,0,2025-10-06,2025-10-06,合同会社まるとみ,,合同会社,沖縄県,豊見城市,字真玉橋２６８番地－３１１号,,47,212,9010201,,,,,,,2025-10-06,1,,,,,マルトミ,0
2507,7400001017186,新規,0,2025-10-06,2025-10-06,株式会社ＣＳＣ東北ミリングセンター,,株式会社,岩手県,盛岡市,愛宕町３番１７号,,03,201,0200013,,,,,,,2025-10-06,1,,,,,シーエスシートウホクミリングセンター,0
2517,7430001095287,新規,0,2025-10-06,2025-10-06,株式会社ｆａｎ,,株式会社,北海道,札幌市中央区,南八条西４丁目２８８番１－６１０号,,01,101,0640808,,,,,,,2025-10-06,1,,,,,ファン,0
2518,7430001095345,新規,0,2025-10-06,2025-10-06,株式会社ＭＨＫ　ＴＲＡＤＩＮＧ,,株式会社,北海道,石狩市,花畔３７８番地１３,,01,235,0613218,,,,,,,2025-10-06,1,,,,,エムエイチケートレーディング,0
2519,7430003018163,新規,0,2025-10-06,2025-10-06,Ｒｅｎ合同会社,,合同会社,北海道,虻田郡倶知安町,南六条西１丁目７－２,,01,400,0440036,,,,,,,2025-10-06,1,,,,,レン,0
2520,7430005015316,新規,0,2025-10-06,2025-10-06,一般社団法人カルデラックス,,その他の設立登記法人,北海道,余市郡赤井川村,字常盤４４３番地１,,01,409,0460571,,,,,,,2025-10-06,1,,,,,カルデラックス,0
2523,7470001020910,新規,0,2025-10-06,2025-10-06,株式会社Ｃｌｏｗｄｅｒ,,株式会社,香川県,高松市,成合町７９１番地１,,37,201,7618081,,,,,,,2025-10-06,1,,,,,クラウダー,0
2524,7470001020919,新規,0,2025-10-06,2025-10-06,株式会社Ｌｉｅｂｅ,,株式会社,香川県,さぬき市,大川町富田西１１３９－４,,37,206,7610901,,,,,,,2025-10-06,1,,,,,リーベ,0
2525,7480003002328,新規,0,2025-10-06,2025-10-06,合同会社Ｌｉｔ,,合同会社,徳島県,徳島市,栄町１丁目６３番地１,,36,201,7700921,,,,,,,2025-10-06,1,,,,,リット,0
2528,7500001026540,新規,0,2025-10-06,2025-10-06,ＥｉｇｈｔｙＮｉｎｅＢｌｕｅ株式会社,,株式会社,愛媛県,松山市,堀江町甲３５８番地１２,,38,201,7992651,,,,,,,2025-10-06,1,,,,,エイティナインブルー,0
2533,7700150082397,新規,0,2025-10-06,2017-04-13,花貫フルーツほおずき倶楽部,,その他,茨城県,高萩市,大字大能１１００－２,,08,214,3180103,,,,,,,2017-04-13,1,,,,,ハナヌキフルーツホオズキクラブ,0
2534,7700150132391,新規,0,2025-10-06,2025-10-06,ｓｕｚｈｏｕｈａｉｂｅｉｔａｏｍａｏｙｉｙｏｕｘｉａｎｇｏｎｇｓｉ,,外国会社等,,,,,,,,ｓｕｚｈｏｕｇｏｎｇｙｅｙｕａｎｑｕ　ｈｕａｎｆｕｌｕ　６６ｈａｏ　ｘｉｎｘｉｄａｓｈａ４０１－１０ｓｈｉ,,,,,,2025-10-06,1,,,,,スゾウハイベイタオマオイユウゲンコウシ,0
2544,8010001258884,新規,0,2025-10-06,2025-10-06,ＧＣＳタイムズ・ジャパン株式会社,,株式会社,東京都,中央区,銀座３丁目４番１号大倉別館５Ｆ,,13,102,1040061,,,,,,,2025-10-06,1,,,,,ジーシーエスタイムズジャパン,0
2545,8010001258991,新規,0,2025-10-06,2025-10-06,株式会社ＧＲＡＮＤ,,株式会社,東京都,中央区,日本橋浜町３丁目３１番４号、１Ｆ,,13,102,1030007,,,,,,,2025-10-06,1,,,,,グランド,0
2546,8010001259057,新規,0,2025-10-06,2025-10-06,Ｓｔｏｒｙｔｅｌｌｅｒ　ＡＩ株式会社,,株式会社,東京都,中央区,銀座１丁目１２番４号Ｎ＆ＥＢＬＤ．７階,,13,102,1040061,,,,,,,2025-10-06,1,,,,,ストーリーテラーエーアイ,0
2547,8010001259073,新規,0,2025-10-06,2025-10-06,ローデュオ株式会社,,株式会社,東京都,千代田区,飯田橋３丁目１１番２２－５０１号ヤマギビル,,13,101,1020072,,,,,,,2025-10-06,1,,,,,ローデュオ,0
2548,8010001259123,新規,0,2025-10-06,2025-10-06,株式会社リリーベル,,株式会社,東京都,中央区,勝どき１丁目３番１－３００５号,,13,102,1040054,,,,,,,2025-10-06,1,,,,,リリーベル,0
2550,8010003048854,新規,0,2025-10-06,2025-10-06,合同会社スタンズ,,合同会社,東京都,千代田区,神田三崎町３丁目４番２号Ｊ・ＳＱＵＡＲＥ水道橋,,13,101,1010061,,,,,,,2025-10-06,1,,,,,スタンズ,0
2551,8010003048904,新規,0,2025-10-06,2025-10-06,合同会社ＣＳ‐１,,合同会社,東京都,千代田区,霞が関３丁目２番５号,,13,101,1000013,,,,,,,2025-10-06,1,,,,,シーエスワン,0
2559,8010401193293,新規,0,2025-10-06,2025-10-06,Ｌｉｔｔｌｅ　Ｌａｂ　Ｒａｔｓ株式会社,,株式会社,東京都,港区,三田３丁目９番１１号５Ｆ,,13,103,1080073,,,,,,,2025-10-06,1,,,,,リトルラボラッツ,0
2560,8010405024833,新規,0,2025-10-06,2025-10-06,幸浦ディーシー１一般社団法人,,その他の設立登記法人,東京都,港区,六本木１丁目６番１号泉ガーデンタワー,,13,103,1060032,,,,,,,2025-10-06,1,,,,,サチウラディーシーワン,0
2562,8010601068048,新規,0,2025-10-06,2025-10-06,凱誠株式会社,,株式会社,東京都,墨田区,向島４丁目３－８グレイス向島２０１－Ｇ,,13,107,1310033,,,,,,,2025-10-06,1,,,,,ガイセイ,0
2563,8010601068072,新規,0,2025-10-06,2025-10-06,Ｈａｋｕｌｏ株式会社,,株式会社,東京都,江東区,亀戸６丁目５７番１６－５０１号,,13,108,1360071,,,,,,,2025-10-06,1,,,,,ハクロ,0
2564,8010601068080,新規,0,2025-10-06,2025-10-06,株式会社ＮＵＴＳ　ＰＯＫＥＲ,,株式会社,東京都,墨田区,立川１丁目１４番４号国際ビル１階,,13,107,1300023,,,,,,,2025-10-06,1,,,,,ナッツポーカー,0
2569,8010803005567,新規,0,2025-10-06,2025-10-06,合同会社ムックプランニング,,合同会社,東京都,大田区,下丸子４丁目２６番１－３０３号,,13,111,1460092,,,,,,,2025-10-06,1,,,,,ムックプランニング,0
2573,8010901058178,新規,0,2025-10-06,2025-10-06,株式会社石子建築設計事務所,,株式会社,東京都,世田谷区,野毛１丁目５番９号,,13,112,1580092,,,,,,,2025-10-06,1,,,,,イシコケンチクセッケイジムショ,0
2576,8011001172373,新規,0,2025-10-06,2025-10-06,株式会社ＶＩＫＩＮＧＳ,,株式会社,東京都,渋谷区,恵比寿西２丁目４番８号ウィンド恵比寿ビル８Ｆ,,13,113,1500021,,,,,,,2025-10-06,1,,,,,ヴァイキング,0
2577,8011001172836,新規,0,2025-10-06,2025-10-06,ラージウエスト株式会社,,株式会社,東京都,渋谷区,道玄坂１丁目１０番８号渋谷道玄坂東急ビル,,13,113,1500043,,,,,,,2025-10-06,1,,,,,ラージウエスト,0
2580,8011003022493,新規,0,2025-10-06,2025-10-06,合同会社ラリー,,合同会社,東京都,渋谷区,道玄坂１丁目１０番８号渋谷道玄坂東急ビル２Ｆ－Ｃ,,13,113,1500043,,,,,,,2025-10-06,1,,,,,ラリー,0
2581,8011003022510,新規,0,2025-10-06,2025-10-06,合同会社ぜんつなぎ,,合同会社,東京都,目黒区,八雲１丁目４番１４号,,13,110,1520023,,,,,,,2025-10-06,1,,,,,ゼンツナギ,0
2582,8011003022551,新規,0,2025-10-06,2025-10-06,合同会社ＡＴＥＬＩＥＲ１１,,合同会社,東京都,渋谷区,宇田川町１２番３ニュー渋谷コーポラス８０７号室,,13,113,1500042,,,,,,,2025-10-06,1,,,,,アトリエイレブン,0
2591,8011101113079,新規,0,2025-10-06,2025-10-06,Ｓｏｌ　ｅｎｔｅｒｔａｉｎｍｅｎｔ株式会社,,株式会社,東京都,新宿区,新宿１丁目２３番１１号,,13,104,1600022,,,,,,,2025-10-06,1,,,,,ソルエンタテインメント,0
2592,8011101113426,新規,0,2025-10-06,2025-10-06,株式会社アシスト啓和,,株式会社,東京都,新宿区,北新宿２丁目６－２０ヴェラハイツ新宿１０２室,,13,104,1690074,,,,,,,2025-10-06,1,,,,,アシストケイワ,0
2593,8011101113434,新規,0,2025-10-06,2025-10-06,株式会社めにめに,,株式会社,東京都,新宿区,西新宿３丁目３番１３号西新宿水間ビル２Ｆ,,13,104,1600023,,,,,,,2025-10-06,1,,,,,メニメニ,0
2594,8011101113467,新規,0,2025-10-06,2025-10-06,ＴｏｋｉＷｏｒｋｓ株式会社,,株式会社,東京都,新宿区,百人町２丁目５番４号,,13,104,1690073,,,,,,,2025-10-06,1,,,,,トキワークス,0
2597,8011401027458,新規,0,2025-10-06,2025-10-06,株式会社Ａ‐ＴＥＣＨ,,株式会社,東京都,板橋区,徳丸８丁目２１番５号,,13,119,1750083,,,,,,,2025-10-06,1,,,,,エーテック,0
2600,8011703004411,新規,0,2025-10-06,2025-10-06,合同会社ＫＯＭＯＲＥＢＩ,,合同会社,東京都,江戸川区,西小岩５丁目１３番１３号小出マンション１６０号室,,13,123,1330057,,,,,,,2025-10-06,1,,,,,コモレビ,0
2602,8012401043668,新規,0,2025-10-06,2025-10-06,株式会社アシスト,,株式会社,東京都,武蔵野市,吉祥寺本町２丁目８番４号ｉｏｆｆｉｃｅ吉祥寺,,13,203,1800004,,,,,,,2025-10-06,1,,,,,アシスト,0
2603,8012403007373,新規,0,2025-10-06,2025-10-06,Ａｓｓｅｔｏｒｙ　Ｄｅｓｉｇｎ　Ｌａｂ合同会社,,合同会社,東京都,狛江市,和泉本町１丁目７－５７０１,,13,219,2010003,,,,,,,2025-10-06,1,,,,,アセットリーデザインラボ,0
2604,8012701019112,新規,0,2025-10-06,2025-10-06,株式会社Ｆ　ａｎｄ．７,,株式会社,東京都,西東京市,田無町３丁目３番２７号田無栄ビルＢ１,,13,229,1880011,,,,,,,2025-10-06,1,,,,,エフアンドセブン,0
2608,8012803003889,新規,0,2025-10-06,2025-10-06,合同会社浅野企画,,合同会社,東京都,国分寺市,南町１丁目１４番７号プラウド国分寺２０４,,13,214,1850021,,,,,,,2025-10-06,1,,,,,アサノキカク,0
2609,8013101009819,新規,0,2025-10-06,2025-10-06,株式会社アメノテック,,株式会社,東京都,あきる野市,雨間１８９９番地,,13,228,1970825,,,,,,,2025-10-06,1,,,,,アメノテック,0
2616,8020001164834,新規,0,2025-10-06,2025-10-06,株式会社晴れのち野菜,,株式会社,神奈川県,川崎市川崎区,駅前本町１１番地２川崎フロンティアビル４階,,14,131,2100007,,,,,,,2025-10-06,1,,,,,ハレノチヤサイ,0
2617,8020001165072,新規,0,2025-10-06,2025-10-06,株式会社Ｓｏｕｔｈ‐Ｚ,,株式会社,神奈川県,横浜市南区,南太田１丁目４番２２号,,14,105,2320006,,,,,,,2025-10-06,1,,,,,サウスゼット,0
2618,8020001165106,新規,0,2025-10-06,2025-10-06,株式会社ＬＡＸＭＩ　ＩＮＴＥＲＮＡＴＩＯＮＡＬ,,株式会社,神奈川県,横浜市港北区,高田東１丁目４６番８号,,14,109,2230065,,,,,,,2025-10-06,1,,,,,ラクシミインターナショナル,0
2619,8020001165122,新規,0,2025-10-06,2025-10-06,株式会社ビーファースト,,株式会社,神奈川県,川崎市麻生区,上麻生１丁目５番２号,,14,137,2150021,,,,,,,2025-10-06,1,,,,,ビーファースト,0
2620,8020001165196,新規,0,2025-10-06,2025-10-06,株式会社Ｑａｓｗａ,,株式会社,神奈川県,横浜市中区,初音町３丁目６１番２号ネオステージ初音町４０１,,14,104,2310053,,,,,,,2025-10-06,1,,,,,カスワ,0
2630,8020003029523,新規,0,2025-10-06,2025-10-06,横浜国際地域生活支援協会合同会社,,合同会社,神奈川県,横浜市港南区,日野４丁目２１番１５号,,14,111,2340051,,,,,,,2025-10-06,1,,,,,ヨコハマコクサイチイキセイカツシエンキョウカイ,0
2631,8020003029548,新規,0,2025-10-06,2025-10-06,合同会社ニカ,,合同会社,神奈川県,川崎市川崎区,東田町３番地２４コスモビル３階,,14,131,2100005,,,,,,,2025-10-06,1,,,,,ニカ,0
2634,8020005017006,新規,0,2025-10-06,2025-10-06,税理士法人楠原・菊原会計事務所,,その他の設立登記法人,神奈川県,横浜市神奈川区,平川町１番地２３,,14,102,2210812,,,,,,,2025-10-06,1,,,,,クスハラキクハラカイケイジムショ,0
2636,8021001086399,新規,0,2025-10-06,2025-10-06,しんらい株式会社,,株式会社,神奈川県,厚木市,まつかげ台４３番３４号,,14,212,2430207,,,,,,,2025-10-06,1,,,,,シンライ,0
2637,8021001086408,新規,0,2025-10-06,2025-10-06,たまエンパワー生活クラブ東京つくい発電株式会社,,株式会社,神奈川県,相模原市緑区,三ケ木２５０番地１カサグランデ津久井２０２,,14,151,2520159,,,,,,,2025-10-06,1,,,,,タマエンパワーセイカツクラブトウキョウツクイハツデン,0
2638,8021001086424,新規,0,2025-10-06,2025-10-06,株式会社テントテン,,株式会社,神奈川県,藤沢市,鵠沼海岸３丁目３番４号,,14,205,2510037,,,,,,,2025-10-06,1,,,,,テントテン,0
2642,8030001168974,新規,0,2025-10-06,2025-10-06,株式会社ＫＧＭ,,株式会社,埼玉県,久喜市,久喜東５丁目１７番５号,,11,232,3460016,,,,,,,2025-10-06,1,,,,,ケージーエム,0
2643,8030001168982,新規,0,2025-10-06,2025-10-06,株式会社深谷工業,,株式会社,埼玉県,川越市,大字大袋９６番地１,,11,201,3501168,,,,,,,2025-10-06,1,,,,,フカヤコウギョウ,0
2644,8030001168990,新規,0,2025-10-06,2025-10-06,株式会社オオタニ,,株式会社,埼玉県,深谷市,折之口３６１番地１,,11,218,3660812,,,,,,,2025-10-06,1,,,,,オオタニ,0
2645,8030001169007,新規,0,2025-10-06,2025-10-06,株式会社ＭＹＳマネジメント,,株式会社,埼玉県,川越市,伊勢原町４丁目１２番地５,,11,201,3501108,,,,,,,2025-10-06,1,,,,,エムワイエスマネジメント,0
2646,8030001169031,新規,0,2025-10-06,2025-10-06,日本金属塗装株式会社,,株式会社,埼玉県,飯能市,大字矢颪３７９番地１,,11,209,3570042,,,,,,,2025-10-06,1,,,,,ニホンキンゾクトソウ,0
2647,8030001169072,新規,0,2025-10-06,2025-10-06,株式会社玄,,株式会社,埼玉県,狭山市,富士見１丁目２９番３４号,,11,215,3501306,,,,,,,2025-10-06,1,,,,,ゲン,0
2651,8030003027708,新規,0,2025-10-06,2025-10-06,霖和キャピタル合同会社,,合同会社,埼玉県,越谷市,南越谷２丁目６－５３－５０４,,11,222,3430845,,,,,,,2025-10-06,1,,,,,リンワキャピタル,0
2652,8030003027781,新規,0,2025-10-06,2025-10-06,合同会社ｂｌｕｅ８８,,合同会社,埼玉県,川越市,大字的場２８４０番地１シティハイム小野沢２０３号室,,11,201,3501101,,,,,,,2025-10-06,1,,,,,ブルーエイティエイト,0
2653,8030003027798,新規,0,2025-10-06,2025-10-06,イシバシギフトサービス合同会社,,合同会社,埼玉県,三郷市,彦川戸１丁目１４０番地３,,11,237,3410005,,,,,,,2025-10-06,1,,,,,イシバシギフトサービス,0
2654,8030003027807,新規,0,2025-10-06,2025-10-06,合同会社加藤農園,,合同会社,埼玉県,東松山市,大字上野本１２９２番地１,,11,212,3550073,,,,,,,2025-10-06,1,,,,,カトウノウエン,0
2662,8040001140718,新規,0,2025-10-06,2025-10-06,株式会社ＲＡエステート,,株式会社,千葉県,松戸市,三矢小台４丁目３番地の９,,12,207,2710087,,,,,,,2025-10-06,1,,,,,アールエイエステート,0
2663,8040001140726,新規,0,2025-10-06,2025-10-06,ＧＬＯＢＡＬ　ＪＡＰＡＮ　ＴＲＡＤＥ　ＬＩＮＫ株式会社,,株式会社,千葉県,野田市,木間ケ瀬字丸山５６９０番地４,,12,208,2700222,,,,,,,2025-10-06,1,,,,,グローバルジャパントレイドリンク,0
2669,8050001057250,新規,0,2025-10-06,2025-10-06,株式会社Ｍｏｈｒａ　ＩＭＰＥＸ,,株式会社,茨城県,常陸大宮市,下檜沢３５１３,,08,225,3192512,,,,,,,2025-10-06,1,,,,,モフライムペックス,0
2670,8050001057358,新規,0,2025-10-06,2025-10-06,株式会社ＹＯＵ　ａｎｄ　Ｕ．,,株式会社,茨城県,つくば市,研究学園５丁目６番地６、Ｄ１２ー８０３号,,08,220,3050817,,,,,,,2025-10-06,1,,,,,ユーアンドユウ,0
2671,8050001057366,新規,0,2025-10-06,2025-10-06,株式会社Ｉ＆Ｍ,,株式会社,茨城県,守谷市,大木１７１２番地６,,08,224,3020107,,,,,,,2025-10-06,1,,,,,アイアンドエム,0
2672,8050001057382,新規,0,2025-10-06,2025-10-06,株式会社ＢＡＤＨＡＮＡ　ＴＲＡＤＩＮＧ　ＣＯ．，ＬＴＤ．,,株式会社,茨城県,東茨城郡茨城町,大字秋葉７３１番地３,,08,302,3113147,,,,,,,2025-10-06,1,,,,,バダナトレーディングカンパニーリミテッド,0
2674,8050003009638,新規,0,2025-10-06,2025-10-06,合同会社マガジン,,合同会社,茨城県,つくば市,二の宮３丁目２１番地２５,,08,220,3050051,,,,,,,2025-10-06,1,,,,,マガジン,0
2676,8080001027176,新規,0,2025-10-06,2025-10-06,株式会社大介,,株式会社,静岡県,静岡市清水区,蒲原４丁目７番１１号,,22,103,4213203,,,,,,,2025-10-06,1,,,,,ダイスケ,0
2677,8080001027192,新規,0,2025-10-06,2025-10-06,株式会社東光,,株式会社,静岡県,藤枝市,田中３丁目１番５,,22,214,4260012,,,,,,,2025-10-06,1,,,,,トウコウ,0
2679,8080401028187,新規,0,2025-10-06,2025-10-06,株式会社ヒーローズホールディングス,,株式会社,静岡県,浜松市中央区,佐鳴台４丁目９番１１号,,22,138,4328021,,,,,,,2025-10-06,1,,,,,ヒーローズホールディングス,0
2681,8080403005358,新規,0,2025-10-06,2025-10-06,合同会社ソルティス,,合同会社,静岡県,浜松市中央区,入野町１００８３番地の５,,22,138,4328061,,,,,,,2025-10-06,1,,,,,ソルティス,0
2682,8090001019536,新規,0,2025-10-06,2025-10-06,ＧＯＮＤＡＬＴＲＡＤＩＮＧ株式会社,,株式会社,山梨県,韮崎市,龍岡町若尾新田５１１番地３サンフォレスタＢ－１０１,,19,207,4070031,,,,,,,2025-10-06,1,,,,,ゴンダルトレーディング,0
2683,8090003002903,新規,0,2025-10-06,2025-10-06,ａｒｕ合同会社,,合同会社,山梨県,甲府市,国玉町１１５２番地２,,19,201,4000815,,,,,,,2025-10-06,1,,,,,,0
2684,8090003002911,新規,0,2025-10-06,2025-10-06,合同会社ＰＨＯ１８,,合同会社,山梨県,甲府市,下石田２丁目１番２３号,,19,201,4000046,,,,,,,2025-10-06,1,,,,,フォーイチハチ,0
2685,8100001039012,新規,0,2025-10-06,2025-10-06,株式会社ＢＵＲＳＴ　ＮＥＯ,,株式会社,長野県,長野市,大字南長野南石堂町１４２３番地４,,20,201,3800824,,,,,,,2025-10-06,1,,,,,バーストネオ,0
2686,8100001039020,新規,0,2025-10-06,2025-10-06,株式会社ＪＯＣ,,株式会社,長野県,長野市,三輪６丁目１０番１５号,,20,201,3800803,,,,,,,2025-10-06,1,,,,,ジェイオーシー,0
2688,8100003008411,新規,0,2025-10-06,2025-10-06,ＴＡＫＡＳＵ　ＣＯＲＰＯＲＡＴＩＯＮ合同会社,,合同会社,長野県,北佐久郡軽井沢町,大字長倉３６８４番地１,,20,321,3890111,,,,,,,2025-10-06,1,,,,,タカスコーポレーション,0
2695,8110003005911,新規,0,2025-10-06,2025-10-06,合同会社新潟中央自動車ガラス,,合同会社,新潟県,新潟市東区,寺山１丁目１８番１０号,,15,102,9500892,,,,,,,2025-10-06,1,,,,,ニイガタチュウオウジドウシャガラス,0
2715,8120001280266,新規,0,2025-10-06,2025-10-06,馬氏大阪商務株式会社,,株式会社,大阪府,大阪市東淀川区,東中島４丁目２番５－３０８号,,27,114,5330033,,,,,,,2025-10-06,1,,,,,マシオオサカショウム,0
2716,8120001280316,新規,0,2025-10-06,2025-10-06,ＲＥＮ株式会社,,株式会社,大阪府,大阪市淀川区,西三国１丁目１７番１５号３０３号室,,27,123,5320006,,,,,,,2025-10-06,1,,,,,レン,0
2717,8120001280349,新規,0,2025-10-06,2025-10-06,龍吟株式会社,,株式会社,大阪府,大阪市生野区,生野東３丁目９－１６,,27,116,5440025,,,,,,,2025-10-06,1,,,,,リュウギン,0
2718,8120001280381,新規,0,2025-10-06,2025-10-06,株式会社サカモトメディカル,,株式会社,大阪府,枚方市,星丘３丁目２３番９号,,27,210,5730013,,,,,,,2025-10-06,1,,,,,サカモトメディカル,0
2719,8120001280605,新規,0,2025-10-06,2025-10-06,旭涵株式会社,,株式会社,大阪府,大阪市東住吉区,中野４丁目１番１６号リベラルオリエンテ中野６１０Ｂ,,27,121,5460012,,,,,,,2025-10-06,1,,,,,キョクカン,0
2720,8120001280803,新規,0,2025-10-06,2025-10-06,日本藍牛株式会社,,株式会社,大阪府,大阪市東住吉区,中野４丁目１番１６号リベラルオリエンテ中野２０１Ａ,,27,121,5460012,,,,,,,2025-10-06,1,,,,,ニホンランギュウ,0
2722,8120003030818,新規,0,2025-10-06,2025-10-06,合同会社ＴＮＡ,,合同会社,大阪府,大阪市東住吉区,杭全６丁目６－１０－１階,,27,121,5460002,,,,,,,2025-10-06,1,,,,,ティーエヌエー,0
2723,8120003030834,新規,0,2025-10-06,2025-10-06,ＯＡＮＨ　ＢＯＮＧ合同会社,,合同会社,大阪府,大阪市西成区,潮路２丁目４－４０－２０１号室,,27,122,5570052,,,,,,,2025-10-06,1,,,,,オアエンボン,0
2724,8120003030842,新規,0,2025-10-06,2025-10-06,合同会社弘泰商事,,合同会社,大阪府,大阪市平野区,流町３丁目４－１７,,27,126,5470032,,,,,,,2025-10-06,1,,,,,コウタイショウジ,0
2725,8120003030859,新規,0,2025-10-06,2025-10-06,フォルティウス合同会社,,合同会社,大阪府,大阪市北区,芝田２丁目１－１８西阪急ビル１０４号室,,27,127,5300012,,,,,,,2025-10-06,1,,,,,フォルティウス,0
2726,8120003030867,新規,0,2025-10-06,2025-10-06,リトルアント合同会社,,合同会社,大阪府,大阪市西成区,萩之茶屋２丁目６番４号ニューかめや１３１号室,,27,122,5570004,,,,,,,2025-10-06,1,,,,,リトルアント,0
2728,8120005025188,新規,0,2025-10-06,2025-10-06,一般社団法人大阪個人旅客自動車,,その他の設立登記法人,大阪府,大阪市生野区,巽北３丁目１４番２３号プレステージＯＳビル３０１号,00140941,27,116,5440004,,,,,,,2025-10-06,1,,,,,オオサカコジンリョキャクジドウシャ,0
2731,8120101072563,新規,0,2025-10-06,2025-10-06,株式会社アストレード,,株式会社,大阪府,堺市堺区,大浜中町３－５－８,,27,141,5900000,,,,,,,2025-10-06,1,,,,,アストレード,0
2734,8122001039700,新規,0,2025-10-06,2025-10-06,株式会社Ｆｉｒｓｔ　Ｓｔｅｐ,,株式会社,大阪府,大東市,灰塚４丁目１６番１５号,,27,218,5740043,,,,,,,2025-10-06,1,,,,,ファーストステップ,0
2736,8130001080673,新規,0,2025-10-06,2025-10-06,イワイ木材興業株式会社,,株式会社,京都府,向日市,寺戸町西田中瀬３番地,,26,208,6170002,,,,,,,2025-10-06,1,,,,,イワイモクザイコウギョウ,0
2741,8140001140170,新規,0,2025-10-06,2025-10-06,桜＿株式会社,00140954,株式会社,兵庫県,神戸市中央区,宮本通２丁目３番９－３０４号,,28,110,6510063,,,,,,,2025-10-06,1,,,,,ヨウシ,0
2742,8140001140253,新規,0,2025-10-06,2025-10-06,株式会社ケーズテック,,株式会社,兵庫県,相生市,山手２丁目２９６番地カメリア山手２－Ｃ,,28,208,6780001,,,,,,,2025-10-06,1,,,,,ケーズテック,0
2744,8140003022664,新規,0,2025-10-06,2025-10-06,合同会社しもの経営労務コンサルティング,,合同会社,兵庫県,神戸市西区,井吹台東町５丁目２５番地の２,,28,111,6512242,,,,,,,2025-10-06,1,,,,,シモノケイエイロウムコンサルティング,0
2745,8140003022697,新規,0,2025-10-06,2025-10-06,合同会社Ａｌｏｈａｎａ,,合同会社,兵庫県,神戸市中央区,中山手通３丁目７－２８－１１０１号,,28,110,6500004,,,,,,,2025-10-06,1,,,,,アロハナ,0
2746,8140005027645,新規,0,2025-10-06,2025-10-06,一般社団法人ラヴィエール,,その他の設立登記法人,兵庫県,三木市,吉川町吉安２０５番地,,28,215,6731114,,,,,,,2025-10-06,1,,,,,ラヴィエール,0
2747,8140005027653,新規,0,2025-10-06,2025-10-06,一般社団法人しっぽ,,その他の設立登記法人,兵庫県,西宮市,高木西町２２番２号,,28,204,6638032,,,,,,,2025-10-06,1,,,,,シッポ,0
2748,8160001027077,新規,0,2025-10-06,2025-10-06,碧俊貿易株式会社,,株式会社,滋賀県,長浜市,大辰巳町１６３番地７,,25,203,5260834,,,,,,,2025-10-06,1,,,,,ヘキシュンボウエキ,0
2749,8160001027085,新規,0,2025-10-06,2025-10-06,株式会社ＦＵＮ,,株式会社,滋賀県,栗東市,下鈎１２２０番地ＳａｙａＲｉｓ栗東３０４号,,25,208,5203026,,,,,,,2025-10-06,1,,,,,ファン,0
2750,8160003003621,新規,0,2025-10-06,2025-10-06,合同会社Ｒｅｂｏｎ,,合同会社,滋賀県,東近江市,東今崎町７番３３号,,25,213,5270037,,,,,,,2025-10-06,1,,,,,リボン,0
2756,8180001168852,新規,0,2025-10-06,2025-10-06,株式会社平祥,,株式会社,愛知県,名古屋市中区,三の丸１丁目１４番７号本丸ビル３２０号室,,23,106,4600001,,,,,,,2025-10-06,1,,,,,ヘイショウ,0
2757,8180001168919,新規,0,2025-10-06,2025-10-06,株式会社ナゴヤマルイチ,,株式会社,愛知県,名古屋市中川区,江松５丁目２２１７番地の２,,23,110,4540954,,,,,,,2025-10-06,1,,,,,ナゴヤマルイチ,0
2761,8180301040265,新規,0,2025-10-06,2025-10-06,株式会社曽我の軒,,株式会社,愛知県,豊川市,門前町４６番地,,23,207,4420037,,,,,,,2025-10-06,1,,,,,ソガノケン,0
2767,8200001044290,新規,0,2025-10-06,2025-10-06,株式会社ニッポングローバル,,株式会社,岐阜県,岐阜市,御望２丁目３５番,,21,201,5011171,,,,,,,2025-10-06,1,,,,,ニッポングローバル,0
2768,8200001044308,新規,0,2025-10-06,2025-10-06,株式会社イレブン,,株式会社,岐阜県,可児市,広見１９７１番地１,,21,214,5090214,,,,,,,2025-10-06,1,,,,,イレブン,0
2770,8200003007080,新規,0,2025-10-06,2025-10-06,Ｍ＆Ｓ　ＭＯＴＯＲＳ合同会社,,合同会社,岐阜県,安八郡安八町,北今ケ渕９１０－１,,21,383,5030113,,,,,,,2025-10-06,1,,,,,エムアンドエスモータース,0
2773,8220001005737,新規,0,2025-10-06,2025-10-06,株式会社プロポーシヨン・ユニーシステム,,株式会社,石川県,金沢市,藤江北１丁目９６番地３,,17,201,9200345,,,,,,,2025-10-06,1,,,,,プロポーシヨンユニーシステム,0
2779,8240001065580,新規,0,2025-10-06,2025-10-06,株式会社板金塗装匠,,株式会社,広島県,東広島市,志和町別府１１６１番地１,,34,212,7390267,,,,,,,2025-10-06,1,,,,,バンキントソウタクミ,0
2780,8240003007432,新規,0,2025-10-06,2025-10-06,合同会社ＳＴＡＲｇｏｏｆ,,合同会社,広島県,広島市中区,大手町１丁目１－２０相生橋ビル７階Ａ号室,,34,101,7300051,,,,,,,2025-10-06,1,,,,,スターグーフ,0
2783,8260001040607,新規,0,2025-10-06,2025-10-06,藤原保温株式会社,,株式会社,岡山県,倉敷市,玉島長尾２３８番地９,,33,202,7100251,,,,,,,2025-10-06,1,,,,,フジワラホオン,0
2784,8280001009518,新規,0,2025-10-06,2025-10-06,株式会社瀬島生花店,,株式会社,島根県,出雲市,白枝町４５５番地,,32,203,6930006,,,,,,,2025-10-06,1,,,,,セジマセイカテン,0
2787,8290001111529,新規,0,2025-10-06,2025-10-06,株式会社三志堂,,株式会社,福岡県,久留米市,荘島町８番地５－７０９号,,40,203,8300042,,,,,,,2025-10-06,1,,,,,サンシドウ,0
2788,8290001111586,新規,0,2025-10-06,2025-10-06,株式会社ＶＯＸ　ＮＯＲＭＡＬ,,株式会社,福岡県,福岡市中央区,大宮１丁目６－７,,40,133,8100013,,,,,,,2025-10-06,1,,,,,ヴォックスノーマル,0
2789,8290001111719,新規,0,2025-10-06,2025-10-06,銘愛海運株式会社,,株式会社,福岡県,福岡市中央区,笹丘１丁目２３番２７－７０５号,,40,133,8100034,,,,,,,2025-10-06,1,,,,,メイアイカイウン,0
2790,8290001111735,新規,0,2025-10-06,2025-10-06,株式会社ＢｌｕｅＴｅｅｔｈ,,株式会社,福岡県,福岡市東区,千早５丁目１３番１号２Ｆ,,40,131,8130044,,,,,,,2025-10-06,1,,,,,ブルーティース,0
2792,8290003017484,新規,0,2025-10-06,2025-10-06,合同会社サンテ,,合同会社,福岡県,福岡市中央区,今川１丁目１２番３４号,,40,133,8100054,,,,,,,2025-10-06,1,,,,,サンテ,0
2796,8300001014374,新規,0,2025-10-06,2025-10-06,株式会社ＡＪ　ＰＲＯＪＥＣＴ,,株式会社,佐賀県,鳥栖市,高田町２１－２,,41,203,8410044,,,,,,,2025-10-06,1,,,,,エージェープロジェクト,0
2797,8300003002352,新規,0,2025-10-06,2025-10-06,合同会社オフィス山崎,00140943,合同会社,佐賀県,武雄市,武雄町大字富岡１０６０８番地１,,41,206,8430024,,,,,,,2025-10-06,1,,,,,オフィスヤマサキ,0
2800,8310001019802,新規,0,2025-10-06,2025-10-06,株式会社ＪＡＭ,,株式会社,長崎県,諫早市,本町１番１２号本町第一ビル２Ｆ－４,,42,204,8540012,,,,,,,2025-10-06,1,,,,,ジャム,0
2806,8350001019749,新規,0,2025-10-06,2025-10-06,株式会社ひむかファーム,,株式会社,宮崎県,宮崎市,前原町１１番地２ジーピーＩＩＩ番館１階,00140952,45,201,8800863,,,,,,,2025-10-06,1,,,,,ヒムカファーム,0
2807,8350003005029,新規,0,2025-10-06,2025-10-06,いしまこ合同会社,,合同会社,宮崎県,日向市,亀崎東３丁目８２番－２,,45,206,8830067,,,,,,,2025-10-06,1,,,,,イシマコ,0
2808,8360001035852,新規,0,2025-10-06,2025-10-06,株式会社金城プラン,,株式会社,沖縄県,名護市,東江４丁目７番２７－２０３号アルコバレーノディモーラ,,47,209,9050021,,,,,,,2025-10-06,1,,,,,キンジョウプラン,0
2809,8360001035860,新規,0,2025-10-06,2025-10-06,株式会社丸貴,,株式会社,沖縄県,島尻郡与那原町,字板良敷７９９番地の１,,47,348,9011301,,,,,,,2025-10-06,1,,,,,マルタカ,0
2810,8360001035869,新規,0,2025-10-06,2025-10-06,株式会社島エンタープライズ,,株式会社,沖縄県,沖縄市,諸見里１丁目１９番１号,,47,211,9040032,,,,,,,2025-10-06,1,,,,,シマエンタープライズ,0
2811,8360001035885,新規,0,2025-10-06,2025-10-06,グラシア株式会社,,株式会社,沖縄県,糸満市,字賀数４６９番地１０５号室,,47,210,9010313,,,,,,,2025-10-06,1,,,,,グラシア,0
2814,8360003015290,新規,0,2025-10-06,2025-10-06,合同会社ＭＡＳＨＩＫＩ,,合同会社,沖縄県,浦添市,宮城４丁目１８番２４－９０１号フリーベル浦添宮城,,47,208,9012126,,,,,,,2025-10-06,1,,,,,マシキ,0
2818,8370001053093,新規,0,2025-10-06,2025-10-06,国康工業株式会社,,株式会社,宮城県,東松島市,新東名１丁目１０番地１１,,04,214,9810413,,,,,,,2025-10-06,1,,,,,クニヤスコウギョウ,0
2819,8370001053119,新規,0,2025-10-06,2025-10-06,株式会社明日,,株式会社,宮城県,仙台市青葉区,国見ケ丘１丁目３２－９,,04,101,9893201,,,,,,,2025-10-06,1,,,,,アシタ,0
2820,8370003007312,新規,0,2025-10-06,2025-10-06,合同会社ＭＣＳ,,合同会社,宮城県,柴田郡川崎町,大字川内字荒羽賀１０４,,04,324,9891503,,,,,,,2025-10-06,1,,,,,エムシーエス,0
2825,8400001017177,新規,0,2025-10-06,2025-10-06,株式会社まるっとレンタカー,,株式会社,岩手県,北上市,本通り４丁目８番２８号伊藤ビジネスハイツＧ１,,03,206,0240094,,,,,,,2025-10-06,1,,,,,マルットレンタカー,0
2832,8430001095336,新規,0,2025-10-06,2025-10-06,株式会社ＡＭＵＥ,,株式会社,北海道,札幌市中央区,南五条西１８丁目１番３号,,01,101,0640805,,,,,,,2025-10-06,1,,,,,アミュ,0
2833,8430001095344,新規,0,2025-10-06,2025-10-06,株式会社リビングリンク,,株式会社,北海道,札幌市中央区,南十七条西１４丁目１番７号,,01,101,0640917,,,,,,,2025-10-06,1,,,,,リビングリンク,0
2834,8430001095352,新規,0,2025-10-06,2025-10-06,株式会社みんなであそぼ,,株式会社,北海道,北広島市,大曲南ヶ丘４丁目１３番地１０,,01,234,0611275,,,,,,,2025-10-06,1,,,,,ミンナデアソボ,0
2838,8430005015315,新規,0,2025-10-06,2025-10-06,医療法人社団関井歯科,,その他の設立登記法人,北海道,札幌市中央区,南十条西１丁目１番４０号,,01,101,0640810,,,,,,,2025-10-06,1,,,,,セキイシカ,0
2839,8430005015323,新規,0,2025-10-06,2025-10-06,医療法人えざか産婦人科,,その他の設立登記法人,北海道,苫小牧市,新開町４丁目６番２１号,,01,213,0530052,,,,,,,2025-10-06,1,,,,,エザカサンフジンカ,0
2847,8500001026556,新規,0,2025-10-06,2025-10-06,株式会社船商,,株式会社,愛媛県,今治市,南宝来町１丁目２番地１,,38,202,7940043,,,,,,,2025-10-06,1,,,,,センショウ,0
2848,8500001026564,新規,0,2025-10-06,2025-10-06,トダオート株式会社,,株式会社,愛媛県,四国中央市,土居町土居３７番地,,38,213,7990711,,,,,,,2025-10-06,1,,,,,トダオート,0
2849,8500005008823,新規,0,2025-10-06,2025-10-06,一般社団法人高速二相流研究会,,その他の設立登記法人,愛媛県,松山市,光洋台５番地２５,,38,201,7992469,,,,,,,2025-10-06,1,,,,,コウソクニソウリュウケンキュウカイ,0
2850,8700150044958,新規,0,2025-10-06,2015-10-09,静岡市学校給食会,,その他,静岡県,静岡市清水区,旭町６番８号,,22,103,4240822,,,,,,,2015-10-09,1,,,,,シズオカシガツコウキユウシヨクカイ,0
2857,9010001258834,新規,0,2025-10-06,2025-10-06,株式会社Ａｉｖｅｎｃｅ,,株式会社,東京都,中央区,銀座１丁目１２番４号Ｎ＆ＥＢＬＤ．６Ｆ,,13,102,1040061,,,,,,,2025-10-06,1,,,,,アイヴェンス,0
2858,9010001258933,新規,0,2025-10-06,2025-10-06,株式会社アテナ,,株式会社,東京都,中央区,銀座１丁目１２番４号Ｎ＆ＥＢＬＤ．７階,,13,102,1040061,,,,,,,2025-10-06,1,,,,,アテナ,0
2859,9010001259048,新規,0,2025-10-06,2025-10-06,株式会社Ｌａｖｉｎａ,,株式会社,東京都,中央区,日本橋浜町２丁目４２番９号,,13,102,1030007,,,,,,,2025-10-06,1,,,,,ラヴィナ,0
2860,9010001259072,新規,0,2025-10-06,2025-10-06,株式会社ロイヤルカラーズ,,株式会社,東京都,中央区,銀座６丁目６番１号銀座風月堂ビル５Ｆ,,13,102,1040061,,,,,,,2025-10-06,1,,,,,ロイヤルカラーズ,0
2861,9010001259097,新規,0,2025-10-06,2025-10-06,カスタマーサクセス株式会社,,株式会社,東京都,千代田区,大手町１丁目５番１号ファーストスクエアイーストタワー４Ｆ,,13,101,1000004,,,,,,,2025-10-06,1,,,,,カスタマーサクセス,0
2863,9010003048845,新規,0,2025-10-06,2025-10-06,合同会社藤田,,合同会社,東京都,中央区,日本橋室町１丁目１１番１２号日本橋水野ビル７階,,13,102,1030022,,,,,,,2025-10-06,1,,,,,フジタ,0
2864,9010003048928,新規,0,2025-10-06,2025-10-06,合同会社ＲＥ２００,,合同会社,東京都,千代田区,飯田橋３丁目１番５号,,13,101,1020072,,,,,,,2025-10-06,1,,,,,アールイーニヒャク,0
2865,9010003048944,新規,0,2025-10-06,2025-10-06,ＶＥＣＴＯＲ　ＭＡＣＲＯ合同会社,,合同会社,東京都,文京区,本郷５丁目１－１１キーハウス２０２,,13,105,1130033,,,,,,,2025-10-06,1,,,,,ベクターマクロ,0
2873,9010005040742,新規,0,2025-10-06,2025-10-06,一般社団法人ＲＣｘＥＸ工法協会,,その他の設立登記法人,東京都,中央区,日本橋本町１丁目６番５号ツカモトビル３階,,13,102,1030023,,,,,,,2025-10-06,1,,,,,アールシーイーエックスコウホウキョウカイ,0
2876,9010103002669,新規,0,2025-10-06,2025-10-06,合同会社サンウェルス,,合同会社,東京都,八王子市,七国３丁目１番３４号,,13,201,1920919,,,,,,,2025-10-06,1,,,,,サンウェルス,0
2883,9010501054774,新規,0,2025-10-06,2025-10-06,ＨＮＬｉｆｅ株式会社,,株式会社,東京都,台東区,下谷３丁目１番２４号－１００１号室,,13,106,1100004,,,,,,,2025-10-06,1,,,,,エイチエヌライフ,0
2884,9010501054790,新規,0,2025-10-06,2025-10-06,ＡＲＩＢＡ　ＩＭＰＥＸ株式会社,,株式会社,東京都,台東区,上野３丁目１５番７号ＵＥＮＯＹＯＵＲ,,13,106,1100005,,,,,,,2025-10-06,1,,,,,アリバインペックス,0
2885,9010501054799,新規,0,2025-10-06,2025-10-06,日本臨豊株式会社,,株式会社,東京都,台東区,今戸１丁目１６－１４－１１５号,,13,106,1110024,,,,,,,2025-10-06,1,,,,,ニホンリンホウ,0
2886,9010501054816,新規,0,2025-10-06,2025-10-06,Ｔｒｅａｓｕｒｅ　Ｂｒｉｄｇｅ株式会社,,株式会社,東京都,台東区,千束４丁目９－４裏浅草アート１Ｆ,,13,106,1110031,,,,,,,2025-10-06,1,,,,,トレジャーブリッジ,0
2897,9010601068063,新規,0,2025-10-06,2025-10-06,オルトモスインベストメント株式会社,,株式会社,東京都,墨田区,京島１丁目２１番１０号,,13,107,1310046,,,,,,,2025-10-06,1,,,,,オルトモスインベストメント,0
2898,9010801036654,新規,0,2025-10-06,2025-10-06,株式会社フィールドネバー,,株式会社,東京都,大田区,大森東３丁目１６番１５－１０１号,,13,111,1430012,,,,,,,2025-10-06,1,,,,,フィールドネバー,0
2899,9010801036662,新規,0,2025-10-06,2025-10-06,ＡＢＭ　Ｊａｐａｎ株式会社,,株式会社,東京都,大田区,下丸子２丁目１２番１５－５２８号,,13,111,1460092,,,,,,,2025-10-06,1,,,,,エービーエムジャパン,0
2904,9010901058193,新規,0,2025-10-06,2025-10-06,ＡＹＮソリューションズ株式会社,,株式会社,東京都,世田谷区,祖師谷４丁目２番２号２０１,,13,112,1570072,,,,,,,2025-10-06,1,,,,,エイワイエヌソリューションズ,0
2906,9010903010284,新規,0,2025-10-06,2025-10-06,合同会社ＭＹ企画,,合同会社,東京都,世田谷区,赤堤１丁目１５－８,,13,112,1560044,,,,,,,2025-10-06,1,,,,,エムワイキカク,0
2907,9010903010292,新規,0,2025-10-06,2025-10-06,合同会社シリウス,,合同会社,東京都,世田谷区,弦巻４丁目７－４桜新町テラス６,,13,112,1540016,,,,,,,2025-10-06,1,,,,,シリウス,0
2914,9011001172380,新規,0,2025-10-06,2025-10-06,株式会社ＲＡＩＤＩＯ,,株式会社,東京都,渋谷区,恵比寿西２丁目４番８号ウィンド恵比寿ビル８Ｆ,,13,113,1500021,,,,,,,2025-10-06,1,,,,,レイディオ,0
2915,9011001172760,新規,0,2025-10-06,2025-10-06,Ｗｅｅａｖｅ株式会社,,株式会社,東京都,目黒区,青葉台４丁目４番１２号,,13,110,1530042,,,,,,,2025-10-06,1,,,,,ウィーヴ,0
2918,9011003022716,新規,0,2025-10-06,2025-10-06,合同会社ＧＥＮＤＡＩ,,合同会社,東京都,渋谷区,初台１丁目４１―４,,13,113,1510061,,,,,,,2025-10-06,1,,,,,ゲンダイ,0
2923,9011501032638,新規,0,2025-10-06,2025-10-06,エコノロジー株式会社,,株式会社,東京都,荒川区,西日暮里１丁目５７－１５西日暮里レーベルグランデ１Ｆ,,13,118,1160013,,,,,,,2025-10-06,1,,,,,エコノロジー,0
2924,9011501032654,新規,0,2025-10-06,2025-10-06,ＤＯＷｉＮ株式会社,,株式会社,東京都,北区,志茂２丁目３３番１４－９０１号,,13,117,1150042,,,,,,,2025-10-06,1,,,,,ドゥウィン,0
2933,9012401043659,新規,0,2025-10-06,2025-10-06,業務委託適正推進株式会社,,株式会社,東京都,多摩市,鶴牧１丁目４番地１７号いずみビル７Ｆ,,13,224,2060034,,,,,,,2025-10-06,1,,,,,ギョウムイタクテキセイスイシン,0
2934,9012401043667,新規,0,2025-10-06,2025-10-06,株式会社飛ぶ象,,株式会社,東京都,三鷹市,下連雀５丁目５－１－７２２イオシス吉祥寺,,13,204,1810013,,,,,,,2025-10-06,1,,,,,トブゾウ,0
2935,9012701019111,新規,0,2025-10-06,2025-10-06,株式会社アスノススメ,,株式会社,東京都,西東京市,田無町７丁目１９番３号,,13,229,1880011,,,,,,,2025-10-06,1,,,,,アスノススメ,0
2936,9012801024283,新規,0,2025-10-06,2025-10-06,株式会社ＮＥＳＴＡ,,株式会社,東京都,立川市,錦町１丁目１７－２０レーベン立川アンベリール３０３号室,,13,202,1900022,,,,,,,2025-10-06,1,,,,,ネスタ,0
2941,9013301055018,新規,0,2025-10-06,2025-10-06,株式会社ＫＵＲＯ　ＴＯ　ＳＨＩＲＯ,,株式会社,東京都,豊島区,駒込７丁目３－２鴻森ビル２階,,13,116,1700003,,,,,,,2025-10-06,1,,,,,クロトシロ,0
2943,9013303007900,新規,0,2025-10-06,2025-10-06,ミア合同会社,,合同会社,東京都,豊島区,池袋本町４丁目３４番４号ＳＴ池袋本町２０１号室,,13,116,1700011,,,,,,,2025-10-06,1,,,,,ミア,0
2952,9020001165138,新規,0,2025-10-06,2025-10-06,新溶テック株式会社,,株式会社,神奈川県,横浜市鶴見区,下野谷町１丁目１３番地１日商岩井マンション１３１,,14,101,2300047,,,,,,,2025-10-06,1,,,,,シンヨウテック,0
2953,9020001165146,新規,0,2025-10-06,2025-10-06,順世株式会社,,株式会社,神奈川県,川崎市中原区,小杉町２丁目２７６番地１－５００２,,14,133,2110063,,,,,,,2025-10-06,1,,,,,ジュンセイ,0
2954,9020001165212,新規,0,2025-10-06,2025-10-06,株式会社リュープロジェクツ,,株式会社,神奈川県,横浜市保土ケ谷区,仏向町１１５６番地１ビューコート仏向４－２棟１０３号,,14,106,2400044,,,,,,,2025-10-06,1,,,,,リュープロジェクツ,0
2955,9020001165229,新規,0,2025-10-06,2025-10-06,Ｇａｕｄｉｓｅｅｄ株式会社,,株式会社,神奈川県,川崎市高津区,末長２丁目１０番３２号,,14,134,2130013,,,,,,,2025-10-06,1,,,,,ガウディシード,0
2956,9020001165245,新規,0,2025-10-06,2025-10-06,Ｌｕｂｅｐｅａｋ株式会社,,株式会社,神奈川県,横浜市都筑区,中川中央１丁目３０－１プレミアヨコハマ３Ｆ,,14,118,2240003,,,,,,,2025-10-06,1,,,,,ルーブピーク,0
2964,9020003029506,新規,0,2025-10-06,2025-10-06,合同会社東式研究社,,合同会社,神奈川県,横浜市西区,北幸２丁目１０－４８むつみビル３階,,14,103,2200004,,,,,,,2025-10-06,1,,,,,トウシキケンキュウシャ,0
2965,9020003029547,新規,0,2025-10-06,2025-10-06,合同会社シャイン,,合同会社,神奈川県,川崎市川崎区,東田町３番地２４コスモビル２階,,14,131,2100005,,,,,,,2025-10-06,1,,,,,シャイン,0
2966,9021001086381,新規,0,2025-10-06,2025-10-06,株式会社Ｍａｌｉｃｉａ,,株式会社,神奈川県,鎌倉市,大船２丁目６番２８号,,14,204,2470056,,,,,,,2025-10-06,1,,,,,マリーシア,0
2967,9021001086398,新規,0,2025-10-06,2025-10-06,堂曜東方株式会社,,株式会社,神奈川県,秦野市,南矢名２２２３番地の４東海ビル１０３Ｂ,,14,211,2570003,,,,,,,2025-10-06,1,,,,,ドウヨウトウホウ,0
2968,9021001086489,新規,0,2025-10-06,2025-10-06,株式会社三矢精機,,株式会社,神奈川県,相模原市中央区,田名５７７０番地,,14,152,2520244,,,,,,,2025-10-06,1,,,,,ミツヤセイキ,0
2971,9021003016601,新規,0,2025-10-06,2025-10-06,合同会社ＫＯＫＡＧＥ,,合同会社,神奈川県,鎌倉市,岩瀬６１５番地１メゾンワキタＡ棟１号室,,14,204,2470051,,,,,,,2025-10-06,1,,,,,コカゲ,0
2980,9030001168940,新規,0,2025-10-06,2025-10-06,株式会社タッププラス,,株式会社,埼玉県,上尾市,中妻１丁目１４番地７,,11,219,3620072,,,,,,,2025-10-06,1,,,,,タッププラス,0
2981,9030001168957,新規,0,2025-10-06,2025-10-06,株式会社ＩｎｎＳｉｇｈｔ,,株式会社,埼玉県,川越市,大字藤間１９２番地５埼京工機ビル４階,,11,201,3501142,,,,,,,2025-10-06,1,,,,,インサイト,0
2982,9030001168965,新規,0,2025-10-06,2025-10-06,株式会社石橋将人建築設計事務所,,株式会社,埼玉県,加須市,上三俣１７３８番地１,,11,210,3470006,,,,,,,2025-10-06,1,,,,,イシバシマサトケンチクセッケイジムショ,0
2983,9030001168973,新規,0,2025-10-06,2025-10-06,株式会社Ｙ．Ｋ．Ｆ,,株式会社,埼玉県,川口市,末広３丁目１３番１２号,,11,203,3320006,,,,,,,2025-10-06,1,,,,,ワイケーエフ,0
2984,9030001168981,新規,0,2025-10-06,2025-10-06,ＩＦＹ　Ｗｏｒｋｓ株式会社,,株式会社,埼玉県,熊谷市,中西３丁目６番３３号,,11,202,3600013,,,,,,,2025-10-06,1,,,,,イフワークス,0
2985,9030001168998,新規,0,2025-10-06,2025-10-06,株式会社三誠舎,,株式会社,埼玉県,越谷市,大字大林５７９番地７,,11,222,3430021,,,,,,,2025-10-06,1,,,,,サンセイシャ,0
2986,9030001169030,新規,0,2025-10-06,2025-10-06,株式会社ａｎｄ　ｓｔａｎｄ,,株式会社,埼玉県,秩父郡小鹿野町,小鹿野２６９０番地,,11,365,3680105,,,,,,,2025-10-06,1,,,,,アンドスタンド,0
2987,9030001169047,新規,0,2025-10-06,2025-10-06,株式会社ｋ‐ｗｏｒｋｓ,,株式会社,埼玉県,さいたま市緑区,松木３丁目２８番地６,,11,109,3360918,,,,,,,2025-10-06,1,,,,,ケーワークス,0
2993,9030003027731,新規,0,2025-10-06,2025-10-06,合同会社東興運輸,,合同会社,埼玉県,川口市,青木１丁目１４－１０－４０１,,11,203,3320031,,,,,,,2025-10-06,1,,,,,トウコウウンユ,0
2994,9030003027764,新規,0,2025-10-06,2025-10-06,合同会社空の星,,合同会社,埼玉県,川越市,的場北２丁目１３－６第二島村荘２－２号室,,11,201,3501102,,,,,,,2025-10-06,1,,,,,ソラノホシ,0
2995,9030003027789,新規,0,2025-10-06,2025-10-06,合同会社エーエスディー,,合同会社,埼玉県,吉川市,吉川２丁目４番地２５,,11,243,3420055,,,,,,,2025-10-06,1,,,,,エーエスディー,0
3001,9040001140717,新規,0,2025-10-06,2025-10-06,株式会社ムジカート,,株式会社,千葉県,浦安市,入船１丁目８番１－７１０号エアレジデンス新浦安,,12,227,2790012,,,,,,,2025-10-06,1,,,,,ムジカート,0
3002,9040001140725,新規,0,2025-10-06,2025-10-06,ＡＳＩＡ　ＬＩＮＥ株式会社,,株式会社,千葉県,柏市,若白毛４０４番地１,,12,217,2701444,,,,,,,2025-10-06,1,,,,,アジアライン,0
3003,9040001140758,新規,0,2025-10-06,2025-10-06,株式会社青藍,,株式会社,千葉県,市川市,関ケ島１１番３号,,12,203,2720105,,,,,,,2025-10-06,1,,,,,セイラン,0
3011,9040003028679,新規,0,2025-10-06,2025-10-06,ユナイト合同会社,,合同会社,千葉県,柏市,若柴２２７番地６柏の葉キャンパス１４７街区Ｆ－５１１号,,12,217,2770871,,,,,,,2025-10-06,1,,,,,ユナイト,0
3014,9050001057373,新規,0,2025-10-06,2025-10-06,株式会社ＭＡＡＺ　ＩＮＴＥＲＮＡＴＩＯＮＡＬ,,株式会社,茨城県,筑西市,関本肥土６６番地１,,08,227,3080124,,,,,,,2025-10-06,1,,,,,マーズインターナショナル,0
3017,9050003009637,新規,0,2025-10-06,2025-10-06,合同会社マズル,,合同会社,茨城県,つくば市,二の宮３丁目２１番地２５,,08,220,3050051,,,,,,,2025-10-06,1,,,,,マズル,0
3022,9080001027183,新規,0,2025-10-06,2025-10-06,静岡ガスヒューマンリソース株式会社,,株式会社,静岡県,静岡市駿河区,八幡１丁目５番３８号,,22,102,4228076,,,,,,,2025-10-06,1,,,,,シズオカガスヒューマンリソース,0
3023,9080001027191,新規,0,2025-10-06,2025-10-06,株式会社ＯＮＥ　ＭＥ,,株式会社,静岡県,静岡市駿河区,国吉田６丁目２番２５号,,22,102,4228004,,,,,,,2025-10-06,1,,,,,ワンミー,0
3025,9080005007727,新規,0,2025-10-06,2025-10-06,医療法人社団こはく,,その他の設立登記法人,静岡県,藤枝市,瀬古３丁目１２番１２号,,22,214,4260082,,,,,,,2025-10-06,1,,,,,コハク,0
3026,9080101025830,新規,0,2025-10-06,2025-10-06,株式会社芝原隠居ＭＡＳＵＤＡ,,株式会社,静岡県,下田市,大賀茂２７番地,,22,219,4150038,,,,,,,2025-10-06,1,,,,,シバハラインキョマスダ,0
3028,9080103003438,新規,0,2025-10-06,2025-10-06,合同会社ＫＦＳラボ,,合同会社,静岡県,富士市,天間１４７４番地の９,,22,210,4190205,,,,,,,2025-10-06,1,,,,,ケーエフエスラボ,0
3029,9080401028203,新規,0,2025-10-06,2025-10-06,株式会社Ｂｒａｓｓ＆Ｌｕｘ,,株式会社,静岡県,浜松市中央区,海老塚町１番地の２０,,22,138,4328032,,,,,,,2025-10-06,1,,,,,ブラスアンドラックス,0
3030,9090001019510,新規,0,2025-10-06,2025-10-06,大洋裏地株式会社,,株式会社,山梨県,大月市,大月１丁目２０番９号,,19,206,4010013,,,,,,,2025-10-06,1,,,,,タイオウラジ,0
3032,9100001039003,新規,0,2025-10-06,2025-10-06,株式会社野沢農産,,株式会社,長野県,下高井郡野沢温泉村,大字豊郷３１７２番地１,,20,563,3892502,,,,,,,2025-10-06,1,,,,,ノザワノウサン,0
3033,9100001039011,新規,0,2025-10-06,2025-10-06,ひかり味噌ＩＴソリューションズ株式会社,00140939,株式会社,長野県,諏訪郡下諏訪町,４８４８番地１,,20,361,3930000,,,,,,,2025-10-06,1,,,,,ヒカリミソアイティソリューションズ,0
3036,9110001039605,新規,0,2025-10-06,2025-10-06,株式会社共栄リユース,,株式会社,新潟県,新潟市中央区,花園２丁目３番２３号新潟不動産開発ビル,,15,103,9500086,,,,,,,2025-10-06,1,,,,,キョウエイリユース,0
3040,9110003005910,新規,0,2025-10-06,2025-10-06,合同会社弥助,,合同会社,新潟県,新発田市,豊町３丁目１２番７号,,15,206,9570016,,,,,,,2025-10-06,1,,,,,ヤスケ,0
3060,9120001279910,新規,0,2025-10-06,2025-10-06,株式会社天誠,,株式会社,大阪府,大阪市住之江区,新北島１丁目４番１５号トウビビル２１２号室,,27,125,5590024,,,,,,,2025-10-06,1,,,,,テンセイ,0
3061,9120001280133,新規,0,2025-10-06,2025-10-06,春日株式会社,,株式会社,大阪府,大阪市都島区,都島北通１丁目１番４－４０２号,,27,102,5340014,,,,,,,2025-10-06,1,,,,,カスガ,0
3062,9120001280158,新規,0,2025-10-06,2025-10-06,玖亨トレーディング株式会社,,株式会社,大阪府,大阪市都島区,東野田町４丁目１－５吉升ビル３０２号,,27,102,5340024,,,,,,,2025-10-06,1,,,,,キュウコウトレーディング,0
3063,9120001280199,新規,0,2025-10-06,2025-10-06,隠本株式会社,,株式会社,大阪府,大阪市西成区,玉出東１丁目７番２３号２０１号室,,27,122,5570043,,,,,,,2025-10-06,1,,,,,カクホン,0
3064,9120001280224,新規,0,2025-10-06,2025-10-06,大阪瑞森株式会社,,株式会社,大阪府,大阪市天王寺区,大道２丁目６－１２エスリード天王寺８０１,,27,109,5430052,,,,,,,2025-10-06,1,,,,,オオサカズイシン,0
3065,9120001280249,新規,0,2025-10-06,2025-10-06,株式会社嘉王,,株式会社,大阪府,大阪市此花区,西九条２丁目２番２１号２Ｆ,,27,104,5540012,,,,,,,2025-10-06,1,,,,,カオウ,0
3066,9120001280364,新規,0,2025-10-06,2025-10-06,海翌株式会社,,株式会社,大阪府,大阪市浪速区,木津川２丁目４－５８,,27,111,5560027,,,,,,,2025-10-06,1,,,,,カイヨク,0
3067,9120001280372,新規,0,2025-10-06,2025-10-06,ファンダメンタルジャパン株式会社,,株式会社,大阪府,大阪市住之江区,北加賀屋５丁目５－２８・３Ｆ,,27,125,5590011,,,,,,,2025-10-06,1,,,,,ファンダメンタルジャパン,0
3068,9120001280380,新規,0,2025-10-06,2025-10-06,株式会社大林電機,,株式会社,大阪府,大阪市平野区,喜連１丁目１番２号２６号室,,27,126,5470027,,,,,,,2025-10-06,1,,,,,オオバヤシデンキ,0
3069,9120001280389,新規,0,2025-10-06,2025-10-06,Ｔ’ｓエイド株式会社,,株式会社,大阪府,大阪市北区,梅田１丁目２番２号大阪駅前第２ビル１２－１２,,27,127,5300001,,,,,,,2025-10-06,1,,,,,ティーズエイド,0
3070,9120001280397,新規,0,2025-10-06,2025-10-06,株式会社ＨＩＲＯＮＡ,,株式会社,大阪府,大阪市西区,京町堀２丁目６番２０－１８０５号,,27,106,5500003,,,,,,,2025-10-06,1,,,,,ヒロナ,0
3071,9120001280406,新規,0,2025-10-06,2025-10-06,株式会社Ｉｎｆｉｎａ,,株式会社,大阪府,大阪市淀川区,木川東４丁目５番３－３０１号,,27,123,5320012,,,,,,,2025-10-06,1,,,,,インフィナ,0
3072,9120001280430,新規,0,2025-10-06,2025-10-06,新火株式会社,,株式会社,大阪府,大阪市生野区,田島６丁目２－２８広海ビル２階３０３号室,,27,116,5440011,,,,,,,2025-10-06,1,,,,,シンカ,0
3073,9120001280447,新規,0,2025-10-06,2025-10-06,Ｎａｎａ株式会社,,株式会社,大阪府,大阪市西成区,天下茶屋１丁目１７番９号１０１号,,27,122,5570014,,,,,,,2025-10-06,1,,,,,ナナ,0
3074,9120001280595,新規,0,2025-10-06,2025-10-06,金号角株式会社,,株式会社,大阪府,大阪市福島区,海老江２丁目１０－２２アクティ福島６－Ｃ,,27,103,5530001,,,,,,,2025-10-06,1,,,,,キンゴウカク,0
3075,9120001280604,新規,0,2025-10-06,2025-10-06,運承株式会社,,株式会社,大阪府,大阪市東住吉区,中野４丁目１番１６号リベラルオリエンテ中野７０６Ａ,,27,121,5460012,,,,,,,2025-10-06,1,,,,,ウンショウ,0
3076,9120001280612,新規,0,2025-10-06,2025-10-06,会依株式会社,,株式会社,大阪府,大阪市東住吉区,中野４丁目１番１６号リベラルオリエンテ中野２０６Ｂ,,27,121,5460012,,,,,,,2025-10-06,1,,,,,カイイ,0
3077,9120001280620,新規,0,2025-10-06,2025-10-06,Ｏａｓｉｓ　Ｗｉｔｈｉｎ株式会社,,株式会社,大阪府,大阪市東住吉区,中野４丁目１番１６号リベラルオリエンテ中野７０６Ｂ,,27,121,5460012,,,,,,,2025-10-06,1,,,,,オーエーシスウィジーン,0
3078,9120001280760,新規,0,2025-10-06,2025-10-06,ＥＴＨＡＮ株式会社,,株式会社,大阪府,大阪市西区,立売堀４丁目３番１６号５１６室,,27,106,5500012,,,,,,,2025-10-06,1,,,,,イーサン,0
3084,9120003030783,新規,0,2025-10-06,2025-10-06,合同会社Ｋｎｏｘ,,合同会社,大阪府,大阪市鶴見区,今津北１丁目８番３３－１３０６号,,27,124,5380041,,,,,,,2025-10-06,1,,,,,ノックス,0
3085,9120003030800,新規,0,2025-10-06,2025-10-06,合同会社ＡＨＨ,,合同会社,大阪府,大阪市東住吉区,杭全１丁目３番９号,,27,121,5460002,,,,,,,2025-10-06,1,,,,,アハハ,0
3086,9120003030833,新規,0,2025-10-06,2025-10-06,東和杏インターナショナル合同会社,,合同会社,大阪府,大阪市福島区,福島５丁目６番１６号ラグザ大阪２階２４３号,,27,103,5530003,,,,,,,2025-10-06,1,,,,,トウワアンインターナショナル,0
3087,9120003030916,新規,0,2025-10-06,2025-10-06,合同会社Ｈ＆Ｌ,,合同会社,大阪府,大阪市平野区,長吉長原３丁目１２番２号,,27,126,5470016,,,,,,,2025-10-06,1,,,,,エイチアンドエル,0
3092,9120901051575,新規,0,2025-10-06,2025-10-06,ルーツ工業株式会社,,株式会社,大阪府,高槻市,北柳川町１２番１２号,,27,207,5690852,,,,,,,2025-10-06,1,,,,,ルーツコウギョウ,0
3093,9120901051583,新規,0,2025-10-06,2025-10-06,ＨＯＵＥＩホールディングス株式会社,,株式会社,大阪府,吹田市,岸部中１丁目１９番４号,,27,205,5640002,,,,,,,2025-10-06,1,,,,,ホウエイホールディングス,0
3094,9120903005876,新規,0,2025-10-06,2025-10-06,合同会社アーモンドグリネ,,合同会社,大阪府,高槻市,安満西の町２９－８－３０３,,27,207,5691107,,,,,,,2025-10-06,1,,,,,アーモンドグリネ,0
3095,9120905006798,新規,0,2025-10-06,2025-10-06,一般社団法人花育・庭育ＳＭＩＬＥ　ＬＡＢ,,その他の設立登記法人,大阪府,豊中市,中桜塚５丁目１１番５号,,27,203,5610881,,,,,,,2025-10-06,1,,,,,ハナイクニワイクスマイルラボ,0
3096,9122001039699,新規,0,2025-10-06,2025-10-06,株式会社アキラ,,株式会社,大阪府,東大阪市,衣摺２丁目１３番１０号,,27,227,5770827,,,,,,,2025-10-06,1,,,,,アキラ,0
3099,9130001080680,新規,0,2025-10-06,2025-10-06,株式会社Ｔａｌｌ　Ｆｉｅｌｄ,,株式会社,京都府,京都市中京区,南車屋町２８７番地木屋町会館２Ｆ,,26,104,6048022,,,,,,,2025-10-06,1,,,,,トールフィールド,0
3100,9130003010826,新規,0,2025-10-06,2025-10-06,ＨＡＳＵ合同会社,,合同会社,京都府,京都市北区,上賀茂畔勝町５７－４,,26,101,6038044,,,,,,,2025-10-06,1,,,,,ハス,0
3106,9140001140252,新規,0,2025-10-06,2025-10-06,株式会社ソアーズ,,株式会社,兵庫県,高砂市,神爪５丁目２４番８号,,28,216,6760808,,,,,,,2025-10-06,1,,,,,ソアーズ,0
3111,9140003022663,新規,0,2025-10-06,2025-10-06,合同会社アクリア,,合同会社,兵庫県,神戸市長田区,野田町７丁目１－２０野田マンション１Ｆ,,28,106,6530051,,,,,,,2025-10-06,1,,,,,アクリア,0
3112,9140003022671,新規,0,2025-10-06,2025-10-06,合同会社Ａｓ　Ｉ　Ａｍ,,合同会社,兵庫県,豊岡市,九日市中町１６７番地の１,,28,209,6680053,,,,,,,2025-10-06,1,,,,,アズアイアム,0
3131,9180001168760,新規,0,2025-10-06,2025-10-06,株式会社ＫＯＫＥＩ,,株式会社,愛知県,名古屋市中区,門前町３番２６号－２,,23,106,4600018,,,,,,,2025-10-06,1,,,,,コウケイ,0
3132,9180001168884,新規,0,2025-10-06,2025-10-06,株式会社ＣＳＧ,,株式会社,愛知県,春日井市,味美上ノ町２０６８番地５ＤＣ．ＳＴＹＬＥ１０１,,23,206,4860965,,,,,,,2025-10-06,1,,,,,シーエスジー,0
3139,9180003029151,新規,0,2025-10-06,2025-10-06,合同会社ＶＯＩＣＥ,,合同会社,愛知県,知多郡美浜町,大字奥田字田原谷６５番地１,,23,446,4703233,,,,,,,2025-10-06,1,,,,,ボイス,0
3140,9180003029176,新規,0,2025-10-06,2025-10-06,合同会社ＳＥＥＤ　ＬＡＢ,,合同会社,愛知県,名古屋市熱田区,青池町１丁目５１番地の３,,23,109,4560075,,,,,,,2025-10-06,1,,,,,シードラボ,0
3142,9180301040272,新規,0,2025-10-06,2025-10-06,株式会社ＦＡＭＯＵＲ,,株式会社,愛知県,豊田市,住吉町１丁目５番地５,,23,211,4730905,,,,,,,2025-10-06,1,,,,,ファムール,0
3147,9200001044307,新規,0,2025-10-06,2025-10-06,土岐商事株式会社,,株式会社,岐阜県,土岐市,肥田町肥田２０９７番地９,,21,212,5095115,,,,,,,2025-10-06,1,,,,,トキショウジ,0
3152,9230001021121,新規,0,2025-10-06,2025-10-06,株式会社ＴＡＨＡ　ＭＯＴＯＲＳ,,株式会社,富山県,射水市,八幡町３丁目３３１番地４,,16,211,9340025,,,,,,,2025-10-06,1,,,,,タハモーターズ,0
3153,9240001065563,新規,0,2025-10-06,2025-10-06,株式会社エコサン,,株式会社,広島県,広島市西区,己斐西町６番１３号,,34,104,7330814,,,,,,,2025-10-06,1,,,,,エコサン,0
3154,9240001065571,新規,0,2025-10-06,2025-10-06,株式会社ステップワン,,株式会社,広島県,福山市,神村町１０６８番地２６,,34,207,7290112,,,,,,,2025-10-06,1,,,,,ステップワン,0
3155,9240001065605,新規,0,2025-10-06,2025-10-06,株式会社アスク,,株式会社,広島県,廿日市市,宮島口西３丁目２番１４号,,34,213,7390412,,,,,,,2025-10-06,1,,,,,アスク,0
3156,9250001021359,新規,0,2025-10-06,2025-10-06,株式会社ＫＯＭＯＲＥＢＩＥ,,株式会社,山口県,周南市,児玉町３丁目１番地,,35,215,7450005,,,,,,,2025-10-06,1,,,,,コモレビエ,0
3157,9250003003818,新規,0,2025-10-06,2025-10-06,合同会社ｂｉｅｎ,,合同会社,山口県,萩市,大字西田町４３番地１,,35,204,7580046,,,,,,,2025-10-06,1,,,,,ビヤン,0
3158,9250003003826,新規,0,2025-10-06,2025-10-06,合同会社Ｇｅｔ　ｔｈｒｏｕｇｈ,,合同会社,山口県,下関市,後田町１丁目８番２１号,,35,201,7510826,,,,,,,2025-10-06,1,,,,,ゲットスルー,0
3159,9270001009294,新規,0,2025-10-06,2025-10-06,株式会社スカイブルー,,株式会社,鳥取県,倉吉市,秋喜４９５番地１,,31,203,6820925,,,,,,,2025-10-06,1,,,,,スカイブルー,0
3166,9290001111552,新規,0,2025-10-06,2025-10-06,株式会社ブーリス,,株式会社,福岡県,糸島市,高田１丁目８番２号,,40,230,8191102,,,,,,,2025-10-06,1,,,,,ブーリス,0
3169,9290003017434,新規,0,2025-10-06,2025-10-06,合同会社Ｌａｒｇｏ,,合同会社,福岡県,朝倉市,頓田５５２番地４,,40,228,8380064,,,,,,,2025-10-06,1,,,,,ラルゴ,0
3170,9290003017483,新規,0,2025-10-06,2025-10-06,合同会社縁,,合同会社,福岡県,糸島市,二丈上深江７０４－１－６,,40,230,8191621,,,,,,,2025-10-06,1,,,,,エン,0
3171,9290003017509,新規,0,2025-10-06,2025-10-06,Ａｇａ　ｐａｙ合同会社,,合同会社,福岡県,福岡市中央区,薬院１丁目１５番４－９０２号アリターレ薬院,,40,133,8100022,,,,,,,2025-10-06,1,,,,,アガペイ,0
3179,9300001014365,新規,0,2025-10-06,2025-10-06,株式会社ＰｕｓｈＴｗｉｎ,,株式会社,佐賀県,伊万里市,大坪町丙１５２８番地１,,41,205,8480023,,,,,,,2025-10-06,1,,,,,プッシュツイン,0
3180,9300003002351,新規,0,2025-10-06,2025-10-06,合同会社ＹＡＳＵＹＵＫＩ,,合同会社,佐賀県,鳥栖市,神辺町１５７０番地２８,,41,203,8410004,,,,,,,2025-10-06,1,,,,,ヤスユキ,0
3184,9330005010960,新規,0,2025-10-06,2025-10-06,一般社団法人フラＮｅｔＷｏｒｋ九州,,その他の設立登記法人,熊本県,熊本市南区,今町１６３番地３,,43,104,8615251,,,,,,,2025-10-06,1,,,,,フラネットワークキュウシュウ,0
3186,9340001027677,新規,0,2025-10-06,2025-10-06,株式会社Ｒｙｕ建,,株式会社,鹿児島県,肝属郡肝付町,前田４２１３番地６,,46,492,8931206,,,,,,,2025-10-06,1,,,,,リュウケン,0
3187,9340001027693,新規,0,2025-10-06,2025-10-06,株式会社アクティ,,株式会社,鹿児島県,鹿児島市,原良１丁目６番６－８０２号,,46,201,8900026,,,,,,,2025-10-06,1,,,,,アクティ,0
3190,9350001019748,新規,0,2025-10-06,2025-10-06,株式会社セカンド,,株式会社,宮崎県,宮崎市,江平西２丁目１番４２号ダイニマンション江平４０５号,,45,201,8800051,,,,,,,2025-10-06,1,,,,,セカンド,0
3195,9360001035851,新規,0,2025-10-06,2025-10-06,株式会社Ｔａｒｔｅ　ｄｅ　ｌｕｌｕ,,株式会社,沖縄県,沖縄市,字登川４３２－１ｃ－２,,47,211,9042142,,,,,,,2025-10-06,1,,,,,タルトデルル,0
3197,9360003015298,新規,0,2025-10-06,2025-10-06,合同会社ＩＳＨＩＢＡＲＵ,,合同会社,沖縄県,宜野湾市,野嵩３丁目２２番９号,,47,205,9012203,,,,,,,2025-10-06,1,,,,,イシバル,0
3202,9370001053092,新規,0,2025-10-06,2025-10-06,株式会社モリタ,,株式会社,宮城県,仙台市若林区,沖野３丁目６番１号,,04,103,9840831,,,,,,,2025-10-06,1,,,,,モリタ,0
3204,9370003007311,新規,0,2025-10-06,2025-10-06,Ｍａｄｏｃａ　Ｃｒｅａｔｉｖｅ合同会社,,合同会社,宮城県,大崎市,古川鶴ケ埣字新江南１１０番地１１,,04,215,9896111,,,,,,,2025-10-06,1,,,,,マドカクリエイティブ,0
3225,9430001095310,新規,0,2025-10-06,2025-10-06,株式会社ＰＳＴ　Ｎｉｓｅｋｏ,,株式会社,北海道,虻田郡ニセコ町,字曽我６７８－５,,01,395,0481522,,,,,,,2025-10-06,1,,,,,ピーエスティーニセコ,0
3226,9430001095327,新規,0,2025-10-06,2025-10-06,株式会社ＥＬＹＳＥ,,株式会社,北海道,札幌市北区,北八条西１丁目３番地,,01,102,0600808,,,,,,,2025-10-06,1,,,,,エリース,0
3229,9430003018129,新規,0,2025-10-06,2025-10-06,ＱＵＡＩＤ　ＴＲＡＤＩＮＧ合同会社,,合同会社,北海道,赤平市,美園町５丁目７番地赤平オフィスビルＡ－１,,01,218,0791144,,,,,,,2025-10-06,1,,,,,クアイドトレーディング,0
3230,9430003018161,新規,0,2025-10-06,2025-10-06,ＲＩＳＥ　ＥＡＳＴ合同会社,,合同会社,北海道,積丹郡積丹町,大字美国町字船澗１０９番地１－１階,,01,405,0460201,,,,,,,2025-10-06,1,,,,,ライズイースト,0
3231,9430005015330,新規,0,2025-10-06,2025-10-06,司法書士法人岩見沢リーガル,,その他の設立登記法人,北海道,岩見沢市,二条西１０丁目５番地２,,01,210,0680022,,,,,,,2025-10-06,1,,,,,イワミザワリーガル,0
3232,9470001020909,新規,0,2025-10-06,2025-10-06,株式会社ｇｏｏｏｎ,,株式会社,香川県,善通寺市,仙遊町１丁目５番１５号,,37,204,7650001,,,,,,,2025-10-06,1,,,,,グーン,0
3237,9500001026563,新規,0,2025-10-06,2025-10-06,前田真珠株式会社,,株式会社,愛媛県,宇和島市,津島町曲烏４番地２,,38,203,7983336,,,,,,,2025-10-06,1,,,,,マエダシンジュ,0
