sequenceNumber,corporateNumber,process,correct,updateDate,changeDate,name,nameImageId,kind,prefectureName,cityName,streetNumber,addressImageId,prefectureCode,cityCode,postCode,addressOutside,addressOutsideImageId,closeDate,closeCause,successorCorporateNumber,changeCause,assignmentDate,latest,enName,enPrefectureName,enCityName,enAddressOutside,furigana,hihyoji
5,1010001227730,新規,0,2022-07-01,2022-07-01,株式会社ＮＥＷＳＥＡＭ,,株式会社,東京都,中央区,銀座１丁目１２－４Ｎ＆ＥＢＬＤ．７階,,13,102,1040061,,,,,,,2022-07-01,1,,,,,ニューシーム,0
16,1010401168260,新規,0,2022-07-01,2022-07-01,株式会社インフルール,,株式会社,東京都,港区,南青山２丁目２番１５号,,13,103,1070062,,,,,,,2022-07-01,1,,,,,インフルール,0
17,1010401168269,新規,0,2022-07-01,2022-07-01,イーアシスト代々木の杜会計株式会社,,株式会社,東京都,港区,南青山２丁目２番１５号,,13,103,1070062,,,,,,,2022-07-01,1,,,,,イーアシストヨヨギノモリカイケイ,0
18,1010401168302,新規,0,2022-07-01,2022-07-01,東京風動株式会社,,株式会社,東京都,港区,芝５丁目２７番３号ＭＢＣ,,13,103,1080014,,,,,,,2022-07-01,1,,,,,トウキョウフウドウ,0
30,1010703006291,新規,0,2022-07-01,2022-07-01,Ｎ　ａｎｄ　ＧＪ合同会社,,合同会社,東京都,品川区,西品川１丁目２番１－１４１４号室,,13,109,1410033,,,,,,,2022-07-01,1,,,,,エヌアンドジージェイ,0
38,1011001148421,新規,0,2022-07-01,2022-07-01,ｅｄｉｉ株式会社,,株式会社,東京都,渋谷区,神宮前６丁目２３－４桑野ビル２Ｆ,,13,113,1500001,,,,,,,2022-07-01,1,,,,,エディ,0
42,1011003014951,新規,0,2022-07-01,2022-07-01,合同会社ティアクラウン,,合同会社,東京都,渋谷区,渋谷１丁目１５番１２号ＬＡＩＤＯＵＴＳＨＩＢＵＹＡ２０４,,13,113,1500002,,,,,,,2022-07-01,1,,,,,ティアクラウン,0
43,1011005009636,新規,0,2022-07-01,2022-07-01,一般社団法人友枝会,,その他の設立登記法人,東京都,渋谷区,神宮前２丁目１３番７号,,13,113,1500001,,,,,,,2022-07-01,1,,,,,トモエダカイ,0
46,1011101099374,新規,0,2022-07-01,2022-07-01,カリスト株式会社,,株式会社,東京都,新宿区,須賀町２番５号,,13,104,1600018,,,,,,,2022-07-01,1,,,,,カリスト,0
47,1011105010312,新規,0,2022-07-01,2022-07-01,宗教法人神乃尊会,,その他の設立登記法人,東京都,新宿区,新宿７丁目３番３９号,,13,104,1600022,,,,,,,2022-07-01,1,,,,,シンノミコトカイ,0
49,1011401024362,新規,0,2022-07-01,2022-07-01,株式会社澤田工務店,,株式会社,東京都,板橋区,常盤台３丁目１５番１６号,,13,119,1740071,,,,,,,2022-07-01,1,,,,,サワダコウムテン,0
53,1011503005203,新規,0,2022-07-01,2022-07-01,Ｕｒａｎｕｓ合同会社,,合同会社,東京都,北区,田端新町１丁目７－１４ビズフィールド西日暮里２０５,,13,117,1140012,,,,,,,2022-07-01,1,,,,,ウラヌス,0
54,1011601026068,新規,0,2022-07-01,2022-07-01,株式会社Ｒｅｏ,,株式会社,東京都,練馬区,練馬１丁目２０番８号日建練馬ビル２Ｆ,,13,120,1760001,,,,,,,2022-07-01,1,,,,,レオ,0
55,1011801040942,新規,0,2022-07-01,2022-07-01,株式会社ユウ,,株式会社,東京都,足立区,足立３丁目２５番２２号,,13,121,1200015,,,,,,,2022-07-01,1,,,,,ユウ,0
56,1011803005150,新規,0,2022-07-01,2022-07-01,アトリエ・エードット合同会社,,合同会社,東京都,足立区,千住仲町３６番地２,,13,121,1200036,,,,,,,2022-07-01,1,,,,,アトリエエードット,0
58,1012301013042,新規,0,2022-07-01,2022-07-01,株式会社中島企画,,株式会社,東京都,町田市,木曽町５１４番地７フレンドリーハウス２０２,,13,209,1940033,,,,,,,2022-07-01,1,,,,,ナカジマキカク,0
74,1020001147143,新規,0,2022-07-01,2022-07-01,株式会社卜部興業,,株式会社,神奈川県,川崎市多摩区,長沢２丁目３番５号ステイブル橋場１０６,,14,135,2140035,,,,,,,2022-07-01,1,,,,,ウラベコウギョウ,0
78,1020003022030,新規,0,2022-07-01,2022-07-01,合同会社ｓｕｎ　ｒｉｓｅ,,合同会社,神奈川県,横浜市神奈川区,松本町３丁目２５番地６白百合荘２０２号,,14,102,2210841,,,,,,,2022-07-01,1,,,,,サンライズ,0
79,1021001076398,新規,0,2022-07-01,2022-07-01,Ｐｒｏｓｔｏｒｋ株式会社,,株式会社,神奈川県,相模原市南区,相模大野４丁目５－１５－２０２,,14,153,2520303,,,,,,,2022-07-01,1,,,,,プロストーク,0
82,1030001148925,新規,0,2022-07-01,2022-07-01,雅悦貿易株式会社,,株式会社,埼玉県,蕨市,中央２丁目８番３３号ワラビスカイハイツ７０２号,,11,223,3350004,,,,,,,2022-07-01,1,,,,,ガエツボウエキ,0
86,1030003019604,新規,0,2022-07-01,2022-07-01,合同会社ゼロテラ,,合同会社,埼玉県,新座市,馬場２丁目６番３０号,,11,230,3520016,,,,,,,2022-07-01,1,,,,,ゼロテラ,0
96,1040005021664,新規,0,2022-07-01,2022-07-01,一般社団法人伝統職人塾,,その他の設立登記法人,千葉県,市川市,湊新田１丁目１３番９号,,12,203,2720132,,,,,,,2022-07-01,1,,,,,デントウショクニンジュク,0
101,1060003004124,新規,0,2022-07-01,2022-07-01,ジョイパワー合同会社,,合同会社,栃木県,那須郡那須町,大字高久丙３０５６番地１,,09,407,3250302,,,,,,,2022-07-01,1,,,,,ジョイパワー,0
125,1120101065813,新規,0,2022-07-01,2022-07-01,株式会社馬越鉄筋,,株式会社,大阪府,堺市西区,上１１０番地３４,,27,144,5938311,,,,,,,2022-07-01,1,,,,,ウマコシテッキン,0
129,1120901046178,新規,0,2022-07-01,2022-07-01,ＦＭスーパーバイジング株式会社,,株式会社,大阪府,高槻市,芝生町２丁目２番４号,,27,207,5690823,,,,,,,2022-07-01,1,,,,,エフエムスーパーバイジング,0
139,1130001072108,新規,0,2022-07-01,2022-07-01,竹林工業株式会社,,株式会社,京都府,京都市山科区,大塚西浦町１０番地６５,,26,110,6078125,,,,,,,2022-07-01,1,,,,,タケバヤシコウギョウ,0
148,1140001126580,新規,0,2022-07-01,2022-07-01,株式会社Ｍｙ　Ｈｏｕｓｅ,,株式会社,兵庫県,姫路市,南町７６番地城陽ビル４Ｆコワーキングスペースｍｏｃｏ姫路内,,28,201,6700912,,,,,,,2022-07-01,1,,,,,マイハウス,0
153,1140003017869,新規,0,2022-07-01,2022-07-01,合同会社からきゅう,,合同会社,兵庫県,神戸市東灘区,西岡本１丁目４番２４号,,28,101,6580073,,,,,,,2022-07-01,1,,,,,カラキュウ,0
157,1160001024320,新規,0,2022-07-01,2022-07-01,株式会社Ｎｅｗ　Ｂｅｒｒｙ,,株式会社,滋賀県,蒲生郡竜王町,大字山之上６６０３,,25,384,5202531,,,,,,,2022-07-01,1,,,,,ニューベリー,0
167,1190003004020,新規,0,2022-07-01,2022-07-01,合同会社Ｌｙｎｘ　Ｔｅｃｈｎｏｌｏｇｙ,,合同会社,三重県,四日市市,諏訪栄町４－１０アピカビル３Ｆ,,24,202,5100086,,,,,,,2022-07-01,1,,,,,リンクステクノロジー,0
196,1290001098104,新規,0,2022-07-01,2022-07-01,株式会社ＦＵＴ,,株式会社,福岡県,福岡市博多区,比恵町１９－８グランフォーレ博多駅東プレミア６０９号,,40,132,8120014,,,,,,,2022-07-01,1,,,,,フット,0
207,1340003003840,新規,0,2022-07-01,2022-07-01,合同会社ＳＥＡＨＯＲＳＥ,,合同会社,鹿児島県,鹿児島市,桜ヶ丘２丁目１９番地１６,,46,201,8910175,,,,,,,2022-07-01,1,,,,,シーホース,0
208,1350001017833,新規,0,2022-07-01,2022-07-01,ステノワークス株式会社,,株式会社,宮崎県,宮崎市,松山２丁目１番１号ザ・レジデンス大淀河畔１１０７号,,45,201,8800865,,,,,,,2022-07-01,1,,,,,ステノワークス,0
218,1400001015930,新規,0,2022-07-01,2022-07-01,株式会社フォーミュラ,,株式会社,岩手県,盛岡市,北山２丁目１７番７号,,03,201,0200061,,,,,,,2022-07-01,1,,,,,フォーミュラ,0
229,1430001086952,新規,0,2022-07-01,2022-07-01,秋株式会社,,株式会社,北海道,苫小牧市,ときわ町２丁目１４番１１号,,01,213,0591261,,,,,,,2022-07-01,1,,,,,アキ,0
236,1700150110675,新規,0,2022-07-01,2022-07-01,ＨＡＳＨＩＭＡ　ＥＮＴＥＲＰＲＩＳＥＳ,,外国会社等,神奈川県,相模原市緑区,青野原２２０３－１,,14,151,2520161,スリランカ民主社会主義共和国、コロンボ、デヒウェラ、ネディマラ、ペラクンバロード０１番,,,,,,2022-07-01,1,,,,,ハシマエンタープライセス,0
243,2010101015241,新規,0,2022-07-01,2022-07-01,株式会社ＰＵＬＵ,,株式会社,東京都,八王子市,明神町３丁目２０－５エイトビル３階,,13,201,1920046,,,,,,,2022-07-01,1,,,,,プル,0
246,2010401168251,新規,0,2022-07-01,2022-07-01,インテンション株式会社,,株式会社,東京都,港区,南青山２丁目２番１５号ウィン青山１２１４号,,13,103,1070062,,,,,,,2022-07-01,1,,,,,インテンション,0
249,2010601061405,新規,0,2022-07-01,2022-07-01,株式会社ＢＵＣＫＡＲＯＯ,,株式会社,東京都,墨田区,東駒形３丁目４番１０号１Ｆ,,13,107,1300005,,,,,,,2022-07-01,1,,,,,バッカルー,0
250,2010603009609,新規,0,2022-07-01,2022-07-01,ＩＮＢＯＵＮＤ合同会社,,合同会社,東京都,江東区,白河４丁目９―２５―１１０６,,13,108,1350021,,,,,,,2022-07-01,1,,,,,インバウンド,0
251,2010705003377,新規,0,2022-07-01,2022-07-01,一般社団法人音楽テラス,,その他の設立登記法人,東京都,品川区,南大井６丁目１９－６大森勧業ビル５階,,13,109,1400013,,,,,,,2022-07-01,1,,,,,オンガクテラス,0
254,2011001148362,新規,0,2022-07-01,2022-07-01,株式会社Ｓａｍｕｒａｉ　ｈｏｓｐｉｔａｌｉｔｙ,,株式会社,東京都,目黒区,目黒本町４丁目１６番１６号,,13,110,1520002,,,,,,,2022-07-01,1,,,,,サムライホスピタリティー,0
255,2011001148420,新規,0,2022-07-01,2022-07-01,株式会社ｉｍｍｅｒｓｅｌ,,株式会社,東京都,渋谷区,円山町５番５号Ｎａｖｉ渋谷Ｖ３階,,13,113,1500044,,,,,,,2022-07-01,1,,,,,イマーセル,0
259,2011201023927,新規,0,2022-07-01,2022-07-01,杯中酒株式会社,,株式会社,東京都,中野区,東中野１丁目５４番７号,,13,114,1640003,,,,,,,2022-07-01,1,,,,,ハイチュウシュ,0
284,2020003022021,新規,0,2022-07-01,2022-07-01,ＫＧ＆Ｍ合同会社,,合同会社,神奈川県,横浜市西区,みなとみらい５丁目３番１号,,14,103,2200012,,,,,,,2022-07-01,1,,,,,ケージーアンドエム,0
288,2021003011889,新規,0,2022-07-01,2022-07-01,英華合同会社,,合同会社,神奈川県,小田原市,栄町４丁目６番１８号,,14,206,2500011,,,,,,,2022-07-01,1,,,,,エイカ,0
313,2070001039392,新規,0,2022-07-01,2022-07-01,株式会社ＣＥＬＥＳＴＩＮＯ　ＧＡＲＡＧＥ,,株式会社,群馬県,伊勢崎市,東上之宮町２４８番地３,,10,204,3720815,,,,,,,2022-07-01,1,,,,,セレスティーノガレージ,0
315,2070003004527,新規,0,2022-07-01,2022-07-01,合同会社チェンジズ,,合同会社,群馬県,太田市,新田花香塚町４４２番地３,,10,205,3700345,,,,,,,2022-07-01,1,,,,,チェンジズ,0
321,2110003004803,新規,0,2022-07-01,2022-07-01,合同会社テクノイン,,合同会社,新潟県,妙高市,大字姫川原５７０番地３７,,15,217,9440028,,,,,,,2022-07-01,1,,,,,テクノイン,0
330,2120001247031,新規,0,2022-07-01,2022-07-01,コネクトタイム株式会社,,株式会社,大阪府,大阪市大正区,南恩加島１丁目８番１０号,,27,108,5510021,,,,,,,2022-07-01,1,,,,,コネクトタイム,0
331,2120001247048,新規,0,2022-07-01,2022-07-01,株式会社Ｍａｒｕｎｉ　Ｐｌｕｓ,,株式会社,大阪府,大阪市福島区,吉野１丁目２２番５号,,27,103,5530006,,,,,,,2022-07-01,1,,,,,マルニプラス,0
333,2120003022003,新規,0,2022-07-01,2022-07-01,合同会社ＭＯＴＥＮ　ＴＲＡＤＩＮＧ,,合同会社,大阪府,大阪市東淀川区,東中島４丁目１－１１－４０３号シャンボール第３新大阪,,27,114,5330033,,,,,,,2022-07-01,1,,,,,モーテントレーディング,0
334,2120005023016,新規,0,2022-07-01,2022-07-01,弁理士法人ととせ・ももとせ,,その他の設立登記法人,大阪府,大阪市北区,東天満２丁目９番４号,,27,127,5300044,,,,,,,2022-07-01,1,,,,,トトセモモトセ,0
335,2120101065812,新規,0,2022-07-01,2022-07-01,株式会社シモムラ,,株式会社,大阪府,堺市中区,陶器北６９番地１,,27,142,5998242,,,,,,,2022-07-01,1,,,,,シモムラ,0
338,2130001072107,新規,0,2022-07-01,2022-07-01,Ｆ．Ｔ．ＬＡＢＯ株式会社,,株式会社,京都府,京都市山科区,日ノ岡石塚町２５－７,,26,110,6078498,,,,,,,2022-07-01,1,,,,,エフティーラボ,0
346,2140003017868,新規,0,2022-07-01,2022-07-01,阿蘇合同会社,,合同会社,兵庫県,神戸市中央区,下山手通５丁目７番７－３１０号,,28,110,6500011,,,,,,,2022-07-01,1,,,,,アソ,0
354,2180001151970,新規,0,2022-07-01,2022-07-01,株式会社ゆとり,,株式会社,愛知県,名古屋市南区,豊田５丁目５番２０号－１,,23,112,4570841,,,,,,,2022-07-01,1,,,,,ユトリ,0
374,2240005015414,新規,0,2022-07-01,2022-07-01,一般社団法人尾三物産振興協会,,その他の設立登記法人,広島県,三原市,本郷北２丁目１１番２号,,34,204,7290418,,,,,,,2022-07-01,1,,,,,オノサンブッサンシンコウキョウカイ,0
381,2280003001627,新規,0,2022-07-01,2022-07-01,隠岐グリーンパワー合同会社,,合同会社,島根県,隠岐郡隠岐の島町,西町吉田の二２０番１２,,32,528,6850014,,,,,,,2022-07-01,1,,,,,オキグリーンパワー,0
394,2320003003841,新規,0,2022-07-01,2022-07-01,イチロクサンマル合同会社,,合同会社,大分県,大分市,ふじが丘山手２丁目２３番１５号,,44,201,8701184,,,,,,,2022-07-01,1,,,,,イチロクサンマル,0
402,2350001017832,新規,0,2022-07-01,2022-07-01,株式会社Ｋ’ｓＴＥＣＨ,,株式会社,宮崎県,宮崎市,大字大瀬町２２５８番地１,,45,201,8800045,,,,,,,2022-07-01,1,,,,,ケーズテック,0
404,2370001048735,新規,0,2022-07-01,2022-07-01,株式会社グラス,,株式会社,宮城県,多賀城市,新田字新後７番地の３,,04,209,9850854,,,,,,,2022-07-01,1,,,,,グラス,0
426,2430001086943,新規,0,2022-07-01,2022-07-01,株式会社ＹＵＴＯＲＩ,,株式会社,北海道,札幌市北区,篠路一条１０丁目２０番１２号,,01,102,0028021,,,,,,,2022-07-01,1,,,,,ユトリ,0
427,2430001086984,新規,0,2022-07-01,2022-07-01,ヒルズ不動産株式会社,,株式会社,北海道,札幌市東区,北九条東１１丁目１番３４号,,01,103,0650009,,,,,,,2022-07-01,1,,,,,ヒルズフドウサン,0
446,3010001227547,新規,0,2022-07-01,2022-07-01,スプリングジャパン株式会社,,株式会社,東京都,文京区,小石川３丁目２６番１８号ブライエント小石川２０１号室,,13,105,1120002,,,,,,,2022-07-01,1,,,,,スプリングジャパン,0
447,3010001227704,新規,0,2022-07-01,2022-07-01,株式会社アルト,,株式会社,東京都,千代田区,外神田２丁目４番６号,,13,101,1010021,,,,,,,2022-07-01,1,,,,,アルト,0
448,3010001227729,新規,0,2022-07-01,2022-07-01,株式会社Ｔ３　Ｐｌａｎ,,株式会社,東京都,中央区,銀座８丁目８－７第３ソワレド銀座ビル７階ｍｏｏｎｓｔａｒ内,,13,102,1040061,,,,,,,2022-07-01,1,,,,,ティースリープラン,0
450,3010005035178,新規,0,2022-07-01,2022-07-01,一般社団法人日本シュウマイ協会,,その他の設立登記法人,東京都,中央区,銀座３丁目１２番１５号銀座細谷ビル,,13,102,1040061,,,,,,,2022-07-01,1,,,,,ニホンシュウマイキョウカイ,0
463,3010705003376,新規,0,2022-07-01,2022-07-01,税理士法人スタートライン,,その他の設立登記法人,東京都,品川区,大崎３丁目１番５号ルミネ五反田第２・２０２号室,,13,109,1410032,,,,,,,2022-07-01,1,,,,,スタートライン,0
467,3010903007492,新規,0,2022-07-01,2022-07-01,ｋａｕｓａ合同会社,,合同会社,東京都,世田谷区,北沢３丁目３１番１１号コートスプリング２０６,,13,112,1550031,,,,,,,2022-07-01,1,,,,,カウサ,0
471,3011001148444,新規,0,2022-07-01,2022-07-01,株式会社Ｈｉｇｈｅｒ　Ｇｒｏｕｎｄ,,株式会社,東京都,渋谷区,神宮前６丁目２３－４桑野ビル２階,,13,113,1500001,,,,,,,2022-07-01,1,,,,,ハイアーグラウンド,0
472,3011003014966,新規,0,2022-07-01,2022-07-01,合同会社私のご褒美,,合同会社,東京都,渋谷区,東２丁目２０番２号三和ビル２０１,,13,113,1500011,,,,,,,2022-07-01,1,,,,,ワタシノゴホウビ,0
473,3011005009634,新規,0,2022-07-01,2022-07-01,一般社団法人スポーツキャピタルマネジメント協会,,その他の設立登記法人,東京都,目黒区,青葉台１丁目２９番６号,,13,110,1530042,,,,,,,2022-07-01,1,,,,,スポーツキャピタルマネジメントキョウカイ,0
478,3011101099372,新規,0,2022-07-01,2022-07-01,日本エージェント株式会社,,株式会社,東京都,新宿区,西新宿３丁目３番－１３号西新宿水間ビル６階,,13,104,1600023,,,,,,,2022-07-01,1,,,,,ニホンエージェント,0
479,3011103011905,新規,0,2022-07-01,2022-07-01,合同会社Ｈｏｕｓｅ　ｏｆ　Ｓｔａｎ,,合同会社,東京都,新宿区,西新宿３丁目３番１３号西新宿水間ビル６階,,13,104,1600023,,,,,,,2022-07-01,1,,,,,ハウスオブスタン,0
480,3011103011913,新規,0,2022-07-01,2022-07-01,合同会社ｓａｌｏｎ　ＴＡＫＡＯ,,合同会社,東京都,新宿区,荒木町１１番地６７ポルトグランデ四谷三丁目３０２,,13,104,1600007,,,,,,,2022-07-01,1,,,,,サロンタカオ,0
483,3011401024369,新規,0,2022-07-01,2022-07-01,株式会社グローアップ,,株式会社,東京都,板橋区,高島平７丁目２９番６号,,13,119,1750082,,,,,,,2022-07-01,1,,,,,グローアップ,0
489,3011801040940,新規,0,2022-07-01,2022-07-01,株式会社アシヅカ,,株式会社,東京都,足立区,江北３丁目１番８号,,13,121,1230872,,,,,,,2022-07-01,1,,,,,アシヅカ,0
493,3012803002813,新規,0,2022-07-01,2022-07-01,合同会社バイプレイヤーズ,,合同会社,東京都,立川市,栄町１丁目１６－１プライムガーデン国立３０６,,13,202,1900003,,,,,,,2022-07-01,1,,,,,バイプレイヤーズ,0
502,3020001147141,新規,0,2022-07-01,2022-07-01,株式会社ライングラフ,,株式会社,神奈川県,横浜市青葉区,大場町３６２番地５７,,14,117,2250023,,,,,,,2022-07-01,1,,,,,ライングラフ,0
506,3020003022029,新規,0,2022-07-01,2022-07-01,合同会社ＢＡＹ　ＲＯＵＮＤ,,合同会社,神奈川県,横浜市港南区,上大岡西２丁目６番３４号上大岡ドミトリー２階,,14,111,2330002,,,,,,,2022-07-01,1,,,,,ベイラウンド,0
508,3021001076388,新規,0,2022-07-01,2022-07-01,株式会社ＬＩＭ　ＳＴＵＤＩＯ,,株式会社,神奈川県,藤沢市,藤が岡２丁目１番Ｅ１～８１０号,,14,205,2510004,,,,,,,2022-07-01,1,,,,,リムスタジオ,0
535,3070001039391,新規,0,2022-07-01,2022-07-01,株式会社ゆら動物病院,,株式会社,群馬県,太田市,由良町８８８番地,,10,205,3730036,,,,,,,2022-07-01,1,,,,,ユラドウブツビョウイン,0
555,3120001246742,新規,0,2022-07-01,2022-07-01,ＰＯＳＴＮｎ株式会社,,株式会社,大阪府,大阪市北区,浪花町１３番３８号千代田ビル北館３Ｆ,,27,127,5300022,,,,,,,2022-07-01,1,,,,,ポストン,0
556,3120001247014,新規,0,2022-07-01,2022-07-01,ＥａｓｙＴｒａｄｅ株式会社,,株式会社,大阪府,大阪市東成区,神路４丁目３－１０スターレジデンス新深江２０４号室,,27,115,5370003,,,,,,,2022-07-01,1,,,,,イージートレード,0
561,3120903004207,新規,0,2022-07-01,2022-07-01,合同会社オゾンステーション,,合同会社,大阪府,摂津市,千里丘東３丁目７番１３号,,27,224,5660011,,,,,,,2022-07-01,1,,,,,オゾンステーション,0
566,3130001072089,新規,0,2022-07-01,2022-07-01,株式会社スナグル,,株式会社,京都府,長岡京市,友岡２丁目３番１－３０５号サンハイム長岡京３０５,,26,209,6170843,,,,,,,2022-07-01,1,,,,,スナグル,0
567,3130001072097,新規,0,2022-07-01,2022-07-01,株式会社Ｋ‐ＴＥＣ,,株式会社,京都府,京都市山科区,勧修寺西金ケ崎２５６番地１,,26,110,6078221,,,,,,,2022-07-01,1,,,,,ケイテック,0
577,3140003017834,新規,0,2022-07-01,2022-07-01,合同会社ＴｏｐＣｒａｆｔ,,合同会社,兵庫県,神戸市長田区,雲雀ケ丘３丁目６番２号,,28,106,6530879,,,,,,,2022-07-01,1,,,,,トップクラフト,0
578,3140003017867,新規,0,2022-07-01,2022-07-01,合同会社ＳＴＥＭ,,合同会社,兵庫県,神戸市中央区,東町１１６番地２オールドブライトビル６０６号,,28,110,6500031,,,,,,,2022-07-01,1,,,,,ステム,0
593,3180003023993,新規,0,2022-07-01,2022-07-01,Ｄ．Ｒ．Ｈｏｌｄｉｎｇｓ合同会社,,合同会社,愛知県,瀬戸市,宮里町７０,,23,204,4890077,,,,,,,2022-07-01,1,,,,,ディーアールホールディングス,0
600,3200001040237,新規,0,2022-07-01,2022-07-01,株式会社ＴＳ,,株式会社,岐阜県,本巣郡北方町,加茂６０２番地の８,,21,421,5010425,,,,,,,2022-07-01,1,,,,,ティーエス,0
622,3260003003962,新規,0,2022-07-01,2022-07-01,ａｎｄ　Ｒｅ合同会社,,合同会社,岡山県,倉敷市,児島味野城２丁目１３－３３,,33,202,7110914,,,,,,,2022-07-01,1,,,,,アンドアールイー,0
630,3290001098093,新規,0,2022-07-01,2022-07-01,株式会社ヒューマンホールディングス,,株式会社,福岡県,福岡市中央区,小笹４丁目２１番３４号,,40,133,8100033,,,,,,,2022-07-01,1,,,,,ヒューマンホールディングス,0
664,3430001086942,新規,0,2022-07-01,2022-07-01,株式会社Ｂｒｉｇｈｔｉｖｅ,,株式会社,北海道,札幌市中央区,北五条西２７丁目３－５,,01,101,0640825,,,,,,,2022-07-01,1,,,,,ブライティブ,0
665,3430003014059,新規,0,2022-07-01,2022-07-01,合同会社銀次郎企画,,合同会社,北海道,小樽市,銭函１丁目１９番９号,,01,203,0470261,,,,,,,2022-07-01,1,,,,,ギンジロウキカク,0
669,3700150110665,新規,0,2022-07-01,2022-07-01,Ｏｓａｋａ　Ｌａｎｋａ　Ｅｎｔｅｒｐｒｉｓｅｓ,,外国会社等,千葉県,千葉市若葉区,古泉町２１１番地３－Ｂ,,12,104,2650042,スリランカ民主社会主義共和国ランブッカナ、カトゥピティヤロード,,,,,,2022-07-01,1,,,,,オオサカランカエンタープライズ,0
675,4010001227752,新規,0,2022-07-01,2022-07-01,株式会社ルークス,,株式会社,東京都,中央区,日本橋兜町５番１号兜町第１平和ビル３階,,13,102,1030026,,,,,,,2022-07-01,1,,,,,ルークス,0
679,4010401168258,新規,0,2022-07-01,2022-07-01,３７’ｉｎｃ．株式会社,,株式会社,東京都,港区,北青山２丁目７番２０号川志満ビル６Ｆ,,13,103,1070061,,,,,,,2022-07-01,1,,,,,サンナナインク,0
681,4010403028006,新規,0,2022-07-01,2022-07-01,スパイラルネクスト合同会社,,合同会社,東京都,港区,南青山２丁目２ー１５,,13,103,1070062,,,,,,,2022-07-01,1,,,,,スパイラルネクスト,0
682,4010403028014,新規,0,2022-07-01,2022-07-01,合同会社シグミー,,合同会社,東京都,港区,浜松町２丁目２－１５浜松町ダイヤビル２階,,13,103,1050013,,,,,,,2022-07-01,1,,,,,シグミー,0
686,4010601061394,新規,0,2022-07-01,2022-07-01,株式会社Ｃｉｅｌ,,株式会社,東京都,墨田区,錦糸１丁目１０－１５－６０２,,13,107,1300013,,,,,,,2022-07-01,1,,,,,シエル,0
687,4010601061411,新規,0,2022-07-01,2022-07-01,株式会社ＥＳＧシフト,,株式会社,東京都,江東区,千石３丁目１番２４－１４１４号,,13,108,1350015,,,,,,,2022-07-01,1,,,,,イーエスジーシフト,0
689,4010603009623,新規,0,2022-07-01,2022-07-01,ＴＨＫ　ＧＲＯＵＰ合同会社,,合同会社,東京都,墨田区,太平３丁目３番２号,,13,107,1300012,,,,,,,2022-07-01,1,,,,,ティーエイチケーグループ,0
701,4011001148360,新規,0,2022-07-01,2022-07-01,株式会社ＴＲＡＰＩＤＥ,,株式会社,東京都,渋谷区,渋谷２丁目７番１４－３０２号,,13,113,1500002,,,,,,,2022-07-01,1,,,,,トラピッド,0
702,4011001148419,新規,0,2022-07-01,2022-07-01,株式会社ポポ,,株式会社,東京都,渋谷区,神宮前６丁目２３番４号桑野ビル２Ｆ,,13,113,1500001,,,,,,,2022-07-01,1,,,,,ポポ,0
703,4011003014957,新規,0,2022-07-01,2022-07-01,合同会社ＥＰＯＣＨ,,合同会社,東京都,目黒区,上目黒５丁目６番２５－３１１,,13,110,1530051,,,,,,,2022-07-01,1,,,,,エポック,0
704,4011005009641,新規,0,2022-07-01,2022-07-01,一般社団法人Ｑｕｉｓｉｎｅ,,その他の設立登記法人,東京都,目黒区,大橋１丁目８－１１－９０３号クオリア目黒大橋ウエスト,,13,110,1530044,,,,,,,2022-07-01,1,,,,,キュイジーヌ,0
712,4011101099388,新規,0,2022-07-01,2022-07-01,スバーインターナショナルジャパン株式会社,,株式会社,東京都,新宿区,高田馬場３丁目４１－１０名倉２階,,13,104,1690075,,,,,,,2022-07-01,1,,,,,スバーインターナショナルジャパン,0
713,4011101099396,新規,0,2022-07-01,2022-07-01,株式会社ＳＰＴ,,株式会社,東京都,新宿区,西新宿３丁目３番１３号西新宿水間ビル６階,,13,104,1600023,,,,,,,2022-07-01,1,,,,,エスピーティー,0
714,4011201023891,新規,0,2022-07-01,2022-07-01,株式会社ＲＡＴ’Ｓ,,株式会社,東京都,中野区,新井４丁目３番１３号,,13,114,1650026,,,,,,,2022-07-01,1,,,,,ラッツ,0
723,4011601026032,新規,0,2022-07-01,2022-07-01,ＬｉｆｅＳｍａｒｔ株式会社,,株式会社,東京都,練馬区,氷川台４丁目４０番１５－３０８室,,13,120,1790084,,,,,,,2022-07-01,1,,,,,ライフスマット,0
728,4011801040931,新規,0,2022-07-01,2022-07-01,株式会社ねこといぬとおうち,,株式会社,東京都,足立区,西新井４丁目３１番５号,,13,121,1230841,,,,,,,2022-07-01,1,,,,,ネコトイヌトオウチ,0
737,4021001076395,新規,0,2022-07-01,2022-07-01,株式会社ヘモグロビン,,株式会社,神奈川県,鎌倉市,雪ノ下１丁目３番２７号ヴィラウィスタリアＢ１,,14,204,2480005,,,,,,,2022-07-01,1,,,,,ヘモグロビン,0
738,4021003011887,新規,0,2022-07-01,2022-07-01,エンジニアベース合同会社,,合同会社,神奈川県,平塚市,札場町４０番８号,,14,203,2540802,,,,,,,2022-07-01,1,,,,,エンジニアベース,0
746,4030003019650,新規,0,2022-07-01,2022-07-01,Ｉ　ＣＡＮ合同会社,,合同会社,埼玉県,蕨市,塚越５丁目３１番１号,,11,223,3350002,,,,,,,2022-07-01,1,,,,,アイキャン,0
747,4030003019675,新規,0,2022-07-01,2022-07-01,合同会社ＨＲＴ,,合同会社,埼玉県,ふじみ野市,築地２丁目２－２,,11,245,3560026,,,,,,,2022-07-01,1,,,,,エイチアールティ,0
751,4040001124006,新規,0,2022-07-01,2022-07-01,株式会社ＴＯＰ　ＮＯＴＥ,,株式会社,千葉県,松戸市,西馬橋２丁目３１－６,,12,207,2710044,,,,,,,2022-07-01,1,,,,,トップノート,0
752,4040003020351,新規,0,2022-07-01,2022-07-01,合同会社Ｍｓ＆Ｙｓ,,合同会社,千葉県,鎌ケ谷市,くぬぎ山５丁目７番３０－５０４号,,12,224,2730128,,,,,,,2022-07-01,1,,,,,エムスアンドワイス,0
758,4050003006655,新規,0,2022-07-01,2022-07-01,ＳＷＥＥＮＹ　ＥＮＴＥＲＰＲＩＳＥＳ合同会社,,合同会社,茨城県,古河市,中田２５９番地１山栄コーポ１０７,,08,204,3060053,,,,,,,2022-07-01,1,,,,,スイーニエンタープライゼズ,0
774,4080103002618,新規,0,2022-07-01,2022-07-01,合同会社ＡＳＰ,,合同会社,静岡県,三島市,沢地９８番地の３,,22,206,4110043,,,,,,,2022-07-01,1,,,,,エーエスピー,0
783,4110001036771,新規,0,2022-07-01,2022-07-01,株式会社デパーチャー,,株式会社,新潟県,長岡市,大手通２丁目２番地６,,15,202,9400062,,,,,,,2022-07-01,1,,,,,デパーチャー,0
790,4120001247038,新規,0,2022-07-01,2022-07-01,百誠優品株式会社,,株式会社,大阪府,大阪市東成区,中道２丁目１番１６号天守閣名邸ＯｓａｋａＣａｓｔｌｅ６０１号室,,27,115,5370025,,,,,,,2022-07-01,1,,,,,ヒャクセイユウヒン,0
791,4120001247054,新規,0,2022-07-01,2022-07-01,株式会社Ｙ２Ｋ情報技術研究所,,株式会社,大阪府,大阪市北区,野崎町７番１３－１１０２号,,27,127,5300055,,,,,,,2022-07-01,1,,,,,ワイツーケイジョウホウギジュツケンキュウショ,0
797,4120003022001,新規,0,2022-07-01,2022-07-01,合同会社ＫＨＡＮＨ　ＴＨＡＮＨ　ＰＨＡＴ,,合同会社,大阪府,大阪市西成区,聖天下２丁目３番９号,,27,122,5570012,,,,,,,2022-07-01,1,,,,,カインタンファット,0
802,4122001036016,新規,0,2022-07-01,2022-07-01,株式会社ＧＯＯ,,株式会社,大阪府,八尾市,若林町１丁目８７番地２１３号,,27,212,5810038,,,,,,,2022-07-01,1,,,,,グー,0
804,4130001072088,新規,0,2022-07-01,2022-07-01,株式会社仕掛人,,株式会社,京都府,京都市下京区,松原通烏丸西入ル玉津島町２９４番地Ｂ１階,,26,106,6000000,,,,,,,2022-07-01,1,,,,,シカケニン,0
805,4130001072113,新規,0,2022-07-01,2022-07-01,Ｗｈｉｔｅ株式会社,,株式会社,京都府,京都市中京区,元竹田町６３１－２－１０５,,26,104,6048145,,,,,,,2022-07-01,1,,,,,ホワイト,0
814,4140001126578,新規,0,2022-07-01,2022-07-01,株式会社コアテック,,株式会社,兵庫県,神戸市長田区,大橋町３丁目２番１８号,,28,106,6530037,,,,,,,2022-07-01,1,,,,,コアテック,0
822,4170003001743,新規,0,2022-07-01,2022-07-01,マーサーズトレイディングジャパン合同会社,,合同会社,和歌山県,和歌山市,善明寺２６８番地３,,30,201,6408471,,,,,,,2022-07-01,1,,,,,マーサーズトレイディングジャパン,0
831,4180003023984,新規,0,2022-07-01,2022-07-01,合同会社ＳＴＡ,,合同会社,愛知県,名古屋市南区,汐田町１１－３,,23,112,4570016,,,,,,,2022-07-01,1,,,,,エスティーエー,0
837,4200001040236,新規,0,2022-07-01,2022-07-01,バナナカンパニー株式会社,,株式会社,岐阜県,岐阜市,薮田南３丁目１４番２４号コミーテ薮田Ａ１０２,,21,201,5008384,,,,,,,2022-07-01,1,,,,,バナナカンパニー,0
842,4230003001877,新規,0,2022-07-01,2022-07-01,合同会社ライフ,,合同会社,富山県,富山市,東町２丁目４番５－４０２号福一ビル,,16,201,9300039,,,,,,,2022-07-01,1,,,,,ライフ,0
865,4290001098092,新規,0,2022-07-01,2022-07-01,株式会社グッドセキュリティー,,株式会社,福岡県,福岡市西区,西の丘２丁目３番１－３５４号,,40,135,8190046,,,,,,,2022-07-01,1,,,,,グッドセキュリティー,0
866,4290001098101,新規,0,2022-07-01,2022-07-01,株式会社ＰＩＣＳＡ,,株式会社,福岡県,福岡市中央区,輝国２丁目２５番８７号,,40,133,8100032,,,,,,,2022-07-01,1,,,,,ピクサ,0
876,4330001029885,新規,0,2022-07-01,2022-07-01,株式会社ラフィーヌ,,株式会社,熊本県,熊本市東区,月出１丁目７番２７号,,43,102,8620920,,,,,,,2022-07-01,1,,,,,ラフィーヌ,0
881,4360001030634,新規,0,2022-07-01,2022-07-01,株式会社Ｓｅｐｔｅｍｂｅｒ,,株式会社,沖縄県,沖縄市,比屋根４丁目１７番１－５０７号,,47,211,9042173,,,,,,,2022-07-01,1,,,,,セプテンバー,0
889,4380003005211,新規,0,2022-07-01,2022-07-01,ＲＨＢ合同会社,,合同会社,福島県,郡山市,朝日３丁目６番２０号,,07,203,9638024,,,,,,,2022-07-01,1,,,,,アールエイチビー,0
909,4500003002856,新規,0,2022-07-01,2022-07-01,Ｌｅｅｇａｌ合同会社,,合同会社,愛媛県,伊予郡松前町,大字西古泉１３５番地５,,38,401,7913134,,,,,,,2022-07-01,1,,,,,リーガル,0
951,5011001148426,新規,0,2022-07-01,2022-07-01,ＣＲＥＴＡ株式会社,,株式会社,東京都,渋谷区,桜丘町９番１７号,,13,113,1500031,,,,,,,2022-07-01,1,,,,,クレタ,0
952,5011101099338,新規,0,2022-07-01,2022-07-01,株式会社シャイニング,,株式会社,東京都,新宿区,西新宿７丁目２０番１－８０６号,,13,104,1600023,,,,,,,2022-07-01,1,,,,,シャイニング,0
953,5011101099395,新規,0,2022-07-01,2022-07-01,華光株式会社,,株式会社,東京都,新宿区,新宿４丁目１番２２号１００６室,,13,104,1600022,,,,,,,2022-07-01,1,,,,,カコウ,0
965,5011803005155,新規,0,2022-07-01,2022-07-01,合同会社ＳＨＲＥＳＴＨＡ,,合同会社,東京都,葛飾区,奥戸３丁目１４番１１号２階２０１号,,13,122,1240022,,,,,,,2022-07-01,1,,,,,シレスタ,0
969,5012801021689,新規,0,2022-07-01,2022-07-01,株式会社グリーン,,株式会社,東京都,国分寺市,光町１丁目４９番７アットイース１Ｆ,,13,214,1850034,,,,,,,2022-07-01,1,,,,,グリーン,0
975,5013303006204,新規,0,2022-07-01,2022-07-01,合同会社有線無線,,合同会社,東京都,豊島区,南大塚３丁目４７－７,,13,116,1700005,,,,,,,2022-07-01,1,,,,,ユウセンムセン,0
984,5021001076403,新規,0,2022-07-01,2022-07-01,株式会社ＷＯＬＦＴＩＭＥ,,株式会社,神奈川県,秦野市,南矢名２２５９番地,,14,211,2570003,,,,,,,2022-07-01,1,,,,,ウルフタイム,0
990,5021003011886,新規,0,2022-07-01,2022-07-01,合同会社リンカ,,合同会社,神奈川県,藤沢市,藤沢９６５番地,,14,205,2510052,,,,,,,2022-07-01,1,,,,,リンカ,0
1004,5040003020350,新規,0,2022-07-01,2022-07-01,合同会社ベイモート,,合同会社,千葉県,八千代市,勝田台南２丁目３１番地３１号,,12,221,2760025,,,,,,,2022-07-01,1,,,,,ベイモート,0
1017,5070001039398,新規,0,2022-07-01,2022-07-01,Ｍａｓｅｃ　Ｈｏｌｄｉｎｇｓ株式会社,,株式会社,群馬県,桐生市,菱町２丁目３５２７番地の４,,10,203,3760001,,,,,,,2022-07-01,1,,,,,マセックホールディングス,0
1018,5070003004532,新規,0,2022-07-01,2022-07-01,合同会社Ｆｉｃｓ,,合同会社,群馬県,吾妻郡中之条町,大字赤坂８３７‐２,,10,421,3770417,,,,,,,2022-07-01,1,,,,,フィックス,0
1054,5120001247012,新規,0,2022-07-01,2022-07-01,Ｆｉｏｒｄ水産株式会社,,株式会社,大阪府,大阪市中央区,南船場４丁目９－１２朝日プラザ心斎橋北２１３号室,,27,128,5420081,,,,,,,2022-07-01,1,,,,,フィオードスイサン,0
1055,5120001247029,新規,0,2022-07-01,2022-07-01,大洋株式会社,,株式会社,大阪府,大阪市生野区,巽東１丁目８－１２,00127067,27,116,5440014,,,,,,,2022-07-01,1,,,,,タイヨウ,0
1056,5120001247053,新規,0,2022-07-01,2022-07-01,株式会社ＵＮｉＡＺ,,株式会社,大阪府,大阪市中央区,谷町９丁目２－２７谷九ビル４０２,,27,128,5420012,,,,,,,2022-07-01,1,,,,,ユニアス,0
1064,5120101065826,新規,0,2022-07-01,2022-07-01,株式会社Ｐｌｕｓ１,,株式会社,大阪府,貝塚市,脇浜３丁目９番２１,,27,208,5970073,,,,,,,2022-07-01,1,,,,,プラスワン,0
1066,5120901046174,新規,0,2022-07-01,2022-07-01,沖インテリア株式会社,,株式会社,大阪府,摂津市,鳥飼新町２丁目１３番４号,,27,224,5660065,,,,,,,2022-07-01,1,,,,,オキインテリア,0
1067,5122001036023,新規,0,2022-07-01,2022-07-01,株式会社前田工業,,株式会社,大阪府,東大阪市,高井田西１丁目３番３８号,,27,227,5770067,,,,,,,2022-07-01,1,,,,,マエダコウギョウ,0
1072,5130001072095,新規,0,2022-07-01,2022-07-01,株式会社ＮＨパートナーズ,,株式会社,京都府,八幡市,美濃山幸水１９番地７,,26,210,6148279,,,,,,,2022-07-01,1,,,,,エヌエイチパートナーズ,0
1105,5210001018981,新規,0,2022-07-01,2022-07-01,株式会社いい部屋ドットコム,,株式会社,福井県,福井市,経田１丁目２０２番地１,,18,201,9100011,,,,,,,2022-07-01,1,,,,,イイヘヤドットコム,0
1115,5240001060007,新規,0,2022-07-01,2022-07-01,株式会社ｊ．ｈ．ｃ,,株式会社,広島県,広島市西区,古江新町四丁目２３番１０２号,,34,104,7330873,,,,,,,2022-07-01,1,,,,,ジェイエイチシー,0
1120,5240003005686,新規,0,2022-07-01,2022-07-01,合同会社Ｈ‐ＳＥ,,合同会社,広島県,福山市,高西町３丁目７番３号,,34,207,7290106,,,,,,,2022-07-01,1,,,,,エイチシー,0
1122,5260001036995,新規,0,2022-07-01,2022-07-01,株式会社ハシケン,,株式会社,岡山県,倉敷市,林２８３番地８,,33,202,7100142,,,,,,,2022-07-01,1,,,,,ハシケン,0
1140,5370001048740,新規,0,2022-07-01,2022-07-01,株式会社マコトグループ,,株式会社,宮城県,名取市,愛島台６丁目１番地の２０,,04,207,9811251,,,,,,,2022-07-01,1,,,,,マコトグループ,0
1164,5430001086949,新規,0,2022-07-01,2022-07-01,Ｐａｒｋ９０　Ｎｉｓｅｋｏ株式会社,,株式会社,北海道,虻田郡倶知安町,字山田１８１番地５５ＳＥＴＳＵ　ＮＩＳＥＫＯ１０２,,01,400,0440081,,,,,,,2022-07-01,1,,,,,パークナインティニセコ,0
1167,5430003014057,新規,0,2022-07-01,2022-07-01,Ｒ．Ａ合同会社,,合同会社,北海道,札幌市中央区,南五条西９丁目１０１４番地９,,01,101,0640805,,,,,,,2022-07-01,1,,,,,アールエー,0
1191,6010003037958,新規,0,2022-07-01,2022-07-01,ＢＰＩＴＣ合同会社,,合同会社,東京都,中央区,京橋２丁目８番２１号仁大ビル天翔オフィス京橋７階７２３号室,,13,102,1040031,,,,,,,2022-07-01,1,,,,,ビーピーアイティーシー,0
1192,6010005035191,新規,0,2022-07-01,2022-07-01,一般社団法人泰慈会,,その他の設立登記法人,東京都,中央区,新富１丁目１４番１０号新富ＳＫＹビル５Ｆ,,13,102,1040041,,,,,,,2022-07-01,1,,,,,タイジカイ,0
1197,6010401168248,新規,0,2022-07-01,2022-07-01,ＲｅｍｅｄｙＸＲ株式会社,,株式会社,東京都,港区,芝浦４丁目２１番１－４５１５号,,13,103,1080023,,,,,,,2022-07-01,1,,,,,レメディクロスリアリティ,0
1198,6010401168256,新規,0,2022-07-01,2022-07-01,プロトタイプ株式会社,,株式会社,東京都,港区,麻布十番２丁目８－１０,,13,103,1060045,,,,,,,2022-07-01,1,,,,,プロトタイプ,0
1200,6010501049042,新規,0,2022-07-01,2022-07-01,Ｇｅｎｉｅ　Ｍａｒｋ株式会社,,株式会社,東京都,台東区,寿４丁目１４番７号,,13,106,1110042,,,,,,,2022-07-01,1,,,,,ジーニーマーク,0
1203,6010601061418,新規,0,2022-07-01,2022-07-01,株式会社馨桐皓,,株式会社,東京都,江東区,東砂４丁目２３番１号,,13,108,1360074,,,,,,,2022-07-01,1,,,,,シントウコウ,0
1211,6010901051119,新規,0,2022-07-01,2022-07-01,株式会社ＰＡＮＡＫＥＩＡ,,株式会社,東京都,世田谷区,池尻３丁目２番３－８０１号,,13,112,1540001,,,,,,,2022-07-01,1,,,,,パナケイア,0
1212,6010901051143,新規,0,2022-07-01,2022-07-01,ＳＮＡＦＴＹ株式会社,,株式会社,東京都,世田谷区,太子堂５丁目３１番１３号３Ｆ,,13,112,1540004,,,,,,,2022-07-01,1,,,,,スナフティー,0
1223,6011003014492,新規,0,2022-07-01,2022-07-01,Ｔ＆Ｌ．Ｃｏ合同会社,,合同会社,東京都,目黒区,大橋１丁目５－１クロスエアタワー２０１９,,13,110,1530044,,,,,,,2022-07-01,1,,,,,ティーアンドエルコーポレーション,0
1224,6011101099361,新規,0,2022-07-01,2022-07-01,仲野商事株式会社,,株式会社,東京都,新宿区,新宿２丁目７番１１号,,13,104,1600022,,,,,,,2022-07-01,1,,,,,ナカノショウジ,0
1225,6011101099378,新規,0,2022-07-01,2022-07-01,株式会社ｆｌａｉｒ,,株式会社,東京都,新宿区,歌舞伎町１丁目１２番９号,,13,104,1600021,,,,,,,2022-07-01,1,,,,,フレア,0
1226,6011101099386,新規,0,2022-07-01,2022-07-01,株式会社全景,,株式会社,東京都,新宿区,西新宿６丁目１２－７ストーク新宿５０１,,13,104,1600023,,,,,,,2022-07-01,1,,,,,ゼンケイ,0
1228,6011103011902,新規,0,2022-07-01,2022-07-01,合同会社ＢＲＩＤＧＥ,,合同会社,東京都,新宿区,矢来町１１５番地東海神楽坂マンション８０２号室,,13,104,1620805,,,,,,,2022-07-01,1,,,,,ブリッジ,0
1237,6011805003189,新規,0,2022-07-01,2022-07-01,一般社団法人ＴＲＩ　ＦＬＡＫＥ,,その他の設立登記法人,東京都,足立区,島根１丁目１１番５号,,13,121,1210815,,,,,,,2022-07-01,1,,,,,トライフレイク,0
1238,6012401039354,新規,0,2022-07-01,2022-07-01,株式会社ＨＡＮＣＯＯＫ,,株式会社,東京都,小金井市,東町１丁目４４番３２号ファミリーハイツＥ１０１,,13,210,1840011,,,,,,,2022-07-01,1,,,,,ハンクック,0
1241,6012801021688,新規,0,2022-07-01,2022-07-01,株式会社ｃｏｔｔｏｎｂｅｒｒｙ,,株式会社,東京都,日野市,多摩平２丁目５番１号,,13,212,1910062,,,,,,,2022-07-01,1,,,,,コットンベリー,0
1244,6013301049294,新規,0,2022-07-01,2022-07-01,株式会社ＴＯＰ　ＬＩＮＥ,,株式会社,東京都,豊島区,南池袋３丁目１８－３５－ＯＫビル４０２,,13,116,1710022,,,,,,,2022-07-01,1,,,,,トップライン,0
1256,6020003022026,新規,0,2022-07-01,2022-07-01,合同会社ＹＴ,,合同会社,神奈川県,横浜市保土ケ谷区,和田２丁目３番１７号グリーンコーポ１０６号,,14,106,2400065,,,,,,,2022-07-01,1,,,,,ワイティ,0
1262,6021005012543,新規,0,2022-07-01,2022-07-01,特定非営利活動法人ナスクル,,その他の設立登記法人,神奈川県,平塚市,長持３０３番地の３,,14,203,2591217,,,,,,,2022-07-01,1,,,,,ナスクル,0
1268,6030001148714,新規,0,2022-07-01,2022-07-01,Ｔｈｅ　ｅｍｏ＆ｃｏ株式会社,,株式会社,埼玉県,行田市,大字南河原２０８７番地２,,11,206,3610084,,,,,,,2022-07-01,1,,,,,ザエモアンドコー,0
1287,6060001035034,新規,0,2022-07-01,2022-07-01,株式会社Ｊ．Ｐ商会,,株式会社,栃木県,小山市,大字喜沢２００番地１ハーモネートＩＩ１０４号室,00127062,09,208,3230014,,,,,,,2022-07-01,1,,,,,ジェーピーショウカイ,0
1292,6070001039397,新規,0,2022-07-01,2022-07-01,株式会社バース,,株式会社,群馬県,高崎市,新紺屋町１９番地１福田ビル１階,,10,202,3700821,,,,,,,2022-07-01,1,,,,,バース,0
1314,6120001247011,新規,0,2022-07-01,2022-07-01,海之匯株式会社,,株式会社,大阪府,大阪市東成区,神路４丁目３－１０スターレジデンス新深江４０７号室,,27,115,5370003,,,,,,,2022-07-01,1,,,,,ウミノカイ,0
1315,6120001247028,新規,0,2022-07-01,2022-07-01,禾泉株式会社,,株式会社,大阪府,大阪市中央区,久太郎町２丁目３番８号ハイム船場１０５号室,,27,128,5410056,,,,,,,2022-07-01,1,,,,,カセン,0
1316,6120001247052,新規,0,2022-07-01,2022-07-01,株式会社Ｒｅｎｃｏｎｔｒｅ,,株式会社,大阪府,大阪市西区,南堀江１丁目２番６号サムティ南堀江ビル４０１,,27,106,5500015,,,,,,,2022-07-01,1,,,,,ランコントル,0
1317,6120001247060,新規,0,2022-07-01,2022-07-01,株式会社エイティーワン,,株式会社,大阪府,大阪市淀川区,加島４丁目１３番７号,,27,123,5320031,,,,,,,2022-07-01,1,,,,,エイティーワン,0
1330,6130001072086,新規,0,2022-07-01,2022-07-01,株式会社不破工藝,,株式会社,京都府,京都市中京区,壬生御所ノ内町２７番地,,26,104,6048872,,,,,,,2022-07-01,1,,,,,フワコウゲイ,0
1331,6130001072111,新規,0,2022-07-01,2022-07-01,ＫＹＯＴＯホールディングス株式会社,,株式会社,京都府,亀岡市,篠町篠下西裏４３番地,,26,206,6210826,,,,,,,2022-07-01,1,,,,,キョウトホールディングス,0
1332,6130003008039,新規,0,2022-07-01,2022-07-01,合同会社Ｆａｉｚｅｌ,,合同会社,京都府,京都市西京区,樫原里ノ垣外町２０番地１３９,,26,111,6158143,,,,,,,2022-07-01,1,,,,,ファイゼル,0
1333,6130005016519,新規,0,2022-07-01,2022-07-01,一般社団法人海洋環境再生による二酸化炭素削減研究会,,その他の設立登記法人,京都府,京都市中京区,西ノ京樋ノ口町１１８番地,,26,104,6048424,,,,,,,2022-07-01,1,,,,,カイヨウカンキョウサイセイニヨルニサンカタンソサクゲンケンキュウカイ,0
1345,6180001151967,新規,0,2022-07-01,2022-07-01,ＳＯＢＡＢＡＣＣＨＵＳ株式会社,,株式会社,愛知県,名古屋市千種区,東山元町６丁目１２番地の１,,23,101,4640804,,,,,,,2022-07-01,1,,,,,ソババックス,0
1346,6180001151975,新規,0,2022-07-01,2022-07-01,株式会社ＭＩＲＡＩ,,株式会社,愛知県,名古屋市中区,新栄１丁目４８番４号市営千早荘１棟１１０６号,,23,106,4600007,,,,,,,2022-07-01,1,,,,,ミライ,0
1351,6180003023974,新規,0,2022-07-01,2022-07-01,合同会社ＷＡＲＡＫＵ,,合同会社,愛知県,名古屋市中区,丸の内３丁目５番２８号サウスレジデンス丸の内５Ｅ,,23,106,4600002,,,,,,,2022-07-01,1,,,,,ワラク,0
1366,6200003005607,新規,0,2022-07-01,2022-07-01,合同会社ＲＥＧＩＳＴＡ,,合同会社,岐阜県,岐阜市,則武中１丁目１５番４号,,21,201,5020932,,,,,,,2022-07-01,1,,,,,レジスタ,0
1377,6240003005685,新規,0,2022-07-01,2022-07-01,合同会社スペースプラス,,合同会社,広島県,尾道市,向島町５５８５－６０,,34,205,7220073,,,,,,,2022-07-01,1,,,,,スペースプラス,0
1384,6270005005524,新規,0,2022-07-01,2022-07-01,特定非営利活動法人山陰医療人材育成支援機構,,その他の設立登記法人,鳥取県,米子市,西町３６番地１,,31,202,6830826,,,,,,,2022-07-01,1,,,,,サンインイリョウジンザイイクセイシエンキコウ,0
1389,6290001098099,新規,0,2022-07-01,2022-07-01,株式会社Ｂｅ‐ＧＥＮＴ,,株式会社,福岡県,福岡市中央区,平和３丁目２０－２０－６０１号グラーナ平尾大池,,40,133,8100016,,,,,,,2022-07-01,1,,,,,ビージェント,0
1417,6400003002955,新規,0,2022-07-01,2022-07-01,合同会社北一地所,,合同会社,岩手県,北上市,柳原町５丁目１７番２２号グリーンベル３０８,,03,206,0240083,,,,,,,2022-07-01,1,,,,,キタイチジショ,0
1430,6460401001248,新規,0,2022-07-01,2022-07-01,株式会社イーストフロント北海道,,株式会社,北海道,根室市,緑町１丁目１９番地,,01,223,0870051,,,,,,,2022-07-01,1,,,,,イーストフロントホッカイドウ,0
1455,7010401168230,新規,0,2022-07-01,2022-07-01,スピカアイリス株式会社,,株式会社,東京都,港区,虎ノ門５丁目１１－１５虎ノ門ＫＴビル２階,,13,103,1050001,,,,,,,2022-07-01,1,,,,,スピカアイリス,0
1456,7010401168247,新規,0,2022-07-01,2022-07-01,ＭＩＲＩＺＥ株式会社,,株式会社,東京都,港区,三田３丁目４番３号ＲＩＰＬ９,,13,103,1080073,,,,,,,2022-07-01,1,,,,,ミライズ,0
1460,7010501049041,新規,0,2022-07-01,2022-07-01,ＬＵＸＧＯ株式会社,,株式会社,東京都,台東区,浅草橋５丁目５－５近江屋ビル６Ｆ,,13,106,1110053,,,,,,,2022-07-01,1,,,,,ルクスゴー,0
1462,7010601061417,新規,0,2022-07-01,2022-07-01,株式会社ＪＮＥインターナショナル,,株式会社,東京都,墨田区,向島４丁目３番８号グレイス向島２０１Ａ号室,,13,107,1310033,,,,,,,2022-07-01,1,,,,,ジェーエヌイーインターナショナル,0
1469,7010701042894,新規,0,2022-07-01,2022-07-01,株式会社Ｋ＆Ｏ　ｃｏｍｐａｎｙ,,株式会社,東京都,品川区,西品川２丁目２２番１４号,,13,109,1410033,,,,,,,2022-07-01,1,,,,,ケーアンドオーカンパニー,0
1480,7011005009639,新規,0,2022-07-01,2022-07-01,一般財団法人林武記念財団,,その他の設立登記法人,東京都,渋谷区,神山町２２番２号,,13,113,1500047,,,,,,,2022-07-01,1,,,,,ハヤシタケシキネンザイダン,0
1482,7011101099385,新規,0,2022-07-01,2022-07-01,インボディチェック株式会社,,株式会社,東京都,新宿区,北新宿３丁目２９番１６号メゾネット三貴２０３,,13,104,1690074,,,,,,,2022-07-01,1,,,,,インボディチェック,0
1485,7011105010315,新規,0,2022-07-01,2022-07-01,ＢＤＯ司法書士法人,,その他の設立登記法人,東京都,新宿区,西新宿１丁目２４番１号,,13,104,1600023,,,,,,,2022-07-01,1,,,,,ビーディーオー,0
1486,7011201023922,新規,0,2022-07-01,2022-07-01,株式会社Ｈｉｇｈｎｅｓｓ,,株式会社,東京都,中野区,中野５丁目３番２４号ヴワ・ドールビル６階,,13,114,1640001,,,,,,,2022-07-01,1,,,,,ハイネス,0
1502,7013301049319,新規,0,2022-07-01,2022-07-01,株式会社ＦＯＵＲ　ＤＩＲＥＣＴＩＯＮ,,株式会社,東京都,豊島区,池袋３丁目３４番７号ビジネスパーク池袋２階,,13,116,1710014,,,,,,,2022-07-01,1,,,,,フォーディレクション,0
1512,7020003022025,新規,0,2022-07-01,2022-07-01,Ｗｈｏｌｗｅｌｌ合同会社,,合同会社,神奈川県,川崎市川崎区,駅前本町１１番地２川崎フロンティアビル４階,,14,131,2100007,,,,,,,2022-07-01,1,,,,,ホールウェル,0
1515,7021001076401,新規,0,2022-07-01,2022-07-01,株式会社ＥＶａ,,株式会社,神奈川県,厚木市,鳶尾２丁目５－１０,,14,212,2430204,,,,,,,2022-07-01,1,,,,,エヴァ,0
1521,7030003019672,新規,0,2022-07-01,2022-07-01,合同会社Ｃｈｉｃｋ　Ｄｒｅａｍ,,合同会社,埼玉県,越谷市,大成町１丁目２２９－６,,11,222,3430825,,,,,,,2022-07-01,1,,,,,チックドリーム,0
1548,7090001017648,新規,0,2022-07-01,2022-07-01,株式会社Ｈ＆Ｒ,,株式会社,山梨県,甲府市,伊勢４丁目２５番２３号,,19,201,4000856,,,,,,,2022-07-01,1,,,,,エイチアンドアール,0
1563,7120001247027,新規,0,2022-07-01,2022-07-01,御隼貿易株式会社,,株式会社,大阪府,大阪市西成区,花園南２丁目７番２６－３０１号,,27,122,5570015,,,,,,,2022-07-01,1,,,,,ミジュンボウエキ,0
1569,7120003021990,新規,0,2022-07-01,2022-07-01,合同会社きんたろう,,合同会社,大阪府,大阪市東成区,深江南１丁目９番２８号ジョイフル深江南３０２号室,,27,115,5370002,,,,,,,2022-07-01,1,,,,,キンタロウ,0
1570,7120003021999,新規,0,2022-07-01,2022-07-01,慈＿合同会社,00127068,合同会社,大阪府,大阪市西成区,旭１丁目９番４号カトレアマンション１０４号室,,27,122,5570032,,,,,,,2022-07-01,1,,,,,ジイク,0
1582,7130001072085,新規,0,2022-07-01,2022-07-01,株式会社スマイルハウス,,株式会社,京都府,京都市左京区,静市市原町１３３１番地,,26,103,6011123,,,,,,,2022-07-01,1,,,,,スマイルハウス,0
1583,7130001072093,新規,0,2022-07-01,2022-07-01,株式会社メッセージ,,株式会社,京都府,京都市中京区,式阿弥町１３０番地ＳＨＩＫＩＡＭＩＣＯＮＣＯＮ・Ｎｏ．１１,,26,104,6048261,,,,,,,2022-07-01,1,,,,,メッセージ,0
1584,7130001072102,新規,0,2022-07-01,2022-07-01,株式会社リベルタプロモーション,,株式会社,京都府,京都市下京区,四条通室町東入函谷鉾町１０１アーバンネット四条烏丸ビル６階,,26,106,6008009,,,,,,,2022-07-01,1,,,,,リベルタプロモーション,0
1606,7180303005374,新規,0,2022-07-01,2022-07-01,鎌倉合同会社,,合同会社,愛知県,刈谷市,若松町５丁目１番地２レオパレスネオハピネス１０４,,23,210,4480858,,,,,,,2022-07-01,1,,,,,カマクラ,0
1623,7260001036985,新規,0,2022-07-01,2022-07-01,株式会社ＯＷＬ警備,,株式会社,岡山県,赤磐市,桜が丘東５丁目５番地１１８,,33,213,7090721,,,,,,,2022-07-01,1,,,,,アウルケイビ,0
1626,7290001098098,新規,0,2022-07-01,2022-07-01,Ｐｅａｋ株式会社,,株式会社,福岡県,福岡市中央区,薬院３丁目３番５号７Ａ,,40,133,8100022,,,,,,,2022-07-01,1,,,,,ピーク,0
1627,7290801028675,新規,0,2022-07-01,2022-07-01,株式会社きんかん,,株式会社,福岡県,北九州市八幡西区,藤原１丁目２番３４号,,40,109,8070873,,,,,,,2022-07-01,1,,,,,キンカン,0
1634,7360003012132,新規,0,2022-07-01,2022-07-01,合同会社オフィスこらんでぃおん,,合同会社,沖縄県,那覇市,首里汀良町１丁目５５番地メゾンＳ＆ＫＢ－２１１,,47,201,9030806,,,,,,,2022-07-01,1,,,,,オフィスコランディオン,0
1658,7470001019135,新規,0,2022-07-01,2022-07-01,ココイキ福祉サービス株式会社,,株式会社,香川県,丸亀市,綾歌町岡田東１９８０番地１,,37,202,7612404,,,,,,,2022-07-01,1,,,,,ココイキフクシサービス,0
1665,7700150110653,新規,0,2022-07-01,2022-07-01,上小泉町内会,,その他,富山県,滑川市,上小泉２６７９,,16,206,9360053,,,,,,,2022-07-01,1,,,,,カミコイズミチョウナイカイ,0
1677,8010003037997,新規,0,2022-07-01,2022-07-01,合同会社ＡＤＳ　Ｃａｐｉｔａｌ　Ｐａｒｔｎｅｒｓ,,合同会社,東京都,中央区,日本橋馬喰町２丁目７番１５号ザ・パークレックス日本橋馬喰町ビル３階,,13,102,1030002,,,,,,,2022-07-01,1,,,,,エーディーエスキャピタルパートナーズ,0
1702,8010901051141,新規,0,2022-07-01,2022-07-01,株式会社Ｍｅｇｕｒｏ　Ｗｏｒｋｓ,,株式会社,東京都,世田谷区,東玉川１丁目９番２０号,,13,112,1580084,,,,,,,2022-07-01,1,,,,,メグロワークス,0
1706,8011001148407,新規,0,2022-07-01,2022-07-01,株式会社Ｌｕｅｕｒ,,株式会社,東京都,渋谷区,初台１丁目５番５号アルテシモフォルテ８０１,,13,113,1510061,,,,,,,2022-07-01,1,,,,,リュウル,0
1707,8011001148431,新規,0,2022-07-01,2022-07-01,株式会社ＴＯＫＹＯ　ＨＩＲＯＹＡ　ＨＯＬＤＩＮＧＳ,,株式会社,東京都,渋谷区,富ヶ谷２丁目２０番７号,,13,113,1510063,,,,,,,2022-07-01,1,,,,,トウキョウヒロヤホールディングス,0
1713,8011101099384,新規,0,2022-07-01,2022-07-01,株式会社Ｏｒｉｅｎｔａｌ　Ｐｅａｒｌ　Ｐａｒｔｎｅｒ,,株式会社,東京都,新宿区,大久保１丁目１１番１０号,,13,104,1690072,,,,,,,2022-07-01,1,,,,,オリエンタルパールパートナー,0
1714,8011101099392,新規,0,2022-07-01,2022-07-01,Ｔｉｍｏ株式会社,,株式会社,東京都,新宿区,西新宿６丁目１２番１号,,13,104,1600023,,,,,,,2022-07-01,1,,,,,ティモ,0
1743,8020001147054,新規,0,2022-07-01,2022-07-01,ＩＮＦＡＲＶＥＥＤ株式会社,,株式会社,神奈川県,横浜市保土ケ谷区,岩井町２９番地４ｋｉｋｃａｆｅ,,14,106,2400023,,,,,,,2022-07-01,1,,,,,インファベート,0
1744,8020001147137,新規,0,2022-07-01,2022-07-01,株式会社モリタプランニング,,株式会社,神奈川県,横浜市鶴見区,矢向６丁目４－２７,,14,101,2300001,,,,,,,2022-07-01,1,,,,,モリタプランニング,0
1745,8020001147145,新規,0,2022-07-01,2022-07-01,株式会社モウリ,,株式会社,神奈川県,横浜市西区,桜木町４丁目２１番１号ＹＳＣ横浜ビル１階,,14,103,2200021,,,,,,,2022-07-01,1,,,,,モウリ,0
1746,8020001147153,新規,0,2022-07-01,2022-07-01,株式会社インティ,,株式会社,神奈川県,横浜市神奈川区,白幡上町３９番５号,,14,102,2210075,,,,,,,2022-07-01,1,,,,,インティ,0
1750,8020003022008,新規,0,2022-07-01,2022-07-01,宙コーポレーション合同会社,,合同会社,神奈川県,横浜市神奈川区,三ツ沢下町２０番２３－９０５号,,14,102,2210852,,,,,,,2022-07-01,1,,,,,ソラコーポレーション,0
1752,8021001076391,新規,0,2022-07-01,2022-07-01,株式会社Ｒｉｔ,,株式会社,神奈川県,秦野市,北矢名１５８番地の１パリオ北矢名２０５号,,14,211,2570006,,,,,,,2022-07-01,1,,,,,リット,0
1756,8021003011883,新規,0,2022-07-01,2022-07-01,合同会社Ｖｅｎｕｓ　Ｔｒａｄｉｎｇ,,合同会社,神奈川県,海老名市,東柏ケ谷１丁目１３番１０号古川ビル３０６号室,,14,215,2430401,,,,,,,2022-07-01,1,,,,,ヴィーナストレーディング,0
1764,8030001148935,新規,0,2022-07-01,2022-07-01,株式会社ビッグ,,株式会社,埼玉県,さいたま市大宮区,桜木町２丁目３番地大宮マルイ７階,,11,103,3300854,,,,,,,2022-07-01,1,,,,,ビッグ,0
1772,8040003020273,新規,0,2022-07-01,2022-07-01,合同会社Ｅｍｏｃｉｏｎ,,合同会社,千葉県,松戸市,新松戸北２丁目９番地の２ラフィーヌ池田１番館２０３号,,12,207,2700032,,,,,,,2022-07-01,1,,,,,エモーション,0
1776,8050003006651,新規,0,2022-07-01,2022-07-01,合同会社ひゃくぼり,,合同会社,茨城県,ひたちなか市,大字津田３４８３番地,,08,221,3120032,,,,,,,2022-07-01,1,,,,,ヒャクボリ,0
1778,8060001035032,新規,0,2022-07-01,2022-07-01,株式会社ＨＩＮＡＴＡ,,株式会社,栃木県,宇都宮市,鶴田町２４８４番地８,,09,201,3200851,,,,,,,2022-07-01,1,,,,,ヒナタ,0
1779,8060003004126,新規,0,2022-07-01,2022-07-01,合同会社ＳＥＮＯＮ　ＩＮＴＥＲＮＡＴＩＯＮＡＬ,,合同会社,栃木県,真岡市,石島８３３番地１マルワハイツＡ２０１号室,,09,209,3214507,,,,,,,2022-07-01,1,,,,,セノンインターナショナル,0
1791,8080001025048,新規,0,2022-07-01,2022-07-01,創美株式会社,,株式会社,静岡県,静岡市清水区,三保７６１番地の１,,22,103,4240901,,,,,,,2022-07-01,1,,,,,ソウビ,0
1806,8120001247042,新規,0,2022-07-01,2022-07-01,株式会社Ｐｌｕｓｉｎｇ,,株式会社,大阪府,大阪市西区,北堀江１丁目２２番２５号プレジール北堀江１１Ｆ,,27,106,5500014,,,,,,,2022-07-01,1,,,,,プラスイング,0
1807,8120001247059,新規,0,2022-07-01,2022-07-01,大阪軒揚商事株式会社,,株式会社,大阪府,大阪市西区,九条南２丁目１６番１３号九条南ビル３０４号室,,27,106,5500025,,,,,,,2022-07-01,1,,,,,オオサカケンヨウショウジ,0
1812,8120003021998,新規,0,2022-07-01,2022-07-01,合同会社八望星,,合同会社,大阪府,大阪市東淀川区,大桐２丁目１５番１３号,,27,114,5330011,,,,,,,2022-07-01,1,,,,,ハチボウセイ,0
1818,8130001072101,新規,0,2022-07-01,2022-07-01,高橋不動産株式会社,,株式会社,京都府,京都市南区,上鳥羽西浦町４番地,,26,107,6018145,,,,,,,2022-07-01,1,,,,,タカハシフドウサン,0
1820,8130005016517,新規,0,2022-07-01,2022-07-01,一般社団法人日本ゴールキーパー協会,,その他の設立登記法人,京都府,京都市左京区,一乗寺花ノ木町１３番地１－１Ｆ,,26,103,6068151,,,,,,,2022-07-01,1,,,,,ニッポンゴールキーパーキョウカイ,0
1824,8140001126574,新規,0,2022-07-01,2022-07-01,Ｇｌｏｂａｌ　Ｔｒａｄｉｎｇ株式会社,,株式会社,兵庫県,姫路市,保城３６１－１サニーパレス保城４０４号室,,28,201,6700804,,,,,,,2022-07-01,1,,,,,グローバルトレーディング,0
1826,8140005026226,新規,0,2022-07-01,2022-07-01,弁護士法人多聞法律事務所,,その他の設立登記法人,兵庫県,神戸市中央区,多聞通２丁目１番７号法友会館４階,,28,110,6500015,,,,,,,2022-07-01,1,,,,,タモンホウリツジムショ,0
1832,8180003023997,新規,0,2022-07-01,2022-07-01,合同会社ひまわり,,合同会社,愛知県,丹羽郡扶桑町,大字高雄字薬師堂７２番地２,,23,362,4800102,,,,,,,2022-07-01,1,,,,,ヒマワリ,0
1836,8190005011719,新規,0,2022-07-01,2022-07-01,医療法人樹の道,,その他の設立登記法人,三重県,四日市市,小杉町４７４番地１,,24,202,5120902,,,,,,,2022-07-01,1,,,,,キノミチ,0
1837,8200001040232,新規,0,2022-07-01,2022-07-01,株式会社リースキンみの,,株式会社,岐阜県,大垣市,外渕４丁目９６番地,,21,202,5030934,,,,,,,2022-07-01,1,,,,,リースキンミノ,0
1862,8290801028674,新規,0,2022-07-01,2022-07-01,株式会社ＭＡＲＵＩ,,株式会社,福岡県,北九州市八幡東区,中央２丁目２４番５号芳賀ビル２Ｆ,,40,108,8050019,,,,,,,2022-07-01,1,,,,,マルイ,0
1867,8320001019165,新規,0,2022-07-01,2022-07-01,株式会社アサコ,,株式会社,大分県,国東市,国東町綱井１６１３番地,,44,214,8730513,,,,,,,2022-07-01,1,,,,,アサコ,0
1878,8360001030622,新規,0,2022-07-01,2022-07-01,株式会社ＭＡＫＡＮＡ,,株式会社,沖縄県,中頭郡北谷町,字伊平３０６番地４,,47,326,9040102,,,,,,,2022-07-01,1,,,,,マカナ,0
1895,8430001086946,新規,0,2022-07-01,2022-07-01,株式会社ＦＩＸ,,株式会社,北海道,恵庭市,柏木町５丁目５番６号,,01,231,0611423,,,,,,,2022-07-01,1,,,,,フィックス,0
1896,8430003014021,新規,0,2022-07-01,2022-07-01,合同会社リゾーム,,合同会社,北海道,札幌市中央区,宮ケ丘２丁目１番３０号,,01,101,0640959,,,,,,,2022-07-01,1,,,,,リゾーム,0
1897,8430003014062,新規,0,2022-07-01,2022-07-01,合同会社ＬＵＣＫ,,合同会社,北海道,札幌市厚別区,上野幌三条２丁目２５番１３号,,01,108,0040033,,,,,,,2022-07-01,1,,,,,ラック,0
1915,9010105002171,新規,0,2022-07-01,2022-07-01,光土地家屋調査士法人,,その他の設立登記法人,東京都,八王子市,めじろ台４丁目３番地１３,,13,201,1930833,,,,,,,2022-07-01,1,,,,,ヒカリ,0
1920,9010401168146,新規,0,2022-07-01,2022-07-01,株式会社Ｆａｂｕｌｏｕｓ　Ｔａｓｔｅ,,株式会社,東京都,港区,赤坂４丁目４－６パール赤坂３０１,,13,103,1070052,,,,,,,2022-07-01,1,,,,,ファビュラステイスト,0
1921,9010405021111,新規,0,2022-07-01,2022-07-01,一般社団法人ＭｗＭ　Ｊａｐａｎ,,その他の設立登記法人,東京都,港区,西麻布４丁目１１番１４号,,13,103,1060031,,,,,,,2022-07-01,1,,,,,ムゥムジャパン,0
1922,9010501049048,新規,0,2022-07-01,2022-07-01,株式会社Ｍ＆Ｙ,,株式会社,東京都,台東区,台東２丁目６番６号,,13,106,1100016,,,,,,,2022-07-01,1,,,,,エムアンドワイ,0
1924,9010603009610,新規,0,2022-07-01,2022-07-01,合同会社光,,合同会社,東京都,江東区,南砂４丁目３－１２,,13,108,1360076,,,,,,,2022-07-01,1,,,,,ヒカリ,0
1935,9011003014952,新規,0,2022-07-01,2022-07-01,３Ｆデザイン合同会社,,合同会社,東京都,渋谷区,神宮前６丁目２３番４号桑野ビル２階,,13,113,1500001,,,,,,,2022-07-01,1,,,,,スリーエフデザイン,0
1936,9011003014960,新規,0,2022-07-01,2022-07-01,合同会社ａｎｄ　ｐｌｕｓ,,合同会社,東京都,渋谷区,神宮前６丁目２３－４桑野ビル２Ｆ,,13,113,1500001,,,,,,,2022-07-01,1,,,,,アンドプラス,0
1937,9011201023929,新規,0,2022-07-01,2022-07-01,栄光スタイル株式会社,,株式会社,東京都,中野区,野方３丁目２３番３号モジュール２０２号室,,13,114,1650027,,,,,,,2022-07-01,1,,,,,エイコウスタイル,0
1945,9011801040935,新規,0,2022-07-01,2022-07-01,株式会社肥東工業,,株式会社,東京都,足立区,弘道２丁目２７番２号コーポ岩間２０１,,13,121,1200013,,,,,,,2022-07-01,1,,,,,ヒトウコウギョウ,0
1948,9012405004756,新規,0,2022-07-01,2022-07-01,特定非営利活動法人Ｔｏｕｃｈ　ｔｈｅ　Ｆｕｔｕｒｅ,,その他の設立登記法人,東京都,調布市,柴崎２丁目２８番地６上ノ原ハイツ２０１,,13,208,1820014,,,,,,,2022-07-01,1,,,,,タッチザフューチャー,0
1949,9012803002824,新規,0,2022-07-01,2022-07-01,合同会社ＪＵＮＩ,,合同会社,東京都,国立市,西２丁目６番地の２１,,13,215,1860005,,,,,,,2022-07-01,1,,,,,ジュニ,0
1950,9013103001145,新規,0,2022-07-01,2022-07-01,合同会社ＵＮＩ．,,合同会社,東京都,福生市,大字福生１１３９番地３,,13,218,1970011,,,,,,,2022-07-01,1,,,,,ユニ,0
1961,9020001147144,新規,0,2022-07-01,2022-07-01,株式会社ＳａｋｕｒａＳｕｎｎｙ,,株式会社,神奈川県,横浜市南区,六ツ川１丁目３４１番地,,14,105,2320066,,,,,,,2022-07-01,1,,,,,サクラサニー,0
1971,9030001148950,新規,0,2022-07-01,2022-07-01,株式会社黒澤製作所,,株式会社,埼玉県,八潮市,大字木曽根７３９番地１,,11,234,3400813,,,,,,,2022-07-01,1,,,,,クロサワセイサクジョ,0
1980,9040001123960,新規,0,2022-07-01,2022-07-01,株式会社ＧＲｏｗＺ,,株式会社,千葉県,柏市,根戸４６７－３０広瀬ビル２０２,,12,217,2770831,,,,,,,2022-07-01,1,,,,,グロウズ,0
1983,9050003006659,新規,0,2022-07-01,2022-07-01,ＷＯＮＡＤＩ合同会社,,合同会社,茨城県,龍ケ崎市,若柴町３０６０番地１スターハイツＡ棟Ｆ号室,,08,208,3010041,,,,,,,2022-07-01,1,,,,,ウナディ,0
1988,9060003004125,新規,0,2022-07-01,2022-07-01,合同会社ＣＥＹＬＯＮ　ＨＵＴ,,合同会社,栃木県,佐野市,伊勢山町９６５番地１,,09,204,3270817,,,,,,,2022-07-01,1,,,,,セイロンハット,0
1994,9080001025047,新規,0,2022-07-01,2022-07-01,株式会社堀田,,株式会社,静岡県,静岡市葵区,上足洗２丁目６番２０号,,22,101,4200841,,,,,,,2022-07-01,1,,,,,ホッタ,0
2010,9120001247041,新規,0,2022-07-01,2022-07-01,株式会社ＨＡＮＳＯＬ,,株式会社,大阪府,大阪市生野区,鶴橋２丁目１４番８号,,27,116,5440031,,,,,,,2022-07-01,1,,,,,ハンソル,0
2022,9120901046179,新規,0,2022-07-01,2022-07-01,株式会社グリーンスター,,株式会社,大阪府,箕面市,瀬川２丁目４番４１号,,27,220,5620045,,,,,,,2022-07-01,1,,,,,グリーンスター,0
2025,9130001072091,新規,0,2022-07-01,2022-07-01,株式会社森本総業,,株式会社,京都府,京都市北区,大将軍一条町１３３番地,,26,101,6038336,,,,,,,2022-07-01,1,,,,,モリモトソウギョウ,0
2026,9130001072100,新規,0,2022-07-01,2022-07-01,マイケイプラス株式会社,,株式会社,京都府,舞鶴市,北浜町１番地９,,26,202,6250050,,,,,,,2022-07-01,1,,,,,マイケイプラス,0
2032,9130005016516,新規,0,2022-07-01,2022-07-01,一般社団法人子育て支援ぼちぼちステーション,,その他の設立登記法人,京都府,長岡京市,神足太田１番地７,,26,209,6170833,,,,,,,2022-07-01,1,,,,,コソダテシエンボチボチステーション,0
2038,9140001126581,新規,0,2022-07-01,2022-07-01,ライジング・ドラゴン株式会社,,株式会社,兵庫県,尼崎市,西難波町４丁目１番１２号,,28,202,6600893,,,,,,,2022-07-01,1,,,,,ライジングドラゴン,0
2039,9150003002722,新規,0,2022-07-01,2022-07-01,マンダレー・ヤマト合同会社,,合同会社,奈良県,香芝市,磯壁４丁目２００番地１－２０７号,,29,210,6390236,,,,,,,2022-07-01,1,,,,,マンダレーヤマト,0
2049,9180001151972,新規,0,2022-07-01,2022-07-01,ジョイスターエナジー株式会社,,株式会社,愛知県,名古屋市中区,大須１丁目７番１４号パークＩＭビル２Ｆ,,23,106,4600011,,,,,,,2022-07-01,1,,,,,ジョイスターエナジー,0
2051,9180003023996,新規,0,2022-07-01,2022-07-01,美清合同会社,,合同会社,愛知県,名古屋市中川区,松重町３番４８号,,23,110,4540003,,,,,,,2022-07-01,1,,,,,ミスズ,0
2058,9200001040223,新規,0,2022-07-01,2022-07-01,株式会社ＡＥＣ,,株式会社,岐阜県,岐阜市,本荘西１丁目８５番地１,,21,201,5008361,,,,,,,2022-07-01,1,,,,,エーイーシー,0
2086,9290801028665,新規,0,2022-07-01,2022-07-01,株式会社ＴＦＴ,,株式会社,福岡県,宮若市,脇田２４６６番地２,,40,226,8220133,,,,,,,2022-07-01,1,,,,,ティーエフティー,0
2087,9290801028673,新規,0,2022-07-01,2022-07-01,株式会社９月３日,,株式会社,福岡県,北九州市小倉北区,朝日ケ丘３－２８,,40,106,8030833,,,,,,,2022-07-01,1,,,,,クガツミッカ,0
2095,9340003003841,新規,0,2022-07-01,2022-07-01,はじまる合同会社,,合同会社,鹿児島県,曽於郡大崎町,永吉３２１９,,46,468,8997306,,,,,,,2022-07-01,1,,,,,ハジマル,0
2098,9370001048737,新規,0,2022-07-01,2022-07-01,だんとつらーめん株式会社,,株式会社,宮城県,仙台市青葉区,国分町１丁目８番１４号,,04,101,9800803,,,,,,,2022-07-01,1,,,,,ダントツラーメン,0
2106,9400001015931,新規,0,2022-07-01,2022-07-01,株式会社エフジェイアイ,,株式会社,岩手県,花巻市,成田第１４地割３番地２,,03,205,0250023,,,,,,,2022-07-01,1,,,,,エフジェイアイ,0
2114,9430001086937,新規,0,2022-07-01,2022-07-01,株式会社ケアスル,,株式会社,北海道,札幌市中央区,南六条東２丁目４番地１,,01,101,0600056,,,,,,,2022-07-01,1,,,,,ケアスル,0
2115,9430003014053,新規,0,2022-07-01,2022-07-01,合同会社元遥建設興業,,合同会社,北海道,札幌市清田区,里塚二条３丁目７－１０,,01,110,0040802,,,,,,,2022-07-01,1,,,,,モトハルケンセツコウギョウ,0
2116,9430003014061,新規,0,2022-07-01,2022-07-01,合同会社ａ．ｌｉｖｅ,,合同会社,北海道,小樽市,天神１丁目２５－２６,,01,203,0470011,,,,,,,2022-07-01,1,,,,,アライブ,0
