sequenceNumber,corporateNumber,process,correct,updateDate,changeDate,name,nameImageId,kind,prefectureName,cityName,streetNumber,addressImageId,prefectureCode,cityCode,postCode,addressOutside,addressOutsideImageId,closeDate,closeCause,successorCorporateNumber,changeCause,assignmentDate,latest,enName,enPrefectureName,enCityName,enAddressOutside,furigana,hihyoji
9,1010001245559,新規,0,2024-06-26,2024-06-26,タルケットジャパン株式会社,,株式会社,東京都,千代田区,丸の内１丁目１番３号日本生命丸の内ガーデンタワー３階,,13,101,1000005,,,,,,,2024-06-26,1,,,,,タルケットジャパン,0
10,1010001246020,新規,0,2024-06-26,2024-06-26,ノード・パシフィック・メディカル株式会社,,株式会社,東京都,中央区,日本橋本町２丁目２番２号日本橋本町ＹＳビル２階,,13,102,1030023,,,,,,,2024-06-26,1,,,,,ノードパシフィックメディカル,0
11,1010001246029,新規,0,2024-06-26,2024-06-26,ＬＩＶＥ　Ｄｏｃｔｏｒ株式会社,,株式会社,東京都,中央区,日本橋３丁目９－１,,13,102,1030027,,,,,,,2024-06-26,1,,,,,ライブドクター,0
12,1010001246037,新規,0,2024-06-26,2024-06-26,イレブンズ株式会社,,株式会社,東京都,中央区,銀座１丁目１２番４号,,13,102,1040061,,,,,,,2024-06-26,1,,,,,イレブンズ,0
13,1010001246053,新規,0,2024-06-26,2024-06-26,ラスエステート株式会社,,株式会社,東京都,中央区,日本橋大伝馬町１３－７日本橋大富ビル２Ｆ,,13,102,1030011,,,,,,,2024-06-26,1,,,,,ラスエステート,0
14,1010001246086,新規,0,2024-06-26,2024-06-26,カイエン株式会社,,株式会社,東京都,中央区,銀座１丁目１２―４Ｎ＆ＥＢＬＤ．６Ｆ,,13,102,1040061,,,,,,,2024-06-26,1,,,,,カイエン,0
16,1010003044050,新規,0,2024-06-26,2024-06-26,合同会社Ｒａｄｉｏｌｏｇｙ　Ｓｏｌｕｔｉｏｎｓ,,合同会社,東京都,千代田区,平河町２丁目５－２－２０１,,13,101,1020093,,,,,,,2024-06-26,1,,,,,ラジオロジーソリユーシヨンズ,0
17,1010003044141,新規,0,2024-06-26,2024-06-26,Ｂ７　Ｊａｐａｎ合同会社,,合同会社,東京都,中央区,銀座４丁目１４番１１号七十七銀座ビル８階,,13,102,1040061,,,,,,,2024-06-26,1,,,,,ビーセブンジャパン,0
18,1010003044166,新規,0,2024-06-26,2024-06-26,シリーズ合同会社,,合同会社,東京都,中央区,銀座１丁目２２番１１号銀座大竹ビジデンス２Ｆ,,13,102,1040061,,,,,,,2024-06-26,1,,,,,シリーズ,0
20,1010005038463,新規,0,2024-06-26,2024-06-26,一般社団法人槇,,その他の設立登記法人,東京都,千代田区,丸の内３丁目１番１号東京共同会計事務所内,,13,101,1000005,,,,,,,2024-06-26,1,,,,,マキ,0
28,1010501052513,新規,0,2024-06-26,2024-06-26,株式会社ユニバーサル,,株式会社,東京都,台東区,台東２丁目５番１１号,,13,106,1100016,,,,,,,2024-06-26,1,,,,,ユニバーサル,0
35,1010701046174,新規,0,2024-06-26,2024-06-26,株式会社ＴＩＣ,,株式会社,東京都,品川区,小山５丁目１４番１０号ラ・フレージェ３０５,,13,109,1420062,,,,,,,2024-06-26,1,,,,,ティーアイシー,0
36,1010701046182,新規,0,2024-06-26,2024-06-26,株式会社川原ソフト開発,,株式会社,東京都,品川区,戸越１丁目２１番５号ＫＳコート３０１,,13,109,1420041,,,,,,,2024-06-26,1,,,,,カワハラソフトカイハツ,0
38,1010801035176,新規,0,2024-06-26,2024-06-26,ケーディーアイコンズ株式会社,,株式会社,東京都,大田区,大森南４丁目６番１５号,,13,111,1430013,,,,,,,2024-06-26,1,,,,,ケーディーアイコンズ,0
50,1011101107822,新規,0,2024-06-26,2024-06-26,株式会社Ｃａｎｅｌｌｅ．,,株式会社,東京都,新宿区,西新宿７丁目５番９－３１０４号,,13,104,1600023,,,,,,,2024-06-26,1,,,,,カヌレ,0
52,1011201025585,新規,0,2024-06-26,2024-06-26,株式会社Ｎｅｏ　Ｃｏｍｍｅｒｃｅ,,株式会社,東京都,中野区,江古田３丁目１４番３号,,13,114,1650022,,,,,,,2024-06-26,1,,,,,ネオコマース,0
54,1011301029791,新規,0,2024-06-26,2024-06-26,ａｒｋ　ｆｉｅｌｄ株式会社,,株式会社,東京都,杉並区,成田東５丁目１９－８小林マンション２０１,,13,115,1660015,,,,,,,2024-06-26,1,,,,,,0
55,1011401026210,新規,0,2024-06-26,2024-06-26,欣顔株式会社,,株式会社,東京都,板橋区,小茂根１丁目２５番１６号ＵＩＳビル２階２１３号,,13,119,1730037,,,,,,,2024-06-26,1,,,,,キンゲン,0
63,1011601027850,新規,0,2024-06-26,2024-06-26,株式会社輝,,株式会社,東京都,練馬区,石神井町３丁目２５－４ダイアパレス石神井公園３０６,,13,120,1770041,,,,,,,2024-06-26,1,,,,,カガヤク,0
67,1011801044431,新規,0,2024-06-26,2024-06-26,株式会社田原工業,,株式会社,東京都,足立区,鹿浜４丁目２４番１７号サンハイツ丸貞３０２号室,,13,121,1230864,,,,,,,2024-06-26,1,,,,,タハラコウギョウ,0
71,1012405005010,新規,0,2024-06-26,2024-06-26,一般社団法人和音,,その他の設立登記法人,東京都,小金井市,桜町２丁目７番１８号,,13,210,1840005,,,,,,,2024-06-26,1,,,,,ワオン,0
74,1013301052674,新規,0,2024-06-26,2024-06-26,奥陸資本株式会社,,株式会社,東京都,豊島区,高田３丁目４－１０－３０２号室,,13,116,1710033,,,,,,,2024-06-26,1,,,,,オクリクシホン,0
75,1013301052724,新規,0,2024-06-26,2024-06-26,株式会社エネパル,,株式会社,東京都,豊島区,西池袋１丁目４番１０号,,13,116,1710021,,,,,,,2024-06-26,1,,,,,エネパル,0
76,1013303007189,新規,0,2024-06-26,2024-06-26,合同会社リトリート,,合同会社,東京都,豊島区,上池袋４丁目２５番７号伊藤ビル２０１号,,13,116,1700012,,,,,,,2024-06-26,1,,,,,リトリート,0
88,1021001082603,新規,0,2024-06-26,2024-06-26,株式会社ＰＪトレーディング,,株式会社,神奈川県,厚木市,三田２８６０番地２,,14,212,2430211,,,,,,,2024-06-26,1,,,,,ピージェートレーディング,0
93,1030001161003,新規,0,2024-06-26,2024-06-26,ＭＩＫＡＤＯ　ＩＣＨＩＲＯ株式会社,,株式会社,埼玉県,新座市,新座１丁目３－２,,11,230,3520006,,,,,,,2024-06-26,1,,,,,ミカドイチロ,0
94,1030001161069,新規,0,2024-06-26,2024-06-26,ロクハチ株式会社,,株式会社,埼玉県,川口市,大字安行領根岸１８２５番地の３３,,11,203,3330834,,,,,,,2024-06-26,1,,,,,ロクハチ,0
95,1030001161093,新規,0,2024-06-26,2024-06-26,株式会社Ｊ‐Ｐｌａｎ,,株式会社,埼玉県,さいたま市中央区,下落合６丁目１２番２０号,,11,105,3380002,,,,,,,2024-06-26,1,,,,,ジェイプラン,0
96,1030001161102,新規,0,2024-06-26,2024-06-26,株式会社カスミノ,,株式会社,埼玉県,ふじみ野市,大井中央４丁目４番４号,,11,245,3560058,,,,,,,2024-06-26,1,,,,,カスミノ,0
97,1030001161110,新規,0,2024-06-26,2024-06-26,ＭＡＲＫ株式会社,,株式会社,埼玉県,さいたま市西区,大字佐知川１３６６番地２,,11,101,3310064,,,,,,,2024-06-26,1,,,,,マーク,0
98,1030001161135,新規,0,2024-06-26,2024-06-26,株式会社たいせつ,,株式会社,埼玉県,入間郡三芳町,大字上富１５４４番２２号,,11,324,3540045,,,,,,,2024-06-26,1,,,,,タイセツ,0
104,1030003024554,新規,0,2024-06-26,2024-06-26,ＮｅｗＢｅｅ商事合同会社,,合同会社,埼玉県,熊谷市,三ヶ尻３７２７三ケ尻センター１Ｆ‐Ａ０６,,11,202,3600843,,,,,,,2024-06-26,1,,,,,ニュービーショウジ,0
105,1030003024587,新規,0,2024-06-26,2024-06-26,ｓｕｎ　ｌｉｇｈｔ合同会社,,合同会社,埼玉県,上尾市,弁財１丁目９－７,,11,219,3620076,,,,,,,2024-06-26,1,,,,,サンライト,0
106,1030005021748,新規,0,2024-06-26,2024-06-26,特定非営利活動法人建志会,,その他の設立登記法人,埼玉県,三郷市,戸ケ崎３丁目５２番地１,,11,237,3410044,,,,,,,2024-06-26,1,,,,,ケンシカイ,0
112,1040001134189,新規,0,2024-06-26,2024-06-26,Ｚｅｎｉｔｈ　Ｂｕｓｉｎｅｓｓ　Ｓｏｌｕｔｉｏｎｓ株式会社,,株式会社,千葉県,市川市,湊３番３号,,12,203,2720131,,,,,,,2024-06-26,1,,,,,ゼニスビジネスソリューションズ,0
113,1040001134197,新規,0,2024-06-26,2024-06-26,株式会社真陽園,,株式会社,千葉県,柏市,南逆井１丁目１５番９号,,12,217,2770043,,,,,,,2024-06-26,1,,,,,シンヨウエン,0
114,1040001134222,新規,0,2024-06-26,2024-06-26,Ｈ＆Ａ株式会社,,株式会社,千葉県,市川市,宮久保１丁目１２番９号,,12,203,2720822,,,,,,,2024-06-26,1,,,,,エイチアンドエイ,0
115,1040001134230,新規,0,2024-06-26,2024-06-26,宝桃日中文化旅行諮詢株式会社,,株式会社,千葉県,市川市,市川１丁目１２番５号,,12,203,2720034,,,,,,,2024-06-26,1,,,,,ホウトウニッチュウブンカリョコウシシュン,0
116,1040001134239,新規,0,2024-06-26,2024-06-26,株式会社ＳＨＩＧＥＨＩＳＡ,,株式会社,千葉県,八千代市,麦丸１３９６番地８,,12,221,2760041,,,,,,,2024-06-26,1,,,,,シゲヒサ,0
126,1070001041903,新規,0,2024-06-26,2024-06-26,株式会社ドラゴンナイト,,株式会社,群馬県,前橋市,大友町３丁目２４番地１,,10,201,3710847,,,,,,,2024-06-26,1,,,,,ドラゴンナイト,0
138,1100001037600,新規,0,2024-06-26,2024-06-26,株式会社ＥｎＣｌｅ,,株式会社,長野県,北佐久郡軽井沢町,大字軽井沢５８１番地２,,20,321,3890102,,,,,,,2024-06-26,1,,,,,アンクル,0
147,1120001266206,新規,0,2024-06-26,2024-06-26,株式会社北祥開発,,株式会社,大阪府,大阪市旭区,大宮３丁目２番１９号,,27,117,5350002,,,,,,,2024-06-26,1,,,,,ホクショウカイハツ,0
148,1120001266255,新規,0,2024-06-26,2024-06-26,株式会社黒字経営研究所,,株式会社,大阪府,大阪市中央区,淡路町４丁目５番２号,,27,128,5410047,,,,,,,2024-06-26,1,,,,,クロジケイエイケンキュウショ,0
150,1120101069839,新規,0,2024-06-26,2024-06-26,株式会社ＢＯＯ,,株式会社,大阪府,羽曳野市,学園前４丁目６番１号,,27,222,5830868,,,,,,,2024-06-26,1,,,,,ブー,0
155,1130001077346,新規,0,2024-06-26,2024-06-26,ベクターハウス株式会社,,株式会社,京都府,京都市山科区,御陵封ジ山町７－４６－２１０号室,,26,110,6078422,,,,,,,2024-06-26,1,,,,,ベクターハウス,0
159,1140001134922,新規,0,2024-06-26,2024-06-26,ライノパートナーズ株式会社,,株式会社,兵庫県,神戸市中央区,三宮町３丁目７番６号神戸元町ユニオンビル９階,,28,110,6500021,,,,,,,2024-06-26,1,,,,,ライノパートナーズ,0
162,1140005027123,新規,0,2024-06-26,2024-06-26,一般社団法人兵庫県飲食業経営審議会,,その他の設立登記法人,兵庫県,尼崎市,久々知西町１丁目１番１号,,28,202,6610978,,,,,,,2024-06-26,1,,,,,ヒョウゴケンインショクギョウケイエイシンギカイ,0
166,1160005011315,新規,0,2024-06-26,2024-06-26,一般社団法人桔梗,,その他の設立登記法人,滋賀県,近江八幡市,出町１６２番地２,,25,204,5230892,,,,,,,2024-06-26,1,,,,,キキョウ,0
167,1170001018197,新規,0,2024-06-26,2024-06-26,ＨＴＦホールディングス株式会社,,株式会社,和歌山県,橋本市,神野々４５番地の２,,30,203,6480086,,,,,,,2024-06-26,1,,,,,エイチティーエフホールディングス,0
179,1180001162085,新規,0,2024-06-26,2024-06-26,株式会社ウーブンフィールド,,株式会社,愛知県,名古屋市昭和区,山脇町３丁目１０番地７,,23,107,4660063,,,,,,,2024-06-26,1,,,,,ウーブンフィールド,0
180,1180001162110,新規,0,2024-06-26,2024-06-26,ＮＧＫ　Ｎｅｗ　Ｂｕｓｉｎｅｓｓ株式会社,,株式会社,愛知県,名古屋市瑞穂区,須田町２番５６号,,23,108,4670871,,,,,,,2024-06-26,1,,,,,エヌジーケイニュービジネス,0
181,1180001162119,新規,0,2024-06-26,2024-06-26,株式会社プロフィット,,株式会社,愛知県,名古屋市中村区,名駅４丁目２４番５号第２森ビル４０１,,23,105,4500002,,,,,,,2024-06-26,1,,,,,プロフィット,0
182,1180001162151,新規,0,2024-06-26,2024-06-26,株式会社ＭＩＲＡＩ　ＨＥＡＲＴ,,株式会社,愛知県,名古屋市東区,泉１丁目１６番７号Ｋ２１ビル２階,,23,102,4610001,,,,,,,2024-06-26,1,,,,,ミライハート,0
186,1180005020677,新規,0,2024-06-26,2024-06-26,医療法人Ｓｅｖｅｎ　Ｈｅｒｂｓ,,その他の設立登記法人,愛知県,名古屋市北区,平安２丁目２４番５８号,,23,103,4620819,,,,,,,2024-06-26,1,,,,,セブンハーブス,0
189,1190005011964,新規,0,2024-06-26,2024-06-26,一般社団法人日本・酒じん協会,,その他の設立登記法人,三重県,伊賀市,広瀬７３４番地,,24,216,5181426,,,,,,,2024-06-26,1,,,,,ニホンサケジンキョウカイ,0
197,1210001019802,新規,0,2024-06-26,2024-06-26,株式会社ティープラス,,株式会社,福井県,福井市,照手２丁目４番７号,,18,201,9100024,,,,,,,2024-06-26,1,,,,,ティープラス,0
201,1240001063426,新規,0,2024-06-26,2024-06-26,株式会社ＳＫコンサルタント,,株式会社,広島県,福山市,箕島町６１２６番地５,,34,207,7210957,,,,,,,2024-06-26,1,,,,,エスケーコンサルタント,0
215,1290001106254,新規,0,2024-06-26,2024-06-26,株式会社ＦＫエステート,,株式会社,福岡県,福岡市中央区,天神４丁目６番２８号天神ファーストビル７階,,40,133,8100001,,,,,,,2024-06-26,1,,,,,エフケーエステート,0
216,1290001106279,新規,0,2024-06-26,2024-06-26,株式会社エリアス,,株式会社,福岡県,福岡市博多区,店屋町１番２１号,,40,132,8120025,,,,,,,2024-06-26,1,,,,,エリアス,0
217,1290001106287,新規,0,2024-06-26,2024-06-26,南和株式会社,,株式会社,福岡県,糟屋郡粕屋町,大字江辻２１７番地,,40,349,8112313,,,,,,,2024-06-26,1,,,,,ナンワ,0
224,1290801030661,新規,0,2024-06-26,2024-06-26,株式会社ユウシン,,株式会社,福岡県,直方市,大字山部４０３番地５,,40,204,8220034,,,,,,,2024-06-26,1,,,,,ユウシン,0
225,1290803004762,新規,0,2024-06-26,2024-06-26,合同会社Ｋ．Ｓ,,合同会社,福岡県,中間市,朝霧２丁目２番１０号,,40,215,8090021,,,,,,,2024-06-26,1,,,,,ケーエス,0
226,1300001013812,新規,0,2024-06-26,2024-06-26,株式会社玄海ファーム,,株式会社,佐賀県,東松浦郡玄海町,大字平尾６９１番地,,41,387,8471432,,,,,,,2024-06-26,1,,,,,ゲンカイファーム,0
234,1360001033862,新規,0,2024-06-26,2024-06-26,株式会社東海建設,,株式会社,沖縄県,宮古島市,城辺字保良４８３番地１,,47,214,9060101,,,,,,,2024-06-26,1,,,,,トウカイケンセツ,0
235,1360003014101,新規,0,2024-06-26,2024-06-26,合同会社三共サーヴェイイング,,合同会社,沖縄県,那覇市,首里儀保町４丁目４７番地２,,47,201,9030821,,,,,,,2024-06-26,1,,,,,サンキョウサーヴェイイング,0
240,1390001017664,新規,0,2024-06-26,2024-06-26,株式会社土田建築,00135300,株式会社,山形県,最上郡戸沢村,大字松坂１０１番地２,,06,367,9996314,,,,,,,2024-06-26,1,,,,,ツチダケンチク,0
241,1400003003289,新規,0,2024-06-26,2024-06-26,合同会社ＡＲＡＴＡ,,合同会社,岩手県,北上市,孫屋敷９番８号イトムンプラィ２０５,,03,206,0240025,,,,,,,2024-06-26,1,,,,,アラタ,0
243,1430001092117,新規,0,2024-06-26,2024-06-26,株式会社潜龍万里,,株式会社,北海道,札幌市東区,北四十四条東５丁目２番１５－１０２号,,01,103,0070844,,,,,,,2024-06-26,1,,,,,センリュウバンリ,0
245,1430003016494,新規,0,2024-06-26,2024-06-26,合同会社ｗｉｌｌ　ｓｈｉｎｅ,,合同会社,北海道,札幌市東区,北十一条東２丁目１番１０号,,01,103,0650011,,,,,,,2024-06-26,1,,,,,ウィルシャイン,0
246,1430005015008,新規,0,2024-06-26,2024-06-26,特定非営利活動法人余市農芸学舎,,その他の設立登記法人,北海道,余市郡余市町,登町１１７８番地,,01,408,0460002,,,,,,,2024-06-26,1,,,,,ヨイチノウゲイガクシャ,0
247,1440001009458,新規,0,2024-06-26,2024-06-26,株式会社ヨルム,,株式会社,北海道,函館市,大手町１６－２,,01,202,0400064,,,,,,,2024-06-26,1,,,,,ヨルム,0
258,1700150125839,新規,0,2024-06-26,2024-06-10,山梨県タクシー協会甲府支部,,その他,山梨県,笛吹市,石和町唐柏１０００－７山梨県自動車総合会館２階,,19,211,4060034,,,,,,,2024-06-10,1,,,,,ヤマナシケンタクシーキヨウカイコウフシブ,0
259,1700150126218,新規,0,2024-06-26,2024-06-26,Ｇｕａｎｇｚｈｏｕ　Ｅｎｘｕａｎ　Ｐａｃｋａｇｉｎｇ　Ｍａｔｅｒｉａｌｓ　Ｃｏ．，Ｌｔｄ．,,外国会社等,,,,,,,,ｇｕａｎｇｚｈｏｕｂａｉｙｕｎｑｕ　ｊｉａｈｅｊｉｅｃｈａｎｇｈｏｎｇｓｈｕａｎｇｈｅｇｏｎｇｙｅｙｕａｎｅｒｌｕｓｈｉｓｉｈａｏｓａｎｌｏｕｚｈｉｙｉ,,,,,,2024-06-26,1,,,,,コウシュウエンセンパッケイジングマテリアルズカンパニーリミテッド,0
260,1700150126242,新規,0,2024-06-26,2024-06-26,ＡＵＴＯ　ＬＡＮＫＡ　ＴＲＡＤＩＮＧ,,外国会社等,千葉県,八街市,東吉田７２５番地オフィス１９号,,12,230,2891114,スリランカ民主社会主義共和国、ケガッレ、カルゴッラマワタ、Ｎｏ．４,,,,,,2024-06-26,1,,,,,オートランカトレーデイング,0
277,2010001246069,新規,0,2024-06-26,2024-06-26,株式会社ハルモニアラボラトリー,,株式会社,東京都,千代田区,有楽町１丁目５－２東宝日比谷プロムナードビルディング１１階,,13,101,1000006,,,,,,,2024-06-26,1,,,,,ハルモニアラボラトリー,0
278,2010001246077,新規,0,2024-06-26,2024-06-26,株式会社プロキシブレーン,,株式会社,東京都,千代田区,神田司町２丁目２１福興ビルＢ１Ｆ,,13,101,1010048,,,,,,,2024-06-26,1,,,,,プロキシブレーン,0
279,2010001246110,新規,0,2024-06-26,2024-06-26,Ｒｅｂｏｏｓｔ　Ｐａｒｔｎｅｒｓ株式会社,,株式会社,東京都,千代田区,丸の内１丁目３番４号,,13,101,1000005,,,,,,,2024-06-26,1,,,,,リブーストパートナーズ,0
283,2010003044140,新規,0,2024-06-26,2024-06-26,Ｂ６　Ｊａｐａｎ合同会社,,合同会社,東京都,中央区,銀座４丁目１４番１１号七十七銀座ビル８階,,13,102,1040061,,,,,,,2024-06-26,1,,,,,ビーシックスジャパン,0
284,2010003044165,新規,0,2024-06-26,2024-06-26,合同会社Ｆｒｅｕｖｅ　Ｊａｐａｎ,,合同会社,東京都,中央区,新川２丁目２１番７号,,13,102,1040033,,,,,,,2024-06-26,1,,,,,フレーヴジャパン,0
292,2010401183283,新規,0,2024-06-26,2024-06-26,Ｋアシスト株式会社,,株式会社,東京都,港区,東麻布２丁目２４番９号,,13,103,1060044,,,,,,,2024-06-26,1,,,,,ケイアシスト,0
293,2010401183382,新規,0,2024-06-26,2024-06-26,株式会社ＪＹＴ,,株式会社,東京都,港区,北青山１丁目３番１号アールキューブ青山３階,,13,103,1070061,,,,,,,2024-06-26,1,,,,,ジェイワイティ,0
294,2010403032884,新規,0,2024-06-26,2024-06-26,Ｈｕｒｏｎ合同会社,,合同会社,東京都,港区,西新橋１丁目１番１号ＥＰコンサルティングサービス内,,13,103,1050003,,,,,,,2024-06-26,1,,,,,ヒューロン,0
295,2010405023345,新規,0,2024-06-26,2024-06-26,弁護士法人品川高輪総合法律事務所,,その他の設立登記法人,東京都,港区,高輪３丁目１９番２０号高輪ＯＳビル１階・２階,,13,103,1080074,,,,,,,2024-06-26,1,,,,,シナガワタカナワソウゴウホウリツジムショ,0
296,2010501052512,新規,0,2024-06-26,2024-06-26,ＬＵＣＫＹ善株式会社,,株式会社,東京都,台東区,千束４丁目１１番２８号エスポワールビル２０２号,,13,106,1110031,,,,,,,2024-06-26,1,,,,,ラッキーゼン,0
298,2010601065447,新規,0,2024-06-26,2024-06-26,Ｚ＆Ｚ株式会社,,株式会社,東京都,墨田区,両国４丁目３２番１９タカシマ両国マンション５０３室,,13,107,1300026,,,,,,,2024-06-26,1,,,,,ゼットアンドゼット,0
299,2010603010921,新規,0,2024-06-26,2024-06-26,ＥＮＫ　Ａｃａｄｅｍｙ　Ｊａｐａｎ合同会社,,合同会社,東京都,墨田区,石原２丁目２８番８－２０５号,,13,107,1300011,,,,,,,2024-06-26,1,,,,,イーネーケーアカデミージャパン,0
305,2010901055536,新規,0,2024-06-26,2024-06-26,株式会社Ｒｅｅｐｉｄ,,株式会社,東京都,世田谷区,羽根木１丁目３１番１６号ウィステリア羽根木１０１,,13,112,1560042,,,,,,,2024-06-26,1,,,,,リーピッド,0
313,2011001162909,新規,0,2024-06-26,2024-06-26,株式会社Ｈｉｇｈ　Ｆｉｖｅ　Ｃａｆｅ,,株式会社,東京都,渋谷区,渋谷２丁目１９－１５宮益坂ビルディング６０９,,13,113,1500002,,,,,,,2024-06-26,1,,,,,ハイファイブカフェ,0
319,2011103014512,新規,0,2024-06-26,2024-06-26,ＧＯＷＩＮセミコンダクターＪａｐａｎ合同会社,,合同会社,東京都,新宿区,西新宿１丁目２６－２新宿野村ビル３２階,,13,104,1600023,,,,,,,2024-06-26,1,,,,,ゴーウィンセミコンダクタージャパン,0
321,2011203004421,新規,0,2024-06-26,2024-06-26,天一閣合同会社,,合同会社,東京都,中野区,沼袋３丁目２５番３号,,13,114,1650025,,,,,,,2024-06-26,1,,,,,テンイチカク,0
324,2011301029790,新規,0,2024-06-26,2024-06-26,株式会社回帰,,株式会社,東京都,杉並区,和田３丁目３－２３光コーポ１０２,,13,115,1660012,,,,,,,2024-06-26,1,,,,,カイキ,0
325,2011401026218,新規,0,2024-06-26,2024-06-26,明澤株式会社,,株式会社,東京都,板橋区,南常盤台１丁目２２－９－４０６号,,13,119,1740072,,,,,,,2024-06-26,1,,,,,アキザワ,0
327,2011501030854,新規,0,2024-06-26,2024-06-26,株式会社ＫＡＣ,,株式会社,東京都,荒川区,荒川５丁目３０番６号１０５号室,,13,118,1160002,,,,,,,2024-06-26,1,,,,,ケーエーシー,0
328,2011801044439,新規,0,2024-06-26,2024-06-26,株式会社ＣＩＰ,,株式会社,東京都,葛飾区,東金町３丁目１２番７号,,13,122,1250041,,,,,,,2024-06-26,1,,,,,シーアイピー,0
334,2020003026393,新規,0,2024-06-26,2024-06-26,イシトレーディング合同会社,,合同会社,神奈川県,横浜市鶴見区,駒岡２丁目５－１３パールハイム２０２,,14,101,2300071,,,,,,,2024-06-26,1,,,,,イシトレーディング,0
336,2020005016467,新規,0,2024-06-26,2024-06-26,一般社団法人川崎市介護支援専門員連絡会,,その他の設立登記法人,神奈川県,川崎市高津区,久本１丁目６番８号,,14,134,2130011,,,,,,,2024-06-26,1,,,,,カイゴシエンセンモンインレンラクカイ,0
342,2021001082569,新規,0,2024-06-26,2024-06-26,栄和電氣設備株式会社,,株式会社,神奈川県,藤沢市,小塚６０２番地の１０,,14,205,2510013,,,,,,,2024-06-26,1,,,,,エイワデンキセツビ,0
343,2021001082577,新規,0,2024-06-26,2024-06-26,株式会社しろひげ,,株式会社,神奈川県,横須賀市,衣笠栄町１丁目１１浅葉石塚店舗１Ｆ左,,14,201,2380031,,,,,,,2024-06-26,1,,,,,シロヒゲ,0
344,2021001082593,新規,0,2024-06-26,2024-06-26,株式会社ＡＬＬ　ＯＫＡＹ,,株式会社,神奈川県,茅ヶ崎市,常盤町３番１８－１０４号サザンビーチ・トキワ,,14,207,2530032,,,,,,,2024-06-26,1,,,,,オールオーケー,0
352,2030001161092,新規,0,2024-06-26,2024-06-26,株式会社遠藤電工,,株式会社,埼玉県,春日部市,芦橋９１７番地１,00135303,11,214,3440131,,,,,,,2024-06-26,1,,,,,エンドウデンコウ,0
353,2030001161101,新規,0,2024-06-26,2024-06-26,株式会社ベルテック,,株式会社,埼玉県,さいたま市緑区,大字三室３２０番地５,,11,109,3360911,,,,,,,2024-06-26,1,,,,,ベルテック,0
354,2030001161118,新規,0,2024-06-26,2024-06-26,株式会社ＳＧＷ,,株式会社,埼玉県,さいたま市大宮区,仲町３丁目８９タカハシビル３０３,,11,103,3300845,,,,,,,2024-06-26,1,,,,,エスジーダブリュー,0
355,2030001161134,新規,0,2024-06-26,2024-06-26,Ｌ．Ｃ株式会社,,株式会社,埼玉県,さいたま市緑区,大字大門１７４６番地１０－１階,,11,109,3360963,,,,,,,2024-06-26,1,,,,,エルシー,0
358,2030003024578,新規,0,2024-06-26,2024-06-26,合同会社７６６７ｃｏ．,,合同会社,埼玉県,飯能市,大字中山５７８番地９,,11,209,3570006,,,,,,,2024-06-26,1,,,,,ナナロクロクナナコー,0
359,2030003024586,新規,0,2024-06-26,2024-06-26,Ｅｘｐｅｒａｎｚａ合同会社,,合同会社,埼玉県,上尾市,大字瓦葺１６５１番地１４,,11,219,3620022,,,,,,,2024-06-26,1,,,,,エスペランサ,0
360,2030003024594,新規,0,2024-06-26,2024-06-26,合同会社ＳＥＫＯＮＡＯ,,合同会社,埼玉県,深谷市,国済寺４５９番地４,,11,218,3660033,,,,,,,2024-06-26,1,,,,,セコナオ,0
366,2040001134080,新規,0,2024-06-26,2024-06-26,株式会社Ｓｉａｐｏｃｋｅｔ,,株式会社,千葉県,千葉市中央区,生実町１７９８番地Ｎｏ．３パークハウス１Ｆ１号室,,12,101,2600813,,,,,,,2024-06-26,1,,,,,シアポケット,0
367,2040001134213,新規,0,2024-06-26,2024-06-26,株式会社ネクストリンク,,株式会社,千葉県,四街道市,栗山１０５４番地１３３Ｂ棟２０２号,,12,228,2840027,,,,,,,2024-06-26,1,,,,,ネクストリンク,0
368,2040001134221,新規,0,2024-06-26,2024-06-26,株式会社Ｏｒｉｓ　Ａｖｉａｔｉｏｎ,,株式会社,千葉県,香取市,みずほ台２丁目９９１番地１０６,,12,236,2870064,,,,,,,2024-06-26,1,,,,,オーリスエイビエイション,0
376,2050001054996,新規,0,2024-06-26,2024-06-26,株式会社ＨＭ,,株式会社,茨城県,つくば市,学園の森２丁目１４番地４ゼピュロス学園の森Ｌ棟２０２号,,08,220,3050816,,,,,,,2024-06-26,1,,,,,エイチエム,0
389,2070001041910,新規,0,2024-06-26,2024-06-26,株式会社共真,,株式会社,群馬県,高崎市,箕郷町下芝３５３番地１,,10,202,3703103,,,,,,,2024-06-26,1,,,,,キョウシン,0
392,2080101024847,新規,0,2024-06-26,2024-06-26,ユサンズ株式会社,,株式会社,静岡県,伊豆の国市,南條９２３番地の１石井ビル１Ｆ東,,22,225,4102114,,,,,,,2024-06-26,1,,,,,ユサンズ,0
395,2080405007647,新規,0,2024-06-26,2024-06-26,一般社団法人エコ・エンジェル社会支援協会,,その他の設立登記法人,静岡県,浜松市中央区,古人見町７７０,,22,138,4311113,,,,,,,2024-06-26,1,,,,,エコエンジェルシャカイシエンキョウカイ,0
396,2090001018790,新規,0,2024-06-26,2024-06-26,株式会社ＬＳ,,株式会社,山梨県,山梨市,一町田中８１０番地７,,19,205,4050025,,,,,,,2024-06-26,1,,,,,エルエス,0
408,2120001266221,新規,0,2024-06-26,2024-06-26,ＳＹ　Ｉｎｖｅｓｔｍｅｎｔ株式会社,,株式会社,大阪府,大阪市浪速区,日本橋西１丁目４－１１,,27,111,5560004,,,,,,,2024-06-26,1,,,,,エスワイインベストメント,0
409,2120001266270,新規,0,2024-06-26,2024-06-26,株式会社エキュ,,株式会社,大阪府,大阪市中央区,南久宝寺町１丁目６番６号ＣＯＮＣＯＭ南久宝寺４０１号,,27,128,5410058,,,,,,,2024-06-26,1,,,,,エキュ,0
416,2120101069838,新規,0,2024-06-26,2024-06-26,株式会社健美長寿,,株式会社,大阪府,堺市南区,晴美台２丁３５番１０号,,27,145,5900113,,,,,,,2024-06-26,1,,,,,ケンビチョウジュ,0
417,2120101069854,新規,0,2024-06-26,2024-06-26,株式会社岡田電気,,株式会社,大阪府,堺市美原区,大保６１番地３,,27,147,5870001,,,,,,,2024-06-26,1,,,,,オカダデンキ,0
418,2120101069862,新規,0,2024-06-26,2024-06-26,株式会社藤柴カンパニー,,株式会社,大阪府,貝塚市,木積５９５番地２,,27,208,5970102,,,,,,,2024-06-26,1,,,,,フジシバカンパニー,0
432,2140001134896,新規,0,2024-06-26,2024-06-26,ＹＯＬＯＡＭＥ株式会社,,株式会社,兵庫県,神戸市兵庫区,荒田町１丁目１６番４号３０１号,,28,105,6520032,,,,,,,2024-06-26,1,,,,,ヨロアメ,0
433,2140001134905,新規,0,2024-06-26,2024-06-26,株式会社Ｊ‐Ｃｒｅａｔｉｏｎ,,株式会社,兵庫県,西宮市,甑岩町１０番２１－３０２号,,28,204,6620092,,,,,,,2024-06-26,1,,,,,ジェイクリエイション,0
439,2150003003297,新規,0,2024-06-26,2024-06-26,合同会社ユメトコト,,合同会社,奈良県,北葛城郡王寺町,畠田８丁目１７４４－３,,29,425,6360021,,,,,,,2024-06-26,1,,,,,ユメトコト,0
447,2180001162134,新規,0,2024-06-26,2024-06-26,株式会社吉岡工務店,00135302,株式会社,愛知県,愛西市,大井町浦田面５６０番地１,,23,232,4960921,,,,,,,2024-06-26,1,,,,,ヨシオカコウムテン,0
448,2180001162167,新規,0,2024-06-26,2024-06-26,ＫＤＨＤ株式会社,,株式会社,愛知県,尾張旭市,旭前町１丁目６番地５,,23,226,4880855,,,,,,,2024-06-26,1,,,,,ケーディエイチディー,0
456,2210001019801,新規,0,2024-06-26,2024-06-26,株式会社ｔｉｃ．,,株式会社,福井県,福井市,末広町第１５号１３番地１,,18,201,9188172,,,,,,,2024-06-26,1,,,,,ティック,0
461,2240001063425,新規,0,2024-06-26,2024-06-26,株式会社安南輪商,,株式会社,広島県,広島市西区,楠木町１丁目９－１１－８０２,,34,104,7330002,,,,,,,2024-06-26,1,,,,,アンナンリンショウ,0
464,2250001020706,新規,0,2024-06-26,2024-06-26,株式会社ＴＡＩＹＯ,,株式会社,山口県,宇部市,恩田町１丁目３番４０号,,35,202,7550023,,,,,,,2024-06-26,1,,,,,タイヨー,0
477,2290001106245,新規,0,2024-06-26,2024-06-26,株式会社Ｔ‐ＳＴＯＲＹ,,株式会社,福岡県,大野城市,下大利２丁目９番６－４０１号,,40,219,8160952,,,,,,,2024-06-26,1,,,,,ティーストーリー,0
478,2290001106278,新規,0,2024-06-26,2024-06-26,株式会社ｔａｌｌｉｓｌａｎｄ,,株式会社,福岡県,福岡市南区,若久６丁目２０番３６号,,40,134,8150042,,,,,,,2024-06-26,1,,,,,トールアイランド,0
489,2300001013811,新規,0,2024-06-26,2024-06-26,株式会社Ｏｚ,,株式会社,佐賀県,鳥栖市,立石町２０６６番地２,,41,203,8410075,,,,,,,2024-06-26,1,,,,,オズ,0
500,2330001032197,新規,0,2024-06-26,2024-06-26,株式会社リ・ボーンホールディングス,,株式会社,熊本県,熊本市東区,小山２丁目１４番１２号,,43,102,8618045,,,,,,,2024-06-26,1,,,,,リボーンホールディングス,0
501,2340001026603,新規,0,2024-06-26,2024-06-26,株式会社増森パートナーズ,,株式会社,鹿児島県,鹿児島市,田上７丁目２２番１６号,,46,201,8900034,,,,,,,2024-06-26,1,,,,,マスモリパートナーズ,0
504,2360001033804,新規,0,2024-06-26,2024-06-26,株式会社ＮＦＣ,,株式会社,沖縄県,宜野湾市,野嵩４丁目６番１８号,,47,205,9012203,,,,,,,2024-06-26,1,,,,,,0
505,2360001033853,新規,0,2024-06-26,2024-06-26,株式会社テクノコーラル,,株式会社,沖縄県,那覇市,久茂地１丁目１－１・９Ｆ,,47,201,9000015,,,,,,,2024-06-26,1,,,,,テクノコーラル,0
516,2380001034635,新規,0,2024-06-26,2024-06-26,株式会社ワイケーソリューション,,株式会社,福島県,郡山市,中田町中津川字五舛蒔１５６番地の１,00135299,07,203,9630832,,,,,,,2024-06-26,1,,,,,,0
517,2390001017663,新規,0,2024-06-26,2024-06-26,株式会社ｅｄｇｅ　ｌｉｎｅ,,株式会社,山形県,鶴岡市,羽黒町荒川字宮東１５７番地,,06,203,9970141,,,,,,,2024-06-26,1,,,,,エッジライン,0
520,2400001016696,新規,0,2024-06-26,2024-06-26,Ｙ’ｓ　Ｎｅｔ　Ｇａｒａｇｅ株式会社,,株式会社,岩手県,滝沢市,牧野林１３５９番地２,,03,216,0200632,,,,,,,2024-06-26,1,,,,,ワイズネットガレージ,0
522,2410003003948,新規,0,2024-06-26,2024-06-26,大和合同会社,,合同会社,秋田県,湯沢市,杉沢字戸石崎１７６番地２１,,05,207,0120804,,,,,,,2024-06-26,1,,,,,ヤマト,0
541,2500005008713,新規,0,2024-06-26,2024-06-26,一般社団法人四国ランバイク連盟,,その他の設立登記法人,愛媛県,松山市,南白水２丁目６番地１２,,38,201,7910114,,,,,,,2024-06-26,1,,,,,シコクランバイクレンメイ,0
543,2700150126217,新規,0,2024-06-26,2024-06-26,ｚｈｏｎｇｓｈａｎｓｈｕｅｒｍｅｉｆｕｓｈｉｙｏｕｘｉａｎｇｏｎｇｓｉ,,外国会社等,,,,,,,,１５０１　ｃａｒｄ，ａｎｎｅｘ　ｂｕｉｌｄｉｎｇ，Ｎｏ．３　ｂｕｓｉｎｅｓｓ　ｂｕｉｌｄｉｎｇ，Ｇａｎｇｙｉ　Ｒｏａｄ　Ｃｒｅａｔｉｖｅ　Ｅｎｔｒｅｐｒｅｎｅｕｒｓｈｉｐ　Ｐａｒｋ，ｃｅｎｔｒａｌ　ｕｒｂａｎ　ａｒｅａ，Ｔｏｒｃｈ　Ｄｅｖｅｌｏｐｍｅｎｔ　Ｚｏｎｅ，Ｚｈｏｎｇｓｈａｎ　Ｃｉｔｙ,,,,,,2024-06-26,1,,,,,ゾンシャンシュエルメイフシユウゲンコウシ,0
559,3010001246019,新規,0,2024-06-26,2024-06-26,株式会社ストラットン,,株式会社,東京都,千代田区,平河町１丁目９番１－７０３号,,13,101,1020093,,,,,,,2024-06-26,1,,,,,ストラットン,0
560,3010001246027,新規,0,2024-06-26,2024-06-26,Ｇｕａｒｄｎｏｖａｔｅ株式会社,,株式会社,東京都,中央区,銀座１丁目１２番４号Ｎ＆ＥＢＬＤ．６Ｆ,,13,102,1040061,,,,,,,2024-06-26,1,,,,,ガーノベイト,0
561,3010001246051,新規,0,2024-06-26,2024-06-26,株式会社よあかし,,株式会社,東京都,千代田区,岩本町２丁目４番５号インスタイルスクエアＲ７０５,,13,101,1010032,,,,,,,2024-06-26,1,,,,,ヨアカシ,0
572,3010003044123,新規,0,2024-06-26,2024-06-26,Ｎｅｚｚｙ＆Ｃｏ．合同会社,,合同会社,東京都,千代田区,五番町１２番地７－２０４３,,13,101,1020076,,,,,,,2024-06-26,1,,,,,ネジアンドコー,0
573,3010003044131,新規,0,2024-06-26,2024-06-26,合同会社Ｓｈｏｅｂｉｌｌ,,合同会社,東京都,千代田区,神田神保町１丁目１０３番地東京パークタワー１２０８号,,13,101,1010051,,,,,,,2024-06-26,1,,,,,シュービル,0
574,3010003044148,新規,0,2024-06-26,2024-06-26,Ｋｅｎ　Ｆａｍｉｌｙ　Ｏｆｆｉｃｅ合同会社,,合同会社,東京都,文京区,西片２丁目１２番１９号,,13,105,1130024,,,,,,,2024-06-26,1,,,,,ケンファミリーオフィス,0
575,3010003044164,新規,0,2024-06-26,2024-06-26,テックリンクコンサルティング合同会社,,合同会社,東京都,中央区,銀座１丁目１２番４号Ｎ＆ＥＢＬＤ．６Ｆ,,13,102,1040061,,,,,,,2024-06-26,1,,,,,テックリンクコンサルティング,0
577,3010101016214,新規,0,2024-06-26,2024-06-26,株式会社クラスティブスポーツ,,株式会社,東京都,八王子市,南大沢５丁目６番地２－６０３,,13,201,1920364,,,,,,,2024-06-26,1,,,,,クラスティブスポーツ,0
578,3010103002377,新規,0,2024-06-26,2024-06-26,合同会社ＭＷ,,合同会社,東京都,八王子市,みなみ野２丁目１６番３－４０１号,,13,201,1920916,,,,,,,2024-06-26,1,,,,,エムダブリュー,0
582,3010401183266,新規,0,2024-06-26,2024-06-26,株式会社ＴＨＥＴＡ,,株式会社,東京都,港区,白金１丁目２－２白金ザスカイｗｅｓｔ７０７,,13,103,1080072,,,,,,,2024-06-26,1,,,,,シータ,0
583,3010401183308,新規,0,2024-06-26,2024-06-26,さくらでんぶ株式会社,,株式会社,東京都,港区,芝大門２丁目４番５号芝ダイヤハイツ９０５,,13,103,1050012,,,,,,,2024-06-26,1,,,,,,0
584,3010401183357,新規,0,2024-06-26,2024-06-26,株式会社やまゆき,,株式会社,東京都,港区,南麻布１丁目３番４号,,13,103,1060047,,,,,,,2024-06-26,1,,,,,ヤマユキ,0
590,3010501052511,新規,0,2024-06-26,2024-06-26,株式会社Ｔ’ｓ　Ｉｎｃ．,,株式会社,東京都,台東区,浅草１丁目２１番７号,,13,106,1110032,,,,,,,2024-06-26,1,,,,,ティーズインク,0
617,3011101107754,新規,0,2024-06-26,2024-06-26,株式会社ＴｏｋｙｏＭｅａｔＭｅｅｔ,,株式会社,東京都,新宿区,新宿２丁目１２番１３号新宿アントレサロンビル２Ｆ,,13,104,1600022,,,,,,,2024-06-26,1,,,,,トウキョウミートミート,0
618,3011103014602,新規,0,2024-06-26,2024-06-26,合同会社アドバンス,,合同会社,東京都,新宿区,新宿３丁目１２番４号新宿Ｎタウンプラザ３０９号,,13,104,1600022,,,,,,,2024-06-26,1,,,,,アドバンス,0
626,3011501030853,新規,0,2024-06-26,2024-06-26,株式会社ａｌｉ＆Ｍ,,株式会社,東京都,荒川区,東日暮里５丁目５０番５号アートホテル日暮里ラングウッド３Ｆ－１５,,13,118,1160014,,,,,,,2024-06-26,1,,,,,アリアンドエム,0
628,3011701027410,新規,0,2024-06-26,2024-06-26,株式会社リアライズラボ,,株式会社,東京都,江戸川区,南篠崎町４丁目１５番１０号,,13,123,1330065,,,,,,,2024-06-26,1,,,,,,0
631,3012303002009,新規,0,2024-06-26,2024-06-26,合同会社エムスズメ,,合同会社,東京都,町田市,原町田６丁目１４番７号重南ビル２階,,13,209,1940013,,,,,,,2024-06-26,1,,,,,エムスズメ,0
632,3012403006636,新規,0,2024-06-26,2024-06-26,合同会社リッジライン,,合同会社,東京都,調布市,若葉町２丁目１０番地１５コルティ仙川２０３,,13,208,1820003,,,,,,,2024-06-26,1,,,,,リッジライン,0
634,3013303007187,新規,0,2024-06-26,2024-06-26,合同会社ｓｉｌｌｅ,,合同会社,東京都,豊島区,巣鴨１丁目３－４春水ビル２Ｆ,,13,116,1700002,,,,,,,2024-06-26,1,,,,,シルレ,0
641,3020003026392,新規,0,2024-06-26,2024-06-26,合同会社ＳＵＣ,,合同会社,神奈川県,横浜市神奈川区,高島台２６番地１－１０８号,,14,102,2210833,,,,,,,2024-06-26,1,,,,,エスユーシー,0
644,3021001082543,新規,0,2024-06-26,2024-06-26,株式会社横須賀中央商会,,株式会社,神奈川県,横須賀市,安浦町２丁目２いこい荘３,,14,201,2380012,,,,,,,2024-06-26,1,,,,,ヨコスカチュウオウショウカイ,0
645,3021001082568,新規,0,2024-06-26,2024-06-26,株式会社グランアシスト,,株式会社,神奈川県,伊勢原市,伊勢原３丁目３２－３３ガーデニアヒルズＩ１０２号室,00135298,14,214,2591131,,,,,,,2024-06-26,1,,,,,グランアシスト,0
646,3021001082576,新規,0,2024-06-26,2024-06-26,ライフサポートジャパン株式会社,,株式会社,神奈川県,小田原市,南鴨宮１丁目１３番８－３０３号,,14,206,2500875,,,,,,,2024-06-26,1,,,,,ライフサポートジャパン,0
647,3021001082592,新規,0,2024-06-26,2024-06-26,株式会社芯成建築,,株式会社,神奈川県,小田原市,前川６４番地の１カーサエスト２０６,,14,206,2560813,,,,,,,2024-06-26,1,,,,,シンセイケンチク,0
660,3030001160762,新規,0,2024-06-26,2024-06-26,ＡＴＣ　ＩＮＴＥＲＮＡＴＩＯＮＡＬ株式会社,,株式会社,埼玉県,熊谷市,三ヶ尻字女堀５４１６－６,,11,202,3600843,,,,,,,2024-06-26,1,,,,,エーティーシーインターナショナル,0
661,3030001161109,新規,0,2024-06-26,2024-06-26,株式会社ＯＮＥＴＥＣＨ,,株式会社,埼玉県,戸田市,笹目４丁目４３番地の２,,11,224,3350034,,,,,,,2024-06-26,1,,,,,ワンテック,0
662,3030001161117,新規,0,2024-06-26,2024-06-26,株式会社ユウジングループ,,株式会社,埼玉県,鶴ヶ島市,大字藤金８７３－６コーポ久保２０６,,11,241,3502206,,,,,,,2024-06-26,1,,,,,ユウジングループ,0
665,3030003024536,新規,0,2024-06-26,2024-06-26,合同会社ＳＰ,,合同会社,埼玉県,八潮市,大字大瀬１３７３－７８第一平成ビル２０２,,11,234,3400822,,,,,,,2024-06-26,1,,,,,エスピー,0
666,3030003024552,新規,0,2024-06-26,2024-06-26,合同会社ＣＯ　ＣＯ,,合同会社,埼玉県,吉川市,大字川藤２２３番地,,11,243,3420005,,,,,,,2024-06-26,1,,,,,ココ,0
667,3030003024577,新規,0,2024-06-26,2024-06-26,ＭＩＳＯ　ＡＩ合同会社,,合同会社,埼玉県,さいたま市南区,大字大谷口７７６番地１５,,11,108,3360042,,,,,,,2024-06-26,1,,,,,ミソエイアイ,0
668,3030003024585,新規,0,2024-06-26,2024-06-26,合同会社ＬＩＦＥＦＵＬＬ,,合同会社,埼玉県,上尾市,大字瓦葺１６５１番地１４,,11,219,3620022,,,,,,,2024-06-26,1,,,,,ライフフル,0
669,3030003024593,新規,0,2024-06-26,2024-06-26,２１サテライト合同会社,,合同会社,埼玉県,さいたま市浦和区,瀬ヶ崎５丁目４番３号,,11,107,3300044,,,,,,,2024-06-26,1,,,,,トゥエンティワンサテライト,0
677,3040001134179,新規,0,2024-06-26,2024-06-26,アースネイジ株式会社,,株式会社,千葉県,君津市,中野５丁目１番６号１０２,,12,225,2991151,,,,,,,2024-06-26,1,,,,,アースネイジ,0
678,3040001134220,新規,0,2024-06-26,2024-06-26,株式会社Ｓ,,株式会社,千葉県,千葉市中央区,星久喜町２０２番地５,,12,101,2600808,,,,,,,2024-06-26,1,,,,,エス,0
687,3050003008479,新規,0,2024-06-26,2024-06-26,Ｔ．Ｇ．ＮＩＨＯＮ　ＩＮＴＥＲＮＡＴＩＯＮＡＬ合同会社,,合同会社,茨城県,土浦市,小松３丁目７番１５号,,08,203,3000823,,,,,,,2024-06-26,1,,,,,ティージーニホンインターナショナル,0
692,3070001041892,新規,0,2024-06-26,2024-06-26,株式会社アグライア,,株式会社,群馬県,太田市,高林東町１７０２番地ＯＡビル２０３,,10,205,3730825,,,,,,,2024-06-26,1,,,,,アグライア,0
699,3080401027276,新規,0,2024-06-26,2024-06-26,株式会社Ｐ＆Ｋ,,株式会社,静岡県,磐田市,上大之郷７４番地２,,22,211,4380051,,,,,,,2024-06-26,1,,,,,ピーアンドケー,0
700,3080403005040,新規,0,2024-06-26,2024-06-26,合同会社ＧＨエンパワーメント,,合同会社,静岡県,湖西市,梅田６４９バンページュＴＷＯ２０３,,22,221,4310425,,,,,,,2024-06-26,1,,,,,ジーエイチエンパワーメント,0
714,3120001266047,新規,0,2024-06-26,2024-06-26,株式会社キュロスリーシングマネジメント,,株式会社,大阪府,大阪市天王寺区,六万体町４番１９号グラン・ピア四天王寺２Ｆ,,27,109,5430074,,,,,,,2024-06-26,1,,,,,キュロスリーシングマネジメント,0
715,3120001266187,新規,0,2024-06-26,2024-06-26,株式会社ｗｅｌｌｆｉｎｉ,,株式会社,大阪府,大阪市都島区,善源寺町２丁目２番６号セントプレイスグランドコンフォルト１３０３号室,,27,102,5340015,,,,,,,2024-06-26,1,,,,,ウェルフィニ,0
716,3120001266195,新規,0,2024-06-26,2024-06-26,海之日株式会社,,株式会社,大阪府,大阪市西成区,天下茶屋３丁目９－１２,,27,122,5570014,,,,,,,2024-06-26,1,,,,,ウミノヒ,0
717,3120001266204,新規,0,2024-06-26,2024-06-26,株式会社ｓｔａｂｌｅ　ｆａｍｉｌｙ,,株式会社,大阪府,寝屋川市,高宮新町６番８－５０２号,,27,215,5720847,,,,,,,2024-06-26,1,,,,,ステイブルファミリー,0
718,3120001266220,新規,0,2024-06-26,2024-06-26,ＳＹ　Ａｓｓｅｔ株式会社,,株式会社,大阪府,大阪市浪速区,日本橋西１丁目４－１１,,27,111,5560004,,,,,,,2024-06-26,1,,,,,エスワイアセット,0
719,3120001266229,新規,0,2024-06-26,2024-06-26,株式会社ミュウブランシュ,,株式会社,大阪府,大阪市天王寺区,四天王寺１丁目１４番１０－１３０６号,,27,109,5430051,,,,,,,2024-06-26,1,,,,,ミュウブランシュ,0
720,3120001266237,新規,0,2024-06-26,2024-06-26,株式会社上建,,株式会社,大阪府,大阪市東淀川区,大道南３丁目９番１９号,,27,114,5330012,,,,,,,2024-06-26,1,,,,,ウエケン,0
721,3120001266253,新規,0,2024-06-26,2024-06-26,株式会社ＭＢトレーラー販売,,株式会社,大阪府,大阪市淀川区,十八条１丁目１３番３６号,,27,123,5320001,,,,,,,2024-06-26,1,,,,,エムビートレーラーハンバイ,0
722,3120001266261,新規,0,2024-06-26,2024-06-26,プロリンクコンサルティング株式会社,,株式会社,大阪府,枚方市,大垣内町２丁目１７－４林ビル３０２号室,,27,210,5730027,,,,,,,2024-06-26,1,,,,,プロリンクコンサルティング,0
726,3120003026928,新規,0,2024-06-26,2024-06-26,丸美合同会社,,合同会社,大阪府,大阪市生野区,巽南５丁目１９番３２号,00135320,27,116,5440015,,,,,,,2024-06-26,1,,,,,マルビ,0
728,3120103005906,新規,0,2024-06-26,2024-06-26,合同会社山川ホーム,,合同会社,大阪府,和泉市,緑ケ丘２丁目１９番６号,,27,219,5941155,,,,,,,2024-06-26,1,,,,,ヤマカワホーム,0
729,3120103005914,新規,0,2024-06-26,2024-06-26,祥建合同会社,,合同会社,大阪府,堺市西区,草部８４１番地１,,27,144,5938312,,,,,,,2024-06-26,1,,,,,ショウケン,0
743,3140001134912,新規,0,2024-06-26,2024-06-26,株式会社コハラ,,株式会社,兵庫県,尼崎市,高田町２０番２１号,,28,202,6610963,,,,,,,2024-06-26,1,,,,,,0
747,3150003003296,新規,0,2024-06-26,2024-06-26,合同会社Ｍ’ｓ,,合同会社,奈良県,奈良市,富雄元町２丁目３番１２‐３０５号,,29,201,6310078,,,,,,,2024-06-26,1,,,,,,0
750,3170003002065,新規,0,2024-06-26,2024-06-26,合同会社ＶＥＲＴＥＸ,,合同会社,和歌山県,和歌山市,弘西７６９番地１３,,30,201,6496339,,,,,,,2024-06-26,1,,,,,ヴァーテックス,0
758,3180001162117,新規,0,2024-06-26,2024-06-26,一経営株式会社,,株式会社,愛知県,清須市,土器野２９６－１－６０４,,23,233,4520914,,,,,,,2024-06-26,1,,,,,イチケイエイ,0
767,3180005020675,新規,0,2024-06-26,2024-06-26,医療法人キルシュ・ブリューネ,,その他の設立登記法人,愛知県,名古屋市昭和区,菊園町１丁目９番地,,23,107,4660843,,,,,,,2024-06-26,1,,,,,キルシュブリューネ,0
769,3190001031444,新規,0,2024-06-26,2024-06-26,農業生産法人アイナグリーン株式会社,,株式会社,三重県,伊賀市,法花２８５６番地,,24,216,5180036,,,,,,,2024-06-26,1,,,,,ノウギョウセイサンホウジンアイナグリーン,0
770,3200001042638,新規,0,2024-06-26,2024-06-26,株式会社エベレスト,,株式会社,岐阜県,関市,西本郷通２丁目３番３０号,,21,205,5013803,,,,,,,2024-06-26,1,,,,,エベレスト,0
772,3210001019800,新規,0,2024-06-26,2024-06-26,株式会社アルト企画,,株式会社,福井県,福井市,松本２丁目１６番１８号,,18,201,9100003,,,,,,,2024-06-26,1,,,,,アルトキカク,0
780,3240001063432,新規,0,2024-06-26,2024-06-26,株式会社梶間屋,,株式会社,広島県,神石郡神石高原町,高蓋３６０番地２,,34,545,7201410,,,,,,,2024-06-26,1,,,,,カジマヤ,0
786,3250001020705,新規,0,2024-06-26,2024-06-26,株式会社パッカーズ,,株式会社,山口県,宇部市,大字船木３８４１番地６,,35,202,7570216,,,,,,,2024-06-26,1,,,,,パッカーズ,0
787,3250003003526,新規,0,2024-06-26,2024-06-26,合同会社ＭＵＳＥ．,,合同会社,山口県,宇部市,厚南中央１丁目１番２－４号,,35,202,7590212,,,,,,,2024-06-26,1,,,,,ミューズ,0
793,3290001106236,新規,0,2024-06-26,2024-06-26,株式会社ネイチャー・ファンディング,,株式会社,福岡県,福岡市西区,今宿駅前１丁目１５－１８,,40,135,8190168,,,,,,,2024-06-26,1,,,,,ネイチャーファンディング,0
794,3290001106252,新規,0,2024-06-26,2024-06-26,株式会社Ｉ‐ｓｔ,,株式会社,福岡県,福岡市西区,上山門２丁目１５番１８号,,40,135,8190054,,,,,,,2024-06-26,1,,,,,イスト,0
795,3290001106285,新規,0,2024-06-26,2024-06-26,ｓｔａＲｅｂｉｒｔｈ株式会社,,株式会社,福岡県,福岡市東区,雁の巣１丁目３９番２１号,,40,131,8110206,,,,,,,2024-06-26,1,,,,,スタリバース,0
799,3290003015501,新規,0,2024-06-26,2024-06-26,合同会社縁樹,,合同会社,福岡県,久留米市,東合川町三丁目１９番７－１６号,,40,203,8390807,,,,,,,2024-06-26,1,,,,,エンジュ,0
802,3300003002142,新規,0,2024-06-26,2024-06-26,合同会社ｏｌｉ‐ｒｉｅ,,合同会社,佐賀県,鳥栖市,江島町３４３５番地８,,41,203,8410073,,,,,,,2024-06-26,1,,,,,オーリエ,0
819,3360003014090,新規,0,2024-06-26,2024-06-26,合同会社Ｌａｖｉｔａ７５,,合同会社,沖縄県,名護市,字屋部４００,,47,209,9050007,,,,,,,2024-06-26,1,,,,,ラヴィータナゴ,0
830,3430001092107,新規,0,2024-06-26,2024-06-26,株式会社ＣＯＵＮＴＲＹ　ＩＳＬＡＮＤ,,株式会社,北海道,札幌市豊平区,美園五条５丁目１－２１,,01,105,0620005,,,,,,,2024-06-26,1,,,,,カントリーアイランド,0
831,3430001092123,新規,0,2024-06-26,2024-06-26,株式会社ジープロダクツ,,株式会社,北海道,札幌市北区,北三十一条西３丁目２番１１号,,01,102,0010031,,,,,,,2024-06-26,1,,,,,ジープロダクツ,0
839,3700150126216,新規,0,2024-06-26,2024-06-26,ｄｏｎｇｇｕａｎｓｈｉｌｅｙｕａｎｍａｏｙｉｙｏｕｘｉａｎｇｏｎｇｓｉ,,外国会社等,,,,,,,,ｇｕａｎｇ　ｄｏｎｇ　ｓｈｅｎｇ　ｄｏｎｇ　ｇｕａｎ　ｓｈｉ　ｄｏｎｇ　ｃｈｅｎｇ　ｊｉｅ　ｄａｏ　ｑｉａｎ　ｔｏｕ　ｌｕ　７２　ｈａｏ　ｈｕａ　ｊｉｅ　ｓｈｉ　ｂａ　ｆｅｎｇ　ｈｕａ　ｙｕａｎ　１　ｄｏｎｇ　２０５３　ｓｈｉ,,,,,,2024-06-26,1,,,,,トンカンシレユアンマオイユウゲンコウシ,0
840,3700150126240,新規,0,2024-06-26,2024-06-26,ＴＥＲＩＮＣＯ　ＥＮＴＥＲＰＲＩＳＥＳ,,外国会社等,千葉県,山武市,上横地４１４４－９６,,12,237,2891313,スリランカ民主社会主義共和国マウントラウィンヤ、デヒウェラ、ホスピタルロードＮＯ．５７／１,,,,,,2024-06-26,1,,,,,テリンコエンタープライセス,0
857,4010001246050,新規,0,2024-06-26,2024-06-26,ファイナンシャルプロテクト株式会社,,株式会社,東京都,中央区,銀座１丁目１２－４Ｎ＆ＥＢＬＤ．７階,,13,102,1040061,,,,,,,2024-06-26,1,,,,,ファイナンシャルプロテクト,0
858,4010001246083,新規,0,2024-06-26,2024-06-26,株式会社ＳＴＡＧＥ,,株式会社,東京都,千代田区,平河町２丁目７－２栄ビル４階,,13,101,1020093,,,,,,,2024-06-26,1,,,,,ステージ,0
859,4010003044155,新規,0,2024-06-26,2024-06-26,合同会社Ｐ‐Ｃｈｏｒｄ,,合同会社,東京都,中央区,日本橋兜町１７－２兜町第６葉山ビル４Ｆ,,13,102,1030026,,,,,,,2024-06-26,1,,,,,ピーコード,0
868,4010401183372,新規,0,2024-06-26,2024-06-26,サイバーアセンション株式会社,,株式会社,東京都,港区,海岸１丁目２－３汐留芝離宮ビルディング２１Ｆ,,13,103,1050022,,,,,,,2024-06-26,1,,,,,サイバーアセンション,0
869,4010401183397,新規,0,2024-06-26,2024-06-26,株式会社山口トラスト,,株式会社,東京都,港区,西新橋１丁目１８番６号クロスオフィス内幸町１１Ｆ,,13,103,1050003,,,,,,,2024-06-26,1,,,,,ヤマグチトラスト,0
870,4010401183414,新規,0,2024-06-26,2024-06-26,エンジェルアライン・テクノロジー・ジャパン株式会社,,株式会社,東京都,港区,港南２丁目１６番４号品川グランドセントラルタワー８階,,13,103,1080075,,,,,,,2024-06-26,1,,,,,エンジェルアラインテクノロジージャパン,0
871,4010501052502,新規,0,2024-06-26,2024-06-26,葉葉子株式会社,,株式会社,東京都,台東区,上野７丁目３番９号豊栄アルベルゴ上野４１６号,,13,106,1100005,,,,,,,2024-06-26,1,,,,,ヨウヨウシ,0
872,4010503007495,新規,0,2024-06-26,2024-06-26,合同会社ＳＴＭ,,合同会社,東京都,台東区,上野１丁目１３－１田中ビル２０１,,13,106,1100005,,,,,,,2024-06-26,1,,,,,エスティーエム,0
883,4010801035181,新規,0,2024-06-26,2024-06-26,株式会社藤平,,株式会社,東京都,大田区,東矢口１丁目１６番２１号,,13,111,1460094,,,,,,,2024-06-26,1,,,,,フジヒラ,0
888,4011001162980,新規,0,2024-06-26,2024-06-26,株式会社ＫＡＫＡＮ．,,株式会社,東京都,渋谷区,松濤１丁目２８番８号,,13,113,1500046,,,,,,,2024-06-26,1,,,,,カカン,0
889,4011001162989,新規,0,2024-06-26,2024-06-26,株式会社センサー,,株式会社,東京都,渋谷区,恵比寿西２丁目１９番９号フランセスビル,,13,113,1500021,,,,,,,2024-06-26,1,,,,,センサー,0
892,4011003019460,新規,0,2024-06-26,2024-06-26,ＬａＳａｎｔａ合同会社,,合同会社,東京都,渋谷区,神宮前４丁目９番５号ＭＣ４９５－３０１号室,,13,113,1500001,,,,,,,2024-06-26,1,,,,,ラサンタ,0
903,4011201025582,新規,0,2024-06-26,2024-06-26,株式会社ｅｔｅ,,株式会社,東京都,中野区,中野２丁目１９番２号リードシー中野ビル３Ｆ,,13,114,1640001,,,,,,,2024-06-26,1,,,,,エテ,0
914,4011501030844,新規,0,2024-06-26,2024-06-26,ｏｎｅ　ｂｙ　ｏｎｅ　ｃａｆｅ株式会社,,株式会社,東京都,北区,浮間１丁目１番１４号リムジンビル１４１,,13,117,1150051,,,,,,,2024-06-26,1,,,,,ワンバイワンカフェ,0
915,4011601027848,新規,0,2024-06-26,2024-06-26,ＰＯＴＥＮＴＩＡＬ　ＬＩＮＫ株式会社,,株式会社,東京都,練馬区,西大泉４丁目９番１０号,,13,120,1780065,,,,,,,2024-06-26,1,,,,,ポテンシャルリンク,0
916,4011601027856,新規,0,2024-06-26,2024-06-26,株式会社ファクトミックスメソッド,,株式会社,東京都,練馬区,春日町４丁目１０番１４号,,13,120,1790074,,,,,,,2024-06-26,1,,,,,ファクトミックスメソッド,0
922,4012401042021,新規,0,2024-06-26,2024-06-26,坂本建装株式会社,,株式会社,東京都,調布市,入間町１丁目１１番地２,,13,208,1820004,,,,,,,2024-06-26,1,,,,,サカモトケンソウ,0
926,4012701018324,新規,0,2024-06-26,2024-06-26,ＧＵＲＫＨＡＳ株式会社,,株式会社,東京都,東村山市,本町３丁目８番地２３,,13,213,1890014,,,,,,,2024-06-26,1,,,,,グルカ,0
931,4012803003439,新規,0,2024-06-26,2024-06-26,合同会社ＣＪコンサルティング,,合同会社,東京都,国立市,東１丁目１４－１１ヴ・ルーム国立１０２,,13,215,1860002,,,,,,,2024-06-26,1,,,,,シージェーコンサルティング,0
940,4020001157858,新規,0,2024-06-26,2024-06-26,株式会社ＲＩＳＥケア,,株式会社,神奈川県,横浜市港北区,新横浜１丁目２番地１,,14,109,2220033,,,,,,,2024-06-26,1,,,,,ライズケア,0
941,4020001157866,新規,0,2024-06-26,2024-06-26,株式会社マンダリン,,株式会社,神奈川県,横浜市泉区,西が岡２丁目１２番地８ボヌール西ヶ丘２０１号,,14,116,2450006,,,,,,,2024-06-26,1,,,,,マンダリン,0
946,4020003026391,新規,0,2024-06-26,2024-06-26,合同会社遥林,,合同会社,神奈川県,横浜市西区,浅間町１丁目４番３号ウィザードビル４０２,,14,103,2200072,,,,,,,2024-06-26,1,,,,,ヨウリン,0
948,4021001082591,新規,0,2024-06-26,2024-06-26,株式会社ＬｉｖｅＨｏｒｓｅ,,株式会社,神奈川県,茅ヶ崎市,中海岸４丁目１５番１９－１０６号ザ・テラス茅ヶ崎サザンビーチ,,14,207,2530055,,,,,,,2024-06-26,1,,,,,リブホース,0
954,4030001161090,新規,0,2024-06-26,2024-06-26,ＯＳＡＷＡ超音波医療サービス株式会社,,株式会社,埼玉県,熊谷市,船木台２丁目１６番地６,,11,202,3690108,,,,,,,2024-06-26,1,,,,,オオサワチョウオンパイリョウサービス,0
955,4030001161099,新規,0,2024-06-26,2024-06-26,株式会社Ａｒｅｎａ,,株式会社,埼玉県,熊谷市,本町１丁目１４０番地,,11,202,3600042,,,,,,,2024-06-26,1,,,,,アリーナ,0
956,4030001161116,新規,0,2024-06-26,2024-06-26,株式会社ＯＮＥ,,株式会社,埼玉県,蓮田市,西城３丁目６８番地クレシィス２０１号,,11,238,3490145,,,,,,,2024-06-26,1,,,,,ワン,0
957,4030001161124,新規,0,2024-06-26,2024-06-26,株式会社工藤工業,,株式会社,埼玉県,草加市,稲荷２丁目８番５号,,11,221,3400003,,,,,,,2024-06-26,1,,,,,クドウコウギョウ,0
958,4030001161132,新規,0,2024-06-26,2024-06-26,株式会社ＨＯＮＤＡ　ＪＡＰＡＮ,,株式会社,埼玉県,戸田市,大字新曽３３９番地の１戸田駅前ＴＭビル２Ｆ,,11,224,3350021,,,,,,,2024-06-26,1,,,,,ホンダジャパン,0
962,4030003024543,新規,0,2024-06-26,2024-06-26,Ｊｕｎｇｌｅ合同会社,,合同会社,埼玉県,草加市,谷塚町１７３０－４,,11,221,3400023,,,,,,,2024-06-26,1,,,,,ジャングル,0
963,4030003024568,新規,0,2024-06-26,2024-06-26,合同会社ここち,,合同会社,埼玉県,川口市,並木２丁目３１番３号グリーンパークウエスト川口２Ｄ,,11,203,3320034,,,,,,,2024-06-26,1,,,,,ココチ,0
964,4030003024584,新規,0,2024-06-26,2024-06-26,Ｂｉｇｐｌａｃｅ合同会社,,合同会社,埼玉県,蕨市,塚越２丁目１番１８号シティプラザ蕨ビル４階,,11,223,3350002,,,,,,,2024-06-26,1,,,,,ビッグプレイス,0
965,4030003024592,新規,0,2024-06-26,2024-06-26,万寧合同会社,,合同会社,埼玉県,さいたま市大宮区,桜木町４丁目３３１番地３－５０１号,,11,103,3300854,,,,,,,2024-06-26,1,,,,,マンネイ,0
966,4030003024601,新規,0,2024-06-26,2024-06-26,合同会社ハセッター,,合同会社,埼玉県,蕨市,中央４丁目１１番１２号,,11,223,3350004,,,,,,,2024-06-26,1,,,,,ハセッター,0
969,4040001134228,新規,0,2024-06-26,2024-06-26,株式会社ワイズ電気,,株式会社,千葉県,千葉市美浜区,幸町１丁目１１番７－５０３号,,12,106,2610001,,,,,,,2024-06-26,1,,,,,ワイズデンキ,0
970,4040001134244,新規,0,2024-06-26,2024-06-26,株式会社ＳＴＹＬＥ,,株式会社,千葉県,船橋市,前原東５丁目２４－６,,12,204,2740824,,,,,,,2024-06-26,1,,,,,スタイル,0
971,4040001134252,新規,0,2024-06-26,2024-06-26,株式会社エルズ,,株式会社,千葉県,白井市,根１５２番地の１生鮮市場てらお２階アクトス賃貸区画内,,12,232,2701431,,,,,,,2024-06-26,1,,,,,エルズ,0
975,4040003025268,新規,0,2024-06-26,2024-06-26,合同会社紬,,合同会社,千葉県,八千代市,高津１４８４番地３７,,12,221,2760036,,,,,,,2024-06-26,1,,,,,ツムギ,0
981,4050001054994,新規,0,2024-06-26,2024-06-26,ＮＡＥＥＭ　ＴＲＡＤＩＮＧ株式会社,,株式会社,茨城県,結城郡八千代町,大字菅谷８８４番地１３１,,08,521,3003572,,,,,,,2024-06-26,1,,,,,ナイムトレーディング,0
985,4060003005128,新規,0,2024-06-26,2024-06-26,合同会社ファーマヴィ,,合同会社,栃木県,塩谷郡高根沢町,大字花岡２６８４番地,,09,386,3291207,,,,,,,2024-06-26,1,,,,,ファーマヴィ,0
986,4060005010217,新規,0,2024-06-26,2024-06-26,医療法人トーワ会,,その他の設立登記法人,栃木県,宇都宮市,下砥上町６９１番６,,09,201,3200852,,,,,,,2024-06-26,1,,,,,トーワカイ,0
989,4070003005473,新規,0,2024-06-26,2024-06-26,ＮＨＡＴ　ＮＨＩ合同会社,,合同会社,群馬県,藤岡市,中島４６８番地７,,10,209,3750001,,,,,,,2024-06-26,1,,,,,ニャットニー,0
993,4080101024845,新規,0,2024-06-26,2024-06-26,株式会社大興,,株式会社,静岡県,田方郡函南町,桑原１０２６番地の１５,,22,325,4190101,,,,,,,2024-06-26,1,,,,,ダイコウ,0
994,4090001018789,新規,0,2024-06-26,2024-06-26,株式会社ＢＲＩＧＨＴ,,株式会社,山梨県,富士吉田市,向原１丁目２番５号,,19,202,4030018,,,,,,,2024-06-26,1,,,,,ブライト,0
1014,4120001266120,新規,0,2024-06-26,2024-06-26,株式会社白川産業,,株式会社,大阪府,大阪市中央区,道頓堀１丁目東５番１９号花昭ビル,,27,128,5420071,,,,,,,2024-06-26,1,,,,,シラカワサンギョウ,0
1015,4120001266161,新規,0,2024-06-26,2024-06-26,喜多株式会社,,株式会社,大阪府,大阪市阿倍野区,阪南町４丁目８番２２号,,27,119,5450021,,,,,,,2024-06-26,1,,,,,キタ,0
1016,4120001266260,新規,0,2024-06-26,2024-06-26,株式会社カイト,,株式会社,大阪府,寝屋川市,香里北之町１番５号,,27,215,5720080,,,,,,,2024-06-26,1,,,,,カイト,0
1017,4120001266269,新規,0,2024-06-26,2024-06-26,株式会社ＷｉｎＷｉｎ警備,,株式会社,大阪府,大阪市中央区,本町１丁目６番１８号丸武本町ビル８０４号室,,27,128,5410053,,,,,,,2024-06-26,1,,,,,ウィンウィンケイビ,0
1019,4120003026927,新規,0,2024-06-26,2024-06-26,Ｌｉｎｔ合同会社,,合同会社,大阪府,大阪市中央区,平野町２丁目５－８平野町センチュリービル２Ｆ・３Ｆ,,27,128,5410046,,,,,,,2024-06-26,1,,,,,リント,0
1020,4120003026935,新規,0,2024-06-26,2024-06-26,合同会社フィールド・ベース,,合同会社,大阪府,寝屋川市,上神田２丁目２６番５号,,27,215,5720052,,,,,,,2024-06-26,1,,,,,フィールドベース,0
1023,4120101069852,新規,0,2024-06-26,2024-06-26,株式会社ＹｏｕＭｅＥｒａ,,株式会社,大阪府,泉南郡熊取町,新野田１丁目２０－２,,27,361,5900454,,,,,,,2024-06-26,1,,,,,ユミエラ,0
1026,4120901049376,新規,0,2024-06-26,2024-06-26,ＬＵＣＫセキュリティ株式会社,,株式会社,大阪府,箕面市,箕面２丁目１１番５３号,,27,220,5620001,,,,,,,2024-06-26,1,,,,,ラックセキュリティ,0
1029,4122001038219,新規,0,2024-06-26,2024-06-26,株式会社クリエイティブセルン,,株式会社,大阪府,東大阪市,吉田本町３丁目４－４０ＧＯＮＦＬＡＴ吉田本町２０６,,27,227,5780982,,,,,,,2024-06-26,1,,,,,クリエイティブセルン,0
1036,4140001134894,新規,0,2024-06-26,2024-06-26,株式会社アペリオ,,株式会社,兵庫県,神戸市灘区,友田町４丁目１番２３号ライオンズマンション六甲道４０７号,,28,102,6570035,,,,,,,2024-06-26,1,,,,,アペリオ,0
1042,4150003003295,新規,0,2024-06-26,2024-06-26,合同会社Ｒ＆Ａ,,合同会社,奈良県,奈良市,あやめ池南７丁目５７９番地の１６,,29,201,6310033,,,,,,,2024-06-26,1,,,,,アールアンドエー,0
1044,4170003002064,新規,0,2024-06-26,2024-06-26,合同会社ＤＯＬＰＨＩＮ,,合同会社,和歌山県,田辺市,神子浜１丁目１１番３４号２０１,,30,206,6460025,,,,,,,2024-06-26,1,,,,,ドルフィン,0
1049,4180001162116,新規,0,2024-06-26,2024-06-26,株式会社Ｓｋｙ,,株式会社,愛知県,名古屋市西区,万代町２丁目１７番地の１,,23,104,4510074,,,,,,,2024-06-26,1,,,,,スカイ,0
1050,4180001162132,新規,0,2024-06-26,2024-06-26,ＥＣＯ．ＴＡ株式会社,,株式会社,愛知県,名古屋市西区,比良４丁目３６４番地の１,,23,104,4520802,,,,,,,2024-06-26,1,,,,,エコタ,0
1056,4180003026987,新規,0,2024-06-26,2024-06-26,マルベリー合同会社,,合同会社,愛知県,名古屋市緑区,黒沢台１丁目１４２８番地,,23,114,4580003,,,,,,,2024-06-26,1,,,,,マルベリー,0
1068,4210001019799,新規,0,2024-06-26,2024-06-26,北陸観光ＤＭＣ株式会社,,株式会社,福井県,福井市,栂野町第１５号１番地２,,18,201,9102178,,,,,,,2024-06-26,1,,,,,ホクリクカンコウディーエムシー,0
1071,4240001063423,新規,0,2024-06-26,2024-06-26,株式会社ＭＡＴＳＵＯＫＡ,,株式会社,広島県,広島市南区,大州２丁目１番１５－２号,,34,103,7320802,,,,,,,2024-06-26,1,,,,,マツオカ,0
1072,4240001063431,新規,0,2024-06-26,2024-06-26,株式会社ＴＲＹＦＯＲＣＥ,,株式会社,広島県,東広島市,河内町入野７８７２番地１,,34,212,7392208,,,,,,,2024-06-26,1,,,,,トライフォース,0
1073,4250005008927,新規,0,2024-06-26,2024-06-26,企業組合むろづみ空想計画舎,,その他の設立登記法人,山口県,光市,室積７丁目９番３号,,35,210,7430007,,,,,,,2024-06-26,1,,,,,ムロヅミクウソウケイカクシャ,0
1079,4260005011368,新規,0,2024-06-26,2024-06-26,一般社団法人真庭ＤＸ戦略推進協議会,,その他の設立登記法人,岡山県,真庭市,久世２５１１番地１３,,33,214,7193201,,,,,,,2024-06-26,1,,,,,マニワディーエックスセンリャクスイシンキョウギカイ,0
1088,4290001106251,新規,0,2024-06-26,2024-06-26,株式会社レトワール,,株式会社,福岡県,福岡市東区,千早４丁目２１番５５号,,40,131,8130044,,,,,,,2024-06-26,1,,,,,レトワール,0
1093,4290003015483,新規,0,2024-06-26,2024-06-26,合同会社ＣＯＳＭＯ,,合同会社,福岡県,福岡市中央区,天神４丁目６－２８天神ファーストビル７階,,40,133,8100001,,,,,,,2024-06-26,1,,,,,コスモ,0
1094,4290003015491,新規,0,2024-06-26,2024-06-26,ＳＨ合同会社,,合同会社,福岡県,福岡市中央区,薬院３丁目８－１６－８０５号室,,40,133,8100022,,,,,,,2024-06-26,1,,,,,エスエイチ,0
1096,4300003002133,新規,0,2024-06-26,2024-06-26,Ｍ’ｓ合同会社,,合同会社,佐賀県,鹿島市,浜町北船津乙１６４７,,41,207,8491322,,,,,,,2024-06-26,1,,,,,エムズ,0
1097,4300003002141,新規,0,2024-06-26,2024-06-26,昭和自動車合同会社,,合同会社,佐賀県,神埼市,神埼町横武３９－１,,41,210,8420012,,,,,,,2024-06-26,1,,,,,ショウワジドウシャ,0
1105,4330003010439,新規,0,2024-06-26,2024-06-26,合同会社ＭＹ　ＳＴＡＧＥ,,合同会社,熊本県,熊本市西区,春日２丁目９番８－１３０８号,,43,103,8600047,,,,,,,2024-06-26,1,,,,,マイステージ,0
1106,4340003004514,新規,0,2024-06-26,2024-06-26,総合石材合同会社,,合同会社,鹿児島県,鹿屋市,旭原町３５９８番地４－１０１号室,,46,203,8930022,,,,,,,2024-06-26,1,,,,,ソウゴウセキザイ,0
1108,4340005009750,新規,0,2024-06-26,2024-06-26,一般社団法人スポーツ観光おおさき,,その他の設立登記法人,鹿児島県,曽於郡大崎町,假宿１０２９番地,,46,468,8997305,,,,,,,2024-06-26,1,,,,,スポーツカンコウオオサキ,0
1110,4360003014098,新規,0,2024-06-26,2024-06-26,ＴＯＣＯＴＯ合同会社,,合同会社,沖縄県,中頭郡読谷村,字高志保３４１－３－２Ｆ,,47,324,9040323,,,,,,,2024-06-26,1,,,,,トコット,0
1123,4430001092097,新規,0,2024-06-26,2024-06-26,ＨＴＬ北海道株式会社,,株式会社,北海道,札幌市東区,北二十三条東１５丁目５番２６号,,01,103,0650023,,,,,,,2024-06-26,1,,,,,エイチティーエルホッカイドウ,0
1124,4430001092114,新規,0,2024-06-26,2024-06-26,ＢＥＧＯＳ　ＩＮＴＥＲＮＡＴＩＯＮＡＬ株式会社,,株式会社,北海道,札幌市豊平区,平岸一条６丁目１番２５－５０６号,,01,105,0620931,,,,,,,2024-06-26,1,,,,,ベゴスインターナショナル,0
1130,4430003016491,新規,0,2024-06-26,2024-06-26,合同会社Ｌｅｏ,,合同会社,北海道,苫小牧市,宮前町５丁目５－４,,01,213,0591264,,,,,,,2024-06-26,1,,,,,,0
1137,4480001012521,新規,0,2024-06-26,2024-06-26,株式会社ひなた,,株式会社,徳島県,三好市,井川町西井川３１１番地２,,36,208,7794806,,,,,,,2024-06-26,1,,,,,ヒナタ,0
1141,4500003003268,新規,0,2024-06-26,2024-06-26,合同会社ＫＡＩＭＥＩ創建,,合同会社,愛媛県,松山市,土居田町７１９番地まことハイツ３０１号,,38,201,7900056,,,,,,,2024-06-26,1,,,,,カイメイソウケン,0
1143,4700150126215,新規,0,2024-06-26,2024-06-26,Ｗｅｎｚｈｏｕ　Ｏｕｂｏ　Ｅｌｅｃｔｒｉｃ　Ｔｅｃｈｎｏｌｏｇｙ　Ｃｏ．，Ｌｔｄ,,外国会社等,,,,,,,,Ｗａｎｌｉｑｉａｏ　Ｖｉｌｌａｇｅ，Ｌｉｕｓｈｉ　Ｔｏｗｎ，Ｙｕｅｑｉｎｇ　Ｃｉｔｙ，Ｗｅｎｚｈｏｕ　Ｃｉｔｙ，Ｚｈｅｊｉａｎｇ　Ｐｒｏｖｉｎｃｅ,,,,,,2024-06-26,1,,,,,ウェンシュウオボイレクトゥリックテクノロジーカンパニーリミテッド,0
1152,5010001246041,新規,0,2024-06-26,2024-06-26,子＿実業株式会社,00135306,株式会社,東京都,千代田区,神田和泉町１番地６－１６ヤマトビル４０５,,13,101,1010024,,,,,,,2024-06-26,1,,,,,シアンジツギョウ,0
1153,5010001246066,新規,0,2024-06-26,2024-06-26,株式会社ＮｏｖＡｃｃｅｌ,,株式会社,東京都,千代田区,九段南４丁目６－１九段シルバーパレス４０１号,,13,101,1020074,,,,,,,2024-06-26,1,,,,,ノバセル,0
1154,5010001246090,新規,0,2024-06-26,2024-06-26,ロクロック株式会社,,株式会社,東京都,中央区,銀座１丁目２２番１１号銀座大竹ビジデンス２Ｆ,,13,102,1040061,,,,,,,2024-06-26,1,,,,,ロクロック,0
1157,5010003044121,新規,0,2024-06-26,2024-06-26,合同会社田園都市線宮前平開発プロジェクト,,合同会社,東京都,千代田区,平河町１丁目６番１５号シルスフィア会計事務所内,,13,101,1020093,,,,,,,2024-06-26,1,,,,,デンエントシセンミヤマエダイラカイハツプロジェクト,0
1158,5010003044146,新規,0,2024-06-26,2024-06-26,シルクロードプランニング合同会社,,合同会社,東京都,千代田区,内神田１丁目１１－１１、２階,,13,101,1010047,,,,,,,2024-06-26,1,,,,,,0
1159,5010003044162,新規,0,2024-06-26,2024-06-26,広島宮島口ホテルマネジメント合同会社,,合同会社,東京都,千代田区,霞が関３丁目２番１号,,13,101,1000013,,,,,,,2024-06-26,1,,,,,ヒロシマミヤジマグチホテルマネジメント,0
1168,5010401183339,新規,0,2024-06-26,2024-06-26,株式会社アッサンブラージュ,,株式会社,東京都,港区,芝２丁目１６－９芝ＹＳビル３階,,13,103,1050014,,,,,,,2024-06-26,1,,,,,,0
1169,5010401183363,新規,0,2024-06-26,2024-06-26,株式会社ミクリエ,,株式会社,東京都,港区,北青山１丁目３番１号アールキューブ青山３階,,13,103,1070061,,,,,,,2024-06-26,1,,,,,ミクリエ,0
1170,5010403032873,新規,0,2024-06-26,2024-06-26,合同会社Ｆｕｔｕｒｅ,,合同会社,東京都,港区,西新橋１丁目２－９日比谷セントラルビル１４階,,13,103,1050003,,,,,,,2024-06-26,1,,,,,フューチャー,0
1173,5010501052492,新規,0,2024-06-26,2024-06-26,大根株式会社,,株式会社,東京都,台東区,千束３丁目２１－１２キートスビル２０６,,13,106,1110031,,,,,,,2024-06-26,1,,,,,ダイコン,0
1176,5010601065444,新規,0,2024-06-26,2024-06-26,ＳｔｅＬＬａ株式会社,,株式会社,東京都,江東区,白河２丁目１４番２号ＷＯＲＫＬＡＢＥＬ清澄白河３０６,,13,108,1350021,,,,,,,2024-06-26,1,,,,,ステラ,0
1187,5011103014600,新規,0,2024-06-26,2024-06-26,合同会社ラフ,,合同会社,東京都,新宿区,西新宿３丁目３番１３号西新宿水間ビル６階,,13,104,1600023,,,,,,,2024-06-26,1,,,,,ラフ,0
1188,5011103014609,新規,0,2024-06-26,2024-06-26,合同会社ウィステリア,,合同会社,東京都,新宿区,南町１６番地７,,13,104,1620836,,,,,,,2024-06-26,1,,,,,ウィステリア,0
1199,5011801044428,新規,0,2024-06-26,2024-06-26,株式会社ＰＲＡＹ　ＧＯ,,株式会社,東京都,葛飾区,新小岩３丁目２８番１１号,,13,122,1240024,,,,,,,2024-06-26,1,,,,,,0
1200,5011801044444,新規,0,2024-06-26,2024-06-26,ＤＢ　Ｃｏｎｓｕｌｔｉｎｇ　Ｊａｐａｎ株式会社,,株式会社,東京都,葛飾区,新小岩４丁目７番７号－２０３,,13,122,1240024,,,,,,,2024-06-26,1,,,,,ディービーコンサルティングジャパン,0
1207,5012701018323,新規,0,2024-06-26,2024-06-26,株式会社宏和設備,,株式会社,東京都,東村山市,栄町３丁目１０番地５５,,13,213,1890013,,,,,,,2024-06-26,1,,,,,コウワセツビ,0
1209,5012801023280,新規,0,2024-06-26,2024-06-26,株式会社Ｄｏｍｏｎａ,,株式会社,東京都,国分寺市,富士本２丁目２３番地１２ルネッサンス国立１０２,,13,214,1850031,,,,,,,2024-06-26,1,,,,,ドモナ,0
1211,5013301052679,新規,0,2024-06-26,2024-06-26,伊藤製薬株式会社,,株式会社,東京都,豊島区,池袋１丁目５－１７,,13,116,1700014,,,,,,,2024-06-26,1,,,,,イトウセイヤク,0
1212,5013301052695,新規,0,2024-06-26,2024-06-26,株式会社ＡＩＴＯＷＡ,,株式会社,東京都,豊島区,池袋本町２丁目２７－１１,,13,116,1700011,,,,,,,2024-06-26,1,,,,,アイトワ,0
1219,5020001157865,新規,0,2024-06-26,2024-06-26,株式会社スカイ,,株式会社,神奈川県,横浜市泉区,西が岡２丁目１２番地８ボヌール西ヶ岡２０１号,,14,116,2450006,,,,,,,2024-06-26,1,,,,,スカイ,0
1223,5020003026333,新規,0,2024-06-26,2024-06-26,合同会社シュバイン,,合同会社,神奈川県,横浜市泉区,和泉中央南５丁目６番３号,,14,116,2450023,,,,,,,2024-06-26,1,,,,,シュバイン,0
1239,5030001161107,新規,0,2024-06-26,2024-06-26,株式会社デンタルＡ,,株式会社,埼玉県,さいたま市大宮区,桜木町２丁目３番地大宮マルイ７階,,11,103,3300854,,,,,,,2024-06-26,1,,,,,デンタルエー,0
1240,5030001161115,新規,0,2024-06-26,2024-06-26,株式会社ＭＹ,,株式会社,埼玉県,さいたま市南区,南浦和２丁目２８番１３号高砂ビル３階,,11,108,3360017,,,,,,,2024-06-26,1,,,,,ミィ,0
1249,5040001134219,新規,0,2024-06-26,2024-06-26,株式会社なむら,,株式会社,千葉県,千葉市中央区,栄町４１番１１号,,12,101,2600016,,,,,,,2024-06-26,1,,,,,ナムラ,0
1250,5040001134227,新規,0,2024-06-26,2024-06-26,株式会社児玉工務店,,株式会社,千葉県,松戸市,稔台１丁目１４番地の１９レフィナード１０１号,,12,207,2702231,,,,,,,2024-06-26,1,,,,,コダマコウムテン,0
1255,5040003025275,新規,0,2024-06-26,2024-06-26,Ｆ＆Ｆ合同会社,,合同会社,千葉県,山武市,埴谷１８６７番地２７,,12,237,2891223,,,,,,,2024-06-26,1,,,,,エフアンドエフ,0
1262,5050001054969,新規,0,2024-06-26,2024-06-26,ＮＡＶＥＥＤ　ＴＲＡＤＩＮＧ株式会社,,株式会社,茨城県,結城市,大字結城７４８－６,,08,207,3070001,,,,,,,2024-06-26,1,,,,,ナビードトレーディング,0
1263,5050001054993,新規,0,2024-06-26,2024-06-26,ＷＡＬＩ　ＴＲＡＤＩＮＧ株式会社,,株式会社,茨城県,水戸市,吉沢町６３８－１岩崎ハイム吉沢１０８,,08,201,3100845,,,,,,,2024-06-26,1,,,,,ワリトレーディング,0
1278,5080003003211,新規,0,2024-06-26,2024-06-26,合同会社北川,,合同会社,静岡県,静岡市駿河区,津島町５番２号,,22,102,4228056,,,,,,,2024-06-26,1,,,,,キタガワ,0
1286,5090001018771,新規,0,2024-06-26,2024-06-26,株式会社Ｃｈｅｅｒ　ｕｐ　Ｊｒ．,,株式会社,山梨県,中巨摩郡昭和町,西条７４２番地１,,19,384,4093866,,,,,,,2024-06-26,1,,,,,チアアップジュニア,0
1287,5090001018788,新規,0,2024-06-26,2024-06-26,磯野屋株式会社,,株式会社,山梨県,南巨摩郡富士川町,青柳町３９６番地,,19,368,4000501,,,,,,,2024-06-26,1,,,,,イソノヤ,0
1293,5100001037588,新規,0,2024-06-26,2024-06-26,株式会社やまちゃんファーム,,株式会社,長野県,松本市,大字今井７０８番地,,20,202,3901131,,,,,,,2024-06-26,1,,,,,ヤマチャンファーム,0
1296,5110005017107,新規,0,2024-06-26,2024-06-26,一般社団法人糸魚川市デジタル地域通貨振興協会,,その他の設立登記法人,新潟県,糸魚川市,南寺町１丁目８番４１号,,15,216,9410057,,,,,,,2024-06-26,1,,,,,イトイガワシデジタルチイキツウカシンコウキョウカイ,0
1304,5120001266210,新規,0,2024-06-26,2024-06-26,株式会社ＬＩＦＩＸ,,株式会社,大阪府,大阪市福島区,海老江３丁目１６番１５号ハーモニーテラス海老江３０１号,,27,103,5530001,,,,,,,2024-06-26,1,,,,,リフィックス,0
1305,5120001266276,新規,0,2024-06-26,2024-06-26,ｎａｍｅｂｉｒｄ株式会社,,株式会社,大阪府,寝屋川市,池田本町１９番２１－９０３号,,27,215,5720030,,,,,,,2024-06-26,1,,,,,ネームバード,0
1311,5120005024390,新規,0,2024-06-26,2024-06-26,一般社団法人ぼの,,その他の設立登記法人,大阪府,大阪市天王寺区,石ケ辻町三丁目１０ＩＫビル１０２号,,27,109,5430031,,,,,,,2024-06-26,1,,,,,ボノ,0
1313,5120103005912,新規,0,2024-06-26,2024-06-26,富合同会社,,合同会社,大阪府,堺市西区,浜寺石津町中３丁６番１２号サンワードビル２Ａ号室,,27,144,5928334,,,,,,,2024-06-26,1,,,,,トミ,0
1315,5120901049367,新規,0,2024-06-26,2024-06-26,株式会社ノックアップストリーム,,株式会社,大阪府,豊中市,曽根東町２丁目２番２１号,,27,203,5610802,,,,,,,2024-06-26,1,,,,,ノックアップストリーム,0
1321,5130001077334,新規,0,2024-06-26,2024-06-26,株式会社Ｇｒａｎｄｏｒｃａ,,株式会社,京都府,八幡市,八幡西高坊１０－２,,26,210,6148007,,,,,,,2024-06-26,1,,,,,グランドルカ,0
1323,5130003009632,新規,0,2024-06-26,2024-06-26,合同会社Ｌａｂｒａｄｏｒ　Ｌａｂｏｒａｔｏｒｙ,,合同会社,京都府,京都市下京区,朱雀宝蔵町４４番地協栄ビル２階京都朱雀スタジオ,,26,106,6008846,,,,,,,2024-06-26,1,,,,,ラブラドールラボラトリー,0
1324,5130003009665,新規,0,2024-06-26,2024-06-26,Ｖｏｌｅｒ．ｃｏｔｅ合同会社,,合同会社,京都府,宇治市,木幡西浦４８デミューズ木幡７０６号,,26,204,6110002,,,,,,,2024-06-26,1,,,,,ボレラコート,0
1327,5140001134893,新規,0,2024-06-26,2024-06-26,恒興商事株式会社,,株式会社,兵庫県,神戸市長田区,五番町５丁目２番地の３,,28,106,6530003,,,,,,,2024-06-26,1,,,,,ツネオキショウジ,0
1328,5140001134902,新規,0,2024-06-26,2024-06-26,株式会社ｅ‐ｓｅａｓｏｎ,,株式会社,兵庫県,宝塚市,寿町５番４号,,28,214,6650865,,,,,,,2024-06-26,1,,,,,イーシーズン,0
1331,5140003020753,新規,0,2024-06-26,2024-06-26,合同会社ＫＮＴ‐ＢＡＳＥ,,合同会社,兵庫県,相生市,那波南本町１番２９号,,28,208,6780053,,,,,,,2024-06-26,1,,,,,ケーエヌティーベース,0
1333,5140005027128,新規,0,2024-06-26,2024-06-26,一般社団法人のびのび,,その他の設立登記法人,兵庫県,尼崎市,杭瀬北新町３丁目１６番７号,,28,202,6600815,,,,,,,2024-06-26,1,,,,,ノビノビ,0
1334,5150001027378,新規,0,2024-06-26,2024-06-26,太洋スカイホールディングス株式会社,,株式会社,奈良県,奈良市,大宮町６丁目７番３号,,29,201,6308115,,,,,,,2024-06-26,1,,,,,タイヨウスカイホールディングス,0
1335,5150003003286,新規,0,2024-06-26,2024-06-26,合同会社ｔｒｕｎｋ,,合同会社,奈良県,磯城郡田原本町,大字三笠２５４‐１‐２０３,,29,363,6360342,,,,,,,2024-06-26,1,,,,,トランク,0
1339,5170003002063,新規,0,2024-06-26,2024-06-26,合同会社ＰＨＯＥＮＩＸ,,合同会社,和歌山県,日高郡印南町,大字印南１９７７番地の３ハイツＨ・Ｍ・Ｔ２０６号,,30,390,6491534,,,,,,,2024-06-26,1,,,,,フェニックス,0
1344,5180001162098,新規,0,2024-06-26,2024-06-26,株式会社ｂｅｃｏｍｅ,,株式会社,愛知県,江南市,前野町東１８８番地８,,23,217,4838052,,,,,,,2024-06-26,1,,,,,ビカム,0
1345,5180001162107,新規,0,2024-06-26,2024-06-26,株式会社輝,,株式会社,愛知県,名古屋市東区,泉１丁目２２番１号ザ・センチュリーステイツ１４０９号,,23,102,4610001,,,,,,,2024-06-26,1,,,,,カガヤキ,0
1346,5180001162115,新規,0,2024-06-26,2024-06-26,株式会社Ｚｅｎｉｔｈ　Ｉｎｎｏｖａｔｉｏｎ　Ｓｕｐｐｏｒｔ,,株式会社,愛知県,名古屋市東区,葵３丁目１８番１７号サンプレー名古屋ビル４Ｆ,,23,102,4610004,,,,,,,2024-06-26,1,,,,,ゼニスイノベーションサポート,0
1350,5180003026986,新規,0,2024-06-26,2024-06-26,合同会社ＭＯＤＥＬ　ＳＱＵＡＤ,,合同会社,愛知県,名古屋市天白区,原１丁目２１０１番地,,23,116,4680015,,,,,,,2024-06-26,1,,,,,モデルスクワッド,0
1351,5180003026994,新規,0,2024-06-26,2024-06-26,合同会社ライフアップ,,合同会社,愛知県,知多市,八幡字東水代７９番地の１（Ｅ）,,23,224,4780001,,,,,,,2024-06-26,1,,,,,ライフアップ,0
1359,5230001020408,新規,0,2024-06-26,2024-06-26,株式会社Ｒ,,株式会社,富山県,富山市,有沢２４３１番地２,,16,201,9300862,,,,,,,2024-06-26,1,,,,,アール,0
1360,5240001063380,新規,0,2024-06-26,2024-06-26,株式会社勇光建設,,株式会社,広島県,福山市,水呑町７０２４番４５,,34,207,7200832,,,,,,,2024-06-26,1,,,,,ユウコウケンセツ,0
1361,5240001063439,新規,0,2024-06-26,2024-06-26,ダイナツーリスト株式会社,,株式会社,広島県,福山市,神辺町新湯野５６番地１２,,34,207,7210000,,,,,,,2024-06-26,1,,,,,ダイナツーリスト,0
1371,5290001106127,新規,0,2024-06-26,2024-06-26,株式会社Ｌｏｙａｌ　ＥＱＵＩＰ,,株式会社,福岡県,久留米市,城島町楢津７７２番地,00135297,40,203,8300211,,,,,,,2024-06-26,1,,,,,ロイヤルエクイップ,0
1372,5290003015458,新規,0,2024-06-26,2024-06-26,ＭＭＢ合同会社,,合同会社,福岡県,福岡市城南区,片江４丁目８－１シルキーハウスＫ１０２,,40,136,8140142,,,,,,,2024-06-26,1,,,,,エムエムビー,0
1376,5300001013809,新規,0,2024-06-26,2024-06-26,シーランドコーポレーション株式会社,,株式会社,佐賀県,武雄市,北方町大字芦原２３３６番地１,,41,206,8492203,,,,,,,2024-06-26,1,,,,,シーランドコーポレーション,0
1381,5330001032194,新規,0,2024-06-26,2024-06-26,株式会社讓葉美装,00135319,株式会社,熊本県,熊本市中央区,黒髪６丁目１２番１９－２号,,43,101,8600862,,,,,,,2024-06-26,1,,,,,ユズリハビソウ,0
1383,5340001026600,新規,0,2024-06-26,2024-06-26,株式会社結,,株式会社,鹿児島県,鹿児島市,坂之上６丁目２３番１０号,,46,201,8910150,,,,,,,2024-06-26,1,,,,,ユイ,0
1396,5360003014097,新規,0,2024-06-26,2024-06-26,合同会社らしく,,合同会社,沖縄県,国頭郡金武町,字金武７９０４番地・２Ｆ,,47,314,9041201,,,,,,,2024-06-26,1,,,,,ラシク,0
1403,5380001034632,新規,0,2024-06-26,2024-06-26,株式会社Ｍ　Ｇｒｅｅｎ　Ｓｅｒｖｉｃｅ　Ｒ,,株式会社,福島県,岩瀬郡鏡石町,中町３１５－１ガーデンハイツ１０２,,07,342,9690404,,,,,,,2024-06-26,1,,,,,エムグリーンサービス,0
1413,5430001092105,新規,0,2024-06-26,2024-06-26,株式会社フードバリエーション,,株式会社,北海道,札幌市中央区,南八条西１１丁目３－１第８松井ビル２－Ｂ,,01,101,0640808,,,,,,,2024-06-26,1,,,,,フードバリエーション,0
1431,5700150126214,新規,0,2024-06-26,2024-06-26,ｇｕａｎｇｚｈｏｕｓｈｉｚｉｓｈｕｏｄｉａｎｚｉｋｅｊｉｙｏｕｘｉａｎｇｏｎｇｓｉ,,外国会社等,,,,,,,,Ｇｕａｎｇｄｏｎｇｓｈｅｎｇ　Ｇｕａｎｇｚｈｏｕｓｈｉ　Ｙｕｅｘｉｕｑｕ　Ｈｕａｎｓｈｉｚｈｏｎｇｌｕ３１６ｈａｏ２６１２ｓｈｉＡ０１０３,,,,,,2024-06-26,1,,,,,コウシュウシズシュオデンシカギユウゲンコウシ,0
1443,6010001246024,新規,0,2024-06-26,2024-06-26,株式会社ＭＡＧ．ＮＥＴ,,株式会社,東京都,千代田区,一ツ橋２丁目３番１号,,13,101,1010003,,,,,,,2024-06-26,1,,,,,マグネット,0
1450,6010003044104,新規,0,2024-06-26,2024-06-26,合同会社広島宮島口ホテルプロジェクト,,合同会社,東京都,千代田区,霞が関３丁目２番５号,,13,101,1000013,,,,,,,2024-06-26,1,,,,,ヒロシマミヤジマグチホテルプロジェクト,0
1451,6010003044153,新規,0,2024-06-26,2024-06-26,ＬＵＸＥ　Ｊａｐａｎ２合同会社,,合同会社,東京都,中央区,新川１丁目１７番１８号,,13,102,1040033,,,,,,,2024-06-26,1,,,,,ラグゼジャパンツー,0
1452,6010003044161,新規,0,2024-06-26,2024-06-26,ＳＩＧＭＡ　ＰＡＲＴＮＥＲ合同会社,,合同会社,東京都,中央区,銀座６丁目１３番１６号銀座ＷａｌｌビルＵＣＦ５０１,,13,102,1040061,,,,,,,2024-06-26,1,,,,,シグマパートナー,0
1458,6010401183370,新規,0,2024-06-26,2024-06-26,ドキュメントフォース株式会社,,株式会社,東京都,港区,愛宕２丁目５番１号愛宕グリーンヒルズＭＯＲＩタワー３４Ｆ,,13,103,1050002,,,,,,,2024-06-26,1,,,,,ドキュメントフォース,0
1462,6010403032872,新規,0,2024-06-26,2024-06-26,リーゼスト合同会社,,合同会社,東京都,港区,赤坂４丁目１３－５赤坂オフィスハイツビル１Ｆ,,13,103,1070052,,,,,,,2024-06-26,1,,,,,リーゼスト,0
1463,6010403032889,新規,0,2024-06-26,2024-06-26,ＡＩＲＳ　Ｍｅｄｉｃａｌ　Ｊａｐａｎ合同会社,,合同会社,東京都,港区,虎ノ門１丁目１７番１号虎ノ門ヒルズビジネスタワー１５階,,13,103,1050001,,,,,,,2024-06-26,1,,,,,エアーズメディカルジャパン,0
1467,6010501052500,新規,0,2024-06-26,2024-06-26,ＤＡＮＣＨＥＮ株式会社,,株式会社,東京都,台東区,台東２丁目３１－１０ＩＮＣＯｆｆｉｃｅ御徒町１０２号室,,13,106,1100016,,,,,,,2024-06-26,1,,,,,ダンチェン,0
1469,6010601065443,新規,0,2024-06-26,2024-06-26,株式会社三宅,,株式会社,東京都,墨田区,業平１丁目１５番２号徳ビル,,13,107,1300002,,,,,,,2024-06-26,1,,,,,ミヤケ,0
1474,6010901055532,新規,0,2024-06-26,2024-06-26,株式会社らんまる,,株式会社,東京都,世田谷区,太子堂４丁目５番１号大雅堂ビル１階,,13,112,1540004,,,,,,,2024-06-26,1,,,,,ランマル,0
1488,6011003019467,新規,0,2024-06-26,2024-06-26,合同会社ｗｔｕ,,合同会社,東京都,渋谷区,代々木１丁目２５番５号,,13,113,1510053,,,,,,,2024-06-26,1,,,,,ウー,0
1489,6011101107834,新規,0,2024-06-26,2024-06-26,株式会社ＣＡＮＥ,,株式会社,東京都,新宿区,新宿７丁目３番１６号１階,,13,104,1600022,,,,,,,2024-06-26,1,,,,,ケイン,0
1495,6011703003885,新規,0,2024-06-26,2024-06-26,雲龍国際合同会社,,合同会社,東京都,江戸川区,南小岩３丁目１－１４プランドールＭ－１０６,,13,123,1330056,,,,,,,2024-06-26,1,,,,,ウンリュウコクサイ,0
1502,6012701018322,新規,0,2024-06-26,2024-06-26,西武しんきんパートナー株式会社,,株式会社,東京都,小平市,中島町３１番２０号,,13,211,1870033,,,,,,,2024-06-26,1,,,,,セイブシンキンパートナー,0
1503,6012803003445,新規,0,2024-06-26,2024-06-26,合同会社ＲＯＫＫＡ．六花,,合同会社,東京都,国立市,東３丁目１１－１８メゾンカトレア２０６,,13,215,1860002,,,,,,,2024-06-26,1,,,,,ロッカ,0
1505,6013301052703,新規,0,2024-06-26,2024-06-26,株式会社ｉｔｏ,,株式会社,東京都,豊島区,南池袋１丁目１１番１９号６１４室,,13,116,1710022,,,,,,,2024-06-26,1,,,,,イト,0
1515,6021001082573,新規,0,2024-06-26,2024-06-26,株式会社ＢＮＴＮ,,株式会社,神奈川県,藤沢市,鵠沼松が岡５丁目８番３６号ヘーゼル松が岡１０２号室,,14,205,2510038,,,,,,,2024-06-26,1,,,,,ビーエヌティーエヌ,0
1518,6021003014673,新規,0,2024-06-26,2024-06-26,ＡＮＭＥＬ合同会社,,合同会社,神奈川県,鎌倉市,今泉３丁目１７―２,,14,204,2470052,,,,,,,2024-06-26,1,,,,,アンメル,0
1526,6030001161048,新規,0,2024-06-26,2024-06-26,株式会社日向教育,,株式会社,埼玉県,新座市,東北２丁目２４番１４－９０８号,,11,230,3520001,,,,,,,2024-06-26,1,,,,,ヒナタキョウイク,0
1527,6030001161139,新規,0,2024-06-26,2024-06-26,幸村興業株式会社,,株式会社,埼玉県,さいたま市緑区,大字三室１３８５番地１１,,11,109,3360911,,,,,,,2024-06-26,1,,,,,ユキムラコウギョウ,0
1542,6040001134226,新規,0,2024-06-26,2024-06-26,ＴＨＲＥＥ　ＢＥＥＳ株式会社,,株式会社,千葉県,千葉市中央区,新千葉２丁目８番８号松樹第一マンション１Ｆ,,12,101,2600031,,,,,,,2024-06-26,1,,,,,ティリービー,0
1544,6040003025274,新規,0,2024-06-26,2024-06-26,合同会社はるのみち不動産,,合同会社,千葉県,千葉市緑区,おゆみ野２丁目３６番地４,,12,105,2660031,,,,,,,2024-06-26,1,,,,,ハルノミチフドウサン,0
1549,6050001054992,新規,0,2024-06-26,2024-06-26,ＮＡＫＡＺＡＴＯ株式会社,,株式会社,茨城県,常陸大宮市,上小瀬２０８１－３－２０２号室,,08,225,3192401,,,,,,,2024-06-26,1,,,,,ナカザト,0
1554,6070001041898,新規,0,2024-06-26,2024-06-26,株式会社ｍａ・Ｆ,,株式会社,群馬県,前橋市,上長磯町８番地５,,10,201,3792165,,,,,,,2024-06-26,1,,,,,エムエイエフ,0
1555,6070001041915,新規,0,2024-06-26,2024-06-26,フリーマン株式会社,,株式会社,群馬県,高崎市,本郷町３６番地２,,10,202,3703334,,,,,,,2024-06-26,1,,,,,フリーマン,0
1566,6080101024843,新規,0,2024-06-26,2024-06-26,株式会社御来光山荘,,株式会社,静岡県,富士宮市,粟倉１３３２番地,,22,207,4180011,,,,,,,2024-06-26,1,,,,,ゴライコウサンソウ,0
1570,6080401027273,新規,0,2024-06-26,2024-06-26,株式会社ＩＤ,,株式会社,静岡県,浜松市中央区,佐藤２丁目１４番１３号,,22,138,4300807,,,,,,,2024-06-26,1,,,,,アイディー,0
1582,6120001266119,新規,0,2024-06-26,2024-06-26,智捷株式会社,,株式会社,大阪府,大阪市西成区,玉出西２丁目１２番１１号チェリーハイツ３０１号,,27,122,5570045,,,,,,,2024-06-26,1,,,,,チハヤ,0
1583,6120001266151,新規,0,2024-06-26,2024-06-26,世紀株式会社,,株式会社,大阪府,大阪市浪速区,元町１丁目１０番６号８階,,27,111,5560016,,,,,,,2024-06-26,1,,,,,セイキ,0
1584,6120001266192,新規,0,2024-06-26,2024-06-26,株式会社そしじ,,株式会社,大阪府,大阪市福島区,海老江１丁目５番３０－１２３３号,,27,103,5530001,,,,,,,2024-06-26,1,,,,,ソシジ,0
1585,6120001266201,新規,0,2024-06-26,2024-06-26,信上五村株式会社,,株式会社,大阪府,大阪市福島区,福島１丁目１番４８－１８０９号,,27,103,5530003,,,,,,,2024-06-26,1,,,,,シンジョウゴソン,0
1586,6120001266242,新規,0,2024-06-26,2024-06-26,株式会社悠ガーデン,,株式会社,大阪府,大阪市東成区,中道２丁目１７番７号,,27,115,5370025,,,,,,,2024-06-26,1,,,,,ユウガーデン,0
1587,6120001266259,新規,0,2024-06-26,2024-06-26,大富トラスト株式会社,,株式会社,大阪府,大阪市西区,西本町１丁目１１番１号セントラルハイツ１４０６号,,27,106,5500005,,,,,,,2024-06-26,1,,,,,オオトミトラスト,0
1588,6120001266275,新規,0,2024-06-26,2024-06-26,株式会社Ｈｉｇｈ＆Ｙｏｕ,,株式会社,大阪府,大阪市北区,長柄西１丁目３－２２－１８１３,,27,127,5310061,,,,,,,2024-06-26,1,,,,,ハイアンドユー,0
1594,6120003026925,新規,0,2024-06-26,2024-06-26,合同会社Ｙｃｏｒｐｏｒａｔｉｏｎ,,合同会社,大阪府,大阪市西区,南堀江２丁目２番１３号,,27,106,5500015,,,,,,,2024-06-26,1,,,,,ワイコーポレーション,0
1595,6120003026941,新規,0,2024-06-26,2024-06-26,ｃｏｕｓｓｉｎｅｔ合同会社,,合同会社,大阪府,大阪市北区,梅田１丁目２番２号大阪駅前第２ビル１２‐１２,,27,127,5300001,,,,,,,2024-06-26,1,,,,,クシネ,0
1600,6120901049374,新規,0,2024-06-26,2024-06-26,株式会社ＫＭＪ,,株式会社,大阪府,豊中市,新千里北町２丁目１８番７号,,27,203,5600081,,,,,,,2024-06-26,1,,,,,ケーエムジェー,0
1601,6120901049382,新規,0,2024-06-26,2024-06-26,株式会社エスクリエイト,,株式会社,大阪府,池田市,呉服町７番１６号,,27,204,5630048,,,,,,,2024-06-26,1,,,,,エスクリエイト,0
1605,6130001077366,新規,0,2024-06-26,2024-06-26,高の原商事株式会社,,株式会社,京都府,相楽郡精華町,桜が丘２丁目１０番地２７,,26,366,6190232,,,,,,,2024-06-26,1,,,,,タカノハラショウジ,0
1607,6130003009664,新規,0,2024-06-26,2024-06-26,ＴｕＮａＧｕ合同会社,,合同会社,京都府,京都市下京区,七条通油小路東入大黒町２２７番地,,26,106,6008223,,,,,,,2024-06-26,1,,,,,ツナグ,0
1611,6140001134926,新規,0,2024-06-26,2024-06-26,株式会社スリーハウス,,株式会社,兵庫県,加古川市,平岡町新在家１１９２番地の３１９,,28,210,6750101,,,,,,,2024-06-26,1,,,,,スリーハウス,0
1615,6150001027377,新規,0,2024-06-26,2024-06-26,株式会社マッコウプロ,,株式会社,奈良県,生駒市,辻町３７１番地ピュアハイツ５０１,00135318,29,209,6300212,,,,,,,2024-06-26,1,,,,,マッコウプロ,0
1621,6180001162106,新規,0,2024-06-26,2024-06-26,株式会社ＮＥＷ　ＰＡＴＨ,,株式会社,愛知県,名古屋市中区,丸の内１丁目１１番３３号ライオンズマンション丸の内第５、４０９号室,,23,106,4600002,,,,,,,2024-06-26,1,,,,,ニューパス,0
1622,6180001162122,新規,0,2024-06-26,2024-06-26,株式会社Ｉｎｆｉｎｉｔｙ,,株式会社,愛知県,名古屋市中区,栄５丁目４番２号レジデンシア栄南４Ｆ,,23,106,4600008,,,,,,,2024-06-26,1,,,,,インフィニティ,0
1623,6180001162130,新規,0,2024-06-26,2024-06-26,株式会社ＡＩＬＩＮＥ　ＰＬＵＳ,,株式会社,愛知県,名古屋市中区,栄２丁目１５番１４号,,23,106,4600008,,,,,,,2024-06-26,1,,,,,アイラインプラス,0
1630,6180003026952,新規,0,2024-06-26,2024-06-26,ＴＳシステム合同会社,,合同会社,愛知県,丹羽郡大口町,余野５丁目７番地,,23,361,4800146,,,,,,,2024-06-26,1,,,,,ティエスシステム,0
1631,6190003004726,新規,0,2024-06-26,2024-06-26,合同会社夢,,合同会社,三重県,津市,高茶屋６丁目１１番７５号ロイヤルガーデンＣ２０１,,24,201,5140819,,,,,,,2024-06-26,1,,,,,ユメ,0
1638,6230003002238,新規,0,2024-06-26,2024-06-26,合同会社ＹＯＵ,,合同会社,富山県,富山市,牛島本町１丁目４番６０号,,16,201,9300859,,,,,,,2024-06-26,1,,,,,ユー,0
1639,6240001063421,新規,0,2024-06-26,2024-06-26,株式会社ＣＲＥＡＴＩＶＥ　ＷＯＲＫＳ　ＩＳＩＮ,,株式会社,広島県,広島市中区,富士見町７番４－３０２号,,34,101,7300043,,,,,,,2024-06-26,1,,,,,クリエイティブワークスイシン,0
1644,6260001039205,新規,0,2024-06-26,2024-06-26,株式会社２１,,株式会社,岡山県,岡山市北区,表町３丁目５番２８号,,33,101,7000822,,,,,,,2024-06-26,1,,,,,トゥエンティワン,0
1645,6260003004801,新規,0,2024-06-26,2024-06-26,合同会社アップドラフト,,合同会社,岡山県,浅口市,鴨方町鳩ケ丘１丁目２７番地,,33,216,7190253,,,,,,,2024-06-26,1,,,,,アップドラフト,0
1649,6290001106167,新規,0,2024-06-26,2024-06-26,ＯＰＥＮＵＰ株式会社,,株式会社,福岡県,福岡市中央区,今川１丁目２番１２－１０１号,,40,133,8100054,,,,,,,2024-06-26,1,,,,,オープンアップ,0
1650,6290001106241,新規,0,2024-06-26,2024-06-26,アミライ株式会社,,株式会社,福岡県,福岡市中央区,清川１丁目１２番４号２Ｆ,,40,133,8100005,,,,,,,2024-06-26,1,,,,,アミライ,0
1651,6290001106258,新規,0,2024-06-26,2024-06-26,株式会社Ｅ‐ＤＩＮＡＩ,,株式会社,福岡県,福岡市中央区,天神２丁目２番１２号Ｔ＆Ｊビルディング７Ｆ,,40,133,8100001,,,,,,,2024-06-26,1,,,,,イーディナイ,0
1652,6290001106266,新規,0,2024-06-26,2024-06-26,帷幄株式会社,,株式会社,福岡県,福岡市博多区,博多駅中央街五丁目１１番,,40,132,8120012,,,,,,,2024-06-26,1,,,,,イアク,0
1656,6290003015481,新規,0,2024-06-26,2024-06-26,合同会社Ｒ＆ｔｋｍ２,,合同会社,福岡県,筑紫野市,美しが丘南５丁目４番地１０,,40,217,8180034,,,,,,,2024-06-26,1,,,,,アールアンドティーケイエムツー,0
1657,6290801030665,新規,0,2024-06-26,2024-06-26,矢田工業株式会社,,株式会社,福岡県,中間市,岩瀬４丁目８番７号,,40,215,8090011,,,,,,,2024-06-26,1,,,,,ヤダコウギョウ,0
1662,6330003010437,新規,0,2024-06-26,2024-06-26,合同会社翔友,,合同会社,熊本県,八代市,豊原下町３９２０番地４,,43,202,8660065,,,,,,,2024-06-26,1,,,,,ショウユウ,0
1665,6340003004520,新規,0,2024-06-26,2024-06-26,鬼塚工業合同会社,,合同会社,鹿児島県,鹿児島市,田上台１丁目４２番１７号,,46,201,8900036,,,,,,,2024-06-26,1,,,,,オニツカコウギョウ,0
1673,6410001013854,新規,0,2024-06-26,2024-06-26,日松フェルナ株式会社,,株式会社,秋田県,大館市,中道２丁目１番５１号,,05,204,0170045,,,,,,,2024-06-26,1,,,,,ニッショウフェルナ,0
1676,6430005015011,新規,0,2024-06-26,2024-06-26,一般社団法人あんしるＬＩＦＥ,,その他の設立登記法人,北海道,札幌市北区,北七条西１丁目２番６号ＮＣＯ札幌,,01,102,0600807,,,,,,,2024-06-26,1,,,,,アンシルライフ,0
1695,6700150126213,新規,0,2024-06-26,2024-06-26,ｄｏｎｇｇｕａｎｑｉｎｙｕａｎｇａｏｔｕｄｉａｎｚｉｋｅｊｉｙｏｕｘｉａｎｇｏｎｇｓｉ,,外国会社等,,,,,,,,ｇｕａｎｇ　ｄｏｎｇ　ｓｈｅｎｇ　ｄｏｎｇ　ｇｕａｎ　ｓｈｉ　ｔａｎｇ　ｓｈａ　ｚｈｅｎ　ｌｕ　ｙｉ　ｙｉ　ｌｕ　６　ｈａｏ　２　ｄｏｎｇ　４０１　ｓｈｉ,,,,,,2024-06-26,1,,,,,トンカンチンユアンガオトデンシカギユウゲンコウシ,0
1724,7010401183262,新規,0,2024-06-26,2024-06-26,東京通澤株式会社,,株式会社,東京都,港区,高輪１丁目４番６－１７０４号,,13,103,1080074,,,,,,,2024-06-26,1,,,,,トウキョウツウザワ,0
1725,7010401183270,新規,0,2024-06-26,2024-06-26,株式会社ＴＨＲＥＥＰＩＥＣＥ,,株式会社,東京都,港区,芝４丁目１２－４名倉堂ビル５０１,,13,103,1080014,,,,,,,2024-06-26,1,,,,,スリーピース,0
1726,7010401183361,新規,0,2024-06-26,2024-06-26,株式会社ＹＰ,,株式会社,東京都,港区,高輪１丁目２７番３７号,,13,103,1080074,,,,,,,2024-06-26,1,,,,,ワイピー,0
1729,7010405023332,新規,0,2024-06-26,2024-06-26,税理士法人Ｅｎｌｉｇｈｔ,,その他の設立登記法人,東京都,港区,西新橋３丁目５番２号,,13,103,1050003,,,,,,,2024-06-26,1,,,,,エンライト,0
1730,7010501052499,新規,0,2024-06-26,2024-06-26,誠行株式会社,,株式会社,東京都,台東区,台東２丁目３１－１０第２掛川ビル１１４号,,13,106,1100016,,,,,,,2024-06-26,1,,,,,セイコウ,0
1731,7010501052508,新規,0,2024-06-26,2024-06-26,株式会社Ｋａｗａｃｈｉ,,株式会社,東京都,台東区,元浅草１丁目４番１２号東京合同ビル１階,,13,106,1110041,,,,,,,2024-06-26,1,,,,,カワチ,0
1735,7010601065442,新規,0,2024-06-26,2024-06-26,株式会社ＥｎｔｅｒＬｉｎｘ,,株式会社,東京都,江東区,豊洲３丁目６番５号,,13,108,1350061,,,,,,,2024-06-26,1,,,,,エンターリンクス,0
1740,7010801035170,新規,0,2024-06-26,2024-06-26,不二生命科学株式会社,,株式会社,東京都,大田区,上池台４丁目２－６レイクヒル長原１０２,,13,111,1450064,,,,,,,2024-06-26,1,,,,,フジセイメイカガク,0
1745,7010901055531,新規,0,2024-06-26,2024-06-26,株式会社ＫＩＭＩＤＯＲＩ,,株式会社,東京都,世田谷区,祖師谷６丁目４番６号－４,,13,112,1570072,,,,,,,2024-06-26,1,,,,,キミドリ,0
1755,7011301029794,新規,0,2024-06-26,2024-06-26,株式会社ＫＩＲＩ,,株式会社,東京都,杉並区,宮前４丁目３２－１７メロウ宮前１Ｆ,,13,115,1680081,,,,,,,2024-06-26,1,,,,,キリ,0
1760,7011601027853,新規,0,2024-06-26,2024-06-26,株式会社Ｉｓｋｙ,,株式会社,東京都,練馬区,桜台１丁目７番７－４０６号室,,13,120,1760002,,,,,,,2024-06-26,1,,,,,アイスカイ,0
1762,7011703003884,新規,0,2024-06-26,2024-06-26,天凱合同会社,,合同会社,東京都,江戸川区,松江２丁目１番１３－２０６,,13,123,1320025,,,,,,,2024-06-26,1,,,,,テンガイ,0
1767,7011801044426,新規,0,2024-06-26,2024-06-26,富鯉株式会社,,株式会社,東京都,葛飾区,東新小岩４丁目７－７－１０３号室,,13,122,1240023,,,,,,,2024-06-26,1,,,,,フリ,0
1768,7011803006309,新規,0,2024-06-26,2024-06-26,合同会社訪問看護ステーションあかつき,,合同会社,東京都,足立区,谷在家３丁目２７番１号,,13,121,1230863,,,,,,,2024-06-26,1,,,,,ホウモンカンゴステーションアカツキ,0
1770,7012401042019,新規,0,2024-06-26,2024-06-26,奥多摩バイオマス発電株式会社,,株式会社,東京都,多摩市,関戸４丁目９番１０号,,13,224,2060011,,,,,,,2024-06-26,1,,,,,オクタマバイオマスハツデン,0
1771,7012403006640,新規,0,2024-06-26,2024-06-26,Ｅａｒｔｈ　Ｅｓｔａｔｅ合同会社,,合同会社,東京都,狛江市,中和泉５丁目２１番１７号,,13,219,2010012,,,,,,,2024-06-26,1,,,,,アースエステート,0
1775,7013103001353,新規,0,2024-06-26,2024-06-26,ＭＳＰ合同会社,,合同会社,東京都,あきる野市,雨間１９１４－５８,,13,228,1970825,,,,,,,2024-06-26,1,,,,,,0
1786,7030001161055,新規,0,2024-06-26,2024-06-26,株式会社堂山,,株式会社,埼玉県,朝霞市,幸町２丁目１４番２３号,,11,227,3510015,,,,,,,2024-06-26,1,,,,,ドウヤマ,0
1787,7030001161096,新規,0,2024-06-26,2024-06-26,株式会社ほうびスタッフ,,株式会社,埼玉県,行田市,忍１丁目５番地１０,,11,206,3610077,,,,,,,2024-06-26,1,,,,,ホウビスタッフ,0
1790,7030003024573,新規,0,2024-06-26,2024-06-26,合同会社ＴＴＹ,,合同会社,埼玉県,さいたま市大宮区,仲町１丁目８０番地,,11,103,3300845,,,,,,,2024-06-26,1,,,,,ティティワイ,0
1795,7040001134217,新規,0,2024-06-26,2024-06-26,株式会社東総電工,,株式会社,千葉県,市川市,八幡２丁目９番１５号,,12,203,2720021,,,,,,,2024-06-26,1,,,,,トウソウデンコウ,0
1796,7040001134225,新規,0,2024-06-26,2024-06-26,株式会社暖街,,株式会社,千葉県,八千代市,大和田新田５１３番地１５４,,12,221,2760046,,,,,,,2024-06-26,1,,,,,ダンマチ,0
1801,7040003025273,新規,0,2024-06-26,2024-06-26,合同会社ワイエステート,,合同会社,千葉県,四街道市,大日１２０番地１１,,12,228,2840001,,,,,,,2024-06-26,1,,,,,ワイエステート,0
1810,7070001041897,新規,0,2024-06-26,2024-06-26,株式会社結,,株式会社,群馬県,高崎市,飯塚町５９８番地２ファミール２０１号,,10,202,3700069,,,,,,,2024-06-26,1,,,,,ユイ,0
1812,7070003005479,新規,0,2024-06-26,2024-06-26,合同会社ラピス,,合同会社,群馬県,前橋市,茂木町６番地４,,10,201,3710232,,,,,,,2024-06-26,1,,,,,ラピス,0
1817,7080103003084,新規,0,2024-06-26,2024-06-26,合同会社中和堂,,合同会社,静岡県,伊東市,末広町６番７号,,22,208,4140015,,,,,,,2024-06-26,1,,,,,チュウワドウ,0
1829,7110003005433,新規,0,2024-06-26,2024-06-26,合同会社Ｒｅａｌｌｙ,,合同会社,新潟県,新潟市西区,内野西２丁目５番２９号,,15,107,9502151,,,,,,,2024-06-26,1,,,,,リアリー,0
1846,7120001266126,新規,0,2024-06-26,2024-06-26,ＤＢＧ株式会社,,株式会社,大阪府,大阪市浪速区,桜川３丁目１番３１号６Ｆ,,27,111,5560022,,,,,,,2024-06-26,1,,,,,ディービージー,0
1847,7120001266209,新規,0,2024-06-26,2024-06-26,株式会社Ｅｍｕｓ,,株式会社,大阪府,大阪市都島区,高倉町３丁目６番１２号,,27,102,5340011,,,,,,,2024-06-26,1,,,,,イミューズ,0
1848,7120001266217,新規,0,2024-06-26,2024-06-26,株式会社ＳｉｇｎＴｏｐ,,株式会社,大阪府,大阪市旭区,中宮３丁目１４番１３号,,27,117,5350003,,,,,,,2024-06-26,1,,,,,サイントップ,0
1849,7120001266241,新規,0,2024-06-26,2024-06-26,株式会社ウィステリアエステート,,株式会社,大阪府,大阪市中央区,瓦町４丁目６番１５号,,27,128,5410048,,,,,,,2024-06-26,1,,,,,ウィステリアエステート,0
1851,7120003026825,新規,0,2024-06-26,2024-06-26,合同会社ＫＵＮＩＥ,,合同会社,大阪府,大阪市浪速区,戎本町１丁目８－２５－４０１,,27,111,5560013,,,,,,,2024-06-26,1,,,,,クニエ,0
1854,7120901049373,新規,0,2024-06-26,2024-06-26,株式会社ＬＡＵＧＨ,,株式会社,大阪府,茨木市,舟木町４番１５号カミオン舟木１０３号,,27,211,5670828,,,,,,,2024-06-26,1,,,,,ラフ,0
1856,7122001038216,新規,0,2024-06-26,2024-06-26,株式会社ライフコンパス．ナビ,,株式会社,大阪府,東大阪市,御厨南２丁目１－３８－Ａ７０５,,27,227,5770034,,,,,,,2024-06-26,1,,,,,ライフコンパスナビ,0
1857,7122001038224,新規,0,2024-06-26,2024-06-26,株式会社ＰＡＢＬＯ,,株式会社,大阪府,大東市,御領２丁目１番１８号シャーメゾン森川２０３号室,,27,218,5740064,,,,,,,2024-06-26,1,,,,,パブロ,0
1862,7130003009663,新規,0,2024-06-26,2024-06-26,合同会社Ｌｉｇｈｔ　Ｓａｉｌ,,合同会社,京都府,京都市山科区,御陵大津畑町３９番地２６,,26,110,6078411,,,,,,,2024-06-26,1,,,,,ライトセイル,0
1870,7140001134909,新規,0,2024-06-26,2024-06-26,株式会社菊,,株式会社,兵庫県,神戸市中央区,北長狭通１丁目２１番５号２Ｆ,,28,110,6500012,,,,,,,2024-06-26,1,,,,,キク,0
1871,7140003020735,新規,0,2024-06-26,2024-06-26,ＰＣＤＥＬＩＧＨＴ合同会社,,合同会社,兵庫県,丹波篠山市,西岡屋５１番地４,,28,221,6692346,,,,,,,2024-06-26,1,,,,,ピーシーデライト,0
1872,7140003020743,新規,0,2024-06-26,2024-06-26,ＢＲＥＡＫ　ＣＥＮＴＵＲＹ合同会社,,合同会社,兵庫県,西宮市,屋敷町５番１７－３０２号,,28,204,6620963,,,,,,,2024-06-26,1,,,,,ブレイクセンチュリー,0
1875,7150001027376,新規,0,2024-06-26,2024-06-26,たかのはらｃｒｅａｔｅ株式会社,,株式会社,奈良県,奈良市,秋篠町５７５番地の１９,,29,201,6310811,,,,,,,2024-06-26,1,,,,,タカノハラクリエイト,0
1879,7160005011318,新規,0,2024-06-26,2024-06-26,一般社団法人ＦＬＯＲＡＣＩＯＮ,,その他の設立登記法人,滋賀県,近江八幡市,武佐町４５０－４,,25,204,5230012,,,,,,,2024-06-26,1,,,,,,0
1885,7180001162121,新規,0,2024-06-26,2024-06-26,株式会社ＳＵＮ　Ｃｏｎｓｕｌｔｉｎｇ,,株式会社,愛知県,名古屋市中区,大須４丁目１０番３２号上前津ＫＤビル３０９号室,,23,106,4600011,,,,,,,2024-06-26,1,,,,,サンコンサルティング,0
1890,7190001031440,新規,0,2024-06-26,2024-06-26,ノーヴェエンタープライズ株式会社,,株式会社,三重県,名張市,百合が丘東８番町２９１番地,,24,208,5180478,,,,,,,2024-06-26,1,,,,,ノーヴェエンタープライズ,0
1902,7260003004800,新規,0,2024-06-26,2024-06-26,合同会社ＣＨＥＲＲＹ,,合同会社,岡山県,岡山市南区,藤田２０７４番地４,,33,104,7010221,,,,,,,2024-06-26,1,,,,,チェリー,0
1908,7290001106240,新規,0,2024-06-26,2024-06-26,博揚株式会社,,株式会社,福岡県,福岡市中央区,小笹２丁目８番３０エルビス小笹Ｂ棟１０３号,,40,133,8100033,,,,,,,2024-06-26,1,,,,,ハクヨウ,0
1909,7290001106249,新規,0,2024-06-26,2024-06-26,株式会社ナ王,,株式会社,福岡県,宗像市,栄町１６番地２ハウスユマニテ赤間駅前６０６号,,40,220,8114173,,,,,,,2024-06-26,1,,,,,,0
1910,7290001106281,新規,0,2024-06-26,2024-06-26,株式会社ライトアップ,,株式会社,福岡県,福岡市中央区,天神２丁目３番１０号天神パインクレスト７１９号,,40,133,8100001,,,,,,,2024-06-26,1,,,,,ライトアップ,0
1911,7290003015472,新規,0,2024-06-26,2024-06-26,合同会社ミライズ,,合同会社,福岡県,福岡市中央区,六本松３丁目５－３５－５０２,,40,133,8100044,,,,,,,2024-06-26,1,,,,,ミライズ,0
1914,7290801030664,新規,0,2024-06-26,2024-06-26,株式会社創建,,株式会社,福岡県,北九州市小倉北区,明和町８番５－１０３号,,40,106,8020017,,,,,,,2024-06-26,1,,,,,ソウケン,0
1916,7300001013807,新規,0,2024-06-26,2024-06-26,株式会社Ｌｉｎｋ,,株式会社,佐賀県,佐賀市,新栄西１丁目１１番２４号,,41,201,8400859,,,,,,,2024-06-26,1,,,,,リンク,0
1920,7310001019084,新規,0,2024-06-26,2024-06-26,シゲエンタープライズ株式会社,,株式会社,長崎県,大村市,古賀島町１００番地１２,,42,205,8560817,,,,,,,2024-06-26,1,,,,,シゲエンタープライズ,0
1923,7330001032201,新規,0,2024-06-26,2024-06-26,城北物流株式会社,,株式会社,熊本県,山鹿市,寺島２４８番地２,,43,208,8610527,,,,,,,2024-06-26,1,,,,,ジョウホクブツリュウ,0
1927,7350001019031,新規,0,2024-06-26,2024-06-26,クリーンドットコム株式会社,,株式会社,宮崎県,宮崎市,源藤町原田３６６－１串間コーポＡ１０３号,,45,201,8800927,,,,,,,2024-06-26,1,,,,,クリーンドットコム,0
1928,7350003004683,新規,0,2024-06-26,2024-06-26,合同会社草刈屋,,合同会社,宮崎県,宮崎市,高岡町浦之名３９７０番地,,45,201,8802323,,,,,,,2024-06-26,1,,,,,クサカリヤ,0
1930,7360005007056,新規,0,2024-06-26,2024-06-26,沖縄県クリーンエネルギー推進協同組合,,その他の設立登記法人,沖縄県,那覇市,金城１丁目１３番地６・２階,,47,201,9010155,,,,,,,2024-06-26,1,,,,,オキナワケンクリーンエネルギースイシン,0
1931,7370001051461,新規,0,2024-06-26,2024-06-26,株式会社アイリスロボティクス,,株式会社,宮城県,仙台市青葉区,五橋２丁目１２番１号,,04,101,9800022,,,,,,,2024-06-26,1,,,,,アイリスロボティクス,0
1939,7400001016700,新規,0,2024-06-26,2024-06-26,株式会社Ｋ．Ｇ工業,,株式会社,岩手県,盛岡市,山岸字外山岸７４番地２４,,03,201,0200004,,,,,,,2024-06-26,1,,,,,ケージーコウギョウ,0
1942,7420003002944,新規,0,2024-06-26,2024-06-26,合同会社直太舎,,合同会社,青森県,八戸市,大字鮫町字小長根３２番地３,,02,203,0310841,,,,,,,2024-06-26,1,,,,,ナオタヤ,0
1946,7430001092111,新規,0,2024-06-26,2024-06-26,株式会社ｍｏｃａ,,株式会社,北海道,札幌市西区,発寒六条４丁目１番１２号,,01,107,0630826,,,,,,,2024-06-26,1,,,,,モカ,0
1956,7480003002154,新規,0,2024-06-26,2024-06-26,Ａｎｄｉｇｏ合同会社,,合同会社,徳島県,名西郡石井町,藍畑字高畑２７５番地１,,36,341,7793213,,,,,,,2024-06-26,1,,,,,アンディゴ,0
1960,7500001025716,新規,0,2024-06-26,2024-06-26,株式会社ＣＯＲＥ,,株式会社,愛媛県,松山市,東長戸２丁目２番３８－５号,,38,201,7918005,,,,,,,2024-06-26,1,,,,,コア,0
1961,7700150126212,新規,0,2024-06-26,2024-06-26,ｓｕｚｈｏｕｙｕａｎｓｏｎｇｓｈａｎｇｍａｏｙｏｕｘｉａｎｇｏｎｇｓｉ,,外国会社等,,,,,,,,ｓｕｚｈｏｕｇｏｎｇｙｅｙｕａｎｑｕ，ｐｕｈｕｉｌｕ　１　ｚｈｕａｎｇ　６５　ｓｈｉ,,,,,,2024-06-26,1,,,,,ソシュウユアンソンシャンマオユウゲンコウシ,0
1962,7700150126220,新規,0,2024-06-26,2024-06-26,ｓｈｅｎｚｈｅｎｓｈｉｈｅｎｇｙｕｎｊｉａｋｅｊｉｙｏｕｘｉａｎｇｏｎｇｓｉ,,外国会社等,,,,,,,,ｌｏｎｇｇａｎｇｑｕ，ｐｉｎｇｈｕｊｉｅｄａｏ，ｐｉｎｇｈｕｓｈｅｑｕ，ｐｉｎｇｈｕｄａｊｉｅ３３０、３３２ｈａｏ，ｐｉｎｇｈｕｓｈａｎｇｙｅｃｈｅｎｇ３２５　Ｓｈｅｎｚｈｅｎ　Ｇｕａｎｇｄｏｎｇ　ＣＮ,,,,,,2024-06-26,1,,,,,シンセンコウウンカイカギユウゲンコウシ,0
1970,8010001246006,新規,0,2024-06-26,2024-06-26,プラスユートゥー株式会社,,株式会社,東京都,中央区,銀座５丁目１０番２号,,13,102,1040061,,,,,,,2024-06-26,1,,,,,プラスユートゥー,0
1971,8010001246055,新規,0,2024-06-26,2024-06-26,株式会社モジエール,,株式会社,東京都,中央区,日本橋室町１丁目１１番１２号日本橋水野ビル７階,,13,102,1030022,,,,,,,2024-06-26,1,,,,,モジエール,0
1974,8010003044135,新規,0,2024-06-26,2024-06-26,エネストジャパン３合同会社,,合同会社,東京都,千代田区,四番町２番地１２,,13,101,1020081,,,,,,,2024-06-26,1,,,,,エネストジャパンサン,0
1975,8010003044143,新規,0,2024-06-26,2024-06-26,Ｘ‐Ｅｌｉｏ３１合同会社,,合同会社,東京都,中央区,銀座４丁目１４番１１号七十七銀座ビル８階,,13,102,1040061,,,,,,,2024-06-26,1,,,,,エクセリオサーティーワン,0
1976,8010003044168,新規,0,2024-06-26,2024-06-26,ヒナコーポレーション合同会社,,合同会社,東京都,中央区,晴海３丁目１３番３－２９１３号,,13,102,1040053,,,,,,,2024-06-26,1,,,,,ヒナコーポレーション,0
1979,8010105002271,新規,0,2024-06-26,2024-06-26,一般社団法人ひちちか,,その他の設立登記法人,東京都,八王子市,鹿島４番地１、１０７号室,,13,201,1920353,,,,,,,2024-06-26,1,,,,,ヒチチカ,0
1983,8010401183278,新規,0,2024-06-26,2024-06-26,リバティキャピタル株式会社,,株式会社,東京都,港区,虎ノ門１丁目１６番６号虎ノ門ＲＡＰＯ－ＴＯビルＵＣＦ７階,,13,103,1050001,,,,,,,2024-06-26,1,,,,,リバティキャピタル,0
1984,8010401183294,新規,0,2024-06-26,2024-06-26,株式会社笑グループ,,株式会社,東京都,港区,虎ノ門４丁目３番１号城山トラストタワー２２階,,13,103,1050001,,,,,,,2024-06-26,1,,,,,エミグループ,0
1985,8010401183360,新規,0,2024-06-26,2024-06-26,株式会社ばんぺいゆミュージック,,株式会社,東京都,港区,東麻布１丁目２９番３号Ｋ＆Ｎ麻布２０１,,13,103,1060044,,,,,,,2024-06-26,1,,,,,バンペイユミュージック,0
1986,8010401183419,新規,0,2024-06-26,2024-06-26,ＧＣＪＩ１９株式会社,,株式会社,東京都,港区,元赤坂１丁目１番８号株式会社赤坂国際会計内,,13,103,1070051,,,,,,,2024-06-26,1,,,,,ジーシージェイアイナインティーン,0
1988,8010403032879,新規,0,2024-06-26,2024-06-26,Ｉｋｈｏｒ　Ｊａｐａｎ合同会社,,合同会社,東京都,港区,元麻布３丁目１番６号,,13,103,1060046,,,,,,,2024-06-26,1,,,,,アイコアジャパン,0
1989,8010403032895,新規,0,2024-06-26,2024-06-26,ＤＥＩソーラーファンドガンマ合同会社,,合同会社,東京都,港区,赤坂１丁目１２番３２号アーク森ビルＣｅｎｘｕｓ税理士法人内,,13,103,1070052,,,,,,,2024-06-26,1,,,,,ディーイーアイソーラーファンドガンマ,0
2004,8011001162969,新規,0,2024-06-26,2024-06-26,株式会社Ｅｄｇｅ,,株式会社,東京都,渋谷区,渋谷３丁目２２番１１号,,13,113,1500002,,,,,,,2024-06-26,1,,,,,エッジ,0
2007,8011105011072,新規,0,2024-06-26,2024-06-26,一般社団法人グローバル外苑前,,その他の設立登記法人,東京都,新宿区,四谷２丁目９番地１５東京ユナイテッド綜合事務所内,,13,104,1600004,,,,,,,2024-06-26,1,,,,,グローバルガイエンマエ,0
2013,8011301029793,新規,0,2024-06-26,2024-06-26,株式会社御稲荷工務店,,株式会社,東京都,杉並区,和泉１丁目６番１６号,,13,115,1680063,,,,,,,2024-06-26,1,,,,,オイナリコウムテン,0
2015,8011403004430,新規,0,2024-06-26,2024-06-26,合同会社ストロング商会,,合同会社,東京都,板橋区,成増３丁目３７番１－１００１号,,13,119,1750094,,,,,,,2024-06-26,1,,,,,ストロングショウカイ,0
2021,8011701027406,新規,0,2024-06-26,2024-06-26,さくら交通株式会社,,株式会社,東京都,江戸川区,中央２丁目１８－１５名取ビル２０１,,13,123,1320021,,,,,,,2024-06-26,1,,,,,サクラコウツウ,0
2032,8020001157862,新規,0,2024-06-26,2024-06-26,ケイエストラベル株式会社,,株式会社,神奈川県,横浜市保土ケ谷区,常盤台８６番１－６２６号,,14,106,2400067,,,,,,,2024-06-26,1,,,,,ケイエストラベル,0
2045,8030001161120,新規,0,2024-06-26,2024-06-26,株式会社ダミア,,株式会社,埼玉県,八潮市,大字西袋１０８２番地,,11,234,3400833,,,,,,,2024-06-26,1,,,,,ダミア,0
2052,8030003024580,新規,0,2024-06-26,2024-06-26,ハミングバードコネクト合同会社,,合同会社,埼玉県,比企郡小川町,東小川３丁目１７番地８,,11,343,3550322,,,,,,,2024-06-26,1,,,,,ハミングバードコネクト,0
2053,8030003024589,新規,0,2024-06-26,2024-06-26,合同会社ゼロスタイル,,合同会社,埼玉県,さいたま市大宮区,仲町１丁目９７番地、第２ヨシケンビル地下１階,,11,103,3300845,,,,,,,2024-06-26,1,,,,,ゼロスタイル,0
2054,8030003024597,新規,0,2024-06-26,2024-06-26,合同会社ヒロプロ,,合同会社,埼玉県,上尾市,大字小敷谷７７番地１西上尾第二団地２－１８－５０７,,11,219,3620064,,,,,,,2024-06-26,1,,,,,ヒロプロ,0
2062,8040001134216,新規,0,2024-06-26,2024-06-26,株式会社アドバンス,,株式会社,千葉県,市川市,中山１丁目８番１２号,,12,203,2720813,,,,,,,2024-06-26,1,,,,,アドバンス,0
2063,8040001134224,新規,0,2024-06-26,2024-06-26,株式会社リアライズ,,株式会社,千葉県,市川市,妙典１丁目１５番２４－３０２号シルクグレイス,,12,203,2720111,,,,,,,2024-06-26,1,,,,,リアライズ,0
2064,8040003025272,新規,0,2024-06-26,2024-06-26,合同会社Ｐｒｏｇｒｅｓｓａ,,合同会社,千葉県,柏市,西原６丁目２番４３号,,12,217,2770885,,,,,,,2024-06-26,1,,,,,プログレッサ,0
2065,8040003025280,新規,0,2024-06-26,2024-06-26,道廣コンサルティング合同会社,,合同会社,千葉県,千葉市稲毛区,稲毛東５丁目２番１４号,,12,103,2630031,,,,,,,2024-06-26,1,,,,,ミチヒロコンサルティング,0
2068,8050001054999,新規,0,2024-06-26,2024-06-26,株式会社サキホコレ,,株式会社,茨城県,水戸市,赤塚２丁目２１０番地３３グリーンハイツ１０２,,08,201,3114141,,,,,,,2024-06-26,1,,,,,サキホコレ,0
2073,8060001037227,新規,0,2024-06-26,2024-06-26,笹森工業株式会社,,株式会社,栃木県,栃木市,平柳町２丁目２５番５号ユーミーフローレンス２０１,,09,203,3280012,,,,,,,2024-06-26,1,,,,,ササモリコウギョウ,0
2076,8070003005478,新規,0,2024-06-26,2024-06-26,ＩＧ．ＢＲＯ．合同会社,,合同会社,群馬県,高崎市,江木町２８９番地１ライジングサン１０２号,,10,202,3700046,,,,,,,2024-06-26,1,,,,,アイジーブロ,0
2082,8080101024841,新規,0,2024-06-26,2024-06-26,株式会社ｇｌｏｒｙｌａｎｄ　ｓｐｏｒｔ,,株式会社,静岡県,沼津市,志下６９番地の７,,22,203,4100106,,,,,,,2024-06-26,1,,,,,グローリーランドスポーツ,0
2087,8080403005044,新規,0,2024-06-26,2024-06-26,合同会社Ｈａｔａｃｈｉ,,合同会社,静岡県,浜松市中央区,龍禅寺町４８８番地の１アーバンライフ竜禅寺１０４,,22,138,4300924,,,,,,,2024-06-26,1,,,,,ハタチ,0
2105,8120001266182,新規,0,2024-06-26,2024-06-26,九陽株式会社,,株式会社,大阪府,大阪市生野区,桃谷１丁目９番１号１０１,,27,116,5440034,,,,,,,2024-06-26,1,,,,,キュウヨウ,0
2106,8120001266232,新規,0,2024-06-26,2024-06-26,友住堂株式会社,,株式会社,大阪府,大阪市浪速区,敷津西１丁目９番１７－１０８号,,27,111,5560015,,,,,,,2024-06-26,1,,,,,ユウジュウドウ,0
2107,8120001266265,新規,0,2024-06-26,2024-06-26,ＳＴＭ　Ｊａｐａｎ株式会社,,株式会社,大阪府,大阪市大正区,平尾４丁目１１番７－３０４号,,27,108,5510012,,,,,,,2024-06-26,1,,,,,エスティーエムジャパン,0
2109,8120003026923,新規,0,2024-06-26,2024-06-26,合同会社Ｄ＆Ｍ,,合同会社,大阪府,寝屋川市,東香里園町３０番６号コウリヒルズ３Ｂ,,27,215,5720081,,,,,,,2024-06-26,1,,,,,ディーアンドエム,0
2110,8120005024388,新規,0,2024-06-26,2024-06-26,一般社団法人エム・ジー・ケイ,,その他の設立登記法人,大阪府,大阪市阿倍野区,阪南町２丁目６番１３号,,27,119,5450021,,,,,,,2024-06-26,1,,,,,エムジーケイ,0
2112,8120101069849,新規,0,2024-06-26,2024-06-26,株式会社Ｈ２,,株式会社,大阪府,松原市,天美我堂２丁目２５３番地,,27,217,5800026,,,,,,,2024-06-26,1,,,,,エイチツー,0
2113,8120101069857,新規,0,2024-06-26,2024-06-26,株式会社翔建工業,,株式会社,大阪府,堺市堺区,幸通４番２号,,27,141,5900051,,,,,,,2024-06-26,1,,,,,ショウケンコウギョウ,0
2118,8120901049380,新規,0,2024-06-26,2024-06-26,株式会社野原プランコーポレーション,,株式会社,大阪府,豊中市,上野東３丁目１２番３４号,,27,203,5600013,,,,,,,2024-06-26,1,,,,,ノハラプランコーポレーション,0
2119,8120903005233,新規,0,2024-06-26,2024-06-26,アップゲート合同会社,,合同会社,大阪府,吹田市,千里山西４丁目３７－３ヴェローノ緑地公園４１０,,27,205,5650851,,,,,,,2024-06-26,1,,,,,アップゲート,0
2127,8130001077356,新規,0,2024-06-26,2024-06-26,株式会社蜂幸,,株式会社,京都府,京都市伏見区,深草飯食町７８５番地,,26,109,6120028,,,,,,,2024-06-26,1,,,,,ハチコウ,0
2134,8140001134899,新規,0,2024-06-26,2024-06-26,株式会社Ｇ・プランニング,,株式会社,兵庫県,伊丹市,稲野町３丁目１９番地稲野ハイツ１０２号,,28,207,6640861,,,,,,,2024-06-26,1,,,,,ジープランニング,0
2135,8140001134908,新規,0,2024-06-26,2024-06-26,株式会社ＳＴＹＬＥ,,株式会社,兵庫県,神戸市長田区,浜添通５丁目３番２６号,,28,106,6530024,,,,,,,2024-06-26,1,,,,,スタイル,0
2137,8140005027125,新規,0,2024-06-26,2024-06-26,一般社団法人ここいろてらす,,その他の設立登記法人,兵庫県,淡路市,志筑１１１番地７オルガノ３－Ｅ,,28,226,6562131,,,,,,,2024-06-26,1,,,,,ココイロテラス,0
2142,8170001018199,新規,0,2024-06-26,2024-06-26,株式会社Ｌｉｅｎ,,株式会社,和歌山県,和歌山市,秋葉町２番１９号,,30,201,6410056,,,,,,,2024-06-26,1,,,,,リアン,0
2150,8180001162095,新規,0,2024-06-26,2024-06-26,株式会社ｅｖｏｌｖｅ,,株式会社,愛知県,半田市,乙川稗田町５１番地の１,,23,205,4750048,,,,,,,2024-06-26,1,,,,,エヴォルブ,0
2151,8180001162120,新規,0,2024-06-26,2024-06-26,株式会社ジョブスル,,株式会社,愛知県,名古屋市中村区,則武２丁目３－２サン・オフィス名古屋ビル６５８号室,,23,105,4530014,,,,,,,2024-06-26,1,,,,,ジョブスル,0
2166,8240001063428,新規,0,2024-06-26,2024-06-26,アクシス株式会社,,株式会社,広島県,広島市南区,大洲二丁目１１番２０号,,34,103,7340000,,,,,,,2024-06-26,1,,,,,アクシス,0
2167,8240001063436,新規,0,2024-06-26,2024-06-26,株式会社Ｓｅｒｖｅ,,株式会社,広島県,広島市西区,己斐上３丁目４０番２号,,34,104,7330815,,,,,,,2024-06-26,1,,,,,サーブ,0
2175,8270001009007,新規,0,2024-06-26,2024-06-26,株式会社ＭＲＰ,,株式会社,鳥取県,米子市,夜見町２８４５番地,,31,202,6830851,,,,,,,2024-06-26,1,,,,,エムアールピー,0
2184,8290001106256,新規,0,2024-06-26,2024-06-26,株式会社Ｎｏａｈ　Ｎｉｎｅ,,株式会社,福岡県,福岡市中央区,天神２丁目２番１２号Ｔ＆Ｊビルディング７Ｆ,,40,133,8100001,,,,,,,2024-06-26,1,,,,,ノアナイン,0
2188,8290003015471,新規,0,2024-06-26,2024-06-26,合同会社ＲＥＢＥＬ６６６,,合同会社,福岡県,福岡市南区,和田１丁目２－３,,40,134,8111343,,,,,,,2024-06-26,1,,,,,レベルロクロクロク,0
2191,8290801030663,新規,0,2024-06-26,2024-06-26,株式会社九州機械工業,,株式会社,福岡県,京都郡苅田町,鳥越町１番地２７,,40,621,8000304,,,,,,,2024-06-26,1,,,,,キュウシュウキカイコウギョウ,0
2193,8300001013806,新規,0,2024-06-26,2024-06-26,西日本宅配サービス株式会社,,株式会社,佐賀県,唐津市,二タ子３丁目１１番２９号,,41,202,8470861,,,,,,,2024-06-26,1,,,,,ニシニッポンタクハイサービス,0
2199,8330001032200,新規,0,2024-06-26,2024-06-26,亀住株式会社,,株式会社,熊本県,熊本市北区,清水東町２番１４号,,43,105,8618065,,,,,,,2024-06-26,1,,,,,カメズミ,0
2200,8340001026597,新規,0,2024-06-26,2024-06-26,株式会社オフィスＫ．Ｔ,,株式会社,鹿児島県,鹿児島市,西田２丁目１５番２１号,,46,201,8900046,,,,,,,2024-06-26,1,,,,,オフィスケーティー,0
2204,8340003004519,新規,0,2024-06-26,2024-06-26,合同会社トリニティ,,合同会社,鹿児島県,鹿児島市,皇徳寺台２丁目４－１６－１１,,46,201,8910103,,,,,,,2024-06-26,1,,,,,トリニティ,0
2210,8360001033856,新規,0,2024-06-26,2024-06-26,南西設備工業株式会社,,株式会社,沖縄県,糸満市,字糸満９２７番地１,,47,210,9010361,,,,,,,2024-06-26,1,,,,,ナンセイセツビコウギョウ,0
2245,8700150126211,新規,0,2024-06-26,2024-06-26,Ｈａｎａｚｏｎｏ　Ｉｎｖｅｓｔｍｅｎｔ　Ｌｉｍｉｔｅｄ,,外国会社等,,,,,,,,Ｇ／Ｆ　Ｎｏ．４７　Ｔｕｎｇ　Ｓｔｒｅｅｔ　Ｓｈｅｕｎｇ　Ｗａｎ　Ｈｏｎｇ　Ｋｏｎｇ,,,,,,2024-06-26,1,,,,,ハナゾノインベストメントリミテツド,0
2253,9010001245857,新規,0,2024-06-26,2024-06-26,株式会社ティーマネジメント,,株式会社,東京都,千代田区,神田和泉町１番地７－５,,13,101,1010024,,,,,,,2024-06-26,1,,,,,ティーマネジメント,0
2254,9010001245997,新規,0,2024-06-26,2024-06-26,株式会社ＧＷＨ,,株式会社,東京都,千代田区,神田和泉町一丁目６番地１６ヤマトビル４０５,,13,101,1010024,,,,,,,2024-06-26,1,,,,,ジーダブリューエイチ,0
2255,9010001246021,新規,0,2024-06-26,2024-06-26,株式会社ＣＦコンサルティング,,株式会社,東京都,中央区,日本橋人形町３丁目１－１０,,13,102,1030013,,,,,,,2024-06-26,1,,,,,シーエフコンサルティング,0
2256,9010001246062,新規,0,2024-06-26,2024-06-26,株式会社ＳＨＩＲＡＫＡＷＡ,,株式会社,東京都,文京区,小日向４丁目２番８号,,13,105,1120006,,,,,,,2024-06-26,1,,,,,シラカワ,0
2257,9010001246070,新規,0,2024-06-26,2024-06-26,株式会社ツナガルプロダクションズ,,株式会社,東京都,文京区,白山４丁目１３番９号,,13,105,1120001,,,,,,,2024-06-26,1,,,,,ツナガルプロダクションズ,0
2258,9010001246079,新規,0,2024-06-26,2024-06-26,株式会社モアナレア,,株式会社,東京都,中央区,日本橋横山町８番５号,,13,102,1030003,,,,,,,2024-06-26,1,,,,,モアナレア,0
2259,9010001246087,新規,0,2024-06-26,2024-06-26,Ａｄａ　Ｉｎｆｒａｓｔｒｕｃｔｕｒｅ　Ｊａｐａｎ株式会社,,株式会社,東京都,中央区,八重洲２丁目２番１号,,13,102,1040028,,,,,,,2024-06-26,1,,,,,エイダインフラストラクチャージャパン,0
2260,9010001246095,新規,0,2024-06-26,2024-06-26,リプリン株式会社,,株式会社,東京都,千代田区,大手町１丁目６番１号大手町ビル１階Ｓｐａｃｅｓ大手町,,13,101,1000004,,,,,,,2024-06-26,1,,,,,リプリン,0
2263,9010003044142,新規,0,2024-06-26,2024-06-26,Ｘ‐Ｅｌｉｏ３０合同会社,,合同会社,東京都,中央区,銀座４丁目１４番１１号七十七銀座ビル８階,,13,102,1040061,,,,,,,2024-06-26,1,,,,,エクセリオサーティー,0
2264,9010003044167,新規,0,2024-06-26,2024-06-26,Ｊ＆ＴＣブルーエナジー合同会社,,合同会社,東京都,千代田区,神田練塀町３番地,,13,101,1010022,,,,,,,2024-06-26,1,,,,,ジェイアンドティーシーブルーエナジー,0
2266,9010005038448,新規,0,2024-06-26,2024-06-26,一般社団法人二輪車安全指導協会,,その他の設立登記法人,東京都,中央区,新川２丁目１番１０号,,13,102,1040033,,,,,,,2024-06-26,1,,,,,ニリンシャアンゼンシドウキョウカイ,0
2267,9010005038456,新規,0,2024-06-26,2024-06-26,一般社団法人田園都市線宮前平開発,,その他の設立登記法人,東京都,千代田区,平河町１丁目６番１５号シルスフィア会計事務所内,,13,101,1020093,,,,,,,2024-06-26,1,,,,,デンエントシセンミヤマエダイラカイハツ,0
2271,9010401183269,新規,0,2024-06-26,2024-06-26,株式会社ＡＳＮ,,株式会社,東京都,港区,赤坂４丁目７番１５号,,13,103,1070052,,,,,,,2024-06-26,1,,,,,エイエスエヌ,0
2272,9010401183302,新規,0,2024-06-26,2024-06-26,ピーハヴ株式会社,,株式会社,東京都,港区,浜松町２丁目２－１５,,13,103,1050013,,,,,,,2024-06-26,1,,,,,ピーハヴ,0
2274,9010403032861,新規,0,2024-06-26,2024-06-26,合同会社アズオレンジ,,合同会社,東京都,港区,西麻布４丁目１１番３号,,13,103,1060031,,,,,,,2024-06-26,1,,,,,アズオレンジ,0
2278,9010501052506,新規,0,2024-06-26,2024-06-26,ＥＡＳＴＢＡＮＫ株式会社,,株式会社,東京都,台東区,台東１丁目２４番９号ブライト秋葉原２Ｆ,,13,106,1100016,,,,,,,2024-06-26,1,,,,,イーストバンク,0
2285,9010803004980,新規,0,2024-06-26,2024-06-26,合同会社ＴｉｎｙＩｎｖｅｎｔｏｒ,,合同会社,東京都,大田区,大森西５丁目８番１８号リック大森町１０２,,13,111,1430015,,,,,,,2024-06-26,1,,,,,タイニーインベンター,0
2287,9010901055546,新規,0,2024-06-26,2024-06-26,株式会社ＣＯＮ‐ＴＡＣＴ,,株式会社,東京都,世田谷区,用賀３丁目１１－１５ＣＩビルＢ１,,13,112,1580097,,,,,,,2024-06-26,1,,,,,コンタクト,0
2293,9011001162910,新規,0,2024-06-26,2024-06-26,佳縁株式会社,,株式会社,東京都,渋谷区,代々木４丁目３１番４号,,13,113,1510053,,,,,,,2024-06-26,1,,,,,ガヨン,0
2294,9011001162976,新規,0,2024-06-26,2024-06-26,セントロイド株式会社,,株式会社,東京都,目黒区,中目黒１丁目３番８号,,13,110,1530061,,,,,,,2024-06-26,1,,,,,セントロイド,0
2296,9011103014605,新規,0,2024-06-26,2024-06-26,合同会社ｓｏｕｎｄ　ｆｒｏｇ,,合同会社,東京都,新宿区,西新宿３丁目３番１３号西新宿水間ビル６階,,13,104,1600023,,,,,,,2024-06-26,1,,,,,サウンドフロッグ,0
2298,9011201025586,新規,0,2024-06-26,2024-06-26,ＳｔａｎｄａｒｄＡＩ株式会社,,株式会社,東京都,中野区,若宮２丁目２１番１０号,,13,114,1650033,,,,,,,2024-06-26,1,,,,,スタンダードエーアイ,0
2308,9011501030848,新規,0,2024-06-26,2024-06-26,株式会社マルコ,,株式会社,東京都,北区,浮間２丁目１０番１３－４０７号,,13,117,1150051,,,,,,,2024-06-26,1,,,,,マルコ,0
2309,9011503006128,新規,0,2024-06-26,2024-06-26,合同会社ＳＫＹＳＰＡＣＥ,,合同会社,東京都,北区,赤羽台４丁目１３番４号,,13,117,1150053,,,,,,,2024-06-26,1,,,,,スカイスペース,0
2312,9011701027413,新規,0,2024-06-26,2024-06-26,雄樹株式会社,,株式会社,東京都,江戸川区,瑞江４丁目８番８号,,13,123,1320011,,,,,,,2024-06-26,1,,,,,ユウキ,0
2316,9011801044432,新規,0,2024-06-26,2024-06-26,株式会社かえでファーマシー,,株式会社,東京都,足立区,千住大川町２６番８号,,13,121,1200031,,,,,,,2024-06-26,1,,,,,カエデファーマシー,0
2317,9011803006307,新規,0,2024-06-26,2024-06-26,合同会社志縁,,合同会社,東京都,足立区,青井５丁目１８－６日比谷レジデンス７０５,,13,121,1210012,,,,,,,2024-06-26,1,,,,,シエン,0
2318,9012305002091,新規,0,2024-06-26,2024-06-26,特定非営利活動法人金井野菜倶楽部,,その他の設立登記法人,東京都,町田市,金井２丁目３２番地２２,,13,209,1950072,,,,,,,2024-06-26,1,,,,,カナイヤサイクラブ,0
2322,9012401042025,新規,0,2024-06-26,2024-06-26,株式会社ＪＩＮＤＡＩ,,株式会社,東京都,調布市,若葉町１丁目２７番地２９,,13,208,1820003,,,,,,,2024-06-26,1,,,,,ジンダイ,0
2325,9013301052725,新規,0,2024-06-26,2024-06-26,株式会社ニチエル,,株式会社,東京都,豊島区,南池袋２丁目９番９号,,13,116,1710022,,,,,,,2024-06-26,1,,,,,ニチエル,0
2330,9020001157861,新規,0,2024-06-26,2024-06-26,アイアル株式会社,,株式会社,神奈川県,横浜市鶴見区,下末吉３丁目１２－２２,,14,101,2300012,,,,,,,2024-06-26,1,,,,,アイアル,0
2336,9021003014679,新規,0,2024-06-26,2024-06-26,合同会社トラットリア・ボッテ,,合同会社,神奈川県,藤沢市,藤沢５５５さいか屋８階,,14,205,2510052,,,,,,,2024-06-26,1,,,,,トラットリアボッテ,0
2350,9030001161094,新規,0,2024-06-26,2024-06-26,株式会社ＷＡＮ,,株式会社,埼玉県,入間市,東藤沢１丁目５番４５号ユアコート１０８,,11,225,3580012,,,,,,,2024-06-26,1,,,,,ワン,0
2354,9030003024555,新規,0,2024-06-26,2024-06-26,双京貿易合同会社,,合同会社,埼玉県,熊谷市,三ヶ尻３７２７三ケ尻センター１Ｆ‐Ａ０２,,11,202,3600843,,,,,,,2024-06-26,1,,,,,ソウキョウボウエキ,0
2355,9030003024588,新規,0,2024-06-26,2024-06-26,アクアサイエンス合同会社,,合同会社,埼玉県,川口市,宮町１６番２４号,,11,203,3320028,,,,,,,2024-06-26,1,,,,,アクアサイエンス,0
2356,9030003024596,新規,0,2024-06-26,2024-06-26,合同会社ツールシステム,,合同会社,埼玉県,上尾市,大字小敷谷７７番地１西上尾第二団地２－１８－５０７,,11,219,3620064,,,,,,,2024-06-26,1,,,,,ツールシステム,0
2363,9040001134058,新規,0,2024-06-26,2024-06-26,株式会社Ｙｏｕｒ　Ｈｏｍｅ,,株式会社,千葉県,旭市,三川４８１５番地１,,12,215,2892714,,,,,,,2024-06-26,1,,,,,ユアホーム,0
2364,9040001134215,新規,0,2024-06-26,2024-06-26,株式会社レングキャピタル,,株式会社,千葉県,八街市,八街い１８８番地２山田ＳＧビル５０２室,,12,230,2891143,,,,,,,2024-06-26,1,,,,,レングキャピタル,0
2365,9050001054981,新規,0,2024-06-26,2024-06-26,株式会社アットチューン,,株式会社,茨城県,神栖市,溝口５６４３番地１,00135307,08,232,3140121,,,,,,,2024-06-26,1,,,,,アットチューン,0
2366,9050001055006,新規,0,2024-06-26,2024-06-26,結城通商株式会社,,株式会社,茨城県,結城市,大字結城５５２番地４,,08,207,3070001,,,,,,,2024-06-26,1,,,,,ユウキツウショウ,0
2369,9060001037226,新規,0,2024-06-26,2024-06-26,株式会社小堀住設工業,,株式会社,栃木県,塩谷郡高根沢町,大字花岡４５３番地５,,09,386,3291207,,,,,,,2024-06-26,1,,,,,コボリジュウセツコウギョウ,0
2372,9070001041904,新規,0,2024-06-26,2024-06-26,株式会社ＢＲＩＧＨＴ　ＬＩＦＥ,,株式会社,群馬県,太田市,西本町５８番２０号ツカゴシビル１０２号,,10,205,3730033,,,,,,,2024-06-26,1,,,,,ブライトライフ,0
2379,9080101024840,新規,0,2024-06-26,2024-06-26,株式会社駿修総業,,株式会社,静岡県,伊豆市,熊坂７９番地の３,,22,222,4102411,,,,,,,2024-06-26,1,,,,,スンシュウソウギョウ,0
2383,9080403005043,新規,0,2024-06-26,2024-06-26,合同会社アイアール,,合同会社,静岡県,浜松市中央区,連尺町３１４番地の３６チサンマンション連尺３０５号室,,22,138,4300939,,,,,,,2024-06-26,1,,,,,アイアール,0
2394,9120001266140,新規,0,2024-06-26,2024-06-26,イートル株式会社,,株式会社,大阪府,大阪市浪速区,芦原１丁目１番７－１０１号室,00135308,27,111,5560029,,,,,,,2024-06-26,1,,,,,イートル,0
2395,9120001266157,新規,0,2024-06-26,2024-06-26,縁和株式会社,00135301,株式会社,大阪府,大阪市浪速区,大国１丁目７－２２－３０２,,27,111,5560014,,,,,,,2024-06-26,1,,,,,エンワ,0
2396,9120001266223,新規,0,2024-06-26,2024-06-26,株式会社華英社,,株式会社,大阪府,大阪市中央区,船場中央３丁目２－８船場センタービル８号館２１２号,,27,128,5410055,,,,,,,2024-06-26,1,,,,,カエイシャ,0
2398,9120101069848,新規,0,2024-06-26,2024-06-26,株式会社三宝警備,,株式会社,大阪府,堺市堺区,山本町５丁１０１番地１６,,27,141,5900983,,,,,,,2024-06-26,1,,,,,サンポウケイビ,0
2400,9120103005909,新規,0,2024-06-26,2024-06-26,合同会社アールエスビー,,合同会社,大阪府,堺市美原区,大饗１７１－８,00135317,27,147,5870063,,,,,,,2024-06-26,1,,,,,アールエスビー,0
2405,9122001038222,新規,0,2024-06-26,2024-06-26,株式会社ＳＥＣＣ,,株式会社,大阪府,東大阪市,新庄東２番１１号,,27,227,5780951,,,,,,,2024-06-26,1,,,,,エスイーシーシー,0
2413,9140001134898,新規,0,2024-06-26,2024-06-26,株式会社Ｓｍｉｌｅ,,株式会社,兵庫県,明石市,相生町２丁目５－５ＫＳビル７０１号,,28,203,6730882,,,,,,,2024-06-26,1,,,,,スマイル,0
2419,9170001018198,新規,0,2024-06-26,2024-06-26,株式会社上野商事,,株式会社,和歌山県,田辺市,城山台２８番１５号,,30,206,6460217,,,,,,,2024-06-26,1,,,,,ウエノショウジ,0
2426,9180001162086,新規,0,2024-06-26,2024-06-26,株式会社ＰＡＹＦＯＲＷＡＲＤ,,株式会社,愛知県,名古屋市中区,栄４丁目１５番１５号セントラルハイツ栄５０２,,23,106,4600008,,,,,,,2024-06-26,1,,,,,ペイフォワード,0
2433,9180003026966,新規,0,2024-06-26,2024-06-26,合同会社ホットなＮｅｗｓ,,合同会社,愛知県,名古屋市中区,新栄１丁目１９番１１号（ザ・パークハビオ新栄１１１０号）,,23,106,4600007,,,,,,,2024-06-26,1,,,,,ホットナニュース,0
2434,9180003027007,新規,0,2024-06-26,2024-06-26,加藤笑店合同会社,,合同会社,愛知県,名古屋市中村区,名駅４丁目２４番地５号第２森ビル４０１,,23,105,4500002,,,,,,,2024-06-26,1,,,,,カトウショウテン,0
2447,9240001063393,新規,0,2024-06-26,2024-06-26,株式会社Ｔｒｕｓｔ　Ｌｉｆｅ,,株式会社,広島県,広島市中区,十日市町１丁目４－３３（３Ｆ）,,34,101,7300805,,,,,,,2024-06-26,1,,,,,トラストライフ,0
2448,9240001063427,新規,0,2024-06-26,2024-06-26,株式会社令明,,株式会社,広島県,福山市,川口町４丁目２３番７号,,34,207,7200822,,,,,,,2024-06-26,1,,,,,レイメイ,0
2449,9240001063435,新規,0,2024-06-26,2024-06-26,株式会社マナト,,株式会社,広島県,広島市佐伯区,屋代３丁目１６番２号,,34,108,7315146,,,,,,,2024-06-26,1,,,,,マナト,0
2452,9260003004798,新規,0,2024-06-26,2024-06-26,合同会社Ｏ．Ｆ．Ｃ,,合同会社,岡山県,岡山市中区,乙多見３５２番地１７,,33,102,7038228,,,,,,,2024-06-26,1,,,,,オーエフシー,0
2457,9290001106239,新規,0,2024-06-26,2024-06-26,株式会社誠希,,株式会社,福岡県,大野城市,川久保１丁目１４番６号,,40,219,8160905,,,,,,,2024-06-26,1,,,,,マサキ,0
2458,9290001106255,新規,0,2024-06-26,2024-06-26,株式会社ワンユニ,,株式会社,福岡県,福岡市博多区,博多駅前３丁目２５番２１号,,40,132,8120011,,,,,,,2024-06-26,1,,,,,ワンユニ,0
2461,9290003015479,新規,0,2024-06-26,2024-06-26,合同会社Ｋ＆Ｋ,,合同会社,福岡県,久留米市,安武町安武本６０５番地,,40,203,8300072,,,,,,,2024-06-26,1,,,,,ケイアンドケイ,0
2462,9290003015495,新規,0,2024-06-26,2024-06-26,合同会社猫々ＬＣＮ,,合同会社,福岡県,福岡市東区,若宮５丁目９番３３号ふじの荘１０３号,,40,131,8130036,,,,,,,2024-06-26,1,,,,,ネコネコエルシーエヌ,0
2463,9290003015512,新規,0,2024-06-26,2024-06-26,合同会社法務ｓｔｏｃｋ,,合同会社,福岡県,福岡市中央区,大名１丁目２番２０－２０２号,,40,133,8100041,,,,,,,2024-06-26,1,,,,,ホウムストック,0
2471,9290803004763,新規,0,2024-06-26,2024-06-26,合同会社ＪＳＣ,,合同会社,福岡県,北九州市八幡西区,大浦１丁目４番６号,,40,109,8070874,,,,,,,2024-06-26,1,,,,,ジェイエスシー,0
2472,9310001019082,新規,0,2024-06-26,2024-06-26,株式会社南島原小麦生産組合,,株式会社,長崎県,南島原市,布津町丙７８６番地１,,42,214,8592113,,,,,,,2024-06-26,1,,,,,ミナミシマバラコムギセイサンクミアイ,0
2481,9330005010804,新規,0,2024-06-26,2024-06-26,ＮＰＯ法人不知火誉の会,,その他の設立登記法人,熊本県,宇城市,不知火町大見１０３５番地５,,43,213,8693473,,,,,,,2024-06-26,1,,,,,シラヌイホマレノカイ,0
2483,9340003004518,新規,0,2024-06-26,2024-06-26,合同会社アメリＨａｉｒ,,合同会社,鹿児島県,姶良市,蒲生町下久徳２５２番地１,,46,225,8995304,,,,,,,2024-06-26,1,,,,,アメリヘアー,0
2486,9380001034637,新規,0,2024-06-26,2024-06-26,株式会社会津遠藤農園,,株式会社,福島県,会津若松市,門田町大字御山字村中９８番地,,07,202,9650826,,,,,,,2024-06-26,1,,,,,アイヅエンドウノウエン,0
2499,9430003016495,新規,0,2024-06-26,2024-06-26,Ｆｕｔｕｒｅ　Ａｖｅｎｕｅ合同会社,,合同会社,北海道,札幌市南区,川沿十二条３丁目８番５号,,01,106,0050812,,,,,,,2024-06-26,1,,,,,フューチャーアベニュー,0
2502,9480001012525,新規,0,2024-06-26,2024-06-26,株式会社ヤマキファーム,,株式会社,徳島県,鳴門市,里浦町里浦字坂田１７６番地,,36,202,7720021,,,,,,,2024-06-26,1,,,,,ヤマキファーム,0
2504,9500001025714,新規,0,2024-06-26,2024-06-26,株式会社恵エステートサービス,,株式会社,愛媛県,松山市,湯渡町１番１２号,,38,201,7900862,,,,,,,2024-06-26,1,,,,,メグミエステートサービス,0
2505,9700150120171,新規,0,2024-06-26,2024-06-26,ｓｈｅｎｚｈｅｎｋａｉｍｏｓｈｉｋｅｊｉｙｏｕｘｉａｎｇｏｎｇｓｉ,,外国会社等,,,,,,,,ｌｏｎｇｈｕａｑｕｄａｌａｎｇｊｉｅｄａｏｇａｏｆｅｎｇｓｈｅｑｕ　ｔｉａｎｔｏｎｇｇｏｎｇｙｅｙｕａｎ２ｄｏｎｇ５ｃｅｎｇ　ｓｈｅｎｚｈｅｎｓｈｉ　ｇｕａｎｇｄｏｎｇｓｈｅｎｇ　ＣＮ,,,,,,2024-06-26,1,,,,,シンセンカイモウシカギユウゲンコウシ,0
2506,9700150126219,新規,0,2024-06-26,2024-06-26,ｓｈｅｎｚｈｅｎｂａｉｓｉｋａｎｇｍａｏｙｉ　ｙｏｕｘｉａｎｇｏｎｇｓｉ,,外国会社等,,,,,,,,ｓｈｅｎｚｈｅｎｓｈｉ　ｙａｎｔｉａｎｑｕ　ｙａｎｔｉａｎｊｉｅｄａｏ　ｍｉｎｇｚｈｕｓｈｅｑｕ　ｙａｎｔｉａｎｌｕ４５ｈａｏ　ｊｉｎｇａｎｇｓｈｅｎｇｓｈｉｈｕａｔｉｎｇ６ｄｏｎｇ６Ｃ,,,,,,2024-06-26,1,,,,,シンセンバイシカンマオイユウゲンコウシ,0
2507,9700150126243,新規,0,2024-06-26,2024-06-26,ＣＨＩＢＡ　ＴＲＡＤＩＮＧ,,外国会社等,千葉県,八街市,東吉田７２５番地オフィス２０号,,12,230,2891114,スリランカ民主社会主義共和国、キャンディ、マヒイヤワ、Ｎｏ．１２１,,,,,,2024-06-26,1,,,,,チバトレーデイング,0
