sequenceNumber,corporateNumber,process,correct,updateDate,changeDate,name,nameImageId,kind,prefectureName,cityName,streetNumber,addressImageId,prefectureCode,cityCode,postCode,addressOutside,addressOutsideImageId,closeDate,closeCause,successorCorporateNumber,changeCause,assignmentDate,latest,enName,enPrefectureName,enCityName,enAddressOutside,furigana,hihyoji
21,1010003033318,登記記録の閉鎖等,0,2023-02-22,2023-02-16,日光Ｐｌｕｓ１４合同会社１２,,合同会社,東京都,千代田区,丸の内３丁目１番１号東京共同会計事務所内,,13,101,1000005,,,2023-02-16,清算の結了等,,,2020-10-19,1,,,,,ニッコウプラスフォーティーンイチニー,0
29,1010401104694,登記記録の閉鎖等,0,2023-02-22,2023-02-10,株式会社ヒューマンクロス,,株式会社,東京都,港区,高輪３丁目２６番３３号,,13,103,1080074,,,2023-02-10,清算の結了等,,,2015-10-05,1,,,,,ヒューマンクロス,0
49,1010805000622,登記記録の閉鎖等,0,2023-02-22,2023-02-15,医療法人社団木村こどもクリニック,,その他の設立登記法人,東京都,大田区,南六郷２丁目２７番１号コーポ篠原１階,,13,111,1440045,,,2023-02-15,清算の結了等,,,2015-10-05,1,,,,,キムラコドモクリニック,0
50,1010901024194,登記記録の閉鎖等,0,2023-02-22,2023-02-20,株式会社ヒューマンリレーションズ,,株式会社,東京都,世田谷区,等々力５丁目４番２号,,13,112,1580082,,,2023-02-20,清算の結了等,,,2015-10-05,1,,,,,ヒューマンリレーションズ,0
89,1020001055817,登記記録の閉鎖等,0,2023-02-22,2023-02-20,株式会社ＷＨＡＴ’Ｓ,,株式会社,神奈川県,横浜市都筑区,中川１丁目２番Ｅ－５０８号,,14,118,2240001,,,2023-02-20,清算の結了等,,,2015-10-05,1,,,,,ワッツ,0
107,1030001041857,登記記録の閉鎖等,0,2023-02-22,2023-02-20,株式会社トーツー,,株式会社,埼玉県,上尾市,柏座１丁目１２番１３号,,11,219,3620075,,,2023-02-20,清算の結了等,,,2015-10-05,1,,,,,トーツー,0
114,1030002070847,登記記録の閉鎖等,0,2023-02-22,2023-02-20,有限会社サンネクスト,,有限会社,埼玉県,北葛飾郡杉戸町,高野台東１丁目１３番地１２,,11,464,3450047,,,2023-02-20,清算の結了等,,,2015-10-05,1,,,,,サンネクスト,0
126,1040002036384,登記記録の閉鎖等,0,2023-02-22,2023-02-17,有限会社ブレスト工業,,有限会社,千葉県,市川市,稲越１丁目２５番１９号,,12,203,2720831,,,2023-02-17,清算の結了等,,,2015-10-05,1,,,,,ブレストコウギョウ,0
127,1040002059939,登記記録の閉鎖等,0,2023-02-22,2023-02-17,有限会社シマザキ,,有限会社,千葉県,印西市,山田３４２０番地１,,12,231,2701604,,,2023-02-17,清算の結了等,,,2015-10-05,1,,,,,シマザキ,0
128,1040002089985,登記記録の閉鎖等,0,2023-02-22,2023-02-20,有限会社さどや,,有限会社,千葉県,柏市,南増尾７丁目９番５号,,12,217,2770054,,,2023-02-20,清算の結了等,,,2015-10-05,1,,,,,サドヤ,0
136,1050002023118,登記記録の閉鎖等,0,2023-02-22,2023-02-16,有限会社ナマスカール,,有限会社,茨城県,つくば市,あしび野３番地の６,,08,220,3001261,,,2023-02-16,清算の結了等,,,2015-10-05,1,,,,,ナマスカール,0
155,1090001014262,登記記録の閉鎖等,0,2023-02-22,2023-02-20,株式会社ＦＯＢ,,株式会社,山梨県,甲府市,丸の内３丁目２８番６号４０２,,19,201,4000031,,,2023-02-20,清算の結了等,,,2015-10-05,1,,,,,,0
196,1180002029226,登記記録の閉鎖等,0,2023-02-22,2023-02-17,有限会社村上硝子店,,有限会社,愛知県,名古屋市中村区,名駅南３丁目１２番８号,,23,105,4500003,,,2023-02-17,清算の結了等,,,2015-10-05,1,,,,,ムラカミガラステン,0
202,1200001019233,登記記録の閉鎖等,0,2023-02-22,2023-02-21,信友商事株式会社,,株式会社,岐阜県,美濃市,１８１３番地の５,,21,207,5013701,,,2023-02-21,清算の結了等,,,2015-10-05,1,,,,,シンユウショウジ,0
204,1220001011279,登記記録の閉鎖等,0,2023-02-22,2023-02-17,アールエス株式会社,,株式会社,石川県,金沢市,新神田２丁目１３番６号,,17,201,9218013,,,2023-02-17,清算の結了等,,,2015-10-05,1,,,,,アールエス,0
210,1220002014454,登記記録の閉鎖等,0,2023-02-22,2023-02-20,有限会社コウベ,,有限会社,石川県,鹿島郡中能登町,能登部上ニ部３２番地,,17,407,9291602,,,2023-02-20,清算の結了等,,,2015-10-05,1,,,,,コウベ,0
218,1280002003303,登記記録の閉鎖等,0,2023-02-22,2023-02-21,有限会社メガバックス,,有限会社,島根県,松江市,東奥谷町３７２番地１,,32,201,6900871,,,2023-02-21,清算の結了等,,,2015-10-05,1,,,,,メガバックス,0
230,1310001008951,登記記録の閉鎖等,0,2023-02-22,2023-02-20,和間建設株式会社,,株式会社,長崎県,大村市,皆同町６３６番地１,,42,205,8560802,,,2023-02-20,清算の結了等,,,2015-10-05,1,,,,,ワマケンセツ,0
248,1430002062548,登記記録の閉鎖等,0,2023-02-22,2023-02-21,有限会社金子商店,,有限会社,北海道,幌泉郡えりも町,字えりも岬国有地,,01,609,0580342,,,2023-02-21,清算の結了等,,,2015-10-05,1,,,,,,0
256,1500002020358,登記記録の閉鎖等,0,2023-02-22,2023-02-20,有限会社寺山石材,,有限会社,愛媛県,今治市,宮窪町宮窪４７９５番地の１,,38,202,7942203,,,2023-02-20,清算の結了等,,,2015-10-05,1,,,,,テラヤマセキザイ,0
268,2010002041031,登記記録の閉鎖等,0,2023-02-22,2023-02-17,有限会社ユーアイビー・ペルセウス,,有限会社,東京都,千代田区,丸の内１丁目５番１号,,13,101,1000005,,,2023-02-17,清算の結了等,,,2015-10-05,1,,,,,ユーアイビーペルセウス,0
288,2010901046725,登記記録の閉鎖等,0,2023-02-22,2023-02-02,ｎｉｅｍｏ株式会社,,株式会社,東京都,渋谷区,渋谷２丁目２２－６幸和ビル１０Ｆ,,13,113,1500002,,,2023-02-02,清算の結了等,,,2020-08-03,1,,,,,ニーモ,0
312,2013202007173,登記記録の閉鎖等,0,2023-02-22,2023-02-20,有限会社三和スプリング製作所,,有限会社,東京都,目黒区,五本木２丁目１１番３０号,,13,110,1530053,,,2023-02-20,清算の結了等,,,2015-10-05,1,,,,,サンワスプリングセイサクショ,0
313,2013301011010,登記記録の閉鎖等,0,2023-02-22,2023-02-20,株式会社北京亭,,株式会社,東京都,豊島区,西池袋１丁目１６番８号,,13,116,1710021,,,2023-02-20,清算の結了等,,,2015-10-05,1,,,,,ペキンテイ,0
317,2020001017188,登記記録の閉鎖等,0,2023-02-22,2023-02-21,京三エンジニアリングサービス株式会社,,株式会社,神奈川県,横浜市鶴見区,平安町２丁目２９番地の５,,14,101,2300031,,,2023-02-21,清算の結了等,,,2015-10-05,1,,,,,キョウサンエンジニアリングサービス,0
322,2020001144791,登記記録の閉鎖等,0,2023-02-22,2023-02-20,Ｍｅｔａｔｕｒｅ株式会社,,株式会社,東京都,新宿区,西新宿１丁目２６番２号新宿野村ビル３２階,,13,104,1600023,,,2023-02-20,清算の結了等,,,2022-01-17,1,,,,,メタチュア,0
329,2021002048016,登記記録の閉鎖等,0,2023-02-22,2023-02-15,有限会社塩沢合成,,有限会社,神奈川県,綾瀬市,吉岡東４丁目１４番２１号,,14,218,2521125,,,2023-02-15,清算の結了等,,,2015-10-05,1,,,,,シオザワゴウセイ,0
333,2030001075359,登記記録の閉鎖等,0,2023-02-22,2023-02-17,株式会社芝川製作所,,株式会社,埼玉県,川口市,幸町２丁目７番１２号,,11,203,3320016,,,2023-02-17,清算の結了等,,,2015-10-05,1,,,,,シバカワセイサクショ,0
348,2040002095909,登記記録の閉鎖等,0,2023-02-22,2023-02-20,ユニバーサルテクノロジー有限会社,,有限会社,千葉県,柏市,豊四季１５４番地１４,,12,217,2770863,,,2023-02-20,清算の結了等,,,2015-10-05,1,,,,,ユニバーサルテクノロジー,0
351,2050002024412,登記記録の閉鎖等,0,2023-02-22,2023-02-16,有限会社稲葉工業,,有限会社,茨城県,古河市,水海２９８１番地の６７,,08,204,3060215,,,2023-02-16,清算の結了等,,,2015-10-05,1,,,,,イナバコウギョウ,0
355,2060002007028,登記記録の閉鎖等,0,2023-02-22,2023-02-20,有限会社ニッセイ栃木,,有限会社,栃木県,宇都宮市,戸祭１丁目１番１２号,,09,201,3200056,,,2023-02-20,清算の結了等,,,2015-10-05,1,,,,,ニッセイトチギ,0
371,2120001193688,登記記録の閉鎖等,0,2023-02-22,2023-02-20,鳳凰国際旅行株式会社,,株式会社,大阪府,大阪市中央区,和泉町２丁目１番７号,,27,128,5400019,,,2023-02-20,清算の結了等,,,2015-10-05,1,,,,,フェニックスコクサイリョコウ,0
384,2120002005768,登記記録の閉鎖等,0,2023-02-22,2023-02-20,有限会社田辺研磨工業所,,有限会社,大阪府,大阪市東住吉区,南田辺１丁目８番５号,,27,121,5460033,,,2023-02-20,清算の結了等,,,2015-10-05,1,,,,,タナベケンマコウギョウショ,0
386,2120002031376,登記記録の閉鎖等,0,2023-02-22,2023-02-20,有限会社高橋理容館,,有限会社,大阪府,大阪市都島区,中野町５丁目１４番３－５０１号,,27,102,5340027,,,2023-02-20,清算の結了等,,,2015-10-05,1,,,,,タカハシリヨウカン,0
402,2130001022061,登記記録の閉鎖等,0,2023-02-22,2023-02-20,ニッチ測量設計株式会社,,株式会社,京都府,京都市東山区,本町４丁目１３５番地,,26,105,6050981,,,2023-02-20,清算の結了等,,,2015-10-05,1,,,,,ニッチソクリョウセッケイ,0
404,2140001007846,登記記録の閉鎖等,0,2023-02-22,2023-02-20,栄ビル地下街株式会社,,株式会社,兵庫県,神戸市中央区,栄町通２丁目１０番７号,,28,110,6500023,,,2023-02-20,清算の結了等,,,2015-10-05,1,,,,,,0
406,2140001013373,登記記録の閉鎖等,0,2023-02-22,2023-02-20,株式会社宣工社,,株式会社,兵庫県,神戸市兵庫区,会下山町３丁目１０番１６号,,28,105,6520043,,,2023-02-20,清算の結了等,,,2015-10-05,1,,,,,センコウシャ,0
407,2140001116531,登記記録の閉鎖等,0,2023-02-22,2023-02-17,株式会社ｌｉｔ　ｊａｐａｎ,,株式会社,兵庫県,神戸市西区,学園西町３丁目１番,,28,111,6512103,,,2023-02-17,清算の結了等,,,2020-02-26,1,,,,,リットジャパン,0
418,2180001088692,登記記録の閉鎖等,0,2023-02-22,2023-02-20,株式会社しんせい,,株式会社,愛知県,名古屋市港区,港栄２丁目１番３号,,23,111,4550015,,,2023-02-20,清算の結了等,,,2015-10-05,1,,,,,シンセイ,0
430,2190002014036,登記記録の閉鎖等,0,2023-02-22,2023-02-20,有限会社田中自転車商会,,有限会社,三重県,松阪市,清生町４４５番地の１,,24,204,5150039,,,2023-02-20,清算の結了等,,,2015-10-05,1,,,,,タナカジテンシャショウカイ,0
452,2290801012592,登記記録の閉鎖等,0,2023-02-22,2023-02-21,株式会社湯浅商事,,株式会社,福岡県,北九州市若松区,高須西１丁目１４番６号,,40,103,8080146,,,2023-02-21,清算の結了等,,,2015-10-05,1,,,,,ユアサショウジ,0
457,2310003002919,登記記録の閉鎖等,0,2023-02-22,2023-02-21,アイワエンジニアリング合同会社,,合同会社,長崎県,長崎市,横尾３丁目２１番２１号,,42,201,8528065,,,2023-02-21,清算の結了等,,,2015-10-05,1,,,,,アイワエンジニアリング,0
465,2360001026881,登記記録の閉鎖等,0,2023-02-22,2023-02-20,株式会社Ｃｈａｔｏｎ　Ｐｒｏｐｒｅ,,株式会社,沖縄県,那覇市,壺屋１丁目１８番２１号,,47,201,9020065,,,2023-02-20,清算の結了等,,,2020-03-04,1,,,,,シャトンプロポ,0
471,2380001010545,登記記録の閉鎖等,0,2023-02-22,2023-02-17,株式会社イーネット,,株式会社,福島県,西白河郡泉崎村,大字泉崎字根岸前３３番地,,07,464,9690101,,,2023-02-17,清算の結了等,,,2015-10-05,1,,,,,イーネット,0
487,2430005006492,登記記録の閉鎖等,0,2023-02-22,2023-02-10,天理教萬字分教会,,その他の設立登記法人,北海道,岩見沢市,緑が丘１丁目９番地１８,,01,210,0680835,,,2023-02-10,合併による解散等,9430005006486,令和５年２月１０日北海道三笠市堤町１番地８天理教三笠山分教会（9430005006486）に合併し解散,2015-10-05,1,,,,,テンリキョウマンジブンキョウカイ,0
492,3010001024416,登記記録の閉鎖等,0,2023-02-22,2023-02-17,株式会社東神企画,,株式会社,東京都,千代田区,神田錦町２丁目２番地６,,13,101,1010054,,,2023-02-17,清算の結了等,,,2015-10-05,1,,,,,トウシンキカク,0
495,3010001125420,登記記録の閉鎖等,0,2023-02-22,2023-02-16,彩登デザイン株式会社,,株式会社,東京都,千代田区,神田佐久間河岸７０番地,,13,101,1010026,,,2023-02-16,清算の結了等,,,2015-10-05,1,,,,,サイトデザイン,0
507,3010003033316,登記記録の閉鎖等,0,2023-02-22,2023-02-16,日光Ｐｌｕｓ１４合同会社１０,,合同会社,東京都,千代田区,丸の内３丁目１番１号東京共同会計事務所内,,13,101,1000005,,,2023-02-16,清算の結了等,,,2020-10-19,1,,,,,ニッコウプラスフォーティーンイチゼロ,0
509,3010003034999,登記記録の閉鎖等,0,2023-02-22,2023-02-16,日光Ｐｌｕｓ１８合同会社５,,合同会社,東京都,千代田区,丸の内３丁目１番１号東京共同会計事務所内,,13,101,1000005,,,2023-02-16,清算の結了等,,,2021-06-04,1,,,,,ニッコウプラスエイティーンゴ,0
554,3011101046977,登記記録の閉鎖等,0,2023-02-22,2023-02-16,株式会社ソラーレ,,株式会社,東京都,渋谷区,広尾１丁目３番１８号,,13,113,1500012,,,2023-02-16,清算の結了等,,,2015-10-05,1,,,,,ソラーレ,0
563,3011301018446,登記記録の閉鎖等,0,2023-02-22,2023-02-21,株式会社ガイア・マネジメント,,株式会社,東京都,品川区,西五反田２丁目２５番２号,,13,109,1410031,,,2023-02-21,清算の結了等,,,2015-10-05,1,,,,,,0
573,3011702003468,登記記録の閉鎖等,0,2023-02-22,2023-02-20,有限会社キンヤ洋品店,,有限会社,東京都,江戸川区,西小岩１丁目２６番４号,,13,123,1330057,,,2023-02-20,清算の結了等,,,2015-10-05,1,,,,,キンヤヨウヒンテン,0
607,3030001032672,登記記録の閉鎖等,0,2023-02-22,2023-02-16,株式会社ホリコシ,,株式会社,埼玉県,加須市,花崎北１丁目５番地１,,11,210,3470016,,,2023-02-16,清算の結了等,,,2015-10-05,1,,,,,ホリコシ,0
624,3040003006748,登記記録の閉鎖等,0,2023-02-22,2023-02-16,合同会社サロマチ,,合同会社,東京都,北区,中十条３丁目２０番１８号コーポ日の出１０６号,,13,117,1140032,,,2023-02-16,清算の結了等,,,2015-10-05,1,,,,,サロマチ,0
626,3040005020359,登記記録の閉鎖等,0,2023-02-22,2023-02-20,一般社団法人危機管理推進協会,,その他の設立登記法人,千葉県,市川市,大和田２丁目１１番９号ハイツまきの１０３号,,12,203,2720025,,,2023-02-20,清算の結了等,,,2019-04-09,1,,,,,キキカンリスイシンキョウカイ,0
632,3070001012282,登記記録の閉鎖等,0,2023-02-22,2023-01-12,株式会社ウエハラＨＣ,,株式会社,群馬県,甘楽郡下仁田町,大字川井２０番地,,10,382,3702606,,,2023-01-12,合併による解散等,1070001012012,令和５年１月１日株式会社ウエハラ（1070001012012）に合併し解散,2015-10-05,1,,,,,ウエハラエイチシー,0
641,3100002012749,登記記録の閉鎖等,0,2023-02-22,2023-02-20,有限会社ドリームストリート,,有限会社,長野県,佐久市,御馬寄５８４番地１７,,20,217,3842103,,,2023-02-20,清算の結了等,,,2015-10-05,1,,,,,ドリームストリート,0
655,3120001182228,登記記録の閉鎖等,0,2023-02-22,2023-02-20,善順株式会社,,株式会社,兵庫県,神戸市中央区,下山手通３丁目１２番１－２０１号,,28,110,6500011,,,2023-02-20,清算の結了等,,,2015-10-05,1,,,,,ゼンジュン,0
676,3120901019801,登記記録の閉鎖等,0,2023-02-22,2023-02-20,株式会社坪田金型製作所,,株式会社,兵庫県,伊丹市,森本７丁目１４１番地,,28,207,6640842,,,2023-02-20,清算の結了等,,,2015-10-05,1,,,,,,0
681,3130001050648,登記記録の閉鎖等,0,2023-02-22,2023-02-20,株式会社ミヤックス,,株式会社,京都府,京都市山科区,大宅御供田町２４０番地,,26,110,6078192,,,2023-02-20,清算の結了等,,,2015-10-05,1,,,,,ミヤックス,0
708,3180301033819,登記記録の閉鎖等,0,2023-02-22,2023-02-16,株式会社樹神,,株式会社,愛知県,みよし市,根浦町２丁目８番地２２,,23,236,4700217,,,2023-02-16,清算の結了等,,,2020-06-22,1,,,,,コダマ,0
738,3370001012649,登記記録の閉鎖等,0,2023-02-22,2023-02-16,株式会社Ｔｏｏ仙台,,株式会社,宮城県,仙台市青葉区,二日町３番１０号,,04,101,9800802,,,2023-02-16,合併による解散等,4010901024712,令和５年２月１日東京都港区虎ノ門三丁目４番７号虎ノ門３６森ビル株式会社Ｔｏｏ（4010901024712）に合併し解散,2015-10-05,1,,,,,,0
747,3390001011228,登記記録の閉鎖等,0,2023-02-22,2023-02-20,株式会社おおぬき,,株式会社,山形県,西置賜郡白鷹町,大字荒砥乙１０１９番地,,06,402,9920832,,,2023-02-20,清算の結了等,,,2015-10-05,1,,,,,オオヌキ,0
751,3460101005056,登記記録の閉鎖等,0,2023-02-22,2023-02-20,株式会社十勝小玉農園,,株式会社,静岡県,静岡市駿河区,西脇５６５番地の１,,22,102,4228044,,,2023-02-20,清算の結了等,,,2015-10-05,1,,,,,トカチコダマノウエン,0
768,4010001199356,登記記録の閉鎖等,0,2023-02-22,2023-02-17,アイデアザック株式会社,,株式会社,東京都,中央区,明石町２番１６－６０１号,,13,102,1040044,,,2023-02-17,清算の結了等,,,2019-03-18,1,,,,,アイデアザック,0
773,4010002021873,登記記録の閉鎖等,0,2023-02-22,2023-02-15,有限会社玉野商事,,有限会社,東京都,中央区,東日本橋１丁目４番３号,,13,102,1030004,,,2023-02-15,清算の結了等,,,2015-10-05,1,,,,,タマノショウジ,0
775,4010003028827,登記記録の閉鎖等,0,2023-02-22,2023-02-15,合同会社Ｈｏｗ,,合同会社,東京都,中央区,銀座７丁目１５番８号タウンハイツ銀座４０６,,13,102,1040061,,,2023-02-15,清算の結了等,,,2018-12-05,1,,,,,ハウ,0
786,4010401098918,登記記録の閉鎖等,0,2023-02-22,2023-02-01,株式会社フィンギー,,株式会社,東京都,港区,南青山１丁目１１番３３号,,13,103,1070062,,,2023-02-01,合併による解散等,9010401019613,令和５年２月１日東京都港区南青山一丁目１１番３３号株式会社ドクターイシイコスメティックス（9010401019613）に合併し解散,2015-10-05,1,,,,,フィンギー,0
816,4011101007607,登記記録の閉鎖等,0,2023-02-22,2023-02-20,株式会社坂田テルファーストコーポレーション,,株式会社,東京都,新宿区,下落合１丁目３番１６号,,13,104,1610033,,,2023-02-20,清算の結了等,,,2015-10-05,1,,,,,サカタテルファーストコーポレーション,0
836,4020001084879,登記記録の閉鎖等,0,2023-02-22,2023-02-20,株式会社ＡＱＵＡ　ＧＥＭ,,株式会社,静岡県,富士市,水戸島元町１３番８号,,22,210,4160922,,,2023-02-20,清算の結了等,,,2015-10-05,1,,,,,アクアジェム,0
846,4020002056183,登記記録の閉鎖等,0,2023-02-22,2023-02-20,有限会社メルディック技研,,有限会社,神奈川県,横浜市青葉区,すすき野３丁目８番地３,,14,117,2250021,,,2023-02-20,清算の結了等,,,2015-10-05,1,,,,,メルディックギケン,0
858,4030001094092,登記記録の閉鎖等,0,2023-02-22,2023-02-20,株式会社佐々建興業,,株式会社,埼玉県,所沢市,東所沢１丁目２０番地の１,,11,208,3590021,,,2023-02-20,清算の結了等,,,2015-10-05,1,,,,,,0
869,4040001062833,登記記録の閉鎖等,0,2023-02-22,2023-02-16,名和電設株式会社,,株式会社,千葉県,銚子市,長塚町５丁目１７３４番地の２,,12,202,2880837,,,2023-02-16,清算の結了等,,,2015-10-05,1,,,,,メイワデンセツ,0
883,4060001020392,登記記録の閉鎖等,0,2023-02-22,2023-02-20,株式会社サンリツ,,株式会社,栃木県,佐野市,天神町９８２番地２,,09,204,3270847,,,2023-02-20,清算の結了等,,,2015-10-05,1,,,,,サンリツ,0
890,4080002015992,登記記録の閉鎖等,0,2023-02-22,2023-02-20,有限会社泰栄堂,,有限会社,静岡県,焼津市,本町２丁目１６番４３号,,22,212,4250022,,,2023-02-20,清算の結了等,,,2015-10-05,1,,,,,タイエイドウ,0
899,4100005003356,登記記録の閉鎖等,0,2023-02-22,2023-02-20,東日本総合建設業協同組合,,その他の設立登記法人,長野県,佐久市,前山４０２番地１,,20,217,3850046,,,2023-02-20,清算の結了等,,,2015-10-05,1,,,,,ヒガシニホンソウゴウケンセツギョウ,0
914,4120101031481,登記記録の閉鎖等,0,2023-02-22,2023-02-21,昭和化工株式会社,,株式会社,大阪府,大阪市東住吉区,田辺１丁目１１番１３－８０２号,,27,121,5460031,,,2023-02-21,清算の結了等,,,2015-10-05,1,,,,,ショウワカコウ,0
948,4190001003186,登記記録の閉鎖等,0,2023-02-22,2023-02-21,株式会社ビケント,,株式会社,三重県,津市,豊が丘５丁目１５番３号,,24,201,5142222,,,2023-02-21,清算の結了等,,,2015-10-05,1,,,,,ビケント,0
949,4190001020090,登記記録の閉鎖等,0,2023-02-22,2023-02-20,水道修理四日市センター株式会社,,株式会社,三重県,四日市市,鵜の森１丁目５番８－１１０３号,,24,202,5100074,,,2023-02-20,清算の結了等,,,2015-10-05,1,,,,,スイドウシュウリヨッカイチセンター,0
950,4190002005644,登記記録の閉鎖等,0,2023-02-22,2023-02-20,有限会社開祐丸漁業,,有限会社,三重県,北牟婁郡紀北町,長島３８５番地８,,24,543,5193205,,,2023-02-20,清算の結了等,,,2015-10-05,1,,,,,カイユウマルギョギョウ,0
954,4220002013726,登記記録の閉鎖等,0,2023-02-22,2023-02-20,有限会社木村電気,,有限会社,石川県,七尾市,三島町４５番地,,17,202,9260802,,,2023-02-20,清算の結了等,,,2015-10-05,1,,,,,キムラデンキ,0
968,4300002010351,登記記録の閉鎖等,0,2023-02-22,2023-02-20,有限会社三親,,有限会社,佐賀県,唐津市,中原２９０５番地５,,41,202,8470034,,,2023-02-20,清算の結了等,,,2015-10-05,1,,,,,サンシン,0
989,4380002019567,登記記録の閉鎖等,0,2023-02-22,2023-02-17,有限会社阿武隈研磨工業,,有限会社,福島県,須賀川市,江持字土手ノ内１５６番地の１,,07,207,9620801,,,2023-02-17,清算の結了等,,,2015-10-05,1,,,,,アブクマケンマコウギョウ,0
1013,4490005002253,登記記録の閉鎖等,0,2023-02-22,2023-02-20,特定非営利活動法人なかむら音楽振興会,,その他の設立登記法人,高知県,四万十市,右山元町１丁目７番１０－１号,,39,210,7870011,,,2023-02-20,清算の結了等,,,2015-10-05,1,,,,,ナカムラオンガクシンコウカイ,0
1016,5010001184324,登記記録の閉鎖等,0,2023-02-22,2023-02-15,アクシードキャリア株式会社,,株式会社,東京都,千代田区,平河町１丁目６番１５号,,13,101,1020093,,,2023-02-15,清算の結了等,,,2017-06-19,1,,,,,アクシードキャリア,0
1023,5010002022193,登記記録の閉鎖等,0,2023-02-22,2023-02-17,ダイヤトレド有限会社,,有限会社,東京都,千代田区,丸の内１丁目５番１号,,13,101,1000005,,,2023-02-17,清算の結了等,,,2015-10-05,1,,,,,ダイヤトレド,0
1026,5010003033314,登記記録の閉鎖等,0,2023-02-22,2023-02-16,日光Ｐｌｕｓ１４合同会社８,,合同会社,東京都,千代田区,丸の内３丁目１番１号東京共同会計事務所内,,13,101,1000005,,,2023-02-16,清算の結了等,,,2020-10-19,1,,,,,ニッコウプラスフォーティーンハチ,0
1027,5010003034469,登記記録の閉鎖等,0,2023-02-22,2023-02-16,日光Ｐｌｕｓ１７合同会社５,,合同会社,東京都,千代田区,丸の内３丁目１番１号東京共同会計事務所内,,13,101,1000005,,,2023-02-16,清算の結了等,,,2021-03-23,1,,,,,ニッコウプラスセブンティーンゴ,0
1032,5010401043121,登記記録の閉鎖等,0,2023-02-22,2023-02-10,株式会社ドリームネットワーク,,株式会社,東京都,港区,新橋５丁目３１番７号,,13,103,1050004,,,2023-02-10,清算の結了等,,,2015-10-05,1,,,,,ドリームネットワーク,0
1041,5010701006323,登記記録の閉鎖等,0,2023-02-22,2023-02-21,テクニカル・インターナショナル株式会社,,株式会社,東京都,品川区,小山５丁目１１番１０号,,13,109,1420062,,,2023-02-21,清算の結了等,,,2015-10-05,1,,,,,,0
1044,5010801029991,登記記録の閉鎖等,0,2023-02-22,2023-02-17,ＪＡＬ宏遠株式会社,,株式会社,東京都,大田区,羽田旭町１０番１１号,,13,111,1440042,,,2023-02-17,清算の結了等,,,2019-07-04,1,,,,,ジャルホンユエン,0
1070,5013302001536,登記記録の閉鎖等,0,2023-02-22,2023-02-20,有限会社おおたき,,有限会社,東京都,豊島区,池袋１丁目７番１１号,,13,116,1700014,,,2023-02-20,清算の結了等,,,2015-10-05,1,,,,,オオタキ,0
1101,5030001002970,登記記録の閉鎖等,0,2023-02-22,2023-02-10,株式会社埼玉岩倉商事,,株式会社,埼玉県,さいたま市南区,辻４丁目１３番２０号,00014428,11,108,3360026,,,2023-02-10,清算の結了等,,,2015-10-05,1,,,,,サイタマイワクラショウジ,0
1105,5030002042421,登記記録の閉鎖等,0,2023-02-22,2023-02-14,有限会社日比谷ハウジング,,有限会社,埼玉県,羽生市,東６丁目２０番地１５,,11,216,3480052,,,2023-02-14,清算の結了等,,,2015-10-05,1,,,,,ヒビヤハウジング,0
1118,5060005003319,登記記録の閉鎖等,0,2023-02-22,2023-02-20,社会福祉法人愛真福祉会,,その他の設立登記法人,栃木県,芳賀郡茂木町,大字千本４０９番地１,,09,343,3213547,,,2023-02-20,清算の結了等,,,2015-10-05,1,,,,,アイシンフクシカイ,0
1130,5120001054573,登記記録の閉鎖等,0,2023-02-22,2023-02-20,株式会社川勝製作所,,株式会社,大阪府,大阪市淀川区,野中南１丁目５番１７号,,27,123,5320022,,,2023-02-20,清算の結了等,,,2015-10-05,1,,,,,カワカツセイサクショ,0
1132,5120001170016,登記記録の閉鎖等,0,2023-02-22,2023-02-09,株式会社ウェルボ,,株式会社,大阪府,大阪市中央区,安土町１丁目８番６号大永ビル４階,,27,128,5410052,,,2023-02-09,合併による解散等,7140001077967,令和５年２月１日大阪市中央区安土町一丁目８番６号大永ビル四階株式会社アレクソン（7140001077967）と合併し解散,2015-10-05,1,,,,,ウェルボ,0
1158,5140002009789,登記記録の閉鎖等,0,2023-02-22,2023-02-20,有限会社カクタニ,,有限会社,兵庫県,神戸市北区,鈴蘭台北町２丁目２番１１,,28,109,6511111,,,2023-02-20,清算の結了等,,,2015-10-05,1,,,,,カクタニ,0
1219,5410002006791,登記記録の閉鎖等,0,2023-02-22,2023-02-17,有限会社トーケン,,有限会社,秋田県,由利本荘市,小人町１２２番地の３,,05,210,0150862,,,2023-02-17,清算の結了等,,,2015-10-05,1,,,,,トーケン,0
1226,5470001006688,登記記録の閉鎖等,0,2023-02-22,2023-02-21,株式会社香川経営研究所,,株式会社,香川県,高松市,香南町吉光４８６番地,,37,201,7611403,,,2023-02-21,清算の結了等,,,2015-10-05,1,,,,,カガワケイエイケンキュウショ,0
1232,5500002000018,登記記録の閉鎖等,0,2023-02-22,2023-02-15,黒川海運有限会社,,有限会社,愛媛県,松山市,小浜２０番地,,38,201,7914502,,,2023-02-15,合併による解散等,9500001001491,令和５年２月１日愛媛県松山市小浜２０番地株式会社クロカワ（9500001001491）に合併し解散,2015-10-05,1,,,,,,0
1246,6010002041408,登記記録の閉鎖等,0,2023-02-22,2023-02-17,ダイヤイスタンブール有限会社,,有限会社,東京都,千代田区,丸の内１丁目５番１号,,13,101,1000005,,,2023-02-17,清算の結了等,,,2015-10-05,1,,,,,ダイヤイスタンブール,0
1247,6010003031085,登記記録の閉鎖等,0,2023-02-22,2023-02-17,コンニ合同会社,,合同会社,東京都,千代田区,丸の内１丁目８番３号丸の内トラストタワー本館２０階,,13,101,1000005,,,2023-02-17,清算の結了等,,,2019-11-19,1,,,,,コンニ,0
1250,6010003032694,登記記録の閉鎖等,0,2023-02-22,2023-02-16,日光Ｐｌｕｓ１３合同会社１１,,合同会社,東京都,千代田区,丸の内３丁目１番１号東京共同会計事務所内,,13,101,1000005,,,2023-02-16,清算の結了等,,,2020-07-30,1,,,,,ニッコウプラスサーティーンイチイチ,0
1254,6010401005376,登記記録の閉鎖等,0,2023-02-22,2023-02-10,株式会社エム・シー・エー・エステート,,株式会社,東京都,港区,新橋５丁目２８番７号,,13,103,1050004,,,2023-02-10,清算の結了等,,,2015-10-05,1,,,,,エムシーエーエステート,0
1257,6010401100846,登記記録の閉鎖等,0,2023-02-22,2023-02-20,株式会社ＥＭＣ,,株式会社,埼玉県,戸田市,中町１丁目３３番５号,,11,224,3350012,,,2023-02-20,清算の結了等,,,2015-10-05,1,,,,,イーエムシー,0
1277,6011001005923,登記記録の閉鎖等,0,2023-02-22,2023-02-20,株式会社ミライノベート,,株式会社,東京都,品川区,西五反田７丁目１７番７号,,13,109,1410031,,,2023-02-20,合併による解散等,2010401094729,令和５年２月１日東京都港区南麻布四丁目５番４８号Ｊトラスト株式会社（2010401094729）に合併し解散,2015-10-05,1,,,,,ミライノベート,0
1305,6013302010775,登記記録の閉鎖等,0,2023-02-22,2023-02-16,有限会社ワイ・ティー・ケイ,,有限会社,東京都,豊島区,南大塚３丁目１番６号,,13,116,1700005,,,2023-02-16,清算の結了等,,,2015-10-05,1,,,,,ワイティーケイ,0
1306,6020001016905,登記記録の閉鎖等,0,2023-02-22,2023-02-17,株式会社梶本製作所,,株式会社,神奈川県,横浜市鶴見区,馬場２丁目２６番５号,,14,101,2300076,,,2023-02-17,清算の結了等,,,2015-10-05,1,,,,,,0
1308,6020001040847,登記記録の閉鎖等,0,2023-02-22,2023-02-21,株式会社ガイア・イノベーション,,株式会社,東京都,品川区,西五反田２丁目２５番２号,,13,109,1410031,,,2023-02-21,清算の結了等,,,2015-10-05,1,,,,,,0
1311,6020001104346,登記記録の閉鎖等,0,2023-02-22,2023-02-17,株式会社ＡＲＡＵ,,株式会社,神奈川県,川崎市宮前区,野川本町１丁目３２番３号,,14,136,2160041,,,2023-02-17,清算の結了等,,,2015-10-05,1,,,,,アラウ,0
1316,6030001133501,登記記録の閉鎖等,0,2023-02-22,2023-02-20,株式会社プロテック,,株式会社,埼玉県,ふじみ野市,大井中央１丁目１１番６号,,11,245,3560058,,,2023-02-20,清算の結了等,,,2019-10-31,1,,,,,プロテック,0
1327,6040001074934,登記記録の閉鎖等,0,2023-02-22,2023-02-17,株式会社マスヤ,,株式会社,千葉県,いすみ市,大原９２２９番地,,12,238,2980004,,,2023-02-17,清算の結了等,,,2015-10-05,1,,,,,マスヤ,0
1332,6040003017107,登記記録の閉鎖等,0,2023-02-22,2023-02-10,合同会社オムタス,,合同会社,千葉県,船橋市,咲が丘１丁目２３番５３号,,12,204,2740807,,,2023-02-10,清算の結了等,,,2021-02-26,1,,,,,オムタス,0
1345,6080401024510,登記記録の閉鎖等,0,2023-02-22,2023-02-20,株式会社ビューティーＣアカデミー,,株式会社,静岡県,浜松市中区,中島２丁目２２番２号,,22,131,4300856,,,2023-02-20,清算の結了等,,,2020-08-28,1,,,,,ビューティーシーアカデミー,0
1352,6120001124631,登記記録の閉鎖等,0,2023-02-22,2023-02-14,蘇和株式会社,,株式会社,大阪府,吹田市,南金田２丁目１２番１号,,27,205,5640044,,,2023-02-14,合併による解散等,5120901008067,令和５年２月１３日大阪府吹田市南金田二丁目１２番１号株式会社ビケンテクノ（5120901008067）に合併し解散,2015-10-05,1,,,,,ソワ,0
1360,6120003022412,登記記録の閉鎖等,0,2023-02-22,2023-02-20,合同会社輪笑,,合同会社,大阪府,大阪市住吉区,万代東１丁目１番１号富久屋ビル２Ｄ号,,27,120,5580056,,,2023-02-20,清算の結了等,,,2022-09-08,1,,,,,ワニ,0
1362,6120005016610,登記記録の閉鎖等,0,2023-02-22,2023-02-21,一般社団法人日本クレド経営協会,,その他の設立登記法人,大阪府,大阪市北区,大淀中１丁目１番３０号,,27,127,5310076,,,2023-02-21,清算の結了等,,,2015-10-05,1,,,,,ニホンクレドケイエイキョウカイ,0
1369,6140001011423,登記記録の閉鎖等,0,2023-02-22,2023-02-17,株式会社山勝真珠,,株式会社,兵庫県,神戸市西区,竹の台４丁目２番地の５,,28,111,6512274,,,2023-02-17,清算の結了等,,,2015-10-05,1,,,,,ヤマカツシンジュ,0
1378,6150005009009,登記記録の閉鎖等,0,2023-02-22,2023-02-15,一般社団法人ＣＲｏｏｔｓ,,その他の設立登記法人,秋田県,秋田市,下北手松崎字家ノ前５８番地１６フェアリーハウス２１、１号室,,05,201,0100051,,,2023-02-15,清算の結了等,,,2018-08-22,1,,,,,シールーツ,0
1390,6180003019849,登記記録の閉鎖等,0,2023-02-22,2023-02-20,ＤＬテック合同会社,,合同会社,愛知県,名古屋市東区,泉２丁目２１番３号,,23,102,4610001,,,2023-02-20,清算の結了等,,,2019-04-08,1,,,,,ディーエルテック,0
1396,6230002005167,登記記録の閉鎖等,0,2023-02-22,2023-02-20,有限会社ピー・クリーン,,有限会社,富山県,富山市,荒川１丁目５番３７号,,16,201,9300982,,,2023-02-20,清算の結了等,,,2015-10-05,1,,,,,ピークリーン,0
1397,6230003000927,登記記録の閉鎖等,0,2023-02-22,2023-02-21,ノース合同会社,,合同会社,富山県,富山市,中冨居新町９番３８号,,16,201,9300830,,,2023-02-21,清算の結了等,,,2015-10-05,1,,,,,ノース,0
1402,6280002006235,登記記録の閉鎖等,0,2023-02-22,2023-02-20,有限会社伊波野機鋼,,有限会社,島根県,出雲市,斐川町今在家４５番地３,,32,203,6990644,,,2023-02-20,清算の結了等,,,2015-10-05,1,,,,,イワノキコウ,0
1413,6300005006650,登記記録の閉鎖等,0,2023-02-22,2023-02-20,一般社団法人ＨＬ・住生活支援機構,,その他の設立登記法人,佐賀県,鳥栖市,藤木町２２５６番地,,41,203,8410048,,,2023-02-20,清算の結了等,,,2017-05-12,1,,,,,エイッチエルジュウセイカツシエンキコウ,0
1438,6380005010323,登記記録の閉鎖等,0,2023-02-22,2023-02-17,特定非営利活動法人いわきワールド田んぼプロジェクト,,その他の設立登記法人,福島県,いわき市,泉玉露３丁目１０番地の２,,07,204,9718172,,,2023-02-17,清算の結了等,,,2015-10-05,1,,,,,イワキワールドタンボプロジェクト,0
1442,6420001014117,登記記録の閉鎖等,0,2023-02-22,2023-02-17,株式会社アリュール都市建築設計事務所,,株式会社,青森県,青森市,古川２丁目２０番２０号２０５号,,02,201,0300862,,,2023-02-17,清算の結了等,,,2015-10-05,1,,,,,アリュールトシケンチクセッケイジムショ,0
1446,6430001004174,登記記録の閉鎖等,0,2023-02-22,2023-02-21,株式会社川中スポーツ,,株式会社,北海道,札幌市中央区,宮の森一条１１丁目５番２９号,,01,101,0640951,,,2023-02-21,清算の結了等,,,2015-10-05,1,,,,,カワナカスポーツ,0
1457,6480002015257,登記記録の閉鎖等,0,2023-02-22,2023-02-21,有限会社福祉用具つるぎ,,有限会社,徳島県,美馬郡つるぎ町,半田字小野３１番地１,,36,468,7794401,,,2023-02-21,清算の結了等,,,2015-10-05,1,,,,,フクシヨウグツルギ,0
1458,6490002001850,登記記録の閉鎖等,0,2023-02-22,2023-02-21,有限会社マリンテック,,有限会社,高知県,高知市,長尾山町１０番地,,39,201,7800953,,,2023-02-21,清算の結了等,,,2015-10-05,1,,,,,マリンテック,0
1460,7010001020477,登記記録の閉鎖等,0,2023-02-22,2023-02-16,株式会社スペースデザインセンタームラコシ,,株式会社,東京都,千代田区,内神田３丁目２２番２号,,13,101,1010047,,,2023-02-16,清算の結了等,,,2015-10-05,1,,,,,スペースデザインセンタームラコシ,0
1462,7010001143030,登記記録の閉鎖等,0,2023-02-22,2023-02-16,ネクスト・インベストメント２株式会社,,株式会社,東京都,千代田区,麹町３丁目５番地２,,13,101,1020083,,,2023-02-16,清算の結了等,,,2015-10-05,1,,,,,ネクストインベストメントツー,0
1471,7010003032685,登記記録の閉鎖等,0,2023-02-22,2023-02-16,日光Ｐｌｕｓ１３合同会社２,,合同会社,東京都,千代田区,丸の内３丁目１番１号東京共同会計事務所内,,13,101,1000005,,,2023-02-16,清算の結了等,,,2020-07-30,1,,,,,ニッコウプラスサーティーンニ,0
1481,7010401114176,登記記録の閉鎖等,0,2023-02-22,2023-02-20,ＣＥＣ株式会社,,株式会社,東京都,渋谷区,神南１丁目２０番１０号神南興業ビル,,13,113,1500041,,,2023-02-20,清算の結了等,,,2015-10-05,1,,,,,,0
1492,7010701012542,登記記録の閉鎖等,0,2023-02-22,2023-02-20,株式会社ガイア・システム・ソリューション,,株式会社,東京都,品川区,西五反田２丁目２５番２号,,13,109,1410031,,,2023-02-20,清算の結了等,,,2015-10-05,1,,,,,ガイアシステムソリューション,0
1495,7010701034751,登記記録の閉鎖等,0,2023-02-22,2023-02-20,株式会社ヒューマン,,株式会社,東京都,世田谷区,上馬２丁目２６番７号ステージファースト三軒茶屋アジールコート２－１００３号室,,13,112,1540011,,,2023-02-20,清算の結了等,,,2017-09-28,1,,,,,ヒューマン,0
1507,7011001109079,登記記録の閉鎖等,0,2023-02-22,2023-02-20,Ｃａｎｓｅｌｌ株式会社,,株式会社,東京都,渋谷区,神宮前６丁目２８番９号東武ビル３Ｆ,,13,113,1500001,,,2023-02-20,清算の結了等,,,2016-01-15,1,,,,,キャンセル,0
1509,7011002026380,登記記録の閉鎖等,0,2023-02-22,2023-02-20,有限会社ハニービー・インコーポレイテッド,,有限会社,東京都,渋谷区,千駄ヶ谷３丁目４０番１３号Ｍ＆Ｎ１階１０２号室,,13,113,1510051,,,2023-02-20,清算の結了等,,,2015-10-05,1,,,,,ハニービーインコーポレイテッド,0
1548,7020002004296,登記記録の閉鎖等,0,2023-02-22,2023-02-20,有限会社サロンドボーテシャラン,,有限会社,神奈川県,横浜市緑区,鴨居５丁目３０番２５号,,14,113,2260003,,,2023-02-20,清算の結了等,,,2015-10-05,1,,,,,サロンドボーテシャラン,0
1575,7060001017865,登記記録の閉鎖等,0,2023-02-22,2023-02-21,株式会社テンフィート,,株式会社,栃木県,栃木市,薗部町１丁目２０番４０号,,09,203,3280074,,,2023-02-21,清算の結了等,,,2015-10-05,1,,,,,テンフィート,0
1591,7100002016333,登記記録の閉鎖等,0,2023-02-22,2023-02-20,有限会社塚田設備,,有限会社,長野県,上田市,塩川３５８番地,,20,203,3860401,,,2023-02-20,清算の結了等,,,2015-10-05,1,,,,,ツカダセツビ,0
1600,7120101022486,登記記録の閉鎖等,0,2023-02-22,2023-02-20,株式会社メディカルポイント,,株式会社,兵庫県,神戸市東灘区,御影２丁目２６番１２－２０４号,,28,101,6580047,,,2023-02-20,清算の結了等,,,2015-10-05,1,,,,,メディカルポイント,0
1619,7140003016931,登記記録の閉鎖等,0,2023-02-22,2023-02-20,合同会社Ｃａｃａｏ,,合同会社,兵庫県,神戸市兵庫区,御崎本町２丁目９番１０号,,28,105,6520852,,,2023-02-20,清算の結了等,,,2021-11-05,1,,,,,カカオ,0
1626,7180001047784,登記記録の閉鎖等,0,2023-02-22,2023-02-16,株式会社Ｔｏｏ名古屋,,株式会社,愛知県,名古屋市中区,栄３丁目１８番１号ナディアパークビジネスセンタービル,,23,106,4600008,,,2023-02-16,合併による解散等,4010901024712,令和５年２月１日東京都港区虎ノ門三丁目４番７号虎ノ門３６森ビル株式会社Ｔｏｏ（4010901024712）に合併し解散,2015-10-05,1,,,,,トゥーナゴヤ,0
1683,7420001011591,登記記録の閉鎖等,0,2023-02-22,2023-02-21,奥入瀬林業株式会社,,株式会社,青森県,上北郡おいらせ町,向山４丁目４番地９１,,02,412,0392151,,,2023-02-21,清算の結了等,,,2015-10-05,1,,,,,オイラセリンギョウ,0
1692,7490001006817,登記記録の閉鎖等,0,2023-02-22,2023-02-20,株式会社海の研究舎,,株式会社,高知県,室戸市,室戸岬町５７０８番地１,,39,202,7817101,,,2023-02-20,清算の結了等,,,2015-10-05,1,,,,,ウミノケンキュウシャ,0
1703,8010003024789,登記記録の閉鎖等,0,2023-02-22,2023-02-16,合同会社キックスタート,,合同会社,東京都,中央区,銀座１丁目３番３－Ｇ１ビル７階,,13,102,1040061,,,2023-02-16,清算の結了等,,,2017-02-06,1,,,,,キックスタート,0
1704,8010003032684,登記記録の閉鎖等,0,2023-02-22,2023-02-16,日光Ｐｌｕｓ１３合同会社１,,合同会社,東京都,千代田区,丸の内３丁目１番１号東京共同会計事務所内,,13,101,1000005,,,2023-02-16,清算の結了等,,,2020-07-30,1,,,,,ニッコウプラスサーティーンイチ,0
1705,8010003032692,登記記録の閉鎖等,0,2023-02-22,2023-02-16,日光Ｐｌｕｓ１３合同会社９,,合同会社,東京都,千代田区,丸の内３丁目１番１号東京共同会計事務所内,,13,101,1000005,,,2023-02-16,清算の結了等,,,2020-07-30,1,,,,,ニッコウプラスサーティーンキュー,0
1709,8010401001159,登記記録の閉鎖等,0,2023-02-22,2023-02-10,アキ不動産株式会社,,株式会社,東京都,港区,北青山３丁目３番７号,,13,103,1070061,,,2023-02-10,清算の結了等,,,2015-10-05,1,,,,,アキフドウサン,0
1742,8011001100078,登記記録の閉鎖等,0,2023-02-22,2023-02-17,西麻布ダイニング株式会社,,株式会社,東京都,渋谷区,広尾５丁目１７番１０号,,13,113,1500012,,,2023-02-17,清算の結了等,,,2015-10-05,1,,,,,ニシアザブダイニング,0
1750,8011005008383,登記記録の閉鎖等,0,2023-02-22,2023-02-20,一般社団法人奇跡のＢクラブ,,その他の設立登記法人,東京都,目黒区,自由が丘１丁目１４番２－４０６号,,13,110,1520035,,,2023-02-20,清算の結了等,,,2019-12-02,1,,,,,キセキノビークラブ,0
1752,8011101053795,登記記録の閉鎖等,0,2023-02-22,2023-02-17,山一産業株式会社,,株式会社,東京都,国立市,西２丁目３０番地の１９ウエリス国立１０５,,13,215,1860005,,,2023-02-17,清算の結了等,,,2015-10-05,1,,,,,ヤマイチサンギョウ,0
1753,8011101061716,登記記録の閉鎖等,0,2023-02-22,2023-02-20,株式会社ソリトンラボ,,株式会社,東京都,新宿区,西新宿６丁目１２番１号６階,,13,104,1600023,,,2023-02-20,合併による解散等,3011101050888,令和５年１月３１日東京都新宿区西新宿六丁目１２番１号６階株式会社ｆｏｓｂｕｒｙ（3011101050888）に合併し解散,2015-10-05,1,,,,,ソリトンラボ,0
1779,8020001056833,登記記録の閉鎖等,0,2023-02-22,2023-02-20,株式会社バンキングシステムズ横浜,,株式会社,神奈川県,横浜市中区,本牧元町５０－５２番７０２号,,14,104,2310822,,,2023-02-20,清算の結了等,,,2015-10-05,1,,,,,,0
1783,8020002031430,登記記録の閉鎖等,0,2023-02-22,2023-02-20,有限会社細井電機商会,,有限会社,神奈川県,横浜市南区,宮元町３丁目５０番地,,14,105,2320016,,,2023-02-20,清算の結了等,,,2015-10-05,1,,,,,,0
1801,8030002003536,登記記録の閉鎖等,0,2023-02-22,2023-02-17,有限会社上町薬局,,有限会社,埼玉県,さいたま市中央区,大戸１丁目２番１１号Ａ２０１,,11,105,3380012,,,2023-02-17,清算の結了等,,,2015-10-05,1,,,,,カミチョウヤッキョク,0
1810,8060002006726,登記記録の閉鎖等,0,2023-02-22,2023-02-14,トレンドケミカル有限会社,,有限会社,栃木県,宇都宮市,簗瀬４丁目１６番１６号,,09,201,3210934,,,2023-02-14,清算の結了等,,,2015-10-05,1,,,,,トレンドケミカル,0
1866,8180302004112,登記記録の閉鎖等,0,2023-02-22,2023-02-16,有限会社ダイワワークス,,有限会社,愛知県,岡崎市,百々西町３番地２,,23,202,4442117,,,2023-02-16,清算の結了等,,,2015-10-05,1,,,,,ダイワワークス,0
1870,8200001009327,登記記録の閉鎖等,0,2023-02-22,2023-02-20,株式会社アンダースタンド,,株式会社,岐阜県,岐阜市,岩崎２丁目１６番１６号,,21,201,5020005,,,2023-02-20,清算の結了等,,,2015-10-05,1,,,,,アンダースタンド,0
1875,8230002002245,登記記録の閉鎖等,0,2023-02-22,2023-02-21,有限会社テクニカルエアコン,,有限会社,富山県,富山市,町村１丁目２５２番地１,,16,201,9300952,,,2023-02-21,清算の結了等,,,2015-10-05,1,,,,,テクニカルエアコン,0
1880,8240005013081,登記記録の閉鎖等,0,2023-02-22,2023-02-17,一般社団法人Ｓ・Ｎ・Ｐ,,その他の設立登記法人,広島県,豊田郡大崎上島町,大串字西崎３１３７番地５,,34,431,7250303,,,2023-02-17,清算の結了等,,,2015-10-05,1,,,,,エスエヌピー,0
1909,8370601000619,登記記録の閉鎖等,0,2023-02-22,2023-02-15,株式会社東邦仙台ガスセンター,,株式会社,宮城県,多賀城市,栄２丁目４番１号,,04,209,9850833,,,2023-02-15,清算の結了等,,,2015-10-05,1,,,,,トウホウセンダイガスセンター,0
1949,9010002022058,登記記録の閉鎖等,0,2023-02-22,2023-02-17,ダイヤメモリアル有限会社,,有限会社,東京都,千代田区,丸の内１丁目５番１号,,13,101,1000005,,,2023-02-17,清算の結了等,,,2015-10-05,1,,,,,ダイヤメモリアル,0
1951,9010003033319,登記記録の閉鎖等,0,2023-02-22,2023-02-16,日光Ｐｌｕｓ１４合同会社１３,,合同会社,東京都,千代田区,丸の内３丁目１番１号東京共同会計事務所内,,13,101,1000005,,,2023-02-16,清算の結了等,,,2020-10-19,1,,,,,ニッコウプラスフォーティーンイチサン,0
1957,9010401035627,登記記録の閉鎖等,0,2023-02-22,2023-02-10,ビスタック株式会社,,株式会社,東京都,港区,浜松町２丁目６番８号伸和ビル２Ｆ,,13,103,1050013,,,2023-02-10,清算の結了等,,,2015-10-05,1,,,,,ビスタック,0
1966,9010403023209,登記記録の閉鎖等,0,2023-02-22,2023-02-10,ＳＯＣＡＳＨ　ＳＯＦＴＷＡＲＥ　ＪＡＰＡＮ合同会社,,合同会社,東京都,港区,六本木４丁目８番７号六本木嶋田ビル５階,,13,103,1060032,,,2023-02-10,清算の結了等,,,2020-07-03,1,,,,,ソーキャッシュソフトウェアジャパン,0
1975,9010502022210,登記記録の閉鎖等,0,2023-02-22,2023-02-21,有限会社マツエ,,有限会社,東京都,品川区,西五反田２丁目６番３号東洋ビル２階,,13,109,1410031,,,2023-02-21,清算の結了等,,,2015-10-05,1,,,,,,0
1997,9011001046304,登記記録の閉鎖等,0,2023-02-22,2023-02-17,株式会社ミューズ・プランニング,,株式会社,東京都,渋谷区,西原１丁目２９番５号,,13,113,1510066,,,2023-02-17,清算の結了等,,,2015-10-05,1,,,,,ミューズプランニング,0
2031,9021001025389,登記記録の閉鎖等,0,2023-02-22,2023-02-20,信和建設株式会社,,株式会社,神奈川県,大和市,深見５００番地の７,,14,213,2420011,,,2023-02-20,清算の結了等,,,2015-10-05,1,,,,,シンワケンセツ,0
2042,9030002080871,登記記録の閉鎖等,0,2023-02-22,2023-02-17,有限会社富士薬局,,有限会社,埼玉県,本庄市,駅南２丁目３番９号,,11,211,3670041,,,2023-02-17,清算の結了等,,,2015-10-05,1,,,,,フジヤッキョク,0
2049,9040001125809,登記記録の閉鎖等,0,2023-02-22,2023-02-08,株式会社ＨＡＰＰＹ　ＲＡＩＮ,,株式会社,千葉県,船橋市,緑台２丁目９－２－５０２,,12,204,2740818,,,2023-02-08,清算の結了等,,,2022-11-09,1,,,,,ハッピーレイン,0
2076,9120001221921,登記記録の閉鎖等,0,2023-02-22,2023-02-21,株式会社ＭＡＺＥＲＵ,,株式会社,大阪府,大阪市西区,京町堀１丁目３－３,,27,106,5500003,,,2023-02-21,清算の結了等,,,2019-06-21,1,,,,,マゼル,0
2085,9120005017201,登記記録の閉鎖等,0,2023-02-22,2023-02-21,一般社団法人士業フランチャイズ支援協会,,その他の設立登記法人,大阪府,大阪市北区,大淀中１丁目１番３０号,,27,127,5310076,,,2023-02-21,清算の結了等,,,2015-10-05,1,,,,,シギョウフランチャイズシエンキョウカイ,0
2092,9130002020438,登記記録の閉鎖等,0,2023-02-22,2023-02-20,有限会社大倉鍼灸院,,有限会社,京都府,京都市右京区,西院春栄町４１番地２０,,26,108,6150005,,,2023-02-20,清算の結了等,,,2015-10-05,1,,,,,オオクラシンキュウイン,0
2105,9180001065826,登記記録の閉鎖等,0,2023-02-22,2023-02-20,株式会社シャーコーポレーション,,株式会社,愛知県,名古屋市守山区,川上町１４７番地の３,,23,113,4630091,,,2023-02-20,清算の結了等,,,2015-10-05,1,,,,,シャーコーポレーション,0
2106,9180001072392,登記記録の閉鎖等,0,2023-02-22,2023-02-20,株式会社Ｍ’ｓ,,株式会社,愛知県,名古屋市中村区,八社２丁目１６４番地,,23,105,4530863,,,2023-02-20,清算の結了等,,,2015-10-05,1,,,,,エムズ,0
2112,9180001119739,登記記録の閉鎖等,0,2023-02-22,2023-02-16,株式会社イデアブレイン,,株式会社,愛知県,名古屋市中村区,名駅３丁目３番２号,,23,105,4500002,,,2023-02-16,清算の結了等,,,2015-10-05,1,,,,,イデアブレイン,0
2117,9180005017360,登記記録の閉鎖等,0,2023-02-22,2023-02-20,一般社団法人日本伝統温浴協会,,その他の設立登記法人,愛知県,名古屋市南区,菊住２丁目５番８号,,23,112,4570012,,,2023-02-20,清算の結了等,,,2017-06-20,1,,,,,ニホンデントウオンヨクキョウカイ,0
2128,9220005008272,登記記録の閉鎖等,0,2023-02-22,2023-02-20,特定非営利活動法人木のおうちＴＳＵＢＡＴＡ,,その他の設立登記法人,石川県,河北郡津幡町,井上の荘５丁目５７番,,17,361,9290335,,,2023-02-20,清算の結了等,,,2018-03-15,1,,,,,キノオウチツバタ,0
2131,9240001008836,登記記録の閉鎖等,0,2023-02-22,2023-02-20,株式会社萬歳経営,,株式会社,広島県,広島市中区,堺町２丁目４番１１－２０２号,,34,101,7300853,,,2023-02-20,清算の結了等,,,2015-10-05,1,,,,,バンザイケイエイ,0
2158,9340001000295,登記記録の閉鎖等,0,2023-02-22,2023-02-22,朝日新聞鹿児島販売株式会社,,株式会社,鹿児島県,鹿児島市,下荒田２丁目８番２６号,,46,201,8900056,,,2023-02-22,清算の結了等,,,2015-10-05,1,,,,,アサヒシンブンカゴシマハンバイ,0
2169,9380001001075,登記記録の閉鎖等,0,2023-02-22,2023-02-16,株式会社中合友の会,,株式会社,東京都,江東区,東陽２丁目２番２０号東陽駅前ビル,,13,108,1350016,,,2023-02-16,清算の結了等,,,2015-10-05,1,,,,,ナカゴウトモノカイ,0
2171,9380002017970,登記記録の閉鎖等,0,2023-02-22,2023-02-20,有限会社すか川屋,,有限会社,福島県,白河市,中町５０番地,,07,205,9610951,,,2023-02-20,清算の結了等,,,2015-10-05,1,,,,,スカガワヤ,0
2178,9420002010649,登記記録の閉鎖等,0,2023-02-22,2023-02-16,有限会社北都グループ,,有限会社,青森県,三戸郡三戸町,大字斗内字清水田１１０番地７,,02,441,0390122,,,2023-02-16,清算の結了等,,,2015-10-05,1,,,,,ホクトグループ,0
