sequenceNumber,corporateNumber,process,correct,updateDate,changeDate,name,nameImageId,kind,prefectureName,cityName,streetNumber,addressImageId,prefectureCode,cityCode,postCode,addressOutside,addressOutsideImageId,closeDate,closeCause,successorCorporateNumber,changeCause,assignmentDate,latest,enName,enPrefectureName,enCityName,enAddressOutside,furigana,hihyoji
19,1010403016987,登記記録の閉鎖等,0,2023-02-16,2023-02-13,ミエルジャパン合同会社,,合同会社,東京都,港区,芝浦１丁目６番４１号,,13,103,1050023,,,2023-02-13,合併による解散等,8010403017624,令和５年２月１日東京都八王子市大楽寺町２番地ハイツ神戸２０３リーブルジャパン合同会社（8010403017624）に合併し解散,2017-08-03,1,,,,,,0
31,1010802002241,登記記録の閉鎖等,0,2023-02-16,2023-02-09,有限会社ソフィア,,有限会社,東京都,大田区,蒲田１丁目６番１８－５１１号,,13,111,1440052,,,2023-02-09,清算の結了等,,,2015-10-05,1,,,,,ソフィア,0
36,1011001055485,登記記録の閉鎖等,0,2023-02-16,2023-02-09,株式会社ＪＥＦＦ　ＩＮＣ．,,株式会社,東京都,千代田区,神田錦町３丁目１７番地ＨＫパークビル３階,,13,101,1010054,,,2023-02-09,清算の結了等,,,2015-10-05,1,,,,,ジェフインク,0
47,1011101080929,登記記録の閉鎖等,0,2023-02-16,2023-02-09,ｇｏｏｄ株式会社,,株式会社,東京都,千代田区,神田小川町２丁目１０,,13,101,1010052,,,2023-02-09,清算の結了等,,,2017-06-27,1,,,,,グッド,0
70,1011602006597,登記記録の閉鎖等,0,2023-02-16,2023-02-07,有限会社高橋ドレスリリー,,有限会社,東京都,練馬区,土支田４丁目１７番３号,,13,120,1790076,,,2023-02-07,清算の結了等,,,2015-10-05,1,,,,,タカハシドレスリリー,0
72,1011603001993,登記記録の閉鎖等,0,2023-02-16,2023-02-10,Ｙ＆Ｙ　ＣＯＭＰＡＮＹ合同会社,,合同会社,東京都,練馬区,高松３丁目１２番９号メゾングラチーレ１０７,,13,120,1790075,,,2023-02-10,清算の結了等,,,2017-01-16,1,,,,,ワイアンドワイカンパニー,0
80,1013301008296,登記記録の閉鎖等,0,2023-02-16,2023-02-15,東都観光ツーリスト株式会社,,株式会社,東京都,新宿区,新宿２丁目３番１５号,,13,104,1600022,,,2023-02-15,合併による解散等,9013301008297,令和５年２月１５日東京都新宿区新宿二丁目３番１５号東都観光バス株式会社（9013301008297）に合併し解散,2015-10-05,1,,,,,トウトカンコウツーリスト,0
104,1030002049817,登記記録の閉鎖等,0,2023-02-16,2023-02-13,マキクラフト有限会社,,有限会社,埼玉県,三郷市,戸ケ崎３２４２番地３１,,11,237,3410044,,,2023-02-13,清算の結了等,,,2015-10-05,1,,,,,マキクラフト,0
125,1120001039306,登記記録の閉鎖等,0,2023-02-16,2023-02-14,縄芳商事株式会社,,株式会社,大阪府,大阪市浪速区,敷津東１丁目７番１３号,,27,111,5560012,,,2023-02-14,清算の結了等,,,2015-10-05,1,,,,,ナワヨシショウジ,0
168,1190001009715,登記記録の閉鎖等,0,2023-02-16,2023-02-14,株式会社桔梗が丘心理療法センター,,株式会社,三重県,名張市,桔梗が丘４番町三街区４３番地,,24,208,5180624,,,2023-02-14,清算の結了等,,,2015-10-05,1,,,,,キキョウガオカシンリリョウホウセンター,0
171,1200001030207,登記記録の閉鎖等,0,2023-02-16,2023-02-14,株式会社ベスト飲料,,株式会社,岐阜県,恵那市,大井町２０８７番地２２１,,21,210,5097201,,,2023-02-14,清算の結了等,,,2015-10-05,1,,,,,ベストインリョウ,0
175,1210001012897,登記記録の閉鎖等,0,2023-02-16,2023-02-14,桜株式会社,,株式会社,福井県,鯖江市,日の出町１１番１４号,,18,207,9160053,,,2023-02-14,清算の結了等,,,2015-10-05,1,,,,,サクラ,0
177,1240001003571,登記記録の閉鎖等,0,2023-02-16,2023-02-15,株式会社グローコンサルタント,,株式会社,広島県,広島市中区,小町５番１号,,34,101,7300041,,,2023-02-15,清算の結了等,,,2015-10-05,1,,,,,グローコンサルタント,0
185,1290001016809,登記記録の閉鎖等,0,2023-02-16,2023-02-13,株式会社プロフェクト,,株式会社,福岡県,福岡市博多区,須崎町２番１号,,40,132,8120028,,,2023-02-13,清算の結了等,,,2015-10-05,1,,,,,プロフェクト,0
216,1370001041773,登記記録の閉鎖等,0,2023-02-16,2023-02-15,株式会社サウンドプロモート,,株式会社,宮城県,仙台市青葉区,国分町２丁目１４番１号,,04,101,9800803,,,2023-02-15,清算の結了等,,,2017-07-19,1,,,,,サウンドプロモート,0
225,1400001013728,登記記録の閉鎖等,0,2023-02-16,2023-02-10,株式会社朝日ホールディングス,,株式会社,岩手県,久慈市,田屋町第１地割１４番地１,,03,207,0280022,,,2023-02-10,合併による解散等,4400001012776,令和５年１月１日岩手県久慈市長内町第３１地割１９番地２株式会社ｓｕｃｃｅｅｄ　ＡＳＡＨＩ（4400001012776）に合併し解散,2017-06-08,1,,,,,アサヒホールディングス,0
244,2010001201206,登記記録の閉鎖等,0,2023-02-16,2023-02-07,株式会社Ｔ２ＤＧ,,株式会社,東京都,千代田区,九段南１丁目５番６号りそな九段ビル５階,,13,101,1020074,,,2023-02-07,清算の結了等,,,2019-05-28,1,,,,,ティーツーディージー,0
261,2010403016648,登記記録の閉鎖等,0,2023-02-16,2023-02-01,合同会社八つ葉春草,,合同会社,東京都,港区,南青山５丁目１７番２号５Ｆ表参道プラザ,,13,103,1070062,,,2023-02-01,合併による解散等,7010403018367,令和５年２月１日東京都港区六本木四丁目３番１１号六本木ユニハウス２２３号合同会社ひきつぼし（7010403018367）に合併し解散,2017-05-29,1,,,,,ヤツハハルクサ,0
301,2012801019257,登記記録の閉鎖等,0,2023-02-16,2023-02-13,ＪＣＳ株式会社,,株式会社,東京都,中央区,銀座８丁目１８－３加藤ビル３Ｆ,,13,102,1040061,,,2023-02-13,合併による解散等,9011101052821,令和５年２月１日東京都中央区銀座八丁目１８－３加藤ビル３Ｆ株式会社ｓｕｂＬｉｍｅ　ｄｅｓｉｇｎ（9011101052821）に合併し解散,2019-02-20,1,,,,,ジェーシーエス,0
316,2020002043324,登記記録の閉鎖等,0,2023-02-16,2023-02-15,有限会社スペースプランニング,,有限会社,神奈川県,横浜市青葉区,荏子田３丁目１６番地１９,,14,117,2250005,,,2023-02-15,清算の結了等,,,2015-10-05,1,,,,,スペースプランニング,0
327,2030001099325,登記記録の閉鎖等,0,2023-02-16,2023-02-13,株式会社マッシュアップ,,株式会社,埼玉県,さいたま市岩槻区,諏訪１丁目３－１２,,11,110,3390007,,,2023-02-13,清算の結了等,,,2015-10-05,1,,,,,マッシュアップ,0
334,2030002068163,登記記録の閉鎖等,0,2023-02-16,2023-02-14,有限会社キスゲセンター,,有限会社,埼玉県,春日部市,八丁目２７７番地１,,11,214,3440006,,,2023-02-14,清算の結了等,,,2015-10-05,1,,,,,キスゲセンター,0
343,2040003007029,登記記録の閉鎖等,0,2023-02-16,2023-02-13,グリシーヌジャパン合同会社,,合同会社,千葉県,船橋市,夏見台１丁目２番１棟２０６号,,12,204,2730866,,,2023-02-13,合併による解散等,8010403017624,令和５年２月１日東京都八王子市大楽寺町２番地ハイツ神戸２０３リーブルジャパン合同会社（8010403017624）に合併し解散,2015-10-05,1,,,,,グリシーヌジャパン,0
367,2120001208421,登記記録の閉鎖等,0,2023-02-16,2023-02-13,株式会社ＳＧＮ,,株式会社,大阪府,大阪市中央区,淡路町４丁目３－１,,27,128,5410047,,,2023-02-13,清算の結了等,,,2017-09-29,1,,,,,エスジーエヌ,0
371,2120002016006,登記記録の閉鎖等,0,2023-02-16,2023-02-13,有限会社メガネのアイコン,,有限会社,大阪府,大阪市港区,三先２丁目２０－１－１０６,,27,107,5520016,,,2023-02-13,清算の結了等,,,2015-10-05,1,,,,,メガネノアイコン,0
372,2120003016839,登記記録の閉鎖等,0,2023-02-16,2023-02-14,兎屋合同会社,,合同会社,大阪府,大阪市北区,天神橋６丁目２番２５号３Ｂ,,27,127,5300041,,,2023-02-14,清算の結了等,,,2020-01-16,1,,,,,ウサギヤ,0
389,2140002015047,登記記録の閉鎖等,0,2023-02-16,2023-02-13,有限会社同栄産業,,有限会社,兵庫県,神戸市東灘区,住吉本町１丁目９番３０号,,28,101,6580051,,,2023-02-13,清算の結了等,,,2015-10-05,1,,,,,ドウエイサンギョウ,0
448,2340001012280,登記記録の閉鎖等,0,2023-02-16,2023-02-15,株式会社東海きりしま,,株式会社,鹿児島県,霧島市,国分清水１丁目５番４０号テクノ清水１番館１Ｂ,,46,218,8994304,,,2023-02-15,清算の結了等,,,2015-10-05,1,,,,,トウカイキリシマ,0
463,2410002011084,登記記録の閉鎖等,0,2023-02-16,2023-02-13,有限会社河の流れ塾米ロマン,,有限会社,秋田県,能代市,河戸川字新屋布７７番地,,05,202,0160171,,,2023-02-13,清算の結了等,,,2015-10-05,1,,,,,カワノナガレジュクコメロマン,0
466,2440001006842,登記記録の閉鎖等,0,2023-02-16,2023-02-13,ソイル建設株式会社,,株式会社,北海道,函館市,深堀町８番１４号,,01,202,0420941,,,2023-02-13,清算の結了等,,,2015-10-05,1,,,,,ソイルケンセツ,0
489,3010001188632,登記記録の閉鎖等,0,2023-02-16,2023-02-06,日露実業株式会社,,株式会社,東京都,千代田区,内幸町２丁目２番地１,,13,101,1000011,,,2023-02-06,清算の結了等,,,2017-12-28,1,,,,,ニチロジツギョウ,0
490,3010001208729,登記記録の閉鎖等,0,2023-02-16,2023-02-09,株式会社ＬＩＦＥ　Ｘ,,株式会社,東京都,文京区,千石１丁目２４番１０号,,13,105,1120011,,,2023-02-09,清算の結了等,,,2020-04-08,1,,,,,,0
501,3010401032464,登記記録の閉鎖等,0,2023-02-16,2023-02-02,株式会社ミズホコーポレーション,,株式会社,東京都,港区,赤坂２丁目１２番２１号,,13,103,1070052,,,2023-02-02,清算の結了等,,,2015-10-05,1,,,,,ミズホコーポレーション,0
507,3010401153418,登記記録の閉鎖等,0,2023-02-16,2023-02-02,株式会社ウルマ,,株式会社,東京都,港区,西麻布２丁目２５－１５ユニマットミストラルポイント５階,,13,103,1060031,,,2023-02-02,清算の結了等,,,2020-06-22,1,,,,,ウルマ,0
509,3010403013685,登記記録の閉鎖等,0,2023-02-16,2023-02-13,クレールジャパン合同会社,,合同会社,東京都,港区,芝浦４丁目２１番１－３７１３号,,13,103,1080023,,,2023-02-13,合併による解散等,8010403017624,令和５年２月１日東京都八王子市大楽寺町２番地ハイツ神戸２０３リーブルジャパン合同会社（8010403017624）に合併し解散,2015-10-05,1,,,,,,0
516,3010701012315,登記記録の閉鎖等,0,2023-02-16,2023-02-10,昭和シェルビジネス＆ＩＴソリューションズ株式会社,,株式会社,東京都,千代田区,丸の内３丁目１番１号,,13,101,1000005,,,2023-02-10,清算の結了等,,,2015-10-05,1,,,,,ショウワシェルビジネスアンドアイティーソリューションズ,0
538,3011702013104,登記記録の閉鎖等,0,2023-02-16,2023-02-13,有限会社気らく茶屋,,有限会社,東京都,江戸川区,東葛西６丁目８番２０号,,13,123,1340084,,,2023-02-13,清算の結了等,,,2015-10-05,1,,,,,キラクヂャヤ,0
548,3013401006173,登記記録の閉鎖等,0,2023-02-16,2023-02-13,あさひプラネット株式会社,,株式会社,山梨県,北杜市,小淵沢町上笹尾３３３２－１６５１,,19,209,4080041,,,2023-02-13,清算の結了等,,,2015-10-05,1,,,,,アサヒプラネット,0
556,3020002009076,登記記録の閉鎖等,0,2023-02-16,2023-02-14,有限会社三高空調設備,,有限会社,神奈川県,横浜市金沢区,釜利谷南１丁目３番Ｇ－４０２号,,14,108,2360045,,,2023-02-14,清算の結了等,,,2015-10-05,1,,,,,サンコウクウチョウセツビ,0
575,3030002095025,登記記録の閉鎖等,0,2023-02-16,2023-02-14,有限会社ソフトウェッブ,,有限会社,埼玉県,鶴ヶ島市,南町３丁目１番２９号,,11,241,3502215,,,2023-02-14,清算の結了等,,,2015-10-05,1,,,,,ソフトウェッブ,0
576,3030005010625,登記記録の閉鎖等,0,2023-02-16,2023-02-14,特定非営利活動法人めぶきの家,,その他の設立登記法人,埼玉県,越谷市,越ヶ谷５丁目３番２５号,,11,222,3430813,,,2023-02-14,清算の結了等,,,2015-10-05,1,,,,,メブキノイエ,0
615,3120905000435,登記記録の閉鎖等,0,2023-02-16,2023-02-10,特定非営利活動法人建設副産物リサイクル促進機構,,その他の設立登記法人,大阪府,高槻市,大塚町１丁目１４番１３号,,27,207,5690034,,,2023-02-10,清算の結了等,,,2015-10-05,1,,,,,,0
653,3210001014405,登記記録の閉鎖等,0,2023-02-16,2023-02-14,中部公安警備株式会社,,株式会社,福井県,福井市,新田塚町７０１－２,,18,201,9100064,,,2023-02-14,清算の結了等,,,2015-10-05,1,,,,,チュウブコウアンケイビ,0
659,3240001037262,登記記録の閉鎖等,0,2023-02-16,2023-02-14,竹原海陸運送株式会社,,株式会社,広島県,竹原市,港町４丁目２番３０号,,34,203,7250024,,,2023-02-14,清算の結了等,,,2015-10-05,1,,,,,タケハラカイリクウンソウ,0
662,3240005013004,登記記録の閉鎖等,0,2023-02-16,2023-02-16,特定非営利活動法人障害年金ヘルプデスク,,その他の設立登記法人,広島県,広島市中区,橋本町１０番１－４０８号,,34,101,7300015,,,2023-02-16,清算の結了等,,,2015-10-05,1,,,,,ショウガイネンキンヘルプデスク,0
670,3290002006740,登記記録の閉鎖等,0,2023-02-16,2023-02-14,有限会社コンクリート・カッティング,,有限会社,福岡県,福岡市城南区,片江１丁目２番７号,,40,136,8140142,,,2023-02-14,清算の結了等,,,2015-10-05,1,,,,,コンクリートカッティング,0
683,3330001019953,登記記録の閉鎖等,0,2023-02-16,2023-02-10,株式会社Ｍ’ｓ　Ｃｏｎｓｕｌｔｉｎｇ,,株式会社,熊本県,熊本市中央区,中央街７番２号５Ｆ,,43,101,8600802,,,2023-02-10,清算の結了等,,,2015-10-05,1,,,,,エムズコンサルティング,0
684,3330001024334,登記記録の閉鎖等,0,2023-02-16,2023-02-10,株式会社アーシャ,,株式会社,熊本県,熊本市中央区,京町本丁六丁目５２－３１２号,,43,101,8600081,,,2023-02-10,清算の結了等,,,2017-08-14,1,,,,,アーシャ,0
686,3330003002263,登記記録の閉鎖等,0,2023-02-16,2023-02-15,合資会社上田建設,,合資会社,熊本県,上益城郡御船町,大字辺田見１２１５番地１,,43,441,8613206,,,2023-02-15,清算の結了等,,,2015-10-05,1,,,,,ウエダケンセツ,0
704,3430001087189,登記記録の閉鎖等,0,2023-02-16,2023-02-14,株式会社デザインワークス,,株式会社,北海道,札幌市清田区,平岡八条１丁目７番３２号,,01,110,0040878,,,2023-02-14,清算の結了等,,,2022-08-04,1,,,,,デザインワークス,0
710,3470002008545,登記記録の閉鎖等,0,2023-02-16,2023-02-16,有限会社多賀,,有限会社,香川県,高松市,多賀町１丁目１２番１６号,,37,201,7600063,,,2023-02-16,清算の結了等,,,2015-10-05,1,,,,,タガ,0
742,4010405013658,登記記録の閉鎖等,0,2023-02-16,2023-02-03,一般社団法人ジャパンエスアール,,その他の設立登記法人,東京都,港区,北青山２丁目８番３５号秩父宮ラグビー場クラブハウス内,,13,103,1070061,,,2023-02-03,清算の結了等,,,2015-10-05,1,Japan SR Association,Tokyo,"Club House, Prince Chichibu Memorial Rugby Ground, 2-8-35, Kitaaoyama, Minato ku",,ジャパンエスアール,0
783,4012403003351,登記記録の閉鎖等,0,2023-02-16,2023-02-09,ｅｋｏｌｕ合同会社,,合同会社,東京都,三鷹市,下連雀３丁目３５番１－６階,,13,204,1810013,,,2023-02-09,清算の結了等,,,2018-02-08,1,,,,,エコル,0
785,4013301020117,登記記録の閉鎖等,0,2023-02-16,2023-02-15,大宮産業株式会社,,株式会社,東京都,新宿区,新宿２丁目３番１５号,,13,104,1600022,,,2023-02-15,合併による解散等,9013301008297,令和５年２月１５日東京都新宿区新宿二丁目３番１５号東都観光バス株式会社（9013301008297）に合併し解散,2015-10-05,1,,,,,オオミヤサンギョウ,0
788,4020001020371,登記記録の閉鎖等,0,2023-02-16,2023-02-14,株式会社三葉金型,,株式会社,神奈川県,横浜市港北区,日吉本町２丁目１８番１４号,,14,109,2230062,,,2023-02-14,清算の結了等,,,2015-10-05,1,,,,,サンヨウカナガタ,0
796,4020002003086,登記記録の閉鎖等,0,2023-02-16,2023-02-09,有限会社宝,,有限会社,神奈川県,横浜市泉区,緑園６丁目３３番地の７,,14,116,2450002,,,2023-02-09,清算の結了等,,,2015-10-05,1,,,,,タカラ,0
805,4021005010540,登記記録の閉鎖等,0,2023-02-16,2023-02-13,ＮＰＯ法人大和スポーツクラブ,,その他の設立登記法人,神奈川県,大和市,上草柳９丁目８－４,,14,213,2420029,,,2023-02-13,清算の結了等,,,2016-02-25,1,,,,,ヤマトスポーツクラブ,0
831,4080402003754,登記記録の閉鎖等,0,2023-02-16,2023-02-14,有限会社ショーエイプランニング,,有限会社,静岡県,浜松市中区,西伊場町４７番２７号,,22,131,4328038,,,2023-02-14,清算の結了等,,,2015-10-05,1,,,,,ショーエイプランニング,0
837,4110001000868,登記記録の閉鎖等,0,2023-02-16,2023-02-15,大竹鮮魚株式会社,,株式会社,新潟県,新潟市江南区,茗荷谷７１１番地,,15,104,9500114,,,2023-02-15,清算の結了等,,,2015-10-05,1,,,,,,0
866,4140002041149,登記記録の閉鎖等,0,2023-02-16,2023-02-14,有限会社新正商事,,有限会社,大阪府,東大阪市,若江東町１丁目４番１２号,,27,227,5780935,,,2023-02-14,清算の結了等,,,2015-10-05,1,,,,,シンセイショウジ,0
881,4180002083996,登記記録の閉鎖等,0,2023-02-16,2023-02-10,有限会社マンサン管理オフィス,,有限会社,愛知県,半田市,中村町１丁目４０番地,,23,205,4750873,,,2023-02-10,清算の結了等,,,2015-10-05,1,,,,,マンサンカンリオフィス,0
904,4290001011534,登記記録の閉鎖等,0,2023-02-16,2023-02-13,株式会社クラムアップ,,株式会社,福岡県,福岡市博多区,須崎町２番１号,,40,132,8120028,,,2023-02-13,清算の結了等,,,2015-10-05,1,,,,,クラムアップ,0
920,4320001005648,登記記録の閉鎖等,0,2023-02-16,2023-02-15,株式会社オフィスＡ,,株式会社,大分県,大分市,大字金谷迫１０７８番地の７,,44,201,8700879,,,2023-02-15,清算の結了等,,,2015-10-05,1,,,,,オフィスエー,0
951,5010001035857,登記記録の閉鎖等,0,2023-02-16,2023-02-10,株式会社アドインクス,,株式会社,東京都,中央区,京橋３丁目５番３号,,13,102,1040031,,,2023-02-10,清算の結了等,,,2015-10-05,1,,,,,アドインクス,0
958,5010001214130,登記記録の閉鎖等,0,2023-02-16,2023-02-09,株式会社パートナー,,株式会社,東京都,中央区,銀座５丁目１３番３号,,13,102,1040061,,,2023-02-09,合併による解散等,7013301020460,令和５年２月１日東京都中央区銀座五丁目１３番３号株式会社アイエムソリューションズ（7013301020460）に合併し解散,2020-12-09,1,,,,,パートナー,0
962,5010003030088,登記記録の閉鎖等,0,2023-02-16,2023-02-07,合同会社東京晴,,合同会社,東京都,中央区,日本橋兜町１７番１日本橋ロイヤルプラザ７０６,,13,102,1030026,,,2023-02-07,清算の結了等,,,2019-06-26,1,,,,,トウキョウハレ,0
975,5010401160560,登記記録の閉鎖等,0,2023-02-16,2023-02-03,株式会社エモーション,,株式会社,東京都,港区,南青山２丁目２番１５号,,13,103,1070062,,,2023-02-03,清算の結了等,,,2021-06-02,1,,,,,エモーション,0
1011,5011101004751,登記記録の閉鎖等,0,2023-02-16,2023-02-09,カナメ株式会社,,株式会社,東京都,新宿区,高田馬場１丁目３１番８号,,13,104,1690075,,,2023-02-09,清算の結了等,,,2015-10-05,1,,,,,カナメ,0
1024,5011701019752,登記記録の閉鎖等,0,2023-02-16,2023-02-10,株式会社門馬基礎工業,,株式会社,東京都,江戸川区,南篠崎町４丁目３番１７号,,13,123,1330065,,,2023-02-10,清算の結了等,,,2016-04-04,1,,,,,モンマキソコウギョウ,0
1036,5013402001048,登記記録の閉鎖等,0,2023-02-16,2023-02-10,有限会社戸塚薬局,,有限会社,東京都,渋谷区,代々木２丁目１番５号ＪＲ南新宿ビル１１階,,13,113,1510053,,,2023-02-10,合併による解散等,7430001069398,令和５年２月１日札幌市白石区東札幌五条二丁目４番３０号株式会社アインファーマシーズ（7430001069398）に合併し解散,2015-10-05,1,,,,,トヅカヤッキョク,0
1042,5020002015452,登記記録の閉鎖等,0,2023-02-16,2023-02-10,有限会社マルキ商事,,有限会社,神奈川県,横浜市青葉区,美しが丘１丁目２３番２号,,14,117,2250002,,,2023-02-10,合併による解散等,7430001069398,令和５年２月１日札幌市白石区東札幌五条二丁目４番３０号株式会社アインファーマシーズ（7430001069398）に合併し解散,2015-10-05,1,,,,,マルキショウジ,0
1073,5040003008916,登記記録の閉鎖等,0,2023-02-16,2023-02-13,ネージュジャパン合同会社,,合同会社,千葉県,船橋市,夏見台１丁目２番１棟２０６号,,12,204,2730866,,,2023-02-13,合併による解散等,8010403017624,令和５年２月１日東京都八王子市大楽寺町２番地ハイツ神戸２０３リーブルジャパン合同会社（8010403017624）に合併し解散,2016-08-15,1,,,,,ネージュジャパン,0
1076,5060001007083,登記記録の閉鎖等,0,2023-02-16,2023-02-14,株式会社ツバサ自動車,,株式会社,栃木県,宇都宮市,今泉２丁目３番１１号,,09,201,3210966,,,2023-02-14,清算の結了等,,,2015-10-05,1,,,,,ツバサジドウシャ,0
1088,5080401010800,登記記録の閉鎖等,0,2023-02-16,2023-02-16,山日製材株式会社,,株式会社,静岡県,浜松市天竜区,二俣町南鹿島３１番地の１,,22,137,4313312,,,2023-02-16,清算の結了等,,,2015-10-05,1,,,,,,0
1105,5120101003744,登記記録の閉鎖等,0,2023-02-16,2023-02-07,大徳鋼管株式会社,,株式会社,大阪府,堺市南区,槇塚台３丁３番２１号,,27,145,5900114,,,2023-02-07,清算の結了等,,,2015-10-05,1,,,,,ダイトクコウカン,0
1140,5190001016617,登記記録の閉鎖等,0,2023-02-16,2023-02-13,株式会社矢野化工,,株式会社,三重県,四日市市,楠町北五味塚１３４５番地の２,,24,202,5100103,,,2023-02-13,清算の結了等,,,2015-10-05,1,,,,,ヤノカコウ,0
1154,5260001004077,登記記録の閉鎖等,0,2023-02-16,2023-02-15,ダイワホーム株式会社,,株式会社,岡山県,岡山市中区,倉田３９４番地の１０,,33,102,7038265,,,2023-02-15,清算の結了等,,,2015-10-05,1,,,,,,0
1165,5290003010649,登記記録の閉鎖等,0,2023-02-16,2023-02-14,合同会社リスクマネジメント,,合同会社,福岡県,福岡市中央区,渡辺通１丁目１番２号ホテルニューオータニ博多２階,,40,133,8100004,,,2023-02-14,清算の結了等,,,2020-11-25,1,,,,,リスクマネジメント,0
1173,5380002008313,登記記録の閉鎖等,0,2023-02-16,2023-02-13,有限会社大久保エンジニアリング,,有限会社,福島県,郡山市,安積町日出山４丁目７４番地の６,,07,203,9630101,,,2023-02-13,清算の結了等,,,2015-10-05,1,,,,,オオクボエンジニアリング,0
1181,5430001068501,登記記録の閉鎖等,0,2023-02-16,2023-02-14,株式会社ＷＩＴＨ,,株式会社,北海道,札幌市東区,北二十条東１３丁目１番１６号中山ビル１階,,01,103,0650020,,,2023-02-14,清算の結了等,,,2015-10-05,1,,,,,ウィズ,0
1184,5440002009445,登記記録の閉鎖等,0,2023-02-16,2023-02-10,花ゆう介護サービス有限会社,,有限会社,北海道,茅部郡森町,字砂原１丁目１１番地の１１,,01,345,0492222,,,2023-02-10,清算の結了等,,,2015-10-05,1,,,,,ハナユウカイゴサービス,0
1215,6010501023088,登記記録の閉鎖等,0,2023-02-16,2023-02-14,株式会社ウエニ貿易ロジスティックセンター,,株式会社,東京都,台東区,池之端１丁目６番１７号,,13,106,1100008,,,2023-02-14,清算の結了等,,,2015-10-05,1,,,,,ウエニボウエキロジスティックセンター,0
1221,6010703005941,登記記録の閉鎖等,0,2023-02-16,2023-02-09,ファーストビルホールディングス合同会社,,合同会社,東京都,荒川区,町屋１丁目２８番１２号関口ビル１階,,13,118,1160001,,,2023-02-09,清算の結了等,,,2021-09-14,1,,,,,ファーストビルホールディングス,0
1225,6010903004339,登記記録の閉鎖等,0,2023-02-16,2023-02-13,合同会社スタッフマネジメント,,合同会社,東京都,世田谷区,下馬５丁目３９－１２,,13,112,1540002,,,2023-02-13,清算の結了等,,,2018-06-06,1,,,,,スタッフマネジメント,0
1229,6011001117470,登記記録の閉鎖等,0,2023-02-16,2023-02-10,Ｂｅａｕｔｙ　Ａｓｉａ株式会社,,株式会社,東京都,渋谷区,恵比寿４丁目２０番３号恵比寿ガーデンプレイスタワー１８階,,13,113,1500013,,,2023-02-10,清算の結了等,,,2017-07-24,1,,,,,ビューティーアジア,0
1247,6011503004101,登記記録の閉鎖等,0,2023-02-16,2023-02-13,ａｎｄ　ＣＢＤ合同会社,,合同会社,埼玉県,さいたま市大宮区,北袋町２丁目６番１２号,,11,103,3300835,,,2023-02-13,清算の結了等,,,2019-09-03,1,,,,,アンドシービーディー,0
1250,6011601024678,登記記録の閉鎖等,0,2023-02-16,2023-02-14,株式会社ＭＧ１,,株式会社,東京都,練馬区,東大泉６丁目３４番２８－１０３号,,13,120,1780063,,,2023-02-14,清算の結了等,,,2020-11-26,1,,,,,エムジーワン,0
1258,6012801020764,登記記録の閉鎖等,0,2023-02-16,2023-02-13,ＳＣ株式会社,,株式会社,東京都,日野市,大坂上２丁目５番地３ベルトピア日野３０６,,13,212,1910061,,,2023-02-13,清算の結了等,,,2021-04-13,1,,,,,エスシー,0
1263,6020001114064,登記記録の閉鎖等,0,2023-02-16,2023-02-14,株式会社ＥＩＫＹＯ,,株式会社,神奈川県,川崎市宮前区,犬蔵１丁目３４番１９号,,14,136,2160011,,,2023-02-14,清算の結了等,,,2015-12-21,1,,,,,エイキョウ,0
1292,6040001098495,登記記録の閉鎖等,0,2023-02-16,2023-02-13,インプレイク株式会社,,株式会社,千葉県,佐倉市,ユーカリが丘６丁目１０番１２号,,12,212,2850858,,,2023-02-13,清算の結了等,,,2017-01-18,1,,,,,インプレイク,0
1294,6040002076748,登記記録の閉鎖等,0,2023-02-16,2023-02-14,有限会社有秋システムサービス,,有限会社,千葉県,市原市,深城１１１番地,,12,219,2990123,,,2023-02-14,清算の結了等,,,2015-10-05,1,,,,,ユウシュウシステムサービス,0
1320,6120101035233,登記記録の閉鎖等,0,2023-02-16,2023-02-15,株式会社オーシャン,,株式会社,大阪府,富田林市,甲田３丁目２－３１ベルデさんさん４０２号,,27,214,5840036,,,2023-02-15,清算の結了等,,,2015-10-05,1,,,,,オーシャン,0
1331,6130002024887,登記記録の閉鎖等,0,2023-02-16,2023-02-07,有限会社日眞興産,,有限会社,京都府,長岡京市,井ノ内横ケ端１０番地の９,,26,209,6170813,,,2023-02-07,清算の結了等,,,2015-10-05,1,,,,,,0
1339,6170002011270,登記記録の閉鎖等,0,2023-02-16,2023-02-14,有限会社永田紙店,,有限会社,和歌山県,新宮市,神倉３丁目１番１９号,,30,207,6470044,,,2023-02-14,清算の結了等,,,2015-10-05,1,,,,,ナガタカミテン,0
1351,6200001001731,登記記録の閉鎖等,0,2023-02-16,2023-02-07,共和物産株式会社,,株式会社,愛知県,一宮市,北方町中島字南辻ノ内２０番地４５ナビタウン一宮マンション３０８号,00114922,23,203,4938003,,,2023-02-07,清算の結了等,,,2015-10-05,1,,,,,キョウワブッサン,0
1364,6240005003407,登記記録の閉鎖等,0,2023-02-16,2023-02-15,特定非営利活動法人一念発起,,その他の設立登記法人,広島県,広島市中区,大手町１丁目４番１号,,34,101,7300051,,,2023-02-15,清算の結了等,,,2015-10-05,1,,,,,イチネンホッキ,0
1377,6330003007425,登記記録の閉鎖等,0,2023-02-16,2023-02-10,合同会社ネクスト,,合同会社,熊本県,熊本市中央区,中央街７番２号ギンザスカイビル５Ｆ,,43,101,8600802,,,2023-02-10,清算の結了等,,,2018-03-14,1,,,,,ネクスト,0
1389,6370001046198,登記記録の閉鎖等,0,2023-02-16,2023-02-13,株式会社イマヒロ,,株式会社,宮城県,塩竈市,白菊町１０番１１号,,04,203,9850041,,,2023-02-13,清算の結了等,,,2020-10-02,1,,,,,イマヒロ,0
1408,6480002009060,登記記録の閉鎖等,0,2023-02-16,2023-02-13,有限会社川島電子,,有限会社,徳島県,吉野川市,川島町児島字呉島６１番地１,,36,205,7793305,,,2023-02-13,清算の結了等,,,2022-11-22,1,,,,,カワシマデンシ,0
1418,7010003018395,登記記録の閉鎖等,0,2023-02-16,2023-02-13,株式会社日本ウェルス総合研究所,,株式会社,東京都,港区,新橋６丁目２３番７号,,13,103,1050004,,,2023-02-13,合併による解散等,8010403017624,令和５年２月１日東京都八王子市大楽寺町２番地ハイツ神戸２０３リーブルジャパン合同会社（8010403017624）に合併し解散,2015-10-05,1,,,,,ニホンウェルスソウゴウケンキュウショ,0
1445,7010701007369,登記記録の閉鎖等,0,2023-02-16,2023-02-13,株式会社ニコンメガネ,,株式会社,東京都,港区,南青山５丁目５番４号,,13,103,1070062,,,2023-02-13,合併による解散等,7010601026618,令和５年２月１日東京都墨田区両国二丁目１０番８号株式会社ニコン・エシロール（7010601026618）に合併し解散,2015-10-05,1,,,,,ニコンメガネ,0
1460,7011003008824,登記記録の閉鎖等,0,2023-02-16,2023-02-03,原宿アソシエ合同会社,,合同会社,東京都,港区,西麻布２丁目２４番３３号,,13,103,1060031,,,2023-02-03,清算の結了等,,,2018-05-28,1,,,,,ハラジュクアソシエ,0
1475,7011602011435,登記記録の閉鎖等,0,2023-02-16,2023-02-13,有限会社マエダコミュニティ,,有限会社,東京都,練馬区,富士見台３丁目６番７号,,13,120,1770034,,,2023-02-13,清算の結了等,,,2015-10-05,1,,,,,マエダコミュニティ,0
1484,7012405002448,登記記録の閉鎖等,0,2023-02-16,2023-02-13,特定非営利活動法人日本記録映像振興会,,その他の設立登記法人,東京都,調布市,深大寺元町４丁目２６番地２２,,13,208,1820017,,,2023-02-13,清算の結了等,,,2015-10-05,1,,,,,,0
1489,7013301007061,登記記録の閉鎖等,0,2023-02-16,2023-02-13,株式会社高尾事務所,,株式会社,東京都,豊島区,雑司が谷１丁目５２番１号,,13,116,1710032,,,2023-02-13,清算の結了等,,,2015-10-05,1,,,,,タカオジムショ,0
1495,7020001078093,登記記録の閉鎖等,0,2023-02-16,2023-02-10,株式会社フレスカ,,株式会社,神奈川県,川崎市宮前区,けやき平１番７－３０２号,,14,136,2160023,,,2023-02-10,清算の結了等,,,2015-10-05,1,,,,,フレスカ,0
1502,7020002005872,登記記録の閉鎖等,0,2023-02-16,2023-02-14,有限会社北城音楽事務所,,有限会社,神奈川県,横浜市港北区,新吉田東１丁目５７番１号,,14,109,2230058,,,2023-02-14,清算の結了等,,,2015-10-05,1,,,,,,0
1511,7021002046048,登記記録の閉鎖等,0,2023-02-16,2023-02-14,有限会社エムエス工業,,有限会社,神奈川県,茅ヶ崎市,萩園２７８９番地１,,14,207,2530071,,,2023-02-14,清算の結了等,,,2015-10-05,1,,,,,エムエスコウギョウ,0
1520,7040002022362,登記記録の閉鎖等,0,2023-02-16,2023-02-13,有限会社伊勢リフォーム,,有限会社,千葉県,船橋市,南三咲３丁目３０番５棟１０２号,,12,204,2740813,,,2023-02-13,清算の結了等,,,2015-10-05,1,,,,,イセリフォーム,0
1521,7040002025266,登記記録の閉鎖等,0,2023-02-16,2023-02-13,有限会社ホワイトシステム,,有限会社,千葉県,船橋市,松が丘５丁目２６番４号,,12,204,2740064,,,2023-02-13,清算の結了等,,,2015-10-05,1,,,,,ホワイトシステム,0
1542,7110002010038,登記記録の閉鎖等,0,2023-02-16,2023-02-14,有限会社ウスダ,,有限会社,新潟県,新潟市南区,和泉１０４番地３,,15,106,9501471,,,2023-02-14,清算の結了等,,,2015-10-05,1,,,,,ウスダ,0
1574,7140001122013,登記記録の閉鎖等,0,2023-02-16,2023-02-09,株式会社バルジ,,株式会社,兵庫県,姫路市,香寺町土師１０７２番地,,28,201,6792163,,,2023-02-09,清算の結了等,,,2021-06-22,1,,,,,バルジ,0
1580,7160001000902,登記記録の閉鎖等,0,2023-02-16,2023-02-13,株式会社趣芸京滋,,株式会社,滋賀県,大津市,国分１丁目４３番３０号,,25,201,5200844,,,2023-02-13,清算の結了等,,,2015-10-05,1,,,,,シュゲイケイジ,0
1604,7290001089262,登記記録の閉鎖等,0,2023-02-16,2023-02-13,株式会社セブンシーズ,,株式会社,福岡県,福岡市早良区,原６丁目２１番１５－２０１号,,40,137,8140022,,,2023-02-13,清算の結了等,,,2020-06-24,1,,,,,セブンシーズ,0
1623,7370002016232,登記記録の閉鎖等,0,2023-02-16,2023-02-14,株式会社ハイエスト,,株式会社,宮城県,仙台市若林区,新寺１丁目７番２１号,,04,103,9840051,,,2023-02-14,清算の結了等,,,2015-10-05,1,,,,,ハイエスト,0
1625,7380002026271,登記記録の閉鎖等,0,2023-02-16,2023-02-09,有限会社みずの商事,,有限会社,福島県,いわき市,平字白銀町５番地の９,,07,204,9708026,,,2023-02-09,清算の結了等,,,2015-10-05,1,,,,,ミズノショウジ,0
1663,8010402001240,登記記録の閉鎖等,0,2023-02-16,2023-02-03,有限会社泉宏建築事務所,,有限会社,東京都,港区,北青山３丁目１４番４号,,13,103,1070061,,,2023-02-03,清算の結了等,,,2015-10-05,1,,,,,イズミヒロシケンチクジムショ,0
1676,8010902021135,登記記録の閉鎖等,0,2023-02-16,2023-02-13,株式会社モードスタジオ,,株式会社,東京都,世田谷区,松原６丁目５－２０ＨＡＮＥＧＩＴＥＲＲＡＣＥ１０２,,13,112,1560043,,,2023-02-13,清算の結了等,,,2015-10-05,1,,,,,モードスタジオ,0
1679,8011001127633,登記記録の閉鎖等,0,2023-02-16,2023-02-09,株式会社ＰＡＦＩＣ,,株式会社,東京都,渋谷区,代々木４丁目３０番５号フェニックス西参道タワー２３０４,,13,113,1510053,,,2023-02-09,清算の結了等,,,2019-04-17,1,,,,,パフィック,0
1690,8011101093271,登記記録の閉鎖等,0,2023-02-16,2023-02-14,株式会社Ｈｏｔ　ｓｔｕｆｆ,,株式会社,東京都,新宿区,新宿２丁目１１番７号第３３宮庭ビル５階,,13,104,1600022,,,2023-02-14,清算の結了等,,,2020-11-24,1,,,,,ホットスタッフ,0
1699,8011301011933,登記記録の閉鎖等,0,2023-02-16,2023-02-09,株式会社ファインソフィア,,株式会社,北海道,函館市,船見町２番２２号,,01,202,0400055,,,2023-02-09,清算の結了等,,,2015-10-05,1,,,,,ファインソフィア,0
1706,8011601007937,登記記録の閉鎖等,0,2023-02-16,2023-02-13,株式会社ジャックスツアーズインターナショナル,,株式会社,東京都,練馬区,土支田４丁目１１番８号,,13,120,1790076,,,2023-02-13,清算の結了等,,,2015-10-05,1,,,,,ジャックスツアーズインターナショナル,0
1762,8030003011455,登記記録の閉鎖等,0,2023-02-16,2023-02-13,合同会社御蔵システム開発,,合同会社,埼玉県,さいたま市見沼区,大字御蔵１１３番地１,,11,104,3370033,,,2023-02-13,清算の結了等,,,2018-02-19,1,,,,,ミクラシステムカイハツ,0
1772,8040003005745,登記記録の閉鎖等,0,2023-02-16,2023-02-13,ウイエジャパン合同会社,,合同会社,千葉県,船橋市,夏見台１丁目２番１棟２０６号,,12,204,2730866,,,2023-02-13,合併による解散等,8010403017624,令和５年２月１日東京都八王子市大楽寺町２番地ハイツ神戸２０３リーブルジャパン合同会社（8010403017624）に合併し解散,2015-10-05,1,,,,,ウイエジャパン,0
1777,8060001008112,登記記録の閉鎖等,0,2023-02-16,2023-02-13,株式会社那須ニコン,,株式会社,栃木県,那須烏山市,興野１９５６番３,,09,215,3210611,,,2023-02-13,合併による解散等,7010601026618,令和５年２月１日東京都墨田区両国二丁目１０番８号株式会社ニコン・エシロール（7010601026618）に合併し解散,2015-10-05,1,,,,,ナスニコン,0
1779,8070001019496,登記記録の閉鎖等,0,2023-02-16,2023-02-07,伸和プラ販株式会社,,株式会社,群馬県,太田市,藤阿久町６１７番地の１３,,10,205,3730034,,,2023-02-07,清算の結了等,,,2015-10-05,1,,,,,シンワプラハン,0
1781,8070002005231,登記記録の閉鎖等,0,2023-02-16,2023-02-13,有限会社ミドリヤ商事,,有限会社,群馬県,前橋市,江田町１８１番地５,,10,201,3710836,,,2023-02-13,清算の結了等,,,2015-10-05,1,,,,,ミドリヤショウジ,0
1784,8090001004760,登記記録の閉鎖等,0,2023-02-16,2023-02-13,株式会社イシガキ,,株式会社,山梨県,南アルプス市,上宮地２７１番地４,,19,208,4000312,,,2023-02-13,清算の結了等,,,2015-10-05,1,,,,,イシガキ,0
1785,8090003001491,登記記録の閉鎖等,0,2023-02-16,2023-02-09,合同会社大地のひびき,,合同会社,山梨県,北杜市,高根町浅川２７５番地１５７,,19,209,4070302,,,2023-02-09,清算の結了等,,,2019-03-07,1,,,,,ダイチノヒビキ,0
1794,8110002027295,登記記録の閉鎖等,0,2023-02-16,2023-02-13,有限会社金子板金,,有限会社,新潟県,長岡市,中島２丁目１番１４号,,15,202,9400094,,,2023-02-13,清算の結了等,,,2015-10-05,1,,,,,カネコバンキン,0
1801,8120001237836,登記記録の閉鎖等,0,2023-02-16,2023-02-14,グッドスマイリー株式会社,,株式会社,大阪府,大阪市北区,東天満２丁目１０番２３号,,27,127,5300044,,,2023-02-14,清算の結了等,,,2021-05-31,1,,,,,グッドスマイリー,0
1858,8340002010294,登記記録の閉鎖等,0,2023-02-16,2023-02-15,有限会社淀屋,,有限会社,鹿児島県,鹿児島市,名山町２番１８号,,46,201,8920821,,,2023-02-15,清算の結了等,,,2015-10-05,1,,,,,ヨドヤ,0
1863,8370001012974,登記記録の閉鎖等,0,2023-02-16,2023-02-15,株式会社アイテックサービス,,株式会社,宮城県,仙台市宮城野区,小鶴１丁目２０番７号,,04,102,9830031,,,2023-02-15,清算の結了等,,,2015-10-05,1,,,,,アイテックサービス,0
1877,8420002011879,登記記録の閉鎖等,0,2023-02-16,2023-02-14,有限会社中谷建設,,有限会社,青森県,五所川原市,金木町芦野３６５番地７０８,00087726,02,205,0370202,,,2023-02-14,清算の結了等,,,2015-10-05,1,,,,,ナカヤケンセツ,0
1879,8430001078555,登記記録の閉鎖等,0,2023-02-16,2023-02-13,株式会社建新総合研究所,,株式会社,北海道,札幌市中央区,北四条西１９丁目１番地,,01,101,0600004,,,2023-02-13,清算の結了等,,,2019-03-22,1,,,,,ケンシンソウゴウケンキュウショ,0
1882,8430002044861,登記記録の閉鎖等,0,2023-02-16,2023-02-14,ミツケンホーム有限会社,,有限会社,北海道,北広島市,大曲末広５丁目２番地１４,,01,234,0611272,,,2023-02-14,清算の結了等,,,2015-10-05,1,,,,,ミツケンホーム,0
1883,8430003003305,登記記録の閉鎖等,0,2023-02-16,2023-02-14,合同会社寿産業,,合同会社,北海道,札幌市中央区,南六条西２２丁目３番２５－５０１号,,01,101,0640806,,,2023-02-14,清算の結了等,,,2015-10-05,1,,,,,コトブキサンギョウ,0
1884,8430003013758,登記記録の閉鎖等,0,2023-02-16,2023-02-15,合同会社ｐｌｕｓＨ,,合同会社,北海道,札幌市北区,あいの里三条５丁目１番３号,,01,102,0028073,,,2023-02-15,清算の結了等,,,2022-03-30,1,,,,,プラスエイチ,0
1899,8500001010898,登記記録の閉鎖等,0,2023-02-16,2023-02-15,株式会社Ｔｏ　ｂｅ　ｃｏｍｐａｎｙ,,株式会社,愛媛県,伊予郡砥部町,高尾田６４番地,,38,402,7912101,,,2023-02-15,清算の結了等,,,2015-10-05,1,,,,,トゥービーカンパニー,0
1911,9010401026072,登記記録の閉鎖等,0,2023-02-16,2023-02-13,株式会社ブテイツク・江崎,,株式会社,東京都,港区,南青山１丁目１番１号新青山ビル,,13,103,1070062,,,2023-02-13,清算の結了等,,,2015-10-05,1,,,,,ブテイツクエザキ,0
1912,9010401084574,登記記録の閉鎖等,0,2023-02-16,2023-02-02,株式会社Ｗｉｌｌ　Ｗａｌｋ　Ｗｉｔｈ,,株式会社,東京都,港区,浜松町１丁目８番６号,,13,103,1050013,,,2023-02-02,清算の結了等,,,2015-10-05,1,,,,,ウィルウォークウィズ,0
1920,9010402013482,登記記録の閉鎖等,0,2023-02-16,2023-02-03,有限会社吉田折本所,,有限会社,東京都,港区,三田１丁目５番１０号,,13,103,1080073,,,2023-02-03,清算の結了等,,,2015-10-05,1,,,,,,0
1922,9010403016096,登記記録の閉鎖等,0,2023-02-16,2023-02-13,ソワールジャパン合同会社,,合同会社,東京都,港区,芝浦１丁目６番４１号,,13,103,1050023,,,2023-02-13,合併による解散等,8010403017624,令和５年２月１日東京都八王子市大楽寺町２番地ハイツ神戸２０３リーブルジャパン合同会社（8010403017624）に合併し解散,2017-02-13,1,,,,,,0
1923,9010403017623,登記記録の閉鎖等,0,2023-02-16,2023-02-13,エスポワール合同会社,,合同会社,東京都,港区,芝浦１丁目６番４１号,,13,103,1050023,,,2023-02-13,合併による解散等,8010403017624,令和５年２月１日東京都八王子市大楽寺町２番地ハイツ神戸２０３リーブルジャパン合同会社（8010403017624）に合併し解散,2017-11-22,1,,,,,,0
1937,9010703006045,登記記録の閉鎖等,0,2023-02-16,2023-02-09,Ｎファーマシーホールディングス合同会社,,合同会社,東京都,荒川区,町屋１丁目２８番１２号関口ビル１階,,13,118,1160001,,,2023-02-09,清算の結了等,,,2021-12-23,1,,,,,エヌファーマシーホールディングス,0
1947,9011002023772,登記記録の閉鎖等,0,2023-02-16,2023-02-13,有限会社やす子むーどでざいん,,有限会社,東京都,調布市,西つつじケ丘４丁目４８番１,,13,208,1820006,,,2023-02-13,清算の結了等,,,2015-10-05,1,,,,,ヤスコムードデザイン,0
1954,9011102012741,登記記録の閉鎖等,0,2023-02-16,2023-02-15,有限会社村田薬局,,有限会社,東京都,新宿区,市谷台町９番地,,13,104,1620066,,,2023-02-15,清算の結了等,,,2015-10-05,1,,,,,ムラタヤッキョク,0
1969,9011503005006,登記記録の閉鎖等,0,2023-02-16,2023-02-10,合同会社飯島商事,,合同会社,東京都,北区,赤羽西３丁目６－９メイツ赤羽１０２,,13,117,1150055,,,2023-02-10,清算の結了等,,,2021-12-16,1,,,,,イイジマショウジ,0
1977,9012401030112,登記記録の閉鎖等,0,2023-02-16,2023-02-14,ＤＤＷｏｒｋｓ株式会社,,株式会社,東京都,新宿区,天神町３６番地１,,13,104,1620808,,,2023-02-14,清算の結了等,,,2015-10-05,1,,,,,ディーディーワークス,0
1981,9012701014921,登記記録の閉鎖等,0,2023-02-16,2023-02-07,株式会社スタジオどんぐりの森,,株式会社,東京都,渋谷区,渋谷１丁目１０番７号グローリア宮益坂ＩＩＩ５０５号室事務所内,00126078,13,113,1500002,,,2023-02-07,清算の結了等,,,2018-07-23,1,,,,,スタジオドングリノモリ,0
1982,9012801017618,登記記録の閉鎖等,0,2023-02-16,2023-02-13,株式会社中村,,株式会社,東京都,国立市,中１丁目１８番地の３９,,13,215,1860004,,,2023-02-13,清算の結了等,,,2016-11-22,1,,,,,ナカムラ,0
1987,9020001010013,登記記録の閉鎖等,0,2023-02-16,2023-02-14,株式会社サン・ロジェ,,株式会社,神奈川県,横浜市保土ケ谷区,月見台７番２３号,,14,106,2400012,,,2023-02-14,清算の結了等,,,2015-10-05,1,,,,,サンロジェ,0
2009,9030001099153,登記記録の閉鎖等,0,2023-02-16,2023-02-13,株式会社ウィズユーホールディングス,,株式会社,埼玉県,秩父市,中町１６番３号舟木ビル２０１号,,11,207,3680043,,,2023-02-13,清算の結了等,,,2015-10-05,1,,,,,ウィズユーホールディングス,0
2013,9030001140899,登記記録の閉鎖等,0,2023-02-16,2023-02-13,株式会社湘瀛,,株式会社,埼玉県,川越市,大字的場２１６４番地２２レジェンドハイムナカノ１０３号室,,11,201,3501101,,,2023-02-13,清算の結了等,,,2021-02-24,1,,,,,ショウエイ,0
2036,9060001012526,登記記録の閉鎖等,0,2023-02-16,2023-02-09,株式会社ロコマーケット,,株式会社,栃木県,那須塩原市,塩野崎１８４番地７,,09,213,3293122,,,2023-02-09,合併による解散等,6080101012765,令和５年２月１日静岡県熱海市上多賀６８６番地株式会社ＴＴＣ（6080101012765）に合併し解散,2015-10-05,1,,,,,ロコマーケット,0
2039,9070001002971,登記記録の閉鎖等,0,2023-02-16,2023-02-13,前橋産業株式会社,,株式会社,群馬県,前橋市,総社町桜が丘１０３７番地８,,10,201,3710858,,,2023-02-13,清算の結了等,,,2015-10-05,1,,,,,マエバシサンギョウ,0
2050,9090002008743,登記記録の閉鎖等,0,2023-02-16,2023-02-13,有限会社山中,,有限会社,山梨県,笛吹市,一宮町田中７０５番地,,19,211,4050078,,,2023-02-13,清算の結了等,,,2015-10-05,1,,,,,ヤマナカ,0
2052,9110002018789,登記記録の閉鎖等,0,2023-02-16,2023-02-15,有限会社相和金属,,有限会社,新潟県,三条市,福島新田乙２０４４番地４,,15,204,9591102,,,2023-02-15,清算の結了等,,,2015-10-05,1,,,,,,0
2067,9120002079789,登記記録の閉鎖等,0,2023-02-16,2023-02-14,有限会社新進自動車,,有限会社,大阪府,門真市,四宮３丁目１０番５号,,27,223,5710017,,,2023-02-14,清算の結了等,,,2015-10-05,1,,,,,シンシンジドウシャ,0
2091,9140005023057,登記記録の閉鎖等,0,2023-02-16,2023-02-07,一般社団法人ＣＲＯＳＳ,,その他の設立登記法人,兵庫県,豊岡市,城南町９番２２号,,28,209,6680045,,,2023-02-07,清算の結了等,,,2016-07-21,1,,,,,クロス,0
2096,9170005001506,登記記録の閉鎖等,0,2023-02-16,2023-02-15,和歌山環境循環推進協同組合,,その他の設立登記法人,和歌山県,和歌山市,府中３５５番地の６,,30,201,6496338,,,2023-02-15,清算の結了等,,,2015-10-05,1,,,,,ワカヤマカンキョウジュンカンスイシン,0
2100,9180001073325,登記記録の閉鎖等,0,2023-02-16,2023-02-08,チモロ株式会社,,株式会社,愛知県,名古屋市名東区,姫若町３番地の２,,23,115,4650045,,,2023-02-08,合併による解散等,3370001025080,令和５年２月１日仙台市泉区泉中央三丁目２６番地の１株式会社フーレイ（3370001025080）に合併し解散,2015-10-05,1,,,,,チモロ,0
2105,9180002070180,登記記録の閉鎖等,0,2023-02-16,2023-02-09,有限会社洋光住建工業,,有限会社,愛知県,小牧市,中央４丁目９０番地,,23,219,4850029,,,2023-02-09,清算の結了等,,,2015-10-05,1,,,,,ヨウコウジュウケンコウギョウ,0
2115,9230001018778,登記記録の閉鎖等,0,2023-02-16,2023-02-15,株式会社Ｏｋｏｎｏｖａｔｉｏｎ,,株式会社,広島県,広島市安佐南区,祇園６丁目１４－９アセーラＢ館３０３号,,34,105,7310138,,,2023-02-15,清算の結了等,,,2021-04-14,1,,,,,オコノベーション,0
2121,9250002003133,登記記録の閉鎖等,0,2023-02-16,2023-02-13,有限会社杉本商工社,,有限会社,山口県,防府市,勝間１丁目６番１６号,,35,206,7470822,,,2023-02-13,清算の結了等,,,2015-10-05,1,,,,,スギモトショウコウシャ,0
2128,9290801015903,登記記録の閉鎖等,0,2023-02-16,2023-02-14,保険工房オリオン株式会社,,株式会社,福岡県,行橋市,神田町６番２７号,,40,213,8240007,,,2023-02-14,清算の結了等,,,2015-10-05,1,,,,,ホケンコウボウオリオン,0
2130,9320001000693,登記記録の閉鎖等,0,2023-02-16,2023-02-15,株式会社オオスギ建設,,株式会社,大分県,大分市,大字千歳４６０番地の４４,,44,201,8700132,,,2023-02-15,清算の結了等,,,2015-10-05,1,,,,,オオスギケンセツ,0
2135,9370802001365,登記記録の閉鎖等,0,2023-02-16,2023-02-14,有限会社ハルカ設計事務所,,有限会社,宮城県,亘理郡亘理町,逢隈鹿島字寺前北６７番地の１,00082211,04,361,9892371,,,2023-02-14,清算の結了等,,,2015-10-05,1,,,,,,0
