sequenceNumber,corporateNumber,process,correct,updateDate,changeDate,name,nameImageId,kind,prefectureName,cityName,streetNumber,addressImageId,prefectureCode,cityCode,postCode,addressOutside,addressOutsideImageId,closeDate,closeCause,successorCorporateNumber,changeCause,assignmentDate,latest,enName,enPrefectureName,enCityName,enAddressOutside,furigana,hihyoji
12,1010001220743,新規,0,2021-08-31,2021-08-31,Ｍｉｎｅｒｖａ　Ｇａｍｅｓ　ＪＡＰＡＮ株式会社,,株式会社,東京都,千代田区,二番町５番地２麹町駅プラザ９０１,,13,101,1020084,,,,,,,2021-08-31,1,,,,,ミネルヴァゲームスジャパン,0
13,1010001220776,新規,0,2021-08-31,2021-08-31,Ｍ＆Ｍ株式会社,,株式会社,東京都,中央区,晴海３丁目１３番１－４５１０号,,13,102,1040053,,,,,,,2021-08-31,1,,,,,エムアンドエム,0
18,1010003035727,新規,0,2021-08-31,2021-08-31,文京小石川合同会社,,合同会社,東京都,千代田区,神田小川町３丁目２６番８号神田小川町三丁目ビル６階,,13,101,1010052,,,,,,,2021-08-31,1,,,,,ブンキョウコイシカワ,0
33,1010401162420,新規,0,2021-08-31,2021-08-31,株式会社ＣｈａＣｈａＸ,,株式会社,東京都,港区,南青山２丁目２番１５号,,13,103,1070062,,,,,,,2021-08-31,1,,,,,チャチャックス,0
34,1010403026012,新規,0,2021-08-31,2021-08-31,ティエラ・グローバル合同会社,,合同会社,東京都,港区,港南４丁目２番７号,,13,103,1080075,,,,,,,2021-08-31,1,,,,,ティエラグローバル,0
35,1010403026020,新規,0,2021-08-31,2021-08-31,合同会社ワイエムワークス,,合同会社,東京都,港区,新橋１丁目８番地４号４階Ａ号,,13,103,1050004,,,,,,,2021-08-31,1,,,,,ワイエムワークス,0
36,1010403026029,新規,0,2021-08-31,2021-08-31,ジーアールイージェイホールディングス合同会社,,合同会社,東京都,港区,六本木６丁目１０番１号六本木ヒルズ森タワー,,13,103,1060032,,,,,,,2021-08-31,1,,,,,ジーアールイージェイホールディングス,0
41,1010901049349,新規,0,2021-08-31,2021-08-31,株式会社ＲＡＬＬＹ,,株式会社,東京都,世田谷区,尾山台３丁目２１番１１号フレグラント尾山台１０２,,13,112,1580086,,,,,,,2021-08-31,1,,,,,ラリー,0
46,1011003013292,新規,0,2021-08-31,2021-08-31,合同会社ＨＮステージ,,合同会社,東京都,渋谷区,本町１丁目３３番７号カスタリア初台Ⅱ４０６,00124063,13,113,1510071,,,,,,,2021-08-31,1,,,,,エイチエヌステージ,0
54,1012303001581,新規,0,2021-08-31,2021-08-31,アスナオ合同会社,,合同会社,東京都,町田市,森野１丁目３２番１４－１４１１号,,13,209,1940022,,,,,,,2021-08-31,1,,,,,アスナオ,0
57,1012403005004,新規,0,2021-08-31,2021-08-31,ＩＷＡＶＥ合同会社,,合同会社,東京都,調布市,国領町７丁目５５番地４２,,13,208,1820022,,,,,,,2021-08-31,1,,,,,アイウェーブ,0
58,1012801021049,新規,0,2021-08-31,2021-08-31,株式会社きずなの森ファーム,,株式会社,東京都,日野市,百草９７番地６,,13,212,1910033,,,,,,,2021-08-31,1,,,,,キズナノモリファーム,0
73,1020001142813,新規,0,2021-08-31,2021-08-31,株式会社平戸設備,,株式会社,神奈川県,横浜市磯子区,岡村３丁目１番５号,,14,107,2350021,,,,,,,2021-08-31,1,,,,,ヒラトセツビ,0
78,1020003020380,新規,0,2021-08-31,2021-08-31,合同会社ＩｓｌａｎｄＦｉｅｌｄ,,合同会社,神奈川県,川崎市麻生区,白鳥１丁目１番５号,,14,137,2150024,,,,,,,2021-08-31,1,,,,,アイランドフィールド,0
79,1020003020406,新規,0,2021-08-31,2021-08-31,合同会社ロングシップ,,合同会社,神奈川県,横浜市西区,北幸１丁目１１番５号相鉄ＫＳビル９階,,14,103,2200004,,,,,,,2021-08-31,1,,,,,ロングシップ,0
112,1040005021334,新規,0,2021-08-31,2021-08-31,ＮＰＯ法人ＤＡＹＳ,,その他の設立登記法人,千葉県,船橋市,印内町６６８番地１ファミール西船橋六番館８０２号,,12,204,2730025,,,,,,,2021-08-31,1,,,,,デイズ,0
114,1050001049766,新規,0,2021-08-31,2021-08-31,株式会社３６９,,株式会社,茨城県,水戸市,千波町２３６８－１１,,08,201,3100851,,,,,,,2021-08-31,1,,,,,サブロク,0
132,1100001034556,新規,0,2021-08-31,2021-08-31,株式会社貴翔,,株式会社,長野県,長野市,三輪９丁目２８番１１号,,20,201,3800803,,,,,,,2021-08-31,1,,,,,キショウ,0
147,1120101064212,新規,0,2021-08-31,2021-08-31,株式会社ｏｖｅｒ,,株式会社,大阪府,藤井寺市,野中１丁目２２９番地の１,,27,226,5830014,,,,,,,2021-08-31,1,,,,,オーバー,0
152,1130001070012,新規,0,2021-08-31,2021-08-31,株式会社Ｌｕｄｉｑｕｅ,,株式会社,京都府,宮津市,字日置４２８８番地１,,26,205,6260225,,,,,,,2021-08-31,1,,,,,ルディック,0
157,1130003007433,新規,0,2021-08-31,2021-08-31,ＫＯＫＵＡ合同会社,,合同会社,京都府,京都市西京区,松室扇田町２０番１号,,26,111,6158291,,,,,,,2021-08-31,1,,,,,コクア,0
164,1140001122860,新規,0,2021-08-31,2021-08-31,株式会社真島組,,株式会社,兵庫県,尼崎市,椎堂１丁目２４番２０－２号,,28,202,6610952,,,,,,,2021-08-31,1,,,,,マシマグミ,0
167,1140003016672,新規,0,2021-08-31,2021-08-31,合同会社来人宝,,合同会社,兵庫県,川西市,大和東３丁目２－１６,,28,217,6660111,,,,,,,2021-08-31,1,,,,,ライトホー,0
168,1140003016680,新規,0,2021-08-31,2021-08-31,合同会社くろねこケアサービス,,合同会社,兵庫県,神戸市灘区,将軍通３丁目３番１６号,,28,102,6570058,,,,,,,2021-08-31,1,,,,,クロネコケアサービス,0
170,1150003002473,新規,0,2021-08-31,2021-08-31,合同会社ＳＴＳ,,合同会社,奈良県,宇陀郡曽爾村,大字太良路６５６番地,,29,385,6331202,,,,,,,2021-08-31,1,,,,,エスティーエス,0
185,1200001039058,新規,0,2021-08-31,2021-08-31,株式会社ＮＴ,,株式会社,岐阜県,各務原市,鵜沼西町１丁目４０７番地２,,21,213,5090132,,,,,,,2021-08-31,1,,,,,エヌティー,0
186,1200001039066,新規,0,2021-08-31,2021-08-31,株式会社ＧＭＫ,,株式会社,岐阜県,岐阜市,高野町３丁目１０番地２,,21,201,5008841,,,,,,,2021-08-31,1,,,,,ジーエムケイ,0
188,1220001024396,新規,0,2021-08-31,2021-08-31,ＣＳ企画株式会社,,株式会社,石川県,金沢市,古府町南１００４番地３,,17,201,9200363,,,,,,,2021-08-31,1,,,,,シーエスキカク,0
201,1240001058509,新規,0,2021-08-31,2021-08-31,株式会社ＪＡＰＡＮ　ＩＤＥＡＬ,,株式会社,広島県,安芸郡熊野町,平谷１丁目１７番２７号,,34,307,7314229,,,,,,,2021-08-31,1,,,,,ジャパンイデアル,0
203,1240003005260,新規,0,2021-08-31,2021-08-31,合同会社ＯＮ,,合同会社,広島県,広島市安佐北区,可部南２丁目１５番６０－７０１号,,34,106,7310223,,,,,,,2021-08-31,1,,,,,オン,0
205,1250001019088,新規,0,2021-08-31,2021-08-31,株式会社サンライズ,,株式会社,山口県,山陽小野田市,大字小野田４７９９番地５,,35,216,7560817,,,,,,,2021-08-31,1,,,,,サンライズ,0
210,1260003003659,新規,0,2021-08-31,2021-08-31,合同会社牛河イノベート,,合同会社,岡山県,都窪郡早島町,若宮１３番地１,,33,423,7010302,,,,,,,2021-08-31,1,,,,,ウシカワイノベート,0
218,1290001094417,新規,0,2021-08-31,2021-08-31,株式会社Ｔｉｅ　ｉｎｄｕｓｔｒｙ,,株式会社,福岡県,那珂川市,今光６丁目６４番２号,,40,231,8111211,,,,,,,2021-08-31,1,,,,,ティインダストリー,0
221,1300001012608,新規,0,2021-08-31,2021-08-31,株式会社エール,,株式会社,佐賀県,多久市,北多久町大字小侍８７４番地,,41,204,8460002,,,,,,,2021-08-31,1,,,,,エール,0
223,1310001017440,新規,0,2021-08-31,2021-08-31,株式会社ＧＯｓｔｕｄｉｏ,,株式会社,長崎県,長崎市,鳴滝２丁目８番１０号,,42,201,8500011,,,,,,,2021-08-31,1,,,,,ゴースタジオ,0
232,1330001028948,新規,0,2021-08-31,2021-08-31,株式会社Ｆｒｅｓｈ　ＴＡＩＧＡ,,株式会社,熊本県,熊本市東区,榎町１５番３４号,,43,102,8620917,,,,,,,2021-08-31,1,,,,,フレッシュタイガ,0
239,1370001047531,新規,0,2021-08-31,2021-08-31,株式会社大樹,,株式会社,宮城県,仙台市泉区,歩坂町５９番２０－２０１号,,04,105,9813106,,,,,,,2021-08-31,1,,,,,タイキ,0
240,1370003005371,新規,0,2021-08-31,2021-08-31,古民家びと合同会社,,合同会社,宮城県,仙台市若林区,清水小路６－１－１階,,04,103,9840075,,,,,,,2021-08-31,1,,,,,,0
241,1370005010337,新規,0,2021-08-31,2021-08-31,特定非営利活動法人アクティブライフ,,その他の設立登記法人,宮城県,仙台市泉区,泉ケ丘３丁目４番７号プラージュ泉１００１号,,04,105,9813201,,,,,,,2021-08-31,1,,,,,アクティブライフ,0
254,1460103001393,新規,0,2021-08-31,2021-08-31,合同会社ピロロ企画,,合同会社,北海道,広尾郡広尾町,字野塚９８９番地,,01,642,0892561,,,,,,,2021-08-31,1,,,,,ピロロキカク,0
255,1460301005007,新規,0,2021-08-31,2021-08-31,株式会社仔牛園,,株式会社,北海道,北見市,中央三輪１丁目３６２番地８,,01,208,0900837,,,,,,,2021-08-31,1,,,,,コウシエン,0
258,1480001011468,新規,0,2021-08-31,2021-08-31,株式会社ｅｎ．,,株式会社,徳島県,徳島市,南田宮２丁目１番２４号,,36,201,7700004,,,,,,,2021-08-31,1,,,,,エン,0
260,1500001023650,新規,0,2021-08-31,2021-08-31,株式会社エコミン,,株式会社,愛媛県,松山市,柳井町１丁目２番１１号,,38,201,7900014,,,,,,,2021-08-31,1,,,,,エコミン,0
265,1700150104347,新規,0,2021-08-31,2021-08-13,入間郡市歯科医師会訪問診療相談センター,,その他,埼玉県,狭山市,狭山台３丁目１０－４,,11,215,3501304,,,,,,,2021-08-13,1,,,,,イルマグンシシカイシカイホウモンシンリヨウソウダンセンター,0
266,1700150104553,新規,0,2021-08-31,2021-08-31,鑽茂有限公司,,外国会社等,大阪府,大阪市中央区,瓦屋町１丁目７１－１－８０１,,27,128,5420066,香港特別行政区尖沙咀東科学館道９号新東海商業中心１６０７室,,,,,,2021-08-31,1,,,,,ザンモユウゲンコウジ,0
270,2010001220775,新規,0,2021-08-31,2021-08-31,株式会社東京拓信,,株式会社,東京都,千代田区,神田須田町１丁目２８－４宝神田ビル６Ｆ,,13,101,1010041,,,,,,,2021-08-31,1,,,,,トウキョウタクシン,0
271,2010001220809,新規,0,2021-08-31,2021-08-31,株式会社ジョブウェーブ,,株式会社,東京都,千代田区,麹町２丁目２－４麹町セントラルビル５階,,13,101,1020083,,,,,,,2021-08-31,1,,,,,ジョブウェーブ,0
273,2010003035692,新規,0,2021-08-31,2021-08-31,ＳＡＭプロジェクト１号合同会社,,合同会社,東京都,中央区,日本橋２丁目７番１号,,13,102,1030027,,,,,,,2021-08-31,1,,,,,エスエーエムプロジェクトイチゴウ,0
274,2010003035718,新規,0,2021-08-31,2021-08-31,合同会社メビアス,,合同会社,東京都,中央区,銀座１丁目２２番１１号銀座大竹ビジデンス２階,,13,102,1040061,,,,,,,2021-08-31,1,,,,,メビアス,0
278,2010005033868,新規,0,2021-08-31,2021-08-31,ＥＳＲ１０１一般社団法人,,その他の設立登記法人,東京都,中央区,日本橋１丁目４番１号日本橋一丁目ビルディング,,13,102,1030027,,,,,,,2021-08-31,1,,,,,イーエスアールヒャクイチ,0
285,2010401162394,新規,0,2021-08-31,2021-08-31,株式会社ＩＮＧ　ＭＡＲＫＥＴＩＮＧ　ＯＦＦＩＣＥ,,株式会社,東京都,港区,白金３丁目９－１６フレッシュ白金１Ｆ,,13,103,1080072,,,,,,,2021-08-31,1,,,,,イングマーケティングオフィス,0
287,2010403026028,新規,0,2021-08-31,2021-08-31,合同会社ジーイーオー・ジャパン,,合同会社,東京都,港区,六本木６丁目１０番１号六本木ヒルズ森タワー,,13,103,1060032,,,,,,,2021-08-31,1,,,,,ジーイーオージャパン,0
292,2010701041439,新規,0,2021-08-31,2021-08-31,福星商事株式会社,,株式会社,東京都,品川区,南大井３丁目３４－２菊地ビル２０１,,13,109,1400013,,,,,,,2021-08-31,1,,,,,フクセイショウジ,0
295,2010801032271,新規,0,2021-08-31,2021-08-31,株式会社アトリエ翔子,,株式会社,東京都,大田区,久が原３丁目３７番３号,,13,111,1460085,,,,,,,2021-08-31,1,,,,,アトリエショウコ,0
300,2010901049348,新規,0,2021-08-31,2021-08-31,Ｉ－ＭＡＤＯコーポレーション株式会社,,株式会社,東京都,世田谷区,東玉川１丁目３６番２号,,13,112,1580084,,,,,,,2021-08-31,1,,,,,イマードコーポレーション,0
301,2010903006768,新規,0,2021-08-31,2021-08-31,キャスター合同会社,,合同会社,東京都,世田谷区,玉川２丁目４番１号レフィーユ二子玉川４０３,,13,112,1580094,,,,,,,2021-08-31,1,,,,,キャスター,0
310,2011001142588,新規,0,2021-08-31,2021-08-31,株式会社ｍｅ　ａｎｄ,,株式会社,東京都,渋谷区,神宮前２丁目３３番５－４１２号,,13,113,1500001,,,,,,,2021-08-31,1,,,,,ミーアンド,0
311,2011001142613,新規,0,2021-08-31,2021-08-31,株式会社Ｎａｉ’ａ　Ｗｏｒｌｄ,,株式会社,東京都,渋谷区,松濤１丁目２８番２号,,13,113,1500046,,,,,,,2021-08-31,1,,,,,ナイアワールド,0
319,2011101096123,新規,0,2021-08-31,2021-08-31,アノテーションサポート株式会社,,株式会社,東京都,新宿区,市谷田町２丁目１７番地,,13,104,1620843,,,,,,,2021-08-31,1,,,,,アノテーションサポート,0
324,2011501027264,新規,0,2021-08-31,2021-08-31,株式会社Ｓｔａｒ　Ｃｏｎｆｉｄｅｎｃｅ,,株式会社,東京都,北区,赤羽西２丁目３０－７ｐｒｅｍｉｕｍｓａｋｕｒａ１０１,,13,117,1150055,,,,,,,2021-08-31,1,,,,,スターコンフィデンス,0
326,2011503004872,新規,0,2021-08-31,2021-08-31,合同会社ＴＭＫ,,合同会社,東京都,北区,赤羽１丁目７番９号赤羽第一葉山ビル４階,,13,117,1150045,,,,,,,2021-08-31,1,,,,,ティーエムケー,0
338,2013305003251,新規,0,2021-08-31,2021-08-31,行政書士法人山の手国際法務事務所,,その他の設立登記法人,東京都,豊島区,西池袋１丁目２９－５山の手ビル４階Ｂ－Ｃ,,13,116,1710021,,,,,,,2021-08-31,1,,,,,ヤマノテコクサイホウムジムショ,0
361,2030001143925,新規,0,2021-08-31,2021-08-31,株式会社ハイカード,,株式会社,埼玉県,川口市,西川口１丁目１０番２０－２０２号,,11,203,3320021,,,,,,,2021-08-31,1,,,,,ハイカード,0
366,2030003017854,新規,0,2021-08-31,2021-08-31,合同会社ルミエール,,合同会社,埼玉県,幸手市,南２丁目１２番４０－１１２号ライオンズマンション幸手,,11,240,3400156,,,,,,,2021-08-31,1,,,,,ルミエール,0
370,2040001119949,新規,0,2021-08-31,2021-08-31,恒宜商事株式会社,,株式会社,千葉県,富里市,大和２１１番地１６７,,12,233,2860204,,,,,,,2021-08-31,1,,,,,コギショウジ,0
372,2040003018406,新規,0,2021-08-31,2021-08-31,ＮＧＯＣ　ＨＯＡＮＧ合同会社,,合同会社,千葉県,成田市,花崎町７５０番地３４,,12,211,2860033,,,,,,,2021-08-31,1,,,,,ゴックホアン,0
382,2070001038386,新規,0,2021-08-31,2021-08-31,株式会社Ｒｉｇｈｔ,,株式会社,群馬県,伊勢崎市,田部井町３丁目１６７番地ウィンクルＤ棟３号,,10,204,3792222,,,,,,,2021-08-31,1,,,,,ライト,0
384,2080001024402,新規,0,2021-08-31,2021-08-31,Ｃｈａｎｇｅ８株式会社,,株式会社,静岡県,焼津市,越後島４７０番地,,22,212,4250092,,,,,,,2021-08-31,1,,,,,チェンジエイト,0
389,2110001035998,新規,0,2021-08-31,2021-08-31,株式会社一心ファーム,,株式会社,新潟県,燕市,又新９８１番地,,15,213,9591215,,,,,,,2021-08-31,1,,,,,イッシンファーム,0
399,2120001239937,新規,0,2021-08-31,2021-08-31,ＴＭエナジーパワー株式会社,,株式会社,大阪府,大阪市浪速区,塩草３丁目９－２３ソラーレＮ８０１,,27,111,5560024,,,,,,,2021-08-31,1,,,,,ティーエムエナジーパワー,0
400,2120001240052,新規,0,2021-08-31,2021-08-31,株式会社フジモト,,株式会社,大阪府,大阪市都島区,東野田町４丁目８番１２号,,27,102,5340024,,,,,,,2021-08-31,1,,,,,フジモト,0
401,2120001240060,新規,0,2021-08-31,2021-08-31,株式会社ザイル,,株式会社,大阪府,大阪市福島区,大開１丁目１３番２号西野ハイツ１０１号,,27,103,5530007,,,,,,,2021-08-31,1,,,,,ザイル,0
424,2150003002472,新規,0,2021-08-31,2021-08-31,ベルエキップ合同会社,,合同会社,奈良県,北葛城郡王寺町,本町２丁目２２番９号,,29,425,6360012,,,,,,,2021-08-31,1,,,,,ベルエキップ,0
425,2160001023577,新規,0,2021-08-31,2021-08-31,マハロ株式会社,,株式会社,滋賀県,草津市,西渋川２丁目８番３６－９号,,25,206,5250025,,,,,,,2021-08-31,1,,,,,マハロ,0
435,2180301035295,新規,0,2021-08-31,2021-08-31,株式会社Ｌｏｎｄ,,株式会社,愛知県,みよし市,福田町杓子８８番地６,,23,236,4700225,,,,,,,2021-08-31,1,,,,,ロンド,0
454,2250001019087,新規,0,2021-08-31,2021-08-31,株式会社友翔,,株式会社,山口県,山口市,七尾台１４番１２号,,35,203,7530018,,,,,,,2021-08-31,1,,,,,ユウショウ,0
467,2290001094283,新規,0,2021-08-31,2021-08-31,株式会社ｍｏｒｅＨＥＡＲＴＳ,,株式会社,福岡県,福岡市中央区,大手門２丁目４－８ポルトデュボヌール４０１号,,40,133,8100074,,,,,,,2021-08-31,1,,,,,モアハーツ,0
473,2290801027748,新規,0,2021-08-31,2021-08-31,株式会社ライム,,株式会社,福岡県,北九州市小倉北区,原町２丁目２－１４,,40,106,8030815,,,,,,,2021-08-31,1,,,,,ライム,0
475,2300001012607,新規,0,2021-08-31,2021-08-31,来福株式会社,,株式会社,佐賀県,鳥栖市,蔵上３丁目１２３番地ドリームサンＢ１０１,,41,203,8410056,,,,,,,2021-08-31,1,,,,,ライフク,0
490,2370001047530,新規,0,2021-08-31,2021-08-31,株式会社ロークス,,株式会社,宮城県,石巻市,新橋９番１２号,,04,202,9860878,,,,,,,2021-08-31,1,,,,,ロークス,0
491,2370001047539,新規,0,2021-08-31,2021-08-31,株式会社クレセール,,株式会社,宮城県,仙台市太白区,西多賀５丁目１５番２３号,,04,104,9820034,,,,,,,2021-08-31,1,,,,,クレセール,0
492,2370003005370,新規,0,2021-08-31,2021-08-31,合同会社保育会計,,合同会社,宮城県,仙台市青葉区,本町１丁目５番２８号カーニープレイス仙台駅前通６０３号室,,04,101,9800014,,,,,,,2021-08-31,1,,,,,ホイクカイケイ,0
505,2480001011467,新規,0,2021-08-31,2021-08-31,株式会社ｃｏｃｏｃｈｉｉｉ,,株式会社,徳島県,徳島市,川内町竹須賀９９番地の１,,36,201,7710141,,,,,,,2021-08-31,1,,,,,ココチイイ,0
506,2490001009972,新規,0,2021-08-31,2021-08-31,株式会社タイチ,,株式会社,高知県,高知市,薊野西町３丁目１－１５－１０１,,39,201,7810015,,,,,,,2021-08-31,1,,,,,タイチ,0
508,2490003001580,新規,0,2021-08-31,2021-08-31,合同会社地球３３番地,,合同会社,高知県,高知市,南金田１８－１０,,39,201,7810074,,,,,,,2021-08-31,1,,,,,チキュウサンジュウサンバンチ,0
510,2700150104544,新規,0,2021-08-31,2021-08-31,ＢＡＬＳ　ＩＮＴＥＲＮＡＴＩＯＮＡＬ　ＬＩＭＩＴＥＤ,,外国会社等,東京都,港区,南青山５丁目１７番１２号リオン南青山４０１号,,13,103,1070062,中華人民共和国香港特別行政区カオルーン、クォン・トン、ホウ・ミン・ストリート１００、ランドマーク・イースト、ＡＩＡカオルーン・タワー３２階３２０１号室,,,,,,2021-08-31,1,,,,,バルスインターナシヨナルリミテツド,0
516,3010001220799,新規,0,2021-08-31,2021-08-31,２ａｂａｙ株式会社,,株式会社,東京都,中央区,銀座１丁目２２番１１号銀座大竹ビジデンス２階,,13,102,1040061,,,,,,,2021-08-31,1,,,,,ツーアベイ,0
517,3010001220808,新規,0,2021-08-31,2021-08-31,ＬＵＴＨＥＲ２株式会社,,株式会社,東京都,千代田区,丸の内２丁目３番２号郵船ビルディング１階,,13,101,1000005,,,,,,,2021-08-31,1,,,,,ルーサーズ,0
526,3010401162402,新規,0,2021-08-31,2021-08-31,株式会社リベルテ,,株式会社,東京都,港区,六本木７丁目２番２－２０１号,,13,103,1060032,,,,,,,2021-08-31,1,,,,,リベルテ,0
530,3010403026010,新規,0,2021-08-31,2021-08-31,合同会社ｓｏｌｄ　ｏｕｔ,,合同会社,東京都,港区,高輪１丁目２４－２－３０２,,13,103,1080074,,,,,,,2021-08-31,1,,,,,ソールドアウト,0
531,3010403026035,新規,0,2021-08-31,2021-08-31,リガルクスカーゴ合同会社,,合同会社,東京都,港区,南青山２丁目２番１５号ウィン青山３０９,,13,103,1070062,,,,,,,2021-08-31,1,,,,,リガルクスカーゴ,0
538,3010405020168,新規,0,2021-08-31,2021-08-31,一般社団法人エスエフワン,,その他の設立登記法人,東京都,港区,虎ノ門３丁目２２番１０－２０１号,,13,103,1050001,,,,,,,2021-08-31,1,,,,,エスエフワン,0
547,3010601059852,新規,0,2021-08-31,2021-08-31,株式会社ハタヤ,,株式会社,東京都,墨田区,横網１丁目１１番４号,,13,107,1300015,,,,,,,2021-08-31,1,,,,,ハタヤ,0
549,3010603009129,新規,0,2021-08-31,2021-08-31,ＭＹＳＴ合同会社,,合同会社,東京都,江東区,木場３丁目１５番４号,,13,108,1350042,,,,,,,2021-08-31,1,,,,,ミスト,0
555,3010901049347,新規,0,2021-08-31,2021-08-31,株式会社ＧＡＭＵＳＥ,,株式会社,東京都,世田谷区,用賀２丁目３１番６号イイダアネックスＸ１０６,,13,112,1580097,,,,,,,2021-08-31,1,,,,,ガミューズ,0
556,3010903006759,新規,0,2021-08-31,2021-08-31,合同会社アール,,合同会社,東京都,世田谷区,北烏山４丁目３８－６立志舘２０１号,,13,112,1570061,,,,,,,2021-08-31,1,,,,,アール,0
557,3010903006767,新規,0,2021-08-31,2021-08-31,合同会社ユウビ,,合同会社,東京都,世田谷区,砧８丁目２３－１１ホワイトオーク成城１０５,,13,112,1570073,,,,,,,2021-08-31,1,,,,,ユウビ,0
571,3011001142587,新規,0,2021-08-31,2021-08-31,株式会社ｔｕｎａ　ｇｏｏｄ,,株式会社,東京都,渋谷区,神宮前２丁目３３番５－４１２号,,13,113,1500001,,,,,,,2021-08-31,1,,,,,ツナグッド,0
576,3011103010964,新規,0,2021-08-31,2021-08-31,４ＣＡＰＩＴＡＬ　ＭＡＮＡＧＥＭＥＮＴ合同会社,,合同会社,東京都,新宿区,歌舞伎町１丁目１番１５－８０３号,,13,104,1600021,,,,,,,2021-08-31,1,,,,,フォーキャピタルマネジメント,0
579,3011305002768,新規,0,2021-08-31,2021-08-31,一般社団法人健康長寿ミエルカ,,その他の設立登記法人,東京都,杉並区,和泉４丁目１０番１１号ＧｒａｎＢａｓｅ２０６号室,,13,115,1680063,,,,,,,2021-08-31,1,,,,,ケンコウチョウジュミエルカ,0
583,3011501027263,新規,0,2021-08-31,2021-08-31,株式会社ＡＲＣＨ,,株式会社,東京都,荒川区,南千住４丁目９番７,,13,118,1160003,,,,,,,2021-08-31,1,,,,,アーチ,0
588,3011701024655,新規,0,2021-08-31,2021-08-31,株式会社ＭＡＳＡＫＡＤＯ,,株式会社,東京都,江戸川区,篠崎町５丁目６番２号,,13,123,1330061,,,,,,,2021-08-31,1,,,,,マサカード,0
589,3011701024671,新規,0,2021-08-31,2021-08-31,株式会社花月運送,,株式会社,東京都,江戸川区,春江町２丁目４９番１２号アムニスクエア４０１,,13,123,1320003,,,,,,,2021-08-31,1,,,,,カツキウンソウ,0
592,3012301012678,新規,0,2021-08-31,2021-08-31,株式会社アリアピアノ,,株式会社,東京都,町田市,三輪緑山３丁目１２番２０号,,13,209,1950055,,,,,,,2021-08-31,1,,,,,アリアピアノ,0
600,3013301047929,新規,0,2021-08-31,2021-08-31,株式会社ゴセント,,株式会社,東京都,豊島区,池袋２丁目１６番１４号ＫＤビル４０２,,13,116,1710014,,,,,,,2021-08-31,1,,,,,ゴセント,0
604,3013303005810,新規,0,2021-08-31,2021-08-31,合同会社フォーチュン,,合同会社,東京都,豊島区,巣鴨２丁目１番１号第一福島ビル４Ｆ,,13,116,1700002,,,,,,,2021-08-31,1,,,,,フォーチュン,0
608,3020003020404,新規,0,2021-08-31,2021-08-31,Ｃａｓａ　Ｂｌａｎｃａ合同会社,,合同会社,神奈川県,横浜市青葉区,藤が丘１丁目８番地５ブラッサムコーポ藤が丘４０６,,14,117,2270043,,,,,,,2021-08-31,1,,,,,カサブランカ,0
615,3030003017861,新規,0,2021-08-31,2021-08-31,Ｍｅｇｕ－Ｒａｉｎ合同会社,,合同会社,埼玉県,坂戸市,清水町５番８－４０３号コンドミニアムカネマタ,,11,239,3500222,,,,,,,2021-08-31,1,,,,,メグレイン,0
624,3040001119948,新規,0,2021-08-31,2021-08-31,株式会社タニデンキ,,株式会社,千葉県,袖ケ浦市,のぞみ野４７番地１,,12,229,2990251,,,,,,,2021-08-31,1,,,,,タニデンキ,0
630,3050005012925,新規,0,2021-08-31,2021-08-31,一般社団法人夢・日立中里,,その他の設立登記法人,茨城県,日立市,下深荻町１９２５番地,,08,202,3110404,,,,,,,2021-08-31,1,,,,,ユメヒタチナカサト,0
645,3080101022734,新規,0,2021-08-31,2021-08-31,株式会社逢心メンテナンス,,株式会社,静岡県,伊豆の国市,長崎２４９番地の１,,22,225,4102131,,,,,,,2021-08-31,1,,,,,オウシンメンテナンス,0
660,3120001239993,新規,0,2021-08-31,2021-08-31,株式会社ムマ,,株式会社,大阪府,大阪市淀川区,西中島７丁目１番３号,,27,123,5320011,,,,,,,2021-08-31,1,,,,,ムマ,0
661,3120001240019,新規,0,2021-08-31,2021-08-31,ＧＩＧＡＮＴ株式会社,,株式会社,大阪府,大阪市浪速区,日本橋西１丁目８番６－２０１号,,27,111,5560004,,,,,,,2021-08-31,1,,,,,ギガント,0
662,3120001240051,新規,0,2021-08-31,2021-08-31,株式会社ＡＺＥＬＩ,,株式会社,大阪府,大阪市北区,東天満２丁目３番７－１００３号,,27,127,5300044,,,,,,,2021-08-31,1,,,,,アゼリ,0
668,3120101064219,新規,0,2021-08-31,2021-08-31,株式会社牛澤鉄筋工業,,株式会社,大阪府,堺市南区,小代５１６番地,,27,145,5900151,,,,,,,2021-08-31,1,,,,,ウシザワテッキンコウギョウ,0
670,3120103004321,新規,0,2021-08-31,2021-08-31,合同会社ＧＴＧ,,合同会社,大阪府,堺市堺区,東永山園２番２９号,,27,141,5900034,,,,,,,2021-08-31,1,,,,,ジーティージー,0
672,3120901044824,新規,0,2021-08-31,2021-08-31,株式会社ＢｒｚＡ,,株式会社,大阪府,吹田市,千里山西５丁目３３番２号シャレ－アルビオン１階５号,,27,205,5650851,,,,,,,2021-08-31,1,,,,,バーズエー,0
691,3140001122850,新規,0,2021-08-31,2021-08-31,株式会社ｋｅｅｐ　ｔｈｅ　ｆａｉｔｈ,,株式会社,兵庫県,川西市,多田桜木２丁目３番２８号,,28,217,6660124,,,,,,,2021-08-31,1,,,,,キープザフェイス,0
692,3140001122859,新規,0,2021-08-31,2021-08-31,株式会社ブリエ,,株式会社,兵庫県,神戸市中央区,生田町３丁目１番８－８０１号,,28,110,6510092,,,,,,,2021-08-31,1,,,,,ブリエ,0
694,3140003016679,新規,0,2021-08-31,2021-08-31,合同会社オフィスアオヤマ,,合同会社,兵庫県,神戸市灘区,備後町５丁目３番１－６０１号,,28,102,6570037,,,,,,,2021-08-31,1,,,,,オフィスアオヤマ,0
715,3240001058507,新規,0,2021-08-31,2021-08-31,和光建設株式会社,,株式会社,広島県,福山市,曙町３丁目２５－２３－２－Ａ１０３,,34,207,7210952,,,,,,,2021-08-31,1,,,,,ワコウケンセツ,0
721,3250001019086,新規,0,2021-08-31,2021-08-31,株式会社ＬＴＰ,,株式会社,山口県,山口市,小郡下郷１２２３番地１（オーヴィジョン新山口駅グレイス３０５号）,,35,203,7540002,,,,,,,2021-08-31,1,,,,,エルティーピー,0
723,3260001035909,新規,0,2021-08-31,2021-08-31,株式会社保田設備,,株式会社,岡山県,岡山市北区,西崎１丁目１７番１６号,,33,101,7000055,,,,,,,2021-08-31,1,,,,,ヤスダセツビ,0
728,3290001094398,新規,0,2021-08-31,2021-08-31,株式会社エスケーライフ,,株式会社,福岡県,筑紫野市,二日市中央２丁目５番８号,,40,217,8180072,,,,,,,2021-08-31,1,,,,,エスケーライフ,0
729,3290001094415,新規,0,2021-08-31,2021-08-31,株式会社アシスト,,株式会社,福岡県,那珂川市,今光４丁目４６番地,,40,231,8111211,,,,,,,2021-08-31,1,,,,,アシスト,0
733,3290801027739,新規,0,2021-08-31,2021-08-31,株式会社ヤマサキ,,株式会社,福岡県,中間市,大字下大隈１７６４番地４ドルチェフィア１０１号,,40,215,8090004,,,,,,,2021-08-31,1,,,,,,0
734,3290801027747,新規,0,2021-08-31,2021-08-31,株式会社ＳＣＳ,,株式会社,福岡県,北九州市門司区,旧門司１丁目１１番２８号,,40,101,8010854,,,,,,,2021-08-31,1,,,,,エスシーエス,0
747,3360003011385,新規,0,2021-08-31,2021-08-31,合同会社Ｌｉｎｋ　Ｕｐ,,合同会社,沖縄県,沖縄市,知花６丁目３７番１号,,47,211,9042143,,,,,,,2021-08-31,1,,,,,リンクアップ,0
748,3360005006490,新規,0,2021-08-31,2021-08-31,一般社団法人沖縄オーガニック給食推進協会,,その他の設立登記法人,沖縄県,糸満市,字与座９０番地,,47,210,9010322,,,,,,,2021-08-31,1,,,,,オキナワオーガニックキュウショクスイシンキョウカイ,0
754,3380005012470,新規,0,2021-08-31,2021-08-31,西会津マルクト企業組合,,その他の設立登記法人,福島県,耶麻郡西会津町,新郷大字三河字戸中４７４７番地,,07,405,9694624,,,,,,,2021-08-31,1,,,,,ニシアイヅマルクト,0
770,3500001023649,新規,0,2021-08-31,2021-08-31,株式会社ＴＹＡ,,株式会社,愛媛県,宇和島市,吉田町鶴間５４２番地１４,,38,203,7993761,,,,,,,2021-08-31,1,,,,,ティーワイエー,0
779,4010001220674,新規,0,2021-08-31,2021-08-31,株式会社Ｗａｖｙ,,株式会社,東京都,中央区,銀座１丁目３－３Ｇ１ビル７階,,13,102,1040061,,,,,,,2021-08-31,1,,,,,ウェビー,0
780,4010001220765,新規,0,2021-08-31,2021-08-31,おむすび工務店株式会社,,株式会社,東京都,中央区,銀座２丁目１６番２号,,13,102,1040061,,,,,,,2021-08-31,1,,,,,オムスビコウムテン,0
781,4010001220807,新規,0,2021-08-31,2021-08-31,株式会社ＴＨＣ　ＧＲＯＵＰ,,株式会社,東京都,千代田区,大手町１丁目６番１号,,13,101,1000004,,,,,,,2021-08-31,1,,,,,ティーエイチシーグループ,0
795,4010401162392,新規,0,2021-08-31,2021-08-31,アットキャップ・コンサルティング株式会社,,株式会社,東京都,港区,赤坂４丁目８番１９号赤坂フロントタウン３階,,13,103,1070052,,,,,,,2021-08-31,1,,,,,アットキャップコンサルティング,0
796,4010401162418,新規,0,2021-08-31,2021-08-31,株式会社グラヴィティマネジメント,,株式会社,東京都,港区,港南４丁目６番１－３３０１号,,13,103,1080075,,,,,,,2021-08-31,1,,,,,,0
798,4010403026018,新規,0,2021-08-31,2021-08-31,合同会社アールアセットマネージメント,,合同会社,東京都,港区,六本木７丁目７番７号トライセブン六本木８階,,13,103,1060032,,,,,,,2021-08-31,1,,,,,アールアセットマネージメント,0
800,4010603009128,新規,0,2021-08-31,2021-08-31,合同会社石井経済研究所,,合同会社,東京都,墨田区,菊川３丁目１４番６号菊川ロイヤルマンション１０３,,13,107,1300024,,,,,,,2021-08-31,1,,,,,イシイケイザイケンキュウジョ,0
804,4010803003871,新規,0,2021-08-31,2021-08-31,東京貿易合同会社,,合同会社,東京都,大田区,石川町１丁目１０番８号,,13,111,1450061,,,,,,,2021-08-31,1,,,,,トウキョウボウエキ,0
812,4011003013298,新規,0,2021-08-31,2021-08-31,合同会社トーシン,,合同会社,東京都,渋谷区,富ヶ谷１丁目１４番１４号４階,,13,113,1510063,,,,,,,2021-08-31,1,,,,,トーシン,0
815,4011401023634,新規,0,2021-08-31,2021-08-31,株式会社ごきっちょー,,株式会社,東京都,板橋区,向原２丁目２３番８号ベルアネックス２１２号室,,13,119,1730036,,,,,,,2021-08-31,1,,,,,ゴキッチョー,0
818,4011501027262,新規,0,2021-08-31,2021-08-31,加楽谷株式会社,,株式会社,東京都,北区,赤羽２丁目６９番２号,,13,117,1150045,,,,,,,2021-08-31,1,,,,,ガラク,0
821,4011601025356,新規,0,2021-08-31,2021-08-31,株式会社まきのホールディングス,,株式会社,東京都,練馬区,上石神井４丁目９番２４号,,13,120,1770044,,,,,,,2021-08-31,1,,,,,マキノホールディングス,0
822,4011605002392,新規,0,2021-08-31,2021-08-31,特定非営利活動法人フェアネス・ラボ,,その他の設立登記法人,東京都,練馬区,下石神井１丁目２番３号エテルナ・ルミエーラ５０７号,,13,120,1770042,,,,,,,2021-08-31,1,,,,,フェアネスラボ,0
824,4011703002930,新規,0,2021-08-31,2021-08-31,全国町屋不動産管理合同会社,,合同会社,東京都,江戸川区,松江７丁目３２番４号,,13,123,1320025,,,,,,,2021-08-31,1,,,,,ゼンコクマチヤフドウサンカンリ,0
827,4011801039635,新規,0,2021-08-31,2021-08-31,源創株式会社,,株式会社,東京都,葛飾区,亀有１丁目１０－１１すまいる亀有１１号棟６０３室,,13,122,1250061,,,,,,,2021-08-31,1,,,,,ゲンソウ,0
828,4011801039643,新規,0,2021-08-31,2021-08-31,宏鵬株式会社,,株式会社,東京都,足立区,梅田８丁目１２－１０梅島グリーンマンション７０６号,,13,121,1230851,,,,,,,2021-08-31,1,,,,,ヒロホウ,0
834,4012805003049,新規,0,2021-08-31,2021-08-31,特定非営利活動法人リーデーレ,,その他の設立登記法人,東京都,昭島市,宮沢町３丁目１番１９号,,13,207,1960024,,,,,,,2021-08-31,1,,,,,リーデーレ,0
851,4020001142793,新規,0,2021-08-31,2021-08-31,株式会社ＰＣＧＳ,,株式会社,神奈川県,横浜市港北区,新吉田町４３４９番地,,14,109,2230056,,,,,,,2021-08-31,1,,,,,ピーシージーエス,0
855,4020003020403,新規,0,2021-08-31,2021-08-31,合同会社白菖,,合同会社,神奈川県,横浜市神奈川区,鶴屋町３丁目２８番３号松原ダイヤモンドマンション３０１号室,,14,102,2210835,,,,,,,2021-08-31,1,,,,,ハクショウ,0
856,4020005015178,新規,0,2021-08-31,2021-08-31,メゾン緑ヶ丘管理組合法人,,その他の設立登記法人,神奈川県,横浜市中区,本牧緑ケ丘４６番地１メゾン緑ヶ丘管理事務室,,14,104,2310832,,,,,,,2021-08-31,1,,,,,メゾンミドリガオカ,0
865,4030001143964,新規,0,2021-08-31,2021-08-31,株式会社フォワードワンＬＩＮＥ,,株式会社,埼玉県,さいたま市中央区,新中里３丁目９番１６号,,11,105,3380011,,,,,,,2021-08-31,1,,,,,フォワードワンライン,0
866,4030001144054,新規,0,2021-08-31,2021-08-31,渡邊株式会社,,株式会社,埼玉県,さいたま市南区,南浦和３丁目２０番９号,,11,108,3360017,,,,,,,2021-08-31,1,,,,,ワタナベ,0
870,4030003017860,新規,0,2021-08-31,2021-08-31,いろは合同会社,,合同会社,埼玉県,さいたま市岩槻区,加倉２丁目２番７号,,11,110,3390056,,,,,,,2021-08-31,1,,,,,イロハ,0
895,4100001034553,新規,0,2021-08-31,2021-08-31,株式会社ＨＳメディカル,,株式会社,長野県,塩尻市,大字広丘吉田３２５番地,,20,215,3990701,,,,,,,2021-08-31,1,,,,,エイチエスメディカル,0
905,4120001240026,新規,0,2021-08-31,2021-08-31,羽石株式会社,,株式会社,大阪府,大阪市北区,天満２丁目１－１２天満橋ＳＥビル４階,,27,127,5300043,,,,,,,2021-08-31,1,,,,,ハネイシ,0
906,4120001240034,新規,0,2021-08-31,2021-08-31,株式会社Ｔ’ｓ,,株式会社,大阪府,大阪市中央区,上町１丁目１２番１４号,,27,128,5400005,,,,,,,2021-08-31,1,,,,,ティーズ,0
907,4120001240059,新規,0,2021-08-31,2021-08-31,Ｎｏ８株式会社,,株式会社,大阪府,大阪市中央区,東心斎橋２丁目６－１９－１１１,,27,128,5420083,,,,,,,2021-08-31,1,,,,,ナンバーエイト,0
912,4120103004320,新規,0,2021-08-31,2021-08-31,合同会社ＥＧＷＥＬＬ,,合同会社,大阪府,松原市,北新町５丁目１４３番地の５,,27,217,5800025,,,,,,,2021-08-31,1,,,,,イージーウエル,0
919,4122003002164,新規,0,2021-08-31,2021-08-31,ハルショウ合同会社,,合同会社,大阪府,四條畷市,雁屋北町１８－２３,,27,229,5750035,,,,,,,2021-08-31,1,,,,,ハルショウ,0
921,4130005016256,新規,0,2021-08-31,2021-08-31,一般社団法人ボヌール,,その他の設立登記法人,京都府,京都市伏見区,下鳥羽中島中道町１１０番地２Ｆ,,26,109,6120000,,,,,,,2021-08-31,1,,,,,ボヌール,0
922,4140001122858,新規,0,2021-08-31,2021-08-31,株式会社ＢＲＩＧＨＴＩＶＥＳＥＡ,,株式会社,兵庫県,明石市,大明石町１丁目６－１３津田ビル４０３,,28,203,6730891,,,,,,,2021-08-31,1,,,,,ブライティブシー,0
928,4170001016743,新規,0,2021-08-31,2021-08-31,株式会社コネクトケア,,株式会社,和歌山県,橋本市,高野口町向島９８番地の２７,,30,203,6497206,,,,,,,2021-08-31,1,,,,,コネクトケア,0
972,4240001058506,新規,0,2021-08-31,2021-08-31,株式会社Ｌｉｂｅｒｔｅ,,株式会社,広島県,広島市安佐北区,落合南５丁目１３１４番地７,,34,106,7391732,,,,,,,2021-08-31,1,,,,,リベルテ,0
978,4260001035908,新規,0,2021-08-31,2021-08-31,セイル株式会社,,株式会社,岡山県,岡山市南区,豊成３丁目２０番２９号,,33,104,7000942,,,,,,,2021-08-31,1,,,,,セイル,0
979,4280003001526,新規,0,2021-08-31,2021-08-31,合同会社ＴＲｅｉＤ,,合同会社,島根県,出雲市,塩冶町１２８４番地９,,32,203,6930021,,,,,,,2021-08-31,1,,,,,トレイド,0
986,4290001094414,新規,0,2021-08-31,2021-08-31,株式会社アーツバディ,,株式会社,福岡県,福岡市東区,松島３丁目９番１５号,,40,131,8130062,,,,,,,2021-08-31,1,,,,,アーツバディ,0
987,4290005018328,新規,0,2021-08-31,2021-08-31,一般社団法人ＧＬＯＳＳ研究会,,その他の設立登記法人,福岡県,福岡市南区,長丘５丁目２８番６号日本基礎技術株式会社九州支店内,,40,134,8150075,,,,,,,2021-08-31,1,,,,,グロスケンキュウカイ,0
994,4330001028945,新規,0,2021-08-31,2021-08-31,株式会社府内ファーム,,株式会社,熊本県,菊池郡大津町,大字平川１６９番地,,43,403,8691231,,,,,,,2021-08-31,1,,,,,フナイファーム,0
995,4330003009019,新規,0,2021-08-31,2021-08-31,合同会社ＫＳ,,合同会社,熊本県,熊本市西区,河内町野出２４６番地１０,,43,103,8615343,,,,,,,2021-08-31,1,,,,,ケイエス,0
1001,4370001047529,新規,0,2021-08-31,2021-08-31,株式会社ホワイトハウス,,株式会社,宮城県,仙台市若林区,霞目２丁目３１番３号,,04,103,9840035,,,,,,,2021-08-31,1,,,,,ホワイトハウス,0
1002,4370001047537,新規,0,2021-08-31,2021-08-31,システム・フィールド株式会社,,株式会社,宮城県,石巻市,貞山１丁目１６番１５－４号,,04,202,9860851,,,,,,,2021-08-31,1,,,,,システムフィールド,0
1022,4430001084821,新規,0,2021-08-31,2021-08-31,歴史地域未来創造株式会社やまチ,,株式会社,北海道,札幌市東区,北六条東３丁目３番地１,,01,103,0600906,,,,,,,2021-08-31,1,,,,,レキシチイキミライソウゾウヤマチ,0
1025,4470001018676,新規,0,2021-08-31,2021-08-31,株式会社石丼,,株式会社,香川県,さぬき市,大川町富田西２１６５番地１,,37,206,7610901,,,,,,,2021-08-31,1,,,,,イシドン,0
1029,4500001023648,新規,0,2021-08-31,2021-08-31,ハウスバンク株式会社,,株式会社,愛媛県,松山市,東石井５丁目１３番３４号,,38,201,7900932,,,,,,,2021-08-31,1,,,,,ハウスバンク,0
1045,5010401162152,新規,0,2021-08-31,2021-08-31,ボディケアワークス株式会社,,株式会社,東京都,港区,虎ノ門５丁目１１番１１号,,13,103,1050001,,,,,,,2021-08-31,1,,,,,ボディケアワークス,0
1046,5010401162391,新規,0,2021-08-31,2021-08-31,アーキタイプスタジオ株式会社,,株式会社,東京都,港区,麻布十番２丁目８番１０号,,13,103,1060045,,,,,,,2021-08-31,1,,,,,アーキタイプスタジオ,0
1047,5010401162409,新規,0,2021-08-31,2021-08-31,株式会社Ｗｒａｉｔｈ,,株式会社,東京都,港区,東麻布２丁目３５番１号ＫＣビル６階,,13,103,1060044,,,,,,,2021-08-31,1,,,,,レイス,0
1048,5010401162417,新規,0,2021-08-31,2021-08-31,株式会社ｏｎｅ　ｃｏｎｓｕｌｔｉｎｇ　ｇｒｏｕｐ,,株式会社,東京都,港区,元赤坂１丁目４番２１号赤坂パレスビル３階,,13,103,1070051,,,,,,,2021-08-31,1,,,,,ワンコンサルティンググループ,0
1053,5010403026017,新規,0,2021-08-31,2021-08-31,ＡＫＢプラチナ合同会社,,合同会社,東京都,港区,西新橋１丁目２番９号メンターキャピタル税理士法人内,,13,103,1050003,,,,,,,2021-08-31,1,,,,,エーケービープラチナ,0
1054,5010403026025,新規,0,2021-08-31,2021-08-31,Ａｏ合同会社,,合同会社,東京都,港区,浜松町２丁目２番１５号浜松町ダイヤビル２Ｆ,,13,103,1050013,,,,,,,2021-08-31,1,,,,,アオ,0
1058,5010501047757,新規,0,2021-08-31,2021-08-31,株式会社Ｐｅａｒｌ　ｓｏｆｔ,,株式会社,東京都,台東区,上野３丁目１４番２号,,13,106,1100005,,,,,,,2021-08-31,1,,,,,パールソフト,0
1064,5010803003870,新規,0,2021-08-31,2021-08-31,合同会社空と海,,合同会社,東京都,大田区,中馬込１丁目１４番４号クリスタルマンション４０３,,13,111,1430027,,,,,,,2021-08-31,1,,,,,ソラトウミ,0
1076,5011001142445,新規,0,2021-08-31,2021-08-31,Ｆｕｌｆｉｌｄ株式会社,,株式会社,東京都,渋谷区,神宮前６丁目２３番４号桑野ビル２階,,13,113,1500001,,,,,,,2021-08-31,1,,,,,フルフィルド,0
1079,5011003013256,新規,0,2021-08-31,2021-08-31,合同会社すけっと,,合同会社,東京都,渋谷区,道玄坂２丁目１９番３－４０５号,,13,113,1500043,,,,,,,2021-08-31,1,,,,,スケット,0
1080,5011003013297,新規,0,2021-08-31,2021-08-31,合同会社ルーデンス,,合同会社,東京都,渋谷区,代々木５丁目５１番７－２０２号,,13,113,1510053,,,,,,,2021-08-31,1,,,,,ルーデンス,0
1082,5011103010962,新規,0,2021-08-31,2021-08-31,合同会社ＴＫＹ,,合同会社,東京都,新宿区,西新宿６丁目２０－７－９０９,,13,104,1600023,,,,,,,2021-08-31,1,,,,,ティーケーワイ,0
1091,5011605002391,新規,0,2021-08-31,2021-08-31,やまもと司法書士法人,,その他の設立登記法人,東京都,練馬区,春日町５丁目３５番３２号,,13,120,1790074,,,,,,,2021-08-31,1,,,,,ヤマモト,0
1101,5012301012676,新規,0,2021-08-31,2021-08-31,株式会社５８’ｓファーム,,株式会社,東京都,町田市,小山町２５２１番地３０,,13,209,1940212,,,,,,,2021-08-31,1,,,,,コバーズファーム,0
1110,5013301047927,新規,0,2021-08-31,2021-08-31,Ｇｏｌｚｙ株式会社,,株式会社,東京都,豊島区,東池袋１丁目４２－１４－２８山京ビル７階,,13,116,1700013,,,,,,,2021-08-31,1,,,,,ゴルジー,0
1128,5021001073796,新規,0,2021-08-31,2021-08-31,株式会社ＭＨＷ,,株式会社,神奈川県,相模原市中央区,相模原２丁目２番１６号,,14,152,2520231,,,,,,,2021-08-31,1,,,,,エムエイチダブリュウ,0
1140,5030001144053,新規,0,2021-08-31,2021-08-31,株式会社ＭＡＮＪＥＥＴ　ＩＮＴＥＲＮＡＴＩＯＮＡＬ,,株式会社,埼玉県,越谷市,大字下間久里１２９番地９エスペランスＤ,,11,222,3430045,,,,,,,2021-08-31,1,,,,,マンジェットインターナショナル,0
1147,5040003018411,新規,0,2021-08-31,2021-08-31,クリプトエージェント合同会社,,合同会社,千葉県,千葉市緑区,椎名崎町６７１番地１２,,12,105,2660016,,,,,,,2021-08-31,1,,,,,クリプトエージェント,0
1159,5110001036003,新規,0,2021-08-31,2021-08-31,株式会社ヒナタ工業,,株式会社,新潟県,新潟市秋葉区,車場４丁目１５番１号,,15,105,9560011,,,,,,,2021-08-31,1,,,,,ヒナタコウギョウ,0
1161,5110005016703,新規,0,2021-08-31,2021-08-31,一般社団法人プラスメディカ,,その他の設立登記法人,新潟県,新潟市中央区,上所中１丁目７番１９号北村ビル２Ｆ,,15,103,9500993,,,,,,,2021-08-31,1,,,,,プラスメディカ,0
1171,5120001240009,新規,0,2021-08-31,2021-08-31,株式会社にあにゃあ,,株式会社,大阪府,大阪市北区,芝田２丁目８－１１共栄ビル１０２,,27,127,5300012,,,,,,,2021-08-31,1,,,,,ニアニャア,0
1172,5120001240025,新規,0,2021-08-31,2021-08-31,羽田株式会社,,株式会社,大阪府,大阪市北区,天満２丁目１－１２天満橋ＳＥビル４階,,27,127,5300043,,,,,,,2021-08-31,1,,,,,ハネダ,0
1173,5120001240041,新規,0,2021-08-31,2021-08-31,浅井機工株式会社,,株式会社,大阪府,大阪市西成区,山王３丁目１７－１８,,27,122,5570001,,,,,,,2021-08-31,1,,,,,アサイキコウ,0
1177,5120003020111,新規,0,2021-08-31,2021-08-31,合同会社スマイリーパートナー,,合同会社,大阪府,大阪市北区,芝田２丁目８番１号共栄ビル３Ｆ,,27,127,5300012,,,,,,,2021-08-31,1,,,,,スマイリーパートナー,0
1183,5120101064209,新規,0,2021-08-31,2021-08-31,株式会社ＭＳＫ,,株式会社,大阪府,泉大津市,豊中町２丁目５番７号,,27,206,5950023,,,,,,,2021-08-31,1,,,,,エムエスケイ,0
1185,5120903003801,新規,0,2021-08-31,2021-08-31,合同会社Ｏｎｅ　Ｇｌｏｂａｌ　Ａｃｃｅｓｓ,,合同会社,大阪府,箕面市,粟生外院４丁目１５番７号,,27,220,5620025,,,,,,,2021-08-31,1,,,,,ワングローバルアクセス,0
1189,5130001070009,新規,0,2021-08-31,2021-08-31,株式会社シュヴァルブラン,,株式会社,京都府,京都市中京区,聚楽廻東町３２,,26,104,6048404,,,,,,,2021-08-31,1,,,,,シュヴァルブラン,0
1194,5140001122865,新規,0,2021-08-31,2021-08-31,株式会社ＲＯＣＫ,,株式会社,兵庫県,小野市,下大部町８９６番地１,,28,218,6751336,,,,,,,2021-08-31,1,,,,,ロック,0
1213,5190003003753,新規,0,2021-08-31,2021-08-31,合同会社絆,,合同会社,三重県,伊賀市,伊勢路６番地の１,,24,216,5180205,,,,,,,2021-08-31,1,,,,,キズナ,0
1214,5200001039062,新規,0,2021-08-31,2021-08-31,株式会社アクトアコーディング,,株式会社,岐阜県,岐阜市,野一色３丁目８番８号,,21,201,5008226,,,,,,,2021-08-31,1,,,,,,0
1224,5260001035907,新規,0,2021-08-31,2021-08-31,株式会社三和,,株式会社,岡山県,都窪郡早島町,前潟１１番地１９,,33,423,7010303,,,,,,,2021-08-31,1,,,,,サンワ,0
1235,5290001094413,新規,0,2021-08-31,2021-08-31,株式会社建設業務災害総合保険事務所,,株式会社,福岡県,福岡市中央区,大名２丁目４－３５,,40,133,8100041,,,,,,,2021-08-31,1,,,,,ケンセツギョウムサイガイソウゴウホケンジムショ,0
1236,5290001094446,新規,0,2021-08-31,2021-08-31,ステップワン不動産株式会社,,株式会社,福岡県,福岡市博多区,冷泉町７番９－２０１号,,40,132,8120039,,,,,,,2021-08-31,1,,,,,ステップワンフドウサン,0
1250,5290805009467,新規,0,2021-08-31,2021-08-31,一般社団法人もっこす日花里,,その他の設立登記法人,福岡県,直方市,大字下境３２３番地２２,,40,204,8220007,,,,,,,2021-08-31,1,,,,,モッコスヒカリ,0
1251,5310001017437,新規,0,2021-08-31,2021-08-31,株式会社ハルヒ,,株式会社,長崎県,佐世保市,大潟町１５３番地５２,,42,202,8580926,,,,,,,2021-08-31,1,,,,,ハルヒ,0
1257,5330001028944,新規,0,2021-08-31,2021-08-31,株式会社ＳＨＩＮＳＥＩ,,株式会社,熊本県,菊池市,七城町流川４０６番地,,43,210,8611367,,,,,,,2021-08-31,1,,,,,シンセイ,0
1286,5470001018675,新規,0,2021-08-31,2021-08-31,株式会社Ｌａ　ｐａｕｓｅ,,株式会社,香川県,高松市,花ノ宮町２丁目１０番３０号,,37,201,7618063,,,,,,,2021-08-31,1,,,,,ラポーズ,0
1292,5700150104558,新規,0,2021-08-31,2021-08-31,Ａｉｓｉｎ　Ａｕｔｏｍｏｔｉｖｅ　Ｈａｒｙａｎａ　Ｐｒｉｖａｔｅ　Ｌｉｍｉｔｅｄ,,外国会社等,,,,,,,,Ｐｌｏｔ　Ｎｏ．７，８，９　Ｓｅｃｔｏｒ－３０Ｂ，ＩＭＴ　Ｒｏｈｔａｋ　Ｒｏｈｔａｋ－１２４０２７，Ｈａｒｙａｎａ，Ｒｅｐｕｂｌｉｃ　ｏｆ　Ｉｎｄｉａ,,,,,,2021-08-31,1,,,,,アイシンオートモーテイブハリヤーナープライベートリミテツド,0
1301,6010001220763,新規,0,2021-08-31,2021-08-31,株式会社Ａ．Ｐ,,株式会社,東京都,文京区,湯島３丁目３９番１１号ライワビル５階,,13,105,1130034,,,,,,,2021-08-31,1,,,,,エーピー,0
1302,6010001220805,新規,0,2021-08-31,2021-08-31,株式会社Ｆ１,,株式会社,東京都,千代田区,九段南２丁目３番１０号ＢＣプラザ６階,,13,101,1020074,,,,,,,2021-08-31,1,,,,,エフワン,0
1303,6010003035689,新規,0,2021-08-31,2021-08-31,福島矢吹太陽光発電合同会社,,合同会社,東京都,千代田区,丸の内３丁目１番１号東京共同会計事務所内,,13,101,1000005,,,,,,,2021-08-31,1,,,,,フクシマヤブキタイヨウコウハツデン,0
1304,6010003035706,新規,0,2021-08-31,2021-08-31,合同会社ＩＲ　Ａｇｅｎｔｓ,,合同会社,東京都,中央区,銀座１丁目１２番４号Ｎ＆Ｅ・ＢＬＤ７階,,13,102,1040061,,,,,,,2021-08-31,1,,,,,,0
1305,6010003035714,新規,0,2021-08-31,2021-08-31,合同会社東京古典音楽事務所,,合同会社,東京都,千代田区,九段南１丁目５番６号りそな九段ビル５階,,13,101,1020074,,,,,,,2021-08-31,1,,,,,トウキョウコテンオンガクジムショ,0
1318,6010401162408,新規,0,2021-08-31,2021-08-31,株式会社ＤＡＰＰＹ,,株式会社,東京都,港区,海岸１丁目２－３汐留芝離宮ビルディング２１階,,13,103,1050022,,,,,,,2021-08-31,1,,,,,ダッピー,0
1319,6010401162424,新規,0,2021-08-31,2021-08-31,Ｒｉｃｈｋｅｙ株式会社,,株式会社,東京都,港区,西新橋２丁目３４番８号,,13,103,1050003,,,,,,,2021-08-31,1,,,,,リッチキイ,0
1321,6010403026024,新規,0,2021-08-31,2021-08-31,合同会社エスエフワン,,合同会社,東京都,港区,虎ノ門３丁目２２番１０－２０１号,,13,103,1050001,,,,,,,2021-08-31,1,,,,,エスエフワン,0
1324,6010501047756,新規,0,2021-08-31,2021-08-31,株式会社ＳＡＮＵ　Ｋａｗａｇｕｃｈｉｋｏ１ｓｔ,,株式会社,東京都,台東区,蔵前２丁目１４番１３号,,13,106,1110051,,,,,,,2021-08-31,1,,,,,サヌカワグチコファースト,0
1330,6010801032268,新規,0,2021-08-31,2021-08-31,株式会社友栄工業,,株式会社,東京都,大田区,田園調布１丁目５番７号,,13,111,1450071,,,,,,,2021-08-31,1,,,,,ユウエイコウギョウ,0
1333,6010901049278,新規,0,2021-08-31,2021-08-31,株式会社Ｈ＆Ｙ,,株式会社,東京都,世田谷区,代田５丁目２番１０号キミトモマンション３０１,,13,112,1550033,,,,,,,2021-08-31,1,,,,,エイチアンドワイ,0
1352,6011801039633,新規,0,2021-08-31,2021-08-31,株式会社ｌｅａ,,株式会社,東京都,足立区,中央本町４丁目１－３－１０２,,13,121,1210011,,,,,,,2021-08-31,1,,,,,レア,0
1353,6011801039641,新規,0,2021-08-31,2021-08-31,株式会社Ｐｒｏ’Ｚ　ＳＥＲＶＩＣＥ,,株式会社,東京都,足立区,谷中４丁目１６番３号,,13,121,1200006,,,,,,,2021-08-31,1,,,,,プロズサービス,0
1361,6013101008707,新規,0,2021-08-31,2021-08-31,ｎａｎｉ株式会社,,株式会社,東京都,あきる野市,野辺１２５５番地５５,,13,228,1970823,,,,,,,2021-08-31,1,,,,,,0
1364,6013301047926,新規,0,2021-08-31,2021-08-31,フォトンライフジャパン株式会社,,株式会社,東京都,豊島区,池袋２丁目６０番６号グランドメゾン一番館１２０４号室,,13,116,1710014,,,,,,,2021-08-31,1,,,,,フォトンライフジャパン,0
1372,6020001142817,新規,0,2021-08-31,2021-08-31,株式会社ＳＴＲＩＶＥ,,株式会社,神奈川県,横浜市旭区,左近山１５７番地５左近山団地４街区６棟５０２号,,14,112,2410831,,,,,,,2021-08-31,1,,,,,ストライブ,0
1381,6021001073804,新規,0,2021-08-31,2021-08-31,Ｅ‐Ｅインポート株式会社,,株式会社,神奈川県,横須賀市,浜見台２丁目５番８号,,14,201,2370077,,,,,,,2021-08-31,1,,,,,イーイインポート,0
1382,6021001073812,新規,0,2021-08-31,2021-08-31,ＭＯＴＡＳ　ＧＲＯＵＰ株式会社,,株式会社,神奈川県,鎌倉市,津西１丁目１９番８号,,14,204,2480034,,,,,,,2021-08-31,1,,,,,モータスグループ,0
1386,6021003010846,新規,0,2021-08-31,2021-08-31,合同会社Ｃ．Ｇ,,合同会社,神奈川県,座間市,入谷西３丁目２０番３３号ＨＳレジデンス２－Ｃ,,14,216,2520029,,,,,,,2021-08-31,1,,,,,シージー,0
1395,6030001144052,新規,0,2021-08-31,2021-08-31,篠株式会社,,株式会社,埼玉県,戸田市,上戸田５丁目２９番１０号,,11,224,3350022,,,,,,,2021-08-31,1,,,,,シノ,0
1396,6030001144060,新規,0,2021-08-31,2021-08-31,株式会社オアシス,,株式会社,埼玉県,秩父市,上町２丁目１１番１７号,,11,207,3680035,,,,,,,2021-08-31,1,,,,,オアシス,0
1397,6030001144077,新規,0,2021-08-31,2021-08-31,株式会社Ｓｔｒ．,,株式会社,埼玉県,上尾市,富士見２丁目１７番１４－９号,,11,219,3620041,,,,,,,2021-08-31,1,,,,,ストリングス,0
1398,6030001144102,新規,0,2021-08-31,2021-08-31,大東商事株式会社,,株式会社,埼玉県,草加市,八幡町７３９－１,,11,221,3400006,,,,,,,2021-08-31,1,,,,,ダイトウショウジ,0
1414,6040001119945,新規,0,2021-08-31,2021-08-31,サティ産業株式会社,,株式会社,千葉県,茂原市,町保２２番地３０,,12,210,2970022,,,,,,,2021-08-31,1,,,,,サティサンギョウ,0
1429,6080401025293,新規,0,2021-08-31,2021-08-31,株式会社アール,,株式会社,静岡県,浜松市中区,高丘北１丁目３番３３号,,22,131,4338119,,,,,,,2021-08-31,1,,,,,アール,0
1437,6110001036002,新規,0,2021-08-31,2021-08-31,りんどうｔｅｃｈｎｉｃａｌ株式会社,,株式会社,新潟県,新潟市東区,牡丹山４丁目３番１６号,,15,102,9500872,,,,,,,2021-08-31,1,,,,,リンドウテクニカル,0
1445,6120001239999,新規,0,2021-08-31,2021-08-31,株式会社弘勝,,株式会社,大阪府,大阪市都島区,御幸町１丁目６－２９,,27,102,5340012,,,,,,,2021-08-31,1,,,,,コウショウ,0
1446,6120001240024,新規,0,2021-08-31,2021-08-31,羽成株式会社,,株式会社,大阪府,大阪市北区,天満２丁目１－１２天満橋ＳＥビル４階,,27,127,5300043,,,,,,,2021-08-31,1,,,,,ハナリ,0
1447,6120001240040,新規,0,2021-08-31,2021-08-31,株式会社Ｍａｒｉｙｅｌｌ,,株式会社,大阪府,大阪市浪速区,湊町１丁目２番１７－２３０９号,,27,111,5560017,,,,,,,2021-08-31,1,,,,,マリエール,0
1452,6120103004319,新規,0,2021-08-31,2021-08-31,合同会社宗貴,,合同会社,大阪府,羽曳野市,栄町１０番５号,,27,222,5830853,,,,,,,2021-08-31,1,,,,,ムネタカ,0
1464,6130001069999,新規,0,2021-08-31,2021-08-31,京田辺環境機材株式会社,,株式会社,京都府,京田辺市,大住大峯７番地の１,,26,211,6100343,,,,,,,2021-08-31,1,,,,,キョウタナベカンキョウキザイ,0
1470,6140001122848,新規,0,2021-08-31,2021-08-31,株式会社ＳＥＡｓｋｙ,,株式会社,兵庫県,神戸市兵庫区,駅前通２丁目１番８－６１１号,,28,105,6520898,,,,,,,2021-08-31,1,,,,,シースカイ,0
1471,6140001122864,新規,0,2021-08-31,2021-08-31,株式会社ｍｉｙａｂｉ,,株式会社,兵庫県,姫路市,保城４００番地５,,28,201,6700804,,,,,,,2021-08-31,1,,,,,ミヤビ,0
1477,6150001024886,新規,0,2021-08-31,2021-08-31,株式会社ＳＴＡＲＴ　ＡＦＲＥＳＨ,,株式会社,奈良県,奈良市,あやめ池北３丁目１０番７号あやめ池ガーデンハイツ２０３,,29,201,6310032,,,,,,,2021-08-31,1,,,,,スタートアフレッシュ,0
1478,6160003002360,新規,0,2021-08-31,2021-08-31,合同会社池田ＳＢＣ,,合同会社,滋賀県,大津市,池の里２６番２０号,,25,201,5200827,,,,,,,2021-08-31,1,,,,,イケダエスビーシー,0
1481,6170001016741,新規,0,2021-08-31,2021-08-31,株式会社南部創建,,株式会社,和歌山県,和歌山市,中筋日延３６５番地,,30,201,6496304,,,,,,,2021-08-31,1,,,,,ナンブソウケン,0
1485,6180001147560,新規,0,2021-08-31,2021-08-31,株式会社ティーエイチサービス,,株式会社,愛知県,愛西市,立田町船頭平１００番地２,,23,232,4960946,,,,,,,2021-08-31,1,,,,,ティーエイチサービス,0
1495,6220003003105,新規,0,2021-08-31,2021-08-31,合同会社Ｇｒｅｅｎヴィレッジ,,合同会社,石川県,金沢市,神田２丁目１５番９号,,17,201,9218027,,,,,,,2021-08-31,1,,,,,グリーンヴィレッジ,0
1510,6260003003662,新規,0,2021-08-31,2021-08-31,合同会社ハンズ,,合同会社,岡山県,岡山市北区,野田２丁目１１‐１,,33,101,7000971,,,,,,,2021-08-31,1,,,,,ハンズ,0
1519,6290001094420,新規,0,2021-08-31,2021-08-31,株式会社ＮＯＫＯＮＯＫＯ,,株式会社,福岡県,福岡市博多区,博多駅南３丁目２５番１１号ラグゼ博多駅南７０１号室,,40,132,8120016,,,,,,,2021-08-31,1,,,,,ノコノコ,0
1520,6290003011563,新規,0,2021-08-31,2021-08-31,合同会社ＳＡＮＴＯＳＨ,,合同会社,福岡県,福岡市南区,塩原４丁目１４番１７号,,40,134,8150032,,,,,,,2021-08-31,1,,,,,サントス,0
1521,6290005018334,新規,0,2021-08-31,2021-08-31,一般社団法人こが陽光記念会,,その他の設立登記法人,福岡県,宗像市,城西ヶ丘４丁目３番地５,,40,220,8113404,,,,,,,2021-08-31,1,,,,,コガヨウコウキネンカイ,0
1526,6320001018565,新規,0,2021-08-31,2021-08-31,株式会社ＲＩＳＴ,,株式会社,大分県,大分市,坂ノ市南１丁目１３－１２,,44,201,8700308,,,,,,,2021-08-31,1,,,,,リスト,0
1545,6420001017573,新規,0,2021-08-31,2021-08-31,ホームライフ株式会社,,株式会社,青森県,上北郡六ヶ所村,大字尾駮字家ノ前７６番地４,,02,411,0393212,,,,,,,2021-08-31,1,,,,,ホームライフ,0
1553,6480003001719,新規,0,2021-08-31,2021-08-31,吉岡電工合同会社,,合同会社,徳島県,板野郡上板町,泉谷字砂コウ３７番地１,,36,405,7711310,,,,,,,2021-08-31,1,,,,,ヨシオカデンコウ,0
1557,6700150104433,新規,0,2021-08-31,2021-08-17,総合型地域スポーツクラブ　大和郡山ＡＣ,,その他,奈良県,大和郡山市,九条町３１０－１,,29,203,6391001,,,,,,,2021-08-17,1,,,,,ソウゴウガタチイキスポーツクラブヤマトコオリヤマエーシー,0
1558,6700150104540,新規,0,2021-08-31,2021-08-31,成都華川電装有限責任公司,,外国会社等,大阪府,大阪市中央区,難波５丁目１番６０号２７階１０９,,27,128,5420076,中華人民共和国四川省成都経済技術開発区（柏合町）合霊路７号,,,,,,2021-08-31,1,,,,,セイトカガワデンソウユウゲンセキニンコウシ,0
1559,6700150104557,新規,0,2021-08-31,2021-08-31,全国ホンダ販売企業年金基金,,その他,東京都,文京区,大塚２丁目１－９,,13,105,1120012,,,,,,,2021-08-31,1,,,,,ゼンコクホンダハンバイキギヨウネンキンキキン,0
1560,6700150104565,新規,0,2021-08-31,2021-08-31,鉄リサイクル企業年金基金,,その他,東京都,台東区,蔵前１丁目７－７,,13,106,1110051,,,,,,,2021-08-31,1,,,,,テツリサイクルキギヨウネンキンキキン,0
1568,7010001220804,新規,0,2021-08-31,2021-08-31,株式会社ＢＣＪ－５４,,株式会社,東京都,千代田区,丸の内１丁目１番１号パレスビル５階,,13,101,1000005,,,,,,,2021-08-31,1,,,,,ビーシージェイフィフティーフォー,0
1576,7010401162381,新規,0,2021-08-31,2021-08-31,株式会社ＬＩＫＥ　ＷＡＴＥＲ,,株式会社,東京都,港区,南青山５丁目４番１１号,,13,103,1070062,,,,,,,2021-08-31,1,,,,,ライクウォーター,0
1577,7010401162448,新規,0,2021-08-31,2021-08-31,株式会社ＤＸコンパス,,株式会社,東京都,港区,西新橋１丁目２番９号日比谷セントラルビル１４階,,13,103,1050003,,,,,,,2021-08-31,1,,,,,ディーエックスコンパス,0
1583,7010403026015,新規,0,2021-08-31,2021-08-31,合同会社Ｎｉｋｋｉ,,合同会社,東京都,港区,虎ノ門５丁目１番４号,,13,103,1050001,,,,,,,2021-08-31,1,,,,,ニッキ,0
1584,7010403026023,新規,0,2021-08-31,2021-08-31,合同会社介護経営サポート協議会,,合同会社,東京都,港区,三田４丁目８番２８－３０９号,,13,103,1080073,,,,,,,2021-08-31,1,,,,,カイゴケイエイサポートキョウギカイ,0
1585,7010403026031,新規,0,2021-08-31,2021-08-31,合同会社Ａｃｅ　Ｈｅａｌｔｈｃａｒｅ　Ｆｕｎｄ,,合同会社,東京都,港区,南麻布５丁目２番３２号,,13,103,1060047,,,,,,,2021-08-31,1,,,,,エースヘルスケアファンド,0
1588,7010405020164,新規,0,2021-08-31,2021-08-31,一般社団法人Ｂｅｒｃｅｌｏｎａ,,その他の設立登記法人,東京都,港区,虎ノ門５丁目１番４号,,13,103,1050001,,,,,,,2021-08-31,1,,,,,バルセロナ,0
1597,7010801032267,新規,0,2021-08-31,2021-08-31,株式会社ベルフルール,,株式会社,東京都,大田区,東糀谷２丁目３番１号,,13,111,1440033,,,,,,,2021-08-31,1,,,,,ベルフルール,0
1607,7011005009184,新規,0,2021-08-31,2021-08-31,一般社団法人日防隊,,その他の設立登記法人,東京都,渋谷区,代々木２丁目２３番１号,,13,113,1510053,,,,,,,2021-08-31,1,,,,,ニチボウタイ,0
1611,7011101096127,新規,0,2021-08-31,2021-08-31,ＹＵＭ株式会社,,株式会社,東京都,新宿区,新宿７丁目１８番６号ドルチェ新宿４０１,,13,104,1600022,,,,,,,2021-08-31,1,,,,,ワイユーエム,0
1614,7011103010960,新規,0,2021-08-31,2021-08-31,ＴＯＫＹＯ　ＩＮＴＥＲＮＡＴＩＯＮＡＬ　ＳＥＲＶＩＣＥ合同会社,,合同会社,東京都,新宿区,百人町１丁目２０番１１号,,13,104,1690073,,,,,,,2021-08-31,1,,,,,,0
1615,7011103010969,新規,0,2021-08-31,2021-08-31,合同会社ＭＴＵＲ,,合同会社,東京都,新宿区,高田馬場３丁目１番５号サンパティオ高田馬場３０９号室,,13,104,1690075,,,,,,,2021-08-31,1,,,,,エムティーユーアール,0
1623,7011701024668,新規,0,2021-08-31,2021-08-31,メタリカ株式会社,,株式会社,東京都,江戸川区,西一之江３丁目１８番１９号,,13,123,1320023,,,,,,,2021-08-31,1,,,,,メタリカ,0
1624,7011703002928,新規,0,2021-08-31,2021-08-31,合同会社Ｓｏｕｙａ　Ｈａｎｄａ　Ｐｒｏｊｅｃｔｓ,,合同会社,東京都,江戸川区,南小岩７丁目３６番２４号,,13,123,1330056,,,,,,,2021-08-31,1,,,,,ソウヤハンダプロジェクツ,0
1625,7011801039632,新規,0,2021-08-31,2021-08-31,株式会社ＬｅＡＦ,,株式会社,東京都,足立区,千住曙町４０番１－２００８号,,13,121,1200023,,,,,,,2021-08-31,1,,,,,リーフ,0
1626,7011801039640,新規,0,2021-08-31,2021-08-31,ラフィア株式会社,,株式会社,東京都,葛飾区,新小岩４丁目１０番７号メッサしんこいわ１０２,,13,122,1240024,,,,,,,2021-08-31,1,,,,,ラフィア,0
1637,7013301047933,新規,0,2021-08-31,2021-08-31,株式会社Ｇｉｆｔ,,株式会社,東京都,豊島区,南長崎４丁目３４番１０号,,13,116,1710052,,,,,,,2021-08-31,1,,,,,ギフト,0
1653,7021001073794,新規,0,2021-08-31,2021-08-31,株式会社ＳＶａｌｕｅ,,株式会社,神奈川県,茅ヶ崎市,共恵１丁目１－５Ｂ．Ｌ．Ｄ．Ｎａｇａｓｈｉｍａ３０１,,14,207,2530056,,,,,,,2021-08-31,1,,,,,エスバリュー,0
1654,7021001073803,新規,0,2021-08-31,2021-08-31,株式会社一星電気,,株式会社,神奈川県,足柄下郡湯河原町,吉浜１２６９番地の１,,14,384,2590312,,,,,,,2021-08-31,1,,,,,イチホシデンキ,0
1668,7030001144068,新規,0,2021-08-31,2021-08-31,久喜環境機材株式会社,,株式会社,埼玉県,久喜市,上町１番１３号,,11,232,3460006,,,,,,,2021-08-31,1,,,,,クキカンキョウキザイ,0
1700,7080401025292,新規,0,2021-08-31,2021-08-31,株式会社ＳＹＮＣＡ,,株式会社,静岡県,浜松市中区,元城町１１３番地の１０グランドガーデンカサブランカ２０２,,22,131,4300946,,,,,,,2021-08-31,1,,,,,シンカ,0
1702,7090001017169,新規,0,2021-08-31,2021-08-31,株式会社和泉屋,,株式会社,山梨県,甲府市,荒川２丁目１番１８号,,19,201,4000061,,,,,,,2021-08-31,1,,,,,イズミヤ,0
1703,7090003001930,新規,0,2021-08-31,2021-08-31,ＲＴｙｐｅ合同会社,,合同会社,山梨県,甲府市,城東３丁目１６－３０ダイアパレス甲府城東Ⅱ４０３,00124059,19,201,4000861,,,,,,,2021-08-31,1,,,,,アールタイプ,0
1704,7100001034559,新規,0,2021-08-31,2021-08-31,株式会社やまほ,,株式会社,長野県,千曲市,大字上徳間１８７２番地,,20,218,3890805,,,,,,,2021-08-31,1,,,,,ヤマホ,0
1717,7120001239981,新規,0,2021-08-31,2021-08-31,株式会社セブンホールディングス,,株式会社,大阪府,大阪市中央区,東心斎橋２丁目２番１８号,,27,128,5420083,,,,,,,2021-08-31,1,,,,,セブンホールディングス,0
1718,7120001240023,新規,0,2021-08-31,2021-08-31,羽吉株式会社,,株式会社,大阪府,大阪市北区,天満２丁目１－１２天満橋ＳＥビル４階,,27,127,5300043,,,,,,,2021-08-31,1,,,,,ハヨシ,0
1723,7120003020101,新規,0,2021-08-31,2021-08-31,合同会社Ａｃｈｔ,,合同会社,大阪府,大阪市浪速区,日本橋東１丁目６番７号セレニテ日本橋プリエ１００９号,,27,111,5560006,,,,,,,2021-08-31,1,,,,,アハト,0
1725,7120101064215,新規,0,2021-08-31,2021-08-31,株式会社スプリード,,株式会社,大阪府,貝塚市,澤２２０番地５５,,27,208,5970062,,,,,,,2021-08-31,1,,,,,スプリード,0
1727,7120103004318,新規,0,2021-08-31,2021-08-31,合同会社ＳＫＹＹ,,合同会社,大阪府,堺市北区,野遠町４６５番地２,,27,146,5918013,,,,,,,2021-08-31,1,,,,,スカイ,0
1744,7140001122855,新規,0,2021-08-31,2021-08-31,株式会社ライフワークス,,株式会社,兵庫県,神戸市西区,南別府４丁目２０４番地の１グリーンヴィレッジ南別府Ｅ－２０１号,,28,111,6512116,,,,,,,2021-08-31,1,,,,,ライフワークス,0
1749,7140003016675,新規,0,2021-08-31,2021-08-31,ｅｎ　ｒａｐｐｏｒｔ合同会社,,合同会社,兵庫県,姫路市,青山西３丁目８番７号,,28,201,6712224,,,,,,,2021-08-31,1,,,,,エンラポール,0
1753,7160001023589,新規,0,2021-08-31,2021-08-31,株式会社Ｓｈｉｍｏｋａｗａ３ｏｆｆｉｃｅ,,株式会社,滋賀県,彦根市,蓮台寺町５０番２０号,,25,202,5220232,,,,,,,2021-08-31,1,,,,,シモカワスリーオフィス,0
1754,7170001016740,新規,0,2021-08-31,2021-08-31,ａｖａｔｅｃｌ株式会社,,株式会社,和歌山県,和歌山市,西浜１丁目３番３３号,,30,201,6410036,,,,,,,2021-08-31,1,,,,,アヴァテクル,0
1758,7180003022901,新規,0,2021-08-31,2021-08-31,スズデン合同会社,,合同会社,愛知県,知多郡東浦町,大字石浜字青木６７番地の１,,23,442,4702103,,,,,,,2021-08-31,1,,,,,スズデン,0
1763,7180305009233,新規,0,2021-08-31,2021-08-31,一般財団法人角文・鈴木環境財団,,その他の設立登記法人,愛知県,刈谷市,泉田町古和井１番地,,23,210,4480004,,,,,,,2021-08-31,1,,,,,カクブンスズキカンキョウザイダン,0
1782,7260003003661,新規,0,2021-08-31,2021-08-31,合同会社Ｆｏｒ　Ｙｏｕｒ　Ｓｍｉｌｅ,,合同会社,岡山県,倉敷市,新田２４２３番地１アメニティ田園２０５号,,33,202,7100038,,,,,,,2021-08-31,1,,,,,フォーユアスマイル,0
1788,7290001094411,新規,0,2021-08-31,2021-08-31,株式会社ＡＰＥＸ,,株式会社,福岡県,福岡市博多区,中洲４丁目１番６号,,40,132,8100801,,,,,,,2021-08-31,1,,,,,アペックス,0
1789,7290001094428,新規,0,2021-08-31,2021-08-31,株式会社ネクサス,,株式会社,福岡県,福岡市中央区,大名１丁目８番１８号,,40,133,8100041,,,,,,,2021-08-31,1,,,,,ネクサス,0
1794,7290801027743,新規,0,2021-08-31,2021-08-31,株式会社ＨＯＯＰ,,株式会社,福岡県,直方市,湯野原２丁目１５番１６号,,40,204,8220008,,,,,,,2021-08-31,1,,,,,フープ,0
1798,7300005007029,新規,0,2021-08-31,2021-08-31,いなば行政書士法人,,その他の設立登記法人,佐賀県,佐賀市,開成５丁目６番１５号,,41,201,8490934,,,,,,,2021-08-31,1,,,,,イナバ,0
1802,7320001018564,新規,0,2021-08-31,2021-08-31,株式会社地熱サービス,,株式会社,大分県,別府市,大字鶴見１５００番地３５２,,44,202,8740840,,,,,,,2021-08-31,1,,,,,チネツサービス,0
1813,7360003011381,新規,0,2021-08-31,2021-08-31,合同会社ＰｒｏＣｏｍ,,合同会社,沖縄県,那覇市,辻１丁目９－１９ｐｒｏｓｐｅｒ３０２号室,00124064,47,201,9000037,,,,,,,2021-08-31,1,,,,,プロコム,0
1816,7380001032155,新規,0,2021-08-31,2021-08-31,株式会社ＡＲＭ,,株式会社,福島県,福島市,早稲町５番１７号,,07,201,9608044,,,,,,,2021-08-31,1,,,,,エーアールエム,0
1828,7430001084827,新規,0,2021-08-31,2021-08-31,株式会社ふるさとクリエイト,,株式会社,北海道,小樽市,蘭島１丁目１２番１０号,,01,203,0482562,,,,,,,2021-08-31,1,,,,,フルサトクリエイト,0
1829,7440001008941,新規,0,2021-08-31,2021-08-31,株式会社東板金工業,,株式会社,北海道,山越郡長万部町,字平里１０番地３,,01,347,0493513,,,,,,,2021-08-31,1,,,,,アズマバンキンコウギョウ,0
1832,7470003002023,新規,0,2021-08-31,2021-08-31,ｋｙｏｕ　ｍａｒｕｔ合同会社,,合同会社,香川県,高松市,西植田町３０４４番地１３,,37,201,7610445,,,,,,,2021-08-31,1,,,,,キョウマル,0
1834,7480003001718,新規,0,2021-08-31,2021-08-31,合同会社Ｓｏｌｅ,,合同会社,徳島県,吉野川市,鴨島町飯尾５５０番地３５２,,36,205,7760033,,,,,,,2021-08-31,1,,,,,ソーレ,0
1840,7700150104556,新規,0,2021-08-31,2021-08-31,埼玉県医師会企業年金基金,,その他,埼玉県,さいたま市浦和区,仲町３丁目５－１,,11,107,3300062,,,,,,,2021-08-31,1,,,,,サイタマケンイシカイキギヨウネンキンキキン,0
1845,8010001220778,新規,0,2021-08-31,2021-08-31,株式会社Ｍ４Ｕ,,株式会社,東京都,文京区,後楽２丁目１６番１号,,13,105,1120004,,,,,,,2021-08-31,1,,,,,エムフォーユー,0
1846,8010001220786,新規,0,2021-08-31,2021-08-31,株式会社ＡＬＧＥＲＮＯＮ,,株式会社,東京都,中央区,日本橋堀留町１丁目１０番１号,,13,102,1030012,,,,,,,2021-08-31,1,,,,,アルジャーノン,0
1851,8010401162414,新規,0,2021-08-31,2021-08-31,株式会社与夢,,株式会社,東京都,港区,新橋４丁目１１番５号,,13,103,1050004,,,,,,,2021-08-31,1,,,,,アトム,0
1852,8010401162422,新規,0,2021-08-31,2021-08-31,株式会社ＧＬＯＷＥ,,株式会社,東京都,港区,芝浦４丁目５番１７－６０３号,,13,103,1080023,,,,,,,2021-08-31,1,,,,,グローウィ,0
1860,8010403025998,新規,0,2021-08-31,2021-08-31,合同会社クラスペダ,,合同会社,東京都,港区,南青山２丁目９－２５,,13,103,1070062,,,,,,,2021-08-31,1,,,,,クラスペダ,0
1861,8010403026014,新規,0,2021-08-31,2021-08-31,合同会社Ｍａｇｎｏ,,合同会社,東京都,港区,虎ノ門５丁目１番４号,,13,103,1050001,,,,,,,2021-08-31,1,,,,,マグノ,0
1862,8010405020130,新規,0,2021-08-31,2021-08-31,一般社団法人ハナコプロジェクト,,その他の設立登記法人,東京都,港区,白金１丁目２５番１８,,13,103,1080072,,,,,,,2021-08-31,1,,,,,ハナコプロジェクト,0
1863,8010405020163,新規,0,2021-08-31,2021-08-31,一般社団法人Ｂｕｓａｎ,,その他の設立登記法人,東京都,港区,虎ノ門５丁目１番４号,,13,103,1050001,,,,,,,2021-08-31,1,,,,,プサン,0
1869,8010803003868,新規,0,2021-08-31,2021-08-31,フィッシングナッツ合同会社,,合同会社,東京都,大田区,大森東４丁目２６番１号,,13,111,1430012,,,,,,,2021-08-31,1,,,,,フィッシングナッツ,0
1871,8010903006762,新規,0,2021-08-31,2021-08-31,Ｈａｒｖｅｓｔ　Ｔｒａｄｉｎｇ合同会社,,合同会社,東京都,世田谷区,桜新町１丁目１－６,,13,112,1540015,,,,,,,2021-08-31,1,,,,,ハーベストトレーディング,0
1874,8011001142582,新規,0,2021-08-31,2021-08-31,株式会社ＰｌａｎＤ,,株式会社,東京都,渋谷区,富ヶ谷１丁目４３番５－３１０号,,13,113,1510063,,,,,,,2021-08-31,1,,,,,プランディ,0
1881,8011103010968,新規,0,2021-08-31,2021-08-31,合同会社ＣＩＥＬ,,合同会社,東京都,新宿区,西新宿６丁目１５番１号セントラルパークタワー・ラトゥール新宿２６０７,,13,104,1600023,,,,,,,2021-08-31,1,,,,,シエル,0
1883,8011603003380,新規,0,2021-08-31,2021-08-31,合同会社サウスウィンド,,合同会社,東京都,練馬区,貫井３丁目５２番７号,,13,120,1760021,,,,,,,2021-08-31,1,,,,,サウスウィンド,0
1887,8011801039631,新規,0,2021-08-31,2021-08-31,楽彩株式会社,,株式会社,東京都,足立区,六町４丁目１２番１２号,,13,121,1210073,,,,,,,2021-08-31,1,,,,,ラクサイ,0
1888,8011803004757,新規,0,2021-08-31,2021-08-31,合同会社ＦＩＲＳＴ,,合同会社,東京都,葛飾区,南水元２丁目２番１０号アネックスⅠ２０５,00124061,13,122,1250035,,,,,,,2021-08-31,1,,,,,ファースト,0
1890,8012401038239,新規,0,2021-08-31,2021-08-31,経営サポーターズ株式会社,,株式会社,東京都,多摩市,落合１丁目７番１２号,,13,224,2060033,,,,,,,2021-08-31,1,,,,,ケイエイサポーターズ,0
1891,8012401038255,新規,0,2021-08-31,2021-08-31,株式会社ＨＩ　ＦＩＥＬＤ,,株式会社,東京都,三鷹市,下連雀２丁目２１番２２号,,13,204,1810013,,,,,,,2021-08-31,1,,,,,ハイフィールド,0
1892,8012701016638,新規,0,2021-08-31,2021-08-31,株式会社きむらてん,,株式会社,東京都,清瀬市,中里５丁目９０１番地１０,,13,221,2040003,,,,,,,2021-08-31,1,,,,,キムラテン,0
1893,8012801021050,新規,0,2021-08-31,2021-08-31,株式会社ＭＡＹホールディングス,,株式会社,東京都,日野市,西平山２丁目６番９７号,,13,212,1910055,,,,,,,2021-08-31,1,,,,,メイホールディングス,0
1900,8013301047858,新規,0,2021-08-31,2021-08-31,友通株式会社,,株式会社,東京都,豊島区,北大塚２丁目２４－２０,,13,116,1700004,,,,,,,2021-08-31,1,,,,,ユウツウ,0
1906,8020003020390,新規,0,2021-08-31,2021-08-31,ＳｔａｒｒｙＳｔｏｒｙ合同会社,,合同会社,神奈川県,横浜市神奈川区,七島町２６番地,,14,102,2210061,,,,,,,2021-08-31,1,,,,,スターリーストーリー,0
1920,8030001144067,新規,0,2021-08-31,2021-08-31,ＢＲＡＮＤ　ＯＮＥ株式会社,,株式会社,埼玉県,川口市,西青木３丁目３番６号,,11,203,3320035,,,,,,,2021-08-31,1,,,,,ブランドワン,0
1930,8050003006049,新規,0,2021-08-31,2021-08-31,ＡＫ　ＴＯＫＹＯ合同会社,,合同会社,茨城県,下妻市,本城町１丁目３番地シティハイツ初沢Ａ棟１０１号室,,08,210,3040064,,,,,,,2021-08-31,1,,,,,エーケートーキョー,0
1934,8080403004351,新規,0,2021-08-31,2021-08-31,合同会社フルハシ企画,,合同会社,静岡県,浜松市中区,佐鳴台１丁目１４番１６号,,22,131,4328021,,,,,,,2021-08-31,1,,,,,フルハシキカク,0
1935,8090001017168,新規,0,2021-08-31,2021-08-31,株式会社スマイリー,,株式会社,山梨県,甲府市,右左口町２２４０番地,,19,201,4001504,,,,,,,2021-08-31,1,,,,,スマイリー,0
1949,8120001239997,新規,0,2021-08-31,2021-08-31,つむぎや株式会社,,株式会社,大阪府,大阪市天王寺区,小橋町１２－１５－６０７,,27,109,5430028,,,,,,,2021-08-31,1,,,,,ツムギヤ,0
1953,8120003020100,新規,0,2021-08-31,2021-08-31,ＮＫカスタマーマーケティング合同会社,,合同会社,大阪府,大阪市中央区,南船場３丁目２－２８ＮＩＰＰＯタイヨービル５１１号,,27,128,5420081,,,,,,,2021-08-31,1,,,,,エヌケイカスタマーマーケティング,0
1966,8122003002160,新規,0,2021-08-31,2021-08-31,合同会社ワイズメド,,合同会社,大阪府,八尾市,本町１丁目５番１０号,,27,212,5810003,,,,,,,2021-08-31,1,,,,,ワイズメド,0
1972,8130001070006,新規,0,2021-08-31,2021-08-31,株式会社ツキハナ,,株式会社,京都府,京都市中京区,烏丸通六角下る七観音町６２３第１１長谷ビル２Ｆ,,26,104,6048162,,,,,,,2021-08-31,1,,,,,ツキハナ,0
1978,8140001122846,新規,0,2021-08-31,2021-08-31,株式会社ハタノ企画事務所,,株式会社,兵庫県,西宮市,甲風園１丁目５番５号増田ビル３Ｆ,,28,204,6620832,,,,,,,2021-08-31,1,,,,,ハタノキカクジムショ,0
1979,8140001122854,新規,0,2021-08-31,2021-08-31,株式会社リライズ,,株式会社,兵庫県,姫路市,飾磨区須加１７０番地,,28,201,6728063,,,,,,,2021-08-31,1,,,,,リライズ,0
1993,8200001039068,新規,0,2021-08-31,2021-08-31,株式会社Ｐｌｕｓ　Ｏｎｅ,,株式会社,岐阜県,多治見市,喜多町８丁目３５番地の１１,,21,204,5070055,,,,,,,2021-08-31,1,,,,,プラスワン,0
2001,8220001024398,新規,0,2021-08-31,2021-08-31,株式会社とみたか工業,,株式会社,石川県,白山市,西米光町ト２番地５１,,17,210,9290202,,,,,,,2021-08-31,1,,,,,トミタカコウギョウ,0
2013,8240001058502,新規,0,2021-08-31,2021-08-31,株式会社魁,,株式会社,広島県,福山市,東村町９６７番,,34,207,7290251,,,,,,,2021-08-31,1,,,,,サキガケ,0
2021,8270003001341,新規,0,2021-08-31,2021-08-31,ＵＺ合同会社,,合同会社,鳥取県,岩美郡岩美町,大字網代１１８－６１,,31,302,6810074,,,,,,,2021-08-31,1,,,,,ユーズ,0
2028,8290001094229,新規,0,2021-08-31,2021-08-31,ゆう楽株式会社,,株式会社,福岡県,福岡市早良区,百道浜３丁目３番３－１０２号,,40,137,8140001,,,,,,,2021-08-31,1,,,,,ユウラク,0
2029,8290001094402,新規,0,2021-08-31,2021-08-31,株式会社九州プロジェクト,,株式会社,福岡県,福岡市中央区,高砂２丁目１５番２２号第７ダイヨシビル１階,,40,133,8100011,,,,,,,2021-08-31,1,,,,,キュウシュウプロジェクト,0
2030,8290001094451,新規,0,2021-08-31,2021-08-31,ＹＯＲＯ株式会社,,株式会社,福岡県,久留米市,梅満町７４４番地２,,40,203,8300048,,,,,,,2021-08-31,1,,,,,ヨロ,0
2038,8320001018563,新規,0,2021-08-31,2021-08-31,株式会社Ｗｉｎｋｋｉｄｓ,,株式会社,大分県,大分市,小佐井２丁目１０番７号,,44,201,8700327,,,,,,,2021-08-31,1,,,,,ウィンクキッズ,0
2039,8320003003605,新規,0,2021-08-31,2021-08-31,合同会社良いまち不動産,,合同会社,大分県,豊後高田市,玉津１９６３番地１,,44,209,8790606,,,,,,,2021-08-31,1,,,,,,0
2048,8360001029292,新規,0,2021-08-31,2021-08-31,株式会社パイルラボ,,株式会社,沖縄県,沖縄市,泡瀬４丁目１番２６号アワセテラス１Ｆ,,47,211,9042172,,,,,,,2021-08-31,1,,,,,,0
2061,8410003003562,新規,0,2021-08-31,2021-08-31,合同会社ＯＮＥ　ＬＩＮＫ,,合同会社,秋田県,湯沢市,山田字筬ノ目６２番地,,05,207,0120055,,,,,,,2021-08-31,1,,,,,ワンリンク,0
2063,8420001017571,新規,0,2021-08-31,2021-08-31,Ａ‐ＶＥＮＴＵＲＥＳ株式会社,,株式会社,青森県,青森市,小柳３丁目１７番９号,,02,201,0300915,,,,,,,2021-08-31,1,,,,,エーベンチャーズ,0
2076,8440003001407,新規,0,2021-08-31,2021-08-31,合同会社大謀,,合同会社,北海道,函館市,木直町５２３番地,,01,202,0411602,,,,,,,2021-08-31,1,,,,,ダイボウ,0
2078,8490001009967,新規,0,2021-08-31,2021-08-31,株式会社Ｒａｔｅｌ　ｐａｒｔｎｅｒｓ,,株式会社,高知県,高知市,高須西町３番１９号,,39,201,7818114,,,,,,,2021-08-31,1,,,,,ラーテルパートナーズ,0
2082,8700150104555,新規,0,2021-08-31,2021-08-31,全国農薬業企業年金基金,,その他,埼玉県,さいたま市浦和区,高砂１丁目１－１,,11,107,3300063,,,,,,,2021-08-31,1,,,,,ゼンコクノウヤクギヨウキギヨウネンキンキキン,0
2088,9010001220777,新規,0,2021-08-31,2021-08-31,令和商事株式会社,,株式会社,東京都,中央区,新川１丁目２１番８号,,13,102,1040033,,,,,,,2021-08-31,1,,,,,レイワショウジ,0
2089,9010001220802,新規,0,2021-08-31,2021-08-31,株式会社ＳＥＣＯＮＤ,,株式会社,東京都,中央区,東日本橋２丁目２番１３－９０２号,,13,102,1030004,,,,,,,2021-08-31,1,,,,,セカンド,0
2093,9010003035703,新規,0,2021-08-31,2021-08-31,合同会社ＷＴ,,合同会社,東京都,中央区,入船３丁目１番６号,,13,102,1040042,,,,,,,2021-08-31,1,,,,,ダブルューティー,0
2094,9010005033886,新規,0,2021-08-31,2021-08-31,ＩＣＣ税理士法人,,その他の設立登記法人,東京都,千代田区,三番町１番地１７パークサイドアネックス４Ｂ,,13,101,1020075,,,,,,,2021-08-31,1,,,,,アイシーシー,0
2095,9010103001761,新規,0,2021-08-31,2021-08-31,合同会社靖道,00124060,合同会社,東京都,八王子市,下恩方町６７６番地６,,13,201,1920154,,,,,,,2021-08-31,1,,,,,ヤスミチ,0
2104,9010401162388,新規,0,2021-08-31,2021-08-31,株式会社エスト二アン・ジャパン・トレーディング・カンパニー日本,,株式会社,東京都,港区,六本木７丁目１１番４号六本木ＢＬＥＳＳ２０４,,13,103,1060032,,,,,,,2021-08-31,1,,,,,エストニアンジャパントレーディングカンパニーニッポン,0
2105,9010401162405,新規,0,2021-08-31,2021-08-31,株式会社メイゲンソ,,株式会社,東京都,港区,赤坂１丁目９番１３号,,13,103,1070052,,,,,,,2021-08-31,1,,,,,メイゲンソ,0
2106,9010401162421,新規,0,2021-08-31,2021-08-31,株式会社シンビオシスパートナーズ,,株式会社,東京都,港区,北青山２丁目７番１３号プラセオ青山ビル３階,,13,103,1070061,,,,,,,2021-08-31,1,,,,,シンビオシスパートナーズ,0
2108,9010403025980,新規,0,2021-08-31,2021-08-31,合同会社ＦＭＤ,,合同会社,東京都,港区,赤坂２丁目１２番１１号シャルマン赤坂４０２,,13,103,1070052,,,,,,,2021-08-31,1,,,,,エフエムディー,0
2109,9010403025997,新規,0,2021-08-31,2021-08-31,Ａｄｍｅｓｙ　Ｊａｐａｎ合同会社,,合同会社,東京都,港区,元麻布３丁目１番６号,,13,103,1060046,,,,,,,2021-08-31,1,,,,,アドメシージャパン,0
2110,9010403026013,新規,0,2021-08-31,2021-08-31,合同会社Ａｒｇｏ,,合同会社,東京都,港区,虎ノ門５丁目１番４号,,13,103,1050001,,,,,,,2021-08-31,1,,,,,アーゴ,0
2111,9010405020162,新規,0,2021-08-31,2021-08-31,一般社団法人Ｌｏｓ　Ａｎｇｅｌｅｓ,,その他の設立登記法人,東京都,港区,虎ノ門５丁目１番４号,,13,103,1050001,,,,,,,2021-08-31,1,,,,,ロサンゼルス,0
2112,9010501047761,新規,0,2021-08-31,2021-08-31,東洋プリンター株式会社,,株式会社,東京都,台東区,雷門２丁目６番２号マーナマリー浅草雷門ビル５階,,13,106,1110034,,,,,,,2021-08-31,1,,,,,トウヨウプリンター,0
2119,9010703005922,新規,0,2021-08-31,2021-08-31,合同会社そらヘルパーステーション,,合同会社,東京都,品川区,平塚１丁目６番４号長谷川ハイツ１０３号,,13,109,1420051,,,,,,,2021-08-31,1,,,,,ソラヘルパーステーション,0
2133,9011003013285,新規,0,2021-08-31,2021-08-31,合同会社ＭＩＳ,,合同会社,東京都,渋谷区,恵比寿４丁目７番６号,,13,113,1500013,,,,,,,2021-08-31,1,,,,,エムアイエス,0
2136,9011103010967,新規,0,2021-08-31,2021-08-31,合同会社トゥリーオブライフ,,合同会社,東京都,新宿区,新宿１丁目３６番２号新宿第七葉山ビル３階,,13,104,1600022,,,,,,,2021-08-31,1,,,,,トゥリーオブライフ,0
2145,9011501027266,新規,0,2021-08-31,2021-08-31,株式会社アイエヌ,,株式会社,東京都,荒川区,西日暮里６丁目４２番１号,,13,118,1160013,,,,,,,2021-08-31,1,,,,,アイエヌ,0
2155,9011801039639,新規,0,2021-08-31,2021-08-31,株式会社ＫＯＨネクストディベロップメント,,株式会社,東京都,足立区,興野２丁目２７番９号,,13,121,1230844,,,,,,,2021-08-31,1,,,,,コーネクストディベロップメント,0
2158,9011803004756,新規,0,2021-08-31,2021-08-31,合同会社ＭＭＮ．ｃｏｍｐａｎｙ,,合同会社,東京都,足立区,千住寿町２番１７号松岡ビル７階,,13,121,1200033,,,,,,,2021-08-31,1,,,,,エムエムエヌドットカンパニー,0
2161,9012401038254,新規,0,2021-08-31,2021-08-31,株式会社オールラウンダー,,株式会社,東京都,武蔵野市,吉祥寺東町２丁目１５番７号,,13,203,1800002,,,,,,,2021-08-31,1,,,,,オールラウンダー,0
2171,9020001142780,新規,0,2021-08-31,2021-08-31,株式会社山八創建,,株式会社,神奈川県,川崎市宮前区,南野川１丁目３３番２３号ベルウッド野川３１０,,14,136,2160042,,,,,,,2021-08-31,1,,,,,ヤマハチソウケン,0
2172,9020001142814,新規,0,2021-08-31,2021-08-31,株式会社ＰＲＯＧＲＥＳＳ,,株式会社,神奈川県,川崎市中原区,丸子通１丁目６６５番地,,14,133,2110006,,,,,,,2021-08-31,1,,,,,,0
2175,9020003020381,新規,0,2021-08-31,2021-08-31,ストレート合同会社,,合同会社,神奈川県,横浜市港南区,港南３丁目９番２７号,,14,111,2330003,,,,,,,2021-08-31,1,,,,,ストレート,0
2179,9021001073801,新規,0,2021-08-31,2021-08-31,ランタン株式会社,,株式会社,神奈川県,厚木市,宮の里４丁目４番４号,,14,212,2430216,,,,,,,2021-08-31,1,,,,,ランタン,0
2189,9030001144066,新規,0,2021-08-31,2021-08-31,銘源国際商事株式会社,,株式会社,埼玉県,さいたま市緑区,松木３丁目１４番地６４,,11,109,3360918,,,,,,,2021-08-31,1,,,,,メイゲンコクサイショウジ,0
2190,9030001144074,新規,0,2021-08-31,2021-08-31,ネオリンクス株式会社,,株式会社,埼玉県,桶川市,大字上日出谷７２６番地の１０,,11,231,3630026,,,,,,,2021-08-31,1,,,,,ネオリンクス,0
2195,9030003017765,新規,0,2021-08-31,2021-08-31,合同会社Ｌｉｌｕｘｒｙ,,合同会社,埼玉県,鴻巣市,下忍３４９７,,11,217,3690113,,,,,,,2021-08-31,1,,,,,リラキュリー,0
2205,9050001049767,新規,0,2021-08-31,2021-08-31,株式会社山本クレーンサービス,,株式会社,茨城県,日立市,田尻町４丁目３７番７号,,08,202,3191416,,,,,,,2021-08-31,1,,,,,ヤマモトクレーンサービス,0
2215,9090003001929,新規,0,2021-08-31,2021-08-31,合同会社天然福,,合同会社,山梨県,南都留郡山中湖村,山中２９５番４２,,19,425,4010501,,,,,,,2021-08-31,1,,,,,テンネンフク,0
2225,9120001240005,新規,0,2021-08-31,2021-08-31,株式会社幸嬉社,,株式会社,大阪府,大阪市西区,北堀江１丁目６番５号大輪ビル７階７Ａ室,,27,106,5500014,,,,,,,2021-08-31,1,,,,,コウキシャ,0
2226,9120001240062,新規,0,2021-08-31,2021-08-31,株式会社夢のたね,,株式会社,大阪府,大阪市中央区,東心斎橋１丁目２番１７号７階,,27,128,5420083,,,,,,,2021-08-31,1,,,,,ユメノタネ,0
2230,9120101064213,新規,0,2021-08-31,2021-08-31,株式会社ＴＩＡＭ,,株式会社,大阪府,岸和田市,下松町１丁目１番１５号,,27,202,5960823,,,,,,,2021-08-31,1,,,,,ティーアイエーエム,0
2232,9120901044827,新規,0,2021-08-31,2021-08-31,株式会社チャチャ・スタジオ,,株式会社,大阪府,高槻市,若松町２７番６号,,27,207,5690054,,,,,,,2021-08-31,1,,,,,チャチャスタジオ,0
2238,9130001070005,新規,0,2021-08-31,2021-08-31,株式会社リアルスタイル,,株式会社,京都府,京都市上京区,今小路通七本松西入末之口町４４８番地１２メゾン・ド・エフ１階,,26,102,6028382,,,,,,,2021-08-31,1,,,,,リアルスタイル,0
2262,9170001016739,新規,0,2021-08-31,2021-08-31,幸和不動産株式会社,,株式会社,和歌山県,紀の川市,名手市場２７８番地１,,30,208,6496631,,,,,,,2021-08-31,1,,,,,コウワフドウサン,0
2270,9180001147582,新規,0,2021-08-31,2021-08-31,株式会社松屋,,株式会社,愛知県,半田市,北二ツ坂町３丁目８番地１１,,23,205,4750927,,,,,,,2021-08-31,1,,,,,マツヤ,0
2280,9200001039059,新規,0,2021-08-31,2021-08-31,株式会社尚一,,株式会社,岐阜県,各務原市,鵜沼西町１丁目４０７番地２,,21,213,5090132,,,,,,,2021-08-31,1,,,,,ナオイチ,0
2283,9210003001404,新規,0,2021-08-31,2021-08-31,合同会社ｍ．ｂｒｉｌｌｅｒ,,合同会社,福井県,鯖江市,神明町３丁目８番３２号,,18,207,9160017,,,,,,,2021-08-31,1,,,,,エムドットブリエ,0
2284,9220001024397,新規,0,2021-08-31,2021-08-31,株式会社共和ワークスタイル,,株式会社,石川県,小松市,安宅新町ナ９０番地１,,17,203,9230995,,,,,,,2021-08-31,1,,,,,キョウワワークスタイル,0
2299,9240005015259,新規,0,2021-08-31,2021-08-31,一般社団法人筋バランスストレッチ協会,,その他の設立登記法人,広島県,三原市,宮浦３丁目３２番１５号,,34,204,7230051,,,,,,,2021-08-31,1,,,,,キンバランスストレッチキョウカイ,0
2303,9260001035911,新規,0,2021-08-31,2021-08-31,楓工業株式会社,,株式会社,岡山県,倉敷市,中島５８４番地５,,33,202,7100803,,,,,,,2021-08-31,1,,,,,カエデコウギョウ,0
2311,9290001094418,新規,0,2021-08-31,2021-08-31,ディーピーエス株式会社,,株式会社,福岡県,那珂川市,道善５丁目２７番地１,,40,231,8111254,,,,,,,2021-08-31,1,,,,,ディーピーエス,0
2313,9290005018323,新規,0,2021-08-31,2021-08-31,ＮＰＯ法人動物愛護団体ＮＹＡＮＳ,,その他の設立登記法人,福岡県,福岡市中央区,高砂１丁目１５番２７号西南ビル２０２号,,40,133,8100011,,,,,,,2021-08-31,1,,,,,ドウブツアイゴダンタイニャンズ,0
2314,9300001012609,新規,0,2021-08-31,2021-08-31,株式会社たからＤＡＫＡＲＡ,,株式会社,佐賀県,三養基郡みやき町,大字江口２５２９番地５６,,41,346,8490112,,,,,,,2021-08-31,1,,,,,タカラダカラ,0
2315,9310001017433,新規,0,2021-08-31,2021-08-31,株式会社Ｂｅｔｔｅｒ,,株式会社,長崎県,長崎市,浜町１１番１９号ＯＩＤＥＯＩＤＥビル３Ｆ,,42,201,8500853,,,,,,,2021-08-31,1,,,,,ベター,0
2341,9370001047532,新規,0,2021-08-31,2021-08-31,株式会社新建,,株式会社,宮城県,仙台市泉区,旭丘堤２丁目１７－９ファミーユ黒松１０３,,04,105,9818004,,,,,,,2021-08-31,1,,,,,,0
2351,9410001012944,新規,0,2021-08-31,2021-08-31,株式会社Ｍｉｌｋ．,,株式会社,秋田県,大館市,御成町２丁目１９番２６号,,05,204,0170044,,,,,,,2021-08-31,1,,,,,ミルク,0
2363,9700150104546,新規,0,2021-08-31,2021-08-31,インターフェイス・アジアパシフィック・ホンコン・リミテッド,,外国会社等,東京都,港区,虎ノ門５丁目１番４号東都ビル６０１Ａ,,13,103,1050001,中華人民共和国香港特別行政区グローセスターロード５０マレーシアビル１０階１００１号室,,,,,,2021-08-31,1,,,,,インターフエイスアジアパシフイツクホンコンリミテツド,0
2364,9700150104554,新規,0,2021-08-31,2021-08-31,Ｍａｘｉｍ　Ｉｎｔｅｇｒａｔｅｄ　Ｐｒｏｄｕｃｔｓ，Ｉｎｔｅｒｎａｔｉｏｎａｌ　Ｌｔｄ．,,外国会社等,,,,,,,,Ｂｅａｖｅｒ　Ｈｏｕｓｅ，Ｂｅａｃｈ　Ｈｉｌｌ　Ｏｆｆｉｃｅ　Ｃａｍｐｕｓ，Ｃｌｏｎｓｋｅａｇｈ，Ｄｕｂｌｉｎ　４　Ｉｒｅｌａｎｄ,,,,,,2021-08-31,1,,,,,マキシムインテグレイテツドプロダクツインターナシヨナルエルテイデイ,0
