sequenceNumber,corporateNumber,process,correct,updateDate,changeDate,name,nameImageId,kind,prefectureName,cityName,streetNumber,addressImageId,prefectureCode,cityCode,postCode,addressOutside,addressOutsideImageId,closeDate,closeCause,successorCorporateNumber,changeCause,assignmentDate,latest,enName,enPrefectureName,enCityName,enAddressOutside,furigana,hihyoji
14,1010401175496,登記記録の閉鎖等,0,2023-12-11,2023-12-07,株式会社ＰＲＣ,,株式会社,東京都,港区,東新橋２丁目１２番１号,,13,103,1050021,,,2023-12-07,合併による解散等,4050002002853,令和５年１２月１日茨城県水戸市城南一丁目７番５号株式会社プリンス（4050002002853）に合併し解散,2023-07-05,1,,,,,ピーアールシー,0
18,1010601022151,登記記録の閉鎖等,0,2023-12-11,2023-12-06,株式会社オークスユナイテッド,,株式会社,東京都,江東区,亀戸２丁目３番１７号,,13,108,1360071,,,2023-12-06,清算の結了等,,,2015-10-05,1,,,,,,0
19,1010601032051,登記記録の閉鎖等,0,2023-12-11,2023-12-06,株式会社アールセンス,,株式会社,東京都,江東区,亀戸６丁目３０番４号,,13,108,1360071,,,2023-12-06,清算の結了等,,,2015-10-05,1,,,,,,0
29,1011001024671,登記記録の閉鎖等,0,2023-12-11,2023-12-05,株式会社ワニブックス出版サービス,,株式会社,東京都,渋谷区,恵比寿４丁目４番９号,,13,113,1500013,,,2023-12-05,清算の結了等,,,2015-10-05,1,,,,,ワニブックスシュッパンサービス,0
32,1011001146730,登記記録の閉鎖等,0,2023-12-11,2023-12-05,株式会社ＰＬＵＧ,,株式会社,東京都,渋谷区,渋谷２丁目１４番１３号岡崎ビル,,13,113,1500002,,,2023-12-05,合併による解散等,9011001113863,令和５年１１月１５日東京都渋谷区恵比寿四丁目２０番４号恵比寿ガーデンプレイスグラススクエア内ＰＯＲＴＡＬＰＯＩＮＴ．Ｈ６株式会社ＢＨＫ（9011001113863）に合併し解散,2022-04-08,1,,,,,プラグ,0
50,1011402010262,登記記録の閉鎖等,0,2023-12-11,2023-12-06,有限会社ネージュ,,有限会社,東京都,板橋区,西台４丁目４番３－１４０６号,,13,119,1750045,,,2023-12-06,清算の結了等,,,2015-10-05,1,,,,,ネージュ,0
53,1011501020930,登記記録の閉鎖等,0,2023-12-11,2023-12-04,株式会社ＴＯＫＹＯ流,,株式会社,埼玉県,鴻巣市,鎌塚５丁目５－３８,,11,217,3690112,,,2023-12-04,清算の結了等,,,2015-10-05,1,,,,,トウキョウリュウ,0
87,1030002080945,登記記録の閉鎖等,0,2023-12-11,2023-11-24,有限会社マイホットプランニング,,有限会社,埼玉県,本庄市,牧西３９０番地３,,11,211,3670015,,,2023-11-24,清算の結了等,,,2015-10-05,1,,,,,マイホットプランニング,0
134,1120002037903,登記記録の閉鎖等,0,2023-12-11,2023-12-08,有限会社羽田商会,,有限会社,大阪府,大阪市中央区,日本橋２丁目１番３４号,,27,128,5420073,,,2023-12-08,清算の結了等,,,2015-10-05,1,,,,,ハネダショウカイ,0
137,1120002079350,登記記録の閉鎖等,0,2023-12-11,2023-12-07,有限会社今村商会,,有限会社,大阪府,門真市,小路町２２番１６号,,27,223,5710058,,,2023-12-07,清算の結了等,,,2015-10-05,1,,,,,イマムラショウカイ,0
144,1120901009498,登記記録の閉鎖等,0,2023-12-11,2023-12-05,株式会社伸栄,,株式会社,大阪府,摂津市,鳥飼八防１丁目１６番７号,,27,224,5660054,,,2023-12-05,清算の結了等,,,2015-10-05,1,,,,,シンエイ,0
146,1120901019761,登記記録の閉鎖等,0,2023-12-11,2023-12-05,株式会社タムラ,,株式会社,大阪府,池田市,城南３丁目３番１２号,,27,204,5630025,,,2023-12-05,清算の結了等,,,2015-10-05,1,,,,,タムラ,0
147,1120901028226,登記記録の閉鎖等,0,2023-12-11,2023-12-05,株式会社金原製作所,,株式会社,大阪府,豊中市,北条町１丁目１０番１８号,,27,203,5610812,,,2023-12-05,清算の結了等,,,2015-10-05,1,,,,,カネハラセイサクショ,0
170,1180002063555,登記記録の閉鎖等,0,2023-12-11,2023-12-07,有限会社山藤,,有限会社,愛知県,名古屋市中区,上前津２丁目５－２５,,23,106,4600013,,,2023-12-07,清算の結了等,,,2015-10-05,1,,,,,サントウ,0
181,1230001001527,登記記録の閉鎖等,0,2023-12-11,2023-12-08,株式会社トミカ,,株式会社,富山県,富山市,下奥井２丁目４番１号,,16,201,9300817,,,2023-12-08,清算の結了等,,,2015-10-05,1,,,,,トミカ,0
187,1240002030029,登記記録の閉鎖等,0,2023-12-11,2023-12-07,芸備観光有限会社,,有限会社,広島県,三次市,十日市中１丁目７番１４号,,34,209,7280012,,,2023-12-07,清算の結了等,,,2015-10-05,1,,,,,ゲイビカンコウ,0
195,1260002001449,登記記録の閉鎖等,0,2023-12-11,2023-12-06,有限会社エヌアンドケイ,,有限会社,岡山県,岡山市北区,平野１００１番地の２,,33,101,7010151,,,2023-12-06,清算の結了等,,,2015-10-05,1,,,,,エヌアンドケイ,0
208,1350001016703,登記記録の閉鎖等,0,2023-12-11,2023-12-06,株式会社ハード,,株式会社,宮崎県,宮崎市,末広１丁目３番６号プチメゾン末広５０７号室,,45,201,8800012,,,2023-12-06,清算の結了等,,,2020-10-29,1,,,,,ハード,0
211,1380001011684,登記記録の閉鎖等,0,2023-12-11,2023-12-05,株式会社テプロ,,株式会社,福島県,岩瀬郡鏡石町,深内町４６番３１,,07,342,9690401,,,2023-12-05,清算の結了等,,,2015-10-05,1,,,,,テプロ,0
214,1400005003642,登記記録の閉鎖等,0,2023-12-11,2023-12-01,北上市駅前商店街振興組合,,その他の設立登記法人,岩手県,北上市,大通り１丁目２番２２号,,03,206,0240061,,,2023-12-01,清算の結了等,,,2015-10-05,1,,,,,キタカミシエキマエ,0
221,1430002029159,登記記録の閉鎖等,0,2023-12-11,2023-12-04,有限会社吉川商店,,有限会社,北海道,札幌市北区,篠路九条４丁目３番２０号,,01,102,0028029,,,2023-12-04,清算の結了等,,,2015-10-05,1,,,,,ヨシカワショウテン,0
227,1470001002872,登記記録の閉鎖等,0,2023-12-11,2023-12-07,株式会社デジタル・キャロル,,株式会社,香川県,高松市,栗林町１丁目８番１２号,,37,201,7600073,,,2023-12-07,清算の結了等,,,2015-10-05,1,,,,,デジタルキャロル,0
229,1470002005981,登記記録の閉鎖等,0,2023-12-11,2023-12-07,有限会社プレイタウン,,有限会社,香川県,高松市,常磐町２丁目５番地２９,,37,201,7600054,,,2023-12-07,清算の結了等,,,2015-10-05,1,,,,,プレイタウン,0
230,1480002003670,登記記録の閉鎖等,0,2023-12-11,2023-12-07,有限会社新田無線,,有限会社,徳島県,徳島市,津田本町２丁目３番４９号,,36,201,7708003,,,2023-12-07,清算の結了等,,,2015-10-05,1,,,,,ニッタムセン,0
233,1500001005590,登記記録の閉鎖等,0,2023-12-11,2023-12-07,松山セーフティーウォーター株式会社,,株式会社,愛媛県,松山市,三番町７丁目１３番地１３,,38,201,7900003,,,2023-12-07,清算の結了等,,,2015-10-05,1,,,,,マツヤマセーフティーウォーター,0
242,2010001128275,登記記録の閉鎖等,0,2023-12-11,2023-12-06,新聯貿易株式会社,,株式会社,東京都,中央区,東日本橋２丁目１３番５号秋山ビル７Ｆ,,13,102,1030004,,,2023-12-06,清算の結了等,,,2015-10-05,1,,,,,シンレンボウエキ,0
248,2010001189466,登記記録の閉鎖等,0,2023-12-11,2023-12-06,上海紡織日本株式会社ＳＨＡＮＧＴＥＸ　ＪＡＰＡＮ　ＣＯ．，ＬＴＤ．,,株式会社,東京都,中央区,東日本橋２丁目１３番５号秋山ビル７Ｆ,,13,102,1030004,,,2023-12-06,清算の結了等,,,2018-02-07,1,,,,,シャンハイボウショクニホンシャンテックスジャパンコリミテッド,0
258,2010401077675,登記記録の閉鎖等,0,2023-12-11,2023-12-05,アキラ商事株式会社,,株式会社,東京都,港区,芝５丁目３３番１号,,13,103,1080014,,,2023-12-05,清算の結了等,,,2015-10-05,1,,,,,アキラショウジ,0
274,2010703004996,登記記録の閉鎖等,0,2023-12-11,2023-12-06,合同会社Ｊａｓｍｉｎｅ,,合同会社,東京都,練馬区,西大泉４丁目１０番１６号,,13,120,1780065,,,2023-12-06,清算の結了等,,,2019-10-31,1,,,,,ジャスミン,0
281,2011103004538,登記記録の閉鎖等,0,2023-12-11,2023-12-06,ティーダ・パワー３３合同会社,,合同会社,東京都,新宿区,西新宿２丁目１番１号新宿三井ビル４３階,,13,104,1600023,,,2023-12-06,清算の結了等,,,2015-10-05,1,,,,,ティーダパワーサンサン,0
282,2011103005296,登記記録の閉鎖等,0,2023-12-11,2023-12-06,ティーダ・パワー７７合同会社,,合同会社,東京都,新宿区,西新宿２丁目１番１号新宿三井ビル４３階,,13,104,1600023,,,2023-12-06,清算の結了等,,,2015-10-05,1,,,,,ティーダパワーナナナナ,0
286,2011402008124,登記記録の閉鎖等,0,2023-12-11,2023-12-07,有限会社マイシステム,,有限会社,東京都,板橋区,西台１丁目１４番４号,,13,119,1740045,,,2023-12-07,清算の結了等,,,2015-10-05,1,,,,,マイシステム,0
289,2011502001656,登記記録の閉鎖等,0,2023-12-11,2023-12-07,近代アクセスワーク有限会社,,有限会社,東京都,北区,西が丘１丁目１０番１８号,,13,117,1150056,,,2023-12-07,清算の結了等,,,2015-10-05,1,,,,,キンダイアクセスワーク,0
295,2012401000996,登記記録の閉鎖等,0,2023-12-11,2023-12-06,株式会社高張工務店,,株式会社,東京都,府中市,日新町２丁目１番地の２２,,13,206,1830036,,,2023-12-06,清算の結了等,,,2015-10-05,1,,,,,タカハリコウムテン,0
297,2012402022726,登記記録の閉鎖等,0,2023-12-11,2023-12-05,有限会社シュンプランニング,,有限会社,東京都,三鷹市,下連雀３丁目３４番８号,,13,204,1810013,,,2023-12-05,清算の結了等,,,2015-10-05,1,,,,,シュンプランニング,0
299,2012701008962,登記記録の閉鎖等,0,2023-12-11,2023-12-04,株式会社Ｋ＆Ｋ外装,,株式会社,東京都,西東京市,向台町６丁目５番１４号,,13,229,1880013,,,2023-12-04,清算の結了等,,,2015-10-05,1,,,,,ケーアンドケーガイソウ,0
300,2013402002684,登記記録の閉鎖等,0,2023-12-11,2023-12-05,有限会社ナミキフローリスト,,有限会社,東京都,多摩市,和田１７５１番地,,13,224,2060001,,,2023-12-05,清算の結了等,,,2015-10-05,1,,,,,ナミキフローリスト,0
317,2030002009729,登記記録の閉鎖等,0,2023-12-11,2023-12-01,有限会社トータルペットケアー,,有限会社,埼玉県,さいたま市見沼区,大字東門前１７番地９,,11,104,3370016,,,2023-12-01,清算の結了等,,,2015-10-05,1,,,,,トータルペットケアー,0
320,2030003018051,登記記録の閉鎖等,0,2023-12-11,2023-12-01,合同会社西原信之事務所,,合同会社,埼玉県,東松山市,日吉町１６番５号,,11,212,3550012,,,2023-12-01,清算の結了等,,,2021-10-01,1,,,,,ニシハラノブユキジムショ,0
325,2040001034925,登記記録の閉鎖等,0,2023-12-11,2023-12-05,株式会社エイオーシー,,株式会社,千葉県,松戸市,松戸新田４４７番地の２２,,12,207,2702241,,,2023-12-05,清算の結了等,,,2015-10-05,1,,,,,エイオーシー,0
352,2110002021584,登記記録の閉鎖等,0,2023-12-11,2023-11-30,有限会社スエヒロファーム,,有限会社,新潟県,村上市,高根７９３番地,,15,212,9580211,,,2023-11-30,清算の結了等,,,2015-10-05,1,,,,,スエヒロファーム,0
384,2160003002752,登記記録の閉鎖等,0,2023-12-11,2023-12-01,合同会社ｋｕｐｕ,,合同会社,滋賀県,大津市,中央１丁目８－３２レジデンス大津５０４号,,25,201,5200043,,,2023-12-01,合併による解散等,5130003007322,令和５年１２月１日滋賀県大津市大萱一丁目１３番６号ＳＨＩＧＥＣＨＳＥＴＡ２階合同会社ａｎｄ　ｍｏｒｅ（5130003007322）に合併し解散,2022-12-06,1,,,,,クプ,0
385,2180001074692,登記記録の閉鎖等,0,2023-12-11,2023-12-05,日幸建鉄株式会社,,株式会社,愛知県,春日井市,宮町字宮町８０番地の１,,23,206,4860904,,,2023-12-05,清算の結了等,,,2015-10-05,1,,,,,ニッコウケンテツ,0
387,2180001120901,登記記録の閉鎖等,0,2023-12-11,2023-12-04,株式会社Ｍｅｄｉｃａｌ　Ｅａｒｔｈｉｎｇ,,株式会社,愛知県,名古屋市西区,菊井１丁目１９番２３号,,23,104,4510044,,,2023-12-04,清算の結了等,,,2015-11-10,1,,,,,メディカルアーシング,0
392,2180002080252,登記記録の閉鎖等,0,2023-12-11,2023-12-05,有限会社エヌシステム,,有限会社,愛知県,稲沢市,祖父江町祖父江中屋敷１９３番地の２,,23,220,4950001,,,2023-12-05,清算の結了等,,,2015-10-05,1,,,,,エヌシステム,0
393,2180003014894,登記記録の閉鎖等,0,2023-12-11,2023-11-27,合同会社らくケア,,合同会社,愛知県,名古屋市北区,川中町２２－４３、１階,,23,103,4620022,,,2023-11-27,清算の結了等,,,2015-10-05,1,,,,,ラクケア,0
394,2180003017253,登記記録の閉鎖等,0,2023-12-11,2023-12-06,合同会社ｙｙｓｅ,,合同会社,愛知県,名古屋市南区,豊１丁目２３番２２号,,23,112,4570863,,,2023-12-06,清算の結了等,,,2016-07-26,1,,,,,ワイワイエスイー,0
398,2180302016344,登記記録の閉鎖等,0,2023-12-11,2023-12-06,有限会社市古製作所,,有限会社,愛知県,安城市,東端町南用地１９番地,,23,212,4441213,,,2023-12-06,清算の結了等,,,2015-10-05,1,,,,,イチコセイサクショ,0
399,2180303004587,登記記録の閉鎖等,0,2023-12-11,2023-12-06,合同会社ラダー,,合同会社,愛知県,蒲郡市,金平町大門６番地５,,23,214,4430102,,,2023-12-06,清算の結了等,,,2020-03-27,1,,,,,ラダー,0
400,2190002002271,登記記録の閉鎖等,0,2023-12-11,2023-12-06,有限会社佐藤商店,,有限会社,三重県,津市,河芸町影重１１３８番地,,24,201,5100307,,,2023-12-06,清算の結了等,,,2015-10-05,1,,,,,,0
403,2210001002864,登記記録の閉鎖等,0,2023-12-11,2023-12-07,株式会社春英商事,,株式会社,福井県,坂井市,春江町金剛寺第７号６番地,,18,210,9190471,,,2023-12-07,清算の結了等,,,2015-10-05,1,,,,,ハルエショウジ,0
414,2290003006443,登記記録の閉鎖等,0,2023-12-11,2023-12-04,合同会社マインドフルネス・コンパッションアカデミー,,合同会社,福岡県,福岡市中央区,黒門２番５－６０２号,,40,133,8100055,,,2023-12-04,清算の結了等,,,2016-04-26,1,,,,,マインドフルネスコンパッションアカデミー,0
416,2290801013046,登記記録の閉鎖等,0,2023-12-11,2023-12-08,株式会社ＡＭＣコラボ,,株式会社,福岡県,北九州市八幡西区,菅原町５番１号１階,,40,109,8060027,,,2023-12-08,清算の結了等,,,2015-10-05,1,,,,,エイエムシーコラボ,0
417,2290802022979,登記記録の閉鎖等,0,2023-12-11,2023-12-06,有限会社ビィアーゴウ,,有限会社,福岡県,京都郡苅田町,大字与原１３１番地の２,,40,621,8000323,,,2023-12-06,清算の結了等,,,2015-10-05,1,,,,,ビィアーゴウ,0
418,2320002005244,登記記録の閉鎖等,0,2023-12-11,2023-12-08,有限会社丹生弥平製陶所,,有限会社,大分県,大分市,坂ノ市南４丁目７番１８号,,44,201,8700308,,,2023-12-08,清算の結了等,,,2015-10-05,1,,,,,ニュウヤヘイセイトウショ,0
452,3010001037236,登記記録の閉鎖等,0,2023-12-11,2023-12-01,株式会社女性総研,,株式会社,東京都,中央区,築地２丁目１２番１０号ビルネット築地ビル５階,,13,102,1040045,,,2023-12-01,合併による解散等,2010001035018,令和５年１２月１日東京都中央区築地二丁目１２番１０号ビルネット築地ビル５階株式会社朝日エル（2010001035018）に合併し解散,2015-10-05,1,,,,,ジョセイソウケン,0
467,3010802015984,登記記録の閉鎖等,0,2023-12-11,2023-12-06,有限会社ワタベ,,有限会社,東京都,大田区,本羽田２丁目１２番２号,,13,111,1440044,,,2023-12-06,清算の結了等,,,2015-10-05,1,,,,,ワタベ,0
468,3010803004004,登記記録の閉鎖等,0,2023-12-11,2023-12-06,合同会社Ｃｈａｒｉｔｅｓ,,合同会社,東京都,大田区,大森西４丁目１２－１９,,13,111,1430015,,,2023-12-06,清算の結了等,,,2021-12-28,1,,,,,カリテス,0
471,3010901048456,登記記録の閉鎖等,0,2023-12-11,2023-12-01,ｃｏｃｏｎｅ　ｃｏｎｎｅｃｔ株式会社,,株式会社,東京都,世田谷区,若林３丁目１番１８号,,13,112,1540023,,,2023-12-01,合併による解散等,9010901052997,令和５年１２月１日東京都世田谷区若林三丁目１番１８号ココネ株式会社（9010901052997）に合併し解散,2021-04-08,1,,,,,ココネコネクト,0
475,3011001146729,登記記録の閉鎖等,0,2023-12-11,2023-12-05,株式会社ＶＩＢＥＳ,,株式会社,東京都,渋谷区,恵比寿４丁目２０－４恵比寿ガーデンプレイスグラススクエア内Ｂ１．ＰＯＲＴＡＬＰＯＩＮＴ,,13,113,1500013,,,2023-12-05,合併による解散等,9011001113863,令和５年１１月１５日東京都渋谷区恵比寿四丁目２０番４号恵比寿ガーデンプレイスグラススクエア内ＰＯＲＴＡＬＰＯＩＮＴ．Ｈ６株式会社ＢＨＫ（9011001113863）に合併し解散,2022-04-08,1,,,,,バイブス,0
484,3011102020709,登記記録の閉鎖等,0,2023-12-11,2023-12-06,有限会社若井運送店,,有限会社,東京都,新宿区,上落合３丁目２０番１号,,13,104,1610034,,,2023-12-06,清算の結了等,,,2015-10-05,1,,,,,ワカイウンソウテン,0
501,3012302007223,登記記録の閉鎖等,0,2023-12-11,2023-12-08,有限会社ｃｏｍｐｌｅｘｉｏｎ,,有限会社,東京都,町田市,原町田４丁目３番６号土方ビル４階,,13,209,1940013,,,2023-12-08,清算の結了等,,,2015-10-05,1,,,,,,0
518,3030001024166,登記記録の閉鎖等,0,2023-12-11,2023-12-05,株式会社佐久間材木店,,株式会社,埼玉県,所沢市,堀之内１７２８番地２,,11,208,3591165,,,2023-12-05,清算の結了等,,,2015-10-05,1,,,,,サクマザイモクテン,0
520,3030001033695,登記記録の閉鎖等,0,2023-12-11,2023-12-06,Ｍ＆Ｅシステム株式会社,,株式会社,埼玉県,加須市,水深１００８番地,,11,210,3470022,,,2023-12-06,清算の結了等,,,2015-10-05,1,,,,,エムアンドイー,0
525,3030001081620,登記記録の閉鎖等,0,2023-12-11,2023-12-04,株式会社スカイコミュニケーション,,株式会社,埼玉県,草加市,長栄２丁目４０番地５,,11,221,3400051,,,2023-12-04,清算の結了等,,,2015-10-05,1,,,,,スカイコミュニケーション,0
526,3030001087023,登記記録の閉鎖等,0,2023-12-11,2023-12-07,日本生化学藥品株式会社,,株式会社,埼玉県,行田市,大字荒木１７２２番地１,,11,206,3610011,,,2023-12-07,清算の結了等,,,2015-10-05,1,,,,,ニホンセイカガクヤクヒン,0
537,3040001065952,登記記録の閉鎖等,0,2023-12-11,2023-12-04,株式会社タナカ,,株式会社,千葉県,柏市,東中新宿１丁目２４番１０号,,12,217,2770061,,,2023-12-04,清算の結了等,,,2015-10-05,1,,,,,タナカ,0
540,3040003004388,登記記録の閉鎖等,0,2023-12-11,2023-12-05,合同会社グリーンマッセルプラニング,,合同会社,千葉県,佐倉市,山王２丁目１２番地９,,12,212,2850807,,,2023-12-05,清算の結了等,,,2015-10-05,1,,,,,グリーンマッセルプランニング,0
544,3050001013316,登記記録の閉鎖等,0,2023-12-11,2023-12-04,株式会社こめや商事,,株式会社,茨城県,下妻市,高道祖４４５３番地２,,08,210,3040031,,,2023-12-04,清算の結了等,,,2015-10-05,1,,,,,コメヤショウジ,0
545,3050001022820,登記記録の閉鎖等,0,2023-12-11,2023-12-06,株式会社三幸,,株式会社,茨城県,行方市,八木蒔字長峯５２８番地１４,,08,233,3113506,,,2023-12-06,清算の結了等,,,2015-10-05,1,,,,,ミユキ,0
566,3090001010664,登記記録の閉鎖等,0,2023-12-11,2023-11-29,三恵機工株式会社,,株式会社,山梨県,南都留郡山中湖村,山中２１５番６－１１４号,,19,425,4010501,,,2023-11-29,清算の結了等,,,2015-10-05,1,,,,,サンケイキコウ,0
571,3110005010113,登記記録の閉鎖等,0,2023-12-11,2023-12-06,農事組合法人千手養豚団地組合,,その他の設立登記法人,新潟県,十日町市,中屋敷２４番地,,15,210,9480135,,,2023-12-06,清算の結了等,,,2015-10-05,1,,,,,センジュヨウトンダンチクミアイ,0
580,3120105009780,登記記録の閉鎖等,0,2023-12-11,2023-12-04,土地家屋調査士法人多賀登記測量事務所,,その他の設立登記法人,大阪府,貝塚市,近木町１６番６号,,27,208,5970001,,,2023-12-04,清算の結了等,,,2023-10-25,1,,,,,タガトウキソクリョウジムショ,0
595,3140005017659,登記記録の閉鎖等,0,2023-12-11,2023-12-07,小野農産品特産品開発協同組合,,その他の設立登記法人,兵庫県,小野市,本町１０番地,,28,218,6751372,,,2023-12-07,清算の結了等,,,2015-10-05,1,,,,,オノノウサンヒントクサンヒンカイハツ,0
602,3180001094137,登記記録の閉鎖等,0,2023-12-11,2023-12-05,株式会社富田機工,,株式会社,愛知県,半田市,住吉町３丁目１８８番地,,23,205,4750862,,,2023-12-05,清算の結了等,,,2015-10-05,1,,,,,トミタキコウ,0
603,3180001096769,登記記録の閉鎖等,0,2023-12-11,2023-12-06,近藤建設株式会社,,株式会社,愛知県,海部郡蟹江町,宝１丁目１３番地,,23,425,4970030,,,2023-12-06,清算の結了等,,,2015-10-05,1,,,,,コンドウケンセツ,0
604,3180001098138,登記記録の閉鎖等,0,2023-12-11,2023-12-04,セイエー株式会社,,株式会社,愛知県,海部郡大治町,大字花常字人見４０番地,,23,424,4901136,,,2023-12-04,清算の結了等,,,2015-10-05,1,,,,,セイエー,0
614,3180002054024,登記記録の閉鎖等,0,2023-12-11,2023-12-06,有限会社吉川設計,,有限会社,愛知県,名古屋市中村区,大正町１丁目２４番地,,23,105,4530806,,,2023-12-06,清算の結了等,,,2015-10-05,1,,,,,ヨシカワセッケイ,0
615,3180002069666,登記記録の閉鎖等,0,2023-12-11,2023-12-06,有限会社ニシムラテック,,有限会社,愛知県,小牧市,大字上末２０８番地の６,,23,219,4850822,,,2023-12-06,清算の結了等,,,2015-10-05,1,,,,,ニシムラテック,0
617,3180003022194,登記記録の閉鎖等,0,2023-12-11,2023-12-07,合同会社ＫＳペイント,,合同会社,愛知県,名古屋市中村区,権現通１丁目３５番地,,23,105,4530807,,,2023-12-07,清算の結了等,,,2021-02-26,1,,,,,ケーエスペイント,0
646,3290002001064,登記記録の閉鎖等,0,2023-12-11,2023-12-01,有限会社ミヨシモータース,,有限会社,福岡県,福岡市西区,大字桑原１３９５番地の１,,40,135,8190382,,,2023-12-01,合併による解散等,2290001000596,令和５年１２月１日福岡市西区大字桑原１３９５番地の１三吉産業株式会社（2290001000596）に合併し解散,2015-10-05,1,,,,,ミヨシモータース,0
666,3340002026171,登記記録の閉鎖等,0,2023-12-11,2023-12-06,有限会社根占高圧瓦工業,,有限会社,鹿児島県,肝属郡南大隅町,根占山本１８４番地２,,46,491,8932504,,,2023-12-06,清算の結了等,,,2015-10-05,1,,,,,ネジメコウアツカワラコウギョウ,0
670,3360001028274,登記記録の閉鎖等,0,2023-12-11,2023-12-07,株式会社マーペープランニング,,株式会社,沖縄県,石垣市,字野底６９８番地１,,47,207,9070333,,,2023-12-07,清算の結了等,,,2021-02-04,1,,,,,マーペープランニング,0
680,3410002001968,登記記録の閉鎖等,0,2023-12-11,2023-12-04,有限会社新竹塗装,,有限会社,秋田県,秋田市,茨島７丁目６番８号,00086535,05,201,0100065,,,2023-12-04,清算の結了等,,,2015-10-05,1,,,,,シンタケトソウ,0
683,3460001000702,登記記録の閉鎖等,0,2023-12-11,2023-12-06,三宝阿寒石油株式会社,,株式会社,北海道,釧路市,阿寒町阿寒湖温泉５丁目５番２４号,,01,206,0850467,,,2023-12-06,清算の結了等,,,2015-10-05,1,,,,,サンポウアカンセキユ,0
685,3480001007101,登記記録の閉鎖等,0,2023-12-11,2023-12-08,株式会社上荷,,株式会社,徳島県,阿南市,富岡町東新町１３９番地,,36,204,7740030,,,2023-12-08,清算の結了等,,,2015-10-05,1,,,,,ウワニ,0
686,3480002011564,登記記録の閉鎖等,0,2023-12-11,2023-12-08,有限会社シブヤ企画,,有限会社,徳島県,板野郡藍住町,勝瑞字成長９８番地１７,,36,403,7711272,,,2023-12-08,清算の結了等,,,2015-10-05,1,,,,,シブヤキカク,0
694,4010001092362,登記記録の閉鎖等,0,2023-12-11,2023-12-04,サンデルタ株式会社,,株式会社,東京都,千代田区,大手町２丁目６番４号,,13,101,1000004,,,2023-12-04,清算の結了等,,,2015-10-05,1,,,,,サンデルタ,0
704,4010005030343,登記記録の閉鎖等,0,2023-12-11,2023-12-06,特定非営利活動法人いざとき会,,その他の設立登記法人,東京都,文京区,小石川１丁目１７番１－Ｂ１８１０号,,13,105,1120002,,,2023-12-06,清算の結了等,,,2019-06-20,1,,,,,イザトキカイ,0
705,4010101009704,登記記録の閉鎖等,0,2023-12-11,2023-12-06,株式会社東和ホールディングスグループ,,株式会社,東京都,八王子市,横山町６番９号丸多屋ビル６階,,13,201,1920081,,,2023-12-06,合併による解散等,1011401013381,令和５年１２月１日東京都板橋区中板橋６番１号株式会社三春コモンズ（1011401013381）に合併し解散,2015-10-05,1,,,,,トウワホールディングスグループ,0
714,4010701042360,登記記録の閉鎖等,0,2023-12-11,2023-12-06,株式会社サニースパ,,株式会社,東京都,新宿区,矢来町１４２Ｔガーデン神楽坂ＩＩ１０２,00128564,13,104,1620805,,,2023-12-06,清算の結了等,,,2022-03-11,1,,,,,サニースパ,0
715,4010703002627,登記記録の閉鎖等,0,2023-12-11,2023-12-06,合同会社ｆｉｖｅｓｔａｒ,,合同会社,東京都,品川区,二葉４丁目１５番７号,,13,109,1420043,,,2023-12-06,清算の結了等,,,2015-10-05,1,,,,,,0
718,4010901030537,登記記録の閉鎖等,0,2023-12-11,2023-12-01,株式会社ポジティヴィスト,,株式会社,東京都,世田谷区,新町３丁目２３番３号,,13,112,1540014,,,2023-12-01,合併による解散等,3010901030158,令和５年１２月１日東京都世田谷区新町三丁目２３番３号ヒジリヘルスケアプロダクツ株式会社（3010901030158）に合併し解散,2015-10-05,1,,,,,ポジティヴィスト,0
728,4011002022795,登記記録の閉鎖等,0,2023-12-11,2023-12-07,有限会社シマムラ・コーポレーション,,有限会社,東京都,目黒区,中央町２丁目１９番１２号テーラーズハウス１階,,13,110,1520001,,,2023-12-07,清算の結了等,,,2015-10-05,1,,,,,シマムラコーポレーション,0
747,4011102015856,登記記録の閉鎖等,0,2023-12-11,2023-12-06,有限会社ユース,,有限会社,東京都,新宿区,高田馬場４丁目１７番１５号トーヨービルディング５０９号,,13,104,1690075,,,2023-12-06,清算の結了等,,,2015-10-05,1,,,,,ユース,0
757,4011803002079,登記記録の閉鎖等,0,2023-12-11,2023-12-07,ロードリバー合同会社,,合同会社,東京都,足立区,鹿浜２丁目４番１７号,,13,121,1230864,,,2023-12-07,清算の結了等,,,2015-10-05,1,,,,,,0
761,4012402018177,登記記録の閉鎖等,0,2023-12-11,2023-12-06,有限会社アサイ造園計画,,有限会社,東京都,三鷹市,牟礼７丁目５番１４号,,13,204,1810002,,,2023-12-06,清算の結了等,,,2015-10-05,1,,,,,アサイゾウエンケイカク,0
771,4020001121079,登記記録の閉鎖等,0,2023-12-11,2023-12-05,株式会社ＫＩＮＧ,,株式会社,神奈川県,横浜市中区,福富町仲通３４番地５,,14,104,2310043,,,2023-12-05,清算の結了等,,,2017-05-01,1,,,,,キング,0
791,4030002086460,登記記録の閉鎖等,0,2023-12-11,2023-12-05,有限会社清水土建,,有限会社,埼玉県,越谷市,東越谷３丁目８番地５,,11,222,3430023,,,2023-12-05,清算の結了等,,,2015-10-05,1,,,,,,0
809,4060001032933,登記記録の閉鎖等,0,2023-12-11,2023-12-07,株式会社アースシーズン,,株式会社,栃木県,宇都宮市,鶴田町３９８番地,,09,201,3200851,,,2023-12-07,清算の結了等,,,2020-09-03,1,,,,,アースシーズン,0
811,4060002024483,登記記録の閉鎖等,0,2023-12-11,2023-12-06,有限会社ティ・エス・ジー,,有限会社,栃木県,那須塩原市,新南３３番地１５,,09,213,3292704,,,2023-12-06,清算の結了等,,,2015-10-05,1,,,,,ティエスジー,0
822,4080402018991,登記記録の閉鎖等,0,2023-12-11,2023-12-06,有限会社恩田配管,,有限会社,静岡県,御前崎市,合戸１１１３番地の４,,22,223,4371613,,,2023-12-06,清算の結了等,,,2015-10-05,1,,,,,オンダハイカン,0
824,4090002007964,登記記録の閉鎖等,0,2023-12-11,2023-12-11,有限会社金華閣,,有限会社,山梨県,甲府市,城東２丁目４番１２号,,19,201,4000861,,,2023-12-11,清算の結了等,,,2015-10-05,1,,,,,キンカカク,0
861,4140005019084,登記記録の閉鎖等,0,2023-12-11,2023-12-07,特定非営利活動法人もっと素敵に宝塚,,その他の設立登記法人,兵庫県,宝塚市,逆瀬台１丁目３－Ｃ－７０３号,,28,214,6650024,,,2023-12-07,清算の結了等,,,2015-10-05,1,,,,,モットステキニタカラヅカ,0
863,4150003002611,登記記録の閉鎖等,0,2023-12-11,2023-12-07,八重桜合同会社,,合同会社,奈良県,吉野郡大淀町,大字福神１番地の９６,,29,442,6380833,,,2023-12-07,清算の結了等,,,2022-01-31,1,,,,,ヤエザクラ,0
870,4180001100513,登記記録の閉鎖等,0,2023-12-11,2023-12-04,株式会社Ｐ＆Ｋホールディングス,,株式会社,愛知県,半田市,大池町１丁目３６番地,,23,205,4750087,,,2023-12-04,合併による解散等,8010001191524,令和５年１２月１日東京都千代田区丸の内一丁目８番１号株式会社フィールドファーマシー（8010001191524）に合併し解散,2015-10-05,1,,,,,ピーアンドケーホールディングス,0
877,4180002050154,登記記録の閉鎖等,0,2023-12-11,2023-12-05,有限会社リーフ,,有限会社,愛知県,名古屋市中村区,北畑町３丁目４３番地,,23,105,4530815,,,2023-12-05,清算の結了等,,,2015-10-05,1,,,,,リーフ,0
881,4180003013374,登記記録の閉鎖等,0,2023-12-11,2023-12-05,加藤ケアプランハウス合同会社,,合同会社,愛知県,知多市,八幡字種池２２番地の４,,23,224,4780001,,,2023-12-05,清算の結了等,,,2015-10-05,1,,,,,カトウケアプランハウス,0
884,4190001022582,登記記録の閉鎖等,0,2023-12-11,2023-12-08,株式会社伊勢給食センター,,株式会社,三重県,伊勢市,神久４丁目７番８号,,24,203,5160017,,,2023-12-08,清算の結了等,,,2015-10-05,1,,,,,イセキュウショクセンター,0
889,4210002013256,登記記録の閉鎖等,0,2023-12-11,2023-12-05,有限会社畑中レース,,有限会社,福井県,鯖江市,吉江町第２１号３４番地,,18,207,9160001,,,2023-12-05,清算の結了等,,,2015-10-05,1,,,,,ハタナカレース,0
895,4240001039828,登記記録の閉鎖等,0,2023-12-11,2023-12-07,三原協同青果株式会社,,株式会社,広島県,三原市,古浜２丁目１０番１５号,,34,204,7230013,,,2023-12-07,清算の結了等,,,2015-10-05,1,,,,,ミハラキョウドウセイカ,0
906,4290001087319,登記記録の閉鎖等,0,2023-12-11,2023-12-04,株式会社サンセラ,,株式会社,福岡県,福岡市西区,大字女原２７９番地９,,40,135,8190376,,,2023-12-04,清算の結了等,,,2019-12-05,1,,,,,サンセラ,0
912,4310002019680,登記記録の閉鎖等,0,2023-12-11,2023-12-04,有限会社小田組,,有限会社,長崎県,松浦市,志佐町里免３４３番地３,,42,208,8594502,,,2023-12-04,清算の結了等,,,2015-10-05,1,,,,,オダグミ,0
913,4310002020969,登記記録の閉鎖等,0,2023-12-11,2023-12-04,有限会社小野商店,,有限会社,長崎県,松浦市,今福町浦免５６０番地,,42,208,8594528,,,2023-12-04,清算の結了等,,,2021-08-03,1,,,,,オノショウテン,0
914,4310005002923,登記記録の閉鎖等,0,2023-12-11,2023-12-06,川棚川漁業協同組合,,その他の設立登記法人,長崎県,東彼杵郡川棚町,栄町９番地,,42,322,8593608,,,2023-12-06,清算の結了等,,,2015-10-05,1,,,,,カワタナガワ,0
915,4320001013980,登記記録の閉鎖等,0,2023-12-11,2023-12-08,株式会社ビヘクトファーム,,株式会社,大分県,日田市,天瀬町出口２６０１番地３,,44,204,8770114,,,2023-12-08,清算の結了等,,,2015-10-05,1,,,,,ビヘクトファーム,0
926,4380001030517,登記記録の閉鎖等,0,2023-12-11,2023-12-05,株式会社スリー・ワイズ,,株式会社,福島県,郡山市,桑野４丁目４番５８号,,07,203,9638025,,,2023-12-05,清算の結了等,,,2019-12-10,1,,,,,スリーワイズ,0
929,4420002003491,登記記録の閉鎖等,0,2023-12-11,2023-12-05,有限会社山草園,,有限会社,青森県,青森市,大字筒井字八ツ橋２２４番地６,,02,201,0300944,,,2023-12-05,清算の結了等,,,2015-10-05,1,,,,,サンソウエン,0
938,4450001011947,登記記録の閉鎖等,0,2023-12-11,2023-12-08,菊地建設興業株式会社,,株式会社,北海道,旭川市,豊岡二条１丁目７番５号豊岡２条ハイツ３０７,,01,204,0788232,,,2023-12-08,清算の結了等,,,2017-02-03,1,,,,,キクチケンセツコウギョウ,0
939,4460001000908,登記記録の閉鎖等,0,2023-12-11,2023-12-07,株式会社創鑑システムズ,,株式会社,北海道,釧路市,白金町２２番６号,,01,206,0850034,,,2023-12-07,清算の結了等,,,2015-10-05,1,,,,,ソウカンシステムズ,0
950,5010003019577,登記記録の閉鎖等,0,2023-12-11,2023-12-06,宇都宮北太陽光発電合同会社,,合同会社,東京都,千代田区,丸の内３丁目１番１号東京共同会計事務所内,,13,101,1000005,,,2023-12-06,清算の結了等,,,2015-10-05,1,,,,,ウツノミヤキタタイヨウコウハツデン,0
963,5010601006324,登記記録の閉鎖等,0,2023-12-11,2023-12-01,松田商事株式会社,,株式会社,東京都,江東区,白河４丁目７番１０号,,13,108,1350021,,,2023-12-01,合併による解散等,3010601006318,令和５年１２月１日東京都江東区白河四丁目７番１０号松田硝子工芸株式会社（3010601006318）に合併し解散,2015-10-05,1,,,,,マツダショウジ,0
983,5011401020093,登記記録の閉鎖等,0,2023-12-11,2023-12-06,株式会社Ｔｏ－Ｄａｙｓ,,株式会社,東京都,板橋区,西台４丁目３番５－１０６号,,13,119,1750045,,,2023-12-06,清算の結了等,,,2017-03-06,1,,,,,トゥデイズ,0
985,5011601003906,登記記録の閉鎖等,0,2023-12-11,2023-12-07,大宏興業株式会社,,株式会社,東京都,練馬区,北町２丁目３８番１５号,,13,120,1790081,,,2023-12-07,合併による解散等,5011401016083,令和５年１２月１日東京都板橋区徳丸三丁目１７番１６号大木ホールディングス株式会社（5011401016083）に合併し解散,2015-10-05,1,,,,,タイコウコウギョウ,0
996,5013201015298,登記記録の閉鎖等,0,2023-12-11,2023-11-29,株式会社ＴＢＡＳ,,株式会社,東京都,渋谷区,神宮前１丁目２０番４号,,13,113,1500001,,,2023-11-29,清算の結了等,,,2015-10-05,1,,,,,,0
1000,5020001131886,登記記録の閉鎖等,0,2023-12-11,2023-12-05,株式会社ＢＬＩＳＳＥＹ,,株式会社,神奈川県,横浜市保土ケ谷区,西谷３丁目２４番８号,,14,106,2400054,,,2023-12-05,清算の結了等,,,2019-07-05,1,,,,,ブリシィ,0
1010,5030001073120,登記記録の閉鎖等,0,2023-12-11,2023-12-04,ｒｕｒｕｃａホールディングス株式会社,,株式会社,愛知県,名古屋市瑞穂区,初日町１丁目３５番地,,23,108,4670028,,,2023-12-04,清算の結了等,,,2015-10-05,1,,,,,ルルカホールディングス,0
1021,5030002061644,登記記録の閉鎖等,0,2023-12-11,2023-12-05,有限会社清藤工業,,有限会社,埼玉県,新座市,池田４丁目３番１８号,,11,230,3520015,,,2023-12-05,清算の結了等,,,2015-10-05,1,,,,,セイドウコウギョウ,0
1034,5040002021184,登記記録の閉鎖等,0,2023-12-11,2023-12-04,有限会社オガワカッター,,有限会社,千葉県,船橋市,金堀町３５３番地７,,12,204,2740054,,,2023-12-04,清算の結了等,,,2015-10-05,1,,,,,オガワカッター,0
1035,5040002075214,登記記録の閉鎖等,0,2023-12-11,2023-12-05,有限会社まるす板金,,有限会社,千葉県,市原市,平田７４５番地３,,12,219,2900053,,,2023-12-05,清算の結了等,,,2015-10-05,1,,,,,マルスバンキン,0
1045,5060001025424,登記記録の閉鎖等,0,2023-12-11,2023-12-04,株式会社ＴＯＰ－ＩＧ,,株式会社,栃木県,宇都宮市,双葉２丁目１０番４１号,,09,201,3210164,,,2023-12-04,清算の結了等,,,2015-10-05,1,,,,,トップアイジー,0
1047,5060002004138,登記記録の閉鎖等,0,2023-12-11,2023-12-07,有限会社サンメディカル,,有限会社,栃木県,宇都宮市,江曽島本町１６番６号,,09,201,3210101,,,2023-12-07,清算の結了等,,,2015-10-05,1,,,,,サンメディカル,0
1051,5080002004664,登記記録の閉鎖等,0,2023-12-11,2023-12-07,有限会社服部工務店,,有限会社,静岡県,静岡市駿河区,栗原１４番１８号,,22,102,4228008,,,2023-12-07,清算の結了等,,,2015-10-05,1,,,,,ハットリコウムテン,0
1060,5100001031401,登記記録の閉鎖等,0,2023-12-11,2023-12-01,株式会社テクスター,,株式会社,長野県,松本市,大字和田３９６７番地３２,,20,202,3901242,,,2023-12-01,合併による解散等,2100001012619,令和５年１２月１日長野県松本市大字笹賀５６５２番地１１９株式会社アートプランニング（2100001012619）に合併し解散,2018-07-06,1,,,,,テクスター,0
1063,5110001024668,登記記録の閉鎖等,0,2023-12-11,2023-12-04,株式会社芳栄,,株式会社,新潟県,長岡市,堀金３丁目６番８号,,15,202,9400868,,,2023-12-04,清算の結了等,,,2015-10-05,1,,,,,ホウエイ,0
1066,5120001127882,登記記録の閉鎖等,0,2023-12-11,2023-12-05,株式会社ディーアンドディー,,株式会社,大阪府,大阪市淀川区,西中島４丁目１３番２４号花原第３ビル６Ｆ,,27,123,5320011,,,2023-12-05,清算の結了等,,,2015-10-05,1,,,,,,0
1072,5120102017941,登記記録の閉鎖等,0,2023-12-11,2023-12-07,有限会社オーエム,,有限会社,大阪府,羽曳野市,大黒７０７番地の１５,,27,222,5830847,,,2023-12-07,清算の結了等,,,2015-10-05,1,,,,,オーエム,0
1074,5120902014171,登記記録の閉鎖等,0,2023-12-11,2023-12-05,有限会社山川商店,,有限会社,大阪府,摂津市,鳥飼西２丁目１４番１号,,27,224,5660072,,,2023-12-05,清算の結了等,,,2015-10-05,1,,,,,ヤマカワショウテン,0
1084,5140001104418,登記記録の閉鎖等,0,2023-12-11,2023-11-30,島と暮らすファーム株式会社,,株式会社,兵庫県,淡路市,大磯６番地,,28,226,6562302,,,2023-11-30,合併による解散等,2140001085289,令和５年１１月３０日兵庫県淡路市大磯６番地ユーアールエー株式会社（2140001085289）に合併し解散,2016-12-19,1,,,,,シマトクラスファーム,0
1090,5140003017758,登記記録の閉鎖等,0,2023-12-11,2023-12-05,ｓａｋｕｒａ　ｂａｂｙ合同会社,,合同会社,兵庫県,伊丹市,西台１丁目６番１７－５０３号,,28,207,6640858,,,2023-12-05,清算の結了等,,,2022-06-03,1,,,,,サクラベビー,0
1112,5200002017645,登記記録の閉鎖等,0,2023-12-11,2023-12-07,有限会社サンカッティングセンター,,有限会社,岐阜県,加茂郡川辺町,下吉田２３４番地の４,,21,503,5090311,,,2023-12-07,清算の結了等,,,2015-10-05,1,,,,,サンカッティングセンター,0
1124,5240002035957,登記記録の閉鎖等,0,2023-12-11,2023-12-04,有限会社エムテック・コート,,有限会社,広島県,江田島市,大柿町柿浦２４２１番地の４,,34,215,7372211,,,2023-12-04,清算の結了等,,,2015-10-05,1,,,,,エムテックコート,0
1125,5250001019968,登記記録の閉鎖等,0,2023-12-11,2023-12-08,グッドスマイルズ株式会社,,株式会社,山口県,山口市,桜畠２丁目９番３２号,,35,203,7530021,,,2023-12-08,清算の結了等,,,2023-02-21,1,,,,,グッドスマイルズ,0
1136,5290001094074,登記記録の閉鎖等,0,2023-12-11,2023-11-21,株式会社ＢＯＺＵＢＯＮＤ,,株式会社,福岡県,宗像市,赤間駅前１丁目９番１６号,,40,220,8114185,,,2023-11-21,清算の結了等,,,2021-08-05,1,,,,,ボーズボンド,0
1159,5380001006359,登記記録の閉鎖等,0,2023-12-11,2023-12-01,株式会社ＧＲＥＥＮＳＴＵＦＦ,,株式会社,福島県,会津若松市,大町１丁目１番２４号,,07,202,9650042,,,2023-12-01,合併による解散等,7380001017148,令和５年１２月１日福島県会津若松市大町一丁目１番２４号会津天宝醸造株式会社（7380001017148）に合併し解散,2015-10-05,1,,,,,グリーンスタッフ,0
1168,5400005003036,登記記録の閉鎖等,0,2023-12-11,2023-12-05,台山生産森林組合,,その他の設立登記法人,岩手県,花巻市,北湯口第１５地割７８番地,,03,205,0250301,,,2023-12-05,清算の結了等,,,2015-10-05,1,,,,,ダイヤマ,0
1171,5420001012864,登記記録の閉鎖等,0,2023-12-11,2023-12-05,株式会社イトカワ,,株式会社,青森県,むつ市,柳町３丁目９番３４号,,02,208,0350031,,,2023-12-05,清算の結了等,,,2015-10-05,1,,,,,イトカワ,0
1172,5430001011634,登記記録の閉鎖等,0,2023-12-11,2023-12-01,株式会社ドゥ・マイセン・コーポレーション,,株式会社,北海道,札幌市豊平区,平岸四条９丁目７番２０号,,01,105,0620934,,,2023-12-01,清算の結了等,,,2015-10-05,1,,,,,ドゥマイセンコーポレーション,0
1180,5480001005152,登記記録の閉鎖等,0,2023-12-11,2023-12-08,株式会社ビューシステム,,株式会社,徳島県,鳴門市,撫養町黒崎字松島４５番地６１,,36,202,7720001,,,2023-12-08,清算の結了等,,,2015-10-05,1,,,,,ビューシステム,0
1193,6010001032762,登記記録の閉鎖等,0,2023-12-11,2023-12-04,ワタトウメディカル株式会社,,株式会社,東京都,千代田区,岩本町１丁目２番１３号,,13,101,1010032,,,2023-12-04,清算の結了等,,,2015-10-05,1,,,,,ワタトウメディカル,0
1202,6010005011432,登記記録の閉鎖等,0,2023-12-11,2023-12-06,千代田事務用品事業協同組合,,その他の設立登記法人,東京都,千代田区,飯田橋４丁目８番１２号,,13,101,1020072,,,2023-12-06,清算の結了等,,,2015-10-05,1,,,,,チヨダジムヨウヒン,0
1203,6010005025440,登記記録の閉鎖等,0,2023-12-11,2023-12-06,キュービーファイブ社会保険労務士法人,,その他の設立登記法人,東京都,千代田区,飯田橋３丁目１１番１３号飯田橋ｉ－ＭＡＲＫＡＮＮＥＸ７Ｆ,,13,101,1020072,,,2023-12-06,清算の結了等,,,2016-06-17,1,,,,,キュービーファイブ,0
1211,6010402015028,登記記録の閉鎖等,0,2023-12-11,2023-12-06,有限会社エスエスコーポレーション,,有限会社,東京都,大田区,大森北５丁目２番４号,,13,111,1430016,,,2023-12-06,清算の結了等,,,2015-10-05,1,,,,,エスエスコーポレーション,0
1212,6010403015555,登記記録の閉鎖等,0,2023-12-11,2023-12-06,合同会社新都市開発機構,,合同会社,東京都,港区,芝４丁目７番６号芝ビルディング７０４号室,,13,103,1080014,,,2023-12-06,合併による解散等,8010003023741,令和５年１２月１日東京都千代田区二番町５番地２麹町駅プラザ９０１合同会社ハナミズキ・キャピタル（8010003023741）に合併し解散,2016-11-04,1,,,,,シントシカイハツキコウ,0
1224,6011001051430,登記記録の閉鎖等,0,2023-12-11,2023-12-07,株式会社クレール,,株式会社,神奈川県,茅ヶ崎市,菱沼海岸２番８号パークサイドヴィラ茅ヶ崎Ａ,,14,207,2530037,,,2023-12-07,清算の結了等,,,2015-10-05,1,,,,,クレール,0
1249,6011502009209,登記記録の閉鎖等,0,2023-12-11,2023-12-04,有限会社鈴木靴店,,有限会社,東京都,荒川区,南千住１丁目１８番２号,,13,118,1160003,,,2023-12-04,清算の結了等,,,2015-10-05,1,,,,,スズキクツテン,0
1253,6011603003052,登記記録の閉鎖等,0,2023-12-11,2023-12-06,合同会社三角定規,,合同会社,東京都,新宿区,早稲田鶴巻町５４７ブロンシュ武田３０１,,13,104,1620041,,,2023-12-06,清算の結了等,,,2020-09-03,1,,,,,サンカクジョウギ,0
1258,6011801038560,登記記録の閉鎖等,0,2023-12-11,2023-12-05,株式会社ＩＲコーポレート,,株式会社,東京都,足立区,千住宮元町３１番１１号,,13,121,1200043,,,2023-12-05,清算の結了等,,,2020-12-23,1,,,,,アイアールコーポレート,0
1259,6011802012845,登記記録の閉鎖等,0,2023-12-11,2023-12-04,有限会社小山臓器食品,,有限会社,東京都,足立区,西新井本町４丁目１番３号,,13,121,1230845,,,2023-12-04,清算の結了等,,,2015-10-05,1,,,,,コヤマゾウキショクヒン,0
1273,6020003005690,登記記録の閉鎖等,0,2023-12-11,2023-12-05,合資会社キクヤ商会,,合資会社,神奈川県,川崎市多摩区,登戸２１６５番地,,14,135,2140014,,,2023-12-05,清算の結了等,,,2015-10-05,1,,,,,キクヤショウカイ,0
1276,6021001045514,登記記録の閉鎖等,0,2023-12-11,2023-12-07,株式会社つきひ,,株式会社,神奈川県,愛甲郡愛川町,半原４０９８番地２,,14,401,2430307,,,2023-12-07,清算の結了等,,,2015-10-05,1,,,,,ツキヒ,0
1295,6040001063631,登記記録の閉鎖等,0,2023-12-11,2023-12-05,株式会社豊島,,株式会社,千葉県,香取市,大戸川３９８番地,,12,236,2870054,,,2023-12-05,清算の結了等,,,2015-10-05,1,,,,,トヨシマ,0
1305,6050002039852,登記記録の閉鎖等,0,2023-12-11,2023-12-06,有限会社天王原養鶏園,,有限会社,茨城県,常総市,大輪町８７２番地,,08,211,3002512,,,2023-12-06,清算の結了等,,,2015-10-05,1,,,,,テンオウハラヨウケイエン,0
1343,6130001045380,登記記録の閉鎖等,0,2023-12-11,2023-12-05,株式会社辻岡,00036499,株式会社,京都府,京都市南区,久世東土川町２００番地１２２,,26,107,6018204,,,2023-12-05,清算の結了等,,,2015-10-05,1,,,,,ツジオカ,0
1359,6140002067828,登記記録の閉鎖等,0,2023-12-11,2023-12-08,有限会社エス・ピー・シー,,有限会社,佐賀県,伊万里市,立花町２３００番地８０－Ｂ１０１号,,41,205,8480027,,,2023-12-08,清算の結了等,,,2015-10-05,1,,,,,エスピーシー,0
1381,6180002038750,登記記録の閉鎖等,0,2023-12-11,2023-12-05,有限会社リカーショップ・パートナー,,有限会社,愛知県,名古屋市千種区,振甫町２丁目３９番地の１,,23,101,4640072,,,2023-12-05,清算の結了等,,,2015-10-05,1,,,,,リカーショップパートナー,0
1382,6180002069713,登記記録の閉鎖等,0,2023-12-11,2023-12-07,有限会社服部繊維,,有限会社,愛知県,小牧市,小木５丁目２０２番地,,23,219,4850058,,,2023-12-07,清算の結了等,,,2015-10-05,1,,,,,ハットリセンイ,0
1383,6180002080983,登記記録の閉鎖等,0,2023-12-11,2023-12-07,有限会社松岡鉄工,,有限会社,愛知県,一宮市,明地字南茱之木１番地,,23,203,4940012,,,2023-12-07,清算の結了等,,,2015-10-05,1,,,,,マツオカテッコウ,0
1384,6180003001914,登記記録の閉鎖等,0,2023-12-11,2023-12-04,合資会社桜台温泉,,合資会社,愛知県,名古屋市南区,桜台１丁目１９番４号,,23,112,4570005,,,2023-12-04,清算の結了等,,,2015-10-05,1,,,,,サクラダイオンセン,0
1385,6180301012786,登記記録の閉鎖等,0,2023-12-11,2023-12-05,株式会社加藤俊鉄工所,,株式会社,愛知県,安城市,福釜町馬場１番地,,23,212,4460052,,,2023-12-05,清算の結了等,,,2015-10-05,1,,,,,カトウトシテッコウショ,0
1416,6350002013249,登記記録の閉鎖等,0,2023-12-11,2023-12-04,飯干開発有限会社,,有限会社,宮崎県,西臼杵郡高千穂町,大字押方５７７番地２９,,45,441,8821102,,,2023-12-04,清算の結了等,,,2015-10-05,1,,,,,イイホシカイハツ,0
1419,6370001045225,登記記録の閉鎖等,0,2023-12-11,2023-11-30,株式会社エル・ステージ,,株式会社,宮城県,富谷市,ひより台１丁目４４番地２,,04,216,9813304,,,2023-11-30,合併による解散等,2370001042507,令和５年１１月３０日宮城県大崎市古川李埣一丁目１番２１号株式会社タカカツ不動産（2370001042507）に合併し解散,2020-01-09,1,,,,,エルステージ,0
1420,6380001021381,登記記録の閉鎖等,0,2023-12-11,2023-12-06,株式会社トウショウ,,株式会社,福島県,郡山市,安積２丁目５２番地,,07,203,9630107,,,2023-12-06,清算の結了等,,,2015-10-05,1,,,,,トウショウ,0
1421,6380001031348,登記記録の閉鎖等,0,2023-12-11,2023-12-06,株式会社一運輸,,株式会社,福島県,福島市,岡部字当木１６番地の５,,07,201,9608204,,,2023-12-06,清算の結了等,,,2020-11-19,1,,,,,ハジメウンユ,0
1429,6420002019858,登記記録の閉鎖等,0,2023-12-11,2023-12-05,有限会社むつコン商事,,有限会社,青森県,むつ市,柳町３丁目９番３４号,,02,208,0350031,,,2023-12-05,清算の結了等,,,2015-10-05,1,,,,,ムツコンショウジ,0
1433,6430002037925,登記記録の閉鎖等,0,2023-12-11,2023-12-04,株式会社道特ライフサービス,,株式会社,北海道,札幌市中央区,北二条西２丁目２６番地道特会館,,01,101,0600002,,,2023-12-04,清算の結了等,,,2015-10-05,1,,,,,ドウトクライフサービス,0
1463,7010401095664,登記記録の閉鎖等,0,2023-12-11,2023-12-05,ｇｌｏｒｙ　ａｌｌｉａｎｃｅ株式会社,,株式会社,埼玉県,さいたま市見沼区,丸ヶ崎町２５番地１７,,11,104,3370007,,,2023-12-05,清算の結了等,,,2015-10-05,1,,,,,グローリーアライアンス,0
1482,7010703002707,登記記録の閉鎖等,0,2023-12-11,2023-12-06,株式会社ヘマタイト,,株式会社,東京都,品川区,東五反田５丁目２２番３７号オフィスサークルＮ五反田４階,,13,109,1410022,,,2023-12-06,清算の結了等,,,2015-10-05,1,,,,,,0
1493,7011101064579,登記記録の閉鎖等,0,2023-12-11,2023-12-06,株式会社ＳＯＵＴＥＣＨ,,株式会社,東京都,新宿区,早稲田鶴巻町５３１番地,,13,104,1620041,,,2023-12-06,清算の結了等,,,2015-10-05,1,,,,,ソウテック,0
1496,7011105002130,登記記録の閉鎖等,0,2023-12-11,2023-12-06,特定非営利活動法人フィード・ザ・チルドレン日本委員会,,その他の設立登記法人,東京都,新宿区,市谷田町２丁目２３番地第２三幸ビル２Ｆ,,13,104,1620843,,,2023-12-06,清算の結了等,,,2015-10-05,1,,,,,フィードザチルドレンニホンイインカイ,0
1526,7040002023815,登記記録の閉鎖等,0,2023-12-11,2023-12-05,有限会社田園都市研究所,,有限会社,千葉県,船橋市,前貝塚町２５５番地２１,,12,204,2730042,,,2023-12-05,清算の結了等,,,2015-10-05,1,,,,,デンエントシケンキュウショ,0
1536,7070003003342,登記記録の閉鎖等,0,2023-12-11,2023-12-01,合同会社伽＿,00115381,合同会社,群馬県,高崎市,上大類町７２２番地１,,10,202,3700031,,,2023-12-01,合併による解散等,4070002015457,令和５年１２月１日群馬県高崎市上大類町７２２番地１株式会社カヤ（4070002015457）に合併し解散,2019-01-04,1,,,,,カヤ,0
1550,7110001022249,登記記録の閉鎖等,0,2023-12-11,2023-12-06,株式会社大菱計器製作所,,株式会社,新潟県,長岡市,南陽１丁目１２１６番地１,,15,202,9401164,,,2023-12-06,合併による解散等,7010001233351,令和５年１２月１日東京都千代田区紀尾井町４番１号ニューオータニガーデンコート９階株式会社大菱計器製作所（7010001233351）に合併し解散,2015-10-05,1,,,,,オオビシケイキセイサクショ,0
1559,7120001164668,登記記録の閉鎖等,0,2023-12-11,2023-11-30,株式会社パイルプロジェクト,,株式会社,大阪府,大阪市北区,曾根崎新地２丁目３番１３号,,27,127,5300002,,,2023-11-30,清算の結了等,,,2015-10-05,1,,,,,パイルプロジェクト,0
1574,7140002010365,登記記録の閉鎖等,0,2023-12-11,2023-12-05,有限会社福原工務店,,有限会社,兵庫県,神戸市北区,星和台３丁目１８番地の２,,28,109,6511121,,,2023-12-05,清算の結了等,,,2015-10-05,1,,,,,フクハラコウムテン,0
1590,7180002008249,登記記録の閉鎖等,0,2023-12-11,2023-12-05,有限会社善商,,有限会社,愛知県,名古屋市昭和区,曙町３丁目１９番地,00072814,23,107,4660003,,,2023-12-05,清算の結了等,,,2015-10-05,1,,,,,ゼンショウ,0
1592,7180002062097,登記記録の閉鎖等,0,2023-12-11,2023-12-04,有限会社オフィスみしぇる,,有限会社,愛知県,日進市,折戸町高松３０８番１,,23,230,4700115,,,2023-12-04,合併による解散等,8010001191524,令和５年１２月１日東京都千代田区丸の内一丁目８番１号株式会社フィールドファーマシー（8010001191524）に合併し解散,2015-10-05,1,,,,,オフィスミシェル,0
1601,7200002007990,登記記録の閉鎖等,0,2023-12-11,2023-12-07,有限会社波多野工業所,,有限会社,岐阜県,各務原市,鵜沼丸子町２丁目５６４番地,,21,213,5090142,,,2023-12-07,清算の結了等,,,2015-10-05,1,,,,,ハタノコウギョウショ,0
1603,7240001057645,登記記録の閉鎖等,0,2023-12-11,2023-12-06,ＲＪ　ｉｎｖｅｓｔｏｒｓ株式会社,,株式会社,広島県,広島市中区,大手町３丁目２番６－４０１号,,34,101,7300051,,,2023-12-06,清算の結了等,,,2021-03-31,1,,,,,アールジェイインベスターズ,0
1607,7270001007572,登記記録の閉鎖等,0,2023-12-11,2023-12-07,株式会社クローバーコンサルティング,,株式会社,鳥取県,米子市,高島２９８番地２,,31,202,6893536,,,2023-12-07,清算の結了等,,,2018-08-06,1,,,,,クローバーコンサルティング,0
1619,7310005003902,登記記録の閉鎖等,0,2023-12-11,2023-12-05,医療法人川上歯科医院,,その他の設立登記法人,長崎県,佐世保市,江迎町長坂１４５番地,,42,202,8596101,,,2023-12-05,清算の結了等,,,2015-10-05,1,,,,,カワカミシカイイン,0
1620,7320001002618,登記記録の閉鎖等,0,2023-12-11,2023-12-08,株式会社ＮＰＧマルヨシフーズ,,株式会社,大分県,大分市,森町西１丁目３番２号,,44,201,8700140,,,2023-12-08,清算の結了等,,,2015-10-05,1,,,,,,0
1622,7320001006957,登記記録の閉鎖等,0,2023-12-11,2023-12-07,株式会社岩瀬建築事務所,,株式会社,大分県,別府市,大字鶴見４０３８番地の３７,,44,202,8740840,,,2023-12-07,清算の結了等,,,2015-10-05,1,,,,,イワセケンチクジムショ,0
1635,7390002012428,登記記録の閉鎖等,0,2023-12-11,2023-12-06,有限会社旅館たかはし,,有限会社,山形県,東根市,温泉町１丁目１８番１２号,,06,211,9993702,,,2023-12-06,清算の結了等,,,2015-10-05,1,,,,,リョカンタカハシ,0
1638,7430001029393,登記記録の閉鎖等,0,2023-12-11,2023-12-04,株式会社松下ホーム,,株式会社,北海道,札幌市西区,山の手一条１丁目２番６号,,01,107,0630001,,,2023-12-04,清算の結了等,,,2015-10-05,1,,,,,マツシタホーム,0
1655,7500002007069,登記記録の閉鎖等,0,2023-12-11,2023-12-08,有限会社山田建設,,有限会社,愛媛県,松山市,来住町６５３番地３,,38,201,7911102,,,2023-12-08,清算の結了等,,,2015-10-05,1,,,,,ヤマダケンセツ,0
1661,8010001068061,登記記録の閉鎖等,0,2023-12-11,2023-12-06,イスラビジョン・ジャパン株式会社,,株式会社,神奈川県,横浜市緑区,白山１丁目１８番２号,,14,113,2260006,,,2023-12-06,合併による解散等,6010401134811,令和５年１１月３０日東京都港区芝公園一丁目１番１号アトラスコプコ株式会社（6010401134811）に合併し解散,2015-10-05,1,,,,,イスラビジョンジャパン,0
1667,8010001145463,登記記録の閉鎖等,0,2023-12-11,2023-12-04,ゲームデベロッパーズギルド株式会社,,株式会社,東京都,千代田区,六番町１０番地１,,13,101,1020085,,,2023-12-04,清算の結了等,,,2015-10-05,1,,,,,ゲームデベロッパーズギルド,0
1672,8010003015045,登記記録の閉鎖等,0,2023-12-11,2023-12-05,Ｓｔ．Ｍａｒｔｉｎｓ　Ａｒｘ　Ｔｏｗｅｒ　ＭＬ合同会社,,合同会社,東京都,千代田区,丸の内３丁目１番１号,,13,101,1000005,,,2023-12-05,清算の結了等,,,2015-10-05,1,,,,,セントマーティンズアルクスタワーエムエル,0
1692,8010601005406,登記記録の閉鎖等,0,2023-12-11,2023-12-01,中村繊維工業株式会社,,株式会社,東京都,江東区,高橋６番１号,,13,108,1350005,,,2023-12-01,合併による解散等,8010001149233,令和５年１２月１日東京都江東区高橋６番１号株式会社キャメルビル（8010001149233）に合併し解散,2015-10-05,1,,,,,ナカムラセンイコウギョウ,0
1695,8010802008190,登記記録の閉鎖等,0,2023-12-11,2023-12-06,有限会社相馬システムエンジニアリング,,有限会社,東京都,大田区,大森南５丁目３番３８号,,13,111,1430013,,,2023-12-06,清算の結了等,,,2015-10-05,1,,,,,ソウマシステムエンジニアリング,0
1709,8011101096828,登記記録の閉鎖等,0,2023-12-11,2023-12-06,Ｓｈｉｓｈａ　Ｃｌｕｂ株式会社,,株式会社,東京都,新宿区,北新宿４丁目８番１２号,,13,104,1690074,,,2023-12-06,清算の結了等,,,2021-11-08,1,,,,,シーシャクラブ,0
1712,8011103004524,登記記録の閉鎖等,0,2023-12-11,2023-12-06,ティーダ・パワー１９合同会社,,合同会社,東京都,新宿区,西新宿２丁目１番１号新宿三井ビル４３階,,13,104,1600023,,,2023-12-06,清算の結了等,,,2015-10-05,1,,,,,ティーダパワーイチキュウ,0
1713,8011103005290,登記記録の閉鎖等,0,2023-12-11,2023-12-06,ティーダ・パワー７１合同会社,,合同会社,東京都,新宿区,西新宿２丁目１番１号新宿三井ビル４３階,,13,104,1600023,,,2023-12-06,清算の結了等,,,2015-10-05,1,,,,,ティーダパワーナナイチ,0
1714,8011103011009,登記記録の閉鎖等,0,2023-12-11,2023-12-06,合同会社ウィブックス,,合同会社,東京都,新宿区,新小川町９番７号第３服部ビルＡ棟３０２号,,13,104,1620814,,,2023-12-06,清算の結了等,,,2021-09-17,1,,,,,ウィブックス,0
1717,8011201014152,登記記録の閉鎖等,0,2023-12-11,2023-12-06,株式会社光陽商事,,株式会社,東京都,新宿区,左門町１３番地５,,13,104,1600017,,,2023-12-06,清算の結了等,,,2015-10-05,1,,,,,コウヨウショウジ,0
1730,8012801019838,登記記録の閉鎖等,0,2023-12-11,2023-12-06,カルムネクスト株式会社,,株式会社,東京都,立川市,曙町３丁目３番３６号ダイナシティ立川５０１,00118470,13,202,1900012,,,2023-12-06,清算の結了等,,,2019-12-16,1,,,,,カルムネクスト,0
1739,8030001047815,登記記録の閉鎖等,0,2023-12-11,2023-12-06,ユーリカ株式会社,,株式会社,埼玉県,志木市,本町５丁目２２番２９号,,11,228,3530004,,,2023-12-06,清算の結了等,,,2015-10-05,1,,,,,ユーリカ,0
1740,8030001053879,登記記録の閉鎖等,0,2023-12-11,2023-12-04,株式会社たがや農産,,株式会社,埼玉県,加須市,道地１４７３番地１,,11,210,3470121,,,2023-12-04,清算の結了等,,,2015-10-05,1,,,,,タガヤノウサン,0
1764,8050002014135,登記記録の閉鎖等,0,2023-12-11,2023-12-06,有限会社朝日合金,,有限会社,茨城県,かすみがうら市,中志筑１０５２番地の１,,08,230,3150075,,,2023-12-06,清算の結了等,,,2015-10-05,1,,,,,アサヒゴウキン,0
1767,8070002001684,登記記録の閉鎖等,0,2023-12-11,2023-12-05,有限会社共和設計,,有限会社,群馬県,前橋市,荒牧町１１７０番地の５,,10,201,3710044,,,2023-12-05,清算の結了等,,,2015-10-05,1,,,,,キョウワセッケイ,0
1769,8080103000064,登記記録の閉鎖等,0,2023-12-11,2023-12-08,合資会社めぐみ薬局,,合資会社,静岡県,沼津市,御幸町１９番１６号,,22,203,4100832,,,2023-12-08,清算の結了等,,,2015-10-05,1,,,,,メグミヤッキョク,0
1775,8110005011965,登記記録の閉鎖等,0,2023-12-11,2023-12-06,正源寺,,その他の設立登記法人,新潟県,長岡市,島崎４７０９番地１,,15,202,9494525,,,2023-12-06,清算の結了等,,,2015-10-05,1,,,,,ショウゲンジ,0
1790,8130001011967,登記記録の閉鎖等,0,2023-12-11,2023-12-05,友成商事株式会社,,株式会社,京都府,相楽郡精華町,大字菱田小字宮川原１０番地,,26,366,6190246,,,2023-12-05,清算の結了等,,,2015-10-05,1,,,,,ユウセイショウジ,0
1803,8180001018644,登記記録の閉鎖等,0,2023-12-11,2023-12-06,株式会社ルミナス,,株式会社,愛知県,名古屋市名東区,亀の井１丁目２０番地,,23,115,4650094,,,2023-12-06,清算の結了等,,,2015-10-05,1,,,,,ルミナス,0
1804,8180001048749,登記記録の閉鎖等,0,2023-12-11,2023-12-06,株式会社ネット・ライフ・サービス,,株式会社,愛知県,名古屋市東区,矢田２丁目１４番３４号,,23,102,4610040,,,2023-12-06,清算の結了等,,,2015-10-05,1,,,,,ネットライフサービス,0
1816,8180002073242,登記記録の閉鎖等,0,2023-12-11,2023-12-05,有限会社ウィズ・ユウ,,有限会社,愛知県,瀬戸市,栄町２６番地,,23,204,4890044,,,2023-12-05,清算の結了等,,,2015-10-05,1,,,,,ウィズユウ,0
1822,8200002018277,登記記録の閉鎖等,0,2023-12-11,2023-12-05,有限会社旬花,,有限会社,愛知県,名古屋市熱田区,金山町１丁目１３番１６号,,23,109,4560002,,,2023-12-05,清算の結了等,,,2015-10-05,1,,,,,シュンカ,0
1825,8220001000399,登記記録の閉鎖等,0,2023-12-11,2023-12-04,タカヰ株式会社,,株式会社,石川県,野々市市,稲荷１丁目１番地,,17,212,9218805,,,2023-12-04,清算の結了等,,,2015-10-05,1,,,,,タカイ,0
1830,8240002023843,登記記録の閉鎖等,0,2023-12-11,2023-12-05,有限会社喜多緒,,有限会社,広島県,広島市南区,丹那町１番３４号,,34,103,7340034,,,2023-12-05,清算の結了等,,,2015-10-05,1,,,,,キタオ,0
1832,8250002016854,登記記録の閉鎖等,0,2023-12-11,2023-12-07,有限会社凌商事,,有限会社,山口県,周南市,大字呼坂１００６番地の２８６,,35,215,7450612,,,2023-12-07,清算の結了等,,,2015-10-05,1,,,,,リョウショウジ,0
1863,8430001040143,登記記録の閉鎖等,0,2023-12-11,2023-12-01,株式会社札幌フレスト,,株式会社,北海道,札幌市白石区,米里一条３丁目５番１０号,,01,104,0030871,,,2023-12-01,合併による解散等,5430001020362,令和５年１２月１日札幌市白石区米里一条三丁目５番１０号株式会社ピックルスコーポレーション札幌（5430001020362）に合併し解散,2015-10-05,1,,,,,サッポロフレスト,0
1870,8460002002214,登記記録の閉鎖等,0,2023-12-11,2023-12-04,日成技研工業有限会社,,有限会社,北海道,釧路市,貝塚４丁目２番６号,,01,206,0850816,,,2023-12-04,清算の結了等,,,2015-10-05,1,,,,,ニッセイギケンコウギョウ,0
1876,8480005006730,登記記録の閉鎖等,0,2023-12-11,2023-12-07,一般社団法人にし阿波ＢＣＰサービス,,その他の設立登記法人,徳島県,三好郡東みよし町,加茂３０１３番地１,,36,489,7794701,,,2023-12-07,清算の結了等,,,2019-10-16,1,,,,,ニシアワビーシーピーサービス,0
1884,9010003028608,登記記録の閉鎖等,0,2023-12-11,2023-12-05,Ｔｏｋｙｏ　Ｅｘｐａｎｓｅ合同会社,,合同会社,東京都,千代田区,丸の内３丁目１番１号東京共同会計事務所内,,13,101,1000005,,,2023-12-05,清算の結了等,,,2018-11-02,1,,,,,トウキョウエクスパンス,0
1890,9010401105768,登記記録の閉鎖等,0,2023-12-11,2023-11-22,株式会社ヒューマンプラス,,株式会社,東京都,港区,虎ノ門５丁目１３番１号虎ノ門４０МＴビル９階ＢＴＪ税理士法人内,,13,103,1050001,,,2023-11-22,清算の結了等,,,2015-10-05,1,,,,,ヒューマンプラス,0
1896,9010403004927,登記記録の閉鎖等,0,2023-12-11,2023-12-05,合資会社リーシュ・リーシュ,,合資会社,東京都,港区,南青山２丁目２番１５－１００５号,,13,103,1070062,,,2023-12-05,清算の結了等,,,2015-10-05,1,,,,,リーシュリーシュ,0
1910,9011001125000,登記記録の閉鎖等,0,2023-12-11,2023-12-05,株式会社Ｂｏｋｕｒａｖｏ,,株式会社,東京都,渋谷区,恵比寿４丁目２０番４号恵比寿ガーデンプレイスグラススクエア内ＰＯＲＴＡＬＰＯＩＮＴＨ６,,13,113,1500013,,,2023-12-05,合併による解散等,9011001113863,令和５年１１月１５日東京都渋谷区恵比寿四丁目２０番４号恵比寿ガーデンプレイスグラススクエア内ＰＯＲＴＡＬＰＯＩＮＴ．Ｈ６株式会社ＢＨＫ（9011001113863）に合併し解散,2018-11-06,1,,,,,ボクラボ,0
1911,9011001125719,登記記録の閉鎖等,0,2023-12-11,2023-12-05,株式会社ｏｒｅｖｏ,,株式会社,東京都,渋谷区,恵比寿４丁目２０番４号恵比寿ガーデンプレイスグラススクエア内ＰＯＲＴＡＬＰＯＩＮＴ,,13,113,1500013,,,2023-12-05,合併による解散等,9011001113863,令和５年１１月１５日東京都渋谷区恵比寿四丁目２０番４号恵比寿ガーデンプレイスグラススクエア内ＰＯＲＴＡＬＰＯＩＮＴ．Ｈ６株式会社ＢＨＫ（9011001113863）に合併し解散,2018-12-21,1,,,,,オレボ,0
1916,9011003006792,登記記録の閉鎖等,0,2023-12-11,2023-12-06,ライトアンサー合同会社,,合同会社,東京都,渋谷区,代官山町２０番９号,,13,113,1500034,,,2023-12-06,清算の結了等,,,2016-05-11,1,,,,,ライトアンサー,0
1917,9011003012931,登記記録の閉鎖等,0,2023-12-11,2023-12-05,セーブビット合同会社,,合同会社,東京都,渋谷区,渋谷１丁目８番５号,,13,113,1500002,,,2023-12-05,清算の結了等,,,2021-07-01,1,,,,,セーブビット,0
1923,9011103005042,登記記録の閉鎖等,0,2023-12-11,2023-12-06,ティーダ・パワー５８合同会社,,合同会社,東京都,新宿区,西新宿２丁目１番１号新宿三井ビル４３階,,13,104,1600023,,,2023-12-06,清算の結了等,,,2015-10-05,1,,,,,ティーダパワーゴハチ,0
1937,9011602001905,登記記録の閉鎖等,0,2023-12-11,2023-12-07,有限会社大泉薬局,,有限会社,東京都,練馬区,東大泉１丁目２７番２５号,,13,120,1780063,,,2023-12-07,合併による解散等,6011401010787,令和５年１２月１日東京都板橋区坂下二丁目３２番２３号株式会社エスシーグループ（6011401010787）に合併し解散,2015-10-05,1,,,,,,0
1939,9011702001433,登記記録の閉鎖等,0,2023-12-11,2023-12-07,有限会社ウィットゾーン,,有限会社,東京都,江戸川区,江戸川２丁目８番１号（セントラルエアコン商会内）,,13,123,1320013,,,2023-12-07,清算の結了等,,,2015-10-05,1,,,,,ウィットゾーン,0
1941,9011801028195,登記記録の閉鎖等,0,2023-12-11,2023-12-07,株式会社ニシダ,,株式会社,東京都,葛飾区,立石３丁目２番８号,,13,122,1240012,,,2023-12-07,清算の結了等,,,2015-10-05,1,,,,,ニシダ,0
1948,9012403005228,登記記録の閉鎖等,0,2023-12-11,2023-12-04,合同会社Ｎスタジオ,,合同会社,東京都,武蔵野市,関前５丁目１４番１０号カサ・ベルディー３０１,,13,203,1800014,,,2023-12-04,清算の結了等,,,2022-02-09,1,,,,,エヌスタジオ,0
1965,9021005011328,登記記録の閉鎖等,0,2023-12-11,2023-12-07,一般社団法人カマクラリッチグループ,,その他の設立登記法人,神奈川県,藤沢市,鵠沼桜が岡３丁目１８番５号マグノリアハイツ１０１,,14,205,2510027,,,2023-12-07,清算の結了等,,,2018-06-05,1,,,,,カマクラリッチグループ,0
1971,9030002014805,登記記録の閉鎖等,0,2023-12-11,2023-12-06,有限会社ランド設計,,有限会社,埼玉県,さいたま市北区,宮原町４丁目１０５番地の１０,,11,102,3310812,,,2023-12-06,清算の結了等,,,2015-10-05,1,,,,,ランドセッケイ,0
1973,9030002073512,登記記録の閉鎖等,0,2023-12-11,2023-11-30,有限会社笹屋商店,,有限会社,埼玉県,川越市,喜多町１番地２,,11,201,3500061,,,2023-11-30,清算の結了等,,,2015-10-05,1,,,,,ササヤショウテン,0
1994,9080102006648,登記記録の閉鎖等,0,2023-12-11,2023-12-08,有限会社一文字屋興産,,有限会社,静岡県,御殿場市,新橋２０５３番地の３２,,22,215,4120043,,,2023-12-08,清算の結了等,,,2015-10-05,1,,,,,イチモンジヤコウサン,0
1998,9110003004417,登記記録の閉鎖等,0,2023-12-11,2023-12-04,合同会社一一,,合同会社,新潟県,三条市,長沢５３４－２,,15,204,9550157,,,2023-12-04,清算の結了等,,,2021-03-16,1,,,,,カズイチ,0
2005,9120001242447,登記記録の閉鎖等,0,2023-12-11,2023-12-04,株式会社フォワデザイン,,株式会社,大阪府,大阪市福島区,海老江１丁目５番３０－１４０６号,,27,103,5530001,,,2023-12-04,清算の結了等,,,2021-12-10,1,,,,,フォワデザイン,0
2016,9130002003112,登記記録の閉鎖等,0,2023-12-11,2023-12-06,有限会社よしや楽器,,有限会社,京都府,京都市上京区,河原町通荒神口下る上生洲町２１１番地の１３,,26,102,6020855,,,2023-12-06,清算の結了等,,,2015-10-05,1,,,,,ヨシヤガッキ,0
2017,9130003007137,登記記録の閉鎖等,0,2023-12-11,2023-12-05,合同会社Ｃｕｔ　ｔｈｅ　ＤＲＡＭＡ,,合同会社,京都府,木津川市,相楽川ノ尻８番地１０,,26,214,6190222,,,2023-12-05,清算の結了等,,,2021-04-06,1,,,,,カットザドラマ,0
2019,9140001006651,登記記録の閉鎖等,0,2023-12-11,2023-12-04,オーバーシーズ・エンジニアリング株式会社,,株式会社,兵庫県,神戸市灘区,大石東町３丁目４番２号,,28,102,6570043,,,2023-12-04,清算の結了等,,,2015-10-05,1,,,,,オーバーシーズエンジニアリング,0
2025,9140005019063,登記記録の閉鎖等,0,2023-12-11,2023-11-30,特定非営利活動法人あんさんぶる,,その他の設立登記法人,兵庫県,伊丹市,荒牧南２丁目２２番３０号,,28,207,6640008,,,2023-11-30,清算の結了等,,,2015-10-05,1,,,,,アンサンブル,0
2034,9180001075932,登記記録の閉鎖等,0,2023-12-11,2023-12-05,株式会社三洋電機製作所,,株式会社,愛知県,小牧市,大字横内字下割子２８７番地３,,23,219,4850081,,,2023-12-05,清算の結了等,,,2015-10-05,1,,,,,サンヨウデンキセイサクジョ,0
2035,9180001084603,登記記録の閉鎖等,0,2023-12-11,2023-12-05,尾北給食センター株式会社,,株式会社,愛知県,一宮市,木曽川町玉ノ井字寺西７１番地の１,,23,203,4930004,,,2023-12-05,清算の結了等,,,2015-10-05,1,,,,,ビホクキュウショクセンター,0
2058,9260002034549,登記記録の閉鎖等,0,2023-12-11,2023-12-07,平松空罐有限会社,,有限会社,岡山県,岡山市北区,清輝本町５番１８号,,33,101,7000862,,,2023-12-07,清算の結了等,,,2023-02-09,1,,,,,ヒラマツクウカン,0
2105,9500002009187,登記記録の閉鎖等,0,2023-12-11,2023-12-08,有限会社コームズ,,有限会社,愛媛県,松山市,高野町甲１１５番地１,,38,201,7910102,,,2023-12-08,清算の結了等,,,2015-10-05,1,,,,,コームズ,0
