sequenceNumber,corporateNumber,process,correct,updateDate,changeDate,name,nameImageId,kind,prefectureName,cityName,streetNumber,addressImageId,prefectureCode,cityCode,postCode,addressOutside,addressOutsideImageId,closeDate,closeCause,successorCorporateNumber,changeCause,assignmentDate,latest,enName,enPrefectureName,enCityName,enAddressOutside,furigana,hihyoji
15,1010002019004,登記記録の閉鎖等,0,2023-09-19,2023-09-08,有限会社銀座升本,,有限会社,東京都,中央区,銀座１丁目４番７号,,13,102,1040061,,,2023-09-08,清算の結了等,,,2015-10-05,1,,,,,ギンザマスモト,0
30,1010601039154,登記記録の閉鎖等,0,2023-09-19,2023-09-13,株式会社ＰＡＤ,,株式会社,東京都,墨田区,亀沢４丁目２１番３号ｃｏ‐ｌａｂ墨田亀沢,,13,107,1300014,,,2023-09-13,清算の結了等,,,2015-10-05,1,,,,,,0
41,1010901036421,登記記録の閉鎖等,0,2023-09-19,2023-09-07,ジャパン株式会社,,株式会社,東京都,渋谷区,恵比寿２丁目２８－１０,,13,113,1500013,,,2023-09-07,清算の結了等,,,2015-10-05,1,,,,,ジャパン,0
58,1011201016907,登記記録の閉鎖等,0,2023-09-19,2023-09-12,株式会社トーゴープロダクション,,株式会社,愛知県,名古屋市天白区,原３丁目４１１番地の１,,23,116,4680015,,,2023-09-12,清算の結了等,,,2015-10-05,1,,,,,トーゴープロダクション,0
61,1011202005925,登記記録の閉鎖等,0,2023-09-19,2023-09-14,有限会社ムーングレイ,,有限会社,東京都,中野区,新井１丁目２５番４号,,13,114,1650026,,,2023-09-14,清算の結了等,,,2015-10-05,1,,,,,ムーングレイ,0
62,1011401003333,登記記録の閉鎖等,0,2023-09-19,2023-09-14,株式会社菅原製作所,,株式会社,東京都,板橋区,前野町４丁目３５番４号,,13,119,1740063,,,2023-09-14,清算の結了等,,,2015-10-05,1,,,,,スガワラセイサクショ,0
70,1011801001589,登記記録の閉鎖等,0,2023-09-19,2023-09-13,株式会社小林電業社,,株式会社,東京都,葛飾区,堀切７丁目１０番５号,,13,122,1240006,,,2023-09-13,清算の結了等,,,2015-10-05,1,,,,,コバヤシデンギョウシャ,0
75,1012702007428,登記記録の閉鎖等,0,2023-09-19,2023-09-14,有限会社盛寿司,,有限会社,東京都,東久留米市,小山３丁目１１番１３号,,13,222,2030051,,,2023-09-14,清算の結了等,,,2015-10-05,1,,,,,モリズシ,0
76,1012801007270,登記記録の閉鎖等,0,2023-09-19,2023-09-11,株式会社フードスタイル,,株式会社,東京都,武蔵村山市,残堀１丁目１１４番地の３,,13,223,2080034,,,2023-09-11,清算の結了等,,,2015-10-05,1,,,,,フードスタイル,0
86,1020001001936,登記記録の閉鎖等,0,2023-09-19,2023-09-08,株式会社兼平商店,,株式会社,神奈川県,横浜市緑区,十日市場町９０４番地１４,,14,113,2260025,,,2023-09-08,清算の結了等,,,2015-10-05,1,,,,,カネヒラショウテン,0
114,1030002029026,登記記録の閉鎖等,0,2023-09-19,2023-09-12,有限会社クローバー,,有限会社,埼玉県,所沢市,若狭４丁目２４７５番１０号,,11,208,3591151,,,2023-09-12,清算の結了等,,,2015-10-05,1,,,,,クローバー,0
144,1060001007153,登記記録の閉鎖等,0,2023-09-19,2023-09-11,セコム喜連川セキュリティ株式会社,,株式会社,東京都,渋谷区,神宮前１丁目５番１号,,13,113,1500001,,,2023-09-11,清算の結了等,,,2015-10-05,1,,,,,セコムキツレガワセキュリティ,0
147,1060002039955,登記記録の閉鎖等,0,2023-09-19,2023-09-05,有限会社丸山建築板金,,有限会社,栃木県,佐野市,山形町２０７番地１,,09,204,3270324,,,2023-09-05,清算の結了等,,,2015-10-05,1,,,,,マルヤマケンチクバンキン,0
153,1080101001368,登記記録の閉鎖等,0,2023-09-19,2023-09-14,株式会社ナナミ商業店装,,株式会社,静岡県,沼津市,西島町３番８号,,22,203,4100835,,,2023-09-14,清算の結了等,,,2015-10-05,1,,,,,ナナミショウギョウテンソウ,0
155,1080102010624,登記記録の閉鎖等,0,2023-09-19,2023-09-15,有限会社鈴秀林業,,有限会社,静岡県,田方郡函南町,田代５７番地,,22,325,4190102,,,2023-09-15,清算の結了等,,,2015-10-05,1,,,,,スズヒデリンギョウ,0
185,1140001070589,登記記録の閉鎖等,0,2023-09-19,2023-09-12,彌衛産業株式会社,,株式会社,兵庫県,西宮市,甲子園口北町１６番６号,,28,204,6638112,,,2023-09-12,清算の結了等,,,2015-10-05,1,,,,,ヤエイサンギョウ,0
194,1140002059763,登記記録の閉鎖等,0,2023-09-19,2023-09-14,有限会社フルセール不動産,,有限会社,兵庫県,西宮市,浜甲子園２丁目８番２０号,,28,204,6638154,,,2023-09-14,清算の結了等,,,2015-10-05,1,,,,,フルセールフドウサン,0
198,1180001025259,登記記録の閉鎖等,0,2023-09-19,2023-09-08,共和システム株式会社,,株式会社,愛知県,北名古屋市,北野五反畑２番地,,23,234,4810034,,,2023-09-08,清算の結了等,,,2015-10-05,1,,,,,キョウワシステム,0
200,1180001099237,登記記録の閉鎖等,0,2023-09-19,2023-09-07,株式会社フロンティアコンサルタント,,株式会社,愛知県,海部郡飛島村,大字渚１丁目１５８番地,,23,427,4901433,,,2023-09-07,清算の結了等,,,2015-10-05,1,,,,,フロンティアコンサルタント,0
208,1180002039803,登記記録の閉鎖等,0,2023-09-19,2023-09-11,有限会社マーケティング開発,,有限会社,愛知県,名古屋市緑区,大高町字西門田４１番地,,23,114,4598001,,,2023-09-11,清算の結了等,,,2015-10-05,1,,,,,マーケティングカイハツ,0
213,1180301017179,登記記録の閉鎖等,0,2023-09-19,2023-08-23,株式会社三徳,,株式会社,埼玉県,加須市,花崎２丁目２１番地５ヴィラ・ルネッサンス２０８,,11,210,3470032,,,2023-08-23,清算の結了等,,,2015-10-05,1,,,,,サントク,0
223,1220002014339,登記記録の閉鎖等,0,2023-09-19,2023-09-13,有限会社土本繊維工業,,有限会社,石川県,鹿島郡中能登町,黒氏壱壱部８番地,,17,407,9291716,,,2023-09-13,清算の結了等,,,2015-10-05,1,,,,,ツチモトセンイコウギョウ,0
225,1230001016483,登記記録の閉鎖等,0,2023-09-19,2023-09-14,株式会社ファンネット,,株式会社,富山県,下新川郡入善町,入膳３２３４－１番地,,16,342,9390626,,,2023-09-14,清算の結了等,,,2016-06-03,1,,,,,ファンネット,0
231,1260002001977,登記記録の閉鎖等,0,2023-09-19,2023-09-14,大月商事有限会社,,有限会社,岡山県,岡山市中区,東山３丁目５番２０号,,33,102,7038281,,,2023-09-14,清算の結了等,,,2015-10-05,1,,,,,オオツキショウジ,0
241,1290001060815,登記記録の閉鎖等,0,2023-09-19,2023-09-06,尾仲工芸株式会社,,株式会社,福岡県,糟屋郡宇美町,障子岳南５丁目６番８号,,40,341,8112126,,,2023-09-06,清算の結了等,,,2015-10-05,1,,,,,オナカコウゲイ,0
271,1410002009245,登記記録の閉鎖等,0,2023-09-19,2023-09-11,有限会社鈴謙,,有限会社,秋田県,北秋田市,阿仁打当字下タ岱１７番地１,,05,213,0184731,,,2023-09-11,清算の結了等,,,2015-10-05,1,,,,,スズケン,0
285,1490001010287,登記記録の閉鎖等,0,2023-09-19,2023-09-13,入交生命工学第２株式会社,,株式会社,高知県,高知市,仁井田４５６３番地１,,39,201,7810112,,,2023-09-13,清算の結了等,,,2022-09-13,1,,,,,イリマジリセイメイコウガクダイニ,0
290,2010001120620,登記記録の閉鎖等,0,2023-09-19,2023-09-06,株式会社バンガレ,,株式会社,福岡県,福岡市博多区,東那珂２丁目１０番５５号,,40,132,8120892,,,2023-09-06,清算の結了等,,,2015-10-05,1,,,,,バンガレ,0
291,2010001132112,登記記録の閉鎖等,0,2023-09-19,2023-09-13,株式会社キヨネット,,株式会社,東京都,江東区,東陽２丁目４番３４号,,13,108,1350016,,,2023-09-13,清算の結了等,,,2015-10-05,1,,,,,キヨネット,0
329,2010902008749,登記記録の閉鎖等,0,2023-09-19,2023-09-11,有限会社創建,,有限会社,東京都,世田谷区,大蔵５丁目１６番１２号,,13,112,1570074,,,2023-09-11,清算の結了等,,,2015-10-05,1,,,,,ソウケン,0
348,2011301025146,登記記録の閉鎖等,0,2023-09-19,2023-09-14,株式会社Ｎａｔｓ,,株式会社,東京都,台東区,根岸２丁目４番５号,,13,106,1100003,,,2023-09-14,清算の結了等,,,2019-06-27,1,,,,,ナッツ,0
353,2011402002440,登記記録の閉鎖等,0,2023-09-19,2023-09-14,かみや商事有限会社,,有限会社,東京都,板橋区,幸町２４番２号,,13,119,1730034,,,2023-09-14,清算の結了等,,,2015-10-05,1,,,,,カミヤショウジ,0
394,2030002003070,登記記録の閉鎖等,0,2023-09-19,2023-08-25,有限会社大谷塗装店,,有限会社,埼玉県,さいたま市北区,吉野町２丁目１７７番地の１５,,11,102,3310811,,,2023-08-25,清算の結了等,,,2015-10-05,1,,,,,オオタニトソウテン,0
407,2040001065012,登記記録の閉鎖等,0,2023-09-19,2023-09-15,千葉孵化場株式会社,,株式会社,千葉県,東金市,小野４番地１,,12,213,2830821,,,2023-09-15,合併による解散等,5050001011375,令和５年９月１日茨城県小美玉市小岩戸字西峰１９７１番１イセファーム株式会社（5050001011375）に合併し解散,2015-10-05,1,,,,,チバフカジョウ,0
419,2040005021028,登記記録の閉鎖等,0,2023-09-19,2023-08-31,特定非営利活動法人Ｆｌｏｒｅｓ,,その他の設立登記法人,千葉県,市川市,田尻３丁目８番２２号,,12,203,2720014,,,2023-08-31,清算の結了等,,,2020-12-17,1,,,,,フローレス,0
425,2050002007474,登記記録の閉鎖等,0,2023-09-19,2023-09-08,有限会社シンヨー,,有限会社,茨城県,水戸市,酒門町５８３番地の３,,08,201,3100841,,,2023-09-08,清算の結了等,,,2015-10-05,1,,,,,シンヨー,0
429,2070001030962,登記記録の閉鎖等,0,2023-09-19,2023-09-14,株式会社稲穂,,株式会社,群馬県,伊勢崎市,波志江町４１１８番地２８,,10,204,3720001,,,2023-09-14,清算の結了等,,,2015-10-05,1,,,,,イナホ,0
435,2080001010410,登記記録の閉鎖等,0,2023-09-19,2023-09-19,ツアーシップ株式会社,,株式会社,静岡県,静岡市駿河区,曲金１丁目３番９号,,22,102,4228006,,,2023-09-19,清算の結了等,,,2015-10-05,1,,,,,ツアーシップ,0
437,2080002009848,登記記録の閉鎖等,0,2023-09-19,2023-09-14,五興運輸有限会社,,有限会社,静岡県,藤枝市,仮宿１５１１番地の２,,22,214,4260001,,,2023-09-14,清算の結了等,,,2015-10-05,1,,,,,ゴコウウンユ,0
452,2100005007689,登記記録の閉鎖等,0,2023-09-19,2023-09-08,木曽小売酒販組合,,その他の設立登記法人,長野県,木曽郡木曽町,福島２６４３番地３,,20,432,3970001,,,2023-09-08,清算の結了等,,,2015-10-05,1,,,,,キソコウリ,0
458,2120001147413,登記記録の閉鎖等,0,2023-09-19,2023-09-07,ウエスト建材株式会社,,株式会社,大阪府,寝屋川市,楠根南町１３番１２号,,27,215,5720811,,,2023-09-07,合併による解散等,2120001148188,令和５年９月１日大阪府寝屋川市楠根南町１３番１２号株式会社大成（2120001148188）に合併し解散,2015-10-05,1,,,,,ウエストケンザイ,0
477,2130001041763,登記記録の閉鎖等,0,2023-09-19,2023-09-01,株式会社スタイル,,株式会社,京都府,福知山市,字三俣３７５番地,,26,201,6200821,,,2023-09-01,清算の結了等,,,2015-10-05,1,,,,,スタイル,0
498,2180001065956,登記記録の閉鎖等,0,2023-09-19,2023-09-11,株式会社匠工業,,株式会社,愛知県,名古屋市南区,鳥山町１丁目１３番地の１,,23,112,4570057,,,2023-09-11,清算の結了等,,,2015-10-05,1,,,,,タクミコウギョウ,0
499,2180001113558,登記記録の閉鎖等,0,2023-09-19,2023-08-14,株式会社ＧＡＶ,,株式会社,愛知県,稲沢市,祖父江町三丸渕七前２－３,,23,220,4950021,,,2023-08-14,清算の結了等,,,2015-10-05,1,,,,,ジーエーブイ,0
506,2180002038837,登記記録の閉鎖等,0,2023-09-19,2023-09-13,有限会社名古屋パブリック,,有限会社,愛知県,名古屋市緑区,尾崎山１丁目３０１番地,,23,114,4580024,,,2023-09-13,清算の結了等,,,2015-10-05,1,,,,,ナゴヤパブリック,0
519,2210001018737,登記記録の閉鎖等,0,2023-09-19,2023-09-13,越前市西部電力株式会社,,株式会社,福井県,越前市,広瀬町第１１７号１番地の１１,,18,209,9150872,,,2023-09-13,清算の結了等,,,2021-12-24,1,,,,,エチゼンシセイブデンリョク,0
527,2260001013790,登記記録の閉鎖等,0,2023-09-19,2023-09-13,株式会社妹尾工業所,,株式会社,岡山県,倉敷市,粒浦２１２番地の２,,33,202,7100036,,,2023-09-13,清算の結了等,,,2015-10-05,1,,,,,セノオコウギョウショ,0
532,2260005001296,登記記録の閉鎖等,0,2023-09-19,2023-09-14,岡山県水産物商業協同組合,,その他の設立登記法人,岡山県,岡山市南区,市場１丁目１番地,,33,104,7028052,,,2023-09-14,清算の結了等,,,2015-10-05,1,,,,,オカヤマケンスイサンブツショウギョウ,0
561,2340002013872,登記記録の閉鎖等,0,2023-09-19,2023-09-15,有限会社つるた,,有限会社,鹿児島県,霧島市,国分清水１丁目６番１２号,,46,218,8994304,,,2023-09-15,清算の結了等,,,2015-10-05,1,,,,,ツルタ,0
566,2360001019282,登記記録の閉鎖等,0,2023-09-19,2023-09-12,ＨＴ株式会社,,株式会社,沖縄県,沖縄市,美里４丁目１７番７号,,47,211,9042153,,,2023-09-12,清算の結了等,,,2015-10-05,1,,,,,エイチティー,0
572,2370201000272,登記記録の閉鎖等,0,2023-09-19,2023-09-07,株式会社タカハシ製作所,,株式会社,宮城県,大崎市,古川鶴ケ埣字新江北１１０番,,04,215,9896111,,,2023-09-07,清算の結了等,,,2015-10-05,1,,,,,タカハシセイサクショ,0
573,2370202000577,登記記録の閉鎖等,0,2023-09-19,2023-09-07,有限会社スター電子工業,,有限会社,宮城県,大崎市,古川小稲葉町６番７号,,04,215,9896144,,,2023-09-07,清算の結了等,,,2015-10-05,1,,,,,スターデンシコウギョウ,0
582,2430001015885,登記記録の閉鎖等,0,2023-09-19,2023-09-11,堀内興業株式会社,,株式会社,北海道,札幌市南区,藤野二条１３丁目４番１１号,,01,106,0612282,,,2023-09-11,清算の結了等,,,2015-10-05,1,,,,,ホリウチコウギョウ,0
592,3010001146540,登記記録の閉鎖等,0,2023-09-19,2023-09-08,株式会社ワンオアエイト,,株式会社,東京都,千代田区,神田錦町２丁目２番１号,,13,101,1010054,,,2023-09-08,合併による解散等,5010001171314,令和５年９月１日東京都千代田区神田錦町二丁目２番１号株式会社ワンオアエイト（5010001171314）に合併し解散,2015-10-05,1,,,,,ワンオアエイト,0
628,3010903004507,登記記録の閉鎖等,0,2023-09-19,2023-08-24,合同会社イーモーション,,合同会社,埼玉県,鴻巣市,三ツ木４９３－１０,,11,217,3650066,,,2023-08-24,清算の結了等,,,2018-08-23,1,,,,,イーモーション,0
647,3011601006381,登記記録の閉鎖等,0,2023-09-19,2023-09-12,丸善総業株式会社,,株式会社,東京都,練馬区,大泉学園町６丁目８番２５号,,13,120,1780061,,,2023-09-12,清算の結了等,,,2015-10-05,1,,,,,マルゼンソウギョウ,0
668,3020002063610,登記記録の閉鎖等,0,2023-09-19,2023-09-08,有限会社イーエスワン,,有限会社,神奈川県,横浜市都筑区,高山１３番７号,,14,118,2240065,,,2023-09-08,清算の結了等,,,2015-10-05,1,,,,,イーエスワン,0
677,3021002028826,登記記録の閉鎖等,0,2023-09-19,2023-09-08,有限会社榎本デンタルラボ,,有限会社,神奈川県,相模原市緑区,三ケ木１４７番地,,14,151,2520159,,,2023-09-08,清算の結了等,,,2015-10-05,1,,,,,エノモトデンタルラボ,0
681,3030001005356,登記記録の閉鎖等,0,2023-09-19,2023-08-28,株式会社田中商店,,株式会社,埼玉県,さいたま市見沼区,大和田町１丁目１４２５番地２,,11,104,3370053,,,2023-08-28,清算の結了等,,,2015-10-05,1,,,,,タナカショウテン,0
691,3040001053544,登記記録の閉鎖等,0,2023-09-19,2023-09-01,アヅマ・フレコンメンテナンス株式会社,,株式会社,千葉県,市原市,玉前西２丁目３番地４３,,12,219,2900044,,,2023-09-01,合併による解散等,3040001082634,令和５年９月１日千葉県市原市玉前西二丁目４番地３７アヅマホールディングス株式会社（3040001082634）に合併し解散,2015-10-05,1,,,,,アヅマフレコンメンテナンス,0
716,3060001009222,登記記録の閉鎖等,0,2023-09-19,2023-09-07,株式会社宇都宮清月堂,,株式会社,栃木県,宇都宮市,下戸祭１丁目５番１０８号,,09,201,3200055,,,2023-09-07,清算の結了等,,,2015-10-05,1,,,,,ウツノミヤセイゲツドウ,0
717,3060001010337,登記記録の閉鎖等,0,2023-09-19,2023-09-08,鹿沼砕石工業株式会社,,株式会社,東京都,千代田区,一番町９番地５,,13,101,1020082,,,2023-09-08,清算の結了等,,,2015-10-05,1,,,,,カヌマサイセキコウギョウ,0
736,3110001014051,登記記録の閉鎖等,0,2023-09-19,2023-09-13,株式会社栗山呉服店,,株式会社,新潟県,三条市,本町１丁目３番１９号,,15,204,9550071,,,2023-09-13,清算の結了等,,,2015-10-05,1,,,,,クリヤマゴフクテン,0
759,3122001001292,登記記録の閉鎖等,0,2023-09-19,2023-09-11,株式会社オリコム関西,,株式会社,大阪府,東大阪市,長田中５丁目１番１５号,,27,227,5770013,,,2023-09-11,清算の結了等,,,2015-10-05,1,,,,,,0
785,3140003015730,登記記録の閉鎖等,0,2023-09-19,2023-09-07,プロップハック合同会社,,合同会社,兵庫県,神戸市灘区,楠丘町３丁目１１番７号,,28,102,6570024,,,2023-09-07,清算の結了等,,,2020-12-25,1,,,,,プロップハック,0
801,3220002011846,登記記録の閉鎖等,0,2023-09-19,2023-09-15,有限会社キタトシ,,有限会社,石川県,小松市,今江町７丁目６３６番地,,17,203,9230964,,,2023-09-15,清算の結了等,,,2015-10-05,1,,,,,キタトシ,0
821,3290002052017,登記記録の閉鎖等,0,2023-09-19,2023-09-07,有限会社ハーベストゴールド,,有限会社,福岡県,久留米市,北野町十郎丸１８７６番地５,,40,203,8301121,,,2023-09-07,清算の結了等,,,2015-10-05,1,,,,,ハーベストゴールド,0
829,3310001010856,登記記録の閉鎖等,0,2023-09-19,2023-09-14,株式会社滝ノ原建設,,株式会社,長崎県,対馬市,上県町樫滝５番地１,,42,209,8171522,,,2023-09-14,清算の結了等,,,2015-10-05,1,,,,,タキノハラケンセツ,0
831,3310002015499,登記記録の閉鎖等,0,2023-09-19,2023-09-14,有限会社ヒロシオート,,有限会社,長崎県,諫早市,土師野尾町１７７２番地１,,42,204,8540056,,,2023-09-14,清算の結了等,,,2015-10-05,1,,,,,ヒロシオート,0
841,3350001010885,登記記録の閉鎖等,0,2023-09-19,2023-09-06,株式会社天海,,株式会社,宮崎県,北諸県郡三股町,大字樺山１８５２番地１８,,45,341,8891901,,,2023-09-06,清算の結了等,,,2015-10-05,1,,,,,テンカイ,0
856,3470001009726,登記記録の閉鎖等,0,2023-09-19,2023-09-12,上田通船株式会社,,株式会社,香川県,仲多度郡多度津町,大字三井４１３番地６,,37,404,7640032,,,2023-09-12,清算の結了等,,,2015-10-05,1,,,,,ウエダツウセン,0
866,4010001168971,登記記録の閉鎖等,0,2023-09-19,2023-09-11,株式会社銀座健康倶楽部,,株式会社,東京都,中央区,銀座１丁目７番１７号ヒューリック銀座一丁目ガス灯通６階,,13,102,1040061,,,2023-09-11,清算の結了等,,,2015-10-05,1,,,,,ギンザケンコウクラブ,0
876,4010005033057,登記記録の閉鎖等,0,2023-09-19,2023-09-08,代々木駅前開発一般社団法人,,その他の設立登記法人,神奈川県,横浜市中区,扇町２丁目５番１５号リラックスビル８階,,14,104,2310027,,,2023-09-08,清算の結了等,,,2021-03-11,1,,,,,ヨヨギエキマエカイハツ,0
899,4011001013696,登記記録の閉鎖等,0,2023-09-19,2023-09-12,株式会社ハイオリジン社,,株式会社,東京都,渋谷区,幡ヶ谷１丁目７番５号,,13,113,1510072,,,2023-09-12,清算の結了等,,,2015-10-05,1,,,,,ハイオリジンシャ,0
915,4011101095817,登記記録の閉鎖等,0,2023-09-19,2023-09-07,株式会社ＳＬＡＳＨ　ｃｒｅａｔｉｖｅ　ｏｆｆｉｃｅ,,株式会社,東京都,新宿区,西新宿７丁目１番７新宿ダイカンプラザＡ１０１８,,13,104,1600023,,,2023-09-07,清算の結了等,,,2021-07-30,1,,,,,スラッシュクリエイティブオフィス,0
916,4011201017803,登記記録の閉鎖等,0,2023-09-19,2023-09-14,株式会社ＮＳＰ綜合サービス,,株式会社,東京都,中野区,東中野３丁目１８番１２号,,13,114,1640003,,,2023-09-14,清算の結了等,,,2015-10-05,1,,,,,エヌエスピーソウゴウサービス,0
918,4011401018056,登記記録の閉鎖等,0,2023-09-19,2023-08-23,Ｊ．Ｖ．Ｃｏｎｎｅｃｔｉｏｎ株式会社,,株式会社,埼玉県,川口市,本町４丁目３－１４小峰第一ビル４Ｆ,,11,203,3320012,,,2023-08-23,清算の結了等,,,2015-10-05,1,,,,,ジェイブイコネクション,0
947,4020002102838,登記記録の閉鎖等,0,2023-09-19,2023-09-08,有限会社フジナカ工芸,,有限会社,神奈川県,川崎市中原区,宮内２丁目１７番３８号,,14,133,2110051,,,2023-09-08,清算の結了等,,,2015-10-05,1,,,,,フジナカコウゲイ,0
958,4030001038099,登記記録の閉鎖等,0,2023-09-19,2023-08-24,株式会社東京定木,,株式会社,埼玉県,八潮市,大字二丁目５０２番地,,11,234,3400811,,,2023-08-24,清算の結了等,,,2015-10-05,1,,,,,,0
961,4030001098151,登記記録の閉鎖等,0,2023-09-19,2023-08-03,株式会社武南物流,,株式会社,埼玉県,川口市,大字新堀９３７番地,,11,203,3340061,,,2023-08-03,清算の結了等,,,2015-10-05,1,,,,,ブナンブツリュウ,0
963,4030002054533,登記記録の閉鎖等,0,2023-09-19,2023-08-28,有限会社苗村商会,,有限会社,埼玉県,上尾市,大字平方１３２１番地２,,11,219,3620059,,,2023-08-28,清算の結了等,,,2015-10-05,1,,,,,ナエムラショウカイ,0
970,4040001020972,登記記録の閉鎖等,0,2023-09-19,2023-09-01,株式会社ティワイコーポレーション,,株式会社,千葉県,八千代市,萱田１０５７番地１,,12,221,2760043,,,2023-09-01,清算の結了等,,,2015-10-05,1,,,,,ティワイコーポレーション,0
979,4040002025715,登記記録の閉鎖等,0,2023-09-19,2023-09-01,有限会社御代川,,有限会社,千葉県,船橋市,咲が丘２丁目２７番１８号,,12,204,2740807,,,2023-09-01,清算の結了等,,,2015-10-05,1,,,,,ミヨカワ,0
983,4040002085750,登記記録の閉鎖等,0,2023-09-19,2023-09-01,有限会社銚子シート,,有限会社,千葉県,銚子市,清川町１丁目９番地の９,,12,202,2880817,,,2023-09-01,清算の結了等,,,2015-10-05,1,,,,,チョウシシート,0
992,4050003004295,登記記録の閉鎖等,0,2023-09-19,2023-09-06,合同会社仲田不動産管理,,合同会社,茨城県,潮来市,日の出７丁目９番地２３プラシード５－１０１,,08,223,3112423,,,2023-09-06,清算の結了等,,,2018-07-25,1,,,,,ナカタフドウサンカンリ,0
1001,4090001007032,登記記録の閉鎖等,0,2023-09-19,2023-09-08,株式会社恵和,,株式会社,山梨県,甲斐市,竜王新町１７７２番地２４,,19,210,4000111,,,2023-09-08,清算の結了等,,,2015-10-05,1,,,,,ケイワ,0
1057,4140001093595,登記記録の閉鎖等,0,2023-09-19,2023-09-07,株式会社ファミールホールディングス,,株式会社,大阪府,大阪市阿倍野区,阿倍野筋３丁目１０番１号,,27,119,5450052,,,2023-09-07,清算の結了等,,,2015-10-05,1,,,,,,0
1059,4140001104699,登記記録の閉鎖等,0,2023-09-19,2023-09-12,株式会社ヨーリンテック,,株式会社,兵庫県,尼崎市,富松町２丁目１７番１６号,,28,202,6610003,,,2023-09-12,清算の結了等,,,2017-01-16,1,,,,,ヨーリンテック,0
1062,4140002033732,登記記録の閉鎖等,0,2023-09-19,2023-09-11,有限会社山田建設,,有限会社,兵庫県,赤穂市,尾崎２０９８番地の６,,28,212,6780221,,,2023-09-11,清算の結了等,,,2015-10-05,1,,,,,ヤマダケンセツ,0
1069,4180001061854,登記記録の閉鎖等,0,2023-09-19,2023-09-14,中京センタレス株式会社,,株式会社,東京都,大田区,南千束１丁目２５番７号,,13,111,1450063,,,2023-09-14,清算の結了等,,,2015-10-05,1,,,,,チュウキョウセンタレス,0
1082,4180003003375,登記記録の閉鎖等,0,2023-09-19,2023-09-08,合資会社荒子温泉,,合資会社,愛知県,名古屋市中川区,大塩町３丁目７５番地,,23,110,4540863,,,2023-09-08,清算の結了等,,,2015-10-05,1,,,,,アラコオンセン,0
1094,4220002010517,登記記録の閉鎖等,0,2023-09-19,2023-09-14,有限会社キムラテキスタイル,,有限会社,石川県,小松市,義仲町１０２番地,,17,203,9230998,,,2023-09-14,清算の結了等,,,2015-10-05,1,,,,,キムラテキスタイル,0
1099,4240001047847,登記記録の閉鎖等,0,2023-09-19,2023-09-01,ファニーズファクトリー株式会社,,株式会社,広島県,尾道市,西藤町２２６番地,,34,205,7290142,,,2023-09-01,合併による解散等,9240001038081,令和５年９月１日広島県尾道市西藤町２２６番地佐藤産業株式会社（9240001038081）に合併し解散,2015-10-05,1,,,,,ファニーズファクトリー,0
1129,4360001008481,登記記録の閉鎖等,0,2023-09-19,2023-09-13,株式会社エリアネットワーク沖縄,,株式会社,沖縄県,浦添市,牧港４丁目１６番５号,,47,208,9012131,,,2023-09-13,清算の結了等,,,2015-10-05,1,,,,,,0
1172,5010002033604,登記記録の閉鎖等,0,2023-09-19,2023-09-11,有限会社東洗原子力サービス,,有限会社,東京都,千代田区,飯田橋１丁目１２番１４号,,13,101,1020072,,,2023-09-11,清算の結了等,,,2015-10-05,1,,,,,トウセンゲンシリョクサービス,0
1179,5010401110623,登記記録の閉鎖等,0,2023-09-19,2023-09-12,株式会社ＢＡＮＲＥＫＩ,,株式会社,東京都,墨田区,錦糸１丁目２番１号アルカセントラル１４階,,13,107,1300013,,,2023-09-12,清算の結了等,,,2015-10-05,1,,,,,バンレキ,0
1187,5010501028534,登記記録の閉鎖等,0,2023-09-19,2023-09-11,株式会社ホワイト,,株式会社,東京都,中央区,日本橋横山町９番７号第６イチオクビル,,13,102,1030003,,,2023-09-11,清算の結了等,,,2015-10-05,1,,,,,ホワイト,0
1201,5011001052594,登記記録の閉鎖等,0,2023-09-19,2023-09-11,社会復帰サポート喜連川株式会社,,株式会社,東京都,渋谷区,神宮前１丁目５番１号,,13,113,1500001,,,2023-09-11,清算の結了等,,,2015-10-05,1,,,,,シャカイフッキサポートキツレガワ,0
1238,5020001019033,登記記録の閉鎖等,0,2023-09-19,2023-09-11,株式会社矢澤工務店,,株式会社,神奈川県,横浜市鶴見区,下野谷町４丁目１３１番地,,14,101,2300047,,,2023-09-11,清算の結了等,,,2015-10-05,1,,,,,ヤザワコウムテン,0
1246,5020002092203,登記記録の閉鎖等,0,2023-09-19,2023-09-07,有限会社桜総業,,有限会社,神奈川県,川崎市多摩区,登戸２３４９番地３,,14,135,2140014,,,2023-09-07,清算の結了等,,,2015-10-05,1,,,,,サクラソウギョウ,0
1261,5030001096385,登記記録の閉鎖等,0,2023-09-19,2023-08-14,株式会社美作,,株式会社,埼玉県,川越市,的場北２丁目１７番地８,,11,201,3501102,,,2023-08-14,清算の結了等,,,2015-10-05,1,,,,,ミマサク,0
1275,5040001078969,登記記録の閉鎖等,0,2023-09-19,2023-09-11,ＱＴＫＨＧ株式会社,,株式会社,東京都,千代田区,丸の内１丁目１１番１号パシフィックセンチュリープレイス丸の内８階,,13,101,1000005,,,2023-09-11,清算の結了等,,,2015-10-05,1,,,,,キュウティケーエイチジー,0
1295,5090001012816,登記記録の閉鎖等,0,2023-09-19,2023-09-05,カントリークラブ株式会社,,株式会社,山梨県,甲府市,高畑１丁目１３番３６号,,19,201,4000042,,,2023-09-05,清算の結了等,,,2015-10-05,1,,,,,カントリークラブ,0
1296,5090002013978,登記記録の閉鎖等,0,2023-09-19,2023-09-13,有限会社横内建設,,有限会社,山梨県,韮崎市,穂坂町三ツ澤２５６８番地の４,,19,207,4070174,,,2023-09-13,清算の結了等,,,2015-10-05,1,,,,,ヨコウチケンセツ,0
1324,5120002026935,登記記録の閉鎖等,0,2023-09-19,2023-09-07,有限会社広和打抜製作所,,有限会社,大阪府,大阪市淀川区,三津屋中３丁目２番３５号,,27,123,5320036,,,2023-09-07,清算の結了等,,,2015-10-05,1,,,,,コウワウチヌキセイサクショ,0
1328,5120002075222,登記記録の閉鎖等,0,2023-09-19,2023-09-14,有限会社目加田商会,,有限会社,大阪府,枚方市,岡東町８番９号,,27,210,5730032,,,2023-09-14,清算の結了等,,,2015-10-05,1,,,,,メカタショウカイ,0
1335,5130001015285,登記記録の閉鎖等,0,2023-09-19,2023-09-04,二基株式会社,,株式会社,京都府,相楽郡精華町,大字菅井小字馬渕２番地７８,,26,366,6190242,,,2023-09-04,清算の結了等,,,2015-10-05,1,,,,,フタキ,0
1345,5130002014690,登記記録の閉鎖等,0,2023-09-19,2023-09-04,有限会社ピー・エツチ・シー,,有限会社,京都府,京都市伏見区,深草飯食町８３９番地の４,,26,109,6120028,,,2023-09-04,清算の結了等,,,2015-10-05,1,,,,,ピーエツチシー,0
1352,5140001090708,登記記録の閉鎖等,0,2023-09-19,2023-09-13,よしげん不動産株式会社,,株式会社,兵庫県,西宮市,松籟荘４番３号,,28,204,6620822,,,2023-09-13,清算の結了等,,,2015-10-05,1,,,,,,0
1361,5140002039984,登記記録の閉鎖等,0,2023-09-19,2023-09-11,有限会社インテリア三善,,有限会社,兵庫県,尼崎市,富松町２丁目２８番１３号,,28,202,6610003,,,2023-09-11,清算の結了等,,,2015-10-05,1,,,,,インテリアミツヨシ,0
1366,5180001118967,登記記録の閉鎖等,0,2023-09-19,2023-09-05,株式会社中部シスコン,,株式会社,愛知県,一宮市,大和町毛受字浜田６９番地１１,,23,203,4910932,,,2023-09-05,清算の結了等,,,2015-10-05,1,,,,,チュウブシスコン,0
1374,5180002072412,登記記録の閉鎖等,0,2023-09-19,2023-09-13,有限会社ヤマイチミズノ,,有限会社,愛知県,瀬戸市,上品野町３７０番地,,23,204,4801214,,,2023-09-13,清算の結了等,,,2015-10-05,1,,,,,ヤマイチミズノ,0
1381,5200002005988,登記記録の閉鎖等,0,2023-09-19,2023-09-12,株式会社岐ネツ,,株式会社,岐阜県,岐阜市,加納前田町８番地,,21,201,5008464,,,2023-09-12,合併による解散等,8200001004567,令和５年９月１日岐阜市加納前田町８番地二葉産業株式会社（8200001004567）に合併し解散,2015-10-05,1,,,,,ギネツ,0
1383,5220002011209,登記記録の閉鎖等,0,2023-09-19,2023-09-14,有限会社マツナガ繊維,,有限会社,石川県,小松市,浜佐美本町９番地,,17,203,9230997,,,2023-09-14,清算の結了等,,,2015-10-05,1,,,,,マツナガセンイ,0
1384,5220002011613,登記記録の閉鎖等,0,2023-09-19,2023-09-15,有限会社シーケンス,,有限会社,石川県,能美市,中町子２９３番地,,17,211,9290123,,,2023-09-15,清算の結了等,,,2015-10-05,1,,,,,シーケンス,0
1385,5230002010085,登記記録の閉鎖等,0,2023-09-19,2023-09-14,有限会社辻産業,00079138,有限会社,富山県,小矢部市,経田６５番地,,16,209,9320103,,,2023-09-14,清算の結了等,,,2015-10-05,1,,,,,ツジサンギョウ,0
1391,5260001023127,登記記録の閉鎖等,0,2023-09-19,2023-09-12,株式会社ほのぼの,,株式会社,岡山県,津山市,東一宮３番地５,,33,203,7080814,,,2023-09-12,清算の結了等,,,2015-10-05,1,,,,,ホノボノ,0
1401,5290002054746,登記記録の閉鎖等,0,2023-09-19,2023-08-30,有限会社中村企画設計,,有限会社,福岡県,大川市,大字酒見１１７４番地,,40,212,8310016,,,2023-08-30,合併による解散等,3290001036409,令和５年８月２５日福岡県古賀市青柳町１００番１株式会社増田桐箱店（3290001036409）に合併し、解散,2015-10-05,1,,,,,ナカムラキカクセッケイ,0
1412,5330001016065,登記記録の閉鎖等,0,2023-09-19,2023-09-07,株式会社球磨リネン,,株式会社,熊本県,球磨郡相良村,大字柳瀬９８５番地の６６,,43,510,8680095,,,2023-09-07,清算の結了等,,,2015-10-05,1,,,,,クマリネン,0
1414,5330003003796,登記記録の閉鎖等,0,2023-09-19,2023-09-01,合同会社Ｋ・Ｋアスワン,,合同会社,熊本県,熊本市中央区,桜町３番３０－８１５号,,43,101,8600805,,,2023-09-01,合併による解散等,3330003001819,令和５年８月３１日熊本市中央区桜町３番３０－１３０１号合同会社Ｋ・Ｋサポート（3330003001819）に合併し解散,2015-10-05,1,,,,,ケイケイアスワン,0
1429,5380001021762,登記記録の閉鎖等,0,2023-09-19,2023-09-14,株式会社クリーンブリッジ,,株式会社,福島県,伊達市,霊山町下小国字畑尻３６番地１,,07,213,9600808,,,2023-09-14,清算の結了等,,,2015-10-05,1,,,,,クリーンブリッジ,0
1440,5440002008463,登記記録の閉鎖等,0,2023-09-19,2023-09-12,有限会社穴田組,,有限会社,北海道,二海郡八雲町,元町４６番地,,01,346,0493101,,,2023-09-12,清算の結了等,,,2015-10-05,1,,,,,アナダクミ,0
1444,5500002013688,登記記録の閉鎖等,0,2023-09-19,2023-09-13,有限会社八幡浜セメント瓦工業所,,有限会社,愛媛県,八幡浜市,１０４８番地,,38,204,7960088,,,2023-09-13,清算の結了等,,,2015-10-05,1,,,,,ヤワタハマセメントカワラコウギョウショ,0
1449,6010001099323,登記記録の閉鎖等,0,2023-09-19,2023-09-14,株式会社Ｆ・Ｄ・Ｏ,,株式会社,東京都,渋谷区,恵比寿南２丁目６番１１号,,13,113,1500022,,,2023-09-14,清算の結了等,,,2015-10-05,1,,,,,エフディーオー,0
1452,6010001182772,登記記録の閉鎖等,0,2023-09-19,2023-09-11,株式会社カミーユ,,株式会社,東京都,中央区,銀座６丁目１３番１６号銀座ＷａｌｌビルＵＣＦ５０１,,13,102,1040061,,,2023-09-11,清算の結了等,,,2017-04-17,1,,,,,カミーユ,0
1489,6011101037602,登記記録の閉鎖等,0,2023-09-19,2023-09-14,株式会社ビジネスポート,,株式会社,東京都,新宿区,下宮比町２番２８号,,13,104,1620822,,,2023-09-14,清算の結了等,,,2015-10-05,1,,,,,ビジネスポート,0
1507,6012402010867,登記記録の閉鎖等,0,2023-09-19,2023-09-14,有限会社久保商會,,有限会社,東京都,調布市,上石原１丁目２９番地２,,13,208,1820035,,,2023-09-14,清算の結了等,,,2015-10-05,1,,,,,クボショウカイ,0
1538,6030002110375,登記記録の閉鎖等,0,2023-09-19,2023-08-24,有限会社ボルツイー・シー,,有限会社,埼玉県,川口市,大字安行原１７８０番地の１ラ・スペース１０２号,,11,203,3340057,,,2023-08-24,清算の結了等,,,2015-10-05,1,,,,,ボルツイーシー,0
1540,6040001050588,登記記録の閉鎖等,0,2023-09-19,2023-09-01,三栄海運株式会社,,株式会社,千葉県,木更津市,潮見４丁目１８番地８,,12,206,2920834,,,2023-09-01,合併による解散等,2040001050583,令和５年９月１日千葉県木更津市潮見四丁目１８番地８三栄港運株式会社（2040001050583）に合併し解散,2015-10-05,1,,,,,サンエイカイウン,0
1541,6040001054820,登記記録の閉鎖等,0,2023-09-19,2023-09-01,株式会社太陽社,,株式会社,千葉県,市原市,白金町４丁目３６番地の３,,12,219,2900059,,,2023-09-01,清算の結了等,,,2015-10-05,1,,,,,タイヨウシャ,0
1558,6060003002338,登記記録の閉鎖等,0,2023-09-19,2023-09-05,合同会社ＫＣ,,合同会社,栃木県,下都賀郡壬生町,緑町２丁目３番２号,,09,361,3210204,,,2023-09-05,清算の結了等,,,2016-08-05,1,,,,,ケイシー,0
1568,6080102013234,登記記録の閉鎖等,0,2023-09-19,2023-09-14,有限会社東木型製作所,,有限会社,静岡県,富士市,大渕２８２７番地の３,,22,210,4170000,,,2023-09-14,清算の結了等,,,2015-10-05,1,,,,,アズマキガタセイサクショ,0
1586,6120005009011,登記記録の閉鎖等,0,2023-09-19,2023-09-08,特定非営利活動法人さわやかプラザ,,その他の設立登記法人,大阪府,大阪市天王寺区,上本町７丁目１番２４号,,27,109,5430001,,,2023-09-08,清算の結了等,,,2015-10-05,1,,,,,サワヤカプラザ,0
1592,6120901027116,登記記録の閉鎖等,0,2023-09-19,2023-09-12,メディプラネル株式会社,,株式会社,奈良県,奈良市,帝塚山南２丁目１７番１８号,,29,201,6310064,,,2023-09-12,清算の結了等,,,2015-10-05,1,,,,,,0
1611,6170002010636,登記記録の閉鎖等,0,2023-09-19,2023-09-14,有限会社谷口測量設計,,有限会社,和歌山県,橋本市,恋野２４９８番地,,30,203,6480021,,,2023-09-14,清算の結了等,,,2015-10-05,1,,,,,タニグチソクリョウセッケイ,0
1625,6180302006127,登記記録の閉鎖等,0,2023-09-19,2023-09-06,有限会社青山旅館,,有限会社,愛知県,豊橋市,大橋通１丁目６４番地,,23,201,4400076,,,2023-09-06,清算の結了等,,,2015-10-05,1,,,,,アオヤマリョカン,0
1627,6190001018348,登記記録の閉鎖等,0,2023-09-19,2023-09-07,株式会社アシスト,,株式会社,三重県,四日市市,西坂部町４８５１番地２,,24,202,5120913,,,2023-09-07,清算の結了等,,,2015-10-05,1,,,,,アシスト,0
1640,6230001009581,登記記録の閉鎖等,0,2023-09-19,2023-09-13,平安アセットマネージメント株式会社,,株式会社,富山県,富山市,上飯野４３番地の５,,16,201,9300827,,,2023-09-13,清算の結了等,,,2015-10-05,1,,,,,ヘイアンアセットマネージメント,0
1647,6260001031252,登記記録の閉鎖等,0,2023-09-19,2023-09-13,株式会社まえかわ,,株式会社,岡山県,和気郡和気町,衣笠９５１番地６,,33,346,7090441,,,2023-09-13,清算の結了等,,,2017-09-12,1,,,,,マエカワ,0
1649,6260002023208,登記記録の閉鎖等,0,2023-09-19,2023-09-13,有限会社サンコー,,有限会社,岡山県,倉敷市,真備町辻田９６３番地,00003735,33,202,7101312,,,2023-09-13,清算の結了等,,,2015-10-05,1,,,,,サンコー,0
1669,6290805004228,登記記録の閉鎖等,0,2023-09-19,2023-09-15,医療法人たけうち医院,,その他の設立登記法人,福岡県,北九州市八幡西区,幸神２丁目１番２６号,,40,109,8060055,,,2023-09-15,清算の結了等,,,2015-10-05,1,,,,,,0
1677,6370001040250,登記記録の閉鎖等,0,2023-09-19,2023-09-08,ＪＩＳ保険総合株式会社,,株式会社,宮城県,栗原市,若柳字川北中町２５番地,,04,213,9895501,,,2023-09-08,清算の結了等,,,2016-09-27,1,,,,,ジェイアイエスホケンソウゴウ,0
1679,6380001016976,登記記録の閉鎖等,0,2023-09-19,2023-09-11,フジ電設株式会社,,株式会社,福島県,双葉郡富岡町,字夜の森南４丁目５５番地の１,,07,543,9791161,,,2023-09-11,清算の結了等,,,2015-10-05,1,,,,,フジデンセツ,0
1688,6460002002612,登記記録の閉鎖等,0,2023-09-19,2023-09-13,有限会社北央機械サービス,,有限会社,北海道,釧路市,昭和中央１丁目２５番５号,,01,206,0840910,,,2023-09-13,清算の結了等,,,2015-10-05,1,,,,,ホクオウキカイサービス,0
1724,7011001032842,登記記録の閉鎖等,0,2023-09-19,2023-09-11,株式会社ニップンインターナショナル,,株式会社,東京都,渋谷区,千駄ヶ谷５丁目２７番３号,,13,113,1510051,,,2023-09-11,清算の結了等,,,2015-10-05,1,,,,,ニップンインターナショナル,0
1732,7011003010342,登記記録の閉鎖等,0,2023-09-19,2023-09-11,ＬＥＸＩＮ　ＪＡＰＡＮ合同会社,,合同会社,東京都,渋谷区,恵比寿４丁目２０番３号恵比寿ガーデンプレイスタワー１８階,,13,113,1500013,,,2023-09-11,清算の結了等,,,2019-09-13,1,,,,,レキシンジャパン,0
1757,7020001049276,登記記録の閉鎖等,0,2023-09-19,2023-09-08,株式会社横浜エアメーカー,,株式会社,神奈川県,横浜市港南区,日野南５丁目３９番１１号,,14,111,2340055,,,2023-09-08,清算の結了等,,,2015-10-05,1,,,,,ヨコハマエアメーカー,0
1761,7020001145513,登記記録の閉鎖等,0,2023-09-19,2023-09-11,おひとつ便株式会社,,株式会社,神奈川県,川崎市宮前区,小台２丁目１９番地２ライオンズマンション宮前平第３・Ｂ－４０３,,14,136,2160007,,,2023-09-11,清算の結了等,,,2022-03-04,1,,,,,オヒトツビン,0
1765,7021001069883,登記記録の閉鎖等,0,2023-09-19,2023-09-07,ＩＯＫコネクト株式会社,,株式会社,神奈川県,伊勢原市,三ノ宮１０６３番地の１０,,14,214,2591103,,,2023-09-07,清算の結了等,,,2020-05-07,1,,,,,アイオーケーコネクト,0
1792,7040002084270,登記記録の閉鎖等,0,2023-09-19,2023-09-01,有限会社イマリ商事,,有限会社,千葉県,旭市,ニの３２６８番地の１,,12,215,2892504,,,2023-09-01,清算の結了等,,,2015-10-05,1,,,,,イマリショウジ,0
1806,7060001033094,登記記録の閉鎖等,0,2023-09-19,2023-09-05,アンドユー株式会社,,株式会社,栃木県,宇都宮市,宿郷５丁目２１番１５号,,09,201,3210945,,,2023-09-05,清算の結了等,,,2020-10-29,1,,,,,アンドユー,0
1811,7070002020231,登記記録の閉鎖等,0,2023-09-19,2023-09-13,有限会社フルサワ工業,,有限会社,群馬県,伊勢崎市,赤堀今井町２丁目１０６７番地１５１,,10,204,3792215,,,2023-09-13,清算の結了等,,,2015-10-05,1,,,,,フルサワコウギョウ,0
1812,7080001022574,登記記録の閉鎖等,0,2023-09-19,2023-09-14,カドヤ電装株式会社,,株式会社,静岡県,焼津市,石津６番地の２,,22,212,4250041,,,2023-09-14,清算の結了等,,,2018-12-11,1,,,,,カドヤデンソウ,0
1818,7080402014781,登記記録の閉鎖等,0,2023-09-19,2023-09-15,有限会社エム・村松ジヤガード織物,,有限会社,静岡県,浜松市浜北区,小林５９９番地,,22,136,4340031,,,2023-09-15,清算の結了等,,,2015-10-05,1,,,,,エムムラマツジャガードオリモノ,0
1822,7100002032628,登記記録の閉鎖等,0,2023-09-19,2023-09-05,有限会社上島設備,,有限会社,長野県,伊那市,西町６３９４番地２,,20,209,3960026,,,2023-09-05,清算の結了等,,,2015-10-05,1,,,,,カミジマセツビ,0
1823,7100005004260,登記記録の閉鎖等,0,2023-09-19,2023-09-06,上田軽印刷工業協同組合,,その他の設立登記法人,長野県,上田市,中央北２丁目７番３４号,,20,203,3860011,,,2023-09-06,清算の結了等,,,2015-10-05,1,,,,,ウエダケイインサツコウギョウ,0
1827,7120001030201,登記記録の閉鎖等,0,2023-09-19,2023-09-07,株式会社アサノ工務店,,株式会社,大阪府,大阪市住之江区,中加賀屋３丁目７番１２号,,27,125,5590017,,,2023-09-07,清算の結了等,,,2015-10-05,1,,,,,,0
1840,7120003011942,登記記録の閉鎖等,0,2023-09-19,2023-09-01,合同会社ブリッツクリーク,,合同会社,京都府,亀岡市,篠町広田２丁目２１－９－１０１号,,26,206,6210834,,,2023-09-01,合併による解散等,7120001196224,令和５年９月１日京都府亀岡市篠町広田二丁目２１－９－１０１号株式会社フラクタル（7120001196224）に合併し解散,2016-08-22,1,,,,,ブリッツクリーク,0
1849,7130001038482,登記記録の閉鎖等,0,2023-09-19,2023-09-01,拓石株式会社,,株式会社,京都府,城陽市,奈島飯盛９番地の２,,26,207,6100116,,,2023-09-01,合併による解散等,4130001038626,令和５年９月１日京都府城陽市中芦原６８番地の３６磊石株式会社（4130001038626）に合併し解散,2015-10-05,1,,,,,タクセキ,0
1871,7160001007212,登記記録の閉鎖等,0,2023-09-19,2023-09-13,株式会社大橋製作所,,株式会社,滋賀県,長浜市,湖北町伊部５０５番地,,25,203,5290313,,,2023-09-13,清算の結了等,,,2015-10-05,1,,,,,オオハシセイサクショ,0
1872,7160001014497,登記記録の閉鎖等,0,2023-09-19,2023-09-11,株式会社ＵＡＣＪ製箔産業,,株式会社,滋賀県,草津市,山寺町笹谷６１番地８,,25,206,5250042,,,2023-09-11,合併による解散等,4010001118646,令和５年９月１日東京都千代田区大手町一丁目７番２号株式会社ＵＡＣＪ製箔（4010001118646）に合併し解散,2015-10-05,1,,,,,ユーエーシージェーセイハクサンギョウ,0
1877,7180001101599,登記記録の閉鎖等,0,2023-09-19,2023-09-11,株式会社エムアイユー,,株式会社,愛知県,名古屋市西区,枇杷島１丁目２３番７号,,23,104,4510053,,,2023-09-11,清算の結了等,,,2015-10-05,1,,,,,エムアイユー,0
1883,7180002052494,登記記録の閉鎖等,0,2023-09-19,2023-09-11,プラスワンテクノ商事有限会社,,有限会社,愛知県,名古屋市東区,芳野１丁目１７番４号,,23,102,4610027,,,2023-09-11,清算の結了等,,,2015-10-05,1,,,,,プラスワンテクノショウジ,0
1894,7190003003603,登記記録の閉鎖等,0,2023-09-19,2023-09-12,合同会社Ｗｉｔｈ　Ｓｕｎｎｙ,,合同会社,三重県,伊勢市,小俣町新村５５５番地６８,,24,203,5190507,,,2023-09-12,清算の結了等,,,2021-02-19,1,,,,,ウィズサニー,0
1905,7240001024414,登記記録の閉鎖等,0,2023-09-19,2023-09-08,株式会社カシキ,,株式会社,広島県,三次市,十日市中３丁目８番２４号,,34,209,7280012,,,2023-09-08,清算の結了等,,,2015-10-05,1,,,,,カシキ,0
1918,7270001008595,登記記録の閉鎖等,0,2023-09-19,2023-09-14,株式会社メディルーク,,株式会社,鳥取県,米子市,大崎１７７８番地,,31,202,6830104,,,2023-09-14,清算の結了等,,,2022-07-15,1,,,,,メディルーク,0
1938,7290003012189,登記記録の閉鎖等,0,2023-09-19,2023-09-05,合同会社みちなり,,合同会社,福岡県,福岡市博多区,博多駅前２丁目１９番１７号トーカン博多第５ビル３１２号室,,40,132,8120011,,,2023-09-05,清算の結了等,,,2022-02-24,1,,,,,ミチナリ,0
1942,7300005003201,登記記録の閉鎖等,0,2023-09-19,2023-09-14,武雄電気工事業協同組合,,その他の設立登記法人,佐賀県,武雄市,武雄町大字昭和７６５番地,,41,206,8430023,,,2023-09-14,清算の結了等,,,2015-10-05,1,,,,,タケオデンキコウジギョウ,0
1954,7380002014937,登記記録の閉鎖等,0,2023-09-19,2023-09-11,有限会社佐藤工務所,,有限会社,福島県,田村市,船引町大倉字上台２６番地の１,,07,211,9634435,,,2023-09-11,清算の結了等,,,2015-10-05,1,,,,,サトウコウムショ,0
1967,7462502001076,登記記録の閉鎖等,0,2023-09-19,2023-09-13,有限会社ＵＳサプライ,,有限会社,北海道,野付郡別海町,上春別旭町２６番地,,01,691,0882722,,,2023-09-13,清算の結了等,,,2015-10-05,1,,,,,ユーエスサプライ,0
1980,8010001071098,登記記録の閉鎖等,0,2023-09-19,2023-09-11,株式会社ニュークリアシステム,,株式会社,東京都,千代田区,飯田橋１丁目１２番１４号,,13,101,1020072,,,2023-09-11,清算の結了等,,,2015-10-05,1,,,,,ニュークリアシステム,0
1981,8010001127024,登記記録の閉鎖等,0,2023-09-19,2023-09-11,タグボード株式会社,,株式会社,東京都,中央区,日本橋３丁目６番２号,,13,102,1030027,,,2023-09-11,清算の結了等,,,2015-10-05,1,,,,,タグボード,0
2009,8010601023936,登記記録の閉鎖等,0,2023-09-19,2023-09-05,大都電気株式会社,,株式会社,栃木県,那須塩原市,接骨木４４６番地４６,,09,213,3292807,,,2023-09-05,清算の結了等,,,2015-10-05,1,,,,,ダイトデンキ,0
2012,8010601040444,登記記録の閉鎖等,0,2023-09-19,2023-09-13,ブレイブゲート株式会社,,株式会社,東京都,江東区,新砂１丁目６－３５,,13,108,1360075,,,2023-09-13,清算の結了等,,,2015-10-05,1,,,,,ブレイブゲート,0
2043,8011602022324,登記記録の閉鎖等,0,2023-09-19,2023-09-12,有限会社アユミックス,,有限会社,東京都,練馬区,石神井町３丁目２５番２１－１００３号,,13,120,1770041,,,2023-09-12,清算の結了等,,,2015-10-05,1,,,,,,0
2051,8012403002564,登記記録の閉鎖等,0,2023-09-19,2023-09-05,ライフビック・ホールディングス合同会社,,合同会社,東京都,府中市,天神町４丁目２番地の１,,13,206,1830053,,,2023-09-05,清算の結了等,,,2015-12-11,1,,,,,,0
2072,8030001138234,登記記録の閉鎖等,0,2023-09-19,2023-08-24,株式会社小林設計,,株式会社,埼玉県,東松山市,大字西本宿１８２９番地４,,11,212,3550062,,,2023-08-24,清算の結了等,,,2020-09-10,1,,,,,コバヤシセッケイ,0
2076,8030002058191,登記記録の閉鎖等,0,2023-09-19,2023-08-24,有限会社岡宮建装,,有限会社,埼玉県,和光市,新倉２丁目１８番１６号,,11,229,3510115,,,2023-08-24,清算の結了等,,,2015-10-05,1,,,,,オカミヤケンソウ,0
2081,8040001060412,登記記録の閉鎖等,0,2023-09-19,2023-09-01,株式会社喜楽観光,,株式会社,千葉県,長生郡長生村,七井土１４６９番地２,,12,423,2994333,,,2023-09-01,清算の結了等,,,2015-10-05,1,,,,,,0
2093,8040002090929,登記記録の閉鎖等,0,2023-09-19,2023-09-01,有限会社中根重機興業,,有限会社,千葉県,柏市,亀甲台町１丁目１９番７号,,12,217,2770031,,,2023-09-01,清算の結了等,,,2015-10-05,1,,,,,ナカネジュウキコウギョウ,0
2096,8060001021032,登記記録の閉鎖等,0,2023-09-19,2023-09-05,株式会社カンケン,,株式会社,栃木県,佐野市,出流原町２１５番地３,,09,204,3270102,,,2023-09-05,清算の結了等,,,2015-10-05,1,,,,,カンケン,0
2110,8080005000030,登記記録の閉鎖等,0,2023-09-19,2023-09-15,南茶農業協同組合,,その他の設立登記法人,静岡県,静岡市葵区,横山７５番地の２,,22,101,4212307,,,2023-09-15,清算の結了等,,,2015-10-05,1,,,,,ミナミチャ,0
2117,8100002015086,登記記録の閉鎖等,0,2023-09-19,2023-09-06,有限会社池田組,,有限会社,長野県,上田市,真田町長７１３１番地の２,,20,203,3862201,,,2023-09-06,清算の結了等,,,2015-10-05,1,,,,,イケダクミ,0
2118,8100002017339,登記記録の閉鎖等,0,2023-09-19,2023-09-06,有限会社マルトミ,,有限会社,長野県,飯山市,南町２２番地７,,20,213,3892254,,,2023-09-06,清算の結了等,,,2015-10-05,1,,,,,マルトミ,0
2139,8130001046988,登記記録の閉鎖等,0,2023-09-19,2023-09-01,株式会社エービィーイーシステム,,株式会社,京都府,木津川市,木津池田１０４番地７,,26,214,6190214,,,2023-09-01,清算の結了等,,,2015-10-05,1,,,,,エービィーイーシステム,0
2151,8140005003539,登記記録の閉鎖等,0,2023-09-19,2023-09-14,笠松商店街振興組合,,その他の設立登記法人,兵庫県,神戸市兵庫区,笠松通５丁目３番７号,,28,105,6520864,,,2023-09-14,清算の結了等,,,2015-10-05,1,,,,,カサマツ,0
2153,8150001016717,登記記録の閉鎖等,0,2023-09-19,2023-09-12,株式会社藤家,,株式会社,奈良県,橿原市,五井町２２３番地の１２,,29,205,6340832,,,2023-09-12,清算の結了等,,,2015-10-05,1,,,,,フジカ,0
2154,8180001086757,登記記録の閉鎖等,0,2023-09-19,2023-09-11,株式会社四季の花,,株式会社,愛知県,稲沢市,祖父江町祖父江松山１３３番地,,23,220,4950001,,,2023-09-11,清算の結了等,,,2015-10-05,1,,,,,シキノハナ,0
2173,8230005006904,登記記録の閉鎖等,0,2023-09-19,2023-09-15,正專寺,,その他の設立登記法人,富山県,氷見市,森寺１９６０番地,,16,205,9350332,,,2023-09-15,清算の結了等,,,2015-10-05,1,,,,,ショウセンジ,0
2177,8260002021696,登記記録の閉鎖等,0,2023-09-19,2023-09-13,森下建設有限会社,,有限会社,岡山県,倉敷市,上東１２４６番地の１７,,33,202,7010111,,,2023-09-13,清算の結了等,,,2015-10-05,1,,,,,モリシタケンセツ,0
2179,8270002011119,登記記録の閉鎖等,0,2023-09-19,2023-09-14,有限会社鳥取環境コンサル協会,,有限会社,鳥取県,倉吉市,宮川町１８８番地９号,,31,203,6820881,,,2023-09-14,清算の結了等,,,2015-10-05,1,,,,,トットリカンキョウコンサルキョウカイ,0
2183,8290001040422,登記記録の閉鎖等,0,2023-09-19,2023-09-04,アサヒ機工株式会社,,株式会社,福岡県,大野城市,山田１丁目６番１号,,40,219,8160922,,,2023-09-04,清算の結了等,,,2015-10-05,1,,,,,アサヒキコウ,0
2229,9010003019268,登記記録の閉鎖等,0,2023-09-19,2023-09-05,合同会社ＳＢＣ,,合同会社,東京都,港区,西新橋１丁目６番１３号,,13,103,1050003,,,2023-09-05,合併による解散等,3010401117546,令和５年９月１日東京都港区西新橋一丁目６番１３号アクセルパートナーズ株式会社（3010401117546）に合併し解散,2015-10-05,1,,,,,エスビーシー,0
2234,9010401055600,登記記録の閉鎖等,0,2023-09-19,2023-08-29,株式会社陸奥,,株式会社,東京都,港区,六本木５丁目１１番２２－８０７号,,13,103,1060032,,,2023-08-29,清算の結了等,,,2015-10-05,1,,,,,ムツ,0
2251,9010605002605,登記記録の閉鎖等,0,2023-09-19,2023-09-13,一般社団法人能力開発研修センター,,その他の設立登記法人,東京都,江東区,南砂２丁目６番３号,,13,108,1360076,,,2023-09-13,清算の結了等,,,2015-10-05,1,,,,,,0
2284,9012302000668,登記記録の閉鎖等,0,2023-09-19,2023-09-13,有限会社ウインズ,,有限会社,東京都,町田市,原町田６丁目１０番１７号,,13,209,1940013,,,2023-09-13,清算の結了等,,,2015-10-05,1,,,,,ウインズ,0
2292,9013202004049,登記記録の閉鎖等,0,2023-09-19,2023-09-11,有限会社タニムラ電気,,有限会社,東京都,目黒区,大岡山１丁目１番１２号,,13,110,1520033,,,2023-09-11,清算の結了等,,,2015-10-05,1,,,,,タニムラデンキ,0
2304,9021002034810,登記記録の閉鎖等,0,2023-09-19,2023-09-08,有限会社環境冷熱,,有限会社,神奈川県,伊勢原市,串橋１５２番地の３,,14,214,2591136,,,2023-09-08,清算の結了等,,,2015-10-05,1,,,,,,0
2315,9030005005487,登記記録の閉鎖等,0,2023-09-19,2023-08-25,特定非営利活動法人アート体験協会,,その他の設立登記法人,埼玉県,幸手市,大字幸手３６３７番地,,11,240,3400113,,,2023-08-25,清算の結了等,,,2015-10-05,1,,,,,アートタイケンキョウカイ,0
2318,9040001096125,登記記録の閉鎖等,0,2023-09-19,2023-09-13,株式会社アンダーノース,,株式会社,東京都,世田谷区,北沢２丁目１９番１１号,,13,112,1550031,,,2023-09-13,合併による解散等,2021001029693,令和５年９月１日神奈川県大和市渋谷八丁目６番地１１グローバルコンサルティング株式会社（2021001029693）に合併し解散,2016-07-14,1,,,,,アンダーノース,0
2321,9040002040692,登記記録の閉鎖等,0,2023-09-19,2023-09-01,木田商事有限会社,,有限会社,千葉県,浦安市,堀江６丁目７番１６号,,12,227,2790041,,,2023-09-01,清算の結了等,,,2015-10-05,1,,,,,キダショウジ,0
2322,9040002061227,登記記録の閉鎖等,0,2023-09-19,2023-08-31,有限会社棟栄組,,有限会社,千葉県,佐倉市,王子台６丁目４０番２０,,12,212,2850837,,,2023-08-31,清算の結了等,,,2015-10-05,1,,,,,トウエイクミ,0
2333,9060001029958,登記記録の閉鎖等,0,2023-09-19,2023-09-06,株式会社ネクスト,,株式会社,栃木県,佐野市,豊代町１９４４番地,,09,204,3270512,,,2023-09-06,清算の結了等,,,2017-11-08,1,,,,,ネクスト,0
2346,9100002001176,登記記録の閉鎖等,0,2023-09-19,2023-09-06,有限会社金子屋綿店,,有限会社,長野県,長野市,篠ノ井布施高田２９６番地,,20,201,3888007,,,2023-09-06,清算の結了等,,,2015-10-05,1,,,,,カネコヤワタテン,0
2348,9120001045478,登記記録の閉鎖等,0,2023-09-19,2023-09-15,株式会社辻村洋服店,,株式会社,大阪府,大阪市西区,九条３丁目１２番１０号,,27,106,5500027,,,2023-09-15,清算の結了等,,,2015-10-05,1,,,,,ツジムラヨウフクテン,0
2364,9130001026535,登記記録の閉鎖等,0,2023-09-19,2023-09-01,株式会社海鈴,,株式会社,京都府,京都市下京区,高辻通東洞院東入稲荷町５２５番地,00035979,26,106,6008098,,,2023-09-01,清算の結了等,,,2015-10-05,1,,,,,カイリン,0
2373,9140001087808,登記記録の閉鎖等,0,2023-09-19,2023-09-11,株式会社ジャット,,株式会社,兵庫県,神戸市中央区,宮本通３丁目１番７号ＳＩハイツ宮本２Ｆ,,28,110,6510063,,,2023-09-11,清算の結了等,,,2015-10-05,1,,,,,ジャット,0
2382,9150001007789,登記記録の閉鎖等,0,2023-09-19,2023-09-14,株式会社西原総合研究所,,株式会社,奈良県,奈良市,左京１丁目８番地の３３,,29,201,6310801,,,2023-09-14,合併による解散等,3150001007704,令和５年９月１日大阪市北区天神橋四丁目７番１１－１０２号株式会社ｌ’ｏｉｓｅａｕ　ｂｌｅｕ（3150001007704）に合併し解散,2015-10-05,1,,,,,ニシハラソウゴウケンキュウショ,0
2387,9180001062328,登記記録の閉鎖等,0,2023-09-19,2023-09-14,株式会社グッドラック,,株式会社,愛知県,名古屋市守山区,町南２２番２２号,,23,113,4630066,,,2023-09-14,清算の結了等,,,2015-10-05,1,,,,,グッドラック,0
2402,9210001016098,登記記録の閉鎖等,0,2023-09-19,2023-09-14,丸子通商株式会社,,株式会社,福井県,坂井市,丸岡町新九頭竜２丁目３７番地,,18,210,9100369,,,2023-09-14,清算の結了等,,,2015-10-05,1,,,,,マルコツウショウ,0
2405,9240002010072,登記記録の閉鎖等,0,2023-09-19,2023-09-08,有限会社タナベ薬局,,有限会社,広島県,広島市西区,横川町２丁目１１番１０号,,34,104,7330011,,,2023-09-08,清算の結了等,,,2015-10-05,1,,,,,タナベヤッキョク,0
2406,9240002050556,登記記録の閉鎖等,0,2023-09-19,2023-09-08,有限会社幸和,,有限会社,広島県,尾道市,新浜１丁目４番１号,,34,205,7220014,,,2023-09-08,清算の結了等,,,2015-10-05,1,,,,,コウワ,0
2412,9270002005854,登記記録の閉鎖等,0,2023-09-19,2023-09-13,有限会社後藤屋紙器,,有限会社,鳥取県,米子市,泉２１５番地,,31,202,6893512,,,2023-09-13,清算の結了等,,,2015-10-05,1,,,,,,0
2417,9290001072547,登記記録の閉鎖等,0,2023-09-19,2023-09-05,株式会社Ｈｉｇｈ　Ｓｐｅｅｄ　Ｇｒｅｅｎ,,株式会社,福岡県,大野城市,川久保１丁目３番２２号,,40,219,8160905,,,2023-09-05,清算の結了等,,,2016-01-13,1,,,,,ハイスピードグリーン,0
2419,9290001094426,登記記録の閉鎖等,0,2023-09-19,2023-09-14,Ｂｅ　Ｔｒａｄｉｎｇ株式会社,,株式会社,福岡県,柳川市,西浜武１１１４－１,,40,207,8320081,,,2023-09-14,清算の結了等,,,2021-09-01,1,,,,,ビートレーディング,0
2426,9290002050758,登記記録の閉鎖等,0,2023-09-19,2023-09-04,有限会社ホシコ薬局,,有限会社,福岡県,久留米市,長門石１丁目４番５１号,,40,203,8300027,,,2023-09-04,清算の結了等,,,2015-10-05,1,,,,,ホシコヤッキョク,0
2428,9290003002196,登記記録の閉鎖等,0,2023-09-19,2023-09-05,合資会社嘉穂劇場,,合資会社,福岡県,飯塚市,飯塚５番２３号,,40,205,8200041,,,2023-09-05,清算の結了等,,,2015-10-05,1,,,,,カホゲキジョウ,0
2439,9380005005543,登記記録の閉鎖等,0,2023-09-19,2023-09-12,特定非営利活動法人うつくしまきららサポート,,その他の設立登記法人,福島県,石川郡石川町,大字塩沢字広畑４２番地の４,,07,501,9637836,,,2023-09-12,清算の結了等,,,2015-10-05,1,,,,,ウツクシマキララサポート,0
2440,9410002004379,登記記録の閉鎖等,0,2023-09-19,2023-09-11,有限会社ケイ・ワイ,,有限会社,秋田県,秋田市,中通２丁目８番１号,,05,201,0100001,,,2023-09-11,清算の結了等,,,2015-10-05,1,,,,,ケイワイ,0
