sequenceNumber,corporateNumber,process,correct,updateDate,changeDate,name,nameImageId,kind,prefectureName,cityName,streetNumber,addressImageId,prefectureCode,cityCode,postCode,addressOutside,addressOutsideImageId,closeDate,closeCause,successorCorporateNumber,changeCause,assignmentDate,latest,enName,enPrefectureName,enCityName,enAddressOutside,furigana,hihyoji
9,1010001228563,新規,0,2022-08-26,2022-08-26,株式会社ＬＴＧ,,株式会社,東京都,千代田区,外神田２丁目８－４－４０３,,13,101,1010021,,,,,,,2022-08-26,1,,,,,エルティージー,0
10,1010001229058,新規,0,2022-08-26,2022-08-26,英新リアルティ株式会社,,株式会社,東京都,千代田区,内神田１丁目１８番１１号東京ロイヤルプラザ４階,,13,101,1010047,,,,,,,2022-08-26,1,,,,,エイシンリアルティ,0
11,1010001229066,新規,0,2022-08-26,2022-08-26,株式会社ＢＣＪ‐６８,,株式会社,東京都,千代田区,丸の内１丁目１番１号パレスビル５階,,13,101,1000005,,,,,,,2022-08-26,1,,,,,ビーシージェイシックスティーエイト,0
12,1010001229099,新規,0,2022-08-26,2022-08-26,株式会社ＣＮＧコンサルティング,,株式会社,東京都,千代田区,六番町３番地１１玉柳テシコ六番町ビル５０１号室,,13,101,1020085,,,,,,,2022-08-26,1,,,,,シーエヌジーコンサルティング,0
16,1010003038449,新規,0,2022-08-26,2022-08-26,合同会社鮫,,合同会社,東京都,中央区,銀座８丁目１８番２号,,13,102,1040061,,,,,,,2022-08-26,1,,,,,サメ,0
17,1010003038507,新規,0,2022-08-26,2022-08-26,東京レジ２８合同会社,,合同会社,東京都,千代田区,丸の内３丁目１番１号東京共同会計事務所内,,13,101,1000005,,,,,,,2022-08-26,1,,,,,トウキョウレジトゥエンティエイト,0
18,1010003038515,新規,0,2022-08-26,2022-08-26,合同会社岩田屋,,合同会社,東京都,中央区,銀座１丁目２２－１１,,13,102,1040061,,,,,,,2022-08-26,1,,,,,イワタヤ,0
26,1010401169003,新規,0,2022-08-26,2022-08-26,株式会社モンゴリアン９,,株式会社,東京都,港区,新橋３丁目４番３号加藤ビル３０３,,13,103,1050004,,,,,,,2022-08-26,1,,,,,モンゴリアンナイン,0
27,1010401169250,新規,0,2022-08-26,2022-08-26,株式会社ｈａｂａｎｅｒｏ,,株式会社,東京都,港区,浜松町２丁目２番１５号浜松町ダイヤビル２Ｆ,,13,103,1050013,,,,,,,2022-08-26,1,,,,,ハバネロ,0
28,1010401169267,新規,0,2022-08-26,2022-08-26,威仕株式会社,,株式会社,東京都,港区,白金６丁目１６番２５－１００１,,13,103,1080072,,,,,,,2022-08-26,1,,,,,ウェイシー,0
29,1010401169309,新規,0,2022-08-26,2022-08-26,株式会社やまきまちづくり研究所,,株式会社,東京都,港区,南青山１丁目１５番９号第４５興和ビル,,13,103,1070062,,,,,,,2022-08-26,1,,,,,ヤマキマチヅクリケンキュウショ,0
30,1010401169317,新規,0,2022-08-26,2022-08-26,株式会社ＳＯＮＯＳＡＫＩｅ,,株式会社,東京都,港区,北青山２丁目１２番８号ＢＩＺＳＭＡＲＴ青山２２０,,13,103,1070061,,,,,,,2022-08-26,1,,,,,ソノサキエ,0
31,1010403028297,新規,0,2022-08-26,2022-08-26,合同会社Ｙコンサリューション,,合同会社,東京都,港区,愛宕１丁目６番７号愛宕山弁護士ビル３０８,,13,103,1050002,,,,,,,2022-08-26,1,,,,,ワイコンサリューション,0
46,1011001149254,新規,0,2022-08-26,2022-08-26,株式会社ＳＯＵＭＡ,,株式会社,東京都,渋谷区,渋谷２丁目１９－１５宮益坂ビルディング６０９,,13,113,1500002,,,,,,,2022-08-26,1,,,,,ソウマ,0
47,1011001149403,新規,0,2022-08-26,2022-08-26,ネイバーゼットジャパン株式会社,,株式会社,東京都,渋谷区,千駄ヶ谷５丁目２７番５号,,13,113,1510051,,,,,,,2022-08-26,1,,,,,ネイバーゼットジャパン,0
51,1011101099960,新規,0,2022-08-26,2022-08-26,株式会社ライズ,,株式会社,東京都,新宿区,西新宿３丁目３番１３号西新宿水間ビル６階,,13,104,1600023,,,,,,,2022-08-26,1,,,,,ライズ,0
52,1011101099969,新規,0,2022-08-26,2022-08-26,株式会社マインドフルネス,,株式会社,東京都,新宿区,新宿２丁目４番２－４０１号,,13,104,1600022,,,,,,,2022-08-26,1,,,,,マインドフルネス,0
53,1011103012095,新規,0,2022-08-26,2022-08-26,合同会社ＦｌｏｗＲｉｓｈ,,合同会社,東京都,新宿区,西新宿３丁目３番１３号西新宿水間ビル６階,,13,104,1600023,,,,,,,2022-08-26,1,,,,,フロウリッシュ,0
59,1011301028067,新規,0,2022-08-26,2022-08-26,株式会社工房西谷,,株式会社,東京都,杉並区,阿佐谷北２丁目２３番６号,,13,115,1660001,,,,,,,2022-08-26,1,,,,,コウボウニシタニ,0
64,1011501028412,新規,0,2022-08-26,2022-08-26,嘉信株式会社,,株式会社,東京都,北区,赤羽台１丁目６番１３－６０９号,,13,117,1150053,,,,,,,2022-08-26,1,,,,,カシン,0
71,1011801041197,新規,0,2022-08-26,2022-08-26,株式会社小沼空調設備,,株式会社,東京都,足立区,西新井４丁目３３番１５号山崎マンション３０１,,13,121,1230841,,,,,,,2022-08-26,1,,,,,オヌマクウチョウセツビ,0
72,1011805003202,新規,0,2022-08-26,2022-08-26,一般社団法人五芒星,,その他の設立登記法人,東京都,葛飾区,東堀切２丁目５番６号,,13,122,1240004,,,,,,,2022-08-26,1,,,,,ゴボウセイ,0
75,1013301049571,新規,0,2022-08-26,2022-08-26,株式会社ＡＴＥ,,株式会社,東京都,豊島区,南池袋１丁目１３番２３号,,13,116,1710022,,,,,,,2022-08-26,1,,,,,アテ,0
83,1020001147936,新規,0,2022-08-26,2022-08-26,京浜住設株式会社,,株式会社,神奈川県,横浜市金沢区,富岡東１丁目４番８号,,14,108,2360051,,,,,,,2022-08-26,1,,,,,ケイヒンジュウセツ,0
91,1021005012597,新規,0,2022-08-26,2022-08-26,司法書士法人相信,,その他の設立登記法人,神奈川県,相模原市中央区,鹿沼台２丁目１１番６号３階,,14,152,2520233,,,,,,,2022-08-26,1,,,,,ソウシン,0
96,1030001149799,新規,0,2022-08-26,2022-08-26,株式会社原土建,,株式会社,埼玉県,川口市,東領家２丁目４番１０号,,11,203,3320003,,,,,,,2022-08-26,1,,,,,ハラドケン,0
97,1030001149816,新規,0,2022-08-26,2022-08-26,株式会社ＳＢＩ　ｉｎｓｐｅｃｔｉｏｎ　ａｇｅｎｃｙ,,株式会社,埼玉県,川口市,飯塚３丁目７番１４号メゾンドボヌールＣ棟１０２号,,11,203,3320023,,,,,,,2022-08-26,1,,,,,エスビーアイインスペクションエイジェンシー,0
104,1040001124792,新規,0,2022-08-26,2022-08-26,株式会社ネクストホーム,,株式会社,千葉県,流山市,大字東深井９７１番地の１０,,12,220,2700101,,,,,,,2022-08-26,1,,,,,ネクストホーム,0
111,1040003020692,新規,0,2022-08-26,2022-08-26,合同会社ハーティープラム,,合同会社,千葉県,松戸市,稔台７丁目３１番地の１ハイピアー稔台３０５号,,12,207,2702231,,,,,,,2022-08-26,1,,,,,ハーティープラム,0
120,1060001035212,新規,0,2022-08-26,2022-08-26,株式会社Ｌ．Ｉ．Ｇ,,株式会社,栃木県,小山市,駅東通り１丁目２番１７号ＴＳビルＩ３０２号室,00127626,09,208,3230022,,,,,,,2022-08-26,1,,,,,エルアイジー,0
125,1070001039542,新規,0,2022-08-26,2022-08-26,株式会社アールトラスト,,株式会社,群馬県,前橋市,富士見町石井３９８番地,,10,201,3710105,,,,,,,2022-08-26,1,,,,,アールトラスト,0
128,1080401026008,新規,0,2022-08-26,2022-08-26,株式会社増井,,株式会社,静岡県,浜松市中区,葵西３丁目２６番１６号,,22,131,4338111,,,,,,,2022-08-26,1,,,,,マスイ,0
141,1120001248336,新規,0,2022-08-26,2022-08-26,株式会社ＧＹＧ,,株式会社,大阪府,大阪市阿倍野区,阿倍野筋２丁目４番３７号カスタリア阿倍野１５０５号室,,27,119,5450052,,,,,,,2022-08-26,1,,,,,ジーワイジー,0
142,1120001248402,新規,0,2022-08-26,2022-08-26,株式会社タイガー,,株式会社,大阪府,大阪市西区,西本町１丁目１５番６号,,27,106,5500005,,,,,,,2022-08-26,1,,,,,タイガー,0
146,1120003022350,新規,0,2022-08-26,2022-08-26,ＳＴ合同会社,,合同会社,大阪府,大阪市淀川区,塚本２丁目１５番３－３０１号,,27,123,5320026,,,,,,,2022-08-26,1,,,,,エスティー,0
148,1120005023149,新規,0,2022-08-26,2022-08-26,一般社団法人地産地消振興会,,その他の設立登記法人,大阪府,大阪市北区,天満２丁目２番１９号,,27,127,5300043,,,,,,,2022-08-26,1,,,,,チサンチショウシンコウカイ,0
150,1120105009618,新規,0,2022-08-26,2022-08-26,特定非営利活動法人晴れっと,,その他の設立登記法人,大阪府,大阪狭山市,山本北１４２３－４,,27,231,5890035,,,,,,,2022-08-26,1,,,,,パレット,0
162,1130001072504,新規,0,2022-08-26,2022-08-26,株式会社京都まるくま,,株式会社,京都府,京都市上京区,浄福寺通一条下る東西俵屋町１４４番地京都西陣ろおじ,,26,102,6028294,,,,,,,2022-08-26,1,,,,,キョウトマルクマ,0
163,1130001072512,新規,0,2022-08-26,2022-08-26,株式会社日生アソシエイト,,株式会社,京都府,京都市下京区,五条通堀川上ル小泉町１０１番地,,26,106,6000000,,,,,,,2022-08-26,1,,,,,ニッセイアソシエイト,0
167,1140001127190,新規,0,2022-08-26,2022-08-26,スエヒロ株式会社,,株式会社,兵庫県,神戸市中央区,東町１２６番地神戸シルクセンタービル８階,,28,110,6500031,,,,,,,2022-08-26,1,,,,,スエヒロ,0
168,1140001127199,新規,0,2022-08-26,2022-08-26,株式会社くぬぎの森,,株式会社,兵庫県,西宮市,高木東町２５番１９号,,28,204,6638033,,,,,,,2022-08-26,1,,,,,クヌギノモリ,0
173,1140003018058,新規,0,2022-08-26,2022-08-26,合同会社Ａｌｉｃｅ,,合同会社,兵庫県,芦屋市,船戸町５番２６号マリアキャリーヌビル,,28,206,6590093,,,,,,,2022-08-26,1,,,,,アリス,0
179,1180001152755,新規,0,2022-08-26,2022-08-26,株式会社アシェット,,株式会社,愛知県,東海市,荒尾町下平井６２番地,,23,222,4760003,,,,,,,2022-08-26,1,,,,,アシェット,0
180,1180001152788,新規,0,2022-08-26,2022-08-26,ジャパンシークレット株式会社,,株式会社,愛知県,愛知郡東郷町,大字春木字新池２２４番地,,23,302,4700162,,,,,,,2022-08-26,1,,,,,ジャパンシークレット,0
181,1180003024201,新規,0,2022-08-26,2022-08-26,合同会社サステナ,,合同会社,愛知県,名古屋市中村区,千原町１０－５８－４０１,,23,105,4530011,,,,,,,2022-08-26,1,,,,,サステナ,0
183,1180301036567,新規,0,2022-08-26,2022-08-26,株式会社サステナリビング,,株式会社,愛知県,豊橋市,大橋通１丁目６８番地,,23,201,4400076,,,,,,,2022-08-26,1,,,,,サステナリビング,0
185,1190001029721,新規,0,2022-08-26,2022-08-26,株式会社伊賀市にぎわいパートナーズ,,株式会社,三重県,伊賀市,緑ケ丘南町２３３２番地,,24,216,5180835,,,,,,,2022-08-26,1,,,,,イガシニギワイパートナーズ,0
191,1220001024999,新規,0,2022-08-26,2022-08-26,株式会社ＧＭＥプレジャーグループ,,株式会社,石川県,金沢市,窪１丁目２０７番地２,,17,201,9218151,,,,,,,2022-08-26,1,,,,,ジーエムイープレジャーグループ,0
192,1220003003349,新規,0,2022-08-26,2022-08-26,サオラ合同会社,,合同会社,石川県,白山市,柏町５番地８,,17,210,9240043,,,,,,,2022-08-26,1,,,,,サオラ,0
196,1240003005764,新規,0,2022-08-26,2022-08-26,合同会社丸屋カンパニー,,合同会社,広島県,山県郡北広島町,溝口１７１９番地,,34,369,7312202,,,,,,,2022-08-26,1,,,,,マルヤカンパニー,0
197,1250001019740,新規,0,2022-08-26,2022-08-26,株式会社ＣＲＡＳＵＭ,,株式会社,山口県,周南市,新町１丁目５番地,,35,215,7450017,,,,,,,2022-08-26,1,,,,,クラスム,0
198,1260001037171,新規,0,2022-08-26,2022-08-26,株式会社ペイントラッシュ,,株式会社,岡山県,津山市,川崎４３５番地２３,,33,203,7080841,,,,,,,2022-08-26,1,,,,,ペイントラッシュ,0
200,1270001008618,新規,0,2022-08-26,2022-08-26,株式会社Ｗａｎｄｉｔ,,株式会社,鳥取県,鳥取市,吉成南町１丁目２４番２号,,31,201,6800871,,,,,,,2022-08-26,1,,,,,ワンディット,0
215,1310003004429,新規,0,2022-08-26,2022-08-26,合同会社真工業,,合同会社,長崎県,北松浦郡佐々町,口石免１４２４番地７,,42,391,8570352,,,,,,,2022-08-26,1,,,,,マコトコウギョウ,0
219,1330001030053,新規,0,2022-08-26,2022-08-26,株式会社ＡＴＡＧＯ,,株式会社,熊本県,上益城郡御船町,大字上野６２２番地,,43,441,8613322,,,,,,,2022-08-26,1,,,,,アタゴ,0
224,1350001017916,新規,0,2022-08-26,2022-08-26,株式会社Ｌ２Ｓ,,株式会社,宮崎県,小林市,南西方５９９３番地２,,45,205,8860005,,,,,,,2022-08-26,1,,,,,エルツーエス,0
231,1360001030901,新規,0,2022-08-26,2022-08-26,株式会社ラビワークス,,株式会社,沖縄県,中頭郡西原町,字翁長６２１番地,,47,329,9030117,,,,,,,2022-08-26,1,,,,,ラビワークス,0
242,1420001017982,新規,0,2022-08-26,2022-08-26,株式会社ライトニングブラスト,,株式会社,青森県,青森市,沖館４丁目６番３６号,,02,201,0380002,,,,,,,2022-08-26,1,,,,,ライトニングブラスト,0
255,1470001019231,新規,0,2022-08-26,2022-08-26,四建安全センター株式会社,,株式会社,香川県,善通寺市,吉原町５３７番地４,,37,204,7650061,,,,,,,2022-08-26,1,,,,,ヨンケンアンゼンセンター,0
258,1700150017648,新規,0,2022-08-26,2015-10-09,武甲共有山組合,,その他,埼玉県,秩父郡横瀬町,大字横瀬２０５０,,11,361,3680072,,,,,,,2015-10-09,1,,,,,ブコウキヨウユウザンクミアイ,0
268,2010001229024,新規,0,2022-08-26,2022-08-26,株式会社Ｗｉｓｔｅｒｉａ,,株式会社,東京都,中央区,勝どき６丁目５番４‐２１５号,,13,102,1040054,,,,,,,2022-08-26,1,,,,,ウィステリア,0
269,2010001229032,新規,0,2022-08-26,2022-08-26,株式会社ハイル,,株式会社,東京都,千代田区,神田小川町１丁目１番地,,13,101,1010052,,,,,,,2022-08-26,1,,,,,ハイル,0
270,2010001229040,新規,0,2022-08-26,2022-08-26,株式会社ＩＤＭ,,株式会社,東京都,中央区,銀座６丁目１３番９号ｂｉｚｃｕｂｅ,,13,102,1040061,,,,,,,2022-08-26,1,,,,,アイディーエム,0
272,2010003038480,新規,0,2022-08-26,2022-08-26,合同会社ネクストワン,,合同会社,東京都,文京区,千駄木１丁目２２番５号,,13,105,1130022,,,,,,,2022-08-26,1,,,,,ネクストワン,0
273,2010003038506,新規,0,2022-08-26,2022-08-26,東京レジ２９合同会社,,合同会社,東京都,千代田区,丸の内３丁目１番１号東京共同会計事務所内,,13,101,1000005,,,,,,,2022-08-26,1,,,,,トウキョウレジトゥエンティナイン,0
275,2010005035484,新規,0,2022-08-26,2022-08-26,一般社団法人ＡＬＪ　Ｈｅａｌｔｈｃａｒｅ２,,その他の設立登記法人,東京都,中央区,日本橋１丁目４番１号,,13,102,1030027,,,,,,,2022-08-26,1,,,,,エーエルジェイヘルスケアツー,0
276,2010005035492,新規,0,2022-08-26,2022-08-26,一般社団法人西神中央レジ開発,,その他の設立登記法人,東京都,千代田区,霞が関３丁目２番５号,,13,101,1000013,,,,,,,2022-08-26,1,,,,,セイシンチュウオウレジカイハツ,0
285,2010401169142,新規,0,2022-08-26,2022-08-26,株式会社ｓｕｐｅｒｄｅｆ,,株式会社,東京都,港区,南青山２丁目２番１５号,,13,103,1070062,,,,,,,2022-08-26,1,,,,,スーパーデフ,0
286,2010401169258,新規,0,2022-08-26,2022-08-26,チェックス株式会社,,株式会社,東京都,港区,東麻布２丁目３５－１ＫＣビル６Ｆ１９号室,,13,103,1060044,,,,,,,2022-08-26,1,,,,,チェックス,0
287,2010401169266,新規,0,2022-08-26,2022-08-26,株式会社アダプト,,株式会社,東京都,港区,浜松町２丁目２番１５号浜松町ダイヤビル２Ｆ,,13,103,1050013,,,,,,,2022-08-26,1,,,,,アダプト,0
288,2010401169308,新規,0,2022-08-26,2022-08-26,株式会社ＭＳ商事,,株式会社,東京都,港区,南青山１丁目１５番９号第４５興和ビル,,13,103,1070062,,,,,,,2022-08-26,1,,,,,エムエスショウジ,0
290,2010403028313,新規,0,2022-08-26,2022-08-26,合同会社おまつり,,合同会社,東京都,港区,南青山２丁目２番１５号ウィン青山９４２,,13,103,1070062,,,,,,,2022-08-26,1,,,,,オマツリ,0
293,2010405021282,新規,0,2022-08-26,2022-08-26,一般社団法人日本絵師協会,,その他の設立登記法人,東京都,港区,芝３丁目１７番１５号クリエート三田３０４,,13,103,1050014,,,,,,,2022-08-26,1,,,,,ニホンエシキョウカイ,0
294,2010405021332,新規,0,2022-08-26,2022-08-26,一般社団法人Ｓａｍｏｓ,,その他の設立登記法人,東京都,港区,虎ノ門５丁目１番４号,,13,103,1050001,,,,,,,2022-08-26,1,,,,,サモス,0
296,2010501049293,新規,0,2022-08-26,2022-08-26,東潤勝貿易株式会社,,株式会社,東京都,台東区,松が谷２丁目７番１０号村上ビル３Ａ号室,,13,106,1110036,,,,,,,2022-08-26,1,,,,,トウジュンショウボウエキ,0
306,2010903007592,新規,0,2022-08-26,2022-08-26,ｆｂ７合同会社,,合同会社,東京都,世田谷区,玉川３丁目２０番２号,,13,112,1580094,,,,,,,2022-08-26,1,,,,,エフビーセブン,0
315,2011001149419,新規,0,2022-08-26,2022-08-26,株式会社Ｂｕｔｔｅｒｆｌｙ　Ｅｆｆｅｃｔ,,株式会社,東京都,渋谷区,神泉町１１番１１号イーデンビル４Ｆ,,13,113,1500045,,,,,,,2022-08-26,1,,,,,バタフライエフェクト,0
316,2011001149427,新規,0,2022-08-26,2022-08-26,株式会社ｕｒａｒａｃａ,,株式会社,東京都,目黒区,鷹番３丁目６－７ワークコート学芸大学,,13,110,1520004,,,,,,,2022-08-26,1,,,,,ウララカ,0
320,2011005009701,新規,0,2022-08-26,2022-08-26,一般社団法人Ｅパパ倶楽部,,その他の設立登記法人,東京都,目黒区,鷹番３丁目１番８－４Ｆ,,13,110,1520004,,,,,,,2022-08-26,1,,,,,イーパパクラブ,0
326,2011101099976,新規,0,2022-08-26,2022-08-26,株式会社ＦＬＯＧ,,株式会社,東京都,新宿区,西新宿３丁目９－７フロンティア新宿タワー２００４,,13,104,1600023,,,,,,,2022-08-26,1,,,,,フロッグ,0
327,2011105010377,新規,0,2022-08-26,2022-08-26,特定非営利活動法人総合警備サービス防犯推進機構,,その他の設立登記法人,東京都,新宿区,西新宿３丁目９番１号西新宿ティーオービル２階,,13,104,1600023,,,,,,,2022-08-26,1,,,,,ソウゴウケイビサービスボウハンスイシンキコウ,0
334,2012801021799,新規,0,2022-08-26,2022-08-26,佐久間工業株式会社,,株式会社,東京都,国立市,谷保７１８３－１－１０３,,13,215,1860011,,,,,,,2022-08-26,1,,,,,サクマコウギョウ,0
337,2013301049570,新規,0,2022-08-26,2022-08-26,株式会社アセット,,株式会社,東京都,豊島区,南池袋２丁目３０番１１号池袋第一生命ビルディング３階,,13,116,1710022,,,,,,,2022-08-26,1,,,,,アセット,0
343,2020001147919,新規,0,2022-08-26,2022-08-26,株式会社アイエスピーホールディングス,,株式会社,神奈川県,横浜市西区,みなとみらい２丁目３番１号クイーンズタワーＡ１２階,,14,103,2200012,,,,,,,2022-08-26,1,,,,,アイエスピーホールディングス,0
346,2020003022285,新規,0,2022-08-26,2022-08-26,合同会社Ｇｉｏｃａｅｖｉｖｉ,,合同会社,神奈川県,横浜市西区,みなとみらい６丁目３番４号ブルーハーバータワーみなとみらい１００４,,14,103,2200012,,,,,,,2022-08-26,1,,,,,ジョカエビビ,0
355,2030001149740,新規,0,2022-08-26,2022-08-26,株式会社Ｋａｌｍｉａ,,株式会社,埼玉県,越谷市,東大沢３丁目２８－７ノーブルマンション１０２,,11,222,3430022,,,,,,,2022-08-26,1,,,,,カルミア,0
356,2030001149823,新規,0,2022-08-26,2022-08-26,株式会社トラストホーム,,株式会社,埼玉県,越谷市,瓦曽根２丁目６番３４号,,11,222,3430821,,,,,,,2022-08-26,1,,,,,トラストホーム,0
360,2040001124833,新規,0,2022-08-26,2022-08-26,株式会社タパ,,株式会社,千葉県,松戸市,小金原６丁目１３番地,,12,207,2700021,,,,,,,2022-08-26,1,,,,,タパ,0
363,2040005021713,新規,0,2022-08-26,2022-08-26,エース行政書士法人,,その他の設立登記法人,千葉県,千葉市若葉区,千城台東２丁目３６番７号,,12,104,2640002,,,,,,,2022-08-26,1,,,,,エース,0
366,2050001051597,新規,0,2022-08-26,2022-08-26,フラスコＰＲ株式会社,,株式会社,茨城県,水戸市,元吉田町３３７－３,,08,201,3100836,,,,,,,2022-08-26,1,,,,,フラスコピーアール,0
368,2050005013131,新規,0,2022-08-26,2022-08-26,特定非営利活動法人ステップＵＰ,,その他の設立登記法人,茨城県,坂東市,長谷６８９番地３,,08,228,3060642,,,,,,,2022-08-26,1,,,,,ステップアップ,0
373,2080001025152,新規,0,2022-08-26,2022-08-26,株式会社Ａｒｃｏｂａｌｅｎｏ,,株式会社,静岡県,静岡市清水区,北脇６７番地の４シゴーニュ１０２号,,22,103,4240052,,,,,,,2022-08-26,1,,,,,アルコバレーノ,0
380,2110001036914,新規,0,2022-08-26,2022-08-26,アソビ株式会社,,株式会社,新潟県,新潟市東区,物見山２丁目３５番２０号３,,15,102,9500021,,,,,,,2022-08-26,1,,,,,アソビ,0
387,2120001248401,新規,0,2022-08-26,2022-08-26,椿皓株式会社,,株式会社,大阪府,大阪市中央区,松屋町９番２０号ローレルステート松屋町９０２Ｂ,,27,128,5420067,,,,,,,2022-08-26,1,,,,,ツバキコウ,0
388,2120001248418,新規,0,2022-08-26,2022-08-26,株式会社ドローキャスティング,,株式会社,大阪府,大阪市中央区,北久宝寺町２丁目５番１５号,,27,128,5410057,,,,,,,2022-08-26,1,,,,,ドローキャスティング,0
389,2120001248434,新規,0,2022-08-26,2022-08-26,Ａｌｐｈａ株式会社,,株式会社,大阪府,大阪市中央区,高津３丁目１１番２号,,27,128,5420072,,,,,,,2022-08-26,1,,,,,アルファ,0
390,2120001248442,新規,0,2022-08-26,2022-08-26,株式会社飛翔,,株式会社,大阪府,大阪市北区,大淀北１丁目６番２１－１７０１号,,27,127,5310077,,,,,,,2022-08-26,1,,,,,ヒショウ,0
391,2120001248450,新規,0,2022-08-26,2022-08-26,有為株式会社,,株式会社,大阪府,大阪市旭区,清水５丁目５－１８ロイヤルコート清水１０２,,27,117,5350021,,,,,,,2022-08-26,1,,,,,ユウイ,0
392,2120001248459,新規,0,2022-08-26,2022-08-26,株式会社燦々,,株式会社,大阪府,大阪市北区,松ケ枝町７－７,,27,127,5300037,,,,,,,2022-08-26,1,,,,,サンサン,0
398,2120103004826,新規,0,2022-08-26,2022-08-26,合同会社エヌスリー,,合同会社,大阪府,堺市南区,新檜尾台４丁１６番２０－２０８号,,27,145,5900143,,,,,,,2022-08-26,1,,,,,エヌスリー,0
408,2130001072511,新規,0,2022-08-26,2022-08-26,株式会社新夢,,株式会社,京都府,城陽市,久世南垣内１４２番地ＫＪＶＩＬＬＡ・Ｉ－１０２号,00127625,26,207,6100102,,,,,,,2022-08-26,1,,,,,アラム,0
413,2140001127165,新規,0,2022-08-26,2022-08-26,株式会社Ｒｅａｃｈ,,株式会社,兵庫県,神戸市北区,鹿の子台南町４丁目２９番７号,,28,109,6511514,,,,,,,2022-08-26,1,,,,,リーチ,0
414,2140001127198,新規,0,2022-08-26,2022-08-26,株式会社ＭＹＦＡＭ,,株式会社,兵庫県,川西市,大和西１丁目４８－２,,28,217,6660112,,,,,,,2022-08-26,1,,,,,マイファム,0
418,2140005026297,新規,0,2022-08-26,2022-08-26,一般社団法人結び,,その他の設立登記法人,兵庫県,神戸市北区,上津台５丁目４番２７－１号,,28,109,6511515,,,,,,,2022-08-26,1,,,,,ムスビ,0
419,2150001025780,新規,0,2022-08-26,2022-08-26,アンド未来創造株式会社,,株式会社,奈良県,天理市,田部町３５０－１,,29,204,6320017,,,,,,,2022-08-26,1,,,,,アンドミライソウゾウ,0
422,2160001024468,新規,0,2022-08-26,2022-08-26,株式会社ＳＴＡＲ　ＢＥＩ,,株式会社,滋賀県,大津市,雄琴１丁目１３番２２号,,25,201,5200101,,,,,,,2022-08-26,1,,,,,スターベイ,0
425,2180001152754,新規,0,2022-08-26,2022-08-26,株式会社千賀サイクル,,株式会社,愛知県,津島市,中地町３丁目３１番地１,,23,208,4960847,,,,,,,2022-08-26,1,,,,,センガサイクル,0
426,2180001152770,新規,0,2022-08-26,2022-08-26,Ｍ＆Ｉ株式会社,,株式会社,愛知県,名古屋市天白区,原１丁目１４０８番地の１,,23,116,4680015,,,,,,,2022-08-26,1,,,,,エムアンドアイ,0
427,2180001152779,新規,0,2022-08-26,2022-08-26,株式会社Ａ’ｓ,,株式会社,愛知県,名古屋市中区,栄４丁目９番１０号,,23,106,4600008,,,,,,,2022-08-26,1,,,,,エース,0
435,2180301036566,新規,0,2022-08-26,2022-08-26,株式会社田中建築,,株式会社,愛知県,豊川市,御油町木ノ下６６番地の１,,23,207,4410211,,,,,,,2022-08-26,1,,,,,タナカケンチク,0
444,2230001019502,新規,0,2022-08-26,2022-08-26,株式会社祥晃堂,,株式会社,富山県,高岡市,五福町１２番３号,,16,202,9330906,,,,,,,2022-08-26,1,,,,,ショウコウドウ,0
449,2260001037170,新規,0,2022-08-26,2022-08-26,株式会社マークブレイン,,株式会社,岡山県,倉敷市,茶屋町１９５０番地４,,33,202,7101101,,,,,,,2022-08-26,1,,,,,マークブレイン,0
462,2290003012879,新規,0,2022-08-26,2022-08-26,ＴＨＡ合同会社,,合同会社,福岡県,久留米市,東町３８－８－２Ｆ,,40,203,8300032,,,,,,,2022-08-26,1,,,,,ティーエイチエー,0
466,2330001030052,新規,0,2022-08-26,2022-08-26,株式会社極真エンタープライズ,,株式会社,熊本県,熊本市東区,若葉２丁目９番１４－５０１号シティマンション若葉,,43,102,8620903,,,,,,,2022-08-26,1,,,,,キョクシンエンタープライズ,0
469,2350001017915,新規,0,2022-08-26,2022-08-26,Ｔａｋｕｍａ　Ｄｅｓｉｇｎ株式会社,,株式会社,宮崎県,日向市,美々津町４８１５－１,,45,206,8891111,,,,,,,2022-08-26,1,,,,,タクマデザイン,0
471,2360001030883,新規,0,2022-08-26,2022-08-26,グローバルファーム株式会社,,株式会社,沖縄県,石垣市,字平得５３番地１ＫＣビル１階,,47,207,9070003,,,,,,,2022-08-26,1,,,,,グローバルファーム,0
472,2360003012269,新規,0,2022-08-26,2022-08-26,合同会社Ｍａｅｓｅｎ,,合同会社,沖縄県,那覇市,真嘉比２丁目１２番１号,,47,201,9020068,,,,,,,2022-08-26,1,,,,,マエセン,0
481,2380001033067,新規,0,2022-08-26,2022-08-26,株式会社創和,,株式会社,福島県,福島市,瀬上町字柳沼５８番地の２Ｂ棟,,07,201,9600101,,,,,,,2022-08-26,1,,,,,ソウワ,0
491,2430001087371,新規,0,2022-08-26,2022-08-26,株式会社須永商店,,株式会社,北海道,札幌市中央区,南二条東２丁目１６堀尾ビル,,01,101,0600052,,,,,,,2022-08-26,1,,,,,スナガショウテン,0
499,2500001024425,新規,0,2022-08-26,2022-08-26,株式会社サウスバウンズ,,株式会社,愛媛県,松山市,千舟町５丁目３－１７市駅前ビル４階,,38,201,7900011,,,,,,,2022-08-26,1,,,,,,0
500,2500003002882,新規,0,2022-08-26,2022-08-26,合同会社大知,,合同会社,愛媛県,大洲市,中村５２７番地３,,38,207,7950054,,,,,,,2022-08-26,1,,,,,ダイチ,0
505,3010001228891,新規,0,2022-08-26,2022-08-26,Ｓ２１株式会社,,株式会社,東京都,文京区,千駄木３丁目２４番５号,,13,105,1130022,,,,,,,2022-08-26,1,,,,,エストゥエンティワン,0
506,3010001228941,新規,0,2022-08-26,2022-08-26,株式会社チェスターアカデミー,,株式会社,東京都,中央区,八重洲１丁目７－２０,,13,102,1030028,,,,,,,2022-08-26,1,,,,,チェスターアカデミー,0
507,3010001229031,新規,0,2022-08-26,2022-08-26,株式会社リードパス,,株式会社,東京都,中央区,八丁堀４丁目８番２号,,13,102,1040032,,,,,,,2022-08-26,1,,,,,リードパス,0
508,3010001229056,新規,0,2022-08-26,2022-08-26,株式会社ハルミ,,株式会社,東京都,中央区,晴海２丁目２番４２－２４１６号,,13,102,1040053,,,,,,,2022-08-26,1,,,,,ハルミ,0
512,3010003038521,新規,0,2022-08-26,2022-08-26,合同会社西神中央レジ開発,,合同会社,東京都,千代田区,霞が関３丁目２番５号,,13,101,1000013,,,,,,,2022-08-26,1,,,,,セイシンチュウオウレジカイハツ,0
515,3010005035467,新規,0,2022-08-26,2022-08-26,一般社団法人エイパック・ツー,,その他の設立登記法人,東京都,千代田区,丸の内２丁目３番２号郵船ビルアルタードムス・ジャパン株式会社内,,13,101,1000005,,,,,,,2022-08-26,1,,,,,エイパックツー,0
520,3010401169059,新規,0,2022-08-26,2022-08-26,Ｆｉｎｄｅｒ＆Ｇｉｖｅｒ株式会社,,株式会社,東京都,港区,三田１丁目４番１号,,13,103,1080073,,,,,,,2022-08-26,1,,,,,ファインダーアンドギバー,0
521,3010401169166,新規,0,2022-08-26,2022-08-26,國酒プロモーション株式会社,,株式会社,東京都,港区,赤坂９丁目２－１３ｎｉｎｅｔｙｔｗｏ１３、２１０号室,,13,103,1070052,,,,,,,2022-08-26,1,,,,,コクシュプロモーション,0
522,3010401169232,新規,0,2022-08-26,2022-08-26,株式会社Ｄｒｅａｍ　Ｏｎ　Ｂｅａｕｔｙ,,株式会社,東京都,港区,麻布十番２丁目１６番１１号麻布十番２Ａビル４０１,,13,103,1060045,,,,,,,2022-08-26,1,,,,,ドリームオンビューティー,0
523,3010401169315,新規,0,2022-08-26,2022-08-26,ＧＣＪＩ８株式会社,,株式会社,東京都,港区,元赤坂１丁目１番８号株式会社赤坂国際会計内,,13,103,1070051,,,,,,,2022-08-26,1,,,,,ジーシージェイアイエイト,0
524,3010401169356,新規,0,2022-08-26,2022-08-26,ＡＵＴＯＴＯＰ　ＪＡＰＡＮ株式会社,,株式会社,東京都,港区,芝浦３丁目１７番１１号天翔田町ビル８階８０９号室,,13,103,1080023,,,,,,,2022-08-26,1,,,,,オートトップジャパン,0
527,3010403028353,新規,0,2022-08-26,2022-08-26,合同会社ハコブネ,,合同会社,東京都,港区,西麻布１丁目１２番８－１２０３号,,13,103,1060031,,,,,,,2022-08-26,1,,,,,ハコブネ,0
528,3010405021273,新規,0,2022-08-26,2022-08-26,一般社団法人新しい自治体財政を考える研究会,,その他の設立登記法人,東京都,港区,南青山２丁目２番１５号ウィン青山９４２,,13,103,1070062,,,,,,,2022-08-26,1,,,,,アタラシイジチタイザイセイヲカンガエルケンキュウカイ,0
532,3010601061734,新規,0,2022-08-26,2022-08-26,株式会社ラヴィサポート,,株式会社,東京都,江東区,富岡１丁目２５番５号,,13,108,1350047,,,,,,,2022-08-26,1,,,,,ラヴィサポート,0
539,3010901051492,新規,0,2022-08-26,2022-08-26,Ｚｅｎ　Ｐａｃｉｆｉｃｏ株式会社,,株式会社,東京都,世田谷区,代沢４丁目４２－１５,,13,112,1550032,,,,,,,2022-08-26,1,,,,,ゼンパシフィコ,0
546,3011003015287,新規,0,2022-08-26,2022-08-26,合同会社オーマルシェ,,合同会社,東京都,渋谷区,渋谷１丁目１５－１２ＬＡＩＤＯＵＴＳＨＩＢＵＹＡ２０４,,13,113,1500002,,,,,,,2022-08-26,1,,,,,オーマルシェ,0
551,3011101099950,新規,0,2022-08-26,2022-08-26,株式会社モモンタ,,株式会社,東京都,新宿区,西新宿３丁目９番７号,,13,104,1600023,,,,,,,2022-08-26,1,,,,,モモンタ,0
555,3011501028419,新規,0,2022-08-26,2022-08-26,株式会社笑凡フィルム,,株式会社,東京都,北区,東田端２丁目９番１７－２０６号,,13,117,1140013,,,,,,,2022-08-26,1,,,,,シャオファンフィルム,0
559,3011801041204,新規,0,2022-08-26,2022-08-26,株式会社ディペンダブル,,株式会社,東京都,葛飾区,西新小岩４丁目３６番２２号,,13,122,1240025,,,,,,,2022-08-26,1,,,,,ディペンダブル,0
590,3021001076842,新規,0,2022-08-26,2022-08-26,株式会社すい匠,,株式会社,神奈川県,大和市,深見台４丁目１５番７号グランドールＭ・Ｋ３０６号,,14,213,2420013,,,,,,,2022-08-26,1,,,,,スイショウ,0
591,3021001076850,新規,0,2022-08-26,2022-08-26,株式会社アポロ,,株式会社,神奈川県,大和市,中央７丁目８番１号,,14,213,2420021,,,,,,,2022-08-26,1,,,,,アポロ,0
592,3021001076859,新規,0,2022-08-26,2022-08-26,株式会社ＭＳトラスト,,株式会社,神奈川県,厚木市,及川１１６７,,14,212,2430212,,,,,,,2022-08-26,1,,,,,,0
599,3030001149806,新規,0,2022-08-26,2022-08-26,株式会社ダイシス,,株式会社,埼玉県,さいたま市中央区,上落合２丁目１１番７－１３０５号,,11,105,3380001,,,,,,,2022-08-26,1,,,,,ダイシス,0
600,3030001149830,新規,0,2022-08-26,2022-08-26,株式会社ＲＥＲＩＳＥ,,株式会社,埼玉県,越谷市,大字袋山９９５番地７,,11,222,3430032,,,,,,,2022-08-26,1,,,,,リライズ,0
602,3030003020072,新規,0,2022-08-26,2022-08-26,ＳＮＳ　Ｅｎｔｅｒｐｒｉｓｅｓ合同会社,,合同会社,埼玉県,熊谷市,四方寺４１５番地,,11,202,3600006,,,,,,,2022-08-26,1,,,,,エスエヌエスエンタープライゼス,0
605,3040001124832,新規,0,2022-08-26,2022-08-26,春田建設株式会社,,株式会社,千葉県,船橋市,二和東２丁目９番６号大成コーポ２０５号,,12,204,2740805,,,,,,,2022-08-26,1,,,,,ハルタケンセツ,0
607,3040003020674,新規,0,2022-08-26,2022-08-26,ステップス合同会社,,合同会社,千葉県,柏市,柏２丁目１０番２－２８０３号,,12,217,2770005,,,,,,,2022-08-26,1,,,,,ステップス,0
613,3050001051588,新規,0,2022-08-26,2022-08-26,株式会社Ｋ‐ｐｌａｎ,,株式会社,茨城県,神栖市,若松中央１丁目２２番１号サクラコーポ３－２,,08,232,3140256,,,,,,,2022-08-26,1,,,,,ケイプラン,0
614,3050003006796,新規,0,2022-08-26,2022-08-26,合同会社えんとうん,,合同会社,茨城県,ひたちなか市,平磯町５２７８－４,,08,221,3111203,,,,,,,2022-08-26,1,,,,,エントウエン,0
623,3100001035577,新規,0,2022-08-26,2022-08-26,株式会社Ｓｃａｌｅ,,株式会社,長野県,下伊那郡平谷村,２３７番地１,,20,409,3950601,,,,,,,2022-08-26,1,,,,,スケール,0
635,3120001248417,新規,0,2022-08-26,2022-08-26,株式会社ツケゼン,,株式会社,大阪府,大阪市北区,中津３丁目３２番８号株式会社漬善商店内,,27,127,5310071,,,,,,,2022-08-26,1,,,,,ツケゼン,0
639,3120003022349,新規,0,2022-08-26,2022-08-26,ＴＫ合同会社,,合同会社,大阪府,大阪市西淀川区,柏里２丁目６番１７号盛山ビル２２号室,,27,113,5550022,,,,,,,2022-08-26,1,,,,,ティーケー,0
664,3170005006972,新規,0,2022-08-26,2022-08-26,一般財団法人筒香青少年育成スポーツ財団,,その他の設立登記法人,和歌山県,橋本市,赤塚５６番地の３,00127622,30,203,6480022,,,,,,,2022-08-26,1,,,,,ツツゴウセイショウネンイクセイスポーツザイダン,0
666,3180001152778,新規,0,2022-08-26,2022-08-26,株式会社ａｌｍ,,株式会社,愛知県,名古屋市西区,城西２丁目２番１３号,,23,104,4510031,,,,,,,2022-08-26,1,,,,,アルム,0
669,3180301036565,新規,0,2022-08-26,2022-08-26,株式会社真栄ホールディングス,,株式会社,愛知県,豊橋市,駅前大通１丁目２７番地１,,23,201,4400888,,,,,,,2022-08-26,1,,,,,シンエイホールディングス,0
677,3200001040385,新規,0,2022-08-26,2022-08-26,ナベヤホールディングス株式会社,,株式会社,岐阜県,岐阜市,金屋町１丁目１０番地,,21,201,5008065,,,,,,,2022-08-26,1,,,,,ナベヤホールディングス,0
680,3220001025005,新規,0,2022-08-26,2022-08-26,株式会社ＢＴＤ,,株式会社,石川県,金沢市,泉本町７丁目３番地１,,17,201,9218042,,,,,,,2022-08-26,1,,,,,ビーティーディー,0
685,3240003005770,新規,0,2022-08-26,2022-08-26,合同会社Ａｄａｍａｓ,,合同会社,広島県,広島市中区,大手町１丁目１－２６大手町一番ビル３０５,,34,101,7300051,,,,,,,2022-08-26,1,,,,,アダマス,0
686,3250001019739,新規,0,2022-08-26,2022-08-26,株式会社ダイキマシナリー,,株式会社,山口県,宇部市,大字東岐波１６２６番地３,,35,202,7550241,,,,,,,2022-08-26,1,,,,,ダイキマシナリー,0
693,3270001008616,新規,0,2022-08-26,2022-08-26,Ｔｅｒｒａ　Ｇｒｅｅｎ　Ｓｙｎｅｒｇｙ株式会社,,株式会社,鳥取県,米子市,米原４丁目１番３１号,,31,202,6830804,,,,,,,2022-08-26,1,,,,,テラグリーンシナジー,0
699,3290803004182,新規,0,2022-08-26,2022-08-26,合同会社Ｃａｎ　Ｅｎｔｅｒｔａｉｎｍｅｎｔ,,合同会社,福岡県,北九州市八幡西区,浅川２丁目１４番４０号,,40,109,8070872,,,,,,,2022-08-26,1,,,,,キャンエンターテインメント,0
703,3310003004427,新規,0,2022-08-26,2022-08-26,合同会社ＣＯＣＯ　ＲＩＲＥ,,合同会社,長崎県,佐世保市,船越町６６３番地７,,42,202,8571231,,,,,,,2022-08-26,1,,,,,ココリール,0
704,3320001019293,新規,0,2022-08-26,2022-08-26,株式会社ＣＲＯＳ,,株式会社,大分県,別府市,餅ケ浜町３番３０号ミノルビル３－Ａ,,44,202,8740924,,,,,,,2022-08-26,1,,,,,クロス,0
710,3370001048981,新規,0,2022-08-26,2022-08-26,株式会社Ｌｉｖｅｎｏｗ,,株式会社,宮城県,仙台市青葉区,堤町１丁目１番４―１４０３号,,04,101,9810912,,,,,,,2022-08-26,1,,,,,ライブナウ,0
716,3380001033066,新規,0,2022-08-26,2022-08-26,株式会社Ｎファーム,,株式会社,福島県,いわき市,川前町下桶売字西向６５番地,,07,204,9793202,,,,,,,2022-08-26,1,,,,,エヌファーム,0
718,3390005008971,新規,0,2022-08-26,2022-08-26,一般社団法人最上イノベーションエクスキュート,,その他の設立登記法人,山形県,新庄市,十日町６０００‐１創造交流施設２階,,06,205,9960091,,,,,,,2022-08-26,1,,,,,モガミイノベーションエクスキュート,0
727,3430003014208,新規,0,2022-08-26,2022-08-26,合同会社Ｌｉｆｅ　Ｓｔｙｌｅ,,合同会社,北海道,札幌市豊平区,月寒東三条１６丁目９－２６アップルＩＩ３０２号,00127628,01,105,0620053,,,,,,,2022-08-26,1,,,,,ライフスタイル,0
728,3430003014224,新規,0,2022-08-26,2022-08-26,ファーストテーブル合同会社,,合同会社,北海道,札幌市西区,西町北１２丁目８番２２号,,01,107,0630061,,,,,,,2022-08-26,1,,,,,ファーストテーブル,0
739,4010001229030,新規,0,2022-08-26,2022-08-26,株式会社ミナセント,,株式会社,東京都,千代田区,神田鍛冶町３丁目７番１２号,,13,101,1010045,,,,,,,2022-08-26,1,,,,,ミナセント,0
740,4010001229039,新規,0,2022-08-26,2022-08-26,株式会社ＭＡＨＡＬＯ,,株式会社,東京都,中央区,湊２丁目１５番１４－４０５号,,13,102,1040043,,,,,,,2022-08-26,1,,,,,マハロ,0
741,4010001229105,新規,0,2022-08-26,2022-08-26,株式会社インテレッセ・インターナショナル・ジャパン,,株式会社,東京都,千代田区,紀尾井町３番３１－１００１号,,13,101,1020094,,,,,,,2022-08-26,1,,,,,インテレッセインターナショナルジャパン,0
745,4010003038495,新規,0,2022-08-26,2022-08-26,合同会社ＳＦＡ,,合同会社,東京都,中央区,銀座１丁目１２番４号Ｎ＆ＥＢＬＤ．６Ｆ,,13,102,1040061,,,,,,,2022-08-26,1,,,,,エスエフエー,0
746,4010003038504,新規,0,2022-08-26,2022-08-26,合同会社ＡＫＢＣ,,合同会社,東京都,中央区,銀座１丁目１２番４号ヴァンキッシュ４Ｆ,,13,102,1040061,,,,,,,2022-08-26,1,,,,,エーケービーシー,0
747,4010003038512,新規,0,2022-08-26,2022-08-26,合同会社ＢＣＪ‐６５,,合同会社,東京都,千代田区,丸の内１丁目１番１号パレスビル５階,,13,101,1000005,,,,,,,2022-08-26,1,,,,,ビーシージェイシックスティーファイブ,0
749,4010005035466,新規,0,2022-08-26,2022-08-26,Ｒｏｓｅ　Ｂａｙ特定目的会社,,その他の設立登記法人,東京都,千代田区,丸の内３丁目１番１号東京共同会計事務所内,,13,101,1000005,,,,,,,2022-08-26,1,,,,,ローズベイ,0
750,4010005035482,新規,0,2022-08-26,2022-08-26,ゼストＤＣ一般社団法人,,その他の設立登記法人,東京都,千代田区,丸の内３丁目１番１号東京共同会計事務所内,,13,101,1000005,,,,,,,2022-08-26,1,,,,,ゼストディーシー,0
752,4010401169297,新規,0,2022-08-26,2022-08-26,株式会社エネフ,,株式会社,東京都,港区,三田１丁目４番２８号,,13,103,1080073,,,,,,,2022-08-26,1,,,,,エネフ,0
756,4010501049283,新規,0,2022-08-26,2022-08-26,株式会社トリトン,,株式会社,東京都,台東区,柳橋１丁目３２番５号栄徳ビル２Ｆ,,13,106,1110052,,,,,,,2022-08-26,1,,,,,トリトン,0
773,4010901051475,新規,0,2022-08-26,2022-08-26,株式会社ＬＩＣ,,株式会社,東京都,世田谷区,梅丘１丁目６１番１４号,,13,112,1540022,,,,,,,2022-08-26,1,,,,,,0
774,4010901051509,新規,0,2022-08-26,2022-08-26,株式会社Ｋｅｒａｕｎｏｓ,,株式会社,東京都,世田谷区,北烏山１丁目６０番２５－１０２号,,13,112,1570061,,,,,,,2022-08-26,1,,,,,ケラウノス,0
781,4011003015286,新規,0,2022-08-26,2022-08-26,合同会社５ＤＡＹＳＰＬＵＳ,,合同会社,東京都,渋谷区,渋谷１丁目１５－１２,,13,113,1500002,,,,,,,2022-08-26,1,,,,,ファイブデイズプラス,0
788,4011103012092,新規,0,2022-08-26,2022-08-26,ＫＯＲＥ合同会社,,合同会社,東京都,新宿区,新宿５丁目１０番１０号海老沢ビル２０２,,13,104,1600022,,,,,,,2022-08-26,1,,,,,コレ,0
789,4011103012101,新規,0,2022-08-26,2022-08-26,ＹＡＮＡ　Ｐｒｏｊｅｃｔ合同会社,,合同会社,東京都,新宿区,富久町１２番１－２１０４号,,13,104,1620067,,,,,,,2022-08-26,1,,,,,ヤナプロジェクト,0
795,4011503005266,新規,0,2022-08-26,2022-08-26,タカックスホールディングス合同会社,,合同会社,東京都,北区,東十条１丁目６番１５号,,13,117,1140001,,,,,,,2022-08-26,1,,,,,タカックスホールディングス,0
797,4011801041203,新規,0,2022-08-26,2022-08-26,Ｔｈｅ　Ｐｅａｃｈ株式会社,,株式会社,東京都,足立区,栗原３丁目２６番１号２Ｆ,,13,121,1230842,,,,,,,2022-08-26,1,,,,,ザピーチ,0
806,4013301049569,新規,0,2022-08-26,2022-08-26,株式会社ＲｅＲ　ＤＯＲＯＮＥＳＣＨＯＯＬ,,株式会社,東京都,豊島区,池袋本町１丁目４６番６号,,13,116,1700011,,,,,,,2022-08-26,1,,,,,リアールドローンスクール,0
814,4020001147925,新規,0,2022-08-26,2022-08-26,株式会社ＲＹＵ’Ｓコーポレーション,,株式会社,神奈川県,横浜市磯子区,杉田１丁目１番１ヨコハマ・シーナリータワー２９０６号,,14,107,2350033,,,,,,,2022-08-26,1,,,,,リューズコーポレーション,0
815,4020001147958,新規,0,2022-08-26,2022-08-26,株式会社ＢＲＡＶＥ,,株式会社,神奈川県,横浜市保土ケ谷区,川島町９７０番地３号,,14,106,2400045,,,,,,,2022-08-26,1,,,,,ブレイブ,0
818,4020003022291,新規,0,2022-08-26,2022-08-26,ＦａｎｄＬａ合同会社,,合同会社,神奈川県,川崎市宮前区,平３丁目７番１８－１号,,14,136,2160022,,,,,,,2022-08-26,1,,,,,エフアンドエルエー,0
828,4030001149697,新規,0,2022-08-26,2022-08-26,株式会社まごのてカンパニー,,株式会社,埼玉県,さいたま市大宮区,桜木町２丁目３番地大宮マルイ７階,,11,103,3300854,,,,,,,2022-08-26,1,,,,,マゴノテカンパニー,0
829,4030001149805,新規,0,2022-08-26,2022-08-26,株式会社梵天,,株式会社,埼玉県,さいたま市浦和区,本太２丁目９番８号３Ｆ,,11,107,3300052,,,,,,,2022-08-26,1,,,,,ボンテン,0
830,4030001149813,新規,0,2022-08-26,2022-08-26,Ｋ・Ｌ商事株式会社,,株式会社,埼玉県,川口市,上青木西１丁目２０番３４－１０６号,,11,203,3330845,,,,,,,2022-08-26,1,,,,,ケエルショウジ,0
831,4030001149838,新規,0,2022-08-26,2022-08-26,Ｓａｆｅ　Ｃｏｍｍｕｎｉｃａｔｉｏｎｓ株式会社,,株式会社,埼玉県,さいたま市見沼区,東大宮５丁目３５－２３山田ビル２階,,11,104,3370051,,,,,,,2022-08-26,1,,,,,セーフコミニュケーションズ,0
840,4040001124815,新規,0,2022-08-26,2022-08-26,株式会社Ｒｅｖｅｎｕｓ,,株式会社,千葉県,千葉市美浜区,打瀬１丁目２番地３セントラルパーク・ウエストシータワー２８０７,,12,106,2610013,,,,,,,2022-08-26,1,,,,,レヴィナス,0
864,4120001248408,新規,0,2022-08-26,2022-08-26,メンズフラワー株式会社,,株式会社,大阪府,大阪市中央区,難波４丁目８番８号,,27,128,5420076,,,,,,,2022-08-26,1,,,,,メンズフラワー,0
865,4120001248416,新規,0,2022-08-26,2022-08-26,ＧＰ株式会社,,株式会社,大阪府,大阪市中央区,内本町１丁目２番１３号谷四ばんらいビル１０Ｆ１０Ｘ,,27,128,5400026,,,,,,,2022-08-26,1,,,,,グランドプロデュース,0
866,4120001248432,新規,0,2022-08-26,2022-08-26,株式会社中村興業,,株式会社,大阪府,大阪市平野区,平野元町５番５号Ｋ２ビル４０３,,27,126,5470047,,,,,,,2022-08-26,1,,,,,ナカムラコウギョウ,0
867,4120001248440,新規,0,2022-08-26,2022-08-26,株式会社ＳＡＢＯＴＥＮ,,株式会社,大阪府,大阪市阿倍野区,昭和町５丁目９番２５号２Ｆ,,27,119,5450011,,,,,,,2022-08-26,1,,,,,サボテン,0
868,4120001248457,新規,0,2022-08-26,2022-08-26,株式会社ｍｉｎｅｔ,,株式会社,大阪府,大阪市北区,梅田１丁目１－３大阪駅前第３ビル２９階１－１－１号室,,27,127,5300001,,,,,,,2022-08-26,1,,,,,ミネット,0
875,4120105009615,新規,0,2022-08-26,2022-08-26,医療法人グローバル,,その他の設立登記法人,大阪府,和泉市,いぶき野４丁目５番１９号,,27,219,5940041,,,,,,,2022-08-26,1,,,,,グローバル,0
888,4140001127155,新規,0,2022-08-26,2022-08-26,株式会社ハピウェブ,,株式会社,兵庫県,神戸市西区,玉津町出合７２番地の７,,28,111,6512137,,,,,,,2022-08-26,1,,,,,ハピウェブ,0
889,4140001127196,新規,0,2022-08-26,2022-08-26,株式会社ココリハ,,株式会社,兵庫県,三田市,ゆりのき台３丁目２５番地４０,,28,219,6691324,,,,,,,2022-08-26,1,,,,,ココリハ,0
890,4140003018014,新規,0,2022-08-26,2022-08-26,合同会社レゾンフォン,,合同会社,兵庫県,西宮市,甲風園３丁目７－１４,,28,204,6620832,,,,,,,2022-08-26,1,,,,,レゾンフォン,0
891,4140003018055,新規,0,2022-08-26,2022-08-26,合同会社のりちゃん,,合同会社,兵庫県,西宮市,すみれ台２丁目１２番地６,,28,204,6511432,,,,,,,2022-08-26,1,,,,,ノリチャン,0
903,4180001152760,新規,0,2022-08-26,2022-08-26,株式会社ハーブスホールディングス,,株式会社,愛知県,名古屋市東区,泉２丁目２９番１５号,,23,102,4610001,,,,,,,2022-08-26,1,,,,,ハーブスホールディングス,0
904,4180001152769,新規,0,2022-08-26,2022-08-26,株式会社カルテッツ,,株式会社,愛知県,清須市,西枇杷島町上新３７番地,,23,233,4520022,,,,,,,2022-08-26,1,,,,,カルテッツ,0
905,4180001152777,新規,0,2022-08-26,2022-08-26,株式会社ｒｅ　ｌｉｆｅ,,株式会社,愛知県,名古屋市守山区,大字中志段味字南原２６８６番地の１４０,,23,113,4630002,,,,,,,2022-08-26,1,,,,,リライフ,0
907,4180301036564,新規,0,2022-08-26,2022-08-26,ＣＮＫホールディングス株式会社,,株式会社,愛知県,豊川市,御津町西方樋田５６番地２,,23,207,4410312,,,,,,,2022-08-26,1,,,,,シーエヌケーホールディングス,0
908,4180301036572,新規,0,2022-08-26,2022-08-26,株式会社ＳＵＺＵＭＡＺＥ,,株式会社,愛知県,豊橋市,牟呂市場町２４番地６,,23,201,4418088,,,,,,,2022-08-26,1,,,,,スズマゼ,0
915,4210001019056,新規,0,2022-08-26,2022-08-26,株式会社Ｋａｋｕ,,株式会社,福井県,福井市,西方２丁目１１－８,,18,201,9100855,,,,,,,2022-08-26,1,,,,,カク,0
921,4250001019738,新規,0,2022-08-26,2022-08-26,株式会社Ｅｖｖｉｖａ,,株式会社,山口県,熊毛郡平生町,大字平生村２２３番地の１,,35,344,7421102,,,,,,,2022-08-26,1,,,,,エッビーバ,0
924,4270003001436,新規,0,2022-08-26,2022-08-26,ｙ．ｓ．ｎｅｔ合同会社,,合同会社,鳥取県,米子市,日原８０３番地２,,31,202,6830015,,,,,,,2022-08-26,1,,,,,ワイエスネット,0
935,4290805009583,新規,0,2022-08-26,2022-08-26,一般財団法人第一交通産業創業者黒土始基金,,その他の設立登記法人,福岡県,北九州市小倉北区,馬借２丁目６番８号,,40,106,8020077,,,,,,,2022-08-26,1,,,,,ダイイチコウツウサンギョウソウギョウシャクロツチハジメキキン,0
959,4420003002567,新規,0,2022-08-26,2022-08-26,合同会社経営労務研究所,,合同会社,青森県,南津軽郡藤崎町,大字藤崎字村井２６－９,,02,361,0383802,,,,,,,2022-08-26,1,,,,,ケイエイロウムケンキュウジョ,0
966,4700150109599,新規,0,2022-08-26,2022-06-14,ＢＬＵＥ　ＲＯＳＥ　Ｄａｎｃｅ　Ｐｒｏｊｅｃｔ,,その他,神奈川県,大和市,福田１５９４－６プルトゥールＡ２０１,,14,213,2420024,,,,,,,2022-06-14,1,,,,,ブルーローズダンスプロジエクト,0
979,5010001228758,新規,0,2022-08-26,2022-08-26,スプリングホールディングス株式会社,,株式会社,東京都,中央区,銀座６丁目１３－１６銀座ＷａｌｌビルＵＣＦ５階,,13,102,1040061,,,,,,,2022-08-26,1,,,,,スプリングホールディングス,0
981,5010003038461,新規,0,2022-08-26,2022-08-26,ＭＴ‐ＳＭＹインベストメント合同会社,,合同会社,東京都,中央区,日本橋１丁目４番１号日本橋一丁目ビルディング,,13,102,1030027,,,,,,,2022-08-26,1,,,,,エムティスマイインベストメント,0
982,5010003038494,新規,0,2022-08-26,2022-08-26,合同会社エイパック・ツー,,合同会社,東京都,千代田区,丸の内２丁目３番２号郵船ビルアルタードムス・ジャパン株式会社内,,13,101,1000005,,,,,,,2022-08-26,1,,,,,エイパックツー,0
983,5010003038503,新規,0,2022-08-26,2022-08-26,合同会社Ｅｌ　Ａｒｍｅｌ,,合同会社,東京都,中央区,月島２丁目５番１０号エルム月島２０２号,,13,102,1040052,,,,,,,2022-08-26,1,,,,,エルアーメール,0
984,5010005035473,新規,0,2022-08-26,2022-08-26,一般社団法人メディカルアミュレット,,その他の設立登記法人,東京都,文京区,後楽２丁目６番１－９０６号,,13,105,1120004,,,,,,,2022-08-26,1,,,,,メディカルアミュレット,0
985,5010005035481,新規,0,2022-08-26,2022-08-26,東京レジ２８一般社団法人,,その他の設立登記法人,東京都,千代田区,丸の内３丁目１番１号東京共同会計事務所内,,13,101,1000005,,,,,,,2022-08-26,1,,,,,トウキョウレジトゥエンティエイト,0
987,5010401169305,新規,0,2022-08-26,2022-08-26,株式会社ＩＣＨＩＥホールディングス,,株式会社,東京都,港区,六本木３丁目１８番１２号,,13,103,1060032,,,,,,,2022-08-26,1,,,,,イチエホールディングス,0
990,5010501049282,新規,0,2022-08-26,2022-08-26,株式会社和真フードレボリューション,,株式会社,東京都,台東区,浅草１丁目２－９,,13,106,1110032,,,,,,,2022-08-26,1,,,,,ワシンフードレボリューション,0
991,5010601061749,新規,0,2022-08-26,2022-08-26,株式会社ＥＳＳＥＯＴＩＡ,,株式会社,東京都,墨田区,東墨田２丁目２３番６－５０４号セジョリ墨田イーストＩＩ,00127627,13,107,1310042,,,,,,,2022-08-26,1,,,,,エッセオティア,0
1000,5010803004266,新規,0,2022-08-26,2022-08-26,合同会社麻心人,,合同会社,東京都,大田区,田園調布１丁目８番２０号,,13,111,1450071,,,,,,,2022-08-26,1,,,,,マゴコロビト,0
1004,5010901051499,新規,0,2022-08-26,2022-08-26,株式会社灯り,,株式会社,東京都,世田谷区,松原３丁目３６－４－１０３,,13,112,1560043,,,,,,,2022-08-26,1,,,,,アカリ,0
1005,5010901051508,新規,0,2022-08-26,2022-08-26,株式会社アンクロップ,,株式会社,東京都,世田谷区,太子堂３丁目５番１３号２０２,,13,112,1540004,,,,,,,2022-08-26,1,,,,,アンクロップ,0
1006,5010903007598,新規,0,2022-08-26,2022-08-26,合同会社Ａ‐ＳＩＴＥ,,合同会社,東京都,世田谷区,上馬２丁目１６番９号ヴィラ上の山２０２,,13,112,1540011,,,,,,,2022-08-26,1,,,,,エーサイト,0
1015,5011005009698,新規,0,2022-08-26,2022-08-26,一般社団法人Ｃｈｅｅｒ　Ｐｉｇｇｙ　Ｂａｎｋ,,その他の設立登記法人,東京都,渋谷区,恵比寿西２丁目１２番１号２０３,,13,113,1500021,,,,,,,2022-08-26,1,,,,,チアピギーバンク,0
1023,5011401024499,新規,0,2022-08-26,2022-08-26,株式会社Ｃｈａｍｓｈｏｔ,,株式会社,東京都,板橋区,南常盤台１丁目１１番６号レフア南常盤台１０１号室,,13,119,1740072,,,,,,,2022-08-26,1,,,,,チャムショット,0
1025,5011501028417,新規,0,2022-08-26,2022-08-26,大山智能株式会社,,株式会社,東京都,荒川区,南千住３丁目２７－２浅草ビル５０８号室,,13,118,1160003,,,,,,,2022-08-26,1,,,,,オオヤマチノウ,0
1026,5011501028425,新規,0,2022-08-26,2022-08-26,株式会社近代ドリーム,,株式会社,東京都,荒川区,西日暮里５丁目１８番１２号Ｋ・Ｄｉビル３階,,13,118,1160013,,,,,,,2022-08-26,1,,,,,キンダイドリーム,0
1033,5012401039545,新規,0,2022-08-26,2022-08-26,株式会社Ｂｕｚｚ‐ＭＯ,,株式会社,東京都,武蔵野市,境南町２丁目５－１０,,13,203,1800023,,,,,,,2022-08-26,1,,,,,バズモ,0
1038,5013301049493,新規,0,2022-08-26,2022-08-26,株式会社リンカーンゴールドジャパン,,株式会社,東京都,豊島区,南大塚１丁目２３番１１号－８号室,,13,116,1700005,,,,,,,2022-08-26,1,,,,,リンカーンゴールドジャパン,0
1046,5020001147924,新規,0,2022-08-26,2022-08-26,株式会社ドリームネットワーク,,株式会社,神奈川県,横浜市鶴見区,下末吉５丁目３番２２－２１０号,,14,101,2300012,,,,,,,2022-08-26,1,,,,,ドリームネットワーク,0
1047,5020001147932,新規,0,2022-08-26,2022-08-26,株式会社ニュートラル＆コー,,株式会社,神奈川県,横浜市緑区,長津田みなみ台６丁目２６番地１,,14,113,2260018,,,,,,,2022-08-26,1,,,,,ニュートラルアンドコー,0
1048,5020001147940,新規,0,2022-08-26,2022-08-26,株式会社Ｂ‐Ｆｉｎｅ,,株式会社,神奈川県,横浜市青葉区,鴨志田町５２２番地５,,14,117,2270033,,,,,,,2022-08-26,1,,,,,ビーファイン,0
1049,5020001147965,新規,0,2022-08-26,2022-08-26,株式会社ウィングス,,株式会社,神奈川県,川崎市幸区,南加瀬４丁目３９番７号,,14,132,2120055,,,,,,,2022-08-26,1,,,,,ウィングス,0
1064,5021001076840,新規,0,2022-08-26,2022-08-26,株式会社ＳＧＭ,,株式会社,神奈川県,相模原市中央区,相模原８丁目１番１－１４０１号,,14,152,2520231,,,,,,,2022-08-26,1,,,,,エスジーエム,0
1065,5021001076857,新規,0,2022-08-26,2022-08-26,スタート株式会社,,株式会社,神奈川県,横須賀市,湘南国際村１丁目８番１号,,14,201,2400107,,,,,,,2022-08-26,1,,,,,スタート,0
1072,5030001149671,新規,0,2022-08-26,2022-08-26,株式会社ＢＵＩＬＤＥＲ’Ｓ,,株式会社,埼玉県,川口市,領家３丁目２１－７,,11,203,3320004,,,,,,,2022-08-26,1,,,,,ビルダーズ,0
1073,5030001149787,新規,0,2022-08-26,2022-08-26,株式会社Ｂｅｓｔｅａｍ,,株式会社,埼玉県,ふじみ野市,鶴ケ岡５丁目５番１－９２２,,11,245,3560045,,,,,,,2022-08-26,1,,,,,ベスティーム,0
1074,5030001149795,新規,0,2022-08-26,2022-08-26,株式会社アイデザイン企画,,株式会社,埼玉県,北葛飾郡杉戸町,内田４丁目３－４０,,11,464,3450035,,,,,,,2022-08-26,1,,,,,アイデザインキカク,0
1075,5030001149804,新規,0,2022-08-26,2022-08-26,雲峰商事株式会社,,株式会社,埼玉県,川口市,西川口１丁目２９－３ライオンズマンション西川口第壱壱２０９号室,,11,203,3320021,,,,,,,2022-08-26,1,,,,,ウンホウショウジ,0
1076,5030001149812,新規,0,2022-08-26,2022-08-26,株式会社ここから発達らぼ,,株式会社,埼玉県,上尾市,仲町１丁目７番２７号アークエムビル７Ｆ,,11,219,3620035,,,,,,,2022-08-26,1,,,,,ココカラハッタツラボ,0
1080,5030003019988,新規,0,2022-08-26,2022-08-26,スマイルラボ合名会社,,合名会社,埼玉県,さいたま市見沼区,堀崎町１２００番地１５５－４３－２,,11,104,3370052,,,,,,,2022-08-26,1,,,,,スマイルラボ,0
1081,5030005020977,新規,0,2022-08-26,2022-08-26,一般社団法人日本芸術文化国際研究所,,その他の設立登記法人,埼玉県,越谷市,千間台西１丁目８番地７ＩＫビル２０５,,11,222,3430041,,,,,,,2022-08-26,1,,,,,ニホンゲイジュツブンカコクサイケンキュウショ,0
1085,5040001124707,新規,0,2022-08-26,2022-08-26,株式会社あざらし商会,,株式会社,千葉県,富里市,根木名２２１番地１７７号,,12,233,2860205,,,,,,,2022-08-26,1,,,,,アザラシショウカイ,0
1092,5050003006794,新規,0,2022-08-26,2022-08-26,ＡＢ　ＡＵＴＯ　ＪＡＰＡＮ合同会社,,合同会社,茨城県,下妻市,鎌庭３９８番３,,08,210,3040819,,,,,,,2022-08-26,1,,,,,エービーオートジャパン,0
1097,5070005010033,新規,0,2022-08-26,2022-08-26,特定非営利活動法人花,,その他の設立登記法人,群馬県,高崎市,剣崎町５２５番地１３,,10,202,3700883,,,,,,,2022-08-26,1,,,,,ハナ,0
1103,5100001035641,新規,0,2022-08-26,2022-08-26,株式会社Ａ‐Ｃｏｉｎ,,株式会社,長野県,北佐久郡軽井沢町,大字長倉２３５０番地１６１,,20,321,3890111,,,,,,,2022-08-26,1,,,,,エーコイン,0
1112,5120001248142,新規,0,2022-08-26,2022-08-26,株式会社ＨＥＬＬＯ　ｂａｓｅ,,株式会社,大阪府,大阪市北区,西天満２丁目２番３号,,27,127,5300047,,,,,,,2022-08-26,1,,,,,ハローベース,0
1113,5120001248398,新規,0,2022-08-26,2022-08-26,恵＿株式会社,00127621,株式会社,大阪府,大阪市中央区,松屋町９番２０号ローレルステート松屋町５０５Ａ,,27,128,5420067,,,,,,,2022-08-26,1,,,,,エシン,0
1114,5120001248407,新規,0,2022-08-26,2022-08-26,株式会社淡路谷工匠,,株式会社,大阪府,大阪市港区,市岡２丁目７番１７号,,27,107,5520012,,,,,,,2022-08-26,1,,,,,アワジヤコウショウ,0
1115,5120001248448,新規,0,2022-08-26,2022-08-26,株式会社ケー・プラン,,株式会社,大阪府,門真市,末広町１０番１６号,,27,223,5710030,,,,,,,2022-08-26,1,,,,,ケープラン,0
1116,5120001248456,新規,0,2022-08-26,2022-08-26,山河商事株式会社,,株式会社,大阪府,大阪市中央区,淡路町２丁目１番１０－６０８号,,27,128,5410047,,,,,,,2022-08-26,1,,,,,ヤマカワショウジ,0
1121,5122003002411,新規,0,2022-08-26,2022-08-26,合同会社ＦＲＯＧ,,合同会社,大阪府,東大阪市,吉田３丁目１３－３１,,27,227,5780924,,,,,,,2022-08-26,1,,,,,フロッグ,0
1131,5130003008147,新規,0,2022-08-26,2022-08-26,合同会社夏目,,合同会社,京都府,木津川市,南加茂台１３丁目８番地１５,,26,214,6191127,,,,,,,2022-08-26,1,,,,,ナツメ,0
1136,5140001127187,新規,0,2022-08-26,2022-08-26,株式会社松島建設,,株式会社,兵庫県,揖保郡太子町,天満山６５番地５,,28,464,6711503,,,,,,,2022-08-26,1,,,,,マツシマケンセツ,0
1137,5140001127195,新規,0,2022-08-26,2022-08-26,株式会社フジモト,,株式会社,兵庫県,三田市,学園８丁目１番地３,,28,219,6691337,,,,,,,2022-08-26,1,,,,,フジモト,0
1141,5150003002767,新規,0,2022-08-26,2022-08-26,Ｉ＆Ｐａｒｔｎｅｒｓ合同会社,,合同会社,奈良県,奈良市,法蓮町２０番地の１,,29,201,6308113,,,,,,,2022-08-26,1,,,,,アイアンドパートナーズ,0
1145,5180001152768,新規,0,2022-08-26,2022-08-26,株式会社ＡＲＴ,,株式会社,愛知県,名古屋市名東区,大針２丁目６２番地（ヴェルドミール雅Ｂ号）,,23,115,4650064,,,,,,,2022-08-26,1,,,,,アート,0
1146,5180001152776,新規,0,2022-08-26,2022-08-26,株式会社ワクワクプロジェクト,,株式会社,愛知県,名古屋市東区,東桜１丁目１－１アーバンネット名古屋ネクスタビル２Ｆ,,23,102,4610005,,,,,,,2022-08-26,1,,,,,ワクワクプロジェクト,0
1149,5180003024180,新規,0,2022-08-26,2022-08-26,合同会社ＷｏｒｌｄＷｉｄｅＬｏｖｅｒｓ,,合同会社,愛知県,名古屋市中川区,高杉町２１５,,23,110,4540936,,,,,,,2022-08-26,1,,,,,ワールドワイドラバーズ,0
1150,5180003024197,新規,0,2022-08-26,2022-08-26,ＮＡＺ合同会社,,合同会社,愛知県,瀬戸市,東寺山町１６３番地,,23,204,4890928,,,,,,,2022-08-26,1,,,,,ナーズ,0
1155,5180301036563,新規,0,2022-08-26,2022-08-26,株式会社ＡＬＩＶＥ,,株式会社,愛知県,豊橋市,下地町字前田２番地７,,23,201,4400086,,,,,,,2022-08-26,1,,,,,アライブ,0
1156,5190001029718,新規,0,2022-08-26,2022-08-26,株式会社匠屋,,株式会社,三重県,名張市,さつき台２番町３０７番地,,24,208,5180604,,,,,,,2022-08-26,1,,,,,ショウヤ,0
1161,5220001025003,新規,0,2022-08-26,2022-08-26,株式会社ＫＫ,,株式会社,石川県,金沢市,諸江町上丁４６７番地４,,17,201,9200015,,,,,,,2022-08-26,1,,,,,ケイケイ,0
1177,5290001098694,新規,0,2022-08-26,2022-08-26,株式会社リプタス,,株式会社,福岡県,福岡市博多区,博多駅前２丁目１番１号,,40,132,8120011,,,,,,,2022-08-26,1,,,,,リプタス,0
1178,5290001098703,新規,0,2022-08-26,2022-08-26,チリ・ダイニング株式会社,,株式会社,福岡県,福岡市博多区,上牟田３丁目７番１２号,,40,132,8120006,,,,,,,2022-08-26,1,,,,,チリダイニング,0
1181,5290003012868,新規,0,2022-08-26,2022-08-26,合同会社アイリス,,合同会社,福岡県,福岡市東区,大字上和白１３３６－１－１－４０４号,,40,131,8110216,,,,,,,2022-08-26,1,,,,,アイリス,0
1182,5290003012876,新規,0,2022-08-26,2022-08-26,合同会社ＰＩＣＡＳＡ,,合同会社,福岡県,福岡市中央区,今泉１丁目２番８－５０５号ＡＮＤＯＮ,,40,133,8100021,,,,,,,2022-08-26,1,,,,,ピカサ,0
1183,5290801028842,新規,0,2022-08-26,2022-08-26,株式会社ファイヤーマイナー,,株式会社,福岡県,北九州市八幡東区,前田３丁目１番１６号,,40,108,8050069,,,,,,,2022-08-26,1,,,,,ファイヤーマイナー,0
1184,5290805009582,新規,0,2022-08-26,2022-08-26,一般社団法人愛贈舎,,その他の設立登記法人,福岡県,北九州市八幡西区,八千代町１３番２０号,,40,109,8060023,,,,,,,2022-08-26,1,,,,,アイソウシャ,0
1188,5330003009496,新規,0,2022-08-26,2022-08-26,合同会社ホンダ,,合同会社,熊本県,熊本市中央区,琴平１丁目１番１１号,,43,101,8600813,,,,,,,2022-08-26,1,,,,,ホンダ,0
1190,5350001017920,新規,0,2022-08-26,2022-08-26,株式会社ＡＬＬ　ＡＲＥ　ＢＲＯＴＨＥＲＳ,,株式会社,宮崎県,東臼杵郡門川町,大字門川尾末７３８０番地３,,45,421,8890611,,,,,,,2022-08-26,1,,,,,オールアーブラザーズ,0
1191,5350003004149,新規,0,2022-08-26,2022-08-26,合同会社ワンダーウォール,,合同会社,宮崎県,延岡市,山月町２丁目４７４９－５０,,45,203,8820037,,,,,,,2022-08-26,1,,,,,ワンダーウォール,0
1208,5430001087360,新規,0,2022-08-26,2022-08-26,株式会社藤送,,株式会社,北海道,札幌市東区,東苗穂六条３丁目１１番２９号,,01,103,0070806,,,,,,,2022-08-26,1,,,,,フジソウ,0
1209,5430001087369,新規,0,2022-08-26,2022-08-26,株式会社リコーズ,,株式会社,北海道,江別市,大麻沢町１１番地の４,,01,217,0690842,,,,,,,2022-08-26,1,,,,,リコーズ,0
1210,5450003002241,新規,0,2022-08-26,2022-08-26,合同会社クレアーレ,,合同会社,北海道,紋別市,潮見町３丁目３番３６号,,01,219,0940006,,,,,,,2022-08-26,1,,,,,クレアーレ,0
1233,6010001229061,新規,0,2022-08-26,2022-08-26,株式会社サーチファンド・ジャパン０３,,株式会社,東京都,千代田区,丸の内１丁目８番２号,,13,101,1000005,,,,,,,2022-08-26,1,,,,,サーチファンドジャパンゼロスリー,0
1238,6010003038205,新規,0,2022-08-26,2022-08-26,合同会社ＣＡＢＩＮ,,合同会社,東京都,千代田区,麹町４丁目５番地２０ＫＳビル８Ｆ,,13,101,1020083,,,,,,,2022-08-26,1,,,,,キャビン,0
1239,6010003038519,新規,0,2022-08-26,2022-08-26,トウマ合同会社,,合同会社,東京都,千代田区,二番町９－３ＴＨＥＢＡＳＥ麹町１階,,13,101,1020084,,,,,,,2022-08-26,1,,,,,トウマ,0
1241,6010005035480,新規,0,2022-08-26,2022-08-26,東京レジ２７一般社団法人,,その他の設立登記法人,東京都,千代田区,丸の内３丁目１番１号東京共同会計事務所内,,13,101,1000005,,,,,,,2022-08-26,1,,,,,トウキョウレジトゥエンティセブン,0
1246,6010401169262,新規,0,2022-08-26,2022-08-26,ガイア・ユナイテッド株式会社,,株式会社,東京都,港区,虎ノ門１丁目１７番１号,,13,103,1050001,,,,,,,2022-08-26,1,,,,,ガイアユナイテッド,0
1247,6010401169304,新規,0,2022-08-26,2022-08-26,株式会社ＩＣＨＩＥ　ＳＤＫ,,株式会社,東京都,港区,六本木３丁目１８番１２号,,13,103,1060032,,,,,,,2022-08-26,1,,,,,イチエエスディーケー,0
1248,6010401169353,新規,0,2022-08-26,2022-08-26,カーロテック株式会社,,株式会社,東京都,港区,海岸１丁目７番１号,,13,103,1050022,,,,,,,2022-08-26,1,,,,,カーロテック,0
1252,6010501049281,新規,0,2022-08-26,2022-08-26,ＢＥＬＯＮＧ株式会社,,株式会社,東京都,台東区,東上野６丁目１番１７号中央ビル４０２号室,,13,106,1100015,,,,,,,2022-08-26,1,,,,,ビロン,0
1268,6010901051507,新規,0,2022-08-26,2022-08-26,株式会社ラウナ・プレイス,,株式会社,東京都,世田谷区,野毛２丁目８番２号,,13,112,1580092,,,,,,,2022-08-26,1,,,,,ラウナプレイス,0
1276,6011001149423,新規,0,2022-08-26,2022-08-26,株式会社木村商店,,株式会社,東京都,渋谷区,恵比寿西１丁目２９番８号,,13,113,1500021,,,,,,,2022-08-26,1,,,,,キムラショウテン,0
1277,6011001149431,新規,0,2022-08-26,2022-08-26,株式会社東京熊,,株式会社,東京都,渋谷区,神宮前６丁目２３番４号桑野ビル２階,,13,113,1500001,,,,,,,2022-08-26,1,,,,,トウキョウクマ,0
1278,6011001149448,新規,0,2022-08-26,2022-08-26,株式会社大福帳,,株式会社,東京都,渋谷区,道玄坂１丁目２２番１２号和孝渋谷ビル３Ｆ・４Ｆ,,13,113,1500043,,,,,,,2022-08-26,1,,,,,ダイフクチョウ,0
1284,6011005009706,新規,0,2022-08-26,2022-08-26,一般社団法人首都圏建設産業ユニオン技術センター,,その他の設立登記法人,東京都,渋谷区,神南１丁目３番１０号,,13,113,1500041,,,,,,,2022-08-26,1,,,,,シュトケンケンセツサンギョウユニオンギジュツセンター,0
1291,6011101099997,新規,0,2022-08-26,2022-08-26,株式会社アクトデビュー,,株式会社,東京都,新宿区,百人町２丁目５番１－５０２号,,13,104,1690073,,,,,,,2022-08-26,1,,,,,アクトデビュー,0
1303,6011801041201,新規,0,2022-08-26,2022-08-26,株式会社ＥＹＫＴ,,株式会社,東京都,足立区,東和３丁目１５番７号,,13,121,1200003,,,,,,,2022-08-26,1,,,,,イーワイケーティ,0
1304,6012701017217,新規,0,2022-08-26,2022-08-26,株式会社鉱山乃灯,,株式会社,東京都,東村山市,諏訪町１丁目２７番地３,,13,213,1890021,,,,,,,2022-08-26,1,,,,,ヤマノヒ,0
1320,6020003022298,新規,0,2022-08-26,2022-08-26,合同会社ＣＡＮＴＩＫ,,合同会社,神奈川県,川崎市多摩区,東生田２丁目５番８号アトリエＢＡＧＵＳ,,14,135,2140031,,,,,,,2022-08-26,1,,,,,チャンティック,0
1323,6021001076765,新規,0,2022-08-26,2022-08-26,株式会社俊一商会,,株式会社,神奈川県,高座郡寒川町,田端３２７６,,14,321,2530114,,,,,,,2022-08-26,1,,,,,シュンイチショウカイ,0
1329,6030001149803,新規,0,2022-08-26,2022-08-26,ｆｉｎｅ電設株式会社,,株式会社,埼玉県,さいたま市岩槻区,大字表慈恩寺５８７番地５,,11,110,3390008,,,,,,,2022-08-26,1,,,,,ファインデンセツ,0
1346,6050001051593,新規,0,2022-08-26,2022-08-26,株式会社Ｗａｎ・ｄｅｒｆｕｌ　Ｌｉｆｅ,,株式会社,茨城県,水戸市,大塚町１７６９番地の１７,,08,201,3114143,,,,,,,2022-08-26,1,,,,,ワンダフルライフ,0
1369,6110003004849,新規,0,2022-08-26,2022-08-26,合同会社ＴＡＴＳＵＫＥＮ,,合同会社,新潟県,五泉市,旭町２番３４号,,15,218,9591862,,,,,,,2022-08-26,1,,,,,タツケン,0
1379,6120001248380,新規,0,2022-08-26,2022-08-26,株式会社ｌｅａｄ,,株式会社,大阪府,大阪市西区,南堀江１丁目１４番２９号３Ｆ,,27,106,5500015,,,,,,,2022-08-26,1,,,,,リード,0
1380,6120001248406,新規,0,2022-08-26,2022-08-26,株式会社ブルービー,,株式会社,大阪府,大阪市生野区,巽西３丁目９番２６号,00127624,27,116,5440012,,,,,,,2022-08-26,1,,,,,ブルービー,0
1387,6120003022346,新規,0,2022-08-26,2022-08-26,合同会社ｃｏｍｍｅ　ｍｏｉ,,合同会社,大阪府,大阪市淀川区,三津屋北１丁目３６番１０－１２０６号,,27,123,5320032,,,,,,,2022-08-26,1,,,,,コムモア,0
1388,6120005023152,新規,0,2022-08-26,2022-08-26,一般社団法人よつば,,その他の設立登記法人,大阪府,大阪市西成区,天下茶屋１丁目１番１８号大宗内,,27,122,5570014,,,,,,,2022-08-26,1,,,,,ヨツバ,0
1400,6140001127178,新規,0,2022-08-26,2022-08-26,株式会社ＵＬ,,株式会社,兵庫県,西宮市,六湛寺町１４番５号太陽生命ビル３階株式会社ユーストーリー内,,28,204,6620918,,,,,,,2022-08-26,1,,,,,ユーエル,0
1401,6140001127194,新規,0,2022-08-26,2022-08-26,株式会社コーエン,,株式会社,兵庫県,丹波篠山市,大沢２丁目９番７号,,28,221,6692212,,,,,,,2022-08-26,1,,,,,コーエン,0
1408,6180001152692,新規,0,2022-08-26,2022-08-26,株式会社ホームケアアライアンス,,株式会社,愛知県,名古屋市中区,栄５丁目２６－３９ＧＳ栄ビル３階,,23,106,4600008,,,,,,,2022-08-26,1,,,,,ホームケアアライアンス,0
1409,6180001152791,新規,0,2022-08-26,2022-08-26,株式会社美建,,株式会社,愛知県,名古屋市中区,栄５丁目２６番３９号ＧＳ栄ビル３Ｆ,,23,106,4600008,,,,,,,2022-08-26,1,,,,,ビケン,0
1413,6180301036562,新規,0,2022-08-26,2022-08-26,株式会社エルサ,,株式会社,愛知県,豊橋市,清須町字地形１１番地,,23,201,4400095,,,,,,,2022-08-26,1,,,,,エルサ,0
1414,6180301036570,新規,0,2022-08-26,2022-08-26,株式会社アレックス溶接工業,,株式会社,愛知県,額田郡幸田町,大字菱池字細井８３番地（Ｃ）,,23,501,4440113,,,,,,,2022-08-26,1,,,,,アレックスヨウセツコウギョウ,0
1416,6180305009382,新規,0,2022-08-26,2022-08-26,特定非営利活動法人ＢＬＵＥ,,その他の設立登記法人,愛知県,みよし市,明知町美並１番地６,,23,236,4700214,,,,,,,2022-08-26,1,,,,,ブルー,0
1419,6200001040382,新規,0,2022-08-26,2022-08-26,不二岡工業株式会社,,株式会社,岐阜県,不破郡垂井町,府中１５９３番地,,21,361,5032114,,,,,,,2022-08-26,1,,,,,フジオカコウギョウ,0
1420,6200001040390,新規,0,2022-08-26,2022-08-26,株式会社三和電気,,株式会社,岐阜県,多治見市,白山町５丁目２５番地,,21,204,5070038,,,,,,,2022-08-26,1,,,,,サンワデンキ,0
1423,6210001019054,新規,0,2022-08-26,2022-08-26,株式会社亜輝,,株式会社,福井県,福井市,江端町第１号１４番地,,18,201,9188016,,,,,,,2022-08-26,1,,,,,アキ,0
1432,6260001037175,新規,0,2022-08-26,2022-08-26,株式会社カウントエイト,,株式会社,岡山県,倉敷市,中庄３１３９番地１－４０３,,33,202,7100016,,,,,,,2022-08-26,1,,,,,カウントエイト,0
1444,6290001098685,新規,0,2022-08-26,2022-08-26,ＡＣＭ株式会社,,株式会社,福岡県,糟屋郡志免町,片峰中央３丁目１９－８,,40,343,8112246,,,,,,,2022-08-26,1,,,,,アコミ,0
1445,6290001098710,新規,0,2022-08-26,2022-08-26,株式会社ＨＭｉｔ’Ｓホールディングス,,株式会社,福岡県,福岡市博多区,山王１丁目１１－３５スクラム５５０３号室,,40,132,8120015,,,,,,,2022-08-26,1,,,,,ハミッツホールディングス,0
1457,6330005010550,新規,0,2022-08-26,2022-08-26,一般社団法人看護のココロ,,その他の設立登記法人,熊本県,合志市,豊岡２２１７番地１４５,,43,216,8611115,,,,,,,2022-08-26,1,,,,,カンゴノココロ,0
1458,6340001024990,新規,0,2022-08-26,2022-08-26,株式会社ＰＦＴ,,株式会社,鹿児島県,鹿児島市,七ツ島１丁目１番２６号,,46,201,8910132,,,,,,,2022-08-26,1,,,,,ピーエフティー,0
1482,6430001087376,新規,0,2022-08-26,2022-08-26,株式会社ベストクリエイト室蘭,,株式会社,北海道,室蘭市,中島町３丁目８番１０号,,01,205,0500074,,,,,,,2022-08-26,1,,,,,ベストクリエイトムロラン,0
1484,6490001010258,新規,0,2022-08-26,2022-08-26,株式会社ＨＡＴＡ　ＡＧＥ,,株式会社,高知県,幡多郡大月町,大字弘見２６１０番地,,39,424,7880302,,,,,,,2022-08-26,1,,,,,ハタアゲ,0
1485,6700150109556,新規,0,2022-08-26,2022-07-07,新宿区障害者団体連絡協議会,,その他,東京都,新宿区,戸山１丁目２２－２新宿区立障害者福祉センター内,,13,104,1620052,,,,,,,2022-07-07,1,,,,,シンジユククシヨウガイシヤダンタイレンラクキヨウギカイ,0
1495,7010001229110,新規,0,2022-08-26,2022-08-26,株式会社ｂｅ,,株式会社,東京都,文京区,音羽１丁目２４番８号,,13,105,1120013,,,,,,,2022-08-26,1,,,,,ビー,0
1496,7010003038501,新規,0,2022-08-26,2022-08-26,合同会社カーン,,合同会社,東京都,中央区,日本橋小伝馬町１７番１７号峰沢ビル７Ｆ,,13,102,1030001,,,,,,,2022-08-26,1,,,,,カーン,0
1501,7010401169146,新規,0,2022-08-26,2022-08-26,Ｌｕｎａｌｏｇ株式会社,,株式会社,東京都,港区,浜松町２丁目２－１５浜松町ダイヤビル２Ｆ,,13,103,1050013,,,,,,,2022-08-26,1,,,,,ルナログ,0
1502,7010401169303,新規,0,2022-08-26,2022-08-26,株式会社ＩＣＨＩＥ　ＭＡＲＫＥＴＩＮＧ,,株式会社,東京都,港区,六本木３丁目１８番１２号,,13,103,1060032,,,,,,,2022-08-26,1,,,,,イチエマーケティング,0
1503,7010401169336,新規,0,2022-08-26,2022-08-26,株式会社Ｄｒｏｐ　Ｆｅｓｔｉｖａｌ　Ｊａｐａｎ,,株式会社,東京都,港区,六本木７丁目２番２９号,,13,103,1060032,,,,,,,2022-08-26,1,,,,,ドロップフェスティバルジャパン,0
1504,7010401169352,新規,0,2022-08-26,2022-08-26,ポラリス・メディカルサービス株式会社,,株式会社,東京都,港区,新橋６丁目２０番８号,,13,103,1050004,,,,,,,2022-08-26,1,,,,,ポラリスメディカルサービス,0
1510,7010901051480,新規,0,2022-08-26,2022-08-26,アートアップ・インターナショナル株式会社,,株式会社,東京都,世田谷区,桜上水１丁目２４番２２号ソネット経堂２０２号室,,13,112,1560045,,,,,,,2022-08-26,1,,,,,アートアップインターナショナル,0
1511,7010901051497,新規,0,2022-08-26,2022-08-26,株式会社ＴＨＥ　ＳＵＮ,,株式会社,東京都,世田谷区,世田谷１丁目３７番４－３０４号,,13,112,1540017,,,,,,,2022-08-26,1,,,,,ザサン,0
1512,7010901051506,新規,0,2022-08-26,2022-08-26,艾什特機床株式会社,,株式会社,東京都,世田谷区,世田谷１丁目４１番２号,,13,112,1540017,,,,,,,2022-08-26,1,,,,,ガイジュウトクキショウ,0
1515,7010903007596,新規,0,2022-08-26,2022-08-26,Ｍａｙ　Ｇｏｄ　ｂｌｅｓｓ　ｙｏｕ合同会社,,合同会社,東京都,世田谷区,下馬１丁目３０番６号,,13,112,1540002,,,,,,,2022-08-26,1,,,,,メイゴッドブレスユー,0
1522,7011001149348,新規,0,2022-08-26,2022-08-26,株式会社ＶｉｒｔｕａｌＢａｓｅ,,株式会社,東京都,渋谷区,神宮前２丁目３－１４サンフェル神宮前１０５,,13,113,1500001,,,,,,,2022-08-26,1,,,,,バーチャルベース,0
1523,7011001149430,新規,0,2022-08-26,2022-08-26,株式会社ＴＳＯＣホールディングス,,株式会社,東京都,目黒区,上目黒４丁目１７番５号,,13,110,1530051,,,,,,,2022-08-26,1,,,,,ティーエスオーシーホールディングス,0
1526,7011005009705,新規,0,2022-08-26,2022-08-26,一般社団法人歌劇文化普及推進協会,,その他の設立登記法人,東京都,渋谷区,恵比寿南３丁目１１番２５－７０５号,,13,113,1500022,,,,,,,2022-08-26,1,,,,,カゲキブンカフキュウスイシンキョウカイ,0
1527,7011005009713,新規,0,2022-08-26,2022-08-26,一般社団法人ＳＰＲＩＮＧ　ＬＯＶＥ春風,,その他の設立登記法人,東京都,渋谷区,南平台町１２－６－３０３,,13,113,1500036,,,,,,,2022-08-26,1,,,,,スプリングラブハルカゼ,0
1530,7011103012073,新規,0,2022-08-26,2022-08-26,合同会社紗衣,,合同会社,東京都,新宿区,四谷４丁目８番地９ライオンズ四谷タワーゲート３０５,,13,104,1600004,,,,,,,2022-08-26,1,,,,,サエ,0
1531,7011103012098,新規,0,2022-08-26,2022-08-26,合同会社ウニ,,合同会社,東京都,新宿区,原町３丁目２１番地１プライムアーバン新宿夏目坂タワーレジデンス２１０３,,13,104,1620053,,,,,,,2022-08-26,1,,,,,ウニ,0
1537,7011501028407,新規,0,2022-08-26,2022-08-26,株式会社フミセンス,,株式会社,東京都,荒川区,荒川４丁目１１番２－５０３号西日暮里サマリヤマンション,,13,118,1160002,,,,,,,2022-08-26,1,,,,,フミセンス,0
1540,7012401039568,新規,0,2022-08-26,2022-08-26,株式会社エルスマイル,,株式会社,東京都,調布市,富士見町３丁目６番地３２,,13,208,1820033,,,,,,,2022-08-26,1,,,,,エルスマイル,0
1559,7021003012073,新規,0,2022-08-26,2022-08-26,ＯＲＥＭ合同会社,,合同会社,神奈川県,相模原市緑区,寸沢嵐１６１番地６メゾン優２０６,,14,151,2520176,,,,,,,2022-08-26,1,,,,,オーアールイーエム,0
1564,7030001149785,新規,0,2022-08-26,2022-08-26,株式会社アークライフ１１,,株式会社,埼玉県,上尾市,大字原市６４３番地４８,,11,219,3620021,,,,,,,2022-08-26,1,,,,,アークライフイレブン,0
1565,7030001149802,新規,0,2022-08-26,2022-08-26,株式会社チアフル,,株式会社,埼玉県,さいたま市岩槻区,城南５丁目８番８－１号,,11,110,3390043,,,,,,,2022-08-26,1,,,,,チアフル,0
1566,7030001149810,新規,0,2022-08-26,2022-08-26,株式会社グローバル森本,,株式会社,埼玉県,川口市,並木３丁目１８－８,,11,203,3320034,,,,,,,2022-08-26,1,,,,,グローバルモリモト,0
1577,7040003020712,新規,0,2022-08-26,2022-08-26,優駿合同会社,,合同会社,千葉県,千葉市稲毛区,園生町１４１１番地３サニークレスト稲毛２０４号,,12,103,2630051,,,,,,,2022-08-26,1,,,,,ユウシュン,0
1602,7120001248396,新規,0,2022-08-26,2022-08-26,モリモリ株式会社,,株式会社,大阪府,大阪市中央区,南本町３丁目３－２３インペリアル船場８０８号室,,27,128,5410054,,,,,,,2022-08-26,1,,,,,モリモリ,0
1603,7120001248413,新規,0,2022-08-26,2022-08-26,おもてなし株式会社,,株式会社,大阪府,大阪市中央区,南船場１丁目１１番１９－１００２号,,27,128,5420081,,,,,,,2022-08-26,1,,,,,オモテナシ,0
1604,7120001248421,新規,0,2022-08-26,2022-08-26,株式会社ドアーズラボ,,株式会社,大阪府,大阪市都島区,都島本通４丁目２０番１８－１０２号,,27,102,5340021,,,,,,,2022-08-26,1,,,,,ドアーズラボ,0
1605,7120001248454,新規,0,2022-08-26,2022-08-26,株式会社ながお,,株式会社,大阪府,門真市,五月田町１７番６号,,27,223,5710027,,,,,,,2022-08-26,1,,,,,ナガオ,0
1621,7130001072498,新規,0,2022-08-26,2022-08-26,株式会社Ｗｈｉｔｅ,,株式会社,京都府,京都市東山区,祇園町北側３４７番地９１,,26,105,6050073,,,,,,,2022-08-26,1,,,,,ホワイト,0
1628,7140001127193,新規,0,2022-08-26,2022-08-26,オーシャンサービス株式会社,,株式会社,兵庫県,神戸市灘区,烏帽子町３丁目３番１１号,,28,102,6570042,,,,,,,2022-08-26,1,,,,,オーシャンサービス,0
1631,7150003002765,新規,0,2022-08-26,2022-08-26,合同会社ゴトビキ,,合同会社,奈良県,吉野郡天川村,大字洞川４２０－２,,29,446,6380431,,,,,,,2022-08-26,1,,,,,ゴトビキ,0
1638,7180001152741,新規,0,2022-08-26,2022-08-26,北斗エンジニアリング株式会社,,株式会社,愛知県,小牧市,郷西町１５５番地,,23,219,4850823,,,,,,,2022-08-26,1,,,,,ホクトエンジニアリング,0
1639,7180001152758,新規,0,2022-08-26,2022-08-26,株式会社加藤工業,,株式会社,愛知県,豊明市,新田町南山６８番地１０,,23,229,4701112,,,,,,,2022-08-26,1,,,,,カトウコウギョウ,0
1640,7180001152782,新規,0,2022-08-26,2022-08-26,株式会社Ｌｉｇｈｔ　Ｅコマース,,株式会社,愛知県,名古屋市中区,新栄２丁目２番１９号新栄クリーンハイツ３０４,,23,106,4600007,,,,,,,2022-08-26,1,,,,,ライトイーコマース,0
1641,7180001152790,新規,0,2022-08-26,2022-08-26,Ｆｉｖｅ　Ｄａｔａ　Ｌａｂｏ株式会社,,株式会社,愛知県,名古屋市千種区,青柳町６丁目８番地の８ライオンズマンション吹上１４０１号,,23,101,4640852,,,,,,,2022-08-26,1,,,,,ファイブデーターラボ,0
1651,7220003003351,新規,0,2022-08-26,2022-08-26,合同会社インフレーション,,合同会社,石川県,金沢市,中屋南１８１,,17,201,9200379,,,,,,,2022-08-26,1,,,,,インフレーション,0
1656,7240001060260,新規,0,2022-08-26,2022-08-26,株式会社勇香興業,,株式会社,広島県,呉市,安浦町安登西１０丁目２４番５号,,34,202,7372512,,,,,,,2022-08-26,1,,,,,ユウカコウギョウ,0
1659,7240005015442,新規,0,2022-08-26,2022-08-26,一般社団法人呉民俗文化研究会,,その他の設立登記法人,広島県,呉市,宝町７番１７号堀口海運株式会社内,,34,202,7370029,,,,,,,2022-08-26,1,,,,,クレミンゾクブンカケンキュウカイ,0
1662,7260001037174,新規,0,2022-08-26,2022-08-26,株式会社ミライエ,,株式会社,岡山県,岡山市南区,青江６丁目２番３４号,,33,104,7000941,,,,,,,2022-08-26,1,,,,,ミライエ,0
1667,7280001008768,新規,0,2022-08-26,2022-08-26,株式会社ミライ企画,,株式会社,島根県,松江市,矢田町２５０番地１６７,,32,201,6900021,,,,,,,2022-08-26,1,,,,,ミライキカク,0
1668,7290001098692,新規,0,2022-08-26,2022-08-26,株式会社ラフィングＨＯＭＥ,,株式会社,福岡県,久留米市,合川町１１４番地１２,,40,203,8390861,,,,,,,2022-08-26,1,,,,,ラフィングホーム,0
1669,7290801028832,新規,0,2022-08-26,2022-08-26,株式会社ニューライフ,,株式会社,福岡県,直方市,大字中泉３０８－１,,40,204,8220011,,,,,,,2022-08-26,1,,,,,ニューライフ,0
1670,7290801028840,新規,0,2022-08-26,2022-08-26,株式会社ウッドベル,,株式会社,福岡県,田川郡大任町,大字今任原１２００番地２,,40,608,8240511,,,,,,,2022-08-26,1,,,,,ウッドベル,0
1671,7310001018004,新規,0,2022-08-26,2022-08-26,株式会社アニムブ,,株式会社,長崎県,長崎市,興善町８番３号,,42,201,8500032,,,,,,,2022-08-26,1,,,,,アニムブ,0
1672,7320005010014,新規,0,2022-08-26,2022-08-26,一般社団法人野草の里やまうら,,その他の設立登記法人,大分県,杵築市,山香町大字山浦２５０８番地,,44,210,8791315,,,,,,,2022-08-26,1,,,,,ヤソウノサトヤマウラ,0
1674,7330003009494,新規,0,2022-08-26,2022-08-26,合同会社Ｆｅｌｉｃｉｔａ,,合同会社,熊本県,八代市,通町１１番１４号ニュークリエイトビル１Ｆ,,43,202,8660856,,,,,,,2022-08-26,1,,,,,フェリチタ,0
1677,7360001030895,新規,0,2022-08-26,2022-08-26,株式会社紫優,,株式会社,沖縄県,島尻郡南風原町,字宮平３７３番地１３,,47,350,9011104,,,,,,,2022-08-26,1,,,,,シユウ,0
1680,7360003012231,新規,0,2022-08-26,2022-08-26,ＭＵＲＡ合同会社,,合同会社,沖縄県,うるま市,石川曙２丁目１０番１５号,,47,213,9041107,,,,,,,2022-08-26,1,,,,,ムラ,0
1686,7370001048978,新規,0,2022-08-26,2022-08-26,株式会社みちマネジメント,,株式会社,宮城県,仙台市太白区,土手内１丁目１０番１７号,,04,104,9820026,,,,,,,2022-08-26,1,,,,,ミチマネジメント,0
1698,7430003014212,新規,0,2022-08-26,2022-08-26,合同会社心音,,合同会社,北海道,札幌市南区,澄川四条６丁目７番１４号,,01,106,0050004,,,,,,,2022-08-26,1,,,,,ココネ,0
1699,7430003014220,新規,0,2022-08-26,2022-08-26,合同会社ＹＯＵＢＩ　ＤＥＳＩＧＮ,,合同会社,北海道,札幌市北区,北七条西６丁目１－４北苑マンション１２０５,,01,102,0600807,,,,,,,2022-08-26,1,,,,,ヨウビデザイン,0
1703,7470001019234,新規,0,2022-08-26,2022-08-26,株式会社フォースター,,株式会社,香川県,高松市,木太町４５３番地１丸忠第１３ビル１０７,,37,201,7600080,,,,,,,2022-08-26,1,,,,,フォースター,0
1711,8010001229019,新規,0,2022-08-26,2022-08-26,ＪＷ銀座株式会社,,株式会社,東京都,中央区,銀座８丁目２番１号,,13,102,1040061,,,,,,,2022-08-26,1,,,,,ジェイダブリューギンザ,0
1712,8010001229068,新規,0,2022-08-26,2022-08-26,アウトドアオペラ株式会社,,株式会社,東京都,中央区,日本橋箱崎町４番３号,,13,102,1030015,,,,,,,2022-08-26,1,,,,,アウトドアオペラ,0
1715,8010003038459,新規,0,2022-08-26,2022-08-26,ＮＩＱ合同会社,,合同会社,東京都,中央区,日本橋人形町３丁目３番５号,,13,102,1030013,,,,,,,2022-08-26,1,,,,,ナイク,0
1716,8010003038475,新規,0,2022-08-26,2022-08-26,ＳＡ浜松町プロジェクト合同会社,,合同会社,東京都,千代田区,丸の内２丁目３番２号,,13,101,1000005,,,,,,,2022-08-26,1,,,,,エスエーハママツチョウプロジェクト,0
1717,8010003038500,新規,0,2022-08-26,2022-08-26,Ｋ＆Ｓ合同会社,,合同会社,東京都,中央区,明石町１番７－１７０６号,,13,102,1040044,,,,,,,2022-08-26,1,,,,,ケイアンドエス,0
1718,8010003038509,新規,0,2022-08-26,2022-08-26,Ｊａｐａｎ　Ｂｌｕｅ　Ｅｎｅｒｇｙ合同会社,,合同会社,東京都,千代田区,大手町１丁目７番２号東京サンケイビル２７階,,13,101,1000004,,,,,,,2022-08-26,1,,,,,ジャパンブルーエナジー,0
1719,8010005035479,新規,0,2022-08-26,2022-08-26,東京レジ２９一般社団法人,,その他の設立登記法人,東京都,千代田区,丸の内３丁目１番１号東京共同会計事務所内,,13,101,1000005,,,,,,,2022-08-26,1,,,,,トウキョウレジトゥエンティナイン,0
1720,8010005035487,新規,0,2022-08-26,2022-08-26,ジャパン・ロジスティクス１一般社団法人,,その他の設立登記法人,東京都,中央区,日本橋１丁目４番１号日本橋一丁目ビルディング,,13,102,1030027,,,,,,,2022-08-26,1,,,,,ジャパンロジスティクスワン,0
1721,8010103001977,新規,0,2022-08-26,2022-08-26,合同会社向中野工業,,合同会社,東京都,八王子市,みつい台２丁目２９番７号,,13,201,1920014,,,,,,,2022-08-26,1,,,,,ムカイナカノコウギョウ,0
1731,8010401169120,新規,0,2022-08-26,2022-08-26,株式会社オーネミューエ,,株式会社,東京都,港区,南青山２丁目２番１５号,,13,103,1070062,,,,,,,2022-08-26,1,,,,,オーネミューエ,0
1733,8010403028308,新規,0,2022-08-26,2022-08-26,ＢｅＣＯＮＮＥＣＴ合同会社,,合同会社,東京都,港区,南青山３丁目１―３６青山丸竹ビル６Ｆ,,13,103,1070062,,,,,,,2022-08-26,1,,,,,ビコネクト,0
1734,8010403028357,新規,0,2022-08-26,2022-08-26,合同会社Ｓａｍｏｓ,,合同会社,東京都,港区,虎ノ門５丁目１番４号,,13,103,1050001,,,,,,,2022-08-26,1,,,,,サモス,0
1735,8010405021260,新規,0,2022-08-26,2022-08-26,一般社団法人ＩＶＦ・ＲＴ日本,,その他の設立登記法人,東京都,港区,赤坂１丁目１４番１５号第３５興和ビル別館４Ｆ,,13,103,1070052,,,,,,,2022-08-26,1,,,,,アイヴィエフアールティーニホン,0
1739,8010503006675,新規,0,2022-08-26,2022-08-26,合同会社Ｈｉｎａｔａ,,合同会社,東京都,台東区,台東２丁目３２－４セントレイ御徒町３０２,,13,106,1100016,,,,,,,2022-08-26,1,,,,,ヒナタ,0
1743,8010601061746,新規,0,2022-08-26,2022-08-26,Ｈａｐｐｙ　Ｃｒｅｗ株式会社,,株式会社,東京都,江東区,南砂１丁目３番１２号ユーレジデンス東陽町７０３,,13,108,1360076,,,,,,,2022-08-26,1,,,,,ハッピークルー,0
1745,8010701043116,新規,0,2022-08-26,2022-08-26,株式会社メディアエル,,株式会社,東京都,品川区,西五反田３丁目７－６－１０１１号室,,13,109,1410031,,,,,,,2022-08-26,1,,,,,メディアエル,0
1746,8010703006368,新規,0,2022-08-26,2022-08-26,合同会社ＲＩＮＡＴＯ,,合同会社,東京都,品川区,大井１丁目５４番１号エスキーナホリエ１階,,13,109,1400014,,,,,,,2022-08-26,1,,,,,,0
1748,8010801033223,新規,0,2022-08-26,2022-08-26,株式会社トレーナーズカレッジ,,株式会社,東京都,大田区,池上１丁目３５番１０号,,13,111,1460082,,,,,,,2022-08-26,1,,,,,トレーナーズカレッジ,0
1749,8010901051505,新規,0,2022-08-26,2022-08-26,株式会社カミン・フードアンドサービス,,株式会社,東京都,世田谷区,用賀２丁目５番１６号メゾンＭ＆Ｈ、Ａ棟,,13,112,1580097,,,,,,,2022-08-26,1,,,,,カミンフードアンドサービス,0
1760,8011001149421,新規,0,2022-08-26,2022-08-26,株式会社３６０ｂｅａｕｔｙ,,株式会社,東京都,渋谷区,猿楽町９番５号,,13,113,1500033,,,,,,,2022-08-26,1,,,,,スリーシックスティービューティー,0
1761,8011001149454,新規,0,2022-08-26,2022-08-26,株式会社ＤＵ,,株式会社,東京都,渋谷区,渋谷１丁目４番１号,,13,113,1500002,,,,,,,2022-08-26,1,,,,,ドゥ,0
1762,8011001149462,新規,0,2022-08-26,2022-08-26,株式会社ＦＵＳＥＥ,,株式会社,東京都,渋谷区,桜丘町３０番４－２０４号,,13,113,1500031,,,,,,,2022-08-26,1,,,,,フュージー,0
1763,8011003015282,新規,0,2022-08-26,2022-08-26,合同会社Ｍｏｂｉｌｅ　Ａｐｐｌｉｃａｔｉｏｎ　Ｐａｒｔｎｅｒｓ,,合同会社,東京都,渋谷区,渋谷２丁目１９番１５号,,13,113,1500002,,,,,,,2022-08-26,1,,,,,モバイルアプリケーションパートナーズ,0
1783,8011801041199,新規,0,2022-08-26,2022-08-26,ＦＲＥＹＡ株式会社,,株式会社,東京都,足立区,栗原３丁目２６番１号２Ｆ,,13,121,1230842,,,,,,,2022-08-26,1,,,,,フレヤ,0
1791,8013301049565,新規,0,2022-08-26,2022-08-26,同堂商事株式会社,,株式会社,東京都,豊島区,巣鴨１丁目１７番３号子野ビル６０３号室,,13,116,1700002,,,,,,,2022-08-26,1,,,,,ドウドウショウジ,0
1792,8013303006275,新規,0,2022-08-26,2022-08-26,合同会社ＳＥＰ,,合同会社,東京都,豊島区,東池袋１丁目３１番６号,,13,116,1700013,,,,,,,2022-08-26,1,,,,,エスイーピー,0
1799,8020001147938,新規,0,2022-08-26,2022-08-26,株式会社ＨＳＭ,,株式会社,神奈川県,横浜市磯子区,丸山２丁目２２番１－５０８号,,14,107,2350011,,,,,,,2022-08-26,1,,,,,エイチエスエム,0
1802,8020003022271,新規,0,2022-08-26,2022-08-26,ＲｅＢｏｏｔ合同会社,,合同会社,神奈川県,川崎市高津区,二子１丁目１７－１ドレッセ二子新地１１３１,,14,134,2130002,,,,,,,2022-08-26,1,,,,,リブート,0
1803,8020003022288,新規,0,2022-08-26,2022-08-26,合同会社ドーンモビリティ研究所,,合同会社,神奈川県,横浜市中区,海岸通２丁目６ルネ・ブランシュ横浜海岸通り１２０６,,14,104,2310002,,,,,,,2022-08-26,1,,,,,ドーンモビリティケンキュウショ,0
1806,8021003012072,新規,0,2022-08-26,2022-08-26,ジーク合同会社,,合同会社,神奈川県,相模原市中央区,共和３丁目１０番２号共和ＭＳビル３０２,,14,152,2520234,,,,,,,2022-08-26,1,,,,,ジーク,0
1807,8030001149743,新規,0,2022-08-26,2022-08-26,ＬＴ株式会社,,株式会社,埼玉県,さいたま市見沼区,大和田町１丁目２０５ラック大和田１Ｆ,,11,104,3370053,,,,,,,2022-08-26,1,,,,,エルティー,0
1808,8030001149776,新規,0,2022-08-26,2022-08-26,株式会社ミライズ,,株式会社,埼玉県,さいたま市岩槻区,城町１丁目３番３８号,,11,110,3390053,,,,,,,2022-08-26,1,,,,,ミライズ,0
1809,8030001149784,新規,0,2022-08-26,2022-08-26,株式会社千葉商店,,株式会社,埼玉県,越谷市,千間台東１丁目７番地１１,,11,222,3430042,,,,,,,2022-08-26,1,,,,,チバショウテン,0
1810,8030001149792,新規,0,2022-08-26,2022-08-26,株式会社ＴＤＨ,,株式会社,埼玉県,北葛飾郡松伏町,大字松伏２８０２－８松伏貸家Ｋ,,11,465,3430111,,,,,,,2022-08-26,1,,,,,ティーディーエイチ,0
1811,8030001149801,新規,0,2022-08-26,2022-08-26,株式会社ａｌａｄｄｉｎ,,株式会社,埼玉県,川越市,新宿町１丁目１５番地５,,11,201,3501124,,,,,,,2022-08-26,1,,,,,アラジン,0
1816,8030003020084,新規,0,2022-08-26,2022-08-26,合同会社ろんどべる,,合同会社,埼玉県,児玉郡上里町,大字三町８７２―４,,11,385,3690314,,,,,,,2022-08-26,1,,,,,ロンドベル,0
1824,8040001124786,新規,0,2022-08-26,2022-08-26,友勝国際株式会社,,株式会社,千葉県,千葉市中央区,新宿２丁目６番１４－１００５号,,12,101,2600021,,,,,,,2022-08-26,1,,,,,ユウショウコクサイ,0
1825,8040001124794,新規,0,2022-08-26,2022-08-26,株式会社Ｏｒｉｅｎｔａｌ　Ｗａｒｋｓ,,株式会社,千葉県,千葉市若葉区,大宮町４０９７番地１,,12,104,2640016,,,,,,,2022-08-26,1,,,,,オリエンタルワークス,0
1829,8040005021716,新規,0,2022-08-26,2022-08-26,一般社団法人Ｍａｎａｂｉ　Ｃｒａｆｔ,,その他の設立登記法人,千葉県,千葉市花見川区,柏井４丁目４９番２６号,,12,102,2620048,,,,,,,2022-08-26,1,,,,,マナビクラフト,0
1831,8050001051591,新規,0,2022-08-26,2022-08-26,株式会社ＫＯＪＩＲＯ　ＶＦＸ　ＤＥＳＩＧＮ,,株式会社,茨城県,つくばみらい市,東楢戸８８９番地２,00127623,08,235,3002416,,,,,,,2022-08-26,1,,,,,,0
1832,8050001051600,新規,0,2022-08-26,2022-08-26,株式会社エムファーマ,,株式会社,茨城県,土浦市,下高津２丁目６番２７号,,08,203,3000812,,,,,,,2022-08-26,1,,,,,エムファーマ,0
1839,8080401026018,新規,0,2022-08-26,2022-08-26,株式会社ファインドテック,,株式会社,静岡県,浜松市南区,三島町１５０３番地フジビル２Ｆ南,,22,134,4300853,,,,,,,2022-08-26,1,,,,,ファインドテック,0
1840,8090001017754,新規,0,2022-08-26,2022-08-26,株式会社創具,,株式会社,山梨県,甲府市,白井町１９１４番地１,,19,201,4001502,,,,,,,2022-08-26,1,,,,,ソウグ,0
1847,8120001248420,新規,0,2022-08-26,2022-08-26,株式会社Ｂｉｚ　Ａｔｈｌｅｔｅ,,株式会社,大阪府,大阪市北区,梅田１丁目１番３号大阪駅前第三ビル２９階１－１－１号室,,27,127,5300001,,,,,,,2022-08-26,1,,,,,ビズアスリート,0
1848,8120001248461,新規,0,2022-08-26,2022-08-26,株式会社ローズ企画,,株式会社,大阪府,大阪市浪速区,湊町１丁目４番３６－８０７号,,27,111,5560017,,,,,,,2022-08-26,1,,,,,ローズキカク,0
1851,8120103004829,新規,0,2022-08-26,2022-08-26,合同会社みつばち,,合同会社,大阪府,大阪狭山市,池尻自由丘２丁目１番８号,,27,231,5890008,,,,,,,2022-08-26,1,,,,,ミツバチ,0
1852,8120901046394,新規,0,2022-08-26,2022-08-26,株式会社ａｎｄ　Ａ　ｓｔｎｄ,,株式会社,大阪府,豊中市,旭丘４番９８－６１１号,,27,203,5610865,,,,,,,2022-08-26,1,,,,,アンダースタンド,0
1868,8140001127168,新規,0,2022-08-26,2022-08-26,株式会社ＲＹＯＷＡ,,株式会社,兵庫県,西宮市,東町２丁目４番１２号,,28,204,6620922,,,,,,,2022-08-26,1,,,,,リョウワ,0
1869,8140001127192,新規,0,2022-08-26,2022-08-26,株式会社ＬｉＣ　ＫＯＢＥ,,株式会社,兵庫県,神戸市西区,学園東町４丁目７番地の８,,28,111,6512102,,,,,,,2022-08-26,1,,,,,リックコウベ,0
1881,8180001152724,新規,0,2022-08-26,2022-08-26,株式会社名古屋集成社,,株式会社,愛知県,名古屋市中村区,亀島１丁目３番１１号,,23,105,4530013,,,,,,,2022-08-26,1,,,,,ナゴヤシュウセイシャ,0
1882,8180001152757,新規,0,2022-08-26,2022-08-26,株式会社Ｈ．Ｐ．Ｃ,,株式会社,愛知県,名古屋市緑区,上旭１丁目６０５番地シティコーポ上旭１０１号,,23,114,4580016,,,,,,,2022-08-26,1,,,,,エイチピーシー,0
1883,8180001152781,新規,0,2022-08-26,2022-08-26,ａｏ株式会社,,株式会社,愛知県,名古屋市中区,丸の内３丁目２０番２０号,,23,106,4600002,,,,,,,2022-08-26,1,,,,,アオ,0
1884,8180001152798,新規,0,2022-08-26,2022-08-26,株式会社愛知省エネ・ＣＯ２計算センター,,株式会社,愛知県,名古屋市千種区,揚羽町２丁目２６番地の１ロイヤルメイツ揚羽西館１０１号,,23,101,4640019,,,,,,,2022-08-26,1,,,,,アイチショウエネシーオーツーケイサンセンター,0
1886,8180003024194,新規,0,2022-08-26,2022-08-26,合同会社そらまめ,,合同会社,愛知県,清須市,寺野郷前６２番地,,23,233,4520908,,,,,,,2022-08-26,1,,,,,ソラマメ,0
1888,8180005019903,新規,0,2022-08-26,2022-08-26,一般社団法人天命プロファイリング研究所,,その他の設立登記法人,愛知県,名古屋市千種区,茶屋が坂１丁目７番４号ラポール茶屋ヶ坂１０２号,,23,101,4640092,,,,,,,2022-08-26,1,,,,,テンメイプロファイリングケンキュウジョ,0
1889,8180301036560,新規,0,2022-08-26,2022-08-26,科博達技術日本株式会社,,株式会社,愛知県,蒲郡市,三谷町前田６番地１,,23,214,4430021,,,,,,,2022-08-26,1,,,,,ケボダギジュツジャパン,0
1890,8180301036569,新規,0,2022-08-26,2022-08-26,株式会社菅克,,株式会社,愛知県,岡崎市,保母町字新井３６番地１,,23,202,4440004,,,,,,,2022-08-26,1,,,,,スガカツ,0
1901,8210001019052,新規,0,2022-08-26,2022-08-26,株式会社笠川薬舗,,株式会社,福井県,小浜市,小浜住吉２８番地,,18,204,9170065,,,,,,,2022-08-26,1,,,,,カサガワヤクホ,0
1903,8220003003350,新規,0,2022-08-26,2022-08-26,合同会社テクノライコウ,,合同会社,石川県,河北郡津幡町,字能瀬ニ６２番地４,,17,361,9290319,,,,,,,2022-08-26,1,,,,,テクノライコウ,0
1914,8250005008766,新規,0,2022-08-26,2022-08-26,一般財団法人下関１型糖尿病はばたき応援,,その他の設立登記法人,山口県,下関市,川中豊町１丁目２番３７号,,35,201,7510853,,,,,,,2022-08-26,1,,,,,,0
1916,8260001037173,新規,0,2022-08-26,2022-08-26,株式会社星空ベース,,株式会社,岡山県,井原市,美星町大倉２３８９番地３,,33,207,7141411,,,,,,,2022-08-26,1,,,,,ホシゾラベース,0
1921,8280001008767,新規,0,2022-08-26,2022-08-26,リノベーション株式会社,,株式会社,島根県,浜田市,旭町和田４４６番地,,32,202,6970424,,,,,,,2022-08-26,1,,,,,リノベーション,0
1928,8290001098717,新規,0,2022-08-26,2022-08-26,ＲＥＧＯＬＩＴＨ株式会社,,株式会社,福岡県,福岡市博多区,麦野６丁目５番２号,,40,132,8120882,,,,,,,2022-08-26,1,,,,,レゴリス,0
1929,8290003012865,新規,0,2022-08-26,2022-08-26,合同会社新輝,,合同会社,福岡県,福岡市城南区,友丘２丁目６番５－１１０号,,40,136,8140112,,,,,,,2022-08-26,1,,,,,シンキ,0
1930,8290003012881,新規,0,2022-08-26,2022-08-26,ＨＯＡＮＧ　ＡＮＨ合同会社,,合同会社,福岡県,福岡市博多区,住吉２丁目１５－１０,,40,132,8120018,,,,,,,2022-08-26,1,,,,,ホアンアイン,0
1934,8320003003885,新規,0,2022-08-26,2022-08-26,合同会社Ｓ４プランニング,,合同会社,大分県,速見郡日出町,大字豊岡３５００,,44,341,8791507,,,,,,,2022-08-26,1,,,,,エスフォープランニング,0
1937,8330003009493,新規,0,2022-08-26,2022-08-26,合同会社ＣＩＥＬ,,合同会社,熊本県,熊本市中央区,南千反畑町１３番９号サウススクエア１０２,,43,101,8600842,,,,,,,2022-08-26,1,,,,,シエル,0
1947,8380005012615,新規,0,2022-08-26,2022-08-26,一般社団法人マム・サポート,,その他の設立登記法人,福島県,双葉郡富岡町,大字本岡字王塚４４５番地５５,,07,543,9791151,,,,,,,2022-08-26,1,,,,,マムサポート,0
1953,8430003014228,新規,0,2022-08-26,2022-08-26,合同会社光翔エステート,,合同会社,北海道,札幌市豊平区,月寒中央通１０丁目６番１５号静香ビル１Ｆ,,01,105,0620020,,,,,,,2022-08-26,1,,,,,コウショウエステート,0
1968,9010001229034,新規,0,2022-08-26,2022-08-26,株式会社ＡＶＡＮ,,株式会社,東京都,中央区,明石町６番２３－６０１号,,13,102,1040044,,,,,,,2022-08-26,1,,,,,アヴァン,0
1969,9010001229050,新規,0,2022-08-26,2022-08-26,ＵＵ　Ｌｉｆｅ株式会社,,株式会社,東京都,中央区,新川２丁目１０番１－８０９号,,13,102,1040033,,,,,,,2022-08-26,1,,,,,ユーユーライフ,0
1970,9010001229059,新規,0,2022-08-26,2022-08-26,大和プライムパートナーズ株式会社,,株式会社,東京都,中央区,日本橋１丁目１８番地１４第三正明ビル８階,,13,102,1030027,,,,,,,2022-08-26,1,,,,,ダイワプライムパートナーズ,0
1974,9010003038499,新規,0,2022-08-26,2022-08-26,合同会社Ｋｏｌｏ屋,,合同会社,東京都,千代田区,神田須田町２丁目６番地,,13,101,1010041,,,,,,,2022-08-26,1,,,,,コロヤ,0
1975,9010003038508,新規,0,2022-08-26,2022-08-26,東京レジ２７合同会社,,合同会社,東京都,千代田区,丸の内３丁目１番１号東京共同会計事務所内,,13,101,1000005,,,,,,,2022-08-26,1,,,,,トウキョウレジトゥエンティセブン,0
1977,9010005035486,新規,0,2022-08-26,2022-08-26,特定目的会社ホテル１０１ニセコ,,その他の設立登記法人,東京都,千代田区,霞が関３丁目２番５号,,13,101,1000013,,,,,,,2022-08-26,1,,,,,ホテルワンオーワンニセコ,0
1982,9010401169037,新規,0,2022-08-26,2022-08-26,株式会社ＪＦＫ,,株式会社,東京都,港区,西麻布２丁目２５番１９号,,13,103,1060031,,,,,,,2022-08-26,1,,,,,ジェーエフケー,0
1983,9010401169219,新規,0,2022-08-26,2022-08-26,株式会社ＭＣＮＩＴＹ,,株式会社,東京都,港区,南青山２丁目１７番３号・４Ｆ,,13,103,1070062,,,,,,,2022-08-26,1,,,,,マカニティ,0
1984,9010401169292,新規,0,2022-08-26,2022-08-26,株式会社フローレンス,,株式会社,東京都,港区,新橋１丁目１８番２１号第一日比谷ビル５階,,13,103,1050004,,,,,,,2022-08-26,1,,,,,フローレンス,0
1985,9010401169301,新規,0,2022-08-26,2022-08-26,ココ不動産株式会社,,株式会社,東京都,港区,三田１丁目３番４０号,,13,103,1080073,,,,,,,2022-08-26,1,,,,,ココフドウサン,0
1986,9010401169326,新規,0,2022-08-26,2022-08-26,株式会社Ｋ＆ＪＷｏｒｋｓ,,株式会社,東京都,港区,芝５丁目２７番５号,,13,103,1080014,,,,,,,2022-08-26,1,,,,,ケイアンドジェイワークス,0
1987,9010403028348,新規,0,2022-08-26,2022-08-26,ＨｉｒｅＴａｘｉＪａｐａｎ合同会社,,合同会社,東京都,港区,南青山２丁目２番１５号ウィン青山３０９,,13,103,1070062,,,,,,,2022-08-26,1,,,,,ハイヤータクシージャパン,0
1992,9010901051487,新規,0,2022-08-26,2022-08-26,株式会社Ｗａｑｏｏメディカルサポート,,株式会社,東京都,世田谷区,上馬２丁目１４番１号,,13,112,1540011,,,,,,,2022-08-26,1,,,,,ワクーメディカルサポート,0
1993,9010901051504,新規,0,2022-08-26,2022-08-26,株式会社Ｋａｇｕｒａ,,株式会社,東京都,世田谷区,砧２丁目１６－１－２４１,,13,112,1570073,,,,,,,2022-08-26,1,,,,,カグラ,0
1998,9011003015281,新規,0,2022-08-26,2022-08-26,ｌｉｖｉｌ住建合同会社,,合同会社,東京都,渋谷区,神宮前６丁目２３番４号桑野ビル２階,,13,113,1500001,,,,,,,2022-08-26,1,,,,,リビルジュウケン,0
2010,9011501028421,新規,0,2022-08-26,2022-08-26,株式会社Ｏｕｒ　Ｗｏｒｌｄ,,株式会社,東京都,北区,赤羽１丁目５９番８号ヒノデビル４Ｆ,,13,117,1150045,,,,,,,2022-08-26,1,,,,,アワーワールド,0
2017,9011801041198,新規,0,2022-08-26,2022-08-26,株式会社吉華,,株式会社,東京都,足立区,栗原３丁目２６番１号２Ｆ,,13,121,1230842,,,,,,,2022-08-26,1,,,,,ヨシハナ,0
2026,9012401039574,新規,0,2022-08-26,2022-08-26,Ｅ４Ｇ株式会社,,株式会社,東京都,調布市,菊野台３丁目２８番地３１,,13,208,1820007,,,,,,,2022-08-26,1,,,,,イーフォージー,0
2029,9012803002865,新規,0,2022-08-26,2022-08-26,合同会社和み,,合同会社,東京都,国分寺市,本町４丁目２０－１０－１０１,,13,214,1850012,,,,,,,2022-08-26,1,,,,,ナゴミ,0
2031,9013303006274,新規,0,2022-08-26,2022-08-26,合同会社Ｌ　ｃｏｒｐｏｒａｔｉｏｎ,,合同会社,東京都,豊島区,南池袋１丁目９番１８号ＧＯＧＯオフィス池袋２４８,,13,116,1710022,,,,,,,2022-08-26,1,,,,,エルコーポレーション,0
2036,9020001147920,新規,0,2022-08-26,2022-08-26,株式会社ＦＳＤホームズ,,株式会社,神奈川県,川崎市高津区,溝口１丁目１３－１８,,14,134,2130001,,,,,,,2022-08-26,1,,,,,エフエスディホームズ,0
2037,9020001147929,新規,0,2022-08-26,2022-08-26,株式会社ＭＥＣ,,株式会社,神奈川県,横浜市都筑区,南山田２丁目３６番６－３０１号,,14,118,2240029,,,,,,,2022-08-26,1,,,,,エムイーシー,0
2038,9020001147937,新規,0,2022-08-26,2022-08-26,株式会社ハレ,,株式会社,神奈川県,川崎市中原区,下小田中３丁目２７番３６号,,14,133,2110041,,,,,,,2022-08-26,1,,,,,ハレ,0
2043,9020003022262,新規,0,2022-08-26,2022-08-26,合同会社Ａｒｃｈ,,合同会社,神奈川県,横浜市西区,みなとみらい４丁目７番１－７２３号,,14,103,2200012,,,,,,,2022-08-26,1,,,,,アーチ,0
2044,9020003022287,新規,0,2022-08-26,2022-08-26,合同会社Ｔｅａｇｌｅ,,合同会社,神奈川県,横浜市港南区,上大岡東１丁目１２番１３号ウィステリア５０３号室,,14,111,2330001,,,,,,,2022-08-26,1,,,,,ティーグル,0
2056,9030001149791,新規,0,2022-08-26,2022-08-26,株式会社オービタルシップ,,株式会社,埼玉県,春日部市,粕壁東６丁目７番４５号,,11,214,3440062,,,,,,,2022-08-26,1,,,,,オービタルシップ,0
2057,9030001149809,新規,0,2022-08-26,2022-08-26,株式会社彩巴,,株式会社,埼玉県,さいたま市大宮区,吉敷町３丁目５８番１ライオンズ大宮サウスマークス２０３号,,11,103,3300843,,,,,,,2022-08-26,1,,,,,イロハ,0
2058,9030001149817,新規,0,2022-08-26,2022-08-26,株式会社Ａ‐Ｆｉｘ,,株式会社,埼玉県,新座市,野寺２丁目１５番２４号,,11,230,3520034,,,,,,,2022-08-26,1,,,,,エーフィックス,0
2059,9030001149825,新規,0,2022-08-26,2022-08-26,株式会社ｇｒｉｆｆｏｎ,,株式会社,埼玉県,さいたま市北区,東大成町１丁目６番地３ＴＯＰ大宮第９－４０８号室,,11,102,3310814,,,,,,,2022-08-26,1,,,,,グリフォン,0
2060,9030001149833,新規,0,2022-08-26,2022-08-26,株式会社日昇,,株式会社,埼玉県,本庄市,寿３丁目２－１,,11,211,3670023,,,,,,,2022-08-26,1,,,,,ニッショウ,0
2065,9030003020059,新規,0,2022-08-26,2022-08-26,ｂｅｄａ合同会社,,合同会社,埼玉県,さいたま市大宮区,桜木町２丁目３番地マルイ７Ｆ,,11,103,3300854,,,,,,,2022-08-26,1,,,,,ベーダ,0
2066,9030003020075,新規,0,2022-08-26,2022-08-26,合同会社Ｍ４,,合同会社,埼玉県,八潮市,中央１丁目２番地１（八潮市役所２Ｆ食堂）,,11,234,3400816,,,,,,,2022-08-26,1,,,,,エムフォー,0
2074,9040001124802,新規,0,2022-08-26,2022-08-26,株式会社菜の花レジデンス,,株式会社,千葉県,木更津市,請西東３丁目７番地１０,,12,206,2920806,,,,,,,2022-08-26,1,,,,,ナノハナレジデンス,0
2079,9050001051582,新規,0,2022-08-26,2022-08-26,ツクリンク株式会社,,株式会社,茨城県,神栖市,神栖２丁目１７番１２号コーポセンチュリー１０２‐２,,08,232,3140143,,,,,,,2022-08-26,1,,,,,ツクリンク,0
2090,9080401026017,新規,0,2022-08-26,2022-08-26,株式会社ネオ・パートナー,,株式会社,静岡県,浜松市北区,東三方町３０番地の１１,,22,135,4338104,,,,,,,2022-08-26,1,,,,,ネオパートナー,0
2114,9120001248444,新規,0,2022-08-26,2022-08-26,株式会社Ｐ２Ｐ,,株式会社,大阪府,大阪市大正区,三軒家東１丁目１９番９号２階,,27,108,5510002,,,,,,,2022-08-26,1,,,,,ピーツーピー,0
2115,9120001248452,新規,0,2022-08-26,2022-08-26,株式会社Ｏｋｉｎａｗａ．Ｉｎｄｉｅｓ．Ｃｏｍｍｕｎｉｔｙ,,株式会社,大阪府,大阪市北区,曾根崎２丁目１番６号太洋ビル３階,,27,127,5300057,,,,,,,2022-08-26,1,,,,,オキナワインディーズコミュニティー,0
2118,9120003022327,新規,0,2022-08-26,2022-08-26,合同会社Ｓｐｌｉｔ　Ｋｉｃｋ,,合同会社,大阪府,大阪市浪速区,難波中３丁目７番２号新難波ビル４０３,,27,111,5560011,,,,,,,2022-08-26,1,,,,,スプリットキック,0
2119,9120003022343,新規,0,2022-08-26,2022-08-26,合同会社Ｎｏｖｉｃｅ　ｔｏ　Ａｐｅｘ,,合同会社,大阪府,大阪市北区,梅田１丁目４番１０００号大阪駅前第４ビル１０階,,27,127,5300001,,,,,,,2022-08-26,1,,,,,ノービストゥエイペックス,0
2120,9120003022351,新規,0,2022-08-26,2022-08-26,ＳＰ合同会社,,合同会社,大阪府,大阪市西淀川区,柏里２丁目６番１７号盛山ビル２８号室,,27,113,5550022,,,,,,,2022-08-26,1,,,,,エスピー,0
2125,9120103004828,新規,0,2022-08-26,2022-08-26,合同会社ｄｅｃｏ,,合同会社,大阪府,和泉市,はつが野２丁目１１－５４,,27,219,5941106,,,,,,,2022-08-26,1,,,,,デコ,0
2139,9130001072496,新規,0,2022-08-26,2022-08-26,株式会社ｏｌｉｏ,,株式会社,京都府,京都市上京区,油小路通出水上る大黒屋町４７番地,,26,102,6028055,,,,,,,2022-08-26,1,,,,,オーリオ,0
2143,9140001127175,新規,0,2022-08-26,2022-08-26,エンドフォーサイト株式会社,,株式会社,兵庫県,神戸市中央区,港島南町１丁目６番５号,,28,110,6500047,,,,,,,2022-08-26,1,,,,,エンドフォーサイト,0
2144,9140001127191,新規,0,2022-08-26,2022-08-26,株式会社ＳＨＩＲＯＱ,,株式会社,兵庫県,宝塚市,宝松苑３番２１号,,28,214,6650016,,,,,,,2022-08-26,1,,,,,シロキュウ,0
2148,9140003018059,新規,0,2022-08-26,2022-08-26,合同会社ＯＰＳ,,合同会社,兵庫県,加古川市,野口町良野１７１１パーク西山２０２,,28,210,6750017,,,,,,,2022-08-26,1,,,,,オプス,0
2154,9180001152756,新規,0,2022-08-26,2022-08-26,ＳｈｏＷｏｒｋｓ株式会社,,株式会社,愛知県,名古屋市名東区,高社２丁目８０番地（佐藤ビル２０７号）,,23,115,4650095,,,,,,,2022-08-26,1,,,,,ショーワークス,0
2155,9180001152764,新規,0,2022-08-26,2022-08-26,株式会社Ｋ．Ｉ．プランニング,,株式会社,愛知県,一宮市,木曽川町外割田字西郷東１２５番地,,23,203,4930007,,,,,,,2022-08-26,1,,,,,ケーアイプランニング,0
2156,9180001152789,新規,0,2022-08-26,2022-08-26,株式会社ＤＩＹ　Ｐｌｕｓ,,株式会社,愛知県,名古屋市中区,丸の内１丁目１７番１９号,,23,106,4600002,,,,,,,2022-08-26,1,,,,,ディーアイワイプラス,0
2160,9190001029714,新規,0,2022-08-26,2022-08-26,ＭＡＳＨＡＬＬＡＨ株式会社,,株式会社,三重県,桑名市,大字和泉５６２番地１,,24,205,5110838,,,,,,,2022-08-26,1,,,,,マシャラー,0
2170,9250001019741,新規,0,2022-08-26,2022-08-26,株式会社ヴァリアスコンサルティング,,株式会社,山口県,岩国市,昭和町２丁目７番３－１０２号,,35,208,7400004,,,,,,,2022-08-26,1,,,,,ヴァリアスコンサルティング,0
2171,9250003003140,新規,0,2022-08-26,2022-08-26,合同会社かえる,,合同会社,山口県,周南市,大字湯野４７６１番地の２,,35,215,7451132,,,,,,,2022-08-26,1,,,,,カエル,0
2175,9270001008619,新規,0,2022-08-26,2022-08-26,ＳＨＩＮＲＡ　ＣＯＭＰＡＮＹ株式会社,,株式会社,鳥取県,八頭郡智頭町,大字智頭１５３４－１５,,31,328,6891402,,,,,,,2022-08-26,1,,,,,シンラカンパニー,0
2177,9290001098708,新規,0,2022-08-26,2022-08-26,株式会社緑笑,,株式会社,福岡県,嘉麻市,山野３５７番地１,,40,227,8200202,,,,,,,2022-08-26,1,,,,,リョクショウ,0
2180,9290003012856,新規,0,2022-08-26,2022-08-26,ワースワークス合同会社,,合同会社,福岡県,福岡市中央区,天神４丁目６番２８号天神ファーストビル７階,,40,133,8100001,,,,,,,2022-08-26,1,,,,,ワースワークス,0
2184,9290801028830,新規,0,2022-08-26,2022-08-26,株式会社ｉｋｏｉ,,株式会社,福岡県,築上郡築上町,大字高塚２８６番地２,,40,647,8290331,,,,,,,2022-08-26,1,,,,,イコイ,0
2187,9290803004185,新規,0,2022-08-26,2022-08-26,合同会社よつばケア,,合同会社,福岡県,田川市,新町１６－４５加来ビルテナント,,40,206,8250016,,,,,,,2022-08-26,1,,,,,ヨツバケア,0
2190,9330001030054,新規,0,2022-08-26,2022-08-26,株式会社桜木ケアガーデン,,株式会社,熊本県,熊本市中央区,上通町１１番１４ー２０２号,,43,101,8600845,,,,,,,2022-08-26,1,,,,,サクラギケアガーデン,0
2191,9330003009492,新規,0,2022-08-26,2022-08-26,合同会社インフィニティ,,合同会社,熊本県,熊本市中央区,京町２丁目８番２９号,,43,101,8600078,,,,,,,2022-08-26,1,,,,,インフィニティ,0
2192,9360001030885,新規,0,2022-08-26,2022-08-26,株式会社ＡＸＩＺ,,株式会社,沖縄県,宮古島市,平良字久貝８６６番地９ソレイル久貝Ｉ,00127629,47,214,9060015,,,,,,,2022-08-26,1,,,,,アクシィズ,0
2196,9370003005810,新規,0,2022-08-26,2022-08-26,合同会社リベルダージ,,合同会社,宮城県,仙台市泉区,高玉町５番地の１,,04,105,9813116,,,,,,,2022-08-26,1,,,,,リベルダージ,0
2204,9380001033069,新規,0,2022-08-26,2022-08-26,孝龍重建株式会社,,株式会社,福島県,伊達市,保原町字北河原５６番地１,,07,213,9600638,,,,,,,2022-08-26,1,,,,,コウリュウジュウケン,0
2206,9390001016989,新規,0,2022-08-26,2022-08-26,株式会社Ｍ＆Ｓ,,株式会社,山形県,山形市,内表東２７１番地２,,06,201,9900878,,,,,,,2022-08-26,1,,,,,エムアンドエス,0
2210,9430001087357,新規,0,2022-08-26,2022-08-26,木村秀則株式会社,,株式会社,北海道,日高郡新ひだか町,静内駒場５１番地,,01,610,0560027,,,,,,,2022-08-26,1,,,,,キムラヒデノリ,0
2216,9430005014539,新規,0,2022-08-26,2022-08-26,石山通り司法書士法人,,その他の設立登記法人,北海道,札幌市中央区,南十条西１０丁目１番２０号,,01,101,0640810,,,,,,,2022-08-26,1,,,,,イシヤマドオリ,0
2221,9490001010263,新規,0,2022-08-26,2022-08-26,株式会社円基,,株式会社,高知県,高知市,南久万２２０番地２２,,39,201,7800985,,,,,,,2022-08-26,1,,,,,エンキ,0
2222,9700150111030,新規,0,2022-08-26,2022-08-04,盛岡市廃棄物処分場環境保全対策協議会,,その他,岩手県,盛岡市,若園町２－１８,,03,201,0200886,,,,,,,2022-08-04,1,,,,,モリオカシハイキブツシヨブンジヨウカンキヨウホゼンタイサクキヨウギカイ,0
