sequenceNumber,corporateNumber,process,correct,updateDate,changeDate,name,nameImageId,kind,prefectureName,cityName,streetNumber,addressImageId,prefectureCode,cityCode,postCode,addressOutside,addressOutsideImageId,closeDate,closeCause,successorCorporateNumber,changeCause,assignmentDate,latest,enName,enPrefectureName,enCityName,enAddressOutside,furigana,hihyoji
12,1010001238892,新規,0,2023-10-04,2023-10-04,アミリックス・ファーマシューティカルズ・ジャパン株式会社,,株式会社,東京都,千代田区,丸の内２丁目１番１号明治安田生命ビル２１階,,13,101,1000005,,,,,,,2023-10-04,1,,,,,アミリックスファーマシューティカルズジャパン,0
13,1010001238901,新規,0,2023-10-04,2023-10-04,株式会社サウスライト,,株式会社,東京都,中央区,佃１丁目１１番６－８０７号,,13,102,1040051,,,,,,,2023-10-04,1,,,,,サウスライト,0
14,1010001238934,新規,0,2023-10-04,2023-10-04,株式会社Ｗｏｒｄｅａｌ,,株式会社,東京都,千代田区,外神田４丁目１４番１号秋葉原ＵＤＸ４階ＬＩＦＯＲＫ秋葉原,,13,101,1010021,,,,,,,2023-10-04,1,,,,,ワーディアル,0
15,1010001238950,新規,0,2023-10-04,2023-10-04,ＯＳプラン株式会社,,株式会社,東京都,千代田区,岩本町２丁目５番２号原島岩本町ビル２Ｆ,,13,101,1010032,,,,,,,2023-10-04,1,,,,,オーエスプラン,0
16,1010001238983,新規,0,2023-10-04,2023-10-04,株式会社名富,,株式会社,東京都,千代田区,紀尾井町１番５－１６０１号,,13,101,1020094,,,,,,,2023-10-04,1,,,,,ナトミ,0
19,1010003041824,新規,0,2023-10-04,2023-10-04,Ｐａｒａｄｉｓｅ　Ｍｅｄｉａ合同会社,,合同会社,東京都,文京区,本郷４丁目１６番６号,,13,105,1130033,,,,,,,2023-10-04,1,,,,,パラダイスメディア,0
25,1010401177484,新規,0,2023-10-04,2023-10-04,株式会社ｍａｓａｃｈａｎ,,株式会社,東京都,港区,南青山２丁目２番１５号ウィン青山１２１４,,13,103,1070062,,,,,,,2023-10-04,1,,,,,マサチャン,0
26,1010401177559,新規,0,2023-10-04,2023-10-04,Ｓｔａｒｔｕｐ　Ｇｅｎｏｍｅ　Ｊａｐａｎ株式会社,,株式会社,東京都,港区,虎ノ門１丁目１７番１号虎ノ門ヒルズビジネスタワー１５階ＣＩＣＴｏｋｙｏ,,13,103,1050001,,,,,,,2023-10-04,1,,,,,スタートアップゲノムジャパン,0
29,1010403031061,新規,0,2023-10-04,2023-10-04,合同会社Ｓａｉｎｔ　Ｃｒｅｓｐｉｎ,,合同会社,東京都,港区,虎ノ門５丁目１番４号,,13,103,1050001,,,,,,,2023-10-04,1,,,,,セントクレスピン,0
30,1010403031078,新規,0,2023-10-04,2023-10-04,ＰＪＭＦ　Ｓｔｅｌｌａｒ合同会社,,合同会社,東京都,港区,元赤坂１丁目１番７－８０７号,,13,103,1070051,,,,,,,2023-10-04,1,,,,,ピージェイエムエフステラ,0
31,1010403031094,新規,0,2023-10-04,2023-10-04,マクガフィンアンドカンパニー合同会社,,合同会社,東京都,港区,南青山２丁目２番１５号,,13,103,1070062,,,,,,,2023-10-04,1,,,,,マクガフィンアンドカンパニー,0
49,1011001157208,新規,0,2023-10-04,2023-10-04,株式会社Ａｎｄ　Ａｓｓｅｔ　Ｍａｎａｇｅｍｅｎｔ,,株式会社,東京都,目黒区,目黒本町１丁目１６番１９－３１０号ピアース学芸大学,,13,110,1520002,,,,,,,2023-10-04,1,,,,,アンドアセットマネジメント,0
50,1011001157273,新規,0,2023-10-04,2023-10-04,株式会社ＬｉａｉｓｏｎＪｕｂｉｌｅｒ,,株式会社,東京都,渋谷区,渋谷２丁目１９－１５宮益坂ビルディング６０９,,13,113,1500002,,,,,,,2023-10-04,1,,,,,リエゾンジュビレ,0
51,1011001157323,新規,0,2023-10-04,2023-10-04,株式会社ＫＦＶ,,株式会社,東京都,目黒区,八雲３丁目２０番８号,,13,110,1520023,,,,,,,2023-10-04,1,,,,,ケイエフブイ,0
52,1011001157422,新規,0,2023-10-04,2023-10-04,株式会社Ｒｅｍｏｔｉｆｙ,,株式会社,東京都,渋谷区,渋谷２丁目１９－１５宮益坂ビルディング６０９,,13,113,1500002,,,,,,,2023-10-04,1,,,,,リモーティファイ,0
53,1011003017632,新規,0,2023-10-04,2023-10-04,合同会社ヘルパー屋,,合同会社,東京都,渋谷区,恵比寿西１丁目３１－８－１０１ヒルコート代官山,,13,113,1500021,,,,,,,2023-10-04,1,,,,,ヘルパーヤ,0
54,1011003017640,新規,0,2023-10-04,2023-10-04,合同会社ＥＳＰＯＫＹＯ,,合同会社,東京都,渋谷区,神宮前２丁目３２番１０号１階,,13,113,1500001,,,,,,,2023-10-04,1,,,,,エスポーキョー,0
55,1011003017657,新規,0,2023-10-04,2023-10-04,合同会社ライフ,,合同会社,東京都,渋谷区,神宮前６丁目２３番４号桑野ビル２Ｆ,,13,113,1500001,,,,,,,2023-10-04,1,,,,,ライフ,0
59,1011105010799,新規,0,2023-10-04,2023-10-04,ヨコハマブリッジ一般社団法人,,その他の設立登記法人,東京都,新宿区,四谷２丁目９番地１５東京ユナイテッド綜合事務所内,,13,104,1600004,,,,,,,2023-10-04,1,,,,,ヨコハマブリッジ,0
66,1011801043103,新規,0,2023-10-04,2023-10-04,旭株式会社,,株式会社,東京都,足立区,中央本町５丁目３番１４号,,13,121,1210011,,,,,,,2023-10-04,1,,,,,アキラ,0
81,1013301051429,新規,0,2023-10-04,2023-10-04,天水株式会社,,株式会社,東京都,豊島区,長崎３丁目１１番３号,,13,116,1710051,,,,,,,2023-10-04,1,,,,,アマミ,0
82,1013303006819,新規,0,2023-10-04,2023-10-04,Ｉｇｎｉｔｉｏｎ　Ａｃｈｉｅｖｅｒｓ合同会社,,合同会社,東京都,豊島区,東池袋１丁目２番９号,,13,116,1700013,,,,,,,2023-10-04,1,,,,,イグニッションアチーバーズ,0
84,1020001153736,新規,0,2023-10-04,2023-10-04,株式会社ｃｏｋｏｎａ,,株式会社,神奈川県,横浜市戸塚区,汲沢８丁目２７番２－１０１号,,14,110,2450061,,,,,,,2023-10-04,1,,,,,ココナ,0
85,1020001153752,新規,0,2023-10-04,2023-10-04,ミニターホールディングス株式会社,,株式会社,神奈川県,横浜市西区,南幸２丁目１５番２０号,,14,103,2200005,,,,,,,2023-10-04,1,,,,,ミニターホールディングス,0
87,1020003024687,新規,0,2023-10-04,2023-10-04,合同会社エンブレム,,合同会社,神奈川県,横浜市中区,福富町西通３５番地コスモビル１階１号室,,14,104,2310042,,,,,,,2023-10-04,1,,,,,エンブレム,0
90,1021001080326,新規,0,2023-10-04,2023-10-04,株式会社横須賀クイック,,株式会社,神奈川県,横須賀市,長井１丁目２６番１０－３０３号,,14,201,2380316,,,,,,,2023-10-04,1,,,,,ヨコスカクイック,0
101,1030001156102,新規,0,2023-10-04,2023-10-04,株式会社プロトフォージ,,株式会社,埼玉県,川口市,大字新堀６２０番地の１メゾン新郷６１８号,,11,203,3340061,,,,,,,2023-10-04,1,,,,,プロトフォージ,0
104,1030005021401,新規,0,2023-10-04,2023-10-04,特定非営利活動法人みちしるべ,,その他の設立登記法人,埼玉県,行田市,行田１０番１０号,,11,206,3610073,,,,,,,2023-10-04,1,,,,,ミチシルベ,0
112,1050001053594,新規,0,2023-10-04,2023-10-04,株式会社Ｒｅｏ,,株式会社,茨城県,水戸市,百合が丘町７番地の２,,08,201,3111134,,,,,,,2023-10-04,1,,,,,レオ,0
118,1060001036400,新規,0,2023-10-04,2023-10-04,株式会社ＹＡＹＯＩ,,株式会社,栃木県,那須塩原市,弥生町１番１５号,,09,213,3250044,,,,,,,2023-10-04,1,,,,,ヤヨイ,0
121,1070001040921,新規,0,2023-10-04,2023-10-04,樋口商会株式会社,,株式会社,群馬県,安中市,板鼻３３２番地１,,10,211,3790111,,,,,,,2023-10-04,1,,,,,ヒグチショウカイ,0
124,1070003005113,新規,0,2023-10-04,2023-10-04,合同会社リード,,合同会社,群馬県,高崎市,小八木町３１２－１５ビジネスパーク小八木２階,,10,202,3700071,,,,,,,2023-10-04,1,,,,,リード,0
127,1080101024253,新規,0,2023-10-04,2023-10-04,株式会社Ｙ・Ｆ・Ｔコーポレーション,,株式会社,静岡県,沼津市,原９５６番地の２,,22,203,4100312,,,,,,,2023-10-04,1,,,,,ワイエフティーコーポレーション,0
135,1110003005174,新規,0,2023-10-04,2023-10-04,合同会社Ｓｗｉｔｃｈ,,合同会社,新潟県,阿賀野市,南安野町９番４０号,,15,223,9592004,,,,,,,2023-10-04,1,,,,,スイッチ,0
136,1110005016995,新規,0,2023-10-04,2023-10-04,ＮＰＯ法人ラポール,,その他の設立登記法人,新潟県,十日町市,伊達甲２７２番地,,15,210,9498522,,,,,,,2023-10-04,1,,,,,ラポール,0
147,1120001258343,新規,0,2023-10-04,2023-10-04,星九株式会社,,株式会社,大阪府,大阪市住吉区,東粉浜１丁目１０番２号,,27,120,5580051,,,,,,,2023-10-04,1,,,,,ホシキュウ,0
148,1120001258500,新規,0,2023-10-04,2023-10-04,株式会社ＯＦＦＩＣＥ　Ｙ,,株式会社,大阪府,大阪市西区,北堀江２丁目２番２４号ＰａｒｋＬａｎｅＨｏｒｉｅＢｌｄ８１６号,,27,106,5500014,,,,,,,2023-10-04,1,,,,,オフィスワイ,0
149,1120001258533,新規,0,2023-10-04,2023-10-04,株式会社フィルソグ,,株式会社,大阪府,大阪市浪速区,日本橋４丁目９番９号,,27,111,5560005,,,,,,,2023-10-04,1,,,,,フィルソグ,0
150,1120001258541,新規,0,2023-10-04,2023-10-04,株式会社ｅｍｏｔｉｏｎ,,株式会社,大阪府,大阪市北区,梅田２丁目５番１３号桜橋第一ビル３０４号,,27,127,5300001,,,,,,,2023-10-04,1,,,,,エモーション,0
151,1120001258632,新規,0,2023-10-04,2023-10-04,らく食デリ株式会社,,株式会社,大阪府,大阪市西区,北堀江１丁目６番１７号,,27,106,5500014,,,,,,,2023-10-04,1,,,,,ラクショクデリ,0
159,1120003025007,新規,0,2023-10-04,2023-10-04,合同会社バクショウ,,合同会社,大阪府,大阪市西区,新町１丁目１４－２,,27,106,5500013,,,,,,,2023-10-04,1,,,,,バクショウ,0
160,1120005023909,新規,0,2023-10-04,2023-10-04,一般社団法人全国任意売却支援相談室,,その他の設立登記法人,大阪府,大阪市都島区,都島本通４丁目２２番４号,,27,102,5340021,,,,,,,2023-10-04,1,,,,,ゼンコクニンイバイキャクシエンソウダンシツ,0
163,1120101068279,新規,0,2023-10-04,2023-10-04,株式会社Ｎａｋａｔｓｕｊｉ,,株式会社,大阪府,羽曳野市,向野３丁目２番７号,,27,222,5830883,,,,,,,2023-10-04,1,,,,,ナカツジ,0
164,1120101068304,新規,0,2023-10-04,2023-10-04,株式会社ＴＥＲＡＣＯＹＡ,,株式会社,大阪府,泉大津市,虫取町１丁目１４番１０号,,27,206,5950037,,,,,,,2023-10-04,1,,,,,テラコヤ,0
165,1120101068312,新規,0,2023-10-04,2023-10-04,株式会社リード,,株式会社,大阪府,和泉市,葛の葉町３丁目１３番２０号,,27,219,5940081,,,,,,,2023-10-04,1,,,,,リード,0
166,1120101068320,新規,0,2023-10-04,2023-10-04,株式会社マイプラ・ジャパン,,株式会社,大阪府,岸和田市,摩湯町４１０番地の３,,27,202,5960806,,,,,,,2023-10-04,1,,,,,マイプラジャパン,0
171,1120901048109,新規,0,2023-10-04,2023-10-04,マルチバースＨＤ株式会社,,株式会社,大阪府,高槻市,城北町１丁目１番２－２０１号,,27,207,5690071,,,,,,,2023-10-04,1,,,,,マルチバースホールディング,0
177,1130003009041,新規,0,2023-10-04,2023-10-04,合同会社サウザンドロータス,,合同会社,京都府,京都市下京区,七条通油小路東入大黒町２２７番地第２キョートビル４０２,,26,106,6008223,,,,,,,2023-10-04,1,,,,,サウザンドロータス,0
183,1140001131812,新規,0,2023-10-04,2023-10-04,株式会社ＹＯビジョナリーカンパニー,,株式会社,兵庫県,南あわじ市,潮美台２丁目７番地１０,,28,224,6560521,,,,,,,2023-10-04,1,,,,,ワイオービジョナリーカンパニー,0
184,1140001131820,新規,0,2023-10-04,2023-10-04,梶本水産株式会社,,株式会社,兵庫県,たつの市,御津町室津１０３４番地４７,,28,229,6711332,,,,,,,2023-10-04,1,,,,,カジモトスイサン,0
185,1140001131894,新規,0,2023-10-04,2023-10-04,株式会社Ａｎｉｍｏ,,株式会社,兵庫県,尼崎市,大庄北２丁目１９番１号,,28,202,6600063,,,,,,,2023-10-04,1,,,,,アニモ,0
186,1140003019618,新規,0,2023-10-04,2023-10-04,合同会社ＭＲ６８,,合同会社,兵庫県,神戸市長田区,御蔵通２丁目３番地ロイヤルシャトーＩＩＩ１０１号室,00132129,28,106,6530014,,,,,,,2023-10-04,1,,,,,エムアールロクジュウハチ,0
189,1150001026763,新規,0,2023-10-04,2023-10-04,株式会社Ｏｆｆｉｃｅ　Ｋ,,株式会社,奈良県,奈良市,五条畑１丁目１番２－３号,,29,201,6308036,,,,,,,2023-10-04,1,,,,,オフィスケー,0
193,1160001025384,新規,0,2023-10-04,2023-10-04,株式会社よし工務店,,株式会社,滋賀県,長浜市,大辰巳町１１０番地１３,,25,203,5260834,,,,,,,2023-10-04,1,,,,,ヨシコウムテン,0
202,1180001158224,新規,0,2023-10-04,2023-10-04,株式会社ＭＩＪ,,株式会社,愛知県,名古屋市西区,名駅１丁目１－１７名駅ダイヤメイテツビル１１階,,23,104,4510045,,,,,,,2023-10-04,1,,,,,エムアイジェイ,0
203,1180001158315,新規,0,2023-10-04,2023-10-04,ＩＴプロダクツ東海株式会社,,株式会社,愛知県,江南市,勝佐町田代１２６番地,,23,217,4838037,,,,,,,2023-10-04,1,,,,,アイティープロダクツトウカイ,0
204,1180001158323,新規,0,2023-10-04,2023-10-04,株式会社Ｄｒｅｐａｓｓ,,株式会社,愛知県,小牧市,常普請３丁目２番地２,,23,219,4850044,,,,,,,2023-10-04,1,,,,,ドリパス,0
208,1180301037862,新規,0,2023-10-04,2023-10-04,緑楊里循環科技株式会社,,株式会社,愛知県,刈谷市,高須町坤３４番地１,,23,210,4480812,,,,,,,2023-10-04,1,,,,,リョクヨウリジュンカンカギ,0
214,1190001030778,新規,0,2023-10-04,2023-10-04,株式会社ＦＬＡＴ,,株式会社,三重県,鈴鹿市,平田新町４番３号,,24,207,5130845,,,,,,,2023-10-04,1,,,,,フラット,0
217,1200001041773,新規,0,2023-10-04,2023-10-04,株式会社成和,,株式会社,岐阜県,各務原市,鵜沼各務原町８丁目７番地６６,,21,213,5090141,,,,,,,2023-10-04,1,,,,,セイワ,0
232,1250001020310,新規,0,2023-10-04,2023-10-04,株式会社山陽商会,,株式会社,山口県,岩国市,錦見２丁目１１番３３号,,35,208,7410061,,,,,,,2023-10-04,1,,,,,サンヨウショウカイ,0
233,1250001020319,新規,0,2023-10-04,2023-10-04,株式会社装工,,株式会社,山口県,周南市,御山町８番２９号,,35,215,7450863,,,,,,,2023-10-04,1,,,,,ソウコウ,0
235,1260001038351,新規,0,2023-10-04,2023-10-04,株式会社Ｅｍｏｔｉｏｎ,,株式会社,岡山県,井原市,上出部町４３５,,33,207,7150021,,,,,,,2023-10-04,1,,,,,エモーション,0
236,1260001038368,新規,0,2023-10-04,2023-10-04,株式会社五花,,株式会社,岡山県,岡山市北区,中山下１丁目１１番１５号新田第一ビル４０２,,33,101,7000821,,,,,,,2023-10-04,1,,,,,イツカ,0
238,1260003004450,新規,0,2023-10-04,2023-10-04,合同会社Ｐｌａｉｓｉｒ,,合同会社,岡山県,岡山市北区,大供１丁目７－３－１Ｆ,,33,101,7000913,,,,,,,2023-10-04,1,,,,,プレジール,0
246,1290001103235,新規,0,2023-10-04,2023-10-04,福岡マルシンフーズ株式会社,,株式会社,福岡県,糸島市,前原東３丁目８番２３号友池ビル１０１,,40,230,8191119,,,,,,,2023-10-04,1,,,,,フクオカマルシンフーズ,0
252,1290801029927,新規,0,2023-10-04,2023-10-04,株式会社栄光ゴミ処理センター,,株式会社,福岡県,北九州市小倉北区,上富野２丁目９番２２号,,40,106,8020022,,,,,,,2023-10-04,1,,,,,エイコウゴミショリセンター,0
258,1310001018629,新規,0,2023-10-04,2023-10-04,ライツライフサービス株式会社,,株式会社,長崎県,佐世保市,赤崎町１４５３番地１６,,42,202,8570064,,,,,,,2023-10-04,1,,,,,ライツライフサービス,0
259,1310001018637,新規,0,2023-10-04,2023-10-04,株式会社ＰＬＵＳ,,株式会社,長崎県,長崎市,大手２丁目２１－２７,,42,201,8528127,,,,,,,2023-10-04,1,,,,,プラス,0
260,1310001018645,新規,0,2023-10-04,2023-10-04,株式会社Ｐｏｔｈｏｓ,,株式会社,長崎県,長崎市,江戸町４番３号円口ビル７階,,42,201,8500861,,,,,,,2023-10-04,1,,,,,ポトス,0
265,1320001020030,新規,0,2023-10-04,2023-10-04,株式会社三敬,,株式会社,大分県,大分市,賀来北１丁目１２番１０号ルネスＧ才賀３０１,,44,201,8700848,,,,,,,2023-10-04,1,,,,,,0
266,1320001020039,新規,0,2023-10-04,2023-10-04,株式会社クロスギルド,,株式会社,大分県,大分市,畑中３丁目４番３２－６０２号,,44,201,8700856,,,,,,,2023-10-04,1,,,,,クロスギルド,0
275,1340001025944,新規,0,2023-10-04,2023-10-04,株式会社奥成工業,,株式会社,鹿児島県,出水市,緑町４０番５２号,,46,208,8990201,,,,,,,2023-10-04,1,,,,,オクセイコウギョウ,0
276,1350001018591,新規,0,2023-10-04,2023-10-04,株式会社ＨＩＩＲＡＧＩ,,株式会社,宮崎県,小林市,南西方６２７８番地２,,45,205,8860005,,,,,,,2023-10-04,1,,,,,ヒイラギ,0
279,1360003013326,新規,0,2023-10-04,2023-10-04,合同会社ｗａｎｇ　ｒｏｓｅ,,合同会社,沖縄県,豊見城市,字座安２０８番地２ＳｏｕｔｈＺＡＩ４０７号,00132117,47,212,9010221,,,,,,,2023-10-04,1,,,,,ワンローズ,0
281,1370001050469,新規,0,2023-10-04,2023-10-04,株式会社ＡＫＭＣ,,株式会社,宮城県,仙台市青葉区,一番町２丁目４番１０号,,04,101,9800811,,,,,,,2023-10-04,1,,,,,エーケーエムシー,0
282,1370001050477,新規,0,2023-10-04,2023-10-04,株式会社大原会計,,株式会社,宮城県,仙台市青葉区,片平１丁目１番６－９０３号,,04,101,9800812,,,,,,,2023-10-04,1,,,,,オオハラカイケイ,0
286,1380001034025,新規,0,2023-10-04,2023-10-04,古谷興業株式会社,,株式会社,福島県,福島市,上野寺字和喜２９番地の２,,07,201,9608076,,,,,,,2023-10-04,1,,,,,フルヤコウギョウ,0
291,1380005012753,新規,0,2023-10-04,2023-10-04,特定非営利活動法人花見山赤館を創る会,,その他の設立登記法人,福島県,東白川郡棚倉町,大字棚倉字丸内５９番地１,,07,481,9636131,,,,,,,2023-10-04,1,,,,,ハナミヤマアカダテヲツクルカイ,0
292,1390003002144,新規,0,2023-10-04,2023-10-04,合同会社イイジマ,,合同会社,山形県,東置賜郡高畠町,大字下和田２２７９番地の２,,06,381,9920263,,,,,,,2023-10-04,1,,,,,イイジマ,0
296,1410001013611,新規,0,2023-10-04,2023-10-04,株式会社Ｑ＆Ｃ,,株式会社,秋田県,秋田市,山王３丁目８番５号トーカンキャステール１１０２号,,05,201,0100951,,,,,,,2023-10-04,1,,,,,,0
312,1480001012243,新規,0,2023-10-04,2023-10-04,ＭＧ＆Ｃｏ．株式会社,,株式会社,徳島県,徳島市,山城西３丁目６２番地,,36,201,7708054,,,,,,,2023-10-04,1,,,,,エムジーアンドコー,0
317,1500001025226,新規,0,2023-10-04,2023-10-04,株式会社ＬＩＢＲＡ,,株式会社,愛媛県,宇和島市,丸之内５丁目２番３号,,38,203,7980060,,,,,,,2023-10-04,1,,,,,リブラ,0
318,1500003003114,新規,0,2023-10-04,2023-10-04,合同会社ナトリウム,,合同会社,愛媛県,新居浜市,一宮町１丁目７番２９号,,38,205,7920025,,,,,,,2023-10-04,1,,,,,ナトリウム,0
320,1700150121004,新規,0,2023-10-04,2023-10-04,Ｘｉａｍｅｎ　Ｇｕｏｚｈｉｊｉｎ　Ｔｒａｄｉｎｇ　Ｃｏ．，Ｌｔｄ．，,,外国会社等,,,,,,,,Ｎｏ．４４０，Ｆｅｎｇｙｕ　Ｒｏａｄ，Ｓｉｍｉｎｇ　Ｄｉｓｔｒｉｃｔ，Ｘｉａｍｅｎ，Ｆｕｊｉａｎ，Ｃｈｉｎａ,,,,,,2023-10-04,1,,,,,アモイコクシシントレーデイングカンパニリミテツド,0
321,1700150121012,新規,0,2023-10-04,2023-10-04,ｓｈｅｎｚｈｅｎｓｈｉｒｕｉｆａｎｇｋｅｊｉｙｏｕｘｉａｎｇｏｎｇｓｉ,,外国会社等,,,,,,,,ｌｏｎｇｈｕａｊｉｅｄａｏｓｏｎｇｈｅｓｈｅｑｕｄｏｎｇｈｕａｎｙｉｌｕ１０８ｈａｏ．ｙｏｕｓｏｎｇｋｅｊｉｄａｓｈａＢｄｏｎｇ８ｃｅｎｇ，Ｌｏｎｇｈｕａｑｕ，Ｓｈｅｎｚｈｅｎｓｈｉ，Ｇｕａｎｇｄｏｎｇｓｈｅｎｇ，Ｃｈｉｎａ,,,,,,2023-10-04,1,,,,,シンセンシエイホウテクノロジーカンパニリミテツド,0
322,1700150121020,新規,0,2023-10-04,2023-10-04,Ｓｕｚｈｏｕｓｈａｚｈｉｚｈｏｕｗｅｎｈｕａｃｈｕａｎｇｙｉｙｏｕｘｉａｎｇｏｎｇｓｉ,,外国会社等,,,,,,,,ＺｈａｎｇｊｉａｇａｎｇＢａｏｓｕｉｑｕｆａｎｇｚｈｉｙｕａｎｌｉａｏｓｈｉｃｈａｎｇ２１６－３９６５ｓｈｉ,,,,,,2023-10-04,1,,,,,スージョウシャージージョウウェンフワーチュワンイーヨウシエンゴンスー,0
323,1700150121029,新規,0,2023-10-04,2023-10-04,ｓｈｅｎｚｈｅｎｓｈｉｘｉｏｎｇｊｉｎｄｉａｎｚｉｋｅｊｉｙｏｕｘｉａｎｇｏｎｇｓｉ,,外国会社等,,,,,,,,ｓｈｅｎｚｈｅｎｓｈｉｌｏｎｇｈｕａｑｕｇｕａｎｈｕｊｉｅｄａｏｇｕａｎｃｈｅｎｇｓｈｅｑｕｈｕａｎｇｕａｎｚｈｏｎｇｌｕ５ｌｈａｏ－（１－５）５ｈａｏ２０１,,,,,,2023-10-04,1,,,,,シンセンシユウツエレクトロニツクテクノロジーカンパニリミテツド,0
324,1700150121037,新規,0,2023-10-04,2023-10-04,Ｆｕｚｈｏｕ　ｙａｎｇｇｕａｎｇ　ｚｈａｏｙａｏ　ｋｅｊｉ　ｙｏｕｘｉａｎｇｏｎｇｓｉ,,外国会社等,,,,,,,,Ｒｏｏｍ　９０３（ｆｏｒｍｅｒ　９Ｂ）－７，９／Ｆ，Ｏｆｆｉｃｅ　Ｂｕｉｌｄｉｎｇ，Ｗｕｚｈｏｕ　Ｂｕｉｌｄｉｎｇ，Ｎｏ．８１　Ｂａｙｉｑｉ　Ｎｏｒｔｈ　Ｒｏａｄ，Ｇｕｄｏｎｇ　Ｓｔｒｅｅｔ，Ｇｕｌｏｕ　Ｄｉｓｔｒｉｃｔ，Ｆｕｚｈｏｕ　Ｃｉｔｙ，Ｆｕｊｉａｎ　Ｐｒｏｖｉｎｃｅ，Ｃｈｉｎａ,,,,,,2023-10-04,1,,,,,フクシユウサンシヤインテクノロジーカンパニリミテツド,0
328,2010001238834,新規,0,2023-10-04,2023-10-04,株式会社ＥｆｆｉｃｉＮｅｔ　Ｘ,,株式会社,東京都,文京区,本郷６丁目２５番１４号,,13,105,1130033,,,,,,,2023-10-04,1,,,,,エフィシネットエックス,0
329,2010001238850,新規,0,2023-10-04,2023-10-04,株式会社エクスフラッグ,,株式会社,東京都,中央区,日本橋室町１丁目１１番１２号日本橋水野ビル７階,,13,102,1030022,,,,,,,2023-10-04,1,,,,,エクスフラッグ,0
330,2010001238891,新規,0,2023-10-04,2023-10-04,株式会社ミニミニキャッスル,,株式会社,東京都,千代田区,丸の内１丁目８番３号,,13,101,1000005,,,,,,,2023-10-04,1,,,,,ミニミニキャッスル,0
331,2010001238900,新規,0,2023-10-04,2023-10-04,ウェーリタース・ウィンキト株式会社,,株式会社,東京都,中央区,日本橋兜町１７番１－７０６号日本橋ロイヤルプラザ,,13,102,1030026,,,,,,,2023-10-04,1,,,,,ウェーリタースウィンキト,0
332,2010001238917,新規,0,2023-10-04,2023-10-04,ソロエマシタ株式会社,,株式会社,東京都,中央区,新川１丁目２１番１－２１０７号,,13,102,1040033,,,,,,,2023-10-04,1,,,,,ソロエマシタ,0
333,2010001238933,新規,0,2023-10-04,2023-10-04,株式会社Ｐｒｏｇｍａｔ,,株式会社,東京都,千代田区,丸の内１丁目６番５号,,13,101,1000005,,,,,,,2023-10-04,1,,,,,プログマ,0
342,2010401177582,新規,0,2023-10-04,2023-10-04,株式会社グローバルコイン,,株式会社,東京都,港区,六本木３丁目５番１５号,,13,103,1060032,,,,,,,2023-10-04,1,,,,,グローバルコイン,0
347,2010501051150,新規,0,2023-10-04,2023-10-04,株式会社リメイク,,株式会社,東京都,台東区,竜泉１丁目２１－８,,13,106,1100012,,,,,,,2023-10-04,1,,,,,リメイク,0
348,2010505003461,新規,0,2023-10-04,2023-10-04,一般社団法人インバウンド不動産協会,,その他の設立登記法人,東京都,台東区,上野５丁目８番８号,,13,106,1100005,,,,,,,2023-10-04,1,,,,,インバウンドフドウサンキョウカイ,0
354,2010901053936,新規,0,2023-10-04,2023-10-04,株式会社ＳＹＫ企画,,株式会社,東京都,世田谷区,瀬田４丁目３７番３０号,,13,112,1580095,,,,,,,2023-10-04,1,,,,,エスワイケーキカク,0
363,2011001157289,新規,0,2023-10-04,2023-10-04,株式会社ワンズクラフト,,株式会社,東京都,渋谷区,広尾１丁目１－３１,,13,113,1500012,,,,,,,2023-10-04,1,,,,,ワンズクラフト,0
364,2011001157297,新規,0,2023-10-04,2023-10-04,ハナミズキコンサルティング株式会社,,株式会社,東京都,渋谷区,道玄坂１丁目１０番８号渋谷道玄坂東急ビル２Ｆ－Ｃ,,13,113,1500043,,,,,,,2023-10-04,1,,,,,ハナミズキコンサルティング,0
365,2011001157306,新規,0,2023-10-04,2023-10-04,株式会社ＧＳＴ,,株式会社,東京都,渋谷区,広尾５丁目１９番１７号,,13,113,1500012,,,,,,,2023-10-04,1,,,,,ジーエスティー,0
366,2011001157314,新規,0,2023-10-04,2023-10-04,株式会社ＥＵＲＵＳ　ＴＲＥＫ,,株式会社,東京都,渋谷区,渋谷２丁目１９－１５宮益坂ビルディング６０９,,13,113,1500002,,,,,,,2023-10-04,1,,,,,ユーラストレック,0
367,2011001157322,新規,0,2023-10-04,2023-10-04,ファンズ不動産株式会社,,株式会社,東京都,渋谷区,恵比寿西１丁目１０番１１号,,13,113,1500021,,,,,,,2023-10-04,1,,,,,ファンズフドウサン,0
368,2011001157330,新規,0,2023-10-04,2023-10-04,株式会社ａｌｐｈａ,,株式会社,東京都,目黒区,目黒本町４丁目１５番１３号ＭＤＭ武蔵小山ＩＩ－２０３,00132116,13,110,1520002,,,,,,,2023-10-04,1,,,,,アルファ,0
369,2011001157355,新規,0,2023-10-04,2023-10-04,株式会社グローバルメンター,,株式会社,東京都,渋谷区,神宮前６丁目２３番４号桑野ビル２階,,13,113,1500001,,,,,,,2023-10-04,1,,,,,グローバルメンター,0
381,2011101104595,新規,0,2023-10-04,2023-10-04,ＣＯＤＥ　Ｅｉｒ株式会社,,株式会社,東京都,新宿区,四谷４丁目２６－１－１０２号,,13,104,1600004,,,,,,,2023-10-04,1,,,,,コードエイル,0
383,2011105010798,新規,0,2023-10-04,2023-10-04,一般社団法人ＴＵ１８,,その他の設立登記法人,東京都,新宿区,四谷２丁目９番地１５東京ユナイテッド綜合事務所内,,13,104,1600004,,,,,,,2023-10-04,1,,,,,ティーユージュウハチ,0
386,2011401025491,新規,0,2023-10-04,2023-10-04,高圧ソーラー開発株式会社,,株式会社,東京都,板橋区,双葉町３４番１４号,,13,119,1730011,,,,,,,2023-10-04,1,,,,,コウアツソーラーカイハツ,0
387,2011501029797,新規,0,2023-10-04,2023-10-04,株式会社ラ・グリシーヌ,,株式会社,東京都,荒川区,西日暮里６丁目４６番９号,,13,118,1160013,,,,,,,2023-10-04,1,,,,,ラグリシーヌ,0
388,2011601027156,新規,0,2023-10-04,2023-10-04,株式会社一隅社,,株式会社,東京都,練馬区,貫井４丁目４７－５９－１０６,,13,120,1760021,,,,,,,2023-10-04,1,,,,,イチグウシャ,0
393,2011801043110,新規,0,2023-10-04,2023-10-04,株式会社ＫＡＩ,,株式会社,東京都,足立区,西新井本町３丁目６番１４号,,13,121,1230845,,,,,,,2023-10-04,1,,,,,カイ,0
398,2012801022673,新規,0,2023-10-04,2023-10-04,ＪＥＶＡＮＩ株式会社,,株式会社,東京都,武蔵村山市,榎３丁目７１番地７号,,13,223,2080022,,,,,,,2023-10-04,1,,,,,ジェヴァニ,0
400,2013301051428,新規,0,2023-10-04,2023-10-04,Ｃ．株式会社,,株式会社,東京都,豊島区,池袋２丁目３７番４号アークビル５Ｆ,,13,116,1710014,,,,,,,2023-10-04,1,,,,,シードット,0
407,2021001080333,新規,0,2023-10-04,2023-10-04,株式会社ダブルビジョンズ,,株式会社,神奈川県,大和市,深見３５９０番地６,,14,213,2420011,,,,,,,2023-10-04,1,,,,,ダブルビジョンズ,0
412,2021005012902,新規,0,2023-10-04,2023-10-04,一般社団法人相模原みらい創造機構,,その他の設立登記法人,神奈川県,相模原市中央区,中央３丁目１０番１３号Ｏ．Ｋビル２０２号,,14,152,2520239,,,,,,,2023-10-04,1,,,,,サガミハラミライソウゾウキコウ,0
423,2030001156258,新規,0,2023-10-04,2023-10-04,株式会社清光,,株式会社,埼玉県,志木市,中宗岡２丁目３番４５－１号,,11,228,3530002,,,,,,,2023-10-04,1,,,,,セイコウ,0
424,2030001156274,新規,0,2023-10-04,2023-10-04,株式会社レオンラーゲン,,株式会社,埼玉県,熊谷市,本町２丁目５１番１号,,11,202,3600042,,,,,,,2023-10-04,1,,,,,レオンラーゲン,0
427,2030003022623,新規,0,2023-10-04,2023-10-04,合同会社笑縁,,合同会社,埼玉県,さいたま市見沼区,大字南中野１２２番地１７,,11,104,3370042,,,,,,,2023-10-04,1,,,,,エニシ,0
440,2060003004742,新規,0,2023-10-04,2023-10-04,合同会社ソレイユ,,合同会社,栃木県,栃木市,岩舟町静２２６番地１,,09,203,3294307,,,,,,,2023-10-04,1,,,,,ソレイユ,0
445,2070001040929,新規,0,2023-10-04,2023-10-04,株式会社ＫＰＬＡＮ,,株式会社,群馬県,前橋市,荒牧町１１１７番地３,,10,201,3710044,,,,,,,2023-10-04,1,,,,,ケイプラン,0
452,2080001025879,新規,0,2023-10-04,2023-10-04,わくわくマネジメント株式会社,,株式会社,静岡県,焼津市,石津８０３番地の３サンハイツ協和１０５号室,,22,212,4250041,,,,,,,2023-10-04,1,,,,,ワクワクマネジメント,0
454,2080101024252,新規,0,2023-10-04,2023-10-04,株式会社三島機械サービス,,株式会社,静岡県,伊豆の国市,田中山４７４番地,,22,225,4102301,,,,,,,2023-10-04,1,,,,,ミシマキカイサービス,0
458,2080403004885,新規,0,2023-10-04,2023-10-04,合同会社川水屋,,合同会社,静岡県,浜松市浜北区,中瀬２５－１ＮｅｕｎＧｌａｎｚ３０２号室,,22,136,4340012,,,,,,,2023-10-04,1,,,,,カワミヤ,0
462,2100001019457,新規,0,2023-10-04,2023-10-04,株式会社草間商会,,株式会社,長野県,岡谷市,東銀座１丁目９番１５号,,20,204,3940023,,,,,,,2023-10-04,1,,,,,クサマショウカイ,0
463,2100001036840,新規,0,2023-10-04,2023-10-04,株式会社岡田工業,,株式会社,長野県,長野市,川中島町上氷鉋１２８４番地,,20,201,3812233,,,,,,,2023-10-04,1,,,,,オカダコウギョウ,0
466,2110001037895,新規,0,2023-10-04,2023-10-04,株式会社ワンネス,,株式会社,新潟県,新潟市北区,松浜７丁目２７２１番地２１０,,15,101,9503126,,,,,,,2023-10-04,1,,,,,ワンネス,0
480,2120001258516,新規,0,2023-10-04,2023-10-04,株式会社ＤａｈｏＬ,,株式会社,大阪府,大阪市生野区,鶴橋３丁目８番１２号オーサムＭＫ鶴橋６０２号室,,27,116,5440031,,,,,,,2023-10-04,1,,,,,ダァオル,0
481,2120001258524,新規,0,2023-10-04,2023-10-04,ＴＲＡＦＦＩＣ・Ｋ＆Ｋ株式会社,,株式会社,大阪府,守口市,梶町２丁目２８－７,,27,209,5700015,,,,,,,2023-10-04,1,,,,,トラフィックケーアンドケー,0
482,2120001258532,新規,0,2023-10-04,2023-10-04,未来創美株式会社,,株式会社,大阪府,大阪市天王寺区,空堀町２番１６号,,27,109,5430012,,,,,,,2023-10-04,1,,,,,ミライソウビ,0
483,2120001258540,新規,0,2023-10-04,2023-10-04,株式会社ＡＮ,,株式会社,大阪府,寝屋川市,仁和寺町８番３１号,,27,215,5720066,,,,,,,2023-10-04,1,,,,,アン,0
484,2120001258549,新規,0,2023-10-04,2023-10-04,安心株式会社,,株式会社,大阪府,大阪市中央区,北久宝寺町２丁目６－１０ニューライフ船場６０７,,27,128,5410057,,,,,,,2023-10-04,1,,,,,アンシン,0
495,2120101068311,新規,0,2023-10-04,2023-10-04,株式会社ぼん凡,,株式会社,大阪府,堺市堺区,大町東２丁１番１０号,,27,141,5900954,,,,,,,2023-10-04,1,,,,,ボンボン,0
496,2120103005469,新規,0,2023-10-04,2023-10-04,合同会社ＭＳＵサポート,,合同会社,大阪府,和泉市,のぞみ野２丁目２番９－６０６号,,27,219,5941105,,,,,,,2023-10-04,1,,,,,エムエスユーサポート,0
500,2122001037437,新規,0,2023-10-04,2023-10-04,株式会社レオホーム,,株式会社,大阪府,東大阪市,吉田５丁目１０番３０号,,27,227,5780924,,,,,,,2023-10-04,1,,,,,レオホーム,0
505,2140001131811,新規,0,2023-10-04,2023-10-04,株式会社Ａｎｐａｓｕｒｅ,,株式会社,兵庫県,揖保郡太子町,蓮常寺６２番地１３,,28,464,6711535,,,,,,,2023-10-04,1,,,,,アンパシュール,0
506,2140001131828,新規,0,2023-10-04,2023-10-04,株式会社塚本モータース,,株式会社,兵庫県,神戸市長田区,本庄町５丁目１番２５号,,28,106,6530053,,,,,,,2023-10-04,1,,,,,ツカモトモータース,0
507,2140001131852,新規,0,2023-10-04,2023-10-04,株式会社稲垣サービス,,株式会社,兵庫県,神戸市中央区,磯上通８丁目１番２９号カサベラビルＣ＆Ｍ４０３号室,,28,110,6510086,,,,,,,2023-10-04,1,,,,,イナガキサービス,0
520,2180001158272,新規,0,2023-10-04,2023-10-04,株式会社空き家再生,,株式会社,愛知県,弥富市,鯏浦町南前新田１８４番地３,,23,235,4980027,,,,,,,2023-10-04,1,,,,,アキヤサイセイ,0
521,2180001158280,新規,0,2023-10-04,2023-10-04,株式会社サンクラウド,,株式会社,愛知県,大府市,北崎町４丁目２９４番地の１,,23,223,4740002,,,,,,,2023-10-04,1,,,,,サンクラウド,0
522,2180001158297,新規,0,2023-10-04,2023-10-04,株式会社Ｐｏｌａｒｉｓ,,株式会社,愛知県,北名古屋市,宇福寺天神１１７番地,,23,234,4810035,,,,,,,2023-10-04,1,,,,,ポラリス,0
523,2180001158322,新規,0,2023-10-04,2023-10-04,株式会社Ｕｌｔｉｍａｔｅ　ｔｈｅｒａｐｙ,,株式会社,愛知県,名古屋市守山区,森孝東２丁目１０２番地,,23,113,4630033,,,,,,,2023-10-04,1,,,,,アルティメットセラピー,0
527,2180301037878,新規,0,2023-10-04,2023-10-04,株式会社ＴＳ,,株式会社,愛知県,岡崎市,中園町字前河原９番地９,,23,202,4440942,,,,,,,2023-10-04,1,,,,,ティーエス,0
529,2190001030777,新規,0,2023-10-04,2023-10-04,株式会社Ｄａｚｚ,,株式会社,三重県,鈴鹿市,中旭が丘２丁目６番３６号,,24,207,5100212,,,,,,,2023-10-04,1,,,,,ダズ,0
532,2200001041772,新規,0,2023-10-04,2023-10-04,株式会社ＢＯＸ,,株式会社,岐阜県,多治見市,光ケ丘５丁目９番地の２６,,21,204,5070052,,,,,,,2023-10-04,1,,,,,ボックス,0
533,2200001041780,新規,0,2023-10-04,2023-10-04,株式会社エルキューブ,,株式会社,岐阜県,岐阜市,神田町３丁目１１番地,,21,201,5008833,,,,,,,2023-10-04,1,,,,,エルキューブ,0
534,2200001041789,新規,0,2023-10-04,2023-10-04,株式会社ＦＡＨ,,株式会社,岐阜県,岐阜市,旦島中１丁目１３番７号,,21,201,5020928,,,,,,,2023-10-04,1,,,,,エフエーエイチ,0
538,2210001019495,新規,0,2023-10-04,2023-10-04,株式会社ＴＭＦ,,株式会社,福井県,福井市,二の宮２丁目２７番１５号,,18,201,9100015,,,,,,,2023-10-04,1,,,,,ティエムエフ,0
542,2220001025617,新規,0,2023-10-04,2023-10-04,株式会社厨八十八,,株式会社,石川県,加賀市,山中温泉菅谷町ロ６２番地,,17,206,9220139,,,,,,,2023-10-04,1,,,,,クリヤヤソハチ,0
546,2230001020039,新規,0,2023-10-04,2023-10-04,ＭＫサービス株式会社,,株式会社,富山県,魚津市,金山谷２９５９番地４,,16,204,9370832,,,,,,,2023-10-04,1,,,,,エムケーサービス,0
547,2240001062179,新規,0,2023-10-04,2023-10-04,株式会社Ｓ＆Ｃネクストパートナーズ,,株式会社,広島県,東広島市,黒瀬町兼沢１２１４番地３,,34,212,7392731,,,,,,,2023-10-04,1,,,,,エスアンドシーネクストパートナーズ,0
548,2240001062187,新規,0,2023-10-04,2023-10-04,株式会社みなまるく,,株式会社,広島県,尾道市,高須町３５７－１４,,34,205,7290141,,,,,,,2023-10-04,1,,,,,ミナマルク,0
549,2240001062195,新規,0,2023-10-04,2023-10-04,株式会社Ｎ．,,株式会社,広島県,広島市佐伯区,皆賀２丁目４番１６号１Ｆ,,34,108,7315124,,,,,,,2023-10-04,1,,,,,エヌドット,0
550,2240003006316,新規,0,2023-10-04,2023-10-04,合同会社ＴＭエステートｐｌｕｓ,,合同会社,広島県,広島市東区,尾長西１丁目１番１７号,,34,102,7320047,,,,,,,2023-10-04,1,,,,,ティーエムエステートプラス,0
551,2240003006340,新規,0,2023-10-04,2023-10-04,合同会社ＳＥＶＥＮ　Ｒ,,合同会社,広島県,三原市,旭町２丁目６番１１号,,34,204,7230012,,,,,,,2023-10-04,1,,,,,セブンアール,0
552,2250001020318,新規,0,2023-10-04,2023-10-04,株式会社神出自動車,,株式会社,山口県,柳井市,伊保庄４２０９番地１,,35,212,7421352,,,,,,,2023-10-04,1,,,,,ジンデジドウシャ,0
554,2260001038359,新規,0,2023-10-04,2023-10-04,株式会社ｋ‐ｅｎｔｅｒｐｒｉｓｅ,,株式会社,岡山県,岡山市北区,東古松２丁目１２番２６号,,33,101,7000921,,,,,,,2023-10-04,1,,,,,ケイエンタープライズ,0
555,2260001038367,新規,0,2023-10-04,2023-10-04,株式会社Ｊａｐａｎ　ｍｅｄｉｃａｌ　ｉｎｓｔｉｔｕｔｅ,,株式会社,岡山県,赤磐市,津崎１４８,,33,213,7090807,,,,,,,2023-10-04,1,,,,,ジャパンメディカルインスティチュート,0
560,2290001103234,新規,0,2023-10-04,2023-10-04,株式会社ＬｅｅＶＯＩＣＥ　ＭＥＤＩＣＡＬ,,株式会社,福岡県,福岡市東区,香椎照葉５丁目１－１２－２３０４,,40,131,8130017,,,,,,,2023-10-04,1,,,,,リーボイスメディカル,0
561,2290001103259,新規,0,2023-10-04,2023-10-04,株式会社皆栄企画,,株式会社,福岡県,福岡市東区,三苫７丁目３番１９－２０８号,,40,131,8110201,,,,,,,2023-10-04,1,,,,,カイエイキカク,0
563,2290801029918,新規,0,2023-10-04,2023-10-04,株式会社仁寿,,株式会社,福岡県,北九州市小倉北区,今町２丁目１６番６号,,40,106,8030862,,,,,,,2023-10-04,1,,,,,ジンジュ,0
564,2290803004514,新規,0,2023-10-04,2023-10-04,ＺＡＲＯＯＮ　ＭＯＴＯＲ合同会社,,合同会社,福岡県,鞍手郡鞍手町,大字新北３６０番地２コーポ新北１０１号,,40,402,8071313,,,,,,,2023-10-04,1,,,,,ザルーンモーター,0
569,2320001020038,新規,0,2023-10-04,2023-10-04,株式会社榮心興業,,株式会社,大分県,大分市,大字中戸次５７９３番地の１Ｙ＆Ｍ　Ｌｕｘｅ３０５,,44,201,8797761,,,,,,,2023-10-04,1,,,,,エイシンコウギョウ,0
570,2320003004187,新規,0,2023-10-04,2023-10-04,合同会社愛の松村,,合同会社,大分県,別府市,大字鶴見１２０７番８,,44,202,8740840,,,,,,,2023-10-04,1,,,,,アイノマツムラ,0
572,2340001025943,新規,0,2023-10-04,2023-10-04,株式会社オフィスｔ’ｚソリュ,,株式会社,鹿児島県,鹿屋市,寿３丁目１２番２４号敬風ビル２号棟２０１,,46,203,8930014,,,,,,,2023-10-04,1,,,,,オフィスティーズソリュ,0
573,2340003004268,新規,0,2023-10-04,2023-10-04,合同会社中村商店,,合同会社,鹿児島県,出水市,高尾野町大久保６１６５番地,,46,208,8990401,,,,,,,2023-10-04,1,,,,,ナカムラショウテン,0
574,2340003004276,新規,0,2023-10-04,2023-10-04,合同会社ＧＩＦＴ　ＯＮＥ,,合同会社,鹿児島県,南さつま市,金峰町宮崎７８７番地２,,46,220,8993511,,,,,,,2023-10-04,1,,,,,ギフトワン,0
579,2370001050468,新規,0,2023-10-04,2023-10-04,株式会社アルテック,,株式会社,宮城県,仙台市若林区,沖野３丁目２３番１号,,04,103,9840831,,,,,,,2023-10-04,1,,,,,アルテック,0
580,2370001050476,新規,0,2023-10-04,2023-10-04,株式会社Ｇｌｏｂａｌ　Ｃｏｎｓｕｌｔｉｎｇ,,株式会社,宮城県,仙台市青葉区,大町２丁目１３番４－４０１号,,04,101,9800804,,,,,,,2023-10-04,1,,,,,グローバルコンサルティング,0
595,2470001019833,新規,0,2023-10-04,2023-10-04,株式会社三好自動車,,株式会社,香川県,丸亀市,郡家町１５４８番地１０,,37,202,7630093,,,,,,,2023-10-04,1,,,,,ミヨシジドウシャ,0
596,2480003002027,新規,0,2023-10-04,2023-10-04,合同会社ｐｉｅｃｅ,,合同会社,徳島県,徳島市,川内町平石夷野１５０ハーヴェストＩＡ－４,00132118,36,201,7710132,,,,,,,2023-10-04,1,,,,,ピース,0
602,2700150121003,新規,0,2023-10-04,2023-10-04,ｓｈｅｎｚｈｅｎ　ｙｕｅｓｈｕｎｘｉａｎｇ　ｔｒａｄｉｎｇ　ｃｏ．，ｌｔｄ．,,外国会社等,,,,,,,,ｌｕｏｈｕｑｕ　ｗｅｎｊｉｎｎａｎｌｕ　ｓｈａｎｇｊｉａｎｄａｓｈａ　３０１３，ＳＨＥＮＺＨＥＮ，ＧＵＡＮＧＤＯＮＧ，Ｃｈｉｎａ,,,,,,2023-10-04,1,,,,,シンセンユエシユンシヤントレーデイングカンパニリミテツド,0
603,2700150121011,新規,0,2023-10-04,2023-10-04,ｓｈｅｎｚｈｅｎｓｈｉｏｕｐｉｎｆａｎｍａｏｙｉｙｏｕｘｉａｎｇｏｎｇｓｉ,,外国会社等,,,,,,,,ｎａｎｈｕｊｉｅｄａｏｘｉｎａｎｌｕｓｅｎｗｅｉｄａｓｈａｙｏｎｇｊｉｎｇｙｕａｎ５Ｄ，Ｌｕｏｈｕｑｕ，Ｓｈｅｎｚｈｅｎｓｈｉ，Ｇｕａｎｇｄｏｎｇｓｈｅｎｇ，Ｃｈｉｎａ,,,,,,2023-10-04,1,,,,,シンセンシオーピンフアントレートカンパニリミテツド,0
604,2700150121028,新規,0,2023-10-04,2023-10-04,ｓｈｅｎｚｈｅｎｓｈｉｒｕｉｈｏｎｇｔａｏｋｅｊｉｙｏｕｘｉａｎｇｏｎｇｓｉ,,外国会社等,,,,,,,,ｍｉｎｚｈｉｊｉｅｄａｏｓｈａｎｇｆｅｎｓｈｅｑｕｘｉｔｏｕｘｉｎｃｕｎｅｒｑｕ３２ｈａｏ３０５，Ｌｏｎｇｈｕａｑｕ，Ｓｈｅｎｚｈｅｎｓｈｉ，Ｇｕａｎｇｄｏｎｇｓｈｅｎｇ，Ｃｈｉｎａ,,,,,,2023-10-04,1,,,,,シンセンシエイコウトウテクノロジーカンパニリミテツド,0
605,2700150121036,新規,0,2023-10-04,2023-10-04,Ｓｈｅｎｚｈｅｎｓｈｉ　Ｚｈｏｎｇｙｏｎｇｃｈｕａｎｇｘｉｎ　Ｔｅｃｈｎｏｌｏｇｙ　ＣＯ．，ＬＴＤ．,,外国会社等,,,,,,,,３０８，３０９，Ｂｌｏｃｋ　Ａ，Ｘｉｎｍｕｂａｎｌｉ　Ｂｕｉｌｄｉｎｇ，Ｎｏ．３２１　Ｘｉｎｍｕ　Ｒｏａｄ，Ｘｉｎｍｕ　Ｃｏｍｍｕｎｉｔｙ，Ｐｉｎｇｈｕ　Ｓｔｒｅｅｔ，Ｌｏｎｇｇａｎｇ　Ｄｉｓｔｒｉｃｔ，Ｓｈｅｎｚｈｅｎ，Ｃｈｉｎａ,,,,,,2023-10-04,1,,,,,シンセンシチユウヨウソウシンテクノロジーカンパニリミテツド,0
613,3010001238833,新規,0,2023-10-04,2023-10-04,株式会社ＡＲＣＲＡ,,株式会社,東京都,文京区,本郷６丁目２５番１４号,,13,105,1130033,,,,,,,2023-10-04,1,,,,,アークラ,0
614,3010001238899,新規,0,2023-10-04,2023-10-04,株式会社ＢＵＹＩＮＧ　ＳＱＵＡＲＥ,,株式会社,東京都,千代田区,平河町１丁目６番１５号ＵＳビル８階,,13,101,1020093,,,,,,,2023-10-04,1,,,,,バイイングスクエア,0
615,3010001238916,新規,0,2023-10-04,2023-10-04,株式会社Ｎｅｉｇｈｔｂｏｒ．,,株式会社,東京都,中央区,日本橋兜町１７－２兜町第６葉山ビル４Ｆ,,13,102,1030026,,,,,,,2023-10-04,1,,,,,ネイバー,0
616,3010001238932,新規,0,2023-10-04,2023-10-04,株式会社２ｏｆ,,株式会社,東京都,中央区,銀座１丁目１２番４号Ｎ＆ＥＢＬＤ．６Ｆ,,13,102,1040061,,,,,,,2023-10-04,1,,,,,ツーオーエフ,0
617,3010001238957,新規,0,2023-10-04,2023-10-04,株式会社奥山尚史建築設計事務所,,株式会社,東京都,千代田区,飯田橋２丁目４番１０号加島ビル５Ｆ,,13,101,1020072,,,,,,,2023-10-04,1,,,,,オクヤマナオフミケンチクセッケイジムショ,0
618,3010001238973,新規,0,2023-10-04,2023-10-04,株式会社水廼家,,株式会社,東京都,文京区,本郷１丁目３３番４－３０９号,,13,105,1130033,,,,,,,2023-10-04,1,,,,,ミズノヤ,0
623,3010103002220,新規,0,2023-10-04,2023-10-04,合同会社ｔｅｒｚｗｅｂ,,合同会社,東京都,八王子市,下柚木２丁目１９番地２６,,13,201,1920372,,,,,,,2023-10-04,1,,,,,ターズウェブ,0
627,3010401177573,新規,0,2023-10-04,2023-10-04,Ａ．Ｓ株式会社,,株式会社,東京都,港区,西麻布１丁目４番４０号,,13,103,1060031,,,,,,,2023-10-04,1,,,,,エーエス,0
638,3010901053935,新規,0,2023-10-04,2023-10-04,株式会社ウトラ,,株式会社,東京都,世田谷区,奥沢３丁目６番１０号,,13,112,1580083,,,,,,,2023-10-04,1,,,,,ウトラ,0
639,3010903008499,新規,0,2023-10-04,2023-10-04,ＢｉｚＡｒｔ合同会社,,合同会社,東京都,世田谷区,池尻３丁目２１番１６－３１５号,,13,112,1540001,,,,,,,2023-10-04,1,,,,,ビズアート,0
654,3011001157206,新規,0,2023-10-04,2023-10-04,株式会社Ｍａｎｉ,,株式会社,東京都,渋谷区,道玄坂１丁目１０番８号渋谷道玄坂東急ビル２Ｆ－Ｃ,,13,113,1500043,,,,,,,2023-10-04,1,,,,,マーニ,0
655,3011001157313,新規,0,2023-10-04,2023-10-04,サルーク株式会社,,株式会社,東京都,目黒区,目黒本町５丁目３３番４号,,13,110,1520002,,,,,,,2023-10-04,1,,,,,サルーク,0
656,3011001157321,新規,0,2023-10-04,2023-10-04,株式会社スタジオＫ,,株式会社,東京都,渋谷区,神宮前６丁目２３番４号桑野ビル２階,,13,113,1500001,,,,,,,2023-10-04,1,,,,,スタジオケー,0
657,3011001157362,新規,0,2023-10-04,2023-10-04,シンプルセオリー株式会社,,株式会社,東京都,渋谷区,道玄坂１丁目１６－６二葉ビル８ｂ,,13,113,1500043,,,,,,,2023-10-04,1,,,,,シンプルセオリー,0
660,3011003017647,新規,0,2023-10-04,2023-10-04,Ｍａｙｆａｉｒ　Ｔｏｋｙｏ合同会社,,合同会社,東京都,渋谷区,渋谷１丁目１－３アミーホール３－４Ｆ,,13,113,1500002,,,,,,,2023-10-04,1,,,,,メイフェアトウキョウ,0
661,3011003017663,新規,0,2023-10-04,2023-10-04,合同会社Ｙ２Ｋ　ＰＩＣＴＵＲＥＳ,,合同会社,東京都,目黒区,上目黒３丁目１７番８号ジェイハンク中目黒Ａ棟,,13,110,1530051,,,,,,,2023-10-04,1,,,,,ワイツーケイピクチャーズ,0
662,3011005010220,新規,0,2023-10-04,2023-10-04,特定非営利活動法人対話ラボ‐こころ・そだち・コミュニケーションの相談室,,その他の設立登記法人,東京都,渋谷区,恵比寿２丁目２８番１０号,,13,113,1500013,,,,,,,2023-10-04,1,,,,,タイワラボココロソダチコミュニケーションノソウダンシツ,0
665,3011101104586,新規,0,2023-10-04,2023-10-04,株式会社ＴＡＬＫ,,株式会社,東京都,新宿区,西新宿３丁目９－７フロンティア新宿タワー３１５,,13,104,1600023,,,,,,,2023-10-04,1,,,,,トーク,0
667,3011105010806,新規,0,2023-10-04,2023-10-04,一般財団法人國司華子財団,,その他の設立登記法人,東京都,新宿区,東五軒町１番１３号ブラントン神楽坂５０１,,13,104,1620813,,,,,,,2023-10-04,1,,,,,クニシハナコザイダン,0
668,3011201024957,新規,0,2023-10-04,2023-10-04,株式会社ティーオン,,株式会社,東京都,中野区,野方３丁目２５番８号ヤマシロビル２階,,13,114,1650027,,,,,,,2023-10-04,1,,,,,ティーオン,0
680,3011601027163,新規,0,2023-10-04,2023-10-04,株式会社コレクト,,株式会社,東京都,練馬区,旭丘１丁目５６番１号錦ビル,,13,120,1760005,,,,,,,2023-10-04,1,,,,,コレクト,0
685,3011801043118,新規,0,2023-10-04,2023-10-04,株式会社キムラ,,株式会社,東京都,足立区,西新井６丁目２５番２７－３０２号,,13,121,1230841,,,,,,,2023-10-04,1,,,,,キムラ,0
686,3011803005867,新規,0,2023-10-04,2023-10-04,合同会社ぱいかじ,,合同会社,東京都,足立区,伊興５丁目１７番２４号,,13,121,1210823,,,,,,,2023-10-04,1,,,,,パイカジ,0
688,3012701017871,新規,0,2023-10-04,2023-10-04,辰星株式会社,,株式会社,東京都,西東京市,南町３丁目２５番２－４０１号,,13,229,1880012,,,,,,,2023-10-04,1,,,,,シンセイ,0
694,3013301051443,新規,0,2023-10-04,2023-10-04,株式会社Ｉ‐ＰＲＯ,,株式会社,東京都,豊島区,西池袋２丁目３６番１０号ＡＣＮ池袋ビル１０階,,13,116,1710021,,,,,,,2023-10-04,1,,,,,アイプロ,0
699,3021001080316,新規,0,2023-10-04,2023-10-04,株式会社Ｗｏｏｔｂａｓｅ,,株式会社,神奈川県,相模原市緑区,橋本３丁目２７番６号,,14,151,2520143,,,,,,,2023-10-04,1,,,,,ウートベース,0
700,3021001080340,新規,0,2023-10-04,2023-10-04,株式会社グッドステップス,,株式会社,神奈川県,鎌倉市,極楽寺２丁目２番２号,,14,204,2480023,,,,,,,2023-10-04,1,,,,,グッドステップス,0
712,3030001156050,新規,0,2023-10-04,2023-10-04,華瑞株式会社,,株式会社,埼玉県,草加市,八幡町７３９－１,,11,221,3400006,,,,,,,2023-10-04,1,,,,,カズイ,0
721,3030003022614,新規,0,2023-10-04,2023-10-04,合同会社アイアンストック,,合同会社,埼玉県,草加市,青柳８丁目１６－１５,,11,221,3400002,,,,,,,2023-10-04,1,,,,,アイアンストック,0
722,3030003022696,新規,0,2023-10-04,2023-10-04,合同会社ＨＩＫＡＴＡ,,合同会社,埼玉県,さいたま市大宮区,宮町１丁目３４番地２－３階,,11,103,3300802,,,,,,,2023-10-04,1,,,,,ヒカタ,0
735,3040001130327,新規,0,2023-10-04,2023-10-04,株式会社成六電気,,株式会社,千葉県,市川市,北方２丁目３３－２クレール北方Ａ棟１０２,,12,203,2720815,,,,,,,2023-10-04,1,,,,,セイロクデンキ,0
736,3040001130392,新規,0,2023-10-04,2023-10-04,株式会社プラスワン,,株式会社,千葉県,白井市,冨士１５１番地の２白井ロジュマン３１８号室,,12,232,2701432,,,,,,,2023-10-04,1,,,,,プラスワン,0
743,3040003023470,新規,0,2023-10-04,2023-10-04,合同会社ＫＡＩ,,合同会社,千葉県,大網白里市,大網９６－２,,12,239,2993251,,,,,,,2023-10-04,1,,,,,カイ,0
744,3040005022132,新規,0,2023-10-04,2023-10-04,一般社団法人アンドムーブ,,その他の設立登記法人,千葉県,木更津市,清見台東１丁目９番２１号,,12,206,2920041,,,,,,,2023-10-04,1,,,,,アンドムーブ,0
745,3050001053601,新規,0,2023-10-04,2023-10-04,株式会社美和商事,,株式会社,茨城県,土浦市,霞ケ岡町２３番２２号,,08,203,3000825,,,,,,,2023-10-04,1,,,,,ミワショウジ,0
755,3080003003064,新規,0,2023-10-04,2023-10-04,合同会社ＫｏＨａｒｕライフサポート,,合同会社,静岡県,静岡市清水区,由比阿僧１０５―５,,22,103,4213107,,,,,,,2023-10-04,1,,,,,コハルライフサポート,0
756,3080101024251,新規,0,2023-10-04,2023-10-04,株式会社宝成運輸,,株式会社,静岡県,伊豆の国市,四日町２３２番地の１,,22,225,4102123,,,,,,,2023-10-04,1,,,,,ホウジョウウンユ,0
760,3120001258473,新規,0,2023-10-04,2023-10-04,株式会社Ｂａｌｌｕｆｆ,,株式会社,大阪府,大阪市西区,北堀江２丁目２番２４号ＰａｒｋＬａｎｅＨｏｒｉｅＢｌｄ８０７号,,27,106,5500014,,,,,,,2023-10-04,1,,,,,バルーフ,0
761,3120001258515,新規,0,2023-10-04,2023-10-04,株式会社ＮＩＲＡＩＫＡＮＡＩ　ＨＤ,,株式会社,大阪府,大阪市中央区,谷町４丁目６番１３号,,27,128,5400012,,,,,,,2023-10-04,1,,,,,ニライカナイホールディングス,0
762,3120001258523,新規,0,2023-10-04,2023-10-04,ＨＩＫＯ株式会社,,株式会社,大阪府,大阪市浪速区,恵美須西１丁目５番８号,,27,111,5560003,,,,,,,2023-10-04,1,,,,,ヒコ,0
767,3120003025013,新規,0,2023-10-04,2023-10-04,ＡＭＲＳ合同会社,,合同会社,大阪府,大阪市西区,新町４丁目１０番１０－１１０８号,,27,106,5500013,,,,,,,2023-10-04,1,,,,,エーエムアールエス,0
768,3120003025021,新規,0,2023-10-04,2023-10-04,東邦産業合同会社,,合同会社,大阪府,大阪市鶴見区,今津中１丁目６番１２－４４０号,,27,124,5380042,,,,,,,2023-10-04,1,,,,,トウホウサンギョウ,0
770,3120005023915,新規,0,2023-10-04,2023-10-04,一般社団法人役立つ士業協議会,,その他の設立登記法人,大阪府,大阪市北区,東天満２丁目８番１号若杉センタービル別館,,27,127,5300044,,,,,,,2023-10-04,1,,,,,ヤクダツシギョウキョウギカイ,0
772,3120103005468,新規,0,2023-10-04,2023-10-04,合同会社ＰｌｕｓＯｎｅ,,合同会社,大阪府,堺市堺区,錦綾町１丁２番１５－２０１号,,27,141,5900006,,,,,,,2023-10-04,1,,,,,プラスワン,0
775,3120903004850,新規,0,2023-10-04,2023-10-04,合同会社Ｔｈｕｒｓ,,合同会社,大阪府,高槻市,安満北の町３－１ヌーボクラヴィエ１０２号室,,27,207,5691108,,,,,,,2023-10-04,1,,,,,サーズ,0
778,3122001037428,新規,0,2023-10-04,2023-10-04,株式会社アップストリーム,,株式会社,大阪府,東大阪市,永和２丁目２番７号,,27,227,5770809,,,,,,,2023-10-04,1,,,,,アップストリーム,0
782,3130001075323,新規,0,2023-10-04,2023-10-04,株式会社カルタホテル,,株式会社,京都府,京都市中京区,堺町通押小路下る扇屋町６４６番地,,26,104,6040824,,,,,,,2023-10-04,1,,,,,カルタホテル,0
783,3130001075414,新規,0,2023-10-04,2023-10-04,ＫＦＳ株式会社,,株式会社,京都府,京都市山科区,勧修寺東堂田町１４番地Ｈ１－フラット３０５,,26,110,6078222,,,,,,,2023-10-04,1,,,,,ケーエフエス,0
794,3140001131793,新規,0,2023-10-04,2023-10-04,株式会社みつガーデン,,株式会社,兵庫県,たつの市,御津町朝臣３７８番地１,,28,229,6711342,,,,,,,2023-10-04,1,,,,,ミツガーデン,0
795,3140001131819,新規,0,2023-10-04,2023-10-04,ＴＥＭＰＥＳＴ株式会社,,株式会社,兵庫県,西宮市,久保町４番２４号,,28,204,6620927,,,,,,,2023-10-04,1,,,,,テンペスト,0
796,3140001131884,新規,0,2023-10-04,2023-10-04,株式会社シロモト,,株式会社,兵庫県,神戸市長田区,野田町８丁目２番２号,,28,106,6530051,,,,,,,2023-10-04,1,,,,,シロモト,0
797,3140003019624,新規,0,2023-10-04,2023-10-04,合同会社凛システム,,合同会社,兵庫県,神戸市中央区,琴ノ緒町５丁目５号９番フューチャービル３階３０２号室,,28,110,6510094,,,,,,,2023-10-04,1,,,,,リンシステム,0
798,3140003019632,新規,0,2023-10-04,2023-10-04,合同会社ケアプランセンターまりも,,合同会社,兵庫県,尼崎市,武庫之荘８丁目１０番９号,,28,202,6610035,,,,,,,2023-10-04,1,,,,,ケアプランセンターマリモ,0
801,3150001026753,新規,0,2023-10-04,2023-10-04,株式会社ＮＧＣ,,株式会社,奈良県,奈良市,左京１丁目１３番地の２５,,29,201,6310801,,,,,,,2023-10-04,1,,,,,エヌジーシー,0
802,3150001026761,新規,0,2023-10-04,2023-10-04,株式会社ＤＳＪ,,株式会社,奈良県,奈良市,山陵町４６４番地,,29,201,6310803,,,,,,,2023-10-04,1,,,,,ディエスジェイ,0
807,3170001017817,新規,0,2023-10-04,2023-10-04,株式会社一生,,株式会社,和歌山県,和歌山市,木広町５丁目２－１５プレサンスロジェ和歌山３０２号,,30,201,6408328,,,,,,,2023-10-04,1,,,,,イッセイ,0
810,3180001158214,新規,0,2023-10-04,2023-10-04,株式会社ＲＯＫＩＡ,,株式会社,愛知県,名古屋市東区,東桜２丁目１７番２５号,,23,102,4610005,,,,,,,2023-10-04,1,,,,,ロキア,0
811,3180001158247,新規,0,2023-10-04,2023-10-04,株式会社Ｙ．Ｎ．Ｎ．Ｙ,,株式会社,愛知県,名古屋市中区,栄３丁目９番１０号三星ビル,,23,106,4600008,,,,,,,2023-10-04,1,,,,,ワイエヌエヌワイ,0
812,3180001158263,新規,0,2023-10-04,2023-10-04,株式会社ＫＯＮＤＯＵ,,株式会社,愛知県,名古屋市緑区,万場山１丁目１２０６番地,,23,114,4580043,,,,,,,2023-10-04,1,,,,,コンドウ,0
813,3180001158271,新規,0,2023-10-04,2023-10-04,株式会社Ｏ’ｓ,,株式会社,愛知県,名古屋市港区,九番町３丁目３３番地,,23,111,4550008,,,,,,,2023-10-04,1,,,,,オズ,0
814,3180001158305,新規,0,2023-10-04,2023-10-04,株式会社徳森組,,株式会社,愛知県,海部郡大治町,大字三本木字寒宿１１番地の２,,23,424,4901142,,,,,,,2023-10-04,1,,,,,トクモリグミ,0
815,3180001158362,新規,0,2023-10-04,2023-10-04,株式会社ＲｉＮｇ,,株式会社,愛知県,名古屋市守山区,桔梗平２丁目１４０５番地サンモール吉根２０２号,,23,113,4630814,,,,,,,2023-10-04,1,,,,,リング,0
817,3180003025817,新規,0,2023-10-04,2023-10-04,合同会社ＮＥＸＴコンサルティング,,合同会社,愛知県,名古屋市名東区,高針台１丁目８２０番地の２,,23,115,4650054,,,,,,,2023-10-04,1,,,,,ネクストコンサルティング,0
821,3180301037877,新規,0,2023-10-04,2023-10-04,株式会社ＭＩＲＡＣＬＥ,,株式会社,愛知県,岡崎市,竜泉寺町字西山畑４２番地３,,23,202,4443524,,,,,,,2023-10-04,1,,,,,ミラクル,0
826,3200001041771,新規,0,2023-10-04,2023-10-04,ＨＩＲＯ　ＷＥＬＤ株式会社,,株式会社,岐阜県,各務原市,蘇原東栄町２丁目６４番地,,21,213,5040815,,,,,,,2023-10-04,1,,,,,ヒロウェルド,0
832,3230001020038,新規,0,2023-10-04,2023-10-04,株式会社リボンフーズ,,株式会社,富山県,黒部市,三日市２５２３番地１,,16,207,9380031,,,,,,,2023-10-04,1,,,,,リボンフーズ,0
834,3240001062203,新規,0,2023-10-04,2023-10-04,株式会社シークィーン,,株式会社,広島県,安芸郡府中町,みくまり２丁目１１番１６号,,34,302,7350003,,,,,,,2023-10-04,1,,,,,シークィーン,0
835,3240001062211,新規,0,2023-10-04,2023-10-04,株式会社おそうじ執事,,株式会社,広島県,広島市安芸区,畑賀３丁目２０番１８号,,34,107,7360088,,,,,,,2023-10-04,1,,,,,オソウジシツジ,0
840,3260001038358,新規,0,2023-10-04,2023-10-04,株式会社ハピネス,,株式会社,岡山県,津山市,東一宮３６番地１４,,33,203,7080814,,,,,,,2023-10-04,1,,,,,ハピネス,0
841,3260001038366,新規,0,2023-10-04,2023-10-04,株式会社ＨＳＭ,,株式会社,岡山県,備前市,日生町寒河２５７０番地３１,,33,211,7013202,,,,,,,2023-10-04,1,,,,,エイチエスエム,0
842,3260003004449,新規,0,2023-10-04,2023-10-04,合同会社Ｅｍｂｅｌｌｉｒ,,合同会社,岡山県,岡山市中区,高島１丁目１－１４,,33,102,7038242,,,,,,,2023-10-04,1,,,,,アンベリール,0
848,3290001103241,新規,0,2023-10-04,2023-10-04,株式会社シクミ,,株式会社,福岡県,福岡市南区,大池１丁目１２番３７号,,40,134,8150073,,,,,,,2023-10-04,1,,,,,シクミ,0
849,3290001103266,新規,0,2023-10-04,2023-10-04,株式会社エディフィス,,株式会社,福岡県,福岡市中央区,鳥飼１丁目１番５－６０２号,,40,133,8100053,,,,,,,2023-10-04,1,,,,,エディフィス,0
854,3310001018643,新規,0,2023-10-04,2023-10-04,株式会社Ｔｈｒｅｅ　Ｏｎｅ,,株式会社,長崎県,佐世保市,柚木元町２５５４番地１シャルムメゾン柚木１０２号室,,42,202,8570115,,,,,,,2023-10-04,1,,,,,スリーワン,0
859,3320001020029,新規,0,2023-10-04,2023-10-04,ＯＮＥエイト株式会社,,株式会社,大分県,大分市,西新地１丁目４８番地,,44,201,8700901,,,,,,,2023-10-04,1,,,,,ワンエイト,0
860,3320001020037,新規,0,2023-10-04,2023-10-04,株式会社ポケットタウン,,株式会社,大分県,玖珠郡玖珠町,大字帆足２４５番地の１０,,44,462,8794403,,,,,,,2023-10-04,1,,,,,ポケットタウン,0
868,3360001032615,新規,0,2023-10-04,2023-10-04,株式会社ユメらぼ,,株式会社,沖縄県,那覇市,宇栄原６丁目２番１２号,,47,201,9010153,,,,,,,2023-10-04,1,,,,,ユメラボ,0
869,3360001032623,新規,0,2023-10-04,2023-10-04,株式会社ＯＫＩレンタカー,,株式会社,沖縄県,沖縄市,桃原２丁目１６番２５号,,47,211,9042164,,,,,,,2023-10-04,1,,,,,オキレンタカー,0
872,3370001050467,新規,0,2023-10-04,2023-10-04,株式会社速仕リンク,,株式会社,宮城県,仙台市若林区,中倉１丁目１６番１－８０６号,,04,103,9840821,,,,,,,2023-10-04,1,,,,,ハヤシリンク,0
873,3370001050475,新規,0,2023-10-04,2023-10-04,株式会社ＡＫＩＴＡｓｔｙｌｅ,,株式会社,宮城県,仙台市青葉区,一番町４丁目５－６江陽パルサービル６Ｆ,,04,101,9800811,,,,,,,2023-10-04,1,,,,,アキタスタイル,0
889,3450003002391,新規,0,2023-10-04,2023-10-04,合同会社雅陽,,合同会社,北海道,旭川市,秋月一条１丁目１０－４,,01,204,0798401,,,,,,,2023-10-04,1,,,,,マサヒ,0
891,3470001019832,新規,0,2023-10-04,2023-10-04,株式会社覺宝,,株式会社,香川県,三豊市,豊中町上高野２６９３番地２,,37,208,7691504,,,,,,,2023-10-04,1,,,,,カクホウ,0
893,3480001012233,新規,0,2023-10-04,2023-10-04,株式会社七転八起,,株式会社,徳島県,美馬市,脇町別所３４４５番地,,36,207,7793620,,,,,,,2023-10-04,1,,,,,シチテンハッキ,0
895,3490005006908,新規,0,2023-10-04,2023-10-04,一般社団法人四万十アクティブスポーツ協会,,その他の設立登記法人,高知県,高岡郡四万十町,中神ノ川６９６番地６,,39,412,7860072,,,,,,,2023-10-04,1,,,,,シマントアクティブスポーツキョウカイ,0
898,3500001025224,新規,0,2023-10-04,2023-10-04,ヒトシプランニングオフィス株式会社,,株式会社,愛媛県,松山市,萱町６丁目１４７番地６,,38,201,7900813,,,,,,,2023-10-04,1,,,,,ヒトシプランニングオフィス,0
903,3700150109253,新規,0,2023-10-04,2022-06-07,びわ湖マラソン大会実行委員会,,その他,滋賀県,大津市,京町４丁目１－１スポーツ課内,,25,201,5200044,,,,,,,2022-06-07,1,,,,,ビワコマラソンタイカイジツコウイインカイ,0
905,3700150121002,新規,0,2023-10-04,2023-10-04,Ｄａｌｉａｎ　Ｔａｌｅｎｔ　Ｇｉｆｔ　Ｃｏ．，Ｌｔｄ．,,外国会社等,,,,,,,,Ｐｕｌａｎｄｉａｎｑｕ　ｔａｉｐｉｎｇｊｉｅｄａｏ　ｔａｎｇｆａｎｇｓｈｅｑｕ　Ｄａｌｉａｎ　Ｌｉａｏｎｉｎｇ,,,,,,2023-10-04,1,,,,,ダイレンタイレントギフトカンパニリミテツド,0
906,3700150121010,新規,0,2023-10-04,2023-10-04,Ｓｈｅｎｚｈｅｎｙｉｎｙｕｋｅｊｉｙｏｕｘｉａｎｇｏｎｇｓｉ,,外国会社等,,,,,,,,ｈｕａｎｇｂｅｉｊｉｅｄａｏｈｕａｎｇｂｅｉｌｉｎｇｓｈｅｑｕｓｈｅｎｎａｎｄｏｎｇｌｕ１００２ｈａｏ，ｓｈｅｎｙｅｄｏｎｇｌｉｎｇ３ｄｏｎｇ２００４，Ｌｕｏｈｕｑｕ，Ｓｈｅｎｚｈｅｎ，Ｇｕａｎｇｄｏｎｇ，Ｃｈｉｎａ,,,,,,2023-10-04,1,,,,,シンセンインウテクノロジーカンパニリミテツド,0
907,3700150121019,新規,0,2023-10-04,2023-10-04,Ｓｕ　ｚｈｏｕ　ｙａ　ｘｉｎ　ｎｅｎｇ　ｄｏｎｇ　ｌｉ　ｋｅ　ｊｉ　ｙｏｕ　ｘｉａｎ　ｇｏｎｇ　ｓｉ,,外国会社等,,,,,,,,ｋｕｎｓｈａｎｋａｉｆａｑｕｓｈｅｎｇｘｉｌｕ３ｈａｏｓｕｚｈｏｕｑｉｎｇｔａｏｘｉｎｎｅｎｇｙｕａｎ３ｚｈｏｎｇｓｈｉｃｈｅｊｉａｎ２ｃｅｎｇｈｅ５ｃｅｎｇ　ｓｕｚｈｏｕｓｈｉ　ｊｉａｎｇｓｕ　２１５３００　ＣＮ,,,,,,2023-10-04,1,,,,,スージョウヤーシンノンドンリーコージーヨウシエンゴンスー,0
908,3700150121035,新規,0,2023-10-04,2023-10-04,ＨＡＮＧＺＨＯＵ　ＭＵＪＩＡ　ＮＥＴＷＯＲＫ　ＴＥＣＨＮＯＬＯＧＹ　ＣＯ．，ＬＴＤ,,外国会社等,,,,,,,,Ｒｏｏｍ　５０６　５／Ｆ　Ｂｕｉｌｄｉｎｇ　１　６５０　Ｂｉｎ’ａｎ　Ｒｏａｄ　Ｃｈａｎｇｈｅ　Ｓｕｂｄｉｓｔｒｉｃｔ　Ｂｉｎｊｉａｎｇ　Ｄｉｓｔｒｉｃｔ　Ｈａｎｇｚｈｏｕ　Ｚｈｅｊｉａｎｇ,,,,,,2023-10-04,1,,,,,コウシユウムジアネツトワーツクテクノロジーカンパニリミテツド,0
909,3700150121043,新規,0,2023-10-04,2023-10-04,土器川右岸土地改良区連合,,その他,香川県,丸亀市,綾歌町岡田東１０９９－１,,37,202,7612404,,,,,,,2023-10-04,1,,,,,ドキガワウガントチカイリヨウクレンゴウ,0
913,4010001238832,新規,0,2023-10-04,2023-10-04,株式会社セカイヘ,,株式会社,東京都,文京区,本郷６丁目２５番１４号,,13,105,1130033,,,,,,,2023-10-04,1,,,,,セカイヘ,0
914,4010001238923,新規,0,2023-10-04,2023-10-04,株式会社ＪＡＭＥＳ　ＢＵＲＹ　ＤＥＳＩＧＮ　ＯＦＦＩＣＥ,,株式会社,東京都,中央区,銀座１丁目２２番１１号２Ｆ,,13,102,1040061,,,,,,,2023-10-04,1,,,,,ジェームスビューリーデザインオフィス,0
915,4010001238931,新規,0,2023-10-04,2023-10-04,ＰＡＲＡＤＩＧＭ　Ｘ株式会社,,株式会社,東京都,中央区,東日本橋１丁目３番６号,,13,102,1030004,,,,,,,2023-10-04,1,,,,,パラダイムエックス,0
916,4010001239005,新規,0,2023-10-04,2023-10-04,株式会社ＭＹＭ,,株式会社,東京都,中央区,日本橋人形町１丁目５番５号,,13,102,1030013,,,,,,,2023-10-04,1,,,,,エムワイエム,0
921,4010005037306,新規,0,2023-10-04,2023-10-04,一般社団法人ファミリーオフィス研究所,,その他の設立登記法人,東京都,中央区,日本橋小伝馬町２１－１ＴＨＥ・ＰＯＲＴＡＬ・Ｎｉｈｏｍｂａｓｈｉ・Ｅａｓｔ６Ｆ,,13,102,1030001,,,,,,,2023-10-04,1,,,,,ファミリーオフィスケンキュウショ,0
923,4010401177515,新規,0,2023-10-04,2023-10-04,株式会社Ｒｏｉｌｉｅ,,株式会社,東京都,港区,北青山１丁目３番１号アールキューブ青山３階,,13,103,1070061,,,,,,,2023-10-04,1,,,,,ロイリー,0
924,4010401177523,新規,0,2023-10-04,2023-10-04,ミラティオ株式会社,,株式会社,東京都,港区,赤坂８丁目４番１４号青山タワープレイス８階,,13,103,1070052,,,,,,,2023-10-04,1,,,,,ミラティオ,0
926,4010403031034,新規,0,2023-10-04,2023-10-04,ＴＷＳ政経コンサルティング合同会社,,合同会社,東京都,港区,麻布台３丁目２番７号サウスヒルサイド麻布台６Ｆ,,13,103,1060041,,,,,,,2023-10-04,1,,,,,ティーダブリュエスセイケイコンサルティング,0
929,4010701044919,新規,0,2023-10-04,2023-10-04,株式会社エモーションネクスト,,株式会社,東京都,品川区,西品川１丁目２９番１２号ＣＳＲ品川,,13,109,1410033,,,,,,,2023-10-04,1,,,,,エモーションネクスト,0
935,4011001157254,新規,0,2023-10-04,2023-10-04,ウィルスマイル株式会社,,株式会社,東京都,渋谷区,渋谷３丁目６番２号エクラート渋谷５階,,13,113,1500002,,,,,,,2023-10-04,1,,,,,ウィルスマイル,0
936,4011001157295,新規,0,2023-10-04,2023-10-04,株式会社ボックスクリエイション,,株式会社,東京都,渋谷区,渋谷２丁目１９番１５号宮益坂ビルディング６０９,,13,113,1500002,,,,,,,2023-10-04,1,,,,,ボックスクリエイション,0
937,4011001157329,新規,0,2023-10-04,2023-10-04,株式会社ＭｅｄｉＬｉｂｅｒｔｙ,,株式会社,東京都,渋谷区,道玄坂１丁目１０番８号渋谷道玄坂東急ビル２Ｆ－Ｃ,,13,113,1500043,,,,,,,2023-10-04,1,,,,,,0
938,4011001157337,新規,0,2023-10-04,2023-10-04,株式会社ネット,,株式会社,東京都,渋谷区,恵比寿西２丁目８番４号ＥＸ恵比寿西ビル５階,,13,113,1500021,,,,,,,2023-10-04,1,,,,,ネット,0
939,4011001157345,新規,0,2023-10-04,2023-10-04,株式会社Ｃｏｄｏ,,株式会社,東京都,渋谷区,恵比寿１丁目２２番２３号,,13,113,1500013,,,,,,,2023-10-04,1,,,,,コドウ,0
943,4011201024956,新規,0,2023-10-04,2023-10-04,Ａｒｔｅｒｉａ　ＬＩＮＫ株式会社,,株式会社,東京都,中野区,中野４丁目１０番２号－２Ｆ,,13,114,1640001,,,,,,,2023-10-04,1,,,,,アルテリアリンク,0
944,4011305002940,新規,0,2023-10-04,2023-10-04,司法書士法人あかつき総合法務事務所,,その他の設立登記法人,東京都,杉並区,桃井４丁目１２番１０号,,13,115,1670034,,,,,,,2023-10-04,1,,,,,アカツキソウゴウホウムジムショ,0
946,4011601027154,新規,0,2023-10-04,2023-10-04,株式会社ＬＩＮＫ,,株式会社,東京都,練馬区,南大泉４丁目２２番９号第１平野ハイツ１０１,,13,120,1780064,,,,,,,2023-10-04,1,,,,,リンク,0
948,4011603004077,新規,0,2023-10-04,2023-10-04,合同会社オアシスケア,,合同会社,東京都,練馬区,春日町１丁目１０番１９号,,13,120,1790074,,,,,,,2023-10-04,1,,,,,オアシスケア,0
951,4011701026634,新規,0,2023-10-04,2023-10-04,株式会社ＤＩＳＫ,,株式会社,東京都,江戸川区,大杉１丁目１２番１８号,,13,123,1320022,,,,,,,2023-10-04,1,,,,,ディスク,0
957,4011803005866,新規,0,2023-10-04,2023-10-04,デイアセット合同会社,,合同会社,東京都,足立区,扇１丁目４９番１７号ベルドゥムール扇大橋ＩＩ７０３,00132128,13,121,1230873,,,,,,,2023-10-04,1,,,,,デイアセット,0
959,4012405004901,新規,0,2023-10-04,2023-10-04,ＮＰＯ法人ぼこでこ,,その他の設立登記法人,東京都,三鷹市,牟礼６丁目１３番１５号,,13,204,1810002,,,,,,,2023-10-04,1,,,,,ボコデコ,0
964,4020003024692,新規,0,2023-10-04,2023-10-04,合同会社あじあ,,合同会社,神奈川県,川崎市麻生区,向原３丁目１７－９,,14,137,2150007,,,,,,,2023-10-04,1,,,,,アジア,0
968,4021001080331,新規,0,2023-10-04,2023-10-04,ＴＨＥ　ＢＬＡＮＫ株式会社,,株式会社,神奈川県,茅ヶ崎市,元町４－１３鈴木ビル１０２,,14,207,2530043,,,,,,,2023-10-04,1,,,,,ザブランク,0
978,4030003022638,新規,0,2023-10-04,2023-10-04,イケダ商事合同会社,,合同会社,埼玉県,さいたま市北区,宮原町１丁目５４２－１－５０３,,11,102,3310812,,,,,,,2023-10-04,1,,,,,,0
979,4030003022687,新規,0,2023-10-04,2023-10-04,合同会社ＫＨ,,合同会社,埼玉県,朝霞市,大字下内間木１３６１番地の１,,11,227,3510002,,,,,,,2023-10-04,1,,,,,ケーエイチ,0
984,4040001130391,新規,0,2023-10-04,2023-10-04,株式会社ｔｅａｍ　ＵＰ,,株式会社,千葉県,柏市,高柳１１４６番地２５ビオラ１０２号,,12,217,2770941,,,,,,,2023-10-04,1,,,,,チームアップ,0
990,4060001036397,新規,0,2023-10-04,2023-10-04,株式会社プロモート,,株式会社,栃木県,小山市,大字土塔２５０番地３,,09,208,3230812,,,,,,,2023-10-04,1,,,,,プロモート,0
998,4080005007574,新規,0,2023-10-04,2023-10-04,医療法人社団駿輝会,,その他の設立登記法人,静岡県,静岡市葵区,紺屋町７番地の１５Ｙ’ｓＰＬＡＴＺ３Ｆ,,22,101,4200852,,,,,,,2023-10-04,1,,,,,シュンキカイ,0
1002,4080401026772,新規,0,2023-10-04,2023-10-04,株式会社元麻布ハウス,,株式会社,静岡県,浜松市中区,鴨江２丁目１８番７号,,22,131,4328023,,,,,,,2023-10-04,1,,,,,モトアザブハウス,0
1003,4080403004883,新規,0,2023-10-04,2023-10-04,あこの合同会社,,合同会社,静岡県,磐田市,富士見町４丁目２番地７,,22,211,4380083,,,,,,,2023-10-04,1,,,,,アコノ,0
1005,4090001018335,新規,0,2023-10-04,2023-10-04,３９株式会社,,株式会社,山梨県,甲府市,上曽根町３２００番地１０１号室,,19,201,4001501,,,,,,,2023-10-04,1,,,,,サンキュウ,0
1009,4110001037893,新規,0,2023-10-04,2023-10-04,株式会社窪田梨果園,,株式会社,新潟県,新潟市江南区,茅野山２丁目６番２２号,,15,104,9500144,,,,,,,2023-10-04,1,,,,,クボタリカエン,0
1021,4120001258415,新規,0,2023-10-04,2023-10-04,伍貴株式会社,,株式会社,大阪府,大阪市中央区,松屋町９番２０号ローレルステート松屋町６０２Ｂ,,27,128,5420067,,,,,,,2023-10-04,1,,,,,ゴキ,0
1022,4120001258489,新規,0,2023-10-04,2023-10-04,株式会社ウェルマネ,,株式会社,大阪府,大阪市中央区,安土町２丁目５－５,,27,128,5410052,,,,,,,2023-10-04,1,,,,,ウェルマネ,0
1023,4120001258547,新規,0,2023-10-04,2023-10-04,ＱＵＩＮＡ株式会社,,株式会社,大阪府,大阪市淀川区,宮原４丁目４－５０ディームス新大阪１５０３号室,,27,123,5320003,,,,,,,2023-10-04,1,,,,,クイナ,0
1030,4120003025012,新規,0,2023-10-04,2023-10-04,連海合同会社,,合同会社,大阪府,大阪市西淀川区,佃２丁目１番３１号２０２号室,,27,113,5550001,,,,,,,2023-10-04,1,,,,,レンカイ,0
1031,4120003025020,新規,0,2023-10-04,2023-10-04,合同会社ＨＳＫＭ,,合同会社,大阪府,大阪市北区,梅田１丁目２番２号大阪駅前第２ビル,,27,127,5300001,,,,,,,2023-10-04,1,,,,,エイチエスケーエム,0
1032,4120101068292,新規,0,2023-10-04,2023-10-04,株式会社ｂｒｉｄｇｅ,,株式会社,大阪府,堺市堺区,北花田口町３丁１番３号グランラヴィレジデンス１００２,,27,141,5900074,,,,,,,2023-10-04,1,,,,,ブリッジ,0
1033,4120101068301,新規,0,2023-10-04,2023-10-04,Ｋ＆Ｙ総合建設株式会社,,株式会社,大阪府,泉大津市,豊中町３丁目２番３９号３０３,,27,206,5950023,,,,,,,2023-10-04,1,,,,,ケイアンドワイソウゴウケンセツ,0
1037,4120103005442,新規,0,2023-10-04,2023-10-04,合同会社ＩＲＩＥ,,合同会社,大阪府,松原市,東新町１丁目１９番２２号,,27,217,5800024,,,,,,,2023-10-04,1,,,,,アイリー,0
1044,4122001037443,新規,0,2023-10-04,2023-10-04,株式会社すりーぴーす,,株式会社,大阪府,東大阪市,若江東町１丁目７番４号,,27,227,5780935,,,,,,,2023-10-04,1,,,,,スリーピース,0
1055,4140001131818,新規,0,2023-10-04,2023-10-04,Ｌｕｃｋｙ　Ｐｅａｒｌ株式会社,,株式会社,兵庫県,神戸市中央区,旗塚通１丁目５番８号３階,,28,110,6510068,,,,,,,2023-10-04,1,,,,,ラッキーパール,0
1056,4140001131867,新規,0,2023-10-04,2023-10-04,ライフワークス株式会社,,株式会社,兵庫県,西宮市,山口町上山口２丁目１３番２０号,,28,204,6511421,,,,,,,2023-10-04,1,,,,,ライフワークス,0
1058,4140003019607,新規,0,2023-10-04,2023-10-04,合同会社関西シーガル,,合同会社,兵庫県,神戸市長田区,水笠通１丁目１－４－１１０２,,28,106,6530842,,,,,,,2023-10-04,1,,,,,カンサイシーガル,0
1060,4140005026758,新規,0,2023-10-04,2023-10-04,一般社団法人Ｌａｚｏ,,その他の設立登記法人,兵庫県,神戸市中央区,磯上通８丁目１番２９号カサベラビルＣ＆Ｍ４０３号室,,28,110,6510086,,,,,,,2023-10-04,1,,,,,ラソ,0
1063,4150001026760,新規,0,2023-10-04,2023-10-04,株式会社立道工業,,株式会社,奈良県,宇陀市,菟田野岩崎４０３番地の３,,29,212,6332227,,,,,,,2023-10-04,1,,,,,タテミチコウギョウ,0
1064,4150001026769,新規,0,2023-10-04,2023-10-04,株式会社シゲタ工房,,株式会社,奈良県,北葛城郡上牧町,ささゆり台２丁目２番３号,,29,424,6390218,,,,,,,2023-10-04,1,,,,,シゲタコウボウ,0
1068,4160001025365,新規,0,2023-10-04,2023-10-04,株式会社せーの,,株式会社,滋賀県,大津市,比叡平３丁目８－９,,25,201,5200016,,,,,,,2023-10-04,1,,,,,セーノ,0
1078,4180001158246,新規,0,2023-10-04,2023-10-04,株式会社Ｋｅｙ’ｓ,,株式会社,愛知県,日進市,赤池４丁目１３０７番地アンビエンテ１０２,,23,230,4700125,,,,,,,2023-10-04,1,,,,,キーズ,0
1079,4180001158254,新規,0,2023-10-04,2023-10-04,ジャムティック株式会社,,株式会社,愛知県,小牧市,小木２丁目２０８番地,,23,219,4850058,,,,,,,2023-10-04,1,,,,,ジャムティック,0
1080,4180001158361,新規,0,2023-10-04,2023-10-04,株式会社大松建設,,株式会社,愛知県,大府市,吉田町２丁目５１番地,,23,223,4740048,,,,,,,2023-10-04,1,,,,,ダイショウケンセツ,0
1083,4190001030775,新規,0,2023-10-04,2023-10-04,Ｔｏｐｗｅｌｌ　Ｔｅｃｈｎｏ株式会社,,株式会社,三重県,四日市市,水沢町４２５８番地３,,24,202,5121105,,,,,,,2023-10-04,1,,,,,トップウェルテクノ,0
1085,4190003004463,新規,0,2023-10-04,2023-10-04,合同会社そうえい不動産,,合同会社,三重県,伊賀市,上野徳居町３２８９番地の１,,24,216,5180856,,,,,,,2023-10-04,1,,,,,ソウエイフドウサン,0
1089,4230001020037,新規,0,2023-10-04,2023-10-04,野寺地所株式会社,,株式会社,富山県,富山市,西宮３３番地２,,16,201,9318345,,,,,,,2023-10-04,1,,,,,ノデラジショ,0
1091,4240001062210,新規,0,2023-10-04,2023-10-04,株式会社アクセント,,株式会社,広島県,広島市佐伯区,海老園４丁目８番１号,,34,108,7315135,,,,,,,2023-10-04,1,,,,,アクセント,0
1092,4240001062227,新規,0,2023-10-04,2023-10-04,株式会社中前水産,,株式会社,広島県,広島市中区,江波南１丁目２０番５号,,34,101,7300835,,,,,,,2023-10-04,1,,,,,ナカマエスイサン,0
1093,4240003006347,新規,0,2023-10-04,2023-10-04,テイクワン合同会社,,合同会社,広島県,広島市安佐北区,口田４丁目６番２９－４０３号,,34,106,7391734,,,,,,,2023-10-04,1,,,,,テイクワン,0
1094,4250001020316,新規,0,2023-10-04,2023-10-04,株式会社フロントラインネクスト,,株式会社,山口県,長門市,東深川１９０７番地９,,35,211,7594101,,,,,,,2023-10-04,1,,,,,フロントラインネクスト,0
1097,4260001038365,新規,0,2023-10-04,2023-10-04,株式会社春夏秋冬,,株式会社,岡山県,岡山市北区,磨屋町６番２３号,,33,101,7000826,,,,,,,2023-10-04,1,,,,,ヒトトセ,0
1105,4290001103174,新規,0,2023-10-04,2023-10-04,エルドラド株式会社,,株式会社,福岡県,春日市,下白水南６丁目６－５０３号,,40,218,8160846,,,,,,,2023-10-04,1,,,,,エルドラド,0
1106,4290001103224,新規,0,2023-10-04,2023-10-04,株式会社マスプラン,,株式会社,福岡県,福岡市南区,高宮２丁目６番１５－４０３号,,40,134,8150083,,,,,,,2023-10-04,1,,,,,マスプラン,0
1107,4290001103273,新規,0,2023-10-04,2023-10-04,ＨＩＫＡＲＩ　ＲＥＡＬ　ＥＳＴＡＴＥ株式会社,,株式会社,福岡県,福岡市中央区,大名２丁目１番４３－３０４号,,40,133,8100041,,,,,,,2023-10-04,1,,,,,ヒカリリアルエステート,0
1109,4290003014436,新規,0,2023-10-04,2023-10-04,合同会社ＢＥＮ,,合同会社,福岡県,糟屋郡志免町,南里６丁目１４番２号,,40,343,8112207,,,,,,,2023-10-04,1,,,,,ビーイーエヌ,0
1112,4290801029916,新規,0,2023-10-04,2023-10-04,ＭａＣ株式会社,,株式会社,福岡県,田川市,大字弓削田１０７７番地１,,40,206,8260041,,,,,,,2023-10-04,1,,,,,マック,0
1116,4300005007155,新規,0,2023-10-04,2023-10-04,一般社団法人ＶＩＳＩＴＳＡＧＡ,,その他の設立登記法人,佐賀県,唐津市,千代田町２１０９番地６７,,41,202,8470041,,,,,,,2023-10-04,1,,,,,ビジットサガ,0
1117,4310001018634,新規,0,2023-10-04,2023-10-04,株式会社ＩＺＵＭＩ,,株式会社,長崎県,佐世保市,鹿町町口ノ里５１番地,,42,202,8596203,,,,,,,2023-10-04,1,,,,,イズミ,0
1118,4320001020036,新規,0,2023-10-04,2023-10-04,ＡＫＤ株式会社,,株式会社,大分県,中津市,大字永添７５４番地１,,44,203,8710162,,,,,,,2023-10-04,1,,,,,エーケーディー,0
1119,4320001020044,新規,0,2023-10-04,2023-10-04,株式会社Ｒｉｖ,,株式会社,大分県,別府市,田の湯町３番７号アライアンスタワーＺ４階,,44,202,8740909,,,,,,,2023-10-04,1,,,,,リブ,0
1127,4340003004274,新規,0,2023-10-04,2023-10-04,合同会社錦江バイオマス発電所,,合同会社,鹿児島県,霧島市,国分中央４丁目２６番１７号,,46,218,8994332,,,,,,,2023-10-04,1,,,,,キンコウバイオマスハツデンショ,0
1129,4360001032639,新規,0,2023-10-04,2023-10-04,シンフォニー株式会社,,株式会社,沖縄県,那覇市,鏡原町３番１号、１階Ｂ号,,47,201,9010151,,,,,,,2023-10-04,1,,,,,シンフォニー,0
1131,4370001050474,新規,0,2023-10-04,2023-10-04,株式会社宮城土地建物,,株式会社,宮城県,仙台市泉区,松陵１丁目１番地の６,,04,105,9813108,,,,,,,2023-10-04,1,,,,,ミヤギトチタテモノ,0
1132,4370001050482,新規,0,2023-10-04,2023-10-04,株式会社フェスティーナ・ロイテ,,株式会社,宮城県,仙台市若林区,土樋１０４番地,,04,103,9840065,,,,,,,2023-10-04,1,,,,,フェスティーナロイテ,0
1140,4400005008358,新規,0,2023-10-04,2023-10-04,一般社団法人鈴木美感子,,その他の設立登記法人,岩手県,盛岡市,中堤町２３番１０号プロスパー中堤Ａ棟,,03,201,0200131,,,,,,,2023-10-04,1,,,,,スズキミナコ,0
1142,4410001013609,新規,0,2023-10-04,2023-10-04,株式会社ヴィータ・リベラ,,株式会社,秋田県,秋田市,新屋大川町１３番１８号,,05,201,0101632,,,,,,,2023-10-04,1,,,,,ヴィータリベラ,0
1152,4440003001550,新規,0,2023-10-04,2023-10-04,合同会社北海道企画,,合同会社,北海道,函館市,湯川町１丁目２３－１６,,01,202,0420932,,,,,,,2023-10-04,1,,,,,,0
1154,4450001014108,新規,0,2023-10-04,2023-10-04,株式会社佐賀工業,,株式会社,北海道,旭川市,神居五条８丁目１番４号,,01,204,0708015,,,,,,,2023-10-04,1,,,,,サガコウギョウ,0
1159,4480001012232,新規,0,2023-10-04,2023-10-04,株式会社Ｆｉｎｄ　ＨＲ,,株式会社,徳島県,板野郡北島町,鯛浜字向５１番地１,,36,402,7710204,,,,,,,2023-10-04,1,,,,,ファインドエイチアール,0
1162,4500003003111,新規,0,2023-10-04,2023-10-04,合同会社アベトモ,,合同会社,愛媛県,今治市,横田町３丁目２番２５号,,38,202,7940814,,,,,,,2023-10-04,1,,,,,アベトモ,0
1164,4700150121001,新規,0,2023-10-04,2023-10-04,ｃｈａｏｚｈｏｕｓｈｉｃｈａｏａｎｑｕｊｉａｊｉｅｔａｏｃｉｃｈａｎｇ,,外国会社等,,,,,,,,Ｆｕｑｉｎｇ　Ｖｉｌｌａｇｅ，Ｇｕｘｉａｎｇ　Ｔｏｗｎ，Ｃｈａｏａｎ　Ｄｉｓｔｒｉｃｔ，Ｃｈａｏｚｈｏｕ　Ｃｉｔｙ，Ｇｕａｎｇｄｏｎｇ　Ｐｒｏｖｉｎｃｅ,,,,,,2023-10-04,1,,,,,チヨウシユウシチヨウアンクケイケツセラミツクスセイサクシヨ,0
1165,4700150121018,新規,0,2023-10-04,2023-10-04,Ｂｏｎｅ　Ｃｏｌｌｅｃｔｉｏｎ　Ｉｎｃ．,,外国会社等,,,,,,,,６Ｆ．－６，Ｎｏ．３５１，Ｓｅｃ．２，Ｚｈｏｎｇｓｈａｎ　Ｒｄ．，Ｚｈｏｎｇｈｅ　Ｄｉｓｔ．，Ｎｅｗ　Ｔａｉｐｅｉ　Ｃｉｔｙ　２３５０２９，Ｔａｉｗａｎ（Ｒ．Ｏ．Ｃ．）,,,,,,2023-10-04,1,,,,,ボンコーグーフェンヨウシエンゴンスー,0
1166,4700150121026,新規,0,2023-10-04,2023-10-04,ｔｉａｎｚｈａｎｇｓｈｉｑｉａｎｙｕａｎｄｉａｎｚｉｋｅｊｉｙｏｕｘｉａｎｇｏｎｇｓｉ,,外国会社等,,,,,,,,Ｎｏ．２０　Ｚｈｅｎｇｌｏｎｇ　Ｒｏａｄ，Ｑｉｎｌａｎ　Ｔｏｗｎ　Ｉｎｄｕｓｔｒｉａｌ　Ｚｏｎｅ，Ｔｉａｎｃｈａｎｇ　Ｃｉｔｙ,,,,,,2023-10-04,1,,,,,ティエンジャンシーチエンユエンディエンズーコージーヨウシエンゴンスー,0
1167,4700150121034,新規,0,2023-10-04,2023-10-04,ＨＥＨＵＩ（ＳＨＥＮＺＨＥＮ）ＩＮＤＵＳＴＲＩＡＬ　ＣＯ．，ＬＴＤ,,外国会社等,,,,,,,,ＲＯＯＭ　２０１，ＢＵＩＬＤＩＮＧ　Ａ，Ｎｏ．１　ＱＩＡＮＷＡＮ　１　ＲＯＡＤ，ＳＨＥＮＧＡＮＧ　ＣＯＯＰＥＲＡＴＩＯＮ　ＺＯＮＥ，ＱＩＡＮＨＡＩ，ＳＨＥＮＺＨＥＮ,,,,,,2023-10-04,1,,,,,ヘフイシンセンインダストリアルカンパニリミテツド,0
1168,4700150121042,新規,0,2023-10-04,2023-10-04,Ｚｈｏｕ　Ｋｏｕ　Ｓｈｉ　Ｚｈｕｏ　Ｌａｎ　Ｓｈａｎｇ　Ｍａｏ　Ｙｏｕ　Ｘｉａｎ　Ｇｏｎｇ　Ｓｉ,,外国会社等,,,,,,,,Ｚｈｏｕ　Ｋｏｕ　Ｓｈｉ　Ｃｈｕａｎ　Ｈｕｉ　Ｑｕ　Ｆｕ　Ｍｉｎ　Ｌｕ　Ｎａｎ　Ｄｕａｎ　Ｘｉｎｇ　Ｈｅ　Ｔａｏ　Ｃｉ　Ｙｕａｎ　Ｎｅｉ　１６Ｈａｏ,,,,,,2023-10-04,1,,,,,シユウコウシジユオランビジネストレーデイングカンパニリミテツド,0
1175,5010001238831,新規,0,2023-10-04,2023-10-04,株式会社ＳＡＬＴ２,,株式会社,東京都,文京区,本郷６丁目２５番１４号,,13,105,1130033,,,,,,,2023-10-04,1,,,,,ソルトツー,0
1176,5010001238872,新規,0,2023-10-04,2023-10-04,株式会社レミエ,,株式会社,東京都,中央区,銀座１丁目１５番４号銀座一丁目ビル７階,,13,102,1040061,,,,,,,2023-10-04,1,,,,,レミエ,0
1177,5010001238897,新規,0,2023-10-04,2023-10-04,株式会社岩崎不動産,,株式会社,東京都,中央区,築地４丁目１２番２－６０２号,,13,102,1040045,,,,,,,2023-10-04,1,,,,,イワサキフドウサン,0
1178,5010001238914,新規,0,2023-10-04,2023-10-04,華新株式会社,,株式会社,東京都,千代田区,東神田２丁目６番１号,,13,101,1010031,,,,,,,2023-10-04,1,,,,,カシン,0
1179,5010001239004,新規,0,2023-10-04,2023-10-04,株式会社Ｙａｒｄｓｔｉｃｋ　Ｊａｐａｎ,,株式会社,東京都,中央区,日本橋富沢町４番１０号,,13,102,1030006,,,,,,,2023-10-04,1,,,,,ヤードスティックジャパン,0
1191,5010401177448,新規,0,2023-10-04,2023-10-04,株式会社Ｌｉｇｈｔｓ,,株式会社,東京都,港区,北青山１丁目３番１号アールキューブ青山３階,,13,103,1070061,,,,,,,2023-10-04,1,,,,,ライツ,0
1192,5010401177547,新規,0,2023-10-04,2023-10-04,株式会社ＩＶＩＩＲＯ,,株式会社,東京都,港区,港南２丁目４番１４号－４０５号室,,13,103,1080075,,,,,,,2023-10-04,1,,,,,イヴィロ,0
1193,5010401177555,新規,0,2023-10-04,2023-10-04,ＪＩＣＣ‐０４株式会社,,株式会社,東京都,港区,虎ノ門１丁目３番１号,,13,103,1050001,,,,,,,2023-10-04,1,,,,,ジェイアイシーシーゼロヨン,0
1197,5010403031066,新規,0,2023-10-04,2023-10-04,合同会社ファンデイワールド,,合同会社,東京都,港区,南青山３丁目１番３６号青山丸竹ビル６階,,13,103,1070062,,,,,,,2023-10-04,1,,,,,ファンデイワールド,0
1199,5010405022526,新規,0,2023-10-04,2023-10-04,一般社団法人東京大地会,,その他の設立登記法人,東京都,港区,北青山１丁目３番１号アールキューブ青山３階,,13,103,1070061,,,,,,,2023-10-04,1,,,,,トウキョウダイチカイ,0
1214,5011001157245,新規,0,2023-10-04,2023-10-04,株式会社Ｓｍａｒｔ　Ｖａｌｕｅ,,株式会社,東京都,渋谷区,道玄坂１丁目１０番８号渋谷道玄坂東急ビル２Ｆ－Ｃ,,13,113,1500043,,,,,,,2023-10-04,1,,,,,スマートバリュー,0
1215,5011001157278,新規,0,2023-10-04,2023-10-04,株式会社ＰＩＥＲ,,株式会社,東京都,渋谷区,渋谷２丁目１９－１５宮益坂ビルディング６０９,,13,113,1500002,,,,,,,2023-10-04,1,,,,,ピアー,0
1216,5011001157294,新規,0,2023-10-04,2023-10-04,株式会社Ｋｅｙ　Ｍｅｓｓａｇｅ　Ｉｎｔｅｒｎａｔｉｏｎａｌ,,株式会社,東京都,目黒区,目黒２丁目１番１８－１００２号,,13,110,1530063,,,,,,,2023-10-04,1,,,,,キーメッセージインターナショナル,0
1217,5011001157311,新規,0,2023-10-04,2023-10-04,株式会社ＮｅｏＰｏｗｅｒ,,株式会社,東京都,渋谷区,元代々木町２４番４号ＴＯＰ代々木公園第２－２０２,,13,113,1510062,,,,,,,2023-10-04,1,,,,,ネオパワー,0
1218,5011001157336,新規,0,2023-10-04,2023-10-04,株式会社レモーンズ,,株式会社,東京都,渋谷区,神宮前４丁目２３番１６号,,13,113,1500001,,,,,,,2023-10-04,1,,,,,レモーンズ,0
1219,5011001157377,新規,0,2023-10-04,2023-10-04,株式会社ｃａｉｃｏ,,株式会社,東京都,目黒区,祐天寺２丁目８番５－４０２号ルミエール祐天寺,,13,110,1530052,,,,,,,2023-10-04,1,,,,,カイコ,0
1220,5011003017653,新規,0,2023-10-04,2023-10-04,Ｆｌｅｓｋｉｎｇ合同会社,,合同会社,東京都,渋谷区,道玄坂１丁目１０番８号渋谷道玄坂東急ビル２Ｆ－Ｃ,,13,113,1500043,,,,,,,2023-10-04,1,,,,,フレスキング,0
1223,5011101104601,新規,0,2023-10-04,2023-10-04,ミガロホールディングス株式会社,,株式会社,東京都,新宿区,西新宿６丁目５番１号新宿アイランドタワー４１階,,13,104,1600023,,,,,,,2023-10-04,1,,,,,ミガロホールディングス,0
1227,5011203004187,新規,0,2023-10-04,2023-10-04,合同会社ユナイト,,合同会社,東京都,中野区,若宮１丁目５４番５号,,13,114,1650033,,,,,,,2023-10-04,1,,,,,ユナイト,0
1228,5011303004921,新規,0,2023-10-04,2023-10-04,ＳＲＩＧＣジャパン合同会社,,合同会社,東京都,杉並区,永福２丁目１７番１３号,,13,115,1680064,,,,,,,2023-10-04,1,,,,,エスアールアイジーシージャパン,0
1232,5011501029811,新規,0,2023-10-04,2023-10-04,株式会社ＡＤＥＰＴＵＳ,,株式会社,東京都,荒川区,荒川７丁目３５－２サングランツ３０２号,,13,118,1160002,,,,,,,2023-10-04,1,,,,,アデプタス,0
1233,5011501029836,新規,0,2023-10-04,2023-10-04,アイユーホールディングス株式会社,,株式会社,東京都,北区,神谷２丁目１８番１３号,,13,117,1150043,,,,,,,2023-10-04,1,,,,,アイユーホールディングス,0
1234,5011503005777,新規,0,2023-10-04,2023-10-04,合同会社ＡＰＯＬＬＯ,,合同会社,東京都,荒川区,荒川１丁目２９－１４クレア荒川区役所前２０４,,13,118,1160002,,,,,,,2023-10-04,1,,,,,アポロ,0
1235,5011601027161,新規,0,2023-10-04,2023-10-04,Ｃａｎ　Ｉ株式会社,,株式会社,東京都,練馬区,豊玉北４丁目２２番８号,,13,120,1760012,,,,,,,2023-10-04,1,,,,,キャンアイ,0
1242,5012701017861,新規,0,2023-10-04,2023-10-04,株式会社ＩＮＯＵＥ　ＨＤ,,株式会社,東京都,西東京市,南町３丁目１９番３２号ときわビル１階,,13,229,1880012,,,,,,,2023-10-04,1,,,,,イノウエホールディングス,0
1246,5013301051425,新規,0,2023-10-04,2023-10-04,株式会社ハッピーデリバリー,,株式会社,東京都,豊島区,東池袋１丁目３５－３－２Ｆ,,13,116,1700013,,,,,,,2023-10-04,1,,,,,ハッピーデリバリー,0
1247,5013305003521,新規,0,2023-10-04,2023-10-04,医療法人社団心龍会,,その他の設立登記法人,東京都,豊島区,南池袋２丁目２６番９号ニュープライムビル６階,,13,116,1710022,,,,,,,2023-10-04,1,,,,,シンリュウカイ,0
1252,5020001153699,新規,0,2023-10-04,2023-10-04,株式会社Ｐｈｅｎｏｍｅｎｏ,,株式会社,神奈川県,川崎市中原区,小杉町２丁目２０７番地３ハーモニーレジデンス武蔵小杉フォレストスクエア５０６,,14,133,2110063,,,,,,,2023-10-04,1,,,,,フェノーメノ,0
1253,5020001153757,新規,0,2023-10-04,2023-10-04,株式会社エミーズ,,株式会社,神奈川県,川崎市多摩区,南生田１丁目５番７－１号,,14,135,2140036,,,,,,,2023-10-04,1,,,,,エミーズ,0
1254,5020001153781,新規,0,2023-10-04,2023-10-04,株式会社ゴルフラ,,株式会社,神奈川県,川崎市中原区,中丸子１２５３・１Ｆ,,14,133,2110012,,,,,,,2023-10-04,1,,,,,ゴルフラ,0
1257,5021001080280,新規,0,2023-10-04,2023-10-04,株式会社黒澤創建,,株式会社,神奈川県,座間市,座間１丁目３１９５番地の７,,14,216,2520027,,,,,,,2023-10-04,1,,,,,クロサワソウケン,0
1262,5021003013643,新規,0,2023-10-04,2023-10-04,ＡＤＤ　ＧＬＯＢＡＬ合同会社,,合同会社,神奈川県,鎌倉市,材木座６丁目１０番３号,,14,204,2480013,,,,,,,2023-10-04,1,,,,,アドグローバル,0
1269,5030001156239,新規,0,2023-10-04,2023-10-04,株式会社半仙,,株式会社,埼玉県,行田市,長野４丁目２番地２,,11,206,3610023,,,,,,,2023-10-04,1,,,,,ハンセン,0
1270,5030001156263,新規,0,2023-10-04,2023-10-04,ＤＳＷ　ＪＡＰＡＮ株式会社,,株式会社,埼玉県,朝霞市,膝折町４丁目１１番５４号,,11,227,3510014,,,,,,,2023-10-04,1,,,,,ディーエスダブリュージャパン,0
1275,5030003022637,新規,0,2023-10-04,2023-10-04,Ｈ＆Ｍライフパートナーズ合同会社,,合同会社,埼玉県,新座市,野寺５丁目２番１号,,11,230,3520034,,,,,,,2023-10-04,1,,,,,エイチアンドエムライフパートナーズ,0
1279,5040001130325,新規,0,2023-10-04,2023-10-04,株式会社ドキドキ,,株式会社,千葉県,市川市,本塩１２番５号,,12,203,2720104,,,,,,,2023-10-04,1,,,,,ドキドキ,0
1282,5040003023444,新規,0,2023-10-04,2023-10-04,合同会社ＬｉｂｅｒｉｌｙｌＭｕｓｉｃ,,合同会社,千葉県,船橋市,藤原２丁目１４番６号Ｂ－１０１号,,12,204,2730047,,,,,,,2023-10-04,1,,,,,リベラリィミュージック,0
1285,5050001053590,新規,0,2023-10-04,2023-10-04,株式会社ｂｙ　Ｋ,,株式会社,茨城県,ひたちなか市,大字三反田４１７４番地５,,08,221,3120021,,,,,,,2023-10-04,1,,,,,バイケー,0
1286,5050005013335,新規,0,2023-10-04,2023-10-04,一般社団法人宇野会,,その他の設立登記法人,茨城県,那珂市,杉６５９番地１,,08,226,3110106,,,,,,,2023-10-04,1,,,,,ウノカイ,0
1287,5060001036396,新規,0,2023-10-04,2023-10-04,株式会社Ｓ．Ｋ　Ｇｒｅｅｎ,,株式会社,栃木県,栃木市,皆川城内町４３５番地,,09,203,3280067,,,,,,,2023-10-04,1,,,,,エスケーグリーン,0
1296,5080001025884,新規,0,2023-10-04,2023-10-04,株式会社Ｌｉｆｅ　Ｌｉｎｋ　Ｓｏａｒ,,株式会社,静岡県,島田市,東町１４番地の１,,22,209,4270011,,,,,,,2023-10-04,1,,,,,ライフリンクソアー,0
1299,5080005007573,新規,0,2023-10-04,2023-10-04,かがやき税理士法人,,その他の設立登記法人,静岡県,静岡市葵区,鷹匠３丁目１８番５号,,22,101,4200839,,,,,,,2023-10-04,1,,,,,カガヤキ,0
1302,5080401026771,新規,0,2023-10-04,2023-10-04,静西電設株式会社,,株式会社,静岡県,浜松市東区,小池町２８１９番地の２,,22,132,4350056,,,,,,,2023-10-04,1,,,,,セイセイデンセツ,0
1305,5090003002393,新規,0,2023-10-04,2023-10-04,ＴＡＢ合同会社,,合同会社,山梨県,北都留郡丹波山村,８００番地押垣外集合住宅Ｃ,,19,443,4090300,,,,,,,2023-10-04,1,,,,,タブ,0
1316,5120001258439,新規,0,2023-10-04,2023-10-04,南啓株式会社,,株式会社,大阪府,大阪市北区,長柄西１丁目４番１８号,,27,127,5310061,,,,,,,2023-10-04,1,,,,,ナンケイ,0
1317,5120001258496,新規,0,2023-10-04,2023-10-04,株式会社丸和,,株式会社,大阪府,大阪市中央区,南船場１丁目７番８号１００４室,,27,128,5420081,,,,,,,2023-10-04,1,,,,,マルワ,0
1318,5120001258513,新規,0,2023-10-04,2023-10-04,株式会社コンセント,,株式会社,大阪府,大阪市東住吉区,東田辺２丁目１－２－６０１,,27,121,5460032,,,,,,,2023-10-04,1,,,,,コンセント,0
1319,5120001258521,新規,0,2023-10-04,2023-10-04,株式会社ｄａｏ,,株式会社,大阪府,大阪市西成区,千本北１丁目７番２７号,,27,122,5570053,,,,,,,2023-10-04,1,,,,,ダオ,0
1320,5120001258546,新規,0,2023-10-04,2023-10-04,千尋株式会社,,株式会社,大阪府,大阪市浪速区,日本橋東１丁目２番１７－３０１号,,27,111,5560006,,,,,,,2023-10-04,1,,,,,チヒロ,0
1326,5120003025011,新規,0,2023-10-04,2023-10-04,合同会社ジェネラルエンド,,合同会社,大阪府,大阪市都島区,内代町１丁目７番３号,,27,102,5340013,,,,,,,2023-10-04,1,,,,,ジェネラルエンド,0
1327,5120005023905,新規,0,2023-10-04,2023-10-04,一般社団法人ＬＡＺＺＯ,,その他の設立登記法人,大阪府,大阪市中央区,島之内２丁目１０番３３号,,27,128,5420082,,,,,,,2023-10-04,1,,,,,ラッソ,0
1328,5120005023913,新規,0,2023-10-04,2023-10-04,一般社団法人大阪府飲食業経営審議会,,その他の設立登記法人,大阪府,大阪市淀川区,西中島５丁目１２番８号,,27,123,5320011,,,,,,,2023-10-04,1,,,,,オオサカフインショクギョウケイエイシンギカイ,0
1332,5120101068291,新規,0,2023-10-04,2023-10-04,株式会社ファルシェス,,株式会社,大阪府,大阪狭山市,西山台３丁目２－１４,,27,231,5890022,,,,,,,2023-10-04,1,,,,,ファルシェス,0
1333,5120101068300,新規,0,2023-10-04,2023-10-04,株式会社ケントライズ,,株式会社,大阪府,堺市堺区,東雲西町１丁５番１４－２０１号,,27,141,5900013,,,,,,,2023-10-04,1,,,,,ケントライズ,0
1337,5120901048105,新規,0,2023-10-04,2023-10-04,株式会社ＭａｅｄａＧｒｏｕｐ,,株式会社,大阪府,池田市,荘園２丁目５番５号,,27,204,5630038,,,,,,,2023-10-04,1,,,,,マエダグループ,0
1338,5120901048113,新規,0,2023-10-04,2023-10-04,三幸株式会社,,株式会社,大阪府,吹田市,江の木町８番１２号－１Ｆ,,27,205,5640053,,,,,,,2023-10-04,1,,,,,サンコウ,0
1345,5130001075429,新規,0,2023-10-04,2023-10-04,株式会社オクムラ商会,,株式会社,京都府,京都市中京区,新町通四条上る小結棚町４２８番地新町アイエスビル１階,,26,104,6048223,,,,,,,2023-10-04,1,,,,,オクムラショウカイ,0
1350,5140001131817,新規,0,2023-10-04,2023-10-04,株式会社サニー総合環境サービス,,株式会社,兵庫県,尼崎市,武庫町４丁目５番１号,,28,202,6610044,,,,,,,2023-10-04,1,,,,,サニーソウゴウカンキョウサービス,0
1351,5140001131866,新規,0,2023-10-04,2023-10-04,株式会社植田与一商店,,株式会社,兵庫県,加古郡稲美町,六分ー１１７８番地の２５１,,28,381,6751100,,,,,,,2023-10-04,1,,,,,,0
1352,5140001131890,新規,0,2023-10-04,2023-10-04,株式会社紫光,,株式会社,兵庫県,神戸市中央区,琴ノ緒町５丁目７番４号２０２号室,,28,110,6510094,,,,,,,2023-10-04,1,,,,,,0
1354,5140003019614,新規,0,2023-10-04,2023-10-04,Ｅｐｉｃ　Ｄａｙｓ合同会社,,合同会社,兵庫県,神戸市須磨区,須磨寺町２丁目３番３０号２階,,28,107,6540071,,,,,,,2023-10-04,1,,,,,エピックデイズ,0
1356,5140005026757,新規,0,2023-10-04,2023-10-04,一般社団法人ＴＨＲＥＥ,,その他の設立登記法人,兵庫県,芦屋市,浜芦屋町２番８号,00132120,28,206,6590054,,,,,,,2023-10-04,1,,,,,スリー,0
1361,5170001017807,新規,0,2023-10-04,2023-10-04,株式会社山家漆器店,,株式会社,和歌山県,海南市,岡田２２３番地,,30,202,6420012,,,,,,,2023-10-04,1,,,,,ヤマガシッキテン,0
1362,5170001017815,新規,0,2023-10-04,2023-10-04,株式会社うめまさ住宅設備,,株式会社,和歌山県,和歌山市,鳴神１１５－７,,30,201,6408303,,,,,,,2023-10-04,1,,,,,ウメマサジュウタクセツビ,0
1372,5180001158261,新規,0,2023-10-04,2023-10-04,株式会社ネクストリード,,株式会社,愛知県,名古屋市中村区,名駅５丁目４番１４号花車ビル北館１階,,23,105,4500002,,,,,,,2023-10-04,1,,,,,ネクストリード,0
1373,5180001158278,新規,0,2023-10-04,2023-10-04,株式会社ベルデアクア,,株式会社,愛知県,名古屋市中区,錦３丁目５番３１号,,23,106,4600003,,,,,,,2023-10-04,1,,,,,ベルデアクア,0
1374,5180001158286,新規,0,2023-10-04,2023-10-04,株式会社つばさ,,株式会社,愛知県,名古屋市緑区,八ツ松二丁目１０４番地,,23,114,4580000,,,,,,,2023-10-04,1,,,,,ツバサ,0
1375,5180001158311,新規,0,2023-10-04,2023-10-04,ＤＥＮＹＵ株式会社,,株式会社,愛知県,海部郡大治町,大字花常字郷浦２５番地の１,,23,424,4901136,,,,,,,2023-10-04,1,,,,,デンユウ,0
1376,5180001158328,新規,0,2023-10-04,2023-10-04,株式会社考機,,株式会社,愛知県,名古屋市瑞穂区,井戸田町２丁目２番地の３,,23,108,4670835,,,,,,,2023-10-04,1,,,,,コウキ,0
1381,5180003025823,新規,0,2023-10-04,2023-10-04,合同会社みなと産業,,合同会社,愛知県,名古屋市千種区,汁谷町１４２番地の３,,23,101,4640013,,,,,,,2023-10-04,1,,,,,ミナトサンギョウ,0
1388,5180303005855,新規,0,2023-10-04,2023-10-04,合同会社サークルウェルス,,合同会社,愛知県,豊橋市,中岩田１丁目１３番地の１６,,23,201,4400832,,,,,,,2023-10-04,1,,,,,サークルウェルス,0
1392,5190001030774,新規,0,2023-10-04,2023-10-04,イタマツ株式会社,,株式会社,三重県,三重郡川越町,大字当新田２３番地９,,24,344,5108111,,,,,,,2023-10-04,1,,,,,イタマツ,0
1393,5200001041778,新規,0,2023-10-04,2023-10-04,ルサイインターナショナル株式会社,,株式会社,岐阜県,岐阜市,今川７５番地１,,21,201,5011114,,,,,,,2023-10-04,1,,,,,ルサイインターナショナル,0
1403,5230001020036,新規,0,2023-10-04,2023-10-04,株式会社Ｌｅｄｉｎ,,株式会社,富山県,富山市,上冨居２丁目３番７号,,16,201,9300835,,,,,,,2023-10-04,1,,,,,レディン,0
1405,5240001062218,新規,0,2023-10-04,2023-10-04,株式会社一将,,株式会社,広島県,呉市,吉浦新町１丁目５番６－１１０９号,,34,202,7370845,,,,,,,2023-10-04,1,,,,,イッショウ,0
1407,5250001020315,新規,0,2023-10-04,2023-10-04,山口ネットワークシステム株式会社,,株式会社,山口県,山口市,大内長野６０４－１,,35,203,7530211,,,,,,,2023-10-04,1,,,,,ヤマグチネットワークシステム,0
1422,5290001103223,新規,0,2023-10-04,2023-10-04,カナエテ株式会社,,株式会社,福岡県,福岡市南区,向野２丁目１０番２５号,,40,134,8150035,,,,,,,2023-10-04,1,,,,,カナエテ,0
1431,5290801029915,新規,0,2023-10-04,2023-10-04,株式会社カークラフト,,株式会社,福岡県,北九州市門司区,白野江４丁目１５番２０号,,40,101,8010802,,,,,,,2023-10-04,1,,,,,カークラフト,0
1432,5290801029923,新規,0,2023-10-04,2023-10-04,株式会社雨組,,株式会社,福岡県,北九州市小倉南区,下貫３丁目２１－３０,,40,107,8000236,,,,,,,2023-10-04,1,,,,,アメグミ,0
1437,5310001018633,新規,0,2023-10-04,2023-10-04,株式会社ココユメ,,株式会社,長崎県,長崎市,女の都２丁目１１番１２号,,42,201,8528144,,,,,,,2023-10-04,1,,,,,ココユメ,0
1441,5320001020035,新規,0,2023-10-04,2023-10-04,株式会社アイルクオリティ,,株式会社,大分県,大分市,賀来北２丁目１３番１８－１４０２号ドゥペール賀来,,44,201,8700848,,,,,,,2023-10-04,1,,,,,アイルクオリティ,0
1442,5320001020043,新規,0,2023-10-04,2023-10-04,株式会社矢野工業,,株式会社,大分県,杵築市,大字片野１１５０番地２１０,,44,210,8730007,,,,,,,2023-10-04,1,,,,,ヤノコウギョウ,0
1449,5360001032621,新規,0,2023-10-04,2023-10-04,株式会社ＨＫ　ｄｒｅａｍｓ　Ｒｅａｌｉｚｅ,,株式会社,沖縄県,うるま市,字豊原３６５番地３,,47,213,9042233,,,,,,,2023-10-04,1,,,,,エイチケードリームリアライズ,0
1450,5360001032646,新規,0,2023-10-04,2023-10-04,株式会社のひな,,株式会社,沖縄県,宮古島市,平良字下里５２０地下,,47,214,9060013,,,,,,,2023-10-04,1,,,,,ノヒナ,0
1455,5370001050473,新規,0,2023-10-04,2023-10-04,株式会社あおばネット,,株式会社,宮城県,仙台市青葉区,本町１丁目５番２８号カーニープレイス仙台駅前通６０３号室,,04,101,9800014,,,,,,,2023-10-04,1,,,,,アオバネット,0
1456,5370003006309,新規,0,2023-10-04,2023-10-04,合同会社南光ハウジング,,合同会社,宮城県,仙台市泉区,南光台６丁目１７番３４号,,04,105,9818003,,,,,,,2023-10-04,1,,,,,ナンコウハウジング,0
1464,5410001013608,新規,0,2023-10-04,2023-10-04,株式会社ツーウェイ・コミュニケーション,,株式会社,秋田県,秋田市,旭北錦町１番１４号秋田ファーストビル３Ｆ３０６号室,,05,201,0100923,,,,,,,2023-10-04,1,,,,,ツーウェイコミュニケーション,0
1473,5450001014107,新規,0,2023-10-04,2023-10-04,株式会社浅木塗装,,株式会社,北海道,旭川市,東光十九条９丁目１番７号,,01,204,0788359,,,,,,,2023-10-04,1,,,,,アサギトソウ,0
1483,5500003003110,新規,0,2023-10-04,2023-10-04,クレインテックコンサルティング合同会社,,合同会社,愛媛県,松山市,千舟町５丁目３番１７号４階,,38,201,7900011,,,,,,,2023-10-04,1,,,,,クレインテックコンサルティング,0
1484,5700150121000,新規,0,2023-10-04,2023-10-04,Ｃｈａｎｇｓｈａ　Ｂｅｎｃｈｅｎ　Ｄｉａｎｚｉ　Ｓｈａｎｇｗｕ　Ｙｏｕｘｉａｎ　Ｇｏｎｇｓｉ,,外国会社等,,,,,,,,Ｊｕｎｔａｉ　Ｂｕｌｉｄｉｎｇ　１２０１－１２１４　Ｎ０．３４９　Ｓａｎｙｉ　Ｒｏａｄ，Ｓｉｆａｎｇｐｉｎｇ　Ｓｔｒｅｅｔ，Ｃｈａｎｇｓｈａ，Ｈｕｎａｎ,,,,,,2023-10-04,1,,,,,チヤンシヤシベンチエンイーコマースカンパニリミテツド,0
1485,5700150121009,新規,0,2023-10-04,2023-10-04,ＺＨＥＪＩＡＮＧ　ＭＯＢＩ　ＧＡＲＤＥＮ　ＯＵＴＤＯＯＲ　ＣＯ．，ＬＴＤ．,,外国会社等,,,,,,,,４０４－１　ＨＡＩＧＵＡＮＧ　ＢＵＩＬＤＩＮＧ，　ＤＡＸＩＥ　ＤＥＶＥＬＯＰＭＥＮＴ　ＺＯＮＥ，ＮＩＮＧＢＯ，ＺＨＥＪＩＡＮＧ，ＣＨＩＮＡ,,,,,,2023-10-04,1,,,,,セツコウモビガーデンアウトドアカンパニリミテツド,0
1486,5700150121017,新規,0,2023-10-04,2023-10-04,Ｓｈａｏｙａｎｇ　Ａｏｔｅｘｕｎ　Ｋｅｊｉｙｏｕｘｉａｎｇｏｎｇｓｉ,,外国会社等,,,,,,,,Ｎｏ．２５０３，Ｌｉａｎｄｕ　Ｉｎｔｅｒｎａｔｉｏｎａｌ，Ｘｉｈｕ　Ｒｏａｄ，Ｄａｘｉａｎｇ　Ｄｉｓｔｒｉｃｔ，Ｓｈａｏｙａｎｇ　Ｃｉｔｙ，Ｈｕｎａｎ　Ｐｒｏｖｉｎｃｅ,,,,,,2023-10-04,1,,,,,ショウヨウオクトクシンカギユウゲンコウシ,0
1487,5700150121025,新規,0,2023-10-04,2023-10-04,ｙｉｎｇｋｏｕｌｉｙｏｎｇｓｈｅｎｇｓｈａｎｇｍａｏｙｏｕｘｉａｎｇｏｎｇｓｉ,,外国会社等,,,,,,,,ｌｉａｏｎｉｎｇｓｈｅｎｇｙｉｎｇｋｏｕｓｈｉｂａｙｕｑｕａｎｑｕｂｉｎｈａｉｊｉｅ０４－１３－６（ｆａｎｇｑｕａｎｚｈｅｎｇｂａｚｉｄｉ５００００３４８０ｈａｏ）,,,,,,2023-10-04,1,,,,,インコウリーヨンションシャンマオヨウシエンゴンスー,0
1488,5700150121033,新規,0,2023-10-04,2023-10-04,ＧＯＶＥＥ　ＭＯＭＥＮＴＳ　ＴＲＡＤＩＮＧ　ＬＩＭＩＴＥＤ,,外国会社等,,,,,,,,ＦＬＡＴ／Ｒｏｏｍ　０３０，Ｂｌｏｃｋ　Ｂ，２　／　Ｆ，Ａｎｄａ　Ｉｎｄｕｓｔｒｉａｌ　Ｂｕｉｌｄｉｎｇ，２－６　ＷａｈＳｉｎｇ　Ｓｔｒｅｅｔ，Ｋｗａｉ　Ｃｈｕｎｇ，ＮＴ,,,,,,2023-10-04,1,,,,,ゴヴイーモーメントトレーデイングリミテツド,0
1489,5700150121041,新規,0,2023-10-04,2023-10-04,ｆｕｊｉａｎｓｈｅｎｇｈｕａｔｉａｎｍａｏｙｉｙｏｕｘｉａｎｇｏｎｇｓｉ,,外国会社等,,,,,,,,Ｎｏ．９　Ｗｅｎｔｉ　Ｒｏａｄ，Ｓｈｕｉｎａｎ　Ｔｏｗｎ，Ｊｉａｎｇｌｅ　Ｃｏｕｎｔｙ，Ｓａｎｍｉｎｇ　Ｃｉｔｙ，Ｆｕｊｉａｎ　Ｐｒｏｖｉｎｃｅ，Ｃｈｉｎａ,,,,,,2023-10-04,1,,,,,フクケンシヨウカテンボウエキユウゲンコウシ,0
1495,6010001238970,新規,0,2023-10-04,2023-10-04,株式会社ハートシステム,,株式会社,東京都,千代田区,神田須田町１丁目５番地１０相鉄万世橋ビル,,13,101,1010041,,,,,,,2023-10-04,1,,,,,ハートシステム,0
1496,6010001239003,新規,0,2023-10-04,2023-10-04,デジクロ株式会社,,株式会社,東京都,中央区,銀座１丁目１２番４号Ｎ＆ＥＢＬＤ．６Ｆ,,13,102,1040061,,,,,,,2023-10-04,1,,,,,デジクロ,0
1500,6010003041811,新規,0,2023-10-04,2023-10-04,ＡＳＮＦホールディングス合同会社,,合同会社,東京都,千代田区,丸の内３丁目２番３号,,13,101,1000005,,,,,,,2023-10-04,1,,,,,エーエスエヌエフホールディングス,0
1501,6010005037329,新規,0,2023-10-04,2023-10-04,一般社団法人日本テレワーク学会,,その他の設立登記法人,東京都,千代田区,神田錦町３丁目２１番地１２３３,,13,101,1010054,,,,,,,2023-10-04,1,,,,,ニホンテレワークガッカイ,0
1506,6010403031065,新規,0,2023-10-04,2023-10-04,合同会社芝公園再生エネルギー開発,,合同会社,東京都,港区,芝公園１丁目１番１２号芝公園電気ビルディング７Ｆ,,13,103,1050011,,,,,,,2023-10-04,1,,,,,シバコウエンサイセイエネルギーカイハツ,0
1512,6010801034388,新規,0,2023-10-04,2023-10-04,ＳＹＯＨｃアセットマネジメント株式会社,,株式会社,東京都,大田区,田園調布５丁目５７－７,,13,111,1450071,,,,,,,2023-10-04,1,,,,,エスワイオーエイチシーアセットマネジメント,0
1515,6010901053916,新規,0,2023-10-04,2023-10-04,株式会社優ウェルサポート,,株式会社,東京都,世田谷区,奥沢７丁目６番７号,,13,112,1580083,,,,,,,2023-10-04,1,,,,,ユウウェルサポート,0
1517,6010903008397,新規,0,2023-10-04,2023-10-04,ＤＯ合同会社,,合同会社,東京都,世田谷区,北沢１丁目６－１７,,13,112,1550031,,,,,,,2023-10-04,1,,,,,ドゥ,0
1518,6010905004535,新規,0,2023-10-04,2023-10-04,一般社団法人碧空,,その他の設立登記法人,東京都,世田谷区,松原１丁目３４番１９号,,13,112,1560043,,,,,,,2023-10-04,1,,,,,アオゾラ,0
1530,6011001157269,新規,0,2023-10-04,2023-10-04,株式会社Ｇｌｏｂａｌ８Ｐａｒｔｎｅｒｓ,,株式会社,東京都,目黒区,上目黒１丁目４番２号アジールコフレ中目黒４０１,,13,110,1530051,,,,,,,2023-10-04,1,,,,,グローバルエイトパートナーズ,0
1531,6011001157319,新規,0,2023-10-04,2023-10-04,Ｌｉｆｅｗｏｒｋ　Ｃｏｎｓｕｌｔｉｎｇ　Ｏｆｆｉｃｅ株式会社,,株式会社,東京都,渋谷区,神宮前６丁目２９番４号原宿ｋｏｍｉｙａビル６階,,13,113,1500001,,,,,,,2023-10-04,1,,,,,ライフワークコンサルティングオフィス,0
1532,6011001157335,新規,0,2023-10-04,2023-10-04,マシーンテクノロジーズ株式会社,,株式会社,東京都,渋谷区,恵比寿１丁目７番４－８０５号,,13,113,1500013,,,,,,,2023-10-04,1,,,,,マシーンテクノロジーズ,0
1533,6011001157343,新規,0,2023-10-04,2023-10-04,ケイズ株式会社,,株式会社,東京都,渋谷区,松濤１丁目２３番３号松濤シティハウス３０２,,13,113,1500046,,,,,,,2023-10-04,1,,,,,ケイズ,0
1534,6011001157376,新規,0,2023-10-04,2023-10-04,株式会社Ｍｅｅｔｓ＆Ｄｉａｌｏｇｕｅ,,株式会社,東京都,渋谷区,桜丘町２６番１号,,13,113,1500031,,,,,,,2023-10-04,1,,,,,ミーツアンドダイアログ,0
1535,6011003017644,新規,0,2023-10-04,2023-10-04,合同会社ＴｏｒｃＨ．,,合同会社,東京都,目黒区,下目黒１丁目１番１４号コトノラビル７Ｆ,,13,110,1530064,,,,,,,2023-10-04,1,,,,,トーチ,0
1536,6011003017652,新規,0,2023-10-04,2023-10-04,ファイユー合同会社,,合同会社,東京都,渋谷区,道玄坂１丁目１０番８号渋谷道玄坂東急ビル２Ｆ－Ｃ,,13,113,1500043,,,,,,,2023-10-04,1,,,,,ファイユー,0
1540,6011201024954,新規,0,2023-10-04,2023-10-04,株式会社ＡＮＹＣＵＬ,,株式会社,東京都,中野区,東中野４丁目４番５－３０８号,,13,114,1640003,,,,,,,2023-10-04,1,,,,,エニカル,0
1542,6011301029052,新規,0,2023-10-04,2023-10-04,ｈａｎｅ株式会社,,株式会社,東京都,杉並区,阿佐谷南１丁目３７番１０号トーエイハイツ２３,,13,115,1660004,,,,,,,2023-10-04,1,,,,,ハネ,0
1546,6011503005784,新規,0,2023-10-04,2023-10-04,合同会社エーコービルサービス,,合同会社,東京都,北区,滝野川６丁目４１番１０号山根荘２０１号,,13,117,1140023,,,,,,,2023-10-04,1,,,,,エーコービルサービス,0
1547,6011601027160,新規,0,2023-10-04,2023-10-04,株式会社中野ホームメンテナンス,,株式会社,東京都,練馬区,北町８丁目５番２－１０５号,,13,120,1790081,,,,,,,2023-10-04,1,,,,,ナカノホームメンテナンス,0
1548,6011603004075,新規,0,2023-10-04,2023-10-04,ワンズビー合同会社,,合同会社,東京都,練馬区,大泉学園町６丁目１５番３２号パレグリシーヌ１０３,,13,120,1780061,,,,,,,2023-10-04,1,,,,,ワンズビー,0
1551,6011803005864,新規,0,2023-10-04,2023-10-04,ＹＢ合同会社,,合同会社,東京都,葛飾区,東堀切２丁目２番２２号,,13,122,1240004,,,,,,,2023-10-04,1,,,,,ワイビー,0
1554,6012803003197,新規,0,2023-10-04,2023-10-04,日本学習塾デザインセンター合同会社,,合同会社,東京都,国立市,富士見台１丁目１７番１３カワイビル４０１,,13,215,1860003,,,,,,,2023-10-04,1,,,,,ニホンガクシュウジュクデザインセンター,0
1569,6020003024682,新規,0,2023-10-04,2023-10-04,合同会社ＨＯＭＯＫＵ,,合同会社,神奈川県,横浜市中区,本牧満坂１８７－２５４,,14,104,2310833,,,,,,,2023-10-04,1,,,,,ホモク,0
1570,6020003024724,新規,0,2023-10-04,2023-10-04,合同会社燦陽,,合同会社,神奈川県,川崎市宮前区,鷺沼３丁目２番地２エアフォルク鷺沼７０２,,14,136,2160004,,,,,,,2023-10-04,1,,,,,サンヨウ,0
1572,6021001080321,新規,0,2023-10-04,2023-10-04,株式会社富田電機,,株式会社,神奈川県,相模原市中央区,田名３３６２番地１,,14,152,2520244,,,,,,,2023-10-04,1,,,,,トミタデンキ,0
1573,6021001080338,新規,0,2023-10-04,2023-10-04,株式会社Ｃｒａｓｐｅｄｉａ,,株式会社,神奈川県,茅ヶ崎市,本村２丁目１番２８号サニーガーデン茅ヶ崎１０１,,14,207,2530042,,,,,,,2023-10-04,1,,,,,クラスペディア,0
1594,6030001156238,新規,0,2023-10-04,2023-10-04,株式会社Ｊ　Ａ　ＫＥＮＫＩ,,株式会社,埼玉県,久喜市,本町４丁目３番１１号グランハイム駒３０３号,,11,232,3460005,,,,,,,2023-10-04,1,,,,,ジェイエイケンキ,0
1595,6030001156287,新規,0,2023-10-04,2023-10-04,株式会社Ｄｏｅａｓｙ,,株式会社,埼玉県,戸田市,喜沢１丁目１４番８号,,11,224,3350013,,,,,,,2023-10-04,1,,,,,ドゥイージー,0
1604,6040003023443,新規,0,2023-10-04,2023-10-04,合同会社Ｂｌｕｅ　Ｍｏｕｎｔａｉｎ,,合同会社,千葉県,千葉市中央区,本千葉町９番１３号２階,,12,101,2600014,,,,,,,2023-10-04,1,,,,,ブルーマウンテン,0
1608,6070001020266,新規,0,2023-10-04,2023-10-04,山一産業株式会社,,株式会社,群馬県,太田市,茂木町７４９番地,,10,205,3730809,,,,,,,2023-10-04,1,,,,,,0
1611,6070001040933,新規,0,2023-10-04,2023-10-04,株式会社アクティナワークス,,株式会社,群馬県,みどり市,大間々町大間々１２８番地１,,10,212,3760101,,,,,,,2023-10-04,1,,,,,アクティナワークス,0
1615,6080005007572,新規,0,2023-10-04,2023-10-04,医療法人社団志晴会,,その他の設立登記法人,静岡県,静岡市葵区,北安東４丁目３１番５号,,22,101,4200881,,,,,,,2023-10-04,1,,,,,シセイカイ,0
1619,6080401026770,新規,0,2023-10-04,2023-10-04,株式会社アドバンテージ,,株式会社,静岡県,磐田市,富士見町１丁目８番地１２,,22,211,4380083,,,,,,,2023-10-04,1,,,,,アドバンテージ,0
1624,6100001036829,新規,0,2023-10-04,2023-10-04,株式会社ＮＫ’ｓ,,株式会社,長野県,中野市,大字小田中３９２番地１,,20,211,3830037,,,,,,,2023-10-04,1,,,,,エヌケーズ,0
1625,6100001036853,新規,0,2023-10-04,2023-10-04,株式会社郷土庵,,株式会社,長野県,長野市,三輪１丁目７番１９号,,20,201,3800803,,,,,,,2023-10-04,1,,,,,キョウドアン,0
1626,6100005013072,新規,0,2023-10-04,2023-10-04,一般社団法人環境教育支援機構,,その他の設立登記法人,長野県,松本市,大字寿小赤９９７番地８,,20,202,3990024,,,,,,,2023-10-04,1,,,,,カンキョウキョウイクシエンキコウ,0
1628,6110001037875,新規,0,2023-10-04,2023-10-04,株式会社ＮＭＴ,,株式会社,新潟県,新潟市江南区,西野３８３番地,,15,104,9500106,,,,,,,2023-10-04,1,,,,,エヌエムティ,0
1633,6120001258512,新規,0,2023-10-04,2023-10-04,株式会社ＳＨＩＮＫＡコミュニケーションズ,,株式会社,大阪府,大阪市中央区,本町橋６番１９号本町第２今岡ビル５０２号,,27,128,5400029,,,,,,,2023-10-04,1,,,,,シンカコミュニケーションズ,0
1634,6120001258537,新規,0,2023-10-04,2023-10-04,株式会社Ｂｅｅｓｋｙｄｅｓｉｇｎ,,株式会社,大阪府,大阪市生野区,巽東２丁目８－３２荻田第４ビル４０７号,,27,116,5440014,,,,,,,2023-10-04,1,,,,,ビースカイデザイン,0
1636,6120003025010,新規,0,2023-10-04,2023-10-04,ワークソリューションズ合同会社,,合同会社,大阪府,大阪市北区,梅田１丁目２番２号大阪駅前第２ビル１２－１２,,27,127,5300001,,,,,,,2023-10-04,1,,,,,ワークソリューションズ,0
1637,6120003025019,新規,0,2023-10-04,2023-10-04,合同会社ＯＴＫ,,合同会社,大阪府,大阪市平野区,長吉六反５丁目６番３２号ティアラコートＢ棟１０２号,,27,126,5470012,,,,,,,2023-10-04,1,,,,,オーティーケー,0
1644,6120101068290,新規,0,2023-10-04,2023-10-04,ＪＡＰＡＮ　ＯＮＫＫ株式会社,,株式会社,大阪府,貝塚市,二色３丁目１番３号,,27,208,5970091,,,,,,,2023-10-04,1,,,,,ジャパンオーエヌケーケー,0
1650,6122001037433,新規,0,2023-10-04,2023-10-04,株式会社唯建装,,株式会社,大阪府,八尾市,東太子２丁目１番１０－７０６号,,27,212,5810062,,,,,,,2023-10-04,1,,,,,ユイケンソウ,0
1651,6122001037441,新規,0,2023-10-04,2023-10-04,株式会社ぬり替えいっちゃん,,株式会社,大阪府,東大阪市,西石切町６丁目３番３９号,,27,227,5798013,,,,,,,2023-10-04,1,,,,,ヌリカエイッチャン,0
1653,6122003002690,新規,0,2023-10-04,2023-10-04,ｍｕｓｕｂｕ８合同会社,,合同会社,大阪府,東大阪市,上小阪１丁目６－４,,27,227,5770806,,,,,,,2023-10-04,1,,,,,ムスブ,0
1658,6130003009045,新規,0,2023-10-04,2023-10-04,ＫＭＴリサーチ合同会社,,合同会社,京都府,京都市下京区,朱雀宝蔵町４４番地協栄ビル２階京都朱雀スタジオ,,26,106,6008846,,,,,,,2023-10-04,1,,,,,ケイエムティリサーチ,0
1660,6150003003079,新規,0,2023-10-04,2023-10-04,Ｂｌｕｅ　Ｈａｒｍｏｎｙ合同会社,,合同会社,奈良県,奈良市,菅原東２丁目２６番７号,,29,201,6310842,,,,,,,2023-10-04,1,,,,,ブルーハーモニー,0
1670,6180001158186,新規,0,2023-10-04,2023-10-04,株式会社ＡＲＡＩ,,株式会社,愛知県,名古屋市中川区,応仁町１丁目５番地,,23,110,4540042,,,,,,,2023-10-04,1,,,,,アライ,0
1671,6180001158252,新規,0,2023-10-04,2023-10-04,株式会社ｓｐａｒｋ,,株式会社,愛知県,名古屋市守山区,森孝３丁目１８０９番地の１ルミナスＩＩ１０３号,00132119,23,113,4630035,,,,,,,2023-10-04,1,,,,,スパーク,0
1672,6180001158302,新規,0,2023-10-04,2023-10-04,株式会社Ｈ・Ｔ企画,,株式会社,愛知県,名古屋市中区,葵１丁目２７番３７号,,23,106,4600006,,,,,,,2023-10-04,1,,,,,エイチティーキカク,0
1677,6180003025806,新規,0,2023-10-04,2023-10-04,合同会社スカイハイ,,合同会社,愛知県,日進市,栄２丁目１００１番地プライムガーデン日進壱番館１１０８,,23,230,4700113,,,,,,,2023-10-04,1,,,,,スカイハイ,0
1678,6180003025814,新規,0,2023-10-04,2023-10-04,合同会社ライゼン,,合同会社,愛知県,一宮市,浅井町河端字広畑７－１０１号室,,23,203,4910111,,,,,,,2023-10-04,1,,,,,ライゼン,0
1681,6180301037866,新規,0,2023-10-04,2023-10-04,株式会社ＨＥＲＯＢＯＸ,,株式会社,愛知県,豊川市,美園３丁目１１番地５,,23,207,4410106,,,,,,,2023-10-04,1,,,,,ヒーローボックス,0
1683,6190001030773,新規,0,2023-10-04,2023-10-04,株式会社葛西企画,00132121,株式会社,三重県,鈴鹿市,岡田２丁目１７番３３号花水木１０７,,24,207,5130027,,,,,,,2023-10-04,1,,,,,カサイキカク,0
1684,6190001030781,新規,0,2023-10-04,2023-10-04,株式会社アップフィールド,,株式会社,三重県,四日市市,久保田２丁目３－１８プリンセスマンション１Ａ,,24,202,5100821,,,,,,,2023-10-04,1,,,,,アップフィールド,0
1687,6190003004461,新規,0,2023-10-04,2023-10-04,合同会社アテナ,,合同会社,三重県,員弁郡東員町,大字六把野新田１１４１番地１,,24,324,5110242,,,,,,,2023-10-04,1,,,,,アテナ,0
1689,6200001041769,新規,0,2023-10-04,2023-10-04,株式会社エルドラド,,株式会社,岐阜県,羽島郡笠松町,円城寺７４０番地,,21,303,5016035,,,,,,,2023-10-04,1,,,,,エルドラド,0
1690,6200001041785,新規,0,2023-10-04,2023-10-04,株式会社鈴木装飾,,株式会社,岐阜県,岐阜市,古市場３７３番地,,21,201,5011121,,,,,,,2023-10-04,1,,,,,スズキソウショク,0
1691,6200003006101,新規,0,2023-10-04,2023-10-04,合同会社Ｙ‐ＮＥＸＴ,,合同会社,岐阜県,岐阜市,茜部新所３丁目１２０番地１キャッスル茜４Ｂ,,21,201,5008263,,,,,,,2023-10-04,1,,,,,ワイネクスト,0
1699,6240001062183,新規,0,2023-10-04,2023-10-04,株式会社Ｋ’ｓ　Ｃｏｒｐｏｒａｔｉｏｎ,,株式会社,広島県,福山市,神辺町字徳田１１４５番６,,34,207,7202126,,,,,,,2023-10-04,1,,,,,ケーズコーポレーション,0
1700,6240001062191,新規,0,2023-10-04,2023-10-04,ＴＥＡｓｏｎａｂｌｅ株式会社,,株式会社,広島県,広島市東区,若草町１１番１－３２０４号,,34,102,7320053,,,,,,,2023-10-04,1,,,,,ティーズナブル,0
1701,6240001062200,新規,0,2023-10-04,2023-10-04,株式会社エイチエレック,,株式会社,広島県,福山市,西町１丁目１番１号ｉｔｉＳＥＴＯＵＣＨＩ１Ｆ事務所１４,,34,207,7200067,,,,,,,2023-10-04,1,,,,,エイチエレック,0
1702,6240003006320,新規,0,2023-10-04,2023-10-04,合同会社Ｆｒｅｙ　Ａ’ｃ,,合同会社,広島県,庄原市,東城町千鳥５１１,,34,210,7295503,,,,,,,2023-10-04,1,,,,,フレイアーク,0
1708,6260001038371,新規,0,2023-10-04,2023-10-04,株式会社岡山コネクト,,株式会社,岡山県,岡山市北区,北長瀬表町２丁目１７番８０号ＢＲＡＮＣＨ岡山北長瀬ハッシュタグ岡山,,33,101,7000962,,,,,,,2023-10-04,1,,,,,オカヤマコネクト,0
1717,6290001103214,新規,0,2023-10-04,2023-10-04,株式会社コネクト電器サービス,,株式会社,福岡県,福岡市南区,屋形原５丁目５番７号,,40,134,8111351,,,,,,,2023-10-04,1,,,,,コネクトデンキサービス,0
1718,6290001103239,新規,0,2023-10-04,2023-10-04,株式会社おばたメディカルサービス,,株式会社,福岡県,福岡市早良区,田村５丁目１６番３８号,,40,137,8140175,,,,,,,2023-10-04,1,,,,,オバタメディカルサービス,0
1719,6290001103263,新規,0,2023-10-04,2023-10-04,リディアデザイン株式会社,,株式会社,福岡県,福岡市中央区,白金２丁目１１番９号ＣＲ福岡ビル,,40,133,8100012,,,,,,,2023-10-04,1,,,,,リディアデザイン,0
1721,6290003014384,新規,0,2023-10-04,2023-10-04,合同会社熊本開発,,合同会社,福岡県,福岡市博多区,春町３丁目３番７号,,40,132,8120872,,,,,,,2023-10-04,1,,,,,クマモトカイハツ,0
1724,6310001018632,新規,0,2023-10-04,2023-10-04,株式会社江迎,,株式会社,長崎県,佐世保市,江迎町田ノ元５９番地１,,42,202,8596134,,,,,,,2023-10-04,1,,,,,エムカエ,0
1725,6310001018640,新規,0,2023-10-04,2023-10-04,コウハク株式会社,,株式会社,長崎県,佐世保市,早岐１丁目１６番１９－５０４号,,42,202,8593215,,,,,,,2023-10-04,1,,,,,コウハク,0
1727,6320001020034,新規,0,2023-10-04,2023-10-04,株式会社川野設備,,株式会社,大分県,玖珠郡玖珠町,大字森１３番地の１１,,44,462,8794404,,,,,,,2023-10-04,1,,,,,カワノセツビ,0
1728,6320001020042,新規,0,2023-10-04,2023-10-04,皇栄興業株式会社,,株式会社,大分県,大分市,大字三佐９７７番地の１,,44,201,8700108,,,,,,,2023-10-04,1,,,,,コウエイコウギョウ,0
1739,6340001025948,新規,0,2023-10-04,2023-10-04,株式会社ＳＡＢＣＯＳ,,株式会社,鹿児島県,奄美市,名瀬矢之脇町４番２４号,,46,222,8940033,,,,,,,2023-10-04,1,,,,,サブコス,0
1747,6360001032620,新規,0,2023-10-04,2023-10-04,株式会社りゅうがはこ不動産,,株式会社,沖縄県,那覇市,壺屋２丁目１８－６當間ビル２－Ｃ,,47,201,9020065,,,,,,,2023-10-04,1,,,,,リュウガハコフドウサン,0
1748,6360003013346,新規,0,2023-10-04,2023-10-04,合同会社興成建設,,合同会社,沖縄県,豊見城市,字上田２１４番地３,,47,212,9010243,,,,,,,2023-10-04,1,,,,,コウセイケンセツ,0
1755,6370001050349,新規,0,2023-10-04,2023-10-04,株式会社住設プランニング仙台,,株式会社,宮城県,仙台市泉区,南光台７丁目２３番４１,,04,105,9818003,,,,,,,2023-10-04,1,,,,,ジュウセツプランニングセンダイ,0
1757,6380001034020,新規,0,2023-10-04,2023-10-04,株式会社ハンドレッドメディカル,,株式会社,福島県,郡山市,大槻町字西宮前４番地の１２,,07,203,9630201,,,,,,,2023-10-04,1,,,,,ハンドレッドメディカル,0
1760,6390001017387,新規,0,2023-10-04,2023-10-04,株式会社Ｃｒａｆｔ‐Ａ,,株式会社,山形県,米沢市,窪田町矢野目９４４番地,,06,202,9920002,,,,,,,2023-10-04,1,,,,,クラフトエース,0
1778,6430005014797,新規,0,2023-10-04,2023-10-04,一般社団法人北海道空き家活用支援協会,,その他の設立登記法人,北海道,札幌市東区,東苗穂二条３丁目３－４３,,01,103,0070802,,,,,,,2023-10-04,1,,,,,ホッカイドウアキヤカツヨウシエンキョウカイ,0
1780,6440003001549,新規,0,2023-10-04,2023-10-04,合同会社ｆｌａｔ　ｃａｒｅ,,合同会社,北海道,函館市,日吉町３丁目３９番１２号,,01,202,0410841,,,,,,,2023-10-04,1,,,,,フラットケア,0
1788,6480001012239,新規,0,2023-10-04,2023-10-04,株式会社ウズシオ,,株式会社,徳島県,鳴門市,鳴門町高島字浜中１４１－２,,36,202,7720051,,,,,,,2023-10-04,1,,,,,,0
1793,6500005008643,新規,0,2023-10-04,2023-10-04,一般社団法人千代丸水産,,その他の設立登記法人,愛媛県,宇和島市,吉田町南君８１番地,,38,203,7993771,,,,,,,2023-10-04,1,,,,,チヨマルスイサン,0
1795,6700150121008,新規,0,2023-10-04,2023-10-04,Ｑｕａｎｚｈｏｕ　Ｊｉｕｈａｏ　Ｎｅｔｗｏｒｋ　Ｔｅｃｈｎｏｌｏｇｙ　Ｃｏ．，Ｌｔｄ,,外国会社等,,,,,,,,２ｎｄ　Ｆｌｏｏｒ，Ｎｏ．１６７　Ｑｉｙｉ　Ｒｏａｄ　Ｈａｉｗｅｉ　Ｃｈｅｎｄａｉ　Ｊｉｎｊｉａｎｇ　Ｃｉｔｙ　Ｑｕａｎｚｈｏｕ　Ｆｕｊｉａｎ　Ｃｈｉｎａ,,,,,,2023-10-04,1,,,,,センシユウキユウゴウネツトワークテクノロジーカンパニリミテツド,0
1796,6700150121024,新規,0,2023-10-04,2023-10-04,ｓｈｅｎｚｈｅｎｓｈｉｈｕａｌｉｂａｏｋｅｊｉｙｏｕｘｉａｎｇｏｎｇｓｉ,,外国会社等,,,,,,,,ｓｈｅｎｚｈｅｎｓｈｉｂａｏａｎｑｕｓｈａｊｉｎｇｊｉｅｄａｏｓｈａｙｉｓｈｅｑｕ　ｄｏｎｇｊｉａｎｇｈｕａｎｇｂａｏｇｏｎｇｙｅｃｈｅｎｇＢｄｏｎｇ２ｃｅｎｇ　ｓｈｅｎｚｈｅｎ　ｇｕａｎｇｄｏｎｇｓｈｅｎｇ　５１８１０３　ＣＮ,,,,,,2023-10-04,1,,,,,シェンジェンシーフワーリーバオコージーヨウシエンゴンスー,0
1797,6700150121032,新規,0,2023-10-04,2023-10-04,Ｓｈｅｎｚｈｅｎ　Ｍｉｉｍａｌｌ　Ｔｅｃｈｎｏｌｏｇｙ　Ｃｏ．，Ｌｔｄ,,外国会社等,,,,,,,,ＺｈｅｎＸｉｎｇ　Ｒｏａｄ　Ｎｏ．３３，Ｆｕｔｉａｎ　Ｄｉｓｔｒｉｃｔ，Ｒｏｏｍ　６６２　ＨｕａＦａ　Ｂｕｉｌｄｉｎｇ，ＳｈｅｎＺｈｅｎ　ＧｕａｎｇＤｏｎｇ，Ｃｈｉｎａ,,,,,,2023-10-04,1,,,,,シンセンシミーモールテクノロジーカンパニリミテツド,0
1798,6700150121040,新規,0,2023-10-04,2023-10-04,Ｆｏｓｈａｎ　Ｍｉｃｒｏ－ｈｅｒｔｚ　Ｔｅｃｈｎｏｌｏｇｙ　ＣＯ．，Ｌｔｄ,,外国会社等,,,,,,,,Ｎｏ．４４４Ａ　Ｊｉｅｂｉａｎ　Ｒｏａｄ　Ｈｕａｎａｎ　Ｚｈｕａｎｓｈｉ　Ｃａｉｌｉａｏ　Ｃｈｅｎｇ　Ｎａｎｈａｉ　Ｄｉｓｔｒｉｃｔ　Ｇｕａｎｇｄｏｎｇ　Ｆｏｓｈａｎ　Ｃｈｉｎａ,,,,,,2023-10-04,1,,,,,ブツザンマイクロヘルツテクノロジーカンパニリミテツド,0
1799,6700150121065,新規,0,2023-10-04,2023-10-04,南会津町観光物産協会,,その他,福島県,南会津郡南会津町,永田字枇杷影２,,07,368,9670006,,,,,,,2023-10-04,1,,,,,ミナミアイヅマチカンコウブッサンキョウカイ,0
1816,7010001238879,新規,0,2023-10-04,2023-10-04,株式会社千夏堂,,株式会社,東京都,中央区,佃２丁目１２番６－４０３号,,13,102,1040051,,,,,,,2023-10-04,1,,,,,セナツドウ,0
1817,7010001238912,新規,0,2023-10-04,2023-10-04,株式会社にこぱん,,株式会社,東京都,中央区,日本橋３丁目２番１４号新槇町ビル別館第一１階,,13,102,1030027,,,,,,,2023-10-04,1,,,,,ニコパン,0
1818,7010001238929,新規,0,2023-10-04,2023-10-04,ＡＫシステムコンサルティング株式会社,,株式会社,東京都,中央区,日本橋室町１丁目１１番１２号日本橋水野ビル７階,,13,102,1030022,,,,,,,2023-10-04,1,,,,,エーケーシステムコンサルティング,0
1819,7010001238937,新規,0,2023-10-04,2023-10-04,株式会社ｔｅｋｅｔ,,株式会社,東京都,中央区,日本橋人形町３丁目１２番１０号,,13,102,1030013,,,,,,,2023-10-04,1,,,,,テケト,0
1820,7010001238953,新規,0,2023-10-04,2023-10-04,株式会社ＣＡＩＲＮ,,株式会社,東京都,千代田区,神田美倉町９番地神田美倉町ビル１３０１号室,,13,101,1010038,,,,,,,2023-10-04,1,,,,,ケルン,0
1821,7010003041819,新規,0,2023-10-04,2023-10-04,ナカラボ合同会社,,合同会社,東京都,中央区,銀座１丁目１２番４号Ｎ＆ＥＢＬＤ．６Ｆ,,13,102,1040061,,,,,,,2023-10-04,1,,,,,ナカラボ,0
1822,7010003041835,新規,0,2023-10-04,2023-10-04,合同会社ＩＲＳ３,,合同会社,東京都,千代田区,内幸町１丁目１番１号,,13,101,1000011,,,,,,,2023-10-04,1,,,,,アイアールエススリー,0
1829,7010401177487,新規,0,2023-10-04,2023-10-04,ＳＰＳ　ＪＡＰＡＮ株式会社,,株式会社,東京都,港区,虎ノ門１丁目１７番１号虎ノ門ヒルズビジネスタワー１５階,,13,103,1050001,,,,,,,2023-10-04,1,,,,,エスピーエスジャパン,0
1830,7010401177520,新規,0,2023-10-04,2023-10-04,株式会社全日本国民食,,株式会社,東京都,港区,浜松町２丁目２番１５号浜松町ダイヤビル２Ｆ,,13,103,1050013,,,,,,,2023-10-04,1,,,,,ゼンニホンコクミンショク,0
1831,7010401177586,新規,0,2023-10-04,2023-10-04,ソニーサーモテクノロジー株式会社,,株式会社,東京都,港区,港南１丁目７番１号,,13,103,1080075,,,,,,,2023-10-04,1,,,,,ソニーサーモテクノロジー,0
1835,7010403031048,新規,0,2023-10-04,2023-10-04,マルコンサルティング合同会社,,合同会社,東京都,港区,芝浦３丁目１７番１１号天翔田町ビル４０７号,,13,103,1080023,,,,,,,2023-10-04,1,,,,,マルコンサルティング,0
1836,7010403031080,新規,0,2023-10-04,2023-10-04,Ｈｏｔｅｌ　Ａｃｑｕｉｓｉｔｉｏｎ合同会社,,合同会社,東京都,港区,六本木６丁目２番３１号,,13,103,1060032,,,,,,,2023-10-04,1,,,,,ホテルアクイジション,0
1837,7010505003457,新規,0,2023-10-04,2023-10-04,一般社団法人スマートビルディングコンソーシアム,,その他の設立登記法人,東京都,台東区,西浅草３丁目２２番２０号,,13,106,1110035,,,,,,,2023-10-04,1,,,,,スマートビルディングコンソーシアム,0
1839,7010701044916,新規,0,2023-10-04,2023-10-04,株式会社イズモ企画,,株式会社,東京都,品川区,上大崎３丁目７－５,,13,109,1410021,,,,,,,2023-10-04,1,,,,,イズモキカク,0
1843,7010901053898,新規,0,2023-10-04,2023-10-04,ＨＲ　Ｍａｎａｇｅｍｅｎｔ　Ｓｏｌｕｔｉｏｎｓ株式会社,,株式会社,東京都,世田谷区,深沢１丁目１５番３号セジュール・ウィット２０２,,13,112,1580081,,,,,,,2023-10-04,1,,,,,エイチアールテックマネジメントソリューションズ,0
1844,7010901053915,新規,0,2023-10-04,2023-10-04,株式会社ｍｏｎａｃａ,,株式会社,東京都,世田谷区,玉川３丁目２０番２号マノア玉川第３ビル５０１号室,,13,112,1580094,,,,,,,2023-10-04,1,,,,,モナカ,0
1845,7010901053948,新規,0,2023-10-04,2023-10-04,株式会社ＡＮＤＣＯＲＥ,,株式会社,東京都,世田谷区,奥沢１丁目１５番１４－１１２号,,13,112,1580083,,,,,,,2023-10-04,1,,,,,アンコール,0
1852,7011001157276,新規,0,2023-10-04,2023-10-04,株式会社ＴＫＯｃｅａｎ,,株式会社,東京都,渋谷区,神宮前６丁目２３－４桑野ビル２階,,13,113,1500001,,,,,,,2023-10-04,1,,,,,ティーケーオーシャン,0
1853,7011001157326,新規,0,2023-10-04,2023-10-04,株式会社グルーヴコミュニティカンパニー,,株式会社,東京都,渋谷区,円山町６番７号,,13,113,1500044,,,,,,,2023-10-04,1,,,,,,0
1854,7011003017643,新規,0,2023-10-04,2023-10-04,ｏｋｉ　ｄｅｓｉｇｎ合同会社,,合同会社,東京都,渋谷区,神宮前１丁目２１番１－２０１号,,13,113,1500001,,,,,,,2023-10-04,1,,,,,オキデザイン,0
1855,7011003017651,新規,0,2023-10-04,2023-10-04,合同会社喜神,,合同会社,東京都,渋谷区,渋谷２丁目１９番１５号宮益坂ビルディング６０９,,13,113,1500002,,,,,,,2023-10-04,1,,,,,キシン,0
1857,7011101104608,新規,0,2023-10-04,2023-10-04,リノコンシェルサポート株式会社,,株式会社,東京都,新宿区,新宿６丁目２３番７号新宿Ｓビル２０６号室,,13,104,1600022,,,,,,,2023-10-04,1,,,,,リノコンシェルサポート,0
1859,7011105010810,新規,0,2023-10-04,2023-10-04,一般社団法人日本脳神経血管内治療学会,,その他の設立登記法人,東京都,新宿区,信濃町３５番地,,13,104,1600016,,,,,,,2023-10-04,1,,,,,ニホンノウシンケイケッカンナイチリョウガッカイ,0
1861,7011201024953,新規,0,2023-10-04,2023-10-04,株式会社ＯＬＡ　ａｒｃｈｉｔｅｃｔｓ,,株式会社,東京都,中野区,中野５丁目６７番７号プラザ中野８０１,,13,114,1640001,,,,,,,2023-10-04,1,,,,,オラアーキテクツ,0
1862,7011203004185,新規,0,2023-10-04,2023-10-04,Ｒｉｅ　Ｎｉｓｈｉｈａｒａ合同会社,,合同会社,東京都,中野区,鷺宮３丁目１番８号,,13,114,1650032,,,,,,,2023-10-04,1,,,,,リエニシハラ,0
1866,7011401025495,新規,0,2023-10-04,2023-10-04,株式会社ライスビレッジ,,株式会社,東京都,板橋区,小豆沢２丁目３４番５号,,13,119,1740051,,,,,,,2023-10-04,1,,,,,ライスビレッジ,0
1867,7011401025504,新規,0,2023-10-04,2023-10-04,株式会社ＴＳリモ,,株式会社,東京都,板橋区,板橋４丁目４７番５号,,13,119,1730004,,,,,,,2023-10-04,1,,,,,ティーエスリモ,0
1868,7011403004118,新規,0,2023-10-04,2023-10-04,合同会社ＣＨＡＮＣＥ,,合同会社,東京都,板橋区,徳丸１丁目４８番７号,,13,119,1750083,,,,,,,2023-10-04,1,,,,,チャンス,0
1869,7011503005783,新規,0,2023-10-04,2023-10-04,合同会社Ｍｅｄｉｃａｌ　Ｂｅａｕｔｙ,,合同会社,東京都,荒川区,東日暮里４丁目３４－１０ＬＥＸＥ日暮里ｉｄ９０１,,13,118,1160014,,,,,,,2023-10-04,1,,,,,メディカルビューティー,0
1872,7011603004074,新規,0,2023-10-04,2023-10-04,合同会社ＦＵＬＬ　ＨＯＵＳＥ,,合同会社,東京都,練馬区,石神井台７丁目１３番８号アルトモア２０４,,13,120,1770045,,,,,,,2023-10-04,1,,,,,フルハウス,0
1877,7011801043106,新規,0,2023-10-04,2023-10-04,株式会社ジェネコーポレーション,,株式会社,東京都,足立区,千住３丁目６番地ツオード千住壱番館１００１,,13,121,1200034,,,,,,,2023-10-04,1,,,,,ジェネコーポレーション,0
1878,7011801043114,新規,0,2023-10-04,2023-10-04,株式会社Ｈａｗｋ　Ｅｙｅ,,株式会社,東京都,足立区,柳原２丁目２５番１５号,,13,121,1200022,,,,,,,2023-10-04,1,,,,,ホークアイ,0
1879,7011803005871,新規,0,2023-10-04,2023-10-04,三橋設備工業合同会社,,合同会社,東京都,足立区,伊興５丁目９番２４号,,13,121,1210823,,,,,,,2023-10-04,1,,,,,ミツハシセツビコウギョウ,0
1882,7012701017868,新規,0,2023-10-04,2023-10-04,株式会社ＹＴＴ,,株式会社,東京都,清瀬市,松山１丁目２７番４号,,13,221,2040022,,,,,,,2023-10-04,1,,,,,ワイティーティー,0
1884,7013301051431,新規,0,2023-10-04,2023-10-04,株式会社ＡＣＳ,,株式会社,東京都,豊島区,東池袋１丁目３３番４号,,13,116,1700013,,,,,,,2023-10-04,1,,,,,エーシーエス,0
1894,7021001080312,新規,0,2023-10-04,2023-10-04,株式会社ＲＩＤＥ,,株式会社,神奈川県,藤沢市,鵠沼石上２丁目５番１号湘南鵠沼ＢＬＤ３階Ｃ号室,,14,205,2510025,,,,,,,2023-10-04,1,,,,,ライド,0
1900,7021003013658,新規,0,2023-10-04,2023-10-04,合同会社パルテール,,合同会社,神奈川県,藤沢市,円行１１００,,14,205,2520805,,,,,,,2023-10-04,1,,,,,パルテール,0
1907,7030001156237,新規,0,2023-10-04,2023-10-04,株式会社Ｌ．コンパス,,株式会社,埼玉県,さいたま市浦和区,前地３丁目８－１７ユニピエール２０２号室,,11,107,3300053,,,,,,,2023-10-04,1,,,,,エルコンパス,0
1914,7030003022635,新規,0,2023-10-04,2023-10-04,合同会社メタル,,合同会社,埼玉県,八潮市,中央１丁目７番１１号,,11,234,3400816,,,,,,,2023-10-04,1,,,,,メタル,0
1922,7040003023442,新規,0,2023-10-04,2023-10-04,合同会社トランジション,,合同会社,千葉県,長生郡長生村,中之郷６９０－１１,,12,423,2994346,,,,,,,2023-10-04,1,,,,,トランジション,0
1923,7040005022137,新規,0,2023-10-04,2023-10-04,一般社団法人東京ＴＡＭＡ交響楽団,,その他の設立登記法人,千葉県,木更津市,畑沢２丁目９番６号,,12,206,2920825,,,,,,,2023-10-04,1,,,,,トウキョウタマコウキョウガクダン,0
1928,7060003004738,新規,0,2023-10-04,2023-10-04,ＩＭＴＩＡＺ＆ＳＯＮＳ合同会社,,合同会社,栃木県,小山市,大字南和泉９５６番地１－Ａ東,,09,208,3230816,,,,,,,2023-10-04,1,,,,,イムティアズアンドサンズ,0
1937,7080101024256,新規,0,2023-10-04,2023-10-04,Ｋ‐ＬＩＦＥ株式会社,,株式会社,静岡県,伊豆の国市,南條８５２番地の４,,22,225,4102114,,,,,,,2023-10-04,1,,,,,ケーライフ,0
1938,7080105006366,新規,0,2023-10-04,2023-10-04,一般社団法人沼津しらす鰻採捕組合,,その他の設立登記法人,静岡県,沼津市,我入道東町１６１番地,,22,203,4100823,,,,,,,2023-10-04,1,,,,,ヌマヅシラスウナギサイホクミアイ,0
1941,7080403004880,新規,0,2023-10-04,2023-10-04,合同会社キット,,合同会社,静岡県,浜松市中区,和合町３６９番地の１,,22,131,4338125,,,,,,,2023-10-04,1,,,,,キット,0
1942,7100001007218,新規,0,2023-10-04,2023-10-04,株式会社佐久ロイヤル,,株式会社,長野県,佐久市,中込８８番地,,20,217,3850051,,,,,,,2023-10-04,1,,,,,サクロイヤル,0
1944,7100001036828,新規,0,2023-10-04,2023-10-04,株式会社Ｍａｔｓｕｍｏｔｏ　Ｅｘｐｅｒｉｅｎｃｅ,,株式会社,長野県,松本市,大手３丁目５番１３号,,20,202,3900874,,,,,,,2023-10-04,1,,,,,マツモトエクスペリエンス,0
1948,7110001037882,新規,0,2023-10-04,2023-10-04,株式会社マルアサービス,,株式会社,新潟県,新潟市北区,葛塚３３６５番地１,,15,101,9503321,,,,,,,2023-10-04,1,,,,,マルアサービス,0
1959,7120001258478,新規,0,2023-10-04,2023-10-04,朝日リレーション株式会社,,株式会社,大阪府,大阪市大正区,千島１丁目２２－１２,,27,108,5510003,,,,,,,2023-10-04,1,,,,,アサヒリレーション,0
1960,7120001258528,新規,0,2023-10-04,2023-10-04,ヤノ電業株式会社,,株式会社,大阪府,大阪市城東区,野江２丁目１４番２５号,,27,118,5360006,,,,,,,2023-10-04,1,,,,,ヤノデンギョウ,0
1961,7120001258544,新規,0,2023-10-04,2023-10-04,デザインソリューション株式会社,,株式会社,大阪府,大阪市生野区,勝山北４丁目１番１９号２階,,27,116,5440033,,,,,,,2023-10-04,1,,,,,デザインソリューション,0
1964,7120003025018,新規,0,2023-10-04,2023-10-04,合同会社アスナー,,合同会社,大阪府,大阪市生野区,巽西２丁目４番３号,00132124,27,116,5440012,,,,,,,2023-10-04,1,,,,,アスナー,0
1965,7120003025026,新規,0,2023-10-04,2023-10-04,赤崎建設合同会社,00132130,合同会社,大阪府,門真市,城垣町２番１５号,,27,223,5710072,,,,,,,2023-10-04,1,,,,,アカサキケンセツ,0
1966,7120101068307,新規,0,2023-10-04,2023-10-04,株式会社熊本紙器,,株式会社,大阪府,岸和田市,上松町３丁目１０番５３号,,27,202,5960827,,,,,,,2023-10-04,1,,,,,クマモトシキ,0
1967,7120101068323,新規,0,2023-10-04,2023-10-04,株式会社ウェブイチ,,株式会社,大阪府,岸和田市,作才町１１５７,,27,202,5960826,,,,,,,2023-10-04,1,,,,,ウェブイチ,0
1968,7120103005472,新規,0,2023-10-04,2023-10-04,村瀬合同会社,,合同会社,大阪府,堺市北区,新金岡町５丁５番３２６号,,27,146,5918021,,,,,,,2023-10-04,1,,,,,ムラセ,0
1970,7122001037432,新規,0,2023-10-04,2023-10-04,株式会社Ｔｏ　ｂｅ,,株式会社,大阪府,大東市,扇町８番８号ＴＵＲＡＮＤＯＴ４０６号,,27,218,5740033,,,,,,,2023-10-04,1,,,,,トュービー,0
1974,7130001075385,新規,0,2023-10-04,2023-10-04,株式会社野村ビル,,株式会社,京都府,京都市伏見区,鳥羽町６８８,,26,109,6128308,,,,,,,2023-10-04,1,,,,,ノムラビル,0
1979,7140001131807,新規,0,2023-10-04,2023-10-04,株式会社ＧＭＡ,,株式会社,兵庫県,加古川市,別府町新野辺１２４３番地の２,,28,210,6750131,,,,,,,2023-10-04,1,,,,,ジーエムエー,0
1980,7140001131872,新規,0,2023-10-04,2023-10-04,ＭＣＳホールディングス株式会社,,株式会社,兵庫県,神戸市中央区,元町通３丁目１０番２号,,28,110,6500022,,,,,,,2023-10-04,1,,,,,エムシーエスホールディングス,0
1985,7150001026758,新規,0,2023-10-04,2023-10-04,Ｓｗｅｅｔ　Ｂａｋｅｒ’ｓ株式会社,,株式会社,奈良県,香芝市,旭ケ丘１丁目２９番地７,,29,210,6390266,,,,,,,2023-10-04,1,,,,,スイートベイカーズ,0
1986,7160001025387,新規,0,2023-10-04,2023-10-04,株式会社ＡＬｅ不動産,,株式会社,滋賀県,栗東市,手原３丁目４番７号,,25,208,5203047,,,,,,,2023-10-04,1,,,,,エールフドウサン,0
1987,7170001017805,新規,0,2023-10-04,2023-10-04,ＣＯＣＯＮＩ株式会社,,株式会社,和歌山県,和歌山市,十三番丁１８番地,,30,201,6408150,,,,,,,2023-10-04,1,,,,,ココニ,0
1988,7170001017813,新規,0,2023-10-04,2023-10-04,株式会社勝貴,,株式会社,和歌山県,和歌山市,湊４丁目１番２４号,,30,201,6408404,,,,,,,2023-10-04,1,,,,,カツキ,0
1998,7180001158268,新規,0,2023-10-04,2023-10-04,株式会社ＯＢＡ,,株式会社,愛知県,春日井市,神明町４９番地２,,23,206,4860942,,,,,,,2023-10-04,1,,,,,オービーエイ,0
1999,7180001158301,新規,0,2023-10-04,2023-10-04,株式会社櫻井プラスチック工業所,,株式会社,愛知県,稲沢市,日下部西町１丁目７番地２,,23,220,4928185,,,,,,,2023-10-04,1,,,,,サクライプラスチックコウギョウショ,0
2000,7180001158318,新規,0,2023-10-04,2023-10-04,株式会社Ｔｏｋａｉ　Ｉｎｎｏｖａｔｉｏｎ　Ｉｎｓｔｉｔｕｔｅ,,株式会社,愛知県,名古屋市千種区,不老町１番,,23,101,4640814,,,,,,,2023-10-04,1,,,,,トーカイイノベーションインスティテュート,0
2004,7180301037873,新規,0,2023-10-04,2023-10-04,株式会社平田設備工業,,株式会社,愛知県,岡崎市,美合町字上長根４３番地１,,23,202,4440802,,,,,,,2023-10-04,1,,,,,ヒラタセツビコウギョウ,0
2005,7180305009522,新規,0,2023-10-04,2023-10-04,一般社団法人Ｍ　Ｓｐｏｒｔ,,その他の設立登記法人,愛知県,豊川市,本野ケ原１丁目２０８番地,,23,207,4420005,,,,,,,2023-10-04,1,,,,,エムスポーツ,0
2006,7190001030780,新規,0,2023-10-04,2023-10-04,株式会社Ｋｅｙ,,株式会社,三重県,鈴鹿市,若松東３丁目１７番１３号,,24,207,5100225,,,,,,,2023-10-04,1,,,,,キイ,0
2009,7190003004460,新規,0,2023-10-04,2023-10-04,ふくえみ合同会社,,合同会社,三重県,伊勢市,宮後３丁目２－２－１０１,,24,203,5160072,,,,,,,2023-10-04,1,,,,,フクエミ,0
2011,7200001041776,新規,0,2023-10-04,2023-10-04,メレメレ株式会社,,株式会社,岐阜県,羽島郡岐南町,平成５丁目９１番地サンツイン１３２号室,,21,302,5016013,,,,,,,2023-10-04,1,,,,,メレメレ,0
2012,7200003006100,新規,0,2023-10-04,2023-10-04,合同会社ｉｎｔｏ,,合同会社,岐阜県,高山市,西之一色町３丁目５８８番地１０,,21,203,5060031,,,,,,,2023-10-04,1,,,,,イントゥ,0
2021,7240001062199,新規,0,2023-10-04,2023-10-04,ＭＡＴＣＨ株式会社,,株式会社,広島県,廿日市市,上平良１７９７－１,,34,213,7380026,,,,,,,2023-10-04,1,,,,,マッチ,0
2022,7240001062208,新規,0,2023-10-04,2023-10-04,株式会社ＭＳ１,,株式会社,広島県,廿日市市,地御前北３丁目２１番４３号,,34,213,7380043,,,,,,,2023-10-04,1,,,,,エムエスワン,0
2023,7250001020305,新規,0,2023-10-04,2023-10-04,株式会社タカチュウ,,株式会社,山口県,周南市,北山１丁目１６番５号,,35,215,7450864,,,,,,,2023-10-04,1,,,,,タカチュウ,0
2026,7290001103213,新規,0,2023-10-04,2023-10-04,株式会社石川商店,,株式会社,福岡県,古賀市,今の庄２丁目５番１２号,,40,223,8113117,,,,,,,2023-10-04,1,,,,,イシカワショウテン,0
2027,7290001103221,新規,0,2023-10-04,2023-10-04,全日本農産株式会社,,株式会社,福岡県,福岡市中央区,天神２丁目２番１２号,,40,133,8100001,,,,,,,2023-10-04,1,,,,,ゼンニッポンノウサン,0
2028,7290001103238,新規,0,2023-10-04,2023-10-04,株式会社グラーツィア,,株式会社,福岡県,福岡市中央区,平和３丁目１１番７号,,40,133,8100016,,,,,,,2023-10-04,1,,,,,グラーツィア,0
2029,7290001103287,新規,0,2023-10-04,2023-10-04,株式会社石井,,株式会社,福岡県,福岡市中央区,警固２丁目１６番１１号,,40,133,8100023,,,,,,,2023-10-04,1,,,,,イシイ,0
2031,7290003014441,新規,0,2023-10-04,2023-10-04,ＹＫ‐ＴＲＵＳＴ合同会社,,合同会社,福岡県,糟屋郡宇美町,大字宇美２４５０－１０,,40,341,8112101,,,,,,,2023-10-04,1,,,,,ワイケイトラスト,0
2038,7310001018631,新規,0,2023-10-04,2023-10-04,株式会社ＣＯＯＬＥＸ,,株式会社,長崎県,佐世保市,谷郷町３番１０－１００４号,,42,202,8570027,,,,,,,2023-10-04,1,,,,,クーレッックス,0
2042,7320001020033,新規,0,2023-10-04,2023-10-04,株式会社ｖａｒｂａｒａｈａｓｅｉ,,株式会社,大分県,豊後大野市,大野町田中９３２番地１,,44,212,8796441,,,,,,,2023-10-04,1,,,,,バーバラハセイ,0
2043,7320001020041,新規,0,2023-10-04,2023-10-04,株式会社ＡＲＳ,,株式会社,大分県,臼杵市,大字戸室３７５番地の２,,44,206,8750051,,,,,,,2023-10-04,1,,,,,エーアールエス,0
2044,7320003004190,新規,0,2023-10-04,2023-10-04,合同会社ＡＮＤ,,合同会社,大分県,宇佐市,大字南宇佐２０７７番地の１,,44,211,8720102,,,,,,,2023-10-04,1,,,,,アンド,0
2045,7330001031319,新規,0,2023-10-04,2023-10-04,株式会社イワシタ工務店,,株式会社,熊本県,球磨郡相良村,大字川辺６８３番地４９,,43,510,8680093,,,,,,,2023-10-04,1,,,,,イワシタコウムテン,0
2048,7350001018594,新規,0,2023-10-04,2023-10-04,株式会社二足三文,,株式会社,宮崎県,宮崎市,大字塩路５３７番地１,,45,201,8800122,,,,,,,2023-10-04,1,,,,,ニソクサンモン,0
2049,7350005006182,新規,0,2023-10-04,2023-10-04,一般社団法人バヌアツ協力隊を宮崎から応援する会,,その他の設立登記法人,宮崎県,児湯郡川南町,大字川南５０１１,,45,405,8891301,,,,,,,2023-10-04,1,,,,,バヌアツキョウリョクタイヲミヤザキカラオウエンスルカイ,0
2050,7360001032636,新規,0,2023-10-04,2023-10-04,株式会社Ｃａｐｒａ,,株式会社,沖縄県,豊見城市,字上田５４０番地１仲元ビル３０９号,,47,212,9010243,,,,,,,2023-10-04,1,,,,,カプラ,0
2055,7390001017386,新規,0,2023-10-04,2023-10-04,ＲＹＯＵＮＡＮコーポレーション株式会社,,株式会社,山形県,寒河江市,大字西根字石川西３１３番地の４,,06,206,9910003,,,,,,,2023-10-04,1,,,,,リョウナンコーポレーション,0
2061,7420001018430,新規,0,2023-10-04,2023-10-04,コンストラクション・マネジメントサービス株式会社,,株式会社,青森県,三沢市,中央町２丁目１番１２号高美ビル２Ｆ,,02,207,0330001,,,,,,,2023-10-04,1,,,,,コンストラクションマネジメントサービス,0
2066,7440003001548,新規,0,2023-10-04,2023-10-04,興和マリン合同会社,,合同会社,北海道,函館市,末広町２２番２２号,,01,202,0400053,,,,,,,2023-10-04,1,,,,,コウワマリン,0
2072,7480001012238,新規,0,2023-10-04,2023-10-04,株式会社徳島相続サポートセンター,,株式会社,徳島県,徳島市,山城西４丁目３５番地２,,36,201,7708054,,,,,,,2023-10-04,1,,,,,トクシマソウゾクサポートセンター,0
2082,7700150121007,新規,0,2023-10-04,2023-10-04,Ｑｕａｎｚｈｏｕ　Ｚｈｅｎｇｄｅ　Ｎｅｔｗｏｒｋ　Ｔｅｃｈｎｏｌｏｇｙ　Ｃｏ．，Ｌｔｄ,,外国会社等,,,,,,,,Ｃ４０９　Ｎｏ．２，Ｙａｎｚｈｉ，Ｔｕｍｅｎ，Ｌｉｃｈｅｎｇ，Ｑｕａｎｚｈｏｕ，Ｆｕｊｉａｎ，Ｃｈｉｎａ,,,,,,2023-10-04,1,,,,,センシユウセイトクネツトワークテクノロジーカンパニリミテツド,0
2083,7700150121023,新規,0,2023-10-04,2023-10-04,ｈｕａｉａｎｄｉｏｕｇｕｏｊｉｍａｏｙｉｙｏｕｘｉａｎｇｏｎｇｓｉ,,外国会社等,,,,,,,,Ｄ７，３ｒｄ　Ｆｌｏｏｒ，Ｂｕｉｌｄｉｎｇ　１，Ｎｏ．１６　Ｓｈｅｎｚｈｅｎ　Ｅａｓｔ　Ｒｏａｄ　Ｑｉｎｇｊｉａｎｇｐｕ　Ｄｉｓｔｒｉｃｔ　Ｈｕａｉａｎ　Ｃｉｔｙ　Ｊｉａｎｇｓｕ　Ｐｒｏｖｉｎｃｅ　２２３００１　ＣＮ,,,,,,2023-10-04,1,,,,,フワイアンディーオウグオジーマオイーヨウシエンゴンスー,0
2084,7700150121031,新規,0,2023-10-04,2023-10-04,Ｓｈｅｎｚｈｅｎ　Ｇｕｏｑｕａｎｋａｉ　Ｋｅｊｉ　Ｙｏｕｘｉａｎ　Ｇｏｎｇｓｉ,,外国会社等,,,,,,,,ｚｈｏｎｇ　ｇｕｏ　ｇｕａｎｇ　ｄｏｎｇ　ｓｈｅｎｇ　ｓｈｅｎ　ｚｈｅｎ　ｓｈｉ　ｂａｏ　ａｎ　ｑｕ，ｘｉ　ｘｉａｎｇｊｉｅ　ｄａｏ　ｌａｏ　ｄｏｎｇ　ｓｈｅ　ｑｕ　ｂａｏ　ｙｕａｎ　ｌｕ　２００７　ｈａｏ　７０２,,,,,,2023-10-04,1,,,,,シンセンコクゼンカイテクノロジーカンパニリミテツド,0
2085,7700150121064,新規,0,2023-10-04,2023-10-04,南三陸地域イヌワシ生息環境再生プロジェクト協議会,,その他,宮城県,本吉郡南三陸町,志津川字天王前２０５番地１２,,04,606,9860729,,,,,,,2023-10-04,1,,,,,ミナミサンリクチイキイヌワシセイソクカンキョウサイセイプロジェクトキョウギカイ,0
2090,8010001238878,新規,0,2023-10-04,2023-10-04,ＭＳＤ企業投資七号株式会社,,株式会社,東京都,千代田区,大手町１丁目９番２号,,13,101,1000004,,,,,,,2023-10-04,1,,,,,エムエスディーキギョウトウシナナゴウ,0
2091,8010001238969,新規,0,2023-10-04,2023-10-04,民泊物件開発株式会社,,株式会社,東京都,中央区,銀座１丁目２２番１１号銀座大竹ビジデンス２階,,13,102,1040061,,,,,,,2023-10-04,1,,,,,ミンパクブッケンカイハツ,0
2092,8010003041826,新規,0,2023-10-04,2023-10-04,合同会社ＹＫＬ　ＥＳＳ３号,,合同会社,東京都,中央区,日本橋浜町２丁目７番１号小田ビル３Ｆ,,13,102,1030007,,,,,,,2023-10-04,1,,,,,ワイケイエルイーエスエスサンゴウ,0
2093,8010003041850,新規,0,2023-10-04,2023-10-04,Ｇ３グッドガバナンスグループ合同会社,,合同会社,東京都,千代田区,大手町１丁目７番２号東京サンケイビル２７階,,13,101,1000004,,,,,,,2023-10-04,1,,,,,ジースリーグッドガバナンスグループ,0
2100,8010403031022,新規,0,2023-10-04,2023-10-04,合同会社ＨＲＣａｍｐ,,合同会社,東京都,港区,白金１丁目２番１号,,13,103,1080072,,,,,,,2023-10-04,1,,,,,エイチアールキャンプ,0
2101,8010403031055,新規,0,2023-10-04,2023-10-04,合同会社晴天,,合同会社,東京都,港区,南青山２丁目２番１５号,,13,103,1070062,,,,,,,2023-10-04,1,,,,,セイテン,0
2102,8010405022556,新規,0,2023-10-04,2023-10-04,一般社団法人Ｐｕｉｓｓａｎｔ　Ｃｈｅｆ,,その他の設立登記法人,東京都,港区,虎ノ門５丁目１番４号,,13,103,1050001,,,,,,,2023-10-04,1,,,,,ピュイッサンシェフ,0
2104,8010701044923,新規,0,2023-10-04,2023-10-04,株式会社ＰＯＭＭＥ　ＤＯＲ,,株式会社,東京都,品川区,南品川４丁目７番２１号,,13,109,1400004,,,,,,,2023-10-04,1,,,,,ポムドール,0
2105,8010801034403,新規,0,2023-10-04,2023-10-04,株式会社Ｔｅｇｒｉｄｙ　Ｊａｐａｎ,,株式会社,東京都,大田区,東雪谷３丁目５番１７号,,13,111,1450065,,,,,,,2023-10-04,1,,,,,テグリディジャパン,0
2111,8011001157309,新規,0,2023-10-04,2023-10-04,株式会社Ｎａｏのドーナツ,,株式会社,東京都,渋谷区,円山町６番８号松木屋ビル７Ｆ,,13,113,1500044,,,,,,,2023-10-04,1,,,,,ナオノドーナツ,0
2112,8011001157317,新規,0,2023-10-04,2023-10-04,株式会社ｌａ　ｌａ　ｆｏｒｇｅｔ,,株式会社,東京都,渋谷区,神宮前６丁目２３番４号桑野ビル２階,,13,113,1500001,,,,,,,2023-10-04,1,,,,,ララフォーゲット,0
2113,8011001157325,新規,0,2023-10-04,2023-10-04,ＥＭＭＡ＆ＫＥＩＴＯ株式会社,,株式会社,東京都,目黒区,駒場４丁目３番６号,,13,110,1530041,,,,,,,2023-10-04,1,,,,,エマアンドケイト,0
2114,8011001157333,新規,0,2023-10-04,2023-10-04,株式会社ＡＪＫＫ,,株式会社,東京都,渋谷区,上原１丁目４２番９号,,13,113,1510064,,,,,,,2023-10-04,1,,,,,,0
2115,8011001157341,新規,0,2023-10-04,2023-10-04,株式会社テンポバンク,,株式会社,東京都,渋谷区,恵比寿南１丁目１番１号,,13,113,1500022,,,,,,,2023-10-04,1,,,,,テンポバンク,0
2116,8011001157358,新規,0,2023-10-04,2023-10-04,株式会社ＦＬＣ,,株式会社,東京都,目黒区,下目黒１丁目８番１号アルコタワー１２Ｆ,,13,110,1530064,,,,,,,2023-10-04,1,,,,,エフエルシー,0
2117,8011003017659,新規,0,2023-10-04,2023-10-04,合同会社東京ガーデン,,合同会社,東京都,目黒区,下目黒６丁目１番２７号,,13,110,1530064,,,,,,,2023-10-04,1,,,,,トウキョウガーデン,0
2118,8011003017667,新規,0,2023-10-04,2023-10-04,合同会社Ｉｈｔｉｙａｊ,,合同会社,東京都,目黒区,上目黒３丁目２－２－７Ｆ,,13,110,1530051,,,,,,,2023-10-04,1,,,,,イフティヤージュ,0
2122,8011101104607,新規,0,2023-10-04,2023-10-04,株式会社ＮＨシステムズ,,株式会社,東京都,新宿区,新宿１丁目３１番１２号,,13,104,1600022,,,,,,,2023-10-04,1,,,,,エヌエイチシステムズ,0
2125,8011105010801,新規,0,2023-10-04,2023-10-04,ＮＹプロパティーズ特定目的会社,,その他の設立登記法人,東京都,新宿区,四谷２丁目９番地１５東京ユナイテッド綜合事務所内,,13,104,1600004,,,,,,,2023-10-04,1,,,,,エヌワイプロパティーズ,0
2127,8011401025503,新規,0,2023-10-04,2023-10-04,システムデザインサービス株式会社,,株式会社,東京都,板橋区,中台１丁目４番９号,,13,119,1740064,,,,,,,2023-10-04,1,,,,,システムデザインサービス,0
2128,8011501029825,新規,0,2023-10-04,2023-10-04,株式会社ＫＪ,,株式会社,東京都,荒川区,西日暮里２丁目１８番７号三友日暮里駅前ビル５Ｆ,,13,118,1160013,,,,,,,2023-10-04,1,,,,,ケイジェイ,0
2130,8011601027159,新規,0,2023-10-04,2023-10-04,株式会社ｚｏｎｏｍｏｃｋ,,株式会社,東京都,練馬区,中村３丁目２番６号ヴェルドミール中幸４１６,,13,120,1760024,,,,,,,2023-10-04,1,,,,,ゾノモック,0
2132,8011603004073,新規,0,2023-10-04,2023-10-04,合同会社飛鳥,,合同会社,東京都,練馬区,南大泉１丁目１９番３０号,,13,120,1780064,,,,,,,2023-10-04,1,,,,,アスカ,0
2133,8011801043105,新規,0,2023-10-04,2023-10-04,株式会社ＨＴＲ,,株式会社,東京都,足立区,興野１丁目１３番８号,,13,121,1230844,,,,,,,2023-10-04,1,,,,,エイチティーアール,0
2142,8013301051406,新規,0,2023-10-04,2023-10-04,株式会社リフカ,,株式会社,東京都,豊島区,南池袋２丁目９番９号,,13,116,1710022,,,,,,,2023-10-04,1,,,,,リフカ,0
2144,8013303006820,新規,0,2023-10-04,2023-10-04,合同会社Ｒｅｇｎｅｔ,,合同会社,東京都,豊島区,南池袋２丁目１９－１４,,13,116,1710022,,,,,,,2023-10-04,1,,,,,リグネット,0
2150,8020001153770,新規,0,2023-10-04,2023-10-04,株式会社Ｇ‐ＶＩＳ,,株式会社,神奈川県,川崎市宮前区,有馬１丁目２０－７－２,,14,136,2160003,,,,,,,2023-10-04,1,,,,,ジーヴィス,0
2151,8020001153787,新規,0,2023-10-04,2023-10-04,株式会社ＭＳクラフト,,株式会社,神奈川県,横浜市緑区,三保町２６０８－３リーベスト中山Ｂ４０５,,14,113,2260015,,,,,,,2023-10-04,1,,,,,エムエスクラフト,0
2156,8020003024689,新規,0,2023-10-04,2023-10-04,合同会社ジョイグリット,,合同会社,神奈川県,横浜市西区,高島２丁目１１番２号スカイメナー横浜５１９,,14,103,2200011,,,,,,,2023-10-04,1,,,,,ジョイグリット,0
2163,8021003013640,新規,0,2023-10-04,2023-10-04,合同会社ペスカドール,,合同会社,神奈川県,横須賀市,久里浜１丁目１３－１６,,14,201,2390831,,,,,,,2023-10-04,1,,,,,ペスカドール,0
2172,8030001156293,新規,0,2023-10-04,2023-10-04,株式会社ＫＯＮＯＳＵ　ＣＩＴＹ　ＦＯＯＴＢＡＬＬ　ＣＬＵＢ,,株式会社,埼玉県,鴻巣市,滝馬室１１２１,,11,217,3650044,,,,,,,2023-10-04,1,,,,,コウノスシティフットボールクラブ,0
2178,8030003022642,新規,0,2023-10-04,2023-10-04,合同会社ＣＮＧＬＯＢＡＬ,,合同会社,埼玉県,川口市,江戸１丁目１７番２５号,,11,203,3340074,,,,,,,2023-10-04,1,,,,,シーエヌグローバル,0
2180,8040001130330,新規,0,2023-10-04,2023-10-04,株式会社ライトイヤー,,株式会社,千葉県,浦安市,富士見２丁目１２番８－２０２号レジダンスフォンテーヌ,,12,227,2790043,,,,,,,2023-10-04,1,,,,,ライトイヤー,0
2185,8060003004745,新規,0,2023-10-04,2023-10-04,合同会社ＪＯＹＳＥＥＤＥＲＳ,,合同会社,栃木県,那須塩原市,西新町１１７番地４８２,,09,213,3250076,,,,,,,2023-10-04,1,,,,,ジョイシーダーズ,0
2194,8090001018348,新規,0,2023-10-04,2023-10-04,甲府青果株式会社,,株式会社,山梨県,甲府市,徳行１丁目２番１８号,,19,201,4000047,,,,,,,2023-10-04,1,,,,,コウフセイカ,0
2198,8100001036843,新規,0,2023-10-04,2023-10-04,株式会社ＶＥＲＩＴＡＳ,,株式会社,長野県,長野市,新田町１１４４－４ラトール新田１Ｆ,,20,201,3810000,,,,,,,2023-10-04,1,,,,,ベリタス,0
2206,8120001258155,新規,0,2023-10-04,2023-10-04,株式会社座談会,,株式会社,大阪府,大阪市北区,中崎西４丁目３番３２号,,27,127,5300015,,,,,,,2023-10-04,1,,,,,ザダンカイ,0
2207,8120001258502,新規,0,2023-10-04,2023-10-04,株式会社ＳｏｃｉａｌＴｒｕｓｔ,,株式会社,大阪府,大阪市西区,江戸堀１丁目４番２１号日宝肥後橋中央ビル５０６号室,,27,106,5500002,,,,,,,2023-10-04,1,,,,,ソーシャルトラスト,0
2208,8120001258510,新規,0,2023-10-04,2023-10-04,艶デザイン株式会社,,株式会社,大阪府,大阪市西区,京町堀１丁目１６番２８号,,27,106,5500003,,,,,,,2023-10-04,1,,,,,エンデザイン,0
2209,8120001258535,新規,0,2023-10-04,2023-10-04,墨源株式会社,,株式会社,大阪府,大阪市中央区,島之内１丁目１１番２９号,,27,128,5420082,,,,,,,2023-10-04,1,,,,,ボクゲン,0
2210,8120001258584,新規,0,2023-10-04,2023-10-04,株式会社ホームテックパートナー,,株式会社,大阪府,大阪市北区,堂山町１番５号,,27,127,5300027,,,,,,,2023-10-04,1,,,,,ホームテックパートナー,0
2214,8120003025009,新規,0,2023-10-04,2023-10-04,合同会社ＺＥＲＯ,,合同会社,大阪府,大阪市北区,梅田１丁目２番２号大阪駅前第２ビル２階５－６号室,,27,127,5300001,,,,,,,2023-10-04,1,,,,,ゼロ,0
2215,8120003025066,新規,0,2023-10-04,2023-10-04,合同会社タバル,,合同会社,大阪府,大阪市大正区,小林西２丁目８‐２０,,27,108,5510013,,,,,,,2023-10-04,1,,,,,タバル,0
2219,8120101068297,新規,0,2023-10-04,2023-10-04,株式会社クリステッドホーク,,株式会社,大阪府,堺市堺区,市之町東５丁２番１４号,,27,141,5900952,,,,,,,2023-10-04,1,,,,,クリステッドホーク,0
2222,8120103005471,新規,0,2023-10-04,2023-10-04,合同会社幸野工務店,,合同会社,大阪府,高石市,西取石１丁目２２番４２号,,27,225,5920012,,,,,,,2023-10-04,1,,,,,コウノコウムテン,0
2228,8120901048151,新規,0,2023-10-04,2023-10-04,ＨＥＤＧＥＨＯＧ　ＤＥＳＩＧＮ株式会社,,株式会社,大阪府,茨木市,北春日丘２丁目９番１４号,,27,211,5670048,,,,,,,2023-10-04,1,,,,,ヘッジホッグデザイン,0
2233,8122001037423,新規,0,2023-10-04,2023-10-04,株式会社ＥＥＬ,,株式会社,大阪府,八尾市,東町１丁目５１番地,,27,212,5810861,,,,,,,2023-10-04,1,,,,,イール,0
2239,8130001075418,新規,0,2023-10-04,2023-10-04,株式会社ＩＢＵＳＨＩＧＩＮ,,株式会社,京都府,京都市下京区,中堂寺坊城町２番地ＢＥＡＵＴＹＢＬＤＧＴＡＮＢＡＧＵＣＨＩ５Ｆ,,26,106,6008811,,,,,,,2023-10-04,1,,,,,イブシギン,0
2243,8140001131806,新規,0,2023-10-04,2023-10-04,株式会社ＡＡＹＵＳＨＭＡ,,株式会社,兵庫県,加古川市,加古川町溝之口６５番地の３,,28,210,6750064,,,,,,,2023-10-04,1,,,,,アユシュマ,0
2246,8150001026765,新規,0,2023-10-04,2023-10-04,株式会社角川空調,,株式会社,奈良県,奈良市,四条大路３丁目３－１６－２グリーン・フォーレスト２０３,,29,201,6308014,,,,,,,2023-10-04,1,,,,,ツノカワクウチョウ,0
2247,8150003003077,新規,0,2023-10-04,2023-10-04,合同会社ＯＰＰ,,合同会社,奈良県,奈良市,富雄北１丁目５－１１,,29,201,6310076,,,,,,,2023-10-04,1,,,,,オーピーピー,0
2248,8150003003085,新規,0,2023-10-04,2023-10-04,夢職合同会社,,合同会社,奈良県,磯城郡田原本町,大字伊与戸１８０番地の２,,29,363,6360243,,,,,,,2023-10-04,1,,,,,ムショク,0
2250,8160001025378,新規,0,2023-10-04,2023-10-04,株式会社Ｙ‐ＴＥＣ,,株式会社,滋賀県,大津市,坂本８丁目６番２９号,,25,201,5200113,,,,,,,2023-10-04,1,,,,,ワイテック,0
2252,8170001017804,新規,0,2023-10-04,2023-10-04,株式会社三陽アグリ,,株式会社,和歌山県,和歌山市,井戸２７５番地１６,,30,201,6400352,,,,,,,2023-10-04,1,,,,,サンヨウアグリ,0
2260,8180001158259,新規,0,2023-10-04,2023-10-04,株式会社ＴＡＯｓ＆Ｃｏ．,,株式会社,愛知県,名古屋市中村区,宮塚町１６８番地の２,,23,105,4530845,,,,,,,2023-10-04,1,,,,,タオズアンドコー,0
2261,8180001158300,新規,0,2023-10-04,2023-10-04,株式会社ＳＡＺＯ,,株式会社,愛知県,名古屋市中村区,平池町４丁目６０番地の１２グローバルゲート名古屋１１Ｆ,,23,105,4530872,,,,,,,2023-10-04,1,,,,,サゾ,0
2262,8180001158333,新規,0,2023-10-04,2023-10-04,株式会社Ｇｒｏｌｕｅ．,,株式会社,愛知県,名古屋市中川区,運河町３番１７号木村商店ビル,,23,110,4540001,,,,,,,2023-10-04,1,,,,,グロール,0
2268,8180301037872,新規,0,2023-10-04,2023-10-04,株式会社東和キャスト安城,,株式会社,愛知県,安城市,藤井町本郷４３番地,,23,212,4441164,,,,,,,2023-10-04,1,,,,,トウワキャストアンジョウ,0
2272,8190001030771,新規,0,2023-10-04,2023-10-04,ＩＮＦＩＮＩＴＯ株式会社,,株式会社,三重県,伊勢市,村松町５２２１番地,,24,203,5150507,,,,,,,2023-10-04,1,,,,,インフィニート,0
2276,8200001041775,新規,0,2023-10-04,2023-10-04,株式会社たてよこななめ,,株式会社,岐阜県,岐阜市,入舟町１丁目８番１００１号,,21,201,5008152,,,,,,,2023-10-04,1,,,,,タテヨコナナメ,0
2284,8220003003598,新規,0,2023-10-04,2023-10-04,合同会社Ｔｏｈｄａ　ｍａｎａｇｅｍｅｎｔ,,合同会社,石川県,七尾市,池崎町子部１５６番地,,17,202,9260831,,,,,,,2023-10-04,1,,,,,トウダマネジメント,0
2291,8230001020041,新規,0,2023-10-04,2023-10-04,株式会社ＦＳＢレンタカー,,株式会社,富山県,高岡市,問屋町４９番地,,16,202,9330804,,,,,,,2023-10-04,1,,,,,エフエスビーレンタカー,0
2293,8240003006351,新規,0,2023-10-04,2023-10-04,合同会社ＮＥＫＯＭＯＴ,,合同会社,広島県,広島市中区,大手町１丁目１－２０相生橋ビル７階Ａ号室,,34,101,7300051,,,,,,,2023-10-04,1,,,,,ネコモット,0
2295,8250001020304,新規,0,2023-10-04,2023-10-04,株式会社碧ビル美装,,株式会社,山口県,下関市,幡生町１丁目１番８－１号,,35,201,7510828,,,,,,,2023-10-04,1,,,,,アオイビルビソウ,0
2296,8250001020312,新規,0,2023-10-04,2023-10-04,株式会社梓栄工業,,株式会社,山口県,光市,三井６丁目１０番２７号,,35,210,7430052,,,,,,,2023-10-04,1,,,,,シエイコウギョウ,0
2298,8260001038361,新規,0,2023-10-04,2023-10-04,株式会社夢工房,,株式会社,岡山県,岡山市東区,浅越２０１番地３,,33,103,7048181,,,,,,,2023-10-04,1,,,,,ユメコウボウ,0
2299,8260003004452,新規,0,2023-10-04,2023-10-04,合同会社Ｌｉｎｋシステム,,合同会社,岡山県,倉敷市,徳芳４７３番地,,33,202,7100011,,,,,,,2023-10-04,1,,,,,リンクシステム,0
2303,8290001103179,新規,0,2023-10-04,2023-10-04,株式会社ＧＵ久留米,,株式会社,福岡県,久留米市,東合川１丁目８番７井上コーポ２０３号室,,40,203,8390809,,,,,,,2023-10-04,1,,,,,ジーユークルメ,0
2304,8290001103212,新規,0,2023-10-04,2023-10-04,株式会社ＢＩＬＬＩＯＮ,,株式会社,福岡県,福岡市博多区,博多駅前３丁目７－３５－５０５,,40,132,8120011,,,,,,,2023-10-04,1,,,,,ビリオン,0
2305,8290001103261,新規,0,2023-10-04,2023-10-04,ＣＲＡＦＴ　ＷＯＲＫＳ株式会社,,株式会社,福岡県,福岡市博多区,千代４丁目２９番４９－９０１号,,40,132,8120044,,,,,,,2023-10-04,1,,,,,クラフトワークス,0
2306,8290001103286,新規,0,2023-10-04,2023-10-04,株式会社オリーブ,,株式会社,福岡県,糟屋郡志免町,別府１丁目８番１８号,,40,343,8112205,,,,,,,2023-10-04,1,,,,,オリーブ,0
2312,8290801029912,新規,0,2023-10-04,2023-10-04,株式会社鶴崎産商,00132123,株式会社,福岡県,鞍手郡鞍手町,大字新延１８５８番地１,,40,402,8071305,,,,,,,2023-10-04,1,,,,,ツルサキサンショウ,0
2316,8310001018639,新規,0,2023-10-04,2023-10-04,株式会社まる,,株式会社,長崎県,佐世保市,小佐々町小坂１番地４１,,42,202,8570402,,,,,,,2023-10-04,1,,,,,マル,0
2317,8320001020024,新規,0,2023-10-04,2023-10-04,コダマ機工株式会社,,株式会社,大分県,竹田市,大字会々３６４５番地６,,44,208,8780011,,,,,,,2023-10-04,1,,,,,コダマキコウ,0
2319,8320005010104,新規,0,2023-10-04,2023-10-04,一般社団法人豊後スポーツクラブ,,その他の設立登記法人,大分県,豊後大野市,千歳町長峰１５７９番地１,,44,212,8797404,,,,,,,2023-10-04,1,,,,,ブンゴスポーツクラブ,0
2329,8360001032627,新規,0,2023-10-04,2023-10-04,株式会社明鏡堂,,株式会社,沖縄県,浦添市,伊祖２丁目２１－１サンフラッツ３０１,,47,208,9012132,,,,,,,2023-10-04,1,,,,,メイキョウドウ,0
2331,8360003013336,新規,0,2023-10-04,2023-10-04,合同会社結ラボ,,合同会社,沖縄県,石垣市,字真栄里３４０－６ビューテラス５０４,,47,207,9070002,,,,,,,2023-10-04,1,,,,,ユイラボ,0
2332,8360003013352,新規,0,2023-10-04,2023-10-04,合同会社ＳａｋｕＣｏｎｎｅｃｔｉｏｎ,,合同会社,沖縄県,宮古島市,平良字西里９８５―６,,47,214,9060012,,,,,,,2023-10-04,1,,,,,サクコネクション,0
2336,8370001050462,新規,0,2023-10-04,2023-10-04,株式会社ＳＵＮ,,株式会社,宮城県,仙台市青葉区,五橋２丁目１０番６－２０５号,,04,101,9800022,,,,,,,2023-10-04,1,,,,,サン,0
2337,8370001050470,新規,0,2023-10-04,2023-10-04,ｍ‐ｃｕｂｅ株式会社,,株式会社,宮城県,仙台市青葉区,国分町２丁目９番２７号,,04,101,9800803,,,,,,,2023-10-04,1,,,,,エムキューブ,0
2338,8370001050479,新規,0,2023-10-04,2023-10-04,株式会社ｎｉｃｈｅ,,株式会社,宮城県,仙台市宮城野区,鶴ケ谷北１丁目１７番３号,,04,102,9830825,,,,,,,2023-10-04,1,,,,,ニッチ,0
2339,8370003006306,新規,0,2023-10-04,2023-10-04,シャインブライトリー合同会社,,合同会社,宮城県,仙台市若林区,荒井６丁目１２－１－２０８,,04,103,9840032,,,,,,,2023-10-04,1,,,,,シャインブライトリー,0
2342,8380001034019,新規,0,2023-10-04,2023-10-04,株式会社Ｋ．Ｓ　ＥＸＰＲＥＳＳ,,株式会社,福島県,郡山市,大槻町字室ノ木３３番地の７,,07,203,9630201,,,,,,,2023-10-04,1,,,,,ケーエスエクスプレス,0
2367,8500001025228,新規,0,2023-10-04,2023-10-04,株式会社ＬＧＣ,,株式会社,愛媛県,今治市,北鳥生町２丁目２番２０号,,38,202,7940803,,,,,,,2023-10-04,1,,,,,エルジーシー,0
2369,8700150118596,新規,0,2023-10-04,2023-08-15,北見物産協会,,その他,北海道,北見市,大通西３丁目１番地１,,01,208,0900040,,,,,,,2023-08-15,1,,,,,キタミブツサンキヨウカイ,0
2370,8700150121006,新規,0,2023-10-04,2023-10-04,Ｓｕｚｈｏｕ　ａｉｄｅｍａｎｓｉ　ｍｅｔａｌ　ｐｒｏｄｕｃｔｓ　Ｃｏ．Ｌｔｄ．,,外国会社等,,,,,,,,Ｈｅｓｈｉｘｉｊｉｅ，ＺｈｉｔａｎｇＴｏｗｎ，ＣｈａｎｇｓＳｈｕ，Ｓｕｚｈｏｕ，Ｊｉａｎｇｓｕ，Ｃｈｉｎａ,,,,,,2023-10-04,1,,,,,ソシユウアイデマンシメタルプロダクツカンパニリミテツド,0
2371,8700150121014,新規,0,2023-10-04,2023-10-04,ＮａｎｊｉｎｇＫｕｋｅｄｉａｎｚｉｋｅｊｉｙｏｕｘｉａｎｇｏｎｇｓｉ,,外国会社等,,,,,,,,Ｆｌｏｏｒ　１６，Ｂｕｉｌｄｉｎｇ　Ａ１，Ｈｕｉｚｈｉ　Ｓｃｉｅｎｃｅ　ａｎｄ　Ｔｅｃｈｎｏｌｏｇｙ　Ｐａｒｋ，Ｎｏ．８　Ｈｅｎｇｔａｉ　Ｒｏａｄ，Ｎａｎｊｉｎｇ　Ｅｃｏｎｏｍｉｃ　ａｎｄ　Ｔｅｃｈｎｏｌｏｇｉｃａｌ　Ｄｅｖｅｌｏｐｍｅｎｔ　Ｚｏｎｅ,,,,,,2023-10-04,1,,,,,ナンキンクカエレクトロニツクテクノロジーカンパニリミテツド,0
2372,8700150121022,新規,0,2023-10-04,2023-10-04,ｇｕａｎｇｚｈｏｕｓｈｉｆｅｉｃｉｙｕａｎｍａｏｙｉｙｏｕｘｉａｎｇｏｎｇｓｉ,,外国会社等,,,,,,,,ｇｕａｎｇｚｈｏｕｓｈｉｔｉａｎｈｅｑｕｋｅｈｕａｊｉｅ１ｈａｏ３０１ｚｈｉ３５３ｓｈｉＬ６１ｆａｎｇ　ｇｕａｎｇｚｈｏｕｓｈｉ　ｇｕａｎｇｄｏｎｇｓｈｅｎｇ,,,,,,2023-10-04,1,,,,,グワンジョウシーフェイツーユエンマオイーヨウシエンゴンスー,0
2373,8700150121030,新規,0,2023-10-04,2023-10-04,ｙｕｅｙａｎｇｓｈｉｈａｏｌａｎｗａｎｇｌｕｏｋｅｊｉｙｏｕｘｉａｎｇｏｎｇｓｉ,,外国会社等,,,,,,,,ｗｕｌｉｐａｉｊｉｅｄａｏｄｏｎｇｍａｏｌｉｎｇｌｕｅｒｑｉｎｇｇｏｎｇｘｉａｏｇｏｎｇｓｉｄａｙｕａｎ３ｄｏｎｇ３０２－１ｓｈｉ，Ｙｕｅｙａｎｇｌｏｕｑｕ，Ｙｕｅｙａｎｇｓｈｉ，Ｈｕｎａｎｓｈｅｎｇ，Ｃｈｉｎａ,,,,,,2023-10-04,1,,,,,ユエヤンシコウランネツトワーツクテクノロジーカンパニリミテツド,0
2374,8700150121039,新規,0,2023-10-04,2023-10-04,Ｎｉｎｇｂｏ　Ｘｉｙａｎｇ　Ｅ－ｃｏｍｍｅｒｃｅ　Ｃｏ．，Ｌｔｄ,,外国会社等,,,,,,,,Ｒｏｏｍ　６４８４，Ｎｏ．１５（５－５），Ｊｉｅｆａｎｇ　Ｓｏｕｔｈ　Ｒｏａｄ，Ｎｉｎｇｂｏ，Ｚｈｅｊｉａｎｇ　Ｐｒｏｖｉｎｃｅ　Ｈａｉｓｈｕ　Ｄｉｓｔｒｉｃｔ，Ｃｈｉｎａ,,,,,,2023-10-04,1,,,,,ニンポーギヨウイーコマースカンパニリミテツド,0
2389,9010001238811,新規,0,2023-10-04,2023-10-04,Ａ．ＡＮＤ株式会社,,株式会社,東京都,中央区,銀座１丁目２１－１２山田ビル２Ｆ,,13,102,1040061,,,,,,,2023-10-04,1,,,,,エーアンド,0
2390,9010001238877,新規,0,2023-10-04,2023-10-04,株式会社ＬＩＦ,,株式会社,東京都,中央区,日本橋室町１丁目１１番１２号日本橋水野ビル７階,,13,102,1030022,,,,,,,2023-10-04,1,,,,,リフ,0
2391,9010001238902,新規,0,2023-10-04,2023-10-04,ＳＫＨ株式会社,,株式会社,東京都,千代田区,神田司町２丁目１３番地１クレイシア神田淡路町１００４号,,13,101,1010048,,,,,,,2023-10-04,1,,,,,エスケーエイチ,0
2392,9010001238968,新規,0,2023-10-04,2023-10-04,株式会社日吉,,株式会社,東京都,千代田区,神田多町２丁目１１番地７－６０５号,,13,101,1010046,,,,,,,2023-10-04,1,,,,,ヒヨシ,0
2393,9010001239009,新規,0,2023-10-04,2023-10-04,株式会社レップ,,株式会社,東京都,千代田区,九段北４丁目３番２０号九段フラワーホーム３１０号室,,13,101,1020073,,,,,,,2023-10-04,1,,,,,レップ,0
2394,9010003041841,新規,0,2023-10-04,2023-10-04,Ｓｕｎ　Ｔｒｉｎｉｔｙ　Ｄ合同会社,,合同会社,東京都,千代田区,大手町２丁目３番２号大手町プレイスイーストタワー,,13,101,1000004,,,,,,,2023-10-04,1,,,,,サントリニティーディー,0
2398,9010101015838,新規,0,2023-10-04,2023-10-04,ショップギーク株式会社,,株式会社,東京都,八王子市,旭町１－１セレオ八王子北館９階ステーションスイッチポスト２号室,,13,201,1920083,,,,,,,2023-10-04,1,,,,,ショップギーク,0
2399,9010103002223,新規,0,2023-10-04,2023-10-04,スナメリー合同会社,,合同会社,東京都,八王子市,南大沢４丁目２４‐４‐１０４,,13,201,1920364,,,,,,,2023-10-04,1,,,,,スナメリー,0
2403,9010401177477,新規,0,2023-10-04,2023-10-04,アールリベロ株式会社,,株式会社,東京都,港区,三田２丁目３番３４－８０１号,,13,103,1080073,,,,,,,2023-10-04,1,,,,,アールリベロ,0
2409,9010403031062,新規,0,2023-10-04,2023-10-04,合同会社Ｐｕｉｓｓａｎｔ　Ｃｈｅｆ,,合同会社,東京都,港区,虎ノ門５丁目１番４号,,13,103,1050001,,,,,,,2023-10-04,1,,,,,ピュイッサンシェフ,0
2410,9010403031079,新規,0,2023-10-04,2023-10-04,ＰＪＭＦ　Ｓｔｅｌｌａｒ　ＭＬ合同会社,,合同会社,東京都,港区,元赤坂１丁目１番７－８０７号,,13,103,1070051,,,,,,,2023-10-04,1,,,,,ピージェイエムエフステラエムエル,0
2413,9010501051152,新規,0,2023-10-04,2023-10-04,株式会社ＨＩ‐ＣＯＮＤＩＴＩＯＮ,,株式会社,東京都,台東区,浅草橋２丁目１３番２号,,13,106,1110053,,,,,,,2023-10-04,1,,,,,ハイコンディション,0
2417,9010705003544,新規,0,2023-10-04,2023-10-04,一般社団法人日本感情協会,,その他の設立登記法人,東京都,品川区,西五反田７丁目２５番１３－１００１号,,13,109,1410031,,,,,,,2023-10-04,1,,,,,ニホンカンジョウキョウカイ,0
2418,9010805003064,新規,0,2023-10-04,2023-10-04,一般社団法人日本セルフイメージ協会,,その他の設立登記法人,東京都,大田区,南六郷１丁目１８番６－４０５号,,13,111,1440045,,,,,,,2023-10-04,1,,,,,ニホンセルフイメージキョウカイ,0
2419,9010901053938,新規,0,2023-10-04,2023-10-04,株式会社トライマイベスト,,株式会社,東京都,世田谷区,上北沢１丁目１２番４号,,13,112,1560057,,,,,,,2023-10-04,1,,,,,トライマイベスト,0
2423,9011001157266,新規,0,2023-10-04,2023-10-04,株式会社ヒデラボ,,株式会社,東京都,渋谷区,渋谷２丁目１９－１５宮益坂ビルディング６０９,,13,113,1500002,,,,,,,2023-10-04,1,,,,,ヒデラボ,0
2424,9011001157357,新規,0,2023-10-04,2023-10-04,株式会社ぴ,,株式会社,東京都,渋谷区,広尾１丁目１１番２号ＢＬＯＣＫＳ恵比寿５０８,,13,113,1500012,,,,,,,2023-10-04,1,,,,,ピ,0
2426,9011003017600,新規,0,2023-10-04,2023-10-04,合同会社ｙａｎｍｏ　ｄｅｓｉｇｎ　ｗｏｒｋｓ,,合同会社,東京都,渋谷区,道玄坂１丁目１０番８号渋谷道玄坂東急ビル２階－Ｃ,,13,113,1500043,,,,,,,2023-10-04,1,,,,,,0
2433,9011103013549,新規,0,2023-10-04,2023-10-04,合同会社エムツーケー,,合同会社,東京都,新宿区,天神町６６番地１４,,13,104,1620808,,,,,,,2023-10-04,1,,,,,エムツーケー,0
2434,9011105010800,新規,0,2023-10-04,2023-10-04,ＮＹホールディングス一般社団法人,,その他の設立登記法人,東京都,新宿区,四谷２丁目９番地１５東京ユナイテッド綜合事務所内,,13,104,1600004,,,,,,,2023-10-04,1,,,,,エヌワイホールディングス,0
2437,9011205002573,新規,0,2023-10-04,2023-10-04,医療法人社団上総会,,その他の設立登記法人,東京都,中野区,東中野３丁目８番９号東中野医療ビル２階,,13,114,1640003,,,,,,,2023-10-04,1,,,,,カズサカイ,0
2443,9011401025502,新規,0,2023-10-04,2023-10-04,株式会社Ａｌｌ　Ｂｌｕｅ　Ｔｒａｄｉｎｇ,,株式会社,東京都,板橋区,仲宿４６番４号,,13,119,1730005,,,,,,,2023-10-04,1,,,,,オールブルートレーディング,0
2444,9011601027166,新規,0,2023-10-04,2023-10-04,株式会社Ｄｏｇｕ＆Ｐａｒｔｎｅｒｓ,,株式会社,東京都,練馬区,西大泉５丁目１５番６号,,13,120,1780065,,,,,,,2023-10-04,1,,,,,ドグウアンドパートナーズ,0
2447,9011801043104,新規,0,2023-10-04,2023-10-04,相続不動産相談センター株式会社,,株式会社,東京都,葛飾区,新小岩４丁目１４番１２号,,13,122,1240024,,,,,,,2023-10-04,1,,,,,ソウゾクフドウサンソウダンセンター,0
2448,9011801043112,新規,0,2023-10-04,2023-10-04,株式会社プルーフラボ,,株式会社,東京都,足立区,東綾瀬１丁目２６番７－１０１号,,13,121,1200004,,,,,,,2023-10-04,1,,,,,プルーフラボ,0
2449,9011801043120,新規,0,2023-10-04,2023-10-04,株式会社本多通商,,株式会社,東京都,足立区,扇３丁目１８－１３扇スカイハイツ１２１号,,13,121,1230873,,,,,,,2023-10-04,1,,,,,ホンダツウショウ,0
2452,9012703002809,新規,0,2023-10-04,2023-10-04,合同会社創生学舎,,合同会社,東京都,東久留米市,学園町２丁目７番１０号,,13,222,2030021,,,,,,,2023-10-04,1,,,,,ソウセイガクシャ,0
2455,9012801022675,新規,0,2023-10-04,2023-10-04,株式会社武州,,株式会社,東京都,武蔵村山市,学園３丁目１－３,,13,223,2080011,,,,,,,2023-10-04,1,,,,,ブシュウ,0
2462,9020001153753,新規,0,2023-10-04,2023-10-04,株式会社ザシティ埼玉,,株式会社,神奈川県,横浜市神奈川区,鶴屋町３丁目３３番地の８アーバンセンター横浜ウエスト３Ｆ,,14,102,2210835,,,,,,,2023-10-04,1,,,,,ザシティサイタマ,0
2477,9030001156128,新規,0,2023-10-04,2023-10-04,ＳＨＡＨＡＮ株式会社,,株式会社,埼玉県,桶川市,東１丁目２番２５号トライミットビル桶川４０１号,,11,231,3630013,,,,,,,2023-10-04,1,,,,,シャハン,0
2478,9030001156284,新規,0,2023-10-04,2023-10-04,天義株式会社,,株式会社,埼玉県,本庄市,寿３丁目２－１,,11,211,3670023,,,,,,,2023-10-04,1,,,,,テンギ,0
2479,9030001156292,新規,0,2023-10-04,2023-10-04,株式会社白樹,,株式会社,埼玉県,川越市,伊勢原町３丁目１番地６３,,11,201,3501108,,,,,,,2023-10-04,1,,,,,ハクジュ,0
2480,9030001156301,新規,0,2023-10-04,2023-10-04,セキュアシステム株式会社,,株式会社,埼玉県,さいたま市西区,大字二ツ宮７３２番池３,,11,101,3310065,,,,,,,2023-10-04,1,,,,,セキュアシステム,0
2492,9040001130321,新規,0,2023-10-04,2023-10-04,エースリソフト株式会社,,株式会社,千葉県,市川市,菅野２丁目１８番２６号,,12,203,2720824,,,,,,,2023-10-04,1,,,,,エースリソフト,0
2494,9040003023449,新規,0,2023-10-04,2023-10-04,ＳＡＩ合同会社,,合同会社,千葉県,市川市,宮久保５丁目１６番４号,,12,203,2720822,,,,,,,2023-10-04,1,,,,,サイ,0
2495,9040005022143,新規,0,2023-10-04,2023-10-04,税理士法人久代会計事務所,,その他の設立登記法人,千葉県,袖ケ浦市,奈良輪１０６番地,,12,229,2990263,,,,,,,2023-10-04,1,,,,,クシロカイケイジムショ,0
2504,9050003007830,新規,0,2023-10-04,2023-10-04,合同会社ＡＲＣＯＢＡＬＥＮＯ,,合同会社,茨城県,東茨城郡茨城町,大字城之内７４２番地２９,,08,302,3113138,,,,,,,2023-10-04,1,,,,,アルコバレーノ,0
2505,9060001036376,新規,0,2023-10-04,2023-10-04,株式会社かけはし,,株式会社,栃木県,那須塩原市,豊浦南町８８番地１１８,,09,213,3250065,,,,,,,2023-10-04,1,,,,,カケハシ,0
2510,9070001040922,新規,0,2023-10-04,2023-10-04,共伸ホールディングス株式会社,,株式会社,群馬県,伊勢崎市,八坂町５３４番地,,10,204,3720044,,,,,,,2023-10-04,1,,,,,キョウシンホールディングス,0
2518,9080101024254,新規,0,2023-10-04,2023-10-04,株式会社鈴木ファインウエイ,,株式会社,静岡県,駿東郡長泉町,中土狩２７５番地の１,,22,342,4110942,,,,,,,2023-10-04,1,,,,,スズキファインウエイ,0
2521,9080401026768,新規,0,2023-10-04,2023-10-04,株式会社Ｊａｄｅ,,株式会社,静岡県,菊川市,加茂３８３５番地の１叶音２０１,,22,224,4390031,,,,,,,2023-10-04,1,,,,,ジェイド,0
2524,9090001018347,新規,0,2023-10-04,2023-10-04,株式会社Ｕ‐ＭＯＲＥ,,株式会社,山梨県,北杜市,大泉町谷戸５００２番地,,19,209,4091502,,,,,,,2023-10-04,1,,,,,ユーモア,0
2526,9090003002398,新規,0,2023-10-04,2023-10-04,合同会社グルーヴィ,,合同会社,山梨県,甲府市,武田２丁目１２番８号,,19,201,4000016,,,,,,,2023-10-04,1,,,,,グルーヴィ,0
2530,9110001037889,新規,0,2023-10-04,2023-10-04,株式会社義建工舎,,株式会社,新潟県,新潟市中央区,網川原２丁目３１番１号,,15,103,9500964,,,,,,,2023-10-04,1,,,,,ギケンコウシャ,0
2547,9120001258484,新規,0,2023-10-04,2023-10-04,株式会社Ｔ＆Ｍ,,株式会社,大阪府,大阪市都島区,内代町１丁目１４番２１号メゾンロイヤルヒロ３０３,,27,102,5340013,,,,,,,2023-10-04,1,,,,,ティーアンドエム,0
2548,9120001258501,新規,0,2023-10-04,2023-10-04,株式会社トキナリ,,株式会社,大阪府,大阪市中央区,安堂寺町１丁目４番１４－４０６号,,27,128,5420061,,,,,,,2023-10-04,1,,,,,トキナリ,0
2549,9120001258518,新規,0,2023-10-04,2023-10-04,ＮＥＸＴ　ＨＩＲＥ株式会社,,株式会社,大阪府,大阪市東淀川区,西淡路３丁目１８番１８号,,27,114,5330031,,,,,,,2023-10-04,1,,,,,ネクストハイヤー,0
2550,9120001258526,新規,0,2023-10-04,2023-10-04,株式会社ロゼホーム,,株式会社,大阪府,大阪市住之江区,西住之江２丁目１２番２２号,,27,125,5590005,,,,,,,2023-10-04,1,,,,,ロゼホーム,0
2551,9120001258534,新規,0,2023-10-04,2023-10-04,株式会社ワイズスケープ,,株式会社,大阪府,大阪市平野区,長吉長原西２丁目６番２５号,,27,126,5470015,,,,,,,2023-10-04,1,,,,,ワイズスケープ,0
2552,9120001258633,新規,0,2023-10-04,2023-10-04,株式会社スタンドパートナー,,株式会社,大阪府,大阪市中央区,本町３丁目２番６号イケガミサウスビル９Ｆ,,27,128,5410053,,,,,,,2023-10-04,1,,,,,スタンドパートナー,0
2553,9120001258757,新規,0,2023-10-04,2023-10-04,株式会社メイスリーコンサルティング,,株式会社,大阪府,大阪市中央区,南本町２丁目４番１６号,,27,128,5410054,,,,,,,2023-10-04,1,,,,,メイスリーコンサルティング,0
2554,9120003025016,新規,0,2023-10-04,2023-10-04,合同会社ｅｎ,,合同会社,大阪府,大阪市北区,梅田１丁目２番２号大阪駅前第２ビル２Ｆ５－６号,,27,127,5300001,,,,,,,2023-10-04,1,,,,,エヌ,0
2555,9120003025049,新規,0,2023-10-04,2023-10-04,合同会社ＵＴＳＵＳＥＭＩ　ＷＯＲＫＳ,,合同会社,大阪府,大阪市北区,梅田１丁目１‐３大阪駅前第３ビル２９階１‐１‐１号室,,27,127,5300001,,,,,,,2023-10-04,1,,,,,ウツセミワークス,0
2557,9120101068321,新規,0,2023-10-04,2023-10-04,株式会社岩井建装,,株式会社,大阪府,松原市,天美西１丁目１－５４４,,27,217,5800034,,,,,,,2023-10-04,1,,,,,イワイケンソウ,0
2570,9130001075276,新規,0,2023-10-04,2023-10-04,株式会社牛正,,株式会社,京都府,京都市右京区,太秦多藪町１４番地５サンヴェール太秦１０３１,,26,108,6168167,,,,,,,2023-10-04,1,,,,,ウシマサ,0
2572,9130003009018,新規,0,2023-10-04,2023-10-04,合同会社佳門,,合同会社,京都府,京都市右京区,梅津堤上町５１,,26,108,6150904,,,,,,,2023-10-04,1,,,,,カモン,0
2573,9130005016895,新規,0,2023-10-04,2023-10-04,医療法人かねみつ医院,,その他の設立登記法人,京都府,京都市右京区,常盤東ノ町６番地５ＳＫＹビル１階,,26,108,6168217,,,,,,,2023-10-04,1,,,,,カネミツイイン,0
2579,9140001131838,新規,0,2023-10-04,2023-10-04,株式会社ＪＩＮ,,株式会社,兵庫県,尼崎市,崇徳院２丁目１５９番地,,28,202,6600071,,,,,,,2023-10-04,1,,,,,ジン,0
2580,9140001131854,新規,0,2023-10-04,2023-10-04,株式会社ベターデイズ,,株式会社,兵庫県,神戸市垂水区,舞子台５丁目１１番１－５０６号,,28,108,6550046,,,,,,,2023-10-04,1,,,,,,0
2581,9140001131887,新規,0,2023-10-04,2023-10-04,株式会社ＡＷＴ,,株式会社,兵庫県,洲本市,五色町都志１２１６,,28,205,6561301,,,,,,,2023-10-04,1,,,,,エーダブルティー,0
2585,9150003003076,新規,0,2023-10-04,2023-10-04,合同会社ＭＩＲＡＩ,,合同会社,奈良県,香芝市,狐井２６０番１リヴィエール２０２,,29,210,6390234,,,,,,,2023-10-04,1,,,,,ミライ,0
2586,9160001025369,新規,0,2023-10-04,2023-10-04,株式会社エスポワプレシジョン,,株式会社,滋賀県,高島市,新旭町藁園１９７０,,25,212,5201511,,,,,,,2023-10-04,1,,,,,エスポワプレシジョン,0
2591,9160003003001,新規,0,2023-10-04,2023-10-04,合同会社グッドスマイルカンパニー,,合同会社,滋賀県,甲賀市,水口町名坂１０１４番地８,,25,209,5280035,,,,,,,2023-10-04,1,,,,,グッドスマイルカンパニー,0
2593,9170001017811,新規,0,2023-10-04,2023-10-04,株式会社エスコン,,株式会社,和歌山県,和歌山市,上三毛２４５番地１０,,30,201,6496262,,,,,,,2023-10-04,1,,,,,エスコン,0
2602,9180001158266,新規,0,2023-10-04,2023-10-04,株式会社Ｒａｐｉｄ,,株式会社,愛知県,名古屋市千種区,宮根台１丁目１１番１６号,,23,101,4640008,,,,,,,2023-10-04,1,,,,,ラピッド,0
2603,9180001158299,新規,0,2023-10-04,2023-10-04,株式会社永燈,,株式会社,愛知県,名古屋市天白区,一つ山４丁目１１番地,,23,116,4680033,,,,,,,2023-10-04,1,,,,,エイト,0
2606,9180003025811,新規,0,2023-10-04,2023-10-04,合同会社Ｄｒｅａｍ,,合同会社,愛知県,名古屋市名東区,極楽３丁目１９３番地,,23,115,4650053,,,,,,,2023-10-04,1,,,,,ドリーム,0
2608,9180301037871,新規,0,2023-10-04,2023-10-04,株式会社ネグタッド,,株式会社,愛知県,岡崎市,茅原沢町字上平２４番地２,,23,202,4443335,,,,,,,2023-10-04,1,,,,,ネグタッド,0
2610,9190003004459,新規,0,2023-10-04,2023-10-04,合同会社ビーアイジェイ,,合同会社,三重県,四日市市,平津新町２６０番地２８５,,24,202,5128043,,,,,,,2023-10-04,1,,,,,ビーアイジェイ,0
2613,9200001041774,新規,0,2023-10-04,2023-10-04,株式会社ＫＡＩ,,株式会社,岐阜県,岐阜市,松鴻町３丁目１番地１,,21,201,5008412,,,,,,,2023-10-04,1,,,,,カイ,0
2614,9200001041782,新規,0,2023-10-04,2023-10-04,株式会社８ＬＩＦＥ,,株式会社,岐阜県,各務原市,那加甥田町１６番地,,21,213,5040837,,,,,,,2023-10-04,1,,,,,エイトライフ,0
2621,9220003003597,新規,0,2023-10-04,2023-10-04,合同会社ＫＧ能登,,合同会社,石川県,七尾市,藤橋町未部４３番５号北野ビル２階,,17,202,9260816,,,,,,,2023-10-04,1,,,,,ケージーノト,0
2622,9230001020040,新規,0,2023-10-04,2023-10-04,株式会社ＥＲＣエコロ,,株式会社,富山県,高岡市,向野町３丁目４３番地１７,,16,202,9330902,,,,,,,2023-10-04,1,,,,,イーアールシーエコロ,0
2624,9240001062206,新規,0,2023-10-04,2023-10-04,株式会社ＨＩＹＯＲＩＳＴＡＹ,,株式会社,広島県,庄原市,中本町１丁目３番１号,,34,210,7270012,,,,,,,2023-10-04,1,,,,,ヒヨリステイ,0
2625,9240003006350,新規,0,2023-10-04,2023-10-04,合同会社博之研究所,,合同会社,広島県,東広島市,西条町下三永２６２５番地,,34,212,7390023,,,,,,,2023-10-04,1,,,,,ヒロユキケンキュウショ,0
2628,9260001038352,新規,0,2023-10-04,2023-10-04,ミズカワ車輌株式会社,,株式会社,岡山県,倉敷市,真備町箭田４５６９番地１,,33,202,7101301,,,,,,,2023-10-04,1,,,,,ミズカワシャリョウ,0
2629,9260001038360,新規,0,2023-10-04,2023-10-04,株式会社ＧＬＯＢＡＬ,,株式会社,岡山県,倉敷市,玉島１８０１番地１４,,33,202,7138102,,,,,,,2023-10-04,1,,,,,グローバル,0
2630,9260001038369,新規,0,2023-10-04,2023-10-04,株式会社ＵＢ,,株式会社,岡山県,岡山市中区,倉田２５９番地３６,,33,102,7038265,,,,,,,2023-10-04,1,,,,,ユービー,0
2633,9260003004451,新規,0,2023-10-04,2023-10-04,合同会社パワナグ,,合同会社,岡山県,岡山市南区,藤田５６４番地１４１ステムハイツ２階,,33,104,7010221,,,,,,,2023-10-04,1,,,,,パワナグ,0
2634,9280001009046,新規,0,2023-10-04,2023-10-04,株式会社大竹屋,,株式会社,島根県,出雲市,斐川町黒目１９７０番地,,32,203,6990553,,,,,,,2023-10-04,1,,,,,オオタケヤ,0
2636,9290001103186,新規,0,2023-10-04,2023-10-04,株式会社Ｅｃｏ　Ｅｎｅｒｇｙ,,株式会社,福岡県,うきは市,浮羽町東隈上７２番地１５,,40,225,8391403,,,,,,,2023-10-04,1,,,,,エコエナジー,0
2637,9290001103194,新規,0,2023-10-04,2023-10-04,株式会社エスペランサ,,株式会社,福岡県,福岡市中央区,薬院２丁目１７番１号１Ｆ,,40,133,8100022,,,,,,,2023-10-04,1,,,,,エスペランサ,0
2638,9290001103203,新規,0,2023-10-04,2023-10-04,株式会社福神,,株式会社,福岡県,福岡市城南区,神松寺１丁目６番１３号,,40,136,8140121,,,,,,,2023-10-04,1,,,,,フクシン,0
2639,9290001103293,新規,0,2023-10-04,2023-10-04,株式会社魚蔵,,株式会社,福岡県,福岡市早良区,高取１丁目２番２２号,,40,137,8140011,,,,,,,2023-10-04,1,,,,,ウオクラ,0
2640,9290003014448,新規,0,2023-10-04,2023-10-04,合同会社ニカ,,合同会社,福岡県,福岡市中央区,春吉２丁目１５－３ＹＢＦＭＡＮＳＩＯＮ１１０１,,40,133,8100003,,,,,,,2023-10-04,1,,,,,ニカ,0
2642,9290005019164,新規,0,2023-10-04,2023-10-04,福岡旅行業協同組合,,その他の設立登記法人,福岡県,福岡市中央区,今泉１丁目２－３０天神プレイスイースト棟２Ｆ,,40,133,8100021,,,,,,,2023-10-04,1,,,,,,0
2644,9290801029911,新規,0,2023-10-04,2023-10-04,株式会社リグロース,,株式会社,福岡県,北九州市八幡西区,相生町１４番１１号ＮＢビル１Ｆ－Ｂ,,40,109,8060044,,,,,,,2023-10-04,1,,,,,リグロース,0
2648,9310001018638,新規,0,2023-10-04,2023-10-04,株式会社Ｇｍａｒｕ,,株式会社,長崎県,長崎市,南町２番３７号,,42,201,8500942,,,,,,,2023-10-04,1,,,,,ジーマル,0
2655,9320001020031,新規,0,2023-10-04,2023-10-04,株式会社湯遊村,,株式会社,大分県,別府市,新港町５番１号シャインリゾート別府５０６号,,44,202,8740923,,,,,,,2023-10-04,1,,,,,ユウユウムラ,0
2657,9320003004189,新規,0,2023-10-04,2023-10-04,合同会社赤星建築,,合同会社,大分県,日田市,大字西有田６００番地２,,44,204,8770000,,,,,,,2023-10-04,1,,,,,アカホシケンチク,0
2659,9330003010005,新規,0,2023-10-04,2023-10-04,レボラス合同会社,,合同会社,熊本県,熊本市中央区,花畑町１番１４号Ａ＆ＭＨＡＮＡＢＡＴＡ３０１号,,43,101,8600806,,,,,,,2023-10-04,1,,,,,レボラス,0
2660,9330003010013,新規,0,2023-10-04,2023-10-04,ＫａｎＴａｃＣｏｎｓｕｌｔｉｎｇ合同会社,,合同会社,熊本県,熊本市西区,春日７丁目１５―５９―１０２,,43,103,8600047,,,,,,,2023-10-04,1,,,,,カンタックコンサルティング,0
2666,9350001018592,新規,0,2023-10-04,2023-10-04,株式会社Ｇｉｎ,,株式会社,宮崎県,宮崎市,中央通３－２４福野ビル１階,,45,201,8800002,,,,,,,2023-10-04,1,,,,,ギン,0
2668,9350003004450,新規,0,2023-10-04,2023-10-04,合同会社Ｓｈｉｍｍｙコネクト,,合同会社,宮崎県,宮崎市,稗原町２２番地２,,45,201,8800832,,,,,,,2023-10-04,1,,,,,シミーコネクト,0
2670,9360001032642,新規,0,2023-10-04,2023-10-04,株式会社永和エステート,,株式会社,沖縄県,宜野湾市,志真志１丁目９番９号,,47,205,9012213,,,,,,,2023-10-04,1,,,,,トワエステート,0
2681,9420001018429,新規,0,2023-10-04,2023-10-04,株式会社ＣＲＢ,,株式会社,青森県,青森市,問屋町１丁目６番６号,,02,201,0300131,,,,,,,2023-10-04,1,,,,,シーアールビー,0
2699,9460001005836,新規,0,2023-10-04,2023-10-04,株式会社ａｓｓｅｔ　ｓｔｏｃｋ,,株式会社,北海道,釧路市,緑ケ岡２丁目４１番１７号,,01,206,0850814,,,,,,,2023-10-04,1,,,,,,0
2701,9460101007443,新規,0,2023-10-04,2023-10-04,ＫＹＪホールディングス株式会社,,株式会社,北海道,帯広市,新町西３丁目１６メゾンシャルム１２０７,,01,207,0800053,,,,,,,2023-10-04,1,,,,,ケーワイジェーホールディングス,0
2702,9470001019835,新規,0,2023-10-04,2023-10-04,株式会社ユーアイ経営,,株式会社,香川県,観音寺市,出作町４１４番地,,37,205,7680011,,,,,,,2023-10-04,1,,,,,ユーアイケイエイ,0
2707,9470003002500,新規,0,2023-10-04,2023-10-04,合同会社Ｄ１,,合同会社,香川県,高松市,栗林町１丁目１８－３０栗林ビル７階,,37,201,7600073,,,,,,,2023-10-04,1,,,,,ディーワン,0
2709,9480002016269,新規,0,2023-10-04,2023-10-04,黒潮総業有限会社,,有限会社,徳島県,海部郡美波町,伊座利字小イザリ３４３番地９０,,36,387,7792107,,,,,,,2023-10-04,1,,,,,クロシオソウギョウ,0
2710,9480003002029,新規,0,2023-10-04,2023-10-04,アペリオ合同会社,,合同会社,徳島県,美馬市,穴吹町穴吹字柏８８－７,,36,207,7770005,,,,,,,2023-10-04,1,,,,,アペリオ,0
2716,9500003003115,新規,0,2023-10-04,2023-10-04,合同会社エスコートサポート,,合同会社,愛媛県,伊予郡砥部町,高尾田１０１２番地,,38,402,7912101,,,,,,,2023-10-04,1,,,,,エスコートサポート,0
2718,9700150113084,新規,0,2023-10-04,2022-11-30,Ａ　Ｌａｄｙｂｉｒｄ　Ｔｈｅａｔｅｒ　Ｃｏｍｐａｎｙ,,その他,宮城県,仙台市宮城野区,東仙台１丁目７－１－４０２,,04,102,9830833,,,,,,,2022-11-30,1,,,,,アレデイバードシアターカンパニー,0
2719,9700150120964,新規,0,2023-10-04,2023-10-03,Ｔｕｍｂｌｉｎｇ　Ｄｉｃｅ　Ｒｅｃｏｒｄｓ,,その他,東京都,世田谷区,世田谷１丁目７－１４,,13,112,1540017,,,,,,,2023-10-03,1,,,,,タンブリングダイスレコード,0
2720,9700150121005,新規,0,2023-10-04,2023-10-04,Ｓｈａｎｇｈａｉ　ＨＯＨＯ　Ｉｎｄｕｓｔｒｙ　ＣＯ．，Ｌｔｄ,,外国会社等,,,,,,,,Ｒｏｏｍ　Ｊ４７１，Ｂｕｉｌｄｉｎｇ１，Ｎｏ．６８９９，Ｌｉｕｘｉａｎｇ　Ｈｉｇｈｗａｙ，Ｈｕａｔｉｎｇ　Ｔｏｗｎ，Ｊｉａｄｉｎｇ　Ｄｉｓｔｒｉｃｔ,,,,,,2023-10-04,1,,,,,シヤンハイホーホーインダストリーカンパニリミテツド,0
2721,9700150121013,新規,0,2023-10-04,2023-10-04,Ｈｉｆｕｎ　ｄｅｓｉｇｎ　ａｎｄ　ｔｒａｄｉｎｇ　Ｉｎｃ,,外国会社等,,,,,,,,１０５４５　Ａｖｉａｒｙ　Ｄｒｉｖｅ，Ａｌｐｈａｒｅｔｔａ，ＧＡ，３００２２,,,,,,2023-10-04,1,,,,,ハイフンデザインアンドトレーデイングイング,0
2722,9700150121021,新規,0,2023-10-04,2023-10-04,ＹＵＹＡＯＳＨＩ　ＹＩＮＹＵＡＮ　ＧＵＯＪＩ　ＭＡＯＹＩ　ＹＯＵＸＩＡＮ　ＧＯＮＧＳＩ,,外国会社等,,,,,,,,Ｒｏｏｍ　１２０２，Ｎｏ．４９　Ｃｈａｎｇｘｉｎ　Ｒｏａｄ　Ｙｕｙａｏ　Ｚｈｅｊｉａｎｇ　Ｃｈｉｎａ　３１５４００,,,,,,2023-10-04,1,,,,,イーヤオシーインユエングオジーマオイーヨウシエンゴンスー,0
2723,9700150121038,新規,0,2023-10-04,2023-10-04,ＺＥＰＴＯＳ　ＣＯ．，ＬＩＭＩＴＥＤ,,外国会社等,,,,,,,,１９Ｈ　Ｍａｘｇｒａｎｄ　ｐｌａｚａ，Ｎｏ．３　Ｔａｉ　Ｙａｕ　Ｓｔｒｅｅｔ，Ｓａｎ　Ｐｏ　Ｋｏｎｇ，Ｋｏｗｌｏｏｎ　ＨｏｎｇＫｏｎｇ,,,,,,2023-10-04,1,,,,,ゼプストスカンパニリミテツド,0
