sequenceNumber,corporateNumber,process,correct,updateDate,changeDate,name,nameImageId,kind,prefectureName,cityName,streetNumber,addressImageId,prefectureCode,cityCode,postCode,addressOutside,addressOutsideImageId,closeDate,closeCause,successorCorporateNumber,changeCause,assignmentDate,latest,enName,enPrefectureName,enCityName,enAddressOutside,furigana,hihyoji
4,1010001256548,新規,0,2025-07-08,2025-07-08,海和海運株式会社,,株式会社,東京都,中央区,銀座６丁目６番１号銀座風月堂ビル５階,,13,102,1040061,,,,,,,2025-07-08,1,,,,,カイワカイウン,0
5,1010001256564,新規,0,2025-07-08,2025-07-08,濱田管財株式会社,,株式会社,東京都,千代田区,九段南１丁目５番６号りそな九段ビル５階ＫＳフロア,,13,101,1020074,,,,,,,2025-07-08,1,,,,,ハマダカンザイ,0
6,1010005040295,新規,0,2025-07-08,2025-07-08,ＮＯＴ　Ａ　ＨＯＴＥＬ　ＲＵＳＵＴＳＵ特定目的会社,,その他の設立登記法人,東京都,中央区,京橋２丁目１２番６号ＡＯＪ税理士法人内,,13,102,1040031,,,,,,,2025-07-08,1,,,,,ノットアホテルルスツ,0
7,1010005040337,新規,0,2025-07-08,2025-07-08,ＩＣＥ　ＪＰ　Ｐｒｏｐｅｒｔｙ１特定目的会社,,その他の設立登記法人,東京都,千代田区,丸の内１丁目４番１号東京共同会計事務所内,,13,101,1000005,,,,,,,2025-07-08,1,,,,,アイスジェイピープロパティーワン,0
14,1010401191477,新規,0,2025-07-08,2025-07-08,株式会社Ｆｒｅｅ　Ｌｉｆｅ　Ｃｏｎｓｕｌｔｉｎｇ,,株式会社,東京都,港区,芝５丁目１３番１１号ＭＡビル芝ＩＩＩＡＮＮＥＸ９階,00139851,13,103,1080014,,,,,,,2025-07-08,1,,,,,フリーライフコンサルティング,0
15,1010401191551,新規,0,2025-07-08,2025-07-08,株式会社ＫＣ　Ｈｏｌｄｉｎｇｓ,,株式会社,東京都,港区,赤坂９丁目２番９号カルム赤坂２０８,,13,103,1070052,,,,,,,2025-07-08,1,,,,,ケーシーホールディングス,0
16,1010401191568,新規,0,2025-07-08,2025-07-08,株式会社Ａ・Ｉインターナショナル,,株式会社,東京都,港区,白金台５丁目３番６号白金台セントラルビル４階Ａ号室,,13,103,1080071,,,,,,,2025-07-08,1,,,,,エーアイインターナショナル,0
17,1010401191576,新規,0,2025-07-08,2025-07-08,株式会社アグリベラル,,株式会社,東京都,港区,浜松町２丁目２番１５号浜松町ダイヤビル２Ｆ,,13,103,1050013,,,,,,,2025-07-08,1,,,,,アグリベラル,0
20,1010403035509,新規,0,2025-07-08,2025-07-08,合同会社エスティー企画,,合同会社,東京都,港区,南青山３丁目１番３６号青山丸竹ビル６Ｆ,,13,103,1070062,,,,,,,2025-07-08,1,,,,,エスティーキカク,0
21,1010403035517,新規,0,2025-07-08,2025-07-08,合同会社サードストライク,,合同会社,東京都,港区,三田２丁目１８番６号,,13,103,1080073,,,,,,,2025-07-08,1,,,,,サードストライク,0
22,1010403035541,新規,0,2025-07-08,2025-07-08,合同会社小涌谷開発,,合同会社,東京都,港区,東新橋２丁目６番６号,,13,103,1050021,,,,,,,2025-07-08,1,,,,,コワクダニカイハツ,0
27,1010601067551,新規,0,2025-07-08,2025-07-08,株式会社トライデント,,株式会社,東京都,墨田区,文花１丁目３４番１１号豊日ビル２０５号,,13,107,1310044,,,,,,,2025-07-08,1,,,,,トライデント,0
28,1010701047957,新規,0,2025-07-08,2025-07-08,株式会社長者丸アセットマネジメント,,株式会社,東京都,品川区,上大崎２丁目７番２６号,,13,109,1410021,,,,,,,2025-07-08,1,,,,,チョウジャマルアセットマネジメント,0
32,1010803005458,新規,0,2025-07-08,2025-07-08,Ｔｒｉａｎｇｌｅ７合同会社,,合同会社,東京都,大田区,久が原４丁目３６番９号,,13,111,1460085,,,,,,,2025-07-08,1,,,,,トライアングルセブン,0
43,1011001171126,新規,0,2025-07-08,2025-07-08,株式会社ｖｉｓｉｏｎｓ,,株式会社,東京都,渋谷区,神泉町１０番１５号アネックス神泉３０１,,13,113,1500045,,,,,,,2025-07-08,1,,,,,ビジョンズ,0
47,1011103016096,新規,0,2025-07-08,2025-07-08,ＩＶＹ　ＣＡＰＩＴＡＬ合同会社,,合同会社,東京都,新宿区,西新宿３丁目３番１３号西新宿水間ビル２Ｆ,,13,104,1600023,,,,,,,2025-07-08,1,,,,,アイビーキャピタル,0
49,1011201026492,新規,0,2025-07-08,2025-07-08,株式会社ＲＩＫＫＡ,,株式会社,東京都,中野区,野方４丁目４０番１９号,,13,114,1650027,,,,,,,2025-07-08,1,,,,,リッカ,0
50,1011301030709,新規,0,2025-07-08,2025-07-08,株式会社ＧＸ総合研究所,,株式会社,東京都,杉並区,高円寺南４丁目２３番５号ＡＣＰビル２Ｆ,,13,115,1660003,,,,,,,2025-07-08,1,,,,,ジーエックスソウゴウケンキュウショ,0
59,1012401043303,新規,0,2025-07-08,2025-07-08,株式会社ポノ,,株式会社,東京都,調布市,布田１丁目４６番地１調布ＫＳビル８０１,,13,208,1820024,,,,,,,2025-07-08,1,,,,,ポノ,0
61,1012403007215,新規,0,2025-07-08,2025-07-08,Ｉｃｈｉｇｏｏ合同会社,,合同会社,東京都,調布市,布田５丁目２９番地１６,,13,208,1820024,,,,,,,2025-07-08,1,,,,,イチグウ,0
64,1012701018954,新規,0,2025-07-08,2025-07-08,Ｓｏｆｕ‐Ｂａｓｅ株式会社,,株式会社,東京都,清瀬市,元町１丁目１３番２１号エメラルドハイツ１０１―１０１号室―Ｐ,,13,221,2040021,,,,,,,2025-07-08,1,,,,,ソフベース,0
72,1020001163719,新規,0,2025-07-08,2025-07-08,株式会社アンブレラ・クリエイト,,株式会社,神奈川県,川崎市中原区,木月祗園町４番２４号,,14,133,2110033,,,,,,,2025-07-08,1,,,,,アンブレラクリエイト,0
73,1020001163768,新規,0,2025-07-08,2025-07-08,ＴＪ　ＴＥＣＨ株式会社,,株式会社,神奈川県,横浜市緑区,霧が丘３丁目２２番地５霧が丘グリーンタウン２２－６－５０８,,14,113,2260016,,,,,,,2025-07-08,1,,,,,ティージェイテック,0
74,1020001163776,新規,0,2025-07-08,2025-07-08,Ｓａｎｍｉｋ　Ｆｏｏｄ　Ｊａｐａｎ株式会社,,株式会社,神奈川県,川崎市幸区,矢上７番７号ハイネス新川崎４０２,,14,132,2120056,,,,,,,2025-07-08,1,,,,,サンミクフードジャパン,0
76,1020003028878,新規,0,2025-07-08,2025-07-08,合同会社Ｌｉｆｉｅｌｄ,,合同会社,神奈川県,横浜市磯子区,氷取沢町１５０番地４－６棟４０４号,,14,107,2350043,,,,,,,2025-07-08,1,,,,,ライフィールド,0
77,1021003016261,新規,0,2025-07-08,2025-07-08,合同会社ＹＮＴＳ,,合同会社,神奈川県,藤沢市,鵠沼海岸７丁目７番８号サニーウェル鵠沼２０１,,14,205,2510037,,,,,,,2025-07-08,1,,,,,ワイエヌティーエス,0
84,1030001167545,新規,0,2025-07-08,2025-07-08,Ｘ‐ＬＩＮＫ株式会社,,株式会社,埼玉県,北葛飾郡杉戸町,倉松２丁目２－１２－３０３,,11,464,3450034,,,,,,,2025-07-08,1,,,,,クロスリンク,0
88,1030003027160,新規,0,2025-07-08,2025-07-08,Ｆｅａｒｌｅｓｓ合同会社,,合同会社,埼玉県,入間市,東藤沢３丁目２番１３号ＫＩＶ商会館入間Ｈ号室,,11,225,3580012,,,,,,,2025-07-08,1,,,,,フィアレス,0
91,1040001139502,新規,0,2025-07-08,2025-07-08,竹均株式会社,,株式会社,千葉県,船橋市,前原西２丁目６－１３永和第五ビル２０１号,,12,204,2740825,,,,,,,2025-07-08,1,,,,,タケキン,0
92,1040001139551,新規,0,2025-07-08,2025-07-08,株式会社Ｓｏｐｌｙ　Ｊａｐａｎ,,株式会社,千葉県,東金市,山口８７３－２５,,12,213,2830813,,,,,,,2025-07-08,1,,,,,ソプリージャパン,0
95,1050002045979,新規,0,2025-07-08,2025-07-08,有限会社アイエン,,有限会社,茨城県,鉾田市,汲上字吾妻原４１３７番９,,08,234,3112103,,,,,,,2025-07-08,1,,,,,,0
100,1060003005634,新規,0,2025-07-08,2025-07-08,ＺＡＨＩＤ　ＧＯＮＤＡＬ合同会社,,合同会社,栃木県,佐野市,岩崎町５５１,,09,204,3270307,,,,,,,2025-07-08,1,,,,,ザヒドゴンダル,0
105,1090001019377,新規,0,2025-07-08,2025-07-08,株式会社窪田自動車鈑金塗装工場,,株式会社,山梨県,甲府市,東光寺２丁目２３番１９号,,19,201,4000807,,,,,,,2025-07-08,1,,,,,クボタジドウシャバンキントソウコウジョウ,0
116,1110003005810,新規,0,2025-07-08,2025-07-08,Ｎｉｃｏ　Ｃａｐｉｔａｌ　Ｉｎｖｅｓｔｍｅｎｔｓ合同会社,,合同会社,新潟県,妙高市,大字樽本１１０１番地７６,,15,217,9492223,,,,,,,2025-07-08,1,,,,,ニコキャピタルインベストメンツ,0
123,1120001277319,新規,0,2025-07-08,2025-07-08,陽輝株式会社,,株式会社,大阪府,門真市,北島町１５－７,,27,223,5710026,,,,,,,2025-07-08,1,,,,,ヨウキ,0
124,1120001277616,新規,0,2025-07-08,2025-07-08,江の屋株式会社,,株式会社,大阪府,大阪市中央区,船場中央２丁目２番５号船場センタービル５号館地下一階Ｂ１２９ＲＯＹＡＬＯＦＦＩＣＥ・ＲｏｏｍＳ,,27,128,5410055,,,,,,,2025-07-08,1,,,,,コウノヤ,0
125,1120003029882,新規,0,2025-07-08,2025-07-08,ＶＡＪＲＡ合同会社,,合同会社,大阪府,大阪市浪速区,大国３丁目１１－２２フジマンション３０１,,27,111,5560014,,,,,,,2025-07-08,1,,,,,ヴァジュラ,0
132,1122001039392,新規,0,2025-07-08,2025-07-08,Ｃｈａｍｂｅｒｓ株式会社,,株式会社,大阪府,東大阪市,御厨４丁目１番２１号,,27,227,5770032,,,,,,,2025-07-08,1,,,,,チェンバーズ,0
138,1130001080036,新規,0,2025-07-08,2025-07-08,株式会社幻花,,株式会社,京都府,京都市下京区,西七条東八反田町３３番地パデシオン京都七条７１２号,,26,106,6008891,,,,,,,2025-07-08,1,,,,,ゲンカ,0
139,1130001080069,新規,0,2025-07-08,2025-07-08,株式会社ＵＺＵ,,株式会社,京都府,宇治市,木幡熊小路１９番地の１０９,,26,204,6110002,,,,,,,2025-07-08,1,,,,,ウズ,0
148,1140003022266,新規,0,2025-07-08,2025-07-08,ＢＬＯＯＭＡＤＯＮＥ合同会社,,合同会社,兵庫県,伊丹市,安堂寺町６丁目４０７－５,,28,207,6640864,,,,,,,2025-07-08,1,,,,,ブルマドーン,0
149,1140003022274,新規,0,2025-07-08,2025-07-08,ＴＨＡＮＨ　ＭＡＩ合同会社,,合同会社,兵庫県,神戸市長田区,梅ケ香町１丁目３番１０号－１Ｆ,,28,106,6530021,,,,,,,2025-07-08,1,,,,,タインマイ,0
150,1140003022290,新規,0,2025-07-08,2025-07-08,合同会社ひとまラボ,,合同会社,兵庫県,神戸市中央区,磯辺通１丁目１番１８号カサベラ国際プラザビル７０７号室,,28,110,6510084,,,,,,,2025-07-08,1,,,,,ヒトマラボ,0
151,1140003022299,新規,0,2025-07-08,2025-07-08,レジデンス不動産Ｍｅｉｓｈｉｎ合同会社,,合同会社,兵庫県,神戸市中央区,山本通２丁目２－２,,28,110,6500003,,,,,,,2025-07-08,1,,,,,レジデンスフドウサンメイシン,0
154,1150003003645,新規,0,2025-07-08,2025-07-08,ａｎｄｇｒｏｕｎｄ合同会社,,合同会社,奈良県,宇陀市,榛原萩原２４２９－７,,29,212,6330253,,,,,,,2025-07-08,1,,,,,アンドグラウンド,0
155,1150003003653,新規,0,2025-07-08,2025-07-08,合同会社ラグレイト,,合同会社,奈良県,奈良市,百楽園１丁目８番３０号,,29,201,6310024,,,,,,,2025-07-08,1,,,,,ラグレイト,0
158,1160005011422,新規,0,2025-07-08,2025-07-08,一般社団法人フォルスリール,,その他の設立登記法人,滋賀県,東近江市,栄町３－２４,,25,213,5270027,,,,,,,2025-07-08,1,,,,,フォルスリール,0
165,1180301039974,新規,0,2025-07-08,2025-07-08,株式会社Ｃａｒｅａ,,株式会社,愛知県,蒲郡市,丸山町６番２１号,,23,214,4430032,,,,,,,2025-07-08,1,,,,,ケアリア,0
166,1180301039990,新規,0,2025-07-08,2025-07-08,株式会社ピノキオ,,株式会社,愛知県,豊田市,貝津町町屋７１番地,,23,211,4700348,,,,,,,2025-07-08,1,,,,,ピノキオ,0
168,1190001032361,新規,0,2025-07-08,2025-07-08,株式会社ＡＫＵＳＨＵ,,株式会社,三重県,四日市市,万古町８番２０号ラウムズ阿倉川５０３号,,24,202,5100804,,,,,,,2025-07-08,1,,,,,アクシュ,0
171,1200001043951,新規,0,2025-07-08,2025-07-08,株式会社Ｌｏｙａｌｔｙ,,株式会社,岐阜県,中津川市,駒場１６２０番地の４１,,21,206,5080011,,,,,,,2025-07-08,1,,,,,ロイヤリティ,0
173,1200003006907,新規,0,2025-07-08,2025-07-08,合同会社ＧＡＲＡＧＥ　ＲＥＶＩＤＥ,,合同会社,岐阜県,加茂郡川辺町,下川辺５８９番地の３,,21,503,5090306,,,,,,,2025-07-08,1,,,,,ガレージリヴァイド,0
174,1210001020231,新規,0,2025-07-08,2025-07-08,うみねこ不動産株式会社,,株式会社,福井県,大飯郡高浜町,若宮第３号２５番地,,18,481,9192227,,,,,,,2025-07-08,1,,,,,ウミネコフドウサン,0
181,1250001021234,新規,0,2025-07-08,2025-07-08,株式会社イトデン,,株式会社,山口県,宇部市,今村南３丁目３番１５－５号,,35,202,7550154,,,,,,,2025-07-08,1,,,,,イトデン,0
189,1290001110603,新規,0,2025-07-08,2025-07-08,株式会社ＡＮ　Ｐａｒｔｎｅｒｓ,,株式会社,福岡県,福岡市博多区,博多駅南１丁目１５番２８号,,40,132,8120016,,,,,,,2025-07-08,1,,,,,エーエヌパートナーズ,0
190,1290001110636,新規,0,2025-07-08,2025-07-08,株式会社小野工装,,株式会社,福岡県,福岡市博多区,吉塚４丁目１０番１０号,,40,132,8120041,,,,,,,2025-07-08,1,,,,,オノコウソウ,0
205,1360001035421,新規,0,2025-07-08,2025-07-08,株式会社仲本不動産,,株式会社,沖縄県,那覇市,銘苅３丁目１５番３号,,47,201,9000004,,,,,,,2025-07-08,1,,,,,ナカモトフドウサン,0
206,1360001035454,新規,0,2025-07-08,2025-07-08,株式会社ＯＦＡ,,株式会社,沖縄県,国頭郡大宜味村,字塩屋９８７－２,,47,302,9051311,,,,,,,2025-07-08,1,,,,,オーエフエー,0
211,1380001035444,新規,0,2025-07-08,2025-07-08,株式会社さくらホールディング,,株式会社,福島県,郡山市,開成６丁目４７番１号,,07,203,9638851,,,,,,,2025-07-08,1,,,,,サクラホールディング,0
216,1410005006652,新規,0,2025-07-08,2025-07-08,医療法人赤沢歯科医院,,その他の設立登記法人,秋田県,横手市,増田町増田字本町３番地,,05,203,0190701,,,,,,,2025-07-08,1,,,,,アカサワシカイイン,0
223,1430001094807,新規,0,2025-07-08,2025-07-08,株式会社佐々木工業,,株式会社,北海道,札幌市東区,中沼三条１丁目４番２５号,,01,103,0070003,,,,,,,2025-07-08,1,,,,,ササキコウギョウ,0
224,1430001094815,新規,0,2025-07-08,2025-07-08,ギアップ株式会社,,株式会社,北海道,札幌市中央区,北四条西４丁目１番地７リージャス札幌駅前通ビジネスセンター,,01,101,0600004,,,,,,,2025-07-08,1,,,,,ギアップ,0
225,1430001094831,新規,0,2025-07-08,2025-07-08,株式会社ＫＴＫ,,株式会社,北海道,札幌市手稲区,前田六条７丁目１－７,,01,109,0060816,,,,,,,2025-07-08,1,,,,,ケーティーケー,0
228,1430003017848,新規,0,2025-07-08,2025-07-08,合同会社ＷｉＺ　Ｇｌｏｂａｌ,,合同会社,北海道,虻田郡喜茂別町,字喜茂別１６３番地の７,,01,398,0440201,,,,,,,2025-07-08,1,,,,,ウィズグローバル,0
229,1430003017872,新規,0,2025-07-08,2025-07-08,レタラ合同会社,,合同会社,北海道,苫小牧市,木場町１丁目１番２号,,01,213,0530033,,,,,,,2025-07-08,1,,,,,レタラ,0
232,1450001014671,新規,0,2025-07-08,2025-07-08,株式会社ＴＦＣ,,株式会社,北海道,旭川市,神居三条６丁目１番１９号,,01,204,0708013,,,,,,,2025-07-08,1,,,,,ティーエフシー,0
241,1700150131341,新規,0,2025-07-08,2025-07-08,Ｈｉｎｏｄｅ　Ｍｏｔｏｒｓ,,外国会社等,千葉県,八街市,沖１８００番地１,,12,230,2891126,スリランカ民主社会主義共和国、キャンディ、テンネクンブラ、Ｎｏ．１７２／３,,,,,,2025-07-08,1,,,,,ヒノデモータース,0
249,2010001256506,新規,0,2025-07-08,2025-07-08,株式会社ＤＩＫファーム,,株式会社,東京都,中央区,勝どき４丁目２－１３－６０１,,13,102,1040054,,,,,,,2025-07-08,1,,,,,ディーアイケーファーム,0
258,2010401191476,新規,0,2025-07-08,2025-07-08,株式会社ＯＲＩＶ,,株式会社,東京都,港区,浜松町２丁目２番１５号浜松町ダイヤビル２Ｆ,,13,103,1050013,,,,,,,2025-07-08,1,,,,,オリヴ,0
259,2010401191484,新規,0,2025-07-08,2025-07-08,株式会社Ｌｉｔｅｌａ,,株式会社,東京都,港区,六本木３丁目１６番１２号六本木ＫＳビル５Ｆ,,13,103,1060032,,,,,,,2025-07-08,1,,,,,リテラ,0
260,2010401191575,新規,0,2025-07-08,2025-07-08,Ｔｏｕｒｉ　Ｔｅｃｈｎｏｌｏｇｉｅｓ株式会社,,株式会社,東京都,港区,芝浦２丁目１４番１８号,,13,103,1080023,,,,,,,2025-07-08,1,,,,,トウリテクノロジーズ,0
262,2010403035490,新規,0,2025-07-08,2025-07-08,合同会社リフトアップマーケティング,,合同会社,東京都,港区,北青山１丁目３－３三橋ビル３階,,13,103,1070061,,,,,,,2025-07-08,1,,,,,リフトアップマーケティング,0
263,2010403035508,新規,0,2025-07-08,2025-07-08,ＮｕｔｒｉＤｅｓｉｇｎｓ合同会社,,合同会社,東京都,港区,浜松町２丁目２番１５号浜松町ダイヤビル２Ｆ,,13,103,1050013,,,,,,,2025-07-08,1,,,,,ニュートリディザインズ,0
264,2010403035532,新規,0,2025-07-08,2025-07-08,合同会社ＧＥＥＣＨＩ,,合同会社,東京都,港区,港南１丁目６番４１号,,13,103,1080075,,,,,,,2025-07-08,1,,,,,ギーチ,0
269,2010701047956,新規,0,2025-07-08,2025-07-08,株式会社長者丸キャピタル,,株式会社,東京都,品川区,上大崎２丁目７番２６号,,13,109,1410021,,,,,,,2025-07-08,1,,,,,チョウジャマルキャピタル,0
270,2010701047964,新規,0,2025-07-08,2025-07-08,株式会社リバー,,株式会社,東京都,品川区,戸越４丁目１番２号,,13,109,1420041,,,,,,,2025-07-08,1,,,,,リバー,0
271,2010803005465,新規,0,2025-07-08,2025-07-08,ＬＡＤ合同会社,,合同会社,東京都,大田区,大森西５丁目３０番４－７０３号,,13,111,1430015,,,,,,,2025-07-08,1,,,,,エルエーディー,0
276,2010901057706,新規,0,2025-07-08,2025-07-08,株式会社アワリーマッチング,,株式会社,東京都,世田谷区,等々力２丁目２５番５号,,13,112,1580082,,,,,,,2025-07-08,1,,,,,アワリーマッチング,0
279,2011001170556,新規,0,2025-07-08,2025-07-08,株式会社ＨＥＲＯ　ＩＳ　ＹＯＵ,,株式会社,東京都,渋谷区,道玄坂１丁目１０－８渋谷道玄坂東急ビル２ｆ，ｃ,,13,113,1500043,,,,,,,2025-07-08,1,,,,,ヒーローイズユー,0
280,2011001170580,新規,0,2025-07-08,2025-07-08,富舎株式会社,,株式会社,東京都,渋谷区,渋谷２丁目１９番１９号ワコー宮益坂ビル５階,,13,113,1500002,,,,,,,2025-07-08,1,,,,,フシャ,0
281,2011001170911,新規,0,2025-07-08,2025-07-08,株式会社Ｊ　ｔｏ　Ｚ,,株式会社,東京都,目黒区,下目黒１丁目１番１４号コノトラビル７Ｆ,,13,110,1530064,,,,,,,2025-07-08,1,,,,,ジェイトゥゼッド,0
282,2011003022020,新規,0,2025-07-08,2025-07-08,合同会社Ａｇｉｎｉｔｙ,,合同会社,東京都,目黒区,下目黒１丁目１番１４号コノトラビル７Ｆ,,13,110,1530064,,,,,,,2025-07-08,1,,,,,アジニティ,0
283,2011003022029,新規,0,2025-07-08,2025-07-08,Ｃ＆Ｚ合同会社,,合同会社,東京都,渋谷区,笹塚１丁目６１－８シャトレ－イン東京・笹塚３１９室,,13,113,1510073,,,,,,,2025-07-08,1,,,,,シーアンドゼット,0
284,2011101112375,新規,0,2025-07-08,2025-07-08,バンクオブアート株式会社,,株式会社,東京都,新宿区,西新宿５丁目２４番１７号ＳＩＬ西新宿６階,,13,104,1600023,,,,,,,2025-07-08,1,,,,,バンクオブアート,0
289,2011401027232,新規,0,2025-07-08,2025-07-08,株式会社客楽,,株式会社,東京都,板橋区,蓮沼町５番１０－９０２号,,13,119,1740052,,,,,,,2025-07-08,1,,,,,カクラク,0
290,2011501032289,新規,0,2025-07-08,2025-07-08,株式会社Ｔｏｔａｌ９０,,株式会社,東京都,荒川区,南千住４丁目７番３－３４１０号,,13,118,1160003,,,,,,,2025-07-08,1,,,,,トータルキュウジュウ,0
299,2012403007222,新規,0,2025-07-08,2025-07-08,合同会社Ｙｏｋｏ　Ｍａｔｓｕｍｏｔｏ,,合同会社,東京都,小金井市,貫井南町４丁目１１番２０－２０６号,,13,210,1840014,,,,,,,2025-07-08,1,,,,,ヨーコマツモト,0
300,2012701018953,新規,0,2025-07-08,2025-07-08,株式会社アシスト,,株式会社,東京都,小平市,御幸町２３２番地の４,,13,211,1870012,,,,,,,2025-07-08,1,,,,,アシスト,0
301,2012801024083,新規,0,2025-07-08,2025-07-08,株式会社セキュアビジョン,,株式会社,東京都,日野市,多摩平２丁目５番地の１ＰｌａｎＴ日野市多摩平の森産業連携センター,,13,212,1910062,,,,,,,2025-07-08,1,,,,,セキュアビジョン,0
307,2013305003730,新規,0,2025-07-08,2025-07-08,税理士法人吉原税理士事務所,,その他の設立登記法人,東京都,豊島区,西池袋３丁目３０番１０号,,13,116,1710021,,,,,,,2025-07-08,1,,,,,ヨシハラゼイリシジムショ,0
316,2020001163676,新規,0,2025-07-08,2025-07-08,株式会社Ｆｒｏｍ　Ｅｎｇｉｎｅ,,株式会社,神奈川県,横浜市戸塚区,汲沢町５０６番地１５,,14,110,2450062,,,,,,,2025-07-08,1,,,,,フロムエンジン,0
317,2020001163718,新規,0,2025-07-08,2025-07-08,株式会社みらいインベストメント,,株式会社,神奈川県,横浜市中区,長者町９丁目１４５番地２,,14,104,2310033,,,,,,,2025-07-08,1,,,,,ミライインベストメント,0
318,2020001163742,新規,0,2025-07-08,2025-07-08,株式会社リザルトマーケティング,,株式会社,神奈川県,川崎市麻生区,王禅寺西５丁目１５－６,,14,137,2150017,,,,,,,2025-07-08,1,,,,,リザルトマーケティング,0
319,2020001163767,新規,0,2025-07-08,2025-07-08,株式会社Ｃｈｅｒｉｅ　ｌｏｕｌｏｕ,,株式会社,神奈川県,川崎市川崎区,小川町１５－２,,14,131,2100023,,,,,,,2025-07-08,1,,,,,シェリールル,0
320,2020001163775,新規,0,2025-07-08,2025-07-08,株式会社竹田情報技術事務所,,株式会社,神奈川県,横浜市西区,北幸２丁目１０番４８号むつみビル３階,,14,103,2200004,,,,,,,2025-07-08,1,,,,,タケダジョウホウギジュツジムショ,0
322,2020003028860,新規,0,2025-07-08,2025-07-08,合同会社小鉄園,,合同会社,神奈川県,横浜市旭区,市沢町３－４０,,14,112,2410014,,,,,,,2025-07-08,1,,,,,コテツエン,0
323,2020003028877,新規,0,2025-07-08,2025-07-08,ＤＢ　Ｗｏｒｋｓ合同会社,,合同会社,神奈川県,横浜市旭区,若葉台１丁目６番４０１号,,14,112,2410801,,,,,,,2025-07-08,1,,,,,ディービーワークス,0
324,2020003028893,新規,0,2025-07-08,2025-07-08,ハマＭＫＴ合同会社,,合同会社,神奈川県,横浜市戸塚区,名瀬町７８９番地４２,,14,110,2450051,,,,,,,2025-07-08,1,,,,,ハマエムケイティ,0
328,2021001085695,新規,0,2025-07-08,2025-07-08,株式会社ケイリノ,,株式会社,神奈川県,相模原市緑区,二本松３丁目３２番３号,,14,151,2520137,,,,,,,2025-07-08,1,,,,,ケイリノ,0
331,2021003016252,新規,0,2025-07-08,2025-07-08,海楓アーキテクチャ合同会社,,合同会社,神奈川県,藤沢市,菖蒲沢１１２５番地の１１,,14,205,2520823,,,,,,,2025-07-08,1,,,,,カイフウアーキテクチャ,0
335,2030001167494,新規,0,2025-07-08,2025-07-08,株式会社ＲＩＰＲＯ,,株式会社,埼玉県,川口市,大字榛松６９４番地３,,11,203,3340062,,,,,,,2025-07-08,1,,,,,リプロ,0
336,2030001167511,新規,0,2025-07-08,2025-07-08,株式会社ルナエンタープライズ,,株式会社,埼玉県,川口市,川口６丁目２番９号,,11,203,3320015,,,,,,,2025-07-08,1,,,,,ルナエンタープライズ,0
337,2030001167528,新規,0,2025-07-08,2025-07-08,株式会社渋沢栄一学,,株式会社,埼玉県,深谷市,上野台５０７－１１９,,11,218,3660801,,,,,,,2025-07-08,1,,,,,シブサワエイイチガク,0
338,2030001167560,新規,0,2025-07-08,2025-07-08,Ｒｅａｄｙ　Ｇｏ株式会社,,株式会社,埼玉県,鴻巣市,生出塚１丁目５－７,,11,217,3650033,,,,,,,2025-07-08,1,,,,,レディゴー,0
346,2040001139492,新規,0,2025-07-08,2025-07-08,株式会社ダブルオー,,株式会社,千葉県,市原市,八幡９７５番地３共成ビル,,12,219,2900062,,,,,,,2025-07-08,1,,,,,ダブルオー,0
347,2040001139542,新規,0,2025-07-08,2025-07-08,ザ・ダイヴァース・エ・スティーレ株式会社,,株式会社,千葉県,船橋市,大穴北４丁目１８番２５号,,12,204,2740068,,,,,,,2025-07-08,1,,,,,ザダイヴァースエスティーレ,0
352,2040003028000,新規,0,2025-07-08,2025-07-08,昇フーズ合同会社,,合同会社,千葉県,八千代市,八千代台東１丁目２番１２号１Ｆ,,12,221,2760032,,,,,,,2025-07-08,1,,,,,ノボルフーズ,0
353,2040003028009,新規,0,2025-07-08,2025-07-08,Ｓｈａｍ　Ｍ．Ｂ　Ｆｏｏｄ合同会社,,合同会社,千葉県,木更津市,菅生６１７番地３,,12,206,2920036,,,,,,,2025-07-08,1,,,,,シャムエムドットビーフード,0
357,2080001027009,新規,0,2025-07-08,2025-07-08,株式会社ＺＥＡＬ,,株式会社,静岡県,牧之原市,相良９０番地２,,22,226,4210522,,,,,,,2025-07-08,1,,,,,ジール,0
361,2090001019368,新規,0,2025-07-08,2025-07-08,株式会社ＳＲＪ宝飾,,株式会社,山梨県,甲府市,朝気１丁目１番２号,,19,201,4000862,,,,,,,2025-07-08,1,,,,,エスアールジェイホウショク,0
362,2090001019376,新規,0,2025-07-08,2025-07-08,株式会社ＫＣＹ,,株式会社,山梨県,甲府市,丸の内２丁目１番１５号,,19,201,4000031,,,,,,,2025-07-08,1,,,,,ケーシーワイ,0
373,2120001277350,新規,0,2025-07-08,2025-07-08,株式会社ジェイエックス・インテリジェント・サービス,,株式会社,大阪府,大阪市東淀川区,下新庄１丁目７－１３プレアール２Ｆ,,27,114,5330021,,,,,,,2025-07-08,1,,,,,ジェイエックスインテリジェントサービス,0
374,2120001277623,新規,0,2025-07-08,2025-07-08,株式会社デンタルプロ,,株式会社,大阪府,大阪市住吉区,山之内４丁目８番２号,,27,120,5580023,,,,,,,2025-07-08,1,,,,,デンタルプロ,0
375,2120001277689,新規,0,2025-07-08,2025-07-08,株式会社エコライフパートナーズ,,株式会社,大阪府,大阪市西区,江之子島１丁目３番７号－９Ｆ,,27,106,5500006,,,,,,,2025-07-08,1,,,,,エコライフパートナーズ,0
383,2120101072032,新規,0,2025-07-08,2025-07-08,高霖株式会社,,株式会社,大阪府,和泉市,はつが野６丁目１５番１７号,,27,219,5941106,,,,,,,2025-07-08,1,,,,,コウリン,0
384,2120101072049,新規,0,2025-07-08,2025-07-08,天美交通株式会社,,株式会社,大阪府,松原市,天美西３丁目３番４８号,,27,217,5800034,,,,,,,2025-07-08,1,,,,,アマミコウツウ,0
386,2122001039400,新規,0,2025-07-08,2025-07-08,清泉貿易株式会社,,株式会社,大阪府,大東市,寺川５丁目１８番６０号,,27,218,5740014,,,,,,,2025-07-08,1,,,,,セイセンボウエキ,0
391,2130001080019,新規,0,2025-07-08,2025-07-08,株式会社Ｋ‐ＥＤＳ,,株式会社,京都府,京都市中京区,御池通東洞院東入笹屋町４３６永和御池ビル６０６号,,26,104,6048187,,,,,,,2025-07-08,1,,,,,ケーイーディーエス,0
392,2130001080035,新規,0,2025-07-08,2025-07-08,株式会社一井工業,,株式会社,京都府,長岡京市,井ノ内下印田６番地１３,,26,209,6170813,,,,,,,2025-07-08,1,,,,,イチイコウギョウ,0
393,2130001080068,新規,0,2025-07-08,2025-07-08,株式会社ｔ・Ｅｘｐｅｒｉｅｎｃｅ,,株式会社,京都府,京都市南区,西九条川原城町９５－８,,26,107,6018424,,,,,,,2025-07-08,1,,,,,ティエクスペリエンス,0
400,2140001139094,新規,0,2025-07-08,2025-07-08,株式会社ＰＹＯＮ,,株式会社,兵庫県,神戸市中央区,磯辺通１丁目１－１８カサベラ国際プラザビル７０７,,28,110,6510084,,,,,,,2025-07-08,1,,,,,ピョン,0
401,2140001139169,新規,0,2025-07-08,2025-07-08,株式会社ヤッピー,,株式会社,兵庫県,神戸市北区,有馬町１０３５番地,,28,109,6511401,,,,,,,2025-07-08,1,,,,,ヤッピー,0
402,2140001139185,新規,0,2025-07-08,2025-07-08,株式会社杉本工務店,,株式会社,兵庫県,伊丹市,荻野８丁目６４番地１４,,28,207,6640002,,,,,,,2025-07-08,1,,,,,スギモトコウムテン,0
408,2140003022298,新規,0,2025-07-08,2025-07-08,合同会社ＤＯＵＢＬＥ　ＴＡＫＥ,,合同会社,兵庫県,神戸市中央区,磯辺通１丁目１番１８号カサベラ国際プラザビル７０７号室,,28,110,6510084,,,,,,,2025-07-08,1,,,,,ダブルテイク,0
413,2180001167406,新規,0,2025-07-08,2025-07-08,ソーシャルリンク株式会社,,株式会社,愛知県,名古屋市中村区,名駅３丁目４―１０アルティメイト名駅１ｓｔ２階,,23,105,4500002,,,,,,,2025-07-08,1,,,,,ソーシャルリンク,0
417,2180301039965,新規,0,2025-07-08,2025-07-08,株式会社実のり,,株式会社,愛知県,豊川市,大崎町野中２５番地,,23,207,4420007,,,,,,,2025-07-08,1,,,,,ミノリ,0
418,2180301039981,新規,0,2025-07-08,2025-07-08,株式会社ＩＤＹ,,株式会社,愛知県,高浜市,屋敷町６丁目２番地４２,,23,227,4441331,,,,,,,2025-07-08,1,,,,,アイディーワイ,0
421,2200003006906,新規,0,2025-07-08,2025-07-08,合同会社光工業,,合同会社,岐阜県,羽島郡笠松町,中野１８３番地,,21,303,5016034,,,,,,,2025-07-08,1,,,,,ヒカルコウギョウ,0
432,2240001065132,新規,0,2025-07-08,2025-07-08,結城ホールディングス株式会社,,株式会社,広島県,東広島市,志和流通１番地２１,,34,212,7390263,,,,,,,2025-07-08,1,,,,,ユウキホールディングス,0
433,2240001065207,新規,0,2025-07-08,2025-07-08,株式会社豊島工業,,株式会社,広島県,広島市安佐北区,安佐町大字鈴張４９７５番地２５１,,34,106,7311141,,,,,,,2025-07-08,1,,,,,テシマコウギョウ,0
434,2240001065215,新規,0,2025-07-08,2025-07-08,龍翔国際貿易株式会社,,株式会社,広島県,三原市,本郷町南方８９０８番地１,,34,204,7290413,,,,,,,2025-07-08,1,,,,,リュウショウコクサイボウエキ,0
440,2290001110593,新規,0,2025-07-08,2025-07-08,新月文化株式会社,,株式会社,福岡県,福岡市中央区,赤坂１丁目７番５－５０３号ロマネスク赤坂第２,,40,133,8100042,,,,,,,2025-07-08,1,,,,,シンゲツブンカ,0
441,2290001110619,新規,0,2025-07-08,2025-07-08,シンジダイ株式会社,,株式会社,福岡県,福岡市中央区,天神２丁目３番１０号天神パインクレスト１００４,,40,133,8100001,,,,,,,2025-07-08,1,,,,,シンジダイ,0
442,2290001110627,新規,0,2025-07-08,2025-07-08,株式会社稲益設備,,株式会社,福岡県,小郡市,二森１７３番地３,,40,216,8380126,,,,,,,2025-07-08,1,,,,,イナマスセツビ,0
443,2290003017069,新規,0,2025-07-08,2025-07-08,合同会社ＮＥＸＵＳ,,合同会社,福岡県,福岡市中央区,長浜１丁目４番４５号エフメゾン北天神４０３号室,,40,133,8100072,,,,,,,2025-07-08,1,,,,,ネクサス,0
446,2290801031683,新規,0,2025-07-08,2025-07-08,株式会社ベルマーブル,,株式会社,福岡県,北九州市小倉北区,片野４丁目２番１号,,40,106,8020064,,,,,,,2025-07-08,1,,,,,ベルマーブル,0
447,2290801031691,新規,0,2025-07-08,2025-07-08,株式会社アオ電,,株式会社,福岡県,北九州市小倉南区,湯川新町３丁目４番２号,,40,107,8000256,,,,,,,2025-07-08,1,,,,,アオデン,0
448,2290801031700,新規,0,2025-07-08,2025-07-08,ヒノマルグループ株式会社,,株式会社,福岡県,北九州市八幡西区,香月中央５丁目４番５号,,40,109,8071102,,,,,,,2025-07-08,1,,,,,ヒノマルグループ,0
449,2290803005099,新規,0,2025-07-08,2025-07-08,田田田田合同会社,,合同会社,福岡県,北九州市八幡東区,東台良町１３番８号,,40,108,8050063,,,,,,,2025-07-08,1,,,,,デンシ,0
455,2320001021201,新規,0,2025-07-08,2025-07-08,株式会社エース,,株式会社,大分県,大分市,中春日町１２番１３号,,44,201,8700039,,,,,,,2025-07-08,1,,,,,エース,0
462,2350001019614,新規,0,2025-07-08,2025-07-08,株式会社Ｐ‐ＳＭＩＬＥ,,株式会社,宮崎県,小林市,細野５１６番地３,,45,205,8860004,,,,,,,2025-07-08,1,,,,,ピースマイル,0
463,2350001019630,新規,0,2025-07-08,2025-07-08,株式会社農林,,株式会社,宮崎県,都城市,志比田町９５７０番地２,,45,202,8850093,,,,,,,2025-07-08,1,,,,,ノウリン,0
468,2370001052778,新規,0,2025-07-08,2025-07-08,株式会社クロールアップ,,株式会社,宮城県,石巻市,蛇田字新埣寺１３７番地６,,04,202,9860861,,,,,,,2025-07-08,1,,,,,クロールアップ,0
471,2380001035427,新規,0,2025-07-08,2025-07-08,株式会社ＫＢＹ,,株式会社,福島県,喜多方市,東桜ガ丘１丁目１１８番地,,07,208,9660007,,,,,,,2025-07-08,1,,,,,ケービーワイ,0
472,2380001035443,新規,0,2025-07-08,2025-07-08,株式会社東部清掃,,株式会社,福島県,大沼郡会津美里町,永井野字東川原１９４番地３０,,07,447,9696251,,,,,,,2025-07-08,1,,,,,トウブセイソウ,0
474,2400001017100,新規,0,2025-07-08,2025-07-08,宮古エンターテイメント株式会社,,株式会社,岩手県,宮古市,横町４番９号,,03,202,0270087,,,,,,,2025-07-08,1,,,,,ミヤコエンターテイメント,0
478,2410003004120,新規,0,2025-07-08,2025-07-08,日本自動車合同会社,,合同会社,秋田県,大館市,軽井沢字五輪岱１０６－７,,05,204,0185604,,,,,,,2025-07-08,1,,,,,ニホンジドウシャ,0
487,2430001094748,新規,0,2025-07-08,2025-07-08,麗苑株式会社,,株式会社,北海道,札幌市東区,北三十一条東５丁目１－８,,01,103,0650031,,,,,,,2025-07-08,1,,,,,リエン,0
488,2430001094772,新規,0,2025-07-08,2025-07-08,株式会社ＷＯＮＤ‐ｅｒ,,株式会社,北海道,札幌市手稲区,新発寒七条１丁目５番３０号,,01,109,0060807,,,,,,,2025-07-08,1,,,,,ワンダー,0
489,2430001094789,新規,0,2025-07-08,2025-07-08,株式会社ＨＩＫＡＲＩ　ＳＴＵＤＩＯ,,株式会社,北海道,札幌市中央区,南九条西３丁目２－１８八代ビル,,01,101,0640809,,,,,,,2025-07-08,1,,,,,ヒカリスタジオ,0
490,2430001094797,新規,0,2025-07-08,2025-07-08,株式会社優企画,,株式会社,北海道,札幌市東区,北三十六条東９丁目２番２３号,,01,103,0070836,,,,,,,2025-07-08,1,,,,,ユウキカク,0
491,2430001094814,新規,0,2025-07-08,2025-07-08,株式会社ｈｅａｒｔ,,株式会社,北海道,札幌市南区,中ノ沢３丁目２番１－１０１号,,01,106,0050831,,,,,,,2025-07-08,1,,,,,ハート,0
492,2430001094830,新規,0,2025-07-08,2025-07-08,株式会社しずく,,株式会社,北海道,苫小牧市,拓勇西町３丁目１３番２６号,,01,213,0591302,,,,,,,2025-07-08,1,,,,,シズク,0
494,2450001014662,新規,0,2025-07-08,2025-07-08,カーズラボ株式会社,,株式会社,北海道,旭川市,豊岡九条８丁目３番９号,,01,204,0788239,,,,,,,2025-07-08,1,,,,,カーズラボ,0
495,2450001014670,新規,0,2025-07-08,2025-07-08,株式会社マルソク雅,,株式会社,北海道,旭川市,一条通１７丁目１２３５番地の１,,01,204,0700031,,,,,,,2025-07-08,1,,,,,マルソクミヤビ,0
497,2480001012878,新規,0,2025-07-08,2025-07-08,株式会社Ｋ’ｓ　Ｂｏｄｙ　ｐｌｕｓ,,株式会社,徳島県,小松島市,金磯町８番１１３号,,36,203,7730007,,,,,,,2025-07-08,1,,,,,,0
503,2700150131340,新規,0,2025-07-08,2025-07-08,ＤＵＮＬＯＰ　ＭＯＴＯＲＳ,,外国会社等,千葉県,東金市,宿１４７７番地６オフィス１Ｂ,,12,213,2830033,スリランカ民主社会主義共和国、アンバテンナ、キャンディロード、Ｎｏ．９８,,,,,,2025-07-08,1,,,,,ダンロツプモータース,0
510,3010001256570,新規,0,2025-07-08,2025-07-08,ドクターズスキンラボ株式会社,,株式会社,東京都,中央区,銀座１丁目１２番４号Ｎ＆ＥＢＬＤ．６Ｆ,,13,102,1040061,,,,,,,2025-07-08,1,,,,,ドクターズスキンラボ,0
517,3010401191434,新規,0,2025-07-08,2025-07-08,株式会社ＳｕｎＩＩＩ,,株式会社,東京都,港区,南青山２丁目９番２５号センチュリーホーム南青山Ｂ棟３０３,,13,103,1070062,,,,,,,2025-07-08,1,,,,,サニー,0
518,3010401191442,新規,0,2025-07-08,2025-07-08,株式会社ＭＩＲＡＨＯＯＰ,,株式会社,東京都,港区,芝５丁目２９番１１号,,13,103,1080014,,,,,,,2025-07-08,1,,,,,ミラフープ,0
519,3010401191475,新規,0,2025-07-08,2025-07-08,株式会社ＮｏｂｌｅＷｏｌｆ,,株式会社,東京都,港区,浜松町１丁目３番２号,,13,103,1050013,,,,,,,2025-07-08,1,,,,,ノーブルウルフ,0
520,3010401191500,新規,0,2025-07-08,2025-07-08,株式会社石橋,,株式会社,東京都,港区,麻布永坂町１－５８ロイヤルシーズン麻布永坂９０２,,13,103,1060043,,,,,,,2025-07-08,1,,,,,イシバシ,0
521,3010401191509,新規,0,2025-07-08,2025-07-08,株式会社ミライア,,株式会社,東京都,港区,新橋１丁目１８－２１第一日比谷ビル６Ｆ,,13,103,1050004,,,,,,,2025-07-08,1,,,,,ミライア,0
522,3010401191517,新規,0,2025-07-08,2025-07-08,セラヴィ株式会社,,株式会社,東京都,港区,北青山２丁目７番１３号,,13,103,1070061,,,,,,,2025-07-08,1,,,,,セラヴィ,0
523,3010403035515,新規,0,2025-07-08,2025-07-08,合同会社ｍｇ,,合同会社,東京都,港区,北青山１丁目３番１号アールキューブ青山３階,,13,103,1070061,,,,,,,2025-07-08,1,,,,,エムジー,0
524,3010405024499,新規,0,2025-07-08,2025-07-08,一般財団法人佐々木洋寧奨学財団,,その他の設立登記法人,東京都,港区,港南２丁目１６番１品川イーストワンタワー５階,,13,103,1080075,,,,,,,2025-07-08,1,,,,,ササキヒロヤスショウガクザイダン,0
525,3010405024565,新規,0,2025-07-08,2025-07-08,ＰＪＭＦ　Ｖｅｇａ特定目的会社,,その他の設立登記法人,東京都,港区,元赤坂１丁目１番７－８０７号,,13,103,1070051,,,,,,,2025-07-08,1,,,,,ピージェイエムエフベガ,0
528,3010701047963,新規,0,2025-07-08,2025-07-08,ＡＦＯＮＴＡＮＥ株式会社,,株式会社,東京都,品川区,東品川１丁目３番１８号キャナルテラス品川９１２,,13,109,1400002,,,,,,,2025-07-08,1,,,,,アフォンタネ,0
529,3010801036338,新規,0,2025-07-08,2025-07-08,ＤＧファクトリー株式会社,,株式会社,東京都,大田区,大森西１丁目１３番８号,,13,111,1430015,,,,,,,2025-07-08,1,,,,,ディージーファクトリー,0
530,3010801036354,新規,0,2025-07-08,2025-07-08,株式会社Ｃｌｏｕｄ’ｓ　Ｃｏｍｐａｎｙ,,株式会社,東京都,大田区,西蒲田７丁目４８番１４号蒲田センタービル７階Ａ,,13,111,1440051,,,,,,,2025-07-08,1,,,,,クラウズカンパニー,0
532,3010803005464,新規,0,2025-07-08,2025-07-08,合同会社ＩＲ　Ｆｏｒｃｅ,,合同会社,東京都,大田区,千鳥３丁目１１番１５－１０１号,,13,111,1460083,,,,,,,2025-07-08,1,,,,,アイアールフォース,0
535,3010901057572,新規,0,2025-07-08,2025-07-08,株式会社原田デザイン事務所,,株式会社,東京都,世田谷区,三軒茶屋２丁目１３番２号三軒茶屋荘２４号,,13,112,1540024,,,,,,,2025-07-08,1,,,,,ハラダデザインジムショ,0
536,3010901057688,新規,0,2025-07-08,2025-07-08,ｌｏｎｅ　ｄｅｓｉｇｎ株式会社,,株式会社,東京都,世田谷区,下馬６丁目２１番３号,,13,112,1540002,,,,,,,2025-07-08,1,,,,,ロネデザイン,0
547,3011001171066,新規,0,2025-07-08,2025-07-08,Ｄａｔａ　Ｃｒａｆｔ　Ｔｏｋｙｏ株式会社,,株式会社,東京都,渋谷区,恵比寿西２丁目４番８号ウィンド恵比寿ビル８Ｆ,,13,113,1500021,,,,,,,2025-07-08,1,,,,,データクラフトトウキョウ,0
551,3011101112250,新規,0,2025-07-08,2025-07-08,株式会社ＭＩＬＩＡＬ’Ｃ．Ａ．,,株式会社,東京都,新宿区,西新宿１丁目２６番２号新宿野村ビル３２階,,13,104,1600023,,,,,,,2025-07-08,1,,,,,ミリアルコア,0
552,3011101112408,新規,0,2025-07-08,2025-07-08,株式会社Ｉｎｓｉｇｈｔ　Ｂｏｘ,,株式会社,東京都,新宿区,西新宿３丁目３番１３号西新宿水間ビル２Ｆ,,13,104,1600023,,,,,,,2025-07-08,1,,,,,インサイトボックス,0
553,3011101112416,新規,0,2025-07-08,2025-07-08,株式会社Ｂｕｂｂｌｅ,,株式会社,東京都,新宿区,西新宿７丁目１５番１４号ＦＯＮＴＡＩＮＥ三須２０６,,13,104,1600023,,,,,,,2025-07-08,1,,,,,バブル,0
554,3011103016053,新規,0,2025-07-08,2025-07-08,マナジャパン合同会社,,合同会社,東京都,新宿区,新宿１丁目３６番２号新宿第七葉山ビル３Ｆ,,13,104,1600022,,,,,,,2025-07-08,1,,,,,マナジャパン,0
562,3011401027207,新規,0,2025-07-08,2025-07-08,株式会社湯屋みやこ,,株式会社,東京都,板橋区,熊野町３４番１４号,,13,119,1730025,,,,,,,2025-07-08,1,,,,,ユヤミヤコ,0
564,3011403004749,新規,0,2025-07-08,2025-07-08,コントラポスト合同会社,,合同会社,東京都,板橋区,南常盤台１丁目７番１４－２０３号,,13,119,1740072,,,,,,,2025-07-08,1,,,,,コントラポスト,0
569,3011801046392,新規,0,2025-07-08,2025-07-08,ｓａｋａｓａ株式会社,,株式会社,東京都,足立区,日ノ出町２４－３,,13,121,1200021,,,,,,,2025-07-08,1,,,,,サカサ,0
570,3012403007213,新規,0,2025-07-08,2025-07-08,合同会社ロックラフト,,合同会社,東京都,三鷹市,井口４丁目１７－３２,,13,204,1810011,,,,,,,2025-07-08,1,,,,,ロックラフト,0
572,3013301054537,新規,0,2025-07-08,2025-07-08,株式会社リース,,株式会社,東京都,豊島区,要町１丁目１１－１１セピア要町２０３,,13,116,1710043,,,,,,,2025-07-08,1,,,,,リース,0
573,3013303007740,新規,0,2025-07-08,2025-07-08,合同会社エクリュジャポン,,合同会社,東京都,豊島区,目白５丁目１４番地９号,,13,116,1710031,,,,,,,2025-07-08,1,,,,,エクリュジャポン,0
585,3020001163601,新規,0,2025-07-08,2025-07-08,株式会社ＮｅｘｔＧｒｏｗ,,株式会社,神奈川県,横浜市神奈川区,神大寺１丁目９番２１号ＩＮＯＶＥ神大寺Ｉ２０３号,,14,102,2210801,,,,,,,2025-07-08,1,,,,,ネクストグロウ,0
586,3020001163717,新規,0,2025-07-08,2025-07-08,株式会社熱ラボ,,株式会社,神奈川県,横浜市西区,北幸２丁目１０番４８号むつみビル３階,,14,103,2200004,,,,,,,2025-07-08,1,,,,,ネツラボ,0
587,3020001163725,新規,0,2025-07-08,2025-07-08,株式会社ポー,,株式会社,神奈川県,川崎市宮前区,鷺沼３丁目４番地３－１０２,,14,136,2160004,,,,,,,2025-07-08,1,,,,,ポー,0
588,3020001163766,新規,0,2025-07-08,2025-07-08,株式会社Ｆｌｏｗｅｒ　Ｃａｎｙｏｎ,,株式会社,神奈川県,横浜市神奈川区,六角橋１丁目６番地１８号ＯＮＥＬＯＶＥＨＯＵＳＥ１Ｆ,,14,102,2210802,,,,,,,2025-07-08,1,,,,,フラワーキャニオン,0
589,3020001163832,新規,0,2025-07-08,2025-07-08,株式会社つばめ音響研究所,,株式会社,神奈川県,横浜市青葉区,すすき野１丁目６番地１１,,14,117,2250021,,,,,,,2025-07-08,1,,,,,ツバメオンキョウケンキュウショ,0
594,3021001085686,新規,0,2025-07-08,2025-07-08,株式会社スリーフォワード,,株式会社,神奈川県,横須賀市,林５丁目１１－７,,14,201,2380315,,,,,,,2025-07-08,1,,,,,スリーフォワード,0
605,3030001167460,新規,0,2025-07-08,2025-07-08,ユニティ株式会社,,株式会社,埼玉県,久喜市,栗橋東１丁目１７番４１号,,11,232,3491103,,,,,,,2025-07-08,1,,,,,ユニティ,0
606,3030001167527,新規,0,2025-07-08,2025-07-08,株式会社エヌロジ,,株式会社,埼玉県,戸田市,氷川町１丁目１番８号,,11,224,3350027,,,,,,,2025-07-08,1,,,,,エヌロジ,0
608,3030003027159,新規,0,2025-07-08,2025-07-08,ＴＲＩＶＡＮＡ合同会社,,合同会社,埼玉県,川口市,並木３丁目６番８号,,11,203,3320034,,,,,,,2025-07-08,1,,,,,トリバナ,0
614,3040001139491,新規,0,2025-07-08,2025-07-08,株式会社ピュアレインボー,,株式会社,千葉県,市川市,高谷１丁目５番１５号,,12,203,2720013,,,,,,,2025-07-08,1,,,,,ピュアレインボー,0
615,3040001139509,新規,0,2025-07-08,2025-07-08,株式会社ｄ．ｏ,,株式会社,千葉県,流山市,平和台４丁目２５番地の１,,12,220,2700157,,,,,,,2025-07-08,1,,,,,ディーオー,0
616,3040001139558,新規,0,2025-07-08,2025-07-08,株式会社ＩＮＤＩＧＯ,,株式会社,千葉県,市川市,南行徳１丁目１０番１４－１０２号,,12,203,2720138,,,,,,,2025-07-08,1,,,,,インディゴ,0
617,3040001139566,新規,0,2025-07-08,2025-07-08,株式会社Ｔｒｅａｓｕｒｅ　Ｊａｐａｎ,,株式会社,千葉県,富里市,七栄４８９番地１１０,,12,233,2860221,,,,,,,2025-07-08,1,,,,,トレジャージャパン,0
629,3100001038745,新規,0,2025-07-08,2025-07-08,焼肉御苑株式会社,,株式会社,長野県,諏訪郡下諏訪町,６１４４番地３,,20,361,3930000,,,,,,,2025-07-08,1,,,,,ヤキニクギョエン,0
640,3120001277424,新規,0,2025-07-08,2025-07-08,ウイングアークＮＥＸ株式会社,,株式会社,大阪府,大阪市中央区,道修町３丁目６番１号,,27,128,5410045,,,,,,,2025-07-08,1,,,,,ウイングアークネックス,0
641,3120001277548,新規,0,2025-07-08,2025-07-08,株式会社アンタレス,,株式会社,大阪府,大阪市中央区,北浜３丁目５番２２号オリックス淀屋橋ビル３階３０２号,,27,128,5410041,,,,,,,2025-07-08,1,,,,,アンタレス,0
642,3120001277589,新規,0,2025-07-08,2025-07-08,東洋製槽株式会社,,株式会社,大阪府,大阪市中央区,（大阪市南区東清水町３番地の８）,,27,128,5390000,,,,,,,2025-07-08,1,,,,,トウヨウセイソウ,0
643,3120001277606,新規,0,2025-07-08,2025-07-08,京空調株式会社,,株式会社,大阪府,大阪市淀川区,野中北１丁目６番１４－３０２号,,27,123,5320034,,,,,,,2025-07-08,1,,,,,ミヤコクウチョウ,0
644,3120001277622,新規,0,2025-07-08,2025-07-08,愛萌文化咨詢株式会社,,株式会社,大阪府,大阪市東成区,大今里２丁目６番１８号昇徳ビル１階Ｆ室,,27,115,5370012,,,,,,,2025-07-08,1,,,,,アイモブンカシシュン,0
647,3120003029930,新規,0,2025-07-08,2025-07-08,合同会社Ｗｉｓｔｅｒｉａ,,合同会社,大阪府,守口市,金田町１丁目７１－１６－３号室,,27,209,5700011,,,,,,,2025-07-08,1,,,,,ウィステリア,0
648,3120003029963,新規,0,2025-07-08,2025-07-08,合同会社キクテック,,合同会社,大阪府,大阪市中央区,南本町１丁目５番１４号グルラジビル８階,,27,128,5410054,,,,,,,2025-07-08,1,,,,,キクテック,0
649,3120101072015,新規,0,2025-07-08,2025-07-08,株式会社ファインライフ,,株式会社,大阪府,堺市堺区,出島海岸通２丁５番１９号,,27,141,5900833,,,,,,,2025-07-08,1,,,,,ファインライフ,0
650,3120101072048,新規,0,2025-07-08,2025-07-08,鴻通運株式会社,,株式会社,大阪府,堺市堺区,西湊町１丁６番２３号,,27,141,5900835,,,,,,,2025-07-08,1,,,,,コウツウウン,0
663,3140001139135,新規,0,2025-07-08,2025-07-08,株式会社デザインイクエージョン,,株式会社,兵庫県,神戸市北区,甲栄台１丁目６番１７号,,28,109,6511142,,,,,,,2025-07-08,1,,,,,デザインイクエージョン,0
664,3140001139143,新規,0,2025-07-08,2025-07-08,株式会社ジョイント神戸,,株式会社,兵庫県,神戸市灘区,水道筋３丁目５番１２－７０２号,,28,102,6570831,,,,,,,2025-07-08,1,,,,,ジョイントコウベ,0
665,3140001139151,新規,0,2025-07-08,2025-07-08,株式会社赤穂ロイヤルホテル,,株式会社,兵庫県,赤穂市,加里屋中洲３２５０番地,,28,212,6780200,,,,,,,2025-07-08,1,,,,,アコウロイヤルホテル,0
666,3140001139176,新規,0,2025-07-08,2025-07-08,株式会社ＴＳＵＮＡＧＵ,,株式会社,兵庫県,尼崎市,昭和通２丁目６番６８号,,28,202,6600881,,,,,,,2025-07-08,1,,,,,ツナグ,0
671,3140003022272,新規,0,2025-07-08,2025-07-08,合同会社Ｏｎｅ,,合同会社,兵庫県,尼崎市,今福１丁目３番２－２０１号,,28,202,6600812,,,,,,,2025-07-08,1,,,,,ワン,0
680,3180001167644,新規,0,2025-07-08,2025-07-08,株式会社Ａｉａｎプラマー,,株式会社,愛知県,名古屋市緑区,大高町字小坂９２番地の２,,23,114,4598001,,,,,,,2025-07-08,1,,,,,アイアンプラマー,0
684,3180301039964,新規,0,2025-07-08,2025-07-08,株式会社ＹＯ‐ＹＯカンパニー,,株式会社,愛知県,刈谷市,稲場町２丁目３０１番地,,23,210,4480038,,,,,,,2025-07-08,1,,,,,ヨヨカンパニー,0
685,3180301039997,新規,0,2025-07-08,2025-07-08,株式会社ぐんぐんのびる塾,,株式会社,愛知県,みよし市,莇生町並木８８,,23,236,4700206,,,,,,,2025-07-08,1,,,,,グングンノビルジュク,0
689,3200001043966,新規,0,2025-07-08,2025-07-08,株式会社南ランカ,,株式会社,岐阜県,岐阜市,茜部辰新１丁目１１２番地羽田マンション１０３号室,,21,201,5008264,,,,,,,2025-07-08,1,,,,,ミナミランカ,0
691,3200003006905,新規,0,2025-07-08,2025-07-08,ｓａｂｌｉｅｒ合同会社,,合同会社,岐阜県,岐阜市,柳津町東塚５丁目１３２番地フレイハイツ東塚２Ｄ,,21,201,5016102,,,,,,,2025-07-08,1,,,,,サブリエ,0
696,3240001065180,新規,0,2025-07-08,2025-07-08,株式会社Ｓｔａｒｔ　Ｂｕｉｌｄ建設,,株式会社,広島県,広島市中区,舟入幸町１０－２３－８０２,,34,101,7300844,,,,,,,2025-07-08,1,,,,,スタートビルドケンセツ,0
697,3240001065197,新規,0,2025-07-08,2025-07-08,株式会社ＰＬＡＮ　ＥＡＲＴＨ,,株式会社,広島県,尾道市,天満町７番１７号３Ｆ,,34,205,7220038,,,,,,,2025-07-08,1,,,,,プランアース,0
698,3240001065206,新規,0,2025-07-08,2025-07-08,株式会社ｆｏｒ　ｙｏｕ,,株式会社,広島県,広島市西区,庚午北１丁目８－２７－２０２,,34,104,7330821,,,,,,,2025-07-08,1,,,,,フォーユー,0
699,3240001065214,新規,0,2025-07-08,2025-07-08,コウキ工業株式会社,,株式会社,広島県,江田島市,沖美町岡大王２５００番地１７,,34,215,7372311,,,,,,,2025-07-08,1,,,,,コウキコウギョウ,0
713,3290001110618,新規,0,2025-07-08,2025-07-08,株式会社ｈｏＮｕａ,,株式会社,福岡県,福岡市博多区,吉塚６丁目５番２５－５０５号ネストピア博多グランドステージＩＩ,00139837,40,132,8120041,,,,,,,2025-07-08,1,,,,,ホヌア,0
716,3290003017068,新規,0,2025-07-08,2025-07-08,合同会社ＳＯＵＴＨ　ＭＯＶＥ,,合同会社,福岡県,福岡市東区,社領２丁目２３番１２－３０６号,,40,131,8120068,,,,,,,2025-07-08,1,,,,,サウスムーブ,0
718,3290801031699,新規,0,2025-07-08,2025-07-08,株式会社エステート燈,,株式会社,福岡県,北九州市小倉南区,富士見２丁目６番６号２階,,40,107,8020801,,,,,,,2025-07-08,1,,,,,エステートアカリ,0
721,3290803005098,新規,0,2025-07-08,2025-07-08,合同会社Ｍｅｒｃｉ‐Ｃ,,合同会社,福岡県,北九州市小倉北区,浅野１丁目１－１ビエラ小倉１Ｆ・ＤＩＳＣＯＶＥＲＹ－１６３号,,40,106,8020001,,,,,,,2025-07-08,1,,,,,メルシーシー,0
723,3300005007255,新規,0,2025-07-08,2025-07-08,一般社団法人佐嘉再興パートナーズ,,その他の設立登記法人,佐賀県,佐賀市,白山２丁目３番１６号パートナーズ白山ビル３階,,41,201,8400826,,,,,,,2025-07-08,1,,,,,サガサイコウパートナーズ,0
724,3310001019682,新規,0,2025-07-08,2025-07-08,株式会社ＣＩＥＲＭ,,株式会社,長崎県,佐世保市,新田町１５０－８,,42,202,8580913,,,,,,,2025-07-08,1,,,,,シエルム,0
725,3320003004707,新規,0,2025-07-08,2025-07-08,合同会社グロアシード,,合同会社,大分県,大分市,府内町３丁目４番２０号大分恒和ビル４階,,44,201,8700021,,,,,,,2025-07-08,1,,,,,グロアシード,0
731,3370005010987,新規,0,2025-07-08,2025-07-08,一般社団法人地球共創学園設立準備会,,その他の設立登記法人,宮城県,仙台市青葉区,昭和町１番３７号ＪＡＣビル２Ｆ,,04,101,9810913,,,,,,,2025-07-08,1,,,,,チキュウキョウソウガクエンセツリツジュンビカイ,0
732,3380001035426,新規,0,2025-07-08,2025-07-08,株式会社オフィスリアン,,株式会社,福島県,須賀川市,旭町６番地の３,,07,207,9620834,,,,,,,2025-07-08,1,,,,,オフィスリアン,0
733,3380001035442,新規,0,2025-07-08,2025-07-08,株式会社むすぶ不動産,,株式会社,福島県,いわき市,鹿島町米田字塙２２番地の４２,,07,204,9718133,,,,,,,2025-07-08,1,,,,,ムスブフドウサン,0
736,3400003003493,新規,0,2025-07-08,2025-07-08,合同会社ピットガレージ,,合同会社,岩手県,遠野市,宮守町達曽部２５地割３２番地５,,03,208,0280305,,,,,,,2025-07-08,1,,,,,ピットガレージ,0
738,3430001094796,新規,0,2025-07-08,2025-07-08,株式会社金谷内装工業,,株式会社,北海道,札幌市北区,太平七条６丁目５番１３号,,01,102,0028007,,,,,,,2025-07-08,1,,,,,カナヤナイソウコウギョウ,0
739,3430001094805,新規,0,2025-07-08,2025-07-08,札幌レンタカー株式会社,,株式会社,北海道,札幌市豊平区,美園五条２丁目２番９号,,01,105,0620005,,,,,,,2025-07-08,1,,,,,サッポロレンタカー,0
740,3430001094813,新規,0,2025-07-08,2025-07-08,株式会社ＫＫＥＲＴ,,株式会社,北海道,札幌市北区,篠路四条７丁目２番４３号,,01,102,0028024,,,,,,,2025-07-08,1,,,,,ケーカート,0
745,3430003017870,新規,0,2025-07-08,2025-07-08,合同会社ノーステーブル,,合同会社,北海道,恵庭市,京町９２番地２,,01,231,0611444,,,,,,,2025-07-08,1,,,,,ノーステーブル,0
746,3430005015261,新規,0,2025-07-08,2025-07-08,ニセコ移住ワーク協同組合,,その他の設立登記法人,北海道,虻田郡ニセコ町,字有島５７番地１１,,01,395,0481531,,,,,,,2025-07-08,1,,,,,ニセコイジュウワーク,0
747,3440001009646,新規,0,2025-07-08,2025-07-08,株式会社大山商會．ＬＡＢ,,株式会社,北海道,北斗市,七重浜２丁目３３－４９,,01,236,0490111,,,,,,,2025-07-08,1,,,,,オオヤマショウカイドットラボ,0
749,3470003002919,新規,0,2025-07-08,2025-07-08,合同会社徳政工業,,合同会社,香川県,善通寺市,木徳町４１６番地２,,37,204,7650033,,,,,,,2025-07-08,1,,,,,トクセイコウギョウ,0
750,3480005007097,新規,0,2025-07-08,2025-07-08,一般社団法人石井町建設業協会,,その他の設立登記法人,徳島県,名西郡石井町,石井字城ノ内１６０番地１,,36,341,7793232,,,,,,,2025-07-08,1,,,,,イシイチョウケンセツギョウキョウカイ,0
751,3500001026387,新規,0,2025-07-08,2025-07-08,ユオン工業株式会社,,株式会社,愛媛県,新居浜市,観音原町甲２番地の３,,38,205,7920851,,,,,,,2025-07-08,1,,,,,ユオンコウギョウ,0
752,3500001026395,新規,0,2025-07-08,2025-07-08,株式会社ＪＭＯＧ,,株式会社,愛媛県,松山市,古川南３丁目２１番２６－２号,,38,201,7900943,,,,,,,2025-07-08,1,,,,,ジェイエムオージー,0
755,3700150131348,新規,0,2025-07-08,2025-07-08,大宮アーチェリー協会,,その他,埼玉県,さいたま市大宮区,堀の内町１丁目６１５番地　大宮開成高等学校内,,11,103,3300804,,,,,,,2025-07-08,1,,,,,オオミヤアーチェリーキョウカイ,0
762,4010001256462,新規,0,2025-07-08,2025-07-08,株式会社Ｍｏｇｌｏデザイン,,株式会社,東京都,千代田区,平河町１丁目５－１４,,13,101,1020093,,,,,,,2025-07-08,1,,,,,モグロデザイン,0
763,4010001256529,新規,0,2025-07-08,2025-07-08,株式会社イーエムクリーン環境,,株式会社,東京都,千代田区,内神田１丁目２番７号楠本第１８ビルＢ１Ｆ,,13,101,1010047,,,,,,,2025-07-08,1,,,,,イーエムクリーンカンキョウ,0
768,4010005040334,新規,0,2025-07-08,2025-07-08,一般社団法人エルバイト,,その他の設立登記法人,東京都,千代田区,内神田１丁目３番７号４０１あすな会計事務所内,,13,101,1010047,,,,,,,2025-07-08,1,,,,,エルバイト,0
775,4010401191508,新規,0,2025-07-08,2025-07-08,株式会社ＢＥＡＲＢＯＯＫ,,株式会社,東京都,港区,赤坂４丁目１１－６,,13,103,1070052,,,,,,,2025-07-08,1,,,,,ベアブック,0
776,4010401191532,新規,0,2025-07-08,2025-07-08,株式会社エルグリッツ,,株式会社,東京都,港区,南青山２丁目２番１５号,,13,103,1070062,,,,,,,2025-07-08,1,,,,,エルグリッツ,0
779,4010403035497,新規,0,2025-07-08,2025-07-08,合同会社２９３,,合同会社,東京都,港区,白金６丁目１番４,,13,103,1080072,,,,,,,2025-07-08,1,,,,,ニキュウサン,0
780,4010403035506,新規,0,2025-07-08,2025-07-08,オフィスこえづか合同会社,,合同会社,東京都,港区,北青山１丁目３番１号アールキューブ青山３階,,13,103,1070061,,,,,,,2025-07-08,1,,,,,オフィスコエヅカ,0
782,4010701047962,新規,0,2025-07-08,2025-07-08,株式会社桂堅舎,,株式会社,東京都,品川区,西品川２丁目１５番２０号,,13,109,1410033,,,,,,,2025-07-08,1,,,,,ケイケンシャ,0
783,4010701047970,新規,0,2025-07-08,2025-07-08,チューボーワーカー株式会社,,株式会社,東京都,品川区,東品川１丁目３－１８,,13,109,1400002,,,,,,,2025-07-08,1,,,,,チューボーワーカー,0
796,4011001170934,新規,0,2025-07-08,2025-07-08,株式会社妙,,株式会社,東京都,渋谷区,恵比寿西１丁目５番１号,,13,113,1500021,,,,,,,2025-07-08,1,,,,,ミョウ,0
797,4011001171073,新規,0,2025-07-08,2025-07-08,株式会社ささげる,,株式会社,東京都,渋谷区,恵比寿南３丁目２番１９号エスペランサ恵比寿３Ｆ,,13,113,1500022,,,,,,,2025-07-08,1,,,,,ササゲル,0
804,4011101112431,新規,0,2025-07-08,2025-07-08,株式会社ヴァヴァヴァ,,株式会社,東京都,新宿区,新宿２丁目１１番１１号,,13,104,1600022,,,,,,,2025-07-08,1,,,,,ヴァヴァヴァ,0
806,4011103016135,新規,0,2025-07-08,2025-07-08,Ｗｉｎｄｅｌｉｇｈｔ合同会社,,合同会社,東京都,新宿区,西新宿３丁目３番１３号西新宿水間ビル２Ｆ,,13,104,1600023,,,,,,,2025-07-08,1,,,,,ウィンディライト,0
812,4011401027230,新規,0,2025-07-08,2025-07-08,株式会社Ｐｉｎｅ　ｆｏｒ　Ｒｅｓｔ,,株式会社,東京都,板橋区,成増３丁目１５番１６－３０５号,,13,119,1750094,,,,,,,2025-07-08,1,,,,,パインフォレスト,0
830,4011801046375,新規,0,2025-07-08,2025-07-08,ＡＮＵＳＨＲＥＥ株式会社,,株式会社,東京都,葛飾区,亀有３丁目１３番２号善一ビル６２２号室,,13,122,1250061,,,,,,,2025-07-08,1,,,,,アヌシリ,0
834,4012401043309,新規,0,2025-07-08,2025-07-08,株式会社彩陽サービス,,株式会社,東京都,武蔵野市,境南町２丁目１１番２２号,,13,203,1800023,,,,,,,2025-07-08,1,,,,,サイヨウサービス,0
835,4012401043325,新規,0,2025-07-08,2025-07-08,株式会社ニューシステム,,株式会社,東京都,府中市,若松町３丁目３６番地の８パストラールレジデンス２０２,,13,206,1830005,,,,,,,2025-07-08,1,,,,,ニューシステム,0
838,4012803003785,新規,0,2025-07-08,2025-07-08,Ｊ．Ｙ．Ｇ．合同会社,,合同会社,東京都,国立市,北３丁目１６番の１６－３０１,,13,215,1860001,,,,,,,2025-07-08,1,,,,,ジェイワイジー,0
854,4020001163674,新規,0,2025-07-08,2025-07-08,ＧＢＰ　Ｐｒｏｊｅｃｔ株式会社,,株式会社,神奈川県,横浜市旭区,今宿町２５６９番地５７,,14,112,2410813,,,,,,,2025-07-08,1,,,,,ジービーピープロジェクト,0
855,4020001163724,新規,0,2025-07-08,2025-07-08,ジェイエム電工株式会社,,株式会社,神奈川県,横浜市戸塚区,川上町４３番地１ファーストクラス東戸塚２０７号,,14,110,2440805,,,,,,,2025-07-08,1,,,,,ジェイエムデンコウ,0
856,4020001163773,新規,0,2025-07-08,2025-07-08,株式会社ウィズイットスタジオ二級建築士事務所,,株式会社,神奈川県,横浜市青葉区,藤が丘２丁目４１番地３６,,14,117,2270043,,,,,,,2025-07-08,1,,,,,ウィズイットスタジオニキュウケンチクシジムショ,0
859,4020003028883,新規,0,2025-07-08,2025-07-08,Ｐｒｉｍｅ　Ｌｅｄｇｅｒ合同会社,,合同会社,神奈川県,横浜市瀬谷区,宮沢３丁目４１番３５号,,14,114,2460038,,,,,,,2025-07-08,1,,,,,,0
865,4030001167518,新規,0,2025-07-08,2025-07-08,株式会社Ａｒｅｓ,,株式会社,埼玉県,越谷市,瓦曽根３丁目６番５０号,,11,222,3430821,,,,,,,2025-07-08,1,,,,,アレス,0
866,4030001167550,新規,0,2025-07-08,2025-07-08,株式会社ＲＹＵ,,株式会社,埼玉県,飯能市,美杉台３丁目１５番地７,,11,209,3570041,,,,,,,2025-07-08,1,,,,,リュウ,0
867,4030001167559,新規,0,2025-07-08,2025-07-08,インベストメント・カンパニーズ株式会社,,株式会社,埼玉県,入間郡越生町,大字如意６８８番地,,11,327,3500413,,,,,,,2025-07-08,1,,,,,インベストメントカンパニーズ,0
874,4030003027158,新規,0,2025-07-08,2025-07-08,合同会社ｔｏｎａｒｉｎｏ,,合同会社,埼玉県,さいたま市西区,大字指扇１０４７番地５,,11,101,3310047,,,,,,,2025-07-08,1,,,,,トナリノ,0
875,4030003027166,新規,0,2025-07-08,2025-07-08,合同会社大圭,,合同会社,埼玉県,新座市,片山３丁目４番４５－７号,,11,230,3520025,,,,,,,2025-07-08,1,,,,,ダイケイ,0
878,4040001139499,新規,0,2025-07-08,2025-07-08,ｏｖｅｒｃｒａｆｔ株式会社,,株式会社,千葉県,船橋市,湊町２丁目１番１８号新堀ギタービル２Ｆ,,12,204,2730011,,,,,,,2025-07-08,1,,,,,オーバークラフト,0
879,4040001139524,新規,0,2025-07-08,2025-07-08,株式会社アルカサル,,株式会社,千葉県,千葉市中央区,椿森１丁目２６番９号,,12,101,2600042,,,,,,,2025-07-08,1,,,,,アルカサル,0
880,4040001139532,新規,0,2025-07-08,2025-07-08,押日自動車株式会社,,株式会社,千葉県,いすみ市,岬町押日２２０１番地８号,,12,238,2994622,,,,,,,2025-07-08,1,,,,,オシビジドウシャ,0
881,4040001139557,新規,0,2025-07-08,2025-07-08,北総重機運輸株式会社,,株式会社,千葉県,香取市,九美上３１番地２,,12,236,2870022,,,,,,,2025-07-08,1,,,,,ホクソウジュウキウンユ,0
885,4060001038377,新規,0,2025-07-08,2025-07-08,ウエノホールディングス株式会社,,株式会社,栃木県,真岡市,亀山２７４番地,,09,209,3214363,,,,,,,2025-07-08,1,,,,,ウエノホールディングス,0
892,4080003003501,新規,0,2025-07-08,2025-07-08,合同会社豊至堂,,合同会社,静岡県,静岡市駿河区,丸子４丁目１６番６号,,22,102,4210103,,,,,,,2025-07-08,1,,,,,ホウシドウ,0
896,4080105006518,新規,0,2025-07-08,2025-07-08,一般社団法人伊東市スポーツ協会,,その他の設立登記法人,静岡県,伊東市,玖須美元和田７１６番地の１１５（伊東市民体育センター内）,,22,208,4140045,,,,,,,2025-07-08,1,,,,,イトウシスポーツキョウカイ,0
898,4090001019374,新規,0,2025-07-08,2025-07-08,株式会社教備,,株式会社,山梨県,甲府市,中小河原１丁目１１－１０,,19,201,4000855,,,,,,,2025-07-08,1,,,,,キョウビ,0
908,4110001039428,新規,0,2025-07-08,2025-07-08,株式会社Ｓｅｃｏｎｄ　Ｂａｓｅ,,株式会社,新潟県,南魚沼郡湯沢町,大字土樽４３－１６－７２１,00139842,15,461,9496103,,,,,,,2025-07-08,1,,,,,セカンドベイス,0
917,4120001277415,新規,0,2025-07-08,2025-07-08,白箱株式会社,,株式会社,大阪府,大阪市旭区,清水１丁目８番５号,,27,117,5350021,,,,,,,2025-07-08,1,,,,,シロハコ,0
918,4120001277497,新規,0,2025-07-08,2025-07-08,株式会社オーティーズ,,株式会社,大阪府,大阪市西区,立売堀２丁目４番５号ＤＧビルなにわ筋,,27,106,5500012,,,,,,,2025-07-08,1,,,,,オーティーズ,0
919,4120001277596,新規,0,2025-07-08,2025-07-08,花言葉株式会社,,株式会社,大阪府,大阪市北区,天神橋２丁目４番１号,,27,127,5300041,,,,,,,2025-07-08,1,,,,,ハナコトバ,0
923,4120003029921,新規,0,2025-07-08,2025-07-08,東成合同会社,,合同会社,大阪府,大阪市住之江区,北加賀屋２丁目１番７号,,27,125,5590011,,,,,,,2025-07-08,1,,,,,トウセイ,0
924,4120003029938,新規,0,2025-07-08,2025-07-08,合同会社Ｆｉｎｏｒａ,,合同会社,大阪府,大阪市北区,梅田１丁目２番２号大阪駅前第２ビル１２－１２,,27,127,5300001,,,,,,,2025-07-08,1,,,,,フィノラ,0
925,4120003029970,新規,0,2025-07-08,2025-07-08,合同会社ねこぱんち,,合同会社,大阪府,大阪市北区,梅田１丁目２番２号大阪駅前第２ビル１２‐１２,,27,127,5300001,,,,,,,2025-07-08,1,,,,,ネコパンチ,0
927,4120101072047,新規,0,2025-07-08,2025-07-08,株式会社フレスト,,株式会社,大阪府,羽曳野市,南古市３丁目５５番地の５,,27,222,5830858,,,,,,,2025-07-08,1,,,,,フレスト,0
932,4122003003245,新規,0,2025-07-08,2025-07-08,合同会社廣田計量士事務所,00139849,合同会社,大阪府,東大阪市,上石切町２丁目１６番３８－５０４号,,27,227,5798012,,,,,,,2025-07-08,1,,,,,ヒロタケイリョウシジムショ,0
941,4130001080033,新規,0,2025-07-08,2025-07-08,水辺株式会社,,株式会社,京都府,京都市中京区,西ノ京北壺井町８８番地１二条プラザ３０５室,,26,104,6048472,,,,,,,2025-07-08,1,,,,,ミズベ,0
942,4130001080058,新規,0,2025-07-08,2025-07-08,株式会社サンズ,,株式会社,京都府,京都市伏見区,新町１２丁目３２６番地９,,26,109,6128081,,,,,,,2025-07-08,1,,,,,サンズ,0
959,4170003002238,新規,0,2025-07-08,2025-07-08,セフティサイン合同会社,,合同会社,和歌山県,和歌山市,六十谷１３３８番地１８,,30,201,6408482,,,,,,,2025-07-08,1,,,,,セフティサイン,0
970,4180301039988,新規,0,2025-07-08,2025-07-08,株式会社ＨＡＲＬＥＴ,,株式会社,愛知県,刈谷市,高須町三橋１６番地８,,23,210,4480812,,,,,,,2025-07-08,1,,,,,ハーレット,0
971,4180303006648,新規,0,2025-07-08,2025-07-08,合同会社インフィニティ,,合同会社,愛知県,岡崎市,福岡町字荒巻８８番地,,23,202,4440825,,,,,,,2025-07-08,1,,,,,インフィニティ,0
973,4200001043973,新規,0,2025-07-08,2025-07-08,株式会社ＥＣＥテクノ,,株式会社,岐阜県,岐阜市,大学西１丁目２５番地４岐阜市公立大学法人岐阜薬科大学内,,21,201,5011113,,,,,,,2025-07-08,1,,,,,イーシーイーテクノ,0
985,4260001040338,新規,0,2025-07-08,2025-07-08,ＣｏＭｏＮｏＣｏｎｎｅｃｔ株式会社,,株式会社,岡山県,岡山市北区,中山下１丁目１１番１５号新田第１ビル４０２,,33,101,7000821,,,,,,,2025-07-08,1,,,,,コモノコネクト,0
991,4290001110617,新規,0,2025-07-08,2025-07-08,株式会社ことはな,,株式会社,福岡県,糸島市,美咲が丘３丁目２番２１号,,40,230,8191136,,,,,,,2025-07-08,1,,,,,コトハナ,0
992,4290001110641,新規,0,2025-07-08,2025-07-08,株式会社ＳＴリテール,,株式会社,福岡県,福岡市東区,多の津１丁目１２番２号,,40,131,8130034,,,,,,,2025-07-08,1,,,,,エスティーリテール,0
1005,4320001021199,新規,0,2025-07-08,2025-07-08,株式会社櫻木自動車鈑金,,株式会社,大分県,日田市,大字三和２５６５番地１,,44,204,8770000,,,,,,,2025-07-08,1,,,,,サクラギジドウシャバンキン,0
1010,4370001052784,新規,0,2025-07-08,2025-07-08,株式会社ＢＣフォレスト,,株式会社,宮城県,富谷市,東向陽台２丁目７番１２号,,04,216,9813331,,,,,,,2025-07-08,1,,,,,ビーシーフォレスト,0
1011,4370001052801,新規,0,2025-07-08,2025-07-08,株式会社Ｃｏｎｄｕｃｔ,,株式会社,宮城県,仙台市青葉区,中央４丁目４番１９号アーバンネット仙台中央ビル２階,,04,101,9800021,,,,,,,2025-07-08,1,,,,,コンダクト,0
1012,4370003007175,新規,0,2025-07-08,2025-07-08,合同会社ＫＥＳＥＮＮＵＭＡＧＯＯＤＧＯＯＤＳ,,合同会社,宮城県,気仙沼市,唐桑町舘６８番,,04,205,9880511,,,,,,,2025-07-08,1,,,,,ケセンヌマグッドグッズ,0
1016,4380001035433,新規,0,2025-07-08,2025-07-08,株式会社ＳＨＡＲＥ,,株式会社,福島県,いわき市,泉町滝尻字神力前２９番地,,07,204,9718182,,,,,,,2025-07-08,1,,,,,シェア,0
1021,4430003017829,新規,0,2025-07-08,2025-07-08,合同会社ながおとまると,,合同会社,北海道,余市郡余市町,大川町１４丁目１番２４,,01,408,0460004,,,,,,,2025-07-08,1,,,,,ナガオトマルト,0
1022,4430003017837,新規,0,2025-07-08,2025-07-08,合同会社Ｇ‐ＷＡＬＫ　ＬＡＢＯ,,合同会社,北海道,札幌市北区,北十条西３丁目２３番地１,,01,102,0010010,,,,,,,2025-07-08,1,,,,,ジーウォークラボ,0
1026,4440003001699,新規,0,2025-07-08,2025-07-08,合同会社北川興業,,合同会社,北海道,函館市,旭岡町２９－９１,,01,202,0420916,,,,,,,2025-07-08,1,,,,,キタガワコウギョウ,0
1036,4700150131339,新規,0,2025-07-08,2025-07-08,Ｋ．Ｍ．ＡＵＴＯ　ＨＯＵＳＥ,,外国会社等,千葉県,野田市,親野井１５２番地２－Ｆ,,12,208,2700227,スリランカ民主社会主義共和国、ウクウェラ、マタレロード、Ｎｏ．９８／Ａ,,,,,,2025-07-08,1,,,,,ケーエムオートハウス,0
1037,4700150131347,新規,0,2025-07-08,2025-07-08,下町自治会,,その他,静岡県,袋井市,上山梨１丁目１２番地の８,,22,216,4370125,,,,,,,2025-07-08,1,,,,,シモチヨウジチカイ,0
1043,5010001256560,新規,0,2025-07-08,2025-07-08,ＳｅｅｄＡｒｔｓ株式会社,,株式会社,東京都,千代田区,丸の内２丁目７番２号ＪＰタワー,,13,101,1000005,,,,,,,2025-07-08,1,,,,,シードアーツ,0
1049,5010401191473,新規,0,2025-07-08,2025-07-08,株式会社ＳｔａｒＳｅｅｋ,,株式会社,東京都,港区,赤坂３丁目９番５号マーブル赤坂４階,,13,103,1070052,,,,,,,2025-07-08,1,,,,,スターシーク,0
1050,5010401191498,新規,0,2025-07-08,2025-07-08,株式会社ＥＬＮＯＡＨ,,株式会社,東京都,港区,高輪２丁目１４－１７グレイス高輪ビル８階,,13,103,1080074,,,,,,,2025-07-08,1,,,,,エルノア,0
1051,5010401191507,新規,0,2025-07-08,2025-07-08,ＪＰＩＸ株式会社,,株式会社,東京都,港区,六本木３丁目３－２７,,13,103,1060032,,,,,,,2025-07-08,1,,,,,ジェイピックス,0
1057,5010403035505,新規,0,2025-07-08,2025-07-08,合同会社ｓｏｌｏ,,合同会社,東京都,港区,虎ノ門１丁目１２－１３ＭＵＲＡＫＩＨＯＵＳＥ２Ｆ,,13,103,1050001,,,,,,,2025-07-08,1,,,,,ソロ,0
1060,5010601067564,新規,0,2025-07-08,2025-07-08,ＡＫＩＮＤＯ株式会社,,株式会社,東京都,江東区,三好１丁目８番３号,,13,108,1350022,,,,,,,2025-07-08,1,,,,,アキンド,0
1061,5010701047953,新規,0,2025-07-08,2025-07-08,株式会社ビットフレア,,株式会社,東京都,品川区,西五反田２丁目１２－１５五反田リーラハイタウン１００７号,,13,109,1410031,,,,,,,2025-07-08,1,,,,,ビットフレア,0
1062,5010703007798,新規,0,2025-07-08,2025-07-08,合同会社勝馬堂,,合同会社,東京都,品川区,戸越５丁目１３－２リトルコーポ１０３号室,,13,109,1420041,,,,,,,2025-07-08,1,,,,,カチウマドウ,0
1063,5010801036328,新規,0,2025-07-08,2025-07-08,株式会社ＴＡＩＪＵ空調,,株式会社,東京都,大田区,西嶺町３３－１６－１０３,,13,111,1450075,,,,,,,2025-07-08,1,,,,,タイジュクウチョウ,0
1065,5010903010065,新規,0,2025-07-08,2025-07-08,ＳＯＬＧＲＡ合同会社,,合同会社,東京都,世田谷区,大原２丁目６番１０号フォレストオー１０１号,,13,112,1560041,,,,,,,2025-07-08,1,,,,,ソルグラ,0
1073,5011001170504,新規,0,2025-07-08,2025-07-08,ＴｈｉｎｋＭｏｒｅ株式会社,,株式会社,東京都,渋谷区,道玄坂１丁目１０番８号,,13,113,1500043,,,,,,,2025-07-08,1,,,,,シンクモア,0
1074,5011001170685,新規,0,2025-07-08,2025-07-08,株式会社フロービス,,株式会社,東京都,目黒区,自由が丘２丁目１７番２号,,13,110,1520035,,,,,,,2025-07-08,1,,,,,フロービス,0
1075,5011001170933,新規,0,2025-07-08,2025-07-08,株式会社宗,,株式会社,東京都,渋谷区,恵比寿西１丁目５番１号,,13,113,1500021,,,,,,,2025-07-08,1,,,,,ソウ,0
1080,5011101112199,新規,0,2025-07-08,2025-07-08,株式会社ＣＨＩＥＳ,,株式会社,東京都,新宿区,河田町３番５１－１７０５号,,13,104,1620054,,,,,,,2025-07-08,1,,,,,チエ,0
1081,5011101112307,新規,0,2025-07-08,2025-07-08,レジットワン株式会社,,株式会社,東京都,新宿区,四谷３丁目１３番ＳＥＡＢＩＲＤ２階,,13,104,1600004,,,,,,,2025-07-08,1,,,,,レジットワン,0
1082,5011101112364,新規,0,2025-07-08,2025-07-08,株式会社ＳＥＡＤＩＮＩＮＧ,,株式会社,東京都,新宿区,富久町１５番１－７０９号,,13,104,1620067,,,,,,,2025-07-08,1,,,,,シーダイニング,0
1083,5011103016134,新規,0,2025-07-08,2025-07-08,合同会社プルーラルワークス,,合同会社,東京都,新宿区,西新宿３丁目３番１３号西新宿水間ビル６階,,13,104,1600023,,,,,,,2025-07-08,1,,,,,プルーラルワークス,0
1085,5011201026497,新規,0,2025-07-08,2025-07-08,株式会社ＤＡＣＥ　Ｅｎｔｅｒｔａｉｎｍｅｎｔ,,株式会社,東京都,中野区,中野５丁目６７番７号プラザ中野８０１,,13,114,1640001,,,,,,,2025-07-08,1,,,,,デイスエンターテインメント,0
1088,5011303005630,新規,0,2025-07-08,2025-07-08,合同会社ＢＯＡＳＯＲＴＥ,,合同会社,東京都,杉並区,高円寺南１丁目４番１０－３０７号レ・ベント高円寺,,13,115,1660003,,,,,,,2025-07-08,1,,,,,,0
1093,5011503006602,新規,0,2025-07-08,2025-07-08,合同会社Ａｓｓｉｓｔ,,合同会社,東京都,北区,志茂４丁目３１番２号,,13,117,1150042,,,,,,,2025-07-08,1,,,,,アシスト,0
1099,5012701018959,新規,0,2025-07-08,2025-07-08,株式会社武一設備,,株式会社,東京都,東久留米市,八幡町２丁目８番３１号Ｂ－１０２,,13,222,2030042,,,,,,,2025-07-08,1,,,,,タケイチセツビ,0
1100,5012803003792,新規,0,2025-07-08,2025-07-08,合同会社にこにこ,,合同会社,東京都,昭島市,朝日町１丁目５番１１号,,13,207,1960025,,,,,,,2025-07-08,1,,,,,ニコニコ,0
1109,5020001163467,新規,0,2025-07-08,2025-07-08,株式会社ＭＯＣＡ,,株式会社,神奈川県,横浜市南区,中村町１丁目６７―４,,14,105,2320033,,,,,,,2025-07-08,1,,,,,モカ,0
1110,5020001163723,新規,0,2025-07-08,2025-07-08,株式会社レノバパス,,株式会社,神奈川県,横浜市西区,北幸２丁目１０番４８号むつみビル３階,,14,103,2200004,,,,,,,2025-07-08,1,,,,,レノバパス,0
1111,5020001163772,新規,0,2025-07-08,2025-07-08,株式会社孝明商事,,株式会社,神奈川県,横浜市保土ケ谷区,川島町５３１番地８,,14,106,2400045,,,,,,,2025-07-08,1,,,,,コウメイショウジ,0
1115,5020003028858,新規,0,2025-07-08,2025-07-08,合同会社櫻山会計事務所,,合同会社,神奈川県,横浜市港南区,日限山１丁目６７番１１－６１２号,,14,111,2330015,,,,,,,2025-07-08,1,,,,,サクラヤマカイケイジムショ,0
1127,5030003027157,新規,0,2025-07-08,2025-07-08,ＳＵＤＡＩＳ　ＴＲＡＤＩＮＧ合同会社,,合同会社,埼玉県,北葛飾郡松伏町,大字松伏２１２０番地２アビイロード２階２０６号室,,11,465,3430111,,,,,,,2025-07-08,1,,,,,スダイストレーディング,0
1128,5030003027165,新規,0,2025-07-08,2025-07-08,ＷＡＴＴ　ＭＡＲＫＥＴＩＮＧ合同会社,,合同会社,埼玉県,さいたま市浦和区,上木崎７丁目２５番１３号,,11,107,3300071,,,,,,,2025-07-08,1,,,,,ワットマーケティング,0
1135,5040001139515,新規,0,2025-07-08,2025-07-08,株式会社ＢＳＹ,,株式会社,千葉県,千葉市花見川区,犢橋町５５２番地,,12,102,2620013,,,,,,,2025-07-08,1,,,,,ビーエスワイ,0
1136,5040001139556,新規,0,2025-07-08,2025-07-08,株式会社ＨｅｙＤａｙｚ,,株式会社,千葉県,八千代市,緑が丘西１丁目４番地４シティテラス八千代緑が丘ステーションコート２０４,,12,221,2760040,,,,,,,2025-07-08,1,,,,,ヘイデイズ,0
1142,5040003027981,新規,0,2025-07-08,2025-07-08,合同会社ＥＩＴＡＩ　ＬＡＮＤ,,合同会社,千葉県,松戸市,松戸１３０７番地の１松戸ビル,,12,207,2710092,,,,,,,2025-07-08,1,,,,,エイタイランド,0
1149,5080001027014,新規,0,2025-07-08,2025-07-08,株式会社鈴木建工,,株式会社,静岡県,静岡市駿河区,高松２丁目８番１８－１０２号,,22,102,4228034,,,,,,,2025-07-08,1,,,,,スズキケンコウ,0
1150,5080003003500,新規,0,2025-07-08,2025-07-08,合同会社太陽のトビラ,,合同会社,静岡県,静岡市清水区,三保１９３５三和ハイツ,,22,103,4240901,,,,,,,2025-07-08,1,,,,,タイヨウノトビラ,0
1152,5080101025636,新規,0,2025-07-08,2025-07-08,アクアハーベスト株式会社,,株式会社,静岡県,沼津市,下香貫浜田２９８９番地の２,,22,203,4100822,,,,,,,2025-07-08,1,,,,,アクアハーベスト,0
1165,5120001276894,新規,0,2025-07-08,2025-07-08,正辛株式会社,,株式会社,大阪府,大阪市城東区,鴫野西５丁目２０番２５号３Ｂ号室,,27,118,5360014,,,,,,,2025-07-08,1,,,,,セイシン,0
1166,5120001277538,新規,0,2025-07-08,2025-07-08,株式会社みどり警備,,株式会社,大阪府,大阪市東成区,東中本２丁目２番１２号,,27,115,5370021,,,,,,,2025-07-08,1,,,,,ミドリケイビ,0
1167,5120001277595,新規,0,2025-07-08,2025-07-08,株式会社Ｃｏｌｏｒｆｕｌ　Ｗｏｍａｎ,,株式会社,大阪府,大阪市北区,中崎西４丁目１番１号４階,,27,127,5300015,,,,,,,2025-07-08,1,,,,,カラフルウーマン,0
1168,5120001277620,新規,0,2025-07-08,2025-07-08,Ｅｓｓｅｎｔｉａ株式会社,,株式会社,大阪府,大阪市東淀川区,豊新３丁目１０－３－４０２,,27,114,5330014,,,,,,,2025-07-08,1,,,,,エッセンティア,0
1169,5120001277629,新規,0,2025-07-08,2025-07-08,芸龍株式会社,,株式会社,大阪府,大阪市旭区,今市１丁目２－５カルム千林２０３号室,,27,117,5350011,,,,,,,2025-07-08,1,,,,,イーロン,0
1170,5120001277678,新規,0,2025-07-08,2025-07-08,株式会社フレイア,,株式会社,大阪府,枚方市,南中振１丁目１５番７号,,27,210,5730094,,,,,,,2025-07-08,1,,,,,フレイア,0
1175,5120003029937,新規,0,2025-07-08,2025-07-08,合同会社ＴＥＰＥＣＡ,,合同会社,大阪府,枚方市,藤阪元町３丁目３０番１６号,,27,210,5730157,,,,,,,2025-07-08,1,,,,,テペカ,0
1182,5120105010027,新規,0,2025-07-08,2025-07-08,一般社団法人Ｍａｌａｙｓｉａ　Ｌｉｖｉｎｇ　Ｌａｂ,,その他の設立登記法人,大阪府,堺市北区,東三国ヶ丘町２丁１番３－２０７号,,27,146,5918046,,,,,,,2025-07-08,1,,,,,マレーシアリビングラボ,0
1185,5122005003829,新規,0,2025-07-08,2025-07-08,一般社団法人友栄会,,その他の設立登記法人,大阪府,大東市,新田本町１０番６号３０２,,27,218,5740055,,,,,,,2025-07-08,1,,,,,ユウエイカイ,0
1190,5130001080032,新規,0,2025-07-08,2025-07-08,愛博森株式会社,,株式会社,京都府,京都市中京区,猪熊通三条上る姉猪熊町３３６番地,,26,104,6048324,,,,,,,2025-07-08,1,,,,,アイハクシン,0
1191,5130001080057,新規,0,2025-07-08,2025-07-08,京都Ｍ＆Ａアドバイザリー株式会社,,株式会社,京都府,京都市下京区,烏丸通松原上る薬師前町７００番地,,26,106,6008416,,,,,,,2025-07-08,1,,,,,キョウトエムアンドエーアドバイザリー,0
1192,5130001080164,新規,0,2025-07-08,2025-07-08,株式会社ＭＩＹＡＢＩ,,株式会社,京都府,京都市左京区,岩倉長谷町４４８番地３０２号室,,26,103,6060026,,,,,,,2025-07-08,1,,,,,ミヤビ,0
1193,5130005017393,新規,0,2025-07-08,2025-07-08,医療法人とだ消化器内科クリニック,,その他の設立登記法人,京都府,京都市西京区,桂坤町２９番地１０,,26,111,6158084,,,,,,,2025-07-08,1,,,,,トダショウカキナイカクリニック,0
1210,5180301039979,新規,0,2025-07-08,2025-07-08,株式会社ＭＧＦ,,株式会社,愛知県,豊橋市,馬見塚町２５番地,,23,201,4418007,,,,,,,2025-07-08,1,,,,,エムジーエフ,0
1211,5180303006647,新規,0,2025-07-08,2025-07-08,合同会社愛知活動支援サービス,,合同会社,愛知県,刈谷市,野田町陣戸池７２番地１,,23,210,4480803,,,,,,,2025-07-08,1,,,,,アイチカツドウシエンサービス,0
1215,5200001044005,新規,0,2025-07-08,2025-07-08,株式会社ＳＢＴＹ,,株式会社,岐阜県,岐阜市,柳津町北塚３丁目２５番地パルテネ―ルヒロ１０５号,00139840,21,201,5016112,,,,,,,2025-07-08,1,,,,,エスビーティーワイ,0
1217,5210001020228,新規,0,2025-07-08,2025-07-08,株式会社初陽,,株式会社,福井県,福井市,文京２丁目２番１号,,18,201,9100017,,,,,,,2025-07-08,1,,,,,ショヨウ,0
1224,5240003007294,新規,0,2025-07-08,2025-07-08,合同会社ｄｏｍａ‐ｎｉ,,合同会社,広島県,広島市佐伯区,隅の浜２丁目１１－８－２０１,,34,108,7315145,,,,,,,2025-07-08,1,,,,,ドマーニ,0
1228,5260001040337,新規,0,2025-07-08,2025-07-08,株式会社坊さん玩具工房,,株式会社,岡山県,倉敷市,中島１８６番地高蔵寺内,,33,202,7100803,,,,,,,2025-07-08,1,,,,,ボウサンガングコウボウ,0
1232,5270003001765,新規,0,2025-07-08,2025-07-08,合同会社後藤事務所,,合同会社,鳥取県,米子市,茶町６１番地（１Ｆ）,,31,202,6830041,,,,,,,2025-07-08,1,,,,,ゴトウジムショ,0
1235,5280001009454,新規,0,2025-07-08,2025-07-08,えん株式会社,,株式会社,島根県,出雲市,斐川町荘原２１６番地１,,32,203,6990502,,,,,,,2025-07-08,1,,,,,エン,0
1239,5290001110624,新規,0,2025-07-08,2025-07-08,ＭＫ２株式会社,,株式会社,福岡県,福岡市城南区,鳥飼５丁目１３番１１－５０１号,,40,136,8140103,,,,,,,2025-07-08,1,,,,,エムケーツー,0
1240,5290001110632,新規,0,2025-07-08,2025-07-08,株式会社シチム土香,,株式会社,福岡県,福岡市南区,柏原１丁目３２番４８号,,40,134,8111353,,,,,,,2025-07-08,1,,,,,シチムトコウ,0
1245,5290003017058,新規,0,2025-07-08,2025-07-08,合同会社ＨＩＮＯＤＥ,,合同会社,福岡県,福岡市中央区,高砂２丁目２４番２３号,,40,133,8100011,,,,,,,2025-07-08,1,,,,,ヒノデ,0
1246,5290003017074,新規,0,2025-07-08,2025-07-08,Ｔｅａｍ‐ｆｌａｔ合同会社,,合同会社,福岡県,福岡市中央区,舞鶴１丁目９番３－５０２号,,40,133,8100073,,,,,,,2025-07-08,1,,,,,チームフラット,0
1248,5290801031697,新規,0,2025-07-08,2025-07-08,株式会社つくしクラフト,,株式会社,福岡県,北九州市八幡西区,木屋瀬４丁目１７番１７号,,40,109,8071261,,,,,,,2025-07-08,1,,,,,ツクシクラフト,0
1252,5310001019689,新規,0,2025-07-08,2025-07-08,株式会社ＴＨＯＲＳ,,株式会社,長崎県,長崎市,畝刈町１１５２番地１柏木ビル２階Ｆ号室,,42,201,8512212,,,,,,,2025-07-08,1,,,,,トールズ,0
1256,5330001033382,新規,0,2025-07-08,2025-07-08,怡統株式会社,,株式会社,熊本県,熊本市中央区,渡鹿５丁目９番２６－１０１号,,43,101,8620970,,,,,,,2025-07-08,1,,,,,イトウ,0
1258,5330003011106,新規,0,2025-07-08,2025-07-08,合同会社ＥＬＥＮＤ,,合同会社,熊本県,熊本市中央区,辛島町４番３５－１００６号ラ・シック辛島,,43,101,8600804,,,,,,,2025-07-08,1,,,,,,0
1266,5370001052783,新規,0,2025-07-08,2025-07-08,株式会社Ｂ．Ｏ‐ＯＮＥ,,株式会社,宮城県,大崎市,古川字城西２０－１,,04,215,9896223,,,,,,,2025-07-08,1,,,,,ビーオーワン,0
1267,5370001052800,新規,0,2025-07-08,2025-07-08,株式会社ＣＯＮＶＹ,,株式会社,宮城県,仙台市太白区,芦の口６番２４号,,04,104,9820824,,,,,,,2025-07-08,1,,,,,コンビー,0
1273,5380001035432,新規,0,2025-07-08,2025-07-08,ゆかり電気設備株式会社,,株式会社,福島県,郡山市,富久山町久保田字梅田８２番地の１ＧｒａｎＧａｒａｇｅＵｍｅｔａ０１号,,07,203,9638071,,,,,,,2025-07-08,1,,,,,ユカリデンキセツビ,0
1274,5380001035440,新規,0,2025-07-08,2025-07-08,川田機械工業株式会社,,株式会社,福島県,いわき市,小川町高萩字下川原１１６番地の１２,,07,204,9793122,,,,,,,2025-07-08,1,,,,,カワタキカイコウギョウ,0
1283,5440001009644,新規,0,2025-07-08,2025-07-08,株式会社田島板金塗装,,株式会社,北海道,北斗市,萩野１４番地１,,01,236,0411215,,,,,,,2025-07-08,1,,,,,タジマバンキントソウ,0
1285,5460101007728,新規,0,2025-07-08,2025-07-08,株式会社ｄａｓｈｉ　ｔｏ　ｕｍａｍｉ,,株式会社,北海道,帯広市,西三条南１２丁目１番地センターシティ３２０２号室,00139854,01,207,0800013,,,,,,,2025-07-08,1,,,,,ダシトウマミ,0
1288,5490001011100,新規,0,2025-07-08,2025-07-08,株式会社プラスコンサルティング,,株式会社,高知県,南国市,緑ケ丘１丁目１３０１番地３,,39,204,7830086,,,,,,,2025-07-08,1,,,,,プラスコンサルティング,0
1291,5500001026402,新規,0,2025-07-08,2025-07-08,株式会社松岡工芸,,株式会社,愛媛県,今治市,大西町宮脇甲７３番地１１,,38,202,7992205,,,,,,,2025-07-08,1,,,,,マツオカコウゲイ,0
1299,5700150131346,新規,0,2025-07-08,2025-07-08,ＯＣＥＡＮ　ＷＯＲＬＤ　ＩＮＴＥＲＮＡＴＩＯＮＡＬ　ＰＶＴ　ＬＴＤ,,外国会社等,千葉県,佐倉市,大篠塚１３２８番地２,,12,212,2850806,スリランカ民主社会主義共和国、グンネパナ、アムヌガマ、Ｎｏ．２６,,,,,,2025-07-08,1,,,,,オーシヤンワールドインターナシヨナルプライベートリミテツド,0
1313,6010001256345,新規,0,2025-07-08,2025-07-08,株式会社ＡＳＬｉＱ,,株式会社,東京都,千代田区,神田須田町１丁目７－８ＶＯＲＴ秋葉原ＩＶ２Ｆ,00139850,13,101,1010041,,,,,,,2025-07-08,1,,,,,アスリック,0
1314,6010001256568,新規,0,2025-07-08,2025-07-08,株式会社凌雲,,株式会社,東京都,文京区,本郷５丁目９番５号１０２号室,,13,105,1130033,,,,,,,2025-07-08,1,,,,,リョウウン,0
1317,6010003047949,新規,0,2025-07-08,2025-07-08,合同会社ＰＦメラ,,合同会社,東京都,千代田区,平河町１丁目６番１５号シルスフィア会計事務所内,,13,101,1020093,,,,,,,2025-07-08,1,,,,,ピーエフメラ,0
1326,6010401191415,新規,0,2025-07-08,2025-07-08,ＵｎｔｒｏＤ　Ｂｒｉｄｇｅ　Ｃａｐｉｔａｌ株式会社,,株式会社,東京都,港区,虎ノ門２丁目２番１号住友不動産虎ノ門タワー１７Ｆ,,13,103,1050001,,,,,,,2025-07-08,1,,,,,アントロッドブリッジキャピタル,0
1327,6010401191506,新規,0,2025-07-08,2025-07-08,社内承継支援機構株式会社,,株式会社,東京都,港区,六本木６丁目２番３１号六本木ヒルズノースタワー,,13,103,1060032,,,,,,,2025-07-08,1,,,,,シャナイショウケイシエンキコウ,0
1328,6010401191563,新規,0,2025-07-08,2025-07-08,株式会社ＣｏｃｋＰｉｔ　Ｒｅｃｒｕｉｔｍｅｎｔ,,株式会社,東京都,港区,芝５丁目２９番２０号クロスオフィス三田６０５,,13,103,1080014,,,,,,,2025-07-08,1,,,,,コックピットリクルートメント,0
1329,6010401191605,新規,0,2025-07-08,2025-07-08,株式会社ひき田,,株式会社,東京都,港区,北青山２丁目１２番４号坂本ビル３階,,13,103,1070061,,,,,,,2025-07-08,1,,,,,ヒキタ,0
1330,6010403035487,新規,0,2025-07-08,2025-07-08,合同会社Ｆａｍｉｌｉｓｔ,,合同会社,東京都,港区,新橋４丁目１４番１号新橋ＡＵＮＢＬＤＧ．４階,,13,103,1050004,,,,,,,2025-07-08,1,,,,,ファミリスト,0
1335,6010701047960,新規,0,2025-07-08,2025-07-08,マハロスタイル株式会社,,株式会社,東京都,品川区,大井６丁目１６番１号,,13,109,1400014,,,,,,,2025-07-08,1,,,,,マハロスタイル,0
1337,6010703007797,新規,0,2025-07-08,2025-07-08,合同会社Ｒｅｍ　ａｚｕｒ,,合同会社,東京都,品川区,大崎２丁目５番２７号ｐｒｉｍｅ大崎１０２,,13,109,1410032,,,,,,,2025-07-08,1,,,,,レムアズール,0
1339,6010801036335,新規,0,2025-07-08,2025-07-08,株式会社ＮＤＥＳ,,株式会社,東京都,大田区,西蒲田７丁目３７番１０号,,13,111,1440051,,,,,,,2025-07-08,1,,,,,エヌデス,0
1340,6010801036343,新規,0,2025-07-08,2025-07-08,株式会社ビス,,株式会社,東京都,大田区,大森南３丁目１４番７号,,13,111,1430013,,,,,,,2025-07-08,1,,,,,ビス,0
1345,6010903010080,新規,0,2025-07-08,2025-07-08,Ｇｌｉｄｅ合同会社,,合同会社,東京都,世田谷区,太子堂４丁目１８番１５号マガザン三軒茶屋２・３Ｆ―３,,13,112,1540004,,,,,,,2025-07-08,1,,,,,グライド,0
1352,6011001170528,新規,0,2025-07-08,2025-07-08,渋谷美容外科メディカル株式会社,,株式会社,東京都,渋谷区,渋谷２丁目１１番６号,,13,113,1500002,,,,,,,2025-07-08,1,,,,,シブヤビヨウゲカメディカル,0
1354,6011005011067,新規,0,2025-07-08,2025-07-08,一般社団法人ＭＢ０,,その他の設立登記法人,東京都,渋谷区,笹塚１丁目６０番２号,,13,113,1510073,,,,,,,2025-07-08,1,,,,,エムビーゼロ,0
1359,6011105011487,新規,0,2025-07-08,2025-07-08,一般社団法人こども食堂元気プロジェクト,,その他の設立登記法人,東京都,新宿区,四谷坂町９番８号,,13,104,1600002,,,,,,,2025-07-08,1,,,,,コドモショクドウゲンキプロジェクト,0
1360,6011301030695,新規,0,2025-07-08,2025-07-08,株式会社ＲＥｂｅｌｌｏ花嫁,,株式会社,東京都,杉並区,南荻窪１丁目７番１８－１０７号リビオ荻窪レジデンス,,13,115,1670052,,,,,,,2025-07-08,1,,,,,リベロハナヨメ,0
1361,6011301030720,新規,0,2025-07-08,2025-07-08,株式会社Ａｌｐｈａ,,株式会社,東京都,杉並区,南荻窪１丁目２９番３号３０４,,13,115,1670052,,,,,,,2025-07-08,1,,,,,アルファ,0
1366,6012401043307,新規,0,2025-07-08,2025-07-08,Ｔｏｒｉｋｏ吉鶴株式会社,,株式会社,東京都,武蔵野市,吉祥寺南町４丁目２３番４号,,13,203,1800003,,,,,,,2025-07-08,1,,,,,トリコキチツル,0
1370,6013303007754,新規,0,2025-07-08,2025-07-08,Ｃｏｇｎｉｓａｎｔ合同会社,,合同会社,東京都,豊島区,東池袋３丁目２２－２１Ｃｏｍｆｏｒｉａ東池袋Ｗｅｓｔ３１５,,13,116,1700013,,,,,,,2025-07-08,1,,,,,コグニザント,0
1374,6020001163697,新規,0,2025-07-08,2025-07-08,株式会社メニアック,,株式会社,神奈川県,川崎市川崎区,東田町１－１大西ビル２Ｆ,,14,131,2100005,,,,,,,2025-07-08,1,,,,,メニアック,0
1375,6020001163805,新規,0,2025-07-08,2025-07-08,株式会社鎌田電設,,株式会社,神奈川県,横浜市旭区,川井本町７９番地,,14,112,2410803,,,,,,,2025-07-08,1,,,,,カマタデンセツ,0
1379,6020003028873,新規,0,2025-07-08,2025-07-08,合同会社Ｂ‐Ｌｉｎｅ,,合同会社,神奈川県,横浜市南区,六ツ川３丁目１１９番３４号,,14,105,2320066,,,,,,,2025-07-08,1,,,,,ビーライン,0
1381,6021001085717,新規,0,2025-07-08,2025-07-08,株式会社オクタグラム,,株式会社,神奈川県,座間市,相模が丘３丁目６－７ＴＯＰ小田急相模原第１－２０２号室,,14,216,2520001,,,,,,,2025-07-08,1,,,,,オクタグラム,0
1402,6040001139522,新規,0,2025-07-08,2025-07-08,ＫＡＮＲＡ　ＧＬＯＢＡＬ株式会社,,株式会社,千葉県,市川市,東菅野２丁目４－１５,,12,203,2720823,,,,,,,2025-07-08,1,,,,,カンラグローバル,0
1403,6040001139539,新規,0,2025-07-08,2025-07-08,天人商事株式会社,,株式会社,千葉県,佐倉市,宮前３丁目１３番地２ＡＲビル２階,,12,212,2850005,,,,,,,2025-07-08,1,,,,,テンニンショウジ,0
1404,6040001139547,新規,0,2025-07-08,2025-07-08,株式会社ＲｏｙＨｉｌｌｓ,,株式会社,千葉県,成田市,土屋１３７３番地６,,12,211,2860021,,,,,,,2025-07-08,1,,,,,ロイヒルズ,0
1407,6040003027980,新規,0,2025-07-08,2025-07-08,旭合同会社,,合同会社,千葉県,市原市,うるいど南３丁目２番地８９,,12,219,2900170,,,,,,,2025-07-08,1,,,,,アサヒ,0
1408,6040003027989,新規,0,2025-07-08,2025-07-08,合同会社Ｔａｋｂｒｏａｄ,,合同会社,千葉県,千葉市中央区,富士見１丁目１０番２号第３藤や観光ビルＢ１,,12,101,2600015,,,,,,,2025-07-08,1,,,,,タクブロード,0
1410,6050001056907,新規,0,2025-07-08,2025-07-08,株式会社リトルリバー,,株式会社,茨城県,笠間市,笠間１１６２番地１,,08,216,3091611,,,,,,,2025-07-08,1,,,,,リトルリバー,0
1412,6050003009409,新規,0,2025-07-08,2025-07-08,合同会社緒心,,合同会社,茨城県,古河市,下大野２９６５番地３０２,,08,204,3060204,,,,,,,2025-07-08,1,,,,,ツグミ,0
1413,6060003005621,新規,0,2025-07-08,2025-07-08,キアラベッラ合同会社,,合同会社,栃木県,那須塩原市,扇町３番６号,,09,213,3292726,,,,,,,2025-07-08,1,,,,,キアラベッラ,0
1416,6080101025627,新規,0,2025-07-08,2025-07-08,エムズフットワーク株式会社,,株式会社,静岡県,熱海市,泉２４９番地の８東熱海第二シーサイドハイツ４０７,,22,205,4130001,,,,,,,2025-07-08,1,,,,,エムズフットワーク,0
1418,6080103003374,新規,0,2025-07-08,2025-07-08,合同会社スミナル,,合同会社,静岡県,富士市,横割５丁目２－１１－１クラヴィエペンテＡ２０１,,22,210,4160944,,,,,,,2025-07-08,1,,,,,スミナル,0
1425,6100003008272,新規,0,2025-07-08,2025-07-08,合同会社ＮＥＸＵＭ,,合同会社,長野県,長野市,篠ノ井岡田２９９７番地,,20,201,3812225,,,,,,,2025-07-08,1,,,,,ネクスム,0
1438,6120001277561,新規,0,2025-07-08,2025-07-08,株式会社奈良迫,,株式会社,大阪府,大阪市都島区,網島町５番６－９１０号,,27,102,5340026,,,,,,,2025-07-08,1,,,,,ナラサコ,0
1439,6120001277586,新規,0,2025-07-08,2025-07-08,株式会社けいこう,,株式会社,大阪府,大阪市北区,長柄中２丁目８番１５号,,27,127,5310062,,,,,,,2025-07-08,1,,,,,ケイコウ,0
1440,6120001277677,新規,0,2025-07-08,2025-07-08,株式会社Ｔ．Ａ．Ｇ,,株式会社,大阪府,大阪市西区,京町堀１丁目４番２２号１０Ｆ,,27,106,5500003,,,,,,,2025-07-08,1,,,,,ティーエージ,0
1442,6120005025017,新規,0,2025-07-08,2025-07-08,一般社団法人障がい者アシストあすたぁ,,その他の設立登記法人,大阪府,守口市,寺方本通４丁目４番３号,,27,209,5700048,,,,,,,2025-07-08,1,,,,,ショウガイシャアシストアスタァ,0
1448,6130001080031,新規,0,2025-07-08,2025-07-08,株式会社ＳＴＡＲＴＯ　ＯＮ,,株式会社,京都府,京都市西京区,川島滑樋町２番地,,26,111,6158106,,,,,,,2025-07-08,1,,,,,スタートオン,0
1449,6130001080064,新規,0,2025-07-08,2025-07-08,ヒロガル株式会社,,株式会社,京都府,京都市中京区,新京極通蛸薬師下る東側町５０１番地３松やビル２階,00139839,26,104,6048046,,,,,,,2025-07-08,1,,,,,ヒロガル,0
1453,6140001139149,新規,0,2025-07-08,2025-07-08,株式会社さかい,,株式会社,兵庫県,加古川市,平岡町新在家７１６－９－５０５,,28,210,6750101,,,,,,,2025-07-08,1,,,,,サカイ,0
1454,6140001139157,新規,0,2025-07-08,2025-07-08,株式会社ウッドテール,,株式会社,兵庫県,姫路市,白浜町神田２丁目５番地１,,28,201,6728011,,,,,,,2025-07-08,1,,,,,ウッドテール,0
1455,6140001139198,新規,0,2025-07-08,2025-07-08,株式会社ＳＰＩＬＬ　ＳＴＡＧＥ,,株式会社,兵庫県,姫路市,夢前町菅生澗１５４０－３,,28,201,6712134,,,,,,,2025-07-08,1,,,,,スピルステージ,0
1466,6180001167559,新規,0,2025-07-08,2025-07-08,株式会社ＫＪＭ　ＩＮＤＵＳＴＲＹ,,株式会社,愛知県,名古屋市港区,小碓１丁目５２１番地の１（フィレンチェコート７Ｂ号）,,23,111,4550801,,,,,,,2025-07-08,1,,,,,ケージェーエムインダストリー,0
1467,6180003028726,新規,0,2025-07-08,2025-07-08,ＳｗｉｆｔＮａｈｔ合同会社,,合同会社,愛知県,名古屋市天白区,鴻の巣２丁目１６１２番地,,23,116,4680003,,,,,,,2025-07-08,1,,,,,スイフトナート,0
1468,6180005021159,新規,0,2025-07-08,2025-07-08,医療法人ＳＵＣ,,その他の設立登記法人,愛知県,名古屋市昭和区,桜山町４丁目７１番地夏目ビル１階,,23,107,4660044,,,,,,,2025-07-08,1,,,,,エスユーシー,0
1473,6180303006646,新規,0,2025-07-08,2025-07-08,Ｏｃｔｏｐｕｓ　Ｐｌａｎｔｓ合同会社,,合同会社,愛知県,豊橋市,老津町字西高縄１１－１２,,23,201,4413301,,,,,,,2025-07-08,1,,,,,オクトパスプランツ,0
1476,6190001032373,新規,0,2025-07-08,2025-07-08,株式会社カイセイ,,株式会社,三重県,三重郡菰野町,大字神森８８５番地２,,24,341,5101231,,,,,,,2025-07-08,1,,,,,カイセイ,0
1477,6200001044004,新規,0,2025-07-08,2025-07-08,株式会社カワセミワークス,,株式会社,岐阜県,各務原市,蘇原緑町１丁目５０番地白木ビル２階,,21,213,5040902,,,,,,,2025-07-08,1,,,,,カワセミワークス,0
1485,6240001065194,新規,0,2025-07-08,2025-07-08,株式会社まどか,,株式会社,広島県,広島市安佐南区,西原６丁目１８番２３号,,34,105,7310113,,,,,,,2025-07-08,1,,,,,マドカ,0
1488,6260001040336,新規,0,2025-07-08,2025-07-08,株式会社ライフグラッド,,株式会社,岡山県,津山市,東一宮３番地２３,,33,203,7080814,,,,,,,2025-07-08,1,,,,,ライフグラッド,0
1494,6290001110482,新規,0,2025-07-08,2025-07-08,株式会社ＭＩＴＳＵＫＩ　ＣＯＲＰＯＲＡＴＩＯＮ,,株式会社,福岡県,宗像市,池田１３５０番地,,40,220,8113515,,,,,,,2025-07-08,1,,,,,ミツキコーポレーション,0
1495,6290001110697,新規,0,2025-07-08,2025-07-08,株式会社Ｐｏｚｕｒｕ,,株式会社,福岡県,福岡市中央区,西公園６番１３号,,40,133,8100061,,,,,,,2025-07-08,1,,,,,ポズル,0
1497,6290801031671,新規,0,2025-07-08,2025-07-08,株式会社よつ葉プロジェクト,,株式会社,福岡県,北九州市小倉北区,足立１丁目９番３８号,,40,106,8020042,,,,,,,2025-07-08,1,,,,,ヨツバプロジェクト,0
1498,6290801031688,新規,0,2025-07-08,2025-07-08,モルモット株式会社,,株式会社,福岡県,北九州市八幡西区,星ケ丘３丁目１９番１号,,40,109,8071264,,,,,,,2025-07-08,1,,,,,モルモット,0
1503,6330001033381,新規,0,2025-07-08,2025-07-08,センターロード株式会社,,株式会社,熊本県,八代市,八幡町４番１５号,,43,202,8660041,,,,,,,2025-07-08,1,,,,,センターロード,0
1506,6360001035433,新規,0,2025-07-08,2025-07-08,オロク商会グループホールディングス株式会社,,株式会社,沖縄県,那覇市,小禄１丁目２７番地１５,,47,201,9010152,,,,,,,2025-07-08,1,,,,,オロクショウカイグループホールディングス,0
1507,6360003015061,新規,0,2025-07-08,2025-07-08,合同会社ＹＡＮＢＡＲＵ　ＧＲＥＥＮ　ＥＡＲＴＨ,,合同会社,沖縄県,国頭郡本部町,字大嘉陽４５３番地,,47,308,9050223,,,,,,,2025-07-08,1,,,,,ヤンバルグリーンアース,0
1509,6370001052782,新規,0,2025-07-08,2025-07-08,高山建工株式会社,00139835,株式会社,宮城県,亘理郡亘理町,長瀞字町南２番地３,00139836,04,361,9892341,,,,,,,2025-07-08,1,,,,,タカヤマケンコウ,0
1510,6370001052799,新規,0,2025-07-08,2025-07-08,ＳＫ株式会社,,株式会社,宮城県,仙台市若林区,若林４丁目６－７,,04,103,9840826,,,,,,,2025-07-08,1,,,,,エスケイ,0
1514,6390001018047,新規,0,2025-07-08,2025-07-08,株式会社ミシオン,,株式会社,山形県,長井市,舟場６番１３号,,06,209,9930082,,,,,,,2025-07-08,1,,,,,ミシオン,0
1519,6430001094769,新規,0,2025-07-08,2025-07-08,株式会社Ｍｉｔｚ　ＣＲＥＡＴＩＯＮ,,株式会社,北海道,札幌市南区,真駒内柏丘９丁目３番４５号,,01,106,0050022,,,,,,,2025-07-08,1,,,,,ミッツクリエイション,0
1520,6430001094802,新規,0,2025-07-08,2025-07-08,株式会社ＭｃＱｕｅｅｎ,,株式会社,北海道,札幌市白石区,川下一条５丁目２番２０号,,01,104,0030861,,,,,,,2025-07-08,1,,,,,マックィーン,0
1523,6450001014667,新規,0,2025-07-08,2025-07-08,株式会社ＭＫ工業,,株式会社,北海道,旭川市,豊岡一条５丁目３番７号,,01,204,0788231,,,,,,,2025-07-08,1,,,,,エムケイコウギョウ,0
1537,6700150131345,新規,0,2025-07-08,2025-07-08,相続財産法人　川嶋昌子,,その他,奈良県,奈良市,二条大路南１丁目１番１号,,29,201,6308012,,,,,,,2025-07-08,1,,,,,ソウゾクザイサンホウジンカワシママサコ,0
1545,7010001256542,新規,0,2025-07-08,2025-07-08,株式会社オアシスＬＡＢＯ,,株式会社,東京都,文京区,白山１丁目２５－１４カーサヒルズ白山２０１,,13,105,1130001,,,,,,,2025-07-08,1,,,,,オアシスラボ,0
1547,7010003047907,新規,0,2025-07-08,2025-07-08,泉四合同会社,,合同会社,東京都,千代田区,岩本町３丁目７番１５号８Ｆ,,13,101,1010032,,,,,,,2025-07-08,1,,,,,イズミヨン,0
1552,7010401191224,新規,0,2025-07-08,2025-07-08,株式会社結,,株式会社,東京都,港区,赤坂５丁目２－３３ＩｓａＩＡｋａｓａｋＡ,,13,103,1070052,,,,,,,2025-07-08,1,,,,,ユイ,0
1553,7010401191505,新規,0,2025-07-08,2025-07-08,株式会社ＴＲＹＺ,,株式会社,東京都,港区,六本木５丁目１８番１９－３０３号,,13,103,1060032,,,,,,,2025-07-08,1,,,,,トライツ,0
1554,7010401191538,新規,0,2025-07-08,2025-07-08,エムジーコープ株式会社,,株式会社,東京都,港区,南青山３丁目１番３６号青山丸竹ビル６階,,13,103,1070062,,,,,,,2025-07-08,1,,,,,エムジーコープ,0
1556,7010403035445,新規,0,2025-07-08,2025-07-08,ドラケンスバーグ合同会社,,合同会社,東京都,港区,白金２丁目７－１２,,13,103,1080072,,,,,,,2025-07-08,1,,,,,ドラケンスバーグ,0
1557,7010403035536,新規,0,2025-07-08,2025-07-08,カプラ合同会社,,合同会社,東京都,港区,北青山１丁目３番１号アールキューブ青山３階,,13,103,1070061,,,,,,,2025-07-08,1,,,,,カプラ,0
1561,7010801036359,新規,0,2025-07-08,2025-07-08,ｓｅｖｅｎ　ａｄｓ株式会社,,株式会社,東京都,大田区,大森北３丁目４番４号ＫＴ大森北ビル４－Ｆ号室,,13,111,1430016,,,,,,,2025-07-08,1,,,,,セブンアッズ,0
1564,7010905004798,新規,0,2025-07-08,2025-07-08,一般社団法人アワリーマッチング推進協議会,,その他の設立登記法人,東京都,世田谷区,等々力２丁目２５番５号,,13,112,1580082,,,,,,,2025-07-08,1,,,,,アワリーマッチングスイシンキョウギカイ,0
1575,7011101112404,新規,0,2025-07-08,2025-07-08,株式会社Ｎｏｎ　Ｐｒｏｍｐｔ,,株式会社,東京都,新宿区,新宿３丁目３６番１４号ＫＡＷＡＮＯ・ＡＮＮＥＸ地下１階,,13,104,1600022,,,,,,,2025-07-08,1,,,,,ノンプロンプト,0
1578,7011103016090,新規,0,2025-07-08,2025-07-08,合同会社三仕之礼,,合同会社,東京都,新宿区,上落合２丁目１７番３号町屋壱番１０２号,,13,104,1610034,,,,,,,2025-07-08,1,,,,,サンシノレイ,0
1586,7011801046372,新規,0,2025-07-08,2025-07-08,株式会社ＩＮＮＯＢＲＯＯＭ,,株式会社,東京都,葛飾区,小菅４丁目６番５号,,13,122,1240001,,,,,,,2025-07-08,1,,,,,イノブルーム,0
1587,7011801046422,新規,0,2025-07-08,2025-07-08,株式会社しんめい動物病院あだち,,株式会社,東京都,足立区,東和４丁目１番１号ヴェルデ鞠子１０１,,13,121,1200003,,,,,,,2025-07-08,1,,,,,シンメイドウブツビョウインアダチ,0
1590,7012401043322,新規,0,2025-07-08,2025-07-08,ジオキャス株式会社,,株式会社,東京都,武蔵野市,吉祥寺本町３丁目１０番１号,,13,203,1800004,,,,,,,2025-07-08,1,,,,,ジオキャス,0
1598,7020001163696,新規,0,2025-07-08,2025-07-08,株式会社Ｓ‐ｐａｒｔｎｅｒ,,株式会社,神奈川県,横浜市泉区,中田西４丁目３０番２号,,14,116,2450015,,,,,,,2025-07-08,1,,,,,エスパートナー,0
1599,7020001163721,新規,0,2025-07-08,2025-07-08,株式会社エキップ・エソール,,株式会社,神奈川県,横浜市中区,桜木町１丁目１０１番地１クロスゲート７階,,14,104,2310062,,,,,,,2025-07-08,1,,,,,エキップエソール,0
1604,7020003028872,新規,0,2025-07-08,2025-07-08,合同会社悠彩館,,合同会社,神奈川県,横浜市緑区,東本郷６丁目１７番１号ヒルズ横浜ガーデンホームズ３１６,,14,113,2260002,,,,,,,2025-07-08,1,,,,,ユウサイカン,0
1605,7020003028880,新規,0,2025-07-08,2025-07-08,バズウォール合同会社,,合同会社,神奈川県,川崎市高津区,溝口１丁目１４番８－１Ｆ,,14,134,2130001,,,,,,,2025-07-08,1,,,,,バズウォール,0
1606,7020003028889,新規,0,2025-07-08,2025-07-08,合同会社ホープフル・ラボ,,合同会社,神奈川県,横浜市西区,平沼１丁目４０番１号嶋森ビル８階,,14,103,2200023,,,,,,,2025-07-08,1,,,,,ホープフルラボ,0
1617,7030001167507,新規,0,2025-07-08,2025-07-08,株式会社マサル土建,,株式会社,埼玉県,南埼玉郡宮代町,道佛３丁目２９番２９号,,11,442,3450811,,,,,,,2025-07-08,1,,,,,マサルドケン,0
1621,7040001139488,新規,0,2025-07-08,2025-07-08,コーヨウ商事株式会社,,株式会社,千葉県,柏市,十余二１６４番地１６２,,12,217,2770872,,,,,,,2025-07-08,1,,,,,コーヨウショウジ,0
1622,7040001139505,新規,0,2025-07-08,2025-07-08,Ｋ２Ｃ株式会社,,株式会社,千葉県,成田市,囲護台２丁目６番地８、２Ｆ,,12,211,2860035,,,,,,,2025-07-08,1,,,,,ケーツーシー,0
1623,7040001139546,新規,0,2025-07-08,2025-07-08,株式会社サイファーリード,,株式会社,千葉県,千葉市稲毛区,園生町１１９０番地１－２０１号,,12,103,2630051,,,,,,,2025-07-08,1,,,,,サイファーリード,0
1626,7040003028004,新規,0,2025-07-08,2025-07-08,Ｍ．Ｉ．Ｇ合同会社,,合同会社,千葉県,野田市,山崎１４２６番地１,,12,208,2780022,,,,,,,2025-07-08,1,,,,,エムアイジー,0
1629,7050003009416,新規,0,2025-07-08,2025-07-08,ブリジェスト合同会社,,合同会社,茨城県,つくば市,流星台３４番地１２,,08,220,3050008,,,,,,,2025-07-08,1,,,,,ブリジェスト,0
1642,7090001019388,新規,0,2025-07-08,2025-07-08,株式会社チアードリーム,,株式会社,山梨県,韮崎市,龍岡町下條南割２１―２,,19,207,4070033,,,,,,,2025-07-08,1,,,,,チアードリーム,0
1657,7120001277619,新規,0,2025-07-08,2025-07-08,株式会社伊藤ビルメンテナンス,,株式会社,大阪府,大阪市西成区,玉出西２丁目３番２号２・３ビル４階,,27,122,5570045,,,,,,,2025-07-08,1,,,,,イトウビルメンテナンス,0
1658,7120001277684,新規,0,2025-07-08,2025-07-08,福道楽株式会社,,株式会社,大阪府,大阪市西区,北堀江１丁目１４－１９北堀江レジデンス７０５号室,,27,106,5500014,,,,,,,2025-07-08,1,,,,,フクドウラク,0
1660,7120003029943,新規,0,2025-07-08,2025-07-08,合同会社Ｓｍｉｌｅ,,合同会社,大阪府,枚方市,渚南町３９番１１号,,27,210,5731183,,,,,,,2025-07-08,1,,,,,スマイル,0
1662,7120101072044,新規,0,2025-07-08,2025-07-08,株式会社Ｇｒａｃｅ,,株式会社,大阪府,泉大津市,東豊中町１丁目４番８号大江ビル１階,,27,206,5950021,,,,,,,2025-07-08,1,,,,,グレース,0
1663,7120101072052,新規,0,2025-07-08,2025-07-08,株式会社Ｒｉｎｏ　Ｃｒｅｗ,,株式会社,大阪府,泉佐野市,泉ケ丘３丁目５番１９－９号,,27,213,5980072,,,,,,,2025-07-08,1,,,,,リノクル,0
1668,7122001039395,新規,0,2025-07-08,2025-07-08,株式会社敬寿,,株式会社,大阪府,東大阪市,若江本町２丁目８番１２－２０２号室,,27,227,5780942,,,,,,,2025-07-08,1,,,,,ケイジュ,0
1669,7122001039420,新規,0,2025-07-08,2025-07-08,株式会社貴楽設備,,株式会社,大阪府,八尾市,木の本２丁目１１９番地,,27,212,5810044,,,,,,,2025-07-08,1,,,,,キラクセツビ,0
1676,7130003010613,新規,0,2025-07-08,2025-07-08,百万遍企画合同会社,,合同会社,京都府,京都市左京区,田中関田町２番地４,,26,103,6068203,,,,,,,2025-07-08,1,,,,,ヒャクマンベンキカク,0
1685,7140003022269,新規,0,2025-07-08,2025-07-08,蒼波グローバル合同会社,,合同会社,兵庫県,川西市,松が丘町１１番５－３号,,28,217,6660037,,,,,,,2025-07-08,1,,,,,ソウハグローバル,0
1689,7170001018704,新規,0,2025-07-08,2025-07-08,Ｔ’ｓインスペクション・サービス株式会社,,株式会社,和歌山県,紀の川市,貴志川町丸栖１５６７番地４３,,30,208,6400401,,,,,,,2025-07-08,1,,,,,ティーズインスペクションサービス,0
1690,7170005007158,新規,0,2025-07-08,2025-07-08,一般社団法人シュワン,,その他の設立登記法人,和歌山県,東牟婁郡太地町,大字太地１４２６番地,,30,422,6495171,,,,,,,2025-07-08,1,,,,,シュワン,0
1703,7190001032372,新規,0,2025-07-08,2025-07-08,株式会社ＡＷＡ,,株式会社,三重県,松阪市,川井町７０６番地１,,24,204,5150818,,,,,,,2025-07-08,1,,,,,エーワ,0
1704,7190003005104,新規,0,2025-07-08,2025-07-08,セントラルロープアクセス合同会社,,合同会社,三重県,四日市市,桜町３６８４－１１,,24,202,5121211,,,,,,,2025-07-08,1,,,,,セントラルロープアクセス,0
1707,7220001026791,新規,0,2025-07-08,2025-07-08,株式会社ＤＤＤＧ,,株式会社,石川県,金沢市,高畠２丁目１２０番地２,,17,201,9218001,,,,,,,2025-07-08,1,,,,,ダグ,0
1710,7240001065210,新規,0,2025-07-08,2025-07-08,株式会社藤原工務店,,株式会社,広島県,広島市西区,己斐上５丁目３７番１４号,,34,104,7330815,,,,,,,2025-07-08,1,,,,,フジハラコウムテン,0
1717,7290001110580,新規,0,2025-07-08,2025-07-08,株式会社ＪＴホールディングス,,株式会社,福岡県,福岡市城南区,樋井川２丁目２６番４０号,,40,136,8140153,,,,,,,2025-07-08,1,,,,,ジェイティホールディングス,0
1718,7290001110622,新規,0,2025-07-08,2025-07-08,株式会社蒼天,,株式会社,福岡県,福岡市早良区,飯倉一丁目６番２７号,,40,137,8140000,,,,,,,2025-07-08,1,,,,,ソウテン,0
1719,7290001110639,新規,0,2025-07-08,2025-07-08,丸全物流株式会社,,株式会社,福岡県,福岡市城南区,長尾５丁目２番１３号,,40,136,8140123,,,,,,,2025-07-08,1,,,,,マルゼンブツリュウ,0
1720,7290001110647,新規,0,2025-07-08,2025-07-08,上村メンテナンス株式会社,,株式会社,福岡県,福岡市西区,石丸２丁目９番６－２号,,40,135,8190025,,,,,,,2025-07-08,1,,,,,ウエムラメンテナンス,0
1721,7290001110663,新規,0,2025-07-08,2025-07-08,日本未来メディカル株式会社,,株式会社,福岡県,福岡市南区,野間１丁目１０番２２号,,40,134,8150041,,,,,,,2025-07-08,1,,,,,ニホンミライメディカル,0
1722,7290003017080,新規,0,2025-07-08,2025-07-08,合同会社昭和印刷,,合同会社,福岡県,筑紫野市,岡田１丁目１１番地９,,40,217,8180013,,,,,,,2025-07-08,1,,,,,ショウワインサツ,0
1723,7290801031679,新規,0,2025-07-08,2025-07-08,遥星建設株式会社,,株式会社,福岡県,遠賀郡遠賀町,大字老良２３９番地の４,,40,384,8114311,,,,,,,2025-07-08,1,,,,,ハルセケンセツ,0
1724,7290801031687,新規,0,2025-07-08,2025-07-08,株式会社ＮＤＳ,,株式会社,福岡県,北九州市門司区,上馬寄１丁目６番１号,,40,101,8000042,,,,,,,2025-07-08,1,,,,,エヌディーエス,0
1728,7310001019687,新規,0,2025-07-08,2025-07-08,株式会社Ｄｏｇ　Ｓｔｏｒｙ,,株式会社,長崎県,北松浦郡佐々町,皆瀬免３３９番地１,,42,391,8570335,,,,,,,2025-07-08,1,,,,,ドッグストーリー,0
1731,7320001021196,新規,0,2025-07-08,2025-07-08,株式会社ＴＫ,,株式会社,大分県,別府市,亀川東町２３番４号,,44,202,8740022,,,,,,,2025-07-08,1,,,,,ティーケー,0
1734,7320003004711,新規,0,2025-07-08,2025-07-08,ガレージピットイン合同会社,,合同会社,大分県,杵築市,山香町大字立石２３３４番地１,,44,210,8791302,,,,,,,2025-07-08,1,,,,,ガレージピットイン,0
1736,7330003011087,新規,0,2025-07-08,2025-07-08,リーチ合同会社,,合同会社,熊本県,八代市,鏡町下村６０１－３,,43,202,8694215,,,,,,,2025-07-08,1,,,,,リーチ,0
1737,7340001027472,新規,0,2025-07-08,2025-07-08,大友貿易株式会社,,株式会社,鹿児島県,鹿屋市,輝北町市成４０４２番地,,46,203,8998511,,,,,,,2025-07-08,1,,,,,オオトモボウエキ,0
1738,7350001019626,新規,0,2025-07-08,2025-07-08,株式会社大石製茶園,,株式会社,宮崎県,都城市,都原町７６３８番地３,,45,202,8850094,,,,,,,2025-07-08,1,,,,,オオイシセイチャエン,0
1743,7360001035416,新規,0,2025-07-08,2025-07-08,株式会社ＳＥＶＥＮＲＩＣＨオキナワ,,株式会社,沖縄県,那覇市,久茂地２丁目２番２号タイムスビル２階,,47,201,9000015,,,,,,,2025-07-08,1,,,,,セブンリッチオキナワ,0
1750,7380001035414,新規,0,2025-07-08,2025-07-08,株式会社天栄ファーム,,株式会社,福島県,岩瀬郡天栄村,大字飯豊字大山１０番地２３４,,07,344,9620512,,,,,,,2025-07-08,1,,,,,テンエイファーム,0
1751,7380001035439,新規,0,2025-07-08,2025-07-08,Ｈｕｍａｎ　Ｓｏｌｕｔｉｏｎｓ株式会社,,株式会社,福島県,いわき市,山田町西山１１番地の６９,,07,204,9748241,,,,,,,2025-07-08,1,,,,,ヒューマンソリューションズ,0
1752,7380001035447,新規,0,2025-07-08,2025-07-08,株式会社ＲＹＵＤＥＮ,,株式会社,福島県,郡山市,横塚５丁目１５番１９号,,07,203,9638803,,,,,,,2025-07-08,1,,,,,リュウデン,0
1757,7430001094776,新規,0,2025-07-08,2025-07-08,株式会社ＸＹＺ,,株式会社,北海道,北広島市,広葉町１丁目１－４－２広葉町テラスＢ,,01,234,0611134,,,,,,,2025-07-08,1,,,,,エックスワイゼット,0
1758,7430001094792,新規,0,2025-07-08,2025-07-08,株式会社ＤＭホールディングス,,株式会社,北海道,美唄市,東五条南６丁目７番２８号,,01,215,0720016,,,,,,,2025-07-08,1,,,,,ディーエムホールディングス,0
1759,7430001094801,新規,0,2025-07-08,2025-07-08,株式会社北都総建,,株式会社,北海道,札幌市手稲区,新発寒四条６丁目５番３号,,01,109,0060804,,,,,,,2025-07-08,1,,,,,ホクトソウケン,0
1760,7430003017834,新規,0,2025-07-08,2025-07-08,合同会社創豊工業,,合同会社,北海道,札幌市東区,中沼町９３番６６,,01,103,0070890,,,,,,,2025-07-08,1,,,,,ソウホウコウギョウ,0
1761,7430003017842,新規,0,2025-07-08,2025-07-08,合同会社Ｒライフ,,合同会社,北海道,室蘭市,水元町１７番１－３０４号,,01,205,0500071,,,,,,,2025-07-08,1,,,,,アールライフ,0
1762,7430003017867,新規,0,2025-07-08,2025-07-08,合同会社Ｒｅｃｙｃｉａ,,合同会社,北海道,札幌市東区,北十条東１３丁目２番３－１０３号,,01,103,0650010,,,,,,,2025-07-08,1,,,,,リサイシア,0
1769,7430005015258,新規,0,2025-07-08,2025-07-08,特定非営利活動法人つながる遺品整理・みんなで支える子育て支援協会,,その他の設立登記法人,北海道,札幌市中央区,南九条西１７丁目１番１号,,01,101,0640809,,,,,,,2025-07-08,1,,,,,ツナガルイヒンセイリミンナデササエルコソダテシエンキョウカイ,0
1770,7450001014666,新規,0,2025-07-08,2025-07-08,株式会社チャンプ,,株式会社,北海道,旭川市,東光六条６丁目５番２８号,,01,204,0788346,,,,,,,2025-07-08,1,,,,,チャンプ,0
1774,7470005006633,新規,0,2025-07-08,2025-07-08,特定非営利活動法人ひとりはひとりのために,,その他の設立登記法人,香川県,丸亀市,三条町１３番地１６－３階,,37,202,7630094,,,,,,,2025-07-08,1,,,,,ヒトリハヒトリノタメニ,0
1778,7700150036725,新規,0,2025-07-08,2015-10-09,東和産直友の会,,その他,岩手県,花巻市,東和町安俵６区９４,,03,205,0280115,,,,,,,2015-10-09,1,,,,,トウワサンチヨクトモノカイ,0
1785,7700150131344,新規,0,2025-07-08,2025-07-08,ＢＬＵＥＢＩＲＤ　ＴＥＣＨＮＯＬＯＧＩＥＳ．ＩＮＣ．,,外国会社等,東京都,江戸川区,南葛西２丁目２３番８号エトワス南葛西２０８号室,,13,123,1340085,アメリカ合衆国テキサス州プレイノ市マクデルモット・ドライブ通２３００番地２９７号室,,,,,,2025-07-08,1,,,,,ブルーバードテクノロジーズインコーポレーテツド,0
1794,8010003047906,新規,0,2025-07-08,2025-07-08,嵐三合同会社,,合同会社,東京都,千代田区,岩本町３丁目７番１５号８Ｆ,,13,101,1010032,,,,,,,2025-07-08,1,,,,,ランサン,0
1800,8010401191405,新規,0,2025-07-08,2025-07-08,株式会社ＧＮキャピタル,,株式会社,東京都,港区,元麻布３丁目７番２３号,,13,103,1060046,,,,,,,2025-07-08,1,,,,,ジーエヌキャピタル,0
1801,8010401191454,新規,0,2025-07-08,2025-07-08,株式会社フェニックス・プロモーション,,株式会社,東京都,港区,白金台５丁目２２番１１号,,13,103,1080071,,,,,,,2025-07-08,1,,,,,フェニックスプロモーション,0
1802,8010401191462,新規,0,2025-07-08,2025-07-08,ファインドミー株式会社,,株式会社,東京都,港区,北青山１丁目３番１号アールキューブ青山３階,,13,103,1070061,,,,,,,2025-07-08,1,,,,,ファインドミー,0
1803,8010401191479,新規,0,2025-07-08,2025-07-08,株式会社アピエ,,株式会社,東京都,港区,芝５丁目１３番１１号ＭＡビル芝ＩＩＩＡＮＮＥＸ９階,00139852,13,103,1080014,,,,,,,2025-07-08,1,,,,,アピエ,0
1804,8010401191495,新規,0,2025-07-08,2025-07-08,株式会社フィッツグループ,,株式会社,東京都,港区,北青山３丁目６番１号,,13,103,1070061,,,,,,,2025-07-08,1,,,,,フィッツグループ,0
1805,8010401191537,新規,0,2025-07-08,2025-07-08,株式会社ラ・ロンコントル,,株式会社,東京都,港区,南麻布４丁目１２番２５号,,13,103,1060047,,,,,,,2025-07-08,1,,,,,ラロンコントル,0
1806,8010403035519,新規,0,2025-07-08,2025-07-08,ＷＹＮプランニング合同会社,,合同会社,東京都,港区,西新橋１丁目１７－４－２Ｆ,,13,103,1050003,,,,,,,2025-07-08,1,,,,,ウィンプランニング,0
1807,8010403035527,新規,0,2025-07-08,2025-07-08,ｉＫａｍａｋｕｒａ合同会社,,合同会社,東京都,港区,浜松町２丁目２番１５号浜松町ダイヤビル２Ｆ,,13,103,1050013,,,,,,,2025-07-08,1,,,,,アイカマクラ,0
1814,8010701047959,新規,0,2025-07-08,2025-07-08,株式会社Ｐｒｅｘｉａ,,株式会社,東京都,品川区,大井２丁目２７番２１号フィネス大井町２０１,,13,109,1400014,,,,,,,2025-07-08,1,,,,,プレクシア,0
1815,8010801036333,新規,0,2025-07-08,2025-07-08,株式会社ＣＯＮＥＴ　ＷＯＲＫ,,株式会社,東京都,大田区,本羽田３丁目２３番４６－１０３号,,13,111,1440044,,,,,,,2025-07-08,1,,,,,コネットワーク,0
1817,8010901057700,新規,0,2025-07-08,2025-07-08,株式会社ＡＺＩＴＯ,,株式会社,東京都,世田谷区,千歳台３丁目３番１３号ローズコート３０１,,13,112,1570071,,,,,,,2025-07-08,1,,,,,アジト,0
1822,8011001170682,新規,0,2025-07-08,2025-07-08,株式会社ＦＯＯＤ　ＣＯＭＰＡＮＹ,,株式会社,東京都,渋谷区,広尾１丁目１１番５号,,13,113,1500012,,,,,,,2025-07-08,1,,,,,フードカンパニー,0
1823,8011001170872,新規,0,2025-07-08,2025-07-08,Ｂｕｔｔｅｒｆｌｙ　Ｅｆｆｅｃｔ株式会社,,株式会社,東京都,渋谷区,神宮前６丁目１２－１８,,13,113,1500001,,,,,,,2025-07-08,1,,,,,バタフライエフェクト,0
1826,8011003021999,新規,0,2025-07-08,2025-07-08,合同会社原宿スタジオ,,合同会社,東京都,渋谷区,神宮前６丁目３４番６号ベルテ表参道４０３,,13,113,1500001,,,,,,,2025-07-08,1,,,,,ハラジュクスタジオ,0
1834,8011103016098,新規,0,2025-07-08,2025-07-08,Ｖｅｒｎａｌ　Ｐａｔｈ合同会社,,合同会社,東京都,新宿区,西新宿３丁目三番地１３号西新宿水間ビル２Ｆ,,13,104,1600023,,,,,,,2025-07-08,1,,,,,ヴァーナルパス,0
1835,8011103016115,新規,0,2025-07-08,2025-07-08,合同会社幸和,,合同会社,東京都,新宿区,東五軒町５番６号,,13,104,1620813,,,,,,,2025-07-08,1,,,,,コウワ,0
1846,8011403004752,新規,0,2025-07-08,2025-07-08,合同会社Ｗａｌｄ　ＦＰ　ｓｅｒｖｉｃｅ,,合同会社,東京都,板橋区,赤塚１丁目２０番３－２０６号,,13,119,1750092,,,,,,,2025-07-08,1,,,,,ヴァルトエフピーサービス,0
1847,8011501032291,新規,0,2025-07-08,2025-07-08,大東コンサル株式会社,,株式会社,東京都,荒川区,西尾久７丁目５２番１号,,13,118,1160011,,,,,,,2025-07-08,1,,,,,ダイトウコンサル,0
1859,8012401043305,新規,0,2025-07-08,2025-07-08,株式会社エムズエンジニア,,株式会社,東京都,多摩市,和田７２４番地の９,,13,224,2060001,,,,,,,2025-07-08,1,,,,,エムズエンジニア,0
1860,8012701018956,新規,0,2025-07-08,2025-07-08,株式会社ＣＳＡ,,株式会社,東京都,東村山市,恩多町５丁目５４番地３グリーンハイツ１０３,,13,213,1890011,,,,,,,2025-07-08,1,,,,,シーエスエー,0
1861,8012801024086,新規,0,2025-07-08,2025-07-08,株式会社グライン,,株式会社,東京都,立川市,富士見町１丁目３４番１号天野ビル６０１号,,13,202,1900013,,,,,,,2025-07-08,1,,,,,グライン,0
1862,8013101009736,新規,0,2025-07-08,2025-07-08,株式会社快聲堂,,株式会社,東京都,青梅市,河辺町３丁目１１３３番地の５,,13,205,1980036,,,,,,,2025-07-08,1,,,,,カイセイドウ,0
1870,8020001163778,新規,0,2025-07-08,2025-07-08,株式会社ＫＡＴＯ,,株式会社,神奈川県,川崎市中原区,苅宿２４番２９－４１３号,,14,133,2110022,,,,,,,2025-07-08,1,,,,,カトウ,0
1871,8020001163803,新規,0,2025-07-08,2025-07-08,株式会社ビーキャン,,株式会社,神奈川県,横浜市栄区,桂台西２丁目２１－１７,,14,115,2470035,,,,,,,2025-07-08,1,,,,,ビーキャン,0
1873,8020003028888,新規,0,2025-07-08,2025-07-08,京屋合同会社,,合同会社,神奈川県,横浜市青葉区,美しが丘４丁目４番地４０,,14,117,2250002,,,,,,,2025-07-08,1,,,,,キョウヤ,0
1883,8030001167472,新規,0,2025-07-08,2025-07-08,株式会社渡辺設計,,株式会社,埼玉県,本庄市,寿２丁目１４番１０号,,11,211,3670023,,,,,,,2025-07-08,1,,,,,,0
1884,8030001167530,新規,0,2025-07-08,2025-07-08,株式会社ＪＳＡＹ,,株式会社,埼玉県,川口市,大字里１２１２番地の２,,11,203,3340005,,,,,,,2025-07-08,1,,,,,ジェイエスエーワイ,0
1889,8030003027154,新規,0,2025-07-08,2025-07-08,合同会社Ｒｅ‐Ｍｏｖｅ,,合同会社,埼玉県,上尾市,浅間台１丁目２１‐７セントラルハイツ北上尾１階,,11,219,3620073,,,,,,,2025-07-08,1,,,,,リムーブ,0
1899,8040001139371,新規,0,2025-07-08,2025-07-08,株式会社Ｆｕｔｕｒ,,株式会社,千葉県,船橋市,薬円台５丁目２３番８－４０５号,,12,204,2740077,,,,,,,2025-07-08,1,,,,,フチュール,0
1900,8040001139487,新規,0,2025-07-08,2025-07-08,Ｅ・Ｎ・Ｓ株式会社,,株式会社,千葉県,船橋市,坪井東４丁目２番６２－３０３号,,12,204,2740060,,,,,,,2025-07-08,1,,,,,イーエヌエス,0
1901,8040001139561,新規,0,2025-07-08,2025-07-08,株式会社大浦建装,,株式会社,千葉県,千葉市花見川区,作新台１丁目１４番１号グレースハイツ１０１号,,12,102,2620045,,,,,,,2025-07-08,1,,,,,オオウラケンソウ,0
1904,8040003028003,新規,0,2025-07-08,2025-07-08,合同会社ユーエステート,,合同会社,千葉県,船橋市,北本町１丁目１９番１－３２２号,,12,204,2730864,,,,,,,2025-07-08,1,,,,,ユーエステート,0
1909,8050001056905,新規,0,2025-07-08,2025-07-08,株式会社ＳＬ　Ｃｏｒｐｏｒａｔｉｏｎ,,株式会社,茨城県,古河市,仁連２０７７番地１７,,08,204,3060125,,,,,,,2025-07-08,1,,,,,エスエルコーポレーション,0
1912,8060001038373,新規,0,2025-07-08,2025-07-08,株式会社小野興業,,株式会社,栃木県,那須塩原市,佐野２１３番地４,,09,213,3293142,,,,,,,2025-07-08,1,,,,,オノコウギョウ,0
1920,8080101025633,新規,0,2025-07-08,2025-07-08,株式会社宝珍茶寮,,株式会社,静岡県,富士宮市,北山５５４５番地の８,,22,207,4180112,,,,,,,2025-07-08,1,,,,,ホウチンサリョウ,0
1936,8120001277618,新規,0,2025-07-08,2025-07-08,華人永誠車行株式会社,,株式会社,大阪府,大阪市北区,天神橋２丁目１番１８－４０５号,,27,127,5300041,,,,,,,2025-07-08,1,,,,,カジンエイセイシャコウ,0
1937,8120001277659,新規,0,2025-07-08,2025-07-08,新月株式会社,,株式会社,大阪府,大阪市西成区,津守１丁目８－３８－１０２号,,27,122,5570062,,,,,,,2025-07-08,1,,,,,シンゲツ,0
1940,8120003029884,新規,0,2025-07-08,2025-07-08,合同会社Ｈｅａｖｅｎ,,合同会社,大阪府,大阪市淀川区,西中島３丁目１３番４号地下１階Ｂ－１号,,27,123,5320011,,,,,,,2025-07-08,1,,,,,ヘブン,0
1941,8120003029942,新規,0,2025-07-08,2025-07-08,ＬＩＮＫ　ＵＰ合同会社,,合同会社,大阪府,枚方市,御殿山町１１番３３－７１３号,,27,210,5731182,,,,,,,2025-07-08,1,,,,,リンクアップ,0
1945,8120101072010,新規,0,2025-07-08,2025-07-08,株式会社Ｄｕｏｌ,,株式会社,大阪府,藤井寺市,藤井寺１丁目１番１８号田中ビル１Ｆ,,27,226,5830024,,,,,,,2025-07-08,1,,,,,デュオル,0
1947,8120901051188,新規,0,2025-07-08,2025-07-08,株式会社シャングリラ,,株式会社,大阪府,箕面市,新稲２丁目６－２５,,27,220,5620005,,,,,,,2025-07-08,1,,,,,シャングリラ,0
1950,8122001039411,新規,0,2025-07-08,2025-07-08,ＬｅｍｏｎＵ　Ｂａｂｙ株式会社,,株式会社,大阪府,柏原市,大正１丁目６番１２号,,27,221,5820009,,,,,,,2025-07-08,1,,,,,レモンユーベイビー,0
1960,8130001080038,新規,0,2025-07-08,2025-07-08,株式会社栄眞,,株式会社,京都府,京都市山科区,大宅甲ノ辻町２６番地メゾン澤野井１０６,00139841,26,110,6078184,,,,,,,2025-07-08,1,,,,,エイシン,0
1970,8140001139147,新規,0,2025-07-08,2025-07-08,株式会社ちからのたね,,株式会社,兵庫県,宝塚市,安倉中４丁目６番４号,,28,214,6650822,,,,,,,2025-07-08,1,,,,,チカラノタネ,0
1972,8140003022276,新規,0,2025-07-08,2025-07-08,合同会社かげやま,,合同会社,兵庫県,尼崎市,西難波町１丁目２８番１号,,28,202,6600893,,,,,,,2025-07-08,1,,,,,カゲヤマ,0
1973,8140003022284,新規,0,2025-07-08,2025-07-08,合同会社ＬＥＯ,,合同会社,兵庫県,宝塚市,高司４丁目４２番地２,,28,214,6650051,,,,,,,2025-07-08,1,,,,,レオ,0
1975,8160001026871,新規,0,2025-07-08,2025-07-08,株式会社ＯＧＷ,,株式会社,滋賀県,草津市,片岡町２４８番地５,,25,206,5250011,,,,,,,2025-07-08,1,,,,,オージーダブル,0
1976,8160005011424,新規,0,2025-07-08,2025-07-08,一般社団法人ＢＯＮＤＳ　ＡＣＡＤＥＭＹ,,その他の設立登記法人,滋賀県,大津市,茶が崎４番１－１３２７号,,25,201,5200023,,,,,,,2025-07-08,1,,,,,ボンズアカデミー,0
1983,8180301039992,新規,0,2025-07-08,2025-07-08,ｓｔｅａｌｔｈ　ａｒｃｈｉ株式会社,,株式会社,愛知県,岡崎市,材木町１丁目２２アクロスビル４Ｆ,,23,202,4440057,,,,,,,2025-07-08,1,,,,,ステルスアーキ,0
1984,8180303006644,新規,0,2025-07-08,2025-07-08,ＡＸＩ合同会社,,合同会社,愛知県,知立市,西中町永崎６８番地１,,23,225,4720016,,,,,,,2025-07-08,1,,,,,アクシー,0
1986,8200001043961,新規,0,2025-07-08,2025-07-08,株式会社オリエンタルイベントクリエイターズ,,株式会社,岐阜県,安八郡神戸町,大字横井５４２番地の２,,21,381,5032301,,,,,,,2025-07-08,1,,,,,オリエンタルイベントクリエイターズ,0
1987,8200003006909,新規,0,2025-07-08,2025-07-08,ＣｒｅａｍＣｏｄｅ合同会社,,合同会社,岐阜県,大垣市,笠木町２３７番地２,,21,202,5030023,,,,,,,2025-07-08,1,,,,,クリームコード,0
1989,8220001026790,新規,0,2025-07-08,2025-07-08,オンクリ株式会社,,株式会社,石川県,加賀市,大聖寺山田町２６番地,,17,206,9220038,,,,,,,2025-07-08,1,,,,,オンクリ,0
1995,8240001065184,新規,0,2025-07-08,2025-07-08,株式会社グリーンバレー,,株式会社,広島県,世羅郡世羅町,大字西上原３４１番地,,34,462,7221121,,,,,,,2025-07-08,1,,,,,グリーンバレー,0
1996,8240001065201,新規,0,2025-07-08,2025-07-08,ルミナス株式会社,,株式会社,広島県,広島市西区,草津東１丁目１５番１８号,,34,104,7330861,,,,,,,2025-07-08,1,,,,,ルミナス,0
1999,8240003007291,新規,0,2025-07-08,2025-07-08,海藍天合同会社,,合同会社,広島県,広島市中区,流川町５番８号,,34,101,7300028,,,,,,,2025-07-08,1,,,,,カイランテン,0
2002,8260003005252,新規,0,2025-07-08,2025-07-08,合同会社Ｂｅｌｌ　Ｔｒｅｅ,,合同会社,岡山県,岡山市北区,上中野２丁目２０番３‐１０４号,,33,101,7000972,,,,,,,2025-07-08,1,,,,,ベルツリー,0
2009,8290001110621,新規,0,2025-07-08,2025-07-08,株式会社ベータビジョン,,株式会社,福岡県,福岡市博多区,東雲町３丁目４番２８号,,40,132,8120871,,,,,,,2025-07-08,1,,,,,ベータビジョン,0
2011,8290003017071,新規,0,2025-07-08,2025-07-08,ＳｔｏｎｅＲｉｖｅｒ合同会社,,合同会社,福岡県,福岡市博多区,三筑２丁目２２－１７,,40,132,8120887,,,,,,,2025-07-08,1,,,,,ストーンリバー,0
2014,8320001021195,新規,0,2025-07-08,2025-07-08,オンユアマーク株式会社,,株式会社,大分県,速見郡日出町,大字川崎１７１０番３,,44,341,8791505,,,,,,,2025-07-08,1,,,,,オンユアマーク,0
2016,8320003004710,新規,0,2025-07-08,2025-07-08,合同会社Ｍファームプラス,,合同会社,大分県,玖珠郡九重町,大字右田２９６５番地の５,,44,461,8794601,,,,,,,2025-07-08,1,,,,,エムファームプラス,0
2017,8330001033371,新規,0,2025-07-08,2025-07-08,株式会社アルジェント,,株式会社,熊本県,上益城郡嘉島町,大字上島１９０１番地３,,43,442,8613106,,,,,,,2025-07-08,1,,,,,アルジェント,0
2019,8340001027488,新規,0,2025-07-08,2025-07-08,株式会社美善,,株式会社,鹿児島県,鹿児島市,樋之口町６番３８号スペーシア天文館８０３号,00139838,46,201,8920845,,,,,,,2025-07-08,1,,,,,ビゼン,0
2021,8350003004971,新規,0,2025-07-08,2025-07-08,合同会社ＫＲＡＦＵＬ,,合同会社,宮崎県,宮崎市,佐土原町下那珂３９９２番地４８,,45,201,8800212,,,,,,,2025-07-08,1,,,,,クラフル,0
2022,8360003015076,新規,0,2025-07-08,2025-07-08,ｋ２　Ｌａｂ合同会社,,合同会社,沖縄県,那覇市,古波蔵３丁目３－３７ブランシエラ那覇古波蔵９０２号,,47,201,9000024,,,,,,,2025-07-08,1,,,,,ケーツーラボ,0
2026,8370001052797,新規,0,2025-07-08,2025-07-08,株式会社ＲＥＢＵＤＤＹ,,株式会社,宮城県,仙台市宮城野区,岩切字青津目５番地１グランクリュ１０２,,04,102,9830821,,,,,,,2025-07-08,1,,,,,リバディ,0
2030,8380001035438,新規,0,2025-07-08,2025-07-08,株式会社滝波興業,,株式会社,福島県,郡山市,大槻町字川廻１６番地の１５,,07,203,9630201,,,,,,,2025-07-08,1,,,,,タキナミコウギョウ,0
2032,8380003006081,新規,0,2025-07-08,2025-07-08,合同会社さとうメディカルサービス,,合同会社,福島県,郡山市,島１丁目１３番８号,,07,203,9638034,,,,,,,2025-07-08,1,,,,,サトウメディカルサービス,0
2038,8430001094791,新規,0,2025-07-08,2025-07-08,株式会社木暮設備,,株式会社,北海道,札幌市北区,篠路八条３丁目１番５号,,01,102,0028028,,,,,,,2025-07-08,1,,,,,キグレセツビ,0
2039,8430001094800,新規,0,2025-07-08,2025-07-08,株式会社Ｎｅｍｅｓｉｓ,,株式会社,北海道,札幌市東区,東苗穂十条３丁目１１番８号,,01,103,0070810,,,,,,,2025-07-08,1,,,,,ネメシス,0
2040,8430001094825,新規,0,2025-07-08,2025-07-08,株式会社ルミナ,,株式会社,北海道,札幌市中央区,南二条東２丁目３番地１創成グランドハイツ６１８号,,01,101,0600052,,,,,,,2025-07-08,1,,,,,ルミナ,0
2044,8450001014665,新規,0,2025-07-08,2025-07-08,株式会社ＫＳサポート,,株式会社,北海道,上川郡愛別町,字豊里８３３番地１,,01,456,0781651,,,,,,,2025-07-08,1,,,,,ケーエスサポート,0
2048,8460103001726,新規,0,2025-07-08,2025-07-08,合同会社才谷屋,,合同会社,北海道,帯広市,公園東町４丁目１番地１０,,01,207,0800847,,,,,,,2025-07-08,1,,,,,サイタニヤ,0
2055,8500001026399,新規,0,2025-07-08,2025-07-08,さくらフィナンシャルアセット株式会社,,株式会社,愛媛県,松山市,宮西１丁目１番４号,,38,201,7900065,,,,,,,2025-07-08,1,,,,,サクラフィナンシャルアセット,0
2060,8700150131343,新規,0,2025-07-08,2025-07-08,ＡＵＴＯ　ＪＵＮＣＴＩＯＮ　ＥＮＴＥＲＰＲＩＳＥＳ,,外国会社等,千葉県,成田市,下方６７９番地１１,,12,211,2860005,スリランカ民主社会主義共和国、ウクウェラ、マナンボダ、Ｎｏ．８７／２,,,,,,2025-07-08,1,,,,,オートジヤンクシヨンエンタープライズ,0
2064,9010001256524,新規,0,2025-07-08,2025-07-08,株式会社Ｌａｓｔ　Ｗａｌｔｚ,,株式会社,東京都,中央区,銀座１丁目１２番４号Ｎ＆Ｅ　ＢＬＤ．６階,,13,102,1040061,,,,,,,2025-07-08,1,,,,,ラストワルツ,0
2065,9010001256557,新規,0,2025-07-08,2025-07-08,株式会社プレミアムエヌ,,株式会社,東京都,中央区,銀座１丁目２２番１１号銀座大竹ビジデンス２Ｆ,,13,102,1040061,,,,,,,2025-07-08,1,,,,,プレミアムエヌ,0
2067,9010003047905,新規,0,2025-07-08,2025-07-08,ＭｕｇｅｎｄＡＩ合同会社,,合同会社,東京都,中央区,晴海２丁目３番３０―２４２０号,,13,102,1040053,,,,,,,2025-07-08,1,,,,,ムゲンダイ,0
2068,9010005040288,新規,0,2025-07-08,2025-07-08,一般社団法人インフィニティーグループ,,その他の設立登記法人,東京都,中央区,銀座６丁目６番５号ＨＵＬＩＣ＆Ｎｅｗ　ＧＩＮＺＡ　ＮＡＭＩＫＩ６、９階,,13,102,1040061,,,,,,,2025-07-08,1,,,,,インフィニティーグループ,0
2069,9010101016753,新規,0,2025-07-08,2025-07-08,株式会社ｈｏｕｓｓｅ,,株式会社,東京都,八王子市,南陽台２丁目２９番５号,,13,201,1920371,,,,,,,2025-07-08,1,,,,,ウス,0
2070,9010105002345,新規,0,2025-07-08,2025-07-08,一般社団法人Ｉｎｔｅｒｎａｔｉｏｎａｌ　Ａｓｓｏｃｉａｔｉｏｎ　ｆｏｒ　ＡＩ　Ｓｏｎｇｓ　ａｎｄ　Ｌａｎｇｕａｇｅ　Ｅｄｕｃａｔｉｏｎ,,その他の設立登記法人,東京都,八王子市,七国４丁目２１番６号,,13,201,1920919,,,,,,,2025-07-08,1,,,,,インターナショナルアソシエーションフォーエーアイソングスアンドランゲージエデュケーション,0
2073,9010401191445,新規,0,2025-07-08,2025-07-08,フォーチュンテック株式会社,,株式会社,東京都,港区,浜松町２丁目２番１５号浜松町ダイヤビル２階,,13,103,1050013,,,,,,,2025-07-08,1,,,,,フォーチュンテック,0
2074,9010401191478,新規,0,2025-07-08,2025-07-08,ひゃーく株式会社,,株式会社,東京都,港区,赤坂９丁目６－２３赤坂葵ビル３０２号,,13,103,1070052,,,,,,,2025-07-08,1,,,,,ヒャーク,0
2075,9010401191528,新規,0,2025-07-08,2025-07-08,和光株式会社,,株式会社,東京都,港区,港南２丁目１６番１号品川イーストワンタワー４階,,13,103,1080075,,,,,,,2025-07-08,1,,,,,ワコウ,0
2076,9010401191536,新規,0,2025-07-08,2025-07-08,株式会社ポニーホームズ,,株式会社,東京都,港区,新橋６丁目１９番１号,,13,103,1050004,,,,,,,2025-07-08,1,,,,,ポニーホームズ,0
2077,9010403035526,新規,0,2025-07-08,2025-07-08,ＰＯＷＥＲ　ＰＯＯＬ７号合同会社,,合同会社,東京都,港区,六本木３丁目２番１号,,13,103,1060032,,,,,,,2025-07-08,1,,,,,パワープールナナゴウ,0
2080,9010503007904,新規,0,2025-07-08,2025-07-08,ポセイドンジャパン合同会社,,合同会社,東京都,台東区,柳橋１丁目１６－３－４Ｆ,,13,106,1110052,,,,,,,2025-07-08,1,,,,,ポセイドンジャパン,0
2085,9010801036349,新規,0,2025-07-08,2025-07-08,株式会社Ｔｉｔａｎｉｕｍ,,株式会社,東京都,大田区,西蒲田７丁目８番１号,,13,111,1440051,,,,,,,2025-07-08,1,,,,,タイタン,0
2086,9010801036365,新規,0,2025-07-08,2025-07-08,株式会社テイクオフアーティスト,,株式会社,東京都,大田区,東雪谷４丁目４番４号,,13,111,1450065,,,,,,,2025-07-08,1,,,,,テイクオフアーティスト,0
2094,9011001170896,新規,0,2025-07-08,2025-07-08,株式会社ＢＵＹ　ＯＵＴ,,株式会社,東京都,渋谷区,渋谷１丁目１４番１１号小林ビルＢ１階,,13,113,1500002,,,,,,,2025-07-08,1,,,,,バイアウト,0
2096,9011103016106,新規,0,2025-07-08,2025-07-08,合同会社ゆずきや,,合同会社,東京都,新宿区,西早稲田２丁目９番１号,,13,104,1690051,,,,,,,2025-07-08,1,,,,,ユズキヤ,0
2098,9011201026493,新規,0,2025-07-08,2025-07-08,株式会社オキラク,,株式会社,東京都,中野区,野方５丁目３０番３号‐１階,,13,114,1650027,,,,,,,2025-07-08,1,,,,,オキラク,0
2105,9011801046404,新規,0,2025-07-08,2025-07-08,株式会社山和建装,,株式会社,東京都,葛飾区,奥戸２丁目３４番２４号コーポ稲取１０２号,,13,122,1240022,,,,,,,2025-07-08,1,,,,,ヤマトケンソウ,0
2106,9011801046420,新規,0,2025-07-08,2025-07-08,ピーアンドピー環境株式会社,,株式会社,東京都,足立区,六月３丁目６番１２号９６ＢＬＤ２Ｆ,,13,121,1210814,,,,,,,2025-07-08,1,,,,,ピーアンドピーカンキョウ,0
2109,9012301014446,新規,0,2025-07-08,2025-07-08,株式会社柳田商店,,株式会社,東京都,町田市,真光寺２丁目２３番地５,,13,209,1950057,,,,,,,2025-07-08,1,,,,,ヤナギダショウテン,0
2110,9012401043320,新規,0,2025-07-08,2025-07-08,恒瑞株式会社,,株式会社,東京都,武蔵野市,桜堤２丁目１４番２２－７号,,13,203,1800021,,,,,,,2025-07-08,1,,,,,ヒサミズ,0
2111,9012803003789,新規,0,2025-07-08,2025-07-08,合同会社コメルデザイン,,合同会社,東京都,昭島市,中神町２丁目３６番１６号,,13,207,1960022,,,,,,,2025-07-08,1,,,,,コメルデザイン,0
2120,9020001163554,新規,0,2025-07-08,2025-07-08,株式会社ＰａｉｎＣｏｎｓｕｌｔｉｎｇ,,株式会社,神奈川県,川崎市麻生区,上麻生７丁目２３―１―５０７,,14,137,2150021,,,,,,,2025-07-08,1,,,,,ペインコンサルティング,0
2121,9020001163752,新規,0,2025-07-08,2025-07-08,プライムアセットパートナーズ株式会社,,株式会社,神奈川県,横浜市鶴見区,豊岡町３８番１５－１号,,14,101,2300062,,,,,,,2025-07-08,1,,,,,プライムアセットパートナーズ,0
2122,9020001163777,新規,0,2025-07-08,2025-07-08,株式会社Ｖｉｒｅｌａ,,株式会社,神奈川県,横浜市西区,北幸１丁目１１番１号水信ビル７階,,14,103,2200004,,,,,,,2025-07-08,1,,,,,ヴィレラ,0
2123,9020001163793,新規,0,2025-07-08,2025-07-08,株式会社Ｒｅ．ｆｏｍｚ横浜,,株式会社,神奈川県,横浜市青葉区,みたけ台３１－１０,,14,117,2270047,,,,,,,2025-07-08,1,,,,,リフォムズヨコハマ,0
2127,9020003028887,新規,0,2025-07-08,2025-07-08,合同会社山下商会,,合同会社,神奈川県,横浜市栄区,笠間５丁目１５番４０号,,14,115,2470006,,,,,,,2025-07-08,1,,,,,ヤマシタショウカイ,0
2141,9030003027145,新規,0,2025-07-08,2025-07-08,合同会社野宮商事,,合同会社,埼玉県,川越市,宮元町５１番地２３,,11,201,3500838,,,,,,,2025-07-08,1,,,,,ノミヤショウジ,0
2142,9030003027161,新規,0,2025-07-08,2025-07-08,ｘＦａｂｒｉｃ合同会社,,合同会社,埼玉県,川口市,大字里４０６－１,,11,203,3340005,,,,,,,2025-07-08,1,,,,,クロスファブリック,0
2147,9040001139494,新規,0,2025-07-08,2025-07-08,安房水産株式会社,,株式会社,千葉県,館山市,北条１２４８番地１－２Ｆ,,12,205,2940045,,,,,,,2025-07-08,1,,,,,アワスイサン,0
2154,9050001056929,新規,0,2025-07-08,2025-07-08,株式会社オフィス市野,,株式会社,茨城県,水戸市,末広町３丁目４番２０号,,08,201,3100053,,,,,,,2025-07-08,1,,,,,オフィスイチノ,0
2156,9060001038356,新規,0,2025-07-08,2025-07-08,ＳＢＹ株式会社,,株式会社,栃木県,宇都宮市,平松本町３６１番地６,,09,201,3210932,,,,,,,2025-07-08,1,,,,,エスビーワイ,0
2157,9060003005635,新規,0,2025-07-08,2025-07-08,ワン合同会社,,合同会社,栃木県,宇都宮市,茂原町１０８５番地２９,,09,201,3210126,,,,,,,2025-07-08,1,,,,,ワン,0
2159,9080101025640,新規,0,2025-07-08,2025-07-08,株式会社ＴＲＥＥ　ＲＯＯＴＳ,,株式会社,静岡県,沼津市,平町２５番１３号,,22,203,4100036,,,,,,,2025-07-08,1,,,,,ツリールーツ,0
2163,9110003005803,新規,0,2025-07-08,2025-07-08,合同会社アフェクタス,,合同会社,新潟県,燕市,井土巻２丁目１８８番地５,,15,213,9591232,,,,,,,2025-07-08,1,,,,,アフェクタス,0
2171,9120001277600,新規,0,2025-07-08,2025-07-08,信泰キャピタル株式会社,,株式会社,大阪府,大阪市生野区,生野西２丁目５番１４号田中ビル３Ｆ、ＮＯ．１８,,27,116,5440024,,,,,,,2025-07-08,1,,,,,シンタイキャピタル,0
2172,9120001277609,新規,0,2025-07-08,2025-07-08,近畿内装株式会社,,株式会社,大阪府,大阪市北区,梅田１丁目１－３大阪駅前第３ビル２９階１－１－１号室,,27,127,5300001,,,,,,,2025-07-08,1,,,,,キンキナイソウ,0
2173,9120001277625,新規,0,2025-07-08,2025-07-08,株式会社Ｄ‐Ｆｌｕｆｆ,,株式会社,大阪府,大阪市西区,京町堀１丁目８番２５号,,27,106,5500003,,,,,,,2025-07-08,1,,,,,ディフラフ,0
2181,9120101072018,新規,0,2025-07-08,2025-07-08,株式会社菱機,,株式会社,大阪府,堺市西区,菱木２丁２１２７番地２５,,27,144,5938315,,,,,,,2025-07-08,1,,,,,ヒシキ,0
2182,9120101072042,新規,0,2025-07-08,2025-07-08,株式会社むつみ,,株式会社,大阪府,岸和田市,宮前町２２番５号,,27,202,5960043,,,,,,,2025-07-08,1,,,,,ムツミ,0
2187,9120901051179,新規,0,2025-07-08,2025-07-08,レモン不動産株式会社,,株式会社,大阪府,吹田市,江坂町２丁目６番１０号江坂ＤＡプラザ４０５号室,,27,205,5640063,,,,,,,2025-07-08,1,,,,,レモンフドウサン,0
2192,9122001039410,新規,0,2025-07-08,2025-07-08,株式会社ＦＯＲＷＡＲＤ,,株式会社,大阪府,八尾市,東本町３丁目５番７号,,27,212,5810004,,,,,,,2025-07-08,1,,,,,フォワード,0
2198,9130001080045,新規,0,2025-07-08,2025-07-08,株式会社小南ホールディングス,,株式会社,京都府,京都市伏見区,羽束師鴨川町３５２番地の２７,,26,109,6128484,,,,,,,2025-07-08,1,,,,,コミナミホールディングス,0
2199,9130001080078,新規,0,2025-07-08,2025-07-08,株式会社ＴＯＮＥ,,株式会社,京都府,京都市左京区,一乗寺払殿町１２番地２０ＡＩＲ１０１,,26,103,6068184,,,,,,,2025-07-08,1,,,,,トーン,0
2211,9140001139146,新規,0,2025-07-08,2025-07-08,株式会社川上タイヤ,,株式会社,兵庫県,たつの市,神岡町横内２６０番地５,,28,229,6794106,,,,,,,2025-07-08,1,,,,,カワカミタイヤ,0
2212,9140001139162,新規,0,2025-07-08,2025-07-08,株式会社アンセー,,株式会社,兵庫県,尼崎市,西長洲町２丁目３６－８,,28,202,6600805,,,,,,,2025-07-08,1,,,,,アンセー,0
2213,9140001139229,新規,0,2025-07-08,2025-07-08,株式会社Ｂｅ　Ｂｒａｖｅ　Ｃｏｍｐａｎｙ,,株式会社,兵庫県,神戸市中央区,磯辺通１丁目１番１８号カサベラ国際プラザビル７０７号室,,28,110,6510084,,,,,,,2025-07-08,1,,,,,ビーブレイブカンパニー,0
2217,9140003022283,新規,0,2025-07-08,2025-07-08,合同会社なないろ,,合同会社,兵庫県,神戸市西区,井吹台東町１丁目５番地１１号,,28,111,6512242,,,,,,,2025-07-08,1,,,,,ナナイロ,0
2219,9160001026870,新規,0,2025-07-08,2025-07-08,株式会社ＫＭＴｇａｒａｇｅ,,株式会社,滋賀県,東近江市,平田町９３番地３,,25,213,5270087,,,,,,,2025-07-08,1,,,,,ケーエムティーガレッジ,0
2221,9170001018702,新規,0,2025-07-08,2025-07-08,志高株式会社,,株式会社,和歌山県,西牟婁郡上富田町,生馬３５３番地の７,,30,404,6492103,,,,,,,2025-07-08,1,,,,,シコウ,0
2231,9180301039975,新規,0,2025-07-08,2025-07-08,株式会社あいちライス,,株式会社,愛知県,豊橋市,牟呂大西町２１番地の６,,23,201,4418089,,,,,,,2025-07-08,1,,,,,アイチライス,0
2232,9180301039983,新規,0,2025-07-08,2025-07-08,株式会社Ｍ２Ａ,,株式会社,愛知県,豊橋市,三ノ輪町２丁目１０７番地,,23,201,4400838,,,,,,,2025-07-08,1,,,,,エムツーエー,0
2233,9180301039991,新規,0,2025-07-08,2025-07-08,株式会社巴工業,,株式会社,愛知県,豊橋市,北岩田２丁目７番地３,,23,201,4400031,,,,,,,2025-07-08,1,,,,,トモエコウギョウ,0
2234,9190003005102,新規,0,2025-07-08,2025-07-08,合同会社凪,,合同会社,三重県,津市,片田新町９５番地１,,24,201,5140083,,,,,,,2025-07-08,1,,,,,ナギ,0
2235,9200001043985,新規,0,2025-07-08,2025-07-08,株式会社ＪＹＯ,,株式会社,岐阜県,羽島郡笠松町,美笠通１丁目１８番地,,21,303,5016088,,,,,,,2025-07-08,1,,,,,ジョー,0
2239,9240001065191,新規,0,2025-07-08,2025-07-08,株式会社セーフリンクス,,株式会社,広島県,広島市中区,橋本町７番１４号,,34,101,7300015,,,,,,,2025-07-08,1,,,,,セーフリンクス,0
2241,9250003003768,新規,0,2025-07-08,2025-07-08,合同会社ＣＲＲ,,合同会社,山口県,下関市,山の口町４番１２号,,35,201,7510824,,,,,,,2025-07-08,1,,,,,シーアールアール,0
2253,9290001110620,新規,0,2025-07-08,2025-07-08,株式会社アルファービジョン,,株式会社,福岡県,福岡市南区,井尻３丁目１５番１２号,,40,134,8111302,,,,,,,2025-07-08,1,,,,,アルファービジョン,0
2254,9290001110637,新規,0,2025-07-08,2025-07-08,ＳＰ　ＪＡＰＡＮ株式会社,,株式会社,福岡県,福岡市博多区,博多駅中央街１－１Ｂ１アミュプラザ博多Ｑ,,40,132,8120012,,,,,,,2025-07-08,1,,,,,エスピージャパン,0
2257,9290801031693,新規,0,2025-07-08,2025-07-08,株式会社蓮喜,,株式会社,福岡県,北九州市八幡西区,鷹の巣１丁目１９番３－７０２号,,40,109,8060047,,,,,,,2025-07-08,1,,,,,レンキ,0
2261,9320001021203,新規,0,2025-07-08,2025-07-08,ヒロテック株式会社,,株式会社,大分県,大分市,勢家町２丁目１番１２号,,44,201,8700031,,,,,,,2025-07-08,1,,,,,ヒロテック,0
2265,9330003011102,新規,0,2025-07-08,2025-07-08,合同会社ｉｓｏｒｒｏｐｉａ,,合同会社,熊本県,熊本市東区,長嶺南１丁目２－１５ヘンリーハイツＧ,,43,102,8618039,,,,,,,2025-07-08,1,,,,,イソロピア,0
2268,9340001027487,新規,0,2025-07-08,2025-07-08,株式会社Ｂｅｌ’ｓ　Ｗｏｒｋｓ,,株式会社,鹿児島県,霧島市,隼人町真孝１９１０番地４８,,46,218,8995102,,,,,,,2025-07-08,1,,,,,ベルズワークス,0
2270,9350001019640,新規,0,2025-07-08,2025-07-08,株式会社ＭＫパートナーズ,,株式会社,宮崎県,都城市,蓑原町１８７７―１０,,45,202,8850095,,,,,,,2025-07-08,1,,,,,エムケイパートナーズ,0
2271,9360003015067,新規,0,2025-07-08,2025-07-08,合同会社Ｓ・Ｓ商事,,合同会社,沖縄県,浦添市,内間１丁目５番３－１０２号,,47,208,9012121,,,,,,,2025-07-08,1,,,,,エスエスショウジ,0
2275,9370001052796,新規,0,2025-07-08,2025-07-08,ふじの不動産株式会社,,株式会社,宮城県,多賀城市,高橋４丁目１９番３号メリディアン高橋１０５,,04,209,9850853,,,,,,,2025-07-08,1,,,,,フジノフドウサン,0
2276,9370003007179,新規,0,2025-07-08,2025-07-08,合同会社高橋産業医事務所,00139853,合同会社,宮城県,仙台市青葉区,本町１丁目５番２８号カーニープレイス仙台駅前通６０３号室,,04,101,9800014,,,,,,,2025-07-08,1,,,,,タカハシサンギョウイジムショ,0
2281,9380001035420,新規,0,2025-07-08,2025-07-08,株式会社リベラル,,株式会社,福島県,郡山市,鳴神３丁目２００番地１０１,,07,203,9630207,,,,,,,2025-07-08,1,,,,,リベラル,0
2283,9380003006080,新規,0,2025-07-08,2025-07-08,合同会社ＦＲＥＥＤＡＭ,,合同会社,福島県,福島市,笹谷字出水上２０番地の５プロシード笹谷Ｅ２０２号室,,07,201,9600241,,,,,,,2025-07-08,1,,,,,フリーダム,0
2297,9450001014664,新規,0,2025-07-08,2025-07-08,株式会社ＳＫ産業,,株式会社,北海道,旭川市,末広一条１丁目２番５号,,01,204,0718131,,,,,,,2025-07-08,1,,,,,エスケイサンギョウ,0
2302,9470003002921,新規,0,2025-07-08,2025-07-08,みなみ合同会社,,合同会社,香川県,三豊市,山本町大野３８８－１,,37,208,7680102,,,,,,,2025-07-08,1,,,,,,0
2307,9700150035295,新規,0,2025-07-08,2015-10-09,別海町農業農村振興事務組合,,その他,北海道,野付郡別海町,別海常盤町２８０番地,,01,691,0860205,,,,,,,2015-10-09,1,,,,,ベツカイチヨウノウギヨウノウソンシンコウジムクミアイ,0
2309,9700150131342,新規,0,2025-07-08,2025-07-08,Ｍ．Ｍ．Ｒ．Ｓ．ＣＯＲＰＯＲＡＴＩＯＮ,,外国会社等,千葉県,八街市,沖６０番地２０オフィス１８号,,12,230,2891126,スリランカ民主社会主義共和国、アクラナ、マタレロード、Ｎｏ．６７／Ｃ,,,,,,2025-07-08,1,,,,,エムエムアールエスコーポレーシヨン,0
