sequenceNumber,corporateNumber,process,correct,updateDate,changeDate,name,nameImageId,kind,prefectureName,cityName,streetNumber,addressImageId,prefectureCode,cityCode,postCode,addressOutside,addressOutsideImageId,closeDate,closeCause,successorCorporateNumber,changeCause,assignmentDate,latest,enName,enPrefectureName,enCityName,enAddressOutside,furigana,hihyoji
4,1010001225494,新規,0,2022-03-28,2022-03-28,碩豊貿易株式会社,,株式会社,東京都,中央区,勝どき２丁目１８番１号１０１７号室,,13,102,1040054,,,,,,,2022-03-28,1,,,,,セキホウボウエキ,0
9,1010003037343,新規,0,2022-03-28,2022-03-28,合同会社ＡＬＥＲＯ６６,,合同会社,東京都,千代田区,神田美土代町９番１号,,13,101,1010053,,,,,,,2022-03-28,1,,,,,アレーロシックスティーシックス,0
19,1010401166371,新規,0,2022-03-28,2022-03-28,ＤＩＧＩＡＬ株式会社,,株式会社,東京都,港区,赤坂９丁目６番１５号ＡＲＴＲＩＰ２Ｆ,,13,103,1070052,,,,,,,2022-03-28,1,,,,,デジアル,0
21,1010403027332,新規,0,2022-03-28,2022-03-28,合同会社薬事事務所,,合同会社,東京都,港区,海岸３丁目９番４０－１６０６号,,13,103,1080022,,,,,,,2022-03-28,1,,,,,ヤクジジムショ,0
22,1010403027349,新規,0,2022-03-28,2022-03-28,カチアゲ合同会社,,合同会社,東京都,港区,三田３丁目４－１８,,13,103,1080073,,,,,,,2022-03-28,1,,,,,カチアゲ,0
23,1010405020863,新規,0,2022-03-28,2022-03-28,勝どきキャピタル一般社団法人,,その他の設立登記法人,東京都,港区,六本木１丁目６番１号泉ガーデンタワー,,13,103,1060032,,,,,,,2022-03-28,1,,,,,カチドキキャピタル,0
43,1011001146508,新規,0,2022-03-28,2022-03-28,株式会社Ａｗａｋｅ,,株式会社,東京都,渋谷区,代々木１丁目２２番１号１０階,,13,113,1510053,,,,,,,2022-03-28,1,,,,,アウェイク,0
44,1011001146540,新規,0,2022-03-28,2022-03-28,Ｗｏｒｌｄ　Ａｄｍｉｎ　Ｃｏｎｓｕｌｔｉｎｇ株式会社,,株式会社,東京都,目黒区,目黒１丁目４番１６号目黒Ｇビル７Ｆ,,13,110,1530063,,,,,,,2022-03-28,1,,,,,ワールドアドミンコンサルティング,0
47,1011003014398,新規,0,2022-03-28,2022-03-28,Ａｖａｌｏｎ合同会社,,合同会社,東京都,渋谷区,神宮前６丁目２３番４号桑野ビル２階,,13,113,1500001,,,,,,,2022-03-28,1,,,,,アヴァロン,0
48,1011003014407,新規,0,2022-03-28,2022-03-28,ＭＬ９合同会社,,合同会社,東京都,渋谷区,南平台町４番１３号２階,,13,113,1500036,,,,,,,2022-03-28,1,,,,,エムエルナイン,0
52,1011101098302,新規,0,2022-03-28,2022-03-28,株式会社ブリッジ,,株式会社,東京都,新宿区,西新宿６丁目１０番１号日土地西新宿ビル８階,,13,104,1600023,,,,,,,2022-03-28,1,,,,,ブリッジ,0
54,1011103011601,新規,0,2022-03-28,2022-03-28,合同会社ＫＭＫ,,合同会社,東京都,新宿区,西新宿４丁目２９番４－４１５号西新宿ハウス,,13,104,1600023,,,,,,,2022-03-28,1,,,,,ケーエムケー,0
55,1011105010205,新規,0,2022-03-28,2022-03-28,ＫＩホールディングス一般社団法人,,その他の設立登記法人,東京都,新宿区,四谷２丁目９番地１５東京ユナイテッド綜合事務所内,,13,104,1600004,,,,,,,2022-03-28,1,,,,,ケイアイホールディングス,0
66,1011801040496,新規,0,2022-03-28,2022-03-28,株式会社Ｌａ　Ｔｉａｒａ,,株式会社,東京都,足立区,千住旭町４１番１４号第一ビル２Ｆ,,13,121,1200026,,,,,,,2022-03-28,1,,,,,ラティアラ,0
72,1012701016999,新規,0,2022-03-28,2022-03-28,株式会社ＩＮｔｙ,,株式会社,東京都,小平市,津田町３丁目２９番６号,,13,211,1870025,,,,,,,2022-03-28,1,,,,,インティ,0
73,1012703002428,新規,0,2022-03-28,2022-03-28,合同会社Ｂｅｌｉｎｋｅｄ,,合同会社,東京都,西東京市,向台町６丁目１番７号,,13,229,1880013,,,,,,,2022-03-28,1,,,,,ビーリンクト,0
78,1020001145824,新規,0,2022-03-28,2022-03-28,ＴＫ株式会社,,株式会社,神奈川県,横浜市中区,松影町１丁目３番地１,,14,104,2310025,,,,,,,2022-03-28,1,,,,,ティーケー,0
83,1021001075508,新規,0,2022-03-28,2022-03-28,ＺＥＮ　ｃｒａｆｔｓ株式会社,,株式会社,神奈川県,座間市,相武台２丁目２８－３,,14,216,2520011,,,,,,,2022-03-28,1,,,,,ゼンクラフツ,0
88,1021005012465,新規,0,2022-03-28,2022-03-28,医療法人酒井医院,,その他の設立登記法人,神奈川県,厚木市,中町１丁目８番６号,,14,212,2430018,,,,,,,2022-03-28,1,,,,,サカイイイン,0
91,1030001147448,新規,0,2022-03-28,2022-03-28,株式会社智通信,,株式会社,埼玉県,所沢市,松葉町２６番１４－１０８号,,11,208,3590044,,,,,,,2022-03-28,1,,,,,トモツウシン,0
100,1030003019083,新規,0,2022-03-28,2022-03-28,所澤創生合同会社,,合同会社,埼玉県,所沢市,宮本町１丁目２－４,,11,208,3591143,,,,,,,2022-03-28,1,,,,,トコロサワソウセイ,0
110,1050003006451,新規,0,2022-03-28,2022-03-28,ＡＨＭＥＤ　ＭＡＬＩＫ　ＴＲＡＤＩＮＧ合同会社,,合同会社,茨城県,坂東市,神田山１６７２番地１,,08,228,3060617,,,,,,,2022-03-28,1,,,,,アマードマリクトレーディング,0
117,1080103002554,新規,0,2022-03-28,2022-03-28,合同会社ＫＹＯＵＪＹＯ,,合同会社,静岡県,沼津市,大岡３５０５番地の６３,,22,203,4100022,,,,,,,2022-03-28,1,,,,,キョウジョ,0
123,1100001035190,新規,0,2022-03-28,2022-03-28,ＳＵＮ　ＬＡＲＶＡ株式会社,,株式会社,長野県,松本市,大字惣社１９番地８,,20,202,3900305,,,,,,,2022-03-28,1,,,,,サンレイバ,0
143,1120001244632,新規,0,2022-03-28,2022-03-28,株式会社ｈｅａｖｙ　ｃｒｅａｍ　ｓｔｕｄｉｏ,,株式会社,大阪府,大阪市北区,本庄東３丁目７－２,,27,127,5310074,,,,,,,2022-03-28,1,,,,,ヘビークリームスタジオ,0
144,1120001244640,新規,0,2022-03-28,2022-03-28,江婉株式会社,,株式会社,大阪府,大阪市浪速区,元町２丁目９番１－７０４号,,27,111,5560016,,,,,,,2022-03-28,1,,,,,コウエン,0
145,1120001244657,新規,0,2022-03-28,2022-03-28,株式会社ＺＥＲＯＧＥＮ,,株式会社,大阪府,大阪市西区,西本町１丁目１３番３８号西本町新興産ビル７階３Ａ号室,,27,106,5500005,,,,,,,2022-03-28,1,,,,,ゼロゲン,0
146,1120001244673,新規,0,2022-03-28,2022-03-28,謙順株式会社,,株式会社,大阪府,大阪市中央区,松屋町９番２０号ローレルステート松屋町８０８Ｂ,,27,128,5420067,,,,,,,2022-03-28,1,,,,,ケンジュン,0
147,1120001244698,新規,0,2022-03-28,2022-03-28,株式会社水谷工作所,,株式会社,大阪府,交野市,天野が原町１丁目２４番５号,,27,230,5760034,,,,,,,2022-03-28,1,,,,,ミズタニコウサクショ,0
148,1120001244715,新規,0,2022-03-28,2022-03-28,Ｒｅｎｄｅｒ　Ｇａｄｇｅｔ株式会社,,株式会社,大阪府,大阪市福島区,大開２丁目５番２８－７０３号,,27,103,5530007,,,,,,,2022-03-28,1,,,,,レンダーガジェット,0
151,1120903004084,新規,0,2022-03-28,2022-03-28,合同会社ａｓ,,合同会社,大阪府,箕面市,森町中３丁目２６番２８号,,27,220,5630257,,,,,,,2022-03-28,1,,,,,アズ,0
153,1122001035706,新規,0,2022-03-28,2022-03-28,株式会社共栄ＴＥＣ,,株式会社,大阪府,八尾市,八尾木北６丁目３４番地,,27,212,5810016,,,,,,,2022-03-28,1,,,,,キョウエイテック,0
158,1130001071415,新規,0,2022-03-28,2022-03-28,株式会社洛楽企画,,株式会社,京都府,京都市中京区,西ノ京新建町８番地パデシオン西大路御池駅前３０４号,,26,104,6048434,,,,,,,2022-03-28,1,,,,,ラクラクキカク,0
166,1140001125376,新規,0,2022-03-28,2022-03-28,ナカタ硝建株式会社,,株式会社,兵庫県,姫路市,北原６８２番地７,,28,201,6728002,,,,,,,2022-03-28,1,,,,,ナカタショウケン,0
168,1140003017497,新規,0,2022-03-28,2022-03-28,風土帰あわじ合同会社,,合同会社,兵庫県,洲本市,五色町鮎原三野畑５７７番地４,,28,205,6561324,,,,,,,2022-03-28,1,,,,,フウドキアワジ,0
173,1160001024072,新規,0,2022-03-28,2022-03-28,株式会社セレーノライフ,,株式会社,滋賀県,大津市,千町１丁目２２番１３号,,25,201,5200863,,,,,,,2022-03-28,1,,,,,セレーノライフ,0
184,1180301036047,新規,0,2022-03-28,2022-03-28,株式会社わっぱ堂,,株式会社,愛知県,碧南市,音羽町１丁目５３番地,,23,209,4470847,,,,,,,2022-03-28,1,,,,,ワッパドウ,0
188,1190001029250,新規,0,2022-03-28,2022-03-28,株式会社ｍｓｍテック,,株式会社,三重県,四日市市,水沢町４８７１番地１,,24,202,5121105,,,,,,,2022-03-28,1,,,,,エムシムテック,0
192,1200003005512,新規,0,2022-03-28,2022-03-28,Ｗ．Ｗ．Ｄ合同会社,,合同会社,岐阜県,岐阜市,清７６０番地３,,21,201,5008346,,,,,,,2022-03-28,1,,,,,ダブリューダブリューディー,0
198,1240001059498,新規,0,2022-03-28,2022-03-28,株式会社Ｎｉｋｏ,,株式会社,広島県,廿日市市,阿品４丁目２０番２３号,,34,213,7380054,,,,,,,2022-03-28,1,,,,,ニコ,0
199,1240001059507,新規,0,2022-03-28,2022-03-28,株式会社シャンクル,,株式会社,広島県,広島市中区,鶴見町１２番１１号鶴見町パークマンション１０２号室,,34,101,7300045,,,,,,,2022-03-28,1,,,,,シャンクル,0
222,1290801028375,新規,0,2022-03-28,2022-03-28,ＳＰ・テクニカル株式会社,,株式会社,福岡県,北九州市小倉南区,津田新町３丁目１番１０号オカモト東ビル２０２,,40,107,8000227,,,,,,,2022-03-28,1,,,,,エスピーテクニカル,0
226,1330001029558,新規,0,2022-03-28,2022-03-28,株式会社松風,,株式会社,熊本県,上益城郡山都町,下馬尾２８３,,43,447,8613512,,,,,,,2022-03-28,1,,,,,マツカゼ,0
227,1330001029574,新規,0,2022-03-28,2022-03-28,株式会社スエカワデザインラボ,,株式会社,熊本県,熊本市東区,沼山津３丁目８番７０‐１０１号,,43,102,8612102,,,,,,,2022-03-28,1,,,,,スエカワデザインラボ,0
231,1340005009431,新規,0,2022-03-28,2022-03-28,社会保険労務士法人ａｔｅ,,その他の設立登記法人,鹿児島県,鹿児島市,新屋敷町１６番４１２号,,46,201,8920838,,,,,,,2022-03-28,1,,,,,,0
238,1370001048356,新規,0,2022-03-28,2022-03-28,株式会社ｔｏｍｆｒｅｅ,,株式会社,宮城県,仙台市青葉区,一番町１丁目２番３１－１２０５号,,04,101,9800811,,,,,,,2022-03-28,1,,,,,トムフリー,0
239,1370005010460,新規,0,2022-03-28,2022-03-28,一般社団法人石巻イスラム文化センター,,その他の設立登記法人,宮城県,石巻市,松原町１０番１１号,,04,202,9862134,,,,,,,2022-03-28,1,,,,,イシノマキイスラムブンカセンター,0
245,1420003002487,新規,0,2022-03-28,2022-03-28,合同会社ｍｅａｌ,,合同会社,青森県,青森市,中佃１丁目１８番１０号ザ・ガーデン佃Ａ１０１,,02,201,0300963,,,,,,,2022-03-28,1,,,,,ミール,0
254,1430001086275,新規,0,2022-03-28,2022-03-28,株式会社大王技研,,株式会社,北海道,札幌市白石区,菊水元町１０－１－１６,,01,104,0030000,,,,,,,2022-03-28,1,,,,,ダイオウギケン,0
256,1430003013756,新規,0,2022-03-28,2022-03-28,Ｔａｉｓｈｉ　Ｃｏｍｐａｎｙ合同会社,,合同会社,北海道,札幌市北区,麻生町１丁目１番１２－４０３号,,01,102,0010045,,,,,,,2022-03-28,1,,,,,タイシカンパニー,0
267,1700150107515,新規,0,2022-03-28,2022-03-28,ＪＣＭＯ　Ｓｔｕｄｉｏｓ，　ＵＬＣ,,外国会社等,,,,,,,,４１０　Ｓｔ．Ｎｉｃｏｌａｓ，　Ｓｕｉｔｅ　４００，　Ｍｏｎｔｒｅａｌ，　ＱＣ　Ｈ２Ｙ　２Ｐ５　Ｃａｎａｄａ,,,,,,2022-03-28,1,,,,,ジエーシーエムオースタジオズユーエルシー,0
273,2010001225411,新規,0,2022-03-28,2022-03-28,株式会社ＮＥＷ　ＷＡ技術,,株式会社,東京都,千代田区,神田佐久間町１丁目８番４号アルテール秋葉原７０８,,13,101,1010025,,,,,,,2022-03-28,1,,,,,ニューワギジュツ,0
274,2010001225460,新規,0,2022-03-28,2022-03-28,アクシア株式会社,,株式会社,東京都,千代田区,外神田５丁目２番２号浜田ビル８階,,13,101,1010021,,,,,,,2022-03-28,1,,,,,アクシア,0
275,2010003037342,新規,0,2022-03-28,2022-03-28,合同会社ＡＬＥＲＯ６５,,合同会社,東京都,千代田区,神田美土代町９番１号,,13,101,1010053,,,,,,,2022-03-28,1,,,,,アレーロシックスティーファイブ,0
276,2010103001883,新規,0,2022-03-28,2022-03-28,小林商事合同会社,,合同会社,東京都,八王子市,散田町２丁目７番３１号,,13,201,1930832,,,,,,,2022-03-28,1,,,,,コバヤシショウジ,0
280,2010401166429,新規,0,2022-03-28,2022-03-28,株式会社上原技研,,株式会社,東京都,港区,南青山２丁目２番１５号,,13,103,1070062,,,,,,,2022-03-28,1,,,,,ウエハラギケン,0
281,2010403027331,新規,0,2022-03-28,2022-03-28,合同会社リベルプラス,,合同会社,東京都,港区,南青山２丁目２番１５号,,13,103,1070062,,,,,,,2022-03-28,1,,,,,リベルプラス,0
282,2010403027356,新規,0,2022-03-28,2022-03-28,合同会社Ｊｏｉ　Ｃｏｓｍｅ,,合同会社,東京都,港区,芝公園２丁目９番１号芝マツオビル４Ｆ,,13,103,1050011,,,,,,,2022-03-28,1,,,,,ジェイコスメ,0
284,2010405020846,新規,0,2022-03-28,2022-03-28,一般社団法人日本スリランカ協会,,その他の設立登記法人,東京都,港区,南青山２丁目２番１５号ＷｉｎＡｏｙａｍａビルＵＣＦ６階,,13,103,1070062,,,,,,,2022-03-28,1,,,,,ニホンスリランカキョウカイ,0
285,2010405020854,新規,0,2022-03-28,2022-03-28,一般社団法人Ｐｅａｒｌ　Ｃａｐ,,その他の設立登記法人,東京都,港区,虎ノ門５丁目１番４号,,13,103,1050001,,,,,,,2022-03-28,1,,,,,パールキャップ,0
286,2010405020862,新規,0,2022-03-28,2022-03-28,勝どきプロパティ特定目的会社,,その他の設立登記法人,東京都,港区,六本木１丁目６番１号泉ガーデンタワー,,13,103,1060032,,,,,,,2022-03-28,1,,,,,カチドキプロパティ,0
288,2010501048626,新規,0,2022-03-28,2022-03-28,株式会社カネコＨｏｌｄｉｎｇｓ,,株式会社,東京都,台東区,台東４丁目７番６号新星ビル１階,,13,106,1100016,,,,,,,2022-03-28,1,,,,,カネコホールディングス,0
291,2010701042420,新規,0,2022-03-28,2022-03-28,株式会社コノクラ,,株式会社,東京都,品川区,東品川２丁目１番６,,13,109,1400002,,,,,,,2022-03-28,1,,,,,コノクラ,0
298,2011001146507,新規,0,2022-03-28,2022-03-28,株式会社ＪＩＮＺＥＮ,,株式会社,東京都,目黒区,碑文谷３丁目９－５,,13,110,1520003,,,,,,,2022-03-28,1,,,,,ジンゼン,0
300,2011005009494,新規,0,2022-03-28,2022-03-28,一般社団法人東京対話学舎,,その他の設立登記法人,東京都,渋谷区,神宮前２丁目１９‐３,,13,113,1500001,,,,,,,2022-03-28,1,,,,,トウキョウタイワガクシャ,0
306,2011101098235,新規,0,2022-03-28,2022-03-28,イーグルキャピタル株式会社,,株式会社,東京都,新宿区,西新宿２丁目１番１号新宿三井ビルディング４９階,,13,104,1600023,,,,,,,2022-03-28,1,,,,,イーグルキャピタル,0
307,2011101098284,新規,0,2022-03-28,2022-03-28,株式会社ドリーム不動産,,株式会社,東京都,新宿区,新宿５丁目１番１号４０２室,,13,104,1600022,,,,,,,2022-03-28,1,,,,,ドリームフドウサン,0
308,2011101098292,新規,0,2022-03-28,2022-03-28,株式会社ＴＤＳ,,株式会社,東京都,新宿区,新宿２丁目４番１－４０４号,,13,104,1600022,,,,,,,2022-03-28,1,,,,,ティーディーエス,0
311,2011103011591,新規,0,2022-03-28,2022-03-28,ＭＡＮＴＡＰＰＵ　ＪＡＰＡＮ合同会社,,合同会社,東京都,新宿区,高田馬場３丁目１２番２０号ハウス泉１Ｆ,,13,104,1690075,,,,,,,2022-03-28,1,,,,,マンタップジャパン,0
312,2011103011600,新規,0,2022-03-28,2022-03-28,合同会社Ｔ．Ｐ　ｃｏｒｐｏｒａｔｉｏｎ,,合同会社,東京都,新宿区,百人町１丁目１－２０グリーンプラザ２０５,,13,104,1690073,,,,,,,2022-03-28,1,,,,,ティーピーコーポレーション,0
314,2011401024122,新規,0,2022-03-28,2022-03-28,ＣａｒｒｙＣｏｄｅ株式会社,,株式会社,東京都,板橋区,小茂根１丁目２５－１６ＵＩＳビル２０７号,,13,119,1730037,,,,,,,2022-03-28,1,,,,,キャリーコード,0
316,2011501027867,新規,0,2022-03-28,2022-03-28,株式会社ＳＵＮＷＯＲＬＤ,,株式会社,東京都,荒川区,荒川５丁目１－１３山路ビル５０２室,,13,118,1160002,,,,,,,2022-03-28,1,,,,,サンワールド,0
320,2011801040487,新規,0,2022-03-28,2022-03-28,株式会社先進工業,,株式会社,東京都,足立区,大谷田１丁目８番４号,,13,121,1200001,,,,,,,2022-03-28,1,,,,,センシンコウギョウ,0
321,2011801040495,新規,0,2022-03-28,2022-03-28,株式会社どなべ,,株式会社,東京都,葛飾区,立石５丁目２４番１２－８０２号,,13,122,1240012,,,,,,,2022-03-28,1,,,,,ドナベ,0
326,2012703002427,新規,0,2022-03-28,2022-03-28,エスエルアイ合同会社,,合同会社,東京都,西東京市,緑町２丁目２０番１１号,,13,229,1880002,,,,,,,2022-03-28,1,,,,,エスエルアイ,0
332,2020001145798,新規,0,2022-03-28,2022-03-28,株式会社ＮＯＡ,,株式会社,神奈川県,川崎市幸区,小倉５丁目３０番２０－２０１号フローレスハナミズキ,,14,132,2120054,,,,,,,2022-03-28,1,,,,,ノア,0
340,2021003011476,新規,0,2022-03-28,2022-03-28,合同会社ラフライ,,合同会社,神奈川県,相模原市南区,新戸２０４５－２ビバーチェ２０１号室,,14,153,2520326,,,,,,,2022-03-28,1,,,,,ラフライ,0
341,2021005012464,新規,0,2022-03-28,2022-03-28,一般社団法人日本かっさ治療学会,,その他の設立登記法人,神奈川県,茅ヶ崎市,松浪２丁目３番６５号,,14,207,2530022,,,,,,,2022-03-28,1,,,,,ニホンカッサチリョウガッカイ,0
348,2030001147414,新規,0,2022-03-28,2022-03-28,タイズ株式会社,,株式会社,埼玉県,所沢市,大字下安松４６８番地の３ガーデンパークヒナタＢ－１０１,,11,208,3590024,,,,,,,2022-03-28,1,,,,,タイズ,0
349,2030001147422,新規,0,2022-03-28,2022-03-28,株式会社ユタ,,株式会社,埼玉県,久喜市,伊坂南１丁目１８番地７,,11,232,3491128,,,,,,,2022-03-28,1,,,,,ユタ,0
350,2030001147439,新規,0,2022-03-28,2022-03-28,株式会社Ｄｒｅａｍ　Ｐｒｏｃｅｓｓｉｎｇ,,株式会社,埼玉県,三郷市,戸ケ崎３１６２番地３グリーンコーポ戸ヶ崎２０１,,11,237,3410044,,,,,,,2022-03-28,1,,,,,ドリームプロセッシング,0
351,2030001147447,新規,0,2022-03-28,2022-03-28,ＭＣ聚美株式会社,,株式会社,埼玉県,川口市,並木３丁目７番１－６０２号西川口グレースマンション,,11,203,3320034,,,,,,,2022-03-28,1,,,,,エムシーシュウビ,0
355,2030003019108,新規,0,2022-03-28,2022-03-28,合同会社Ｅｎｇａｇｅｍｅｎｔ,,合同会社,埼玉県,鶴ヶ島市,松ヶ丘２丁目１－１２セジュール金子１０２号室,,11,241,3502205,,,,,,,2022-03-28,1,,,,,エンゲージメント,0
361,2040003019759,新規,0,2022-03-28,2022-03-28,合同会社神山,00126073,合同会社,千葉県,柏市,日立台２丁目１番１３号,,12,217,2770083,,,,,,,2022-03-28,1,,,,,カミヤマ,0
373,2080403004497,新規,0,2022-03-28,2022-03-28,ＵＭＩ合同会社,,合同会社,静岡県,浜松市東区,植松町２６５番地の８ビラ梅田１０２,,22,132,4300803,,,,,,,2022-03-28,1,,,,,ユーエムアイ,0
389,2120001244672,新規,0,2022-03-28,2022-03-28,株式会社ｉｓｏｒｒｏｐｉａ,,株式会社,大阪府,寝屋川市,萱島南町４－１７,,27,215,5720825,,,,,,,2022-03-28,1,,,,,アイソロピア,0
390,2120001244697,新規,0,2022-03-28,2022-03-28,株式会社ネットショア,,株式会社,大阪府,寝屋川市,東香里園町２０番２号,,27,215,5720081,,,,,,,2022-03-28,1,,,,,ネットショア,0
391,2120001244706,新規,0,2022-03-28,2022-03-28,ＡＲＫ株式会社,,株式会社,大阪府,大阪市住吉区,我孫子４丁目１５番１４号,,27,120,5580014,,,,,,,2022-03-28,1,,,,,エーアールケー,0
392,2120001244714,新規,0,2022-03-28,2022-03-28,株式会社エスエスティ,,株式会社,大阪府,枚方市,東香里１丁目２０番１０号,,27,210,5730075,,,,,,,2022-03-28,1,,,,,エスエスティ,0
396,2120003021327,新規,0,2022-03-28,2022-03-28,Ａｏｎｏｓｕｍｉｋａ合同会社,,合同会社,大阪府,大阪市東住吉区,住道矢田４丁目７番１７号,,27,121,5460022,,,,,,,2022-03-28,1,,,,,アオノスミカ,0
402,2130001071422,新規,0,2022-03-28,2022-03-28,株式会社ＡＡＯｋｅｎｎｅｌ,,株式会社,京都府,京都市北区,紫野中柏野町４番地１７,,26,101,6038312,,,,,,,2022-03-28,1,,,,,エイエイオーケンネル,0
404,2130003007829,新規,0,2022-03-28,2022-03-28,合同会社忠烈,,合同会社,京都府,京都市西京区,桂上野西町２５９、２６０,,26,111,6158006,,,,,,,2022-03-28,1,,,,,チュウレツ,0
411,2140001125375,新規,0,2022-03-28,2022-03-28,株式会社嶺伸,,株式会社,兵庫県,西宮市,今津社前町２番１０号,,28,204,6638229,,,,,,,2022-03-28,1,,,,,リョウシン,0
412,2140001125383,新規,0,2022-03-28,2022-03-28,株式会社ティーエム,,株式会社,兵庫県,三田市,けやき台６丁目４番地１４３,,28,219,6691321,,,,,,,2022-03-28,1,,,,,ティーエム,0
413,2140003017505,新規,0,2022-03-28,2022-03-28,合同会社ネクシャ,,合同会社,兵庫県,川西市,矢問３丁目２番１８号,,28,217,6660131,,,,,,,2022-03-28,1,,,,,ネクシャ,0
414,2140005026090,新規,0,2022-03-28,2022-03-28,一般社団法人がん医療研究所,,その他の設立登記法人,兵庫県,加古川市,加古川町稲屋６３５番地,,28,210,6750034,,,,,,,2022-03-28,1,,,,,ガンイリョウケンキュウジョ,0
415,2150001025418,新規,0,2022-03-28,2022-03-28,ＣＡＲＲＹ　ＥＮＴＥＲＴＡＩＮＭＥＮＴ株式会社,,株式会社,奈良県,奈良市,百楽園１丁目９番６６号,,29,201,6310024,,,,,,,2022-03-28,1,,,,,キャリーエンタテインメント,0
416,2150003002654,新規,0,2022-03-28,2022-03-28,合同会社ＳＵＩＬＡ,,合同会社,奈良県,生駒郡平群町,大字下垣内３３０,,29,342,6360933,,,,,,,2022-03-28,1,,,,,スイラ,0
420,2180001150527,新規,0,2022-03-28,2022-03-28,株式会社中日自動車,,株式会社,愛知県,名古屋市港区,善南町２４番地,,23,111,4550814,,,,,,,2022-03-28,1,,,,,チュウニチジドウシャ,0
421,2180001150535,新規,0,2022-03-28,2022-03-28,ｔｅａ株式会社,,株式会社,愛知県,名古屋市東区,泉１丁目１３番３３号,,23,102,4610001,,,,,,,2022-03-28,1,,,,,ティー,0
422,2180001150568,新規,0,2022-03-28,2022-03-28,株式会社スタートハウジング,,株式会社,愛知県,名古屋市中区,丸の内２丁目１８番２０号ＤＫ丸の内ビル,,23,106,4600002,,,,,,,2022-03-28,1,,,,,スタートハウジング,0
427,2180301036046,新規,0,2022-03-28,2022-03-28,株式会社ワールドサービス刈谷,,株式会社,愛知県,刈谷市,東刈谷町２丁目７番地９リコット東刈谷２０２号,,23,210,4480807,,,,,,,2022-03-28,1,,,,,ワールドサービスカリヤ,0
436,2200003005486,新規,0,2022-03-28,2022-03-28,モノクロ合同会社,,合同会社,岐阜県,高山市,吹屋町５４番地,,21,203,5060831,,,,,,,2022-03-28,1,,,,,モノクロ,0
439,2240001059497,新規,0,2022-03-28,2022-03-28,Ｙデザイン株式会社,,株式会社,広島県,尾道市,美ノ郷町三成２２７９番地１３７,,34,205,7220215,,,,,,,2022-03-28,1,,,,,ワイデザイン,0
440,2240001059506,新規,0,2022-03-28,2022-03-28,ボーテルフラ株式会社,,株式会社,広島県,福山市,久松台２丁目２番２４号,,34,207,7200083,,,,,,,2022-03-28,1,,,,,ボーテルフラ,0
445,2250005008730,新規,0,2022-03-28,2022-03-28,医療法人賢和会,,その他の設立登記法人,山口県,宇部市,大字中野開作字五ノ割４１５番地３,,35,202,7590203,,,,,,,2022-03-28,1,,,,,ケンワカイ,0
446,2260001036668,新規,0,2022-03-28,2022-03-28,株式会社東洋研掃,,株式会社,岡山県,倉敷市,児島下の町１丁目２番７号,,33,202,7110906,,,,,,,2022-03-28,1,,,,,トウヨウケンソウ,0
447,2260003003856,新規,0,2022-03-28,2022-03-28,合同会社牛窓帆港,,合同会社,岡山県,瀬戸内市,牛窓町牛窓５４１４－７,,33,212,7014302,,,,,,,2022-03-28,1,,,,,ウシマドホコウ,0
452,2290001096932,新規,0,2022-03-28,2022-03-28,マルホーム株式会社,,株式会社,福岡県,糸島市,志摩芥屋９６１番地,,40,230,8191335,,,,,,,2022-03-28,1,,,,,マルホーム,0
453,2290001096957,新規,0,2022-03-28,2022-03-28,Ｐｒｉｍｅ　Ｇｕｉｌｄ株式会社,,株式会社,福岡県,福岡市中央区,天神２丁目３番１０号天神パインクレスト７１９号,,40,133,8100001,,,,,,,2022-03-28,1,,,,,プライムギルド,0
454,2290003012318,新規,0,2022-03-28,2022-03-28,合同会社ふく,,合同会社,福岡県,福岡市中央区,天神２丁目３番１０号天神パインクレスト７１９号,,40,133,8100001,,,,,,,2022-03-28,1,,,,,フク,0
456,2290803004092,新規,0,2022-03-28,2022-03-28,合同会社オリーブ,,合同会社,福岡県,宮若市,四郎丸１７１７番地１,,40,226,8230016,,,,,,,2022-03-28,1,,,,,オリーブ,0
460,2330001029573,新規,0,2022-03-28,2022-03-28,株式会社ＣＲＯＳＳ,,株式会社,熊本県,熊本市中央区,渡鹿１丁目１８番２９号,,43,101,8620970,,,,,,,2022-03-28,1,,,,,クロス,0
462,2350003004052,新規,0,2022-03-28,2022-03-28,合同会社巧,,合同会社,宮崎県,東諸県郡綾町,大字北俣９５３番地３,,45,383,8801302,,,,,,,2022-03-28,1,,,,,タクミ,0
471,2370001048355,新規,0,2022-03-28,2022-03-28,株式会社Ａｌｂａｇｒｉｔ,,株式会社,宮城県,仙台市泉区,八乙女中央５丁目１７番５２号ジュネス八乙女ＩＩ,00126075,04,105,9813135,,,,,,,2022-03-28,1,,,,,アルバグリット,0
482,2390003001938,新規,0,2022-03-28,2022-03-28,合同会社小の木,,合同会社,山形県,酒田市,一番町１２番１号,,06,204,9980046,,,,,,,2022-03-28,1,,,,,オノキ,0
489,2430001086282,新規,0,2022-03-28,2022-03-28,株式会社リノズアーク,,株式会社,北海道,札幌市中央区,北四条西２６丁目５番２５号,,01,101,0640824,,,,,,,2022-03-28,1,,,,,リノズアーク,0
494,2500003002800,新規,0,2022-03-28,2022-03-28,合同会社ＩＴＯ　ＢＡＳＥ,,合同会社,愛媛県,新居浜市,萩生２５３８番地の２,,38,205,7920050,,,,,,,2022-03-28,1,,,,,イトウベース,0
496,2700150107514,新規,0,2022-03-28,2022-03-28,心心投資股斌有限公司,00126055,外国会社等,東京都,千代田区,神田神保町１丁目４０番地８,,13,101,1010051,Ｎｏ．３４２，　Ｃｈａｎｇ’ａｎ　Ｗ　Ｒｄ，　Ｄａｔｏｎｇ　Ｄｉｓｔｒｉｃｔ，　Ｔａｉｐｅｉ　Ｃｉｔｙ，　ＴＡＩＷＡＮ,,,,,,2022-03-28,1,,,,,シンシントウシコフンユウゲンコウシ,0
503,3010003037341,新規,0,2022-03-28,2022-03-28,合同会社ＡＬＥＲＯ６４,,合同会社,東京都,千代田区,神田美土代町９番１号,,13,101,1010053,,,,,,,2022-03-28,1,,,,,アレーロシックスティーフォー,0
508,3010005034774,新規,0,2022-03-28,2022-03-28,医療法人社団光栄会,,その他の設立登記法人,東京都,千代田区,有楽町１丁目５番１号日比谷マリンビル地下２階Ｂ室,,13,101,1000006,,,,,,,2022-03-28,1,,,,,コウエイカイ,0
509,3010401166361,新規,0,2022-03-28,2022-03-28,角富商会株式会社,,株式会社,東京都,港区,六本木３丁目２番２－１００５号,,13,103,1060032,,,,,,,2022-03-28,1,,,,,ツノトミショウカイ,0
510,3010401166378,新規,0,2022-03-28,2022-03-28,クオンタムリープデジタルファーミング株式会社,,株式会社,東京都,港区,赤坂９丁目５番１２号,,13,103,1070052,,,,,,,2022-03-28,1,,,,,クオンタムリープデジタルファーミング,0
511,3010401166394,新規,0,2022-03-28,2022-03-28,株式会社ＴＫ,,株式会社,東京都,港区,赤坂３丁目１６番８号東海赤坂アネックスビル４０１,,13,103,1070052,,,,,,,2022-03-28,1,,,,,ティケイ,0
512,3010403027355,新規,0,2022-03-28,2022-03-28,合同会社Ｆｏｄｅｎｅ　Ｓｔｒｅａｍ,,合同会社,東京都,港区,南青山２丁目２番１５号,,13,103,1070062,,,,,,,2022-03-28,1,,,,,フォーデンストリーム,0
514,3010405020837,新規,0,2022-03-28,2022-03-28,弁護士法人サウスゲイト法律事務所,,その他の設立登記法人,東京都,港区,赤坂９丁目５番１２号パークサイドシックス３０５,,13,103,1070052,,,,,,,2022-03-28,1,,,,,サウスゲイトホウリツジムショ,0
524,3011001146448,新規,0,2022-03-28,2022-03-28,株式会社ｂｉｊｏｎ,,株式会社,東京都,目黒区,青葉台１丁目２２番１０号クレヴィア中目黒４０２,,13,110,1530042,,,,,,,2022-03-28,1,,,,,ビジョン,0
525,3011001146456,新規,0,2022-03-28,2022-03-28,株式会社エンブレックス,,株式会社,東京都,渋谷区,神宮前６丁目２３番４号桑野ビル２階,,13,113,1500001,,,,,,,2022-03-28,1,,,,,エンブレックス,0
526,3011001146514,新規,0,2022-03-28,2022-03-28,Ｖｅｓｔｉａｉｒｅ　Ｃｏｌｌｅｃｔｉｖｅ　Ｊａｐａｎ株式会社,,株式会社,東京都,渋谷区,渋谷２丁目２４番１２号渋谷スクランブルスクエアＷｅＷｏｒｋ,,13,113,1500002,,,,,,,2022-03-28,1,,,,,ヴェスティエールコレクティブジャパン,0
527,3011001146539,新規,0,2022-03-28,2022-03-28,株式会社まなぶや,,株式会社,東京都,渋谷区,宇田川町１６－８渋谷センタービル３Ｆ,,13,113,1500042,,,,,,,2022-03-28,1,,,,,マナブヤ,0
528,3011001146547,新規,0,2022-03-28,2022-03-28,株式会社ブレインパートナーズ,,株式会社,東京都,渋谷区,神宮前３丁目３８番７号小林ビル２０１号,,13,113,1500001,,,,,,,2022-03-28,1,,,,,ブレインパートナーズ,0
529,3011001146555,新規,0,2022-03-28,2022-03-28,Ｗｉｎｅ　Ｐｏｒｔａｌ　Ｊａｐａｎ株式会社,,株式会社,東京都,渋谷区,代々木５丁目３５番８－５０３号,,13,113,1510053,,,,,,,2022-03-28,1,,,,,ワインポータルジャパン,0
532,3011003014405,新規,0,2022-03-28,2022-03-28,合同会社よすよす,,合同会社,東京都,渋谷区,渋谷２丁目１９－１５宮益坂ビルディング６０９,,13,113,1500002,,,,,,,2022-03-28,1,,,,,ヨスヨス,0
533,3011101098283,新規,0,2022-03-28,2022-03-28,株式会社ＳＤＫデータ,,株式会社,東京都,新宿区,新宿２丁目９番２０号,,13,104,1600022,,,,,,,2022-03-28,1,,,,,エスデイケイデータ,0
534,3011101098300,新規,0,2022-03-28,2022-03-28,株式会社通達,00126080,株式会社,東京都,新宿区,大久保２丁目７番１号大久保フジビル９０３,,13,104,1690072,,,,,,,2022-03-28,1,,,,,ツウタツ,0
535,3011103011599,新規,0,2022-03-28,2022-03-28,Ａｆｆｉｎｉｔｅ合同会社,,合同会社,東京都,新宿区,西新宿３丁目１－５新宿嘉泉ビル８Ｆ,,13,104,1600023,,,,,,,2022-03-28,1,,,,,アフィニッテ,0
538,3011301027661,新規,0,2022-03-28,2022-03-28,北日本ユーフォー販売株式会社,,株式会社,東京都,杉並区,成田東５丁目３９番１１－３０６号,,13,115,1660015,,,,,,,2022-03-28,1,,,,,キタニホンユーフォーハンバイ,0
539,3011403003610,新規,0,2022-03-28,2022-03-28,ＡＩプラネット合同会社,,合同会社,東京都,板橋区,上板橋２丁目２３番６－２０９号,,13,119,1740076,,,,,,,2022-03-28,1,,,,,エーアイプラネット,0
541,3011601025828,新規,0,2022-03-28,2022-03-28,株式会社エコルス,,株式会社,東京都,練馬区,関町南２丁目７番３６号,,13,120,1770053,,,,,,,2022-03-28,1,,,,,エコルス,0
548,3013101008874,新規,0,2022-03-28,2022-03-28,株式会社三津木,,株式会社,東京都,西多摩郡瑞穂町,大字石畑１６６０番地５,,13,303,1901211,,,,,,,2022-03-28,1,,,,,ミツギ,0
562,3020001145822,新規,0,2022-03-28,2022-03-28,株式会社秋山立花,,株式会社,神奈川県,横浜市中区,相生町３丁目６０番地泰生ビル３Ｆ,,14,104,2310012,,,,,,,2022-03-28,1,,,,,,0
563,3020001145830,新規,0,2022-03-28,2022-03-28,株式会社ＴＸ‐Ｄｅｌｉｇｈｔ,,株式会社,神奈川県,川崎市高津区,諏訪２丁目１２番１８号ＲＩＺＥＬ２０１,,14,134,2130004,,,,,,,2022-03-28,1,,,,,ティーエックスディライト,0
568,3020005015435,新規,0,2022-03-28,2022-03-28,医療法人社団てとて,,その他の設立登記法人,神奈川県,横浜市中区,不老町３丁目１４番地５中外ビル２階,,14,104,2310032,,,,,,,2022-03-28,1,,,,,テトテ,0
577,3030001147413,新規,0,2022-03-28,2022-03-28,株式会社ホーミーカイト,,株式会社,埼玉県,桶川市,神明２丁目１番８号,,11,231,3630014,,,,,,,2022-03-28,1,,,,,ホーミーカイト,0
578,3030001147438,新規,0,2022-03-28,2022-03-28,株式会社トミ建装,,株式会社,埼玉県,川越市,南台３丁目２番地４５（南台ハイツ１０１号室）,,11,201,3501165,,,,,,,2022-03-28,1,,,,,トミケンソウ,0
579,3030001147454,新規,0,2022-03-28,2022-03-28,株式会社ＥＭＯ,,株式会社,埼玉県,春日部市,上金崎４４７－１,,11,214,3440111,,,,,,,2022-03-28,1,,,,,エモー,0
589,3040005021555,新規,0,2022-03-28,2022-03-28,一般社団法人健康科学研究所,,その他の設立登記法人,千葉県,習志野市,津田沼５丁目１４番２７号,,12,216,2750016,,,,,,,2022-03-28,1,,,,,ケンコウカガクケンキュウジョ,0
595,3070001039078,新規,0,2022-03-28,2022-03-28,株式会社ナチュレ,,株式会社,群馬県,渋川市,北橘町真壁１８２９番地,,10,208,3770062,,,,,,,2022-03-28,1,,,,,ナチュレ,0
601,3090001017494,新規,0,2022-03-28,2022-03-28,株式会社ＴＲＡＩＬＨＥＡＤ,,株式会社,山梨県,南アルプス市,平岡２８２８,,19,208,4000313,,,,,,,2022-03-28,1,,,,,,0
613,3120001244614,新規,0,2022-03-28,2022-03-28,株式会社ＷＨ,,株式会社,大阪府,大阪市淀川区,西中島３丁目１１番２６号,,27,123,5320011,,,,,,,2022-03-28,1,,,,,ダブリューエイチ,0
614,3120001244705,新規,0,2022-03-28,2022-03-28,株式会社ミルン,,株式会社,大阪府,大阪市北区,梅田１丁目１１番４号大阪駅前第４ビル９階９２３－１６２９号,,27,127,5300001,,,,,,,2022-03-28,1,,,,,ミルン,0
615,3120001244721,新規,0,2022-03-28,2022-03-28,Ｎ　ｃｏｍｐａｎｙ株式会社,,株式会社,大阪府,大阪市生野区,巽東３丁目１１番２６－８０２号,00126081,27,116,5440014,,,,,,,2022-03-28,1,,,,,エヌカンパニー,0
619,3120003021342,新規,0,2022-03-28,2022-03-28,合同会社栞,,合同会社,大阪府,大阪市都島区,都島中通２丁目２０－１１,,27,102,5340022,,,,,,,2022-03-28,1,,,,,シオリ,0
620,3120003021350,新規,0,2022-03-28,2022-03-28,Ｒｏｓｉｅ　Ｌｅｅ合同会社,,合同会社,大阪府,大阪市浪速区,敷津西１丁目５番１２号中原ビル２２号室,,27,111,5560015,,,,,,,2022-03-28,1,,,,,ローシーリー,0
621,3120003021359,新規,0,2022-03-28,2022-03-28,ＭＩＲＡ　ＧＲＯＵＰ合同会社,,合同会社,大阪府,大阪市淀川区,西中島４丁目２番４号セノビル４Ｆ,,27,123,5320011,,,,,,,2022-03-28,1,,,,,ミラグループ,0
624,3120103004610,新規,0,2022-03-28,2022-03-28,合同会社いろはのい,,合同会社,大阪府,泉佐野市,俵屋４１４－１２,,27,213,5980003,,,,,,,2022-03-28,1,,,,,イロハノイ,0
632,3130001071413,新規,0,2022-03-28,2022-03-28,株式会社サガセル,,株式会社,京都府,京都市西京区,桂千代原町１６番地５,,26,111,6158085,,,,,,,2022-03-28,1,,,,,サガセル,0
638,3140001125374,新規,0,2022-03-28,2022-03-28,株式会社ＲＹＯ,,株式会社,兵庫県,芦屋市,朝日ケ丘町１６番２７－４号,,28,206,6590012,,,,,,,2022-03-28,1,,,,,アールワイオー,0
642,3160001024070,新規,0,2022-03-28,2022-03-28,株式会社高山建設,00126072,株式会社,滋賀県,長浜市,山階町４８３番地,,25,203,5260847,,,,,,,2022-03-28,1,,,,,タカヤマケンセツ,0
646,3180001150550,新規,0,2022-03-28,2022-03-28,三好国際貿易株式会社,,株式会社,愛知県,愛知郡東郷町,大字諸輪字池上１９番地１,,23,302,4700151,,,,,,,2022-03-28,1,,,,,ミヨシコクサイボウエキ,0
647,3180001150559,新規,0,2022-03-28,2022-03-28,株式会社アルセア,,株式会社,愛知県,名古屋市南区,鳴尾２丁目５３番地,,23,112,4570066,,,,,,,2022-03-28,1,,,,,アルセア,0
650,3180301036053,新規,0,2022-03-28,2022-03-28,株式会社エムエスケイ,,株式会社,愛知県,豊橋市,東脇３丁目１番地の７,,23,201,4418083,,,,,,,2022-03-28,1,,,,,エムエスケイ,0
652,3190003003937,新規,0,2022-03-28,2022-03-28,合同会社ＧＲＡＶＩＴＹ,,合同会社,三重県,四日市市,蒔田２丁目８番７号グレイスヴィラ１Ｅ,,24,202,5108022,,,,,,,2022-03-28,1,,,,,グラビティー,0
660,3240001059505,新規,0,2022-03-28,2022-03-28,株式会社ＡＲＡＫＩＸ,,株式会社,広島県,広島市佐伯区,五日市中央５丁目１０番１３－３０１号,,34,108,7315128,,,,,,,2022-03-28,1,,,,,アラキックス,0
672,3290001096948,新規,0,2022-03-28,2022-03-28,株式会社トレスター,,株式会社,福岡県,福岡市南区,大橋１丁目３－１８,,40,134,8150033,,,,,,,2022-03-28,1,,,,,トレスター,0
673,3290001096956,新規,0,2022-03-28,2022-03-28,株式会社アヴニル,,株式会社,福岡県,福岡市博多区,相生町２丁目５－２６,,40,132,8120885,,,,,,,2022-03-28,1,,,,,アヴニル,0
679,3310001017785,新規,0,2022-03-28,2022-03-28,Ｓｕｐｅｒ　Ｓｕｐｐｌｅｍｅｎｔ株式会社,,株式会社,長崎県,長崎市,大黒町１０－１０－６Ｆ,,42,201,8500057,,,,,,,2022-03-28,1,,,,,スーパーサプリメント,0
681,3330001029572,新規,0,2022-03-28,2022-03-28,株式会社佐藤塗装,,株式会社,熊本県,熊本市北区,清水東町２番３０－２号,,43,105,8618065,,,,,,,2022-03-28,1,,,,,サトウトソウ,0
684,3340001024597,新規,0,2022-03-28,2022-03-28,株式会社はま漬物,,株式会社,鹿児島県,薩摩郡さつま町,船木４６４９番地９,,46,392,8951804,,,,,,,2022-03-28,1,,,,,ハマツケモノ,0
685,3360001030180,新規,0,2022-03-28,2022-03-28,株式会社Ｇｉｏｉａ,,株式会社,沖縄県,那覇市,字安里１７８番地ミオビエント新都心４０５,,47,201,9020067,,,,,,,2022-03-28,1,,,,,ジョイア,0
686,3360003011897,新規,0,2022-03-28,2022-03-28,合同会社ＵＺＵ,,合同会社,沖縄県,糸満市,字潮平６８番地の１０,,47,210,9010302,,,,,,,2022-03-28,1,,,,,ウーズ,0
706,3430001086257,新規,0,2022-03-28,2022-03-28,株式会社ＭＩＢ,,株式会社,北海道,札幌市厚別区,厚別南１丁目８番１－６０３号,,01,108,0040022,,,,,,,2022-03-28,1,,,,,エムアイビー,0
707,3430001086281,新規,0,2022-03-28,2022-03-28,株式会社８７,,株式会社,北海道,江別市,見晴台１０８番地の４,,01,217,0670042,,,,,,,2022-03-28,1,,,,,ハチナナ,0
711,3430003013754,新規,0,2022-03-28,2022-03-28,合同会社インペリアルガーデン,,合同会社,北海道,札幌市北区,北七条西４丁目１番１号トーカン札幌第一キャステール６０７,,01,102,0600807,,,,,,,2022-03-28,1,,,,,インペリアルガーデン,0
712,3430005014420,新規,0,2022-03-28,2022-03-28,医療法人社団てんたま,,その他の設立登記法人,北海道,札幌市東区,北十一条東８丁目１－３高岡ビル２階,,01,103,0650011,,,,,,,2022-03-28,1,,,,,シャダンテンタマ,0
723,4010003037340,新規,0,2022-03-28,2022-03-28,合同会社ＡＬＥＲＯ６３,,合同会社,東京都,千代田区,神田美土代町９番１号,,13,101,1010053,,,,,,,2022-03-28,1,,,,,アレーロシックスティースリー,0
729,4010401166360,新規,0,2022-03-28,2022-03-28,株式会社スタジオ初夏,,株式会社,東京都,港区,北青山２丁目７番２０号猪瀬ビル２Ｆ,,13,103,1070061,,,,,,,2022-03-28,1,,,,,スタジオショカ,0
730,4010401166369,新規,0,2022-03-28,2022-03-28,株式会社ｅｎｐｒｏｐ,,株式会社,東京都,港区,南青山２丁目２番１５号,,13,103,1070062,,,,,,,2022-03-28,1,,,,,エンプロップ,0
731,4010401166377,新規,0,2022-03-28,2022-03-28,株式会社キャリアナレッジ,,株式会社,東京都,港区,北青山２丁目７－２０猪瀬ビル２Ｆ,,13,103,1070061,,,,,,,2022-03-28,1,,,,,キャリアナレッジ,0
732,4010401166402,新規,0,2022-03-28,2022-03-28,ＥＣＵ　Ｐａｒｔｎｅｒｓ株式会社,,株式会社,東京都,港区,台場２丁目２番２－３３０５号,,13,103,1350091,,,,,,,2022-03-28,1,,,,,エキュパートナーズ,0
733,4010401166427,新規,0,2022-03-28,2022-03-28,株式会社奇想天外,,株式会社,東京都,港区,赤坂８丁目１２番２８号パレス赤坂６０２,,13,103,1070052,,,,,,,2022-03-28,1,,,,,キソウテンガイ,0
735,4010403027346,新規,0,2022-03-28,2022-03-28,合同会社ＢａｎｄＫ,,合同会社,東京都,港区,高輪２丁目１５番３１－１００６号,,13,103,1080074,,,,,,,2022-03-28,1,,,,,バンドケー,0
736,4010403027354,新規,0,2022-03-28,2022-03-28,合同会社田原町ホテル運営,,合同会社,東京都,港区,虎ノ門５丁目１番４号,,13,103,1050001,,,,,,,2022-03-28,1,,,,,タワラマチホテルウンエイ,0
739,4010601060883,新規,0,2022-03-28,2022-03-28,株式会社ｄｅｅｃｌ,,株式会社,東京都,墨田区,東駒形１丁目１５－２グランツスエヒロ５０２,,13,107,1300005,,,,,,,2022-03-28,1,,,,,ディークル,0
741,4010603009458,新規,0,2022-03-28,2022-03-28,Ａ．Ｌ　Ｔｒａｄｉｎｇ合同会社,,合同会社,東京都,墨田区,錦糸１丁目１４－２小林ビル４０２号室,,13,107,1300013,,,,,,,2022-03-28,1,,,,,エーエルトレーディング,0
748,4010801032823,新規,0,2022-03-28,2022-03-28,東京美新隆製缶株式会社,,株式会社,東京都,大田区,南六郷３丁目１６番８号,,13,111,1440045,,,,,,,2022-03-28,1,,,,,トウキョウビシンリュウセイカン,0
761,4011001146447,新規,0,2022-03-28,2022-03-28,株式会社ＯＬＩ,,株式会社,東京都,目黒区,自由が丘１丁目１－１２,,13,110,1520035,,,,,,,2022-03-28,1,,,,,オリ,0
762,4011001146496,新規,0,2022-03-28,2022-03-28,株式会社ゼロタス,,株式会社,東京都,渋谷区,円山町２番１６号ハーベスト・ハウス円山２０５,,13,113,1500044,,,,,,,2022-03-28,1,,,,,ゼロタス,0
763,4011003014370,新規,0,2022-03-28,2022-03-28,合同会社小さな楽しみ,,合同会社,東京都,渋谷区,渋谷２丁目１９－１５宮益坂ビルディング６０９,,13,113,1500002,,,,,,,2022-03-28,1,,,,,チイサナタノシミ,0
764,4011003014412,新規,0,2022-03-28,2022-03-28,ＡｓｉａｎＦａｌｃｏｎ合同会社,,合同会社,東京都,渋谷区,道玄坂１丁目１０番８号渋谷道玄坂東急ビル２Ｆ－Ｃ,,13,113,1500043,,,,,,,2022-03-28,1,,,,,アジアンファルコン,0
767,4011101098274,新規,0,2022-03-28,2022-03-28,株式会社ｓａｎｔｏｎａｎａ,,株式会社,東京都,新宿区,市谷仲之町２番１０号,,13,104,1620064,,,,,,,2022-03-28,1,,,,,サントナナ,0
768,4011103011598,新規,0,2022-03-28,2022-03-28,合同会社Ｒｅａｌｉｚｅ　ｆａｎｔａｓｙ,,合同会社,東京都,新宿区,新宿６丁目８番１６号,,13,104,1600022,,,,,,,2022-03-28,1,,,,,リアライズファンタジー,0
786,4020001145821,新規,0,2022-03-28,2022-03-28,株式会社アシュアランス,,株式会社,神奈川県,川崎市川崎区,東門前１丁目１２番１７号,,14,131,2100812,,,,,,,2022-03-28,1,,,,,アシュアランス,0
789,4020003021509,新規,0,2022-03-28,2022-03-28,合同会社ｎｅｘｔ　ｄｏｏｒ,,合同会社,神奈川県,横浜市神奈川区,平川町２５番地１２ＴＯＰ東白楽第２・２０５号,,14,102,2210812,,,,,,,2022-03-28,1,,,,,ネクストドア,0
791,4020005015434,新規,0,2022-03-28,2022-03-28,医療法人桂台歯科医院,,その他の設立登記法人,神奈川県,横浜市栄区,桂台南２丁目３１番１号,,14,115,2470033,,,,,,,2022-03-28,1,,,,,カツラダイシカイイン,0
792,4021001075521,新規,0,2022-03-28,2022-03-28,株式会社ＴＨＥ　ＤＡＹ　ＳＵＰＰＬＹ,,株式会社,神奈川県,相模原市南区,文京２丁目４番１６号,,14,153,2520307,,,,,,,2022-03-28,1,,,,,ザデイサプライ,0
798,4030001147412,新規,0,2022-03-28,2022-03-28,株式会社Ｆｒｅｅ　Ｃｏｌｏｒｓ,,株式会社,埼玉県,さいたま市浦和区,岸町７丁目７番１－９０３号,,11,107,3300064,,,,,,,2022-03-28,1,,,,,フリーカラーズ,0
799,4030001147420,新規,0,2022-03-28,2022-03-28,株式会社フィルム技建,,株式会社,埼玉県,上尾市,壱丁目東３４番地１４,,11,219,3620082,,,,,,,2022-03-28,1,,,,,フィルムギケン,0
800,4030001147429,新規,0,2022-03-28,2022-03-28,株式会社青木ホールディング,,株式会社,埼玉県,さいたま市大宮区,桜木町１丁目７番地５,,11,103,3300854,,,,,,,2022-03-28,1,,,,,アオキホールディング,0
802,4030003019097,新規,0,2022-03-28,2022-03-28,ＯｎｅＮ合同会社,,合同会社,埼玉県,さいたま市浦和区,本太４丁目１２番１１号,,11,107,3300052,,,,,,,2022-03-28,1,,,,,ワンエヌ,0
803,4030005020771,新規,0,2022-03-28,2022-03-28,特定非営利活動法人ｃｒｅｗ‐Ｌ,,その他の設立登記法人,埼玉県,飯能市,大字飯能３１６番地６,,11,209,3570063,,,,,,,2022-03-28,1,,,,,クルーエル,0
809,4040003019740,新規,0,2022-03-28,2022-03-28,吉元合同会社,,合同会社,千葉県,印西市,西の原４丁目２００－２４３,,12,231,2701334,,,,,,,2022-03-28,1,,,,,ヨシモト,0
812,4050001050829,新規,0,2022-03-28,2022-03-28,オミガワホールディングス株式会社,,株式会社,茨城県,常総市,水海道山田町４６６３番地,,08,211,3030031,,,,,,,2022-03-28,1,,,,,オミガワホールディングス,0
819,4060005009960,新規,0,2022-03-28,2022-03-28,医療法人ブライトスマイル,,その他の設立登記法人,栃木県,宇都宮市,ゆいの杜５丁目１８番地１,,09,201,3213226,,,,,,,2022-03-28,1,,,,,ブライトスマイル,0
823,4090001017493,新規,0,2022-03-28,2022-03-28,株式会社一瀬建工,,株式会社,山梨県,甲府市,山宮町２９４２番地８,,19,201,4000075,,,,,,,2022-03-28,1,,,,,イチノセケンコウ,0
829,4100001035188,新規,0,2022-03-28,2022-03-28,株式会社山杜工業,,株式会社,長野県,下伊那郡高森町,吉田２２８３番地３８,,20,403,3993102,,,,,,,2022-03-28,1,,,,,ヤマトコウギョウ,0
849,4120001244596,新規,0,2022-03-28,2022-03-28,同心ホールディングス株式会社,,株式会社,大阪府,大阪市東住吉区,田辺１丁目７番１９号,,27,121,5460031,,,,,,,2022-03-28,1,,,,,ドーシンホールディングス,0
850,4120001244638,新規,0,2022-03-28,2022-03-28,株式会社ネクストパートナーズ,,株式会社,大阪府,大阪市中央区,上町１丁目９番１６号,,27,128,5400005,,,,,,,2022-03-28,1,,,,,ネクストパートナーズ,0
851,4120001244704,新規,0,2022-03-28,2022-03-28,株式会社ＲｅＶＩＮ,,株式会社,大阪府,大阪市東住吉区,中野３丁目８番１６号,,27,121,5460012,,,,,,,2022-03-28,1,,,,,リビン,0
852,4120001244729,新規,0,2022-03-28,2022-03-28,株式会社Ｏ．Ｎ．Ｓ,,株式会社,大阪府,大阪市中央区,島之内１丁目１５－１４－７０３,,27,128,5420082,,,,,,,2022-03-28,1,,,,,オーエヌエス,0
857,4120003021358,新規,0,2022-03-28,2022-03-28,合同会社ヤマナビザキスコ,,合同会社,大阪府,大阪市西区,九条３丁目６番９号サンアイビル２０２,,27,106,5500027,,,,,,,2022-03-28,1,,,,,ヤマナビザキスコ,0
863,4120901045755,新規,0,2022-03-28,2022-03-28,株式会社諸花,,株式会社,大阪府,豊中市,東豊中町６丁目１６番１５号ヴィラウッドランドＩＩ４０３,00126077,27,203,5600003,,,,,,,2022-03-28,1,,,,,モロハナ,0
864,4120901045763,新規,0,2022-03-28,2022-03-28,凱禄商事株式会社,,株式会社,大阪府,高槻市,西面南１丁目８番６号,,27,207,5690847,,,,,,,2022-03-28,1,,,,,ガイロクショウジ,0
866,4120903004073,新規,0,2022-03-28,2022-03-28,ＴＭＴ合同会社,,合同会社,大阪府,豊中市,大黒町３丁目１９－２６－１０３,,27,203,5610827,,,,,,,2022-03-28,1,,,,,ティーエムティー,0
867,4122001035703,新規,0,2022-03-28,2022-03-28,株式会社ＳＧＬ企画,,株式会社,大阪府,東大阪市,東石切町２丁目５番２３号,,27,227,5798011,,,,,,,2022-03-28,1,,,,,エスジーエルキカク,0
872,4130001071420,新規,0,2022-03-28,2022-03-28,ＳＴ２ＲＥＣＯＶＥＲＹ株式会社,,株式会社,京都府,京都市中京区,室町通三条上る役行者町３７６番地,,26,104,6048174,,,,,,,2022-03-28,1,,,,,スタッツリカバリー,0
880,4140001125373,新規,0,2022-03-28,2022-03-28,鴻鵠マネジメント株式会社,,株式会社,兵庫県,尼崎市,南塚口町１丁目１９番７号,,28,202,6610012,,,,,,,2022-03-28,1,,,,,コウコクマネジメント,0
881,4140001125381,新規,0,2022-03-28,2022-03-28,ＣＲＹＳＴＡＬ８株式会社,,株式会社,兵庫県,神戸市中央区,北長狭通４丁目１番６号,,28,110,6500012,,,,,,,2022-03-28,1,,,,,クリスタルエイト,0
883,4140003017494,新規,0,2022-03-28,2022-03-28,合同会社ｅｉｏ,,合同会社,兵庫県,洲本市,五色町都志大宮６２番地,,28,205,6561303,,,,,,,2022-03-28,1,,,,,エイオ,0
894,4180005019691,新規,0,2022-03-28,2022-03-28,特定非営利活動法人尾張教育技術研究所,,その他の設立登記法人,愛知県,知多市,寺本新町２丁目１０１番地アルシオネＭ１０１,,23,224,4780063,,,,,,,2022-03-28,1,,,,,オワリキョウイクギジュツケンキュウジョ,0
907,4210001018859,新規,0,2022-03-28,2022-03-28,株式会社タッグスペンタ,,株式会社,福井県,南条郡南越前町,上野第１４号１１番地の５,,18,404,9190204,,,,,,,2022-03-28,1,,,,,タッグスペンタ,0
916,4240001059504,新規,0,2022-03-28,2022-03-28,株式会社ａｎｊｕ,,株式会社,広島県,広島市東区,光町２丁目３番７－８０１号,,34,102,7320052,,,,,,,2022-03-28,1,,,,,アンジュ,0
925,4260001036666,新規,0,2022-03-28,2022-03-28,株式会社エイトマン,,株式会社,岡山県,岡山市北区,東古松４丁目４番１号アルバ鹿田町３０３号,,33,101,7000921,,,,,,,2022-03-28,1,,,,,エイトマン,0
931,4290001096947,新規,0,2022-03-28,2022-03-28,ＧＡＮＧＡ株式会社,,株式会社,福岡県,福岡市東区,和白丘４丁目１６番２８号エンゼルハイツ１０２号,,40,131,8110213,,,,,,,2022-03-28,1,,,,,ガンガ,0
934,4290003012324,新規,0,2022-03-28,2022-03-28,合同会社ＦＲＥＥＤＯＭ,,合同会社,福岡県,福岡市東区,塩浜１丁目１０番１１－３０２号プレステージ和白ＩＩ,00126074,40,131,8110203,,,,,,,2022-03-28,1,,,,,フリーダム,0
942,4310001017784,新規,0,2022-03-28,2022-03-28,株式会社當山工業,,株式会社,長崎県,長崎市,上戸町１丁目１０番３号,,42,201,8500953,,,,,,,2022-03-28,1,,,,,トウヤマコウギョウ,0
945,4330005010486,新規,0,2022-03-28,2022-03-28,一般社団法人夢教育ネットワーク,,その他の設立登記法人,熊本県,天草市,佐伊津町３１５９－３,,43,215,8632171,,,,,,,2022-03-28,1,,,,,ユメキョウイクネットワーク,0
947,4340001024596,新規,0,2022-03-28,2022-03-28,マルケイ圧送株式会社,,株式会社,鹿児島県,西之表市,西之表１４４１５番地１０２,,46,213,8913101,,,,,,,2022-03-28,1,,,,,マルケイアッソウ,0
958,4390001016837,新規,0,2022-03-28,2022-03-28,株式会社ＰＩＴ,,株式会社,山形県,米沢市,大字花沢３０２７番地の１,,06,202,9920021,,,,,,,2022-03-28,1,,,,,ピット,0
962,4410003003632,新規,0,2022-03-28,2022-03-28,合同会社Ｙｏｇａ　Ｓｐａｃｅ　Ｌａｂ．,,合同会社,秋田県,秋田市,八橋本町１丁目２番１４号,,05,201,0100973,,,,,,,2022-03-28,1,,,,,ヨガスペースラボ,0
967,4430001086280,新規,0,2022-03-28,2022-03-28,Ｆ．Ｄ．ＰＲＯ株式会社,,株式会社,北海道,札幌市中央区,南十三条西２１丁目３番１‐１０１号,,01,101,0640913,,,,,,,2022-03-28,1,,,,,エフディプロ,0
972,4430003013745,新規,0,2022-03-28,2022-03-28,合同会社Ｔ’ｓピラミッド,,合同会社,北海道,札幌市豊平区,平岸五条７丁目５番９号,,01,105,0620935,,,,,,,2022-03-28,1,,,,,ティーズピラミッド,0
973,4430003013753,新規,0,2022-03-28,2022-03-28,合同会社不川資産管理事務所,,合同会社,北海道,苫小牧市,新中野町１丁目９番３号,,01,213,0530006,,,,,,,2022-03-28,1,,,,,フカワシサンカンリジムショ,0
974,4440003001451,新規,0,2022-03-28,2022-03-28,合同会社ＭａＬａＭａ,,合同会社,北海道,亀田郡七飯町,大川３丁目１３番８号,,01,337,0411122,,,,,,,2022-03-28,1,,,,,マラマ,0
975,4470003002158,新規,0,2022-03-28,2022-03-28,合同会社Ｓｔａｃｋ,,合同会社,香川県,高松市,木太町２６６５番地１エクセラン木太１２０３,,37,201,7600080,,,,,,,2022-03-28,1,,,,,スタック,0
981,4500001024084,新規,0,2022-03-28,2022-03-28,株式会社山田建装,,株式会社,愛媛県,新居浜市,松木町６番２７号,,38,205,7920829,,,,,,,2022-03-28,1,,,,,ヤマダケンソウ,0
986,4700150107529,新規,0,2022-03-28,2022-03-28,認可地縁団体　昭栄町町内会,,その他,岐阜県,高山市,昭和町１丁目１４６番地７,,21,203,5060053,,,,,,,2022-03-28,1,,,,,ニンカチエンダンタイシヨウエイチヨウチヨウナイカイ,0
992,5010001225383,新規,0,2022-03-28,2022-03-28,元騰石油株式会社,,株式会社,東京都,中央区,東日本橋２丁目２８番４号日本橋ＣＥＴビル２階,,13,102,1030004,,,,,,,2022-03-28,1,,,,,ゲントウセキユ,0
993,5010001225474,新規,0,2022-03-28,2022-03-28,エイプマンジャパン株式会社,,株式会社,東京都,千代田区,神田錦町２丁目２－１神田スクエア１１階１０７室,,13,101,1010054,,,,,,,2022-03-28,1,,,,,エイプマンジャパン,0
1010,5010401166368,新規,0,2022-03-28,2022-03-28,ＧＬＰジャパン株式会社,,株式会社,東京都,港区,東新橋１丁目５番２号汐留シティセンター,,13,103,1050021,,,,,,,2022-03-28,1,,,,,ジーエルピージャパン,0
1011,5010401166392,新規,0,2022-03-28,2022-03-28,株式会社Ｒｅｎｃｏｎｔｒｅ,,株式会社,東京都,港区,赤坂３丁目２１－１４ＴＳ共和六番館５Ｆ,,13,103,1070052,,,,,,,2022-03-28,1,,,,,ランコントル,0
1012,5010401166401,新規,0,2022-03-28,2022-03-28,株式会社ＥＣＵ　Ａｃｃｏｕｎｔｉｎｇ　Ｓｅｒｖｉｃｅｓ,,株式会社,東京都,港区,台場２丁目２番２－３３０５号,,13,103,1350091,,,,,,,2022-03-28,1,,,,,エキュアカウンティングサービスイズ,0
1013,5010401166426,新規,0,2022-03-28,2022-03-28,株式会社ジャパン・エモーションホールディングス,,株式会社,東京都,港区,芝浦３丁目１１番１３号,,13,103,1080023,,,,,,,2022-03-28,1,,,,,ジャパンエモーションホールディングス,0
1015,5010403027353,新規,0,2022-03-28,2022-03-28,合同会社かっぱ橋ホテル運営,,合同会社,東京都,港区,虎ノ門５丁目１番４号,,13,103,1050001,,,,,,,2022-03-28,1,,,,,カッパバシホテルウンエイ,0
1016,5010405020843,新規,0,2022-03-28,2022-03-28,一般社団法人競馬情報公正取引協議会,,その他の設立登記法人,東京都,港区,東新橋２丁目１０番１０号,,13,103,1050021,,,,,,,2022-03-28,1,,,,,ケイバジョウホウコウセイトリヒキキョウギカイ,0
1022,5010503006546,新規,0,2022-03-28,2022-03-28,ＭｏｍｅｎｔＦｏｒｍｓ合同会社,,合同会社,東京都,台東区,浅草橋３丁目２７－１０ヴィルドミール浅草橋４０５,,13,106,1110053,,,,,,,2022-03-28,1,,,,,モーメントフォームズ,0
1023,5010601060890,新規,0,2022-03-28,2022-03-28,４ブリーズ株式会社,,株式会社,東京都,江東区,北砂３丁目１１番６号,,13,108,1360073,,,,,,,2022-03-28,1,,,,,フォーブリーズ,0
1027,5010801032830,新規,0,2022-03-28,2022-03-28,株式会社ルミエール,,株式会社,東京都,大田区,南千束２丁目１７番１号,,13,111,1450063,,,,,,,2022-03-28,1,,,,,ルミエール,0
1033,5010901050575,新規,0,2022-03-28,2022-03-28,株式会社Ｓｏｍａ,,株式会社,東京都,世田谷区,豪徳寺２丁目１１番２号,,13,112,1540021,,,,,,,2022-03-28,1,,,,,ソーマ,0
1037,5011001146545,新規,0,2022-03-28,2022-03-28,株式会社ＲｅｌｉｅＦｏｏｄ,,株式会社,東京都,渋谷区,神宮前６丁目２３番４号桑野ビル２Ｆ,,13,113,1500001,,,,,,,2022-03-28,1,,,,,リリーフード,0
1038,5011003014403,新規,0,2022-03-28,2022-03-28,Ｓｍｉｌｅｅ　Ｅｎｔｅｒｔａｉｎｍｅｎｔ合同会社,,合同会社,東京都,渋谷区,神南１丁目１１番３号ＰＯＲＴＡＬ－ＰＯＩＮＴ－ＳＨＩＢＵＹＡ－ＦＤ－１１,,13,113,1500041,,,,,,,2022-03-28,1,,,,,スマイリーエンターテイメント,0
1069,5020001145820,新規,0,2022-03-28,2022-03-28,株式会社ＮＥＯＲＩＡ,,株式会社,神奈川県,川崎市幸区,新小倉２番１－７０１号,,14,132,2120031,,,,,,,2022-03-28,1,,,,,ネオリア,0
1076,5030001147428,新規,0,2022-03-28,2022-03-28,株式会社ＮＯＣＳ,,株式会社,埼玉県,八潮市,大字木曽根８８０番地５エスポアール２－２０５,,11,234,3400813,,,,,,,2022-03-28,1,,,,,ノックス,0
1087,5040003019756,新規,0,2022-03-28,2022-03-28,合同会社ケアプランいち,,合同会社,千葉県,千葉市美浜区,幕張西１丁目１５－４,,12,106,2610026,,,,,,,2022-03-28,1,,,,,ケアプランイチ,0
1090,5050001050852,新規,0,2022-03-28,2022-03-28,株式会社芋之助,,株式会社,茨城県,日立市,鮎川町６丁目７番２５号,,08,202,3160036,,,,,,,2022-03-28,1,,,,,イモノスケ,0
1091,5050005013038,新規,0,2022-03-28,2022-03-28,一般社団法人自由と地図,,その他の設立登記法人,茨城県,常陸太田市,大平町８６２番地の２４グレースヒルズＩＩ２０１号,00126083,08,212,3130124,,,,,,,2022-03-28,1,,,,,ジユウトチズ,0
1093,5060003003997,新規,0,2022-03-28,2022-03-28,合同会社石田消防設備,,合同会社,栃木県,宇都宮市,東原町２１番１０号,,09,201,3210168,,,,,,,2022-03-28,1,,,,,イシダショウボウセツビ,0
1094,5070003004433,新規,0,2022-03-28,2022-03-28,合同会社設備環境保全,,合同会社,群馬県,高崎市,下豊岡町１４１７番地７,,10,202,3700873,,,,,,,2022-03-28,1,,,,,セツビカンキョウホゼン,0
1099,5080105006236,新規,0,2022-03-28,2022-03-28,一般社団法人静岡県フェンシング協会,,その他の設立登記法人,静岡県,沼津市,市場町２１番１号,,22,203,4100831,,,,,,,2022-03-28,1,,,,,シズオカケンフェンシングキョウカイ,0
1121,5120001244661,新規,0,2022-03-28,2022-03-28,株式会社ランパート,,株式会社,大阪府,大阪市北区,大深町３－４０,,27,127,5300011,,,,,,,2022-03-28,1,,,,,ランパート,0
1122,5120001244694,新規,0,2022-03-28,2022-03-28,澤瑞株式会社,,株式会社,大阪府,大阪市淀川区,西三国１丁目１１番２号,,27,123,5320006,,,,,,,2022-03-28,1,,,,,サワミズ,0
1123,5120001244711,新規,0,2022-03-28,2022-03-28,株式会社ＳＵＳＵＭＵＢＩＴＯ,,株式会社,大阪府,大阪市北区,大淀北１丁目５番２９－６０７号,,27,127,5310077,,,,,,,2022-03-28,1,,,,,ススムビト,0
1125,5120003021324,新規,0,2022-03-28,2022-03-28,ＨＹ　Ａｄｖｉｓｏｒｙ　Ｊａｐａｎ合同会社,,合同会社,大阪府,大阪市北区,梅田１丁目２番２号大阪駅前第２ビル２階５‐６号室,,27,127,5300001,,,,,,,2022-03-28,1,,,,,エイチワイアドバイザリージャパン,0
1126,5120003021349,新規,0,2022-03-28,2022-03-28,Ｃａｔｎａｐ合同会社,,合同会社,大阪府,大阪市住之江区,浜口東２丁目１２－５－４０３,,27,125,5590002,,,,,,,2022-03-28,1,,,,,キャットナップ,0
1127,5120003021357,新規,0,2022-03-28,2022-03-28,Ｍ３　Ｓｔｒｉｖｅ合同会社,,合同会社,大阪府,大阪市西区,南堀江４丁目３１－５－２４１０,,27,106,5500015,,,,,,,2022-03-28,1,,,,,エムスリーストライブ,0
1129,5120901045754,新規,0,2022-03-28,2022-03-28,株式会社安冨不動産,,株式会社,大阪府,豊中市,緑丘４丁目５番１２の１号,,27,203,5600002,,,,,,,2022-03-28,1,,,,,ヤストミフドウサン,0
1140,5130003007834,新規,0,2022-03-28,2022-03-28,Ｚｙｒａｆａ　Ｉｎｖｅｓｔｍｅｎｔ合同会社,,合同会社,京都府,京都市中京区,御池通東洞院東入笹屋町４３６永和御池ビル６０６号,,26,104,6048187,,,,,,,2022-03-28,1,,,,,ジラファインベストメント,0
1142,5140001125372,新規,0,2022-03-28,2022-03-28,Ｂｕ株式会社,,株式会社,兵庫県,姫路市,白浜町甲２２０３番地４－１０２号,,28,201,6728023,,,,,,,2022-03-28,1,,,,,ビーユー,0
1143,5140001125380,新規,0,2022-03-28,2022-03-28,株式会社マイビスター,,株式会社,兵庫県,神戸市垂水区,小束山本町２丁目３０番１号,,28,108,6550003,,,,,,,2022-03-28,1,,,,,マイビスター,0
1146,5140003017502,新規,0,2022-03-28,2022-03-28,合同会社クラック,,合同会社,兵庫県,神戸市中央区,中山手通１丁目８－２０三宮ＳＫビル３０３,,28,110,6500004,,,,,,,2022-03-28,1,,,,,クラック,0
1148,5160001024069,新規,0,2022-03-28,2022-03-28,ＲＧＢ株式会社,,株式会社,滋賀県,大津市,唐崎４丁目１０番１０－１０２号,,25,201,5200106,,,,,,,2022-03-28,1,,,,,,0
1153,5180001150490,新規,0,2022-03-28,2022-03-28,株式会社輝総業,,株式会社,愛知県,あま市,甚目寺飛殿４８番地１,,23,237,4901111,,,,,,,2022-03-28,1,,,,,カガヤキソウギョウ,0
1158,5180301036051,新規,0,2022-03-28,2022-03-28,株式会社ＨＲＤ,,株式会社,愛知県,みよし市,福谷町清水道２０番地１,,23,236,4700207,,,,,,,2022-03-28,1,,,,,エッチアールディ,0
1159,5190003003935,新規,0,2022-03-28,2022-03-28,坂部家合同会社,,合同会社,三重県,津市,久居新町３００６番地ポルタ久居北館１１１１号室,,24,201,5141118,,,,,,,2022-03-28,1,,,,,サカベヤ,0
1163,5210003001481,新規,0,2022-03-28,2022-03-28,合同会社カノン,,合同会社,福井県,福井市,上中町第２４号１３番地,,18,201,9100826,,,,,,,2022-03-28,1,,,,,カノン,0
1174,5240001059511,新規,0,2022-03-28,2022-03-28,株式会社ｎｉｃｏ．,,株式会社,広島県,東広島市,高屋町杵原１５７３,,34,212,7392102,,,,,,,2022-03-28,1,,,,,ニコ,0
1183,5290001096954,新規,0,2022-03-28,2022-03-28,株式会社Ｒｅ　ｖａ　Ｃａｒｅ,,株式会社,福岡県,福岡市早良区,小田部５丁目１２番９号,,40,137,8140032,,,,,,,2022-03-28,1,,,,,リバケア,0
1186,5290003012323,新規,0,2022-03-28,2022-03-28,黒瀬工務店合同会社,,合同会社,福岡県,久留米市,国分町６番地,,40,203,8390863,,,,,,,2022-03-28,1,,,,,クロセコウムテン,0
1189,5330001029570,新規,0,2022-03-28,2022-03-28,株式会社ＥＧＣ,,株式会社,熊本県,玉名市,大浜町３５９８番地４,,43,206,8650055,,,,,,,2022-03-28,1,,,,,イージーシー,0
1190,5330001029579,新規,0,2022-03-28,2022-03-28,株式会社ＳＡＫＡＴＡ,,株式会社,熊本県,合志市,野々島５３９２番地４,,43,216,8611103,,,,,,,2022-03-28,1,,,,,サカタ,0
1195,5350001017648,新規,0,2022-03-28,2022-03-28,株式会社ＡＯＹデザイン,,株式会社,宮崎県,都城市,高崎町大牟田６１１２番地,,45,202,8894505,,,,,,,2022-03-28,1,,,,,エーオーワイデザイン,0
1199,5370001048352,新規,0,2022-03-28,2022-03-28,ＹＯＬＯ・ＹＯＬＯ株式会社,,株式会社,宮城県,大崎市,古川幸町２丁目５番１７号,,04,215,9896106,,,,,,,2022-03-28,1,,,,,ヨロヨロ,0
1200,5370001048360,新規,0,2022-03-28,2022-03-28,ＶＯＯＭ株式会社,,株式会社,宮城県,仙台市宮城野区,榴岡３丁目６番３０号エクセレントエイト１０１,,04,102,9830852,,,,,,,2022-03-28,1,,,,,ブーム,0
1203,5370003005632,新規,0,2022-03-28,2022-03-28,合同会社ユニバース,,合同会社,宮城県,仙台市青葉区,赤坂２丁目３１番地の２,,04,101,9893211,,,,,,,2022-03-28,1,,,,,ユニバース,0
1211,5400003002915,新規,0,2022-03-28,2022-03-28,合同会社アトレ,,合同会社,岩手県,盛岡市,盛岡駅西通１丁目９番３－４０６号,,03,201,0200045,,,,,,,2022-03-28,1,,,,,アトレ,0
1217,5430003013744,新規,0,2022-03-28,2022-03-28,ＴＭサービス合同会社,,合同会社,北海道,札幌市中央区,南九条西１０丁目１番４０－６０６号,,01,101,0640809,,,,,,,2022-03-28,1,,,,,ティエムサービス,0
1221,5500001024083,新規,0,2022-03-28,2022-03-28,まごころ不動産株式会社,,株式会社,愛媛県,松山市,南斎院町２６３番地１,,38,201,7918032,,,,,,,2022-03-28,1,,,,,マゴコロフドウサン,0
1222,5500003002797,新規,0,2022-03-28,2022-03-28,合同会社愛媛プラントデザイン,,合同会社,愛媛県,西条市,港２１４,,38,206,7930046,,,,,,,2022-03-28,1,,,,,エヒメプラントデザイン,0
1223,5700150097281,新規,0,2022-03-28,2020-01-06,剣南学童のびのびクラブ,,その他,福岡県,鞍手郡鞍手町,大字小牧２１１９－５,,40,402,8071311,,,,,,,2020-01-06,1,,,,,ツルギミナミガクドウノビノビクラブ,0
1228,6010001225449,新規,0,2022-03-28,2022-03-28,ＬＩＢＲＡ株式会社,,株式会社,東京都,中央区,銀座４丁目１３番８号岩藤ビル５Ｆ,,13,102,1040061,,,,,,,2022-03-28,1,,,,,リブラ,0
1229,6010001225457,新規,0,2022-03-28,2022-03-28,株式会社オーシャン,,株式会社,東京都,千代田区,九段北１丁目９番１３号ミライズレジデンシャル九段１１０１号,,13,101,1020073,,,,,,,2022-03-28,1,,,,,オーシャン,0
1232,6010101015114,新規,0,2022-03-28,2022-03-28,株式会社ＥＶＥＮＮ,,株式会社,東京都,八王子市,西寺方町４４５番地１,,13,201,1920153,,,,,,,2022-03-28,1,,,,,イーブン,0
1235,6010401166350,新規,0,2022-03-28,2022-03-28,株式会社Ｍｅｔａ　Ｌｉｆｅ　Ｃｏｒｐｏｒａｔｉｏｎ,,株式会社,東京都,港区,六本木１丁目６－１泉ガーデンタワー１０階,,13,103,1060032,,,,,,,2022-03-28,1,,,,,メタライフコーポレーション,0
1236,6010401166367,新規,0,2022-03-28,2022-03-28,ＯＰＩ・１６株式会社,,株式会社,東京都,港区,浜松町２丁目４番１号,,13,103,1050013,,,,,,,2022-03-28,1,,,,,オーピーアイシックスティーン,0
1237,6010401166391,新規,0,2022-03-28,2022-03-28,株式会社エンドウ商会,,株式会社,東京都,港区,赤坂３丁目２１番８号,,13,103,1070052,,,,,,,2022-03-28,1,,,,,エンドウショウカイ,0
1238,6010401166400,新規,0,2022-03-28,2022-03-28,株式会社カトス,,株式会社,東京都,港区,芝浦４丁目２０番２号芝浦アイランドブルームタワー３８２０,,13,103,1080023,,,,,,,2022-03-28,1,,,,,カトス,0
1239,6010401166409,新規,0,2022-03-28,2022-03-28,あかさた株式会社,,株式会社,東京都,港区,西麻布１丁目４番２０号,,13,103,1060031,,,,,,,2022-03-28,1,,,,,アカサタ,0
1240,6010401166425,新規,0,2022-03-28,2022-03-28,株式会社Ｎ‐ｐｏｗｅｒ,,株式会社,東京都,港区,芝２丁目１０番２－１００１号,,13,103,1050014,,,,,,,2022-03-28,1,,,,,エヌパワー,0
1241,6010403027294,新規,0,2022-03-28,2022-03-28,ＣＲＥＡ合同会社,,合同会社,東京都,港区,南青山２丁目２番１５号,,13,103,1070062,,,,,,,2022-03-28,1,,,,,クレア,0
1242,6010403027352,新規,0,2022-03-28,2022-03-28,合同会社Ｐｅａｒｌ　Ｃａｐ,,合同会社,東京都,港区,虎ノ門５丁目１番４号,,13,103,1050001,,,,,,,2022-03-28,1,,,,,パールキャップ,0
1243,6010403027360,新規,0,2022-03-28,2022-03-28,勝どきマネジメント合同会社,,合同会社,東京都,港区,六本木１丁目６番１号泉ガーデンタワー,,13,103,1060032,,,,,,,2022-03-28,1,,,,,カチドキマネジメント,0
1244,6010405020842,新規,0,2022-03-28,2022-03-28,一般社団法人Ｓｉｉｓ,,その他の設立登記法人,東京都,港区,南青山２丁目２番１５号,,13,103,1070062,,,,,,,2022-03-28,1,,,,,シーズ,0
1251,6010801032838,新規,0,2022-03-28,2022-03-28,株式会社エスケーワイパートナーズ,,株式会社,東京都,大田区,大森北５丁目１６番１－２０１号,,13,111,1430016,,,,,,,2022-03-28,1,,,,,エスケーワイパートナーズ,0
1253,6010901050574,新規,0,2022-03-28,2022-03-28,株式会社ＳＬＢ,,株式会社,東京都,世田谷区,北烏山１丁目２５番９号,,13,112,1570061,,,,,,,2022-03-28,1,,,,,エスエルビー,0
1258,6011001146461,新規,0,2022-03-28,2022-03-28,株式会社ＣＡＴＡＬ,,株式会社,東京都,渋谷区,代官山町９－１０ｃｏ－ｌａｂ５Ｒ０１,,13,113,1500034,,,,,,,2022-03-28,1,,,,,カタル,0
1259,6011001146503,新規,0,2022-03-28,2022-03-28,株式会社ａｄｄＤ,,株式会社,東京都,渋谷区,円山町５番５号Ｎａｖｉ渋谷Ｖ３階,,13,113,1500044,,,,,,,2022-03-28,1,,,,,アッド,0
1260,6011001146552,新規,0,2022-03-28,2022-03-28,株式会社バズシップ,,株式会社,東京都,渋谷区,神宮前６丁目２３番４号桑野ビル２階,,13,113,1500001,,,,,,,2022-03-28,1,,,,,バズシップ,0
1263,6011003014138,新規,0,2022-03-28,2022-03-28,ｏ．ｒ　ｐｒｉｖａｔｅ　ｐｏｎｄ合同会社,,合同会社,東京都,目黒区,上目黒１丁目６－７ｌｆｉｓ中目黒ビル５０２,,13,110,1530051,,,,,,,2022-03-28,1,,,,,オーアールプライベートポンド,0
1264,6011003014410,新規,0,2022-03-28,2022-03-28,合同会社ＳＯＬＥＡＤＯ,,合同会社,東京都,目黒区,中目黒３丁目１１番３号リベルテ中目黒２０２,,13,110,1530061,,,,,,,2022-03-28,1,,,,,ソレアド,0
1265,6011003014419,新規,0,2022-03-28,2022-03-28,壱山合同会社,,合同会社,東京都,渋谷区,道玄坂１丁目１０番８号渋谷道玄坂東急ビル２Ｆ－Ｃ,,13,113,1500043,,,,,,,2022-03-28,1,,,,,イチヤマ,0
1269,6011101098289,新規,0,2022-03-28,2022-03-28,株式会社ミグロー,,株式会社,東京都,新宿区,新宿５丁目３番４－１２０５号,,13,104,1600022,,,,,,,2022-03-28,1,,,,,ミグロー,0
1276,6011401024127,新規,0,2022-03-28,2022-03-28,株式会社ＰＥＡＫＳ＆ＴＲＥＥＳ,,株式会社,東京都,板橋区,南常盤台１丁目１１番６号レフア南常盤台１０１,,13,119,1740072,,,,,,,2022-03-28,1,,,,,ピークスアンドツリース,0
1279,6011403003608,新規,0,2022-03-28,2022-03-28,三美日佳合同会社,,合同会社,東京都,板橋区,板橋１丁目５４－７,,13,119,1730004,,,,,,,2022-03-28,1,,,,,ミヨシヒカ,0
1287,6011701025155,新規,0,2022-03-28,2022-03-28,株式会社冒険者ギルド,,株式会社,東京都,江戸川区,南小岩２丁目５番１６号,,13,123,1330056,,,,,,,2022-03-28,1,,,,,ボウケンシャギルド,0
1288,6011701025163,新規,0,2022-03-28,2022-03-28,株式会社金山建設,,株式会社,東京都,江戸川区,松江７丁目２８番３号,,13,123,1320025,,,,,,,2022-03-28,1,,,,,カネヤマケンセツ,0
1295,6013301048866,新規,0,2022-03-28,2022-03-28,万佳株式会社,,株式会社,東京都,豊島区,巣鴨５丁目３８番５号グランドパレス２０５号室,,13,116,1700002,,,,,,,2022-03-28,1,,,,,マンカ,0
1299,6020001145811,新規,0,2022-03-28,2022-03-28,株式会社ＳＴＹＬＥ　Ｐｒｏｍｏｔｉｏｎ,,株式会社,神奈川県,横浜市泉区,和泉中央北１丁目１７番３４号,,14,116,2450024,,,,,,,2022-03-28,1,,,,,スタイルプロモーション,0
1301,6020003021507,新規,0,2022-03-28,2022-03-28,合同会社横浜アソシエイツクラブ,,合同会社,神奈川県,横浜市磯子区,洋光台５丁目４番２４－１０１号,,14,107,2350045,,,,,,,2022-03-28,1,,,,,ヨコハマアソシエイツクラブ,0
1312,6040001122734,新規,0,2022-03-28,2022-03-28,株式会社ＬＩＮＫ,,株式会社,千葉県,鎌ケ谷市,西佐津間１丁目１９番３０号,,12,224,2730134,,,,,,,2022-03-28,1,,,,,リンク,0
1316,6050001050843,新規,0,2022-03-28,2022-03-28,株式会社ＲＥＩＷＡ,,株式会社,茨城県,石岡市,北府中１丁目５番６１号,,08,205,3150012,,,,,,,2022-03-28,1,,,,,レイワ,0
1317,6050003006455,新規,0,2022-03-28,2022-03-28,アイオーテック合同会社,,合同会社,茨城県,土浦市,富士崎２丁目５番２２号,,08,203,3000813,,,,,,,2022-03-28,1,,,,,アイオーテック,0
1323,6060003003988,新規,0,2022-03-28,2022-03-28,Ｄｉｇｉｔａｌ　Ｃｌａｉｍｅｒｓ合同会社,,合同会社,栃木県,足利市,小俣町３１４０番地１,,09,202,3260141,,,,,,,2022-03-28,1,,,,,デジタルクレイマーズ,0
1326,6080101023176,新規,0,2022-03-28,2022-03-28,株式会社かものはし,,株式会社,静岡県,熱海市,上多賀９６６番地の２３,,22,205,4130101,,,,,,,2022-03-28,1,,,,,カモノハシ,0
1329,6080105006235,新規,0,2022-03-28,2022-03-28,医療法人社団武真会,,その他の設立登記法人,静岡県,富士市,松本３７２番地の８、１階,,22,210,4160903,,,,,,,2022-03-28,1,,,,,ブシンカイ,0
1343,6120001244652,新規,0,2022-03-28,2022-03-28,華信株式会社,,株式会社,大阪府,大阪市中央区,瓦町４丁目３－１４御堂アーバンライフ８０７号室,,27,128,5410048,,,,,,,2022-03-28,1,,,,,カシン,0
1344,6120001244660,新規,0,2022-03-28,2022-03-28,株式会社Ｂｒｏｗ　Ｅｓｔａｔｅ,,株式会社,大阪府,大阪市西区,江戸堀１丁目２３番１９号,,27,106,5500002,,,,,,,2022-03-28,1,,,,,ブロウエステート,0
1345,6120001244669,新規,0,2022-03-28,2022-03-28,Ｏｆｆｉｃｅ　Ｋｅｎｔａ株式会社,,株式会社,大阪府,枚方市,伊加賀西町５８番２４号,,27,210,5730066,,,,,,,2022-03-28,1,,,,,オフィスケンタ,0
1346,6120001244677,新規,0,2022-03-28,2022-03-28,銀世界株式会社,,株式会社,大阪府,大阪市浪速区,芦原１丁目１番７号フォレスト難波西１階,00126069,27,111,5560029,,,,,,,2022-03-28,1,,,,,ギンセカイ,0
1347,6120001244685,新規,0,2022-03-28,2022-03-28,株式会社ＰＥＮＥＣＯＺＹ,,株式会社,大阪府,大阪市西淀川区,柏里３丁目１２番２９号,,27,113,5550022,,,,,,,2022-03-28,1,,,,,ペネコジ,0
1348,6120001244727,新規,0,2022-03-28,2022-03-28,株式会社プラチナムインベストメント,,株式会社,大阪府,大阪市浪速区,元町１丁目４番２２－１０７号,,27,111,5560016,,,,,,,2022-03-28,1,,,,,プラチナムインベストメント,0
1351,6120003021307,新規,0,2022-03-28,2022-03-28,合同会社カーサー,,合同会社,大阪府,大阪市浪速区,桜川３丁目５番６号アークハイム川島２０２号,,27,111,5560022,,,,,,,2022-03-28,1,,,,,カーサー,0
1352,6120003021348,新規,0,2022-03-28,2022-03-28,ＡＫＩ合同会社,,合同会社,大阪府,大阪市生野区,新今里４丁目２番１３号今里駅前２階店舗,,27,116,5440001,,,,,,,2022-03-28,1,,,,,アキ,0
1358,6130003007833,新規,0,2022-03-28,2022-03-28,合同会社ＳＬＡＹ,,合同会社,京都府,京都市右京区,太秦堀池町５５番地１７,,26,108,6168186,,,,,,,2022-03-28,1,,,,,スレイ,0
1375,6190003003934,新規,0,2022-03-28,2022-03-28,合同会社ロングライフ,,合同会社,三重県,四日市市,あがたが丘２丁目６番地５,,24,202,5121202,,,,,,,2022-03-28,1,,,,,ロングライフ,0
1383,6220001024763,新規,0,2022-03-28,2022-03-28,株式会社シン設備,,株式会社,石川県,能美市,和光台１丁目４０番地,,17,211,9231227,,,,,,,2022-03-28,1,,,,,シン,0
1387,6240003005561,新規,0,2022-03-28,2022-03-28,合同会社Ｏ．Ｎ．Ｏ,,合同会社,広島県,福山市,本町７番２５号,,34,207,7200056,,,,,,,2022-03-28,1,,,,,オーエヌオー,0
1388,6250001019471,新規,0,2022-03-28,2022-03-28,株式会社恒翔,,株式会社,山口県,宇部市,大字妻崎開作字作一四一五ノ割１６３５－１０,,35,202,7590204,,,,,,,2022-03-28,1,,,,,コウショウ,0
1393,6260003003852,新規,0,2022-03-28,2022-03-28,合同会社ＲＯＫＵＳＰＯＲＴＳ,,合同会社,岡山県,倉敷市,連島中央３丁目２番２７号,,33,202,7128014,,,,,,,2022-03-28,1,,,,,ロクスポーツ,0
1394,6260005011052,新規,0,2022-03-28,2022-03-28,ＩＰＭ協同組合,,その他の設立登記法人,岡山県,倉敷市,船穂町水江１３３１番地,,33,202,7100262,,,,,,,2022-03-28,1,,,,,アイピーエム,0
1402,6310001017782,新規,0,2022-03-28,2022-03-28,株式会社ＵＮ‐ＳｕＩ,,株式会社,長崎県,雲仙市,瑞穂町西郷辛４９８番地３,,42,213,8591206,,,,,,,2022-03-28,1,,,,,ウンスイ,0
1404,6330001029578,新規,0,2022-03-28,2022-03-28,株式会社桃藏,,株式会社,熊本県,熊本市中央区,上林町３－４９ｓｕｎｅａｓｔビル２０３,,43,101,8600847,,,,,,,2022-03-28,1,,,,,モモクラ,0
1408,6350001017647,新規,0,2022-03-28,2022-03-28,株式会社竜昭,,株式会社,宮崎県,都城市,上川東２丁目１４号７番地メゾンパークＢ１０１,,45,202,8850012,,,,,,,2022-03-28,1,,,,,リュウショウ,0
1412,6360001030178,新規,0,2022-03-28,2022-03-28,株式会社ＧＭ商事,,株式会社,沖縄県,那覇市,字天久８０５番地１天久第６マンション７０３号,,47,201,9000005,,,,,,,2022-03-28,1,,,,,ジーエムショウジ,0
1420,6370003005631,新規,0,2022-03-28,2022-03-28,パーフェクトフリー合同会社,,合同会社,宮城県,仙台市青葉区,藤松７番１１号,,04,101,9810921,,,,,,,2022-03-28,1,,,,,パーフェクトフリー,0
1429,6390001016835,新規,0,2022-03-28,2022-03-28,株式会社サンファクトリー,,株式会社,山形県,山形市,大字見崎５０番地,,06,201,9900803,,,,,,,2022-03-28,1,,,,,サンファクトリー,0
1440,6430003013743,新規,0,2022-03-28,2022-03-28,ビヨンドイレブン合同会社,,合同会社,北海道,札幌市厚別区,厚別東四条７丁目３０－５　１Ｆ,,01,108,0040004,,,,,,,2022-03-28,1,,,,,ビヨンドイレブン,0
1441,6430003013751,新規,0,2022-03-28,2022-03-28,合同会社オレオス札幌,,合同会社,北海道,札幌市豊平区,中の島二条１１丁目２番２号,,01,105,0620922,,,,,,,2022-03-28,1,,,,,オレオスサッポロ,0
1444,6450001013644,新規,0,2022-03-28,2022-03-28,株式会社ドットエル,,株式会社,北海道,旭川市,豊岡七条３丁目５番２０号エスティフローラＩＩ３０３号室,00126082,01,204,0788237,,,,,,,2022-03-28,1,,,,,ドットエル,0
1445,6450003002190,新規,0,2022-03-28,2022-03-28,合同会社太田漁業部,,合同会社,北海道,宗谷郡猿払村,浜鬼志別１０２１番地１,,01,511,0986222,,,,,,,2022-03-28,1,,,,,オオタギョギョウブ,0
1450,6500001024082,新規,0,2022-03-28,2022-03-28,アグリシステム株式会社,,株式会社,愛媛県,松山市,古川南３丁目２２番２５号,,38,201,7900943,,,,,,,2022-03-28,1,,,,,アグリシステム,0
1455,7010001225448,新規,0,2022-03-28,2022-03-28,２３株式会社,,株式会社,東京都,千代田区,神田錦町２丁目７乾ビル６Ｆ,,13,101,1010054,,,,,,,2022-03-28,1,,,,,フミ,0
1456,7010001225472,新規,0,2022-03-28,2022-03-28,株式会社Ｒｅｖｏ,,株式会社,東京都,中央区,銀座２丁目４番１８号,,13,102,1040061,,,,,,,2022-03-28,1,,,,,レボ,0
1457,7010003037338,新規,0,2022-03-28,2022-03-28,合同会社ルミエール,,合同会社,東京都,千代田区,麹町３丁目１２番地６,,13,101,1020083,,,,,,,2022-03-28,1,,,,,ルミエール,0
1466,7010401166003,新規,0,2022-03-28,2022-03-28,株式会社ＳＯＵＴＨ　ＶＩＬＬＡＧＥ,,株式会社,東京都,港区,六本木４丁目１１－１１ＧＭビル８階,,13,103,1060032,,,,,,,2022-03-28,1,,,,,サウスヴィレッジ,0
1467,7010401166358,新規,0,2022-03-28,2022-03-28,マイクロテックジャパン株式会社,,株式会社,東京都,港区,港南２丁目３番１号大信秋山ビル３Ｆ３０５号,,13,103,1080075,,,,,,,2022-03-28,1,,,,,マイクロテックジャパン,0
1468,7010401166399,新規,0,2022-03-28,2022-03-28,株式会社シトロン,,株式会社,東京都,港区,芝浦４丁目２０番２号芝浦アイランドブルームタワー３８２０,,13,103,1080023,,,,,,,2022-03-28,1,,,,,シトロン,0
1469,7010401166440,新規,0,2022-03-28,2022-03-28,株式会社ＭＪＧＳ,,株式会社,東京都,港区,浜松町１丁目３－１浜離宮ザ・タワー３階,,13,103,1050013,,,,,,,2022-03-28,1,,,,,エムジェイジーエス,0
1473,7010505003300,新規,0,2022-03-28,2022-03-28,一般社団法人Ｊｅｓｕｓ　Ｔｏ　Ｊａｐａｎ,,その他の設立登記法人,東京都,台東区,東上野５丁目１１－９,,13,106,1100015,,,,,,,2022-03-28,1,,,,,ジーザスツゥジャパン,0
1475,7010903007258,新規,0,2022-03-28,2022-03-28,合同会社ＢＴＭ,,合同会社,東京都,世田谷区,大原２丁目１３番４号フルール大原１０２号室,,13,112,1560041,,,,,,,2022-03-28,1,,,,,ビーティーエム,0
1478,7011001146502,新規,0,2022-03-28,2022-03-28,株式会社ｄｏｔＹ,,株式会社,東京都,渋谷区,渋谷２丁目１９－１５宮益坂ビルディング６０９,,13,113,1500002,,,,,,,2022-03-28,1,,,,,ドットワイ,0
1479,7011001146543,新規,0,2022-03-28,2022-03-28,ＣＥＯパートナー株式会社,,株式会社,東京都,渋谷区,代々木５丁目５５番１２号Ｐａｒｋ・Ｌｉｔｕｒｉｎ・Ｓａｎｇｕｂａｓｈｉ４０２,,13,113,1510053,,,,,,,2022-03-28,1,,,,,シーイーオーパートナー,0
1480,7011001146568,新規,0,2022-03-28,2022-03-28,株式会社Ｅ‐ＨＯＵＳＩＮＧ,,株式会社,東京都,渋谷区,神宮前１丁目５－８神宮前タワービルディング１４Ｆ７号室,,13,113,1500001,,,,,,,2022-03-28,1,,,,,イーハウジング,0
1482,7011005009515,新規,0,2022-03-28,2022-03-28,Ａｍａｔｅｒａｓｕ監査法人,,その他の設立登記法人,東京都,渋谷区,恵比寿２丁目２８番７号,,13,113,1500013,,,,,,,2022-03-28,1,,,,,,0
1487,7011101098271,新規,0,2022-03-28,2022-03-28,株式会社ＲｉｃｏＲ,,株式会社,東京都,新宿区,下落合２丁目１０－１０コンシェリア目白３１０号室,,13,104,1610033,,,,,,,2022-03-28,1,,,,,リコア,0
1488,7011101098288,新規,0,2022-03-28,2022-03-28,株式会社Ｓｍａｒｔ　Ｐｒｏｃｅｓｓ,,株式会社,東京都,新宿区,西新宿１丁目４番１１号全研プラザビルＳＰＡＣＥＳ新宿,,13,104,1600023,,,,,,,2022-03-28,1,,,,,スマートプロセス,0
1490,7011103011604,新規,0,2022-03-28,2022-03-28,合同会社ネード,,合同会社,東京都,新宿区,歌舞伎町１丁目１１－１０三経４２ビル５Ｆ,,13,104,1600021,,,,,,,2022-03-28,1,,,,,ネード,0
1491,7011401024118,新規,0,2022-03-28,2022-03-28,ファイブスプリング株式会社,,株式会社,東京都,板橋区,中丸町９番１－７０２号三島ビル中丸町住宅,,13,119,1730026,,,,,,,2022-03-28,1,,,,,ファイブスプリング,0
1492,7011501027879,新規,0,2022-03-28,2022-03-28,サクラダライフデザイン株式会社,,株式会社,東京都,北区,東十条４丁目４番１５－２０１号,,13,117,1140001,,,,,,,2022-03-28,1,,,,,サクラダライフデザイン,0
1496,7011701025162,新規,0,2022-03-28,2022-03-28,株式会社アリス,,株式会社,東京都,江戸川区,西葛西７丁目２９番１４－３０６号,,13,123,1340088,,,,,,,2022-03-28,1,,,,,アリス,0
1497,7011703003100,新規,0,2022-03-28,2022-03-28,恒栄合同会社,,合同会社,東京都,江戸川区,上一色１丁目８番２１号長谷川ビル１Ｆ,,13,123,1330041,,,,,,,2022-03-28,1,,,,,コウエイ,0
1500,7011801040490,新規,0,2022-03-28,2022-03-28,株式会社ｔｄｏ,,株式会社,東京都,葛飾区,西水元１丁目４番１１号,,13,122,1250031,,,,,,,2022-03-28,1,,,,,ティーディーオー,0
1504,7013301048865,新規,0,2022-03-28,2022-03-28,ブライトビジョン株式会社,,株式会社,東京都,豊島区,高松１丁目１６番９号,,13,116,1710042,,,,,,,2022-03-28,1,,,,,ブライトビジョン,0
1508,7020001145810,新規,0,2022-03-28,2022-03-28,株式会社伎芸,,株式会社,神奈川県,横浜市港南区,港南６丁目７番３８号エムズフラットＩＶＤ号室,00126070,14,111,2330003,,,,,,,2022-03-28,1,,,,,ギゲイ,0
1509,7020001145819,新規,0,2022-03-28,2022-03-28,斉藤海事建設株式会社,,株式会社,神奈川県,横浜市南区,南太田１丁目３８番９号,,14,105,2320006,,,,,,,2022-03-28,1,,,,,サイトウカイジケンセツ,0
1513,7020005015431,新規,0,2022-03-28,2022-03-28,ＮＰＯ法人レインボーインターナショナルサポート,,その他の設立登記法人,神奈川県,横浜市緑区,霧が丘３丁目２４番地霧が丘グリーンタウン７－３０２,,14,113,2260016,,,,,,,2022-03-28,1,,,,,レインボーインターナショナルサポート,0
1523,7030001147392,新規,0,2022-03-28,2022-03-28,株式会社ジョイ・スプリング,,株式会社,埼玉県,川口市,西川口１丁目５番２０号メビウスビル４階８号室,,11,203,3320021,,,,,,,2022-03-28,1,,,,,ジョイスプリング,0
1525,7030003019078,新規,0,2022-03-28,2022-03-28,合同会社カーコレクションいろは,,合同会社,埼玉県,越谷市,大字大里４９４番地７,,11,222,3430031,,,,,,,2022-03-28,1,,,,,,0
1526,7030003019103,新規,0,2022-03-28,2022-03-28,合同会社麦,,合同会社,埼玉県,さいたま市浦和区,仲町４丁目２番１４号掛川ビル３階,,11,107,3300062,,,,,,,2022-03-28,1,,,,,ムギ,0
1531,7040003019762,新規,0,2022-03-28,2022-03-28,合同会社インテリアサービス佐久間,,合同会社,千葉県,千葉市緑区,椎名崎町２９６,,12,105,2660016,,,,,,,2022-03-28,1,,,,,インテリアサービスサクマ,0
1533,7050001050834,新規,0,2022-03-28,2022-03-28,株式会社Ｎ‐ｓｔｙｌｅ,,株式会社,茨城県,小美玉市,羽鳥１３９番地,,08,236,3190123,,,,,,,2022-03-28,1,,,,,エヌスタイル,0
1538,7080003002764,新規,0,2022-03-28,2022-03-28,合同会社Ｌｉｖｅ　ｍｅ,,合同会社,静岡県,静岡市駿河区,広野２丁目２－２０クレストＩ２０２,00126071,22,102,4210121,,,,,,,2022-03-28,1,,,,,リヴミー,0
1539,7080101023175,新規,0,2022-03-28,2022-03-28,ＹＩホールディングス株式会社,,株式会社,静岡県,富士市,大渕３８００番地の１６,,22,210,4170000,,,,,,,2022-03-28,1,,,,,ワイアイホールディングス,0
1546,7100001035193,新規,0,2022-03-28,2022-03-28,株式会社ぷくぷく,,株式会社,長野県,飯田市,山本２５５１番地２,,20,205,3950244,,,,,,,2022-03-28,1,,,,,プクプク,0
1551,7110003004724,新規,0,2022-03-28,2022-03-28,合同会社フリーウェイ,,合同会社,新潟県,新潟市西区,五十嵐２の町７４９２番地１６８,,15,107,9502102,,,,,,,2022-03-28,1,,,,,フリーウェイ,0
1562,7120001244585,新規,0,2022-03-28,2022-03-28,株式会社ＣＡＬＭＯ防音,,株式会社,大阪府,大阪市淀川区,西三国１丁目７－７ＥＳ新大阪１階,,27,123,5320006,,,,,,,2022-03-28,1,,,,,カルモボウオン,0
1563,7120001244668,新規,0,2022-03-28,2022-03-28,吉森商事株式会社,,株式会社,大阪府,大阪市生野区,巽西３丁目１７番２３号,00126076,27,116,5440012,,,,,,,2022-03-28,1,,,,,ヨシモリショウジ,0
1564,7120001244726,新規,0,2022-03-28,2022-03-28,ＨＥＸＡ株式会社,,株式会社,大阪府,大阪市旭区,新森６丁目１１番２７号,,27,117,5350022,,,,,,,2022-03-28,1,,,,,ヘキサ,0
1565,7120001244742,新規,0,2022-03-28,2022-03-28,ＬＵＩＢＥ株式会社,,株式会社,大阪府,大阪市中央区,島之内２丁目５番２７号リーゼ島之内６０２号室,,27,128,5420082,,,,,,,2022-03-28,1,,,,,ルイベ,0
1569,7120003021322,新規,0,2022-03-28,2022-03-28,合同会社ＣＨＥＱＲＯ,,合同会社,大阪府,大阪市北区,天神橋３丁目１０番１７号,,27,127,5300041,,,,,,,2022-03-28,1,,,,,チェックロ,0
1572,7120101065287,新規,0,2022-03-28,2022-03-28,株式会社真海,,株式会社,大阪府,堺市南区,高尾２丁４１９－４,,27,145,5900157,,,,,,,2022-03-28,1,,,,,シンカイ,0
1573,7122001035709,新規,0,2022-03-28,2022-03-28,Ｘ‐ｓｅｌｅｃｔ株式会社,,株式会社,大阪府,東大阪市,柏田西１丁目１０番６号,,27,227,5770835,,,,,,,2022-03-28,1,,,,,エックスセレクト,0
1585,7140001125379,新規,0,2022-03-28,2022-03-28,株式会社ＩＳＭ,,株式会社,兵庫県,尼崎市,崇徳院２丁目１６４番地の６ＧＴレジデンス１号室,,28,202,6600071,,,,,,,2022-03-28,1,,,,,アイエスエム,0
1586,7140001125387,新規,0,2022-03-28,2022-03-28,株式会社フジ・サンロジスティクス,,株式会社,兵庫県,丹波市,市島町矢代３７７番地１,,28,223,6694342,,,,,,,2022-03-28,1,,,,,フジサンロジスティクス,0
1589,7140005026094,新規,0,2022-03-28,2022-03-28,医療法人社団Ｓ＆Ｊ,,その他の設立登記法人,兵庫県,明石市,魚住町錦が丘４丁目５番地１駅前ＮＳビル２階,,28,203,6740081,,,,,,,2022-03-28,1,,,,,エスアンドジェイ,0
1600,7180001150530,新規,0,2022-03-28,2022-03-28,エース物流株式会社,,株式会社,愛知県,名古屋市中川区,服部２丁目１００２番地,,23,110,4540976,,,,,,,2022-03-28,1,,,,,エースブツリュウ,0
1601,7180001150547,新規,0,2022-03-28,2022-03-28,株式会社Ｍａｄｒｅ,,株式会社,愛知県,名古屋市中区,栄４丁目１５番１９号（プレサンスロジェ栄ザ・レジデンス５０２号）,,23,106,4600008,,,,,,,2022-03-28,1,,,,,マドレー,0
1602,7180001150571,新規,0,2022-03-28,2022-03-28,株式会社トミタホールディングス,,株式会社,愛知県,名古屋市西区,牛島町２番５号,,23,104,4510046,,,,,,,2022-03-28,1,,,,,トミタホールディングス,0
1609,7200005013318,新規,0,2022-03-28,2022-03-28,一般社団法人岐阜県日本探査協会,,その他の設立登記法人,岐阜県,不破郡垂井町,表佐８９８番地,,21,361,5032122,,,,,,,2022-03-28,1,,,,,ギフケンニホンタンサキョウカイ,0
1611,7220001024762,新規,0,2022-03-28,2022-03-28,Ｇｏｏｄ＆Ｌ企画株式会社,,株式会社,石川県,小松市,細工町７６番地７サンクラシック細工町３０３,,17,203,9230915,,,,,,,2022-03-28,1,,,,,グッドアンドエルキカク,0
1615,7230003001825,新規,0,2022-03-28,2022-03-28,合同会社オリナス,,合同会社,富山県,富山市,婦中町砂子田８６番地１,,16,201,9392727,,,,,,,2022-03-28,1,,,,,オリナス,0
1618,7240001059501,新規,0,2022-03-28,2022-03-28,真西創業株式会社,,株式会社,広島県,福山市,神村町１０６３番地１,,34,207,7290112,,,,,,,2022-03-28,1,,,,,シンセイソウギョウ,0
1621,7250001019470,新規,0,2022-03-28,2022-03-28,株式会社Ｒｅ．Ｒ,,株式会社,山口県,山口市,宮野上１６３番地１,,35,203,7530001,,,,,,,2022-03-28,1,,,,,リアール,0
1622,7260001036671,新規,0,2022-03-28,2022-03-28,株式会社ＲＩＥＮＳ,,株式会社,岡山県,岡山市北区,富田町２丁目９－３－１,,33,101,7000816,,,,,,,2022-03-28,1,,,,,リエンス,0
1629,7290001096911,新規,0,2022-03-28,2022-03-28,株式会社ストーク産業,,株式会社,福岡県,福岡市東区,二又瀬１７－２０,,40,131,8120066,,,,,,,2022-03-28,1,,,,,ストークサンギョウ,0
1631,7290801028378,新規,0,2022-03-28,2022-03-28,株式会社大渡工業,,株式会社,福岡県,田川市,大字伊田１９６番地,,40,206,8250002,,,,,,,2022-03-28,1,,,,,オオワタリコウギョウ,0
1634,7330001029569,新規,0,2022-03-28,2022-03-28,株式会社ＨＳＰ,,株式会社,熊本県,玉名市,大浜町３５９８番地４,,43,206,8650055,,,,,,,2022-03-28,1,,,,,エイチエスピー,0
1635,7330001029577,新規,0,2022-03-28,2022-03-28,株式会社イッシイノベーション,,株式会社,熊本県,熊本市東区,画図町大字下無田１１５９番地１,,43,102,8620945,,,,,,,2022-03-28,1,,,,,イッシイノベーション,0
1637,7360003011893,新規,0,2022-03-28,2022-03-28,合同会社ＮＥＯＢＬＵＥ,,合同会社,沖縄県,那覇市,辻２丁目２１番７号,00126068,47,201,9000037,,,,,,,2022-03-28,1,,,,,ネオブルー,0
1640,7370003005622,新規,0,2022-03-28,2022-03-28,合同会社キリーク,,合同会社,宮城県,仙台市太白区,山田本町２６番３０－５０１号,,04,104,9820816,,,,,,,2022-03-28,1,,,,,キリーク,0
1641,7370003005630,新規,0,2022-03-28,2022-03-28,ピンクダイヤ合同会社,,合同会社,宮城県,仙台市青葉区,藤松７番１１号,,04,101,9810921,,,,,,,2022-03-28,1,,,,,ピンクダイヤ,0
1653,7380003005134,新規,0,2022-03-28,2022-03-28,ＨＩＤＡＫＡ合同会社,,合同会社,福島県,会津若松市,七日町２番４０号,,07,202,9650044,,,,,,,2022-03-28,1,,,,,ヒダカ,0
1661,7430003013742,新規,0,2022-03-28,2022-03-28,合同会社ｕｌｔｉｍａｔｅ,,合同会社,北海道,札幌市中央区,南六条西７丁目１番地１,,01,101,0640806,,,,,,,2022-03-28,1,,,,,アルティメット,0
1667,7500001024081,新規,0,2022-03-28,2022-03-28,株式会社ワールドフーズ,,株式会社,愛媛県,松山市,福音寺町２２８番地２５,,38,201,7900921,,,,,,,2022-03-28,1,,,,,ワールドフーズ,0
1668,7700150107518,新規,0,2022-03-28,2022-03-28,ＨｕｍｂｅｒＣｏｌｌｅｇｅ,,外国会社等,,,,,,,,２０５ＨｕｍｂｅｒＣｏｌｌｅｇｅＢｌｖｄ，　Ｅｔｏｂｉｃｏｋｅ，　ＯＮ　Ｍ９Ｗ　５Ｌ７，　Ｃａｎａｄａ,,,,,,2022-03-28,1,,,,,ハンバーカレツジ,0
1671,8010001225447,新規,0,2022-03-28,2022-03-28,株式会社アネジー,,株式会社,東京都,中央区,銀座１丁目２２番１１号銀座大竹ビジデンス２階,,13,102,1040061,,,,,,,2022-03-28,1,,,,,アネジー,0
1672,8010001225496,新規,0,2022-03-28,2022-03-28,株式会社Ｌｕｕｍ,,株式会社,東京都,文京区,本郷３丁目１４番１２－６０２号,,13,105,1130033,,,,,,,2022-03-28,1,,,,,ルーム,0
1676,8010003037337,新規,0,2022-03-28,2022-03-28,合同会社エリコト,,合同会社,東京都,中央区,勝どき６丁目３番２－３００３号,,13,102,1040054,,,,,,,2022-03-28,1,,,,,エリコト,0
1677,8010003037345,新規,0,2022-03-28,2022-03-28,合同会社トラストテック,,合同会社,東京都,中央区,銀座１丁目２２－１１銀座大竹ビジデンス２Ｆ,,13,102,1040061,,,,,,,2022-03-28,1,,,,,トラストテック,0
1683,8010401166357,新規,0,2022-03-28,2022-03-28,株式会社Ｍｅｔａ　Ｓｔｏｃｋ,,株式会社,東京都,港区,芝５丁目２６番２４号田町スクエア１Ｆ,,13,103,1080014,,,,,,,2022-03-28,1,,,,,メタストック,0
1684,8010401166373,新規,0,2022-03-28,2022-03-28,株式会社ＰＭＪホールディング,,株式会社,東京都,港区,南青山２丁目１１番１１号ユニマットハイダウェイ５階,,13,103,1070062,,,,,,,2022-03-28,1,,,,,ピーエムジェイホールディング,0
1685,8010403027350,新規,0,2022-03-28,2022-03-28,ＥＣＵ　Ｍｅｍｂｅｒｓ合同会社,,合同会社,東京都,港区,台場２丁目２番２－３３０５号,,13,103,1350091,,,,,,,2022-03-28,1,,,,,エキュメンバーズ,0
1686,8010403027359,新規,0,2022-03-28,2022-03-28,勝どきプロパティ２合同会社,,合同会社,東京都,港区,六本木１丁目６番１号泉ガーデンタワー,,13,103,1060032,,,,,,,2022-03-28,1,,,,,カチドキプロパティツー,0
1687,8010405020840,新規,0,2022-03-28,2022-03-28,医療法人社団晴明会,,その他の設立登記法人,東京都,港区,南麻布４丁目１３番２号麻布高橋ビル２階,,13,103,1060047,,,,,,,2022-03-28,1,,,,,セイメイカイ,0
1689,8010501048629,新規,0,2022-03-28,2022-03-28,凡希丁子株式会社,,株式会社,東京都,台東区,松が谷４丁目２７－１５,,13,106,1110036,,,,,,,2022-03-28,1,,,,,ボンキテイシ,0
1690,8010505003299,新規,0,2022-03-28,2022-03-28,特定非営利活動法人つがる伝承会,,その他の設立登記法人,東京都,台東区,松が谷１丁目１１番３号志村ビル２０１,,13,106,1110036,,,,,,,2022-03-28,1,,,,,ツガルデンショウカイ,0
1696,8010903007257,新規,0,2022-03-28,2022-03-28,合同会社アクティブライフ,,合同会社,東京都,世田谷区,北沢３丁目２１番６号サンライズ下北沢２０１,,13,112,1550031,,,,,,,2022-03-28,1,,,,,アクティブライフ,0
1702,8011001146526,新規,0,2022-03-28,2022-03-28,株式会社ＣＯＴＵＣＯＴＵ,,株式会社,東京都,渋谷区,渋谷２丁目１９番１５号宮益坂ビルディング６０９,,13,113,1500002,,,,,,,2022-03-28,1,,,,,コツコツ,0
1703,8011001146542,新規,0,2022-03-28,2022-03-28,ＡＳ　Ｂｒｉｄｇｅ株式会社,,株式会社,東京都,渋谷区,恵比寿西２丁目１９番９号,,13,113,1500021,,,,,,,2022-03-28,1,,,,,エーエスブリッジ,0
1705,8011003014227,新規,0,2022-03-28,2022-03-28,合同会社広,,合同会社,東京都,渋谷区,神宮前６丁目２３番４号桑野ビル２階,,13,113,1500001,,,,,,,2022-03-28,1,,,,,コウ,0
1706,8011003014409,新規,0,2022-03-28,2022-03-28,合同会社エテルナ,,合同会社,東京都,目黒区,目黒本町２丁目２２番１号ウェスト清水池コーポ３０１,,13,110,1520002,,,,,,,2022-03-28,1,,,,,エテルナ,0
1710,8011101098270,新規,0,2022-03-28,2022-03-28,株式会社イピロス,,株式会社,東京都,新宿区,大久保１丁目１１番２号,,13,104,1690072,,,,,,,2022-03-28,1,,,,,イピロス,0
1711,8011101098279,新規,0,2022-03-28,2022-03-28,株式会社ＧＲＯＷＩＮＧ,,株式会社,東京都,新宿区,新宿５丁目１１番１号,,13,104,1600022,,,,,,,2022-03-28,1,,,,,グローイング,0
1712,8011101098287,新規,0,2022-03-28,2022-03-28,ＳＯＲＡ株式会社,,株式会社,東京都,新宿区,下落合１丁目１０番７－５０８号,,13,104,1610033,,,,,,,2022-03-28,1,,,,,ソラ,0
1713,8011103011603,新規,0,2022-03-28,2022-03-28,ＴＨＡＮＨ　ＨＵＹＥＮ合同会社,,合同会社,東京都,新宿区,高田馬場４丁目２８番１８号鈴木ビル２階,,13,104,1690075,,,,,,,2022-03-28,1,,,,,タインフェン,0
1723,8011401024125,新規,0,2022-03-28,2022-03-28,恒興リサイクル株式会社,,株式会社,東京都,板橋区,蓮根２丁目３１番２３号,,13,119,1740046,,,,,,,2022-03-28,1,,,,,コウコウリサイクル,0
1728,8011701025161,新規,0,2022-03-28,2022-03-28,恒源株式会社,,株式会社,東京都,江戸川区,平井５丁目２０番１３－４０５号欣志ビル,,13,123,1320035,,,,,,,2022-03-28,1,,,,,コウゲン,0
1731,8011801040498,新規,0,2022-03-28,2022-03-28,Ｂｅｎｓａｐ　Ｊａｐａｎ株式会社,,株式会社,東京都,葛飾区,新小岩２丁目７番２号３－Ａ,,13,122,1240024,,,,,,,2022-03-28,1,,,,,ベンサップジャパン,0
1733,8012401039014,新規,0,2022-03-28,2022-03-28,インフルエンサーＤ株式会社,,株式会社,東京都,三鷹市,下連雀３丁目２７－２フィル・パーク三鷹駅前２階,,13,204,1810013,,,,,,,2022-03-28,1,,,,,インフルエンサーディー,0
1734,8012701017000,新規,0,2022-03-28,2022-03-28,株式会社Ｐｌｕｓ　Ｎｉｎｅ,,株式会社,東京都,東村山市,萩山町１丁目８番地１２クローバーハイツ３Ｆ,,13,213,1890012,,,,,,,2022-03-28,1,,,,,プラスナイン,0
1738,8013305003329,新規,0,2022-03-28,2022-03-28,一般社団法人ヒューマンエナジー,,その他の設立登記法人,東京都,豊島区,東池袋４丁目３７番９号,,13,116,1700013,,,,,,,2022-03-28,1,,,,,,0
1741,8020001145826,新規,0,2022-03-28,2022-03-28,株式会社ドルフリーブ,,株式会社,神奈川県,横浜市西区,浅間町４丁目３４１番地１２パシフィック横浜５０２号,,14,103,2200072,,,,,,,2022-03-28,1,,,,,ドルフリーブ,0
1756,8030001147409,新規,0,2022-03-28,2022-03-28,株式会社こうじ家,,株式会社,埼玉県,朝霞市,栄町１丁目７番１号,,11,227,3510012,,,,,,,2022-03-28,1,,,,,コウジヤ,0
1762,8030003019011,新規,0,2022-03-28,2022-03-28,合同会社ＰＵＬＬＥＹ,,合同会社,埼玉県,坂戸市,仲町１４－１３－２０２,,11,239,3500227,,,,,,,2022-03-28,1,,,,,プーリー,0
1763,8030003019093,新規,0,2022-03-28,2022-03-28,メディカルファーマコンサルティング合同会社,,合同会社,埼玉県,さいたま市緑区,大字大門２５２９番地１,,11,109,3360963,,,,,,,2022-03-28,1,,,,,メディカルファーマコンサルティング,0
1772,8040003019761,新規,0,2022-03-28,2022-03-28,ヘルスマネジメントツール合同会社,,合同会社,千葉県,浦安市,美浜１丁目５番３１３号,,12,227,2790011,,,,,,,2022-03-28,1,,,,,ヘルスマネジメントツール,0
1774,8050003006453,新規,0,2022-03-28,2022-03-28,合同会社ＲＭＧ　ＥＮＴＥＲＰＲＩＳＥＳ,,合同会社,茨城県,北相馬郡利根町,大字早尾５００番地２４７,,08,564,3001631,,,,,,,2022-03-28,1,,,,,アールエムジーエンタープライゼス,0
1777,8080005007439,新規,0,2022-03-28,2022-03-28,一般社団法人ＳＨＩＺＵＬＯＧ,,その他の設立登記法人,静岡県,焼津市,小川２５３８番地の２,,22,212,4250033,,,,,,,2022-03-28,1,,,,,シズログ,0
1778,8080101023158,新規,0,2022-03-28,2022-03-28,株式会社ＫＥＩＰ,,株式会社,静岡県,裾野市,佐野８９７番地の１,,22,220,4101118,,,,,,,2022-03-28,1,,,,,ケイプ,0
1803,8120001244642,新規,0,2022-03-28,2022-03-28,ＬＡＧＩ８６株式会社,,株式会社,大阪府,大阪市西成区,天下茶屋２丁目７番１号,,27,122,5570014,,,,,,,2022-03-28,1,,,,,ラギエイティシックス,0
1804,8120001244659,新規,0,2022-03-28,2022-03-28,株式会社グディーズライフ,,株式会社,大阪府,大阪市中央区,南本町１丁目３番９号,,27,128,5410054,,,,,,,2022-03-28,1,,,,,グディーズライフ,0
1805,8120001244691,新規,0,2022-03-28,2022-03-28,株式会社龍騰,,株式会社,大阪府,大阪市住吉区,長居西４－１５－２０第二紀和マンション１０６,,27,120,5580000,,,,,,,2022-03-28,1,,,,,リュウトウ,0
1811,8120003021338,新規,0,2022-03-28,2022-03-28,合同会社ジョイエイト,,合同会社,大阪府,大阪市浪速区,大国２丁目９番２－４０３号,,27,111,5560014,,,,,,,2022-03-28,1,,,,,ジョイエイト,0
1816,8120101065286,新規,0,2022-03-28,2022-03-28,株式会社ｐｌａｔｚ,,株式会社,大阪府,堺市中区,新家町６７６－１,,27,142,5998232,,,,,,,2022-03-28,1,,,,,プラッツ,0
1822,8130005016418,新規,0,2022-03-28,2022-03-28,一般社団法人Ｙ’ｓ　Ａｓｓｏｃｉａｔｅｓ,,その他の設立登記法人,京都府,京都市下京区,室町通五条下る大黒町２０３,,26,106,6008161,,,,,,,2022-03-28,1,,,,,ワイズアソシエイツ,0
1825,8140001125386,新規,0,2022-03-28,2022-03-28,株式会社ＳＧＲ,,株式会社,兵庫県,西宮市,大谷町１１番３３－２０９号,,28,204,6620054,,,,,,,2022-03-28,1,,,,,エスジーアール,0
1829,8140003017499,新規,0,2022-03-28,2022-03-28,大垣建材合同会社,,合同会社,兵庫県,宍粟市,山崎町高下６４３番地,,28,227,6712565,,,,,,,2022-03-28,1,,,,,オオガキケンザイ,0
1835,8180001150505,新規,0,2022-03-28,2022-03-28,株式会社ＧＴデザイン,,株式会社,愛知県,名古屋市守山区,天子田２丁目８１２番地,,23,113,4630037,,,,,,,2022-03-28,1,,,,,ジーティーデザイン,0
1836,8180001150546,新規,0,2022-03-28,2022-03-28,株式会社ラタナコーシン,,株式会社,愛知県,名古屋市西区,城西４丁目３０番１３号－２,,23,104,4510031,,,,,,,2022-03-28,1,,,,,ラタナコーシン,0
1837,8180001150562,新規,0,2022-03-28,2022-03-28,ＡＴ　ｃｏｎｖｅｙ株式会社,,株式会社,愛知県,長久手市,久保山１３１２番地コアー２０２号,,23,238,4801151,,,,,,,2022-03-28,1,,,,,アットコンヴェイ,0
1842,8180003023650,新規,0,2022-03-28,2022-03-28,光明商事合同会社,,合同会社,愛知県,名古屋市北区,山田北町２丁目３３番地ライオンズガーデン大曽根１４０１号,,23,103,4620811,,,,,,,2022-03-28,1,,,,,コウメイショウジ,0
1843,8180005019696,新規,0,2022-03-28,2022-03-28,一般社団法人ハッピー譲渡会,,その他の設立登記法人,愛知県,名古屋市中区,伊勢山１丁目８－６ソネットホンダ４階,,23,106,4600026,,,,,,,2022-03-28,1,,,,,ハッピージョウトカイ,0
1852,8230005009213,新規,0,2022-03-28,2022-03-28,一般社団法人Ｔｅｅｎａ　Ｌｉｇｈｔ,,その他の設立登記法人,富山県,中新川郡立山町,利田１８６番地１５,,16,323,9300275,,,,,,,2022-03-28,1,,,,,テーナライト,0
1854,8240001059500,新規,0,2022-03-28,2022-03-28,ユルソンリソース株式会社,,株式会社,広島県,広島市南区,向洋新町３丁目１３番２８号,,34,103,7340055,,,,,,,2022-03-28,1,,,,,ユルソンリソース,0
1855,8240001059509,新規,0,2022-03-28,2022-03-28,株式会社Ｈｏｐｅ　Ｗｉｎｇ　Ｈｏｒｓｅ,,株式会社,広島県,安芸高田市,甲田町上甲立１５６１番地２,,34,214,7391104,,,,,,,2022-03-28,1,,,,,ホープウィングホース,0
1874,8320003003761,新規,0,2022-03-28,2022-03-28,合同会社カムイミンタラ,,合同会社,大分県,由布市,湯布院町川上３３１番地６７,,44,213,8795102,,,,,,,2022-03-28,1,,,,,カムイミンタラ,0
1878,8330001029568,新規,0,2022-03-28,2022-03-28,株式会社ＳＣＲ,,株式会社,熊本県,玉名市,大浜町３５９８番地１,,43,206,8650055,,,,,,,2022-03-28,1,,,,,エスクリー,0
1883,8360003011892,新規,0,2022-03-28,2022-03-28,合同会社上江洲物産,,合同会社,沖縄県,豊見城市,字豊見城１００７－３エンゼルハイム豊見城城跡公園６０９号,,47,212,9010241,,,,,,,2022-03-28,1,,,,,ウエズブッサン,0
1888,8370001048358,新規,0,2022-03-28,2022-03-28,株式会社ＲＡＩＺＵ,,株式会社,宮城県,多賀城市,大代５丁目１４番２号,,04,209,9850832,,,,,,,2022-03-28,1,,,,,ライズ,0
1900,8430001086277,新規,0,2022-03-28,2022-03-28,ＡＬＯＴ株式会社,,株式会社,北海道,札幌市北区,北十条西３丁目２３番地１ＴＨＥ　ＰＥＡＫ　ＳＡＰＰＯＲＯ１Ｆ,,01,102,0010010,,,,,,,2022-03-28,1,,,,,アロット,0
1901,8430001086285,新規,0,2022-03-28,2022-03-28,株式会社未来,,株式会社,北海道,札幌市東区,北五十一条東６丁目４番１８号,,01,103,0070851,,,,,,,2022-03-28,1,,,,,ミライ,0
1909,8700150005506,新規,0,2022-03-28,2015-10-09,日本紅茶協会,,その他,東京都,港区,東新橋２丁目８－５,,13,103,1050021,,,,,,,2015-10-09,1,,,,,ニホンコウチヤキヨウカイ,0
1910,8700150039603,新規,0,2022-03-28,2015-10-09,中里町自然農法研究会,,その他,青森県,北津軽郡中泊町,大字中里字宝森３４０－１,,02,387,0370305,,,,,,,2015-10-09,1,,,,,ナカサトマチシゼンノウホウケンキユウカイ,0
1911,8700150105553,新規,0,2022-03-28,2021-10-29,がんばろうすすきの実行委員会,,その他,北海道,札幌市中央区,南七条西４丁目２－５ＬＣ七番館２階,,01,101,0640807,,,,,,,2021-10-29,1,,,,,ガンバロウススキノジツコウイインカイ,0
1912,8700150107517,新規,0,2022-03-28,2022-03-28,Ｓ＆ＳＹＳ　Ｃｏ．，　Ｌｔｄ　日本駐在員連絡事務所,,外国会社等,東京都,港区,西新橋１丁目１５－６内幸町企画ビル８Ｆ,,13,103,1050003,７Ｆ，　８３０，　Ｄｏｎｇｔａｎｓｕｎｈｗａｎ－ｄａｅｒｏ，　Ｈｗａｓｅｏｎｇ－ｓｉ，　Ｇｙｅｏｎｇｇｉ－ｄｏ，　Ｋｏｒｅａ,,,,,,2022-03-28,1,,,,,エスアンドシスコーポレーシヨンリミテツドニホンチユウザイインレンラクジムシヨ,0
1920,9010003037344,新規,0,2022-03-28,2022-03-28,シャドーシティ合同会社,,合同会社,東京都,千代田区,神田佐久間町３丁目２１番地５ヒガシカンダビル３０７号,,13,101,1010025,,,,,,,2022-03-28,1,,,,,シャドーシティ,0
1924,9010401166331,新規,0,2022-03-28,2022-03-28,カレイドクルー株式会社,,株式会社,東京都,港区,南麻布３丁目２０番１号Ｄａｉｗａ麻布テラス５Ｆ,,13,103,1060047,,,,,,,2022-03-28,1,,,,,カレイドクルー,0
1925,9010401166389,新規,0,2022-03-28,2022-03-28,株式会社エッグプライド,,株式会社,東京都,港区,新橋２丁目１６番１号ニュー新橋ビル７０４－Ｂ,,13,103,1050004,,,,,,,2022-03-28,1,,,,,エッグプライド,0
1926,9010401166422,新規,0,2022-03-28,2022-03-28,加古川ヒューストン株式会社,,株式会社,東京都,港区,六本木７丁目１１番９号ミッドタウンＴビル２階,,13,103,1060032,,,,,,,2022-03-28,1,,,,,カコガワヒューストン,0
1927,9010401166430,新規,0,2022-03-28,2022-03-28,コンパシオーネ株式会社,,株式会社,東京都,港区,赤坂２丁目２１番４号４０７,,13,103,1070052,,,,,,,2022-03-28,1,,,,,コンパシオーネ,0
1932,9010403027358,新規,0,2022-03-28,2022-03-28,勝どきプロパティ１合同会社,,合同会社,東京都,港区,六本木１丁目６番１号泉ガーデンタワー,,13,103,1060032,,,,,,,2022-03-28,1,,,,,カチドキプロパティワン,0
1939,9010603009461,新規,0,2022-03-28,2022-03-28,Ｎｅｗ　Ｂｕｓｉｎｅｓｓ　Ｄｅｖｅｌｏｐｍｅｎｔ合同会社,,合同会社,東京都,墨田区,亀沢３丁目１３－４－７０１,,13,107,1300014,,,,,,,2022-03-28,1,,,,,ニュービジネスデベロップメント,0
1941,9010801032835,新規,0,2022-03-28,2022-03-28,ｌｉｇｈｔｈｏｕｓｅ株式会社,,株式会社,東京都,大田区,東雪谷１丁目８番４－１０３号,,13,111,1450065,,,,,,,2022-03-28,1,,,,,ライトハウス,0
1947,9011001146517,新規,0,2022-03-28,2022-03-28,株式会社イチロクザンニ,,株式会社,東京都,渋谷区,神宮前６丁目２３番４号桑野ビル２階,,13,113,1500001,,,,,,,2022-03-28,1,,,,,イチロクザンニ,0
1948,9011001146541,新規,0,2022-03-28,2022-03-28,ｆｅｅｅｄ株式会社,,株式会社,東京都,渋谷区,道玄坂１丁目１０番８号渋谷道玄坂東急ビル２Ｆ－Ｃ,,13,113,1500043,,,,,,,2022-03-28,1,,,,,フィード,0
1950,9011003014408,新規,0,2022-03-28,2022-03-28,合同会社ＡＬＴＥＲＮＡＴＥ,,合同会社,東京都,渋谷区,道玄坂１丁目１０番８号渋谷道玄坂東急ビル２Ｆ－Ｃ,,13,113,1500043,,,,,,,2022-03-28,1,,,,,オルタネイト,0
1951,9011005009513,新規,0,2022-03-28,2022-03-28,ウィルデザイン行政書士法人,,その他の設立登記法人,東京都,渋谷区,千駄ヶ谷５丁目２９番１１号６０２号室,,13,113,1510051,,,,,,,2022-03-28,1,,,,,ウィルデザイン,0
1955,9011101098286,新規,0,2022-03-28,2022-03-28,株式会社グロサポ,,株式会社,東京都,新宿区,新宿１丁目３６番２号新宿第七葉山ビル３階,,13,104,1600022,,,,,,,2022-03-28,1,,,,,グロサポ,0
1957,9011301027664,新規,0,2022-03-28,2022-03-28,株式会社Ｇｏｏｔａｎ,,株式会社,東京都,杉並区,久我山３丁目２４番２２号,,13,115,1680082,,,,,,,2022-03-28,1,,,,,グータン,0
1974,9013301048863,新規,0,2022-03-28,2022-03-28,株式会社ＴＷＯ　ＳＩＳＴＥＲＳ,,株式会社,東京都,豊島区,高田３丁目５番１７－３０８号,,13,116,1710033,,,,,,,2022-03-28,1,,,,,トゥーシスターズ,0
1977,9020001145833,新規,0,2022-03-28,2022-03-28,株式会社ジャステック,,株式会社,神奈川県,川崎市川崎区,昭和１丁目２番２－２０１号,,14,131,2100813,,,,,,,2022-03-28,1,,,,,ジャステック,0
1980,9020005015438,新規,0,2022-03-28,2022-03-28,医療法人ＤＭＣ,,その他の設立登記法人,神奈川県,横浜市金沢区,大道１丁目４７番９号２階,,14,108,2360035,,,,,,,2022-03-28,1,,,,,ディーエムシー,0
1982,9021001075500,新規,0,2022-03-28,2022-03-28,株式会社和コーポレーション,,株式会社,神奈川県,大和市,下鶴間７１２番地５,,14,213,2420001,,,,,,,2022-03-28,1,,,,,ヤマトコーポレーション,0
1986,9030001147176,新規,0,2022-03-28,2022-03-28,株式会社アルマジード,,株式会社,埼玉県,入間郡三芳町,大字上富８０２番地７,,11,324,3540045,,,,,,,2022-03-28,1,,,,,アルマジード,0
1987,9030001147366,新規,0,2022-03-28,2022-03-28,株式会社ｏｒｅｎｏｍｉｓｅ,,株式会社,埼玉県,川口市,東川口５丁目６番２４－５０１号ルモン東川口壱番館,,11,203,3330801,,,,,,,2022-03-28,1,,,,,オレノミセ,0
1988,9030001147408,新規,0,2022-03-28,2022-03-28,株式会社パラメディック,,株式会社,埼玉県,新座市,東３丁目１番１７号,,11,230,3520002,,,,,,,2022-03-28,1,,,,,パラメディック,0
1989,9030001147416,新規,0,2022-03-28,2022-03-28,株式会社宝英トラスト,,株式会社,埼玉県,入間市,大字下藤沢５９１番地２６,,11,225,3580011,,,,,,,2022-03-28,1,,,,,ホウエイトラスト,0
1990,9030001147432,新規,0,2022-03-28,2022-03-28,株式会社関口工務店,,株式会社,埼玉県,さいたま市桜区,大字五関４５１番地１４,,11,106,3380815,,,,,,,2022-03-28,1,,,,,セキグチコウムテン,0
2003,9040003019728,新規,0,2022-03-28,2022-03-28,合同会社ＭＳＹ　ＣＯＮＮＥＣＴ,,合同会社,千葉県,千葉市稲毛区,園生町９０２番地１ビラ園生２０５号,,12,103,2630051,,,,,,,2022-03-28,1,,,,,エムエスワイコネクト,0
2006,9050001050849,新規,0,2022-03-28,2022-03-28,株式会社ＯＳＡＫＩ　ＩＮＴＥＲＮＡＴＩＯＮＡＬ,,株式会社,茨城県,古河市,諸川１０２６番地４－１０３,,08,204,3060126,,,,,,,2022-03-28,1,,,,,オサキインターナショナル,0
2013,9070005009963,新規,0,2022-03-28,2022-03-28,一般社団法人日越ぐんま友好協会,,その他の設立登記法人,群馬県,伊勢崎市,中央町２５番地２２,,10,204,3720042,,,,,,,2022-03-28,1,,,,,ニチエツグンマユウコウキョウカイ,0
2015,9080001024825,新規,0,2022-03-28,2022-03-28,株式会社木戸工業,,株式会社,静岡県,島田市,岸町９５番地,,22,209,4270005,,,,,,,2022-03-28,1,,,,,キドコウギョウ,0
2016,9080005007438,新規,0,2022-03-28,2022-03-28,一般社団法人オクシズベース,,その他の設立登記法人,静岡県,静岡市葵区,平野２１番地,,22,101,4212306,,,,,,,2022-03-28,1,,,,,オクシズベース,0
2019,9080103002555,新規,0,2022-03-28,2022-03-28,合同会社りぐふる,,合同会社,静岡県,賀茂郡西伊豆町,宇久須１４２５番地の１,,22,306,4103501,,,,,,,2022-03-28,1,,,,,リグフル,0
2023,9100001035191,新規,0,2022-03-28,2022-03-28,エムエスワークス株式会社,,株式会社,長野県,長野市,柳町１番地２・２階Ａ号室,,20,201,3800805,,,,,,,2022-03-28,1,,,,,エムエスワークス,0
2034,9120001244674,新規,0,2022-03-28,2022-03-28,Ｒｅｇａｔｈｅｒ株式会社,,株式会社,大阪府,大阪市中央区,松屋町９番２０号ローレルステート松屋町８０８Ａ,,27,128,5420067,,,,,,,2022-03-28,1,,,,,リギャザー,0
2035,9120001244690,新規,0,2022-03-28,2022-03-28,ＳＫハウジング株式会社,,株式会社,大阪府,大阪市東住吉区,矢田２丁目２２番６号,,27,121,5460023,,,,,,,2022-03-28,1,,,,,エスケーハウジング,0
2036,9120001244708,新規,0,2022-03-28,2022-03-28,株式会社Ｓｏｄａｍ,,株式会社,大阪府,大阪市生野区,小路１丁目２３番１４号,,27,116,5440002,,,,,,,2022-03-28,1,,,,,ソダム,0
2037,9120001244716,新規,0,2022-03-28,2022-03-28,株式会社ＭＯＲＥグループ,,株式会社,大阪府,大阪市淀川区,新北野１丁目１３番４－４０１号,,27,123,5320025,,,,,,,2022-03-28,1,,,,,モアグループ,0
2038,9120001244724,新規,0,2022-03-28,2022-03-28,株式会社ディープシー,,株式会社,大阪府,大阪市天王寺区,南河堀町１番１２号ディモール天王寺,,27,109,5430054,,,,,,,2022-03-28,1,,,,,ディープシー,0
2040,9120003021329,新規,0,2022-03-28,2022-03-28,ＤＡＲＵＭＡ合同会社,,合同会社,大阪府,大阪市西成区,天下茶屋２丁目１４番１３号,,27,122,5570014,,,,,,,2022-03-28,1,,,,,ダルマ,0
2041,9120003021345,新規,0,2022-03-28,2022-03-28,合同会社スマイルプラス,,合同会社,大阪府,大阪市北区,天満３丁目５番６号サカエマンション３０１号室,,27,127,5300043,,,,,,,2022-03-28,1,,,,,スマイルプラス,0
2042,9120003021353,新規,0,2022-03-28,2022-03-28,ＭＬ‐ＴＶ合同会社,,合同会社,大阪府,大阪市生野区,勝山北５丁目４－１３－２Ｆ,,27,116,5440033,,,,,,,2022-03-28,1,,,,,エムエルティヴィ,0
2046,9120901045767,新規,0,2022-03-28,2022-03-28,株式会社成光,,株式会社,大阪府,高槻市,唐崎北１丁目２６番４号,,27,207,5690831,,,,,,,2022-03-28,1,,,,,セイコウ,0
2054,9140001125385,新規,0,2022-03-28,2022-03-28,株式会社中村商事,,株式会社,兵庫県,豊岡市,出石町町分３５５番地,,28,209,6680221,,,,,,,2022-03-28,1,,,,,ナカムラショウジ,0
2059,9170001017027,新規,0,2022-03-28,2022-03-28,畦智建設株式会社,,株式会社,和歌山県,東牟婁郡古座川町,川口２２６番地,,30,424,6494223,,,,,,,2022-03-28,1,,,,,アゼチケンセツ,0
2063,9180001150561,新規,0,2022-03-28,2022-03-28,株式会社ＣｏｏＮＥＸＴ,,株式会社,愛知県,名古屋市昭和区,長戸町２丁目９番地（長戸住宅２０１号）,,23,107,4660848,,,,,,,2022-03-28,1,,,,,クーネクスト,0
2072,9220003003250,新規,0,2022-03-28,2022-03-28,合同会社ＲＳＢ,,合同会社,石川県,河北郡津幡町,字加賀爪ホ２９７番地,,17,361,9290325,,,,,,,2022-03-28,1,,,,,アールエスビー,0
2086,9290001096942,新規,0,2022-03-28,2022-03-28,株式会社クラスデザイン,,株式会社,福岡県,大川市,大字向島１６６３番地１,,40,212,8310005,,,,,,,2022-03-28,1,,,,,クラスデザイン,0
2087,9290001096950,新規,0,2022-03-28,2022-03-28,株式会社Ｎｏｖａｖｉａ,,株式会社,福岡県,福岡市中央区,天神１丁目９番１７号福岡天神フコク生命ビル１５階,,40,133,8100001,,,,,,,2022-03-28,1,,,,,ノヴァヴィア,0
2095,9310003004314,新規,0,2022-03-28,2022-03-28,合同会社利建,,合同会社,長崎県,雲仙市,国見町多比良丁２２６６番地１,,42,213,8591324,,,,,,,2022-03-28,1,,,,,リケン,0
2097,9320001018983,新規,0,2022-03-28,2022-03-28,億華運輸株式会社,,株式会社,大分県,大分市,大字種具７２８番地,,44,201,8700274,,,,,,,2022-03-28,1,,,,,カズハウンユ,0
2098,9330001029567,新規,0,2022-03-28,2022-03-28,株式会社ＳＪＨ,,株式会社,熊本県,玉名市,大浜町３５９８番地１,,43,206,8650055,,,,,,,2022-03-28,1,,,,,エスジェイエイチ,0
2103,9360001030175,新規,0,2022-03-28,2022-03-28,株式会社石垣島未来エネルギー,,株式会社,沖縄県,浦添市,前田４丁目５番３号,,47,208,9012102,,,,,,,2022-03-28,1,,,,,イシガキジマミライエネルギー,0
2105,9370001048357,新規,0,2022-03-28,2022-03-28,株式会社Ｓ．ｍｙｔｈ,,株式会社,宮城県,仙台市青葉区,春日町９番１５号,,04,101,9800821,,,,,,,2022-03-28,1,,,,,スミス,0
2122,9430001086276,新規,0,2022-03-28,2022-03-28,岩部リース株式会社,,株式会社,北海道,札幌市西区,八軒十条東４丁目１番２７号ユニエスビルＩＩ,00126084,01,107,0630870,,,,,,,2022-03-28,1,,,,,イワベリース,0
2123,9430003013749,新規,0,2022-03-28,2022-03-28,合同会社Ｍ＆Ｍ,,合同会社,北海道,札幌市東区,北三十一条東１９丁目６番７,,01,103,0650031,,,,,,,2022-03-28,1,,,,,エムアンドエム,0
2134,9700150047605,新規,0,2022-03-28,2015-10-09,丸柱地域まちづくり協議会,,その他,三重県,伊賀市,丸柱８３１－１,,24,216,5181325,,,,,,,2015-10-09,1,,,,,マルバシラチイキマチヅクリキヨウギカイ,0
2135,9700150107516,新規,0,2022-03-28,2022-03-28,ＮＨＮ　Ｐｉｘｅｌ　Ｃｕｂｅ　Ｃｏ．，　Ｌｔｄ,,外国会社等,,,,,,,,ＮＨＮ　Ｐｌａｙ　Ｍｕｓｅｕｍ，　１６　Ｄａｅｗａｎｇｐａｎｇｙｏ－ｒｏ　６４５ｂｅｏｎ－ｇｉｌ，　Ｂｕｎｄａｎｇ－ｇｕ，　Ｓｅｏｎｇｎａｍ－ｓｉ，　Ｇｙｅｏｎｇｇｉ－ｄｏ，　１３４８７，　Ｋｏｒｅａ,,,,,,2022-03-28,1,,,,,エヌエイチエヌピクセルキユーブコーポレーシヨン,0
