sequenceNumber,corporateNumber,process,correct,updateDate,changeDate,name,nameImageId,kind,prefectureName,cityName,streetNumber,addressImageId,prefectureCode,cityCode,postCode,addressOutside,addressOutsideImageId,closeDate,closeCause,successorCorporateNumber,changeCause,assignmentDate,latest,enName,enPrefectureName,enCityName,enAddressOutside,furigana,hihyoji
7,1010001223432,登記記録の閉鎖等,0,2025-11-20,2025-11-07,えん株式会社,,株式会社,東京都,中央区,銀座１丁目２２番１１号銀座大竹ビジデンス２階,,13,102,1040061,,,2025-11-07,清算の結了等,,,2021-12-23,1,,,,,エン,0
15,1010502020436,登記記録の閉鎖等,0,2025-11-20,2025-11-14,有限会社アルテミス,,有限会社,東京都,台東区,浅草６丁目２２番９号,,13,106,1110032,,,2025-11-14,清算の結了等,,,2015-10-05,1,,,,,アルテミス,0
18,1010601055218,登記記録の閉鎖等,0,2025-11-20,2025-11-12,株式会社時津浪,,株式会社,東京都,墨田区,亀沢１丁目２３番２号,,13,107,1300014,,,2025-11-12,清算の結了等,,,2019-03-20,1,,,,,トキツナミ,0
35,1011201010216,登記記録の閉鎖等,0,2025-11-20,2025-11-04,共栄建設株式会社,,株式会社,東京都,中野区,上鷺宮３丁目１７番８号,,13,114,1650031,,,2025-11-04,清算の結了等,,,2025-06-03,1,,,,,,0
40,1011801019466,登記記録の閉鎖等,0,2025-11-20,2025-11-14,株式会社晴友,,株式会社,東京都,足立区,興野１丁目７番１０号,,13,121,1230844,,,2025-11-14,清算の結了等,,,2015-10-05,1,,,,,セイユウ,0
48,1013201001260,登記記録の閉鎖等,0,2025-11-20,2025-10-27,小野自動車工業株式会社,,株式会社,東京都,目黒区,八雲３丁目１２番７号,,13,110,1520023,,,2025-10-27,清算の結了等,,,2015-10-05,1,,,,,オノジドウシャコウギョウ,0
54,1020001152358,登記記録の閉鎖等,0,2025-11-20,2025-11-13,株式会社ニューウェーブ神奈川,,株式会社,神奈川県,横浜市泉区,新橋町１１４９番地７,,14,116,2450009,,,2025-11-13,清算の結了等,,,2023-07-07,1,,,,,ニューウェーブカナガワ,0
61,1021001016874,登記記録の閉鎖等,0,2025-11-20,2025-11-04,株式会社果律,,株式会社,神奈川県,相模原市緑区,若葉台３丁目６番地１８,,14,151,2520112,,,2025-11-04,清算の結了等,,,2015-10-05,1,,,,,カリツ,0
68,1021005012291,登記記録の閉鎖等,0,2025-11-20,2025-10-31,一般社団法人奏愛会,,その他の設立登記法人,神奈川県,鎌倉市,大船２丁目２０番３９号,,14,204,2470056,,,2025-10-31,清算の結了等,,,2021-09-07,1,,,,,ソウアイカイ,0
79,1040001113952,登記記録の閉鎖等,0,2025-11-20,2025-10-27,株式会社ＭＡＹＡコーポレーション,,株式会社,千葉県,鴨川市,宮１４５１番地２４,,12,223,2992853,,,2025-10-27,清算の結了等,,,2020-06-12,1,,,,,マヤコーポレーション,0
83,1040003005157,登記記録の閉鎖等,0,2025-11-20,2025-10-24,ＬＩＶＥＥＮＧＩＮＥＥＲ合同会社,,合同会社,千葉県,千葉市若葉区,桜木８丁目２番１９号,,12,104,2640028,,,2025-10-24,清算の結了等,,,2015-10-05,1,,,,,リブエンジニア,0
90,1060001023407,登記記録の閉鎖等,0,2025-11-20,2025-11-18,株式会社ニューゲートカンパニー,,株式会社,栃木県,宇都宮市,大曽１丁目３番６号,,09,201,3200014,,,2025-11-18,清算の結了等,,,2015-10-05,1,,,,,ニューゲートカンパニー,0
106,1110001035330,登記記録の閉鎖等,0,2025-11-20,2025-11-17,株式会社ムラヤマ商会,,株式会社,新潟県,新潟市北区,松浜２丁目２番地１７,,15,101,9503126,,,2025-11-17,清算の結了等,,,2020-12-02,1,,,,,ムラヤマショウカイ,0
112,1120001191817,登記記録の閉鎖等,0,2025-11-20,2025-11-17,株式会社リッカサウンドデザイン,,株式会社,大阪府,大阪市北区,豊崎５丁目２番２号三和豊崎第２ビル３０２号室,,27,127,5310072,,,2025-11-17,清算の結了等,,,2015-10-05,1,,,,,リッカサウンドデザイン,0
113,1120001212580,登記記録の閉鎖等,0,2025-11-20,2025-11-14,株式会社Ｃｏｑｕｅｔｔｅ．７１５,,株式会社,大阪府,大阪市中央区,内本町２丁目２番２号,,27,128,5400026,,,2025-11-14,清算の結了等,,,2018-04-11,1,,,,,コケットナナイチゴ,0
129,1120102019207,登記記録の閉鎖等,0,2025-11-20,2025-11-12,株式会社葛城警備センター,00032616,株式会社,大阪府,藤井寺市,国府３丁目８番５号,,27,226,5830006,,,2025-11-12,合併による解散等,2120101062693,令和７年１１月１日大阪府堺市東区日置荘原寺町４５真紅警備保障株式会社（2120101062693）に合併し解散,2015-10-05,1,,,,,カツラギケイビセンター,0
156,1180002088577,登記記録の閉鎖等,0,2025-11-20,2025-11-17,有限会社吉田架設工業,00073609,有限会社,愛知県,東海市,荒尾町勝山３，４，５合番地,,23,222,4760003,,,2025-11-17,清算の結了等,,,2015-10-05,1,,,,,ヨシダカセツコウギョウ,0
160,1180302001792,登記記録の閉鎖等,0,2025-11-20,2025-11-17,有限会社滝電工,,有限会社,愛知県,岡崎市,法性寺町字猿待６２番地２,,23,202,4440206,,,2025-11-17,清算の結了等,,,2015-10-05,1,,,,,タキデンコウ,0
161,1200002008986,登記記録の閉鎖等,0,2025-11-20,2025-11-17,有限会社ケイオーティー,,有限会社,岐阜県,岐阜市,長住町３丁目４番地,,21,201,5008175,,,2025-11-17,清算の結了等,,,2015-10-05,1,,,,,ケイオーティー,0
164,1230001003531,登記記録の閉鎖等,0,2025-11-20,2025-11-14,株式会社リブハウス,,株式会社,富山県,富山市,小中２２５番地１,,16,201,9398183,,,2025-11-14,清算の結了等,,,2015-10-05,1,,,,,リブハウス,0
166,1230001015816,登記記録の閉鎖等,0,2025-11-20,2025-11-14,株式会社剱雅,00078980,株式会社,富山県,富山市,楡原４９０番地５０,,16,201,9392184,,,2025-11-14,清算の結了等,,,2015-10-05,1,,,,,ケンガ,0
172,1240002020161,登記記録の閉鎖等,0,2025-11-20,2025-11-17,株式会社河上エンタープライズ,,株式会社,広島県,広島市中区,富士見町５番５－３０２号,,34,101,7300043,,,2025-11-17,清算の結了等,,,2015-10-05,1,,,,,カワカミエンタープライズ,0
179,1290001082116,登記記録の閉鎖等,0,2025-11-20,2025-11-17,株式会社シアーズファイナンス,,株式会社,福岡県,福岡市博多区,西春町４丁目１番２０－２０２号,,40,132,8120873,,,2025-11-17,合併による解散等,5330001002180,令和７年１１月１日熊本市南区馬渡二丁目１２番３５号株式会社シアーズホーム（5330001002180）に合併し解散,2018-07-19,1,,,,,,0
182,1290002043249,登記記録の閉鎖等,0,2025-11-20,2025-10-17,有限会社フィールドリサーチ,,有限会社,福岡県,筑紫野市,針摺東３丁目８番１－１１０１号,00093430,40,217,8180081,,,2025-10-17,清算の結了等,,,2015-10-05,1,,,,,フィールドリサーチ,0
186,1340001008494,登記記録の閉鎖等,0,2025-11-20,2025-11-11,鹿児島電通株式会社,,株式会社,鹿児島県,薩摩川内市,永利町２９９９番地６,,46,215,8950005,,,2025-11-11,清算の結了等,,,2015-10-05,1,,,,,カゴシマデンツウ,0
188,1350002013385,登記記録の閉鎖等,0,2025-11-20,2025-11-17,有限会社甲斐工務店,,有限会社,宮崎県,西臼杵郡日之影町,大字七折３１２１番地２,,45,442,8820401,,,2025-11-17,清算の結了等,,,2015-10-05,1,,,,,カイコウムテン,0
198,1430001082555,登記記録の閉鎖等,0,2025-11-20,2025-11-17,株式会社Ｍ＆Ｎコイル工房,,株式会社,北海道,札幌市豊平区,西岡三条１１丁目１０番１０－４０１号,,01,105,0620033,,,2025-11-17,清算の結了等,,,2020-10-16,1,,,,,エムアンドエヌコイルコウボウ,0
205,2010001195308,登記記録の閉鎖等,0,2025-11-20,2025-11-17,株式会社福祉アセットマネジメント,,株式会社,東京都,千代田区,九段南２丁目３番２５号,,13,101,1020074,,,2025-11-17,合併による解散等,1010001249691,令和７年９月１日東京都千代田区九段南２－３－２５ｔｏｃｏｔｏｃｏ株式会社（1010001249691）に合併し解散,2018-10-04,1,,,,,フクシアセットマネジメント,0
207,2010001209315,登記記録の閉鎖等,0,2025-11-20,2025-11-17,株式会社日本厚生事業団,,株式会社,東京都,千代田区,九段南２丁目３－２５,,13,101,1020074,,,2025-11-17,合併による解散等,1010001249691,令和７年９月１日東京都千代田区九段南２－３－２５ｔｏｃｏｔｏｃｏ株式会社（1010001249691）に合併し解散,2020-04-28,1,,,,,ニホンコウセイジギョウダン,0
208,2010001249039,登記記録の閉鎖等,0,2025-11-20,2025-11-17,アニスピ株式会社,,株式会社,東京都,千代田区,九段南２丁目３番２５号平安堂ビル３階,,13,101,1020074,,,2025-11-17,合併による解散等,1010001249691,令和７年９月１日東京都千代田区九段南２－３－２５ｔｏｃｏｔｏｃｏ株式会社（1010001249691）に合併し解散,2024-10-17,1,,,,,アニスピ,0
254,2011801019465,登記記録の閉鎖等,0,2025-11-20,2025-11-14,株式会社Ｋ・Ｓ,,株式会社,東京都,足立区,興野１丁目７番１０号,,13,121,1230844,,,2025-11-14,清算の結了等,,,2015-10-05,1,,,,,ケイエス,0
257,2011802019381,登記記録の閉鎖等,0,2025-11-20,2025-11-13,有限会社むつみ看護婦家政婦紹介所,,有限会社,東京都,足立区,西新井本町４丁目４番４号,,13,121,1230845,,,2025-11-13,清算の結了等,,,2015-10-05,1,,,,,ムツミカンゴフカセイフショウカイショ,0
270,2020001021743,登記記録の閉鎖等,0,2025-11-20,2025-11-17,松中商事株式会社,,株式会社,神奈川県,横浜市港北区,日吉本町１丁目５番７号,,14,109,2230062,,,2025-11-17,清算の結了等,,,2015-10-05,1,,,,,マツナカショウジ,0
271,2020001049537,登記記録の閉鎖等,0,2025-11-20,2025-11-14,株式会社パピヨン,,株式会社,神奈川県,横浜市旭区,今宿南町１８５１番地１,,14,112,2410034,,,2025-11-14,清算の結了等,,,2015-10-05,1,,,,,パピヨン,0
272,2020001093345,登記記録の閉鎖等,0,2025-11-20,2025-11-17,株式会社加藤事務所,,株式会社,神奈川県,横浜市泉区,下飯田町９２８番地４５フジビューテラスゆめが丘２０１号,,14,116,2450017,,,2025-11-17,清算の結了等,,,2015-10-05,1,,,,,カトウジムショ,0
276,2020001147051,登記記録の閉鎖等,0,2025-11-20,2025-11-13,株式会社Ｉｍｐｒｏｖｅ,,株式会社,神奈川県,横浜市磯子区,馬場町３－３佐々木ビル１０１,,14,107,2350002,,,2025-11-13,清算の結了等,,,2022-06-23,1,,,,,インプローブ,0
281,2020003022657,登記記録の閉鎖等,0,2025-11-20,2025-10-23,合同会社ＰＭＰＤ,,合同会社,神奈川県,川崎市多摩区,東生田４丁目２１番１号,,14,135,2140031,,,2025-10-23,清算の結了等,,,2022-11-08,1,,,,,ピーエムピーディー,0
286,2030001069179,登記記録の閉鎖等,0,2025-11-20,2025-11-13,株式会社ブロンコ・バスター,,株式会社,埼玉県,比企郡鳩山町,松ヶ丘３丁目２１番７号,,11,348,3500313,,,2025-11-13,清算の結了等,,,2015-10-05,1,,,,,ブロンコバスター,0
297,2040002085208,登記記録の閉鎖等,0,2025-11-20,2025-10-24,有限会社今伸,,有限会社,千葉県,銚子市,海鹿島町５３３１番地の２,,12,202,2880005,,,2025-10-24,清算の結了等,,,2015-10-05,1,,,,,イマシン,0
303,2070005009326,登記記録の閉鎖等,0,2025-11-20,2025-11-17,特定非営利活動法人市民立ぐんまＮＰＯセンター,,その他の設立登記法人,群馬県,前橋市,元総社町１丁目５番１号富田マンション１０７,,10,201,3710846,,,2025-11-17,清算の結了等,,,2017-05-09,1,,,,,シミンリツグンマエヌピーオーセンター,0
311,2100002018730,登記記録の閉鎖等,0,2025-11-20,2025-11-14,有限会社みすず屋,,有限会社,長野県,下高井郡山ノ内町,大字平穏２０７７番地,,20,561,3810401,,,2025-11-14,清算の結了等,,,2015-10-05,1,,,,,ミスズヤ,0
312,2100003008169,登記記録の閉鎖等,0,2025-11-20,2025-11-17,合同会社菜の花設備,,合同会社,長野県,下高井郡野沢温泉村,大字豊郷６７３１番地１,,20,563,3892502,,,2025-11-17,清算の結了等,,,2025-05-22,1,,,,,ナノハナセツビ,0
324,2120001273242,登記記録の閉鎖等,0,2025-11-20,2025-10-30,鹿島産業株式会社,,株式会社,大阪府,大阪市北区,兎我野町３番１９号,,27,127,5300056,,,2025-10-30,清算の結了等,,,2025-03-03,1,,,,,カシマサンギョウ,0
336,2120902014620,登記記録の閉鎖等,0,2025-11-20,2025-11-07,有限会社ダイイチ電設,,有限会社,大阪府,池田市,伏尾台３丁目１０番地の１９,,27,204,5630017,,,2025-11-07,清算の結了等,,,2015-10-05,1,,,,,ダイイチデンセツ,0
352,2180001099475,登記記録の閉鎖等,0,2025-11-20,2025-11-17,株式会社ビーフラット,,株式会社,愛知県,あま市,甚目寺郷中６４番地,,23,237,4901111,,,2025-11-17,清算の結了等,,,2015-10-05,1,,,,,ビーフラット,0
368,2220002014214,登記記録の閉鎖等,0,2025-11-20,2025-11-17,有限会社能登島自動車,,有限会社,石川県,七尾市,能登島佐波町ワ部１５番地７,,17,202,9260212,,,2025-11-17,清算の結了等,,,2015-10-05,1,,,,,ノトジマジドウシャ,0
380,2290001055046,登記記録の閉鎖等,0,2025-11-20,2025-11-12,株式会社博多うまか,,株式会社,福岡県,糟屋郡篠栗町,彩り台１番１号,,40,342,8112418,,,2025-11-12,清算の結了等,,,2015-10-05,1,,,,,ハカタウマカ,0
386,2290002039873,登記記録の閉鎖等,0,2025-11-20,2025-10-22,有限会社平野工業所,,有限会社,福岡県,大野城市,仲畑１丁目３４番２４号,,40,219,8160921,,,2025-10-22,清算の結了等,,,2015-10-05,1,,,,,ヒラノコウギョウショ,0
388,2290002050475,登記記録の閉鎖等,0,2025-11-20,2025-11-12,有限会社九州ノリス,,有限会社,福岡県,久留米市,城島町内野３３０番地の２,,40,203,8300204,,,2025-11-12,清算の結了等,,,2015-10-05,1,,,,,キュウシュウノリス,0
389,2290003017110,登記記録の閉鎖等,0,2025-11-20,2025-11-12,ＭＯＮＤ合同会社,,合同会社,福岡県,筑後市,大字前津５３７番地１ＳＫティアラ２０１号,,40,211,8330002,,,2025-11-12,清算の結了等,,,2025-07-15,1,,,,,モンド,0
398,2350001008435,登記記録の閉鎖等,0,2025-11-20,2025-11-17,株式会社ラウ・ラージ,,株式会社,宮崎県,都城市,志比田町５５７１番地１,,45,202,8850093,,,2025-11-17,清算の結了等,,,2015-10-05,1,,,,,ラウラージ,0
400,2360002022442,登記記録の閉鎖等,0,2025-11-20,2025-11-18,有限会社親泊組,,有限会社,沖縄県,宮古島市,伊良部字池間添２１１番地の２,,47,214,9060502,,,2025-11-18,清算の結了等,,,2015-10-05,1,,,,,オヤドマリグミ,0
408,2370202003563,登記記録の閉鎖等,0,2025-11-20,2025-11-12,有限会社グリーンアセスメント,,有限会社,宮城県,遠田郡美里町,牛飼字御蔵場１２番地２,,04,505,9870004,,,2025-11-12,清算の結了等,,,2015-10-05,1,,,,,グリーンアセスメント,0
409,2370301000115,登記記録の閉鎖等,0,2025-11-20,2025-11-12,石巻交通株式会社,,株式会社,宮城県,石巻市,丸井戸１丁目１番９号,,04,202,9860865,,,2025-11-12,清算の結了等,,,2015-10-05,1,,,,,イシノマキコウツウ,0
411,2380002003408,登記記録の閉鎖等,0,2025-11-20,2025-11-12,有限会社マインサービス,,有限会社,福島県,福島市,北矢野目字五反田１番地の３,,07,201,9600113,,,2025-11-12,清算の結了等,,,2015-10-05,1,,,,,マインサービス,0
423,2500005005710,登記記録の閉鎖等,0,2025-11-20,2025-11-18,医療法人ノムラデンタルクリニック,,その他の設立登記法人,愛媛県,四国中央市,三島宮川４丁目８番５７号,,38,213,7990404,,,2025-11-18,清算の結了等,,,2015-10-05,1,,,,,ノムラデンタルクリニック,0
429,3010001228041,登記記録の閉鎖等,0,2025-11-20,2025-11-10,株式会社ヒトのチカラ,,株式会社,東京都,中央区,日本橋室町１丁目２番６号日本橋大栄ビル７Ｆ,,13,102,1030022,,,2025-11-10,清算の結了等,,,2022-07-14,1,,,,,ヒトノチカラ,0
442,3010401086824,登記記録の閉鎖等,0,2025-11-20,2025-11-13,株式会社マックスパイヤー・エンタテインメント,,株式会社,東京都,港区,赤坂７丁目４番１８－６０１号,,13,103,1070052,,,2025-11-13,合併による解散等,8011201013708,令和７年１１月１日東京都中野区中野二丁目１９番２号株式会社ヴィステック・エンタテインメント（8011201013708）に合併し解散,2015-10-05,1,,,,,マックスパイヤーエンタテインメント,0
445,3010405018955,登記記録の閉鎖等,0,2025-11-20,2025-10-29,ジャパンインフラホールディングス５号一般社団法人,,その他の設立登記法人,東京都,港区,元赤坂１丁目１番７号,,13,103,1070051,,,2025-10-29,清算の結了等,,,2020-08-06,1,,,,,ジャパンインフラホールディングスゴゴウ,0
452,3010502003728,登記記録の閉鎖等,0,2025-11-20,2025-11-12,有限会社興伸社,,有限会社,東京都,台東区,入谷２丁目３３番７号,,13,106,1100013,,,2025-11-12,清算の結了等,,,2015-10-05,1,,,,,コウシンシャ,0
471,3011002009488,登記記録の閉鎖等,0,2025-11-20,2025-11-14,有限会社にいよんろく設計,,有限会社,東京都,北区,赤羽３丁目１３番１７号,,13,117,1150045,,,2025-11-14,清算の結了等,,,2015-10-05,1,,,,,ニイヨンロクセッケイ,0
490,3011802024273,登記記録の閉鎖等,0,2025-11-20,2025-11-17,有限会社正州,,有限会社,東京都,葛飾区,柴又７丁目１６番１４号,,13,122,1250052,,,2025-11-17,清算の結了等,,,2015-10-05,1,,,,,,0
501,3020001147158,登記記録の閉鎖等,0,2025-11-20,2025-11-13,株式会社Ｔｒｕｓｔ,,株式会社,神奈川県,横浜市都筑区,大熊町３９番地大倉山陽光ハイツ３０６号,,14,118,2240042,,,2025-11-13,清算の結了等,,,2022-07-06,1,,,,,トラスト,0
508,3021001033422,登記記録の閉鎖等,0,2025-11-20,2025-10-31,株式会社アスク,,株式会社,神奈川県,小田原市,上町１５番地の６,,14,206,2560805,,,2025-10-31,清算の結了等,,,2015-10-05,1,,,,,アスク,0
514,3030002122068,登記記録の閉鎖等,0,2025-11-20,2025-11-13,斎藤興業有限会社,,有限会社,埼玉県,秩父郡長瀞町,大字中野上６４５番地の１,,11,363,3691303,,,2025-11-13,清算の結了等,,,2015-10-05,1,,,,,サイトウコウギョウ,0
517,3040001014439,登記記録の閉鎖等,0,2025-11-20,2025-10-27,株式会社コスモ印刷,,株式会社,千葉県,習志野市,茜浜１丁目２番１２号,,12,216,2750024,,,2025-10-27,清算の結了等,,,2015-10-05,1,,,,,コスモインサツ,0
522,3040001116391,登記記録の閉鎖等,0,2025-11-20,2025-10-27,株式会社藤彩,,株式会社,千葉県,富里市,七栄４６０番地３１,,12,233,2860221,,,2025-10-27,清算の結了等,,,2020-12-22,1,,,,,トウア,0
529,3040003013554,登記記録の閉鎖等,0,2025-11-20,2025-11-17,合同会社ＣＨＡＩＮＯＮ,,合同会社,大阪府,大阪市北区,梅田１丁目２番２号大阪駅前第２ビル１２－１２,,27,127,5300001,,,2025-11-17,清算の結了等,,,2019-06-19,1,,,,,シェノン,0
532,3050001000025,登記記録の閉鎖等,0,2025-11-20,2025-11-14,株式会社アドテクノ,,株式会社,茨城県,水戸市,五軒町１丁目５番４８号,,08,201,3100063,,,2025-11-14,清算の結了等,,,2015-10-05,1,,,,,アドテクノ,0
533,3050002028874,登記記録の閉鎖等,0,2025-11-20,2025-11-12,有限会社リードファルマ,,有限会社,茨城県,行方市,井貝３５４番地,,08,233,3113803,,,2025-11-12,清算の結了等,,,2015-10-05,1,,,,,リードファルマ,0
538,3110005006631,登記記録の閉鎖等,0,2025-11-20,2025-11-13,医療法人社団石黒歯科医院,,その他の設立登記法人,新潟県,柏崎市,長峰町２０番５１号,,15,205,9451105,,,2025-11-13,清算の結了等,,,2015-10-05,1,,,,,イシグロシカイイン,0
540,3120001215086,登記記録の閉鎖等,0,2025-11-20,2025-11-19,スリーエイト株式会社,,株式会社,大阪府,大阪市西区,川口３丁目８番３３号,,27,106,5500021,,,2025-11-19,清算の結了等,,,2018-08-06,1,,,,,スリーエイト,0
570,3140002066948,登記記録の閉鎖等,0,2025-11-20,2025-11-10,有限会社シン・コーポレーション,,有限会社,兵庫県,宝塚市,鶴の荘２０番１０号,,28,214,6650833,,,2025-11-10,清算の結了等,,,2015-10-05,1,,,,,シンコーポレーション,0
575,3180001026115,登記記録の閉鎖等,0,2025-11-20,2025-11-17,株式会社谷半,,株式会社,愛知県,名古屋市西区,名西１丁目６番１６号,,23,104,4510064,,,2025-11-17,清算の結了等,,,2015-10-05,1,,,,,タニハン,0
579,3180001163635,登記記録の閉鎖等,0,2025-11-20,2025-11-17,株式会社有光商事,,株式会社,愛知県,名古屋市昭和区,石仏町２丁目１番地の１５,,23,107,4660023,,,2025-11-17,清算の結了等,,,2024-10-22,1,,,,,ユウコウショウジ,0
589,3180301023489,登記記録の閉鎖等,0,2025-11-20,2025-11-17,株式会社山水内装,,株式会社,愛知県,西尾市,矢曽根町長配６番地,,23,213,4450872,,,2025-11-17,清算の結了等,,,2015-10-05,1,,,,,サンスイナイソウ,0
590,3190001019365,登記記録の閉鎖等,0,2025-11-20,2025-11-17,株式会社白樺,,株式会社,三重県,四日市市,大矢知町１３７３番地３,,24,202,5108034,,,2025-11-17,清算の結了等,,,2015-10-05,1,,,,,シラカバ,0
595,3240001002167,登記記録の閉鎖等,0,2025-11-20,2025-11-17,株式会社Ｍ＆Ｈ,,株式会社,広島県,広島市西区,井口３丁目１９番３号,,34,104,7330842,,,2025-11-17,清算の結了等,,,2015-10-05,1,,,,,エムアンドエイチ,0
604,3290001091478,登記記録の閉鎖等,0,2025-11-20,2025-11-17,株式会社Ｈｏｍｅ’ｓ　Ｈｏｍｅ福岡,,株式会社,福岡県,大野城市,大城２丁目２３番３０号,,40,219,8160911,,,2025-11-17,合併による解散等,5330001002180,令和７年１１月１日熊本市南区馬渡二丁目１２番３５号株式会社シアーズホーム（5330001002180）に合併し解散,2021-01-05,1,,,,,,0
622,3360001015124,登記記録の閉鎖等,0,2025-11-20,2025-11-11,幸洋海事株式会社,,株式会社,鹿児島県,鹿児島市,鴨池新町１４番３号,,46,201,8900064,,,2025-11-11,清算の結了等,,,2015-10-05,1,,,,,コウヨウカイジ,0
659,4010403017231,登記記録の閉鎖等,0,2025-11-20,2025-10-29,シーズンワン合同会社,,合同会社,東京都,港区,浜松町２丁目２－１５,,13,103,1050013,,,2025-10-29,合併による解散等,5010403018591,令和７年１０月２９日東京都港区浜松町二丁目２番１５号アリラック合同会社（5010403018591）に合併し解散,2017-09-15,1,,,,,シーズンワン,0
660,4010403027296,登記記録の閉鎖等,0,2025-11-20,2025-10-29,Ｒインフラ４号合同会社,,合同会社,東京都,港区,元赤坂１丁目１番７号,,13,103,1070051,,,2025-10-29,清算の結了等,,,2022-03-16,1,,,,,アールインフラヨンゴウ,0
661,4010405019837,登記記録の閉鎖等,0,2025-11-20,2025-10-29,Ｔインフラホールディングス２号一般社団法人,,その他の設立登記法人,東京都,港区,元赤坂１丁目１番７号,,13,103,1070051,,,2025-10-29,清算の結了等,,,2021-06-01,1,,,,,ティーインフラホールディングスニゴウ,0
682,4011002026739,登記記録の閉鎖等,0,2025-11-20,2025-11-12,有限会社オールラウンドイングリッシュ,,有限会社,神奈川県,川崎市麻生区,王禅寺東５丁目１７番５号,,14,137,2150018,,,2025-11-12,清算の結了等,,,2015-10-05,1,,,,,オールラウンドイングリッシュ,0
683,4011002036176,登記記録の閉鎖等,0,2025-11-20,2025-11-18,Ｆクリエイト株式会社,,株式会社,東京都,渋谷区,代々木３丁目２２番７号,,13,113,1510053,,,2025-11-18,合併による解散等,6013301025493,令和７年１１月１日東京都豊島区池袋二丁目６４番７号タイム・アロー株式会社（6013301025493）に合併し解散,2015-10-05,1,,,,,,0
694,4011401013882,登記記録の閉鎖等,0,2025-11-20,2025-11-17,株式会社松井組,,株式会社,東京都,板橋区,中台１丁目４９番６号,,13,119,1740064,,,2025-11-17,清算の結了等,,,2015-10-05,1,,,,,マツイグミ,0
696,4011601011265,登記記録の閉鎖等,0,2025-11-20,2025-11-17,株式会社ケアシステムネットワーク,,株式会社,東京都,練馬区,大泉学園町６丁目９番２１号,,13,120,1780061,,,2025-11-17,清算の結了等,,,2015-10-05,1,,,,,ケアシステムネットワーク,0
704,4020001037688,登記記録の閉鎖等,0,2025-11-20,2025-11-14,株式会社ハーバービュー・フィットネスクラブ,,株式会社,神奈川県,横浜市西区,みなとみらい１丁目１番１号,,14,103,2200012,,,2025-11-14,合併による解散等,2140001042100,令和７年１１月１日兵庫県丹波篠山市東吹３３６番地１合同会社デカンショパワー（2140001042100）に合併し解散,2015-10-05,1,,,,,ハーバービューフィットネスクラブ,0
705,4020001064889,登記記録の閉鎖等,0,2025-11-20,2025-11-14,株式会社童,,株式会社,神奈川県,川崎市多摩区,西生田２丁目９番３号,,14,135,2140037,,,2025-11-14,清算の結了等,,,2015-10-05,1,,,,,,0
713,4020002029049,登記記録の閉鎖等,0,2025-11-20,2025-11-14,有限会社井上酒店,,有限会社,神奈川県,横浜市南区,新川町４丁目２５番地,,14,105,2320027,,,2025-11-14,清算の結了等,,,2015-10-05,1,,,,,イノウエサケテン,0
720,4021002002953,登記記録の閉鎖等,0,2025-11-20,2025-10-31,有限会社商銀,,有限会社,神奈川県,藤沢市,辻堂元町６丁目２番２号,,14,205,2510043,,,2025-10-31,清算の結了等,,,2015-10-05,1,,,,,ショウギン,0
727,4030002010296,登記記録の閉鎖等,0,2025-11-20,2025-11-12,有限会社西野水産,,有限会社,埼玉県,さいたま市南区,南浦和２丁目３５番１号,,11,108,3360017,,,2025-11-12,清算の結了等,,,2015-10-05,1,,,,,,0
729,4030002016335,登記記録の閉鎖等,0,2025-11-20,2025-11-13,有限会社ビジネス情報コンサルティング,,有限会社,埼玉県,さいたま市桜区,西堀７丁目１番１６号,,11,106,3380832,,,2025-11-13,清算の結了等,,,2015-10-05,1,,,,,ビジネスジョウホウコンサルティング,0
742,4100001021477,登記記録の閉鎖等,0,2025-11-20,2025-11-14,ＥＡＳＴ株式会社,,株式会社,長野県,上伊那郡箕輪町,大字中箕輪１０８００番地１４,,20,383,3994601,,,2025-11-14,清算の結了等,,,2015-10-05,1,,,,,イースト,0
748,4110002017985,登記記録の閉鎖等,0,2025-11-20,2025-11-17,有限会社八百藤商店,,有限会社,新潟県,三条市,今井５２９番地１,,15,204,9591141,,,2025-11-17,清算の結了等,,,2015-10-05,1,,,,,ヤオトウショウテン,0
784,4140002048367,登記記録の閉鎖等,0,2025-11-20,2025-11-17,黒田鉄工有限会社,,有限会社,兵庫県,姫路市,豊富町御蔭１７８１番地,,28,201,6792122,,,2025-11-17,清算の結了等,,,2015-10-05,1,,,,,クロダテッコウ,0
796,4180001099127,登記記録の閉鎖等,0,2025-11-20,2025-11-17,株式会社辛島,,株式会社,愛知県,あま市,七宝町下田江東本町２６番地,,23,237,4970012,,,2025-11-17,清算の結了等,,,2015-10-05,1,,,,,カラシマ,0
808,4180302012003,登記記録の閉鎖等,0,2025-11-20,2025-11-13,有限会社デイサービスセンター和,,有限会社,愛知県,豊橋市,大山町字西大山４１番地の２,,23,201,4418071,,,2025-11-13,清算の結了等,,,2015-10-05,1,,,,,デイサービスセンターナゴミ,0
813,4200001008357,登記記録の閉鎖等,0,2025-11-20,2025-11-17,株式会社ＰＣＲ,,株式会社,岐阜県,岐阜市,細畑１丁目３番８号,,21,201,5008238,,,2025-11-17,清算の結了等,,,2015-10-05,1,,,,,ピーシーアール,0
823,4240005005074,登記記録の閉鎖等,0,2025-11-20,2025-11-13,八幡神社,,その他の設立登記法人,広島県,安芸高田市,吉田町福原４１５番地,,34,214,7310513,,,2025-11-13,清算の結了等,,,2015-10-05,1,,,,,ハチマンジンジャ,0
836,4340001008161,登記記録の閉鎖等,0,2025-11-20,2025-11-11,株式会社悠悠,,株式会社,鹿児島県,霧島市,国分重久５８１番地７,,46,218,8994301,,,2025-11-11,清算の結了等,,,2015-10-05,1,,,,,ユウユウ,0
847,4380002031035,登記記録の閉鎖等,0,2025-11-20,2025-11-13,有限会社アシスト,,有限会社,福島県,会津若松市,扇町３丁目１７番地の７,,07,202,9650025,,,2025-11-13,合併による解散等,9010001098066,令和７年１１月１日神奈川県横浜市港北区新横浜二丁目１５番１２号ルナ調剤株式会社（9010001098066）に合併し解散,2015-10-05,1,,,,,,0
851,4410003000951,登記記録の閉鎖等,0,2025-11-20,2025-11-19,合同会社憩音,,合同会社,秋田県,秋田市,将軍野桂町２番９号,,05,201,0110934,,,2025-11-19,清算の結了等,,,2015-10-05,1,,,,,,0
857,4430002042497,登記記録の閉鎖等,0,2025-11-20,2025-11-14,有限会社北斗総合企画,,有限会社,北海道,札幌市白石区,栄通１丁目１番２０号アルス南白石３０１号室,,01,104,0030021,,,2025-11-14,清算の結了等,,,2015-10-05,1,,,,,ホクトソウゴウキカク,0
860,4450002009528,登記記録の閉鎖等,0,2025-11-20,2025-11-14,有限会社丸喜屋,,有限会社,北海道,富良野市,本町７番３号,,01,229,0760031,,,2025-11-14,清算の結了等,,,2015-10-05,1,,,,,マルキヤ,0
861,4470001017281,登記記録の閉鎖等,0,2025-11-20,2025-11-17,メンテサービス株式会社,,株式会社,香川県,高松市,国分寺町新名２２１４番地３８,,37,201,7690104,,,2025-11-17,清算の結了等,,,2019-02-15,1,,,,,メンテサービス,0
872,5010001223494,登記記録の閉鎖等,0,2025-11-20,2025-11-04,株式会社Ｎａｖｄ,,株式会社,東京都,千代田区,有楽町１丁目２番２号,,13,101,1000006,,,2025-11-04,合併による解散等,9010001063953,令和７年１１月１日東京都千代田区有楽町一丁目２番２号サンフロンティア不動産株式会社（9010001063953）に合併し解散,2021-12-27,1,,,,,ナブド,0
885,5010102005098,登記記録の閉鎖等,0,2025-11-20,2025-11-19,有限会社ナビトエンジニアリング,,有限会社,東京都,八王子市,南大沢５丁目１６番地５－２０８,,13,201,1920364,,,2025-11-19,清算の結了等,,,2015-10-05,1,,,,,ナビトエンジニアリング,0
887,5010401181598,登記記録の閉鎖等,0,2025-11-20,2025-10-24,株式会社パーソナル簿記,,株式会社,東京都,港区,赤坂４丁目８番１９号,,13,103,1070052,,,2025-10-24,清算の結了等,,,2024-04-15,1,,,,,パーソナルボキ,0
890,5010403010929,登記記録の閉鎖等,0,2025-11-20,2025-10-24,合同会社バント,,合同会社,東京都,渋谷区,代々木３丁目２３番４号,,13,113,1510053,,,2025-10-24,清算の結了等,,,2015-10-05,1,,,,,バント,0
894,5010601066533,登記記録の閉鎖等,0,2025-11-20,2025-11-04,株式会社Ｈａｐｐｉｌｉｏｎ,,株式会社,東京都,江東区,森下３丁目４番１４号,,13,108,1350004,,,2025-11-04,合併による解散等,9010801018859,令和７年１１月１日東京都江東区森下三丁目４番１４号株式会社東洋電機商会（9010801018859）に合併し解散,2025-01-07,1,,,,,ハピリオン,0
897,5010602019432,登記記録の閉鎖等,0,2025-11-20,2025-11-12,有限会社第一関東,,有限会社,東京都,江東区,亀戸１丁目２番３号,,13,108,1360071,,,2025-11-12,清算の結了等,,,2015-10-05,1,,,,,,0
911,5011001167517,登記記録の閉鎖等,0,2025-11-20,2025-10-24,ＮｅｏＡｒｋ株式会社,,株式会社,東京都,渋谷区,恵比寿１丁目１５番９号日宝恵比寿ビル４０３,,13,113,1500013,,,2025-10-24,清算の結了等,,,2025-02-06,1,,,,,ネオアーク,0
918,5011101103033,登記記録の閉鎖等,0,2025-11-20,2025-11-06,Ｙｏｕｌｉｓｔ株式会社,,株式会社,東京都,墨田区,緑２丁目５番６－９０４号,,13,107,1300021,,,2025-11-06,清算の結了等,,,2023-05-30,1,,,,,ユーリスト,0
935,5020002078292,登記記録の閉鎖等,0,2025-11-20,2025-11-10,有限会社テルノ,,有限会社,神奈川県,横浜市戸塚区,戸塚町４３番地１,,14,110,2440003,,,2025-11-10,清算の結了等,,,2015-10-05,1,,,,,テルノ,0
945,5021001007515,登記記録の閉鎖等,0,2025-11-20,2025-10-31,雄匠株式会社,,株式会社,神奈川県,茅ヶ崎市,西久保９１４番地３,,14,207,2530083,,,2025-10-31,清算の結了等,,,2015-10-05,1,,,,,ユウショウ,0
958,5040001116316,登記記録の閉鎖等,0,2025-11-20,2025-10-27,株式会社６ｓｏ,,株式会社,千葉県,千葉市中央区,新千葉２丁目２番１号新日本ＥＸビル１５０１号,,12,101,2600031,,,2025-10-27,清算の結了等,,,2020-12-16,1,,,,,ムソウ,0
959,5040001117446,登記記録の閉鎖等,0,2025-11-20,2025-10-23,株式会社ＳＫオート,,株式会社,千葉県,八千代市,八千代台東１丁目６－９新鋼ビル４階,,12,221,2760032,,,2025-10-23,清算の結了等,,,2021-03-09,1,,,,,エスケーオート,0
962,5040005014482,登記記録の閉鎖等,0,2025-11-20,2025-10-23,大利根川砂採取協同組合連合会,,その他の設立登記法人,千葉県,印旛郡栄町,安食７８４番地,,12,329,2701516,,,2025-10-23,清算の結了等,,,2015-10-05,1,,,,,オオトネカワスナ,0
971,5060002037162,登記記録の閉鎖等,0,2025-11-20,2025-11-18,有限会社サニーケアコーポレーション,,有限会社,栃木県,足利市,田中町３２番地９,,09,202,3260822,,,2025-11-18,清算の結了等,,,2015-10-05,1,,,,,サニーケアコーポレーション,0
976,5080101022245,登記記録の閉鎖等,0,2025-11-20,2025-11-17,株式会社ファンファクトリー,,株式会社,静岡県,駿東郡長泉町,下土狩６２８番地の５,,22,342,4110943,,,2025-11-17,清算の結了等,,,2021-01-04,1,,,,,ファンファクトリー,0
977,5080105003877,登記記録の閉鎖等,0,2025-11-20,2025-11-14,熱海鮮魚買受人協同組合,,その他の設立登記法人,静岡県,熱海市,清水町８番８号,,22,205,4130021,,,2025-11-14,清算の結了等,,,2015-10-05,1,,,,,アタミセンギョカイウケニン,0
981,5100001012797,登記記録の閉鎖等,0,2025-11-20,2025-11-14,永興食品株式会社,,株式会社,長野県,松本市,南松本２丁目６番５５号,,20,202,3900832,,,2025-11-14,清算の結了等,,,2015-10-05,1,,,,,エイコウショクヒン,0
985,5100005012323,登記記録の閉鎖等,0,2025-11-20,2025-11-07,一般社団法人ＣｕｒｅＡｐｐ　Ｉｎｓｔｉｔｕｔｅ,,その他の設立登記法人,長野県,北佐久郡軽井沢町,大字長倉字横沢４１３６番地１,,20,321,3890111,,,2025-11-07,清算の結了等,,,2018-11-20,1,,,,,キュアアップインスティチュート,0
986,5120001035747,登記記録の閉鎖等,0,2025-11-20,2025-11-19,株式会社ＮＧＳ,,株式会社,大阪府,大阪市北区,天神橋４丁目３番１７－２１０６号,,27,127,5300041,,,2025-11-19,清算の結了等,,,2015-10-05,1,,,,,エヌジーエス,0
1001,5120101060273,登記記録の閉鎖等,0,2025-11-20,2025-11-05,株式会社伸共社,,株式会社,大阪府,和泉市,万町９４４番地,,27,219,5941104,,,2025-11-05,清算の結了等,,,2019-07-31,1,,,,,シンキョウシャ,0
1008,5130002011721,登記記録の閉鎖等,0,2025-11-20,2025-11-18,有限会社ルート・アップ,,有限会社,京都府,京都市南区,吉祥院嶋野間詰町３,,26,107,6018363,,,2025-11-18,清算の結了等,,,2015-10-05,1,,,,,ルートアップ,0
1015,5140002019210,登記記録の閉鎖等,0,2025-11-20,2025-11-17,有限会社ミナミ交易,,有限会社,兵庫県,神戸市垂水区,泉が丘３丁目３番８号,,28,108,6550885,,,2025-11-17,清算の結了等,,,2015-10-05,1,,,,,ミナミコウエキ,0
1028,5180002060227,登記記録の閉鎖等,0,2025-11-20,2025-11-14,有限会社ＥＤＵＳ,,有限会社,愛知県,北名古屋市,沖村五反１５５番地１,,23,234,4810043,,,2025-11-14,清算の結了等,,,2015-10-05,1,,,,,エデュース,0
1034,5180303001375,登記記録の閉鎖等,0,2025-11-20,2025-11-17,合資会社一二三堂,,合資会社,愛知県,田原市,田原町東馬洗３４番地の８,,23,231,4413421,,,2025-11-17,清算の結了等,,,2015-10-05,1,,,,,ヒフミドウ,0
1036,5200001014049,登記記録の閉鎖等,0,2025-11-20,2025-11-13,ロータス豊田レンタリース株式会社,,株式会社,岐阜県,大垣市,千鳥町１丁目１番地,,21,202,5030891,,,2025-11-13,清算の結了等,,,2015-10-05,1,,,,,ロータストヨタレンタリース,0
1037,5200001021697,登記記録の閉鎖等,0,2025-11-20,2025-11-17,株式会社アイチ,,株式会社,岐阜県,瑞浪市,土岐町７１９２番地の８,,21,208,5096101,,,2025-11-17,清算の結了等,,,2015-10-05,1,,,,,アイチ,0
1048,5250002010315,登記記録の閉鎖等,0,2025-11-20,2025-11-17,有限会社西嶋工業,,有限会社,山口県,下関市,彦島福浦町３丁目９番１６号,,35,201,7500087,,,2025-11-17,清算の結了等,,,2015-10-05,1,,,,,ニシジマコウギョウ,0
1054,5280001002707,登記記録の閉鎖等,0,2025-11-20,2025-11-19,ニューソート電機株式会社,,株式会社,島根県,松江市,国屋町５３０番地,,32,201,6900859,,,2025-11-19,清算の結了等,,,2015-10-05,1,,,,,ニューソートデンキ,0
1066,5320001013542,登記記録の閉鎖等,0,2025-11-20,2025-11-14,ｅｄａｙＳ株式会社,,株式会社,大分県,大分市,萩原３丁目２０番３３号,,44,201,8700921,,,2025-11-14,清算の結了等,,,2015-10-05,1,,,,,イーデイズ,0
1067,5320001015134,登記記録の閉鎖等,0,2025-11-20,2025-11-14,株式会社大虎,,株式会社,大分県,大分市,日岡２丁目７番２号,,44,201,8700914,,,2025-11-14,清算の結了等,,,2016-08-26,1,,,,,,0
1074,5320002018838,登記記録の閉鎖等,0,2025-11-20,2025-11-11,有限会社坂本ホーム,,有限会社,大分県,日田市,中本町７番３０号,,44,204,8770047,,,2025-11-11,清算の結了等,,,2015-10-05,1,,,,,サカモトホーム,0
1086,5400001008518,登記記録の閉鎖等,0,2025-11-20,2025-11-13,株式会社コナリ,,株式会社,岩手県,宮古市,末広町２番２号,,03,202,0270084,,,2025-11-13,清算の結了等,,,2015-10-05,1,,,,,コナリ,0
1088,5420001013516,登記記録の閉鎖等,0,2025-11-20,2025-11-13,株式会社トランスアシスト,,株式会社,青森県,八戸市,沼館１丁目１１番５号,,02,203,0310071,,,2025-11-13,清算の結了等,,,2015-10-05,1,,,,,,0
1089,5420001017070,登記記録の閉鎖等,0,2025-11-20,2025-11-12,株式会社Ｋ３サポート,,株式会社,青森県,八戸市,長苗代３丁目２２番５号,,02,203,0391103,,,2025-11-12,清算の結了等,,,2020-07-08,1,,,,,ケースリーサポート,0
1096,5440001007086,登記記録の閉鎖等,0,2025-11-20,2025-11-19,株式会社三翔,,株式会社,北海道,函館市,美原３丁目２０番２２号,,01,202,0410806,,,2025-11-19,清算の結了等,,,2015-10-05,1,,,,,サンショウ,0
1098,5450005000474,登記記録の閉鎖等,0,2025-11-20,2025-11-10,旭川商工信用組合,,その他の設立登記法人,北海道,旭川市,四条通６丁目３番１２２第９中島ビル１階,,01,204,0700034,,,2025-11-10,清算の結了等,,,2015-10-05,1,,,,,アサヒカワショウコウ,0
1099,5460102004071,登記記録の閉鎖等,0,2025-11-20,2025-11-17,有限会社マルカ,,有限会社,北海道,帯広市,西十九条南１丁目７番地１２,,01,207,0802469,,,2025-11-17,清算の結了等,,,2015-10-05,1,,,,,マルカ,0
1101,5470001003264,登記記録の閉鎖等,0,2025-11-20,2025-11-17,株式会社日繊,,株式会社,香川県,高松市,今里町１丁目４３１番地１７,,37,201,7600078,,,2025-11-17,清算の結了等,,,2015-10-05,1,,,,,ニッセン,0
1116,6010005031240,登記記録の閉鎖等,0,2025-11-20,2025-11-18,一般社団法人銀座六丁目ホールディングス,,その他の設立登記法人,東京都,千代田区,平河町１丁目６番１５号シルスフィア会計事務所内,,13,101,1020093,,,2025-11-18,清算の結了等,,,2019-12-25,1,,,,,ギンザロクチョウメホールディングス,0
1120,6010401098742,登記記録の閉鎖等,0,2025-11-20,2025-10-24,株式会社３ＣＳＦｏｏｄＳｅｒｖｉｃｅ,,株式会社,東京都,港区,新橋２丁目９番４号,,13,103,1050004,,,2025-10-24,清算の結了等,,,2015-10-05,1,,,,,スリーシーエスフードサービス,0
1124,6010405020826,登記記録の閉鎖等,0,2025-11-20,2025-10-29,Ｒインフラホールディングス４号一般社団法人,,その他の設立登記法人,東京都,港区,元赤坂１丁目１番７号,,13,103,1070051,,,2025-10-29,清算の結了等,,,2022-03-16,1,,,,,アールインフラホールディングスヨンゴウ,0
1135,6010801020859,登記記録の閉鎖等,0,2025-11-20,2025-11-10,ヒットバース株式会社,,株式会社,東京都,大田区,池上４丁目２１番２号,,13,111,1460082,,,2025-11-10,清算の結了等,,,2015-10-05,1,,,,,ヒットバース,0
1138,6010803002384,登記記録の閉鎖等,0,2025-11-20,2025-11-07,合同会社Ｋｈａｔｉｗａｄａ,,合同会社,東京都,大田区,山王３丁目４４番１８号,,13,111,1430023,,,2025-11-07,清算の結了等,,,2017-05-24,1,,,,,カティワダ,0
1142,6011001129838,登記記録の閉鎖等,0,2025-11-20,2025-10-20,株式会社レクタングル,,株式会社,東京都,新宿区,四谷４丁目４番３号ロイジェントパークス四ツ谷,,13,104,1600004,,,2025-10-20,清算の結了等,,,2019-09-05,1,,,,,レクタングル,0
1145,6011001165882,登記記録の閉鎖等,0,2025-11-20,2025-10-24,株式会社ＦＩＮＮ,,株式会社,東京都,渋谷区,渋谷２丁目１９‐１５宮益坂ビルディング６０９,,13,113,1500002,,,2025-10-24,清算の結了等,,,2024-11-13,1,,,,,フィン,0
1151,6011302011827,登記記録の閉鎖等,0,2025-11-20,2025-11-17,有限会社オービット,,有限会社,東京都,杉並区,下井草３丁目４番２０号,,13,115,1670022,,,2025-11-17,清算の結了等,,,2015-10-05,1,,,,,オービット,0
1160,6012403004744,登記記録の閉鎖等,0,2025-11-20,2025-10-24,ＫＹＳ合同会社,,合同会社,東京都,渋谷区,神宮前６丁目２３番４号桑野ビル２階,,13,113,1500001,,,2025-10-24,清算の結了等,,,2021-03-15,1,,,,,ケイワイエス,0
1162,6012801003769,登記記録の閉鎖等,0,2025-11-20,2025-11-14,株式会社大雄企画,,株式会社,東京都,昭島市,玉川町３丁目２７番２号－２０１,,13,207,1960034,,,2025-11-14,清算の結了等,,,2015-10-05,1,,,,,ダイユウキカク,0
1165,6013201014828,登記記録の閉鎖等,0,2025-11-20,2025-10-24,株式会社ドロタ,,株式会社,東京都,目黒区,祐天寺１丁目９番６号,,13,110,1530052,,,2025-10-24,清算の結了等,,,2015-10-05,1,,,,,ドロタ,0
1169,6020001058781,登記記録の閉鎖等,0,2025-11-20,2025-11-12,株式会社ＫＥＩＴＨ,,株式会社,神奈川県,横浜市緑区,長津田みなみ台４丁目２番地１－４０１,,14,113,2260018,,,2025-11-12,清算の結了等,,,2015-10-05,1,,,,,キース,0
1172,6020001152717,登記記録の閉鎖等,0,2025-11-20,2025-11-12,株式会社ミウラ,,株式会社,神奈川県,横浜市港北区,日吉５丁目２９番３１号,,14,109,2230061,,,2025-11-12,清算の結了等,,,2023-07-28,1,,,,,ミウラ,0
1173,6020002020666,登記記録の閉鎖等,0,2025-11-20,2025-11-06,有限会社今井超硬,,有限会社,神奈川県,横浜市旭区,西川島町８７番地７,,14,112,2410012,,,2025-11-06,清算の結了等,,,2015-10-05,1,,,,,イマイチョウコウ,0
1174,6020002026259,登記記録の閉鎖等,0,2025-11-20,2025-11-13,有限会社ケイプランニング,,有限会社,神奈川県,横浜市神奈川区,上反町１丁目５番地の８,,14,102,2210831,,,2025-11-13,清算の結了等,,,2015-10-05,1,,,,,ケイプランニング,0
1193,6030002061767,登記記録の閉鎖等,0,2025-11-20,2025-11-12,有限会社新座観光トラベル,,有限会社,埼玉県,新座市,野火止１丁目２０番２１号,,11,230,3520011,,,2025-11-12,清算の結了等,,,2015-10-05,1,,,,,ニイザカンコウトラベル,0
1200,6040001121001,登記記録の閉鎖等,0,2025-11-20,2025-10-27,株式会社Ｅｔｅｒｎａｌ　Ｔｗｉｌｉｇｈｔ,,株式会社,千葉県,松戸市,幸谷７８６番地の２,,12,207,2700017,,,2025-10-27,清算の結了等,,,2021-11-17,1,,,,,エターナルトワイライト,0
1211,6070002035684,登記記録の閉鎖等,0,2025-11-20,2025-11-17,有限会社しんでんや旅館,,有限会社,群馬県,利根郡みなかみ町,猿ヶ京温泉１５２８番地,,10,449,3791403,,,2025-11-17,清算の結了等,,,2015-10-05,1,,,,,シンデンヤリョカン,0
1214,6100001017606,登記記録の閉鎖等,0,2025-11-20,2025-11-17,株式会社竹乃家,,株式会社,長野県,大町市,平２８８４番地１３,,20,212,3980001,,,2025-11-17,清算の結了等,,,2015-10-05,1,,,,,タケノヤ,0
1215,6100002002508,登記記録の閉鎖等,0,2025-11-20,2025-11-14,有限会社首里,,有限会社,長野県,長野市,伊勢宮１丁目２３番２号,,20,201,3800958,,,2025-11-14,清算の結了等,,,2015-10-05,1,,,,,シュリ,0
1236,6120901024278,登記記録の閉鎖等,0,2025-11-20,2025-11-05,株式会社正起,,株式会社,大阪府,豊中市,西泉丘２丁目７４４番地の１（Ｂ－１１３号）,,27,203,5610862,,,2025-11-05,清算の結了等,,,2015-10-05,1,,,,,マサキ,0
1242,6122001000382,登記記録の閉鎖等,0,2025-11-20,2025-11-17,株式会社アド・ホット,,株式会社,大阪府,東大阪市,長田２丁目１９番２３号,,27,227,5770015,,,2025-11-17,清算の結了等,,,2015-10-05,1,,,,,アドホット,0
1243,6130001017090,登記記録の閉鎖等,0,2025-11-20,2025-11-18,株式会社ミヤハラ装鞄,,株式会社,京都府,京都市下京区,油小路通七条上る米屋町１７９ノ１,,26,106,6008229,,,2025-11-18,清算の結了等,,,2015-10-05,1,,,,,,0
1253,6140002031924,登記記録の閉鎖等,0,2025-11-20,2025-11-17,有限会社太子リンタン工場,,有限会社,兵庫県,たつの市,誉田町片吹中の森１９１番地,,28,229,6794137,,,2025-11-17,清算の結了等,,,2015-10-05,1,,,,,タイシリンタンコウジョウ,0
1266,6180005020474,登記記録の閉鎖等,0,2025-11-20,2025-11-18,一般社団法人ＣＯＲＥＣＡＲＡ,,その他の設立登記法人,愛知県,名古屋市千種区,園山町２丁目３番１号,,23,101,4640812,,,2025-11-18,清算の結了等,,,2023-12-22,1,,,,,コレカラ,0
1275,6240002002106,登記記録の閉鎖等,0,2025-11-20,2025-11-14,有限会社エイチアンドエス,,有限会社,広島県,広島市佐伯区,美鈴が丘西１丁目３番１５号,,34,108,7315114,,,2025-11-14,清算の結了等,,,2015-10-05,1,,,,,エイチアンドエス,0
1276,6240002048909,登記記録の閉鎖等,0,2025-11-20,2025-11-17,有限会社三上工務店,,有限会社,広島県,安芸郡府中町,浜田２丁目６番３７号,,34,302,7350013,,,2025-11-17,清算の結了等,,,2015-10-05,1,,,,,ミカミコウムテン,0
1278,6260002015254,登記記録の閉鎖等,0,2025-11-20,2025-11-12,有限会社フジ企画,,有限会社,岡山県,岡山市南区,西紅陽台２丁目５８番地４１６,,33,104,7091203,,,2025-11-12,清算の結了等,,,2015-10-05,1,,,,,フジキカク,0
1289,6290002022074,登記記録の閉鎖等,0,2025-11-20,2025-10-29,有限会社下川組,,有限会社,福岡県,福岡市博多区,西春町１丁目１番４５号,,40,132,8120873,,,2025-10-29,清算の結了等,,,2015-10-05,1,,,,,シモカワグミ,0
1301,6370003006431,登記記録の閉鎖等,0,2025-11-20,2025-10-29,合同会社ＨＯＳＨＩ,,合同会社,宮城県,宮城郡七ヶ浜町,遠山３丁目１番６１号,,04,404,9850823,,,2025-10-29,清算の結了等,,,2024-01-12,1,,,,,ホシ,0
1302,6370003006910,登記記録の閉鎖等,0,2025-11-20,2025-11-07,合同会社かんてつ,,合同会社,宮城県,名取市,美田園４丁目８番地の４,,04,207,9811217,,,2025-11-07,清算の結了等,,,2025-01-30,1,,,,,カンテツ,0
1316,6490005005741,登記記録の閉鎖等,0,2025-11-20,2025-10-14,特定非営利活動法人総合介護サービス愛と心のまごの手,,その他の設立登記法人,高知県,室戸市,元甲１９１番地１,,39,202,7817107,,,2025-10-14,清算の結了等,,,2015-10-05,1,,,,,ソウゴウカイゴサービスアイトココロノマゴノテ,0
1323,7010001186260,登記記録の閉鎖等,0,2025-11-20,2025-11-17,株式会社ＰＡＰＡＢＵＢＢＬＥ　ＪＡＰＡＮ　ＨＤ,,株式会社,東京都,千代田区,神田猿楽町２丁目６番８号,,13,101,1010064,,,2025-11-17,合併による解散等,4370402001613,令和７年１１月１日東京都中野区新井一丁目１５番１３号株式会社ＰＡＰＡＢＵＢＢＬＥ（4370402001613）に合併し解散,2017-09-14,1,,,,,パパブブレジャパンホールディングス,0
1328,7010003045910,登記記録の閉鎖等,0,2025-11-20,2025-11-05,エスティ１４合同会社,,合同会社,東京都,千代田区,丸の内１丁目４番１号東京共同会計事務所内,,13,101,1000005,,,2025-11-05,清算の結了等,,,2024-12-27,1,,,,,エスティジュウヨン,0
1341,7010501003089,登記記録の閉鎖等,0,2025-11-20,2025-11-10,株式会社木下家具店,,株式会社,東京都,台東区,西浅草１丁目１番１３－６０７号,,13,106,1110035,,,2025-11-10,清算の結了等,,,2015-10-05,1,,,,,キノシタカグテン,0
1346,7010701028167,登記記録の閉鎖等,0,2025-11-20,2025-11-18,株式会社ＳＰＥＫ,,株式会社,東京都,世田谷区,北烏山１丁目３０,,13,112,1570061,,,2025-11-18,清算の結了等,,,2015-10-05,1,,,,,スペック,0
1347,7010701037787,登記記録の閉鎖等,0,2025-11-20,2025-11-06,アソビ株式会社,,株式会社,東京都,文京区,大塚６丁目１０番６－２０８号,,13,105,1120012,,,2025-11-06,清算の結了等,,,2019-07-10,1,,,,,アソビ,0
1380,7020001017563,登記記録の閉鎖等,0,2025-11-20,2025-11-11,旧．新栄運輸株式会社,,株式会社,神奈川県,横浜市鶴見区,平安町１丁目４６番地の１,,14,101,2300031,,,2025-11-11,清算の結了等,,,2015-10-05,1,,,,,キュウシンエイウンユ,0
1381,7020001029468,登記記録の閉鎖等,0,2025-11-20,2025-11-17,株式会社ドキュメント,,株式会社,神奈川県,横浜市中区,尾上町３丁目３５番地,,14,104,2310015,,,2025-11-17,清算の結了等,,,2015-10-05,1,,,,,ドキュメント,0
1383,7020001112273,登記記録の閉鎖等,0,2025-11-20,2025-11-12,Ｃ－Ｃｏｍｍｅｒｃｅコンサルティング株式会社,,株式会社,神奈川県,横浜市青葉区,新石川４丁目２９番地６７,,14,117,2250003,,,2025-11-12,清算の結了等,,,2015-10-05,1,,,,,シーコマースコンサルティング,0
1393,7030001087861,登記記録の閉鎖等,0,2025-11-20,2025-11-13,株式会社ＷｉｎＰｒｏ,,株式会社,埼玉県,大里郡寄居町,大字赤浜１９０３番地,,11,408,3691211,,,2025-11-13,清算の結了等,,,2015-10-05,1,,,,,ウインプロ,0
1402,7040001015185,登記記録の閉鎖等,0,2025-11-20,2025-10-27,株式会社ＣＡＰＳ,,株式会社,千葉県,習志野市,茜浜１丁目２番１２号,,12,216,2750024,,,2025-10-27,清算の結了等,,,2015-10-05,1,,,,,キャップス,0
1422,7110001010575,登記記録の閉鎖等,0,2025-11-20,2025-11-17,株式会社トータルハンズ,,株式会社,新潟県,新潟市中央区,長潟３丁目１２番１５号コーポライフ２０６号,,15,103,9500932,,,2025-11-17,清算の結了等,,,2015-10-05,1,,,,,トータルハンズ,0
1429,7120001010582,登記記録の閉鎖等,0,2025-11-20,2025-11-17,株式会社東販機工,,株式会社,大阪府,大阪市平野区,平野宮町１丁目６番２－５０４号,,27,126,5470046,,,2025-11-17,清算の結了等,,,2015-10-05,1,,,,,トウハンキコウ,0
1438,7120002067639,登記記録の閉鎖等,0,2025-11-20,2025-11-14,有限会社大弘弘田商店,,有限会社,大阪府,大阪市福島区,野田１丁目１番８６号,,27,103,5530005,,,2025-11-14,清算の結了等,,,2015-10-05,1,,,,,ダイヒロヒロタショウテン,0
1451,7130002030827,登記記録の閉鎖等,0,2025-11-20,2025-11-18,有限会社ヒロ,,有限会社,京都府,城陽市,久世上大谷１１２番地の１２,,26,207,6100102,,,2025-11-18,清算の結了等,,,2015-10-05,1,,,,,ヒロ,0
1456,7140001138182,登記記録の閉鎖等,0,2025-11-20,2025-11-14,株式会社ＫＡＩＴＯテクノロジー,,株式会社,兵庫県,神戸市中央区,北長狭通４丁目４番１２号エンゼルマリン元町７０２号,,28,110,6500012,,,2025-11-14,清算の結了等,,,2025-04-16,1,,,,,カイトテクノロジー,0
1491,7290001078281,登記記録の閉鎖等,0,2025-11-20,2025-11-07,株式会社ライフグリーン,,株式会社,福岡県,福岡市城南区,茶山４丁目１番２１－２０８号,,40,136,8140111,,,2025-11-07,清算の結了等,,,2017-06-28,1,,,,,ライフグリーン,0
1494,7290002018996,登記記録の閉鎖等,0,2025-11-20,2025-11-12,福政建設有限会社,,有限会社,福岡県,福岡市中央区,小笹１丁目１５番１０－１０７号,,40,133,8100033,,,2025-11-12,清算の結了等,,,2015-10-05,1,,,,,フクセイケンセツ,0
1518,7410002006047,登記記録の閉鎖等,0,2025-11-20,2025-11-18,有限会社シャルレときこ,,有限会社,秋田県,秋田市,新屋日吉町２１番７号,,05,201,0101622,,,2025-11-18,清算の結了等,,,2015-10-05,1,,,,,シャルレトキコ,0
1519,7420001012193,登記記録の閉鎖等,0,2025-11-20,2025-11-11,リッチ・アイ株式会社,,株式会社,青森県,八戸市,大字鮫町字上盲久保１８－９,,02,203,0310841,,,2025-11-11,清算の結了等,,,2015-10-05,1,,,,,リッチアイ,0
1521,7420002005601,登記記録の閉鎖等,0,2025-11-20,2025-11-14,有限会社ＳＴＣファシリティーズ,,有限会社,青森県,弘前市,大字桔梗野４丁目９番地２,,02,202,0368227,,,2025-11-14,清算の結了等,,,2015-10-05,1,,,,,エスティーシーファシリティーズ,0
1529,7500002022035,登記記録の閉鎖等,0,2025-11-20,2025-11-18,有限会社菓子工房ワタナベ,,有限会社,愛媛県,四国中央市,土居町土居１７番地１,,38,213,7990711,,,2025-11-18,清算の結了等,,,2015-10-05,1,,,,,カシコウボウワタナベ,0
1564,8011502015139,登記記録の閉鎖等,0,2025-11-20,2025-11-17,有限会社エヌ・アイ・シー,,有限会社,東京都,荒川区,東日暮里２丁目１５番５号,,13,118,1160014,,,2025-11-17,清算の結了等,,,2015-10-05,1,,,,,エヌアイシー,0
1571,8012401004067,登記記録の閉鎖等,0,2025-11-20,2025-11-14,森建設工業株式会社,,株式会社,東京都,国立市,西２丁目８番地の１１,,13,215,1860005,,,2025-11-14,清算の結了等,,,2015-10-05,1,,,,,モリケンセツコウギョウ,0
1576,8020001146956,登記記録の閉鎖等,0,2025-11-20,2025-11-12,株式会社王騎,,株式会社,神奈川県,横浜市港北区,菊名７丁目３番３８－１０５号,,14,109,2220011,,,2025-11-12,清算の結了等,,,2022-06-15,1,,,,,オウキ,0
1578,8020002064463,登記記録の閉鎖等,0,2025-11-20,2025-11-12,有限会社エス・イー・ケー,,有限会社,神奈川県,横浜市金沢区,六浦東３丁目３番７３号,,14,108,2360037,,,2025-11-12,清算の結了等,,,2015-10-05,1,,,,,エスイーケー,0
1579,8020002073101,登記記録の閉鎖等,0,2025-11-20,2025-11-13,有限会社テック＆テック,,有限会社,神奈川県,横浜市旭区,鶴ケ峰本町３丁目７－２,,14,112,2410021,,,2025-11-13,清算の結了等,,,2015-10-05,1,,,,,テックアンドテック,0
1580,8020002076475,登記記録の閉鎖等,0,2025-11-20,2025-11-14,有限会社ＳｉｇｎａｌＯｎｅ，Ｉｎｃ．,,有限会社,神奈川県,横浜市保土ケ谷区,峰岡町３丁目４０２番地,,14,106,2400064,,,2025-11-14,清算の結了等,,,2015-10-05,1,,,,,シグナルワンインコーポレイテッド,0
1592,8030002110745,登記記録の閉鎖等,0,2025-11-20,2025-11-13,有限会社ＧＯＯＤＭＥＡＴ,,有限会社,埼玉県,川口市,戸塚東３丁目１５番３号,,11,203,3330802,,,2025-11-13,清算の結了等,,,2015-10-05,1,,,,,グッドミート,0
1601,8040002057903,登記記録の閉鎖等,0,2025-11-20,2025-10-23,有限会社サムテック,,有限会社,千葉県,白井市,河原子２５０番６,,12,232,2701403,,,2025-10-23,清算の結了等,,,2015-10-05,1,,,,,サムテック,0
1606,8070002031707,登記記録の閉鎖等,0,2025-11-20,2025-11-17,有限会社大泉日伯センター,,有限会社,群馬県,邑楽郡大泉町,西小泉１丁目１２番１７号,,10,524,3700517,,,2025-11-17,清算の結了等,,,2015-10-05,1,,,,,オオイズミニチハクセンター,0
1608,8080101006261,登記記録の閉鎖等,0,2025-11-20,2025-11-17,三島給食株式会社,,株式会社,静岡県,駿東郡長泉町,下土狩３２３番地の２７,,22,342,4110943,,,2025-11-17,清算の結了等,,,2015-10-05,1,,,,,ミシマキュウショク,0
1609,8080103001302,登記記録の閉鎖等,0,2025-11-20,2025-11-17,合同会社輝寿,,合同会社,静岡県,沼津市,松長５１番８,,22,203,4100874,,,2025-11-17,清算の結了等,,,2015-10-05,1,,,,,,0
1610,8080401005203,登記記録の閉鎖等,0,2025-11-20,2025-11-13,株式会社丸浜青果,,株式会社,静岡県,浜松市中央区,新貝町２３９番地の１,,22,138,4350023,,,2025-11-13,清算の結了等,,,2015-10-05,1,,,,,マルハマセイカ,0
1620,8110001025473,登記記録の閉鎖等,0,2025-11-20,2025-11-18,株式会社藤工務店,,株式会社,新潟県,小千谷市,大字岩沢２３５２番地３,,15,208,9498724,,,2025-11-18,清算の結了等,,,2015-10-05,1,,,,,フジコウムテン,0
1625,8120001056773,登記記録の閉鎖等,0,2025-11-20,2025-11-18,株式会社タックマネヂメントシステム,,株式会社,大阪府,大阪市淀川区,西中島５丁目１３番１２号,,27,123,5320011,,,2025-11-18,清算の結了等,,,2015-10-05,1,,,,,タックマネヂメントシステム,0
1632,8120001155419,登記記録の閉鎖等,0,2025-11-20,2025-11-19,オカモト電産株式会社,,株式会社,大阪府,守口市,大枝東町２１番１号,,27,209,5700036,,,2025-11-19,清算の結了等,,,2015-10-05,1,,,,,オカモトデンサン,0
1655,8130001018946,登記記録の閉鎖等,0,2025-11-20,2025-11-17,株式会社万喜商店,,株式会社,京都府,京都市下京区,諏訪町通五条上る高砂町３７３番地,,26,106,6008420,,,2025-11-17,清算の結了等,,,2015-10-05,1,,,,,マンキショウテン,0
1683,8180301018071,登記記録の閉鎖等,0,2025-11-20,2025-11-17,金城建材株式会社,,株式会社,愛知県,豊田市,栄生町２丁目２７番地５,,23,211,4710067,,,2025-11-17,清算の結了等,,,2015-10-05,1,,,,,カネシロケンザイ,0
1686,8190001008561,登記記録の閉鎖等,0,2025-11-20,2025-11-17,トーデン工業株式会社,,株式会社,三重県,伊賀市,上神戸２００番地の１,,24,216,5180116,,,2025-11-17,清算の結了等,,,2015-10-05,1,,,,,トーデンコウギョウ,0
1696,8220002003624,登記記録の閉鎖等,0,2025-11-20,2025-11-14,有限会社タケダ電気工事,,有限会社,石川県,金沢市,三馬１丁目２８７番地,,17,201,9218162,,,2025-11-14,清算の結了等,,,2015-10-05,1,,,,,タケダデンキコウジ,0
1711,8330002012804,登記記録の閉鎖等,0,2025-11-20,2025-11-13,エーワン開発有限会社,,有限会社,熊本県,熊本市南区,八分字町２５８１番地１,,43,104,8615253,,,2025-11-13,清算の結了等,,,2015-10-05,1,,,,,エーワンカイハツ,0
1716,8350002018502,登記記録の閉鎖等,0,2025-11-20,2025-11-13,有限会社大栄重機,,有限会社,宮崎県,えびの市,大字小田１３４１番地,,45,209,8894222,,,2025-11-13,清算の結了等,,,2015-10-05,1,,,,,ダイエイジュウキ,0
1718,8360001030754,登記記録の閉鎖等,0,2025-11-20,2025-11-17,株式会社ＧＩＤ　Ｔａｌｋ,,株式会社,沖縄県,沖縄市,泡瀬５丁目３３－２８,,47,211,9042172,,,2025-11-17,清算の結了等,,,2022-08-01,1,,,,,ジーアイディートーク,0
1721,8370202000588,登記記録の閉鎖等,0,2025-11-20,2025-11-11,有限会社鈴木自動車,,有限会社,宮城県,大崎市,古川北町１丁目７番１１号,,04,215,9896171,,,2025-11-11,清算の結了等,,,2015-10-05,1,,,,,スズキジドウシャ,0
1724,8380002009259,登記記録の閉鎖等,0,2025-11-20,2025-11-12,有限会社寿屋酒店,,有限会社,福島県,郡山市,香久池２丁目２０番８号,,07,203,9638833,,,2025-11-12,清算の結了等,,,2015-10-05,1,,,,,コトブキヤサケテン,0
1726,8390001001240,登記記録の閉鎖等,0,2025-11-20,2025-11-06,株式会社千歳館,,株式会社,山形県,山形市,七日町４丁目９番２号,,06,201,9900042,,,2025-11-06,清算の結了等,,,2015-10-05,1,,,,,チトセカン,0
1727,8400001016773,登記記録の閉鎖等,0,2025-11-20,2025-11-11,株式会社ＴＳＵＮＯ,,株式会社,岩手県,滝沢市,鵜飼鬼越１６番地１１１,,03,216,0200686,,,2025-11-11,清算の結了等,,,2024-08-30,1,,,,,ツノ,0
1730,8410003004131,登記記録の閉鎖等,0,2025-11-20,2025-11-11,合資会社瀬川製材所,,合資会社,秋田県,能代市,明治町１５番２２号,,05,202,0160833,,,2025-11-11,清算の結了等,,,2025-07-30,1,,,,,セガワセイザイショ,0
1731,8420001012374,登記記録の閉鎖等,0,2025-11-20,2025-11-13,株式会社坂本乳販,,株式会社,青森県,むつ市,大字関根字安畑４９番地８７,,02,208,0350022,,,2025-11-13,清算の結了等,,,2015-10-05,1,,,,,サカモトニュウハン,0
1742,8430003012982,登記記録の閉鎖等,0,2025-11-20,2025-10-09,合同会社ＳｎｅａｋｙＳｎｅａｋｙ,,合同会社,北海道,札幌市白石区,北郷二条１２丁目１４番１５号,,01,104,0030832,,,2025-10-09,清算の結了等,,,2021-07-21,1,,,,,スネーキースネーキー,0
1750,8500002009015,登記記録の閉鎖等,0,2025-11-20,2025-11-17,有限会社ケアサービスはまゆう,,有限会社,愛媛県,松山市,和気町２丁目８６２番地４８,,38,201,7992656,,,2025-11-17,清算の結了等,,,2015-10-05,1,,,,,ケアサービスハマユウ,0
1800,9011401019909,登記記録の閉鎖等,0,2025-11-20,2025-11-17,日本興志サービス株式会社,,株式会社,東京都,板橋区,常盤台２丁目１５番９号,,13,119,1740071,,,2025-11-17,合併による解散等,9011001099277,令和７年１１月１日東京都千代田区霞が関三丁目３番１号尚友会館日本興志株式会社（9011001099277）に合併し解散,2016-12-14,1,,,,,ニホンコウシサービス,0
1811,9011802017222,登記記録の閉鎖等,0,2025-11-20,2025-11-17,有限会社はいむ日比谷建築,,有限会社,東京都,足立区,島根２丁目１８番１０号,,13,121,1210815,,,2025-11-17,清算の結了等,,,2015-10-05,1,,,,,ハイムヒビヤケンチク,0
1812,9011803003130,登記記録の閉鎖等,0,2025-11-20,2025-11-17,合同会社クエスト,,合同会社,東京都,葛飾区,柴又１丁目１２番１５号,,13,122,1250052,,,2025-11-17,清算の結了等,,,2017-12-19,1,,,,,クエスト,0
1824,9020003013567,登記記録の閉鎖等,0,2025-11-20,2025-11-13,合同会社技巧舎,,合同会社,神奈川県,横浜市西区,浅間町４丁目３４９番１２号１階,,14,103,2200072,,,2025-11-13,清算の結了等,,,2017-11-24,1,,,,,,0
1838,9040001025810,登記記録の閉鎖等,0,2025-11-20,2025-10-10,江森建設株式会社,,株式会社,千葉県,市川市,大野町４丁目２６９９番地,,12,203,2720805,,,2025-10-10,清算の結了等,,,2015-10-05,1,,,,,エモリケンセツ,0
1839,9040001028557,登記記録の閉鎖等,0,2025-11-20,2025-10-27,株式会社キムラ,,株式会社,千葉県,市川市,二俣６７３番地,,12,203,2720001,,,2025-10-27,清算の結了等,,,2015-10-05,1,,,,,,0
1851,9080402015497,登記記録の閉鎖等,0,2025-11-20,2025-11-13,有限会社藤田教材文具,,有限会社,静岡県,浜松市浜名区,尾野２５８８番地の１４,,22,139,4340002,,,2025-11-13,清算の結了等,,,2015-10-05,1,,,,,フジタキョウザイブング,0
1858,9110005010074,登記記録の閉鎖等,0,2025-11-20,2025-11-18,妻有ショッピングセンター協同組合,,その他の設立登記法人,新潟県,十日町市,本町３丁目３６２番地４,,15,210,9480082,,,2025-11-18,清算の結了等,,,2015-10-05,1,,,,,ツマリショッピングセンター,0
1864,9120001217473,登記記録の閉鎖等,0,2025-11-20,2025-11-17,株式会社ＳＯＬＩＯ,,株式会社,大阪府,大阪市中央区,天満橋京町一丁目２７番ファラン天満橋３３号室,,27,128,5400032,,,2025-11-17,清算の結了等,,,2018-11-30,1,,,,,ソリオ,0
1872,9120901005696,登記記録の閉鎖等,0,2025-11-20,2025-10-23,株式会社栄信,,株式会社,大阪府,吹田市,元町１９番１３号,,27,205,5640031,,,2025-10-23,清算の結了等,,,2025-07-15,1,,,,,エイシン,0
1873,9120901026024,登記記録の閉鎖等,0,2025-11-20,2025-11-04,山本金属株式会社,,株式会社,大阪府,豊中市,三和町１丁目３番１０号,,27,203,5610828,,,2025-11-04,清算の結了等,,,2015-10-05,1,,,,,ヤマモトキンゾク,0
1897,9180305009371,登記記録の閉鎖等,0,2025-11-20,2025-11-14,一般財団法人東三河スポーツ地域振興財団,,その他の設立登記法人,愛知県,豊橋市,植田町字大膳３９番地の５,,23,201,4418134,,,2025-11-14,清算の結了等,,,2022-08-04,1,,,,,ヒガシミカワスポーツチイキシンコウ,0
1900,9190001011911,登記記録の閉鎖等,0,2025-11-20,2025-11-18,株式会社神農興社,,株式会社,三重県,志摩市,阿児町神明７５２番地３４,,24,215,5170502,,,2025-11-18,清算の結了等,,,2015-10-05,1,,,,,シンノウコウシャ,0
1907,9250001021045,登記記録の閉鎖等,0,2025-11-20,2025-11-14,株式会社ｐｅｔｉｔｅ　ｐａｕｓｅ,,株式会社,山口県,周南市,松保町８－２２,,35,215,7450847,,,2025-11-14,清算の結了等,,,2025-03-17,1,,,,,プティットポーズ,0
1912,9290002035800,登記記録の閉鎖等,0,2025-11-20,2025-11-13,倭有限会社,,有限会社,福岡県,糸島市,井原字松井７９０番地３,,40,230,8191582,,,2025-11-13,清算の結了等,,,2015-10-05,1,,,,,ヤマト,0
1913,9290002054511,登記記録の閉鎖等,0,2025-11-20,2025-11-06,有限会社ＫＳカムレイド,,有限会社,福岡県,大川市,大字向島２６６５番地,,40,212,8310005,,,2025-11-06,清算の結了等,,,2015-10-05,1,,,,,ケイエスカムレイド,0
1915,9290005004075,登記記録の閉鎖等,0,2025-11-20,2025-10-24,特定非営利活動法人ＨＥＡＲＴＹ．ＳＭＩＬＥ,,その他の設立登記法人,福岡県,福岡市東区,みどりが丘２丁目２５番１３号,,40,131,8130021,,,2025-10-24,清算の結了等,,,2015-10-05,1,,,,,ハーティスマイル,0
1929,9350001004857,登記記録の閉鎖等,0,2025-11-20,2025-11-18,株式会社いこいの里うめの木,,株式会社,宮崎県,宮崎市,高岡町下倉永５５９番地６,,45,201,8802212,,,2025-11-18,清算の結了等,,,2015-10-05,1,,,,,イコイノサトウメノキ,0
1936,9370002014390,登記記録の閉鎖等,0,2025-11-20,2025-11-12,有限会社東北テクノファ,,有限会社,宮城県,仙台市青葉区,昭和町２番２３号ノーヴスアーバンビル３０３－Ｄ,,04,101,9810913,,,2025-11-12,清算の結了等,,,2015-10-05,1,,,,,トウホクテクノファ,0
1946,9430003011067,登記記録の閉鎖等,0,2025-11-20,2025-11-17,ｍａｉｎｉｃｈｉ　ｈａｐｐｙ合同会社,,合同会社,北海道,札幌市白石区,菊水二条１丁目６番２２号１００１号,,01,104,0030802,,,2025-11-17,清算の結了等,,,2019-12-16,1,,,,,マイニチハッピー,0
