sequenceNumber,corporateNumber,process,correct,updateDate,changeDate,name,nameImageId,kind,prefectureName,cityName,streetNumber,addressImageId,prefectureCode,cityCode,postCode,addressOutside,addressOutsideImageId,closeDate,closeCause,successorCorporateNumber,changeCause,assignmentDate,latest,enName,enPrefectureName,enCityName,enAddressOutside,furigana,hihyoji
14,1010003038060,登記記録の閉鎖等,0,2023-01-18,2023-01-06,バーシーズ合同会社,,合同会社,東京都,中央区,銀座５丁目４番７号銀座サワモトビル４階,,13,102,1040061,,,2023-01-06,清算の結了等,,,2022-07-05,1,,,,,バーシーズ,0
24,1010401093582,登記記録の閉鎖等,0,2023-01-18,2023-01-12,株式会社ポラリス,,株式会社,兵庫県,神戸市中央区,磯辺通１丁目１番２０号ＫＯＷＡ　ＢＬＤＧ．６０２,,28,110,6510084,,,2023-01-12,清算の結了等,,,2015-10-05,1,,,,,ポラリス,0
38,1010602006203,登記記録の閉鎖等,0,2023-01-18,2023-01-10,有限会社吉野工務店,,有限会社,東京都,江東区,東砂８丁目７番２０号,,13,108,1360074,,,2023-01-10,清算の結了等,,,2015-10-05,1,,,,,ヨシノコウムテン,0
64,1011101002049,登記記録の閉鎖等,0,2023-01-18,2023-01-13,いちまるに株式会社,,株式会社,東京都,新宿区,北新宿１丁目２０番５号柏豊荘１０号,,13,104,1690074,,,2023-01-13,清算の結了等,,,2015-10-05,1,,,,,イチマルニ,0
67,1011101059295,登記記録の閉鎖等,0,2023-01-18,2023-01-13,グローバルナビ株式会社,,株式会社,東京都,新宿区,高田馬場４丁目３番７－５０２号,,13,104,1690075,,,2023-01-13,清算の結了等,,,2015-10-05,1,,,,,グローバルナビ,0
86,1012401010303,登記記録の閉鎖等,0,2023-01-18,2023-01-17,株式会社国立フードセンター,,株式会社,東京都,国立市,東１丁目１８番地１１,,13,215,1860002,,,2023-01-17,登記官による閉鎖,,,2015-10-05,1,,,,,,0
87,1012401019550,登記記録の閉鎖等,0,2023-01-18,2023-01-17,ＴｈｉＳ　ＰＬＡＹ株式会社,,株式会社,東京都,国立市,東２丁目１２番地の６,,13,215,1860002,,,2023-01-17,登記官による閉鎖,,,2015-10-05,1,,,,,,0
90,1012705000628,登記記録の閉鎖等,0,2023-01-18,2023-01-18,特定非営利活動法人三鷹自由労働者組合環境センター,,その他の設立登記法人,東京都,東久留米市,柳窪１丁目１０番３７号,,13,222,2030044,,,2023-01-18,登記官による閉鎖,,,2015-10-05,1,,,,,,0
91,1012802000002,登記記録の閉鎖等,0,2023-01-18,2023-01-17,有限会社安達電設,,有限会社,東京都,立川市,高松町２丁目２番６号,,13,202,1900011,,,2023-01-17,登記官による閉鎖,,,2015-10-05,1,,,,,,0
97,1013401005788,登記記録の閉鎖等,0,2023-01-18,2023-01-17,株式会社ＯＮＥプラス,,株式会社,東京都,日野市,南平５丁目２２番５号,,13,212,1910041,,,2023-01-17,登記官による閉鎖,,,2015-10-05,1,,,,,,0
139,1070003004296,登記記録の閉鎖等,0,2023-01-18,2023-01-12,民事信託サポートセンター合同会社,,合同会社,群馬県,高崎市,大橋町１３番地,,10,202,3700803,,,2023-01-12,清算の結了等,,,2021-11-16,1,,,,,ミンジシンタクサポートセンター,0
140,1080001001922,登記記録の閉鎖等,0,2023-01-18,2023-01-18,株式会社シオックス,,株式会社,静岡県,静岡市駿河区,小黒１丁目１０番２４号,,22,102,4228072,,,2023-01-18,登記官による閉鎖,,,2015-10-05,1,,,,,,0
143,1080001015360,登記記録の閉鎖等,0,2023-01-18,2023-01-18,株式会社ヤマコ佐藤,,株式会社,静岡県,焼津市,焼津３丁目４番６号,,22,212,4250026,,,2023-01-18,登記官による閉鎖,,,2015-10-05,1,,,,,,0
144,1080001015468,登記記録の閉鎖等,0,2023-01-18,2023-01-18,株式会社おおいがわ建設,,株式会社,静岡県,焼津市,吉永１０２７番地の１,,22,212,4210211,,,2023-01-18,登記官による閉鎖,,,2015-10-05,1,,,,,,0
145,1080001018289,登記記録の閉鎖等,0,2023-01-18,2023-01-18,株式会社榛原銀行,,株式会社,静岡県,牧之原市,福岡１５番地,,22,226,4210521,,,2023-01-18,登記官による閉鎖,,,2015-10-05,1,,,,,,0
147,1080002006615,登記記録の閉鎖等,0,2023-01-18,2023-01-18,トータル・オブジェクト・プランニング有限会社,,有限会社,静岡県,静岡市葵区,千代田１丁目１１番１９号,,22,101,4200803,,,2023-01-18,登記官による閉鎖,,,2015-10-05,1,,,,,,0
149,1080002017645,登記記録の閉鎖等,0,2023-01-18,2023-01-18,有限会社スギ一,,有限会社,静岡県,藤枝市,岡部町岡部１９６０番地の３,,22,214,4211121,,,2023-01-18,登記官による閉鎖,,,2015-10-05,1,,,,,,0
150,1080005005507,登記記録の閉鎖等,0,2023-01-18,2023-01-18,静岡県指定自動車教習所協同組合,,その他の設立登記法人,静岡県,焼津市,柳新屋８５８番地,,22,212,4250074,,,2023-01-18,登記官による閉鎖,,,2015-10-05,1,,,,,,0
151,1080101020062,登記記録の閉鎖等,0,2023-01-18,2023-01-18,株式会社精興舎,,株式会社,静岡県,三島市,東町２番１９号,,22,206,4110852,,,2023-01-18,登記官による閉鎖,,,2017-09-12,1,,,,,,0
152,1080102002695,登記記録の閉鎖等,0,2023-01-18,2023-01-18,有限会社西尾電機,,有限会社,静岡県,沼津市,岡宮１０８８番地の１,,22,203,4100011,,,2023-01-18,登記官による閉鎖,,,2015-10-05,1,,,,,,0
153,1080102004114,登記記録の閉鎖等,0,2023-01-18,2023-01-18,伊東石工有限会社,,有限会社,静岡県,裾野市,桃園１９８番地の１１３,,22,220,4101126,,,2023-01-18,登記官による閉鎖,,,2015-10-05,1,,,,,,0
154,1080102005013,登記記録の閉鎖等,0,2023-01-18,2023-01-18,有限会社サンエイ,,有限会社,静岡県,沼津市,大岡２４２６番地の１エストワン５０３号室,,22,203,4100022,,,2023-01-18,登記官による閉鎖,,,2015-10-05,1,,,,,,0
155,1080102009897,登記記録の閉鎖等,0,2023-01-18,2023-01-18,有限会社加藤庭苑研究所,,有限会社,静岡県,駿東郡長泉町,上長窪１５２番地,,22,342,4110935,,,2023-01-18,登記官による閉鎖,,,2015-10-05,1,,,,,,0
156,1080102011804,登記記録の閉鎖等,0,2023-01-18,2023-01-18,有限会社武蔵電気,,有限会社,静岡県,駿東郡長泉町,中土狩４３２番地の１５,,22,342,4110942,,,2023-01-18,登記官による閉鎖,,,2015-10-05,1,,,,,,0
157,1080102015020,登記記録の閉鎖等,0,2023-01-18,2023-01-18,有限会社ポプラ洋品店,,有限会社,静岡県,富士市,本町１５番６号,,22,210,4160914,,,2023-01-18,登記官による閉鎖,,,2015-10-05,1,,,,,,0
158,1080102017958,登記記録の閉鎖等,0,2023-01-18,2023-01-18,有限会社熱海富士配ぜん人紹介所,,有限会社,静岡県,熱海市,春日町２番９号,,22,205,4130005,,,2023-01-18,登記官による閉鎖,,,2015-10-05,1,,,,,,0
159,1080102020805,登記記録の閉鎖等,0,2023-01-18,2023-01-18,有限会社日高物産,,有限会社,静岡県,伊東市,富戸１３０１番地の４５２,,22,208,4130231,,,2023-01-18,登記官による閉鎖,,,2015-10-05,1,,,,,,0
160,1080102021134,登記記録の閉鎖等,0,2023-01-18,2023-01-18,有限会社ポトゥープールジェン,,有限会社,静岡県,下田市,一丁目１９番２号,,22,219,4150021,,,2023-01-18,登記官による閉鎖,,,2015-10-05,1,,,,,,0
161,1080102022388,登記記録の閉鎖等,0,2023-01-18,2023-01-18,有限会社杉山製罐工業,,有限会社,静岡県,沼津市,下香貫西村１４６９番地,,22,203,4100822,,,2023-01-18,登記官による閉鎖,,,2018-12-20,1,,,,,スギヤマセイカンコウギョウ,0
163,1080401016999,登記記録の閉鎖等,0,2023-01-18,2023-01-18,株式会社ＡＬＬ　ＢＥＳＴ　ａｓｓｉｓｔ,,株式会社,静岡県,磐田市,西貝塚３１０５番地１,,22,211,4380026,,,2023-01-18,登記官による閉鎖,,,2015-10-05,1,,,,,,0
164,1080402003113,登記記録の閉鎖等,0,2023-01-18,2023-01-18,有限会社材木商大石,,有限会社,静岡県,浜松市東区,半田山３丁目４０番１１号,,22,132,4313125,,,2023-01-18,登記官による閉鎖,,,2015-10-05,1,,,,,,0
165,1080402003575,登記記録の閉鎖等,0,2023-01-18,2023-01-18,有限会社陣笠,,有限会社,静岡県,浜松市中区,野口町５８０番地の２,,22,131,4300919,,,2023-01-18,登記官による閉鎖,,,2015-10-05,1,,,,,,0
168,1080402018004,登記記録の閉鎖等,0,2023-01-18,2023-01-18,有限会社アイシルク,,有限会社,静岡県,掛川市,沖之須１９３０番地の２,,22,213,4371303,,,2023-01-18,登記官による閉鎖,,,2015-10-05,1,,,,,,0
169,1080405004967,登記記録の閉鎖等,0,2023-01-18,2023-01-18,浜岡町新野丸上製茶農業協同組合,,その他の設立登記法人,静岡県,御前崎市,新野２２６６番地の３,,22,223,4371611,,,2023-01-18,登記官による閉鎖,,,2015-10-05,1,,,,,,0
170,1080405005684,登記記録の閉鎖等,0,2023-01-18,2023-01-18,立体駐車場景観美化協同組合,,その他の設立登記法人,静岡県,磐田市,中泉５８４番地２,,22,211,4380078,,,2023-01-18,登記官による閉鎖,,,2015-10-05,1,,,,,,0
173,1090002009344,登記記録の閉鎖等,0,2023-01-18,2023-01-11,有限会社大月クリスタル,,有限会社,山梨県,大月市,猿橋町藤崎１６５番地,,19,206,4090612,,,2023-01-11,清算の結了等,,,2015-10-05,1,,,,,オオツキクリスタル,0
175,1110001036452,登記記録の閉鎖等,0,2023-01-18,2023-01-13,株式会社パディス,,株式会社,新潟県,燕市,花園町１７番１４号,,15,213,9591221,,,2023-01-13,清算の結了等,,,2022-02-22,1,,,,,パディス,0
176,1110002007510,登記記録の閉鎖等,0,2023-01-18,2023-01-16,有限会社稲葉組,,有限会社,新潟県,新潟市東区,中野山６丁目２２番９号,,15,102,9500841,,,2023-01-16,清算の結了等,,,2015-10-05,1,,,,,イナバグミ,0
179,1120001026956,登記記録の閉鎖等,0,2023-01-18,2023-01-16,株式会社吉,00027959,株式会社,大阪府,大阪市此花区,西九条３丁目１６番１８号,,27,104,5540012,,,2023-01-16,清算の結了等,,,2015-10-05,1,,,,,,0
194,1120002004127,登記記録の閉鎖等,0,2023-01-18,2023-01-13,有限会社エス・ジー・メディカル,,有限会社,大阪府,大阪市都島区,東野田町４丁目４番１５号,,27,102,5340024,,,2023-01-13,清算の結了等,,,2015-10-05,1,,,,,エスジーメディカル,0
227,1180001019748,登記記録の閉鎖等,0,2023-01-18,2023-01-17,株式会社シルバースウォード,,株式会社,愛知県,名古屋市中川区,春田３丁目８７番地,,23,110,4540985,,,2023-01-17,登記官による閉鎖,,,2015-10-05,1,,,,,,0
228,1180001035134,登記記録の閉鎖等,0,2023-01-18,2023-01-17,春日商事株式会社,,株式会社,愛知県,名古屋市中区,大須２丁目１９番３６号,,23,106,4600011,,,2023-01-17,登記官による閉鎖,,,2015-10-05,1,,,,,,0
229,1180001041693,登記記録の閉鎖等,0,2023-01-18,2023-01-17,株式会社ユーノス愛知,,株式会社,愛知県,名古屋市瑞穂区,二野町３番１８号,,23,108,4670861,,,2023-01-17,登記官による閉鎖,,,2015-10-05,1,,,,,,0
230,1180001043657,登記記録の閉鎖等,0,2023-01-18,2023-01-17,株式会社ドウエ,,株式会社,愛知県,名古屋市中区,新栄２丁目２番７号,,23,106,4600007,,,2023-01-17,登記官による閉鎖,,,2015-10-05,1,,,,,,0
231,1180001070338,登記記録の閉鎖等,0,2023-01-18,2023-01-17,株式会社ＡＣＫプロダクト,,株式会社,愛知県,名古屋市昭和区,川名本町６丁目２５番地の３,,23,107,4660855,,,2023-01-17,登記官による閉鎖,,,2015-10-05,1,,,,,,0
232,1180001073035,登記記録の閉鎖等,0,2023-01-18,2023-01-17,株式会社ＭａｋｉｓｏｎＮＡＧＯＹＡ,,株式会社,愛知県,名古屋市東区,葵１丁目２６－８葵ビル４Ｆ－１,,23,102,4610004,,,2023-01-17,登記官による閉鎖,,,2015-10-05,1,,,,,,0
233,1180001082696,登記記録の閉鎖等,0,2023-01-18,2023-01-17,株式会社サカイセンイ,,株式会社,愛知県,一宮市,新生３丁目１番１０号,,23,203,4910912,,,2023-01-17,登記官による閉鎖,,,2015-10-05,1,,,,,,0
234,1180001089898,登記記録の閉鎖等,0,2023-01-18,2023-01-17,株式会社ＷＳ,,株式会社,愛知県,名古屋市中区,栄４丁目１３番７号,,23,106,4600008,,,2023-01-17,登記官による閉鎖,,,2015-10-05,1,,,,,,0
235,1180001094361,登記記録の閉鎖等,0,2023-01-18,2023-01-17,株式会社高阪薬品,00111930,株式会社,愛知県,東海市,荒尾町中屋敷３番地の４,,23,222,4760003,,,2023-01-17,登記官による閉鎖,,,2017-12-07,1,,,,,,0
236,1180001100490,登記記録の閉鎖等,0,2023-01-18,2023-01-17,株式会社中日名流出版社,,株式会社,愛知県,名古屋市中区,丸の内１丁目５番３９号,,23,106,4600002,,,2023-01-17,登記官による閉鎖,,,2015-10-05,1,,,,,,0
237,1180001102025,登記記録の閉鎖等,0,2023-01-18,2023-01-17,株式会社ファーストイニング,,株式会社,愛知県,稲沢市,平和町横池本田３９６番地,,23,220,4901313,,,2023-01-17,登記官による閉鎖,,,2015-10-05,1,,,,,,0
242,1180002011654,登記記録の閉鎖等,0,2023-01-18,2023-01-17,有限会社志朗,,有限会社,愛知県,名古屋市北区,憧旛町２丁目３２番地,,23,103,4620868,,,2023-01-17,登記官による閉鎖,,,2015-10-05,1,,,,,,0
243,1180002021158,登記記録の閉鎖等,0,2023-01-18,2023-01-17,有限会社馬原鍍金工業所,,有限会社,愛知県,名古屋市天白区,元八事３丁目２５番地,,23,116,4680066,,,2023-01-17,登記官による閉鎖,,,2015-10-05,1,,,,,,0
244,1180002034218,登記記録の閉鎖等,0,2023-01-18,2023-01-17,有限会社森本和裁学院,,有限会社,愛知県,名古屋市東区,徳川１丁目２０２番地の１,,23,102,4610025,,,2023-01-17,登記官による閉鎖,,,2015-10-05,1,,,,,,0
245,1180002053639,登記記録の閉鎖等,0,2023-01-18,2023-01-17,有限会社名古屋烏堂,,有限会社,愛知県,名古屋市南区,駈上２丁目１番２号,,23,112,4570007,,,2023-01-17,登記官による閉鎖,,,2015-10-05,1,,,,,,0
246,1180002063183,登記記録の閉鎖等,0,2023-01-18,2023-01-17,報栄建機有限会社,,有限会社,愛知県,愛知郡東郷町,大字諸輪字百々５１番地１８,,23,302,4700151,,,2023-01-17,登記官による閉鎖,,,2015-10-05,1,,,,,,0
247,1180002063456,登記記録の閉鎖等,0,2023-01-18,2023-01-17,有限会社前原工業,,有限会社,愛知県,長久手市,岩作欠花９９番地,,23,238,4801103,,,2023-01-17,登記官による閉鎖,,,2015-10-05,1,,,,,,0
249,1180002071731,登記記録の閉鎖等,0,2023-01-18,2023-01-17,有限会社琴屋商店,,有限会社,愛知県,瀬戸市,さつき台１丁目３番地,,23,204,4890982,,,2023-01-17,登記官による閉鎖,,,2015-10-05,1,,,,,,0
250,1180002091606,登記記録の閉鎖等,0,2023-01-18,2023-01-17,有限会社昭美印刷,,有限会社,愛知県,あま市,森４丁目４番地の１,,23,237,4901107,,,2023-01-17,登記官による閉鎖,,,2015-10-05,1,,,,,,0
251,1180003008261,登記記録の閉鎖等,0,2023-01-18,2023-01-17,合資会社ブレインバンク,,合資会社,愛知県,名古屋市緑区,黒沢台２丁目２０４番地,,23,114,4580003,,,2023-01-17,登記官による閉鎖,,,2015-10-05,1,,,,,,0
252,1180003012610,登記記録の閉鎖等,0,2023-01-18,2023-01-17,合同会社ＯＳサービス,,合同会社,愛知県,名古屋市中村区,太閤３丁目２番１２号,,23,105,4530801,,,2023-01-17,登記官による閉鎖,,,2015-10-05,1,,,,,,0
253,1180005004366,登記記録の閉鎖等,0,2023-01-18,2023-01-17,愛知県同和食肉事業協同組合,,その他の設立登記法人,愛知県,名古屋市中区,新栄１丁目４３番２号,,23,106,4600007,,,2023-01-17,登記官による閉鎖,,,2015-10-05,1,,,,,,0
254,1180005010414,登記記録の閉鎖等,0,2023-01-18,2023-01-17,特定非営利活動法人もんちっち,,その他の設立登記法人,愛知県,一宮市,牛野通３丁目１３番地２,,23,203,4910846,,,2023-01-17,登記官による閉鎖,,,2015-10-05,1,,,,,,0
255,1180005012501,登記記録の閉鎖等,0,2023-01-18,2023-01-17,中部国際空港民間駐車場事業協同組合,,その他の設立登記法人,愛知県,常滑市,新開町２丁目９１番地,,23,216,4790837,,,2023-01-17,登記官による閉鎖,,,2015-10-05,1,,,,,,0
270,1290001009795,登記記録の閉鎖等,0,2023-01-18,2023-01-18,株式会社ピーディ都市環境コンサルタント,,株式会社,福岡県,福岡市中央区,天神３丁目１４番３１号天神リンデンビル５Ｆ,,40,133,8100001,,,2023-01-18,登記官による閉鎖,,,2015-10-05,1,,,,,,0
271,1290001027806,登記記録の閉鎖等,0,2023-01-18,2023-01-18,株式会社ファーストチョイス,,株式会社,福岡県,福岡市中央区,赤坂２丁目１番８号,,40,133,8100042,,,2023-01-18,登記官による閉鎖,,,2015-10-05,1,,,,,,0
272,1290001027839,登記記録の閉鎖等,0,2023-01-18,2023-01-18,株式会社ＳＡＦＦ,,株式会社,福岡県,福岡市博多区,博多駅前３丁目２３番１２号,,40,132,8120011,,,2023-01-18,登記官による閉鎖,,,2015-10-05,1,,,,,,0
273,1290001028250,登記記録の閉鎖等,0,2023-01-18,2023-01-18,イーストシャインテクノジャパン株式会社,,株式会社,福岡県,福岡市博多区,博多駅東２丁目１７番５号アークビル７Ｆ,,40,132,8120013,,,2023-01-18,登記官による閉鎖,,,2015-10-05,1,,,,,,0
274,1290001039925,登記記録の閉鎖等,0,2023-01-18,2023-01-12,株式会社ＮＡＳ,,株式会社,福岡県,福岡市東区,香椎浜１丁目９－２－１０１,,40,131,8130016,,,2023-01-12,清算の結了等,,,2015-10-05,1,,,,,,0
275,1290001043068,登記記録の閉鎖等,0,2023-01-18,2023-01-18,株式会社ジェイアイ,,株式会社,福岡県,春日市,昇町７丁目８番地,,40,218,8160851,,,2023-01-18,登記官による閉鎖,,,2015-10-05,1,,,,,,0
276,1290001043563,登記記録の閉鎖等,0,2023-01-18,2023-01-18,Ｓｙｏｋｕ株式会社,,株式会社,福岡県,春日市,白水ヶ丘６丁目１１５番地,,40,218,8160845,,,2023-01-18,登記官による閉鎖,,,2015-10-05,1,,,,,,0
277,1290001045709,登記記録の閉鎖等,0,2023-01-18,2023-01-18,藤山産業株式会社,,株式会社,福岡県,飯塚市,幸袋１４０番地７,,40,205,8200066,,,2023-01-18,登記官による閉鎖,,,2015-10-05,1,,,,,,0
278,1290001055055,登記記録の閉鎖等,0,2023-01-18,2023-01-18,株式会社みどり商会,,株式会社,福岡県,福岡市中央区,平尾２丁目１９－９－１２０１,,40,133,8100014,,,2023-01-18,登記官による閉鎖,,,2015-10-05,1,,,,,,0
283,1290002000778,登記記録の閉鎖等,0,2023-01-18,2023-01-18,有限会社中山ツカサの店,,有限会社,福岡県,福岡市西区,上山門１丁目４番２８号,,40,135,8190054,,,2023-01-18,登記官による閉鎖,,,2015-10-05,1,,,,,,0
284,1290002001041,登記記録の閉鎖等,0,2023-01-18,2023-01-18,有限会社マデック,,有限会社,福岡県,福岡市南区,井尻１丁目７番７－５０７号,,40,134,8111302,,,2023-01-18,登記官による閉鎖,,,2015-10-05,1,,,,,,0
285,1290002002188,登記記録の閉鎖等,0,2023-01-18,2023-01-18,有限会社坂口商会,,有限会社,福岡県,福岡市南区,若久６丁目２７番３１号,,40,134,8150042,,,2023-01-18,登記官による閉鎖,,,2015-10-05,1,,,,,,0
286,1290002007526,登記記録の閉鎖等,0,2023-01-18,2023-01-18,有限会社曙工業,,有限会社,福岡県,福岡市早良区,西新２丁目４番６－８号,,40,137,8140002,,,2023-01-18,登記官による閉鎖,,,2015-10-05,1,,,,,,0
287,1290002027094,登記記録の閉鎖等,0,2023-01-18,2023-01-18,有限会社藤崎商事,,有限会社,福岡県,福岡市中央区,天神３丁目４番１号,,40,133,8100001,,,2023-01-18,登記官による閉鎖,,,2015-10-05,1,,,,,,0
289,1290002045385,登記記録の閉鎖等,0,2023-01-18,2023-01-18,有限会社萱嶋建設,00093452,有限会社,福岡県,飯塚市,明星寺字原合２９６番地の２１,,40,205,8200022,,,2023-01-18,登記官による閉鎖,,,2015-10-05,1,,,,,,0
290,1290002051417,登記記録の閉鎖等,0,2023-01-18,2023-01-18,有限会社孝峰建設,,有限会社,福岡県,久留米市,三潴町早津崎７１８番地の１,,40,203,8300101,,,2023-01-18,登記官による閉鎖,,,2015-10-05,1,,,,,,0
291,1290002056804,登記記録の閉鎖等,0,2023-01-18,2023-01-18,有限会社ファインプロジェクト,,有限会社,福岡県,うきは市,吉井町千年７４番地１,,40,225,8391304,,,2023-01-18,登記官による閉鎖,,,2015-10-05,1,,,,,,0
294,1290005003811,登記記録の閉鎖等,0,2023-01-18,2023-01-18,特定非営利活動法人九州・山口フィルムオフィス,,その他の設立登記法人,福岡県,福岡市中央区,天神２丁目６番１７号,,40,133,8100001,,,2023-01-18,登記官による閉鎖,,,2015-10-05,1,,,,,,0
295,1290005004256,登記記録の閉鎖等,0,2023-01-18,2023-01-18,特定非営利活動法人福岡ベースボールクラブ,,その他の設立登記法人,福岡県,福岡市東区,八田１丁目１１番１３号,,40,131,8130031,,,2023-01-18,登記官による閉鎖,,,2015-10-05,1,,,,,,0
296,1290005007060,登記記録の閉鎖等,0,2023-01-18,2023-01-18,ゆうあい異業種協同組合,,その他の設立登記法人,福岡県,春日市,若葉台西４丁目１１４番地,,40,218,8160823,,,2023-01-18,登記官による閉鎖,,,2015-10-05,1,,,,,,0
297,1290801006785,登記記録の閉鎖等,0,2023-01-18,2023-01-18,株式会社ドリームメーカーズ,,株式会社,福岡県,北九州市小倉北区,紺屋町１３番１号,,40,106,8020081,,,2023-01-18,登記官による閉鎖,,,2015-10-05,1,,,,,,0
298,1290801017320,登記記録の閉鎖等,0,2023-01-18,2023-01-18,株式会社石松書店,,株式会社,福岡県,北九州市若松区,本町２丁目１０番９号,,40,103,8080034,,,2023-01-18,登記官による閉鎖,,,2015-10-05,1,,,,,,0
299,1290801017956,登記記録の閉鎖等,0,2023-01-18,2023-01-18,株式会社永洋建設,,株式会社,福岡県,田川郡川崎町,大字田原１２１３番地１,,40,605,8270004,,,2023-01-18,登記官による閉鎖,,,2015-10-05,1,,,,,,0
301,1290802002445,登記記録の閉鎖等,0,2023-01-18,2023-01-18,有限会社小倉南共同開発,,有限会社,福岡県,北九州市小倉南区,大字母原３４番地の１,,40,107,8030187,,,2023-01-18,登記官による閉鎖,,,2015-10-05,1,,,,,,0
302,1290802002676,登記記録の閉鎖等,0,2023-01-18,2023-01-18,有限会社サンウエイ,,有限会社,福岡県,北九州市小倉南区,沼本町２丁目１番２２号,,40,107,8000208,,,2023-01-18,登記官による閉鎖,,,2015-10-05,1,,,,,,0
303,1290802020918,登記記録の閉鎖等,0,2023-01-18,2023-01-18,有限会社辻塚工務店,00094685,有限会社,福岡県,鞍手郡小竹町,大字御徳１９７６番地の２４,,40,401,8201101,,,2023-01-18,登記官による閉鎖,,,2015-10-05,1,,,,,,0
304,1290802023607,登記記録の閉鎖等,0,2023-01-18,2023-01-18,有限会社プラッツ,,有限会社,福岡県,築上郡築上町,大字東八田１０９６番地の１,,40,647,8290342,,,2023-01-18,登記官による閉鎖,,,2015-10-05,1,,,,,,0
305,1290803001875,登記記録の閉鎖等,0,2023-01-18,2023-01-18,合同会社ナユタ商事,,合同会社,福岡県,北九州市八幡西区,陣原２丁目６番５‐２０３号,,40,109,8070821,,,2023-01-18,登記官による閉鎖,,,2015-10-05,1,,,,,,0
307,1290805004777,登記記録の閉鎖等,0,2023-01-18,2023-01-18,遠賀町商工業協同組合,,その他の設立登記法人,福岡県,遠賀郡遠賀町,遠賀川２丁目６番１８号,,40,384,8114307,,,2023-01-18,登記官による閉鎖,,,2015-10-05,1,,,,,,0
308,1290805005453,登記記録の閉鎖等,0,2023-01-18,2023-01-18,ＮＰＯ法人夢の里,,その他の設立登記法人,福岡県,北九州市八幡東区,東田２丁目５番８号,,40,108,8050071,,,2023-01-18,登記官による閉鎖,,,2015-10-05,1,,,,,,0
309,1290805005684,登記記録の閉鎖等,0,2023-01-18,2023-01-18,特定非営利活動法人ボランティア直方,,その他の設立登記法人,福岡県,直方市,大字上新入２４９０番地の１６,,40,204,8220033,,,2023-01-18,登記官による閉鎖,,,2015-10-05,1,,,,,,0
310,1290805007045,登記記録の閉鎖等,0,2023-01-18,2023-01-18,特定非営利活動法人ふるさとネットワーク百人の家,,その他の設立登記法人,福岡県,京都郡みやこ町,犀川崎山３０８７番地の２,,40,625,8240224,,,2023-01-18,登記官による閉鎖,,,2015-10-05,1,,,,,,0
314,1320001001666,登記記録の閉鎖等,0,2023-01-18,2023-01-18,株式会社ダイボウ・グラウト,,株式会社,大分県,大分市,三佐３丁目１２番２４号,,44,201,8700108,,,2023-01-18,登記官による閉鎖,,,2015-10-05,1,,,,,,0
315,1320001011244,登記記録の閉鎖等,0,2023-01-18,2023-01-18,オーテック・システム株式会社,,株式会社,大分県,中津市,三光原口６３０番地１,,44,203,8710105,,,2023-01-18,登記官による閉鎖,,,2015-10-05,1,,,,,,0
316,1320002000477,登記記録の閉鎖等,0,2023-01-18,2023-01-18,有限会社アイビー,,有限会社,大分県,大分市,西新地２丁目６番５０号,,44,201,8700901,,,2023-01-18,登記官による閉鎖,,,2015-10-05,1,,,,,,0
317,1320002001129,登記記録の閉鎖等,0,2023-01-18,2023-01-18,有限会社ヴィナス貸衣裳店,,有限会社,大分県,大分市,大字三芳１９２９番地,,44,201,8700030,,,2023-01-18,登記官による閉鎖,,,2015-10-05,1,,,,,,0
318,1320002001756,登記記録の閉鎖等,0,2023-01-18,2023-01-18,有限会社快気堂薬局,,有限会社,大分県,大分市,大字上宗方１６３０番地の１５,,44,201,8701152,,,2023-01-18,登記官による閉鎖,,,2015-10-05,1,,,,,,0
319,1320002010988,登記記録の閉鎖等,0,2023-01-18,2023-01-18,有限会社大分第一ラック工業,,有限会社,大分県,別府市,大字野田１３７番地の１,,44,202,8740016,,,2023-01-18,登記官による閉鎖,,,2015-10-05,1,,,,,,0
320,1320002012027,登記記録の閉鎖等,0,2023-01-18,2023-01-18,有限会社西日本歯科補綴学研究所,,有限会社,大分県,別府市,元町４番４号,,44,202,8740944,,,2023-01-18,登記官による閉鎖,,,2015-10-05,1,,,,,,0
321,1320002022777,登記記録の閉鎖等,0,2023-01-18,2023-01-18,有限会社中山工務店,,有限会社,大分県,別府市,船小路町２番９号,,44,202,8740922,,,2023-01-18,登記官による閉鎖,,,2017-08-07,1,,,,,,0
322,1320005002388,登記記録の閉鎖等,0,2023-01-18,2023-01-18,特定非営利活動法人かぼすはうす,,その他の設立登記法人,大分県,大分市,大字永興１１１３番地の１０,,44,201,8700883,,,2023-01-18,登記官による閉鎖,,,2015-10-05,1,,,,,,0
328,1360001013872,登記記録の閉鎖等,0,2023-01-18,2023-01-12,コーラル・ベジタブル株式会社,,株式会社,沖縄県,宮古島市,下地字川満５３７番地１１,,47,214,9060301,,,2023-01-12,清算の結了等,,,2015-10-05,1,,,,,コーラルベジタブル,0
343,1410002004337,登記記録の閉鎖等,0,2023-01-18,2023-01-18,有限会社ワイシー土崎,,有限会社,秋田県,秋田市,土崎港北５丁目６番２８号,,05,201,0110941,,,2023-01-18,登記官による閉鎖,,,2015-10-05,1,,,,,,0
344,1410002005715,登記記録の閉鎖等,0,2023-01-18,2023-01-18,有限会社セイカ,,有限会社,秋田県,潟上市,天王字蒲沼１３６番地１２,,05,211,0100201,,,2023-01-18,登記官による閉鎖,,,2015-10-05,1,,,,,,0
345,1410005000085,登記記録の閉鎖等,0,2023-01-18,2023-01-18,秋田県安全運転代行事業協同組合,,その他の設立登記法人,秋田県,秋田市,川尻みよし町６番８号,,05,201,0100945,,,2023-01-18,登記官による閉鎖,,,2015-10-05,1,,,,,,0
346,1410005002800,登記記録の閉鎖等,0,2023-01-18,2023-01-18,大館商栄協同組合,,その他の設立登記法人,秋田県,大館市,御成町１丁目９番７号,,05,204,0170044,,,2023-01-18,登記官による閉鎖,,,2015-10-05,1,,,,,,0
351,1460101004068,登記記録の閉鎖等,0,2023-01-18,2023-01-18,株式会社ジェイシス,,株式会社,北海道,帯広市,西六条北１丁目１５番地３－１０１,,01,207,0800036,,,2023-01-18,登記官による閉鎖,,,2015-10-05,1,,,,,,0
352,1460102007359,登記記録の閉鎖等,0,2023-01-18,2023-01-18,有限会社東陽電設,,有限会社,北海道,帯広市,西十三条北８丁目５番地５,,01,207,0800043,,,2023-01-18,登記官による閉鎖,,,2015-10-05,1,,,,,,0
354,1460302003637,登記記録の閉鎖等,0,2023-01-18,2023-01-18,びほろジュン有限会社,,有限会社,北海道,網走郡美幌町,字大通北３丁目４番地,,01,543,0920050,,,2023-01-18,登記官による閉鎖,,,2015-10-05,1,,,,,,0
355,1460302003975,登記記録の閉鎖等,0,2023-01-18,2023-01-13,有限会社つうさん,,有限会社,北海道,北見市,高栄西町９丁目７番５号,,01,208,0900058,,,2023-01-13,清算の結了等,,,2015-10-05,1,,,,,,0
356,1460305001258,登記記録の閉鎖等,0,2023-01-18,2023-01-18,特定非営利活動法人再生プロジェクトところ遺跡・ワッカ原生事業団,,その他の設立登記法人,北海道,北見市,常呂町字常呂５７５番地の２,,01,208,0930210,,,2023-01-18,登記官による閉鎖,,,2015-10-05,1,,,,,,0
359,1490001003381,登記記録の閉鎖等,0,2023-01-18,2023-01-18,大一建設株式会社,,株式会社,高知県,高知市,南ノ丸町１０番地,,39,201,7808016,,,2023-01-18,登記官による閉鎖,,,2016-11-11,1,,,,,,0
360,1490002000857,登記記録の閉鎖等,0,2023-01-18,2023-01-18,有限会社オグロ設備,,有限会社,高知県,高知市,一宮中町３丁目５番１号,,39,201,7818134,,,2023-01-18,登記官による閉鎖,,,2015-10-05,1,,,,,,0
361,1490002007142,登記記録の閉鎖等,0,2023-01-18,2023-01-18,有限会社キョーワ調剤,,有限会社,高知県,高知市,朝倉本町２丁目１１番２１号,,39,201,7808073,,,2023-01-18,登記官による閉鎖,,,2015-10-05,1,,,,,,0
362,1490002011870,登記記録の閉鎖等,0,2023-01-18,2023-01-18,有限会社都市建設工業,,有限会社,高知県,南国市,岡豊町常通寺島４３８番地１,,39,204,7830047,,,2023-01-18,登記官による閉鎖,,,2015-10-05,1,,,,,,0
363,1490002012274,登記記録の閉鎖等,0,2023-01-18,2023-01-18,有限会社野口商店,,有限会社,高知県,香南市,夜須町手結２９８番地,,39,211,7815621,,,2023-01-18,登記官による閉鎖,,,2015-10-05,1,,,,,,0
364,1490002013396,登記記録の閉鎖等,0,2023-01-18,2023-01-18,有限会社グランド味通,,有限会社,高知県,高知市,升形５番４０号,,39,201,7800861,,,2023-01-18,登記官による閉鎖,,,2018-10-10,1,,,,,グランドアジツウ,0
365,1490005000029,登記記録の閉鎖等,0,2023-01-18,2023-01-18,南はりまや町一丁目東協同組合,,その他の設立登記法人,高知県,高知市,南はりまや町１丁目７番８号,,39,201,7800833,,,2023-01-18,登記官による閉鎖,,,2015-10-05,1,,,,,,0
366,1490005004351,登記記録の閉鎖等,0,2023-01-18,2023-01-18,物部村土地開発公社,,その他の設立登記法人,高知県,香美市,物部町大栃１６４１番地,,39,212,7814401,,,2023-01-18,登記官による閉鎖,,,2016-01-22,1,,,,,,0
367,1490005004797,登記記録の閉鎖等,0,2023-01-18,2023-01-18,嶺北建築業協同組合,,その他の設立登記法人,高知県,長岡郡本山町,木能津１２７９番地ロ,,39,341,7813608,,,2023-01-18,登記官による閉鎖,,,2015-10-05,1,,,,,,0
376,2010001227580,登記記録の閉鎖等,0,2023-01-18,2023-01-05,株式会社ＮＭ１,,株式会社,東京都,千代田区,丸の内３丁目１番１号東京共同会計事務所内,,13,101,1000005,,,2023-01-05,合併による解散等,6010001226521,令和５年１月１日東京都千代田区丸の内三丁目１番１号東京共同会計事務所内株式会社ＣＨ（6010001226521）に合併し解散,2022-06-23,1,,,,,エヌエムワン,0
381,2010102006710,登記記録の閉鎖等,0,2023-01-18,2023-01-12,有限会社みのり商事,,有限会社,東京都,八王子市,打越町５９５番地の３,,13,201,1920911,,,2023-01-12,清算の結了等,,,2015-10-05,1,,,,,ミノリショウジ,0
383,2010401015610,登記記録の閉鎖等,0,2023-01-18,2022-12-27,株式会社セイワビジネスサプライズ,,株式会社,東京都,港区,虎ノ門１丁目１番２１号,,13,103,1050001,,,2022-12-27,清算の結了等,,,2015-10-05,1,,,,,セイワビジネスサプライズ,0
425,2011505002057,登記記録の閉鎖等,0,2023-01-18,2023-01-17,医療法人社団星優会,,その他の設立登記法人,東京都,千代田区,大手町２丁目１番１号大手町野村ビル地下１階,,13,101,1000004,,,2023-01-17,清算の結了等,,,2017-03-13,1,,,,,,0
427,2011605001909,登記記録の閉鎖等,0,2023-01-18,2023-01-11,コープ野村練馬錦管理組合法人,,その他の設立登記法人,東京都,練馬区,錦１丁目４０番９号,,13,120,1790082,,,2023-01-11,清算の結了等,,,2015-10-05,1,,,,,,0
433,2012401019979,登記記録の閉鎖等,0,2023-01-18,2023-01-17,株式会社Ａｒｋ,,株式会社,東京都,国分寺市,南町２丁目１７番９号ＡＲＴビル２階,,13,214,1850021,,,2023-01-17,登記官による閉鎖,,,2015-10-05,1,,,,,,0
435,2012401035951,登記記録の閉鎖等,0,2023-01-18,2023-01-13,Ｃｈａｍｅ．株式会社,,株式会社,東京都,調布市,富士見町４丁目２３番地１６,,13,208,1820033,,,2023-01-13,清算の結了等,,,2019-11-14,1,,,,,チャメ,0
436,2012402003164,登記記録の閉鎖等,0,2023-01-18,2023-01-17,有限会社井戸,,有限会社,東京都,国分寺市,高木町３丁目２５番地６５,,13,214,1850036,,,2023-01-17,登記官による閉鎖,,,2015-10-05,1,,,,,,0
437,2012402004006,登記記録の閉鎖等,0,2023-01-18,2023-01-17,中村技術翻訳有限会社,,有限会社,東京都,国分寺市,南町２丁目１８番３号,,13,214,1850021,,,2023-01-17,登記官による閉鎖,,,2015-10-05,1,,,,,,0
440,2012702005298,登記記録の閉鎖等,0,2023-01-18,2023-01-18,有限会社オーツ精工,,有限会社,東京都,西東京市,向台町４丁目９番６号,,13,229,1880013,,,2023-01-18,登記官による閉鎖,,,2015-10-05,1,,,,,,0
441,2012702008045,登記記録の閉鎖等,0,2023-01-18,2023-01-18,有限会社東京プリンター,,有限会社,東京都,清瀬市,旭が丘２丁目１番１－２０９号,,13,221,2040002,,,2023-01-18,登記官による閉鎖,,,2015-10-05,1,,,,,,0
442,2012801008706,登記記録の閉鎖等,0,2023-01-18,2023-01-17,株式会社ＨＯＴ　ＬＩＰ,,株式会社,東京都,立川市,西砂町４丁目３７番２号クラール・ブリーゼＩ２０２,,13,202,1900034,,,2023-01-17,登記官による閉鎖,,,2015-10-05,1,,,,,,0
451,2020001066631,登記記録の閉鎖等,0,2023-01-18,2023-01-12,辻田商事株式会社,,株式会社,神奈川県,川崎市宮前区,宮崎２丁目４番地１５,,14,136,2160033,,,2023-01-12,清算の結了等,,,2015-10-05,1,,,,,ツジタショウジ,0
455,2020002077727,登記記録の閉鎖等,0,2023-01-18,2023-01-11,有限会社ホクト,,有限会社,神奈川県,鎌倉市,今泉台３丁目１番６号,,14,204,2470053,,,2023-01-11,清算の結了等,,,2015-10-05,1,,,,,ホクト,0
461,2021001054923,登記記録の閉鎖等,0,2023-01-18,2023-01-12,株式会社エスプラン,,株式会社,神奈川県,相模原市中央区,相模原３丁目１０番２号,,14,152,2520231,,,2023-01-12,清算の結了等,,,2015-10-05,1,,,,,エスプラン,0
478,2030001142118,登記記録の閉鎖等,0,2023-01-18,2023-01-10,株式会社ｒｉｋｏｌｅ,,株式会社,埼玉県,蕨市,南町１丁目３４番６号,,11,223,3350003,,,2023-01-10,清算の結了等,,,2021-05-11,1,,,,,リコレ,0
498,2050003005171,登記記録の閉鎖等,0,2023-01-18,2023-01-11,合同会社ＳＥＣＴＩＯＮ　ＦＯＲＣＥ,,合同会社,茨城県,土浦市,桜町４丁目３番１８号,,08,203,3000037,,,2023-01-11,清算の結了等,,,2020-04-28,1,,,,,セクションフォース,0
499,2060001028545,登記記録の閉鎖等,0,2023-01-18,2023-01-12,株式会社宇都宮グランドホテル,,株式会社,栃木県,宇都宮市,西原町１４２番地,,09,201,3200826,,,2023-01-12,清算の結了等,,,2016-08-12,1,,,,,ウツノミヤグランドホテル,0
507,2080001011359,登記記録の閉鎖等,0,2023-01-18,2023-01-18,株式会社セシエ,,株式会社,静岡県,静岡市駿河区,下島１２１番地の４,,22,102,4228037,,,2023-01-18,登記官による閉鎖,,,2015-10-05,1,,,,,,0
508,2080001014304,登記記録の閉鎖等,0,2023-01-18,2023-01-18,株式会社池新田銀行,,株式会社,静岡県,牧之原市,相良１７８番地,,22,226,4210522,,,2023-01-18,登記官による閉鎖,,,2015-10-05,1,,,,,,0
509,2080001017637,登記記録の閉鎖等,0,2023-01-18,2023-01-18,静岡トレーディング株式会社,,株式会社,静岡県,牧之原市,中１３４６番地１,,22,226,4210403,,,2023-01-18,登記官による閉鎖,,,2015-10-05,1,,,,,,0
511,2080005000903,登記記録の閉鎖等,0,2023-01-18,2023-01-18,静岡エクステリア事業協同組合,,その他の設立登記法人,静岡県,静岡市駿河区,敷地１丁目１番４０号,,22,102,4228036,,,2023-01-18,登記官による閉鎖,,,2015-10-05,1,,,,,,0
512,2080101008726,登記記録の閉鎖等,0,2023-01-18,2023-01-18,株式会社住宅装備,,株式会社,静岡県,富士市,日乃出町１６５番地の１,,22,210,4170056,,,2023-01-18,登記官による閉鎖,,,2015-10-05,1,,,,,,0
513,2080101014014,登記記録の閉鎖等,0,2023-01-18,2023-01-18,株式会社ワンステップ,,株式会社,静岡県,熱海市,西熱海町１丁目２７番２２号,,22,205,4130038,,,2023-01-18,登記官による閉鎖,,,2015-10-05,1,,,,,,0
514,2080101015607,登記記録の閉鎖等,0,2023-01-18,2023-01-18,株式会社アスピレイション,,株式会社,静岡県,沼津市,内浦長浜１６０番地,,22,203,4100224,,,2023-01-18,登記官による閉鎖,,,2015-10-05,1,,,,,,0
515,2080101021324,登記記録の閉鎖等,0,2023-01-18,2023-01-18,株式会社尾木製作所,,株式会社,静岡県,富士市,前田３４８番地,,22,210,4160937,,,2023-01-18,登記官による閉鎖,,,2019-09-06,1,,,,,オギセイサクショ,0
516,2080101021852,登記記録の閉鎖等,0,2023-01-18,2023-01-18,日本リーダー株式会社,,株式会社,静岡県,熱海市,清水町１９番２号,,22,205,4130021,,,2023-01-18,登記官による閉鎖,,,2020-06-17,1,,,,,ニホンリーダー,0
517,2080102004732,登記記録の閉鎖等,0,2023-01-18,2023-01-16,有限会社ハピネスワン,,有限会社,静岡県,沼津市,鳥谷８５番地の１,,22,203,4100305,,,2023-01-16,清算の結了等,,,2015-10-05,1,,,,,ハピネスワン,0
518,2080102006308,登記記録の閉鎖等,0,2023-01-18,2023-01-18,有限会社スギモト水産,,有限会社,静岡県,沼津市,志下２４０番地,,22,203,4100106,,,2023-01-18,登記官による閉鎖,,,2015-10-05,1,,,,,,0
519,2080102010441,登記記録の閉鎖等,0,2023-01-18,2023-01-18,有限会社システムライフ,,有限会社,静岡県,三島市,中３１３番地の１,,22,206,4110833,,,2023-01-18,登記官による閉鎖,,,2015-10-05,1,,,,,,0
520,2080102012520,登記記録の閉鎖等,0,2023-01-18,2023-01-18,有限会社エステートタカスギ,,有限会社,静岡県,田方郡函南町,畑毛２０５番地の１１,,22,325,4190111,,,2023-01-18,登記官による閉鎖,,,2015-10-05,1,,,,,,0
521,2080102014946,登記記録の閉鎖等,0,2023-01-18,2023-01-18,フジ美装有限会社,,有限会社,静岡県,富士市,国久保２丁目１０番３３号,,22,210,4170071,,,2023-01-18,登記官による閉鎖,,,2015-10-05,1,,,,,,0
522,2080102022404,登記記録の閉鎖等,0,2023-01-18,2023-01-18,有限会社清和総合企画,,有限会社,静岡県,富士宮市,小泉１９６９番地の２,,22,207,4180022,,,2023-01-18,登記官による閉鎖,,,2019-06-26,1,,,,,セイワソウゴウキカク,0
523,2080401017831,登記記録の閉鎖等,0,2023-01-18,2023-01-18,株式会社京和ジャパン,,株式会社,静岡県,袋井市,浅羽１２００番地の１０,,22,216,4371101,,,2023-01-18,登記官による閉鎖,,,2015-10-05,1,,,,,,0
527,2080402003302,登記記録の閉鎖等,0,2023-01-18,2023-01-13,有限会社三代建設,,有限会社,静岡県,浜松市中区,元城町１０６番地の１１,,22,131,4300946,,,2023-01-13,清算の結了等,,,2015-10-05,1,,,,,ミヨケンセツ,0
528,2080402004481,登記記録の閉鎖等,0,2023-01-18,2023-01-18,有限会社創作苑,,有限会社,静岡県,浜松市西区,大平台３丁目２８番１４号,,22,133,4328068,,,2023-01-18,登記官による閉鎖,,,2015-10-05,1,,,,,,0
529,2080402004952,登記記録の閉鎖等,0,2023-01-18,2023-01-18,有限会社タムラエンジニアリング,,有限会社,静岡県,浜松市東区,原島町５００番地,,22,132,4350047,,,2023-01-18,登記官による閉鎖,,,2015-10-05,1,,,,,,0
531,2080402007369,登記記録の閉鎖等,0,2023-01-18,2023-01-18,有限会社マイ・オフィス,,有限会社,静岡県,浜松市北区,初生町４２２番地の４,,22,135,4338112,,,2023-01-18,登記官による閉鎖,,,2015-10-05,1,,,,,,0
532,2080402021717,登記記録の閉鎖等,0,2023-01-18,2023-01-18,有限会社二興電気工事,,有限会社,静岡県,袋井市,春岡９６２番地の４,,22,216,4370122,,,2023-01-18,登記官による閉鎖,,,2015-10-05,1,,,,,,0
533,2080403002393,登記記録の閉鎖等,0,2023-01-18,2023-01-18,合資会社フラックス,,合資会社,静岡県,浜松市浜北区,於呂２９８６番地の１０,,22,136,4340015,,,2023-01-18,登記官による閉鎖,,,2015-10-05,1,,,,,,0
534,2080403002708,登記記録の閉鎖等,0,2023-01-18,2023-01-18,愛幸房Ｐｌｕｓ合同会社,,合同会社,静岡県,浜松市北区,初生町１６９番地の５,,22,135,4338112,,,2023-01-18,登記官による閉鎖,,,2015-10-05,1,,,,,,0
535,2080405004933,登記記録の閉鎖等,0,2023-01-18,2023-01-18,小笠村川中製茶農業協同組合,,その他の設立登記法人,静岡県,菊川市,川上１３２４番地の１,,22,224,4371503,,,2023-01-18,登記官による閉鎖,,,2015-10-05,1,,,,,,0
537,2100001007726,登記記録の閉鎖等,0,2023-01-18,2023-01-16,丸井建材株式会社,,株式会社,長野県,佐久市,岩村田４２０６番地５,,20,217,3850022,,,2023-01-16,清算の結了等,,,2015-10-05,1,,,,,マルイケンザイ,0
543,2120001117127,登記記録の閉鎖等,0,2023-01-18,2023-01-11,株式会社カルミ,,株式会社,大阪府,大阪市中央区,船場中央３丁目２番８号館２２８号,,27,128,5410055,,,2023-01-11,清算の結了等,,,2015-10-05,1,,,,,カルミ,0
551,2120001172196,登記記録の閉鎖等,0,2023-01-18,2023-01-16,株式会社ＨＵＧＯ,,株式会社,大阪府,大阪市北区,梅田１丁目１－３大阪駅前第３ビル２３０７,,27,127,5300001,,,2023-01-16,清算の結了等,,,2015-10-05,1,,,,,,0
572,2120901011049,登記記録の閉鎖等,0,2023-01-18,2023-01-16,サンワ株式会社,,株式会社,大阪府,高槻市,富田町６丁目１番１７号,,27,207,5690814,,,2023-01-16,清算の結了等,,,2015-10-05,1,,,,,サンワ,0
594,2180001000178,登記記録の閉鎖等,0,2023-01-18,2023-01-17,株式会社栄立,,株式会社,愛知県,名古屋市守山区,天子田２丁目３０５番地,,23,113,4630037,,,2023-01-17,登記官による閉鎖,,,2015-10-05,1,,,,,,0
595,2180001009780,登記記録の閉鎖等,0,2023-01-18,2023-01-17,旭精密工業株式会社,,株式会社,愛知県,名古屋市瑞穂区,河岸１丁目４番５号,,23,108,4670845,,,2023-01-17,登記官による閉鎖,,,2015-10-05,1,,,,,,0
596,2180001024078,登記記録の閉鎖等,0,2023-01-18,2023-01-17,株式会社ナリタ工業,,株式会社,愛知県,名古屋市天白区,島田５丁目１２０８番地,,23,116,4680056,,,2023-01-17,登記官による閉鎖,,,2015-10-05,1,,,,,ナリタコウギョウ,0
597,2180001024202,登記記録の閉鎖等,0,2023-01-18,2023-01-17,株式会社オートサービス名古屋,,株式会社,愛知県,名古屋市瑞穂区,二野町３番１８号,,23,108,4670861,,,2023-01-17,登記官による閉鎖,,,2015-10-05,1,,,,,,0
598,2180001033335,登記記録の閉鎖等,0,2023-01-18,2023-01-17,株式会社ワイピー,,株式会社,愛知県,名古屋市西区,那古野１丁目１４番１８号,,23,104,4510042,,,2023-01-17,登記官による閉鎖,,,2015-10-05,1,,,,,,0
599,2180001033541,登記記録の閉鎖等,0,2023-01-18,2023-01-17,愛知マツダ株式会社,,株式会社,愛知県,名古屋市瑞穂区,二野町３番１８号,,23,108,4670861,,,2023-01-17,登記官による閉鎖,,,2015-10-05,1,,,,,,0
601,2180001035942,登記記録の閉鎖等,0,2023-01-18,2023-01-17,株式会社コテドール,,株式会社,愛知県,名古屋市中区,門前町２番１号,,23,106,4600018,,,2023-01-17,登記官による閉鎖,,,2015-10-05,1,,,,,,0
602,2180001048259,登記記録の閉鎖等,0,2023-01-18,2023-01-17,株式会社タイムスタッフ,,株式会社,愛知県,名古屋市東区,葵３丁目３番８号,,23,102,4610004,,,2023-01-17,登記官による閉鎖,,,2015-10-05,1,,,,,,0
603,2180001060916,登記記録の閉鎖等,0,2023-01-18,2023-01-17,株式会社サントピア,,株式会社,愛知県,名古屋市中区,栄１丁目２５－２８－２０５,,23,106,4600008,,,2023-01-17,登記官による閉鎖,,,2015-10-05,1,,,,,,0
604,2180001062400,登記記録の閉鎖等,0,2023-01-18,2023-01-17,株式会社ウエズ,,株式会社,愛知県,名古屋市緑区,浦里１丁目１１０番地,,23,114,4580847,,,2023-01-17,登記官による閉鎖,,,2015-10-05,1,,,,,,0
605,2180001083669,登記記録の閉鎖等,0,2023-01-18,2023-01-17,株式会社ベストマン,,株式会社,愛知県,一宮市,花池４丁目２番１８号,,23,203,4910914,,,2023-01-17,登記官による閉鎖,,,2015-10-05,1,,,,,,0
606,2180001085186,登記記録の閉鎖等,0,2023-01-18,2023-01-17,エンディクセス株式会社,,株式会社,愛知県,一宮市,今伊勢町馬寄字福塚前１３番地１,,23,203,4910051,,,2023-01-17,登記官による閉鎖,,,2015-10-05,1,,,,,,0
607,2180001099814,登記記録の閉鎖等,0,2023-01-18,2023-01-17,株式会社ハヤシ,,株式会社,愛知県,あま市,七宝町安松１４丁目９６番地,,23,237,4970011,,,2023-01-17,登記官による閉鎖,,,2015-10-05,1,,,,,,0
615,2180002002198,登記記録の閉鎖等,0,2023-01-18,2023-01-17,有限会社廣和設備,,有限会社,愛知県,名古屋市天白区,植田西２丁目１２０番地,,23,116,4680058,,,2023-01-17,登記官による閉鎖,,,2015-10-05,1,,,,,,0
616,2180002003634,登記記録の閉鎖等,0,2023-01-18,2023-01-17,有限会社伊奈,,有限会社,愛知県,名古屋市千種区,鍋屋上野町字不動１８１３番地,,23,101,4640000,,,2023-01-17,登記官による閉鎖,,,2015-10-05,1,,,,,,0
618,2180002006298,登記記録の閉鎖等,0,2023-01-18,2023-01-17,有限会社サンアイ企画,,有限会社,愛知県,名古屋市南区,阿原町３７番地の２,,23,112,4570063,,,2023-01-17,登記官による閉鎖,,,2015-10-05,1,,,,,,0
620,2180002014160,登記記録の閉鎖等,0,2023-01-18,2023-01-17,宝化成有限会社,,有限会社,愛知県,名古屋市南区,中割町３丁目４７番地,,23,112,4570826,,,2023-01-17,登記官による閉鎖,,,2015-10-05,1,,,,,,0
623,2180002047169,登記記録の閉鎖等,0,2023-01-18,2023-01-17,有限会社田家,,有限会社,愛知県,名古屋市名東区,本郷２丁目２２７番地第二日吉ビル１Ｆ,,23,115,4650024,,,2023-01-17,登記官による閉鎖,,,2015-10-05,1,,,,,,0
624,2180002047631,登記記録の閉鎖等,0,2023-01-18,2023-01-17,有限会社全仲連東海,,有限会社,愛知県,名古屋市中村区,椿町１番３号チサンビル６０３,,23,105,4530015,,,2023-01-17,登記官による閉鎖,,,2015-10-05,1,,,,,,0
625,2180002055221,登記記録の閉鎖等,0,2023-01-18,2023-01-17,有限会社Ｅｔｕｄｅ,,有限会社,愛知県,名古屋市緑区,諸の木１丁目１９２２番地,,23,114,4580817,,,2023-01-17,登記官による閉鎖,,,2015-10-05,1,,,,,,0
626,2180002056657,登記記録の閉鎖等,0,2023-01-18,2023-01-17,有限会社アクアプロ,,有限会社,愛知県,名古屋市天白区,原１丁目１９０２番地,,23,116,4680015,,,2023-01-17,登記官による閉鎖,,,2015-10-05,1,,,,,,0
627,2180002062184,登記記録の閉鎖等,0,2023-01-18,2023-01-17,有限会社山由工業,,有限会社,愛知県,愛知郡東郷町,大字春木字下鏡田４４６番地の６９８,,23,302,4700162,,,2023-01-17,登記官による閉鎖,,,2015-10-05,1,,,,,,0
628,2180002063827,登記記録の閉鎖等,0,2023-01-18,2023-01-17,有限会社愛豊工機製作所,,有限会社,愛知県,豊明市,新栄町２丁目３４２番地,,23,229,4701154,,,2023-01-17,登記官による閉鎖,,,2015-10-05,1,,,,,,0
629,2180002071004,登記記録の閉鎖等,0,2023-01-18,2023-01-17,有限会社アリリン,,有限会社,愛知県,春日井市,勝川新町１丁目２６番地小林ビル２階,,23,206,4860941,,,2023-01-17,登記官による閉鎖,,,2015-10-05,1,,,,,,0
630,2180002072191,登記記録の閉鎖等,0,2023-01-18,2023-01-17,有限会社二村建設,,有限会社,愛知県,瀬戸市,田端町２丁目３８番地,,23,204,4890921,,,2023-01-17,登記官による閉鎖,,,2015-10-05,1,,,,,,0
631,2180002077232,登記記録の閉鎖等,0,2023-01-18,2023-01-17,有限会社野の花,,有限会社,愛知県,一宮市,西島町２丁目５２番地２,,23,203,4910062,,,2023-01-17,登記官による閉鎖,,,2015-10-05,1,,,,,,0
632,2180002078916,登記記録の閉鎖等,0,2023-01-18,2023-01-17,有限会社トーチ,,有限会社,愛知県,一宮市,宮地１丁目１番１０号,,23,203,4910915,,,2023-01-17,登記官による閉鎖,,,2015-10-05,1,,,,,,0
633,2180002089970,登記記録の閉鎖等,0,2023-01-18,2023-01-17,村土商事有限会社,,有限会社,愛知県,海部郡蟹江町,富吉３丁目２５０番地,,23,425,4970058,,,2023-01-17,登記官による閉鎖,,,2015-10-05,1,,,,,,0
635,2180003008772,登記記録の閉鎖等,0,2023-01-18,2023-01-17,合資会社森部空調,,合資会社,愛知県,名古屋市西区,浄心２丁目１２番１８号,,23,104,4510061,,,2023-01-17,登記官による閉鎖,,,2015-10-05,1,,,,,,0
636,2180005012780,登記記録の閉鎖等,0,2023-01-18,2023-01-17,特定非営利活動法人子育て支援ふれあいねっと,,その他の設立登記法人,愛知県,知多市,佐布里字筒井１７番地の１,,23,224,4780015,,,2023-01-17,登記官による閉鎖,,,2015-10-05,1,,,,,,0
655,2290001005694,登記記録の閉鎖等,0,2023-01-18,2023-01-18,株式会社ブルーベル大興,,株式会社,福岡県,福岡市中央区,舞鶴３丁目３番４－１０４号,,40,133,8100073,,,2023-01-18,登記官による閉鎖,,,2015-10-05,1,,,,,,0
656,2290001016007,登記記録の閉鎖等,0,2023-01-18,2023-01-18,平島設備株式会社,,株式会社,福岡県,福岡市博多区,諸岡５丁目８番２３号,,40,132,8120894,,,2023-01-18,登記官による閉鎖,,,2015-10-05,1,,,,,,0
657,2290001028794,登記記録の閉鎖等,0,2023-01-18,2023-01-18,Ｅ・デザイン株式会社,,株式会社,福岡県,福岡市中央区,薬院２丁目１２番２２号,,40,133,8100022,,,2023-01-18,登記官による閉鎖,,,2015-10-05,1,,,,,,0
661,2290001031352,登記記録の閉鎖等,0,2023-01-18,2023-01-18,株式会社渋新商事,,株式会社,福岡県,福岡市博多区,中洲１丁目２番１２号,,40,132,8100801,,,2023-01-18,登記官による閉鎖,,,2015-10-05,1,,,,,,0
662,2290001032128,登記記録の閉鎖等,0,2023-01-18,2023-01-18,株式会社ケイ建設工房,,株式会社,福岡県,福岡市南区,野間１丁目９番１９－１０１号,,40,134,8150041,,,2023-01-18,登記官による閉鎖,,,2015-10-05,1,,,,,,0
663,2290001034314,登記記録の閉鎖等,0,2023-01-18,2023-01-18,株式会社コラボネットワーク,,株式会社,福岡県,福岡市博多区,中洲５丁目１番２２号,,40,132,8100801,,,2023-01-18,登記官による閉鎖,,,2015-10-05,1,,,,,,0
664,2290001051086,登記記録の閉鎖等,0,2023-01-18,2023-01-18,株式会社天斗,,株式会社,福岡県,久留米市,西町１１５１番地５区画整理４１－１－３,,40,203,8300038,,,2023-01-18,登記官による閉鎖,,,2015-10-05,1,,,,,,0
665,2290001054683,登記記録の閉鎖等,0,2023-01-18,2023-01-18,ＣＮＴインターナショナル株式会社,,株式会社,福岡県,大牟田市,健老町４５９番地３,,40,202,8360011,,,2023-01-18,登記官による閉鎖,,,2015-10-05,1,,,,,,0
666,2290001055038,登記記録の閉鎖等,0,2023-01-18,2023-01-18,西日本リサーチ株式会社,,株式会社,福岡県,福岡市西区,石丸２丁目９番９号,,40,135,8190025,,,2023-01-18,登記官による閉鎖,,,2015-10-05,1,,,,,,0
669,2290002004258,登記記録の閉鎖等,0,2023-01-18,2023-01-18,有限会社井上リース,,有限会社,福岡県,福岡市東区,若宮１丁目２番４号,,40,131,8130036,,,2023-01-18,登記官による閉鎖,,,2015-10-05,1,,,,,,0
670,2290002007467,登記記録の閉鎖等,0,2023-01-18,2023-01-18,有限会社旭寿司,,有限会社,福岡県,福岡市早良区,原８丁目４０番２１号,,40,137,8140022,,,2023-01-18,登記官による閉鎖,,,2015-10-05,1,,,,,,0
671,2290002019207,登記記録の閉鎖等,0,2023-01-18,2023-01-18,有限会社コヒイ商事,,有限会社,福岡県,福岡市南区,南大橋２丁目３５番２１号,,40,134,8150034,,,2023-01-18,登記官による閉鎖,,,2015-10-05,1,,,,,,0
672,2290002021187,登記記録の閉鎖等,0,2023-01-18,2023-01-18,有限会社メディアミックス,,有限会社,福岡県,福岡市中央区,六本松３丁目１１番３３号,,40,133,8100044,,,2023-01-18,登記官による閉鎖,,,2015-10-05,1,,,,,,0
673,2290002023167,登記記録の閉鎖等,0,2023-01-18,2023-01-18,有限会社ユアーコーポレーション,,有限会社,福岡県,福岡市西区,石丸３丁目８番１５号,,40,135,8190025,,,2023-01-18,登記官による閉鎖,,,2015-10-05,1,,,,,,0
674,2290002029172,登記記録の閉鎖等,0,2023-01-18,2023-01-18,有限会社フェイス・クリエイティブ・フクオカ,,有限会社,福岡県,福岡市中央区,大宮１丁目６－３９,,40,133,8100013,,,2023-01-18,登記官による閉鎖,,,2015-10-05,1,,,,,,0
675,2290002032804,登記記録の閉鎖等,0,2023-01-18,2023-01-18,鎮西陶業有限会社,,有限会社,福岡県,糸島市,井原２５５３番地,,40,230,8191582,,,2023-01-18,登記官による閉鎖,,,2015-10-05,1,,,,,,0
676,2290002034998,登記記録の閉鎖等,0,2023-01-18,2023-01-18,有限会社いんてりあ石原,,有限会社,福岡県,宗像市,日の里２丁目２８番地の２,,40,220,8113425,,,2023-01-18,登記官による閉鎖,,,2015-10-05,1,,,,,,0
677,2290002051671,登記記録の閉鎖等,0,2023-01-18,2023-01-18,有限会社ケイアンドケイ,,有限会社,福岡県,小郡市,大保１５５４番地の６,,40,216,8380115,,,2023-01-18,登記官による閉鎖,,,2015-10-05,1,,,,,,0
678,2290002054724,登記記録の閉鎖等,0,2023-01-18,2023-01-18,有限会社日勝,,有限会社,福岡県,柳川市,三橋町柳河９２９番地１,,40,207,8320806,,,2023-01-18,登記官による閉鎖,,,2015-10-05,1,,,,,,0
679,2290003001972,登記記録の閉鎖等,0,2023-01-18,2023-01-18,シューズ・スタジオ福岡合同会社,,合同会社,福岡県,福岡市東区,香椎１丁目２２番５号,,40,131,8130011,,,2023-01-18,登記官による閉鎖,,,2015-10-05,1,,,,,,0
682,2290005003240,登記記録の閉鎖等,0,2023-01-18,2023-01-18,全国電気管理事業協同組合,,その他の設立登記法人,福岡県,福岡市博多区,博多駅前３丁目７番３５号博多ハイテックビル８０２,,40,132,8120011,,,2023-01-18,登記官による閉鎖,,,2015-10-05,1,,,,,,0
683,2290005004180,登記記録の閉鎖等,0,2023-01-18,2023-01-18,日本相談事業協同組合,,その他の設立登記法人,福岡県,福岡市中央区,大名１丁目９番２７号,,40,133,8100041,,,2023-01-18,登記官による閉鎖,,,2015-10-05,1,,,,,,0
684,2290005004387,登記記録の閉鎖等,0,2023-01-18,2023-01-18,特定非営利活動法人福岡ひとびと福祉事業団,,その他の設立登記法人,福岡県,福岡市博多区,那珂１丁目４６番地１９号,,40,132,8120893,,,2023-01-18,登記官による閉鎖,,,2015-10-05,1,,,,,,0
685,2290005004536,登記記録の閉鎖等,0,2023-01-18,2023-01-18,特定非営利活動法人九州異業種交流会,,その他の設立登記法人,福岡県,福岡市中央区,鳥飼１丁目４番２号３０６号,,40,133,8100053,,,2023-01-18,登記官による閉鎖,,,2015-10-05,1,,,,,,0
686,2290005004619,登記記録の閉鎖等,0,2023-01-18,2023-01-18,特定非営利活動法人ＡＢＣネットワーク虹,,その他の設立登記法人,福岡県,福岡市博多区,上川端町１番５号福岡花村ビル３０２号,,40,132,8120026,,,2023-01-18,登記官による閉鎖,,,2015-10-05,1,,,,,,0
687,2290005007068,登記記録の閉鎖等,0,2023-01-18,2023-01-18,特定非営利活動法人メッセージ２１,,その他の設立登記法人,福岡県,筑紫野市,上古賀３丁目２－１６クリエーションコア福岡２０９－１ｓｏｒａプロジェクト内,,40,217,8180041,,,2023-01-18,登記官による閉鎖,,,2015-10-05,1,,,,,,0
688,2290005007836,登記記録の閉鎖等,0,2023-01-18,2023-01-18,財団法人嘉穂高等学校龍王会,,その他の設立登記法人,福岡県,飯塚市,潤野２３番地の１２,,40,205,8200021,,,2023-01-18,登記官による閉鎖,,,2015-10-05,1,,,,,,0
689,2290005008719,登記記録の閉鎖等,0,2023-01-18,2023-01-18,八女管工事協同組合,,その他の設立登記法人,福岡県,八女市,川犬１３４９番地１,,40,210,8340053,,,2023-01-18,登記官による閉鎖,,,2015-10-05,1,,,,,,0
690,2290005008818,登記記録の閉鎖等,0,2023-01-18,2023-01-18,協業組合平リビングセンター,,その他の設立登記法人,福岡県,筑後市,大字庄島４５６番地,,40,211,8330043,,,2023-01-18,登記官による閉鎖,,,2015-10-05,1,,,,,,0
691,2290005009460,登記記録の閉鎖等,0,2023-01-18,2023-01-18,ベストウェル協同組合,,その他の設立登記法人,福岡県,八女郡広川町,大字吉常５９６番地の１,,40,544,8340104,,,2023-01-18,登記官による閉鎖,,,2015-10-05,1,,,,,,0
692,2290005009584,登記記録の閉鎖等,0,2023-01-18,2023-01-18,久留米広告美術業協同組合,,その他の設立登記法人,福岡県,久留米市,御井旗崎１丁目３番１０号,,40,203,8390841,,,2023-01-18,登記官による閉鎖,,,2015-10-05,1,,,,,,0
694,2290801000845,登記記録の閉鎖等,0,2023-01-18,2023-01-18,北九州開発株式会社,,株式会社,福岡県,北九州市小倉南区,大字母原３４番地１,,40,107,8030187,,,2023-01-18,登記官による閉鎖,,,2015-10-05,1,,,,,,0
695,2290801007023,登記記録の閉鎖等,0,2023-01-18,2023-01-18,株式会社クリエイティブネット,,株式会社,福岡県,北九州市小倉北区,浅野２丁目１５番４５号,,40,106,8020001,,,2023-01-18,登記官による閉鎖,,,2015-10-05,1,,,,,,0
696,2290801007931,登記記録の閉鎖等,0,2023-01-18,2023-01-18,株式会社Ｒｅ・ＮＥＴ,,株式会社,福岡県,北九州市門司区,東門司１丁目１４番１６号タツノサンライズ４０４号,,40,101,8010873,,,2023-01-18,登記官による閉鎖,,,2015-10-05,1,,,,,,0
698,2290801015488,登記記録の閉鎖等,0,2023-01-18,2023-01-18,小森鉄工株式会社,,株式会社,福岡県,京都郡みやこ町,勝山黒田６８５番地の２,,40,625,8240822,,,2023-01-18,登記官による閉鎖,,,2015-10-05,1,,,,,,0
699,2290801016841,登記記録の閉鎖等,0,2023-01-18,2023-01-18,株式会社ＴＡＫｅケアーセンター,,株式会社,福岡県,田川郡福智町,赤池６８番地１５,,40,610,8221101,,,2023-01-18,登記官による閉鎖,,,2015-10-05,1,,,,,,0
701,2290802006560,登記記録の閉鎖等,0,2023-01-18,2023-01-18,八代開発有限会社,,有限会社,福岡県,田川郡香春町,大字高野１２０３番地１,,40,601,8221403,,,2023-01-18,登記官による閉鎖,,,2015-10-05,1,,,,,,0
702,2290802011461,登記記録の閉鎖等,0,2023-01-18,2023-01-18,北新電設有限会社,,有限会社,福岡県,北九州市小倉南区,長尾１丁目４番１９号,,40,107,8030274,,,2023-01-18,登記官による閉鎖,,,2015-10-05,1,,,,,,0
703,2290802018878,登記記録の閉鎖等,0,2023-01-18,2023-01-18,金子産業有限会社,,有限会社,福岡県,北九州市若松区,西天神町１番３５号,,40,103,8080101,,,2023-01-18,登記官による閉鎖,,,2015-10-05,1,,,,,,0
704,2290802019174,登記記録の閉鎖等,0,2023-01-18,2023-01-18,有限会社ＢＥＣ,,有限会社,福岡県,北九州市若松区,響町１丁目８８番５,,40,103,8080021,,,2023-01-18,登記官による閉鎖,,,2015-10-05,1,,,,,,0
705,2290802020009,登記記録の閉鎖等,0,2023-01-18,2023-01-18,有限会社イーシーイー,,有限会社,福岡県,北九州市八幡東区,上本町１丁目５番１０号,,40,108,8050018,,,2023-01-18,登記官による閉鎖,,,2015-10-05,1,,,,,,0
706,2290802020990,登記記録の閉鎖等,0,2023-01-18,2023-01-18,有限会社小原酒店,,有限会社,福岡県,宮若市,宮田４８０６番地の１,,40,226,8230011,,,2023-01-18,登記官による閉鎖,,,2015-10-05,1,,,,,,0
709,2290803000926,登記記録の閉鎖等,0,2023-01-18,2023-01-18,合同会社セレーノ,,合同会社,福岡県,北九州市門司区,柳原町２番３号,,40,101,8000036,,,2023-01-18,登記官による閉鎖,,,2015-10-05,1,,,,,,0
710,2290805000957,登記記録の閉鎖等,0,2023-01-18,2023-01-18,特定非営利活動法人国際福祉事業協会,,その他の設立登記法人,福岡県,北九州市小倉北区,小文字２丁目６番１３号,,40,106,8020037,,,2023-01-18,登記官による閉鎖,,,2015-10-05,1,,,,,,0
711,2290805003522,登記記録の閉鎖等,0,2023-01-18,2023-01-18,北九州福祉企業組合,,その他の設立登記法人,福岡県,北九州市戸畑区,土取町１３番２１号,,40,105,8040014,,,2023-01-18,登記官による閉鎖,,,2015-10-05,1,,,,,,0
712,2290805004710,登記記録の閉鎖等,0,2023-01-18,2023-01-18,岡垣町建設業協同組合,,その他の設立登記法人,福岡県,遠賀郡岡垣町,吉木東１丁目５番１号,,40,383,8114241,,,2023-01-18,登記官による閉鎖,,,2015-10-05,1,,,,,,0
713,2290805006979,登記記録の閉鎖等,0,2023-01-18,2023-01-18,協同組合サントミグループ,,その他の設立登記法人,福岡県,京都郡苅田町,幸町３番地の７,,40,621,8000314,,,2023-01-18,登記官による閉鎖,,,2015-10-05,1,,,,,,0
714,2320001003892,登記記録の閉鎖等,0,2023-01-18,2023-01-18,株式会社東興機材,,株式会社,大分県,大分市,大字関園２３５番地の１,,44,201,8700115,,,2023-01-18,登記官による閉鎖,,,2015-10-05,1,,,,,,0
715,2320001006061,登記記録の閉鎖等,0,2023-01-18,2023-01-18,株式会社明,,株式会社,大分県,大分市,仲西町２丁目７番３４号,,44,201,8700135,,,2023-01-18,登記官による閉鎖,,,2015-10-05,1,,,,,,0
716,2320001009469,登記記録の閉鎖等,0,2023-01-18,2023-01-18,久住建設株式会社,,株式会社,大分県,竹田市,大字吉田３９５番地,,44,208,8780035,,,2023-01-18,登記官による閉鎖,,,2015-10-05,1,,,,,,0
718,2320002010120,登記記録の閉鎖等,0,2023-01-18,2023-01-18,有限会社新屋本家,,有限会社,大分県,由布市,湯布院町湯平５８３番地,,44,213,8795112,,,2023-01-18,登記官による閉鎖,,,2015-10-05,1,,,,,,0
719,2320002015185,登記記録の閉鎖等,0,2023-01-18,2023-01-18,有限会社北浜運送,,有限会社,大分県,杵築市,大字杵築６６５番地の９０,,44,210,8730001,,,2023-01-18,登記官による閉鎖,,,2015-10-05,1,,,,,,0
720,2320005000242,登記記録の閉鎖等,0,2023-01-18,2023-01-18,農事組合法人県南土壌改良組合,,その他の設立登記法人,大分県,大分市,大字奥７９０番地,,44,201,8797881,,,2023-01-18,登記官による閉鎖,,,2015-10-05,1,,,,,,0
721,2320005002008,登記記録の閉鎖等,0,2023-01-18,2023-01-18,特定非営利活動法人日本留学支援センター,,その他の設立登記法人,大分県,大分市,大字豊繞２８５番地の１,,44,201,8700100,,,2023-01-18,登記官による閉鎖,,,2015-10-05,1,,,,,,0
722,2320005008095,登記記録の閉鎖等,0,2023-01-18,2023-01-18,特定非営利活動法人活動支援センター大地,,その他の設立登記法人,大分県,中津市,大字大塚６３８番地の７,,44,203,8710008,,,2023-01-18,登記官による閉鎖,,,2015-10-05,1,,,,,,0
723,2320202000128,登記記録の閉鎖等,0,2023-01-18,2023-01-18,有限会社小川建設工業,,有限会社,大分県,臼杵市,大字市浜１３４７番地の１４,,44,206,8750052,,,2023-01-18,登記官による閉鎖,,,2015-10-05,1,,,,,,0
746,2390001008927,登記記録の閉鎖等,0,2023-01-18,2023-01-12,株式会社ライフ・サポート,,株式会社,山形県,新庄市,大手町２番８号,,06,205,9960084,,,2023-01-12,清算の結了等,,,2015-10-05,1,,,,,ライフサポート,0
753,2410002005722,登記記録の閉鎖等,0,2023-01-18,2023-01-18,有限会社大黒屋,,有限会社,秋田県,潟上市,昭和大久保字新関堰の外５２番地の４,,05,211,0181401,,,2023-01-18,登記官による閉鎖,,,2015-10-05,1,,,,,,0
754,2410003002636,登記記録の閉鎖等,0,2023-01-18,2023-01-18,合名会社三浦薬店,,合名会社,秋田県,横手市,十文字町字通町２番地の４,,05,203,0190526,,,2023-01-18,登記官による閉鎖,,,2015-10-05,1,,,,,,0
755,2410005001396,登記記録の閉鎖等,0,2023-01-18,2023-01-18,五城目木材工業協同組合,,その他の設立登記法人,秋田県,南秋田郡五城目町,字上町２８３番地,,05,361,0181705,,,2023-01-18,登記官による閉鎖,,,2015-10-05,1,,,,,,0
756,2410005003590,登記記録の閉鎖等,0,2023-01-18,2023-01-18,北秋田清掃協同組合,,その他の設立登記法人,秋田県,北秋田市,綴子字高野尻９１番地,,05,213,0183301,,,2023-01-18,登記官による閉鎖,,,2015-10-05,1,,,,,,0
757,2420001000145,登記記録の閉鎖等,0,2023-01-18,2023-01-12,青森昭和電線株式会社,,株式会社,宮城県,柴田郡柴田町,大字船岡字鍋倉１番地,,04,323,9891606,,,2023-01-12,清算の結了等,,,2015-10-05,1,,,,,アオモリショウワデンセン,0
765,2460102000420,登記記録の閉鎖等,0,2023-01-18,2023-01-18,有限会社海老金,,有限会社,北海道,帯広市,大通南９丁目１１番地,,01,207,0800010,,,2023-01-18,登記官による閉鎖,,,2015-10-05,1,,,,,,0
767,2460301001013,登記記録の閉鎖等,0,2023-01-18,2023-01-18,株式会社松本商店,,株式会社,北海道,常呂郡置戸町,字置戸１０３番地,,01,550,0991100,,,2023-01-18,登記官による閉鎖,,,2015-10-05,1,,,,,,0
768,2460301002779,登記記録の閉鎖等,0,2023-01-18,2023-01-13,株式会社オフィス・ユー,,株式会社,北海道,北見市,東相内町１７３番地３７,,01,208,0990878,,,2023-01-13,清算の結了等,,,2015-10-05,1,,,,,,0
771,2490001005170,登記記録の閉鎖等,0,2023-01-18,2023-01-18,新高知三菱ふそう自動車販売株式会社,,株式会社,高知県,四万十市,具同字西相ノ沢６２１４番地,,39,210,7870019,,,2023-01-18,登記官による閉鎖,,,2015-10-05,1,,,,,,0
772,2490002003487,登記記録の閉鎖等,0,2023-01-18,2023-01-18,有限会社寺川組,,有限会社,高知県,高知市,神田２０５３番地２,,39,201,7808040,,,2023-01-18,登記官による閉鎖,,,2015-10-05,1,,,,,,0
773,2490003000392,登記記録の閉鎖等,0,2023-01-18,2023-01-18,合同会社ｔｅａｍ８４,,合同会社,高知県,高知市,長浜５９８４番地２,,39,201,7810270,,,2023-01-18,登記官による閉鎖,,,2015-10-05,1,,,,,,0
774,2490005000531,登記記録の閉鎖等,0,2023-01-18,2023-01-18,農事組合法人高知市福井柑橘生産組合,,その他の設立登記法人,高知県,高知市,旭駅前町３番地,,39,201,7800938,,,2023-01-18,登記官による閉鎖,,,2017-10-04,1,,,,,,0
775,2490005001612,登記記録の閉鎖等,0,2023-01-18,2023-01-18,医療法人泉山会,,その他の設立登記法人,高知県,高知市,円行寺５２番地１,,39,201,7800974,,,2023-01-18,登記官による閉鎖,,,2015-10-05,1,,,,,イズミヤマカイ,0
776,2490005004243,登記記録の閉鎖等,0,2023-01-18,2023-01-18,土佐アパレル協同組合,,その他の設立登記法人,高知県,高岡郡四万十町,興津２１３５番地７３,,39,412,7860046,,,2023-01-18,登記官による閉鎖,,,2015-10-05,1,,,,,,0
796,3010401134104,登記記録の閉鎖等,0,2023-01-18,2023-01-13,株式会社グローカルポイント,,株式会社,東京都,港区,北青山２丁目１０番２９号日昭第２ビル,,13,103,1070061,,,2023-01-13,合併による解散等,9011001059883,令和５年１月１日東京都渋谷区神宮前二丁目２番２２号株式会社ブレイン（9011001059883）に合併し解散,2017-10-10,1,,,,,グローカルポイント,0
800,3010403023742,登記記録の閉鎖等,0,2023-01-18,2022-12-28,合同会社バード,,合同会社,東京都,港区,虎ノ門３丁目２２番１０－２０１号,,13,103,1050001,,,2022-12-28,清算の結了等,,,2020-09-18,1,,,,,バード,0
802,3010405016579,登記記録の閉鎖等,0,2023-01-18,2022-12-27,一般社団法人Ｔａｔａｒａｈａｍａ,,その他の設立登記法人,東京都,港区,虎ノ門５丁目１番４号,,13,103,1050001,,,2022-12-27,清算の結了等,,,2018-03-23,1,,,,,タタラハマ,0
803,3010501022258,登記記録の閉鎖等,0,2023-01-18,2023-01-16,株式会社やまかつ,,株式会社,東京都,台東区,元浅草４丁目１番１３号,,13,106,1110041,,,2023-01-16,清算の結了等,,,2015-10-05,1,,,,,ヤマカツ,0
805,3010701000567,登記記録の閉鎖等,0,2023-01-18,2023-01-10,東コード株式会社,,株式会社,東京都,品川区,南大井６丁目１番８号アスカビル３Ｆ,,13,109,1400013,,,2023-01-10,清算の結了等,,,2015-10-05,1,,,,,アヅマコード,0
822,3011101056786,登記記録の閉鎖等,0,2023-01-18,2023-01-06,ＭＤＶトライアル株式会社,,株式会社,東京都,千代田区,内神田１丁目１３番１号,,13,101,1010047,,,2023-01-06,合併による解散等,7010001087640,令和５年１月１日東京都千代田区神田美土代町７番地メディカル・データ・ビジョン株式会社（7010001087640）に合併し解散,2015-10-05,1,,,,,エムディブイトライアル,0
834,3011503001464,登記記録の閉鎖等,0,2023-01-18,2023-01-05,合名会社増野鋳工所,,合名会社,東京都,荒川区,荒川２丁目１番５号,,13,118,1160002,,,2023-01-05,合併による解散等,1011501008760,令和４年１２月３１日東京都荒川区荒川二丁目１番５号株式会社増野製作所（1011501008760）に合併し解散,2015-10-05,1,,,,,マスノチュウコウショ,0
839,3012401020259,登記記録の閉鎖等,0,2023-01-18,2023-01-17,オカコー株式会社,,株式会社,東京都,国立市,大字谷保９７２番地の１,,13,215,1860000,,,2023-01-17,登記官による閉鎖,,,2015-10-05,1,,,,,,0
840,3012705001558,登記記録の閉鎖等,0,2023-01-18,2023-01-18,医療法人社団明邦会,,その他の設立登記法人,東京都,東村山市,久米川町３丁目３番地４,,13,213,1890003,,,2023-01-18,登記官による閉鎖,,,2015-10-05,1,,,,,,0
841,3012801001602,登記記録の閉鎖等,0,2023-01-18,2023-01-17,株式会社宮川電化センター,,株式会社,東京都,立川市,柏町３丁目３２番地１３,,13,202,1900004,,,2023-01-17,登記官による閉鎖,,,2015-10-05,1,,,,,,0
842,3012801007194,登記記録の閉鎖等,0,2023-01-18,2023-01-17,Ｆ．Ａ．Ｓ．Ｔ．株式会社,,株式会社,東京都,東大和市,南街５丁目７０番地３,,13,220,2070014,,,2023-01-17,登記官による閉鎖,,,2015-10-05,1,,,,,,0
843,3012802004892,登記記録の閉鎖等,0,2023-01-18,2023-01-17,有限会社早川鈑金,,有限会社,東京都,武蔵村山市,榎２丁目２番地の１,,13,223,2080022,,,2023-01-17,登記官による閉鎖,,,2015-10-05,1,,,,,,0
844,3012802005833,登記記録の閉鎖等,0,2023-01-18,2023-01-17,有限会社外舘工建,,有限会社,東京都,東大和市,奈良橋１丁目６３３番地の３,,13,220,2070031,,,2023-01-17,登記官による閉鎖,,,2015-10-05,1,,,,,,0
845,3012802006220,登記記録の閉鎖等,0,2023-01-18,2023-01-17,有限会社マミースタッフ,,有限会社,東京都,東大和市,向原４丁目１０番地の１１,,13,220,2070013,,,2023-01-17,登記官による閉鎖,,,2015-10-05,1,,,,,,0
846,3012802010932,登記記録の閉鎖等,0,2023-01-18,2023-01-17,有限会社ヒーシーズ,,有限会社,東京都,立川市,砂川町８丁目２０番地の１５,,13,202,1900031,,,2023-01-17,登記官による閉鎖,,,2015-10-05,1,,,,,,0
848,3013101000063,登記記録の閉鎖等,0,2023-01-18,2023-01-17,株式会社沖友電設,,株式会社,東京都,福生市,武蔵野台２丁目６番１５号,,13,218,1970013,,,2023-01-17,清算の結了等,,,2015-10-05,1,,,,,オキトモデンセツ,0
852,3020001008921,登記記録の閉鎖等,0,2023-01-18,2023-01-10,株式会社タウ技研,,株式会社,神奈川県,横浜市都筑区,佐江戸町８１４番地,,14,118,2240054,,,2023-01-10,清算の結了等,,,2015-10-05,1,,,,,,0
863,3021001035278,登記記録の閉鎖等,0,2023-01-18,2023-01-11,佳成電設工業株式会社,,株式会社,神奈川県,足柄上郡松田町,松田惣領７８７番地２,,14,363,2580003,,,2023-01-11,清算の結了等,,,2015-10-05,1,,,,,ケイセイデンセツコウギョウ,0
872,3030001142001,登記記録の閉鎖等,0,2023-01-18,2023-01-12,博葉株式会社,,株式会社,埼玉県,八潮市,中央３丁目１１番４号エムケービル八潮０２０１号室,,11,234,3400816,,,2023-01-12,清算の結了等,,,2021-04-30,1,,,,,ハクヨウ,0
887,3040002088572,登記記録の閉鎖等,0,2023-01-18,2023-01-12,有限会社アース測量設計,,有限会社,千葉県,柏市,柏６丁目１０番２１号,,12,217,2770005,,,2023-01-12,清算の結了等,,,2015-10-05,1,,,,,アースソクリョウセッケイ,0
898,3060001019931,登記記録の閉鎖等,0,2023-01-18,2023-01-12,株式会社モテギオート販売,,株式会社,栃木県,足利市,福居町１６９番地１,,09,202,3260338,,,2023-01-12,清算の結了等,,,2015-10-05,1,,,,,モテギオートハンバイ,0
899,3060001022828,登記記録の閉鎖等,0,2023-01-18,2023-01-12,株式会社ＢＬＡＮＫＹ,,株式会社,栃木県,大田原市,紫塚３丁目２６３３番地５７,,09,210,3240058,,,2023-01-12,清算の結了等,,,2015-10-05,1,,,,,ブランキー,0
904,3080001005343,登記記録の閉鎖等,0,2023-01-18,2023-01-18,株式会社ヤスマック,,株式会社,静岡県,静岡市葵区,岳美４番２１号,,22,101,4200934,,,2023-01-18,登記官による閉鎖,,,2015-10-05,1,,,,,,0
906,3080002002083,登記記録の閉鎖等,0,2023-01-18,2023-01-18,有限会社小林順電気設備設計事務所,,有限会社,静岡県,静岡市駿河区,大谷３１６０番地の１０,,22,102,4228017,,,2023-01-18,登記官による閉鎖,,,2015-10-05,1,,,,,,0
907,3080002011431,登記記録の閉鎖等,0,2023-01-18,2023-01-18,有限会社望月熔工,,有限会社,静岡県,静岡市清水区,北脇２２４番地の３,,22,103,4240052,,,2023-01-18,登記官による閉鎖,,,2015-10-05,1,,,,,,0
908,3080005004325,登記記録の閉鎖等,0,2023-01-18,2023-01-18,税理士法人すんぷ会計事務所,,その他の設立登記法人,静岡県,静岡市葵区,東草深町１４番７号,,22,101,4200865,,,2023-01-18,登記官による閉鎖,,,2015-10-05,1,,,,,,0
909,3080101002414,登記記録の閉鎖等,0,2023-01-18,2023-01-18,株式会社エムエムシステム,,株式会社,静岡県,沼津市,原１５３３番地の２,,22,203,4100312,,,2023-01-18,登記官による閉鎖,,,2015-10-05,1,,,,,,0
910,3080101003726,登記記録の閉鎖等,0,2023-01-18,2023-01-18,株式会社ヒナ企画,,株式会社,静岡県,沼津市,西間門１４６番地の２,,22,203,4100871,,,2023-01-18,登記官による閉鎖,,,2015-10-05,1,,,,,,0
911,3080101005086,登記記録の閉鎖等,0,2023-01-18,2023-01-18,株式会社韮山興業舎,,株式会社,静岡県,伊豆の国市,中条１１１番地,,22,225,4102113,,,2023-01-18,登記官による閉鎖,,,2015-10-05,1,,,,,,0
912,3080101011662,登記記録の閉鎖等,0,2023-01-18,2023-01-18,沼久保砂利株式会社,,株式会社,静岡県,富士宮市,沼久保３７７番地,,22,207,4180036,,,2023-01-18,登記官による閉鎖,,,2015-10-05,1,,,,,,0
913,3080101012421,登記記録の閉鎖等,0,2023-01-18,2023-01-18,環境通信サービス株式会社,,株式会社,静岡県,御殿場市,川島田１６９８番地の４７５,,22,215,4120045,,,2023-01-18,登記官による閉鎖,,,2015-10-05,1,,,,,,0
914,3080101020498,登記記録の閉鎖等,0,2023-01-18,2023-01-18,根方物産株式会社,,株式会社,静岡県,沼津市,西椎路１９番地,,22,203,4100303,,,2023-01-18,登記官による閉鎖,,,2018-05-30,1,,,,,ネガタブッサン,0
915,3080101023484,登記記録の閉鎖等,0,2023-01-18,2023-01-18,株式会社岩田家具店,,株式会社,静岡県,沼津市,上土町１１番地の１,,22,203,4100802,,,2023-01-18,登記官による閉鎖,,,2022-08-29,1,,,,,イワタカグテン,0
917,3080102007569,登記記録の閉鎖等,0,2023-01-18,2023-01-18,有限会社やまびこ,,有限会社,静岡県,御殿場市,新橋１２７７番地の１,,22,215,4120043,,,2023-01-18,登記官による閉鎖,,,2015-10-05,1,,,,,,0
918,3080102010622,登記記録の閉鎖等,0,2023-01-18,2023-01-18,有限会社鈴富士製作所,,有限会社,静岡県,駿東郡長泉町,本宿２８１番地の５,,22,342,4110945,,,2023-01-18,登記官による閉鎖,,,2015-10-05,1,,,,,,0
919,3080102010639,登記記録の閉鎖等,0,2023-01-18,2023-01-18,有限会社ス・テップ,,有限会社,静岡県,三島市,南二日町１０番２０号,,22,206,4110832,,,2023-01-18,登記官による閉鎖,,,2015-10-05,1,,,,,,0
920,3080102011570,登記記録の閉鎖等,0,2023-01-18,2023-01-18,有限会社マーヴェリック,,有限会社,静岡県,三島市,一番町１３番９号,,22,206,4110036,,,2023-01-18,登記官による閉鎖,,,2015-10-05,1,,,,,,0
921,3080102014978,登記記録の閉鎖等,0,2023-01-18,2023-01-18,有限会社ＫＡＴＯＨ　ＡＵＴＯ　ＦＵＪＩ,,有限会社,静岡県,富士市,伝法３０４番地の２,,22,210,4170061,,,2023-01-18,登記官による閉鎖,,,2015-10-05,1,,,,,,0
922,3080102018624,登記記録の閉鎖等,0,2023-01-18,2023-01-18,有限会社松坂商会,,有限会社,静岡県,熱海市,上多賀７０２番地の１,,22,205,4130101,,,2023-01-18,登記官による閉鎖,,,2015-10-05,1,,,,,,0
923,3080102022460,登記記録の閉鎖等,0,2023-01-18,2023-01-18,有限会社スガヌマ商会,,有限会社,静岡県,御殿場市,保土沢４１６番地,,22,215,4120046,,,2023-01-18,登記官による閉鎖,,,2021-06-29,1,,,,,スガヌマショウカイ,0
924,3080401016691,登記記録の閉鎖等,0,2023-01-18,2023-01-18,株式会社ワークセンド,,株式会社,静岡県,磐田市,東新町２丁目６番１３号,,22,211,4380039,,,2023-01-18,登記官による閉鎖,,,2015-10-05,1,,,,,,0
926,3080402000884,登記記録の閉鎖等,0,2023-01-18,2023-01-18,有限会社市橋建築,,有限会社,静岡県,浜松市中区,萩丘２丁目３２番１７号,,22,131,4338121,,,2023-01-18,登記官による閉鎖,,,2015-10-05,1,,,,,,0
927,3080402004472,登記記録の閉鎖等,0,2023-01-18,2023-01-18,有限会社総合プロスタッフ翼,,有限会社,静岡県,浜松市中区,鴨江３丁目７５番７号,,22,131,4328023,,,2023-01-18,登記官による閉鎖,,,2015-10-05,1,,,,,,0
928,3080402009918,登記記録の閉鎖等,0,2023-01-18,2023-01-18,有限会社あさり屋西山,,有限会社,静岡県,浜松市西区,舞阪町舞阪２６２１番地の２１,,22,133,4310211,,,2023-01-18,登記官による閉鎖,,,2015-10-05,1,,,,,,0
929,3080402014372,登記記録の閉鎖等,0,2023-01-18,2023-01-18,有限会社ＬＵＣＲＥＺＩＡ,,有限会社,静岡県,浜松市中区,伝馬町３１０番地の８,,22,131,4300935,,,2023-01-18,登記官による閉鎖,,,2015-10-05,1,,,,,,0
930,3080402020775,登記記録の閉鎖等,0,2023-01-18,2023-01-18,有限会社飛鳥商事,,有限会社,静岡県,磐田市,宮之一色８５９番地２,,22,211,4380816,,,2023-01-18,登記官による閉鎖,,,2015-10-05,1,,,,,,0
931,3080405003216,登記記録の閉鎖等,0,2023-01-18,2023-01-18,特定非営利活動法人浜名湖マンション・コミュニティーセンター,,その他の設立登記法人,静岡県,浜松市中区,山下町２番地１,,22,131,4300941,,,2023-01-18,登記官による閉鎖,,,2015-10-05,1,,,,,,0
932,3080405005690,登記記録の閉鎖等,0,2023-01-18,2023-01-18,特定非営利活動法人インカム,,その他の設立登記法人,静岡県,磐田市,中泉１１２番地の６,,22,211,4380078,,,2023-01-18,登記官による閉鎖,,,2015-10-05,1,,,,,,0
941,3120001113042,登記記録の閉鎖等,0,2023-01-18,2023-01-16,株式会社メルト,,株式会社,大阪府,大阪市大正区,三軒家西２丁目３番２号,,27,108,5510001,,,2023-01-16,清算の結了等,,,2015-10-05,1,,,,,メルト,0
966,3120902020601,登記記録の閉鎖等,0,2023-01-18,2023-01-12,有限会社谷久,,有限会社,大阪府,豊中市,春日町２丁目７番１６号,,27,203,5600052,,,2023-01-12,清算の結了等,,,2015-10-05,1,,,,,タニキュウ,0
987,3180001011389,登記記録の閉鎖等,0,2023-01-18,2023-01-17,アイシン株式会社,,株式会社,愛知県,名古屋市北区,北久手町２３５番地,,23,103,4620001,,,2023-01-17,登記官による閉鎖,,,2015-10-05,1,,,,,,0
988,3180001045684,登記記録の閉鎖等,0,2023-01-18,2023-01-17,株式会社白水プラント工業,,株式会社,愛知県,清須市,西枇杷島町旭１丁目３３番地,,23,233,4520064,,,2023-01-17,登記官による閉鎖,,,2015-10-05,1,,,,,,0
989,3180001051658,登記記録の閉鎖等,0,2023-01-18,2023-01-17,株式会社Ｒ＆Ｅ,,株式会社,愛知県,名古屋市中区,錦３丁目１１番２５号,,23,106,4600003,,,2023-01-17,登記官による閉鎖,,,2015-10-05,1,,,,,,0
990,3180001056533,登記記録の閉鎖等,0,2023-01-18,2023-01-17,株式会社錦龍温泉,,株式会社,愛知県,名古屋市守山区,大森５丁目２２１２番地,,23,113,4630021,,,2023-01-17,登記官による閉鎖,,,2015-10-05,1,,,,,,0
991,3180001059503,登記記録の閉鎖等,0,2023-01-18,2023-01-17,株式会社アップドラフト,,株式会社,愛知県,名古屋市千種区,城木町２丁目７１番地,,23,101,4640846,,,2023-01-17,登記官による閉鎖,,,2015-10-05,1,,,,,,0
992,3180001065039,登記記録の閉鎖等,0,2023-01-18,2023-01-17,株式会社マコトインターナショナル,,株式会社,愛知県,名古屋市西区,幅下２丁目３番１号,,23,104,4510041,,,2023-01-17,登記官による閉鎖,,,2015-10-05,1,,,,,,0
993,3180001072720,登記記録の閉鎖等,0,2023-01-18,2023-01-17,株式会社トータルサポート,,株式会社,愛知県,名古屋市西区,児玉３丁目３２番６号,,23,104,4510066,,,2023-01-17,登記官による閉鎖,,,2015-10-05,1,,,,,,0
994,3180001090292,登記記録の閉鎖等,0,2023-01-18,2023-01-17,株式会社ＤＨＫ,,株式会社,愛知県,名古屋市緑区,桶狭間南１６１２番地,,23,114,4580927,,,2023-01-17,登記官による閉鎖,,,2015-10-05,1,,,,,,0
995,3180001093782,登記記録の閉鎖等,0,2023-01-18,2023-01-17,株式会社滝田陶管,,株式会社,愛知県,常滑市,金山字上砂原１１５番地,,23,216,4790003,,,2023-01-17,登記官による閉鎖,,,2015-10-05,1,,,,,,0
996,3180001102997,登記記録の閉鎖等,0,2023-01-18,2023-01-17,株式会社ゼップルズイングリッシュ,,株式会社,愛知県,名古屋市中区,栄３丁目２番３号,,23,106,4600008,,,2023-01-17,登記官による閉鎖,,,2015-10-05,1,,,,,,0
1003,3180002020554,登記記録の閉鎖等,0,2023-01-18,2023-01-17,豊北設備有限会社,,有限会社,愛知県,名古屋市熱田区,六野２丁目６番１６－１００１号,,23,109,4560023,,,2023-01-17,登記官による閉鎖,,,2015-10-05,1,,,,,,0
1004,3180002022633,登記記録の閉鎖等,0,2023-01-18,2023-01-17,有限会社アートデンタルラボラトリー,,有限会社,愛知県,名古屋市西区,城西２丁目２番８号,,23,104,4510031,,,2023-01-17,登記官による閉鎖,,,2015-10-05,1,,,,,,0
1005,3180002032186,登記記録の閉鎖等,0,2023-01-18,2023-01-17,有限会社ナゴヤパーテイシヨン,,有限会社,愛知県,名古屋市中区,千代田２丁目１８番７号,,23,106,4600012,,,2023-01-17,登記官による閉鎖,,,2015-10-05,1,,,,,,0
1006,3180002049651,登記記録の閉鎖等,0,2023-01-18,2023-01-17,有限会社中日本設備,,有限会社,愛知県,名古屋市中区,錦１丁目１８番１１号,,23,106,4600003,,,2023-01-17,登記官による閉鎖,,,2015-10-05,1,,,,,,0
1007,3180002050345,登記記録の閉鎖等,0,2023-01-18,2023-01-17,有限会社豊田,,有限会社,愛知県,名古屋市中川区,戸田２丁目２６０６番地,,23,110,4540962,,,2023-01-17,登記官による閉鎖,,,2015-10-05,1,,,,,,0
1008,3180002053091,登記記録の閉鎖等,0,2023-01-18,2023-01-17,有限会社クリエイト,,有限会社,愛知県,名古屋市西区,城西４丁目２番９号,,23,104,4510031,,,2023-01-17,登記官による閉鎖,,,2015-10-05,1,,,,,,0
1009,3180002053711,登記記録の閉鎖等,0,2023-01-18,2023-01-17,有限会社エヌエフイー,,有限会社,愛知県,名古屋市西区,秩父通２丁目２４番地,,23,104,4510024,,,2023-01-17,登記官による閉鎖,,,2015-10-05,1,,,,,,0
1010,3180002062233,登記記録の閉鎖等,0,2023-01-18,2023-01-17,有限会社近藤建築,,有限会社,愛知県,日進市,折戸町寺脇７９番地の１,,23,230,4700115,,,2023-01-17,登記官による閉鎖,,,2015-10-05,1,,,,,,0
1012,3180002063231,登記記録の閉鎖等,0,2023-01-18,2023-01-17,有限会社アマーレ,,有限会社,愛知県,愛知郡東郷町,白鳥１丁目１番地,,23,302,4700155,,,2023-01-17,登記官による閉鎖,,,2015-10-05,1,,,,,,0
1013,3180002071250,登記記録の閉鎖等,0,2023-01-18,2023-01-17,有限会社エターナル,,有限会社,愛知県,春日井市,六軒屋町２丁目１２３番地,,23,206,4860842,,,2023-01-17,登記官による閉鎖,,,2015-10-05,1,,,,,,0
1014,3180002071399,登記記録の閉鎖等,0,2023-01-18,2023-01-17,有限会社つかさ企画,,有限会社,愛知県,小牧市,小木５丁目２７９番地,,23,219,4850058,,,2023-01-17,登記官による閉鎖,,,2015-10-05,1,,,,,,0
1016,3180002083790,登記記録の閉鎖等,0,2023-01-18,2023-01-17,有限会社ノバタ住設,,有限会社,愛知県,半田市,乙川源内林町２丁目８６番地の２,,23,205,4750066,,,2023-01-17,登記官による閉鎖,,,2015-10-05,1,,,,,,0
1017,3180002089045,登記記録の閉鎖等,0,2023-01-18,2023-01-17,有限会社ＨＡＮＡＢＵＳＡ,,有限会社,愛知県,知多郡阿久比町,大字宮津字新海山１１６番地の１,,23,441,4702204,,,2023-01-17,登記官による閉鎖,,,2015-10-05,1,,,,,,0
1018,3180003011924,登記記録の閉鎖等,0,2023-01-18,2023-01-17,藤田毛織合名会社,,合名会社,愛知県,一宮市,三条字ヱグロ８７番地,,23,203,4940003,,,2023-01-17,登記官による閉鎖,,,2015-10-05,1,,,,,,0
1019,3180003014381,登記記録の閉鎖等,0,2023-01-18,2023-01-17,合資会社上田産業,,合資会社,愛知県,名古屋市守山区,野萩町６番５８号,,23,113,4630042,,,2023-01-17,登記官による閉鎖,,,2015-10-05,1,,,,,,0
1021,3180005003795,登記記録の閉鎖等,0,2023-01-18,2023-01-17,愛知県電話信用事業協同組合,,その他の設立登記法人,愛知県,名古屋市中村区,名駅５丁目２１番２１号,,23,105,4500002,,,2023-01-17,登記官による閉鎖,,,2015-10-05,1,,,,,,0
1022,3180005007111,登記記録の閉鎖等,0,2023-01-18,2023-01-17,東海北陸福祉事業協同組合,,その他の設立登記法人,愛知県,名古屋市中区,栄２丁目１番１０号,,23,106,4600008,,,2023-01-17,登記官による閉鎖,,,2015-10-05,1,,,,,,0
1026,3190001013517,登記記録の閉鎖等,0,2023-01-18,2023-01-13,株式会社アンサー,,株式会社,三重県,桑名市,大字北別所字流１５９９番地１ウォーターバレータウンＣ１－Ｃ,,24,205,5110819,,,2023-01-13,清算の結了等,,,2015-10-05,1,,,,,アンサー,0
1037,3230002007249,登記記録の閉鎖等,0,2023-01-18,2023-01-16,有限会社トヤマ農産,,有限会社,富山県,中新川郡立山町,野村１７３番地の２,,16,323,9300248,,,2023-01-16,清算の結了等,,,2015-10-05,1,,,,,トヤマノウサン,0
1049,3260002030974,登記記録の閉鎖等,0,2023-01-18,2023-01-16,有限会社インテリア吉房,,有限会社,岡山県,和気郡和気町,日笠下７０８番地,,33,346,7090403,,,2023-01-16,清算の結了等,,,2015-10-05,1,,,,,インテリアヨシフサ,0
1052,3290001000975,登記記録の閉鎖等,0,2023-01-18,2023-01-18,株式会社貝島モラブサービス,,株式会社,福岡県,福岡市南区,長住２丁目３番１号,,40,134,8111362,,,2023-01-18,登記官による閉鎖,,,2017-12-13,1,,,,,,0
1054,3290001023571,登記記録の閉鎖等,0,2023-01-18,2023-01-18,株式会社ＨＤＡ,,株式会社,福岡県,福岡市中央区,今泉２丁目５番１９－１２０４号,,40,133,8100021,,,2023-01-18,登記官による閉鎖,,,2015-10-05,1,,,,,,0
1055,3290001033612,登記記録の閉鎖等,0,2023-01-18,2023-01-18,株式会社スエヒロ商事,,株式会社,福岡県,福岡市博多区,中洲１丁目３番２号,,40,132,8100801,,,2023-01-18,登記官による閉鎖,,,2015-10-05,1,,,,,,0
1056,3290001034313,登記記録の閉鎖等,0,2023-01-18,2023-01-18,株式会社ＫＡＩＳＥＮ,,株式会社,福岡県,福岡市早良区,西新１丁目２番３号,,40,137,8140002,,,2023-01-18,登記官による閉鎖,,,2015-10-05,1,,,,,,0
1057,3290001038264,登記記録の閉鎖等,0,2023-01-18,2023-01-04,株式会社九州機械センター,,株式会社,福岡県,糟屋郡須惠町,大字植木字草切原７６５番地,,40,344,8112112,,,2023-01-04,合併による解散等,8290001038227,令和５年１月１日福岡県糟屋郡須恵町大字植木字草切原７６５番地株式会社グランドアース九州（8290001038227）に合併し解散,2015-10-05,1,,,,,キュウシュウキカイセンター,0
1058,3290001043066,登記記録の閉鎖等,0,2023-01-18,2023-01-18,がんばる大豆株式会社,,株式会社,福岡県,春日市,昇町２丁目８０番地,,40,218,8160851,,,2023-01-18,登記官による閉鎖,,,2015-10-05,1,,,,,,0
1059,3290001043974,登記記録の閉鎖等,0,2023-01-18,2023-01-18,株式会社サン・ファーム・コーポレーション,,株式会社,福岡県,朝倉郡筑前町,朝日１６１番地の１,,40,447,8380227,,,2023-01-18,登記官による閉鎖,,,2015-10-05,1,,,,,,0
1060,3290001044287,登記記録の閉鎖等,0,2023-01-18,2023-01-18,株式会社サンコーポレーション,,株式会社,福岡県,朝倉郡筑前町,朝日１３３番地６,,40,447,8380227,,,2023-01-18,登記官による閉鎖,,,2015-10-05,1,,,,,,0
1063,3290002001997,登記記録の閉鎖等,0,2023-01-18,2023-01-18,有限会社ケイアール企画,,有限会社,福岡県,福岡市南区,花畑３丁目２番８号,,40,134,8111356,,,2023-01-18,登記官による閉鎖,,,2015-10-05,1,,,,,,0
1064,3290002010230,登記記録の閉鎖等,0,2023-01-18,2023-01-18,有限会社カネダ,,有限会社,福岡県,福岡市中央区,春吉２丁目２番１３号,,40,133,8100003,,,2023-01-18,登記官による閉鎖,,,2015-10-05,1,,,,,,0
1065,3290002013828,登記記録の閉鎖等,0,2023-01-18,2023-01-18,有限会社六本松米販,,有限会社,福岡県,福岡市中央区,六本松２丁目１０番３号,,40,133,8100044,,,2023-01-18,登記官による閉鎖,,,2015-10-05,1,,,,,,0
1066,3290002023471,登記記録の閉鎖等,0,2023-01-18,2023-01-18,有限会社ヒロプランニング,,有限会社,福岡県,福岡市西区,今宿東２丁目１３番１５号,,40,135,8190161,,,2023-01-18,登記官による閉鎖,,,2015-10-05,1,,,,,,0
1067,3290002044724,登記記録の閉鎖等,0,2023-01-18,2023-01-18,有限会社平野薬局,,有限会社,福岡県,嘉麻市,山野３４２番地７,,40,227,8200202,,,2023-01-18,登記官による閉鎖,,,2015-10-05,1,,,,,,0
1068,3290002054277,登記記録の閉鎖等,0,2023-01-18,2023-01-18,有限会社ウエッド流通,,有限会社,福岡県,大川市,大字一木９４４番地の４,,40,212,8310034,,,2023-01-18,登記官による閉鎖,,,2015-10-05,1,,,,,,0
1069,3290002056216,登記記録の閉鎖等,0,2023-01-18,2023-01-18,有限会社七夕,,有限会社,福岡県,大牟田市,亀谷町４番地,,40,202,8360823,,,2023-01-18,登記官による閉鎖,,,2015-10-05,1,,,,,,0
1070,3290005003512,登記記録の閉鎖等,0,2023-01-18,2023-01-18,特定非営利活動法人環境創造舎,,その他の設立登記法人,福岡県,糸島市,二丈福井２７２５－２,,40,230,8191631,,,2023-01-18,登記官による閉鎖,,,2015-10-05,1,,,,,,0
1071,3290005006960,登記記録の閉鎖等,0,2023-01-18,2023-01-18,特定非営利活動法人バリアフリーネットワーク九州会議,,その他の設立登記法人,福岡県,大野城市,若草２丁目２７番２７号,,40,219,8160981,,,2023-01-18,登記官による閉鎖,,,2015-10-05,1,,,,,,0
1072,3290005007117,登記記録の閉鎖等,0,2023-01-18,2023-01-18,特定非営利活動法人ｕｎｉｔｙ,,その他の設立登記法人,福岡県,大野城市,上大利４丁目３番１３－２０２号伊藤第２ビル,,40,219,8160955,,,2023-01-18,登記官による閉鎖,,,2015-10-05,1,,,,,,0
1073,3290801001537,登記記録の閉鎖等,0,2023-01-18,2023-01-18,株式会社山陰生コン,,株式会社,福岡県,北九州市小倉北区,浅野１丁目３番７号,,40,106,8020001,,,2023-01-18,登記官による閉鎖,,,2015-10-05,1,,,,,,0
1074,3290801002989,登記記録の閉鎖等,0,2023-01-18,2023-01-18,株式会社西日本リース産業,,株式会社,福岡県,北九州市小倉北区,明和町５番１９号,,40,106,8020017,,,2023-01-18,登記官による閉鎖,,,2015-10-05,1,,,,,,0
1075,3290801007385,登記記録の閉鎖等,0,2023-01-18,2023-01-18,株式会社ジャストジョブコーポレーション,,株式会社,福岡県,遠賀郡芦屋町,山鹿３４番４０号,,40,381,8070141,,,2023-01-18,登記官による閉鎖,,,2015-10-05,1,,,,,,0
1076,3290801008598,登記記録の閉鎖等,0,2023-01-18,2023-01-18,メディアホーム株式会社,,株式会社,福岡県,北九州市門司区,下二十町８番３号,,40,101,8000028,,,2023-01-18,登記官による閉鎖,,,2015-10-05,1,,,,,,0
1077,3290801012410,登記記録の閉鎖等,0,2023-01-18,2023-01-18,エムエスライン株式会社,,株式会社,福岡県,北九州市若松区,南二島１丁目７番１１号,,40,103,8080109,,,2023-01-18,登記官による閉鎖,,,2015-10-05,1,,,,,,0
1078,3290801012658,登記記録の閉鎖等,0,2023-01-18,2023-01-18,株式会社ムーブ・マネジメント,,株式会社,福岡県,北九州市八幡西区,森下町５番２６号,,40,109,8060046,,,2023-01-18,登記官による閉鎖,,,2015-10-05,1,,,,,,0
1079,3290801013318,登記記録の閉鎖等,0,2023-01-18,2023-01-18,七福商事株式会社,,株式会社,福岡県,中間市,中鶴３丁目１番５号,,40,215,8090037,,,2023-01-18,登記官による閉鎖,,,2015-10-05,1,,,,,,0
1080,3290801013664,登記記録の閉鎖等,0,2023-01-18,2023-01-18,株式会社サンライトチューンド,,株式会社,福岡県,北九州市八幡西区,浅川学園台２丁目１１番１３号,,40,109,8070871,,,2023-01-18,登記官による閉鎖,,,2015-10-05,1,,,,,,0
1081,3290801018044,登記記録の閉鎖等,0,2023-01-18,2023-01-18,株式会社ＯＣＣＳ,,株式会社,福岡県,北九州市小倉南区,下城野１丁目７番３－Ｂ４－２号,,40,107,8020804,,,2023-01-18,登記官による閉鎖,,,2015-10-05,1,,,,,,0
1085,3290802001775,登記記録の閉鎖等,0,2023-01-18,2023-01-18,有限会社北九州ファーマシー,,有限会社,福岡県,北九州市戸畑区,小芝２丁目８番１３号,,40,105,8040092,,,2023-01-18,登記官による閉鎖,,,2015-10-05,1,,,,,,0
1086,3290802007806,登記記録の閉鎖等,0,2023-01-18,2023-01-18,有限会社協和精工,,有限会社,福岡県,北九州市門司区,小森江３丁目７番６号,,40,101,8000007,,,2023-01-18,登記官による閉鎖,,,2015-10-05,1,,,,,,0
1087,3290802009835,登記記録の閉鎖等,0,2023-01-18,2023-01-18,有限会社美容室モン,,有限会社,福岡県,北九州市門司区,本町１番１４号,,40,101,8010834,,,2023-01-18,登記官による閉鎖,,,2015-10-05,1,,,,,,0
1088,3290802016344,登記記録の閉鎖等,0,2023-01-18,2023-01-18,有限会社翠警,,有限会社,福岡県,北九州市八幡西区,折尾３丁目１番４３号,,40,109,8070825,,,2023-01-18,登記官による閉鎖,,,2015-10-05,1,,,,,,0
1089,3290802021600,登記記録の閉鎖等,0,2023-01-18,2023-01-18,フレッシュイレブン有限会社,,有限会社,福岡県,直方市,大字植木１９５番地１４,,40,204,8220031,,,2023-01-18,登記官による閉鎖,,,2015-10-05,1,,,,,,0
1090,3290803000867,登記記録の閉鎖等,0,2023-01-18,2023-01-18,ユーアレジアドバイザーズ合同会社,,合同会社,福岡県,北九州市門司区,大里桃山町１１番１３号,,40,101,8000033,,,2023-01-18,登記官による閉鎖,,,2015-10-05,1,,,,,,0
1091,3290805000733,登記記録の閉鎖等,0,2023-01-18,2023-01-18,北九州市総合デザイン業協同組合,,その他の設立登記法人,福岡県,北九州市小倉北区,竪町１丁目６番１号,,40,106,8030818,,,2023-01-18,登記官による閉鎖,,,2015-10-05,1,,,,,,0
1092,3290805003686,登記記録の閉鎖等,0,2023-01-18,2023-01-18,特定非営利活動法人さくら,,その他の設立登記法人,福岡県,北九州市小倉北区,宇佐町２丁目１１番２２号,,40,106,8020016,,,2023-01-18,登記官による閉鎖,,,2015-10-05,1,,,,,,0
1095,3320001005244,登記記録の閉鎖等,0,2023-01-18,2023-01-18,久代機工株式会社,,株式会社,大分県,大分市,西鶴崎１丁目１番１８号,,44,201,8700105,,,2023-01-18,登記官による閉鎖,,,2015-10-05,1,,,,,,0
1096,3320001006218,登記記録の閉鎖等,0,2023-01-18,2023-01-18,温研化工株式会社,,株式会社,大分県,別府市,大字鶴見１８１０番地の５,,44,202,8740840,,,2023-01-18,登記官による閉鎖,,,2015-10-05,1,,,,,,0
1097,3320001009501,登記記録の閉鎖等,0,2023-01-18,2023-01-11,株式会社徳尾商店,00096700,株式会社,大分県,竹田市,大字会々２４２７番地１,,44,208,8780011,,,2023-01-11,清算の結了等,,,2015-10-05,1,,,,,トクオショウテン,0
1098,3320002003874,登記記録の閉鎖等,0,2023-01-18,2023-01-18,有限会社セラーカンパニー,,有限会社,大分県,大分市,府内町２丁目３番２５号コスモビル１Ｆ,,44,201,8700021,,,2023-01-18,登記官による閉鎖,,,2015-10-05,1,,,,,,0
1099,3320002009327,登記記録の閉鎖等,0,2023-01-18,2023-01-18,有限会社西部ガードシステム,,有限会社,大分県,大分市,東津留２丁目１１番１号,,44,201,8700934,,,2023-01-18,登記官による閉鎖,,,2015-10-05,1,,,,,,0
1100,3320002009839,登記記録の閉鎖等,0,2023-01-18,2023-01-18,有限会社アサヒレンタル,,有限会社,大分県,大分市,大字松岡１２６２番地の１,,44,201,8700125,,,2023-01-18,登記官による閉鎖,,,2015-10-05,1,,,,,,0
1101,3320002012603,登記記録の閉鎖等,0,2023-01-18,2023-01-18,有限会社ミリオン会館,,有限会社,大分県,別府市,楠町７番２５号,,44,202,8740943,,,2023-01-18,登記官による閉鎖,,,2015-10-05,1,,,,,,0
1103,3320003000391,登記記録の閉鎖等,0,2023-01-18,2023-01-18,合同会社ｗｉｔｈ　Ｖｉ,,合同会社,大分県,大分市,大字勢家１０７８番地,,44,201,8700100,,,2023-01-18,登記官による閉鎖,,,2015-10-05,1,,,,,,0
1104,3320005001470,登記記録の閉鎖等,0,2023-01-18,2023-01-18,特定非営利活動法人アジア・ヒューマン・サポート,,その他の設立登記法人,大分県,大分市,中央町４丁目１番１５号,,44,201,8700035,,,2023-01-18,登記官による閉鎖,,,2015-10-05,1,,,,,,0
1105,3320005002444,登記記録の閉鎖等,0,2023-01-18,2023-01-18,特定非営利活動法人大分ソーリンズ野球倶楽部,,その他の設立登記法人,大分県,大分市,大字寒田１０６６番地の１２,,44,201,8701123,,,2023-01-18,登記官による閉鎖,,,2015-10-05,1,,,,,,0
1106,3320005003822,登記記録の閉鎖等,0,2023-01-18,2023-01-18,農事組合法人石場養豚場,,その他の設立登記法人,大分県,豊後高田市,堅来６１０番地,,44,209,8721203,,,2023-01-18,登記官による閉鎖,,,2015-10-05,1,,,,,,0
1107,3320005008152,登記記録の閉鎖等,0,2023-01-18,2023-01-18,一般社団法人メサと滝回廊,,その他の設立登記法人,大分県,日田市,田島２丁目１１番３１号,,44,204,8770025,,,2023-01-18,登記官による閉鎖,,,2015-10-05,1,,,,,,0
1108,3320202000390,登記記録の閉鎖等,0,2023-01-18,2023-01-18,有限会社梅花堂薬品,,有限会社,大分県,臼杵市,大字井村２０４９番地の３,,44,206,8750083,,,2023-01-18,登記官による閉鎖,,,2015-10-05,1,,,,,,0
1113,3340002011941,登記記録の閉鎖等,0,2023-01-18,2023-01-18,有限会社オフィス下野,,有限会社,鹿児島県,鹿児島市,和田２丁目２０番１９号,,46,201,8910143,,,2023-01-18,清算の結了等,,,2015-10-05,1,,,,,オフィスシモノ,0
1115,3360001016493,登記記録の閉鎖等,0,2023-01-18,2023-01-11,株式会社ほっと建設,,株式会社,沖縄県,豊見城市,字根差部６９５番地Ａｓｕｎｔｏ４０５,,47,212,9010205,,,2023-01-11,清算の結了等,,,2015-10-05,1,,,,,ホットケンセツ,0
1120,3370003004512,登記記録の閉鎖等,0,2023-01-18,2023-01-11,株式会社Ｒｏｙｃｅｌ,,株式会社,東京都,千代田区,有楽町１丁目１２番１号新有楽町ビル,,13,101,1000006,,,2023-01-11,合併による解散等,7010401132137,令和５年１月１日大阪市中央区平野町一丁目６番８－７０９号株式会社ＴｈｉｎｋＦｏｒｍ（7010401132137）に合併し解散,2019-06-25,1,,,,,ロイセル,0
1123,3410001004377,登記記録の閉鎖等,0,2023-01-18,2023-01-18,株式会社イングリッシュプラスワン,,株式会社,秋田県,秋田市,桜４丁目１０番６号,,05,201,0100042,,,2023-01-18,登記官による閉鎖,,,2015-10-05,1,,,,,,0
1124,3410002008311,登記記録の閉鎖等,0,2023-01-18,2023-01-18,有限会社石井呉服店,00086712,有限会社,秋田県,大館市,十二所字十二所町２１６番地,,05,204,0185601,,,2023-01-18,登記官による閉鎖,,,2015-10-05,1,,,,,,0
1125,3410002008963,登記記録の閉鎖等,0,2023-01-18,2023-01-18,有限会社東土建,,有限会社,秋田県,大館市,比内町独鈷字川久保４４番地１,,05,204,0185721,,,2023-01-18,登記官による閉鎖,,,2015-10-05,1,,,,,,0
1126,3410002011380,登記記録の閉鎖等,0,2023-01-18,2023-01-18,有限会社木村通信,,有限会社,秋田県,大仙市,川目字川目１２１番地の内２,,05,212,0140066,,,2023-01-18,登記官による閉鎖,,,2015-10-05,1,,,,,,0
1127,3410002013410,登記記録の閉鎖等,0,2023-01-18,2023-01-18,有限会社大日向建設,,有限会社,秋田県,横手市,雄物川町道地字家東１７番地,,05,203,0130217,,,2023-01-18,登記官による閉鎖,,,2015-10-05,1,,,,,,0
1128,3410003002197,登記記録の閉鎖等,0,2023-01-18,2023-01-18,秋田飼料販売合資会社,,合資会社,秋田県,大仙市,字刈和野２３５番地,,05,212,0192112,,,2023-01-18,登記官による閉鎖,,,2015-10-05,1,,,,,,0
1129,3410005001222,登記記録の閉鎖等,0,2023-01-18,2023-01-18,企業組合スラップアップ・エージェンシー,,その他の設立登記法人,秋田県,秋田市,泉中央４丁目２番８号ＴＫビル２０１号,,05,201,0100917,,,2023-01-18,登記官による閉鎖,,,2015-10-05,1,,,,,,0
1131,3410005004877,登記記録の閉鎖等,0,2023-01-18,2023-01-18,企業組合四喜彩,,その他の設立登記法人,秋田県,仙北市,田沢湖生保内字造道２３番地２０,,05,215,0141201,,,2023-01-18,登記官による閉鎖,,,2015-10-05,1,,,,,,0
1132,3410005005248,登記記録の閉鎖等,0,2023-01-18,2023-01-18,増田醤油味噌小売商業協同組合,,その他の設立登記法人,秋田県,横手市,増田町増田字縫殿１１２番地,,05,203,0190701,,,2023-01-18,登記官による閉鎖,,,2015-10-05,1,,,,,,0
1133,3410005005306,登記記録の閉鎖等,0,2023-01-18,2023-01-18,特定非営利活動法人まちづくり味覚人ネットワーク,,その他の設立登記法人,秋田県,横手市,梅の木町５番３７号,,05,203,0130068,,,2023-01-18,登記官による閉鎖,,,2015-10-05,1,,,,,,0
1140,3460002001740,登記記録の閉鎖等,0,2023-01-18,2023-01-16,有限会社大廣産業,00091025,有限会社,北海道,釧路郡釧路町,遠矢南１丁目３番地,,01,661,0882156,,,2023-01-16,清算の結了等,,,2015-10-05,1,,,,,ダイコウサンギョウ,0
1141,3460101001245,登記記録の閉鎖等,0,2023-01-18,2023-01-18,株式会社道東レジャーサービス,,株式会社,北海道,帯広市,公園東町４丁目９番地７,,01,207,0800847,,,2023-01-18,登記官による閉鎖,,,2015-10-05,1,,,,,,0
1142,3460301001160,登記記録の閉鎖等,0,2023-01-18,2023-01-18,株式会社酪研,,株式会社,北海道,北見市,とん田東町５９２番地の８,,01,208,0900833,,,2023-01-18,登記官による閉鎖,,,2015-10-05,1,,,,,,0
1143,3460302003115,登記記録の閉鎖等,0,2023-01-18,2023-01-13,有限会社プラザカワイ,,有限会社,北海道,紋別郡遠軽町,岩見通南１丁目３番地１１,,01,555,0990415,,,2023-01-13,清算の結了等,,,2015-10-05,1,,,,,プラザカワイ,0
1148,3490001002051,登記記録の閉鎖等,0,2023-01-18,2023-01-18,株式会社平成不動産,,株式会社,高知県,高知市,石立町８９番地１,,39,201,7808038,,,2023-01-18,登記官による閉鎖,,,2015-10-05,1,,,,,,0
1149,3490001007851,登記記録の閉鎖等,0,2023-01-18,2023-01-18,南国砕石販売株式会社,,株式会社,高知県,南国市,植野３８４番地３,,39,204,7830061,,,2023-01-18,登記官による閉鎖,,,2015-10-05,1,,,,,,0
1150,3490002000855,登記記録の閉鎖等,0,2023-01-18,2023-01-18,有限会社小川工務店,,有限会社,高知県,高知市,大膳町７番地１２,,39,201,7800926,,,2023-01-18,登記官による閉鎖,,,2015-10-05,1,,,,,,0
1151,3490002009938,登記記録の閉鎖等,0,2023-01-18,2023-01-18,有限会社久万印刷所Ｋ・コーポレーション,,有限会社,高知県,高岡郡佐川町,甲１７１２番地１,,39,402,7891201,,,2023-01-18,登記官による閉鎖,,,2015-10-05,1,,,,,,0
1152,3490002011563,登記記録の閉鎖等,0,2023-01-18,2023-01-18,有限会社井上商店,,有限会社,高知県,南国市,後免町１丁目７番１２号,,39,204,7830011,,,2023-01-18,登記官による閉鎖,,,2015-10-05,1,,,,,,0
1153,3490005002089,登記記録の閉鎖等,0,2023-01-18,2023-01-18,横瀬林業企業組合,,その他の設立登記法人,高知県,四万十市,横瀬１８８４番地,,39,210,7870772,,,2023-01-18,登記官による閉鎖,,,2015-10-05,1,,,,,,0
1154,3490005004317,登記記録の閉鎖等,0,2023-01-18,2023-01-18,農事組合法人源水エコファーム,,その他の設立登記法人,高知県,高岡郡四万十町,影野６７０番地,,39,412,7860032,,,2023-01-18,登記官による閉鎖,,,2015-10-05,1,,,,,,0
1157,4010001013104,登記記録の閉鎖等,0,2023-01-18,2023-01-12,株式会社お茶の水ゼミナール,,株式会社,東京都,千代田区,神田三崎町２丁目２１番１１号,,13,101,1010061,,,2023-01-12,合併による解散等,7140001067869,令和５年１月１日兵庫県西宮市高松町１５番４１号株式会社アップ（7140001067869）に合併し解散,2015-10-05,1,,,,,オチャノミズゼミナール,0
1172,4010001224948,登記記録の閉鎖等,0,2023-01-18,2023-01-11,株式会社ＹＳＫ５,,株式会社,東京都,千代田区,麹町１丁目６番地９ＤＩＫ麹町ビル,,13,101,1020083,,,2023-01-11,合併による解散等,2140002036844,令和４年１２月２３日兵庫県加古川市野口町水足１７９番地の１３株式会社柳川製作所（2140002036844）に合併し解散,2022-03-07,1,,,,,ワイエスケーファイブ,0
1173,4010001227579,登記記録の閉鎖等,0,2023-01-18,2023-01-05,株式会社ＫＬ１,,株式会社,東京都,千代田区,丸の内３丁目１番１号東京共同会計事務所内,,13,101,1000005,,,2023-01-05,合併による解散等,6010001226521,令和５年１月１日東京都千代田区丸の内三丁目１番１号東京共同会計事務所内株式会社ＣＨ（6010001226521）に合併し解散,2022-06-23,1,,,,,ケーエルワン,0
1186,4010403017561,登記記録の閉鎖等,0,2023-01-18,2022-12-27,合同会社シュリッツァー・アンド・ツァイリンガー教材店,,合同会社,東京都,港区,南青山２丁目２番１５号ウィン青山９４２,,13,103,1070062,,,2022-12-27,清算の結了等,,,2017-11-08,1,,,,,シュリッツァーアンドツァイリンガーキョウザイテン,0
1191,4010501028650,登記記録の閉鎖等,0,2023-01-18,2023-01-10,株式会社アイティ・クラフト,,株式会社,東京都,港区,新橋４丁目２１番３号,,13,103,1050004,,,2023-01-10,合併による解散等,2010401089407,令和５年１月１日東京都港区新橋四丁目２１番３号日本ジョイントソリューションズ株式会社（2010401089407）に合併し解散,2015-10-05,1,,,,,アイティクラフト,0
1211,4011005007967,登記記録の閉鎖等,0,2023-01-18,2023-01-13,一般財団法人グリーンシードベースボール・ファンデーション,,その他の設立登記法人,東京都,新宿区,新宿６丁目２７番２８－２０１号,,13,104,1600022,,,2023-01-13,清算の結了等,,,2019-01-25,1,,,,,グリーンシードベースボールファンデーション,0
1231,4012401002520,登記記録の閉鎖等,0,2023-01-18,2023-01-17,花沢ハウジング株式会社,,株式会社,東京都,国分寺市,南町３丁目２３番１１号,,13,214,1850021,,,2023-01-17,登記官による閉鎖,,,2015-10-05,1,,,,,,0
1234,4012402005919,登記記録の閉鎖等,0,2023-01-18,2023-01-17,有限会社エム・プランニング,,有限会社,東京都,国立市,東３丁目６番地１６浅見ビル２０２号,,13,215,1860002,,,2023-01-17,登記官による閉鎖,,,2015-10-05,1,,,,,,0
1235,4012701002963,登記記録の閉鎖等,0,2023-01-18,2023-01-18,株式会社田嶋組,,株式会社,東京都,西東京市,富士町３丁目４番３１号,,13,229,2020014,,,2023-01-18,登記官による閉鎖,,,2015-10-05,1,,,,,,0
1236,4012701003078,登記記録の閉鎖等,0,2023-01-18,2023-01-18,光ヘテロダイン工業株式会社,,株式会社,東京都,西東京市,泉町５丁目１番１３号,,13,229,2020011,,,2023-01-18,登記官による閉鎖,,,2015-10-05,1,,,,,,0
1237,4012702003003,登記記録の閉鎖等,0,2023-01-18,2023-01-18,有限会社大冷工業所,,有限会社,東京都,東村山市,秋津町３丁目３４番地２７,,13,213,1890001,,,2023-01-18,登記官による閉鎖,,,2015-10-05,1,,,,,,0
1238,4012702005370,登記記録の閉鎖等,0,2023-01-18,2023-01-18,有限会社共同建設,,有限会社,東京都,西東京市,芝久保町３丁目２４番１５号,,13,229,1880014,,,2023-01-18,登記官による閉鎖,,,2015-10-05,1,,,,,,0
1239,4012702009792,登記記録の閉鎖等,0,2023-01-18,2023-01-18,有限会社プロテクト,,有限会社,東京都,西東京市,北原町１丁目２６番４号,,13,229,1880003,,,2023-01-18,登記官による閉鎖,,,2015-10-05,1,,,,,,0
1240,4012703000684,登記記録の閉鎖等,0,2023-01-18,2023-01-18,合同会社トミイチ,,合同会社,東京都,西東京市,中町６丁目８番２２号,,13,229,2020013,,,2023-01-18,登記官による閉鎖,,,2015-10-05,1,,,,,,0
1243,4012802003324,登記記録の閉鎖等,0,2023-01-18,2023-01-17,有限会社多摩電設コンサルタント,,有限会社,東京都,昭島市,宮沢町３丁目８番５号錦盛館ビル１０２号,,13,207,1960024,,,2023-01-17,登記官による閉鎖,,,2015-10-05,1,,,,,,0
1244,4012802003381,登記記録の閉鎖等,0,2023-01-18,2023-01-17,有限会社高橋設備工業,,有限会社,東京都,昭島市,拝島町３丁目１７番１２－３０５号,,13,207,1960002,,,2023-01-17,登記官による閉鎖,,,2015-10-05,1,,,,,,0
1245,4012805000491,登記記録の閉鎖等,0,2023-01-18,2023-01-17,特定非営利活動法人かぁさんの家,,その他の設立登記法人,東京都,武蔵村山市,伊奈平６丁目４５番地の２,,13,223,2080023,,,2023-01-17,登記官による閉鎖,,,2015-10-05,1,,,,,,0
1250,4020001023424,登記記録の閉鎖等,0,2023-01-18,2023-01-13,株式会社シュテルン横浜東,,株式会社,神奈川県,横浜市神奈川区,神奈川２丁目１６番地の１,,14,102,2210045,,,2023-01-13,合併による解散等,9012301001114,令和５年１月１日東京都町田市鶴間七丁目２番１号株式会社シュテルン世田谷（9012301001114）に合併し解散,2015-10-05,1,,,,,シュテルンヨコハマヒガシ,0
1251,4020001075176,登記記録の閉鎖等,0,2023-01-18,2023-01-13,エステーシー株式会社,,株式会社,神奈川県,川崎市多摩区,堰１丁目２２番２８号,,14,135,2140022,,,2023-01-13,合併による解散等,4012401018657,令和５年１月１日東京都府中市四谷二丁目２４番地の８株式会社カスタム電子（4012401018657）に合併し解散,2015-10-05,1,,,,,エステーシー,0
1266,4021001021112,登記記録の閉鎖等,0,2023-01-18,2023-01-12,湘洸物産株式会社,,株式会社,神奈川県,伊勢原市,鈴川１９番地,,14,214,2591146,,,2023-01-12,清算の結了等,,,2015-10-05,1,,,,,ショウコウブッサン,0
1270,4021002034154,登記記録の閉鎖等,0,2023-01-18,2023-01-11,有限会社第三十七作業所,,有限会社,神奈川県,愛甲郡愛川町,三増１０３５番地,,14,401,2430308,,,2023-01-11,清算の結了等,,,2015-10-05,1,,,,,ダイサンジュウナナサギョウショ,0
1272,4021002062857,登記記録の閉鎖等,0,2023-01-18,2023-01-11,有限会社五輪電気工業,,有限会社,神奈川県,横須賀市,太田和４丁目２１８０番地３,,14,201,2380311,,,2023-01-11,清算の結了等,,,2015-10-05,1,,,,,イツワデンキデンキコウギョウ,0
1306,4080001002463,登記記録の閉鎖等,0,2023-01-18,2023-01-18,株式会社静清ハウヂング,,株式会社,静岡県,静岡市駿河区,南町３番２５号,,22,102,4228067,,,2023-01-18,登記官による閉鎖,,,2015-10-05,1,,,,,,0
1308,4080001016728,登記記録の閉鎖等,0,2023-01-18,2023-01-18,株式会社藤本工業所,,株式会社,静岡県,藤枝市,横内８００番地の１２,,22,214,4260002,,,2023-01-18,登記官による閉鎖,,,2015-10-05,1,,,,,,0
1311,4080001021835,登記記録の閉鎖等,0,2023-01-18,2023-01-18,株式会社マリコ,,株式会社,静岡県,静岡市駿河区,北丸子１丁目６番６号,,22,102,4210106,,,2023-01-18,登記官による閉鎖,,,2017-09-22,1,,,,,,0
1312,4080002000821,登記記録の閉鎖等,0,2023-01-18,2023-01-18,有限会社エー・エス・エー,,有限会社,静岡県,静岡市葵区,常磐町２丁目１２番地の４,,22,101,4200034,,,2023-01-18,登記官による閉鎖,,,2015-10-05,1,,,,,,0
1313,4080002007619,登記記録の閉鎖等,0,2023-01-18,2023-01-18,有限会社チャイルドマインディング・プロ,,有限会社,静岡県,静岡市葵区,東草深町７番１５号,,22,101,4200865,,,2023-01-18,登記官による閉鎖,,,2015-10-05,1,,,,,,0
1314,4080002011348,登記記録の閉鎖等,0,2023-01-18,2023-01-18,みちのく電工有限会社,,有限会社,静岡県,静岡市清水区,蜂ヶ谷１８５番地の６,,22,103,4240003,,,2023-01-18,登記官による閉鎖,,,2015-10-05,1,,,,,,0
1316,4080101022766,登記記録の閉鎖等,0,2023-01-18,2023-01-18,株式会社富士土建,,株式会社,静岡県,伊東市,松原本町１０番１２号,,22,208,4140021,,,2023-01-18,登記官による閉鎖,,,2021-10-01,1,,,,,フジドケン,0
1317,4080102001926,登記記録の閉鎖等,0,2023-01-18,2023-01-18,スズキインテレクト有限会社,,有限会社,静岡県,沼津市,青野４６９番地,,22,203,4100307,,,2023-01-18,登記官による閉鎖,,,2015-10-05,1,,,,,,0
1319,4080102006116,登記記録の閉鎖等,0,2023-01-18,2023-01-18,有限会社ポンカドゥ,,有限会社,静岡県,沼津市,八幡町１５番地,,22,203,4100881,,,2023-01-18,登記官による閉鎖,,,2015-10-05,1,,,,,,0
1320,4080102006396,登記記録の閉鎖等,0,2023-01-18,2023-01-18,有限会社アップ,,有限会社,静岡県,沼津市,柳町３番２２号,,22,203,4100043,,,2023-01-18,登記官による閉鎖,,,2015-10-05,1,,,,,,0
1321,4080102007634,登記記録の閉鎖等,0,2023-01-18,2023-01-18,有限会社和田建設,,有限会社,静岡県,駿東郡小山町,菅沼７４５番地の６,,22,344,4101312,,,2023-01-18,登記官による閉鎖,,,2015-10-05,1,,,,,,0
1322,4080102013698,登記記録の閉鎖等,0,2023-01-18,2023-01-18,有限会社神尾工業,,有限会社,静岡県,富士市,今泉２６９７番地の１９,,22,210,4170001,,,2023-01-18,登記官による閉鎖,,,2015-10-05,1,,,,,カミオコウギョウ,0
1323,4080102018788,登記記録の閉鎖等,0,2023-01-18,2023-01-18,有限会社熱海ロマン本舗,,有限会社,静岡県,熱海市,咲見町１１番５号,,22,205,4130019,,,2023-01-18,登記官による閉鎖,,,2015-10-05,1,,,,,,0
1326,4080401011634,登記記録の閉鎖等,0,2023-01-18,2023-01-18,静岡ビジネス株式会社,,株式会社,静岡県,浜松市東区,長鶴町２３５番地の２,,22,132,4350031,,,2023-01-18,登記官による閉鎖,,,2015-10-05,1,,,,,,0
1327,4080401016815,登記記録の閉鎖等,0,2023-01-18,2023-01-18,旭建工株式会社,,株式会社,静岡県,磐田市,二之宮１１５２番地,,22,211,4380074,,,2023-01-18,登記官による閉鎖,,,2015-10-05,1,,,,,,0
1329,4080402001502,登記記録の閉鎖等,0,2023-01-18,2023-01-18,有限会社エル,,有限会社,静岡県,浜松市中区,上島５丁目７番３０号,,22,131,4338122,,,2023-01-18,登記官による閉鎖,,,2015-10-05,1,,,,,,0
1330,4080402008448,登記記録の閉鎖等,0,2023-01-18,2023-01-18,有限会社ヤマ勘鈴木食料品店,,有限会社,静岡県,浜松市西区,村櫛町３５６４番地の１,,22,133,4311207,,,2023-01-18,登記官による閉鎖,,,2015-10-05,1,,,,,,0
1331,4080402015816,登記記録の閉鎖等,0,2023-01-18,2023-01-18,有限会社栄楽屋,,有限会社,静岡県,浜松市北区,細江町気賀６６３番地,,22,135,4311305,,,2023-01-18,登記官による閉鎖,,,2015-10-05,1,,,,,,0
1332,4080402016186,登記記録の閉鎖等,0,2023-01-18,2023-01-18,有限会社トヤマ,,有限会社,静岡県,浜松市北区,三ヶ日町下尾奈１０７４番地,,22,135,4311424,,,2023-01-18,登記官による閉鎖,,,2015-10-05,1,,,,,,0
1333,4080403002714,登記記録の閉鎖等,0,2023-01-18,2023-01-18,合同会社ＪＩＮＴＯＮＩＣ,,合同会社,静岡県,浜松市西区,志都呂町５４５１番地の２エスポワール１０３号室,,22,133,4328066,,,2023-01-18,登記官による閉鎖,,,2015-10-05,1,,,,,,0
1335,4080405006069,登記記録の閉鎖等,0,2023-01-18,2023-01-18,静岡県輸出ハッカ栽培周南農業協同組合,,その他の設立登記法人,静岡県,袋井市,春岡２７２番地の１,,22,216,4370122,,,2023-01-18,登記官による閉鎖,,,2015-10-05,1,,,,,,0
1341,4110005000542,登記記録の閉鎖等,0,2023-01-18,2023-01-17,新潟原動機労働組合新潟支部,,その他の設立登記法人,新潟県,新潟市東区,岡山１３００番地,,15,102,9500821,,,2023-01-17,清算の結了等,,,2015-10-05,1,,,,,ニイガタゲンドウキニイガタシブ,0
1345,4120001110278,登記記録の閉鎖等,0,2023-01-18,2023-01-13,株式会社エコプレックス,,株式会社,大阪府,大阪市西区,新町２丁目４番２号なにわ筋ＳＩＡビル１０階,,27,106,5500013,,,2023-01-13,清算の結了等,,,2015-10-05,1,,,,,エコプレックス,0
1359,4120101000197,登記記録の閉鎖等,0,2023-01-18,2023-01-13,株式会社大洋薬品,,株式会社,大阪府,堺市中区,東八田３７６番地の２,,27,142,5998275,,,2023-01-13,清算の結了等,,,2015-10-05,1,,,,,タイヨウヤクヒン,0
1365,4130001047908,登記記録の閉鎖等,0,2023-01-18,2023-01-12,株式会社サカモト,,株式会社,京都府,八幡市,八幡軸６０番地の１,,26,210,6148073,,,2023-01-12,清算の結了等,,,2015-10-05,1,,,,,サカモト,0
1368,4130002023016,登記記録の閉鎖等,0,2023-01-18,2023-01-11,有限会社海馬工房,,有限会社,京都府,京都市右京区,京北上弓削町段１１番地,,26,108,6010531,,,2023-01-11,清算の結了等,,,2015-10-05,1,,,,,ウミウマコウボウ,0
1370,4130002032438,登記記録の閉鎖等,0,2023-01-18,2023-01-05,有限会社アイドル,,有限会社,京都府,福知山市,字天田小字中長戸４５番地の６,,26,201,6200000,,,2023-01-05,合併による解散等,5130001042123,令和５年１月１日京都府福知山市字天田小字中長戸４５番地の６株式会社セークロハンデルン（5130001042123）に合併し解散,2015-10-05,1,,,,,アイドル,0
1386,4180001006165,登記記録の閉鎖等,0,2023-01-18,2023-01-17,株式会社オークラ,,株式会社,愛知県,名古屋市港区,福田１丁目１１０７番地,,23,111,4550887,,,2023-01-17,登記官による閉鎖,,,2015-10-05,1,,,,,,0
1387,4180001006330,登記記録の閉鎖等,0,2023-01-18,2023-01-11,株式会社共立自動車,,株式会社,愛知県,名古屋市港区,善南町２４番地,,23,111,4550814,,,2023-01-11,清算の結了等,,,2015-10-05,1,,,,,キョウリツジドウシャ,0
1388,4180001009804,登記記録の閉鎖等,0,2023-01-18,2023-01-17,株式会社マツダアンフィニ名古屋,,株式会社,愛知県,名古屋市瑞穂区,二野町３番１８号,,23,108,4670861,,,2023-01-17,登記官による閉鎖,,,2015-10-05,1,,,,,,0
1389,4180001011297,登記記録の閉鎖等,0,2023-01-18,2023-01-17,株式会社ユーノス名古屋,,株式会社,愛知県,名古屋市瑞穂区,二野町３番１８号,,23,108,4670861,,,2023-01-17,登記官による閉鎖,,,2015-10-05,1,,,,,,0
1390,4180001034876,登記記録の閉鎖等,0,2023-01-18,2023-01-17,株式会社オートサービス愛知,,株式会社,愛知県,名古屋市瑞穂区,二野町３番１８号,,23,108,4670861,,,2023-01-17,登記官による閉鎖,,,2015-10-05,1,,,,,,0
1391,4180001035395,登記記録の閉鎖等,0,2023-01-18,2023-01-17,株式会社北忍木,,株式会社,愛知県,名古屋市中区,錦３丁目１８番９号,,23,106,4600003,,,2023-01-17,登記官による閉鎖,,,2015-10-05,1,,,,,,0
1392,4180001036732,登記記録の閉鎖等,0,2023-01-18,2023-01-17,株式会社シンコーホーム,,株式会社,愛知県,名古屋市中区,新栄２丁目４番３号,,23,106,4600007,,,2023-01-17,登記官による閉鎖,,,2017-11-16,1,,,,,,0
1393,4180001037714,登記記録の閉鎖等,0,2023-01-18,2023-01-17,太洋地所株式会社,,株式会社,愛知県,名古屋市中川区,八熊１丁目９番２号,,23,110,4540013,,,2023-01-17,登記官による閉鎖,,,2015-10-05,1,,,,,,0
1394,4180001053876,登記記録の閉鎖等,0,2023-01-18,2023-01-17,株式会社セイワ建企,,株式会社,愛知県,名古屋市天白区,池場２丁目２５０３番地,,23,116,4680055,,,2023-01-17,登記官による閉鎖,,,2015-10-05,1,,,,,,0
1395,4180001054692,登記記録の閉鎖等,0,2023-01-18,2023-01-17,株式会社ヒューマンサポート,,株式会社,愛知県,名古屋市東区,泉１丁目２２番３５号,,23,102,4610001,,,2023-01-17,登記官による閉鎖,,,2015-10-05,1,,,,,,0
1396,4180001056739,登記記録の閉鎖等,0,2023-01-18,2023-01-17,株式会社Ｏｎｅ,,株式会社,愛知県,名古屋市名東区,上社１丁目１００７番ダイアパレス上社駅前１４０３号,,23,115,4650025,,,2023-01-17,登記官による閉鎖,,,2015-10-05,1,,,,,,0
1397,4180001059295,登記記録の閉鎖等,0,2023-01-18,2023-01-17,株式会社オブユーズ,,株式会社,愛知県,名古屋市中村区,羽衣町３９番地の４,,23,105,4530026,,,2023-01-17,登記官による閉鎖,,,2015-10-05,1,,,,,,0
1398,4180001061573,登記記録の閉鎖等,0,2023-01-18,2023-01-17,株式会社ＭＡＴＳＵＫＩ,,株式会社,愛知県,西春日井郡豊山町,大字豊場字流川１６番地,,23,342,4800202,,,2023-01-17,登記官による閉鎖,,,2015-10-05,1,,,,,,0
1399,4180001063132,登記記録の閉鎖等,0,2023-01-18,2023-01-17,株式会社ＪＦＵ,,株式会社,愛知県,名古屋市緑区,鳴海町字下汐田１３１番地の１,,23,114,4580801,,,2023-01-17,登記官による閉鎖,,,2015-10-05,1,,,,,,0
1400,4180001067273,登記記録の閉鎖等,0,2023-01-18,2023-01-12,株式会社山田商店,,株式会社,愛知県,日進市,赤池５丁目５１３番地,,23,230,4700125,,,2023-01-12,清算の結了等,,,2015-10-05,1,,,,,ヤマダショウテン,0
1401,4180001071507,登記記録の閉鎖等,0,2023-01-18,2023-01-17,株式会社新盛,,株式会社,愛知県,名古屋市中区,正木４丁目１０番５号瑠璃光ビル８０２号,,23,106,4600024,,,2023-01-17,登記官による閉鎖,,,2015-10-05,1,,,,,,0
1402,4180001072653,登記記録の閉鎖等,0,2023-01-18,2023-01-17,中国料理金坊株式会社,,株式会社,愛知県,名古屋市南区,本地通１丁目５番６号,,23,112,4570074,,,2023-01-17,登記官による閉鎖,,,2015-10-05,1,,,,,,0
1403,4180001089425,登記記録の閉鎖等,0,2023-01-18,2023-01-17,株式会社ブロス,,株式会社,愛知県,春日井市,東野町３丁目５番地１０,,23,206,4860817,,,2023-01-17,登記官による閉鎖,,,2015-10-05,1,,,,,,0
1404,4180001097064,登記記録の閉鎖等,0,2023-01-18,2023-01-17,武藤運送株式会社,,株式会社,愛知県,弥富市,五明町築留１７７７番地１６,,23,235,4980014,,,2023-01-17,登記官による閉鎖,,,2015-10-05,1,,,,,,0
1405,4180001100422,登記記録の閉鎖等,0,2023-01-18,2023-01-17,株式会社ベストマンａｃｅ,,株式会社,愛知県,一宮市,花池４丁目２番１８号,,23,203,4910914,,,2023-01-17,登記官による閉鎖,,,2015-10-05,1,,,,,,0
1406,4180001102113,登記記録の閉鎖等,0,2023-01-18,2023-01-17,へごわら観光株式会社,,株式会社,愛知県,名古屋市中川区,供米田２丁目１４０１番地,,23,110,4540984,,,2023-01-17,登記官による閉鎖,,,2015-10-05,1,,,,,,0
1409,4180002011619,登記記録の閉鎖等,0,2023-01-18,2023-01-17,有限会社島田装芸,,有限会社,愛知県,名古屋市北区,如意１丁目８番地,,23,103,4620007,,,2023-01-17,登記官による閉鎖,,,2015-10-05,1,,,,,,0
1410,4180002014299,登記記録の閉鎖等,0,2023-01-18,2023-01-17,有限会社道徳電気工事事務所,,有限会社,愛知県,名古屋市南区,弥次ヱ町１丁目２３番地,,23,112,4570821,,,2023-01-17,登記官による閉鎖,,,2015-10-05,1,,,,,,0
1411,4180002021733,登記記録の閉鎖等,0,2023-01-18,2023-01-17,有限会社ダイユー,,有限会社,愛知県,名古屋市西区,名西２丁目３６番２５号,,23,104,4510064,,,2023-01-17,登記官による閉鎖,,,2015-10-05,1,,,,,,0
1412,4180002021931,登記記録の閉鎖等,0,2023-01-18,2023-01-17,名古屋自動車用品流通センター有限会社,,有限会社,愛知県,名古屋市天白区,笹原町１２０５番地,,23,116,4680044,,,2023-01-17,登記官による閉鎖,,,2015-10-05,1,,,,,,0
1413,4180002049832,登記記録の閉鎖等,0,2023-01-18,2023-01-17,有限会社湯沢建設,,有限会社,愛知県,名古屋市天白区,植田西２丁目１２０３番地,,23,116,4680058,,,2023-01-17,登記官による閉鎖,,,2015-10-05,1,,,,,,0
1414,4180002081257,登記記録の閉鎖等,0,2023-01-18,2023-01-17,有限会社松岡鉄工,,有限会社,愛知県,稲沢市,中之庄町辻畑６０番地の１,00073492,23,220,4928435,,,2023-01-17,登記官による閉鎖,,,2015-10-05,1,,,,,,0
1415,4180002082172,登記記録の閉鎖等,0,2023-01-18,2023-01-17,有限会社北斗,,有限会社,愛知県,江南市,宮田町宮東９０番地,,23,217,4838372,,,2023-01-17,登記官による閉鎖,,,2015-10-05,1,,,,,,0
1416,4180002082305,登記記録の閉鎖等,0,2023-01-18,2023-01-17,有限会社亜朱羅,,有限会社,愛知県,岩倉市,東町長山１０３番地,,23,228,4820041,,,2023-01-17,登記官による閉鎖,,,2015-10-05,1,,,,,,0
1417,4180002086289,登記記録の閉鎖等,0,2023-01-18,2023-01-17,有限会社マル克製陶所,,有限会社,愛知県,常滑市,字奥夏敷１３番地の８,,23,216,4790053,,,2023-01-17,登記官による閉鎖,,,2015-10-05,1,,,,,,0
1418,4180002089894,登記記録の閉鎖等,0,2023-01-18,2023-01-17,アストロ電気有限会社,,有限会社,愛知県,愛西市,西保町城之内１１番地,,23,232,4960911,,,2023-01-17,登記官による閉鎖,,,2015-10-05,1,,,,,,0
1420,4180002093269,登記記録の閉鎖等,0,2023-01-18,2023-01-17,有限会社コレクトサービス,,有限会社,愛知県,名古屋市中区,栄１丁目２２番２号,,23,106,4600008,,,2023-01-17,登記官による閉鎖,,,2015-10-05,1,,,,,,0
1421,4180003009827,登記記録の閉鎖等,0,2023-01-18,2023-01-17,合資会社Ｍ＆Ｙ,,合資会社,愛知県,名古屋市昭和区,田面町１丁目９２番地の４ＬＩＢＥＲＴＹＨＯＵＳＥ昭和１Ａ,,23,107,4660801,,,2023-01-17,登記官による閉鎖,,,2015-10-05,1,,,,,,0
1422,4180003010925,登記記録の閉鎖等,0,2023-01-18,2023-01-17,合資会社宮田屋呉服店,,合資会社,愛知県,瀬戸市,末広町３丁目１０番地,,23,204,4890814,,,2023-01-17,登記官による閉鎖,,,2017-12-12,1,,,,,,0
1433,4200001005437,登記記録の閉鎖等,0,2023-01-18,2023-01-17,株式会社メディスポ,,株式会社,岐阜県,岐阜市,清住町２丁目４番１号ライオンズ岐阜セントマークス弐番館６０１号,,21,201,5008178,,,2023-01-17,清算の結了等,,,2015-10-05,1,,,,,メディスポ,0
1443,4250001002520,登記記録の閉鎖等,0,2023-01-18,2023-01-11,協和エンジニアリング株式会社,,株式会社,山口県,防府市,協和町１番１号,,35,206,7470815,,,2023-01-11,合併による解散等,9010001120399,令和５年１月１日東京都千代田区大手町一丁目６番１号協和発酵バイオ株式会社（9010001120399）に合併し解散,2015-10-05,1,,,,,キョウワエンジニアリング,0
1447,4290001019610,登記記録の閉鎖等,0,2023-01-18,2023-01-18,株式会社富商,,株式会社,福岡県,福岡市早良区,内野３丁目１０番２号,,40,137,8111123,,,2023-01-18,登記官による閉鎖,,,2015-10-05,1,,,,,,0
1448,4290001021649,登記記録の閉鎖等,0,2023-01-18,2023-01-18,株式会社ディックセキュリティーシステムズ,,株式会社,福岡県,福岡市中央区,天神３丁目９番３５号Ｎパーキング天神ビル５階,,40,133,8100001,,,2023-01-18,登記官による閉鎖,,,2015-10-05,1,,,,,,0
1449,4290001042711,登記記録の閉鎖等,0,2023-01-18,2023-01-18,株式会社ドレトドレオ,,株式会社,福岡県,筑紫野市,紫１丁目１５番１－４０６号,,40,217,8180061,,,2023-01-18,登記官による閉鎖,,,2015-10-05,1,,,,,,0
1450,4290001043288,登記記録の閉鎖等,0,2023-01-18,2023-01-18,株式会社諭吉ファミリー,,株式会社,福岡県,福岡市中央区,赤坂１丁目５番２２－４Ｄ,,40,133,8100042,,,2023-01-18,登記官による閉鎖,,,2015-10-05,1,,,,,,0
1452,4290001047149,登記記録の閉鎖等,0,2023-01-18,2023-01-18,大藤酒類販売株式会社,,株式会社,福岡県,八女市,黒木町本分４９７番地の２,,40,210,8341213,,,2023-01-18,登記官による閉鎖,,,2015-10-05,1,,,,,,0
1453,4290001048122,登記記録の閉鎖等,0,2023-01-18,2023-01-18,株式会社新商,,株式会社,福岡県,糟屋郡志免町,別府４丁目１番２号,,40,343,8112205,,,2023-01-18,登記官による閉鎖,,,2015-10-05,1,,,,,,0
1454,4290001052173,登記記録の閉鎖等,0,2023-01-18,2023-01-18,株式会社オフィル,,株式会社,福岡県,福岡市早良区,次郎丸３丁目５番６号,,40,137,8140165,,,2023-01-18,登記官による閉鎖,,,2015-10-05,1,,,,,,0
1455,4290001054351,登記記録の閉鎖等,0,2023-01-18,2023-01-18,株式会社マツモト,,株式会社,福岡県,大牟田市,大字田隈１０８番地６,,40,202,8370916,,,2023-01-18,登記官による閉鎖,,,2015-10-05,1,,,,,,0
1456,4290001056570,登記記録の閉鎖等,0,2023-01-18,2023-01-18,株式会社フォープラント,,株式会社,福岡県,福岡市東区,松田３丁目２０番１０号,,40,131,8120064,,,2023-01-18,登記官による閉鎖,,,2015-10-05,1,,,,,,0
1458,4290002006302,登記記録の閉鎖等,0,2023-01-18,2023-01-18,有限会社ワールドパブリック,,有限会社,福岡県,福岡市東区,西戸崎５丁目１５番１２号,,40,131,8110321,,,2023-01-18,登記官による閉鎖,,,2015-10-05,1,,,,,,0
1459,4290002008554,登記記録の閉鎖等,0,2023-01-18,2023-01-18,有限会社中嶋商会,,有限会社,福岡県,福岡市早良区,田村３丁目３３番８号,,40,137,8140175,,,2023-01-18,登記官による閉鎖,,,2015-10-05,1,,,,,,0
1460,4290002008661,登記記録の閉鎖等,0,2023-01-18,2023-01-18,有限会社登組,,有限会社,福岡県,福岡市早良区,原８丁目１６番４号,,40,137,8140022,,,2023-01-18,登記官による閉鎖,,,2015-10-05,1,,,,,,0
1461,4290002010287,登記記録の閉鎖等,0,2023-01-18,2023-01-18,有限会社カワノ,,有限会社,福岡県,福岡市中央区,舞鶴３丁目８番７号クレインビル２０１号,,40,133,8100073,,,2023-01-18,登記官による閉鎖,,,2015-10-05,1,,,,,,0
1462,4290002020807,登記記録の閉鎖等,0,2023-01-18,2023-01-18,有限会社江口工業,,有限会社,福岡県,那珂川市,片縄３丁目９３番地,,40,231,8111201,,,2023-01-18,登記官による閉鎖,,,2015-10-05,1,,,,,,0
1465,4290002035053,登記記録の閉鎖等,0,2023-01-18,2023-01-18,有限会社大孝建設,,有限会社,福岡県,宗像市,吉留１７７８番地７,,40,220,8114153,,,2023-01-18,登記官による閉鎖,,,2015-10-05,1,,,,,,0
1466,4290002044285,登記記録の閉鎖等,0,2023-01-18,2023-01-18,有限会社申城商会,,有限会社,福岡県,飯塚市,潤野１２９６番地の３８,,40,205,8200021,,,2023-01-18,登記官による閉鎖,,,2015-10-05,1,,,,,,0
1467,4290002049251,登記記録の閉鎖等,0,2023-01-18,2023-01-18,有限会社寿し勝,,有限会社,福岡県,久留米市,北野町大城８０番地７,,40,203,8301104,,,2023-01-18,登記官による閉鎖,,,2015-10-05,1,,,,,,0
1468,4290002051083,登記記録の閉鎖等,0,2023-01-18,2023-01-18,有限会社サン・イースト,,有限会社,福岡県,久留米市,国分町１４６６番地５,,40,203,8390863,,,2023-01-18,登記官による閉鎖,,,2015-10-05,1,,,,,,0
1469,4290003003562,登記記録の閉鎖等,0,2023-01-18,2023-01-18,Ｆｏｒ　Ｇｒｏｏｖｅ合同会社,,合同会社,福岡県,福岡市中央区,渡辺通５丁目２５番１５号地産ビル天神３０６号,,40,133,8100004,,,2023-01-18,登記官による閉鎖,,,2015-10-05,1,,,,,,0
1470,4290003003587,登記記録の閉鎖等,0,2023-01-18,2023-01-18,カンボジア開発合同会社,,合同会社,福岡県,福岡市博多区,博多駅東１丁目１１番５号アサコ博多ビル８階,,40,132,8120013,,,2023-01-18,登記官による閉鎖,,,2015-10-05,1,,,,,,0
1471,4290005001085,登記記録の閉鎖等,0,2023-01-18,2023-01-18,社団法人福岡県ダンプカー協会,,その他の設立登記法人,福岡県,福岡市東区,千早３丁目１０番４０号,,40,131,8130044,,,2023-01-18,登記官による閉鎖,,,2015-10-05,1,,,,,,0
1472,4290005002307,登記記録の閉鎖等,0,2023-01-18,2023-01-18,福岡中央共済協同組合,,その他の設立登記法人,福岡県,福岡市博多区,吉塚本町９番１５号福岡県中小企業団体中央会内,,40,132,8120046,,,2023-01-18,登記官による閉鎖,,,2015-10-05,1,,,,,,0
1473,4290005003214,登記記録の閉鎖等,0,2023-01-18,2023-01-18,企業組合ルシード・アドバンス,,その他の設立登記法人,福岡県,福岡市中央区,天神４丁目５番１０号,,40,133,8100001,,,2023-01-18,登記官による閉鎖,,,2015-10-05,1,,,,,,0
1474,4290005004022,登記記録の閉鎖等,0,2023-01-18,2023-01-18,特定非営利活動法人自然環境保護市民の会,,その他の設立登記法人,福岡県,福岡市早良区,田隈１丁目２８番２３号,,40,137,8140174,,,2023-01-18,登記官による閉鎖,,,2015-10-05,1,,,,,,0
1475,4290005006010,登記記録の閉鎖等,0,2023-01-18,2023-01-18,企業組合おおやま,,その他の設立登記法人,福岡県,古賀市,筵内３３０番地２,,40,223,8113121,,,2023-01-18,登記官による閉鎖,,,2015-10-05,1,,,,,,0
1476,4290801000430,登記記録の閉鎖等,0,2023-01-18,2023-01-18,株式会社エアロスペース,,株式会社,福岡県,北九州市小倉北区,京町３丁目１４番１１号,,40,106,8020002,,,2023-01-18,登記官による閉鎖,,,2015-10-05,1,,,,,,0
1477,4290801001387,登記記録の閉鎖等,0,2023-01-18,2023-01-18,互信商事株式会社,,株式会社,福岡県,北九州市戸畑区,中原新町２番１号北九州テクノセンタービル１１０７号,,40,105,8040003,,,2023-01-18,登記官による閉鎖,,,2015-10-05,1,,,,,,0
1478,4290801003581,登記記録の閉鎖等,0,2023-01-18,2023-01-18,株式会社丸本建設,,株式会社,福岡県,北九州市小倉南区,志井１丁目３番１８号,,40,107,8020985,,,2023-01-18,登記官による閉鎖,,,2017-04-24,1,,,,,,0
1479,4290801006428,登記記録の閉鎖等,0,2023-01-18,2023-01-18,西部技建株式会社,,株式会社,福岡県,北九州市小倉北区,京町３丁目１０番１号,,40,106,8020002,,,2023-01-18,登記官による閉鎖,,,2017-02-15,1,,,,,,0
1484,4290802005073,登記記録の閉鎖等,0,2023-01-18,2023-01-18,有限会社花のゴーヤ,,有限会社,福岡県,北九州市小倉北区,堺町１丁目５番１２号,,40,106,8020005,,,2023-01-18,登記官による閉鎖,,,2015-10-05,1,,,,,,0
1485,4290802005255,登記記録の閉鎖等,0,2023-01-18,2023-01-18,有限会社樋口鮮魚店,00094391,有限会社,福岡県,北九州市小倉北区,新高田２丁目２番７号,,40,106,8030852,,,2023-01-18,登記官による閉鎖,,,2015-10-05,1,,,,,,0
1486,4290802005404,登記記録の閉鎖等,0,2023-01-18,2023-01-18,有限会社平塚建設,,有限会社,福岡県,北九州市小倉南区,湯川新町４丁目１８番３号,,40,107,8000256,,,2023-01-18,登記官による閉鎖,,,2015-10-05,1,,,,,,0
1487,4290802009405,登記記録の閉鎖等,0,2023-01-18,2023-01-18,西京モータース有限会社,,有限会社,福岡県,北九州市門司区,丸山吉野町３番４号,,40,101,8010824,,,2023-01-18,登記官による閉鎖,,,2015-10-05,1,,,,,,0
1488,4290802009660,登記記録の閉鎖等,0,2023-01-18,2023-01-18,有限会社東亜クレーン工業,,有限会社,福岡県,北九州市門司区,小森江３丁目２番２０号,,40,101,8000007,,,2023-01-18,登記官による閉鎖,,,2015-10-05,1,,,,,,0
1489,4290802020568,登記記録の閉鎖等,0,2023-01-18,2023-01-18,有限会社藤鉱機製作所,,有限会社,福岡県,直方市,知古２丁目８番４号,,40,204,8220022,,,2023-01-18,登記官による閉鎖,,,2015-10-05,1,,,,,,0
1490,4290802023752,登記記録の閉鎖等,0,2023-01-18,2023-01-18,有限会社ユニオン,,有限会社,福岡県,行橋市,大字天生田５８６－１,,40,213,8240044,,,2023-01-18,登記官による閉鎖,,,2015-10-05,1,,,,,,0
1491,4290803001591,登記記録の閉鎖等,0,2023-01-18,2023-01-18,合同会社リーリーズ,,合同会社,福岡県,行橋市,大橋３丁目１番３９号,,40,213,8240003,,,2023-01-18,登記官による閉鎖,,,2015-10-05,1,,,,,,0
1492,4290805000773,登記記録の閉鎖等,0,2023-01-18,2023-01-18,協同組合北九州南建設協会,,その他の設立登記法人,福岡県,北九州市小倉南区,横代北町３丁目１６番２５号,,40,107,8020821,,,2023-01-18,登記官による閉鎖,,,2015-10-05,1,,,,,,0
1493,4290805003966,登記記録の閉鎖等,0,2023-01-18,2023-01-18,福岡カイロプラクティック協同組合,,その他の設立登記法人,福岡県,北九州市八幡西区,町上津役西１丁目４番１号,,40,109,8070074,,,2023-01-18,登記官による閉鎖,,,2015-10-05,1,,,,,,0
1494,4300001007217,登記記録の閉鎖等,0,2023-01-18,2023-01-16,唐津水協商事株式会社,,株式会社,佐賀県,唐津市,海岸通７１８２番２７８,,41,202,8470873,,,2023-01-16,清算の結了等,,,2015-10-05,1,,,,,カラツスイキョウショウジ,0
1495,4310001004139,登記記録の閉鎖等,0,2023-01-18,2023-01-17,株式会社オーツーコーポレーション,,株式会社,長崎県,長崎市,古賀町６６１番地２,,42,201,8510101,,,2023-01-17,清算の結了等,,,2015-10-05,1,,,,,オーツーコーポレーション,0
1496,4320001006662,登記記録の閉鎖等,0,2023-01-18,2023-01-18,ルミエールゴルフガーデン株式会社,,株式会社,大分県,別府市,大字鶴見１６６５番地の１７１,,44,202,8740840,,,2023-01-18,登記官による閉鎖,,,2015-10-05,1,,,,,,0
1498,4320002001448,登記記録の閉鎖等,0,2023-01-18,2023-01-18,有限会社オーケイ企画,,有限会社,大分県,大分市,久原南１丁目７番３５号,,44,201,8700326,,,2023-01-18,登記官による閉鎖,,,2015-10-05,1,,,,,,0
1499,4320002004772,登記記録の閉鎖等,0,2023-01-18,2023-01-18,有限会社東部設計,,有限会社,大分県,大分市,萩原３丁目４番３４号,,44,201,8700921,,,2023-01-18,登記官による閉鎖,,,2015-10-05,1,,,,,,0
1500,4320002005069,登記記録の閉鎖等,0,2023-01-18,2023-01-18,有限会社なべや管工,,有限会社,大分県,大分市,乙津港町１丁目１０番６１号,,44,201,8700146,,,2023-01-18,登記官による閉鎖,,,2015-10-05,1,,,,,,0
1501,4320002005234,登記記録の閉鎖等,0,2023-01-18,2023-01-18,有限会社荷宮宝飾店,,有限会社,大分県,大分市,富士見が丘東２丁目２４番８号,,44,201,8701176,,,2023-01-18,登記官による閉鎖,,,2015-10-05,1,,,,,,0
1502,4320002007313,登記記録の閉鎖等,0,2023-01-18,2023-01-18,有限会社和風レストランうえだ,,有限会社,大分県,由布市,挾間町向原２０１番地の１,,44,213,8795502,,,2023-01-18,登記官による閉鎖,,,2015-10-05,1,,,,,,0
1503,4320002009400,登記記録の閉鎖等,0,2023-01-18,2023-01-18,有限会社クイック．創建,,有限会社,大分県,大分市,乙津港町１丁目１０番６０号,,44,201,8700146,,,2023-01-18,登記官による閉鎖,,,2015-10-05,1,,,,,,0
1505,4320005002096,登記記録の閉鎖等,0,2023-01-18,2023-01-18,特定非営利活動法人ふじが丘パソコンスクール,,その他の設立登記法人,大分県,大分市,大字寒田字八丸２３５番地の３３,,44,201,8701123,,,2023-01-18,登記官による閉鎖,,,2015-10-05,1,,,,,,0
1506,4320005007764,登記記録の閉鎖等,0,2023-01-18,2023-01-18,農事組合法人鍋島生産組合,,その他の設立登記法人,大分県,中津市,大字鍋島４４１番地,,44,203,8790102,,,2023-01-18,登記官による閉鎖,,,2015-10-05,1,,,,,,0
1507,4320005008077,登記記録の閉鎖等,0,2023-01-18,2023-01-18,特定非営利活動法人ゆかいななかま,,その他の設立登記法人,大分県,中津市,中殿町４丁目６番地の１０,,44,203,8710030,,,2023-01-18,登記官による閉鎖,,,2015-10-05,1,,,,,,0
1511,4330002007790,登記記録の閉鎖等,0,2023-01-18,2023-01-16,有限会社西川店創,,有限会社,熊本県,熊本市北区,四方寄町南原１６７６番地,,43,105,8615515,,,2023-01-16,清算の結了等,,,2015-10-05,1,,,,,ニシカワテンソウ,0
1529,4370402002041,登記記録の閉鎖等,0,2023-01-18,2023-01-11,有限会社迫観光,,有限会社,宮城県,登米市,迫町新田字上立戸３２番地の１,,04,212,9894601,,,2023-01-11,清算の結了等,,,2015-10-05,1,,,,,ハサマカンコウ,0
1535,4410002001496,登記記録の閉鎖等,0,2023-01-18,2023-01-18,有限会社光和ビルメンテナンス,,有限会社,秋田県,秋田市,新屋寿町１番２７号,,05,201,0101606,,,2023-01-18,登記官による閉鎖,,,2015-10-05,1,,,,,,0
1536,4410002007023,登記記録の閉鎖等,0,2023-01-18,2023-01-18,有限会社羽後研磨工業,,有限会社,秋田県,由利本荘市,岩城二古字狐森１番地,,05,210,0181305,,,2023-01-18,登記官による閉鎖,,,2015-10-05,1,,,,,,0
1537,4410002007790,登記記録の閉鎖等,0,2023-01-18,2023-01-18,有限会社プラックァミィンヌ,,有限会社,秋田県,湯沢市,清水町４丁目１番５４号,,05,207,0120033,,,2023-01-18,登記官による閉鎖,,,2015-10-05,1,,,,,,0
1538,4410002010183,登記記録の閉鎖等,0,2023-01-18,2023-01-18,有限会社加藤建築工業,,有限会社,秋田県,能代市,畠町１２番４号,,05,202,0160821,,,2023-01-18,登記官による閉鎖,,,2015-10-05,1,,,,,,0
1539,4410002013070,登記記録の閉鎖等,0,2023-01-18,2023-01-18,有限会社姉妹ソーイング,,有限会社,秋田県,横手市,金沢中野字上矢来沢２２０番地の１,,05,203,0130814,,,2023-01-18,登記官による閉鎖,,,2015-10-05,1,,,,,,0
1540,4410005001709,登記記録の閉鎖等,0,2023-01-18,2023-01-18,企業組合男鹿半島振興会,,その他の設立登記法人,秋田県,男鹿市,脇本脇本字下中野４,,05,206,0100342,,,2023-01-18,登記官による閉鎖,,,2015-10-05,1,,,,,,0
1541,4410005002392,登記記録の閉鎖等,0,2023-01-18,2023-01-18,湯沢地区製材協同組合,,その他の設立登記法人,秋田県,湯沢市,材木町２丁目１３９番４,,05,207,0120845,,,2023-01-18,登記官による閉鎖,,,2015-10-05,1,,,,,,0
1547,4430002062636,登記記録の閉鎖等,0,2023-01-18,2023-01-16,有限会社ハッピーボーイ,,有限会社,北海道,日高郡新ひだか町,静内木場町２丁目７番１９号,,01,610,0560025,,,2023-01-16,清算の結了等,,,2015-10-05,1,,,,,ハッピーボーイ,0
1551,4460301002892,登記記録の閉鎖等,0,2023-01-18,2023-01-18,株式会社ハピネス,,株式会社,北海道,北見市,美芳町３丁目２番１１号,,01,208,0900064,,,2023-01-18,登記官による閉鎖,,,2015-10-05,1,,,,,,0
1552,4460302004252,登記記録の閉鎖等,0,2023-01-18,2023-01-18,有限会社かねタ佐藤水産,,有限会社,北海道,網走市,潮見１０丁目１０番１５号,,01,211,0930042,,,2023-01-18,登記官による閉鎖,,,2015-10-05,1,,,,,,0
1553,4460305000075,登記記録の閉鎖等,0,2023-01-18,2023-01-18,北海道運転代行事業協同組合,,その他の設立登記法人,北海道,北見市,北六条西４丁目５番地の１,,01,208,0900046,,,2023-01-18,登記官による閉鎖,,,2015-10-05,1,,,,,,0
1556,4490001001283,登記記録の閉鎖等,0,2023-01-18,2023-01-18,株式会社新工,,株式会社,高知県,高知市,大津乙１０３３番地３,,39,201,7815103,,,2023-01-18,登記官による閉鎖,,,2015-10-05,1,,,,,,0
1558,4490002006240,登記記録の閉鎖等,0,2023-01-18,2023-01-18,ひのき建築有限会社,,有限会社,高知県,高知市,神田２１３８番地１０,,39,201,7808040,,,2023-01-18,登記官による閉鎖,,,2015-10-05,1,,,,,,0
1559,4490002007486,登記記録の閉鎖等,0,2023-01-18,2023-01-18,有限会社ナイトサン企画,,有限会社,高知県,高知市,与力町１番６号ハイネス南国,,39,201,7800863,,,2023-01-18,登記官による閉鎖,,,2015-10-05,1,,,,,,0
1560,4490002010655,登記記録の閉鎖等,0,2023-01-18,2023-01-18,有限会社八幡組,,有限会社,高知県,須崎市,浦ノ内灰方６番地の６,,39,206,7850167,,,2023-01-18,登記官による閉鎖,,,2015-10-05,1,,,,,,0
1561,4490002013377,登記記録の閉鎖等,0,2023-01-18,2023-01-18,有限会社梅原建材店,,有限会社,高知県,高知市,宝町３０番１９号,,39,201,7800914,,,2023-01-18,登記官による閉鎖,,,2016-03-24,1,,,,,,0
1562,4490005000018,登記記録の閉鎖等,0,2023-01-18,2023-01-18,土佐物産開発協同組合,,その他の設立登記法人,高知県,高知市,弘化台２０番２８号,,39,201,7800811,,,2023-01-18,登記官による閉鎖,,,2015-10-05,1,,,,,,0
1563,4490005005405,登記記録の閉鎖等,0,2023-01-18,2023-01-18,魚梁瀬官材協同組合,,その他の設立登記法人,高知県,安芸郡馬路村,大字魚梁瀬１０番地４２号,,39,306,7816202,,,2023-01-18,登記官による閉鎖,,,2015-10-05,1,,,,,,0
1564,4500001023524,登記記録の閉鎖等,0,2023-01-18,2023-01-17,ＷＯＲＬＤ　ＬＩＮＫ株式会社,,株式会社,愛媛県,松山市,志津川町１０３番地,,38,201,7918003,,,2023-01-17,清算の結了等,,,2021-06-29,1,,,,,ワールドリンク,0
1568,5010001052539,登記記録の閉鎖等,0,2023-01-18,2023-01-10,株式会社トライアード,,株式会社,東京都,中央区,日本橋蛎殻町２丁目６番１号,,13,102,1030014,,,2023-01-10,清算の結了等,,,2015-10-05,1,,,,,,0
1570,5010001067438,登記記録の閉鎖等,0,2023-01-18,2023-01-10,株式会社スペースメディアジャパン,,株式会社,東京都,中央区,日本橋３丁目１０番５号,,13,102,1030027,,,2023-01-10,清算の結了等,,,2015-10-05,1,,,,,スペースメディアジャパン,0
1574,5010001142793,登記記録の閉鎖等,0,2023-01-18,2023-01-13,株式会社チケットＣＤ,,株式会社,東京都,新宿区,西新宿３丁目６番１１号,,13,104,1600023,,,2023-01-13,合併による解散等,6180001073245,令和５年１月１日名古屋市中区丸の内二丁目２０番２５号株式会社ＣＤプランニング（6180001073245）に合併し解散,2015-10-05,1,,,,,チケットシーディー,0
1581,5010001213652,登記記録の閉鎖等,0,2023-01-18,2023-01-10,康邇優株式会社,,株式会社,東京都,千代田区,東神田２丁目６番７号６０８,,13,101,1010031,,,2023-01-10,清算の結了等,,,2020-11-19,1,,,,,コウジユウ,0
1582,5010001227578,登記記録の閉鎖等,0,2023-01-18,2023-01-05,株式会社ＣＰ１,,株式会社,東京都,千代田区,丸の内３丁目１番１号東京共同会計事務所内,,13,101,1000005,,,2023-01-05,合併による解散等,6010001226521,令和５年１月１日東京都千代田区丸の内三丁目１番１号東京共同会計事務所内株式会社ＣＨ（6010001226521）に合併し解散,2022-06-23,1,,,,,シーピーワン,0
1587,5010003034295,登記記録の閉鎖等,0,2023-01-18,2023-01-10,合同会社オルタナ２,,合同会社,東京都,千代田区,丸の内３丁目１番１号東京共同会計事務所内,,13,101,1000005,,,2023-01-10,清算の結了等,,,2021-03-04,1,,,,,オルタナツー,0
1591,5010101006717,登記記録の閉鎖等,0,2023-01-18,2023-01-13,株式会社システム技術研究所,,株式会社,東京都,八王子市,南大沢５丁目４番地南大沢レジデンス７０１号,,13,201,1920364,,,2023-01-13,清算の結了等,,,2015-10-05,1,,,,,,0
1592,5010401010154,登記記録の閉鎖等,0,2023-01-18,2023-01-13,株式会社コスモ・コミュニケーションズ,,株式会社,東京都,港区,北青山２丁目５番８号,,13,103,1070061,,,2023-01-13,合併による解散等,2010401076438,令和５年１月１日東京都中央区銀座五丁目９番８号株式会社博報堂Ｇｒａｖｉｔｙ（2010401076438）に合併し解散,2015-10-05,1,,,,,コスモコミュニケーションズ,0
1593,5010401124061,登記記録の閉鎖等,0,2023-01-18,2023-01-12,カラー＆エフェクトジャパン株式会社,,株式会社,東京都,中央区,日本橋３丁目７番２０号,,13,102,1030027,,,2023-01-12,合併による解散等,7011401003807,令和５年１月１日東京都板橋区坂下三丁目３５番５８号ＤＩＣ株式会社（7011401003807）に合併し解散,2016-04-07,1,,,,,カラーアンドエフェクトジャパン,0
1606,5010501011168,登記記録の閉鎖等,0,2023-01-18,2023-01-16,株式会社平田袋物工芸,,株式会社,東京都,台東区,蔵前３丁目１９番６号,,13,106,1110051,,,2023-01-16,清算の結了等,,,2015-10-05,1,,,,,ヒラタフクロモノコウゲイ,0
1616,5011001144722,登記記録の閉鎖等,0,2023-01-18,2023-01-10,Ｓｅｅｂｅｌ株式会社,,株式会社,東京都,千代田区,神田錦町２丁目２番地１,,13,101,1010054,,,2023-01-10,清算の結了等,,,2021-12-27,1,,,,,シーベル,0
1630,5011401001465,登記記録の閉鎖等,0,2023-01-18,2023-01-18,株式会社ケイティーシー,,株式会社,静岡県,伊豆市,冷川大幡野１５２４番地１３８７,,22,222,4102507,,,2023-01-18,登記官による閉鎖,,,2015-10-05,1,,,,,,0
1632,5011401013502,登記記録の閉鎖等,0,2023-01-18,2023-01-13,東洋インキグラフィックス株式会社,,株式会社,東京都,板橋区,加賀１丁目２２番１号,,13,119,1730003,,,2023-01-13,合併による解散等,9010001139175,令和５年１月１日東京都中央区京橋二丁目２番１号東洋インキ株式会社（9010001139175）に合併し解散,2015-10-05,1,,,,,,0
1636,5011601024976,登記記録の閉鎖等,0,2023-01-18,2023-01-04,株式会社アドウィル,,株式会社,東京都,練馬区,富士見台３丁目２５－１８,,13,120,1770034,,,2023-01-04,清算の結了等,,,2021-04-01,1,,,,,アドウィル,0
1638,5012401003732,登記記録の閉鎖等,0,2023-01-18,2023-01-17,株式会社サンユー,,株式会社,東京都,国立市,東３丁目１２番地の３,,13,215,1860002,,,2023-01-17,登記官による閉鎖,,,2015-10-05,1,,,,,,0
1640,5012701007417,登記記録の閉鎖等,0,2023-01-18,2023-01-18,株式会社オンワードモータース,,株式会社,東京都,西東京市,田無町７丁目１９番１８号,,13,229,1880011,,,2023-01-18,登記官による閉鎖,,,2016-03-08,1,,,,,,0
1642,5012702000024,登記記録の閉鎖等,0,2023-01-18,2023-01-18,有限会社北海道ラーメン,,有限会社,東京都,西東京市,柳沢１丁目１０番３号,,13,229,2020022,,,2023-01-18,登記官による閉鎖,,,2015-10-05,1,,,,,,0
1643,5012702012928,登記記録の閉鎖等,0,2023-01-18,2023-01-18,有限会社中央建設,,有限会社,東京都,西東京市,東伏見４丁目６番１５号,,13,229,2020021,,,2023-01-18,登記官による閉鎖,,,2015-10-05,1,,,,,,0
1644,5012801001971,登記記録の閉鎖等,0,2023-01-18,2023-01-17,株式会社小川工務店,,株式会社,東京都,昭島市,玉川町４丁目３番１０号,,13,207,1960034,,,2023-01-17,登記官による閉鎖,,,2015-10-05,1,,,,,,0
1646,5012802000064,登記記録の閉鎖等,0,2023-01-18,2023-01-17,有限会社明石コーポレーション,,有限会社,東京都,立川市,錦町２丁目１番２２号,,13,202,1900022,,,2023-01-17,登記官による閉鎖,,,2015-10-05,1,,,,,,0
1647,5012802010377,登記記録の閉鎖等,0,2023-01-18,2023-01-17,有限会社アウル,,有限会社,東京都,立川市,錦町５丁目１３番２６号,,13,202,1900022,,,2023-01-17,登記官による閉鎖,,,2015-10-05,1,,,,,,0
1652,5013401000018,登記記録の閉鎖等,0,2023-01-18,2023-01-17,アーバンソフト株式会社,,株式会社,東京都,日野市,日野台１丁目５番地の２８,,13,212,1910003,,,2023-01-17,登記官による閉鎖,,,2015-10-05,1,,,,,,0
1653,5013402000818,登記記録の閉鎖等,0,2023-01-18,2023-01-17,有限会社創建築事務所,,有限会社,東京都,日野市,百草１２４３番地の９,,13,212,1910033,,,2023-01-17,登記官による閉鎖,,,2015-10-05,1,,,,,,0
1673,5030001093696,登記記録の閉鎖等,0,2023-01-18,2023-01-11,株式会社トーア産商,,株式会社,埼玉県,川口市,西川口６丁目２番７号,,11,203,3320021,,,2023-01-11,清算の結了等,,,2015-10-05,1,,,,,トーアサンショウ,0
1679,5030002118642,登記記録の閉鎖等,0,2023-01-18,2023-01-13,有限会社とりえ,,有限会社,埼玉県,大里郡寄居町,大字鉢形６７４番地の２,,11,408,3691224,,,2023-01-13,清算の結了等,,,2015-10-05,1,,,,,トリエ,0
1690,5040003007455,登記記録の閉鎖等,0,2023-01-18,2023-01-13,合同会社ＣＥＳＴＡＴＥ,,合同会社,東京都,渋谷区,恵比寿１丁目１５番９－４０３号,,13,113,1500013,,,2023-01-13,合併による解散等,9012301010602,令和４年１１月３０日東京都港区南青山二丁目２番１５号ウィン青山９４２号室Ｎｉｇｈｔ＆Ｄａｙｓ株式会社（9012301010602）に合併し解散,2015-10-05,1,,,,,シーエステート,0
1704,5080001004806,登記記録の閉鎖等,0,2023-01-18,2023-01-18,牧増電化株式会社,,株式会社,静岡県,静岡市葵区,紺屋町３番地の１,,22,101,4200852,,,2023-01-18,登記官による閉鎖,,,2015-10-05,1,,,,,,0
1706,5080001018533,登記記録の閉鎖等,0,2023-01-18,2023-01-18,株式会社建塗,,株式会社,静岡県,静岡市駿河区,用宗小石町８番２３号,,22,102,4210125,,,2023-01-18,登記官による閉鎖,,,2015-10-05,1,,,,,,0
1709,5080002016073,登記記録の閉鎖等,0,2023-01-18,2023-01-18,有限会社鳶生増田組,,有限会社,静岡県,焼津市,東小川７丁目１２番地の５,,22,212,4250035,,,2023-01-18,登記官による閉鎖,,,2015-10-05,1,,,,,,0
1710,5080101004813,登記記録の閉鎖等,0,2023-01-18,2023-01-18,株式会社千勝閣,,株式会社,静岡県,伊豆市,湯ケ島１５８２番地,,22,222,4103206,,,2023-01-18,登記官による閉鎖,,,2015-10-05,1,,,,,センショウカク,0
1711,5080101022534,登記記録の閉鎖等,0,2023-01-18,2023-01-18,勝呂建設株式会社,,株式会社,静岡県,三島市,谷田１１７１番地の１２２,,22,206,4110801,,,2023-01-18,登記官による閉鎖,,,2021-05-31,1,,,,,スグロケンセツ,0
1712,5080102006668,登記記録の閉鎖等,0,2023-01-18,2023-01-18,有限会社岩商技術,,有限会社,静岡県,御殿場市,深沢５７０番地８,,22,215,4120023,,,2023-01-18,登記官による閉鎖,,,2015-10-05,1,,,,,,0
1713,5080102010257,登記記録の閉鎖等,0,2023-01-18,2023-01-18,有限会社栄コーポレーション,,有限会社,静岡県,三島市,安久３０７番地の８,,22,206,4110815,,,2023-01-18,登記官による閉鎖,,,2015-10-05,1,,,,,,0
1714,5080102011024,登記記録の閉鎖等,0,2023-01-18,2023-01-18,有限会社東静大塚工務店,,有限会社,静岡県,田方郡函南町,畑３２８番地の１,,22,325,4190104,,,2023-01-18,登記官による閉鎖,,,2015-10-05,1,,,,,トウセイオオツカコウムテン,0
1715,5080102019109,登記記録の閉鎖等,0,2023-01-18,2023-01-18,有限会社佐藤電機工業,,有限会社,静岡県,伊東市,川奈１１８３番地の５４,,22,208,4140044,,,2023-01-18,登記官による閉鎖,,,2015-10-05,1,,,,,,0
1716,5080102019166,登記記録の閉鎖等,0,2023-01-18,2023-01-18,有限会社アオキ住宅産業,,有限会社,静岡県,伊東市,湯川１丁目８番５号,,22,208,4140002,,,2023-01-18,登記官による閉鎖,,,2015-10-05,1,,,,,,0
1717,5080102020058,登記記録の閉鎖等,0,2023-01-18,2023-01-18,有限会社大洋丸,,有限会社,静岡県,伊東市,宇佐美２３０番地,,22,208,4140001,,,2023-01-18,登記官による閉鎖,,,2015-10-05,1,,,,,,0
1718,5080103001148,登記記録の閉鎖等,0,2023-01-18,2023-01-18,ＳＮＰ‐ＪＡＰＡＮ合同会社,,合同会社,静岡県,富士宮市,下条３３９番地,,22,207,4180114,,,2023-01-18,登記官による閉鎖,,,2015-10-05,1,,,,,,0
1719,5080401014479,登記記録の閉鎖等,0,2023-01-18,2023-01-18,株式会社マルカケ,,株式会社,静岡県,掛川市,成滝４８０番地の１,,22,213,4360085,,,2023-01-18,登記官による閉鎖,,,2015-10-05,1,,,,,,0
1720,5080401018455,登記記録の閉鎖等,0,2023-01-18,2023-01-18,株式会社エムアールコーポレーション,,株式会社,静岡県,浜松市東区,上新屋町３５番地の３,,22,132,4350053,,,2023-01-18,登記官による閉鎖,,,2015-10-05,1,,,,,,0
1725,5100001005611,登記記録の閉鎖等,0,2023-01-18,2023-01-13,株式会社總合企画アドバンス,00069179,株式会社,長野県,須坂市,大字須坂１１５７番地,,20,207,3820000,,,2023-01-13,清算の結了等,,,2015-10-05,1,,,,,ソウゴウキカクアドバンス,0
1727,5100002033306,登記記録の閉鎖等,0,2023-01-18,2023-01-16,丸繁木材有限会社,,有限会社,長野県,伊那市,高遠町長藤６４４８番地,,20,209,3960305,,,2023-01-16,清算の結了等,,,2015-10-05,1,,,,,,0
1737,5120001186037,登記記録の閉鎖等,0,2023-01-18,2023-01-13,株式会社ＭＳＱ,,株式会社,大阪府,大阪市中央区,南船場４丁目１１－１７船場ＭＫビル７Ｆ,,27,128,5420081,,,2023-01-13,清算の結了等,,,2015-10-05,1,,,,,エムエスキュー,0
1754,5120901009271,登記記録の閉鎖等,0,2023-01-18,2023-01-17,近畿興運株式会社,,株式会社,大阪府,摂津市,東別府３丁目３番６号,,27,224,5660042,,,2023-01-17,清算の結了等,,,2015-10-05,1,,,,,,0
1756,5120903001689,登記記録の閉鎖等,0,2023-01-18,2023-01-16,合同会社リーダーシップセンター,,合同会社,大阪府,吹田市,青山台３丁目４５番９号,,27,205,5650875,,,2023-01-16,清算の結了等,,,2015-10-05,1,,,,,リーダーシップセンター,0
1772,5180001003938,登記記録の閉鎖等,0,2023-01-18,2023-01-17,株式会社光和,,株式会社,愛知県,名古屋市千種区,今池５丁目１２番１号,,23,101,4640850,,,2023-01-17,登記官による閉鎖,,,2015-10-05,1,,,,,,0
1773,5180001006932,登記記録の閉鎖等,0,2023-01-18,2023-01-17,東海電子システム株式会社,,株式会社,愛知県,名古屋市熱田区,白鳥２丁目３番２号,,23,109,4560035,,,2023-01-17,登記官による閉鎖,,,2015-10-05,1,,,,,,0
1774,5180001035592,登記記録の閉鎖等,0,2023-01-18,2023-01-17,株式会社クラブ・ザ・スター,,株式会社,愛知県,清須市,東須ケ口１１５番地,,23,233,4520904,,,2023-01-17,登記官による閉鎖,,,2015-10-05,1,,,,,,0
1775,5180001041013,登記記録の閉鎖等,0,2023-01-18,2023-01-17,株式会社マルブツガード,,株式会社,愛知県,名古屋市中区,大須２丁目１１番２２号,,23,106,4600011,,,2023-01-17,登記官による閉鎖,,,2015-10-05,1,,,,,,0
1777,5180001045609,登記記録の閉鎖等,0,2023-01-18,2023-01-17,三和精工株式会社,,株式会社,愛知県,清須市,西枇杷島町芳野１丁目５０番地,,23,233,4520065,,,2023-01-17,登記官による閉鎖,,,2015-10-05,1,,,,,,0
1779,5180001059377,登記記録の閉鎖等,0,2023-01-18,2023-01-17,株式会社セイント,,株式会社,愛知県,名古屋市中区,栄１丁目２３番２９号,,23,106,4600008,,,2023-01-17,登記官による閉鎖,,,2015-10-05,1,,,,,,0
1780,5180001063940,登記記録の閉鎖等,0,2023-01-18,2023-01-17,株式会社ＨＵＳＳＡＩＮ　ＴＲＡＤＩＮＧ,,株式会社,愛知県,海部郡飛島村,大字梅之郷字北梅９７番地の６,,23,427,4901435,,,2023-01-17,登記官による閉鎖,,,2015-10-05,1,,,,,,0
1781,5180001079375,登記記録の閉鎖等,0,2023-01-18,2023-01-17,株式会社山田建設,,株式会社,愛知県,瀬戸市,西本地町１丁目３２番地,,23,204,4890971,,,2023-01-17,登記官による閉鎖,,,2015-10-05,1,,,,,,0
1782,5180001079796,登記記録の閉鎖等,0,2023-01-18,2023-01-17,株式会社いろは,,株式会社,愛知県,尾張旭市,城山町三ツ池６２０６番地,,23,226,4880881,,,2023-01-17,登記官による閉鎖,,,2015-10-05,1,,,,,,0
1783,5180001083955,登記記録の閉鎖等,0,2023-01-18,2023-01-17,株式会社ヤマダイ,,株式会社,愛知県,一宮市,森本２丁目２６番２８号,,23,203,4910831,,,2023-01-17,登記官による閉鎖,,,2015-10-05,1,,,,,,0
1784,5180001088756,登記記録の閉鎖等,0,2023-01-18,2023-01-17,株式会社山喜,,株式会社,愛知県,名古屋市名東区,香流１丁目２０７番地の２,,23,115,4650005,,,2023-01-17,登記官による閉鎖,,,2015-10-05,1,,,,,,0
1785,5180001099646,登記記録の閉鎖等,0,2023-01-18,2023-01-17,ＨＫエアロ技研株式会社,,株式会社,愛知県,あま市,二ツ寺鬼田１０４番地１,,23,237,4901207,,,2023-01-17,登記官による閉鎖,,,2015-10-05,1,,,,,,0
1787,5180001130261,登記記録の閉鎖等,0,2023-01-18,2023-01-17,プランナー東洋株式会社,,株式会社,愛知県,名古屋市北区,丸新町３４番地,,23,103,4620063,,,2023-01-17,登記官による閉鎖,,,2017-12-01,1,,,,,,0
1790,5180002034412,登記記録の閉鎖等,0,2023-01-18,2023-01-17,スフィアネット有限会社,,有限会社,愛知県,名古屋市南区,観音町８丁目３４番,,23,112,4570845,,,2023-01-17,登記官による閉鎖,,,2015-10-05,1,,,,,,0
1791,5180002042811,登記記録の閉鎖等,0,2023-01-18,2023-01-17,有限会社イマエダ,,有限会社,愛知県,名古屋市西区,上名古屋４丁目１７番２０号,,23,104,4510025,,,2023-01-17,登記官による閉鎖,,,2015-10-05,1,,,,,,0
1793,5180002068071,登記記録の閉鎖等,0,2023-01-18,2023-01-17,有限会社エヌアールエス,,有限会社,愛知県,春日井市,熊野町１３５０番地の２６,,23,206,4860822,,,2023-01-17,登記官による閉鎖,,,2015-10-05,1,,,,,,0
1794,5180002076181,登記記録の閉鎖等,0,2023-01-18,2023-01-17,有限会社岐阜パーテイション,,有限会社,愛知県,一宮市,向山町２丁目２５番地ナビハイツ２０３,,23,203,4910869,,,2023-01-17,登記官による閉鎖,,,2015-10-05,1,,,,,,0
1795,5180002077007,登記記録の閉鎖等,0,2023-01-18,2023-01-17,有限会社東海ビデオグループ,,有限会社,愛知県,一宮市,東五城字東備前３２番地１１,,23,203,4940008,,,2023-01-17,登記官による閉鎖,,,2015-10-05,1,,,,,,0
1796,5180002083608,登記記録の閉鎖等,0,2023-01-18,2023-01-17,有限会社大徳,,有限会社,愛知県,半田市,船入町１１番地の９,,23,205,4750821,,,2023-01-17,登記官による閉鎖,,,2015-10-05,1,,,,,,0
1798,5180005004148,登記記録の閉鎖等,0,2023-01-18,2023-01-17,尾頭市場商業協同組合,,その他の設立登記法人,愛知県,名古屋市中川区,尾頭橋３丁目４番１７号,,23,110,4540012,,,2023-01-17,登記官による閉鎖,,,2015-10-05,1,,,,,,0
1799,5180005005872,登記記録の閉鎖等,0,2023-01-18,2023-01-17,特定非営利活動法人日本ライフカウンセラー協会,,その他の設立登記法人,愛知県,名古屋市東区,東大曽根町４７番２２号,,23,102,4610022,,,2023-01-17,登記官による閉鎖,,,2015-10-05,1,,,,,,0
1800,5180005011631,登記記録の閉鎖等,0,2023-01-18,2023-01-17,特定非営利活動法人ゆいまーる,,その他の設立登記法人,愛知県,春日井市,不二ガ丘１丁目１２１番地,,23,206,4870023,,,2023-01-17,登記官による閉鎖,,,2015-10-05,1,,,,,,0
1802,5180301018859,登記記録の閉鎖等,0,2023-01-18,2023-01-11,株式会社トヨタアメニティ,,株式会社,愛知県,豊田市,岩倉町一本松１番地１,,23,211,4442225,,,2023-01-11,清算の結了等,,,2015-10-05,1,,,,,トヨタアメニティ,0
1816,5220001006408,登記記録の閉鎖等,0,2023-01-18,2023-01-16,北陸デジタルホン株式会社,,株式会社,石川県,金沢市,湊２丁目１８番地２,,17,201,9200211,,,2023-01-16,清算の結了等,,,2015-10-05,1,,,,,ホクリクデジタルホン,0
1820,5220002009509,登記記録の閉鎖等,0,2023-01-18,2023-01-04,有限会社安田,,有限会社,石川県,白山市,相木町５２５番地３,,17,210,9240022,,,2023-01-04,合併による解散等,7220001007148,令和４年１２月３１日石川県白山市源兵島町７７１番地１株式会社安田鈑金工業（7220001007148）と合併し解散,2015-10-05,1,,,,,ヤスダ,0
1825,5240001009648,登記記録の閉鎖等,0,2023-01-18,2023-01-16,株式会社広島友工社,,株式会社,広島県,広島市中区,千田町１丁目１２番３号,,34,101,7300052,,,2023-01-16,清算の結了等,,,2015-10-05,1,,,,,ヒロシマユウコウシャ,0
1836,5290001010956,登記記録の閉鎖等,0,2023-01-18,2023-01-18,株式会社ライトハウス出版,,株式会社,福岡県,福岡市中央区,警固１丁目１２番５号,,40,133,8100023,,,2023-01-18,登記官による閉鎖,,,2015-10-05,1,,,,,,0
1837,5290001028949,登記記録の閉鎖等,0,2023-01-18,2023-01-18,株式会社エステートコガ,,株式会社,福岡県,福岡市早良区,高取１丁目２１番１０号,,40,137,8140011,,,2023-01-18,登記官による閉鎖,,,2015-10-05,1,,,,,,0
1838,5290001030178,登記記録の閉鎖等,0,2023-01-18,2023-01-18,株式会社ＳＡＣ．,,株式会社,福岡県,福岡市中央区,警固２丁目１８番５号アバンダント９１　２階,,40,133,8100023,,,2023-01-18,登記官による閉鎖,,,2015-10-05,1,,,,,,0
1839,5290001043403,登記記録の閉鎖等,0,2023-01-18,2023-01-18,株式会社てんま,,株式会社,福岡県,太宰府市,通古賀５丁目１５番１９号,,40,221,8180104,,,2023-01-18,登記官による閉鎖,,,2015-10-05,1,,,,,,0
1840,5290001045928,登記記録の閉鎖等,0,2023-01-18,2023-01-18,株式会社アクロス,,株式会社,福岡県,飯塚市,枝国４０６番地,,40,205,8200081,,,2023-01-18,登記官による閉鎖,,,2015-10-05,1,,,,,,0
1841,5290001049433,登記記録の閉鎖等,0,2023-01-18,2023-01-18,株式会社浜商,,株式会社,福岡県,久留米市,通町３番地の２,,40,203,8300018,,,2023-01-18,登記官による閉鎖,,,2015-10-05,1,,,,,,0
1842,5290001049788,登記記録の閉鎖等,0,2023-01-18,2023-01-18,株式会社ロンドン屋,,株式会社,福岡県,久留米市,花畑１丁目１２番９,,40,203,8300039,,,2023-01-18,登記官による閉鎖,,,2015-10-05,1,,,,,,0
1843,5290001057097,登記記録の閉鎖等,0,2023-01-18,2023-01-18,株式会社Ｓｔｏｃｋ,,株式会社,福岡県,福岡市中央区,渡辺通２丁目４番２０号,,40,133,8100004,,,2023-01-18,登記官による閉鎖,,,2015-10-05,1,,,,,,0
1847,5290002003315,登記記録の閉鎖等,0,2023-01-18,2023-01-18,有限会社廣重製本所,,有限会社,福岡県,福岡市南区,大楠１丁目１５番６号,,40,134,8150082,,,2023-01-18,登記官による閉鎖,,,2015-10-05,1,,,,,,0
1848,5290002003868,登記記録の閉鎖等,0,2023-01-18,2023-01-18,有限会社山千酒店,,有限会社,福岡県,福岡市南区,三宅３丁目１番２８号,,40,134,8111344,,,2023-01-18,登記官による閉鎖,,,2015-10-05,1,,,,,,0
1853,5290002018692,登記記録の閉鎖等,0,2023-01-18,2023-01-18,有限会社エイチ・アイ・シー硝工社,,有限会社,福岡県,糟屋郡志免町,別府北１丁目１３番１－２０２号,,40,343,8112233,,,2023-01-18,登記官による閉鎖,,,2015-10-05,1,,,,,,0
1854,5290002021110,登記記録の閉鎖等,0,2023-01-18,2023-01-18,タナカフードビジネス研究有限会社,,有限会社,福岡県,福岡市西区,下山門４丁目１３番２６－４０２号,,40,135,8190052,,,2023-01-18,登記官による閉鎖,,,2015-10-05,1,,,,,,0
1855,5290002028411,登記記録の閉鎖等,0,2023-01-18,2023-01-18,有限会社アント社,,有限会社,福岡県,福岡市東区,舞松原６丁目１３番２号,,40,131,8130042,,,2023-01-18,登記官による閉鎖,,,2015-10-05,1,,,,,,0
1856,5290002029194,登記記録の閉鎖等,0,2023-01-18,2023-01-18,有限会社ＪＯＹ　ＫＩＤＳ,,有限会社,福岡県,福岡市中央区,谷１丁目１５番２１－８０２号,,40,133,8100031,,,2023-01-18,登記官による閉鎖,,,2015-10-05,1,,,,,,0
1858,5290002039796,登記記録の閉鎖等,0,2023-01-18,2023-01-18,有限会社中村商会,,有限会社,福岡県,筑紫野市,原田８丁目１０番地７,,40,217,8180024,,,2023-01-18,登記官による閉鎖,,,2015-10-05,1,,,,,,0
1859,5290002045266,登記記録の閉鎖等,0,2023-01-18,2023-01-18,有限会社イマムラ,,有限会社,福岡県,飯塚市,西徳前７番２９号,,40,205,8200031,,,2023-01-18,登記官による閉鎖,,,2015-10-05,1,,,,,,0
1860,5290002045910,登記記録の閉鎖等,0,2023-01-18,2023-01-18,有限会社二瀬設備,,有限会社,福岡県,飯塚市,伊岐須２７５番地,,40,205,8200053,,,2023-01-18,登記官による閉鎖,,,2015-10-05,1,,,,,,0
1861,5290002056890,登記記録の閉鎖等,0,2023-01-18,2023-01-18,有限会社釋迦郡ビル,00093646,有限会社,福岡県,福岡市東区,香住ケ丘３丁目１７番５号,,40,131,8130003,,,2023-01-18,登記官による閉鎖,,,2015-10-05,1,,,,,,0
1862,5290003003512,登記記録の閉鎖等,0,2023-01-18,2023-01-18,快適家具生活合同会社,,合同会社,福岡県,福岡市博多区,博多駅前１丁目１５番２０号,,40,132,8120011,,,2023-01-18,登記官による閉鎖,,,2015-10-05,1,,,,,,0
1863,5290005003527,登記記録の閉鎖等,0,2023-01-18,2023-01-18,企業組合ＤＦＣ,,その他の設立登記法人,福岡県,那珂川市,松木２丁目１７２番地,,40,231,8111251,,,2023-01-18,登記官による閉鎖,,,2015-10-05,1,,,,,,0
1864,5290005004095,登記記録の閉鎖等,0,2023-01-18,2023-01-18,特定非営利活動法人環アジア太平洋青年会議,,その他の設立登記法人,福岡県,福岡市中央区,薬院１丁目１５番１号薬院ハウス７０１,,40,133,8100022,,,2023-01-18,登記官による閉鎖,,,2015-10-05,1,,,,,,0
1865,5290005004475,登記記録の閉鎖等,0,2023-01-18,2023-01-18,特定非営利活動法人学び舎,,その他の設立登記法人,福岡県,福岡市東区,香椎浜４丁目１番７－１０６号,,40,131,8130016,,,2023-01-18,登記官による閉鎖,,,2015-10-05,1,,,,,,0
1866,5290005005911,登記記録の閉鎖等,0,2023-01-18,2023-01-18,協同組合むなかたシール会,,その他の設立登記法人,福岡県,宗像市,土穴４丁目８番１号,,40,220,8114183,,,2023-01-18,登記官による閉鎖,,,2015-10-05,1,,,,,,0
1867,5290005008625,登記記録の閉鎖等,0,2023-01-18,2023-01-18,ＮＰＯ法人しょうがいしゃ製薬,,その他の設立登記法人,福岡県,福岡市南区,弥永５丁目２１番２１－３０３号,,40,134,8111323,,,2023-01-18,登記官による閉鎖,,,2015-10-05,1,,,,,,0
1869,5290005018203,登記記録の閉鎖等,0,2023-01-18,2023-01-16,一般社団法人ふれあい耳納山苞,,その他の設立登記法人,福岡県,久留米市,田主丸町益生田１６２番地２,,40,203,8391213,,,2023-01-16,清算の結了等,,,2021-04-30,1,,,,,フレアイミノウヤマツト,0
1870,5290801007540,登記記録の閉鎖等,0,2023-01-18,2023-01-18,株式会社Ｂａｃｋｕｐ,,株式会社,福岡県,北九州市小倉北区,堺町１丁目５－１８島田ビル１Ｆ,,40,106,8020005,,,2023-01-18,登記官による閉鎖,,,2015-10-05,1,,,,,,0
1871,5290801009438,登記記録の閉鎖等,0,2023-01-18,2023-01-18,株式会社馬庭,,株式会社,福岡県,北九州市八幡東区,尾倉２丁目５番１号,,40,108,8050059,,,2023-01-18,登記官による閉鎖,,,2015-10-05,1,,,,,,0
1872,5290801012169,登記記録の閉鎖等,0,2023-01-18,2023-01-18,株式会社久保工業所,,株式会社,福岡県,北九州市若松区,高須東２丁目１０番８号,,40,103,8080144,,,2023-01-18,登記官による閉鎖,,,2015-10-05,1,,,,,,0
1873,5290801016475,登記記録の閉鎖等,0,2023-01-18,2023-01-18,豊州製氷冷藏株式会社,,株式会社,福岡県,田川市,大字伊田３５０１番地,,40,206,8250002,,,2023-01-18,登記官による閉鎖,,,2015-10-05,1,,,,,,0
1874,5290801017317,登記記録の閉鎖等,0,2023-01-18,2023-01-18,株式会社松商,,株式会社,福岡県,北九州市小倉北区,高坊２丁目１１番１３号,,40,106,8020053,,,2023-01-18,登記官による閉鎖,,,2015-10-05,1,,,,,,0
1877,5290802004917,登記記録の閉鎖等,0,2023-01-18,2023-01-18,有限会社西日本技建,,有限会社,福岡県,北九州市小倉南区,富士見１丁目６番２７－１０６号,,40,107,8020801,,,2023-01-18,登記官による閉鎖,,,2015-10-05,1,,,,,,0
1878,5290802009676,登記記録の閉鎖等,0,2023-01-18,2023-01-18,有限会社土居酒店,,有限会社,福岡県,北九州市門司区,東本町１丁目１番１９号,,40,101,8010851,,,2023-01-18,登記官による閉鎖,,,2015-10-05,1,,,,,,0
1879,5290802010502,登記記録の閉鎖等,0,2023-01-18,2023-01-18,有限会社ピースオブマインド,,有限会社,福岡県,北九州市小倉北区,中津口２丁目１番４０－４０４号,,40,106,8020018,,,2023-01-18,登記官による閉鎖,,,2015-10-05,1,,,,,,0
1880,5290802011120,登記記録の閉鎖等,0,2023-01-18,2023-01-18,有限会社粉のくら,,有限会社,福岡県,北九州市小倉南区,津田新町１丁目６番７号,,40,107,8000227,,,2023-01-18,登記官による閉鎖,,,2015-10-05,1,,,,,,0
1881,5290802014635,登記記録の閉鎖等,0,2023-01-18,2023-01-18,有限会社高橋塗装工業,,有限会社,福岡県,北九州市八幡西区,陣原１丁目６番４号,,40,109,8070821,,,2023-01-18,登記官による閉鎖,,,2015-10-05,1,,,,,,0
1882,5290802014742,登記記録の閉鎖等,0,2023-01-18,2023-01-18,有限会社てしま,,有限会社,福岡県,北九州市八幡西区,永犬丸１丁目１４番２５号,,40,109,8070851,,,2023-01-18,登記官による閉鎖,,,2015-10-05,1,,,,,,0
1883,5290802017753,登記記録の閉鎖等,0,2023-01-18,2023-01-18,有限会社九州フーズ,,有限会社,福岡県,北九州市八幡西区,引野１丁目１８番６号,,40,109,8060067,,,2023-01-18,登記官による閉鎖,,,2015-10-05,1,,,,,,0
1884,5290802019213,登記記録の閉鎖等,0,2023-01-18,2023-01-18,有限会社武石組,,有限会社,福岡県,北九州市若松区,山ノ堂町１５番１９号,,40,103,8080045,,,2023-01-18,登記官による閉鎖,,,2015-10-05,1,,,,,,0
1885,5290802019980,登記記録の閉鎖等,0,2023-01-18,2023-01-18,有限会社三萩野コンタクト,,有限会社,福岡県,北九州市八幡東区,荒生田１丁目４番９号,,40,108,8050015,,,2023-01-18,登記官による閉鎖,,,2015-10-05,1,,,,,,0
1887,5290802024642,登記記録の閉鎖等,0,2023-01-18,2023-01-18,有限会社昇英建設,,有限会社,福岡県,田川郡川崎町,大字田原４５２番地の２７,,40,605,8270004,,,2023-01-18,登記官による閉鎖,,,2015-10-05,1,,,,,,0
1888,5290805003957,登記記録の閉鎖等,0,2023-01-18,2023-01-18,東筑相互事業協同組合,,その他の設立登記法人,福岡県,北九州市八幡西区,折尾３丁目１０番１０号,,40,109,8070825,,,2023-01-18,登記官による閉鎖,,,2015-10-05,1,,,,,,0
1889,5290805005540,登記記録の閉鎖等,0,2023-01-18,2023-01-18,直方スタンプ事業協同組合,,その他の設立登記法人,福岡県,直方市,古町８番８号,,40,204,8220027,,,2023-01-18,登記官による閉鎖,,,2015-10-05,1,,,,,,0
1890,5300001004238,登記記録の閉鎖等,0,2023-01-18,2023-01-16,株式会社ＡＱＵＡ,,株式会社,佐賀県,佐賀市,神野東３丁目７番２７号,,41,201,8400804,,,2023-01-16,清算の結了等,,,2015-10-05,1,,,,,アクア,0
1896,5320001002405,登記記録の閉鎖等,0,2023-01-18,2023-01-18,株式会社富士商事,,株式会社,大分県,大分市,王子北町１番１０号,,44,201,8700005,,,2023-01-18,登記官による閉鎖,,,2015-10-05,1,,,,,,0
1897,5320001005622,登記記録の閉鎖等,0,2023-01-18,2023-01-18,日本ノボテク株式会社,,株式会社,大分県,大分市,東春日町１７番２０号,,44,201,8700037,,,2023-01-18,登記官による閉鎖,,,2015-10-05,1,,,,,,0
1898,5320001009012,登記記録の閉鎖等,0,2023-01-18,2023-01-18,株式会社ダイトー,,株式会社,大分県,佐伯市,弥生大字大坂本７３番地,,44,205,8760101,,,2023-01-18,登記官による閉鎖,,,2015-10-05,1,,,,,,0
1899,5320001011744,登記記録の閉鎖等,0,2023-01-18,2023-01-18,株式会社星野物産,,株式会社,大分県,別府市,大字亀川２３３３番地の１,,44,202,8740000,,,2023-01-18,登記官による閉鎖,,,2015-10-05,1,,,,,,0
1900,5320002004276,登記記録の閉鎖等,0,2023-01-18,2023-01-18,有限会社コウワ総合建設,,有限会社,大分県,大分市,大字千歳２３９番地の６６,,44,201,8700132,,,2023-01-18,登記官による閉鎖,,,2015-10-05,1,,,,,,0
1901,5320002010547,登記記録の閉鎖等,0,2023-01-18,2023-01-18,有限会社ワールドホーム,,有限会社,大分県,大分市,豊町１丁目６番２３号,,44,201,8700042,,,2023-01-18,登記官による閉鎖,,,2015-10-05,1,,,,,,0
1902,5320002017690,登記記録の閉鎖等,0,2023-01-18,2023-01-18,有限会社矢野住建,,有限会社,大分県,佐伯市,宇目大字小野市１４０１番地の１,,44,205,8793301,,,2023-01-18,登記官による閉鎖,,,2015-10-05,1,,,,,,0
1903,5320003000869,登記記録の閉鎖等,0,2023-01-18,2023-01-18,合資会社重松商店,,合資会社,大分県,宇佐市,大字長洲４３２５番地,,44,211,8720001,,,2023-01-18,登記官による閉鎖,,,2015-10-05,1,,,,,,0
1904,5320003001603,登記記録の閉鎖等,0,2023-01-18,2023-01-18,合同会社Ｆａｎｆａｒｉｓｅ,,合同会社,大分県,別府市,上野口町２２番２６号,,44,202,8740905,,,2023-01-18,登記官による閉鎖,,,2015-10-05,1,,,,,,0
1905,5320005002046,登記記録の閉鎖等,0,2023-01-18,2023-01-18,農事組合法人絋信牧場,,その他の設立登記法人,大分県,大分市,大字白木２８０２番地,,44,201,8792202,,,2023-01-18,登記官による閉鎖,,,2015-10-05,1,,,,,,0
1906,5320005002129,登記記録の閉鎖等,0,2023-01-18,2023-01-18,特定非営利活動法人マンション管理適正化推進センター大分,,その他の設立登記法人,大分県,大分市,高城新町１３番１２号,,44,201,8700156,,,2023-01-18,登記官による閉鎖,,,2015-10-05,1,,,,,,0
1907,5320005003639,登記記録の閉鎖等,0,2023-01-18,2023-01-18,農事組合法人飯田肥育組合,,その他の設立登記法人,大分県,宇佐市,安心院町飯田４２１番地,,44,211,8720502,,,2023-01-18,登記官による閉鎖,,,2015-10-05,1,,,,,,0
1908,5320005006253,登記記録の閉鎖等,0,2023-01-18,2023-01-18,財団法人千歳保育園,,その他の設立登記法人,大分県,豊後大野市,千歳町長峰７３６番地,,44,212,8797404,,,2023-01-18,登記官による閉鎖,,,2015-10-05,1,,,,,,0
1909,5320005007895,登記記録の閉鎖等,0,2023-01-18,2023-01-18,農事組合法人家籠養蚕組合,,その他の設立登記法人,大分県,中津市,耶馬溪町大字深耶馬１３６８番地,,44,203,8710422,,,2023-01-18,登記官による閉鎖,,,2015-10-05,1,,,,,,0
1910,5320201000299,登記記録の閉鎖等,0,2023-01-18,2023-01-18,株式会社ｅ－じだい,,株式会社,大分県,臼杵市,大字市浜１１６８番地１,,44,206,8750052,,,2023-01-18,登記官による閉鎖,,,2015-10-05,1,,,,,,0
1911,5320202000265,登記記録の閉鎖等,0,2023-01-18,2023-01-18,有限会社志賀屋呉服店,,有限会社,大分県,臼杵市,大字臼杵４５８番地,,44,206,8750041,,,2023-01-18,登記官による閉鎖,,,2015-10-05,1,,,,,,0
1925,5410002000159,登記記録の閉鎖等,0,2023-01-18,2023-01-18,有限会社あさくら設計,,有限会社,秋田県,秋田市,茨島２丁目１番７号,00086487,05,201,0100065,,,2023-01-18,登記官による閉鎖,,,2015-10-05,1,,,,,,0
1926,5410002010224,登記記録の閉鎖等,0,2023-01-18,2023-01-18,とうかい有限会社,,有限会社,秋田県,能代市,真壁地字トトメキ沢３８５番地２,,05,202,0160005,,,2023-01-18,登記官による閉鎖,,,2015-10-05,1,,,,,,0
1927,5410002010604,登記記録の閉鎖等,0,2023-01-18,2023-01-18,有限会社山秀運送,,有限会社,秋田県,能代市,扇田字四ッ屋２５番地２９,,05,202,0160122,,,2023-01-18,登記官による閉鎖,,,2015-10-05,1,,,,,,0
1928,5410002012253,登記記録の閉鎖等,0,2023-01-18,2023-01-18,有限会社渡部整備工場,,有限会社,秋田県,大仙市,南外字悪戸野５０番地２,,05,212,0191901,,,2023-01-18,登記官による閉鎖,,,2015-10-05,1,,,,,,0
1929,5410002013029,登記記録の閉鎖等,0,2023-01-18,2023-01-18,有限会社笹原鈑金,,有限会社,秋田県,横手市,外目字大谷地１番地２１,,05,203,0130053,,,2023-01-18,登記官による閉鎖,,,2015-10-05,1,,,,,,0
1930,5410003001222,登記記録の閉鎖等,0,2023-01-18,2023-01-18,合同会社オフィスミドリ,,合同会社,秋田県,秋田市,大町５丁目３番１６号ワンボックスビル１階,,05,201,0100921,,,2023-01-18,登記官による閉鎖,,,2015-10-05,1,,,,,,0
1932,5410005000040,登記記録の閉鎖等,0,2023-01-18,2023-01-18,協同組合秋田さけぷらざ,,その他の設立登記法人,秋田県,秋田市,大町２丁目７番３４号,,05,201,0100921,,,2023-01-18,登記官による閉鎖,,,2015-10-05,1,,,,,,0
1940,5440001008472,登記記録の閉鎖等,0,2023-01-18,2023-01-10,株式会社心,,株式会社,北海道,函館市,美原３丁目５８番９号,,01,202,0410806,,,2023-01-10,清算の結了等,,,2019-03-19,1,,,,,ココロ,0
1946,5460103000045,登記記録の閉鎖等,0,2023-01-18,2023-01-18,ライフ・デザイン・システム合資会社,,合資会社,北海道,河東郡音更町,雄飛が丘仲区１番地２２３,,01,631,0800332,,,2023-01-18,登記官による閉鎖,,,2015-10-05,1,,,,,,0
1947,5462502000427,登記記録の閉鎖等,0,2023-01-18,2023-01-18,有限会社高崎,,有限会社,北海道,標津郡中標津町,大通南１丁目２番地,,01,692,0861142,,,2023-01-18,登記官による閉鎖,,,2015-10-05,1,,,,,,0
1949,5470001009518,登記記録の閉鎖等,0,2023-01-18,2023-01-16,株式会社高中工業,,株式会社,香川県,丸亀市,川西町南１１５８番地,,37,202,7630092,,,2023-01-16,清算の結了等,,,2015-10-05,1,,,,,タカナカコウギョウ,0
1954,5490001002512,登記記録の閉鎖等,0,2023-01-18,2023-01-18,株式会社アイエムエフ,,株式会社,高知県,高知市,介良乙３０８２番地６,,39,201,7815106,,,2023-01-18,登記官による閉鎖,,,2015-10-05,1,,,,,,0
1955,5490001003411,登記記録の閉鎖等,0,2023-01-18,2023-01-18,水田建設株式会社,,株式会社,高知県,高知市,東石立町５２番地,,39,201,7808039,,,2023-01-18,登記官による閉鎖,,,2015-10-05,1,,,,,,0
1956,5490001004426,登記記録の閉鎖等,0,2023-01-18,2023-01-18,株式会社嶋田通商,,株式会社,高知県,高知市,春野町南ケ丘６丁目１０番地３,,39,201,7810314,,,2023-01-18,登記官による閉鎖,,,2015-10-05,1,,,,,,0
1957,5490001005911,登記記録の閉鎖等,0,2023-01-18,2023-01-18,エコユニティー株式会社,,株式会社,高知県,高岡郡中土佐町,上ノ加江６６５１番地,,39,401,7891302,,,2023-01-18,登記官による閉鎖,,,2015-10-05,1,,,,,,0
1959,5490002008418,登記記録の閉鎖等,0,2023-01-18,2023-01-18,有限会社テクノハタ,,有限会社,高知県,四万十市,中村東町２丁目１０番８号,,39,210,7870023,,,2023-01-18,登記官による閉鎖,,,2015-10-05,1,,,,,,0
1960,5490002009242,登記記録の閉鎖等,0,2023-01-18,2023-01-18,長山興業有限会社,,有限会社,高知県,幡多郡大月町,大字弘見１４２１番地２,,39,424,7880302,,,2023-01-18,登記官による閉鎖,,,2015-10-05,1,,,,,,0
1961,5490002009936,登記記録の閉鎖等,0,2023-01-18,2023-01-18,有限会社北村電業,,有限会社,高知県,高岡郡佐川町,中組７８８番地２,,39,402,7891233,,,2023-01-18,登記官による閉鎖,,,2015-10-05,1,,,,,,0
1962,5490002011900,登記記録の閉鎖等,0,2023-01-18,2023-01-18,有限会社ナンコクデンヨー,,有限会社,高知県,南国市,小籠９４１番地２１７,,39,204,7830022,,,2023-01-18,登記官による閉鎖,,,2015-10-05,1,,,,,,0
1963,5490002013013,登記記録の閉鎖等,0,2023-01-18,2023-01-18,有限会社和田酒店,,有限会社,高知県,安芸市,花園町１番１７号,,39,203,7840002,,,2023-01-18,登記官による閉鎖,,,2015-10-05,1,,,,,,0
1964,5490002013392,登記記録の閉鎖等,0,2023-01-18,2023-01-18,有限会社江口工務店,,有限会社,高知県,四万十市,鍋島１１６７番地,,39,210,7870152,,,2023-01-18,登記官による閉鎖,,,2018-08-15,1,,,,,エグチコウムテン,0
1965,5490003000729,登記記録の閉鎖等,0,2023-01-18,2023-01-18,宙達書房合同会社,,合同会社,高知県,高岡郡佐川町,永野１３３７番地,,39,402,7891231,,,2023-01-18,登記官による閉鎖,,,2015-10-05,1,,,,,,0
1966,5490005000529,登記記録の閉鎖等,0,2023-01-18,2023-01-18,農事組合法人内ノ谷野菜生産組合,,その他の設立登記法人,高知県,高知市,春野町内ノ谷８１３番地２,,39,201,7810313,,,2023-01-18,登記官による閉鎖,,,2015-10-05,1,,,,,,0
1967,5490005000891,登記記録の閉鎖等,0,2023-01-18,2023-01-18,企業組合土佐海援隊,,その他の設立登記法人,高知県,高知市,若松町５番９－６０６号,,39,201,7800812,,,2023-01-18,登記官による閉鎖,,,2015-10-05,1,,,,,,0
1968,5490005005404,登記記録の閉鎖等,0,2023-01-18,2023-01-18,安田商業協同組合,,その他の設立登記法人,高知県,安芸郡安田町,大字安田１６５３番地,,39,304,7816421,,,2023-01-18,登記官による閉鎖,,,2015-10-05,1,,,,,,0
1970,5500002011898,登記記録の閉鎖等,0,2023-01-18,2023-01-06,有限会社三糸館,,有限会社,愛媛県,大洲市,中村２８１番地,,38,207,7950054,,,2023-01-06,清算の結了等,,,2015-10-05,1,,,,,ミイトカン,0
1971,5500002014620,登記記録の閉鎖等,0,2023-01-18,2023-01-16,有限会社愛媛新聞エリアサービス小松,00008049,有限会社,愛媛県,西条市,小松町新屋敷甲５０１番地１,,38,206,7991101,,,2023-01-16,清算の結了等,,,2015-10-05,1,,,,,エヒメシンブンエリアサービスコマツ,0
1985,6010001227610,登記記録の閉鎖等,0,2023-01-18,2023-01-05,株式会社ＮＭ２,,株式会社,東京都,千代田区,丸の内３丁目１番１号東京共同会計事務所内,,13,101,1000005,,,2023-01-05,合併による解散等,6010001226521,令和５年１月１日東京都千代田区丸の内三丁目１番１号東京共同会計事務所内株式会社ＣＨ（6010001226521）に合併し解散,2022-06-27,1,,,,,エヌエムツー,0
2012,6010901014414,登記記録の閉鎖等,0,2023-01-18,2023-01-16,株式会社キャピタルエンジニアリング,,株式会社,東京都,江戸川区,松江６丁目６番１６号メゾン・ド・コジマ１階,,13,123,1320025,,,2023-01-16,清算の結了等,,,2015-10-05,1,,,,,キャピタルエンジニアリング,0
2041,6011801011897,登記記録の閉鎖等,0,2023-01-18,2023-01-16,保塚土地株式会社,00057021,株式会社,東京都,足立区,保木間５丁目９番９号,,13,121,1210064,,,2023-01-16,清算の結了等,,,2015-10-05,1,,,,,ホヅカトチ,0
2049,6012402005941,登記記録の閉鎖等,0,2023-01-18,2023-01-17,有限会社音楽工場,,有限会社,東京都,国立市,中３丁目７番地の１７,,13,215,1860004,,,2023-01-17,登記官による閉鎖,,,2015-10-05,1,,,,,,0
2051,6012701002490,登記記録の閉鎖等,0,2023-01-18,2023-01-18,株式会社ビラ・プランニング,,株式会社,東京都,西東京市,田無町４丁目１７番２２号,,13,229,1880011,,,2023-01-18,登記官による閉鎖,,,2015-10-05,1,,,,,,0
2052,6012701011054,登記記録の閉鎖等,0,2023-01-18,2023-01-18,株式会社永野商事,,株式会社,東京都,小平市,大沼町２丁目７０７番地の２５,,13,211,1870001,,,2023-01-18,登記官による閉鎖,,,2015-10-05,1,,,,,,0
2053,6012702001319,登記記録の閉鎖等,0,2023-01-18,2023-01-18,有限会社鳥勝商店,,有限会社,東京都,小平市,小川町２丁目２０５６番地の５,,13,211,1870032,,,2023-01-18,登記官による閉鎖,,,2015-10-05,1,,,,,,0
2054,6012702003249,登記記録の閉鎖等,0,2023-01-18,2023-01-18,有限会社中原電業,,有限会社,東京都,東村山市,本町３丁目９番地８６,,13,213,1890014,,,2023-01-18,登記官による閉鎖,,,2015-10-05,1,,,,,,0
2055,6012702012448,登記記録の閉鎖等,0,2023-01-18,2023-01-18,有限会社テムスインク,,有限会社,東京都,清瀬市,下宿１丁目１６７番地の１２,,13,221,2040001,,,2023-01-18,登記官による閉鎖,,,2015-10-05,1,,,,,,0
2056,6012801006714,登記記録の閉鎖等,0,2023-01-18,2023-01-17,株式会社ソルムンシステム,,株式会社,東京都,立川市,柴崎町１丁目１８番２４－２０５号,,13,202,1900023,,,2023-01-17,登記官による閉鎖,,,2015-10-05,1,,,,,,0
2057,6012801008297,登記記録の閉鎖等,0,2023-01-18,2023-01-17,サンフィールドエンジニアリング株式会社,,株式会社,東京都,昭島市,朝日町４丁目２番１８号,,13,207,1960025,,,2023-01-17,登記官による閉鎖,,,2015-10-05,1,,,,,,0
2058,6012801009122,登記記録の閉鎖等,0,2023-01-18,2023-01-17,株式会社タテ,,株式会社,東京都,昭島市,美堀町５丁目８番８号,,13,207,1960001,,,2023-01-17,登記官による閉鎖,,,2015-10-05,1,,,,,,0
2059,6012802000773,登記記録の閉鎖等,0,2023-01-18,2023-01-17,有限会社ケーエム設備,,有限会社,東京都,立川市,砂川町４丁目３５番地の８,,13,202,1900031,,,2023-01-17,登記官による閉鎖,,,2015-10-05,1,,,,,,0
2060,6012802004205,登記記録の閉鎖等,0,2023-01-18,2023-01-17,有限会社エフ・エフ,,有限会社,東京都,武蔵村山市,伊奈平５丁目１番地の２,,13,223,2080023,,,2023-01-17,登記官による閉鎖,,,2015-10-05,1,,,,,,0
2061,6012802006317,登記記録の閉鎖等,0,2023-01-18,2023-01-17,有限会社大和給食,,有限会社,東京都,東大和市,南街５丁目７２番地の７,,13,220,2070014,,,2023-01-17,登記官による閉鎖,,,2015-10-05,1,,,,,,0
2070,6013402000676,登記記録の閉鎖等,0,2023-01-18,2023-01-17,有限会社サンコーパック,,有限会社,東京都,日野市,大字日野１６０８番地,,13,212,1910012,,,2023-01-17,登記官による閉鎖,,,2015-10-05,1,,,,,,0
2072,6020001120401,登記記録の閉鎖等,0,2023-01-18,2023-01-10,スタジオモック株式会社,,株式会社,神奈川県,横浜市港北区,鳥山町９１５番地４,,14,109,2220035,,,2023-01-10,清算の結了等,,,2017-03-16,1,,,,,スタジオモック,0
2087,6021002006242,登記記録の閉鎖等,0,2023-01-18,2023-01-12,有限会社アダプト,,有限会社,神奈川県,藤沢市,長後１０２７番地の５,,14,205,2520801,,,2023-01-12,清算の結了等,,,2015-10-05,1,,,,,アダプト,0
2089,6030001004165,登記記録の閉鎖等,0,2023-01-18,2023-01-11,シンコー精機株式会社,,株式会社,埼玉県,蓮田市,大字井沼６２０番地１９,,11,238,3490135,,,2023-01-11,清算の結了等,,,2015-10-05,1,,,,,シンコーセイキ,0
2092,6030001029377,登記記録の閉鎖等,0,2023-01-18,2023-01-13,Ｃｄｅｓｉｇｎ株式会社,,株式会社,埼玉県,狭山市,広瀬東２丁目１０番１５号,,11,215,3501320,,,2023-01-13,清算の結了等,,,2015-10-05,1,,,,,シーデザイン,0
2103,6030002084900,登記記録の閉鎖等,0,2023-01-18,2023-01-13,有限会社イーストデンタルラボラトリー,,有限会社,埼玉県,越谷市,川柳町１丁目３３９番４号,,11,222,3430827,,,2023-01-13,清算の結了等,,,2015-10-05,1,,,,,イーストデンタルラボラトリー,0
2113,6040002083892,登記記録の閉鎖等,0,2023-01-18,2023-01-13,有限会社多田産業,,有限会社,千葉県,香取郡多古町,出沼３９７番地,,12,347,2892301,,,2023-01-13,清算の結了等,,,2015-10-05,1,,,,,タダサンギョウ,0
2114,6040003008964,登記記録の閉鎖等,0,2023-01-18,2023-01-10,合同会社アンテック,,合同会社,千葉県,船橋市,栄町１丁目１７番５号,,12,204,2730018,,,2023-01-10,清算の結了等,,,2016-08-25,1,,,,,アンテック,0
2122,6080001012857,登記記録の閉鎖等,0,2023-01-18,2023-01-18,ジョイポット株式会社,,株式会社,静岡県,静岡市駿河区,国吉田４丁目９番１号,,22,102,4228004,,,2023-01-18,登記官による閉鎖,,,2015-10-05,1,,,,,,0
2127,6080002005075,登記記録の閉鎖等,0,2023-01-18,2023-01-18,有限会社ブティック和,,有限会社,静岡県,静岡市駿河区,中田３丁目７番３９号,,22,102,4228041,,,2023-01-18,登記官による閉鎖,,,2015-10-05,1,,,,,,0
2128,6080002006362,登記記録の閉鎖等,0,2023-01-18,2023-01-18,ラスタ・プランニング有限会社,,有限会社,静岡県,静岡市葵区,大岩町５番１９号,,22,101,4200885,,,2023-01-18,登記官による閉鎖,,,2015-10-05,1,,,,,,0
2129,6080002007039,登記記録の閉鎖等,0,2023-01-18,2023-01-18,有限会社気仙,,有限会社,静岡県,静岡市駿河区,中田本町４６番３０号,,22,102,4228043,,,2023-01-18,登記官による閉鎖,,,2015-10-05,1,,,,,,0
2130,6080002009274,登記記録の閉鎖等,0,2023-01-18,2023-01-18,有限会社いほはら,,有限会社,静岡県,静岡市清水区,西久保４６番地の８,,22,103,4240038,,,2023-01-18,登記官による閉鎖,,,2015-10-05,1,,,,,,0
2131,6080002012988,登記記録の閉鎖等,0,2023-01-18,2023-01-18,有限会社磯部昇司商店,,有限会社,静岡県,静岡市清水区,蒲原東１５０番地,,22,103,4213201,,,2023-01-18,登記官による閉鎖,,,2015-10-05,1,,,,,,0
2132,6080005000742,登記記録の閉鎖等,0,2023-01-18,2023-01-18,社団法人静岡聖光学院後援会,,その他の設立登記法人,静岡県,静岡市駿河区,小鹿１４４０番地静岡聖光学院内,,22,102,4228021,,,2023-01-18,登記官による閉鎖,,,2015-10-05,1,,,,,,0
2133,6080101006874,登記記録の閉鎖等,0,2023-01-18,2023-01-18,株式会社サカクラ工芸,,株式会社,静岡県,駿東郡清水町,徳倉１４７５番地の２,,22,341,4110917,,,2023-01-18,登記官による閉鎖,,,2015-10-05,1,,,,,,0
2134,6080101021196,登記記録の閉鎖等,0,2023-01-18,2023-01-18,三和ボーリング工業株式会社,,株式会社,静岡県,賀茂郡松崎町,松崎２２３番地,,22,305,4103611,,,2023-01-18,登記官による閉鎖,,,2019-06-24,1,,,,,サンワボーリングコウギョウ,0
2135,6080102021336,登記記録の閉鎖等,0,2023-01-18,2023-01-18,有限会社菅野建設,,有限会社,静岡県,賀茂郡東伊豆町,大川１０３５番地の８３,,22,301,4130301,,,2023-01-18,登記官による閉鎖,,,2015-10-05,1,,,,,,0
2137,6080401002895,登記記録の閉鎖等,0,2023-01-18,2023-01-18,大昭建材株式会社,,株式会社,静岡県,浜松市東区,小池町１３７５番地の１,,22,132,4350056,,,2023-01-18,登記官による閉鎖,,,2015-10-05,1,,,,,,0
2138,6080401011368,登記記録の閉鎖等,0,2023-01-18,2023-01-18,株式会社水力発信所,,株式会社,静岡県,浜松市中区,海老塚２丁目１５番３号,,22,131,4328033,,,2023-01-18,登記官による閉鎖,,,2015-10-05,1,,,,,,0
2139,6080401016367,登記記録の閉鎖等,0,2023-01-18,2023-01-18,福用商事株式会社,,株式会社,静岡県,磐田市,豊岡６０５６番地,,22,211,4380231,,,2023-01-18,登記官による閉鎖,,,2015-10-05,1,,,,,,0
2142,6080402001095,登記記録の閉鎖等,0,2023-01-18,2023-01-18,有限会社ウッドストック,,有限会社,静岡県,浜松市中区,西伊場町７２番２３号,,22,131,4328038,,,2023-01-18,登記官による閉鎖,,,2015-10-05,1,,,,,,0
2143,6080402001120,登記記録の閉鎖等,0,2023-01-18,2023-01-18,有限会社内山土木,,有限会社,静岡県,浜松市北区,三方原町４３２番地の４,,22,135,4338105,,,2023-01-18,登記官による閉鎖,,,2015-10-05,1,,,,,,0
2145,6080402010848,登記記録の閉鎖等,0,2023-01-18,2023-01-18,有限会社シーラス,,有限会社,静岡県,浜松市東区,積志町９０番地の３,,22,132,4313114,,,2023-01-18,登記官による閉鎖,,,2015-10-05,1,,,,,,0
2148,6080405001464,登記記録の閉鎖等,0,2023-01-18,2023-01-18,協同組合静岡県西部人材育成センター,,その他の設立登記法人,静岡県,浜松市中区,神田町１７番地,,22,131,4328047,,,2023-01-18,登記官による閉鎖,,,2015-10-05,1,,,,,,0
2149,6080405006067,登記記録の閉鎖等,0,2023-01-18,2023-01-18,静岡県輸出ハッカ栽培磐東農業協同組合,,その他の設立登記法人,静岡県,袋井市,高尾２２１０番地の１,,22,216,4370023,,,2023-01-18,登記官による閉鎖,,,2015-10-05,1,,,,,,0
2155,6120001162078,登記記録の閉鎖等,0,2023-01-18,2023-01-16,関西クリエーターカンファレンス株式会社,,株式会社,大阪府,大阪市中央区,北久宝寺町２丁目６－１０－１１０６,,27,128,5410057,,,2023-01-16,清算の結了等,,,2015-10-05,1,,,,,カンサイクリエーターカンファレンス,0
2172,6130002011076,登記記録の閉鎖等,0,2023-01-18,2023-01-12,株式会社ＢＯカンパニー,,株式会社,京都府,京都市南区,東九条東御霊町２２番地の１５,,26,107,6018028,,,2023-01-12,清算の結了等,,,2015-10-05,1,,,,,ビーオーカンパニー,0
2177,6140005007707,登記記録の閉鎖等,0,2023-01-18,2023-01-05,天理教播磨晋勇分教会,00042156,その他の設立登記法人,兵庫県,赤穂市,平成町３８番地,,28,212,6780247,,,2023-01-05,合併による解散等,9480005001367,令和４年１２月２８日徳島市中前川町一丁目３６番地天理教阿徳分教会（9480005001367）に合併し解散,2015-10-05,1,,,,,,0
2179,6160001005456,登記記録の閉鎖等,0,2023-01-18,2023-01-16,タナベ建設株式会社,,株式会社,滋賀県,甲賀市,甲南町葛木１００６番地１,,25,209,5203321,,,2023-01-16,清算の結了等,,,2015-10-05,1,,,,,タナベケンセツ,0
2184,6180001003045,登記記録の閉鎖等,0,2023-01-18,2023-01-17,名城興産株式会社,,株式会社,愛知県,長久手市,熊田４１０番地,,23,238,4801144,,,2023-01-17,登記官による閉鎖,,,2015-10-05,1,,,,,,0
2185,6180001007368,登記記録の閉鎖等,0,2023-01-18,2023-01-17,星野精錬工業株式会社,,株式会社,愛知県,名古屋市港区,新茶屋４丁目２９０４番地,,23,111,4550863,,,2023-01-17,登記官による閉鎖,,,2015-10-05,1,,,,,,0
2186,6180001012319,登記記録の閉鎖等,0,2023-01-18,2023-01-17,株式会社振興金型製作所,,株式会社,愛知県,名古屋市北区,福徳町７丁目４２番地,,23,103,4620052,,,2023-01-17,登記官による閉鎖,,,2015-10-05,1,,,,,,0
2187,6180001019693,登記記録の閉鎖等,0,2023-01-18,2023-01-17,島屋珈琲株式会社,,株式会社,愛知県,名古屋市中川区,東春田１丁目３０番地,,23,110,4540983,,,2023-01-17,登記官による閉鎖,,,2015-10-05,1,,,,,,0
2188,6180001020750,登記記録の閉鎖等,0,2023-01-18,2023-01-17,株式会社藤建,,株式会社,愛知県,名古屋市中川区,尾頭橋３丁目９番７号,,23,110,4540012,,,2023-01-17,登記官による閉鎖,,,2015-10-05,1,,,,,,0
2189,6180001022846,登記記録の閉鎖等,0,2023-01-18,2023-01-17,株式会社後藤岩井オフィスネットワーク,,株式会社,愛知県,名古屋市天白区,平針南２丁目４０７番地,,23,116,4680020,,,2023-01-17,登記官による閉鎖,,,2015-10-05,1,,,,,,0
2190,6180001030816,登記記録の閉鎖等,0,2023-01-18,2023-01-17,スサキ工業株式会社,,株式会社,愛知県,名古屋市中村区,上石川町１丁目２２番地,,23,105,4530835,,,2023-01-17,登記官による閉鎖,,,2015-10-05,1,,,,,,0
2191,6180001037506,登記記録の閉鎖等,0,2023-01-18,2023-01-17,大藤建販株式会社,,株式会社,愛知県,名古屋市中区,松原２丁目８番１２号,,23,106,4600017,,,2023-01-17,登記官による閉鎖,,,2017-12-04,1,,,,,,0
2192,6180001040591,登記記録の閉鎖等,0,2023-01-18,2023-01-17,穗高温泉開発株式会社,00072111,株式会社,愛知県,名古屋市中区,大須２丁目１１番２２号,,23,106,4600011,,,2023-01-17,登記官による閉鎖,,,2015-10-05,1,,,,,,0
2193,6180001044857,登記記録の閉鎖等,0,2023-01-18,2023-01-17,株式会社アイシーティー,,株式会社,愛知県,名古屋市中川区,尾頭橋４丁目１３番７号,,23,110,4540012,,,2023-01-17,登記官による閉鎖,,,2015-10-05,1,,,,,,0
2194,6180001050384,登記記録の閉鎖等,0,2023-01-18,2023-01-17,なごみ不動産株式会社,,株式会社,愛知県,一宮市,起字東茜屋４６番地６,,23,203,4940006,,,2023-01-17,登記官による閉鎖,,,2017-09-19,1,,,,,,0
2195,6180001055391,登記記録の閉鎖等,0,2023-01-18,2023-01-17,株式会社中京ビルド工業,,株式会社,愛知県,名古屋市中村区,草薙町２丁目１８番地,,23,105,4530064,,,2023-01-17,登記官による閉鎖,,,2015-10-05,1,,,,,,0
2196,6180001059888,登記記録の閉鎖等,0,2023-01-18,2023-01-17,株式会社Ａ．ソリューションサービス,,株式会社,愛知県,名古屋市天白区,平針４丁目１２１２パークハイム２０１,,23,116,4680011,,,2023-01-17,登記官による閉鎖,,,2015-10-05,1,,,,,,0
2197,6180001068402,登記記録の閉鎖等,0,2023-01-18,2023-01-17,アンゼン警備株式会社,,株式会社,愛知県,名古屋市中区,新栄１丁目３０番１４号,,23,106,4600007,,,2023-01-17,登記官による閉鎖,,,2015-10-05,1,,,,,,0
2198,6180001068633,登記記録の閉鎖等,0,2023-01-18,2023-01-17,株式会社杉山松栄堂,,株式会社,愛知県,名古屋市天白区,土原３丁目１０９番地,,23,116,4680026,,,2023-01-17,登記官による閉鎖,,,2015-10-05,1,,,,,,0
2200,6180001086494,登記記録の閉鎖等,0,2023-01-18,2023-01-17,株式会社タミ・コーポレーション,,株式会社,愛知県,一宮市,今伊勢町馬寄字舟入３番地１,,23,203,4910058,,,2023-01-17,登記官による閉鎖,,,2015-10-05,1,,,,,,0
2201,6180001121813,登記記録の閉鎖等,0,2023-01-18,2023-01-10,株式会社ゲオビューティー,,株式会社,愛知県,名古屋市中区,富士見町８番８号,,23,106,4600014,,,2023-01-10,清算の結了等,,,2016-01-22,1,,,,,ゲオビューティー,0
2203,6180002020320,登記記録の閉鎖等,0,2023-01-18,2023-01-17,有限会社サンビーム,,有限会社,愛知県,名古屋市天白区,福池２丁目２５０番地,,23,116,4680049,,,2023-01-17,登記官による閉鎖,,,2015-10-05,1,,,,,,0
2204,6180002040649,登記記録の閉鎖等,0,2023-01-18,2023-01-17,有限会社ぐっち,,有限会社,愛知県,清須市,西枇杷島町住吉４５番地の２,,23,233,4520018,,,2023-01-17,登記官による閉鎖,,,2015-10-05,1,,,,,,0
2205,6180002041060,登記記録の閉鎖等,0,2023-01-18,2023-01-17,有限会社ナゴヤ・ヤマダ,,有限会社,愛知県,北名古屋市,沖村西ノ川３４番地,,23,234,4810043,,,2023-01-17,登記官による閉鎖,,,2015-10-05,1,,,,,,0
2206,6180002054153,登記記録の閉鎖等,0,2023-01-18,2023-01-17,有限会社安田建築設計,,有限会社,愛知県,名古屋市中区,千代田３丁目１番１９号,,23,106,4600012,,,2023-01-17,登記官による閉鎖,,,2015-10-05,1,,,,,,0
2207,6180002056455,登記記録の閉鎖等,0,2023-01-18,2023-01-17,有限会社火木堂,,有限会社,愛知県,名古屋市中区,上前津２丁目１３番３０号,,23,106,4600013,,,2023-01-17,登記官による閉鎖,,,2015-10-05,1,,,,,,0
2208,6180002070803,登記記録の閉鎖等,0,2023-01-18,2023-01-17,有限会社ミキエンタープライズ,,有限会社,愛知県,小牧市,小牧４丁目２２５番地,,23,219,4850041,,,2023-01-17,登記官による閉鎖,,,2015-10-05,1,,,,,,0
2209,6180002071818,登記記録の閉鎖等,0,2023-01-18,2023-01-17,柴田住設機器有限会社,,有限会社,愛知県,瀬戸市,末広町３丁目８番地,,23,204,4890814,,,2023-01-17,登記官による閉鎖,,,2015-10-05,1,,,,,,0
2210,6180002076230,登記記録の閉鎖等,0,2023-01-18,2023-01-17,有限会社熊谷鉄工所,,有限会社,愛知県,一宮市,島村字高木５番地,,23,203,4910121,,,2023-01-17,登記官による閉鎖,,,2015-10-05,1,,,,,,0
2211,6180002080109,登記記録の閉鎖等,0,2023-01-18,2023-01-17,有限会社アドバンセット,,有限会社,愛知県,一宮市,木曽川町黒田九ノ通り６７番地,,23,203,4930001,,,2023-01-17,登記官による閉鎖,,,2015-10-05,1,,,,,,0
2212,6180002089884,登記記録の閉鎖等,0,2023-01-18,2023-01-17,有限会社揚中総本店,,有限会社,愛知県,弥富市,佐古木７丁目５９番地３,,23,235,4980006,,,2023-01-17,登記官による閉鎖,,,2015-10-05,1,,,,,,0
2214,6180003006723,登記記録の閉鎖等,0,2023-01-18,2023-01-17,合名会社新屋商店,,合名会社,愛知県,名古屋市港区,港栄４丁目１３番１号,,23,111,4550015,,,2023-01-17,登記官による閉鎖,,,2015-10-05,1,,,,,,0
2215,6180003013827,登記記録の閉鎖等,0,2023-01-18,2023-01-17,合資会社八田屋,,合資会社,愛知県,弥富市,鍋田町稲山３９３番地の４２７,,23,235,4980068,,,2023-01-17,登記官による閉鎖,,,2015-10-05,1,,,,,,0
2216,6180005004618,登記記録の閉鎖等,0,2023-01-18,2023-01-17,名守建設協同組合,,その他の設立登記法人,愛知県,名古屋市守山区,菱池町１２番２９号,,23,113,4630045,,,2023-01-17,登記官による閉鎖,,,2015-10-05,1,,,,,,0
2217,6180005012810,登記記録の閉鎖等,0,2023-01-18,2023-01-17,愛知県ファイナンシャルプランニング協同組合,,その他の設立登記法人,愛知県,東海市,名和町口前後１２番地の２,,23,222,4760002,,,2023-01-17,登記官による閉鎖,,,2015-10-05,1,,,,,,0
2240,6290001004783,登記記録の閉鎖等,0,2023-01-18,2023-01-18,株式会社火乃國屋,,株式会社,福岡県,福岡市城南区,樋井川１丁目２３番３２号,,40,136,8140153,,,2023-01-18,登記官による閉鎖,,,2015-10-05,1,,,,,,0
2241,6290001010088,登記記録の閉鎖等,0,2023-01-18,2023-01-18,福暢産業株式会社,,株式会社,福岡県,福岡市中央区,高砂１丁目２４番２３号,,40,133,8100011,,,2023-01-18,登記官による閉鎖,,,2015-10-05,1,,,,,,0
2246,6290001027347,登記記録の閉鎖等,0,2023-01-18,2023-01-18,株式会社ＡＭＵＳＩＮＧ,,株式会社,福岡県,福岡市中央区,天神４丁目８番２号,,40,133,8100001,,,2023-01-18,登記官による閉鎖,,,2015-10-05,1,,,,,,0
2247,6290001048467,登記記録の閉鎖等,0,2023-01-18,2023-01-18,株式会社スーパーダイニング,,株式会社,福岡県,久留米市,日吉町１０番地の５,,40,203,8300017,,,2023-01-18,登記官による閉鎖,,,2015-10-05,1,,,,,,0
2248,6290001050976,登記記録の閉鎖等,0,2023-01-18,2023-01-18,株式会社内野ソーイング,,株式会社,福岡県,久留米市,安武町住吉４７１番地の１,,40,203,8300078,,,2023-01-18,登記官による閉鎖,,,2015-10-05,1,,,,,,0
2249,6290001057823,登記記録の閉鎖等,0,2023-01-18,2023-01-18,株式会社茂吉商店,,株式会社,福岡県,福岡市博多区,空港前３丁目７番８号,,40,132,8120002,,,2023-01-18,登記官による閉鎖,,,2015-10-05,1,,,,,,0
2250,6290001058276,登記記録の閉鎖等,0,2023-01-18,2023-01-18,株式会社ＦＡＹＺ,,株式会社,福岡県,福岡市城南区,南片江１丁目２７番５－１０９号,,40,136,8140143,,,2023-01-18,登記官による閉鎖,,,2015-10-05,1,,,,,,0
2256,6290002001111,登記記録の閉鎖等,0,2023-01-18,2023-01-18,有限会社山富,,有限会社,福岡県,福岡市西区,戸切２丁目９０番２号,,40,135,8190032,,,2023-01-18,登記官による閉鎖,,,2015-10-05,1,,,,,,0
2259,6290002033666,登記記録の閉鎖等,0,2023-01-18,2023-01-18,有限会社クローバー工芸,,有限会社,福岡県,古賀市,青柳２１０３番地,,40,223,8113134,,,2023-01-18,登記官による閉鎖,,,2015-10-05,1,,,,,,0
2260,6290002035794,登記記録の閉鎖等,0,2023-01-18,2023-01-18,ユース不動産有限会社,,有限会社,福岡県,糟屋郡新宮町,夜臼４丁目１番２４号,,40,345,8110110,,,2023-01-18,登記官による閉鎖,,,2015-10-05,1,,,,,,0
2261,6290002038566,登記記録の閉鎖等,0,2023-01-18,2023-01-18,有限会社アサヒファーム,,有限会社,福岡県,大野城市,平野台４丁目２９番１号,,40,219,8160972,,,2023-01-18,登記官による閉鎖,,,2015-10-05,1,,,,,,0
2262,6290002039300,登記記録の閉鎖等,0,2023-01-18,2023-01-18,有限会社秀學館,,有限会社,福岡県,大野城市,下大利２丁目１８番１０号エスティ９２（２Ｆ）,,40,219,8160952,,,2023-01-18,登記官による閉鎖,,,2015-10-05,1,,,,,,0
2263,6290003003874,登記記録の閉鎖等,0,2023-01-18,2023-01-18,合同会社えん,,合同会社,福岡県,福岡市中央区,唐人町２丁目９番４－２０１号,,40,133,8100063,,,2023-01-18,登記官による閉鎖,,,2015-10-05,1,,,,,,0
2265,6290005003138,登記記録の閉鎖等,0,2023-01-18,2023-01-18,協同組合調査企画グループ翔,,その他の設立登記法人,福岡県,福岡市中央区,薬院３丁目３番５号,,40,133,8100022,,,2023-01-18,登記官による閉鎖,,,2015-10-05,1,,,,,,0
2266,6290005004441,登記記録の閉鎖等,0,2023-01-18,2023-01-18,特定非営利活動法人九州グリーンエネルギー,,その他の設立登記法人,福岡県,福岡市城南区,東油山４丁目３番３－２０６号,,40,136,8140155,,,2023-01-18,登記官による閉鎖,,,2015-10-05,1,,,,,,0
2267,6290005004623,登記記録の閉鎖等,0,2023-01-18,2023-01-18,特定非営利活動法人アセアンブリッジビューティフルアース,,その他の設立登記法人,福岡県,福岡市東区,三苫４丁目５番７－２０１号,,40,131,8110201,,,2023-01-18,登記官による閉鎖,,,2015-10-05,1,,,,,,0
2268,6290005006009,登記記録の閉鎖等,0,2023-01-18,2023-01-18,特定非営利活動法人市民生活ネットワーク,,その他の設立登記法人,福岡県,福津市,中央５丁目２０番７－６０１号,,40,224,8113217,,,2023-01-18,登記官による閉鎖,,,2015-10-05,1,,,,,,0
2269,6290005007072,登記記録の閉鎖等,0,2023-01-18,2023-01-18,特定非営利活動法人ｋｉｄｓ－ｔｅｎｎｉｓ．ｃｏｍ,,その他の設立登記法人,福岡県,筑紫野市,俗明院１丁目１４番１５－４０２号,,40,217,8180067,,,2023-01-18,登記官による閉鎖,,,2015-10-05,1,,,,,,0
2270,6290005007122,登記記録の閉鎖等,0,2023-01-18,2023-01-18,特定非営利活動法人コミュニティクラブちくし,,その他の設立登記法人,福岡県,太宰府市,青山４丁目２０番５号,,40,221,8180121,,,2023-01-18,登記官による閉鎖,,,2015-10-05,1,,,,,,0
2271,6290005010844,登記記録の閉鎖等,0,2023-01-18,2023-01-18,ＮＰＯ法人いち膳から見る日本の文化,,その他の設立登記法人,福岡県,久留米市,原古賀町２０番地の１０の３０５号,,40,203,8300046,,,2023-01-18,登記官による閉鎖,,,2015-10-05,1,,,,,,0
2272,6290801000016,登記記録の閉鎖等,0,2023-01-18,2023-01-18,株式会社愛和,,株式会社,福岡県,北九州市小倉北区,木町４丁目１３番１３号,,40,106,8030851,,,2023-01-18,登記官による閉鎖,,,2016-02-19,1,,,,,,0
2273,6290801004140,登記記録の閉鎖等,0,2023-01-18,2023-01-18,株式会社サンクフル,,株式会社,福岡県,北九州市戸畑区,旭町４番１号浅生ビル１階,,40,105,8040083,,,2023-01-18,登記官による閉鎖,,,2015-10-05,1,,,,,,0
2274,6290801008942,登記記録の閉鎖等,0,2023-01-18,2023-01-18,株式会社コーメイ,,株式会社,福岡県,北九州市小倉北区,下到津４丁目８番１７号,,40,106,8030846,,,2023-01-18,登記官による閉鎖,,,2015-10-05,1,,,,,,0
2275,6290801013901,登記記録の閉鎖等,0,2023-01-18,2023-01-18,株式会社山然,,株式会社,福岡県,中間市,扇ヶ浦１丁目２９番２０号,,40,215,8090023,,,2023-01-18,登記官による閉鎖,,,2015-10-05,1,,,,,,0
2276,6290801014057,登記記録の閉鎖等,0,2023-01-18,2023-01-18,リバーサイドエステート株式会社,,株式会社,福岡県,直方市,大字山部８２４番地１,,40,204,8220034,,,2023-01-18,登記官による閉鎖,,,2015-10-05,1,,,,,,0
2277,6290801016103,登記記録の閉鎖等,0,2023-01-18,2023-01-18,株式会社ＳＫＹ,,株式会社,福岡県,北九州市小倉南区,横代南町１丁目１番３０号,,40,107,8020826,,,2023-01-18,登記官による閉鎖,,,2015-10-05,1,,,,,,0
2278,6290801024304,登記記録の閉鎖等,0,2023-01-18,2023-01-18,親和商事株式会社,,株式会社,福岡県,直方市,日吉町１２番２１号,,40,204,8220025,,,2023-01-18,登記官による閉鎖,,,2018-01-25,1,,,,,,0
2279,6290802006482,登記記録の閉鎖等,0,2023-01-18,2023-01-18,有限会社毛利建材店,,有限会社,福岡県,北九州市小倉北区,愛宕２丁目１番２０号,,40,106,8030828,,,2023-01-18,登記官による閉鎖,,,2015-10-05,1,,,,,,0
2280,6290802011540,登記記録の閉鎖等,0,2023-01-18,2023-01-18,有限会社森山電子,,有限会社,福岡県,北九州市小倉北区,赤坂２丁目３番３７－１０１号,,40,106,8020032,,,2023-01-18,登記官による閉鎖,,,2015-10-05,1,,,,,,0
2281,6290802012274,登記記録の閉鎖等,0,2023-01-18,2023-01-18,有限会社誠信建設工業,,有限会社,福岡県,北九州市戸畑区,中原西３丁目３番３５－３０１号,,40,105,8040011,,,2023-01-18,登記官による閉鎖,,,2015-10-05,1,,,,,,0
2282,6290802016614,登記記録の閉鎖等,0,2023-01-18,2023-01-18,有限会社ケイワイエンジニアリング,,有限会社,福岡県,遠賀郡岡垣町,大字手野６４１番地の３,,40,383,8114204,,,2023-01-18,登記官による閉鎖,,,2015-10-05,1,,,,,,0
2283,6290802017389,登記記録の閉鎖等,0,2023-01-18,2023-01-18,有限会社さかえ建設,,有限会社,福岡県,中間市,長津２丁目２５番３号,,40,215,8090036,,,2023-01-18,登記官による閉鎖,,,2015-10-05,1,,,,,,0
2284,6290802018131,登記記録の閉鎖等,0,2023-01-18,2023-01-18,有限会社後藤食品,,有限会社,福岡県,北九州市八幡西区,沖田１丁目１９番５号,,40,109,8070077,,,2023-01-18,登記官による閉鎖,,,2015-10-05,1,,,,,,0
2285,6290802019419,登記記録の閉鎖等,0,2023-01-18,2023-01-18,有限会社不動産のエース,,有限会社,福岡県,北九州市若松区,二島６丁目３番３６号,,40,103,8080103,,,2023-01-18,登記官による閉鎖,,,2015-10-05,1,,,,,,0
2286,6290802023569,登記記録の閉鎖等,0,2023-01-18,2023-01-18,有限会社徳燿工業,00094723,有限会社,福岡県,行橋市,神田町６番２９号,,40,213,8240007,,,2023-01-18,登記官による閉鎖,,,2015-10-05,1,,,,,,0
2287,6290802025747,登記記録の閉鎖等,0,2023-01-18,2023-01-18,有限会社ヨネマル,,有限会社,福岡県,田川郡大任町,大字今任原５６番地の１,,40,608,8240511,,,2023-01-18,登記官による閉鎖,,,2017-03-09,1,,,,,,0
2288,6290805003972,登記記録の閉鎖等,0,2023-01-18,2023-01-18,八幡建設業協同組合,,その他の設立登記法人,福岡県,北九州市八幡西区,楠橋下方１丁目１１番３号,,40,109,8071146,,,2023-01-18,登記官による閉鎖,,,2015-10-05,1,,,,,,0
2289,6290805005358,登記記録の閉鎖等,0,2023-01-18,2023-01-18,特定非営利活動法人コスモス,,その他の設立登記法人,福岡県,北九州市八幡西区,楠橋南２丁目１１番２３号,,40,109,8071143,,,2023-01-18,登記官による閉鎖,,,2015-10-05,1,,,,,,0
2291,6320001011000,登記記録の閉鎖等,0,2023-01-18,2023-01-18,株式会社ゆうしん建設,,株式会社,大分県,中津市,大字伊藤田３０５７番地の３,,44,203,8790111,,,2023-01-18,登記官による閉鎖,,,2015-10-05,1,,,,,,0
2292,6320002002213,登記記録の閉鎖等,0,2023-01-18,2023-01-18,有限会社共栄塗装,,有限会社,大分県,大分市,ひばりケ丘４丁目１７番３号,,44,201,8701115,,,2023-01-18,登記官による閉鎖,,,2015-10-05,1,,,,,,0
2293,6320002007377,登記記録の閉鎖等,0,2023-01-18,2023-01-18,有限会社旅館しずか,,有限会社,大分県,大分市,金池町２丁目１２番１８号,,44,201,8700026,,,2023-01-18,登記官による閉鎖,,,2015-10-05,1,,,,,,0
2294,6320002011965,登記記録の閉鎖等,0,2023-01-18,2023-01-18,有限会社東邦パーツ別府,,有限会社,大分県,別府市,石垣西１０丁目２番１３号,,44,202,8740910,,,2023-01-18,登記官による閉鎖,,,2015-10-05,1,,,,,,0
2295,6320002015529,登記記録の閉鎖等,0,2023-01-18,2023-01-18,有限会社吉中塗装,,有限会社,大分県,杵築市,大字杵築６６５番地の４４８,,44,210,8730001,,,2023-01-18,登記官による閉鎖,,,2015-10-05,1,,,,,,0
2296,6320002016840,登記記録の閉鎖等,0,2023-01-18,2023-01-18,有限会社塩正海研,,有限会社,大分県,佐伯市,蒲江大字畑野浦２５５７番地,,44,205,8762201,,,2023-01-18,登記官による閉鎖,,,2015-10-05,1,,,,,,0
2297,6320005001807,登記記録の閉鎖等,0,2023-01-18,2023-01-18,特定非営利活動法人福祉支援サークル理想,,その他の設立登記法人,大分県,大分市,星和台１丁目６番４号,,44,201,8701114,,,2023-01-18,登記官による閉鎖,,,2015-10-05,1,,,,,,0
2298,6320005003340,登記記録の閉鎖等,0,2023-01-18,2023-01-18,農事組合法人藤野産業,,その他の設立登記法人,大分県,宇佐市,大字金丸９９０番地の１,,44,211,8791128,,,2023-01-18,登記官による閉鎖,,,2015-10-05,1,,,,,,0
2299,6320005005840,登記記録の閉鎖等,0,2023-01-18,2023-01-18,特定非営利活動法人シーウイング,,その他の設立登記法人,大分県,佐伯市,中の島３丁目５８９８番地の３８,,44,205,8760843,,,2023-01-18,登記官による閉鎖,,,2015-10-05,1,,,,,,0
2300,6320203000065,登記記録の閉鎖等,0,2023-01-18,2023-01-18,合資会社スナックケルン,,合資会社,大分県,津久見市,中央町１８番８号,,44,207,8792441,,,2023-01-18,登記官による閉鎖,,,2015-10-05,1,,,,,,0
2326,6370305001015,登記記録の閉鎖等,0,2023-01-18,2023-01-05,特定非営利活動法人雄勝まちづくり協会,,その他の設立登記法人,宮城県,石巻市,雄勝町雄勝字中倉８番地３,,04,202,9861333,,,2023-01-05,清算の結了等,,,2015-10-05,1,,,,,オガツマチヅクリキョウカイ,0
2328,6380001012034,登記記録の閉鎖等,0,2023-01-18,2023-01-16,東北福山通運株式会社,,株式会社,福島県,須賀川市,滑川字中津沢２６番地１,,07,207,9620403,,,2023-01-16,合併による解散等,8010601040551,令和５年１月１日東京都江東区越中島三丁目６番１５号東京福山通運株式会社（8010601040551）に合併し解散,2015-10-05,1,,,,,トウホクフクヤマツウウン,0
2331,6410001006387,登記記録の閉鎖等,0,2023-01-18,2023-01-18,秋北縫製株式会社,,株式会社,秋田県,北秋田市,増沢字村並８番地,,05,213,0184201,,,2023-01-18,登記官による閉鎖,,,2015-10-05,1,,,,,,0
2332,6410002009018,登記記録の閉鎖等,0,2023-01-18,2023-01-18,有限会社仲谷石油店,,有限会社,秋田県,大館市,比内町扇田字南扇田４６番地１,,05,204,0185701,,,2023-01-18,登記官による閉鎖,,,2015-10-05,1,,,,,,0
2345,6460101000070,登記記録の閉鎖等,0,2023-01-18,2023-01-18,株式会社荒木組,,株式会社,北海道,帯広市,緑ケ丘８丁目１番地,,01,207,0800846,,,2023-01-18,登記官による閉鎖,,,2015-10-05,1,,,,,,0
2347,6460301000894,登記記録の閉鎖等,0,2023-01-18,2023-01-18,株式会社岩佐自動車,,株式会社,北海道,北見市,春光町２丁目１７６番地の２０,,01,208,0900801,,,2023-01-18,登記官による閉鎖,,,2015-10-05,1,,,,,,0
2348,6460301003187,登記記録の閉鎖等,0,2023-01-18,2023-01-18,株式会社田村工業,,株式会社,北海道,網走市,字天都山５６番地２,,01,211,0930044,,,2023-01-18,登記官による閉鎖,,,2015-10-05,1,,,,,,0
2352,6490001003609,登記記録の閉鎖等,0,2023-01-18,2023-01-18,株式会社ＰＡＮＤＯＲＡ,,株式会社,高知県,高知市,新本町２丁目１４番２０号,,39,201,7800062,,,2023-01-18,登記官による閉鎖,,,2015-10-05,1,,,,,,0
2353,6490001004565,登記記録の閉鎖等,0,2023-01-18,2023-01-18,鏡證券株式会社,,株式会社,高知県,高知市,升形５番２２号,,39,201,7800861,,,2023-01-18,登記官による閉鎖,,,2015-10-05,1,,,,,,0
2354,6490001005068,登記記録の閉鎖等,0,2023-01-18,2023-01-18,株式会社新沿岸漁業開発,,株式会社,高知県,幡多郡大月町,大字安満地２５５番地,,39,424,7880351,,,2023-01-18,登記官による閉鎖,,,2015-10-05,1,,,,,,0
2355,6490001005225,登記記録の閉鎖等,0,2023-01-18,2023-01-18,株式会社山下食品,,株式会社,高知県,宿毛市,片島１２番５５－３３号,,39,208,7880013,,,2023-01-18,登記官による閉鎖,,,2015-10-05,1,,,,,,0
2357,6490002005686,登記記録の閉鎖等,0,2023-01-18,2023-01-18,有限会社ワイドホーム,,有限会社,高知県,高知市,一宮中町３丁目９番３９号,,39,201,7818134,,,2023-01-18,登記官による閉鎖,,,2015-10-05,1,,,,,,0
2358,6490002012682,登記記録の閉鎖等,0,2023-01-18,2023-01-18,門田建設有限会社,,有限会社,高知県,安芸市,伊尾木６９番地３,,39,203,7840045,,,2023-01-18,登記官による閉鎖,,,2015-10-05,1,,,,,,0
2359,6490005003745,登記記録の閉鎖等,0,2023-01-18,2023-01-18,南四国縫製企画協同組合,,その他の設立登記法人,高知県,高岡郡四万十町,金上野１３４１番地１,,39,412,7860003,,,2023-01-18,登記官による閉鎖,,,2015-10-05,1,,,,,,0
2361,6500002019008,登記記録の閉鎖等,0,2023-01-18,2023-01-16,有限会社福井商事,,有限会社,愛媛県,今治市,蔵敷町２丁目１１番地２４,,38,202,7940044,,,2023-01-16,清算の結了等,,,2015-10-05,1,,,,,フクイショウジ,0
2367,7010001012755,登記記録の閉鎖等,0,2023-01-18,2023-01-10,株式会社エル・イー・シー建築研究所,,株式会社,東京都,墨田区,石原１丁目３４番１０号,,13,107,1300011,,,2023-01-10,清算の結了等,,,2015-10-05,1,,,,,エルイーシーケンチクケンキュウジョ,0
2371,7010001182697,登記記録の閉鎖等,0,2023-01-18,2023-01-04,株式会社ＡＯ,,株式会社,東京都,千代田区,外神田５丁目３番８号,,13,101,1010021,,,2023-01-04,合併による解散等,4010001034505,令和４年１２月３１日東京都千代田区外神田五丁目３番８号株式会社宇土真珠（4010001034505）に合併し解散,2017-04-14,1,,,,,アオ,0
2377,7010002053518,登記記録の閉鎖等,0,2023-01-18,2022-12-28,有限会社肝臓病研究所,,有限会社,東京都,文京区,関口１丁目４７番１２－１１０１号,,13,105,1120014,,,2022-12-28,清算の結了等,,,2015-10-05,1,,,,,カンゾウビョウケンキュウショ,0
2378,7010003025895,登記記録の閉鎖等,0,2023-01-18,2023-01-10,オスカーＵＳファンディング７合同会社,,合同会社,東京都,千代田区,丸の内３丁目１番１号東京共同会計事務所内,,13,101,1000005,,,2023-01-10,清算の結了等,,,2017-08-16,1,,,,,オスカーユーエスファンディングセブン,0
2381,7010401017882,登記記録の閉鎖等,0,2023-01-18,2023-01-16,中央クリーンエイド販売株式会社,,株式会社,東京都,港区,芝５丁目１１番１４号,,13,103,1080014,,,2023-01-16,合併による解散等,7010501017056,令和５年１月１日東京都荒川区東尾久八丁目３番２２号東日本クリーンエイド販売株式会社（7010501017056）に合併し解散,2015-10-05,1,,,,,チュウオウクリーンエイドハンバイ,0
2383,7010401129166,登記記録の閉鎖等,0,2023-01-18,2023-01-10,株式会社Ｅｉｇｈｔｙ　ＳＰＣ,,株式会社,東京都,千代田区,平河町１丁目６番１５号シルスフィア会計事務所内,,13,101,1020093,,,2023-01-10,清算の結了等,,,2017-01-23,1,,,,,エイティエスピーシー,0
2386,7010401151153,登記記録の閉鎖等,0,2023-01-18,2023-01-12,株式会社ＴＥＮＬＡＮＤ,,株式会社,東京都,中央区,日本橋蛎殻町１丁目２６－９ＮＳビル２６Ｂ１Ｆ,,13,102,1030014,,,2023-01-12,合併による解散等,6010001093747,令和５年１月１日東京都江東区豊洲六丁目２番２９－２１０３号株式会社テンランド（6010001093747）に合併し解散,2020-02-18,1,,,,,テンランド,0
2392,7010501009516,登記記録の閉鎖等,0,2023-01-18,2023-01-16,株式会社中伊豆,,株式会社,東京都,台東区,日本堤２丁目２５番１９号,,13,106,1110021,,,2023-01-16,清算の結了等,,,2015-10-05,1,,,,,ナカイズ,0
2405,7011001045786,登記記録の閉鎖等,0,2023-01-18,2023-01-04,株式会社ＤＩ　Ｍａｒｋｅｔｉｎｇ　Ｐａｒｔｎｅｒｓ,,株式会社,東京都,渋谷区,恵比寿南１丁目１５番１号,,13,113,1500022,,,2023-01-04,合併による解散等,1011001117178,令和５年１月１日東京都渋谷区恵比寿南一丁目１５番１号株式会社デジタルアイデンティティ（1011001117178）に合併し解散,2015-10-05,1,,,,,ディーアイマーケティングパートナーズ,0
2418,7011103009177,登記記録の閉鎖等,0,2023-01-18,2023-01-13,合同会社アーストラストエンジニアリング,,合同会社,東京都,新宿区,新宿５丁目１２－１１,,13,104,1600022,,,2023-01-13,清算の結了等,,,2019-10-18,1,,,,,アーストラストエンジニアリング,0
2449,7012701001459,登記記録の閉鎖等,0,2023-01-18,2023-01-18,株式会社末広本舗,,株式会社,東京都,東村山市,廻田町４丁目６番５号,,13,213,1890025,,,2023-01-18,登記官による閉鎖,,,2015-10-05,1,,,,,,0
2450,7012701007992,登記記録の閉鎖等,0,2023-01-18,2023-01-18,株式会社アルファーエポック,,株式会社,東京都,東村山市,久米川町２丁目１３番１５号,,13,213,1890003,,,2023-01-18,登記官による閉鎖,,,2015-10-05,1,,,,,,0
2451,7012701014221,登記記録の閉鎖等,0,2023-01-18,2023-01-18,中村屋産業株式会社,,株式会社,東京都,東村山市,秋津町３丁目１５番地１０,,13,213,1890001,,,2023-01-18,登記官による閉鎖,,,2017-04-12,1,,,,,,0
2452,7012702001128,登記記録の閉鎖等,0,2023-01-18,2023-01-18,有限会社高田左官店,,有限会社,東京都,小平市,津田町３丁目１３番１０１号,,13,211,1870025,,,2023-01-18,登記官による閉鎖,,,2015-10-05,1,,,,,,0
2453,7012702013321,登記記録の閉鎖等,0,2023-01-18,2023-01-18,有限会社あいおい保険エージェンシー,,有限会社,東京都,東村山市,栄町２丁目３２番地６シャポー秋田ビル,,13,213,1890013,,,2023-01-18,登記官による閉鎖,,,2015-10-05,1,,,,,,0
2454,7012801007075,登記記録の閉鎖等,0,2023-01-18,2023-01-17,株式会社石川造園,,株式会社,東京都,武蔵村山市,中央１丁目１１３番地１２,,13,223,2080003,,,2023-01-17,登記官による閉鎖,,,2015-10-05,1,,,,,,0
2460,7013401000494,登記記録の閉鎖等,0,2023-01-18,2023-01-17,株式会社東京カネマン,,株式会社,東京都,日野市,神明２丁目８番地の１６,,13,212,1910016,,,2023-01-17,登記官による閉鎖,,,2015-10-05,1,,,,,,0
2465,7020002019138,登記記録の閉鎖等,0,2023-01-18,2023-01-10,有限会社竹越電気商会,,有限会社,神奈川県,横浜市港南区,日野２丁目２０番３号,,14,111,2340051,,,2023-01-10,清算の結了等,,,2015-10-05,1,,,,,,0
2474,7021003007445,登記記録の閉鎖等,0,2023-01-18,2023-01-12,合同会社ＫＡＮＡ,,合同会社,神奈川県,南足柄市,岩原２４０－１サンハイツ中島１階１０２号室,,14,217,2500113,,,2023-01-12,清算の結了等,,,2018-04-20,1,,,,,カナ,0
2488,7040001056799,登記記録の閉鎖等,0,2023-01-18,2023-01-12,株式会社タカショウコーポレーション,,株式会社,千葉県,鎌ケ谷市,南鎌ケ谷３丁目１番１号,,12,224,2730106,,,2023-01-12,清算の結了等,,,2015-10-05,1,,,,,タカショウコーポレーション,0
2498,7040003015349,登記記録の閉鎖等,0,2023-01-18,2023-01-12,合同会社ＲＡＨ,,合同会社,千葉県,流山市,おおたかの森北２丁目１１番地の４６,,12,220,2700119,,,2023-01-12,清算の結了等,,,2020-05-12,1,,,,,アールエーエイチ,0
2504,7050005009001,登記記録の閉鎖等,0,2023-01-18,2023-01-10,医療法人社団恵祥会,,その他の設立登記法人,茨城県,牛久市,中央３丁目２２番地１,,08,219,3001234,,,2023-01-10,清算の結了等,,,2015-10-05,1,,,,,ケイショウカイ,0
2508,7080001016205,登記記録の閉鎖等,0,2023-01-18,2023-01-18,株式会社花の里,,株式会社,静岡県,焼津市,焼津４丁目３番７号,,22,212,4250026,,,2023-01-18,登記官による閉鎖,,,2015-10-05,1,,,,,,0
2509,7080001017129,登記記録の閉鎖等,0,2023-01-18,2023-01-18,クレバー株式会社,,株式会社,静岡県,藤枝市,藤枝２丁目２番１６号,,22,214,4260025,,,2023-01-18,登記官による閉鎖,,,2015-10-05,1,,,,,,0
2510,7080001017302,登記記録の閉鎖等,0,2023-01-18,2023-01-18,ヤマタデザイン株式会社,,株式会社,静岡県,藤枝市,南新屋４４８番地の３１,,22,214,4260072,,,2023-01-18,登記官による閉鎖,,,2015-10-05,1,,,,,,0
2513,7080002002798,登記記録の閉鎖等,0,2023-01-18,2023-01-18,有限会社白鳥硝子建材,,有限会社,静岡県,静岡市葵区,井宮町１３３番地,,22,101,4200001,,,2023-01-18,登記官による閉鎖,,,2015-10-05,1,,,,,,0
2514,7080002007582,登記記録の閉鎖等,0,2023-01-18,2023-01-18,有限会社亞細亞貿易,,有限会社,静岡県,静岡市駿河区,宮本町８番１０号,,22,102,4228065,,,2023-01-18,登記官による閉鎖,,,2015-10-05,1,,,,,,0
2516,7080002015635,登記記録の閉鎖等,0,2023-01-18,2023-01-18,有限会社エフテック,,有限会社,静岡県,焼津市,石津１３番地の２,,22,212,4250041,,,2023-01-18,登記官による閉鎖,,,2015-10-05,1,,,,,,0
2517,7080101001370,登記記録の閉鎖等,0,2023-01-18,2023-01-18,株式会社成澤地健,,株式会社,静岡県,沼津市,足高３１９番地の１７１,,22,203,4100001,,,2023-01-18,登記官による閉鎖,,,2015-10-05,1,,,,,,0
2518,7080101007418,登記記録の閉鎖等,0,2023-01-18,2023-01-18,株式会社スマイルワークス,,株式会社,静岡県,沼津市,寿町５番地の３,,22,203,4100053,,,2023-01-18,登記官による閉鎖,,,2015-10-05,1,,,,,,0
2519,7080101010685,登記記録の閉鎖等,0,2023-01-18,2023-01-18,株式会社ロイヤルエンタープライズ,,株式会社,静岡県,富士市,今泉１７９２番地の１,,22,210,4170001,,,2023-01-18,登記官による閉鎖,,,2015-10-05,1,,,,,,0
2520,7080101014876,登記記録の閉鎖等,0,2023-01-18,2023-01-18,株式会社鈴木鉄工所,,株式会社,静岡県,賀茂郡西伊豆町,安良里６９４番地の２,,22,306,4103502,,,2023-01-18,登記官による閉鎖,,,2015-10-05,1,,,,,,0
2521,7080102007160,登記記録の閉鎖等,0,2023-01-18,2023-01-18,有限会社田辺水道,,有限会社,静岡県,御殿場市,東田中６２１番地,,22,215,4120026,,,2023-01-18,登記官による閉鎖,,,2015-10-05,1,,,,,,0
2522,7080102007276,登記記録の閉鎖等,0,2023-01-18,2023-01-18,有限会社茄子,,有限会社,静岡県,御殿場市,新橋１８５３番地の１,,22,215,4120043,,,2023-01-18,登記官による閉鎖,,,2015-10-05,1,,,,,,0
2524,7080102019684,登記記録の閉鎖等,0,2023-01-18,2023-01-18,有限会社黒船,,有限会社,静岡県,伊東市,猪戸２丁目２番６号,,22,208,4140004,,,2023-01-18,登記官による閉鎖,,,2015-10-05,1,,,,,,0
2525,7080401006284,登記記録の閉鎖等,0,2023-01-18,2023-01-18,株式会社西山水産,,株式会社,静岡県,浜松市西区,舞阪町長十新田２２２番地,,22,133,4310212,,,2023-01-18,登記官による閉鎖,,,2015-10-05,1,,,,,,0
2527,7080402005624,登記記録の閉鎖等,0,2023-01-18,2023-01-18,有限会社東洋電設,,有限会社,静岡県,浜松市東区,有玉西町２８７８番地の１Ｍｅｓｓａｇｅ有玉西１０２号室,,22,132,4313123,,,2023-01-18,登記官による閉鎖,,,2015-10-05,1,,,,,,0
2528,7080402010467,登記記録の閉鎖等,0,2023-01-18,2023-01-18,アグリシステム有限会社,,有限会社,静岡県,浜松市南区,立野町５１３番地の１,,22,134,4300827,,,2023-01-18,登記官による閉鎖,,,2015-10-05,1,,,,,,0
2529,7080402015706,登記記録の閉鎖等,0,2023-01-18,2023-01-18,有限会社米沢工業所,,有限会社,静岡県,浜松市浜北区,油一色９番地の２,,22,136,4340027,,,2023-01-18,登記官による閉鎖,,,2015-10-05,1,,,,,,0
2530,7080402018493,登記記録の閉鎖等,0,2023-01-18,2023-01-18,有限会社宮島製作所,,有限会社,静岡県,菊川市,下平川４１２３番地の１,,22,224,4371514,,,2023-01-18,登記官による閉鎖,,,2015-10-05,1,,,,,,0
2531,7080402020499,登記記録の閉鎖等,0,2023-01-18,2023-01-18,有限会社アペック,,有限会社,静岡県,磐田市,高木１８６９番地の８,,22,211,4380202,,,2023-01-18,登記官による閉鎖,,,2015-10-05,1,,,,,,0
2532,7080402021919,登記記録の閉鎖等,0,2023-01-18,2023-01-18,有限会社オカモト,,有限会社,静岡県,袋井市,湊９６５番地,,22,216,4371115,,,2023-01-18,登記官による閉鎖,,,2015-10-05,1,,,,,,0
2533,7080403002694,登記記録の閉鎖等,0,2023-01-18,2023-01-18,合同会社ゼブラサービス,,合同会社,静岡県,浜松市南区,三島町１６５９番地フジタハイツＡ１０２号室,,22,134,4300853,,,2023-01-18,登記官による閉鎖,,,2015-10-05,1,,,,,,0
2534,7080405004012,登記記録の閉鎖等,0,2023-01-18,2023-01-18,特定非営利活動法人東海福祉ネット,,その他の設立登記法人,静岡県,浜松市西区,雄踏町宇布見５１５２番地の１,,22,133,4310102,,,2023-01-18,登記官による閉鎖,,,2015-10-05,1,,,,,,0
2535,7090001013985,登記記録の閉鎖等,0,2023-01-18,2023-01-12,株式会社新海造園土木,,株式会社,山梨県,北杜市,明野町下神取１４９番地,,19,209,4080206,,,2023-01-12,清算の結了等,,,2015-10-05,1,,,,,,0
2541,7110001026365,登記記録の閉鎖等,0,2023-01-18,2023-01-16,株式会社スポーリア湯沢,,株式会社,新潟県,南魚沼郡湯沢町,大字湯沢１９２０番地の１,,15,461,9496101,,,2023-01-16,清算の結了等,,,2015-10-05,1,,,,,,0
2543,7120001002828,登記記録の閉鎖等,0,2023-01-18,2023-01-16,日本電工株式会社,,株式会社,大阪府,大阪市鶴見区,横堤１丁目１２番６号,,27,124,5380052,,,2023-01-16,清算の結了等,,,2015-10-05,1,,,,,,0
2544,7120001084420,登記記録の閉鎖等,0,2023-01-18,2023-01-16,ラ・ボーン株式会社,,株式会社,大阪府,大阪市北区,東天満２丁目２番１７号,,27,127,5300044,,,2023-01-16,清算の結了等,,,2015-10-05,1,,,,,,0
2568,7120901009831,登記記録の閉鎖等,0,2023-01-18,2023-01-16,株式会社中尾サービス,,株式会社,大阪府,摂津市,鳥飼西１丁目１２番４号,,27,224,5660072,,,2023-01-16,清算の結了等,,,2015-10-05,1,,,,,,0
2572,7120902015085,登記記録の閉鎖等,0,2023-01-18,2023-01-13,有限会社エフケイデザインファーム,,有限会社,大阪府,箕面市,船場東３丁目２番１１号,,27,220,5620035,,,2023-01-13,清算の結了等,,,2015-10-05,1,,,,,エフケイデザインファーム,0
2594,7180001011939,登記記録の閉鎖等,0,2023-01-18,2023-01-17,株式会社共栄印刷紙工,,株式会社,愛知県,名古屋市北区,紅雲町２３番地,,23,103,4620857,,,2023-01-17,登記官による閉鎖,,,2017-02-16,1,,,,,,0
2595,7180001017143,登記記録の閉鎖等,0,2023-01-18,2023-01-17,株式会社ソーワプロポーザル,,株式会社,愛知県,名古屋市東区,泉３丁目７番５号,,23,102,4610001,,,2023-01-17,登記官による閉鎖,,,2015-10-05,1,,,,,,0
2596,7180001018125,登記記録の閉鎖等,0,2023-01-18,2023-01-17,藤定株式会社,,株式会社,愛知県,名古屋市東区,東桜２丁目１７番２５号,,23,102,4610005,,,2023-01-17,登記官による閉鎖,,,2015-10-05,1,,,,,,0
2597,7180001035252,登記記録の閉鎖等,0,2023-01-18,2023-01-17,株式会社ガム,,株式会社,愛知県,名古屋市中区,栄１丁目３１番１２号,,23,106,4600008,,,2023-01-17,登記官による閉鎖,,,2015-10-05,1,,,,,,0
2598,7180001041399,登記記録の閉鎖等,0,2023-01-18,2023-01-17,株式会社名立電気商会,,株式会社,愛知県,名古屋市中区,金山３丁目１５番４号,,23,106,4600022,,,2023-01-17,登記官による閉鎖,,,2015-10-05,1,,,,,,0
2599,7180001064350,登記記録の閉鎖等,0,2023-01-18,2023-01-17,株式会社シルフィ,,株式会社,愛知県,名古屋市中村区,宿跡町３丁目３６番地,,23,105,4530067,,,2023-01-17,登記官による閉鎖,,,2015-10-05,1,,,,,,0
2600,7180001067873,登記記録の閉鎖等,0,2023-01-18,2023-01-17,株式会社大成不動産,,株式会社,愛知県,長久手市,岩作桃ノ木洞３４番地の７,,23,238,4801103,,,2023-01-17,登記官による閉鎖,,,2015-10-05,1,,,,,,0
2601,7180001091106,登記記録の閉鎖等,0,2023-01-18,2023-01-17,株式会社ヒューマントラスト,,株式会社,愛知県,名古屋市東区,矢田１丁目９番２２号,,23,102,4610040,,,2023-01-17,登記官による閉鎖,,,2015-10-05,1,,,,,,0
2602,7180001094513,登記記録の閉鎖等,0,2023-01-18,2023-01-17,株式会社ヒメモン,,株式会社,愛知県,東海市,富木島町北島７７番地の１,,23,222,4760011,,,2023-01-17,登記官による閉鎖,,,2015-10-05,1,,,,,,0
2603,7180001095354,登記記録の閉鎖等,0,2023-01-18,2023-01-17,株式会社ふところ工房,,株式会社,愛知県,知多郡美浜町,大字上野間字的場１１番地１,,23,446,4703231,,,2023-01-17,登記官による閉鎖,,,2015-10-05,1,,,,,,0
2604,7180001104180,登記記録の閉鎖等,0,2023-01-18,2023-01-17,株式会社野村ビジネスインターナショナル,,株式会社,愛知県,名古屋市名東区,猪高台２丁目１０１番地,,23,115,4650028,,,2023-01-17,登記官による閉鎖,,,2015-10-05,1,,,,,,0
2605,7180001107241,登記記録の閉鎖等,0,2023-01-18,2023-01-17,株式会社オプト,,株式会社,愛知県,名古屋市中村区,名駅南１丁目２３番１４号,,23,105,4500003,,,2023-01-17,登記官による閉鎖,,,2015-10-05,1,,,,,,0
2615,7180002021210,登記記録の閉鎖等,0,2023-01-18,2023-01-17,有限会社オートセンター山田,,有限会社,愛知県,名古屋市天白区,平針２丁目１７０９番地,,23,116,4680011,,,2023-01-17,登記官による閉鎖,,,2015-10-05,1,,,,,,0
2616,7180002027240,登記記録の閉鎖等,0,2023-01-18,2023-01-17,有限会社エヌ・デー・ピー,,有限会社,愛知県,名古屋市天白区,池場１丁目２０６番地新音聞橋ビル１Ｆ,,23,116,4680055,,,2023-01-17,登記官による閉鎖,,,2015-10-05,1,,,,,,0
2617,7180002031077,登記記録の閉鎖等,0,2023-01-18,2023-01-17,有限会社シー・エス・ピー,,有限会社,愛知県,名古屋市緑区,鳴海町字小森８番地の１,,23,114,4580841,,,2023-01-17,登記官による閉鎖,,,2015-10-05,1,,,,,,0
2618,7180002043353,登記記録の閉鎖等,0,2023-01-18,2023-01-17,有限会社村上電機商会,,有限会社,愛知県,名古屋市中村区,岩塚町３丁目１６３番地,,23,105,4530862,,,2023-01-17,登記官による閉鎖,,,2015-10-05,1,,,,,,0
2619,7180002055761,登記記録の閉鎖等,0,2023-01-18,2023-01-17,有限会社丸徳質店,,有限会社,愛知県,名古屋市中区,金山１丁目１１番１０号,,23,106,4600022,,,2023-01-17,登記官による閉鎖,,,2015-10-05,1,,,,,,0
2620,7180002078432,登記記録の閉鎖等,0,2023-01-18,2023-01-17,有限会社なまずや,,有限会社,愛知県,一宮市,三条字エグロ４番地の４,,23,203,4940003,,,2023-01-17,登記官による閉鎖,,,2015-10-05,1,,,,,,0
2621,7180003008314,登記記録の閉鎖等,0,2023-01-18,2023-01-17,合資会社トルノマックス,,合資会社,愛知県,名古屋市北区,福徳町９４４番地,,23,103,4620052,,,2023-01-17,登記官による閉鎖,,,2015-10-05,1,,,,,,0
2622,7180005004105,登記記録の閉鎖等,0,2023-01-18,2023-01-17,中部食肉流通卸売事業協同組合,,その他の設立登記法人,愛知県,名古屋市熱田区,六野１丁目３０６番地,,23,109,4560023,,,2023-01-17,登記官による閉鎖,,,2015-10-05,1,,,,,,0
2623,7180005004600,登記記録の閉鎖等,0,2023-01-18,2023-01-17,平和が丘商店街協同組合,,その他の設立登記法人,愛知県,名古屋市名東区,平和が丘１丁目１１０番地の２,,23,115,4650097,,,2023-01-17,登記官による閉鎖,,,2015-10-05,1,,,,,,0
2624,7180005010524,登記記録の閉鎖等,0,2023-01-18,2023-01-17,特定非営利活動法人国際産業開発機構,,その他の設立登記法人,愛知県,稲沢市,稲島東３丁目１０８番地１号,,23,220,4928230,,,2023-01-17,登記官による閉鎖,,,2015-10-05,1,,,,,,0
2625,7180005011332,登記記録の閉鎖等,0,2023-01-18,2023-01-17,あいあい協同組合,,その他の設立登記法人,愛知県,岩倉市,稲荷町半田６１５番地の１０,,23,228,4820012,,,2023-01-17,登記官による閉鎖,,,2015-10-05,1,,,,,,0
2641,7250001007962,登記記録の閉鎖等,0,2023-01-18,2023-01-18,株式会社スカイ,,株式会社,福岡県,北九州市小倉北区,富野台６番１５号,,40,106,8020033,,,2023-01-18,登記官による閉鎖,,,2015-10-05,1,,,,,,0
2647,7260001034353,登記記録の閉鎖等,0,2023-01-18,2023-01-12,株式会社維新ゲーミング,,株式会社,岡山県,岡山市北区,西辛川８２７－１,,33,101,7011213,,,2023-01-12,清算の結了等,,,2020-05-22,1,,,,,イシンゲーミンング,0
2650,7290001026083,登記記録の閉鎖等,0,2023-01-18,2023-01-18,建材ドットオルグ株式会社,,株式会社,福岡県,福岡市中央区,赤坂１丁目７番１０号,,40,133,8100042,,,2023-01-18,登記官による閉鎖,,,2015-10-05,1,,,,,,0
2651,7290001036529,登記記録の閉鎖等,0,2023-01-18,2023-01-18,株式会社松本実業,,株式会社,福岡県,福津市,花見が浜１丁目４番１８号,,40,224,8113216,,,2023-01-18,登記官による閉鎖,,,2015-10-05,1,,,,,,0
2652,7290001037279,登記記録の閉鎖等,0,2023-01-18,2023-01-18,株式会社本田電気,,株式会社,福岡県,福津市,内殿８１１番地１０,,40,224,8113205,,,2023-01-18,登記官による閉鎖,,,2015-10-05,1,,,,,,0
2653,7290001041470,登記記録の閉鎖等,0,2023-01-18,2023-01-18,株式会社ジュエリーエイシン,,株式会社,福岡県,春日市,大土居３丁目６７番地,,40,218,8160847,,,2023-01-18,登記官による閉鎖,,,2015-10-05,1,,,,,,0
2654,7290001049150,登記記録の閉鎖等,0,2023-01-18,2023-01-18,株式会社ダンベル,,株式会社,福岡県,久留米市,御井旗崎５丁目８６４－１１,,40,203,8390841,,,2023-01-18,登記官による閉鎖,,,2015-10-05,1,,,,,,0
2660,7290002002926,登記記録の閉鎖等,0,2023-01-18,2023-01-18,有限会社トムボーイ,,有限会社,福岡県,福岡市南区,平和１丁目２７番３３号,,40,134,8150071,,,2023-01-18,登記官による閉鎖,,,2015-10-05,1,,,,,,0
2661,7290002004856,登記記録の閉鎖等,0,2023-01-18,2023-01-18,有限会社サンエス建設,,有限会社,福岡県,福岡市東区,大岳２丁目１１番３号,,40,131,8110322,,,2023-01-18,登記官による閉鎖,,,2015-10-05,1,,,,,,0
2662,7290002005350,登記記録の閉鎖等,0,2023-01-18,2023-01-18,有限会社ティエムケー,,有限会社,福岡県,福岡市東区,原田４丁目２８－８,,40,131,8120063,,,2023-01-18,登記官による閉鎖,,,2015-10-05,1,,,,,,0
2664,7290002017998,登記記録の閉鎖等,0,2023-01-18,2023-01-18,有限会社やました,,有限会社,福岡県,福岡市博多区,麦野４丁目３１番１６号,,40,132,8120882,,,2023-01-18,登記官による閉鎖,,,2015-10-05,1,,,,,,0
2665,7290002020647,登記記録の閉鎖等,0,2023-01-18,2023-01-18,有限会社西日本新聞エリアセンター上山門,,有限会社,福岡県,福岡市西区,上山門２丁目５番１４号,,40,135,8190054,,,2023-01-18,登記官による閉鎖,,,2015-10-05,1,,,,,,0
2666,7290002022024,登記記録の閉鎖等,0,2023-01-18,2023-01-18,有限会社イシワコープス,,有限会社,福岡県,福岡市早良区,大字脇山字大楽２６９３番地,,40,137,8111111,,,2023-01-18,登記官による閉鎖,,,2015-10-05,1,,,,,,0
2667,7290002026149,登記記録の閉鎖等,0,2023-01-18,2023-01-18,有限会社オンザロード,,有限会社,福岡県,福岡市博多区,東光寺町２丁目７番５号,,40,132,8120896,,,2023-01-18,登記官による閉鎖,,,2015-10-05,1,,,,,,0
2668,7290002031702,登記記録の閉鎖等,0,2023-01-18,2023-01-18,有限会社タクト,,有限会社,福岡県,福岡市西区,小戸４丁目９番１２号,,40,135,8190001,,,2023-01-18,登記官による閉鎖,,,2015-10-05,1,,,,,,0
2669,7290002035034,登記記録の閉鎖等,0,2023-01-18,2023-01-18,有限会社エスワイビジネス,,有限会社,福岡県,宗像市,栄町７番地４,,40,220,8114173,,,2023-01-18,登記官による閉鎖,,,2015-10-05,1,,,,,,0
2670,7290002037419,登記記録の閉鎖等,0,2023-01-18,2023-01-18,有限会社アミティホーム企画,,有限会社,福岡県,糟屋郡粕屋町,大字仲原２１８２番地の５,,40,349,8112304,,,2023-01-18,登記官による閉鎖,,,2015-10-05,1,,,,,,0
2672,7290002040934,登記記録の閉鎖等,0,2023-01-18,2023-01-18,有限会社ダイコーアクア,,有限会社,福岡県,春日市,小倉６丁目１１番地大興ビル２階,,40,218,8160824,,,2023-01-18,登記官による閉鎖,,,2015-10-05,1,,,,,,0
2676,7290002055197,登記記録の閉鎖等,0,2023-01-18,2023-01-18,有限会社巧庄設計,,有限会社,福岡県,大牟田市,明治町３丁目６３番地１,,40,202,8360012,,,2023-01-18,登記官による閉鎖,,,2015-10-05,1,,,,,,0
2678,7290005002262,登記記録の閉鎖等,0,2023-01-18,2023-01-18,福岡市企業協同組合,,その他の設立登記法人,福岡県,福岡市博多区,住吉５丁目２番１２号,,40,132,8120018,,,2023-01-18,登記官による閉鎖,,,2015-10-05,1,,,,,,0
2679,7290005002469,登記記録の閉鎖等,0,2023-01-18,2023-01-18,福岡再生資源協同組合,,その他の設立登記法人,福岡県,福岡市西区,上山門３丁目１６番５２号,,40,135,8190054,,,2023-01-18,登記官による閉鎖,,,2017-05-01,1,,,,,,0
2680,7290005004011,登記記録の閉鎖等,0,2023-01-18,2023-01-18,企業組合生活改善普及会,,その他の設立登記法人,福岡県,福岡市中央区,荒戸２丁目１番２３号,,40,133,8100062,,,2023-01-18,登記官による閉鎖,,,2015-10-05,1,,,,,,0
2681,7290005004036,登記記録の閉鎖等,0,2023-01-18,2023-01-18,特定非営利活動法人環境問題研究所,,その他の設立登記法人,福岡県,福岡市中央区,春吉３丁目２２番地２４,,40,133,8100003,,,2023-01-18,登記官による閉鎖,,,2015-10-05,1,,,,,,0
2682,7290005008565,登記記録の閉鎖等,0,2023-01-18,2023-01-18,特定非営利活動法人海外臓器移植支援基金,,その他の設立登記法人,福岡県,嘉麻市,下山田３４番地９,,40,227,8210011,,,2023-01-18,登記官による閉鎖,,,2015-10-05,1,,,,,,0
2683,7290801003257,登記記録の閉鎖等,0,2023-01-18,2023-01-18,株式会社フジリプロ,,株式会社,福岡県,北九州市小倉北区,原町１丁目２１番２号,,40,106,8030815,,,2023-01-18,登記官による閉鎖,,,2015-10-05,1,,,,,,0
2684,7290801007308,登記記録の閉鎖等,0,2023-01-18,2023-01-18,北九フードビジネス株式会社,,株式会社,福岡県,北九州市小倉北区,三萩野２丁目９番９－２０２号,,40,106,8020065,,,2023-01-18,登記官による閉鎖,,,2015-10-05,1,,,,,,0
2688,7290802009187,登記記録の閉鎖等,0,2023-01-18,2023-01-18,有限会社エステサロン彩結美,,有限会社,福岡県,北九州市門司区,吉志５丁目１２番１４号,,40,101,8000114,,,2023-01-18,登記官による閉鎖,,,2015-10-05,1,,,,,,0
2689,7290802014749,登記記録の閉鎖等,0,2023-01-18,2023-01-18,有限会社電波通信,,有限会社,福岡県,北九州市八幡西区,則松７丁目１番１０号,,40,109,8070831,,,2023-01-18,登記官による閉鎖,,,2015-10-05,1,,,,,,0
2690,7290802025787,登記記録の閉鎖等,0,2023-01-18,2023-01-18,有限会社幸,,有限会社,福岡県,田川郡川崎町,大字川崎６１７番地の９８,,40,605,8270003,,,2023-01-18,登記官による閉鎖,,,2015-10-05,1,,,,,サチ,0
2691,7290805000762,登記記録の閉鎖等,0,2023-01-18,2023-01-18,協同組合北方新町商店会,,その他の設立登記法人,福岡県,北九州市小倉南区,北方１丁目１３番９号,,40,107,8020841,,,2023-01-18,登記官による閉鎖,,,2015-10-05,1,,,,,,0
2692,7290805003294,登記記録の閉鎖等,0,2023-01-18,2023-01-18,門司市大里馬寄共栄協同組合,,その他の設立登記法人,福岡県,北九州市門司区,社ノ木１丁目８番８号,,40,101,8000054,,,2023-01-18,登記官による閉鎖,,,2015-10-05,1,,,,,,0
2693,7290805003501,登記記録の閉鎖等,0,2023-01-18,2023-01-18,特定非営利活動法人万国連邦教育振興会,,その他の設立登記法人,福岡県,北九州市小倉北区,貴船町１８番６号,,40,106,8020073,,,2023-01-18,登記官による閉鎖,,,2015-10-05,1,,,,,,0
2694,7290805004838,登記記録の閉鎖等,0,2023-01-18,2023-01-18,団地管理組合法人宮尾台自治管理組合,,その他の設立登記法人,福岡県,遠賀郡水巻町,宮尾台７番９号,,40,382,8070041,,,2023-01-18,登記官による閉鎖,,,2015-10-05,1,,,,,,0
2695,7290805004961,登記記録の閉鎖等,0,2023-01-18,2023-01-18,特定非営利活動法人全国自由同和会福岡県連合会,,その他の設立登記法人,福岡県,北九州市八幡西区,森下町１４０３番,,40,109,8060046,,,2023-01-18,登記官による閉鎖,,,2015-10-05,1,,,,,,0
2696,7290805007915,登記記録の閉鎖等,0,2023-01-18,2023-01-18,特定非営利活動法人ＮＰＯ筑豊市民オンブズマン田川,,その他の設立登記法人,福岡県,田川市,大字伊田２７０５番地の１３,,40,206,8250002,,,2023-01-18,登記官による閉鎖,,,2015-10-05,1,,,,,,0
2698,7320001002774,登記記録の閉鎖等,0,2023-01-18,2023-01-18,株式会社ヤマヒコ水産,,株式会社,大分県,大分市,府内町３丁目４番３６号,,44,201,8700021,,,2023-01-18,登記官による閉鎖,,,2015-10-05,1,,,,,,0
2699,7320001008045,登記記録の閉鎖等,0,2023-01-18,2023-01-18,カットサロン・ファミリー株式会社,,株式会社,大分県,宇佐市,大字芝原１４９番地２,,44,211,8790457,,,2023-01-18,登記官による閉鎖,,,2015-10-05,1,,,,,,0
2700,7320001009324,登記記録の閉鎖等,0,2023-01-18,2023-01-18,株式会社直丸,,株式会社,大分県,佐伯市,東町１２２５１番地２,,44,205,8760814,,,2023-01-18,登記官による閉鎖,,,2015-10-05,1,,,,,,0
2702,7320002003697,登記記録の閉鎖等,0,2023-01-18,2023-01-18,有限会社菅海事,,有限会社,大分県,大分市,王子中町６番７号,,44,201,8700006,,,2023-01-18,登記官による閉鎖,,,2015-10-05,1,,,,,,0
2703,7320002003895,登記記録の閉鎖等,0,2023-01-18,2023-01-18,有限会社総合電機大分,,有限会社,大分県,大分市,大字永興６０４番地の６,,44,201,8700883,,,2023-01-18,登記官による閉鎖,,,2015-10-05,1,,,,,,0
2704,7320002006171,登記記録の閉鎖等,0,2023-01-18,2023-01-18,有限会社豊城工業,,有限会社,大分県,大分市,大字廻栖野８７５番地,,44,201,8701201,,,2023-01-18,登記官による閉鎖,,,2015-10-05,1,,,,,,0
2705,7320002006816,登記記録の閉鎖等,0,2023-01-18,2023-01-18,有限会社明電設,,有限会社,大分県,大分市,大字木上１４２９番地の３,,44,201,8701161,,,2023-01-18,登記官による閉鎖,,,2015-10-05,1,,,,,,0
2706,7320002010743,登記記録の閉鎖等,0,2023-01-18,2023-01-18,有限会社安全急便,,有限会社,大分県,別府市,石垣東４丁目１番１０号,,44,202,8740919,,,2023-01-18,登記官による閉鎖,,,2015-10-05,1,,,,,,0
2707,7320002018539,登記記録の閉鎖等,0,2023-01-18,2023-01-18,有限会社小の建設,,有限会社,大分県,豊後大野市,大野町田中２４番地１,,44,212,8796441,,,2023-01-18,登記官による閉鎖,,,2015-10-05,1,,,,,,0
2708,7320005003323,登記記録の閉鎖等,0,2023-01-18,2023-01-18,農事組合法人猿渡すいか生産組合,,その他の設立登記法人,大分県,宇佐市,大字下高２６番地,,44,211,8790317,,,2023-01-18,登記官による閉鎖,,,2015-10-05,1,,,,,,0
2709,7320005005798,登記記録の閉鎖等,0,2023-01-18,2023-01-18,特定非営利活動法人ウイング,,その他の設立登記法人,大分県,佐伯市,野岡町２丁目１４番３６号,,44,205,8760815,,,2023-01-18,登記官による閉鎖,,,2015-10-05,1,,,,,,0
2710,7320005005823,登記記録の閉鎖等,0,2023-01-18,2023-01-18,特定非営利活動法人佐伯を良くする会,,その他の設立登記法人,大分県,佐伯市,１０３８６番地７,,44,205,8760000,,,2023-01-18,登記官による閉鎖,,,2015-10-05,1,,,,,,0
2711,7320005006672,登記記録の閉鎖等,0,2023-01-18,2023-01-18,農事組合法人自然科学研究所,,その他の設立登記法人,大分県,竹田市,大字平田１９６５番地３,,44,208,8780006,,,2023-01-18,登記官による閉鎖,,,2015-10-05,1,,,,,,0
2720,7380001015218,登記記録の閉鎖等,0,2023-01-18,2023-01-13,株式会社ＰＲＯＶＩＳＩＯＮ,,株式会社,福島県,いわき市,平塩字古川７９番地の１大洋マンション１０２号,,07,204,9708022,,,2023-01-13,清算の結了等,,,2015-10-05,1,,,,,プロビジョン,0
2722,7410001002055,登記記録の閉鎖等,0,2023-01-18,2023-01-18,日本アスコン株式会社,,株式会社,秋田県,秋田市,山王５丁目１００番地,,05,201,0100951,,,2023-01-18,登記官による閉鎖,,,2015-10-05,1,,,,,,0
2724,7410001005818,登記記録の閉鎖等,0,2023-01-18,2023-01-18,株式会社古関,,株式会社,秋田県,湯沢市,川連町字大舘４９番地,,05,207,0120105,,,2023-01-18,登記官による閉鎖,,,2015-10-05,1,,,,,,0
2725,7410001008044,登記記録の閉鎖等,0,2023-01-18,2023-01-18,日之出タクシー株式会社,,株式会社,秋田県,大仙市,大曲日の出町２丁目５番５号,,05,212,0140063,,,2023-01-18,登記官による閉鎖,,,2015-10-05,1,,,,,,0
2726,7410002012846,登記記録の閉鎖等,0,2023-01-18,2023-01-18,有限会社東亜,,有限会社,秋田県,仙北市,田沢湖生保内字十里木９７番地,,05,215,0141201,,,2023-01-18,登記官による閉鎖,,,2015-10-05,1,,,,,,0
2727,7410002014041,登記記録の閉鎖等,0,2023-01-18,2023-01-18,有限会社ナイスホーム,,有限会社,秋田県,能代市,字大瀬儘下４６番地３３,,05,202,0160181,,,2023-01-18,登記官による閉鎖,,,2017-03-30,1,,,,,,0
2728,7410003001468,登記記録の閉鎖等,0,2023-01-18,2023-01-18,昭和興産合資会社,,合資会社,秋田県,北秋田市,鷹巣字八幡岱１番地の１０,,05,213,0183331,,,2023-01-18,登記官による閉鎖,,,2015-10-05,1,,,,,,0
2736,7460101004186,登記記録の閉鎖等,0,2023-01-18,2023-01-18,株式会社ニューソフトジャパン,,株式会社,北海道,帯広市,西十九条南５丁目４４番１８号,,01,207,0802469,,,2023-01-18,登記官による閉鎖,,,2015-10-05,1,,,,,,0
2738,7460105001832,登記記録の閉鎖等,0,2023-01-18,2023-01-18,特定非営利活動法人フクジュソウ,,その他の設立登記法人,北海道,帯広市,西一条南８丁目９番地エバーハウス菜の花方,,01,207,0800011,,,2023-01-18,登記官による閉鎖,,,2015-10-05,1,,,,,,0
2739,7460302000843,登記記録の閉鎖等,0,2023-01-18,2023-01-18,有限会社鈴木左官工業所,,有限会社,北海道,北見市,美芳町３丁目６番２０号,,01,208,0900064,,,2023-01-18,登記官による閉鎖,,,2015-10-05,1,,,,,,0
2740,7460302003821,登記記録の閉鎖等,0,2023-01-18,2023-01-18,有限会社カープラザかけはし,,有限会社,北海道,北見市,東相内町２１０番地の３,,01,208,0990878,,,2023-01-18,登記官による閉鎖,,,2017-11-24,1,,,,,,0
2741,7460302004852,登記記録の閉鎖等,0,2023-01-18,2023-01-18,有限会社知床ハイヤー,,有限会社,北海道,斜里郡斜里町,青葉町２７番地１６,,01,545,0994117,,,2023-01-18,登記官による閉鎖,,,2015-10-05,1,,,,,,0
2748,7490001000737,登記記録の閉鎖等,0,2023-01-18,2023-01-18,株式会社清家商会,,株式会社,高知県,高知市,はりまや町３丁目１１番２５号,,39,201,7800822,,,2023-01-18,登記官による閉鎖,,,2015-11-24,1,,,,,,0
2749,7490001001140,登記記録の閉鎖等,0,2023-01-18,2023-01-18,株式会社高岡建設,,株式会社,高知県,高知市,朝倉丙２１１７番地１３,,39,201,7808063,,,2023-01-18,登記官による閉鎖,,,2015-10-05,1,,,,,,0
2750,7490001002106,登記記録の閉鎖等,0,2023-01-18,2023-01-18,株式会社山中建築設計事務所,,株式会社,高知県,高知市,上町２丁目５番２７号,,39,201,7800901,,,2023-01-18,登記官による閉鎖,,,2015-10-05,1,,,,,,0
2751,7490001002246,登記記録の閉鎖等,0,2023-01-18,2023-01-18,株式会社マサキ電商,,株式会社,高知県,高知市,上町５丁目６番３０号,,39,201,7800901,,,2023-01-18,登記官による閉鎖,,,2015-10-05,1,,,,,,0
2752,7490001006610,登記記録の閉鎖等,0,2023-01-18,2023-01-18,株式会社風人ファーム,,株式会社,高知県,南国市,岡豊町江村４６番地１,,39,204,7830046,,,2023-01-18,登記官による閉鎖,,,2015-10-05,1,,,,,,0
2753,7490001008994,登記記録の閉鎖等,0,2023-01-18,2023-01-18,株式会社川崎機械製作所,,株式会社,高知県,高知市,高須９３４番地６,,39,201,7818123,,,2023-01-18,登記官による閉鎖,,,2018-07-11,1,,,,,カワサキキカイセイサクショ,0
2763,8010001186425,登記記録の閉鎖等,0,2023-01-18,2023-01-04,Ｍｏｄｅｌｍａｐ株式会社,,株式会社,東京都,中央区,銀座７丁目１５番８号タウンハイツ銀座４０６,,13,102,1040061,,,2023-01-04,清算の結了等,,,2017-09-25,1,,,,,モデルマップ,0
2765,8010001227609,登記記録の閉鎖等,0,2023-01-18,2023-01-05,株式会社ＫＬ２,,株式会社,東京都,千代田区,丸の内３丁目１番１号東京共同会計事務所内,,13,101,1000005,,,2023-01-05,合併による解散等,6010001226521,令和５年１月１日東京都千代田区丸の内三丁目１番１号東京共同会計事務所内株式会社ＣＨ（6010001226521）に合併し解散,2022-06-27,1,,,,,ケーエルツー,0
2772,8010005031263,登記記録の閉鎖等,0,2023-01-18,2023-01-16,一般財団法人スマイル財団,,その他の設立登記法人,東京都,足立区,竹の塚５丁目２５番７号桜館Ａ１０３,00128401,13,121,1210813,,,2023-01-16,清算の結了等,,,2020-01-09,1,,,,,スマイルザイダン,0
2779,8010403024752,登記記録の閉鎖等,0,2023-01-18,2022-12-28,ＫＷＮ　Ｃｏｎｓｕｌｔｉｎｇ合同会社,,合同会社,東京都,港区,南青山２丁目２番１５号,,13,103,1070062,,,2022-12-28,清算の結了等,,,2021-02-25,1,,,,,ケーダブリューエヌコンサルティング,0
2784,8010501028911,登記記録の閉鎖等,0,2023-01-18,2023-01-16,株式会社ユビテック,,株式会社,東京都,台東区,東上野１丁目９番３号,,13,106,1100015,,,2023-01-16,清算の結了等,,,2015-10-05,1,,,,,ユビテック,0
2806,8011201004079,登記記録の閉鎖等,0,2023-01-18,2023-01-04,日本機器工業株式会社,,株式会社,東京都,中野区,若宮２丁目５５番５号,,13,114,1650033,,,2023-01-04,合併による解散等,7011201003115,令和５年１月１日東京都中野区若宮二丁目５５番５号サギノミヤホールディングス株式会社（7011201003115）に合併し解散,2015-10-05,1,,,,,ニホンキキコウギョウ,0
2819,8012401002310,登記記録の閉鎖等,0,2023-01-18,2023-01-17,株式会社多摩木材,,株式会社,東京都,国分寺市,北町２丁目２５番地１５,,13,214,1850001,,,2023-01-17,登記官による閉鎖,,,2015-10-05,1,,,,,,0
2822,8012402000131,登記記録の閉鎖等,0,2023-01-18,2023-01-17,有限会社梓製作所,,有限会社,東京都,国立市,青柳１５７番地の２,,13,215,1860013,,,2023-01-17,登記官による閉鎖,,,2015-10-05,1,,,,,,0
2823,8012402004017,登記記録の閉鎖等,0,2023-01-18,2023-01-17,有限会社日本グラビア,,有限会社,東京都,国分寺市,西恋ヶ窪３丁目２４番地１９,,13,214,1850013,,,2023-01-17,登記官による閉鎖,,,2015-10-05,1,,,,,,0
2824,8012402004157,登記記録の閉鎖等,0,2023-01-18,2023-01-17,有限会社富士久,,有限会社,東京都,国分寺市,新町３丁目２５番地５,,13,214,1850004,,,2023-01-17,登記官による閉鎖,,,2015-10-05,1,,,,,,0
2825,8012701007926,登記記録の閉鎖等,0,2023-01-18,2023-01-18,株式会社Ａｍｕｓｅ,,株式会社,東京都,東久留米市,中央町１丁目１９番１６号,,13,222,2030054,,,2023-01-18,登記官による閉鎖,,,2015-10-05,1,,,,,,0
2826,8012701010582,登記記録の閉鎖等,0,2023-01-18,2023-01-18,株式会社ＮＥＯ,,株式会社,東京都,西東京市,北町３丁目８番２３号,,13,229,2020003,,,2023-01-18,登記官による閉鎖,,,2015-10-05,1,,,,,,0
2827,8012701011399,登記記録の閉鎖等,0,2023-01-18,2023-01-18,株式会社丸長,,株式会社,東京都,小平市,小川町１丁目３３３番地の２パディ３，２０１号,,13,211,1870032,,,2023-01-18,登記官による閉鎖,,,2015-10-05,1,,,,,,0
2828,8012702001647,登記記録の閉鎖等,0,2023-01-18,2023-01-18,有限会社プランニングオフィス・ティー・ジー,,有限会社,東京都,小平市,上水本町３丁目１６番２号,,13,211,1870022,,,2023-01-18,登記官による閉鎖,,,2015-10-05,1,,,,,,0
2829,8012702002785,登記記録の閉鎖等,0,2023-01-18,2023-01-18,有限会社サンホールドジャパン,,有限会社,東京都,東村山市,久米川町４丁目２８番地,,13,213,1890003,,,2023-01-18,登記官による閉鎖,,,2015-10-05,1,,,,,,0
2830,8012702012660,登記記録の閉鎖等,0,2023-01-18,2023-01-18,有限会社光政建設,,有限会社,東京都,清瀬市,下清戸５丁目８３７番地の３１,,13,221,2040011,,,2023-01-18,登記官による閉鎖,,,2015-10-05,1,,,,,,0
2831,8012702013287,登記記録の閉鎖等,0,2023-01-18,2023-01-18,有限会社フラワー,,有限会社,東京都,東久留米市,氷川台２丁目３１番２２号,,13,222,2030004,,,2023-01-18,登記官による閉鎖,,,2015-10-05,1,,,,,,0
2832,8012802004252,登記記録の閉鎖等,0,2023-01-18,2023-01-17,有限会社オフィス・マザー,,有限会社,東京都,武蔵村山市,大南３丁目１０５番地の１,,13,223,2080013,,,2023-01-17,登記官による閉鎖,,,2015-10-05,1,,,,,,0
2833,8012803000515,登記記録の閉鎖等,0,2023-01-18,2023-01-17,合同会社グロリアデイ,,合同会社,東京都,東大和市,蔵敷２丁目５３４番地２,,13,220,2070032,,,2023-01-17,登記官による閉鎖,,,2015-10-05,1,,,,,,0
2837,8013402000385,登記記録の閉鎖等,0,2023-01-18,2023-01-17,有限会社オマタ板金工業,,有限会社,東京都,日野市,旭が丘５丁目１５番地の２,,13,212,1910065,,,2023-01-17,登記官による閉鎖,,,2015-10-05,1,,,,,,0
2855,8030001067235,登記記録の閉鎖等,0,2023-01-18,2023-01-13,株式会社ライラック,,株式会社,埼玉県,草加市,吉町３丁目２番１号,,11,221,3400017,,,2023-01-13,清算の結了等,,,2015-10-05,1,,,,,ライラック,0
2869,8040002005416,登記記録の閉鎖等,0,2023-01-18,2023-01-11,有限会社新東宝システム,,有限会社,神奈川県,横浜市西区,紅葉ケ丘８番地クオス横浜紅葉坂４０６,,14,103,2200044,,,2023-01-11,清算の結了等,,,2015-10-05,1,,,,,,0
2875,8040005001305,登記記録の閉鎖等,0,2023-01-18,2023-01-11,一般財団法人市原学園,,その他の設立登記法人,千葉県,千葉市中央区,春日１丁目１８番１０号,,12,101,2600033,,,2023-01-11,清算の結了等,,,2015-10-05,1,,,,,イチハラガクエン,0
2884,8080001016006,登記記録の閉鎖等,0,2023-01-18,2023-01-18,株式会社ヤマコ,,株式会社,静岡県,焼津市,焼津３丁目４番６号,,22,212,4250026,,,2023-01-18,登記官による閉鎖,,,2015-10-05,1,,,,,,0
2885,8080001020552,登記記録の閉鎖等,0,2023-01-18,2023-01-16,株式会社ノイエ,,株式会社,静岡県,静岡市清水区,神田町７番２２－７０５号,,22,103,4240852,,,2023-01-16,清算の結了等,,,2015-10-22,1,,,,,ノイエ,0
2886,8080002006088,登記記録の閉鎖等,0,2023-01-18,2023-01-18,有限会社山章建設,,有限会社,静岡県,静岡市葵区,瀬名６丁目６番１０号,,22,101,4200911,,,2023-01-18,登記官による閉鎖,,,2015-10-05,1,,,,,,0
2887,8080003001939,登記記録の閉鎖等,0,2023-01-18,2023-01-18,青島合名会社,,合名会社,静岡県,藤枝市,前島６２０番地の１の１,,22,214,4260067,,,2023-01-18,登記官による閉鎖,,,2017-01-25,1,,,,,,0
2888,8080005001045,登記記録の閉鎖等,0,2023-01-18,2023-01-18,静岡県電話取引業協同組合,,その他の設立登記法人,静岡県,静岡市葵区,弥勒２丁目４番１１号,,22,101,4200053,,,2023-01-18,登記官による閉鎖,,,2015-10-05,1,,,,,,0
2889,8080101020436,登記記録の閉鎖等,0,2023-01-18,2023-01-18,株式会社小林農園,,株式会社,静岡県,下田市,西本郷２丁目３番１号,,22,219,4150036,,,2023-01-18,登記官による閉鎖,,,2018-04-24,1,,,,,コバヤシノウエン,0
2890,8080101020493,登記記録の閉鎖等,0,2023-01-18,2023-01-18,株式会社貴翔,,株式会社,静岡県,富士宮市,大岩３８３番地の７,,22,207,4180013,,,2023-01-18,登記官による閉鎖,,,2018-05-22,1,,,,,キショウ,0
2891,8080102000437,登記記録の閉鎖等,0,2023-01-18,2023-01-18,有限会社ウエストサービス,,有限会社,静岡県,沼津市,共栄町２０番地の５,,22,203,4100064,,,2023-01-18,登記官による閉鎖,,,2015-10-05,1,,,,,,0
2892,8080102001856,登記記録の閉鎖等,0,2023-01-18,2023-01-18,有限会社鈴一水産魚新,,有限会社,静岡県,沼津市,下香貫浜田２９８８番地の３,,22,203,4100822,,,2023-01-18,登記官による閉鎖,,,2015-10-05,1,,,,,,0
2893,8080102003753,登記記録の閉鎖等,0,2023-01-18,2023-01-18,有限会社クラシスト,,有限会社,静岡県,沼津市,沢田町１０番３号,,22,203,4100052,,,2023-01-18,登記官による閉鎖,,,2015-10-05,1,,,,,,0
2894,8080102006269,登記記録の閉鎖等,0,2023-01-18,2023-01-18,有限会社パワーズ・コア,,有限会社,静岡県,沼津市,沼北町２丁目１１番２８号,,22,203,4100058,,,2023-01-18,登記官による閉鎖,,,2015-10-05,1,,,,,,0
2895,8080102008538,登記記録の閉鎖等,0,2023-01-18,2023-01-18,有限会社ノダホームサービス,,有限会社,静岡県,伊豆市,瓜生野１２６番地の１,,22,222,4102412,,,2023-01-18,登記官による閉鎖,,,2015-10-05,1,,,,,,0
2896,8080102010139,登記記録の閉鎖等,0,2023-01-18,2023-01-18,有限会社幸田工業,,有限会社,静岡県,駿東郡長泉町,南一色４０４番地の１,,22,342,4110932,,,2023-01-18,登記官による閉鎖,,,2015-10-05,1,,,,,,0
2897,8080102010428,登記記録の閉鎖等,0,2023-01-18,2023-01-18,新協通信有限会社,,有限会社,静岡県,沼津市,下香貫塩満１８０５番地の２,,22,203,4100822,,,2023-01-18,登記官による閉鎖,,,2015-10-05,1,,,,,,0
2898,8080103000527,登記記録の閉鎖等,0,2023-01-18,2023-01-18,合同会社ノアーズスタッフ,,合同会社,静岡県,三島市,川原ケ谷５９１番地の１８ベルメゾン初音２０３号,,22,206,4110022,,,2023-01-18,登記官による閉鎖,,,2015-10-05,1,,,,,,0
2899,8080401005715,登記記録の閉鎖等,0,2023-01-18,2023-01-18,ワイ・エム精工株式会社,,株式会社,静岡県,浜松市東区,積志町１９２５番地,,22,132,4313114,,,2023-01-18,登記官による閉鎖,,,2015-10-05,1,,,,,,0
2900,8080401010896,登記記録の閉鎖等,0,2023-01-18,2023-01-18,株式会社太陽興産,,株式会社,静岡県,浜松市中区,和合町２２０番地の１３８１,,22,131,4338125,,,2023-01-18,登記官による閉鎖,,,2015-10-05,1,,,,,,0
2903,8100001027990,登記記録の閉鎖等,0,2023-01-18,2023-01-16,株式会社プレインストーン,,株式会社,長野県,松本市,中央２丁目３番２０号等々力ビル２階,,20,202,3900811,,,2023-01-16,清算の結了等,,,2015-10-05,1,,,,,プレインストーン,0
2907,8110001018592,登記記録の閉鎖等,0,2023-01-18,2023-01-16,ミナガワホールディングス株式会社,,株式会社,新潟県,新潟市中央区,関屋松波町３丁目３４７番地,,15,103,9518161,,,2023-01-16,清算の結了等,,,2015-10-05,1,,,,,ミナガワホールディングス,0
2911,8120001011183,登記記録の閉鎖等,0,2023-01-18,2023-01-16,株式会社宮脇,,株式会社,大阪府,大阪市東住吉区,東田辺２丁目６番４号,,27,121,5460032,,,2023-01-16,清算の結了等,,,2015-10-05,1,,,,,ミヤワキ,0
2912,8120001110902,登記記録の閉鎖等,0,2023-01-18,2023-01-13,明治倉庫株式会社,,株式会社,大阪府,大阪市福島区,福島７丁目９番２３号,,27,103,5530003,,,2023-01-13,清算の結了等,,,2015-10-05,1,,,,,メイジソウコ,0
2916,8120001152184,登記記録の閉鎖等,0,2023-01-18,2023-01-16,株式会社アトムニクス研究所,,株式会社,大阪府,交野市,南星台４丁目８番３号,,27,230,5760013,,,2023-01-16,清算の結了等,,,2015-10-05,1,,,,,アトムニクスケンキュウジョ,0
2945,8170005006456,登記記録の閉鎖等,0,2023-01-18,2023-01-17,一般社団法人豊栄会,,その他の設立登記法人,和歌山県,和歌山市,西浜９８７番地６,,30,201,6410036,,,2023-01-17,清算の結了等,,,2015-10-09,1,,,,,ホウエイカイ,0
2946,8180001024873,登記記録の閉鎖等,0,2023-01-18,2023-01-17,株式会社栄和,,株式会社,愛知県,名古屋市西区,東岸町２丁目５９番地,,23,104,4510076,,,2023-01-17,登記官による閉鎖,,,2015-10-05,1,,,,,,0
2948,8180001030863,登記記録の閉鎖等,0,2023-01-18,2023-01-17,株式会社セイユー,,株式会社,愛知県,名古屋市南区,氷室町２３番４号,,23,112,4570865,,,2023-01-17,登記官による閉鎖,,,2015-10-05,1,,,,,,0
2949,8180001033899,登記記録の閉鎖等,0,2023-01-18,2023-01-17,株式会社アドセンター,,株式会社,愛知県,名古屋市千種区,堀割町２丁目６番地,,23,101,4640065,,,2023-01-17,登記官による閉鎖,,,2015-10-05,1,,,,,,0
2950,8180001035094,登記記録の閉鎖等,0,2023-01-18,2023-01-17,貸ビル情報サービス株式会社,,株式会社,愛知県,名古屋市中区,錦１丁目４番２７号,,23,106,4600003,,,2023-01-17,登記官による閉鎖,,,2015-10-05,1,,,,,,0
2951,8180001051983,登記記録の閉鎖等,0,2023-01-18,2023-01-05,株式会社クラウン商事,,株式会社,愛知県,名古屋市昭和区,汐見町１１３番地,,23,107,4660837,,,2023-01-05,合併による解散等,3180001010127,令和５年１月１日愛知県小牧市小針三丁目６７番地クラウン・パッケージ販売株式会社（3180001010127）に合併し解散,2015-10-05,1,,,,,クラウンショウジ,0
2952,8180001063789,登記記録の閉鎖等,0,2023-01-18,2023-01-17,株式会社ペガサスクリエイション,,株式会社,愛知県,名古屋市東区,徳川２丁目１６番１９号,,23,102,4610025,,,2023-01-17,登記官による閉鎖,,,2015-10-05,1,,,,,,0
2953,8180001072294,登記記録の閉鎖等,0,2023-01-18,2023-01-17,宝者株式会社,,株式会社,愛知県,名古屋市中区,錦１丁目８番地４９,,23,106,4600003,,,2023-01-17,登記官による閉鎖,,,2015-10-05,1,,,,,,0
2954,8180001081568,登記記録の閉鎖等,0,2023-01-18,2023-01-17,株式会社榊原産業,,株式会社,愛知県,丹羽郡扶桑町,大字高木字白山前３０９番地,,23,362,4800107,,,2023-01-17,登記官による閉鎖,,,2015-10-05,1,,,,,,0
2955,8180001088910,登記記録の閉鎖等,0,2023-01-18,2023-01-17,よろずサポートカンパニー株式会社,,株式会社,愛知県,名古屋市中川区,山王３丁目８番２８号,,23,110,4540011,,,2023-01-17,登記官による閉鎖,,,2015-10-05,1,,,,,,0
2960,8180002003942,登記記録の閉鎖等,0,2023-01-18,2023-01-17,菊岡事務所有限会社,,有限会社,愛知県,名古屋市中区,丸の内１丁目１番１０号,,23,106,4600002,,,2023-01-17,登記官による閉鎖,,,2015-10-05,1,,,,,,0
2961,8180002016291,登記記録の閉鎖等,0,2023-01-18,2023-01-17,有限会社タナカコム,,有限会社,愛知県,名古屋市千種区,仲田２丁目１番２７号,,23,101,4640074,,,2023-01-17,登記官による閉鎖,,,2015-10-05,1,,,,,,0
2962,8180002032735,登記記録の閉鎖等,0,2023-01-18,2023-01-17,有限会社菅原工業,,有限会社,愛知県,名古屋市中村区,郷前町１丁目６番地,,23,105,4530808,,,2023-01-17,登記官による閉鎖,,,2015-10-05,1,,,,,,0
2965,8180002073184,登記記録の閉鎖等,0,2023-01-18,2023-01-17,有限会社新井重機,,有限会社,愛知県,瀬戸市,西拝戸町９番地の５０,,23,204,4890848,,,2023-01-17,登記官による閉鎖,,,2015-10-05,1,,,,,,0
2966,8180002078489,登記記録の閉鎖等,0,2023-01-18,2023-01-17,有限会社アオマン,,有限会社,愛知県,一宮市,木曽川町里小牧字蛭田１１８番地,,23,203,4930005,,,2023-01-17,登記官による閉鎖,,,2015-10-05,1,,,,,,0
2967,8180002080503,登記記録の閉鎖等,0,2023-01-18,2023-01-17,有限会社榮文堂,,有限会社,愛知県,稲沢市,平和町丸渕上３６３番地,,23,220,4901305,,,2023-01-17,登記官による閉鎖,,,2015-10-05,1,,,,,,0
2969,8180002088653,登記記録の閉鎖等,0,2023-01-18,2023-01-17,有限会社茂美商事,,有限会社,愛知県,東海市,高横須賀町５丁目９８番地,,23,222,4770037,,,2023-01-17,登記官による閉鎖,,,2015-10-05,1,,,,,,0
2973,8180003013759,登記記録の閉鎖等,0,2023-01-18,2023-01-17,合資会社ブリッジカンパニー,,合資会社,愛知県,あま市,甚目寺沖田６１番地の６,,23,237,4901111,,,2023-01-17,登記官による閉鎖,,,2015-10-05,1,,,,,,0
2974,8180005004046,登記記録の閉鎖等,0,2023-01-18,2023-01-17,サンセブン商業協同組合,,その他の設立登記法人,愛知県,名古屋市北区,上飯田北町２丁目４９番地,,23,103,4620802,,,2023-01-17,登記官による閉鎖,,,2015-10-05,1,,,,,,0
2975,8180005005630,登記記録の閉鎖等,0,2023-01-18,2023-01-17,特定非営利活動法人高齢者福祉支援協会,,その他の設立登記法人,愛知県,名古屋市昭和区,鶴舞４丁目１０番７号,,23,107,4660064,,,2023-01-17,登記官による閉鎖,,,2015-10-05,1,,,,,,0
2976,8180005006546,登記記録の閉鎖等,0,2023-01-18,2023-01-17,ブレインバンク協同組合,,その他の設立登記法人,愛知県,名古屋市西区,市場木町１８番地,,23,104,4520805,,,2023-01-17,登記官による閉鎖,,,2015-10-05,1,,,,,,0
2977,8180005012486,登記記録の閉鎖等,0,2023-01-18,2023-01-17,医療法人名巧会,,その他の設立登記法人,愛知県,知多郡阿久比町,大字卯坂字桜ケ丘１４１番,,23,441,4702212,,,2023-01-17,登記官による閉鎖,,,2015-10-05,1,,,,,,0
2990,8230001001933,登記記録の閉鎖等,0,2023-01-18,2023-01-17,株式会社トヤマアルフアー,,株式会社,富山県,富山市,城村５５番地の２,,16,201,9398114,,,2023-01-17,清算の結了等,,,2015-10-05,1,,,,,トヤマアルフアー,0
3007,8240002035392,登記記録の閉鎖等,0,2023-01-18,2023-01-16,有限会社寺岡商事,,有限会社,広島県,呉市,仁方桟橋通１５１１番地８２,,34,202,7370154,,,2023-01-16,清算の結了等,,,2015-10-05,1,,,,,テラオカショウジ,0
3013,8290001005359,登記記録の閉鎖等,0,2023-01-18,2023-01-18,大信産業株式会社,,株式会社,福岡県,福岡市早良区,有田１丁目１０番７号,,40,137,8140033,,,2023-01-18,登記官による閉鎖,,,2015-10-05,1,,,,,,0
3015,8290001028896,登記記録の閉鎖等,0,2023-01-18,2023-01-18,Ｒ３株式会社,,株式会社,福岡県,福岡市西区,石丸３丁目８番１５号,,40,135,8190025,,,2023-01-18,登記官による閉鎖,,,2015-10-05,1,,,,,,0
3016,8290001031009,登記記録の閉鎖等,0,2023-01-18,2023-01-18,株式会社桃佳亭,,株式会社,福岡県,福岡市早良区,内野７丁目１６番１２号,,40,137,8111123,,,2023-01-18,登記官による閉鎖,,,2015-10-05,1,,,,,,0
3018,8290001041172,登記記録の閉鎖等,0,2023-01-18,2023-01-18,株式会社マツヤ,,株式会社,福岡県,太宰府市,通古賀２丁目４番１９－１０２号,,40,221,8180104,,,2023-01-18,登記官による閉鎖,,,2015-10-05,1,,,,,,0
3019,8290001045339,登記記録の閉鎖等,0,2023-01-18,2023-01-18,石坂工業株式会社,,株式会社,福岡県,飯塚市,鯰田字渡り口３０４番地の３,,40,205,8200001,,,2023-01-18,登記官による閉鎖,,,2015-10-05,1,,,,,,0
3020,8290001050330,登記記録の閉鎖等,0,2023-01-18,2023-01-18,株式会社大長,,株式会社,福岡県,久留米市,梅満町１５６１番地８,,40,203,8300048,,,2023-01-18,登記官による閉鎖,,,2015-10-05,1,,,,,,0
3022,8290001057821,登記記録の閉鎖等,0,2023-01-18,2023-01-18,株式会社グッドワークス,,株式会社,福岡県,福岡市中央区,薬院３丁目４番２３号,,40,133,8100022,,,2023-01-18,登記官による閉鎖,,,2015-10-05,1,,,,,,0
3023,8290001076870,登記記録の閉鎖等,0,2023-01-18,2023-01-18,株式会社エステート、バリエーション,,株式会社,福岡県,福岡市博多区,冷泉町１番３－７１０号,,40,132,8120039,,,2023-01-18,登記官による閉鎖,,,2017-03-01,1,,,,,,0
3026,8290001093346,登記記録の閉鎖等,0,2023-01-18,2023-01-11,株式会社ＳＡＱＯＴ,,株式会社,東京都,千代田区,有楽町１丁目１２番１号新有楽町ビル,,13,101,1000006,,,2023-01-11,合併による解散等,7010401132137,令和５年１月１日大阪市中央区平野町一丁目６番８－７０９号株式会社ＴｈｉｎｋＦｏｒｍ（7010401132137）に合併し解散,2021-06-02,1,,,,,サコット,0
3029,8290002000953,登記記録の閉鎖等,0,2023-01-18,2023-01-18,有限会社フジタ興業,,有限会社,福岡県,福岡市西区,生の松原２丁目１４番１６号,,40,135,8190055,,,2023-01-18,登記官による閉鎖,,,2015-10-05,1,,,,,,0
3030,8290002005390,登記記録の閉鎖等,0,2023-01-18,2023-01-18,有限会社東部金物建材店,,有限会社,福岡県,福岡市東区,土井１丁目１５番１９号,,40,131,8130032,,,2023-01-18,登記官による閉鎖,,,2015-10-05,1,,,,,,0
3032,8290002010861,登記記録の閉鎖等,0,2023-01-18,2023-01-18,有限会社三輝,,有限会社,福岡県,福岡市博多区,東光１丁目５番３－３０３号,,40,132,8120008,,,2023-01-18,登記官による閉鎖,,,2015-10-05,1,,,,,,0
3033,8290002027022,登記記録の閉鎖等,0,2023-01-18,2023-01-18,有限会社Ｅ＆Ａ企画,,有限会社,福岡県,福岡市城南区,樋井川６丁目２２番１９号,00093210,40,136,8140153,,,2023-01-18,登記官による閉鎖,,,2015-10-05,1,,,,,,0
3034,8290002030521,登記記録の閉鎖等,0,2023-01-18,2023-01-18,有限会社ＡＡＩコーポレーション,,有限会社,福岡県,福岡市博多区,博多駅南２丁目１０番１７号,,40,132,8120016,,,2023-01-18,登記官による閉鎖,,,2015-10-05,1,,,,,,0
3035,8290002035495,登記記録の閉鎖等,0,2023-01-18,2023-01-18,有限会社村山建設,,有限会社,福岡県,宗像市,緑町９７番地,,40,220,8114172,,,2023-01-18,登記官による閉鎖,,,2015-10-05,1,,,,,,0
3036,8290002037236,登記記録の閉鎖等,0,2023-01-18,2023-01-18,有限会社ユークロス,,有限会社,福岡県,糟屋郡宇美町,貴船２丁目２３番３０号,,40,341,8112131,,,2023-01-18,登記官による閉鎖,,,2015-10-05,1,,,,,,0
3038,8290002043440,登記記録の閉鎖等,0,2023-01-18,2023-01-18,有限会社大内田,,有限会社,福岡県,朝倉市,甘木８５８番地,,40,228,8380068,,,2023-01-18,登記官による閉鎖,,,2015-10-05,1,,,,,,0
3039,8290002043746,登記記録の閉鎖等,0,2023-01-18,2023-01-18,有限会社南部開発ビル,,有限会社,福岡県,朝倉市,甘木１６８３番地の１,,40,228,8380068,,,2023-01-18,登記官による閉鎖,,,2015-10-05,1,,,,,,0
3040,8290002044851,登記記録の閉鎖等,0,2023-01-18,2023-01-18,有限会社松本食品,,有限会社,福岡県,嘉麻市,上山田１１９３番地の１,,40,227,8210012,,,2023-01-18,登記官による閉鎖,,,2015-10-05,1,,,,,,0
3041,8290002047136,登記記録の閉鎖等,0,2023-01-18,2023-01-18,有限会社栗原建設,,有限会社,福岡県,八女市,立花町北山２９６５番地の１,,40,210,8340085,,,2023-01-18,登記官による閉鎖,,,2015-10-05,1,,,,,,0
3042,8290002050321,登記記録の閉鎖等,0,2023-01-18,2023-01-18,有限会社ラ・セーヌ,,有限会社,福岡県,久留米市,梅満町１１００番地の１,,40,203,8300048,,,2023-01-18,登記官による閉鎖,,,2015-10-05,1,,,,,,0
3043,8290002050899,登記記録の閉鎖等,0,2023-01-18,2023-01-18,有限会社エイム,,有限会社,福岡県,久留米市,江戸屋敷２丁目８番２号,,40,203,8300059,,,2023-01-18,登記官による閉鎖,,,2015-10-05,1,,,,,,0
3044,8290002051113,登記記録の閉鎖等,0,2023-01-18,2023-01-18,有限会社さわやか商事,,有限会社,福岡県,久留米市,城島町芦塚８０４番地１,00093528,40,203,8300201,,,2023-01-18,登記官による閉鎖,,,2015-10-05,1,,,,,,0
3045,8290005003598,登記記録の閉鎖等,0,2023-01-18,2023-01-18,特定非営利活動法人環境保全推進センター,,その他の設立登記法人,福岡県,福岡市早良区,城西３丁目１７番２０－３１３号,,40,137,8140003,,,2023-01-18,登記官による閉鎖,,,2015-10-05,1,,,,,,0
3046,8290005003739,登記記録の閉鎖等,0,2023-01-18,2023-01-18,特定非営利活動法人ＳｈｏＲａＫｕ,,その他の設立登記法人,福岡県,福岡市中央区,那の津３丁目９番２号,00093842,40,133,8100071,,,2023-01-18,登記官による閉鎖,,,2015-10-05,1,,,,,,0
3047,8290005008515,登記記録の閉鎖等,0,2023-01-18,2023-01-18,特定非営利活動法人シルバーコミュニケーション頴田,,その他の設立登記法人,福岡県,飯塚市,勢田２５４４番地,,40,205,8201111,,,2023-01-18,登記官による閉鎖,,,2015-10-05,1,,,,,,0
3048,8290801002638,登記記録の閉鎖等,0,2023-01-18,2023-01-18,株式会社東洋住建,,株式会社,福岡県,北九州市小倉南区,下城野１丁目７番７号,,40,107,8020804,,,2023-01-18,登記官による閉鎖,,,2015-10-05,1,,,,,,0
3049,8290801007711,登記記録の閉鎖等,0,2023-01-18,2023-01-18,エヌケイクレスト株式会社,,株式会社,福岡県,北九州市小倉北区,片野４丁目２１番８－１０１号,,40,106,8020064,,,2023-01-18,登記官による閉鎖,,,2015-10-05,1,,,,,,0
3053,8290802019045,登記記録の閉鎖等,0,2023-01-18,2023-01-18,有限会社吉仲産業,,有限会社,福岡県,北九州市若松区,東二島２丁目８番３号,,40,103,8080102,,,2023-01-18,登記官による閉鎖,,,2015-10-05,1,,,,,,0
3054,8290802019094,登記記録の閉鎖等,0,2023-01-18,2023-01-18,有限会社山光園,,有限会社,福岡県,北九州市戸畑区,新池１丁目３番７号,,40,105,8040082,,,2023-01-18,登記官による閉鎖,,,2015-10-05,1,,,,,,0
3055,8290802025142,登記記録の閉鎖等,0,2023-01-18,2023-01-18,有限会社熱建,,有限会社,福岡県,田川郡添田町,大字添田２６２９番地,,40,602,8240602,,,2023-01-18,登記官による閉鎖,,,2015-10-05,1,,,,,,0
3056,8290802025968,登記記録の閉鎖等,0,2023-01-18,2023-01-18,有限会社西日本景観,,有限会社,福岡県,北九州市小倉南区,志井１丁目１１番１６号,,40,107,8020985,,,2023-01-18,登記官による閉鎖,,,2015-10-05,1,,,,,,0
3057,8290805003707,登記記録の閉鎖等,0,2023-01-18,2023-01-18,特定非営利活動法人九州モータースポーツ協会,,その他の設立登記法人,福岡県,北九州市門司区,原町別院４番１５－３０１号,,40,101,8000037,,,2023-01-18,登記官による閉鎖,,,2015-10-05,1,,,,,,0
3058,8290805004556,登記記録の閉鎖等,0,2023-01-18,2023-01-18,特定非営利活動法人ニコニコネット,,その他の設立登記法人,福岡県,中間市,大字垣生３９５番地４,,40,215,8090001,,,2023-01-18,登記官による閉鎖,,,2015-10-05,1,,,,,,0
3059,8290805006998,登記記録の閉鎖等,0,2023-01-18,2023-01-18,特定非営利活動法人福園,,その他の設立登記法人,福岡県,京都郡苅田町,大字馬場５０２番地,,40,621,8000362,,,2023-01-18,登記官による閉鎖,,,2015-10-05,1,,,,,,0
3060,8290805007088,登記記録の閉鎖等,0,2023-01-18,2023-01-18,行橋京築建設業協同組合,,その他の設立登記法人,福岡県,京都郡みやこ町,犀川下伊良原２９４２番地,,40,625,8240251,,,2023-01-18,登記官による閉鎖,,,2015-10-05,1,,,,,,0
3062,8320001004679,登記記録の閉鎖等,0,2023-01-18,2023-01-18,株式会社雄理,,株式会社,大分県,大分市,大字羽屋９０番地の４,,44,201,8700854,,,2023-01-18,登記官による閉鎖,,,2015-10-05,1,,,,,,0
3063,8320001007343,登記記録の閉鎖等,0,2023-01-18,2023-01-18,株式会社ＪＳＡ　ＳＯＬＡＲ大分,,株式会社,大分県,別府市,上野口町２８番２号サン青山ビル２階,,44,202,8740905,,,2023-01-18,登記官による閉鎖,,,2015-10-05,1,,,,,,0
3065,8320002001130,登記記録の閉鎖等,0,2023-01-18,2023-01-18,有限会社上野産業,,有限会社,大分県,大分市,大字松岡１７５２番地,,44,201,8700125,,,2023-01-18,登記官による閉鎖,,,2015-10-05,1,,,,,,0
3066,8320002002624,登記記録の閉鎖等,0,2023-01-18,2023-01-18,有限会社紺屋,,有限会社,大分県,大分市,中央町２丁目７番３２号,,44,201,8700035,,,2023-01-18,登記官による閉鎖,,,2015-10-05,1,,,,,,0
3067,8320002005321,登記記録の閉鎖等,0,2023-01-18,2023-01-18,繁栄企画有限会社,,有限会社,大分県,大分市,大字宮崎字天神目８９７番地１,,44,201,8701133,,,2023-01-18,登記官による閉鎖,,,2015-10-05,1,,,,,,0
3068,8320005002423,登記記録の閉鎖等,0,2023-01-18,2023-01-18,特定非営利活動法人なかま,,その他の設立登記法人,大分県,大分市,大字津守１６０番地（レオパレス２１かりん１０２）,,44,201,8700945,,,2023-01-18,登記官による閉鎖,,,2015-10-05,1,,,,,,0
3069,8320005005814,登記記録の閉鎖等,0,2023-01-18,2023-01-18,佐伯新町協同組合,,その他の設立登記法人,大分県,佐伯市,内町７番４号,,44,205,8760845,,,2023-01-18,登記官による閉鎖,,,2015-10-05,1,,,,,,0
3070,8320005008263,登記記録の閉鎖等,0,2023-01-18,2023-01-18,ヴェルディ皆春壱番館管理組合法人,,その他の設立登記法人,大分県,大分市,大字皆春１６１２番地の１,,44,201,8700131,,,2023-01-18,登記官による閉鎖,,,2015-10-05,1,,,,,,0
3076,8360002022569,登記記録の閉鎖等,0,2023-01-18,2023-01-11,有限会社アウバ,,有限会社,沖縄県,宮古島市,平良字久貝４４０番地２,,47,214,9060015,,,2023-01-11,清算の結了等,,,2015-10-05,1,,,,,アウバ,0
3085,8400002007499,登記記録の閉鎖等,0,2023-01-18,2023-01-17,有限会社サクシード,,有限会社,岩手県,八幡平市,西根寺田第７地割６番地２,,03,214,0287401,,,2023-01-17,清算の結了等,,,2015-10-05,1,,,,,サクシード,0
3086,8410001009669,登記記録の閉鎖等,0,2023-01-18,2023-01-18,株式会社ＵＮＦＯＬＤ,,株式会社,秋田県,秋田市,土崎港西３丁目９番１５号,,05,201,0110945,,,2023-01-18,登記官による閉鎖,,,2015-10-05,1,,,,,,0
3087,8410002013059,登記記録の閉鎖等,0,2023-01-18,2023-01-18,有限会社佐藤工業,,有限会社,秋田県,横手市,上境字館１５７番地,,05,203,0130821,,,2023-01-18,登記官による閉鎖,,,2015-10-05,1,,,,,,0
3088,8410005002439,登記記録の閉鎖等,0,2023-01-18,2023-01-18,社団法人山田愛林会,,その他の設立登記法人,秋田県,湯沢市,山田字中屋敷１３５番地の１,,05,207,0120055,,,2023-01-18,登記官による閉鎖,,,2015-10-05,1,,,,,,0
3089,8410005004690,登記記録の閉鎖等,0,2023-01-18,2023-01-18,農事組合法人田沢湖自然休養村組合,,その他の設立登記法人,秋田県,仙北市,田沢湖生保内字下高野７２番地,,05,215,0141201,,,2023-01-18,登記官による閉鎖,,,2015-10-05,1,,,,,,0
3091,8420002005617,登記記録の閉鎖等,0,2023-01-18,2023-01-16,有限会社タカハシ,,有限会社,青森県,青森市,浪岡大字高屋敷字後田３０番地１５,,02,201,0381304,,,2023-01-16,清算の結了等,,,2015-10-05,1,,,,,,0
3102,8440002003998,登記記録の閉鎖等,0,2023-01-18,2023-01-10,有限会社ペルフアタニグチ函館眼鏡院,,有限会社,北海道,函館市,松風町１６番２号,,01,202,0400035,,,2023-01-10,清算の結了等,,,2015-10-05,1,,,,,ペルフアタニグチハコダテメガネイン,0
3104,8460101004235,登記記録の閉鎖等,0,2023-01-18,2023-01-18,株式会社アイリス,,株式会社,北海道,河東郡音更町,字下音更北６線西２３番地１,,01,631,0800342,,,2023-01-18,登記官による閉鎖,,,2015-10-05,1,,,,,,0
3106,8460102002989,登記記録の閉鎖等,0,2023-01-18,2023-01-18,有限会社ありがとう,,有限会社,北海道,帯広市,西六条南２８丁目２０番地１,,01,207,0800016,,,2023-01-18,登記官による閉鎖,,,2015-10-05,1,,,,,,0
3107,8460301000892,登記記録の閉鎖等,0,2023-01-18,2023-01-18,株式会社本田土建,,株式会社,北海道,北見市,端野町三区４７９番地９,,01,208,0992103,,,2023-01-18,登記官による閉鎖,,,2015-10-05,1,,,,,,0
3108,8460302004876,登記記録の閉鎖等,0,2023-01-18,2023-01-18,有限会社武山ホーム機器,,有限会社,北海道,斜里郡斜里町,朝日町２２番地１４,,01,545,0994114,,,2023-01-18,登記官による閉鎖,,,2015-10-05,1,,,,,,0
3109,8462502001257,登記記録の閉鎖等,0,2023-01-18,2023-01-18,有限会社共友物流,,有限会社,北海道,標津郡中標津町,東三十九条北４丁目１番地３３,,01,692,0861079,,,2023-01-18,登記官による閉鎖,,,2015-10-05,1,,,,,,0
3110,8470001009606,登記記録の閉鎖等,0,2023-01-18,2023-01-17,株式会社木下海運,,株式会社,香川県,坂出市,大屋冨町２０８５番地４,,37,203,7620015,,,2023-01-17,清算の結了等,,,2015-10-05,1,,,,,キノシタカイウン,0
3111,8470002012360,登記記録の閉鎖等,0,2023-01-18,2023-01-17,有限会社宮本綜合食品,,有限会社,香川県,綾歌郡宇多津町,大字東分２０８番地の５,,37,386,7690213,,,2023-01-17,清算の結了等,,,2015-10-05,1,,,,,ミヤモトソウゴウショクヒン,0
3114,8490001006155,登記記録の閉鎖等,0,2023-01-18,2023-01-18,株式会社太田製作所,,株式会社,高知県,南国市,岡豊町定林寺３０９番地２,,39,204,7830041,,,2023-01-18,登記官による閉鎖,,,2015-10-05,1,,,,,,0
3115,8490001006683,登記記録の閉鎖等,0,2023-01-18,2023-01-18,株式会社オフィスＫ,,株式会社,高知県,香南市,香我美町徳王子３０５２番地２,,39,211,7815332,,,2023-01-18,登記官による閉鎖,,,2015-10-05,1,,,,,,0
3116,8490002002442,登記記録の閉鎖等,0,2023-01-18,2023-01-18,有限会社清水電気商会,,有限会社,高知県,高知市,新田町３番１３号,,39,201,7808004,,,2023-01-18,登記官による閉鎖,,,2015-10-05,1,,,,,,0
3117,8490002002970,登記記録の閉鎖等,0,2023-01-18,2023-01-18,有限会社大永ベルト工業,,有限会社,高知県,高知市,潮新町１丁目１２番２７号,,39,201,7808008,,,2023-01-18,登記官による閉鎖,,,2015-10-05,1,,,,,,0
3118,8490002004983,登記記録の閉鎖等,0,2023-01-18,2023-01-18,有限会社みぞぶち木材,,有限会社,高知県,高知市,十津３丁目１０番１６号,,39,201,7810114,,,2023-01-18,登記官による閉鎖,,,2015-10-05,1,,,,,,0
3119,8490002013010,登記記録の閉鎖等,0,2023-01-18,2023-01-18,有限会社楽園,,有限会社,高知県,安芸郡奈半利町,乙１７４５番地,,39,302,7816402,,,2023-01-18,登記官による閉鎖,,,2015-10-05,1,,,,,,0
3120,8490002013381,登記記録の閉鎖等,0,2023-01-18,2023-01-18,八紘建設有限会社,,有限会社,高知県,四万十市,佐田３０００番地１,,39,210,7871106,,,2023-01-18,登記官による閉鎖,,,2016-05-19,1,,,,,,0
3121,8490005000897,登記記録の閉鎖等,0,2023-01-18,2023-01-18,種崎中央企業組合,,その他の設立登記法人,高知県,高知市,種崎３３８番地２,,39,201,7810113,,,2023-01-18,登記官による閉鎖,,,2015-10-05,1,,,,,,0
3122,8490005001821,登記記録の閉鎖等,0,2023-01-18,2023-01-18,高知人材支援企業組合,,その他の設立登記法人,高知県,高知市,竹島町８５番地２２コスモスハイツ２０２,,39,201,7808018,,,2023-01-18,登記官による閉鎖,,,2015-10-05,1,,,,,,0
3140,9010001223623,登記記録の閉鎖等,0,2023-01-18,2023-01-10,株式会社サンライズ,,株式会社,東京都,中央区,勝どき６丁目３番２－２５２１号,,13,102,1040054,,,2023-01-10,清算の結了等,,,2022-01-05,1,,,,,サンライズ,0
3142,9010001227608,登記記録の閉鎖等,0,2023-01-18,2023-01-05,株式会社ＣＰ２,,株式会社,東京都,千代田区,丸の内３丁目１番１号東京共同会計事務所内,,13,101,1000005,,,2023-01-05,合併による解散等,6010001226521,令和５年１月１日東京都千代田区丸の内三丁目１番１号東京共同会計事務所内株式会社ＣＨ（6010001226521）に合併し解散,2022-06-28,1,,,,,シーピーツー,0
3162,9010403022920,登記記録の閉鎖等,0,2023-01-18,2023-01-10,合同会社オーキッド,,合同会社,東京都,千代田区,内幸町１丁目３番１号幸ビルディング９階,,13,101,1000011,,,2023-01-10,清算の結了等,,,2020-05-07,1,,,,,,0
3163,9010501010711,登記記録の閉鎖等,0,2023-01-18,2023-01-16,株式会社アドレ,,株式会社,東京都,台東区,蔵前３丁目１９番６号,,13,106,1110051,,,2023-01-16,清算の結了等,,,2015-10-05,1,,,,,アドレ,0
3174,9010703002531,登記記録の閉鎖等,0,2023-01-18,2023-01-10,合同会社アナザードア,,合同会社,東京都,品川区,西五反田５丁目ｌ９番ｌ５号安藤ビル３階,,13,109,1410031,,,2023-01-10,清算の結了等,,,2015-10-05,1,,,,,,0
3176,9011001019623,登記記録の閉鎖等,0,2023-01-18,2023-01-16,株式会社人の動き研究室,,株式会社,東京都,世田谷区,北烏山３丁目１０番１６号,,13,112,1570061,,,2023-01-16,清算の結了等,,,2015-10-05,1,,,,,ヒトノウゴキケンキュウシツ,0
3195,9011501015873,登記記録の閉鎖等,0,2023-01-18,2023-01-10,株式会社アヘッド,,株式会社,東京都,北区,滝野川２丁目６０番５号,,13,117,1140023,,,2023-01-10,清算の結了等,,,2015-10-05,1,,,,,アヘッド,0
3204,9012402023024,登記記録の閉鎖等,0,2023-01-18,2023-01-17,有限会社アイトゥーキッド,,有限会社,東京都,国立市,谷保９７２番地の１,,13,215,1860011,,,2023-01-17,登記官による閉鎖,,,2015-10-05,1,,,,,,0
3205,9012701000269,登記記録の閉鎖等,0,2023-01-18,2023-01-18,株式会社建商,,株式会社,東京都,小平市,小川町２丁目１３６５番地６,,13,211,1870032,,,2023-01-18,登記官による閉鎖,,,2015-10-05,1,,,,,,0
3206,9012701000888,登記記録の閉鎖等,0,2023-01-18,2023-01-18,富士工業株式会社,,株式会社,東京都,小平市,中島町３３番１１号,,13,211,1870033,,,2023-01-18,登記官による閉鎖,,,2015-10-05,1,,,,,,0
3207,9012702001860,登記記録の閉鎖等,0,2023-01-18,2023-01-18,有限会社村野商店,,有限会社,東京都,小平市,上水本町２丁目１番３５号,,13,211,1870022,,,2023-01-18,登記官による閉鎖,,,2015-10-05,1,,,,,,0
3208,9012702005531,登記記録の閉鎖等,0,2023-01-18,2023-01-18,有限会社佐藤建設,,有限会社,東京都,西東京市,下保谷４丁目５番１９号,,13,229,2020004,,,2023-01-18,登記官による閉鎖,,,2015-10-05,1,,,,,,0
3209,9012702008781,登記記録の閉鎖等,0,2023-01-18,2023-01-18,有限会社アバンテイ,,有限会社,東京都,小平市,小川町１丁目１１０４番地,,13,211,1870032,,,2023-01-18,登記官による閉鎖,,,2015-10-05,1,,,,,,0
3210,9012802001819,登記記録の閉鎖等,0,2023-01-18,2023-01-17,有限会社ノーマライズ・ジャパン,,有限会社,東京都,立川市,曙町１丁目１３番１１号,00059244,13,202,1900012,,,2023-01-17,登記官による閉鎖,,,2015-10-05,1,,,,,,0
3211,9012802003930,登記記録の閉鎖等,0,2023-01-18,2023-01-17,有限会社山美,,有限会社,東京都,昭島市,美堀町２丁目６番１３号,,13,207,1960001,,,2023-01-17,登記官による閉鎖,,,2015-10-05,1,,,,,,0
3212,9012802006033,登記記録の閉鎖等,0,2023-01-18,2023-01-17,有限会社中野工営,,有限会社,東京都,東大和市,芋窪６丁目１０２２番４号,,13,220,2070033,,,2023-01-17,登記官による閉鎖,,,2015-10-05,1,,,,,,0
3213,9012802010373,登記記録の閉鎖等,0,2023-01-18,2023-01-17,有限会社イーグル,,有限会社,東京都,東大和市,南街２丁目７４番地の９,,13,220,2070014,,,2023-01-17,登記官による閉鎖,,,2015-10-05,1,,,,,,0
3214,9012802010968,登記記録の閉鎖等,0,2023-01-18,2023-01-17,有限会社サンフルーツ,,有限会社,東京都,東大和市,蔵敷２丁目６３３番地の６,,13,220,2070032,,,2023-01-17,登記官による閉鎖,,,2015-10-05,1,,,,,,0
3215,9012803001850,登記記録の閉鎖等,0,2023-01-18,2023-01-12,ＢＥＬＬＥ＆ＮＩＣＯ合同会社,,合同会社,福岡県,糟屋郡宇美町,ひばりが丘３丁目２８番１号,,40,341,8112106,,,2023-01-12,清算の結了等,,,2018-07-04,1,,,,,ベルアンドニコ,0
3218,9013301006508,登記記録の閉鎖等,0,2023-01-18,2023-01-18,相互商事株式会社,,株式会社,静岡県,伊豆の国市,奈古谷２２０７番地の２０６,,22,225,4102132,,,2023-01-18,登記官による閉鎖,,,2015-10-05,1,,,,,ソウゴショウジ,0
3221,9013402001614,登記記録の閉鎖等,0,2023-01-18,2023-01-17,有限会社ワイエスシー高幡,,有限会社,東京都,日野市,高幡１４５番地,,13,212,1910031,,,2023-01-17,登記官による閉鎖,,,2015-10-05,1,,,,,,0
3223,9020001020532,登記記録の閉鎖等,0,2023-01-18,2023-01-12,株式会社シティホーム横浜,,株式会社,神奈川県,横浜市港北区,新横浜３丁目６番地１,,14,109,2220033,,,2023-01-12,清算の結了等,,,2015-10-05,1,,,,,シティホームヨコハマ,0
3240,9021001000680,登記記録の閉鎖等,0,2023-01-18,2023-01-12,光和産業株式会社,,株式会社,神奈川県,藤沢市,鵠沼桜が岡３丁目１７番３９号,,14,205,2510027,,,2023-01-12,清算の結了等,,,2015-10-05,1,,,,,コウワサンギョウ,0
3271,9080001000347,登記記録の閉鎖等,0,2023-01-18,2023-01-18,株式会社いしがき,,株式会社,静岡県,静岡市葵区,七間町８番地の５,,22,101,4200035,,,2023-01-18,登記官による閉鎖,,,2015-10-05,1,,,,,,0
3272,9080001011419,登記記録の閉鎖等,0,2023-01-18,2023-01-18,株式会社アールブレーン,,株式会社,静岡県,静岡市清水区,有東坂１丁目２２４番地の２８,,22,103,4240873,,,2023-01-18,登記官による閉鎖,,,2015-10-05,1,,,,,,0
3273,9080001017779,登記記録の閉鎖等,0,2023-01-18,2023-01-18,株式会社キョードーホームシステムズ,,株式会社,静岡県,静岡市駿河区,馬渕４丁目１６番５２号１Ｆ,,22,102,4228063,,,2023-01-18,登記官による閉鎖,,,2015-10-05,1,,,,,,0
3274,9080002017340,登記記録の閉鎖等,0,2023-01-18,2023-01-18,有限会社えいぞう倶楽部,,有限会社,静岡県,藤枝市,藤岡５丁目２５番９号,,22,214,4260006,,,2023-01-18,登記官による閉鎖,,,2015-10-05,1,,,,,,0
3275,9080002018289,登記記録の閉鎖等,0,2023-01-18,2023-01-18,有限会社テクノ小柳津,00067599,有限会社,静岡県,藤枝市,岡部町羽佐間１７９番地の２,,22,214,4211114,,,2023-01-18,登記官による閉鎖,,,2015-10-05,1,,,,,,0
3276,9080101007531,登記記録の閉鎖等,0,2023-01-18,2023-01-18,株式会社あおぞらクリーン,,株式会社,静岡県,沼津市,足高５０番地の１３,,22,203,4100001,,,2023-01-18,登記官による閉鎖,,,2015-10-05,1,,,,,,0
3277,9080101012457,登記記録の閉鎖等,0,2023-01-18,2023-01-18,株式会社ＷＡＮ－ＬＩ,,株式会社,静岡県,富士市,中央町１丁目１０番９号,,22,210,4170052,,,2023-01-18,登記官による閉鎖,,,2015-10-05,1,,,,,,0
3278,9080101016202,登記記録の閉鎖等,0,2023-01-18,2023-01-18,株式会社ＣＦ,,株式会社,静岡県,沼津市,魚町５番地,,22,203,4100892,,,2023-01-18,登記官による閉鎖,,,2015-10-05,1,,,,,,0
3281,9080102006838,登記記録の閉鎖等,0,2023-01-18,2023-01-18,有限会社加藤模型,,有限会社,静岡県,御殿場市,中山６５４番地の２,,22,215,4120035,,,2023-01-18,登記官による閉鎖,,,2015-10-05,1,,,,,,0
3282,9080102009725,登記記録の閉鎖等,0,2023-01-18,2023-01-18,有限会社大木鉄筋工業所,,有限会社,静岡県,三島市,川原ケ谷２８９番地の７,,22,206,4110022,,,2023-01-18,登記官による閉鎖,,,2015-10-05,1,,,,,,0
3283,9080103001078,登記記録の閉鎖等,0,2023-01-18,2023-01-18,合同会社ＮＯＢＬＥ,,合同会社,静岡県,御殿場市,新橋１８６１番地の１ニューマリッチ３番館１０６,,22,215,4120043,,,2023-01-18,登記官による閉鎖,,,2015-10-05,1,,,,,,0
3284,9080401011489,登記記録の閉鎖等,0,2023-01-18,2023-01-18,株式会社エムワイエス,,株式会社,静岡県,浜松市東区,原島町１９４番地,,22,132,4350047,,,2023-01-18,登記官による閉鎖,,,2015-10-05,1,,,,,,0
3285,9080401016356,登記記録の閉鎖等,0,2023-01-18,2023-01-18,東海熔接工業株式会社,,株式会社,静岡県,磐田市,南平松１番地の４,,22,211,4380221,,,2023-01-18,登記官による閉鎖,,,2015-10-05,1,,,,,,0
3286,9080402001646,登記記録の閉鎖等,0,2023-01-18,2023-01-18,有限会社太田建材,,有限会社,静岡県,浜松市中区,中島１丁目３１番３号,,22,131,4300856,,,2023-01-18,登記官による閉鎖,,,2015-10-05,1,,,,,,0
3287,9080402005580,登記記録の閉鎖等,0,2023-01-18,2023-01-18,有限会社トライ設備工業,,有限会社,静岡県,浜松市西区,西山町１９３６番地の３,,22,133,4328001,,,2023-01-18,登記官による閉鎖,,,2015-10-05,1,,,,,,0
3288,9080402018946,登記記録の閉鎖等,0,2023-01-18,2023-01-18,有限会社東技研,,有限会社,静岡県,御前崎市,池新田６０２３番地の４,,22,223,4371612,,,2023-01-18,登記官による閉鎖,,,2015-10-05,1,,,,,,0
3301,9120001099235,登記記録の閉鎖等,0,2023-01-18,2023-01-16,株式会社スーパーマンモス,,株式会社,大阪府,大阪市西淀川区,佃２丁目２番３３号,,27,113,5550001,,,2023-01-16,清算の結了等,,,2015-10-05,1,,,,,,0
3308,9120001177791,登記記録の閉鎖等,0,2023-01-18,2023-01-04,株式会社ＳＨＯ－ＲＹ,,株式会社,大阪府,守口市,平代町３－６－３１１,,27,209,5700078,,,2023-01-04,清算の結了等,,,2015-10-05,1,,,,,ショーリ,0
3323,9120101027236,登記記録の閉鎖等,0,2023-01-18,2023-01-16,株式会社朝日コーポレーション,,株式会社,大阪府,松原市,阿保２丁目１２８番地の３０,,27,217,5800043,,,2023-01-16,清算の結了等,,,2015-10-05,1,,,,,アサヒコーポレーション,0
3329,9120101040783,登記記録の閉鎖等,0,2023-01-18,2023-01-16,サンクオーツＣＦ株式会社,,株式会社,大阪府,泉南郡岬町,淡輪３７４３番地の２４,,27,366,5990301,,,2023-01-16,清算の結了等,,,2015-10-05,1,,,,,サンクオーツシーエフ,0
3339,9120902017757,登記記録の閉鎖等,0,2023-01-18,2023-01-16,有限会社エステート福屋,,有限会社,大阪府,豊中市,服部本町１丁目６番２４号,,27,203,5610852,,,2023-01-16,清算の結了等,,,2015-10-05,1,,,,,エステートフクヤ,0
3341,9122001029163,登記記録の閉鎖等,0,2023-01-18,2023-01-16,株式会社嶋田物流,,株式会社,大阪府,東大阪市,吉田下島２０番２,,27,227,5780983,,,2023-01-16,清算の結了等,,,2016-01-04,1,,,,,シマダブツリュウ,0
3356,9150001002303,登記記録の閉鎖等,0,2023-01-18,2023-01-11,株式会社丸創,,株式会社,奈良県,奈良市,西大寺本町１番５号,,29,201,6310816,,,2023-01-11,清算の結了等,,,2015-10-05,1,,,,,マルソウ,0
3359,9180001017141,登記記録の閉鎖等,0,2023-01-18,2023-01-17,株式会社創和設計,,株式会社,愛知県,名古屋市西区,城西４丁目２番３号,,23,104,4510031,,,2023-01-17,登記官による閉鎖,,,2015-10-05,1,,,,,,0
3361,9180001031976,登記記録の閉鎖等,0,2023-01-18,2023-01-17,日本エミツク株式会社,,株式会社,愛知県,名古屋市中村区,太閤１丁目２番６号,,23,105,4530801,,,2023-01-17,登記官による閉鎖,,,2015-10-05,1,,,,,,0
3362,9180001060075,登記記録の閉鎖等,0,2023-01-18,2023-01-17,株式会社ぶぶや,,株式会社,愛知県,名古屋市中区,錦３丁目１７番５号,,23,106,4600003,,,2023-01-17,登記官による閉鎖,,,2015-10-05,1,,,,,,0
3363,9180001064191,登記記録の閉鎖等,0,2023-01-18,2023-01-17,株式会社ワイズコーポレーション,,株式会社,愛知県,名古屋市中区,新栄１丁目４番４号,,23,106,4600007,,,2023-01-17,登記官による閉鎖,,,2015-10-05,1,,,,,,0
3364,9180001065413,登記記録の閉鎖等,0,2023-01-18,2023-01-17,株式会社ビケイ,,株式会社,愛知県,名古屋市中区,栄５丁目４番２号,,23,106,4600008,,,2023-01-17,登記官による閉鎖,,,2015-10-05,1,,,,,,0
3365,9180001068275,登記記録の閉鎖等,0,2023-01-18,2023-01-17,日本多元株式会社,,株式会社,愛知県,名古屋市港区,小賀須４丁目１０１３番地の１,,23,111,4550882,,,2023-01-17,登記官による閉鎖,,,2015-10-05,1,,,,,,0
3366,9180001080437,登記記録の閉鎖等,0,2023-01-18,2023-01-17,株式会社エポテック,,株式会社,愛知県,尾張旭市,印場元町２丁目１１番地８,,23,226,4880840,,,2023-01-17,登記官による閉鎖,,,2015-10-05,1,,,,,,0
3367,9180001080461,登記記録の閉鎖等,0,2023-01-18,2023-01-17,株式会社ニッセイ・エム・イー・エス,,株式会社,愛知県,尾張旭市,北原山町鳴湫１７２６番地１パークシティ三郷壱番館１５０７号,,23,226,4880064,,,2023-01-17,登記官による閉鎖,,,2015-10-05,1,,,,,,0
3368,9180001095294,登記記録の閉鎖等,0,2023-01-18,2023-01-17,株式会社ヴァイタレックス・ジャパン,,株式会社,愛知県,知多市,梅が丘１丁目３２１番地,,23,224,4780016,,,2023-01-17,登記官による閉鎖,,,2015-10-05,1,,,,,,0
3369,9180001096144,登記記録の閉鎖等,0,2023-01-18,2023-01-17,Ｈ．Ｓ．Ｗ．ＴＡＩＹＯ株式会社,,株式会社,愛知県,知多市,八幡字荒古前１１４番地の１,,23,224,4780001,,,2023-01-17,登記官による閉鎖,,,2015-10-05,1,,,,,,0
3374,9180002006663,登記記録の閉鎖等,0,2023-01-18,2023-01-17,有限会社中部銘鈑製作所,,有限会社,愛知県,名古屋市港区,丸池町２丁目２７番地,,23,111,4550078,,,2023-01-17,登記官による閉鎖,,,2015-10-05,1,,,,,,0
3375,9180002013643,登記記録の閉鎖等,0,2023-01-18,2023-01-17,有限会社倉一工業,,有限会社,愛知県,名古屋市南区,宝生町３丁目４７番地,,23,112,4570828,,,2023-01-17,登記官による閉鎖,,,2015-10-05,1,,,,,,0
3376,9180002029037,登記記録の閉鎖等,0,2023-01-18,2023-01-17,マザーフーズ有限会社,,有限会社,愛知県,名古屋市中区,栄２丁目１番２１号,,23,106,4600008,,,2023-01-17,登記官による閉鎖,,,2015-10-05,1,,,,,,0
3377,9180002037683,登記記録の閉鎖等,0,2023-01-18,2023-01-17,有限会社ラスター,,有限会社,愛知県,名古屋市中区,丸の内２丁目１５番３０号,,23,106,4600002,,,2023-01-17,登記官による閉鎖,,,2015-10-05,1,,,,,,0
3378,9180002045372,登記記録の閉鎖等,0,2023-01-18,2023-01-17,有限会社向洋工業,,有限会社,愛知県,名古屋市緑区,古鳴海１丁目５番地の２,,23,114,4580047,,,2023-01-17,登記官による閉鎖,,,2015-10-05,1,,,,,,0
3379,9180002050488,登記記録の閉鎖等,0,2023-01-18,2023-01-17,有限会社キューティーズマート,,有限会社,愛知県,名古屋市中区,栄４丁目１３番７号,,23,106,4600008,,,2023-01-17,登記官による閉鎖,,,2015-10-05,1,,,,,,0
3380,9180002053202,登記記録の閉鎖等,0,2023-01-18,2023-01-17,メイホウ有限会社,,有限会社,愛知県,名古屋市千種区,今池１丁目１９番２１号,,23,101,4640850,,,2023-01-17,登記官による閉鎖,,,2015-10-05,1,,,,,,0
3381,9180002060693,登記記録の閉鎖等,0,2023-01-18,2023-01-17,有限会社ワイティープルーフ中部,,有限会社,愛知県,名古屋市天白区,福池２丁目４０３番地,,23,116,4680049,,,2023-01-17,登記官による閉鎖,,,2015-10-05,1,,,,,,0
3382,9180002075163,登記記録の閉鎖等,0,2023-01-18,2023-01-17,有限会社ナチュール,,有限会社,愛知県,丹羽郡大口町,堀尾跡２丁目６２番地,,23,361,4800136,,,2023-01-17,登記官による閉鎖,,,2015-10-05,1,,,,,,0
3383,9180002076913,登記記録の閉鎖等,0,2023-01-18,2023-01-17,有限会社竹朋かつら,00073407,有限会社,愛知県,一宮市,萩原町萩原２２６２番地の１,,23,203,4910353,,,2023-01-17,登記官による閉鎖,,,2015-10-05,1,,,,,,0
3384,9180002082837,登記記録の閉鎖等,0,2023-01-18,2023-01-17,有限会社キャリーハート,,有限会社,愛知県,岩倉市,東町東市場屋敷２０９番地,,23,228,4820041,,,2023-01-17,登記官による閉鎖,,,2015-10-05,1,,,,,,0
3385,9180002086994,登記記録の閉鎖等,0,2023-01-18,2023-01-17,有限会社丸鷹マリン,,有限会社,愛知県,半田市,有楽町７丁目１０６番地の１,,23,205,4750837,,,2023-01-17,登記官による閉鎖,,,2015-10-05,1,,,,,,0
3386,9180003012223,登記記録の閉鎖等,0,2023-01-18,2023-01-17,合資会社丸鐘商店,,合資会社,愛知県,稲沢市,平和町西光坊海東阿原２１番地,,23,220,4901314,,,2023-01-17,登記官による閉鎖,,,2015-10-05,1,,,,,,0
3387,9180005004219,登記記録の閉鎖等,0,2023-01-18,2023-01-17,名古屋道路維持清掃事業協同組合,,その他の設立登記法人,愛知県,名古屋市南区,本地通６丁目８番地１クリーンビル内,,23,112,4570074,,,2023-01-17,登記官による閉鎖,,,2015-10-05,1,,,,,,0
3388,9180005005547,登記記録の閉鎖等,0,2023-01-18,2023-01-17,特定非営利活動法人二十二世紀生活環境会議,,その他の設立登記法人,愛知県,名古屋市千種区,今池南２９番１６号,,23,101,4640851,,,2023-01-17,登記官による閉鎖,,,2015-10-05,1,,,,,,0
3389,9180005005638,登記記録の閉鎖等,0,2023-01-18,2023-01-17,名古屋モノ創り２１協同組合,,その他の設立登記法人,愛知県,名古屋市南区,豊田２丁目１４番１１号,,23,112,4570841,,,2023-01-17,登記官による閉鎖,,,2015-10-05,1,,,,,,0
3390,9180005006215,登記記録の閉鎖等,0,2023-01-18,2023-01-17,特定非営利活動法人名古屋ＳＯＨＯクラブ,,その他の設立登記法人,愛知県,名古屋市中区,上前津２丁目４番３１号,,23,106,4600013,,,2023-01-17,登記官による閉鎖,,,2015-10-05,1,,,,,,0
3391,9180005010935,登記記録の閉鎖等,0,2023-01-18,2023-01-17,特定非営利活動法人お家の文化財を守る会,,その他の設立登記法人,愛知県,一宮市,北小渕字南切５１番地,,23,203,4910013,,,2023-01-17,登記官による閉鎖,,,2015-10-05,1,,,,,,0
3392,9180005011891,登記記録の閉鎖等,0,2023-01-18,2023-01-17,ＩＮＡＸ労働組合,,その他の設立登記法人,愛知県,常滑市,新開町１丁目９６番地,,23,216,4790837,,,2023-01-17,登記官による閉鎖,,,2015-10-05,1,,,,,,0
3398,9180303004498,登記記録の閉鎖等,0,2023-01-18,2023-01-11,合同会社Ｇｒａｎｄｉｒ,,合同会社,愛知県,豊川市,牛久保町八幡口８７番地グランビア牛久保１０２号,,23,207,4420826,,,2023-01-11,清算の結了等,,,2020-01-08,1,,,,,グランディール,0
3422,9290001005738,登記記録の閉鎖等,0,2023-01-18,2023-01-18,株式会社松藤電工社,,株式会社,福岡県,福岡市早良区,小田部１丁目３２番１６号,,40,137,8140032,,,2023-01-18,登記官による閉鎖,,,2015-10-05,1,,,,,,0
3424,9290001018772,登記記録の閉鎖等,0,2023-01-18,2023-01-18,株式会社ビジネス情報システム,,株式会社,福岡県,福岡市西区,拾六町４丁目４６番１号,,40,135,8190041,,,2023-01-18,登記官による閉鎖,,,2015-10-05,1,,,,,,0
3425,9290001032360,登記記録の閉鎖等,0,2023-01-18,2023-01-18,太陽石油株式会社,,株式会社,福岡県,福岡市早良区,百道浜１丁目２番６－２３０５号,,40,137,8140001,,,2023-01-18,登記官による閉鎖,,,2015-10-05,1,,,,,,0
3426,9290001034943,登記記録の閉鎖等,0,2023-01-18,2023-01-18,株式会社フェニックスライテック,,株式会社,福岡県,福岡市博多区,博多駅東２丁目６番２３号博多駅前第２ビル,,40,132,8120013,,,2023-01-18,登記官による閉鎖,,,2015-10-05,1,,,,,,0
3427,9290001041626,登記記録の閉鎖等,0,2023-01-18,2023-01-18,株式会社ユウエイ建設,,株式会社,福岡県,春日市,上白水４丁目６３番地,,40,218,8160844,,,2023-01-18,登記官による閉鎖,,,2015-10-05,1,,,,,,0
3428,9290001041691,登記記録の閉鎖等,0,2023-01-18,2023-01-18,株式会社イエヌコーポレーション,,株式会社,福岡県,春日市,須玖北５丁目１０５番地,,40,218,8160864,,,2023-01-18,登記官による閉鎖,,,2015-10-05,1,,,,,,0
3429,9290001046336,登記記録の閉鎖等,0,2023-01-18,2023-01-18,株式会社菊池コスモス,,株式会社,福岡県,飯塚市,幸袋７７１番地６,,40,205,8200066,,,2023-01-18,登記官による閉鎖,,,2015-10-05,1,,,,,,0
3430,9290001046476,登記記録の閉鎖等,0,2023-01-18,2023-01-18,かわら総合技研株式会社,,株式会社,福岡県,嘉麻市,平山７５３番地３,,40,227,8200506,,,2023-01-18,登記官による閉鎖,,,2015-10-05,1,,,,,,0
3431,9290001052128,登記記録の閉鎖等,0,2023-01-18,2023-01-18,株式会社トラスト,,株式会社,福岡県,福岡市博多区,店屋町１番３１号博多アーバンスクエア３階,,40,132,8120025,,,2023-01-18,登記官による閉鎖,,,2015-10-05,1,,,,,,0
3434,9290001084419,登記記録の閉鎖等,0,2023-01-18,2023-01-04,株式会社日建マテリアル,,株式会社,沖縄県,那覇市,首里山川町１丁目６８番地ファイブテラス１階,,47,201,9030825,,,2023-01-04,合併による解散等,6360001002714,令和５年１月１日沖縄県那覇市首里山川町一丁目６８番地ファイブテラス１階株式会社日建ハウジング（6360001002714）に合併し解散,2019-03-07,1,,,,,ニッケンマテリアル,0
3438,9290002032491,登記記録の閉鎖等,0,2023-01-18,2023-01-18,有限会社パーフェクトホーム,,有限会社,福岡県,福岡市博多区,寿町３丁目３番５,,40,132,8120884,,,2023-01-18,登記官による閉鎖,,,2015-10-05,1,,,,,,0
3439,9290002035461,登記記録の閉鎖等,0,2023-01-18,2023-01-18,有限会社三刀屋,,有限会社,福岡県,宗像市,東郷６丁目１番１７号,,40,220,8113436,,,2023-01-18,登記官による閉鎖,,,2015-10-05,1,,,,,,0
3440,9290002041088,登記記録の閉鎖等,0,2023-01-18,2023-01-18,有限会社サイエイ,,有限会社,福岡県,大野城市,南ケ丘４丁目１２番５号,,40,219,8160964,,,2023-01-18,登記官による閉鎖,,,2015-10-05,1,,,,,,0
3441,9290002056912,登記記録の閉鎖等,0,2023-01-18,2023-01-18,有限会社寺浦温泉,,有限会社,福岡県,糟屋郡宇美町,光正寺２丁目１１番２６号,,40,341,8112123,,,2023-01-18,登記官による閉鎖,,,2015-10-05,1,,,,,,0
3442,9290003001768,登記記録の閉鎖等,0,2023-01-18,2023-01-18,合資会社須恵クレーン,,合資会社,福岡県,糟屋郡須惠町,大字上須恵１１３０番地２４号,,40,344,8112100,,,2023-01-18,登記官による閉鎖,,,2015-10-05,1,,,,,,0
3443,9290005003110,登記記録の閉鎖等,0,2023-01-18,2023-01-18,ファミリーライフサポート福岡協同組合,,その他の設立登記法人,福岡県,福岡市中央区,大手門１丁目５番８号,,40,133,8100074,,,2023-01-18,登記官による閉鎖,,,2015-10-05,1,,,,,,0
3444,9290005003911,登記記録の閉鎖等,0,2023-01-18,2023-01-18,特定非営利活動法人世界文化交流機構,,その他の設立登記法人,福岡県,福岡市博多区,堅粕３丁目１７番７号,,40,132,8120043,,,2023-01-18,登記官による閉鎖,,,2015-10-05,1,,,,,,0
3445,9290005006344,登記記録の閉鎖等,0,2023-01-18,2023-01-18,特定非営利活動法人環境再生機構,,その他の設立登記法人,福岡県,糟屋郡粕屋町,大字長者原３５５－１,,40,349,8112311,,,2023-01-18,登記官による閉鎖,,,2015-10-05,1,,,,,,0
3446,9290005007128,登記記録の閉鎖等,0,2023-01-18,2023-01-18,一般社団法人筑紫地区開発推進事業団,,その他の設立登記法人,福岡県,福岡市博多区,博多駅南３丁目１５番３０－３０３号,,40,132,8120016,,,2023-01-18,登記官による閉鎖,,,2015-10-05,1,,,,,,0
3447,9290005012350,登記記録の閉鎖等,0,2023-01-18,2023-01-18,三里商店街振興組合,,その他の設立登記法人,福岡県,大牟田市,三里町３丁目６番地の９,,40,202,8360076,,,2023-01-18,登記官による閉鎖,,,2015-10-05,1,,,,,,0
3448,9290005013357,登記記録の閉鎖等,0,2023-01-18,2023-01-18,一般社団法人福祉皮膚美容協会,,その他の設立登記法人,福岡県,福岡市南区,大橋２丁目２５番２号,,40,134,8150033,,,2023-01-18,登記官による閉鎖,,,2015-10-05,1,,,,,,0
3450,9290801008213,登記記録の閉鎖等,0,2023-01-18,2023-01-18,株式会社オフィス花音,,株式会社,福岡県,北九州市小倉南区,沼緑町４丁目１５番３号,,40,107,8000207,,,2023-01-18,登記官による閉鎖,,,2015-10-05,1,,,,,,0
3451,9290801009896,登記記録の閉鎖等,0,2023-01-18,2023-01-18,株式会社黒木,,株式会社,福岡県,北九州市八幡西区,熊手１丁目１番１３号,,40,109,8060028,,,2023-01-18,登記官による閉鎖,,,2017-09-15,1,,,,,,0
3453,9290802010762,登記記録の閉鎖等,0,2023-01-18,2023-01-18,有限会社白光サービス,,有限会社,福岡県,北九州市小倉北区,末広２丁目１５番２４号,,40,106,8020012,,,2023-01-18,登記官による閉鎖,,,2015-10-05,1,,,,,,0
3454,9290802011356,登記記録の閉鎖等,0,2023-01-18,2023-01-18,有限会社フジ技建,,有限会社,福岡県,北九州市小倉南区,長尾１丁目４番３号,,40,107,8030274,,,2023-01-18,登記官による閉鎖,,,2015-10-05,1,,,,,,0
3456,9290802018467,登記記録の閉鎖等,0,2023-01-18,2023-01-18,有限会社わだや,,有限会社,福岡県,北九州市若松区,本町３丁目５番１号,,40,103,8080034,,,2023-01-18,登記官による閉鎖,,,2015-10-05,1,,,,,,0
3457,9290803000928,登記記録の閉鎖等,0,2023-01-18,2023-01-18,アイ・ピー・エフ・マネジメント合同会社,,合同会社,福岡県,北九州市小倉北区,宇佐町１丁目９番１９－２号,,40,106,8020016,,,2023-01-18,登記官による閉鎖,,,2015-10-05,1,,,,,,0
3459,9290805003796,登記記録の閉鎖等,0,2023-01-18,2023-01-18,特定非営利活動法人多文化共生センター北九州,,その他の設立登記法人,福岡県,北九州市小倉北区,室町３丁目２番２７号７０３号室,,40,106,8030812,,,2023-01-18,登記官による閉鎖,,,2015-10-05,1,,,,,,0
3460,9290805004027,登記記録の閉鎖等,0,2023-01-18,2023-01-18,学校法人桂昌学園,,その他の設立登記法人,福岡県,北九州市八幡東区,末広町５番１０号,,40,108,8050049,,,2023-01-18,登記官による閉鎖,,,2015-10-05,1,,,,,,0
3461,9290805005520,登記記録の閉鎖等,0,2023-01-18,2023-01-18,直鞍貨物運送協同組合,,その他の設立登記法人,福岡県,直方市,大字下新入５５２番地の２,,40,204,8220032,,,2023-01-18,登記官による閉鎖,,,2015-10-05,1,,,,,,0
3462,9290805007921,登記記録の閉鎖等,0,2023-01-18,2023-01-18,特定非営利活動法人青空サービス北九州,,その他の設立登記法人,福岡県,田川市,大字位登７３４番地の６,,40,206,8260044,,,2023-01-18,登記官による閉鎖,,,2015-10-05,1,,,,,,0
3465,9300002009620,登記記録の閉鎖等,0,2023-01-18,2023-01-18,有限会社金又通商,,有限会社,福岡県,北九州市小倉北区,大手町１６番３７－１０１０号,,40,106,8030814,,,2023-01-18,登記官による閉鎖,,,2015-10-05,1,,,,,,0
3466,9320001007490,登記記録の閉鎖等,0,2023-01-18,2023-01-18,恵成電気工事株式会社,,株式会社,大分県,大分市,富士見が丘東３丁目１４番４号,,44,201,8701176,,,2023-01-18,登記官による閉鎖,,,2015-10-05,1,,,,,,0
3468,9320002016862,登記記録の閉鎖等,0,2023-01-18,2023-01-18,有限会社菅義工業,,有限会社,大分県,佐伯市,野岡町２丁目９番２号,,44,205,8760815,,,2023-01-18,登記官による閉鎖,,,2015-10-05,1,,,,,,0
3469,9320002017258,登記記録の閉鎖等,0,2023-01-18,2023-01-18,有限会社豊南設計,,有限会社,大分県,佐伯市,弥生大字門田１８１１番地の８,,44,205,8760122,,,2023-01-18,登記官による閉鎖,,,2015-10-05,1,,,,,,0
3470,9320002017489,登記記録の閉鎖等,0,2023-01-18,2023-01-18,有限会社レベルエイト,,有限会社,大分県,佐伯市,常盤南町５番１１号,,44,205,8760852,,,2023-01-18,登記官による閉鎖,,,2015-10-05,1,,,,,,0
3471,9320002018990,登記記録の閉鎖等,0,2023-01-18,2023-01-18,笹の泉グループ本部有限会社,,有限会社,大分県,日田市,大字友田３４３４番地１,,44,204,8770000,,,2023-01-18,登記官による閉鎖,,,2015-10-05,1,,,,,,0
3472,9320002019948,登記記録の閉鎖等,0,2023-01-18,2023-01-18,有限会社藤建設,,有限会社,大分県,玖珠郡九重町,大字松木１５３番地,,44,461,8794632,,,2023-01-18,登記官による閉鎖,,,2015-10-05,1,,,,,,0
3473,9320003003257,登記記録の閉鎖等,0,2023-01-18,2023-01-13,合同会社カスガ・ピーアール,,合同会社,大分県,大分市,東春日町１３番１３－６０４号,,44,201,8700037,,,2023-01-13,清算の結了等,,,2020-06-04,1,,,,,カスガピーアール,0
3474,9320005001787,登記記録の閉鎖等,0,2023-01-18,2023-01-18,特定非営利活動法人優,,その他の設立登記法人,大分県,大分市,新栄町１６番２６号,,44,201,8700919,,,2023-01-18,登記官による閉鎖,,,2015-10-05,1,,,,,,0
3475,9320005005805,登記記録の閉鎖等,0,2023-01-18,2023-01-18,特定非営利活動法人子ども未来ネット弥生,,その他の設立登記法人,大分県,佐伯市,弥生大字上小倉１２１１番地,,44,205,8760112,,,2023-01-18,登記官による閉鎖,,,2015-10-05,1,,,,,,0
3476,9320005008064,登記記録の閉鎖等,0,2023-01-18,2023-01-18,特定非営利活動法人まごころサービス中津,,その他の設立登記法人,大分県,中津市,三光下秣１１９３番地１,,44,203,8790223,,,2023-01-18,登記官による閉鎖,,,2015-10-05,1,,,,,,0
3497,9380001019027,登記記録の閉鎖等,0,2023-01-18,2023-01-12,株式会社アクティア,,株式会社,福島県,会津若松市,中央３丁目１番８－３０３号ライオンズマンション中央公園,,07,202,9650037,,,2023-01-12,清算の結了等,,,2015-10-05,1,,,,,アクティア,0
3501,9400002009107,登記記録の閉鎖等,0,2023-01-18,2023-01-12,有限会社伊藤木工所,,有限会社,岩手県,北上市,藤沢１８地割９番地３,,03,206,0240013,,,2023-01-12,清算の結了等,,,2015-10-05,1,,,,,イトウモッコウショ,0
3502,9410001004248,登記記録の閉鎖等,0,2023-01-18,2023-01-18,株式会社ふくわうち,,株式会社,秋田県,秋田市,土崎港北５丁目５番４２号,,05,201,0110941,,,2023-01-18,登記官による閉鎖,,,2015-10-05,1,,,,,,0
3503,9410002000080,登記記録の閉鎖等,0,2023-01-18,2023-01-12,有限会社アイドマ,,有限会社,秋田県,秋田市,新屋松美ガ丘東町１番３６号,,05,201,0101617,,,2023-01-12,清算の結了等,,,2015-10-05,1,,,,,アイドマ,0
3504,9410002008751,登記記録の閉鎖等,0,2023-01-18,2023-01-18,有限会社ムジーク,,有限会社,秋田県,大館市,字大館７９番地,,05,204,0170896,,,2023-01-18,登記官による閉鎖,,,2015-10-05,1,,,,,,0
3511,9460102001734,登記記録の閉鎖等,0,2023-01-18,2023-01-18,有限会社総合美装工業,,有限会社,北海道,帯広市,新町東３丁目６番地,,01,207,0800052,,,2023-01-18,登記官による閉鎖,,,2015-10-05,1,,,,,,0
3512,9460102002071,登記記録の閉鎖等,0,2023-01-18,2023-01-18,有限会社第一設備サービス,,有限会社,北海道,帯広市,稲田町基線８番地３６,,01,207,0800833,,,2023-01-18,登記官による閉鎖,,,2015-10-05,1,,,,,,0
3515,9480002003481,登記記録の閉鎖等,0,2023-01-18,2023-01-13,有限会社宅配牧場,,有限会社,徳島県,徳島市,南末広町２番４１号,,36,201,7700865,,,2023-01-13,合併による解散等,6480001002297,令和５年１月１日徳島県徳島市南末広町２番４１号マルナカ食品株式会社（6480001002297）に合併し解散,2015-10-05,1,,,,,タクハイボクジョウ,0
3517,9480003001583,登記記録の閉鎖等,0,2023-01-18,2023-01-04,合同会社Ｂｉｇ　Ｎａｍｅ,,合同会社,徳島県,徳島市,北島田町１丁目１５４番地の１２フィオーレＮＳ４－Ｄ２０１号室,,36,201,7700051,,,2023-01-04,清算の結了等,,,2020-12-03,1,,,,,ビッグネーム,0
3518,9490001000173,登記記録の閉鎖等,0,2023-01-18,2023-01-04,入交ガス株式会社,,株式会社,高知県,高知市,桟橋通５丁目５番１０号,,39,201,7808010,,,2023-01-04,合併による解散等,2490001000213,令和５年１年１日高知市中の島２番８９号入交石油株式会社（2490001000213）に合併し解散,2015-10-05,1,,,,,イリマジリガス,0
3519,9490001001709,登記記録の閉鎖等,0,2023-01-18,2023-01-18,日本パーム株式会社,,株式会社,高知県,高知市,若松町１１番３１号,,39,201,7800812,,,2023-01-18,登記官による閉鎖,,,2015-11-09,1,,,,,,0
3520,9490001008225,登記記録の閉鎖等,0,2023-01-18,2023-01-18,高知産業株式会社,,株式会社,高知県,高知市,天神町８番１２号,,39,201,7808012,,,2023-01-18,登記官による閉鎖,,,2015-12-25,1,,,,,,0
3521,9490002008546,登記記録の閉鎖等,0,2023-01-18,2023-01-18,有限会社ハリカ中村店,,有限会社,高知県,四万十市,中村大橋通６丁目３番７号,,39,210,7870033,,,2023-01-18,登記官による閉鎖,,,2015-10-05,1,,,,,,0
3522,9490002013372,登記記録の閉鎖等,0,2023-01-18,2023-01-18,有限会社みかづき不動産,,有限会社,高知県,高知市,中万々７０番地２５,,39,201,7800972,,,2023-01-18,登記官による閉鎖,,,2015-10-26,1,,,,,,0
3523,9490005000095,登記記録の閉鎖等,0,2023-01-18,2023-01-18,郷土ものづくり開発協同組合,,その他の設立登記法人,高知県,高知市,はりまや町２丁目４番１９号,,39,201,7800822,,,2023-01-18,登記官による閉鎖,,,2015-10-05,1,,,,,,0
