sequenceNumber,corporateNumber,process,correct,updateDate,changeDate,name,nameImageId,kind,prefectureName,cityName,streetNumber,addressImageId,prefectureCode,cityCode,postCode,addressOutside,addressOutsideImageId,closeDate,closeCause,successorCorporateNumber,changeCause,assignmentDate,latest,enName,enPrefectureName,enCityName,enAddressOutside,furigana,hihyoji
40,1011203003671,新規,0,2021-10-21,2021-10-21,合同会社ＡＳＩＡＮ　ＤＩＮＩＮＧ　ＳＰＡＣＥ,,合同会社,東京都,中野区,中野５丁目６０番２号ライオンズプラザ中野４１０号室,,13,114,1640001,,,,,,,2021-10-21,1,,,,,アジアンダイニングスペース,0
46,1011601025490,新規,0,2021-10-21,2021-10-21,株式会社トゥエルブ,,株式会社,東京都,練馬区,豊玉上２丁目１４番１２号ＡＸＡＳ桜台Ｓｔａ．９０１,,13,120,1760011,,,,,,,2021-10-21,1,,,,,トゥエルブ,0
51,1011801039860,新規,0,2021-10-21,2021-10-21,ＲＥＮＡＵＤ　ＢＩＯ株式会社,,株式会社,東京都,足立区,千住寿町３５番１７－１１０１号,,13,121,1200033,,,,,,,2021-10-21,1,,,,,レナウドバイオ,0
53,1011803004838,新規,0,2021-10-21,2021-10-21,合同会社本多総業,,合同会社,東京都,葛飾区,柴又３丁目３４番２号,,13,122,1250052,,,,,,,2021-10-21,1,,,,,ホンダソウギョウ,0
55,1012403005078,新規,0,2021-10-21,2021-10-21,合同会社アセントサイクル,,合同会社,東京都,小金井市,桜町２丁目１０番７号,,13,210,1840005,,,,,,,2021-10-21,1,,,,,アセントサイクル,0
57,1012703002337,新規,0,2021-10-21,2021-10-21,合同会社ＦＩＴ,,合同会社,東京都,西東京市,田無町１丁目８－２８エクセレントシティ田無５０４,,13,229,1880011,,,,,,,2021-10-21,1,,,,,フィット,0
73,1020001143539,新規,0,2021-10-21,2021-10-21,株式会社マミーズハンド,,株式会社,神奈川県,横浜市港北区,新横浜２丁目１４番地８オフィス新横浜５０８,,14,109,2220033,,,,,,,2021-10-21,1,,,,,マミーズハンド,0
99,1030003018168,新規,0,2021-10-21,2021-10-21,合同会社アマネクス,,合同会社,埼玉県,川口市,本町４丁目３番１４号・小峰第一ビル５階－Ｓ７,,11,203,3320012,,,,,,,2021-10-21,1,,,,,アマネクス,0
100,1030003018184,新規,0,2021-10-21,2021-10-21,ウィ・コネクト合同会社,,合同会社,埼玉県,川越市,新宿町１丁目１７番１７ウェスタ川越５１５号,,11,201,3501124,,,,,,,2021-10-21,1,,,,,ウィコネクト,0
109,1040001120668,新規,0,2021-10-21,2021-10-21,博商事株式会社,,株式会社,千葉県,松戸市,松戸１１３５番地の４,,12,207,2710092,,,,,,,2021-10-21,1,,,,,ハクショウジ,0
110,1040003018794,新規,0,2021-10-21,2021-10-21,合同会社ＮＵＷＡＮ　ＥＮＴＥＲＰＲＩＳＥＳ,,合同会社,千葉県,八千代市,米本１０９９番地１,,12,221,2760015,,,,,,,2021-10-21,1,,,,,ヌワンエンタープライゼズ,0
111,1040005021391,新規,0,2021-10-21,2021-10-21,医療法人社団ここらるら,,その他の設立登記法人,千葉県,市川市,菅野５丁目１１番１６号,,12,203,2720824,,,,,,,2021-10-21,1,,,,,ココラルラ,0
119,1070001038560,新規,0,2021-10-21,2021-10-21,株式会社須藤空調,,株式会社,群馬県,高崎市,棟高町５１１番地２４,,10,202,3703521,,,,,,,2021-10-21,1,,,,,ストウクウチョウ,0
124,1080001024519,新規,0,2021-10-21,2021-10-21,株式会社ＬＣＳＢ,,株式会社,静岡県,静岡市葵区,人宿町２丁目３番地の５Ｓ－ＣＯＭＦＯＲＴ人宿５０１号,,22,101,4200037,,,,,,,2021-10-21,1,,,,,エルシーエスビー,0
164,1120001241308,新規,0,2021-10-21,2021-10-21,株式会社グランアッシュ,,株式会社,大阪府,大阪市城東区,鴫野東２丁目１９番２－１１１号,,27,118,5360013,,,,,,,2021-10-21,1,,,,,グランアッシュ,0
169,1120005022563,新規,0,2021-10-21,2021-10-21,一般社団法人ジェンダーキャリアコンサルティング協会,,その他の設立登記法人,大阪府,大阪市中央区,淡路町２丁目１－１０ユニ船場５０３号,,27,128,5410047,,,,,,,2021-10-21,1,,,,,ジェンダーキャリアコンサルティングキョウカイ,0
183,1130005016300,新規,0,2021-10-21,2021-10-21,一般社団法人ＨＯＰＥ,,その他の設立登記法人,京都府,綾部市,白道路町大道５番地の１,,26,203,6230361,,,,,,,2021-10-21,1,,,,,ホープ,0
188,1140001123545,新規,0,2021-10-21,2021-10-21,株式会社ギブアンドデー,,株式会社,兵庫県,西宮市,上甲子園１丁目８番２１－３０２号,,28,204,6638114,,,,,,,2021-10-21,1,,,,,ギブアンドデー,0
198,1180003023104,新規,0,2021-10-21,2021-10-21,合同会社まごころ,,合同会社,愛知県,日進市,栄４丁目６０３番地セルシオコート日進３０５,,23,230,4700113,,,,,,,2021-10-21,1,,,,,マゴコロ,0
199,1180003023112,新規,0,2021-10-21,2021-10-21,合同会社グレートパワー,,合同会社,愛知県,名古屋市中区,千代田４丁目２０番１０号（シティライフ東別院８０５号）,,23,106,4600012,,,,,,,2021-10-21,1,,,,,グレートパワー,0
205,1180303005140,新規,0,2021-10-21,2021-10-21,ユニバーサルヘルスケア合同会社,,合同会社,愛知県,蒲郡市,栄町４番１号,,23,214,4430035,,,,,,,2021-10-21,1,,,,,ユニバーサルヘルスケア,0
208,1190001028789,新規,0,2021-10-21,2021-10-21,Ｌｉｒｉｏ株式会社,,株式会社,三重県,松阪市,石津町２５０番地３,,24,204,5150006,,,,,,,2021-10-21,1,,,,,リリオ,0
210,1200001039322,新規,0,2021-10-21,2021-10-21,株式会社ＲＥＢＯＲＮ．ＢＵＩＬＤ,,株式会社,岐阜県,岐阜市,福富町田２９５番地２,,21,201,5012567,,,,,,,2021-10-21,1,,,,,リボーンビルド,0
213,1220001024487,新規,0,2021-10-21,2021-10-21,株式会社マトリクション,,株式会社,石川県,金沢市,八田町東１１２番地,,17,201,9203104,,,,,,,2021-10-21,1,,,,,マトリクション,0
223,1260001036108,新規,0,2021-10-21,2021-10-21,株式会社啓澄会,,株式会社,岡山県,岡山市南区,新福１丁目４番２４号７０２,,33,104,7000943,,,,,,,2021-10-21,1,,,,,ケイチョウカイ,0
242,1340001024186,新規,0,2021-10-21,2021-10-21,株式会社ＮｉＪｉメディカル,,株式会社,鹿児島県,いちき串木野市,昭和通１３１番地１０１号,,46,219,8960026,,,,,,,2021-10-21,1,,,,,ニジメディカル,0
245,1360005006534,新規,0,2021-10-21,2021-10-21,一般社団法人よなばる観光まちづくりネットワーク,,その他の設立登記法人,沖縄県,島尻郡与那原町,字与那原１０３９番地,,47,348,9011303,,,,,,,2021-10-21,1,,,,,ヨナバルカンコウマチヅクリネットワーク,0
257,1390001016641,新規,0,2021-10-21,2021-10-21,リードシンク株式会社,,株式会社,山形県,米沢市,下花沢３丁目５番５９－４号,,06,202,9920023,,,,,,,2021-10-21,1,,,,,リードシンク,0
268,1430003013269,新規,0,2021-10-21,2021-10-21,合同会社ＭＡファースト,,合同会社,北海道,札幌市豊平区,西岡四条９丁目９番２１号,,01,105,0620034,,,,,,,2021-10-21,1,,,,,エムエーファースト,0
269,1450003002146,新規,0,2021-10-21,2021-10-21,合同会社ｃｕｏｒｅ,,合同会社,北海道,雨竜郡妹背牛町,字妹背牛４１１４番地の１,,01,433,0790500,,,,,,,2021-10-21,1,,,,,クオーレ,0
279,1700150105411,新規,0,2021-10-21,2021-10-21,横浜町地域農業再生協議会,,その他,青森県,上北郡横浜町,字寺下３５番地,,02,406,0394145,,,,,,,2021-10-21,1,,,,,ヨコハママチチイキノウギョウサイセイキョウギカイ,0
286,2010001221947,新規,0,2021-10-21,2021-10-21,株式会社カーボンニュートラル総研,,株式会社,東京都,中央区,銀座６丁目１２番１５号いちご銀座６１２ビル６階,,13,102,1040061,,,,,,,2021-10-21,1,,,,,カーボンニュートラルソウケン,0
287,2010001221963,新規,0,2021-10-21,2021-10-21,株式会社井益勢屋,,株式会社,東京都,文京区,小日向１丁目３番１３号,,13,105,1120006,,,,,,,2021-10-21,1,,,,,イマセヤ,0
294,2010101014920,新規,0,2021-10-21,2021-10-21,株式会社Ｃｏｌｏｒ　Ｓｕｐｐｏｒｔ,,株式会社,東京都,八王子市,堀之内５３２番地１２,,13,201,1920355,,,,,,,2021-10-21,1,,,,,カラーサポート,0
305,2010401163343,新規,0,2021-10-21,2021-10-21,株式会社大日商会,,株式会社,東京都,港区,高輪４丁目２４－３６クレスト高輪Ｂ１０１室,,13,103,1080074,,,,,,,2021-10-21,1,,,,,ダイニチショウカイ,0
306,2010401163351,新規,0,2021-10-21,2021-10-21,株式会社バウンサー,,株式会社,東京都,港区,海岸１丁目１３番１７－１７０３号,,13,103,1050022,,,,,,,2021-10-21,1,,,,,バウンサー,0
307,2010401163392,新規,0,2021-10-21,2021-10-21,株式会社アクアムーン,,株式会社,東京都,港区,赤坂３丁目１２番１３号,,13,103,1070052,,,,,,,2021-10-21,1,,,,,アクアムーン,0
324,2010903006891,新規,0,2021-10-21,2021-10-21,合同会社Ｓｉｉ,,合同会社,東京都,世田谷区,千歳台４丁目２２－６ライオンズガーデン芦花公園１０３,,13,112,1570071,,,,,,,2021-10-21,1,,,,,シー,0
335,2011101096643,新規,0,2021-10-21,2021-10-21,株式会社井上ホールディングス,,株式会社,東京都,新宿区,若宮町２５番地,,13,104,1620827,,,,,,,2021-10-21,1,,,,,イノウエホールディングス,0
336,2011203003670,新規,0,2021-10-21,2021-10-21,ｒｉｐｃｏｒｄ合同会社,,合同会社,東京都,中野区,南台２丁目５２番２号広瀬アパート１０１,,13,114,1640014,,,,,,,2021-10-21,1,,,,,リップコード,0
345,2011501027413,新規,0,2021-10-21,2021-10-21,株式会社ＧｒｏｗＵＰ,,株式会社,東京都,北区,堀船１丁目３番１号梶原方１０２号室,,13,117,1140004,,,,,,,2021-10-21,1,,,,,グローアップ,0
351,2012401038426,新規,0,2021-10-21,2021-10-21,株式会社ｅｌｌｉｐｓｅ,,株式会社,東京都,調布市,国領町１丁目４４番地１,,13,208,1820022,,,,,,,2021-10-21,1,,,,,エリプス,0
352,2012703002336,新規,0,2021-10-21,2021-10-21,合同会社ＡＫ－ＫＫ,,合同会社,東京都,東村山市,栄町２丁目２４番地４１－３０１,,13,213,1890013,,,,,,,2021-10-21,1,,,,,エーケイケイケイ,0
357,2013301048176,新規,0,2021-10-21,2021-10-21,株式会社エコスマイル,,株式会社,東京都,豊島区,東池袋１丁目３１番１５号トーカン池袋第２キャステール７０２号,,13,116,1700013,,,,,,,2021-10-21,1,,,,,エコスマイル,0
358,2013301048184,新規,0,2021-10-21,2021-10-21,株式会社フォルテミュージック,,株式会社,東京都,豊島区,南池袋１丁目２６番９号,,13,116,1710022,,,,,,,2021-10-21,1,,,,,フォルテミュージック,0
360,2013305003268,新規,0,2021-10-21,2021-10-21,一般社団法人Ｇｒｏｗｔｈ　Ｅｄｕｃａｔｉｏｎ,,その他の設立登記法人,東京都,豊島区,高田１丁目４０番１３号尾上ビル２０１号,,13,116,1710033,,,,,,,2021-10-21,1,,,,,グロースエデュケーション,0
385,2030005020600,新規,0,2021-10-21,2021-10-21,医療法人社団オハナ,,その他の設立登記法人,埼玉県,鶴ヶ島市,大字藤金８４５番地４コモド若葉３階,,11,241,3502206,,,,,,,2021-10-21,1,,,,,オハナ,0
395,2040001120691,新規,0,2021-10-21,2021-10-21,株式会社Ｋｙｏｍｉｏｓ,,株式会社,千葉県,千葉市花見川区,幕張町５丁目４１７番地１７エステ・シティ海浜幕張１－１００５号,,12,102,2620032,,,,,,,2021-10-21,1,,,,,キョミアス,0
401,2050003006145,新規,0,2021-10-21,2021-10-21,ＲＡＮＡＬＩ　ＩＮＴＥＲＮＡＴＩＯＮＡＬ合同会社,,合同会社,茨城県,潮来市,堀之内１４７３番地Ａ,,08,223,3112433,,,,,,,2021-10-21,1,,,,,ラナリインターナショナル,0
414,2100003006271,新規,0,2021-10-21,2021-10-21,合同会社Ｔｒｅｉｎｔａ　ｙ　Ｓｉｅｔｅ,,合同会社,長野県,北佐久郡御代田町,大字草越１１７３番地１８２６,,20,323,3890202,,,,,,,2021-10-21,1,,,,,トレインタイシエテ,0
429,2120001241166,新規,0,2021-10-21,2021-10-21,株式会社マティアル,,株式会社,大阪府,大阪市北区,天神橋８丁目１０－１８,,27,127,5310041,,,,,,,2021-10-21,1,,,,,マティアル,0
430,2120001241208,新規,0,2021-10-21,2021-10-21,マザーズ・ラブ株式会社,,株式会社,大阪府,大阪市平野区,西脇４丁目４番２１号６０３号室,,27,126,5470035,,,,,,,2021-10-21,1,,,,,マザーズラブ,0
431,2120001241281,新規,0,2021-10-21,2021-10-21,株式会社ＲＯＤ,,株式会社,大阪府,大阪市東淀川区,東中島１丁目１７番５号ステュディオ新大阪１０２３号,,27,114,5330033,,,,,,,2021-10-21,1,,,,,,0
433,2120005022562,新規,0,2021-10-21,2021-10-21,一般社団法人ＡＮＳ,,その他の設立登記法人,大阪府,大阪市北区,東天満２丁目８番１号,,27,127,5300044,,,,,,,2021-10-21,1,,,,,エーエヌエス,0
437,2120903003878,新規,0,2021-10-21,2021-10-21,ＣｌｏｕｄＢｒｅａｋ合同会社,,合同会社,大阪府,豊中市,上新田４丁目１６－１２グレースヴィラ３０１,,27,203,5600085,,,,,,,2021-10-21,1,,,,,クラウドブレイク,0
449,2140003016886,新規,0,2021-10-21,2021-10-21,かみせか農園合同会社,,合同会社,兵庫県,神崎郡市川町,上瀬加１０６５番地,,28,442,6792303,,,,,,,2021-10-21,1,,,,,カミセカノウエン,0
452,2150001025038,新規,0,2021-10-21,2021-10-21,エフスリー企画株式会社,,株式会社,奈良県,香芝市,真美ヶ丘７丁目２番３号,,29,210,6390223,,,,,,,2021-10-21,1,,,,,エフスリーキカク,0
461,2180001148364,新規,0,2021-10-21,2021-10-21,直興業株式会社,,株式会社,愛知県,瀬戸市,東赤重町１丁目５８番地の１チサンマンション１０５,,23,204,4890877,,,,,,,2021-10-21,1,,,,,ナオコウギョウ,0
463,2180003023103,新規,0,2021-10-21,2021-10-21,合同会社守破離,,合同会社,愛知県,一宮市,天王４丁目２番５号,,23,203,4910046,,,,,,,2021-10-21,1,,,,,シュハリ,0
464,2190001028788,新規,0,2021-10-21,2021-10-21,株式会社水谷建設,,株式会社,三重県,名張市,梅が丘北４番町１１番地,,24,208,5180749,,,,,,,2021-10-21,1,,,,,ミズタニケンチク,0
473,2200001039321,新規,0,2021-10-21,2021-10-21,株式会社ヒューマイン,,株式会社,岐阜県,岐阜市,早田栄町３丁目３３番地,,21,201,5020847,,,,,,,2021-10-21,1,,,,,ヒューマイン,0
479,2210005009996,新規,0,2021-10-21,2021-10-21,一般社団法人みんなの居場所ｗｉｔｈふくい,,その他の設立登記法人,福井県,三方上中郡若狭町,気山第１２９号３番地,,18,501,9191301,,,,,,,2021-10-21,1,,,,,ミンナノイバショウィズフクイ,0
485,2240001058788,新規,0,2021-10-21,2021-10-21,ＢＳファルマ株式会社,,株式会社,広島県,広島市中区,千田町１丁目６番６号,,34,101,7300052,,,,,,,2021-10-21,1,,,,,ビーエスファルマ,0
497,2290001095083,新規,0,2021-10-21,2021-10-21,株式会社ｃｏｉ,,株式会社,福岡県,福岡市博多区,石城町１番３号,,40,132,8120032,,,,,,,2021-10-21,1,,,,,シーオーアイ,0
498,2290001095100,新規,0,2021-10-21,2021-10-21,株式会社ＡＣＥ　ＳＥＣＵＲＩＴＹ,,株式会社,福岡県,糟屋郡新宮町,美咲２丁目６－８マル義ビル２・３０５号室,,40,345,8110121,,,,,,,2021-10-21,1,,,,,エースセキュリティー,0
501,2290003011740,新規,0,2021-10-21,2021-10-21,合同会社ＪＩＷＡＮ,,合同会社,福岡県,久留米市,大善寺町宮本３４２番地８１,,40,203,8300073,,,,,,,2021-10-21,1,,,,,ジワン,0
506,2320001018684,新規,0,2021-10-21,2021-10-21,株式会社ＧＥＮＲＹＵ,,株式会社,大分県,大分市,金池町４丁目８番２０号,,44,201,8700026,,,,,,,2021-10-21,1,,,,,ゲンリュウ,0
513,2360005006533,新規,0,2021-10-21,2021-10-21,特定非営利活動法人いきがいＬＡＢＯ,,その他の設立登記法人,沖縄県,沖縄市,美原２丁目８番７号,,47,211,9042155,,,,,,,2021-10-21,1,,,,,イキガイラボ,0
517,2390001016649,新規,0,2021-10-21,2021-10-21,株式会社安江起業,,株式会社,山形県,山形市,あかねケ丘２丁目１番１４号,,06,201,9902481,,,,,,,2021-10-21,1,,,,,ヤスエキギョウ,0
529,2430001085210,新規,0,2021-10-21,2021-10-21,株式会社ＹＫＲ,,株式会社,北海道,札幌市北区,篠路七条３丁目６－１３クリスタル７３　２０２号,,01,102,0028027,,,,,,,2021-10-21,1,,,,,ワイケーアール,0
532,2430003013268,新規,0,2021-10-21,2021-10-21,合同会社オフィス小野,,合同会社,北海道,札幌市中央区,円山西町７丁目３番２１号,,01,101,0640944,,,,,,,2021-10-21,1,,,,,オフィスオノ,0
536,2470003002060,新規,0,2021-10-21,2021-10-21,合同会社藤の花,,合同会社,香川県,木田郡三木町,大字田中字石塚４６６８番地３,,37,341,7610611,,,,,,,2021-10-21,1,,,,,フジノハナ,0
543,2500001023749,新規,0,2021-10-21,2021-10-21,株式会社イワサキ,,株式会社,愛媛県,松山市,天山３丁目１３番１号ロータリー天山１０３号,,38,201,7900951,,,,,,,2021-10-21,1,,,,,イワサキ,0
549,3010001221913,新規,0,2021-10-21,2021-10-21,株式会社テンチャントシステム,,株式会社,東京都,文京区,本駒込６丁目２５番６号イトービル駒込８Ｆ,,13,105,1130021,,,,,,,2021-10-21,1,,,,,テンチャントシステム,0
550,3010001221946,新規,0,2021-10-21,2021-10-21,株式会社ｔｅｔｏｔｅ,,株式会社,東京都,千代田区,平河町１丁目３番６号ＢＩＺＭＡＲＫＳ麹町２階,,13,101,1020093,,,,,,,2021-10-21,1,,,,,テトテ,0
551,3010001221962,新規,0,2021-10-21,2021-10-21,株式会社ＢＧマーケティング,,株式会社,東京都,中央区,日本橋本町３丁目３番６号ワカ末ビル７階,,13,102,1030023,,,,,,,2021-10-21,1,,,,,ビージーマーケティング,0
553,3010003036070,新規,0,2021-10-21,2021-10-21,合同会社ひとむ商店,,合同会社,東京都,中央区,銀座１丁目２２番１１号銀座大竹ビジデンス２階,,13,102,1040061,,,,,,,2021-10-21,1,,,,,ヒトムショウテン,0
563,3010403026365,新規,0,2021-10-21,2021-10-21,Ｃｏｎｖｉｖａ　Ｊａｐａｎ合同会社,,合同会社,東京都,港区,西新橋３丁目４番２号ＳＳビル８階,,13,103,1050003,,,,,,,2021-10-21,1,,,,,コンビバジャパン,0
570,3010603009211,新規,0,2021-10-21,2021-10-21,秘密結社山口家合同会社,,合同会社,東京都,江東区,亀戸６丁目６番５－４０４号,,13,108,1360071,,,,,,,2021-10-21,1,,,,,ヒミツケッシャヤマグチケ,0
577,3010903006890,新規,0,2021-10-21,2021-10-21,合同会社はくせい舎,,合同会社,東京都,世田谷区,玉川４丁目４番１９－４０７号,,13,112,1580094,,,,,,,2021-10-21,1,,,,,ハクセイシャ,0
594,3011105010013,新規,0,2021-10-21,2021-10-21,ＴＩＰ税理士法人,,その他の設立登記法人,東京都,新宿区,高田馬場２丁目１４番２号新陽ビル９０５,,13,104,1690075,,,,,,,2021-10-21,1,,,,,ティーアイピー,0
597,3011201023331,新規,0,2021-10-21,2021-10-21,株式会社日新商事,,株式会社,東京都,中野区,沼袋２丁目３－１５沼袋ハイム３０１号室,,13,114,1650025,,,,,,,2021-10-21,1,,,,,ニッシンショウジ,0
604,3011601025489,新規,0,2021-10-21,2021-10-21,株式会社Ｃｏｐｉａｎａ,,株式会社,東京都,練馬区,中村３丁目２１－２０－２０３,,13,120,1760024,,,,,,,2021-10-21,1,,,,,コピアナ,0
609,3011701024795,新規,0,2021-10-21,2021-10-21,株式会社ＨＩＢＩＹＡホールディングス,,株式会社,東京都,江戸川区,西小岩４丁目６番２８－３０１号,,13,123,1330057,,,,,,,2021-10-21,1,,,,,ヒビヤホールディングス,0
611,3011801039850,新規,0,2021-10-21,2021-10-21,東興国際株式会社,,株式会社,東京都,葛飾区,堀切２丁目１０番６号－１Ｆ,,13,122,1240006,,,,,,,2021-10-21,1,,,,,トウコウコクサイ,0
612,3011801039859,新規,0,2021-10-21,2021-10-21,株式会社Ｔｒｙ　ｎｕｒｓｉｎｇ,,株式会社,東京都,葛飾区,柴又１丁目４２番２０号セントヒルズ柴又３０４号室,,13,122,1250052,,,,,,,2021-10-21,1,,,,,トライナーシング,0
613,3011803004836,新規,0,2021-10-21,2021-10-21,合同会社Ｅ－Ｓｅｌｅｃｔ,,合同会社,東京都,足立区,西保木間２丁目１５－２１－５０３,,13,121,1210812,,,,,,,2021-10-21,1,,,,,,0
614,3012301012744,新規,0,2021-10-21,2021-10-21,株式会社トゥーフィックス,,株式会社,東京都,町田市,本町田３４５０番地１４０,,13,209,1940032,,,,,,,2021-10-21,1,,,,,トゥーフィックス,0
617,3012401038433,新規,0,2021-10-21,2021-10-21,アヴニール株式会社,,株式会社,東京都,府中市,美好町２丁目５３番地の８アヴニール３０３,,13,206,1830045,,,,,,,2021-10-21,1,,,,,アヴニール,0
627,3013303005868,新規,0,2021-10-21,2021-10-21,合同会社ステーブルセイフティ,,合同会社,東京都,豊島区,池袋４丁目１８番７号,,13,116,1710014,,,,,,,2021-10-21,1,,,,,ステーブルセイフティ,0
639,3020001143561,新規,0,2021-10-21,2021-10-21,株式会社飯島商店,,株式会社,神奈川県,川崎市川崎区,鋼管通４丁目８番２１－６０５号,,14,131,2100852,,,,,,,2021-10-21,1,,,,,イイジマショウテン,0
647,3020005015245,新規,0,2021-10-21,2021-10-21,一般財団法人ＹＢＳ未来財団,,その他の設立登記法人,神奈川県,横浜市都筑区,池辺町４２６１番地１３,,14,118,2240053,,,,,,,2021-10-21,1,,,,,ワイビーエスミライザイダン,0
658,3030001144971,新規,0,2021-10-21,2021-10-21,株式会社ＤＵＲＧＡ　ＣＯＲＰＯＲＡＴＩＯＮ,,株式会社,埼玉県,蕨市,北町１丁目１６番３号,,11,223,3350001,,,,,,,2021-10-21,1,,,,,ドゥルガコーポレーション,0
666,3030003018166,新規,0,2021-10-21,2021-10-21,爽秀合同会社,,合同会社,埼玉県,南埼玉郡宮代町,宮代１丁目６番３号,,11,442,3450823,,,,,,,2021-10-21,1,,,,,ソウシユウ,0
671,3040001120666,新規,0,2021-10-21,2021-10-21,ＫＴＲｏｅ株式会社,,株式会社,千葉県,市川市,富浜２丁目１５番１－４０５号（ルネ新行徳Ａ棟）,,12,203,2720115,,,,,,,2021-10-21,1,,,,,ケーティーロエ,0
672,3040001120690,新規,0,2021-10-21,2021-10-21,ＳＩコンサルティングネット株式会社,,株式会社,千葉県,船橋市,習志野台２丁目５５番５号,,12,204,2740063,,,,,,,2021-10-21,1,,,,,エスアイコンサルティングネット,0
693,3070001038559,新規,0,2021-10-21,2021-10-21,株式会社徳工業,,株式会社,群馬県,前橋市,城東町５丁目１１番２号,,10,201,3710016,,,,,,,2021-10-21,1,,,,,トクコウギョウ,0
706,3100001034736,新規,0,2021-10-21,2021-10-21,株式会社ｎｅｘｔ　ｉｎｎｏｖａｔｉｏｎ,,株式会社,長野県,松本市,大字島内６６９０番地１５,,20,202,3900851,,,,,,,2021-10-21,1,,,,,ネクストイノベーション,0
707,3100001034744,新規,0,2021-10-21,2021-10-21,株式会社ブルースカイ,,株式会社,長野県,長野市,大字鶴賀緑町２２１４番２１号権堂ビル１階Ｂ号室,,20,201,3800813,,,,,,,2021-10-21,1,,,,,ブルースカイ,0
709,3100003006262,新規,0,2021-10-21,2021-10-21,合同会社常念社,,合同会社,長野県,松本市,並柳３丁目１９－１１,,20,202,3900825,,,,,,,2021-10-21,1,,,,,ジョウネンシャ,0
721,3120001241306,新規,0,2021-10-21,2021-10-21,株式会社クローバー,,株式会社,大阪府,大阪市浪速区,敷津西１丁目１２－２１アンピエス難波４０５,,27,111,5560015,,,,,,,2021-10-21,1,,,,,クローバー,0
722,3120001241330,新規,0,2021-10-21,2021-10-21,株式会社Ｌ．ｆｉｒｓｔ,,株式会社,大阪府,門真市,五月田町１８番１６－２０２号,,27,223,5710027,,,,,,,2021-10-21,1,,,,,エルファースト,0
728,3120003020451,新規,0,2021-10-21,2021-10-21,合同会社ＴＫファミリー,,合同会社,大阪府,大阪市中央区,玉造１丁目１５番１２－１４０２号,,27,128,5400004,,,,,,,2021-10-21,1,,,,,ティーケーファミリー,0
730,3120101064524,新規,0,2021-10-21,2021-10-21,株式会社未来へいこう,,株式会社,大阪府,岸和田市,中井町３丁目１３番１,,27,202,5960003,,,,,,,2021-10-21,1,,,,,ミライヘイコウ,0
731,3120103004412,新規,0,2021-10-21,2021-10-21,合同会社かつまさき,,合同会社,大阪府,堺市堺区,中田出井町２丁３番６号,,27,141,5900016,,,,,,,2021-10-21,1,,,,,カツマサキ,0
738,3130001070373,新規,0,2021-10-21,2021-10-21,株式会社うさぎ,,株式会社,京都府,京都市中京区,高宮町２１９番地サニーフォレストビル４階,,26,104,6048056,,,,,,,2021-10-21,1,,,,,ウサギ,0
742,3140001123568,新規,0,2021-10-21,2021-10-21,株式会社にしもと介護サービス,,株式会社,兵庫県,美方郡香美町,香住区香住６９３番地の１,,28,585,6696544,,,,,,,2021-10-21,1,,,,,ニシモトカイゴサービス,0
744,3150003002521,新規,0,2021-10-21,2021-10-21,合同会社ホリプランニング,,合同会社,奈良県,香芝市,旭ケ丘１丁目１番地７,,29,210,6390266,,,,,,,2021-10-21,1,,,,,ホリプランニング,0
752,3180001148297,新規,0,2021-10-21,2021-10-21,株式会社Ｍ‐ｔｈｒｅｅ,,株式会社,愛知県,名古屋市中川区,助光３丁目１１０２番地,,23,110,4540947,,,,,,,2021-10-21,1,,,,,エムスリー,0
753,3180001148388,新規,0,2021-10-21,2021-10-21,株式会社アリーナトレーディング,,株式会社,愛知県,名古屋市港区,善進本町３３２番地（センチュリーパーク善進本町４０２号）,,23,111,4550813,,,,,,,2021-10-21,1,,,,,アリーナトレーディング,0
754,3180003023110,新規,0,2021-10-21,2021-10-21,合同会社クリコロジー,,合同会社,愛知県,東海市,高横須賀町西屋敷１７番地５,,23,222,4770037,,,,,,,2021-10-21,1,,,,,クリコロジー,0
763,3200001039320,新規,0,2021-10-21,2021-10-21,株式会社ＳＧ,,株式会社,岐阜県,山県市,西深瀬９５番地１６,,21,215,5012112,,,,,,,2021-10-21,1,,,,,エスジー,0
775,3260001036114,新規,0,2021-10-21,2021-10-21,株式会社Ｓａｔｉｓｆａｃｔоｒｙ　Ｃｒｅａｔｉоｎ,,株式会社,岡山県,岡山市南区,新保１００番地１７,,33,104,7000945,,,,,,,2021-10-21,1,,,,,サティスファクトリークリエイション,0
788,3320001018683,新規,0,2021-10-21,2021-10-21,株式会社ｅ‐ｐｌａｎコンサル,,株式会社,大分県,大分市,東大道１丁目１１番１号３０１号,,44,201,8700823,,,,,,,2021-10-21,1,,,,,イープランコンサル,0
791,3340001024184,新規,0,2021-10-21,2021-10-21,株式会社リアンフォール,,株式会社,鹿児島県,鹿児島市,常盤２丁目６番３号,,46,201,8900047,,,,,,,2021-10-21,1,,,,,リアンフォール,0
793,3350003003953,新規,0,2021-10-21,2021-10-21,合同会社クラフトフリー,,合同会社,宮崎県,宮崎市,堀川町１０２番地１梓ビル３０３号,,45,201,8800873,,,,,,,2021-10-21,1,,,,,クラフトフリー,0
795,3360001029537,新規,0,2021-10-21,2021-10-21,株式会社ＮｏＲｅａｓｏｎ,,株式会社,沖縄県,浦添市,仲西１丁目１番６号ｆｆマンションフォルティッシモ浦添４０１号室,,47,208,9012125,,,,,,,2021-10-21,1,,,,,ノーリーズン,0
815,3462501000909,新規,0,2021-10-21,2021-10-21,株式会社おひさまファーム,,株式会社,北海道,野付郡別海町,豊原３８番地の８１,,01,691,0860657,,,,,,,2021-10-21,1,,,,,オヒサマファーム,0
816,3480001011532,新規,0,2021-10-21,2021-10-21,株式会社ＪＹＡＳＨＹ,,株式会社,徳島県,板野郡上板町,神宅字ワサダ１６番地５,,36,405,7711320,,,,,,,2021-10-21,1,,,,,ジャシー,0
818,3490001010021,新規,0,2021-10-21,2021-10-21,株式会社Ｍｉｍｏ,,株式会社,高知県,高知市,一宮中町３丁目９番１７号,,39,201,7818134,,,,,,,2021-10-21,1,,,,,マイモ,0
832,4010001221854,新規,0,2021-10-21,2021-10-21,株式会社ブランラパン,,株式会社,東京都,中央区,銀座８丁目１２－３,,13,102,1040061,,,,,,,2021-10-21,1,,,,,ブランラパン,0
833,4010001221953,新規,0,2021-10-21,2021-10-21,コニカミノルタパブリテック株式会社,,株式会社,東京都,千代田区,丸の内２丁目７番２号,,13,101,1000005,,,,,,,2021-10-21,1,,,,,コニカミノルタパブリテック,0
834,4010003036053,新規,0,2021-10-21,2021-10-21,Ｋ＆Ｍ　ＴＲＡＤＥ合同会社,,合同会社,東京都,千代田区,外神田２丁目１５－８永井第三ビル２Ｆ,,13,101,1010021,,,,,,,2021-10-21,1,,,,,ケーアンドエムトレード,0
840,4010401163234,新規,0,2021-10-21,2021-10-21,ＰＡＰ株式会社,,株式会社,東京都,港区,浜松町２丁目２番１５号２Ｆ,,13,103,1050013,,,,,,,2021-10-21,1,,,,,ピーエーピー,0
841,4010401163382,新規,0,2021-10-21,2021-10-21,クリエイトエカ株式会社,,株式会社,東京都,港区,南青山２丁目２番１５号,,13,103,1070062,,,,,,,2021-10-21,1,,,,,クリエイトエカ,0
848,4010603009219,新規,0,2021-10-21,2021-10-21,合同会社紀陽商事,,合同会社,東京都,江東区,東雲１丁目９番３２－１５０３号,,13,108,1350062,,,,,,,2021-10-21,1,,,,,キヨウショウジ,0
852,4010803003921,新規,0,2021-10-21,2021-10-21,合同会社ＲｅＣｒｏｐ,,合同会社,東京都,大田区,大森中２丁目７番８号,,13,111,1430014,,,,,,,2021-10-21,1,,,,,リクロップ,0
860,4011001143527,新規,0,2021-10-21,2021-10-21,株式会社ＳＨＩＫＩ　ＪＡＰＡＮ,,株式会社,東京都,渋谷区,神宮前５丁目４７番１１号青山学院アスタジオ３０５,,13,113,1500001,,,,,,,2021-10-21,1,,,,,シキジャパン,0
862,4011003013595,新規,0,2021-10-21,2021-10-21,Ｍｉｌｅｓｔｏｎｅ合同会社,,合同会社,東京都,目黒区,祐天寺２丁目１７番１１号,,13,110,1530052,,,,,,,2021-10-21,1,,,,,マイルストーン,0
870,4011501027403,新規,0,2021-10-21,2021-10-21,ＢｉｇＳ株式会社,,株式会社,東京都,北区,田端１丁目１２－１５,,13,117,1140014,,,,,,,2021-10-21,1,,,,,ビッグエス,0
880,4012401038432,新規,0,2021-10-21,2021-10-21,株式会社ファイブフォー,,株式会社,東京都,狛江市,東野川１丁目３１番６号,,13,219,2010002,,,,,,,2021-10-21,1,,,,,ファイブフォー,0
881,4012401038440,新規,0,2021-10-21,2021-10-21,株式会社Ｔ－ｆｕｔｕｒｅ,,株式会社,東京都,小金井市,東町４丁目３３番１９号,,13,210,1840011,,,,,,,2021-10-21,1,,,,,ティーフューチャー,0
891,4020001143552,新規,0,2021-10-21,2021-10-21,株式会社東新,,株式会社,神奈川県,横浜市金沢区,富岡西４丁目２３番２６－１０３号,,14,108,2360052,,,,,,,2021-10-21,1,,,,,トウシン,0
904,4030001144871,新規,0,2021-10-21,2021-10-21,株式会社鉄筆社,,株式会社,埼玉県,狭山市,大字北入曽４４３番地の８,,11,215,3501315,,,,,,,2021-10-21,1,,,,,テッピツシャ,0
905,4030001144905,新規,0,2021-10-21,2021-10-21,株式会社Ｒｕｂｙ,,株式会社,埼玉県,川口市,西川口１丁目４０番２０号エリスアカオ３０２号室,,11,203,3320021,,,,,,,2021-10-21,1,,,,,ルビー,0
906,4030001144921,新規,0,2021-10-21,2021-10-21,株式会社トミーリッジ,,株式会社,埼玉県,ふじみ野市,鶴ケ岡２丁目１３－６レッツ上福岡２０５号,,11,245,3560045,,,,,,,2021-10-21,1,,,,,トミーリッジ,0
911,4030003018165,新規,0,2021-10-21,2021-10-21,合同会社ビックパラス,,合同会社,埼玉県,さいたま市大宮区,仲町１丁目８８番地菊水ビル地下１階,,11,103,3300845,,,,,,,2021-10-21,1,,,,,ビックパラス,0
919,4040003018750,新規,0,2021-10-21,2021-10-21,合同会社ＰＰＭ,,合同会社,千葉県,市川市,南八幡３丁目２３－２３トマス本八幡６０９,,12,203,2720023,,,,,,,2021-10-21,1,,,,,ピーピーエム,0
920,4040003018783,新規,0,2021-10-21,2021-10-21,合同会社ＣＫファーム,,合同会社,千葉県,柏市,柏６丁目３番１６－２号,,12,217,2770005,,,,,,,2021-10-21,1,,,,,シーケーファーム,0
924,4040005021397,新規,0,2021-10-21,2021-10-21,医療法人社団健樹会,,その他の設立登記法人,千葉県,市川市,鬼高３丁目２７番１号フローラ２１・１階,,12,203,2720015,,,,,,,2021-10-21,1,,,,,ケンジュカイ,0
939,4080001024524,新規,0,2021-10-21,2021-10-21,Ｇｏｌｄ　Ｄｅａｄ株式会社,,株式会社,静岡県,静岡市清水区,由比１５７,,22,103,4213103,,,,,,,2021-10-21,1,,,,,ゴールドディード,0
945,4080103002403,新規,0,2021-10-21,2021-10-21,Ｂｉｇ　Ｆａｃｅ合同会社,,合同会社,静岡県,熱海市,渚町１５‐１１,,22,205,4130014,,,,,,,2021-10-21,1,,,,,ビックフェイス,0
948,4080401025436,新規,0,2021-10-21,2021-10-21,ラ・アミ株式会社,,株式会社,静岡県,浜松市南区,飯田町８０８番地１－２０１号,,22,134,4350028,,,,,,,2021-10-21,1,,,,,ラアミ,0
949,4100001034735,新規,0,2021-10-21,2021-10-21,株式会社勇建業,,株式会社,長野県,佐久市,猿久保４５７番地１,,20,217,3850011,,,,,,,2021-10-21,1,,,,,イサミケンギョウ,0
962,4120001241214,新規,0,2021-10-21,2021-10-21,株式会社ｗｏｏｒｔｈ,,株式会社,大阪府,大阪市北区,梅田１丁目２－２－２００大阪駅前第２ビル２階３－１－２,,27,127,5300001,,,,,,,2021-10-21,1,,,,,ウォース,0
963,4120001241321,新規,0,2021-10-21,2021-10-21,株式会社ＦＥＬＩＮ,,株式会社,大阪府,大阪市浪速区,桜川２丁目２番１８号,,27,111,5560022,,,,,,,2021-10-21,1,,,,,フェリン,0
965,4120003020450,新規,0,2021-10-21,2021-10-21,合同会社ジャーマン,,合同会社,大阪府,大阪市北区,長柄西１丁目１番１２号サンビルマンション３０３号室,,27,127,5310061,,,,,,,2021-10-21,1,,,,,ジャーマン,0
969,4120103004411,新規,0,2021-10-21,2021-10-21,ｏｃｔＯｋｔａ合同会社,,合同会社,大阪府,堺市西区,平岡町２６８番地２３,,27,144,5938307,,,,,,,2021-10-21,1,,,,,オクトオクタ,0
981,4140001123542,新規,0,2021-10-21,2021-10-21,株式会社ワースワイル,,株式会社,兵庫県,丹波市,氷上町井中２０番地１２,,28,223,6693632,,,,,,,2021-10-21,1,,,,,ワースワイル,0
987,4180001148370,新規,0,2021-10-21,2021-10-21,ＭＳＳ株式会社,,株式会社,愛知県,名古屋市昭和区,八事富士見１０６番地の２ライオンズヒルズ高峯五番館１０６号,,23,107,4660812,,,,,,,2021-10-21,1,,,,,エムエスエス,0
994,4190001028794,新規,0,2021-10-21,2021-10-21,株式会社花屋輸送,,株式会社,三重県,鈴鹿市,磯山１丁目７番３３号,,24,207,5100256,,,,,,,2021-10-21,1,,,,,ハナヤユソウ,0
995,4190003003804,新規,0,2021-10-21,2021-10-21,ＨＤＡ合同会社,,合同会社,三重県,四日市市,楠町南五味塚６００番地１０,,24,202,5100104,,,,,,,2021-10-21,1,,,,,エイチディーエー,0
997,4190005011631,新規,0,2021-10-21,2021-10-21,クレイン協同組合,,その他の設立登記法人,三重県,松阪市,垣鼻町１０８５番地,,24,204,5150033,,,,,,,2021-10-21,1,,,,,クレイン,0
1002,4200003005352,新規,0,2021-10-21,2021-10-21,ＴＫＡ合同会社,,合同会社,岐阜県,瑞穂市,馬場上光町３丁目５番地１－１０１号,,21,216,5010203,,,,,,,2021-10-21,1,,,,,ティーケーエー,0
1008,4240001058794,新規,0,2021-10-21,2021-10-21,株式会社互壱,,株式会社,広島県,広島市佐伯区,河内南２丁目６０番５号,,34,108,7315153,,,,,,,2021-10-21,1,,,,,ゴイチ,0
1009,4240003005332,新規,0,2021-10-21,2021-10-21,合同会社ＴＭＳ,,合同会社,広島県,広島市佐伯区,五日市町大字皆賀４８２番地,,34,108,7315122,,,,,,,2021-10-21,1,,,,,ティーエムエス,0
1021,4260002034529,新規,0,2021-10-21,2021-10-21,有限会社郷原農産,,有限会社,岡山県,倉敷市,早高４７８番地,,33,202,7100022,,,,,,,2021-10-21,1,,,,,ゴウハラノウサン,0
1029,4290001095098,新規,0,2021-10-21,2021-10-21,株式会社電子タバコ流通,,株式会社,福岡県,福岡市中央区,警固２丁目１２－１９アイリス警固ビル４階,,40,133,8100023,,,,,,,2021-10-21,1,,,,,デンシタバコリュウツウ,0
1030,4290003011739,新規,0,2021-10-21,2021-10-21,サンライズ合同会社,,合同会社,福岡県,福津市,有弥の里２丁目８－６,,40,224,8113211,,,,,,,2021-10-21,1,,,,,サンライズ,0
1033,4290801027853,新規,0,2021-10-21,2021-10-21,丸加興業株式会社,,株式会社,福岡県,田川市,大字伊加利１０６７番地,,40,206,8250001,,,,,,,2021-10-21,1,,,,,,0
1038,4310001017537,新規,0,2021-10-21,2021-10-21,株式会社Ｓ・Ｆ・Ｊ,,株式会社,長崎県,諫早市,幸町７９番地５０,,42,204,8540022,,,,,,,2021-10-21,1,,,,,シーフードジャパン,0
1044,4340001024191,新規,0,2021-10-21,2021-10-21,株式会社コンテンツマネジメント,,株式会社,鹿児島県,霧島市,国分中央４丁目３番３－５０６号,,46,218,8994332,,,,,,,2021-10-21,1,,,,,コンテンツマネジメント,0
1047,4350001017376,新規,0,2021-10-21,2021-10-21,株式会社金丸興業,,株式会社,宮崎県,児湯郡高鍋町,大字北高鍋８３６番地,,45,401,8840002,,,,,,,2021-10-21,1,,,,,カネマルコウギョウ,0
1049,4360001029528,新規,0,2021-10-21,2021-10-21,株式会社Ａｉｎａ,,株式会社,沖縄県,名護市,字伊差川１３４－２,,47,209,9051152,,,,,,,2021-10-21,1,,,,,アイナ,0
1055,4390003001886,新規,0,2021-10-21,2021-10-21,合同会社みうら,,合同会社,山形県,酒田市,本楯字新田目２,,06,204,9998134,,,,,,,2021-10-21,1,,,,,ミウラ,0
1062,4430001085175,新規,0,2021-10-21,2021-10-21,株式会社楽順,,株式会社,北海道,札幌市中央区,南一条西１１丁目３２７番地６ワンズ南一条ビル５Ｆ,,01,101,0600061,,,,,,,2021-10-21,1,,,,,ラクジュン,0
1067,4470003002059,新規,0,2021-10-21,2021-10-21,合同会社ＦａｃｅＴｅｃ,,合同会社,香川県,高松市,福岡町４丁目３４番２５号,,37,201,7600066,,,,,,,2021-10-21,1,,,,,フェイステック,0
1079,5010001221936,新規,0,2021-10-21,2021-10-21,安和株式会社,,株式会社,東京都,中央区,湊３丁目１８番２０号アリエッタ湊３Ｆ,,13,102,1040043,,,,,,,2021-10-21,1,,,,,アンワ,0
1080,5010001221952,新規,0,2021-10-21,2021-10-21,株式会社ヤキニクトスシ,,株式会社,東京都,千代田区,神田平河町１番地第３東ビル５Ｆ,,13,101,1010027,,,,,,,2021-10-21,1,,,,,ヤキニクトスシ,0
1081,5010001221960,新規,0,2021-10-21,2021-10-21,株式会社ＳＮ,,株式会社,東京都,千代田区,神田練塀町３富士ソフト秋葉原ビル１２Ｆ,,13,101,1010022,,,,,,,2021-10-21,1,,,,,エスエヌ,0
1087,5010003036060,新規,0,2021-10-21,2021-10-21,メガサム合同会社,,合同会社,東京都,千代田区,麹町５丁目１番地ＮＫ真和ビル９階,,13,101,1020083,,,,,,,2021-10-21,1,,,,,メガサム,0
1088,5010003036069,新規,0,2021-10-21,2021-10-21,Ｃｌｏｖｅｒ　Ｏｗｎｅｒ’ｓ　Ｃｌｕｂ合同会社,,合同会社,東京都,中央区,築地７丁目１８番２８号,,13,102,1040045,,,,,,,2021-10-21,1,,,,,クローバーオーナーズクラブ,0
1103,5010401163217,新規,0,2021-10-21,2021-10-21,プロフェッショナルワークス株式会社,,株式会社,東京都,港区,南青山５丁目１０番２号,,13,103,1070062,,,,,,,2021-10-21,1,,,,,プロフェッショナルワークス,0
1104,5010401163332,新規,0,2021-10-21,2021-10-21,Ｓｋｉｌｌ　Ｐａｒｔｎｅｒ株式会社,,株式会社,東京都,港区,東麻布３丁目３－２チェリー東麻布,,13,103,1060044,,,,,,,2021-10-21,1,,,,,スキルパートナー,0
1105,5010401163373,新規,0,2021-10-21,2021-10-21,株式会社Ｐａｙ　Ａｇｅｎｔ,,株式会社,東京都,港区,六本木３丁目４番３３号マルマン六本木ビル３Ｆ,,13,103,1060032,,,,,,,2021-10-21,1,,,,,ペイエージェント,0
1106,5010401163381,新規,0,2021-10-21,2021-10-21,ＳＬＷＢ．ＪＰ株式会社,,株式会社,東京都,港区,麻布十番２丁目８番１２号リレント麻布十番３０２号室,,13,103,1060045,,,,,,,2021-10-21,1,,,,,エスエルダブリュービードットジェイピー,0
1109,5010405020298,新規,0,2021-10-21,2021-10-21,一般社団法人相続＆不動産のお悩み相談１１０番,,その他の設立登記法人,東京都,港区,新橋３丁目２６番３号,,13,103,1050004,,,,,,,2021-10-21,1,,,,,ソウゾクアンドフドウサンノオナヤミソウダンヒャクトウバン,0
1110,5010501048004,新規,0,2021-10-21,2021-10-21,株式会社ＡＣＱＵＡ＆ＳＵＰＰＯＲＴＯ,,株式会社,東京都,台東区,寿１丁目２番１０－１００５号浅草寿町ダイヤモンドマンション,,13,106,1110042,,,,,,,2021-10-21,1,,,,,,0
1111,5010601060115,新規,0,2021-10-21,2021-10-21,奥雅株式会社,,株式会社,東京都,墨田区,押上１丁目１５番２－３０２号,,13,107,1310045,,,,,,,2021-10-21,1,,,,,オクマサ,0
1116,5010703005975,新規,0,2021-10-21,2021-10-21,ＳＭＬ合同会社,,合同会社,東京都,品川区,上大崎２丁目９番２６号,,13,109,1410021,,,,,,,2021-10-21,1,,,,,エスエムエル,0
1124,5010905004222,新規,0,2021-10-21,2021-10-21,特定非営利活動法人Ｍｅｄｉｃａｌ　ＰＬＡＹ,,その他の設立登記法人,東京都,世田谷区,駒沢１丁目２３番１号駒澤大学社会連携センター内,,13,112,1540012,,,,,,,2021-10-21,1,,,,,,0
1129,5011001143534,新規,0,2021-10-21,2021-10-21,株式会社はぴらぶ,,株式会社,東京都,渋谷区,代々木１丁目３８番７号ＴＨ・ＴＯＴＯＧＩ３Ｆ,,13,113,1510053,,,,,,,2021-10-21,1,,,,,ハピラブ,0
1130,5011001143542,新規,0,2021-10-21,2021-10-21,株式会社Ｔｒａｎｓｍｉｔ　Ｊａｐａｎ,,株式会社,東京都,渋谷区,恵比寿４丁目２０番４号・恵比寿ガーデンプレイスグラススクエアＢ１Ｆ,,13,113,1500013,,,,,,,2021-10-21,1,,,,,トランスミットジャパン,0
1131,5011001143591,新規,0,2021-10-21,2021-10-21,株式会社ジュイタ,,株式会社,東京都,渋谷区,神宮前６丁目２３番４号桑野ビル２階,,13,113,1500001,,,,,,,2021-10-21,1,,,,,ジュイタ,0
1142,5011301027263,新規,0,2021-10-21,2021-10-21,株式会社フューチャーサポート,,株式会社,東京都,杉並区,方南２丁目２７番６号椎の木ＴｅｒｒａｃｅＮ３０２,,13,115,1680062,,,,,,,2021-10-21,1,,,,,フューチャーサポート,0
1148,5011603003417,新規,0,2021-10-21,2021-10-21,合同会社ＭＳＡ,,合同会社,東京都,練馬区,関町北３丁目３７番２号,,13,120,1770051,,,,,,,2021-10-21,1,,,,,エムエスエー,0
1151,5012401038431,新規,0,2021-10-21,2021-10-21,株式会社リビルド,,株式会社,東京都,狛江市,岩戸南２丁目２１番１０号,,13,219,2010005,,,,,,,2021-10-21,1,,,,,リビルド,0
1152,5012405004652,新規,0,2021-10-21,2021-10-21,一般社団法人みとびら,,その他の設立登記法人,東京都,武蔵野市,吉祥寺北町１丁目２２番４号,,13,203,1800001,,,,,,,2021-10-21,1,,,,,ミトビラ,0
1156,5013301048181,新規,0,2021-10-21,2021-10-21,Ｂ－ＬＡＮＤ株式会社,,株式会社,東京都,豊島区,東池袋１丁目１７番１１号パークハイツ池袋１１０５号,,13,116,1700013,,,,,,,2021-10-21,1,,,,,ビーランド,0
1181,5030001144846,新規,0,2021-10-21,2021-10-21,テクノロジージャパン株式会社,,株式会社,埼玉県,上尾市,宮本町２番地１アリコベール２階,,11,219,3620036,,,,,,,2021-10-21,1,,,,,テクノロジージャパン,0
1182,5030001144920,新規,0,2021-10-21,2021-10-21,株式会社創繁,,株式会社,埼玉県,狭山市,入間川３丁目－２番－１７号パレストーホー２０２,,11,215,3501305,,,,,,,2021-10-21,1,,,,,ソウハン,0
1185,5030005020589,新規,0,2021-10-21,2021-10-21,医療法人社団邦玉,,その他の設立登記法人,埼玉県,戸田市,大字新曽２１６３番地１ウィンサムコート１階,,11,224,3350021,,,,,,,2021-10-21,1,,,,,ホウギョク,0
1219,5120001241337,新規,0,2021-10-21,2021-10-21,株式会社メイフラワー,,株式会社,大阪府,大阪市中央区,南船場１丁目１１番１９－３０６号,,27,128,5420081,,,,,,,2021-10-21,1,,,,,メイフラワー,0
1228,5120103004410,新規,0,2021-10-21,2021-10-21,合同会社堺歯研,,合同会社,大阪府,堺市中区,大野芝町２４０番地８,,27,142,5998233,,,,,,,2021-10-21,1,,,,,サカイシケン,0
1231,5120901045069,新規,0,2021-10-21,2021-10-21,株式会社グレース昭和園,,株式会社,大阪府,摂津市,千里丘東２丁目１３番５号,,27,224,5660011,,,,,,,2021-10-21,1,,,,,グレースショウワエン,0
1244,5140001123541,新規,0,2021-10-21,2021-10-21,株式会社よし建,,株式会社,兵庫県,西宮市,鳴尾町５丁目７番２１号ナルオポスト３０３,,28,204,6638184,,,,,,,2021-10-21,1,,,,,ヨシケン,0
1245,5140001123566,新規,0,2021-10-21,2021-10-21,株式会社コアホールディングス,,株式会社,兵庫県,神戸市長田区,大橋町４丁目４番１７号,,28,106,6530037,,,,,,,2021-10-21,1,,,,,コアホールディングス,0
1249,5160005010998,新規,0,2021-10-21,2021-10-21,一般社団法人近江彦根仏壇技術継承会,,その他の設立登記法人,滋賀県,犬上郡甲良町,大字尼子４１１番地,,25,442,5220242,,,,,,,2021-10-21,1,,,,,オウミヒコネブツダンギジュツケイショウカイ,0
1256,5180005019484,新規,0,2021-10-21,2021-10-21,一般社団法人乙川スポーツクラブ,,その他の設立登記法人,愛知県,半田市,大池町３丁目１番地,,23,205,4750087,,,,,,,2021-10-21,1,,,,,オッカワスポーツクラブ,0
1269,5220003003139,新規,0,2021-10-21,2021-10-21,合同会社はやし事業,,合同会社,石川県,金沢市,高尾南２丁目１４３番地,,17,201,9218154,,,,,,,2021-10-21,1,,,,,ハヤシジギョウ,0
1275,5240001058752,新規,0,2021-10-21,2021-10-21,株式会社トウショクホールディングス,,株式会社,広島県,福山市,駅家町大字法成寺１６１３番地の５４,,34,207,7202413,,,,,,,2021-10-21,1,,,,,トウショクホールディングス,0
1280,5240003005331,新規,0,2021-10-21,2021-10-21,合同会社Ｍｅｌｌ,,合同会社,広島県,広島市中区,本通４番２３号２Ｆ,,34,101,7300035,,,,,,,2021-10-21,1,,,,,メル,0
1283,5260001036104,新規,0,2021-10-21,2021-10-21,株式会社万笑,,株式会社,岡山県,岡山市北区,駅前町２丁目２番１５号ロイヤルガーデン岡山駅前壱番館１３０１号室,,33,101,7000023,,,,,,,2021-10-21,1,,,,,マンショウ,0
1284,5260001036112,新規,0,2021-10-21,2021-10-21,株式会社Ｒ４２９,,株式会社,岡山県,倉敷市,船穂町船穂２４３３番地１,,33,202,7100261,,,,,,,2021-10-21,1,,,,,アールヨンニキュウ,0
1295,5290001095072,新規,0,2021-10-21,2021-10-21,株式会社アンドユー,,株式会社,福岡県,福岡市中央区,清川３丁目２６番１０号,,40,133,8100005,,,,,,,2021-10-21,1,,,,,アンドユー,0
1307,5350003003951,新規,0,2021-10-21,2021-10-21,合同会社轍,,合同会社,宮崎県,宮崎市,大和町１６９番地６,,45,201,8800878,,,,,,,2021-10-21,1,,,,,ワダチ,0
1309,5360003011516,新規,0,2021-10-21,2021-10-21,ＴＥＲＵｗｏｒｋｓ合同会社,,合同会社,沖縄県,沖縄市,美里１丁目２－１５,,47,211,9042153,,,,,,,2021-10-21,1,,,,,テルワークス,0
1314,5380003005045,新規,0,2021-10-21,2021-10-21,合同会社Ｔ‐ｗｉｎｇ,,合同会社,福島県,郡山市,谷地本町８３番地ヤマキハイツコスモス２０６号,,07,203,9630231,,,,,,,2021-10-21,1,,,,,ティーウイング,0
1316,5390001016646,新規,0,2021-10-21,2021-10-21,株式会社Ｍ２,,株式会社,山形県,鶴岡市,淀川町８番６号,,06,203,9970838,,,,,,,2021-10-21,1,,,,,エムツー,0
1331,5430003013265,新規,0,2021-10-21,2021-10-21,合同会社だるまちゃん,,合同会社,北海道,余市郡余市町,山田町６７４番地１３,,01,408,0460012,,,,,,,2021-10-21,1,,,,,ダルマチャン,0
1332,5430003013273,新規,0,2021-10-21,2021-10-21,合同会社ユイット・アシスト,,合同会社,北海道,札幌市手稲区,新発寒一条２丁目１番２４号,,01,109,0060801,,,,,,,2021-10-21,1,,,,,ユイットアシスト,0
1333,5470001018782,新規,0,2021-10-21,2021-10-21,株式会社Ｒーｆａｃｔｏｒｙ,,株式会社,香川県,高松市,丸亀町１２番９,,37,201,7600029,,,,,,,2021-10-21,1,,,,,アールファクトリー,0
1336,5700150105424,新規,0,2021-10-21,2021-10-21,Ｊａｙｏｄａ　Ａｕｔｏ　Ｐａｒｔｓ,,外国会社等,千葉県,山武市,大木４７０番地１－Ｂ－３,,12,237,2891211,スリランカ民主社会主義共和国、キャンディ中央州、カトゥガストタ区、ガハゴダロード、６０－Ｂ,,,,,,2021-10-21,1,,,,,ジヤヨダオートパーツ,0
1341,6010001221927,新規,0,2021-10-21,2021-10-21,オンリー株式会社,,株式会社,東京都,中央区,新富１丁目４番５－４０１号,,13,102,1040041,,,,,,,2021-10-21,1,,,,,オンリー,0
1342,6010001221951,新規,0,2021-10-21,2021-10-21,株式会社ウエストビレッジ,,株式会社,東京都,中央区,晴海３丁目１３番２－４４０６号,,13,102,1040053,,,,,,,2021-10-21,1,,,,,ウエストビレッジ,0
1351,6010401163364,新規,0,2021-10-21,2021-10-21,Ｔｏｒｃｈ　Ｒｅｌａｔｉｏｎ株式会社,,株式会社,東京都,港区,港南４丁目６番４－３７０２号,,13,103,1080075,,,,,,,2021-10-21,1,,,,,トーチリレーション,0
1352,6010401163380,新規,0,2021-10-21,2021-10-21,Ｔｓｋｂ　Ｓａｌｅｓ　Ｊａｐａｎ株式会社,,株式会社,東京都,港区,港南３丁目７番１６－３０７号,,13,103,1080075,,,,,,,2021-10-21,1,,,,,ティーエスケービーセールスジャパン,0
1354,6010403026370,新規,0,2021-10-21,2021-10-21,ＮＳＳＫ役職員ジェンパー３合同会社,,合同会社,東京都,港区,愛宕２丁目５番１号愛宕グリーンヒルズＭＯＲＩタワー,,13,103,1050002,,,,,,,2021-10-21,1,,,,,エヌエスエスケーヤクショクインジェンパースリー,0
1359,6010601060114,新規,0,2021-10-21,2021-10-21,株式会社Ｌｏｎｇ　Ｓｏｆｔ,,株式会社,東京都,江東区,大島７丁目２８番１－９１９号,,13,108,1360072,,,,,,,2021-10-21,1,,,,,ロングソフト,0
1363,6010801032400,新規,0,2021-10-21,2021-10-21,株式会社ａｗａｉｙａ,,株式会社,東京都,大田区,大森東２丁目２７番８号,,13,111,1430012,,,,,,,2021-10-21,1,,,,,アワイヤ,0
1374,6011003013577,新規,0,2021-10-21,2021-10-21,ＫＩＫＯ　ＡＣＣＡ合同会社,,合同会社,東京都,渋谷区,円山町５番５号Ｎａｖｉ渋谷Ｖ３ｆ,,13,113,1500044,,,,,,,2021-10-21,1,,,,,キコアッカ,0
1385,6011301027254,新規,0,2021-10-21,2021-10-21,株式会社音の実,,株式会社,東京都,杉並区,松庵３丁目３９番６号,,13,115,1670054,,,,,,,2021-10-21,1,,,,,オトノミ,0
1388,6011403003475,新規,0,2021-10-21,2021-10-21,合同会社ＮＯＳＨＩＮ,,合同会社,東京都,板橋区,蓮根３丁目２番９号－５０２,,13,119,1740046,,,,,,,2021-10-21,1,,,,,ノウシン,0
1395,6011701024792,新規,0,2021-10-21,2021-10-21,Ｇｌｏｂａｌ　Ｓｕｐｐｏｒｔ　Ｔｏｋｙｏ株式会社,,株式会社,東京都,江戸川区,平井１丁目１９番７号,,13,123,1320035,,,,,,,2021-10-21,1,,,,,グローバルサポートトウキョウ,0
1400,6011801039848,新規,0,2021-10-21,2021-10-21,ＶＩＴＯ株式会社,,株式会社,東京都,足立区,綾瀬１丁目２３番１９号,,13,121,1200005,,,,,,,2021-10-21,1,,,,,ビト,0
1409,6012801021176,新規,0,2021-10-21,2021-10-21,コア・ステージ株式会社,,株式会社,東京都,国分寺市,東元町４丁目１番３６号,,13,214,1850022,,,,,,,2021-10-21,1,,,,,コアステージ,0
1419,6020001143567,新規,0,2021-10-21,2021-10-21,ＳＴエンタープライズ株式会社,,株式会社,神奈川県,川崎市中原区,新城１丁目１０番５号パールハイム１０６号室,,14,133,2110044,,,,,,,2021-10-21,1,,,,,エスティーエンタープライズ,0
1439,6030003018163,新規,0,2021-10-21,2021-10-21,合同会社Ｍプラン,,合同会社,埼玉県,所沢市,小手指町４丁目１３番地の２０,,11,208,3591141,,,,,,,2021-10-21,1,,,,,エムプラン,0
1447,6040005021395,新規,0,2021-10-21,2021-10-21,医療法人社団悠誠会,,その他の設立登記法人,千葉県,船橋市,習志野台１丁目１１番４号三和ビル１階,,12,204,2740063,,,,,,,2021-10-21,1,,,,,ユウセイカイ,0
1479,6110001036134,新規,0,2021-10-21,2021-10-21,新潟福始建設株式会社,,株式会社,新潟県,新潟市中央区,東出来島２１番１０号,,15,103,9500961,,,,,,,2021-10-21,1,,,,,ニイガタフクシケンセツ,0
1499,6120903003882,新規,0,2021-10-21,2021-10-21,合同会社ｋｏｂｏｓｈｉ,,合同会社,大阪府,高槻市,辻子３丁目６８番３０号,00124638,27,207,5690036,,,,,,,2021-10-21,1,,,,,コボシ,0
1513,6140001123565,新規,0,2021-10-21,2021-10-21,株式会社おはな,,株式会社,兵庫県,芦屋市,浜町３番１４－１０５号,,28,206,6590025,,,,,,,2021-10-21,1,,,,,オハナ,0
1514,6140001123573,新規,0,2021-10-21,2021-10-21,株式会社エンビジョン,,株式会社,兵庫県,神戸市中央区,磯辺通１丁目１番２０号ＫＯＷＡＢＬＤＧ．,,28,110,6510084,,,,,,,2021-10-21,1,,,,,エンビジョン,0
1517,6140003016890,新規,0,2021-10-21,2021-10-21,合同会社ＹＵＫＩ　ＴＲＡＤＩＮＧ,,合同会社,兵庫県,神戸市中央区,東雲通１丁目１－５ルミエール東雲１０１号,,28,110,6510079,,,,,,,2021-10-21,1,,,,,ユキトレーディング,0
1520,6150003002527,新規,0,2021-10-21,2021-10-21,山企合同会社,,合同会社,奈良県,生駒市,西菜畑町１４３９番地１,,29,209,6300264,,,,,,,2021-10-21,1,,,,,ヤマキ,0
1521,6160001023739,新規,0,2021-10-21,2021-10-21,奥伊吹ＳＰＣ株式会社,,株式会社,滋賀県,米原市,甲津原５３０番地,,25,214,5210301,,,,,,,2021-10-21,1,,,,,オクイブキエスピーシー,0
1537,6190001028784,新規,0,2021-10-21,2021-10-21,東海工業株式会社,,株式会社,三重県,南牟婁郡紀宝町,井田２３８８番地３１,,24,562,5195711,,,,,,,2021-10-21,1,,,,,トウカイコウギョウ,0
1538,6190001028792,新規,0,2021-10-21,2021-10-21,株式会社Ｅ－ＥＸＰＥＲＴ,,株式会社,三重県,名張市,神屋６６２番地,,24,208,5180504,,,,,,,2021-10-21,1,,,,,イーエキスパート,0
1541,6200003005350,新規,0,2021-10-21,2021-10-21,ＭＨサービス合同会社,,合同会社,岐阜県,各務原市,鵜沼各務原町９丁目２１４番地,,21,213,5090141,,,,,,,2021-10-21,1,,,,,エムエイチサービス,0
1549,6230001019044,新規,0,2021-10-21,2021-10-21,株式会社Ｕ‐ＳＷＩＦＴ,,株式会社,富山県,富山市,田中町４丁目５－１５,,16,201,9300985,,,,,,,2021-10-21,1,,,,,ユースイフト,0
1554,6270005005482,新規,0,2021-10-21,2021-10-21,一般社団法人那岐の風,,その他の設立登記法人,鳥取県,八頭郡智頭町,大字大背２０５番地,,31,328,6891451,,,,,,,2021-10-21,1,,,,,ナギノカゼ,0
1561,6290001095071,新規,0,2021-10-21,2021-10-21,株式会社ＲＥＫＩ,,株式会社,福岡県,太宰府市,通古賀１丁目４番３号,,40,221,8180104,,,,,,,2021-10-21,1,,,,,レキ,0
1562,6290001095088,新規,0,2021-10-21,2021-10-21,株式会社ひとつぶの笑い,,株式会社,福岡県,福岡市博多区,冷泉町５番８号Ｊ・セゾン櫛田前１Ｆ,,40,132,8120039,,,,,,,2021-10-21,1,,,,,ヒトツブノワライ,0
1565,6290003011729,新規,0,2021-10-21,2021-10-21,ＤＴＨ合同会社,,合同会社,福岡県,福岡市博多区,諸岡６丁目４番６－１０５号リバーサイドコーポ,,40,132,8120894,,,,,,,2021-10-21,1,,,,,ディーティエイチ,0
1601,6400005008190,新規,0,2021-10-21,2021-10-21,一般社団法人みんなの街,,その他の設立登記法人,岩手県,一関市,萩荘字松原１６１番地１,,03,209,0210102,,,,,,,2021-10-21,1,,,,,ミンナノマチ,0
1609,6450001013512,新規,0,2021-10-21,2021-10-21,株式会社ケアビズ,,株式会社,北海道,旭川市,旭神三条４丁目７番１８号,,01,204,0788373,,,,,,,2021-10-21,1,,,,,ケアビズ,0
1610,6470001018781,新規,0,2021-10-21,2021-10-21,株式会社アークス,,株式会社,香川県,丸亀市,飯山町真時４８２番地１,,37,202,7620086,,,,,,,2021-10-21,1,,,,,アークス,0
1614,6700150105423,新規,0,2021-10-21,2021-10-21,ＶＩＳＨＡＮ　ＳＡＬＥＳ　ＣＥＮＴＲＥ,,外国会社等,千葉県,山武郡九十九里町,不動堂６６６番地２－Ａ,,12,403,2830113,スリランカ民主社会主義共和国、チラウ、マイックラマ、コロンボロード、１８６－Ａ,,,,,,2021-10-21,1,,,,,ヴイシヤンセールスセンター,0
1620,7010001221595,新規,0,2021-10-21,2021-10-21,フォレストソフトホールディングス株式会社,,株式会社,東京都,中央区,日本橋本町４丁目５番１３号,,13,102,1030023,,,,,,,2021-10-21,1,,,,,フォレストソフトホールディングス,0
1621,7010001221975,新規,0,2021-10-21,2021-10-21,株式会社ラポート,,株式会社,東京都,中央区,佃２丁目１番２,,13,102,1040051,,,,,,,2021-10-21,1,,,,,ラポート,0
1622,7010005034110,新規,0,2021-10-21,2021-10-21,弁護士法人和田倉門法律事務所,,その他の設立登記法人,東京都,千代田区,大手町１丁目５番１号大手町ファーストスクエアイーストタワー１９階,,13,101,1000004,,,,,,,2021-10-21,1,,,,,ワダクラモンホウリツジムショ,0
1624,7010103001796,新規,0,2021-10-21,2021-10-21,合同会社ストーンメモリー,,合同会社,東京都,八王子市,子安町２丁目５番地１２松坂ビル１０１,,13,201,1920904,,,,,,,2021-10-21,1,,,,,ストーンメモリー,0
1632,7010401163330,新規,0,2021-10-21,2021-10-21,株式会社ＭＡＩＮ,,株式会社,東京都,港区,南青山２丁目２番１５号,,13,103,1070062,,,,,,,2021-10-21,1,,,,,マイン,0
1633,7010401163339,新規,0,2021-10-21,2021-10-21,株式会社Ｔｉｍｏｔｈｙ,,株式会社,東京都,港区,南青山２丁目２－１５,,13,103,1070062,,,,,,,2021-10-21,1,,,,,ティモシー,0
1637,7010405020305,新規,0,2021-10-21,2021-10-21,一般社団法人みらい教育推進機構,,その他の設立登記法人,東京都,港区,南青山２丁目２２番１４－７０２号,,13,103,1070062,,,,,,,2021-10-21,1,,,,,ミライキョウイクスイシンキコウ,0
1649,7010901049665,新規,0,2021-10-21,2021-10-21,株式会社ジェミニ,,株式会社,東京都,世田谷区,奥沢５丁目１２番２号,,13,112,1580083,,,,,,,2021-10-21,1,,,,,ジェミニ,0
1658,7011001143243,新規,0,2021-10-21,2021-10-21,株式会社Ｎｕｍｂｅｒ８,,株式会社,東京都,渋谷区,恵比寿４丁目３番１４号恵比寿ＳＳビル６Ｆ,,13,113,1500013,,,,,,,2021-10-21,1,,,,,ナンバーエイト,0
1659,7011003013584,新規,0,2021-10-21,2021-10-21,東京ニート合同会社,,合同会社,東京都,渋谷区,渋谷２丁目１９番１５号宮益坂ビルディング６０９,,13,113,1500002,,,,,,,2021-10-21,1,,,,,トウキョウニート,0
1663,7011101096655,新規,0,2021-10-21,2021-10-21,Ｐ．Ｈ．アカデミー株式会社,,株式会社,東京都,新宿区,西新宿６丁目１０－１新宿オークシティ日土地西新宿ビル８階,,13,104,1600023,,,,,,,2021-10-21,1,,,,,ピエチアカデミー,0
1673,7011601025493,新規,0,2021-10-21,2021-10-21,株式会社オケアノスゲームズ,,株式会社,東京都,練馬区,練馬１丁目２０番８号日建練馬ビル２Ｆ,,13,120,1760001,,,,,,,2021-10-21,1,,,,,オケアノスゲームズ,0
1677,7011801039863,新規,0,2021-10-21,2021-10-21,株式会社勇真建設,,株式会社,東京都,足立区,鹿浜２丁目２３番１号コーポ北嶋２０２号室,,13,121,1230864,,,,,,,2021-10-21,1,,,,,ユウマケンセツ,0
1680,7012401038438,新規,0,2021-10-21,2021-10-21,株式会社えをかく,,株式会社,東京都,稲城市,東長沼１０３９番地,,13,225,2060802,,,,,,,2021-10-21,1,,,,,エヲカク,0
1692,7020001143509,新規,0,2021-10-21,2021-10-21,株式会社Ｗｉｌｆｕｅ,,株式会社,神奈川県,川崎市川崎区,池田１丁目４－２２ウィステリアガーデン４０４,,14,131,2100022,,,,,,,2021-10-21,1,,,,,ウィルフュー,0
1701,7021005012328,新規,0,2021-10-21,2021-10-21,特定非営利活動法人かかりつけ薬局相談センター,,その他の設立登記法人,神奈川県,相模原市中央区,相模原４丁目３番１５－５０２号,,14,152,2520231,,,,,,,2021-10-21,1,,,,,カカリツケヤッキョクソウダンセンター,0
1706,7030001144860,新規,0,2021-10-21,2021-10-21,株式会社ＳＤホールディングス,,株式会社,埼玉県,上尾市,浅間台３丁目２番９号,,11,219,3620073,,,,,,,2021-10-21,1,,,,,エスディホールディングス,0
1707,7030001144919,新規,0,2021-10-21,2021-10-21,株式会社ＫＥＣ,,株式会社,埼玉県,越谷市,東町２丁目２６６番地１００,,11,222,3430826,,,,,,,2021-10-21,1,,,,,ケーイーシー,0
1712,7030005020595,新規,0,2021-10-21,2021-10-21,医療法人社団里村会,,その他の設立登記法人,埼玉県,さいたま市浦和区,神明２丁目１３番１３号金子ビル２階,,11,107,3300065,,,,,,,2021-10-21,1,,,,,シャダンサトムラカイ,0
1725,7040003018789,新規,0,2021-10-21,2021-10-21,合同会社彩粋,,合同会社,千葉県,佐倉市,宮ノ台３丁目１４－１３,,12,212,2850857,,,,,,,2021-10-21,1,,,,,サイキ,0
1726,7040003018797,新規,0,2021-10-21,2021-10-21,合同会社大石産業,,合同会社,千葉県,千葉市花見川区,長作台２丁目２０番１２号,,12,102,2620047,,,,,,,2021-10-21,1,,,,,オオイシサンギョウ,0
1728,7040005021394,新規,0,2021-10-21,2021-10-21,医療法人社団寧篤会,,その他の設立登記法人,千葉県,木更津市,下烏田８５８番地,,12,206,2920816,,,,,,,2021-10-21,1,,,,,ネイトクカイ,0
1740,7100001034740,新規,0,2021-10-21,2021-10-21,株式会社ＤＲ．Ｈｕｍｉｌｉｔｙ,,株式会社,長野県,東筑摩郡朝日村,大字古見２４５６番地６,,20,451,3901104,,,,,,,2021-10-21,1,,,,,ディアールヒューミリティ,0
1744,7110005016726,新規,0,2021-10-21,2021-10-21,一般社団法人潟上未来会議,,その他の設立登記法人,新潟県,佐渡市,新穂潟上１１０１番地１,,15,224,9520103,,,,,,,2021-10-21,1,,,,,カタガミミライカイギ,0
1754,7120001240477,新規,0,2021-10-21,2021-10-21,１４１３株式会社,,株式会社,大阪府,大阪市中央区,北浜３丁目５番１９号淀屋橋ホワイトビル４０５室,,27,128,5410041,,,,,,,2021-10-21,1,,,,,イチヨンイチサン,0
1755,7120001241327,新規,0,2021-10-21,2021-10-21,株式会社エステートキタノ,,株式会社,大阪府,大阪市生野区,田島４丁目７番１９号,,27,116,5440011,,,,,,,2021-10-21,1,,,,,エステートキタノ,0
1756,7120001241335,新規,0,2021-10-21,2021-10-21,太郎不動産株式会社,,株式会社,大阪府,大阪市浪速区,元町２丁目１１番１６号,,27,111,5560016,,,,,,,2021-10-21,1,,,,,タロウフドウサン,0
1761,7120105009463,新規,0,2021-10-21,2021-10-21,日本製鉄阪神労働組合,,その他の設立登記法人,大阪府,堺市西区,石津西町５番地日本製鉄瀬戸内製鉄所阪神地区内,,27,144,5928332,,,,,,,2021-10-21,1,,,,,ニッポンセイテツハンシン,0
1769,7130001070378,新規,0,2021-10-21,2021-10-21,ＨＡＫＵＴＯ株式会社,,株式会社,京都府,京都市伏見区,深草西浦町７丁目９番,,26,109,6120029,,,,,,,2021-10-21,1,,,,,ハクト,0
1774,7140001123564,新規,0,2021-10-21,2021-10-21,株式会社Ａｏｌｉｃｏ,,株式会社,兵庫県,明石市,大久保町大窪２６２０番地５１０,,28,203,6740051,,,,,,,2021-10-21,1,,,,,アオリコ,0
1775,7140001123580,新規,0,2021-10-21,2021-10-21,エスター不動産販売株式会社,,株式会社,兵庫県,西宮市,上大市２丁目１９番４号,,28,204,6638003,,,,,,,2021-10-21,1,,,,,エスターフドウサンハンバイ,0
1778,7140003016873,新規,0,2021-10-21,2021-10-21,合同会社ＮＫＧ,,合同会社,兵庫県,明石市,大久保町大窪２６０３番地５０７号,,28,203,6740051,,,,,,,2021-10-21,1,,,,,エヌケージー,0
1784,7170001016831,新規,0,2021-10-21,2021-10-21,株式会社車川繊維,,株式会社,和歌山県,橋本市,高野口町名倉８４８番地,,30,203,6497205,,,,,,,2021-10-21,1,,,,,クルマカワセンイ,0
1787,7180001148368,新規,0,2021-10-21,2021-10-21,株式会社ワイジー,,株式会社,愛知県,春日井市,如意申町２丁目２９番地２４,,23,206,4860918,,,,,,,2021-10-21,1,,,,,ワイジー,0
1788,7180001148384,新規,0,2021-10-21,2021-10-21,株式会社カラワル,,株式会社,愛知県,名古屋市天白区,井口１丁目６０５番地エクセル浅井３Ｂ,,23,116,4680052,,,,,,,2021-10-21,1,,,,,カラワル,0
1790,7180301035539,新規,0,2021-10-21,2021-10-21,株式会社ハジメシステムズ,,株式会社,愛知県,岡崎市,八帖北町３番地１９リコット岡崎城１５０４,,23,202,4440924,,,,,,,2021-10-21,1,,,,,ハジメシステムズ,0
1791,7180303005135,新規,0,2021-10-21,2021-10-21,合資会社Ｋ　ＳＥＲＶＩＣＥ,,合資会社,愛知県,田原市,田原町新清谷３９番,,23,231,4413421,,,,,,,2021-10-21,1,,,,,ケイサービス,0
1797,7200001039317,新規,0,2021-10-21,2021-10-21,株式会社ＴＡＫＡＴＡ,,株式会社,岐阜県,岐阜市,鍵屋西町２丁目５９番地１,,21,201,5008314,,,,,,,2021-10-21,1,,,,,タカタ,0
1807,7260001036110,新規,0,2021-10-21,2021-10-21,株式会社Ｍ’ｓ板金,,株式会社,岡山県,岡山市中区,海吉２１２８番地９,,33,102,7038261,,,,,,,2021-10-21,1,,,,,エムズバンキン,0
1819,7290801027925,新規,0,2021-10-21,2021-10-21,株式会社ナッシュグループ,,株式会社,福岡県,北九州市小倉北区,大門２丁目１番４－５０５号,,40,106,8030811,,,,,,,2021-10-21,1,,,,,ナッシュグループ,0
1835,7370005010372,新規,0,2021-10-21,2021-10-21,一般社団法人宮城県自動車販売店協会,,その他の設立登記法人,宮城県,仙台市宮城野区,扇町３丁目３番１０号,,04,102,9830034,,,,,,,2021-10-21,1,,,,,ミヤギケンジドウシャハンバイテンキョウカイ,0
1840,7380003005043,新規,0,2021-10-21,2021-10-21,合同会社三春農えん,,合同会社,福島県,田村郡三春町,大字鷹巣字坂下１９６,,07,521,9637725,,,,,,,2021-10-21,1,,,,,ミハルノウエン,0
1852,7430001085214,新規,0,2021-10-21,2021-10-21,株式会社Ｒｉｃｏｍｏｒｅ　Ｊａｐａｎ,,株式会社,北海道,札幌市中央区,南三条西１２丁目３２５番地１１プレプラージュ７７７号,,01,101,0600063,,,,,,,2021-10-21,1,,,,,リコモアジャパン,0
1856,7470001018780,新規,0,2021-10-21,2021-10-21,株式会社ＳＫＹ,,株式会社,香川県,高松市,飯田町６６８番地１,,37,201,7618033,,,,,,,2021-10-21,1,,,,,スカイ,0
1857,7470001018789,新規,0,2021-10-21,2021-10-21,株式会社ヘルクリネン,,株式会社,香川県,高松市,中野町１３－２コリドール中野１０１,,37,201,7600008,,,,,,,2021-10-21,1,,,,,ヘルクリネン,0
1862,7500001023752,新規,0,2021-10-21,2021-10-21,株式会社大,,株式会社,愛媛県,今治市,野間甲１０４８番地３,,38,202,7940082,,,,,,,2021-10-21,1,,,,,ダイ,0
1863,7700150105422,新規,0,2021-10-21,2021-10-21,ＯＭＩＹＡ　ＥＮＴＥＲＰＲＩＳＥＳ,,外国会社等,千葉県,東金市,田間４３０番地１田間コーポ１－１０５,,12,213,2830005,スリランカ民主社会主義共和国、アクラナ、ブルゴホテンナＮｏ．１３５／１,,,,,,2021-10-21,1,,,,,オミヤエンタープライセス,0
1868,8010001221958,新規,0,2021-10-21,2021-10-21,株式会社海鳴,,株式会社,東京都,中央区,銀座１丁目２２番１１号銀座大竹ビジデンス２階,,13,102,1040061,,,,,,,2021-10-21,1,,,,,ウミナリ,0
1869,8010001221974,新規,0,2021-10-21,2021-10-21,株式会社アンフランジ,,株式会社,東京都,千代田区,神田三崎町２丁目４－１３,,13,101,1010061,,,,,,,2021-10-21,1,,,,,アンフランジ,0
1871,8010003036041,新規,0,2021-10-21,2021-10-21,合同会社よどがわ,,合同会社,東京都,千代田区,丸の内３丁目１番１号東京共同会計事務所内,,13,101,1000005,,,,,,,2021-10-21,1,,,,,ヨドガワ,0
1882,8010401163346,新規,0,2021-10-21,2021-10-21,株式会社ｃｏｍｅｒｕ,,株式会社,東京都,港区,浜松町１丁目２番１７－５０４号,,13,103,1050013,,,,,,,2021-10-21,1,,,,,コメル,0
1883,8010401163379,新規,0,2021-10-21,2021-10-21,株式会社Ｔｅｃｈ　Ｇｉｒａｆｆｅ,,株式会社,東京都,港区,赤坂８丁目４－１４青山タワープレイス８Ｆ,,13,103,1070052,,,,,,,2021-10-21,1,,,,,テックジラフ,0
1884,8010403026311,新規,0,2021-10-21,2021-10-21,パールスマイルクリエイト合同会社,,合同会社,東京都,港区,元麻布３丁目７番２３－３０２号,,13,103,1060046,,,,,,,2021-10-21,1,,,,,パールスマイルクリエイト,0
1885,8010403026360,新規,0,2021-10-21,2021-10-21,合同会社マテリアルシード,,合同会社,東京都,港区,南青山２丁目２－１５ＷＩＮ青山５３１号室,,13,103,1070062,,,,,,,2021-10-21,1,,,,,マテリアルシード,0
1889,8010603009215,新規,0,2021-10-21,2021-10-21,合同会社グリームスネットワーク,,合同会社,東京都,江東区,東雲１丁目１０－１４－６０５プラウドシティ東雲キャナルマークス,,13,108,1350062,,,,,,,2021-10-21,1,,,,,グリームスネットワーク,0
1896,8010803003926,新規,0,2021-10-21,2021-10-21,シナリオサポート合同会社,,合同会社,東京都,大田区,羽田旭町１５番５号ベルージュ天空橋３０４,,13,111,1440042,,,,,,,2021-10-21,1,,,,,シナリオサポート,0
1898,8010903006878,新規,0,2021-10-21,2021-10-21,合同会社ちゅら,,合同会社,東京都,世田谷区,若林４丁目１９番６号松陰神社前レーベル３０２号室,,13,112,1540023,,,,,,,2021-10-21,1,,,,,チュラ,0
1908,8011001143523,新規,0,2021-10-21,2021-10-21,株式会社ｍｔｓｉｄｅ,,株式会社,東京都,渋谷区,恵比寿３丁目１番４号モンシャトー恵比寿４０８号室,,13,113,1500013,,,,,,,2021-10-21,1,,,,,エムティーサイド,0
1909,8011001143548,新規,0,2021-10-21,2021-10-21,０ＸＤＥＢＥ株式会社,,株式会社,東京都,渋谷区,渋谷２丁目１９番１５号宮益坂ビルディング６０９,,13,113,1500002,,,,,,,2021-10-21,1,,,,,ゼロエックスデービー,0
1910,8011001143580,新規,0,2021-10-21,2021-10-21,株式会社ＩＫＯＡ,,株式会社,東京都,渋谷区,富ヶ谷１丁目６番９号Ａ－１ビルディング２階,,13,113,1510063,,,,,,,2021-10-21,1,,,,,イコア,0
1915,8011101096654,新規,0,2021-10-21,2021-10-21,ＤＩＯＲ　ＳＱＵＡＲＥ株式会社,,株式会社,東京都,新宿区,新宿１丁目３６番２号新宿第七葉山ビル３階,,13,104,1600022,,,,,,,2021-10-21,1,,,,,ディオールスクエア,0
1921,8011501027408,新規,0,2021-10-21,2021-10-21,拓源株式会社,,株式会社,東京都,荒川区,荒川３丁目１５番２号,,13,118,1160002,,,,,,,2021-10-21,1,,,,,タクゲン,0
1923,8011505002431,新規,0,2021-10-21,2021-10-21,弁護士法人ホワイト法律事務所,,その他の設立登記法人,東京都,荒川区,東尾久８丁目３５番１２号尾久ハイム１０１,,13,118,1160012,,,,,,,2021-10-21,1,,,,,ホワイトホウリツジムショ,0
1929,8012301012748,新規,0,2021-10-21,2021-10-21,株式会社四つ葉,,株式会社,東京都,町田市,玉川学園８丁目１３番２９号,,13,209,1940041,,,,,,,2021-10-21,1,,,,,ヨツバ,0
1934,8012401038429,新規,0,2021-10-21,2021-10-21,株式会社シニア工房,,株式会社,東京都,調布市,小島町２丁目５１－２寿ビル２階,,13,208,1820026,,,,,,,2021-10-21,1,,,,,シニアコウボウ,0
1939,8013301048179,新規,0,2021-10-21,2021-10-21,株式会社Ｃａｒｅｅｒ　Ｔｏｕｒ,,株式会社,東京都,豊島区,西池袋２丁目３７－４としま産業振興プラザ４Ｆ,,13,116,1710021,,,,,,,2021-10-21,1,,,,,キャリアツアー,0
1940,8013305003270,新規,0,2021-10-21,2021-10-21,一般社団法人日本聖書学院,,その他の設立登記法人,東京都,豊島区,雑司が谷２丁目８番３０号,,13,116,1710032,,,,,,,2021-10-21,1,,,,,ニホンセイショガクイン,0
1964,8020003020688,新規,0,2021-10-21,2021-10-21,合同会社Ｍ＆Ｔｒａｖｅｌ,,合同会社,神奈川県,横浜市中区,野毛町１丁目５２番地キャッスル野毛中央２０９号室,,14,104,2310064,,,,,,,2021-10-21,1,,,,,エムアンドトラベル,0
1975,8030001144918,新規,0,2021-10-21,2021-10-21,株式会社Ｋａ－Ｎｏａ,,株式会社,埼玉県,入間市,高倉１丁目１０番５号３,,11,225,3580021,,,,,,,2021-10-21,1,,,,,カノア,0
1990,8040005021393,新規,0,2021-10-21,2021-10-21,一般社団法人シエルスポーツ,,その他の設立登記法人,千葉県,柏市,みどり台３丁目２５番６号,,12,217,2770884,,,,,,,2021-10-21,1,,,,,シエルスポーツ,0
1994,8050003006148,新規,0,2021-10-21,2021-10-21,つくばワークス合同会社,,合同会社,茨城県,つくば市,倉掛６８３番地１,,08,220,3050024,,,,,,,2021-10-21,1,,,,,ツクバワークス,0
2001,8080001024520,新規,0,2021-10-21,2021-10-21,株式会社ラクヴェレ,,株式会社,静岡県,静岡市清水区,草薙３３２番地の３９,,22,103,4240886,,,,,,,2021-10-21,1,,,,,ラクヴェレ,0
2002,8080101022853,新規,0,2021-10-21,2021-10-21,株式会社アステップ,,株式会社,静岡県,富士市,厚原３５８番地の３,,22,210,4190201,,,,,,,2021-10-21,1,,,,,アステップ,0
2023,8120001241318,新規,0,2021-10-21,2021-10-21,株式会社エナジープラス,,株式会社,大阪府,大阪市福島区,福島７丁目１２番４－９０１号,,27,103,5530003,,,,,,,2021-10-21,1,,,,,エナジープラス,0
2024,8120001241326,新規,0,2021-10-21,2021-10-21,Ｓｏｃｉａｌ　ｈｅａｒｔｓ株式会社,,株式会社,大阪府,大阪市西成区,出城１丁目２番１２－１０３号,,27,122,5570024,,,,,,,2021-10-21,1,,,,,ソーシャルハーツ,0
2031,8120003020455,新規,0,2021-10-21,2021-10-21,櫻スタートラベル合同会社,,合同会社,大阪府,大阪市浪速区,桜川２丁目３番３０－８１０号,,27,111,5560022,,,,,,,2021-10-21,1,,,,,サクラスタートラベル,0
2032,8120101064494,新規,0,2021-10-21,2021-10-21,株式会社ＴｅＴｏＴｅ,,株式会社,大阪府,堺市南区,赤坂台１丁５８番１号,,27,145,5900144,,,,,,,2021-10-21,1,,,,,テトテ,0
2034,8120901045082,新規,0,2021-10-21,2021-10-21,株式会社インフォレスト,,株式会社,大阪府,豊中市,桜の町７丁目１１番１－５０４号,,27,203,5600054,,,,,,,2021-10-21,1,,,,,インフォレスト,0
2040,8122003002193,新規,0,2021-10-21,2021-10-21,ＧＩＡ　ＰＨＡＭ合同会社,,合同会社,大阪府,東大阪市,中石切町５丁目１番２号,,27,227,5798014,,,,,,,2021-10-21,1,,,,,ザファム,0
2047,8140001123555,新規,0,2021-10-21,2021-10-21,株式会社Ａ＆Ｌ,,株式会社,兵庫県,伊丹市,鴻池３丁目１７番１５号,,28,207,6640006,,,,,,,2021-10-21,1,,,,,エーアンドエル,0
2051,8150001025040,新規,0,2021-10-21,2021-10-21,株式会社Ｈｏｌｌｙ　Ｈｏｃｋ,,株式会社,奈良県,北葛城郡河合町,大字大輪田１６１７番地２２,,29,427,6360093,,,,,,,2021-10-21,1,,,,,ホリホック,0
2052,8150003002525,新規,0,2021-10-21,2021-10-21,合同会社むすびめ,,合同会社,奈良県,磯城郡三宅町,大字伴堂１３７番地の５,,29,362,6360213,,,,,,,2021-10-21,1,,,,,ムスビメ,0
2059,8180001148342,新規,0,2021-10-21,2021-10-21,翁通商株式会社,,株式会社,愛知県,名古屋市昭和区,伊勝町１丁目３３番地の８,,23,107,4660805,,,,,,,2021-10-21,1,,,,,オキナツウショウ,0
2060,8180001148350,新規,0,2021-10-21,2021-10-21,株式会社サンリョウ,,株式会社,愛知県,名古屋市南区,弥次ヱ町２丁目６２番地１,,23,112,4570821,,,,,,,2021-10-21,1,,,,,サンリョウ,0
2061,8180001148391,新規,0,2021-10-21,2021-10-21,ＳＡＫＵＲＡ　ＴＲＡＤＩＮＧ株式会社,,株式会社,愛知県,名古屋市港区,甚兵衛通１丁目５番地の１シャトーブランエ・ブルー４０１号室,,23,111,4550822,,,,,,,2021-10-21,1,,,,,サクラトレーディング,0
2062,8180001148400,新規,0,2021-10-21,2021-10-21,株式会社めいほく不動産,,株式会社,愛知県,名古屋市北区,金城３丁目１２番１９号,,23,103,4620847,,,,,,,2021-10-21,1,,,,,メイホクフドウサン,0
2069,8200001039316,新規,0,2021-10-21,2021-10-21,ＧＲＳ株式会社,,株式会社,岐阜県,岐阜市,芥見大般若２丁目６０番地,,21,201,5013144,,,,,,,2021-10-21,1,,,,,ジーアールエス,0
2070,8200001039324,新規,0,2021-10-21,2021-10-21,株式会社セリカ,,株式会社,岐阜県,土岐市,下石町３０４番地の１４７,,21,212,5095202,,,,,,,2021-10-21,1,,,,,セリカ,0
2073,8200003005357,新規,0,2021-10-21,2021-10-21,合同会社エヌティエス,,合同会社,岐阜県,岐阜市,旭見ケ池町２９番地３,,21,201,5008122,,,,,,,2021-10-21,1,,,,,エヌティエス,0
2081,8240001058782,新規,0,2021-10-21,2021-10-21,株式会社ＴＳｌａｂ,,株式会社,広島県,広島市安佐南区,西原２丁目７番２３号,,34,105,7310113,,,,,,,2021-10-21,1,,,,,ティーエスラボ,0
2084,8240003005329,新規,0,2021-10-21,2021-10-21,たなかふぁーむ合同会社,,合同会社,広島県,福山市,松永町２丁目２－２０ティエムマンション２１３,,34,207,7290104,,,,,,,2021-10-21,1,,,,,タナカファーム,0
2102,8330001029089,新規,0,2021-10-21,2021-10-21,株式会社ＢＬＡＮＫ,,株式会社,熊本県,合志市,御代志１６５６番地２６５,,43,216,8611104,,,,,,,2021-10-21,1,,,,,ブランク,0
2104,8330003009097,新規,0,2021-10-21,2021-10-21,合同会社Ｆｒｏｎｔｉｅｒ,,合同会社,熊本県,熊本市中央区,花畑町１番１４号Ａ＆ＭＨＡＮＡＢＡＴＡ３０１号,,43,101,8600806,,,,,,,2021-10-21,1,,,,,フロンティア,0
2106,8340001024188,新規,0,2021-10-21,2021-10-21,株式会社シンワ地建,,株式会社,鹿児島県,鹿児島市,上荒田町１８番１０号,,46,201,8900055,,,,,,,2021-10-21,1,,,,,シンワチケン,0
2112,8360001029532,新規,0,2021-10-21,2021-10-21,株式会社次呂久興業,,株式会社,沖縄県,石垣市,字大浜３００番地,,47,207,9070001,,,,,,,2021-10-21,1,,,,,ジロクコウギョウ,0
2115,8360003011513,新規,0,2021-10-21,2021-10-21,エステック戸畑合同会社,,合同会社,沖縄県,那覇市,松山２丁目１番１２号,,47,201,9000032,,,,,,,2021-10-21,1,,,,,エステックトバタ,0
2120,8370005010371,新規,0,2021-10-21,2021-10-21,農事組合法人ふるせきファーム,,その他の設立登記法人,宮城県,柴田郡川崎町,大字今宿字前坂５番地７,,04,324,9891502,,,,,,,2021-10-21,1,,,,,フルセキファーム,0
2127,8430001085205,新規,0,2021-10-21,2021-10-21,株式会社ケイティエス,,株式会社,北海道,石狩市,花川北三条２丁目７３番地,,01,235,0613213,,,,,,,2021-10-21,1,,,,,ケイティエス,0
2128,8430001085213,新規,0,2021-10-21,2021-10-21,株式会社Ｆｌａｔｅｃｈ,,株式会社,北海道,恵庭市,黄金南７丁目６番地１２,,01,231,0611409,,,,,,,2021-10-21,1,,,,,フラテック,0
2141,8700150105462,新規,0,2021-10-21,2021-10-21,ＭＩＲＡＣＬＥ　ＮＡＴＵＲＡＬ　ＨＥＲＢＡＬ　ＣＡＲＥ　ＰＲＩＶＡＴＥ　ＬＩＭＩＴＥＤ,,外国会社等,千葉県,山武郡九十九里町,藤下１０２７タマオフィスサポート九十九里１－Ｄ,,12,403,2830112,スリランカ民主社会主義共和国、ＮＯ：１４／５、５番ラネ、コララウェラ、モラツワ,,,,,,2021-10-21,1,,,,,ミラクルナチユラルハーバルケアプライベートリミテツド,0
2153,9010001221899,新規,0,2021-10-21,2021-10-21,株式会社ズイホウ,,株式会社,東京都,中央区,銀座７丁目１３番６号サガミビル２階,,13,102,1040061,,,,,,,2021-10-21,1,,,,,ズイホウ,0
2163,9010401163320,新規,0,2021-10-21,2021-10-21,株式会社ＳＰＨＥＲＥＳ,,株式会社,東京都,港区,南青山７丁目５番８号,,13,103,1070062,,,,,,,2021-10-21,1,,,,,スフィアーズ,0
2164,9010401163386,新規,0,2021-10-21,2021-10-21,株式会社Ｒｅｓｔａｒｔｚ,,株式会社,東京都,港区,海岸１丁目２番３号,,13,103,1050022,,,,,,,2021-10-21,1,,,,,リスターツ,0
2165,9010401163452,新規,0,2021-10-21,2021-10-21,ＧＣＪＧ１７株式会社,,株式会社,東京都,港区,元赤坂１丁目１番８号株式会社赤坂国際会計内,,13,103,1070051,,,,,,,2021-10-21,1,,,,,ジーシージェイジーセブンティーン,0
2169,9010501048000,新規,0,2021-10-21,2021-10-21,株式会社霙柑,,株式会社,東京都,台東区,台東１丁目１２番１０－２０１号,,13,106,1100016,,,,,,,2021-10-21,1,,,,,ミゾレカン,0
2175,9010601060111,新規,0,2021-10-21,2021-10-21,雲谷ソフト株式会社,,株式会社,東京都,江東区,東陽２丁目３番３－５１０号,,13,108,1350016,,,,,,,2021-10-21,1,,,,,ウンコクソフト,0
2180,9010803003925,新規,0,2021-10-21,2021-10-21,ハーベスト合同会社,,合同会社,東京都,大田区,田園調布４丁目４５番８号,,13,111,1450071,,,,,,,2021-10-21,1,,,,,ハーベスト,0
2188,9011001143522,新規,0,2021-10-21,2021-10-21,株式会社ＡＲＡＴＡ,,株式会社,東京都,渋谷区,東２丁目２６－４,,13,113,1500011,,,,,,,2021-10-21,1,,,,,アラタ,0
2189,9011001143547,新規,0,2021-10-21,2021-10-21,株式会社クラウドリード,,株式会社,東京都,渋谷区,恵比寿４丁目２０番３号恵比寿ガーデンプレイスタワー１８階,,13,113,1500013,,,,,,,2021-10-21,1,,,,,クラウドリード,0
2191,9011003013582,新規,0,2021-10-21,2021-10-21,ＥＮコーポレーション合同会社,,合同会社,東京都,目黒区,中目黒１丁目５番２－３０６号,,13,110,1530061,,,,,,,2021-10-21,1,,,,,エンコーポレーション,0
2192,9011005009265,新規,0,2021-10-21,2021-10-21,一般社団法人日本ラム協会,,その他の設立登記法人,東京都,渋谷区,宇田川町３４－５サイトービルＩＩＩ５ＦハローオフィスＳｈｉｂｕｙａ３７号室,00124636,13,113,1500042,,,,,,,2021-10-21,1,,,,,ニホンラムキョウカイ,0
2208,9011503004940,新規,0,2021-10-21,2021-10-21,合同会社ハネダシ・プラス,,合同会社,東京都,荒川区,町屋３丁目２７番１５号,,13,118,1160001,,,,,,,2021-10-21,1,,,,,ハネダシプラス,0
2214,9011803004839,新規,0,2021-10-21,2021-10-21,フラパルタージュ合同会社,,合同会社,東京都,足立区,千住４丁目３番４号,,13,121,1200034,,,,,,,2021-10-21,1,,,,,フラパルタージュ,0
2217,9012402012076,新規,0,2021-10-21,2021-10-21,如月防災設備有限会社,,有限会社,東京都,調布市,深大寺東町８丁目２４番地１,,13,208,1820012,,,,,,,2021-10-21,1,,,,,キサラギボウサイセツビ,0
2218,9012403005079,新規,0,2021-10-21,2021-10-21,合同会社ヒノラボ,,合同会社,東京都,小金井市,前原町４丁目１４番１２号（１０）,,13,210,1840013,,,,,,,2021-10-21,1,,,,,ヒノラボ,0
2224,9013301048153,新規,0,2021-10-21,2021-10-21,株式会社壱縁,,株式会社,東京都,豊島区,東池袋２丁目１番１３号第５酒井ビル４０３号,,13,116,1700013,,,,,,,2021-10-21,1,,,,,イチエン,0
2225,9013303005870,新規,0,2021-10-21,2021-10-21,ＡＩＤ合同会社,,合同会社,東京都,豊島区,東池袋１丁目３４番５号いちご東池袋ビル６階,,13,116,1700013,,,,,,,2021-10-21,1,,,,,エイド,0
2232,9020001143548,新規,0,2021-10-21,2021-10-21,株式会社うつみコーポレーション,,株式会社,神奈川県,横浜市中区,北仲通３丁目３３番地,,14,104,2310003,,,,,,,2021-10-21,1,,,,,ウツミコーポレーション,0
2233,9020001143564,新規,0,2021-10-21,2021-10-21,株式会社ＲｉＮＥ,,株式会社,神奈川県,横浜市西区,平沼１丁目４０番１号嶋森ビル８階,,14,103,2200023,,,,,,,2021-10-21,1,,,,,リーネ,0
2257,9030001144909,新規,0,2021-10-21,2021-10-21,株式会社那賀総本家,,株式会社,埼玉県,さいたま市南区,白幡３丁目４番１４－６０１,,11,108,3360022,,,,,,,2021-10-21,1,,,,,ナカソウホンケ,0
2261,9030003018169,新規,0,2021-10-21,2021-10-21,合同会社令,,合同会社,埼玉県,川口市,領家１丁目１３番１３－２０５号,,11,203,3320004,,,,,,,2021-10-21,1,,,,,レイ,0
2271,9040005021392,新規,0,2021-10-21,2021-10-21,一般社団法人中学生部活動支援協会,,その他の設立登記法人,千葉県,柏市,南増尾６丁目３番５１号,,12,217,2770054,,,,,,,2021-10-21,1,,,,,チュウガクセイブカツドウシエンキョウカイ,0
2291,9100001034747,新規,0,2021-10-21,2021-10-21,株式会社トータルＦＩＶＥ,,株式会社,長野県,北安曇郡池田町,大字会染３４１番地１３,,20,481,3998602,,,,,,,2021-10-21,1,,,,,トータルファイブ,0
2301,9120001241341,新規,0,2021-10-21,2021-10-21,株式会社マツイ・ホールディングス,,株式会社,大阪府,大阪市中央区,谷町６丁目５番２６号,,27,128,5420012,,,,,,,2021-10-21,1,,,,,マツイホールディングス,0
2305,9120003020454,新規,0,2021-10-21,2021-10-21,合同会社フェニックス,,合同会社,大阪府,大阪市大正区,三軒家西２丁目１２－１２,,27,108,5510001,,,,,,,2021-10-21,1,,,,,フェニックス,0
2311,9130001070376,新規,0,2021-10-21,2021-10-21,株式会社中田装飾,,株式会社,京都府,京都市南区,西九条御幸田町１２番地,,26,107,6018442,,,,,,,2021-10-21,1,,,,,ナカタソウショク,0
2313,9130003007558,新規,0,2021-10-21,2021-10-21,合同会社石黒産業,,合同会社,京都府,京都市伏見区,深草勧進橋町５０,,26,109,6128405,,,,,,,2021-10-21,1,,,,,イシグロサンギョウ,0
2315,9140001123562,新規,0,2021-10-21,2021-10-21,株式会社秀栄,,株式会社,兵庫県,南あわじ市,福良乙１５０２番地１０７,,28,224,6560502,,,,,,,2021-10-21,1,,,,,シュウエイ,0
2316,9140001123579,新規,0,2021-10-21,2021-10-21,アッピア株式会社,,株式会社,兵庫県,姫路市,城東町野田１番３,,28,201,6700844,,,,,,,2021-10-21,1,,,,,アッピア,0
2321,9140003016863,新規,0,2021-10-21,2021-10-21,合同会社スノウシステム,,合同会社,兵庫県,姫路市,別所町北宿１０９５番地２－１０２号室,,28,201,6710223,,,,,,,2021-10-21,1,,,,,スノウシステム,0
2322,9140003016888,新規,0,2021-10-21,2021-10-21,北田仮設合同会社,,合同会社,兵庫県,加古川市,志方町志方町１３４７,,28,210,6750321,,,,,,,2021-10-21,1,,,,,キタダ,0
2323,9140005025862,新規,0,2021-10-21,2021-10-21,農事組合法人ｔｅｎ,,その他の設立登記法人,兵庫県,加西市,山下町７７３,,28,220,6752354,,,,,,,2021-10-21,1,,,,,テン,0
2325,9150003002524,新規,0,2021-10-21,2021-10-21,ＫＩ－ＯＴ１９９１合同会社,,合同会社,奈良県,大和高田市,中今里町７番２９－１号,,29,202,6350037,,,,,,,2021-10-21,1,,,,,キオットセンキュウヒャクキュウジュウイチ,0
2330,9180001148374,新規,0,2021-10-21,2021-10-21,株式会社Ｅｌｅｋｉ・Ｘ,,株式会社,愛知県,名古屋市中区,栄２丁目７番１５号白川ビル３階,,23,106,4600008,,,,,,,2021-10-21,1,,,,,エレキエックス,0
2331,9180001148390,新規,0,2021-10-21,2021-10-21,株式会社アレス春日井,,株式会社,愛知県,日進市,東山１丁目１１２２番地,,23,230,4700116,,,,,,,2021-10-21,1,,,,,アレスカスガイ,0
2332,9180003023096,新規,0,2021-10-21,2021-10-21,合同会社Ｇｒａｃｅ　Ｆｕｔｕｒｅ,,合同会社,愛知県,清須市,一場５６６番地７,,23,233,4520931,,,,,,,2021-10-21,1,,,,,グレースフューチャー,0
2333,9180003023105,新規,0,2021-10-21,2021-10-21,ＴＯＭ合同会社,,合同会社,愛知県,一宮市,苅安賀１丁目９番２３号,,23,203,4910933,,,,,,,2021-10-21,1,,,,,ティーオーエム,0
2334,9180003023113,新規,0,2021-10-21,2021-10-21,合同会社ティー・エフ,,合同会社,愛知県,小牧市,中央２丁目１４８番地,,23,219,4850029,,,,,,,2021-10-21,1,,,,,ティーエフ,0
2340,9180301035495,新規,0,2021-10-21,2021-10-21,ＯＺＵ株式会社,,株式会社,愛知県,豊田市,小坂本町１丁目５番地５,,23,211,4710034,,,,,,,2021-10-21,1,,,,,オズ,0
2345,9200001039315,新規,0,2021-10-21,2021-10-21,ＳＵＢＨＡＮ　ＩＮＴＥＲＮＡＴＩＯＮＡＬ株式会社,,株式会社,岐阜県,美濃加茂市,西町６丁目３００番地９,,21,211,5050046,,,,,,,2021-10-21,1,,,,,スブハンインターナショナル,0
2346,9200001039323,新規,0,2021-10-21,2021-10-21,岩崎電機株式会社,,株式会社,岐阜県,岐阜市,高砂町１丁目１７番地,,21,201,5008407,,,,,,,2021-10-21,1,,,,,イワサキデンキ,0
2350,9230001019041,新規,0,2021-10-21,2021-10-21,株式会社ベレイフ,,株式会社,富山県,富山市,犬島５丁目１１番７号,,16,201,9318321,,,,,,,2021-10-21,1,,,,,ベレイフ,0
2358,9280005007442,新規,0,2021-10-21,2021-10-21,一般財団法人ＬＰＣ　Ｆｏｕｎｄａｔｉｏｎ,,その他の設立登記法人,島根県,出雲市,渡橋町７０６番地１,,32,203,6930004,,,,,,,2021-10-21,1,,,,,エルピーシーファンデーション,0
2365,9290001095069,新規,0,2021-10-21,2021-10-21,株式会社ひらくファーム,,株式会社,福岡県,糸島市,二丈武８２１番地５,,40,230,8191616,,,,,,,2021-10-21,1,,,,,ヒラクファーム,0
2378,9320001018686,新規,0,2021-10-21,2021-10-21,株式会社サンフィルム,,株式会社,大分県,大分市,大字三佐２１１０番地の１,,44,201,8700108,,,,,,,2021-10-21,1,,,,,サンフィルム,0
2386,9350001017371,新規,0,2021-10-21,2021-10-21,株式会社楠原商店,,株式会社,宮崎県,都城市,上町１街区２号,,45,202,8850072,,,,,,,2021-10-21,1,,,,,クスハラショウテン,0
2387,9360001029515,新規,0,2021-10-21,2021-10-21,株式会社ｇｒａｎｄｅｃｅｒｃｈｉｏ,,株式会社,沖縄県,那覇市,久茂地２丁目１０番１９号１０１,,47,201,9000015,,,,,,,2021-10-21,1,,,,,グランデチェルキオ,0
2397,9390001016650,新規,0,2021-10-21,2021-10-21,株式会社ライトワークコミュニケーション,,株式会社,山形県,山形市,篭田３丁目５－２オフィス廣谷Ａ号,,06,201,9902484,,,,,,,2021-10-21,1,,,,,ライトワークコミュニケーション,0
2407,9450003002147,新規,0,2021-10-21,2021-10-21,合同会社ハウステート,,合同会社,北海道,旭川市,豊岡五条１１丁目５番２７号,,01,204,0788235,,,,,,,2021-10-21,1,,,,,ハウステート,0
2408,9460305001969,新規,0,2021-10-21,2021-10-21,特定非営利活動法人オホーツク鉄道歴史保存会,,その他の設立登記法人,北海道,北見市,常磐町二丁目４番５２号,,01,208,0900000,,,,,,,2021-10-21,1,,,,,オホーツクテツドウレキシホゾンカイ,0
2416,9500005008426,新規,0,2021-10-21,2021-10-21,一般社団法人いきいきライフ協会東予,,その他の設立登記法人,愛媛県,新居浜市,坂井町１丁目７番３８号,,38,205,7920812,,,,,,,2021-10-21,1,,,,,イキイキライフキョウカイトウヨ,0
2417,9700150105420,新規,0,2021-10-21,2021-10-21,ＧＡＮＧＡ　ＬＥＡＤＩＮＧ　ＰＲＩＶＡＴＥ　ＬＩＭＩＴＥＤ,,外国会社等,千葉県,山武郡九十九里町,不動堂６６６－２－Ｄ,,12,403,2830113,スリランカ民主社会主義共和国、ウェラガントタ、オールドロード、Ｎｏ．２０３／３,,,,,,2021-10-21,1,,,,,ガンガリーデイングプライベートリミテツド,0
