sequenceNumber,corporateNumber,process,correct,updateDate,changeDate,name,nameImageId,kind,prefectureName,cityName,streetNumber,addressImageId,prefectureCode,cityCode,postCode,addressOutside,addressOutsideImageId,closeDate,closeCause,successorCorporateNumber,changeCause,assignmentDate,latest,enName,enPrefectureName,enCityName,enAddressOutside,furigana,hihyoji
10,1010001247398,新規,0,2024-08-15,2024-08-15,株式会社Ｍ＆Ａカージャパン,,株式会社,東京都,千代田区,九段北１丁目１３番５号,,13,101,1020073,,,,,,,2024-08-15,1,,,,,エムアンドエーカージャパン,0
11,1010001247407,新規,0,2024-08-15,2024-08-15,Ｃｅｌｅｓｔｉａｌ　Ｃｏｎｓｕｌｔｉｎｇ株式会社,,株式会社,東京都,中央区,銀座１丁目２２番１１号銀座大竹ビジデンス２Ｆ,,13,102,1040061,,,,,,,2024-08-15,1,,,,,セレスティアルコンサルティング,0
12,1010001247415,新規,0,2024-08-15,2024-08-15,ＡｎｉｍａｌＸ株式会社,,株式会社,東京都,中央区,築地７丁目１３番５－４０５号,,13,102,1040045,,,,,,,2024-08-15,1,,,,,アニマルエックス,0
13,1010001247448,新規,0,2024-08-15,2024-08-15,株式会社ＤＩＥ　ＩＮ　ＣＡＮＮＥＳ,,株式会社,東京都,中央区,晴海３丁目１３番１号,,13,102,1040053,,,,,,,2024-08-15,1,,,,,ダイインカンヌ,0
14,1010001247456,新規,0,2024-08-15,2024-08-15,株式会社ラフター,,株式会社,東京都,文京区,小石川１丁目１７番１号エルアージュ小石川１０３ｂ,,13,105,1120002,,,,,,,2024-08-15,1,,,,,ラフター,0
15,1010001247464,新規,0,2024-08-15,2024-08-15,株式会社スライブサポート,,株式会社,東京都,中央区,八丁堀４丁目３番５号京橋宝町ＰＲＥＸ２Ｆ,,13,102,1040032,,,,,,,2024-08-15,1,,,,,スライブサポート,0
16,1010001247489,新規,0,2024-08-15,2024-08-15,株式会社ベネループ,,株式会社,東京都,中央区,銀座１丁目２２番１１号銀座大竹ビジデンス２階,,13,102,1040061,,,,,,,2024-08-15,1,,,,,ベネループ,0
17,1010001247506,新規,0,2024-08-15,2024-08-15,コトトイ株式会社,,株式会社,東京都,中央区,佃３丁目９番１０号アーバン月島２０３,,13,102,1040051,,,,,,,2024-08-15,1,,,,,コトトイ,0
21,1010003044406,新規,0,2024-08-15,2024-08-15,Ｔｈｅ　Ｐｅａｋ　Ｓｅｒｉｅｓ　ＩＩ合同会社,,合同会社,東京都,千代田区,四番町４番地９新東京国際リーガル内,,13,101,1020081,,,,,,,2024-08-15,1,,,,,ザピークシリーズツー,0
39,1010403033231,新規,0,2024-08-15,2024-08-15,合同会社Ｎ　Ｄｉｎｅｒｓ,,合同会社,東京都,港区,南麻布５丁目３番４６号－Ｂ,,13,103,1060047,,,,,,,2024-08-15,1,,,,,エヌダイナーズ,0
40,1010501052752,新規,0,2024-08-15,2024-08-15,３Ｔ株式会社,,株式会社,東京都,台東区,東上野４丁目２７番１０－５０１号,,13,106,1100015,,,,,,,2024-08-15,1,,,,,スリーティー,0
44,1010701046414,新規,0,2024-08-15,2024-08-15,リオーナ薬局株式会社,,株式会社,東京都,品川区,中延５丁目４―１３,,13,109,1420053,,,,,,,2024-08-15,1,,,,,リオーナヤッキョク,0
45,1010801035325,新規,0,2024-08-15,2024-08-15,ＦＫＴ株式会社,,株式会社,東京都,大田区,南馬込５丁目２８番１－２０６号,,13,111,1430025,,,,,,,2024-08-15,1,,,,,エフケーツー,0
50,1010901055792,新規,0,2024-08-15,2024-08-15,エメルク株式会社,,株式会社,東京都,世田谷区,用賀４丁目９番５号－２０２,,13,112,1580097,,,,,,,2024-08-15,1,,,,,エメルク,0
51,1010903009292,新規,0,2024-08-15,2024-08-15,合同会社カラワリラボ,,合同会社,東京都,世田谷区,用賀２丁目３３番１７号コータ・カペラ１０２,,13,112,1580097,,,,,,,2024-08-15,1,,,,,カラワリラボ,0
64,1011001164055,新規,0,2024-08-15,2024-08-15,株式会社ｎａｓｃｅｒ,,株式会社,東京都,渋谷区,道玄坂１丁目１０番８号渋谷道玄坂東急ビル２Ｆ－Ｃ,,13,113,1500043,,,,,,,2024-08-15,1,,,,,ナセール,0
67,1011101108382,新規,0,2024-08-15,2024-08-15,株式会社ＳＯＲＯＣＫ,,株式会社,東京都,新宿区,新宿１丁目３６番２号新宿第七葉山ビル３階,,13,104,1600022,,,,,,,2024-08-15,1,,,,,ソロック,0
68,1011101108390,新規,0,2024-08-15,2024-08-15,株式会社Ｄｏｂｉｔ,,株式会社,東京都,新宿区,百人町１丁目１８－８大久保カドビルＬｉｎｋＳｐａｃｅ百人町Ｃ１２,,13,104,1690073,,,,,,,2024-08-15,1,,,,,ドビット,0
69,1011101108399,新規,0,2024-08-15,2024-08-15,株式会社ＡＭＥＲＦＩ,,株式会社,東京都,新宿区,百人町２丁目７番１６－６０１号,,13,104,1690073,,,,,,,2024-08-15,1,,,,,アメルフィ,0
71,1011301029916,新規,0,2024-08-15,2024-08-15,株式会社ボンズフィルム,,株式会社,東京都,杉並区,井草３丁目８番３号,,13,115,1670021,,,,,,,2024-08-15,1,,,,,ボンズフィルム,0
73,1011401026284,新規,0,2024-08-15,2024-08-15,Ｂｌａｚｉｎｇ　Ｆｏｒｔｕｎｅ株式会社,,株式会社,東京都,板橋区,板橋２丁目６３－４グローリア初穂板橋５０１ＥａｓｙＯｆｆｉｃｅ,,13,119,1730004,,,,,,,2024-08-15,1,,,,,ブレージングフォーチュン,0
76,1011503006143,新規,0,2024-08-15,2024-08-15,ジャパンクオリティーズ合同会社,,合同会社,東京都,荒川区,町屋７丁目８－１１,,13,118,1160001,,,,,,,2024-08-15,1,,,,,ジャパンクオリティーズ,0
77,1011503006168,新規,0,2024-08-15,2024-08-15,合同会社ＴＫＦＪ,,合同会社,東京都,北区,東田端２丁目６番２－７０１号,,13,117,1140013,,,,,,,2024-08-15,1,,,,,ティーケイエフジェイ,0
78,1011601027974,新規,0,2024-08-15,2024-08-15,株式会社円満家族プラニング,,株式会社,東京都,練馬区,西大泉３丁目１１番１９号,,13,120,1780065,,,,,,,2024-08-15,1,,,,,エンマンカゾクプラニング,0
79,1011603004419,新規,0,2024-08-15,2024-08-15,合同会社センイチ,,合同会社,東京都,練馬区,南大泉２丁目１－３５,,13,120,1780064,,,,,,,2024-08-15,1,,,,,センイチ,0
81,1012303002035,新規,0,2024-08-15,2024-08-15,Ｔｅｃｋ　ｎｏｖａ合同会社,,合同会社,東京都,町田市,金森１丁目４番９号フラッツかなもり１０５,,13,209,1940012,,,,,,,2024-08-15,1,,,,,テックノヴァ,0
82,1012401042189,新規,0,2024-08-15,2024-08-15,ＮＵＲＵＫＡ株式会社,,株式会社,東京都,府中市,是政６丁目９番地の７３,,13,206,1830014,,,,,,,2024-08-15,1,,,,,ヌルカ,0
85,1012701018401,新規,0,2024-08-15,2024-08-15,株式会社Ｎ．Ｖ．Ｍ．,,株式会社,東京都,清瀬市,元町１丁目１番１６号,,13,221,2040021,,,,,,,2024-08-15,1,,,,,エヌブイエム,0
86,1012703003054,新規,0,2024-08-15,2024-08-15,合同会社ファインドホーム,,合同会社,東京都,小平市,花小金井１丁目３６－１２－７,,13,211,1870002,,,,,,,2024-08-15,1,,,,,ファインドホーム,0
96,1020001158446,新規,0,2024-08-15,2024-08-15,株式会社Ｒｅａｄｉｌｙ,,株式会社,神奈川県,横浜市西区,みなとみらい３丁目７－１オーシャンゲートみなとみらい８Ｆ,,14,103,2200012,,,,,,,2024-08-15,1,,,,,レデリィ,0
97,1020001158636,新規,0,2024-08-15,2024-08-15,アスプラス株式会社,,株式会社,神奈川県,川崎市中原区,新丸子東３丁目１１００番地１５Ｓ３７０１,,14,133,2110004,,,,,,,2024-08-15,1,,,,,アスプラス,0
102,1020005016501,新規,0,2024-08-15,2024-08-15,一般社団法人英香舎,,その他の設立登記法人,神奈川県,川崎市中原区,井田２丁目１８番５号,,14,133,2110035,,,,,,,2024-08-15,1,,,,,エイコウシャ,0
103,1021001082999,新規,0,2024-08-15,2024-08-15,株式会社一蓮托生,,株式会社,神奈川県,三浦郡葉山町,堀内１４５０番地の３,,14,301,2400112,,,,,,,2024-08-15,1,,,,,イチレンタクショウ,0
104,1021003014876,新規,0,2024-08-15,2024-08-15,ＪＳ　Ｃｏｎｓｕｌｔｉｎｇ合同会社,,合同会社,神奈川県,茅ヶ崎市,本村１丁目２－１０ヴェレーナ茅ヶ崎５０２,,14,207,2530042,,,,,,,2024-08-15,1,,,,,ジェイエスコンサルティング,0
105,1021003014901,新規,0,2024-08-15,2024-08-15,合同会社ｍ．ｍ．ｃｏｍｐａｎｙ,,合同会社,神奈川県,藤沢市,善行１丁目２３番地の１１クリオ藤沢善行六番館２０１号,,14,205,2510871,,,,,,,2024-08-15,1,,,,,エムエムカンパニー,0
109,1030001161903,新規,0,2024-08-15,2024-08-15,ワイセキュア株式会社,,株式会社,埼玉県,川口市,金山町１２番１号サウスゲートタワー川口２Ｆ,,11,203,3320014,,,,,,,2024-08-15,1,,,,,ワイセキュア,0
110,1030001161911,新規,0,2024-08-15,2024-08-15,株式会社Ｃｒｏｓｓ　Ｇｕｉｌｄ,,株式会社,埼玉県,北足立郡伊奈町,内宿台１丁目４３番地ルーラルビューＴＩ２０１,,11,301,3620812,,,,,,,2024-08-15,1,,,,,クロスギルド,0
111,1030001161936,新規,0,2024-08-15,2024-08-15,株式会社ゆめけんホールディングス,,株式会社,埼玉県,東松山市,大字西本宿１８４７番地,,11,212,3550062,,,,,,,2024-08-15,1,,,,,ユメケンホールディングス,0
112,1030001161977,新規,0,2024-08-15,2024-08-15,株式会社おむすび,,株式会社,埼玉県,さいたま市大宮区,天沼町２丁目１５４番地１３,,11,103,3300834,,,,,,,2024-08-15,1,,,,,オムスビ,0
115,1030003024918,新規,0,2024-08-15,2024-08-15,合同会社Ｓｏｗａｔｔ,,合同会社,埼玉県,久喜市,南栗橋８丁目１番地７０,,11,232,3491117,,,,,,,2024-08-15,1,,,,,ソワット,0
116,1030003024926,新規,0,2024-08-15,2024-08-15,ＭＩＵ合同会社,,合同会社,埼玉県,さいたま市浦和区,北浦和３丁目８番６号田口ビル１－Ｃ,,11,107,3300074,,,,,,,2024-08-15,1,,,,,ミウ,0
117,1030003024934,新規,0,2024-08-15,2024-08-15,アブアンドソンズ合同会社,,合同会社,埼玉県,熊谷市,原島２１２番地３,,11,202,3600811,,,,,,,2024-08-15,1,,,,,アブアンドソンズ,0
121,1040001134536,新規,0,2024-08-15,2024-08-15,株式会社ちゃんみわ,,株式会社,千葉県,東金市,南上宿２９番地９,,12,213,2830066,,,,,,,2024-08-15,1,,,,,チャンミワ,0
122,1040001134957,新規,0,2024-08-15,2024-08-15,株式会社ＫＯＨＥＩ,,株式会社,千葉県,習志野市,谷津１丁目２１番１５号,,12,216,2750026,,,,,,,2024-08-15,1,,,,,コウヘイ,0
123,1040001134981,新規,0,2024-08-15,2024-08-15,ｙｏａｋｅ株式会社,,株式会社,千葉県,山武市,横田８２４－１４,,12,237,2891226,,,,,,,2024-08-15,1,,,,,ヨアケ,0
135,1070003005550,新規,0,2024-08-15,2024-08-15,合同会社クロノフューチャー,,合同会社,群馬県,太田市,東本町３８番－２６ペスカトーレ太田１０３号,,10,205,3730026,,,,,,,2024-08-15,1,,,,,クロノフューチャー,0
138,1080103003123,新規,0,2024-08-15,2024-08-15,合同会社遺産承継サポート,,合同会社,静岡県,三島市,日の出町３番６号‐２０３,,22,206,4110851,,,,,,,2024-08-15,1,,,,,イサンショウケイサポート,0
150,1120001267708,新規,0,2024-08-15,2024-08-15,株式会社ｂＲｉｇｈｔｅｎｉｎｇ,,株式会社,大阪府,大阪市北区,中崎西４丁目３番６－６０２号,,27,127,5300015,,,,,,,2024-08-15,1,,,,,ブライトニング,0
151,1120001267716,新規,0,2024-08-15,2024-08-15,株式会社ルミエール,,株式会社,大阪府,大阪市浪速区,桜川２丁目３番１９－７０１号,,27,111,5560022,,,,,,,2024-08-15,1,,,,,ルミエール,0
152,1120001267732,新規,0,2024-08-15,2024-08-15,株式会社ＡＬＥＳＳＡ　ＪＡＰＡＮ,,株式会社,大阪府,大阪市西区,南堀江３丁目７番１３－２０２号,,27,106,5500015,,,,,,,2024-08-15,1,,,,,アレッサジャパン,0
153,1120001267765,新規,0,2024-08-15,2024-08-15,株式会社Ｐａｃｉｆｉｃ,,株式会社,大阪府,大阪市浪速区,幸町１丁目３番２３号,,27,111,5560021,,,,,,,2024-08-15,1,,,,,パシフィック,0
154,1120001267773,新規,0,2024-08-15,2024-08-15,株式会社ＳＥＩＫＯＵ,,株式会社,大阪府,大阪市港区,市岡３丁目９番２５号,,27,107,5520012,,,,,,,2024-08-15,1,,,,,セイコウ,0
158,1120003027250,新規,0,2024-08-15,2024-08-15,長根屋合同会社,,合同会社,大阪府,大阪市北区,梅田１丁目１‐３大阪駅前第３ビル２９階１‐１‐１号室,,27,127,5300001,,,,,,,2024-08-15,1,,,,,ナガネヤ,0
159,1120003027291,新規,0,2024-08-15,2024-08-15,合同会社Ｊ．ＥｍｐｏｗｅｒＭｕｓｅ,,合同会社,大阪府,大阪市北区,太融寺町２番２１号ニュープラザビル８０５号,,27,127,5300051,,,,,,,2024-08-15,1,,,,,ジェイエンパワーミューズ,0
160,1120003027300,新規,0,2024-08-15,2024-08-15,ＪａｐａｎＴｒｉｐｓ合同会社,,合同会社,大阪府,大阪市生野区,小路東５丁目１２番２号,,27,116,5440003,,,,,,,2024-08-15,1,,,,,ジャパントリップス,0
162,1120101070136,新規,0,2024-08-15,2024-08-15,株式会社心凪,,株式会社,大阪府,堺市堺区,榎元町６丁７－２５下川倉庫Ａ号,,27,141,5900027,,,,,,,2024-08-15,1,,,,,ミナギ,0
163,1120101070169,新規,0,2024-08-15,2024-08-15,株式会社Ｅ　ＲＩＲＥ,,株式会社,大阪府,松原市,天美我堂６丁目５－４８,,27,217,5800026,,,,,,,2024-08-15,1,,,,,イーリール,0
164,1120901049602,新規,0,2024-08-15,2024-08-15,株式会社ＬＵＳＴ,,株式会社,大阪府,豊中市,熊野町３丁目１７番２の１号,,27,203,5600014,,,,,,,2024-08-15,1,,,,,ルスト,0
165,1120901049627,新規,0,2024-08-15,2024-08-15,ＶＥＮＴＵＲＡ　ＣＯＲＰＯＲＡＴＩＯＮ株式会社,,株式会社,大阪府,吹田市,千里丘下６番Ｆ－９０３,,27,205,5650813,,,,,,,2024-08-15,1,,,,,ベンチュラコーポレーション,0
167,1120903005306,新規,0,2024-08-15,2024-08-15,エアガイツエスピー合同会社,,合同会社,大阪府,吹田市,千里山西４丁目３７－３ヴェローノ緑地公園４１０,,27,205,5650851,,,,,,,2024-08-15,1,,,,,エアガイツエスピー,0
169,1122003002968,新規,0,2024-08-15,2024-08-15,合同会社ＣａｌｍＲ,,合同会社,大阪府,柏原市,田辺２丁目８－６０,,27,221,5820024,,,,,,,2024-08-15,1,,,,,カルミア,0
175,1130003009792,新規,0,2024-08-15,2024-08-15,合同会社ＱＵＥＴＴＡ,,合同会社,京都府,宇治市,木幡西中３１－７－４０５,,26,204,6110002,,,,,,,2024-08-15,1,,,,,クエタ,0
178,1140001135466,新規,0,2024-08-15,2024-08-15,株式会社スターホープ,,株式会社,兵庫県,加西市,別府町字桑ケ池下甲８４７番１,,28,220,6790103,,,,,,,2024-08-15,1,,,,,スターホープ,0
179,1140001135482,新規,0,2024-08-15,2024-08-15,株式会社Ｇｌｅａｍ,,株式会社,兵庫県,西宮市,戸田町２－１５レザムルーズ西宮２０５号室,,28,204,6620916,,,,,,,2024-08-15,1,,,,,グリーム,0
180,1140001135516,新規,0,2024-08-15,2024-08-15,Ｄｅｍａｉｎ株式会社,,株式会社,兵庫県,西宮市,甲子園口北町４番１－３０３号,,28,204,6638112,,,,,,,2024-08-15,1,,,,,ドゥマン,0
188,1160001026168,新規,0,2024-08-15,2024-08-15,Ｍ＆Ｈ株式会社,,株式会社,滋賀県,犬上郡甲良町,大字尼子７７４－５,,25,442,5220242,,,,,,,2024-08-15,1,,,,,エムアンドエイチ,0
190,1170003002091,新規,0,2024-08-15,2024-08-15,合同会社キャッツテール,,合同会社,和歌山県,田辺市,目良１０番７－２０５号,,30,206,6460058,,,,,,,2024-08-15,1,,,,,キャッツテール,0
195,1180001162812,新規,0,2024-08-15,2024-08-15,株式会社伊藤総合地所,,株式会社,愛知県,江南市,高屋町旭２１２番地,,23,217,4838065,,,,,,,2024-08-15,1,,,,,イトウソウゴウチショ,0
196,1180001162820,新規,0,2024-08-15,2024-08-15,株式会社ｍｏｆｕｔｔｏ,,株式会社,愛知県,名古屋市千種区,下方町６丁目３番地の２,,23,101,4640096,,,,,,,2024-08-15,1,,,,,モフット,0
197,1180001162845,新規,0,2024-08-15,2024-08-15,株式会社ＴＯＤｔｒａｄｉｎｇ,,株式会社,愛知県,名古屋市千種区,富士見台２丁目８番地Ｄ２０７,,23,101,4640015,,,,,,,2024-08-15,1,,,,,トオダトレーディング,0
198,1180001162853,新規,0,2024-08-15,2024-08-15,株式会社富貴,,株式会社,愛知県,名古屋市東区,葵１丁目１７番１４号（エルブ葵４０５号）,,23,102,4610004,,,,,,,2024-08-15,1,,,,,フウキ,0
199,1180001162861,新規,0,2024-08-15,2024-08-15,株式会社ニタ,,株式会社,愛知県,名古屋市中区,栄２丁目１番２１号,,23,106,4600008,,,,,,,2024-08-15,1,,,,,ニタ,0
201,1180003027220,新規,0,2024-08-15,2024-08-15,ららトラベル合同会社,,合同会社,愛知県,名古屋市中区,丸の内２丁目１８番３２号,,23,106,4600002,,,,,,,2024-08-15,1,,,,,ララトラベル,0
212,1200003006469,新規,0,2024-08-15,2024-08-15,ワッソンジャパン合同会社,,合同会社,岐阜県,大垣市,林町１丁目１８３,,21,202,5030015,,,,,,,2024-08-15,1,,,,,ワッソンジャパン,0
221,1240005015811,新規,0,2024-08-15,2024-08-15,一般社団法人Ｄｙｎａｍｉｃ　Ｈｅｒｉｔａｇｅ,,その他の設立登記法人,広島県,東広島市,西条栄町９番１１号,,34,212,7390015,,,,,,,2024-08-15,1,,,,,ダイナミックヘリテージ,0
223,1250001020772,新規,0,2024-08-15,2024-08-15,株式会社中村土地建物,,株式会社,山口県,周南市,政所３丁目１０番６号,,35,215,7460012,,,,,,,2024-08-15,1,,,,,ナカムラトチタテモノ,0
228,1260005011395,新規,0,2024-08-15,2024-08-15,医療法人社団ゆういく会,,その他の設立登記法人,岡山県,倉敷市,新倉敷駅前５丁目１６番地１,,33,202,7100253,,,,,,,2024-08-15,1,,,,,シャダンユウイクカイ,0
229,1270003001661,新規,0,2024-08-15,2024-08-15,合同会社幸志,,合同会社,鳥取県,鳥取市,千代水３丁目８１,,31,201,6800911,,,,,,,2024-08-15,1,,,,,コウシ,0
234,1290001106650,新規,0,2024-08-15,2024-08-15,株式会社彩葉,,株式会社,福岡県,太宰府市,国分３丁目１６番２０号,,40,221,8180132,,,,,,,2024-08-15,1,,,,,イロハ,0
235,1290001106915,新規,0,2024-08-15,2024-08-15,株式会社Ｕ＆Ｆ,,株式会社,福岡県,福岡市中央区,渡辺通５丁目１４番１２号南天神ビル３Ｆ,,40,133,8100004,,,,,,,2024-08-15,1,,,,,ユーアンドエフ,0
236,1290001106989,新規,0,2024-08-15,2024-08-15,株式会社エムシーウェブ,,株式会社,福岡県,福岡市中央区,大宮２丁目３－１０Ｂｒａｎｃｈｅ平尾２０３,,40,133,8100013,,,,,,,2024-08-15,1,,,,,エムシーウェブ,0
239,1300001013878,新規,0,2024-08-15,2024-08-15,ＹＳＴ株式会社,,株式会社,佐賀県,佐賀市,川副町大字早津江１３８６番地,,41,201,8402203,,,,,,,2024-08-15,1,,,,,ワイエスティー,0
242,1310003004841,新規,0,2024-08-15,2024-08-15,クレイマン合同会社,,合同会社,長崎県,諫早市,天神町１８８０番地５,,42,204,8540123,,,,,,,2024-08-15,1,,,,,クレイマン,0
243,1320001020674,新規,0,2024-08-15,2024-08-15,株式会社Ｕ．Ｏ,,株式会社,大分県,大分市,弁天３丁目５番２３号,,44,201,8700017,,,,,,,2024-08-15,1,,,,,ユーオー,0
247,1330001032371,新規,0,2024-08-15,2024-08-15,株式会社やまもと薬局,,株式会社,熊本県,熊本市中央区,大江本町６番５－１００１号,,43,101,8620973,,,,,,,2024-08-15,1,,,,,ヤマモトヤッキョク,0
250,1340003004574,新規,0,2024-08-15,2024-08-15,合同会社ＯＮＥＧＬＡＭ,,合同会社,鹿児島県,鹿児島市,下荒田３丁目３８番１６号サーパス騎射場１３０２号,,46,201,8900056,,,,,,,2024-08-15,1,,,,,ワングラム,0
252,1360003014225,新規,0,2024-08-15,2024-08-15,ＧＬＯＲＹ合同会社,,合同会社,沖縄県,国頭郡宜野座村,字漢那２２６１番地の８,,47,313,9041304,,,,,,,2024-08-15,1,,,,,グローリー,0
255,1370001051649,新規,0,2024-08-15,2024-08-15,株式会社ジーアセットマネジメント,,株式会社,宮城県,仙台市青葉区,中央３丁目３番３号,,04,101,9800021,,,,,,,2024-08-15,1,,,,,ジーアセットマネジメント,0
256,1370001051657,新規,0,2024-08-15,2024-08-15,ＨＡＤＩ　ＴＲＡＤＩＮＧ株式会社,,株式会社,宮城県,大崎市,古川諏訪２丁目７番１１号鹿乃荘２号室,,04,215,9896175,,,,,,,2024-08-15,1,,,,,ハディトレーディング,0
262,1400001016755,新規,0,2024-08-15,2024-08-15,下舘建設ホールディングス株式会社,,株式会社,岩手県,久慈市,長内町第２４地割１６２番地,,03,207,0280041,,,,,,,2024-08-15,1,,,,,シモダテケンセツホールディングス,0
264,1400003003314,新規,0,2024-08-15,2024-08-15,合同会社Ａ．Ｓコーポレーション,,合同会社,岩手県,滝沢市,大釜上竹鼻１６番地２,,03,216,0200773,,,,,,,2024-08-15,1,,,,,エエエスコーポレーション,0
265,1410001013917,新規,0,2024-08-15,2024-08-15,株式会社大戸興業,,株式会社,秋田県,雄勝郡羽後町,大戸字大戸２１番地,,05,463,0121132,,,,,,,2024-08-15,1,,,,,オオトコウギョウ,0
269,1430001092447,新規,0,2024-08-15,2024-08-15,株式会社オイルサービスヤマト,,株式会社,北海道,江別市,萌えぎ野東１６番地の２,,01,217,0670057,,,,,,,2024-08-15,1,,,,,オイルサービスヤマト,0
270,1430001092496,新規,0,2024-08-15,2024-08-15,株式会社ＮＳＬ道東,,株式会社,北海道,札幌市東区,東苗穂三条３丁目１番３１号,,01,103,0070803,,,,,,,2024-08-15,1,,,,,エヌエスエルドウトウ,0
274,1430005015040,新規,0,2024-08-15,2024-08-15,農事組合法人遊佐農園,,その他の設立登記法人,北海道,札幌市豊平区,豊平四条３丁目３番１０－８０２号,,01,105,0620904,,,,,,,2024-08-15,1,,,,,ユサノウエン,0
276,1470001020346,新規,0,2024-08-15,2024-08-15,株式会社華雅,,株式会社,香川県,高松市,一宮町１２３０番地２１,,37,201,7618084,,,,,,,2024-08-15,1,,,,,ハナミヤビ,0
282,1490001010849,新規,0,2024-08-15,2024-08-15,ＭＡＴ株式会社,,株式会社,高知県,高知市,高見町２３７番地,,39,201,7808027,,,,,,,2024-08-15,1,,,,,エムエーティー,0
283,1500001025829,新規,0,2024-08-15,2024-08-15,株式会社産,,株式会社,愛媛県,松山市,鷹子町２６４番地３,,38,201,7900925,,,,,,,2024-08-15,1,,,,,ウブ,0
288,1700150126738,新規,0,2024-08-15,2024-08-15,駐新潟大韓民国総領事館,,外国会社等,新潟県,新潟市中央区,万代島５番１号万代島ビル８Ｆ,,15,103,9500078,６０，Ｓａｊｉｋ－ｒｏ　８　ｇｉｌ，Ｊｏｎｇｎｏ－ｇｕ，Ｓｅｏｕｌ，Ｒｅｐｕｂｌｉｃ　ｏｆ　Ｋｏｒｅａ,,,,,,2024-08-15,1,,,,,チユウニイガタダイカンミンコクソウリヨウジカン,0
292,2010001247422,新規,0,2024-08-15,2024-08-15,株式会社Ｌａｕｇｈ　Ｔａｌｅ,,株式会社,東京都,中央区,日本橋浜町２丁目３４番７号田島ビル４Ｆ,,13,102,1030007,,,,,,,2024-08-15,1,,,,,ラフテル,0
293,2010001247463,新規,0,2024-08-15,2024-08-15,株式会社ＮＵＰ,,株式会社,東京都,中央区,八重洲１丁目８番１７号新槇町ビル６Ｆ,,13,102,1030028,,,,,,,2024-08-15,1,,,,,ナップ,0
294,2010001247471,新規,0,2024-08-15,2024-08-15,Ｈａｌ　Ｇｒａｉｎ株式会社,,株式会社,東京都,千代田区,岩本町２丁目１番１０号,,13,101,1010032,,,,,,,2024-08-15,1,,,,,ハルグレイン,0
295,2010001247488,新規,0,2024-08-15,2024-08-15,株式会社アルテミスキャピタル,,株式会社,東京都,中央区,晴海３丁目１３番２－１７０５号,,13,102,1040053,,,,,,,2024-08-15,1,,,,,アルテミスキャピタル,0
302,2010003044586,新規,0,2024-08-15,2024-08-15,ＨＢＳエナジー１号合同会社,,合同会社,東京都,千代田区,麹町２丁目８番地ＭＬＣ麹町ビル４階フィンポート税理士法人内,,13,101,1020083,,,,,,,2024-08-15,1,,,,,エイチビーエスエナジーイチゴウ,0
303,2010003044603,新規,0,2024-08-15,2024-08-15,ななし合同会社,,合同会社,東京都,中央区,勝どき４丁目６番１－２７２４号,,13,102,1040054,,,,,,,2024-08-15,1,,,,,ナナシ,0
313,2010401184521,新規,0,2024-08-15,2024-08-15,今井一成株式会社,,株式会社,東京都,港区,南麻布１丁目２７番２０号カーサ麻布ＡＮＮＥＸ、Ｂ１０１,,13,103,1060047,,,,,,,2024-08-15,1,,,,,イマイカズシゲ,0
316,2010501052751,新規,0,2024-08-15,2024-08-15,株式会社ソフィアンクルー,,株式会社,東京都,台東区,蔵前２丁目８番３号,,13,106,1110051,,,,,,,2024-08-15,1,,,,,ソフィアンクルー,0
317,2010501052768,新規,0,2024-08-15,2024-08-15,ＢＳＴ株式会社,,株式会社,東京都,台東区,台東３丁目５番１０号－１０２－２Ｄ,,13,106,1100016,,,,,,,2024-08-15,1,,,,,ベスター,0
320,2010601065744,新規,0,2024-08-15,2024-08-15,株式会社フォワードジャパンホールディングス,,株式会社,東京都,墨田区,錦糸３丁目２番１号,,13,107,1300013,,,,,,,2024-08-15,1,,,,,フォワードジャパンホールディングス,0
322,2010703007306,新規,0,2024-08-15,2024-08-15,Ｉホールディングス合同会社,,合同会社,東京都,品川区,上大崎３丁目１番１号目黒セントラルスクエア１５階,,13,109,1410021,,,,,,,2024-08-15,1,,,,,アイホールディングス,0
325,2010803005060,新規,0,2024-08-15,2024-08-15,合同会社Ｒａｐｐｏｒｔ８,,合同会社,東京都,大田区,西蒲田６丁目１２番５号,,13,111,1440051,,,,,,,2024-08-15,1,,,,,ラポールエイト,0
327,2011001164038,新規,0,2024-08-15,2024-08-15,株式会社リーライダーす,,株式会社,東京都,渋谷区,富ヶ谷１丁目１８番５号Ｔ．Ｉ．ビル５Ｆ,,13,113,1510063,,,,,,,2024-08-15,1,,,,,リーライダース,0
328,2011001164079,新規,0,2024-08-15,2024-08-15,株式会社ＭＳＢＭ,,株式会社,東京都,渋谷区,渋谷２丁目１９番１５号宮益坂ビルディング６０９,,13,113,1500002,,,,,,,2024-08-15,1,,,,,エムエスビーエム,0
329,2011001164112,新規,0,2024-08-15,2024-08-15,株式会社三光商事,,株式会社,東京都,渋谷区,代々木２丁目２１－３－２０１号,,13,113,1510053,,,,,,,2024-08-15,1,,,,,サンコウショウジ,0
330,2011003019743,新規,0,2024-08-15,2024-08-15,Ｎｏｒｍａｌ合同会社,,合同会社,東京都,目黒区,大岡山１丁目３１番３７号,,13,110,1520033,,,,,,,2024-08-15,1,,,,,ノーマル,0
331,2011003019776,新規,0,2024-08-15,2024-08-15,サンエージェント合同会社,,合同会社,東京都,渋谷区,渋谷１丁目１－３アミーホール４Ｆ－４１７,,13,113,1500002,,,,,,,2024-08-15,1,,,,,サンエージェント,0
333,2011103014784,新規,0,2024-08-15,2024-08-15,合同会社アドエムズ,,合同会社,東京都,新宿区,西新宿６丁目５番１号新宿アイランドタワー２階,,13,104,1600023,,,,,,,2024-08-15,1,,,,,アドエムズ,0
334,2011103014801,新規,0,2024-08-15,2024-08-15,合同会社ＤＦＳＧ,,合同会社,東京都,新宿区,大久保３丁目８番１－１９０６号,,13,104,1690072,,,,,,,2024-08-15,1,,,,,ディエフエスジー,0
337,2011301029915,新規,0,2024-08-15,2024-08-15,株式会社Ｉｒｏｎ　Ｆｌａｔ,,株式会社,東京都,杉並区,阿佐谷南１丁目１番２号ルフェールプラ阿佐ヶ谷１０１,,13,115,1660004,,,,,,,2024-08-15,1,,,,,アイアンフラット,0
338,2011401026283,新規,0,2024-08-15,2024-08-15,ＢＧ株式会社,,株式会社,東京都,板橋区,板橋２丁目６３－４グローリア初穂板橋５０１ＥａｓｙＯｆｆｉｃｅ,,13,119,1730004,,,,,,,2024-08-15,1,,,,,ビージー,0
342,2011601027973,新規,0,2024-08-15,2024-08-15,株式会社オプティマイズ,,株式会社,東京都,練馬区,石神井台２丁目３１番２４号,,13,120,1770045,,,,,,,2024-08-15,1,,,,,オプティマイズ,0
343,2011603004401,新規,0,2024-08-15,2024-08-15,合同会社ｂ,,合同会社,東京都,練馬区,関町北３丁目３－１３,,13,120,1770051,,,,,,,2024-08-15,1,,,,,ビー,0
347,2012401042188,新規,0,2024-08-15,2024-08-15,株式会社ヘカ,,株式会社,東京都,稲城市,向陽台４丁目２番地みはらしの家Ｃ－６０７号,,13,225,2060803,,,,,,,2024-08-15,1,,,,,ヘカ,0
353,2013301052995,新規,0,2024-08-15,2024-08-15,株式会社リプロピース,,株式会社,東京都,豊島区,南大塚１丁目６０番２０号,,13,116,1700005,,,,,,,2024-08-15,1,,,,,リプロピース,0
355,2013305003631,新規,0,2024-08-15,2024-08-15,一般社団法人ｅｖＯｒｇ,,その他の設立登記法人,東京都,豊島区,高田１丁目１８番６－３２３号,,13,116,1710033,,,,,,,2024-08-15,1,,,,,エヴォーグ,0
363,2020001158445,新規,0,2024-08-15,2024-08-15,株式会社ＲｅＭＥＭＢＥＲ,,株式会社,神奈川県,横浜市西区,みなとみらい３丁目７－１オーシャンゲートみなとみらい８Ｆ,,14,103,2200012,,,,,,,2024-08-15,1,,,,,リメンバー,0
364,2020001158627,新規,0,2024-08-15,2024-08-15,株式会社ＯｎｅＴｉｅｚ,,株式会社,神奈川県,横浜市旭区,東希望が丘２７番地１５,,14,112,2410826,,,,,,,2024-08-15,1,,,,,ワンタイズ,0
370,2020005016500,新規,0,2024-08-15,2024-08-15,一般社団法人章蔭会,,その他の設立登記法人,神奈川県,横浜市鶴見区,鶴見中央３丁目１５番３０号ＬＩＣＯＰＡ鶴見２階,,14,101,2300051,,,,,,,2024-08-15,1,,,,,ショウインカイ,0
371,2021001082973,新規,0,2024-08-15,2024-08-15,株式会社ＡＷＩ,,株式会社,神奈川県,逗子市,小坪１丁目１１番１７号,,14,208,2490008,,,,,,,2024-08-15,1,,,,,エーダブリューアイ,0
372,2021001083022,新規,0,2024-08-15,2024-08-15,株式会社ｒｉｇｈｔ　ｕｐ,,株式会社,神奈川県,厚木市,及川１丁目４番８号カレントガーデンＡ－２０１,,14,212,2430212,,,,,,,2024-08-15,1,,,,,ライトアップ,0
376,2021003014883,新規,0,2024-08-15,2024-08-15,合同会社みゅう,,合同会社,神奈川県,藤沢市,善行１丁目１８－８ベルデメゾン神山２０３,,14,205,2510871,,,,,,,2024-08-15,1,,,,,ミュウ,0
383,2030001161902,新規,0,2024-08-15,2024-08-15,株式会社Ｌａｔｅｎｔ,,株式会社,埼玉県,さいたま市大宮区,桜木町２丁目３番地大宮マルイ７階,,11,103,3300854,,,,,,,2024-08-15,1,,,,,レイデント,0
384,2030001161919,新規,0,2024-08-15,2024-08-15,株式会社亀田設計,,株式会社,埼玉県,さいたま市岩槻区,大字慈恩寺６９２番地７,,11,110,3390009,,,,,,,2024-08-15,1,,,,,カメダセッケイ,0
385,2030001161935,新規,0,2024-08-15,2024-08-15,何の株式会社,,株式会社,埼玉県,所沢市,くすのき台１丁目１３番地の２ガーデンシティ所沢２Ｆ３１号室,,11,208,3590037,,,,,,,2024-08-15,1,,,,,ナンノ,0
386,2030001161943,新規,0,2024-08-15,2024-08-15,つばさ総合会計事務所株式会社,,株式会社,埼玉県,さいたま市浦和区,高砂２丁目１４番１７号浦和マルゼンビル５階,,11,107,3300063,,,,,,,2024-08-15,1,,,,,ツバサソウゴウカイケイジムショ,0
387,2030001161951,新規,0,2024-08-15,2024-08-15,株式会社Ｍ’ｓファーレ,,株式会社,埼玉県,さいたま市北区,日進町３丁目２９４番地,,11,102,3310823,,,,,,,2024-08-15,1,,,,,エムズファーレ,0
390,2030003024917,新規,0,2024-08-15,2024-08-15,合同会社ＷＡＮＤＥＲＬＵＳＴ,,合同会社,埼玉県,行田市,向町５番１号,,11,206,3610075,,,,,,,2024-08-15,1,,,,,ワンダラスト,0
393,2040001134948,新規,0,2024-08-15,2024-08-15,株式会社Ｐ‐ＨＯＰＥ,,株式会社,千葉県,八千代市,上高野１０６７番地９７ＣｅｎｔｕｒｙＨｉｌｌｓ３０４号室,,12,221,2760022,,,,,,,2024-08-15,1,,,,,ピーホープ,0
394,2040001134997,新規,0,2024-08-15,2024-08-15,株式会社ＡＣＴＩＶＥ　ＦＩＴＮＥＳＳ,,株式会社,千葉県,成田市,本城２４３番地３－１０４,,12,211,2860114,,,,,,,2024-08-15,1,,,,,アクティブフィットネス,0
396,2040003025609,新規,0,2024-08-15,2024-08-15,合同会社エスティディア,,合同会社,千葉県,千葉市若葉区,若松台１丁目９番６号,,12,104,2640027,,,,,,,2024-08-15,1,,,,,エスティディア,0
398,2070001042074,新規,0,2024-08-15,2024-08-15,株式会社ワークメイツ,,株式会社,群馬県,前橋市,小相木町１丁目２番７号ＭＫＩＩ１－Ｂ,00135969,10,201,3710831,,,,,,,2024-08-15,1,,,,,ワークメイツ,0
401,2080103003122,新規,0,2024-08-15,2024-08-15,合同会社ｐｌｕｓＦ,,合同会社,静岡県,賀茂郡西伊豆町,仁科５１０番地の１,,22,306,4103514,,,,,,,2024-08-15,1,,,,,プラスエフ,0
410,2100003007674,新規,0,2024-08-15,2024-08-15,ＰＭ合同会社,,合同会社,長野県,北安曇郡白馬村,大字神城２２９４６番地２,,20,485,3999211,,,,,,,2024-08-15,1,,,,,ピーエム,0
415,2110001038646,新規,0,2024-08-15,2024-08-15,春建工株式会社,,株式会社,新潟県,上越市,春日山町２丁目１番３５号,,15,222,9430807,,,,,,,2024-08-15,1,,,,,ハルケンコウ,0
416,2110003005487,新規,0,2024-08-15,2024-08-15,合同会社ハルノユズ,,合同会社,新潟県,新潟市中央区,鳥屋野１丁目９番１２号,,15,103,9500951,,,,,,,2024-08-15,1,,,,,ハルノユズ,0
424,2120001267649,新規,0,2024-08-15,2024-08-15,Ｅａｒｔｈｒｅｃ株式会社,,株式会社,大阪府,大阪市北区,中崎西４丁目２番１９号,,27,127,5300015,,,,,,,2024-08-15,1,,,,,アースレック,0
425,2120001267657,新規,0,2024-08-15,2024-08-15,株式会社リバイエ,,株式会社,大阪府,大阪市都島区,都島本通３丁目３番２２－１０２号,,27,102,5340021,,,,,,,2024-08-15,1,,,,,リバイエ,0
426,2120001267698,新規,0,2024-08-15,2024-08-15,純眞建設株式会社,,株式会社,大阪府,大阪市東成区,神路３丁目１６番７号,,27,115,5370003,,,,,,,2024-08-15,1,,,,,ジュンシンケンセツ,0
427,2120001267756,新規,0,2024-08-15,2024-08-15,株式会社Ｅｉｇｈｔ　Ｃｏｍｐａｎｙ,,株式会社,大阪府,大阪市天王寺区,烏ケ辻１丁目６番５号,00135954,27,109,5430042,,,,,,,2024-08-15,1,,,,,エイトカンパニー,0
428,2120001267764,新規,0,2024-08-15,2024-08-15,丸宏商事株式会社,,株式会社,大阪府,大阪市浪速区,敷津西１丁目９番１号タイコウエリートマンション５０５号,,27,111,5560015,,,,,,,2024-08-15,1,,,,,マルヒロショウジ,0
429,2120001267780,新規,0,2024-08-15,2024-08-15,株式会社エーケーアール,,株式会社,大阪府,大阪市中央区,南久宝寺町２丁目１番２号,,27,128,5410058,,,,,,,2024-08-15,1,,,,,エーケーアール,0
430,2120001267806,新規,0,2024-08-15,2024-08-15,株式会社恒昇,,株式会社,大阪府,大阪市東住吉区,北田辺５丁目９番３６号ルンルン桃ケ池３０１室,,27,121,5460044,,,,,,,2024-08-15,1,,,,,コウショウ,0
431,2120001267847,新規,0,2024-08-15,2024-08-15,千里金瑞株式会社,,株式会社,大阪府,大阪市住吉区,山之内２丁目１１番３号,,27,120,5580023,,,,,,,2024-08-15,1,,,,,センリキンリ,0
432,2120003027299,新規,0,2024-08-15,2024-08-15,佳友センター合同会社,,合同会社,大阪府,大阪市淀川区,宮原１丁目１９－２３－９０９,,27,123,5320003,,,,,,,2024-08-15,1,,,,,ヨシトモセンター,0
433,2120003027308,新規,0,2024-08-15,2024-08-15,合同会社信野堂,,合同会社,大阪府,大阪市平野区,流町１丁目７番７号昭和ビル６０１号室,,27,126,5470032,,,,,,,2024-08-15,1,,,,,シンヤドウ,0
435,2120005024501,新規,0,2024-08-15,2024-08-15,一般社団法人ともしびＮＥＴＷＯＲＫ,,その他の設立登記法人,大阪府,大阪市生野区,小路２丁目２６番１９号,,27,116,5440002,,,,,,,2024-08-15,1,,,,,トモシビネットワーク,0
437,2120101070143,新規,0,2024-08-15,2024-08-15,パインアーク株式会社,,株式会社,大阪府,藤井寺市,北岡２丁目７番１４号,,27,226,5830035,,,,,,,2024-08-15,1,,,,,パインアーク,0
438,2120101070151,新規,0,2024-08-15,2024-08-15,株式会社ＧｅｎｅｓｉｓＯｎｅ,,株式会社,大阪府,堺市北区,百舌鳥梅北町４丁３３番地２,,27,146,5918031,,,,,,,2024-08-15,1,,,,,ジェネシスワン,0
442,2120901049618,新規,0,2024-08-15,2024-08-15,株式会社ＴＥＮＴＯ．,,株式会社,大阪府,吹田市,吹東町５７番３号,,27,205,5640014,,,,,,,2024-08-15,1,,,,,テント,0
445,2122001038360,新規,0,2024-08-15,2024-08-15,株式会社エルグレース,,株式会社,大阪府,東大阪市,川俣本町５番１２号,,27,227,5770064,,,,,,,2024-08-15,1,,,,,エルグレース,0
448,2130003009783,新規,0,2024-08-15,2024-08-15,合同会社衝動,,合同会社,京都府,京都市山科区,東野北井ノ上町１０番地１０,,26,110,6078141,,,,,,,2024-08-15,1,,,,,ショウドウ,0
449,2130003009791,新規,0,2024-08-15,2024-08-15,合同会社春夏冬,,合同会社,京都府,京都市伏見区,新町７丁目４４７番地,,26,109,6128081,,,,,,,2024-08-15,1,,,,,アキナイ,0
453,2140001135481,新規,0,2024-08-15,2024-08-15,ＡＴオフィス株式会社,,株式会社,兵庫県,神戸市西区,学園東町４丁目１３番地の１２,,28,111,6512102,,,,,,,2024-08-15,1,,,,,エーティーオフィス,0
454,2140001135498,新規,0,2024-08-15,2024-08-15,株式会社ｉｉｃｏｓ,,株式会社,兵庫県,尼崎市,杭瀬本町２丁目１１番１０号,,28,202,6600814,,,,,,,2024-08-15,1,,,,,イイコス,0
455,2140003020970,新規,0,2024-08-15,2024-08-15,合同会社ＫＳＫ,,合同会社,兵庫県,神戸市中央区,元町通２丁目９番１－６０３号,,28,110,6500022,,,,,,,2024-08-15,1,,,,,ケイエスケイ,0
458,2160001026159,新規,0,2024-08-15,2024-08-15,株式会社小澤工務店,,株式会社,滋賀県,東近江市,上平木町１８５３番地,,25,213,5270086,,,,,,,2024-08-15,1,,,,,コザワコウムテン,0
469,2180001162828,新規,0,2024-08-15,2024-08-15,株式会社ＡＲＣＡＴＨ,,株式会社,愛知県,名古屋市東区,葵３丁目１８番１７号サンプレー名古屋ビル４Ｆ,,23,102,4610004,,,,,,,2024-08-15,1,,,,,アルカス,0
470,2180001162836,新規,0,2024-08-15,2024-08-15,株式会社コニシＫ．プロダクト,,株式会社,愛知県,名古屋市東区,飯田町１６番地の２（Ｅ．Ｓ．Ｙａｍａｂｕｋｉ４Ｂ号）,,23,102,4610013,,,,,,,2024-08-15,1,,,,,コニシケイプロダクト,0
471,2180001162877,新規,0,2024-08-15,2024-08-15,株式会社Ｋｓ,,株式会社,愛知県,名古屋市天白区,御幸山１６１１番地の１,,23,116,4680075,,,,,,,2024-08-15,1,,,,,ケーズ,0
472,2180001162885,新規,0,2024-08-15,2024-08-15,株式会社ナゴヤキャンパス,,株式会社,愛知県,名古屋市西区,名駅２丁目４番３号,,23,104,4510045,,,,,,,2024-08-15,1,,,,,ナゴヤキャンパス,0
479,2180003027178,新規,0,2024-08-15,2024-08-15,合同会社アライバル,,合同会社,愛知県,名古屋市中村区,日ノ宮町３丁目８４番地,,23,105,4530823,,,,,,,2024-08-15,1,,,,,アライバル,0
480,2180003027228,新規,0,2024-08-15,2024-08-15,ＡＳＡＫＡ　Ｌａｂ合同会社,,合同会社,愛知県,春日井市,八光町１丁目２３番地,,23,206,4860916,,,,,,,2024-08-15,1,,,,,アサカラボ,0
481,2180301038959,新規,0,2024-08-15,2024-08-15,株式会社道標,,株式会社,愛知県,刈谷市,相生町１丁目２１番地,,23,210,4480027,,,,,,,2024-08-15,1,,,,,ミチシルベ,0
482,2180301038967,新規,0,2024-08-15,2024-08-15,豊北学校給食サービス株式会社,,株式会社,愛知県,豊橋市,二川町字東向山２２番地の３,,23,201,4413153,,,,,,,2024-08-15,1,,,,,トヨキタガッコウキュウショクサービス,0
488,2200001042829,新規,0,2024-08-15,2024-08-15,株式会社Ｃｉｎｔｏ　Ｅｓｔｈｅｔｉｃｓ,,株式会社,岐阜県,岐阜市,太郎丸野田１２８番地,,21,201,5012578,,,,,,,2024-08-15,1,,,,,シントーエステティックス,0
491,2210001019875,新規,0,2024-08-15,2024-08-15,株式会社Ｋｉｉ,,株式会社,福井県,福井市,米松２丁目２１番４７号,,18,201,9100851,,,,,,,2024-08-15,1,,,,,キイ,0
493,2230003002274,新規,0,2024-08-15,2024-08-15,合同会社オレイアス,,合同会社,富山県,富山市,吉作４８６番地１３５,,16,201,9300142,,,,,,,2024-08-15,1,,,,,,0
497,2240001063706,新規,0,2024-08-15,2024-08-15,株式会社Ｓｋｉｌｌ　Ｅｄｕｃａｔｉｏｎ,,株式会社,広島県,広島市中区,本通７番２９号アイビービル７Ｆ,,34,101,7300035,,,,,,,2024-08-15,1,,,,,スキルエデュケーション,0
502,2260001039365,新規,0,2024-08-15,2024-08-15,院庄ホールディングス株式会社,,株式会社,岡山県,津山市,二宮２２番地１,,33,203,7080013,,,,,,,2024-08-15,1,,,,,インノショウホールディングス,0
503,2260003004862,新規,0,2024-08-15,2024-08-15,合同会社ＺＥＺＥ,,合同会社,岡山県,岡山市南区,福富東２丁目２０番６号,,33,104,7028033,,,,,,,2024-08-15,1,,,,,ゼゼ,0
506,2290001106690,新規,0,2024-08-15,2024-08-15,株式会社ｋｏｋｏｒｏ,,株式会社,福岡県,福岡市城南区,樋井川４丁目２０番１６号,,40,136,8140153,,,,,,,2024-08-15,1,,,,,ココロ,0
508,2300001013877,新規,0,2024-08-15,2024-08-15,株式会社やゆよ,,株式会社,佐賀県,佐賀市,川副町大字早津江津２３番地７,,41,201,8402202,,,,,,,2024-08-15,1,,,,,ヤユヨ,0
511,2300003002168,新規,0,2024-08-15,2024-08-15,合同会社オトトアカリ,,合同会社,佐賀県,鳥栖市,藤木町２３３９番地９,,41,203,8410048,,,,,,,2024-08-15,1,,,,,オトトアカリ,0
512,2330001032346,新規,0,2024-08-15,2024-08-15,株式会社倉千,,株式会社,熊本県,玉名郡玉東町,大字原倉１９６８番地７,,43,364,8690322,,,,,,,2024-08-15,1,,,,,クラセン,0
520,2350001019143,新規,0,2024-08-15,2024-08-15,株式会社ゆう不動産,,株式会社,宮崎県,西都市,妻町２丁目２１番地,,45,208,8810034,,,,,,,2024-08-15,1,,,,,ユウフドウサン,0
533,2400001016754,新規,0,2024-08-15,2024-08-15,株式会社Ｎｅｘｔ　ｉｎｎｏｖａｔｉｏｎ,,株式会社,岩手県,盛岡市,稲荷町１０番７号２階,,03,201,0200142,,,,,,,2024-08-15,1,,,,,ネクストイノベーション,0
534,2400001016762,新規,0,2024-08-15,2024-08-15,株式会社ひむろ,,株式会社,岩手県,西磐井郡平泉町,平泉字祇園６３の５,00135953,03,402,0294102,,,,,,,2024-08-15,1,,,,,ヒムロ,0
538,2430001092495,新規,0,2024-08-15,2024-08-15,株式会社ＮＳＬ道央,,株式会社,北海道,札幌市東区,東苗穂三条３丁目１番３１号,,01,103,0070803,,,,,,,2024-08-15,1,,,,,エヌエスエルドウオウ,0
541,2430003016683,新規,0,2024-08-15,2024-08-15,合同会社Ｂｅｓｔ　Ｏｆｆｅｒ,,合同会社,北海道,札幌市西区,西野八条４丁目２番３号,,01,107,0630038,,,,,,,2024-08-15,1,,,,,ベストオファー,0
542,2460003001006,新規,0,2024-08-15,2024-08-15,合同会社ピラミッティングデザイン,,合同会社,北海道,釧路市,寿４丁目２番１２号,,01,206,0850026,,,,,,,2024-08-15,1,,,,,ピラミッティングデザイン,0
543,2490001010848,新規,0,2024-08-15,2024-08-15,株式会社Ｐｉｃｃｏｌｏ　Ｓｏｌｅ,,株式会社,高知県,高知市,介良乙３０７１番地７,,39,201,7815106,,,,,,,2024-08-15,1,,,,,ピッコロソーレ,0
545,2500001025828,新規,0,2024-08-15,2024-08-15,キムラ水産株式会社,,株式会社,愛媛県,宇和島市,遊子２１２９番地,,38,203,7980103,,,,,,,2024-08-15,1,,,,,キムラスイサン,0
548,2700150126737,新規,0,2024-08-15,2024-08-15,建頤発展有限会社,,外国会社等,,,,,,,,中華人民共和国香港特別行政区湾仔港湾仔道６－８号瑞安中心３１楼,,,,,,2024-08-15,1,,,,,ケンイハツテンユウゲンガイシヤ,0
554,3010001247421,新規,0,2024-08-15,2024-08-15,株式会社Ｃｏｌｉｙ,,株式会社,東京都,千代田区,神田佐久間町２丁目１８番地,,13,101,1010025,,,,,,,2024-08-15,1,,,,,コーリー,0
555,3010001247446,新規,0,2024-08-15,2024-08-15,株式会社Ｓ’ａｉｍｅｒ,,株式会社,東京都,中央区,銀座７丁目１３番２０号銀座ＴＨビル９階,,13,102,1040061,,,,,,,2024-08-15,1,,,,,セメ,0
556,3010001247462,新規,0,2024-08-15,2024-08-15,株式会社いろは咲,,株式会社,東京都,千代田区,神田須田町１丁目６番地２４ＧＲＥＥＮＰＡＲＫ淡路町８０２,,13,101,1010041,,,,,,,2024-08-15,1,,,,,イロハサキ,0
557,3010001247487,新規,0,2024-08-15,2024-08-15,株式会社力こそパワー,,株式会社,東京都,千代田区,神田三崎町３丁目３番４号巴ビル２０１号室,,13,101,1010061,,,,,,,2024-08-15,1,,,,,チカラコソパワー,0
561,3010005038668,新規,0,2024-08-15,2024-08-15,司法書士法人木藤事務所,,その他の設立登記法人,東京都,中央区,京橋１丁目１４番５号土屋ビル５階,,13,102,1040031,,,,,,,2024-08-15,1,,,,,キドウジムショ,0
562,3010005038684,新規,0,2024-08-15,2024-08-15,ＧＬＰ小牧舟津１ロジスティック特定目的会社,,その他の設立登記法人,東京都,中央区,八重洲２丁目２番１号,,13,102,1040028,,,,,,,2024-08-15,1,,,,,ジーエルピーコマキフナツワンロジスティック,0
566,3010401184116,新規,0,2024-08-15,2024-08-15,Ｎｕｔｓ株式会社,,株式会社,東京都,港区,芝２丁目２８番１１号ＬｉｎｋＳｐａｃｅ芝３０１号室,,13,103,1050014,,,,,,,2024-08-15,1,,,,,ナッツ,0
567,3010401184479,新規,0,2024-08-15,2024-08-15,株式会社きざし,,株式会社,東京都,港区,北青山２丁目１２番４号坂本ビル３階,,13,103,1070061,,,,,,,2024-08-15,1,,,,,キザシ,0
573,3010501052767,新規,0,2024-08-15,2024-08-15,株式会社招き福,,株式会社,東京都,台東区,台東２丁目５番１２ー１Ｆ,,13,106,1100016,,,,,,,2024-08-15,1,,,,,マネキフク,0
574,3010601065727,新規,0,2024-08-15,2024-08-15,株式会社国会タイムズ社,,株式会社,東京都,江東区,青海２丁目７番４号ｔｈｅＳＯＨＯ６０６,,13,108,1350064,,,,,,,2024-08-15,1,,,,,コッカイタイムズシャ,0
575,3010601065743,新規,0,2024-08-15,2024-08-15,株式会社ソロモンアール,,株式会社,東京都,墨田区,江東橋２丁目１４番７号錦糸町サンライズビル７階,,13,107,1300022,,,,,,,2024-08-15,1,,,,,ソロモンアール,0
576,3010601065751,新規,0,2024-08-15,2024-08-15,株式会社Ｎａｎｐｕ,,株式会社,東京都,墨田区,向島２丁目１５－３－６０１,,13,107,1310033,,,,,,,2024-08-15,1,,,,,ナンプウ,0
582,3011001163914,新規,0,2024-08-15,2024-08-15,ＬＴＰウェルネス株式会社,,株式会社,東京都,目黒区,碑文谷２丁目１３番１３号グランシャトレ碑文谷１０１,,13,110,1520003,,,,,,,2024-08-15,1,,,,,エルティーピーウェルネス,0
583,3011001164012,新規,0,2024-08-15,2024-08-15,Ｄｅｉｎ株式会社,,株式会社,東京都,渋谷区,道玄坂１丁目１０番８号渋谷道玄坂東急ビル２Ｆ－Ｃ,,13,113,1500043,,,,,,,2024-08-15,1,,,,,デイン,0
584,3011001164128,新規,0,2024-08-15,2024-08-15,株式会社ＮｅｕＶｏｒｈａｎｇ,,株式会社,東京都,渋谷区,道玄坂１丁目１０番８号渋谷道玄坂東急ビル２Ｆ－Ｃ,,13,113,1500043,,,,,,,2024-08-15,1,,,,,ノイヴォアハン,0
585,3011003019833,新規,0,2024-08-15,2024-08-15,Ｓ＆Ｆオリエンタルヘルスケア合同会社,,合同会社,東京都,渋谷区,桜丘町３１番８－３０２号,,13,113,1500031,,,,,,,2024-08-15,1,,,,,エスアンドエフオリエンタルヘルスケア,0
587,3011101108356,新規,0,2024-08-15,2024-08-15,株式会社ＫＲＭ,,株式会社,東京都,新宿区,西新宿６丁目２０番７－２４０７号,,13,104,1600023,,,,,,,2024-08-15,1,,,,,ケーアールエム,0
588,3011101108406,新規,0,2024-08-15,2024-08-15,株式会社Ｋ・アガサ,,株式会社,東京都,新宿区,西新宿３丁目３番１３号西新宿水間ビル２Ｆ,,13,104,1600023,,,,,,,2024-08-15,1,,,,,ケーアガサ,0
590,3011105011127,新規,0,2024-08-15,2024-08-15,川崎ホールディングス一般社団法人,,その他の設立登記法人,東京都,新宿区,四谷２丁目９番地１５東京ユナイテッド綜合事務所内,,13,104,1600004,,,,,,,2024-08-15,1,,,,,カワサキホールディングス,0
591,3011301029914,新規,0,2024-08-15,2024-08-15,株式会社比較,,株式会社,東京都,杉並区,荻窪５丁目１５番６号,,13,115,1670051,,,,,,,2024-08-15,1,,,,,ヒカク,0
592,3011301029930,新規,0,2024-08-15,2024-08-15,Ｏｘｙｅｘｐ　Ｈｅａｌｔｈ株式会社,,株式会社,東京都,杉並区,松庵３丁目１８－１１,,13,115,1670054,,,,,,,2024-08-15,1,,,,,オクサイクスプヘルス,0
594,3011303005260,新規,0,2024-08-15,2024-08-15,養正軒合同会社,,合同会社,東京都,杉並区,西荻南３丁目１２番１号Ａ８－２Ｆ,,13,115,1670053,,,,,,,2024-08-15,1,,,,,ヨウショウケン,0
597,3011401026349,新規,0,2024-08-15,2024-08-15,株式会社ストア東京,,株式会社,東京都,板橋区,成増１丁目２３番２号,,13,119,1750094,,,,,,,2024-08-15,1,,,,,ストアトウキョウ,0
598,3011501031034,新規,0,2024-08-15,2024-08-15,株式会社うえじまソリューションズ,,株式会社,東京都,北区,東田端１丁目１３番１０号,,13,117,1140013,,,,,,,2024-08-15,1,,,,,ウエジマソリューションズ,0
603,3013301052937,新規,0,2024-08-15,2024-08-15,株式会社ティーエスエム,,株式会社,東京都,豊島区,東池袋１丁目１７－１１,,13,116,1700013,,,,,,,2024-08-15,1,,,,,ティーエスエム,0
605,3013303007261,新規,0,2024-08-15,2024-08-15,合同会社Ｍａｂａｒａ,,合同会社,東京都,豊島区,東池袋１丁目３４番５号いちご東池袋ビル６階,,13,116,1700013,,,,,,,2024-08-15,1,,,,,マバラ,0
610,3020001158584,新規,0,2024-08-15,2024-08-15,株式会社美嬌,,株式会社,神奈川県,横浜市都筑区,中川中央１丁目３７番２３号３０２号室,,14,118,2240003,,,,,,,2024-08-15,1,,,,,ビキョウ,0
611,3020001158709,新規,0,2024-08-15,2024-08-15,株式会社博雅商事,,株式会社,神奈川県,横浜市中区,山下町９９番地山下公園サンライトマンション１号棟４１０号,,14,104,2310023,,,,,,,2024-08-15,1,,,,,ハクガショウジ,0
617,3020003026748,新規,0,2024-08-15,2024-08-15,合同会社ＳＥＥＨＯＯＴ,,合同会社,神奈川県,横浜市中区,吉田町５３－３Ａ,,14,104,2310041,,,,,,,2024-08-15,1,,,,,シーホー,0
619,3021001082980,新規,0,2024-08-15,2024-08-15,株式会社エーネクスト,,株式会社,神奈川県,横須賀市,内川１丁目２番２１号,,14,201,2390836,,,,,,,2024-08-15,1,,,,,エーネクスト,0
624,3030001161744,新規,0,2024-08-15,2024-08-15,Ｐｕａｌ株式会社,,株式会社,埼玉県,草加市,松原３丁目８番１－３１３号,,11,221,3400041,,,,,,,2024-08-15,1,,,,,ポール,0
625,3030001161918,新規,0,2024-08-15,2024-08-15,株式会社ハルク,,株式会社,埼玉県,秩父郡小鹿野町,小鹿野１６６７番地４,,11,365,3680105,,,,,,,2024-08-15,1,,,,,ハルク,0
626,3030001161942,新規,0,2024-08-15,2024-08-15,株式会社ＰＩ,,株式会社,埼玉県,春日部市,大場８３８番地５,,11,214,3440021,,,,,,,2024-08-15,1,,,,,パイ,0
627,3030001161975,新規,0,2024-08-15,2024-08-15,株式会社樋口,,株式会社,埼玉県,志木市,幸町３丁目９番３５号,,11,228,3530005,,,,,,,2024-08-15,1,,,,,ヒグチ,0
634,3030003024916,新規,0,2024-08-15,2024-08-15,ＲＩＴＡ合同会社,,合同会社,埼玉県,草加市,金明町４１７番地５－１０４,,11,221,3400052,,,,,,,2024-08-15,1,,,,,リタ,0
638,3040001134955,新規,0,2024-08-15,2024-08-15,株式会社ＲＲＫ,,株式会社,千葉県,匝瑳市,椿１９９０番地,,12,235,2892102,,,,,,,2024-08-15,1,,,,,アールアールケー,0
639,3040001135004,新規,0,2024-08-15,2024-08-15,伊能商事株式会社,,株式会社,千葉県,柏市,増尾９１０番地,,12,217,2770033,,,,,,,2024-08-15,1,,,,,イノウショウジ,0
648,3070003005532,新規,0,2024-08-15,2024-08-15,ＡＮＣＨＯＲ　ＣＡＲＥ合同会社,,合同会社,群馬県,高崎市,下豊岡町１７７番地５,,10,202,3700873,,,,,,,2024-08-15,1,,,,,アンカーケア,0
650,3080103003121,新規,0,2024-08-15,2024-08-15,合同会社此処野,,合同会社,静岡県,富士市,高嶺町５－１６,,22,210,4170044,,,,,,,2024-08-15,1,,,,,ココヤ,0
657,3110001038645,新規,0,2024-08-15,2024-08-15,株式会社サンヘル,,株式会社,新潟県,長岡市,亀貝町４４８番地８,,15,202,9400884,,,,,,,2024-08-15,1,,,,,サンヘル,0
659,3110003005486,新規,0,2024-08-15,2024-08-15,合同会社チカラボ,,合同会社,新潟県,妙高市,大字赤倉４２６番地３４,,15,217,9492111,,,,,,,2024-08-15,1,,,,,チカラボ,0
665,3120001267763,新規,0,2024-08-15,2024-08-15,株式会社大神コンストラクショングループ,,株式会社,大阪府,枚方市,岡東町２６番３号,,27,210,5730032,,,,,,,2024-08-15,1,,,,,ダイシンコンストラクショングループ,0
666,3120001267771,新規,0,2024-08-15,2024-08-15,静展株式会社,,株式会社,大阪府,大阪市生野区,桃谷３丁目２０番２５号桃谷ハイツ１０６号室,,27,116,5440034,,,,,,,2024-08-15,1,,,,,セイテン,0
667,3120001267805,新規,0,2024-08-15,2024-08-15,株式会社１９時のＧｏｈｏｕｂｉ,,株式会社,大阪府,大阪市平野区,瓜破５丁目４番３０号,,27,126,5470024,,,,,,,2024-08-15,1,,,,,イクジノゴホウビ,0
670,3120003027232,新規,0,2024-08-15,2024-08-15,合同会社道求,,合同会社,大阪府,大阪市中央区,北浜１丁目１番２７号,,27,128,5410041,,,,,,,2024-08-15,1,,,,,ドウキュウ,0
674,3120101070076,新規,0,2024-08-15,2024-08-15,株式会社Ａｉｏｏｎ,,株式会社,大阪府,羽曳野市,向野３丁目１５－５１－１,,27,222,5830883,,,,,,,2024-08-15,1,,,,,アイオーン,0
675,3120101070167,新規,0,2024-08-15,2024-08-15,ＮＤＹ株式会社,,株式会社,大阪府,松原市,天美北６丁目４４５番地の２０,,27,217,5800031,,,,,,,2024-08-15,1,,,,,エヌディーワイ,0
676,3120103006004,新規,0,2024-08-15,2024-08-15,合同会社ＯＴＯＮＯＭＯＲＩクリエイティブラボ,,合同会社,大阪府,泉南郡熊取町,大久保南１丁目１６１３番地の１２（２０５）,,27,361,5900405,,,,,,,2024-08-15,1,,,,,オトノモリクリエイティブラボ,0
678,3122001038368,新規,0,2024-08-15,2024-08-15,株式会社ライズコーポレーション,,株式会社,大阪府,東大阪市,弥生町２－５３－３０８,,27,227,5798026,,,,,,,2024-08-15,1,,,,,ライズコーポレーション,0
680,3130003009790,新規,0,2024-08-15,2024-08-15,合同会社トゥエージェンシー,,合同会社,京都府,京都市伏見区,深草一ノ坪町１３－２０,,26,109,6120012,,,,,,,2024-08-15,1,,,,,トゥエージェンシー,0
685,3140001135522,新規,0,2024-08-15,2024-08-15,株式会社トータルサポート,,株式会社,兵庫県,姫路市,花田町勅旨１３５番地４８,,28,201,6710254,,,,,,,2024-08-15,1,,,,,トータルサポート,0
686,3140001135530,新規,0,2024-08-15,2024-08-15,株式会社ベアエイトホールディングス,,株式会社,兵庫県,姫路市,白浜町神田２丁目６９番地１,,28,201,6728011,,,,,,,2024-08-15,1,,,,,ベアエイトホールディングス,0
688,3140003020953,新規,0,2024-08-15,2024-08-15,合同会社アネスト,,合同会社,兵庫県,神戸市兵庫区,駅南通１丁目２－１４,,28,105,6520897,,,,,,,2024-08-15,1,,,,,アネスト,0
691,3180001162810,新規,0,2024-08-15,2024-08-15,ＥＩＬＩＳＨ　ＩＮＴＥＲＮＡＴＩＯＮＡＬ株式会社,,株式会社,愛知県,一宮市,大和町妙興寺字高畑３６番地コーポ大和２０６号,,23,203,4910922,,,,,,,2024-08-15,1,,,,,アイリッシュインターナショナル,0
692,3180001162835,新規,0,2024-08-15,2024-08-15,Ｆ‐ＡＣＴ株式会社,,株式会社,愛知県,豊明市,沓掛町田楽ケ窪１番地９８,,23,229,4701101,,,,,,,2024-08-15,1,,,,,エフアクト,0
693,3180001162868,新規,0,2024-08-15,2024-08-15,株式会社アルバテック,,株式会社,愛知県,清須市,春日白弓８２番地ラッフル春日１０２号室,,23,233,4520962,,,,,,,2024-08-15,1,,,,,アルバテック,0
694,3180001162918,新規,0,2024-08-15,2024-08-15,株式会社心晴,,株式会社,愛知県,清須市,西堀江１４２３番地１,,23,233,4520917,,,,,,,2024-08-15,1,,,,,コハル,0
695,3180001162926,新規,0,2024-08-15,2024-08-15,Ｓｈｉｍａ株式会社,,株式会社,愛知県,名古屋市守山区,本地が丘１７０１番地（本地荘３２棟２０２号）,,23,113,4630031,,,,,,,2024-08-15,1,,,,,シマ,0
698,3180003027210,新規,0,2024-08-15,2024-08-15,合同会社スリーライブズ,,合同会社,愛知県,名古屋市西区,名駅１丁目１番１７号名駅ダイヤメイテツビル１１階,,23,104,4510045,,,,,,,2024-08-15,1,,,,,スリーライブズ,0
703,3180301038958,新規,0,2024-08-15,2024-08-15,株式会社Ｔｅｎｓｉｌ,,株式会社,愛知県,豊田市,小坂本町１丁目５番地５ＹＡＭＡＴＯＢＬＤＧ２階,,23,211,4710034,,,,,,,2024-08-15,1,,,,,テンシル,0
712,3200003006467,新規,0,2024-08-15,2024-08-15,合同会社ＩＭＰＲＯＶＥ,,合同会社,岐阜県,関市,上大野３１８番地２,,21,205,5013204,,,,,,,2024-08-15,1,,,,,インプローブ,0
715,3220003003818,新規,0,2024-08-15,2024-08-15,ＯＡ合同会社,,合同会社,石川県,金沢市,藤江北２丁目３１０番地ドゥ・モンターニュ花６０６,,17,201,9200345,,,,,,,2024-08-15,1,,,,,オーエー,0
722,3240003006802,新規,0,2024-08-15,2024-08-15,合同会社ｔｏｔａｌ　ｃａｍｐａｎｙ,,合同会社,広島県,三原市,幸崎能地４丁目２６番２１号,,34,204,7292252,,,,,,,2024-08-15,1,,,,,トータルカンパニー,0
723,3240003006810,新規,0,2024-08-15,2024-08-15,合同会社みよシステム,,合同会社,広島県,福山市,西町１丁目１番１号ｉｔｉＳＥＴＯＵＣＨＩ１階オフィス１３,,34,207,7200067,,,,,,,2024-08-15,1,,,,,ミヨシステム,0
725,3250005008936,新規,0,2024-08-15,2024-08-15,医療法人山口口腔研クリニック,,その他の設立登記法人,山口県,山口市,葵２丁目９－３１,,35,203,7530821,,,,,,,2024-08-15,1,,,,,ヤマグチコウクウケンクリニック,0
726,3260001039364,新規,0,2024-08-15,2024-08-15,株式会社ＣＡＲＭＯＲ,,株式会社,岡山県,苫田郡鏡野町,古川８００番地１２,,33,606,7080333,,,,,,,2024-08-15,1,,,,,カーマー,0
730,3260005011393,新規,0,2024-08-15,2024-08-15,一般社団法人医療・介護の未来を考える会,,その他の設立登記法人,岡山県,倉敷市,徳芳１３１９‐２０,,33,202,7100011,,,,,,,2024-08-15,1,,,,,イリョウカイゴノミライヲカンガエルカイ,0
734,3290001106681,新規,0,2024-08-15,2024-08-15,株式会社フルフィル,,株式会社,福岡県,福岡市中央区,天神４丁目６－２８天神ファーストビル７階,,40,133,8100001,,,,,,,2024-08-15,1,,,,,フルフィル,0
741,3290801030809,新規,0,2024-08-15,2024-08-15,株式会社ＢＦＨ,,株式会社,福岡県,北九州市小倉北区,高尾１丁目１８－２０,,40,106,8030853,,,,,,,2024-08-15,1,,,,,ビーエフエイチ,0
743,3300001013876,新規,0,2024-08-15,2024-08-15,株式会社福松商店,,株式会社,佐賀県,佐賀市,川副町大字早津江津５３番地１,,41,201,8402202,,,,,,,2024-08-15,1,,,,,フクマツショウテン,0
744,3310005008789,新規,0,2024-08-15,2024-08-15,一般社団法人九州リファラル協会,,その他の設立登記法人,長崎県,長崎市,女の都４丁目２番２号,,42,201,8528144,,,,,,,2024-08-15,1,,,,,キュウシュウリファラルキョウカイ,0
747,3320001020672,新規,0,2024-08-15,2024-08-15,株式会社大分医療サービス,,株式会社,大分県,大分市,古ケ鶴１丁目５番８号,,44,201,8700935,,,,,,,2024-08-15,1,,,,,オオイタイリョウサービス,0
750,3330001032353,新規,0,2024-08-15,2024-08-15,株式会社メディカルトラスト,,株式会社,熊本県,熊本市中央区,坪井１丁目５番１２号,,43,101,8600863,,,,,,,2024-08-15,1,,,,,メディカルトラスト,0
751,3330001032378,新規,0,2024-08-15,2024-08-15,株式会社ヘルムケア,,株式会社,熊本県,熊本市東区,渡鹿８丁目８番２６号ナツグランジュ３０５号,,43,102,8620970,,,,,,,2024-08-15,1,,,,,ヘルムケア,0
757,3340001026734,新規,0,2024-08-15,2024-08-15,株式会社安田林業,,株式会社,鹿児島県,霧島市,国分名波町２番４号,,46,218,8994311,,,,,,,2024-08-15,1,,,,,ヤスダリンギョウ,0
759,3340003004572,新規,0,2024-08-15,2024-08-15,合同会社Ｌｕｃｅ　ｈｏｍｅ,,合同会社,鹿児島県,鹿児島市,西陵７丁目１番１号,,46,201,8900032,,,,,,,2024-08-15,1,,,,,ルーチェホーム,0
761,3350001019142,新規,0,2024-08-15,2024-08-15,株式会社阿萬農場,,株式会社,宮崎県,日南市,西弁分３丁目２番地９,,45,204,8870024,,,,,,,2024-08-15,1,,,,,アマンノウジョウ,0
766,3360003014215,新規,0,2024-08-15,2024-08-15,合同会社ｆｕｌｅｒｕｏｋｉｎａｗａ,,合同会社,沖縄県,中頭郡読谷村,字宇座１８６１,,47,324,9040328,,,,,,,2024-08-15,1,,,,,フレルオキナワ,0
780,3400001016753,新規,0,2024-08-15,2024-08-15,株式会社二ｔｏ,,株式会社,岩手県,二戸市,堀野字下タ川原２５番地６,,03,213,0286105,,,,,,,2024-08-15,1,,,,,ニト,0
781,3400003003312,新規,0,2024-08-15,2024-08-15,Ｖｏｌｌｍｏｎｄ合同会社,,合同会社,岩手県,盛岡市,仙北２丁目１０番６号,,03,201,0200861,,,,,,,2024-08-15,1,,,,,フォルモント,0
782,3410001013915,新規,0,2024-08-15,2024-08-15,株式会社ヨネヤ,,株式会社,秋田県,横手市,鍛冶町４番２号かぢまちＹＭオフィス,,05,203,0130031,,,,,,,2024-08-15,1,,,,,ヨネヤ,0
784,3420003002980,新規,0,2024-08-15,2024-08-15,合同会社カルディ,,合同会社,青森県,南津軽郡田舎館村,大字堂野前字種井８９－１,,02,367,0381102,,,,,,,2024-08-15,1,,,,,カルディ,0
786,3430001092486,新規,0,2024-08-15,2024-08-15,株式会社ｓｏｌｐｒｏ,,株式会社,北海道,札幌市中央区,南五条西２５丁目１番７号,,01,101,0640805,,,,,,,2024-08-15,1,,,,,ソルプロ,0
792,3490001010847,新規,0,2024-08-15,2024-08-15,株式会社ＫＩＲｅｃｕｂ,,株式会社,高知県,高岡郡檮原町,田野々１６００番地,,39,405,7850607,,,,,,,2024-08-15,1,,,,,キリカブ,0
793,3500001025819,新規,0,2024-08-15,2024-08-15,株式会社沖宮建具店,,株式会社,愛媛県,松山市,東石井１丁目７番１０号,,38,201,7900932,,,,,,,2024-08-15,1,,,,,オキミヤタテグテン,0
794,3500001025827,新規,0,2024-08-15,2024-08-15,株式会社神野組,,株式会社,愛媛県,新居浜市,泉宮町９番１２４号アーバンコート２０３号,,38,205,7920021,,,,,,,2024-08-15,1,,,,,ジンノグミ,0
802,4010001247098,新規,0,2024-08-15,2024-08-15,Ｃｒａｓｐｅｄｉａ株式会社,,株式会社,東京都,千代田区,神田須田町１丁目１４番地６神田荒木ビル５階,,13,101,1010041,,,,,,,2024-08-15,1,,,,,クラスペディア,0
803,4010001247395,新規,0,2024-08-15,2024-08-15,株式会社ＩＮＳＰＬＩＣＴ,,株式会社,東京都,中央区,新富２丁目１４番１１号,,13,102,1040041,,,,,,,2024-08-15,1,,,,,インスプリクト,0
804,4010001247404,新規,0,2024-08-15,2024-08-15,ＡＹＡＫＡ株式会社,,株式会社,東京都,文京区,大塚２丁目１番１６－５０４号,,13,105,1120012,,,,,,,2024-08-15,1,,,,,アヤカ,0
805,4010001247420,新規,0,2024-08-15,2024-08-15,株式会社ＥａｓｅＣａｒｅｅｒ,,株式会社,東京都,中央区,銀座３丁目１４番１３号,,13,102,1040061,,,,,,,2024-08-15,1,,,,,イーズキャリア,0
806,4010001247453,新規,0,2024-08-15,2024-08-15,ＳｏｐｈｉＡｒｔ株式会社,,株式会社,東京都,中央区,銀座１丁目２２番１１号銀座大竹ビジデンス２Ｆ,,13,102,1040061,,,,,,,2024-08-15,1,,,,,ソフィアート,0
807,4010001247478,新規,0,2024-08-15,2024-08-15,株式会社ＲｅＢ,,株式会社,東京都,中央区,銀座７丁目１５番５号共同ビル銀座七丁目２階,,13,102,1040061,,,,,,,2024-08-15,1,,,,,リビー,0
808,4010001247494,新規,0,2024-08-15,2024-08-15,ＺＥＮＶＩＴＡ株式会社,,株式会社,東京都,中央区,銀座１丁目２２番１１号銀座大竹ビジデンス２階,,13,102,1040061,,,,,,,2024-08-15,1,,,,,ゼンヴィタ,0
813,4010003044527,新規,0,2024-08-15,2024-08-15,合同会社珊瑚樹,,合同会社,東京都,千代田区,神田和泉町１番地６－１６ヤマトビル４０５,,13,101,1010024,,,,,,,2024-08-15,1,,,,,サンゴジュ,0
814,4010005038683,新規,0,2024-08-15,2024-08-15,ＧＬＰ小牧舟津２ロジスティック特定目的会社,,その他の設立登記法人,東京都,中央区,八重洲２丁目２番１号,,13,102,1040028,,,,,,,2024-08-15,1,,,,,ジーエルピーコマキフナツツーロジスティック,0
817,4010401184172,新規,0,2024-08-15,2024-08-15,株式会社ＩＭＰＲＯＶＥ,,株式会社,東京都,港区,赤坂３丁目９－１２メトロビル２階Ｊ,,13,103,1070052,,,,,,,2024-08-15,1,,,,,インプルーブ,0
818,4010401184445,新規,0,2024-08-15,2024-08-15,株式会社Ｓ．ＣＬＡＲＡ,,株式会社,東京都,港区,赤坂２丁目１７番５５号開盛ビル,,13,103,1070052,,,,,,,2024-08-15,1,,,,,エスクララ,0
824,4010601065718,新規,0,2024-08-15,2024-08-15,株式会社ＪＯＭＵ,,株式会社,東京都,墨田区,太平４丁目１番１－５１０号,,13,107,1300012,,,,,,,2024-08-15,1,,,,,ジョーム,0
825,4010605004366,新規,0,2024-08-15,2024-08-15,特定非営利活動法人ゆもりな,,その他の設立登記法人,東京都,江東区,亀戸２丁目６番３０－６１４号,,13,108,1360071,,,,,,,2024-08-15,1,,,,,ユモリナ,0
827,4010701046403,新規,0,2024-08-15,2024-08-15,株式会社Ｖａｔｈｂｏｗ,,株式会社,東京都,品川区,東品川４丁目１１番３６－１９１２号,,13,109,1400002,,,,,,,2024-08-15,1,,,,,ヴァスボ,0
828,4010703007304,新規,0,2024-08-15,2024-08-15,合同会社ｅａｒｎｅｓｔ,,合同会社,東京都,品川区,大井１丁目１６番１－１２０３号,,13,109,1400014,,,,,,,2024-08-15,1,,,,,アーネスト,0
833,4010901055798,新規,0,2024-08-15,2024-08-15,Ｔｈｅ　Ｓｅｑｕｅｎｔｉａｌ株式会社,,株式会社,東京都,世田谷区,上馬１丁目１９番１３号,,13,112,1540011,,,,,,,2024-08-15,1,,,,,ザシークエンシャル,0
838,4011001164036,新規,0,2024-08-15,2024-08-15,株式会社ＹＴＦＯＯＤＳ,,株式会社,東京都,渋谷区,代々木３丁目２９番４号,,13,113,1510053,,,,,,,2024-08-15,1,,,,,ワイティーフーズ,0
843,4011101108405,新規,0,2024-08-15,2024-08-15,株式会社ＢＩＲＴＨ,,株式会社,東京都,新宿区,西新宿１丁目２２番２号サンエービル９Ｆ,,13,104,1600023,,,,,,,2024-08-15,1,,,,,バース,0
849,4012401042194,新規,0,2024-08-15,2024-08-15,ＧＲＡＮＯＵＳ株式会社,,株式会社,東京都,武蔵野市,吉祥寺南町２丁目１０番６号ジョージパーク布袋堂４０８,,13,203,1800003,,,,,,,2024-08-15,1,,,,,グラノス,0
850,4012405005032,新規,0,2024-08-15,2024-08-15,特定非営利活動法人せぴうるにゃん,,その他の設立登記法人,東京都,府中市,武蔵台１丁目９番地の６５,,13,206,1830042,,,,,,,2024-08-15,1,,,,,セピウルニャン,0
860,4020003026672,新規,0,2024-08-15,2024-08-15,コントレール合同会社,,合同会社,神奈川県,横浜市南区,六ツ川２丁目１３６番地６,,14,105,2320066,,,,,,,2024-08-15,1,,,,,コントレール,0
868,4021003014881,新規,0,2024-08-15,2024-08-15,合同会社ＭＬＳｌａｂｏ,,合同会社,神奈川県,相模原市南区,相模大野４丁目５－５ロビーファイブＤ棟２０２区画,,14,153,2520303,,,,,,,2024-08-15,1,,,,,エムエルエスラボ,0
871,4030001161768,新規,0,2024-08-15,2024-08-15,株式会社わくらし,,株式会社,埼玉県,さいたま市北区,土呂町２丁目６番地８,,11,102,3310804,,,,,,,2024-08-15,1,,,,,ワクラシ,0
872,4030001161941,新規,0,2024-08-15,2024-08-15,ＳＨＩＮＷＡ株式会社,,株式会社,埼玉県,さいたま市緑区,大字大門１４２２番地１７,,11,109,3360963,,,,,,,2024-08-15,1,,,,,シンワ,0
877,4030003024956,新規,0,2024-08-15,2024-08-15,ＦＫＣ合同会社,,合同会社,埼玉県,川口市,前川４丁目６－１１,,11,203,3330842,,,,,,,2024-08-15,1,,,,,エフケーシー,0
878,4040001134913,新規,0,2024-08-15,2024-08-15,株式会社アイリスホーム,,株式会社,千葉県,松戸市,仲井町３丁目７３番地の３,,12,207,2702242,,,,,,,2024-08-15,1,,,,,アイリスホーム,0
879,4040001134962,新規,0,2024-08-15,2024-08-15,株式会社サンギーラ,,株式会社,千葉県,千葉市中央区,白旗２丁目２０－６コーポ秋葉２０２号室,,12,101,2600841,,,,,,,2024-08-15,1,,,,,サンギーラ,0
880,4040001134979,新規,0,2024-08-15,2024-08-15,新和商事株式会社,,株式会社,千葉県,市川市,東菅野２丁目１８番１３号,,12,203,2720823,,,,,,,2024-08-15,1,,,,,シンワショウジ,0
881,4040001134987,新規,0,2024-08-15,2024-08-15,株式会社Ｌｉｌｙ,,株式会社,千葉県,船橋市,宮本７丁目２３番４号,,12,204,2730003,,,,,,,2024-08-15,1,,,,,リリー,0
882,4040001134995,新規,0,2024-08-15,2024-08-15,株式会社Ｗｉｎｆｏｒａｌｌ,,株式会社,千葉県,柏市,南逆井３丁目２２番５２号,,12,217,2770043,,,,,,,2024-08-15,1,,,,,ウィンフォーオール,0
883,4040001135003,新規,0,2024-08-15,2024-08-15,ケーロジ・ジャパン株式会社,,株式会社,千葉県,四街道市,大日８６８番地４７,,12,228,2840001,,,,,,,2024-08-15,1,,,,,ケーロジジャパン,0
887,4040003025607,新規,0,2024-08-15,2024-08-15,合同会社森川實業,,合同会社,千葉県,市原市,北国分寺台５丁目８－１６,,12,219,2900071,,,,,,,2024-08-15,1,,,,,モリカワジツギョウ,0
889,4050001055258,新規,0,2024-08-15,2024-08-15,株式会社アクトナ,,株式会社,茨城県,つくば市,下横場２８１番地１９号,,08,220,3050075,,,,,,,2024-08-15,1,,,,,アクトナ,0
897,4060003005193,新規,0,2024-08-15,2024-08-15,合同会社日光苔マルシェ,,合同会社,栃木県,日光市,高徳５１０―１,,09,206,3212523,,,,,,,2024-08-15,1,,,,,ニッコウコケマルシェ,0
898,4080003003278,新規,0,2024-08-15,2024-08-15,Ａｗａｋｅｎｉｎｇ合同会社,,合同会社,静岡県,焼津市,石脇下１４番地,,22,212,4250016,,,,,,,2024-08-15,1,,,,,アウェイクニング,0
906,4100001037762,新規,0,2024-08-15,2024-08-15,株式会社ＣＷＦ　ＣＩＮＥＭＡＳ,,株式会社,長野県,佐久市,中込１丁目２０番地１,,20,217,3850051,,,,,,,2024-08-15,1,,,,,シーダブリューエフシネマズ,0
909,4110001038636,新規,0,2024-08-15,2024-08-15,株式会社Ｏｎｅ　ｆｏｒ　Ａｌｌ,,株式会社,新潟県,長岡市,梅田６２８番地,,15,202,9494517,,,,,,,2024-08-15,1,,,,,ワンフォアオール,0
910,4110001038644,新規,0,2024-08-15,2024-08-15,株式会社Ｎｅｏ,,株式会社,新潟県,南魚沼市,塩沢６０番地,,15,226,9496408,,,,,,,2024-08-15,1,,,,,ネオ,0
913,4110003005477,新規,0,2024-08-15,2024-08-15,合同会社コネクト,,合同会社,新潟県,新発田市,御幸町３丁目６番５号,,15,206,9570057,,,,,,,2024-08-15,1,,,,,コネクト,0
914,4110003005485,新規,0,2024-08-15,2024-08-15,合同会社ＭＡＮＡ,,合同会社,新潟県,新潟市西区,小針２丁目３９番２２号,,15,107,9502022,,,,,,,2024-08-15,1,,,,,マナ,0
919,4120001267589,新規,0,2024-08-15,2024-08-15,株式会社ＳＡＩＺＥＮ,,株式会社,大阪府,大阪市港区,市岡元町３丁目１３番５号ウエストエリアビル２階,,27,107,5520002,,,,,,,2024-08-15,1,,,,,サイゼン,0
920,4120001267754,新規,0,2024-08-15,2024-08-15,株式会社Ｋ．Ｈ　Ｃｏｒｐｏｒａｔｉｏｎ,,株式会社,大阪府,大阪市浪速区,難波中３丁目９番３号ＲＥ－０２０－３０５号,,27,111,5560011,,,,,,,2024-08-15,1,,,,,ケーエイチコーポレーション,0
921,4120001267795,新規,0,2024-08-15,2024-08-15,元和株式会社,,株式会社,大阪府,大阪市住吉区,殿辻１丁目２－２６シーズコート１０５号,,27,120,5580042,,,,,,,2024-08-15,1,,,,,ゲンワ,0
922,4120001267804,新規,0,2024-08-15,2024-08-15,ヘクトテック株式会社,,株式会社,大阪府,寝屋川市,東神田町３６番１２－４０５号,,27,215,5720045,,,,,,,2024-08-15,1,,,,,ヘクトテック,0
925,4120003027297,新規,0,2024-08-15,2024-08-15,合同会社Ｋ‐Ｌａｂｏ,,合同会社,大阪府,大阪市生野区,生野西２丁目１番３３号近畿駅前ビル３０１号室,,27,116,5440024,,,,,,,2024-08-15,1,,,,,ケーラボ,0
926,4120003027306,新規,0,2024-08-15,2024-08-15,合同会社ＳＡＴＵＲＮ,,合同会社,大阪府,大阪市東成区,東小橋２丁目１１番１８号マルニマンション２０３号,,27,115,5370024,,,,,,,2024-08-15,1,,,,,サターン,0
934,4120903005303,新規,0,2024-08-15,2024-08-15,合同会社イリオス,,合同会社,大阪府,吹田市,豊津町１番１８号エクラート江坂ビル４階４１２,,27,205,5640051,,,,,,,2024-08-15,1,,,,,イリオス,0
935,4122003002965,新規,0,2024-08-15,2024-08-15,合同会社ＨＭＳＴ,,合同会社,大阪府,東大阪市,上六万寺町８番１８号,,27,227,5798062,,,,,,,2024-08-15,1,,,,,エイチエムエスティ,0
942,4140003020952,新規,0,2024-08-15,2024-08-15,合同会社ワムプロダクション,,合同会社,兵庫県,川西市,小戸２丁目１９番１０号,,28,217,6660014,,,,,,,2024-08-15,1,,,,,ワムプロダクション,0
943,4140005027186,新規,0,2024-08-15,2024-08-15,一般社団法人防災ＪＡＭ,,その他の設立登記法人,兵庫県,西宮市,能登町５番４号,,28,204,6620838,,,,,,,2024-08-15,1,,,,,ボウサイジャム,0
944,4150003003337,新規,0,2024-08-15,2024-08-15,合同会社こはく,,合同会社,奈良県,北葛城郡王寺町,南元町１丁目３番８号,,29,425,6360015,,,,,,,2024-08-15,1,,,,,コハク,0
946,4160001026165,新規,0,2024-08-15,2024-08-15,株式会社ＳＡＳａＫＯ,,株式会社,滋賀県,草津市,若草１丁目１０番地２,,25,206,5250045,,,,,,,2024-08-15,1,,,,,,0
952,4180001162900,新規,0,2024-08-15,2024-08-15,株式会社ダイシン,,株式会社,愛知県,名古屋市熱田区,田中町４０９番地の１ＡＸＩＳ１階,,23,109,4560047,,,,,,,2024-08-15,1,,,,,ダイシン,0
954,4180003027226,新規,0,2024-08-15,2024-08-15,合同会社ＮＥＥＤＣＡＲＥＰＲＯＤＵＣＥ,,合同会社,愛知県,春日井市,上条町２丁目１４３番地１プリンスハイツ春日井南２０３号,,23,206,4860833,,,,,,,2024-08-15,1,,,,,ニードケアプロデュース,0
957,4180301038965,新規,0,2024-08-15,2024-08-15,株式会社のもと,,株式会社,愛知県,豊田市,陣中町２丁目１３番地８,,23,211,4710079,,,,,,,2024-08-15,1,,,,,ノモト,0
958,4180301038973,新規,0,2024-08-15,2024-08-15,豊和株式会社,,株式会社,愛知県,豊田市,逢妻町４丁目９３番地１,,23,211,4710052,,,,,,,2024-08-15,1,,,,,ホウワ,0
966,4240001063720,新規,0,2024-08-15,2024-08-15,シモハナネットワークサービス株式会社,,株式会社,広島県,安芸郡坂町,横浜中央１丁目６番３０号,,34,309,7314323,,,,,,,2024-08-15,1,,,,,シモハナネットワークサービス,0
970,4250001020778,新規,0,2024-08-15,2024-08-15,株式会社コウシン,,株式会社,山口県,下関市,新垢田東町１丁目５番３１号アラモードパレス１０１号,,35,201,7510843,,,,,,,2024-08-15,1,,,,,コウシン,0
977,4290001106680,新規,0,2024-08-15,2024-08-15,株式会社福樹路,,株式会社,福岡県,福岡市西区,拾六町５丁目１４－５,,40,135,8190041,,,,,,,2024-08-15,1,,,,,フクジュロ,0
985,4320005010181,新規,0,2024-08-15,2024-08-15,一般社団法人九州スマホ御城印協会,,その他の設立登記法人,大分県,大分市,王子中町４番１５－４０１号グランドパレス王子中町,,44,201,8700006,,,,,,,2024-08-15,1,,,,,キュウシュウスマホゴジョウインキョウカイ,0
991,4340001026741,新規,0,2024-08-15,2024-08-15,株式会社木村,,株式会社,鹿児島県,南九州市,頴娃町郡１１３３９番地１北側倉庫,,46,223,8910701,,,,,,,2024-08-15,1,,,,,キムラ,0
993,4340003004571,新規,0,2024-08-15,2024-08-15,合同会社アステルホープ,,合同会社,鹿児島県,鹿児島市,谷山中央６丁目４７番１７号,,46,201,8910141,,,,,,,2024-08-15,1,,,,,アステルホープ,0
996,4360001034065,新規,0,2024-08-15,2024-08-15,株式会社ＮＤＹ,,株式会社,沖縄県,中頭郡読谷村,字都屋３４３番地（２Ｆ）,,47,324,9040305,,,,,,,2024-08-15,1,,,,,エヌディーワイ,0
998,4360003014214,新規,0,2024-08-15,2024-08-15,合同会社ＧｅｎＣｒｅｗ,,合同会社,沖縄県,那覇市,首里山川町１丁目４３番地５山川ビル３０１,,47,201,9030825,,,,,,,2024-08-15,1,,,,,ゲンクルー,0
1007,4400001016760,新規,0,2024-08-15,2024-08-15,株式会社ビーンスプラウト,,株式会社,岩手県,盛岡市,津志田町１丁目１６番１１号,,03,201,0200837,,,,,,,2024-08-15,1,,,,,ビーンスプラウト,0
1009,4400003003311,新規,0,2024-08-15,2024-08-15,リヴァーアゲイン合同会社,,合同会社,岩手県,盛岡市,南大通２丁目１０番３０号,,03,201,0200874,,,,,,,2024-08-15,1,,,,,リヴァーアゲイン,0
1017,4470005006578,新規,0,2024-08-15,2024-08-15,一般社団法人こどもかんぱにー,,その他の設立登記法人,香川県,高松市,牟礼町牟礼２０８３番地１　２Ｆ,,37,201,7610121,,,,,,,2024-08-15,1,,,,,コドモカンパニー,0
1023,4700150077004,新規,0,2024-08-15,2016-11-09,フォトニクスポリマーイノベーション国際会議,,その他,神奈川県,川崎市幸区,新川崎７丁目１慶応義塾大学新川崎タウンキャンパスＥ－１０１　ＫＰＲＩ内,,14,132,2120032,,,,,,,2016-11-09,1,,,,,フオトニクスポリマーイノベーシヨンコクサイカイギ,0
1034,5010001247304,新規,0,2024-08-15,2024-08-15,ＥＸＤ　ＥＮＴＥＲＴＡＩＮＭＥＮＴ株式会社,,株式会社,東京都,千代田区,内神田３丁目４番１３号,,13,101,1010047,,,,,,,2024-08-15,1,,,,,イーエックスディエンターテインメント,0
1035,5010001247403,新規,0,2024-08-15,2024-08-15,株式会社Ｓｐｉｒｉｔｕａｌ　Ｄａｄｄｙ,,株式会社,東京都,中央区,銀座８丁目１０番５号電算ビルＧ－９０３０９,,13,102,1040061,,,,,,,2024-08-15,1,,,,,スピリチュアルダディ,0
1036,5010001247411,新規,0,2024-08-15,2024-08-15,青洋商事株式会社,,株式会社,東京都,中央区,東日本橋１丁目９番２号－５Ｆ,,13,102,1030004,,,,,,,2024-08-15,1,,,,,セイヨウショウジ,0
1037,5010001247460,新規,0,2024-08-15,2024-08-15,ななつぼし商事株式会社,,株式会社,東京都,中央区,日本橋室町１丁目１１番１２号日本橋水野ビル７階,,13,102,1030022,,,,,,,2024-08-15,1,,,,,ナナツボシショウジ,0
1038,5010001247469,新規,0,2024-08-15,2024-08-15,Ｌｅｇａｌ　Ｓｅｃｕｒｉｔｙ株式会社,,株式会社,東京都,中央区,日本橋浜町２丁目３５番４号,,13,102,1030007,,,,,,,2024-08-15,1,,,,,リーガルセキュリティ,0
1040,5010003044501,新規,0,2024-08-15,2024-08-15,合同会社Ｖｉｅｔｎａｍ　Ｗａｆｅｒ　Ｊａｐａｎ,,合同会社,東京都,千代田区,丸の内２丁目２番１号,,13,101,1000005,,,,,,,2024-08-15,1,,,,,ベトナムウェーファージャパン,0
1041,5010003044625,新規,0,2024-08-15,2024-08-15,合同会社ＨｉＪｏＪｏ．ｃｏｍ１５,,合同会社,東京都,千代田区,霞が関３丁目２番５号,,13,101,1000013,,,,,,,2024-08-15,1,,,,,ヒジョージョードットコムフィフティン,0
1052,5010401184205,新規,0,2024-08-15,2024-08-15,株式会社Ａｍｕｅｌｅ,,株式会社,東京都,港区,赤坂８丁目１１番１９－５０３号エクレール乃木坂関根ビル,,13,103,1070052,,,,,,,2024-08-15,1,,,,,アミュール,0
1053,5010401184262,新規,0,2024-08-15,2024-08-15,株式会社ＣＭ,,株式会社,東京都,港区,西新橋１丁目２番９号日比谷セントラルビルＢ１,,13,103,1050003,,,,,,,2024-08-15,1,,,,,シーエム,0
1054,5010401184304,新規,0,2024-08-15,2024-08-15,株式会社Ｄｙｎａｍｏ,,株式会社,東京都,港区,南青山３丁目１番３６号青山丸竹ビル６Ｆ,,13,103,1070062,,,,,,,2024-08-15,1,,,,,ダイナモ,0
1058,5010501052757,新規,0,2024-08-15,2024-08-15,ａｋｉｚ株式会社,,株式会社,東京都,台東区,台東３丁目７－１１,,13,106,1100016,,,,,,,2024-08-15,1,,,,,アキズ,0
1060,5010701046402,新規,0,2024-08-15,2024-08-15,株式会社喜六,,株式会社,東京都,品川区,平塚１丁目４番４号,,13,109,1420051,,,,,,,2024-08-15,1,,,,,キロク,0
1063,5010801035321,新規,0,2024-08-15,2024-08-15,むかうアセット株式会社,,株式会社,東京都,大田区,新蒲田１丁目１６番１号,,13,111,1440054,,,,,,,2024-08-15,1,,,,,ムカウアセット,0
1073,5011001164092,新規,0,2024-08-15,2024-08-15,利楽株式会社,,株式会社,東京都,渋谷区,千駄ヶ谷５丁目２番２０号,,13,113,1510051,,,,,,,2024-08-15,1,,,,,リラク,0
1074,5011001164126,新規,0,2024-08-15,2024-08-15,株式会社１１５,,株式会社,東京都,渋谷区,広尾３丁目５番３１号,,13,113,1500012,,,,,,,2024-08-15,1,,,,,イイコ,0
1079,5011101108379,新規,0,2024-08-15,2024-08-15,株式会社Ｃｏ．Ｃｏ．Ｍｏｔｉｖａｔｅ,,株式会社,東京都,新宿区,高田馬場２丁目１７－３東京三協信用金庫本店ビル,,13,104,1690075,,,,,,,2024-08-15,1,,,,,ココモチベイト,0
1080,5011101108412,新規,0,2024-08-15,2024-08-15,株式会社ＣＺＬ＆Ｃｏ．,,株式会社,東京都,新宿区,払方町２５番地３パーク・ホームズ市ヶ谷５０２,,13,104,1620841,,,,,,,2024-08-15,1,,,,,シーズアンドカンパニー,0
1087,5011103014798,新規,0,2024-08-15,2024-08-15,川崎プロパティーズ合同会社,,合同会社,東京都,新宿区,四谷２丁目９番地１５東京ユナイテッド綜合事務所内,,13,104,1600004,,,,,,,2024-08-15,1,,,,,カワサキプロパティーズ,0
1090,5011203004468,新規,0,2024-08-15,2024-08-15,合同会社Ａ,,合同会社,東京都,中野区,本町４丁目３９－８－８０１,,13,114,1640012,,,,,,,2024-08-15,1,,,,,エイ,0
1094,5011301029929,新規,0,2024-08-15,2024-08-15,株式会社奉仁舎,,株式会社,東京都,杉並区,桃井２丁目１７番２４号,,13,115,1670034,,,,,,,2024-08-15,1,,,,,ホウジンシャ,0
1095,5011303005259,新規,0,2024-08-15,2024-08-15,ｓｔｅｒｎｓｔｕｎｄｅ合同会社,,合同会社,東京都,杉並区,西荻南３丁目１５番１０開楽ビル２Ｆ,,13,115,1670053,,,,,,,2024-08-15,1,,,,,,0
1097,5011503006180,新規,0,2024-08-15,2024-08-15,合同会社和田硝子加工所,,合同会社,東京都,荒川区,南千住３丁目３２番２号,,13,118,1160003,,,,,,,2024-08-15,1,,,,,ワダガラスカコウショ,0
1098,5011603004423,新規,0,2024-08-15,2024-08-15,合同会社スプリント測量,,合同会社,東京都,練馬区,富士見台３丁目３４番９号,,13,120,1770034,,,,,,,2024-08-15,1,,,,,スプリントソクリョウ,0
1100,5011801044700,新規,0,2024-08-15,2024-08-15,ＣＯＬＯＲＦＵＬ株式会社,,株式会社,東京都,足立区,関原２丁目２４番１９号,,13,121,1230852,,,,,,,2024-08-15,1,,,,,カラフル,0
1102,5012401042193,新規,0,2024-08-15,2024-08-15,株式会社ｔｗｓ‐ｐｒｏｄｕｃｔ,,株式会社,東京都,多摩市,豊ヶ丘３丁目３－２－４０５,,13,224,2060031,,,,,,,2024-08-15,1,,,,,ティーダブリューエスプロダクト,0
1104,5012805003287,新規,0,2024-08-15,2024-08-15,一般社団法人日本地域地理研究所,,その他の設立登記法人,東京都,日野市,三沢１丁目３４番地１５ブリリアン・メゾン・オノ１－２,,13,212,1910032,,,,,,,2024-08-15,1,,,,,ニホンチイキチリケンキュウジョ,0
1109,5013301052992,新規,0,2024-08-15,2024-08-15,株式会社エデュパワー,,株式会社,東京都,豊島区,東池袋１丁目４２－１４,,13,116,1700013,,,,,,,2024-08-15,1,,,,,エデュパワー,0
1113,5020001158608,新規,0,2024-08-15,2024-08-15,Ｓ＆Ｍオオタニ株式会社,,株式会社,神奈川県,横浜市港北区,篠原北１丁目２７番１９号,,14,109,2220021,,,,,,,2024-08-15,1,,,,,,0
1114,5020001158624,新規,0,2024-08-15,2024-08-15,Ｗｏｖｅｎ　Ｍｉｎｄ株式会社,,株式会社,神奈川県,横浜市神奈川区,大野町１－２５－１６０４,,14,102,2210055,,,,,,,2024-08-15,1,,,,,ウーブンマインド,0
1120,5021001082979,新規,0,2024-08-15,2024-08-15,株式会社小鳥遊ｗｏｒｋｓ,,株式会社,神奈川県,三浦市,初声町和田２６４８番地３,,14,210,2380114,,,,,,,2024-08-15,1,,,,,タカナシワークス,0
1121,5021001082987,新規,0,2024-08-15,2024-08-15,株式会社Ｆｅｅｌｌｉｎｋ,,株式会社,神奈川県,秦野市,本町１丁目２－１万州ビル３階,,14,211,2570035,,,,,,,2024-08-15,1,,,,,フィールリンク,0
1127,5030001161916,新規,0,2024-08-15,2024-08-15,株式会社ＩＲ,,株式会社,埼玉県,越谷市,蒲生南町１番４号,,11,222,3430833,,,,,,,2024-08-15,1,,,,,アイアール,0
1128,5030001161940,新規,0,2024-08-15,2024-08-15,株式会社心,,株式会社,埼玉県,入間郡越生町,越生東４丁目８番地１６,,11,327,3500414,,,,,,,2024-08-15,1,,,,,ココロ,0
1129,5030001161949,新規,0,2024-08-15,2024-08-15,株式会社ＢＯＮＤ　ＳＥＲＶＩＣＥ,,株式会社,埼玉県,比企郡吉見町,大字地頭方４５６番地２,,11,347,3550104,,,,,,,2024-08-15,1,,,,,ボンドサービス,0
1133,5030003024922,新規,0,2024-08-15,2024-08-15,合同会社ＰａｐｙＬｅ８,,合同会社,埼玉県,三郷市,高州３丁目２２８番地３－１Ｆ,,11,237,3410037,,,,,,,2024-08-15,1,,,,,パピーリオ,0
1137,5040001134870,新規,0,2024-08-15,2024-08-15,株式会社木村屋,,株式会社,千葉県,市原市,牛久８２６番地２,,12,219,2900225,,,,,,,2024-08-15,1,,,,,キムラヤ,0
1138,5040001134953,新規,0,2024-08-15,2024-08-15,遊佐設備工業株式会社,,株式会社,千葉県,市川市,曽谷６丁目１３番１５号,,12,203,2720832,,,,,,,2024-08-15,1,,,,,ユサセツビコウギョウ,0
1139,5040001134986,新規,0,2024-08-15,2024-08-15,三和モータース株式会社,,株式会社,千葉県,千葉市若葉区,太田町８５番地,,12,104,2640013,,,,,,,2024-08-15,1,,,,,サンワモータース,0
1145,5040003025614,新規,0,2024-08-15,2024-08-15,合同会社ＤＳカンパニー,,合同会社,千葉県,船橋市,宮本９丁目６番１－８０２号,,12,204,2730003,,,,,,,2024-08-15,1,,,,,ディエスカンパニー,0
1146,5040003025622,新規,0,2024-08-15,2024-08-15,合同会社Ｍ．Ｅ．Ｋ．Ｅ．,,合同会社,千葉県,市川市,堀之内５丁目２１番地７ロータリーパレス市川北３１５号,,12,203,2720837,,,,,,,2024-08-15,1,,,,,メケ,0
1150,5050003008576,新規,0,2024-08-15,2024-08-15,ＶＶ　ＴＲＡＤＩＮＧ合同会社,,合同会社,茨城県,筑西市,花田字黒浜２４３番,,08,227,3080114,,,,,,,2024-08-15,1,,,,,ヴィヴィトレーディング,0
1157,5070003005547,新規,0,2024-08-15,2024-08-15,合同会社ＬｉｎｋＭｅｎｔ,,合同会社,群馬県,高崎市,本町４８,,10,202,3700813,,,,,,,2024-08-15,1,,,,,リンクメント,0
1158,5080001026445,新規,0,2024-08-15,2024-08-15,福栄株式会社,,株式会社,静岡県,静岡市葵区,羽鳥３丁目１番４７号,,22,101,4211215,,,,,,,2024-08-15,1,,,,,フクエイ,0
1162,5080405007660,新規,0,2024-08-15,2024-08-15,一般社団法人ｎｉｃｏ和,,その他の設立登記法人,静岡県,浜松市中央区,雄踏町宇布見６００番地の７９,,22,138,4310102,,,,,,,2024-08-15,1,,,,,ニコワ,0
1166,5100005013214,新規,0,2024-08-15,2024-08-15,一般社団法人空き家再生社,,その他の設立登記法人,長野県,北佐久郡御代田町,大字面替４２１番地１,,20,323,3890205,,,,,,,2024-08-15,1,,,,,アキヤサイセイシャ,0
1169,5110001038643,新規,0,2024-08-15,2024-08-15,株式会社松右ェ門,,株式会社,新潟県,南魚沼市,大里３２４番地３,,15,226,9496412,,,,,,,2024-08-15,1,,,,,マツウエモン,0
1170,5110001038651,新規,0,2024-08-15,2024-08-15,株式会社ＴＡＳＵＫＵ,,株式会社,新潟県,上越市,住吉町６番７号１Ｆ,,15,222,9420002,,,,,,,2024-08-15,1,,,,,タスク,0
1171,5110003005484,新規,0,2024-08-15,2024-08-15,合同会社ｐｏｌａｒｉｓ,,合同会社,新潟県,新潟市北区,嘉山３丁目１２番７号,,15,101,9503322,,,,,,,2024-08-15,1,,,,,ポラリス,0
1179,5120001267621,新規,0,2024-08-15,2024-08-15,ＶＡＬＵＥ　ＷＯＲＫ株式会社,,株式会社,大阪府,大阪市中央区,今橋１丁目１番３号９階,,27,128,5410042,,,,,,,2024-08-15,1,,,,,バリューワーク,0
1180,5120001267786,新規,0,2024-08-15,2024-08-15,株式会社Ｇｒａｎｄｙ,,株式会社,大阪府,大阪市北区,中津６丁目７番２２－４０２号,,27,127,5310071,,,,,,,2024-08-15,1,,,,,グランディ,0
1181,5120001267794,新規,0,2024-08-15,2024-08-15,新潮勢株式会社,,株式会社,大阪府,大阪市中央区,瓦屋町２丁目１０－１４第３天偉ビル３Ｅ室,,27,128,5420066,,,,,,,2024-08-15,1,,,,,シンチョウセイ,0
1182,5120001267803,新規,0,2024-08-15,2024-08-15,株式会社Ｋ．Ｔ商事,,株式会社,大阪府,大阪市浪速区,幸町２丁目１－１０ベルハイム幸町６０１号,,27,111,5560021,,,,,,,2024-08-15,1,,,,,ケーティーショウジ,0
1185,5120101070140,新規,0,2024-08-15,2024-08-15,株式会社嘉輅,,株式会社,大阪府,泉南郡田尻町,吉見６９５番地７,,27,362,5980092,,,,,,,2024-08-15,1,,,,,カロ,0
1186,5120103006010,新規,0,2024-08-15,2024-08-15,合同会社ワンフォーオール,,合同会社,大阪府,松原市,天美東８丁目４番２９号大浦ビル１Ｆ,,27,217,5800032,,,,,,,2024-08-15,1,,,,,ワンフォーオール,0
1188,5122001038366,新規,0,2024-08-15,2024-08-15,Ｍｏｔｔｏ　Ｕｐ株式会社,,株式会社,大阪府,四條畷市,岡山東１丁目１０番５号忍ケ丘センタービル６０２,,27,229,5750003,,,,,,,2024-08-15,1,,,,,モットアップ,0
1198,5130003009756,新規,0,2024-08-15,2024-08-15,ＭＴ１９９７合同会社,,合同会社,京都府,宇治市,大久保町平盛１５番地の２９,,26,204,6110033,,,,,,,2024-08-15,1,,,,,エムティイチキュウキュウナナ,0
1202,5140001135470,新規,0,2024-08-15,2024-08-15,株式会社Ｕ,,株式会社,兵庫県,神戸市灘区,六甲台町６番１３－７０１号,,28,102,6570013,,,,,,,2024-08-15,1,,,,,ユー,0
1203,5140001135495,新規,0,2024-08-15,2024-08-15,株式会社桜輝,,株式会社,兵庫県,姫路市,神田町１丁目１２番地２０３,,28,201,6700991,,,,,,,2024-08-15,1,,,,,オキ,0
1204,5140001135512,新規,0,2024-08-15,2024-08-15,株式会社ＮＡＴＳＵＫＩ,,株式会社,兵庫県,神戸市長田区,若松町１丁目５番２９号－１０１号室,,28,106,6530038,,,,,,,2024-08-15,1,,,,,ナツキ,0
1205,5140003020943,新規,0,2024-08-15,2024-08-15,合同会社ＳＡＳ,,合同会社,兵庫県,神戸市北区,唐櫃台２丁目８番７号,,28,109,6511332,,,,,,,2024-08-15,1,,,,,エスエーエス,0
1206,5140003020976,新規,0,2024-08-15,2024-08-15,ＩＧＬ合同会社,,合同会社,兵庫県,西宮市,神呪町１４番３０－２０３号,,28,204,6620823,,,,,,,2024-08-15,1,,,,,アイジーエル,0
1208,5150003003336,新規,0,2024-08-15,2024-08-15,合同会社ケアサポートかなみ,,合同会社,奈良県,葛城市,木戸８４番地２,,29,211,6392161,,,,,,,2024-08-15,1,,,,,ケアサポートカナミ,0
1210,5160001026164,新規,0,2024-08-15,2024-08-15,ＥｎｖｉｒｏＣａｒｅｓ株式会社,,株式会社,滋賀県,長浜市,十里町２１０番地７,,25,203,5260016,,,,,,,2024-08-15,1,,,,,,0
1220,5180001162668,新規,0,2024-08-15,2024-08-15,株式会社ＣＨＡＲＭ,,株式会社,愛知県,名古屋市中区,錦３丁目５番３０号三晃錦ビル４Ｆ,,23,106,4600003,,,,,,,2024-08-15,1,,,,,チャム,0
1221,5180001162841,新規,0,2024-08-15,2024-08-15,アンネクシア株式会社,,株式会社,愛知県,名古屋市瑞穂区,田辺通２丁目１１番地の２プレティナレジデンス瑞穂田辺通７０６号,,23,108,4670027,,,,,,,2024-08-15,1,,,,,アンネクシア,0
1222,5180001162858,新規,0,2024-08-15,2024-08-15,株式会社Ｍ．ＣＯＮＮＥＣＴ,,株式会社,愛知県,北名古屋市,二子松江１３番地,,23,234,4810013,,,,,,,2024-08-15,1,,,,,エムコネクト,0
1223,5180001162874,新規,0,2024-08-15,2024-08-15,株式会社極建装,,株式会社,愛知県,江南市,江森町東１３０番地１,,23,217,4838042,,,,,,,2024-08-15,1,,,,,キワミケンソウ,0
1224,5180001162882,新規,0,2024-08-15,2024-08-15,株式会社セキュアリフォーム,,株式会社,愛知県,豊明市,三崎町高鴨１２番地５,,23,229,4701126,,,,,,,2024-08-15,1,,,,,セキュアリフォーム,0
1227,5180003027233,新規,0,2024-08-15,2024-08-15,合同会社ＭＡＨＵＮＡ,,合同会社,愛知県,名古屋市北区,平安２丁目２４番５２号ハーモニーテラス平安１０１号,,23,103,4620819,,,,,,,2024-08-15,1,,,,,マフナ,0
1233,5180301038948,新規,0,2024-08-15,2024-08-15,株式会社ナトビー,,株式会社,愛知県,豊田市,百々町８丁目３２番地５１,,23,211,4710008,,,,,,,2024-08-15,1,,,,,ナトビー,0
1234,5180301038964,新規,0,2024-08-15,2024-08-15,ウエ建設株式会社,,株式会社,愛知県,豊橋市,西高師町字沢向１１０番地,,23,201,4418154,,,,,,,2024-08-15,1,,,,,ウエケンセツ,0
1236,5190001031574,新規,0,2024-08-15,2024-08-15,株式会社ＳＴＡＹＧＯＬＤ,,株式会社,三重県,津市,観音寺町４４６番地７８,,24,201,5140062,,,,,,,2024-08-15,1,,,,,ステイゴールド,0
1237,5190005011977,新規,0,2024-08-15,2024-08-15,税理士法人ＳＴＡＹＧＯＬＤ,,その他の設立登記法人,三重県,津市,観音寺町４４６番地７８,,24,201,5140062,,,,,,,2024-08-15,1,,,,,ステイゴールド,0
1241,5200005013658,新規,0,2024-08-15,2024-08-15,医療法人ＭＩＲＡＩ,,その他の設立登記法人,岐阜県,岐阜市,粟野東４丁目２９７,,21,201,5020002,,,,,,,2024-08-15,1,,,,,ミライ,0
1242,5210003001829,新規,0,2024-08-15,2024-08-15,合同会社ＫＡＮＡＫＯ,,合同会社,福井県,越前市,氷坂町第１８号７番地の１５,,18,209,9150892,,,,,,,2024-08-15,1,,,,,カナコ,0
1245,5240003006817,新規,0,2024-08-15,2024-08-15,大谷商事合同会社,,合同会社,広島県,福山市,千田町３丁目２３番４－１６,,34,207,7200017,,,,,,,2024-08-15,1,,,,,オオタニショウジ,0
1248,5250001020777,新規,0,2024-08-15,2024-08-15,株式会社アカンパニメント,,株式会社,山口県,山口市,小郡高砂町２番２０号,,35,203,7540014,,,,,,,2024-08-15,1,,,,,アカンパニメント,0
1253,5290001106812,新規,0,2024-08-15,2024-08-15,株式会社ＨＭ,,株式会社,福岡県,小郡市,祇園２丁目９番地８,,40,216,8380144,,,,,,,2024-08-15,1,,,,,エイチエム,0
1254,5290001106886,新規,0,2024-08-15,2024-08-15,株式会社藤澤,,株式会社,福岡県,福岡市博多区,中洲２丁目７番２１号,,40,132,8100801,,,,,,,2024-08-15,1,,,,,フジサワ,0
1256,5290801030807,新規,0,2024-08-15,2024-08-15,株式会社マグマ,,株式会社,福岡県,北九州市門司区,大字猿喰５８３番地６,,40,101,8000102,,,,,,,2024-08-15,1,,,,,マグマ,0
1258,5300001013882,新規,0,2024-08-15,2024-08-15,株式会社あはひの,,株式会社,佐賀県,嬉野市,嬉野町大字下野丙２３１９番地３,,41,209,8430302,,,,,,,2024-08-15,1,,,,,アワイノ,0
1260,5310001019169,新規,0,2024-08-15,2024-08-15,鬼塚株式会社,00135967,株式会社,長崎県,南島原市,西有家町須川１１００番地１２２,,42,214,8592212,,,,,,,2024-08-15,1,,,,,オニヅカ,0
1261,5310001019177,新規,0,2024-08-15,2024-08-15,株式会社ウオーク,,株式会社,長崎県,大村市,大川田町８５２番地９,,42,205,8560804,,,,,,,2024-08-15,1,,,,,ウオーク,0
1265,5320005010180,新規,0,2024-08-15,2024-08-15,一般社団法人ナチュラルキャピタルクレジットコンソーシアム大分支部,,その他の設立登記法人,大分県,宇佐市,大字猿渡１１２０－３０,,44,211,8790314,,,,,,,2024-08-15,1,,,,,ナチュラルキャピタルクレジットコンソーシアムオオイタシブ,0
1266,5330001032351,新規,0,2024-08-15,2024-08-15,ＧＩＶＥＲ株式会社,,株式会社,熊本県,菊池市,旭志尾足２８７番地１３,,43,210,8691203,,,,,,,2024-08-15,1,,,,,ギバー,0
1267,5330001032376,新規,0,2024-08-15,2024-08-15,株式会社ネコ不動産,,株式会社,熊本県,熊本市南区,平田１丁目１４－１９草野ビル３０５,,43,104,8600826,,,,,,,2024-08-15,1,,,,,ネコフドウサン,0
1271,5350001019140,新規,0,2024-08-15,2024-08-15,株式会社ビックバレーファーム,,株式会社,宮崎県,宮崎市,佐土原町下那珂１０６９０番地７,,45,201,8800212,,,,,,,2024-08-15,1,,,,,ビックバレーファーム,0
1274,5350005006250,新規,0,2024-08-15,2024-08-15,特定非営利活動法人めぐみ,,その他の設立登記法人,宮崎県,小林市,細野１４７１番地４,,45,205,8860004,,,,,,,2024-08-15,1,,,,,メグミ,0
1279,5370001051661,新規,0,2024-08-15,2024-08-15,株式会社ＳＨＩＮＹ,,株式会社,宮城県,仙台市青葉区,愛子東６丁目１番６号,,04,101,9893127,,,,,,,2024-08-15,1,,,,,シャイニー,0
1289,5410001013913,新規,0,2024-08-15,2024-08-15,秋田奥羽電気工業株式会社,,株式会社,秋田県,大仙市,大曲福住町４番８号,,05,212,0140014,,,,,,,2024-08-15,1,,,,,アキタオウウデンキコウギョウ,0
1292,5420001018829,新規,0,2024-08-15,2024-08-15,株式会社ｋ＆ｓホールディングス,,株式会社,青森県,弘前市,大字高田字苺原９５番地７,,02,202,0368084,,,,,,,2024-08-15,1,,,,,ケーアンドエスホールディングス,0
1293,5420001018837,新規,0,2024-08-15,2024-08-15,株式会社王原商事,,株式会社,青森県,八戸市,大字河原木字後平５番地５６,,02,203,0391161,,,,,,,2024-08-15,1,,,,,オウハラショウジ,0
1294,5430001092468,新規,0,2024-08-15,2024-08-15,紀州商事株式会社,,株式会社,北海道,北広島市,輪厚中央１丁目１番１号,,01,234,0611268,,,,,,,2024-08-15,1,,,,,キシュウショウジ,0
1295,5430003016689,新規,0,2024-08-15,2024-08-15,合同会社ＴＲＳ,,合同会社,北海道,苫小牧市,拓勇東町３丁目４番１９号,,01,213,0591303,,,,,,,2024-08-15,1,,,,,ティーアールエス,0
1301,5470005006577,新規,0,2024-08-15,2024-08-15,特定非営利活動法人小豆島坂手ポートターミナル振興協議会,,その他の設立登記法人,香川県,小豆郡小豆島町,坂手甲１８３６－２１,,37,324,7614425,,,,,,,2024-08-15,1,,,,,ショウドシマサカテポートターミナルシンコウキョウギカイ,0
1302,5490003001925,新規,0,2024-08-15,2024-08-15,合同会社大北果樹園,,合同会社,高知県,安芸市,井ノ口乙５５８番地４,,39,203,7840052,,,,,,,2024-08-15,1,,,,,オオキタカジュエン,0
1312,6010001247451,新規,0,2024-08-15,2024-08-15,ＥＥＡＰ株式会社,,株式会社,東京都,千代田区,神田和泉町１－６－１６ヤマトビル４０５,,13,101,1010024,,,,,,,2024-08-15,1,,,,,イーイーエーピー,0
1313,6010001247468,新規,0,2024-08-15,2024-08-15,株式会社Ｇｒｏｗ,,株式会社,東京都,中央区,銀座１丁目１３番５号,,13,102,1040061,,,,,,,2024-08-15,1,,,,,グロー,0
1320,6010003044632,新規,0,2024-08-15,2024-08-15,本牧インベストメント合同会社,,合同会社,東京都,千代田区,丸の内１丁目１１番１号,,13,101,1000005,,,,,,,2024-08-15,1,,,,,ホンモクインベストメント,0
1327,6010401183387,新規,0,2024-08-15,2024-08-15,株式会社ＳｌｉｃｅＣｈｅｅｓｅ,,株式会社,東京都,港区,南青山３丁目１番３６号青山丸竹ビル６Ｆ,,13,103,1070062,,,,,,,2024-08-15,1,,,,,スライスチーズ,0
1328,6010401183552,新規,0,2024-08-15,2024-08-15,株式会社アイケンホールディングス,,株式会社,東京都,港区,北青山３丁目２番４号日新青山ビル３階,,13,103,1070061,,,,,,,2024-08-15,1,,,,,アイケンホールディングス,0
1329,6010401184088,新規,0,2024-08-15,2024-08-15,スチューベン株式会社,,株式会社,東京都,港区,北青山２丁目７番１３号プラセオ青山ビル３Ｆ,,13,103,1070061,,,,,,,2024-08-15,1,,,,,スチューベン,0
1330,6010401184476,新規,0,2024-08-15,2024-08-15,株式会社Ｕｎｉ　Ｘ　Ｌａｂ,,株式会社,東京都,港区,北青山１丁目３番１号アールキューブ青山３階,,13,103,1070061,,,,,,,2024-08-15,1,,,,,ユニクスラボ,0
1337,6010601065724,新規,0,2024-08-15,2024-08-15,スフィアイベントテクニカル株式会社,,株式会社,東京都,江東区,亀戸５丁目３２番２１号,,13,108,1360071,,,,,,,2024-08-15,1,,,,,スフィアイベントテクニカル,0
1338,6010601065740,新規,0,2024-08-15,2024-08-15,株式会社ｆｉｅｌｄ,,株式会社,東京都,墨田区,本所２丁目１４番１２－７０４号,,13,107,1300004,,,,,,,2024-08-15,1,,,,,フィールド,0
1341,6010701046401,新規,0,2024-08-15,2024-08-15,株式会社Ｌｉｆｅ　ｔｉｍｅ,,株式会社,東京都,品川区,西五反田４丁目９番４－７０１号,,13,109,1410031,,,,,,,2024-08-15,1,,,,,ライフタイム,0
1343,6010801035320,新規,0,2024-08-15,2024-08-15,株式会社肥前屋工業,,株式会社,東京都,大田区,大森西１丁目１１番１０－２０３号,,13,111,1430015,,,,,,,2024-08-15,1,,,,,ヒゼンヤコウギョウ,0
1345,6010803005032,新規,0,2024-08-15,2024-08-15,合同会社にんじゃ,,合同会社,東京都,大田区,大森西１丁目３番１３号,,13,111,1430015,,,,,,,2024-08-15,1,,,,,ニンジャ,0
1352,6011001163820,新規,0,2024-08-15,2024-08-15,株式会社ＷｅｌｌＢｙ,,株式会社,東京都,渋谷区,神南１丁目１４－７ワイズ神南ビル２階,,13,113,1500041,,,,,,,2024-08-15,1,,,,,ウェルバイ,0
1353,6011001164026,新規,0,2024-08-15,2024-08-15,株式会社ＴＫｒｅｓｔ,,株式会社,東京都,渋谷区,幡ヶ谷２丁目８番１５号ＫＯＤＡビル２階,,13,113,1510072,,,,,,,2024-08-15,1,,,,,ティーケーレスト,0
1354,6011001164117,新規,0,2024-08-15,2024-08-15,株式会社ＪＩＮ‐ＰＡ,,株式会社,東京都,渋谷区,神宮前６丁目２３番４号桑野ビル２階,,13,113,1500001,,,,,,,2024-08-15,1,,,,,ジンパ,0
1356,6011003019764,新規,0,2024-08-15,2024-08-15,ＴＲＳ合同会社,,合同会社,東京都,渋谷区,本町６丁目６－９ハイツ６６９号館３０６,,13,113,1510071,,,,,,,2024-08-15,1,,,,,ティーアールエス,0
1357,6011005010622,新規,0,2024-08-15,2024-08-15,一般社団法人ＳＫＹ‐ＳＴＯＮＥ,,その他の設立登記法人,東京都,渋谷区,富ヶ谷２丁目２番１号Ｔ．Ｎコート富ヶ谷１０１,,13,113,1510063,,,,,,,2024-08-15,1,,,,,スカイストーン,0
1360,6011101108353,新規,0,2024-08-15,2024-08-15,株式会社ＮＡＭＡＮ　ＰＬＵＳ,,株式会社,東京都,新宿区,歌舞伎町２丁目４１番１１号広野ビル３Ｆ,,13,104,1600021,,,,,,,2024-08-15,1,,,,,ナマンプラス,0
1361,6011101108411,新規,0,2024-08-15,2024-08-15,株式会社ｅｘｃｉｆｙ,,株式会社,東京都,新宿区,西新宿３丁目３番１３号西新宿水間ビル２Ｆ,,13,104,1600023,,,,,,,2024-08-15,1,,,,,エクシファイ,0
1365,6011401026354,新規,0,2024-08-15,2024-08-15,株式会社ＫＡＳＳＩＮ　ＧＲＯＵＰ,,株式会社,東京都,板橋区,板橋３丁目５１番９号,,13,119,1730004,,,,,,,2024-08-15,1,,,,,カッシングループ,0
1366,6011403004473,新規,0,2024-08-15,2024-08-15,合同会社Ｈ２Ｍ　Ｃｏｎｓｕｌｔ,,合同会社,東京都,板橋区,中台２丁目２７番１６号,,13,119,1740064,,,,,,,2024-08-15,1,,,,,エイチツーエムコンサルト,0
1368,6011501031015,新規,0,2024-08-15,2024-08-15,株式会社ナツキ,,株式会社,東京都,北区,岸町１丁目６番７号アスカヤマコート１０２,,13,117,1140021,,,,,,,2024-08-15,1,,,,,ナツキ,0
1373,6012403006716,新規,0,2024-08-15,2024-08-15,合同会社Ｌ．Ｆｉｅｌｄ,,合同会社,東京都,多摩市,豊ヶ丘１丁目５番地の４マイキャッスル多摩センター１０５,,13,224,2060031,,,,,,,2024-08-15,1,,,,,エルフィールド,0
1374,6012405005030,新規,0,2024-08-15,2024-08-15,ＮＰＯ法人アスペルガーアラウンド,,その他の設立登記法人,東京都,多摩市,一ノ宮１丁目２３番５号カサヴェール桜ヶ丘４０２号室,,13,224,2060002,,,,,,,2024-08-15,1,,,,,エヌピーオーホウジンアスペルガーアラウンド,0
1375,6012701018405,新規,0,2024-08-15,2024-08-15,株式会社ドリスドロシー,,株式会社,東京都,東久留米市,滝山７丁目２３番地４号,,13,222,2030033,,,,,,,2024-08-15,1,,,,,ドリスドロシー,0
1380,6020001158474,新規,0,2024-08-15,2024-08-15,雅設備株式会社,,株式会社,神奈川県,横浜市港南区,日野南６丁目１番４３－２０５号,,14,111,2340055,,,,,,,2024-08-15,1,,,,,ミヤビセツビ,0
1385,6021001083010,新規,0,2024-08-15,2024-08-15,コモンズホールディングス株式会社,,株式会社,神奈川県,平塚市,四之宮２丁目１５番２７号,,14,203,2540014,,,,,,,2024-08-15,1,,,,,コモンズホールディングス,0
1386,6021001083027,新規,0,2024-08-15,2024-08-15,株式会社バウンディ,,株式会社,神奈川県,相模原市南区,相模台２丁目２番２号,,14,153,2520321,,,,,,,2024-08-15,1,,,,,バウンディ,0
1396,6030001161931,新規,0,2024-08-15,2024-08-15,アーキテクト株式会社,,株式会社,埼玉県,富士見市,渡戸３丁目４番１１号,,11,235,3540032,,,,,,,2024-08-15,1,,,,,アーキテクト,0
1397,6030001161948,新規,0,2024-08-15,2024-08-15,育和インターナショナル株式会社,,株式会社,埼玉県,川口市,並木２丁目３１番３号グリーンパークウエスト川口１２－Ｃ号,,11,203,3320034,,,,,,,2024-08-15,1,,,,,イクワインターナショナル,0
1399,6030003024913,新規,0,2024-08-15,2024-08-15,合同会社一帆,,合同会社,埼玉県,川越市,大字並木３０７番地２レクセルガーデン南古谷２０８号室,,11,201,3500023,,,,,,,2024-08-15,1,,,,,イチホ,0
1403,6040001135001,新規,0,2024-08-15,2024-08-15,株式会社ＹＴＴ,,株式会社,千葉県,千葉市中央区,都町３丁目１０番３号,,12,101,2600001,,,,,,,2024-08-15,1,,,,,ワイティーティー,0
1404,6040003025621,新規,0,2024-08-15,2024-08-15,Ｒａｐｐｏｒｔ合同会社,,合同会社,千葉県,船橋市,三山５丁目５番７号,,12,204,2740072,,,,,,,2024-08-15,1,,,,,ラポール,0
1405,6050001055280,新規,0,2024-08-15,2024-08-15,株式会社ＦｕｔｕｒｅＱｕｅｓｔ,,株式会社,茨城県,土浦市,真鍋新町１８－１１クラウトビル２Ｆ,,08,203,3000053,,,,,,,2024-08-15,1,,,,,フューチャークエスト,0
1413,6070003005546,新規,0,2024-08-15,2024-08-15,合同会社ＳＩＹＯＧＩ,,合同会社,群馬県,太田市,飯田町９６５番地２,,10,205,3730851,,,,,,,2024-08-15,1,,,,,シヨギ,0
1414,6080001026444,新規,0,2024-08-15,2024-08-15,株式会社ＲＹＵＴＥＸ,,株式会社,静岡県,島田市,竹下１３８番地の３,,22,209,4280008,,,,,,,2024-08-15,1,,,,,リュウテック,0
1415,6080001026452,新規,0,2024-08-15,2024-08-15,Ｂｅｅ　Ｆａｓｈｉｏｎ株式会社,,株式会社,静岡県,静岡市清水区,北脇新田４４３番地の２,,22,103,4240051,,,,,,,2024-08-15,1,,,,,ビーファッション,0
1419,6080103003119,新規,0,2024-08-15,2024-08-15,合同会社Ｈｏｂｂｉｎｅｓｓ,,合同会社,静岡県,三島市,若松町４４２０番地の５,,22,206,4110024,,,,,,,2024-08-15,1,,,,,ホビネス,0
1429,6110003005483,新規,0,2024-08-15,2024-08-15,ＮＩＩＧＡＴＡ　ＳＣＨＯＯＬ合同会社,,合同会社,新潟県,新潟市中央区,天神１丁目１２－７－１８０９,,15,103,9500917,,,,,,,2024-08-15,1,,,,,ニイガタスクール,0
1434,6120001267694,新規,0,2024-08-15,2024-08-15,株式会社Ｋ‐ＴＥＣＨＮＩＣＡ,,株式会社,大阪府,大阪市住之江区,西加賀屋３丁目１５番２０号,,27,125,5590016,,,,,,,2024-08-15,1,,,,,ケイテクニカ,0
1435,6120001267793,新規,0,2024-08-15,2024-08-15,大成商事株式会社,,株式会社,大阪府,大阪市浪速区,敷津西１丁目９番１３－７０２号,,27,111,5560015,,,,,,,2024-08-15,1,,,,,タイセイショウジ,0
1436,6120001267843,新規,0,2024-08-15,2024-08-15,株式会社イーミック,,株式会社,大阪府,大阪市中央区,久太郎町２丁目４番２７号堺筋本町ＴＦビル１Ｆ,,27,128,5410056,,,,,,,2024-08-15,1,,,,,イーミック,0
1439,6120003027304,新規,0,2024-08-15,2024-08-15,合同会社Ｙ’ｓ　ｃｒａｆｔ,,合同会社,大阪府,寝屋川市,点野２丁目７番４号,,27,215,5720077,,,,,,,2024-08-15,1,,,,,ワイズクラフト,0
1440,6120101070156,新規,0,2024-08-15,2024-08-15,株式会社ファースト,,株式会社,大阪府,堺市南区,野々井２５番地,,27,145,5900155,,,,,,,2024-08-15,1,,,,,ファースト,0
1444,6122001038373,新規,0,2024-08-15,2024-08-15,株式会社ＫＣＹアドバイザリー,,株式会社,大阪府,東大阪市,長田東３丁目３番４５－１１１５号,,27,227,5770012,,,,,,,2024-08-15,1,,,,,ケーシーワイアドバイザリー,0
1447,6130001077507,新規,0,2024-08-15,2024-08-15,Ｋａｌｕ　Ｔｒａｖｅｌ株式会社,,株式会社,京都府,京都市東山区,大黒町通松原下る二丁目山城町２８１番地ロアンヌ清水１０２,,26,105,6050000,,,,,,,2024-08-15,1,,,,,カルトラベル,0
1451,6130003009788,新規,0,2024-08-15,2024-08-15,陽光合同会社,,合同会社,京都府,京都市上京区,中筋通石薬師下る新夷町３７７番地１,,26,102,6020843,,,,,,,2024-08-15,1,,,,,ヨウコウ,0
1461,6140003020975,新規,0,2024-08-15,2024-08-15,合同会社ＮＯＢＵＨＩ,,合同会社,兵庫県,西宮市,上田中町１７番８号,,28,204,6638134,,,,,,,2024-08-15,1,,,,,ノブヒ,0
1464,6160001026163,新規,0,2024-08-15,2024-08-15,株式会社エイトランド,,株式会社,滋賀県,近江八幡市,鷹飼町南３丁目３－８ムラタビル４Ｆ－Ａ号室,,25,204,5230898,,,,,,,2024-08-15,1,,,,,エイトランド,0
1465,6160001026171,新規,0,2024-08-15,2024-08-15,株式会社エンジョイライフ,,株式会社,滋賀県,守山市,今宿４丁目２番３４号,,25,207,5240046,,,,,,,2024-08-15,1,,,,,エンジョイライフ,0
1475,6180001162849,新規,0,2024-08-15,2024-08-15,株式会社ワクバル,,株式会社,愛知県,名古屋市中区,栄４丁目４番２５号栄メッツビル２階Ｂ号,,23,106,4600008,,,,,,,2024-08-15,1,,,,,ワクバル,0
1476,6180001162865,新規,0,2024-08-15,2024-08-15,株式会社ＹＴＣホールディングス,,株式会社,愛知県,清須市,西枇杷島町古城１丁目１２番地７,,23,233,4520001,,,,,,,2024-08-15,1,,,,,ワイティーシーホールディングス,0
1477,6180001162881,新規,0,2024-08-15,2024-08-15,株式会社セキュアハウス,,株式会社,愛知県,豊明市,三崎町高鴨１２番地５,,23,229,4701126,,,,,,,2024-08-15,1,,,,,セキュアハウス,0
1478,6180001162898,新規,0,2024-08-15,2024-08-15,ＵＮＤＥＲＴＡＫＥ株式会社,,株式会社,愛知県,清須市,春日落合２４１番地グリーンハイツＢ２０２,,23,233,4520961,,,,,,,2024-08-15,1,,,,,アンダーテイク,0
1485,6180003027216,新規,0,2024-08-15,2024-08-15,合同会社今枝,,合同会社,愛知県,丹羽郡扶桑町,大字柏森字乙西屋敷２番地,,23,362,4800103,,,,,,,2024-08-15,1,,,,,イマエダ,0
1486,6180003027232,新規,0,2024-08-15,2024-08-15,合同会社カニカム,,合同会社,愛知県,名古屋市中村区,名駅４丁目２４番５号第２森ビル４０１,,23,105,4500002,,,,,,,2024-08-15,1,,,,,カニカム,0
1487,6180003027240,新規,0,2024-08-15,2024-08-15,合同会社ＡＭ企画,,合同会社,愛知県,名古屋市北区,大我麻町３１６シトラスユノス２０２,,23,103,4620064,,,,,,,2024-08-15,1,,,,,エイエムキカク,0
1490,6180301038963,新規,0,2024-08-15,2024-08-15,加藤商事株式会社,,株式会社,愛知県,豊橋市,藤並町字相生２番地１,,23,201,4418114,,,,,,,2024-08-15,1,,,,,カトウショウジ,0
1491,6180301038971,新規,0,2024-08-15,2024-08-15,株式会社ＺＥＲＯ　ＯＮＥ,,株式会社,愛知県,豊川市,小坂井町才ノ木１２２番地６,,23,207,4410103,,,,,,,2024-08-15,1,,,,,ゼロワン,0
1492,6180303006225,新規,0,2024-08-15,2024-08-15,Ｘ‐ｅｙｅコーディネート合同会社,,合同会社,愛知県,安城市,朝日町１３番１５号,,23,212,4460031,,,,,,,2024-08-15,1,,,,,クロスアイコーディネート,0
1493,6190001031573,新規,0,2024-08-15,2024-08-15,金弥商事株式会社,,株式会社,三重県,亀山市,川崎町３１８１番地３,,24,210,5190211,,,,,,,2024-08-15,1,,,,,カナヤショウジ,0
1495,6210003001828,新規,0,2024-08-15,2024-08-15,合同会社ＭＭ’ｓ,,合同会社,福井県,福井市,二の宮２丁目３２番４８号レーベン福井二の宮ＣＲＯＳＳＦＲＯＮＴ３０５,,18,201,9100015,,,,,,,2024-08-15,1,,,,,エムエムズ,0
1507,6260001039378,新規,0,2024-08-15,2024-08-15,株式会社あいのね,,株式会社,岡山県,岡山市北区,牟佐９００番地１０,,33,101,7012141,,,,,,,2024-08-15,1,,,,,アイノネ,0
1510,6260003004859,新規,0,2024-08-15,2024-08-15,合同会社涙,,合同会社,岡山県,岡山市中区,赤田２３７番地,,33,102,7038231,,,,,,,2024-08-15,1,,,,,ナミダ,0
1513,6290001106712,新規,0,2024-08-15,2024-08-15,ＢＬＵＥ　ＣＯＬＯＲ株式会社,,株式会社,福岡県,福岡市博多区,博多駅前１丁目２３番２号ＰａｒｋＦｒｏｎｔ博多駅前１丁目５Ｆ－Ｂ,,40,132,8120011,,,,,,,2024-08-15,1,,,,,ブルーカラー,0
1514,6290001106927,新規,0,2024-08-15,2024-08-15,株式会社ａｎｄ　ｇｒｉｎ,,株式会社,福岡県,福岡市南区,野間２丁目３番１９号ＡＯビル,,40,134,8150041,,,,,,,2024-08-15,1,,,,,アンドグリン,0
1515,6290001106935,新規,0,2024-08-15,2024-08-15,株式会社ｆａｍｉｌｙ,,株式会社,福岡県,福岡市東区,香椎照葉６丁目４番３－１００１号,,40,131,8130017,,,,,,,2024-08-15,1,,,,,ファミリー,0
1516,6290001106976,新規,0,2024-08-15,2024-08-15,株式会社ＪＴＲＡＩＬ,,株式会社,福岡県,福岡市中央区,薬院３丁目１６－２６西鉄薬院ビル５Ｆ,,40,133,8100022,,,,,,,2024-08-15,1,,,,,ジェイトレイル,0
1517,6290001106984,新規,0,2024-08-15,2024-08-15,株式会社ドリームホールディングス,,株式会社,福岡県,福岡市博多区,博多駅前３丁目２３番１７号,,40,132,8120011,,,,,,,2024-08-15,1,,,,,ドリームホールディングス,0
1521,6300001013881,新規,0,2024-08-15,2024-08-15,株式会社きらく,,株式会社,佐賀県,佐賀市,開成２丁目１５番２－１０１号,,41,201,8490934,,,,,,,2024-08-15,1,,,,,キラク,0
1523,6310001019176,新規,0,2024-08-15,2024-08-15,株式会社橋本ダクト,,株式会社,長崎県,諫早市,長田町２５７１番地,,42,204,8590301,,,,,,,2024-08-15,1,,,,,ハシモトダクト,0
1528,6330001032367,新規,0,2024-08-15,2024-08-15,株式会社麗生,,株式会社,熊本県,宇土市,長浜町９・１２番地２,,43,211,8693171,,,,,,,2024-08-15,1,,,,,レイショウ,0
1531,6340001026731,新規,0,2024-08-15,2024-08-15,株式会社ＹＯＩ,,株式会社,鹿児島県,鹿児島市,呉服町６番５号マルヤガーデンズ事務棟２階,,46,201,8920826,,,,,,,2024-08-15,1,,,,,ヨイ,0
1536,6360003014229,新規,0,2024-08-15,2024-08-15,結工業合同会社,,合同会社,沖縄県,沖縄市,照屋４丁目１９番１３号２Ｆ,,47,211,9040011,,,,,,,2024-08-15,1,,,,,ユイコウギョウ,0
1547,6400001016759,新規,0,2024-08-15,2024-08-15,株式会社ＭＩＲＡＩＳＥ,,株式会社,岩手県,奥州市,水沢字寺脇３０番地２,,03,215,0230812,,,,,,,2024-08-15,1,,,,,ミレイズ,0
1552,6410003003969,新規,0,2024-08-15,2024-08-15,合同会社Ｈｅ’ｓ,,合同会社,秋田県,大館市,清水５丁目８番２４－２号プリムローズＶ２０１,,05,204,0170046,,,,,,,2024-08-15,1,,,,,ヒーズ,0
1554,6430001092483,新規,0,2024-08-15,2024-08-15,株式会社トムズホールディングス,,株式会社,北海道,札幌市中央区,南一条西１６丁目１番地３２３春野ビル３階,,01,101,0600061,,,,,,,2024-08-15,1,,,,,トムズホールディングス,0
1555,6430001092491,新規,0,2024-08-15,2024-08-15,株式会社ＦＴオフィス,,株式会社,北海道,赤平市,本町２丁目４番地５スクエアビル,,01,218,0791136,,,,,,,2024-08-15,1,,,,,エフティーオフィス,0
1556,6430003016688,新規,0,2024-08-15,2024-08-15,ウエノトランスポート合同会社,,合同会社,北海道,札幌市中央区,北一条西２７丁目３番地２０アンクルビル１階,,01,101,0640821,,,,,,,2024-08-15,1,,,,,ウエノトランスポート,0
1558,6490001010852,新規,0,2024-08-15,2024-08-15,ＧＬＯＷ株式会社,,株式会社,高知県,高知市,新本町２丁目４番２６号植田ＮＯＲＴＨビル１階,,39,201,7800062,,,,,,,2024-08-15,1,,,,,グロー,0
1560,6490003001924,新規,0,2024-08-15,2024-08-15,合同会社ちかもり事務所,,合同会社,高知県,高知市,加賀野井２丁目４番２２号,,39,201,7800032,,,,,,,2024-08-15,1,,,,,チカモリジムショ,0
1564,6700150065758,新規,0,2024-08-15,2015-10-09,日向若山牧水顕彰会,,その他,宮崎県,日向市,東郷町坪谷１２７１,,45,206,8830211,,,,,,,2015-10-09,1,,,,,ヒユウガワカヤマボクスイケンシヨウカイ,0
1572,7010001247236,新規,0,2024-08-15,2024-08-15,株式会社ＭＬＡ　ＣＲＥＡＴＩＯＮ,,株式会社,東京都,千代田区,鍛冶町２丁目９－７大貫ビル２階２,,13,101,1010044,,,,,,,2024-08-15,1,,,,,エムエルエイクリエーション,0
1573,7010001247343,新規,0,2024-08-15,2024-08-15,株式会社古松事務所,,株式会社,東京都,千代田区,外神田２丁目９番３号,,13,101,1010021,,,,,,,2024-08-15,1,,,,,フルマツジムショ,0
1574,7010001247418,新規,0,2024-08-15,2024-08-15,株式会社ＥａｓｙＮａｖｉ,,株式会社,東京都,中央区,入船１丁目３番４号,,13,102,1040042,,,,,,,2024-08-15,1,,,,,イージーナビ,0
1575,7010001247467,新規,0,2024-08-15,2024-08-15,株式会社Ｈ．Ｙ　ＪＡＰＡＮ,,株式会社,東京都,文京区,湯島１丁目１０－５,,13,105,1130034,,,,,,,2024-08-15,1,,,,,エイチワイジャパン,0
1576,7010001247483,新規,0,2024-08-15,2024-08-15,株式会社ＭＲＮ,,株式会社,東京都,千代田区,九段北４丁目２番２号桜ビル６階,,13,101,1020073,,,,,,,2024-08-15,1,,,,,エムアールエヌ,0
1577,7010001247491,新規,0,2024-08-15,2024-08-15,株式会社ＰＬＵＭ　ＫＮＯＴ,,株式会社,東京都,中央区,銀座１丁目１２番４号Ｎ＆ＥＢＬＤ．６Ｆ,,13,102,1040061,,,,,,,2024-08-15,1,,,,,プラムノット,0
1579,7010003044598,新規,0,2024-08-15,2024-08-15,ＳＴＦ合同会社,,合同会社,東京都,中央区,日本橋堀留町１丁目１０番９号ログズ日本橋堀留町ビル１０階,,13,102,1030012,,,,,,,2024-08-15,1,,,,,エスティーエフ,0
1580,7010003044607,新規,0,2024-08-15,2024-08-15,Ｔ．Ｃ．Ｃ合同会社,,合同会社,東京都,千代田区,神田須田町１丁目７番地１ウィン神田高橋ビル４階,,13,101,1010041,,,,,,,2024-08-15,1,,,,,ティーシーシー,0
1591,7010401184005,新規,0,2024-08-15,2024-08-15,株式会社ＳＷＩＴＣＨＯＮＥ,,株式会社,東京都,港区,虎ノ門１丁目１７番１号虎ノ門ヒルズビジネスタワー１５階,,13,103,1050001,,,,,,,2024-08-15,1,,,,,スイッチワン,0
1592,7010401184475,新規,0,2024-08-15,2024-08-15,株式会社ＹＮＫ,,株式会社,東京都,港区,南麻布２丁目３番１１号パークホームズ南麻布ザレジデンス５０５,,13,103,1060047,,,,,,,2024-08-15,1,,,,,ワイエヌケー,0
1593,7010401184483,新規,0,2024-08-15,2024-08-15,株式会社ａｔｏｒｉｒｉ,,株式会社,東京都,港区,北青山１丁目３番１号アールキューブ青山３階,,13,103,1070061,,,,,,,2024-08-15,1,,,,,アトリリ,0
1597,7010501052763,新規,0,2024-08-15,2024-08-15,株式会社Ｄａｗｎ,,株式会社,東京都,台東区,上野２丁目１２番２号上野池之端立田ビル２階,,13,106,1100005,,,,,,,2024-08-15,1,,,,,ドーン,0
1598,7010501052771,新規,0,2024-08-15,2024-08-15,株式会社ゼニックス,,株式会社,東京都,台東区,三筋１丁目１１番１号,,13,106,1110055,,,,,,,2024-08-15,1,,,,,ゼニックス,0
1600,7010803005056,新規,0,2024-08-15,2024-08-15,合同会社Ｓａｐｉｅｎｔ　Ｓｏｌｕｔｉｏｎｓ,,合同会社,東京都,大田区,仲六郷２丁目３６－６クレッセント多摩川センティア１０６号室,,13,111,1440055,,,,,,,2024-08-15,1,,,,,サピエントソリューションズ,0
1601,7010903009287,新規,0,2024-08-15,2024-08-15,合同会社ＫＮＧ,,合同会社,東京都,世田谷区,若林３丁目１５番３－８０６号,,13,112,1540023,,,,,,,2024-08-15,1,,,,,ケーエヌジー,0
1609,7011001164066,新規,0,2024-08-15,2024-08-15,株式会社ＬＯＹＡＬＴＩＣＳ　ＭＡＮＡＧＥＭＥＮＴ,,株式会社,東京都,渋谷区,神宮前６丁目３５番３号コープオリンピア７１６号,,13,113,1500001,,,,,,,2024-08-15,1,,,,,ロイヤリティックスマネジメント,0
1612,7011101108402,新規,0,2024-08-15,2024-08-15,株式会社Ｒｉｎｅ,,株式会社,東京都,新宿区,西新宿３丁目３番１３号西新宿水間ビル２Ｆ,,13,104,1600023,,,,,,,2024-08-15,1,,,,,リネ,0
1613,7011103014771,新規,0,2024-08-15,2024-08-15,ＫＧＴコンサルティング合同会社,,合同会社,東京都,新宿区,西新宿３丁目３番１３号西新宿水間ビル２Ｆ,,13,104,1600023,,,,,,,2024-08-15,1,,,,,ケージーティコンサルティング,0
1614,7011103014796,新規,0,2024-08-15,2024-08-15,合同会社Ｃｏｌｌｅｃｔｏｒｓ,,合同会社,東京都,新宿区,西新宿３丁目３番１３号西新宿水間ビル２Ｆ,,13,104,1600023,,,,,,,2024-08-15,1,,,,,コレクターズ,0
1615,7011201025729,新規,0,2024-08-15,2024-08-15,株式会社Ｅｗｏｒｋｓ,,株式会社,東京都,中野区,弥生町５丁目１１番３１－４０５号,,13,114,1640013,,,,,,,2024-08-15,1,,,,,イーワークス,0
1617,7011301029919,新規,0,2024-08-15,2024-08-15,株式会社フェンネル,,株式会社,東京都,杉並区,荻窪５丁目３０番１２号グローリア荻窪７１３,,13,115,1670051,,,,,,,2024-08-15,1,,,,,,0
1620,7011401026345,新規,0,2024-08-15,2024-08-15,株式会社前田デザインラボプラス一級建築士事務所,,株式会社,東京都,板橋区,中台３丁目２７番Ｅ－２０７号,,13,119,1740064,,,,,,,2024-08-15,1,,,,,マエダデザインラボプラスイッキュウケンチクシジムショ,0
1621,7011403004464,新規,0,2024-08-15,2024-08-15,アンドジェントル合同会社,,合同会社,東京都,板橋区,稲荷台２４番７号,,13,119,1730002,,,,,,,2024-08-15,1,,,,,アンドジェントル,0
1622,7011403004472,新規,0,2024-08-15,2024-08-15,合同会社あかやファーム,,合同会社,東京都,板橋区,仲町２３番１７号,,13,119,1730022,,,,,,,2024-08-15,1,,,,,アカヤファーム,0
1623,7011501031039,新規,0,2024-08-15,2024-08-15,サチエホールディングス株式会社,,株式会社,東京都,荒川区,西尾久７丁目３９番６号,,13,118,1160011,,,,,,,2024-08-15,1,,,,,サチエホールディングス,0
1624,7011501031047,新規,0,2024-08-15,2024-08-15,Ｆｏｕｒ　Ｓｅａｓｏｎｓ株式会社,,株式会社,東京都,荒川区,東尾久２丁目２番９号三祥ビル２５５,,13,118,1160012,,,,,,,2024-08-15,1,,,,,フォーシーズンズ,0
1625,7011601027977,新規,0,2024-08-15,2024-08-15,Ｋｏｎｏ　Ｋａｎａ株式会社,,株式会社,東京都,練馬区,桜台１丁目７番７－４０５号,,13,120,1760002,,,,,,,2024-08-15,1,,,,,コノカナ,0
1626,7011803006399,新規,0,2024-08-15,2024-08-15,合同会社Ｌａｕａ’ｅ,,合同会社,東京都,足立区,東和２丁目２２番１６号,,13,121,1200003,,,,,,,2024-08-15,1,,,,,ラウアエ,0
1637,7020001158465,新規,0,2024-08-15,2024-08-15,湾岸ホールディングス株式会社,,株式会社,神奈川県,横浜市保土ケ谷区,常盤台７３番地１,,14,106,2400067,,,,,,,2024-08-15,1,,,,,ワンガンホールディングス,0
1638,7020001158498,新規,0,2024-08-15,2024-08-15,株式会社Ｃｈａｌｌｅｎｇｅｒｓ,,株式会社,神奈川県,川崎市中原区,上小田中６丁目２３番１０号,,14,133,2110053,,,,,,,2024-08-15,1,,,,,チャレンジャーズ,0
1639,7020001158556,新規,0,2024-08-15,2024-08-15,株式会社Ｗｉｎ・Ｄ・ｍｉｌｌ,,株式会社,神奈川県,横浜市西区,戸部町１丁目１番地オークデンヒルズ３０２号,,14,103,2200042,,,,,,,2024-08-15,1,,,,,ウィンドミル,0
1640,7020001158589,新規,0,2024-08-15,2024-08-15,株式会社Ｄｃｌｅａｎ,,株式会社,神奈川県,横浜市戸塚区,戸塚町３９３５番地桜ハウス３０１号,,14,110,2440003,,,,,,,2024-08-15,1,,,,,ディークリーン,0
1649,7021001083018,新規,0,2024-08-15,2024-08-15,株式会社齋田通商,,株式会社,神奈川県,綾瀬市,上土棚北３丁目１５番５１号,,14,218,2521111,,,,,,,2024-08-15,1,,,,,サイダツウショウ,0
1653,7021003014887,新規,0,2024-08-15,2024-08-15,合同会社Ｔｅｒｒａｚａ,,合同会社,神奈川県,藤沢市,亀井野２８１０番８号,,14,205,2520813,,,,,,,2024-08-15,1,,,,,テラザ,0
1662,7030001161939,新規,0,2024-08-15,2024-08-15,株式会社デライト,,株式会社,埼玉県,坂戸市,泉町３丁目１０番地６レアル１０２号室,,11,239,3500231,,,,,,,2024-08-15,1,,,,,デライト,0
1663,7030001161947,新規,0,2024-08-15,2024-08-15,株式会社Ｋ・Ｎ設備,,株式会社,埼玉県,さいたま市南区,松本４丁目２番８号,,11,108,3360035,,,,,,,2024-08-15,1,,,,,ケイエヌセツビ,0
1664,7030001161963,新規,0,2024-08-15,2024-08-15,株式会社ＳＫ‐１,,株式会社,埼玉県,春日部市,緑町３丁目９番４０号,,11,214,3440063,,,,,,,2024-08-15,1,,,,,エスケーワン,0
1665,7030003024920,新規,0,2024-08-15,2024-08-15,合同会社ユリイカ,,合同会社,埼玉県,さいたま市浦和区,岸町７丁目６番１７‐１２０１号,,11,107,3300064,,,,,,,2024-08-15,1,,,,,ユリイカ,0
1667,7040001134951,新規,0,2024-08-15,2024-08-15,株式会社ｉｎｅｋｏ,,株式会社,千葉県,松戸市,本町１２番地の９ゲイツハウス５０１,,12,207,2710091,,,,,,,2024-08-15,1,,,,,イネコ,0
1668,7040003025587,新規,0,2024-08-15,2024-08-15,鈴木淳一合同会社,,合同会社,千葉県,船橋市,松が丘３丁目４７番１６号,,12,204,2740064,,,,,,,2024-08-15,1,,,,,スズキジュンイチ,0
1676,7080101024958,新規,0,2024-08-15,2024-08-15,株式会社ユーエムイー,,株式会社,静岡県,沼津市,戸田２２７７－１,,22,203,4103402,,,,,,,2024-08-15,1,,,,,ユーエムイー,0
1684,7100001037768,新規,0,2024-08-15,2024-08-15,Ｍ‐Ｃｏｎｎｅｃｔ株式会社,,株式会社,長野県,長野市,吉田３丁目２２番１号ながの東急ライフ３階,,20,201,3810043,,,,,,,2024-08-15,1,,,,,エムコネクト,0
1689,7110003005482,新規,0,2024-08-15,2024-08-15,合同会社上野ＥＳＴＡＴＥ,,合同会社,新潟県,新潟市中央区,上大川前通７番町１２４１番地１ライオンズシティ新潟８０７号,,15,103,9518068,,,,,,,2024-08-15,1,,,,,ウエノエステート,0
1690,7110003005490,新規,0,2024-08-15,2024-08-15,合同会社ＮＯ　ＮＡＭＥ,,合同会社,新潟県,新潟市北区,木崎７７６番地７,,15,101,9503304,,,,,,,2024-08-15,1,,,,,ノーネーム,0
1694,7120001267660,新規,0,2024-08-15,2024-08-15,匠将開発株式会社,,株式会社,大阪府,大阪市北区,角田町８番４７号阪急グランドビル２０Ｆ,,27,127,5300017,,,,,,,2024-08-15,1,,,,,タクショウカイハツ,0
1695,7120001267677,新規,0,2024-08-15,2024-08-15,Ｔｗｏ　Ｗｈｅｅｌｓコンサルティング株式会社,,株式会社,大阪府,大阪市北区,野崎町１番３０－５０３号,,27,127,5300055,,,,,,,2024-08-15,1,,,,,トゥーホイールズコンサルティング,0
1696,7120001267693,新規,0,2024-08-15,2024-08-15,株式会社ＬＯＲＥＩ,,株式会社,大阪府,大阪市北区,梅田２丁目５番１３号桜橋第一ビル３０４号,,27,127,5300001,,,,,,,2024-08-15,1,,,,,ローレイ,0
1697,7120001267801,新規,0,2024-08-15,2024-08-15,サイエンテックス・クリード・ジャパン株式会社,,株式会社,大阪府,大阪市西区,西本町１丁目２番４号,,27,106,5500005,,,,,,,2024-08-15,1,,,,,サイエンテックスクリードジャパン,0
1698,7120003027278,新規,0,2024-08-15,2024-08-15,キバナジャパン合同会社,,合同会社,大阪府,大阪市北区,梅田２丁目２－２ヒルトンプラザウエスト１９階,,27,127,5300001,,,,,,,2024-08-15,1,,,,,キバナジャパン,0
1699,7120003027286,新規,0,2024-08-15,2024-08-15,合同会社ＲＩＦＬＤ,,合同会社,大阪府,大阪市生野区,桃谷２丁目３番２３－４０２号,,27,116,5440034,,,,,,,2024-08-15,1,,,,,リフルド,0
1700,7120003027294,新規,0,2024-08-15,2024-08-15,ティスクエアード合同会社,,合同会社,大阪府,大阪市北区,堂島２丁目４番４号,,27,127,5300003,,,,,,,2024-08-15,1,,,,,ティスクエアード,0
1702,7120901049621,新規,0,2024-08-15,2024-08-15,株式会社Ｈａｌｅ,,株式会社,大阪府,池田市,満寿美町１３番４号,,27,204,5630041,,,,,,,2024-08-15,1,,,,,ハレ,0
1703,7120903005309,新規,0,2024-08-15,2024-08-15,西日本急配合同会社,,合同会社,大阪府,高槻市,野田３丁目１０番１８号,,27,207,5690013,,,,,,,2024-08-15,1,,,,,ニシニホンキュウハイ,0
1705,7122001038348,新規,0,2024-08-15,2024-08-15,高橋商事株式会社,,株式会社,大阪府,八尾市,旭ケ丘２丁目２８－６,,27,212,5810833,,,,,,,2024-08-15,1,,,,,タカハシショウジ,0
1706,7122001038356,新規,0,2024-08-15,2024-08-15,株式会社園園,,株式会社,大阪府,八尾市,陽光園１丁目１４番１０号,,27,212,5810086,,,,,,,2024-08-15,1,,,,,エンエン,0
1707,7122003002954,新規,0,2024-08-15,2024-08-15,合同会社ケイズ,,合同会社,大阪府,東大阪市,神田町１０－１５エスリード瓢箪山駅前１番館５０４,,27,227,5798058,,,,,,,2024-08-15,1,,,,,ケイズ,0
1712,7130001077729,新規,0,2024-08-15,2024-08-15,株式会社立岡設備,,株式会社,京都府,京都市左京区,岩倉下在地町４番地５,,26,103,6060013,,,,,,,2024-08-15,1,,,,,タツオカセツビ,0
1714,7130005017160,新規,0,2024-08-15,2024-08-15,一般社団法人日本酵素風呂協会,,その他の設立登記法人,京都府,南丹市,美山町大野文字＿地５番地２,00135960,26,213,6010772,,,,,,,2024-08-15,1,,,,,ニホンコウソブロキョウカイ,0
1721,7140001135485,新規,0,2024-08-15,2024-08-15,株式会社テンセンス,,株式会社,兵庫県,神戸市東灘区,住吉南町２丁目１２番２－３０１号,,28,101,6580041,,,,,,,2024-08-15,1,,,,,テンセンス,0
1722,7140001135535,新規,0,2024-08-15,2024-08-15,株式会社ＹＲＨ,,株式会社,兵庫県,西宮市,久出ケ谷町３番２１号,,28,204,6620077,,,,,,,2024-08-15,1,,,,,ワイアールエイチ,0
1730,7150001027500,新規,0,2024-08-15,2024-08-15,株式会社ＢＬＩＴＺ,,株式会社,奈良県,奈良市,大安寺町５１５番地パケットテラス１－Ｃ,,29,201,6308134,,,,,,,2024-08-15,1,,,,,ブリッツ,0
1731,7160001026162,新規,0,2024-08-15,2024-08-15,株式会社ＩＫＣホールディングス,,株式会社,滋賀県,彦根市,東沼波町９６３番地１,,25,202,5220027,,,,,,,2024-08-15,1,,,,,アイケーシーホールデイングス,0
1733,7170005007100,新規,0,2024-08-15,2024-08-15,一般社団法人日本Ｂｌｅｐｈａｒｏｐｌａｓｔｙ医療推進協議会,,その他の設立登記法人,和歌山県,和歌山市,有家１３１番地２,,30,201,6408316,,,,,,,2024-08-15,1,,,,,ニホンブレファロプラスティイリョウスイシンキョウギカイ,0
1740,7180001162641,新規,0,2024-08-15,2024-08-15,株式会社タレ・コネ,,株式会社,愛知県,名古屋市中村区,名駅４丁目２４番５号第２森ビル４０１,,23,105,4500002,,,,,,,2024-08-15,1,,,,,タレコネ,0
1741,7180001162831,新規,0,2024-08-15,2024-08-15,株式会社ノルドテック,,株式会社,愛知県,名古屋市天白区,平針南２丁目２６０６番地,,23,116,4680020,,,,,,,2024-08-15,1,,,,,ノルドテック,0
1742,7180001162889,新規,0,2024-08-15,2024-08-15,株式会社ＨＡＬ　Ｃｒｅａｔｉｏｎ,,株式会社,愛知県,あま市,新居屋上権現１０５ラフィーナ１０１,,23,237,4901105,,,,,,,2024-08-15,1,,,,,ハルクリエーション,0
1744,7180003027231,新規,0,2024-08-15,2024-08-15,合同会社Ｎａｉｎ,,合同会社,愛知県,稲沢市,千代３丁目７７番地３,,23,220,4928403,,,,,,,2024-08-15,1,,,,,ナイン,0
1750,7200001042824,新規,0,2024-08-15,2024-08-15,雨漏り検査株式会社,,株式会社,岐阜県,多治見市,笠原町２０４１番地の５,,21,204,5070901,,,,,,,2024-08-15,1,,,,,アマモリケンサ,0
1753,7210005010157,新規,0,2024-08-15,2024-08-15,一般社団法人真のナポリピッツァ協会ジャパン,,その他の設立登記法人,福井県,坂井市,三国町緑ケ丘４丁目１９番２１号,,18,210,9130048,,,,,,,2024-08-15,1,,,,,シンノナポリピッツァキョウカイジャパン,0
1754,7220001026164,新規,0,2024-08-15,2024-08-15,中部建物株式会社,,株式会社,石川県,野々市市,稲荷２丁目１４６番地,,17,212,9218805,,,,,,,2024-08-15,1,,,,,チュウブタテモノ,0
1756,7220003003822,新規,0,2024-08-15,2024-08-15,ＴＨＴ合同会社,,合同会社,石川県,金沢市,田上本町４丁目４０番地,,17,201,9201155,,,,,,,2024-08-15,1,,,,,ティエッチティ,0
1761,7240005015797,新規,0,2024-08-15,2024-08-15,一般社団法人農福ＣＳＶ．,,その他の設立登記法人,広島県,東広島市,西条町御薗宇３４１０番地,,34,212,7390024,,,,,,,2024-08-15,1,,,,,ノウフクシーエスブイ,0
1763,7250001020775,新規,0,2024-08-15,2024-08-15,ビオアグリ株式会社,,株式会社,山口県,山口市,中央５丁目３番１８号,,35,203,7530074,,,,,,,2024-08-15,1,,,,,ビオアグリ,0
1772,7290001106959,新規,0,2024-08-15,2024-08-15,株式会社うみもり,,株式会社,福岡県,福岡市中央区,港２丁目３番２５号,,40,133,8100075,,,,,,,2024-08-15,1,,,,,ウミモリ,0
1773,7290001106975,新規,0,2024-08-15,2024-08-15,Ｂｏｎｄ　Ｌｉｆｅ株式会社,,株式会社,福岡県,福岡市南区,大橋３丁目５－１１－１０４,,40,134,8150033,,,,,,,2024-08-15,1,,,,,ボンドライフ,0
1788,7330001032366,新規,0,2024-08-15,2024-08-15,株式会社悠雅,,株式会社,熊本県,宇土市,長浜町１０番地２,,43,211,8693171,,,,,,,2024-08-15,1,,,,,ユウガ,0
1789,7330001032374,新規,0,2024-08-15,2024-08-15,株式会社小山水産,,株式会社,熊本県,熊本市西区,沖新町４８５０番地３,,43,103,8615273,,,,,,,2024-08-15,1,,,,,オヤマスイサン,0
1793,7340001026730,新規,0,2024-08-15,2024-08-15,株式会社ワハハ,,株式会社,鹿児島県,鹿児島市,呉服町６番５号マルヤガーデンズ事務棟２階,,46,201,8920826,,,,,,,2024-08-15,1,,,,,ワハハ,0
1794,7340001026739,新規,0,2024-08-15,2024-08-15,株式会社北辰,,株式会社,鹿児島県,鹿児島市,新照院町１４番２０号,,46,201,8900016,,,,,,,2024-08-15,1,,,,,ホクシン,0
1798,7360001034062,新規,0,2024-08-15,2024-08-15,株式会社オフィスＧＯＹＡ,,株式会社,沖縄県,那覇市,壺川２丁目３番地１５・１１０１,,47,201,9000025,,,,,,,2024-08-15,1,,,,,オフィスゴヤ,0
1803,7370001051643,新規,0,2024-08-15,2024-08-15,株式会社リレーションズ,,株式会社,宮城県,登米市,米山町中津山字鍛冶屋敷１５番地３,,04,212,9870331,,,,,,,2024-08-15,1,,,,,リレーションズ,0
1804,7370001051651,新規,0,2024-08-15,2024-08-15,株式会社ｆｉｎ,,株式会社,宮城県,塩竈市,松陽台１丁目１２番９号,,04,203,9850071,,,,,,,2024-08-15,1,,,,,フィン,0
1814,7420001018827,新規,0,2024-08-15,2024-08-15,株式会社プロスパー,,株式会社,青森県,青森市,浪岡浪岡佐野２９－１８,,02,201,0380000,,,,,,,2024-08-15,1,,,,,プロスパー,0
1818,7430001092482,新規,0,2024-08-15,2024-08-15,株式会社ＳｎｏｗＰｒｏ　Ｊａｐａｎ,,株式会社,北海道,虻田郡倶知安町,ニセコひらふ一条３丁目４番８号Ｈａｎａｍｉ　Ｔｏｗｎｈｏｕｓｅ　Ｃ,,01,400,0440080,,,,,,,2024-08-15,1,,,,,スノープロジャパン,0
1821,7450001014385,新規,0,2024-08-15,2024-08-15,株式会社石田ファーム,,株式会社,北海道,旭川市,神居町共栄３００番地の３,,01,204,0708032,,,,,,,2024-08-15,1,,,,,イシダファーム,0
1825,7490003001923,新規,0,2024-08-15,2024-08-15,合同会社ｎｏｃｉｗ,,合同会社,高知県,宿毛市,平田町戸内８５８番地３コーポ岡本１０５,,39,208,7880783,,,,,,,2024-08-15,1,,,,,ノシウ,0
1827,7700150126419,新規,0,2024-08-15,2024-07-09,西川町伝統産業活性化協議会,,その他,山形県,西村山郡西川町,大字海味５１０,,06,322,9900702,,,,,,,2024-07-09,1,,,,,ニシカワマチデントウサンギヨウカツセイカキヨウギカイ,0
1836,8010001247029,新規,0,2024-08-15,2024-08-15,株式会社３３,,株式会社,東京都,中央区,日本橋室町１丁目１１番１２号,,13,102,1030022,,,,,,,2024-08-15,1,,,,,サンサン,0
1837,8010001247425,新規,0,2024-08-15,2024-08-15,株式会社ＡＷＡバイオ・オプティカルズ,,株式会社,東京都,文京区,本郷１丁目２８番１０号,,13,105,1130033,,,,,,,2024-08-15,1,,,,,アワバイオオプティカルズ,0
1838,8010001247441,新規,0,2024-08-15,2024-08-15,一緒株式会社,,株式会社,東京都,中央区,晴海２丁目３番２－２６１３号,,13,102,1040053,,,,,,,2024-08-15,1,,,,,イッショ,0
1839,8010001247490,新規,0,2024-08-15,2024-08-15,ＭｅｄｉＳｃａｎ　Ｇｌｏｂａｌ株式会社,,株式会社,東京都,中央区,銀座７丁目２番６号銀座アステルビル,,13,102,1040061,,,,,,,2024-08-15,1,,,,,メディスキャングローバル,0
1841,8010003044408,新規,0,2024-08-15,2024-08-15,Ｔｈｅ　Ｐｅａｋ　Ｓｅｒｉｅｓ　ＩＶ合同会社,,合同会社,東京都,千代田区,四番町４番地９新東京国際リーガル内,,13,101,1020081,,,,,,,2024-08-15,1,,,,,ザピークシリーズフォー,0
1842,8010003044606,新規,0,2024-08-15,2024-08-15,ＹＳプロパティ合同会社,,合同会社,東京都,文京区,小石川４丁目４番２１号,,13,105,1120002,,,,,,,2024-08-15,1,,,,,ワイエスプロパティ,0
1845,8010401184490,新規,0,2024-08-15,2024-08-15,株式会社Ｌｏａ,,株式会社,東京都,港区,芝浦４丁目１０番１－２２０１号,,13,103,1080023,,,,,,,2024-08-15,1,,,,,ロア,0
1850,8010601065739,新規,0,2024-08-15,2024-08-15,株式会社ＵＰ,,株式会社,東京都,墨田区,東向島２丁目１３番１２－８０２号,,13,107,1310032,,,,,,,2024-08-15,1,,,,,アップ,0
1851,8010603011022,新規,0,2024-08-15,2024-08-15,合同会社ＦｕｔｕｒｅＢｒｉｄｇｅ,,合同会社,東京都,江東区,古石場１丁目１０番６－２０３号,,13,108,1350045,,,,,,,2024-08-15,1,,,,,フューチャーブリッジ,0
1852,8010901055794,新規,0,2024-08-15,2024-08-15,株式会社ＭＩＲＩＭＩＲＩ,,株式会社,東京都,世田谷区,玉川１丁目１４番１号,,13,112,1580094,,,,,,,2024-08-15,1,,,,,ミリミリ,0
1853,8010903009286,新規,0,2024-08-15,2024-08-15,Ｋ　Ｐａｒｔｎｅｒｓ合同会社,,合同会社,東京都,世田谷区,池尻１丁目６番２号パズルＤ,,13,112,1540001,,,,,,,2024-08-15,1,,,,,ケーパートナーズ,0
1860,8011001164032,新規,0,2024-08-15,2024-08-15,ｍａｄｉｎ日本国際株式会社,,株式会社,東京都,目黒区,目黒本町３丁目５番９号リブレ１Ｆ,,13,110,1520002,,,,,,,2024-08-15,1,,,,,マディンニホンコクサイ,0
1861,8011001164081,新規,0,2024-08-15,2024-08-15,株式会社Ａｎｉｍａｌ,,株式会社,東京都,渋谷区,渋谷１丁目３番９号ヒューリック渋谷一丁目ビル７階,,13,113,1500002,,,,,,,2024-08-15,1,,,,,アニマル,0
1862,8011003019746,新規,0,2024-08-15,2024-08-15,合同会社Ｍａｒｔｎｅｒ　Ｊａｐａｎ,,合同会社,東京都,渋谷区,神宮前６丁目２３番４号桑野ビル２階,,13,113,1500001,,,,,,,2024-08-15,1,,,,,マートナージャパン,0
1864,8011101108418,新規,0,2024-08-15,2024-08-15,株式会社インセプション,,株式会社,東京都,新宿区,早稲田鶴巻町５７１番地１早稲田ファースト３０２室,,13,104,1620041,,,,,,,2024-08-15,1,,,,,インセプション,0
1865,8011103014713,新規,0,2024-08-15,2024-08-15,合同会社ＡｒｔｉｓｔｒｙＴｅｃｈ,,合同会社,東京都,新宿区,西新宿３丁目３番１３号西新宿水間ビル６階,,13,104,1600023,,,,,,,2024-08-15,1,,,,,アーティストリーテック,0
1866,8011103014804,新規,0,2024-08-15,2024-08-15,合同会社ＷＥＬ,,合同会社,東京都,新宿区,四谷４丁目３０番エスツウィン新宿２階,,13,104,1600004,,,,,,,2024-08-15,1,,,,,ウェル,0
1867,8011201025728,新規,0,2024-08-15,2024-08-15,ミットウェル株式会社,,株式会社,東京都,中野区,弥生町５丁目５番１号,,13,114,1640013,,,,,,,2024-08-15,1,,,,,ミットウェル,0
1870,8011401026344,新規,0,2024-08-15,2024-08-15,株式会社さくらスタイル,,株式会社,東京都,板橋区,板橋１丁目５３番７号３０８号室,,13,119,1730004,,,,,,,2024-08-15,1,,,,,サクラスタイル,0
1872,8011601027976,新規,0,2024-08-15,2024-08-15,ディーウェル株式会社,,株式会社,東京都,練馬区,田柄４丁目４２番３０－２０４号,,13,120,1790073,,,,,,,2024-08-15,1,,,,,ディーウェル,0
1873,8011801044689,新規,0,2024-08-15,2024-08-15,株式会社ＳＫハウス,,株式会社,東京都,葛飾区,鎌倉１丁目１５番６号,,13,122,1250053,,,,,,,2024-08-15,1,,,,,エスケーハウス,0
1874,8011803006398,新規,0,2024-08-15,2024-08-15,合同会社ＮＡＭＡＩ,,合同会社,東京都,足立区,南花畑２丁目２２番１２号,,13,121,1210062,,,,,,,2024-08-15,1,,,,,ナマイ,0
1880,8012703003072,新規,0,2024-08-15,2024-08-15,合同会社ｐｕｌｓｅｍ,,合同会社,東京都,西東京市,富士町５丁目７番２６号,,13,229,2020014,,,,,,,2024-08-15,1,,,,,パルセム,0
1881,8013301052998,新規,0,2024-08-15,2024-08-15,株式会社ＧＯＬＤＥＮ　ＢＥＬＬ,,株式会社,東京都,豊島区,北大塚２丁目２番１３号,,13,116,1700004,,,,,,,2024-08-15,1,,,,,ゴールデンベル,0
1887,8020001158596,新規,0,2024-08-15,2024-08-15,株式会社三起労働安全センター,,株式会社,神奈川県,横浜市磯子区,岡村７丁目３２番５号,,14,107,2350021,,,,,,,2024-08-15,1,,,,,サンキロウドウアンゼンセンター,0
1888,8020001158778,新規,0,2024-08-15,2024-08-15,株式会社ＦＹ商事,,株式会社,神奈川県,川崎市川崎区,大島上町１５番４号２０２,,14,131,2100836,,,,,,,2024-08-15,1,,,,,エフワイショウジ,0
1893,8021001082992,新規,0,2024-08-15,2024-08-15,株式会社おもてなし,,株式会社,神奈川県,大和市,中央２丁目７番３号高木ビル４Ｆ,,14,213,2420021,,,,,,,2024-08-15,1,,,,,オモテナシ,0
1894,8021003014886,新規,0,2024-08-15,2024-08-15,合同会社ＧｉｇＨｕｂ,,合同会社,神奈川県,小田原市,栄町２丁目１２番１０号ＳｑｕａｒｅＯ２－１階,,14,206,2500011,,,,,,,2024-08-15,1,,,,,ギッグハブ,0
1900,8030001161938,新規,0,2024-08-15,2024-08-15,ＲｅＢＯＲＮＳ株式会社,,株式会社,埼玉県,所沢市,小手指南４丁目２２番地の３９,,11,208,3591146,,,,,,,2024-08-15,1,,,,,リボーンズ,0
1901,8030001161954,新規,0,2024-08-15,2024-08-15,株式会社オール・スマイル・ジャパン,,株式会社,埼玉県,深谷市,田中２９０５番地１,,11,218,3691108,,,,,,,2024-08-15,1,,,,,オールスマイルジャパン,0
1902,8030001161962,新規,0,2024-08-15,2024-08-15,株式会社ＯＮＥ　ＥＩＧＨＴ,,株式会社,埼玉県,戸田市,南町１０番７号,,11,224,3350025,,,,,,,2024-08-15,1,,,,,ワンエイト,0
1903,8030001161987,新規,0,2024-08-15,2024-08-15,株式会社ＬＡＵＧＨ,,株式会社,埼玉県,熊谷市,銀座２丁目９７番地,,11,202,3600032,,,,,,,2024-08-15,1,,,,,ラフ,0
1904,8030001161995,新規,0,2024-08-15,2024-08-15,株式会社ＫＮＥＸＴ,,株式会社,埼玉県,三郷市,戸ケ崎４丁目２７４番地１,,11,237,3410044,,,,,,,2024-08-15,1,,,,,ケイネクスト,0
1910,8030003024928,新規,0,2024-08-15,2024-08-15,ＧＲＥＥＮ　ＴＥＣＨ合同会社,,合同会社,埼玉県,入間市,豊岡１丁目３番２５号半田ビル３階ＫＩＶオフィス入間Ｍ号室,,11,225,3580003,,,,,,,2024-08-15,1,,,,,グリーンテック,0
1915,8040001134950,新規,0,2024-08-15,2024-08-15,株式会社Ｔ‐Ｆｉｅｌｄ,,株式会社,千葉県,市川市,南行徳２丁目１２－６－１０１,,12,203,2720138,,,,,,,2024-08-15,1,,,,,ティーフィールド,0
1916,8040001134959,新規,0,2024-08-15,2024-08-15,株式会社小林興業,,株式会社,千葉県,千葉市花見川区,三角町２５番地６,,12,102,2620011,,,,,,,2024-08-15,1,,,,,コバヤシコウギョウ,0
1917,8040001134983,新規,0,2024-08-15,2024-08-15,株式会社写心,,株式会社,千葉県,茂原市,上永吉１５６４－４,,12,210,2970036,,,,,,,2024-08-15,1,,,,,シャシン,0
1918,8040001135008,新規,0,2024-08-15,2024-08-15,千葉国際人材開発センター株式会社,,株式会社,千葉県,柏市,船戸１６８１番地２４,,12,217,2770802,,,,,,,2024-08-15,1,,,,,チバコクサイジンザイカイハツセンター,0
1922,8050003008615,新規,0,2024-08-15,2024-08-15,合同会社ＭＭＹ,,合同会社,茨城県,鉾田市,紅葉３２９番地６６,,08,234,3111537,,,,,,,2024-08-15,1,,,,,エムエムワイ,0
1928,8080001026450,新規,0,2024-08-15,2024-08-15,株式会社ｍａｅｎｉｘ,,株式会社,静岡県,静岡市清水区,山原２９０番地４６,,22,103,4240002,,,,,,,2024-08-15,1,,,,,マエニクス,0
1931,8080101024957,新規,0,2024-08-15,2024-08-15,箕輪熔工株式会社,,株式会社,静岡県,富士宮市,大鹿窪３４１番地の３,,22,207,4190303,,,,,,,2024-08-15,1,,,,,ミノワヨウコウ,0
1933,8080105006448,新規,0,2024-08-15,2024-08-15,一般社団法人スキダマスポーツクラブ,,その他の設立登記法人,静岡県,沼津市,青野１９番地の３,,22,203,4100307,,,,,,,2024-08-15,1,,,,,スキダマスポーツクラブ,0
1938,8080401027379,新規,0,2024-08-15,2024-08-15,株式会社金路,,株式会社,静岡県,浜松市浜名区,小松２７６４番地,,22,139,4340042,,,,,,,2024-08-15,1,,,,,キンロ,0
1950,8110001038640,新規,0,2024-08-15,2024-08-15,旭ドリーム株式会社,,株式会社,新潟県,南魚沼市,雷土５０７番地,,15,226,9497228,,,,,,,2024-08-15,1,,,,,アサヒドリーム,0
1955,8120001267684,新規,0,2024-08-15,2024-08-15,株式会社マミー経理ワークス,,株式会社,大阪府,大阪市北区,梅田１丁目１１番４号,,27,127,5300001,,,,,,,2024-08-15,1,,,,,マミーケイリワークス,0
1956,8120001267750,新規,0,2024-08-15,2024-08-15,株式会社グッドアンセスター,,株式会社,大阪府,大阪市西区,京町堀２丁目１３番５号ＰＲＯＴＯ－ＩＩ３Ｃ,00135966,27,106,5500003,,,,,,,2024-08-15,1,,,,,グッドアンセスター,0
1957,8120001267775,新規,0,2024-08-15,2024-08-15,株式会社ＳＬＯＰＥ　ＵＰ　ＣＬＵＢ,,株式会社,大阪府,大阪市北区,西天満６丁目９番１０号,,27,127,5300047,,,,,,,2024-08-15,1,,,,,スロープアップクラブ,0
1958,8120001267791,新規,0,2024-08-15,2024-08-15,ＡＭＣ　ＪＡＰＡＮ株式会社,,株式会社,大阪府,大阪市中央区,南船場１丁目３－９,,27,128,5420081,,,,,,,2024-08-15,1,,,,,エーエムシージャパン,0
1959,8120001267800,新規,0,2024-08-15,2024-08-15,株式会社ＥＮ,,株式会社,大阪府,大阪市都島区,東野田三丁目２番９号,,27,102,5340000,,,,,,,2024-08-15,1,,,,,エン,0
1961,8120003027269,新規,0,2024-08-15,2024-08-15,合同会社スタジオＡＭＩ,,合同会社,大阪府,大阪市浪速区,難波中２丁目７番１６－３０２号,,27,111,5560011,,,,,,,2024-08-15,1,,,,,スタジオアミ,0
1962,8120005024495,新規,0,2024-08-15,2024-08-15,一般社団法人日本食品自動化協会,,その他の設立登記法人,大阪府,大阪市東淀川区,東中島１丁目１７番５号ステュディオ新大阪,,27,114,5330033,,,,,,,2024-08-15,1,,,,,ニホンショクヒンジドウカキョウカイ,0
1964,8120101070138,新規,0,2024-08-15,2024-08-15,株式会社ＹＣＯ,,株式会社,大阪府,堺市南区,三原台２丁２番１－１５１０号,,27,145,5900111,,,,,,,2024-08-15,1,,,,,ワイシーオー,0
1965,8120101070146,新規,0,2024-08-15,2024-08-15,株式会社Ｙ．Ｙ．Ｙ,,株式会社,大阪府,阪南市,石田７２０番地の１,,27,232,5990221,,,,,,,2024-08-15,1,,,,,ワイワイワイ,0
1966,8120103006008,新規,0,2024-08-15,2024-08-15,合同会社虹色,,合同会社,大阪府,松原市,天美東９丁目４番２９－３０３号,,27,217,5800032,,,,,,,2024-08-15,1,,,,,ニジイロ,0
1969,8120901049604,新規,0,2024-08-15,2024-08-15,Ｑｕｉｒｅｓ株式会社,,株式会社,大阪府,摂津市,鳥飼和道１丁目１７番９号,,27,224,5660073,,,,,,,2024-08-15,1,,,,,クイレス,0
1970,8120901049620,新規,0,2024-08-15,2024-08-15,株式会社Ｌｉｎｏ,,株式会社,大阪府,豊中市,緑丘１丁目１０番１０の２号,,27,203,5600002,,,,,,,2024-08-15,1,,,,,リノ,0
1971,8120901049629,新規,0,2024-08-15,2024-08-15,株式会社ミライヒカル,,株式会社,大阪府,吹田市,古江台２丁目５番１０号,,27,205,5650874,,,,,,,2024-08-15,1,,,,,ミライヒカル,0
1972,8122001038355,新規,0,2024-08-15,2024-08-15,株式会社杉本設備工業,,株式会社,大阪府,柏原市,古町１丁目７番３３号,,27,221,5820008,,,,,,,2024-08-15,1,,,,,スギモトセツビコウギョウ,0
1975,8130003009778,新規,0,2024-08-15,2024-08-15,合同会社Ｇ・Ｌ・Ｐ,,合同会社,京都府,京田辺市,宮津佐牙垣内１０５番地３,,26,211,6100314,,,,,,,2024-08-15,1,,,,,ジーエルピー,0
1977,8140001135534,新規,0,2024-08-15,2024-08-15,株式会社ＣｏＣｏｒｔｅ,,株式会社,兵庫県,神戸市中央区,元町通２丁目９番１号元町プラザ６０１－Ａ号,,28,110,6500022,,,,,,,2024-08-15,1,,,,,ココルタ,0
1980,8160001026161,新規,0,2024-08-15,2024-08-15,株式会社洗車次郎,,株式会社,滋賀県,湖南市,下田３３６９番地５,,25,211,5203201,,,,,,,2024-08-15,1,,,,,センシャジロウ,0
1986,8180001162814,新規,0,2024-08-15,2024-08-15,株式会社Ｖｅｉｎ,,株式会社,愛知県,知多市,梅が丘２丁目１４４番地の１,,23,224,4780016,,,,,,,2024-08-15,1,,,,,ヴェイン,0
1987,8180001162822,新規,0,2024-08-15,2024-08-15,株式会社ＳｐａｒｋＶｉｓｔａ,,株式会社,愛知県,名古屋市西区,名駅２丁目３４番１７号セントラル名古屋１１０１号,,23,104,4510045,,,,,,,2024-08-15,1,,,,,スパークヴィスタ,0
1988,8180001162839,新規,0,2024-08-15,2024-08-15,株式会社オームス,,株式会社,愛知県,常滑市,虹の丘１丁目２８番地,,23,216,4790849,,,,,,,2024-08-15,1,,,,,オームス,0
1989,8180001162855,新規,0,2024-08-15,2024-08-15,株式会社タナプラ,,株式会社,愛知県,北名古屋市,六ツ師山の神６０番地,,23,234,4810001,,,,,,,2024-08-15,1,,,,,タナプラ,0
1990,8180001162863,新規,0,2024-08-15,2024-08-15,ＸＡｉＴ株式会社,,株式会社,愛知県,一宮市,大和町妙興寺２８００番地,,23,203,4910922,,,,,,,2024-08-15,1,,,,,サイト,0
1991,8180001162871,新規,0,2024-08-15,2024-08-15,株式会社エバーティス,,株式会社,愛知県,名古屋市天白区,植田西３丁目４０２番地,,23,116,4680058,,,,,,,2024-08-15,1,,,,,エバーティス,0
1992,8180001162905,新規,0,2024-08-15,2024-08-15,株式会社ＷＡ,,株式会社,愛知県,日進市,栄４丁目１３０７番地グランドハイツ日進４０１,,23,230,4700113,,,,,,,2024-08-15,1,,,,,ダブルエー,0
1997,8180003027239,新規,0,2024-08-15,2024-08-15,合同会社ＮＳ　ＪＡＰＡＮ,,合同会社,愛知県,弥富市,鯏浦町浦六１番地１グリーンハイツＡ棟１０５号室,,23,235,4980021,,,,,,,2024-08-15,1,,,,,エヌエスジャパン,0
1998,8180301038961,新規,0,2024-08-15,2024-08-15,株式会社ＳＣホールディングス,,株式会社,愛知県,豊橋市,東小田原町２８番地,,23,201,4400886,,,,,,,2024-08-15,1,,,,,エスシーホールディングス,0
2001,8180303006223,新規,0,2024-08-15,2024-08-15,合同会社ライフガーディアン,,合同会社,愛知県,岡崎市,能見町９５番地１,,23,202,4440061,,,,,,,2024-08-15,1,,,,,ライフガーディアン,0
2005,8200003006470,新規,0,2024-08-15,2024-08-15,合同会社ＴＯＤＡＹ,,合同会社,岐阜県,高山市,国府町広瀬町１１４６番地１０,,21,203,5094119,,,,,,,2024-08-15,1,,,,,トゥデイ,0
2006,8200005013655,新規,0,2024-08-15,2024-08-15,一般社団法人むすびの手,,その他の設立登記法人,岐阜県,美濃加茂市,本郷町７丁目７番１２号,,21,211,5050027,,,,,,,2024-08-15,1,,,,,ムスビノテ,0
2008,8210001019878,新規,0,2024-08-15,2024-08-15,株式会社ＴＨＥ　ＴＨＥＡＴＥＲ,,株式会社,福井県,福井市,石盛町９１８番地,,18,201,9100122,,,,,,,2024-08-15,1,,,,,ザシアター,0
2010,8220003003821,新規,0,2024-08-15,2024-08-15,合同会社ウキクサ,,合同会社,石川県,河北郡内灘町,字アカシア１丁目１２６番地,,17,365,9200273,,,,,,,2024-08-15,1,,,,,ウキクサ,0
2028,8290001106958,新規,0,2024-08-15,2024-08-15,株式会社レジューム,,株式会社,福岡県,久留米市,宮ノ陣４丁目２９番１１号,,40,203,8390801,,,,,,,2024-08-15,1,,,,,レジューム,0
2029,8290001106974,新規,0,2024-08-15,2024-08-15,株式会社みくら,,株式会社,福岡県,福岡市南区,高宮４丁目９番２４号,,40,134,8150083,,,,,,,2024-08-15,1,,,,,ミクラ,0
2030,8290003015703,新規,0,2024-08-15,2024-08-15,合同会社ＳＫ企画,,合同会社,福岡県,糟屋郡宇美町,ゆりが丘１丁目１１番１４号,,40,341,8112108,,,,,,,2024-08-15,1,,,,,エスケイキカク,0
2032,8290803004814,新規,0,2024-08-15,2024-08-15,合同会社北九州市民硬式野球クラブ,,合同会社,福岡県,北九州市八幡東区,祇園１丁目１番８－３０２号,00135968,40,108,8050067,,,,,,,2024-08-15,1,,,,,キタキュウシュウシミンコウシキヤツウクラブ,0
2036,8340001026738,新規,0,2024-08-15,2024-08-15,ランドワークス不動産株式会社,,株式会社,鹿児島県,鹿児島市,坂元町４９番３５号,,46,201,8920862,,,,,,,2024-08-15,1,,,,,ランドワークスフドウサン,0
2041,8350001019146,新規,0,2024-08-15,2024-08-15,ＦＥＲＮＡ株式会社,,株式会社,宮崎県,宮崎市,橘通西３丁目１番１１号にしたちビル２階,,45,201,8800001,,,,,,,2024-08-15,1,,,,,フェルナ,0
2045,8370001051642,新規,0,2024-08-15,2024-08-15,株式会社開成技建,,株式会社,宮城県,名取市,美田園５丁目２６番地の４ドリームキャンパス１－２０１,,04,207,9811217,,,,,,,2024-08-15,1,,,,,カイセイギケン,0
2046,8370001051650,新規,0,2024-08-15,2024-08-15,株式会社アゴッグ,,株式会社,宮城県,仙台市泉区,七北田字古内１１９番４８号,,04,105,9813131,,,,,,,2024-08-15,1,,,,,アゴッグ,0
2057,8430001092498,新規,0,2024-08-15,2024-08-15,株式会社ＮＳＬ道南,,株式会社,北海道,札幌市東区,東苗穂三条３丁目１番３１号,,01,103,0070803,,,,,,,2024-08-15,1,,,,,エヌエスエルドウナン,0
2058,8430003016686,新規,0,2024-08-15,2024-08-15,リファインサッポロ合同会社,,合同会社,北海道,札幌市東区,東雁来町３５３番地５２,,01,103,0070820,,,,,,,2024-08-15,1,,,,,リファインサッポロ,0
2059,8430005015042,新規,0,2024-08-15,2024-08-15,農事組合法人翼運送,,その他の設立登記法人,北海道,札幌市豊平区,豊平四条３丁目３番１０－８０２号,,01,105,0620904,,,,,,,2024-08-15,1,,,,,ツバサウンソウ,0
2063,8490001010850,新規,0,2024-08-15,2024-08-15,Ｍ．Ｈｏｍｅ株式会社,,株式会社,高知県,高知市,高見町２３７番地,,39,201,7808027,,,,,,,2024-08-15,1,,,,,エムホーム,0
2076,9010001247382,新規,0,2024-08-15,2024-08-15,Ｐｏｉｎｔ　Ｍｏｂｉｌｅ　Ｊａｐａｎ株式会社,,株式会社,東京都,千代田区,大手町１丁目５番１号大手町ファーストスクエアイーストタワー４Ｆ,,13,101,1000004,,,,,,,2024-08-15,1,,,,,ポイントモバイルジャパン,0
2077,9010001247399,新規,0,2024-08-15,2024-08-15,株式会社アポロ技研,,株式会社,東京都,中央区,日本橋富沢町１６番５号日本橋ＳＧビル４階,,13,102,1030006,,,,,,,2024-08-15,1,,,,,アポロギケン,0
2078,9010001247408,新規,0,2024-08-15,2024-08-15,サンライズ株式会社,,株式会社,東京都,千代田区,神田須田町１丁目７番地８ＶＯＲＴ秋葉原ＩＶ２Ｆ,00135957,13,101,1010041,,,,,,,2024-08-15,1,,,,,サンライズ,0
2079,9010001247424,新規,0,2024-08-15,2024-08-15,株式会社ロンドフィルム,,株式会社,東京都,中央区,銀座１丁目１２番４号Ｎ＆ＥＢＬＤ．６Ｆ,,13,102,1040061,,,,,,,2024-08-15,1,,,,,ロンドフィルム,0
2080,9010001247449,新規,0,2024-08-15,2024-08-15,ＮＡＯＭＩ　ｐｒｏｐｅｒｔｙ株式会社,,株式会社,東京都,千代田区,麹町３丁目１－８メイゾン麹町８０１号室,00135955,13,101,1020083,,,,,,,2024-08-15,1,,,,,ナオミプロパティ,0
2081,9010001247481,新規,0,2024-08-15,2024-08-15,株式会社ワステート,,株式会社,東京都,中央区,銀座１丁目１２－４Ｎ＆Ｅ．ＢＬＤ．７Ｆ,,13,102,1040061,,,,,,,2024-08-15,1,,,,,ワステート,0
2082,9010001247523,新規,0,2024-08-15,2024-08-15,株式会社クローバー,,株式会社,東京都,千代田区,大手町１丁目６番１号,,13,101,1000004,,,,,,,2024-08-15,1,,,,,クローバー,0
2086,9010003044407,新規,0,2024-08-15,2024-08-15,Ｔｈｅ　Ｐｅａｋ　Ｓｅｒｉｅｓ　ＩＩＩ合同会社,,合同会社,東京都,千代田区,四番町４番地９新東京国際リーガル内,,13,101,1020081,,,,,,,2024-08-15,1,,,,,ザピークシリーズスリー,0
2087,9010003044588,新規,0,2024-08-15,2024-08-15,合同会社ＰＧＣ１号,,合同会社,東京都,中央区,日本橋人形町３丁目１０番１号,,13,102,1030013,,,,,,,2024-08-15,1,,,,,ピージーシーイチゴウ,0
2088,9010003044596,新規,0,2024-08-15,2024-08-15,ＲｙＦｉ合同会社,,合同会社,東京都,中央区,日本橋室町１丁目１１－１２日本橋水野ビル７階,,13,102,1030022,,,,,,,2024-08-15,1,,,,,ライファイ,0
2089,9010003044605,新規,0,2024-08-15,2024-08-15,ＣｙｂｅｒＶｉｓｉｏｎ合同会社,,合同会社,東京都,中央区,築地２丁目１０番２号ＪＰ－ＢＡＳＥ築地駅前７階,,13,102,1040045,,,,,,,2024-08-15,1,,,,,サイバービジョン,0
2090,9010003044621,新規,0,2024-08-15,2024-08-15,ｉ‐ｙｏｕｒ合同会社,,合同会社,東京都,中央区,八丁堀４丁目８番７－３０１号,,13,102,1040032,,,,,,,2024-08-15,1,,,,,アイユア,0
2091,9010005038638,新規,0,2024-08-15,2024-08-15,特定非営利活動法人旅とくらしの共感樂舎,,その他の設立登記法人,東京都,千代田区,東神田１丁目１番７号,,13,101,1010031,,,,,,,2024-08-15,1,,,,,タビトクラシノキョウカンガクシャ,0
2099,9010501052753,新規,0,2024-08-15,2024-08-15,ギミック株式会社,,株式会社,東京都,台東区,寿１丁目１番９号スカイハイツ１００１,,13,106,1110042,,,,,,,2024-08-15,1,,,,,ギミック,0
2103,9010803005062,新規,0,2024-08-15,2024-08-15,ＬＩＮＫＡＧＥ合同会社,,合同会社,東京都,大田区,田園調布本町２７－７リバーハイツ４０５号,,13,111,1450072,,,,,,,2024-08-15,1,,,,,リンケージ,0
2104,9010903009285,新規,0,2024-08-15,2024-08-15,合同会社Ｓｔｉｌｌ＆Ｙｅｔ,,合同会社,東京都,世田谷区,豪徳寺１丁目２０番１４号,,13,112,1540021,,,,,,,2024-08-15,1,,,,,スティルアンドイエット,0
2105,9010903009293,新規,0,2024-08-15,2024-08-15,合同会社アスピカ,,合同会社,東京都,世田谷区,深沢６丁目１９番９号カルム桜新町Ｂ２０３,,13,112,1580081,,,,,,,2024-08-15,1,,,,,アスピカ,0
2112,9011001163909,新規,0,2024-08-15,2024-08-15,ＴＫ＆Ｋ株式会社,,株式会社,東京都,目黒区,中町１丁目２５－２５,,13,110,1530065,,,,,,,2024-08-15,1,,,,,ティーケーアンドケー,0
2113,9011001164097,新規,0,2024-08-15,2024-08-15,株式会社Ｍ．Ｗ．Ｖｉｏｌｅｔｔｅ,,株式会社,東京都,渋谷区,渋谷２丁目１９番１５号宮益坂ビルディング６０９,,13,113,1500002,,,,,,,2024-08-15,1,,,,,エムダブリューヴィオレット,0
2114,9011003019778,新規,0,2024-08-15,2024-08-15,合同会社ｎｙｕｕｎ,,合同会社,東京都,目黒区,自由が丘２丁目１６番１２号ＲＪ３,,13,110,1520035,,,,,,,2024-08-15,1,,,,,ニューン,0
2118,9011101108342,新規,0,2024-08-15,2024-08-15,和漢薬品株式会社,,株式会社,東京都,新宿区,山吹町３５４トライポート１０１号室,,13,104,1620801,,,,,,,2024-08-15,1,,,,,ワカンヤクヒン,0
2119,9011101108383,新規,0,2024-08-15,2024-08-15,株式会社ＦＰソリューションズ,,株式会社,東京都,新宿区,新宿５丁目１８－２０ルックハイツ新宿８０３,,13,104,1600022,,,,,,,2024-08-15,1,,,,,エフピーソリューションズ,0
2120,9011101108400,新規,0,2024-08-15,2024-08-15,株式会社ｐｅｒｉｄｏｔ,,株式会社,東京都,新宿区,新宿１丁目１７－５ミノワビル６Ｆ,,13,104,1600022,,,,,,,2024-08-15,1,,,,,ペリドット,0
2121,9011103014803,新規,0,2024-08-15,2024-08-15,合同会社ＡＸＥＬ,,合同会社,東京都,新宿区,西新宿８丁目８番１６号,,13,104,1600023,,,,,,,2024-08-15,1,,,,,エクセル,0
2123,9011403004479,新規,0,2024-08-15,2024-08-15,合同会社Ｌｉａｎ,,合同会社,東京都,板橋区,高島平１丁目６７番７号,,13,119,1750082,,,,,,,2024-08-15,1,,,,,リアン,0
2127,9011801044696,新規,0,2024-08-15,2024-08-15,ＧＳ株式会社,,株式会社,東京都,足立区,本木１丁目４番２６号,,13,121,1230853,,,,,,,2024-08-15,1,,,,,ジーエス,0
2129,9012403006713,新規,0,2024-08-15,2024-08-15,合同会社カノンファクトリー,,合同会社,東京都,府中市,是政４丁目４番地の２２,,13,206,1830014,,,,,,,2024-08-15,1,,,,,カノンファクトリー,0
2130,9012701018402,新規,0,2024-08-15,2024-08-15,Ｓｔａｒ　Ｒｏｏｆ株式会社,,株式会社,東京都,東久留米市,滝山５丁目２２番８号,,13,222,2030033,,,,,,,2024-08-15,1,,,,,スタールーフ,0
2138,9020001158570,新規,0,2024-08-15,2024-08-15,Ｃ＆Ｂ株式会社,,株式会社,神奈川県,川崎市幸区,下平間２３４番地１０幸区下平間ルートホビー２号室,,14,132,2120053,,,,,,,2024-08-15,1,,,,,シーアンドビー,0
2139,9020001158686,新規,0,2024-08-15,2024-08-15,株式会社ロングタームビジョン,,株式会社,神奈川県,横浜市中区,本牧三之谷２０―５,,14,104,2310824,,,,,,,2024-08-15,1,,,,,ロングタームビジョン,0
2140,9020001158728,新規,0,2024-08-15,2024-08-15,株式会社丹乃実,,株式会社,神奈川県,横浜市金沢区,能見台３丁目１４番地１１,,14,108,2360057,,,,,,,2024-08-15,1,,,,,タンノミ,0
2145,9020003026734,新規,0,2024-08-15,2024-08-15,エムワイエンタープライズ合同会社,,合同会社,神奈川県,川崎市高津区,下作延５丁目１番２０－１１７号,,14,134,2130033,,,,,,,2024-08-15,1,,,,,エムワイエンタープライズ,0
2147,9021001082975,新規,0,2024-08-15,2024-08-15,株式会社ＢｉｒｔｈＡｓｓｅｔＣｏｎｓｕｌｔｉｎｇ,,株式会社,神奈川県,鎌倉市,七里ガ浜東２丁目２１―１１,,14,204,2480025,,,,,,,2024-08-15,1,,,,,バースアセットコンサルティング,0
2148,9021001082983,新規,0,2024-08-15,2024-08-15,株式会社ムナカタ電工,,株式会社,神奈川県,綾瀬市,寺尾釜田３丁目１番５－１号,,14,218,2521135,,,,,,,2024-08-15,1,,,,,ムナカタデンコウ,0
2149,9021001083008,新規,0,2024-08-15,2024-08-15,株式会社ＳＥＡ‐Ｅａｇｌｅ,,株式会社,神奈川県,藤沢市,藤沢６０７番地の１,,14,205,2510052,,,,,,,2024-08-15,1,,,,,シーイーグル,0
2150,9021001083024,新規,0,2024-08-15,2024-08-15,ＦＯＵＮＤＹＯＵ株式会社,,株式会社,神奈川県,大和市,草柳１丁目１９番地９田園リビングマート１０号室,,14,213,2420026,,,,,,,2024-08-15,1,,,,,ファンウンドユー,0
2157,9030001161904,新規,0,2024-08-15,2024-08-15,株式会社Ｔａｒｔｉｅｎｓ,,株式会社,埼玉県,川口市,本町２丁目３番１７号,,11,203,3320012,,,,,,,2024-08-15,1,,,,,タルティアン,0
2158,9030001161920,新規,0,2024-08-15,2024-08-15,株式会社コエクスペリティ,,株式会社,埼玉県,川口市,戸塚東２丁目２５番１４号,,11,203,3330802,,,,,,,2024-08-15,1,,,,,コエクスペリティ,0
2159,9030001161937,新規,0,2024-08-15,2024-08-15,株式会社ＧＬＯＲＩＯＵＳ,,株式会社,埼玉県,越谷市,南越谷２丁目６番３０－２０６号,,11,222,3430845,,,,,,,2024-08-15,1,,,,,グロリアス,0
2160,9030001161961,新規,0,2024-08-15,2024-08-15,株式会社松土総業,,株式会社,埼玉県,東松山市,大字岡２１５番地９,,11,212,3550001,,,,,,,2024-08-15,1,,,,,マツドソウギョウ,0
2161,9030001161978,新規,0,2024-08-15,2024-08-15,ＷｉＬＬ建設株式会社,,株式会社,埼玉県,幸手市,大字上高野１３１２番地６,,11,240,3400155,,,,,,,2024-08-15,1,,,,,ウィルケンセツ,0
2164,9030003024910,新規,0,2024-08-15,2024-08-15,ＲＯＹＴＥＫ　Ｊａｐａｎ合同会社,,合同会社,埼玉県,八潮市,大瀬４丁目８番地１シティテラス八潮２５８,,11,234,3400822,,,,,,,2024-08-15,1,,,,,ロイテックジャパン,0
2165,9030003024919,新規,0,2024-08-15,2024-08-15,合同会社８,,合同会社,埼玉県,草加市,八幡町１２６３番地９,,11,221,3400006,,,,,,,2024-08-15,1,,,,,エイト,0
2166,9030003024927,新規,0,2024-08-15,2024-08-15,ＢＡＲＯＮ合同会社,,合同会社,埼玉県,川越市,新富町１丁目１番地６－５０３,,11,201,3500043,,,,,,,2024-08-15,1,,,,,バロン,0
2170,9040001134958,新規,0,2024-08-15,2024-08-15,ＭＳＫ株式会社,,株式会社,千葉県,茂原市,上茂原１２６番地９,,12,210,2970052,,,,,,,2024-08-15,1,,,,,エムエスケイ,0
2171,9040001134966,新規,0,2024-08-15,2024-08-15,株式会社ＡＲＴ,,株式会社,千葉県,佐倉市,臼井田２３８４番地１,,12,212,2850861,,,,,,,2024-08-15,1,,,,,アート,0
2172,9040001134982,新規,0,2024-08-15,2024-08-15,株式会社ワーカホリック,,株式会社,千葉県,柏市,大島田５４５－２,,12,217,2770922,,,,,,,2024-08-15,1,,,,,ワーカホリック,0
2176,9050001055204,新規,0,2024-08-15,2024-08-15,株式会社Ｌａｎｄｅｒ開発,,株式会社,茨城県,水戸市,笠原町１１８９番地２グリーンヒル西野ビル２階,,08,201,3100852,,,,,,,2024-08-15,1,,,,,ランダーカイハツ,0
2177,9050001055253,新規,0,2024-08-15,2024-08-15,株式会社西丸損害調査サービス,,株式会社,茨城県,水戸市,平須町１８２８番地の４６８,,08,201,3100853,,,,,,,2024-08-15,1,,,,,ニシマルソンガイチョウササービス,0
2181,9050003008614,新規,0,2024-08-15,2024-08-15,ＦｉｎａｎｃｅＴｅｃｈ合同会社,,合同会社,茨城県,龍ケ崎市,久保台４丁目１－５ライフヒルズ星の郷南２－１０２,,08,208,3010001,,,,,,,2024-08-15,1,,,,,ファイナンステック,0
2184,9070003005551,新規,0,2024-08-15,2024-08-15,合同会社ＶＵ　ＴＩＮコーポレーション,,合同会社,群馬県,太田市,宝町５５１番地,,10,205,3730042,,,,,,,2024-08-15,1,,,,,ブティンコーポレーション,0
2186,9080001026441,新規,0,2024-08-15,2024-08-15,ＦｏｒＹｏｕ　Ｓ株式会社,,株式会社,静岡県,静岡市葵区,吉野町４番７号,,22,101,4200046,,,,,,,2024-08-15,1,,,,,フォーユーエス,0
2188,9080005007636,新規,0,2024-08-15,2024-08-15,一般財団法人静岡市土地等利活用推進公社,,その他の設立登記法人,静岡県,静岡市葵区,追手町５番１号,,22,101,4200853,,,,,,,2024-08-15,1,,,,,シズオカシトチトウリカツヨウスイシンコウシャ,0
2193,9100001037725,新規,0,2024-08-15,2024-08-15,ヒーローズジャパン株式会社,,株式会社,長野県,上田市,常磐城２丁目９番１６号,,20,203,3860027,,,,,,,2024-08-15,1,,,,,ヒーローズジャパン,0
2198,9110001038607,新規,0,2024-08-15,2024-08-15,株式会社Ｍｙｂａｓｅ,,株式会社,新潟県,三条市,駒込８８,,15,204,9550156,,,,,,,2024-08-15,1,,,,,マイベイス,0
2199,9110001038648,新規,0,2024-08-15,2024-08-15,株式会社ＴＴ‐ｃｏｎｎｅｃｔ,,株式会社,新潟県,見附市,学校町１丁目２番３０号,,15,211,9540052,,,,,,,2024-08-15,1,,,,,ティーティーコネクト,0
2200,9110003005489,新規,0,2024-08-15,2024-08-15,合同会社ＬＣカンパニー,,合同会社,新潟県,新発田市,島潟１９０２番地,,15,206,9570011,,,,,,,2024-08-15,1,,,,,エルシーカンパニー,0
2205,9120001267733,新規,0,2024-08-15,2024-08-15,ＬＵＸＴＡＲ株式会社,,株式会社,大阪府,大阪市北区,梅田２丁目４番９号,,27,127,5300001,,,,,,,2024-08-15,1,,,,,ラクスター,0
2206,9120001267758,新規,0,2024-08-15,2024-08-15,アイエスＴＥＣ株式会社,,株式会社,大阪府,大阪市西淀川区,福町２丁目３０番３２号,,27,113,5550034,,,,,,,2024-08-15,1,,,,,アイエステック,0
2207,9120001267774,新規,0,2024-08-15,2024-08-15,株式会社ＡＳＳＥＣＯＭマテリアル,,株式会社,大阪府,大阪市西区,江戸堀１丁目２３番１９－１００３号,,27,106,5500002,,,,,,,2024-08-15,1,,,,,エスコムマテリアル,0
2208,9120001267790,新規,0,2024-08-15,2024-08-15,株式会社ＳＡＫＯＮ,,株式会社,大阪府,大阪市東成区,東小橋３丁目１９番１８号,,27,115,5370024,,,,,,,2024-08-15,1,,,,,サコン,0
2213,9120101070137,新規,0,2024-08-15,2024-08-15,株式会社ＷＯＯＤＢＡＳＥ・Ｄ,,株式会社,大阪府,松原市,若林１丁目４番３号,,27,217,5800001,,,,,,,2024-08-15,1,,,,,ウッドベースディ,0
2216,9120901049611,新規,0,2024-08-15,2024-08-15,株式会社ＧＲＡＮＣＹ,,株式会社,大阪府,箕面市,小野原西５丁目８番６号セブンハイツ０３０１,,27,220,5620032,,,,,,,2024-08-15,1,,,,,グランシイ,0
2217,9120901049628,新規,0,2024-08-15,2024-08-15,株式会社ＰｕｒｅＣｕｒｅ,,株式会社,大阪府,茨木市,玉櫛２丁目１７番２４号ホライゾン４０２号,,27,211,5670895,,,,,,,2024-08-15,1,,,,,プレキュア,0
2218,9122001038354,新規,0,2024-08-15,2024-08-15,ファレス株式会社,,株式会社,大阪府,東大阪市,長田西２丁目５番１号,,27,227,5770016,,,,,,,2024-08-15,1,,,,,ファレス,0
2222,9130001077710,新規,0,2024-08-15,2024-08-15,株式会社レイブリ,,株式会社,京都府,京都市下京区,七条通油小路東入大黒町２２７番地,,26,106,6008223,,,,,,,2024-08-15,1,,,,,レイブリ,0
2225,9140001135483,新規,0,2024-08-15,2024-08-15,Ｑ．Ｓ．Ｔ株式会社,,株式会社,兵庫県,姫路市,東延末２６４番地,,28,201,6700965,,,,,,,2024-08-15,1,,,,,キューエスティー,0
2226,9140001135517,新規,0,2024-08-15,2024-08-15,株式会社ＶＩＰｖｉｌｌａｇｅ,,株式会社,兵庫県,神戸市中央区,新港町１３番２－９０２号,,28,110,6500041,,,,,,,2024-08-15,1,,,,,ビップヴィレッジ,0
2227,9140001135525,新規,0,2024-08-15,2024-08-15,株式会社Ｐｕｒａ　Ｖｉｄａ,,株式会社,兵庫県,川西市,栄町１番２号,,28,217,6660033,,,,,,,2024-08-15,1,,,,,プーラビーダ,0
2228,9140001135541,新規,0,2024-08-15,2024-08-15,株式会社メモリ,,株式会社,兵庫県,西宮市,市庭町５－２１ｚｅｒｏＩｃｈｉｎｉｗａ２０１,,28,204,6620975,,,,,,,2024-08-15,1,,,,,メモリ,0
2231,9170001018272,新規,0,2024-08-15,2024-08-15,みかんのみっちゃん農園株式会社,,株式会社,和歌山県,有田郡有田川町,大字市場７７番地,,30,366,6430144,,,,,,,2024-08-15,1,,,,,ミカンノミッチャンノウエン,0
2235,9180001162821,新規,0,2024-08-15,2024-08-15,株式会社代和,,株式会社,愛知県,名古屋市天白区,古川町２２番地の４,,23,116,4680046,,,,,,,2024-08-15,1,,,,,ダイワ,0
2236,9180001162854,新規,0,2024-08-15,2024-08-15,株式会社トラストリンク,,株式会社,愛知県,名古屋市港区,港楽１丁目１番港楽ハイツ５号棟１階１０３号室,,23,111,4550014,,,,,,,2024-08-15,1,,,,,トラストリンク,0
2237,9180001162870,新規,0,2024-08-15,2024-08-15,株式会社ウィルステイト,,株式会社,愛知県,名古屋市中川区,吉津３丁目１５１９番地,,23,110,4540981,,,,,,,2024-08-15,1,,,,,ウィルステイト,0
2238,9180001162879,新規,0,2024-08-15,2024-08-15,株式会社ＥＮＶＩＯＵＳ,,株式会社,愛知県,名古屋市天白区,古川町４４番地の３,,23,116,4680046,,,,,,,2024-08-15,1,,,,,エンビアス,0
2239,9180001162904,新規,0,2024-08-15,2024-08-15,株式会社ＯＲＡＲＩＣＨ,,株式会社,愛知県,日進市,浅田町笹原８番地１３６,,23,230,4700124,,,,,,,2024-08-15,1,,,,,オーラリッチ,0
2240,9180001162920,新規,0,2024-08-15,2024-08-15,株式会社テラコル,,株式会社,愛知県,名古屋市中村区,名駅３丁目４－１０アルティメイト名駅１ｓｔ２階,,23,105,4500002,,,,,,,2024-08-15,1,,,,,テラコル,0
2246,9180003027221,新規,0,2024-08-15,2024-08-15,合同会社えんりんく,,合同会社,愛知県,春日井市,神屋町６５４－２９１,,23,206,4800304,,,,,,,2024-08-15,1,,,,,エンリンク,0
2248,9180303006230,新規,0,2024-08-15,2024-08-15,合同会社Ｓｕｒｇｅ,,合同会社,愛知県,岡崎市,美合町字つむぎ東１１番地８,,23,202,4440802,,,,,,,2024-08-15,1,,,,,サージ,0
2249,9180305009603,新規,0,2024-08-15,2024-08-15,一般財団法人ＭＧ　ＲＡＩＳＥ,,その他の設立登記法人,愛知県,豊橋市,中岩田５丁目３番地１２,,23,201,4400832,,,,,,,2024-08-15,1,,,,,エムジーライズ,0
2253,9200005013654,新規,0,2024-08-15,2024-08-15,一般社団法人ドリームハウス,,その他の設立登記法人,岐阜県,各務原市,三井北町３丁目６１番地（コーポアミー２Ｈ）,,21,213,5040956,,,,,,,2024-08-15,1,,,,,ドリームハウス,0
2254,9210001019877,新規,0,2024-08-15,2024-08-15,株式会社高島質店,00135956,株式会社,福井県,鯖江市,水落町３丁目１０番２５号,,18,207,9160022,,,,,,,2024-08-15,1,,,,,タカシマシチテン,0
2267,9260003004864,新規,0,2024-08-15,2024-08-15,倉敷ミニマート合同会社,,合同会社,岡山県,倉敷市,老松町５丁目１番２９号,,33,202,7100826,,,,,,,2024-08-15,1,,,,,クラシキミニマート,0
2271,9290001106908,新規,0,2024-08-15,2024-08-15,株式会社小川設備,,株式会社,福岡県,福岡市東区,下原３丁目１９番１１－１号,,40,131,8130002,,,,,,,2024-08-15,1,,,,,オガワセツビ,0
2272,9290001106949,新規,0,2024-08-15,2024-08-15,株式会社ＵｎｉｔｙＰｌｕｓ,,株式会社,福岡県,福岡市中央区,大手門３丁目７番１３－４０１号,,40,133,8100074,,,,,,,2024-08-15,1,,,,,ユニティープラス,0
2274,9290003015702,新規,0,2024-08-15,2024-08-15,ＦＡＳＳ合同会社,,合同会社,福岡県,福岡市中央区,天神２丁目２番１２号Ｔ＆Ｊビルディング７Ｆ,,40,133,8100001,,,,,,,2024-08-15,1,,,,,エフエーエスエス,0
2284,9330001032364,新規,0,2024-08-15,2024-08-15,株式会社一丸水産,,株式会社,熊本県,宇土市,長浜町１２５番地２,,43,211,8693171,,,,,,,2024-08-15,1,,,,,カズマルスイサン,0
2286,9330003010517,新規,0,2024-08-15,2024-08-15,合同会社ノジリ,,合同会社,熊本県,八代郡氷川町,若洲７７番地,,43,468,8694813,,,,,,,2024-08-15,1,,,,,ノジリ,0
2290,9340001026720,新規,0,2024-08-15,2024-08-15,株式会社Ｓ‐Ｇａｒｄｅｎ,,株式会社,鹿児島県,肝属郡肝付町,前田４０３２番地２２,,46,492,8931206,,,,,,,2024-08-15,1,,,,,エスガーデン,0
2294,9350001019145,新規,0,2024-08-15,2024-08-15,株式会社ＭＪ,,株式会社,宮崎県,都城市,上長飯町１７６番地８,,45,202,8850042,,,,,,,2024-08-15,1,,,,,エムジェイ,0
2301,9360001034069,新規,0,2024-08-15,2024-08-15,ＹＫシステムズ株式会社,,株式会社,沖縄県,南城市,玉城字當山８９－３,,47,215,9010612,,,,,,,2024-08-15,1,,,,,ワイケイシステムズ,0
2308,9400001016756,新規,0,2024-08-15,2024-08-15,株式会社千葉タイヤ商会,,株式会社,岩手県,遠野市,青笹町糠前４地割３０番地７,,03,208,0280501,,,,,,,2024-08-15,1,,,,,チバタイヤショウカイ,0
2309,9410001013918,新規,0,2024-08-15,2024-08-15,株式会社大和,,株式会社,秋田県,秋田市,手形字扇田５５番地５,,05,201,0100851,,,,,,,2024-08-15,1,,,,,,0
2311,9430001092497,新規,0,2024-08-15,2024-08-15,株式会社ＮＳＬ道北,,株式会社,北海道,札幌市東区,東苗穂三条３丁目１番３１号,,01,103,0070803,,,,,,,2024-08-15,1,,,,,エヌエスエルドウホク,0
2315,9430005015041,新規,0,2024-08-15,2024-08-15,農事組合法人ファームつばさ,,その他の設立登記法人,北海道,札幌市豊平区,豊平四条３丁目３番１０－８０２号,,01,105,0620904,,,,,,,2024-08-15,1,,,,,ファームツバサ,0
2318,9470001020347,新規,0,2024-08-15,2024-08-15,株式会社ナカムラ,,株式会社,香川県,高松市,中央町１番１１号,,37,201,7600007,,,,,,,2024-08-15,1,,,,,ナカムラ,0
2320,9700150125567,新規,0,2024-08-15,2024-05-24,豊川コミュニティ推進協議会,,その他,秋田県,潟上市,昭和豊川船橋字鈴木８－１,,05,211,0181413,,,,,,,2024-05-24,1,,,,,トヨカワコミユニテイスイシンキヨウギカイ,0
2321,9700150126549,新規,0,2024-08-15,2024-07-26,京都府宅建政治連盟,,その他,京都府,京都市上京区,中立売通室町西入三丁町４５３番地３,,26,102,6020915,,,,,,,2024-07-26,1,,,,,キヨウトフタツケンセイジレンメイ,0
2322,9700150126739,新規,0,2024-08-15,2024-08-15,ＩＶＰ　Ａｄｖｉｓｏｒｙ　Ｃｏ．，Ｌｔｄ．,,外国会社等,,,,,,,,ＰＯ　Ｂｏｘ　３０９，Ｕｇｌａｎｄ　Ｈｏｕｓｅ，Ｇｒａｎｄ　Ｃａｙｍａｎ，ＫＹ１－１１０４,,,,,,2024-08-15,1,,,,,アイブイピーアドバイザリー,0
