sequenceNumber,corporateNumber,process,correct,updateDate,changeDate,name,nameImageId,kind,prefectureName,cityName,streetNumber,addressImageId,prefectureCode,cityCode,postCode,addressOutside,addressOutsideImageId,closeDate,closeCause,successorCorporateNumber,changeCause,assignmentDate,latest,enName,enPrefectureName,enCityName,enAddressOutside,furigana,hihyoji
5,1010001255665,新規,0,2025-06-05,2025-06-05,株式会社セントラルキャピタル,,株式会社,東京都,中央区,日本橋浜町３丁目１９番１０－５０５号,,13,102,1030007,,,,,,,2025-06-05,1,,,,,セントラルキャピタル,0
6,1010001255731,新規,0,2025-06-05,2025-06-05,エンデバー・ユナイテッド・パートナーズ・４０株式会社,,株式会社,東京都,千代田区,丸の内２丁目５番１号丸の内二丁目ビル６階,,13,101,1000005,,,,,,,2025-06-05,1,,,,,エンデバーユナイテッドパートナーズフォーティー,0
8,1010003047607,新規,0,2025-06-05,2025-06-05,Ｙａｍａｇａｎｏ　ＪＶ合同会社,,合同会社,東京都,千代田区,霞が関３丁目２番６号東京倶楽部ビルディング１１階,,13,101,1000013,,,,,,,2025-06-05,1,,,,,ヤマガノジェイブイ,0
9,1010005040147,新規,0,2025-06-05,2025-06-05,ＰＡＴＲＩＺＩＡ　ＭＦ４一般社団法人,,その他の設立登記法人,東京都,千代田区,丸の内１丁目４番１号東京共同会計事務所内,,13,101,1000005,,,,,,,2025-06-05,1,,,,,パトリシアエムエフフォー,0
16,1010401190669,新規,0,2025-06-05,2025-06-05,株式会社Ｓｔａｙ　Ｆｏｕｒ,,株式会社,東京都,港区,高輪３丁目１９番４６号高輪ハウス２０２号,,13,103,1080074,,,,,,,2025-06-05,1,,,,,ステイフォー,0
17,1010401190685,新規,0,2025-06-05,2025-06-05,オルカ株式会社,,株式会社,東京都,港区,虎ノ門１丁目１７番１号,,13,103,1050001,,,,,,,2025-06-05,1,,,,,オルカ,0
19,1010403035260,新規,0,2025-06-05,2025-06-05,合同会社テント,,合同会社,東京都,港区,白金６丁目４番３号,,13,103,1080072,,,,,,,2025-06-05,1,,,,,テント,0
22,1010501054179,新規,0,2025-06-05,2025-06-05,株式会社ＡＲＴ　ＵＥＤＹ,,株式会社,東京都,台東区,蔵前１丁目５番９－９０２号,,13,106,1110051,,,,,,,2025-06-05,1,,,,,アートウエディー,0
23,1010603011607,新規,0,2025-06-05,2025-06-05,災害・海外リスク総研合同会社,,合同会社,東京都,江東区,有明３丁目７番２６号,,13,108,1350063,,,,,,,2025-06-05,1,,,,,サイガイカイガイリスクソウケン,0
26,1010801036141,新規,0,2025-06-05,2025-06-05,株式会社シェパードキャピタルアドバイザーズ,,株式会社,東京都,大田区,山王４丁目２８番６号山王テラスハウスＡ,,13,111,1430023,,,,,,,2025-06-05,1,,,,,シェパードキャピタルアドバイザーズ,0
28,1010901057442,新規,0,2025-06-05,2025-06-05,株式会社Ｔａｋｅ　Ｉｔ　Ｃｌｅｖｅｒ,,株式会社,東京都,世田谷区,弦巻２丁目３４－１６,,13,112,1540016,,,,,,,2025-06-05,1,,,,,テイクイットクレバー,0
29,1010901057475,新規,0,2025-06-05,2025-06-05,株式会社Ｎｏｆｔｙ　Ｃｏｎｓｕｌｔｉｎｇ,,株式会社,東京都,世田谷区,野毛３丁目１８番１－２０１号,,13,112,1580092,,,,,,,2025-06-05,1,,,,,ノフティーコンサルティング,0
31,1010903009846,新規,0,2025-06-05,2025-06-05,合同会社アシスト,,合同会社,東京都,世田谷区,三軒茶屋２丁目１４―１２,,13,112,1540024,,,,,,,2025-06-05,1,,,,,アシスト,0
39,1011001169871,新規,0,2025-06-05,2025-06-05,株式会社Ｓｔｏｒｅｅｅｌ,,株式会社,東京都,渋谷区,恵比寿西２丁目８番４号ＥＸ恵比寿西ビル５階,,13,113,1500021,,,,,,,2025-06-05,1,,,,,ストリール,0
40,1011003021700,新規,0,2025-06-05,2025-06-05,合同会社デザインハウスダブルエス,,合同会社,東京都,渋谷区,道玄坂１丁目１０番８号渋谷道玄坂東急ビル２Ｆ－Ｃ,,13,113,1500043,,,,,,,2025-06-05,1,,,,,デザインハウスダブルエス,0
41,1011003021824,新規,0,2025-06-05,2025-06-05,合同会社Ｍｏｌｅ　Ａｕｄｉｏ,,合同会社,東京都,渋谷区,富ヶ谷２丁目１２番７号ラペジブル５階,,13,113,1510063,,,,,,,2025-06-05,1,,,,,モールオーディオ,0
48,1011101111956,新規,0,2025-06-05,2025-06-05,普世価値株式会社,,株式会社,東京都,新宿区,北新宿４丁目２１番３号１０７号室,,13,104,1690074,,,,,,,2025-06-05,1,,,,,フセカチ,0
53,1011301030626,新規,0,2025-06-05,2025-06-05,ａｉｎｏｗａマリッジ株式会社,,株式会社,東京都,杉並区,高円寺南４丁目２６番１６号,,13,115,1660003,,,,,,,2025-06-05,1,,,,,アイノワマリッジ,0
56,1011403004718,新規,0,2025-06-05,2025-06-05,合同会社Ｍ．Ｒ．Ｃ,,合同会社,東京都,板橋区,栄町２８番１４号,,13,119,1730015,,,,,,,2025-06-05,1,,,,,エムアールシー,0
57,1011501032158,新規,0,2025-06-05,2025-06-05,みやび株式会社,,株式会社,東京都,北区,浮間１丁目１－１４,,13,117,1150051,,,,,,,2025-06-05,1,,,,,ミヤビ,0
60,1011703004269,新規,0,2025-06-05,2025-06-05,ＮＥＮＥ　ＫＡＫＥ合同会社,,合同会社,東京都,江戸川区,東葛西２丁目２０－１９ｐｒｅｍｉｅｒＩＩ－１０１,00139453,13,123,1340084,,,,,,,2025-06-05,1,,,,,ネネカケ,0
63,1011801046246,新規,0,2025-06-05,2025-06-05,千旺株式会社,,株式会社,東京都,葛飾区,堀切４丁目８番１２－３０１号,,13,122,1240006,,,,,,,2025-06-05,1,,,,,チオウ,0
64,1011801046270,新規,0,2025-06-05,2025-06-05,株式会社エス・スタイル,,株式会社,東京都,葛飾区,西水元３丁目６番８号,,13,122,1250031,,,,,,,2025-06-05,1,,,,,エススタイル,0
65,1011803006891,新規,0,2025-06-05,2025-06-05,合同会社エステートマネジメント,,合同会社,東京都,葛飾区,青戸１丁目１０番１６号,,13,122,1250062,,,,,,,2025-06-05,1,,,,,エステートマネジメント,0
66,1012303002167,新規,0,2025-06-05,2025-06-05,シーアンドシー合同会社,,合同会社,東京都,町田市,山崎町１４８３山崎団地８‐８‐３０１,,13,209,1950074,,,,,,,2025-06-05,1,,,,,シーアンドシー,0
67,1012401043195,新規,0,2025-06-05,2025-06-05,株式会社Ｙ‐ＳＰＩＲＩＴ,,株式会社,東京都,小金井市,東町４丁目６番１６－２０６号,,13,210,1840011,,,,,,,2025-06-05,1,,,,,ワイスピリット,0
70,1012701018905,新規,0,2025-06-05,2025-06-05,株式会社インクルビジョン,,株式会社,東京都,小平市,学園東町４５７番地の１０,,13,211,1870043,,,,,,,2025-06-05,1,,,,,インクルビジョン,0
71,1012703003285,新規,0,2025-06-05,2025-06-05,Ｒｉｃｈｉ‐ｃｏ合同会社,,合同会社,東京都,東村山市,恩多町２丁目１２番地３４,,13,213,1890011,,,,,,,2025-06-05,1,,,,,リチコ,0
74,1013301054373,新規,0,2025-06-05,2025-06-05,天佑株式会社,,株式会社,東京都,豊島区,東池袋３丁目２２番２１－１１０８号,,13,116,1700013,,,,,,,2025-06-05,1,,,,,テンユウ,0
85,1020001163181,新規,0,2025-06-05,2025-06-05,株式会社リノテック,,株式会社,神奈川県,横浜市瀬谷区,阿久和東３丁目３７番地１３,,14,114,2460023,,,,,,,2025-06-05,1,,,,,リノテック,0
86,1020001163198,新規,0,2025-06-05,2025-06-05,株式会社ＢＯＫＵＲＡ,,株式会社,神奈川県,横浜市金沢区,谷津町１３番地ミルモディ金沢文庫２０１号,,14,108,2360016,,,,,,,2025-06-05,1,,,,,ボクラ,0
87,1020001163207,新規,0,2025-06-05,2025-06-05,Ｎテクノ株式会社,,株式会社,神奈川県,川崎市幸区,柳町５７番地ディアスタ川崎柳町１１０２,,14,132,2120015,,,,,,,2025-06-05,1,,,,,エヌテクノ,0
88,1020001163248,新規,0,2025-06-05,2025-06-05,株式会社マルチワークス,,株式会社,神奈川県,横浜市瀬谷区,阿久和西１丁目１０番地１エクレール三ツ境２０２,,14,114,2460025,,,,,,,2025-06-05,1,,,,,マルチワークス,0
92,1020003028614,新規,0,2025-06-05,2025-06-05,合同会社Ｍｏｆｕｍｅａｌ,,合同会社,神奈川県,横浜市神奈川区,幸ケ谷４８番地,,14,102,2210051,,,,,,,2025-06-05,1,,,,,モフミール,0
93,1020003028622,新規,0,2025-06-05,2025-06-05,日本音楽教育連盟合同会社,,合同会社,神奈川県,川崎市川崎区,宮前町２番２号川崎エヌズビル８階,,14,131,2100012,,,,,,,2025-06-05,1,,,,,ニホンオンガクキョウイクレンメイ,0
101,1021001085449,新規,0,2025-06-05,2025-06-05,株式会社ＷＯＯＴ,,株式会社,神奈川県,相模原市中央区,田名２９４９番地９,,14,152,2520244,,,,,,,2025-06-05,1,,,,,ウート,0
102,1021001085473,新規,0,2025-06-05,2025-06-05,株式会社ＯＣＨＩＡＩ,,株式会社,神奈川県,茅ヶ崎市,旭が丘８番２２号,,14,207,2530026,,,,,,,2025-06-05,1,,,,,オチアイ,0
107,1030001166893,新規,0,2025-06-05,2025-06-05,株式会社ＳＷＩＳＨ,,株式会社,埼玉県,川口市,元郷１丁目１番３０－５０２号ビーサイト,,11,203,3320011,,,,,,,2025-06-05,1,,,,,スウィッシュ,0
108,1030001166910,新規,0,2025-06-05,2025-06-05,マスター株式会社,,株式会社,埼玉県,久喜市,高柳２３０７番地の１,,11,232,3491125,,,,,,,2025-06-05,1,,,,,マスター,0
109,1030001166919,新規,0,2025-06-05,2025-06-05,株式会社フジクーラー,,株式会社,埼玉県,春日部市,銚子口１２０１番地１１,,11,214,3440013,,,,,,,2025-06-05,1,,,,,フジクーラー,0
110,1030001166927,新規,0,2025-06-05,2025-06-05,株式会社ライフホーム,,株式会社,埼玉県,草加市,青柳８丁目２２番４６号,,11,221,3400002,,,,,,,2025-06-05,1,,,,,ライフホーム,0
111,1030001166951,新規,0,2025-06-05,2025-06-05,株式会社財津不動産,,株式会社,埼玉県,さいたま市緑区,美園５丁目４５番地５－１０５,,11,109,3360967,,,,,,,2025-06-05,1,,,,,ザイツフドウサン,0
113,1030003026856,新規,0,2025-06-05,2025-06-05,Ｅｉｍｅａ合同会社,,合同会社,埼玉県,川口市,大字道合３７番地の１８,,11,203,3330835,,,,,,,2025-06-05,1,,,,,エメア,0
114,1030005022184,新規,0,2025-06-05,2025-06-05,特定非営利活動法人キュアスターツナウジャパン,,その他の設立登記法人,埼玉県,所沢市,大字上安松９５７番地の７,,11,208,3590025,,,,,,,2025-06-05,1,,,,,キュアスターツナウジャパン,0
117,1040001139080,新規,0,2025-06-05,2025-06-05,Ｎｅｘｔｈｒｉｖｅ株式会社,,株式会社,千葉県,千葉市稲毛区,小仲台２丁目６番１号京成稲毛ビル２階,,12,103,2630043,,,,,,,2025-06-05,1,,,,,ネクスライブ,0
119,1050001056754,新規,0,2025-06-05,2025-06-05,株式会社春光園,,株式会社,茨城県,潮来市,日の出２丁目７番地２,,08,223,3112423,,,,,,,2025-06-05,1,,,,,シュンコウエン,0
120,1050001056770,新規,0,2025-06-05,2025-06-05,株式会社ＡＣＥ　ＴＥＣ,,株式会社,茨城県,笠間市,南小泉６６６番地,,08,216,3091725,,,,,,,2025-06-05,1,,,,,,0
122,1060003005584,新規,0,2025-06-05,2025-06-05,ＧＲＯＯＭＥＲＳ合同会社,,合同会社,栃木県,那須塩原市,太夫塚１丁目１９５渡辺住宅団地３号,,09,213,3292735,,,,,,,2025-06-05,1,,,,,グルーマーズ,0
125,1080001026969,新規,0,2025-06-05,2025-06-05,株式会社デコラエイト,,株式会社,静岡県,静岡市葵区,下８７１番地の５,,22,101,4212108,,,,,,,2025-06-05,1,,,,,デコラエイト,0
139,1100001038672,新規,0,2025-06-05,2025-06-05,株式会社ＩＤワークス,,株式会社,長野県,長野市,大字風間１８３７－１,,20,201,3810023,,,,,,,2025-06-05,1,,,,,アイディーワークス,0
150,1120001276295,新規,0,2025-06-05,2025-06-05,Ｈｉｎｏｗａ　Ｅｓｔａｔｅｓ株式会社,,株式会社,大阪府,大阪市平野区,平野馬場１丁目５番２５－３０２号,,27,126,5470048,,,,,,,2025-06-05,1,,,,,ヒノワエステート,0
151,1120001276444,新規,0,2025-06-05,2025-06-05,ＤＰＲＯ株式会社,,株式会社,大阪府,大阪市東淀川区,下新庄４丁目２０番７号Ｍ’ｓコート北大阪２階２０２号室,,27,114,5330021,,,,,,,2025-06-05,1,,,,,デープロー,0
152,1120001276477,新規,0,2025-06-05,2025-06-05,青晨株式会社,,株式会社,大阪府,大阪市西成区,千本北１丁目１０番３号１０１,,27,122,5570053,,,,,,,2025-06-05,1,,,,,セイシン,0
153,1120001276576,新規,0,2025-06-05,2025-06-05,ジャパンミライ株式会社,,株式会社,大阪府,寝屋川市,田井町４３番６号,,27,215,5720021,,,,,,,2025-06-05,1,,,,,ジャパンミライ,0
154,1120001276618,新規,0,2025-06-05,2025-06-05,株式会社Ｗｅａｔｕｒｅ,,株式会社,大阪府,大阪市北区,大深町６番３８号グラングリーン大阪北館５階,,27,127,5300011,,,,,,,2025-06-05,1,,,,,ウィーチュアー,0
157,1120101071803,新規,0,2025-06-05,2025-06-05,あにえ株式会社,,株式会社,大阪府,堺市堺区,石津町３丁２番１４号,,27,141,5900814,,,,,,,2025-06-05,1,,,,,アニエ,0
158,1120101071836,新規,0,2025-06-05,2025-06-05,株式会社鈴京ホールディングス,,株式会社,大阪府,泉大津市,田中町９番８号,,27,206,5950062,,,,,,,2025-06-05,1,,,,,スズキョウホールディングス,0
160,1120903005693,新規,0,2025-06-05,2025-06-05,合同会社モルタル企画,,合同会社,大阪府,箕面市,石丸３丁目１７番１４号,,27,220,5620027,,,,,,,2025-06-05,1,,,,,モルタルキカク,0
161,1122001039319,新規,0,2025-06-05,2025-06-05,株式会社メディカルアシスト,,株式会社,大阪府,八尾市,山城町３丁目１番５号１Ｆ,,27,212,5810801,,,,,,,2025-06-05,1,,,,,メディカルアシスト,0
162,1122001039327,新規,0,2025-06-05,2025-06-05,株式会社陽なた,,株式会社,大阪府,東大阪市,俊徳町１丁目３－７,,27,227,5770831,,,,,,,2025-06-05,1,,,,,ヒナタ,0
165,1130001079846,新規,0,2025-06-05,2025-06-05,株式会社ＢＲＢ,,株式会社,京都府,京都市西京区,大原野石作町８５２番地,,26,111,6101134,,,,,,,2025-06-05,1,,,,,ビーアールビー,0
171,1140001138782,新規,0,2025-06-05,2025-06-05,株式会社トラスト,,株式会社,兵庫県,神戸市中央区,磯上通８丁目１番２９号カサベラビルＣ＆Ｍ４０３号室,,28,110,6510086,,,,,,,2025-06-05,1,,,,,トラスト,0
172,1140001138824,新規,0,2025-06-05,2025-06-05,ｎｏｌｌ株式会社,,株式会社,兵庫県,神戸市須磨区,離宮前町２丁目６番８号,,28,107,6540065,,,,,,,2025-06-05,1,,,,,ノル,0
173,1140001138832,新規,0,2025-06-05,2025-06-05,Ｆエステート株式会社,,株式会社,兵庫県,宝塚市,米谷２丁目３番４号,,28,214,6650831,,,,,,,2025-06-05,1,,,,,エフエステート,0
178,1160001026804,新規,0,2025-06-05,2025-06-05,ラインテック株式会社,,株式会社,滋賀県,野洲市,小篠原８２６番地２０,,25,210,5202331,,,,,,,2025-06-05,1,,,,,ラインテック,0
179,1160001026812,新規,0,2025-06-05,2025-06-05,株式会社ＢｒｉｇｈｔｌｙＥａｒｔｈ,,株式会社,滋賀県,彦根市,田原町２３５番地,,25,202,5211105,,,,,,,2025-06-05,1,,,,,ブライトリーアース,0
180,1170003002224,新規,0,2025-06-05,2025-06-05,合同会社Ｍ’ｓＣｏｍｐａｎｙ,,合同会社,和歌山県,和歌山市,梶取６０番地４,,30,201,6408411,,,,,,,2025-06-05,1,,,,,エムズカンパニー,0
185,1180001167068,新規,0,2025-06-05,2025-06-05,株式会社フルサポワークス,,株式会社,愛知県,名古屋市中区,錦１丁目１７－１３名興ビル２Ｆ,,23,106,4600003,,,,,,,2025-06-05,1,,,,,フルサポワークス,0
186,1180001167084,新規,0,2025-06-05,2025-06-05,華森株式会社,,株式会社,愛知県,名古屋市昭和区,向山町１丁目５０－５メゾン・ド・スイート４０７号,,23,107,4660829,,,,,,,2025-06-05,1,,,,,ハナモリ,0
187,1180001167092,新規,0,2025-06-05,2025-06-05,ミルキー株式会社,,株式会社,愛知県,名古屋市昭和区,曙町３丁目１０番地１,,23,107,4660003,,,,,,,2025-06-05,1,,,,,ミルキー,0
188,1180001167118,新規,0,2025-06-05,2025-06-05,株式会社Ｓｈｏｊｕ,,株式会社,愛知県,名古屋市中区,錦３丁目１２番１７号内外ビル地下１階Ｂ号室,,23,106,4600003,,,,,,,2025-06-05,1,,,,,ショージュ,0
189,1180001167150,新規,0,2025-06-05,2025-06-05,株式会社ＰｒｅＯ,,株式会社,愛知県,江南市,東野町東神田１０１番地１,,23,217,4838432,,,,,,,2025-06-05,1,,,,,プレオ,0
190,1180001167159,新規,0,2025-06-05,2025-06-05,株式会社カグト,,株式会社,愛知県,名古屋市西区,比良２丁目２８４番地２,,23,104,4520802,,,,,,,2025-06-05,1,,,,,カグト,0
191,1180001167191,新規,0,2025-06-05,2025-06-05,株式会社三国,,株式会社,愛知県,小牧市,曙町３１番地３,00139454,23,219,4850047,,,,,,,2025-06-05,1,,,,,ミクニ,0
192,1180001167209,新規,0,2025-06-05,2025-06-05,株式会社Ａｋｏｒｄｓ,,株式会社,愛知県,名古屋市中村区,名駅３丁目４－１０アルティメイト名駅１ｓｔ２階,,23,105,4500002,,,,,,,2025-06-05,1,,,,,アコーズ,0
194,1180003028565,新規,0,2025-06-05,2025-06-05,合同会社モトテック,,合同会社,愛知県,北名古屋市,法成寺法師堂８番地,,23,234,4810039,,,,,,,2025-06-05,1,,,,,モトテック,0
196,1180005021114,新規,0,2025-06-05,2025-06-05,弁護士法人三輪総合法律事務所,,その他の設立登記法人,愛知県,名古屋市中村区,名駅２丁目４３番１２号東山ビル４階,,23,105,4500002,,,,,,,2025-06-05,1,,,,,ミワソウゴウホウリツジムショ,0
201,1190001032270,新規,0,2025-06-05,2025-06-05,株式会社あいりす,,株式会社,三重県,桑名市,大字蓮花寺９７９番地４,,24,205,5110854,,,,,,,2025-06-05,1,,,,,アイリス,0
202,1190001032287,新規,0,2025-06-05,2025-06-05,広株式会社,,株式会社,三重県,津市,久居北口町２６６１番地７９,,24,201,5141105,,,,,,,2025-06-05,1,,,,,ヒロ,0
207,1200003006865,新規,0,2025-06-05,2025-06-05,Ｔ．Ｏ．Ｆ．Ｔ合同会社,,合同会社,岐阜県,高山市,一之宮町４２３１,,21,203,5093505,,,,,,,2025-06-05,1,,,,,ティーオーエフティー,0
212,1230003002440,新規,0,2025-06-05,2025-06-05,合同会社トリプル,,合同会社,富山県,富山市,大町２３番地２,,16,201,9398073,,,,,,,2025-06-05,1,,,,,トリプル,0
215,1240001065018,新規,0,2025-06-05,2025-06-05,株式会社比婆肉本舗,,株式会社,広島県,庄原市,東城町竹森６６番地５,,34,210,7295126,,,,,,,2025-06-05,1,,,,,ヒバニクホンポ,0
219,1250001021176,新規,0,2025-06-05,2025-06-05,矢野建築株式会社,,株式会社,山口県,宇部市,風呂ヶ迫町７番５号,,35,202,7550095,,,,,,,2025-06-05,1,,,,,ヤノケンチク,0
220,1250001021184,新規,0,2025-06-05,2025-06-05,株式会社千石,,株式会社,山口県,長門市,仙崎１４６０番地,,35,211,7594106,,,,,,,2025-06-05,1,,,,,センゴク,0
222,1260001040266,新規,0,2025-06-05,2025-06-05,株式会社一六八,,株式会社,岡山県,岡山市北区,中山下１丁目１１－１５,,33,101,7000821,,,,,,,2025-06-05,1,,,,,イロハ,0
223,1280001009433,新規,0,2025-06-05,2025-06-05,株式会社ワダ電器,,株式会社,島根県,大田市,大田町大田ロ２５６番地２,,32,205,6940064,,,,,,,2025-06-05,1,,,,,ワダデンキ,0
229,1290803005067,新規,0,2025-06-05,2025-06-05,Ｓ．Ｌｉｎｋ　ＪＡＰＡＮ合同会社,,合同会社,福岡県,田川郡赤村,大字赤３９３８番地９,,40,609,8240431,,,,,,,2025-06-05,1,,,,,エスドットリンクジャパン,0
230,1310001019635,新規,0,2025-06-05,2025-06-05,株式会社ガイア建設工業,,株式会社,長崎県,佐世保市,江迎町長坂１４６番地２,,42,202,8596101,,,,,,,2025-06-05,1,,,,,ガイアケンセツコウギョウ,0
233,1320001021144,新規,0,2025-06-05,2025-06-05,株式会社ＧＡＴＥ,,株式会社,大分県,別府市,浜町７番１５号,,44,202,8740945,,,,,,,2025-06-05,1,,,,,ゲート,0
235,1330003011043,新規,0,2025-06-05,2025-06-05,徳永松龍園合同会社,,合同会社,熊本県,熊本市中央区,萩原町６番１号,,43,101,8600832,,,,,,,2025-06-05,1,,,,,トクナガショウリュウエン,0
238,1350001019565,新規,0,2025-06-05,2025-06-05,株式会社ＦＵＫＵＲＡ,,株式会社,宮崎県,延岡市,粟野名町１６１１番地,,45,203,8820025,,,,,,,2025-06-05,1,,,,,フクラ,0
239,1350001019573,新規,0,2025-06-05,2025-06-05,株式会社東九ファスニング,,株式会社,宮崎県,延岡市,野田１丁目１９番地３,,45,203,8820805,,,,,,,2025-06-05,1,,,,,トウキュウファスニング,0
240,1360001035306,新規,0,2025-06-05,2025-06-05,株式会社アール設備,,株式会社,沖縄県,豊見城市,字平良１０９番地１シャトレ大城２０５号,,47,212,9010212,,,,,,,2025-06-05,1,,,,,アールセツビ,0
241,1360001035314,新規,0,2025-06-05,2025-06-05,株式会社サザンクロス,,株式会社,沖縄県,石垣市,字大川１４２番地４,,47,207,9070022,,,,,,,2025-06-05,1,,,,,サザンクロス,0
243,1360003014984,新規,0,2025-06-05,2025-06-05,合同会社チエブーゲンビリア,,合同会社,沖縄県,沖縄市,南桃原３丁目２３－２,,47,211,9040035,,,,,,,2025-06-05,1,,,,,チエブーゲンビリア,0
244,1360003014992,新規,0,2025-06-05,2025-06-05,合同会社ｋｏｈａｍａ,,合同会社,沖縄県,中頭郡西原町,棚原１丁目７番地の４,,47,329,9030126,,,,,,,2025-06-05,1,,,,,コハマ,0
245,1370001052655,新規,0,2025-06-05,2025-06-05,株式会社ファクトリーグループ,,株式会社,宮城県,宮城郡利府町,赤沼字谷地２７－１,,04,406,9810101,,,,,,,2025-06-05,1,,,,,ファクトリーグループ,0
246,1370003007129,新規,0,2025-06-05,2025-06-05,合同会社ＹＪパートナーズ,,合同会社,宮城県,仙台市青葉区,二日町１７番２９号,,04,101,9800802,,,,,,,2025-06-05,1,,,,,ワイジェイパートナーズ,0
251,1400001017051,新規,0,2025-06-05,2025-06-05,株式会社アトリエ結,,株式会社,岩手県,花巻市,石鳥谷町好地第８地割９３番地８,,03,205,0283101,,,,,,,2025-06-05,1,,,,,アトリエユイ,0
253,1410003004113,新規,0,2025-06-05,2025-06-05,合同会社ｅｍｂｒａｃｅ　ａｋｉｔａ,,合同会社,秋田県,仙北市,田沢湖生保内字下高野７３番地７３ゲストハウス水沢温泉,,05,215,0141201,,,,,,,2025-06-05,1,,,,,エンブレイスアキタ,0
256,1430001094575,新規,0,2025-06-05,2025-06-05,株式会社ＮＯＲＴＨ　ＨＯＵＳＥ,,株式会社,北海道,札幌市北区,屯田七条１０丁目８番３５号,,01,102,0020857,,,,,,,2025-06-05,1,,,,,ノースハウス,0
257,1430001094583,新規,0,2025-06-05,2025-06-05,きれいサポート株式会社,,株式会社,北海道,札幌市中央区,南十条西１丁目１番地６１レオーネ中島公園５０７号,,01,101,0640810,,,,,,,2025-06-05,1,,,,,キレイサポート,0
258,1430001094600,新規,0,2025-06-05,2025-06-05,株式会社ヴェリタスゲート,,株式会社,北海道,札幌市中央区,南一条西１６丁目１番地３２３春野ビル３Ｆ,,01,101,0600061,,,,,,,2025-06-05,1,,,,,ヴェリタスゲート,0
260,1430003017732,新規,0,2025-06-05,2025-06-05,合同会社ＯｒｔｈｏＬｉｎｋ,,合同会社,北海道,札幌市中央区,北一条西２０丁目１番６－１１０２号,,01,101,0640821,,,,,,,2025-06-05,1,,,,,オーソリンク,0
267,1700150054195,新規,0,2025-06-05,2015-10-09,岡山県倉敷地区猟友会,,その他,岡山県,倉敷市,羽島１０８３,,33,202,7100043,,,,,,,2015-10-09,1,,,,,オカヤマケンクラシキチクリヨウユウカイ,0
269,2010001255623,新規,0,2025-06-05,2025-06-05,株式会社エッジスケール,,株式会社,東京都,千代田区,神田須田町１丁目７番８号ＶＯＲＴ秋葉原ＩＶ２Ｆ,00139452,13,101,1010041,,,,,,,2025-06-05,1,,,,,エッジスケール,0
270,2010001255631,新規,0,2025-06-05,2025-06-05,株式会社Ｄｅｌｉｃｉｏｕｓ　Ｃｒｅｗ,,株式会社,東京都,文京区,湯島３丁目４４番３号,,13,105,1130034,,,,,,,2025-06-05,1,,,,,デリシャスクルー,0
271,2010001255656,新規,0,2025-06-05,2025-06-05,ネクストレガシー株式会社,,株式会社,東京都,中央区,勝どき５丁目３番１－２４０７号,,13,102,1040054,,,,,,,2025-06-05,1,,,,,ネクストレガシー,0
275,2010005040162,新規,0,2025-06-05,2025-06-05,一般社団法人ＴＯＫＹＯ　Ｇｅｎｅｒａｔｉｖｅ　ＡＩ　Ｄｅｖｅｌｏｐｍｅｎｔ　Ｃｏｍｍｕｎｉｔｙ,,その他の設立登記法人,東京都,千代田区,麹町２丁目５番地１ＷｅＷｏｒｋ半蔵門ＰＲＥＸＳｏｕｔｈ２階,,13,101,1020083,,,,,,,2025-06-05,1,,,,,トウキョウジェネラティブエーアイデベロプメントコミュニティ,0
279,2010101016710,新規,0,2025-06-05,2025-06-05,株式会社ＥＶＥＲＧＲＥＥＮ,,株式会社,東京都,八王子市,館町１６８９番地８,,13,201,1930944,,,,,,,2025-06-05,1,,,,,エバーグリーン,0
290,2010401190651,新規,0,2025-06-05,2025-06-05,ＮＩＫＥＲＩＳＥ株式会社,,株式会社,東京都,港区,赤坂６丁目１０番３３－１０５号,,13,103,1070052,,,,,,,2025-06-05,1,,,,,ニケライズ,0
291,2010401190668,新規,0,2025-06-05,2025-06-05,株式会社ＨＯＵＳＥ　ＳＡＲＡＨ　ＪＡＰＡＮ,,株式会社,東京都,港区,高輪３丁目１９番４６号高輪ハウス２０２号,,13,103,1080074,,,,,,,2025-06-05,1,,,,,ハウスサラジャパン,0
292,2010401190775,新規,0,2025-06-05,2025-06-05,株式会社トリモグローバル,,株式会社,東京都,港区,虎ノ門１丁目１番１１号,,13,103,1050001,,,,,,,2025-06-05,1,,,,,トリモグローバル,0
293,2010401190783,新規,0,2025-06-05,2025-06-05,ＮＭＴ　Ｉｎｔｅｒｎａｔｉｏｎａｌ　Ｓｈｉｐｐｉｎｇ　Ｊａｐａｎ株式会社,,株式会社,東京都,港区,高輪４丁目２３番６－５０１号,,13,103,1080074,,,,,,,2025-06-05,1,,,,,エヌエムティインターナショナルシッピングジャパン,0
294,2010401190791,新規,0,2025-06-05,2025-06-05,株式会社アビエス,,株式会社,東京都,港区,港南４丁目６番８－８０４号,,13,103,1080075,,,,,,,2025-06-05,1,,,,,アビエス,0
295,2010401190809,新規,0,2025-06-05,2025-06-05,ＭＡＹＦＡＩＲ株式会社,,株式会社,東京都,港区,東麻布２丁目２２番地５号ＡＺＡＢＵＥＡＳＴＣＯＵＲＴ１Ｆ,,13,103,1060044,,,,,,,2025-06-05,1,,,,,メイフェアー,0
301,2010503007877,新規,0,2025-06-05,2025-06-05,トイフレンド合同会社,,合同会社,東京都,台東区,蔵前２丁目１番３３号,,13,106,1110051,,,,,,,2025-06-05,1,,,,,トイフレンド,0
304,2010601067402,新規,0,2025-06-05,2025-06-05,株式会社カノア・アンド・カンパニー,,株式会社,東京都,墨田区,立川１丁目９番５－４０４号,,13,107,1300023,,,,,,,2025-06-05,1,,,,,カノアアンドカンパニー,0
306,2010603011606,新規,0,2025-06-05,2025-06-05,ササキッド合同会社,,合同会社,東京都,江東区,扇橋１丁目２１番２６－１５０５号,,13,108,1350011,,,,,,,2025-06-05,1,,,,,ササキッド,0
312,2010903009993,新規,0,2025-06-05,2025-06-05,合同会社人間作業班,,合同会社,東京都,世田谷区,下馬５丁目６－２０第６４シンエイ１０４,,13,112,1540002,,,,,,,2025-06-05,1,,,,,ニンゲンサギョウハン,0
316,2011001169895,新規,0,2025-06-05,2025-06-05,株式会社ＴＰＣ,,株式会社,東京都,渋谷区,西原２丁目２６番５号,,13,113,1510066,,,,,,,2025-06-05,1,,,,,ティーピーシー,0
317,2011001170151,新規,0,2025-06-05,2025-06-05,ニューブリッジ株式会社,,株式会社,東京都,渋谷区,渋谷４丁目３番２７－６０４号,,13,113,1500002,,,,,,,2025-06-05,1,,,,,ニューブリッジ,0
319,2011003021699,新規,0,2025-06-05,2025-06-05,合同会社防災制度・運用研究会,,合同会社,東京都,渋谷区,代々木４丁目２６－１アルス代々木参宮橋コート－アデリオン２０６号室,,13,113,1510053,,,,,,,2025-06-05,1,,,,,ボウサイセイドウンヨウケンキュウカイ,0
323,2011101111947,新規,0,2025-06-05,2025-06-05,株式会社ｅｆｕｄｅ,,株式会社,東京都,新宿区,西新宿８丁目１５番３号西新宿ローヤルコーポ６０２,,13,104,1600023,,,,,,,2025-06-05,1,,,,,エフデ,0
324,2011101111955,新規,0,2025-06-05,2025-06-05,滄海株式会社,,株式会社,東京都,新宿区,北新宿４丁目５番１号橋本ビル１階,,13,104,1690074,,,,,,,2025-06-05,1,,,,,ソウカイ,0
325,2011101112037,新規,0,2025-06-05,2025-06-05,株式会社アティックワークス,,株式会社,東京都,新宿区,新宿５丁目１１番２２号中島ビル２階,,13,104,1600022,,,,,,,2025-06-05,1,,,,,アティックワークス,0
326,2011105011458,新規,0,2025-06-05,2025-06-05,ブルーインフラホールディングス１６号一般社団法人,,その他の設立登記法人,東京都,新宿区,四谷２丁目９番地１５東京ユナイテッド綜合事務所内,,13,104,1600004,,,,,,,2025-06-05,1,,,,,ブルーインフラホールディングスジュウロクゴウ,0
329,2011205002695,新規,0,2025-06-05,2025-06-05,一般社団法人刀心會体術,,その他の設立登記法人,東京都,中野区,上鷺宮５丁目８番２２号,,13,114,1650031,,,,,,,2025-06-05,1,,,,,トウシンカイタイジュツ,0
331,2011301030625,新規,0,2025-06-05,2025-06-05,タカチホ株式会社,,株式会社,東京都,杉並区,下高井戸４丁目６番２２号,,13,115,1680073,,,,,,,2025-06-05,1,,,,,タカチホ,0
333,2011501032165,新規,0,2025-06-05,2025-06-05,株式会社Ｓ＆Ｘ,,株式会社,東京都,北区,浮間１丁目１番２１－１４０３号クリオレジダンス北赤羽,,13,117,1150051,,,,,,,2025-06-05,1,,,,,エスアンドエックス,0
334,2011703004276,新規,0,2025-06-05,2025-06-05,理蒼合同会社,,合同会社,東京都,江戸川区,中葛西５丁目４１番１０号ＢＰＲプレイス葛西７階１９号室,,13,123,1340083,,,,,,,2025-06-05,1,,,,,リソウ,0
335,2011801046253,新規,0,2025-06-05,2025-06-05,株式会社ファイブスター,,株式会社,東京都,足立区,綾瀬１丁目１番１７号,,13,121,1200005,,,,,,,2025-06-05,1,,,,,ファイブスター,0
336,2012303002166,新規,0,2025-06-05,2025-06-05,合同会社Ｑ．Ｔ．,,合同会社,東京都,町田市,藤の台２丁目２番４７‐４０２,,13,209,1940039,,,,,,,2025-06-05,1,,,,,キュウティ,0
337,2012303002174,新規,0,2025-06-05,2025-06-05,合同会社ｋｒａｆｔ,,合同会社,東京都,町田市,金井３丁目８番１号,,13,209,1950072,,,,,,,2025-06-05,1,,,,,クラフト,0
341,2012703003284,新規,0,2025-06-05,2025-06-05,合同会社オフィスＨＲＭ,,合同会社,東京都,小平市,学園東町３丁目１８番１４号,,13,211,1870043,,,,,,,2025-06-05,1,,,,,オフィスエイチアールエム,0
344,2013301054307,新規,0,2025-06-05,2025-06-05,株式会社旭楓,,株式会社,東京都,豊島区,西巣鴨１丁目６番５号ジュウエル大塚６０４号,,13,116,1700001,,,,,,,2025-06-05,1,,,,,キョクフウ,0
345,2013301054364,新規,0,2025-06-05,2025-06-05,株式会社Ｒｅｂｏｕｎｃｅ,,株式会社,東京都,豊島区,池袋本町３丁目２０番９号フェリス池袋本町１０１号,,13,116,1700011,,,,,,,2025-06-05,1,,,,,リバウンス,0
346,2013301054372,新規,0,2025-06-05,2025-06-05,ＡＬＬＥＳＫＹ株式会社,,株式会社,東京都,豊島区,池袋本町３丁目３２番１５号,,13,116,1700011,,,,,,,2025-06-05,1,,,,,アレスカイ,0
347,2013303007700,新規,0,2025-06-05,2025-06-05,ＴＴＭ経営合同会社,,合同会社,東京都,豊島区,南池袋２丁目９番１２号アウルコート南池袋５０２号,,13,116,1710022,,,,,,,2025-06-05,1,,,,,ティーティーエムケイエイ,0
356,2020001163123,新規,0,2025-06-05,2025-06-05,株式会社キックファイブ,,株式会社,神奈川県,横浜市中区,石川町１丁目１３番２号,,14,104,2310868,,,,,,,2025-06-05,1,,,,,キックファイブ,0
357,2020001163180,新規,0,2025-06-05,2025-06-05,ＣＯＲＥ株式会社,,株式会社,神奈川県,横浜市中区,吉浜町１番地２パークスクエア横浜１１１８号室,,14,104,2310024,,,,,,,2025-06-05,1,,,,,コア,0
358,2020001163189,新規,0,2025-06-05,2025-06-05,株式会社ＳａｎａＤａｙｓ,,株式会社,神奈川県,川崎市中原区,小杉御殿町２丁目３２番地７ド・ミール小杉３０１,,14,133,2110068,,,,,,,2025-06-05,1,,,,,サナデイズ,0
359,2020001163197,新規,0,2025-06-05,2025-06-05,アップ商事株式会社,,株式会社,神奈川県,横浜市港北区,師岡町１１８４番地,,14,109,2220002,,,,,,,2025-06-05,1,,,,,アップショウジ,0
360,2020001163206,新規,0,2025-06-05,2025-06-05,株式会社東商事,,株式会社,神奈川県,横浜市中区,寿町３丁目９番地６東会館,,14,104,2310026,,,,,,,2025-06-05,1,,,,,アズマショウジ,0
361,2020001163222,新規,0,2025-06-05,2025-06-05,株式会社ドリームコーポレーション,,株式会社,神奈川県,横浜市戸塚区,吉田町１３８番地６,,14,110,2440817,,,,,,,2025-06-05,1,,,,,ドリームコーポレーション,0
362,2020001163247,新規,0,2025-06-05,2025-06-05,株式会社ＭＫＪラボ,,株式会社,神奈川県,横浜市戸塚区,平戸３丁目５６番１１号,,14,110,2440802,,,,,,,2025-06-05,1,,,,,エムケージェイラボ,0
363,2020001163255,新規,0,2025-06-05,2025-06-05,株式会社フロンティア,,株式会社,神奈川県,川崎市高津区,千年新町１４番地６－２０１,,14,134,2130021,,,,,,,2025-06-05,1,,,,,フロンティア,0
366,2020003028621,新規,0,2025-06-05,2025-06-05,合同会社ダルマプラン,,合同会社,神奈川県,川崎市宮前区,馬絹３丁目４－１２,,14,136,2160035,,,,,,,2025-06-05,1,,,,,ダルマプラン,0
367,2020003028646,新規,0,2025-06-05,2025-06-05,合同会社ＳＫＭＴ,,合同会社,神奈川県,川崎市高津区,久本３丁目９番１号,,14,134,2130011,,,,,,,2025-06-05,1,,,,,エスケーエムティー,0
375,2030001166785,新規,0,2025-06-05,2025-06-05,株式会社Ｊ‐ｓｈｉｐｓ,,株式会社,埼玉県,草加市,長栄３丁目３４番地１,,11,221,3400051,,,,,,,2025-06-05,1,,,,,ジェイシップス,0
376,2030001166827,新規,0,2025-06-05,2025-06-05,株式会社クレールどうぶつ眼科,,株式会社,埼玉県,さいたま市大宮区,三橋１丁目１２０１番地,,11,103,3300856,,,,,,,2025-06-05,1,,,,,クレールドウブツガンカ,0
377,2030001166851,新規,0,2025-06-05,2025-06-05,株式会社リストアホーム,,株式会社,埼玉県,日高市,大字高萩６０５番地４１,,11,242,3501213,,,,,,,2025-06-05,1,,,,,リストアホーム,0
378,2030001166959,新規,0,2025-06-05,2025-06-05,株式会社Ｐｅａｃｈ　Ｂｌｏｓｓｏｍ,,株式会社,埼玉県,吉川市,美南１丁目２２番地２,,11,243,3420038,,,,,,,2025-06-05,1,,,,,ピーチブロッサム,0
381,2030003026905,新規,0,2025-06-05,2025-06-05,合同会社経理日和,,合同会社,埼玉県,深谷市,武蔵野３９８０－１,,11,218,3691241,,,,,,,2025-06-05,1,,,,,ケイリビヨリ,0
385,2040001139088,新規,0,2025-06-05,2025-06-05,チーム・パートナー株式会社,,株式会社,千葉県,富里市,日吉倉１７３,,12,233,2860202,,,,,,,2025-06-05,1,,,,,チームパートナー,0
389,2040005022769,新規,0,2025-06-05,2025-06-05,特定非営利活動法人九十九リトルシニア野球協会,,その他の設立登記法人,千葉県,山武市,松尾町大堤４４番地２５,,12,237,2891527,,,,,,,2025-06-05,1,,,,,ツクモリトルシニアヤキュウキョウカイ,0
392,2060001038263,新規,0,2025-06-05,2025-06-05,株式会社ワイズ,,株式会社,栃木県,鹿沼市,松原３丁目２２３番地,,09,205,3220012,,,,,,,2025-06-05,1,,,,,ワイズ,0
393,2060001038271,新規,0,2025-06-05,2025-06-05,株式会社ＮＡＤＥＭＯコーポレーション,,株式会社,栃木県,栃木市,大平町富田１６３２番地１,,09,203,3294404,,,,,,,2025-06-05,1,,,,,ナデモコーポレーション,0
395,2060003005583,新規,0,2025-06-05,2025-06-05,金井農栄合同会社,,合同会社,栃木県,足利市,葉鹿町１１７番地１,,09,202,3260143,,,,,,,2025-06-05,1,,,,,カナイノウエイ,0
396,2070001042966,新規,0,2025-06-05,2025-06-05,日本守一貿易株式会社,,株式会社,群馬県,渋川市,半田１９１７番地１神野ビル２０１号室,,10,208,3770004,,,,,,,2025-06-05,1,,,,,ニホンシュイチボウエキ,0
398,2080401027962,新規,0,2025-06-05,2025-06-05,株式会社ＬＥＯ,,株式会社,静岡県,磐田市,千手堂９２１‐２,,22,211,4380057,,,,,,,2025-06-05,1,,,,,エルイーオー,0
399,2090001019310,新規,0,2025-06-05,2025-06-05,株式会社トムシ,,株式会社,山梨県,甲府市,丸の内１丁目１３番１５号,,19,201,4000031,,,,,,,2025-06-05,1,,,,,トムシ,0
400,2090005007716,新規,0,2025-06-05,2025-06-05,一般社団法人山梨県中小企業家同友会,,その他の設立登記法人,山梨県,甲府市,住吉２丁目３番２３号,,19,201,4000851,,,,,,,2025-06-05,1,,,,,,0
402,2100001038671,新規,0,2025-06-05,2025-06-05,株式会社空の家,,株式会社,長野県,須坂市,大字須坂７６５番地４常盤町ｆｌａｔー２,,20,207,3820911,,,,,,,2025-06-05,1,,,,,ソラノイエ,0
403,2100003008177,新規,0,2025-06-05,2025-06-05,合同会社明豊企画,,合同会社,長野県,東筑摩郡山形村,６０３１番地８,,20,450,3901301,,,,,,,2025-06-05,1,,,,,メイホウキカク,0
413,2120001276402,新規,0,2025-06-05,2025-06-05,日本３６０国際株式会社,,株式会社,大阪府,大阪市港区,弁天町４－１０－２１オーシャンハイツ２０１号,,27,107,5520000,,,,,,,2025-06-05,1,,,,,ニホンサンビャクロクジュウコクサイ,0
414,2120001276419,新規,0,2025-06-05,2025-06-05,宣良株式会社,,株式会社,大阪府,大阪市天王寺区,上汐３丁目８番５号グランドメゾン大阪上本町９０２号室,,27,109,5430002,,,,,,,2025-06-05,1,,,,,ノブヨシ,0
415,2120001276435,新規,0,2025-06-05,2025-06-05,和光株式会社,,株式会社,大阪府,大阪市住之江区,南港北１丁目３１－１７－１８０７号,,27,125,5590034,,,,,,,2025-06-05,1,,,,,ワコウ,0
416,2120001276476,新規,0,2025-06-05,2025-06-05,株式会社レボラボ,,株式会社,大阪府,大阪市西区,立売堀２丁目１番１４号ビジネスゾーン本町西２階,,27,106,5500012,,,,,,,2025-06-05,1,,,,,レボラボ,0
417,2120001276534,新規,0,2025-06-05,2025-06-05,株式会社ＣＨＡｉＮＯＮ,,株式会社,大阪府,守口市,梶町２丁目２３番２３号,,27,209,5700015,,,,,,,2025-06-05,1,,,,,シェノン,0
418,2120001276559,新規,0,2025-06-05,2025-06-05,呈輝株式会社,,株式会社,大阪府,大阪市都島区,中野町４丁目３番６号Ｈ２Ｈ大阪桜之宮邸５Ｅ－１,,27,102,5340027,,,,,,,2025-06-05,1,,,,,テイキ,0
419,2120001276583,新規,0,2025-06-05,2025-06-05,株式会社Ｎｅｏ　Ｔｉｇｅｒ,,株式会社,大阪府,大阪市浪速区,戎本町１丁目９番１８－１１０５号,,27,111,5560013,,,,,,,2025-06-05,1,,,,,ネオタイガー,0
420,2120001276609,新規,0,2025-06-05,2025-06-05,株式会社栄豊興業,,株式会社,大阪府,大阪市平野区,長吉長原１丁目３番１３号,,27,126,5470016,,,,,,,2025-06-05,1,,,,,エイトコウギョウ,0
421,2120001276617,新規,0,2025-06-05,2025-06-05,美宝株式会社,,株式会社,大阪府,大阪市中央区,島之内１丁目１３番３号１２０２室,,27,128,5420082,,,,,,,2025-06-05,1,,,,,ビホウ,0
422,2120003029675,新規,0,2025-06-05,2025-06-05,ＨＬＨ合同会社,,合同会社,大阪府,大阪市中央区,常盤町１丁目１－９－６０６,,27,128,5400028,,,,,,,2025-06-05,1,,,,,エッチエルエイチ,0
425,2120101071810,新規,0,2025-06-05,2025-06-05,株式会社ＡＲＣＵＳ,,株式会社,大阪府,堺市堺区,熊野町西１丁２番２２号メゾンドール堺・大小路１００１号室,,27,141,5900947,,,,,,,2025-06-05,1,,,,,アルクス,0
427,2122001039318,新規,0,2025-06-05,2025-06-05,株式会社アズマ美装,,株式会社,大阪府,東大阪市,若江東町２丁目４番２３号,,27,227,5780935,,,,,,,2025-06-05,1,,,,,アズマビソウ,0
429,2130001079820,新規,0,2025-06-05,2025-06-05,株式会社ＴＡＣダクトサービス,,株式会社,京都府,京都市伏見区,深草大亀谷万帖敷町３６９番地４２,,26,109,6120846,,,,,,,2025-06-05,1,,,,,ティーエーシーダクトサービス,0
430,2130001079837,新規,0,2025-06-05,2025-06-05,株式会社インベストハウス,,株式会社,京都府,京都市山科区,西野小柳町４１－２シカタシャンブレットＩ１０５,00139455,26,110,6078354,,,,,,,2025-06-05,1,,,,,インベストハウス,0
431,2130001079845,新規,0,2025-06-05,2025-06-05,株式会社ＩｎＫｙｏ,,株式会社,京都府,京都市北区,小山中溝町１８番地４１,,26,101,6038156,,,,,,,2025-06-05,1,,,,,インキョー,0
432,2130003010510,新規,0,2025-06-05,2025-06-05,合同会社Ｍ＆Ｃ,,合同会社,京都府,京田辺市,田辺深田２７番地,,26,211,6100331,,,,,,,2025-06-05,1,,,,,エムアンドシー,0
435,2140003022141,新規,0,2025-06-05,2025-06-05,鈴原ファイティングローゼズ合同会社,,合同会社,兵庫県,伊丹市,美鈴町３丁目１０２番地５,,28,207,6640884,,,,,,,2025-06-05,1,,,,,スズハラファイティングローゼズ,0
439,2160001026811,新規,0,2025-06-05,2025-06-05,株式会社ＳＥＭＵＩ,,株式会社,滋賀県,長浜市,山階町４５５番地３０,,25,203,5260847,,,,,,,2025-06-05,1,,,,,セムイ,0
447,2180001167075,新規,0,2025-06-05,2025-06-05,株式会社メリエム,,株式会社,愛知県,稲沢市,国府宮３丁目６番１２号,,23,220,4928137,,,,,,,2025-06-05,1,,,,,メリエム,0
448,2180001167083,新規,0,2025-06-05,2025-06-05,株式会社イークリエイト,,株式会社,愛知県,名古屋市中区,栄１丁目７番２０号,,23,106,4600008,,,,,,,2025-06-05,1,,,,,イークリイト,0
449,2180001167091,新規,0,2025-06-05,2025-06-05,株式会社すまいるコーポレーション,,株式会社,愛知県,名古屋市中区,栄２丁目１２番１２号,,23,106,4600008,,,,,,,2025-06-05,1,,,,,スマイルコーポレーション,0
450,2180001167141,新規,0,2025-06-05,2025-06-05,株式会社ＳＫクラフト,,株式会社,愛知県,あま市,甚目寺山之浦１１３番地２,,23,237,4901111,,,,,,,2025-06-05,1,,,,,エスケイクラフト,0
451,2180001167174,新規,0,2025-06-05,2025-06-05,株式会社ＫＥＹ‐ＤＯ,,株式会社,愛知県,名古屋市千種区,池下１丁目１１番２７号,,23,101,4640067,,,,,,,2025-06-05,1,,,,,キード,0
452,2180001167182,新規,0,2025-06-05,2025-06-05,ＭＯＡ株式会社,,株式会社,愛知県,名古屋市守山区,大字吉根字太鼓ケ根３２１１番地の６４,,23,113,4630004,,,,,,,2025-06-05,1,,,,,モア,0
454,2180003028572,新規,0,2025-06-05,2025-06-05,合同会社Ｇｏｏｄｙ,,合同会社,愛知県,知多市,新舞子字北西田１２－１,,23,224,4780036,,,,,,,2025-06-05,1,,,,,グッディー,0
455,2180003028580,新規,0,2025-06-05,2025-06-05,合同会社Ｎｏｂｌｅ　Ｃｏｎｎｅｃｔ,,合同会社,愛知県,名古屋市中区,栄４丁目２０番２４号栄ワールドビル３階Ａ号室,,23,106,4600008,,,,,,,2025-06-05,1,,,,,ノーブルコネクト,0
457,2180301039866,新規,0,2025-06-05,2025-06-05,株式会社ブルーリアン,,株式会社,愛知県,刈谷市,天王町１丁目４５番地,,23,210,4480824,,,,,,,2025-06-05,1,,,,,ブルーリアン,0
461,2190003005067,新規,0,2025-06-05,2025-06-05,合同会社Ｌｉｅｎ,,合同会社,三重県,四日市市,智積町６４４番地１,,24,202,5121212,,,,,,,2025-06-05,1,,,,,リアン,0
463,2200001043868,新規,0,2025-06-05,2025-06-05,株式会社アーティザン,,株式会社,岐阜県,関市,下有知４３番地１,,21,205,5013217,,,,,,,2025-06-05,1,,,,,アーティザン,0
467,2200003006856,新規,0,2025-06-05,2025-06-05,合同会社Ａｓｏｖｉｓｉｏｎ,,合同会社,岐阜県,岐阜市,美園町１丁目３０番地,,21,201,5008104,,,,,,,2025-06-05,1,,,,,アソビジョン,0
468,2200003006864,新規,0,2025-06-05,2025-06-05,Ａ＆ａ合同会社,,合同会社,岐阜県,岐阜市,金華町２丁目７番地,,21,201,5020828,,,,,,,2025-06-05,1,,,,,,0
476,2230001020939,新規,0,2025-06-05,2025-06-05,株式会社勇心運送,,株式会社,富山県,富山市,犬島６丁目２番地２３号,,16,201,9318321,,,,,,,2025-06-05,1,,,,,ユウシンウンソウ,0
478,2240001065025,新規,0,2025-06-05,2025-06-05,ＳＴ　ＣＯＬＤ株式会社,,株式会社,広島県,広島市安佐北区,白木町大字古屋４５番地,,34,106,7391302,,,,,,,2025-06-05,1,,,,,エスティコールド,0
481,2250001021183,新規,0,2025-06-05,2025-06-05,宝吉海運株式会社,,株式会社,山口県,柳井市,中央３丁目２１番３０号,,35,212,7420035,,,,,,,2025-06-05,1,,,,,ホウヨシカイウン,0
482,2260003005200,新規,0,2025-06-05,2025-06-05,ＣＡＯ　ｃｒｅａｔｉｖｅ合同会社,,合同会社,岡山県,玉野市,槌ケ原１６－１,,33,204,7060141,,,,,,,2025-06-05,1,,,,,カオクリエイティブ,0
483,2260005011485,新規,0,2025-06-05,2025-06-05,一般社団法人レアレアの会,,その他の設立登記法人,岡山県,岡山市北区,問屋町４番地１０３サーパス問屋町レジデンス１４０１,,33,101,7000977,,,,,,,2025-06-05,1,,,,,レアレアノカイ,0
494,2290801031584,新規,0,2025-06-05,2025-06-05,株式会社あるまる,,株式会社,福岡県,北九州市小倉北区,大畠３丁目１－２１,,40,106,8020026,,,,,,,2025-06-05,1,,,,,アルマル,0
495,2290801031601,新規,0,2025-06-05,2025-06-05,株式会社ＤＯＬ,,株式会社,福岡県,北九州市八幡東区,西本町３丁目６番２－１２０５号,,40,108,8050061,,,,,,,2025-06-05,1,,,,,ディーオーエル,0
497,2310001019634,新規,0,2025-06-05,2025-06-05,株式会社ＬＩＰ　ＪＡＰＡＮ,,株式会社,長崎県,諫早市,貝津町２６７３番地１０５,,42,204,8540063,,,,,,,2025-06-05,1,,,,,リップジャパン,0
500,2320001021143,新規,0,2025-06-05,2025-06-05,株式会社ユウコウ,,株式会社,大分県,大分市,大字皆春１０８番地の２コスモシティ皆春８０７,,44,201,8700131,,,,,,,2025-06-05,1,,,,,ユウコウ,0
506,2330003011042,新規,0,2025-06-05,2025-06-05,合同会社プランビードリーム,,合同会社,熊本県,熊本市中央区,迎町１丁目７－１８－１１０７,,43,101,8600817,,,,,,,2025-06-05,1,,,,,プランビードリーム,0
508,2340001027386,新規,0,2025-06-05,2025-06-05,株式会社トモニ,,株式会社,鹿児島県,鹿児島市,荒田１丁目１－２４ＧｒｅｅｎＬｉｆｅ荒田１Ｆ,,46,201,8900054,,,,,,,2025-06-05,1,,,,,トモニ,0
509,2340001027394,新規,0,2025-06-05,2025-06-05,株式会社平和工業,,株式会社,鹿児島県,鹿児島市,下伊敷３丁目７１番１７号,,46,201,8900005,,,,,,,2025-06-05,1,,,,,ヘイワコウギョウ,0
514,2360001035296,新規,0,2025-06-05,2025-06-05,株式会社プレミアムワゴンレンタカー石垣,,株式会社,沖縄県,石垣市,字真栄里１８８番地１トロピカルビューテラス２０２,,47,207,9070002,,,,,,,2025-06-05,1,,,,,プレミアムワゴンレンタカーイシガキ,0
515,2360001035305,新規,0,2025-06-05,2025-06-05,株式会社琉球リバーズ,,株式会社,沖縄県,浦添市,西原１丁目１７番１２号,,47,208,9012101,,,,,,,2025-06-05,1,,,,,リュウキュウリバーズ,0
518,2360003014991,新規,0,2025-06-05,2025-06-05,合同会社ＣＨＡＫＯＭ,,合同会社,沖縄県,うるま市,字塩屋２５８番地２・２Ｆ,,47,213,9042231,,,,,,,2025-06-05,1,,,,,チャコム,0
519,2360005007242,新規,0,2025-06-05,2025-06-05,弁護士法人アビリス法律事務所,,その他の設立登記法人,沖縄県,那覇市,泉崎２丁目１３番７号・１階,,47,201,9000021,,,,,,,2025-06-05,1,,,,,,0
523,2380001035369,新規,0,2025-06-05,2025-06-05,株式会社ナックイエスマート,,株式会社,福島県,郡山市,安積荒井３丁目１０番地,,07,203,9630117,,,,,,,2025-06-05,1,,,,,ナックイエスマート,0
527,2410003004112,新規,0,2025-06-05,2025-06-05,合同会社Ｑｕａｎｔｕｍ　Ｌｅａｐ　Ａｋｉｔａ,,合同会社,秋田県,秋田市,東通仲町２３番１１号,,05,201,0100002,,,,,,,2025-06-05,1,,,,,クオンタムリープアキタ,0
532,2430001094574,新規,0,2025-06-05,2025-06-05,ジェイソリューション株式会社,,株式会社,北海道,札幌市北区,北七条西４丁目８番地３,,01,102,0600807,,,,,,,2025-06-05,1,,,,,ジェイソリューション,0
533,2430003017731,新規,0,2025-06-05,2025-06-05,合同会社ハービックス,,合同会社,北海道,札幌市中央区,北一条西３丁目３番地ばらと北一条ビル９Ｆ－８０,,01,101,0600001,,,,,,,2025-06-05,1,,,,,ハービックス,0
535,2430005015246,新規,0,2025-06-05,2025-06-05,弁護士法人ユナイテッド・コモンズ法律事務所,,その他の設立登記法人,北海道,札幌市中央区,南一条西１０丁目４番地南大通ビルアネックス,,01,101,0600061,,,,,,,2025-06-05,1,,,,,ユナイテッドコモンズホウリツジムショ,0
536,2460003001055,新規,0,2025-06-05,2025-06-05,合同会社Ｎｉｇｈｔ　ｍａｎａｇｅｍｅｎｔ,,合同会社,北海道,釧路市,末広町５丁目５末広ビル４階,,01,206,0850014,,,,,,,2025-06-05,1,,,,,,0
541,2470001020741,新規,0,2025-06-05,2025-06-05,株式会社白峯不動産,,株式会社,香川県,坂出市,入船町１丁目３番１４号,,37,203,7620002,,,,,,,2025-06-05,1,,,,,シロミネフドウサン,0
544,2700150130929,新規,0,2025-06-05,2025-06-05,ＯＮＥＮＥＳＳ　ＦＺＣＯ,,外国会社等,,,,,,,,Ｂｕｉｌｄｉｎｇ　Ａ１，Ｄｕｂａｉ　Ｄｉｇｉｔａｌ　Ｐａｒｋ，Ｄｕｂａｉ　Ｓｉｌｉｃｏｎ　Ｏａｓｉｓ，Ｄｕｂａｉ，Ｕｎｉｔｅｄ　Ａｒａｂ　Ｅｍｉｒａｔｅｓ,,,,,,2025-06-05,1,,,,,ワンネスフリーゾーンカンパニー,0
555,3010003047555,新規,0,2025-06-05,2025-06-05,ＩＴＯ合同会社,,合同会社,東京都,中央区,新川１丁目２６番１７‐１１０３号,,13,102,1040033,,,,,,,2025-06-05,1,,,,,アイティーオー,0
556,3010003047613,新規,0,2025-06-05,2025-06-05,合同会社Ｒｏｕｔｅ３,,合同会社,東京都,千代田区,平河町１丁目６番１５号シルスフィア会計事務所内,,13,101,1020093,,,,,,,2025-06-05,1,,,,,ルートスリー,0
558,3010005040137,新規,0,2025-06-05,2025-06-05,ＤＲＥＳ２一般社団法人,,その他の設立登記法人,東京都,中央区,日本橋１丁目４番１号日本橋一丁目ビルディング,,13,102,1030027,,,,,,,2025-06-05,1,,,,,ドレスツー,0
559,3010005040145,新規,0,2025-06-05,2025-06-05,弁護士法人ＳＫ法律事務所,,その他の設立登記法人,東京都,千代田区,神田小川町３丁目２番地市村ビル４階,,13,101,1010052,,,,,,,2025-06-05,1,,,,,エスケイホウリツジムショ,0
560,3010005040153,新規,0,2025-06-05,2025-06-05,一般社団法人鹿島神傳直心影流百錬会,,その他の設立登記法人,東京都,文京区,本郷１丁目１１番８－６０４号,,13,105,1130033,,,,,,,2025-06-05,1,,,,,カシマシンデンジキシンカゲリュウヒャクレンカイ,0
568,3010401190576,新規,0,2025-06-05,2025-06-05,株式会社ＳＭＦ,,株式会社,東京都,港区,芝浦３丁目１番２１号,,13,103,1080023,,,,,,,2025-06-05,1,,,,,エスエムエフ,0
569,3010401190675,新規,0,2025-06-05,2025-06-05,株式会社ＺＩＰＡＮＧ　ｓｔｕｄｉｏ,,株式会社,東京都,港区,三田３丁目４番３号ＲＩＰＬ９Ｂ２０２,,13,103,1080073,,,,,,,2025-06-05,1,,,,,ジパングスタジオ,0
570,3010401190766,新規,0,2025-06-05,2025-06-05,株式会社アルターデザインコンサルティング,,株式会社,東京都,港区,芝浦１丁目２番３号,,13,103,1050023,,,,,,,2025-06-05,1,,,,,アルターデザインコンサルティング,0
571,3010401190782,新規,0,2025-06-05,2025-06-05,株式会社ＴＢＳ　Ｇｒｅｅｎ　Ｔｒａｎｓｆｏｒｍａｔｉｏｎ,,株式会社,東京都,港区,赤坂５丁目３番６号,,13,103,1070052,,,,,,,2025-06-05,1,,,,,ティビーエスグリーントランスフォーメーション,0
572,3010401190816,新規,0,2025-06-05,2025-06-05,株式会社Ｓｕｉ,,株式会社,東京都,港区,麻布十番３丁目７番５号ＤｅｃｉｍｏＡｚａｂｕ５０１,,13,103,1060045,,,,,,,2025-06-05,1,,,,,スイ,0
579,3010501054094,新規,0,2025-06-05,2025-06-05,中林商事株式会社,,株式会社,東京都,台東区,元浅草１丁目５－７上杉ビル２Ｆ,,13,106,1110041,,,,,,,2025-06-05,1,,,,,ナカバヤシショウジ,0
580,3010501054152,新規,0,2025-06-05,2025-06-05,ＴＯＫＹＯ　ＰＲＥＭＩＥＲ株式会社,,株式会社,東京都,台東区,西浅草３丁目２６番５号－８０２,,13,106,1110035,,,,,,,2025-06-05,1,,,,,トウキョウプレミア,0
581,3010501054169,新規,0,2025-06-05,2025-06-05,株式会社Ｌｏｏｐｎｅｓｔ,,株式会社,東京都,台東区,雷門１丁目１－１０,,13,106,1110034,,,,,,,2025-06-05,1,,,,,ループネスト,0
582,3010503007876,新規,0,2025-06-05,2025-06-05,合同会社根々,,合同会社,東京都,台東区,上野２丁目３－７,,13,106,1100005,,,,,,,2025-06-05,1,,,,,ネネ,0
583,3010601067418,新規,0,2025-06-05,2025-06-05,株式会社ｈｏｎｏｋａ,,株式会社,東京都,江東区,東砂８丁目３番１３号,,13,108,1360074,,,,,,,2025-06-05,1,,,,,ホノカ,0
584,3010603011605,新規,0,2025-06-05,2025-06-05,ほしなみデザイン合同会社,,合同会社,東京都,江東区,白河２丁目１３番１２－１１０３号,,13,108,1350021,,,,,,,2025-06-05,1,,,,,ホシナミデザイン,0
588,3010903009976,新規,0,2025-06-05,2025-06-05,下北ＭＫ合同会社,,合同会社,東京都,世田谷区,北沢２丁目１３番３号,,13,112,1550031,,,,,,,2025-06-05,1,,,,,シモキタエムケー,0
590,3011001169911,新規,0,2025-06-05,2025-06-05,株式会社道なり,,株式会社,東京都,渋谷区,南平台町２－８日興パレス南平台アヅマ５０１,,13,113,1500036,,,,,,,2025-06-05,1,,,,,ミチナリ,0
591,3011003021780,新規,0,2025-06-05,2025-06-05,Ｃｏ‐ｃｒｅａｔｉｏｎ　ｐｒｏｊｅｃｔ合同会社,,合同会社,東京都,渋谷区,道玄坂１丁目１０番８号渋谷道玄坂東急ビル２Ｆ‐Ｃ,,13,113,1500043,,,,,,,2025-06-05,1,,,,,コークリエイションプロジェクト,0
602,3011503006562,新規,0,2025-06-05,2025-06-05,合同会社インフォツール,,合同会社,東京都,北区,豊島３丁目２２番１２号ＪＴレジデンス王子弐番館２０１号,,13,117,1140003,,,,,,,2025-06-05,1,,,,,インフォツール,0
605,3011703004275,新規,0,2025-06-05,2025-06-05,合同会社アトモ,,合同会社,東京都,江戸川区,新堀１丁目１１番５号ハイツＴＫＳ１０１,,13,123,1320001,,,,,,,2025-06-05,1,,,,,アトモ,0
607,3011801046194,新規,0,2025-06-05,2025-06-05,Ｃ．Ｎ．Ｌ株式会社,,株式会社,東京都,葛飾区,亀有３丁目１３番３号巷岡ビル２階,,13,122,1250061,,,,,,,2025-06-05,1,,,,,シーエヌエル,0
608,3011801046252,新規,0,2025-06-05,2025-06-05,株式会社ＹＫ,,株式会社,東京都,足立区,綾瀬４丁目２９番１号,,13,121,1200005,,,,,,,2025-06-05,1,,,,,ワイケー,0
611,3012301014419,新規,0,2025-06-05,2025-06-05,株式会社ＤＡＩＫＩＣＨＩ,,株式会社,東京都,町田市,大蔵町１９３－７,,13,209,1950062,,,,,,,2025-06-05,1,,,,,ダイキチ,0
612,3012303002173,新規,0,2025-06-05,2025-06-05,ＬＡＬＡデザイン合同会社,,合同会社,東京都,町田市,原町田６丁目９番８号ＡＥＴＡ町田４階,,13,209,1940013,,,,,,,2025-06-05,1,,,,,ララデザイン,0
613,3012701018903,新規,0,2025-06-05,2025-06-05,株式会社スポともＢｉｚ,,株式会社,東京都,東村山市,野口町３丁目９番地６,,13,213,1890022,,,,,,,2025-06-05,1,,,,,スポトモビズ,0
614,3012701018911,新規,0,2025-06-05,2025-06-05,株式会社オリエンス,,株式会社,東京都,西東京市,向台町１丁目７番５１号,,13,229,1880013,,,,,,,2025-06-05,1,,,,,オリエンス,0
618,3013301054405,新規,0,2025-06-05,2025-06-05,ＨａＣｏ株式会社,,株式会社,東京都,豊島区,高田２丁目１７番１６号,,13,116,1710033,,,,,,,2025-06-05,1,,,,,エイチエーシーオー,0
627,3020001163188,新規,0,2025-06-05,2025-06-05,ＩＮＦＩＮＩＴＹ株式会社,,株式会社,神奈川県,横浜市港北区,高田東２丁目８番７号,,14,109,2230065,,,,,,,2025-06-05,1,,,,,インフィニティ,0
628,3020001163196,新規,0,2025-06-05,2025-06-05,東洋サポート株式会社,,株式会社,神奈川県,横浜市神奈川区,羽沢南２丁目３８番１号,,14,102,2210866,,,,,,,2025-06-05,1,,,,,トウヨウサポート,0
629,3020001163213,新規,0,2025-06-05,2025-06-05,株式会社ドック,,株式会社,神奈川県,川崎市麻生区,上麻生３丁目５－８,,14,137,2150021,,,,,,,2025-06-05,1,,,,,ドック,0
630,3020001163270,新規,0,2025-06-05,2025-06-05,株式会社ミルトラボ,,株式会社,神奈川県,横浜市西区,平沼１丁目６番１９－４０３号,,14,103,2200023,,,,,,,2025-06-05,1,,,,,ミルトラボ,0
633,3020003028645,新規,0,2025-06-05,2025-06-05,合同会社津軽石エナジー,,合同会社,神奈川県,横浜市中区,住吉町１丁目１番地第３柳下ビル６０１,,14,104,2310013,,,,,,,2025-06-05,1,,,,,ツガルイシエナジー,0
636,3021001085331,新規,0,2025-06-05,2025-06-05,株式会社Ｔ　ａｒｃ,,株式会社,神奈川県,藤沢市,江の島１丁目６番７号,,14,205,2510036,,,,,,,2025-06-05,1,,,,,ティーアーク,0
637,3021001085447,新規,0,2025-06-05,2025-06-05,株式会社周明,,株式会社,神奈川県,相模原市中央区,星が丘１丁目２２番２－２０１号,,14,152,2520238,,,,,,,2025-06-05,1,,,,,シュウメイ,0
639,3021003016053,新規,0,2025-06-05,2025-06-05,ｍａｒｅ合同会社,,合同会社,神奈川県,足柄下郡真鶴町,真鶴１９３０番地３１,,14,383,2590201,,,,,,,2025-06-05,1,,,,,マレ,0
640,3021003016103,新規,0,2025-06-05,2025-06-05,合同会社マスダ農水,,合同会社,神奈川県,茅ヶ崎市,緑が浜１２番１０－２０３号,,14,207,2530034,,,,,,,2025-06-05,1,,,,,マスダノウスイ,0
643,3030001166909,新規,0,2025-06-05,2025-06-05,株式会社Ｍ．Ｓ．Ａ．Ｍ．,,株式会社,埼玉県,戸田市,新曽南３丁目２－６－１０１１,,11,224,3350026,,,,,,,2025-06-05,1,,,,,エムエスエーエム,0
644,3030001166941,新規,0,2025-06-05,2025-06-05,株式会社ＩＳＡＭコーポレーション,,株式会社,埼玉県,所沢市,向陽町２１５６－８プラネ向陽２－２０３,,11,208,3591103,,,,,,,2025-06-05,1,,,,,イサムコーポレーション,0
647,3030003026920,新規,0,2025-06-05,2025-06-05,月華龍星合同会社,,合同会社,埼玉県,飯能市,大字坂元１４５４,,11,209,3570218,,,,,,,2025-06-05,1,,,,,ゲッカリュウショウ,0
648,3030003026929,新規,0,2025-06-05,2025-06-05,合同会社縁美,,合同会社,埼玉県,春日部市,上吉妻４３５番地１,,11,214,3440103,,,,,,,2025-06-05,1,,,,,エンビ,0
652,3040001139079,新規,0,2025-06-05,2025-06-05,カタリスト株式会社,,株式会社,千葉県,船橋市,浜町２丁目３番３６－１３０１号,,12,204,2730012,,,,,,,2025-06-05,1,,,,,カタリスト,0
653,3040003027760,新規,0,2025-06-05,2025-06-05,合同会社ｇｌａｄａｔｉｏｎ,,合同会社,千葉県,柏市,富里２丁目４番２－２０５号,,12,217,2770081,,,,,,,2025-06-05,1,,,,,グラデーション,0
655,3050001056752,新規,0,2025-06-05,2025-06-05,株式会社加藤電気,,株式会社,茨城県,行方市,手賀３８８番地,,08,233,3113513,,,,,,,2025-06-05,1,,,,,カトウデンキ,0
656,3050001056769,新規,0,2025-06-05,2025-06-05,株式会社鶴岡工務店,,株式会社,茨城県,神栖市,息栖２８２６番地７１,,08,232,3140133,,,,,,,2025-06-05,1,,,,,ツルオカコウムテン,0
657,3050001056777,新規,0,2025-06-05,2025-06-05,ＭＵＳＡ　ＴＲＡＤＩＮＧ株式会社,,株式会社,茨城県,古河市,下辺見５２５番地３,,08,204,3060235,,,,,,,2025-06-05,1,,,,,ムーサトレーディング,0
661,3060001038270,新規,0,2025-06-05,2025-06-05,株式会社ＡＧクリーンサービス,,株式会社,栃木県,下都賀郡壬生町,幸町４丁目８番１８号,,09,361,3210203,,,,,,,2025-06-05,1,,,,,エージークリーンサービス,0
663,3060003005582,新規,0,2025-06-05,2025-06-05,合同会社Ｏｈ　Ｍａｍｍａ　Ｍｉａ,,合同会社,栃木県,那須郡那須町,大字高久乙３３７６番地１２３,,09,407,3250303,,,,,,,2025-06-05,1,,,,,オーマンマミーア,0
668,3080003003469,新規,0,2025-06-05,2025-06-05,合同会社望月建築,,合同会社,静岡県,静岡市清水区,七ツ新屋１丁目５番９号,,22,103,4240066,,,,,,,2025-06-05,1,,,,,モチヅキケンチク,0
670,3080005007699,新規,0,2025-06-05,2025-06-05,ＩＳＬＡＭＩＣ　ＣＵＬＴＵＲＡＬ　ＣＥＮＴＥＲ　ＳＨＩＺＵＯＫＡ一般社団法人,,その他の設立登記法人,静岡県,静岡市駿河区,曲金１丁目２番１８号,,22,102,4228006,,,,,,,2025-06-05,1,,,,,イスラミックカルチャラルセンターシズオカ,0
671,3080101025539,新規,0,2025-06-05,2025-06-05,Ｏｃｔａｖｅ　Ｌｉｖｉｎｇ　Ａｔａｍｉ株式会社,,株式会社,静岡県,熱海市,上多賀１０２７番地の８,,22,205,4130101,,,,,,,2025-06-05,1,,,,,オクターブリビングアタミ,0
673,3090003002833,新規,0,2025-06-05,2025-06-05,合同会社ベルヴィ,,合同会社,山梨県,笛吹市,春日居町鎮目２０番地１、８０１号室,,19,211,4060015,,,,,,,2025-06-05,1,,,,,ベルヴィ,0
676,3100003008192,新規,0,2025-06-05,2025-06-05,合同会社ｒｕｎｅ,,合同会社,長野県,下高井郡野沢温泉村,大字豊郷９８４０－２新田第２村民住宅３０２,,20,563,3892502,,,,,,,2025-06-05,1,,,,,ルーン,0
684,3120001276293,新規,0,2025-06-05,2025-06-05,志誠貿易株式会社,,株式会社,大阪府,大阪市天王寺区,逢坂二丁目３番２３－４０７号,,27,109,5430000,,,,,,,2025-06-05,1,,,,,シセイボウエキ,0
685,3120001276434,新規,0,2025-06-05,2025-06-05,株式会社ＦＬＵＳＨ,,株式会社,大阪府,大阪市東成区,玉津２丁目５－１４パシフィック玉津１１１号室,,27,115,5370023,,,,,,,2025-06-05,1,,,,,フラッシュ,0
686,3120001276475,新規,0,2025-06-05,2025-06-05,株式会社渡辺電気工事店,,株式会社,大阪府,寝屋川市,太秦中町１１－１２,,27,215,5720843,,,,,,,2025-06-05,1,,,,,ワタナベデンキコウジテン,0
687,3120001276491,新規,0,2025-06-05,2025-06-05,Ｒ．Ｅ．Ｍコンサルティング株式会社,,株式会社,大阪府,大阪市阿倍野区,王子町１丁目６番７号,,27,119,5450023,,,,,,,2025-06-05,1,,,,,レムコンサルティング,0
688,3120001276541,新規,0,2025-06-05,2025-06-05,株式会社トゥエンティエイト,,株式会社,大阪府,大阪市東淀川区,東中島１丁目１７番５号ステュディオ新大阪１０３０号室,,27,114,5330033,,,,,,,2025-06-05,1,,,,,トゥエンティエイト,0
689,3120001276558,新規,0,2025-06-05,2025-06-05,真美株式会社,,株式会社,大阪府,大阪市都島区,中野町４丁目３番６号Ｈ２Ｈ大阪桜之宮邸５Ｅ－２,,27,102,5340027,,,,,,,2025-06-05,1,,,,,シンビ,0
690,3120001276599,新規,0,2025-06-05,2025-06-05,株式会社ゆずは,,株式会社,大阪府,大阪市西成区,玉出西１丁目１番４号１階,,27,122,5570045,,,,,,,2025-06-05,1,,,,,ユズハ,0
691,3120001276608,新規,0,2025-06-05,2025-06-05,株式会社大阪観光,,株式会社,大阪府,大阪市西成区,萩之茶屋３丁目４番１５号,,27,122,5570004,,,,,,,2025-06-05,1,,,,,オオサカカンコウ,0
694,3120003029674,新規,0,2025-06-05,2025-06-05,メルノート合同会社,,合同会社,大阪府,大阪市福島区,吉野４丁目２５－２２パレットキューブ３Ｆ,,27,103,5530006,,,,,,,2025-06-05,1,,,,,メルノート,0
695,3120003029690,新規,0,2025-06-05,2025-06-05,合同会社ＴＲＹ企画,,合同会社,大阪府,大阪市北区,梅田１丁目２番２号大阪駅前第２ビル１２－１２,,27,127,5300001,,,,,,,2025-06-05,1,,,,,トライキカク,0
698,3120101071834,新規,0,2025-06-05,2025-06-05,株式会社Ｓｋｙ‐Ｔｅｃ,,株式会社,大阪府,堺市中区,深井沢町３２８２番地,,27,142,5998236,,,,,,,2025-06-05,1,,,,,スカイテック,0
710,3130001079844,新規,0,2025-06-05,2025-06-05,株式会社サナリィ,,株式会社,京都府,京都市右京区,嵯峨北堀町３７番地１１エクラ築山Ａ－３,,26,108,6168367,,,,,,,2025-06-05,1,,,,,サナリィ,0
714,3140001138748,新規,0,2025-06-05,2025-06-05,株式会社Ａｃｈｒｏｍａｔｉｃ,,株式会社,兵庫県,たつの市,龍野町富永７９３番地３,,28,229,6794167,,,,,,,2025-06-05,1,,,,,アクロマティック,0
715,3140001138797,新規,0,2025-06-05,2025-06-05,株式会社小林農林,,株式会社,兵庫県,神戸市東灘区,向洋町中５丁目１番地５２３号棟１０１１号室,,28,101,6580032,,,,,,,2025-06-05,1,,,,,コバヤシノウリン,0
716,3140003022140,新規,0,2025-06-05,2025-06-05,興盛源合同会社,,合同会社,兵庫県,神戸市中央区,花隈町２２番３号朱ビル３０２号室,,28,110,6500013,,,,,,,2025-06-05,1,,,,,コウセイゲン,0
719,3150001028171,新規,0,2025-06-05,2025-06-05,今久保株式会社,,株式会社,奈良県,奈良市,月ヶ瀬桃香野５０２７番地の１,,29,201,6302306,,,,,,,2025-06-05,1,,,,,イマクボ,0
726,3160001026802,新規,0,2025-06-05,2025-06-05,株式会社青木義肢製作所,,株式会社,滋賀県,甲賀市,土山町大野２１４３番地,,25,209,5280235,,,,,,,2025-06-05,1,,,,,アオキギシセイサクショ,0
727,3160001026810,新規,0,2025-06-05,2025-06-05,株式会社ＫＥＩ,,株式会社,滋賀県,大津市,野郷原１丁目７番１号,,25,201,5202133,,,,,,,2025-06-05,1,,,,,ケイ,0
728,3160005011412,新規,0,2025-06-05,2025-06-05,一般社団法人こころのサポート研究所こころねっこ,,その他の設立登記法人,滋賀県,大津市,萱野浦２３番１７号コーストハイツ友湖１０５号,,25,201,5202143,,,,,,,2025-06-05,1,,,,,ココロノサポートケンキュウショココロネッコ,0
730,3170001018658,新規,0,2025-06-05,2025-06-05,富林株式会社,,株式会社,和歌山県,和歌山市,松江北２丁目５－６－２０２号室,,30,201,6408425,,,,,,,2025-06-05,1,,,,,フウリン,0
732,3180001167099,新規,0,2025-06-05,2025-06-05,株式会社陸企画,,株式会社,愛知県,あま市,下萱津宿ノ口１１番地,,23,237,4901114,,,,,,,2025-06-05,1,,,,,ムツキカク,0
733,3180001167140,新規,0,2025-06-05,2025-06-05,株式会社プロエージェント,,株式会社,愛知県,名古屋市中区,栄３丁目６番１号,,23,106,4600008,,,,,,,2025-06-05,1,,,,,プロエージェント,0
734,3180001167149,新規,0,2025-06-05,2025-06-05,株式会社ＳｔｙｌｅＳｈｉｆｔ　Ｖｉｓｉｏｎ,,株式会社,愛知県,名古屋市中区,栄２丁目８番５号オープンレジデンシア名古屋栄２０５号,,23,106,4600008,,,,,,,2025-06-05,1,,,,,スタイルシフトビジョン,0
735,3180001167173,新規,0,2025-06-05,2025-06-05,株式会社ＫＩＬＩＧ,,株式会社,愛知県,名古屋市中区,錦２丁目７番７号ＯＲＩ‐ＭＡＣＨＩ２０２,,23,106,4600003,,,,,,,2025-06-05,1,,,,,キリグ,0
737,3180005021112,新規,0,2025-06-05,2025-06-05,一般社団法人ベトナム人材就労サポートセンター,,その他の設立登記法人,愛知県,名古屋市港区,川西通４丁目９番２号,,23,111,4550073,,,,,,,2025-06-05,1,,,,,ベトナムジンザイシュウロウサポートセンター,0
739,3180301039873,新規,0,2025-06-05,2025-06-05,株式会社シルクロード,,株式会社,愛知県,刈谷市,青山町２丁目１６０番地１レオパレスグランマ３０３号室,,23,210,4480014,,,,,,,2025-06-05,1,,,,,シルクロード,0
740,3180303006599,新規,0,2025-06-05,2025-06-05,大賀アセットマネジメント合同会社,,合同会社,愛知県,豊橋市,三ノ輪町２丁目４番地３,,23,201,4400838,,,,,,,2025-06-05,1,,,,,オオガアセットマネジメント,0
744,3200001043867,新規,0,2025-06-05,2025-06-05,株式会社Ｓｏ　Ｄｏｐｅ,,株式会社,岐阜県,大垣市,笠木町１４４番地２,,21,202,5030023,,,,,,,2025-06-05,1,,,,,ソードゥープ,0
746,3200003006855,新規,0,2025-06-05,2025-06-05,合同会社Ｎｅｗ　Ｙｏｒｋ　Ｔｒａｄｉｎｇ　Ｃｏ．,,合同会社,岐阜県,多治見市,若松町１丁目１１番地タクミビル４０２号,,21,204,5070053,,,,,,,2025-06-05,1,,,,,,0
747,3200003006863,新規,0,2025-06-05,2025-06-05,Ｇｒｏｗ　ｓｔ合同会社,,合同会社,岐阜県,岐阜市,柳津町本郷３丁目８９番地,,21,201,5016104,,,,,,,2025-06-05,1,,,,,グロウエスティー,0
749,3230003002439,新規,0,2025-06-05,2025-06-05,合同会社横倉事務所,,合同会社,富山県,富山市,つばめ野２丁目１２１番地,,16,201,9302239,,,,,,,2025-06-05,1,,,,,ヨコクラジムショ,0
753,3240001064959,新規,0,2025-06-05,2025-06-05,株式会社リケアジャパン,,株式会社,広島県,福山市,神辺町字湯野５１８番地１２,,34,207,7202121,,,,,,,2025-06-05,1,,,,,リケアジャパン,0
754,3240001065024,新規,0,2025-06-05,2025-06-05,岡谷熱処理工業西日本株式会社,,株式会社,広島県,福山市,北匠町１番地５,,34,207,7202411,,,,,,,2025-06-05,1,,,,,オカヤネツショリコウギョウニシニホン,0
755,3240001065032,新規,0,2025-06-05,2025-06-05,株式会社ｌｉｂｅｒｔｅ,,株式会社,広島県,東広島市,西条町田口２６３８番地３グラッドＣ棟,,34,212,7390036,,,,,,,2025-06-05,1,,,,,リベルテ,0
756,3240001065040,新規,0,2025-06-05,2025-06-05,株式会社多田製作所,,株式会社,広島県,呉市,郷原町字一の松光山２５０７番地９１７,,34,202,7370161,,,,,,,2025-06-05,1,,,,,タダセイサクショ,0
759,3250001021182,新規,0,2025-06-05,2025-06-05,ローカルイノベーション株式会社,,株式会社,山口県,下関市,秋根本町２丁目１０－１０トワムールビル２Ｆ,,35,201,7510875,,,,,,,2025-06-05,1,,,,,ローカルイノベーション,0
762,3260001040256,新規,0,2025-06-05,2025-06-05,プレア株式会社,,株式会社,岡山県,岡山市北区,中央町４－１４第２ファミリービル１０２,,33,101,7000836,,,,,,,2025-06-05,1,,,,,プレア,0
765,3260003005199,新規,0,2025-06-05,2025-06-05,合同会社ＣＡＬＭ,,合同会社,岡山県,岡山市北区,表町１丁目８番４号,,33,101,7000822,,,,,,,2025-06-05,1,,,,,カァーム,0
768,3290001110188,新規,0,2025-06-05,2025-06-05,ＡＮＯＲＡＫ　ＷＨＥＬＲ株式会社,,株式会社,福岡県,福岡市中央区,港２丁目７番４－２０２号,,40,133,8100075,,,,,,,2025-06-05,1,,,,,アノラックウィラー,0
771,3310001019625,新規,0,2025-06-05,2025-06-05,株式会社緑菜和泉,,株式会社,長崎県,雲仙市,国見町多比良丁１８１８番地,,42,213,8591324,,,,,,,2025-06-05,1,,,,,ミドリナイズミ,0
772,3310001019633,新規,0,2025-06-05,2025-06-05,株式会社おやつギルド,,株式会社,長崎県,壱岐市,郷ノ浦町片原触２５８６番地２,,42,210,8115136,,,,,,,2025-06-05,1,,,,,オヤツギルド,0
773,3320001021142,新規,0,2025-06-05,2025-06-05,株式会社デザインクリード,,株式会社,大分県,別府市,東荘園２丁目４番１４号,,44,202,8740836,,,,,,,2025-06-05,1,,,,,デザインクリード,0
774,3320001021150,新規,0,2025-06-05,2025-06-05,株式会社ヨシデン,,株式会社,大分県,宇佐市,大字城井１９６１番地の１１,,44,211,8790442,,,,,,,2025-06-05,1,,,,,ヨシデン,0
775,3330001033277,新規,0,2025-06-05,2025-06-05,一朶の雲株式会社,,株式会社,熊本県,山鹿市,鹿央町千田４１８７,,43,208,8610563,,,,,,,2025-06-05,1,,,,,イチダノクモ,0
779,3360001035304,新規,0,2025-06-05,2025-06-05,ＳＡＩＵＮ　ＴＥＣＨＮＯＬＯＧＹ株式会社,,株式会社,沖縄県,豊見城市,字嘉数２０２番地９,,47,212,9010202,,,,,,,2025-06-05,1,,,,,サイウンテクノロジー,0
780,3360001035312,新規,0,2025-06-05,2025-06-05,アトラクト株式会社,,株式会社,沖縄県,那覇市,壺川１丁目１４番地２ライオンズ城岳南１００３,,47,201,9000025,,,,,,,2025-06-05,1,,,,,アトラクト,0
784,3360003014958,新規,0,2025-06-05,2025-06-05,合同会社ＬＥＡＮ　ＩＮ,,合同会社,沖縄県,那覇市,松島２丁目１番地１６ミオカステーロ松島１０１,,47,201,9020069,,,,,,,2025-06-05,1,,,,,リーンイン,0
785,3360003014974,新規,0,2025-06-05,2025-06-05,ＤＫ合同会社,,合同会社,沖縄県,那覇市,古波蔵４丁目３番４号・３階Ｂ－１号室,,47,201,9000024,,,,,,,2025-06-05,1,,,,,ディケー,0
786,3360003014990,新規,0,2025-06-05,2025-06-05,徳元シーリング工業合同会社,,合同会社,沖縄県,宜野湾市,長田１丁目４番８号,,47,205,9012212,,,,,,,2025-06-05,1,,,,,トクモトシーリングコウギョウ,0
787,3360003014999,新規,0,2025-06-05,2025-06-05,合同会社ｃｏｕｎｔｒｙ　ｒｏｓｅ,,合同会社,沖縄県,那覇市,首里久場川町２丁目２８番地１,,47,201,9030807,,,,,,,2025-06-05,1,,,,,カントリーローズ,0
791,3390001018009,新規,0,2025-06-05,2025-06-05,ホットコーナー株式会社,,株式会社,山形県,長井市,中道１丁目５番３９－７号,,06,209,9930053,,,,,,,2025-06-05,1,,,,,ホットコーナー,0
792,3400001017058,新規,0,2025-06-05,2025-06-05,株式会社Ｋ‐３,,株式会社,岩手県,盛岡市,中ノ橋通１丁目１２番１－９０４号,,03,201,0200871,,,,,,,2025-06-05,1,,,,,ケースリー,0
798,3430001094573,新規,0,2025-06-05,2025-06-05,株式会社ドメーヌモン,,株式会社,北海道,余市郡余市町,登町８９８番地７,,01,408,0460002,,,,,,,2025-06-05,1,,,,,ドメーヌモン,0
799,3430001094607,新規,0,2025-06-05,2025-06-05,株式会社ｃｏｌｏｎｙ　ｃｏｎｎｅｃｔ,,株式会社,北海道,札幌市中央区,南一条西１６丁目１番,,01,101,0600061,,,,,,,2025-06-05,1,,,,,コロニーコネクト,0
800,3430005015245,新規,0,2025-06-05,2025-06-05,三上社会保険労務士法人,,その他の設立登記法人,北海道,札幌市豊平区,平岸二条１４丁目１番１３－１００２号,,01,105,0620932,,,,,,,2025-06-05,1,,,,,ミカミ,0
801,3440001009621,新規,0,2025-06-05,2025-06-05,総合建設一心工業株式会社,,株式会社,北海道,函館市,富岡町１丁目３５番７－７０１号,,01,202,0410811,,,,,,,2025-06-05,1,,,,,ソウゴウケンセツイッシンコウギョウ,0
804,3470001020740,新規,0,2025-06-05,2025-06-05,株式会社コアシックス,,株式会社,香川県,高松市,浜ノ町９番１２－１００６号,,37,201,7600011,,,,,,,2025-06-05,1,,,,,コアシックス,0
807,3700150130928,新規,0,2025-06-05,2025-06-05,海津企業股斌有限公司,00139461,外国会社等,,,,,,,,台北市信義区福徳街２６８巷４弄２６號１樓,,,,,,2025-06-05,1,,,,,カイシンキギヨウコンフンユウゲンガイシヤ,0
813,4010001255605,新規,0,2025-06-05,2025-06-05,Ｏａｓｉｓ株式会社,,株式会社,東京都,中央区,新川２丁目３１番１１号秀和新川レジデンス７０２号,,13,102,1040033,,,,,,,2025-06-05,1,,,,,オアシス,0
815,4010003047604,新規,0,2025-06-05,2025-06-05,岡山合同会社,,合同会社,東京都,千代田区,丸の内１丁目４番１号東京共同会計事務所内,,13,101,1000005,,,,,,,2025-06-05,1,,,,,オカヤマ,0
817,4010005040128,新規,0,2025-06-05,2025-06-05,一般社団法人生成ＡＩ人材育成協会,,その他の設立登記法人,東京都,中央区,日本橋茅場町２丁目１２番１０号,,13,102,1030025,,,,,,,2025-06-05,1,,,,,セイセイエーアイジンサイイクセイキョウカイ,0
818,4010005040152,新規,0,2025-06-05,2025-06-05,板橋一般社団法人,,その他の設立登記法人,東京都,千代田区,丸の内１丁目４番１号東京共同会計事務所内,,13,101,1000005,,,,,,,2025-06-05,1,,,,,イタバシ,0
825,4010401190575,新規,0,2025-06-05,2025-06-05,株式会社ＨＭ,,株式会社,東京都,港区,南青山１丁目２１番９号,,13,103,1070062,,,,,,,2025-06-05,1,,,,,エイチエム,0
826,4010401190600,新規,0,2025-06-05,2025-06-05,株式会社Ｓ．,,株式会社,東京都,港区,海岸１丁目１３番１５号,,13,103,1050022,,,,,,,2025-06-05,1,,,,,エスドット,0
827,4010401190773,新規,0,2025-06-05,2025-06-05,ビズラボ株式会社,,株式会社,東京都,港区,東麻布２丁目２７番４号,,13,103,1060044,,,,,,,2025-06-05,1,,,,,ビズラボ,0
828,4010401190781,新規,0,2025-06-05,2025-06-05,株式会社ＫＵＲＯＯＢＩ,,株式会社,東京都,港区,芝４丁目１番２３号三田ＮＮビル１５階,,13,103,1080014,,,,,,,2025-06-05,1,,,,,クロオビ,0
832,4010403035225,新規,0,2025-06-05,2025-06-05,合同会社Ｐｒｉｃｋｅｔ,,合同会社,東京都,港区,南青山２丁目２番１５号,,13,103,1070062,,,,,,,2025-06-05,1,,,,,プリケット,0
833,4010403035241,新規,0,2025-06-05,2025-06-05,合同会社Ｚｅｒｏ,,合同会社,東京都,港区,浜松町２丁目２番１５号浜松町ダイヤビル２Ｆ,,13,103,1050013,,,,,,,2025-06-05,1,,,,,ゼロ,0
834,4010403035282,新規,0,2025-06-05,2025-06-05,合同会社ＡＳＡＨＩ,,合同会社,東京都,港区,六本木３丁目４番１７号,,13,103,1060032,,,,,,,2025-06-05,1,,,,,アサヒ,0
835,4010403035290,新規,0,2025-06-05,2025-06-05,ルーチェット合同会社,,合同会社,東京都,港区,南青山２丁目２番１５号,,13,103,1070062,,,,,,,2025-06-05,1,,,,,ルーチェット,0
838,4010501054168,新規,0,2025-06-05,2025-06-05,株式会社ナイタルワークス,,株式会社,東京都,台東区,浅草橋２丁目２５－７長島エレガンスビル６Ｆ,,13,106,1110053,,,,,,,2025-06-05,1,,,,,ナイタルワークス,0
839,4010501054176,新規,0,2025-06-05,2025-06-05,株式会社松,,株式会社,東京都,台東区,上野２丁目２番５号芙蓉ビル３階,,13,106,1100005,,,,,,,2025-06-05,1,,,,,マツ,0
840,4010503007875,新規,0,2025-06-05,2025-06-05,Ｍｉｌｏ合同会社,,合同会社,東京都,台東区,浅草４丁目３番８号,,13,106,1110032,,,,,,,2025-06-05,1,,,,,マイロ,0
841,4010601067409,新規,0,2025-06-05,2025-06-05,株式会社ＸＥＬＥＸ　ＥＬＥＣＴＲＯＮＩＣＳ,,株式会社,東京都,墨田区,菊川３丁目１７番１２号アドン菊川ビル２階,,13,107,1300024,,,,,,,2025-06-05,1,,,,,ゼレックスエレクトロニクス,0
842,4010601067417,新規,0,2025-06-05,2025-06-05,株式会社舞踊かつら鍛治,,株式会社,東京都,墨田区,文花３丁目２番１号,,13,107,1310044,,,,,,,2025-06-05,1,,,,,ブヨウカツラカジ,0
848,4010703007741,新規,0,2025-06-05,2025-06-05,合同会社ファーストオリジン,,合同会社,東京都,品川区,北品川５丁目１３番２１―７０１号,,13,109,1410001,,,,,,,2025-06-05,1,,,,,ファーストオリジン,0
851,4010901057489,新規,0,2025-06-05,2025-06-05,株式会社ｔｅｌｔｏ,,株式会社,東京都,世田谷区,太子堂４丁目１８番１５号マガザン三軒茶屋２・３Ｆ－３,,13,112,1540004,,,,,,,2025-06-05,1,,,,,テルト,0
852,4010901057497,新規,0,2025-06-05,2025-06-05,株式会社赤堤介護タクシー,,株式会社,東京都,世田谷区,赤堤４丁目２０番１１号,,13,112,1560044,,,,,,,2025-06-05,1,,,,,アカヅツミカイゴタクシー,0
858,4011001169596,新規,0,2025-06-05,2025-06-05,株式会社ＦｉｔＣｒｅｅ,,株式会社,東京都,渋谷区,道玄坂１丁目１０番８号渋谷道玄坂東急ビル２Ｆ－Ｃ,,13,113,1500043,,,,,,,2025-06-05,1,,,,,フィックリー,0
859,4011001169885,新規,0,2025-06-05,2025-06-05,株式会社ホイクノヒミツキチ,,株式会社,東京都,渋谷区,円山町５番３号ＭＩＥＵＸ渋谷ビル８階,,13,113,1500044,,,,,,,2025-06-05,1,,,,,ホイクノヒミツキチ,0
860,4011001169893,新規,0,2025-06-05,2025-06-05,株式会社ブラックストーン,,株式会社,東京都,渋谷区,道玄坂１丁目１２番１号渋谷マークシティＷ２２階,,13,113,1500043,,,,,,,2025-06-05,1,,,,,ブラックストーン,0
868,4011801046251,新規,0,2025-06-05,2025-06-05,株式会社市来崎工務店,,株式会社,東京都,足立区,中川１丁目１２番１５号サニーハイツ２０３,,13,121,1200002,,,,,,,2025-06-05,1,,,,,イチキザキコウムテン,0
869,4012301014418,新規,0,2025-06-05,2025-06-05,株式会社シビルエンジニア,,株式会社,東京都,町田市,相原町３３４５番地２,,13,209,1940211,,,,,,,2025-06-05,1,,,,,シビルエンジニア,0
870,4012303002172,新規,0,2025-06-05,2025-06-05,ＲＩＫ合同会社,,合同会社,東京都,町田市,西成瀬２丁目３４番３号,,13,209,1940046,,,,,,,2025-06-05,1,,,,,リク,0
872,4012401043192,新規,0,2025-06-05,2025-06-05,株式会社ＯＧＡ建築設計,,株式会社,東京都,府中市,宮西町２丁目８番地の２松原ビル,,13,206,1830022,,,,,,,2025-06-05,1,,,,,オガケンチクセッケイ,0
873,4012701018910,新規,0,2025-06-05,2025-06-05,株式会社高信産業,,株式会社,東京都,清瀬市,野塩５丁目２０３番地１８,,13,221,2040004,,,,,,,2025-06-05,1,,,,,コウシンサンギョウ,0
874,4012801024016,新規,0,2025-06-05,2025-06-05,株式会社アイコアストレージ,,株式会社,東京都,国立市,東１丁目６－２４,,13,215,1860002,,,,,,,2025-06-05,1,,,,,アイコアストレージ,0
875,4013101009715,新規,0,2025-06-05,2025-06-05,株式会社Ａ‐Ｖ．Ａ．,,株式会社,東京都,西多摩郡瑞穂町,大字箱根ケ崎１２８１番地１８,,13,303,1901221,,,,,,,2025-06-05,1,,,,,エイヴァ,0
878,4013301054387,新規,0,2025-06-05,2025-06-05,創新株式会社,,株式会社,東京都,豊島区,巣鴨２丁目９番１－１３０３号,,13,116,1700002,,,,,,,2025-06-05,1,,,,,ソウシン,0
879,4013303007707,新規,0,2025-06-05,2025-06-05,合同会社ウテマール,,合同会社,東京都,豊島区,池袋本町１丁目３２番１号,,13,116,1700011,,,,,,,2025-06-05,1,,,,,ウテマール,0
886,4020001163154,新規,0,2025-06-05,2025-06-05,株式会社Ｃｈａｎ３５　Ｌａｂ,,株式会社,神奈川県,横浜市南区,弘明寺町字北ノ前１０９番地１,,14,105,2320067,,,,,,,2025-06-05,1,,,,,チャンサンゴーラボ,0
887,4020001163170,新規,0,2025-06-05,2025-06-05,立千株式会社,,株式会社,神奈川県,横浜市中区,蓬莱町２丁目６－３ＫＯＹＯ関内ビル８０２号,,14,104,2310048,,,,,,,2025-06-05,1,,,,,リッセン,0
888,4020001163179,新規,0,2025-06-05,2025-06-05,株式会社Ｌａｎｇｕａｇｅ　Ｐｌｕｓ　Ｏｎｅ,,株式会社,神奈川県,横浜市青葉区,美しが丘１丁目１３番地１０,,14,117,2250002,,,,,,,2025-06-05,1,,,,,ランゲージプラスワン,0
889,4020001163187,新規,0,2025-06-05,2025-06-05,ＰＬＯＷ株式会社,,株式会社,神奈川県,川崎市高津区,下作延７丁目１９番６号,,14,134,2130033,,,,,,,2025-06-05,1,,,,,プラウ,0
890,4020001163195,新規,0,2025-06-05,2025-06-05,株式会社ＰｏｌｅＰｏｌｅ　Ｄｅｓｉｇｎ,,株式会社,神奈川県,横浜市西区,北幸２丁目１０番４８号むつみビル３階,,14,103,2200004,,,,,,,2025-06-05,1,,,,,ポレポレデザイン,0
891,4020001163204,新規,0,2025-06-05,2025-06-05,株式会社ＡＩ特許調査,,株式会社,神奈川県,横浜市都筑区,荏田東４丁目２５番５－５１０号,,14,118,2240006,,,,,,,2025-06-05,1,,,,,エーアイトッキョチョウサ,0
892,4020001163220,新規,0,2025-06-05,2025-06-05,株式会社グローバーホールディングス,,株式会社,神奈川県,川崎市宮前区,小台２丁目６番地２,,14,136,2160007,,,,,,,2025-06-05,1,,,,,グローバーホールディングス,0
896,4020003028628,新規,0,2025-06-05,2025-06-05,合同会社みるきー,,合同会社,神奈川県,横浜市金沢区,高舟台１丁目１６番１号,,14,108,2360044,,,,,,,2025-06-05,1,,,,,ミルキー,0
898,4021001085438,新規,0,2025-06-05,2025-06-05,株式会社エンジョイントホーム,,株式会社,神奈川県,横須賀市,岩戸４丁目２３番大矢部ホームストア８,,14,201,2390844,,,,,,,2025-06-05,1,,,,,エンジョイントホーム,0
905,4030001166841,新規,0,2025-06-05,2025-06-05,Ｅｔｏｉｌｅ　Ｖｉｓｉｏｎ株式会社,,株式会社,埼玉県,さいたま市大宮区,宮町４丁目１１４番地１－２０５号,,11,103,3300802,,,,,,,2025-06-05,1,,,,,エトワールビジョン,0
906,4030001166908,新規,0,2025-06-05,2025-06-05,株式会社ＨＡＮＡＴＡ,,株式会社,埼玉県,越谷市,大字弥十郎１４１番地７,,11,222,3430047,,,,,,,2025-06-05,1,,,,,ハナタ,0
907,4030001166924,新規,0,2025-06-05,2025-06-05,大和不動産管理株式会社,,株式会社,埼玉県,川越市,今成３丁目１９番地３,,11,201,3501105,,,,,,,2025-06-05,1,,,,,ヤマトフドウサンカンリ,0
914,4050001056784,新規,0,2025-06-05,2025-06-05,株式会社ルシッドマテリアル,,株式会社,茨城県,ひたちなか市,大字中根４８４３番地３６,,08,221,3120011,,,,,,,2025-06-05,1,,,,,ルシッドマテリアル,0
917,4060001038261,新規,0,2025-06-05,2025-06-05,株式会社エーアンドイー,,株式会社,栃木県,佐野市,大橋町３１９１番地３,,09,204,3270003,,,,,,,2025-06-05,1,,,,,エーアンドイー,0
926,4080101025546,新規,0,2025-06-05,2025-06-05,株式会社メイテックジャパン,,株式会社,静岡県,富士市,吉原２丁目１０－１２ウィスティリア吉原本町１４０３,,22,210,4170051,,,,,,,2025-06-05,1,,,,,メイテックジャパン,0
928,4080103003343,新規,0,2025-06-05,2025-06-05,合同会社環宇商事,,合同会社,静岡県,御殿場市,大坂３９３番地の８,,22,215,4120034,,,,,,,2025-06-05,1,,,,,カンウショウジ,0
932,4100003008209,新規,0,2025-06-05,2025-06-05,合同会社天道工業,,合同会社,長野県,伊那市,仙美７８７２番地１,,20,209,3960114,,,,,,,2025-06-05,1,,,,,テンドウコウギョウ,0
943,4120001276409,新規,0,2025-06-05,2025-06-05,華興商事株式会社,,株式会社,大阪府,大阪市淀川区,十三元今里２丁目１２番２５－１０２号,,27,123,5320028,,,,,,,2025-06-05,1,,,,,カコウショウジ,0
944,4120001276417,新規,0,2025-06-05,2025-06-05,株式会社ＦＵＫＥＩ,,株式会社,大阪府,大阪市中央区,農人橋２丁目１番２４号,,27,128,5400011,,,,,,,2025-06-05,1,,,,,フウケイ,0
945,4120001276482,新規,0,2025-06-05,2025-06-05,株式会社ＯｉＷｏｒｋｓ,,株式会社,大阪府,大阪市北区,梅田１丁目１番３号大阪駅前第３ビル２９階１－１－１号室,,27,127,5300001,,,,,,,2025-06-05,1,,,,,オイワークス,0
946,4120001276490,新規,0,2025-06-05,2025-06-05,株式会社岩本会計事務所,,株式会社,大阪府,大阪市北区,梅田１丁目２番２号大阪駅前第２ビル１２－１２,,27,127,5300001,,,,,,,2025-06-05,1,,,,,イワモトカイケイジムショ,0
947,4120001276508,新規,0,2025-06-05,2025-06-05,株式会社ＡＮＴＺ,,株式会社,大阪府,大阪市中央区,東心斎橋１丁目１６番３２号,,27,128,5420083,,,,,,,2025-06-05,1,,,,,アンツ,0
948,4120001276516,新規,0,2025-06-05,2025-06-05,株式会社圭英,,株式会社,大阪府,大阪市都島区,東野田町３丁目７番１号東シャトービル,,27,102,5340024,,,,,,,2025-06-05,1,,,,,ヨシヒデ,0
949,4120001276557,新規,0,2025-06-05,2025-06-05,紫凰株式会社,,株式会社,大阪府,大阪市都島区,中野町４丁目３番６号Ｈ２Ｈ大阪桜之宮邸５Ｅ－３,,27,102,5340027,,,,,,,2025-06-05,1,,,,,シコウ,0
950,4120001276565,新規,0,2025-06-05,2025-06-05,美容分割準備株式会社,,株式会社,大阪府,大阪市北区,大淀中１丁目１番３０号,,27,127,5310076,,,,,,,2025-06-05,1,,,,,ビヨウブンカツジュンビ,0
951,4120001276607,新規,0,2025-06-05,2025-06-05,株式会社みらいっく,,株式会社,大阪府,大阪市平野区,背戸口３丁目４番１４号,,27,126,5470034,,,,,,,2025-06-05,1,,,,,ミライック,0
952,4120003029649,新規,0,2025-06-05,2025-06-05,合同会社清心,,合同会社,大阪府,大阪市東淀川区,淡路２丁目１－１１淡路西山ビル４０３号,,27,114,5330032,,,,,,,2025-06-05,1,,,,,セイシン,0
953,4120003029673,新規,0,2025-06-05,2025-06-05,合同会社おおきに,,合同会社,大阪府,大阪市都島区,大東町１丁目４－７,,27,102,5340002,,,,,,,2025-06-05,1,,,,,オオキニ,0
954,4120003029681,新規,0,2025-06-05,2025-06-05,ｂｅａｍｉｎｇ合同会社,,合同会社,大阪府,大阪市西区,京町堀２丁目２番８号藤の邸京町堀８０１,,27,106,5500003,,,,,,,2025-06-05,1,,,,,ビーミング,0
956,4120101071800,新規,0,2025-06-05,2025-06-05,株式会社ポライト,,株式会社,大阪府,松原市,天美我堂１丁目７番地（Ｃ棟６０８号）,,27,217,5800026,,,,,,,2025-06-05,1,,,,,ポライト,0
957,4120105010011,新規,0,2025-06-05,2025-06-05,一般社団法人ｉＣａＰＰ,,その他の設立登記法人,大阪府,堺市西区,上５９４番地１３,,27,144,5938311,,,,,,,2025-06-05,1,,,,,アイキャップ,0
962,4120901050945,新規,0,2025-06-05,2025-06-05,株式会社心之禅,,株式会社,大阪府,高槻市,京口町６番３号,,27,207,5690072,,,,,,,2025-06-05,1,,,,,ココロノゼン,0
966,4122001039308,新規,0,2025-06-05,2025-06-05,株式会社スタワン,,株式会社,大阪府,八尾市,北本町１丁目１番１９号,,27,212,5810802,,,,,,,2025-06-05,1,,,,,スタワン,0
967,4122001039316,新規,0,2025-06-05,2025-06-05,株式会社ＫＴＳ,,株式会社,大阪府,東大阪市,友井１丁目３番１２号,,27,227,5770816,,,,,,,2025-06-05,1,,,,,ケイティエス,0
970,4130001079835,新規,0,2025-06-05,2025-06-05,株式会社ＺＥＮＴＡＯ,,株式会社,京都府,京田辺市,田辺中央４丁目２番地１,,26,211,6100334,,,,,,,2025-06-05,1,,,,,ゼンタオ,0
975,4130003010517,新規,0,2025-06-05,2025-06-05,合同会社アカリノメグミ,,合同会社,京都府,京都市右京区,京北栃本町川合５０番地,,26,108,6010264,,,,,,,2025-06-05,1,,,,,アカリノメグミ,0
977,4140001138796,新規,0,2025-06-05,2025-06-05,株式会社アラタナ,,株式会社,兵庫県,加西市,別所町３５９番地の２,,28,220,6752462,,,,,,,2025-06-05,1,,,,,アラタナ,0
979,4150001028170,新規,0,2025-06-05,2025-06-05,株式会社三陽設備,,株式会社,奈良県,生駒市,翠光台２番３１号,,29,209,6300229,,,,,,,2025-06-05,1,,,,,サンヨウセツビ,0
980,4160003003501,新規,0,2025-06-05,2025-06-05,ＴＫＰＭ合同会社,,合同会社,滋賀県,彦根市,野田山町４６９番地,,25,202,5220025,,,,,,,2025-06-05,1,,,,,ティーケーピーエム,0
992,4180001167016,新規,0,2025-06-05,2025-06-05,株式会社Ａｈ　ｂｏｎ,,株式会社,愛知県,名古屋市中川区,下之一色町字波花８５番地の１,,23,110,4540945,,,,,,,2025-06-05,1,,,,,アボン,0
993,4180001167098,新規,0,2025-06-05,2025-06-05,株式会社ＳｏＬ,,株式会社,愛知県,名古屋市中区,栄３丁目４番１５号鏡栄ビル別館３階,,23,106,4600008,,,,,,,2025-06-05,1,,,,,ソル,0
994,4180001167123,新規,0,2025-06-05,2025-06-05,ＩＴＭＯＤＳ株式会社,,株式会社,愛知県,名古屋市守山区,西城２丁目１番３－３０４号,,23,113,4630084,,,,,,,2025-06-05,1,,,,,アイティーモッズ,0
995,4180001167156,新規,0,2025-06-05,2025-06-05,株式会社和電工,,株式会社,愛知県,あま市,七宝町川部三屋敷２８番地,,23,237,4970013,,,,,,,2025-06-05,1,,,,,ナゴミデンコウ,0
996,4180001167164,新規,0,2025-06-05,2025-06-05,ＭＩＸＰＬＵＳ株式会社,,株式会社,愛知県,名古屋市中区,錦３丁目２－３２,,23,106,4600003,,,,,,,2025-06-05,1,,,,,ミックスプラス,0
997,4180001167180,新規,0,2025-06-05,2025-06-05,株式会社集重建,,株式会社,愛知県,名古屋市西区,清里町４４１番地,,23,104,4520801,,,,,,,2025-06-05,1,,,,,アツムジュウケン,0
998,4180001167189,新規,0,2025-06-05,2025-06-05,株式会社ＡＨＫ,,株式会社,愛知県,一宮市,千秋町加納馬場字郷前５９番地２,,23,203,4910811,,,,,,,2025-06-05,1,,,,,エーエッチケー,0
1000,4180003028554,新規,0,2025-06-05,2025-06-05,中部第二蓄電池発電所合同会社,,合同会社,愛知県,名古屋市中区,栄２丁目２番１号広小路伏見中駒ビル２Ｆ－９,,23,106,4600008,,,,,,,2025-06-05,1,,,,,チュウブダイニチクデンチハツデンショ,0
1002,4190001032276,新規,0,2025-06-05,2025-06-05,株式会社Ｂｉｇ　Ｃｈａｌｌｅｎｇｅ　Ｉｓｅ‐Ｓｈｉｍａ,,株式会社,三重県,鳥羽市,大明西町２０番６号,,24,211,5170023,,,,,,,2025-06-05,1,,,,,ビッグチャレンジイセーシマ,0
1004,4200001043858,新規,0,2025-06-05,2025-06-05,株式会社ＴＡＪ　ＴＲＡＤＩＮＧ,,株式会社,岐阜県,瑞穂市,稲里２１７番地２,,21,216,5010224,,,,,,,2025-06-05,1,,,,,ティエイジェイトレーディング,0
1005,4200001043866,新規,0,2025-06-05,2025-06-05,株式会社鷲見,,株式会社,岐阜県,山県市,高富２５８７番地２,,21,215,5012105,,,,,,,2025-06-05,1,,,,,スミ,0
1006,4200001043874,新規,0,2025-06-05,2025-06-05,株式会社誠屋,,株式会社,岐阜県,恵那市,明智町１５５３番地６７,,21,210,5097731,,,,,,,2025-06-05,1,,,,,セイヤ,0
1008,4210001020195,新規,0,2025-06-05,2025-06-05,株式会社ＴＫＧ,,株式会社,福井県,三方郡美浜町,郷市第４７号５番地の１,,18,442,9191141,,,,,,,2025-06-05,1,,,,,ティーケージー,0
1015,4240003007246,新規,0,2025-06-05,2025-06-05,合同会社Ｍａｇｉｃ　Ｂｅａｕｔｙ　ＳＥＳＡＭＩ,,合同会社,広島県,安芸郡府中町,浜田本町１番２３号,,34,302,7350023,,,,,,,2025-06-05,1,,,,,マジックビューティーセサミ,0
1018,4250001021181,新規,0,2025-06-05,2025-06-05,株式会社大島クリーンサービス,,株式会社,山口県,大島郡周防大島町,大字久賀２６０１番地２６,,35,305,7422301,,,,,,,2025-06-05,1,,,,,オオシマクリーンサービス,0
1021,4260001040247,新規,0,2025-06-05,2025-06-05,株式会社アドバンス,,株式会社,岡山県,玉野市,玉４丁目５番１８号,,33,204,7060012,,,,,,,2025-06-05,1,,,,,アドバンス,0
1022,4260001040263,新規,0,2025-06-05,2025-06-05,株式会社山下建設工業,,株式会社,岡山県,津山市,国分寺４２２番地１,,33,203,7080843,,,,,,,2025-06-05,1,,,,,ヤマシタケンセツコウギョウ,0
1024,4260003005207,新規,0,2025-06-05,2025-06-05,ｍｏｃａｒｏｏｍ合同会社,,合同会社,岡山県,岡山市北区,奥田２丁目９番８－２号ｐｒｉｍｅ‐ＴＤ棟,,33,101,7000933,,,,,,,2025-06-05,1,,,,,モカルーム,0
1032,4310001019640,新規,0,2025-06-05,2025-06-05,株式会社ＩＣ工業,,株式会社,長崎県,長崎市,滑石６丁目４番７－７０４号,,42,201,8528061,,,,,,,2025-06-05,1,,,,,アイシーコウギョウ,0
1037,4330001033268,新規,0,2025-06-05,2025-06-05,株式会社ｅｎ,,株式会社,熊本県,上益城郡嘉島町,大字下六嘉３７２８番地３,,43,442,8613102,,,,,,,2025-06-05,1,,,,,エン,0
1040,4350001019570,新規,0,2025-06-05,2025-06-05,株式会社吉田総合メンテナンス,,株式会社,宮崎県,北諸県郡三股町,大字宮村２９８０番地２,,45,341,8891912,,,,,,,2025-06-05,1,,,,,ヨシダソウゴウメンテナンス,0
1043,4360001035303,新規,0,2025-06-05,2025-06-05,株式会社Ｍ’ｓ　ｃｏｍ,,株式会社,沖縄県,浦添市,安波茶１丁目２６番７号,,47,208,9012114,,,,,,,2025-06-05,1,,,,,エムズコム,0
1044,4360003014998,新規,0,2025-06-05,2025-06-05,合同会社さきしま不動産,,合同会社,沖縄県,石垣市,字登野城６２番地１チェリーブロッサム１階,,47,207,9070004,,,,,,,2025-06-05,1,,,,,サキシマフドウサン,0
1047,4390001018008,新規,0,2025-06-05,2025-06-05,株式会社ｇａｒａｇｅＮＯＢＵ,,株式会社,山形県,天童市,清池東２丁目７番２号,,06,210,9940069,,,,,,,2025-06-05,1,,,,,ガレージノブ,0
1052,4430001094589,新規,0,2025-06-05,2025-06-05,エイトライン株式会社,,株式会社,北海道,札幌市北区,新川四条４丁目１番６４号,,01,102,0010924,,,,,,,2025-06-05,1,,,,,エイトライン,0
1053,4430001094606,新規,0,2025-06-05,2025-06-05,株式会社モアイシステム,,株式会社,北海道,札幌市中央区,南一条西１６丁目１番,,01,101,0600061,,,,,,,2025-06-05,1,,,,,モアイシステム,0
1055,4470001020748,新規,0,2025-06-05,2025-06-05,株式会社四国広告,,株式会社,香川県,善通寺市,上吉田町４丁目９番３７号香川記章ビル３階,,37,204,7650011,,,,,,,2025-06-05,1,,,,,シコクコウコク,0
1057,4470005006628,新規,0,2025-06-05,2025-06-05,一般社団法人陽,,その他の設立登記法人,香川県,高松市,亀岡町１番５８号,,37,201,7600006,,,,,,,2025-06-05,1,,,,,ハル,0
1058,4480001012851,新規,0,2025-06-05,2025-06-05,ライブ配信総合研究所株式会社,,株式会社,徳島県,徳島市,八万町福万山４番地の３２,,36,201,7708070,,,,,,,2025-06-05,1,,,,,ライブハイシンソウゴウケンキュウジョ,0
1061,4490001011068,新規,0,2025-06-05,2025-06-05,株式会社Ｃｌｕｂ　Ｋａｎｚａｓｈｉ,,株式会社,高知県,高知市,追手筋１丁目３－１８,,39,201,7800842,,,,,,,2025-06-05,1,,,,,クラブカンザシ,0
1075,5010001255595,新規,0,2025-06-05,2025-06-05,ＪＨｏｍｅｓ株式会社,,株式会社,東京都,中央区,日本橋３丁目１３番６号－５階,,13,102,1030027,,,,,,,2025-06-05,1,,,,,ジェイホームズ,0
1076,5010001255678,新規,0,2025-06-05,2025-06-05,株式会社ＶＤＣ,,株式会社,東京都,千代田区,大手町１丁目１番１号大手町パークビルディング８階,,13,101,1000004,,,,,,,2025-06-05,1,,,,,ブイディシィ,0
1079,5010003047603,新規,0,2025-06-05,2025-06-05,金沢合同会社,,合同会社,東京都,千代田区,丸の内１丁目４番１号東京共同会計事務所内,,13,101,1000005,,,,,,,2025-06-05,1,,,,,カナザワ,0
1081,5010005040127,新規,0,2025-06-05,2025-06-05,創和国際特許事務所弁理士法人,,その他の設立登記法人,東京都,千代田区,紀尾井町３番１号ＫＫＤビル７階,,13,101,1020094,,,,,,,2025-06-05,1,,,,,ソウワコクサイトッキョジムショ,0
1082,5010005040151,新規,0,2025-06-05,2025-06-05,本町一般社団法人,,その他の設立登記法人,東京都,千代田区,丸の内１丁目４番１号東京共同会計事務所内,,13,101,1000005,,,,,,,2025-06-05,1,,,,,ホンチョウ,0
1101,5010401190723,新規,0,2025-06-05,2025-06-05,株式会社ＣＩＰ,,株式会社,東京都,港区,赤坂５丁目３番６号,,13,103,1070052,,,,,,,2025-06-05,1,,,,,シーアイピー,0
1102,5010401190748,新規,0,2025-06-05,2025-06-05,株式会社Ｋ＆Ｗ,,株式会社,東京都,港区,赤阪２ー２０ー１９赤阪菅井ビル１階,,13,103,1050000,,,,,,,2025-06-05,1,,,,,ケーアンドダブリュー,0
1103,5010401190764,新規,0,2025-06-05,2025-06-05,株式会社ＡＣＩ,,株式会社,東京都,港区,南青山５丁目１７番２号,,13,103,1070062,,,,,,,2025-06-05,1,,,,,エーシーアイ,0
1104,5010401190839,新規,0,2025-06-05,2025-06-05,本橋建設ホールディングス株式会社,,株式会社,東京都,港区,元赤坂１丁目１番７－１２０９号株式会社赤坂国際会計内,,13,103,1070051,,,,,,,2025-06-05,1,,,,,モトハシケンセツホールディングス,0
1105,5010401190863,新規,0,2025-06-05,2025-06-05,株式会社ＡＰ８６ホールディングス,,株式会社,東京都,港区,虎ノ門４丁目１番２８号虎ノ門タワーズオフィス１７階,,13,103,1050001,,,,,,,2025-06-05,1,,,,,エーピーハチジュウロクホールディングス,0
1106,5010403035315,新規,0,2025-06-05,2025-06-05,ＧＢＳＳ合同会社,,合同会社,東京都,港区,芝公園２丁目２番１０号中和ビル３階,,13,103,1050011,,,,,,,2025-06-05,1,,,,,ジービーエスエス,0
1108,5010501054134,新規,0,2025-06-05,2025-06-05,株式会社ＴＡＩ,,株式会社,東京都,台東区,浅草６丁目２１番１４号,,13,106,1110032,,,,,,,2025-06-05,1,,,,,ティーエイアイ,0
1109,5010501054167,新規,0,2025-06-05,2025-06-05,宇質株式会社,,株式会社,東京都,台東区,千束１丁目１９番１３号千束ビル５０１,,13,106,1110031,,,,,,,2025-06-05,1,,,,,ウシツ,0
1110,5010501054175,新規,0,2025-06-05,2025-06-05,株式会社ＮＥＸＴ　ＨＯＴＥＬ,,株式会社,東京都,台東区,元浅草１丁目１６番５号,,13,106,1110041,,,,,,,2025-06-05,1,,,,,ネクストホテル,0
1111,5010503007866,新規,0,2025-06-05,2025-06-05,ＴＡＫＵＭＵ合同会社,,合同会社,東京都,台東区,谷中２丁目８番８－３０１号,,13,106,1100001,,,,,,,2025-06-05,1,,,,,,0
1123,5010901057488,新規,0,2025-06-05,2025-06-05,ＡＩｎｈｏｕｓｅ株式会社,,株式会社,東京都,世田谷区,太子堂４丁目１６―４プリムラハイツ１Ｆ,,13,112,1540004,,,,,,,2025-06-05,1,,,,,アインハウス,0
1124,5010903009974,新規,0,2025-06-05,2025-06-05,合同会社Ｓ’ａｐｐｕｙｅｒ,,合同会社,東京都,世田谷区,松原６丁目１５番１号,,13,112,1560043,,,,,,,2025-06-05,1,,,,,サピュイエ,0
1130,5011001169901,新規,0,2025-06-05,2025-06-05,ａｏｒａ株式会社,,株式会社,東京都,渋谷区,代官山町１３－５代官山１３５ビル,,13,113,1500034,,,,,,,2025-06-05,1,,,,,アオラ,0
1131,5011001170066,新規,0,2025-06-05,2025-06-05,匠仞株式会社,,株式会社,東京都,渋谷区,神宮前５丁目３９番８号,,13,113,1500001,,,,,,,2025-06-05,1,,,,,ショウジン,0
1133,5011003021705,新規,0,2025-06-05,2025-06-05,コモン・センス合同会社,,合同会社,東京都,渋谷区,千駄ヶ谷３丁目１番６号ｃｏｍｍｏｎｇａｒｄｅｎ原宿北参道３０１,,13,113,1510051,,,,,,,2025-06-05,1,,,,,コモンセンス,0
1139,5011101111936,新規,0,2025-06-05,2025-06-05,株式会社ｃｏｃｏ．,,株式会社,東京都,新宿区,西新宿３丁目３番１３号西新宿水間ビル６Ｆ,,13,104,1600023,,,,,,,2025-06-05,1,,,,,ココ,0
1140,5011101111952,新規,0,2025-06-05,2025-06-05,ｂｅａｔｉｎｇ株式会社,,株式会社,東京都,新宿区,西新宿３丁目３番１３号西新宿水間ビル２Ｆ,,13,104,1600023,,,,,,,2025-06-05,1,,,,,ビーティング,0
1143,5011201026373,新規,0,2025-06-05,2025-06-05,株式会社ＹＺＡＣ,,株式会社,東京都,中野区,本町４丁目４８－１７新中野駅上プラザ３０５号室,,13,114,1640012,,,,,,,2025-06-05,1,,,,,ワイゼットエーシー,0
1147,5011503006569,新規,0,2025-06-05,2025-06-05,合同会社ＳＡＩＮＯ．,,合同会社,東京都,北区,中里２丁目９－６,,13,117,1140015,,,,,,,2025-06-05,1,,,,,サイノ,0
1148,5011701028398,新規,0,2025-06-05,2025-06-05,株式会社Ｆｉｎｅ　Ｗｏｒｋｓ,,株式会社,東京都,江戸川区,東葛西９丁目３番１４－１１２８号,,13,123,1340084,,,,,,,2025-06-05,1,,,,,ファインワークス,0
1150,5011705001896,新規,0,2025-06-05,2025-06-05,一般社団法人Ａｅｒｕ,,その他の設立登記法人,東京都,江戸川区,篠崎町５丁目８番２０－２０７号,,13,123,1330061,,,,,,,2025-06-05,1,,,,,アエル,0
1151,5011801046250,新規,0,2025-06-05,2025-06-05,葛奥企画株式会社,,株式会社,東京都,葛飾区,柴又１丁目１番４号,,13,122,1250052,,,,,,,2025-06-05,1,,,,,カツオクキカク,0
1152,5011801046267,新規,0,2025-06-05,2025-06-05,株式会社ＭＫ工務店,,株式会社,東京都,葛飾区,亀有２丁目８番４号,,13,122,1250061,,,,,,,2025-06-05,1,,,,,,0
1158,5012301014417,新規,0,2025-06-05,2025-06-05,株式会社モダンハウスＣＬＵＢ,,株式会社,東京都,町田市,原町田１丁目１番３号,,13,209,1940013,,,,,,,2025-06-05,1,,,,,モダンハウスクラブ,0
1159,5012303002171,新規,0,2025-06-05,2025-06-05,合同会社ハラダシステムズ,,合同会社,東京都,町田市,金井３丁目２０番地１０,,13,209,1950072,,,,,,,2025-06-05,1,,,,,ハラダシステムズ,0
1161,5012701018901,新規,0,2025-06-05,2025-06-05,株式会社ＴＬＢ,,株式会社,東京都,西東京市,東伏見４丁目３番６号,,13,229,2020021,,,,,,,2025-06-05,1,,,,,ティーエルビー,0
1162,5012801024015,新規,0,2025-06-05,2025-06-05,ロボセンター株式会社,,株式会社,東京都,立川市,高松町２丁目１７－２８,,13,202,1900011,,,,,,,2025-06-05,1,,,,,ロボセンター,0
1169,5020001163129,新規,0,2025-06-05,2025-06-05,株式会社嘉康,,株式会社,神奈川県,横浜市中区,蓬莱町２丁目６－３ＫＯＹＯ関内ビル５０３号室,,14,104,2310048,,,,,,,2025-06-05,1,,,,,ヨシヤス,0
1170,5020001163178,新規,0,2025-06-05,2025-06-05,株式会社ジェムスター,,株式会社,神奈川県,横浜市中区,本牧間門２０番２号,,14,104,2310825,,,,,,,2025-06-05,1,,,,,ジェムスター,0
1171,5020001163194,新規,0,2025-06-05,2025-06-05,ＴＮＴ株式会社,,株式会社,神奈川県,横浜市西区,西平沼町１番２２－９０１号,,14,103,2200024,,,,,,,2025-06-05,1,,,,,ティーエヌティー,0
1172,5020001163211,新規,0,2025-06-05,2025-06-05,株式会社Ｈ＆Ｋグループ,,株式会社,神奈川県,横浜市旭区,今宿西町３９７番地７,,14,112,2410031,,,,,,,2025-06-05,1,,,,,エイチアンドケーグループ,0
1173,5020001163236,新規,0,2025-06-05,2025-06-05,株式会社ケープラネット,,株式会社,神奈川県,横浜市青葉区,すすき野３丁目４番地２５２,,14,117,2250021,,,,,,,2025-06-05,1,,,,,ケープラネット,0
1174,5020001163244,新規,0,2025-06-05,2025-06-05,株式会社８ＳＴＹＬＥ,,株式会社,神奈川県,横浜市戸塚区,東俣野町１１８６番地５４,,14,110,2450065,,,,,,,2025-06-05,1,,,,,エイトスタイル,0
1175,5020001163260,新規,0,2025-06-05,2025-06-05,Ｐｈｉｘｅｌｌ株式会社,,株式会社,神奈川県,川崎市多摩区,枡形５丁目２５番７－１号,,14,135,2140032,,,,,,,2025-06-05,1,,,,,フィクセル,0
1180,5020003028627,新規,0,2025-06-05,2025-06-05,合同会社チャーチアベニュー,,合同会社,神奈川県,横浜市港北区,綱島西１丁目１８番１５号,,14,109,2230053,,,,,,,2025-06-05,1,,,,,チャーチアベニュー,0
1181,5020003028635,新規,0,2025-06-05,2025-06-05,ＰＨ合同会社,,合同会社,神奈川県,横浜市都筑区,佐江戸町２４８番地６０１,,14,118,2240054,,,,,,,2025-06-05,1,,,,,ハッピー,0
1182,5020003028643,新規,0,2025-06-05,2025-06-05,合同会社うみねこ電源,,合同会社,神奈川県,横浜市中区,住吉町１丁目１番地第３柳下ビル６０１,,14,104,2310013,,,,,,,2025-06-05,1,,,,,ウミネコデンゲン,0
1184,5021001085387,新規,0,2025-06-05,2025-06-05,保田プランニング株式会社,,株式会社,神奈川県,大和市,福田４丁目２２番地１０,,14,213,2420024,,,,,,,2025-06-05,1,,,,,ヤスダプランニング,0
1186,5021005013385,新規,0,2025-06-05,2025-06-05,特定非営利活動法人ゆめみらい,,その他の設立登記法人,神奈川県,逗子市,池子１丁目６番２２号,,14,208,2490003,,,,,,,2025-06-05,1,,,,,ユメミライ,0
1190,5030001166725,新規,0,2025-06-05,2025-06-05,スターベスト株式会社,,株式会社,埼玉県,川口市,桜町６丁目１０番３４号,,11,203,3340001,,,,,,,2025-06-05,1,,,,,スターベスト,0
1191,5030001166857,新規,0,2025-06-05,2025-06-05,株式会社アキヨシ工業,,株式会社,埼玉県,川口市,大字東内野４７１番地の５,,11,203,3330821,,,,,,,2025-06-05,1,,,,,アキヨシコウギョウ,0
1192,5030001166923,新規,0,2025-06-05,2025-06-05,遥株式会社,,株式会社,埼玉県,川越市,郭町２丁目２２番地６７,,11,201,3500053,,,,,,,2025-06-05,1,,,,,ヨウ,0
1195,5030003026943,新規,0,2025-06-05,2025-06-05,合同会社ＪＰＮ,,合同会社,埼玉県,さいたま市見沼区,春岡１丁目２２－１１,,11,104,3370008,,,,,,,2025-06-05,1,,,,,ジェーピーエヌ,0
1206,5040003027759,新規,0,2025-06-05,2025-06-05,合同会社Ａｔｔｒａｉｔ,,合同会社,千葉県,印旛郡栄町,安食２丁目６－１０,,12,329,2701516,,,,,,,2025-06-05,1,,,,,アトレ,0
1207,5050003009327,新規,0,2025-06-05,2025-06-05,合同会社カラーズ,,合同会社,茨城県,鉾田市,青山６９７番地,,08,234,3112101,,,,,,,2025-06-05,1,,,,,カラーズ,0
1208,5060001038269,新規,0,2025-06-05,2025-06-05,株式会社ＭＲＹ,,株式会社,栃木県,佐野市,堀米町３７５１番地１,,09,204,3270843,,,,,,,2025-06-05,1,,,,,エムアールワイ,0
1222,5080101025537,新規,0,2025-06-05,2025-06-05,ＭＹホームサービス株式会社,,株式会社,静岡県,沼津市,上香貫槙島町１３５６番地の１,,22,203,4100813,,,,,,,2025-06-05,1,,,,,マイホームサービス,0
1223,5100001038660,新規,0,2025-06-05,2025-06-05,ＡＩＭＵＮＩＱ株式会社,,株式会社,長野県,飯田市,松尾水城３４４８番地１０,,20,205,3950826,,,,,,,2025-06-05,1,,,,,アイムニーク,0
1235,5120001276481,新規,0,2025-06-05,2025-06-05,株式会社タナカ不動産,,株式会社,大阪府,大阪市東成区,大今里西２丁目１番２９－１０２号,,27,115,5370014,,,,,,,2025-06-05,1,,,,,タナカフドウサン,0
1236,5120001276498,新規,0,2025-06-05,2025-06-05,株式会社Ｒｅ‐ｓｅｒｖｅ,,株式会社,大阪府,大阪市住之江区,粉浜１丁目１７番１９号,,27,125,5590001,,,,,,,2025-06-05,1,,,,,リザーブ,0
1237,5120001276515,新規,0,2025-06-05,2025-06-05,株式会社ｅｓＴ．ｃｏ,,株式会社,大阪府,大阪市城東区,野江１丁目１５番３０－６０１号,,27,118,5360006,,,,,,,2025-06-05,1,,,,,エストドットシーオー,0
1238,5120001276531,新規,0,2025-06-05,2025-06-05,株式会社ＮＡ,,株式会社,大阪府,大阪市西区,江戸堀１丁目６番１７－２９０９号,,27,106,5500002,,,,,,,2025-06-05,1,,,,,エヌエー,0
1239,5120001276548,新規,0,2025-06-05,2025-06-05,株式会社ＤＴＦ,,株式会社,大阪府,大阪市此花区,西九条４丁目３番２３号朝日ハイツ２Ｆ,,27,104,5540012,,,,,,,2025-06-05,1,,,,,ディーティーエフ,0
1240,5120001276556,新規,0,2025-06-05,2025-06-05,＿巨宏株式会社,00139456,株式会社,大阪府,大阪市城東区,関目５丁目１９番９号関目花博公館５０３Ａ,,27,118,5360008,,,,,,,2025-06-05,1,,,,,キンキョコウ,0
1241,5120001276564,新規,0,2025-06-05,2025-06-05,株式会社Ａ‐ＳＴＡＲＴ　ＡＵＤＩＯ,,株式会社,大阪府,大阪市港区,港晴３丁目１番１０号パークサイド朝潮橋３０２号,,27,107,5520023,,,,,,,2025-06-05,1,,,,,エースタートオーディオ,0
1242,5120001276606,新規,0,2025-06-05,2025-06-05,株式会社丸さ屋テント,,株式会社,大阪府,大阪市港区,磯路２丁目１５番１５号,,27,107,5520003,,,,,,,2025-06-05,1,,,,,マルサヤテント,0
1246,5120003029672,新規,0,2025-06-05,2025-06-05,Ｍｏｒｅ　Ｌｉｆｅ合同会社,,合同会社,大阪府,枚方市,渚西１丁目４５－６,,27,210,5731178,,,,,,,2025-06-05,1,,,,,モアライフ,0
1247,5120003029680,新規,0,2025-06-05,2025-06-05,ＳＲ　Ｄｅｓｉｇｎ合同会社,,合同会社,大阪府,大阪市北区,梅田１丁目２番２号大阪駅前第２ビル１２－１２,,27,127,5300001,,,,,,,2025-06-05,1,,,,,エスアールデザイン,0
1248,5120003029689,新規,0,2025-06-05,2025-06-05,ＨＭＣ合同会社,,合同会社,大阪府,大阪市生野区,新今里４丁目１１－１１,,27,116,5440001,,,,,,,2025-06-05,1,,,,,エイチエムシー,0
1252,5120101071799,新規,0,2025-06-05,2025-06-05,株式会社Ｓｅｔ‐ｕｐ,,株式会社,大阪府,河内長野市,高向４５６番地の１,,27,216,5860036,,,,,,,2025-06-05,1,,,,,セットアップ,0
1253,5120101071808,新規,0,2025-06-05,2025-06-05,株式会社Ｋ＆Ｓ,,株式会社,大阪府,富田林市,藤沢台６丁目１９番２８号,,27,214,5840071,,,,,,,2025-06-05,1,,,,,ケーアンドエス,0
1254,5120101071816,新規,0,2025-06-05,2025-06-05,株式会社ＲＳＣ,,株式会社,大阪府,羽曳野市,蔵之内３８番地の４,,27,222,5830863,,,,,,,2025-06-05,1,,,,,アールエスシー,0
1255,5120101071824,新規,0,2025-06-05,2025-06-05,株式会社高橋クリーニング,,株式会社,大阪府,松原市,上田２丁目１番２２－６０１号,,27,217,5800016,,,,,,,2025-06-05,1,,,,,タカハシクリーニング,0
1256,5120103006497,新規,0,2025-06-05,2025-06-05,合同会社エーワン,,合同会社,大阪府,藤井寺市,津堂１丁目３番２号,,27,226,5830037,,,,,,,2025-06-05,1,,,,,エーワン,0
1257,5120105010010,新規,0,2025-06-05,2025-06-05,特定非営利活動法人つながるみどり,,その他の設立登記法人,大阪府,和泉市,若樫町１５８番地の７,,27,219,5941143,,,,,,,2025-06-05,1,,,,,ツナガルミドリ,0
1262,5122001039323,新規,0,2025-06-05,2025-06-05,株式会社梛,,株式会社,大阪府,東大阪市,衣摺３丁目５番９号,,27,227,5770827,,,,,,,2025-06-05,1,,,,,ナギ,0
1272,5140001138787,新規,0,2025-06-05,2025-06-05,株式会社ｍｚｋ,,株式会社,兵庫県,神戸市中央区,加納町４丁目７－１１パレ・ド・北野坂３１０,,28,110,6500001,,,,,,,2025-06-05,1,,,,,エムゼットケー,0
1273,5140001138795,新規,0,2025-06-05,2025-06-05,株式会社ＡＭＥ,,株式会社,兵庫県,神戸市中央区,磯辺通１丁目１番１８号カサベラ国際プラザビル７０７号室,,28,110,6510084,,,,,,,2025-06-05,1,,,,,アム,0
1274,5140001138845,新規,0,2025-06-05,2025-06-05,株式会社フラックスブルーム,,株式会社,兵庫県,神戸市灘区,摩耶海岸通１丁目１番３－８０２号,,28,102,6570855,,,,,,,2025-06-05,1,,,,,フラックスブルーム,0
1276,5140003022139,新規,0,2025-06-05,2025-06-05,ＭＩＲＥ　ＢＲＩＤＧＥ合同会社,,合同会社,兵庫県,神戸市中央区,磯上通８丁目１番２９号カサベラビルＣ＆Ｍ４０３号室,,28,110,6510086,,,,,,,2025-06-05,1,,,,,ミレブリッジ,0
1278,5140005027532,新規,0,2025-06-05,2025-06-05,一般社団法人栄楽創,,その他の設立登記法人,兵庫県,神戸市長田区,五番町７丁目５番地の１２,,28,106,6530003,,,,,,,2025-06-05,1,,,,,エイラクソウ,0
1281,5160001026800,新規,0,2025-06-05,2025-06-05,株式会社きらめき,,株式会社,滋賀県,蒲生郡日野町,中道２丁目４５番地,,25,383,5291609,,,,,,,2025-06-05,1,,,,,キラメキ,0
1282,5160001026809,新規,0,2025-06-05,2025-06-05,ぎゃお株式会社,,株式会社,滋賀県,湖南市,三雲１１９６ぎゃお整療院,,25,211,5203221,,,,,,,2025-06-05,1,,,,,ギャオ,0
1283,5170001018656,新規,0,2025-06-05,2025-06-05,株式会社岡本,,株式会社,和歌山県,田辺市,本宮町大居３１１７番地の２,,30,206,6471741,,,,,,,2025-06-05,1,,,,,オカモト,0
1289,5180001167122,新規,0,2025-06-05,2025-06-05,株式会社チャーミー,,株式会社,愛知県,瀬戸市,共栄通５丁目２４番地２,,23,204,4890809,,,,,,,2025-06-05,1,,,,,チャーミー,0
1290,5180001167139,新規,0,2025-06-05,2025-06-05,株式会社ＢＦ,,株式会社,愛知県,一宮市,三条字郷内西１７０４番地８,,23,203,4940003,,,,,,,2025-06-05,1,,,,,ビーエフ,0
1291,5180001167163,新規,0,2025-06-05,2025-06-05,株式会社ＷＩＮＸ,,株式会社,愛知県,あま市,森２丁目４番地７,,23,237,4901107,,,,,,,2025-06-05,1,,,,,ウィンクス,0
1298,5180003028586,新規,0,2025-06-05,2025-06-05,合同会社ＫＮＥリンク,,合同会社,愛知県,名古屋市中村区,名駅３丁目４－１０アルティメイト名駅１ｓｔ２階,,23,105,4500002,,,,,,,2025-06-05,1,,,,,ケーエヌイーリンク,0
1299,5180005021119,新規,0,2025-06-05,2025-06-05,一般社団法人Ｍ’ｓふとせふ,,その他の設立登記法人,愛知県,小牧市,大字村中７０７番地１,,23,219,4850082,,,,,,,2025-06-05,1,,,,,エムズフトセフ,0
1300,5180301039863,新規,0,2025-06-05,2025-06-05,株式会社宮田建材店,,株式会社,愛知県,刈谷市,野田町北屋敷１５８番地１,,23,210,4480803,,,,,,,2025-06-05,1,,,,,ミヤタケンザイテン,0
1303,5190001032283,新規,0,2025-06-05,2025-06-05,株式会社二見塗装,,株式会社,三重県,伊勢市,二見町松下１３６５番地７８,,24,203,5190601,,,,,,,2025-06-05,1,,,,,フタミトソウ,0
1305,5190003005064,新規,0,2025-06-05,2025-06-05,合同会社Ｌｉｂｅｒｔｅ,,合同会社,三重県,亀山市,川崎町３１１５番地１,,24,210,5190211,,,,,,,2025-06-05,1,,,,,リベルテ,0
1306,5200001043857,新規,0,2025-06-05,2025-06-05,株式会社Ｅｔｅｒｎａｌ　Ｐａｔｈ,,株式会社,岐阜県,羽島郡笠松町,門間５９０番地,,21,303,5016065,,,,,,,2025-06-05,1,,,,,エターナルパス,0
1307,5200001043873,新規,0,2025-06-05,2025-06-05,株式会社星和電気工事,,株式会社,岐阜県,瑞穂市,牛牧１４６８番地４,,21,216,5010234,,,,,,,2025-06-05,1,,,,,セイワデンキコウジ,0
1309,5210003001928,新規,0,2025-06-05,2025-06-05,合同会社坂口鑑定事務所,,合同会社,福井県,越前市,今宿町第２５号１７番地の１,,18,209,9150861,,,,,,,2025-06-05,1,,,,,サカグチカンテイジムショ,0
1311,5220001026728,新規,0,2025-06-05,2025-06-05,株式会社Ｌｉｎｋ,,株式会社,石川県,白山市,鶴来大国町西５１９番地,,17,210,9202133,,,,,,,2025-06-05,1,,,,,リンク,0
1318,5240001065014,新規,0,2025-06-05,2025-06-05,エヌツー株式会社,,株式会社,広島県,広島市中区,舟入南３丁目９番２４号,,34,101,7300847,,,,,,,2025-06-05,1,,,,,エヌツー,0
1324,5270003001749,新規,0,2025-06-05,2025-06-05,合同会社ＩＮ,,合同会社,鳥取県,米子市,河岡５７１番地３,,31,202,6893521,,,,,,,2025-06-05,1,,,,,アイエヌ,0
1325,5280001009438,新規,0,2025-06-05,2025-06-05,食彩工房しまね株式会社,,株式会社,島根県,松江市,浜乃木１丁目５番８３号,,32,201,6900044,,,,,,,2025-06-05,1,,,,,ショクサイコウボウシマネ,0
1339,5330001033250,新規,0,2025-06-05,2025-06-05,株式会社中川商店,,株式会社,熊本県,天草市,東浜町１８番１２号,,43,215,8630014,,,,,,,2025-06-05,1,,,,,ナカガワショウテン,0
1340,5330001033259,新規,0,2025-06-05,2025-06-05,株式会社カメリアコート,,株式会社,熊本県,上益城郡益城町,大字田原２０２５番地５,,43,443,8612202,,,,,,,2025-06-05,1,,,,,カメリアコート,0
1341,5340001027417,新規,0,2025-06-05,2025-06-05,株式会社渕田商店,,株式会社,鹿児島県,鹿児島市,平川町４３２４,,46,201,8910133,,,,,,,2025-06-05,1,,,,,フチダショウテン,0
1343,5350001019561,新規,0,2025-06-05,2025-06-05,株式会社未来山業,,株式会社,宮崎県,西諸県郡高原町,大字蒲牟田２７８５番地,,45,361,8894414,,,,,,,2025-06-05,1,,,,,ミライサンギョウ,0
1344,5350001019578,新規,0,2025-06-05,2025-06-05,株式会社ＳＷＡＣＫ,,株式会社,宮崎県,延岡市,野地町４丁目３５６７番地,,45,203,8820802,,,,,,,2025-06-05,1,,,,,スワック,0
1345,5360001035302,新規,0,2025-06-05,2025-06-05,株式会社ＨＹＢＲＩＤ,,株式会社,沖縄県,沖縄市,松本３丁目１８番１号,,47,211,9042151,,,,,,,2025-06-05,1,,,,,ハイブリッド,0
1346,5360003014989,新規,0,2025-06-05,2025-06-05,合同会社コーペラ,,合同会社,沖縄県,宜野湾市,野嵩２丁目２３－１６,,47,205,9012203,,,,,,,2025-06-05,1,,,,,コーペラ,0
1347,5360003014997,新規,0,2025-06-05,2025-06-05,合同会社ＹＡＭＡＴＯ,,合同会社,沖縄県,沖縄市,諸見里１丁目８番１８号２Ｆ,,47,211,9040032,,,,,,,2025-06-05,1,,,,,ヤマト,0
1348,5360003015005,新規,0,2025-06-05,2025-06-05,アスカス合同会社,,合同会社,沖縄県,那覇市,字安謝６１９番地３,,47,201,9000003,,,,,,,2025-06-05,1,,,,,アスカス,0
1351,5370001052668,新規,0,2025-06-05,2025-06-05,Ａｔｔａｃｈｍｅｎｔ株式会社,,株式会社,宮城県,東松島市,小野字裏丁３１番地３,,04,214,9810303,,,,,,,2025-06-05,1,,,,,アタッチメント,0
1355,5390003002405,新規,0,2025-06-05,2025-06-05,合同会社Ｒｅサークル,,合同会社,山形県,山形市,本町１丁目７番２１号,,06,201,9900043,,,,,,,2025-06-05,1,,,,,リサークル,0
1359,5430001094571,新規,0,2025-06-05,2025-06-05,株式会社Ｒ＆Ｂ,,株式会社,北海道,札幌市豊平区,豊平六条２丁目１番７号,,01,105,0620906,,,,,,,2025-06-05,1,,,,,アールアンドビー,0
1360,5430001094588,新規,0,2025-06-05,2025-06-05,株式会社サークルＪＰ,,株式会社,北海道,千歳市,青葉８丁目１３番１２号２０１,,01,224,0660015,,,,,,,2025-06-05,1,,,,,サークルジェイピー,0
1364,5470001020739,新規,0,2025-06-05,2025-06-05,株式会社イーエスホーム,,株式会社,香川県,高松市,松島町１丁目１３番１０号カントビル５階,,37,201,7600068,,,,,,,2025-06-05,1,,,,,イーエスホーム,0
1365,5470001020747,新規,0,2025-06-05,2025-06-05,株式会社シャンス,,株式会社,香川県,丸亀市,土器町西５丁目２９１,,37,202,7630081,,,,,,,2025-06-05,1,,,,,,0
1367,5490003002023,新規,0,2025-06-05,2025-06-05,谷口石材店合同会社,,合同会社,高知県,安芸市,幸町３番１６号,,39,203,7840021,,,,,,,2025-06-05,1,,,,,タニグチセキザイテン,0
1368,5500001026336,新規,0,2025-06-05,2025-06-05,株式会社ＢＬＡＳＴ,,株式会社,愛媛県,四国中央市,中曽根町１３３９番地１,,38,213,7990413,,,,,,,2025-06-05,1,,,,,ブレスト,0
1385,6010003047602,新規,0,2025-06-05,2025-06-05,水戸合同会社,,合同会社,東京都,千代田区,丸の内１丁目４番１号東京共同会計事務所内,,13,101,1000005,,,,,,,2025-06-05,1,,,,,ミト,0
1387,6010005040134,新規,0,2025-06-05,2025-06-05,ＤＲＥＳ１一般社団法人,,その他の設立登記法人,東京都,中央区,日本橋１丁目４番１号日本橋一丁目ビルディング,,13,102,1030027,,,,,,,2025-06-05,1,,,,,ドレスワン,0
1388,6010005040150,新規,0,2025-06-05,2025-06-05,水戸一般社団法人,,その他の設立登記法人,東京都,千代田区,丸の内１丁目４番１号東京共同会計事務所内,,13,101,1000005,,,,,,,2025-06-05,1,,,,,ミト,0
1402,6010401190813,新規,0,2025-06-05,2025-06-05,株式会社ＭＵＲＯ　ＨＯＬＤＩＮＧＳ,,株式会社,東京都,港区,南青山３丁目１番３６号青山丸竹ビル６Ｆ,,13,103,1070062,,,,,,,2025-06-05,1,,,,,ムロホールディングス,0
1403,6010401190821,新規,0,2025-06-05,2025-06-05,株式会社ウォーカブル,,株式会社,東京都,港区,南青山２丁目２番１５号ウィン青山１３０２,,13,103,1070062,,,,,,,2025-06-05,1,,,,,ウォーカブル,0
1404,6010403035280,新規,0,2025-06-05,2025-06-05,３ＤＭａｒｔ　Ｊａｐａｎ合同会社,,合同会社,東京都,港区,赤坂２丁目８番１４－４０７号,,13,103,1070052,,,,,,,2025-06-05,1,,,,,スリーディーマートジャパン,0
1405,6010403035297,新規,0,2025-06-05,2025-06-05,合同会社Ｐｌｅｎｕｍ,,合同会社,東京都,港区,赤坂９丁目７番２号ミッドタウン・イースト４階,,13,103,1070052,,,,,,,2025-06-05,1,,,,,プレナム,0
1406,6010405024406,新規,0,2025-06-05,2025-06-05,特定非営利活動法人ＡＺＵＭＡＹＡ,,その他の設立登記法人,東京都,港区,白金３丁目１４番５－２０３号,,13,103,1080072,,,,,,,2025-06-05,1,,,,,アズマヤ,0
1407,6010501054182,新規,0,2025-06-05,2025-06-05,恵有麗株式会社,,株式会社,東京都,台東区,千束２丁目３６番６号上野入谷シティハウス５０６号室,,13,106,1110031,,,,,,,2025-06-05,1,,,,,ケイユウレイ,0
1408,6010503007873,新規,0,2025-06-05,2025-06-05,くらやど合同会社,,合同会社,東京都,台東区,谷中５丁目４番９号,,13,106,1100001,,,,,,,2025-06-05,1,,,,,クラヤド,0
1413,6010601067407,新規,0,2025-06-05,2025-06-05,株式会社Ｌｉｓｃｅｌｔａ,,株式会社,東京都,江東区,東陽５丁目３１番１２－２０４号,,13,108,1350016,,,,,,,2025-06-05,1,,,,,リシェルタ,0
1414,6010601067415,新規,0,2025-06-05,2025-06-05,パペチュア株式会社,,株式会社,東京都,墨田区,八広４丁目２３番４号,,13,107,1310041,,,,,,,2025-06-05,1,,,,,パペチュア,0
1417,6010803005420,新規,0,2025-06-05,2025-06-05,Ｍａｇｇｏｔｔｓ合同会社,,合同会社,東京都,大田区,南馬込５丁目１８番１６号,,13,111,1430025,,,,,,,2025-06-05,1,,,,,マゴッツ,0
1419,6010903009973,新規,0,2025-06-05,2025-06-05,合同会社グラウンドベース,,合同会社,東京都,世田谷区,池尻４丁目１６－１１,,13,112,1540001,,,,,,,2025-06-05,1,,,,,グラウンドベース,0
1423,6011001169000,新規,0,2025-06-05,2025-06-05,株式会社コマンドキー,,株式会社,東京都,渋谷区,恵比寿西２丁目８番４号ＥＸ恵比寿西ビル５階,,13,113,1500021,,,,,,,2025-06-05,1,,,,,コマンドキー,0
1424,6011001169834,新規,0,2025-06-05,2025-06-05,甲南ハウジング株式会社,,株式会社,東京都,目黒区,緑が丘２丁目１７番２５号コリヌヴェール自由が丘３０２,,13,110,1520034,,,,,,,2025-06-05,1,,,,,コーナンハウジング,0
1425,6011001169875,新規,0,2025-06-05,2025-06-05,株式会社Ｐｅｒｓｏｎａ．ＡＩ,,株式会社,東京都,渋谷区,渋谷２丁目１９－１５宮益坂ビルディング６０９,,13,113,1500002,,,,,,,2025-06-05,1,,,,,ペルソナエーアイ,0
1426,6011001169909,新規,0,2025-06-05,2025-06-05,株式会社矢吹健巳写真事務所,,株式会社,東京都,渋谷区,神宮前２丁目３番２３号ヴィラ瑛３０２,,13,113,1500001,,,,,,,2025-06-05,1,,,,,ヤブキタケミシャシンジムショ,0
1427,6011001170354,新規,0,2025-06-05,2025-06-05,株式会社ＳＨＩＮＯＫＥＹ,,株式会社,東京都,渋谷区,道玄坂１丁目１０番８号渋谷道玄坂東急ビル２Ｆ－Ｃ,,13,113,1500043,,,,,,,2025-06-05,1,,,,,シノキー,0
1429,6011003021646,新規,0,2025-06-05,2025-06-05,合同会社Ｆｌｕｘ,,合同会社,東京都,目黒区,五本木２丁目２０番３号２０１,,13,110,1530053,,,,,,,2025-06-05,1,,,,,フラックス,0
1430,6011005011001,新規,0,2025-06-05,2025-06-05,一般社団法人不動産調査技術研究所,,その他の設立登記法人,東京都,渋谷区,神南１丁目１１番４号ＦＰＧリンクス神南５階,,13,113,1500041,,,,,,,2025-06-05,1,,,,,フドウサンチョウサギジュツケンキュジョ,0
1431,6011005011050,新規,0,2025-06-05,2025-06-05,ＮＰＯ法人とっちスポーツクラブ,,その他の設立登記法人,東京都,渋谷区,渋谷２丁目１９番１５号宮益坂ビルディング６０９,,13,113,1500002,,,,,,,2025-06-05,1,,,,,,0
1435,6011103015936,新規,0,2025-06-05,2025-06-05,合同会社ＥｓｔＯ　ｔｉｂｉ,,合同会社,東京都,新宿区,西新宿３丁目３番１３号西新宿水間ビル６階,,13,104,1600023,,,,,,,2025-06-05,1,,,,,エストティビ,0
1437,6011303005588,新規,0,2025-06-05,2025-06-05,合同会社Ａｎｔｒｅｅ,,合同会社,東京都,杉並区,高井戸東２丁目４番１３号,,13,115,1680072,,,,,,,2025-06-05,1,,,,,アントレ,0
1439,6011401027138,新規,0,2025-06-05,2025-06-05,株式会社オートリー電気,,株式会社,東京都,板橋区,前野町５丁目７番２号,,13,119,1740063,,,,,,,2025-06-05,1,,,,,オートリーデンキ,0
1440,6011503006568,新規,0,2025-06-05,2025-06-05,Ｈａｐｉｏ合同会社,,合同会社,東京都,荒川区,町屋１丁目２５番３－１０３号,,13,118,1160001,,,,,,,2025-06-05,1,,,,,ハピオ,0
1441,6011701028397,新規,0,2025-06-05,2025-06-05,株式会社リキッドソン,,株式会社,東京都,江戸川区,鹿骨６丁目１番２号,,13,123,1330073,,,,,,,2025-06-05,1,,,,,リキッドソン,0
1444,6012301014416,新規,0,2025-06-05,2025-06-05,ＲｅＢＬワークス株式会社,,株式会社,東京都,町田市,森野１丁目３６番２号セレステ町田１階２階,,13,209,1940022,,,,,,,2025-06-05,1,,,,,リブルワークス,0
1445,6012401043190,新規,0,2025-06-05,2025-06-05,株式会社古賀設計事務所,,株式会社,東京都,府中市,南町１丁目３番地の１,,13,206,1830026,,,,,,,2025-06-05,1,,,,,コガセッケイジムショ,0
1446,6012403007169,新規,0,2025-06-05,2025-06-05,合同会社兼先,,合同会社,東京都,調布市,佐須町２丁目７番地５リオ・セレッソ２０１,,13,208,1820016,,,,,,,2025-06-05,1,,,,,カネサキ,0
1447,6012701018909,新規,0,2025-06-05,2025-06-05,株式会社ＭＰＯ,,株式会社,東京都,小平市,小川町１丁目１０４５－７,,13,211,1870032,,,,,,,2025-06-05,1,,,,,エムピーオー,0
1448,6013301054393,新規,0,2025-06-05,2025-06-05,京辰株式会社,,株式会社,東京都,豊島区,池袋１丁目１６番２０号ユニーブル池袋リ・ノヴァス３０２号,,13,116,1700014,,,,,,,2025-06-05,1,,,,,キョウシン,0
1454,6020001163177,新規,0,2025-06-05,2025-06-05,株式会社ＴＨＹ　Ｆｕｔｕｒｅ　ＦＡＣＴＯＲＹ,,株式会社,神奈川県,横浜市中区,弥生町２丁目１５番地１ストークタワー大通り公園３－８０４号室,,14,104,2310058,,,,,,,2025-06-05,1,,,,,ティーエイチワイフューチャーファクトリー,0
1455,6020001163202,新規,0,2025-06-05,2025-06-05,株式会社ＺＯＰエンターテインメント,,株式会社,神奈川県,横浜市西区,みなとみらい４丁目４番２号横浜ブルーアベニュー１４階,,14,103,2200012,,,,,,,2025-06-05,1,,,,,ゾップエンターテインメント,0
1456,6020001163210,新規,0,2025-06-05,2025-06-05,株式会社Ｐｌａｎｔｆｕｌ,,株式会社,神奈川県,川崎市宮前区,有馬１丁目２番１号ブリリア鷺沼６０３号,,14,136,2160003,,,,,,,2025-06-05,1,,,,,プラントフル,0
1457,6020001163227,新規,0,2025-06-05,2025-06-05,株式会社ＰＡＷＳ,,株式会社,神奈川県,横浜市青葉区,美しが丘西３丁目９番地１０,,14,117,2250001,,,,,,,2025-06-05,1,,,,,パウズ,0
1458,6020001163235,新規,0,2025-06-05,2025-06-05,株式会社エセックホーム,,株式会社,神奈川県,川崎市川崎区,殿町１丁目２２番５号,,14,131,2100821,,,,,,,2025-06-05,1,,,,,エセックホーム,0
1459,6020001163251,新規,0,2025-06-05,2025-06-05,株式会社ＬａＬａアモーレ,,株式会社,神奈川県,横浜市西区,北幸２丁目１０番４８号むつみビル３階,,14,103,2200004,,,,,,,2025-06-05,1,,,,,ララアモーレ,0
1460,6020001163268,新規,0,2025-06-05,2025-06-05,株式会社Ｓｔｒａｔｅｇｉｃ　Ｐｏｌｉｃｙ＆Ｏｐｅｒａｔｉｏｎｓ　Ｔｅａｍ,,株式会社,神奈川県,横浜市港北区,高田東２丁目２７番４号,,14,109,2230065,,,,,,,2025-06-05,1,,,,,ストラテジックポリシーアンドオペレーションズチーム,0
1464,6020003028634,新規,0,2025-06-05,2025-06-05,Ａ＆Ｔ合同会社,,合同会社,神奈川県,横浜市緑区,長津田町４１７８―１,,14,113,2260026,,,,,,,2025-06-05,1,,,,,エーアンドティー,0
1465,6020003028667,新規,0,2025-06-05,2025-06-05,ＹＯＳＴＲＡＴＥＣ合同会社,,合同会社,神奈川県,横浜市青葉区,松風台２２―２００,,14,117,2270067,,,,,,,2025-06-05,1,,,,,ヨストラテック,0
1470,6021003016100,新規,0,2025-06-05,2025-06-05,ネフェルラリク合同会社,,合同会社,神奈川県,大和市,南林間１丁目７番９号,,14,213,2420006,,,,,,,2025-06-05,1,,,,,ネフェルラリク,0
1471,6021003016109,新規,0,2025-06-05,2025-06-05,プログレーブ合同会社,,合同会社,神奈川県,藤沢市,長後２０２７―２３,,14,205,2520801,,,,,,,2025-06-05,1,,,,,プログレーブ,0
1475,6030001166864,新規,0,2025-06-05,2025-06-05,株式会社Ｖｉｓｉｏｎ　Ｃａｒｓ,,株式会社,埼玉県,吉川市,中野２４２番地２,,11,243,3420042,,,,,,,2025-06-05,1,,,,,ビジョンカーズ,0
1476,6030001166947,新規,0,2025-06-05,2025-06-05,株式会社野崎塗装工業所,00139462,株式会社,埼玉県,川口市,大字東本郷６８０－１,,11,203,3340063,,,,,,,2025-06-05,1,,,,,ノザキトソウコウギョウショ,0
1493,6060001038268,新規,0,2025-06-05,2025-06-05,株式会社幸謙,,株式会社,栃木県,栃木市,岩舟町静２０９４番地３,,09,203,3294307,,,,,,,2025-06-05,1,,,,,コウケン,0
1498,6080101025536,新規,0,2025-06-05,2025-06-05,株式会社大松商店,,株式会社,静岡県,熱海市,水口町２番２８号,,22,205,4130016,,,,,,,2025-06-05,1,,,,,オオマツショウテン,0
1502,6100001038627,新規,0,2025-06-05,2025-06-05,株式会社中建ハウス,,株式会社,長野県,松本市,清水２丁目６番３０－３０３号,,20,202,3900805,,,,,,,2025-06-05,1,,,,,ナカケンハウス,0
1510,6120001276506,新規,0,2025-06-05,2025-06-05,株式会社ＴＯＭＯＳＨＩＢＩ,,株式会社,大阪府,大阪市西成区,橘１丁目１０番１３号,,27,122,5570051,,,,,,,2025-06-05,1,,,,,トモシビ,0
1511,6120001276530,新規,0,2025-06-05,2025-06-05,株式会社ＳＩ,,株式会社,大阪府,大阪市西区,江戸堀１丁目６番１７－２９０９号,,27,106,5500002,,,,,,,2025-06-05,1,,,,,エスアイ,0
1512,6120001276555,新規,0,2025-06-05,2025-06-05,健二株式会社,,株式会社,大阪府,大阪市東成区,深江北３丁目４番２１号エクラ深江橋５０８Ｂ,,27,115,5370001,,,,,,,2025-06-05,1,,,,,ケンニ,0
1513,6120001276563,新規,0,2025-06-05,2025-06-05,婚礼・宴会分割準備株式会社,,株式会社,大阪府,大阪市北区,大淀中１丁目１番３０号,,27,127,5310076,,,,,,,2025-06-05,1,,,,,コンレイエンカイブンカツジュンビ,0
1514,6120001276588,新規,0,2025-06-05,2025-06-05,ＴＲＡＶＥＬ　ＧＩＡＰＰＯＮＥ株式会社,,株式会社,大阪府,大阪市生野区,巽北３丁目５番１３号,00139465,27,116,5440004,,,,,,,2025-06-05,1,,,,,トラベルジャッポーネ,0
1515,6120001276605,新規,0,2025-06-05,2025-06-05,株式会社Ｍ２Ｋ,,株式会社,大阪府,大阪市西区,新町１丁目２番９号,,27,106,5500013,,,,,,,2025-06-05,1,,,,,エムツーケー,0
1519,6120003029647,新規,0,2025-06-05,2025-06-05,ユニバース合同会社,,合同会社,大阪府,大阪市西成区,玉出東１丁目７番２３号２０１号室,,27,122,5570043,,,,,,,2025-06-05,1,,,,,ユニバース,0
1520,6120003029688,新規,0,2025-06-05,2025-06-05,合同会社ＢＰＯ,,合同会社,大阪府,大阪市北区,天満橋１丁目１‐２４天満橋ハイツ１３０,,27,127,5300042,,,,,,,2025-06-05,1,,,,,ビーピーオー,0
1522,6120101071815,新規,0,2025-06-05,2025-06-05,西尾石油株式会社,,株式会社,大阪府,堺市中区,東山７６８番地１,,27,142,5998247,,,,,,,2025-06-05,1,,,,,ニシオセキユ,0
1523,6120101071823,新規,0,2025-06-05,2025-06-05,株式会社徳本商事,,株式会社,大阪府,堺市南区,檜尾３１番地,,27,145,5900142,,,,,,,2025-06-05,1,,,,,トクモトショウジ,0
1524,6122001039322,新規,0,2025-06-05,2025-06-05,エムケー化成株式会社,,株式会社,大阪府,東大阪市,衣摺６丁目８番３０号,,27,227,5770827,,,,,,,2025-06-05,1,,,,,エムケーカセイ,0
1526,6130003010523,新規,0,2025-06-05,2025-06-05,合同会社ｆｏｌｋｓ,,合同会社,京都府,京都市中京区,釜座通押小路下る下松屋町７２０－５,,26,104,6040034,,,,,,,2025-06-05,1,,,,,フォークス,0
1531,6140001138786,新規,0,2025-06-05,2025-06-05,株式会社スリーパインズパートナー,,株式会社,兵庫県,芦屋市,船戸町２－１－６０６,,28,206,6590093,,,,,,,2025-06-05,1,,,,,スリーパインズパートナー,0
1533,6150001028177,新規,0,2025-06-05,2025-06-05,戸浦総合設備株式会社,,株式会社,奈良県,吉野郡東吉野村,大字小川１４０８番地,,29,453,6332421,,,,,,,2025-06-05,1,,,,,トウラソウゴウセツビ,0
1537,6160001026808,新規,0,2025-06-05,2025-06-05,株式会社エディセカル,,株式会社,滋賀県,大津市,におの浜２丁目１番１－１７０７号,,25,201,5200801,,,,,,,2025-06-05,1,,,,,エディセカル,0
1538,6160003003499,新規,0,2025-06-05,2025-06-05,合同会社Ｄ＆ＭＡＫＥｒ’ｓ,,合同会社,滋賀県,栗東市,小柿９丁目５番３６－３号,,25,208,5203024,,,,,,,2025-06-05,1,,,,,ディーアンドメイカーズ,0
1548,6180001167088,新規,0,2025-06-05,2025-06-05,石黒総業株式会社,,株式会社,愛知県,岩倉市,東町東市場屋敷４５番地１,,23,228,4820041,,,,,,,2025-06-05,1,,,,,イシグロソウギョウ,0
1549,6180001167146,新規,0,2025-06-05,2025-06-05,ＷＩＬＬ　ＡＲＴ株式会社,,株式会社,愛知県,東海市,荒尾町上平井７０番地,,23,222,4760003,,,,,,,2025-06-05,1,,,,,ウィルアート,0
1550,6180001167162,新規,0,2025-06-05,2025-06-05,株式会社ソルネットシステム,,株式会社,愛知県,名古屋市港区,小碓４丁目５５８番地サンライズ５５８・４０１号,,23,111,4550801,,,,,,,2025-06-05,1,,,,,ソルネットシステム,0
1551,6180001167187,新規,0,2025-06-05,2025-06-05,株式会社クレスト,,株式会社,愛知県,名古屋市守山区,向台１丁目２２０７番地,,23,113,4630036,,,,,,,2025-06-05,1,,,,,クレスト,0
1556,6180003028560,新規,0,2025-06-05,2025-06-05,鯱キャピタル合同会社,,合同会社,愛知県,名古屋市昭和区,松風町２丁目１９番地１０８号,,23,107,4660035,,,,,,,2025-06-05,1,,,,,シャチホコキャピタル,0
1557,6180003028569,新規,0,2025-06-05,2025-06-05,合同会社コスモ,,合同会社,愛知県,春日井市,白山町８丁目２０番地７グローリアスヒルズ高蔵寺白山町３０９号室,,23,206,4870034,,,,,,,2025-06-05,1,,,,,コスモ,0
1559,6180005021118,新規,0,2025-06-05,2025-06-05,一般社団法人愛・笑・知,,その他の設立登記法人,愛知県,小牧市,中央６丁目３２５番地,,23,219,4850029,,,,,,,2025-06-05,1,,,,,アイショウチ,0
1560,6180301039862,新規,0,2025-06-05,2025-06-05,株式会社グレース,,株式会社,愛知県,刈谷市,高須町乾５２番地,,23,210,4480812,,,,,,,2025-06-05,1,,,,,グレース,0
1561,6180301039870,新規,0,2025-06-05,2025-06-05,株式会社高橋外装,,株式会社,愛知県,蒲郡市,豊岡町下前田２８番地３,,23,214,4430011,,,,,,,2025-06-05,1,,,,,タカハシガイソウ,0
1562,6180301039879,新規,0,2025-06-05,2025-06-05,株式会社中塚急便,00139464,株式会社,愛知県,田原市,西山町須賀１３０番地,,23,231,4413619,,,,,,,2025-06-05,1,,,,,ナカツカキュウビン,0
1563,6180301039887,新規,0,2025-06-05,2025-06-05,株式会社ＴｏｋｏｈａｒｕＶａｎｉｌｌａ,,株式会社,愛知県,田原市,赤羽根町大辻６０番地１,,23,231,4413502,,,,,,,2025-06-05,1,,,,,トコハルヴァニラ,0
1565,6190001032282,新規,0,2025-06-05,2025-06-05,株式会社ＭＩＲＡＩ　ＷＯＲＫＳ,,株式会社,三重県,伊勢市,久世戸町２０番地１,,24,203,5160015,,,,,,,2025-06-05,1,,,,,ミライワークス,0
1569,6220001026719,新規,0,2025-06-05,2025-06-05,株式会社ＡＥＲＵＮＥ,,株式会社,石川県,鳳珠郡能登町,字宮地壱字２－１,,17,463,9270322,,,,,,,2025-06-05,1,,,,,アエルネ,0
1576,6240003007244,新規,0,2025-06-05,2025-06-05,合同会社ファジャル,,合同会社,広島県,安芸郡海田町,稲荷町９番７号,,34,304,7360067,,,,,,,2025-06-05,1,,,,,ファジャル,0
1591,6290003016942,新規,0,2025-06-05,2025-06-05,ニーズリンク合同会社,,合同会社,福岡県,小郡市,美鈴の杜１丁目１３番地１２,,40,216,8380108,,,,,,,2025-06-05,1,,,,,ニーズリンク,0
1594,6300001014203,新規,0,2025-06-05,2025-06-05,株式会社三方宜し,,株式会社,佐賀県,佐賀市,兵庫町大字藤木１２８１番地９,,41,201,8490915,,,,,,,2025-06-05,1,,,,,サンボウヨシ,0
1595,6300003002296,新規,0,2025-06-05,2025-06-05,合同会社ＶＩＢＥＳ,,合同会社,佐賀県,佐賀市,水ヶ江２丁目１６－４４,,41,201,8400054,,,,,,,2025-06-05,1,,,,,ヴァイブス,0
1597,6310003005026,新規,0,2025-06-05,2025-06-05,合同会社クロスティア,,合同会社,長崎県,佐世保市,大黒町２３－２７,,42,202,8570843,,,,,,,2025-06-05,1,,,,,クロスティア,0
1600,6320001021156,新規,0,2025-06-05,2025-06-05,不動産ｗｏｏｄ’ｓ株式会社,,株式会社,大分県,大分市,大字下郡１８３８番地の１エクセル野田１－１０３号室,,44,201,8700951,,,,,,,2025-06-05,1,,,,,フドウサンウッズ,0
1601,6330001033266,新規,0,2025-06-05,2025-06-05,住宅総合サービス株式会社,,株式会社,熊本県,八代市,東片町３８５番地,,43,202,8660814,,,,,,,2025-06-05,1,,,,,ジュウタクソウゴウサービス,0
1602,6330001033282,新規,0,2025-06-05,2025-06-05,株式会社マルーンビー,,株式会社,熊本県,熊本市南区,田井島１丁目３番１７－７０４号,,43,104,8620965,,,,,,,2025-06-05,1,,,,,マルーンビー,0
1604,6340001027399,新規,0,2025-06-05,2025-06-05,株式会社ＥＬＥＯＷＬ,,株式会社,鹿児島県,南九州市,知覧町厚地２１４５番地１,,46,223,8970301,,,,,,,2025-06-05,1,,,,,エレオウル,0
1605,6350001019569,新規,0,2025-06-05,2025-06-05,東栄運送株式会社,,株式会社,宮崎県,延岡市,新浜町１丁目８９３５番地８３,,45,203,8890512,,,,,,,2025-06-05,1,,,,,トウエイウンソウ,0
1606,6350003004949,新規,0,2025-06-05,2025-06-05,合同会社とらい,,合同会社,宮崎県,北諸県郡三股町,大字蓼池４５２５番地２,,45,341,8891914,,,,,,,2025-06-05,1,,,,,トライ,0
1608,6360003014988,新規,0,2025-06-05,2025-06-05,合同会社上原工業,,合同会社,沖縄県,沖縄市,字登川７６５番地,,47,211,9042142,,,,,,,2025-06-05,1,,,,,ウエハラコウギョウ,0
1609,6360003014996,新規,0,2025-06-05,2025-06-05,合同会社ハマ電気,,合同会社,沖縄県,宮古島市,平良字西里１０８０番地１０,,47,214,9060012,,,,,,,2025-06-05,1,,,,,ハマデンキ,0
1610,6360003015004,新規,0,2025-06-05,2025-06-05,合同会社インテライズ,,合同会社,沖縄県,中頭郡中城村,字津覇５１６番地２,,47,328,9012413,,,,,,,2025-06-05,1,,,,,インテライズ,0
1619,6370001052659,新規,0,2025-06-05,2025-06-05,ジャパングローバルパートナーズ株式会社,,株式会社,宮城県,仙台市若林区,六丁の目北町１番５８号シャルムエンドウ２０１,,04,103,9840003,,,,,,,2025-06-05,1,,,,,ジャパングローバルパートナーズ,0
1620,6370001052675,新規,0,2025-06-05,2025-06-05,株式会社Ｔｅｌａｎｅｓｓ,,株式会社,宮城県,仙台市青葉区,中央２丁目１１番１９号仙南ビル４階－Ａ,,04,101,9800021,,,,,,,2025-06-05,1,,,,,テラネス,0
1622,6370003007124,新規,0,2025-06-05,2025-06-05,Ｍｉｒａｎｄａ合同会社,,合同会社,宮城県,仙台市青葉区,柏木１丁目１番１－２０１号,,04,101,9810933,,,,,,,2025-06-05,1,,,,,ミランダ,0
1628,6390003002404,新規,0,2025-06-05,2025-06-05,合同会社エヌ環境企画,,合同会社,山形県,天童市,大字寺津１１２番地,,06,210,9940073,,,,,,,2025-06-05,1,,,,,,0
1631,6420001019165,新規,0,2025-06-05,2025-06-05,株式会社長寿,,株式会社,青森県,むつ市,大字関根字高梨川目４２－４,,02,208,0350022,,,,,,,2025-06-05,1,,,,,チョウジュ,0
1635,6430001094595,新規,0,2025-06-05,2025-06-05,株式会社ロン,,株式会社,北海道,札幌市中央区,南三条東３丁目８番地ラフィネタワー札幌南三条２３０８号,,01,101,0600053,,,,,,,2025-06-05,1,,,,,ロン,0
1640,6470001020738,新規,0,2025-06-05,2025-06-05,株式会社ＮＩＫＯ,,株式会社,香川県,仲多度郡琴平町,３６０番地８０,,37,403,7660001,,,,,,,2025-06-05,1,,,,,ニコ,0
1642,6470003002899,新規,0,2025-06-05,2025-06-05,合同会社大光産業,,合同会社,香川県,高松市,鬼無町佐料１６番地１９,,37,201,7618022,,,,,,,2025-06-05,1,,,,,ダイコウサンギョウ,0
1643,6480001012858,新規,0,2025-06-05,2025-06-05,ＧＥＯＲＧＥ．ＡＩＡ株式会社,,株式会社,徳島県,板野郡北島町,鯛浜字西ノ須１７３番地１Ｙハウス２０３号,,36,402,7710204,,,,,,,2025-06-05,1,,,,,ジョージエーアイエー,0
1652,7010001255577,新規,0,2025-06-05,2025-06-05,百楽株式会社,,株式会社,東京都,中央区,日本橋蛎殻町１丁目３０番４号,,13,102,1030014,,,,,,,2025-06-05,1,,,,,ヒャクラク,0
1653,7010001255676,新規,0,2025-06-05,2025-06-05,株式会社Ｄｒｅａｍｙ,,株式会社,東京都,中央区,築地４丁目３番１２号秀和第二築地レジデンス１１０６,,13,102,1040045,,,,,,,2025-06-05,1,,,,,ドリーミー,0
1659,7010003047584,新規,0,2025-06-05,2025-06-05,合同会社なぎメディカルイノベーション,,合同会社,東京都,中央区,勝どき６丁目３番１－１２１６号,,13,102,1040054,,,,,,,2025-06-05,1,,,,,ナギメディカルイノベーション,0
1660,7010003047601,新規,0,2025-06-05,2025-06-05,本町合同会社,,合同会社,東京都,千代田区,丸の内１丁目４番１号東京共同会計事務所内,,13,101,1000005,,,,,,,2025-06-05,1,,,,,ホンチョウ,0
1663,7010103002596,新規,0,2025-06-05,2025-06-05,レンテ企画合同会社,,合同会社,東京都,八王子市,平岡町１８‐１４,,13,201,1920061,,,,,,,2025-06-05,1,,,,,レンテキカク,0
1670,7010401190663,新規,0,2025-06-05,2025-06-05,株式会社コグニティヴ,,株式会社,東京都,港区,六本木７丁目１７番１０号,,13,103,1060032,,,,,,,2025-06-05,1,,,,,コグニティヴ,0
1671,7010401190688,新規,0,2025-06-05,2025-06-05,株式会社Ｇｏｏｄ　Ｌｉｆｅ＆Ｃｏ．,,株式会社,東京都,港区,南青山２丁目２番１５号,,13,103,1070062,,,,,,,2025-06-05,1,,,,,グッドライフ,0
1672,7010401190713,新規,0,2025-06-05,2025-06-05,株式会社Ｆ．Ａ．Ｔ．Ｓ．,,株式会社,東京都,港区,白金３丁目１３番２号,,13,103,1080072,,,,,,,2025-06-05,1,,,,,ファッツ,0
1673,7010401190746,新規,0,2025-06-05,2025-06-05,ＴＩＴＡＮ　ＣＯＮＴＥＮＴ株式会社,,株式会社,東京都,港区,西新橋１丁目１番１号,,13,103,1050003,,,,,,,2025-06-05,1,,,,,タイタンコンテンツ,0
1674,7010401190770,新規,0,2025-06-05,2025-06-05,ＮＥＣＯＳＯＬ株式会社,,株式会社,東京都,港区,麻布十番２丁目２１番６号アクシア麻布７０４,,13,103,1060045,,,,,,,2025-06-05,1,,,,,ネコソル,0
1675,7010401190861,新規,0,2025-06-05,2025-06-05,クリアルアセットマネジメント株式会社,,株式会社,東京都,港区,新橋３丁目９番１０号,,13,103,1050004,,,,,,,2025-06-05,1,,,,,クリアルアセットマネジメント,0
1676,7010403035263,新規,0,2025-06-05,2025-06-05,合同会社一途,,合同会社,東京都,港区,赤坂３丁目１５－１赤坂ＣＯＡＳＴビル２階,,13,103,1070052,,,,,,,2025-06-05,1,,,,,イチズ,0
1679,7010501054116,新規,0,2025-06-05,2025-06-05,株式会社ＢＲＩＤＧＥ,,株式会社,東京都,台東区,元浅草１丁目４番７号山雅堂１階,,13,106,1110041,,,,,,,2025-06-05,1,,,,,ブリッジ,0
1680,7010501054157,新規,0,2025-06-05,2025-06-05,株式会社ロベリア,,株式会社,東京都,台東区,浅草５丁目３番１号,,13,106,1110032,,,,,,,2025-06-05,1,,,,,ロベリア,0
1681,7010501054165,新規,0,2025-06-05,2025-06-05,株式会社レックスインターナショナル,,株式会社,東京都,台東区,元浅草１丁目８番６号グロービック御徒町２０２,,13,106,1110041,,,,,,,2025-06-05,1,,,,,レックスインターナショナル,0
1682,7010501054173,新規,0,2025-06-05,2025-06-05,クロスコネクト珈琲株式会社,,株式会社,東京都,台東区,柳橋１丁目１６番３号１Ｆ,,13,106,1110052,,,,,,,2025-06-05,1,,,,,クロスコネクトコーヒー,0
1683,7010503007872,新規,0,2025-06-05,2025-06-05,合同会社ＴＪ,,合同会社,東京都,台東区,上野７丁目２番１号昭栄ビル５階,,13,106,1100005,,,,,,,2025-06-05,1,,,,,テージェイ,0
1687,7010901057486,新規,0,2025-06-05,2025-06-05,ラクシャー・コンサルティング株式会社,,株式会社,東京都,世田谷区,船橋２丁目１１番１５－１１４号,,13,112,1560055,,,,,,,2025-06-05,1,,,,,ラクシャーコンサルティング,0
1688,7010901057503,新規,0,2025-06-05,2025-06-05,株式会社ＤＧＲ,,株式会社,東京都,世田谷区,経堂１丁目２６番１０号,,13,112,1560052,,,,,,,2025-06-05,1,,,,,ディージーアール,0
1694,7011001169866,新規,0,2025-06-05,2025-06-05,株式会社ＷｅｂＡｄｓ,,株式会社,東京都,渋谷区,上原１丁目３－９,,13,113,1510064,,,,,,,2025-06-05,1,,,,,ウェブアド,0
1695,7011001170394,新規,0,2025-06-05,2025-06-05,Ｍ‐ｉｌｌｉ株式会社,,株式会社,東京都,渋谷区,神宮前４丁目３０番３号東急プラザ表参道「オモカド」５階,,13,113,1500001,,,,,,,2025-06-05,1,,,,,ミリ,0
1696,7011003021827,新規,0,2025-06-05,2025-06-05,Ｒｅｄｐａｎｄａ合同会社,,合同会社,東京都,渋谷区,円山町５番３号ＭＩＥＵＸ渋谷ビル８階,,13,113,1500044,,,,,,,2025-06-05,1,,,,,レッドパンダ,0
1697,7011005011009,新規,0,2025-06-05,2025-06-05,一般社団法人日本リエイブルメント協会,,その他の設立登記法人,東京都,渋谷区,恵比寿西２丁目８番４号ＥＸ恵比寿西ビル５階,,13,113,1500021,,,,,,,2025-06-05,1,,,,,ニホンリエイブルメントキョウカイ,0
1701,7011101112032,新規,0,2025-06-05,2025-06-05,株式会社明格,,株式会社,東京都,新宿区,新宿６丁目２４－２２リレント新宿１００１号室,,13,104,1600022,,,,,,,2025-06-05,1,,,,,メイカク,0
1708,7011401027145,新規,0,2025-06-05,2025-06-05,株式会社優生堂,,株式会社,東京都,板橋区,大谷口北町４番２号,,13,119,1730031,,,,,,,2025-06-05,1,,,,,ユウセイドウ,0
1709,7011501032177,新規,0,2025-06-05,2025-06-05,株式会社ＫＣＭ,,株式会社,東京都,荒川区,西尾久８丁目１６番５号,,13,118,1160011,,,,,,,2025-06-05,1,,,,,ケーシーエム,0
1710,7011601028703,新規,0,2025-06-05,2025-06-05,小泉東浦電気株式会社,,株式会社,東京都,練馬区,向山４丁目２６番１０号,,13,120,1760022,,,,,,,2025-06-05,1,,,,,コイズミヒガシウラデンキ,0
1713,7011701028396,新規,0,2025-06-05,2025-06-05,ネクサイト株式会社,,株式会社,東京都,江戸川区,中葛西５丁目３５番８号,,13,123,1340083,,,,,,,2025-06-05,1,,,,,ネクサイト,0
1718,7011801046265,新規,0,2025-06-05,2025-06-05,株式会社Ｔｈｅｏｒｙ,,株式会社,東京都,葛飾区,四つ木１丁目１番３号,,13,122,1240011,,,,,,,2025-06-05,1,,,,,セオリー,0
1720,7012401043198,新規,0,2025-06-05,2025-06-05,株式会社狛大,,株式会社,東京都,狛江市,中和泉２丁目１番５号,,13,219,2010012,,,,,,,2025-06-05,1,,,,,コマヒロ,0
1721,7012703003288,新規,0,2025-06-05,2025-06-05,ＮＩＣＯＮｓ合同会社,,合同会社,東京都,西東京市,住吉町６丁目４番９号,,13,229,2020005,,,,,,,2025-06-05,1,,,,,ニコンズ,0
1726,7013301054384,新規,0,2025-06-05,2025-06-05,株式会社ＰｌａｙＦｏｒｗａｒｄＸ,,株式会社,東京都,豊島区,東池袋３丁目１２番５号加藤第一ビル５階,,13,116,1700013,,,,,,,2025-06-05,1,,,,,プレイフォワードエックス,0
1731,7020001163168,新規,0,2025-06-05,2025-06-05,日本悟空テクノロジー株式会社,,株式会社,神奈川県,横浜市中区,仲尾台７１－２,,14,104,2310839,,,,,,,2025-06-05,1,,,,,ニホンゴクウテクノロジー,0
1732,7020001163184,新規,0,2025-06-05,2025-06-05,株式会社レグルスホーム,,株式会社,神奈川県,横浜市鶴見区,北寺尾４丁目４番６号サンヒルズＣ２０２,,14,101,2300074,,,,,,,2025-06-05,1,,,,,レグルスホーム,0
1733,7020001163192,新規,0,2025-06-05,2025-06-05,株式会社ＵＹ電気,,株式会社,神奈川県,川崎市川崎区,観音２丁目１３番２－６号,,14,131,2100831,,,,,,,2025-06-05,1,,,,,ユーワイデンキ,0
1734,7020001163242,新規,0,2025-06-05,2025-06-05,株式会社ＩＳＩＮ,,株式会社,神奈川県,横浜市保土ケ谷区,帷子町２丁目５１,,14,106,2400013,,,,,,,2025-06-05,1,,,,,イシン,0
1735,7020001163259,新規,0,2025-06-05,2025-06-05,株式会社ＡＭＳ,,株式会社,神奈川県,横浜市緑区,霧が丘２丁目１２番地８,,14,113,2260016,,,,,,,2025-06-05,1,,,,,エイエムエス,0
1736,7020001163267,新規,0,2025-06-05,2025-06-05,株式会社懐古堂,,株式会社,神奈川県,横浜市栄区,長沼町５４７番地４２,,14,115,2440841,,,,,,,2025-06-05,1,,,,,カイコドウ,0
1737,7020001163291,新規,0,2025-06-05,2025-06-05,株式会社ＧＡＮＤＳ,,株式会社,神奈川県,横浜市泉区,岡津町１００９番地３２,,14,116,2450003,,,,,,,2025-06-05,1,,,,,ガンズ,0
1739,7020003028575,新規,0,2025-06-05,2025-06-05,合同会社ＣＬＯＷＮ,,合同会社,神奈川県,横浜市保土ケ谷区,藤塚町７‐２６,,14,106,2400031,,,,,,,2025-06-05,1,,,,,クラウン,0
1740,7020003028633,新規,0,2025-06-05,2025-06-05,コンパスライズパートナーズ合同会社,,合同会社,神奈川県,横浜市青葉区,大場町７０２番地１,,14,117,2250023,,,,,,,2025-06-05,1,,,,,コンパスライズパートナーズ,0
1748,7021001085443,新規,0,2025-06-05,2025-06-05,株式会社一課,,株式会社,神奈川県,平塚市,広川７２３番地１１,,14,203,2591219,,,,,,,2025-06-05,1,,,,,イッカ,0
1749,7021003016108,新規,0,2025-06-05,2025-06-05,合同会社ＤＡＩＫＩＣＨＩ　ＣＯＭＰＡＮＹ,,合同会社,神奈川県,藤沢市,片瀬５丁目１１番３号,,14,205,2510032,,,,,,,2025-06-05,1,,,,,ダイキチカンパニー,0
1752,7030001166839,新規,0,2025-06-05,2025-06-05,士魂商才株式会社,,株式会社,埼玉県,所沢市,大字日比田４０２番地の１,,11,208,3590015,,,,,,,2025-06-05,1,,,,,シコンショウサイ,0
1756,7030003026859,新規,0,2025-06-05,2025-06-05,合同会社パルモア,,合同会社,埼玉県,さいたま市浦和区,駒場２丁目６番２２号,,11,107,3300051,,,,,,,2025-06-05,1,,,,,パルモア,0
1757,7030003026891,新規,0,2025-06-05,2025-06-05,Ｈ＆Ｖ合同会社,,合同会社,埼玉県,深谷市,上野台２９７８番地１エクセルハイツ大台２０２号,,11,218,3660801,,,,,,,2025-06-05,1,,,,,エイチアンドヴイ,0
1758,7030003026917,新規,0,2025-06-05,2025-06-05,ＤＶ合同会社,,合同会社,埼玉県,鴻巣市,宮前１２３－７,,11,217,3650051,,,,,,,2025-06-05,1,,,,,デビ,0
1764,7040001139190,新規,0,2025-06-05,2025-06-05,株式会社錦橋,,株式会社,千葉県,千葉市美浜区,真砂２丁目１４番２－９２８号,,12,106,2610011,,,,,,,2025-06-05,1,,,,,キンバシ,0
1768,7050001056773,新規,0,2025-06-05,2025-06-05,株式会社サンフィッシュ,,株式会社,茨城県,神栖市,土合本町１丁目８７６２番地１３,,08,232,3140343,,,,,,,2025-06-05,1,,,,,サンフィッシュ,0
1769,7050001056781,新規,0,2025-06-05,2025-06-05,株式会社ＣＯＧＯ,,株式会社,茨城県,つくばみらい市,陽光台２丁目１番地２デュオＴＸみらい３１１,,08,235,3002358,,,,,,,2025-06-05,1,,,,,コウゴウ,0
1774,7050005013647,新規,0,2025-06-05,2025-06-05,一般社団法人Ｇｏ　Ｆｏｒｗａｒｄ,,その他の設立登記法人,茨城県,水戸市,千波町２８３０番地の５,,08,201,3100851,,,,,,,2025-06-05,1,,,,,ゴーフォーワード,0
1776,7060002041261,新規,0,2025-06-05,2025-06-05,有限会社大田原サウナ,,有限会社,栃木県,大田原市,中央１丁目１５番１号,,09,210,3240056,,,,,,,2025-06-05,1,,,,,オオタワラサウナ,0
1777,7070001042994,新規,0,2025-06-05,2025-06-05,ＮＩＳＨＩＳＵＮＯＵＥＮ株式会社,,株式会社,群馬県,伊勢崎市,赤堀鹿島町７８２番地５,,10,204,3792202,,,,,,,2025-06-05,1,,,,,ニシスノウエン,0
1783,7090001019314,新規,0,2025-06-05,2025-06-05,株式会社８７１,,株式会社,山梨県,南都留郡富士河口湖町,船津６８５４番地,,19,430,4010301,,,,,,,2025-06-05,1,,,,,ハチナナイチ,0
1788,7100001038659,新規,0,2025-06-05,2025-06-05,株式会社Ｓｅｋａｉ　ｎｏ　ｍｏｎｏｇａｔａｒｉ,,株式会社,長野県,伊那市,西春近２９８０番地,,20,209,3994431,,,,,,,2025-06-05,1,,,,,セカイノモノガタリ,0
1789,7100001038675,新規,0,2025-06-05,2025-06-05,株式会社Ｒｅｂｏｒｎ,,株式会社,長野県,長野市,大字南堀５０１番地２シティハイム北長野Ｂ１０１,,20,201,3810016,,,,,,,2025-06-05,1,,,,,リボーン,0
1791,7100003008214,新規,0,2025-06-05,2025-06-05,合同会社ｎｆａｍ．ｉｌｙ,,合同会社,長野県,岡谷市,湖畔３丁目２番１号,,20,204,3940034,,,,,,,2025-06-05,1,,,,,エヌファムイリー,0
1804,7120001276298,新規,0,2025-06-05,2025-06-05,株式会社Ｃｒｅｓｃ．,,株式会社,大阪府,大阪市浪速区,湊町１丁目２番１３号,,27,111,5560017,,,,,,,2025-06-05,1,,,,,クレッシェンド,0
1805,7120001276488,新規,0,2025-06-05,2025-06-05,ＡｒｃＬｙｎｋ株式会社,,株式会社,大阪府,大阪市北区,中之島３丁目６番３２号ダイビル本館５階,,27,127,5300005,,,,,,,2025-06-05,1,,,,,アークリンク,0
1806,7120001276505,新規,0,2025-06-05,2025-06-05,エム・ケイコーポレーション株式会社,,株式会社,大阪府,大阪市西淀川区,大和田５丁目４－１３－１０１,,27,113,5550032,,,,,,,2025-06-05,1,,,,,エムケイコーポレーション,0
1807,7120001276513,新規,0,2025-06-05,2025-06-05,Ｔ＆Ｔ　ｇｌｏｂａｌ株式会社,,株式会社,大阪府,大阪市住吉区,帝塚山中３丁目３番５号ウェリス帝塚山３０４号,,27,120,5580053,,,,,,,2025-06-05,1,,,,,ティーアンドティーグローバル,0
1808,7120001276538,新規,0,2025-06-05,2025-06-05,株式会社ＬＩＢＥＲＴＹ,,株式会社,大阪府,大阪市北区,太融寺町２－１７フォーラム東梅田２Ｆ,,27,127,5300051,,,,,,,2025-06-05,1,,,,,リバティー,0
1809,7120001276570,新規,0,2025-06-05,2025-06-05,株式会社Ｌｉｌｌａミュージック,,株式会社,大阪府,大阪市中央区,博労町４丁目７－７,,27,128,5410059,,,,,,,2025-06-05,1,,,,,リッラミュージック,0
1813,7120003029662,新規,0,2025-06-05,2025-06-05,Ｏｒｉｇｉｎａｌ日本合同会社,,合同会社,大阪府,大阪市西成区,萩之茶屋２丁目６－４－５２号室,,27,122,5570004,,,,,,,2025-06-05,1,,,,,オリジナルニホン,0
1814,7120003029670,新規,0,2025-06-05,2025-06-05,合同会社ＵＮＷＩＮＤＥＲ,,合同会社,大阪府,大阪市天王寺区,石ケ辻町１６－１８－２４０２,00139463,27,109,5430031,,,,,,,2025-06-05,1,,,,,アンワインダー,0
1815,7120003029687,新規,0,2025-06-05,2025-06-05,合同会社Ｅｓｓｅｎｄ,,合同会社,大阪府,大阪市住吉区,我孫子４丁目６番７号,,27,120,5580014,,,,,,,2025-06-05,1,,,,,エッセンド,0
1819,7120101071797,新規,0,2025-06-05,2025-06-05,政馨国際株式会社,,株式会社,大阪府,堺市北区,南花田町４１７番３－２２１号,,27,146,5918011,,,,,,,2025-06-05,1,,,,,セイケイコクサイ,0
1820,7120101071806,新規,0,2025-06-05,2025-06-05,株式会社優建,,株式会社,大阪府,堺市中区,八田北町３番地１パインシェイド１０５号,,27,142,5998262,,,,,,,2025-06-05,1,,,,,ユウケン,0
1821,7120101071814,新規,0,2025-06-05,2025-06-05,株式会社ＫＭＣサービス,,株式会社,大阪府,泉南市,岡田５丁目１５番１７号,,27,228,5900531,,,,,,,2025-06-05,1,,,,,ケイエムシーサービス,0
1822,7120103006495,新規,0,2025-06-05,2025-06-05,合同会社うな昇,,合同会社,大阪府,和泉市,和田町４３番地の１,,27,219,5941102,,,,,,,2025-06-05,1,,,,,ウナショウ,0
1826,7130001079816,新規,0,2025-06-05,2025-06-05,株式会社ＶＥＬＡＩＲ,,株式会社,京都府,京都市北区,上賀茂桜井町１０７－２ロベルトクエルチビル３Ｆ,,26,101,6038054,,,,,,,2025-06-05,1,,,,,ヴェレア,0
1827,7130001079840,新規,0,2025-06-05,2025-06-05,株式会社電来ワークス,,株式会社,京都府,京都市伏見区,醍醐御園尾町１番地３５,,26,109,6011353,,,,,,,2025-06-05,1,,,,,デンライワークス,0
1830,7130003010522,新規,0,2025-06-05,2025-06-05,合同会社水上工業,,合同会社,京都府,綴喜郡宇治田原町,大字郷之口小字池ノ首６６番地の３７,,26,344,6100255,,,,,,,2025-06-05,1,,,,,ミズカミコウギョウ,0
1832,7140001138760,新規,0,2025-06-05,2025-06-05,株式会社西川設備,,株式会社,兵庫県,姫路市,別所町佐土５８８－１８,,28,201,6710224,,,,,,,2025-06-05,1,,,,,ニシカワセツビ,0
1833,7140001138793,新規,0,2025-06-05,2025-06-05,株式会社慶翔,,株式会社,兵庫県,神戸市中央区,日暮通６丁目４番２９号２Ｆ,,28,110,6510077,,,,,,,2025-06-05,1,,,,,ケイショウ,0
1840,7160001026807,新規,0,2025-06-05,2025-06-05,株式会社ホリテック,,株式会社,滋賀県,大津市,松陽３丁目４番２号,,25,201,5202135,,,,,,,2025-06-05,1,,,,,ホリテック,0
1841,7160001026815,新規,0,2025-06-05,2025-06-05,株式会社Ａｒｃｈ,,株式会社,滋賀県,大津市,仰木の里東７丁目４番５号,,25,201,5200248,,,,,,,2025-06-05,1,,,,,アーチ,0
1843,7180001167095,新規,0,2025-06-05,2025-06-05,株式会社タケヤ住設,,株式会社,愛知県,一宮市,多加木１丁目３番１９号,,23,203,4910837,,,,,,,2025-06-05,1,,,,,タケヤジュウセツ,0
1844,7180001167194,新規,0,2025-06-05,2025-06-05,株式会社ＮＥＳＴＡ,,株式会社,愛知県,名古屋市東区,泉１丁目２１－４,,23,102,4610001,,,,,,,2025-06-05,1,,,,,ネスタ,0
1845,7180003028568,新規,0,2025-06-05,2025-06-05,ＯＬＩＦＡＮＴ合同会社,,合同会社,愛知県,名古屋市西区,西原町７４番地,,23,104,4520848,,,,,,,2025-06-05,1,,,,,オリファン,0
1846,7180003028576,新規,0,2025-06-05,2025-06-05,合同会社ＪＯＹＬＩＮＫ,,合同会社,愛知県,名古屋市中村区,名駅３丁目４－１０アルティメイト名駅１ｓｔ２階,,23,105,4500002,,,,,,,2025-06-05,1,,,,,ジョイリンク,0
1847,7180003028584,新規,0,2025-06-05,2025-06-05,合同会社アールファクトリー,,合同会社,愛知県,名古屋市守山区,永森町２２８番地の１,,23,113,4630086,,,,,,,2025-06-05,1,,,,,アールファクトリー,0
1850,7190001032265,新規,0,2025-06-05,2025-06-05,株式会社Ｆａｉｒｎｅｓｓ,,株式会社,三重県,三重郡菰野町,大字永井９４６番地１,,24,341,5101311,,,,,,,2025-06-05,1,,,,,フェアネス,0
1852,7190003005062,新規,0,2025-06-05,2025-06-05,合同会社ｔｈｏｕｇｈｔ,,合同会社,三重県,四日市市,蒔田３丁目６番２２号,,24,202,5108022,,,,,,,2025-06-05,1,,,,,ソート,0
1853,7200001043863,新規,0,2025-06-05,2025-06-05,株式会社ＪＩＮ,,株式会社,岐阜県,加茂郡白川町,切井２７３３番地,,21,506,5091111,,,,,,,2025-06-05,1,,,,,ジン,0
1858,7220001026734,新規,0,2025-06-05,2025-06-05,株式会社歩来,,株式会社,石川県,羽咋郡志賀町,高浜町ネの１１６番地２,,17,384,9250141,,,,,,,2025-06-05,1,,,,,アルク,0
1860,7220003004044,新規,0,2025-06-05,2025-06-05,ｋａｐｉｌｉｎａ合同会社,,合同会社,石川県,金沢市,戸水１丁目６４－１１,,17,201,9208204,,,,,,,2025-06-05,1,,,,,,0
1866,7240001065029,新規,0,2025-06-05,2025-06-05,株式会社ＬｕｍｉＣｌａｓｓ,,株式会社,広島県,福山市,神辺町字十三軒屋１２７番地１４シャーメゾン行則２０１,,34,207,7202105,,,,,,,2025-06-05,1,,,,,ルミクラス,0
1867,7240001065045,新規,0,2025-06-05,2025-06-05,株式会社ＴＥＣＨＥＳ,,株式会社,広島県,広島市佐伯区,八幡東３丁目１０－３１－５,,34,108,7315115,,,,,,,2025-06-05,1,,,,,テックス,0
1868,7240003007243,新規,0,2025-06-05,2025-06-05,合同会社ＨＹＧ,,合同会社,広島県,広島市佐伯区,石内南４丁目１６番２０号,,34,108,7315108,,,,,,,2025-06-05,1,,,,,エイチワイジー,0
1869,7250001021179,新規,0,2025-06-05,2025-06-05,株式会社ＷＡＫＡＭＡＴＳＵ,,株式会社,山口県,下関市,山の田中央町４番１７号,,35,201,7510837,,,,,,,2025-06-05,1,,,,,ワカマツ,0
1871,7260003005204,新規,0,2025-06-05,2025-06-05,メディカルサービス合同会社,,合同会社,岡山県,岡山市中区,中納言町４番３１号,,33,102,7038292,,,,,,,2025-06-05,1,,,,,メディカルサービス,0
1875,7310001019638,新規,0,2025-06-05,2025-06-05,株式会社ｎｏｂｕｃｒａｆｔ,,株式会社,長崎県,佐世保市,広田３丁目２６番２９号Ｂ－１０３,,42,202,8593223,,,,,,,2025-06-05,1,,,,,ノブクラフト,0
1878,7310003005025,新規,0,2025-06-05,2025-06-05,合同会社ケアプランセンターさくら,,合同会社,長崎県,長崎市,上戸町２丁目１３－２２,,42,201,8500953,,,,,,,2025-06-05,1,,,,,ケアプランセンターサクラ,0
1882,7320001021147,新規,0,2025-06-05,2025-06-05,株式会社ピカッとハウス,,株式会社,大分県,大分市,大字下郡５２９番地２,,44,201,8700951,,,,,,,2025-06-05,1,,,,,ピカットハウス,0
1885,7330001033249,新規,0,2025-06-05,2025-06-05,足場技建株式会社,,株式会社,熊本県,熊本市東区,戸島町２１５５番地,,43,102,8618031,,,,,,,2025-06-05,1,,,,,アシバギケン,0
1886,7330001033265,新規,0,2025-06-05,2025-06-05,株式会社Ｒ＆Ｍ　Ｎｅｘｔ,,株式会社,熊本県,熊本市南区,御幸木部３丁目１－４０－１,,43,104,8614173,,,,,,,2025-06-05,1,,,,,アールアンドエムネクスト,0
1890,7350001019584,新規,0,2025-06-05,2025-06-05,株式会社ビープレ,,株式会社,宮崎県,宮崎市,高洲町１１５番地７,,45,201,8800852,,,,,,,2025-06-05,1,,,,,ビープレ,0
1891,7360001035300,新規,0,2025-06-05,2025-06-05,株式会社ＡＫ企画,,株式会社,沖縄県,中頭郡嘉手納町,字水釜１１４番地１,,47,325,9040204,,,,,,,2025-06-05,1,,,,,エーケーキカク,0
1892,7360001035309,新規,0,2025-06-05,2025-06-05,ニライハウジング株式会社,,株式会社,沖縄県,沖縄市,泡瀬３丁目３８番１５号,,47,211,9042172,,,,,,,2025-06-05,1,,,,,ニライハウジング,0
1894,7360003014995,新規,0,2025-06-05,2025-06-05,合同会社一花造園,,合同会社,沖縄県,宮古島市,平良字下里１０３０番地３,,47,214,9060013,,,,,,,2025-06-05,1,,,,,イチカゾウエン,0
1895,7360003015003,新規,0,2025-06-05,2025-06-05,合同会社セーフティサービスガジュマル,,合同会社,沖縄県,名護市,大南２丁目１４番３号１０２号,,47,209,9050015,,,,,,,2025-06-05,1,,,,,セーフティサービスガジュマル,0
1898,7370003007123,新規,0,2025-06-05,2025-06-05,合同会社ＴＯＭＯ,,合同会社,宮城県,仙台市青葉区,みやぎ台２丁目３４番３号,,04,101,9893214,,,,,,,2025-06-05,1,,,,,トモ,0
1910,7430001094586,新規,0,2025-06-05,2025-06-05,株式会社富田塗装,,株式会社,北海道,苫小牧市,拓勇東町８丁目２番２７号,,01,213,0591303,,,,,,,2025-06-05,1,,,,,トミタトソウ,0
1911,7430001094594,新規,0,2025-06-05,2025-06-05,株式会社Ｙｏｕ　ａｒｅ,,株式会社,北海道,札幌市中央区,南九条西３丁目２番５号,,01,101,0640809,,,,,,,2025-06-05,1,,,,,ユーアー,0
1912,7430001094611,新規,0,2025-06-05,2025-06-05,株式会社ＳＴ工業,,株式会社,北海道,札幌市豊平区,中の島二条１丁目２番１号ハウスオブリザ中の島Ｉ２階,,01,105,0620922,,,,,,,2025-06-05,1,,,,,エスティーコウギョウ,0
1916,7460001006010,新規,0,2025-06-05,2025-06-05,ブロウ株式会社,,株式会社,北海道,釧路市,黒金町１２丁目９番地６、９番地５,,01,206,0850018,,,,,,,2025-06-05,1,,,,,ブロウ,0
1921,7480001012857,新規,0,2025-06-05,2025-06-05,株式会社デルタエヌ,,株式会社,徳島県,徳島市,安宅１丁目１０番２８－２０１号安宅ハイツ,,36,201,7700863,,,,,,,2025-06-05,1,,,,,デルタエヌ,0
1927,7700150061582,新規,0,2025-06-05,2015-10-09,長崎県校長会事務局,,その他,長崎県,長崎市,八百屋町３６,,42,201,8500029,,,,,,,2015-10-09,1,,,,,ナガサキケンコウチヨウカイジムキヨク,0
1928,7700150130932,新規,0,2025-06-05,2025-06-05,Ｑｕｉｃｋ　Ｆｉｘ　Ａｕｔｏ　Ｃａｒｅ,,外国会社等,奈良県,大和郡山市,井戸野町３４４番地１　徳本アパート１０４号,,29,203,6391104,スリランカ民主社会主義共和国、カトゥガストタ、クルネガラロード、Ｎｏ．３３,,,,,,2025-06-05,1,,,,,クイツクフイツクスオートケア,0
1935,8010001255270,新規,0,2025-06-05,2025-06-05,フューチャーシンクシステム株式会社,,株式会社,東京都,千代田区,鍛冶町２丁目７番４号ヨウコービル７Ｆ,,13,101,1010044,,,,,,,2025-06-05,1,,,,,フューチャーシンクシステム,0
1936,8010001255675,新規,0,2025-06-05,2025-06-05,ＳｈｉｎＨｅａｒｔ　Ｔｈｅｒａｐｅｕｔｉｃｓ株式会社,,株式会社,東京都,中央区,日本橋堀留町１丁目９番１０号,,13,102,1030012,,,,,,,2025-06-05,1,,,,,シンハートセラピューティクス,0
1937,8010001255683,新規,0,2025-06-05,2025-06-05,東昇株式会社,,株式会社,東京都,中央区,湊２丁目１１番１号,,13,102,1040043,,,,,,,2025-06-05,1,,,,,トウショウ,0
1938,8010001255691,新規,0,2025-06-05,2025-06-05,株式会社トキオ,,株式会社,東京都,中央区,佃１丁目１１番９－３００４号,,13,102,1040051,,,,,,,2025-06-05,1,,,,,トキオ,0
1939,8010001255717,新規,0,2025-06-05,2025-06-05,善吉至株式会社,,株式会社,東京都,中央区,新川１丁目７番１号天翔日本橋茅場町ビル６階６１４号室,,13,102,1040033,,,,,,,2025-06-05,1,,,,,ゼンキチシ,0
1941,8010003047600,新規,0,2025-06-05,2025-06-05,板橋合同会社,,合同会社,東京都,千代田区,丸の内１丁目４番１号東京共同会計事務所内,,13,101,1000005,,,,,,,2025-06-05,1,,,,,イタバシ,0
1943,8010005040132,新規,0,2025-06-05,2025-06-05,一般社団法人日本ＥＡＰ協会,,その他の設立登記法人,東京都,中央区,日本橋室町１丁目１１番１２号日本橋水野ビル７階,,13,102,1030022,,,,,,,2025-06-05,1,,,,,ニホンイーエーピーキョウカイ,0
1944,8010005040140,新規,0,2025-06-05,2025-06-05,一般社団法人アジアＰＣＯＳ学会,,その他の設立登記法人,東京都,文京区,本郷７丁目３番１号東京大学医学部附属病院クリニカルリサーチセンターＡ棟６階,,13,105,1130033,,,,,,,2025-06-05,1,,,,,アジアピーシーオーエスガッカイ,0
1945,8010005040149,新規,0,2025-06-05,2025-06-05,金沢一般社団法人,,その他の設立登記法人,東京都,千代田区,丸の内１丁目４番１号東京共同会計事務所内,,13,101,1000005,,,,,,,2025-06-05,1,,,,,カナザワ,0
1951,8010401190563,新規,0,2025-06-05,2025-06-05,株式会社たべものインフォ,,株式会社,東京都,港区,新橋４丁目１４－１新橋ＡＵＮＢＬＤＧ４Ｆ,,13,103,1050004,,,,,,,2025-06-05,1,,,,,タベモノインフォ,0
1952,8010401190613,新規,0,2025-06-05,2025-06-05,株式会社デジタルボックス,,株式会社,東京都,港区,港南４丁目６番４－２６０８号,,13,103,1080075,,,,,,,2025-06-05,1,,,,,デジタルボックス,0
1953,8010401190695,新規,0,2025-06-05,2025-06-05,ＧＴＳＳ株式会社,,株式会社,東京都,港区,赤坂７丁目６番４３号ｒｏｊｉ赤坂Ｈ号室,,13,103,1070052,,,,,,,2025-06-05,1,,,,,ジーティーエスエス,0
1954,8010401190704,新規,0,2025-06-05,2025-06-05,株式会社ひととおり商会,,株式会社,東京都,港区,高輪１丁目５番５０－５０４号,,13,103,1080074,,,,,,,2025-06-05,1,,,,,ヒトトオリショウカイ,0
1955,8010401190811,新規,0,2025-06-05,2025-06-05,株式会社ＡＰＣ,,株式会社,東京都,港区,南青山３丁目１番３６号青山丸竹ビル６Ｆ,,13,103,1070062,,,,,,,2025-06-05,1,,,,,エーピーシー,0
1959,8010403035312,新規,0,2025-06-05,2025-06-05,合同会社Ｆｉｚｚｗｏｒｋ,,合同会社,東京都,港区,六本木７丁目１０番２３号ボラーノ六本木２０３号,,13,103,1060032,,,,,,,2025-06-05,1,,,,,フィズワーク,0
1966,8010501054172,新規,0,2025-06-05,2025-06-05,真響株式会社,,株式会社,東京都,台東区,上野３丁目１６番２号天翔オフィス上野末広町４１２号室,,13,106,1100005,,,,,,,2025-06-05,1,,,,,マヒビキ,0
1967,8010501054189,新規,0,2025-06-05,2025-06-05,株式会社帆立不動産,,株式会社,東京都,台東区,浅草橋３丁目３２番１,,13,106,1110053,,,,,,,2025-06-05,1,,,,,ホタテフドウサン,0
1969,8010603011609,新規,0,2025-06-05,2025-06-05,サンベック合同会社,,合同会社,東京都,江東区,千石１丁目１４番２７号,,13,108,1350015,,,,,,,2025-06-05,1,,,,,サンベック,0
1972,8010901057485,新規,0,2025-06-05,2025-06-05,株式会社百年創造,,株式会社,東京都,世田谷区,瀬田３丁目３番１６号,,13,112,1580095,,,,,,,2025-06-05,1,,,,,ヒャクネンソウゾウ,0
1973,8010901057493,新規,0,2025-06-05,2025-06-05,フナコシエステート株式会社,,株式会社,東京都,世田谷区,弦巻５丁目１番８－１０４２号,,13,112,1540016,,,,,,,2025-06-05,1,,,,,フナコシエステート,0
1974,8010901057510,新規,0,2025-06-05,2025-06-05,株式会社エフジェイナレッジ,,株式会社,東京都,世田谷区,瀬田５丁目３７番１３号,,13,112,1580095,,,,,,,2025-06-05,1,,,,,エフジェイナレッジ,0
1978,8011001170410,新規,0,2025-06-05,2025-06-05,日聖美株式会社,,株式会社,東京都,目黒区,目黒本町５丁目２０番７号ＫＯＫＩ武蔵小山ビル,,13,110,1520002,,,,,,,2025-06-05,1,,,,,ニッセイビ,0
1980,8011005011016,新規,0,2025-06-05,2025-06-05,一般社団法人エコロフーズ協会,,その他の設立登記法人,東京都,渋谷区,道玄坂１丁目１６－６二葉ビル８Ｂ,,13,113,1500043,,,,,,,2025-06-05,1,,,,,エコロフーズキョウカイ,0
1988,8011501032176,新規,0,2025-06-05,2025-06-05,株式会社ＳＯＬＩＺ,,株式会社,東京都,北区,田端５丁目１番９号ヴィラ・ヒルトップ１０１号,,13,117,1140014,,,,,,,2025-06-05,1,,,,,ソリズ,0
1991,8011703004279,新規,0,2025-06-05,2025-06-05,合同会社明光社,,合同会社,東京都,江戸川区,松江３丁目１７番７号,,13,123,1320025,,,,,,,2025-06-05,1,,,,,メイコウシャ,0
1992,8011801046248,新規,0,2025-06-05,2025-06-05,柴田冷設株式会社,,株式会社,東京都,足立区,佐野１丁目１４番１６号,,13,121,1210053,,,,,,,2025-06-05,1,,,,,シバタレイセツ,0
1993,8011801046256,新規,0,2025-06-05,2025-06-05,株式会社グロスト,,株式会社,東京都,足立区,西伊興２丁目５番２２号,,13,121,1210824,,,,,,,2025-06-05,1,,,,,グロスト,0
1995,8011803006885,新規,0,2025-06-05,2025-06-05,華強合同会社,,合同会社,東京都,葛飾区,亀有５丁目２８番１２－１０１号,,13,122,1250061,,,,,,,2025-06-05,1,,,,,カキョウ,0
1996,8011803006893,新規,0,2025-06-05,2025-06-05,合同会社ＢＢ,,合同会社,東京都,葛飾区,金町４丁目６番１５号,,13,122,1250042,,,,,,,2025-06-05,1,,,,,ビービー,0
1997,8012301014414,新規,0,2025-06-05,2025-06-05,株式会社わかば葬祭,,株式会社,東京都,町田市,鶴間４丁目７番２２号,,13,209,1940004,,,,,,,2025-06-05,1,,,,,ワカバソウサイ,0
1998,8012301014422,新規,0,2025-06-05,2025-06-05,株式会社恵美寿住設,,株式会社,東京都,町田市,鶴川４丁目５番地７,,13,209,1950061,,,,,,,2025-06-05,1,,,,,エビスジュウセツ,0
2001,8012401043189,新規,0,2025-06-05,2025-06-05,土方アセットコンサルティング株式会社,,株式会社,東京都,府中市,四谷６丁目２５番地の４,,13,206,1830035,,,,,,,2025-06-05,1,,,,,ヒジカタアセットコンサルティング,0
2003,8013303007711,新規,0,2025-06-05,2025-06-05,合同会社ａｍａｎ,,合同会社,東京都,豊島区,目白２丁目２６番１２号,,13,116,1710031,,,,,,,2025-06-05,1,,,,,アマン,0
2008,8020001162887,新規,0,2025-06-05,2025-06-05,株式会社治晴,,株式会社,神奈川県,横浜市港北区,綱島東１丁目１８番５号,,14,109,2230052,,,,,,,2025-06-05,1,,,,,チハル,0
2009,8020001163258,新規,0,2025-06-05,2025-06-05,株式会社ＢＹＦＡＲ,,株式会社,神奈川県,横浜市中区,桜木町１丁目１０１番地１クロスゲート７階,,14,104,2310062,,,,,,,2025-06-05,1,,,,,バイファー,0
2010,8020001163282,新規,0,2025-06-05,2025-06-05,株式会社レトロプロジェクト,,株式会社,神奈川県,横浜市西区,みなとみらい５丁目３番１－Ｏ－１７０６号,,14,103,2200012,,,,,,,2025-06-05,1,,,,,レトロプロジェクト,0
2014,8020003028632,新規,0,2025-06-05,2025-06-05,合同会社フォルテラ,,合同会社,神奈川県,横浜市西区,北幸１丁目１１番１号水信ビル７階,,14,103,2200004,,,,,,,2025-06-05,1,,,,,フォルテラ,0
2015,8020003028640,新規,0,2025-06-05,2025-06-05,ｕｎコンサル合同会社,,合同会社,神奈川県,横浜市神奈川区,神大寺４丁目３４番８号,,14,102,2210801,,,,,,,2025-06-05,1,,,,,ユーエヌコンサル,0
2016,8020003028649,新規,0,2025-06-05,2025-06-05,合同会社南山エナジー,,合同会社,神奈川県,横浜市中区,住吉町１丁目１番地第３柳下ビル６０１,,14,104,2310013,,,,,,,2025-06-05,1,,,,,ミナミヤマエナジー,0
2019,8021001085376,新規,0,2025-06-05,2025-06-05,株式会社スエヒロコーポレーション,,株式会社,神奈川県,三浦郡葉山町,一色１３９２番地の１６,,14,301,2400111,,,,,,,2025-06-05,1,,,,,スエヒロコーポレーション,0
2020,8021001085442,新規,0,2025-06-05,2025-06-05,株式会社ＲＡＤＩＡＴＥ,,株式会社,神奈川県,藤沢市,鵠沼石上２丁目５番１号３階Ｃ号室,,14,205,2510025,,,,,,,2025-06-05,1,,,,,レディエイト,0
2021,8021001085475,新規,0,2025-06-05,2025-06-05,株式会社圏央車輛,,株式会社,神奈川県,厚木市,妻田西３丁目１２番１１号,,14,212,2430815,,,,,,,2025-06-05,1,,,,,ケンオウシャリョウ,0
2026,8021003016107,新規,0,2025-06-05,2025-06-05,ノースリバー合同会社,,合同会社,神奈川県,鎌倉市,長谷５丁目５番３３号,,14,204,2480016,,,,,,,2025-06-05,1,,,,,ノースリバー,0
2035,8030003026924,新規,0,2025-06-05,2025-06-05,オリエステイト合同会社,,合同会社,埼玉県,さいたま市岩槻区,本丸２丁目６番２１号,,11,110,3390058,,,,,,,2025-06-05,1,,,,,オリエステイト,0
2037,8030005022186,新規,0,2025-06-05,2025-06-05,一般社団法人飛来舎,,その他の設立登記法人,埼玉県,久喜市,吉羽１丁目３８番地７,,11,232,3460014,,,,,,,2025-06-05,1,,,,,トビラシャ,0
2041,8040001139082,新規,0,2025-06-05,2025-06-05,株式会社ソフィアホーム,,株式会社,千葉県,八千代市,ゆりのき台２丁目５番地６メゾンＫ＆Ｙ１０２,,12,221,2760042,,,,,,,2025-06-05,1,,,,,ソフィアホーム,0
2050,8050001056764,新規,0,2025-06-05,2025-06-05,株式会社サーベイランド,,株式会社,茨城県,ひたちなか市,大字中根３３２２番地１６,,08,221,3120011,,,,,,,2025-06-05,1,,,,,サーベイランド,0
2051,8050001056772,新規,0,2025-06-05,2025-06-05,株式会社ＴＯＩＶＥ,,株式会社,茨城県,守谷市,野木崎１８３８番地,,08,224,3020117,,,,,,,2025-06-05,1,,,,,,0
2053,8050003009324,新規,0,2025-06-05,2025-06-05,合同会社タックル商事,,合同会社,茨城県,小美玉市,竹原６６１番地８,,08,236,3190113,,,,,,,2025-06-05,1,,,,,タックルショウジ,0
2055,8060003005586,新規,0,2025-06-05,2025-06-05,合同会社綾羽,,合同会社,栃木県,宇都宮市,若松原１丁目１７－１２,,09,201,3210139,,,,,,,2025-06-05,1,,,,,アヤハ,0
2062,8080103003331,新規,0,2025-06-05,2025-06-05,ＡＳＨＩＲＩ合同会社,,合同会社,静岡県,富士市,青島町１９０－１レーベン富士青葉通りプレジデンスタワー１６０１号,,22,210,4170047,,,,,,,2025-06-05,1,,,,,アシリ,0
2063,8080401027957,新規,0,2025-06-05,2025-06-05,株式会社Ａ‐Ｓｔｙｌｅ,,株式会社,静岡県,浜松市中央区,篠原町１２１０番地の１,,22,138,4310201,,,,,,,2025-06-05,1,,,,,エースタイル,0
2064,8090001019296,新規,0,2025-06-05,2025-06-05,ＤＥＥＰ　ＢＯＮＤ株式会社,,株式会社,山梨県,都留市,下谷４丁目４番１５号,,19,204,4020051,,,,,,,2025-06-05,1,,,,,ディープボンド,0
2065,8090001019313,新規,0,2025-06-05,2025-06-05,株式会社富士ヶ嶺オフロード,,株式会社,山梨県,南都留郡富士河口湖町,富士ヶ嶺４６６番地,,19,430,4010338,,,,,,,2025-06-05,1,,,,,フジガネオフロード,0
2067,8100001038674,新規,0,2025-06-05,2025-06-05,株式会社Ｓ＆Ｃｏ．,,株式会社,長野県,諏訪市,大字上諏訪７６６４番地,,20,206,3920003,,,,,,,2025-06-05,1,,,,,エスアンドカンパニー,0
2075,8120001276371,新規,0,2025-06-05,2025-06-05,真実を言う株式会社,,株式会社,大阪府,大阪市中央区,粉川町７番２ユニハイム松屋町９０３室,,27,128,5400018,,,,,,,2025-06-05,1,,,,,シンジツヲイウ,0
2076,8120001276438,新規,0,2025-06-05,2025-06-05,株式会社アルファー,,株式会社,大阪府,大阪市東成区,大今里南６丁目２－１７－２０２号室,,27,115,5370013,,,,,,,2025-06-05,1,,,,,アルファー,0
2077,8120001276479,新規,0,2025-06-05,2025-06-05,株式会社栄進興業,,株式会社,大阪府,大阪市西区,靱本町３丁目８番６号,,27,106,5500004,,,,,,,2025-06-05,1,,,,,エイシンコウギョウ,0
2078,8120001276504,新規,0,2025-06-05,2025-06-05,株式会社ＣＳＹ,,株式会社,大阪府,大阪市淀川区,三津屋北１丁目２４－２０,,27,123,5320032,,,,,,,2025-06-05,1,,,,,シーエスワイ,0
2079,8120001276512,新規,0,2025-06-05,2025-06-05,株式会社大東電気,,株式会社,大阪府,大阪市都島区,大東町１丁目６番２０号,,27,102,5340002,,,,,,,2025-06-05,1,,,,,ダイトウデンキ,0
2080,8120001276520,新規,0,2025-06-05,2025-06-05,株式会社林山工業,,株式会社,大阪府,寝屋川市,萱島本町２０番８－８０１号,,27,215,5720827,,,,,,,2025-06-05,1,,,,,ハヤシヤマコウギョウ,0
2081,8120001276594,新規,0,2025-06-05,2025-06-05,株式会社Ａｋｉｓｔ,,株式会社,大阪府,大阪市城東区,諏訪１丁目１番７号,,27,118,5360021,,,,,,,2025-06-05,1,,,,,アキスト,0
2082,8120005024933,新規,0,2025-06-05,2025-06-05,一般社団法人きみライト,,その他の設立登記法人,大阪府,大阪市旭区,千林１丁目１番１４号ＡＬＥＧＲＩＡ千林大宮３０１,,27,117,5350012,,,,,,,2025-06-05,1,,,,,キミライト,0
2083,8120101071805,新規,0,2025-06-05,2025-06-05,ＳＭＩＬＥ　Ｌａｂ株式会社,,株式会社,大阪府,和泉市,箕形町３丁目１０番２５号,,27,219,5940042,,,,,,,2025-06-05,1,,,,,スマイルラボ,0
2084,8120101071813,新規,0,2025-06-05,2025-06-05,ＡＺｐｌａｎｎｉｎｇ株式会社,,株式会社,大阪府,堺市中区,田園５１０番地,,27,142,5998246,,,,,,,2025-06-05,1,,,,,アズプランニング,0
2085,8120101071838,新規,0,2025-06-05,2025-06-05,株式会社Ｃｌｅｐａ,,株式会社,大阪府,松原市,阿保３丁目１８番１２号,,27,217,5800043,,,,,,,2025-06-05,1,,,,,クレパ,0
2086,8120103006503,新規,0,2025-06-05,2025-06-05,ＬＯＣ合同会社,,合同会社,大阪府,岸和田市,箕土路町３０１－７－２０１号,,27,202,5960801,,,,,,,2025-06-05,1,,,,,ロック,0
2087,8120901050999,新規,0,2025-06-05,2025-06-05,株式会社ＭＩＧＩＵＣＨＩ,,株式会社,大阪府,豊中市,原田元町２丁目７番２９の２号,,27,203,5610808,,,,,,,2025-06-05,1,,,,,ミギウチ,0
2088,8120901051007,新規,0,2025-06-05,2025-06-05,株式会社明勝,,株式会社,大阪府,茨木市,西安威１丁目１６番３６号,,27,211,5670008,,,,,,,2025-06-05,1,,,,,メイショウ,0
2089,8120903005704,新規,0,2025-06-05,2025-06-05,合同会社あいくる,,合同会社,大阪府,豊中市,上新田４丁目７番１０号レジデンス鷹ヶ巣千里中央１階,,27,203,5600085,,,,,,,2025-06-05,1,,,,,アイクル,0
2090,8122001039312,新規,0,2025-06-05,2025-06-05,株式会社ＬＩＦＥＳＴＹＬＥ,,株式会社,大阪府,八尾市,本町３丁目６番２号１階,,27,212,5810003,,,,,,,2025-06-05,1,,,,,ライフスタイル,0
2091,8122001039320,新規,0,2025-06-05,2025-06-05,株式会社まねきやホールディングス,,株式会社,大阪府,東大阪市,吉原２丁目１番１３号,,27,227,5780904,,,,,,,2025-06-05,1,,,,,マネキヤホールディングス,0
2094,8130001079716,新規,0,2025-06-05,2025-06-05,リノン株式会社,,株式会社,京都府,京都市中京区,錦小路通室町西入天神山町２８０番地石勘ビル４Ｆ,,26,104,6048221,,,,,,,2025-06-05,1,,,,,リノン,0
2099,8140001138792,新規,0,2025-06-05,2025-06-05,神戸おいしい株式会社,,株式会社,兵庫県,神戸市中央区,二宮町４丁目１０番８号,,28,110,6510093,,,,,,,2025-06-05,1,,,,,コウベオイシイ,0
2100,8140001138818,新規,0,2025-06-05,2025-06-05,株式会社リブリード,,株式会社,兵庫県,明石市,朝霧南町４丁目１１番６号,,28,203,6730870,,,,,,,2025-06-05,1,,,,,リブリード,0
2102,8140003022128,新規,0,2025-06-05,2025-06-05,ＡＳＨＦＡＱ　ＳＯＮ’Ｓ　ＴＲＡＤＩＮＧ合同会社,,合同会社,兵庫県,神戸市西区,大津和３丁目１－１０ジュネスタチバナ４１３号,,28,111,6512112,,,,,,,2025-06-05,1,,,,,アシュファークサンーズトレーディング,0
2103,8140003022152,新規,0,2025-06-05,2025-06-05,合同会社Ｔｏｔｏｎｏｕ,,合同会社,兵庫県,神戸市西区,押部谷町西盛１４１番地の２,,28,111,6512202,,,,,,,2025-06-05,1,,,,,トトノウ,0
2105,8160001026806,新規,0,2025-06-05,2025-06-05,株式会社ＳＡＣ,,株式会社,滋賀県,大津市,大萱４丁目４番３０号,,25,201,5202144,,,,,,,2025-06-05,1,,,,,エスエーシー,0
2106,8160001026814,新規,0,2025-06-05,2025-06-05,株式会社ベッラ,,株式会社,滋賀県,草津市,野路１丁目１７番３０－１４０１号ファインレジデンス南草津,,25,206,5250059,,,,,,,2025-06-05,1,,,,,ベッラ,0
2113,8180001167086,新規,0,2025-06-05,2025-06-05,株式会社Ｍ．Ｋ建装,,株式会社,愛知県,名古屋市北区,如意１丁目７９番地,,23,103,4620007,,,,,,,2025-06-05,1,,,,,エムケイケンソウ,0
2114,8180001167103,新規,0,2025-06-05,2025-06-05,株式会社ｈｉｍａｗａｒｉ,,株式会社,愛知県,名古屋市天白区,平針南１丁目１１１６番地の２,,23,116,4680020,,,,,,,2025-06-05,1,,,,,ヒマワリ,0
2115,8180001167136,新規,0,2025-06-05,2025-06-05,株式会社ねむすび,,株式会社,愛知県,名古屋市名東区,宝が丘６５番地２,,23,115,4650043,,,,,,,2025-06-05,1,,,,,ネムスビ,0
2116,8180001167152,新規,0,2025-06-05,2025-06-05,株式会社ティーイーエアー,,株式会社,愛知県,稲沢市,平和町須ケ脇６８番地２,,23,220,4901323,,,,,,,2025-06-05,1,,,,,ティーイーエアー,0
2117,8180001167193,新規,0,2025-06-05,2025-06-05,株式会社コスメティックケア,,株式会社,愛知県,名古屋市北区,大曽根１丁目３０番２４号ＬＡＶＥＳＳＯ大曽根２Ｃ,,23,103,4620825,,,,,,,2025-06-05,1,,,,,コスメティックケア,0
2118,8180001167202,新規,0,2025-06-05,2025-06-05,株式会社ＯＲＺＡ,,株式会社,愛知県,名古屋市中区,栄４丁目３番１５号丸美観光ビル２階Ｗ２０１号,,23,106,4600008,,,,,,,2025-06-05,1,,,,,ホクシン,0
2120,8180301039869,新規,0,2025-06-05,2025-06-05,株式会社ＳｏＷａＫａ,,株式会社,愛知県,豊田市,喜多町１丁目７２番地２,,23,211,4710027,,,,,,,2025-06-05,1,,,,,ソワカ,0
2125,8190001032264,新規,0,2025-06-05,2025-06-05,株式会社ｆｉｌ．,,株式会社,三重県,鈴鹿市,中江島町１５番１５号ハートランドＢ．Ｄ１Ｃ,,24,207,5100236,,,,,,,2025-06-05,1,,,,,フィル,0
2126,8200001043862,新規,0,2025-06-05,2025-06-05,マサミエンジニアリング株式会社,,株式会社,岐阜県,可児市,塩河２７５６番地の５,,21,214,5090247,,,,,,,2025-06-05,1,,,,,マサミエンジニアリング,0
2127,8200001043870,新規,0,2025-06-05,2025-06-05,株式会社西匠建工,,株式会社,岐阜県,本巣市,数屋１９７番地,,21,218,5010414,,,,,,,2025-06-05,1,,,,,セイショウケンコウ,0
2128,8200001043879,新規,0,2025-06-05,2025-06-05,ＨＡＹＡＮＯＧＲＯＵＰ　ＨＤ株式会社,,株式会社,岐阜県,本巣市,三橋１１０１番地の１,,21,218,5010406,,,,,,,2025-06-05,1,,,,,ハヤノグループホールディングス,0
2130,8200003006859,新規,0,2025-06-05,2025-06-05,合同会社侑実建,,合同会社,岐阜県,揖斐郡大野町,大字上磯７４８番地,,21,403,5010531,,,,,,,2025-06-05,1,,,,,ユミケン,0
2143,8280001009435,新規,0,2025-06-05,2025-06-05,株式会社スリーバックス,,株式会社,島根県,江津市,後地町２４８６番地,,32,207,6992841,,,,,,,2025-06-05,1,,,,,スリーバックス,0
2151,8290001110150,新規,0,2025-06-05,2025-06-05,ソラー株式会社,,株式会社,福岡県,福岡市東区,千早４丁目７番１６－３０１号,,40,131,8130044,,,,,,,2025-06-05,1,,,,,ソラー,0
2154,8290805009836,新規,0,2025-06-05,2025-06-05,一般社団法人ＵＮＩＶＡ,,その他の設立登記法人,福岡県,田川郡添田町,大字添田１２６７番地の１ひこさんビル１０２,,40,602,8240602,,,,,,,2025-06-05,1,,,,,ユニバ,0
2156,8310001019629,新規,0,2025-06-05,2025-06-05,株式会社西海映像社,,株式会社,長崎県,西海市,西彼町下岳郷１８８２番地１,,42,212,8513311,,,,,,,2025-06-05,1,,,,,サイカイエイゾウシャ,0
2157,8310001019637,新規,0,2025-06-05,2025-06-05,アクアス株式会社,,株式会社,長崎県,雲仙市,国見町土黒戊２０２番地,,42,213,8591315,,,,,,,2025-06-05,1,,,,,アクアス,0
2158,8330001033264,新規,0,2025-06-05,2025-06-05,ＭＡＹ株式会社,,株式会社,熊本県,熊本市南区,八幡９丁目６番２７－２０５,,43,104,8614113,,,,,,,2025-06-05,1,,,,,メイ,0
2159,8330003011037,新規,0,2025-06-05,2025-06-05,Ｓｈｉｎｆａ合同会社,,合同会社,熊本県,熊本市東区,月出８丁目２番５号,,43,102,8620920,,,,,,,2025-06-05,1,,,,,シンファ,0
2160,8330003011045,新規,0,2025-06-05,2025-06-05,合同会社ＳＴ,,合同会社,熊本県,熊本市中央区,花畑町１１番９号第２蘇洲ビル３Ｆ－ＡＢ,,43,101,8600806,,,,,,,2025-06-05,1,,,,,エスティ,0
2165,8360001035308,新規,0,2025-06-05,2025-06-05,株式会社仲栄,,株式会社,沖縄県,中頭郡読谷村,字長浜１５０４番地,,47,324,9040324,,,,,,,2025-06-05,1,,,,,ナカエイ,0
2167,8360003014986,新規,0,2025-06-05,2025-06-05,合同会社ａｃｅ,,合同会社,沖縄県,石垣市,字登野城１２６８番地１１,,47,207,9070004,,,,,,,2025-06-05,1,,,,,エース,0
2168,8360003014994,新規,0,2025-06-05,2025-06-05,合同会社宮建,,合同会社,沖縄県,名護市,東江１丁目１２番９－２０２号翁長アパート,,47,209,9050021,,,,,,,2025-06-05,1,,,,,ミヤケン,0
2171,8370001052533,新規,0,2025-06-05,2025-06-05,株式会社ＴＳＵ,,株式会社,宮城県,石巻市,鹿又字梅木屋敷２１番地,,04,202,9861111,,,,,,,2025-06-05,1,,,,,ティーエスユー,0
2172,8370001052640,新規,0,2025-06-05,2025-06-05,ＴＧＴ株式会社,,株式会社,宮城県,仙台市青葉区,本町１丁目５番２８号カーニープレイス仙台駅前通６０３号室,,04,101,9800014,,,,,,,2025-06-05,1,,,,,ティージーティー,0
2173,8370001052665,新規,0,2025-06-05,2025-06-05,株式会社えなみる,,株式会社,宮城県,仙台市青葉区,中央２丁目１１番１９号仙南ビル４階－Ａ,,04,101,9800021,,,,,,,2025-06-05,1,,,,,エナミル,0
2184,8430001094593,新規,0,2025-06-05,2025-06-05,株式会社ＷＡＦ,,株式会社,北海道,札幌市豊平区,平岸二条１１丁目１－８フリーコート平岸Ｂ,,01,105,0620932,,,,,,,2025-06-05,1,,,,,ダブリューエーエフ,0
2185,8430001094619,新規,0,2025-06-05,2025-06-05,株式会社北川工務店,,株式会社,北海道,札幌市白石区,北郷二条３丁目５番８－１号,,01,104,0030832,,,,,,,2025-06-05,1,,,,,キタガワコウムテン,0
2188,8430003017742,新規,0,2025-06-05,2025-06-05,合同会社アンキロ,,合同会社,北海道,札幌市東区,北丘珠四条２丁目５番１７号,,01,103,0070884,,,,,,,2025-06-05,1,,,,,アンキロ,0
2191,8460103001718,新規,0,2025-06-05,2025-06-05,合同会社ジャムズ,,合同会社,北海道,帯広市,西十四条南３丁目１番地１,,01,207,0800024,,,,,,,2025-06-05,1,,,,,ジャムズ,0
2195,8480001012856,新規,0,2025-06-05,2025-06-05,株式会社ＩＭＯＹＡ　ＦＡＲＭ,,株式会社,徳島県,鳴門市,瀬戸町明神字板屋島１２３番地５,,36,202,7710360,,,,,,,2025-06-05,1,,,,,イモヤファーム,0
2198,8500003003529,新規,0,2025-06-05,2025-06-05,合同会社ジョウセイ,,合同会社,愛媛県,松山市,祓川１丁目３番２１号,,38,201,7918066,,,,,,,2025-06-05,1,,,,,ジョウセイ,0
2200,8700150093344,新規,0,2025-06-05,2019-03-11,Ａ　ｓｔａｒｓ,,その他,兵庫県,宝塚市,湯本町９－１０－７０３,,28,214,6650003,,,,,,,2019-03-11,1,,,,,エースターズ,0
2201,8700150130931,新規,0,2025-06-05,2025-06-05,Ｇｒｉｍａｎｉ　Ｌｉｍｉｔｅｄ,,外国会社等,,,,,,,,イギリス領ヴァージン諸島、トルトラ島、ロードタウン、ポートカリス、トラストネット、チェンバースクリア・スポット・リミテッド,,,,,,2025-06-05,1,,,,,グリマニリミテツド,0
2203,9010001255633,新規,0,2025-06-05,2025-06-05,株式会社ＣＫ,,株式会社,東京都,千代田区,内神田３丁目４番１３号,,13,101,1010047,,,,,,,2025-06-05,1,,,,,シーケー,0
2204,9010001255658,新規,0,2025-06-05,2025-06-05,泰成株式会社,,株式会社,東京都,千代田区,永田町１丁目１１番２８号合人社東京永田町ビル２Ｆ,,13,101,1000014,,,,,,,2025-06-05,1,,,,,タイセイ,0
2205,9010001255666,新規,0,2025-06-05,2025-06-05,株式会社キングギャラントカツロ,,株式会社,東京都,文京区,本駒込５丁目３８番８号カツロビル,,13,105,1130021,,,,,,,2025-06-05,1,,,,,キングギャラントカツロ,0
2206,9010001255724,新規,0,2025-06-05,2025-06-05,Ｍ．Ｇ．ホールディングス株式会社,,株式会社,東京都,千代田区,霞が関３丁目２番５号,,13,101,1000013,,,,,,,2025-06-05,1,,,,,エムジーホールディングス,0
2207,9010003047517,新規,0,2025-06-05,2025-06-05,朝屋合同会社,,合同会社,東京都,中央区,銀座１丁目１２－４Ｎ＆ＥＢＬＤ．７階,,13,102,1040061,,,,,,,2025-06-05,1,,,,,アサヤ,0
2208,9010005040148,新規,0,2025-06-05,2025-06-05,岡山一般社団法人,,その他の設立登記法人,東京都,千代田区,丸の内１丁目４番１号東京共同会計事務所内,,13,101,1000005,,,,,,,2025-06-05,1,,,,,オカヤマ,0
2209,9010005040156,新規,0,2025-06-05,2025-06-05,一般社団法人アーバンウェルネス,,その他の設立登記法人,東京都,千代田区,平河町１丁目６番１５号シルスフィア会計事務所内,,13,101,1020093,,,,,,,2025-06-05,1,,,,,アーバンウェルネス,0
2217,9010401190620,新規,0,2025-06-05,2025-06-05,株式会社Ｈａｊｉｋｅｒｕ,,株式会社,東京都,港区,南青山３丁目５－２南青山第一韮沢ビル３Ｆ,,13,103,1070062,,,,,,,2025-06-05,1,,,,,ハジケル,0
2218,9010401190785,新規,0,2025-06-05,2025-06-05,Ｄｅｅｐｔｉｍｅ株式会社,,株式会社,東京都,港区,北青山１丁目３番１号,,13,103,1070061,,,,,,,2025-06-05,1,,,,,ディープタイム,0
2219,9010401190876,新規,0,2025-06-05,2025-06-05,株式会社カルマヴィエラ,,株式会社,東京都,港区,北青山１丁目３‐３三橋ビル３階,,13,103,1070061,,,,,,,2025-06-05,1,,,,,カルマヴィエラ,0
2222,9010403035245,新規,0,2025-06-05,2025-06-05,合同会社ルーアメロ・イザワリサーチ,,合同会社,東京都,港区,北青山１丁目３番１号アールキューブ青山３階,,13,103,1070061,,,,,,,2025-06-05,1,,,,,ルーアメロイザワリサーチ,0
2223,9010403035261,新規,0,2025-06-05,2025-06-05,合同会社Ｅｎｏｖｉｔａ,,合同会社,東京都,港区,南青山３丁目１－３６青山丸竹ビル６階,,13,103,1070062,,,,,,,2025-06-05,1,,,,,エノヴィータ,0
2224,9010403035278,新規,0,2025-06-05,2025-06-05,合同会社タニーズファム,,合同会社,東京都,港区,北青山１丁目３番１５号アールキューブ青山３階,,13,103,1070061,,,,,,,2025-06-05,1,,,,,タニーズファム,0
2225,9010403035294,新規,0,2025-06-05,2025-06-05,ＷａｆｆｏＳｈｏｐ　Ｊａｐａｎ合同会社,,合同会社,東京都,港区,南青山３丁目５番２号,,13,103,1070062,,,,,,,2025-06-05,1,,,,,ワッフォショップジャパン,0
2226,9010403035303,新規,0,2025-06-05,2025-06-05,ＭＨＳ　Ｈｏｌｄｉｎｇｓ合同会社,,合同会社,東京都,港区,南青山７丁目１４番１１号,,13,103,1070062,,,,,,,2025-06-05,1,,,,,エムエイチエスホールディングス,0
2230,9010501054023,新規,0,2025-06-05,2025-06-05,俊嘉株式会社,,株式会社,東京都,台東区,柳橋２丁目１９－１０,,13,106,1110052,,,,,,,2025-06-05,1,,,,,シュンカ,0
2231,9010501054155,新規,0,2025-06-05,2025-06-05,天和株式会社,,株式会社,東京都,台東区,台東１丁目５番２１号田中ビル２階,,13,106,1100016,,,,,,,2025-06-05,1,,,,,テンワ,0
2233,9010503007870,新規,0,2025-06-05,2025-06-05,ユニゾン合同会社,,合同会社,東京都,台東区,東上野４丁目４番９－５０９号朝日上野マンション,,13,106,1100015,,,,,,,2025-06-05,1,,,,,ユニゾン,0
2235,9010601067412,新規,0,2025-06-05,2025-06-05,株式会社フロントベイス,,株式会社,東京都,江東区,豊洲４丁目１１番２０－１５０３号,,13,108,1350061,,,,,,,2025-06-05,1,,,,,フロントベイス,0
2236,9010603011599,新規,0,2025-06-05,2025-06-05,合同会社ＳＳＳ,,合同会社,東京都,墨田区,立花５丁目３８番１３号,,13,107,1310043,,,,,,,2025-06-05,1,,,,,スリーエス,0
2237,9010603011608,新規,0,2025-06-05,2025-06-05,ＬＹＲＭ合同会社,,合同会社,東京都,江東区,亀戸６丁目５９番１２号酒部ビル,,13,108,1360071,,,,,,,2025-06-05,1,,,,,リルム,0
2249,9010903009979,新規,0,2025-06-05,2025-06-05,Ｓ＆Ｓ　ＷｏｒＫｓ合同会社,,合同会社,東京都,世田谷区,北沢３丁目５番１４号,,13,112,1550031,,,,,,,2025-06-05,1,,,,,エスアンドエスワークス,0
2250,9010903009995,新規,0,2025-06-05,2025-06-05,トラウイスカルパン合同会社,,合同会社,東京都,世田谷区,上馬１丁目１７番９号,,13,112,1540011,,,,,,,2025-06-05,1,,,,,トラウイスカルパン,0
2253,9011001169914,新規,0,2025-06-05,2025-06-05,株式会社ＦＡＭＥＲＡ,,株式会社,東京都,渋谷区,道玄坂１丁目１０番８号２Ｆ－Ｃ,,13,113,1500043,,,,,,,2025-06-05,1,,,,,ファメラ,0
2254,9011001170112,新規,0,2025-06-05,2025-06-05,株式会社ＳｙｎＰｅａｋ,,株式会社,東京都,渋谷区,神南１丁目１１番４号ＦＰＧリンクス神南５階,,13,113,1500041,,,,,,,2025-06-05,1,,,,,シンピーク,0
2255,9011003021701,新規,0,2025-06-05,2025-06-05,合同会社ＩＺＵＭＩ,,合同会社,東京都,目黒区,青葉台３丁目６－１３,,13,110,1530042,,,,,,,2025-06-05,1,,,,,イズミ,0
2256,9011003021825,新規,0,2025-06-05,2025-06-05,合同会社ミナトス,,合同会社,東京都,渋谷区,円山町５番３号ＭＩＥＵＸ渋谷ビル８階,,13,113,1500044,,,,,,,2025-06-05,1,,,,,ミナトス,0
2260,9011101111998,新規,0,2025-06-05,2025-06-05,リゼロ株式会社,,株式会社,東京都,新宿区,新宿５丁目１４番１２号天翔オフィス新宿三丁目３０３,,13,104,1600022,,,,,,,2025-06-05,1,,,,,リゼロ,0
2261,9011201026411,新規,0,2025-06-05,2025-06-05,ＺＥＥＲＯ株式会社,,株式会社,東京都,中野区,鷺宮３丁目３７番１４号ヨウコウ館別館１階,,13,114,1650032,,,,,,,2025-06-05,1,,,,,ゼロ,0
2262,9011203004720,新規,0,2025-06-05,2025-06-05,ツノダ合同会社,,合同会社,東京都,中野区,本町６丁目２７番８－９０１号,,13,114,1640012,,,,,,,2025-06-05,1,,,,,ツノダ,0
2271,9011501032167,新規,0,2025-06-05,2025-06-05,億株式会社,,株式会社,東京都,荒川区,町屋３丁目２４番２号面川ビル２１７号室,,13,118,1160001,,,,,,,2025-06-05,1,,,,,オク,0
2272,9011801046247,新規,0,2025-06-05,2025-06-05,株式会社ストリーム,,株式会社,東京都,葛飾区,東新小岩２丁目２０番１６－３号,,13,122,1240023,,,,,,,2025-06-05,1,,,,,ストリーム,0
2273,9011801046263,新規,0,2025-06-05,2025-06-05,株式会社ＳＥＭ,,株式会社,東京都,葛飾区,堀切３丁目１２番４号,,13,122,1240006,,,,,,,2025-06-05,1,,,,,エスイーエム,0
2275,9012301014413,新規,0,2025-06-05,2025-06-05,ＥＮＯＮ株式会社,,株式会社,東京都,町田市,能ヶ谷６丁目１５番６号,,13,209,1950053,,,,,,,2025-06-05,1,,,,,エノン,0
2276,9012301014421,新規,0,2025-06-05,2025-06-05,株式会社Ｎｏｏｋ　Ｎｏｏｋ,,株式会社,東京都,町田市,下小山田町８１番地１,,13,209,1940202,,,,,,,2025-06-05,1,,,,,ヌックヌック,0
2281,9012701018906,新規,0,2025-06-05,2025-06-05,株式会社ＳＴＵＤＩＯ　ＢＯＸ,,株式会社,東京都,西東京市,ひばりが丘北４丁目２番２６号２Ｆ,,13,229,2020002,,,,,,,2025-06-05,1,,,,,スタジオボックス,0
2282,9012703003286,新規,0,2025-06-05,2025-06-05,ＳＶＣ‐Ｃｏｎｓｕｌｔｉｎｇ合同会社,,合同会社,東京都,西東京市,新町５丁目１５番２号,,13,229,2020023,,,,,,,2025-06-05,1,,,,,エスヴィシーコンサルティング,0
2284,9013301054374,新規,0,2025-06-05,2025-06-05,株式会社ＯＮＥ,,株式会社,東京都,豊島区,東池袋３丁目５番７号,,13,116,1700013,,,,,,,2025-06-05,1,,,,,ワン,0
2285,9013301054390,新規,0,2025-06-05,2025-06-05,Ｍｙ　Ｃｉｔｙ株式会社,,株式会社,東京都,豊島区,東池袋２丁目６２番８号－１２０６,,13,116,1700013,,,,,,,2025-06-05,1,,,,,マイシティ,0
2286,9013303007710,新規,0,2025-06-05,2025-06-05,合同会社ＮＯＴ,,合同会社,東京都,豊島区,上池袋１丁目３７番２２号レジディアタワー上池袋（タワー棟）２１０７号,,13,116,1700012,,,,,,,2025-06-05,1,,,,,ノット,0
2288,9020001163182,新規,0,2025-06-05,2025-06-05,眞島・志水株式会社,,株式会社,神奈川県,横浜市青葉区,元石川町３８０８番地ニシハイツ２０２,,14,117,2250004,,,,,,,2025-06-05,1,,,,,マジマシミズ,0
2289,9020001163190,新規,0,2025-06-05,2025-06-05,株式会社ＴＤＳコンサルティング,,株式会社,神奈川県,横浜市南区,永楽町１丁目６番地,,14,105,2320031,,,,,,,2025-06-05,1,,,,,ティーディーエスコンサルティング,0
2290,9020001163249,新規,0,2025-06-05,2025-06-05,株式会社クロガネ,,株式会社,神奈川県,横浜市青葉区,鉄町１０番地１１,,14,117,2250025,,,,,,,2025-06-05,1,,,,,クロガネ,0
2293,9020003028623,新規,0,2025-06-05,2025-06-05,合同会社ＷＢＭＩ,,合同会社,神奈川県,横浜市港北区,新吉田東４丁目３番１１号,,14,109,2230058,,,,,,,2025-06-05,1,,,,,ダブリュウビーエムアイ,0
2298,9021001085409,新規,0,2025-06-05,2025-06-05,株式会社千寿,,株式会社,神奈川県,秦野市,曽屋３３３１,,14,211,2570031,,,,,,,2025-06-05,1,,,,,センジュ,0
2299,9021001085433,新規,0,2025-06-05,2025-06-05,株式会社ＦＫＳ,,株式会社,神奈川県,藤沢市,長後１２０３番地の１,,14,205,2520801,,,,,,,2025-06-05,1,,,,,エフケーエス,0
2301,9021003016122,新規,0,2025-06-05,2025-06-05,合同会社とよたサンフリーク,,合同会社,神奈川県,平塚市,天沼６番３５－５０２号パークリージェンシー湘南平塚,,14,203,2540031,,,,,,,2025-06-05,1,,,,,トヨタサンフリーク,0
2306,9030001166886,新規,0,2025-06-05,2025-06-05,株式会社建塗ハウス匠,,株式会社,埼玉県,行田市,藤原町２丁目５－１３,,11,206,3610016,,,,,,,2025-06-05,1,,,,,,0
2307,9030001166928,新規,0,2025-06-05,2025-06-05,株式会社グローブフォード,,株式会社,埼玉県,越谷市,赤山本町１１番１Ｋ１ビル３Ｆ,,11,222,3430808,,,,,,,2025-06-05,1,,,,,グローブフォード,0
2308,9030001166952,新規,0,2025-06-05,2025-06-05,株式会社パナンボ商事,,株式会社,埼玉県,北本市,大字下石戸下１５１６番地３タウンコート北本２０３,,11,233,3640023,,,,,,,2025-06-05,1,,,,,パナンボショウジ,0
2309,9030005022185,新規,0,2025-06-05,2025-06-05,一般財団法人アライ光藝財団,,その他の設立登記法人,埼玉県,さいたま市大宮区,東町２丁目１２番地,,11,103,3300841,,,,,,,2025-06-05,1,,,,,アライコウゲイザイダン,0
2313,9040001139098,新規,0,2025-06-05,2025-06-05,株式会社ブンブンデジタルテクノロジー,,株式会社,千葉県,柏市,若柴１７８－４－１４８－１ザ・ゲートタワーウェスト３階Ｖ１４３,,12,217,2770871,,,,,,,2025-06-05,1,,,,,ブンブンデジタルテクノロジー,0
2318,9060001038265,新規,0,2025-06-05,2025-06-05,株式会社Ｓ‐ＬＥＡＰ,,株式会社,栃木県,鹿沼市,下粕尾１２０４番地,,09,205,3220421,,,,,,,2025-06-05,1,,,,,エスリープ,0
2321,9080001026978,新規,0,2025-06-05,2025-06-05,株式会社サンクス製作所,,株式会社,静岡県,藤枝市,水守２丁目１番地の２７,,22,214,4260005,,,,,,,2025-06-05,1,,,,,サンクスセイサクショ,0
2330,9090001019312,新規,0,2025-06-05,2025-06-05,株式会社ギバ,,株式会社,山梨県,甲州市,塩山上於曽１１６３番地,,19,213,4040042,,,,,,,2025-06-05,1,,,,,ギバ,0
2334,9100001038665,新規,0,2025-06-05,2025-06-05,佐久交通警備株式会社,,株式会社,長野県,佐久市,中込３２１２番地１,,20,217,3850051,,,,,,,2025-06-05,1,,,,,サクコウツウケイビ,0
2336,9100003008220,新規,0,2025-06-05,2025-06-05,合同会社フルドフォルク,,合同会社,長野県,北安曇郡松川村,５７２１番地１７８２,,20,482,3998501,,,,,,,2025-06-05,1,,,,,フルドフォルク,0
2349,9120001276503,新規,0,2025-06-05,2025-06-05,株式会社ワープダイヤ,,株式会社,大阪府,大阪市平野区,加美北１丁目２２番１７号,,27,126,5470001,,,,,,,2025-06-05,1,,,,,ワープダイヤ,0
2350,9120001276544,新規,0,2025-06-05,2025-06-05,サンドグラス株式会社,,株式会社,大阪府,大阪市中央区,北久宝寺町４丁目３番８号本町アーバンライフ５０９号室,,27,128,5410057,,,,,,,2025-06-05,1,,,,,サンドグラス,0
2351,9120001276602,新規,0,2025-06-05,2025-06-05,株式会社ノエア,,株式会社,大阪府,大阪市西区,江戸堀１丁目６番１７－４２０６号,,27,106,5500002,,,,,,,2025-06-05,1,,,,,ノエア,0
2355,9120003029669,新規,0,2025-06-05,2025-06-05,合同会社ＴＥＳＬ,,合同会社,大阪府,枚方市,香里ケ丘２丁目８番地の２（５０３）,,27,210,5730084,,,,,,,2025-06-05,1,,,,,ティイーエスエル,0
2357,9120005024965,新規,0,2025-06-05,2025-06-05,一般社団法人社会福祉普及推進協会,,その他の設立登記法人,大阪府,大阪市淀川区,野中北２丁目１番２７号アルビオン１階,,27,123,5320034,,,,,,,2025-06-05,1,,,,,シャカイフクシフキュウスイシンキョウカイ,0
2360,9120103006493,新規,0,2025-06-05,2025-06-05,鏡ワークス合同会社,,合同会社,大阪府,和泉市,池上町４丁目１０番４３号,,27,219,5940083,,,,,,,2025-06-05,1,,,,,カガミワークス,0
2361,9120103006502,新規,0,2025-06-05,2025-06-05,合同会社ＨＦＭ　ＧＲＯＵＰ,,合同会社,大阪府,和泉市,室堂町２８８－６－２０７号,,27,219,5941101,,,,,,,2025-06-05,1,,,,,エイチエフエムグループ,0
2366,9122001039286,新規,0,2025-06-05,2025-06-05,株式会社フジスマイルタクト,,株式会社,大阪府,東大阪市,吉田本町３丁目５番１２－１２０２号,,27,227,5780982,,,,,,,2025-06-05,1,,,,,フジスマイルタクト,0
2374,9140001138783,新規,0,2025-06-05,2025-06-05,株式会社クリエイティブ・クルー,,株式会社,兵庫県,姫路市,広畑区蒲田７０４番地３,,28,201,6711102,,,,,,,2025-06-05,1,,,,,クリエイティブクルー,0
2375,9140001138791,新規,0,2025-06-05,2025-06-05,株式会社ＧＵＮＡＴＳＵ,,株式会社,兵庫県,加古川市,加古川町溝之口１５１－１エンブレイス加古川５１６,,28,210,6750064,,,,,,,2025-06-05,1,,,,,グナツ,0
2377,9140003022143,新規,0,2025-06-05,2025-06-05,合同会社誠和,,合同会社,兵庫県,姫路市,四郷町東阿保７４３－７,,28,201,6710247,,,,,,,2025-06-05,1,,,,,セイワ,0
2387,9180001167151,新規,0,2025-06-05,2025-06-05,株式会社アサヒ外構,,株式会社,愛知県,知多市,八幡字荒古後４１番地の１,,23,224,4780001,,,,,,,2025-06-05,1,,,,,アサヒガイコウ,0
2388,9180001167176,新規,0,2025-06-05,2025-06-05,株式会社本郷自動車,,株式会社,愛知県,江南市,木賀本郷町南１４３番地,,23,217,4838238,,,,,,,2025-06-05,1,,,,,ホンゴウジドウシャ,0
2392,9180003028558,新規,0,2025-06-05,2025-06-05,合同会社大城設計,,合同会社,愛知県,小牧市,大字久保一色１０５４番地マルベリー田県２０１号,,23,219,4850003,,,,,,,2025-06-05,1,,,,,オオシロセッケイ,0
2405,9220003004050,新規,0,2025-06-05,2025-06-05,合同会社秀角,,合同会社,石川県,金沢市,松村１丁目３６６番地,,17,201,9200348,,,,,,,2025-06-05,1,,,,,ヒデカド,0
2406,9230001020949,新規,0,2025-06-05,2025-06-05,株式会社Ｔｅｒｒａ　Ｃｏｎｎｅｃｔ,,株式会社,富山県,富山市,今泉１９７番地,,16,201,9398075,,,,,,,2025-06-05,1,,,,,テラコネクト,0
2408,9240001065027,新規,0,2025-06-05,2025-06-05,安土土木構造設計株式会社,,株式会社,広島県,広島市中区,十日市町２丁目１番２５号セントラル瀬戸内９０７,,34,101,7300805,,,,,,,2025-06-05,1,,,,,アヅチドボクコウゾウセッケイ,0
2413,9250001021177,新規,0,2025-06-05,2025-06-05,株式会社山口トラベル,,株式会社,山口県,山口市,秋穂東１７１３番地１,,35,203,7541101,,,,,,,2025-06-05,1,,,,,ヤマグチトラベル,0
2423,9290801031586,新規,0,2025-06-05,2025-06-05,株式会社天研,,株式会社,福岡県,北九州市若松区,大字有毛１６３５番地,,40,103,8080123,,,,,,,2025-06-05,1,,,,,テンケン,0
2424,9290801031594,新規,0,2025-06-05,2025-06-05,株式会社トップモーター,,株式会社,福岡県,直方市,大字感田１３５５番地６,,40,204,8220001,,,,,,,2025-06-05,1,,,,,トップモーター,0
2425,9290805009835,新規,0,2025-06-05,2025-06-05,ＮＰＯ法人終活サポート北九州,,その他の設立登記法人,福岡県,北九州市小倉北区,真鶴２丁目１番１０－８０６号,,40,106,8030844,,,,,,,2025-06-05,1,,,,,シュウカツサポートキタキュウシュウ,0
2426,9310001019628,新規,0,2025-06-05,2025-06-05,株式会社ウィンテック,,株式会社,長崎県,佐世保市,俵町１０番１７号太陽ビル４－１Ｆ,,42,202,8570016,,,,,,,2025-06-05,1,,,,,ウィンテック,0
2430,9350001019574,新規,0,2025-06-05,2025-06-05,橋本総業株式会社,,株式会社,宮崎県,西臼杵郡五ヶ瀬町,大字桑野内６６８４番地,,45,443,8821202,,,,,,,2025-06-05,1,,,,,ハシモトソウギョウ,0
2431,9350003004946,新規,0,2025-06-05,2025-06-05,合同会社千木,,合同会社,宮崎県,西臼杵郡高千穂町,大字押方４０４番地６,,45,441,8821102,,,,,,,2025-06-05,1,,,,,チギ,0
2433,9360001035315,新規,0,2025-06-05,2025-06-05,株式会社ｎａｊｅｙ　ｃｏｒｅ,,株式会社,沖縄県,浦添市,西原１丁目４番９号コーポｙｏｕ１Ｆ,,47,208,9012101,,,,,,,2025-06-05,1,,,,,ナージーコア,0
2436,9370003007121,新規,0,2025-06-05,2025-06-05,合同会社ビルドオンロック,,合同会社,宮城県,仙台市若林区,一本杉町５番２０号,,04,103,9840828,,,,,,,2025-06-05,1,,,,,ビルドオンロック,0
2442,9390001018011,新規,0,2025-06-05,2025-06-05,株式会社パルティード,,株式会社,山形県,山形市,幸町２－９　１Ｆ・２Ｆ,,06,201,9900038,,,,,,,2025-06-05,1,,,,,,0
2443,9400001017052,新規,0,2025-06-05,2025-06-05,株式会社ダイヤ,,株式会社,岩手県,一関市,大手町７番３６号,,03,209,0210884,,,,,,,2025-06-05,1,,,,,ダイヤ,0
2444,9400001017060,新規,0,2025-06-05,2025-06-05,株式会社グールマン,,株式会社,岩手県,岩手郡岩手町,大字五日市第１１地割１３４番地９,,03,303,0284307,,,,,,,2025-06-05,1,,,,,グールマン,0
2445,9410001014180,新規,0,2025-06-05,2025-06-05,株式会社Ｏｎｅ　ｔｗｏ　ｔｈｒｅｅ,,株式会社,秋田県,鹿角市,花輪字八幡館５番地２,,05,209,0185201,,,,,,,2025-06-05,1,,,,,ヒフミ,0
2453,9430001094576,新規,0,2025-06-05,2025-06-05,株式会社Ｒｉｔｔａ,,株式会社,北海道,札幌市白石区,南郷通北一丁目１番１９号,,01,104,0030000,,,,,,,2025-06-05,1,,,,,リッタ,0
2454,9430001094592,新規,0,2025-06-05,2025-06-05,株式会社ケーエヌテック,,株式会社,北海道,札幌市東区,本町二条３丁目７番３２－３０２号,,01,103,0650042,,,,,,,2025-06-05,1,,,,,ケーエヌテック,0
2455,9430001094634,新規,0,2025-06-05,2025-06-05,株式会社ＷＨ,,株式会社,北海道,札幌市中央区,北十条西１５丁目１‐６クリーンリバー桑園駅前１棟１階,,01,101,0600010,,,,,,,2025-06-05,1,,,,,ダブリューエイチ,0
2458,9440001009624,新規,0,2025-06-05,2025-06-05,株式会社ミウラ,,株式会社,北海道,函館市,亀田本町５８番１７号,,01,202,0410813,,,,,,,2025-06-05,1,,,,,ミウラ,0
2460,9470003002896,新規,0,2025-06-05,2025-06-05,合同会社花みずき,,合同会社,香川県,さぬき市,寒川町石田東甲９２６番地３,,37,206,7692321,,,,,,,2025-06-05,1,,,,,,0
2461,9480001012855,新規,0,2025-06-05,2025-06-05,株式会社ＮＯＮ,,株式会社,徳島県,徳島市,大和町１丁目２番７号,,36,201,7700864,,,,,,,2025-06-05,1,,,,,エヌオーエヌ,0
2462,9490001011071,新規,0,2025-06-05,2025-06-05,株式会社ＳＹＯＮＡＮ工務店,,株式会社,高知県,香南市,野市町西野２５７番地６,,39,211,7815232,,,,,,,2025-06-05,1,,,,,ショウナンコウムテン,0
2467,9700150130930,新規,0,2025-06-05,2025-06-05,ＨＯＲＩＺＯＮ　ＬＩＮＫ　ＰＴＥ．ＬＴＤ．,,外国会社等,,,,,,,,１　ＴＡＮＧＬＩＮ　ＲＯＡＤ　＃０４－１８　ＳＩＮＧＡＰＯＲＥ（２４７９０５）,,,,,,2025-06-05,1,,,,,ホリゾンリンクプライベートリミテツド,0
