sequenceNumber,corporateNumber,process,correct,updateDate,changeDate,name,nameImageId,kind,prefectureName,cityName,streetNumber,addressImageId,prefectureCode,cityCode,postCode,addressOutside,addressOutsideImageId,closeDate,closeCause,successorCorporateNumber,changeCause,assignmentDate,latest,enName,enPrefectureName,enCityName,enAddressOutside,furigana,hihyoji
9,1010001262934,新規,0,2026-02-18,2026-02-18,株式会社ＰＵＢＬＩＣＷＡＲＥ,,株式会社,東京都,中央区,日本橋馬喰町２丁目７番１５号,,13,102,1030002,,,,,,,2026-02-18,1,,,,,パブリックウェア,0
14,1010003050412,新規,0,2026-02-18,2026-02-18,合同会社ＴＭＲＴ,,合同会社,東京都,中央区,日本橋室町１丁目１１番１２号日本橋水野ビル７階,,13,102,1030022,,,,,,,2026-02-18,1,,,,,ティーエムアールティー,0
15,1010003050453,新規,0,2026-02-18,2026-02-18,ＧＰネオルナ合同会社,,合同会社,東京都,千代田区,丸の内１丁目４番１号東京共同会計事務所内,,13,101,1000005,,,,,,,2026-02-18,1,,,,,ジーピーネオルナ,0
23,1010403037331,新規,0,2026-02-18,2026-02-18,ジェイピーピー合同会社,,合同会社,東京都,港区,赤坂９丁目１番７－６７８号,,13,103,1070052,,,,,,,2026-02-18,1,,,,,ジェイピーピー,0
24,1010403037348,新規,0,2026-02-18,2026-02-18,合同会社ＮｉＣｏ虹心,,合同会社,東京都,港区,南青山３丁目１０番４１号ジュエル青山ビル２０２号,,13,103,1070062,,,,,,,2026-02-18,1,,,,,ニコ,0
29,1010701049045,新規,0,2026-02-18,2026-02-18,キャメル株式会社,,株式会社,東京都,品川区,西五反田８丁目２番１２号,,13,109,1410031,,,,,,,2026-02-18,1,,,,,キャメル,0
30,1010701049053,新規,0,2026-02-18,2026-02-18,株式会社Ｓａｃｒｅ,,株式会社,東京都,品川区,西五反田３丁目３番２号プラウドタワー目黒ＭＡＲＣ７１１,,13,109,1410031,,,,,,,2026-02-18,1,,,,,サクレ,0
43,1011005011360,新規,0,2026-02-18,2026-02-18,アオタケ特定目的会社,,その他の設立登記法人,東京都,渋谷区,恵比寿１丁目２０番２号７０４号室嶋本公認会計士事務所気付,,13,113,1500013,,,,,,,2026-02-18,1,,,,,アオタケ,0
56,1011103017020,新規,0,2026-02-18,2026-02-18,神谷町キャピタル・フォー合同会社,,合同会社,東京都,新宿区,富久町８番２６号東京ユナイテッド綜合事務所内,,13,104,1620067,,,,,,,2026-02-18,1,,,,,カミヤチョウキャピタルフォー,0
60,1011601029392,新規,0,2026-02-18,2026-02-18,株式会社Ｎｅｔ　ｓｕｒｆｅｒ,,株式会社,東京都,練馬区,南大泉２丁目１２番５号,,13,120,1780064,,,,,,,2026-02-18,1,,,,,ネットサーファー,0
68,1011803007337,新規,0,2026-02-18,2026-02-18,合同会社和音,,合同会社,東京都,足立区,青井４丁目３番２号,,13,121,1210012,,,,,,,2026-02-18,1,,,,,ワオン,0
80,1020001167133,新規,0,2026-02-18,2026-02-18,株式会社ａｎｄ　ＩＮＦＩＮＩＴＹ’ｓ,,株式会社,神奈川県,横浜市西区,みなとみらい４丁目９番２号,,14,103,2200012,,,,,,,2026-02-18,1,,,,,アンドインフィニティーズ,0
81,1020001167240,新規,0,2026-02-18,2026-02-18,株式会社ＦＡＮＥＳＩＡ,,株式会社,神奈川県,横浜市神奈川区,金港町５番地１４クアドリフォリオ８階,,14,102,2210056,,,,,,,2026-02-18,1,,,,,ファンネシア,0
83,1020003030322,新規,0,2026-02-18,2026-02-18,インフィニティホリスティックラボ合同会社,,合同会社,神奈川県,川崎市麻生区,万福寺６丁目４－５－３０２,,14,137,2150004,,,,,,,2026-02-18,1,,,,,インフィニティホリスティックラボ,0
102,1030001171035,新規,0,2026-02-18,2026-02-18,タカノ総合企画株式会社,,株式会社,埼玉県,川口市,大字里６３１番地の５,,11,203,3340005,,,,,,,2026-02-18,1,,,,,タカノソウゴウキカク,0
110,1030003028638,新規,0,2026-02-18,2026-02-18,合同会社ＭＯＢＩＬＥＳＥＮＴＯ,,合同会社,埼玉県,富士見市,針ケ谷１丁目１３番地５,,11,235,3540017,,,,,,,2026-02-18,1,,,,,モバイルセントー,0
111,1030003028662,新規,0,2026-02-18,2026-02-18,アイサイト合同会社,,合同会社,埼玉県,さいたま市大宮区,北袋町２丁目３１番地５,,11,103,3300835,,,,,,,2026-02-18,1,,,,,アイサイト,0
112,1030003028670,新規,0,2026-02-18,2026-02-18,合同会社エイチプロスＫＡＷＡＧＯＥ,,合同会社,埼玉県,川越市,砂新田２丁目３番２－４０７号,,11,201,3501137,,,,,,,2026-02-18,1,,,,,エイチプロスカワゴエ,0
114,1040001142514,新規,0,2026-02-18,2026-02-18,株式会社瑞穂クリエイション,,株式会社,千葉県,千葉市若葉区,加曽利町４７５番地５,,12,104,2640017,,,,,,,2026-02-18,1,,,,,ミズホクリエイション,0
119,1040003029429,新規,0,2026-02-18,2026-02-18,開千合同会社,,合同会社,千葉県,船橋市,坪井東５丁目６番１４号,,12,204,2740060,,,,,,,2026-02-18,1,,,,,カイチ,0
120,1040003029494,新規,0,2026-02-18,2026-02-18,合同会社ボアソルチ,,合同会社,千葉県,船橋市,本町３丁目９番２５号Ｇｕｓｔｏ船橋本町２０２号,,12,204,2730005,,,,,,,2026-02-18,1,,,,,ボアソルチ,0
123,1050003009925,新規,0,2026-02-18,2026-02-18,合同会社ＩＳＨＩＫＡＷＡ　Ｃｏ．,,合同会社,茨城県,守谷市,薬師台６丁目３番地４,,08,224,3020105,,,,,,,2026-02-18,1,,,,,イシカワカンパニー,0
124,1050003009958,新規,0,2026-02-18,2026-02-18,合同会社Ｒｅｌｉｅｒ,,合同会社,茨城県,土浦市,右籾３０５５番地アルドール２０２,,08,203,3000837,,,,,,,2026-02-18,1,,,,,ルリエ,0
130,1070001043841,新規,0,2026-02-18,2026-02-18,株式会社バランスワン,,株式会社,群馬県,太田市,飯塚町５５９番地１,,10,205,3730817,,,,,,,2026-02-18,1,,,,,バランスワン,0
138,1090003002991,新規,0,2026-02-18,2026-02-18,合同会社ルミナ,,合同会社,山梨県,甲斐市,龍地１４０４番地７号,,19,210,4000104,,,,,,,2026-02-18,1,,,,,ルミナ,0
149,1120001284158,新規,0,2026-02-18,2026-02-18,株式会社Ｎｉｎｃｈｙ,,株式会社,大阪府,大阪市東住吉区,今川６丁目３－３２,,27,121,5460003,,,,,,,2026-02-18,1,,,,,ニンチー,0
150,1120001284232,新規,0,2026-02-18,2026-02-18,株式会社Ｆｉｇｎｏ,,株式会社,大阪府,大阪市北区,梅田１丁目２番２号大阪駅南第２ビル１２－１２,,27,127,5300001,,,,,,,2026-02-18,1,,,,,フィグノ,0
151,1120001284257,新規,0,2026-02-18,2026-02-18,株式会社イイコレ,,株式会社,大阪府,大阪市生野区,鶴橋１丁目７番６号,,27,116,5440031,,,,,,,2026-02-18,1,,,,,イイコレ,0
152,1120001284265,新規,0,2026-02-18,2026-02-18,株式会社リジョイン,,株式会社,大阪府,大阪市淀川区,十三東４丁目２番１５号,,27,123,5320023,,,,,,,2026-02-18,1,,,,,リジョイン,0
153,1120001284273,新規,0,2026-02-18,2026-02-18,文成商事株式会社,,株式会社,大阪府,守口市,八雲北町３丁目５６番６号,,27,209,5700008,,,,,,,2026-02-18,1,,,,,ブンセイショウジ,0
155,1120003031954,新規,0,2026-02-18,2026-02-18,合同会社環境未来クリエイト,,合同会社,大阪府,枚方市,東中振１丁目２４番１９号,,27,210,5730093,,,,,,,2026-02-18,1,,,,,カンキョウミライクリエイト,0
168,1122001040193,新規,0,2026-02-18,2026-02-18,株式会社かふね,,株式会社,大阪府,東大阪市,荒川３丁目２７番３３号,,27,227,5770843,,,,,,,2026-02-18,1,,,,,カフネ,0
170,1130001081645,新規,0,2026-02-18,2026-02-18,錦泰株式会社,,株式会社,京都府,京都市伏見区,桃山南大島町１番地４桃山南団地４５棟３０５号室,,26,109,6128017,,,,,,,2026-02-18,1,,,,,キンタイ,0
171,1130003011170,新規,0,2026-02-18,2026-02-18,ＳＮＳ絆グローバル合同会社,,合同会社,京都府,京都市伏見区,深草下川原町１３０番地１１寿マンション１０１号,,26,109,6128401,,,,,,,2026-02-18,1,,,,,エスエヌエスキズナグローバル,0
184,1180001170682,新規,0,2026-02-18,2026-02-18,株式会社ｄｅｌｉｇｈｔ,,株式会社,愛知県,名古屋市天白区,土原２丁目３１８番地,,23,116,4680026,,,,,,,2026-02-18,1,,,,,ディライト,0
185,1180001170708,新規,0,2026-02-18,2026-02-18,米津エステート株式会社,,株式会社,愛知県,名古屋市昭和区,山手通３丁目９番２アヴァンセテラス八事日赤１１０２号室,,23,107,4660815,,,,,,,2026-02-18,1,,,,,ヨネヅエステート,0
193,1200001044735,新規,0,2026-02-18,2026-02-18,プランニングオフィス株式会社,,株式会社,岐阜県,可児市,土田４５６７番地,,21,214,5090206,,,,,,,2026-02-18,1,,,,,プランニングオフィス,0
195,1230001021310,新規,0,2026-02-18,2026-02-18,Ｔ＆Ｉ　Ｐａｒｔｎｅｒｓ株式会社,,株式会社,富山県,砺波市,太郎丸６５６８番地１,,16,208,9391363,,,,,,,2026-02-18,1,,,,,ティーアンドアイパートナーズ,0
200,1260001040992,新規,0,2026-02-18,2026-02-18,株式会社ｂｒｕｓｈ　ｕｐ若葉,,株式会社,岡山県,真庭市,木山６４１番地１,,33,214,7193142,,,,,,,2026-02-18,1,,,,,ブラッシュアップワカバ,0
211,1290001113168,新規,0,2026-02-18,2026-02-18,株式会社ｓｉｎ,,株式会社,福岡県,久留米市,荒木町荒木１４４３番地７,,40,203,8300063,,,,,,,2026-02-18,1,,,,,シン,0
212,1290001113201,新規,0,2026-02-18,2026-02-18,ＪＢホールディングス株式会社,,株式会社,福岡県,福岡市博多区,祇園町８番１３号第一プリンスビル,,40,132,8120038,,,,,,,2026-02-18,1,,,,,ジェイビーホールディングス,0
217,1290003018084,新規,0,2026-02-18,2026-02-18,合同会社アクア・フィールサポート,,合同会社,福岡県,福岡市東区,下原３丁目２０番５号,,40,131,8130002,,,,,,,2026-02-18,1,,,,,,0
222,1340001027981,新規,0,2026-02-18,2026-02-18,株式会社ＨＩＭＵＲＡ,,株式会社,鹿児島県,阿久根市,脇本１６２２番地３,,46,206,8991131,,,,,,,2026-02-18,1,,,,,ヒムラ,0
225,1360001036394,新規,0,2026-02-18,2026-02-18,株式会社メアライズアカデミー,,株式会社,沖縄県,那覇市,真嘉比１丁目１０番２号ＳＵＮ・ＰＬＡＺＡ・ＧＩＮＯＺＡ３階,,47,201,9020068,,,,,,,2026-02-18,1,,,,,メアライズアカデミー,0
227,1360003015628,新規,0,2026-02-18,2026-02-18,合同会社ａｌｔｈａｉａ,,合同会社,沖縄県,那覇市,天久１丁目１０番２０号,,47,201,9000005,,,,,,,2026-02-18,1,,,,,アルタイア,0
233,1420001019418,新規,0,2026-02-18,2026-02-18,Ｃｒｅａｔｉｖｅ　ＲＳ・Ａ株式会社,,株式会社,青森県,弘前市,大字田園４丁目１番地１１－２Ｆ,,02,202,0368086,,,,,,,2026-02-18,1,,,,,クリエイティブアールエスエー,0
234,1430001096266,新規,0,2026-02-18,2026-02-18,株式会社ダイチ不動産,,株式会社,北海道,札幌市西区,西野一条３丁目２番３０号クリーンリバー西野パークウェイ７０５号,,01,107,0630031,,,,,,,2026-02-18,1,,,,,ダイチフドウサン,0
235,1430003018598,新規,0,2026-02-18,2026-02-18,養生合同会社,,合同会社,北海道,札幌市東区,北四十三条東１８丁目３番６－３０２号,,01,103,0070843,,,,,,,2026-02-18,1,,,,,ヨウジョウ,0
236,1430003018607,新規,0,2026-02-18,2026-02-18,合同会社ＬＩＮＫＴＨ,,合同会社,北海道,札幌市清田区,平岡十条２丁目２３番１９号,,01,110,0040880,,,,,,,2026-02-18,1,,,,,リンクス,0
243,1480003002390,新規,0,2026-02-18,2026-02-18,合同会社アリー,,合同会社,徳島県,徳島市,八万町大坪２８２グランパルク大坪Ｃ１０３,,36,201,7708079,,,,,,,2026-02-18,1,,,,,アリー,0
254,2010001262834,新規,0,2026-02-18,2026-02-18,株式会社サジタリアス,,株式会社,東京都,文京区,関口１丁目１９番５号弥助ビル別館３階,,13,105,1120014,,,,,,,2026-02-18,1,,,,,サジタリアス,0
255,2010001262925,新規,0,2026-02-18,2026-02-18,株式会社ＦｌｏｒａＬｉｎｋ,,株式会社,東京都,中央区,銀座６丁目１４番８号,,13,102,1040061,,,,,,,2026-02-18,1,,,,,フローラリンク,0
256,2010001262982,新規,0,2026-02-18,2026-02-18,株式会社ＯＢＤ,,株式会社,東京都,千代田区,一ツ橋２丁目３番１号,,13,101,1010003,,,,,,,2026-02-18,1,,,,,オービーディー,0
261,2010003050386,新規,0,2026-02-18,2026-02-18,ＮＯＭＵＲＡコンサルティング合同会社,,合同会社,東京都,中央区,銀座１丁目２２番１１号銀座大竹ビジデンス２Ｆ,,13,102,1040061,,,,,,,2026-02-18,1,,,,,ノムラコンサルティング,0
262,2010003050452,新規,0,2026-02-18,2026-02-18,ＬＰネオルナ合同会社,,合同会社,東京都,千代田区,丸の内１丁目４番１号東京共同会計事務所内,,13,101,1000005,,,,,,,2026-02-18,1,,,,,エルピーネオルナ,0
269,2010401196450,新規,0,2026-02-18,2026-02-18,株式会社ＯＫＢ,,株式会社,東京都,港区,赤坂９丁目４番１号,,13,103,1070052,,,,,,,2026-02-18,1,,,,,オーケービー,0
270,2010401196599,新規,0,2026-02-18,2026-02-18,株式会社Ｅｔｈｉｃａ,,株式会社,東京都,港区,浜松町１丁目１３番２－１９０５号,,13,103,1050013,,,,,,,2026-02-18,1,,,,,エチカ,0
271,2010401196632,新規,0,2026-02-18,2026-02-18,麻布クラシック株式会社,,株式会社,東京都,港区,麻布十番１丁目５－１０アトラスビル,,13,103,1060045,,,,,,,2026-02-18,1,,,,,アザブクラシック,0
272,2010401196665,新規,0,2026-02-18,2026-02-18,ブルーム３株式会社,,株式会社,東京都,港区,麻布台１丁目３番１号麻布台ヒルズ森ＪＰタワー１７階,,13,103,1060041,,,,,,,2026-02-18,1,,,,,ブルームスリー,0
273,2010405025382,新規,0,2026-02-18,2026-02-18,ネイキッドアセットジャパン一般社団法人,,その他の設立登記法人,東京都,港区,元赤坂１丁目１番７－１２０９号株式会社赤坂国際会計内,,13,103,1070051,,,,,,,2026-02-18,1,,,,,ネイキッドアセットジャパン,0
275,2010501055473,新規,0,2026-02-18,2026-02-18,ＪＢＣ精機株式会社,,株式会社,東京都,台東区,清川１丁目１９番９号,,13,106,1110022,,,,,,,2026-02-18,1,,,,,ジェービーシーセイキ,0
278,2010601068648,新規,0,2026-02-18,2026-02-18,株式会社Ｎｅｕｎｏｎ　Ｃｏｎｓｕｌｔｉｎｇ,,株式会社,東京都,江東区,南砂６丁目７番３６－３０６号,,13,108,1360076,,,,,,,2026-02-18,1,,,,,ニューノンコンサルティング,0
279,2010603012083,新規,0,2026-02-18,2026-02-18,ＢＥＴＡｂｅｔ合同会社,,合同会社,東京都,墨田区,緑３丁目２－１０ＡＳＭＡＣＩＭＡＩＳＯＮ両国ＩＩ２０１,00142626,13,107,1300021,,,,,,,2026-02-18,1,,,,,ベータベット,0
286,2011001175217,新規,0,2026-02-18,2026-02-18,株式会社Ｏｎｌｉｎｅ　Ｐｌｕｓ,,株式会社,東京都,渋谷区,神泉町１０番１５号アネックス神泉３０１,,13,113,1500045,,,,,,,2026-02-18,1,,,,,オンラインプラス,0
287,2011001175464,新規,0,2026-02-18,2026-02-18,Ｒａ・Ｍｕ　ｃｏｎｓｕｌｔｉｎｇ株式会社,,株式会社,東京都,渋谷区,代官山町２０－２３ＦｏｒｅｓｔｇａｔｅＤａｉｋａｎｙａｍａＭＡＩＮ棟３Ｆ,,13,113,1500034,,,,,,,2026-02-18,1,,,,,ラムーコンサルティング,0
289,2011003023704,新規,0,2026-02-18,2026-02-18,合同会社Ｆ．Ｇｒａｍｍｙ,,合同会社,東京都,目黒区,目黒本町４丁目２４番２１―７０１号目黒本町マンション,,13,110,1520002,,,,,,,2026-02-18,1,,,,,エフグラミー,0
292,2011101114784,新規,0,2026-02-18,2026-02-18,株式会社ハルビナ,,株式会社,東京都,新宿区,西新宿３丁目３番１３号西新宿水間ビル２Ｆ,,13,104,1600023,,,,,,,2026-02-18,1,,,,,ハルビナ,0
293,2011101114801,新規,0,2026-02-18,2026-02-18,株式会社オーシャンズ,,株式会社,東京都,新宿区,西新宿１丁目１８番４号,,13,104,1600023,,,,,,,2026-02-18,1,,,,,オーシャンズ,0
294,2011501033114,新規,0,2026-02-18,2026-02-18,株式会社フライハテック,,株式会社,東京都,北区,志茂２丁目５５－１,,13,117,1150042,,,,,,,2026-02-18,1,,,,,フライハテック,0
295,2011601029391,新規,0,2026-02-18,2026-02-18,株式会社トライギア,,株式会社,東京都,練馬区,石神井台４丁目１２番１４号,,13,120,1770045,,,,,,,2026-02-18,1,,,,,トライギア,0
297,2011701029192,新規,0,2026-02-18,2026-02-18,株式会社ＳＵＮＷＡＹ,,株式会社,東京都,江戸川区,江戸川６丁目４０番１４－２２９号,,13,123,1340013,,,,,,,2026-02-18,1,,,,,サンウェイ,0
305,2012703003474,新規,0,2026-02-18,2026-02-18,プライム合同会社,,合同会社,東京都,清瀬市,中清戸４丁目９８２番６号,,13,221,2040012,,,,,,,2026-02-18,1,,,,,プライム,0
313,2020001167108,新規,0,2026-02-18,2026-02-18,株式会社ＡＭＯＮ,,株式会社,神奈川県,横浜市青葉区,荏田町４２４番地６ルシール２４６－２０２,,14,117,2250013,,,,,,,2026-02-18,1,,,,,アモン,0
314,2020001167231,新規,0,2026-02-18,2026-02-18,株式会社英傑,,株式会社,神奈川県,川崎市川崎区,大島１丁目１１番９号リラシオン４Ｃ,,14,131,2100834,,,,,,,2026-02-18,1,,,,,エイケツ,0
316,2020003030370,新規,0,2026-02-18,2026-02-18,Ｎｏｒｔｈｓｔａｒ　Ｊａｐａｎ合同会社,,合同会社,神奈川県,横浜市青葉区,美しが丘西２丁目２６番地４６,,14,117,2250001,,,,,,,2026-02-18,1,,,,,ノーススタージャパン,0
322,2021001087519,新規,0,2026-02-18,2026-02-18,株式会社ＥＮ,,株式会社,神奈川県,平塚市,松風町２８番１８号,,14,203,2540812,,,,,,,2026-02-18,1,,,,,エン,0
323,2021001087592,新規,0,2026-02-18,2026-02-18,株式会社方丈舎,,株式会社,神奈川県,伊勢原市,善波３０７番地,,14,214,2591106,,,,,,,2026-02-18,1,,,,,ホウジョウシャ,0
330,2030001171067,新規,0,2026-02-18,2026-02-18,栄信株式会社,,株式会社,埼玉県,所沢市,日吉町８－５フジノビル３Ｆ,,11,208,3591123,,,,,,,2026-02-18,1,,,,,エイシン,0
337,2030003028661,新規,0,2026-02-18,2026-02-18,ＣＮ　ｃｏｎｎｅｃｔ合同会社,,合同会社,埼玉県,川口市,金山町１２番１号サウスゲートタワー川口２階Ｍｉｏ川口,,11,203,3320014,,,,,,,2026-02-18,1,,,,,シーエヌコネクト,0
344,2040003029485,新規,0,2026-02-18,2026-02-18,合同会社ＳＡＫＡＩ,,合同会社,千葉県,野田市,瀬戸１８９－５５,,12,208,2780012,,,,,,,2026-02-18,1,,,,,サカイ,0
345,2040003029502,新規,0,2026-02-18,2026-02-18,合同会社ＬＯＳＯ,,合同会社,千葉県,我孫子市,布佐３０９５番地の４,,12,222,2701101,,,,,,,2026-02-18,1,,,,,ロソ,0
350,2050001057990,新規,0,2026-02-18,2026-02-18,株式会社Ａｏ,,株式会社,茨城県,高萩市,大字石滝２５０８番地の２９,,08,214,3180022,,,,,,,2026-02-18,1,,,,,アオ,0
383,2120001284198,新規,0,2026-02-18,2026-02-18,株式会社トレカハック,,株式会社,大阪府,大阪市中央区,難波千日前９番１２号千日前セントラル第３ビル,,27,128,5420075,,,,,,,2026-02-18,1,,,,,トレカハック,0
384,2120001284280,新規,0,2026-02-18,2026-02-18,株式会社Ｏｖｅｒｌａｙ　Ｇｒｏｕｐ,,株式会社,大阪府,大阪市此花区,酉島６丁目７番１４号,,27,104,5540051,,,,,,,2026-02-18,1,,,,,オーバーレイグループ,0
385,2120001284297,新規,0,2026-02-18,2026-02-18,株式会社クロム,,株式会社,大阪府,大阪市住吉区,万代６丁目１５番６号,,27,120,5580055,,,,,,,2026-02-18,1,,,,,クロム,0
386,2120003031961,新規,0,2026-02-18,2026-02-18,合同会社山海,,合同会社,大阪府,大阪市浪速区,恵美須西３丁目１３番２８－３１７号,,27,111,5560003,,,,,,,2026-02-18,1,,,,,サンカイ,0
399,2122001040192,新規,0,2026-02-18,2026-02-18,株式会社Ｋ’ｓ　Ｃｏｍｐａｎｙ,,株式会社,大阪府,東大阪市,神田町１１番１２号,,27,227,5798058,,,,,,,2026-02-18,1,,,,,ケーズカンパニー,0
408,2140001141769,新規,0,2026-02-18,2026-02-18,ＷＩＮーＷＩＮグループ株式会社,,株式会社,兵庫県,神戸市中央区,国香通３丁目１番１４号,,28,110,6510066,,,,,,,2026-02-18,1,,,,,ウィンウィングループ,0
409,2140003023214,新規,0,2026-02-18,2026-02-18,合同会社星‐ＡＫＡＲＩ‐,,合同会社,兵庫県,西宮市,名塩さくら台２丁目１３番４号,,28,204,6691146,,,,,,,2026-02-18,1,,,,,アカリ,0
410,2140003023222,新規,0,2026-02-18,2026-02-18,クライム合同会社,,合同会社,兵庫県,姫路市,西八代町１１－６,,28,201,6700876,,,,,,,2026-02-18,1,,,,,クライム,0
411,2150001028742,新規,0,2026-02-18,2026-02-18,Ｙ’Ｓコーポレーション株式会社,,株式会社,奈良県,奈良市,中山町西３丁目５３５番地の１１３,,29,201,6310013,,,,,,,2026-02-18,1,,,,,ワイズコーポレーション,0
412,2160001027421,新規,0,2026-02-18,2026-02-18,株式会社ＬｉｌｉＯ,,株式会社,滋賀県,長浜市,南呉服町５番３２－９０１号,,25,203,5260058,,,,,,,2026-02-18,1,,,,,リリオ,0
421,2180001170657,新規,0,2026-02-18,2026-02-18,ラグーン株式会社,,株式会社,愛知県,名古屋市中村区,栄生町５番１７号ドミール栄生３０８号,,23,105,4530033,,,,,,,2026-02-18,1,,,,,ラグーン,0
422,2180001170707,新規,0,2026-02-18,2026-02-18,株式会社藤鳶組,,株式会社,愛知県,瀬戸市,萩殿町３丁目２０番地の８,,23,204,4890885,,,,,,,2026-02-18,1,,,,,フジトビグミ,0
428,2200001044734,新規,0,2026-02-18,2026-02-18,株式会社翔,,株式会社,岐阜県,各務原市,那加新那加町２番地３,,21,213,5040961,,,,,,,2026-02-18,1,,,,,ショウ,0
436,2240003007603,新規,0,2026-02-18,2026-02-18,合同会社リリー,,合同会社,広島県,山県郡北広島町,中祖１０番地１,,34,369,7312432,,,,,,,2026-02-18,1,,,,,リリー,0
449,2290001113159,新規,0,2026-02-18,2026-02-18,株式会社Ｇａｔｅ　Ｏｎｅ,,株式会社,福岡県,福岡市南区,大橋２丁目２８番２４号２１０号,,40,134,8150033,,,,,,,2026-02-18,1,,,,,ゲートワン,0
457,2320001021580,新規,0,2026-02-18,2026-02-18,株式会社ぬく森エネルギー,,株式会社,大分県,大分市,大字鴛野８４０番地の１サンあいおい３０４,,44,201,8701121,,,,,,,2026-02-18,1,,,,,ヌクモリエネルギー,0
458,2320003004906,新規,0,2026-02-18,2026-02-18,フジマネジメント合同会社,,合同会社,大分県,由布市,湯布院町川上３７２５番地５,,44,213,8795102,,,,,,,2026-02-18,1,,,,,フジマネジメント,0
461,2340001027980,新規,0,2026-02-18,2026-02-18,株式会社ＭＡ　Ｃｏｅｕｒ．,,株式会社,鹿児島県,鹿児島市,中央町７－３－７０２,,46,201,8900053,,,,,,,2026-02-18,1,,,,,マクール,0
462,2340003005101,新規,0,2026-02-18,2026-02-18,合同会社ＭＩＮＯＲＩ,,合同会社,鹿児島県,鹿児島市,西陵７丁目１０番１号パーパス２１Ａ,,46,201,8900032,,,,,,,2026-02-18,1,,,,,ミノリ,0
466,2360003015627,新規,0,2026-02-18,2026-02-18,合同会社沖縄フォワード,,合同会社,沖縄県,豊見城市,宜保５丁目２番９号２階,,47,212,9010244,,,,,,,2026-02-18,1,,,,,オキナワフォワード,0
480,2470005006679,新規,0,2026-02-18,2026-02-18,医療法人Ｓｍｉｌｅ　Ｌｉｎｋ　Ｐｌｕｓ,,その他の設立登記法人,香川県,丸亀市,前塩屋町１丁目９番７号,,37,202,7630064,,,,,,,2026-02-18,1,,,,,スマイルリンクプラス,0
484,2500001026784,新規,0,2026-02-18,2026-02-18,ＦＹトレーディング株式会社,,株式会社,愛媛県,新居浜市,船木甲２６９０番地の１,,38,205,7920856,,,,,,,2026-02-18,1,,,,,エフワイトレーディング,0
491,3010001262882,新規,0,2026-02-18,2026-02-18,Ｇｅｍｉｗａｖｅ　Ｐａｒｔｎｅｒｓ株式会社,,株式会社,東京都,中央区,銀座１丁目１２番４号　Ｎ＆Ｅ　ＢＬＤ．７階,,13,102,1040061,,,,,,,2026-02-18,1,,,,,ジェミウェーブパートナーズ,0
492,3010001262932,新規,0,2026-02-18,2026-02-18,株式会社ＴＨＥ　ＣＯＭＭＯＮ　ＰＯＲＣＨ,,株式会社,東京都,中央区,日本橋蛎殻町１丁目９番９－１０１号,,13,102,1030014,,,,,,,2026-02-18,1,,,,,ザコモンポーチ,0
493,3010001262965,新規,0,2026-02-18,2026-02-18,Ｋｎｏｆｔｒｏｎｉｃｓ株式会社,,株式会社,東京都,千代田区,神田須田町１丁目７番８号Ｖｏｒｔ秋葉原ＩＶ２Ｆ,00142611,13,101,1010041,,,,,,,2026-02-18,1,,,,,ノフトロニクス,0
494,3010001262973,新規,0,2026-02-18,2026-02-18,ＥＨ　ＬＩＮＫ商事株式会社,,株式会社,東京都,千代田区,神田和泉町１番地３－７,,13,101,1010024,,,,,,,2026-02-18,1,,,,,イーエイチリンクショウジ,0
495,3010001262981,新規,0,2026-02-18,2026-02-18,Ｌｅｘｙ株式会社,,株式会社,東京都,文京区,水道２丁目３－２１－６０２号,,13,105,1120005,,,,,,,2026-02-18,1,,,,,レクシー,0
496,3010003050435,新規,0,2026-02-18,2026-02-18,パッシア合同会社,,合同会社,東京都,文京区,目白台３丁目２０番２０号,,13,105,1120015,,,,,,,2026-02-18,1,,,,,パッシア,0
497,3010005041399,新規,0,2026-02-18,2026-02-18,チェルシー行政書士法人,,その他の設立登記法人,東京都,千代田区,富士見１丁目５番４号飯田橋磐梯ビル４階,,13,101,1020071,,,,,,,2026-02-18,1,,,,,チェルシー,0
510,3010401196466,新規,0,2026-02-18,2026-02-18,株式会社ＯＮＤＡＭ,,株式会社,東京都,港区,南青山４丁目１５－３３,,13,103,1070062,,,,,,,2026-02-18,1,,,,,オンダム,0
511,3010401196482,新規,0,2026-02-18,2026-02-18,ＴＯＫＹＯ　ＷＡＴＣＨ　ＭＡＲＫＥＴ株式会社,,株式会社,東京都,港区,赤坂４丁目１－３２赤坂ビル１階,,13,103,1070052,,,,,,,2026-02-18,1,,,,,トーキョーウォッチマーケット,0
512,3010401196615,新規,0,2026-02-18,2026-02-18,ロンリーパインＡＩ株式会社,,株式会社,東京都,港区,六本木４丁目２－１４ＭＰＲ六本木三河台ビル３階,,13,103,1060032,,,,,,,2026-02-18,1,,,,,ロンリーパインエーアイ,0
513,3010401196648,新規,0,2026-02-18,2026-02-18,株式会社地憬,,株式会社,東京都,港区,南青山２丁目１５番５号ＦＡＲＯ１階,,13,103,1070062,,,,,,,2026-02-18,1,,,,,チケイ,0
514,3010401196739,新規,0,2026-02-18,2026-02-18,Ｌｏｇｉｏ株式会社,,株式会社,東京都,港区,南青山３丁目１番３６号青山丸竹ビル６Ｆ,,13,103,1070062,,,,,,,2026-02-18,1,,,,,ロジオ,0
515,3010403037379,新規,0,2026-02-18,2026-02-18,Ａｌｐｈａ　Ｂｅｙｏｎｄ　Ｆｒｏｎｔｉｅｒ合同会社,,合同会社,東京都,港区,南麻布１丁目１０番７号,,13,103,1060047,,,,,,,2026-02-18,1,,,,,アルファビヨンドフロンティア,0
516,3010405025299,新規,0,2026-02-18,2026-02-18,一般財団法人ＳＫＩグループ財団,,その他の設立登記法人,東京都,港区,赤坂２丁目５番２７号,,13,103,1070052,,,,,,,2026-02-18,1,,,,,エスケイアイグループザイダン,0
517,3010405025308,新規,0,2026-02-18,2026-02-18,一般社団法人日本感染症予報協会,,その他の設立登記法人,東京都,港区,白金台３丁目１６番１３号５階,,13,103,1080071,,,,,,,2026-02-18,1,,,,,ニホンカンセンショウヨホウキョウカイ,0
518,3010405025324,新規,0,2026-02-18,2026-02-18,一般社団法人イノベーターズ・プラットフォーム協会,,その他の設立登記法人,東京都,港区,虎ノ門１丁目１７番１号虎ノ門ヒルズビジネスタワー１５階ＣＩＣＴｏｋｙｏ内,,13,103,1050001,,,,,,,2026-02-18,1,,,,,イノベーターズプラットフォームキョウカイ,0
530,3010801037063,新規,0,2026-02-18,2026-02-18,株式会社ＡＳコミュニケーションズ,,株式会社,東京都,大田区,南久が原２丁目９－４トリアノン南久が原２０６,,13,111,1460084,,,,,,,2026-02-18,1,,,,,アズコミュニケーションズ,0
531,3010903010637,新規,0,2026-02-18,2026-02-18,ＣＡＳＨ　ＮＡＫＡＤＡ合同会社,,合同会社,東京都,世田谷区,北烏山９丁目２１番１０－４１１号,,13,112,1570061,,,,,,,2026-02-18,1,,,,,キャッシュナカダ,0
544,3011301031267,新規,0,2026-02-18,2026-02-18,株式会社ＴＭアソシエイツ,,株式会社,東京都,杉並区,今川３丁目２２番１６号,,13,115,1670035,,,,,,,2026-02-18,1,,,,,ティーエムアソシエイツ,0
547,3011501033113,新規,0,2026-02-18,2026-02-18,株式会社一会,,株式会社,東京都,北区,西が丘１丁目４番１号,,13,117,1150056,,,,,,,2026-02-18,1,,,,,イチエ,0
550,3011601029399,新規,0,2026-02-18,2026-02-18,株式会社フィフス,,株式会社,東京都,練馬区,中村３丁目１５番１２－６０２号,,13,120,1760024,,,,,,,2026-02-18,1,,,,,フィフス,0
559,3011801047457,新規,0,2026-02-18,2026-02-18,株式会社エスグリーン,,株式会社,東京都,葛飾区,新小岩２丁目３４番１０号,,13,122,1240024,,,,,,,2026-02-18,1,,,,,エスグリーン,0
563,3012703003473,新規,0,2026-02-18,2026-02-18,合同会社インフィット,,合同会社,東京都,西東京市,向台町４丁目６－１１ーＡ,,13,229,1880013,,,,,,,2026-02-18,1,,,,,インフィット,0
565,3013301055758,新規,0,2026-02-18,2026-02-18,株式会社Ｌｉｍｏｓｔｙ,,株式会社,東京都,豊島区,池袋２丁目７０番８号佐藤ビル１階,,13,116,1710014,,,,,,,2026-02-18,1,,,,,リモスティ,0
574,3021001087526,新規,0,2026-02-18,2026-02-18,Ｈａｍｏｎｉ株式会社,,株式会社,神奈川県,茅ヶ崎市,東海岸南４丁目１２番１８号,,14,207,2530054,,,,,,,2026-02-18,1,,,,,ハモニ,0
575,3021001087534,新規,0,2026-02-18,2026-02-18,株式会社ノアクリエーションズ,,株式会社,神奈川県,藤沢市,大庭５５５２番地の１４,,14,205,2510861,,,,,,,2026-02-18,1,,,,,ノアクリエーションズ,0
580,3030001171033,新規,0,2026-02-18,2026-02-18,株式会社飯田工業,,株式会社,埼玉県,所沢市,北野新町１丁目６番３３,,11,208,3591155,,,,,,,2026-02-18,1,,,,,イイダコウギョウ,0
584,3040001142487,新規,0,2026-02-18,2026-02-18,株式会社マグナエイム,,株式会社,千葉県,松戸市,上本郷４１２３番地,,12,207,2710064,,,,,,,2026-02-18,1,,,,,マグナエイム,0
585,3040001142529,新規,0,2026-02-18,2026-02-18,株式会社Ｔｉｎｙｇｏ,,株式会社,千葉県,野田市,山崎１６４５番地の２４,,12,208,2780022,,,,,,,2026-02-18,1,,,,,タイニーゴー,0
592,3040003029484,新規,0,2026-02-18,2026-02-18,ＭＦＫ　ＧＬＯＢＡＬ　ＴＲＡＤＩＮＧ合同会社,,合同会社,千葉県,野田市,木間ケ瀬７２９番地１,,12,208,2700222,,,,,,,2026-02-18,1,,,,,エムエフケーグローバルトレーディング,0
593,3040003029492,新規,0,2026-02-18,2026-02-18,合同会社アンフェイズド,,合同会社,千葉県,船橋市,丸山４丁目１０－１馬込沢グリーンハイツ３０５,,12,204,2730048,,,,,,,2026-02-18,1,,,,,アンフェイズド,0
600,3090001019747,新規,0,2026-02-18,2026-02-18,わたしぶね株式会社,,株式会社,山梨県,北杜市,高根町清里３５４５－４０８,,19,209,4070301,,,,,,,2026-02-18,1,,,,,ワタシブネ,0
622,3120001284214,新規,0,2026-02-18,2026-02-18,株式会社ゴー・オン,,株式会社,大阪府,大阪市北区,梅田１丁目１番３号大阪駅前第３ビル１１階２号室,,27,127,5300001,,,,,,,2026-02-18,1,,,,,ゴーオン,0
632,3122001040191,新規,0,2026-02-18,2026-02-18,株式会社葉テック＆イイダ貿易,,株式会社,大阪府,東大阪市,長栄寺１１番２０号,,27,227,5770055,,,,,,,2026-02-18,1,,,,,ヨウテックアンドイイダボウエキ,0
634,3130001081635,新規,0,2026-02-18,2026-02-18,ＡＲＫ株式会社,,株式会社,京都府,京都市伏見区,醍醐中山町２３－２－４０７,,26,109,6011373,,,,,,,2026-02-18,1,,,,,アーク,0
640,3140001141784,新規,0,2026-02-18,2026-02-18,シルヴァ株式会社,,株式会社,兵庫県,神戸市東灘区,住吉山手３丁目１番４３号,,28,101,6580063,,,,,,,2026-02-18,1,,,,,シルヴァ,0
642,3160001027420,新規,0,2026-02-18,2026-02-18,株式会社高橋保険事務所,,株式会社,滋賀県,犬上郡豊郷町,大字吉田１３１９番地２,,25,441,5291165,,,,,,,2026-02-18,1,,,,,タカハシホケンジムショ,0
650,3180001170581,新規,0,2026-02-18,2026-02-18,株式会社ＢＥＩＮＧ　ＧＲＩＴ,,株式会社,愛知県,名古屋市中川区,馬手町１丁目９８番地ヤマトマンション馬手１０２号,,23,110,4540845,,,,,,,2026-02-18,1,,,,,ビーインググリット,0
651,3180001170697,新規,0,2026-02-18,2026-02-18,株式会社２４,,株式会社,愛知県,名古屋市中村区,名駅４丁目２４番５号第２森ビル４０１,,23,105,4500002,,,,,,,2026-02-18,1,,,,,ニジュウヨン,0
652,3180001170714,新規,0,2026-02-18,2026-02-18,株式会社ロジコム,,株式会社,愛知県,東海市,荒尾町上平井７７番地アルコバレーノ（２０２）,,23,222,4760003,,,,,,,2026-02-18,1,,,,,ロジコム,0
655,3180003029801,新規,0,2026-02-18,2026-02-18,合同会社ＵＬＲＩＣ,,合同会社,愛知県,名古屋市中村区,名駅４丁目２４番５号第２森ビル４０１,,23,105,4500002,,,,,,,2026-02-18,1,,,,,ウルリック,0
660,3190003005355,新規,0,2026-02-18,2026-02-18,合同会社てらす,,合同会社,三重県,津市,藤方２８番地ウィステリアコート１０４,,24,201,5140815,,,,,,,2026-02-18,1,,,,,テラス,0
668,3230001021309,新規,0,2026-02-18,2026-02-18,株式会社ＩＫＧリテイリング,,株式会社,富山県,富山市,中老田６６５番地４,,16,201,9300166,,,,,,,2026-02-18,1,,,,,アイケージーリテイリング,0
671,3240003007602,新規,0,2026-02-18,2026-02-18,合同会社ＭＩＲＴＥＣＨ,,合同会社,広島県,東広島市,西条町郷曽１０３４０番地４アルソーレ東広島七番館１０５号,,34,212,7390035,,,,,,,2026-02-18,1,,,,,ミルテック,0
672,3240003007610,新規,0,2026-02-18,2026-02-18,Ｐ‐ＳｐｅｃｔＪＡＰＡＮ合同会社,,合同会社,広島県,広島市東区,矢賀２丁目１番３５号,,34,102,7320042,,,,,,,2026-02-18,1,,,,,ピースペクトジャパン,0
682,3290001113091,新規,0,2026-02-18,2026-02-18,株式会社ダリアプラス,,株式会社,福岡県,福岡市博多区,半道橋１丁目６－２１デュ・レジア博多４０５,,40,132,8120897,,,,,,,2026-02-18,1,,,,,ダリアプラス,0
683,3290001113166,新規,0,2026-02-18,2026-02-18,株式会社Ｌｉｇｈｔ,,株式会社,福岡県,福岡市中央区,大名１丁目８番５号,,40,133,8100041,,,,,,,2026-02-18,1,,,,,ライト,0
684,3290001113182,新規,0,2026-02-18,2026-02-18,Ｃｕｒｅルミナス株式会社,,株式会社,福岡県,福岡市早良区,田村７丁目１４番８８号,,40,137,8140175,,,,,,,2026-02-18,1,,,,,キュアルミナス,0
685,3290001113190,新規,0,2026-02-18,2026-02-18,トップスジャパン株式会社,,株式会社,福岡県,那珂川市,中原５丁目７０番２号,,40,231,8111213,,,,,,,2026-02-18,1,,,,,トップスジャパン,0
689,3290003018082,新規,0,2026-02-18,2026-02-18,合同会社まちｌａｂ,,合同会社,福岡県,福岡市中央区,平尾２丁目２０番１８号,,40,133,8100014,,,,,,,2026-02-18,1,,,,,マチラボ,0
698,3340003005100,新規,0,2026-02-18,2026-02-18,合同会社ＣｕｏｒｅＢｒｉｄｇｅ,,合同会社,鹿児島県,鹿児島市,東谷山３丁目３４－２８リヴェール東谷山４０５,,46,201,8910113,,,,,,,2026-02-18,1,,,,,クオーレブリッジ,0
704,3370001053486,新規,0,2026-02-18,2026-02-18,明正アセット株式会社,,株式会社,宮城県,仙台市若林区,新寺５丁目６番２２号,,04,103,9840051,,,,,,,2026-02-18,1,,,,,メイセイアセット,0
705,3370003007473,新規,0,2026-02-18,2026-02-18,セレスティカ・プラットフォームアンドクラウドソリューションズ・ジャパン合同会社,,合同会社,宮城県,黒川郡大和町,吉岡字雷神２番地,,04,421,9813621,,,,,,,2026-02-18,1,,,,,セレスティカプラットフォームアンドクラウドソリューションズジャパン,0
707,3390001018264,新規,0,2026-02-18,2026-02-18,株式会社ゆきぐに電熱,,株式会社,山形県,米沢市,本町２丁目１番１２号,,06,202,9920037,,,,,,,2026-02-18,1,,,,,ユキグニデンネツ,0
711,3430001096272,新規,0,2026-02-18,2026-02-18,株式会社ＫＴＩＥＳ,,株式会社,北海道,札幌市中央区,宮の森二条３丁目２番２号,,01,101,0640952,,,,,,,2026-02-18,1,,,,,ケータイズ,0
713,3430003018605,新規,0,2026-02-18,2026-02-18,合同会社メネスト・ワン,,合同会社,北海道,札幌市手稲区,金山二条３丁目２番２０号,,01,109,0060042,,,,,,,2026-02-18,1,,,,,メネストワン,0
718,3700150134549,新規,0,2026-02-18,2026-02-18,宗像市須恵土地区画整理組合,,その他,福岡県,宗像市,曲１５９２番地１,,40,220,8113413,,,,,,,2026-02-18,1,,,,,ムナカタシスエトチクカクセイリクミアイ,0
724,4010001262915,新規,0,2026-02-18,2026-02-18,株式会社レベクリトラストパートナーズ,,株式会社,東京都,中央区,新川１丁目２３番５号ＯＮＥＳＨＩＮＫＡＷＡ２０３号室,,13,102,1040033,,,,,,,2026-02-18,1,,,,,レベクリトラストパートナーズ,0
725,4010001262923,新規,0,2026-02-18,2026-02-18,株式会社メトロホールディングス,,株式会社,東京都,中央区,銀座８丁目１８番１１号銀座エスシービル７階,,13,102,1040061,,,,,,,2026-02-18,1,,,,,メトロホールディングス,0
728,4010003050418,新規,0,2026-02-18,2026-02-18,合同会社ＫＩＴＴＡ,,合同会社,東京都,文京区,千石４丁目３３番１６号,,13,105,1120011,,,,,,,2026-02-18,1,,,,,キッタ,0
729,4010003050426,新規,0,2026-02-18,2026-02-18,南熊本蓄電所合同会社,,合同会社,東京都,千代田区,麹町３丁目５番２号ＢＵＲＥＸ麹町７０９,,13,101,1020083,,,,,,,2026-02-18,1,,,,,ミナミクマモトチクデンショ,0
730,4010003050434,新規,0,2026-02-18,2026-02-18,Ｈｅｒｏｎ合同会社,,合同会社,東京都,千代田区,神田紺屋町３２番地４,,13,101,1010035,,,,,,,2026-02-18,1,,,,,ヘロン,0
737,4010401196614,新規,0,2026-02-18,2026-02-18,ミスターエフ株式会社,,株式会社,東京都,港区,浜松町２丁目２番１５号浜松町ダイヤビル２Ｆ,,13,103,1050013,,,,,,,2026-02-18,1,,,,,ミスターエフ,0
739,4010403037353,新規,0,2026-02-18,2026-02-18,合同会社ＴＥＲＡ　ＰＬＵＳ,,合同会社,東京都,港区,南青山２丁目４番１５－２階Ｓ２０６号室,,13,103,1070062,,,,,,,2026-02-18,1,,,,,テラプラス,0
740,4010403037378,新規,0,2026-02-18,2026-02-18,ＴＰＧ　Ｊａｐａｎ　Ｒｅａｌｔｙ　Ｖａｌｕｅ　ＩＩ　ＧＰ合同会社,,合同会社,東京都,港区,六本木１丁目６番１号泉ガーデンタワー,,13,103,1060032,,,,,,,2026-02-18,1,,,,,ティーピージージャパンリアルティバリューツージーピー,0
741,4010405025372,新規,0,2026-02-18,2026-02-18,アセット開発事業特定目的会社,,その他の設立登記法人,東京都,港区,西新橋１丁目２番９号メンターキャピタル税理士法人内,,13,103,1050003,,,,,,,2026-02-18,1,,,,,アセットカイハツジギョウ,0
745,4010601068761,新規,0,2026-02-18,2026-02-18,株式会社八健堂,,株式会社,東京都,江東区,青海２丁目７番４号,,13,108,1350064,,,,,,,2026-02-18,1,,,,,ハッケンドウ,0
750,4010701049050,新規,0,2026-02-18,2026-02-18,株式会社ＳｙｎＣｏｒｅ,,株式会社,東京都,品川区,大井３丁目１８番１７－２０４号,,13,109,1400014,,,,,,,2026-02-18,1,,,,,シンコア,0
753,4010703008120,新規,0,2026-02-18,2026-02-18,エーアイ・クラフトマン・ブラザーフッド合同会社,,合同会社,東京都,品川区,東五反田４丁目１番２７－２－３１４号,,13,109,1410022,,,,,,,2026-02-18,1,,,,,エーアイクラフトマンブラザーフッド,0
755,4010803005728,新規,0,2026-02-18,2026-02-18,合同会社オーク明子,,合同会社,東京都,大田区,田園調布３丁目１５番１４号,,13,111,1450071,,,,,,,2026-02-18,1,,,,,オークアキコ,0
757,4010901058974,新規,0,2026-02-18,2026-02-18,株式会社ＬＩＶＲ,,株式会社,東京都,世田谷区,船橋５丁目３番２号,,13,112,1560055,,,,,,,2026-02-18,1,,,,,リヴァー,0
762,4011001175520,新規,0,2026-02-18,2026-02-18,株式会社Ｋａｇａｒｉ,,株式会社,東京都,渋谷区,道玄坂１丁目１０番８号渋谷道玄坂東急ビル２Ｆ‐Ｃ,,13,113,1500043,,,,,,,2026-02-18,1,,,,,カガリ,0
763,4011003023677,新規,0,2026-02-18,2026-02-18,Ａｉｓｌａ合同会社,,合同会社,東京都,目黒区,中町２丁目３８番９号祐天寺レヂデンス４０２,,13,110,1530065,,,,,,,2026-02-18,1,,,,,アイラ,0
768,4011101114790,新規,0,2026-02-18,2026-02-18,無類の謙虚タイガー株式会社,,株式会社,東京都,新宿区,新宿３丁目２７番５号,,13,104,1600022,,,,,,,2026-02-18,1,,,,,ムルイノケンキョタイガー,0
771,4011105011729,新規,0,2026-02-18,2026-02-18,一般社団法人神谷町キャピタル・フォー,,その他の設立登記法人,東京都,新宿区,富久町８番２６号東京ユナイテッド綜合事務所内,,13,104,1620067,,,,,,,2026-02-18,1,,,,,カミヤチョウキャピタルフォー,0
781,4011603005018,新規,0,2026-02-18,2026-02-18,合同会社ＥＧＹ,,合同会社,東京都,練馬区,旭町１丁目３０番地４号,,13,120,1790071,,,,,,,2026-02-18,1,,,,,イージーワイ,0
784,4011803007334,新規,0,2026-02-18,2026-02-18,合同会社ルミナス,,合同会社,東京都,足立区,伊興４丁目３番５号,,13,121,1210823,,,,,,,2026-02-18,1,,,,,ルミナス,0
791,4013301055765,新規,0,2026-02-18,2026-02-18,株式会社立山システム,,株式会社,東京都,豊島区,東池袋２丁目６２番８号ＢＩＧオフィスプラザ池袋１２０６,,13,116,1700013,,,,,,,2026-02-18,1,,,,,タテヤマシステム,0
797,4020001167213,新規,0,2026-02-18,2026-02-18,株式会社Ｗｒａｉｔｈ,,株式会社,神奈川県,川崎市川崎区,砂子２丁目５番地２５炙りビル５階,,14,131,2100006,,,,,,,2026-02-18,1,,,,,レイス,0
803,4020005017133,新規,0,2026-02-18,2026-02-18,団地管理組合法人洋光台南第一住宅管理組合,,その他の設立登記法人,神奈川県,横浜市磯子区,洋光台５丁目４番４０号,,14,107,2350045,,,,,,,2026-02-18,1,,,,,ヨウコウダイミナミダイイチジュウタクカンリクミアイ,0
808,4021001087558,新規,0,2026-02-18,2026-02-18,Ｊａｐａｎ　Ｖｉｅｔｎａｍ　Ｂｒｉｄｇｅ株式会社,,株式会社,神奈川県,相模原市緑区,大山町９番１６号,,14,151,2520146,,,,,,,2026-02-18,1,,,,,ジャパンベトナムブリッジ,0
811,4030001171049,新規,0,2026-02-18,2026-02-18,株式会社興栄電設,,株式会社,埼玉県,川越市,大字天沼新田１６４番地４８,,11,201,3500806,,,,,,,2026-02-18,1,,,,,コウエイデンセツ,0
812,4030001171098,新規,0,2026-02-18,2026-02-18,株式会社ＳＡＮＴＩＳ,,株式会社,埼玉県,八潮市,緑町１丁目２３―１３,,11,234,3400808,,,,,,,2026-02-18,1,,,,,サンティス,0
814,4030003028668,新規,0,2026-02-18,2026-02-18,合同会社ＲＩＺＥ,,合同会社,埼玉県,さいたま市南区,別所２丁目５番１０－５０４号,,11,108,3360021,,,,,,,2026-02-18,1,,,,,ライズ,0
825,4040001142544,新規,0,2026-02-18,2026-02-18,株式会社ＴＨＥ　ＣＡＥＬＵＳ,,株式会社,千葉県,成田市,堀之内３８７－４,,12,211,2860107,,,,,,,2026-02-18,1,,,,,カエルス,0
830,4040003029467,新規,0,2026-02-18,2026-02-18,合同会社ＫＥＹＥＮＣＥ,,合同会社,千葉県,君津市,辻森４２６番地６,,12,225,2921172,,,,,,,2026-02-18,1,,,,,キーエンス,0
835,4050001057989,新規,0,2026-02-18,2026-02-18,広栄運輸株式会社,,株式会社,茨城県,笠間市,大田町１０２４番地４,,08,216,3091738,,,,,,,2026-02-18,1,,,,,コウエイウンユ,0
837,4050003009955,新規,0,2026-02-18,2026-02-18,合同会社トイテラス,,合同会社,茨城県,水戸市,堀町１１８０番地の４水戸市堀町アパート２０６号,,08,201,3100903,,,,,,,2026-02-18,1,,,,,トイテラス,0
841,4080001027428,新規,0,2026-02-18,2026-02-18,株式会社Ｓ‐Ｐｏｒｔ,,株式会社,静岡県,静岡市駿河区,高松２３２２番地の７,,22,102,4228034,,,,,,,2026-02-18,1,,,,,エスポート,0
844,4080401028447,新規,0,2026-02-18,2026-02-18,忍愛総業株式会社,,株式会社,静岡県,磐田市,福田中島３５７２番地,,22,211,4371204,,,,,,,2026-02-18,1,,,,,ジンアイソウギョウ,0
845,4080403005444,新規,0,2026-02-18,2026-02-18,合同会社ＳＵＩ,,合同会社,静岡県,浜松市中央区,船越町４７－８,,22,138,4300913,,,,,,,2026-02-18,1,,,,,スイ,0
847,4100005013446,新規,0,2026-02-18,2026-02-18,一般社団法人山小屋,,その他の設立登記法人,長野県,上伊那郡宮田村,２５５５番地３８,,20,388,3994301,,,,,,,2026-02-18,1,,,,,ヤマゴヤ,0
849,4110003006070,新規,0,2026-02-18,2026-02-18,Ｓｃｈｏｎｅ合同会社,,合同会社,新潟県,妙高市,大字関川２２４３番地１,,15,217,9492112,,,,,,,2026-02-18,1,,,,,シェーネ,0
862,4120001284238,新規,0,2026-02-18,2026-02-18,株式会社ユーカリ,,株式会社,大阪府,大阪市都島区,友渕町１丁目３番１０５－７０４号,,27,102,5340016,,,,,,,2026-02-18,1,,,,,ユーカリ,0
863,4120001284246,新規,0,2026-02-18,2026-02-18,株式会社ＮＥＮＫＡ　ＪＡＰＡＮ,,株式会社,大阪府,大阪市港区,港晴３丁目１番１１号４０５号室,,27,107,5520023,,,,,,,2026-02-18,1,,,,,ネンカジャパン,0
864,4120001284254,新規,0,2026-02-18,2026-02-18,株式会社Ｎ＆Ｉ　ｃｈａｉｒ,,株式会社,大阪府,大阪市平野区,加美東１丁目６番４号,,27,126,5470002,,,,,,,2026-02-18,1,,,,,エヌアンドアイチェア,0
880,4122001040182,新規,0,2026-02-18,2026-02-18,株式会社ｓｅａ‐ｇａｔｅ,,株式会社,大阪府,八尾市,西弓削２丁目１１１番地,,27,212,5810035,,,,,,,2026-02-18,1,,,,,シーゲート,0
884,4130001081626,新規,0,2026-02-18,2026-02-18,株式会社ノースレイル,,株式会社,京都府,京都市伏見区,桃山羽柴長吉西町１７番地２,,26,109,6120067,,,,,,,2026-02-18,1,,,,,ノースレイル,0
885,4130001081659,新規,0,2026-02-18,2026-02-18,Ｏｋａｅｒｉ株式会社,,株式会社,京都府,京都市左京区,浄土寺下南田町１７３番地１,,26,103,6068404,,,,,,,2026-02-18,1,,,,,オカエリ,0
891,4140005027806,新規,0,2026-02-18,2026-02-18,特定非営利活動法人神戸サイクルサッカークラブ,,その他の設立登記法人,兵庫県,神戸市中央区,琴ノ緒町４丁目６番９号，３号,,28,110,6510094,,,,,,,2026-02-18,1,,,,,コウベサイクルサッカークラブ,0
896,4180001170705,新規,0,2026-02-18,2026-02-18,株式会社Ｓｍｉｌｅ　Ｌｉｎｋｅｒ,,株式会社,愛知県,名古屋市名東区,高針荒田７１７番地,,23,115,4650069,,,,,,,2026-02-18,1,,,,,スマイルリンカー,0
897,4180001170713,新規,0,2026-02-18,2026-02-18,株式会社エイチ・ステップ,,株式会社,愛知県,春日井市,堀ノ内町３丁目７番地１６,,23,206,4860829,,,,,,,2026-02-18,1,,,,,エイチステップ,0
898,4180001170721,新規,0,2026-02-18,2026-02-18,バリュー優品株式会社,,株式会社,愛知県,名古屋市名東区,高針１丁目７０５番地７ｔｈＡｖｅ１０１号,,23,115,4650061,,,,,,,2026-02-18,1,,,,,バリューユウヒン,0
914,4240001066178,新規,0,2026-02-18,2026-02-18,株式会社米田屋,,株式会社,広島県,安芸高田市,八千代町勝田５３９番地,,34,214,7310302,,,,,,,2026-02-18,1,,,,,ヨネダヤ,0
916,4250003003905,新規,0,2026-02-18,2026-02-18,合同会社Ｆ‐ＫＮＯＴ,,合同会社,山口県,下松市,新川３丁目１番１６号,,35,207,7440008,,,,,,,2026-02-18,1,,,,,エフノット,0
932,4290001113108,新規,0,2026-02-18,2026-02-18,Ｆ＆Ｎ株式会社,,株式会社,福岡県,古賀市,花見東７丁目６番１０号,,40,223,8113112,,,,,,,2026-02-18,1,,,,,エフアンドエヌ,0
933,4290001113140,新規,0,2026-02-18,2026-02-18,株式会社ＡＤＥＬＹＮ　ＢＵＳＩＮＥＳＳ,,株式会社,福岡県,福岡市中央区,今泉１丁目１７番１４号,,40,133,8100021,,,,,,,2026-02-18,1,,,,,アデリンビジネス,0
934,4290001113173,新規,0,2026-02-18,2026-02-18,株式会社未来,,株式会社,福岡県,福岡市東区,香椎照葉２丁目１番２－９０１号照葉テラスパークカーサ０２,,40,131,8130017,,,,,,,2026-02-18,1,,,,,,0
939,4290003018081,新規,0,2026-02-18,2026-02-18,合同会社サード,,合同会社,福岡県,福岡市中央区,天神２丁目２番１２号Ｔ＆Ｊビルディング７Ｆ,,40,133,8100001,,,,,,,2026-02-18,1,,,,,サード,0
940,4320001021579,新規,0,2026-02-18,2026-02-18,株式会社ブルーシフト,,株式会社,大分県,別府市,弓ケ浜町５－２０,,44,202,8740927,,,,,,,2026-02-18,1,,,,,ブルーシフト,0
945,4330001034002,新規,0,2026-02-18,2026-02-18,ルキス株式会社,,株式会社,熊本県,熊本市西区,池田４丁目１７番１２号アメニティ崇城大Ｅ棟３０３号室,,43,103,8600082,,,,,,,2026-02-18,1,,,,,ルキス,0
947,4330003011437,新規,0,2026-02-18,2026-02-18,ＦＭＳ合同会社,,合同会社,熊本県,宇土市,松原町２４番地アリエッタ宇土８０３,,43,211,8690407,,,,,,,2026-02-18,1,,,,,エフエムエス,0
949,4350001019942,新規,0,2026-02-18,2026-02-18,元気グローバル株式会社,,株式会社,宮崎県,都城市,下川東４丁目３２１０番地,,45,202,8850011,,,,,,,2026-02-18,1,,,,,ゲンキグローバル,0
959,4380005013071,新規,0,2026-02-18,2026-02-18,一般社団法人ＳＡＮＷＡインベスト,,その他の設立登記法人,福島県,福島市,笹谷字清水１８番地の７,,07,201,9600241,,,,,,,2026-02-18,1,,,,,サンワインベスト,0
964,4430001096288,新規,0,2026-02-18,2026-02-18,株式会社ＴＭ,,株式会社,北海道,札幌市手稲区,富丘六条２丁目１番３０号,,01,109,0060016,,,,,,,2026-02-18,1,,,,,ティーエム,0
968,4460001006070,新規,0,2026-02-18,2026-02-18,株式会社リンク,,株式会社,北海道,釧路市,光陽町２３番２２号,,01,206,0850051,,,,,,,2026-02-18,1,,,,,リンク,0
970,4470005006677,新規,0,2026-02-18,2026-02-18,医療法人社団暁会,,その他の設立登記法人,香川県,善通寺市,金蔵寺町７４４番地３,,37,204,7650031,,,,,,,2026-02-18,1,,,,,アカツキカイ,0
977,4700150134548,新規,0,2026-02-18,2026-02-18,ＧＲＹＰＨ　ＦＲＯＮＴＩＥＲ　ＰＴＥ．ＬＴＤ．,,外国会社等,,,,,,,,９　ＳＴＲＡＩＴＳ　ＶＩＥＷ　♯０６－０７　ＭＡＲＩＮＡ　ＯＮＥ　ＷＥＳＴ　ＴＯＷＥＲ　ＳＩＮＧＡＰＯＲＥ（０１８９３７）,,,,,,2026-02-18,1,,,,,グリフフロンテイアピーテイーイーエルテイーデイー,0
991,5010001262815,新規,0,2026-02-18,2026-02-18,株式会社Ｐｈｏｔｏｌｉ,,株式会社,東京都,中央区,銀座１丁目２２番１１号銀座大竹ビジデンス２Ｆ,,13,102,1040061,,,,,,,2026-02-18,1,,,,,フォトリ,0
992,5010001262914,新規,0,2026-02-18,2026-02-18,ＯＲＢＩＴ　ＬＡＢ株式会社,,株式会社,東京都,中央区,銀座１丁目１２番４号Ｎ＆Ｅ　ＢＬＤ．６Ｆ,,13,102,1040061,,,,,,,2026-02-18,1,,,,,オービットラボ,0
993,5010001262947,新規,0,2026-02-18,2026-02-18,株式会社ウィン,,株式会社,東京都,中央区,日本橋浜町２丁目３５番７号,,13,102,1030007,,,,,,,2026-02-18,1,,,,,ウィン,0
1001,5010003050417,新規,0,2026-02-18,2026-02-18,ＣＪ合同会社,,合同会社,東京都,中央区,築地６丁目２番１２－１００２号,,13,102,1040045,,,,,,,2026-02-18,1,,,,,シージェー,0
1002,5010003050458,新規,0,2026-02-18,2026-02-18,合同会社Ｐｕｒｐｌｙ,,合同会社,東京都,中央区,銀座１丁目１２－４Ｎ＆ＥＢＬＤ．７階,,13,102,1040061,,,,,,,2026-02-18,1,,,,,パープリー,0
1014,5010401196588,新規,0,2026-02-18,2026-02-18,ｏｌｌ株式会社,,株式会社,東京都,港区,麻布台１丁目２番１号,,13,103,1060041,,,,,,,2026-02-18,1,,,,,オル,0
1015,5010401196662,新規,0,2026-02-18,2026-02-18,株式会社ＧＢ　ＣＬＵＢ,,株式会社,東京都,港区,新橋２丁目１６番１号３階３０５Ｂ,,13,103,1050004,,,,,,,2026-02-18,1,,,,,ジービークラブ,0
1017,5010403037393,新規,0,2026-02-18,2026-02-18,ＴＫアドバイザリー合同会社,,合同会社,東京都,港区,芝浦４丁目１９番１‐１３０７号,,13,103,1080023,,,,,,,2026-02-18,1,,,,,ティーケーアドバイザリー,0
1019,5010405025306,新規,0,2026-02-18,2026-02-18,一般社団法人ＤＭＯ　Ｒｏｐｐｏｎｇｉ　Ｔｏｋｙｏ　Ｊａｐａｎ,,その他の設立登記法人,東京都,港区,六本木６丁目１０番１号六本木ヒルズ森タワー森ビル内,,13,103,1060032,,,,,,,2026-02-18,1,,,,,ディーエムオーロッポンギトウキョウジャパン,0
1023,5010501055462,新規,0,2026-02-18,2026-02-18,株式会社ＳＵＭＳＵＭ,,株式会社,東京都,台東区,上野３丁目１６番２号,,13,106,1100005,,,,,,,2026-02-18,1,,,,,スムスム,0
1027,5010601068728,新規,0,2026-02-18,2026-02-18,株式会社ルミエール,,株式会社,東京都,江東区,亀戸９丁目１８－１３,,13,108,1360071,,,,,,,2026-02-18,1,,,,,ルミエール,0
1028,5010701049058,新規,0,2026-02-18,2026-02-18,株式会社星捷,,株式会社,東京都,品川区,東品川４丁目１１番３６－２９２１号,,13,109,1400002,,,,,,,2026-02-18,1,,,,,セイショウ,0
1030,5010703008136,新規,0,2026-02-18,2026-02-18,合同会社ｌｉｇｈｔｃｏｎｎｅｃｔ,,合同会社,東京都,品川区,西五反田６丁目１５－１０寿ビレッジ１０６,,13,109,1410031,,,,,,,2026-02-18,1,,,,,ライトコネクト,0
1032,5010803005727,新規,0,2026-02-18,2026-02-18,合同会社オーク陽子,,合同会社,東京都,大田区,田園調布４丁目６番５号,,13,111,1450071,,,,,,,2026-02-18,1,,,,,オークヨウコ,0
1037,5011003023511,新規,0,2026-02-18,2026-02-18,合同会社ＵＤＰ,,合同会社,東京都,渋谷区,神南１丁目１１番４号ＦＰＧリンクス神南５階,,13,113,1500041,,,,,,,2026-02-18,1,,,,,ユーディーピー,0
1041,5011103017017,新規,0,2026-02-18,2026-02-18,合同会社ＨＯＴＥＬ卑弥呼,,合同会社,東京都,新宿区,百人町２丁目７－４,,13,104,1690073,,,,,,,2026-02-18,1,,,,,ホテルヒミコ,0
1042,5011103017099,新規,0,2026-02-18,2026-02-18,合同会社リパラダイム,,合同会社,東京都,新宿区,西新宿３丁目３番１３号西新宿水間ビル２Ｆ,,13,104,1600023,,,,,,,2026-02-18,1,,,,,リパラダイム,0
1043,5011105011728,新規,0,2026-02-18,2026-02-18,一般社団法人麗扇会日本文化学院,,その他の設立登記法人,東京都,新宿区,市谷左内町３３番地,,13,104,1620846,,,,,,,2026-02-18,1,,,,,レイセンカイニホンブンカガクイン,0
1055,5012403007624,新規,0,2026-02-18,2026-02-18,ユンダオラボ合同会社,,合同会社,東京都,武蔵野市,御殿山２丁目１０－３３,,13,203,1800005,,,,,,,2026-02-18,1,,,,,ユンダオラボ,0
1058,5012801024543,新規,0,2026-02-18,2026-02-18,株式会社ＷＥＬＬＳＨＡＲＥ,,株式会社,東京都,立川市,富士見町４丁目７－２８伸幸ビル２０２号,,13,202,1900013,,,,,,,2026-02-18,1,,,,,ウェルシェア,0
1060,5012803004007,新規,0,2026-02-18,2026-02-18,合同会社Ｗ＆ＨＳ,,合同会社,東京都,日野市,新町５丁目２９番地の９,,13,212,1910002,,,,,,,2026-02-18,1,,,,,ダブリューアンドエイチエス,0
1070,5020001167121,新規,0,2026-02-18,2026-02-18,Ｕ‐Ｔｉｌｉａ株式会社,,株式会社,神奈川県,横浜市栄区,本郷台４丁目１番９号,,14,115,2470008,,,,,,,2026-02-18,1,,,,,ユーティリア,0
1071,5020001167212,新規,0,2026-02-18,2026-02-18,佐藤商事株式会社,,株式会社,神奈川県,横浜市磯子区,杉田５丁目２番６４－７１４号,,14,107,2350033,,,,,,,2026-02-18,1,,,,,サトウショウジ,0
1075,5020003030368,新規,0,2026-02-18,2026-02-18,合同会社Ｒｉｖｅｒａ,,合同会社,神奈川県,横浜市西区,北幸２丁目１０番４８号むつみビル３階,,14,103,2200004,,,,,,,2026-02-18,1,,,,,リベラ,0
1076,5020003030418,新規,0,2026-02-18,2026-02-18,合同会社悠商,,合同会社,神奈川県,横浜市南区,六ツ川３丁目８５番地６横浜パークタウンＦ棟２１４号室,,14,105,2320066,,,,,,,2026-02-18,1,,,,,ユウショウ,0
1077,5020003030434,新規,0,2026-02-18,2026-02-18,アプトメディカルハーモニー合同会社,,合同会社,神奈川県,川崎市中原区,小杉町２丁目２７６番地１Ｅ３６１３,,14,133,2110063,,,,,,,2026-02-18,1,,,,,アプトメディカルハーモニー,0
1078,5020005017140,新規,0,2026-02-18,2026-02-18,一般社団法人Ｆｊ,,その他の設立登記法人,神奈川県,横浜市都筑区,池辺町２３６０番地４０６,,14,118,2240053,,,,,,,2026-02-18,1,,,,,エフジェイ,0
1085,5030001171089,新規,0,2026-02-18,2026-02-18,株式会社ハルサクライズ,,株式会社,埼玉県,さいたま市浦和区,針ヶ谷１丁目７－１１,,11,107,3300075,,,,,,,2026-02-18,1,,,,,ハルサクライズ,0
1090,5030003028667,新規,0,2026-02-18,2026-02-18,合同会社Ａｌｂｅｒｔ,,合同会社,埼玉県,さいたま市見沼区,東大宮４丁目８番地８サンクレイドル東大宮駅前１１０３号,,11,104,3370051,,,,,,,2026-02-18,1,,,,,アルベルト,0
1091,5030003028683,新規,0,2026-02-18,2026-02-18,ＤＯＳ運送合同会社,,合同会社,埼玉県,川越市,大字笠幡２７４６－１４９,,11,201,3501175,,,,,,,2026-02-18,1,,,,,ディーオーエスウンソウ,0
1093,5040001142535,新規,0,2026-02-18,2026-02-18,エンゲージ１株式会社,,株式会社,千葉県,千葉市美浜区,中瀬１丁目１０番地２,,12,106,2610023,,,,,,,2026-02-18,1,,,,,エンゲージワン,0
1094,5040003029490,新規,0,2026-02-18,2026-02-18,合同会社ＯＡＤ　Ｍａｎａｇｅｍｅｎｔ,,合同会社,千葉県,印西市,戸神台１丁目１番地Ｆ棟２１０４号,,12,231,2701349,,,,,,,2026-02-18,1,,,,,オーエーディーマネジメント,0
1098,5050005013764,新規,0,2026-02-18,2026-02-18,一般社団法人ＪＯＳＯ　ＤＡＲＵＳＳＬＡＭ　ＩＳＬＡＭＩＣ　ＣＥＮＴＥＲ,,その他の設立登記法人,茨城県,常総市,豊岡町乙１０７番地１,,08,211,3030041,,,,,,,2026-02-18,1,,,,,ジョウソウダルサルムイスラミックセンター,0
1103,5080003003649,新規,0,2026-02-18,2026-02-18,合同会社Ｔｈｒｅｅ　Ｔｒｉｎｋｅｔｓ,,合同会社,静岡県,静岡市葵区,川合２丁目１３番２１号,,22,101,4200923,,,,,,,2026-02-18,1,,,,,スリートリンケッツ,0
1108,5110001039889,新規,0,2026-02-18,2026-02-18,株式会社ｔｈｒｅｅ　Ｓ,,株式会社,新潟県,上越市,大貫２丁目４番２０号,,15,222,9430893,,,,,,,2026-02-18,1,,,,,スリーエス,0
1109,5110001039906,新規,0,2026-02-18,2026-02-18,株式会社マッシュマッシュ,,株式会社,新潟県,新潟市西区,五十嵐２の町７８５３番地７ルーモスＡ１０６,,15,107,9502102,,,,,,,2026-02-18,1,,,,,マッシュマッシュ,0
1126,5120001284212,新規,0,2026-02-18,2026-02-18,皇寿保証株式会社,,株式会社,大阪府,大阪市中央区,久太郎町１丁目９番１７号フクダ不動産堺筋本町ビル４Ｆ,,27,128,5410056,,,,,,,2026-02-18,1,,,,,コウジュホショウ,0
1127,5120001284229,新規,0,2026-02-18,2026-02-18,株式会社リタラス,,株式会社,大阪府,大阪市北区,梅田３丁目４番５号毎日新聞ビル２階,,27,127,5300001,,,,,,,2026-02-18,1,,,,,リタラス,0
1128,5120001284245,新規,0,2026-02-18,2026-02-18,Ｌ＆Ｈ株式会社,,株式会社,大阪府,大阪市港区,三先１丁目１２番９号２０５号室,,27,107,5520016,,,,,,,2026-02-18,1,,,,,エルアンドエイチ,0
1129,5120001284294,新規,0,2026-02-18,2026-02-18,株式会社バリュアス,,株式会社,大阪府,大阪市北区,梅田１丁目２番２号大阪駅前第２ビル１２－１２,,27,127,5300001,,,,,,,2026-02-18,1,,,,,バリュアス,0
1131,5120101073242,新規,0,2026-02-18,2026-02-18,ＬＡＮＤ　ＳＰＡＣＥ　ＤＥＳＩＧＮ株式会社,,株式会社,大阪府,岸和田市,磯上町３丁目２２番８号,,27,202,5960001,,,,,,,2026-02-18,1,,,,,ランドスペースデザイン,0
1139,5130001081641,新規,0,2026-02-18,2026-02-18,ＴＫＧ株式会社,,株式会社,京都府,京都市南区,上鳥羽南戒光町７５番地,,26,107,6018178,,,,,,,2026-02-18,1,,,,,ティケージー,0
1143,5130005017591,新規,0,2026-02-18,2026-02-18,医療法人健桜会,,その他の設立登記法人,京都府,京都市山科区,西野山中臣町４１番地１,,26,110,6078305,,,,,,,2026-02-18,1,,,,,ケンオウカイ,0
1145,5140001141790,新規,0,2026-02-18,2026-02-18,株式会社たみこ,,株式会社,兵庫県,たつの市,新宮町井野原６５－２,,28,229,6794315,,,,,,,2026-02-18,1,,,,,タミコ,0
1149,5150001028731,新規,0,2026-02-18,2026-02-18,株式会社マツダ,,株式会社,奈良県,大和高田市,大字松塚１番地４,,29,202,6350001,,,,,,,2026-02-18,1,,,,,マツダ,0
1150,5160001027427,新規,0,2026-02-18,2026-02-18,株式会社ＬＡＭＡＮＳＯＬ,,株式会社,滋賀県,大津市,穴太３丁目１４番２８号,,25,201,5200114,,,,,,,2026-02-18,1,,,,,ラマンソル,0
1157,5180001170679,新規,0,2026-02-18,2026-02-18,ハス株式会社,,株式会社,愛知県,名古屋市西区,笠取町４番地６９,,23,104,4510000,,,,,,,2026-02-18,1,,,,,ハス,0
1158,5180001170687,新規,0,2026-02-18,2026-02-18,株式会社ＮＧＳ,,株式会社,愛知県,名古屋市中村区,名駅３丁目４番１０号,,23,105,4500002,,,,,,,2026-02-18,1,,,,,エヌジーエス,0
1159,5180003029790,新規,0,2026-02-18,2026-02-18,合同会社アーク,,合同会社,愛知県,江南市,田代町南出２７１番地,,23,217,4838132,,,,,,,2026-02-18,1,,,,,アーク,0
1164,5200001044723,新規,0,2026-02-18,2026-02-18,株式会社ランラブ,,株式会社,岐阜県,土岐市,泉町河合８１９番地の２,,21,212,5095101,,,,,,,2026-02-18,1,,,,,ランラブ,0
1173,5250001021544,新規,0,2026-02-18,2026-02-18,原一樹建築設計事務所株式会社,,株式会社,山口県,岩国市,桂町１丁目３番３０号,,35,208,7400013,,,,,,,2026-02-18,1,,,,,ハラカズキケンチクセッケイジムショ,0
1177,5280001009586,新規,0,2026-02-18,2026-02-18,株式会社プロテクト,,株式会社,島根県,出雲市,斐川町三絡５０９番地,,32,203,6990504,,,,,,,2026-02-18,1,,,,,プロテクト,0
1189,5290001113172,新規,0,2026-02-18,2026-02-18,株式会社ＴＳＵＮＡＧＵ,,株式会社,福岡県,福岡市博多区,井相田２丁目１１番１９－１１０７号アンピール板付南ＩＩ,00142614,40,132,8120881,,,,,,,2026-02-18,1,,,,,,0
1202,5360001036382,新規,0,2026-02-18,2026-02-18,Ｃｈｏｕｅｔｔｅ株式会社,,株式会社,沖縄県,那覇市,与儀２丁目４－３３,,47,201,9020076,,,,,,,2026-02-18,1,,,,,シュエット,0
1203,5360003015624,新規,0,2026-02-18,2026-02-18,合同会社美ら島ＡＳＳＥＴ,,合同会社,沖縄県,国頭郡今帰仁村,字仲宗根６３６番地１４,,47,306,9050401,,,,,,,2026-02-18,1,,,,,チュラシマアセット,0
1208,5390005009159,新規,0,2026-02-18,2026-02-18,特定非営利活動法人しろこの家,,その他の設立登記法人,山形県,東置賜郡川西町,大字尾長島８７６番地,,06,382,9990213,,,,,,,2026-02-18,1,,,,,シロコノイエ,0
1209,5400005008547,新規,0,2026-02-18,2026-02-18,医療法人金矢,,その他の設立登記法人,岩手県,盛岡市,津志田中央３丁目７番７号,,03,201,0200838,,,,,,,2026-02-18,1,,,,,カナヤ,0
1213,5430001096270,新規,0,2026-02-18,2026-02-18,株式会社ＩＢＩ　ＦＡＲＭ　ＣＡＲＥ,,株式会社,北海道,恵庭市,桜町１丁目１１番６号,,01,231,0611416,,,,,,,2026-02-18,1,,,,,イビファームケア,0
1224,5700150134142,新規,0,2026-02-18,2026-02-18,Ｖｕｌｃａｉｎ　Ｓｅｒｖｉｃｅｓ　Ｓ．Ａ．Ｓ．,,外国会社等,,,,,,,,９２　ＡＶＥＮＵＥ　Ｃｈａｒｌｅｓ　ｄｅ　Ｇａｕｌｌｅ　９２２００　ＮＥＵＩＬＬＹ　ＳＵＲ　ＳＥＩＮＥ　ＦＲＡＮＣＥ,,,,,,2026-02-18,1,,,,,ヴアルカンサービシズエスエーエス,0
1225,5700150134547,新規,0,2026-02-18,2026-02-18,金華興工業股分有限公司,,外国会社等,,,,,,,,台南市仁徳区永徳路３７号,,,,,,2026-02-18,1,,,,,キンカシンコウギヨウコフンユウゲンコウシ,0
1238,6010001262913,新規,0,2026-02-18,2026-02-18,ＮＫ‐トラスト株式会社,,株式会社,東京都,千代田区,平河町１丁目３番６号ＢＩＺＭＡＲＫＳ麹町６階,,13,101,1020093,,,,,,,2026-02-18,1,,,,,エヌケートラスト,0
1239,6010001262921,新規,0,2026-02-18,2026-02-18,Ｐａｃｉｆｉｃ　Ｐｒｉｍｅ　Ｊａｐａｎ株式会社,,株式会社,東京都,中央区,日本橋室町４丁目３番９号,,13,102,1030022,,,,,,,2026-02-18,1,,,,,パシフィックプライムジャパン,0
1240,6010001262946,新規,0,2026-02-18,2026-02-18,株式会社ＮＡＧＩ,,株式会社,東京都,中央区,銀座１丁目１２番４号,,13,102,1040061,,,,,,,2026-02-18,1,,,,,ナギ,0
1241,6010001262954,新規,0,2026-02-18,2026-02-18,Ｋａｅｒｉ　Ｍａｎａｇｅｍｅｎｔ株式会社,,株式会社,東京都,千代田区,霞が関３丁目２番５号,,13,101,1000013,,,,,,,2026-02-18,1,,,,,カエリマネジメント,0
1245,6010003050309,新規,0,2026-02-18,2026-02-18,ＣＯＦ１合同会社,,合同会社,東京都,千代田区,霞が関３丁目２番５号,,13,101,1000013,,,,,,,2026-02-18,1,,,,,シーオーエフワン,0
1246,6010003050416,新規,0,2026-02-18,2026-02-18,合同会社ブラックリバー・ラボラトリ,,合同会社,東京都,中央区,日本橋室町１丁目１１番１２号,,13,102,1030022,,,,,,,2026-02-18,1,,,,,ブラックリバーラボラトリ,0
1254,6010101017093,新規,0,2026-02-18,2026-02-18,株式会社皆志重量,,株式会社,東京都,八王子市,東中野１０３１－６２東山１８－６,,13,201,1920351,,,,,,,2026-02-18,1,,,,,カイシジュウリョウ,0
1263,6010401196133,新規,0,2026-02-18,2026-02-18,株式会社Ｍｕｓｉｃａ　Ａｌｔａ,,株式会社,東京都,港区,南青山３丁目１番３６号青山丸竹ビル６Ｆ,,13,103,1070062,,,,,,,2026-02-18,1,,,,,ムジカアルタ,0
1264,6010401196612,新規,0,2026-02-18,2026-02-18,月見酒ホールディングス株式会社,,株式会社,東京都,港区,港南３丁目６－２１コスモポリス品川３２０７号室,,13,103,1080075,,,,,,,2026-02-18,1,,,,,ツキミザケホールディングス,0
1265,6010401196736,新規,0,2026-02-18,2026-02-18,株式会社Ｂｙｌｅｎｏ,,株式会社,東京都,港区,南青山３丁目１番３６号青山丸竹ビル６Ｆ,,13,103,1070062,,,,,,,2026-02-18,1,,,,,ビレノ,0
1266,6010403037351,新規,0,2026-02-18,2026-02-18,合同会社ＣｏｓｍｉｃＳｕｃｃｅｓｓ,,合同会社,東京都,港区,西麻布１丁目２番１３号デュオ・スカーラ西麻布タワーＣＥＮＴＲＡＬ２０１号室,,13,103,1060031,,,,,,,2026-02-18,1,,,,,コズミックサクセス,0
1268,6010405025296,新規,0,2026-02-18,2026-02-18,一般社団法人公的制度教育推進協会,,その他の設立登記法人,東京都,港区,六本木７丁目２１番２４号ＴＨＥＭＯＤＵＬＥｒｏｐｐｏｎｇｉ６０２,,13,103,1060032,,,,,,,2026-02-18,1,,,,,コウテキセイドキョウイクスイシンキョウカイ,0
1271,6010501055478,新規,0,2026-02-18,2026-02-18,レイヤードグラフジャパン株式会社,,株式会社,東京都,台東区,東上野２丁目１３番２号上野スカイビルＡ１０１５,,13,106,1100015,,,,,,,2026-02-18,1,,,,,レイヤードグラフジャパン,0
1279,6010701049040,新規,0,2026-02-18,2026-02-18,ＮＥＸＴ　ＳＰＯＲＴＳ　ＪＡＰＡＮ株式会社,,株式会社,東京都,品川区,西大井１丁目１番２号Ｊタワーイーストタワー２０７,,13,109,1400015,,,,,,,2026-02-18,1,,,,,ネクストスポーツジャパン,0
1282,6010705003852,新規,0,2026-02-18,2026-02-18,一般社団法人熱中症医科学機構,,その他の設立登記法人,東京都,品川区,西五反田３丁目７番６号レジディアタワー目黒不動前２９１０,,13,109,1410031,,,,,,,2026-02-18,1,,,,,ネッチュウショウイカガクキコウ,0
1288,6010901058964,新規,0,2026-02-18,2026-02-18,株式会社Ｓａｒｄ‐ｏｎｙｘ,,株式会社,東京都,世田谷区,太子堂４丁目１８番１５号,,13,112,1540004,,,,,,,2026-02-18,1,,,,,サードニックス,0
1289,6010901058980,新規,0,2026-02-18,2026-02-18,株式会社ＣＯＲＥ　ＳＴＩＬＬ,,株式会社,東京都,世田谷区,世田谷３丁目１１番２７－３０８号,,13,112,1540017,,,,,,,2026-02-18,1,,,,,コアスティル,0
1290,6010901059005,新規,0,2026-02-18,2026-02-18,株式会社ＰＩＥＡＣＥ,,株式会社,東京都,世田谷区,深沢５丁目１番１３号リバティー深沢１０１－１,,13,112,1580081,,,,,,,2026-02-18,1,,,,,ピース,0
1291,6010901059013,新規,0,2026-02-18,2026-02-18,株式会社ＬＡＳＢＡＬ,,株式会社,東京都,世田谷区,祖師谷１丁目９番１０号２階,,13,112,1570072,,,,,,,2026-02-18,1,,,,,ラスバル,0
1293,6010903010626,新規,0,2026-02-18,2026-02-18,ＶｉｔａｌＶａｌｕｅ合同会社,,合同会社,東京都,世田谷区,下馬２丁目２番１２号,,13,112,1540002,,,,,,,2026-02-18,1,,,,,バイタルバリュー,0
1299,6011101114962,新規,0,2026-02-18,2026-02-18,金沐株式会社,,株式会社,東京都,新宿区,西新宿３丁目３番１３号西新宿水間ビル６階,,13,104,1600023,,,,,,,2026-02-18,1,,,,,キンモク,0
1306,6011401027807,新規,0,2026-02-18,2026-02-18,株式会社門や,,株式会社,東京都,板橋区,高島平２丁目１６番５号,,13,119,1750082,,,,,,,2026-02-18,1,,,,,カドヤ,0
1307,6011501033060,新規,0,2026-02-18,2026-02-18,株式会社坂商,,株式会社,東京都,荒川区,南千住３丁目４１番２－２０６号,,13,118,1160003,,,,,,,2026-02-18,1,,,,,サカショウ,0
1308,6011501033110,新規,0,2026-02-18,2026-02-18,株式会社ラインクラフト,,株式会社,東京都,荒川区,西日暮里２丁目２９番６号,,13,118,1160013,,,,,,,2026-02-18,1,,,,,ラインクラフト,0
1309,6011503006865,新規,0,2026-02-18,2026-02-18,合同会社セカンドスペース,,合同会社,東京都,北区,王子３丁目３番１０号,,13,117,1140002,,,,,,,2026-02-18,1,,,,,セカンドスペース,0
1310,6011601029388,新規,0,2026-02-18,2026-02-18,ＨＥＲＥ株式会社,,株式会社,東京都,練馬区,上石神井２丁目３７番２９号ＭＹマンション１０１号,,13,120,1770044,,,,,,,2026-02-18,1,,,,,ヒア,0
1314,6011703004529,新規,0,2026-02-18,2026-02-18,Ｍｏｈｙ合同会社,,合同会社,東京都,江戸川区,南葛西４丁目１８番１９－１１０４号,,13,123,1340085,,,,,,,2026-02-18,1,,,,,モヒ,0
1316,6011801047446,新規,0,2026-02-18,2026-02-18,株式会社ビルドライン,,株式会社,東京都,足立区,千住２丁目４３番地,,13,121,1200034,,,,,,,2026-02-18,1,,,,,ビルドライン,0
1317,6012301014721,新規,0,2026-02-18,2026-02-18,株式会社彪信建設,,株式会社,東京都,町田市,図師町１４４６番地３－２０５,,13,209,1940203,,,,,,,2026-02-18,1,,,,,ヒョウシンケンセツ,0
1318,6012403007623,新規,0,2026-02-18,2026-02-18,合同会社ＳＯＨＫ,,合同会社,東京都,調布市,入間町３丁目１５番地５２,,13,208,1820004,,,,,,,2026-02-18,1,,,,,エスオーイチケー,0
1321,6012801024534,新規,0,2026-02-18,2026-02-18,株式会社リアン,,株式会社,東京都,武蔵村山市,大南１丁目５番地の２２,,13,223,2080013,,,,,,,2026-02-18,1,,,,,リアン,0
1322,6012803004006,新規,0,2026-02-18,2026-02-18,ワノイズミ合同会社,,合同会社,東京都,日野市,三沢２丁目２０番地の１２セボン高幡不動１１０,,13,212,1910032,,,,,,,2026-02-18,1,,,,,ワノイズミ,0
1323,6013101009936,新規,0,2026-02-18,2026-02-18,株式会社瑞穂内装,,株式会社,東京都,西多摩郡瑞穂町,大字二本木７１０番地１１,,13,303,1901201,,,,,,,2026-02-18,1,,,,,ミズホナイソウ,0
1326,6013301055755,新規,0,2026-02-18,2026-02-18,株式会社アイゼン,,株式会社,東京都,豊島区,東池袋４丁目２９番２号,,13,116,1700013,,,,,,,2026-02-18,1,,,,,アイゼン,0
1329,6020001167112,新規,0,2026-02-18,2026-02-18,株式会社ＮＶｉｓｉｏｎ,,株式会社,神奈川県,横浜市鶴見区,北寺尾６丁目３２番１０号１０３,,14,101,2300074,,,,,,,2026-02-18,1,,,,,エヌビジョン,0
1330,6020001167145,新規,0,2026-02-18,2026-02-18,株式会社くらしのパートナー,,株式会社,神奈川県,横浜市瀬谷区,阿久和南２丁目２４－３１,,14,114,2460026,,,,,,,2026-02-18,1,,,,,クラシノパートナー,0
1331,6020001167260,新規,0,2026-02-18,2026-02-18,株式会社Ｍｉｒａｉ　Ｌｉｎｋ,,株式会社,神奈川県,横浜市中区,元町４丁目１６８,,14,104,2310861,,,,,,,2026-02-18,1,,,,,ミライリンク,0
1335,6020003030409,新規,0,2026-02-18,2026-02-18,合同会社ＢｅｌｌＳｐｈｅｒｅ,,合同会社,神奈川県,川崎市中原区,木月４丁目１８番３０号,,14,133,2110025,,,,,,,2026-02-18,1,,,,,ベルスフィア,0
1345,6030001170949,新規,0,2026-02-18,2026-02-18,株式会社ｅｍｏｅｍｏ,,株式会社,埼玉県,川越市,大字大袋新田８４２番地３,,11,201,3501167,,,,,,,2026-02-18,1,,,,,エモエモ,0
1346,6030001171063,新規,0,2026-02-18,2026-02-18,株式会社ひかげのこかげ,,株式会社,埼玉県,比企郡ときがわ町,大字日影９６０番地,,11,349,3550344,,,,,,,2026-02-18,1,,,,,ヒカゲノコカゲ,0
1350,6030003028666,新規,0,2026-02-18,2026-02-18,ＮＯＮＳ合同会社,,合同会社,埼玉県,入間市,東藤沢７丁目１４番１１号１,,11,225,3580012,,,,,,,2026-02-18,1,,,,,ノンズ,0
1357,6040003029498,新規,0,2026-02-18,2026-02-18,合同会社Ｔｅｎｓｏｋ,,合同会社,千葉県,船橋市,飯山満町２丁目４９６番地２６,,12,204,2740822,,,,,,,2026-02-18,1,,,,,テンソク,0
1359,6050001057987,新規,0,2026-02-18,2026-02-18,ＪＭＭアセット株式会社,,株式会社,茨城県,守谷市,野木崎１８３８番地,,08,224,3020117,,,,,,,2026-02-18,1,,,,,ジェイエムエムアセット,0
1367,6080003003656,新規,0,2026-02-18,2026-02-18,合同会社ＲＡＭ,,合同会社,静岡県,静岡市葵区,田町３丁目２４番地の１－２０１号,,22,101,4200068,,,,,,,2026-02-18,1,,,,,ラム,0
1373,6110003006077,新規,0,2026-02-18,2026-02-18,合同会社結Ｄｅｓｉｇｎ,,合同会社,新潟県,新潟市東区,臨港１丁目８番３５号,,15,102,9500043,,,,,,,2026-02-18,1,,,,,ムスビデザイン,0
1381,6120001284244,新規,0,2026-02-18,2026-02-18,株式会社ＯＮＥ,,株式会社,大阪府,大阪市中央区,南船場１丁目６－１３第２協和ビル２０２号室,,27,128,5420081,,,,,,,2026-02-18,1,,,,,ワン,0
1382,6120001284252,新規,0,2026-02-18,2026-02-18,株式会社Ｍｉｋａｚｕｋｉ,,株式会社,大阪府,大阪市浪速区,塩草３丁目７番１５－２０１号,,27,111,5560024,,,,,,,2026-02-18,1,,,,,ミカヅキ,0
1390,6120003031925,新規,0,2026-02-18,2026-02-18,合同会社キーヴィレッジ,,合同会社,大阪府,大阪市鶴見区,安田３丁目３番２４号,,27,124,5380032,,,,,,,2026-02-18,1,,,,,キーヴィレッジ,0
1391,6120003031933,新規,0,2026-02-18,2026-02-18,合同会社マールス,,合同会社,大阪府,大阪市中央区,十二軒町６番１０号,,27,128,5400015,,,,,,,2026-02-18,1,,,,,マールス,0
1398,6120101073191,新規,0,2026-02-18,2026-02-18,株式会社ワイワイカンパニー,,株式会社,大阪府,堺市美原区,木材通４丁目１４番３６号,,27,147,5870042,,,,,,,2026-02-18,1,,,,,ワイワイカンパニー,0
1403,6122001040189,新規,0,2026-02-18,2026-02-18,株式会社ＦＯＲＥＳＴ,,株式会社,大阪府,東大阪市,高井田西４丁目１番１１号３Ｆ,,27,227,5770067,,,,,,,2026-02-18,1,,,,,フォレスト,0
1411,6130005017590,新規,0,2026-02-18,2026-02-18,医療法人わかば会,,その他の設立登記法人,京都府,京都市下京区,西七条東八反田町３３番地パデシオン京都七条１Ｆ,,26,106,6008891,,,,,,,2026-02-18,1,,,,,ワカバカイ,0
1417,6140003023219,新規,0,2026-02-18,2026-02-18,ＹＳＲ合同会社,,合同会社,兵庫県,三田市,加茂１０８８番地３２,,28,219,6691311,,,,,,,2026-02-18,1,,,,,ワイエスアール,0
1418,6140003023227,新規,0,2026-02-18,2026-02-18,合同会社アシストライン,,合同会社,兵庫県,西宮市,松籟荘９番８号ファミール和２０１号,,28,204,6620822,,,,,,,2026-02-18,1,,,,,アシストライン,0
1419,6140005027804,新規,0,2026-02-18,2026-02-18,土地家屋調査士法人木村測量事務所,,その他の設立登記法人,兵庫県,神戸市垂水区,本多聞６丁目２８番２１号,,28,108,6550006,,,,,,,2026-02-18,1,,,,,キムラソクリョウジムショ,0
1420,6160001027426,新規,0,2026-02-18,2026-02-18,株式会社ＢｌｏｏｍＰｌａｃｅ,,株式会社,滋賀県,高島市,新旭町安井川１４４５番地,,25,212,5201533,,,,,,,2026-02-18,1,,,,,ブルームプレイス,0
1433,6180003029798,新規,0,2026-02-18,2026-02-18,合同会社ＤＹｎａｍｉｔｅ,,合同会社,愛知県,名古屋市中区,正木４丁目１０番１５号,,23,106,4600024,,,,,,,2026-02-18,1,,,,,ダイナマイト,0
1435,6190001032910,新規,0,2026-02-18,2026-02-18,翔舞興業株式会社,,株式会社,三重県,亀山市,布気町１３７５番地,,24,210,5190166,,,,,,,2026-02-18,1,,,,,ショウマコウギョウ,0
1439,6200001044730,新規,0,2026-02-18,2026-02-18,ＲＩＴＡ　ｌｉｎｋ株式会社,,株式会社,岐阜県,高山市,岡本町２丁目１番地６,,21,203,5060054,,,,,,,2026-02-18,1,,,,,リタリンク,0
1442,6210001020499,新規,0,2026-02-18,2026-02-18,株式会社スタジオＭｉｃａＧｒａ,,株式会社,福井県,坂井市,坂井町若宮第３号２番地３３,,18,210,9190515,,,,,,,2026-02-18,1,,,,,スタジオミカグラ,0
1444,6230001021306,新規,0,2026-02-18,2026-02-18,とあに株式会社,,株式会社,富山県,下新川郡入善町,高畠３７番地１,,16,342,9390666,,,,,,,2026-02-18,1,,,,,トアニ,0
1449,6250001021543,新規,0,2026-02-18,2026-02-18,あじすミート株式会社,,株式会社,山口県,山口市,道場門前１丁目３番１６号,,35,203,7530047,,,,,,,2026-02-18,1,,,,,,0
1464,6290001113188,新規,0,2026-02-18,2026-02-18,株式会社Ｒｅ．ＣＬＩＰ,,株式会社,福岡県,福岡市中央区,天神４丁目６－２８いちご天神ノースビル７階,,40,133,8100001,,,,,,,2026-02-18,1,,,,,,0
1465,6290001113213,新規,0,2026-02-18,2026-02-18,諧繋株式会社,,株式会社,福岡県,福岡市東区,奈多団地３５－３０２,,40,131,8110205,,,,,,,2026-02-18,1,,,,,カイケイ,0
1468,6290003018055,新規,0,2026-02-18,2026-02-18,合同会社Ｂｏｎｄ’ｓ,,合同会社,福岡県,福岡市城南区,樋井川２丁目２５番２７－３１１号大産樋井川マンション,,40,136,8140153,,,,,,,2026-02-18,1,,,,,ボンド,0
1469,6290003018071,新規,0,2026-02-18,2026-02-18,Ｇｌｏｂａｌ　ｒａｙｓ合同会社,,合同会社,福岡県,福岡市中央区,天神２丁目２番１２号Ｔ＆Ｊビルディング７Ｆ,,40,133,8100001,,,,,,,2026-02-18,1,,,,,グローバルレイズ,0
1483,6330005011029,新規,0,2026-02-18,2026-02-18,一般社団法人新町相談,,その他の設立登記法人,熊本県,熊本市中央区,新町３丁目４番１５号,,43,101,8600004,,,,,,,2026-02-18,1,,,,,シンマチソウダン,0
1484,6340001027985,新規,0,2026-02-18,2026-02-18,株式会社美匠バイオラボ,,株式会社,鹿児島県,鹿児島市,西田２丁目２８番１３号ノーサイドヒルズ５０１,,46,201,8900046,,,,,,,2026-02-18,1,,,,,ビショウバイオラボ,0
1485,6350001019949,新規,0,2026-02-18,2026-02-18,株式会社楓,,株式会社,宮崎県,宮崎市,佐土原町東上那珂５９１１番地,,45,201,8800303,,,,,,,2026-02-18,1,,,,,,0
1487,6370001053491,新規,0,2026-02-18,2026-02-18,株式会社仙台葬祭モンシエル,,株式会社,宮城県,仙台市宮城野区,岩切３丁目２４番１号,,04,102,9830821,,,,,,,2026-02-18,1,,,,,センダイソウサイモンシエル,0
1491,6380001035885,新規,0,2026-02-18,2026-02-18,磐城共栄株式会社,,株式会社,福島県,いわき市,小名浜愛宕上１２番地の８,,07,204,9718166,,,,,,,2026-02-18,1,,,,,イワキキョウエイ,0
1497,6420001019421,新規,0,2026-02-18,2026-02-18,株式会社ＭＩＮＯＬＩＡ,,株式会社,青森県,三沢市,東町３丁目９番地７号,,02,207,0330034,,,,,,,2026-02-18,1,,,,,ミノリア,0
1499,6430001096278,新規,0,2026-02-18,2026-02-18,株式会社フォーラム,,株式会社,北海道,札幌市西区,山の手一条４丁目１番２号,,01,107,0630001,,,,,,,2026-02-18,1,,,,,フォーラム,0
1500,6430003018602,新規,0,2026-02-18,2026-02-18,合同会社ＯＲＴＨＯ,,合同会社,北海道,札幌市中央区,南三条東５丁目１番地１ＡＳＭＡＣＩ　ＭＡＩＳＯＮ札幌大通東１１０９号,,01,101,0600053,,,,,,,2026-02-18,1,,,,,オルソ,0
1501,6430003018610,新規,0,2026-02-18,2026-02-18,合同会社ｗｈａｔ’ｕｐ,,合同会社,北海道,札幌市中央区,南十四条西１３丁目２番２３－３０１号,,01,101,0640914,,,,,,,2026-02-18,1,,,,,ワッツアップ,0
1504,6700150134546,新規,0,2026-02-18,2026-02-18,グローリーヒル・リミテッド,,外国会社等,,,,,,,,中華人民共和国香港特別行政区中半山干徳道一號遮打堂Ａ座８褸２５室,,,,,,2026-02-18,1,,,,,グローリーヒルリミテツド,0
1513,7010001262904,新規,0,2026-02-18,2026-02-18,トリリオン・リレーションズ株式会社,,株式会社,東京都,千代田区,丸の内１丁目３番４号丸の内テラス４０８,,13,101,1000005,,,,,,,2026-02-18,1,,,,,トリリオンリレーションズ,0
1514,7010003050423,新規,0,2026-02-18,2026-02-18,菊川蓄電所合同会社,,合同会社,東京都,千代田区,麹町３丁目５番２号ＢＵＲＥＸ麹町７０９,,13,101,1020083,,,,,,,2026-02-18,1,,,,,キクガワチクデンショ,0
1515,7010003050448,新規,0,2026-02-18,2026-02-18,ユーセ合同会社,,合同会社,東京都,中央区,銀座１丁目２２番１１号,,13,102,1040061,,,,,,,2026-02-18,1,,,,,ユーセ,0
1517,7010005041412,新規,0,2026-02-18,2026-02-18,一般社団法人田代平農場風力発電,,その他の設立登記法人,東京都,千代田区,丸の内１丁目４番１号東京共同会計事務所内,,13,101,1000005,,,,,,,2026-02-18,1,,,,,タシロタイノウジョウフウリョクハツデン,0
1519,7010103002729,新規,0,2026-02-18,2026-02-18,Ｂａｒｎａｒｄｉｎｅ合同会社,,合同会社,東京都,八王子市,長房町１３９１番地１,,13,201,1930824,,,,,,,2026-02-18,1,,,,,バーナーディン,0
1520,7010103002761,新規,0,2026-02-18,2026-02-18,合同会社ルート・アンド・ライズ,,合同会社,東京都,八王子市,子安町２丁目３６番１４号,,13,201,1920904,,,,,,,2026-02-18,1,,,,,ルートアンドライズ,0
1524,7010401196594,新規,0,2026-02-18,2026-02-18,株式会社ＴＭ３Ｉｎｔｅｒｎａｔｉｏｎａｌ,,株式会社,東京都,港区,南麻布３丁目１２番１－１０２号,,13,103,1060047,,,,,,,2026-02-18,1,,,,,ティーエムスリーインターナショナル,0
1525,7010401196611,新規,0,2026-02-18,2026-02-18,ジンギー株式会社,,株式会社,東京都,港区,港南２丁目１５番１号品川インターシティＡ棟２２階ＳＰＲＯＵＮＤ,,13,103,1080075,,,,,,,2026-02-18,1,,,,,ジンギー,0
1526,7010401196628,新規,0,2026-02-18,2026-02-18,ＣＯＲＥホールディングス株式会社,,株式会社,東京都,港区,赤坂９丁目７番１号,,13,103,1070052,,,,,,,2026-02-18,1,,,,,コアホールディングス,0
1527,7010401196660,新規,0,2026-02-18,2026-02-18,ＴＨＥ　ＬＡＳＴ　ＭＡＮ株式会社,,株式会社,東京都,港区,南青山３丁目１番３６号青山丸竹ビル６Ｆ,,13,103,1070062,,,,,,,2026-02-18,1,,,,,ザラストマン,0
1530,7010403037350,新規,0,2026-02-18,2026-02-18,合同会社ＢＬＯＯＭ,,合同会社,東京都,港区,西麻布１丁目２番１３号デュオ・スカーラ西麻布タワーＣＥＮＴＲＡＬ２０１号室,,13,103,1060031,,,,,,,2026-02-18,1,,,,,ブルーム,0
1537,7010601068750,新規,0,2026-02-18,2026-02-18,株式会社ＥＡＣ,,株式会社,東京都,江東区,富岡１丁目２３－１５川村ビル２階,,13,108,1350047,,,,,,,2026-02-18,1,,,,,イーエーシー,0
1538,7010601068767,新規,0,2026-02-18,2026-02-18,株式会社Ｅｌｉｔｅ　Ｇｏｌｆ＆Ｃｕｌｔｕｒｅ,,株式会社,東京都,墨田区,緑３丁目１３番１１－３０５号クリオ両国,,13,107,1300021,,,,,,,2026-02-18,1,,,,,エリートゴルフアンドカルチャー,0
1540,7010701049048,新規,0,2026-02-18,2026-02-18,大井トランス株式会社,,株式会社,東京都,品川区,八潮５丁目８－４７－３１１,,13,109,1400003,,,,,,,2026-02-18,1,,,,,オオイトランス,0
1541,7010701049056,新規,0,2026-02-18,2026-02-18,株式会社プロフィット・リンク,,株式会社,東京都,品川区,上大崎３丁目１３番３８号,,13,109,1410021,,,,,,,2026-02-18,1,,,,,プロフィットリンク,0
1542,7010705003851,新規,0,2026-02-18,2026-02-18,一般社団法人ミライ教育,,その他の設立登記法人,東京都,品川区,東大井４丁目３番２８－６０１号,,13,109,1400011,,,,,,,2026-02-18,1,,,,,ミライキョウイク,0
1549,7011001175674,新規,0,2026-02-18,2026-02-18,株式会社コラビズ,,株式会社,東京都,渋谷区,神南１丁目１１－４ＦＰＧリンクス神南５階,,13,113,1500041,,,,,,,2026-02-18,1,,,,,コラビズ,0
1560,7011005011363,新規,0,2026-02-18,2026-02-18,一般社団法人西宮組写真研究所,,その他の設立登記法人,東京都,目黒区,中町１丁目１１番５号,,13,110,1530065,,,,,,,2026-02-18,1,,,,,ニシミヤグミシャシンケンキュウジョ,0
1561,7011101115035,新規,0,2026-02-18,2026-02-18,株式会社クロスレイヤーズ,,株式会社,東京都,新宿区,西新宿３丁目３‐１３西新宿水間ビル６階,,13,104,1600023,,,,,,,2026-02-18,1,,,,,クロスレイヤーズ,0
1562,7011105011726,新規,0,2026-02-18,2026-02-18,一般社団法人東方文化芸術研究院,,その他の設立登記法人,東京都,新宿区,西新宿７丁目５－６新宿ダイカンプラザ７５６館８０４,,13,104,1600023,,,,,,,2026-02-18,1,,,,,トウホウゲイジュツケンキュウイン,0
1566,7011601029387,新規,0,2026-02-18,2026-02-18,株式会社コレクトスタイル,,株式会社,東京都,練馬区,春日町４丁目３６番５号,,13,120,1790074,,,,,,,2026-02-18,1,,,,,コレクトスタイル,0
1568,7011801047453,新規,0,2026-02-18,2026-02-18,株式会社十思,,株式会社,東京都,葛飾区,東新小岩３丁目１１番６号大雄マンション８１５,,13,122,1240023,,,,,,,2026-02-18,1,,,,,ジッシ,0
1575,7020001167136,新規,0,2026-02-18,2026-02-18,株式会社ダイケー,,株式会社,神奈川県,川崎市高津区,坂戸１丁目１５番８－９０１号,,14,134,2130012,,,,,,,2026-02-18,1,,,,,ダイケー,0
1576,7020001167227,新規,0,2026-02-18,2026-02-18,平野不動産管理株式会社,,株式会社,神奈川県,横浜市都筑区,大熊町３５４番地,,14,118,2240042,,,,,,,2026-02-18,1,,,,,ヒラノフドウサンカンリ,0
1577,7020001167235,新規,0,2026-02-18,2026-02-18,株式会社ＡＲＫ,,株式会社,神奈川県,横浜市神奈川区,子安通３丁目３０５番地,,14,102,2210021,,,,,,,2026-02-18,1,,,,,アーク,0
1580,7020003030226,新規,0,2026-02-18,2026-02-18,合同会社ＪＳＴ,,合同会社,神奈川県,川崎市高津区,久末２０３９グランメール久末２０３,,14,134,2130026,,,,,,,2026-02-18,1,,,,,ジェイエスティー,0
1581,7020003030341,新規,0,2026-02-18,2026-02-18,大高中国茶貿易合同会社,,合同会社,神奈川県,横浜市青葉区,鉄町２１０２－５、Ｂ－２０１,,14,117,2250025,,,,,,,2026-02-18,1,,,,,オオタカチュウゴクチャボウエキ,0
1582,7020003030366,新規,0,2026-02-18,2026-02-18,合同会社ベンヌ,,合同会社,神奈川県,横浜市神奈川区,金港町５－１４クアドリフォリオ８階,,14,102,2210056,,,,,,,2026-02-18,1,,,,,ベンヌ,0
1583,7020003030374,新規,0,2026-02-18,2026-02-18,合同会社とゅーりー商店,,合同会社,神奈川県,横浜市保土ケ谷区,峰沢町１０５番地峰沢団地５棟１０５号,,14,106,2400061,,,,,,,2026-02-18,1,,,,,トューリーショウテン,0
1584,7020003030416,新規,0,2026-02-18,2026-02-18,合同会社ＨＡＲＥ,,合同会社,神奈川県,横浜市中区,山元町５丁目１９８番地２プレシス横濱山手パークフロント４０９号室,,14,104,2310851,,,,,,,2026-02-18,1,,,,,ハレ,0
1585,7020003030440,新規,0,2026-02-18,2026-02-18,ＢＡＢＹ　ＦＯＲＣＥ合同会社,,合同会社,神奈川県,川崎市麻生区,黒川５５―３リヴィエールＢ１０１,,14,137,2150035,,,,,,,2026-02-18,1,,,,,ベイビーフォース,0
1586,7020005017139,新規,0,2026-02-18,2026-02-18,特定非営利活動法人ＧＡＩＡ．ＫＡＷＡＳＡＫＩ,,その他の設立登記法人,神奈川県,川崎市高津区,千年新町４１番地５,,14,134,2130021,,,,,,,2026-02-18,1,,,,,ガイアカワサキ,0
1594,7021003017147,新規,0,2026-02-18,2026-02-18,グリーンライフ合同会社,,合同会社,神奈川県,座間市,入谷西５丁目４８番座間入谷ハイツ４－４０６,,14,216,2520029,,,,,,,2026-02-18,1,,,,,グリーンライフ,0
1597,7030001171062,新規,0,2026-02-18,2026-02-18,ａｒｕｇｏ株式会社,,株式会社,埼玉県,春日部市,武里中野２９５番地１,,11,214,3440026,,,,,,,2026-02-18,1,,,,,アルゴ,0
1598,7030001171070,新規,0,2026-02-18,2026-02-18,株式会社三共ハウスプロテクト,,株式会社,埼玉県,越谷市,南町２丁目２３番５号２Ｆ,,11,222,3430832,,,,,,,2026-02-18,1,,,,,サンキョウハウスプロテクト,0
1599,7030001171079,新規,0,2026-02-18,2026-02-18,株式会社Ｐｏｐｅｇａｒ,,株式会社,埼玉県,所沢市,日吉町９番２０号第８０東京ビルＢ１Ｆ,,11,208,3591123,,,,,,,2026-02-18,1,,,,,ポペガー,0
1606,7040001142483,新規,0,2026-02-18,2026-02-18,株式会社ベイ・ホーミングフォルス,,株式会社,千葉県,浦安市,当代島１丁目１７番１２号,,12,227,2790001,,,,,,,2026-02-18,1,,,,,ベイホーミングフォルス,0
1607,7040001142517,新規,0,2026-02-18,2026-02-18,株式会社Ｒｏｃｋｙ,,株式会社,千葉県,木更津市,大和２丁目１番１０－２Ｆ,,12,206,2920805,,,,,,,2026-02-18,1,,,,,ロッキー,0
1608,7040001142525,新規,0,2026-02-18,2026-02-18,千葉スプレー株式会社,,株式会社,千葉県,市原市,辰巳台東１丁目８番地１８,,12,219,2900003,,,,,,,2026-02-18,1,,,,,チバスプレー,0
1613,7040003029480,新規,0,2026-02-18,2026-02-18,合同会社ＫＳゴールド,,合同会社,千葉県,千葉市若葉区,加曽利町１０８５番地１７,,12,104,2640017,,,,,,,2026-02-18,1,,,,,ケイエスゴールド,0
1614,7040003029489,新規,0,2026-02-18,2026-02-18,夢房荘合同会社,,合同会社,千葉県,館山市,長須賀３２３番地の１,,12,205,2940037,,,,,,,2026-02-18,1,,,,,ムボウソウ,0
1619,7070001043828,新規,0,2026-02-18,2026-02-18,株式会社ニトア,,株式会社,群馬県,吾妻郡嬬恋村,大字鎌原鬼の泉水１４５０番１１９,,10,425,3771402,,,,,,,2026-02-18,1,,,,,ニトア,0
1623,7070003006295,新規,0,2026-02-18,2026-02-18,ドラゴンフォース合同会社,,合同会社,群馬県,館林市,本町１丁目７番１６号,,10,207,3740024,,,,,,,2026-02-18,1,,,,,ドラゴンフォース,0
1628,7080401028444,新規,0,2026-02-18,2026-02-18,ダイナミックソリューション株式会社,,株式会社,静岡県,浜松市中央区,村櫛町４２５６番地の２２,,22,138,4311207,,,,,,,2026-02-18,1,,,,,ダイナミックソリューション,0
1629,7080401028452,新規,0,2026-02-18,2026-02-18,株式会社正希,,株式会社,静岡県,浜松市中央区,幸３丁目１４番２５号１０２,,22,138,4338123,,,,,,,2026-02-18,1,,,,,マサキ,0
1641,7120001284251,新規,0,2026-02-18,2026-02-18,株式会社めぐるめいく,,株式会社,大阪府,大阪市天王寺区,上本町２丁目１番２６－２０１号,,27,109,5430001,,,,,,,2026-02-18,1,,,,,メグルメイク,0
1642,7120001284276,新規,0,2026-02-18,2026-02-18,株式会社ＳＰＲＩＮＧ,,株式会社,大阪府,大阪市北区,梅田２丁目６番２０号パシフィックマークス西梅田４Ｆ,,27,127,5300001,,,,,,,2026-02-18,1,,,,,スプリング,0
1643,7120003031882,新規,0,2026-02-18,2026-02-18,合同会社クレイト,,合同会社,大阪府,大阪市北区,梅田１丁目２番２号大阪駅前第２ビル１２－１２,,27,127,5300001,,,,,,,2026-02-18,1,,,,,クレイト,0
1644,7120003031924,新規,0,2026-02-18,2026-02-18,合同会社ＯＬＴＬ,,合同会社,大阪府,大阪市中央区,南船場３丁目２番２２号おおきに南船場ビル２０５,,27,128,5420081,,,,,,,2026-02-18,1,,,,,オルティル,0
1645,7120003031932,新規,0,2026-02-18,2026-02-18,合同会社カインド,,合同会社,大阪府,大阪市阿倍野区,相生通１丁目４番５２号グレース阿倍野２０２号,,27,119,5450033,,,,,,,2026-02-18,1,,,,,カインド,0
1646,7120003031940,新規,0,2026-02-18,2026-02-18,合同会社Ｔ’ｓ,,合同会社,大阪府,大阪市中央区,南船場４丁目１０番２０－４１１号,,27,128,5420081,,,,,,,2026-02-18,1,,,,,ティーズ,0
1647,7120003031949,新規,0,2026-02-18,2026-02-18,ｏｎｅｆｏｒｏｎｅ合同会社,,合同会社,大阪府,大阪市北区,鶴野町４番Ａ－５０５号,,27,127,5300014,,,,,,,2026-02-18,1,,,,,ワンフォーワン,0
1648,7120003031957,新規,0,2026-02-18,2026-02-18,合同会社ウィストノア,,合同会社,大阪府,大阪市北区,梅田１丁目１番３号大阪駅前第３ビル１１階２号室,,27,127,5300001,,,,,,,2026-02-18,1,,,,,ウィストノア,0
1652,7120103006982,新規,0,2026-02-18,2026-02-18,三木合同会社,,合同会社,大阪府,岸和田市,下野町３丁目３番７号,,27,202,5960041,,,,,,,2026-02-18,1,,,,,ミキ,0
1653,7120103006990,新規,0,2026-02-18,2026-02-18,合同会社ＩＮＹＡＲＤ,,合同会社,大阪府,堺市堺区,南向陽町１―１―３２―５０３号,,27,141,5900000,,,,,,,2026-02-18,1,,,,,インヤード,0
1655,7120901052253,新規,0,2026-02-18,2026-02-18,株式会社ＡＸＩＳ,,株式会社,大阪府,摂津市,千里丘新町５番２２－１４０３号,,27,224,5660002,,,,,,,2026-02-18,1,,,,,アクシス,0
1657,7122003003465,新規,0,2026-02-18,2026-02-18,ミカサムーブメント合同会社,,合同会社,大阪府,東大阪市,菱屋西１丁目９－６,,27,227,5770807,,,,,,,2026-02-18,1,,,,,ミカサムーブメント,0
1662,7130003011157,新規,0,2026-02-18,2026-02-18,Ｋａｗａｓｅｍｉ　Ａｓｓｏｃｉａｔｅｓ合同会社,,合同会社,京都府,京都市東山区,三条通白川橋東入五軒町１１３番地クオリア京都東山４０５号,,26,105,6050036,,,,,,,2026-02-18,1,,,,,カワセミアソシエイツ,0
1665,7140001141789,新規,0,2026-02-18,2026-02-18,株式会社Ｏｐｔｉｅ,,株式会社,兵庫県,姫路市,二階町１８ＡＮＧＥＲＯ二階町２１０,,28,201,6700922,,,,,,,2026-02-18,1,,,,,オプティ,0
1666,7140005027803,新規,0,2026-02-18,2026-02-18,一般社団法人美腸ウェルビーイング協会,,その他の設立登記法人,兵庫県,神戸市中央区,北長狭通３丁目１２－３リーストラクチャートアウエスト４階,,28,110,6500012,,,,,,,2026-02-18,1,,,,,ビチョウウェルビーイングキョウカイ,0
1667,7150003003846,新規,0,2026-02-18,2026-02-18,合同会社マイステップ,,合同会社,奈良県,大和郡山市,南郡山町６４５番地１２,,29,203,6391007,,,,,,,2026-02-18,1,,,,,マイステップ,0
1675,7180001170628,新規,0,2026-02-18,2026-02-18,千代田運輸株式会社,,株式会社,愛知県,一宮市,伝法寺１丁目３番８号,,23,203,4910828,,,,,,,2026-02-18,1,,,,,チヨダウンユ,0
1676,7180001170710,新規,0,2026-02-18,2026-02-18,株式会社ベネフィスコンサルティング,,株式会社,愛知県,名古屋市千種区,桜が丘１１９番地,,23,101,4640025,,,,,,,2026-02-18,1,,,,,ベネフィスコンサルティング,0
1679,7180003029789,新規,0,2026-02-18,2026-02-18,合同会社ＫＲＡ‐ＢＡＳＥ,,合同会社,愛知県,名古屋市中川区,東中島町２丁目１番地の７,,23,110,4540866,,,,,,,2026-02-18,1,,,,,クラベース,0
1680,7180003029806,新規,0,2026-02-18,2026-02-18,合同会社江和エステート,,合同会社,愛知県,江南市,小杁町一色１０６番地３,,23,217,4838414,,,,,,,2026-02-18,1,,,,,コウワエステート,0
1684,7220003004226,新規,0,2026-02-18,2026-02-18,コトミ合同会社,,合同会社,石川県,金沢市,八日市出町１８１番地１（信開ドヌール西金沢・５０２号）,,17,201,9218063,,,,,,,2026-02-18,1,,,,,コトミ,0
1687,7240001066183,新規,0,2026-02-18,2026-02-18,株式会社七宗,,株式会社,広島県,広島市安佐南区,山本新町５丁目３２番１１号,,34,105,7310139,,,,,,,2026-02-18,1,,,,,,0
1690,7250001021542,新規,0,2026-02-18,2026-02-18,株式会社ＨａｒｂｏｒＧａｔｅ　ＡＩ　Ａｕｄｉｔ,,株式会社,山口県,下関市,大学町２丁目１番１号下関市立大学Ｄ棟Ｄ－４０４,,35,201,7510831,,,,,,,2026-02-18,1,,,,,ハーバーゲートエーアイオーディット,0
1692,7250003003902,新規,0,2026-02-18,2026-02-18,合同会社ル・モリ,,合同会社,山口県,宇部市,島３丁目８番８号,,35,202,7550047,,,,,,,2026-02-18,1,,,,,ルモリ,0
1694,7260003005518,新規,0,2026-02-18,2026-02-18,合同会社啓義,,合同会社,岡山県,玉野市,上山坂１１４８番地２,,33,204,7060303,,,,,,,2026-02-18,1,,,,,ヒロヨシ,0
1705,7290001113146,新規,0,2026-02-18,2026-02-18,株式会社リブフロ,,株式会社,福岡県,福岡市南区,的場１丁目４－２－Ａ２０１,,40,134,8111314,,,,,,,2026-02-18,1,,,,,リブフロ,0
1707,7290003018079,新規,0,2026-02-18,2026-02-18,合同会社ＹＯＨＡＫＵ,,合同会社,福岡県,福岡市東区,香椎浜３丁目３番５－２６０１号モントーレ香椎浜サーフタワーセンターコート,,40,131,8130016,,,,,,,2026-02-18,1,,,,,,0
1709,7290801032256,新規,0,2026-02-18,2026-02-18,株式会社マルビホーム,,株式会社,福岡県,北九州市八幡西区,森下町１８番１０号,,40,109,8060046,,,,,,,2026-02-18,1,,,,,マルビホーム,0
1717,7330003011442,新規,0,2026-02-18,2026-02-18,合同会社サテラアセット,,合同会社,熊本県,熊本市東区,新南部６丁目３番３８号,,43,102,8618028,,,,,,,2026-02-18,1,,,,,サテラアセット,0
1720,7350003005145,新規,0,2026-02-18,2026-02-18,合同会社ＡＩＶＩＳＩＯＮ,,合同会社,宮崎県,都城市,郡元１丁目１０番地３,,45,202,8850018,,,,,,,2026-02-18,1,,,,,アイビジョン,0
1727,7370003007478,新規,0,2026-02-18,2026-02-18,合同会社ＷＨ,,合同会社,宮城県,仙台市太白区,緑ケ丘１丁目２５番３５号,,04,104,9820021,,,,,,,2026-02-18,1,,,,,ダブリューエイチ,0
1729,7400005008545,新規,0,2026-02-18,2026-02-18,医療法人社団北悠会,,その他の設立登記法人,岩手県,盛岡市,愛宕町３番２５号,,03,201,0200013,,,,,,,2026-02-18,1,,,,,ホクユウカイ,0
1734,7430001096260,新規,0,2026-02-18,2026-02-18,株式会社ＫＥＡＴＨ,,株式会社,北海道,札幌市北区,百合が原７丁目１３番１１号,,01,102,0028081,,,,,,,2026-02-18,1,,,,,キース,0
1735,7430001096269,新規,0,2026-02-18,2026-02-18,株式会社ＯＴＡ企画工房,,株式会社,北海道,千歳市,東郊２丁目８番１９号,,01,224,0660021,,,,,,,2026-02-18,1,,,,,オオタキカクコウボウ,0
1736,7430001096277,新規,0,2026-02-18,2026-02-18,株式会社コモンズリンク,,株式会社,北海道,札幌市中央区,南二条西５丁目３１－１ＲＭＢｌｄ．７０１,,01,101,0600062,,,,,,,2026-02-18,1,,,,,コモンズリンク,0
1743,7470005006682,新規,0,2026-02-18,2026-02-18,医療法人社団香川歯科医院,,その他の設立登記法人,香川県,丸亀市,飯山町上法軍寺９３１番地,,37,202,7620084,,,,,,,2026-02-18,1,,,,,カガワシカイイン,0
1744,7700150058323,新規,0,2026-02-18,2015-10-09,高知県社会就労センター協議会,,その他,高知県,南国市,左右山２６９－１,,39,204,7830052,,,,,,,2015-10-09,1,,,,,コウチケンシヤカイシユウロウセンターキヨウギカイ,0
1745,7700150134545,新規,0,2026-02-18,2026-02-18,ＴＰ－Ｌｉｎｋ　Ｓｙｓｔｅｍｓ　Ｉｎｃ．,,外国会社等,,,,,,,,１０　ＭＡＵＣＨＬＹ，ＩＲＶＩＮＥ，ＣＡ　９２６１８　ＵＳＡ,,,,,,2026-02-18,1,,,,,テイーピーリンクシステムズインク,0
1758,8010001262861,新規,0,2026-02-18,2026-02-18,株式会社Ａｉｚｏｒａ,,株式会社,東京都,文京区,本駒込６丁目２１番２－４１２号カスタリア本駒込,,13,105,1130021,,,,,,,2026-02-18,1,,,,,アイゾラ,0
1759,8010001262903,新規,0,2026-02-18,2026-02-18,株式会社３ＧＯＡＴ,,株式会社,東京都,千代田区,丸の内１丁目３番４号丸の内テラス４０８,,13,101,1000005,,,,,,,2026-02-18,1,,,,,スリーゴート,0
1760,8010001262952,新規,0,2026-02-18,2026-02-18,株式会社ＴＨＴ,,株式会社,東京都,中央区,八丁堀３丁目１番３号飯野ビル６階,,13,102,1040032,,,,,,,2026-02-18,1,,,,,ティーエイチティー,0
1761,8010001262977,新規,0,2026-02-18,2026-02-18,トビコメ株式会社,,株式会社,東京都,中央区,銀座１丁目１２番４号Ｎ＆ＥＢＬＤ．６Ｆ,,13,102,1040061,,,,,,,2026-02-18,1,,,,,トビコメ,0
1762,8010001262993,新規,0,2026-02-18,2026-02-18,ＡＩリアルティ株式会社,,株式会社,東京都,中央区,銀座１丁目１２－４Ｎ＆ＥＢＬＤ．７階,,13,102,1040061,,,,,,,2026-02-18,1,,,,,エーアイリアルティ,0
1763,8010001263026,新規,0,2026-02-18,2026-02-18,株式会社Ｊ２Ｋ,,株式会社,東京都,千代田区,神田駿河台１丁目８番地タニグチビル７階牧公認会計士事務所内,,13,101,1010062,,,,,,,2026-02-18,1,,,,,ジェイツーケー,0
1768,8010003050348,新規,0,2026-02-18,2026-02-18,ＮＳ　Ｔｒａｄｅ合同会社,,合同会社,東京都,中央区,銀座６丁目１０番１号,,13,102,1040061,,,,,,,2026-02-18,1,,,,,エヌエストレード,0
1769,8010003050422,新規,0,2026-02-18,2026-02-18,合同会社ＷＢ　Ｊａｐａｎ　Ｉｎｖｅｓｔ,,合同会社,東京都,千代田区,霞が関３丁目２番５号,,13,101,1000013,,,,,,,2026-02-18,1,,,,,ダブリュービージャパンインベスト,0
1770,8010003050430,新規,0,2026-02-18,2026-02-18,合同会社カーチスファンド１４号,,合同会社,東京都,千代田区,六番町２番地８番町Ｍビル３Ｆ,,13,101,1020085,,,,,,,2026-02-18,1,,,,,カーチスファンドジュウヨンゴウ,0
1773,8010005041411,新規,0,2026-02-18,2026-02-18,一般社団法人ネオルナ,,その他の設立登記法人,東京都,千代田区,丸の内１丁目４番１号東京共同会計事務所内,,13,101,1000005,,,,,,,2026-02-18,1,,,,,ネオルナ,0
1779,8010401196552,新規,0,2026-02-18,2026-02-18,株式会社レーシンジ,,株式会社,東京都,港区,三田３丁目１１番２４号国際興業三田第２ビル４階,,13,103,1080073,,,,,,,2026-02-18,1,,,,,レーシンジ,0
1780,8010401196619,新規,0,2026-02-18,2026-02-18,株式会社ゼロビルド,,株式会社,東京都,港区,北青山１丁目３番１号アールキューブ青山３階,,13,103,1070061,,,,,,,2026-02-18,1,,,,,ゼロビルド,0
1781,8010403037333,新規,0,2026-02-18,2026-02-18,Ｓａｇａｍｉｈａｒａ　ＤＣ２合同会社,,合同会社,東京都,港区,西新橋１丁目２２番５号６階,,13,103,1050003,,,,,,,2026-02-18,1,,,,,サガミハラディーシーツー,0
1788,8010703008133,新規,0,2026-02-18,2026-02-18,合同会社ネオタイム,,合同会社,東京都,品川区,東大井５丁目２４番１６－５０３号,,13,109,1400011,,,,,,,2026-02-18,1,,,,,ネオタイム,0
1791,8010901058979,新規,0,2026-02-18,2026-02-18,ＦＯＲＭＥＲＡ株式会社,,株式会社,東京都,世田谷区,粕谷２丁目１８番２０－１０８号,,13,112,1570063,,,,,,,2026-02-18,1,,,,,フォーメラ,0
1792,8010901059011,新規,0,2026-02-18,2026-02-18,株式会社ポジドリ,,株式会社,東京都,世田谷区,玉川３丁目１１番１号柳小路東角３１２,,13,112,1580094,,,,,,,2026-02-18,1,,,,,ポジドリ,0
1801,8011001175302,新規,0,2026-02-18,2026-02-18,ＥＣＯＱＣＯＤＥ株式会社,,株式会社,東京都,渋谷区,恵比寿４丁目２０番３号恵比寿ガーデンプレイスタワー１８階,,13,113,1500013,,,,,,,2026-02-18,1,,,,,エコキューコード,0
1802,8011001175475,新規,0,2026-02-18,2026-02-18,株式会社ＦＥＮＴ,,株式会社,東京都,渋谷区,恵比寿３丁目４３－１３－Ｂ１,,13,113,1500013,,,,,,,2026-02-18,1,,,,,フェント,0
1803,8011001175491,新規,0,2026-02-18,2026-02-18,株式会社ＣｕｒｉｏＧｒｉｔ,,株式会社,東京都,目黒区,中根１丁目１１番１号ラフィネ２０２,,13,110,1520031,,,,,,,2026-02-18,1,,,,,キュリオグリット,0
1804,8011003023707,新規,0,2026-02-18,2026-02-18,ＲＥＬＡＣＳ合同会社,,合同会社,東京都,渋谷区,道玄坂１丁目１０番８号渋谷道玄坂東急ビル２Ｆ―Ｃ,,13,113,1500043,,,,,,,2026-02-18,1,,,,,リラクス,0
1805,8011005011362,新規,0,2026-02-18,2026-02-18,一般社団法人ながれやまフォレスト・ジュニア,,その他の設立登記法人,東京都,渋谷区,神宮前２丁目４番１１号Ｄａｉｗａ神宮前ビル３階,,13,113,1500001,,,,,,,2026-02-18,1,,,,,ナガレヤマフォレストジュニア,0
1817,8011101114795,新規,0,2026-02-18,2026-02-18,株式会社マルヴァレス,,株式会社,東京都,新宿区,高田馬場４丁目１番７号市川ビルデンス５０２号室,,13,104,1690075,,,,,,,2026-02-18,1,,,,,マルヴァレス,0
1821,8011403005040,新規,0,2026-02-18,2026-02-18,合同会社Ｌｉｎｋｕｐ,,合同会社,東京都,板橋区,幸町１０－５－１０２,,13,119,1730034,,,,,,,2026-02-18,1,,,,,リンクアップ,0
1838,8020001167242,新規,0,2026-02-18,2026-02-18,株式会社Ｂｒｉｄｇｅ　Ｌｉｎｋ,,株式会社,神奈川県,川崎市中原区,下小田中１丁目３２番１号,,14,133,2110041,,,,,,,2026-02-18,1,,,,,ブリッジリンク,0
1840,8021001087554,新規,0,2026-02-18,2026-02-18,株式会社凪と風,,株式会社,神奈川県,大和市,南林間８丁目８番２－２号,,14,213,2420006,,,,,,,2026-02-18,1,,,,,ナギトカゼ,0
1846,8030001171078,新規,0,2026-02-18,2026-02-18,ｃｕｄａ株式会社,,株式会社,埼玉県,朝霞市,幸町１丁目４番４０号,,11,227,3510015,,,,,,,2026-02-18,1,,,,,クーダ,0
1847,8030003028672,新規,0,2026-02-18,2026-02-18,合同会社一川企画,,合同会社,埼玉県,川越市,六軒町１丁目２０番地３（レーベン川越六軒町７１２号室）,,11,201,3500041,,,,,,,2026-02-18,1,,,,,イチカワキカク,0
1848,8040001142400,新規,0,2026-02-18,2026-02-18,株式会社ＰＶＲ,,株式会社,千葉県,八千代市,大和田１０１０番地１７,,12,221,2760045,,,,,,,2026-02-18,1,,,,,ピーブイアール,0
1849,8040001142524,新規,0,2026-02-18,2026-02-18,株式会社グッドプレイ,,株式会社,千葉県,千葉市稲毛区,天台５丁目２４番３７号,,12,103,2630016,,,,,,,2026-02-18,1,,,,,グッドプレイ,0
1850,8040001142557,新規,0,2026-02-18,2026-02-18,株式会社メディカル・コネクト,,株式会社,千葉県,野田市,春日町２０番地の１３,,12,208,2780052,,,,,,,2026-02-18,1,,,,,メディカルコネクト,0
1853,8040003029488,新規,0,2026-02-18,2026-02-18,ウイファクトリー合同会社,,合同会社,千葉県,旭市,三川７６３７番地,,12,215,2892714,,,,,,,2026-02-18,1,,,,,ウイファクトリー,0
1856,8050001057985,新規,0,2026-02-18,2026-02-18,株式会社Ｍｉｍｉ,,株式会社,茨城県,稲敷郡阿見町,大字塙２９３番地１,,08,443,3000321,,,,,,,2026-02-18,1,,,,,ミミ,0
1857,8060001039009,新規,0,2026-02-18,2026-02-18,株式会社ｍａｌｉｅ,,株式会社,栃木県,芳賀郡茂木町,大字茂木２０６５番地,,09,343,3213531,,,,,,,2026-02-18,1,,,,,マリエ,0
1859,8070005010468,新規,0,2026-02-18,2026-02-18,一般社団法人ぐんま地域医療連携ネットワーク機構,,その他の設立登記法人,群馬県,前橋市,昭和町３丁目３９番１５号,,10,201,3710034,,,,,,,2026-02-18,1,,,,,グンマチイキイリョウレンケイネットワークキコウ,0
1862,8090001019742,新規,0,2026-02-18,2026-02-18,株式会社葡萄守,,株式会社,山梨県,甲府市,北新１丁目１１番１０号,,19,201,4000005,,,,,,,2026-02-18,1,,,,,ブドウノカミ,0
1868,8110001039903,新規,0,2026-02-18,2026-02-18,三川電工株式会社,,株式会社,新潟県,北蒲原郡聖籠町,大字諏訪山１５５７－１,,15,307,9570117,,,,,,,2026-02-18,1,,,,,ミカワデンコウ,0
1876,8120001283946,新規,0,2026-02-18,2026-02-18,株式会社エンリッチ,,株式会社,大阪府,大阪市西区,南堀江１丁目３番１２－２７０５号,,27,106,5500015,,,,,,,2026-02-18,1,,,,,エンリッチ,0
1877,8120001284093,新規,0,2026-02-18,2026-02-18,株式会社ｔａｊｉｍａ,,株式会社,大阪府,大阪市生野区,林寺６丁目７番４７号,,27,116,5440023,,,,,,,2026-02-18,1,,,,,タジマ,0
1878,8120001284250,新規,0,2026-02-18,2026-02-18,株式会社Ｒｉｖａｎｃｅ　Ｐａｒｔｎｅｒｓ,,株式会社,大阪府,大阪市西区,京町堀１丁目４番９号,,27,106,5500003,,,,,,,2026-02-18,1,,,,,リヴァンスパートナーズ,0
1879,8120001284341,新規,0,2026-02-18,2026-02-18,株式会社ＭＯＴＯＡＫＩ,,株式会社,大阪府,大阪市住吉区,苅田７丁目４－２ブラームスあびこライズ１１０５,,27,120,5580011,,,,,,,2026-02-18,1,,,,,モトアキ,0
1884,8120103006998,新規,0,2026-02-18,2026-02-18,合同会社穂栄,,合同会社,大阪府,堺市西区,鳳東町６丁６５６番地１,,27,144,5938324,,,,,,,2026-02-18,1,,,,,ホエイ,0
1887,8120901052252,新規,0,2026-02-18,2026-02-18,株式会社彩りホーム,,株式会社,大阪府,高槻市,宮野町３番４－３０３号,,27,207,5690081,,,,,,,2026-02-18,1,,,,,イロドリホーム,0
1888,8122001040187,新規,0,2026-02-18,2026-02-18,株式会社ＭＯＲＩＴＡコーポレーション,,株式会社,大阪府,四條畷市,岡山東５丁目２０番４０号,,27,229,5750003,,,,,,,2026-02-18,1,,,,,モリタコーポレーション,0
1889,8122001040195,新規,0,2026-02-18,2026-02-18,株式会社ＡＤＪＵＳＴ,,株式会社,大阪府,八尾市,山城町３丁目６－１１コスモハイツ陽和２０２,,27,212,5810801,,,,,,,2026-02-18,1,,,,,アジャスト,0
1893,8130001081622,新規,0,2026-02-18,2026-02-18,株式会社ＨＩＲＯ　ＥＬＥＣ　ＰＬＵＳ,,株式会社,京都府,八幡市,美濃山西ノ口１０番地の２５,,26,210,6148278,,,,,,,2026-02-18,1,,,,,ヒロエレックプラス,0
1894,8130001081647,新規,0,2026-02-18,2026-02-18,株式会社トランジャーズ,,株式会社,京都府,京都市東山区,今熊野南日吉町３９番地３０,,26,105,6050953,,,,,,,2026-02-18,1,,,,,トランジャーズ,0
1899,8140001141771,新規,0,2026-02-18,2026-02-18,株式会社ＡＲホールディングス,,株式会社,兵庫県,三田市,駅前町１０番３号サンテラスビル１Ｆ,,28,219,6691528,,,,,,,2026-02-18,1,,,,,アールホールディングス,0
1914,8180001170684,新規,0,2026-02-18,2026-02-18,株式会社ＺＥＮＩＴＨ,,株式会社,愛知県,名古屋市昭和区,八事本町１０１番地の２北原ビル,,23,107,4660825,,,,,,,2026-02-18,1,,,,,ゼニス,0
1915,8180001170718,新規,0,2026-02-18,2026-02-18,株式会社ぐっど楽,,株式会社,愛知県,名古屋市中川区,七反田町４９番地,,23,110,4540975,,,,,,,2026-02-18,1,,,,,グッドラック,0
1916,8180001170726,新規,0,2026-02-18,2026-02-18,ｙｏｈａｋｕ株式会社,,株式会社,愛知県,名古屋市西区,上小田井１丁目３７８番地１０２号,,23,104,4520821,,,,,,,2026-02-18,1,,,,,ヨハク,0
1924,8200001044729,新規,0,2026-02-18,2026-02-18,株式会社ＦＬＩＮＴＳ,,株式会社,岐阜県,岐阜市,薮田南３丁目７番２０号,,21,201,5008384,,,,,,,2026-02-18,1,,,,,フリンツ,0
1925,8200001044737,新規,0,2026-02-18,2026-02-18,株式会社フルリールリンク,,株式会社,岐阜県,岐阜市,加納本町７丁目２１番地１,,21,201,5008474,,,,,,,2026-02-18,1,,,,,フルリールリンク,0
1931,8250005009054,新規,0,2026-02-18,2026-02-18,一般社団法人日和山未来づくりネットワーク,,その他の設立登記法人,山口県,下関市,丸山町３丁目１０番１２号,,35,201,7500019,,,,,,,2026-02-18,1,,,,,ヒヨリヤマミライヅクリネットワーク,0
1939,8290001113186,新規,0,2026-02-18,2026-02-18,株式会社レバブル,,株式会社,福岡県,福岡市博多区,東公園４－１－３０１,,40,132,8120045,,,,,,,2026-02-18,1,,,,,,0
1941,8290003018029,新規,0,2026-02-18,2026-02-18,合同会社Ｙ２ＦｉｎＴｅｃｈ,,合同会社,福岡県,福岡市博多区,博多駅前２丁目１９番１７号トーカン博多第５ビル３１２号室,,40,132,8120011,,,,,,,2026-02-18,1,,,,,ワイツーフィンテック,0
1942,8290005020008,新規,0,2026-02-18,2026-02-18,一般社団法人坪原資産承継,,その他の設立登記法人,福岡県,福岡市博多区,竹下５丁目９－１０－２０１,,40,132,8120895,,,,,,,2026-02-18,1,,,,,ツボハラシサンショウケイ,0
1944,8320001021583,新規,0,2026-02-18,2026-02-18,株式会社清大,,株式会社,大分県,大分市,明磧町１丁目５番３２―６０２号リルームス明磧Ｉ,00142613,44,201,8700860,,,,,,,2026-02-18,1,,,,,キヨマサ,0
1946,8320005010285,新規,0,2026-02-18,2026-02-18,一般社団法人いきいきライフ協会大分北,,その他の設立登記法人,大分県,国東市,国東町鶴川２０８１番地２,,44,214,8730503,,,,,,,2026-02-18,1,,,,,イキイキライフキョウカイオオイタキタ,0
1950,8340001027983,新規,0,2026-02-18,2026-02-18,株式会社キンボシ,,株式会社,鹿児島県,鹿児島市,宇宿３丁目３２番２号,,46,201,8900073,,,,,,,2026-02-18,1,,,,,キンボシ,0
1953,8350001019947,新規,0,2026-02-18,2026-02-18,九思コンサルティング株式会社,,株式会社,宮崎県,宮崎市,橘通西２丁目５番２７号,,45,201,8800001,,,,,,,2026-02-18,1,,,,,クシコンサルティング,0
1957,8360005007369,新規,0,2026-02-18,2026-02-18,行政書士法人シナジーアシスト,,その他の設立登記法人,沖縄県,中頭郡中城村,字南上原１００７番地,,47,328,9012424,,,,,,,2026-02-18,1,,,,,シナジーアシスト,0
1959,8370003007477,新規,0,2026-02-18,2026-02-18,合同会社アリス,,合同会社,宮城県,仙台市青葉区,川平３丁目３８－１６,,04,101,9810954,,,,,,,2026-02-18,1,,,,,アリス,0
1961,8380001035883,新規,0,2026-02-18,2026-02-18,株式会社ＡＬＢＡ,,株式会社,福島県,福島市,丸子字上川原５番地の２４,,07,201,9600111,,,,,,,2026-02-18,1,,,,,アルバ,0
1970,8470001021098,新規,0,2026-02-18,2026-02-18,株式会社ＫａｍｉＲｉｇｈｔ,,株式会社,香川県,三豊市,高瀬町上勝間３５４番地１,,37,208,7670012,,,,,,,2026-02-18,1,,,,,カミライト,0
1984,9010001262943,新規,0,2026-02-18,2026-02-18,豊川フルード工業株式会社,,株式会社,東京都,千代田区,神田佐久間町３丁目２８星野ビル４Ｆ６５号,,13,101,1010025,,,,,,,2026-02-18,1,,,,,トヨカワフルードコウギョウ,0
1985,9010001262968,新規,0,2026-02-18,2026-02-18,株式会社ＥＤＩＮ,,株式会社,東京都,千代田区,麹町３丁目１番地８メイゾン麹町２０２,00142624,13,101,1020083,,,,,,,2026-02-18,1,,,,,エディン,0
1986,9010001262984,新規,0,2026-02-18,2026-02-18,如奕株式会社,,株式会社,東京都,千代田区,神田三崎町２丁目１０－１１Ｐｅｇビル２Ａ－１号,,13,101,1010061,,,,,,,2026-02-18,1,,,,,ルイ,0
1987,9010001263000,新規,0,2026-02-18,2026-02-18,ＭＪＨ株式会社,,株式会社,東京都,千代田区,大手町１丁目２番１号,,13,101,1000004,,,,,,,2026-02-18,1,,,,,エムジェーエイチ,0
1988,9010001263009,新規,0,2026-02-18,2026-02-18,ＯＵＲＥＡ　ＦＩＮＡＮＣＩＡＬ　ＡＤＶＩＳＥＲＳ株式会社,,株式会社,東京都,千代田区,平河町１丁目６－４,,13,101,1020093,,,,,,,2026-02-18,1,,,,,ウレアフィナンシャルアドバイザーズ,0
1992,9010003050413,新規,0,2026-02-18,2026-02-18,合同会社スタグッド,,合同会社,東京都,千代田区,神田須田町１丁目７番８号ＶＯＲＴ秋葉原ＩＶ２Ｆ,00142625,13,101,1010041,,,,,,,2026-02-18,1,,,,,スタグッド,0
1993,9010003050454,新規,0,2026-02-18,2026-02-18,田代平農場風力発電合同会社,,合同会社,東京都,千代田区,丸の内１丁目４番１号東京共同会計事務所内,,13,101,1000005,,,,,,,2026-02-18,1,,,,,タシロタイノウジョウフウリョクハツデン,0
1999,9010401196650,新規,0,2026-02-18,2026-02-18,Ｋ　ａｎｄ　Ｂ株式会社,,株式会社,東京都,港区,南青山３丁目８－５－１Ｆ‐ＴｈｅＣｉｔｙ南青山Ｆｉｏｒｅ,,13,103,1070062,,,,,,,2026-02-18,1,,,,,ケーアンドビー,0
2003,9010403037349,新規,0,2026-02-18,2026-02-18,合同会社Ｎ．ＰＲＩＭＥ,,合同会社,東京都,港区,芝浦１丁目１番１号,,13,103,1050023,,,,,,,2026-02-18,1,,,,,エヌプライム,0
2004,9010403037381,新規,0,2026-02-18,2026-02-18,合同会社ハリマ,,合同会社,東京都,港区,虎ノ門３丁目２２番１０－２０１号,,13,103,1050001,,,,,,,2026-02-18,1,,,,,ハリマ,0
2010,9010601068732,新規,0,2026-02-18,2026-02-18,株式会社ＳＴＡＧＥＡ,,株式会社,東京都,墨田区,本所３丁目１２－１２,,13,107,1300004,,,,,,,2026-02-18,1,,,,,ステージア,0
2013,9010603012085,新規,0,2026-02-18,2026-02-18,合同会社ＢＯＣＣＨＩ,,合同会社,東京都,江東区,東砂４丁目２３番３号,,13,108,1360074,,,,,,,2026-02-18,1,,,,,ボッチ,0
2014,9010701049046,新規,0,2026-02-18,2026-02-18,株式会社日本医療振興センター,,株式会社,東京都,品川区,上大崎３丁目５番２号リードシー目黒イーストビル５階,,13,109,1410021,,,,,,,2026-02-18,1,,,,,ニホンイリョウシンコウセンター,0
2019,9010901059002,新規,0,2026-02-18,2026-02-18,株式会社ＰｒｏｊｅｃｔＰＮＧ,,株式会社,東京都,世田谷区,上用賀５丁目２２番１６号,,13,112,1580098,,,,,,,2026-02-18,1,,,,,プロジェクトピーエヌジー,0
2021,9010903010623,新規,0,2026-02-18,2026-02-18,合同会社カイボンド,,合同会社,東京都,世田谷区,上馬５丁目２１番８－１０４号,,13,112,1540011,,,,,,,2026-02-18,1,,,,,カイボンド,0
2031,9011005011378,新規,0,2026-02-18,2026-02-18,特定非営利活動法人手の長いおじさんプロジェクト,,その他の設立登記法人,東京都,渋谷区,松濤１丁目２６番１８号園ビルディング２Ｆ松濤ラナイ２Ａ－２,,13,113,1500046,,,,,,,2026-02-18,1,,,,,テノナガイオジサンプロジェクト,0
2036,9011103017087,新規,0,2026-02-18,2026-02-18,合同会社たなか家,,合同会社,東京都,新宿区,西五軒町３番１０－７０３号,,13,104,1620812,,,,,,,2026-02-18,1,,,,,タナカケ,0
2037,9011105011724,新規,0,2026-02-18,2026-02-18,一般社団法人ヘルスケア研究・教育支援機構,,その他の設立登記法人,東京都,新宿区,西新宿３丁目３番１３号西新宿水間ビル２Ｆ,,13,104,1600023,,,,,,,2026-02-18,1,,,,,ヘルスケアケンキュウキョウイクシエンキコウ,0
2039,9011201026964,新規,0,2026-02-18,2026-02-18,株式会社スームス,,株式会社,東京都,中野区,南台４丁目５５番１４号,,13,114,1640014,,,,,,,2026-02-18,1,,,,,スームス,0
2042,9011603005013,新規,0,2026-02-18,2026-02-18,合同会社サポウィル,,合同会社,東京都,練馬区,大泉学園町６丁目１６番２６号,,13,120,1780061,,,,,,,2026-02-18,1,,,,,サポウィル,0
2046,9011801047451,新規,0,2026-02-18,2026-02-18,株式会社フスカ,,株式会社,東京都,葛飾区,四つ木２丁目６番２６号,,13,122,1240011,,,,,,,2026-02-18,1,,,,,フスカ,0
2050,9012403007620,新規,0,2026-02-18,2026-02-18,風花舎合同会社,,合同会社,東京都,三鷹市,牟礼３丁目１番２８号,,13,204,1810002,,,,,,,2026-02-18,1,,,,,フウカシャ,0
2052,9013103001533,新規,0,2026-02-18,2026-02-18,合同会社Ａｓｈ＆Ｃｏａｔ,,合同会社,東京都,あきる野市,草花２９４７－８,,13,228,1970802,,,,,,,2026-02-18,1,,,,,アッシュアンドコート,0
2053,9013303008097,新規,0,2026-02-18,2026-02-18,合同会社プライムレジデンス東京,,合同会社,東京都,豊島区,池袋２丁目６０番１１号８階,,13,116,1710014,,,,,,,2026-02-18,1,,,,,プライムレジデンストウキョウ,0
2057,9020001167126,新規,0,2026-02-18,2026-02-18,株式会社３６ｐｉｃｔｕｒｅｓ,,株式会社,神奈川県,横浜市神奈川区,鶴屋町３丁目３１番５号久保田ビル７階,,14,102,2210835,,,,,,,2026-02-18,1,,,,,,0
2058,9020001167134,新規,0,2026-02-18,2026-02-18,ハマテラス株式会社,,株式会社,神奈川県,横浜市神奈川区,三ツ沢中町５－１７アール・ケープラザ三ツ沢３０３,,14,102,2210851,,,,,,,2026-02-18,1,,,,,ハマテラス,0
2059,9020003030356,新規,0,2026-02-18,2026-02-18,合同会社ＪＳホーム,,合同会社,神奈川県,横浜市港南区,上永谷１丁目１８－３０メゾンタナベ２０１,,14,111,2330012,,,,,,,2026-02-18,1,,,,,ジェイエスホーム,0
2060,9020003030414,新規,0,2026-02-18,2026-02-18,合同会社Ｙｕｒｉｓａ,,合同会社,神奈川県,横浜市中区,山手町８４番地３－４０８号,,14,104,2310862,,,,,,,2026-02-18,1,,,,,ユリサ,0
2065,9021001087529,新規,0,2026-02-18,2026-02-18,株式会社Ｍｓｔｙｌｅ,,株式会社,神奈川県,相模原市南区,相模台３丁目３番１８号,,14,153,2520321,,,,,,,2026-02-18,1,,,,,エムスタイル,0
2066,9021001087578,新規,0,2026-02-18,2026-02-18,株式会社如月,,株式会社,神奈川県,鎌倉市,腰越１丁目１０－３９,,14,204,2480033,,,,,,,2026-02-18,1,,,,,キサラギ,0
2069,9021005013539,新規,0,2026-02-18,2026-02-18,一般社団法人日本野犬協会,,その他の設立登記法人,神奈川県,三浦郡葉山町,長柄１０４８番地３コートハウス葉山,,14,301,2400113,,,,,,,2026-02-18,1,,,,,ニホンヤケンキョウカイ,0
2075,9030003028639,新規,0,2026-02-18,2026-02-18,合同会社Ｒｅｍｅｍｂｅｒ　Ｄｅｓｉｇｎ,,合同会社,埼玉県,さいたま市中央区,本町西６丁目１番１３号ライカム壱番館１０２,,11,105,3380004,,,,,,,2026-02-18,1,,,,,リメンバーデザイン,0
2079,9040001142548,新規,0,2026-02-18,2026-02-18,株式会社ＫＯＢＡＹＡＳＨＩ,,株式会社,千葉県,千葉市花見川区,検見川町２丁目６９番地,,12,102,2620023,,,,,,,2026-02-18,1,,,,,コバヤシ,0
2086,9040003029479,新規,0,2026-02-18,2026-02-18,合同会社永遠の家,,合同会社,千葉県,市原市,南岩崎６７８番地１６,,12,219,2900244,,,,,,,2026-02-18,1,,,,,トワノイエ,0
2087,9040003029495,新規,0,2026-02-18,2026-02-18,合同会社ルドルフ,,合同会社,千葉県,市川市,南大野３丁目２４番４０－４０６号アーバンビュー市川大野,,12,203,2720804,,,,,,,2026-02-18,1,,,,,ルドルフ,0
2103,9120001284241,新規,0,2026-02-18,2026-02-18,株式会社太平洋,,株式会社,大阪府,大阪市東成区,中道４丁目１６番２１号山上ビル５Ｆ,,27,115,5370025,,,,,,,2026-02-18,1,,,,,タイヘイヨウ,0
2104,9120001284258,新規,0,2026-02-18,2026-02-18,株式会社ミカレーユ,,株式会社,大阪府,大阪市中央区,南船場３丁目３番１０号エーゼービル５階,,27,128,5420081,,,,,,,2026-02-18,1,,,,,ミカレーユ,0
2105,9120001284316,新規,0,2026-02-18,2026-02-18,株式会社Ｓｌｉｖｅパートナーズ,,株式会社,大阪府,大阪市淀川区,宮原１丁目１９番２３号ステュディオ新御堂１１０８号室,,27,123,5320003,,,,,,,2026-02-18,1,,,,,エスリブパートナーズ,0
2131,9140001141770,新規,0,2026-02-18,2026-02-18,ホームプランニング株式会社,,株式会社,兵庫県,尼崎市,東園田町５丁目３２－１１－２Ｆ,,28,202,6610953,,,,,,,2026-02-18,1,,,,,ホームプランニング,0
2134,9140003023216,新規,0,2026-02-18,2026-02-18,合同会社フォース,,合同会社,兵庫県,神戸市中央区,磯辺通１丁目１番１８号カサベラ国際プラザビル７０７号室,,28,110,6510084,,,,,,,2026-02-18,1,,,,,フォース,0
2136,9140005027784,新規,0,2026-02-18,2026-02-18,一般社団法人学校ガバナンス推進機構,,その他の設立登記法人,兵庫県,丹波市,春日町黒井２０７６,,28,223,6694141,,,,,,,2026-02-18,1,,,,,ガッコウガバナンススイシンキコウ,0
2138,9160001027423,新規,0,2026-02-18,2026-02-18,株式会社ヒナハウス,,株式会社,滋賀県,東近江市,御園町５４１番地,,25,213,5270056,,,,,,,2026-02-18,1,,,,,ヒナハウス,0
2147,9180001170683,新規,0,2026-02-18,2026-02-18,株式会社ＲＩＳＥ,,株式会社,愛知県,名古屋市中村区,岩塚本通１丁目５０番地の１ブレイバリー岩塚３０５号,00142612,23,105,4530861,,,,,,,2026-02-18,1,,,,,ライズ,0
2148,9180001170700,新規,0,2026-02-18,2026-02-18,八咫産業株式会社,,株式会社,愛知県,名古屋市中村区,名駅３丁目１番２号,,23,105,4500002,,,,,,,2026-02-18,1,,,,,ヤタサンギョウ,0
2149,9180001170709,新規,0,2026-02-18,2026-02-18,フロントロー株式会社,,株式会社,愛知県,名古屋市中川区,供米田１丁目１００６番地,,23,110,4540984,,,,,,,2026-02-18,1,,,,,フロントロー,0
2150,9180003029795,新規,0,2026-02-18,2026-02-18,ＩＭＫエステート合同会社,,合同会社,愛知県,名古屋市中村区,日吉町３０番地の３ＩＭＫビル２０２,,23,105,4530029,,,,,,,2026-02-18,1,,,,,アイエムケイエステート,0
2151,9180003029804,新規,0,2026-02-18,2026-02-18,合同会社紀州ダイナー,,合同会社,愛知県,名古屋市中区,栄３丁目１２番地１４号プリンセス遠山ビル１階Ａ号室,,23,106,4600008,,,,,,,2026-02-18,1,,,,,キシュウダイナー,0
2152,9180005021429,新規,0,2026-02-18,2026-02-18,行政書士法人タスクール,,その他の設立登記法人,愛知県,名古屋市千種区,千種通７丁目２５番地,,23,101,4640855,,,,,,,2026-02-18,1,,,,,タスクール,0
2159,9230001021311,新規,0,2026-02-18,2026-02-18,株式会社ＳＡＬＩＳＨ,,株式会社,富山県,砺波市,太郎丸６５６８番地１,,16,208,9391363,,,,,,,2026-02-18,1,,,,,サリッシュ,0
2166,9260001040993,新規,0,2026-02-18,2026-02-18,株式会社渡り鳥,,株式会社,岡山県,美作市,上福原１１１９番地,,33,215,7094246,,,,,,,2026-02-18,1,,,,,ワタリドリ,0
2174,9290001113169,新規,0,2026-02-18,2026-02-18,株式会社ＭＩＺＵＫＩＣＨＩ　Ｌａｂ,,株式会社,福岡県,福岡市博多区,博多駅前１丁目２３番２号ＰａｒｋＦｒｏｎｔ博多駅前１丁目５Ｆ－Ｂ,,40,132,8120011,,,,,,,2026-02-18,1,,,,,ミズキチラボ,0
2175,9290001113193,新規,0,2026-02-18,2026-02-18,株式会社ほてぴか,,株式会社,福岡県,福岡市博多区,神屋町３番５号１階,,40,132,8120022,,,,,,,2026-02-18,1,,,,,ホテピカ,0
2178,9290005020007,新規,0,2026-02-18,2026-02-18,一般社団法人古賀市相談支援ネットワーク,,その他の設立登記法人,福岡県,古賀市,中央５丁目３番１５号,,40,223,8113103,,,,,,,2026-02-18,1,,,,,コガシソウダンシエンネットワーク,0
2181,9290801032254,新規,0,2026-02-18,2026-02-18,株式会社栄進,,株式会社,福岡県,直方市,大字下新入１３１７番地１０９,,40,204,8220032,,,,,,,2026-02-18,1,,,,,エイシン,0
2182,9320001021582,新規,0,2026-02-18,2026-02-18,株式会社モータードック,,株式会社,大分県,佐伯市,大字上岡３４００番地１,,44,205,8760045,,,,,,,2026-02-18,1,,,,,モータードック,0
2187,9340001027982,新規,0,2026-02-18,2026-02-18,株式会社西馬場製茶,,株式会社,鹿児島県,南さつま市,金峰町尾下２１１４番地,,46,220,8993403,,,,,,,2026-02-18,1,,,,,ニシババセイチャ,0
2188,9350001019946,新規,0,2026-02-18,2026-02-18,株式会社イワイ,,株式会社,宮崎県,都城市,祝吉１丁目２番地３,,45,202,8850019,,,,,,,2026-02-18,1,,,,,イワイ,0
2192,9350005006354,新規,0,2026-02-18,2026-02-18,一般社団法人サロン・ミライ・パートナーズ,,その他の設立登記法人,宮崎県,宮崎市,月見ケ丘５丁目３９番１０号,,45,201,8800926,,,,,,,2026-02-18,1,,,,,サロンミライパートナーズ,0
2196,9370003007476,新規,0,2026-02-18,2026-02-18,ｍｙｎ合同会社,,合同会社,宮城県,仙台市青葉区,上愛子字北原道上２‐３３,,04,101,9893124,,,,,,,2026-02-18,1,,,,,エムワイエヌ,0
2201,9430001096291,新規,0,2026-02-18,2026-02-18,ＲＩＧＨＴ　ＡＲＭＳ株式会社,,株式会社,北海道,札幌市中央区,南二条西９丁目１番地２３ラソレイユ４０２号,,01,101,0600062,,,,,,,2026-02-18,1,,,,,ライトアームズ,0
2203,9430003018599,新規,0,2026-02-18,2026-02-18,合同会社Ｅａｓｔ　Ｂｒｅｅｚｅ,,合同会社,北海道,砂川市,宮城の沢１４－４,,01,226,0730125,,,,,,,2026-02-18,1,,,,,イーストブリーズ,0
2204,9430003018608,新規,0,2026-02-18,2026-02-18,ＥＮＤＯ　ＢＡＳＥ合同会社,,合同会社,北海道,伊達市,舟岡町１９０番地１１Ｖｅｓｓｅｌ　ＨｉｌｌｓＩＩ２０２号室,00142615,01,233,0520014,,,,,,,2026-02-18,1,,,,,エンドウベース,0
2207,9470005006680,新規,0,2026-02-18,2026-02-18,一般社団法人放課後共創基金,,その他の設立登記法人,香川県,三豊市,高瀬町下勝間２３７３番地１,,37,208,7670011,,,,,,,2026-02-18,1,,,,,ホウカゴキョウソウキキン,0
2210,9700150134543,新規,0,2026-02-18,2026-02-18,Ａｓａｎｋａ　Ｅｎｔｅｒｐｒｉｓｅｓ,,外国会社等,茨城県,龍ケ崎市,大徳町２２３長谷川コーポ２１０号,,08,208,3010816,６／１　Ｓｅｅｒａｄｕｎｎａ，Ｔｈａｌｖｉｔａ　ｓｒｉ　ｌａｎｋａ,,,,,,2026-02-18,1,,,,,アサンカエンタープライズ,0
