sequenceNumber,corporateNumber,process,correct,updateDate,changeDate,name,nameImageId,kind,prefectureName,cityName,streetNumber,addressImageId,prefectureCode,cityCode,postCode,addressOutside,addressOutsideImageId,closeDate,closeCause,successorCorporateNumber,changeCause,assignmentDate,latest,enName,enPrefectureName,enCityName,enAddressOutside,furigana,hihyoji
8,1010001248693,新規,0,2024-10-03,2024-10-03,ＢＯＮＯＯＫ株式会社,,株式会社,東京都,中央区,銀座１丁目１２番４号Ｎ＆ＥＢＬＤＧ．６Ｆ,,13,102,1040061,,,,,,,2024-10-03,1,,,,,ボヌーク,0
9,1010001248735,新規,0,2024-10-03,2024-10-03,株式会社ＰＳＫ,,株式会社,東京都,中央区,銀座１丁目２２番１１号銀座大竹ビジデンス２Ｆ,,13,102,1040061,,,,,,,2024-10-03,1,,,,,ピーエスケー,0
10,1010001248751,新規,0,2024-10-03,2024-10-03,ＢＥＸソリューションズ株式会社,,株式会社,東京都,千代田区,麹町２丁目５番地１８,,13,101,1020083,,,,,,,2024-10-03,1,,,,,ベックスソリューションズ,0
11,1010003045032,新規,0,2024-10-03,2024-10-03,合同会社ＳＯＳｉＬＡプライベートファンド２,,合同会社,東京都,中央区,京橋２丁目１２番６号ＡＯＪ税理士法人内,,13,102,1040031,,,,,,,2024-10-03,1,,,,,ソシラプライベートファンドセカンド,0
12,1010003045040,新規,0,2024-10-03,2024-10-03,合同会社ＲＡＭ,,合同会社,東京都,千代田区,永田町２丁目１２番４号,,13,101,1000014,,,,,,,2024-10-03,1,,,,,アールエーエム,0
13,1010003045107,新規,0,2024-10-03,2024-10-03,芳春合同会社,,合同会社,東京都,中央区,日本橋室町１丁目１１番１２号日本橋水野ビル７階,,13,102,1030022,,,,,,,2024-10-03,1,,,,,ホウシュン,0
24,1010401185479,新規,0,2024-10-03,2024-10-03,リノア株式会社,,株式会社,東京都,港区,芝大門１丁目６番８号,,13,103,1050012,,,,,,,2024-10-03,1,,,,,リノア,0
25,1010401185553,新規,0,2024-10-03,2024-10-03,株式会社Ｔｅｎ‐Ｄａｙｓ,,株式会社,東京都,港区,南青山３丁目１番３６号青山丸竹ビル６Ｆ,,13,103,1070062,,,,,,,2024-10-03,1,,,,,テンデイズ,0
26,1010403033529,新規,0,2024-10-03,2024-10-03,のぞみ下大貫ソーラー合同会社,,合同会社,東京都,港区,芝５丁目２９番１９号ＰＭＯ田町ＩＶ８階,00136483,13,103,1080014,,,,,,,2024-10-03,1,,,,,ノゾミシモオオヌキソーラー,0
28,1010405023569,新規,0,2024-10-03,2024-10-03,一般社団法人麟,,その他の設立登記法人,東京都,港区,南青山５丁目１３番１号ＡＲＡＩビル７階,,13,103,1070062,,,,,,,2024-10-03,1,,,,,リン,0
29,1010405023635,新規,0,2024-10-03,2024-10-03,一般社団法人のぞみ鹿沼折戸ソーラー,,その他の設立登記法人,東京都,港区,芝５丁目２９番１９号ＰＭＯ田町ＩＶ８階,00136470,13,103,1080014,,,,,,,2024-10-03,1,,,,,ノゾミカヌマオリドソーラー,0
30,1010501052967,新規,0,2024-10-03,2024-10-03,株式会社Ｒｅｓｉｌｉ,,株式会社,東京都,台東区,東上野４丁目１７－７藤和上野コープ４０２,,13,106,1100015,,,,,,,2024-10-03,1,,,,,レジリ,0
31,1010501052975,新規,0,2024-10-03,2024-10-03,盛龍株式会社,,株式会社,東京都,台東区,清川１丁目２１－５ＷＡＬＬａｐａｒｔｍｅｎｔ５階大区画号,,13,106,1110022,,,,,,,2024-10-03,1,,,,,セイリュウ,0
32,1010601066025,新規,0,2024-10-03,2024-10-03,株式会社Ｄｅｎｏｖａ,,株式会社,東京都,江東区,木場５丁目４番１号プラウドフラット木場ＩＩ,00136493,13,108,1350042,,,,,,,2024-10-03,1,,,,,デノバ,0
33,1010601066041,新規,0,2024-10-03,2024-10-03,株式会社せんちる,,株式会社,東京都,墨田区,東向島６丁目１１―９ドーレラルジェ６Ｆ,,13,107,1310032,,,,,,,2024-10-03,1,,,,,センチル,0
35,1010903009391,新規,0,2024-10-03,2024-10-03,合同会社ＨＣＰ　Ｍｅｄｉａ,,合同会社,東京都,世田谷区,砧２丁目１６‐１‐３０７,,13,112,1570073,,,,,,,2024-10-03,1,,,,,エイチシーピーメディア,0
36,1010903009409,新規,0,2024-10-03,2024-10-03,合同会社バイリンガル,,合同会社,東京都,世田谷区,上馬３丁目１３番１３号サンクレメンテ駒沢３０３,,13,112,1540011,,,,,,,2024-10-03,1,,,,,バイリンガル,0
40,1011001164914,新規,0,2024-10-03,2024-10-03,株式会社ＣｌｅａｎＬｉｆｅ,,株式会社,東京都,渋谷区,代々木３丁目４６番１６号,,13,113,1510053,,,,,,,2024-10-03,1,,,,,クリーンライフ,0
41,1011001164955,新規,0,2024-10-03,2024-10-03,株式会社ＣＪＢ,,株式会社,東京都,目黒区,目黒本町４丁目１６番６号,,13,110,1520002,,,,,,,2024-10-03,1,,,,,シジェビ,0
42,1011003020124,新規,0,2024-10-03,2024-10-03,合同会社ＳＡＰＯＮ,,合同会社,東京都,渋谷区,恵比寿西２丁目８番５号高麗羅ビル３階,,13,113,1500021,,,,,,,2024-10-03,1,,,,,サポン,0
48,1011101108944,新規,0,2024-10-03,2024-10-03,株式会社Ｐａｂｌｅ,,株式会社,東京都,新宿区,大久保１丁目６番１２号花岡ビル２階,,13,104,1690072,,,,,,,2024-10-03,1,,,,,ピエイブル,0
49,1011101108960,新規,0,2024-10-03,2024-10-03,海力達株式会社,,株式会社,東京都,新宿区,高田馬場３丁目２３－５リベラル高田馬場Ｂ１,,13,104,1690075,,,,,,,2024-10-03,1,,,,,カイリダ,0
51,1011201025825,新規,0,2024-10-03,2024-10-03,株式会社ＹＡＭＡＺＯＯ,,株式会社,東京都,中野区,鷺宮６丁目３０番２２号,,13,114,1650032,,,,,,,2024-10-03,1,,,,,ヤマゾー,0
56,1011701027676,新規,0,2024-10-03,2024-10-03,ＳＩＭＰＬＥＣＬＥＡＮ株式会社,,株式会社,東京都,江戸川区,江戸川６丁目４０番１４－２０５号,,13,123,1340013,,,,,,,2024-10-03,1,,,,,シンプルクリーン,0
57,1011801044919,新規,0,2024-10-03,2024-10-03,株式会社スリーキューブ,,株式会社,東京都,葛飾区,新宿３丁目５番１－２０５号,,13,122,1250051,,,,,,,2024-10-03,1,,,,,スリーキューブ,0
58,1011803006487,新規,0,2024-10-03,2024-10-03,合同会社Ｎｅｘｔ　Ａｃｔｉｏｎ,,合同会社,東京都,葛飾区,西亀有４丁目１２番５－１０４号,,13,122,1250002,,,,,,,2024-10-03,1,,,,,ネクストアクション,0
59,1012403006778,新規,0,2024-10-03,2024-10-03,合同会社ＹＡＭＯＬＩ,,合同会社,東京都,府中市,四谷５丁目４１－２０グランシティ東京ウエスト４０４,,13,206,1830035,,,,,,,2024-10-03,1,,,,,ヤモリ,0
61,1012701018475,新規,0,2024-10-03,2024-10-03,極星Ｇｌｏｂａｌ　Ｊａｐａｎ株式会社,,株式会社,東京都,西東京市,新町１丁目１３－１２デュエット新町１０２,,13,229,2020023,,,,,,,2024-10-03,1,,,,,キョクセイグローバルジャパン,0
62,1013301053144,新規,0,2024-10-03,2024-10-03,越正信株式会社,,株式会社,東京都,豊島区,高田３丁目４－１０－３０３号室,,13,116,1710033,,,,,,,2024-10-03,1,,,,,エツセイシン,0
63,1013301053152,新規,0,2024-10-03,2024-10-03,株式会社Ｕ‐ＲＩＭＳ東京,,株式会社,東京都,豊島区,高田３丁目１５番５号３Ｆ,,13,116,1710033,,,,,,,2024-10-03,1,,,,,ユーリムズトウキョウ,0
69,1020001159345,新規,0,2024-10-03,2024-10-03,クイック株式会社,,株式会社,神奈川県,川崎市宮前区,菅生２丁目８番８号,,14,136,2160015,,,,,,,2024-10-03,1,,,,,クイック,0
70,1020001159378,新規,0,2024-10-03,2024-10-03,トランクライト株式会社,,株式会社,神奈川県,横浜市旭区,上白根１丁目３８番１２号,,14,112,2410002,,,,,,,2024-10-03,1,,,,,トランクライト,0
71,1020001159394,新規,0,2024-10-03,2024-10-03,株式会社カーボンＲＳ,,株式会社,神奈川県,横浜市中区,相生町５丁目８０番地相生ビル４０４,,14,104,2310012,,,,,,,2024-10-03,1,,,,,カーボンアールエス,0
75,1021001083386,新規,0,2024-10-03,2024-10-03,株式会社楽要,,株式会社,神奈川県,藤沢市,遠藤１０４番地の１０,,14,205,2520816,,,,,,,2024-10-03,1,,,,,ラクヨウ,0
86,1030001162661,新規,0,2024-10-03,2024-10-03,株式会社Ｙａｔｃｈｉ,,株式会社,埼玉県,所沢市,喜多町２番１７号,,11,208,3591113,,,,,,,2024-10-03,1,,,,,ヤッチ,0
87,1030001162711,新規,0,2024-10-03,2024-10-03,株式会社ＲＡＩＮ,,株式会社,埼玉県,上尾市,大字瓦葺２４１７番地３,,11,219,3620022,,,,,,,2024-10-03,1,,,,,レイン,0
88,1030001162760,新規,0,2024-10-03,2024-10-03,株式会社Ｔ．Ｔカーズ,,株式会社,埼玉県,三郷市,三郷３丁目１６番地２,,11,237,3410024,,,,,,,2024-10-03,1,,,,,ティーティーカーズ,0
89,1030003025230,新規,0,2024-10-03,2024-10-03,エルセレクト合同会社,,合同会社,埼玉県,南埼玉郡宮代町,笠原２丁目６番１０号,,11,442,3450822,,,,,,,2024-10-03,1,,,,,エルセレクト,0
90,1030003025239,新規,0,2024-10-03,2024-10-03,合同会社ＵＰＰＥＲ　ＷＲＡＰＰＥＲ,,合同会社,埼玉県,さいたま市大宮区,桜木町２丁目３３５番地１－１２０１号,,11,103,3300854,,,,,,,2024-10-03,1,,,,,アッパーラッパー,0
96,1040001135609,新規,0,2024-10-03,2024-10-03,株式会社まはろあ,,株式会社,千葉県,習志野市,谷津１丁目１７番８号ＳＡＫビル１０１号,,12,216,2750026,,,,,,,2024-10-03,1,,,,,マハロア,0
97,1040001135617,新規,0,2024-10-03,2024-10-03,株式会社ＮＡオートサービス,,株式会社,千葉県,船橋市,習志野台２丁目１３番２７号,,12,204,2740063,,,,,,,2024-10-03,1,,,,,エヌエーオートサービス,0
98,1040001135625,新規,0,2024-10-03,2024-10-03,Ｍ＆Ｔコンサルティング株式会社,,株式会社,千葉県,千葉市花見川区,幕張本郷２丁目４０番１５号,,12,102,2620033,,,,,,,2024-10-03,1,,,,,エムアンドティーコンサルティング,0
99,1040001135674,新規,0,2024-10-03,2024-10-03,株式会社ＮＥＷＷＡＸ,,株式会社,千葉県,佐倉市,藤沢町４４番地１,,12,212,2850036,,,,,,,2024-10-03,1,,,,,ニューワックス,0
101,1040003025907,新規,0,2024-10-03,2024-10-03,合同会社えびすファーム,,合同会社,千葉県,八街市,八街は１５番地１７４ＴＫハイツＩ－１０１号室,00136489,12,230,2891107,,,,,,,2024-10-03,1,,,,,エビスファーム,0
106,1060003005270,新規,0,2024-10-03,2024-10-03,合同会社麻心,,合同会社,栃木県,宇都宮市,宝木本町１６７４番地３３,,09,201,3200075,,,,,,,2024-10-03,1,,,,,マゴコロ,0
111,1070001042224,新規,0,2024-10-03,2024-10-03,株式会社塩島空調,,株式会社,群馬県,館林市,赤土町６７番地の１１,,10,207,3740053,,,,,,,2024-10-03,1,,,,,シオジマクウチョウ,0
112,1070001042249,新規,0,2024-10-03,2024-10-03,株式会社Ｌ＆Ｓ,,株式会社,群馬県,高崎市,新町１４１８番地９,,10,202,3701301,,,,,,,2024-10-03,1,,,,,エルアンドエス,0
118,1080401027484,新規,0,2024-10-03,2024-10-03,株式会社ビリーフ,,株式会社,静岡県,掛川市,大池３００８番地,,22,213,4360043,,,,,,,2024-10-03,1,,,,,ビリーフ,0
119,1080403005109,新規,0,2024-10-03,2024-10-03,なないろ合同会社,,合同会社,静岡県,菊川市,堀之内１２６０番地,,22,224,4390006,,,,,,,2024-10-03,1,,,,,ナナイロ,0
120,1080403005117,新規,0,2024-10-03,2024-10-03,合同会社ＯＮＥ　ＤＲＥＡＭＳ,,合同会社,静岡県,掛川市,城西１丁目１２番１号,,22,213,4360054,,,,,,,2024-10-03,1,,,,,ワンドリームズ,0
122,1090001018932,新規,0,2024-10-03,2024-10-03,株式会社わんふぁんＯＨＡＮＡ,,株式会社,山梨県,南都留郡山中湖村,平野１４８８－１,,19,425,4010502,,,,,,,2024-10-03,1,,,,,ワンファンオハナ,0
124,1100001037897,新規,0,2024-10-03,2024-10-03,株式会社山岳匠索社,,株式会社,長野県,須坂市,大字仁礼１０６２番地１,,20,207,3820000,,,,,,,2024-10-03,1,,,,,サンガクタクサクシャ,0
125,1110003005538,新規,0,2024-10-03,2024-10-03,合同会社本田エクステリア,,合同会社,新潟県,新発田市,富塚町２丁目７番２９号,,15,206,9570062,,,,,,,2024-10-03,1,,,,,ホンダエクステリア,0
137,1120001268937,新規,0,2024-10-03,2024-10-03,株式会社オーエルエフ,,株式会社,大阪府,大阪市中央区,内久宝寺町４丁目１番７－３４０７号,,27,128,5400013,,,,,,,2024-10-03,1,,,,,オーエルエフ,0
138,1120001268978,新規,0,2024-10-03,2024-10-03,株式会社Ａｍｅｎｔ,,株式会社,大阪府,大阪市北区,梅田１丁目２番２号大阪駅前第２ビル１２－１２,,27,127,5300001,,,,,,,2024-10-03,1,,,,,エーメント,0
139,1120001269002,新規,0,2024-10-03,2024-10-03,株式会社Ｋａｒａｓｕ　Ｓｔｕｄｉｏ,,株式会社,大阪府,大阪市東淀川区,西淡路１丁目６番１３号新大阪東ビル１０１,,27,114,5330031,,,,,,,2024-10-03,1,,,,,カラススタジオ,0
141,1120003027655,新規,0,2024-10-03,2024-10-03,ＥＳコンサルティング合同会社,,合同会社,大阪府,大阪市住吉区,東粉浜２丁目２１－１４,,27,120,5580051,,,,,,,2024-10-03,1,,,,,イーエスコンサルティング,0
156,1130001078022,新規,0,2024-10-03,2024-10-03,伊富株式会社,,株式会社,京都府,京都市中京区,末丸町２８３－２－１Ｆ,,26,104,6040901,,,,,,,2024-10-03,1,,,,,イブ,0
157,1130001078039,新規,0,2024-10-03,2024-10-03,株式会社都旅,,株式会社,京都府,京都市南区,大宮通八条下る九条町４１２番地２０,,26,107,6018473,,,,,,,2024-10-03,1,,,,,ミヤコタビ,0
158,1130001078071,新規,0,2024-10-03,2024-10-03,創菜株式会社,,株式会社,京都府,京都市上京区,西三本木通丸太町上る真町４８３アビ岡本４０３号室,,26,102,6020866,,,,,,,2024-10-03,1,,,,,ソウサイ,0
161,1130003009891,新規,0,2024-10-03,2024-10-03,Ｎｏｖａ　Ｏｒｄｏ合同会社,,合同会社,京都府,京都市下京区,七条通油小路東入大黒町２２７番地第２キョートビル４０２,,26,106,6008223,,,,,,,2024-10-03,1,,,,,ノヴァオルド,0
162,1130003009900,新規,0,2024-10-03,2024-10-03,合同会社ＭＩＤＷ,,合同会社,京都府,京都市下京区,西洞院通高辻下る高辻西洞院町８０１番地９,00136507,26,106,6008465,,,,,,,2024-10-03,1,,,,,メドウ,0
163,1130005017199,新規,0,2024-10-03,2024-10-03,行政書士法人ＳＫＹ・京都事務所,,その他の設立登記法人,京都府,京都市下京区,西錺屋町１６－２眞栄五條ビルヂング４Ｆ,,26,106,6000000,,,,,,,2024-10-03,1,,,,,スカイキョウトジムショ,0
168,1140001135945,新規,0,2024-10-03,2024-10-03,株式会社ｉｎｈｅｒｉｔ,,株式会社,兵庫県,神戸市北区,上津台４丁目８番２６－１号,,28,109,6511515,,,,,,,2024-10-03,1,,,,,インヘリット,0
169,1140001135953,新規,0,2024-10-03,2024-10-03,株式会社神戸の台所,,株式会社,兵庫県,神戸市垂水区,塩屋町１丁目５番２８号,,28,108,6550872,,,,,,,2024-10-03,1,,,,,コウベノダイドコロ,0
170,1140001135986,新規,0,2024-10-03,2024-10-03,株式会社ジョイスト,,株式会社,兵庫県,明石市,二見町西二見７４１番地の１３,,28,203,6740094,,,,,,,2024-10-03,1,,,,,ジョイスト,0
171,1140001136002,新規,0,2024-10-03,2024-10-03,ソリューションアシスト株式会社,,株式会社,兵庫県,神戸市須磨区,菅の台７丁目３７番地の２７,,28,107,6540143,,,,,,,2024-10-03,1,,,,,ソリューションアシスト,0
175,1160001026250,新規,0,2024-10-03,2024-10-03,詠電機株式会社,,株式会社,滋賀県,大津市,雄琴６丁目１１番２４号,,25,201,5200101,,,,,,,2024-10-03,1,,,,,エイデンキ,0
176,1170001001293,新規,0,2024-10-03,2024-10-03,坂口不動産株式会社,,株式会社,和歌山県,和歌山市,神前３７６番地１,,30,201,6408314,,,,,,,2024-10-03,1,,,,,サカグチフドウサン,0
177,1170001018321,新規,0,2024-10-03,2024-10-03,株式会社ＰＲＯＪＥＣＴＱ,,株式会社,和歌山県,日高郡印南町,大字印南４３６５番地,,30,390,6491534,,,,,,,2024-10-03,1,,,,,,0
187,1180001163422,新規,0,2024-10-03,2024-10-03,株式会社泰水設備,,株式会社,愛知県,名古屋市中川区,南脇町３丁目６７番地ハイツアカネ１階,,23,110,4540817,,,,,,,2024-10-03,1,,,,,タイスイセツビ,0
188,1180001163430,新規,0,2024-10-03,2024-10-03,株式会社明星空調設備,,株式会社,愛知県,春日井市,稲口町３丁目１８番地２３,,23,206,4860905,,,,,,,2024-10-03,1,,,,,ミョウジョウクウチョウセツビ,0
189,1180001163455,新規,0,2024-10-03,2024-10-03,株式会社フジリアルエステート３号,,株式会社,愛知県,名古屋市東区,代官町３５番１６号,,23,102,4610002,,,,,,,2024-10-03,1,,,,,フジリアルエステートサンゴウ,0
190,1180001163471,新規,0,2024-10-03,2024-10-03,株式会社Ｔｏｎｅ,,株式会社,愛知県,岩倉市,栄町１丁目４１番地,,23,228,4820022,,,,,,,2024-10-03,1,,,,,トーン,0
191,1180001163496,新規,0,2024-10-03,2024-10-03,株式会社山富,,株式会社,愛知県,瀬戸市,南菱野町１３７番地,,23,204,4890937,,,,,,,2024-10-03,1,,,,,サントミ,0
192,1180003027393,新規,0,2024-10-03,2024-10-03,Ｃｏ‐Ｄｏｎｅ合同会社,,合同会社,愛知県,名古屋市北区,楠４丁目４２０番地の４,,23,103,4620012,,,,,,,2024-10-03,1,,,,,コドン,0
193,1180003027402,新規,0,2024-10-03,2024-10-03,合同会社ＴＯＯＴ,,合同会社,愛知県,名古屋市中区,平和２丁目８番３０号ディアレイシャス東別院７０３号,,23,106,4600021,,,,,,,2024-10-03,1,,,,,トゥート,0
194,1180301039033,新規,0,2024-10-03,2024-10-03,日本洋瓦株式会社,,株式会社,愛知県,碧南市,松江町１丁目１番地,,23,209,4470868,,,,,,,2024-10-03,1,,,,,,0
196,1190001031677,新規,0,2024-10-03,2024-10-03,南極星株式会社,,株式会社,三重県,四日市市,釆女町３０５番地１パステル２０２,,24,202,5100954,,,,,,,2024-10-03,1,,,,,ナンキョクセイ,0
197,1190001031693,新規,0,2024-10-03,2024-10-03,株式会社オクダホールディングス,,株式会社,三重県,名張市,鴻之台２番町１２６番地,,24,208,5180702,,,,,,,2024-10-03,1,,,,,オクダホールディングス,0
198,1190002017782,新規,0,2024-10-03,2024-10-03,中村電気土木有限会社,,有限会社,三重県,員弁郡東員町,大字大木２５６０番地,,24,324,5110244,,,,,,,2024-10-03,1,,,,,ナカムラデンキドボク,0
202,1200001042986,新規,0,2024-10-03,2024-10-03,株式会社和田,,株式会社,岐阜県,高山市,朝日町２３番地,,21,203,5060017,,,,,,,2024-10-03,1,,,,,ワダ,0
205,1200003006527,新規,0,2024-10-03,2024-10-03,合同会社珈琲屋らんぷ瑞浪店,,合同会社,岐阜県,瑞浪市,益見町１丁目１１３番地,,21,208,5096108,,,,,,,2024-10-03,1,,,,,コーヒーヤランプミズナミテン,0
207,1220001026252,新規,0,2024-10-03,2024-10-03,株式会社ｒｅａｌｉｓｅ,,株式会社,石川県,金沢市,車町６０番地,,17,201,9200157,,,,,,,2024-10-03,1,,,,,リアライズ,0
209,1230003002309,新規,0,2024-10-03,2024-10-03,合同会社ＶＣＰＩ,,合同会社,富山県,砺波市,杉木２丁目１２１,,16,208,9391355,,,,,,,2024-10-03,1,,,,,ヴィクピー,0
210,1240001063871,新規,0,2024-10-03,2024-10-03,株式会社ＫＣ,,株式会社,広島県,広島市中区,富士見町１３番１３号５Ｆ,,34,101,7300043,,,,,,,2024-10-03,1,,,,,ケーシー,0
211,1240001063888,新規,0,2024-10-03,2024-10-03,株式会社あひるアミューズメント,,株式会社,広島県,広島市中区,立町６番３号,,34,101,7300032,,,,,,,2024-10-03,1,,,,,アヒルアミューズメント,0
212,1240001063905,新規,0,2024-10-03,2024-10-03,株式会社ＥＭＭＥＴＴ,,株式会社,広島県,東広島市,西条町寺家４９７１番地５エスポワールＡー１,,34,212,7390041,,,,,,,2024-10-03,1,,,,,エメット,0
214,1250001020839,新規,0,2024-10-03,2024-10-03,ｋｉｒａｒａｈｍｍ株式会社,,株式会社,山口県,宇部市,神原町１丁目４番５号,,35,202,7550022,,,,,,,2024-10-03,1,,,,,キララエイチエムエム,0
215,1250005008954,新規,0,2024-10-03,2024-10-03,一般社団法人まえば子育て支援事業,,その他の設立登記法人,山口県,山口市,矢原１０８５番地１,,35,203,7530861,,,,,,,2024-10-03,1,,,,,マエバコソダテシエンジギョウ,0
220,1260001039507,新規,0,2024-10-03,2024-10-03,株式会社Ｓ＆Ｉ,,株式会社,岡山県,岡山市北区,内山下２丁目６番１６号,,33,101,7000824,,,,,,,2024-10-03,1,,,,,エスアンドアイ,0
231,1310001019230,新規,0,2024-10-03,2024-10-03,株式会社ＢＥＳＴｉｅ,,株式会社,長崎県,長崎市,松山町４番４０号,,42,201,8528118,,,,,,,2024-10-03,1,,,,,,0
236,1320003004485,新規,0,2024-10-03,2024-10-03,合同会社ＡＳＯＢＩ,,合同会社,大分県,大分市,都町３丁目２番２３号田中ビル４Ｆ,,44,201,8700034,,,,,,,2024-10-03,1,,,,,アソビ,0
237,1330001032504,新規,0,2024-10-03,2024-10-03,株式会社ＬＵＣＥＮＴ,,株式会社,熊本県,熊本市東区,佐土原３丁目１１番２１号,,43,102,8620916,,,,,,,2024-10-03,1,,,,,ルーセント,0
238,1340001026827,新規,0,2024-10-03,2024-10-03,株式会社だんだん,,株式会社,鹿児島県,出水郡長島町,山門野４０９３番地,,46,404,8991211,,,,,,,2024-10-03,1,,,,,ダンダン,0
240,1340003004624,新規,0,2024-10-03,2024-10-03,合同会社Ｃａｎａｒｉｙａ,,合同会社,鹿児島県,鹿児島市,中町３番１０号日専連ビル２－Ｂ,,46,201,8920827,,,,,,,2024-10-03,1,,,,,カナリヤ,0
246,1360001034274,新規,0,2024-10-03,2024-10-03,株式会社ｇｉｒａｓｏｌｅ,,株式会社,沖縄県,豊見城市,字豊見城７０２番地１コート・ルーチェ２０４号室,,47,212,9010241,,,,,,,2024-10-03,1,,,,,ジラソーレ,0
247,1360003014332,新規,0,2024-10-03,2024-10-03,３ＰＲＯＪＥＣＴ合同会社,,合同会社,沖縄県,豊見城市,字瀬長１７４番地６ウミカジテラス１ＦＮｏ．３,,47,212,9010233,,,,,,,2024-10-03,1,,,,,スリープロジェクト,0
248,1360005007103,新規,0,2024-10-03,2024-10-03,一般社団法人いーまーる,,その他の設立登記法人,沖縄県,那覇市,辻２丁目２７番１号,00136497,47,201,9000037,,,,,,,2024-10-03,1,,,,,イーマール,0
255,1390001017755,新規,0,2024-10-03,2024-10-03,株式会社山形蒸溜所,,株式会社,山形県,寒河江市,字中河原１１９番地５,,06,206,9910005,,,,,,,2024-10-03,1,,,,,ヤマガタジョウリュウジョ,0
257,1400001016813,新規,0,2024-10-03,2024-10-03,株式会社華一建設,,株式会社,岩手県,盛岡市,松園１丁目２６番１０号,,03,201,0200107,,,,,,,2024-10-03,1,,,,,ハナイチケンセツ,0
262,1430001092769,新規,0,2024-10-03,2024-10-03,株式会社ａｏｓｏｌａ,,株式会社,北海道,千歳市,みどり台北２丁目１０番６号,,01,224,0660083,,,,,,,2024-10-03,1,,,,,アオソラ,0
263,1430001092827,新規,0,2024-10-03,2024-10-03,株式会社皇佳ホリデー,,株式会社,北海道,札幌市西区,発寒六条８丁目６番２－５０２号,,01,107,0630826,,,,,,,2024-10-03,1,,,,,キミカホリデー,0
268,1430005015081,新規,0,2024-10-03,2024-10-03,一般財団法人阿部修平北海道創生基金,,その他の設立登記法人,北海道,札幌市中央区,北四条西４丁目１番地７ＭＭＳ札幌駅前ビル１階,,01,101,0600004,,,,,,,2024-10-03,1,,,,,アベシュウヘイホッカイドウソウセイキキン,0
275,1500001025911,新規,0,2024-10-03,2024-10-03,エヌ・アルファ株式会社,,株式会社,愛媛県,松山市,東垣生町８３９－３,,38,201,7918043,,,,,,,2024-10-03,1,,,,,エヌアルファ,0
284,2010001248718,新規,0,2024-10-03,2024-10-03,１Ｍｉｒａｉ　ＫＫＲ株式会社,,株式会社,東京都,千代田区,丸の内２丁目２番１号岸本ビルディング７階,,13,101,1000005,,,,,,,2024-10-03,1,,,,,ワンミライケーケーアール,0
285,2010001248726,新規,0,2024-10-03,2024-10-03,ボールドワン株式会社,,株式会社,東京都,千代田区,平河町２丁目１２番１３－３２号室,,13,101,1020093,,,,,,,2024-10-03,1,,,,,ボールドワン,0
293,2010101016347,新規,0,2024-10-03,2024-10-03,株式会社ＦＬＯＷＥＲＩＮＧ．,,株式会社,東京都,八王子市,横川町５２１番地５横川平野ビル１Ｆ,,13,201,1930823,,,,,,,2024-10-03,1,,,,,フラワーリング,0
300,2010401185362,新規,0,2024-10-03,2024-10-03,株式会社Ｃ‐ｓｕｉｔｅコンサルティング,,株式会社,東京都,港区,高輪３丁目１０番１５－２０６号,,13,103,1080074,,,,,,,2024-10-03,1,,,,,シースィートコンサルティング,0
301,2010401185478,新規,0,2024-10-03,2024-10-03,株式会社エシュレオム,,株式会社,東京都,港区,南麻布１丁目５番４号,,13,103,1060047,,,,,,,2024-10-03,1,,,,,エシュレオム,0
305,2010403033528,新規,0,2024-10-03,2024-10-03,のぞみ鹿沼折戸ソーラー合同会社,,合同会社,東京都,港区,芝５丁目２９番１９号ＰＭＯ田町ＩＶ８階,00136482,13,103,1080014,,,,,,,2024-10-03,1,,,,,ノゾミカヌマオリドソーラー,0
306,2010403033536,新規,0,2024-10-03,2024-10-03,合同会社宮崎バイオマス１号,,合同会社,東京都,港区,芝浦３丁目２－２９,,13,103,1080023,,,,,,,2024-10-03,1,,,,,ミヤザキバイオマスイチゴウ,0
307,2010405023568,新規,0,2024-10-03,2024-10-03,一般社団法人日本猿まわし協会,,その他の設立登記法人,東京都,港区,赤坂５丁目４－１３ホワイト赤坂ビル,,13,103,1070052,,,,,,,2024-10-03,1,,,,,ニホンサルマワシキョウカイ,0
308,2010405023634,新規,0,2024-10-03,2024-10-03,一般社団法人のぞみ折戸ソーラー,,その他の設立登記法人,東京都,港区,芝５丁目２９番１９号ＰＭＯ田町ＩＶ８階,00136469,13,103,1080014,,,,,,,2024-10-03,1,,,,,ノゾミオリドソーラー,0
311,2010701046628,新規,0,2024-10-03,2024-10-03,ｉｎｆｉｎｉｔｅ　ｓｏｌｕｔｉｏｎ株式会社,,株式会社,東京都,品川区,東品川３丁目１４－５東品川パークハイツ５０７,,13,109,1400002,,,,,,,2024-10-03,1,,,,,インフィニットソリューション,0
316,2010901056047,新規,0,2024-10-03,2024-10-03,株式会社リジェネーラコーヒー,,株式会社,東京都,世田谷区,玉川１丁目１５番２－２６１１号,,13,112,1580094,,,,,,,2024-10-03,1,,,,,リジェネーラコーヒー,0
319,2011001165003,新規,0,2024-10-03,2024-10-03,株式会社ジャパンベンチャーズ,,株式会社,東京都,渋谷区,宇田川町３６番２－１１０２号,,13,113,1500042,,,,,,,2024-10-03,1,,,,,ジャパンベンチャーズ,0
326,2011103014990,新規,0,2024-10-03,2024-10-03,合同会社電鹿社,,合同会社,東京都,新宿区,西新宿３丁目３番１３号西新宿水間ビル２Ｆ,,13,104,1600023,,,,,,,2024-10-03,1,,,,,デンロクシャ,0
327,2011103014999,新規,0,2024-10-03,2024-10-03,合同会社Ｊａｐａｎ　ＯＧ,,合同会社,東京都,新宿区,北新宿１丁目１６番２３号,,13,104,1690074,,,,,,,2024-10-03,1,,,,,ジャパンオージー,0
329,2011303005311,新規,0,2024-10-03,2024-10-03,合同会社カーリーテイル,,合同会社,東京都,杉並区,和泉４丁目１７番２８号,,13,115,1680063,,,,,,,2024-10-03,1,,,,,カーリーテイル,0
333,2011401026465,新規,0,2024-10-03,2024-10-03,株式会社ＺＡＰＨＴ,,株式会社,東京都,板橋区,中台２丁目１７番１－５０１号,,13,119,1740064,,,,,,,2024-10-03,1,,,,,ザフト,0
334,2011501031217,新規,0,2024-10-03,2024-10-03,株式会社Ｖｉｖａｃｅ,,株式会社,東京都,荒川区,東尾久６丁目３６番９号,,13,118,1160012,,,,,,,2024-10-03,1,,,,,ビバーチェ,0
339,2011701027659,新規,0,2024-10-03,2024-10-03,株式会社東京留学,,株式会社,東京都,江戸川区,江戸川３丁目５０番地９１,,13,123,1320013,,,,,,,2024-10-03,1,,,,,トウキョウリュウガク,0
340,2011801044843,新規,0,2024-10-03,2024-10-03,中子星株式会社,,株式会社,東京都,足立区,千住緑町１丁目２１番１０号ジャパンステイ千住１１６号室,,13,121,1200044,,,,,,,2024-10-03,1,,,,,チュウシセイ,0
341,2011801044918,新規,0,2024-10-03,2024-10-03,株式会社クロスタ,,株式会社,東京都,足立区,梅田５丁目２５番３３号１０１,,13,121,1230851,,,,,,,2024-10-03,1,,,,,クロスタ,0
345,2012305002107,新規,0,2024-10-03,2024-10-03,一般社団法人みらいおーる,,その他の設立登記法人,東京都,町田市,藤の台１丁目１番４－２０４号,,13,209,1940039,,,,,,,2024-10-03,1,,,,,ミライオール,0
347,2012401042337,新規,0,2024-10-03,2024-10-03,かねたつエムジー株式会社,,株式会社,東京都,武蔵野市,御殿山２丁目１２番６号,,13,203,1800005,,,,,,,2024-10-03,1,,,,,カネタツエムジー,0
349,2012701018474,新規,0,2024-10-03,2024-10-03,オムニバス株式会社,,株式会社,東京都,西東京市,向台町３丁目１０番１５－３０７号,,13,229,1880013,,,,,,,2024-10-03,1,,,,,オムニバス,0
350,2012701018482,新規,0,2024-10-03,2024-10-03,株式会社良作工防,,株式会社,東京都,東久留米市,下里７丁目５番２２号サンフラット１０１,,13,222,2030043,,,,,,,2024-10-03,1,,,,,リョウサクコウボウ,0
361,2030001162685,新規,0,2024-10-03,2024-10-03,高正工業株式会社,,株式会社,埼玉県,川口市,並木１丁目１２番１３号,,11,203,3320034,,,,,,,2024-10-03,1,,,,,タカマサコウギョウ,0
362,2030001162693,新規,0,2024-10-03,2024-10-03,菱善ホールディングス株式会社,,株式会社,埼玉県,三郷市,三郷１丁目１３番２１号,,11,237,3410024,,,,,,,2024-10-03,1,,,,,リョウゼンホールディングス,0
363,2030001162719,新規,0,2024-10-03,2024-10-03,株式会社グッフィー,,株式会社,埼玉県,朝霞市,宮戸４丁目２番６８号,,11,227,3510031,,,,,,,2024-10-03,1,,,,,グッフィー,0
364,2030001162727,新規,0,2024-10-03,2024-10-03,株式会社アークマインズ,,株式会社,埼玉県,蕨市,中央５丁目９番１４号ミヨシビル１Ｆ,,11,223,3350004,,,,,,,2024-10-03,1,,,,,アークマインズ,0
367,2030003025238,新規,0,2024-10-03,2024-10-03,合同会社ＴＪプランニング,,合同会社,埼玉県,川口市,上青木西５丁目１２番３号,,11,203,3330845,,,,,,,2024-10-03,1,,,,,ティージェイプランニング,0
377,2040001135624,新規,0,2024-10-03,2024-10-03,株式会社京葉ドラム,,株式会社,千葉県,千葉市花見川区,長作台２丁目３４番１６号,,12,102,2620047,,,,,,,2024-10-03,1,,,,,ケイヨウドラム,0
378,2040001135632,新規,0,2024-10-03,2024-10-03,株式会社ファストエア,,株式会社,千葉県,船橋市,三山１丁目４１番１号,,12,204,2740072,,,,,,,2024-10-03,1,,,,,ファストエア,0
379,2040001135657,新規,0,2024-10-03,2024-10-03,株式会社Ｈ＆Ｓ,,株式会社,千葉県,千葉市中央区,寒川町２丁目４２番地,,12,101,2600832,,,,,,,2024-10-03,1,,,,,エイチアンドエス,0
383,2040003025889,新規,0,2024-10-03,2024-10-03,合同会社ＡＣベスタ,,合同会社,千葉県,千葉市中央区,松波２丁目４番１８号,,12,101,2600044,,,,,,,2024-10-03,1,,,,,エーシーベスタ,0
385,2050003008703,新規,0,2024-10-03,2024-10-03,合同会社ＣＨＩＫＵＳＥＩ　ＬＡＮＫＡ,,合同会社,茨城県,筑西市,西保末１８３番地,,08,227,3080105,,,,,,,2024-10-03,1,,,,,チクセイランカ,0
386,2050003008711,新規,0,2024-10-03,2024-10-03,野澤興行合同会社,,合同会社,茨城県,つくば市,水守２１４５番地２アトラスつくば１０６号,,08,220,3004245,,,,,,,2024-10-03,1,,,,,,0
387,2060001037546,新規,0,2024-10-03,2024-10-03,株式会社スペチアーレ,,株式会社,栃木県,塩谷郡高根沢町,宝石台２丁目７番地４,,09,386,3291231,,,,,,,2024-10-03,1,,,,,スペチアーレ,0
390,2070001042231,新規,0,2024-10-03,2024-10-03,株式会社ＡＡ,,株式会社,群馬県,高崎市,引間町６３４番地１,,10,202,3703517,,,,,,,2024-10-03,1,,,,,エーエー,0
394,2070003005599,新規,0,2024-10-03,2024-10-03,合同会社ジンベエ,,合同会社,群馬県,高崎市,箕郷町柏木沢２３０６番地１,,10,202,3703101,,,,,,,2024-10-03,1,,,,,ジンベエ,0
398,2080001026522,新規,0,2024-10-03,2024-10-03,株式会社ゆうき,,株式会社,静岡県,静岡市清水区,宝町１番３１号,,22,103,4240813,,,,,,,2024-10-03,1,,,,,ユウキ,0
401,2080401027483,新規,0,2024-10-03,2024-10-03,株式会社湖西スクールランチ,,株式会社,静岡県,湖西市,吉美１２６７番地の１,,22,221,4310441,,,,,,,2024-10-03,1,,,,,コサイスクールランチ,0
403,2080403005116,新規,0,2024-10-03,2024-10-03,合同会社クロステージ,,合同会社,静岡県,浜松市中央区,曳馬６丁目１１番１５‐１１号,,22,138,4300901,,,,,,,2024-10-03,1,,,,,クロステージ,0
408,2100001037888,新規,0,2024-10-03,2024-10-03,株式会社ｂｅ　ｐａｒｋ,,株式会社,長野県,伊那市,境１３７０番地１,,20,209,3960010,,,,,,,2024-10-03,1,,,,,ビーパーク,0
409,2100001037896,新規,0,2024-10-03,2024-10-03,株式会社マップ,,株式会社,長野県,松本市,大手２丁目１番９号松本大手ビル,,20,202,3900874,,,,,,,2024-10-03,1,,,,,マップ,0
413,2120001093203,新規,0,2024-10-03,2024-10-03,日本コンピユータ・エイジ株式会社,,株式会社,大阪府,大阪市中央区,（大阪市東区南本町二丁目６番地）,,27,128,5390000,,,,,,,2024-10-03,1,,,,,ニホンコンピユータエイジ,0
419,2120001268993,新規,0,2024-10-03,2024-10-03,株式会社ＳＨＩＮＡＩＮＵ,,株式会社,大阪府,大阪市北区,西天満５丁目１３番３号高橋ビル北３号館６０１号室,,27,127,5300047,,,,,,,2024-10-03,1,,,,,シナイヌ,0
420,2120001269018,新規,0,2024-10-03,2024-10-03,株式会社大礒トラスト,,株式会社,大阪府,大阪市天王寺区,上本町７丁目１番１６－３００６号,,27,109,5430001,,,,,,,2024-10-03,1,,,,,オオイソトラスト,0
421,2120001269026,新規,0,2024-10-03,2024-10-03,株式会社グッドラック,,株式会社,大阪府,大阪市淀川区,西宮原１丁目７番１５－４１１号,,27,123,5320004,,,,,,,2024-10-03,1,,,,,グッドラック,0
422,2120001269034,新規,0,2024-10-03,2024-10-03,株式会社デナーロ,,株式会社,大阪府,大阪市北区,本庄東２丁目１５番１４－２０５号,,27,127,5310074,,,,,,,2024-10-03,1,,,,,デナーロ,0
425,2120003027646,新規,0,2024-10-03,2024-10-03,合同会社みのや,,合同会社,大阪府,大阪市阿倍野区,松崎町３丁目１６番１９－１２０１号,,27,119,5450053,,,,,,,2024-10-03,1,,,,,ミノヤ,0
426,2120003027654,新規,0,2024-10-03,2024-10-03,友光ホーム合同会社,,合同会社,大阪府,大阪市港区,市岡３丁目１３番９号藤原文化２０２Ｃ,,27,107,5520012,,,,,,,2024-10-03,1,,,,,トモミツホーム,0
429,2120901049840,新規,0,2024-10-03,2024-10-03,株式会社ＡＬＬＥＮ,,株式会社,大阪府,茨木市,舟木町１９番２０号,,27,211,5670828,,,,,,,2024-10-03,1,,,,,アレン,0
434,2130001078079,新規,0,2024-10-03,2024-10-03,株式会社インテリアヒロ,,株式会社,京都府,京都市山科区,西野山桜ノ馬場町２０５番地２,,26,110,6078308,,,,,,,2024-10-03,1,,,,,インテリアヒロ,0
437,2140001135960,新規,0,2024-10-03,2024-10-03,株式会社ヘルスウェルパートナーズ,,株式会社,兵庫県,西宮市,北口町１８番１０号,,28,204,6638035,,,,,,,2024-10-03,1,,,,,ヘルスウェルパートナーズ,0
438,2140001135985,新規,0,2024-10-03,2024-10-03,ＨＵＮＴ株式会社,,株式会社,兵庫県,西宮市,高須町１丁目６番６３号,,28,204,6638141,,,,,,,2024-10-03,1,,,,,ハント,0
442,2140003021127,新規,0,2024-10-03,2024-10-03,合同会社ＷＯＮＤＥＲ　ＷＯＭＡＮ,,合同会社,兵庫県,西宮市,一ケ谷町３番２－７０４号,,28,204,6620873,,,,,,,2024-10-03,1,,,,,ワンダーウーマン,0
443,2140003021151,新規,0,2024-10-03,2024-10-03,合同会社ＴＮプランニング,,合同会社,兵庫県,加古郡稲美町,国安１２９８,,28,381,6751114,,,,,,,2024-10-03,1,,,,,ティエヌプランニング,0
446,2140005027221,新規,0,2024-10-03,2024-10-03,一般社団法人真至誠会,,その他の設立登記法人,兵庫県,明石市,大久保町山手台２丁目７５番地の３,,28,203,6740056,,,,,,,2024-10-03,1,,,,,シンシセイカイ,0
449,2160001026266,新規,0,2024-10-03,2024-10-03,株式会社サブエイト建築,,株式会社,滋賀県,守山市,吉身２丁目９番２７－２０４号,,25,207,5240021,,,,,,,2024-10-03,1,,,,,サブエイトケンチク,0
452,2170001018329,新規,0,2024-10-03,2024-10-03,株式会社Ｃｒｅａｔｅ　Ｃｏｍ,,株式会社,和歌山県,伊都郡かつらぎ町,大字妙寺１１４２番地の４,,30,341,6497113,,,,,,,2024-10-03,1,,,,,クリエイトコム,0
463,2180001163454,新規,0,2024-10-03,2024-10-03,株式会社フジリアルエステート２号,,株式会社,愛知県,名古屋市東区,代官町３５番１６号,,23,102,4610002,,,,,,,2024-10-03,1,,,,,フジリアルエステートニゴウ,0
464,2180001163470,新規,0,2024-10-03,2024-10-03,株式会社フリースタイル,,株式会社,愛知県,名古屋市中川区,大山町４３番地クレアールメゾン大山２０３,,23,110,4540051,,,,,,,2024-10-03,1,,,,,フリースタイル,0
465,2180001163487,新規,0,2024-10-03,2024-10-03,ＮＸＩＴ株式会社,,株式会社,愛知県,名古屋市西区,平出町２１９番地,,23,104,4520832,,,,,,,2024-10-03,1,,,,,エヌジット,0
466,2180001163520,新規,0,2024-10-03,2024-10-03,株式会社ＬＥＧＡＬＩＡ,,株式会社,愛知県,名古屋市東区,矢田４丁目５番１１号レジデンスアロー１階３号室,,23,102,4610040,,,,,,,2024-10-03,1,,,,,レガリア,0
467,2180003027442,新規,0,2024-10-03,2024-10-03,ａｓｏｂｉｉｍ合同会社,,合同会社,愛知県,小牧市,大字文津字天王塚６４２番地,,23,219,4850827,,,,,,,2024-10-03,1,,,,,アソビーム,0
469,2180301039098,新規,0,2024-10-03,2024-10-03,大真陸運株式会社,,株式会社,愛知県,西尾市,平坂町坂下７番地,,23,213,4440305,,,,,,,2024-10-03,1,,,,,ダイシンリクウン,0
477,2190001031684,新規,0,2024-10-03,2024-10-03,株式会社Ａ・Ｒｕｎ・Ｄ,,株式会社,三重県,度会郡玉城町,佐田６７４番地６,,24,461,5190414,,,,,,,2024-10-03,1,,,,,アランド,0
481,2200001042985,新規,0,2024-10-03,2024-10-03,株式会社カナート,,株式会社,岐阜県,羽島市,竹鼻町蜂尻１４１番地,,21,209,5016235,,,,,,,2024-10-03,1,,,,,カナート,0
482,2200001043001,新規,0,2024-10-03,2024-10-03,株式会社森田総合企画,,株式会社,岐阜県,各務原市,鵜沼三ツ池町３丁目２５８番地１,,21,213,5090146,,,,,,,2024-10-03,1,,,,,モリタソウゴウキカク,0
484,2210001019925,新規,0,2024-10-03,2024-10-03,株式会社バイオファウンドリー,,株式会社,福井県,坂井市,三国町新保第４０号２１番地,,18,210,9130031,,,,,,,2024-10-03,1,,,,,バイオファウンドリー,0
490,2240001063879,新規,0,2024-10-03,2024-10-03,株式会社遊行舎,,株式会社,広島県,広島市安佐南区,西原７丁目６番１７－１５０２号,,34,105,7310113,,,,,,,2024-10-03,1,,,,,ユウギョウシャ,0
495,2260001039522,新規,0,2024-10-03,2024-10-03,ＮＬＫＢコンサルティング株式会社,,株式会社,岡山県,倉敷市,児島駅前１丁目５３－１－３０２,,33,202,7110921,,,,,,,2024-10-03,1,,,,,エヌエルケイビーコンサルティング,0
503,2290801030917,新規,0,2024-10-03,2024-10-03,シマゾエ工務店株式会社,,株式会社,福岡県,北九州市小倉北区,神岳２丁目５番２５号,,40,106,8020045,,,,,,,2024-10-03,1,,,,,シマゾエコウムテン,0
504,2300001013919,新規,0,2024-10-03,2024-10-03,株式会社Ｋ＆Ｓホールディングス,,株式会社,佐賀県,佐賀市,鍋島町大字八戸１１５４番地７,,41,201,8400857,,,,,,,2024-10-03,1,,,,,ケイアンドエスホールディングス,0
510,2340001026826,新規,0,2024-10-03,2024-10-03,株式会社木原鉄筋工業,,株式会社,鹿児島県,肝属郡肝付町,後田２４１３番地７,,46,492,8931203,,,,,,,2024-10-03,1,,,,,キハラテッキンコウギョウ,0
511,2340001026834,新規,0,2024-10-03,2024-10-03,株式会社ＬｉＢ,,株式会社,鹿児島県,薩摩川内市,宮内町１２番１０号,,46,215,8950065,,,,,,,2024-10-03,1,,,,,リブ,0
513,2360001034249,新規,0,2024-10-03,2024-10-03,株式会社ＫＩ,,株式会社,沖縄県,那覇市,牧志１丁目１番４１号第一志摩ビル１－Ｂ,,47,201,9000013,,,,,,,2024-10-03,1,,,,,ケーアイ,0
514,2360001034265,新規,0,2024-10-03,2024-10-03,株式会社沖縄米屋,,株式会社,沖縄県,沖縄市,美里１丁目２５番４７号,,47,211,9042153,,,,,,,2024-10-03,1,,,,,オキナワコメヤ,0
516,2370001051796,新規,0,2024-10-03,2024-10-03,株式会社菅原塾,,株式会社,宮城県,仙台市青葉区,五橋２丁目１０－１３ダイアパレス五橋１Ｆ,,04,101,9800022,,,,,,,2024-10-03,1,,,,,スガワラジュク,0
532,2390001017754,新規,0,2024-10-03,2024-10-03,ＡＪ　ＢＲＯＴＨＥＲＳ株式会社,,株式会社,山形県,東田川郡庄内町,余目新田字上北９８番地,,06,428,9997714,,,,,,,2024-10-03,1,,,,,エージェイブラザーズ,0
533,2400001016804,新規,0,2024-10-03,2024-10-03,ＪｉＪｉ３１株式会社,,株式会社,岩手県,花巻市,西宮野目第６地割４１８番地１,,03,205,0250002,,,,,,,2024-10-03,1,,,,,ジジサーティーワン,0
534,2410001013949,新規,0,2024-10-03,2024-10-03,株式会社斎藤ボデー工場,,株式会社,秋田県,にかほ市,象潟町長岡字家尻８７番地１,,05,214,0180163,,,,,,,2024-10-03,1,,,,,サイトウボデーコウジョウ,0
535,2430001092776,新規,0,2024-10-03,2024-10-03,株式会社まんまるクリエイト,,株式会社,北海道,札幌市中央区,南二条西３丁目１３番地４,,01,101,0600062,,,,,,,2024-10-03,1,,,,,マンマルクリエイト,0
539,2430005015080,新規,0,2024-10-03,2024-10-03,医療法人社団清光会,,その他の設立登記法人,北海道,苫小牧市,北栄町１丁目２２番５２号,,01,213,0591304,,,,,,,2024-10-03,1,,,,,セイコウカイ,0
540,2450001014423,新規,0,2024-10-03,2024-10-03,株式会社大田のうえん,,株式会社,北海道,旭川市,東鷹栖五線十三号２５３２番地５,,01,204,0718155,,,,,,,2024-10-03,1,,,,,オオタノウエン,0
542,2470003002721,新規,0,2024-10-03,2024-10-03,アジュール合同会社,,合同会社,香川県,高松市,春日町２０３番地１８,,37,201,7610101,,,,,,,2024-10-03,1,,,,,アジュール,0
543,2480005007040,新規,0,2024-10-03,2024-10-03,一般社団法人徳島市肢体障害者会,,その他の設立登記法人,徳島県,徳島市,新蔵町１丁目８８番地徳島市役所新蔵分庁舎内,,36,201,7700855,,,,,,,2024-10-03,1,,,,,トクシマシシタイショウガイシャカイ,0
557,3010001248618,新規,0,2024-10-03,2024-10-03,エルエフジージャパンマグネティックス株式会社,,株式会社,東京都,千代田区,鍛冶町１丁目４番５号ｇｒａｎ＋Ｋａｎｄａビル５階,,13,101,1010044,,,,,,,2024-10-03,1,,,,,エルエフジージャパンマグネティックス,0
558,3010001248700,新規,0,2024-10-03,2024-10-03,株式会社杏和未来,,株式会社,東京都,文京区,本郷３丁目５番８号,,13,105,1130033,,,,,,,2024-10-03,1,,,,,キョウワミライ,0
559,3010001248717,新規,0,2024-10-03,2024-10-03,Ｓｈｅｅｖａ　Ｊａｐａｎ株式会社,,株式会社,東京都,千代田区,霞が関３丁目２番６号東京倶楽部ビルディング１１階,,13,101,1000013,,,,,,,2024-10-03,1,,,,,シーヴァジャパン,0
560,3010001248766,新規,0,2024-10-03,2024-10-03,株式会社Ｕ＆Ｐ,,株式会社,東京都,千代田区,麹町６丁目６番２号番町麹町ビルディング５階,,13,101,1020083,,,,,,,2024-10-03,1,,,,,ユーアンドピー,0
563,3010003044981,新規,0,2024-10-03,2024-10-03,合同会社Ｒ＆Ｓ,,合同会社,東京都,千代田区,富士見２丁目７番１－３２１０号,,13,101,1020071,,,,,,,2024-10-03,1,,,,,アールアンドエス,0
564,3010003045047,新規,0,2024-10-03,2024-10-03,合同会社蓄電所５号,,合同会社,東京都,中央区,日本橋茅場町３丁目４番２号ＫＤＸ茅場町ビル４Ｆ,,13,102,1030025,,,,,,,2024-10-03,1,,,,,チクデンショゴゴウ,0
565,3010003045063,新規,0,2024-10-03,2024-10-03,Ｒｕｎｅｂｒａｎｄ合同会社,,合同会社,東京都,千代田区,神田淡路町１丁目９番５,,13,101,1010063,,,,,,,2024-10-03,1,,,,,ルーンブランド,0
567,3010005038890,新規,0,2024-10-03,2024-10-03,一般社団法人ＯＭ心斎橋,,その他の設立登記法人,東京都,千代田区,霞が関３丁目２番５号,,13,101,1000013,,,,,,,2024-10-03,1,,,,,オーエムシンサイバシ,0
568,3010005038908,新規,0,2024-10-03,2024-10-03,一般社団法人Ｖａｌｕｅ　Ｃｒｅａｔｅ,,その他の設立登記法人,東京都,文京区,本郷３丁目４３番１４号,,13,105,1130033,,,,,,,2024-10-03,1,,,,,バリュークリエイト,0
570,3010101016346,新規,0,2024-10-03,2024-10-03,株式会社フローベル,,株式会社,東京都,八王子市,南大沢２丁目２番地,,13,201,1920364,,,,,,,2024-10-03,1,,,,,フローベル,0
574,3010401185477,新規,0,2024-10-03,2024-10-03,株式会社ＸＬＡＢＥＬＳ,,株式会社,東京都,港区,麻布十番２丁目２０番７号麻布十番高木ビル５Ｆ,00136490,13,103,1060045,,,,,,,2024-10-03,1,,,,,エックスレーベルズ,0
577,3010403033527,新規,0,2024-10-03,2024-10-03,のぞみ折戸ソーラー合同会社,,合同会社,東京都,港区,芝５丁目２９番１９号ＰＭＯ田町ＩＶ８階,00136481,13,103,1080014,,,,,,,2024-10-03,1,,,,,ノゾミオリドソーラー,0
578,3010405023567,新規,0,2024-10-03,2024-10-03,一般社団法人Ａｃｃｅｓｓ　Ａｌｌｙ,,その他の設立登記法人,東京都,港区,麻布台１丁目６番５号タウンハウス麻布台３０１,,13,103,1060041,,,,,,,2024-10-03,1,,,,,アクセスアリー,0
579,3010405023633,新規,0,2024-10-03,2024-10-03,一般社団法人のぞみ羽田ソーラー,,その他の設立登記法人,東京都,港区,芝５丁目２９番１９号ＰＭＯ田町ＩＶ８階,00136468,13,103,1080014,,,,,,,2024-10-03,1,,,,,ノゾミハンダソーラー,0
580,3010405023641,新規,0,2024-10-03,2024-10-03,一般社団法人のぞみソーラーホールディングス,,その他の設立登記法人,東京都,港区,芝５丁目２９番１９号ＰＭＯ田町ＩＶ８階,00136476,13,103,1080014,,,,,,,2024-10-03,1,,,,,ノゾミソーラーホールディングス,0
584,3010601065941,新規,0,2024-10-03,2024-10-03,株式会社ＬＰＴ,,株式会社,東京都,江東区,扇橋１丁目１２番７号ＦＡＲＥＩＩＩ住吉５０１,00136506,13,108,1350011,,,,,,,2024-10-03,1,,,,,エルピーティー,0
594,3011001164978,新規,0,2024-10-03,2024-10-03,株式会社ＫＡＭＩＹＯ,,株式会社,東京都,渋谷区,本町５丁目４４番７号ラサール川口４０５,,13,113,1510071,,,,,,,2024-10-03,1,,,,,カミヨ,0
595,3011001165002,新規,0,2024-10-03,2024-10-03,株式会社フードベンチャーズ,,株式会社,東京都,渋谷区,宇田川町１２番３－１１０１号,,13,113,1500042,,,,,,,2024-10-03,1,,,,,フードベンチャーズ,0
596,3011001165019,新規,0,2024-10-03,2024-10-03,株式会社ワイルドドッグ,,株式会社,東京都,渋谷区,渋谷２丁目１９‐１５宮益坂ビルディング６０９,,13,113,1500002,,,,,,,2024-10-03,1,,,,,ワイルドドッグ,0
597,3011003020130,新規,0,2024-10-03,2024-10-03,合同会社センフル,,合同会社,東京都,渋谷区,上原２丁目２２番２６－１０３号,,13,113,1510064,,,,,,,2024-10-03,1,,,,,センフル,0
598,3011201025823,新規,0,2024-10-03,2024-10-03,株式会社黒沢組,,株式会社,東京都,中野区,沼袋１丁目４１番４号サンハイムＫ１０１,,13,114,1650025,,,,,,,2024-10-03,1,,,,,クロサワグミ,0
599,3011203004494,新規,0,2024-10-03,2024-10-03,東良国際合同会社,,合同会社,東京都,中野区,中野５丁目６７番７号プラザ中野９０２号室,,13,114,1640001,,,,,,,2024-10-03,1,,,,,トウヨシコクサイ,0
605,3011501031199,新規,0,2024-10-03,2024-10-03,株式会社盛安ダイナミックス,,株式会社,東京都,北区,志茂４丁目３番２号,,13,117,1150042,,,,,,,2024-10-03,1,,,,,セイアンダイナミックス,0
606,3011503006240,新規,0,2024-10-03,2024-10-03,合同会社Ｔｈａｉｌａｎｄ,,合同会社,東京都,北区,西が丘１丁目２７番１６号チェリーハウス２０３号,,13,117,1150056,,,,,,,2024-10-03,1,,,,,タイランド,0
612,3011701027674,新規,0,2024-10-03,2024-10-03,日和ＴＷ株式会社,,株式会社,東京都,江戸川区,北小岩６丁目１７番５号２階,,13,123,1330051,,,,,,,2024-10-03,1,,,,,ニワティーダブリュー,0
614,3011703003979,新規,0,2024-10-03,2024-10-03,合同会社ＯＮＥ　ＧＬＯＢＡＬ,,合同会社,東京都,江戸川区,船堀６丁目３番２２－３０２号,,13,123,1340091,,,,,,,2024-10-03,1,,,,,ワングローバル,0
615,3011801044917,新規,0,2024-10-03,2024-10-03,墨川株式会社,,株式会社,東京都,葛飾区,西新小岩５丁目２８番２０号,,13,122,1240025,,,,,,,2024-10-03,1,,,,,スミカワ,0
617,3012401042328,新規,0,2024-10-03,2024-10-03,株式会社ＮＥＸＥＲＡ,,株式会社,東京都,三鷹市,上連雀４丁目１番１１号禅林寺第一ビル３０１号室,,13,204,1810012,,,,,,,2024-10-03,1,,,,,ネクセラ,0
618,3012401042336,新規,0,2024-10-03,2024-10-03,株式会社ボンズ,,株式会社,東京都,府中市,若松町１丁目３番地の２０東府中マンション４０１,,13,206,1830005,,,,,,,2024-10-03,1,,,,,ボンズ,0
623,3013301053159,新規,0,2024-10-03,2024-10-03,ケー・プラン株式会社,,株式会社,東京都,豊島区,駒込３丁目３番１６号サンハイツ駒込５０１号,,13,116,1700003,,,,,,,2024-10-03,1,,,,,ケープラン,0
626,3013305003647,新規,0,2024-10-03,2024-10-03,一般社団法人みらスタ応援団,,その他の設立登記法人,東京都,豊島区,東池袋２丁目１番３号ＭＫビル株式会社エルグ設計事務所内,,13,116,1700013,,,,,,,2024-10-03,1,,,,,ミラスタオウエンダン,0
630,3020001159327,新規,0,2024-10-03,2024-10-03,株式会社ドメーヌドーヴネ,,株式会社,神奈川県,川崎市幸区,大宮町５番地５金沢ビル３階,,14,132,2120014,,,,,,,2024-10-03,1,,,,,ドメーヌドーヴネ,0
631,3020001159426,新規,0,2024-10-03,2024-10-03,ｙ．ｃｏｍｐａｎｙ株式会社,,株式会社,神奈川県,川崎市中原区,木月４丁目１番１０号,,14,133,2110025,,,,,,,2024-10-03,1,,,,,ワイカンパニー,0
655,3030001162684,新規,0,2024-10-03,2024-10-03,株式会社サイレントニャー,,株式会社,埼玉県,さいたま市浦和区,仲町３丁目２番２４号品田ビル３Ｂ,,11,107,3300062,,,,,,,2024-10-03,1,,,,,サイレントニャー,0
656,3030001162718,新規,0,2024-10-03,2024-10-03,株式会社Ｌｕａ,,株式会社,埼玉県,所沢市,美原町４丁目２９７４エバーグリーンコート美原３０１,,11,208,3590045,,,,,,,2024-10-03,1,,,,,ルーア,0
657,3030001162726,新規,0,2024-10-03,2024-10-03,亮麗貿易株式会社,,株式会社,埼玉県,川口市,青木１丁目１５－５－７１２号室青木橋スカイハイツ,,11,203,3320031,,,,,,,2024-10-03,1,,,,,リョウレイボウエキ,0
666,3030003025229,新規,0,2024-10-03,2024-10-03,永樂石寶合同会社,,合同会社,埼玉県,さいたま市桜区,西堀７丁目８番１－３０９号,,11,106,3380832,,,,,,,2024-10-03,1,,,,,エイラクセキホウ,0
667,3030003025237,新規,0,2024-10-03,2024-10-03,合同会社はるかぜ,,合同会社,埼玉県,春日部市,一ノ割１丁目２５－７０－１０２,,11,214,3440031,,,,,,,2024-10-03,1,,,,,ハルカゼ,0
668,3030005021878,新規,0,2024-10-03,2024-10-03,医療法人社団ＴＨＥ　ＳＵＮ,,その他の設立登記法人,埼玉県,三郷市,中央３丁目２番地９コルレオーネタワー三郷中央１階,,11,237,3410038,,,,,,,2024-10-03,1,,,,,ザサン,0
674,3040001135664,新規,0,2024-10-03,2024-10-03,株式会社百年ウォーク,,株式会社,千葉県,茂原市,小林２３７４番地２,,12,210,2970074,,,,,,,2024-10-03,1,,,,,ヒャクネンウォーク,0
675,3040001135697,新規,0,2024-10-03,2024-10-03,株式会社クオリティー,,株式会社,千葉県,市川市,本北方２丁目２７番１３号,,12,203,2720816,,,,,,,2024-10-03,1,,,,,クオリティー,0
678,3040003025888,新規,0,2024-10-03,2024-10-03,合同会社ＡＣジュノー,,合同会社,千葉県,千葉市中央区,松波２丁目４番１８号,,12,101,2600044,,,,,,,2024-10-03,1,,,,,エーシージュノー,0
679,3050001055481,新規,0,2024-10-03,2024-10-03,株式会社ワタナベ空調,,株式会社,茨城県,東茨城郡大洗町,大貫町７９６番地の２,,08,309,3111311,,,,,,,2024-10-03,1,,,,,ワタナベクウチョウ,0
682,3060001037545,新規,0,2024-10-03,2024-10-03,株式会社Ｂｅａｕｔｈ　Ｃｏｎｎｅｃｔ,,株式会社,栃木県,宇都宮市,松原１丁目４番１１号柿沼事務所棟,,09,201,3200041,,,,,,,2024-10-03,1,,,,,ビュースコネクト,0
683,3060005010250,新規,0,2024-10-03,2024-10-03,一般社団法人ご縁と縁ご,,その他の設立登記法人,栃木県,小山市,神鳥谷２丁目３２番１２号,,09,208,3230034,,,,,,,2024-10-03,1,,,,,ゴエントエンゴ,0
684,3070001042222,新規,0,2024-10-03,2024-10-03,株式会社鈴木造園芸,,株式会社,群馬県,高崎市,上豊岡町８１４番地３,,10,202,3700871,,,,,,,2024-10-03,1,,,,,スズキゾウエンゲイ,0
691,3080401027482,新規,0,2024-10-03,2024-10-03,喜知里農園株式会社,,株式会社,静岡県,御前崎市,門屋１５０２番地の３,,22,223,4371615,,,,,,,2024-10-03,1,,,,,キッチリノウエン,0
692,3080401027490,新規,0,2024-10-03,2024-10-03,株式会社Ｂａｋｅｒｙつばめ,,株式会社,静岡県,湖西市,ときわ３丁目５番１３号,,22,221,4310428,,,,,,,2024-10-03,1,,,,,ベーカリーツバメ,0
701,3120001268935,新規,0,2024-10-03,2024-10-03,智愛株式会社,,株式会社,大阪府,大阪市浪速区,元町１丁目１０番６号８階,,27,111,5560016,,,,,,,2024-10-03,1,,,,,チアイ,0
702,3120001268951,新規,0,2024-10-03,2024-10-03,株式会社まかろに,,株式会社,大阪府,大阪市浪速区,元町１丁目３番１２号オルゴグラートＮＡＭＢＡ６０１号,,27,111,5560016,,,,,,,2024-10-03,1,,,,,マカロニ,0
703,3120001269000,新規,0,2024-10-03,2024-10-03,Ｊａｄｅ　Ｗａｖｅ株式会社,,株式会社,大阪府,大阪市中央区,谷町６丁目１１番２８号,,27,128,5420012,,,,,,,2024-10-03,1,,,,,ジェイドウェーブ,0
704,3120001269009,新規,0,2024-10-03,2024-10-03,大禾株式会社,,株式会社,大阪府,大阪市中央区,本町３丁目３－９－９Ｆ,,27,128,5410053,,,,,,,2024-10-03,1,,,,,オオノギ,0
705,3120001269090,新規,0,2024-10-03,2024-10-03,アクト不動産株式会社,,株式会社,大阪府,大阪市福島区,大開２丁目４番１７号,,27,103,5530007,,,,,,,2024-10-03,1,,,,,アクトフドウサン,0
708,3120003027637,新規,0,2024-10-03,2024-10-03,ＳＴマネジメント合同会社,,合同会社,大阪府,大阪市住之江区,粉浜西１丁目１１番８号,,27,125,5590007,,,,,,,2024-10-03,1,,,,,エスティーマネジメント,0
709,3120003027653,新規,0,2024-10-03,2024-10-03,ＷＨＩＴＥ　ＲＩＶＥＲ　ＩＮＶＥＳＴＭＥＮＴＳ合同会社,,合同会社,大阪府,大阪市中央区,本町橋６－２１シャンボール内本町６０４室Ｄ,,27,128,5400029,,,,,,,2024-10-03,1,,,,,ホワイトリバーインベストメンツ,0
711,3120103006078,新規,0,2024-10-03,2024-10-03,合同会社Ｎｅｘｔ‐Ｒ,,合同会社,大阪府,大阪狭山市,茱萸木４丁目８８番地の４０２,,27,231,5890013,,,,,,,2024-10-03,1,,,,,ネクストアール,0
715,3120903005361,新規,0,2024-10-03,2024-10-03,合同会社リュウグウ,,合同会社,大阪府,吹田市,尺谷１８－１０,,27,205,5650818,,,,,,,2024-10-03,1,,,,,リュウグウ,0
721,3130001078037,新規,0,2024-10-03,2024-10-03,ソレイユ・アカウンティングパートナーズ株式会社,,株式会社,京都府,京都市下京区,烏丸通五条下る大坂町４００番地三善ビル２Ｆ,,26,106,6008177,,,,,,,2024-10-03,1,,,,,ソレイユアカウンティングパートナーズ,0
722,3130001078061,新規,0,2024-10-03,2024-10-03,エムゼット株式会社,,株式会社,京都府,京都市伏見区,下鳥羽南柳長町４番地,,26,109,6128490,,,,,,,2024-10-03,1,,,,,エムゼット,0
724,3130003009898,新規,0,2024-10-03,2024-10-03,合同会社Ｋ‐ＮＥＸＴ,,合同会社,京都府,京都市山科区,東野北井ノ上町１１番地４４,,26,110,6078141,,,,,,,2024-10-03,1,,,,,ケーネクスト,0
728,3140001135893,新規,0,2024-10-03,2024-10-03,株式会社ＰＭＮ,,株式会社,兵庫県,神戸市中央区,生田町１丁目２番１９号布引第２ビル５階,,28,110,6510092,,,,,,,2024-10-03,1,,,,,ピーエムエヌ,0
729,3140001135951,新規,0,2024-10-03,2024-10-03,株式会社イナオカ,,株式会社,兵庫県,三木市,吉川町上松３４９番地,,28,215,6731126,,,,,,,2024-10-03,1,,,,,イナオカ,0
730,3140001135992,新規,0,2024-10-03,2024-10-03,ナノフードサービス株式会社,,株式会社,兵庫県,三田市,南が丘１丁目５３番１０号,,28,219,6691535,,,,,,,2024-10-03,1,,,,,ナノフードサービス,0
731,3140003021142,新規,0,2024-10-03,2024-10-03,天空のバラ園合同会社,,合同会社,兵庫県,宝塚市,山本東２丁目３番１９号,,28,214,6650881,,,,,,,2024-10-03,1,,,,,テンクウノバラエン,0
732,3140003021150,新規,0,2024-10-03,2024-10-03,Ｃ‐ｆａｒｍ合同会社,,合同会社,兵庫県,神戸市西区,平野町印路２６－１,,28,111,6512266,,,,,,,2024-10-03,1,,,,,シーファーム,0
735,3160001026257,新規,0,2024-10-03,2024-10-03,株式会社ＡＩＫＯＵセキュリティ,,株式会社,滋賀県,愛知郡愛荘町,東円堂字流１４３８番地５,,25,425,5291325,,,,,,,2024-10-03,1,,,,,アイコウセキュリティ,0
736,3160003003304,新規,0,2024-10-03,2024-10-03,合同会社虎秀,,合同会社,滋賀県,長浜市,三和町３番２５号,,25,203,5260055,,,,,,,2024-10-03,1,,,,,トラヒデ,0
737,3160005011346,新規,0,2024-10-03,2024-10-03,医療法人かわひと内科クリニック,,その他の設立登記法人,滋賀県,守山市,勝部３丁目１５番３１－２号,,25,207,5240041,,,,,,,2024-10-03,1,,,,,カワヒトナイカクリニック,0
739,3170001018328,新規,0,2024-10-03,2024-10-03,株式会社ランドセル,,株式会社,和歌山県,田辺市,文里２丁目３２番７号,,30,206,6460023,,,,,,,2024-10-03,1,,,,,ランドセル,0
744,3180001163362,新規,0,2024-10-03,2024-10-03,株式会社サイトワークス,,株式会社,愛知県,名古屋市中村区,名駅４丁目２４番５号第２森ビル４０１,,23,105,4500002,,,,,,,2024-10-03,1,,,,,サイトワークス,0
745,3180001163420,新規,0,2024-10-03,2024-10-03,株式会社ファンデル,,株式会社,愛知県,名古屋市中区,錦３丁目６番８号ＧＩ３６８－８階,,23,106,4600003,,,,,,,2024-10-03,1,,,,,ファンデル,0
746,3180001163429,新規,0,2024-10-03,2024-10-03,あいりす薬局株式会社,,株式会社,愛知県,名古屋市瑞穂区,萩山町２丁目１番,,23,108,4670011,,,,,,,2024-10-03,1,,,,,アイリスヤッキョク,0
747,3180001163437,新規,0,2024-10-03,2024-10-03,株式会社仁,,株式会社,愛知県,小牧市,外堀２丁目５９番地２,,23,219,4850039,,,,,,,2024-10-03,1,,,,,ジン,0
748,3180001163453,新規,0,2024-10-03,2024-10-03,株式会社フジリアルエステート１号,,株式会社,愛知県,名古屋市東区,代官町３５番１６号,,23,102,4610002,,,,,,,2024-10-03,1,,,,,フジリアルエステートイチゴウ,0
749,3180001163503,新規,0,2024-10-03,2024-10-03,株式会社光織,,株式会社,愛知県,名古屋市中区,丸の内２丁目１５番１４号,,23,106,4600002,,,,,,,2024-10-03,1,,,,,ミオリ,0
750,3180001163569,新規,0,2024-10-03,2024-10-03,株式会社ビジョナリープロダクト,,株式会社,愛知県,犬山市,長者町１丁目１９２番地,,23,215,4840041,,,,,,,2024-10-03,1,,,,,ビジョナリープロダクト,0
751,3180001163585,新規,0,2024-10-03,2024-10-03,株式会社ＴＫダイニング,,株式会社,愛知県,春日井市,松新町３丁目２０番地,,23,206,4860931,,,,,,,2024-10-03,1,,,,,ティーケーダイニング,0
760,3190001031691,新規,0,2024-10-03,2024-10-03,株式会社谷口庭建,,株式会社,三重県,伊賀市,小田町２８５番地１３,,24,216,5180825,,,,,,,2024-10-03,1,,,,,タニグチテイケン,0
761,3190005011987,新規,0,2024-10-03,2024-10-03,なないろ税理士法人,,その他の設立登記法人,三重県,桑名市,大字安永１０６２番地３,,24,205,5110839,,,,,,,2024-10-03,1,,,,,,0
767,3200001042992,新規,0,2024-10-03,2024-10-03,株式会社ＬＵＸＥ,,株式会社,岐阜県,岐阜市,長良２５５７番地２,,21,201,5020071,,,,,,,2024-10-03,1,,,,,リュクス,0
777,3260001039505,新規,0,2024-10-03,2024-10-03,株式会社Ｖａｉｓｈｉｆｔ,,株式会社,岡山県,倉敷市,玉島１９２３番地６今城ビル１階,,33,202,7138102,,,,,,,2024-10-03,1,,,,,ヴァイシフト,0
785,3290805009774,新規,0,2024-10-03,2024-10-03,一般社団法人スタート・ヒア,,その他の設立登記法人,福岡県,中間市,中鶴１丁目８番２２号,,40,215,8090037,,,,,,,2024-10-03,1,,,,,スタートヒア,0
786,3310001019229,新規,0,2024-10-03,2024-10-03,株式会社サンレゴ,,株式会社,長崎県,長崎市,松山町４番４０号,,42,201,8528118,,,,,,,2024-10-03,1,,,,,サンレゴ,0
788,3320001020747,新規,0,2024-10-03,2024-10-03,株式会社ＮＩＮＴＨ　ＣＬＯＵＤ,,株式会社,大分県,大分市,新町７番２３－１１０１サーパス大分新町レジデンス,,44,201,8700028,,,,,,,2024-10-03,1,,,,,ナインスクラウド,0
789,3330001032510,新規,0,2024-10-03,2024-10-03,株式会社Ｔｈｕｍｂｓ　ｕｐ,,株式会社,熊本県,熊本市東区,西原２丁目１８番２７号,,43,102,8618029,,,,,,,2024-10-03,1,,,,,サムズアップ,0
791,3340001026841,新規,0,2024-10-03,2024-10-03,株式会社厚仁堂薬局,,株式会社,鹿児島県,鹿児島市,草牟田町７番地７,,46,201,8900015,,,,,,,2024-10-03,1,,,,,コウジンドウヤッキョク,0
795,3360001034280,新規,0,2024-10-03,2024-10-03,株式会社ミヤザト工業,,株式会社,沖縄県,うるま市,字川田４７８番地１ＳＥＡＬＩＮＥ・Ｃ棟,,47,213,9042232,,,,,,,2024-10-03,1,,,,,ミヤザトコウギョウ,0
801,3360005007101,新規,0,2024-10-03,2024-10-03,一般社団法人子育て支援カフェマナ,,その他の設立登記法人,沖縄県,浦添市,仲間３丁目１６番１１号,,47,208,9012103,,,,,,,2024-10-03,1,,,,,コソダテシエンカフェマナ,0
806,3400001016811,新規,0,2024-10-03,2024-10-03,自然農ナチュラルファーム株式会社,,株式会社,岩手県,一関市,千厩町小梨字浦ノ沢２３９番地,,03,209,0290802,,,,,,,2024-10-03,1,,,,,シゼンノウナチュラルファーム,0
807,3430001092750,新規,0,2024-10-03,2024-10-03,株式会社ＷＡＵＳ,,株式会社,北海道,小樽市,張碓町５０５番地８６,,01,203,0470266,,,,,,,2024-10-03,1,,,,,ワウス,0
808,3430001092775,新規,0,2024-10-03,2024-10-03,ＴＯＭオートサービス株式会社,,株式会社,北海道,札幌市北区,新川五条２丁目４番１号,,01,102,0010925,,,,,,,2024-10-03,1,,,,,トムオートサービス,0
809,3430001092809,新規,0,2024-10-03,2024-10-03,葵美装株式会社,,株式会社,北海道,札幌市白石区,平和通１５丁目北１９番７号,,01,104,0030029,,,,,,,2024-10-03,1,,,,,アオイビソウ,0
810,3430001092825,新規,0,2024-10-03,2024-10-03,リベルダージ株式会社,,株式会社,北海道,札幌市中央区,南三条東３丁目８番地ラフィネタワー札幌南３条２１０４号,,01,101,0600053,,,,,,,2024-10-03,1,,,,,リベルダージ,0
832,4010001248682,新規,0,2024-10-03,2024-10-03,株式会社Ｔｏｋｉｏ　Ｆｅｌｉｚ,,株式会社,東京都,千代田区,丸の内１丁目１１番１号パシフィックセンチュリープレイス丸の内１３階,,13,101,1000005,,,,,,,2024-10-03,1,,,,,トキオフェリス,0
833,4010001248699,新規,0,2024-10-03,2024-10-03,Ｓａｎｗｏ株式会社,,株式会社,東京都,文京区,本駒込４丁目３９番４号王府ビル２０１,,13,105,1130021,,,,,,,2024-10-03,1,,,,,サンヲ,0
834,4010001248732,新規,0,2024-10-03,2024-10-03,サイボーグ技術株式会社,,株式会社,東京都,中央区,日本橋箱崎町１７番８号,,13,102,1030015,,,,,,,2024-10-03,1,,,,,サイボーグギジュツ,0
835,4010001248740,新規,0,2024-10-03,2024-10-03,株式会社ジェイ・グロース,,株式会社,東京都,千代田区,有楽町１丁目７番１号,,13,101,1000006,,,,,,,2024-10-03,1,,,,,ジェイグロース,0
838,4010003044989,新規,0,2024-10-03,2024-10-03,パール合同会社,,合同会社,東京都,千代田区,丸の内１丁目８番３号丸の内トラストタワー本館２０階,,13,101,1000005,,,,,,,2024-10-03,1,,,,,パール,0
839,4010003045013,新規,0,2024-10-03,2024-10-03,合同会社ＦＥ石岡ＰＰＡ,,合同会社,東京都,中央区,日本橋室町２丁目３番１号,,13,102,1030022,,,,,,,2024-10-03,1,,,,,エフイーイシオカピーピーエー,0
840,4010003045046,新規,0,2024-10-03,2024-10-03,合同会社蓄電所４号,,合同会社,東京都,中央区,日本橋茅場町３丁目４番２号ＫＤＸ茅場町ビル４Ｆ,,13,102,1030025,,,,,,,2024-10-03,1,,,,,チクデンショヨンゴウ,0
841,4010003045054,新規,0,2024-10-03,2024-10-03,ＹＨエステート合同会社,,合同会社,東京都,中央区,銀座１丁目２２番１号,,13,102,1040061,,,,,,,2024-10-03,1,,,,,ワイエイチエステート,0
849,4010401185476,新規,0,2024-10-03,2024-10-03,星凛生物株式会社,,株式会社,東京都,港区,南青山５丁目４番２７号,,13,103,1070062,,,,,,,2024-10-03,1,,,,,セイリンセイブツ,0
850,4010403033526,新規,0,2024-10-03,2024-10-03,のぞみ羽田ソーラー合同会社,,合同会社,東京都,港区,芝５丁目２９番１９号ＰＭＯ田町ＩＶ８階,00136480,13,103,1080014,,,,,,,2024-10-03,1,,,,,ノゾミハンダソーラー,0
851,4010403033534,新規,0,2024-10-03,2024-10-03,のぞみソーラーホールディングス合同会社,,合同会社,東京都,港区,芝５丁目２９番１９号ＰＭＯ田町ＩＶ８階,00136488,13,103,1080014,,,,,,,2024-10-03,1,,,,,ノゾミソーラーホールディングス,0
852,4010405023632,新規,0,2024-10-03,2024-10-03,一般社団法人のぞみ青木ソーラー,,その他の設立登記法人,東京都,港区,芝５丁目２９番１９号ＰＭＯ田町ＩＶ８階,00136467,13,103,1080014,,,,,,,2024-10-03,1,,,,,ノゾミアオキソーラー,0
853,4010405023640,新規,0,2024-10-03,2024-10-03,一般社団法人のぞみ日向ホールディングス,,その他の設立登記法人,東京都,港区,芝５丁目２９番１９号ＰＭＯ田町ＩＶ８階,00136475,13,103,1080014,,,,,,,2024-10-03,1,,,,,ノゾミヒナタホールディングス,0
854,4010601066030,新規,0,2024-10-03,2024-10-03,株式会社ＨＯＫＯ,,株式会社,東京都,墨田区,東向島２丁目１１番３号,,13,107,1310032,,,,,,,2024-10-03,1,,,,,ホコ,0
856,4010901056053,新規,0,2024-10-03,2024-10-03,株式会社タイガーバーナートウキョウ,,株式会社,東京都,世田谷区,代沢５丁目２９番９号ナイスビル１階,,13,112,1550032,,,,,,,2024-10-03,1,,,,,タイガーバーナートウキョウ,0
857,4010903009380,新規,0,2024-10-03,2024-10-03,モネリ合同会社,,合同会社,東京都,世田谷区,下馬１丁目５５番２２号ＴＨＥパームス祐天寺マスタープレイス１０１号室,,13,112,1540002,,,,,,,2024-10-03,1,,,,,モネリ,0
860,4011001164977,新規,0,2024-10-03,2024-10-03,ａｓｈｉｔａｎｏ株式会社,,株式会社,東京都,渋谷区,恵比寿西２丁目８－４ＥＸ恵比寿西ビル５Ｆ,,13,113,1500021,,,,,,,2024-10-03,1,,,,,アシタノ,0
861,4011001165018,新規,0,2024-10-03,2024-10-03,株式会社ＴＨＥ　ＣＲＯＳＳ　ＥＮＴＥＲＴＡＩＮＭＥＮＴ　ＧＬＯＢＡＬ,,株式会社,東京都,渋谷区,東４丁目６番２号テラスイーストフォー８０１号室,,13,113,1500011,,,,,,,2024-10-03,1,,,,,ザクロスエンタテインメントグローバル,0
865,4011003020121,新規,0,2024-10-03,2024-10-03,合同会社ＳＡＣＨＩ,,合同会社,東京都,渋谷区,渋谷２丁目１９－１５宮益坂ビルディング６０９,,13,113,1500002,,,,,,,2024-10-03,1,,,,,サチ,0
868,4011101108966,新規,0,2024-10-03,2024-10-03,株式会社心,,株式会社,東京都,新宿区,新宿６丁目２７番２９－１４１９号,,13,104,1600022,,,,,,,2024-10-03,1,,,,,シン,0
869,4011101108974,新規,0,2024-10-03,2024-10-03,ＡｋｉｙａＡｉｒ株式会社,,株式会社,東京都,新宿区,西新宿６丁目５番１号新宿アイランドタワー２階,,13,104,1600023,,,,,,,2024-10-03,1,,,,,アキヤエアー,0
871,4011203004493,新規,0,2024-10-03,2024-10-03,Ｓｔａｕｎｔｏｎ　Ｈｉｌｌ合同会社,,合同会社,東京都,中野区,本町２丁目４１番２号Ｂ’ｓハウス,,13,114,1640012,,,,,,,2024-10-03,1,,,,,スタウントンヒル,0
873,4011401026422,新規,0,2024-10-03,2024-10-03,株式会社実盈,,株式会社,東京都,板橋区,中丸町５０－１,,13,119,1730026,,,,,,,2024-10-03,1,,,,,ミエイ,0
877,4011801044932,新規,0,2024-10-03,2024-10-03,株式会社ミールソリューション,,株式会社,東京都,葛飾区,四つ木５丁目２４番１７－８０１号,,13,122,1240011,,,,,,,2024-10-03,1,,,,,ミールソリューション,0
884,4012803003521,新規,0,2024-10-03,2024-10-03,合同会社コリズ測定サービス,,合同会社,東京都,昭島市,美堀町１丁目５－８,,13,207,1960001,,,,,,,2024-10-03,1,,,,,コリズソクテイサービス,0
886,4013301053158,新規,0,2024-10-03,2024-10-03,株式会社Ｒｅ・コーポレーション,,株式会社,東京都,豊島区,西池袋４丁目４番２２号Ｔ・Ｈ・Ｍ２０６号,,13,116,1710021,,,,,,,2024-10-03,1,,,,,リコーポレーション,0
887,4013301053166,新規,0,2024-10-03,2024-10-03,久日ジャパン株式会社,,株式会社,東京都,豊島区,東池袋３丁目１－１サンシャイン６０、４５階,,13,116,1700013,,,,,,,2024-10-03,1,,,,,ジュウリジャパン,0
892,4020001159375,新規,0,2024-10-03,2024-10-03,金帝科技日本株式会社,,株式会社,神奈川県,横浜市西区,みなとみらい３丁目６番１号,,14,103,2200012,,,,,,,2024-10-03,1,,,,,キンテイカギニホン,0
893,4020001159425,新規,0,2024-10-03,2024-10-03,フライングスターコンサルティング株式会社,,株式会社,神奈川県,横浜市保土ケ谷区,天王町２丁目４０番地イニシア横浜天王町５０６号,,14,106,2400003,,,,,,,2024-10-03,1,,,,,フライングスターコンサルティング,0
898,4021001083375,新規,0,2024-10-03,2024-10-03,ＨＡＭＺＡ　ＡＳＩＦ　ＴＲＡＤＩＮＧ株式会社,,株式会社,神奈川県,厚木市,緑ケ丘５丁目１５番地１０スペースぬるみず１１０号,,14,212,2430041,,,,,,,2024-10-03,1,,,,,ハムザアシフトレーディング,0
904,4030001162634,新規,0,2024-10-03,2024-10-03,株式会社東昇,,株式会社,埼玉県,久喜市,鷲宮１８２番地８,,11,232,3400217,,,,,,,2024-10-03,1,,,,,トウショウ,0
905,4030001162717,新規,0,2024-10-03,2024-10-03,株式会社ストレージＤ,,株式会社,埼玉県,新座市,野火止７丁目１２番３号,,11,230,3520011,,,,,,,2024-10-03,1,,,,,ストレージディー,0
906,4030001162725,新規,0,2024-10-03,2024-10-03,ＳＹＮＥＲＧＹ　ＦＩＴ株式会社,,株式会社,埼玉県,さいたま市大宮区,桜木町２丁目３番地大宮マルイ７階,,11,103,3300854,,,,,,,2024-10-03,1,,,,,シナジーフィット,0
908,4030003025211,新規,0,2024-10-03,2024-10-03,合同会社ＩＳ,,合同会社,埼玉県,さいたま市西区,大字佐知川５８４番地１３,,11,101,3310064,,,,,,,2024-10-03,1,,,,,アイズ,0
909,4030003025228,新規,0,2024-10-03,2024-10-03,ＰｅａｃｈＶａｌｕｅ合同会社,,合同会社,埼玉県,蕨市,北町２丁目１番１号２０４,,11,223,3350001,,,,,,,2024-10-03,1,,,,,ピーチバリュー,0
910,4030003025236,新規,0,2024-10-03,2024-10-03,ＳＡＹＡＩＮＴＥＲＮＡＴＩＯＮＡＬ合同会社,,合同会社,埼玉県,狭山市,入間川２丁目１２番３６号ビレッジ英Ａ－１０１,,11,215,3501305,,,,,,,2024-10-03,1,,,,,サヤインターナショナル,0
912,4040001135606,新規,0,2024-10-03,2024-10-03,株式会社Ｒａｖｅｎｚ,,株式会社,千葉県,銚子市,森戸町５３９番地１,,12,202,2880872,,,,,,,2024-10-03,1,,,,,レイブンズ,0
913,4040001135622,新規,0,2024-10-03,2024-10-03,サンキューパートナーズ株式会社,,株式会社,千葉県,習志野市,鷺沼４丁目２番５－１０１号,,12,216,2750014,,,,,,,2024-10-03,1,,,,,サンキューパートナーズ,0
914,4040001135630,新規,0,2024-10-03,2024-10-03,株式会社ＧＯＯＯＤ　ＳＣＯＯＰ,,株式会社,千葉県,野田市,七光台３１６番地の４２,,12,208,2780051,,,,,,,2024-10-03,1,,,,,グッドスコップ,0
915,4040001135663,新規,0,2024-10-03,2024-10-03,株式会社トール,,株式会社,千葉県,千葉市中央区,亀井町１２番９－２号,,12,101,2600011,,,,,,,2024-10-03,1,,,,,トール,0
918,4040003025821,新規,0,2024-10-03,2024-10-03,合同会社日高,,合同会社,千葉県,千葉市中央区,富士見２丁目１２番８号さくら井屋ビル２階,,12,101,2600015,,,,,,,2024-10-03,1,,,,,ヒダカ,0
919,4040003025887,新規,0,2024-10-03,2024-10-03,合同会社ＡＣパラス,,合同会社,千葉県,千葉市中央区,松波２丁目４番１８号,,12,101,2600044,,,,,,,2024-10-03,1,,,,,エーシーパラス,0
920,4040003025895,新規,0,2024-10-03,2024-10-03,合同会社ＡＣヒギエア,,合同会社,千葉県,千葉市中央区,松波２丁目４番１８号,,12,101,2600044,,,,,,,2024-10-03,1,,,,,エーシーヒギエア,0
923,4050001055480,新規,0,2024-10-03,2024-10-03,株式会社つばき,,株式会社,茨城県,取手市,白山７丁目６番１２－２０９号,,08,217,3020023,,,,,,,2024-10-03,1,,,,,ツバキ,0
925,4060001037536,新規,0,2024-10-03,2024-10-03,株式会社ウィンフーズ,,株式会社,栃木県,小山市,大字下河原田９５４番地栃木県南地方卸売市場内,,09,208,3230052,,,,,,,2024-10-03,1,,,,,ウィンフーズ,0
926,4060001037544,新規,0,2024-10-03,2024-10-03,株式会社那須農園,,株式会社,栃木県,真岡市,古山１３２４番地,,09,209,3214535,,,,,,,2024-10-03,1,,,,,ナスノウエン,0
930,4070001042221,新規,0,2024-10-03,2024-10-03,未来くるファーマシー株式会社,,株式会社,群馬県,高崎市,若松町１４８番地１コンチェルトハイツＢ棟１階,,10,202,3700836,,,,,,,2024-10-03,1,,,,,ミライクルファーマシー,0
931,4070001042246,新規,0,2024-10-03,2024-10-03,株式会社Ｑｕｉｎｔ,,株式会社,群馬県,北群馬郡吉岡町,大字大久保１２３０番地３,,10,345,3703602,,,,,,,2024-10-03,1,,,,,クイント,0
935,4080101025026,新規,0,2024-10-03,2024-10-03,株式会社デコード,,株式会社,静岡県,下田市,田牛７１８－２６,,22,219,4150029,,,,,,,2024-10-03,1,,,,,デコード,0
937,4080401027481,新規,0,2024-10-03,2024-10-03,株式会社倉田工務店,,株式会社,静岡県,浜松市中央区,佐浜町２１６２番地,,22,138,4311114,,,,,,,2024-10-03,1,,,,,クラタコウムテン,0
941,4100001037894,新規,0,2024-10-03,2024-10-03,株式会社アグリブレイブ,,株式会社,長野県,佐久市,下平尾１３７２番地３,,20,217,3850003,,,,,,,2024-10-03,1,,,,,アグリブレイブ,0
945,4100003007796,新規,0,2024-10-03,2024-10-03,ＴＳＵＢＯＩ合同会社,,合同会社,長野県,北佐久郡御代田町,大字御代田３８１２番地１７,,20,323,3890206,,,,,,,2024-10-03,1,,,,,ツボイ,0
947,4110001038735,新規,0,2024-10-03,2024-10-03,Ｐｅａｋ　Ｓｅａｓｏｎ株式会社,,株式会社,新潟県,妙高市,大字田切２１９番地,,15,217,9492102,,,,,,,2024-10-03,1,,,,,ピークシーズン,0
953,4120001268926,新規,0,2024-10-03,2024-10-03,株式会社キセキ,,株式会社,大阪府,大阪市中央区,本町４丁目８－９ＲＥ－０２２５階株式会社エネイブル内,,27,128,5410053,,,,,,,2024-10-03,1,,,,,キセキ,0
954,4120001268983,新規,0,2024-10-03,2024-10-03,株式会社シャイン,,株式会社,大阪府,大阪市福島区,福島６丁目１１番１３－５０５号,,27,103,5530003,,,,,,,2024-10-03,1,,,,,シャイン,0
955,4120001268991,新規,0,2024-10-03,2024-10-03,鳴狄株式会社,,株式会社,大阪府,大阪市北区,天神橋７丁目６番１８号,,27,127,5310041,,,,,,,2024-10-03,1,,,,,メイディ,0
956,4120001269008,新規,0,2024-10-03,2024-10-03,共和株式会社,,株式会社,大阪府,大阪市北区,池田町１番２－１００６号,,27,127,5300033,,,,,,,2024-10-03,1,,,,,キョウワ,0
957,4120001269024,新規,0,2024-10-03,2024-10-03,株式会社美月,,株式会社,大阪府,守口市,寺方錦通１丁目１番３号,,27,209,5700042,,,,,,,2024-10-03,1,,,,,ミツキ,0
960,4120003027652,新規,0,2024-10-03,2024-10-03,合同会社ＯＮＥ　ＦＯＲ　ＯＮＥ,,合同会社,大阪府,大阪市平野区,瓜破１丁目１番１１－１４０８号,,27,126,5470024,,,,,,,2024-10-03,1,,,,,ワンフォーワン,0
964,4120903005360,新規,0,2024-10-03,2024-10-03,合同会社ＹＵＫＩＲＩ,,合同会社,大阪府,豊中市,桜の町６丁目５番１３－２０１号,,27,203,5600054,,,,,,,2024-10-03,1,,,,,ユキリ,0
966,4122001038474,新規,0,2024-10-03,2024-10-03,株式会社小さな蕾,,株式会社,大阪府,東大阪市,川田２丁目１４番２６号,,27,227,5780905,,,,,,,2024-10-03,1,,,,,チイサナツボミ,0
967,4122001038499,新規,0,2024-10-03,2024-10-03,株式会社エヌフェザー,,株式会社,大阪府,東大阪市,東石切町５丁目４番４３号,,27,227,5798011,,,,,,,2024-10-03,1,,,,,エヌフェザー,0
969,4122003003014,新規,0,2024-10-03,2024-10-03,スターダスト合同会社,,合同会社,大阪府,東大阪市,出雲井本町５番１１－６０４号,,27,227,5798034,,,,,,,2024-10-03,1,,,,,スターダスト,0
977,4130005017196,新規,0,2024-10-03,2024-10-03,医療法人ゆたの会,,その他の設立登記法人,京都府,京都市左京区,下鴨本町１４番地ヤマモトビル１Ｆ,,26,103,6060862,,,,,,,2024-10-03,1,,,,,ユタノカイ,0
984,4140001135934,新規,0,2024-10-03,2024-10-03,株式会社ＷＹ２４,,株式会社,兵庫県,神戸市中央区,中山手通１丁目１７番１４号ゴールドウッズ東門タワービル１階,,28,110,6500004,,,,,,,2024-10-03,1,,,,,ダブリューワイトゥエンティーフォー,0
985,4140001135950,新規,0,2024-10-03,2024-10-03,株式会社Ｌ．Ｃａｎｖａｓ,,株式会社,兵庫県,神戸市東灘区,本山中町４丁目１２番２５号,,28,101,6580016,,,,,,,2024-10-03,1,,,,,エルカンヴァス,0
986,4140001135959,新規,0,2024-10-03,2024-10-03,株式会社ＫＷＣ,,株式会社,兵庫県,姫路市,飾磨区細江２３０３,,28,201,6728064,,,,,,,2024-10-03,1,,,,,ケーダブルシー,0
990,4160001026248,新規,0,2024-10-03,2024-10-03,株式会社Ｎｅｘｔアドバンス,,株式会社,滋賀県,野洲市,木部８３７番地,,25,210,5202431,,,,,,,2024-10-03,1,,,,,ネクストアドバンス,0
991,4160003003286,新規,0,2024-10-03,2024-10-03,合同会社ＭＹＯＪＵ,,合同会社,滋賀県,大津市,小野３０６－９３,,25,201,5200525,,,,,,,2024-10-03,1,,,,,ミョウジュ,0
992,4170001018327,新規,0,2024-10-03,2024-10-03,株式会社川口金物,,株式会社,和歌山県,御坊市,島７７０番地２,,30,205,6440003,,,,,,,2024-10-03,1,,,,,カワグチカナモノ,0
1001,4180001163452,新規,0,2024-10-03,2024-10-03,加藤化学株式会社,,株式会社,愛知県,名古屋市東区,代官町３５番１６号,,23,102,4610002,,,,,,,2024-10-03,1,,,,,カトウカガク,0
1002,4180001163493,新規,0,2024-10-03,2024-10-03,株式会社アンリミ・ラボ,,株式会社,愛知県,名古屋市中区,丸の内３丁目２１番１９号,,23,106,4600002,,,,,,,2024-10-03,1,,,,,アンリミラボ,0
1006,4180003027449,新規,0,2024-10-03,2024-10-03,合同会社ジャパン運輸,,合同会社,愛知県,海部郡大治町,大字堀之内字半之返８３７アルバーダＮ１０１,,23,424,4901137,,,,,,,2024-10-03,1,,,,,ジャパンウンユ,0
1007,4180003027457,新規,0,2024-10-03,2024-10-03,合同会社安居庵,,合同会社,愛知県,北名古屋市,鍛治ケ一色拳６０番地ベルフルール１０１,00136499,23,234,4810000,,,,,,,2024-10-03,1,,,,,アンゴアン,0
1011,4180303006301,新規,0,2024-10-03,2024-10-03,合同会社Ａｃｒｏｓｓ,,合同会社,愛知県,安城市,三河安城南町１丁目９番地７ガーデンヒルズ三河安城ザ・タワー７０２,,23,212,4460058,,,,,,,2024-10-03,1,,,,,,0
1014,4190001031682,新規,0,2024-10-03,2024-10-03,株式会社ＥＭ,,株式会社,三重県,四日市市,松本３丁目１６番１１号マリアーブルＡ１０２,,24,202,5100836,,,,,,,2024-10-03,1,,,,,イーエム,0
1015,4190001031690,新規,0,2024-10-03,2024-10-03,ミフレル株式会社,,株式会社,三重県,津市,羽所町３８４番地,,24,201,5140009,,,,,,,2024-10-03,1,,,,,ミフレル,0
1016,4190001031699,新規,0,2024-10-03,2024-10-03,株式会社ステーキハウスＧｒａｚｉｅ,,株式会社,三重県,名張市,鴻之台２番町１２６番地,,24,208,5180702,,,,,,,2024-10-03,1,,,,,ステーキハウスグラツィエ,0
1017,4190005011986,新規,0,2024-10-03,2024-10-03,一般社団法人ＪＯＩＮ　ＴＯＩＮ,,その他の設立登記法人,三重県,員弁郡東員町,大字山田１６００番地,,24,324,5110251,,,,,,,2024-10-03,1,,,,,ジョイントウイン,0
1022,4200001042991,新規,0,2024-10-03,2024-10-03,株式会社ＴＯＭＹ,,株式会社,岐阜県,安八郡輪之内町,四郷１３３５番地の１,,21,382,5030204,,,,,,,2024-10-03,1,,,,,トミー,0
1024,4200003006516,新規,0,2024-10-03,2024-10-03,合同会社エイトブリッジ,,合同会社,岐阜県,高山市,千島町１０２４番地１２,,21,203,5060032,,,,,,,2024-10-03,1,,,,,エイトブリッジ,0
1026,4210001019931,新規,0,2024-10-03,2024-10-03,株式会社新拓非破壊検査,,株式会社,福井県,福井市,宝永１丁目２７番１１号,,18,201,9100004,,,,,,,2024-10-03,1,,,,,シンタクヒハカイケンサ,0
1031,4240001063893,新規,0,2024-10-03,2024-10-03,リプラシア株式会社,,株式会社,広島県,広島市東区,中山中町１７番１号,,34,102,7320026,,,,,,,2024-10-03,1,,,,,リプラシア,0
1037,4260001039512,新規,0,2024-10-03,2024-10-03,株式会社Ａｓｔｏｒｍ,,株式会社,岡山県,岡山市南区,藤田４９７番地,,33,104,7010221,,,,,,,2024-10-03,1,,,,,エーストーム,0
1039,4290001107373,新規,0,2024-10-03,2024-10-03,株式会社ＡＳＵＭＯ‐ＰＬＵＳ,,株式会社,福岡県,筑紫野市,大字山家３６６７番地４,,40,217,8180003,,,,,,,2024-10-03,1,,,,,アスモプラス,0
1041,4290003015896,新規,0,2024-10-03,2024-10-03,ピーチクリエイト合同会社,,合同会社,福岡県,春日市,平田台５丁目１番地４５,,40,218,8160812,,,,,,,2024-10-03,1,,,,,ピーチクリエイト,0
1042,4290801030923,新規,0,2024-10-03,2024-10-03,株式会社竹島工業,,株式会社,福岡県,遠賀郡芦屋町,船頭町１３番４号エクスィステンツ２０２号,,40,381,8070121,,,,,,,2024-10-03,1,,,,,タケシマコウギョウ,0
1043,4290801030931,新規,0,2024-10-03,2024-10-03,エヌ・ティファシリティーズ株式会社,,株式会社,福岡県,北九州市小倉北区,紺屋町５番５号,,40,106,8020081,,,,,,,2024-10-03,1,,,,,エヌティファシリティーズ,0
1044,4290805009773,新規,0,2024-10-03,2024-10-03,アルファ税理士法人,,その他の設立登記法人,福岡県,北九州市小倉南区,下城野２丁目６番１７号,,40,107,8020804,,,,,,,2024-10-03,1,,,,,アルファ,0
1050,4320003004482,新規,0,2024-10-03,2024-10-03,合同会社セレナーデ,,合同会社,大分県,大分市,坂ノ市中央１丁目１５番２号,,44,201,8700307,,,,,,,2024-10-03,1,,,,,,0
1056,4340001026824,新規,0,2024-10-03,2024-10-03,株式会社ヨシカワオートサービス,,株式会社,鹿児島県,西之表市,西之表６２５４番地１,,46,213,8913101,,,,,,,2024-10-03,1,,,,,ヨシカワオートサービス,0
1061,4350003004760,新規,0,2024-10-03,2024-10-03,合同会社英建総,,合同会社,宮崎県,児湯郡高鍋町,大字北高鍋９１７番地,,45,401,8840002,,,,,,,2024-10-03,1,,,,,エイケンソウ,0
1063,4360001034239,新規,0,2024-10-03,2024-10-03,株式会社Ｂｅｙｏｎｄ　ｉｍｐｏｓｓｉｂｌｅ,,株式会社,沖縄県,那覇市,高良３丁目８番２３号眞浩商事ビル３０１,,47,201,9010145,,,,,,,2024-10-03,1,,,,,ビヨンドインポッシブル,0
1064,4360003014354,新規,0,2024-10-03,2024-10-03,合同会社Ｓ・Ｓ,,合同会社,沖縄県,那覇市,識名３丁目１番４８号,,47,201,9020078,,,,,,,2024-10-03,1,,,,,エスエス,0
1078,4410001013947,新規,0,2024-10-03,2024-10-03,平安建設株式会社,,株式会社,秋田県,男鹿市,脇本富永字福田５７番地,,05,206,0100344,,,,,,,2024-10-03,1,,,,,ヘイアンケンセツ,0
1080,4430001092766,新規,0,2024-10-03,2024-10-03,株式会社ＥＦＵＲＩ,,株式会社,北海道,札幌市西区,西町南１６丁目１－２６ＧｒａｎＭｏｄｅ西町南４０１号室,,01,107,0630062,,,,,,,2024-10-03,1,,,,,エフリ,0
1081,4430001092790,新規,0,2024-10-03,2024-10-03,ＡＯＲＡＫＩ株式会社,,株式会社,北海道,虻田郡ニセコ町,字ニセコ１４８－５,,01,395,0481511,,,,,,,2024-10-03,1,,,,,アオラキ,0
1082,4430001092799,新規,0,2024-10-03,2024-10-03,株式会社なんて自由,,株式会社,北海道,札幌市西区,山の手二条６丁目５番３３号,,01,107,0630002,,,,,,,2024-10-03,1,,,,,ナンテジユウ,0
1086,4430003016839,新規,0,2024-10-03,2024-10-03,合同会社アルゴンホールディングス,,合同会社,北海道,札幌市中央区,北一条西１６丁目１番地５,,01,101,0600001,,,,,,,2024-10-03,1,,,,,アルゴンホールディングス,0
1095,4480005007039,新規,0,2024-10-03,2024-10-03,一般社団法人四国国際交流地域創造協会,,その他の設立登記法人,徳島県,徳島市,東新町１丁目８番２の２,,36,201,7700912,,,,,,,2024-10-03,1,,,,,シコクコクサイコウリュウチイキソウゾウキョウカイ,0
1098,4500001025917,新規,0,2024-10-03,2024-10-03,株式会社ブライトアップ,,株式会社,愛媛県,松山市,北条辻１１７０番地１２,00136495,38,201,7992430,,,,,,,2024-10-03,1,,,,,ブライトアップ,0
1099,4500005008736,新規,0,2024-10-03,2024-10-03,税理士法人さくら税務会計事務所,,その他の設立登記法人,愛媛県,松山市,日の出町７番８号,,38,201,7900961,,,,,,,2024-10-03,1,,,,,サクラゼイムカイケイジムショ,0
1111,5010001248574,新規,0,2024-10-03,2024-10-03,株式会社スマートベース,,株式会社,東京都,文京区,小石川３丁目２７番１６－１４０４号,,13,105,1120002,,,,,,,2024-10-03,1,,,,,スマートベース,0
1112,5010001248723,新規,0,2024-10-03,2024-10-03,株式会社日本通信基地局,,株式会社,東京都,中央区,銀座１丁目１２番４号Ｎ＆ＥＢＬＤ．７階,,13,102,1040061,,,,,,,2024-10-03,1,,,,,ニホンツウシンキチキョク,0
1113,5010001248789,新規,0,2024-10-03,2024-10-03,株式会社イキガイ,,株式会社,東京都,中央区,新富１丁目９番６号,,13,102,1040041,,,,,,,2024-10-03,1,,,,,イキガイ,0
1117,5010003044963,新規,0,2024-10-03,2024-10-03,ＤＡ和合同会社,,合同会社,東京都,中央区,銀座７丁目１３番２０号銀座ＴＨビル９階,,13,102,1040061,,,,,,,2024-10-03,1,,,,,ダワ,0
1118,5010003045061,新規,0,2024-10-03,2024-10-03,Ｃ２Ｎダイアグノスティクス・ジャパン合同会社,,合同会社,東京都,千代田区,大手町１丁目５番１号大手町ファーストスクエアイーストタワー４階,,13,101,1000004,,,,,,,2024-10-03,1,,,,,シーツーエヌダイアグノスティクスジャパン,0
1119,5010003045103,新規,0,2024-10-03,2024-10-03,ゼネフィ合同会社,,合同会社,東京都,千代田区,神田須田町１丁目７番８号ＶＯＲＴ秋葉原ＩＶ２Ｆ,,13,101,1010041,,,,,,,2024-10-03,1,,,,,ゼネフィ,0
1120,5010003045111,新規,0,2024-10-03,2024-10-03,合同会社ひとたび,,合同会社,東京都,中央区,東日本橋２丁目１６番４号,,13,102,1030004,,,,,,,2024-10-03,1,,,,,ヒトタビ,0
1127,5010403033525,新規,0,2024-10-03,2024-10-03,のぞみ青木ソーラー合同会社,,合同会社,東京都,港区,芝５丁目２９番１９号ＰＭＯ田町ＩＶ８階,00136479,13,103,1080014,,,,,,,2024-10-03,1,,,,,ノゾミアオキソーラー,0
1128,5010403033533,新規,0,2024-10-03,2024-10-03,のぞみ日向ホールディングス合同会社,,合同会社,東京都,港区,芝５丁目２９番１９号ＰＭＯ田町ＩＶ８階,00136487,13,103,1080014,,,,,,,2024-10-03,1,,,,,ノゾミヒナタホールディングス,0
1129,5010403033558,新規,0,2024-10-03,2024-10-03,合同会社Ｎｏ　Ｖａｐｅ　Ｎｏ　Ｌｉｆｅ,,合同会社,東京都,港区,赤坂８丁目１１－１１－２０１,,13,103,1070052,,,,,,,2024-10-03,1,,,,,ノーヴェイプノーライフ,0
1130,5010405023557,新規,0,2024-10-03,2024-10-03,一般社団法人資産家塾,,その他の設立登記法人,東京都,港区,虎ノ門１丁目１－２１,,13,103,1050001,,,,,,,2024-10-03,1,,,,,シサンカジュク,0
1131,5010405023631,新規,0,2024-10-03,2024-10-03,一般社団法人のぞみ箭坪ソーラー,,その他の設立登記法人,東京都,港区,芝５丁目２９番１９号ＰＭＯ田町ＩＶ８階,00136466,13,103,1080014,,,,,,,2024-10-03,1,,,,,ノゾミヤツボソーラー,0
1132,5010503007585,新規,0,2024-10-03,2024-10-03,合同会社ケアラネットサービス,,合同会社,東京都,台東区,上野２丁目１２番１８号池之端ヒロハイツ２階,,13,106,1100005,,,,,,,2024-10-03,1,,,,,ケアラネットサービス,0
1133,5010803005116,新規,0,2024-10-03,2024-10-03,合同会社ＩＡ,,合同会社,東京都,大田区,西蒲田８丁目２０番６号,,13,111,1440051,,,,,,,2024-10-03,1,,,,,アイエー,0
1142,5011001164976,新規,0,2024-10-03,2024-10-03,株式会社おたか組,,株式会社,東京都,渋谷区,恵比寿３丁目３４番１６号,,13,113,1500013,,,,,,,2024-10-03,1,,,,,オタカグミ,0
1143,5011001165082,新規,0,2024-10-03,2024-10-03,株式会社Ｃｏｍｅｔ,,株式会社,東京都,渋谷区,神宮前６丁目２３‐４桑野ビル２Ｆ,,13,113,1500001,,,,,,,2024-10-03,1,,,,,コメット,0
1149,5011101108981,新規,0,2024-10-03,2024-10-03,株式会社ファインコミュニケーション,,株式会社,東京都,新宿区,西新宿３丁目３番１３号西新宿水間ビル２Ｆ,,13,104,1600023,,,,,,,2024-10-03,1,,,,,ファインコミュニケーション,0
1151,5011301030028,新規,0,2024-10-03,2024-10-03,株式会社アジャスト,,株式会社,東京都,杉並区,成田西２丁目２４番２６号,,13,115,1660016,,,,,,,2024-10-03,1,,,,,アジャスト,0
1157,5011801044915,新規,0,2024-10-03,2024-10-03,株式会社コンプロ,,株式会社,東京都,葛飾区,四つ木１丁目１５番７号,,13,122,1240011,,,,,,,2024-10-03,1,,,,,コンプロ,0
1160,5011803006483,新規,0,2024-10-03,2024-10-03,合同会社亀有地所,,合同会社,東京都,葛飾区,亀有３丁目３７番１１－１３０１号,,13,122,1250061,,,,,,,2024-10-03,1,,,,,カメアリジショ,0
1162,5012301014103,新規,0,2024-10-03,2024-10-03,株式会社想像実現研究所,,株式会社,東京都,町田市,鶴間３丁目４番地１号グランベリーパークセントラルコート３ＦＬ３０２,,13,209,1940004,,,,,,,2024-10-03,1,,,,,,0
1164,5012403006774,新規,0,2024-10-03,2024-10-03,合同会社ヒロ・カンパニー,,合同会社,東京都,武蔵野市,吉祥寺南町１丁目２８番６号,,13,203,1800003,,,,,,,2024-10-03,1,,,,,ヒロカンパニー,0
1165,5012403006782,新規,0,2024-10-03,2024-10-03,Ｓｅｒｅｎｇｅｔｉ　Ｃｏｎｓｕｌｔｉｎｇ合同会社,,合同会社,東京都,稲城市,若葉台３丁目１番地の１－１２１０,,13,225,2060824,,,,,,,2024-10-03,1,,,,,セレンゲッティーコンサルティング,0
1169,5013301053149,新規,0,2024-10-03,2024-10-03,株式会社Ｒｓ,,株式会社,東京都,豊島区,長崎１丁目５番１２号キューブ池袋３０１号,,13,116,1710051,,,,,,,2024-10-03,1,,,,,アールズ,0
1181,5021001083366,新規,0,2024-10-03,2024-10-03,株式会社ＭＧＬ　Ｂｒｏｔｈｅｒｓ,,株式会社,神奈川県,相模原市中央区,中央１丁目１番１６号コスモセントラル４０３,,14,152,2520239,,,,,,,2024-10-03,1,,,,,エムジーエルブラザーズ,0
1183,5030001162682,新規,0,2024-10-03,2024-10-03,縁慶株式会社,,株式会社,埼玉県,さいたま市北区,別所町１２３番地５ブレス１２３－Ａ２０２号室,,11,102,3310821,,,,,,,2024-10-03,1,,,,,エンケイ,0
1184,5030001162716,新規,0,2024-10-03,2024-10-03,株式会社ストレージＣ,,株式会社,埼玉県,新座市,野火止７丁目１２番３号,,11,230,3520011,,,,,,,2024-10-03,1,,,,,ストレージシー,0
1185,5030001162724,新規,0,2024-10-03,2024-10-03,株式会社ＳＤＧ,,株式会社,埼玉県,新座市,石神３丁目９番３号,,11,230,3520033,,,,,,,2024-10-03,1,,,,,エスディージー,0
1186,5030003025235,新規,0,2024-10-03,2024-10-03,合同会社Ｉｎｆｉｎｉｔｙ,,合同会社,埼玉県,ふじみ野市,大井１丁目５番１１－１０１号,,11,245,3560053,,,,,,,2024-10-03,1,,,,,インフィニティ,0
1188,5040001135621,新規,0,2024-10-03,2024-10-03,金澤実業株式会社,,株式会社,千葉県,野田市,親野井１０７番地１,,12,208,2700227,,,,,,,2024-10-03,1,,,,,カナザワジツギョウ,0
1189,5040001135695,新規,0,2024-10-03,2024-10-03,株式会社Ａｕｒｏｒａ　Ｃｒａｆｔ,,株式会社,千葉県,市川市,塩焼５丁目２番１６号,,12,203,2720114,,,,,,,2024-10-03,1,,,,,オーロラクラフト,0
1194,5040003025886,新規,0,2024-10-03,2024-10-03,合同会社ＡＣケレス,,合同会社,千葉県,千葉市中央区,松波２丁目４番１８号,,12,101,2600044,,,,,,,2024-10-03,1,,,,,エーシーケレス,0
1195,5040003025894,新規,0,2024-10-03,2024-10-03,合同会社ＡＣメティス,,合同会社,千葉県,千葉市中央区,松波２丁目４番１８号,,12,101,2600044,,,,,,,2024-10-03,1,,,,,エーシーメティス,0
1196,5040003025911,新規,0,2024-10-03,2024-10-03,合同会社鬼海商事,,合同会社,千葉県,木更津市,羽鳥野５丁目１番地４４,,12,206,2920819,,,,,,,2024-10-03,1,,,,,キカイショウジ,0
1197,5040003025928,新規,0,2024-10-03,2024-10-03,合同会社ＮＵＣＯＴｅＫ,,合同会社,千葉県,千葉市美浜区,打瀬１丁目６番地４ファーストウイングＤ－６０５号,,12,106,2610013,,,,,,,2024-10-03,1,,,,,ヌコテック,0
1199,5050003008709,新規,0,2024-10-03,2024-10-03,合同会社ＭＥＴＨＳＥＮ　ＩＮＴＥＲＮＡＴＩＯＮＡＬ,,合同会社,茨城県,筑西市,関本下３３７番地３,,08,227,3080127,,,,,,,2024-10-03,1,,,,,メッセンインターナショナル,0
1200,5060005010249,新規,0,2024-10-03,2024-10-03,おおるり土地家屋調査士法人,,その他の設立登記法人,栃木県,小山市,城北６丁目２１番地３０,,09,208,3230029,,,,,,,2024-10-03,1,,,,,オオルリ,0
1207,5070001042229,新規,0,2024-10-03,2024-10-03,株式会社阿久澤塗装,,株式会社,群馬県,前橋市,苗ヶ島町１９５８番地７,,10,201,3710241,,,,,,,2024-10-03,1,,,,,アクザワトソウ,0
1213,5080401027489,新規,0,2024-10-03,2024-10-03,ＬｉｔｅｒａＷｏｒｋｓ株式会社,,株式会社,静岡県,浜松市中央区,中野町６９５,,22,138,4350004,,,,,,,2024-10-03,1,,,,,リテラワークス,0
1214,5080403005113,新規,0,2024-10-03,2024-10-03,合同会社Ｋ‐ビレッジ,,合同会社,静岡県,袋井市,愛野南３丁目５番地の１２,,22,216,4370040,,,,,,,2024-10-03,1,,,,,ケービレッジ,0
1217,5100001037885,新規,0,2024-10-03,2024-10-03,株式会社ＩＫ,,株式会社,長野県,佐久市,矢嶋１８４２番地,,20,217,3842105,,,,,,,2024-10-03,1,,,,,アイケイ,0
1218,5110001038742,新規,0,2024-10-03,2024-10-03,株式会社サクラブランディング,,株式会社,新潟県,新潟市西区,亀貝３１７６番地,,15,107,9502033,,,,,,,2024-10-03,1,,,,,サクラブランディング,0
1229,5120001268933,新規,0,2024-10-03,2024-10-03,Ａｎｄｙｌｉｇｈｔ　Ｊａｐａｎ株式会社,,株式会社,大阪府,大阪市都島区,都島中通３丁目１３番９号,,27,102,5340022,,,,,,,2024-10-03,1,,,,,アンディライトジャパン,0
1230,5120001268966,新規,0,2024-10-03,2024-10-03,株式会社キヤスクウエル,,株式会社,大阪府,大阪市平野区,喜連３丁目８番６号,,27,126,5470027,,,,,,,2024-10-03,1,,,,,キヤスクウエル,0
1231,5120001268982,新規,0,2024-10-03,2024-10-03,ルッソ株式会社,,株式会社,大阪府,大阪市平野区,西脇３丁目５－２,,27,126,5470035,,,,,,,2024-10-03,1,,,,,ルッソ,0
1232,5120001268999,新規,0,2024-10-03,2024-10-03,日之美株式会社,,株式会社,大阪府,大阪市中央区,上本町西３丁目２番６号柴田興産ビル３０６Ｃ,,27,128,5420062,,,,,,,2024-10-03,1,,,,,ヒノミ,0
1233,5120001269031,新規,0,2024-10-03,2024-10-03,株式会社ＹＲ,,株式会社,大阪府,大阪市天王寺区,舟橋町２０番１９号,,27,109,5430024,,,,,,,2024-10-03,1,,,,,ワイアール,0
1246,5130001078043,新規,0,2024-10-03,2024-10-03,ＡＬ建材株式会社,,株式会社,京都府,京都市南区,西九条森本町５６－１,,26,107,6018444,,,,,,,2024-10-03,1,,,,,エーエルケンザイ,0
1247,5130001078084,新規,0,2024-10-03,2024-10-03,株式会社あしあと,,株式会社,京都府,京丹後市,網野町浅茂川２７２番地,,26,212,6293104,,,,,,,2024-10-03,1,,,,,アシアト,0
1248,5130005017195,新規,0,2024-10-03,2024-10-03,医療法人剛守会,,その他の設立登記法人,京都府,舞鶴市,字浜１７１番地,,26,202,6250036,,,,,,,2024-10-03,1,,,,,タケモリカイ,0
1251,5140001135999,新規,0,2024-10-03,2024-10-03,辰海商事株式会社,,株式会社,兵庫県,神戸市垂水区,舞多聞西７丁目１３番２号,,28,108,6550051,,,,,,,2024-10-03,1,,,,,タツミショウジ,0
1252,5140003021157,新規,0,2024-10-03,2024-10-03,グルーク合同会社,,合同会社,兵庫県,川西市,丸山台３丁目５番地の１３,,28,217,6660152,,,,,,,2024-10-03,1,,,,,グルーク,0
1254,5140005027227,新規,0,2024-10-03,2024-10-03,一般社団法人神戸相続支援協会,,その他の設立登記法人,兵庫県,神戸市中央区,花隈町８番１９号,,28,110,6500013,,,,,,,2024-10-03,1,,,,,コウベソウゾクシエンキョウカイ,0
1256,5160001026255,新規,0,2024-10-03,2024-10-03,株式会社ヤマザキ,,株式会社,滋賀県,蒲生郡竜王町,大字弓削１３６９番地,,25,384,5202501,,,,,,,2024-10-03,1,,,,,ヤマザキ,0
1257,5160001026263,新規,0,2024-10-03,2024-10-03,株式会社ベルウッド,,株式会社,滋賀県,長浜市,内保町１１３１番地,,25,203,5260244,,,,,,,2024-10-03,1,,,,,ベルウッド,0
1258,5160003003293,新規,0,2024-10-03,2024-10-03,フォルティス合同会社,,合同会社,滋賀県,栗東市,下鈎１０４６－１,,25,208,5203026,,,,,,,2024-10-03,1,,,,,フォルティス,0
1269,5180001163583,新規,0,2024-10-03,2024-10-03,株式会社Ｌｉｇｈｔ　Ｗａｌｌ,,株式会社,愛知県,名古屋市中川区,新家１丁目２９０３番地ダイアパレス花水木通り東館４０５号,,23,110,4540972,,,,,,,2024-10-03,1,,,,,ライトウォール,0
1277,5190001031698,新規,0,2024-10-03,2024-10-03,株式会社奥野建築,,株式会社,三重県,伊勢市,西豊浜町１６７１番地,,24,203,5150505,,,,,,,2024-10-03,1,,,,,オクノケンチク,0
1283,5200001042990,新規,0,2024-10-03,2024-10-03,株式会社グラッチェＳＥＲＩＺＡＷＡ,,株式会社,岐阜県,羽島郡岐南町,平島１丁目１３９番地の１プリートＩ,00136508,21,302,5016003,,,,,,,2024-10-03,1,,,,,グラッチェセリザワ,0
1285,5220001026240,新規,0,2024-10-03,2024-10-03,株式会社Ｒｙｏ’ｓ　Ｗｏｒｋｓ,,株式会社,石川県,河北郡内灘町,字大根布１丁目３６１番地２,,17,365,9200266,,,,,,,2024-10-03,1,,,,,リョーズワークス,0
1286,5220001026249,新規,0,2024-10-03,2024-10-03,株式会社鈴信工機,,株式会社,石川県,金沢市,東蚊爪町１丁目２６番地４,,17,201,9200209,,,,,,,2024-10-03,1,,,,,レイシンコウキ,0
1288,5220005008887,新規,0,2024-10-03,2024-10-03,特定非営利活動法人Ｏｌｄ　Ｔｅａｃｈｅｒｓ　Ｎｅｔｗｏｒｋ,,その他の設立登記法人,石川県,小松市,龍助町１２７番地５,,17,203,9230926,,,,,,,2024-10-03,1,,,,,オールドティーチャーズネットワーク,0
1289,5230001020548,新規,0,2024-10-03,2024-10-03,株式会社ＭＵＲＡＩ,,株式会社,富山県,富山市,布市新町１１０番地,,16,201,9398192,,,,,,,2024-10-03,1,,,,,ムライ,0
1290,5240001063876,新規,0,2024-10-03,2024-10-03,株式会社ｋｉｚｕｋｉ,,株式会社,広島県,広島市西区,南観音８丁目４番５号１０１,,34,104,7330035,,,,,,,2024-10-03,1,,,,,,0
1291,5240001063901,新規,0,2024-10-03,2024-10-03,ＷＥＳ　Ｔｅｃ　Ｊａｐａｎ株式会社,,株式会社,広島県,広島市佐伯区,五日市町下河内６９３番地１,,34,108,7315100,,,,,,,2024-10-03,1,,,,,ウェステックジャパン,0
1295,5260001014027,新規,0,2024-10-03,2024-10-03,株式会社谷本組,,株式会社,岡山県,都窪郡早島町,前潟２番地,,33,423,7010303,,,,,,,2024-10-03,1,,,,,タニモトグミ,0
1296,5260001039503,新規,0,2024-10-03,2024-10-03,株式会社平野牧場,,株式会社,岡山県,笠岡市,カブト東町１９１番地３,,33,205,7140051,,,,,,,2024-10-03,1,,,,,ヒラノボクジョウ,0
1299,5290001107389,新規,0,2024-10-03,2024-10-03,株式会社ｅｍｍａ　ｃｏｎｎｅｃｔ,,株式会社,福岡県,福岡市博多区,博多駅前１丁目２３番２号ＰａｒｋＦｒｏｎｔ博多駅前１丁目５Ｆ－Ｂ,,40,132,8120011,,,,,,,2024-10-03,1,,,,,エマコネクト,0
1301,5290003015912,新規,0,2024-10-03,2024-10-03,合同会社稲富地所,,合同会社,福岡県,久留米市,津福本町５１８－９０３,,40,203,8300047,,,,,,,2024-10-03,1,,,,,イナトミジショ,0
1305,5290801030930,新規,0,2024-10-03,2024-10-03,スペースクリエイト株式会社,,株式会社,福岡県,北九州市八幡東区,川淵町１１番１８号,,40,108,8050012,,,,,,,2024-10-03,1,,,,,スペースクリエイト,0
1307,5300001013916,新規,0,2024-10-03,2024-10-03,Ｙｏｈａｋｕ　Ｄｅｓｉｇｎ株式会社,,株式会社,佐賀県,神埼市,神埼町姉川１０６４,,41,210,8420014,,,,,,,2024-10-03,1,,,,,ヨハクデザイン,0
1308,5300002011761,新規,0,2024-10-03,2024-10-03,有限会社イシマル,,有限会社,佐賀県,佐賀市,水ヶ江２丁目１０番１２号,,41,201,8400054,,,,,,,2024-10-03,1,,,,,イシマル,0
1310,5310005008804,新規,0,2024-10-03,2024-10-03,医療法人緑洋会,,その他の設立登記法人,長崎県,長崎市,浜町３番２０号５階,,42,201,8500853,,,,,,,2024-10-03,1,,,,,リョクヨウカイ,0
1311,5320001020745,新規,0,2024-10-03,2024-10-03,株式会社汀和水産,,株式会社,大分県,国東市,武蔵町古市字藤本４００番地４,,44,214,8730412,,,,,,,2024-10-03,1,,,,,ミギワスイサン,0
1312,5330001032509,新規,0,2024-10-03,2024-10-03,株式会社ハレルヤ自動車,,株式会社,熊本県,上益城郡益城町,大字上陳６１３番地１,,43,443,8612203,,,,,,,2024-10-03,1,,,,,ハレルヤジドウシャ,0
1315,5360001034262,新規,0,2024-10-03,2024-10-03,株式会社Ｃｏｏｐｅｒａｔｉｖｅ,,株式会社,沖縄県,中頭郡読谷村,字波平７１番地,,47,324,9040322,,,,,,,2024-10-03,1,,,,,クープレィティブ,0
1318,5360003014345,新規,0,2024-10-03,2024-10-03,合同会社ＲＹＭＺクリエイト,,合同会社,沖縄県,那覇市,古波蔵１丁目２９番２８－２０２号レーヴグランディ古波蔵一丁目,,47,201,9000024,,,,,,,2024-10-03,1,,,,,ライムズクリエイト,0
1329,5400001016818,新規,0,2024-10-03,2024-10-03,株式会社ＳＭＣ,,株式会社,岩手県,紫波郡矢巾町,駅東１丁目４番２１号,,03,322,0283618,,,,,,,2024-10-03,1,,,,,エスエムシー,0
1334,5410003003994,新規,0,2024-10-03,2024-10-03,合同会社Ｓ・Ｔ・Ｗ,,合同会社,秋田県,男鹿市,船越字八郎谷地１３７番地２,,05,206,0100341,,,,,,,2024-10-03,1,,,,,エスティーダブリュー,0
1335,5430001092781,新規,0,2024-10-03,2024-10-03,ノーション株式会社,,株式会社,北海道,札幌市中央区,大通東４丁目４番地４４ＥＡＳＴ４ＳＡＰＰＯＲＯＢＬＤ４Ｆ,,01,101,0600041,,,,,,,2024-10-03,1,,,,,ノーション,0
1339,5430003016838,新規,0,2024-10-03,2024-10-03,合同会社Ｔ．Ｎ．Ｋ,,合同会社,北海道,札幌市北区,新川三条１丁目２－９－左号室,,01,102,0010923,,,,,,,2024-10-03,1,,,,,ティエヌケー,0
1340,5430003016854,新規,0,2024-10-03,2024-10-03,合同会社碧樹,,合同会社,北海道,札幌市手稲区,手稲本町二条５丁目７番１６号,,01,109,0060022,,,,,,,2024-10-03,1,,,,,ヘキジュ,0
1342,5470003002702,新規,0,2024-10-03,2024-10-03,Ｒｅ．ＡｓｓｅｔＤＡＯ合同会社,,合同会社,香川県,高松市,番町２丁目８の２５番町ハイム４０２,,37,201,7600017,,,,,,,2024-10-03,1,,,,,リアセットダオ,0
1346,5500001025916,新規,0,2024-10-03,2024-10-03,株式会社センツ,,株式会社,愛媛県,新居浜市,黒島１丁目１番２７号,,38,205,7920892,,,,,,,2024-10-03,1,,,,,センツ,0
1356,6010001248565,新規,0,2024-10-03,2024-10-03,株式会社アーク,,株式会社,東京都,中央区,日本橋小舟町３番４号,,13,102,1030024,,,,,,,2024-10-03,1,,,,,アーク,0
1357,6010001248697,新規,0,2024-10-03,2024-10-03,株式会社プラム,,株式会社,東京都,中央区,日本橋室町１丁目１１番１２号日本橋水野ビル７階,,13,102,1030022,,,,,,,2024-10-03,1,,,,,プラム,0
1358,6010001248706,新規,0,2024-10-03,2024-10-03,ＮＥＴアセットマネジメント株式会社,,株式会社,東京都,中央区,日本橋浜町１丁目７番１０－４０２号,,13,102,1030007,,,,,,,2024-10-03,1,,,,,エヌイーティーアセットマネジメント,0
1359,6010001248730,新規,0,2024-10-03,2024-10-03,株式会社Ａｕｔｈｅｎｔｉｃ　Ｊａｐａｎ,,株式会社,東京都,中央区,銀座１丁目１２－４Ｎ＆Ｅ・ＢＬＤ．７階,,13,102,1040061,,,,,,,2024-10-03,1,,,,,オーセンティックジャパン,0
1360,6010001248755,新規,0,2024-10-03,2024-10-03,Ｃａｎａｄｉａｎ　Ｓｏｌａｒ　ＳＳＥＳ　Ｊａｐａｎ株式会社,,株式会社,東京都,千代田区,丸の内１丁目９番２号グラントウキョウサウスタワー１１階,,13,101,1000005,,,,,,,2024-10-03,1,,,,,カナディアンソーラーエスエスイーエスジャパン,0
1363,6010003044979,新規,0,2024-10-03,2024-10-03,ＥＬＭＡＩ合同会社,,合同会社,東京都,中央区,八重洲２丁目１－１ＹＡＮＭＡＲＴＯＫＹＯ１２階,,13,102,1040028,,,,,,,2024-10-03,1,,,,,エルマイ,0
1364,6010003045052,新規,0,2024-10-03,2024-10-03,合同会社ＡＣＴ　ＬｉＬｉ,,合同会社,東京都,中央区,銀座１丁目１２－４Ｎ＆ＥＢＬＤ．７階,,13,102,1040061,,,,,,,2024-10-03,1,,,,,アクトリリー,0
1365,6010005038896,新規,0,2024-10-03,2024-10-03,一般社団法人ファンタジー,,その他の設立登記法人,東京都,中央区,日本橋１丁目４番１号,,13,102,1030027,,,,,,,2024-10-03,1,,,,,ファンタジー,0
1366,6010101016351,新規,0,2024-10-03,2024-10-03,ＱＵＥＥＮ　ＳＨＯＰ株式会社,,株式会社,東京都,八王子市,子安町１丁目４８番９号２０２号室,,13,201,1920904,,,,,,,2024-10-03,1,,,,,クイーンショップ,0
1367,6010103002424,新規,0,2024-10-03,2024-10-03,合同会社フクロウ,,合同会社,東京都,八王子市,みなみ野４丁目１０－１９バニヤンコナコースト２０１,,13,201,1920916,,,,,,,2024-10-03,1,,,,,フクロウ,0
1368,6010105002307,新規,0,2024-10-03,2024-10-03,一般社団法人子どもミライ図,,その他の設立登記法人,東京都,八王子市,北野町１０４番地,,13,201,1920906,,,,,,,2024-10-03,1,,,,,コドモミライズ,0
1377,6010401185490,新規,0,2024-10-03,2024-10-03,株式会社スタジオふぉむふぉむ,,株式会社,東京都,港区,南青山３丁目１番３６号青山丸竹ビル６Ｆ,,13,103,1070062,,,,,,,2024-10-03,1,,,,,スタジオフォムフォム,0
1378,6010403033524,新規,0,2024-10-03,2024-10-03,のぞみ箭坪ソーラー合同会社,,合同会社,東京都,港区,芝５丁目２９番１９号ＰＭＯ田町ＩＶ８階,00136478,13,103,1080014,,,,,,,2024-10-03,1,,,,,ノゾミヤツボソーラー,0
1379,6010403033532,新規,0,2024-10-03,2024-10-03,のぞみ日田ソーラー合同会社,,合同会社,東京都,港区,芝５丁目２９番１９号ＰＭＯ田町ＩＶ８階,00136486,13,103,1080014,,,,,,,2024-10-03,1,,,,,ノゾミヒタソーラー,0
1380,6010403033540,新規,0,2024-10-03,2024-10-03,Ｄｅｓｅｒｔ　Ｍｅｔｒｏｐｏｌｉｓ合同会社,,合同会社,東京都,港区,南青山２丁目２番１５号,,13,103,1070062,,,,,,,2024-10-03,1,,,,,デザートメトロポリス,0
1382,6010405023556,新規,0,2024-10-03,2024-10-03,一般社団法人医鍵会,,その他の設立登記法人,東京都,港区,南青山１丁目３－１,,13,103,1070062,,,,,,,2024-10-03,1,,,,,イケンカイ,0
1383,6010405023630,新規,0,2024-10-03,2024-10-03,一般社団法人のぞみ百村ソーラー,,その他の設立登記法人,東京都,港区,芝５丁目２９番１９号ＰＭＯ田町ＩＶ８階,00136465,13,103,1080014,,,,,,,2024-10-03,1,,,,,ノゾミモムラソーラー,0
1384,6010405023639,新規,0,2024-10-03,2024-10-03,一般社団法人のぞみ日田ソーラー,,その他の設立登記法人,東京都,港区,芝５丁目２９番１９号ＰＭＯ田町ＩＶ８階,00136474,13,103,1080014,,,,,,,2024-10-03,1,,,,,ノゾミヒタソーラー,0
1387,6010601065897,新規,0,2024-10-03,2024-10-03,株式会社曜輝,,株式会社,東京都,江東区,牡丹２丁目９－１６－１１４,,13,108,1350046,,,,,,,2024-10-03,1,,,,,ヨウキ,0
1388,6010601066020,新規,0,2024-10-03,2024-10-03,株式会社Ｐｌａｎｔ　Ｐａｒｔｓ,,株式会社,東京都,墨田区,両国１丁目１２番１２号塚田ビル３階,,13,107,1300026,,,,,,,2024-10-03,1,,,,,プラントパーツ,0
1389,6010701046616,新規,0,2024-10-03,2024-10-03,ゴールデンジェム株式会社,,株式会社,東京都,品川区,西五反田１丁目２６番２号五反田サンハイツビル２Ｆ,,13,109,1410031,,,,,,,2024-10-03,1,,,,,ゴールデンジェム,0
1390,6010705003679,新規,0,2024-10-03,2024-10-03,医療法人社団東會,,その他の設立登記法人,東京都,品川区,小山４丁目１番１１号ハーモニーコート１０１,,13,109,1420062,,,,,,,2024-10-03,1,,,,,アズマカイ,0
1391,6010803005115,新規,0,2024-10-03,2024-10-03,Ｃｕｅｉ合同会社,,合同会社,東京都,大田区,久が原１丁目５番７号アークコート久が原４０２,,13,111,1460085,,,,,,,2024-10-03,1,,,,,キューイ,0
1399,6011001164942,新規,0,2024-10-03,2024-10-03,ＣＬＴＳ　Ｔｅｃｈｎｏｌｏｇｉｅｓ　Ｊａｐａｎ株式会社,,株式会社,東京都,渋谷区,恵比寿４丁目３番５号７０４号室アークアウトソーシング株式会社内,,13,113,1500013,,,,,,,2024-10-03,1,,,,,シーエルティーエステクノロジーズジャパン,0
1400,6011001164975,新規,0,2024-10-03,2024-10-03,株式会社ニューロジカ,,株式会社,東京都,渋谷区,神泉町１０番１５号アネックス神泉３０１,,13,113,1500045,,,,,,,2024-10-03,1,,,,,ニューロジカ,0
1405,6011101108997,新規,0,2024-10-03,2024-10-03,株式会社日本言語聴覚療法サービス,,株式会社,東京都,新宿区,下落合２丁目２番２‐１４０８号,,13,104,1610033,,,,,,,2024-10-03,1,,,,,ニホンゲンゴチョウカクリョウホウサービス,0
1409,6011303005308,新規,0,2024-10-03,2024-10-03,Ｙａｎｓｈｕ　ｉｎｔｅｒｎａｔｉｏｎａｌ合同会社,,合同会社,東京都,杉並区,天沼２丁目９番２号マンションサンメイト２０３,,13,115,1670032,,,,,,,2024-10-03,1,,,,,ヤンスインターナショナル,0
1412,6011501031213,新規,0,2024-10-03,2024-10-03,株式会社Ｙ＆Ｍ　ＤＡＮＣＥ　ＬＡＢ．,,株式会社,東京都,荒川区,西日暮里５丁目１１番８号,,13,118,1160013,,,,,,,2024-10-03,1,,,,,ワイアンドエムダンスラボ,0
1414,6011601028092,新規,0,2024-10-03,2024-10-03,華祥海運株式会社,,株式会社,東京都,練馬区,旭丘１丁目１１番３旭丘光ハイム４０１Ｂ号,,13,120,1760005,,,,,,,2024-10-03,1,,,,,カショウカイウン,0
1415,6011701027671,新規,0,2024-10-03,2024-10-03,株式会社Ｚ１,,株式会社,東京都,江戸川区,松島３丁目２２番１７号,,13,123,1320031,,,,,,,2024-10-03,1,,,,,ゼットワン,0
1417,6011801044914,新規,0,2024-10-03,2024-10-03,株式会社エスメタ,,株式会社,東京都,足立区,古千谷本町４丁目１番１７号,,13,121,1210832,,,,,,,2024-10-03,1,,,,,エスメタ,0
1419,6012403006781,新規,0,2024-10-03,2024-10-03,合同会社マーブルマーブル,,合同会社,東京都,調布市,西つつじケ丘２丁目４番地１エストライフつつじヶ丘六番館１０６,,13,208,1820006,,,,,,,2024-10-03,1,,,,,マーブルマーブル,0
1423,6013301053164,新規,0,2024-10-03,2024-10-03,株式会社ＲｅｎｏＢｏｘ,,株式会社,東京都,豊島区,東池袋２丁目６０番２号池袋パークハイツ２Ｆ,,13,116,1700013,,,,,,,2024-10-03,1,,,,,レノボックス,0
1430,6020001159373,新規,0,2024-10-03,2024-10-03,株式会社ＮｅｕｒａＦｕｓｉｏｎ,,株式会社,神奈川県,横浜市磯子区,岡村５丁目１９－５－４０２,,14,107,2350021,,,,,,,2024-10-03,1,,,,,ニューラフュージョン,0
1434,6021001083381,新規,0,2024-10-03,2024-10-03,通達コンサルティング株式会社,,株式会社,神奈川県,相模原市南区,上鶴間本町３丁目１４－５－１０１室,,14,153,2520318,,,,,,,2024-10-03,1,,,,,ツウタツコンサルティング,0
1442,6030001162698,新規,0,2024-10-03,2024-10-03,ブルーバードクリエイションズ株式会社,,株式会社,埼玉県,川越市,新宿町１丁目１７番地１７ウェスタ川越５１６,,11,201,3501124,,,,,,,2024-10-03,1,,,,,ブルーバードクリエイションズ,0
1444,6030003025234,新規,0,2024-10-03,2024-10-03,合同会社松本商事,,合同会社,埼玉県,春日部市,中央６丁目５番地３八千代春日部１０２,,11,214,3440067,,,,,,,2024-10-03,1,,,,,マツモトショウジ,0
1446,6040001135604,新規,0,2024-10-03,2024-10-03,株式会社にじらぼ,,株式会社,千葉県,旭市,ニの５３６６番地２８,,12,215,2892504,,,,,,,2024-10-03,1,,,,,ニジラボ,0
1447,6040001135620,新規,0,2024-10-03,2024-10-03,ＳＲＣホールディングス株式会社,,株式会社,千葉県,南房総市,加茂１４３番地,,12,234,2992525,,,,,,,2024-10-03,1,,,,,エスアールシーホールディングス,0
1451,6040003025893,新規,0,2024-10-03,2024-10-03,合同会社ＡＣフローラ,,合同会社,千葉県,千葉市中央区,松波２丁目４番１８号,,12,101,2600044,,,,,,,2024-10-03,1,,,,,エーシーフローラ,0
1452,6040003025902,新規,0,2024-10-03,2024-10-03,合同会社ｔａｉ,,合同会社,千葉県,白井市,大山口２丁目１１番５棟２０１号,,12,232,2701434,,,,,,,2024-10-03,1,,,,,タイ,0
1453,6040003025910,新規,0,2024-10-03,2024-10-03,合同会社飛越,,合同会社,千葉県,八街市,泉台２丁目１番地６,,12,230,2891105,,,,,,,2024-10-03,1,,,,,ヒエツ,0
1455,6060001037534,新規,0,2024-10-03,2024-10-03,株式会社材料センター,,株式会社,栃木県,鹿沼市,松原３丁目１４０番地,,09,205,3220012,,,,,,,2024-10-03,1,,,,,ザイリョウセンター,0
1456,6060001037550,新規,0,2024-10-03,2024-10-03,株式会社小林興業,,株式会社,栃木県,足利市,上渋垂町２８４番地１５,,09,202,3260335,,,,,,,2024-10-03,1,,,,,コバヤシコウギョウ,0
1460,6070001042228,新規,0,2024-10-03,2024-10-03,株式会社ｎａｏ,,株式会社,群馬県,高崎市,南大類町１００６番地,,10,202,3700036,,,,,,,2024-10-03,1,,,,,ナオ,0
1463,6080101025032,新規,0,2024-10-03,2024-10-03,株式会社共和金型製作所,,株式会社,静岡県,三島市,安久６４番地,,22,206,4110815,,,,,,,2024-10-03,1,,,,,キョウワカナガタセイサクショ,0
1466,6090005007654,新規,0,2024-10-03,2024-10-03,一般財団法人意識研究財団,,その他の設立登記法人,山梨県,甲府市,里吉４丁目８番４０号,,19,201,4000822,,,,,,,2024-10-03,1,,,,,イシキケンキュウザイダン,0
1480,6120001268809,新規,0,2024-10-03,2024-10-03,株式会社Ｍ２,,株式会社,大阪府,大阪市中央区,南船場１丁目１８番２４号長堀橋アーバンライン１０１,,27,128,5420081,,,,,,,2024-10-03,1,,,,,エムツー,0
1481,6120001268874,新規,0,2024-10-03,2024-10-03,株式会社ナレッジコンピューティング,,株式会社,大阪府,大阪市浪速区,難波中２丁目８番６５号新光ビル,,27,111,5560011,,,,,,,2024-10-03,1,,,,,ナレッジコンピューティング,0
1482,6120001268973,新規,0,2024-10-03,2024-10-03,凱旺環球発展株式会社,,株式会社,大阪府,大阪市東住吉区,北田辺５丁目９番３６号－２０３号,,27,121,5460044,,,,,,,2024-10-03,1,,,,,カイオウカンキュウハッテン,0
1483,6120001268981,新規,0,2024-10-03,2024-10-03,三＿株式会社,00136494,株式会社,大阪府,大阪市都島区,中野町４丁目３番６号Ｈ２Ｈ大阪桜之宮邸２Ｅ－３,,27,102,5340027,,,,,,,2024-10-03,1,,,,,サンキン,0
1484,6120001269006,新規,0,2024-10-03,2024-10-03,＿悦商事株式会社,00136464,株式会社,大阪府,大阪市東住吉区,矢田４丁目９－１５－３０５,,27,121,5460023,,,,,,,2024-10-03,1,,,,,センエツショウジ,0
1487,6120005024555,新規,0,2024-10-03,2024-10-03,一般社団法人秘密結社サキノハカ,,その他の設立登記法人,大阪府,大阪市生野区,中川４丁目５－９,,27,116,5440005,,,,,,,2024-10-03,1,,,,,ヒミツケッシャサキノハカ,0
1488,6120005024563,新規,0,2024-10-03,2024-10-03,一般社団法人四国八十八ヶ所ヘンロ小屋プロジェクト,,その他の設立登記法人,大阪府,大阪市中央区,博労町１丁目７番１１号歌一洋建築研究所内,,27,128,5410059,,,,,,,2024-10-03,1,,,,,シコクハチジュウハッカショヘンロゴヤプロジェクト,0
1494,6120901049820,新規,0,2024-10-03,2024-10-03,株式会社Ｗｏｒｌｄ　Ｓｃａｐｅ,,株式会社,大阪府,豊中市,庄内東町３丁目３－２１－２０５,,27,203,5610831,,,,,,,2024-10-03,1,,,,,ワールドエスケイプ,0
1495,6122001038497,新規,0,2024-10-03,2024-10-03,株式会社ＺＥＲＯ１ｔｒａｎｓｐｏｒｔ,,株式会社,大阪府,東大阪市,岩田町６丁目４番３１号,,27,227,5780941,,,,,,,2024-10-03,1,,,,,ゼロワントランスポート,0
1504,6130001078059,新規,0,2024-10-03,2024-10-03,株式会社ＳＫＹ　ＨＯＲＳＥ,,株式会社,京都府,京都市西京区,川島有栖川町９６番地２サクラビル３Ｆ,,26,111,6158191,,,,,,,2024-10-03,1,,,,,スカイホース,0
1505,6130001078075,新規,0,2024-10-03,2024-10-03,株式会社ＢＥＲＹＬ,,株式会社,京都府,京都市右京区,太秦松本町５－５１,,26,108,6168116,,,,,,,2024-10-03,1,,,,,ベリル,0
1507,6130003009904,新規,0,2024-10-03,2024-10-03,夜明け合同会社,,合同会社,京都府,京都市下京区,西七条掛越町１２－５,,26,106,6008881,,,,,,,2024-10-03,1,,,,,ヨアケ,0
1516,6140005027218,新規,0,2024-10-03,2024-10-03,土地家屋調査士法人前田測量登記事務所,,その他の設立登記法人,兵庫県,芦屋市,宮塚町１７番３号,,28,206,6590062,,,,,,,2024-10-03,1,,,,,マエダソクリョウトウキジムショ,0
1517,6140005027226,新規,0,2024-10-03,2024-10-03,ＮＰＯ法人Ｓｅｖｅｎ　Ｓｅａｓ,,その他の設立登記法人,兵庫県,川辺郡猪名川町,林田字南山１２番地の３６,,28,301,6660226,,,,,,,2024-10-03,1,,,,,セブンシーズ,0
1526,6180001163401,新規,0,2024-10-03,2024-10-03,ＯＴＳホールディングス株式会社,,株式会社,愛知県,名古屋市中村区,宿跡町１丁目４０番地,,23,105,4530067,,,,,,,2024-10-03,1,,,,,オーティーエスホールディングス,0
1527,6180001163442,新規,0,2024-10-03,2024-10-03,株式会社Ｐａｙ　Ｂａｃｋ,,株式会社,愛知県,名古屋市名東区,西山本通２丁目１５,,23,115,4650085,,,,,,,2024-10-03,1,,,,,ペイバック,0
1528,6180001163491,新規,0,2024-10-03,2024-10-03,株式会社ＰＯＳＳＩＢＬＥ,,株式会社,愛知県,津島市,中一色町市場１３４番地１２,,23,208,4960025,,,,,,,2024-10-03,1,,,,,ポッシブル,0
1529,6180001163500,新規,0,2024-10-03,2024-10-03,株式会社ＢＲＩＳＢＡＮＥ,,株式会社,愛知県,名古屋市港区,辰巳町３６－１７コンフォート東海通３Ｆ,,23,111,4550003,,,,,,,2024-10-03,1,,,,,ブリスベン,0
1530,6180001163582,新規,0,2024-10-03,2024-10-03,株式会社ＣＨＩ,,株式会社,愛知県,東海市,富貴ノ台６丁目１２７番地,,23,222,4760014,,,,,,,2024-10-03,1,,,,,シーエイチアイ,0
1535,6180003027406,新規,0,2024-10-03,2024-10-03,合同会社大中小,,合同会社,愛知県,海部郡大治町,大字長牧字中道１００番地の２,,23,424,4901131,,,,,,,2024-10-03,1,,,,,ダイチュウショウ,0
1536,6180003027439,新規,0,2024-10-03,2024-10-03,合同会社ティークリエイティブ,,合同会社,愛知県,名古屋市東区,東大曽根町６番８号,,23,102,4610022,,,,,,,2024-10-03,1,,,,,ティークリエイティブ,0
1538,6180301039111,新規,0,2024-10-03,2024-10-03,株式会社ｎａｎｏＦＡＣＴＯＲＹ,,株式会社,愛知県,新城市,川路字夜燈２３番地２,,23,221,4411306,,,,,,,2024-10-03,1,,,,,ナノファクトリー,0
1540,6180303006299,新規,0,2024-10-03,2024-10-03,合同会社オフィスホンダ,,合同会社,愛知県,豊川市,西口町２丁目１０番地,,23,207,4420833,,,,,,,2024-10-03,1,,,,,オフィスホンダ,0
1543,6190001031697,新規,0,2024-10-03,2024-10-03,株式会社問屋北佐,,株式会社,三重県,名張市,鴻之台２番町１２６番地,,24,208,5180702,,,,,,,2024-10-03,1,,,,,トンヤキタサ,0
1549,6210001019938,新規,0,2024-10-03,2024-10-03,株式会社まる,,株式会社,福井県,鯖江市,丸山町４丁目２番２９号－１,,18,207,9160019,,,,,,,2024-10-03,1,,,,,マル,0
1551,6230001020547,新規,0,2024-10-03,2024-10-03,株式会社あら木サービス,,株式会社,富山県,射水市,立町１２番１０号,,16,211,9340013,,,,,,,2024-10-03,1,,,,,アラキサービス,0
1554,6240001063883,新規,0,2024-10-03,2024-10-03,ユニクオーレ株式会社,,株式会社,広島県,広島市佐伯区,五日市中央５丁目１４番３６‐３０１号,,34,108,7315128,,,,,,,2024-10-03,1,,,,,ユニクオーレ,0
1560,6260001039527,新規,0,2024-10-03,2024-10-03,シンテック株式会社,,株式会社,岡山県,倉敷市,児島下の町２丁目１１番１８号（１０２）,,33,202,7110906,,,,,,,2024-10-03,1,,,,,シンテック,0
1562,6260003004909,新規,0,2024-10-03,2024-10-03,バルンリバー合同会社,,合同会社,岡山県,井原市,大江町２７０６番地１,,33,207,7150023,,,,,,,2024-10-03,1,,,,,バルンリバー,0
1570,6290805009771,新規,0,2024-10-03,2024-10-03,一般社団法人とよのくに,,その他の設立登記法人,福岡県,築上郡上毛町,大字東下２１７番地,,40,646,8710922,,,,,,,2024-10-03,1,,,,,トヨノクニ,0
1571,6310001019242,新規,0,2024-10-03,2024-10-03,株式会社春桜,,株式会社,長崎県,長崎市,城栄町１番１６号リバーサイドコーポＦ５０３,,42,201,8528034,,,,,,,2024-10-03,1,,,,,ハルカ,0
1572,6310001019250,新規,0,2024-10-03,2024-10-03,株式会社ハイシン,,株式会社,長崎県,長崎市,本原町１２番１７号パレスアーバン２０３,,42,201,8528133,,,,,,,2024-10-03,1,,,,,ハイシン,0
1574,6310005008803,新規,0,2024-10-03,2024-10-03,医療法人滑石まごころクリニック岩永内科,,その他の設立登記法人,長崎県,長崎市,滑石５丁目５番２４号,,42,201,8528061,,,,,,,2024-10-03,1,,,,,ナメシマゴコロクリニックイワナガナイカ,0
1576,6330001032508,新規,0,2024-10-03,2024-10-03,株式会社デントリペア熊本,,株式会社,熊本県,熊本市南区,城南町赤見１３９１番地,,43,104,8614231,,,,,,,2024-10-03,1,,,,,デントリペアクマモト,0
1577,6340001026830,新規,0,2024-10-03,2024-10-03,株式会社ジューク,,株式会社,鹿児島県,鹿児島市,川上町２４１２番地１ファーストステージＤ１０３号,,46,201,8920875,,,,,,,2024-10-03,1,,,,,ジューク,0
1580,6350001019206,新規,0,2024-10-03,2024-10-03,株式会社クチキグループホールディングス,,株式会社,宮崎県,宮崎市,大字跡江３８６番地４,,45,201,8802101,,,,,,,2024-10-03,1,,,,,クチキグループホールディングス,0
1583,6360003014360,新規,0,2024-10-03,2024-10-03,ファーストオーダー合同会社,,合同会社,沖縄県,名護市,大中１丁目２０－２４・３０６号室,,47,209,9050017,,,,,,,2024-10-03,1,,,,,ファーストオーダー,0
1603,6410001013953,新規,0,2024-10-03,2024-10-03,株式会社ＳＫ精密,,株式会社,秋田県,横手市,十文字町梨木字羽場下６６番地１５,,05,203,0190509,,,,,,,2024-10-03,1,,,,,エスケイセイミツ,0
1605,6430001092780,新規,0,2024-10-03,2024-10-03,株式会社リリオ,,株式会社,北海道,札幌市西区,西野七条８丁目６番５号,,01,107,0630037,,,,,,,2024-10-03,1,,,,,リリオ,0
1606,6430003016837,新規,0,2024-10-03,2024-10-03,合同会社ベラッタ,,合同会社,北海道,札幌市清田区,美しが丘二条６丁目６番１２号,,01,110,0040812,,,,,,,2024-10-03,1,,,,,ベラッタ,0
1607,6430003016845,新規,0,2024-10-03,2024-10-03,合同会社ザザック,,合同会社,北海道,札幌市南区,石山三条６丁目１３番２３号,,01,106,0050843,,,,,,,2024-10-03,1,,,,,ザザック,0
1611,6500001025915,新規,0,2024-10-03,2024-10-03,株式会社ＴＡＳＨ,,株式会社,愛媛県,松山市,堀江町甲１３２６番地６,,38,201,7992651,,,,,,,2024-10-03,1,,,,,タッシュ,0
1613,6500003003340,新規,0,2024-10-03,2024-10-03,合同会社ＭＩＮＩＭ,,合同会社,愛媛県,松山市,山越３丁目１５－５３Ｋ’ｓＢ山越Ｉ４０２号,00136496,38,201,7918013,,,,,,,2024-10-03,1,,,,,ミニム,0
1619,7010001248713,新規,0,2024-10-03,2024-10-03,株式会社ｄｏｔｗｈｙ,,株式会社,東京都,千代田区,九段南１丁目５番６号りそな九段ビル５Ｆ・ＫＳフロア,,13,101,1020074,,,,,,,2024-10-03,1,,,,,ドットワイ,0
1620,7010001248721,新規,0,2024-10-03,2024-10-03,株式会社ウィンスリー,,株式会社,東京都,中央区,銀座１丁目１２－４Ｎ＆ＥＢＬＤ．７階,,13,102,1040061,,,,,,,2024-10-03,1,,,,,ウィンスリー,0
1621,7010001248754,新規,0,2024-10-03,2024-10-03,株式会社ＤＡＣＣＩ,,株式会社,東京都,文京区,目白台３丁目５番５号ＢｌｏｏｍＴｅｒｒａｃｅ目白台３０２,,13,105,1120015,,,,,,,2024-10-03,1,,,,,ダッチ,0
1622,7010001248853,新規,0,2024-10-03,2024-10-03,株式会社中野中央不動産,,株式会社,東京都,千代田区,神田小川町３丁目２６番８号神田小川町三丁目ビル６階,,13,101,1010052,,,,,,,2024-10-03,1,,,,,ナカノチュウオウフドウサン,0
1628,7010103002423,新規,0,2024-10-03,2024-10-03,合同会社ＭＭＡ,,合同会社,東京都,八王子市,散田町４丁目２０－１３クローバーハイツ１０６,,13,201,1930832,,,,,,,2024-10-03,1,,,,,エムエムエー,0
1634,7010401185589,新規,0,2024-10-03,2024-10-03,株式会社ＴｅａｍＭａｋｅ　Ｃａｐｉｔａｌ,,株式会社,東京都,港区,虎ノ門２丁目２番１号,,13,103,1050001,,,,,,,2024-10-03,1,,,,,チームメイクキャピタル,0
1635,7010403033523,新規,0,2024-10-03,2024-10-03,のぞみ百村ソーラー合同会社,,合同会社,東京都,港区,芝５丁目２９番１９号ＰＭＯ田町ＩＶ８階,00136477,13,103,1080014,,,,,,,2024-10-03,1,,,,,ノゾミモムラソーラー,0
1636,7010403033531,新規,0,2024-10-03,2024-10-03,のぞみいわきソーラー合同会社,,合同会社,東京都,港区,芝５丁目２９番１９号ＰＭＯ田町ＩＶ８階,00136485,13,103,1080014,,,,,,,2024-10-03,1,,,,,ノゾミイワキソーラー,0
1638,7010405023638,新規,0,2024-10-03,2024-10-03,一般社団法人のぞみいわきソーラー,,その他の設立登記法人,東京都,港区,芝５丁目２９番１９号ＰＭＯ田町ＩＶ８階,00136473,13,103,1080014,,,,,,,2024-10-03,1,,,,,ノゾミイワキソーラー,0
1639,7010501052978,新規,0,2024-10-03,2024-10-03,株式会社エムエックス,,株式会社,東京都,台東区,浅草橋５丁目２７番６号,,13,106,1110053,,,,,,,2024-10-03,1,,,,,エムエックス,0
1644,7010701046623,新規,0,2024-10-03,2024-10-03,株式会社ジェネレーティブテクノロジー,,株式会社,東京都,品川区,上大崎３丁目１番１号,,13,109,1410021,,,,,,,2024-10-03,1,,,,,ジェネレイティブテクノロジー,0
1645,7010701046631,新規,0,2024-10-03,2024-10-03,株式会社アンコールアワー,,株式会社,東京都,品川区,西品川１丁目１－１住友不動産大崎ガーデンタワー９階,,13,109,1410033,,,,,,,2024-10-03,1,,,,,アンコールアワー,0
1652,7010903009394,新規,0,2024-10-03,2024-10-03,合同会社紫陽花,,合同会社,東京都,世田谷区,経堂４丁目１６番２号,,13,112,1560052,,,,,,,2024-10-03,1,,,,,アジサイ,0
1653,7010903009403,新規,0,2024-10-03,2024-10-03,リベルテソリューション合同会社,,合同会社,東京都,世田谷区,三軒茶屋１丁目１８‐１３パーク・ノヴァ三軒茶屋南１０２,,13,112,1540024,,,,,,,2024-10-03,1,,,,,リベルテソリューション,0
1656,7011001163976,新規,0,2024-10-03,2024-10-03,株式会社目黒エンジニアリングコンサルタンツ,,株式会社,東京都,目黒区,下目黒４丁目１６番１号,,13,110,1530064,,,,,,,2024-10-03,1,,,,,メグロエンジニアリングコンサルタンツ,0
1657,7011001164974,新規,0,2024-10-03,2024-10-03,ＯＲＩＧＩＮ　Ｘ株式会社,,株式会社,東京都,目黒区,青葉台２丁目１６番１０ー５０１号,,13,110,1530042,,,,,,,2024-10-03,1,,,,,オリジンエックス,0
1661,7011103014994,新規,0,2024-10-03,2024-10-03,ＶａｒｉｏｕｓＬｉｆｅ合同会社,,合同会社,東京都,新宿区,大京町３番地３,,13,104,1600015,,,,,,,2024-10-03,1,,,,,ヴァリアスライフ,0
1662,7011103015019,新規,0,2024-10-03,2024-10-03,Ａｍｂｉｔｉｏｕｓ合同会社,,合同会社,東京都,新宿区,山吹町２６３－２－６０６,,13,104,1620801,,,,,,,2024-10-03,1,,,,,アンビシャス,0
1666,7011601028091,新規,0,2024-10-03,2024-10-03,海成実創資産管理株式会社,,株式会社,東京都,練馬区,旭丘１丁目１１番３旭丘光ハイム４０１Ｄ号,,13,120,1760005,,,,,,,2024-10-03,1,,,,,カイセイジッソウシサンカンリ,0
1674,7012401042332,新規,0,2024-10-03,2024-10-03,株式会社ＣＲＡＦＴ　Ａ,,株式会社,東京都,府中市,清水が丘３丁目２番地の４２,,13,206,1830015,,,,,,,2024-10-03,1,,,,,クラフトエース,0
1678,7012803003519,新規,0,2024-10-03,2024-10-03,ＨＳＡ合同会社,,合同会社,東京都,東大和市,桜が丘２丁目１４２番地の２８,,13,220,2070022,,,,,,,2024-10-03,1,,,,,エイチエスエー,0
1688,7020001159364,新規,0,2024-10-03,2024-10-03,株式会社ピースクレスト,,株式会社,神奈川県,横浜市戸塚区,戸塚町４５３０番地２４,,14,110,2440003,,,,,,,2024-10-03,1,,,,,ピースクレスト,0
1689,7020001159380,新規,0,2024-10-03,2024-10-03,株式会社ボーヤンジャパン,,株式会社,神奈川県,横浜市青葉区,たちばな台１丁目８番地２,,14,117,2270046,,,,,,,2024-10-03,1,,,,,ボーヤンジャパン,0
1690,7020001159406,新規,0,2024-10-03,2024-10-03,彩株式会社,,株式会社,神奈川県,横浜市中区,真砂町３丁目３２番地ステーツサイドビル３階,,14,104,2310016,,,,,,,2024-10-03,1,,,,,サイ,0
1702,7021001083389,新規,0,2024-10-03,2024-10-03,株式会社鈴美工建,,株式会社,神奈川県,藤沢市,西俣野８２４番地の１,,14,205,2520812,,,,,,,2024-10-03,1,,,,,スズミコウケン,0
1711,7030001162714,新規,0,2024-10-03,2024-10-03,株式会社ストレージＢ,,株式会社,埼玉県,新座市,野火止７丁目１２番３号,,11,230,3520011,,,,,,,2024-10-03,1,,,,,ストレージビー,0
1712,7030001162722,新規,0,2024-10-03,2024-10-03,株式会社住未来創建,,株式会社,埼玉県,坂戸市,大字中小坂７３３番地５３,,11,239,3500206,,,,,,,2024-10-03,1,,,,,スマイミライソウケン,0
1713,7030001162730,新規,0,2024-10-03,2024-10-03,ＭＹファーム株式会社,,株式会社,埼玉県,富士見市,針ケ谷１丁目９番地１,,11,235,3540017,,,,,,,2024-10-03,1,,,,,エムワイファーム,0
1714,7030001162755,新規,0,2024-10-03,2024-10-03,株式会社ＮＺＡＩ,,株式会社,埼玉県,久喜市,本町６丁目１６番５３号,,11,232,3460005,,,,,,,2024-10-03,1,,,,,エヌゼットエーアイ,0
1717,7030003025217,新規,0,2024-10-03,2024-10-03,俯宏商事合同会社,,合同会社,埼玉県,さいたま市緑区,大字大牧１３８７番地１２０３号,,11,109,3360922,,,,,,,2024-10-03,1,,,,,フコウショウジ,0
1718,7030003025233,新規,0,2024-10-03,2024-10-03,ＳＬ　ＫＡＮＳＡＩ合同会社,,合同会社,埼玉県,入間市,豊岡１丁目３番２５号半田ビル２階ＫＩＶオフィス入間Ｂ号室,,11,225,3580003,,,,,,,2024-10-03,1,,,,,エスエルカンサイ,0
1721,7040001135660,新規,0,2024-10-03,2024-10-03,株式会社道場組,,株式会社,千葉県,八街市,大関１９３番地５３グランデ八街Ｂ－１０１,,12,230,2891142,,,,,,,2024-10-03,1,,,,,ミチバグミ,0
1722,7040001135669,新規,0,2024-10-03,2024-10-03,株式会社プロテジ,,株式会社,千葉県,印西市,大森２５９６番９,,12,231,2701327,,,,,,,2024-10-03,1,,,,,プロテジ,0
1726,7040003025892,新規,0,2024-10-03,2024-10-03,合同会社ＡＣイリス,,合同会社,千葉県,千葉市中央区,松波２丁目４番１８号,,12,101,2600044,,,,,,,2024-10-03,1,,,,,エーシーイリス,0
1727,7040003025901,新規,0,2024-10-03,2024-10-03,山崎農園合同会社,00136492,合同会社,千葉県,千葉市緑区,板倉町２１番地,,12,105,2670064,,,,,,,2024-10-03,1,,,,,ヤマサキノウエン,0
1728,7040003025934,新規,0,2024-10-03,2024-10-03,合同会社ＳＨＩＮＧＡ,,合同会社,千葉県,浦安市,舞浜２丁目４６番３号,,12,227,2790031,,,,,,,2024-10-03,1,,,,,シンガ,0
1732,7050001055478,新規,0,2024-10-03,2024-10-03,株式会社スカイネット・ＢＧ,,株式会社,茨城県,水戸市,元吉田町９１７番地の１,,08,201,3100836,,,,,,,2024-10-03,1,,,,,スカイネットビージー,0
1743,7080105006457,新規,0,2024-10-03,2024-10-03,一般財団法人東静医療福祉事業支援機構,,その他の設立登記法人,静岡県,沼津市,岡宮９９１番地の１,,22,203,4100011,,,,,,,2024-10-03,1,,,,,トウセイイリョウフクシジギョウシエンキコウ,0
1745,7090005007653,新規,0,2024-10-03,2024-10-03,一般社団法人いちご公園,,その他の設立登記法人,山梨県,南アルプス市,下今井８３８番地７５,,19,208,4000331,,,,,,,2024-10-03,1,,,,,イチゴコウエン,0
1751,7100001037875,新規,0,2024-10-03,2024-10-03,長野日大ラボ株式会社,,株式会社,長野県,長野市,大字東和田字中道２５３番地３,,20,201,3810038,,,,,,,2024-10-03,1,,,,,ナガノニチダイラボ,0
1752,7100001037900,新規,0,2024-10-03,2024-10-03,ニューワールドスタイル株式会社,,株式会社,長野県,伊那市,荒井３６１８番地５,,20,209,3960025,,,,,,,2024-10-03,1,,,,,ニューワールドスタイル,0
1754,7110001038732,新規,0,2024-10-03,2024-10-03,株式会社ワンシステム,,株式会社,新潟県,上越市,大字飯１３９２番地,,15,222,9430896,,,,,,,2024-10-03,1,,,,,ワンシステム,0
1765,7120001268824,新規,0,2024-10-03,2024-10-03,株式会社英明,,株式会社,大阪府,大阪市東淀川区,豊里２丁目６番７号,,27,114,5330013,,,,,,,2024-10-03,1,,,,,エイエイ,0
1766,7120001268849,新規,0,2024-10-03,2024-10-03,株式会社ＤＥＥＮ　ＴＲＡＤＩＮＧ,,株式会社,大阪府,大阪市住吉区,長居２丁目９番１４－２０４号,,27,120,5580003,,,,,,,2024-10-03,1,,,,,ディーントレーディング,0
1767,7120001268915,新規,0,2024-10-03,2024-10-03,科苑隆科技株式会社,,株式会社,大阪府,大阪市西成区,花園南１丁目６番９－２０２号,,27,122,5570015,,,,,,,2024-10-03,1,,,,,カエンリュウカギ,0
1768,7120001268972,新規,0,2024-10-03,2024-10-03,吉生国際株式会社,,株式会社,大阪府,大阪市港区,市岡１丁目１２－１３－１０２号室,,27,107,5520012,,,,,,,2024-10-03,1,,,,,キッセイコクサイ,0
1769,7120001268989,新規,0,2024-10-03,2024-10-03,株式会社加藤商事,,株式会社,大阪府,大阪市中央区,南船場３丁目２番２２号おおきに南船場ビル２０５,,27,128,5420081,,,,,,,2024-10-03,1,,,,,カトウショウジ,0
1770,7120001268997,新規,0,2024-10-03,2024-10-03,株式会社仁菜,,株式会社,大阪府,守口市,大久保町３丁目３６番１号,,27,209,5700012,,,,,,,2024-10-03,1,,,,,ニイナ,0
1773,7120003027666,新規,0,2024-10-03,2024-10-03,エナジーグリッド合同会社,,合同会社,大阪府,大阪市中央区,北久宝寺町２丁目１番１０号,,27,128,5410057,,,,,,,2024-10-03,1,,,,,エナジーグリッド,0
1774,7120005024562,新規,0,2024-10-03,2024-10-03,一般社団法人Ａｋｅｂｏｎｏ　ＮｅｕｒｏＮｅｔｗｏｒｋ,,その他の設立登記法人,大阪府,大阪市阿倍野区,旭町１丁目４番３号,,27,119,5450051,,,,,,,2024-10-03,1,,,,,アケボノニューロネットワーク,0
1777,7122001038496,新規,0,2024-10-03,2024-10-03,株式会社シンセンホーム,,株式会社,大阪府,四條畷市,岡山東３丁目４番３０号,,27,229,5750003,,,,,,,2024-10-03,1,,,,,シンセンホーム,0
1802,7150003003375,新規,0,2024-10-03,2024-10-03,ＮＹキャリア合同会社,,合同会社,奈良県,生駒市,白庭台３丁目７番１８号,,29,209,6300136,,,,,,,2024-10-03,1,,,,,エヌワイキャリア,0
1805,7170001018332,新規,0,2024-10-03,2024-10-03,＿晴株式会社,00136505,株式会社,和歌山県,和歌山市,松江北７丁目７番１４号,,30,201,6408425,,,,,,,2024-10-03,1,,,,,イクセイ,0
1810,7180001163391,新規,0,2024-10-03,2024-10-03,株式会社ＰＱＲ,,株式会社,愛知県,一宮市,大宮２丁目８番２号ライオンズ一宮グランフォート１５０６号,,23,203,4910044,,,,,,,2024-10-03,1,,,,,ピーキューアール,0
1811,7180001163409,新規,0,2024-10-03,2024-10-03,株式会社白馬交通東海,,株式会社,愛知県,一宮市,猿海道１丁目８番５号,,23,203,4910838,,,,,,,2024-10-03,1,,,,,ハクバコウツウトウカイ,0
1812,7180001163417,新規,0,2024-10-03,2024-10-03,株式会社ＩＸＡＳ,,株式会社,愛知県,知多郡武豊町,字六貫山４丁目６２番地１,,23,447,4702362,,,,,,,2024-10-03,1,,,,,イクサス,0
1813,7180001163425,新規,0,2024-10-03,2024-10-03,株式会社ｔｏｋｉｓｈｉｒｏ,,株式会社,愛知県,名古屋市中村区,並木１丁目２５１番地,,23,105,4530856,,,,,,,2024-10-03,1,,,,,トキシロ,0
1814,7180001163433,新規,0,2024-10-03,2024-10-03,株式会社満しるべ,,株式会社,愛知県,名古屋市千種区,千種２丁目２３番６号ロイヤルパークス千種８０５号,,23,101,4640858,,,,,,,2024-10-03,1,,,,,ミチシルベ,0
1815,7180001163441,新規,0,2024-10-03,2024-10-03,株式会社Ｂ‐ＤＡＳＨ,,株式会社,愛知県,名古屋市瑞穂区,八勝通２丁目３０番地の４,,23,108,4670042,,,,,,,2024-10-03,1,,,,,ビーダッシュ,0
1816,7180001163557,新規,0,2024-10-03,2024-10-03,株式会社ＢＡＳＴＥＴ,,株式会社,愛知県,名古屋市東区,泉１丁目８番３号,,23,102,4610001,,,,,,,2024-10-03,1,,,,,バステト,0
1820,7180005020787,新規,0,2024-10-03,2024-10-03,特定非営利活動法人ＡＩＳ,,その他の設立登記法人,愛知県,一宮市,森本５丁目１７番地９,,23,203,4910831,,,,,,,2024-10-03,1,,,,,エーアイエス,0
1821,7180301039102,新規,0,2024-10-03,2024-10-03,株式会社ビーライク,,株式会社,愛知県,岡崎市,寿町１２番地１２,,23,202,4442116,,,,,,,2024-10-03,1,,,,,ビーライク,0
1823,7190001031696,新規,0,2024-10-03,2024-10-03,株式会社Ｋｕｍａｇａｉ,,株式会社,三重県,伊勢市,船江４丁目２７番２７号,,24,203,5160008,,,,,,,2024-10-03,1,,,,,クマガイ,0
1827,7200001042997,新規,0,2024-10-03,2024-10-03,株式会社エイシン東海,,株式会社,岐阜県,瑞穂市,穂積９４４番地,,21,216,5010223,,,,,,,2024-10-03,1,,,,,エイシントウカイ,0
1832,7210003001843,新規,0,2024-10-03,2024-10-03,合同会社快適企画ササキ,,合同会社,福井県,坂井市,春江町江留上新町１２７番地,,18,210,9190465,,,,,,,2024-10-03,1,,,,,カイテキキカクササキ,0
1837,7240001063874,新規,0,2024-10-03,2024-10-03,株式会社ＡＣＥ,,株式会社,広島県,広島市中区,橋本町２番１５－９０４号,,34,101,7300015,,,,,,,2024-10-03,1,,,,,エース,0
1838,7240001063890,新規,0,2024-10-03,2024-10-03,株式会社アールディ,,株式会社,広島県,広島市中区,小町３番２５号,,34,101,7300041,,,,,,,2024-10-03,1,,,,,アールディ,0
1839,7240001063899,新規,0,2024-10-03,2024-10-03,株式会社インパクトサービス,,株式会社,広島県,広島市中区,吉島西３丁目３番１号,,34,101,7300823,,,,,,,2024-10-03,1,,,,,インパクトサービス,0
1843,7260001039518,新規,0,2024-10-03,2024-10-03,株式会社拓栄丸漁業,,株式会社,岡山県,倉敷市,下津井３丁目１０８番地１,,33,202,7110927,,,,,,,2024-10-03,1,,,,,タクエイマルギョギョウ,0
1845,7270005005614,新規,0,2024-10-03,2024-10-03,一般社団法人Ｇｒｅｅｎ　Ｌｉｆｅ　Ｅｎｇｉｎｅ,,その他の設立登記法人,鳥取県,鳥取市,賀露町南３丁目３０３４番地１,,31,201,6800909,,,,,,,2024-10-03,1,,,,,グリーンライフエンジン,0
1852,7290801030929,新規,0,2024-10-03,2024-10-03,株式会社ディアンドエス,,株式会社,福岡県,北九州市小倉北区,明和町２番３号１Ｆ,,40,106,8020017,,,,,,,2024-10-03,1,,,,,ディアンドエス,0
1853,7290803004848,新規,0,2024-10-03,2024-10-03,合同会社シルバー互助会,,合同会社,福岡県,築上郡吉富町,大字直江１１７番地１,,40,642,8710831,,,,,,,2024-10-03,1,,,,,シルバーゴジョカイ,0
1858,7330001032507,新規,0,2024-10-03,2024-10-03,株式会社せいぎ,,株式会社,熊本県,熊本市東区,新南部５丁目２番６号,,43,102,8618028,,,,,,,2024-10-03,1,,,,,セイギ,0
1865,7350001019205,新規,0,2024-10-03,2024-10-03,株式会社ハマスナ,,株式会社,宮崎県,宮崎市,清武町今泉甲１０１０番地８,,45,201,8891602,,,,,,,2024-10-03,1,,,,,ハマスナ,0
1866,7350003004758,新規,0,2024-10-03,2024-10-03,合同会社クレール,,合同会社,宮崎県,児湯郡新富町,富田３丁目８３番地１,,45,402,8891411,,,,,,,2024-10-03,1,,,,,クレール,0
1867,7360003014351,新規,0,2024-10-03,2024-10-03,合同会社タマシロ企画,,合同会社,沖縄県,島尻郡南風原町,字新川４０－５,,47,350,9011105,,,,,,,2024-10-03,1,,,,,タマシロキカク,0
1868,7360005007106,新規,0,2024-10-03,2024-10-03,税理士法人トータルサポート・ハピネス,,その他の設立登記法人,沖縄県,那覇市,おもろまち４丁目１７番１９号ソフィアビル４Ｆ,,47,201,9000006,,,,,,,2024-10-03,1,,,,,トータルサポートハピネス,0
1870,7370001051759,新規,0,2024-10-03,2024-10-03,シーエイチ・コネクト株式会社,,株式会社,宮城県,大崎市,古川福浦２丁目２番７７号,,04,215,9896101,,,,,,,2024-10-03,1,,,,,シーエイチコネクト,0
1872,7380001002942,新規,0,2024-10-03,2024-10-03,大内建設株式会社,,株式会社,福島県,伊達郡川俣町,山木屋字大清水３３番地の１,,07,308,9601501,,,,,,,2024-10-03,1,,,,,オオウチケンセツ,0
1876,7380003005860,新規,0,2024-10-03,2024-10-03,合同会社Ｓｉｎｃｅｒｉｔｙ,,合同会社,福島県,福島市,町庭坂字一本杉１８番地の１,,07,201,9602261,,,,,,,2024-10-03,1,,,,,シンセリティー,0
1877,7400001016816,新規,0,2024-10-03,2024-10-03,株式会社ｋｏｕｗａ　ｃａｐｉｔａｌ,,株式会社,岩手県,岩手郡雫石町,寺の下２３０番地８４,,03,301,0200524,,,,,,,2024-10-03,1,,,,,コウワキャピタル,0
1878,7410001013952,新規,0,2024-10-03,2024-10-03,株式会社藤田機械,,株式会社,秋田県,仙北市,角館町広久内舟場１５０番地７,,05,215,0140301,,,,,,,2024-10-03,1,,,,,フジタキカイ,0
1879,7410003003992,新規,0,2024-10-03,2024-10-03,合同会社鈴木産業,,合同会社,秋田県,男鹿市,船越字根木３３０番地２９,,05,206,0100341,,,,,,,2024-10-03,1,,,,,スズキサンギョウ,0
1880,7410005006606,新規,0,2024-10-03,2024-10-03,一般社団法人リーズン,,その他の設立登記法人,秋田県,秋田市,泉北４丁目２番１０号,,05,201,0100916,,,,,,,2024-10-03,1,,,,,リーズン,0
1882,7430001092747,新規,0,2024-10-03,2024-10-03,ＴＭコネクト株式会社,,株式会社,北海道,札幌市白石区,北郷２３８２－２１,,01,104,0030849,,,,,,,2024-10-03,1,,,,,ティーワイコネクト,0
1885,7440003001622,新規,0,2024-10-03,2024-10-03,合同会社Ｓ．ＧＯＡＴ,,合同会社,北海道,函館市,美原４丁目１０番２３号,,01,202,0410806,,,,,,,2024-10-03,1,,,,,エスゴート,0
1888,7490001010876,新規,0,2024-10-03,2024-10-03,株式会社ワイズ・コーポレーション,,株式会社,高知県,高知市,介良乙９８５番地１,,39,201,7815106,,,,,,,2024-10-03,1,,,,,ワイズコーポレーション,0
1893,7700150127400,新規,0,2024-10-03,2024-10-03,Ｎｉｓｈａｎ　Ｒｅｃｒｕｉｔｍｅｎｔ　Ｓｅｒｖｉｃｅ　Ｐｖｔ．Ｌｔｄ．,,外国会社等,愛知県,名古屋市北区,山田１丁目７番１３号サンライズ大曽根１Ｆ,,23,103,4620810,ネパール連邦民主共和国カトマンズ郡バシュンダラ村トカ市５区,,,,,,2024-10-03,1,,,,,ニシヤンリクルートメントサービスリミテツド,0
1896,8010001248464,新規,0,2024-10-03,2024-10-03,株式会社Ｔｏｍｍｙ,,株式会社,東京都,千代田区,有楽町１丁目５番２号,,13,101,1000006,,,,,,,2024-10-03,1,,,,,トミー,0
1898,8010001248646,新規,0,2024-10-03,2024-10-03,星多株式会社,,株式会社,東京都,中央区,日本橋箱崎町１７番８号,,13,102,1030015,,,,,,,2024-10-03,1,,,,,ホシタ,0
1899,8010001248654,新規,0,2024-10-03,2024-10-03,株式会社東京トレード＆コミュニケーションズ,,株式会社,東京都,文京区,西片２丁目１番４号ファビオ東大前２０３,,13,105,1130024,,,,,,,2024-10-03,1,,,,,トレードアンドコミュニケーションズ,0
1900,8010001248737,新規,0,2024-10-03,2024-10-03,ＸＩＡＯ　ＭＡホールディングス株式会社,,株式会社,東京都,中央区,銀座１丁目８番２１号,,13,102,1040061,,,,,,,2024-10-03,1,,,,,ショウマホールディングス,0
1902,8010003045026,新規,0,2024-10-03,2024-10-03,ＭａＱｕｅｅｎ合同会社,,合同会社,東京都,中央区,銀座３丁目１１番８号第六丸嘉ビル３階,,13,102,1040061,,,,,,,2024-10-03,1,,,,,マックゥイーン,0
1903,8010003045042,新規,0,2024-10-03,2024-10-03,合同会社ＡＳＴＲＡＸ　ＳＰ,,合同会社,東京都,文京区,向丘１丁目１番４号若月ビル３０１,,13,105,1130023,,,,,,,2024-10-03,1,,,,,アストラックスエスピー,0
1907,8010403033530,新規,0,2024-10-03,2024-10-03,のぞみ南山城伊賀ソーラー合同会社,,合同会社,東京都,港区,芝５丁目２９番１９号ＰＭＯ田町ＩＶ８階,00136484,13,103,1080014,,,,,,,2024-10-03,1,,,,,ノゾミミナミヤマシロイガソーラー,0
1908,8010403033539,新規,0,2024-10-03,2024-10-03,太陽土地合同会社,,合同会社,東京都,港区,浜松町２丁目２番１５号,,13,103,1050013,,,,,,,2024-10-03,1,,,,,タイヨウトチ,0
1909,8010405023637,新規,0,2024-10-03,2024-10-03,一般社団法人のぞみ南山城伊賀ソーラー,,その他の設立登記法人,東京都,港区,芝５丁目２９番１９号ＰＭＯ田町ＩＶ８階,00136472,13,103,1080014,,,,,,,2024-10-03,1,,,,,ノゾミミナミヤマシロイガソーラー,0
1912,8010503007574,新規,0,2024-10-03,2024-10-03,合同会社Ｒｅｖｉｖａｌ,,合同会社,東京都,台東区,上野６丁目１番６号御徒町グリーンハイツ１００５号,,13,106,1100005,,,,,,,2024-10-03,1,,,,,リバイバル,0
1914,8010601065994,新規,0,2024-10-03,2024-10-03,株式会社Ｏｌｅａ,,株式会社,東京都,江東区,清澄２丁目１１番７号４階,,13,108,1350024,,,,,,,2024-10-03,1,,,,,オレア,0
1917,8010701046606,新規,0,2024-10-03,2024-10-03,ＴＯＫＹＯ　ＲＡＭＥＮ　ＹＵＫＩ株式会社,,株式会社,東京都,品川区,大崎１丁目１１番２号,,13,109,1410032,,,,,,,2024-10-03,1,,,,,トウキョウラーメンユウキ,0
1927,8011001164973,新規,0,2024-10-03,2024-10-03,Ｓｈｉｏｎ　ａｎｄ　Ｅｍｍａ株式会社,,株式会社,東京都,渋谷区,東３丁目１８番６号八幡屋ビル３０１,,13,113,1500011,,,,,,,2024-10-03,1,,,,,シオンアンドエマ,0
1928,8011001164981,新規,0,2024-10-03,2024-10-03,株式会社Ａｌｌ　Ｇｏｏｄ,,株式会社,東京都,渋谷区,恵比寿西２丁目４番８号ウィンド恵比寿ビル８Ｆ,,13,113,1500021,,,,,,,2024-10-03,1,,,,,オールグッド,0
1930,8011003020126,新規,0,2024-10-03,2024-10-03,合同会社ＭＴ　ＭＥＤＩＣＡＬ,,合同会社,東京都,渋谷区,代々木２丁目７番３号第七荒井ビル８階,,13,113,1510053,,,,,,,2024-10-03,1,,,,,エムティメディカル,0
1934,8011101108962,新規,0,2024-10-03,2024-10-03,神戸食研株式会社,,株式会社,東京都,新宿区,高田馬場１丁目２６番１２高田馬場ビル５０３室１号,,13,104,1690075,,,,,,,2024-10-03,1,,,,,コウベショッケン,0
1940,8011303005306,新規,0,2024-10-03,2024-10-03,一行三昧合同会社,,合同会社,東京都,杉並区,高円寺北３丁目３７番地９号,,13,115,1660002,,,,,,,2024-10-03,1,,,,,,0
1941,8011503006244,新規,0,2024-10-03,2024-10-03,合同会社プラスアルファ・コンサルティング,,合同会社,東京都,北区,十条仲原２丁目１０番１８号,,13,117,1140031,,,,,,,2024-10-03,1,,,,,プラスアルファコンサルティング,0
1942,8011601028090,新規,0,2024-10-03,2024-10-03,新免株式会社,,株式会社,東京都,練馬区,桜台１丁目７番７－４２０号室,,13,120,1760002,,,,,,,2024-10-03,1,,,,,シンメン,0
1944,8011701027678,新規,0,2024-10-03,2024-10-03,株式会社黒沢商品,,株式会社,東京都,江戸川区,南小岩２丁目１５－２９－１０２号室,,13,123,1330056,,,,,,,2024-10-03,1,,,,,クロサワショウヒン,0
1945,8011703003982,新規,0,2024-10-03,2024-10-03,ＲＹＯＴＥＮ合同会社,,合同会社,東京都,江戸川区,上篠崎４丁目２３番４号デュオフラッツ篠崎５０１,,13,123,1330054,,,,,,,2024-10-03,1,,,,,リョウテン,0
1946,8011801044920,新規,0,2024-10-03,2024-10-03,ライジング警備保障株式会社,,株式会社,東京都,葛飾区,四つ木１丁目１５番７号ＢＩＺｃｏｍｆｏｒｔ四ツ木,,13,122,1240011,,,,,,,2024-10-03,1,,,,,ライジングケイビホショウ,0
1949,8012303002053,新規,0,2024-10-03,2024-10-03,合同会社Ｅｉｔｏ,,合同会社,東京都,町田市,木曽西１丁目３番２０号,,13,209,1940037,,,,,,,2024-10-03,1,,,,,エイト,0
1953,8012701018477,新規,0,2024-10-03,2024-10-03,株式会社ＹＨＳ,,株式会社,東京都,東久留米市,弥生２丁目２－９,,13,222,2030034,,,,,,,2024-10-03,1,,,,,ワイエイチエス,0
1955,8013303007331,新規,0,2024-10-03,2024-10-03,合同会社ＴＯＭＭＹ,,合同会社,東京都,豊島区,長崎３丁目２２番１１号,,13,116,1710051,,,,,,,2024-10-03,1,,,,,トミー,0
1957,8020001159363,新規,0,2024-10-03,2024-10-03,株式会社スカラデザイン,,株式会社,神奈川県,横浜市中区,常盤町２丁目１０番地常盤不動産ビル３階－２０１号室,,14,104,2310014,,,,,,,2024-10-03,1,,,,,スカラデザイン,0
1964,8021001083421,新規,0,2024-10-03,2024-10-03,株式会社草木虫魚,,株式会社,神奈川県,鎌倉市,扇ガ谷２丁目１０番１８号八星アパート２０２,,14,204,2480011,,,,,,,2024-10-03,1,,,,,ソウボクチュウギョ,0
1968,8030001162688,新規,0,2024-10-03,2024-10-03,Ｆａｎｔａｓｔｉｃ　Ｄａｙｓ株式会社,,株式会社,埼玉県,東松山市,材木町１５番２号ライオンズマンション東松山第二１１０３,,11,212,3550016,,,,,,,2024-10-03,1,,,,,ファンタスティックデイズ,0
1969,8030001162713,新規,0,2024-10-03,2024-10-03,株式会社ストレージＡ,,株式会社,埼玉県,新座市,野火止７丁目１２番３号,,11,230,3520011,,,,,,,2024-10-03,1,,,,,ストレージエー,0
1971,8030003025199,新規,0,2024-10-03,2024-10-03,合同会社ステラ,,合同会社,埼玉県,新座市,北野２丁目１１番１５号ベルポート志木１０３号室,,11,230,3520003,,,,,,,2024-10-03,1,,,,,ステラ,0
1974,8040001135610,新規,0,2024-10-03,2024-10-03,ＭＩＹＡＢＩ　ＧＲＯＵＰ株式会社,,株式会社,千葉県,市原市,青柳北３丁目７番地１７,,12,219,2990101,,,,,,,2024-10-03,1,,,,,ミヤビグループ,0
1979,8040003025891,新規,0,2024-10-03,2024-10-03,合同会社ＡＣヘーベ,,合同会社,千葉県,千葉市中央区,松波２丁目４番１８号,,12,101,2600044,,,,,,,2024-10-03,1,,,,,エーシーヘーベ,0
1980,8040003025900,新規,0,2024-10-03,2024-10-03,合同会社Ｋ＆Ｋ,,合同会社,千葉県,匝瑳市,春海４４００番地４,,12,235,2892101,,,,,,,2024-10-03,1,,,,,ケイアンドケイ,0
1981,8040003025933,新規,0,2024-10-03,2024-10-03,合同会社ＢｉｚＢｕｚｚ,,合同会社,千葉県,柏市,小青田４丁目１番地１０イーストＩー２０２号,,12,217,2770803,,,,,,,2024-10-03,1,,,,,ビズバズ,0
1982,8040005022524,新規,0,2024-10-03,2024-10-03,一般社団法人ＢＡＹＳＩＤＥ　ＧＲＯＷ,,その他の設立登記法人,千葉県,長生郡長生村,七井土１６１２番地１６５,,12,423,2994333,,,,,,,2024-10-03,1,,,,,ベイサイドグロー,0
1995,8070001042250,新規,0,2024-10-03,2024-10-03,株式会社ミヤテック,,株式会社,群馬県,太田市,安養寺町１９８番地１０,,10,205,3700422,,,,,,,2024-10-03,1,,,,,ミヤテック,0
2006,8080403005119,新規,0,2024-10-03,2024-10-03,丸白合同会社,,合同会社,静岡県,浜松市天竜区,春野町領家８９４番地,,22,140,4370626,,,,,,,2024-10-03,1,,,,,マルハク,0
2012,8100003007801,新規,0,2024-10-03,2024-10-03,ＢＲＩＤＧＥ合同会社,,合同会社,長野県,長野市,大字川合新田３７０番地２４アリエッタ１０１,,20,201,3800913,,,,,,,2024-10-03,1,,,,,ブリッジ,0
2025,8120001268880,新規,0,2024-10-03,2024-10-03,株式会社ＮＥＸＴ　ＳＴＹＬＥ,,株式会社,大阪府,大阪市都島区,中野町２丁目７番１１号３０１号室,,27,102,5340027,,,,,,,2024-10-03,1,,,,,ネクストスタイル,0
2026,8120001268930,新規,0,2024-10-03,2024-10-03,株式会社キャリアテック,,株式会社,大阪府,大阪市中央区,南船場１丁目１１番２３号長堀橋ＺｅｎｓｈｉｎＢＬＤ３０２号,,27,128,5420081,,,,,,,2024-10-03,1,,,,,キャリアテック,0
2027,8120001268947,新規,0,2024-10-03,2024-10-03,和美商事株式会社,,株式会社,大阪府,大阪市西成区,萩之茶屋１丁目１２－７号１３１号,,27,122,5570004,,,,,,,2024-10-03,1,,,,,ワミショウジ,0
2028,8120001268963,新規,0,2024-10-03,2024-10-03,株式会社マコトニシダ,,株式会社,大阪府,大阪市北区,中津６丁目８番３３号第一三井ビル４００３,,27,127,5310071,,,,,,,2024-10-03,1,,,,,マコトニシダ,0
2029,8120001269012,新規,0,2024-10-03,2024-10-03,株式会社Ｎｅｘｔ　ｉｎｎｏｖａｔｏｒ,,株式会社,大阪府,大阪市東淀川区,井高野１丁目２８番５８－１号,,27,114,5330001,,,,,,,2024-10-03,1,,,,,ネクストイノベーター,0
2031,8120003027640,新規,0,2024-10-03,2024-10-03,ｓａｖｙａ合同会社,,合同会社,大阪府,大阪市東淀川区,淡路４丁目１１番３号,,27,114,5330032,,,,,,,2024-10-03,1,,,,,サビヤ,0
2032,8120003027657,新規,0,2024-10-03,2024-10-03,合同会社カワリジ,,合同会社,大阪府,大阪市中央区,淡路町３丁目４番８,,27,128,5410047,,,,,,,2024-10-03,1,,,,,カワリジ,0
2033,8120003027665,新規,0,2024-10-03,2024-10-03,コネクトバッテリー合同会社,,合同会社,大阪府,大阪市中央区,北久宝寺町２丁目１番１０号,,27,128,5410057,,,,,,,2024-10-03,1,,,,,コネクトバッテリー,0
2035,8120005024561,新規,0,2024-10-03,2024-10-03,一般社団法人Ｂｅ‐ｃａｒｅｄ,,その他の設立登記法人,大阪府,大阪市淀川区,木川東１丁目５番２０－３０７号,,27,123,5320012,,,,,,,2024-10-03,1,,,,,ビーケアード,0
2042,8120101070360,新規,0,2024-10-03,2024-10-03,株式会社ハウスペリア,,株式会社,大阪府,富田林市,川面町１丁目６番１５号,,27,214,5840014,,,,,,,2024-10-03,1,,,,,ハウスペリア,0
2045,8120105009917,新規,0,2024-10-03,2024-10-03,一般社団法人いきいきライフ協会和泉,,その他の設立登記法人,大阪府,和泉市,和気町１丁目１０番１６号,,27,219,5940073,,,,,,,2024-10-03,1,,,,,イキイキライフキョウカイイズミ,0
2048,8122001038495,新規,0,2024-10-03,2024-10-03,ａ‐ｃｈａｎｃｅ株式会社,,株式会社,大阪府,東大阪市,岩田町３丁目１番２７－１５０４号,,27,227,5780941,,,,,,,2024-10-03,1,,,,,エーチャンス,0
2049,8130003009902,新規,0,2024-10-03,2024-10-03,ＤＡＳＨ合同会社,,合同会社,京都府,京都市上京区,寺之内通大宮一丁目西入下る聖天町３８番地,,26,102,6020000,,,,,,,2024-10-03,1,,,,,ダッシュ,0
2052,8140001135914,新規,0,2024-10-03,2024-10-03,株式会社プライムバイ,,株式会社,兵庫県,加古川市,加古川町篠原町２１番地の８－３０９号,,28,210,6750065,,,,,,,2024-10-03,1,,,,,プライムバイ,0
2053,8140001135930,新規,0,2024-10-03,2024-10-03,株式会社Ｃｒｅｓｃｏｒａ,,株式会社,兵庫県,神戸市中央区,脇浜町１丁目３－１－１００５,,28,110,6510072,,,,,,,2024-10-03,1,,,,,クレスコラ,0
2054,8140001135947,新規,0,2024-10-03,2024-10-03,株式会社Ｗｏｒｋｓ　Ｃｒｅａｔｉｏｎ,,株式会社,兵庫県,西宮市,馬場町１番２１号ルミナス西宮４０２号室,,28,204,6620915,,,,,,,2024-10-03,1,,,,,ワークスクリエイション,0
2057,8140003021154,新規,0,2024-10-03,2024-10-03,合同会社ＨＲＫ,,合同会社,兵庫県,西宮市,甲子園九番町１４番１５－２０２号,,28,204,6638179,,,,,,,2024-10-03,1,,,,,エイチアールケイ,0
2058,8140005027224,新規,0,2024-10-03,2024-10-03,一般社団法人神戸元町つだきよ塾,,その他の設立登記法人,兵庫県,神戸市中央区,下山手通３丁目６番６号４Ｆ,,28,110,6500011,,,,,,,2024-10-03,1,,,,,コウベモトマチツダキヨジュク,0
2060,8160001026252,新規,0,2024-10-03,2024-10-03,株式会社明隆グループ,,株式会社,滋賀県,彦根市,松原町１１３３番地７（５０３号）,,25,202,5220002,,,,,,,2024-10-03,1,,,,,アキサカグループ,0
2061,8160003003299,新規,0,2024-10-03,2024-10-03,Ｈｏｕｓｅ　ｏｆ　Ｂｉｊｏｕ合同会社,,合同会社,滋賀県,大津市,南小松１４８番,,25,201,5200502,,,,,,,2024-10-03,1,,,,,ハウスオブビジョウ,0
2062,8170001018323,新規,0,2024-10-03,2024-10-03,タケモト商会株式会社,,株式会社,和歌山県,田辺市,むつみ２６番１１号,,30,206,6460052,,,,,,,2024-10-03,1,,,,,タケモトショウカイ,0
2067,8180001163424,新規,0,2024-10-03,2024-10-03,株式会社ＵＳＳコンサルティング,,株式会社,愛知県,名古屋市港区,稲永４丁目１番３２号（ポレスター稲永１５０４号）,,23,111,4550842,,,,,,,2024-10-03,1,,,,,ユーエスエスコンサルティング,0
2068,8180001163498,新規,0,2024-10-03,2024-10-03,株式会社愛亮建設,,株式会社,愛知県,春日井市,高森台６丁目１５番地２,,23,206,4870032,,,,,,,2024-10-03,1,,,,,アイリョウケンセツ,0
2073,8180003027395,新規,0,2024-10-03,2024-10-03,ＬＸ合同会社,,合同会社,愛知県,名古屋市千種区,猪高町大字猪子石字猪々道１４４番地の１,,23,101,4640012,,,,,,,2024-10-03,1,,,,,エルエックス,0
2078,8190001031695,新規,0,2024-10-03,2024-10-03,株式会社伊賀牛オクダ,,株式会社,三重県,名張市,鴻之台２番町１２６番地,,24,208,5180702,,,,,,,2024-10-03,1,,,,,イガギュウオクダ,0
2080,8200001042996,新規,0,2024-10-03,2024-10-03,株式会社ピース,,株式会社,岐阜県,羽島郡笠松町,友楽町１０番地,,21,303,5016096,,,,,,,2024-10-03,1,,,,,ピース,0
2084,8230003002310,新規,0,2024-10-03,2024-10-03,合同会社ｌｕｎｅ　ｂｅａｕｔｙ,,合同会社,富山県,高岡市,和田１１３５‐１６,,16,202,9330832,,,,,,,2024-10-03,1,,,,,リュンヌビューティ,0
2085,8230005009411,新規,0,2024-10-03,2024-10-03,土地家屋調査士法人あいの風,,その他の設立登記法人,富山県,富山市,水橋大町８番地２,,16,201,9390000,,,,,,,2024-10-03,1,,,,,アイノカゼ,0
2087,8240001063873,新規,0,2024-10-03,2024-10-03,株式会社リアン,,株式会社,広島県,廿日市市,地御前３丁目２０番１５－１号,,34,213,7380042,,,,,,,2024-10-03,1,,,,,リアン,0
2089,8260001039517,新規,0,2024-10-03,2024-10-03,株式会社金福金属,,株式会社,岡山県,浅口市,金光町占見２５２番地１,,33,216,7190105,,,,,,,2024-10-03,1,,,,,カネフクキンゾク,0
2090,8260001039525,新規,0,2024-10-03,2024-10-03,ＡＦＧ　ＴＲＡＤＩＮＧ株式会社,,株式会社,岡山県,岡山市北区,津島東４丁目１０番１７－１号津島プラトン２０２,,33,101,7000081,,,,,,,2024-10-03,1,,,,,エーエフジートレーディング,0
2102,8330001032506,新規,0,2024-10-03,2024-10-03,株式会社Ｄ．Ｐ　Ｐｌａｎｎｉｎｇ,,株式会社,熊本県,熊本市中央区,出水６丁目２８番１５１号,,43,101,8620941,,,,,,,2024-10-03,1,,,,,ディーピープランニング,0
2104,8330003010583,新規,0,2024-10-03,2024-10-03,合同会社ＨＵＭ,,合同会社,熊本県,下益城郡美里町,今２１５番地１,,43,348,8614734,,,,,,,2024-10-03,1,,,,,エイチユーエム,0
2106,8340001026820,新規,0,2024-10-03,2024-10-03,株式会社稜,,株式会社,鹿児島県,西之表市,西之表６８３７番地３,,46,213,8913101,,,,,,,2024-10-03,1,,,,,リョウ,0
2107,8340001026829,新規,0,2024-10-03,2024-10-03,ＢＥＣＯＭＩＮＧ株式会社,,株式会社,鹿児島県,姶良市,鍋倉１６２番地,,46,225,8995411,,,,,,,2024-10-03,1,,,,,ビカミング,0
2108,8340003004626,新規,0,2024-10-03,2024-10-03,Ｒ‐ｓｔｕｄｉｏ合同会社,,合同会社,鹿児島県,鹿児島市,与次郎２丁目６番６－１００２号,,46,201,8900062,,,,,,,2024-10-03,1,,,,,アールスタジオ,0
2113,8360001034235,新規,0,2024-10-03,2024-10-03,ＯＫＩＮＡＷＡ　ＴＲＡＤＩＮＧ株式会社,,株式会社,沖縄県,中頭郡中城村,字南上原９３４番地７ライトハウス１０３号室,,47,328,9012424,,,,,,,2024-10-03,1,,,,,オキナワトレーディング,0
2115,8360003014350,新規,0,2024-10-03,2024-10-03,合同会社ＣＴＭ,,合同会社,沖縄県,糸満市,西崎６丁目１３番３号,,47,210,9010305,,,,,,,2024-10-03,1,,,,,シーティーエム,0
2127,8400001016807,新規,0,2024-10-03,2024-10-03,株式会社Ｍ．Ａ．Ｖ．Ｚ．,,株式会社,岩手県,花巻市,石鳥谷町好地第１地割６４２番地６,,03,205,0283101,,,,,,,2024-10-03,1,,,,,エムエーブイゼット,0
2132,8430003016843,新規,0,2024-10-03,2024-10-03,Ｙ・Ｈ合同会社,,合同会社,北海道,江別市,元江別７３６番地の４０,,01,217,0670032,,,,,,,2024-10-03,1,,,,,ワイエイチ,0
2136,8450001014426,新規,0,2024-10-03,2024-10-03,株式会社ＣＯＣＯ　ａｎｄ．,,株式会社,北海道,旭川市,神楽四条９丁目１番１５号,,01,204,0708004,,,,,,,2024-10-03,1,,,,,ココアンド,0
2140,8480001012609,新規,0,2024-10-03,2024-10-03,株式会社ＰＯＳＥＩＤＯＮ,,株式会社,徳島県,小松島市,日開野町字行地２８番地の７,,36,203,7730010,,,,,,,2024-10-03,1,,,,,ポセイドン,0
2141,8490001010875,新規,0,2024-10-03,2024-10-03,株式会社茂正,,株式会社,高知県,高知市,介良乙９８５番地１,,39,201,7815106,,,,,,,2024-10-03,1,,,,,シゲマサ,0
2143,8700150127399,新規,0,2024-10-03,2024-10-03,万邦通洋（香港）国際貨運代理　有限会社,,外国会社等,,,,,,,,ＦＬＡＴ／ＲＭ　１３０３　１３／Ｆ　ＣＨＥＯＮＧ　ＴＡＩ　ＢＵＩＬＤＩＮＧ　ＮＯ　２８７－２８９　ＲＥＣＬＡＭＡＴＩＯＮ　ＳＴＲＥＥＴ　ＫＬ,,,,,,2024-10-03,1,,,,,マンホウツウヨウホンコンコクサイカウンダイリユウゲンガイシヤ,0
2151,9010001248612,新規,0,2024-10-03,2024-10-03,株式会社リベルタス,,株式会社,東京都,中央区,築地７丁目１３番５号,,13,102,1040045,,,,,,,2024-10-03,1,,,,,リベルタス,0
2152,9010001248694,新規,0,2024-10-03,2024-10-03,株式会社一生懸命,,株式会社,東京都,中央区,月島２丁目１７－７,,13,102,1040052,,,,,,,2024-10-03,1,,,,,イッショウケンメイ,0
2153,9010001248752,新規,0,2024-10-03,2024-10-03,三晃証券ウェルスマネジメント準備株式会社,,株式会社,東京都,中央区,日本橋室町２丁目２番１号,,13,102,1030022,,,,,,,2024-10-03,1,,,,,サンコウショウケンウェルスマネジメントジュンビ,0
2154,9010003045041,新規,0,2024-10-03,2024-10-03,ＭＢＰ合同会社,,合同会社,東京都,千代田区,麹町３丁目２番９号ＶＯＲＴ麹町ＩＩＩ５階,00136498,13,101,1020083,,,,,,,2024-10-03,1,,,,,エムビィーピィー,0
2155,9010003045082,新規,0,2024-10-03,2024-10-03,合同会社ｈａｒｉｔｏｈｉｔｏ,,合同会社,東京都,千代田区,富士見２丁目３－３タロービル４階,,13,101,1020071,,,,,,,2024-10-03,1,,,,,ハリトヒト,0
2156,9010101016340,新規,0,2024-10-03,2024-10-03,株式会社アップライフ,,株式会社,東京都,八王子市,上柚木１９７－２リバーサイドイトウＩＩＥ１０１,00136504,13,201,1920373,,,,,,,2024-10-03,1,,,,,アップライフ,0
2164,9010403033562,新規,0,2024-10-03,2024-10-03,合同会社Ａｍｂｅｒ,,合同会社,東京都,港区,南青山３丁目１番３６号青山丸竹ビル６Ｆ,,13,103,1070062,,,,,,,2024-10-03,1,,,,,アンバー,0
2166,9010405023636,新規,0,2024-10-03,2024-10-03,一般社団法人のぞみ下大貫ソーラー,,その他の設立登記法人,東京都,港区,芝５丁目２９番１９号ＰＭＯ田町ＩＶ８階,00136471,13,103,1080014,,,,,,,2024-10-03,1,,,,,ノゾミシモオオヌキソーラー,0
2167,9010501052992,新規,0,2024-10-03,2024-10-03,株式会社ＳｅｅＤ,,株式会社,東京都,台東区,元浅草１丁目６番１２号ＧＯＧＯオフィス御徒町７１０号室,,13,106,1110041,,,,,,,2024-10-03,1,,,,,シード,0
2171,9010601066026,新規,0,2024-10-03,2024-10-03,株式会社ミヤタ内装,,株式会社,東京都,江東区,北砂１丁目１１番１－３０７号,,13,108,1360073,,,,,,,2024-10-03,1,,,,,ミヤタナイソウ,0
2173,9010701046613,新規,0,2024-10-03,2024-10-03,エヌアイエス株式会社,,株式会社,東京都,品川区,二葉１丁目１３番６号,,13,109,1420043,,,,,,,2024-10-03,1,,,,,エヌアイエス,0
2174,9010701046621,新規,0,2024-10-03,2024-10-03,株式会社品川,,株式会社,東京都,品川区,西五反田６丁目１５番１２号,,13,109,1410031,,,,,,,2024-10-03,1,,,,,,0
2181,9010803005120,新規,0,2024-10-03,2024-10-03,クリッププラス合同会社,,合同会社,東京都,大田区,池上７丁目１番７－８０１号,,13,111,1460082,,,,,,,2024-10-03,1,,,,,クリッププラス,0
2184,9010901056057,新規,0,2024-10-03,2024-10-03,株式会社丸島,,株式会社,東京都,世田谷区,上祖師谷２丁目１７番３－１０２号,,13,112,1570065,,,,,,,2024-10-03,1,,,,,マルシマ,0
2188,9011001164948,新規,0,2024-10-03,2024-10-03,株式会社Ｂｅｉｌｌ,,株式会社,東京都,目黒区,目黒３丁目２１番２５号ラ・ルーチェ目黒２０１,,13,110,1530063,,,,,,,2024-10-03,1,,,,,ビール,0
2190,9011101108945,新規,0,2024-10-03,2024-10-03,株式会社ＭＡＫＥＳＴＡＲ　ＪＡＰＡＮ,,株式会社,東京都,新宿区,山吹町３３１－４、９階,,13,104,1620801,,,,,,,2024-10-03,1,,,,,メイクスタージャパン,0
2191,9011101108961,新規,0,2024-10-03,2024-10-03,ＰＰＧｒｏｕｐＪａｐａｎ株式会社,,株式会社,東京都,新宿区,市谷本村町２番３号ＮＯＶＥＬＷＯＲＫＩｃｈｉｇａｙａ７Ｆ,,13,104,1620845,,,,,,,2024-10-03,1,,,,,ピーピーグループジャパン,0
2194,9011103014992,新規,0,2024-10-03,2024-10-03,森総研合同会社,,合同会社,東京都,新宿区,百人町１丁目３番１４,,13,104,1690073,,,,,,,2024-10-03,1,,,,,モリソウケン,0
2209,9012401042339,新規,0,2024-10-03,2024-10-03,株式会社ライフプロデュース,,株式会社,東京都,武蔵野市,境５丁目７番２６号２０３,,13,203,1800022,,,,,,,2024-10-03,1,,,,,ライフプロデュース,0
2210,9012401042347,新規,0,2024-10-03,2024-10-03,株式会社中山佳子設計企画,,株式会社,東京都,三鷹市,井の頭４丁目９番２号－１,,13,204,1810001,,,,,,,2024-10-03,1,,,,,ナカヤマヨシコセッケイキカク,0
2212,9012403006770,新規,0,2024-10-03,2024-10-03,キリクチ合同会社,,合同会社,東京都,武蔵野市,吉祥寺北町３丁目１番１５号,,13,203,1800001,,,,,,,2024-10-03,1,,,,,キリクチ,0
2213,9012403006779,新規,0,2024-10-03,2024-10-03,長月合同会社,,合同会社,東京都,府中市,是政３丁目３３番４０号,,13,206,1830014,,,,,,,2024-10-03,1,,,,,ナガツキ,0
2217,9020001159313,新規,0,2024-10-03,2024-10-03,株式会社ハーモニー,,株式会社,神奈川県,横浜市瀬谷区,瀬谷１丁目２３番地４Ｙビル１階,,14,114,2460031,,,,,,,2024-10-03,1,,,,,ハーモニー,0
2218,9020001159346,新規,0,2024-10-03,2024-10-03,株式会社ＩＹＴ,,株式会社,神奈川県,横浜市港北区,綱島西２丁目１１番１５－３０５号,,14,109,2230053,,,,,,,2024-10-03,1,,,,,アイワイティ,0
2219,9020001159412,新規,0,2024-10-03,2024-10-03,株式会社三和エンジニアリング,,株式会社,神奈川県,横浜市港南区,上大岡東１丁目２８番７号,,14,111,2330001,,,,,,,2024-10-03,1,,,,,サンワエンジニアリング,0
2232,9030001162720,新規,0,2024-10-03,2024-10-03,株式会社ＲＥＷＡＲＤ,,株式会社,埼玉県,和光市,下新倉２丁目２７－４１ウッドマンションＦ－Ｉ・１０１,,11,229,3510111,,,,,,,2024-10-03,1,,,,,リワード,0
2233,9030001162729,新規,0,2024-10-03,2024-10-03,株式会社ｓｅｌｆ　ｍａｄｅ,,株式会社,埼玉県,飯能市,美杉台７丁目１０－１,,11,209,3570041,,,,,,,2024-10-03,1,,,,,セルフメイド,0
2234,9030003025215,新規,0,2024-10-03,2024-10-03,三幸合同会社,,合同会社,埼玉県,川口市,西川口１丁目３５番７号ホーユウコンフォルト西川口９０８号,,11,203,3320021,,,,,,,2024-10-03,1,,,,,サンコウ,0
2235,9030003025223,新規,0,2024-10-03,2024-10-03,合同会社Ｙ,,合同会社,埼玉県,さいたま市西区,大字内野本郷６９６番地２０,,11,101,3310045,,,,,,,2024-10-03,1,,,,,ワイ,0
2236,9030003025231,新規,0,2024-10-03,2024-10-03,合同会社川越コネクト,,合同会社,埼玉県,川越市,末広町２丁目１－１９の右,,11,201,3500064,,,,,,,2024-10-03,1,,,,,カワゴエコネクト,0
2238,9040001135626,新規,0,2024-10-03,2024-10-03,株式会社ＯＵＢ,,株式会社,千葉県,千葉市中央区,今井２丁目１番５号エスポアール・ソガ１０２号,,12,101,2600834,,,,,,,2024-10-03,1,,,,,オーユービー,0
2239,9040003025890,新規,0,2024-10-03,2024-10-03,合同会社ＡＣアストラエア,,合同会社,千葉県,千葉市中央区,松波２丁目４番１８号,,12,101,2600044,,,,,,,2024-10-03,1,,,,,エーシーアストラエア,0
2240,9040003025908,新規,0,2024-10-03,2024-10-03,合同会社リウォルド,,合同会社,千葉県,白井市,根１７３４番地の３８,,12,232,2701431,,,,,,,2024-10-03,1,,,,,リウォルド,0
2243,9050001055468,新規,0,2024-10-03,2024-10-03,愛誠株式会社,,株式会社,茨城県,龍ケ崎市,松ケ丘２丁目２４番７－１０３号,,08,208,3010853,,,,,,,2024-10-03,1,,,,,アイセイ,0
2253,9080001026524,新規,0,2024-10-03,2024-10-03,株式会社プロジェクトＫ,,株式会社,静岡県,焼津市,西小川８丁目１番地の３,,22,212,4250036,,,,,,,2024-10-03,1,,,,,プロジェクトケー,0
2256,9080401027485,新規,0,2024-10-03,2024-10-03,株式会社村上自動車サービス,,株式会社,静岡県,掛川市,大坂６１８番地の１,,22,213,4371421,,,,,,,2024-10-03,1,,,,,ムラカミジドウシャサービス,0
2271,9120001268954,新規,0,2024-10-03,2024-10-03,ＰＵＲＥＯＮ株式会社,,株式会社,大阪府,寝屋川市,三井南町９番１７号,,27,215,5720019,,,,,,,2024-10-03,1,,,,,プレオン,0
2272,9120001268987,新規,0,2024-10-03,2024-10-03,ＪＣ　Ｐｏｗｅｒ株式会社,,株式会社,大阪府,大阪市都島区,善源寺町２丁目２番８－１４０８号,,27,102,5340015,,,,,,,2024-10-03,1,,,,,ジェイシーパワー,0
2273,9120003027656,新規,0,2024-10-03,2024-10-03,合同会社ウィル,,合同会社,大阪府,大阪市生野区,中川東２丁目１５－１７,,27,116,5440006,,,,,,,2024-10-03,1,,,,,ウィル,0
2274,9120003027664,新規,0,2024-10-03,2024-10-03,ＮＣＨ合同会社,,合同会社,大阪府,大阪市浪速区,恵美須西１丁目４－２３－５０８,,27,111,5560003,,,,,,,2024-10-03,1,,,,,エヌシーエイチ,0
2278,9130001078056,新規,0,2024-10-03,2024-10-03,ＦＴＭ株式会社,,株式会社,京都府,京都市下京区,烏丸通七条下る東塩小路町７３５番地１京阪京都ビル８階,,26,106,6008216,,,,,,,2024-10-03,1,,,,,エフティーエム,0
2287,9140001135987,新規,0,2024-10-03,2024-10-03,シャインエステイト株式会社,,株式会社,兵庫県,神戸市垂水区,五色山１丁目１番２２－４号,,28,108,6550035,,,,,,,2024-10-03,1,,,,,シャインエステイト,0
2288,9140001135995,新規,0,2024-10-03,2024-10-03,ポポデザイン株式会社,,株式会社,兵庫県,西宮市,甲子園一番町１番２８号,,28,204,6638171,,,,,,,2024-10-03,1,,,,,ポポデザイン,0
2291,9140005027223,新規,0,2024-10-03,2024-10-03,一般社団法人みくにコイノニア,,その他の設立登記法人,兵庫県,朝来市,和田山町平野２３９番地,,28,225,6695211,,,,,,,2024-10-03,1,,,,,ミクニコイノニア,0
2295,9160001026251,新規,0,2024-10-03,2024-10-03,株式会社エス・プラニング,,株式会社,滋賀県,彦根市,甲崎町８０番地,,25,202,5211141,,,,,,,2024-10-03,1,,,,,エスプラニング,0
2303,9180001163381,新規,0,2024-10-03,2024-10-03,東海資源再生株式会社,,株式会社,愛知県,名古屋市中区,正木１丁目２番８号（プレサンスロジェ金山セリエ１２０３号）,,23,106,4600024,,,,,,,2024-10-03,1,,,,,トウカイシゲンサイセイ,0
2304,9180001163423,新規,0,2024-10-03,2024-10-03,株式会社エンプロ,,株式会社,愛知県,名古屋市緑区,桃山２丁目８６番地の５,,23,114,4580002,,,,,,,2024-10-03,1,,,,,エンプロ,0
2305,9180001163448,新規,0,2024-10-03,2024-10-03,株式会社ノースリバー,,株式会社,愛知県,名古屋市瑞穂区,駒場町７丁目４番地,,23,108,4670807,,,,,,,2024-10-03,1,,,,,ノースリバー,0
2306,9180001163472,新規,0,2024-10-03,2024-10-03,株式会社ＨＮ,,株式会社,愛知県,名古屋市中区,新栄３丁目３番９号－２Ｇ－ｓｔｙｌｅ千種,,23,106,4600007,,,,,,,2024-10-03,1,,,,,エイチエヌ,0
2307,9180001163480,新規,0,2024-10-03,2024-10-03,株式会社リア・ウィステリア,,株式会社,愛知県,名古屋市東区,橦木町１丁目６番地の１,,23,102,4610014,,,,,,,2024-10-03,1,,,,,リアウィステリア,0
2308,9180001163489,新規,0,2024-10-03,2024-10-03,株式会社Ｃｈａｒｍｅｒ,,株式会社,愛知県,岩倉市,石仏町天王１５番地１３,,23,228,4820034,,,,,,,2024-10-03,1,,,,,シャルメ,0
2309,9180001163497,新規,0,2024-10-03,2024-10-03,株式会社Ｓｉｌｉｃｏｎ　ＬＡＢＯＸ,,株式会社,愛知県,名古屋市瑞穂区,下坂町１丁目２７番地,,23,108,4670827,,,,,,,2024-10-03,1,,,,,シリコンラボックス,0
2311,9180003027394,新規,0,2024-10-03,2024-10-03,合同会社よろずサポート,,合同会社,愛知県,大府市,横根町平子１６９－８,,23,223,4740011,,,,,,,2024-10-03,1,,,,,ヨロズサポート,0
2312,9180003027403,新規,0,2024-10-03,2024-10-03,合同会社ボルテック,,合同会社,愛知県,名古屋市天白区,保呂町６１１番地の６,,23,116,4680041,,,,,,,2024-10-03,1,,,,,ボルテック,0
2313,9180301039100,新規,0,2024-10-03,2024-10-03,株式会社ほっこりんご,,株式会社,愛知県,岡崎市,鴨田南町３番地１３アメニティ鴨田南３０１,,23,202,4442123,,,,,,,2024-10-03,1,,,,,ホッコリンゴ,0
2314,9180301039109,新規,0,2024-10-03,2024-10-03,ｍａｎｏａ　ｃｏｎｓｕｌｔｉｎｇ株式会社,,株式会社,愛知県,豊橋市,石巻本町字大清水６０番地の１１,,23,201,4411115,,,,,,,2024-10-03,1,,,,,マノアコンサルティング,0
2315,9190001031686,新規,0,2024-10-03,2024-10-03,株式会社南端電設,,株式会社,三重県,津市,緑が丘１丁目８番地９,,24,201,5140825,,,,,,,2024-10-03,1,,,,,ミナミバタデンセツ,0
2316,9190001031694,新規,0,2024-10-03,2024-10-03,株式会社ＭＳＫ,,株式会社,三重県,四日市市,堀木２丁目１２番８号,,24,202,5100076,,,,,,,2024-10-03,1,,,,,エムエスケイ,0
2318,9200001042995,新規,0,2024-10-03,2024-10-03,株式会社ＳＡＮＡ,,株式会社,岐阜県,羽島市,堀津町須賀中３１番地２,,21,209,5016338,,,,,,,2024-10-03,1,,,,,サナ,0
2319,9200003006528,新規,0,2024-10-03,2024-10-03,高村合同会社,,合同会社,岐阜県,岐阜市,柳津町東塚５丁目９番地Ｍ－ｎｅｔ２．２Ｃ,,21,201,5016102,,,,,,,2024-10-03,1,,,,,タカムラ,0
2321,9220001026253,新規,0,2024-10-03,2024-10-03,宮下技研株式会社,,株式会社,石川県,白山市,七郎町１７番地,,17,210,9240065,,,,,,,2024-10-03,1,,,,,ミヤシタギケン,0
2322,9230001020544,新規,0,2024-10-03,2024-10-03,ＳＡＫＡＩ株式会社,,株式会社,富山県,中新川郡上市町,下経田２２６番地,,16,322,9300373,,,,,,,2024-10-03,1,,,,,サカイ,0
2323,9230005009410,新規,0,2024-10-03,2024-10-03,一般社団法人富山ＳＡＶＥふくしまチルドレン,,その他の設立登記法人,富山県,小矢部市,石動町１番４３号,,16,209,9320053,,,,,,,2024-10-03,1,,,,,トヤマセーブフクシマチルドレン,0
2325,9240001063889,新規,0,2024-10-03,2024-10-03,株式会社エイチピーピー,,株式会社,広島県,広島市中区,小町３番２５号,,34,101,7300041,,,,,,,2024-10-03,1,,,,,エイチピーピー,0
2332,9260005011405,新規,0,2024-10-03,2024-10-03,行政書士法人西井,,その他の設立登記法人,岡山県,岡山市北区,富吉５３０１－８,,33,101,7011133,,,,,,,2024-10-03,1,,,,,ニシイ,0
2338,9290005019494,新規,0,2024-10-03,2024-10-03,一般財団法人英進館奨学金財団,,その他の設立登記法人,福岡県,福岡市中央区,今泉１丁目１１番１２号,,40,133,8100021,,,,,,,2024-10-03,1,,,,,エイシンカンショウガクキンザイダン,0
2339,9290801030927,新規,0,2024-10-03,2024-10-03,株式会社九州てっぺんエナジー,,株式会社,福岡県,北九州市小倉北区,浅野３丁目８番１号ＡＩＭビル６階,,40,106,8020001,,,,,,,2024-10-03,1,,,,,キュウシュウテッペンエナジー,0
2342,9320003004486,新規,0,2024-10-03,2024-10-03,合同会社Ｖｏｙａｇｅ　Ｐｌｕｓ,,合同会社,大分県,別府市,田の湯町３番７号アライアンスタワーＺ４階,,44,202,8740909,,,,,,,2024-10-03,1,,,,,ボヤージュプラス,0
2344,9330001032521,新規,0,2024-10-03,2024-10-03,株式会社湛不動産,,株式会社,熊本県,合志市,御代志１６５６番地２６８,,43,216,8611104,,,,,,,2024-10-03,1,,,,,タタエフドウサン,0
2346,9330003010582,新規,0,2024-10-03,2024-10-03,合同会社ｃ＆ｉ,,合同会社,熊本県,熊本市東区,保田窪４丁目１４番９号ＣａｓａＦｕｊｉ２０２号,,43,102,8620926,,,,,,,2024-10-03,1,,,,,シーアンドアイ,0
2347,9340001026828,新規,0,2024-10-03,2024-10-03,株式会社太陽ロード,,株式会社,鹿児島県,鹿児島市,伊敷台２丁目１７番２３号,,46,201,8900007,,,,,,,2024-10-03,1,,,,,タイヨウロード,0
2348,9340001026836,新規,0,2024-10-03,2024-10-03,株式会社ＧＡＴＳＢＹ,,株式会社,鹿児島県,鹿児島市,下福元町７０１２番地,,46,201,8910144,,,,,,,2024-10-03,1,,,,,ギャツビー,0
2352,9350001019211,新規,0,2024-10-03,2024-10-03,株式会社ＬＯＢ,,株式会社,宮崎県,宮崎市,中央通８―２９池亀ビル３階,,45,201,8800002,,,,,,,2024-10-03,1,,,,,エルオービー,0
2374,9400001016806,新規,0,2024-10-03,2024-10-03,株式会社ほめのば,,株式会社,岩手県,花巻市,桜台２丁目２７－１４,,03,205,0250064,,,,,,,2024-10-03,1,,,,,ホメノバ,0
2378,9430001092786,新規,0,2024-10-03,2024-10-03,株式会社華,,株式会社,北海道,札幌市北区,新琴似七条１７丁目１番１号,,01,102,0010907,,,,,,,2024-10-03,1,,,,,ハナ,0
2379,9430001092794,新規,0,2024-10-03,2024-10-03,株式会社ドクターフェリス札幌白石,,株式会社,北海道,札幌市白石区,米里二条４丁目５番２３号,,01,104,0030872,,,,,,,2024-10-03,1,,,,,ドクターフェリスサッポロシロイシ,0
2381,9430003016850,新規,0,2024-10-03,2024-10-03,合同会社ＴＨＲＥＥ,,合同会社,北海道,石狩市,花川南四条２丁目３番地,,01,235,0613204,,,,,,,2024-10-03,1,,,,,スリー,0
2389,9480001012608,新規,0,2024-10-03,2024-10-03,株式会社榮,,株式会社,徳島県,徳島市,川内町宮島本浦１０５番地の２,,36,201,7710114,,,,,,,2024-10-03,1,,,,,サカエ,0
2391,9490001010874,新規,0,2024-10-03,2024-10-03,株式会社ＢＡＢＥＬ,,株式会社,高知県,長岡郡本山町,寺家２３３番地１,,39,341,7813617,,,,,,,2024-10-03,1,,,,,バベル,0
2395,9500003003338,新規,0,2024-10-03,2024-10-03,合同会社ルピナス,,合同会社,愛媛県,今治市,大西町新町甲１０３７－１－２３２号,,38,202,7992203,,,,,,,2024-10-03,1,,,,,ルピナス,0
2397,9700150127398,新規,0,2024-10-03,2024-10-03,ＫＣＩ　ＴＩＭＯＲ,,外国会社等,茨城県,坂東市,神田山１３４３,,08,228,3060617,東ティモール民主共和国ディリ，ドム・アレイショ，ベボヌク，デ・セテンブロ２０，ユニット２０７，レベル２，シービーディー３，ニコラウ・ロバトプレジデントアベニュー,,,,,,2024-10-03,1,,,,,ケーシーアイテイモール,0
