sequenceNumber,corporateNumber,process,correct,updateDate,changeDate,name,nameImageId,kind,prefectureName,cityName,streetNumber,addressImageId,prefectureCode,cityCode,postCode,addressOutside,addressOutsideImageId,closeDate,closeCause,successorCorporateNumber,changeCause,assignmentDate,latest,enName,enPrefectureName,enCityName,enAddressOutside,furigana,hihyoji
4,1010001262570,新規,0,2026-02-12,2026-02-12,株式会社ＡＲＴＳ　ＲＥＳＰＥＣＴ,,株式会社,東京都,中央区,日本橋小舟町８番６号,,13,102,1030024,,,,,,,2026-02-12,1,,,,,アーツリスペクト,0
5,1010001262595,新規,0,2026-02-12,2026-02-12,株式会社ＺＥＮ　ＨＯＭＥ,,株式会社,東京都,中央区,築地２丁目７－１２,,13,102,1040045,,,,,,,2026-02-12,1,,,,,ゼンホーム,0
6,1010001262620,新規,0,2026-02-12,2026-02-12,株式会社セミナリー,,株式会社,東京都,千代田区,三番町７番地２,,13,101,1020075,,,,,,,2026-02-12,1,,,,,セミナリー,0
7,1010001262629,新規,0,2026-02-12,2026-02-12,ＮＣ２株式会社,,株式会社,東京都,千代田区,大手町１丁目３番１号ＪＡビル６階暁翔キャピタル株式会社内,,13,101,1000004,,,,,,,2026-02-12,1,,,,,エヌシーツー,0
8,1010001262728,新規,0,2026-02-12,2026-02-12,ＪＰＡ第３９４号株式会社,,株式会社,東京都,千代田区,霞が関３丁目２番１号,,13,101,1000013,,,,,,,2026-02-12,1,,,,,ジェイピーエーダイサンビャクキュウジュウヨンゴウ,0
9,1010001262769,新規,0,2026-02-12,2026-02-12,株式会社ＨＳホールディングス,,株式会社,東京都,中央区,日本橋３丁目６－２日本橋フロント１Ｆ,,13,102,1030027,,,,,,,2026-02-12,1,,,,,エイチエスホールディングス,0
13,1010003050263,新規,0,2026-02-12,2026-02-12,ミライエ合同会社,,合同会社,東京都,中央区,日本橋室町１丁目１１番１２号,,13,102,1030022,,,,,,,2026-02-12,1,,,,,ミライエ,0
14,1010003050271,新規,0,2026-02-12,2026-02-12,合同会社ＸＩ,,合同会社,東京都,千代田区,内幸町２丁目１番１号飯野ビルディング９階,,13,101,1000011,,,,,,,2026-02-12,1,,,,,エックスワン,0
15,1010003050346,新規,0,2026-02-12,2026-02-12,ＢＲＩＣＫ１合同会社,,合同会社,東京都,中央区,日本橋１丁目４番１号日本橋一丁目ビルディング,,13,102,1030027,,,,,,,2026-02-12,1,,,,,ブリックワン,0
16,1010003050370,新規,0,2026-02-12,2026-02-12,合同会社翔輝ホールディングス,,合同会社,東京都,文京区,白山１丁目８番５号,,13,105,1130001,,,,,,,2026-02-12,1,,,,,ショウキホールディングス,0
27,1010401196377,新規,0,2026-02-12,2026-02-12,株式会社カイト,,株式会社,東京都,港区,港南４丁目２番７,,13,103,1080075,,,,,,,2026-02-12,1,,,,,カイト,0
28,1010401196410,新規,0,2026-02-12,2026-02-12,ＨＲ　Ｐａｔｈ　Ｊａｐａｎ株式会社,,株式会社,東京都,港区,東麻布１丁目２３番５号,,13,103,1060044,,,,,,,2026-02-12,1,,,,,エイチアールパスジャパン,0
29,1010401196550,新規,0,2026-02-12,2026-02-12,株式会社Ｆｕｎｎｙ,,株式会社,東京都,港区,赤坂７丁目２番２１号草月会館９Ｆ,,13,103,1070052,,,,,,,2026-02-12,1,,,,,ファニー,0
33,1010501055441,新規,0,2026-02-12,2026-02-12,株式会社ＩＴＫ,,株式会社,東京都,台東区,元浅草１丁目６番１２号ＧＯＧＯオフィス御徒町４０７号室,,13,106,1110041,,,,,,,2026-02-12,1,,,,,アイティーケー,0
36,1010601068723,新規,0,2026-02-12,2026-02-12,株式会社藤田商事,,株式会社,東京都,墨田区,東駒形４丁目２１－４,,13,107,1300005,,,,,,,2026-02-12,1,,,,,フジタショウジ,0
42,1010901058944,新規,0,2026-02-12,2026-02-12,株式会社ｃａｄｅｎａ,,株式会社,東京都,世田谷区,太子堂４丁目１８番１５号マガザン三軒茶屋２・３Ｆ－３,,13,112,1540004,,,,,,,2026-02-12,1,,,,,カデナ,0
49,1011001174954,新規,0,2026-02-12,2026-02-12,株式会社Ｉｎｉｚｉｏ,,株式会社,東京都,渋谷区,円山町５番３号ＭＩＥＵＸ渋谷ビル８階,,13,113,1500044,,,,,,,2026-02-12,1,,,,,イニツィオ,0
50,1011001175606,新規,0,2026-02-12,2026-02-12,株式会社ユカン堂,,株式会社,東京都,渋谷区,広尾１丁目２番地１号ヒカリビル４階,,13,113,1500012,,,,,,,2026-02-12,1,,,,,ユカンドウ,0
51,1011001175663,新規,0,2026-02-12,2026-02-12,株式会社ＭｅａｌｉｔｈＴｅｃｈ,,株式会社,東京都,渋谷区,神南１丁目１１‐４ＦＰＧリンクス神南５階,,13,113,1500041,,,,,,,2026-02-12,1,,,,,ミーリステック,0
53,1011003023523,新規,0,2026-02-12,2026-02-12,合同会社Ｈ＆Ｔ,,合同会社,東京都,目黒区,下目黒１丁目１番１４号コノトラビル７Ｆ,,13,110,1530064,,,,,,,2026-02-12,1,,,,,エイチアンドティー,0
61,1011103016996,新規,0,2026-02-12,2026-02-12,合同会社クラウド,,合同会社,東京都,新宿区,西新宿３丁目３番１３号西新宿水間ビル２階,,13,104,1600023,,,,,,,2026-02-12,1,,,,,クラウド,0
62,1011103017086,新規,0,2026-02-12,2026-02-12,合同会社ハイパーハック,,合同会社,東京都,新宿区,原町３丁目６９番地２,,13,104,1620053,,,,,,,2026-02-12,1,,,,,ハイパーハック,0
64,1011105011715,新規,0,2026-02-12,2026-02-12,一般社団法人Ｓａｓａｎｑｕａ,,その他の設立登記法人,東京都,新宿区,富久町８番２６号東京ユナイテッド綜合事務所内,,13,104,1620067,,,,,,,2026-02-12,1,,,,,サザンカ,0
67,1011303005849,新規,0,2026-02-12,2026-02-12,合同会社Ｋｚプランナー,,合同会社,東京都,杉並区,下井草４丁目１８－１９ベルシティ下井草１０１号,,13,115,1670022,,,,,,,2026-02-12,1,,,,,ケーズプランナー,0
69,1011401027794,新規,0,2026-02-12,2026-02-12,株式会社ＴＫアドバイザリー,,株式会社,東京都,板橋区,徳丸３丁目２２番３９－７１２号マナーズフォートＳ,,13,119,1750083,,,,,,,2026-02-12,1,,,,,ティーケーアドバイザリー,0
74,1011601029368,新規,0,2026-02-12,2026-02-12,Ｑｕｅｅｎ　Ｌａｎｄ株式会社,,株式会社,東京都,練馬区,高松１丁目４２－７,,13,120,1790075,,,,,,,2026-02-12,1,,,,,クイーンランド,0
77,1011703004525,新規,0,2026-02-12,2026-02-12,合同会社てとて,,合同会社,東京都,江戸川区,西葛西２丁目１番２４－９０２号,,13,123,1340088,,,,,,,2026-02-12,1,,,,,テトテ,0
80,1012403007603,新規,0,2026-02-12,2026-02-12,合同会社Ｓｈａｉｎ,,合同会社,東京都,狛江市,東野川２丁目６番２１号,,13,219,2010002,,,,,,,2026-02-12,1,,,,,シャイン,0
89,1020001166977,新規,0,2026-02-12,2026-02-12,ＳＴＦ株式会社,,株式会社,神奈川県,横浜市鶴見区,仲通１丁目４２番地,,14,101,2300042,,,,,,,2026-02-12,1,,,,,エスティーエフ,0
90,1020001167026,新規,0,2026-02-12,2026-02-12,株式会社なないろ,,株式会社,神奈川県,川崎市高津区,新作３丁目１８番３号,,14,134,2130014,,,,,,,2026-02-12,1,,,,,ナナイロ,0
91,1020001167075,新規,0,2026-02-12,2026-02-12,株式会社Ｒｅスタート,,株式会社,神奈川県,川崎市高津区,末長１丁目４０番６号姿見台スカイハイツＢ３０７,,14,134,2130013,,,,,,,2026-02-12,1,,,,,リスタート,0
94,1020003030314,新規,0,2026-02-12,2026-02-12,クルーズマジック合同会社,,合同会社,神奈川県,横浜市金沢区,東朝比奈２丁目２番３２－２０５号,,14,108,2360033,,,,,,,2026-02-12,1,,,,,クルーズマジック,0
95,1020003030330,新規,0,2026-02-12,2026-02-12,合同会社ｏｎｅｃｅｄａｒ　ｍａｎａｇｅｍｅｎｔ,,合同会社,神奈川県,川崎市幸区,堀川町７２番地２１Ｔ１５０１,,14,132,2120013,,,,,,,2026-02-12,1,,,,,ワンシダーマネージメント,0
96,1020003030355,新規,0,2026-02-12,2026-02-12,コグニア合同会社,,合同会社,神奈川県,横浜市青葉区,青葉台１丁目１３番１号青葉台郵便局２Ｆ,,14,117,2270062,,,,,,,2026-02-12,1,,,,,コグニア,0
97,1021001087494,新規,0,2026-02-12,2026-02-12,株式会社ＫＥＮＪＥ２ｎｄ,,株式会社,神奈川県,藤沢市,鵠沼橘１丁目１７番５号,,14,205,2510024,,,,,,,2026-02-12,1,,,,,ケンジセカンド,0
98,1021001087503,新規,0,2026-02-12,2026-02-12,株式会社ＡＸＵＳ,,株式会社,神奈川県,平塚市,寺田縄１３０番地の２,,14,203,2591215,,,,,,,2026-02-12,1,,,,,アクサス,0
100,1021003017136,新規,0,2026-02-12,2026-02-12,合同会社ＡＩＲＵ　ｌｉｎｋｓ,,合同会社,神奈川県,秦野市,西田原４５番地の７,,14,211,2570027,,,,,,,2026-02-12,1,,,,,アイルリンクス,0
108,1030001170904,新規,0,2026-02-12,2026-02-12,株式会社ＳＨＩＮＯＢＩ,,株式会社,埼玉県,川越市,小仙波町２丁目４番地３１,,11,201,3500036,,,,,,,2026-02-12,1,,,,,シノビ,0
109,1030001170937,新規,0,2026-02-12,2026-02-12,株式会社小江戸ワイナリー,,株式会社,埼玉県,川越市,大字砂久保４８番地,,11,201,3501152,,,,,,,2026-02-12,1,,,,,コエドワイナリー,0
110,1030001170945,新規,0,2026-02-12,2026-02-12,株式会社友洋一,,株式会社,埼玉県,さいたま市桜区,大字上大久保１９２番地,,11,106,3380824,,,,,,,2026-02-12,1,,,,,ユウヨウイチ,0
111,1030001170978,新規,0,2026-02-12,2026-02-12,ＮＥＸＵＳ　ＯＮＥ株式会社,,株式会社,埼玉県,所沢市,大字山口７６０番地の２７,,11,208,3591145,,,,,,,2026-02-12,1,,,,,ネクサスワン,0
112,1030001170986,新規,0,2026-02-12,2026-02-12,株式会社ｃｏｎｎｅｃｔｉｏｎ,,株式会社,埼玉県,入間郡三芳町,大字藤久保３０５番地３，３１８,,11,324,3540041,,,,,,,2026-02-12,1,,,,,コネクション,0
116,1030003028588,新規,0,2026-02-12,2026-02-12,合同会社ジェイプランニング,,合同会社,埼玉県,さいたま市桜区,大字上大久保９０４－１０（Ａ－３２４）,,11,106,3380824,,,,,,,2026-02-12,1,,,,,ジェイプランニング,0
117,1030003028621,新規,0,2026-02-12,2026-02-12,合同会社オフィス丸山,,合同会社,埼玉県,富士見市,羽沢３丁目２２番８号,,11,235,3540033,,,,,,,2026-02-12,1,,,,,オフィスマルヤマ,0
122,1040001142142,新規,0,2026-02-12,2026-02-12,株式会社ＳＵＣＵ,,株式会社,千葉県,千葉市稲毛区,作草部町９５５番地９,,12,103,2630014,,,,,,,2026-02-12,1,,,,,スク,0
123,1040001142489,新規,0,2026-02-12,2026-02-12,ブレイブホールディングス株式会社,,株式会社,千葉県,流山市,おおたかの森西１丁目２番地の３,,12,220,2700128,,,,,,,2026-02-12,1,,,,,ブレイブホールディングス,0
129,1040003029296,新規,0,2026-02-12,2026-02-12,合同会社Ｄａｒｉｎｇ　Ｔａｃｔ,,合同会社,千葉県,佐倉市,染井野５丁目６６番地１１,,12,212,2850831,,,,,,,2026-02-12,1,,,,,デアリングタクト,0
130,1040003029437,新規,0,2026-02-12,2026-02-12,和結モビリット合同会社,,合同会社,千葉県,八千代市,神野１０７６－７１,,12,221,2760016,,,,,,,2026-02-12,1,,,,,ワユイモビリット,0
131,1040003029445,新規,0,2026-02-12,2026-02-12,合同会社ｕｍｒｓｔ．,,合同会社,千葉県,柏市,花野井１６９９番地２,,12,217,2770812,,,,,,,2026-02-12,1,,,,,アムルスト,0
132,1040003029453,新規,0,2026-02-12,2026-02-12,高宮醤油合名会社,00142456,合名会社,千葉県,山武市,松尾町金尾７６１番地,,12,237,2891505,,,,,,,2026-02-12,1,,,,,,0
139,1070001043817,新規,0,2026-02-12,2026-02-12,株式会社トランスポート,,株式会社,群馬県,高崎市,中豊岡町１８８－２,,10,202,3700874,,,,,,,2026-02-12,1,,,,,トランスポート,0
140,1080001027422,新規,0,2026-02-12,2026-02-12,ＲＴ株式会社,,株式会社,静岡県,静岡市葵区,七間町５番地の１チサンマンション七間町,,22,101,4200035,,,,,,,2026-02-12,1,,,,,アールティー,0
144,1080101026084,新規,0,2026-02-12,2026-02-12,株式会社しおみ,,株式会社,静岡県,沼津市,大岡４２３番地の９,,22,203,4100022,,,,,,,2026-02-12,1,,,,,シオミ,0
145,1080103003528,新規,0,2026-02-12,2026-02-12,合同会社おおし,,合同会社,静岡県,裾野市,須山２２５５番地の３５０３,,22,220,4101231,,,,,,,2026-02-12,1,,,,,,0
149,1100001039332,新規,0,2026-02-12,2026-02-12,株式会社ＮＰＧｃｏｎｎｅｃｔ,,株式会社,長野県,長野市,大字鶴賀田町２１４４番地４,,20,201,3800815,,,,,,,2026-02-12,1,,,,,エヌピージーコネクト,0
163,1120001284018,新規,0,2026-02-12,2026-02-12,株式会社ＥＭコンサルティング,,株式会社,大阪府,大阪市中央区,南船場３丁目７番２７号ＮＬＣ心斎橋３Ｅ,,27,128,5420081,,,,,,,2026-02-12,1,,,,,イーエムコンサルティング,0
164,1120001284026,新規,0,2026-02-12,2026-02-12,Ｓ＆Ａパートナーズ株式会社,,株式会社,大阪府,大阪市中央区,東心斎橋１丁目３番１０号６０２号室,,27,128,5420083,,,,,,,2026-02-12,1,,,,,エスアンドエーパートナーズ,0
165,1120001284050,新規,0,2026-02-12,2026-02-12,ピエロ株式会社,,株式会社,大阪府,大阪市北区,梅田１丁目１番３号大阪駅前第３ビル１１階２号室,,27,127,5300001,,,,,,,2026-02-12,1,,,,,ピエロ,0
166,1120001284059,新規,0,2026-02-12,2026-02-12,レディエンス・メディカル株式会社,,株式会社,大阪府,大阪市中央区,瓦町３丁目１番９号,,27,128,5410048,,,,,,,2026-02-12,1,,,,,レディエンスメディカル,0
167,1120001284067,新規,0,2026-02-12,2026-02-12,株式会社ハニックス,,株式会社,大阪府,枚方市,磯島元町１１番１７号,,27,210,5731187,,,,,,,2026-02-12,1,,,,,ハニックス,0
168,1120001284091,新規,0,2026-02-12,2026-02-12,株式会社ＤＳＤ,,株式会社,大阪府,大阪市生野区,巽北１丁目４－１３,,27,116,5440004,,,,,,,2026-02-12,1,,,,,ディーエスディー,0
169,1120001284100,新規,0,2026-02-12,2026-02-12,株式会社ライフリンク,,株式会社,大阪府,門真市,大池町６番３６号,,27,223,5710076,,,,,,,2026-02-12,1,,,,,ライフリンク,0
174,1120005025401,新規,0,2026-02-12,2026-02-12,ＴＭＧオフィス社会保険労務士法人,,その他の設立登記法人,大阪府,大阪市城東区,今福東１丁目４番１２－１３０６,,27,118,5360002,,,,,,,2026-02-12,1,,,,,,0
178,1120903006072,新規,0,2026-02-12,2026-02-12,合同会社おんがくｔｏ和,,合同会社,大阪府,箕面市,森町中１丁目８番４号,,27,220,5630257,,,,,,,2026-02-12,1,,,,,オンガクトワ,0
192,1140003023207,新規,0,2026-02-12,2026-02-12,合同会社いたみ税務法務事務所,,合同会社,兵庫県,伊丹市,西台４丁目１番２９号ＹＫビル４階,,28,207,6640858,,,,,,,2026-02-12,1,,,,,イタミゼイムホウムジムショ,0
195,1160001027414,新規,0,2026-02-12,2026-02-12,リネスト株式会社,,株式会社,滋賀県,高島市,新旭町針江５番地２８０,,25,212,5201502,,,,,,,2026-02-12,1,,,,,リネスト,0
202,1180001170583,新規,0,2026-02-12,2026-02-12,株式会社ＫＡＤＯＵ,,株式会社,愛知県,名古屋市天白区,海老山町２１１６番地,,23,116,4680042,,,,,,,2026-02-12,1,,,,,カドウ,0
203,1180001170625,新規,0,2026-02-12,2026-02-12,Ｙ２‐ＴＥＣＨ株式会社,,株式会社,愛知県,一宮市,萩原町串作字下口１番地２,,23,203,4910376,,,,,,,2026-02-12,1,,,,,ワイツーテック,0
204,1180003029753,新規,0,2026-02-12,2026-02-12,合同会社ＣＡＮＡＮ,,合同会社,愛知県,一宮市,萩原町朝宮字宮東１０８０番地７,,23,203,4910354,,,,,,,2026-02-12,1,,,,,カナン,0
205,1180005021428,新規,0,2026-02-12,2026-02-12,一般社団法人ＨｏｐＳｔｅｐいそのみや,,その他の設立登記法人,愛知県,知多市,巽が丘４丁目１０３番地の２,,23,224,4780012,,,,,,,2026-02-12,1,,,,,ホップステップイソノミヤ,0
206,1180301040684,新規,0,2026-02-12,2026-02-12,株式会社メタワークス,,株式会社,愛知県,知立市,新富２丁目３３番地,,23,225,4720047,,,,,,,2026-02-12,1,,,,,メタワークス,0
207,1190001032907,新規,0,2026-02-12,2026-02-12,株式会社希望荘,,株式会社,三重県,三重郡菰野町,大字千草７０９３番地,,24,341,5101251,,,,,,,2026-02-12,1,,,,,キボウソウ,0
211,1210003002005,新規,0,2026-02-12,2026-02-12,合同会社聖成,,合同会社,福井県,福井市,高木中央２丁目３５０２番地３トリプルコートＣ号室,,18,201,9100804,,,,,,,2026-02-12,1,,,,,セイジョウ,0
223,1290001113135,新規,0,2026-02-12,2026-02-12,株式会社みかど,,株式会社,福岡県,福岡市中央区,天神４丁目６－２８いちご天神ノースビル７階,,40,133,8100001,,,,,,,2026-02-12,1,,,,,ミカド,0
224,1290001113143,新規,0,2026-02-12,2026-02-12,株式会社Ｏｖｅｒｌｙｓｔ,,株式会社,福岡県,福岡市中央区,小笹３丁目９番２７号,,40,133,8100033,,,,,,,2026-02-12,1,,,,,オーバーリスト,0
225,1290003018043,新規,0,2026-02-12,2026-02-12,サニタス生薬合同会社,,合同会社,福岡県,大野城市,若草１丁目８番８－２号,,40,219,8160981,,,,,,,2026-02-12,1,,,,,サニタスショウヤク,0
226,1290003018051,新規,0,2026-02-12,2026-02-12,合同会社ＨＡＮＡ,,合同会社,福岡県,福岡市南区,高宮１丁目４番１０－９０３号ＬＩＮＯ高宮,,40,134,8150083,,,,,,,2026-02-12,1,,,,,ハナ,0
230,1290803005273,新規,0,2026-02-12,2026-02-12,合同会社マユミ不動産,,合同会社,福岡県,行橋市,大橋３丁目３－１９－１０２,,40,213,8240003,,,,,,,2026-02-12,1,,,,,マユミフドウサン,0
231,1310001019957,新規,0,2026-02-12,2026-02-12,株式会社協和飯店,,株式会社,長崎県,大村市,桜馬場２丁目４４６番地１０,,42,205,8560812,,,,,,,2026-02-12,1,,,,,キョウワハンテン,0
233,1330005011025,新規,0,2026-02-12,2026-02-12,一般社団法人万里一空,,その他の設立登記法人,熊本県,天草市,今釜新町３６４５番地,,43,215,8630013,,,,,,,2026-02-12,1,,,,,バンリイックウ,0
236,1350001019937,新規,0,2026-02-12,2026-02-12,Ａｑｓｈ株式会社,,株式会社,宮崎県,日南市,上平野町２丁目１３番地９,,45,204,8870022,,,,,,,2026-02-12,1,,,,,アクシュ,0
238,1350003005134,新規,0,2026-02-12,2026-02-12,ｔｕｇｉｈａ合同会社,,合同会社,宮崎県,宮崎市,大塚町水流５１８７－１,,45,201,8800951,,,,,,,2026-02-12,1,,,,,ツギハ,0
244,1360003015611,新規,0,2026-02-12,2026-02-12,合同会社ちゅＬＩＦＥ,,合同会社,沖縄県,那覇市,与儀１丁目１６番地‐５,,47,201,9020076,,,,,,,2026-02-12,1,,,,,チュライフ,0
246,1380001035865,新規,0,2026-02-12,2026-02-12,株式会社スペースプロット,,株式会社,福島県,本宮市,長屋字浦門４２,,07,214,9691206,,,,,,,2026-02-12,1,,,,,スペースプロット,0
251,1420003003238,新規,0,2026-02-12,2026-02-12,合同会社三授,,合同会社,青森県,三戸郡階上町,大字角柄折字東平１番地１７７,,02,446,0391208,,,,,,,2026-02-12,1,,,,,サンジュ,0
252,1420005008004,新規,0,2026-02-12,2026-02-12,三戸地区養蚕農業協同組合,,その他の設立登記法人,青森県,三戸郡三戸町,大字八日町１２番地,,02,441,0390135,,,,,,,2026-02-12,1,,,,,,0
263,1500001026777,新規,0,2026-02-12,2026-02-12,株式会社ＨＡＮＡＧＡ,,株式会社,愛媛県,松山市,元町８番１５号,,38,201,7918064,,,,,,,2026-02-12,1,,,,,ハナガ,0
267,1700150134369,新規,0,2026-02-12,2026-02-12,ＥＮＶＩＲＯＴＡＩＮＥＲ　ＡＢ,,外国会社等,,,,,,,,Ｓｔａｆｆａｎｓ　Ｖ＿ｇ　２Ａ，１９２　７８　ＳＯＬＬＥＮＴＵＮＡ，ＳＷＥＤＥＮ,00142436,,,,,2026-02-12,1,,,,,エンヴィロテイナーエービー,0
278,2010001261695,新規,0,2026-02-12,2026-02-12,リガーレ株式会社,,株式会社,東京都,千代田区,麹町４丁目１番５号,,13,101,1020083,,,,,,,2026-02-12,1,,,,,リガーレ,0
279,2010001262330,新規,0,2026-02-12,2026-02-12,チアリンクス株式会社,,株式会社,東京都,中央区,日本橋室町１丁目１１番１２号日本橋水野ビル７階,,13,102,1030022,,,,,,,2026-02-12,1,,,,,チアリンクス,0
280,2010001262545,新規,0,2026-02-12,2026-02-12,Ｓｅｎｓｏｒ　Ｔｏｗｅｒ　Ｊａｐａｎ株式会社,,株式会社,東京都,千代田区,神田紺屋町４５－１,,13,101,1010035,,,,,,,2026-02-12,1,,,,,センサータワージャパン,0
281,2010001262628,新規,0,2026-02-12,2026-02-12,ＮＣ１株式会社,,株式会社,東京都,千代田区,大手町１丁目３番１号ＪＡビル６階暁翔キャピタル株式会社内,,13,101,1000004,,,,,,,2026-02-12,1,,,,,エヌシーワン,0
282,2010001262719,新規,0,2026-02-12,2026-02-12,ＪＰＡ第３８５号株式会社,,株式会社,東京都,千代田区,霞が関３丁目２番１号,,13,101,1000013,,,,,,,2026-02-12,1,,,,,ジェイピーエーダイサンビャクハチジュウゴゴウ,0
283,2010001262727,新規,0,2026-02-12,2026-02-12,ＪＰＡ第３９３号株式会社,,株式会社,東京都,千代田区,霞が関３丁目２番１号,,13,101,1000013,,,,,,,2026-02-12,1,,,,,ジェイピーエーダイサンビャクキュウジュウサンゴウ,0
284,2010001262768,新規,0,2026-02-12,2026-02-12,ＯＧＲＥ　ＡＩ株式会社,,株式会社,東京都,千代田区,有楽町１丁目５番２号,,13,101,1000006,,,,,,,2026-02-12,1,,,,,オーガエーアイ,0
285,2010001262818,新規,0,2026-02-12,2026-02-12,株式会社イノハ,,株式会社,東京都,千代田区,神田須田町２丁目２５番ＧＹＢ秋葉原５階,,13,101,1010041,,,,,,,2026-02-12,1,,,,,イノハ,0
288,2010003050262,新規,0,2026-02-12,2026-02-12,合同会社ｔｏｒｉａ　ｄｅｓｉｇｎ,,合同会社,東京都,千代田区,神田須田町１丁目７番８号ＶＯＲＴ秋葉原ＩＶ２Ｆ,00142551,13,101,1010041,,,,,,,2026-02-12,1,,,,,トリアデザイン,0
301,2010403037280,新規,0,2026-02-12,2026-02-12,合同会社ドキュメンタリーアイズ,,合同会社,東京都,港区,白金２丁目７番地１７号ファミールグラン白金ヴェルデフォーレ５０３,,13,103,1080072,,,,,,,2026-02-12,1,,,,,ドキュメンタリーアイズ,0
302,2010405025267,新規,0,2026-02-12,2026-02-12,一般社団法人ステーブルコイン決済協会,,その他の設立登記法人,東京都,港区,赤坂４丁目５番２１号バルミー赤坂５０５,,13,103,1070052,,,,,,,2026-02-12,1,,,,,ステーブルコインケッサイキョウカイ,0
306,2010503008181,新規,0,2026-02-12,2026-02-12,合同会社浅草寿,,合同会社,東京都,台東区,寿１丁目２１番６‐３０１ブランズ浅草寿,,13,106,1110042,,,,,,,2026-02-12,1,,,,,アサクサコトブキ,0
309,2010701049028,新規,0,2026-02-12,2026-02-12,株式会社ＭＥＴＡＨＡＢＩＴＡＴ,,株式会社,東京都,品川区,西品川１丁目１番１号住友不動産大崎ガーデンタワー９Ｆ,,13,109,1410033,,,,,,,2026-02-12,1,,,,,メタハビタット,0
311,2010901058910,新規,0,2026-02-12,2026-02-12,株式会社コポトレ,,株式会社,東京都,世田谷区,上用賀３丁目２番１５－１０３号,,13,112,1580098,,,,,,,2026-02-12,1,,,,,コポトレ,0
312,2010901058919,新規,0,2026-02-12,2026-02-12,株式会社ＵＮＩＣＡ,,株式会社,東京都,世田谷区,玉川田園調布１丁目９番１号田園調布壱番館４０１,,13,112,1580085,,,,,,,2026-02-12,1,,,,,ユニカ,0
314,2010903010621,新規,0,2026-02-12,2026-02-12,水野合同会社,,合同会社,東京都,世田谷区,駒沢５丁目１１番１３号,,13,112,1540012,,,,,,,2026-02-12,1,,,,,ミズノ,0
321,2011003023522,新規,0,2026-02-12,2026-02-12,合同会社絆ワークス,,合同会社,東京都,渋谷区,千駄ヶ谷３丁目８番１１－５０２号,,13,113,1510051,,,,,,,2026-02-12,1,,,,,キズナワークス,0
328,2011101114990,新規,0,2026-02-12,2026-02-12,Ｗリネンサプライ株式会社,,株式会社,東京都,新宿区,高田馬場２丁目１６番２号土屋ビル４階,,13,104,1690075,,,,,,,2026-02-12,1,,,,,ダブルリネンサプライ,0
330,2011103017052,新規,0,2026-02-12,2026-02-12,合同会社ココル,,合同会社,東京都,新宿区,信濃町１２番地の１信濃町ＳＡＮＭＯビル７階,,13,104,1600016,,,,,,,2026-02-12,1,,,,,ココル,0
331,2011103017093,新規,0,2026-02-12,2026-02-12,ベースケント合同会社,,合同会社,東京都,新宿区,新宿１丁目３６‐２新宿第七葉山ビル３Ｆ,,13,104,1600022,,,,,,,2026-02-12,1,,,,,ベースケント,0
333,2011201026962,新規,0,2026-02-12,2026-02-12,ｓｐａｃｅ　ｃａｔｓ株式会社,,株式会社,東京都,中野区,丸山１丁目９番１４－７０１号,,13,114,1650021,,,,,,,2026-02-12,1,,,,,スペースキャッツ,0
338,2011303005848,新規,0,2026-02-12,2026-02-12,合同会社Ｌｉｂｅｒｉ　Ｓｉｍｉａ　Ｗｏｒｋｓ,,合同会社,東京都,杉並区,成田東４丁目１３番２０号,,13,115,1660015,,,,,,,2026-02-12,1,,,,,リベリシミアワークス,0
341,2011601029375,新規,0,2026-02-12,2026-02-12,株式会社五稜不動産鑑定,,株式会社,東京都,練馬区,上石神井１丁目１２番７－３１０号,,13,120,1770044,,,,,,,2026-02-12,1,,,,,ゴリョウフドウサンカンテイ,0
352,2020001167099,新規,0,2026-02-12,2026-02-12,株式会社ＴｏＤｏ,,株式会社,神奈川県,横浜市中区,尾上町４丁目５７番横浜尾上町ビルディング８Ｆ,,14,104,2310015,,,,,,,2026-02-12,1,,,,,トド,0
354,2020003030305,新規,0,2026-02-12,2026-02-12,合同会社猪突猛進,,合同会社,神奈川県,横浜市西区,浅間町１丁目４－３ウィザードビル４０２,,14,103,2200072,,,,,,,2026-02-12,1,,,,,チョトツモウシン,0
358,2021001087304,新規,0,2026-02-12,2026-02-12,さがみアセットマネジメント株式会社,,株式会社,神奈川県,相模原市南区,相南１丁目１７番２３号,,14,153,2520312,,,,,,,2026-02-12,1,,,,,サガミアセットマネジメント,0
359,2021001087452,新規,0,2026-02-12,2026-02-12,株式会社ティエヌエス,,株式会社,神奈川県,愛甲郡愛川町,中津３４６６番地の１７,,14,401,2430303,,,,,,,2026-02-12,1,,,,,ティエヌエス,0
360,2021001087469,新規,0,2026-02-12,2026-02-12,株式会社絢月,,株式会社,神奈川県,横須賀市,鶴が丘１丁目７番１号,,14,201,2380056,,,,,,,2026-02-12,1,,,,,アヤツキ,0
361,2021001087477,新規,0,2026-02-12,2026-02-12,株式会社ＤＲＥＡＭ　ＬＩＮＫ,,株式会社,神奈川県,横須賀市,大矢部４丁目２１番１４号,,14,201,2380024,,,,,,,2026-02-12,1,,,,,ドリームリンク,0
362,2021001087502,新規,0,2026-02-12,2026-02-12,株式会社ウィリ解体,,株式会社,神奈川県,平塚市,西八幡４丁目２番１６号リーベンハウス５,,14,203,2540073,,,,,,,2026-02-12,1,,,,,ウィリカイタイ,0
364,2021003017085,新規,0,2026-02-12,2026-02-12,オオアイ経営事務所合同会社,,合同会社,神奈川県,大和市,つきみ野３丁目１８番地８号,,14,213,2420002,,,,,,,2026-02-12,1,,,,,,0
365,2021003017135,新規,0,2026-02-12,2026-02-12,合同会社ＹＫコンサル,,合同会社,神奈川県,藤沢市,遠藤８３９番地の６,,14,205,2520816,,,,,,,2026-02-12,1,,,,,ワイケーコンサル,0
368,2030001170944,新規,0,2026-02-12,2026-02-12,株式会社皓夏舎,,株式会社,埼玉県,越谷市,花田７丁目９番地１４,,11,222,3430015,,,,,,,2026-02-12,1,,,,,コウカシャ,0
369,2030001170977,新規,0,2026-02-12,2026-02-12,ビジョン株式会社,,株式会社,埼玉県,所沢市,緑町３丁目９番１４号Ｋビル緑町２０５,,11,208,3591111,,,,,,,2026-02-12,1,,,,,ビジョン,0
377,2030003028620,新規,0,2026-02-12,2026-02-12,ＰＲＭ合同会社,,合同会社,埼玉県,さいたま市見沼区,大字蓮沼１７７５番地２,00142543,11,104,3370015,,,,,,,2026-02-12,1,,,,,ピーアールエム,0
379,2030005022407,新規,0,2026-02-12,2026-02-12,社会保険労務士法人ティーダ・トライブ,,その他の設立登記法人,埼玉県,久喜市,上内１８５６番地４,,11,232,3400211,,,,,,,2026-02-12,1,,,,,ティーダトライブ,0
387,2040001142141,新規,0,2026-02-12,2026-02-12,日本エステート株式会社,,株式会社,千葉県,千葉市中央区,中央港１丁目１８番５号,,12,101,2600024,,,,,,,2026-02-12,1,,,,,ニホンエステート,0
388,2040001142389,新規,0,2026-02-12,2026-02-12,ＫＡＷＡＩＩ　ＦＩＴＭＥＮＴ．株式会社,,株式会社,千葉県,香取市,虫幡４０６番地６,,12,236,2890341,,,,,,,2026-02-12,1,,,,,カワイイフィットメント,0
389,2040001142430,新規,0,2026-02-12,2026-02-12,株式会社Ｍｅｅｔｕｒｅ,,株式会社,千葉県,松戸市,栄町８丁目５９６番地５,,12,207,2710062,,,,,,,2026-02-12,1,,,,,ミーチュア,0
390,2040001142447,新規,0,2026-02-12,2026-02-12,大東アクアテック株式会社,,株式会社,千葉県,我孫子市,船戸１丁目６番４０号２０１号室,,12,222,2701158,,,,,,,2026-02-12,1,,,,,ダイトウアクアテック,0
391,2040001142488,新規,0,2026-02-12,2026-02-12,株式会社ブレイブワン,,株式会社,千葉県,流山市,おおたかの森西１丁目２番地の３,,12,220,2700128,,,,,,,2026-02-12,1,,,,,ブレイブワン,0
396,2040003029444,新規,0,2026-02-12,2026-02-12,合同会社長尾試験,,合同会社,千葉県,千葉市若葉区,原町７９２番地１－６０２号,,12,104,2640034,,,,,,,2026-02-12,1,,,,,ナガオシケン,0
405,2080101026067,新規,0,2026-02-12,2026-02-12,ＡｉＷｉＬＬ株式会社,,株式会社,静岡県,熱海市,紅葉ガ丘町３－１２,,22,205,4130027,,,,,,,2026-02-12,1,,,,,アイウィル,0
406,2080101026083,新規,0,2026-02-12,2026-02-12,株式会社２０８,,株式会社,静岡県,伊東市,八幡野１３４４番地の２７,,22,208,4130232,,,,,,,2026-02-12,1,,,,,ニワヤ,0
407,2080103003527,新規,0,2026-02-12,2026-02-12,伊澄屋合同会社,,合同会社,静岡県,伊豆の国市,長岡５９６番地の１,,22,225,4102211,,,,,,,2026-02-12,1,,,,,イズミヤ,0
408,2080105006569,新規,0,2026-02-12,2026-02-12,一般社団法人Ｚｅｎ縁環社会機構,,その他の設立登記法人,静岡県,富士市,大淵１６８番地の４０,,22,210,4170801,,,,,,,2026-02-12,1,,,,,ゼンエンカンシャカイキコウ,0
415,2110001039883,新規,0,2026-02-12,2026-02-12,ＬＥＧＡＣＹ　ＷＯＲＫＳ　ＨＯＬＤＩＮＧＳ株式会社,,株式会社,新潟県,新潟市東区,卸新町２丁目２０６６番地１３,,15,102,9500863,,,,,,,2026-02-12,1,,,,,レガシーワークスホールディングス,0
429,2120001283893,新規,0,2026-02-12,2026-02-12,Ｅａｓｔ　Ｖａｌｌｅｙ　Ｇｒｏｕｐ株式会社,,株式会社,大阪府,大阪市東住吉区,南田辺３丁目２５番１１号,,27,121,5460033,,,,,,,2026-02-12,1,,,,,イーストバレーグループ,0
430,2120001284082,新規,0,2026-02-12,2026-02-12,株式会社翔陽建設,,株式会社,大阪府,寝屋川市,香里北之町２番４－２０２号,,27,215,5720080,,,,,,,2026-02-12,1,,,,,ショウヨウケンセツ,0
431,2120001284099,新規,0,2026-02-12,2026-02-12,株式会社我儘製作所,,株式会社,大阪府,大阪市福島区,福島１丁目６－１２,,27,103,5530003,,,,,,,2026-02-12,1,,,,,ワガママセイサクショ,0
433,2120005025400,新規,0,2026-02-12,2026-02-12,一般社団法人牟婁,,その他の設立登記法人,大阪府,大阪市中央区,谷町３丁目６番４号大拓ビル２０－９階,,27,128,5400012,,,,,,,2026-02-12,1,,,,,ムロ,0
440,2122001040184,新規,0,2026-02-12,2026-02-12,株式会社リノバコ,,株式会社,大阪府,東大阪市,柏田西２丁目４番２１号,,27,227,5770835,,,,,,,2026-02-12,1,,,,,リノバコ,0
446,2130005017586,新規,0,2026-02-12,2026-02-12,一般社団法人よさの生活,,その他の設立登記法人,京都府,与謝郡与謝野町,字三河内１１６３番地,,26,465,6292313,,,,,,,2026-02-12,1,,,,,ヨサノセイカツ,0
449,2140001141736,新規,0,2026-02-12,2026-02-12,株式会社アーネクスト,,株式会社,兵庫県,高砂市,米田町島７３４番地の４,,28,216,6760807,,,,,,,2026-02-12,1,,,,,アーネクスト,0
451,2140003023206,新規,0,2026-02-12,2026-02-12,合同会社ヘルスケア神戸,,合同会社,兵庫県,神戸市垂水区,学が丘５丁目１番４号,,28,108,6550004,,,,,,,2026-02-12,1,,,,,ヘルスケアコウベ,0
457,2180001170566,新規,0,2026-02-12,2026-02-12,株式会社ＣｌａｒｉＳ,,株式会社,愛知県,名古屋市千種区,今池４丁目５番２号グランオーシャンＩＭＡＩＫＥ４０１,,23,101,4640850,,,,,,,2026-02-12,1,,,,,クラリス,0
458,2180001170608,新規,0,2026-02-12,2026-02-12,株式会社ＧＤスタジオ,,株式会社,愛知県,名古屋市港区,小碓４丁目１８５番地,,23,111,4550801,,,,,,,2026-02-12,1,,,,,ジーディースタジオ,0
459,2180003029744,新規,0,2026-02-12,2026-02-12,合同会社ＵＬＴＲＡ,,合同会社,愛知県,名古屋市中村区,名駅南２丁目７番６７号パークアクシス名駅南３０２号,,23,105,4500003,,,,,,,2026-02-12,1,,,,,ウルトラ,0
460,2180003029760,新規,0,2026-02-12,2026-02-12,合同会社ＥＮプラス,,合同会社,愛知県,江南市,前飛保町西町８８番地,,23,217,4838349,,,,,,,2026-02-12,1,,,,,エンプラス,0
461,2180301040675,新規,0,2026-02-12,2026-02-12,株式会社ＣａｉｒｏＰｌｕｓ,,株式会社,愛知県,豊田市,東大林町岩本２９番地３,,23,211,4443261,,,,,,,2026-02-12,1,,,,,カイロプラス,0
462,2180301040683,新規,0,2026-02-12,2026-02-12,株式会社ＥＦＰ　ＬＯＧＩＳＴＩＣＳ,,株式会社,愛知県,豊田市,八草町大田１１９０番地２,,23,211,4700356,,,,,,,2026-02-12,1,,,,,イーエフピーロジスティクス,0
463,2180301040691,新規,0,2026-02-12,2026-02-12,ＪＵＮ’Ｓ　ＴＲＡＤＩＮＧ株式会社,,株式会社,愛知県,額田郡幸田町,大字坂崎字六反１０番地,,23,501,4440104,,,,,,,2026-02-12,1,,,,,ジュンズトレーディング,0
471,2210001020494,新規,0,2026-02-12,2026-02-12,ＭＩＮＡＧＩ株式会社,,株式会社,福井県,福井市,中央１丁目３番５号ＦＵＫＵＭＡＣＨＩＢＬＯＣＫＭＩＮＩＥ,,18,201,9100006,,,,,,,2026-02-12,1,,,,,ミナギ,0
476,2220001027167,新規,0,2026-02-12,2026-02-12,悟り株式会社,,株式会社,石川県,金沢市,幸町９番２７号,,17,201,9200968,,,,,,,2026-02-12,1,,,,,サトリ,0
489,2290001113101,新規,0,2026-02-12,2026-02-12,株式会社ＴＥＡＭジャストミート,,株式会社,福岡県,大野城市,御笠川１丁目１０番１６号,,40,219,8160912,,,,,,,2026-02-12,1,,,,,チームジャストミート,0
490,2290001113118,新規,0,2026-02-12,2026-02-12,株式会社吉積ファーム,,株式会社,福岡県,福岡市西区,今宿上ノ原７４３番地３,,40,135,8190163,,,,,,,2026-02-12,1,,,,,ヨシヅミファーム,0
491,2290001113134,新規,0,2026-02-12,2026-02-12,クリ・インダストリー株式会社,,株式会社,福岡県,福岡市博多区,諸岡１丁目２１番５号,,40,132,8120894,,,,,,,2026-02-12,1,,,,,クリインダストリー,0
496,2290803005272,新規,0,2026-02-12,2026-02-12,合同会社Ｋプロ,,合同会社,福岡県,北九州市小倉北区,足原１丁目６番１８号２階,,40,106,8020043,,,,,,,2026-02-12,1,,,,,ケイプロ,0
498,2310001019956,新規,0,2026-02-12,2026-02-12,ＮＫ電設工業株式会社,,株式会社,長崎県,長崎市,平間町１５２４番地５,,42,201,8510136,,,,,,,2026-02-12,1,,,,,エヌケーデンセツコウギョウ,0
502,2320003004897,新規,0,2026-02-12,2026-02-12,ＥＶＡ合同会社,,合同会社,大分県,大分市,大字一木４５０番地の１０,,44,201,8700316,,,,,,,2026-02-12,1,,,,,エヴァ,0
509,2350003005141,新規,0,2026-02-12,2026-02-12,ＷＥＲＫ合同会社,,合同会社,宮崎県,宮崎市,大字広原１２５７番地８,,45,201,8800125,,,,,,,2026-02-12,1,,,,,ヴェルク,0
520,2380001035872,新規,0,2026-02-12,2026-02-12,株式会社福志,,株式会社,福島県,郡山市,中野２丁目１９７番地渡辺貸家２号,,07,203,9630206,,,,,,,2026-02-12,1,,,,,フクシ,0
523,2410001014385,新規,0,2026-02-12,2026-02-12,株式会社ルベール,,株式会社,秋田県,秋田市,下新城中野字街道端西２９９番地,,05,201,0100146,,,,,,,2026-02-12,1,,,,,ルベール,0
526,2420005008003,新規,0,2026-02-12,2026-02-12,八戸地区養蚕農業協同組合,,その他の設立登記法人,青森県,八戸市,大字大工町７番地,,02,203,0310036,,,,,,,2026-02-12,1,,,,,,0
527,2430001096232,新規,0,2026-02-12,2026-02-12,株式会社ｆａｒｍのはら,,株式会社,北海道,雨竜郡雨竜町,字恵岱別２０８番地２８８,,01,436,0782600,,,,,,,2026-02-12,1,,,,,ファームノハラ,0
528,2430001096240,新規,0,2026-02-12,2026-02-12,株式会社富食,,株式会社,北海道,札幌市中央区,北二条東３丁目２番９号Ｎ２Ｆｕｊｉｉ,,01,101,0600032,,,,,,,2026-02-12,1,,,,,トミショク,0
534,2440003001759,新規,0,2026-02-12,2026-02-12,上ノ国里山ファーム合同会社,,合同会社,北海道,檜山郡上ノ国町,字大留１４７番地１６,,01,362,0490611,,,,,,,2026-02-12,1,,,,,カミノクニサトヤマファーム,0
535,2450003002772,新規,0,2026-02-12,2026-02-12,合同会社華美來,,合同会社,北海道,留萌郡小平町,字鬼鹿田代９１番地の１,,01,482,0783442,,,,,,,2026-02-12,1,,,,,ハナビラ,0
539,2490001011276,新規,0,2026-02-12,2026-02-12,株式会社しんらい,,株式会社,高知県,高知市,帯屋町１丁目１４－８・２Ｆ,,39,201,7800841,,,,,,,2026-02-12,1,,,,,,0
551,3010001262569,新規,0,2026-02-12,2026-02-12,株式会社伊勢矢,,株式会社,東京都,中央区,佃２丁目２番１１－３４０９号,,13,102,1040051,,,,,,,2026-02-12,1,,,,,イセヤ,0
552,3010001262718,新規,0,2026-02-12,2026-02-12,ＪＰＡ第３８４号株式会社,,株式会社,東京都,千代田区,霞が関３丁目２番１号,,13,101,1000013,,,,,,,2026-02-12,1,,,,,ジェイピーエーダイサンビャクハチジュウヨンゴウ,0
553,3010001262726,新規,0,2026-02-12,2026-02-12,ＪＰＡ第３９２号株式会社,,株式会社,東京都,千代田区,霞が関３丁目２番１号,,13,101,1000013,,,,,,,2026-02-12,1,,,,,ジェイピーエーダイサンビャクキュウジュウニゴウ,0
554,3010001262791,新規,0,2026-02-12,2026-02-12,株式会社１０１０,,株式会社,東京都,中央区,月島１丁目２７番１２－１０２号,,13,102,1040052,,,,,,,2026-02-12,1,,,,,トト,0
556,3010003050303,新規,0,2026-02-12,2026-02-12,インデックス合同会社,,合同会社,東京都,中央区,銀座１丁目２７番８号セントラルビル７０３号,,13,102,1040061,,,,,,,2026-02-12,1,,,,,インデックス,0
557,3010003050369,新規,0,2026-02-12,2026-02-12,ＬＩＮＫ　ＵＰ　ＡＬＬＩＡＮＣＥ合同会社,,合同会社,東京都,中央区,日本橋室町１丁目１１－１２日本橋水野ビル７階,,13,102,1030022,,,,,,,2026-02-12,1,,,,,リンクアップアライアンス,0
558,3010003050377,新規,0,2026-02-12,2026-02-12,トライズアルカリンク合同会社,,合同会社,東京都,中央区,日本橋室町１丁目１１番１２号日本橋水野ビル７階,,13,102,1030022,,,,,,,2026-02-12,1,,,,,トライズアルカリンク,0
566,3010401196391,新規,0,2026-02-12,2026-02-12,ＷｉｎＲａｔｅ株式会社,,株式会社,東京都,港区,赤坂２丁目１３－７赤坂キヨシビル６Ｆ,,13,103,1070052,,,,,,,2026-02-12,1,,,,,ウィンレート,0
567,3010401196417,新規,0,2026-02-12,2026-02-12,株式会社ＰａｙＶｅｒｓｅ　Ｊａｐａｎ,,株式会社,東京都,港区,六本木３丁目１６番３５号イースト六本木ビル２Ｆ株式会社ユニヴァ・ペイキャスト内,,13,103,1060032,,,,,,,2026-02-12,1,,,,,ペイバースジャパン,0
568,3010401196549,新規,0,2026-02-12,2026-02-12,株式会社Ａｓｔｒｏｖｉｅｗ,,株式会社,東京都,港区,北青山１丁目３－３三橋ビル３階,,13,103,1070061,,,,,,,2026-02-12,1,,,,,アストロビュー,0
569,3010403037255,新規,0,2026-02-12,2026-02-12,合同会社アンバー・ワン,,合同会社,東京都,港区,虎ノ門３丁目１８番１２－５０２号株式会社虎ノ門会計神谷町分室内,,13,103,1050001,,,,,,,2026-02-12,1,,,,,アンバーワン,0
570,3010405025266,新規,0,2026-02-12,2026-02-12,一般社団法人Ｊａｐａｎ　Ｃｏｎｎｅｃｔ　Ｐｒｏｊｅｃｔ,,その他の設立登記法人,東京都,港区,北青山１丁目３番１号アールキューブ青山３階,,13,103,1070061,,,,,,,2026-02-12,1,,,,,ジャパンコネクトプロジェクト,0
579,3010803005720,新規,0,2026-02-12,2026-02-12,合同会社今井コンサルタント,,合同会社,東京都,大田区,新蒲田１丁目２２番９－３０６号,,13,111,1440054,,,,,,,2026-02-12,1,,,,,イマイコンサルタント,0
587,3011003023323,新規,0,2026-02-12,2026-02-12,Ｓｃａｌａｒｘ　Ｊａｐａｎ合同会社,,合同会社,東京都,渋谷区,道玄坂１丁目１０番８号渋谷道玄坂東急ビル２Ｆ－Ｃ,,13,113,1500043,,,,,,,2026-02-12,1,,,,,スカラーバイジャパン,0
588,3011003023554,新規,0,2026-02-12,2026-02-12,Ｆｌｕｘｉａ合同会社,,合同会社,東京都,渋谷区,道玄坂１丁目１６－６二葉ビル８ｂ,,13,113,1500043,,,,,,,2026-02-12,1,,,,,フラクシア,0
591,3011101114718,新規,0,2026-02-12,2026-02-12,万博商事株式会社,,株式会社,東京都,新宿区,百人町２丁目３番２３－４階,,13,104,1690073,,,,,,,2026-02-12,1,,,,,バンパクショウジ,0
592,3011101114965,新規,0,2026-02-12,2026-02-12,ＮＩＲＡＩＫＡＮＡＩ株式会社,,株式会社,東京都,新宿区,新宿４丁目３番１５号レイフラット新宿Ｂ棟,,13,104,1600022,,,,,,,2026-02-12,1,,,,,ニライカナイ,0
593,3011103017084,新規,0,2026-02-12,2026-02-12,合同会社ｖｉｃｔｏｒｙ,,合同会社,東京都,新宿区,西新宿３丁目３番１３号西新宿水間ビル２Ｆ,,13,104,1600023,,,,,,,2026-02-12,1,,,,,ビクトリー,0
598,3011303005855,新規,0,2026-02-12,2026-02-12,合同会社ＮＬＰＳ　ＧＲＯＵＰ,,合同会社,東京都,杉並区,井草２丁目８番９号,,13,115,1670021,,,,,,,2026-02-12,1,,,,,エヌエルピーエスグループ,0
599,3011401027792,新規,0,2026-02-12,2026-02-12,株式会社ＩＮＢｅｅ,,株式会社,東京都,板橋区,大和町２５番９－２０１号クレストラフィーネ板橋本町,,13,119,1730012,,,,,,,2026-02-12,1,,,,,インビー,0
601,3011403005020,新規,0,2026-02-12,2026-02-12,金泉合同会社,,合同会社,東京都,板橋区,東新町２丁目２６番８号フレデリックテラス１０５,,13,119,1740074,,,,,,,2026-02-12,1,,,,,カネイズミ,0
605,3011801047440,新規,0,2026-02-12,2026-02-12,株式会社Ｚｉｉ　Ｊａｐａｎ,,株式会社,東京都,葛飾区,青戸２丁目３－３メゾンドベル１０２,,13,122,1250062,,,,,,,2026-02-12,1,,,,,ジージャパン,0
607,3012701003153,新規,0,2026-02-12,2026-02-12,株式会社丸新,,株式会社,東京都,西東京市,東伏見２丁目６番７号,,13,229,2020021,,,,,,,2026-02-12,1,,,,,マルシン,0
612,3013301055725,新規,0,2026-02-12,2026-02-12,株式会社ＨＩＫＡＲＩＮＯ,,株式会社,東京都,豊島区,巣鴨５丁目２７番７－４０９号,,13,116,1700002,,,,,,,2026-02-12,1,,,,,ヒカリノ,0
617,3020001167065,新規,0,2026-02-12,2026-02-12,株式会社ＡＬＬ　ＦＯＲ　ＯＮＥ,,株式会社,神奈川県,横浜市南区,共進町２丁目４９番地１ＹＯＫＯＹＡＭＡＢＬＤＧ１Ｆ,,14,105,2320015,,,,,,,2026-02-12,1,,,,,オールフォーワン,0
622,3021001087476,新規,0,2026-02-12,2026-02-12,ウェルスパイア株式会社,,株式会社,神奈川県,相模原市南区,上鶴間本町２丁目３７番６号クリエールＫＵＲＡＭＯＴＯＩＩ２０１,00142544,14,153,2520318,,,,,,,2026-02-12,1,,,,,ウェルスパイア,0
623,3021001087492,新規,0,2026-02-12,2026-02-12,イイねサービス株式会社,,株式会社,神奈川県,海老名市,東柏ケ谷６丁目８番１３－１号,,14,215,2430401,,,,,,,2026-02-12,1,,,,,イイネサービス,0
624,3021003017142,新規,0,2026-02-12,2026-02-12,ＡＲＣＨＩＴＥＸＩＳ合同会社,,合同会社,神奈川県,藤沢市,宮原３２３５番地の１,,14,205,2520826,,,,,,,2026-02-12,1,,,,,アーキテクス,0
625,3021003017150,新規,0,2026-02-12,2026-02-12,合同会社ＭＵＭ,,合同会社,神奈川県,茅ヶ崎市,中海岸４丁目８番３ー２０５号メゾン・ド・ラメール,,14,207,2530055,,,,,,,2026-02-12,1,,,,,エムユーエム,0
636,3030001170935,新規,0,2026-02-12,2026-02-12,株式会社台和工業,,株式会社,埼玉県,児玉郡美里町,大字阿那志５８２番地１,,11,381,3670103,,,,,,,2026-02-12,1,,,,,ダイワコウギョウ,0
637,3030001170992,新規,0,2026-02-12,2026-02-12,株式会社Ｔ・Ｏ・Ａ,,株式会社,埼玉県,川口市,鳩ヶ谷本町１丁目１番９－４０４号,,11,203,3340002,,,,,,,2026-02-12,1,,,,,トア,0
644,3040001142421,新規,0,2026-02-12,2026-02-12,株式会社ＴＳＰ,,株式会社,千葉県,千葉市稲毛区,宮野木町２１５０番地１,,12,103,2630054,,,,,,,2026-02-12,1,,,,,ティーエスピー,0
645,3040001142446,新規,0,2026-02-12,2026-02-12,アミル株式会社,,株式会社,千葉県,柏市,中新宿１丁目８番４３号北小金タウンハウス１０５号,,12,217,2770066,,,,,,,2026-02-12,1,,,,,アミル,0
646,3040001142454,新規,0,2026-02-12,2026-02-12,株式会社なんぼや,,株式会社,千葉県,市川市,本塩６番１３－２１１号ジェンティーレトリヤマＩＩＩ,00142556,12,203,2720104,,,,,,,2026-02-12,1,,,,,ナンボヤ,0
647,3040001142462,新規,0,2026-02-12,2026-02-12,株式会社ＹＫ壁装,,株式会社,千葉県,習志野市,実籾１丁目１３番１８号,,12,216,2750002,,,,,,,2026-02-12,1,,,,,ワイケイヘキソウ,0
650,3040003029443,新規,0,2026-02-12,2026-02-12,パワーリザーブＭＳＫ合同会社,,合同会社,千葉県,佐倉市,染井野３丁目３７番地８,,12,212,2850831,,,,,,,2026-02-12,1,,,,,パワーリザーブエムエスケイ,0
651,3040003029451,新規,0,2026-02-12,2026-02-12,合同会社金城勝華れ,,合同会社,千葉県,浦安市,堀江４丁目３５番３４－１０３号,,12,227,2790041,,,,,,,2026-02-12,1,,,,,キンジョウマサルハナレ,0
652,3050001057973,新規,0,2026-02-12,2026-02-12,株式会社ニューライフ不動産,,株式会社,茨城県,古河市,仁連２２１９番地９,,08,204,3060125,,,,,,,2026-02-12,1,,,,,ニューライフフドウサン,0
660,3080101026082,新規,0,2026-02-12,2026-02-12,株式会社駿河再生ファンド,,株式会社,静岡県,富士市,下横割１６１番地の２６,,22,210,4160943,,,,,,,2026-02-12,1,,,,,,0
661,3080103003526,新規,0,2026-02-12,2026-02-12,合同会社ヤスイテックファーム,,合同会社,静岡県,富士市,中野５１１番地の２４,,22,210,4170809,,,,,,,2026-02-12,1,,,,,,0
677,3120003031853,新規,0,2026-02-12,2026-02-12,合同会社マーケティングジャパン,,合同会社,大阪府,大阪市中央区,北久宝寺町１丁目１番１号,,27,128,5410057,,,,,,,2026-02-12,1,,,,,マーケティングジャパン,0
678,3120003031911,新規,0,2026-02-12,2026-02-12,ＣＡＲＳＩＭＺ　ＴＲＡＤＩＮＧ合同会社,,合同会社,大阪府,大阪市西区,江戸堀３丁目６‐２‐６０６,,27,106,5500002,,,,,,,2026-02-12,1,,,,,カーシムズトレーディング,0
685,3130001081569,新規,0,2026-02-12,2026-02-12,株式会社ＫＥＳＬ,,株式会社,京都府,京都市西京区,川島有栖川町９４番地１,,26,111,6158191,,,,,,,2026-02-12,1,,,,,ケーイーエスエル,0
692,3140001141735,新規,0,2026-02-12,2026-02-12,株式会社ＲＥＶＩＡ　ＥＳＴＡＴＥ,,株式会社,兵庫県,西宮市,甲子園口北町９番６号,,28,204,6638112,,,,,,,2026-02-12,1,,,,,レヴィアエステート,0
696,3140003023213,新規,0,2026-02-12,2026-02-12,合同会社Ｆｒｅｇｉｓ,,合同会社,兵庫県,姫路市,広畑区西蒲田１１７７－１０,,28,201,6711107,,,,,,,2026-02-12,1,,,,,フレジス,0
699,3150003003841,新規,0,2026-02-12,2026-02-12,合同会社くーちょわん情報工房,,合同会社,奈良県,大和高田市,材木町７番５号,,29,202,6350011,,,,,,,2026-02-12,1,,,,,クーチョワンジョウホウコウボウ,0
704,3180001170573,新規,0,2026-02-12,2026-02-12,株式会社ザイオン,,株式会社,愛知県,名古屋市名東区,よもぎ台２丁目１２１１番地,,23,115,4650091,,,,,,,2026-02-12,1,,,,,ザイオン,0
705,3180001170598,新規,0,2026-02-12,2026-02-12,株式会社祐祐堂,,株式会社,愛知県,一宮市,平安１丁目４番２８号,,23,203,4910872,,,,,,,2026-02-12,1,,,,,ユウユウドウ,0
706,3180001170607,新規,0,2026-02-12,2026-02-12,株式会社ギバーズジャパン,,株式会社,愛知県,東海市,加木屋町社山２２８番地,,23,222,4770032,,,,,,,2026-02-12,1,,,,,ギバーズジャパン,0
707,3180003029751,新規,0,2026-02-12,2026-02-12,ワールド合同会社,,合同会社,愛知県,名古屋市中村区,名駅５丁目３３番２１号,,23,105,4500002,,,,,,,2026-02-12,1,,,,,ワールド,0
709,3180301040690,新規,0,2026-02-12,2026-02-12,株式会社ＬＡＶＩＴＡ,,株式会社,愛知県,豊田市,若林西町向屋敷２０番地,,23,211,4730917,,,,,,,2026-02-12,1,,,,,ラビータ,0
711,3190001032905,新規,0,2026-02-12,2026-02-12,株式会社ＴＳＵＭＵＧＩ,,株式会社,三重県,四日市市,桜町８９８番地１,,24,202,5121211,,,,,,,2026-02-12,1,,,,,ツムギ,0
729,3290001113133,新規,0,2026-02-12,2026-02-12,陶山自動車株式会社,,株式会社,福岡県,福岡市東区,原田３丁目１番４号,,40,131,8120063,,,,,,,2026-02-12,1,,,,,スヤマジドウシャ,0
736,3290003018041,新規,0,2026-02-12,2026-02-12,合同会社フューチャーズジャパン,,合同会社,福岡県,福岡市博多区,博多駅前２丁目１９番１７号トーカン博多第５ビル３１２号,,40,132,8120011,,,,,,,2026-02-12,1,,,,,フューチャーズジャパン,0
737,3290005020004,新規,0,2026-02-12,2026-02-12,一般社団法人福岡採用支援センター,,その他の設立登記法人,福岡県,福岡市博多区,博多駅前２丁目６－１５オクターブ博多駅前ビル８階Ｂ号室,,40,132,8120011,,,,,,,2026-02-12,1,,,,,フクオカサイヨウシエンセンター,0
746,3330001033995,新規,0,2026-02-12,2026-02-12,株式会社Ｇ‐Ｓｔｙｌｅ,,株式会社,熊本県,熊本市南区,富合町大町８９６番地１５,,43,104,8614145,,,,,,,2026-02-12,1,,,,,ジースタイル,0
753,3340005009941,新規,0,2026-02-12,2026-02-12,ＮＰＯ法人Ｑピット,,その他の設立登記法人,鹿児島県,鹿児島市,上荒田町８番２３号,,46,201,8900055,,,,,,,2026-02-12,1,,,,,キューピット,0
754,3350003005140,新規,0,2026-02-12,2026-02-12,一建合同会社,,合同会社,宮崎県,西都市,大字下三財５１６２番地３,,45,208,8810113,,,,,,,2026-02-12,1,,,,,イチケン,0
759,3360003015618,新規,0,2026-02-12,2026-02-12,合同会社ガレ３８５,,合同会社,沖縄県,宮古島市,平良字東仲宗根７１７番地３５,,47,214,9060007,,,,,,,2026-02-12,1,,,,,ガレミヤコ,0
773,3470003003074,新規,0,2026-02-12,2026-02-12,合同会社１Ｐｏｒｔ,,合同会社,香川県,高松市,扇町１丁目１１番２３号,,37,201,7600013,,,,,,,2026-02-12,1,,,,,ワンポート,0
776,3480003002389,新規,0,2026-02-12,2026-02-12,合同会社いつの世もなんくる,,合同会社,徳島県,板野郡北島町,高房字八丁野東５９番地３２,,36,402,7710206,,,,,,,2026-02-12,1,,,,,イツノヨモナンクル,0
792,4010001262568,新規,0,2026-02-12,2026-02-12,Ｂ＆Ｂ　Ｇｒｏｕｐ株式会社,,株式会社,東京都,文京区,本駒込５丁目４番９号,,13,105,1130021,,,,,,,2026-02-12,1,,,,,ビーアンドビーグループ,0
793,4010001262717,新規,0,2026-02-12,2026-02-12,ＪＰＡ第３８３号株式会社,,株式会社,東京都,千代田区,霞が関３丁目２番１号,,13,101,1000013,,,,,,,2026-02-12,1,,,,,ジェイピーエーダイサンビャクハチジュウサンゴウ,0
794,4010001262725,新規,0,2026-02-12,2026-02-12,ＪＰＡ第３９１号株式会社,,株式会社,東京都,千代田区,霞が関３丁目２番１号,,13,101,1000013,,,,,,,2026-02-12,1,,,,,ジェイピーエーダイサンビャクキュウジュウイチゴウ,0
795,4010001262733,新規,0,2026-02-12,2026-02-12,ＪＰＡ第３９９号株式会社,,株式会社,東京都,千代田区,霞が関３丁目２番１号,,13,101,1000013,,,,,,,2026-02-12,1,,,,,ジェイピーエーダイサンビャクキュウジュウキュウゴウ,0
796,4010001262799,新規,0,2026-02-12,2026-02-12,株式会社ミカサリサーチ,,株式会社,東京都,千代田区,平河町１丁目３番６号ＢＩＺＭＡＲＫＳ麹町６０９,,13,101,1020093,,,,,,,2026-02-12,1,,,,,ミカサリサーチ,0
797,4010003050145,新規,0,2026-02-12,2026-02-12,合同会社リバーアドバイザリー,,合同会社,東京都,千代田区,神田神保町３丁目１１番６号神保町ビル１０階,,13,101,1010051,,,,,,,2026-02-12,1,,,,,リバーアドバイザリー,0
798,4010003050269,新規,0,2026-02-12,2026-02-12,合同会社ＷＩＬＬ　ＢＥ,,合同会社,東京都,中央区,銀座１丁目１２－４Ｎ＆Ｅビル７Ｆ,,13,102,1040061,,,,,,,2026-02-12,1,,,,,ウィルビー,0
804,4010005041373,新規,0,2026-02-12,2026-02-12,Ｓｐｒｉｎｔ　ＨＤ４特定目的会社,,その他の設立登記法人,東京都,千代田区,霞が関３丁目２番５号,,13,101,1000013,,,,,,,2026-02-12,1,,,,,スプリントエイチディーフォー,0
815,4010401196416,新規,0,2026-02-12,2026-02-12,株式会社舟島仙,,株式会社,東京都,港区,虎ノ門３丁目１８番６号朝日虎ノ門マンション６１４号室,,13,103,1050001,,,,,,,2026-02-12,1,,,,,フナジマセン,0
820,4010501055447,新規,0,2026-02-12,2026-02-12,株式会社Ｉｎｎｏｖａｔｉｏｎ,,株式会社,東京都,台東区,上野１丁目１７番６号広小路ビル８Ｆ－Ｂ,,13,106,1100005,,,,,,,2026-02-12,1,,,,,イノベーション,0
827,4010701049018,新規,0,2026-02-12,2026-02-12,株式会社いろどりインターナショナル,,株式会社,東京都,品川区,西五反田３丁目６－３８－４１１,,13,109,1410031,,,,,,,2026-02-12,1,,,,,イロドリインターナショナル,0
828,4010901058941,新規,0,2026-02-12,2026-02-12,Ｋ　Ｃｏｍｐａｎｙ株式会社,,株式会社,東京都,世田谷区,若林１丁目８－１１,,13,112,1540023,,,,,,,2026-02-12,1,,,,,ケーカンパニー,0
830,4010903010628,新規,0,2026-02-12,2026-02-12,合同会社Ｇｌｏｂｉｚ,,合同会社,東京都,世田谷区,尾山台３丁目２４番２号,,13,112,1580086,,,,,,,2026-02-12,1,,,,,グロービズ,0
838,4011001175132,新規,0,2026-02-12,2026-02-12,セブンデュース株式会社,,株式会社,東京都,渋谷区,恵比寿３丁目４５番２号コンシェリア恵比寿７０２,,13,113,1500013,,,,,,,2026-02-12,1,,,,,セブンデュース,0
839,4011001175446,新規,0,2026-02-12,2026-02-12,株式会社ＳＡＫＥＷＡＵＭＡＩ,,株式会社,東京都,渋谷区,上原１丁目３２番３号ＣＡＢＯ・Ｕｅｈａｒａ３０１,,13,113,1510064,,,,,,,2026-02-12,1,,,,,サケワウマイ,0
840,4011001175462,新規,0,2026-02-12,2026-02-12,株式会社つぎのすゝめ,,株式会社,東京都,渋谷区,神南１丁目１１－４ＦＰＧリンクス神南５階,,13,113,1500041,,,,,,,2026-02-12,1,,,,,ツギノススメ,0
841,4011003023520,新規,0,2026-02-12,2026-02-12,Ｍ＆Ｆ　Ｔａｌｅｓ合同会社,,合同会社,東京都,渋谷区,桜丘町１６番５号泉屋ビル２Ｆ,,13,113,1500031,,,,,,,2026-02-12,1,,,,,エムアンドエフテイルズ,0
846,4011101114667,新規,0,2026-02-12,2026-02-12,株式会社Ｔｈｉｒｄ　Ａｒｒｏｗ,,株式会社,東京都,新宿区,中落合３丁目２７番１号,,13,104,1610032,,,,,,,2026-02-12,1,,,,,サードアロー,0
850,4011103016985,新規,0,2026-02-12,2026-02-12,合同会社Ｓａｓａｎｑｕａ,,合同会社,東京都,新宿区,富久町８番２６号東京ユナイテッド綜合事務所内,,13,104,1620067,,,,,,,2026-02-12,1,,,,,サザンカ,0
851,4011103016993,新規,0,2026-02-12,2026-02-12,オモロー合同会社,,合同会社,東京都,新宿区,西新宿３丁目３番１３号西新宿水間ビル２Ｆ,,13,104,1600023,,,,,,,2026-02-12,1,,,,,オモロー,0
859,4011703004522,新規,0,2026-02-12,2026-02-12,合同会社Ｔａｋｅ　ａ　ｓｔｅｐ,,合同会社,東京都,江戸川区,西小岩３丁目２８番１４－１０６メゾン慶応,,13,123,1330057,,,,,,,2026-02-12,1,,,,,テイクアステップ,0
862,4012401044125,新規,0,2026-02-12,2026-02-12,株式会社ベネッセスマイルメイト,,株式会社,東京都,多摩市,落合１丁目３４番地,,13,224,2060033,,,,,,,2026-02-12,1,,,,,ベネッセスマイルメイト,0
864,4012701019322,新規,0,2026-02-12,2026-02-12,株式会社おさ田,,株式会社,東京都,西東京市,保谷町３丁目１１番２２号,,13,229,2020015,,,,,,,2026-02-12,1,,,,,オサダ,0
868,4013303008085,新規,0,2026-02-12,2026-02-12,合同会社支援,,合同会社,東京都,豊島区,南池袋２丁目８－１角田ビル３Ｆ,,13,116,1710022,,,,,,,2026-02-12,1,,,,,シエン,0
873,4020001166974,新規,0,2026-02-12,2026-02-12,中央総合株式会社,,株式会社,神奈川県,横浜市港北区,篠原北１丁目５番１８－３号,,14,109,2220021,,,,,,,2026-02-12,1,,,,,チュウオウソウゴウ,0
874,4020001167080,新規,0,2026-02-12,2026-02-12,株式会社オクナカ,,株式会社,神奈川県,横浜市港北区,篠原東３丁目２１番３６号,,14,109,2220022,,,,,,,2026-02-12,1,,,,,オクナカ,0
877,4020003030286,新規,0,2026-02-12,2026-02-12,合同会社サニーエンターテイメント,,合同会社,神奈川県,川崎市幸区,小倉２丁目３１番１５－４０６号,,14,132,2120054,,,,,,,2026-02-12,1,,,,,サニーエンターテイメント,0
878,4021001087475,新規,0,2026-02-12,2026-02-12,株式会社湘南リライフカンパニー,,株式会社,神奈川県,伊勢原市,白根５２９番地の１,,14,214,2591147,,,,,,,2026-02-12,1,,,,,ショウナンリライフカンパニー,0
879,4021001087491,新規,0,2026-02-12,2026-02-12,株式会社ｏｐｅｒａ,,株式会社,神奈川県,平塚市,八重咲町３番地２７,,14,203,2540811,,,,,,,2026-02-12,1,,,,,オペラ,0
889,4030001170942,新規,0,2026-02-12,2026-02-12,水よし本店株式会社,,株式会社,埼玉県,熊谷市,原島１２６４番地１４,,11,202,3600811,,,,,,,2026-02-12,1,,,,,ミズヨシホンテン,0
891,4030003028569,新規,0,2026-02-12,2026-02-12,アウルム合同会社,,合同会社,埼玉県,越谷市,北越谷２丁目２１－１６シャルマン北越谷５０１,,11,222,3430026,,,,,,,2026-02-12,1,,,,,アウルム,0
892,4030003028627,新規,0,2026-02-12,2026-02-12,合同会社ピース,,合同会社,埼玉県,越谷市,北越谷４丁目４番１号２０２,,11,222,3430026,,,,,,,2026-02-12,1,,,,,ピース,0
893,4030003028635,新規,0,2026-02-12,2026-02-12,ＪＡＦＡＲ　ＺＡＨＩＤ合同会社,,合同会社,埼玉県,行田市,門井町１丁目２０－３タチマンション２０２,,11,206,3610044,,,,,,,2026-02-12,1,,,,,ジャファーザヒド,0
894,4030003028651,新規,0,2026-02-12,2026-02-12,合同会社ＰＬＡＦＴ,,合同会社,埼玉県,さいたま市緑区,宮本１丁目７番地３７,,11,109,3360916,,,,,,,2026-02-12,1,,,,,プラフト,0
896,4040001142445,新規,0,2026-02-12,2026-02-12,株式会社ＳＫＹ,,株式会社,千葉県,鎌ケ谷市,南鎌ケ谷４丁目６番６３－７号,,12,224,2730106,,,,,,,2026-02-12,1,,,,,スカイ,0
897,4040001142453,新規,0,2026-02-12,2026-02-12,株式会社ＨＴＴＭ,,株式会社,千葉県,鎌ケ谷市,初富本町１丁目１０番１９号,,12,224,2730125,,,,,,,2026-02-12,1,,,,,エイチティーティーエム,0
898,4040001142461,新規,0,2026-02-12,2026-02-12,山田商事株式会社,,株式会社,千葉県,市川市,新田２丁目１０番１８号,,12,203,2720035,,,,,,,2026-02-12,1,,,,,ヤマダショウジ,0
899,4040001142503,新規,0,2026-02-12,2026-02-12,株式会社トラスサポート,,株式会社,千葉県,船橋市,南三咲４丁目２２番２２号,,12,204,2740813,,,,,,,2026-02-12,1,,,,,トラスサポート,0
904,4050001057972,新規,0,2026-02-12,2026-02-12,株式会社夕凪会,,株式会社,茨城県,石岡市,柿岡１７４番地２,,08,205,3150116,,,,,,,2026-02-12,1,,,,,ユウナギカイ,0
907,4050003009939,新規,0,2026-02-12,2026-02-12,合同会社ＮＥＯ,,合同会社,茨城県,ひたちなか市,大字馬渡２５２５番地３７８,,08,221,3120012,,,,,,,2026-02-12,1,,,,,ネオ,0
916,4080101026081,新規,0,2026-02-12,2026-02-12,株式会社ＭＹＬＩＶＥ,,株式会社,静岡県,三島市,梅名３７４番地の１,,22,206,4110816,,,,,,,2026-02-12,1,,,,,エムワイライブ,0
923,4100003008613,新規,0,2026-02-12,2026-02-12,合同会社ｏｔｏｎｏｋａ,,合同会社,長野県,長野市,中条日下野４７９２,,20,201,3813202,,,,,,,2026-02-12,1,,,,,オトノカ,0
938,4120001284056,新規,0,2026-02-12,2026-02-12,株式会社エンサイド,,株式会社,大阪府,大阪市淀川区,木川東２丁目４番３号甲東ビル,,27,123,5320012,,,,,,,2026-02-12,1,,,,,エンサイド,0
939,4120001284080,新規,0,2026-02-12,2026-02-12,株式会社ＬＩＮＯ’ｋ,,株式会社,大阪府,大阪市天王寺区,上汐４丁目３番１１号,,27,109,5430002,,,,,,,2026-02-12,1,,,,,リノック,0
940,4120001284122,新規,0,2026-02-12,2026-02-12,ＡＢＵＬＡ株式会社,,株式会社,大阪府,大阪市北区,天神橋６丁目５番３１号,,27,127,5300041,,,,,,,2026-02-12,1,,,,,アブラ,0
941,4120001284130,新規,0,2026-02-12,2026-02-12,株式会社ティーアイＨＤ,,株式会社,大阪府,大阪市阿倍野区,相生通１丁目４番６２号,,27,119,5450033,,,,,,,2026-02-12,1,,,,,ティーアイホールディングス,0
942,4120001284163,新規,0,2026-02-12,2026-02-12,株式会社ＮＥＫ,,株式会社,大阪府,大阪市福島区,吉野１丁目１２番１号,,27,103,5530006,,,,,,,2026-02-12,1,,,,,エヌイーケー,0
963,4140001141701,新規,0,2026-02-12,2026-02-12,加西三相電機株式会社,,株式会社,兵庫県,加西市,尾崎町２３９番地の１,,28,220,6752242,,,,,,,2026-02-12,1,,,,,カサイサンソウデンキ,0
964,4140001141718,新規,0,2026-02-12,2026-02-12,株式会社藤木不動産,,株式会社,兵庫県,川西市,見野２丁目１番１７号,,28,217,6660105,,,,,,,2026-02-12,1,,,,,フジキフドウサン,0
965,4140001141734,新規,0,2026-02-12,2026-02-12,株式会社ＰＬＵＳ　ＯＮＥ,,株式会社,兵庫県,姫路市,神子岡前２丁目５番１２号,,28,201,6700055,,,,,,,2026-02-12,1,,,,,プラスワン,0
970,4140003023204,新規,0,2026-02-12,2026-02-12,合同会社素風,,合同会社,兵庫県,加古郡稲美町,岡９５４番地の１,,28,381,6751113,,,,,,,2026-02-12,1,,,,,ソフウ,0
971,4140003023212,新規,0,2026-02-12,2026-02-12,合同会社ユニーク,,合同会社,兵庫県,宝塚市,仁川高丸２丁目１９－１,,28,214,6650063,,,,,,,2026-02-12,1,,,,,ユニーク,0
972,4140005027797,新規,0,2026-02-12,2026-02-12,ＮＰＯ法人Ｓｌｅｅｐ　Ｗｅｌｌｎｅｓｓ協会,,その他の設立登記法人,兵庫県,西宮市,久出ケ谷町１０番４５号,,28,204,6620077,,,,,,,2026-02-12,1,,,,,スリープウェルネスキョウカイ,0
973,4150001028724,新規,0,2026-02-12,2026-02-12,株式会社Ｇｌｏｂａｌ　Ｌｉｎｋ　Ｔｒａｄｅ,,株式会社,奈良県,天理市,嘉幡町３３７－１,,29,204,6320084,,,,,,,2026-02-12,1,,,,,グローバルリンクトレード,0
980,4180001170556,新規,0,2026-02-12,2026-02-12,アクアノーダス株式会社,,株式会社,愛知県,一宮市,千秋町小山字北川田２６番地１,,23,203,4910814,,,,,,,2026-02-12,1,,,,,アクアノーダス,0
981,4180001170597,新規,0,2026-02-12,2026-02-12,株式会社アカツキプランニング,,株式会社,愛知県,一宮市,三条字道東８０番地６オーシマビル２階２０４号室,,23,203,4940003,,,,,,,2026-02-12,1,,,,,アカツキプランニング,0
982,4180001170606,新規,0,2026-02-12,2026-02-12,株式会社ＥＣ,,株式会社,愛知県,名古屋市中区,千代田１丁目４番２２号,,23,106,4600012,,,,,,,2026-02-12,1,,,,,イーシー,0
983,4180001170671,新規,0,2026-02-12,2026-02-12,株式会社ＶＩＥＮＡ　Ｊａｐａｎ,,株式会社,愛知県,名古屋市中村区,名駅３丁目４－１０アルティメイト名駅１ｓｔ２階,,23,105,4500002,,,,,,,2026-02-12,1,,,,,ヴィエナジャパン,0
986,4180003029767,新規,0,2026-02-12,2026-02-12,合同会社ニットク,,合同会社,愛知県,津島市,宇治町字小切４０番地２ナビシティ津島６０２号,,23,208,4960008,,,,,,,2026-02-12,1,,,,,ニットク,0
998,4200001044716,新規,0,2026-02-12,2026-02-12,株式会社ＰＬＵＳ　ＬＡＢｓ,,株式会社,岐阜県,岐阜市,則武東４丁目２０番２３号,,21,201,5020929,,,,,,,2026-02-12,1,,,,,プラスラボ,0
999,4200005013849,新規,0,2026-02-12,2026-02-12,労働者協同組合鳳川伎連,,その他の設立登記法人,岐阜県,岐阜市,東高岩町２７番地,,21,201,5008106,,,,,,,2026-02-12,1,,,,,ホウセンギレン,0
1007,4270003001840,新規,0,2026-02-12,2026-02-12,合同会社ｔｒｅｅ,,合同会社,鳥取県,倉吉市,上井町１丁目１９８番地,,31,203,6820022,,,,,,,2026-02-12,1,,,,,ツリー,0
1013,4290001113058,新規,0,2026-02-12,2026-02-12,株式会社ＹＯＳＨＩＴＡＫＥ　ＧＲＯＵＰ　ＨＯＬＤＩＮＧＳ,,株式会社,福岡県,福岡市東区,千早１丁目３６番１４号,,40,131,8130044,,,,,,,2026-02-12,1,,,,,ヨシタケグループホールディングス,0
1018,4290003018040,新規,0,2026-02-12,2026-02-12,合同会社ながの,,合同会社,福岡県,嘉穂郡桂川町,大字寿命３２番地１,,40,421,8200603,,,,,,,2026-02-12,1,,,,,ナガノ,0
1021,4290805009906,新規,0,2026-02-12,2026-02-12,一般社団法人相続・空家サポートネットワーク,,その他の設立登記法人,福岡県,北九州市小倉北区,米町２丁目１番２号,,40,106,8020003,,,,,,,2026-02-12,1,,,,,ソウゾクアキヤサポートネットワーク,0
1026,4320003004895,新規,0,2026-02-12,2026-02-12,合同会社ｋｉｓｅｋｉ,,合同会社,大分県,日田市,大字友田３３２０－１０５,,44,204,8770000,,,,,,,2026-02-12,1,,,,,キセキ,0
1035,4360003015617,新規,0,2026-02-12,2026-02-12,合同会社Ａｋｉ電設,,合同会社,沖縄県,南城市,玉城字富里１６番地２,,47,215,9010611,,,,,,,2026-02-12,1,,,,,アキデンセツ,0
1048,4420001019415,新規,0,2026-02-12,2026-02-12,株式会社かねひら造園,,株式会社,青森県,青森市,浪岡大字女鹿沢字東早稲田９６番地３,,02,201,0381331,,,,,,,2026-02-12,1,,,,,カネヒラゾウエン,0
1068,5010001262559,新規,0,2026-02-12,2026-02-12,株式会社Ａｒｔｗｏｒｋｓ　Ｍｉｙａｚａｗａ,,株式会社,東京都,中央区,勝どき３丁目３番１３－６１０号,,13,102,1040054,,,,,,,2026-02-12,1,,,,,アートワークスミヤザワ,0
1069,5010001262567,新規,0,2026-02-12,2026-02-12,株式会社ＦＩＴ　ＳＴＡＲＴ,,株式会社,東京都,千代田区,神田須田町１丁目７番８号ＶＯＲＴ秋葉原ＩＶ２Ｆ,00142552,13,101,1010041,,,,,,,2026-02-12,1,,,,,フィットスタート,0
1070,5010001262609,新規,0,2026-02-12,2026-02-12,株式会社ウィルウェイアセットマネジメント,,株式会社,東京都,中央区,銀座４丁目１３－１１松竹倶楽部ビル４Ｆ,,13,102,1040061,,,,,,,2026-02-12,1,,,,,ウィルウェイアセットマネジメント,0
1071,5010001262666,新規,0,2026-02-12,2026-02-12,ベルテクス・テクノロジーズ株式会社,,株式会社,東京都,千代田区,麹町５丁目１番地,,13,101,1020083,,,,,,,2026-02-12,1,,,,,ベルテクステクノロジーズ,0
1072,5010001262716,新規,0,2026-02-12,2026-02-12,ＪＰＡ第３８２号株式会社,,株式会社,東京都,千代田区,霞が関３丁目２番１号,,13,101,1000013,,,,,,,2026-02-12,1,,,,,ジェイピーエーダイサンビャクハチジュウニゴウ,0
1073,5010001262724,新規,0,2026-02-12,2026-02-12,ＪＰＡ第３９０号株式会社,,株式会社,東京都,千代田区,霞が関３丁目２番１号,,13,101,1000013,,,,,,,2026-02-12,1,,,,,ジェイピーエーダイサンビャクキュウジュウゴウ,0
1074,5010001262732,新規,0,2026-02-12,2026-02-12,ＪＰＡ第３９８号株式会社,,株式会社,東京都,千代田区,霞が関３丁目２番１号,,13,101,1000013,,,,,,,2026-02-12,1,,,,,ジェイピーエーダイサンビャクキュウジュウハチゴウ,0
1075,5010001262765,新規,0,2026-02-12,2026-02-12,株式会社シーコネクト,,株式会社,東京都,中央区,日本橋２丁目１６番４号ｒｅｍｉｘ日本橋６階,,13,102,1030027,,,,,,,2026-02-12,1,,,,,シーコネクト,0
1079,5010003050350,新規,0,2026-02-12,2026-02-12,ＦＬインベストメント３号合同会社,,合同会社,東京都,中央区,京橋２丁目１２番６号ＡＯＪ税理士法人内,,13,102,1040031,,,,,,,2026-02-12,1,,,,,エフエルインベストメントサンゴウ,0
1085,5010401196431,新規,0,2026-02-12,2026-02-12,株式会社ｆａｎｄｏｍｕ,,株式会社,東京都,港区,東麻布１丁目９番１１号ＧＲＯＷＴＨＢＹＩＯＱ８０４,,13,103,1060044,,,,,,,2026-02-12,1,,,,,ファンダム,0
1090,5010405025363,新規,0,2026-02-12,2026-02-12,ＢＢＨ１一般社団法人,,その他の設立登記法人,東京都,港区,虎ノ門５丁目３番２０号株式会社アカウンティング・マネジメント・サービス内,,13,103,1050001,,,,,,,2026-02-12,1,,,,,ビービーエイチワン,0
1091,5010503008179,新規,0,2026-02-12,2026-02-12,合同会社プレリュード,,合同会社,東京都,台東区,東上野３丁目１５番１０号東観第一ビル５階,,13,106,1100015,,,,,,,2026-02-12,1,,,,,プレリュード,0
1093,5010603012072,新規,0,2026-02-12,2026-02-12,合同会社ＴＩＡＤ,,合同会社,東京都,江東区,扇橋１丁目２１番５－３０５号,,13,108,1350011,,,,,,,2026-02-12,1,,,,,ティアド,0
1096,5010701048976,新規,0,2026-02-12,2026-02-12,株式会社Ｈｏｎｅｙ　Ｂａｄｇｅｒ,,株式会社,東京都,品川区,西五反田５丁目３０番７号ハイタウン目黒Ｎｏ．２－５０５号室,,13,109,1410031,,,,,,,2026-02-12,1,,,,,,0
1099,5010803005719,新規,0,2026-02-12,2026-02-12,ＨＡＭ合同会社,,合同会社,東京都,大田区,久が原６丁目１４番２０号,,13,111,1460085,,,,,,,2026-02-12,1,,,,,エイチエイエム,0
1104,5010901058957,新規,0,2026-02-12,2026-02-12,株式会社コレクトＴＷ,,株式会社,東京都,世田谷区,玉堤１丁目１１番１０－２０６号,,13,112,1580087,,,,,,,2026-02-12,1,,,,,コレクトティーダブル,0
1108,5011001175172,新規,0,2026-02-12,2026-02-12,ベルクラーレ株式会社,,株式会社,東京都,渋谷区,道玄坂１丁目１０番８号渋谷道玄坂東急ビル２ＦーＣ,,13,113,1500043,,,,,,,2026-02-12,1,,,,,ベルクラーレ,0
1109,5011001175321,新規,0,2026-02-12,2026-02-12,株式会社ＡＩＲＥＬＡＹ,,株式会社,東京都,渋谷区,道玄坂１丁目１０番８号渋谷道玄坂東急ビル２Ｆ－Ｃ,,13,113,1500043,,,,,,,2026-02-12,1,,,,,アイリレイ,0
1111,5011101114963,新規,0,2026-02-12,2026-02-12,ミナト・インベストメント株式会社,,株式会社,東京都,新宿区,西新宿７丁目１７番７号廣田ビル５０４号室,,13,104,1600023,,,,,,,2026-02-12,1,,,,,ミナトインベストメント,0
1114,5011105011736,新規,0,2026-02-12,2026-02-12,ソーラーブリッツホールディングス１号一般社団法人,,その他の設立登記法人,東京都,新宿区,富久町８番２６号東京ユナイテッド綜合事務所内,,13,104,1620067,,,,,,,2026-02-12,1,,,,,ソーラーブリッツホールディングスイチゴウ,0
1116,5011301031257,新規,0,2026-02-12,2026-02-12,株式会社ＫＦＣ西原,,株式会社,東京都,杉並区,下高井戸４丁目５番１７号,,13,115,1680073,,,,,,,2026-02-12,1,,,,,ケーエフシーニシハラ,0
1118,5011303005861,新規,0,2026-02-12,2026-02-12,合同会社オアシスゲート,,合同会社,東京都,杉並区,高井戸東３丁目１７番１９号,,13,115,1680072,,,,,,,2026-02-12,1,,,,,オアシスゲート,0
1123,5011701029165,新規,0,2026-02-12,2026-02-12,Ｕ‐Ｆａｃｔｏｒライフサイエンス株式会社,,株式会社,東京都,江戸川区,北葛西１丁目１６－１３三井リンクラボ葛西２０１号室,,13,123,1340081,,,,,,,2026-02-12,1,,,,,ユーファクターライフサイエンス,0
1125,5011801047380,新規,0,2026-02-12,2026-02-12,アモールフロース株式会社,,株式会社,東京都,葛飾区,新宿６丁目２－１８－１３１２シティテラス金町,,13,122,1250051,,,,,,,2026-02-12,1,,,,,アモールフロース,0
1134,5012403007566,新規,0,2026-02-12,2026-02-12,谷山合同会社,,合同会社,東京都,狛江市,和泉本町２丁目１１－６グラディートＵ２０３号室,,13,219,2010003,,,,,,,2026-02-12,1,,,,,タニヤマ,0
1135,5012403007608,新規,0,2026-02-12,2026-02-12,合同会社ＳＥＲＩＮＵＳ,,合同会社,東京都,稲城市,若葉台１丁目２３番地若葉台ザ・レジデントパークス５１６号,,13,225,2060824,,,,,,,2026-02-12,1,,,,,セリナス,0
1139,5013301055731,新規,0,2026-02-12,2026-02-12,株式会社アライブ,,株式会社,東京都,豊島区,東池袋２丁目６２番８号ＢＩＧオフィスプラザ池袋１２０６,,13,116,1700013,,,,,,,2026-02-12,1,,,,,アライブ,0
1141,5020001167096,新規,0,2026-02-12,2026-02-12,株式会社ＦＵＪＩアセットデザイン,,株式会社,神奈川県,川崎市幸区,北加瀬２丁目２番８－８０３号ラディエンス新川崎,,14,132,2120057,,,,,,,2026-02-12,1,,,,,フジアセットデザイン,0
1147,5021001087490,新規,0,2026-02-12,2026-02-12,株式会社厚丈電工,,株式会社,神奈川県,厚木市,戸田１４６５番地９,,14,212,2430023,,,,,,,2026-02-12,1,,,,,コウジョウデンコウ,0
1158,5030001170941,新規,0,2026-02-12,2026-02-12,株式会社ジャストホールディングス,,株式会社,埼玉県,草加市,青柳３丁目３１番２号,,11,221,3400002,,,,,,,2026-02-12,1,,,,,ジャストホールディングス,0
1159,5030001170958,新規,0,2026-02-12,2026-02-12,株式会社日本書道専門学院,,株式会社,埼玉県,越谷市,大沢４丁目１９番４９－１０１号,,11,222,3430025,,,,,,,2026-02-12,1,,,,,ニッポンショドウセンモンガクイン,0
1160,5030001170974,新規,0,2026-02-12,2026-02-12,株式会社カガヤキ,,株式会社,埼玉県,秩父郡小鹿野町,下小鹿野６４２,,11,365,3680101,,,,,,,2026-02-12,1,,,,,カガヤキ,0
1161,5030001170990,新規,0,2026-02-12,2026-02-12,株式会社英,,株式会社,埼玉県,熊谷市,上之２７６－５,,11,202,3600012,,,,,,,2026-02-12,1,,,,,エイト,0
1165,5030003028527,新規,0,2026-02-12,2026-02-12,合同会社ＲＵＭＩＮＡ,,合同会社,埼玉県,川越市,仲町５番地２,,11,201,3500065,,,,,,,2026-02-12,1,,,,,ルミナ,0
1166,5030003028618,新規,0,2026-02-12,2026-02-12,合同会社ｌａｕｇｈ　ｂｌｏｏｍ,,合同会社,埼玉県,さいたま市南区,別所５丁目１５番地２,,11,108,3360021,,,,,,,2026-02-12,1,,,,,ラフブルーム,0
1167,5030003028634,新規,0,2026-02-12,2026-02-12,ものごころ合同会社,,合同会社,埼玉県,白岡市,新白岡４丁目３番地８,,11,246,3490212,,,,,,,2026-02-12,1,,,,,モノゴコロ,0
1174,5040001142378,新規,0,2026-02-12,2026-02-12,ＪＧＬ株式会社,,株式会社,千葉県,夷隅郡御宿町,岩和田７９１番地１,,12,443,2995105,,,,,,,2026-02-12,1,,,,,ジェイジーエル,0
1175,5040001142386,新規,0,2026-02-12,2026-02-12,株式会社Ｆａｒｅ　Ｄｅｓｉｇｎ,,株式会社,千葉県,浦安市,今川３丁目９番８号,,12,227,2790022,,,,,,,2026-02-12,1,,,,,ファレデザイン,0
1176,5040001142428,新規,0,2026-02-12,2026-02-12,株式会社ＥｓｏｏＴａｇａｔａ,,株式会社,千葉県,船橋市,駿河台１丁目３番１３号,,12,204,2730862,,,,,,,2026-02-12,1,,,,,エソオタガタ,0
1177,5040001142444,新規,0,2026-02-12,2026-02-12,タカサゴワークス株式会社,,株式会社,千葉県,木更津市,高砂３丁目２番２２号,,12,206,2920016,,,,,,,2026-02-12,1,,,,,タカサゴワークス,0
1180,5040003029441,新規,0,2026-02-12,2026-02-12,合同会社Ｓｔｙｌｅ,,合同会社,千葉県,市原市,古市場４１３番地２,,12,219,2900008,,,,,,,2026-02-12,1,,,,,スタイル,0
1181,5040005023054,新規,0,2026-02-12,2026-02-12,司法書士法人あさひ,,その他の設立登記法人,千葉県,柏市,柏４丁目５番１０号２階,,12,217,2770005,,,,,,,2026-02-12,1,,,,,アサヒ,0
1182,5050001057963,新規,0,2026-02-12,2026-02-12,株式会社ロンフィールド,,株式会社,茨城県,つくば市,流星台１７番地９メテオールつくばＢ,,08,220,3050008,,,,,,,2026-02-12,1,,,,,ロンフィールド,0
1185,5050003009938,新規,0,2026-02-12,2026-02-12,合同会社Ｒｅｆｉｘ,,合同会社,茨城県,常総市,中妻町５９２番地３６ラフォーレ中妻Ａ－２０１,,08,211,3002505,,,,,,,2026-02-12,1,,,,,リフィックス,0
1187,5060003005960,新規,0,2026-02-12,2026-02-12,合同会社朝ぼらけ,,合同会社,栃木県,塩谷郡塩谷町,大字船生５９９１－１,,09,384,3292441,,,,,,,2026-02-12,1,,,,,アサボラケ,0
1188,5080101026080,新規,0,2026-02-12,2026-02-12,株式会社静岡テクノス,,株式会社,静岡県,富士市,大淵３６４６番地の２,,22,210,4170801,,,,,,,2026-02-12,1,,,,,シズオカテクノス,0
1191,5090001019729,新規,0,2026-02-12,2026-02-12,株式会社Ｇ‐ＢＡＳＥ,,株式会社,山梨県,中巨摩郡昭和町,西条５１１０ＹＫビル２Ｆ,,19,384,4093866,,,,,,,2026-02-12,1,,,,,ジーベイス,0
1192,5090001019737,新規,0,2026-02-12,2026-02-12,恵比寿家ＬＡＢＯ株式会社,,株式会社,山梨県,韮崎市,中央町１２番６号,,19,207,4070023,,,,,,,2026-02-12,1,,,,,エビスヤラボ,0
1201,5120001283775,新規,0,2026-02-12,2026-02-12,株式会社オーオ,,株式会社,大阪府,大阪市北区,西天満５丁目２番６号シティハウス南森町１３０３号室,,27,127,5300047,,,,,,,2026-02-12,1,,,,,オーオ,0
1202,5120001284055,新規,0,2026-02-12,2026-02-12,株式会社Ｈｏｎｅｙ,,株式会社,大阪府,大阪市北区,堂山町１番１７号萬福ビル４階,,27,127,5300027,,,,,,,2026-02-12,1,,,,,ハニー,0
1203,5120001284063,新規,0,2026-02-12,2026-02-12,株式会社ＳＫプロジェクト,,株式会社,大阪府,大阪市北区,大淀中５丁目８－１,,27,127,5310076,,,,,,,2026-02-12,1,,,,,エスケイプロジェクト,0
1204,5120001284096,新規,0,2026-02-12,2026-02-12,ＫＣＴ物流株式会社,,株式会社,大阪府,大阪市北区,梅田１丁目１番３号大阪駅前第３ビル１１階２号室,,27,127,5300001,,,,,,,2026-02-12,1,,,,,ケイシーティブツリュウ,0
1209,5120003031884,新規,0,2026-02-12,2026-02-12,合同会社福老,,合同会社,大阪府,大阪市生野区,新今里３丁目４番３号山西ハイツ３０３号,,27,116,5440001,,,,,,,2026-02-12,1,,,,,フクロウ,0
1210,5120101073135,新規,0,2026-02-12,2026-02-12,リンクベア株式会社,,株式会社,大阪府,堺市中区,福田１６７番地１２,,27,142,5998241,,,,,,,2026-02-12,1,,,,,リンクベア,0
1217,5130001081617,新規,0,2026-02-12,2026-02-12,株式会社ＡＬＬ　ＩＮ,,株式会社,京都府,八幡市,八幡清水井６５番地の１４,,26,210,6148062,,,,,,,2026-02-12,1,,,,,オールイン,0
1220,5130003011150,新規,0,2026-02-12,2026-02-12,合同会社そわか,,合同会社,京都府,京都市右京区,西京極河原町３９番地８,,26,108,6150843,,,,,,,2026-02-12,1,,,,,ソワカ,0
1221,5130005017583,新規,0,2026-02-12,2026-02-12,一般社団法人京都イノベーターズラボ,,その他の設立登記法人,京都府,京都市下京区,七条通油小路東入大黒町２２７番地,,26,106,6008223,,,,,,,2026-02-12,1,,,,,キョウトイノベーターズラボ,0
1227,5140001141717,新規,0,2026-02-12,2026-02-12,和田不動産株式会社,,株式会社,兵庫県,神戸市垂水区,川原２丁目２番１４－１０１号,,28,108,6550894,,,,,,,2026-02-12,1,,,,,ワダフドウサン,0
1228,5140005027796,新規,0,2026-02-12,2026-02-12,一般社団法人薬局経営者研究会,,その他の設立登記法人,兵庫県,姫路市,駅前町３５２ＫＳ駅前ビル８０２号室,,28,201,6700927,,,,,,,2026-02-12,1,,,,,ヤッキョクケイエイシャケンキュウカイ,0
1240,5180001170431,新規,0,2026-02-12,2026-02-12,株式会社ＣＭＴキャピタル,,株式会社,愛知県,名古屋市中区,丸の内２丁目１１－２９－１００１,,23,106,4600002,,,,,,,2026-02-12,1,,,,,シーエムティキャピタル,0
1241,5180001170489,新規,0,2026-02-12,2026-02-12,株式会社ＴＣＮＫ,,株式会社,愛知県,日進市,蟹甲町池下６７番地１４,,23,230,4700122,,,,,,,2026-02-12,1,,,,,ティシーエヌケイ,0
1242,5180001170605,新規,0,2026-02-12,2026-02-12,ＮＴＰプロパティマネジメント株式会社,,株式会社,愛知県,名古屋市中区,橘２丁目３番３３号,,23,106,4600016,,,,,,,2026-02-12,1,,,,,エヌティーピープロパティマネジメント,0
1243,5180001170613,新規,0,2026-02-12,2026-02-12,株式会社サム設備設計,,株式会社,愛知県,名古屋市中区,新栄３丁目１６番２４号,,23,106,4600007,,,,,,,2026-02-12,1,,,,,サムセツビセッケイ,0
1245,5180003029741,新規,0,2026-02-12,2026-02-12,高富興業合同会社,,合同会社,愛知県,清須市,中河原１２７番地１,,23,233,4520915,,,,,,,2026-02-12,1,,,,,タカトミコウギョウ,0
1246,5180005021424,新規,0,2026-02-12,2026-02-12,一般社団法人Ｔｏｋａｉ　ＴＣ,,その他の設立登記法人,愛知県,知多郡美浜町,大字豊丘字中平井６１番地２,,23,446,4702414,,,,,,,2026-02-12,1,,,,,トウカイティーシー,0
1249,5190001032894,新規,0,2026-02-12,2026-02-12,株式会社サンロード,,株式会社,三重県,津市,安濃町内多１３６４番地１４,,24,201,5142303,,,,,,,2026-02-12,1,,,,,サンロード,0
1250,5190001032903,新規,0,2026-02-12,2026-02-12,株式会社ネオニュートラル,,株式会社,三重県,松阪市,市場庄町１１３６番地,,24,204,5152121,,,,,,,2026-02-12,1,,,,,ネオニュートラル,0
1252,5190003005353,新規,0,2026-02-12,2026-02-12,合同会社タシヨシワークス,,合同会社,三重県,伊勢市,村松町３８４０番地４,,24,203,5150507,,,,,,,2026-02-12,1,,,,,タシヨシワークス,0
1267,5240001066160,新規,0,2026-02-12,2026-02-12,株式会社昂然,,株式会社,広島県,広島市中区,十日市町２丁目１番２３－１００４号,,34,101,7300805,,,,,,,2026-02-12,1,,,,,コウゼン,0
1275,5290001113098,新規,0,2026-02-12,2026-02-12,株式会社ぜにがめ,,株式会社,福岡県,久留米市,上津町１６９０－５,,40,203,8300052,,,,,,,2026-02-12,1,,,,,ゼニガメ,0
1276,5290001113123,新規,0,2026-02-12,2026-02-12,株式会社アンビエイト,,株式会社,福岡県,福岡市南区,西長住１丁目１１番１０号玉名ビル２０１号,,40,134,8111361,,,,,,,2026-02-12,1,,,,,アンビエイト,0
1282,5290003018023,新規,0,2026-02-12,2026-02-12,合同会社ＭＯＮＯＬＹＦＴ　ＡＲＣ,,合同会社,福岡県,宗像市,土穴１丁目３番４０－４０３号,,40,220,8114183,,,,,,,2026-02-12,1,,,,,モノリフトアーク,0
1288,5320001021578,新規,0,2026-02-12,2026-02-12,株式会社ＭＯＲＩ　ＦＡＭ,,株式会社,大分県,大分市,大字賀来２０８９番地の３,,44,201,8700877,,,,,,,2026-02-12,1,,,,,モリファム,0
1294,5330001033985,新規,0,2026-02-12,2026-02-12,東珈琲株式会社,,株式会社,熊本県,熊本市中央区,本山町３１５,,43,101,8600822,,,,,,,2026-02-12,1,,,,,ヒガシコーヒー,0
1295,5330001033993,新規,0,2026-02-12,2026-02-12,株式会社Ｌｕｍｏ,,株式会社,熊本県,熊本市南区,田迎５丁目１番１５号Ａ　ＦＩＥＬＤ８５浜線１０２号,,43,104,8620962,,,,,,,2026-02-12,1,,,,,ルモ,0
1297,5330003011428,新規,0,2026-02-12,2026-02-12,ジーウェイブ阿蘇合同会社,,合同会社,熊本県,阿蘇市,黒川２７３－４,,43,214,8692225,,,,,,,2026-02-12,1,,,,,ジーウェイブアソ,0
1301,5350001019941,新規,0,2026-02-12,2026-02-12,株式会社ＧＥＬ　ＷＥＡＲ,,株式会社,宮崎県,児湯郡高鍋町,大字高鍋町５７９番地,,45,401,8840001,,,,,,,2026-02-12,1,,,,,ゲルウェア,0
1303,5350003005139,新規,0,2026-02-12,2026-02-12,はにわ産栄合同会社,,合同会社,宮崎県,宮崎市,清武町木原５５５２番地１,,45,201,8891601,,,,,,,2026-02-12,1,,,,,ハニワサンエイ,0
1305,5360003015608,新規,0,2026-02-12,2026-02-12,合同会社海ｎｏａ,,合同会社,沖縄県,那覇市,前島３丁目２５番２号泊ポートビル１Ｆ,,47,201,9000016,,,,,,,2026-02-12,1,,,,,ウミノア,0
1306,5360003015616,新規,0,2026-02-12,2026-02-12,合同会社ＧＯＬＤＩＬＯＣＫＳ,,合同会社,沖縄県,那覇市,樋川１丁目５番３６号ライフワーク樋川２階,,47,201,9000022,,,,,,,2026-02-12,1,,,,,ゴルディロックス,0
1309,5370001053476,新規,0,2026-02-12,2026-02-12,株式会社ＹＫクリーン芳賀,,株式会社,宮城県,白石市,緑が丘８番２号,,04,206,9890221,,,,,,,2026-02-12,1,,,,,ワイケークリーンハガ,0
1310,5370003007471,新規,0,2026-02-12,2026-02-12,合同会社ＺＥＮＯＡ,,合同会社,宮城県,仙台市青葉区,大町２丁目３番１２号Ｂｌａｎｋ仙台７０３,,04,101,9800804,,,,,,,2026-02-12,1,,,,,ゼノエー,0
1311,5370005011075,新規,0,2026-02-12,2026-02-12,社会保険労務士法人アビーナリーＬａｂｏ,,その他の設立登記法人,宮城県,仙台市青葉区,一番町１丁目９番１号仙台トラストタワー７階,,04,101,9800811,,,,,,,2026-02-12,1,,,,,アビーナリーラボ,0
1317,5410001014390,新規,0,2026-02-12,2026-02-12,ｃｏｎｉｄｏ株式会社,,株式会社,秋田県,秋田市,広面字赤沼２０－６,,05,201,0100041,,,,,,,2026-02-12,1,,,,,コニド,0
1332,5500001026781,新規,0,2026-02-12,2026-02-12,Ｄｏｔｌｉｎｋ株式会社,,株式会社,愛媛県,大洲市,長浜町晴海２番地３,,38,207,7993412,,,,,,,2026-02-12,1,,,,,ドットリンク,0
1333,5500003003671,新規,0,2026-02-12,2026-02-12,合同会社マルミ電設,,合同会社,愛媛県,西条市,禎瑞２８８番地,,38,206,7930061,,,,,,,2026-02-12,1,,,,,,0
1348,6010001262145,新規,0,2026-02-12,2026-02-12,Ｕｂｅｅ　Ｉｎｔｅｒａｃｔｉｖｅ　Ｊａｐａｎ株式会社,,株式会社,東京都,中央区,京橋２丁目２番１号京橋エドグラン２６階,,13,102,1040031,,,,,,,2026-02-12,1,,,,,ユービーインテラクティブジャパン,0
1349,6010001262558,新規,0,2026-02-12,2026-02-12,ストラクション株式会社,,株式会社,東京都,中央区,日本橋兜町１７番２号兜町第６葉山ビル４Ｆ,,13,102,1030026,,,,,,,2026-02-12,1,,,,,ストラクション,0
1350,6010001262624,新規,0,2026-02-12,2026-02-12,株式会社ＮＥＸＴ,,株式会社,東京都,中央区,銀座１丁目１６番７号－５階,,13,102,1040061,,,,,,,2026-02-12,1,,,,,ネクスト,0
1351,6010001262715,新規,0,2026-02-12,2026-02-12,ＪＰＡ第３８１号株式会社,,株式会社,東京都,千代田区,霞が関３丁目２番１号,,13,101,1000013,,,,,,,2026-02-12,1,,,,,ジェイピーエーダイサンビャクハチジュウイチゴウ,0
1352,6010001262723,新規,0,2026-02-12,2026-02-12,ＪＰＡ第３８９号株式会社,,株式会社,東京都,千代田区,霞が関３丁目２番１号,,13,101,1000013,,,,,,,2026-02-12,1,,,,,ジェイピーエーダイサンビャクハチジュウキュウゴウ,0
1353,6010001262731,新規,0,2026-02-12,2026-02-12,ＪＰＡ第３９７号株式会社,,株式会社,東京都,千代田区,霞が関３丁目２番１号,,13,101,1000013,,,,,,,2026-02-12,1,,,,,ジェイピーエーダイサンビャクキュウジュウナナゴウ,0
1361,6010005041371,新規,0,2026-02-12,2026-02-12,ＣＬＡＲ京阪奈特定目的会社,,その他の設立登記法人,東京都,千代田区,丸の内２丁目２番３号丸の内仲通りビル６階,,13,101,1000005,,,,,,,2026-02-12,1,,,,,クラーケイハンナ,0
1362,6010005041388,新規,0,2026-02-12,2026-02-12,一般社団法人Ｓａｎｉｔａｓ,,その他の設立登記法人,東京都,千代田区,丸の内１丁目４番１号東京共同会計事務所内,,13,101,1000005,,,,,,,2026-02-12,1,,,,,サニタス,0
1364,6010103002746,新規,0,2026-02-12,2026-02-12,合同会社ＡｎｄＭｏｒｅ,,合同会社,東京都,八王子市,横山町２－９－１３０７,,13,201,1920081,,,,,,,2026-02-12,1,,,,,アンドモア,0
1373,6010401196331,新規,0,2026-02-12,2026-02-12,株式会社ＷＡＧＡＭＯ,,株式会社,東京都,港区,芝浦１丁目６番４１号,,13,103,1050023,,,,,,,2026-02-12,1,,,,,ワガモ,0
1374,6010401196397,新規,0,2026-02-12,2026-02-12,株式会社ＥＡＳＴ　ｔｏ　ＷＥＳＴ,,株式会社,東京都,港区,六本木１丁目３番３９－２００５号,,13,103,1060032,,,,,,,2026-02-12,1,,,,,イーストトゥウェスト,0
1375,6010401196463,新規,0,2026-02-12,2026-02-12,ｉｄｅａｃｃ株式会社,,株式会社,東京都,港区,南青山２丁目２－１５ウィン青山９４２,,13,103,1070062,,,,,,,2026-02-12,1,,,,,イデアック,0
1380,6010501055437,新規,0,2026-02-12,2026-02-12,株式会社インターナショナル・アーツ・メディア,,株式会社,東京都,台東区,上野１丁目１７番６号広小路ビル８Ｆ－Ｂ,,13,106,1100005,,,,,,,2026-02-12,1,,,,,インターナショナルアーツメディア,0
1381,6010503008178,新規,0,2026-02-12,2026-02-12,合同会社円満,,合同会社,東京都,台東区,台東２丁目８番９－１０２号,,13,106,1100016,,,,,,,2026-02-12,1,,,,,エンマン,0
1383,6010601068677,新規,0,2026-02-12,2026-02-12,株式会社押上設計,,株式会社,東京都,墨田区,江東橋４丁目２７番１４号楽天地ビル３Ｆ,,13,107,1300022,,,,,,,2026-02-12,1,,,,,オシアゲセッケイ,0
1387,6010701049024,新規,0,2026-02-12,2026-02-12,株式会社Ｅｓｓｅｎｔｉａｌ,,株式会社,東京都,品川区,西五反田２丁目１９番１２号五反田井門ビル,,13,109,1410031,,,,,,,2026-02-12,1,,,,,エッセンシャル,0
1388,6010701049032,新規,0,2026-02-12,2026-02-12,株式会社ビブリア,,株式会社,東京都,品川区,東品川２丁目２番４号天王洲ファーストタワー７階７１９２号室,,13,109,1400002,,,,,,,2026-02-12,1,,,,,ビブリア,0
1397,6011001175452,新規,0,2026-02-12,2026-02-12,株式会社海森,,株式会社,東京都,渋谷区,道玄坂１丁目１０番８号渋谷道玄坂東急ビル２Ｆ－Ｃ,,13,113,1500043,,,,,,,2026-02-12,1,,,,,カイシン,0
1400,6011003023543,新規,0,2026-02-12,2026-02-12,合同会社一知華,,合同会社,東京都,目黒区,東が丘１丁目２６番４号Ｖｉｌｌａ・伊集院Ｃ,,13,110,1520021,,,,,,,2026-02-12,1,,,,,イチカ,0
1406,6011101114707,新規,0,2026-02-12,2026-02-12,株式会社ＯＫｎｅｔ,,株式会社,東京都,新宿区,新宿１丁目３６－２新宿第七葉山ビル３Ｆ,,13,104,1600022,,,,,,,2026-02-12,1,,,,,オーケーネット,0
1407,6011101114946,新規,0,2026-02-12,2026-02-12,株式会社ＰＵＮＹＵ,,株式会社,東京都,新宿区,高田馬場２丁目１３番２号Ｐｒｉｍｅｇａｔｅ高田馬場５Ｆ,,13,104,1690075,,,,,,,2026-02-12,1,,,,,プニュ,0
1408,6011103016991,新規,0,2026-02-12,2026-02-12,合同会社ＹＲＹ,,合同会社,東京都,新宿区,高田馬場４丁目２９番地２５パークシティ高田馬場５０１号,,13,104,1690075,,,,,,,2026-02-12,1,,,,,ワイアールワイ,0
1410,6011105011719,新規,0,2026-02-12,2026-02-12,一般社団法人ＳＰＶ１９,,その他の設立登記法人,東京都,新宿区,富久町８番２６号東京ユナイテッド綜合事務所内,,13,104,1620067,,,,,,,2026-02-12,1,,,,,エスピーブイジュウキュウ,0
1412,6011203004946,新規,0,2026-02-12,2026-02-12,合同会社ＬＩＮＫ　ＳＴＡＲ,,合同会社,東京都,中野区,上高田４丁目４３－３プライムアーバン中野上高田１０９,,13,114,1640002,,,,,,,2026-02-12,1,,,,,リンクスター,0
1414,6011301031256,新規,0,2026-02-12,2026-02-12,Ｃｉｅｌ　Ｕｎｉ株式会社,,株式会社,東京都,杉並区,阿佐谷北１丁目３５番８号小川ビル１Ｆ,,13,115,1660001,,,,,,,2026-02-12,1,,,,,シエルユニ,0
1415,6011303005860,新規,0,2026-02-12,2026-02-12,ＨＭ　Ｌａｂ合同会社,,合同会社,東京都,杉並区,松庵３丁目２９番３号アパルトマン２Ｆ,,13,115,1670054,,,,,,,2026-02-12,1,,,,,エイチエムラボ,0
1419,6011403005026,新規,0,2026-02-12,2026-02-12,合同会社点Ｐ,,合同会社,東京都,板橋区,中板橋２０番５－９０２号,,13,119,1730016,,,,,,,2026-02-12,1,,,,,テンピー,0
1421,6011501033085,新規,0,2026-02-12,2026-02-12,せれん株式会社,,株式会社,東京都,荒川区,東尾久４丁目２７番１９号,,13,118,1160012,,,,,,,2026-02-12,1,,,,,セレン,0
1423,6011801047438,新規,0,2026-02-12,2026-02-12,宮崎商事株式会社,00142545,株式会社,東京都,足立区,扇１丁目１８番１７号,,13,121,1230873,,,,,,,2026-02-12,1,,,,,ミヤザキショウジ,0
1424,6012401044123,新規,0,2026-02-12,2026-02-12,グッドクル株式会社,,株式会社,東京都,調布市,西つつじケ丘３丁目１５番地３ニューコーポアゼリア１１１号室,,13,208,1820006,,,,,,,2026-02-12,1,,,,,グッドクル,0
1426,6012703003470,新規,0,2026-02-12,2026-02-12,フルハウスプランニング合同会社,,合同会社,東京都,東久留米市,東本町１１－８ビッグ武蔵野東久留米１１０,,13,222,2030014,,,,,,,2026-02-12,1,,,,,フルハウスプランニング,0
1434,6020001166948,新規,0,2026-02-12,2026-02-12,ＴＯＭ　ＥＮＧＩＮＥＥＲＩＮＧ　ＪＡＰＡＮ株式会社,,株式会社,神奈川県,横浜市南区,永田山王台３番４０－４０９号,,14,105,2320074,,,,,,,2026-02-12,1,,,,,トムエンジニアリングジャパン,0
1435,6020001167087,新規,0,2026-02-12,2026-02-12,ＡＰマート株式会社,,株式会社,神奈川県,横浜市西区,みなとみらい２丁目２－１,,14,103,2200012,,,,,,,2026-02-12,1,,,,,エイピーマート,0
1436,6020001167153,新規,0,2026-02-12,2026-02-12,アトリエ・ポラリス株式会社,,株式会社,神奈川県,横浜市港北区,綱島東２丁目１３番９号,,14,109,2230052,,,,,,,2026-02-12,1,,,,,アトリエポラリス,0
1437,6020003030350,新規,0,2026-02-12,2026-02-12,ベイマークコンサルティング合同会社,,合同会社,神奈川県,横浜市西区,宮崎町５８番地１グランドメゾン伊勢山３０９号,,14,103,2200031,,,,,,,2026-02-12,1,,,,,ベイマークコンサルティング,0
1439,6021001087473,新規,0,2026-02-12,2026-02-12,株式会社天晴れ,,株式会社,神奈川県,相模原市緑区,橋本６丁目２６番３号,,14,151,2520143,,,,,,,2026-02-12,1,,,,,アッパレ,0
1443,6021003017115,新規,0,2026-02-12,2026-02-12,合同会社ｃｈｏｕ　ｃｈｏｕ,,合同会社,神奈川県,海老名市,上郷３丁目１０番５０－３０１号,,14,215,2430434,,,,,,,2026-02-12,1,,,,,シュシュ,0
1445,6021005013533,新規,0,2026-02-12,2026-02-12,特定非営利活動法人ＮＥＫＯ　ＰＡＷＥＲ,,その他の設立登記法人,神奈川県,三浦郡葉山町,下山口１３７６番地の１,,14,301,2400116,,,,,,,2026-02-12,1,,,,,ネコパワー,0
1456,6030001170940,新規,0,2026-02-12,2026-02-12,株式会社ＣＡＲＱＭＡ　ＴＲＵＳＴ,,株式会社,埼玉県,川越市,大字久下戸３２６８番地１４,,11,201,3500011,,,,,,,2026-02-12,1,,,,,カラクマトラスト,0
1457,6030001170957,新規,0,2026-02-12,2026-02-12,株式会社積田,,株式会社,埼玉県,所沢市,けやき台２丁目６番地の１ブライトン所沢２０１,,11,208,3591118,,,,,,,2026-02-12,1,,,,,ツミタ,0
1458,6030001170965,新規,0,2026-02-12,2026-02-12,株式会社イージスロジック,,株式会社,埼玉県,志木市,本町５丁目１８番２２号エルシティミカミ４０１,,11,228,3530004,,,,,,,2026-02-12,1,,,,,イージスロジック,0
1459,6030001170981,新規,0,2026-02-12,2026-02-12,株式会社Ｖｃｏｎｎｅｃｔ,,株式会社,埼玉県,さいたま市西区,大字佐知川１２８１番地３－２０２,,11,101,3310064,,,,,,,2026-02-12,1,,,,,ブイコネクト,0
1460,6030001170998,新規,0,2026-02-12,2026-02-12,株式会社Ｍｏｒｉ　Ｔｏｋｕ,,株式会社,埼玉県,川口市,幸町１丁目３番３１－９０７号ライオンズシティ川口,,11,203,3320016,,,,,,,2026-02-12,1,,,,,モリトク,0
1465,6030003028625,新規,0,2026-02-12,2026-02-12,合同会社平成ハウジング,,合同会社,埼玉県,さいたま市緑区,東浦和３丁目１９番地５号,,11,109,3360926,,,,,,,2026-02-12,1,,,,,ヘイセイハウジング,0
1466,6030003028633,新規,0,2026-02-12,2026-02-12,合同会社Ｂｒｏｗｎｓｔｕｄｙ,,合同会社,埼玉県,さいたま市桜区,西堀６丁目１番６－３０６号,,11,106,3380832,,,,,,,2026-02-12,1,,,,,ブラウンスタディー,0
1473,6040001142369,新規,0,2026-02-12,2026-02-12,株式会社Ｂ＆Ｂ,,株式会社,千葉県,市川市,妙典５丁目１１番５,,12,203,2720111,,,,,,,2026-02-12,1,,,,,ビーアンドビー,0
1474,6040001142443,新規,0,2026-02-12,2026-02-12,和管理株式会社,,株式会社,千葉県,船橋市,海神町２丁目１番地１パークサイド船橋６１０号,,12,204,2730022,,,,,,,2026-02-12,1,,,,,ナゴミカンリ,0
1475,6040001142492,新規,0,2026-02-12,2026-02-12,株式会社ｅｂ１　ｓｔｕｄｉｏ,,株式会社,千葉県,柏市,若柴１７８番地４柏の葉キャンパス１４８街区１Ｗ－３２０８,,12,217,2770871,,,,,,,2026-02-12,1,,,,,イービーワンスタジオ,0
1478,6040003029424,新規,0,2026-02-12,2026-02-12,櫻合同会社,,合同会社,千葉県,市川市,東大和田１丁目２２番１－３０６号,,12,203,2720026,,,,,,,2026-02-12,1,,,,,サクラ,0
1479,6040003029440,新規,0,2026-02-12,2026-02-12,タコハイボール合同会社,,合同会社,千葉県,船橋市,本中山２丁目２３番６号ジュネパレス５階,,12,204,2730035,,,,,,,2026-02-12,1,,,,,タコハイボール,0
1480,6040003029465,新規,0,2026-02-12,2026-02-12,合同会社ｅｃｌａｔ　ｂｙ　ＲＨＩＮＯ,,合同会社,千葉県,市川市,南八幡３丁目４番１２号セントラル本八幡ビル３０３,,12,203,2720023,,,,,,,2026-02-12,1,,,,,エクラバイライノ,0
1482,6050001057970,新規,0,2026-02-12,2026-02-12,株式会社古川電子デバイス,,株式会社,茨城県,水戸市,堀町２１０４番地の１５,,08,201,3100903,,,,,,,2026-02-12,1,,,,,フルカワデンシデバイス,0
1483,6050003009937,新規,0,2026-02-12,2026-02-12,新堀建材合同会社,,合同会社,茨城県,行方市,玉造甲２３４７番地,,08,233,3113512,,,,,,,2026-02-12,1,,,,,ニイボリケンザイ,0
1488,6070003006296,新規,0,2026-02-12,2026-02-12,合同会社ＫＡＯＲＩ,,合同会社,群馬県,みどり市,笠懸町鹿３６７１番地１１,,10,212,3792313,,,,,,,2026-02-12,1,,,,,カオリ,0
1494,6080101026071,新規,0,2026-02-12,2026-02-12,株式会社綱塾,,株式会社,静岡県,賀茂郡東伊豆町,稲取３００９番地の１１６,,22,301,4130411,,,,,,,2026-02-12,1,,,,,ツナジュク,0
1496,6080103003515,新規,0,2026-02-12,2026-02-12,合同会社イイヅカ,,合同会社,静岡県,伊豆市,修善寺字小坂９８５番地８,,22,222,4102416,,,,,,,2026-02-12,1,,,,,イイヅカ,0
1499,6090005007761,新規,0,2026-02-12,2026-02-12,医療法人花月会,,その他の設立登記法人,山梨県,甲府市,千塚１丁目９番２５号,,19,201,4000074,,,,,,,2026-02-12,1,,,,,カゲツカイ,0
1501,6100003008611,新規,0,2026-02-12,2026-02-12,合同会社Ｔｓｕｍｕｇｕ,,合同会社,長野県,北佐久郡御代田町,大字御代田２３６４－３,,20,323,3890206,,,,,,,2026-02-12,1,,,,,ツムグ,0
1504,6110003006069,新規,0,2026-02-12,2026-02-12,合同会社ベストフィジオ,,合同会社,新潟県,新潟市江南区,五月町２丁目５番８号,,15,104,9500167,,,,,,,2026-02-12,1,,,,,ベストフィジオ,0
1513,6120001284070,新規,0,2026-02-12,2026-02-12,株式会社アールビージー,,株式会社,大阪府,大阪市中央区,南船場３丁目１１番１０号心斎橋大陽ビル,,27,128,5420081,,,,,,,2026-02-12,1,,,,,アールビージー,0
1514,6120001284087,新規,0,2026-02-12,2026-02-12,株式会社アクセナス,,株式会社,大阪府,大阪市北区,神山町８番１号梅田辰巳ビル６階,,27,127,5300026,,,,,,,2026-02-12,1,,,,,アクセナス,0
1515,6120001284095,新規,0,2026-02-12,2026-02-12,瀬川エージェント株式会社,,株式会社,大阪府,大阪市中央区,本町２丁目３番４号アソルティ本町４階,,27,128,5410053,,,,,,,2026-02-12,1,,,,,セガワエージェント,0
1518,6120003031875,新規,0,2026-02-12,2026-02-12,合同会社スマイルステーション,,合同会社,大阪府,大阪市北区,浮田１丁目５番１６号－２０１,,27,127,5300021,,,,,,,2026-02-12,1,,,,,スマイルステーション,0
1519,6120003031917,新規,0,2026-02-12,2026-02-12,合同会社メリトハリ,,合同会社,大阪府,大阪市阿倍野区,阿倍野筋３丁目１０‐１‐２１７,,27,119,5450052,,,,,,,2026-02-12,1,,,,,メリトハリ,0
1524,6122003003458,新規,0,2026-02-12,2026-02-12,合同会社ｃａｒｅ＆ｇｒｏｗ,,合同会社,大阪府,東大阪市,鴻池元町１１番３－９０４号,,27,227,5780974,,,,,,,2026-02-12,1,,,,,ケアアンドグロー,0
1525,6122005003877,新規,0,2026-02-12,2026-02-12,ワーキングベース協同組合,,その他の設立登記法人,大阪府,八尾市,新家町３丁目３８番地の５,,27,212,5810811,,,,,,,2026-02-12,1,,,,,ワーキングベース,0
1529,6130001081582,新規,0,2026-02-12,2026-02-12,株式会社グラシアス,,株式会社,京都府,京都市右京区,太秦安井一町田町７番地２５,,26,108,6168084,,,,,,,2026-02-12,1,,,,,グラシアス,0
1537,6140003023193,新規,0,2026-02-12,2026-02-12,合同会社ｏｆｆ,,合同会社,兵庫県,宝塚市,千種１丁目８番３８号,,28,214,6650072,,,,,,,2026-02-12,1,,,,,オフ,0
1538,6140003023210,新規,0,2026-02-12,2026-02-12,合同会社ＭＥＧＵＲＩ,,合同会社,兵庫県,神戸市灘区,八幡町３丁目６－２２中迫ビル２階,,28,102,6570051,,,,,,,2026-02-12,1,,,,,メグリ,0
1539,6150003003839,新規,0,2026-02-12,2026-02-12,合同会社ティーエス,,合同会社,奈良県,奈良市,疋田町４丁目１４１－１２２,,29,201,6310843,,,,,,,2026-02-12,1,,,,,ティーエス,0
1546,6180001170430,新規,0,2026-02-12,2026-02-12,株式会社ＣＭＴパートナーズ,,株式会社,愛知県,名古屋市中区,丸の内２丁目１１－２９－１００１,,23,106,4600002,,,,,,,2026-02-12,1,,,,,シーエムティパートナーズ,0
1547,6180001170595,新規,0,2026-02-12,2026-02-12,株式会社Ｐｒｉｍｅ　Ｐａｔｈ,,株式会社,愛知県,名古屋市名東区,扇町２丁目１番地の２,,23,115,4650076,,,,,,,2026-02-12,1,,,,,プライムパス,0
1548,6180001170604,新規,0,2026-02-12,2026-02-12,ＣＨＵＮＩＣＨＩ　ＪＵＫＥ株式会社,,株式会社,愛知県,名古屋市名東区,牧の里１丁目１０４番地,,23,115,4650068,,,,,,,2026-02-12,1,,,,,チュウニチジューク,0
1549,6180001170637,新規,0,2026-02-12,2026-02-12,株式会社響,,株式会社,愛知県,名古屋市名東区,香南２丁目９１７番地,,23,115,4650004,,,,,,,2026-02-12,1,,,,,ヒビキ,0
1550,6180001170653,新規,0,2026-02-12,2026-02-12,株式会社Ｃａｌｉｇｕｒａ,,株式会社,愛知県,名古屋市中区,錦３丁目１３番１３号アロン錦Ａビル５階,,23,106,4600003,,,,,,,2026-02-12,1,,,,,カリギュラ,0
1554,6180003029708,新規,0,2026-02-12,2026-02-12,合同会社Ｙａｍａｂｉｋｉ,,合同会社,愛知県,名古屋市中村区,名駅４丁目２４番５号第２森ビル４０１,,23,105,4500002,,,,,,,2026-02-12,1,,,,,ヤマビキ,0
1555,6180003029757,新規,0,2026-02-12,2026-02-12,合同会社ＪＱ　Ｍｏｄｅｓｔｙ,,合同会社,愛知県,名古屋市東区,葵１丁目１１番６号ライオンズタワー葵６０４号,,23,102,4610004,,,,,,,2026-02-12,1,,,,,ジェイキューモデスティ,0
1556,6180005021407,新規,0,2026-02-12,2026-02-12,一般社団法人生活文化サポートセンターさんちゃん,,その他の設立登記法人,愛知県,弥富市,鯏浦町用水上３５番地３,,23,235,4980021,,,,,,,2026-02-12,1,,,,,セイカツブンカサポートセンターサンチャン,0
1557,6180301040688,新規,0,2026-02-12,2026-02-12,すまワークス株式会社,,株式会社,愛知県,豊田市,若林西町西千間２２番地２,,23,211,4730917,,,,,,,2026-02-12,1,,,,,スマワークス,0
1558,6180303006893,新規,0,2026-02-12,2026-02-12,合同会社大陽,,合同会社,愛知県,西尾市,寺津町観音東１２番地１２,,23,213,4440324,,,,,,,2026-02-12,1,,,,,タイヨウ,0
1562,6210001020490,新規,0,2026-02-12,2026-02-12,株式会社ｅｎ‐ｂｒｏ,,株式会社,福井県,敦賀市,市野々町１丁目３８８番地,,18,202,9140124,,,,,,,2026-02-12,1,,,,,エンブロ,0
1565,6230003002576,新規,0,2026-02-12,2026-02-12,合同会社とぼる,,合同会社,富山県,滑川市,下小泉町１９６番地,,16,206,9360058,,,,,,,2026-02-12,1,,,,,トボル,0
1578,6280005007684,新規,0,2026-02-12,2026-02-12,吉賀町複業協同組合,,その他の設立登記法人,島根県,鹿足郡吉賀町,真田１１２０番地,,32,505,6995521,,,,,,,2026-02-12,1,,,,,ヨシカチョウフクギョウ,0
1586,6290001113080,新規,0,2026-02-12,2026-02-12,兼定宗家株式会社,,株式会社,福岡県,久留米市,野中町６４０番地１,,40,203,8390862,,,,,,,2026-02-12,1,,,,,カネサダソウケ,0
1587,6290001113114,新規,0,2026-02-12,2026-02-12,ＳＷＫエンジニアリング株式会社,,株式会社,福岡県,久留米市,荒木町荒木４８６番地４,,40,203,8300063,,,,,,,2026-02-12,1,,,,,エスダブリューケーエンジニアリング,0
1589,6290003018030,新規,0,2026-02-12,2026-02-12,合同会社ぱるぷんて,,合同会社,福岡県,福岡市博多区,東光１丁目６番１６－４０２号マインズ博多駅東,,40,132,8120008,,,,,,,2026-02-12,1,,,,,パルプンテ,0
1595,6310001019960,新規,0,2026-02-12,2026-02-12,原ＩｎｄｕｓＴｒｙ株式会社,,株式会社,長崎県,長崎市,浜口町１０番１９号中島ビル２０１号室,,42,201,8528107,,,,,,,2026-02-12,1,,,,,ハラインダストリー,0
1600,6320001021577,新規,0,2026-02-12,2026-02-12,葵生運輸株式会社,,株式会社,大分県,速見郡日出町,大字川崎５６４８番地４,,44,341,8791505,,,,,,,2026-02-12,1,,,,,アオイウンユ,0
1613,6350001019940,新規,0,2026-02-12,2026-02-12,株式会社晃上塗装工業,,株式会社,宮崎県,延岡市,鶴ケ丘１丁目６番２３号,,45,203,8820865,,,,,,,2026-02-12,1,,,,,コウジョウトソウコウギョウ,0
1617,6370003007470,新規,0,2026-02-12,2026-02-12,合同会社ＲＥＭＩ,,合同会社,宮城県,仙台市青葉区,国分町２丁目１０－１６シャルマンビル３階,,04,101,9800803,,,,,,,2026-02-12,1,,,,,レミー,0
1618,6380001035869,新規,0,2026-02-12,2026-02-12,トライズ建設株式会社,,株式会社,福島県,いわき市,内郷小島町花輪１５番地の１ネッツ小島１０１,,07,204,9738401,,,,,,,2026-02-12,1,,,,,トライズケンセツ,0
1630,6440005002818,新規,0,2026-02-12,2026-02-12,一般社団法人日本プライベートガイド通訳者協会,,その他の設立登記法人,北海道,函館市,谷地頭町２８番１０号,,01,202,0400046,,,,,,,2026-02-12,1,,,,,ニホンプライベートガイドツウヤクシャキョウカイ,0
1631,6460001006069,新規,0,2026-02-12,2026-02-12,ノースヘンプマテリアル株式会社,,株式会社,北海道,釧路市,鳥取大通５丁目３番１９号オレンジビル２階２,,01,206,0840906,,,,,,,2026-02-12,1,,,,,ノースヘンプマテリアル,0
1643,7010001262532,新規,0,2026-02-12,2026-02-12,ＥｍＭａｔｃｈ株式会社,,株式会社,東京都,千代田区,鍛冶町２丁目３番１４号フェリスビル４階,,13,101,1010044,,,,,,,2026-02-12,1,,,,,エンマッチ,0
1644,7010001262557,新規,0,2026-02-12,2026-02-12,株式会社ＫＲ,,株式会社,東京都,中央区,晴海５丁目５－３サンヴィレッジＣ７１４,,13,102,1040053,,,,,,,2026-02-12,1,,,,,ケーアール,0
1645,7010001262573,新規,0,2026-02-12,2026-02-12,株式会社東京データプラス,,株式会社,東京都,中央区,銀座１丁目１２番４号ＮアンドＥ－ＢＬＤ－６Ｆ,,13,102,1040061,,,,,,,2026-02-12,1,,,,,トウキョウデータプラス,0
1646,7010001262631,新規,0,2026-02-12,2026-02-12,株式会社ライト,,株式会社,東京都,千代田区,神田神保町３丁目１１番６号　神保町ビル１０階,,13,101,1010051,,,,,,,2026-02-12,1,,,,,ライト,0
1647,7010001262714,新規,0,2026-02-12,2026-02-12,ＪＰＡ第３８０号株式会社,,株式会社,東京都,千代田区,霞が関３丁目２番１号,,13,101,1000013,,,,,,,2026-02-12,1,,,,,ジェイピーエーダイサンビャクハチジュウゴウ,0
1648,7010001262722,新規,0,2026-02-12,2026-02-12,ＪＰＡ第３８８号株式会社,,株式会社,東京都,千代田区,霞が関３丁目２番１号,,13,101,1000013,,,,,,,2026-02-12,1,,,,,ジェイピーエーダイサンビャクハチジュウハチゴウ,0
1649,7010001262730,新規,0,2026-02-12,2026-02-12,ＪＰＡ第３９６号株式会社,,株式会社,東京都,千代田区,霞が関３丁目２番１号,,13,101,1000013,,,,,,,2026-02-12,1,,,,,ジェイピーエーダイサンビャクキュウジュウロクゴウ,0
1652,7010003050340,新規,0,2026-02-12,2026-02-12,合同会社ＲＭＤ,,合同会社,東京都,中央区,銀座６丁目６番１号銀座風月堂ビル５階,,13,102,1040061,,,,,,,2026-02-12,1,,,,,アールエムディ,0
1653,7010003050365,新規,0,2026-02-12,2026-02-12,Ｓｐｒｉｎｔ　Ｈｏｌｄｉｎｇｓ４合同会社,,合同会社,東京都,千代田区,霞が関３丁目２番５号,,13,101,1000013,,,,,,,2026-02-12,1,,,,,スプリントホールディングスフォー,0
1677,7010501055436,新規,0,2026-02-12,2026-02-12,株式会社シンネイル,,株式会社,東京都,台東区,東上野３丁目２２－２クレアツィオーネ上野７０１,,13,106,1100015,,,,,,,2026-02-12,1,,,,,シンネイル,0
1688,7010901058939,新規,0,2026-02-12,2026-02-12,株式会社Ｓｕｎｄａｙ　Ｐａｒｋ,,株式会社,東京都,世田谷区,太子堂４丁目１８番１５号マガザン三軒茶屋２－３Ｆ－３,,13,112,1540004,,,,,,,2026-02-12,1,,,,,サンデーパーク,0
1689,7010901058955,新規,0,2026-02-12,2026-02-12,Ｃｏｎｏｗａｙ　ＩＰ　Ｈｏｌｄｉｎｇｓ株式会社,,株式会社,東京都,世田谷区,深沢４丁目２８番２号ワイズ深沢２０１,,13,112,1580081,,,,,,,2026-02-12,1,,,,,コノウェイアイピーホールディングス,0
1691,7010905004897,新規,0,2026-02-12,2026-02-12,一般社団法人Ｃｏｎｏｗａｙ　Ｖｉｓｉｏｎ　Ｆｏｕｎｄａｔｉｏｎ,,その他の設立登記法人,東京都,世田谷区,深沢４丁目２８番２号ワイズ深沢２０１,,13,112,1580081,,,,,,,2026-02-12,1,,,,,コノウェイビジョンファウンデーション,0
1697,7011001175427,新規,0,2026-02-12,2026-02-12,株式会社ＳＨＡＤＥ　ＰＩＮＥ,,株式会社,東京都,渋谷区,円山町５番５号Ｎａｖｉ渋谷Ｖ３階,,13,113,1500044,,,,,,,2026-02-12,1,,,,,シェイドパイン,0
1698,7011001175526,新規,0,2026-02-12,2026-02-12,株式会社ＫＩＢＡＫＵ,,株式会社,東京都,目黒区,下目黒１丁目１番１４号コノトラビル７Ｆ,,13,110,1530064,,,,,,,2026-02-12,1,,,,,キバク,0
1701,7011003023518,新規,0,2026-02-12,2026-02-12,Ｒｙｐ　Ｌａｂｓ　Ｊａｐａｎ合同会社,,合同会社,東京都,渋谷区,桜丘町１番１号,,13,113,1500031,,,,,,,2026-02-12,1,,,,,ライプラブスジャパン,0
1707,7011101114680,新規,0,2026-02-12,2026-02-12,優研株式会社,,株式会社,東京都,新宿区,西新宿８丁目１１－１０星野ビル３Ｆ,,13,104,1600023,,,,,,,2026-02-12,1,,,,,ユウケン,0
1708,7011101114730,新規,0,2026-02-12,2026-02-12,株式会社ＣａｎＢｅ,,株式会社,東京都,新宿区,舟町１５番地荒川ビル４０１,,13,104,1600006,,,,,,,2026-02-12,1,,,,,カンベ,0
1709,7011103016982,新規,0,2026-02-12,2026-02-12,合同会社Ｐｓｙｃｈｏｌｏｇｉｃａｌ　Ｓａｆｅｔｙ,,合同会社,東京都,新宿区,西新宿３丁目３－１３西新宿水間ビル６階,,13,104,1600023,,,,,,,2026-02-12,1,,,,,サイコロジカルセーフティー,0
1710,7011103016990,新規,0,2026-02-12,2026-02-12,合同会社ＡｉＫａｂｒａ,,合同会社,東京都,新宿区,西新宿３丁目３番１３号西新宿水間ビル２Ｆ,,13,104,1600023,,,,,,,2026-02-12,1,,,,,アイカブラ,0
1711,7011105011718,新規,0,2026-02-12,2026-02-12,一般社団法人ＳＰＶ１８,,その他の設立登記法人,東京都,新宿区,富久町８番２６号東京ユナイテッド綜合事務所内,,13,104,1620067,,,,,,,2026-02-12,1,,,,,エスピーブイジュウハチ,0
1712,7011105011734,新規,0,2026-02-12,2026-02-12,一般社団法人みみよりどころ,,その他の設立登記法人,東京都,新宿区,西新宿３丁目３番１３号西新宿水間ビル６階,,13,104,1600023,,,,,,,2026-02-12,1,,,,,ミミヨリドコロ,0
1714,7011301031247,新規,0,2026-02-12,2026-02-12,株式会社Ｙ’ｓ,,株式会社,東京都,杉並区,南荻窪４丁目４２番４号,,13,115,1670052,,,,,,,2026-02-12,1,,,,,ワイズ,0
1715,7011301031255,新規,0,2026-02-12,2026-02-12,株式会社希望舎,,株式会社,東京都,杉並区,宮前３丁目３３番１１号ルレ西荻窪１階,,13,115,1680081,,,,,,,2026-02-12,1,,,,,キボウシャ,0
1717,7011401027797,新規,0,2026-02-12,2026-02-12,Ｖｏｙａｇｅｒ　ｆｉｎｔｅｃｈ株式会社,,株式会社,東京都,板橋区,熊野町４４－６－２０５,,13,119,1730025,,,,,,,2026-02-12,1,,,,,ボイジャーフィンテック,0
1721,7011701029163,新規,0,2026-02-12,2026-02-12,株式会社Ｎｅｗ　ＨＯＴ　ｒｅ．Ｖｏｎｄｓ,,株式会社,東京都,江戸川区,大杉２丁目８番８号,,13,123,1320022,,,,,,,2026-02-12,1,,,,,ニューホットリボンズ,0
1724,7011803007323,新規,0,2026-02-12,2026-02-12,ＧＬＥＮＬＩＶＥＴ合同会社,,合同会社,東京都,葛飾区,東金町３丁目１７番１０号ＫＢＳ－Ｃ－１,,13,122,1250041,,,,,,,2026-02-12,1,,,,,グレンリベット,0
1726,7012401044106,新規,0,2026-02-12,2026-02-12,株式会社きらっと,,株式会社,東京都,調布市,上石原３丁目４５番地７カリヤボーデンハウス１０２号室,,13,208,1820035,,,,,,,2026-02-12,1,,,,,キラット,0
1727,7012401044130,新規,0,2026-02-12,2026-02-12,株式会社ＨＩＴＯ　ＥＳＴＡＴＥ,,株式会社,東京都,武蔵野市,吉祥寺本町２丁目８番４号ｉ－ｏｆｆｉｃｅ吉祥寺,,13,203,1800004,,,,,,,2026-02-12,1,,,,,ヒトエステイト,0
1728,7012403007606,新規,0,2026-02-12,2026-02-12,ＲＩＮＯ合同会社,,合同会社,東京都,武蔵野市,吉祥寺本町１丁目３１番１３号旧アサカビル５階,,13,203,1800004,,,,,,,2026-02-12,1,,,,,リノ,0
1731,7012805003392,新規,0,2026-02-12,2026-02-12,特定非営利活動法人ネットワーク・市民アーカイブ,,その他の設立登記法人,東京都,立川市,幸町５丁目９６番地の７,,13,202,1900002,,,,,,,2026-02-12,1,,,,,,0
1746,7020001167177,新規,0,2026-02-12,2026-02-12,ＹＰＭ株式会社,,株式会社,神奈川県,川崎市幸区,鹿島田１丁目１―５―４０９,,14,132,2120058,,,,,,,2026-02-12,1,,,,,ワイピーエム,0
1750,7021001087489,新規,0,2026-02-12,2026-02-12,株式会社ＬＥ　ＧＯＡＬ,,株式会社,神奈川県,厚木市,毛利台２丁目４番７号,,14,212,2430037,,,,,,,2026-02-12,1,,,,,レゴール,0
1751,7021001087522,新規,0,2026-02-12,2026-02-12,株式会社咲歩,,株式会社,神奈川県,鎌倉市,山崎１０５０番地,,14,204,2470066,,,,,,,2026-02-12,1,,,,,サキホ,0
1754,7021003017023,新規,0,2026-02-12,2026-02-12,合同会社ＡＰ,,合同会社,神奈川県,相模原市中央区,弥栄１丁目７－１４－１,,14,152,2520229,,,,,,,2026-02-12,1,,,,,エーピー,0
1764,7030001170881,新規,0,2026-02-12,2026-02-12,株式会社レンジャー,,株式会社,埼玉県,川越市,南大塚１丁目１７番１７号ウイングヤマセ１０１,,11,201,3501162,,,,,,,2026-02-12,1,,,,,レンジャー,0
1765,7030001170948,新規,0,2026-02-12,2026-02-12,株式会社エナジーバンク,,株式会社,埼玉県,越谷市,南越谷４丁目１１番地５トラビ南越谷,,11,222,3430845,,,,,,,2026-02-12,1,,,,,エナジーバンク,0
1766,7030001170956,新規,0,2026-02-12,2026-02-12,株式会社Ｓ．ＭＨＲ‐Ｔ,,株式会社,埼玉県,川口市,大字安行原６８７番地の１３,,11,203,3340057,,,,,,,2026-02-12,1,,,,,スマート,0
1767,7030001170964,新規,0,2026-02-12,2026-02-12,Ｒｅ’Ｐｌａｎｎｉｎｇ株式会社,,株式会社,埼玉県,狭山市,新狭山１丁目１８番地の１５,,11,215,3501331,,,,,,,2026-02-12,1,,,,,リプランニング,0
1768,7030001170989,新規,0,2026-02-12,2026-02-12,Ｕ‐ｓｈｉｎ東日本建設株式会社,,株式会社,埼玉県,上尾市,大字領家６０番地２１,,11,219,3620066,,,,,,,2026-02-12,1,,,,,ユウーシンヒガシニホンケンセツ,0
1769,7030003028608,新規,0,2026-02-12,2026-02-12,ＡＫＥＥ　ＥＮＴＥＲＰＲＩＳＥＳ合同会社,,合同会社,埼玉県,比企郡小川町,大字木部２４４－１,,11,343,3550335,,,,,,,2026-02-12,1,,,,,アキーエンタープライゼス,0
1770,7030003028632,新規,0,2026-02-12,2026-02-12,合同会社ＳＡＬＥ　ＰＯＩＮＴ,,合同会社,埼玉県,蕨市,中央２丁目４－１８メゾンドレーブ１０２号室,,11,223,3350004,,,,,,,2026-02-12,1,,,,,セールポイント,0
1774,7040001142418,新規,0,2026-02-12,2026-02-12,株式会社Ｇｌｏｂａｌ　Ｃａｒ　Ｃｌｕｂ,,株式会社,千葉県,松戸市,栄町西４丁目１１５９番地の３,,12,207,2710061,,,,,,,2026-02-12,1,,,,,グローバルカークラブ,0
1775,7040001142459,新規,0,2026-02-12,2026-02-12,株式会社ＧＵＮ’Ｓ,,株式会社,千葉県,我孫子市,栄３７番８号,,12,222,2701141,,,,,,,2026-02-12,1,,,,,ガンズ,0
1785,7060001038952,新規,0,2026-02-12,2026-02-12,高明電設株式会社,,株式会社,栃木県,那須郡那須町,大字寺子乙２５９５番地１０６,,09,407,3293215,,,,,,,2026-02-12,1,,,,,コウメイデンセツ,0
1786,7060001039001,新規,0,2026-02-12,2026-02-12,株式会社フィールドツリー,,株式会社,栃木県,佐野市,赤坂町１４６番１６－１０１号,,09,204,3270004,,,,,,,2026-02-12,1,,,,,フィールドツリー,0
1788,7060005010412,新規,0,2026-02-12,2026-02-12,特定非営利活動法人ふーここちいい,,その他の設立登記法人,栃木県,日光市,文挾町３８番地,,09,206,3211105,,,,,,,2026-02-12,1,,,,,フーココチイイ,0
1790,7080005007761,新規,0,2026-02-12,2026-02-12,特定非営利活動法人結,,その他の設立登記法人,静岡県,静岡市駿河区,高松２４８４番地の５,,22,102,4228034,,,,,,,2026-02-12,1,,,,,ユイ,0
1791,7080101026079,新規,0,2026-02-12,2026-02-12,しんえいホールディングス株式会社,,株式会社,静岡県,駿東郡清水町,長沢１０２６番地の２,,22,341,4110905,,,,,,,2026-02-12,1,,,,,シンエイホールディングス,0
1805,7120001284004,新規,0,2026-02-12,2026-02-12,株式会社ＤＲＥＡＭ　ＲＩＮＧ　ＰＲＯＪＥＣＴ,,株式会社,大阪府,大阪市阿倍野区,松崎町４丁目４番２２号翡翠マンション７０６号,,27,119,5450053,,,,,,,2026-02-12,1,,,,,ドリームリングプロジェクト,0
1806,7120001284029,新規,0,2026-02-12,2026-02-12,阪築株式会社,,株式会社,大阪府,大阪市住吉区,庭井２丁目１番２１号,,27,120,5580012,,,,,,,2026-02-12,1,,,,,サカチク,0
1807,7120001284078,新規,0,2026-02-12,2026-02-12,株式会社ＢＵＤＤＹ,,株式会社,大阪府,大阪市此花区,西九条１丁目１４番７号,,27,104,5540012,,,,,,,2026-02-12,1,,,,,バディー,0
1821,7140001141657,新規,0,2026-02-12,2026-02-12,株式会社ＫＲＪ,,株式会社,兵庫県,姫路市,相野８６番地６,,28,201,6712232,,,,,,,2026-02-12,1,,,,,ケーアールジェイ,0
1822,7140001141681,新規,0,2026-02-12,2026-02-12,イーテック株式会社,,株式会社,兵庫県,姫路市,南今宿１番地３インタービレッジ南今宿２０４号,,28,201,6700054,,,,,,,2026-02-12,1,,,,,イーテック,0
1823,7140003023192,新規,0,2026-02-12,2026-02-12,合同会社Ａ＆Ｍ,,合同会社,兵庫県,神戸市中央区,磯辺通１丁目１番１８号カサベラ国際プラザビル７０７号室,,28,110,6510084,,,,,,,2026-02-12,1,,,,,エーアンドエム,0
1827,7180001170603,新規,0,2026-02-12,2026-02-12,株式会社ＦＲＴＮホールディングス,,株式会社,愛知県,名古屋市昭和区,滝川町１１２番地の１,,23,107,4660826,,,,,,,2026-02-12,1,,,,,エフアールティーエヌホールディングス,0
1828,7180001170636,新規,0,2026-02-12,2026-02-12,株式会社Ａｍａｍｉ,,株式会社,愛知県,名古屋市西区,則武新町３丁目１番６９号ＮＮＳ１２１－５０２号室,,23,104,4510051,,,,,,,2026-02-12,1,,,,,アマミ,0
1829,7180001170652,新規,0,2026-02-12,2026-02-12,株式会社Ｋｅｌｏｗｎａ,,株式会社,愛知県,一宮市,千秋町町屋字東沼１９番地１７,,23,203,4910813,,,,,,,2026-02-12,1,,,,,ケロウナ,0
1832,7180003029756,新規,0,2026-02-12,2026-02-12,ＢＬＵＥ　ＥＤＧＥ合同会社,,合同会社,愛知県,名古屋市中川区,中郷３丁目３８６番地の２,,23,110,4540921,,,,,,,2026-02-12,1,,,,,ブルーエッジ,0
1841,7220001027170,新規,0,2026-02-12,2026-02-12,株式会社ニューステップ,,株式会社,石川県,金沢市,糸田２丁目１０番地５,,17,201,9218014,,,,,,,2026-02-12,1,,,,,ニューステップ,0
1843,7230001021296,新規,0,2026-02-12,2026-02-12,朝順株式会社,,株式会社,富山県,富山市,大泉３０５番地７,,16,201,9398058,,,,,,,2026-02-12,1,,,,,アサジュン,0
1856,7290001113105,新規,0,2026-02-12,2026-02-12,オール株式会社,,株式会社,福岡県,福岡市中央区,天神４丁目６番２８号いちご天神ノースビル７階,,40,133,8100001,,,,,,,2026-02-12,1,,,,,オール,0
1857,7290001113121,新規,0,2026-02-12,2026-02-12,株式会社ＦＡ　ＬＩＮＥ,,株式会社,福岡県,糟屋郡志免町,片峰中央３丁目７番１４号,,40,343,8112246,,,,,,,2026-02-12,1,,,,,エフエーライン,0
1862,7290003018054,新規,0,2026-02-12,2026-02-12,合同会社ＧＡＫＵ,,合同会社,福岡県,久留米市,北野町今山５４５－４,,40,203,8301122,,,,,,,2026-02-12,1,,,,,ガク,0
1864,7290005019991,新規,0,2026-02-12,2026-02-12,一般社団法人のこのしまアイランドスクール,,その他の設立登記法人,福岡県,福岡市西区,能古島１６２４番地,,40,135,8190012,,,,,,,2026-02-12,1,,,,,ノコノシマアイランドスクール,0
1885,7380001035868,新規,0,2026-02-12,2026-02-12,株式会社エスティフィールズ,,株式会社,福島県,白河市,七番町９番地３,,07,205,9610863,,,,,,,2026-02-12,1,,,,,エスティフィールズ,0
1891,7410001014389,新規,0,2026-02-12,2026-02-12,ヨコウングループホールディングス株式会社,,株式会社,秋田県,横手市,横手町字大関越９１番地１,,05,203,0130061,,,,,,,2026-02-12,1,,,,,ヨコウングループホールディングス,0
1893,7420001019404,新規,0,2026-02-12,2026-02-12,株式会社ＳＣＡＴ４３,,株式会社,青森県,青森市,けやき２丁目１８番５号サンパティーク１０２,,02,201,0300918,,,,,,,2026-02-12,1,,,,,スキャットヨンジュウサン,0
1894,7420001019412,新規,0,2026-02-12,2026-02-12,ＭＩＮＡＭＩ　Ｒｅａｌｔｙ株式会社,,株式会社,青森県,青森市,北金沢２丁目１６番１７号,,02,201,0300855,,,,,,,2026-02-12,1,,,,,ミナミリアルティ,0
1895,7420003003240,新規,0,2026-02-12,2026-02-12,合同会社ＬｉｍｉｔｌｅｓｓＧｒｏｗ,,合同会社,青森県,弘前市,大字千年１丁目２５番地３,,02,202,0368131,,,,,,,2026-02-12,1,,,,,リミットレスグロウ,0
1916,8010001262498,新規,0,2026-02-12,2026-02-12,株式会社ＯｎｅＳｍｉｌｅＬａｂ,,株式会社,東京都,中央区,日本橋人形町１丁目５番８号,,13,102,1030013,,,,,,,2026-02-12,1,,,,,ワンスマイルラボ,0
1917,8010001262564,新規,0,2026-02-12,2026-02-12,株式会社トリセント,,株式会社,東京都,中央区,晴海５丁目５－７晴海フラッグサンビレッジ２９０１号,,13,102,1040053,,,,,,,2026-02-12,1,,,,,トリセント,0
1918,8010001262572,新規,0,2026-02-12,2026-02-12,ＡＸＥＬＩＡ株式会社,,株式会社,東京都,中央区,八丁堀３丁目１５番６－５０９号,,13,102,1040032,,,,,,,2026-02-12,1,,,,,アクセリア,0
1919,8010001262589,新規,0,2026-02-12,2026-02-12,株式会社ｉａｍ,,株式会社,東京都,中央区,銀座１丁目１２番４号Ｎ＆ＥＢＬＤ．６Ｆ,,13,102,1040061,,,,,,,2026-02-12,1,,,,,アイエーエム,0
1920,8010001262622,新規,0,2026-02-12,2026-02-12,株式会社Ｏｃｔａｌａｂ,,株式会社,東京都,千代田区,丸の内２丁目３－２郵船ビルディング１階,,13,101,1000005,,,,,,,2026-02-12,1,,,,,オクタラボ,0
1921,8010001262671,新規,0,2026-02-12,2026-02-12,ＳＴＪ商事株式会社,,株式会社,東京都,千代田区,神田須田町２丁目２３番１号天翔秋葉原万世橋ビル４１０号室,,13,101,1010041,,,,,,,2026-02-12,1,,,,,エスティージェイ,0
1922,8010001262721,新規,0,2026-02-12,2026-02-12,ＪＰＡ第３８７号株式会社,,株式会社,東京都,千代田区,霞が関３丁目２番１号,,13,101,1000013,,,,,,,2026-02-12,1,,,,,ジェイピーエーダイサンビャクハチジュウナナゴウ,0
1923,8010001262746,新規,0,2026-02-12,2026-02-12,株式会社グローウィンズ,,株式会社,東京都,中央区,勝どき４丁目６番１－３６２９号,,13,102,1040054,,,,,,,2026-02-12,1,,,,,グローウィンズ,0
1924,8010001262754,新規,0,2026-02-12,2026-02-12,勝一株式会社,,株式会社,東京都,中央区,銀座３丁目１３番４－８０２号,,13,102,1040061,,,,,,,2026-02-12,1,,,,,カツイチ,0
1925,8010001262770,新規,0,2026-02-12,2026-02-12,大興地所株式会社,,株式会社,東京都,中央区,晴海５丁目５番３号,,13,102,1040053,,,,,,,2026-02-12,1,,,,,ダイコウジショ,0
1929,8010003050364,新規,0,2026-02-12,2026-02-12,Ｓｐｒｉｎｔ　ＭＬ４Ａ合同会社,,合同会社,東京都,千代田区,霞が関３丁目２番５号,,13,101,1000013,,,,,,,2026-02-12,1,,,,,スプリントエムエルフォーエー,0
1930,8010003050372,新規,0,2026-02-12,2026-02-12,合同会社ＳＶＦ,,合同会社,東京都,千代田区,丸の内１丁目４番１号東京共同会計事務所内,,13,101,1000005,,,,,,,2026-02-12,1,,,,,エスブイエフ,0
1933,8010101017083,新規,0,2026-02-12,2026-02-12,株式会社カザーナコーヒー,,株式会社,東京都,八王子市,本町２番５号第７ベルハンドビル１Ｆ,,13,201,1920066,,,,,,,2026-02-12,1,,,,,カザーナコーヒー,0
1939,8010401196255,新規,0,2026-02-12,2026-02-12,株式会社Ｌｉｇｈｔｋｅｅｐｅｒｓ　Ｃｏｌｌｅｃｔｉｖｅ,,株式会社,東京都,港区,北青山１丁目３番１号アールキューブ青山３階,,13,103,1070061,,,,,,,2026-02-12,1,,,,,ライトキーパーズコレクティブ,0
1940,8010401196387,新規,0,2026-02-12,2026-02-12,ＯＬＡ　ＪＡＰＡＮ株式会社,,株式会社,東京都,港区,虎ノ門２丁目９番１号,,13,103,1050001,,,,,,,2026-02-12,1,,,,,オラジャパン,0
1941,8010401196395,新規,0,2026-02-12,2026-02-12,株式会社ビジョンブルーム,,株式会社,東京都,港区,三田２丁目７－９－４０４,,13,103,1080073,,,,,,,2026-02-12,1,,,,,ビジョンブルーム,0
1942,8010401196412,新規,0,2026-02-12,2026-02-12,株式会社Ｇｉｒｉ　Ｗｏｒｋｓ,,株式会社,東京都,港区,南青山３丁目１番３６号青山丸竹ビル６Ｆ,,13,103,1070062,,,,,,,2026-02-12,1,,,,,ギリワークス,0
1943,8010401196420,新規,0,2026-02-12,2026-02-12,株式会社宇悦,,株式会社,東京都,港区,南青山２丁目４番１１－２０３,,13,103,1070062,,,,,,,2026-02-12,1,,,,,ウゼツ,0
1944,8010401196429,新規,0,2026-02-12,2026-02-12,株式会社ベステートホールディングス,,株式会社,東京都,港区,港南２丁目１５番３号,,13,103,1080075,,,,,,,2026-02-12,1,,,,,ベステートホールディングス,0
1945,8010401196544,新規,0,2026-02-12,2026-02-12,株式会社ＨＯＬＤＥＮ,,株式会社,東京都,港区,南青山３丁目１番３６号青山丸竹ビル６Ｆ,,13,103,1070062,,,,,,,2026-02-12,1,,,,,ホールデン,0
1946,8010403037267,新規,0,2026-02-12,2026-02-12,ＣＯＲＶＩ合同会社,,合同会社,東京都,港区,南青山３丁目１番３６号青山丸竹ビル６Ｆ,,13,103,1070062,,,,,,,2026-02-12,1,,,,,コルビー,0
1947,8010403037283,新規,0,2026-02-12,2026-02-12,ＬＰＭ　Ｏｎｅ合同会社,,合同会社,東京都,港区,六本木１丁目９番１０号アークヒルズ仙石山森タワー４０階,,13,103,1060032,,,,,,,2026-02-12,1,,,,,エルピーエムワン,0
1948,8010403037300,新規,0,2026-02-12,2026-02-12,Ｌａｋｅ　Ｖｅｓｔ合同会社,,合同会社,東京都,港区,虎ノ門５丁目１番５号,,13,103,1050001,,,,,,,2026-02-12,1,,,,,レイクベスト,0
1951,8010501055435,新規,0,2026-02-12,2026-02-12,ＢｅａｒＦｉｔ＆Ｃｏｍｐａｎｙ株式会社,,株式会社,東京都,台東区,東上野２丁目１３－２上野スカイビルＡ１０１３,,13,106,1100015,,,,,,,2026-02-12,1,,,,,ベアフィットアンドカンパニー,0
1952,8010501055443,新規,0,2026-02-12,2026-02-12,株式会社ベビーフォトベース,,株式会社,東京都,台東区,上野１丁目１７番６号広小路ビル８Ｆ－Ｂ,,13,106,1100005,,,,,,,2026-02-12,1,,,,,ベビーフォトベース,0
1958,8010801037042,新規,0,2026-02-12,2026-02-12,Ｒファミリー株式会社,,株式会社,東京都,大田区,田園調布１丁目６２番８号,,13,111,1450071,,,,,,,2026-02-12,1,,,,,アールファミリー,0
1960,8010903010616,新規,0,2026-02-12,2026-02-12,合同会社ウルシザキ,,合同会社,東京都,世田谷区,三宿１丁目２３番１号,,13,112,1540005,,,,,,,2026-02-12,1,,,,,ウルシザキ,0
1961,8010903010624,新規,0,2026-02-12,2026-02-12,合同会社ＹＵＴＡＫＡ,,合同会社,東京都,世田谷区,中町１丁目１６番７－３０２号,,13,112,1580091,,,,,,,2026-02-12,1,,,,,ユタカ,0
1962,8010905004896,新規,0,2026-02-12,2026-02-12,一般社団法人ｈｉｂｉｋｉ,,その他の設立登記法人,東京都,世田谷区,下馬４丁目１６番１７号,,13,112,1540002,,,,,,,2026-02-12,1,,,,,ヒビキ,0
1969,8011001175260,新規,0,2026-02-12,2026-02-12,株式会社Ｐａｔｈｏｒａ,,株式会社,東京都,渋谷区,道玄坂１丁目１０番８号渋谷道玄坂東急ビル２Ｆ－Ｃ,,13,113,1500043,,,,,,,2026-02-12,1,,,,,パソラ,0
1970,8011001175368,新規,0,2026-02-12,2026-02-12,ＤＡＦＡＮＥＷ　ＪＡＰＡＮ株式会社,,株式会社,東京都,渋谷区,神宮前５丁目７番１５号,,13,113,1500001,,,,,,,2026-02-12,1,,,,,デファニュージャパン,0
1971,8011001175450,新規,0,2026-02-12,2026-02-12,株式会社ＬＩＶＥＮＴ,,株式会社,東京都,渋谷区,道玄坂１丁目１０番８号渋谷道玄坂東急ビル２Ｆ－Ｃ,,13,113,1500043,,,,,,,2026-02-12,1,,,,,リベント,0
1972,8011003023525,新規,0,2026-02-12,2026-02-12,ＣＯＡＣＨＬＹ合同会社,,合同会社,東京都,渋谷区,神南１丁目１１－４ＦＰＧリンクス神南５階,,13,113,1500041,,,,,,,2026-02-12,1,,,,,コーチリー,0
1975,8011105011717,新規,0,2026-02-12,2026-02-12,一般社団法人ＳＰＶ１７,,その他の設立登記法人,東京都,新宿区,富久町８番２６号東京ユナイテッド綜合事務所内,,13,104,1620067,,,,,,,2026-02-12,1,,,,,エスピーブイジュウナナ,0
1978,8011401027788,新規,0,2026-02-12,2026-02-12,株式会社ＫＥＹＴＵＳ,,株式会社,東京都,板橋区,高島平１丁目７２番８号,,13,119,1750082,,,,,,,2026-02-12,1,,,,,キータス,0
1981,8011403005032,新規,0,2026-02-12,2026-02-12,合同会社ＯＮＯ　Ｃｏｎｓｕｌｔｉｎｇ,,合同会社,東京都,板橋区,加賀１丁目２１番１号プラウドシティ加賀学園通り１２０１,,13,119,1730003,,,,,,,2026-02-12,1,,,,,オノコンサルティング,0
1983,8011501033083,新規,0,2026-02-12,2026-02-12,株式会社ＫＳプランニング,,株式会社,東京都,北区,豊島２丁目２３番５号倉持ビル１階,,13,117,1140003,,,,,,,2026-02-12,1,,,,,ケイエスプランニング,0
1984,8011601029378,新規,0,2026-02-12,2026-02-12,ｍｉｙａｂｉ株式会社,,株式会社,東京都,練馬区,南大泉３丁目１３－１４,,13,120,1780064,,,,,,,2026-02-12,1,,,,,ミヤビ,0
1988,8011801047436,新規,0,2026-02-12,2026-02-12,株式会社スカイソリューションズ,,株式会社,東京都,足立区,綾瀬３丁目４番２１－２００６号,,13,121,1200005,,,,,,,2026-02-12,1,,,,,スカイソリューションズ,0
1989,8011803007322,新規,0,2026-02-12,2026-02-12,Ｏｇａｓａｗａｒａ　ＩＡＭ合同会社,,合同会社,東京都,葛飾区,新宿６丁目２－１－１２０７,,13,122,1250051,,,,,,,2026-02-12,1,,,,,オガサワラアイエイエム,0
1998,8020001166979,新規,0,2026-02-12,2026-02-12,株式会社ＦｏｌｄＡｒｃ,,株式会社,神奈川県,川崎市高津区,溝口６丁目５番２８－４０３号リヴィエール９９３,,14,134,2130001,,,,,,,2026-02-12,1,,,,,フォールドアーク,0
1999,8020003030349,新規,0,2026-02-12,2026-02-12,合同会社シギヤシャ,,合同会社,神奈川県,横浜市神奈川区,栄町１０番地３５ザ・ヨコハマタワーズＥ３５０３号,,14,102,2210052,,,,,,,2026-02-12,1,,,,,シギヤシャ,0
2000,8021001087505,新規,0,2026-02-12,2026-02-12,ＡＴアセットマネジメント株式会社,,株式会社,神奈川県,厚木市,栄町１丁目６－１０ヴィラデルソーレ栄６０５,,14,212,2430017,,,,,,,2026-02-12,1,,,,,エーティーアセットマネジメント,0
2001,8021001087521,新規,0,2026-02-12,2026-02-12,株式会社メディ・Ｋ,,株式会社,神奈川県,藤沢市,鵠沼石上１丁目５―９メガサンエスビル６階,,14,205,2510025,,,,,,,2026-02-12,1,,,,,メディケー,0
2007,8030001170939,新規,0,2026-02-12,2026-02-12,株式会社ＬＥＡＤＲＩＳＥ,,株式会社,埼玉県,川口市,幸町２丁目７番２６号シミズビル,,11,203,3320016,,,,,,,2026-02-12,1,,,,,リードライズ,0
2008,8030001170971,新規,0,2026-02-12,2026-02-12,株式会社ワンエイト,,株式会社,埼玉県,越谷市,レイクタウン８丁目８番地４３５号,,11,222,3430828,,,,,,,2026-02-12,1,,,,,ワンエイト,0
2009,8030001170988,新規,0,2026-02-12,2026-02-12,ＴＥＭＡＲＥＤ　ＪＡＰＡＮ株式会社,,株式会社,埼玉県,北葛飾郡松伏町,大字築比地３３０番地２９,,11,465,3430102,,,,,,,2026-02-12,1,,,,,タマレッドジャパン,0
2017,8030003028623,新規,0,2026-02-12,2026-02-12,合同会社ＳＩＮＣＥＲＥ,,合同会社,埼玉県,草加市,北谷３丁目１０番１８号,,11,221,3400046,,,,,,,2026-02-12,1,,,,,サンセール,0
2018,8030003028631,新規,0,2026-02-12,2026-02-12,ＢＳ　ｐｉｎｋ　ｒｉｂｂｏｎ　ｐｒｏｐｅｒｔｙ合同会社,,合同会社,埼玉県,さいたま市緑区,大字下野田４８０番地１０３,,11,109,3360962,,,,,,,2026-02-12,1,,,,,ビーエスピンクリボンプロパティ,0
2019,8030003028648,新規,0,2026-02-12,2026-02-12,合同会社スマイル企画,,合同会社,埼玉県,三郷市,高州２丁目３７０番地１サンクレイドル三郷公園６０１号,,11,237,3410037,,,,,,,2026-02-12,1,,,,,スマイルキカク,0
2024,8040001142441,新規,0,2026-02-12,2026-02-12,金和株式会社,,株式会社,千葉県,船橋市,前原西３丁目２６－４ｅｐガーデン津田沼１０２号,,12,204,2740825,,,,,,,2026-02-12,1,,,,,ナカワ,0
2027,8040003029406,新規,0,2026-02-12,2026-02-12,ＬＵＸＩＯＮ合同会社,,合同会社,千葉県,松戸市,緑ケ丘２丁目３２１番地の１ＬＵＸＩＯＮ上本郷１０１号,,12,207,2710074,,,,,,,2026-02-12,1,,,,,リュクシオン,0
2028,8040003029439,新規,0,2026-02-12,2026-02-12,ＯＵＫＡＮ合同会社,,合同会社,千葉県,木更津市,太田１丁目７番１６号,,12,206,2920044,,,,,,,2026-02-12,1,,,,,オウカン,0
2029,8040003029455,新規,0,2026-02-12,2026-02-12,中山合同会社,,合同会社,千葉県,市川市,宮久保１丁目１８番２号,,12,203,2720822,,,,,,,2026-02-12,1,,,,,ナカヤマ,0
2030,8040005023035,新規,0,2026-02-12,2026-02-12,医療法人社団海和会,,その他の設立登記法人,千葉県,流山市,おおたかの森西１丁目３番地１おおたかプラザビル３階３０１号,,12,220,2700128,,,,,,,2026-02-12,1,,,,,カイワカイ,0
2036,8050003009919,新規,0,2026-02-12,2026-02-12,合同会社あぶらや,,合同会社,茨城県,つくばみらい市,伊奈東３３‐２９６,,08,235,3002308,,,,,,,2026-02-12,1,,,,,アブラヤ,0
2037,8050003009935,新規,0,2026-02-12,2026-02-12,合同会社エルフォルクス,,合同会社,茨城県,守谷市,ひがし野３丁目２３番地１１,,08,224,3020131,,,,,,,2026-02-12,1,,,,,エルフォルクス,0
2042,8080101026078,新規,0,2026-02-12,2026-02-12,イハラホールディングス株式会社,,株式会社,静岡県,富士市,中之郷３４０９番地の１,,22,210,4213306,,,,,,,2026-02-12,1,,,,,イハラホールディングス,0
2045,8080401028435,新規,0,2026-02-12,2026-02-12,株式会社ｍｉｒａｃｏｒｏ,,株式会社,静岡県,浜松市中央区,天龍川町５４５番３０号ブライトタウン天竜川駅前フレシアＩタイプ８０９号室,,22,138,4350013,,,,,,,2026-02-12,1,,,,,ミラコロ,0
2051,8110003006059,新規,0,2026-02-12,2026-02-12,Ｓｎｏｗｍｏｔｔｏ合同会社,,合同会社,新潟県,南魚沼郡湯沢町,大字土樽１７５番地１－４０９号ホワイトプラザ湯沢１号館,,15,461,9496103,,,,,,,2026-02-12,1,,,,,スノーモット,0
2062,8120001283558,新規,0,2026-02-12,2026-02-12,Ｅ５株式会社,,株式会社,大阪府,大阪市西区,北堀江１丁目６番２号サンワールドビル,,27,106,5500014,,,,,,,2026-02-12,1,,,,,イーファイブ,0
2063,8120001283954,新規,0,2026-02-12,2026-02-12,株式会社Ｃｌｕｔｃｈ,,株式会社,大阪府,大阪市西区,西本町１丁目１３番３９－６０６号,,27,106,5500005,,,,,,,2026-02-12,1,,,,,クラッチ,0
2064,8120001284011,新規,0,2026-02-12,2026-02-12,株式会社ＦｏｏｄＬｉｎｋ,,株式会社,大阪府,大阪市北区,梅田１丁目２番２号大阪駅前第２ビル１２－１２,,27,127,5300001,,,,,,,2026-02-12,1,,,,,フードリンク,0
2065,8120001284052,新規,0,2026-02-12,2026-02-12,Ｌｉｎｋ　ｕｒｏｏｍ株式会社,,株式会社,大阪府,大阪市西区,西本町２丁目３－６－８Ｆ,,27,106,5500005,,,,,,,2026-02-12,1,,,,,リンクユルーム,0
2066,8120001284143,新規,0,2026-02-12,2026-02-12,株式会社仁,,株式会社,大阪府,大阪市北区,西天満６丁目９番２１号タイガービル２階,,27,127,5300047,,,,,,,2026-02-12,1,,,,,ジン,0
2070,8120005025411,新規,0,2026-02-12,2026-02-12,社会保険労務士法人ＦＡ　ｆｉｒｍ,,その他の設立登記法人,大阪府,大阪市中央区,平野町１丁目６番８号メロディハイム平野町,,27,128,5410046,,,,,,,2026-02-12,1,,,,,エフエーファーム,0
2087,8140001141689,新規,0,2026-02-12,2026-02-12,株式会社サーキュレーション,,株式会社,兵庫県,西宮市,門前町２番３１－２０８号,,28,204,6638013,,,,,,,2026-02-12,1,,,,,サーキュレーション,0
2088,8140001141706,新規,0,2026-02-12,2026-02-12,株式会社ＴＥＲＡＬＥＣＴ不動産,,株式会社,兵庫県,宝塚市,中筋山手７丁目１８番８号,,28,214,6650875,,,,,,,2026-02-12,1,,,,,テラレクトフドウサン,0
2092,8140003023183,新規,0,2026-02-12,2026-02-12,合同会社竹森商会,,合同会社,兵庫県,神戸市長田区,丸山町３丁目２番５８－１０２号,,28,106,6530875,,,,,,,2026-02-12,1,,,,,タケモリショウカイ,0
2093,8140003023191,新規,0,2026-02-12,2026-02-12,合同会社Ｍｉｔｏｒａｓ,,合同会社,兵庫県,神戸市須磨区,桜の杜１丁目８番１－５０８号,,28,107,6540114,,,,,,,2026-02-12,1,,,,,ミトラス,0
2097,8180001170593,新規,0,2026-02-12,2026-02-12,株式会社三枝内装,,株式会社,愛知県,名古屋市西区,大野木５丁目２３１番地の５,,23,104,4520803,,,,,,,2026-02-12,1,,,,,ミツエダナイソウ,0
2098,8180001170602,新規,0,2026-02-12,2026-02-12,株式会社ＯＧ‐ＩＮＫ,,株式会社,愛知県,丹羽郡扶桑町,大字高雄字北郷１０４番地１,,23,362,4800102,,,,,,,2026-02-12,1,,,,,オガインク,0
2099,8180001170627,新規,0,2026-02-12,2026-02-12,株式会社ごきげんよう,,株式会社,愛知県,一宮市,西中野字沼境３８１番地６,,23,203,4940015,,,,,,,2026-02-12,1,,,,,ゴキゲンヨウ,0
2100,8180001170635,新規,0,2026-02-12,2026-02-12,株式会社Ｍａｊｉｋａｒｕ,,株式会社,愛知県,海部郡蟹江町,本町５丁目１００番地,,23,425,4970034,,,,,,,2026-02-12,1,,,,,マジカル,0
2101,8180001170643,新規,0,2026-02-12,2026-02-12,株式会社ＭＫＳ電設,,株式会社,愛知県,海部郡大治町,大字三本木字柳原５３番地,,23,424,4901142,,,,,,,2026-02-12,1,,,,,エムケーエスデンセツ,0
2102,8180003029763,新規,0,2026-02-12,2026-02-12,合同会社ＲＥＭＡＪＵ,,合同会社,愛知県,半田市,星崎町２丁目５６番地,,23,205,4750911,,,,,,,2026-02-12,1,,,,,リマージュ,0
2105,8190001032900,新規,0,2026-02-12,2026-02-12,トーショーファーム株式会社,,株式会社,三重県,伊賀市,菖蒲池１５８２番地の２,,24,216,5181141,,,,,,,2026-02-12,1,,,,,トーショーファーム,0
2113,8230001021295,新規,0,2026-02-12,2026-02-12,株式会社ｋｎｏｔ,,株式会社,富山県,富山市,桜町１丁目６番４号,,16,201,9300003,,,,,,,2026-02-12,1,,,,,ノット,0
2121,8240003007589,新規,0,2026-02-12,2026-02-12,合同会社キッチンベビードラゴン,,合同会社,広島県,広島市中区,中町１番１３号,,34,101,7300037,,,,,,,2026-02-12,1,,,,,キッチンベビードラゴン,0
2128,8290001113087,新規,0,2026-02-12,2026-02-12,株式会社ＢＵＺＺ　ＡＧＥＮＣＹ,,株式会社,福岡県,福岡市城南区,神松寺２丁目１０番３０号神天神ビル１０６号,,40,136,8140121,,,,,,,2026-02-12,1,,,,,バズエイジェンシー,0
2129,8290001113120,新規,0,2026-02-12,2026-02-12,株式会社テクネクト,,株式会社,福岡県,福岡市博多区,東比恵４丁目３番８号,,40,132,8120007,,,,,,,2026-02-12,1,,,,,テクネクト,0
2130,8290001113129,新規,0,2026-02-12,2026-02-12,ファシリティコンサルタント株式会社,,株式会社,福岡県,久留米市,東櫛原町２８７４番地９友愛ビル２０３号室,,40,203,8300003,,,,,,,2026-02-12,1,,,,,,0
2133,8290003018045,新規,0,2026-02-12,2026-02-12,アンフォラ合同会社,,合同会社,福岡県,福岡市南区,野間１丁目２番１３号１０４号室,,40,134,8150041,,,,,,,2026-02-12,1,,,,,アンフォラ,0
2134,8290801032247,新規,0,2026-02-12,2026-02-12,日本電気株式会社,,株式会社,福岡県,北九州市小倉南区,西貫１丁目４番２１号,,40,107,8000243,,,,,,,2026-02-12,1,,,,,ニホンデンキ,0
2135,8310001019959,新規,0,2026-02-12,2026-02-12,オルタナティブミュージックスクール株式会社,,株式会社,長崎県,諫早市,城見町１９番２４－１００１号ＴＡＳ２０００,,42,204,8540005,,,,,,,2026-02-12,1,,,,,オルタナティブミュージックスクール,0
2139,8320003004900,新規,0,2026-02-12,2026-02-12,合同会社リッツ,,合同会社,大分県,大分市,六坊北町５番１６号,,44,201,8700841,,,,,,,2026-02-12,1,,,,,リッツ,0
2142,8330001033974,新規,0,2026-02-12,2026-02-12,株式会社藤本産業,,株式会社,熊本県,阿蘇郡西原村,大字布田１０３４番地４,,43,432,8612403,,,,,,,2026-02-12,1,,,,,フジモトサンギョウ,0
2143,8330001033990,新規,0,2026-02-12,2026-02-12,株式会社ユニオンライズ,,株式会社,熊本県,熊本市中央区,新大江３丁目８番８号新大江ハイデンス３０５号,,43,101,8620972,,,,,,,2026-02-12,1,,,,,ユニオンライズ,0
2147,8350003005136,新規,0,2026-02-12,2026-02-12,都城丸谷蓄電池合同会社,,合同会社,宮崎県,都城市,前田町７街区２０号,,45,202,8850025,,,,,,,2026-02-12,1,,,,,ミヤコノジョウマルタニチクデンチ,0
2151,8360003015613,新規,0,2026-02-12,2026-02-12,合同会社ニナスワークス,,合同会社,沖縄県,宮古島市,平良字西里１０３４番地１０,,47,214,9060012,,,,,,,2026-02-12,1,,,,,ニナスワークス,0
2162,8380001035875,新規,0,2026-02-12,2026-02-12,株式会社エムケー企画,,株式会社,福島県,河沼郡湯川村,大字桜町字高橋甲４６７番地３,,07,422,9693545,,,,,,,2026-02-12,1,,,,,エムケーキカク,0
2170,8430003018591,新規,0,2026-02-12,2026-02-12,合同会社スタジオアンドテン,,合同会社,北海道,札幌市白石区,菊水元町五条２丁目２番２０号インタービル３Ｆ,,01,104,0030825,,,,,,,2026-02-12,1,,,,,スタジオアンドテン,0
2176,8470001021081,新規,0,2026-02-12,2026-02-12,株式会社ミライリンク,,株式会社,香川県,さぬき市,志度４１６７番地１,,37,206,7692101,,,,,,,2026-02-12,1,,,,,,0
2178,8500001026779,新規,0,2026-02-12,2026-02-12,株式会社縁,,株式会社,愛媛県,松山市,湊町３丁目８番１６号土居ビル１Ｆ,,38,201,7900012,,,,,,,2026-02-12,1,,,,,ユアン,0
2186,9010001262596,新規,0,2026-02-12,2026-02-12,株式会社ＺＥＮ　ＢＥＡＵＴＹ,,株式会社,東京都,中央区,築地２丁目７－１２,,13,102,1040045,,,,,,,2026-02-12,1,,,,,ゼンビューティー,0
2187,9010001262720,新規,0,2026-02-12,2026-02-12,ＪＰＡ第３８６号株式会社,,株式会社,東京都,千代田区,霞が関３丁目２番１号,,13,101,1000013,,,,,,,2026-02-12,1,,,,,ジェイピーエーダイサンビャクハチジュウロクゴウ,0
2188,9010001262729,新規,0,2026-02-12,2026-02-12,ＪＰＡ第３９５号株式会社,,株式会社,東京都,千代田区,霞が関３丁目２番１号,,13,101,1000013,,,,,,,2026-02-12,1,,,,,ジェイピーエーダイサンビャクキュウジュウゴゴウ,0
2191,9010003050264,新規,0,2026-02-12,2026-02-12,合同会社Ｅｉｖｒａｄ,,合同会社,東京都,中央区,日本橋２丁目１６－４ｒｅｍｉｘ日本橋６階,,13,102,1030027,,,,,,,2026-02-12,1,,,,,エイヴラド,0
2192,9010003050339,新規,0,2026-02-12,2026-02-12,合同会社新横プロパティ２,,合同会社,東京都,中央区,日本橋１丁目４番１号,,13,102,1030027,,,,,,,2026-02-12,1,,,,,シンヨコプロパティツー,0
2193,9010003050347,新規,0,2026-02-12,2026-02-12,ＣＲＹＳＴＡＬ１合同会社,,合同会社,東京都,中央区,日本橋１丁目４番１号日本橋一丁目ビルディング,,13,102,1030027,,,,,,,2026-02-12,1,,,,,クリスタルワン,0
2194,9010003050371,新規,0,2026-02-12,2026-02-12,トリピックエムエー合同会社,,合同会社,東京都,千代田区,丸の内１丁目４番１号東京共同会計事務所内,,13,101,1000005,,,,,,,2026-02-12,1,,,,,トリピックエムエー,0
2195,9010005041360,新規,0,2026-02-12,2026-02-12,一般社団法人ＭＥＸ蓄電ＰＪホールディングス,,その他の設立登記法人,東京都,千代田区,神田神保町２丁目４８番地３５１０ビル２０２ＤＸデザイン会計事務所内,,13,101,1010051,,,,,,,2026-02-12,1,,,,,メックスチクデンピージェーホールディングス,0
2199,9010401196262,新規,0,2026-02-12,2026-02-12,株式会社Ｈｉｋａｒｉ’Ｎｅ　Ｌａｂｓ,,株式会社,東京都,港区,南青山１丁目１２番地３号ＬＩＦＯＲＫ南青山ＮｏｒｔｈＢｕｉｌｄｉｎｇ２Ｆ,,13,103,1070062,,,,,,,2026-02-12,1,,,,,ヒカリネラボ,0
2200,9010401196394,新規,0,2026-02-12,2026-02-12,ネクストパートナーズ株式会社,,株式会社,東京都,港区,芝５丁目３４番２号,,13,103,1080014,,,,,,,2026-02-12,1,,,,,ネクストパートナーズ,0
2201,9010401196428,新規,0,2026-02-12,2026-02-12,ＹＮ４‐Ｎインベストメント株式会社,,株式会社,東京都,港区,赤坂９丁目７番２号ミッドタウン・イースト４階,,13,103,1070052,,,,,,,2026-02-12,1,,,,,ワイエヌフォーエヌインベストメント,0
2206,9010403037308,新規,0,2026-02-12,2026-02-12,Ｓｉｌｖｅｒｈｏｒｎ　Ｃａｐｉｔａｌ合同会社,,合同会社,東京都,港区,六本木３丁目１６番１２号六本木ＫＳビル５Ｆ,,13,103,1060032,,,,,,,2026-02-12,1,,,,,シルバーホーンキャピタル,0
2207,9010403037316,新規,0,2026-02-12,2026-02-12,合同会社Ｌｏｙａｌ,,合同会社,東京都,港区,六本木３丁目１６番１２号六本木ＫＳビル５Ｆ,,13,103,1060032,,,,,,,2026-02-12,1,,,,,ロイヤル,0
2209,9010501055442,新規,0,2026-02-12,2026-02-12,株式会社ワイエスグローバル,,株式会社,東京都,台東区,東上野５丁目２番２号,,13,106,1100015,,,,,,,2026-02-12,1,,,,,ワイエスグローバル,0
2214,9010601068724,新規,0,2026-02-12,2026-02-12,株式会社ＭＭＣホールディングス,,株式会社,東京都,墨田区,横網２丁目６番１号,,13,107,1300015,,,,,,,2026-02-12,1,,,,,エムエムシーホールディングス,0
2225,9010901058929,新規,0,2026-02-12,2026-02-12,ＺＥＮ　ＵＮＩＶＥＲＳＥ株式会社,,株式会社,東京都,世田谷区,玉川１丁目２番３号,,13,112,1580094,,,,,,,2026-02-12,1,,,,,ゼンユニバース,0
2226,9010901058937,新規,0,2026-02-12,2026-02-12,株式会社コア,,株式会社,東京都,世田谷区,世田谷２丁目２５番２号ルモンド世田谷３０７,,13,112,1540017,,,,,,,2026-02-12,1,,,,,コア,0
2227,9010901058953,新規,0,2026-02-12,2026-02-12,株式会社フリーダムスタイル,,株式会社,東京都,世田谷区,瀬田１丁目５番６号,,13,112,1580095,,,,,,,2026-02-12,1,,,,,フリーダムスタイル,0
2228,9010903010615,新規,0,2026-02-12,2026-02-12,ウルサスコミュニケーションズ合同会社,,合同会社,東京都,世田谷区,野毛１丁目５番１５号,,13,112,1580092,,,,,,,2026-02-12,1,,,,,ウルサスコミュニケーションズ,0
2229,9010905004895,新規,0,2026-02-12,2026-02-12,一般社団法人ＩＦ　Ｔｏｋｙｏ,,その他の設立登記法人,東京都,世田谷区,桜新町１丁目１６－８ＡＴビル２階,,13,112,1540015,,,,,,,2026-02-12,1,,,,,イフトウキョウ,0
2235,9011001175318,新規,0,2026-02-12,2026-02-12,株式会社ネクスト,,株式会社,東京都,渋谷区,円山町５番３号ＭＩＥＵＸ渋谷ビル８階,,13,113,1500044,,,,,,,2026-02-12,1,,,,,ネクスト,0
2236,9011001175391,新規,0,2026-02-12,2026-02-12,株式会社ヒナリオ,,株式会社,東京都,渋谷区,恵比寿西２丁目８番４号ＥＸ恵比寿西ビル５階,,13,113,1500021,,,,,,,2026-02-12,1,,,,,ヒナリオ,0
2237,9011001175664,新規,0,2026-02-12,2026-02-12,ＥＮＲＩＸ株式会社,,株式会社,東京都,渋谷区,広尾１丁目２番地１号ヒカリビル４階,,13,113,1500012,,,,,,,2026-02-12,1,,,,,エンリクス,0
2240,9011003023508,新規,0,2026-02-12,2026-02-12,合同会社ＮＯＲＭ　Ｗｏｒｋ,,合同会社,東京都,渋谷区,代官山町４－１代官山マンション２０９,,13,113,1500034,,,,,,,2026-02-12,1,,,,,ノームワーク,0
2241,9011003023524,新規,0,2026-02-12,2026-02-12,合同会社Ｓｏｔｔｏ,,合同会社,東京都,目黒区,目黒本町５丁目３３－４,,13,110,1520002,,,,,,,2026-02-12,1,,,,,ソット,0
2246,9011101114712,新規,0,2026-02-12,2026-02-12,株式会社Ｈａｒｕ　Ｃｏｒｐｏｒａｔｉｏｎ,,株式会社,東京都,新宿区,住吉町２番１０号ソフィアＭ７階,,13,104,1620065,,,,,,,2026-02-12,1,,,,,ハルコーポレーション,0
2247,9011101114729,新規,0,2026-02-12,2026-02-12,Ｊ１ビジネスソリューションズ株式会社,,株式会社,東京都,新宿区,西新宿６丁目５番１号新宿アイランドタワー２階,,13,104,1600023,,,,,,,2026-02-12,1,,,,,,0
2248,9011101114794,新規,0,2026-02-12,2026-02-12,株式会社ＳＨＩＮＳＥＩＤＯ,,株式会社,東京都,新宿区,榎町３５番地三四郎ビル２Ｆ,,13,104,1620806,,,,,,,2026-02-12,1,,,,,シンセイドウ,0
2251,9011401027795,新規,0,2026-02-12,2026-02-12,ＳＨＩＹＡ株式会社,,株式会社,東京都,板橋区,成増４丁目２４番３７号,,13,119,1750094,,,,,,,2026-02-12,1,,,,,シヤ,0
2253,9011403005031,新規,0,2026-02-12,2026-02-12,合同会社フリーワーク,,合同会社,東京都,板橋区,小茂根１丁目１０－１４－１０２,,13,119,1730037,,,,,,,2026-02-12,1,,,,,フリーワーク,0
2256,9011503006862,新規,0,2026-02-12,2026-02-12,合同会社スターフォート,,合同会社,東京都,北区,赤羽１丁目７番９号,,13,117,1150045,,,,,,,2026-02-12,1,,,,,スターフォート,0
2259,9011601029369,新規,0,2026-02-12,2026-02-12,株式会社昇挑,,株式会社,東京都,練馬区,田柄１丁目２０番２８号,,13,120,1790073,,,,,,,2026-02-12,1,,,,,ショウチョウ,0
2260,9011603005005,新規,0,2026-02-12,2026-02-12,合同会社レインボー,,合同会社,東京都,練馬区,高松１丁目３８番２５号,,13,120,1790075,,,,,,,2026-02-12,1,,,,,レインボー,0
2261,9012401044112,新規,0,2026-02-12,2026-02-12,株式会社美樹,,株式会社,東京都,稲城市,大丸１３９番地の４稲城ハイコーポ６１７号,,13,225,2060801,,,,,,,2026-02-12,1,,,,,ビジュ,0
2262,9012403007612,新規,0,2026-02-12,2026-02-12,合同会社みどり,,合同会社,東京都,府中市,緑町３丁目５番地の７,,13,206,1830006,,,,,,,2026-02-12,1,,,,,ミドリ,0
2265,9013301055728,新規,0,2026-02-12,2026-02-12,隆達商事株式会社,,株式会社,東京都,豊島区,西巣鴨１丁目２－２２ＷＡＮＤＡビル,,13,116,1700001,,,,,,,2026-02-12,1,,,,,リュウタツショウジ,0
2272,9021001087272,新規,0,2026-02-12,2026-02-12,株式会社Ｌｉｖｅｌｙ　Ｐｌａｃｅ,,株式会社,神奈川県,三浦郡葉山町,木古庭１３８４番,,14,301,2400114,,,,,,,2026-02-12,1,,,,,ライブリープレイス,0
2279,9030001170921,新規,0,2026-02-12,2026-02-12,Ｃａｒｅ　Ｎｏａｈ株式会社,,株式会社,埼玉県,三郷市,彦川戸１丁目２４番地１ＭＣ－Ｂａｓｅ１階,,11,237,3410005,,,,,,,2026-02-12,1,,,,,カレノア,0
2280,9030001170938,新規,0,2026-02-12,2026-02-12,株式会社アライアンス,,株式会社,埼玉県,さいたま市大宮区,桜木町２丁目６番１号武田ビル６階,,11,103,3300854,,,,,,,2026-02-12,1,,,,,アライアンス,0
2281,9030001170946,新規,0,2026-02-12,2026-02-12,株式会社ティアテラ,,株式会社,埼玉県,川越市,脇田本町５番地５,,11,201,3501123,,,,,,,2026-02-12,1,,,,,ティアテラ,0
2282,9030001170987,新規,0,2026-02-12,2026-02-12,株式会社Ｎｉｎｅ　Ｈｏｒｓｅ,,株式会社,埼玉県,川口市,東川口６丁目１０番１号,,11,203,3330801,,,,,,,2026-02-12,1,,,,,ナインホース,0
2285,9030003028622,新規,0,2026-02-12,2026-02-12,合同会社パーシモンアセットマネジメント,,合同会社,埼玉県,さいたま市西区,西大宮１丁目１４番地６,,11,101,3310078,,,,,,,2026-02-12,1,,,,,パーシモンアセットマネジメント,0
2286,9030003028630,新規,0,2026-02-12,2026-02-12,合同会社にじたま,,合同会社,埼玉県,さいたま市北区,土呂町２丁目１０２番地５ヴューリバー２０５,,11,102,3310804,,,,,,,2026-02-12,1,,,,,ニジタマ,0
2287,9030003028647,新規,0,2026-02-12,2026-02-12,合同会社大江戸企業,,合同会社,埼玉県,三郷市,早稲田１丁目９番地１３グリーンマンションＡ２０５号,,11,237,3410018,,,,,,,2026-02-12,1,,,,,オオエドキギョウ,0
2289,9040001142234,新規,0,2026-02-12,2026-02-12,グローバルトレードリンク株式会社,,株式会社,千葉県,市川市,原木３０３０番地,,12,203,2720004,,,,,,,2026-02-12,1,,,,,グローバルトレードリンク,0
2290,9040001142440,新規,0,2026-02-12,2026-02-12,株式会社Ｐｒｅｖｅｎｔｉａ,,株式会社,千葉県,柏市,若柴１７８番地４柏の葉キャンパス１４８街区２ショップ＆オフィス棟６Ｆ,,12,217,2770871,,,,,,,2026-02-12,1,,,,,プリベンティア,0
2291,9040001142449,新規,0,2026-02-12,2026-02-12,株式会社ＫＭ．ｗｏｒｋｓ,,株式会社,千葉県,君津市,外箕輪１丁目２０番７号,,12,225,2991173,,,,,,,2026-02-12,1,,,,,ケーエムワークス,0
2292,9040001142507,新規,0,2026-02-12,2026-02-12,株式会社エイドビジョン,,株式会社,千葉県,浦安市,美浜１丁目１－８０１,,12,227,2790011,,,,,,,2026-02-12,1,,,,,エイドビジョン,0
2294,9040002105512,新規,0,2026-02-12,2026-02-12,有限会社タカヤマ商会,,有限会社,千葉県,市原市,八幡石塚１丁目１２番地の２５,,12,219,2900061,,,,,,,2026-02-12,1,,,,,タカヤマショウカイ,0
2295,9040003029438,新規,0,2026-02-12,2026-02-12,合同会社染谷,,合同会社,千葉県,野田市,清水公園東２丁目２１番地の１６,,12,208,2780047,,,,,,,2026-02-12,1,,,,,ソメヤ,0
2296,9040003029446,新規,0,2026-02-12,2026-02-12,合同会社都市と住まいの再生ラボ,,合同会社,千葉県,松戸市,松戸１３０７番地の１松戸ビル１３階,,12,207,2710092,,,,,,,2026-02-12,1,,,,,トシトスマイノサイセイラボ,0
2297,9040003029487,新規,0,2026-02-12,2026-02-12,合同会社Ｙ．Ｔ．Ｍａｎａｇｅｍｅｎｔ,,合同会社,千葉県,市川市,菅野１丁目２１番２０号,,12,203,2720824,,,,,,,2026-02-12,1,,,,,ワイティマネジメント,0
2300,9050001057976,新規,0,2026-02-12,2026-02-12,株式会社シフトリンク,,株式会社,茨城県,水戸市,住吉町２９３―５,,08,201,3100844,,,,,,,2026-02-12,1,,,,,シフトリンク,0
2307,9070003006293,新規,0,2026-02-12,2026-02-12,合同会社Ｌｉｎｋ,,合同会社,群馬県,高崎市,片岡町３丁目１番２０号プレステージ３０６号,,10,202,3700862,,,,,,,2026-02-12,1,,,,,リンク,0
2308,9070005010467,新規,0,2026-02-12,2026-02-12,一般社団法人日本そふと競馬会,,その他の設立登記法人,群馬県,前橋市,南町３丁目５０番地２プラザアン２階Ｄ－３９,,10,201,3710805,,,,,,,2026-02-12,1,,,,,ニホンソフトケイバカイ,0
2309,9080001027423,新規,0,2026-02-12,2026-02-12,株式会社中野工業,,株式会社,静岡県,焼津市,駅北２丁目１７番１‐８０３号エンブルシティ焼津,,22,212,4250028,,,,,,,2026-02-12,1,,,,,ナカノコウギョウ,0
2313,9110001039893,新規,0,2026-02-12,2026-02-12,Ｏヰ建築研究所株式会社,,株式会社,新潟県,佐渡市,浜田１９２,,15,224,9520007,,,,,,,2026-02-12,1,,,,,マルイケンチクケンキュウジョ,0
2325,9120001284019,新規,0,2026-02-12,2026-02-12,レミナス株式会社,,株式会社,大阪府,大阪市都島区,内代町２丁目１６番４号プレサンス野江内代ペルティエ８０４号室,,27,102,5340013,,,,,,,2026-02-12,1,,,,,レミナス,0
2326,9120001284051,新規,0,2026-02-12,2026-02-12,大通株式会社,,株式会社,大阪府,大阪市中央区,道頓堀１丁目３番２４号,,27,128,5420071,,,,,,,2026-02-12,1,,,,,ダイツウ,0
2327,9120001284092,新規,0,2026-02-12,2026-02-12,株式会社三伸ウェルネス,,株式会社,大阪府,大阪市中央区,谷町９丁目２番２号４０１,,27,128,5420012,,,,,,,2026-02-12,1,,,,,サンシンウェルネス,0
2328,9120001284126,新規,0,2026-02-12,2026-02-12,株式会社Ｏｎｅ　Ｗｏｒｌｄ　Ｓａｆｅｔｙ　Ｊａｐａｎ,,株式会社,大阪府,大阪市住之江区,南港中４丁目７番２２－１０６号,,27,125,5590033,,,,,,,2026-02-12,1,,,,,ワンワールドセーフティジャパン,0
2333,9120003031880,新規,0,2026-02-12,2026-02-12,合同会社Ｂｌｏｏｍ　ｃａｒｅ,,合同会社,大阪府,大阪市城東区,鴫野東１丁目１番１３号,,27,118,5360013,,,,,,,2026-02-12,1,,,,,ブルームケア,0
2334,9120003031889,新規,0,2026-02-12,2026-02-12,合同会社Ｌｉｆｅ＆Ｍｉｎｄ,,合同会社,大阪府,大阪市住吉区,我孫子東１丁目２番３号,,27,120,5580013,,,,,,,2026-02-12,1,,,,,ライフアンドマインド,0
2336,9120101073214,新規,0,2026-02-12,2026-02-12,ゴボテック株式会社,,株式会社,大阪府,堺市西区,上野芝町７－８－３４,,27,144,5938311,,,,,,,2026-02-12,1,,,,,ゴボテック,0
2338,9122001040194,新規,0,2026-02-12,2026-02-12,ＳＨＯＹＯ株式会社,,株式会社,大阪府,八尾市,宮町５丁目１番４９号,,27,212,5810815,,,,,,,2026-02-12,1,,,,,ショーヨー,0
2348,9140001141696,新規,0,2026-02-12,2026-02-12,株式会社Ｈ２カンパニー,,株式会社,兵庫県,尼崎市,東園田町９丁目２１－１３,,28,202,6610953,,,,,,,2026-02-12,1,,,,,エイチツーカンパニー,0
2351,9140003023190,新規,0,2026-02-12,2026-02-12,Ｕｐｄｒａｆｔ合同会社,,合同会社,兵庫県,神戸市中央区,脇浜町３丁目２番１６号,,28,110,6510072,,,,,,,2026-02-12,1,,,,,アップドラフト,0
2356,9180001170584,新規,0,2026-02-12,2026-02-12,優紀貿易株式会社,,株式会社,愛知県,大府市,宮内町６丁目１１３号,,23,223,4740047,,,,,,,2026-02-12,1,,,,,ユウキボウエキ,0
2357,9180001170634,新規,0,2026-02-12,2026-02-12,株式会社Ｌｉｒｕｎ,,株式会社,愛知県,名古屋市中区,丸の内２丁目１３番１６－２号プレサンスグラン丸の内５０５,,23,106,4600002,,,,,,,2026-02-12,1,,,,,リルン,0
2358,9180003029713,新規,0,2026-02-12,2026-02-12,ビジネス支援＆ＦＰコンサルティング合同会社,,合同会社,愛知県,名古屋市中村区,名駅４丁目２４番５号第２森ビル４０１,,23,105,4500002,,,,,,,2026-02-12,1,,,,,ビジネスシエンアンドエフピーコンサルティング,0
2363,9180301040693,新規,0,2026-02-12,2026-02-12,株式会社ビレッジホールディングス,,株式会社,愛知県,安城市,三河安城本町２丁目７番地１３,,23,212,4460059,,,,,,,2026-02-12,1,,,,,ビレッジホールディングス,0
2365,9190001032899,新規,0,2026-02-12,2026-02-12,株式会社英興,,株式会社,三重県,鈴鹿市,上箕田１丁目１７番２号,,24,207,5130056,,,,,,,2026-02-12,1,,,,,ヒデコウ,0
2369,9200001044703,新規,0,2026-02-12,2026-02-12,株式会社ＡＮＤＳＹＮＣ,,株式会社,岐阜県,各務原市,三井町３丁目１１０,,21,213,5040941,,,,,,,2026-02-12,1,,,,,アンドシンク,0
2371,9210001020496,新規,0,2026-02-12,2026-02-12,株式会社Ｕ．Ｍｃｏｎｎｅｃｔｉｏｎ,,株式会社,福井県,福井市,浅水町第１２７号１２番地,,18,201,9188181,,,,,,,2026-02-12,1,,,,,ユーエムコネクション,0
2372,9240001066165,新規,0,2026-02-12,2026-02-12,株式会社Ｙ’ｓパートナー,,株式会社,広島県,東広島市,西条岡町４番２号,,34,212,7390016,,,,,,,2026-02-12,1,,,,,ワイズパートナー,0
2374,9240003007596,新規,0,2026-02-12,2026-02-12,Ｂｒｉｇｈｔ　Ｌｕｃｋ合同会社,,合同会社,広島県,広島市安佐南区,安東７丁目４番２号,,34,105,7310153,,,,,,,2026-02-12,1,,,,,ブライトラック,0
2377,9260001040985,新規,0,2026-02-12,2026-02-12,株式会社リガース,,株式会社,岡山県,岡山市東区,西大寺中野５２１番地４３,,33,103,7048191,,,,,,,2026-02-12,1,,,,,リガース,0
2384,9290001112988,新規,0,2026-02-12,2026-02-12,株式会社翠水,,株式会社,福岡県,福岡市博多区,博多駅前１丁目２３番２号ＰａｒｋＦｒｏｎｔ博多駅前１丁目５Ｆ－Ｂ,,40,132,8120011,,,,,,,2026-02-12,1,,,,,スイスイ,0
2385,9290001113029,新規,0,2026-02-12,2026-02-12,Ｆｕｊｉｂａｙａｓｈｉ　Ｆａｍｉｌｙ　Ａｓｓｅｔｓ株式会社,,株式会社,福岡県,福岡市博多区,比恵町４番２５－１００１号,,40,132,8120014,,,,,,,2026-02-12,1,,,,,フジバヤシファミリーアセッツ,0
2386,9290001113152,新規,0,2026-02-12,2026-02-12,株式会社シエル,,株式会社,福岡県,久留米市,藤光町１２７２番地３,,40,203,8300054,,,,,,,2026-02-12,1,,,,,,0
2393,9300001014506,新規,0,2026-02-12,2026-02-12,株式会社藤川豆腐,,株式会社,佐賀県,嬉野市,嬉野町大字下宿丙６４番地１,,41,209,8430301,,,,,,,2026-02-12,1,,,,,フジカワトウフ,0
2397,9320003004899,新規,0,2026-02-12,2026-02-12,合同会社シンプローブ,,合同会社,大分県,大分市,大字下郡１５５３番地の２３,,44,201,8700951,,,,,,,2026-02-12,1,,,,,シンプローブ,0
2406,9340003005094,新規,0,2026-02-12,2026-02-12,合同会社コンパッソ,,合同会社,鹿児島県,鹿児島市,小野１丁目８番３－１号,,46,201,8900021,,,,,,,2026-02-12,1,,,,,コンパッソ,0
2407,9350001019938,新規,0,2026-02-12,2026-02-12,株式会社ホワイトカンパニー,,株式会社,宮崎県,小林市,北西方３５４３番地１,,45,205,8860006,,,,,,,2026-02-12,1,,,,,ホワイトカンパニー,0
2413,9360001036370,新規,0,2026-02-12,2026-02-12,株式会社阿波根建設,,株式会社,沖縄県,宮古島市,平良字西仲宗根６９１番地７,,47,214,9060006,,,,,,,2026-02-12,1,,,,,アハネケンセツ,0
2418,9390001018259,新規,0,2026-02-12,2026-02-12,株式会社Ｌｉｆｅ　Ｓｈｉｎｅ,,株式会社,山形県,山形市,鈴川町２丁目１番１４号,,06,201,9900062,,,,,,,2026-02-12,1,,,,,ライフシャイン,0
2419,9400003003645,新規,0,2026-02-12,2026-02-12,ルイジアナ合同会社,,合同会社,岩手県,紫波郡紫波町,二日町字北七久保２３１番地２,,03,321,0283304,,,,,,,2026-02-12,1,,,,,ルイジアナ,0
2427,9420005007997,新規,0,2026-02-12,2026-02-12,一般社団法人碧のしずくと灯り,,その他の設立登記法人,青森県,十和田市,西二番町４－３十誠ビル１Ｆ,,02,206,0340082,,,,,,,2026-02-12,1,,,,,アオノシズクトアカリ,0
2437,9480001013085,新規,0,2026-02-12,2026-02-12,株式会社ＲＥＶＩＶＥ,,株式会社,徳島県,徳島市,国府町日開７２６番地の１８,,36,201,7793117,,,,,,,2026-02-12,1,,,,,,0
