sequenceNumber,corporateNumber,process,correct,updateDate,changeDate,name,nameImageId,kind,prefectureName,cityName,streetNumber,addressImageId,prefectureCode,cityCode,postCode,addressOutside,addressOutsideImageId,closeDate,closeCause,successorCorporateNumber,changeCause,assignmentDate,latest,enName,enPrefectureName,enCityName,enAddressOutside,furigana,hihyoji
2,1010001060371,登記記録の閉鎖等,0,2021-10-08,2021-10-01,株式会社菱晃,,株式会社,東京都,中央区,日本橋小網町１４番１号,,13,102,1030016,,,2021-10-01,合併による解散等,9010001116042,令和３年１０月１日東京都千代田区丸の内一丁目１番１号三菱ケミカルインフラテック株式会社（9010001116042）に合併し解散,2015-10-05,1,,,,,リョウコウ,0
7,1010001187990,登記記録の閉鎖等,0,2021-10-08,2021-09-27,Ｓｅｒｖｉｃｅ　Ｃｏｎｃｉｅｒｇｅ　Ｊａｐａｎ株式会社,,株式会社,東京都,港区,虎ノ門１丁目３番１号虎ノ門グローバルスクエア１３階アコーホテルズ内,,13,103,1050001,,,2021-09-27,清算の結了等,,,2017-11-30,1,,,,,サービスコンシェルジュジャパン,0
8,1010001209794,登記記録の閉鎖等,0,2021-10-08,2021-10-04,株式会社Ｓｈａｒｅｔｅａ　Ｊａｐａｎ,,株式会社,東京都,千代田区,丸の内２丁目１番１号,,13,101,1000005,,,2021-10-04,清算の結了等,,,2020-06-05,1,,,,,シェアティージャパン,0
19,1010102010291,登記記録の閉鎖等,0,2021-10-08,2021-10-05,有限会社日進栄商事,,有限会社,東京都,練馬区,練馬１丁目１９番８号,,13,120,1760001,,,2021-10-05,清算の結了等,,,2015-10-05,1,,,,,ニッシンエイショウジ,0
29,1010402006659,登記記録の閉鎖等,0,2021-10-08,2021-09-28,有限会社祥文堂書店,,有限会社,東京都,港区,赤坂１丁目５番１３号,,13,103,1070052,,,2021-09-28,清算の結了等,,,2015-10-05,1,,,,,ショウブンドウショテン,0
40,1010901038814,登記記録の閉鎖等,0,2021-10-08,2021-09-30,株式会社Ｒｉｏｌｌ,,株式会社,東京都,世田谷区,上馬５丁目３５番６号,,13,112,1540011,,,2021-09-30,清算の結了等,,,2016-09-21,1,,,,,リオル,0
47,1011001122178,登記記録の閉鎖等,0,2021-10-08,2021-09-21,株式会社建設テックラボ,,株式会社,東京都,渋谷区,代々木１丁目５５番１４号,,13,113,1510053,,,2021-09-21,清算の結了等,,,2018-05-11,1,,,,,ケンセツテックラボ,0
58,1011101067736,登記記録の閉鎖等,0,2021-10-08,2021-09-28,株式会社エバージーン,,株式会社,東京都,新宿区,西新宿３丁目２０番２号,,13,104,1600023,,,2021-09-28,合併による解散等,6011101023123,令和３年９月２８日東京都新宿区西新宿三丁目２０番２号株式会社エムティーアイ（6011101023123）に合併し解散,2015-10-05,1,,,,,エバージーン,0
59,1011101068387,登記記録の閉鎖等,0,2021-10-08,2021-09-28,株式会社ソニックノート,,株式会社,東京都,新宿区,西新宿３丁目２０番２号,,13,104,1600023,,,2021-09-28,合併による解散等,6011101023123,令和３年９月２８日東京都新宿区西新宿三丁目２０番２号株式会社エムティーアイ（6011101023123）に合併し解散,2015-10-05,1,,,,,ソニックノート,0
82,1012302000766,登記記録の閉鎖等,0,2021-10-08,2021-09-29,有限会社エス・アール・ケイ,,有限会社,東京都,町田市,成瀬２丁目２１番地７,,13,209,1940044,,,2021-09-29,清算の結了等,,,2015-10-05,1,,,,,エスアールケイ,0
99,1020005014488,登記記録の閉鎖等,0,2021-10-08,2021-08-25,一般社団法人Ｗｉｔｈ　Ｈｅａｒｔ,,その他の設立登記法人,神奈川県,川崎市中原区,木月２丁目２５番３７号,,14,133,2110025,,,2021-08-25,清算の結了等,,,2020-01-08,1,,,,,ウィズハート,0
115,1040001088501,登記記録の閉鎖等,0,2021-10-08,2021-10-01,株式会社はちみつ,,株式会社,千葉県,船橋市,前原東５丁目３５番２６号,,12,204,2740824,,,2021-10-01,清算の結了等,,,2015-10-05,1,,,,,ハチミツ,0
130,1060002012391,登記記録の閉鎖等,0,2021-10-08,2021-10-01,有限会社アイケー空調,,有限会社,栃木県,宇都宮市,下岡本町４０５７番地,,09,201,3291104,,,2021-10-01,清算の結了等,,,2015-10-05,1,,,,,アイケークウチョウ,0
140,1080002002878,登記記録の閉鎖等,0,2021-10-08,2021-10-05,有限会社杉山器材商会,,有限会社,静岡県,静岡市駿河区,高松２丁目２９番１６号,,22,102,4228034,,,2021-10-05,清算の結了等,,,2015-10-05,1,,,,,スギヤマキザイショウカイ,0
145,1080401004896,登記記録の閉鎖等,0,2021-10-08,2021-10-01,株式会社ホンダプリモアクール浜松,,株式会社,静岡県,浜松市北区,初生町４９４番地の３,,22,135,4338112,,,2021-10-01,合併による解散等,1080401004888,令和３年１０月１日静岡県浜松市東区和田町７３８番地株式会社ホンダクリオ東海（1080401004888）に合併し解散,2015-10-05,1,,,,,ホンダプリモアクールハママツ,0
147,1080402020447,登記記録の閉鎖等,0,2021-10-08,2021-10-01,福豊織物有限会社,,有限会社,静岡県,磐田市,豊浜１４９番地の１,,22,211,4371202,,,2021-10-01,清算の結了等,,,2015-10-05,1,,,,,フクトヨオリモノ,0
152,1090002014162,登記記録の閉鎖等,0,2021-10-08,2021-10-04,有限会社伸幸木型,,有限会社,山梨県,北杜市,小淵沢町６７１５番地,,19,209,4080044,,,2021-10-04,清算の結了等,,,2015-10-05,1,,,,,シンコウキガタ,0
171,1120001097023,登記記録の閉鎖等,0,2021-10-08,2021-09-30,日進コーヒー株式会社,,株式会社,大阪府,大阪市住之江区,北加賀屋４丁目４番２０号,,27,125,5590011,,,2021-09-30,清算の結了等,,,2021-07-16,1,,,,,,0
189,1120101035477,登記記録の閉鎖等,0,2021-10-08,2021-10-04,株式会社スギムラ産業,,株式会社,大阪府,羽曳野市,西浦３丁目１３番２６号,,27,222,5830861,,,2021-10-04,清算の結了等,,,2015-10-05,1,,,,,スギムラサンギョウ,0
197,1130001030387,登記記録の閉鎖等,0,2021-10-08,2021-10-05,株式会社東向日駅前センター,,株式会社,京都府,向日市,寺戸町飛龍１番地の３８,,26,208,6170002,,,2021-10-05,清算の結了等,,,2015-10-05,1,,,,,ヒガシムコウエキマエセンター,0
223,1180001107734,登記記録の閉鎖等,0,2021-10-08,2021-10-01,株式会社福紀商事,,株式会社,愛知県,一宮市,大和町苅安賀字杉山１７番地,,23,203,4910934,,,2021-10-01,清算の結了等,,,2015-10-05,1,,,,,,0
242,1190001016843,登記記録の閉鎖等,0,2021-10-08,2021-10-06,メイケイテクノ株式会社,,株式会社,三重県,鈴鹿市,郡山町２０１２番地の１６,,24,207,5100263,,,2021-10-06,清算の結了等,,,2015-10-05,1,,,,,メイケイテクノ,0
250,1200005008926,登記記録の閉鎖等,0,2021-10-08,2021-10-01,株式会社ＮＴＰ,,株式会社,岐阜県,中津川市,苗木４５８６番地の５０,,21,206,5080101,,,2021-10-01,合併による解散等,3200001023605,令和３年１０月１日岐阜県中津川市苗木４５８６番地の５０株式会社イワビシ（3200001023605）に合併し解散,2015-10-05,1,,,,,エヌティーピー,0
253,1210001003005,登記記録の閉鎖等,0,2021-10-08,2021-10-04,広田工業株式会社,,株式会社,福井県,福井市,和田２丁目１２１８番地,,18,201,9188238,,,2021-10-04,清算の結了等,,,2015-10-05,1,,,,,ヒロタコウギョウ,0
260,1240002030615,登記記録の閉鎖等,0,2021-10-08,2021-10-06,有限会社デンキのウメノ,,有限会社,広島県,三次市,吉舎町吉舎７３７番地の３,,34,209,7294211,,,2021-10-06,清算の結了等,,,2015-10-05,1,,,,,デンキノウメノ,0
268,1270003000309,登記記録の閉鎖等,0,2021-10-08,2021-10-05,合同会社皆生未来開発,,合同会社,鳥取県,米子市,皆生温泉４丁目２９番１０号,,31,202,6830001,,,2021-10-05,清算の結了等,,,2015-10-05,1,,,,,カイケミライカイハツ,0
271,1290001035288,登記記録の閉鎖等,0,2021-10-08,2021-09-21,株式会社オフィスサービス,,株式会社,福岡県,福岡市中央区,天神３丁目１５番２４号三天第一ビル２０５号,,40,133,8100001,,,2021-09-21,清算の結了等,,,2015-10-05,1,,,,,オフィスサービス,0
276,1290002021106,登記記録の閉鎖等,0,2021-10-08,2021-10-01,有限会社正幸商事,,有限会社,福岡県,福岡市南区,大池２丁目１７番４１号,,40,134,8150073,,,2021-10-01,合併による解散等,5290002003406,令和３年１０月１日福岡市南区大池二丁目１７番４１号株式会社福波商会（5290002003406）に合併し解散,2015-10-05,1,,,,,ショウコウショウジ,0
298,1330005001983,登記記録の閉鎖等,0,2021-10-08,2021-10-04,特定非営利活動法人しらかわアジェンダディーシー・二十一,,その他の設立登記法人,熊本県,熊本市南区,野口４丁目５番２６号,,43,104,8614137,,,2021-10-04,清算の結了等,,,2015-10-05,1,,,,,シワカワアジェンダディーシーニジュウイチ,0
308,1370001013797,登記記録の閉鎖等,0,2021-10-08,2021-09-29,株式会社Ｊ・プランニング,,株式会社,宮城県,仙台市青葉区,栗生５丁目８番１０号,,04,101,9893122,,,2021-09-29,清算の結了等,,,2015-10-05,1,,,,,,0
310,1370002014489,登記記録の閉鎖等,0,2021-10-08,2021-09-30,有限会社仙台カンテイ,,有限会社,宮城県,仙台市青葉区,二日町１３番２６－４０６号,,04,101,9800802,,,2021-09-30,清算の結了等,,,2015-10-05,1,,,,,センダイカンテイ,0
313,1390001011675,登記記録の閉鎖等,0,2021-10-08,2021-10-01,株式会社町田,,株式会社,山形県,米沢市,大町１丁目３番３２号,,06,202,9920031,,,2021-10-01,清算の結了等,,,2015-10-05,1,,,,,マチダ,0
340,1470001001627,登記記録の閉鎖等,0,2021-10-08,2021-10-06,株式会社Ｍｙ　Ｐｌｅａｓｕｒｅ,,株式会社,香川県,高松市,西町１３番２７号,,37,201,7600003,,,2021-10-06,清算の結了等,,,2015-10-05,1,,,,,マイプレジャー,0
347,1480001008778,登記記録の閉鎖等,0,2021-10-08,2021-10-01,株式会社旭野工業,,株式会社,徳島県,徳島市,川内町旭野１５６番地３,,36,201,7710101,,,2021-10-01,合併による解散等,5480001002439,令和３年１０月１日徳島市川内町旭野８５番地１９株式会社水谷産業（5480001002439）に合併し解散,2015-10-05,1,,,,,アサヒノコウギョウ,0
360,2010001177371,登記記録の閉鎖等,0,2021-10-08,2021-10-01,オカチリソース株式会社,,株式会社,東京都,中央区,日本橋小網町１２番５号,,13,102,1030016,,,2021-10-01,合併による解散等,7180001034980,令和３年１０月１日東京都中央区日本橋小網町１２番５号岡地株式会社（7180001034980）に合併し解散,2016-08-03,1,,,,,,0
362,2010002007420,登記記録の閉鎖等,0,2021-10-08,2021-09-30,有限会社飯塚酒店,00049694,有限会社,東京都,千代田区,神田神保町１丁目４０番地,,13,101,1010051,,,2021-09-30,清算の結了等,,,2015-10-05,1,,,,,イイヅカサケテン,0
374,2010401099604,登記記録の閉鎖等,0,2021-10-08,2021-09-27,株式会社ティーエムアール,,株式会社,東京都,港区,南麻布４丁目１２番２５号,,13,103,1060047,,,2021-09-27,清算の結了等,,,2015-10-05,1,,,,,ティーエムアール,0
384,2010501007623,登記記録の閉鎖等,0,2021-10-08,2021-09-30,株式会社宝島,,株式会社,東京都,台東区,上野３丁目２１番１０号,,13,106,1100005,,,2021-09-30,清算の結了等,,,2015-10-05,1,,,,,タカラジマ,0
386,2010601039178,登記記録の閉鎖等,0,2021-10-08,2021-09-30,株式会社ＢＯＡ,,株式会社,東京都,千代田区,九段南１丁目５－６りそな九段ビル５階,,13,101,1020074,,,2021-09-30,清算の結了等,,,2015-10-05,1,,,,,ボア,0
390,2010702012166,登記記録の閉鎖等,0,2021-10-08,2021-10-07,有限会社首都圏企画,,有限会社,東京都,品川区,大崎３丁目５番２－１０３号,,13,109,1410032,,,2021-10-07,清算の結了等,,,2015-10-05,1,,,,,シュトケンキカク,0
398,2011001061706,登記記録の閉鎖等,0,2021-10-08,2021-09-21,株式会社シジャック,,株式会社,東京都,渋谷区,猿楽町２６－１３,,13,113,1500033,,,2021-09-21,清算の結了等,,,2015-10-05,1,,,,,シジャック,0
410,2011101052761,登記記録の閉鎖等,0,2021-10-08,2021-10-01,山和建設株式会社,,株式会社,東京都,新宿区,西落合４丁目３番１５号,,13,104,1610031,,,2021-10-01,清算の結了等,,,2015-10-05,1,,,,,サンワケンセツ,0
422,2011401000445,登記記録の閉鎖等,0,2021-10-08,2021-10-06,株式会社アルモア,,株式会社,東京都,板橋区,常盤台４丁目２５番１１号,,13,119,1740071,,,2021-10-06,清算の結了等,,,2015-10-05,1,,,,,アルモア,0
428,2011703001744,登記記録の閉鎖等,0,2021-10-08,2021-10-01,合同会社スリーエス,,合同会社,東京都,江戸川区,中葛西６丁目８番２号,,13,123,1340083,,,2021-10-01,清算の結了等,,,2017-05-09,1,,,,,スリーエス,0
431,2011801021231,登記記録の閉鎖等,0,2021-10-08,2021-10-05,株式会社小泉製作所,,株式会社,東京都,足立区,江北３丁目３８番１４号,,13,121,1230872,,,2021-10-05,清算の結了等,,,2015-10-05,1,,,,,コイズミセイサクショ,0
471,2030001051855,登記記録の閉鎖等,0,2021-10-08,2021-09-28,株式会社芳美堂印刷,,株式会社,埼玉県,春日部市,豊野町２丁目２６番１２号,,11,214,3440014,,,2021-09-28,清算の結了等,,,2015-10-05,1,,,,,ホウビドウインサツ,0
478,2030002020719,登記記録の閉鎖等,0,2021-10-08,2021-09-28,有限会社エクステリア島田,,有限会社,埼玉県,さいたま市岩槻区,大字飯塚１１０番地,,11,110,3390031,,,2021-09-28,清算の結了等,,,2015-10-05,1,,,,,エクステリアシマダ,0
503,2060002031572,登記記録の閉鎖等,0,2021-10-08,2021-10-01,有限会社アイコー,,有限会社,栃木県,栃木市,城内町２丁目５１番５９号,,09,203,3280033,,,2021-10-01,清算の結了等,,,2015-10-05,1,,,,,アイコー,0
522,2110001027442,登記記録の閉鎖等,0,2021-10-08,2021-10-01,株式会社ユーワイメディスン,,株式会社,新潟県,上越市,五智新町１０番２２号,,15,222,9420084,,,2021-10-01,合併による解散等,3110002005215,令和３年１０月１日新潟市中央区白山浦二丁目６４６番地１０７株式会社パールファーマシー（3110002005215）に合併し解散,2015-10-05,1,,,,,ユーワイメディスン,0
555,2122001016333,登記記録の閉鎖等,0,2021-10-08,2021-10-05,株式会社はんこや,,株式会社,大阪府,四條畷市,楠公１丁目１２番１９号,,27,229,5750023,,,2021-10-05,清算の結了等,,,2015-10-05,1,,,,,ハンコヤ,0
563,2140001027547,登記記録の閉鎖等,0,2021-10-08,2021-10-01,株式会社ＴＳＣロジスティクス,,株式会社,兵庫県,神戸市中央区,港島３丁目６－５,,28,110,6500045,,,2021-10-01,合併による解散等,6140001086226,令和３年１０月１日神戸市中央区港島三丁目６番５号富永商事株式会社（6140001086226）に合併し解散,2015-10-05,1,,,,,ティーエスシーロジスティクス,0
571,2140001086279,登記記録の閉鎖等,0,2021-10-08,2021-10-01,株式会社富永農園,,株式会社,兵庫県,神戸市中央区,港島３丁目６－５,,28,110,6500045,,,2021-10-01,合併による解散等,6140001086226,令和３年１０月１日神戸市中央区港島三丁目６番５号富永商事株式会社（6140001086226）に合併し解散,2015-10-05,1,,,,,トミナガノウエン,0
606,2180002061608,登記記録の閉鎖等,0,2021-10-08,2021-10-01,有限会社こすもす,,有限会社,愛知県,名古屋市瑞穂区,川澄町１丁目２番地,,23,108,4670002,,,2021-10-01,合併による解散等,7180002051224,令和３年１０月１日名古屋市東区泉二丁目２６番２号キョーワ薬局株式会社（7180002051224）に合併し解散,2015-10-05,1,,,,,コスモス,0
609,2180301012179,登記記録の閉鎖等,0,2021-10-08,2021-09-30,株式会社サンアーチ,,株式会社,愛知県,岡崎市,土井町字池田甲１７番地３,,23,202,4440204,,,2021-09-30,合併による解散等,9180301025562,令和３年９月３０日愛知県刈谷市末広町一丁目１５番地１０岩崎ビル２Ｆ－Ｃ株式会社サンアーチ刈谷（9180301025562）に合併し解散,2015-10-05,1,,,,,サンアーチ,0
631,2230002007869,登記記録の閉鎖等,0,2021-10-08,2021-09-30,有限会社みやこドライクリーニング,,有限会社,富山県,魚津市,駅前新町５番３０号,,16,204,9370051,,,2021-09-30,合併による解散等,5230002007734,令和３年９月３０日富山県魚津市三ケ７３９番地の１株式会社富山第一ドライクリーニング（5230002007734）に合併し解散,2015-10-05,1,,,,,ミヤコドライクリーニング,0
652,2290002030592,登記記録の閉鎖等,0,2021-10-08,2021-10-01,有限会社アイリーン,,有限会社,福岡県,福岡市中央区,今泉１丁目１３番６号,,40,133,8100021,,,2021-10-01,合併による解散等,5290001075248,令和３年１０月１日福岡市中央区大濠公園２番３５号ＴＨＥＡＰＡＲＴＭＥＮＴ７０３号室株式会社アップサイド（5290001075248）に合併し解散,2015-10-05,1,,,,,アイリーン,0
688,2380002022886,登記記録の閉鎖等,0,2021-10-08,2021-10-04,有限会社小名浜造園,,有限会社,福島県,いわき市,小名浜君ケ塚町１３番地の２３,,07,204,9718168,,,2021-10-04,清算の結了等,,,2015-10-05,1,,,,,オナハマゾウエン,0
692,2420001005788,登記記録の閉鎖等,0,2021-10-08,2021-10-06,協栄商事株式会社,,株式会社,青森県,八戸市,大字岩泉町１番地,,02,203,0310088,,,2021-10-06,清算の結了等,,,2015-10-05,1,,,,,キョウエイショウジ,0
695,2420002017106,登記記録の閉鎖等,0,2021-10-08,2021-10-06,有限会社やすの,,有限会社,青森県,十和田市,稲生町１６番２２号,,02,206,0340011,,,2021-10-06,清算の結了等,,,2015-10-05,1,,,,,ヤスノ,0
713,3010001030273,登記記録の閉鎖等,0,2021-10-08,2021-09-30,宮下商事株式会社,,株式会社,東京都,千代田区,神田淡路町１丁目１９番地,,13,101,1010063,,,2021-09-30,清算の結了等,,,2015-10-05,1,,,,,ミヤシタショウジ,0
724,3010003019612,登記記録の閉鎖等,0,2021-10-08,2021-10-06,合同会社プライア,,合同会社,東京都,千代田区,丸の内３丁目１番１号東京共同会計事務所内,,13,101,1000005,,,2021-10-06,清算の結了等,,,2015-10-05,1,,,,,プライア,0
725,3010003024042,登記記録の閉鎖等,0,2021-10-08,2021-10-06,オスカージャパン５合同会社,,合同会社,東京都,千代田区,丸の内３丁目１番１号東京共同会計事務所内,,13,101,1000005,,,2021-10-06,清算の結了等,,,2016-08-31,1,,,,,オスカージャパンファイブ,0
727,3010005033685,登記記録の閉鎖等,0,2021-10-08,2021-10-01,一般社団法人デジタルコミック協議会,,その他の設立登記法人,東京都,千代田区,一ツ橋２丁目３番１号,,13,101,1010003,,,2021-10-01,合併による解散等,9010005014754,令和３年１０月１日東京都文京区音羽一丁目１７番１４号音羽ＹＫビル６階一般社団法人日本電子書籍出版社協会（9010005014754）に合併し解散,2021-07-30,1,,,,,デジタルコミックキョウギカイ,0
734,3010401111391,登記記録の閉鎖等,0,2021-10-08,2021-09-21,株式会社ディーアンドカンパニー,,株式会社,東京都,目黒区,南２丁目４番３２号,,13,110,1520013,,,2021-09-21,清算の結了等,,,2015-10-05,1,,,,,ディーアンドカンパニー,0
764,3011001104604,登記記録の閉鎖等,0,2021-10-08,2021-09-17,株式会社ＧＯＥＰＲＡ,,株式会社,東京都,渋谷区,恵比寿３丁目３２番７号,,13,113,1500013,,,2021-09-17,清算の結了等,,,2015-10-05,1,,,,,ゴエプラ,0
784,3011401006383,登記記録の閉鎖等,0,2021-10-08,2021-10-04,株式会社モブ・アート,,株式会社,東京都,板橋区,中丸町３１番４号,,13,119,1730026,,,2021-10-04,清算の結了等,,,2015-10-05,1,,,,,モブアート,0
800,3012301000526,登記記録の閉鎖等,0,2021-10-08,2021-09-29,株式会社大妻工務店,,株式会社,東京都,町田市,木曽西１丁目１１番２８号,,13,209,1940037,,,2021-09-29,清算の結了等,,,2015-10-05,1,,,,,オオツマコウムテン,0
832,3030001091801,登記記録の閉鎖等,0,2021-10-08,2021-09-27,株式会社エムケイ・プロパティ,,株式会社,埼玉県,さいたま市浦和区,前地１丁目５番１１号,,11,107,3300053,,,2021-09-27,清算の結了等,,,2015-10-05,1,,,,,,0
839,3030002010140,登記記録の閉鎖等,0,2021-10-08,2021-09-29,有限会社長野豆腐店,,有限会社,埼玉県,さいたま市大宮区,大成町１丁目３９４番地,,11,103,3300852,,,2021-09-29,清算の結了等,,,2015-10-05,1,,,,,ナガノトウフテン,0
857,3040003000560,登記記録の閉鎖等,0,2021-10-08,2021-10-01,合資会社エムズ,,合資会社,千葉県,習志野市,谷津６丁目９番地１９号,,12,216,2750026,,,2021-10-01,清算の結了等,,,2015-10-05,1,,,,,エムズ,0
860,3050001011336,登記記録の閉鎖等,0,2021-10-08,2021-09-30,株式会社オオワダ商事,,株式会社,茨城県,石岡市,吉生３０８８番地の１,,08,205,3150156,,,2021-09-30,清算の結了等,,,2015-10-05,1,,,,,オオワダショウジ,0
862,3050002004264,登記記録の閉鎖等,0,2021-10-08,2021-10-01,有限会社小沢住設機器,,有限会社,茨城県,水戸市,見川町２５６３番地の２２８,,08,201,3100913,,,2021-10-01,清算の結了等,,,2015-10-05,1,,,,,オザワジュウセツキキ,0
879,3070002008544,登記記録の閉鎖等,0,2021-10-08,2021-10-01,有限会社阿部自動車,,有限会社,群馬県,高崎市,吉井町下長根１２３番地の１０,,10,202,3702121,,,2021-10-01,清算の結了等,,,2015-10-05,1,,,,,アベジドウシャ,0
896,3110001014472,登記記録の閉鎖等,0,2021-10-08,2021-10-04,長野工業株式会社,,株式会社,新潟県,三条市,島田２丁目８番２５号,,15,204,9550842,,,2021-10-04,清算の結了等,,,2015-10-05,1,,,,,,0
934,3130001049517,登記記録の閉鎖等,0,2021-10-08,2021-10-05,京都御池コンサル株式会社,,株式会社,京都府,京都市中京区,堺町通御池下る丸木材木町６７１番地エクレーヌ御池３０１号,,26,104,6048106,,,2021-10-05,清算の結了等,,,2015-10-05,1,,,,,,0
940,3130002027018,登記記録の閉鎖等,0,2021-10-08,2021-10-05,有限会社ヤマグチ工業,,有限会社,京都府,京都市伏見区,向島丸町２５番地１５,,26,109,6128131,,,2021-10-05,清算の結了等,,,2015-10-05,1,,,,,ヤマグチコウギョウ,0
956,3160002014145,登記記録の閉鎖等,0,2021-10-08,2021-10-04,真永工業有限会社,,有限会社,滋賀県,守山市,今浜町２３９２番地,,25,207,5240101,,,2021-10-04,清算の結了等,,,2015-10-05,1,,,,,シンエイコウギョウ,0
960,3180001094541,登記記録の閉鎖等,0,2021-10-08,2021-09-30,株式会社フキシマ住宅,,株式会社,愛知県,東海市,富木島町貴船５４番地の６,,23,222,4760011,,,2021-09-30,清算の結了等,,,2015-10-05,1,,,,,フキシマジュウタク,0
968,3180301006601,登記記録の閉鎖等,0,2021-10-08,2021-10-05,株式会社豊橋トーエー,,株式会社,愛知県,豊橋市,瓜郷町前川２０番地,,23,201,4400092,,,2021-10-05,清算の結了等,,,2015-10-05,1,,,,,トヨハシトーエー,0
973,3180302018703,登記記録の閉鎖等,0,2021-10-08,2021-10-05,有限会社ニイミ不動産,,有限会社,愛知県,刈谷市,末広町３丁目１番地１,,23,210,4480802,,,2021-10-05,清算の結了等,,,2015-10-05,1,,,,,ニイミフドウサン,0
974,3180302022069,登記記録の閉鎖等,0,2021-10-08,2021-10-05,有限会社産愛設備,,有限会社,愛知県,豊田市,秋葉町５丁目２９番地,,23,211,4710873,,,2021-10-05,清算の結了等,,,2015-10-05,1,,,,,サンアイセツビ,0
983,3210002002706,登記記録の閉鎖等,0,2021-10-08,2021-10-01,有限会社ニッチ,,有限会社,福井県,福井市,小野町第１５号４９番地,,18,201,9103122,,,2021-10-01,合併による解散等,1210001002428,令和３年９月２１日福井市小幡町第７号５番地の１ナック株式会社（1210001002428）に合併し解散,2015-10-05,1,,,,,ニッチ,0
985,3220001017910,登記記録の閉鎖等,0,2021-10-08,2021-10-06,株式会社Ｑ．Ｏ．Ｌコーポレーション,,株式会社,石川県,河北郡津幡町,字倉見イ１２５番地１,,17,361,9290455,,,2021-10-06,清算の結了等,,,2015-10-05,1,,,,,キューオーエルコーポレーション,0
997,3250003001901,登記記録の閉鎖等,0,2021-10-08,2021-10-05,合同会社ＭＡＴＳＵＮＡＧＡ,,合同会社,山口県,下関市,菊川町大字楢崎８６５番地１,,35,201,7500322,,,2021-10-05,清算の結了等,,,2016-07-13,1,,,,,マツナガ,0
1001,3260001022618,登記記録の閉鎖等,0,2021-10-08,2021-10-06,井上商店株式会社,,株式会社,岡山県,玉野市,長尾２５４番地,,33,204,7060151,,,2021-10-06,清算の結了等,,,2015-10-05,1,,,,,イノウエショウテン,0
1003,3290001015263,登記記録の閉鎖等,0,2021-10-08,2021-10-01,日本通信工業株式会社,,株式会社,福岡県,福岡市博多区,築港本町６番５号,,40,132,8120021,,,2021-10-01,合併による解散等,6290001007794,令和３年１０月１日福岡市博多区榎田二丁目１番１８号ベネックスソリューションズ株式会社（6290001007794）に合併し解散,2015-10-05,1,,,,,ニホンツウシンコウギョウ,0
1006,3290001029684,登記記録の閉鎖等,0,2021-10-08,2021-09-30,株式会社笑楽,,株式会社,福岡県,福岡市中央区,西中洲１１番４号,,40,133,8100002,,,2021-09-30,合併による解散等,3290001029627,令和３年９月３０日福岡市博多区神屋町３番６号株式会社アイカワイーティングカンパニー（3290001029627）に合併し解散,2015-10-05,1,,,,,ショウラク,0
1023,3300002004065,登記記録の閉鎖等,0,2021-10-08,2021-10-04,有限会社かんざきさぬき屋,,有限会社,佐賀県,神埼市,神埼町本告牟田１２５６番地２,,41,210,8420013,,,2021-10-04,清算の結了等,,,2015-10-05,1,,,,,カンザキサヌキヤ,0
1044,3390002014155,登記記録の閉鎖等,0,2021-10-08,2021-10-04,有限会社阿部商店,,有限会社,山形県,南陽市,宮内２６６１番地,,06,213,9920472,,,2021-10-04,清算の結了等,,,2015-10-05,1,,,,,アベショウテン,0
1049,3420001017007,登記記録の閉鎖等,0,2021-10-08,2021-10-05,株式会社なな・せ,,株式会社,青森県,北津軽郡中泊町,大字中里字紅葉坂４８番地２,,02,387,0370305,,,2021-10-05,清算の結了等,,,2020-05-07,1,,,,,ナナセ,0
1055,3430003007211,登記記録の閉鎖等,0,2021-10-08,2021-09-29,合同会社日本企画,,合同会社,北海道,札幌市中央区,南八条西１０丁目１２７７番地１,,01,101,0640808,,,2021-09-29,清算の結了等,,,2015-12-09,1,,,,,ニホンキカク,0
1065,3470001005122,登記記録の閉鎖等,0,2021-10-08,2021-10-06,塩江生コンクリート工業株式会社,,株式会社,香川県,高松市,塩江町安原下７７９番地１,,37,201,7611504,,,2021-10-06,清算の結了等,,,2015-10-05,1,,,,,シオノエナマコンクリートコウギョウ,0
1071,4010001026857,登記記録の閉鎖等,0,2021-10-08,2021-10-01,エムコマース株式会社,,株式会社,東京都,中央区,新川１丁目４番１号,,13,102,1040033,,,2021-10-01,合併による解散等,1010501016674,令和３年１０月１日東京都千代田区丸の内一丁目１番１号ＭＣＣトレーディング株式会社（1010501016674）に合併し解散,2015-10-05,1,,,,,エムコマース,0
1074,4010001104010,登記記録の閉鎖等,0,2021-10-08,2021-09-30,株式会社仁大,,株式会社,東京都,中央区,新川１丁目２２番１７号,,13,102,1040033,,,2021-09-30,清算の結了等,,,2015-10-05,1,,,,,ジンダイ,0
1107,4010501040432,登記記録の閉鎖等,0,2021-10-08,2021-10-06,株式会社富士エナジー,,株式会社,東京都,台東区,雷門１丁目８番１号,,13,106,1110034,,,2021-10-06,清算の結了等,,,2016-12-22,1,,,,,フジエナジー,0
1146,4011401018824,登記記録の閉鎖等,0,2021-10-08,2021-09-28,株式会社フォーシーズンズアイランド,,株式会社,埼玉県,和光市,南１丁目１１番１７号,,11,229,3510104,,,2021-09-28,清算の結了等,,,2015-10-05,1,,,,,フォーシーズンズアイランド,0
1157,4012301006679,登記記録の閉鎖等,0,2021-10-08,2021-09-29,Ｍ＆Ｃ株式会社,,株式会社,東京都,町田市,図師町２３９番地４４,,13,209,1940203,,,2021-09-29,清算の結了等,,,2015-10-05,1,,,,,エムアンドシー,0
1190,4030002039807,登記記録の閉鎖等,0,2021-10-08,2021-09-27,有限会社松田商店,,有限会社,埼玉県,幸手市,大字中野５７３番地,,11,240,3400142,,,2021-09-27,清算の結了等,,,2015-10-05,1,,,,,マツダショウテン,0
1191,4030002040351,登記記録の閉鎖等,0,2021-10-08,2021-09-28,有限会社岡田工業,,有限会社,埼玉県,白岡市,上野田７８８番地６,,11,246,3490221,,,2021-09-28,清算の結了等,,,2015-10-05,1,,,,,オカダコウギョウ,0
1208,4060002021902,登記記録の閉鎖等,0,2021-10-08,2021-10-01,有限会社池沢工務店,,有限会社,栃木県,那須塩原市,佐野１４番地３０,,09,213,3293142,,,2021-10-01,清算の結了等,,,2015-10-05,1,,,,,イケザワコウムテン,0
1217,4070002013535,登記記録の閉鎖等,0,2021-10-08,2021-10-05,有限会社芳悠マテリアル,,有限会社,群馬県,高崎市,末広町１６３番地７,,10,202,3700065,,,2021-10-05,清算の結了等,,,2015-10-05,1,,,,,ホウユウマテリアル,0
1220,4080102011272,登記記録の閉鎖等,0,2021-10-08,2021-10-01,熱函ゴルフセンター有限会社,,有限会社,静岡県,田方郡函南町,平井大阿原１５９８番地,,22,325,4190107,,,2021-10-01,合併による解散等,9080102011219,令和３年１０月１日静岡県駿東郡清水町徳倉字西山２１６７番地の５雄大ゴルフセンター株式会社（9080102011219）に合併し解散,2015-10-05,1,,,,,ネッカンゴルフセンター,0
1226,4100002002963,登記記録の閉鎖等,0,2021-10-08,2021-10-05,有限会社高橋モータース,,有限会社,長野県,長野市,松代町清野１９５８番地,,20,201,3811233,,,2021-10-05,清算の結了等,,,2015-10-05,1,,,,,タカハシモータース,0
1230,4110001034924,登記記録の閉鎖等,0,2021-10-08,2021-10-01,ピュアテクノロジー株式会社,,株式会社,新潟県,新潟市秋葉区,荻島２丁目３０番１５号,,15,105,9560804,,,2021-10-01,合併による解散等,1110001007387,令和３年１０月１日新潟県新潟市秋葉区荻島二丁目３０番１５号株式会社テクノリンク（1110001007387）に合併し解散,2020-06-10,1,,,,,ピュアテクノロジー,0
1247,4120002007770,登記記録の閉鎖等,0,2021-10-08,2021-10-06,有限会社エム・ケー企画,,有限会社,大阪府,八尾市,竹渕５丁目１番地の４２,,27,212,5810052,,,2021-10-06,清算の結了等,,,2015-10-05,1,,,,,エムケーキカク,0
1251,4120002077418,登記記録の閉鎖等,0,2021-10-08,2021-10-01,有限会社ヨシテック,,有限会社,大阪府,寝屋川市,点野１丁目２０番３号,,27,215,5720077,,,2021-10-01,合併による解散等,1120001147678,令和３年１０月１日大阪府寝屋川市仁和寺本町四丁目１６番２３号木村精機株式会社（1120001147678）に合併し解散,2015-10-05,1,,,,,ヨシテック,0
1259,4120901033594,登記記録の閉鎖等,0,2021-10-08,2021-10-01,株式会社ユミショウマネジメント,,株式会社,大阪府,高槻市,白梅町５番２０－１８０９号,,27,207,5691116,,,2021-10-01,合併による解散等,1120901035453,令和３年１０月１日大阪府高槻市白梅町５番２０－１８０９号ユミショウプロパティ株式会社（1120901035453）に合併し解散,2015-10-05,1,,,,,ユミショウマネジメント,0
1266,4140001095658,登記記録の閉鎖等,0,2021-10-08,2021-10-01,株式会社富永農場２０１４,,株式会社,兵庫県,南あわじ市,榎列小榎列６０３番地３,,28,224,6560425,,,2021-10-01,合併による解散等,6140001086226,令和３年１０月１日神戸市中央区港島三丁目６番５号富永商事株式会社（6140001086226）に合併し解散,2015-10-05,1,,,,,トミナガノウジョウニセンジュウヨン,0
1280,4150001012620,登記記録の閉鎖等,0,2021-10-08,2021-10-04,株式会社近幾リサイクル,,株式会社,奈良県,大和高田市,南今里町２番３号,,29,202,6350033,,,2021-10-04,清算の結了等,,,2015-10-05,1,,,,,キンキリサイクル,0
1291,4180001123670,登記記録の閉鎖等,0,2021-10-08,2021-10-01,株式会社ＮＳＤ,,株式会社,愛知県,名古屋市守山区,守山２丁目４番２１号,,23,113,4630067,,,2021-10-01,清算の結了等,,,2016-06-07,1,,,,,エヌエスディ,0
1298,4180002011404,登記記録の閉鎖等,0,2021-10-08,2021-09-30,有限会社近藤新聞店,,有限会社,愛知県,名古屋市北区,如意２丁目４４番地,,23,103,4620007,,,2021-09-30,清算の結了等,,,2015-10-05,1,,,,,コンドウシンブンテン,0
1299,4180002066596,登記記録の閉鎖等,0,2021-10-08,2021-10-04,有限会社中国飯店安童夢,,有限会社,愛知県,春日井市,高山町２丁目１１番地の３,,23,206,4860912,,,2021-10-04,清算の結了等,,,2015-10-05,1,,,,,,0
1313,4190001013061,登記記録の閉鎖等,0,2021-10-08,2021-10-06,株式会社サカイ,,株式会社,三重県,いなべ市,北勢町垣内４７７番地の１,,24,214,5110437,,,2021-10-06,清算の結了等,,,2015-10-05,1,,,,,サカイ,0
1333,4260001011801,登記記録の閉鎖等,0,2021-10-08,2021-10-06,株式会社早川会計,,株式会社,岡山県,岡山市北区,庭瀬４９８番地２,,33,101,7010153,,,2021-10-06,清算の結了等,,,2015-10-05,1,,,,,ハヤカワカイケイ,0
1343,4290001065191,登記記録の閉鎖等,0,2021-10-08,2021-10-01,西部ガスくらしモット株式会社,,株式会社,福岡県,福津市,福間南４丁目１番８号,,40,224,8113212,,,2021-10-01,合併による解散等,8290001003949,令和３年１０月１日福岡市東区和白丘二丁目４番１８号株式会社福岡ライフ（8290001003949）に合併し解散,2015-10-05,1,,,,,サイブガスクラシモット,0
1344,4290001086543,登記記録の閉鎖等,0,2021-10-08,2021-10-01,株式会社ホームコンサル,,株式会社,福岡県,福岡市南区,向野１丁目１８番２２－３０１号,,40,134,8150035,,,2021-10-01,合併による解散等,3290001069061,令和３年１０月１日福岡市博多区博多駅南一丁目１５番２８号株式会社スマイル（3290001069061）に合併し解散,2019-09-24,1,,,,,ホームコンサル,0
1355,4290801015057,登記記録の閉鎖等,0,2021-10-08,2021-09-29,株式会社ザ・ドリーム,,株式会社,福岡県,直方市,大字山部７５１番地１０,,40,204,8220034,,,2021-09-29,清算の結了等,,,2015-10-05,1,,,,,ザドリーム,0
1364,4330005009917,登記記録の閉鎖等,0,2021-10-08,2021-10-04,特定非営利活動法人熊本ケアトランポリン協会,,その他の設立登記法人,熊本県,熊本市南区,野口２丁目２番３２号,,43,104,8614137,,,2021-10-04,清算の結了等,,,2018-10-01,1,,,,,クマモトケアトランポリンキョウカイ,0
1380,4370302002075,登記記録の閉鎖等,0,2021-10-08,2021-09-28,有限会社宝福丸水産運送,,有限会社,宮城県,石巻市,福貴浦字福貴屋敷２９番地,,04,202,9862343,,,2021-09-28,清算の結了等,,,2015-10-05,1,,,,,ホウフクマルスイサンウンソウ,0
1411,5010001037762,登記記録の閉鎖等,0,2021-10-08,2021-09-30,株式会社内田茶舗,,株式会社,東京都,中央区,日本橋浜町２丁目５７番７号,,13,102,1030007,,,2021-09-30,清算の結了等,,,2015-10-05,1,,,,,ウチダチャホ,0
1413,5010001122168,登記記録の閉鎖等,0,2021-10-08,2021-09-30,株式会社Ｄｏｃｔｏｒｓ’Ｈｅａｒｔｓ,,株式会社,東京都,文京区,白山２丁目２３番２－１０２号,,13,105,1120001,,,2021-09-30,清算の結了等,,,2015-10-05,1,,,,,ドクターズハーツ,0
1422,5010003031796,登記記録の閉鎖等,0,2021-10-08,2021-09-30,合同会社ＯＢＡＲＡデベロップ,,合同会社,東京都,千代田区,平河町１丁目６番１５号,,13,101,1020093,,,2021-09-30,清算の結了等,,,2020-03-09,1,,,,,オバラデベロップ,0
1423,5010003031929,登記記録の閉鎖等,0,2021-10-08,2021-09-30,合同会社ＲＦ３,,合同会社,東京都,千代田区,内幸町２丁目１番６号,,13,101,1000011,,,2021-09-30,清算の結了等,,,2020-03-19,1,,,,,アールエフスリー,0
1432,5010401096846,登記記録の閉鎖等,0,2021-10-08,2021-09-29,株式会社フューチャーライフスタイル,,株式会社,東京都,港区,西新橋２丁目１３番１０号,,13,103,1050003,,,2021-09-29,合併による解散等,7011001070628,令和３年９月２２日東京都港区西新橋二丁目１３番１０号株式会社クロノス（7011001070628）に合併し解散,2015-10-05,1,,,,,フューチャーライフスタイル,0
1449,5010701033466,登記記録の閉鎖等,0,2021-10-08,2021-10-05,株式会社ＴＳプランニング,,株式会社,東京都,品川区,東品川２丁目６番１０号,,13,109,1400002,,,2021-10-05,清算の結了等,,,2016-12-16,1,,,,,ティーエスプランニング,0
1469,5011101061470,登記記録の閉鎖等,0,2021-10-08,2021-10-04,株式会社東京クイジン,,株式会社,東京都,中央区,銀座３丁目３番８号,,13,102,1040061,,,2021-10-04,清算の結了等,,,2015-10-05,1,,,,,トウキョウクイジン,0
1471,5011102024303,登記記録の閉鎖等,0,2021-10-08,2021-10-01,有限会社フレイヤ,,有限会社,東京都,新宿区,榎町３８番地マンション神楽坂７０３号,,13,104,1620806,,,2021-10-01,清算の結了等,,,2015-10-05,1,,,,,フレイヤ,0
1474,5011303002256,登記記録の閉鎖等,0,2021-10-08,2021-10-04,合同会社グランネクスト,,合同会社,東京都,杉並区,松ノ木２丁目３９番４号,,13,115,1660014,,,2021-10-04,清算の結了等,,,2015-10-05,1,,,,,グランネクスト,0
1491,5011802014801,登記記録の閉鎖等,0,2021-10-08,2021-10-06,有限会社せりた商店,,有限会社,東京都,足立区,本木北町１０番１６号,,13,121,1230857,,,2021-10-06,清算の結了等,,,2015-10-05,1,,,,,セリタショウテン,0
1497,5012402014844,登記記録の閉鎖等,0,2021-10-08,2021-10-01,有限会社建築ノジマ,,有限会社,東京都,狛江市,東野川４丁目５番１３号,,13,219,2010002,,,2021-10-01,清算の結了等,,,2015-10-05,1,,,,,ケンチクノジマ,0
1505,5013302003012,登記記録の閉鎖等,0,2021-10-08,2021-10-01,有限会社黒田莫大小仕上加工所,,有限会社,東京都,豊島区,要町３丁目２８番１号,,13,116,1710043,,,2021-10-01,清算の結了等,,,2015-10-05,1,,,,,クロダメリヤスシアゲカコウショ,0
1518,5020005012793,登記記録の閉鎖等,0,2021-10-08,2021-10-04,特定非営利活動法人横浜市地域密着型通所介護事業所連絡会,,その他の設立登記法人,神奈川県,横浜市港南区,港南台３丁目２２－１１,,14,111,2340054,,,2021-10-04,清算の結了等,,,2016-10-17,1,,,,,ヨコハマシチイキミッチャクガタツウショカイゴジギョウショレンゴウカイ,0
1524,5021002021564,登記記録の閉鎖等,0,2021-10-08,2021-10-04,有限会社成東機械工業,,有限会社,神奈川県,相模原市中央区,田名２６４５番地２,,14,152,2520244,,,2021-10-04,清算の結了等,,,2015-10-05,1,,,,,セイトウキカイコウギョウ,0
1525,5021002039417,登記記録の閉鎖等,0,2021-10-08,2021-10-04,有限会社スギモトカッティング,,有限会社,神奈川県,平塚市,横内５８３番地の７,,14,203,2540002,,,2021-10-04,清算の結了等,,,2015-10-05,1,,,,,スギモトカッティング,0
1535,5030002106333,登記記録の閉鎖等,0,2021-10-08,2021-09-29,日向エンジニアリング有限会社,,有限会社,埼玉県,川口市,上青木西４丁目２２番２１号安田ビル,,11,203,3330845,,,2021-09-29,清算の結了等,,,2015-10-05,1,,,,,ヒュウガエンジニアリング,0
1537,5040001049697,登記記録の閉鎖等,0,2021-10-08,2021-09-29,株式会社日経ビジネス,,株式会社,千葉県,四街道市,池花２丁目２１番１号,,12,228,2840014,,,2021-09-29,清算の結了等,,,2015-10-05,1,,,,,ニッケイビジネス,0
1538,5040001050399,登記記録の閉鎖等,0,2021-10-08,2021-09-30,株式会社エッチ・アンド・シー,,株式会社,千葉県,木更津市,高柳２丁目５番３５号,,12,206,2920014,,,2021-09-30,清算の結了等,,,2015-10-05,1,,,,,エッチアンドシー,0
1543,5040002010749,登記記録の閉鎖等,0,2021-10-08,2021-09-30,有限会社真砂工業,,有限会社,千葉県,千葉市美浜区,真砂５丁目１４番４号,,12,106,2610011,,,2021-09-30,清算の結了等,,,2015-10-05,1,,,,,マサゴコウギョウ,0
1568,5080401005016,登記記録の閉鎖等,0,2021-10-08,2021-10-07,株式会社松本商店,,株式会社,静岡県,浜松市東区,上新屋町２０１番地の３,,22,132,4350053,,,2021-10-07,清算の結了等,,,2015-10-05,1,,,,,,0
1569,5090001004623,登記記録の閉鎖等,0,2021-10-08,2021-10-01,株式会社ファイブスター,,株式会社,山梨県,甲府市,国母２丁目４番２６号,,19,201,4000043,,,2021-10-01,合併による解散等,7090001002419,令和３年１０月１日山梨県甲府市国母二丁目４番２６号株式会社ユー・ファイブ（7090001002419）に合併し解散,2015-10-05,1,,,,,ファイブスター,0
1580,5110001020270,登記記録の閉鎖等,0,2021-10-08,2021-10-05,新潟ルビコン株式会社,,株式会社,新潟県,妙高市,広島１丁目３番１号,,15,217,9440002,,,2021-10-05,合併による解散等,6100001020948,令和３年１０月１日長野県伊那市西箕輪１９３８番地１ルビコン株式会社（6100001020948）に合併し解散,2015-10-05,1,,,,,ニイガタルビコン,0
1581,5110001033157,登記記録の閉鎖等,0,2021-10-08,2021-10-01,株式会社小倉製作所,,株式会社,新潟県,三条市,東本成寺１７５番地１,,15,204,9550823,,,2021-10-01,合併による解散等,3110001014191,令和３年１０月１日新潟県三条市塚野目２１５３番地５株式会社サンカ（3110001014191）に合併し解散,2018-04-19,1,,,,,オグラセイサクショ,0
1596,5120101042874,登記記録の閉鎖等,0,2021-10-08,2021-10-04,株式会社八木大治堂,,株式会社,大阪府,泉大津市,本町１番４号,,27,206,5950063,,,2021-10-04,清算の結了等,,,2015-10-05,1,,,,,ヤギダイジドウ,0
1609,5140001003470,登記記録の閉鎖等,0,2021-10-08,2021-10-01,コベルコ・キャリア・ディベロップメント株式会社,,株式会社,兵庫県,神戸市中央区,脇浜海岸通１丁目５番１号,,28,110,6510073,,,2021-10-01,合併による解散等,1140001003466,令和３年１０月１日神戸市中央区脇浜海岸通二丁目２番４号コベルコビジネスパートナーズ株式会社（1140001003466）に合併し解散,2015-10-05,1,,,,,コベルコキャリアディベロップメント,0
1611,5140001035101,登記記録の閉鎖等,0,2021-10-08,2021-09-30,高津貿易株式会社,,株式会社,兵庫県,明石市,大久保町大窪１６９番地の１,,28,203,6740051,,,2021-09-30,清算の結了等,,,2015-10-05,1,,,,,コウヅボウエキ,0
1614,5140001068233,登記記録の閉鎖等,0,2021-10-08,2021-10-01,株式会社オクダ,,株式会社,兵庫県,尼崎市,道意町６丁目３６番地の２,,28,202,6600083,,,2021-10-01,合併による解散等,2140001048097,令和３年１０月１日兵庫県尼崎市道意町六丁目３６番地の２株式会社奥田薬品（2140001048097）に合併し解散,2015-10-05,1,,,,,オクダ,0
1617,5140001107692,登記記録の閉鎖等,0,2021-10-08,2021-10-01,株式会社エムジェイワン,,株式会社,兵庫県,伊丹市,池尻１丁目１１８番地２Ｆ,,28,207,6640027,,,2021-10-01,清算の結了等,,,2017-10-05,1,,,,,エムジェイワン,0
1681,5290001054870,登記記録の閉鎖等,0,2021-10-08,2021-10-01,エスジーレンタリース株式会社,,株式会社,福岡県,大牟田市,泉町４番地の２,,40,202,8360831,,,2021-10-01,合併による解散等,1290001014052,令和３年１０月１日福岡市博多区千代一丁目１７番１号西部ガス都市開発株式会社（1290001014052）に合併し解散,2015-10-05,1,,,,,エスジーレンタリース,0
1693,5330001019555,登記記録の閉鎖等,0,2021-10-08,2021-10-01,株式会社華まる堂,,株式会社,熊本県,熊本市中央区,花畑町４番３号,,43,101,8600806,,,2021-10-01,合併による解散等,4330001021405,令和３年１０月１日熊本市中央区花畑町４番３号九州産交リテール株式会社（4330001021405）に合併し解散,2015-10-05,1,,,,,ハナマルドウ,0
1695,5330003005280,登記記録の閉鎖等,0,2021-10-08,2021-09-29,ＣＮＰＶ　ＪＡＰＡＮ錦太陽光発電所合同会社,,合同会社,熊本県,球磨郡錦町,大字西字久保宇野１３７２番２,,43,501,8680303,,,2021-09-29,清算の結了等,,,2015-10-05,1,,,,,シーエヌピーヴイジャパンニシキタイヨウコウハツデン,0
1701,5340001017351,登記記録の閉鎖等,0,2021-10-08,2021-09-30,日本ＳＰサービス株式会社,,株式会社,鹿児島県,鹿児島市,山下町１２番５号藤崎ビル３０２,,46,201,8920816,,,2021-09-30,清算の結了等,,,2015-10-05,1,,,,,ニホンエスピーサービス,0
1702,5340001024050,登記記録の閉鎖等,0,2021-10-08,2021-10-01,藤絹工芸株式会社,,株式会社,鹿児島県,鹿児島市,南栄１丁目８番１号,,46,201,8910122,,,2021-10-01,合併による解散等,5340001003723,令和３年１０月１日鹿児島市南栄一丁目８番１号アーダンリゾート株式会社（5340001003723）に合併し解散,2021-08-25,1,,,,,フジギヌコウゲイ,0
1712,5370001020030,登記記録の閉鎖等,0,2021-10-08,2021-09-27,株式会社ＪＡＰＡＮ丸丙,,株式会社,宮城県,仙台市青葉区,上愛子字蛇台原６１番地の４,,04,101,9893124,,,2021-09-27,清算の結了等,,,2015-10-05,1,,,,,ジャパンマルヘイ,0
1718,5380001010047,登記記録の閉鎖等,0,2021-10-08,2021-09-29,株式会社福島商業銀行,,株式会社,福島県,福島市,本町２６番地,,07,201,9608035,,,2021-09-29,清算の結了等,,,2018-08-29,1,,,,,フクシマショウギョウギンコウ,0
1727,5400001007346,登記記録の閉鎖等,0,2021-10-08,2021-10-07,株式会社玉泉堂,,株式会社,岩手県,釜石市,只越町１丁目１番９号,,03,211,0260021,,,2021-10-07,清算の結了等,,,2015-10-05,1,,,,,ギョクセンドウ,0
1729,5400002002560,登記記録の閉鎖等,0,2021-10-08,2021-10-07,有限会社バジリコ,,有限会社,岩手県,盛岡市,緑が丘２丁目１４番６５号,,03,201,0200117,,,2021-10-07,清算の結了等,,,2015-10-05,1,,,,,バジリコ,0
1741,5430005006853,登記記録の閉鎖等,0,2021-10-08,2021-10-01,特定非営利活動法人利根別の森ネットワーク,,その他の設立登記法人,北海道,岩見沢市,東山７丁目６番５号,,01,210,0680820,,,2021-10-01,清算の結了等,,,2015-10-05,1,,,,,トネベツノモリネットワーク,0
1758,5500001017896,登記記録の閉鎖等,0,2021-10-08,2021-10-06,株式会社アサヒ企画,,株式会社,愛媛県,松山市,鷹子町８６９番地５,,38,201,7900925,,,2021-10-06,清算の結了等,,,2015-10-05,1,,,,,アサヒキカク,0
1759,5500002000661,登記記録の閉鎖等,0,2021-10-08,2021-10-06,有限会社アサヒ,,有限会社,愛媛県,松山市,鷹子町８６９番地５,,38,201,7900925,,,2021-10-06,清算の結了等,,,2015-10-05,1,,,,,アサヒ,0
1767,6010003026358,登記記録の閉鎖等,0,2021-10-08,2021-09-29,合同会社開発５３号,,合同会社,東京都,千代田区,飯田橋１丁目３番２号曙杉館４階清和コンサルティング株式会社内,,13,101,1020072,,,2021-09-29,清算の結了等,,,2017-11-02,1,,,,,カイハツゴジュウサンゴウ,0
1793,6010702004688,登記記録の閉鎖等,0,2021-10-08,2021-10-05,有限会社反町製作所,,有限会社,東京都,品川区,小山２丁目２番地４号,,13,109,1420062,,,2021-10-05,清算の結了等,,,2015-10-05,1,,,,,ソリマチセイサクショ,0
1797,6010802013564,登記記録の閉鎖等,0,2021-10-08,2021-10-06,有限会社松村商事,,有限会社,東京都,品川区,東大井５丁目２４番１６－９０１号,,13,109,1400011,,,2021-10-06,清算の結了等,,,2015-10-05,1,,,,,マツムラショウジ,0
1814,6011101052238,登記記録の閉鎖等,0,2021-10-08,2021-09-28,株式会社フィル,,株式会社,東京都,新宿区,西新宿３丁目２０番２号,,13,104,1600023,,,2021-09-28,合併による解散等,6011101023123,令和３年９月２８日東京都新宿区西新宿三丁目２０番２号株式会社エムティーアイ（6011101023123）に合併し解散,2015-10-05,1,,,,,フィル,0
1819,6011101076625,登記記録の閉鎖等,0,2021-10-08,2021-10-01,ブルーピア賃貸保証株式会社,,株式会社,東京都,新宿区,富久町８番２２号,,13,104,1620067,,,2021-10-01,合併による解散等,3011101056150,令和３年１０月１日東京都新宿区富久町８番２２号スカイコート賃貸センター株式会社（3011101056150）に合併し解散,2016-04-12,1,,,,,ブルーピアチンタイホショウ,0
1827,6011501025891,登記記録の閉鎖等,0,2021-10-08,2021-10-05,青峰株式会社,,株式会社,東京都,荒川区,南千住１丁目４５番８号,,13,118,1160003,,,2021-10-05,清算の結了等,,,2020-06-08,1,,,,,アオミネ,0
1833,6011801022011,登記記録の閉鎖等,0,2021-10-08,2021-10-05,株式会社キューイック,,株式会社,東京都,足立区,千住１丁目４－１東京芸術センター１６１１号,,13,121,1200034,,,2021-10-05,清算の結了等,,,2015-10-05,1,,,,,キューイック,0
1843,6013101000085,登記記録の閉鎖等,0,2021-10-08,2021-10-06,株式会社木村徳藏商店,,株式会社,東京都,福生市,志茂１６５番地,,13,218,1970023,,,2021-10-06,清算の結了等,,,2015-10-05,1,,,,,キムラトクゾウショウテン,0
1862,6021001072913,登記記録の閉鎖等,0,2021-10-08,2021-10-01,株式会社Ｔｏｄｄｌｅｒｓ,,株式会社,神奈川県,大和市,下鶴間２９９８番地１９５,,14,213,2420001,,,2021-10-01,清算の結了等,,,2021-05-18,1,,,,,トドラーズ,0
1873,6030001070406,登記記録の閉鎖等,0,2021-10-08,2021-10-05,ＮＡパブリッシング株式会社,,株式会社,東京都,新宿区,高田馬場２丁目１４番９号明芳ビル,,13,104,1690075,,,2021-10-05,合併による解散等,4011101026805,令和３年１０月１日大阪市北区堂島浜二丁目２番２８号堂島アクシスビルナツメアタリ株式会社（4011101026805）に合併し解散,2015-10-05,1,,,,,エヌエーパブリッシング,0
1902,6080002004829,登記記録の閉鎖等,0,2021-10-08,2021-10-05,有限会社ビビニイト,,有限会社,静岡県,静岡市葵区,七間町１番地１,,22,101,4200035,,,2021-10-05,清算の結了等,,,2015-10-05,1,,,,,ビビニイト,0
1907,6090002015726,登記記録の閉鎖等,0,2021-10-08,2021-10-01,有限会社富士化工,,有限会社,山梨県,北杜市,須玉町若神子１４９６番地,,19,209,4080112,,,2021-10-01,清算の結了等,,,2021-06-08,1,,,,,フジカコウ,0
1973,6160001015686,登記記録の閉鎖等,0,2021-10-08,2021-10-04,株式会社ベル,,株式会社,滋賀県,野洲市,北野１丁目９番２０号,,25,210,5202361,,,2021-10-04,清算の結了等,,,2015-10-05,1,,,,,ベル,0
1976,6180001006931,登記記録の閉鎖等,0,2021-10-08,2021-10-05,東海電子熱錬株式会社,,株式会社,愛知県,名古屋市港区,油屋町１丁目１３番地,,23,111,4550815,,,2021-10-05,清算の結了等,,,2015-10-05,1,,,,,トウカイデンシネツレン,0
1987,6180002074309,登記記録の閉鎖等,0,2021-10-08,2021-09-30,有限会社サン企画,,有限会社,愛知県,小牧市,大字間々原新田１８９３番地１,,23,219,4850016,,,2021-09-30,清算の結了等,,,2015-10-05,1,,,,,サンキカク,0
1994,6180301026142,登記記録の閉鎖等,0,2021-10-08,2021-10-01,株式会社ＮＡＪ,,株式会社,愛知県,豊田市,西岡町石畑１番地,,23,211,4730936,,,2021-10-01,合併による解散等,2180301028209,令和３年１０月１日愛知県刈谷市井ケ谷町庄司１番地２株式会社沁耀（2180301028209）に合併し解散,2015-10-05,1,,,,,エヌエージェー,0
1996,6180302028014,登記記録の閉鎖等,0,2021-10-08,2021-10-04,有限会社伊藤衣料,,有限会社,愛知県,北設楽郡東栄町,大字三輪字下奈根９４番地１,,23,562,4490216,,,2021-10-04,清算の結了等,,,2015-10-05,1,,,,,イトウイリョウ,0
2006,6230002000886,登記記録の閉鎖等,0,2021-10-08,2021-10-01,有限会社川端製餡所,,有限会社,富山県,富山市,室町通り２丁目２番２４号,,16,201,9300051,,,2021-10-01,清算の結了等,,,2015-10-05,1,,,,,カワバタセイアンショ,0
2027,6290002013817,登記記録の閉鎖等,0,2021-10-08,2021-10-01,有限会社ローレル,,有限会社,福岡県,福岡市中央区,今泉１丁目１３番９号,,40,133,8100021,,,2021-10-01,合併による解散等,5290001075248,令和３年１０月１日福岡市中央区大濠公園２番３５号ＴＨＥＡＰＡＲＴＭＥＮＴ７０３号室株式会社アップサイド（5290001075248）に合併し解散,2015-10-05,1,,,,,ローレル,0
2047,6330001009976,登記記録の閉鎖等,0,2021-10-08,2021-10-01,肥後リカー株式会社,,株式会社,熊本県,熊本市中央区,花畑町４番３号,,43,101,8600806,,,2021-10-01,合併による解散等,4330001021405,令和３年１０月１日熊本市中央区花畑町４番３号九州産交リテール株式会社（4330001021405）に合併し解散,2015-10-05,1,,,,,ヒゴリカー,0
2063,6370001013223,登記記録の閉鎖等,0,2021-10-08,2021-09-30,株式会社仙台資源回収社,,株式会社,宮城県,塩竈市,新富町１８番２８号,,04,203,9850022,,,2021-09-30,清算の結了等,,,2015-10-05,1,,,,,センダイシゲンカイシュウシャ,0
2067,6370001046297,登記記録の閉鎖等,0,2021-10-08,2021-09-28,株式会社ａｒｓ,,株式会社,宮城県,黒川郡大衡村,大森字鎌砥裏２４番地１,,04,424,9813605,,,2021-09-28,清算の結了等,,,2020-10-26,1,,,,,アルス,0
2070,6370005000886,登記記録の閉鎖等,0,2021-10-08,2021-09-29,協同組合日専連仙台,,その他の設立登記法人,宮城県,仙台市青葉区,本町２丁目１６番１２号,,04,101,9800014,,,2021-09-29,清算の結了等,,,2015-10-05,1,,,,,ニッセンレンセンダイ,0
2076,6380003001373,登記記録の閉鎖等,0,2021-10-08,2021-10-04,合資会社ダイビングショップパビリオン,,合資会社,福島県,いわき市,小名浜林城字下高田１５番地の３,,07,204,9718122,,,2021-10-04,清算の結了等,,,2015-10-05,1,,,,,ダイビングショップパビリオン,0
2081,6400601000765,登記記録の閉鎖等,0,2021-10-08,2021-10-05,株式会社リサイエンスシステム東日本,,株式会社,岩手県,奥州市,水沢佐倉河字向川原８６番地,,03,215,0230003,,,2021-10-05,清算の結了等,,,2015-10-05,1,,,,,リサイエンスシステムヒガシニホン,0
2096,6460001004758,登記記録の閉鎖等,0,2021-10-08,2021-10-04,株式会社小林新聞店,,株式会社,北海道,釧路市,美原３丁目５番６号,,01,206,0850065,,,2021-10-04,清算の結了等,,,2015-10-05,1,,,,,コバヤシシンブンテン,0
2097,6470001005202,登記記録の閉鎖等,0,2021-10-08,2021-10-05,四国インテリア株式会社,,株式会社,香川県,高松市,国分寺町国分１７９番地５,,37,201,7690102,,,2021-10-05,清算の結了等,,,2015-10-05,1,,,,,シコクインテリア,0
2114,7010003024773,登記記録の閉鎖等,0,2021-10-08,2021-10-04,アストマックス・エネルギー合同会社,,合同会社,東京都,品川区,東五反田２丁目１０番２号,,13,109,1410022,,,2021-10-04,合併による解散等,8010401130032,令和３年１０月１日東京都品川区東五反田二丁目１０番２号アストマックス・エネルギー株式会社（8010401130032）に合併し解散,2017-02-08,1,,,,,アストマックスエネルギー,0
2117,7010005017890,登記記録の閉鎖等,0,2021-10-08,2021-10-01,Ｔｅｎｊｉｎ－１　Ｒｅｔａｉｌ　Ｊａｐａｎ　Ｈｏｌｄｉｎｇ特定目的会社,,その他の設立登記法人,東京都,千代田区,霞が関３丁目２番５号霞が関ビル,,13,101,1000013,,,2021-10-01,清算の結了等,,,2015-10-05,1,,,,,テンジンワンリテールジャパンホールディング,0
2141,7010505002161,登記記録の閉鎖等,0,2021-10-08,2021-10-04,一般財団法人日本漫画事務局八月十五日の会,,その他の設立登記法人,東京都,台東区,駒形１丁目３番１６号駒形プラザビル４階,,13,106,1110043,,,2021-10-04,清算の結了等,,,2015-10-05,1,,,,,ニホンマンガジムキョクハチガツジュウゴニチノカイ,0
2147,7010901003531,登記記録の閉鎖等,0,2021-10-08,2021-10-01,株式会社グラシヤ,,株式会社,東京都,世田谷区,野沢３丁目３番３号,,13,112,1540003,,,2021-10-01,清算の結了等,,,2015-10-05,1,,,,,グラシヤ,0
2183,7011601017128,登記記録の閉鎖等,0,2021-10-08,2021-10-07,ダイエイ産業株式会社,,株式会社,東京都,練馬区,早宮１丁目２９番１４号,,13,120,1790085,,,2021-10-07,清算の結了等,,,2015-10-05,1,,,,,ダイエイサンギョウ,0
2220,7020002032818,登記記録の閉鎖等,0,2021-10-08,2021-10-01,有限会社エム・エヌ・エス,,有限会社,神奈川県,横浜市港北区,日吉本町１丁目９番１５号,,14,109,2230062,,,2021-10-01,清算の結了等,,,2015-10-05,1,,,,,エムエヌエス,0
2226,7020003019302,登記記録の閉鎖等,0,2021-10-08,2021-10-04,合同会社馬絹電機,,合同会社,神奈川県,川崎市宮前区,馬絹４丁目３６－４,,14,136,2160035,,,2021-10-04,清算の結了等,,,2021-02-18,1,,,,,マギヌデンキ,0
2235,7021001046296,登記記録の閉鎖等,0,2021-10-08,2021-10-05,株式会社Ｊ・Ｉ・Ｂ,,株式会社,神奈川県,藤沢市,辻堂２丁目２０番１３号,00105407,14,205,2510047,,,2021-10-05,清算の結了等,,,2015-10-05,1,,,,,ジェイアイビー,0
2254,7030003013849,登記記録の閉鎖等,0,2021-10-08,2021-09-27,天宝通商合同会社,,合同会社,埼玉県,三郷市,彦成４丁目１番２０－３３１号,,11,237,3410003,,,2021-09-27,清算の結了等,,,2019-08-05,1,,,,,テンホウツウショウ,0
2280,7060002000696,登記記録の閉鎖等,0,2021-10-08,2021-10-01,有限会社秋葉商店,,有限会社,栃木県,宇都宮市,高砂町１３番１１号,,09,201,3210134,,,2021-10-01,清算の結了等,,,2015-10-05,1,,,,,アキバショウテン,0
2282,7070001019456,登記記録の閉鎖等,0,2021-10-08,2021-10-05,株式会社松竹トレーディング,,株式会社,群馬県,太田市,安良岡町７５番地,,10,205,3730811,,,2021-10-05,清算の結了等,,,2015-10-05,1,,,,,ショウチクトレーディング,0
2284,7070002015990,登記記録の閉鎖等,0,2021-10-08,2021-10-05,有限会社飯野電設,,有限会社,群馬県,富岡市,原乙８７５番地,,10,210,3702467,,,2021-10-05,清算の結了等,,,2015-10-05,1,,,,,イイノデンセツ,0
2286,7070002020355,登記記録の閉鎖等,0,2021-10-08,2021-10-06,有限会社加藤エンジニアリング,,有限会社,群馬県,伊勢崎市,境伊与久１６６２番地の５,,10,204,3700105,,,2021-10-06,清算の結了等,,,2015-10-05,1,,,,,カトウエンジニアリング,0
2287,7070003001908,登記記録の閉鎖等,0,2021-10-08,2021-10-01,株式会社あかぎ,,株式会社,東京都,中央区,銀座１丁目２２番１－１６０６号,,13,102,1040061,,,2021-10-01,合併による解散等,3070001030177,令和３年１０月１日東京都中央区銀座一丁目２２番１－１６０６号株式会社桐生ホールディングス（3070001030177）に合併し解散,2015-10-05,1,,,,,アカギ,0
2289,7080101013416,登記記録の閉鎖等,0,2021-10-08,2021-10-05,株式会社大熊,,株式会社,静岡県,伊東市,湯川２丁目３番３号,,22,208,4140002,,,2021-10-05,清算の結了等,,,2015-10-05,1,,,,,オオクマ,0
2296,7090001015032,登記記録の閉鎖等,0,2021-10-08,2021-09-28,株式会社清水家プロジェクト,,株式会社,山梨県,北杜市,小淵沢町１００６０番地１６３小淵沢アートヴィレッジ,,19,209,4080044,,,2021-09-28,清算の結了等,,,2017-03-17,1,,,,,,0
2302,7100002015921,登記記録の閉鎖等,0,2021-10-08,2021-10-04,有限会社物語,,有限会社,長野県,東御市,和３４７１番地１,,20,219,3890505,,,2021-10-04,清算の結了等,,,2015-10-05,1,,,,,モノガタリ,0
2307,7120001061956,登記記録の閉鎖等,0,2021-10-08,2021-10-01,オグラ産業株式会社,,株式会社,大阪府,吹田市,芳野町１８番２３号,,27,205,5640054,,,2021-10-01,合併による解散等,8120901017453,令和３年１０月１日大阪府吹田市芳野町１８番２３号昭和化工株式会社（8120901017453）に合併し解散,2015-10-05,1,,,,,オグラサンギョウ,0
2336,7130001049488,登記記録の閉鎖等,0,2021-10-08,2021-10-04,株式会社精道館,,株式会社,福島県,郡山市,安積町長久保１丁目２－１ゆいビル２０１号,,07,203,9630105,,,2021-10-04,清算の結了等,,,2015-10-05,1,,,,,セイドウカン,0
2337,7130001064256,登記記録の閉鎖等,0,2021-10-08,2021-10-04,株式会社Ｓ－ＦＬＡＴ,,株式会社,京都府,京都市南区,上鳥羽金仏２６番地１ヴィラアルカンシェル３０１号,,26,107,6018175,,,2021-10-04,清算の結了等,,,2019-04-08,1,,,,,エスフラット,0
2345,7140001121171,登記記録の閉鎖等,0,2021-10-08,2021-10-01,株式会社マネーグラム,,株式会社,兵庫県,神戸市東灘区,向洋町中６丁目９番地神戸ファッションマート,,28,101,6580032,,,2021-10-01,清算の結了等,,,2021-04-09,1,,,,,マネーグラム,0
2375,7180301005302,登記記録の閉鎖等,0,2021-10-08,2021-10-05,株式会社小川鉄工,,株式会社,愛知県,豊橋市,小池町４１番地の１,,23,201,4418042,,,2021-10-05,清算の結了等,,,2015-10-05,1,,,,,オガワテッコウ,0
2381,7190002015252,登記記録の閉鎖等,0,2021-10-08,2021-10-07,有限会社ブリックス通信,,有限会社,三重県,松阪市,上七見町５２５番地,,24,204,5150201,,,2021-10-07,清算の結了等,,,2015-10-05,1,,,,,ブリックスツウシン,0
2383,7190005006521,登記記録の閉鎖等,0,2021-10-08,2021-10-06,協同組合松阪卸センター,,その他の設立登記法人,三重県,松阪市,宮町１００番地の１１,,24,204,5150015,,,2021-10-06,清算の結了等,,,2015-10-05,1,,,,,マツサカオロシセンター,0
2406,7260005010243,登記記録の閉鎖等,0,2021-10-08,2021-10-01,一般社団法人岡山大学病院,,その他の設立登記法人,岡山県,岡山市南区,福浜町１３番１０号,,33,104,7028035,,,2021-10-01,合併による解散等,2260005010090,令和３年１０月１日岡山市南区福浜町１３番１０号一般社団法人ＯＵＭＣ（2260005010090）に合併し解散,2017-03-31,1,,,,,オカヤマダイガクビョウイン,0
2410,7290001010558,登記記録の閉鎖等,0,2021-10-08,2021-09-30,正宗株式会社,,株式会社,福岡県,福岡市中央区,長浜２丁目４番１号,,40,133,8100072,,,2021-09-30,合併による解散等,8290001019103,令和３年９月３０日福岡市中央区長浜二丁目４番１号三泉化成株式会社（8290001019103）に合併し解散,2015-10-05,1,,,,,マサムネ,0
2422,7310002014200,登記記録の閉鎖等,0,2021-10-08,2021-10-04,松野畜産有限会社,,有限会社,長崎県,西海市,大瀬戸町多以良外郷２０４９番地２,,42,212,8572311,,,2021-10-04,清算の結了等,,,2015-10-05,1,,,,,マツノチクサン,0
2431,7330003005279,登記記録の閉鎖等,0,2021-10-08,2021-09-29,ＣＮＰＶ　ＪＡＰＡＮ津奈木太陽光発電所合同会社,,合同会社,熊本県,葦北郡津奈木町,大字福浜字八迫５００８番２２,,43,484,8695605,,,2021-09-29,清算の結了等,,,2015-10-05,1,,,,,シーエヌピーヴイジャパンツナキタイヨウコウハツデン,0
2451,7380005010578,登記記録の閉鎖等,0,2021-10-08,2021-10-04,一般社団法人南会津生活産業創造教育機構,,その他の設立登記法人,福島県,南会津郡南会津町,田島字後原甲３７６５番地４,,07,368,9670004,,,2021-10-04,清算の結了等,,,2015-10-05,1,,,,,ミナミアイズセイカツサンギョウソウゾウキョウイクキコウ,0
2452,7390002014861,登記記録の閉鎖等,0,2021-10-08,2021-10-04,カインドネス有限会社,,有限会社,宮城県,仙台市泉区,泉中央１丁目７番地の１,,04,105,9813133,,,2021-10-04,合併による解散等,4370001013217,令和３年１０月１日仙台市泉区泉中央一丁目７番地の１シップヘルスケアファーマシー東日本株式会社（4370001013217）に合併し解散,2015-10-05,1,,,,,カインドネス,0
2463,7460302001073,登記記録の閉鎖等,0,2021-10-08,2021-10-05,有限会社道東メデイカル・サービス,,有限会社,北海道,北見市,北五条西４丁目７番地１,,01,208,0900045,,,2021-10-05,清算の結了等,,,2015-10-05,1,,,,,ドウトウメデイカルサービス,0
2465,7480001006561,登記記録の閉鎖等,0,2021-10-08,2021-10-04,株式会社阿南中央地方卸売市場,,株式会社,徳島県,阿南市,見能林町どぶ石３番地の１,,36,204,7740017,,,2021-10-04,清算の結了等,,,2015-10-05,1,,,,,アナンチュウオウチホウオロシウリイチバ,0
2470,7500001006014,登記記録の閉鎖等,0,2021-10-08,2021-10-06,株式会社ＨＧフーズ,,株式会社,愛媛県,松山市,永木町２丁目１番２１号５０５号,,38,201,7900866,,,2021-10-06,清算の結了等,,,2015-10-05,1,,,,,エイチジーフーズ,0
2474,8010001051637,登記記録の閉鎖等,0,2021-10-08,2021-10-05,東栄化成株式会社,,株式会社,東京都,中央区,日本橋本町３丁目８番３号,,13,102,1030023,,,2021-10-05,合併による解散等,3120001149722,令和３年１０月１日大阪市中央区今橋二丁目５番８号ジャパンコーティングレジン株式会社（3120001149722）に合併し解散,2015-10-05,1,,,,,トウエイカセイ,0
2492,8010401104787,登記記録の閉鎖等,0,2021-10-08,2021-10-04,株式会社フレデリック,,株式会社,東京都,港区,新橋３丁目４番５号新橋フロンティアビル８階,,13,103,1050004,,,2021-10-04,合併による解散等,4200001004612,令和３年９月３０日岐阜市神田町一丁目８番４プラドビル株式会社プラド（4200001004612）に合併し解散,2015-10-05,1,,,,,フレデリック,0
2509,8010405012292,登記記録の閉鎖等,0,2021-10-08,2021-10-04,一般社団法人危機管理リーダー教育協会,,その他の設立登記法人,東京都,千代田区,神田須田町２丁目２５番地ＧＹＢ秋葉原５階,,13,101,1010041,,,2021-10-04,清算の結了等,,,2015-10-05,1,,,,,キキカンリリーダーキョウイクキョウカイ,0
2532,8011101036247,登記記録の閉鎖等,0,2021-10-08,2021-10-04,株式会社ブイアイティ,,株式会社,東京都,豊島区,高田１丁目１３番８号,,13,116,1710033,,,2021-10-04,清算の結了等,,,2015-10-05,1,,,,,,0
2550,8012401030195,登記記録の閉鎖等,0,2021-10-08,2021-10-01,エーアンドエム株式会社,,株式会社,東京都,武蔵野市,吉祥寺南町３丁目４番３－４１５号井の頭公園パークハウス,,13,203,1800003,,,2021-10-01,清算の結了等,,,2015-10-05,1,,,,,エーアンドエム,0
2570,8020002005673,登記記録の閉鎖等,0,2021-10-08,2021-10-04,有限会社かっすい倶楽部,,有限会社,神奈川県,横浜市都筑区,東方町８９番地,,14,118,2240045,,,2021-10-04,清算の結了等,,,2015-10-05,1,,,,,カッスイクラブ,0
2581,8021002055122,登記記録の閉鎖等,0,2021-10-08,2021-10-05,有限会社アイビー不動産,,有限会社,神奈川県,足柄上郡松田町,松田惣領１３２１番地１,,14,363,2580003,,,2021-10-05,清算の結了等,,,2015-10-05,1,,,,,,0
2582,8021002059239,登記記録の閉鎖等,0,2021-10-08,2021-10-05,有限会社初芝建築設計事務所,,有限会社,神奈川県,平塚市,万田３７１番地の６,,14,203,2540913,,,2021-10-05,清算の結了等,,,2015-10-05,1,,,,,ハツシバケンチクセッケイジムショ,0
2587,8030001051503,登記記録の閉鎖等,0,2021-10-08,2021-09-28,株式会社三徳,,株式会社,埼玉県,春日部市,大場８７２番地６,,11,214,3440021,,,2021-09-28,清算の結了等,,,2015-10-05,1,,,,,ミノリ,0
2590,8030001098965,登記記録の閉鎖等,0,2021-10-08,2021-09-28,株式会社ＡＳテクノ,,株式会社,埼玉県,さいたま市南区,白幡５丁目１２番１０号,,11,108,3360022,,,2021-09-28,清算の結了等,,,2015-10-05,1,,,,,エーエステクノ,0
2601,8040001047698,登記記録の閉鎖等,0,2021-10-08,2021-09-30,株式会社トーケン,,株式会社,千葉県,八街市,朝日５６０番地の２,,12,230,2891101,,,2021-09-30,清算の結了等,,,2015-10-05,1,,,,,トーケン,0
2602,8040001065527,登記記録の閉鎖等,0,2021-10-08,2021-09-30,株式会社京北商事,,株式会社,千葉県,柏市,柏１丁目４番３号,,12,217,2770005,,,2021-09-30,清算の結了等,,,2015-10-05,1,,,,,ケイホクショウジ,0
2603,8040001076490,登記記録の閉鎖等,0,2021-10-08,2021-09-30,株式会社流山聖地,,株式会社,千葉県,流山市,大字西深井２１７３番地の１,,12,220,2700107,,,2021-09-30,清算の結了等,,,2015-10-05,1,,,,,ナガレヤマセイチ,0
2608,8040002010853,登記記録の閉鎖等,0,2021-10-08,2021-09-30,有限会社松戸溶接工業,,有限会社,千葉県,千葉市美浜区,幕張西５丁目１２番１３号,,12,106,2610026,,,2021-09-30,清算の結了等,,,2015-10-05,1,,,,,マツドヨウセツコウギョウ,0
2610,8040002046336,登記記録の閉鎖等,0,2021-10-08,2021-09-30,新松戸動物病院有限会社,,有限会社,千葉県,松戸市,新松戸６丁目１３番地の２,,12,207,2700034,,,2021-09-30,清算の結了等,,,2015-10-05,1,,,,,シンマツドドウブツビョウイン,0
2630,8080001018241,登記記録の閉鎖等,0,2021-10-08,2021-10-05,株式会社旧はっぴい,,株式会社,静岡県,静岡市清水区,草薙１１３１番地の１,,22,103,4240886,,,2021-10-05,清算の結了等,,,2015-10-05,1,,,,,キュウハッピイ,0
2631,8080001022557,登記記録の閉鎖等,0,2021-10-08,2021-09-29,株式会社泰平舎,,株式会社,静岡県,静岡市駿河区,南町１０番１１号,,22,102,4228067,,,2021-09-29,合併による解散等,1080001009627,令和３年９月２９日静岡市駿河区南町１０番１１号株式会社地建（1080001009627）に合併し解散,2018-11-27,1,,,,,タイヘイシャ,0
2639,8100002028468,登記記録の閉鎖等,0,2021-10-08,2021-10-04,株式会社大和屋旅館,,株式会社,長野県,諏訪市,末広２番２号,,20,206,3920025,,,2021-10-04,清算の結了等,,,2015-10-05,1,,,,,ヤマトヤリョカン,0
2677,8122001016410,登記記録の閉鎖等,0,2021-10-08,2021-10-05,株式会社山縣建設,,株式会社,大阪府,四條畷市,田原台４丁目１４番１号,,27,229,5750013,,,2021-10-05,合併による解散等,7011801006509,令和３年１０月１日東京都足立区佐野二丁目２０番１号株式会社オーケーソイル（7011801006509）に合併し解散,2015-10-05,1,,,,,ヤマガタケンセツ,0
2704,8160001008119,登記記録の閉鎖等,0,2021-10-08,2021-10-06,株式会社近江カラー現像所,,株式会社,滋賀県,彦根市,戸賀町９５番地の１８,,25,202,5220042,,,2021-10-06,清算の結了等,,,2015-10-05,1,,,,,オウミカラーゲンゾウショ,0
2712,8180001054160,登記記録の閉鎖等,0,2021-10-08,2021-10-04,株式会社オールクリエ,,株式会社,愛知県,名古屋市西区,枇杷島３丁目３１番６号,,23,104,4510053,,,2021-10-04,清算の結了等,,,2015-10-05,1,,,,,オールクリエ,0
2713,8180001082161,登記記録の閉鎖等,0,2021-10-08,2021-09-30,株式会社今枝ラタン,,株式会社,愛知県,一宮市,今伊勢町馬寄字桑屋敷１番地,,23,203,4910051,,,2021-09-30,合併による解散等,8180001111085,令和３年９月３０日愛知県一宮市今伊勢町馬寄字桑屋敷１番地株式会社今枝ラタンホールディングス（8180001111085）に合併し解散,2015-10-05,1,,,,,イマエダラタン,0
2734,8200002016396,登記記録の閉鎖等,0,2021-10-08,2021-10-05,有限会社柘植基礎,,有限会社,岐阜県,加茂郡白川町,三川７２５番地の１,,21,506,5091113,,,2021-10-05,清算の結了等,,,2015-10-05,1,,,,,ツゲキソ,0
2740,8230001012501,登記記録の閉鎖等,0,2021-10-08,2021-09-29,日本海ビル保全株式会社,,株式会社,富山県,射水市,中新湊２番８号,,16,211,9340027,,,2021-09-29,清算の結了等,,,2015-10-05,1,,,,,ニホンカイビルホゼン,0
2764,8290001042162,登記記録の閉鎖等,0,2021-10-08,2021-09-22,株式会社ケイ・シー・エム，リーシング,,株式会社,福岡県,福岡市中央区,赤坂２丁目５番５０号,,40,133,8100042,,,2021-09-22,清算の結了等,,,2015-10-05,1,,,,,ケイシーエムリーシング,0
2771,8290801007918,登記記録の閉鎖等,0,2021-10-08,2021-09-29,株式会社フェリーチェ,,株式会社,福岡県,北九州市小倉北区,船場町２－１０近藤会館６Ｆ－Ａ,,40,106,8020007,,,2021-09-29,清算の結了等,,,2015-10-05,1,,,,,フェリーチェ,0
2773,8290802014938,登記記録の閉鎖等,0,2021-10-08,2021-09-24,二十一世紀観光有限会社,,有限会社,福岡県,北九州市八幡西区,御開２丁目４番１４号,,40,109,8070806,,,2021-09-24,清算の結了等,,,2015-10-05,1,,,,,ニジュウイッセイキカンコウ,0
2795,8380001021850,登記記録の閉鎖等,0,2021-10-08,2021-10-04,株式会社ひばり常駐警備,,株式会社,福島県,南相馬市,原町区桜井町１丁目１４２番地の１,,07,212,9750032,,,2021-10-04,清算の結了等,,,2015-10-05,1,,,,,ヒバリジョウチュウケイビ,0
2809,8420002016028,登記記録の閉鎖等,0,2021-10-08,2021-10-05,有限会社アジマス,,有限会社,青森県,南津軽郡藤崎町,大字榊字亀田２番地３０,00087835,02,361,0381216,,,2021-10-05,清算の結了等,,,2015-10-05,1,,,,,アジマス,0
2823,8450001009483,登記記録の閉鎖等,0,2021-10-08,2021-10-06,美装販売株式会社,,株式会社,北海道,紋別市,大山町２丁目２５番８号,,01,219,0940021,,,2021-10-06,清算の結了等,,,2015-10-05,1,,,,,ビソウハンバイ,0
2836,8490005001895,登記記録の閉鎖等,0,2021-10-08,2021-10-07,特定非営利活動法人きぼうの空へ,,その他の設立登記法人,高知県,香美市,土佐山田町西本町１丁目６番４号,,39,212,7820032,,,2021-10-07,清算の結了等,,,2015-10-05,1,,,,,キボウノソラヘ,0
2847,9010003011646,登記記録の閉鎖等,0,2021-10-08,2021-09-30,合資会社オムレツ,,合資会社,東京都,文京区,音羽２丁目１番２号,,13,105,1120013,,,2021-09-30,清算の結了等,,,2015-10-05,1,,,,,オムレツ,0
2848,9010003022346,登記記録の閉鎖等,0,2021-10-08,2021-09-30,Ｓ．Ｏ．Ｗ．アセットファイナンスＷＯ合同会社,,合同会社,東京都,千代田区,神田神保町３丁目５番地,,13,101,1010051,,,2021-09-30,清算の結了等,,,2015-10-05,1,,,,,エスオーダブリューアセットファイナンスダブリューオー,0
2860,9010401125089,登記記録の閉鎖等,0,2021-10-08,2021-09-30,Ｔｕｂｅ株式会社,,株式会社,千葉県,市川市,市川１丁目４番１０号市川ビル８階,,12,203,2720034,,,2021-09-30,合併による解散等,8040001032114,令和３年８月１日千葉県市川市市川一丁目４番１０号市川ビル８階株式会社デベロップ（8040001032114）に合併し解散,2016-05-30,1,,,,,チューブ,0
2863,9010401159293,登記記録の閉鎖等,0,2021-10-08,2021-09-27,株式会社ｓｅｎｓｅ　ｌａｂ,,株式会社,東京都,港区,南青山５丁目１８－１０コーポラス明石１０２,,13,103,1070062,,,2021-09-27,清算の結了等,,,2021-04-06,1,,,,,,0
2868,9010403012649,登記記録の閉鎖等,0,2021-10-08,2021-09-29,合同会社那須寺子,,合同会社,東京都,千代田区,一番町９番地８ノザワビルディング６階税理士法人シリウス内,,13,101,1020082,,,2021-09-29,清算の結了等,,,2015-10-05,1,,,,,ナステラコ,0
2869,9010403023951,登記記録の閉鎖等,0,2021-10-08,2021-09-28,合同会社トレック・ムーン,,合同会社,東京都,港区,赤坂７丁目６番１５号,,13,103,1070052,,,2021-09-28,清算の結了等,,,2020-10-21,1,,,,,トレックムーン,0
2880,9011001005887,登記記録の閉鎖等,0,2021-10-08,2021-09-21,株式会社雁音,,株式会社,東京都,渋谷区,松濤１丁目１４番５号,,13,113,1500046,,,2021-09-21,清算の結了等,,,2015-10-05,1,,,,,カリガネ,0
2908,9011602002119,登記記録の閉鎖等,0,2021-10-08,2021-10-07,有限会社大森労務コンサルタント,,有限会社,東京都,練馬区,東大泉５丁目７番１３号,,13,120,1780063,,,2021-10-07,清算の結了等,,,2015-10-05,1,,,,,オオモリロウムコンサルタント,0
2912,9011602022001,登記記録の閉鎖等,0,2021-10-08,2021-10-05,有限会社ワイスリーコーポレーション,,有限会社,東京都,千代田区,神田佐久間町１丁目８番４号アルテール秋葉原７０８,,13,101,1010025,,,2021-10-05,清算の結了等,,,2015-10-05,1,,,,,ワイスリーコーポレーション,0
2918,9011801007513,登記記録の閉鎖等,0,2021-10-08,2021-10-05,株式会社弘栄木村建設,,株式会社,東京都,足立区,皿沼１丁目１７番１３号,,13,121,1230862,,,2021-10-05,清算の結了等,,,2015-10-05,1,,,,,コウエイキムラケンセツ,0
2925,9012401008356,登記記録の閉鎖等,0,2021-10-08,2021-10-04,西東京観光株式会社,,株式会社,東京都,調布市,国領町１丁目４０番地の８,,13,208,1820022,,,2021-10-04,清算の結了等,,,2015-10-05,1,,,,,ニシトウキョウカンコウ,0
2931,9012405000499,登記記録の閉鎖等,0,2021-10-08,2021-09-07,企業組合ワーカーズ・コレクティブとまと,,その他の設立登記法人,東京都,国立市,北３丁目２３番の３,,13,215,1860001,,,2021-09-07,清算の結了等,,,2015-10-05,1,,,,,ワーカーズコレクティブトマト,0
2938,9013102006145,登記記録の閉鎖等,0,2021-10-08,2021-06-29,有限会社栄工業,,有限会社,東京都,青梅市,木野下１丁目４４９番地の１,,13,205,1980013,,,2021-06-29,清算の結了等,,,2015-10-05,1,,,,,,0
2959,9021001020183,登記記録の閉鎖等,0,2021-10-08,2021-10-04,信和不動産株式会社,,株式会社,神奈川県,厚木市,関口２２８番地２,,14,212,2430804,,,2021-10-04,清算の結了等,,,2015-10-05,1,,,,,シンワフドウサン,0
2967,9021002025025,登記記録の閉鎖等,0,2021-10-08,2021-10-05,有限会社ヤマグチ,,有限会社,神奈川県,相模原市緑区,下九沢４６２番地の３,,14,151,2520134,,,2021-10-05,清算の結了等,,,2015-10-05,1,,,,,ヤマグチ,0
2984,9040002006875,登記記録の閉鎖等,0,2021-10-08,2021-09-29,有限会社高尾工業,,有限会社,千葉県,千葉市緑区,あすみが丘東２丁目１８０５番地の２７,,12,105,2670067,,,2021-09-29,清算の結了等,,,2015-10-05,1,,,,,,0
2993,9060002012748,登記記録の閉鎖等,0,2021-10-08,2021-10-01,有限会社手塚産業,,有限会社,栃木県,さくら市,氏家２７６９番地６,,09,214,3291311,,,2021-10-01,清算の結了等,,,2015-10-05,1,,,,,テヅカサンギョウ,0
2999,9070002003250,登記記録の閉鎖等,0,2021-10-08,2021-10-05,有限会社大徳商事,,有限会社,群馬県,前橋市,箱田町３２３番地１,,10,201,3710837,,,2021-10-05,清算の結了等,,,2015-10-05,1,,,,,ダイトクショウジ,0
3003,9080401006233,登記記録の閉鎖等,0,2021-10-08,2021-10-01,株式会社ホンダプリモ浜名湖,,株式会社,静岡県,浜松市西区,雄踏１丁目２２番３３号,,22,133,4310103,,,2021-10-01,合併による解散等,1080401004888,令和３年１０月１日静岡県浜松市東区和田町７３８番地株式会社ホンダクリオ東海（1080401004888）に合併し解散,2015-10-05,1,,,,,ホンダプリモハマナコ,0
3016,9100003004525,登記記録の閉鎖等,0,2021-10-08,2021-10-04,合同会社Ｆ．Ｒ．Ｃ,,合同会社,長野県,長野市,大字安茂里１０９７－１グランシャリオＡ１０２,,20,201,3800941,,,2021-10-04,清算の結了等,,,2016-10-21,1,,,,,エフアールシー,0
3058,9130001010646,登記記録の閉鎖等,0,2021-10-08,2021-10-01,株式会社ＳＣＲＥＥＮ　ＳＰＥサーク,,株式会社,京都府,京都市南区,久世築山町５５７－１,,26,107,6018203,,,2021-10-01,合併による解散等,9130001011198,令和３年１０月１日京都市伏見区羽束師古川町３２２番地株式会社ＳＣＲＥＥＮ　ＳＰＥテック（9130001011198）に合併し解散,2015-10-05,1,,,,,スクリーンエスピーイーサーク,0
3067,9130005005460,登記記録の閉鎖等,0,2021-10-08,2021-10-04,特定非営利活動法人京都府防犯設備士協会,,その他の設立登記法人,京都府,京都市上京区,下立売通新町東入東立売町１９５防犯会館１階,,26,102,6028027,,,2021-10-04,清算の結了等,,,2015-10-05,1,,,,,キョウトフボウハンセツビシキョウカイ,0
3087,9160002008447,登記記録の閉鎖等,0,2021-10-08,2021-10-05,有限会社西澤与平商店,,有限会社,滋賀県,彦根市,薩摩町１２７２番地,00044655,25,202,5211147,,,2021-10-05,清算の結了等,,,2015-10-05,1,,,,,ニシザワヨヘイショウテン,0
3090,9170002002358,登記記録の閉鎖等,0,2021-10-08,2021-10-01,竹田興産有限会社,,有限会社,和歌山県,和歌山市,南汀丁８番地,,30,201,6408232,,,2021-10-01,合併による解散等,7170001001750,令和３年１０月１日和歌山市南汀丁８番地和歌山セイカホールディングス株式会社（7170001001750）に合併し解散,2015-10-05,1,,,,,タケダコウサン,0
3105,9180301018698,登記記録の閉鎖等,0,2021-10-08,2021-10-04,ツツミ工業株式会社,,株式会社,愛知県,豊田市,堤町寺池１番地１,,23,211,4730932,,,2021-10-04,清算の結了等,,,2015-10-05,1,,,,,ツツミコウギョウ,0
3109,9180302007790,登記記録の閉鎖等,0,2021-10-08,2021-10-04,有限会社清水設備,,有限会社,愛知県,豊橋市,弥生町字中原８番地の３,,23,201,4418106,,,2021-10-04,清算の結了等,,,2015-10-05,1,,,,,シミズセツビ,0
3131,9260001026761,登記記録の閉鎖等,0,2021-10-08,2021-10-07,アグリエイト株式会社,,株式会社,岡山県,岡山市南区,西七区４６９番地,,33,104,7091202,,,2021-10-07,清算の結了等,,,2015-10-05,1,,,,,アグリエイト,0
3137,9290001012230,登記記録の閉鎖等,0,2021-10-08,2021-09-21,株式会社カスタムモータース,,株式会社,福岡県,福岡市博多区,空港前１丁目８番３号,,40,132,8120002,,,2021-09-21,清算の結了等,,,2015-10-05,1,,,,,カスタムモータース,0
3170,9350002001028,登記記録の閉鎖等,0,2021-10-08,2021-10-06,有限会社柿木建設,,有限会社,宮崎県,宮崎市,清武町加納甲１４５０番地２,,45,201,8891605,,,2021-10-06,清算の結了等,,,2015-10-05,1,,,,,カキノキケンセツ,0
3193,9430002033921,登記記録の閉鎖等,0,2021-10-08,2021-10-06,有限会社石松興産,,有限会社,北海道,札幌市北区,新琴似十二条９丁目４番１９号,,01,102,0010912,,,2021-10-06,清算の結了等,,,2015-10-05,1,,,,,,0
