sequenceNumber,corporateNumber,process,correct,updateDate,changeDate,name,nameImageId,kind,prefectureName,cityName,streetNumber,addressImageId,prefectureCode,cityCode,postCode,addressOutside,addressOutsideImageId,closeDate,closeCause,successorCorporateNumber,changeCause,assignmentDate,latest,enName,enPrefectureName,enCityName,enAddressOutside,furigana,hihyoji
5,1010001256721,新規,0,2025-07-10,2025-07-10,株式会社Ｔ‐１Ｃｌｏｕｄ,,株式会社,東京都,中央区,八重洲２丁目１番１号,,13,102,1040028,,,,,,,2025-07-10,1,,,,,ティーワンクラウド,0
6,1010001256738,新規,0,2025-07-10,2025-07-10,株式会社ｍｉｃｒｏｍｏｂｉｌｉｔｙＯＮＥ,,株式会社,東京都,千代田区,神田錦町３丁目２１ちよだプラットフォームスクウェア１０２９,,13,101,1010054,,,,,,,2025-07-10,1,,,,,マイクロモビリティワン,0
7,1010003047953,新規,0,2025-07-10,2025-07-10,コジラ合同会社,,合同会社,東京都,中央区,銀座７丁目１３番２０号銀座ＴＨビル９階,,13,102,1040061,,,,,,,2025-07-10,1,,,,,コジラ,0
8,1010003047994,新規,0,2025-07-10,2025-07-10,合同会社九州クワトロベータ,,合同会社,東京都,千代田区,丸の内１丁目４番１号東京共同会計事務所内,,13,101,1000005,,,,,,,2025-07-10,1,,,,,キュウシュウクワトロベータ,0
9,1010005040353,新規,0,2025-07-10,2025-07-10,一般社団法人志摩サステナブルソーラー,,その他の設立登記法人,東京都,千代田区,大手町１丁目６番１号ＳＰＡＣＥＳ大手町ビル,,13,101,1000004,,,,,,,2025-07-10,1,,,,,シマサステナブルソーラー,0
23,1010401191403,新規,0,2025-07-10,2025-07-10,ＰＡＳＳＩＯＮ株式会社,,株式会社,東京都,港区,高輪１丁目１９番１２－３０２号,,13,103,1080074,,,,,,,2025-07-10,1,,,,,パッション,0
24,1010401191592,新規,0,2025-07-10,2025-07-10,株式会社帯広リサアセットマネジメント,,株式会社,東京都,港区,港南２丁目１５番３号,,13,103,1080075,,,,,,,2025-07-10,1,,,,,オビヒロリサアセットマネジメント,0
25,1010401191626,新規,0,2025-07-10,2025-07-10,ｎａｎａ株式会社,,株式会社,東京都,港区,北青山１丁目３－３三橋ビル３階,,13,103,1070061,,,,,,,2025-07-10,1,,,,,ナナ,0
26,1010401191634,新規,0,2025-07-10,2025-07-10,株式会社Ｌａ　ｓｅｔｔｅ,,株式会社,東京都,港区,六本木７丁目４番１２号ジャスミンビルＢ２,,13,103,1060032,,,,,,,2025-07-10,1,,,,,ラセッテ,0
27,1010401191650,新規,0,2025-07-10,2025-07-10,株式会社ＲＡＩＳＥＥＤ,,株式会社,東京都,港区,六本木４丁目８番７号六本木嶋田ビル５Ｆ,,13,103,1060032,,,,,,,2025-07-10,1,,,,,レイシード,0
28,1010401191667,新規,0,2025-07-10,2025-07-10,ＡＩ　Ｎｙａｎ株式会社,,株式会社,東京都,港区,南青山２丁目２番１５号,,13,103,1070062,,,,,,,2025-07-10,1,,,,,エーアイニャン,0
29,1010401191691,新規,0,2025-07-10,2025-07-10,株式会社ＳＵＹ,,株式会社,東京都,港区,浜松町２丁目２番１５号浜松町ダイヤビル２Ｆ,,13,103,1050013,,,,,,,2025-07-10,1,,,,,エスユーワイ,0
30,1010501054385,新規,0,2025-07-10,2025-07-10,株式会社栄徳屋,,株式会社,東京都,台東区,浅草５丁目２９番１０号,,13,106,1110032,,,,,,,2025-07-10,1,,,,,エイトクヤ,0
31,1010505003611,新規,0,2025-07-10,2025-07-10,社会保険労務士法人パーソン法務事務所,,その他の設立登記法人,東京都,台東区,北上野２丁目３１番８号ツバタビル４Ｆ,,13,106,1100014,,,,,,,2025-07-10,1,,,,,パーソンホウムジムショ,0
34,1010601067592,新規,0,2025-07-10,2025-07-10,株式会社ＯＮＥ,,株式会社,東京都,江東区,新大橋３丁目３番５号,,13,108,1350007,,,,,,,2025-07-10,1,,,,,ワン,0
36,1010603011680,新規,0,2025-07-10,2025-07-10,ｍｅｍｅｎｔｏｍｏｒｉ合同会社,,合同会社,東京都,墨田区,東向島２丁目４０番９号,,13,107,1310032,,,,,,,2025-07-10,1,,,,,メメントモリ,0
38,1010701047949,新規,0,2025-07-10,2025-07-10,森本産業株式会社,,株式会社,東京都,品川区,北品川２丁目２４番３号藤一ビル３Ｆ,,13,109,1400001,,,,,,,2025-07-10,1,,,,,モリモトサンギョウ,0
39,1010701047965,新規,0,2025-07-10,2025-07-10,株式会社ミライト,,株式会社,東京都,品川区,上大崎２丁目２４－１８－８０２,,13,109,1410021,,,,,,,2025-07-10,1,,,,,ミライト,0
40,1010701048014,新規,0,2025-07-10,2025-07-10,株式会社ログライン,,株式会社,東京都,品川区,荏原４丁目８番７号,,13,109,1420063,,,,,,,2025-07-10,1,,,,,ログライン,0
41,1010703007802,新規,0,2025-07-10,2025-07-10,合同会社ＰＤＩＦ,,合同会社,東京都,品川区,東品川４丁目１２番９号,,13,109,1400002,,,,,,,2025-07-10,1,,,,,ピーディーアイエフ,0
44,1010801036372,新規,0,2025-07-10,2025-07-10,株式会社ＰＡＭＩＧＯ,,株式会社,東京都,大田区,大森西６丁目２番２号,,13,111,1430015,,,,,,,2025-07-10,1,,,,,,0
46,1010901057707,新規,0,2025-07-10,2025-07-10,株式会社ｄＡｔｅｌｉｅｒ,,株式会社,東京都,世田谷区,深沢１丁目１１－１０ザグレイシャス３０３,,13,112,1580081,,,,,,,2025-07-10,1,,,,,ディーアトリエ,0
47,1010901057715,新規,0,2025-07-10,2025-07-10,株式会社ソブリン,,株式会社,東京都,世田谷区,等々力６丁目１２番８－４０３号,,13,112,1580082,,,,,,,2025-07-10,1,,,,,ソブリン,0
48,1010903010077,新規,0,2025-07-10,2025-07-10,Ｓｉｘ　Ｓｉｇｍａ　Ｐｕｍａ合同会社,,合同会社,東京都,世田谷区,桜丘４丁目２７番１６－１１２号,,13,112,1560054,,,,,,,2025-07-10,1,,,,,シックスシグマプーマ,0
49,1010903010085,新規,0,2025-07-10,2025-07-10,合同会社ＳＥＭＰＲＥＭＥ,,合同会社,東京都,世田谷区,北沢１丁目４６番１３号サマースノーテラス２Ｆ,,13,112,1550031,,,,,,,2025-07-10,1,,,,,センプレーメ,0
54,1011001170466,新規,0,2025-07-10,2025-07-10,株式会社イル,,株式会社,東京都,渋谷区,神宮前４丁目２２番１５号青山シルクレヂデンス２Ｆ,,13,113,1500001,,,,,,,2025-07-10,1,,,,,イル,0
55,1011001170499,新規,0,2025-07-10,2025-07-10,株式会社ＰＡＤＡ,,株式会社,東京都,目黒区,駒場２丁目１番７－５０２号,,13,110,1530041,,,,,,,2025-07-10,1,,,,,パダ,0
56,1011001170565,新規,0,2025-07-10,2025-07-10,株式会社つむぎて,,株式会社,東京都,渋谷区,道玄坂１丁目１０－８渋谷道玄坂東急ビル２階Ｃ,,13,113,1500043,,,,,,,2025-07-10,1,,,,,ツムギテ,0
57,1011101017690,新規,0,2025-07-10,2025-07-10,株式会社パルホーム,,株式会社,東京都,新宿区,西新宿８丁目８番１５号,,13,104,1600023,,,,,,,2025-07-10,1,,,,,パルホーム,0
66,1011103016121,新規,0,2025-07-10,2025-07-10,合同会社Ｓａｇｒａｖｅｎｔｈｉａ,,合同会社,東京都,新宿区,新宿２丁目８番１号新宿セブンビル２０５,,13,104,1600022,,,,,,,2025-07-10,1,,,,,サグラヴェンティア,0
70,1011401027241,新規,0,2025-07-10,2025-07-10,株式会社明橋,,株式会社,東京都,板橋区,高島平２丁目２番１２号,,13,119,1750082,,,,,,,2025-07-10,1,,,,,メイキョウ,0
74,1011601028790,新規,0,2025-07-10,2025-07-10,ＲＯＵＴＥ株式会社,,株式会社,東京都,練馬区,大泉町２丁目１４－１－１０１,,13,120,1780062,,,,,,,2025-07-10,1,,,,,ルート,0
77,1011801046428,新規,0,2025-07-10,2025-07-10,株式会社Ｒｅｌｉｖｅ,,株式会社,東京都,葛飾区,東立石３丁目２４番９号西村ビル１Ｆ,,13,122,1240013,,,,,,,2025-07-10,1,,,,,リライブ,0
78,1011801046444,新規,0,2025-07-10,2025-07-10,株式会社セブンラン,,株式会社,東京都,葛飾区,東金町１丁目２０番１４号,,13,122,1250041,,,,,,,2025-07-10,1,,,,,セブンラン,0
82,1012801024092,新規,0,2025-07-10,2025-07-10,株式会社Ｕｎｉｖｅｒｓａｌ　Ｔｅａｍ,,株式会社,東京都,国分寺市,本町３丁目１０番１７号田中ビル１Ｆ,,13,214,1850012,,,,,,,2025-07-10,1,,,,,ユニバーサルチーム,0
83,1013301054539,新規,0,2025-07-10,2025-07-10,７ｔｈ　Ｄｅｎ株式会社,,株式会社,東京都,豊島区,西池袋１丁目３７－８ＪＰビル６階,,13,116,1710021,,,,,,,2025-07-10,1,,,,,セブンスデン,0
84,1013301054605,新規,0,2025-07-10,2025-07-10,ＳＡＩＴＯ・ＪＡＰＡＮ株式会社,,株式会社,東京都,豊島区,池袋２丁目６８番５－１００１号ハイツオーエド,,13,116,1710014,,,,,,,2025-07-10,1,,,,,サイトウジャパン,0
86,1013305003731,新規,0,2025-07-10,2025-07-10,一般社団法人全国日常生活支援協会,,その他の設立登記法人,東京都,豊島区,東池袋１丁目３４－５,,13,116,1700013,,,,,,,2025-07-10,1,,,,,ゼンコクニチジョウセイカツシエンキョウカイ,0
92,1020001163792,新規,0,2025-07-10,2025-07-10,Ａｎｔ　ＡＩ株式会社,,株式会社,神奈川県,横浜市神奈川区,橋本町２丁目５番地３ＳＷ－３０１,,14,102,2210053,,,,,,,2025-07-10,1,,,,,アントエイアイ,0
93,1020001163818,新規,0,2025-07-10,2025-07-10,有馬商事株式会社,,株式会社,神奈川県,川崎市宮前区,有馬４丁目９番１１号,,14,136,2160003,,,,,,,2025-07-10,1,,,,,アリマショウジ,0
94,1020001163834,新規,0,2025-07-10,2025-07-10,株式会社庄司設備工業,,株式会社,神奈川県,横浜市神奈川区,菅田町１９６８番地２３,,14,102,2210864,,,,,,,2025-07-10,1,,,,,ショウジセツビコウギョウ,0
95,1020003028845,新規,0,2025-07-10,2025-07-10,合同会社Ｂｅ　ｏｚ　ｂｏｎｄ,,合同会社,神奈川県,横浜市旭区,二俣川１丁目４５番２５号,,14,112,2410821,,,,,,,2025-07-10,1,,,,,ビーオズボンド,0
96,1021001085746,新規,0,2025-07-10,2025-07-10,株式会社ＳＥＩＷＡ　Ｐｌｕｓ,,株式会社,神奈川県,藤沢市,片瀬海岸３丁目２３番１８－５２５号,,14,205,2510035,,,,,,,2025-07-10,1,,,,,,0
107,1030001167561,新規,0,2025-07-10,2025-07-10,株式会社一式梱包,,株式会社,埼玉県,草加市,氷川町２１０８番地１０－３０３号,,11,221,3400034,,,,,,,2025-07-10,1,,,,,イッシキコンポウ,0
108,1030001167578,新規,0,2025-07-10,2025-07-10,株式会社ＣｏｎｖｅｒｇｅＰａｒｔｎｅｒｓ,,株式会社,埼玉県,さいたま市緑区,大字中尾６４９番地６,,11,109,3360932,,,,,,,2025-07-10,1,,,,,コンバージパートナーズ,0
109,1030001167586,新規,0,2025-07-10,2025-07-10,株式会社Ｋ．Ｍ．Ｅ,,株式会社,埼玉県,狭山市,祇園１５番２４号８,,11,215,3501307,,,,,,,2025-07-10,1,,,,,ケイエムイー,0
110,1030001167603,新規,0,2025-07-10,2025-07-10,株式会社コンクラフト,,株式会社,埼玉県,北足立郡伊奈町,大字小室４１１９番地１,,11,301,3620806,,,,,,,2025-07-10,1,,,,,コンクラフト,0
113,1030003027177,新規,0,2025-07-10,2025-07-10,合同会社Ａｒｍｏｎｉ,,合同会社,埼玉県,さいたま市南区,大字大谷口５０２７－２,,11,108,3360042,,,,,,,2025-07-10,1,,,,,アルモニ,0
115,1040001139576,新規,0,2025-07-10,2025-07-10,Ｇｅｔ・Ｂａｃｋ株式会社,,株式会社,千葉県,市川市,大野町２丁目１８８４番地２,,12,203,2720805,,,,,,,2025-07-10,1,,,,,ゲットバック,0
116,1040001139584,新規,0,2025-07-10,2025-07-10,株式会社インフィニティー,,株式会社,千葉県,銚子市,植松町２１４１番地の２,,12,202,2880071,,,,,,,2025-07-10,1,,,,,インフィニティー,0
117,1040001139592,新規,0,2025-07-10,2025-07-10,株式会社ラビットイノベーション,,株式会社,千葉県,千葉市若葉区,大宮台２丁目１９番１２号,,12,104,2640015,,,,,,,2025-07-10,1,,,,,ラビットイノベーション,0
121,1050001056911,新規,0,2025-07-10,2025-07-10,株式会社ＴａｎｄＴ,,株式会社,茨城県,水戸市,水府町１４８０番地の２アスカ・Ｆ２０６号,,08,201,3100005,,,,,,,2025-07-10,1,,,,,ティーアンドティー,0
122,1060001038388,新規,0,2025-07-10,2025-07-10,株式会社大竹機設,,株式会社,栃木県,佐野市,高萩町１３３７番地１,,09,204,3270821,,,,,,,2025-07-10,1,,,,,オオタケキセツ,0
124,1080003003504,新規,0,2025-07-10,2025-07-10,エムジーズ合同会社,,合同会社,静岡県,静岡市駿河区,中吉田１９番２１号,,22,102,4228001,,,,,,,2025-07-10,1,,,,,エムジーズ,0
127,1080101025648,新規,0,2025-07-10,2025-07-10,株式会社杉原クリーンサービス,,株式会社,静岡県,田方郡函南町,平井１６７０番地,,22,325,4190107,,,,,,,2025-07-10,1,,,,,スギハラクリーンサービス,0
133,1080401028020,新規,0,2025-07-10,2025-07-10,Ｋ‐ＪＩＮ株式会社,,株式会社,静岡県,浜松市浜名区,三ヶ日町日比沢６８５,,22,139,4311422,,,,,,,2025-07-10,1,,,,,ケージン,0
134,1080405007747,新規,0,2025-07-10,2025-07-10,一般社団法人京浜金属工業グループ共済会,,その他の設立登記法人,静岡県,浜松市中央区,野口町５９４番地,,22,138,4300919,,,,,,,2025-07-10,1,,,,,ケイヒンキンゾクコウギョウグループキョウサイカイ,0
135,1090001019369,新規,0,2025-07-10,2025-07-10,株式会社シティビレッジ翔,,株式会社,山梨県,甲府市,上今井町６５３番地８号,,19,201,4000845,,,,,,,2025-07-10,1,,,,,,0
137,1100001038755,新規,0,2025-07-10,2025-07-10,株式会社インパクト,,株式会社,長野県,諏訪郡富士見町,富士見３２０６番地６,,20,362,3990211,,,,,,,2025-07-10,1,,,,,インパクト,0
138,1100001038763,新規,0,2025-07-10,2025-07-10,株式会社ＫＯＮＯＵ,,株式会社,長野県,上伊那郡宮田村,５６０３番地２,,20,388,3994301,,,,,,,2025-07-10,1,,,,,コオノウ,0
146,1120001277657,新規,0,2025-07-10,2025-07-10,株式会社コアブライト,,株式会社,大阪府,大阪市西区,南堀江２丁目５番７－１００５号,,27,106,5500015,,,,,,,2025-07-10,1,,,,,コアブライト,0
147,1120001277665,新規,0,2025-07-10,2025-07-10,匯融株式会社,,株式会社,大阪府,大阪市中央区,難波１丁目９番１１号３Ｆ,,27,128,5420076,,,,,,,2025-07-10,1,,,,,カイユウ,0
148,1120001277681,新規,0,2025-07-10,2025-07-10,株式会社ＫＡＳＥＫＩ　ＣＲＥＡＴＩＶＥ,,株式会社,大阪府,寝屋川市,楠根南町５番１５号,,27,215,5720811,,,,,,,2025-07-10,1,,,,,カセキクリエイティブ,0
149,1120001277723,新規,0,2025-07-10,2025-07-10,株式会社ＳＴＫ,,株式会社,大阪府,大阪市住吉区,遠里小野４丁目８番３４号,,27,120,5580032,,,,,,,2025-07-10,1,,,,,エスティーケー,0
150,1120001277772,新規,0,2025-07-10,2025-07-10,Ｔａｈｓｕｎ　ｉｎｖｅｓｔ株式会社,,株式会社,大阪府,大阪市北区,梅田１丁目２番２号大阪駅前第二ビル１２－１２,,27,127,5300001,,,,,,,2025-07-10,1,,,,,ターサンインベスト,0
152,1120003029957,新規,0,2025-07-10,2025-07-10,合同会社ＴＵＲＫＥＹ,,合同会社,大阪府,大阪市西成区,天下茶屋東１丁目１９番８号,,27,122,5570011,,,,,,,2025-07-10,1,,,,,ターキー,0
153,1120003029965,新規,0,2025-07-10,2025-07-10,合同会社ｃｅｌｅｂｒｉｔａ,,合同会社,大阪府,大阪市天王寺区,勝山４丁目９－１４－６０５,,27,109,5430043,,,,,,,2025-07-10,1,,,,,チェレブリタ,0
154,1120003029998,新規,0,2025-07-10,2025-07-10,合同会社ＩＣＥ　ＢＥＡＮＳ,,合同会社,大阪府,大阪市中央区,北久宝寺町１丁目２番１４号３階,,27,128,5410057,,,,,,,2025-07-10,1,,,,,アイスビーンズ,0
155,1120005025021,新規,0,2025-07-10,2025-07-10,医療法人侑真会,,その他の設立登記法人,大阪府,大阪市中央区,心斎橋筋１丁目５番３０号ジ・アトリウム５階,,27,128,5420085,,,,,,,2025-07-10,1,,,,,ユウシンカイ,0
163,1130001080077,新規,0,2025-07-10,2025-07-10,株式会社七繁,,株式会社,京都府,京都市右京区,嵯峨中ノ島町官有地,,26,108,6168383,,,,,,,2025-07-10,1,,,,,ナナシゲ,0
164,1130001080085,新規,0,2025-07-10,2025-07-10,株式会社京都タイヤ,,株式会社,京都府,京都市山科区,大宅石郡町１３１番地,,26,110,6078187,,,,,,,2025-07-10,1,,,,,キョウトタイヤ,0
169,1140001139120,新規,0,2025-07-10,2025-07-10,株式会社Ｋｎｉｎｅ,,株式会社,兵庫県,姫路市,夢前町宮置３９６番地９４,,28,201,6712121,,,,,,,2025-07-10,1,,,,,ケーナイン,0
170,1140001139194,新規,0,2025-07-10,2025-07-10,株式会社プラスワン,,株式会社,兵庫県,姫路市,飾磨区阿成中垣内１５番地２,,28,201,6728058,,,,,,,2025-07-10,1,,,,,プラスワン,0
178,1160001026878,新規,0,2025-07-10,2025-07-10,株式会社キッズステーション,,株式会社,滋賀県,長浜市,祇園町６６９番地１,,25,203,5260061,,,,,,,2025-07-10,1,,,,,キッズステーション,0
182,1180001167621,新規,0,2025-07-10,2025-07-10,株式会社Ｓ．Ｎ．Ｒ．Ｉ．,,株式会社,愛知県,知多郡東浦町,大字森岡字郷一色１３番地,,23,442,4702101,,,,,,,2025-07-10,1,,,,,サナリィ,0
186,1180301039999,新規,0,2025-07-10,2025-07-10,株式会社ＣＴＲ,,株式会社,愛知県,刈谷市,一色町３丁目１１番地,,23,210,4480022,,,,,,,2025-07-10,1,,,,,シーティーアール,0
187,1180301040008,新規,0,2025-07-10,2025-07-10,株式会社ＡＲＴＣＨ　Ｄｅｎｔａｌ　Ｂａｓｅ,,株式会社,愛知県,岡崎市,柱曙３丁目７番地１２,,23,202,4440833,,,,,,,2025-07-10,1,,,,,アーチデンタルベース,0
188,1200001043984,新規,0,2025-07-10,2025-07-10,株式会社天花むすび,,株式会社,岐阜県,岐阜市,北一色２丁目１０番４号,,21,201,5008227,,,,,,,2025-07-10,1,,,,,テンカムスビ,0
191,1220001026789,新規,0,2025-07-10,2025-07-10,株式会社ＮＡＢＬＡ,,株式会社,石川県,鳳珠郡能登町,字姫１０－６６乙,,17,463,9270563,,,,,,,2025-07-10,1,,,,,ナブラ,0
206,1250001021250,新規,0,2025-07-10,2025-07-10,株式会社エーアイエスマリンエンジニアリング,,株式会社,山口県,熊毛郡田布施町,大字下田布施５７７番地１,,35,343,7421511,,,,,,,2025-07-10,1,,,,,エーアイエスマリンエンジニアリング,0
211,1290001110611,新規,0,2025-07-10,2025-07-10,株式会社便利屋よっちゃんプラス,,株式会社,福岡県,福岡市博多区,住吉２丁目１６－４２ベルコルティーレ１００４号室,,40,132,8120018,,,,,,,2025-07-10,1,,,,,ベンリヤヨッチャンプラス,0
212,1290001110652,新規,0,2025-07-10,2025-07-10,株式会社ｓｈｉｎｐ,,株式会社,福岡県,福岡市中央区,赤坂１丁目８－２３,,40,133,8100042,,,,,,,2025-07-10,1,,,,,シンプ,0
214,1290801031692,新規,0,2025-07-10,2025-07-10,株式会社フェリーチェ,,株式会社,福岡県,北九州市小倉南区,若園２丁目２４番４号,,40,107,8020816,,,,,,,2025-07-10,1,,,,,フェリーチェ,0
217,1300001014273,新規,0,2025-07-10,2025-07-10,株式会社ａｏ．,,株式会社,佐賀県,佐賀市,大財４丁目１番５７号,,41,201,8400811,,,,,,,2025-07-10,1,,,,,アオ,0
219,1310001019701,新規,0,2025-07-10,2025-07-10,株式会社千本ノック,,株式会社,長崎県,長崎市,油屋町１－１ＦＦＧ思案橋ビル１Ｆ,,42,201,8500832,,,,,,,2025-07-10,1,,,,,センボンノック,0
221,1320001021210,新規,0,2025-07-10,2025-07-10,株式会社Ｔｗｉｎ　Ｒｏｏｔｓ,,株式会社,大分県,大分市,府内町２丁目５番４０号盛文堂ビル３階北側,,44,201,8700021,,,,,,,2025-07-10,1,,,,,ツインルーツ,0
222,1320003004717,新規,0,2025-07-10,2025-07-10,Ｆ＆Ｄ産業合同会社,,合同会社,大分県,大分市,大字賀来１６１番地,,44,201,8700877,,,,,,,2025-07-10,1,,,,,エフアンドディーサンギョウ,0
227,1340003004888,新規,0,2025-07-10,2025-07-10,Ｙｕｎｏｍｏｔｏ　Ｖｉｌｌａｇｅ合同会社,,合同会社,鹿児島県,日置市,東市来町湯田３３１９番地１３,,46,216,8992201,,,,,,,2025-07-10,1,,,,,ユノモトビレッジ,0
230,1360001035470,新規,0,2025-07-10,2025-07-10,オキナワブルーベンチャーズ株式会社,,株式会社,沖縄県,国頭郡金武町,字屋嘉２７４０番地１００３号,,47,314,9041203,,,,,,,2025-07-10,1,,,,,オキナワブルーベンチャーズ,0
239,1430002060915,新規,0,2025-07-10,2025-07-10,有限会社道拓商興,,有限会社,北海道,白老郡白老町,大町１丁目２番７号,,01,578,0590905,,,,,,,2025-07-10,1,,,,,ドウタクショウコウ,0
248,1500003003551,新規,0,2025-07-10,2025-07-10,Ａｃｔｃｏｒｅ合同会社,,合同会社,愛媛県,松山市,姫原３丁目５番３２号,,38,201,7918012,,,,,,,2025-07-10,1,,,,,アクトコア,0
251,1700150131358,新規,0,2025-07-10,2025-07-10,ｓｈｅｎｚｈｅｎｓｈｉ　ｔｉｎｇｈａｏｘｉｎ　ｋｅｊｉ　ｙｏｕｘｉａｎｇｏｎｇｓｉ,,外国会社等,,,,,,,,Ｓｈｅｎｚｈｅｎ　Ｃｉｔｙ　Ｂａｏａｎ　Ｄｉｓｔｒｉｃｔ　Ｆｕｈａｉ　Ｓｔｒｅｅｔ　Ｈｅｐｉｎｇ　Ｃｏｍｍｕｎｉｔｙ　ＪｕｎＦｅｎｇ　Ｉｎｄｕｓｔｒｉａｌ　Ｚｏｎｅ　Ｂ５－１　Ｂｕｉｌｄｉｎｇ　Ｂ－９０１　５１８０００　ＣＮ,,,,,,2025-07-10,1,,,,,シンセンシティンハオシンカギヨウシエンゴンスー,0
252,1700150131366,新規,0,2025-07-10,2025-07-10,大和レジデンス朝日自治会,,その他,愛知県,安城市,朝日町２２番１７号　大和レジデンス朝日６０１,,23,212,4460031,,,,,,,2025-07-10,1,,,,,ダイワレジデンスアサヒジチカイ,0
265,2010001256695,新規,0,2025-07-10,2025-07-10,株式会社アールセブンズ,,株式会社,東京都,中央区,日本橋２丁目２番２１号,,13,102,1030027,,,,,,,2025-07-10,1,,,,,アールセブンズ,0
266,2010001256704,新規,0,2025-07-10,2025-07-10,ｃｏｎｔｅ株式会社,,株式会社,東京都,文京区,本郷３丁目２番７号お茶の水サニービル６階,,13,105,1130033,,,,,,,2025-07-10,1,,,,,コンテ,0
267,2010001256729,新規,0,2025-07-10,2025-07-10,アム株式会社,,株式会社,東京都,中央区,日本橋浜町３丁目２６番１２－４０３号,,13,102,1030007,,,,,,,2025-07-10,1,,,,,アム,0
268,2010001256737,新規,0,2025-07-10,2025-07-10,株式会社ＢＥＤＡＮ,,株式会社,東京都,文京区,白山４丁目３７番２６－７０４号,,13,105,1120001,,,,,,,2025-07-10,1,,,,,ビダン,0
270,2010003047952,新規,0,2025-07-10,2025-07-10,合同会社ＧＥＩＤＥＮ,,合同会社,東京都,千代田区,一番町８番地ウィスタリアハイツ一番町９０６号,,13,101,1020082,,,,,,,2025-07-10,1,,,,,ゲイデン,0
271,2010003047993,新規,0,2025-07-10,2025-07-10,合同会社九州クワトロデルタ,,合同会社,東京都,千代田区,丸の内１丁目４番１号東京共同会計事務所内,,13,101,1000005,,,,,,,2025-07-10,1,,,,,キュウシュウクワトロデルタ,0
273,2010005040336,新規,0,2025-07-10,2025-07-10,一般社団法人病気にならない身体づくりをめざすロバスト協会,,その他の設立登記法人,東京都,中央区,銀座６丁目７番１８号,,13,102,1040061,,,,,,,2025-07-10,1,,,,,ビョウキニナラナイカラダヅクリヲメザスロバストキョウカイ,0
281,2010401191583,新規,0,2025-07-10,2025-07-10,株式会社Ｓｈｏｐｉｘ,,株式会社,東京都,港区,北青山１丁目３－３三橋ビル３階,,13,103,1070061,,,,,,,2025-07-10,1,,,,,ショピックス,0
282,2010401191625,新規,0,2025-07-10,2025-07-10,株式会社シーユーシー・アドバイザリー・パートナーズ,,株式会社,東京都,港区,芝浦３丁目１番１号,,13,103,1080023,,,,,,,2025-07-10,1,,,,,シーユーシーアドバイザリーパートナーズ,0
283,2010401191633,新規,0,2025-07-10,2025-07-10,株式会社ＦＡＭＳＨＩＰ,,株式会社,東京都,港区,南青山２丁目２番１５号ｗｉｎａｏｙａｍａビルＵＣＦ６３５,,13,103,1070062,,,,,,,2025-07-10,1,,,,,ファムシップ,0
284,2010401191641,新規,0,2025-07-10,2025-07-10,森寶晴心株式会社,,株式会社,東京都,港区,六本木７丁目１番１４号,,13,103,1060032,,,,,,,2025-07-10,1,,,,,モリタカセイコ,0
288,2010403035524,新規,0,2025-07-10,2025-07-10,Ｊａｐａｎ３‐ＧＰ合同会社,,合同会社,東京都,港区,西新橋２丁目２０番１号Ｎａｎ－ｏＢｌｄｇ．新虎５階,,13,103,1050003,,,,,,,2025-07-10,1,,,,,ジャパンスリージーピー,0
289,2010403035549,新規,0,2025-07-10,2025-07-10,Ｂｅｘ合同会社,,合同会社,東京都,港区,高輪１丁目２３番２３－２００７号,,13,103,1080074,,,,,,,2025-07-10,1,,,,,ベックス,0
290,2010403035557,新規,0,2025-07-10,2025-07-10,みなとレインボー合同会社,,合同会社,東京都,港区,台場１丁目３番１－１００１号,,13,103,1350091,,,,,,,2025-07-10,1,,,,,ミナトレインボー,0
295,2010601067600,新規,0,2025-07-10,2025-07-10,株式会社富商事,,株式会社,東京都,墨田区,亀沢３丁目８番３－５０４号,,13,107,1300014,,,,,,,2025-07-10,1,,,,,トミショウジ,0
298,2010701047980,新規,0,2025-07-10,2025-07-10,株式会社Ｃｉｅｒｉ,,株式会社,東京都,品川区,北品川２丁目３３－３－３０１,,13,109,1400001,,,,,,,2025-07-10,1,,,,,シエリ,0
299,2010801036355,新規,0,2025-07-10,2025-07-10,武田ファミリア株式会社,,株式会社,東京都,大田区,池上４丁目１５番１８号,,13,111,1460082,,,,,,,2025-07-10,1,,,,,タケダファミリア,0
300,2010801036363,新規,0,2025-07-10,2025-07-10,株式会社トキエ,,株式会社,東京都,大田区,山王２丁目１番８号山王アーバンライフビル１１２２号,,13,111,1430023,,,,,,,2025-07-10,1,,,,,トキエ,0
303,2010901057747,新規,0,2025-07-10,2025-07-10,株式会社山茶花,,株式会社,東京都,世田谷区,代田４丁目２５番２０号,,13,112,1550033,,,,,,,2025-07-10,1,,,,,サザンカ,0
304,2010903010076,新規,0,2025-07-10,2025-07-10,ティーフォー合同会社,,合同会社,東京都,世田谷区,喜多見３丁目４－８,,13,112,1570067,,,,,,,2025-07-10,1,,,,,ティーフォー,0
309,2011001170465,新規,0,2025-07-10,2025-07-10,株式会社Ｅｖｅｒｙ　Ｃｏｕｎｔｓ,,株式会社,東京都,目黒区,東山２丁目２－５日興パレス東山２０４,,13,110,1530043,,,,,,,2025-07-10,1,,,,,エブリカウンツ,0
310,2011001170564,新規,0,2025-07-10,2025-07-10,株式会社Ｆｅｖｒｕｓ,,株式会社,東京都,渋谷区,渋谷１丁目１４番１５号,,13,113,1500002,,,,,,,2025-07-10,1,,,,,フェブラス,0
311,2011001170770,新規,0,2025-07-10,2025-07-10,株式会社オンリーフ,,株式会社,東京都,目黒区,青葉台１丁目１６番７号,,13,110,1530042,,,,,,,2025-07-10,1,,,,,オンリーフ,0
312,2011001170829,新規,0,2025-07-10,2025-07-10,株式会社鮨こばやし,,株式会社,東京都,渋谷区,恵比寿２丁目１８番８号恵比寿アバックビル２・２階,,13,113,1500013,,,,,,,2025-07-10,1,,,,,スシコバヤシ,0
313,2011001170878,新規,0,2025-07-10,2025-07-10,株式会社ＥＪＴ,,株式会社,東京都,渋谷区,道玄坂１丁目１０番８号渋谷道玄坂東急ビル２Ｆ－Ｃ,,13,113,1500043,,,,,,,2025-07-10,1,,,,,イージェイティー,0
314,2011001171034,新規,0,2025-07-10,2025-07-10,ｉｎｉｔＡＩ株式会社,,株式会社,東京都,渋谷区,道玄坂１丁目１０番８号渋谷道玄坂東急ビル２Ｆ－Ｃ,,13,113,1500043,,,,,,,2025-07-10,1,,,,,イニットエーアイ,0
316,2011003021889,新規,0,2025-07-10,2025-07-10,合同会社ｍｏｎ　ｃａｄｅａｕ,,合同会社,東京都,渋谷区,神泉町２４－１－６０４,,13,113,1500045,,,,,,,2025-07-10,1,,,,,モンカド,0
317,2011003021930,新規,0,2025-07-10,2025-07-10,合同会社先端医科学研究所,,合同会社,東京都,目黒区,目黒２丁目１３番２５号－８０３,,13,110,1530063,,,,,,,2025-07-10,1,,,,,センタンイカガクケンキュウジョ,0
319,2011101112391,新規,0,2025-07-10,2025-07-10,株式会社トラスト・ワン,,株式会社,東京都,新宿区,西新宿３丁目３番１３号西新宿水間ビル６階,,13,104,1600023,,,,,,,2025-07-10,1,,,,,トラストワン,0
324,2011503006605,新規,0,2025-07-10,2025-07-10,合同会社厚謙,,合同会社,東京都,北区,赤羽１丁目１１番４号,,13,117,1150045,,,,,,,2025-07-10,1,,,,,アツケン,0
326,2011701028517,新規,0,2025-07-10,2025-07-10,福興株式会社,,株式会社,東京都,江戸川区,上一色１丁目１５－２,,13,123,1330041,,,,,,,2025-07-10,1,,,,,フクコウ,0
333,2011801046410,新規,0,2025-07-10,2025-07-10,株式会社エス・ティホールディングス,,株式会社,東京都,足立区,谷中４丁目１４番３号,,13,121,1200006,,,,,,,2025-07-10,1,,,,,エスティホールディングス,0
334,2011801046427,新規,0,2025-07-10,2025-07-10,株式会社ＡＬＬＹ　ＡＬＬ,,株式会社,東京都,足立区,花畑３丁目１２番８―１０１号,,13,121,1210061,,,,,,,2025-07-10,1,,,,,アリーオール,0
335,2011801046443,新規,0,2025-07-10,2025-07-10,株式会社蓮和サービス,,株式会社,東京都,足立区,西新井７丁目２１番２１号,,13,121,1230841,,,,,,,2025-07-10,1,,,,,レンワサービス,0
337,2011803006957,新規,0,2025-07-10,2025-07-10,合同会社ＰＯＮ,,合同会社,東京都,葛飾区,東四つ木３丁目２番３号,,13,122,1240014,,,,,,,2025-07-10,1,,,,,ピーオーエヌ,0
338,2011803006965,新規,0,2025-07-10,2025-07-10,ＢＩＧＩＮ合同会社,,合同会社,東京都,葛飾区,鎌倉４丁目３８番１５号,,13,122,1250053,,,,,,,2025-07-10,1,,,,,ビギン,0
342,2013301054579,新規,0,2025-07-10,2025-07-10,株式会社東悦国際,,株式会社,東京都,豊島区,池袋２丁目５３番３－２０３号,,13,116,1710014,,,,,,,2025-07-10,1,,,,,トウエツコクサイ,0
343,2013301054587,新規,0,2025-07-10,2025-07-10,株式会社ハンバーグ,,株式会社,東京都,豊島区,南大塚３丁目５２番５号,,13,116,1700005,,,,,,,2025-07-10,1,,,,,ハンバーグ,0
347,2020001163800,新規,0,2025-07-10,2025-07-10,株式会社トジョンプロダクション,,株式会社,神奈川県,川崎市中原区,苅宿３２－４スペクトラルホーム１０２,,14,133,2110022,,,,,,,2025-07-10,1,,,,,,0
348,2020001163825,新規,0,2025-07-10,2025-07-10,株式会社ＭＩＮＴ,,株式会社,神奈川県,横浜市西区,みなとみらい２丁目２番１号横浜ランドマークタワー２０階,,14,103,2200012,,,,,,,2025-07-10,1,,,,,ミント,0
350,2020003028919,新規,0,2025-07-10,2025-07-10,福田卓球クラブ合同会社,,合同会社,神奈川県,横浜市保土ケ谷区,坂本町１９０番地１イリヤード２０２号,,14,106,2400043,,,,,,,2025-07-10,1,,,,,フクダタッキュウクラブ,0
351,2020003028935,新規,0,2025-07-10,2025-07-10,合同会社ＥＬＣ,,合同会社,神奈川県,横浜市旭区,白根２丁目３番５号,,14,112,2410005,,,,,,,2025-07-10,1,,,,,イーエルシー,0
358,2030001167552,新規,0,2025-07-10,2025-07-10,秩父土建ホールディングス株式会社,,株式会社,埼玉県,秩父市,大野原７４３番地,,11,207,3680005,,,,,,,2025-07-10,1,,,,,チチブドケンホールディングス,0
359,2030001167569,新規,0,2025-07-10,2025-07-10,もろやまパワーズ株式会社,,株式会社,埼玉県,入間郡毛呂山町,大字大類５２５番地１,,11,326,3500432,,,,,,,2025-07-10,1,,,,,モロヤマパワーズ,0
360,2030001167577,新規,0,2025-07-10,2025-07-10,在進株式会社,,株式会社,埼玉県,所沢市,大字北秋津３５７－１－１０３,,11,208,3590038,,,,,,,2025-07-10,1,,,,,ザイシン,0
361,2030001167585,新規,0,2025-07-10,2025-07-10,株式会社Ｍ・Ｋ,,株式会社,埼玉県,八潮市,大字柳之宮２２３－６,,11,234,3400832,,,,,,,2025-07-10,1,,,,,エムケー,0
362,2030001167602,新規,0,2025-07-10,2025-07-10,株式会社ＯＷＬ電気事務所,,株式会社,埼玉県,越谷市,大字南荻島３５６３番地８,,11,222,3430804,,,,,,,2025-07-10,1,,,,,アウルデンキジムショ,0
366,2030003027176,新規,0,2025-07-10,2025-07-10,合同会社Ｇ．Ａ　Ｎｅｔｗｏｒｋ,,合同会社,埼玉県,さいたま市大宮区,桜木町１丁目１９５－１大宮ソラミチＫＯＺ４Ｆ,,11,103,3300854,,,,,,,2025-07-10,1,,,,,ジエネットワーク,0
369,2040001139550,新規,0,2025-07-10,2025-07-10,株式会社須藤組,,株式会社,千葉県,千葉市若葉区,小倉町８８０番地３,,12,104,2640007,,,,,,,2025-07-10,1,,,,,スドウグミ,0
370,2040001139567,新規,0,2025-07-10,2025-07-10,株式会社ＴＫネクスト,,株式会社,千葉県,香取郡多古町,十余三３７１番地３４,,12,347,2892306,,,,,,,2025-07-10,1,,,,,テイケイネクスト,0
371,2040001139591,新規,0,2025-07-10,2025-07-10,株式会社センターテイルファクトリー,,株式会社,千葉県,千葉市若葉区,金親町５２７番地２３,,12,104,2640001,,,,,,,2025-07-10,1,,,,,センターテイルファクトリー,0
374,2040003028017,新規,0,2025-07-10,2025-07-10,合同会社中谷里ファーム,,合同会社,千葉県,旭市,中谷里２３７５番地２,,12,215,2892523,,,,,,,2025-07-10,1,,,,,ナカヤリファーム,0
375,2040003028033,新規,0,2025-07-10,2025-07-10,ＭＹサポート合同会社,,合同会社,千葉県,柏市,若柴１７３番地８柏の葉キャンパス１５１街区Ｂ－２０２,,12,217,2770871,,,,,,,2025-07-10,1,,,,,エムワイサポート,0
381,2060001038379,新規,0,2025-07-10,2025-07-10,株式会社ＬＩＮＫ,,株式会社,栃木県,宇都宮市,宿郷２丁目６番９号ダイサンビル１０７－７階,,09,201,3210945,,,,,,,2025-07-10,1,,,,,リンク,0
382,2060001038387,新規,0,2025-07-10,2025-07-10,株式会社ＲＮ,,株式会社,栃木県,宇都宮市,今泉新町１８５番地,,09,201,3210961,,,,,,,2025-07-10,1,,,,,アールエヌ,0
383,2070001043064,新規,0,2025-07-10,2025-07-10,ＡＲＴ　ＴＥＡＭ株式会社,,株式会社,群馬県,吾妻郡嬬恋村,大字鎌原１７８８番地４６,,10,425,3771524,,,,,,,2025-07-10,1,,,,,アートチーム,0
384,2070003005995,新規,0,2025-07-10,2025-07-10,合同会社東都商工商事,,合同会社,群馬県,邑楽郡明和町,大輪２０３６－１,,10,522,3700718,,,,,,,2025-07-10,1,,,,,トウトショウコウショウジ,0
385,2080001027025,新規,0,2025-07-10,2025-07-10,トラストトレーディングジャパン株式会社,,株式会社,静岡県,牧之原市,静波１０６２番地５,,22,226,4210422,,,,,,,2025-07-10,1,,,,,トラストトレーディングジャパン,0
398,2100003008276,新規,0,2025-07-10,2025-07-10,合同会社やよい農園の台所,,合同会社,長野県,飯山市,大字豊田５１９８番地,,20,213,3892411,,,,,,,2025-07-10,1,,,,,ヤヨイノウエンノダイドコロ,0
406,2120001277607,新規,0,2025-07-10,2025-07-10,株式会社Ｐｌｕｍ,,株式会社,大阪府,大阪市北区,太融寺町１番６号ＳＨＩＮ太融寺１６－３０１号室,,27,127,5300051,,,,,,,2025-07-10,1,,,,,プラム,0
407,2120001277615,新規,0,2025-07-10,2025-07-10,ショウカツシャ株式会社,,株式会社,大阪府,大阪市西区,江之子島１丁目８番２０号,,27,106,5500006,,,,,,,2025-07-10,1,,,,,ショウカツシャ,0
408,2120001277648,新規,0,2025-07-10,2025-07-10,株式会社ＫＯＳＥＮ,,株式会社,大阪府,大阪市東成区,深江北２丁目９番２６号,,27,115,5370001,,,,,,,2025-07-10,1,,,,,コセン,0
409,2120001277664,新規,0,2025-07-10,2025-07-10,桜の里株式会社,,株式会社,大阪府,大阪市西成区,天下茶屋２丁目２０番１６号１０１号室,,27,122,5570014,,,,,,,2025-07-10,1,,,,,サクラノサト,0
410,2120001277672,新規,0,2025-07-10,2025-07-10,裕泰株式会社,,株式会社,大阪府,大阪市淀川区,西中島５丁目７番１７号ビジネスヴィップ第２新大阪６０５号室,,27,123,5320011,,,,,,,2025-07-10,1,,,,,ユウタイ,0
411,2120001277697,新規,0,2025-07-10,2025-07-10,ＳｔｅｌｌａＮｅｓｔ株式会社,,株式会社,大阪府,大阪市中央区,松屋町４番１３号,,27,128,5420067,,,,,,,2025-07-10,1,,,,,ステラネスト,0
412,2120001277706,新規,0,2025-07-10,2025-07-10,Ｐｒｏｊｅｃｔ　ＡＣＨＡ株式会社,,株式会社,大阪府,大阪市東淀川区,大桐３丁目２７番４号,,27,114,5330011,,,,,,,2025-07-10,1,,,,,プロジェクトアチャ,0
413,2120001277722,新規,0,2025-07-10,2025-07-10,株式会社栄工務店,,株式会社,大阪府,枚方市,宮之阪２丁目９番９号,,27,210,5730022,,,,,,,2025-07-10,1,,,,,サカエコウムテン,0
414,2120001277771,新規,0,2025-07-10,2025-07-10,株式会社Ｃａｐｉｔａｌ　Ｌａｂ,,株式会社,大阪府,大阪市西区,南堀江３丁目６番４号２階,,27,106,5500015,,,,,,,2025-07-10,1,,,,,キャピタルラボ,0
417,2120003029956,新規,0,2025-07-10,2025-07-10,合同会社勝恵,,合同会社,大阪府,大阪市淀川区,新高１丁目１２番２－５０１号,,27,123,5320033,,,,,,,2025-07-10,1,,,,,ショウエ,0
418,2120003029964,新規,0,2025-07-10,2025-07-10,百色合同会社,,合同会社,大阪府,大阪市中央区,常盤町１丁目１－９－４０２,,27,128,5400028,,,,,,,2025-07-10,1,,,,,ヒャクイロ,0
432,2140001139152,新規,0,2025-07-10,2025-07-10,エムアイ株式会社,,株式会社,兵庫県,西脇市,寺内３３５番地の１,,28,213,6770022,,,,,,,2025-07-10,1,,,,,エムアイ,0
433,2140001139210,新規,0,2025-07-10,2025-07-10,株式会社杉本建築板金,,株式会社,兵庫県,姫路市,大津区平松６７番地１,,28,201,6711145,,,,,,,2025-07-10,1,,,,,スギモトケンチクバンキン,0
434,2140001139219,新規,0,2025-07-10,2025-07-10,株式会社ＤＡＩＹＯＳＨＩ,,株式会社,兵庫県,神戸市北区,八多町下小名田５４６－１,,28,109,6511352,,,,,,,2025-07-10,1,,,,,ダイヨシ,0
438,2160001026893,新規,0,2025-07-10,2025-07-10,株式会社ふれあいハウスとよくに,,株式会社,滋賀県,愛知郡愛荘町,東円堂１７７３番地,,25,425,5291325,,,,,,,2025-07-10,1,,,,,フレアイハウストヨクニ,0
439,2160003003536,新規,0,2025-07-10,2025-07-10,合同会社シーエムエヌ,,合同会社,滋賀県,東近江市,今代町３９６番地,,25,213,5270053,,,,,,,2025-07-10,1,,,,,シーエムエヌ,0
449,2180005021138,新規,0,2025-07-10,2025-07-10,特定非営利活動法人長久手ストリートスポーツ協会,,その他の設立登記法人,愛知県,長久手市,岩作三ケ峯３０番地１３,,23,238,4801103,,,,,,,2025-07-10,1,,,,,ナガクテストリートスポーツキョウカイ,0
451,2180301039998,新規,0,2025-07-10,2025-07-10,株式会社穂の国ベンディング,,株式会社,愛知県,豊川市,赤坂町紅里１７４番地,,23,207,4410202,,,,,,,2025-07-10,1,,,,,ホノクニベンディング,0
452,2180301040007,新規,0,2025-07-10,2025-07-10,株式会社主税ＳＴＹＬＥ,,株式会社,愛知県,豊橋市,東岩田４丁目１１番地１０,,23,201,4400033,,,,,,,2025-07-10,1,,,,,チカラスタイル,0
463,2250003003766,新規,0,2025-07-10,2025-07-10,合同会社不動産アシストＹ’ｓ,,合同会社,山口県,周南市,大神３丁目１２番４１号,,35,215,7460018,,,,,,,2025-07-10,1,,,,,フドウサンアシストワイズ,0
468,2290001110635,新規,0,2025-07-10,2025-07-10,株式会社コクリエパートナー,,株式会社,福岡県,福岡市中央区,天神２丁目３番１０号天神パインクレスト７１９号,,40,133,8100001,,,,,,,2025-07-10,1,,,,,コクリエパートナー,0
474,2300005007256,新規,0,2025-07-10,2025-07-10,一般社団法人あやとり,,その他の設立登記法人,佐賀県,佐賀市,鍋島５丁目４番１２号,,41,201,8490937,,,,,,,2025-07-10,1,,,,,アヤトリ,0
475,2310001019700,新規,0,2025-07-10,2025-07-10,マーキー塗装株式会社,,株式会社,長崎県,島原市,杉山町甲４３６番地１,,42,203,8550068,,,,,,,2025-07-10,1,,,,,マーキートソウ,0
477,2320003004716,新規,0,2025-07-10,2025-07-10,合同会社小屋米穀,,合同会社,大分県,杵築市,山香町大字内河野２５４０番地３,,44,210,8791311,,,,,,,2025-07-10,1,,,,,コヤベイコク,0
478,2340003004895,新規,0,2025-07-10,2025-07-10,合同会社ＤＡＲＵＭＡ,,合同会社,鹿児島県,南九州市,川辺町中山田２１６番地２,,46,223,8970132,,,,,,,2025-07-10,1,,,,,ダルマ,0
479,2350003004969,新規,0,2025-07-10,2025-07-10,合同会社ＳＵＮＲＩＳＥ,,合同会社,宮崎県,延岡市,中央通３丁目２番地８咲花ビル４Ｆ,,45,203,8820824,,,,,,,2025-07-10,1,,,,,サンライズ,0
482,2360001035461,新規,0,2025-07-10,2025-07-10,株式会社Ｃ‐ＦＯＲＹ,,株式会社,沖縄県,中頭郡西原町,字翁長５９２番地伸ビル,,47,329,9030117,,,,,,,2025-07-10,1,,,,,シーフォリー,0
499,2470001020799,新規,0,2025-07-10,2025-07-10,ＳＳ　Ｌａｂ株式会社,,株式会社,香川県,高松市,松縄町４８番地１０,,37,201,7600079,,,,,,,2025-07-10,1,,,,,エスエスラボ,0
504,2480005007098,新規,0,2025-07-10,2025-07-10,司法書士法人Ｏｋｕｓ,,その他の設立登記法人,徳島県,徳島市,蔵本町２丁目２０番地の３城ノ内コーポ２０２,,36,201,7700042,,,,,,,2025-07-10,1,,,,,オークス,0
512,2700150131357,新規,0,2025-07-10,2025-07-10,Ｄｏｎｇｇｕａｎ　Ｌｉｙａｎ　Ｌｉｇｈｔｉｎｇ　Ｔｅｃｈｎｏｌｏｇｙ　Ｃｏ．，Ｌｔｄ．,,外国会社等,,,,,,,,Ｎｏ．６４，Ｄｏｎｇｋａｎｇ　Ｒｏａｄ，Ｒｏｏｍ　２０２，Ｄｏｎｇｇｕａｎ　Ｃｉｔｙ，Ｄａｌｉｎｇｓｈａｎ　Ｔｏｗｎ，Ｇｕａｎｇｄｏｎｇ　５２３０００　ＣＮ,,,,,,2025-07-10,1,,,,,ドングァンリィエンライティングテクノロジーカンパニーリミテッド,0
513,2700150131365,新規,0,2025-07-10,2025-07-10,長野ＬＰ協会佐久支部,,その他,長野県,佐久市,跡部６５－１佐久合同庁舎内,,20,217,3850054,,,,,,,2025-07-10,1,,,,,ナガノエルピーキョウカイサクシブ,0
521,3010001256579,新規,0,2025-07-10,2025-07-10,Ｑｕａｐｐ株式会社,,株式会社,東京都,文京区,小石川１丁目２８－３,,13,105,1120002,,,,,,,2025-07-10,1,,,,,キューアップ,0
522,3010001256694,新規,0,2025-07-10,2025-07-10,株式会社Ｈａｒｕｋａ,,株式会社,東京都,中央区,日本橋兜町５番１号兜町第一平和ビル３階,,13,102,1030026,,,,,,,2025-07-10,1,,,,,ハルカ,0
523,3010001256703,新規,0,2025-07-10,2025-07-10,株式会社Ｅｍｂｅｒ　Ｃｉｔｙ,,株式会社,東京都,中央区,銀座１丁目２２番１１号大竹ビジデンス２階,,13,102,1040061,,,,,,,2025-07-10,1,,,,,エンバーシティ,0
524,3010001256711,新規,0,2025-07-10,2025-07-10,株式会社リベルテ,,株式会社,東京都,中央区,日本橋３丁目７番１３号,,13,102,1030027,,,,,,,2025-07-10,1,,,,,リベルテ,0
525,3010001256728,新規,0,2025-07-10,2025-07-10,株式会社ガジュマルハウス,,株式会社,東京都,八丈島八丈町,末吉８０１番地,,13,401,1001622,,,,,,,2025-07-10,1,,,,,ガジュマルハウス,0
526,3010001256736,新規,0,2025-07-10,2025-07-10,株式会社ＮＡＰＰＳ,,株式会社,東京都,中央区,日本橋兜町１７－２兜町第６葉山ビル４Ｆ,,13,102,1030026,,,,,,,2025-07-10,1,,,,,ナップス,0
527,3010001256769,新規,0,2025-07-10,2025-07-10,株式会社ディープダイブ,,株式会社,東京都,中央区,日本橋室町１丁目１１番１２号日本橋水野ビル７階,,13,102,1030022,,,,,,,2025-07-10,1,,,,,ディープダイブ,0
528,3010001256777,新規,0,2025-07-10,2025-07-10,株式会社なぞる,,株式会社,東京都,中央区,銀座１丁目１２番４号Ｎ＆ＥＢＬＤ．６Ｆ,,13,102,1040061,,,,,,,2025-07-10,1,,,,,ナゾル,0
530,3010003047860,新規,0,2025-07-10,2025-07-10,Ｈｏｎｅｓｔｏ合同会社,,合同会社,東京都,中央区,銀座１丁目１２番４号Ｎ＆ＥＢＬＤ．６Ｆ,,13,102,1040061,,,,,,,2025-07-10,1,,,,,オネスト,0
531,3010003047968,新規,0,2025-07-10,2025-07-10,合同会社Ｌｉｅｎ,,合同会社,東京都,中央区,銀座１丁目１２番４号Ｎ＆ＥＢＬＤ,,13,102,1040061,,,,,,,2025-07-10,1,,,,,リアン,0
532,3010003047984,新規,0,2025-07-10,2025-07-10,Ｍ＆Ｆクリエイティブ合同会社,,合同会社,東京都,中央区,銀座１丁目２２－１１銀座大竹ビジデンス２階,,13,102,1040061,,,,,,,2025-07-10,1,,,,,エムアンドエフクリエイティブ,0
533,3010003047992,新規,0,2025-07-10,2025-07-10,合同会社九州クワトロガンマ,,合同会社,東京都,千代田区,丸の内１丁目４番１号東京共同会計事務所内,,13,101,1000005,,,,,,,2025-07-10,1,,,,,キュウシュウクワトロガンマ,0
534,3010005040351,新規,0,2025-07-10,2025-07-10,一般社団法人ライトハウス２号,,その他の設立登記法人,東京都,千代田区,霞が関３丁目２番５号,,13,101,1000013,,,,,,,2025-07-10,1,,,,,ライトハウスニゴウ,0
535,3010101016759,新規,0,2025-07-10,2025-07-10,株式会社あいてっく,,株式会社,東京都,八王子市,城山手２丁目１１番２０号,,13,201,1930825,,,,,,,2025-07-10,1,,,,,アイテック,0
539,3010401191450,新規,0,2025-07-10,2025-07-10,株式会社ＳＹ　Ｃｏｒｐｏｒａｔｉｏｎ,,株式会社,東京都,港区,三田５丁目１番１６号,,13,103,1080073,,,,,,,2025-07-10,1,,,,,エスワイコーポレーション,0
540,3010401191616,新規,0,2025-07-10,2025-07-10,株式会社ｃｏｎｎｅｃｔ,,株式会社,東京都,港区,西麻布１丁目１０－１１セソーラス西麻布地下１階,,13,103,1060031,,,,,,,2025-07-10,1,,,,,コネクト,0
541,3010401191649,新規,0,2025-07-10,2025-07-10,株式会社ＳＤ,,株式会社,東京都,港区,白金台５丁目２番１７号ミオフィオーレ３０１,,13,103,1080071,,,,,,,2025-07-10,1,,,,,エスディー,0
542,3010401191673,新規,0,2025-07-10,2025-07-10,株式会社ＡＵＬＩＡ　ＨＯＬＤＩＮＧＳ,,株式会社,東京都,港区,港南２丁目１５番１号品川インターシティＡ棟２８階,,13,103,1080075,,,,,,,2025-07-10,1,,,,,オーリアホールディングス,0
545,3010403035548,新規,0,2025-07-10,2025-07-10,ＦＤＬ合同会社,,合同会社,東京都,港区,北青山１丁目３番１号アールキューブ青山３階,,13,103,1070061,,,,,,,2025-07-10,1,,,,,エフディーエル,0
546,3010405024573,新規,0,2025-07-10,2025-07-10,一般社団法人日本地域森林育成,,その他の設立登記法人,東京都,港区,虎ノ門４丁目１番２８号虎ノ門タワーズオフィス１７階,,13,103,1050001,,,,,,,2025-07-10,1,,,,,ニホンチイキシンリンイクセイ,0
548,3010503007918,新規,0,2025-07-10,2025-07-10,合同会社Ｒｅｓｉｄｅｎｚａ　Ｄ’Ｅｐｏｃａ,,合同会社,東京都,台東区,東上野１丁目２４番１１－１１０４号クレストフォルム上野イーストコート,,13,106,1100015,,,,,,,2025-07-10,1,,,,,レジデンツァデエポカ,0
550,3010601067590,新規,0,2025-07-10,2025-07-10,株式会社Ｉｋｉｓｈ,,株式会社,東京都,江東区,永代２丁目１３番４－９０２号,,13,108,1350034,,,,,,,2025-07-10,1,,,,,アイキッシュ,0
551,3010701047971,新規,0,2025-07-10,2025-07-10,株式会社Ｅｃｉｖｒｅｓ,,株式会社,東京都,品川区,荏原３丁目５－６ｗａｔａｎａｂｅビル２Ｆ,,13,109,1420063,,,,,,,2025-07-10,1,,,,,エシバース,0
552,3010705003772,新規,0,2025-07-10,2025-07-10,一般社団法人クリアパス,,その他の設立登記法人,東京都,品川区,西大井５丁目２０番５号,,13,109,1400015,,,,,,,2025-07-10,1,,,,,クリアパス,0
554,3010801036346,新規,0,2025-07-10,2025-07-10,Ｍ＆ｍｈ．ｃｏ株式会社,,株式会社,東京都,大田区,西六郷４丁目１０番９号グレースマンション原田,,13,111,1440056,,,,,,,2025-07-10,1,,,,,エムアンドエムエイチカンパニー,0
555,3010803005448,新規,0,2025-07-10,2025-07-10,合同会社容古堂,,合同会社,東京都,大田区,池上３丁目４０番１８号６０１号室,,13,111,1460082,,,,,,,2025-07-10,1,,,,,ヨウコドウ,0
557,3010901057705,新規,0,2025-07-10,2025-07-10,株式会社Ｍｉｒａｉ　Ｆｉｔ,,株式会社,東京都,世田谷区,砧３丁目５－２勝吉ビル３Ｆ,,13,112,1570073,,,,,,,2025-07-10,1,,,,,ミライフィット,0
558,3010901057721,新規,0,2025-07-10,2025-07-10,株式会社アストラツコ,,株式会社,東京都,世田谷区,太子堂２丁目１７番５号佐藤ビル３階,,13,112,1540004,,,,,,,2025-07-10,1,,,,,アストラツコ,0
560,3010903010067,新規,0,2025-07-10,2025-07-10,合同会社プロステジア,,合同会社,東京都,世田谷区,奥沢５丁目３６－１２,,13,112,1580083,,,,,,,2025-07-10,1,,,,,プロステジア,0
566,3011001170968,新規,0,2025-07-10,2025-07-10,Ｗｅｌｉｎａ株式会社,,株式会社,東京都,渋谷区,神泉町１０番１５号アネックス神泉３０１,,13,113,1500045,,,,,,,2025-07-10,1,,,,,ウェリナ,0
568,3011003021987,新規,0,2025-07-10,2025-07-10,合同会社ＶＰ蓄電所１号,,合同会社,東京都,渋谷区,神南１丁目１１番４号ＦＰＧリンクス神南５階,,13,113,1500041,,,,,,,2025-07-10,1,,,,,ブイピーチクデンショイチゴウ,0
569,3011003022011,新規,0,2025-07-10,2025-07-10,Ｅｌｌｉｐｔｉｃ　Ｃｕｒｖｅ　Ｃｏｎｓｕｌｔｉｎｇ合同会社,,合同会社,東京都,渋谷区,代官山町８番７,,13,113,1500034,,,,,,,2025-07-10,1,,,,,エリプティックカーブコンサルティング,0
576,3011103016111,新規,0,2025-07-10,2025-07-10,合同会社コンフィデンス,,合同会社,東京都,新宿区,西新宿７丁目１８番１０号,,13,104,1600023,,,,,,,2025-07-10,1,,,,,コンフィデンス,0
577,3011105011507,新規,0,2025-07-10,2025-07-10,Ｔ．Ｖ．Ｂ社会保険労務士法人,,その他の設立登記法人,東京都,新宿区,新宿２丁目９番２２号多摩川新宿ビル６階,,13,104,1600022,,,,,,,2025-07-10,1,,,,,ティーブイビー,0
579,3011301030715,新規,0,2025-07-10,2025-07-10,株式会社ＩＧＵ,,株式会社,東京都,杉並区,下井草３丁目４０番１３号ビーハイム栗山２０２,,13,115,1670022,,,,,,,2025-07-10,1,,,,,アイジーユー,0
580,3011303005624,新規,0,2025-07-10,2025-07-10,ククナマナ合同会社,,合同会社,東京都,杉並区,久我山３丁目３５番１５－４０８号,,13,115,1680082,,,,,,,2025-07-10,1,,,,,ククナマナ,0
581,3011303005632,新規,0,2025-07-10,2025-07-10,合同会社アールスリー,,合同会社,東京都,杉並区,荻窪１丁目２８番２号,,13,115,1670051,,,,,,,2025-07-10,1,,,,,アールスリー,0
582,3011801046442,新規,0,2025-07-10,2025-07-10,株式会社Ｎ＆Ａ総合コンサルティング,,株式会社,東京都,足立区,舎人３丁目８番２５号,,13,121,1210831,,,,,,,2025-07-10,1,,,,,エヌアンドエーソウゴウコンサルティング,0
583,3011801046450,新規,0,2025-07-10,2025-07-10,株式会社コンフィデンス,,株式会社,東京都,葛飾区,西水元４丁目２番１５号,,13,122,1250031,,,,,,,2025-07-10,1,,,,,コンフィデンス,0
586,3012401043318,新規,0,2025-07-10,2025-07-10,株式会社ＩＦ　Ｇｒｏｕｐ,,株式会社,東京都,稲城市,東長沼５４－１７ＳＫコーポ１０１,,13,225,2060802,,,,,,,2025-07-10,1,,,,,アイエフグループ,0
588,3012801024099,新規,0,2025-07-10,2025-07-10,株式会社プラムエイジ,,株式会社,東京都,立川市,羽衣町１丁目２０番１９号,,13,202,1900021,,,,,,,2025-07-10,1,,,,,プラムエイジ,0
595,3013301054578,新規,0,2025-07-10,2025-07-10,株式会社Ｄ＆Ｔ,,株式会社,東京都,豊島区,南長崎６丁目２７－１２,,13,116,1710052,,,,,,,2025-07-10,1,,,,,ディーアンドティー,0
601,3020001163527,新規,0,2025-07-10,2025-07-10,ＯｎＭａｔｃｈ株式会社,,株式会社,神奈川県,横浜市青葉区,松風台２４番地４７,,14,117,2270067,,,,,,,2025-07-10,1,,,,,オンマッチ,0
608,3021001085703,新規,0,2025-07-10,2025-07-10,株式会社建瑛,,株式会社,神奈川県,藤沢市,葛原２０６８番地の３,,14,205,2520822,,,,,,,2025-07-10,1,,,,,ケンエイ,0
618,3030001167551,新規,0,2025-07-10,2025-07-10,株式会社ＲＡＹＺ,,株式会社,埼玉県,三郷市,高州１丁目４８番地２,,11,237,3410037,,,,,,,2025-07-10,1,,,,,レイズ,0
619,3030001167618,新規,0,2025-07-10,2025-07-10,ＬＧＶＯ株式会社,,株式会社,埼玉県,川口市,戸塚東３丁目１８番１号,,11,203,3330802,,,,,,,2025-07-10,1,,,,,エルジーヴイオー,0
624,3030005022208,新規,0,2025-07-10,2025-07-10,ＮＰＯ法人みらい,,その他の設立登記法人,埼玉県,久喜市,菖蒲町菖蒲４４１番地,,11,232,3460106,,,,,,,2025-07-10,1,,,,,ミライ,0
629,3050001056884,新規,0,2025-07-10,2025-07-10,株式会社安見自動車,,株式会社,茨城県,笠間市,飯田１７２４番地,,08,216,3091605,,,,,,,2025-07-10,1,,,,,アミジドウシャ,0
630,3060001038394,新規,0,2025-07-10,2025-07-10,株式会社明進,,株式会社,栃木県,真岡市,上高間木２丁目３２番地４ニューコーポシノザキＨ１０６号,,09,209,3214337,,,,,,,2025-07-10,1,,,,,メイシン,0
632,3060003005632,新規,0,2025-07-10,2025-07-10,ＳＵＮエナジー合同会社,,合同会社,栃木県,鹿沼市,晃望台５番地９,,09,205,3220024,,,,,,,2025-07-10,1,,,,,サンエナジー,0
642,3090001019383,新規,0,2025-07-10,2025-07-10,ＡＲＩＫＡ株式会社,,株式会社,山梨県,南都留郡富士河口湖町,勝山３７３０番地,,19,430,4010310,,,,,,,2025-07-10,1,,,,,アリカ,0
646,3100001038761,新規,0,2025-07-10,2025-07-10,株式会社蒼技研,,株式会社,長野県,中野市,中央１丁目４番３号,,20,211,3830022,,,,,,,2025-07-10,1,,,,,アオイギケン,0
649,3100003008275,新規,0,2025-07-10,2025-07-10,合同会社ＧＦ．ＩＫＥ,,合同会社,長野県,中野市,大字越９０６番地９,,20,211,3830005,,,,,,,2025-07-10,1,,,,,ジーエフイケ,0
651,3110001039420,新規,0,2025-07-10,2025-07-10,株式会社ＲＹＳ,,株式会社,新潟県,柏崎市,新赤坂２丁目５番１１号,,15,205,9450845,,,,,,,2025-07-10,1,,,,,アールワイエス,0
652,3110003005809,新規,0,2025-07-10,2025-07-10,合同会社ＫＳエンジニアリング,,合同会社,新潟県,見附市,上新田町２－３５,,15,211,9540112,,,,,,,2025-07-10,1,,,,,ケーエスエンジニアリング,0
664,3120001277465,新規,0,2025-07-10,2025-07-10,Ｓｔｒｉｖｅｒ株式会社,,株式会社,大阪府,大阪市都島区,内代町１丁目４－１０ＲＯＣＡ都島４０３号,,27,102,5340013,,,,,,,2025-07-10,1,,,,,ストライバー,0
665,3120001277572,新規,0,2025-07-10,2025-07-10,株式会社サナビブレ,,株式会社,大阪府,大阪市中央区,東心斎橋１丁目９番１９－３０７号,,27,128,5420083,,,,,,,2025-07-10,1,,,,,サナビブレ,0
666,3120001277580,新規,0,2025-07-10,2025-07-10,株式会社ＡＰＰ,,株式会社,大阪府,大阪市浪速区,難波中１丁目１６－１１－３０２,,27,111,5560011,,,,,,,2025-07-10,1,,,,,エーピーピー,0
667,3120001277630,新規,0,2025-07-10,2025-07-10,嘉名株式会社,,株式会社,大阪府,大阪市旭区,今市１丁目２－５カルム千林４０２号室,,27,117,5350011,,,,,,,2025-07-10,1,,,,,ヨシナ,0
668,3120001277837,新規,0,2025-07-10,2025-07-10,株式会社ｃ８,,株式会社,大阪府,大阪市都島区,中野町４丁目１７番７号２Ｆ,,27,102,5340027,,,,,,,2025-07-10,1,,,,,シーエイト,0
671,3120005025028,新規,0,2025-07-10,2025-07-10,医療法人ＰｌｕｍＫｎｏｔ,,その他の設立登記法人,大阪府,大阪市中央区,南新町１丁目３番１０号南新町ＥＸＣＥＬＢＬＤＧ．１Ｆ,,27,128,5400024,,,,,,,2025-07-10,1,,,,,プラムノット,0
678,3130001080042,新規,0,2025-07-10,2025-07-10,株式会社Ｇｅｎｕｉｎｅ,,株式会社,京都府,乙訓郡大山崎町,字円明寺小字夏目３１番地１,,26,303,6180091,,,,,,,2025-07-10,1,,,,,ジェニュイン,0
679,3130001080067,新規,0,2025-07-10,2025-07-10,ＣＵＢＥ株式会社,,株式会社,京都府,京都市下京区,中堂寺鍵田町１４番地９,,26,106,6008805,,,,,,,2025-07-10,1,,,,,キューブ,0
680,3130001080158,新規,0,2025-07-10,2025-07-10,Ｂｅｙｏｎｄ　Ｒａｃｉｎｇ株式会社,,株式会社,京都府,京都市下京区,四条通柳馬場東入立売東町２０番地１,,26,106,6008005,,,,,,,2025-07-10,1,,,,,ビヨンドレーシング,0
686,3140001139218,新規,0,2025-07-10,2025-07-10,オシデザイン株式会社,,株式会社,兵庫県,加古川市,加古川町北在家２７２３番地センタービル１階１０８,,28,210,6750031,,,,,,,2025-07-10,1,,,,,オシデザイン,0
694,3170003002239,新規,0,2025-07-10,2025-07-10,合同会社きのケア,,合同会社,和歌山県,和歌山市,十番丁９１番地十番丁センタービル５Ｂ,,30,201,6408152,,,,,,,2025-07-10,1,,,,,キノケア,0
701,3180301039989,新規,0,2025-07-10,2025-07-10,株式会社ＡＩｅシステム,,株式会社,愛知県,豊橋市,植田町字森下５０番地,,23,201,4418134,,,,,,,2025-07-10,1,,,,,アイイーシステム,0
702,3180301040006,新規,0,2025-07-10,2025-07-10,株式会社エスピーループ,,株式会社,愛知県,豊田市,京町２丁目４番地１８,,23,211,4710063,,,,,,,2025-07-10,1,,,,,エスピーループ,0
707,3200003006913,新規,0,2025-07-10,2025-07-10,合同会社ＨＯＭＡＲＥ,,合同会社,岐阜県,安八郡神戸町,大字西保３５０番地の２,,21,381,5032323,,,,,,,2025-07-10,1,,,,,ホマレ,0
710,3210001020238,新規,0,2025-07-10,2025-07-10,ＫＲＣ株式会社,,株式会社,福井県,大野市,西山第９号１番地,,18,205,9120426,,,,,,,2025-07-10,1,,,,,ケーアールシー,0
720,3250001021249,新規,0,2025-07-10,2025-07-10,株式会社リバティ,,株式会社,山口県,周南市,上遠石町１１番５１号,,35,215,7450817,,,,,,,2025-07-10,1,,,,,リバティ,0
727,3290001110634,新規,0,2025-07-10,2025-07-10,株式会社ＲＣ２,,株式会社,福岡県,福岡市博多区,博多駅前１丁目２３番２号ＰａｒｋＦｒｏｎｔ博多駅前１丁目５Ｆ－Ｂ,,40,132,8120011,,,,,,,2025-07-10,1,,,,,アールシーツー,0
729,3290003017076,新規,0,2025-07-10,2025-07-10,合同会社モンさん,,合同会社,福岡県,福岡市博多区,博多駅前１丁目２３番２号ＰａｒｋＦｒｏｎｔ博多駅前１丁目５Ｆ－Ｂ,,40,132,8120011,,,,,,,2025-07-10,1,,,,,モンサン,0
738,3340001027492,新規,0,2025-07-10,2025-07-10,株式会社ぶじょほだんし,,株式会社,鹿児島県,鹿児島市,中央町１９番４０号ザ・パークハウス鹿児島中央タワー１３１３,,46,201,8900053,,,,,,,2025-07-10,1,,,,,ブジョホダンシ,0
742,3360001035460,新規,0,2025-07-10,2025-07-10,ＡＩＬＬＩＯ株式会社,,株式会社,沖縄県,沖縄市,比屋根３丁目１２番１号,,47,211,9042173,,,,,,,2025-07-10,1,,,,,エーリオ,0
743,3360001035485,新規,0,2025-07-10,2025-07-10,株式会社心叶,,株式会社,沖縄県,浦添市,城間２丁目１７番１８号,,47,208,9012133,,,,,,,2025-07-10,1,,,,,シンカ,0
746,3370001052802,新規,0,2025-07-10,2025-07-10,グロース・ギア株式会社,,株式会社,宮城県,仙台市青葉区,本町１丁目２番５号,,04,101,9800014,,,,,,,2025-07-10,1,,,,,グロースギア,0
753,3400003003502,新規,0,2025-07-10,2025-07-10,合同会社ハッピーストーリー,,合同会社,岩手県,下閉伊郡山田町,船越第２２地割１１番地Ａ棟,,03,482,0281371,,,,,,,2025-07-10,1,,,,,ハッピーストーリー,0
768,3490001011110,新規,0,2025-07-10,2025-07-10,株式会社ＥＮＮ　ＴＡＭＥ,,株式会社,高知県,高知市,介良乙２８０５番地４,,39,201,7815106,,,,,,,2025-07-10,1,,,,,エンタメ,0
774,3700150131356,新規,0,2025-07-10,2025-07-10,ＴＤＪ　Ｃｏｍｍｅｒｃｅ　ＬＬＣ,,外国会社等,,,,,,,,４０１　Ｒｙｌａｎｄ　Ｓｔｒｅｅｔ，ＳＴＥ　２００Ａ，Ｒｅｎｏ，ＮＶ，８９５０２，ＵＳ,,,,,,2025-07-10,1,,,,,ティーディージェーコマースエルエルシー,0
775,3700150131364,新規,0,2025-07-10,2025-07-10,Ｓｈｅｎｚｈｅｎｓｈｉ　Ｌｉｓｅｎｚｈｉｔｕｏｋｅｊｉ　Ｙｏｕｘｉａｎｇｏｎｇｓｉ,,外国会社等,,,,,,,,Ｎｏ．２６，Ｂａｉｌｉ　Ｒｏａｄ，Ｘｉａｌｉｌａｎｇ　Ｃｏｍｍｕｎｉｔｙ，Ｎａｎｗａｎ　Ｓｔｒｅｅｔ，Ｌｏｎｇ，Ｒｏｏｍ　９０６，Ｂｕｉｌｄｉｎｇ　Ｄ，Ｘｉｎ　Ｚｈｏｎｇｔａｉ　Ｎａｎｗａｎ　Ｉｎｄｕｓｔｒｉａｌ　Ｐａｒｋ，Ｓｈｅｎｚｈｅｎ，Ｇｕａｎｇｄｏｎｇ,,,,,,2025-07-10,1,,,,,シェンジェンシーリーセンジートゥオコーァジーヨウシエンゴーンスー,0
781,4010001256495,新規,0,2025-07-10,2025-07-10,ＣＳＩジャパン株式会社,,株式会社,東京都,千代田区,丸の内３丁目２番２号丸の内二重橋ビル２Ｆ,,13,101,1000005,,,,,,,2025-07-10,1,,,,,シーエスアイジャパン,0
782,4010001256537,新規,0,2025-07-10,2025-07-10,株式会社ＲＡＩＳＥＯＮ,,株式会社,東京都,中央区,銀座１丁目１５番４号ヒューリック銀座一丁目昭和通りビル７階,,13,102,1040061,,,,,,,2025-07-10,1,,,,,レイズオン,0
783,4010001256553,新規,0,2025-07-10,2025-07-10,ＬａｓｅｒＢｉｒｄ株式会社,,株式会社,東京都,中央区,日本橋兜町１７番１の３１１号室,,13,102,1030026,,,,,,,2025-07-10,1,,,,,レーザバード,0
784,4010001256578,新規,0,2025-07-10,2025-07-10,株式会社Ｄｉｒｂａｔｏホールディングス,,株式会社,東京都,千代田区,永田町２丁目１１番１号山王パークタワー５階トラスティーズ・コンサルティングＬＬＰ内,,13,101,1000014,,,,,,,2025-07-10,1,,,,,ディルバートホールディングス,0
785,4010001256693,新規,0,2025-07-10,2025-07-10,株式会社オーディーエス,,株式会社,東京都,中央区,日本橋堀留町１丁目６番３号パレドール日本橋３１１,,13,102,1030012,,,,,,,2025-07-10,1,,,,,オーディーエス,0
786,4010001256710,新規,0,2025-07-10,2025-07-10,株式会社日本健康促進,,株式会社,東京都,中央区,銀座３丁目８番１０号,,13,102,1040061,,,,,,,2025-07-10,1,,,,,ニホンケンコウソクシン,0
787,4010001256719,新規,0,2025-07-10,2025-07-10,株式会社尊商事,,株式会社,東京都,中央区,入船１丁目９番６号秋元ビル１階,,13,102,1040042,,,,,,,2025-07-10,1,,,,,ミコトショウジ,0
788,4010001256735,新規,0,2025-07-10,2025-07-10,株式会社Ｔｒｉｐｌｅ　Ｓｅｖｅｎ,,株式会社,東京都,中央区,晴海５丁目６番３号,,13,102,1040053,,,,,,,2025-07-10,1,,,,,トリプルセブン,0
789,4010001256743,新規,0,2025-07-10,2025-07-10,ＹＳホールディングス株式会社,,株式会社,東京都,中央区,八重洲１丁目７番１７号,,13,102,1030028,,,,,,,2025-07-10,1,,,,,ワイエスホールディングス,0
790,4010001256768,新規,0,2025-07-10,2025-07-10,株式会社ＵＮＩＳＯＮ　ＬＡＢ,,株式会社,東京都,中央区,銀座７丁目１３番２０号銀座ＴＨビル９階,,13,102,1040061,,,,,,,2025-07-10,1,,,,,ユニゾンラボ,0
791,4010003047918,新規,0,2025-07-10,2025-07-10,エデュケーショナルイベントマネジメント合同会社,,合同会社,東京都,千代田区,麹町４丁目３番地麹町ＭＫビル９階,,13,101,1020083,,,,,,,2025-07-10,1,,,,,エデュケーショナルイベントマネジメント,0
792,4010003047950,新規,0,2025-07-10,2025-07-10,ＬＡＶＥＮＤＥＲ　ＤＲＥＡＭＳ合同会社,,合同会社,東京都,中央区,日本橋久松町５－６イマス久松町ビル４Ｆ５０号室,,13,102,1030005,,,,,,,2025-07-10,1,,,,,ラベンダードリームス,0
793,4010003047959,新規,0,2025-07-10,2025-07-10,エルバイト合同会社,,合同会社,東京都,千代田区,内神田１丁目３番７号４０１あすな会計事務所内,,13,101,1010047,,,,,,,2025-07-10,1,,,,,エルバイト,0
794,4010003047991,新規,0,2025-07-10,2025-07-10,合同会社九州クワトロアルファ,,合同会社,東京都,千代田区,丸の内１丁目４番１号東京共同会計事務所内,,13,101,1000005,,,,,,,2025-07-10,1,,,,,キュウシュウクワトロアルファ,0
796,4010005040350,新規,0,2025-07-10,2025-07-10,一般社団法人御徒町インベストメント,,その他の設立登記法人,東京都,千代田区,霞が関３丁目２番５号,,13,101,1000013,,,,,,,2025-07-10,1,,,,,オカチマチインベストメント,0
799,4010401191615,新規,0,2025-07-10,2025-07-10,株式会社Ｆｏｘ,,株式会社,東京都,港区,六本木２丁目２番２－５０５号,,13,103,1060032,,,,,,,2025-07-10,1,,,,,フォックス,0
800,4010401191623,新規,0,2025-07-10,2025-07-10,ＴＩＦＩＮ　Ｊａｐａｎ株式会社,,株式会社,東京都,港区,元麻布３丁目１番６号,,13,103,1060046,,,,,,,2025-07-10,1,,,,,ティフィンジャパン,0
801,4010401191648,新規,0,2025-07-10,2025-07-10,レイクテクノロジー株式会社,,株式会社,東京都,港区,港南２丁目１５番１号品川インターシティＡ棟２８階,,13,103,1080075,,,,,,,2025-07-10,1,,,,,レイクテクノロジー,0
802,4010401191680,新規,0,2025-07-10,2025-07-10,株式会社ＯＨＡＮＡ　Ａｓｓｅｔ　Ｍａｎａｇｅｍｅｎｔ,,株式会社,東京都,港区,南青山７丁目１２番２４号,,13,103,1070062,,,,,,,2025-07-10,1,,,,,オハナアセットマネジメント,0
803,4010401191689,新規,0,2025-07-10,2025-07-10,株式会社Ｂａｎｓｏｕエンターテイメント,,株式会社,東京都,港区,虎ノ門１丁目１番１２号虎ノ門ビル８０２,,13,103,1050001,,,,,,,2025-07-10,1,,,,,バンソウエンターテイメント,0
806,4010501054382,新規,0,2025-07-10,2025-07-10,クレストセイル・キャピタル株式会社,,株式会社,東京都,台東区,雷門２丁目１５番２号,,13,106,1110034,,,,,,,2025-07-10,1,,,,,クレストセイルキャピタル,0
809,4010601067598,新規,0,2025-07-10,2025-07-10,ＭＳＳＭ株式会社,,株式会社,東京都,江東区,東雲１丁目９－５０－５１Ｆ,,13,108,1350062,,,,,,,2025-07-10,1,,,,,ミッスム,0
811,4010603011678,新規,0,2025-07-10,2025-07-10,合同会社ＪＩＡＩ,,合同会社,東京都,江東区,扇橋１丁目２１番２６－６０１号,,13,108,1350011,,,,,,,2025-07-10,1,,,,,ジアイ,0
814,4010701047987,新規,0,2025-07-10,2025-07-10,株式会社Ｐｌａｎ　Ｎ,,株式会社,東京都,品川区,西品川１丁目１７番７号,,13,109,1410033,,,,,,,2025-07-10,1,,,,,プランエヌ,0
815,4010703007799,新規,0,2025-07-10,2025-07-10,クィーンハイ合同会社,,合同会社,東京都,品川区,東五反田３丁目６番１４号,,13,109,1410022,,,,,,,2025-07-10,1,,,,,クィーンハイ,0
817,4010705003771,新規,0,2025-07-10,2025-07-10,一般社団法人太陽の村第二章,,その他の設立登記法人,東京都,品川区,八潮５丁目４番２１－３０５号,,13,109,1400003,,,,,,,2025-07-10,1,,,,,タイヨウノムラダイニショウ,0
819,4010801036361,新規,0,2025-07-10,2025-07-10,予澤株式会社,,株式会社,東京都,大田区,東海３丁目７番３号東海ビル２０１号,,13,111,1430001,,,,,,,2025-07-10,1,,,,,ヨタク,0
825,4010901057729,新規,0,2025-07-10,2025-07-10,つなぐ株式会社,,株式会社,東京都,世田谷区,砧１丁目２番１２－６０３号,,13,112,1570073,,,,,,,2025-07-10,1,,,,,ツナグ,0
828,4011001170125,新規,0,2025-07-10,2025-07-10,株式会社西本製作所,,株式会社,東京都,渋谷区,道玄坂１丁目１０番８号渋谷道玄坂東急ビル２Ｆ－Ｃ,,13,113,1500043,,,,,,,2025-07-10,1,,,,,ニシモトセイサクショ,0
829,4011001170554,新規,0,2025-07-10,2025-07-10,株式会社ＴＮＧ,,株式会社,東京都,渋谷区,元代々木町２５番８号２０１,,13,113,1510062,,,,,,,2025-07-10,1,,,,,ティーエヌジー,0
830,4011001170637,新規,0,2025-07-10,2025-07-10,ｃｒｏｍ株式会社,,株式会社,東京都,渋谷区,渋谷２丁目１９－１５宮益坂ビルディング６０９,,13,113,1500002,,,,,,,2025-07-10,1,,,,,クロム,0
831,4011001170678,新規,0,2025-07-10,2025-07-10,Ａｌｌ　Ｒｉｇｈｔ株式会社,,株式会社,東京都,渋谷区,桜丘町１－４渋谷サクラステージＳＨＩＢＵＹＡサイドＳＨＩＢＵＹＡタワー７階,,13,113,1500031,,,,,,,2025-07-10,1,,,,,オールライト,0
832,4011001170752,新規,0,2025-07-10,2025-07-10,株式会社爆速,,株式会社,東京都,渋谷区,道玄坂１丁目１６番６号二葉ビル８Ｂ,,13,113,1500043,,,,,,,2025-07-10,1,,,,,バクソク,0
833,4011001170769,新規,0,2025-07-10,2025-07-10,Ｍｉｄ‐Ｗｅｌｌ株式会社,,株式会社,東京都,渋谷区,道玄坂１丁目１０番８号渋谷道玄坂東急ビル２Ｆ－Ｃ,,13,113,1500043,,,,,,,2025-07-10,1,,,,,ミッドウェル,0
834,4011001170810,新規,0,2025-07-10,2025-07-10,株式会社ＯＧ,,株式会社,東京都,渋谷区,道玄坂１丁目１０番８号渋谷道玄坂東急ビル２Ｆ－Ｃ,,13,113,1500043,,,,,,,2025-07-10,1,,,,,オージー,0
835,4011001170950,新規,0,2025-07-10,2025-07-10,Ｒ‐ＴＫＧパートナーズ株式会社,,株式会社,東京都,渋谷区,代々木２丁目２３番１号ニュー・ステイト・メナー３６７号室,,13,113,1510053,,,,,,,2025-07-10,1,,,,,アールティーケージーパートナーズ,0
836,4011001171206,新規,0,2025-07-10,2025-07-10,Ｂａｓｅ　Ｐｌｕｓ株式会社,,株式会社,東京都,目黒区,下目黒１丁目３‐２０‐８０２,,13,110,1530064,,,,,,,2025-07-10,1,,,,,ベースプラス,0
838,4011003021986,新規,0,2025-07-10,2025-07-10,合同会社ラッキーグランパ＆カンパニー,,合同会社,東京都,渋谷区,神宮前１丁目４番２０－１０１３号,,13,113,1500001,,,,,,,2025-07-10,1,,,,,ラッキーグランパアンドカンパニー,0
839,4011003022027,新規,0,2025-07-10,2025-07-10,Ａｍｉｒａ合同会社,,合同会社,東京都,目黒区,自由が丘２丁目１６番１２号ＲＪ３,,13,110,1520035,,,,,,,2025-07-10,1,,,,,アミラ,0
850,4011103016102,新規,0,2025-07-10,2025-07-10,合同会社ガガガメディア,,合同会社,東京都,新宿区,西新宿３丁目３番１３号西新宿水間ビル２Ｆ,,13,104,1600023,,,,,,,2025-07-10,1,,,,,ガガガメディア,0
853,4011301030706,新規,0,2025-07-10,2025-07-10,株式会社ｓｉｄｅ‐Ｓ,,株式会社,東京都,杉並区,松庵３丁目１５番２２号,,13,115,1670054,,,,,,,2025-07-10,1,,,,,サイドエス,0
857,4011701028507,新規,0,2025-07-10,2025-07-10,株式会社ＣｉｔｙＦｏｒｃｅ,,株式会社,東京都,江戸川区,江戸川２丁目１２番１６号２Ｆ,,13,123,1320013,,,,,,,2025-07-10,1,,,,,シティーフォース,0
858,4011701028515,新規,0,2025-07-10,2025-07-10,株式会社宝輪,,株式会社,東京都,江戸川区,小松川３丁目９番１号１１０９号,,13,123,1320034,,,,,,,2025-07-10,1,,,,,ホウワ,0
861,4011801046433,新規,0,2025-07-10,2025-07-10,ＫＡＥＲＩＥ株式会社,,株式会社,東京都,葛飾区,立石３丁目２番１２号Ｌｕｃｅ立石１０１,,13,122,1240012,,,,,,,2025-07-10,1,,,,,カエリエ,0
867,4011803006963,新規,0,2025-07-10,2025-07-10,合同会社ＣＯＬＯＲＥ,,合同会社,東京都,足立区,一ツ家３丁目１１番３号,,13,121,1210075,,,,,,,2025-07-10,1,,,,,コロレ,0
871,4012401043317,新規,0,2025-07-10,2025-07-10,株式会社プルミエ不動産管理,,株式会社,東京都,府中市,白糸台３丁目５１番地の３,,13,206,1830011,,,,,,,2025-07-10,1,,,,,プルミエフドウサンカンリ,0
872,4012701018968,新規,0,2025-07-10,2025-07-10,株式会社ＦＣＯＯＬ,,株式会社,東京都,東久留米市,下里２丁目２番１９号,,13,222,2030043,,,,,,,2025-07-10,1,,,,,エフクール,0
874,4012801024098,新規,0,2025-07-10,2025-07-10,株式会社レジスタ東京,,株式会社,東京都,立川市,幸町１丁目１４番地４七福ビル３Ｆ,,13,202,1900002,,,,,,,2025-07-10,1,,,,,レジスタトウキョウ,0
875,4012803003793,新規,0,2025-07-10,2025-07-10,Ｈｏｎｅｙ　Ｂｅｅ合同会社,,合同会社,東京都,立川市,上砂町２丁目３１番地の６,,13,202,1900032,,,,,,,2025-07-10,1,,,,,ハニービー,0
886,4020001163757,新規,0,2025-07-10,2025-07-10,Ｒｙｌａｎ　Ｈｅａｌｔｈ株式会社,,株式会社,神奈川県,横浜市南区,山王町４丁目２６－３－３０２,,14,105,2320013,,,,,,,2025-07-10,1,,,,,リランヘルス,0
887,4020001163815,新規,0,2025-07-10,2025-07-10,株式会社ハイライト,,株式会社,神奈川県,横浜市戸塚区,原宿３丁目３３番２０号,,14,110,2450063,,,,,,,2025-07-10,1,,,,,ハイライト,0
888,4020001163831,新規,0,2025-07-10,2025-07-10,株式会社ｍｉｍｏｍａ,,株式会社,神奈川県,横浜市中区,石川町１丁目１３番２号エネクル横浜元町テラス,,14,104,2310868,,,,,,,2025-07-10,1,,,,,ミモマ,0
891,4020003028859,新規,0,2025-07-10,2025-07-10,合同会社ＡＲＩＳ,,合同会社,神奈川県,横浜市港北区,師岡町９３番地１０,,14,109,2220002,,,,,,,2025-07-10,1,,,,,アリス,0
892,4020003028875,新規,0,2025-07-10,2025-07-10,星野大東商貿合同会社,,合同会社,神奈川県,横浜市西区,浅間町１丁目４番３号ウィザードビル４０２,,14,103,2200072,,,,,,,2025-07-10,1,,,,,ホシノダイトウショウボウ,0
893,4020003028925,新規,0,2025-07-10,2025-07-10,そわかコンサルファーム合同会社,,合同会社,神奈川県,川崎市麻生区,千代ケ丘３丁目２０番地１９,,14,137,2150005,,,,,,,2025-07-10,1,,,,,ソワカコンサルファーム,0
901,4030001167484,新規,0,2025-07-10,2025-07-10,株式会社盛栄,,株式会社,埼玉県,三郷市,泉１丁目９番地２,,11,237,3410054,,,,,,,2025-07-10,1,,,,,セイエイ,0
902,4030001167567,新規,0,2025-07-10,2025-07-10,おひさまアセット株式会社,,株式会社,埼玉県,東松山市,元宿２丁目２２番地８－３０５号,,11,212,3550063,,,,,,,2025-07-10,1,,,,,オヒサマアセット,0
903,4030001167583,新規,0,2025-07-10,2025-07-10,アイカン株式会社,,株式会社,埼玉県,川越市,大字下新河岸８１番地２９,,11,201,3501136,,,,,,,2025-07-10,1,,,,,アイカン,0
904,4030001167600,新規,0,2025-07-10,2025-07-10,慧翔国際株式会社,,株式会社,埼玉県,さいたま市岩槻区,大字慈恩寺５４６番地６１,,11,110,3390009,,,,,,,2025-07-10,1,,,,,ケイショウコクサイ,0
912,4030003027174,新規,0,2025-07-10,2025-07-10,Ｕｍｉｇａｍｅ合同会社,,合同会社,埼玉県,熊谷市,榎町１６３－１－１４０５,,11,202,3600823,,,,,,,2025-07-10,1,,,,,ウミガメ,0
913,4030003027182,新規,0,2025-07-10,2025-07-10,あかつきオプティ合同会社,,合同会社,埼玉県,上尾市,小泉８丁目１３番地２５ルミナス２０１,,11,219,3620063,,,,,,,2025-07-10,1,,,,,アカツキオプティ,0
916,4030005022207,新規,0,2025-07-10,2025-07-10,一般社団法人はなどけい,,その他の設立登記法人,埼玉県,さいたま市緑区,大字三室２４６７番地２５,,11,109,3360911,,,,,,,2025-07-10,1,,,,,ハナドケイ,0
918,4040001083193,新規,0,2025-07-10,2025-07-10,大成地所株式会社,,株式会社,千葉県,鴨川市,太海３０１番地の２,,12,223,2992862,,,,,,,2025-07-10,1,,,,,,0
921,4040001139565,新規,0,2025-07-10,2025-07-10,株式会社Ｌｉｓｂｅｔｈ　Ｌａｂｏｒａｔｏｒｙ,,株式会社,千葉県,成田市,本城４２－６０,,12,211,2860114,,,,,,,2025-07-10,1,,,,,リズベットラボラトリー,0
924,4040003028015,新規,0,2025-07-10,2025-07-10,合同会社ヤナショウ,,合同会社,千葉県,柏市,塚崎１０３８番地７,,12,217,2770923,,,,,,,2025-07-10,1,,,,,ヤナショウ,0
925,4040003028048,新規,0,2025-07-10,2025-07-10,合同会社ＴＯＸエナジー,,合同会社,千葉県,市原市,五所２００７番地１,,12,219,2900066,,,,,,,2025-07-10,1,,,,,トックスエナジー,0
928,4060001038385,新規,0,2025-07-10,2025-07-10,株式会社マルワ,,株式会社,栃木県,宇都宮市,五代２丁目９番３１号,,09,201,3210135,,,,,,,2025-07-10,1,,,,,マルワ,0
929,4060005010357,新規,0,2025-07-10,2025-07-10,ソーシャルハートフルユニオン栃木,,その他の設立登記法人,栃木県,足利市,田中町９６０－９,,09,202,3260822,,,,,,,2025-07-10,1,,,,,ソーシャルハートフルユニオントチギ,0
930,4070001043129,新規,0,2025-07-10,2025-07-10,グローバルワークエージェント株式会社,,株式会社,群馬県,邑楽郡千代田町,大字赤岩３１０６番地の１３,,10,523,3700503,,,,,,,2025-07-10,1,,,,,グローバルワークエージェント,0
934,4080101025645,新規,0,2025-07-10,2025-07-10,株式会社大志総研,,株式会社,静岡県,富士宮市,山宮１７８０番地の３,,22,207,4180111,,,,,,,2025-07-10,1,,,,,タイシソウケン,0
946,4100003008274,新規,0,2025-07-10,2025-07-10,合同会社佐藤果樹園,,合同会社,長野県,中野市,大字深沢３８９番地,,20,211,3830006,,,,,,,2025-07-10,1,,,,,サトウカジュエン,0
947,4100005013371,新規,0,2025-07-10,2025-07-10,一般社団法人環境・印刷研究所,,その他の設立登記法人,長野県,諏訪郡原村,６１７５番５,,20,363,3910100,,,,,,,2025-07-10,1,,,,,カンキョウインサツケンキュウジョ,0
957,4120001277621,新規,0,2025-07-10,2025-07-10,株式会社中之島マリン,,株式会社,大阪府,大阪市北区,菅原町１１－１０オーキッド中之島２階,,27,127,5300046,,,,,,,2025-07-10,1,,,,,ナカノシママリン,0
958,4120001277670,新規,0,2025-07-10,2025-07-10,株式会社光商事,,株式会社,大阪府,大阪市阿倍野区,丸山通１丁目５番２－２０６号,,27,119,5450042,,,,,,,2025-07-10,1,,,,,ヒカリショウジ,0
959,4120001277729,新規,0,2025-07-10,2025-07-10,株式会社ヘリオス,,株式会社,大阪府,大阪市鶴見区,諸口２丁目１３番３３号,,27,124,5380051,,,,,,,2025-07-10,1,,,,,ヘリオス,0
964,4120003029954,新規,0,2025-07-10,2025-07-10,合同会社Ｃｉｖｉｌｉａｎ　Ｇａｍｅｓ,,合同会社,大阪府,大阪市北区,梅田１丁目２番２号大阪駅前第２ビル１２－１２,,27,127,5300001,,,,,,,2025-07-10,1,,,,,シビリアンゲームズ,0
965,4120005025019,新規,0,2025-07-10,2025-07-10,医療法人博展会,,その他の設立登記法人,大阪府,大阪市東成区,東小橋１丁目９番１９号ＪＲ玉造駅ＮＫビル５Ｆ,,27,115,5370024,,,,,,,2025-07-10,1,,,,,ハクテンカイ,0
966,4120005025027,新規,0,2025-07-10,2025-07-10,のぞみ税理士法人,,その他の設立登記法人,大阪府,大阪市北区,梅田２丁目４番９号ブリーゼタワー２３階,,27,127,5300001,,,,,,,2025-07-10,1,,,,,ノゾミ,0
967,4120005025035,新規,0,2025-07-10,2025-07-10,医療法人ＴＲＹ,,その他の設立登記法人,大阪府,大阪市城東区,成育４丁目２０番１６号,,27,118,5360007,,,,,,,2025-07-10,1,,,,,トライ,0
978,4130001080041,新規,0,2025-07-10,2025-07-10,株式会社ＨｏｒｉＴｅｃｈ,,株式会社,京都府,福知山市,字天田３９１番地の乙,,26,201,6200000,,,,,,,2025-07-10,1,,,,,ホリテック,0
979,4130001080074,新規,0,2025-07-10,2025-07-10,株式会社ＮＰＣアドバンス,,株式会社,京都府,京都市中京区,蛸薬師通富小路東入油屋町１４０番地ルピアビル３０２号室,,26,104,6048063,,,,,,,2025-07-10,1,,,,,エヌピーシーアドバンス,0
983,4140001139209,新規,0,2025-07-10,2025-07-10,株式会社ファントム,,株式会社,兵庫県,神戸市東灘区,住吉宮町５丁目３番２０号,,28,101,6580053,,,,,,,2025-07-10,1,,,,,ファントム,0
984,4140001139266,新規,0,2025-07-10,2025-07-10,株式会社まるやまと,,株式会社,兵庫県,南あわじ市,阿那賀１４６３－６,,28,224,6560661,,,,,,,2025-07-10,1,,,,,マルヤマト,0
988,4170001018707,新規,0,2025-07-10,2025-07-10,美珈乃自動車株式会社,,株式会社,和歌山県,和歌山市,西庄１０５６番地１９,,30,201,6400112,,,,,,,2025-07-10,1,,,,,ミカノジドウシャ,0
991,4180005021152,新規,0,2025-07-10,2025-07-10,医療法人Ｓａｌｕｓ,,その他の設立登記法人,愛知県,名古屋市守山区,白沢町１２０番地,,23,113,4630092,,,,,,,2025-07-10,1,,,,,サルース,0
993,4180301040005,新規,0,2025-07-10,2025-07-10,Ｅａｒｔｈ　Ｗｏｒｋ株式会社,,株式会社,愛知県,豊橋市,下条西町字南２７０３番地３,,23,201,4400001,,,,,,,2025-07-10,1,,,,,アースワーク,0
994,4180301040013,新規,0,2025-07-10,2025-07-10,株式会社ＩＭＰＥＲＩＵＭ,,株式会社,愛知県,みよし市,黒笹いずみ２丁目７番地７,,23,236,4700232,,,,,,,2025-07-10,1,,,,,インペリウム,0
997,4200001043981,新規,0,2025-07-10,2025-07-10,株式会社Ｋ２　ｐｌｕｓ,,株式会社,岐阜県,大垣市,和合新町１丁目４６番地１,,21,202,5030801,,,,,,,2025-07-10,1,,,,,ケイツープラス,0
1005,4250001021248,新規,0,2025-07-10,2025-07-10,株式会社ＫＴｔｅｃｈｎｏ,,株式会社,山口県,周南市,大字徳山５５３７番地の３,,35,215,7450851,,,,,,,2025-07-10,1,,,,,ケーティーテクノ,0
1017,4290003017075,新規,0,2025-07-10,2025-07-10,合同会社エース食品,,合同会社,福岡県,久留米市,上津町２２８－１１５ハイデルベルク３０７,,40,203,8300052,,,,,,,2025-07-10,1,,,,,エースショクヒン,0
1022,4320003004714,新規,0,2025-07-10,2025-07-10,合同会社未来ワークス,,合同会社,大分県,臼杵市,大字福良１８５番地の１,,44,206,8750053,,,,,,,2025-07-10,1,,,,,ミライワークス,0
1026,4360001035476,新規,0,2025-07-10,2025-07-10,Ｅｍｉａｒ　Ｅｓｔａｔｅ株式会社,,株式会社,沖縄県,宜野湾市,字佐真下８１番地１,,47,205,9012216,,,,,,,2025-07-10,1,,,,,エミアルエステート,0
1034,4410003004119,新規,0,2025-07-10,2025-07-10,ＲｅｙＤａｒ合同会社,,合同会社,秋田県,北秋田市,今泉字今泉１２番地１,,05,213,0183343,,,,,,,2025-07-10,1,,,,,レイダー,0
1035,4420003003152,新規,0,2025-07-10,2025-07-10,合同会社高橋ＲＰ,,合同会社,青森県,三沢市,大字三沢字猫又１２２番地３９号,,02,207,0330022,,,,,,,2025-07-10,1,,,,,,0
1037,4430001094779,新規,0,2025-07-10,2025-07-10,株式会社Ｆｅｌｉｚ,,株式会社,北海道,札幌市中央区,北十条西２０丁目１番１－２０３号,,01,101,0600010,,,,,,,2025-07-10,1,,,,,フィリーゼ,0
1039,4450001014669,新規,0,2025-07-10,2025-07-10,株式会社ピーエイインカネイト北海道,,株式会社,北海道,上川郡美瑛町,本町１丁目４番２０号,,01,459,0710208,,,,,,,2025-07-10,1,,,,,ピーエイインカネイトホッカイドウ,0
1041,4470003002926,新規,0,2025-07-10,2025-07-10,合同会社ｃｌｅａｒ　ｃｒｅａｔｏｒ,,合同会社,香川県,高松市,牟礼町牟礼２７３番地３,,37,201,7610121,,,,,,,2025-07-10,1,,,,,クリアークリエーター,0
1048,4700150131355,新規,0,2025-07-10,2025-07-10,ＷｕＨａｎ　Ｘｉｎｇ　Ｒｕｉ　Ｋｅ　Ｔｅｃｈｎｏｌｏｇｙ　Ｃｏ．，Ｌｔｄ．,,外国会社等,,,,,,,,Ｅ１１　Ｆ９　Ｒ＆Ｄ　Ｂｕｉｌｄｉｎｇ　Ｐｈａｓｅ４－０３　Ｃｅｎｔｅｒ　３．３，Ｎｏ．３０３　ＧｕａｎｇｇｕＡｖｅｎｕｅ，Ｅｌａｋｅ　ＮｅｗＴｅｃｈＤＺｏｎｅ，Ｗｕｈａｎ,,,,,,2025-07-10,1,,,,,ウーハンシーシーンゥルイコーァコーァジーヨウシエンゴーンスー,0
1049,4700150131363,新規,0,2025-07-10,2025-07-10,Ｑｕａｎｚｈｏｕｓｈｉ　Ｑｕａｎｇａｎｇ　Ｚｈｉｆｅｎｇ　ｍａｏｙｉｙｏｕｘｉａｎｇｏｎｇｓｉ,,外国会社等,,,,,,,,Ｒｏｏｍ　４０６，Ｕｎｉｔ　３，Ｎｏ．５　Ｊｉｎｓｈａｎ　Ｓｔｒｅｅｔ，Ｑｕａｎｇａｎｇ　Ｄｉｓｔｒｉｃｔ，Ｑｕａｎｚｈｏｕ　Ｃｉｔｙ，Ｆｕｊｉａｎ　Ｐｒｏｖｉｎｃｅ,,,,,,2025-07-10,1,,,,,チュエンジョウシーチュエンガーンジーフオンマオイーヨウシエンゴーンスー,0
1059,5010001256239,新規,0,2025-07-10,2025-07-10,株式会社ＳＺＮ　Ｈｏｌｄｉｎｇｓ,,株式会社,東京都,千代田区,二番町９－３,,13,101,1020084,,,,,,,2025-07-10,1,,,,,エスジーエヌホールティングス,0
1060,5010001256684,新規,0,2025-07-10,2025-07-10,谷町株式会社,,株式会社,東京都,文京区,千石４丁目１４番９号,,13,105,1120011,,,,,,,2025-07-10,1,,,,,タニマチ,0
1061,5010001256734,新規,0,2025-07-10,2025-07-10,サムスンＣ＆Ｔインベストメント株式会社,,株式会社,東京都,千代田区,富士見２丁目１０番２号,,13,101,1020071,,,,,,,2025-07-10,1,,,,,サムスンシーアンドティーインベストメント,0
1062,5010003047966,新規,0,2025-07-10,2025-07-10,ｅｍｏｆｌｅ合同会社,,合同会社,東京都,中央区,銀座７丁目１３番６号サガミビル２階,,13,102,1040061,,,,,,,2025-07-10,1,,,,,エモフル,0
1063,5010003047974,新規,0,2025-07-10,2025-07-10,合同会社ｉＲｏｈａ,,合同会社,東京都,文京区,本駒込５丁目１４番１０号,,13,105,1130021,,,,,,,2025-07-10,1,,,,,イロハ,0
1064,5010003047982,新規,0,2025-07-10,2025-07-10,合同会社メタリーチ,,合同会社,東京都,中央区,銀座１丁目２２番１１号銀座大竹ビジデンス２Ｆ,,13,102,1040061,,,,,,,2025-07-10,1,,,,,メタリーチ,0
1065,5010003047990,新規,0,2025-07-10,2025-07-10,合同会社ＮＮＲファンド第３号,,合同会社,東京都,千代田区,丸の内１丁目４番１号東京共同会計事務所内,,13,101,1000005,,,,,,,2025-07-10,1,,,,,エヌエヌアールファンドダイサンゴウ,0
1074,5010401191589,新規,0,2025-07-10,2025-07-10,株式会社ＡＭＩＫＡＫＥ　ＡＩ,,株式会社,東京都,港区,六本木３丁目１６番１２号六本木ＫＳビル５Ｆ,,13,103,1060032,,,,,,,2025-07-10,1,,,,,アミカケエーアイ,0
1075,5010401191614,新規,0,2025-07-10,2025-07-10,ＰＥＡＳ株式会社,,株式会社,東京都,港区,芝浦１丁目３－３浜松町ライズスクエア８階,,13,103,1050023,,,,,,,2025-07-10,1,,,,,ピース,0
1076,5010401191688,新規,0,2025-07-10,2025-07-10,株式会社記帳代行ラボラトリー,,株式会社,東京都,港区,虎ノ門１丁目１番１２号虎ノ門ビル８０２,,13,103,1050001,,,,,,,2025-07-10,1,,,,,キチョウダイコウラボラトリー,0
1077,5010401191696,新規,0,2025-07-10,2025-07-10,シロベース株式会社,,株式会社,東京都,港区,南青山５丁目１７番２号,,13,103,1070062,,,,,,,2025-07-10,1,,,,,シロベース,0
1078,5010401191713,新規,0,2025-07-10,2025-07-10,株式会社優駿スポーツ,,株式会社,東京都,港区,赤坂８丁目１３番１９号,,13,103,1070052,,,,,,,2025-07-10,1,,,,,ユウシュンスポーツ,0
1083,5010403035521,新規,0,2025-07-10,2025-07-10,Ｊａｐａｎ１‐ＧＰ合同会社,,合同会社,東京都,港区,西新橋２丁目２０番１号Ｎａｎ－ｏＢｌｄｇ．新虎５階,,13,103,1050003,,,,,,,2025-07-10,1,,,,,ジャパンワンジーピー,0
1084,5010403035554,新規,0,2025-07-10,2025-07-10,アニマルパートナーズ合同会社,,合同会社,東京都,港区,南青山３丁目１番３６号,,13,103,1070062,,,,,,,2025-07-10,1,,,,,アニマルパートナーズ,0
1086,5010501054381,新規,0,2025-07-10,2025-07-10,株式会社ｍｏｒｐｈ,,株式会社,東京都,台東区,三筋１丁目８番５号伊藤ビル３０２,,13,106,1110055,,,,,,,2025-07-10,1,,,,,モーフ,0
1087,5010601067589,新規,0,2025-07-10,2025-07-10,株式会社ハチドリ,,株式会社,東京都,江東区,北砂２丁目１８番２－８１５号,,13,108,1360073,,,,,,,2025-07-10,1,,,,,ハチドリ,0
1088,5010603011660,新規,0,2025-07-10,2025-07-10,合同会社Ｏｆｆｉｃｅ　Ｔｉｍｅ　Ｍａｃｈｉｎｅ,,合同会社,東京都,江東区,東雲１丁目９番４３－１８０９号,,13,108,1350062,,,,,,,2025-07-10,1,,,,,オフィスタイムマシン,0
1089,5010603011685,新規,0,2025-07-10,2025-07-10,リンアンドゴー合同会社,,合同会社,東京都,江東区,有明３丁目７番１８号有明セントラルタワー２階２Ｆ－３区画,,13,108,1350063,,,,,,,2025-07-10,1,,,,,リンアンドゴー,0
1090,5010605004472,新規,0,2025-07-10,2025-07-10,一般社団法人Ｓｅｗｎ,,その他の設立登記法人,東京都,墨田区,京島３丁目２２－１１,,13,107,1310046,,,,,,,2025-07-10,1,,,,,ソウン,0
1094,5010701047920,新規,0,2025-07-10,2025-07-10,株式会社ヘルスケアホールディングス,,株式会社,東京都,品川区,上大崎３丁目１－２－３９１０,,13,109,1410021,,,,,,,2025-07-10,1,,,,,ヘルスケアホールディングス,0
1095,5010701047978,新規,0,2025-07-10,2025-07-10,株式会社ｍａｒｕ,,株式会社,東京都,品川区,大井４丁目２番１号シャトレー丸山１階,,13,109,1400014,,,,,,,2025-07-10,1,,,,,マル,0
1096,5010701047986,新規,0,2025-07-10,2025-07-10,株式会社ライフコンパスパートナーズ,,株式会社,東京都,品川区,平塚２丁目１４番８号,,13,109,1420051,,,,,,,2025-07-10,1,,,,,ライフコンパスパートナーズ,0
1099,5010801036369,新規,0,2025-07-10,2025-07-10,株式会社ＳＡＷ,,株式会社,東京都,大田区,大森北１丁目２１番１－７０５号,,13,111,1430016,,,,,,,2025-07-10,1,,,,,ソウ,0
1100,5010801036377,新規,0,2025-07-10,2025-07-10,株式会社８１９２,,株式会社,東京都,大田区,中馬込３丁目８番１８－１０２号,,13,111,1430027,,,,,,,2025-07-10,1,,,,,ハチイチキューニー,0
1106,5011001170917,新規,0,2025-07-10,2025-07-10,株式会社二代目ボースン,,株式会社,東京都,渋谷区,道玄坂１丁目５番５号,,13,113,1500043,,,,,,,2025-07-10,1,,,,,ニダイメボースン,0
1107,5011001171097,新規,0,2025-07-10,2025-07-10,Ａ‐ＴＥＣＨ株式会社,,株式会社,東京都,目黒区,東山３丁目７－３キャニオンマンション東山１０２,,13,110,1530043,,,,,,,2025-07-10,1,,,,,エイテック,0
1113,5011101112380,新規,0,2025-07-10,2025-07-10,株式会社Ｗａｉｐｕｎａ,,株式会社,東京都,新宿区,西新宿３丁目９番７号フロンティア新宿タワーオフィス３階,,13,104,1600023,,,,,,,2025-07-10,1,,,,,ワイプナ,0
1116,5011105011521,新規,0,2025-07-10,2025-07-10,社会保険労務士法人Ｌｉｅｎ　Ｆｏｒｔ,,その他の設立登記法人,東京都,新宿区,新宿３丁目３番９号新宿伍名館ビル８階,,13,104,1600022,,,,,,,2025-07-10,1,,,,,リアンフォール,0
1117,5011301030721,新規,0,2025-07-10,2025-07-10,株式会社山口松田建築都市設計事務所,,株式会社,東京都,杉並区,井草１丁目１１番１３号,,13,115,1670021,,,,,,,2025-07-10,1,,,,,ヤマグチマツダケンチクトシセッケイジムショ,0
1120,5011401027238,新規,0,2025-07-10,2025-07-10,株式会社ｕｔｏｕｔｏ,,株式会社,東京都,板橋区,小豆沢２丁目２３番４号,,13,119,1740051,,,,,,,2025-07-10,1,,,,,ウトウト,0
1122,5011701028506,新規,0,2025-07-10,2025-07-10,株式会社エアコンヒーロー,,株式会社,東京都,江戸川区,松江４丁目３番１８号,,13,123,1320025,,,,,,,2025-07-10,1,,,,,エアコンヒーロー,0
1127,5011801046440,新規,0,2025-07-10,2025-07-10,株式会社ＫＧＳ,,株式会社,東京都,足立区,大谷田１丁目６番１４号コスモビル５階,,13,121,1200001,,,,,,,2025-07-10,1,,,,,ケージーエス,0
1129,5011803006962,新規,0,2025-07-10,2025-07-10,合同会社トライアンフ,,合同会社,東京都,足立区,興野２丁目２７番９号,,13,121,1230844,,,,,,,2025-07-10,1,,,,,トライアンフ,0
1131,5012701018967,新規,0,2025-07-10,2025-07-10,株式会社ｑｕｉｎｔｏ,,株式会社,東京都,小平市,上水本町３丁目１６番２１－２０３号,,13,211,1870022,,,,,,,2025-07-10,1,,,,,クイント,0
1132,5012801024097,新規,0,2025-07-10,2025-07-10,株式会社ｌｏｉｎ,,株式会社,東京都,国立市,東１丁目８番地の２国立東壱番館２０５,,13,215,1860002,,,,,,,2025-07-10,1,,,,,ロワン,0
1134,5013301054568,新規,0,2025-07-10,2025-07-10,株式会社クローバー,,株式会社,東京都,豊島区,東池袋２丁目６２番８号ＢＩＧオフィスプラザ池袋１２０６,,13,116,1700013,,,,,,,2025-07-10,1,,,,,クローバー,0
1136,5020001163814,新規,0,2025-07-10,2025-07-10,株式会社ミモザ,,株式会社,神奈川県,横浜市青葉区,みたけ台４６番地７,,14,117,2270047,,,,,,,2025-07-10,1,,,,,ミモザ,0
1137,5020001163830,新規,0,2025-07-10,2025-07-10,株式会社太田水産,,株式会社,神奈川県,横浜市鶴見区,鶴見中央１丁目１８－２－１０２,,14,101,2300051,,,,,,,2025-07-10,1,,,,,オオタスイサン,0
1141,5020003028924,新規,0,2025-07-10,2025-07-10,Ｍ＆Ｓ合同会社,,合同会社,神奈川県,横浜市栄区,笠間１丁目９番２９－４０３号,,14,115,2470006,,,,,,,2025-07-10,1,,,,,エムアンドエス,0
1150,5030001167566,新規,0,2025-07-10,2025-07-10,株式会社吉田設備,,株式会社,埼玉県,熊谷市,久下１８２０番地１,,11,202,3600026,,,,,,,2025-07-10,1,,,,,ヨシダセツビ,0
1151,5030001167574,新規,0,2025-07-10,2025-07-10,株式会社ＦｉＶＥ,,株式会社,埼玉県,朝霞市,膝折町４丁目１２－３７,,11,227,3510014,,,,,,,2025-07-10,1,,,,,ファイブ,0
1152,5030001167590,新規,0,2025-07-10,2025-07-10,株式会社ふくしん,,株式会社,埼玉県,川口市,榛松１丁目１１番２１号,,11,203,3340062,,,,,,,2025-07-10,1,,,,,フクシン,0
1153,5030001167608,新規,0,2025-07-10,2025-07-10,株式会社アレックス,,株式会社,埼玉県,朝霞市,溝沼２丁目５番１８号リビィエールＣ棟２０３号室,,11,227,3510023,,,,,,,2025-07-10,1,,,,,アレックス,0
1154,5030001167616,新規,0,2025-07-10,2025-07-10,株式会社ＷＩＮＧＳ,,株式会社,埼玉県,戸田市,美女木１丁目２７番地の７,,11,224,3350031,,,,,,,2025-07-10,1,,,,,ウイングス,0
1160,5030003027181,新規,0,2025-07-10,2025-07-10,合同会社Ｇｅｍｏｎｓ,,合同会社,埼玉県,さいたま市浦和区,上木崎１丁目１－９第５１与野ハイツ５０５,,11,107,3300071,,,,,,,2025-07-10,1,,,,,ジェモンス,0
1162,5040001139564,新規,0,2025-07-10,2025-07-10,株式会社ＩｎｎｏＰｉｐｅＬｉｎｋ,,株式会社,千葉県,市原市,青柳２０５０番地７,,12,219,2990102,,,,,,,2025-07-10,1,,,,,パイプリンク,0
1163,5040001139589,新規,0,2025-07-10,2025-07-10,株式会社ＥＡＭＹ,,株式会社,千葉県,流山市,おおたかの森南２丁目３３番地の２５,,12,220,2700139,,,,,,,2025-07-10,1,,,,,イーミィ,0
1166,5040005022816,新規,0,2025-07-10,2025-07-10,一般社団法人日本人材支援みらい開発機構,,その他の設立登記法人,千葉県,千葉市中央区,汐見丘町１３番１１号ＡＩＭＵＮＩＶＥＲＳＥＢＬＤＧＣＨＩＢＡ３０４,,12,101,2600034,,,,,,,2025-07-10,1,,,,,ニホンジンザイシエンミライカイハツキコウ,0
1168,5060001038376,新規,0,2025-07-10,2025-07-10,とちたてもの売却相談センター株式会社,,株式会社,栃木県,宇都宮市,泉が丘５丁目８番１８号コーポつかさ,,09,201,3210952,,,,,,,2025-07-10,1,,,,,トチタテモノバイキャクソウダンセンター,0
1171,5080101025644,新規,0,2025-07-10,2025-07-10,株式会社よしのでんき,,株式会社,静岡県,田方郡函南町,塚本１８０番地の４,,22,325,4190124,,,,,,,2025-07-10,1,,,,,ヨシノデンキ,0
1172,5080101025652,新規,0,2025-07-10,2025-07-10,株式会社慶長,,株式会社,静岡県,富士市,横割本町１２番１３号,,22,210,4160923,,,,,,,2025-07-10,1,,,,,ケイチョウ,0
1173,5080103003367,新規,0,2025-07-10,2025-07-10,合同会社農技クラフトテック,,合同会社,静岡県,駿東郡小山町,柳島９０－１,,22,344,4101301,,,,,,,2025-07-10,1,,,,,ノウギクラフトテック,0
1178,5080401028025,新規,0,2025-07-10,2025-07-10,株式会社シリアスマインド,,株式会社,静岡県,浜松市中央区,天王町１９３３番地の１,,22,138,4350052,,,,,,,2025-07-10,1,,,,,シリアスマインド,0
1183,5090001019381,新規,0,2025-07-10,2025-07-10,株式会社ＹＥＮＪＯＹ,,株式会社,山梨県,甲府市,国母３丁目１１番２０号ジェイエンタープライズビル２ＦＡ号室,,19,201,4000043,,,,,,,2025-07-10,1,,,,,エンジョイ,0
1188,5100003008281,新規,0,2025-07-10,2025-07-10,合同会社ｋｅｎｏｈｉ,,合同会社,長野県,北佐久郡軽井沢町,大字発地３４２番地１１０,,20,321,3890113,,,,,,,2025-07-10,1,,,,,ケノヒ,0
1190,5110001039402,新規,0,2025-07-10,2025-07-10,株式会社Ｇ＆Ｓ　Ｗｏｒｋｓ,,株式会社,新潟県,長岡市,弓町２丁目３番２６号１階店舗,,15,202,9400047,,,,,,,2025-07-10,1,,,,,ジーアンドエスワークス,0
1191,5110001039419,新規,0,2025-07-10,2025-07-10,丸山化成新潟株式会社,,株式会社,新潟県,三条市,三柳４番４号,,15,204,9550015,,,,,,,2025-07-10,1,,,,,マルヤマカセイニイガタ,0
1197,5120001277653,新規,0,2025-07-10,2025-07-10,株式会社ｆｕｌｅｃａ,,株式会社,大阪府,大阪市福島区,福島７丁目５－７,,27,103,5530003,,,,,,,2025-07-10,1,,,,,フレカ,0
1198,5120001277777,新規,0,2025-07-10,2025-07-10,株式会社ＧＬＡＮＺ,,株式会社,大阪府,大阪市北区,西天満４丁目１番３号,,27,127,5300047,,,,,,,2025-07-10,1,,,,,グランツ,0
1199,5120001277785,新規,0,2025-07-10,2025-07-10,株式会社森華,,株式会社,大阪府,大阪市北区,豊崎３丁目１０番２号Ｉ＆Ｆ梅田８０４号室,,27,127,5310072,,,,,,,2025-07-10,1,,,,,モリハナ,0
1200,5120001277876,新規,0,2025-07-10,2025-07-10,株式会社Ｔｒｉｃｏｒｎ,,株式会社,大阪府,大阪市中央区,南船場３丁目２番２２号おおきに南船場ビル２０５,,27,128,5420081,,,,,,,2025-07-10,1,,,,,トライコーン,0
1201,5120003029953,新規,0,2025-07-10,2025-07-10,Ｔａｕｑｅｅｒ　Ｔｒａｄｉｎｇ合同会社,,合同会社,大阪府,守口市,八雲東町２丁目５３番５号,,27,209,5700021,,,,,,,2025-07-10,1,,,,,タウキールトレーディング,0
1202,5120005025018,新規,0,2025-07-10,2025-07-10,医療法人けいあい会,,その他の設立登記法人,大阪府,大阪市北区,本庄東２丁目１番２３号スペチアーレ１階,,27,127,5310074,,,,,,,2025-07-10,1,,,,,ケイアイカイ,0
1206,5130001080065,新規,0,2025-07-10,2025-07-10,株式会社ＳＴＦ,,株式会社,京都府,京都市中京区,鍋屋町２２５番地・１階,,26,104,6048015,,,,,,,2025-07-10,1,,,,,エスティーエフ,0
1213,5140001139208,新規,0,2025-07-10,2025-07-10,株式会社ここいろｆａｒｍ,,株式会社,兵庫県,川辺郡猪名川町,槻並字田中垣内１番地,,28,301,6660222,,,,,,,2025-07-10,1,,,,,ココイロファーム,0
1214,5140001139216,新規,0,2025-07-10,2025-07-10,株式会社ｌｏｏｌ,,株式会社,兵庫県,芦屋市,公光町１１番１号３階,,28,206,6590065,,,,,,,2025-07-10,1,,,,,ロル,0
1224,5180001167741,新規,0,2025-07-10,2025-07-10,株式会社三好防水,,株式会社,愛知県,瀬戸市,東米泉町７０番地の１,,23,204,4890944,,,,,,,2025-07-10,1,,,,,ミヨシボウスイ,0
1225,5180301039995,新規,0,2025-07-10,2025-07-10,株式会社ＡＴＫ,,株式会社,愛知県,岡崎市,百々町字池ノ入３０番地３７,,23,202,4442115,,,,,,,2025-07-10,1,,,,,エーティーケー,0
1226,5180301040004,新規,0,2025-07-10,2025-07-10,株式会社スギウラ工業,,株式会社,愛知県,蒲郡市,神ノ郷町東門前４５番地１,,23,214,4430007,,,,,,,2025-07-10,1,,,,,スギウラコウギョウ,0
1249,5310001019697,新規,0,2025-07-10,2025-07-10,株式会社百建,,株式会社,長崎県,大村市,池田２丁目１１１１番地３２,,42,205,8560026,,,,,,,2025-07-10,1,,,,,モモケン,0
1250,5320001021215,新規,0,2025-07-10,2025-07-10,株式会社藤和技建,,株式会社,大分県,大分市,高松１丁目７番８号,,44,201,8700917,,,,,,,2025-07-10,1,,,,,トウワギケン,0
1253,5350005006317,新規,0,2025-07-10,2025-07-10,ひなたワールド協同組合,,その他の設立登記法人,宮崎県,宮崎市,橘通東２丁目９番１４号トライスター本町通りビル２０１,,45,201,8800805,,,,,,,2025-07-10,1,,,,,ヒナタワールド,0
1255,5360001035459,新規,0,2025-07-10,2025-07-10,津梁コンサルタンツ株式会社,,株式会社,沖縄県,那覇市,おもろまち４丁目１９番３９－４０４号グランドテラス新都心,,47,201,9000006,,,,,,,2025-07-10,1,,,,,シンリョウコンサルタンツ,0
1260,5370003007182,新規,0,2025-07-10,2025-07-10,合同会社火貂,,合同会社,宮城県,仙台市青葉区,国分町２丁目６番２０号国分町ビル１Ｆ,,04,101,9800803,,,,,,,2025-07-10,1,,,,,カテン,0
1263,5400001017106,新規,0,2025-07-10,2025-07-10,株式会社ＡＺＫＡＬ,,株式会社,岩手県,九戸郡軽米町,大字上舘第４０地割４番地１,,03,501,0286301,,,,,,,2025-07-10,1,,,,,アズカル,0
1274,5700150131354,新規,0,2025-07-10,2025-07-10,ＳｈｅｎＺｈｅｎＳｈｉＬｉｎｇＹｏｕＤｉＣｈｕａｎｇＫｅＪｉＹｏｕＸｉａｎＧｏｎｇＳｉ,,外国会社等,,,,,,,,ＸｉＸｉａｎｇＪｉｅＤａｏＹａｎＴｉａｎＳｈｅＱｕＹｉｎＴｉａｎＧｏｎｇＹｅＱｕ２９ＤｏｎｇＢ６Ｃ，ＢａｏＡｎＱｕ，ＳｈｅｎＺｈｅｎＳｈｉ,,,,,,2025-07-10,1,,,,,シェンジェンシーリーンヨウディーチュワーンコーァジーヨウシエンゴーンスー,0
1275,5700150131362,新規,0,2025-07-10,2025-07-10,ｓｈｅｎｚｈｅｎｓｈｉｗａｎｚｈｏｎｇｈａｏｓｉｚｈｕａｎｇｓｈｉｓｈｅｊｉｇｏｎｇｃｈｅｎｇ,,外国会社等,,,,,,,,ｂｕ　ｊｉ　ｊｉｅ　ｄａｏ　ｂｕ　ｊｉ　ｓｈｅ　ｑｕ　ｌａｏ　ｘｕ　９２　ｈａｏ　５０２，ｌｏｎｇ　ｇａｎｇ　ｑｕ，ｓｈｅｎ　ｚｈｅｎ　ｓｈｉ,,,,,,2025-07-10,1,,,,,シェンジェンシーワンジョーンハオスージュワーンシーショーァジーゴーンチュヨンヨウシエンゴーンスー,0
1281,6010001256535,新規,0,2025-07-10,2025-07-10,株式会社Ｔｉｔａｎｚ,,株式会社,東京都,千代田区,神田和泉町１番地６－１６ヤマトビル４０５,,13,101,1010024,,,,,,,2025-07-10,1,,,,,タイタンズ,0
1282,6010001256576,新規,0,2025-07-10,2025-07-10,福地新材料日本株式会社,,株式会社,東京都,千代田区,内神田２丁目４番２号一広グローバルビル１００１号,,13,101,1010047,,,,,,,2025-07-10,1,,,,,フクチシンザイリョウニホン,0
1283,6010001256683,新規,0,2025-07-10,2025-07-10,株式会社Ｊ‐ＷＯＲＫ,,株式会社,東京都,中央区,日本橋久松町９－９,,13,102,1030005,,,,,,,2025-07-10,1,,,,,ジェイワーク,0
1284,6010001256691,新規,0,2025-07-10,2025-07-10,株式会社リザルトベンチャーズ,,株式会社,東京都,中央区,日本橋室町１丁目１１番１２号日本橋水野ビル７階,,13,102,1030022,,,,,,,2025-07-10,1,,,,,リザルトベンチャーズ,0
1285,6010001256717,新規,0,2025-07-10,2025-07-10,株式会社Ｍ企画,,株式会社,東京都,文京区,小石川２丁目６番５号小石川二丁目ビル３階,,13,105,1120002,,,,,,,2025-07-10,1,,,,,エムキカク,0
1286,6010001256725,新規,0,2025-07-10,2025-07-10,株式会社ノアリス,,株式会社,東京都,千代田区,神田須田町１丁目７番８号ＶＯＲＴ秋葉原ＩＶ２Ｆ,00139890,13,101,1010041,,,,,,,2025-07-10,1,,,,,ノアリス,0
1287,6010001256766,新規,0,2025-07-10,2025-07-10,アドミラル・ケミック株式会社,,株式会社,東京都,千代田区,内幸町１丁目３番３号,,13,101,1000011,,,,,,,2025-07-10,1,,,,,アドミラルケミック,0
1288,6010001256774,新規,0,2025-07-10,2025-07-10,株式会社チオン,,株式会社,東京都,中央区,銀座２丁目１３番１９号銀座アルカビル３階Ａ,,13,102,1040061,,,,,,,2025-07-10,1,,,,,チオン,0
1289,6010001256782,新規,0,2025-07-10,2025-07-10,Ｓｏｌａｎｃｅ株式会社,,株式会社,東京都,中央区,銀座１丁目２２番１１号銀座大竹ビジデンス２Ｆ,,13,102,1040061,,,,,,,2025-07-10,1,,,,,ソランス,0
1290,6010003047965,新規,0,2025-07-10,2025-07-10,ＭＩＵ合同会社,,合同会社,東京都,中央区,築地６丁目２４－２,,13,102,1040045,,,,,,,2025-07-10,1,,,,,ミウ,0
1291,6010003048006,新規,0,2025-07-10,2025-07-10,ＳＦＣインベストメントＩＩ合同会社,,合同会社,東京都,千代田区,丸の内１丁目４番１号東京共同会計事務所内,,13,101,1000005,,,,,,,2025-07-10,1,,,,,エスエフシーインベストメントツー,0
1304,6010401191662,新規,0,2025-07-10,2025-07-10,株式会社ＦＯＲＢ,,株式会社,東京都,港区,赤坂２丁目５番８号ヒューリックＪＰ赤坂ビル５階,,13,103,1070052,,,,,,,2025-07-10,1,,,,,フォービー,0
1305,6010401191687,新規,0,2025-07-10,2025-07-10,株式会社Ｂａｎｓｏｕ経営資金サポート,,株式会社,東京都,港区,虎ノ門１丁目１番１２号虎ノ門ビル８０２,,13,103,1050001,,,,,,,2025-07-10,1,,,,,バンソウケイエイシキンサポート,0
1306,6010401191695,新規,0,2025-07-10,2025-07-10,ブルーオーシャンエックスホールディングス株式会社,,株式会社,東京都,港区,新橋４丁目１４番１新橋ＡＵＮＢＬＤＧ４階,,13,103,1050004,,,,,,,2025-07-10,1,,,,,ブルーオーシャンエックスホールディングス,0
1307,6010403035504,新規,0,2025-07-10,2025-07-10,トモサンカク合同会社,,合同会社,東京都,港区,白金台５丁目２番２５号白金ビル６０５,,13,103,1080071,,,,,,,2025-07-10,1,,,,,トモサンカク,0
1308,6010403035520,新規,0,2025-07-10,2025-07-10,Ｊａｐａｎ１合同会社,,合同会社,東京都,港区,西新橋２丁目２０番１号Ｎａｎ－ｏＢｌｄｇ．新虎５階,,13,103,1050003,,,,,,,2025-07-10,1,,,,,ジャパンワン,0
1309,6010403035553,新規,0,2025-07-10,2025-07-10,合同会社ＳＥＶＥＮ,,合同会社,東京都,港区,南麻布４丁目１番１４－４０５号,,13,103,1060047,,,,,,,2025-07-10,1,,,,,セブン,0
1310,6010403035578,新規,0,2025-07-10,2025-07-10,合同会社Ｐｅｎｓｉｖｅ,,合同会社,東京都,港区,虎ノ門１丁目１番１８号ヒューリック虎ノ門ビル９階Ｌ＆Ｐ司法書士法人内,,13,103,1050001,,,,,,,2025-07-10,1,,,,,ペンシブ,0
1313,6010501054389,新規,0,2025-07-10,2025-07-10,ＭＦＪパートナーズ株式会社,,株式会社,東京都,台東区,元浅草３丁目２０番１号,,13,106,1110041,,,,,,,2025-07-10,1,,,,,エムエフジェイパートナーズ,0
1314,6010503007915,新規,0,2025-07-10,2025-07-10,合同会社アルファ,,合同会社,東京都,台東区,柳橋１丁目２番１２号５Ｆ，ＡＢＳ－Ｄ－８号,,13,106,1110052,,,,,,,2025-07-10,1,,,,,アルファ,0
1317,6010603011684,新規,0,2025-07-10,2025-07-10,合同会社ＴＰサービス,,合同会社,東京都,江東区,亀戸５丁目３２番２号,,13,108,1360071,,,,,,,2025-07-10,1,,,,,ティーピーサービス,0
1324,6010701047886,新規,0,2025-07-10,2025-07-10,株式会社ＮＥＯホームズ,,株式会社,東京都,品川区,西大井６丁目１４番７号,,13,109,1400015,,,,,,,2025-07-10,1,,,,,ネオホームズ,0
1325,6010701047952,新規,0,2025-07-10,2025-07-10,株式会社ＳＯＲＡ,,株式会社,東京都,品川区,南品川３丁目４番１－９０６号,,13,109,1400004,,,,,,,2025-07-10,1,,,,,ソラ,0
1326,6010701047969,新規,0,2025-07-10,2025-07-10,株式会社ＰＹＫ,,株式会社,東京都,品川区,中延４丁目７番１０号,,13,109,1420053,,,,,,,2025-07-10,1,,,,,ピーワイケイ,0
1327,6010701047977,新規,0,2025-07-10,2025-07-10,サウンドワークスダイレクトジャパン株式会社,,株式会社,東京都,品川区,東大井２丁目２４番１号,,13,109,1400011,,,,,,,2025-07-10,1,,,,,サウンドワークスダイレクトジャパン,0
1328,6010801036368,新規,0,2025-07-10,2025-07-10,令新グレース株式会社,,株式会社,東京都,大田区,西蒲田７丁目４番３－４１１号,,13,111,1440051,,,,,,,2025-07-10,1,,,,,レイシングレース,0
1329,6010805003190,新規,0,2025-07-10,2025-07-10,司法書士法人トエルスピカ,,その他の設立登記法人,東京都,大田区,北千束１丁目５１番１号,,13,111,1450062,,,,,,,2025-07-10,1,,,,,トエルスピカ,0
1334,6010901057719,新規,0,2025-07-10,2025-07-10,株式会社Ｍｏｍｅｎｔｕｍ,,株式会社,東京都,世田谷区,用賀３丁目１１番２５－８０４号,,13,112,1580097,,,,,,,2025-07-10,1,,,,,モメンタム,0
1335,6010903010072,新規,0,2025-07-10,2025-07-10,合同会社Ｍａｒｕｌａｂｏ,,合同会社,東京都,世田谷区,赤堤３丁目２７番１７号,,13,112,1560044,,,,,,,2025-07-10,1,,,,,マルラボ,0
1342,6011001170560,新規,0,2025-07-10,2025-07-10,株式会社ウィーボ,,株式会社,東京都,渋谷区,道玄坂１丁目１０番８号渋谷道玄坂東急ビル２Ｆ－Ｃ,,13,113,1500043,,,,,,,2025-07-10,1,,,,,ウィーボ,0
1343,6011001170858,新規,0,2025-07-10,2025-07-10,株式会社オートテック,,株式会社,東京都,渋谷区,渋谷１丁目１３番５号大協渋谷ビル６階,,13,113,1500002,,,,,,,2025-07-10,1,,,,,オートテック,0
1344,6011003021984,新規,0,2025-07-10,2025-07-10,合同会社ＫＵＭＯ,,合同会社,東京都,渋谷区,神宮前２丁目２番３９－８２２号ＴＨＥＣＯＵＲＴ神宮外苑,,13,113,1500001,,,,,,,2025-07-10,1,,,,,クモ,0
1345,6011003022041,新規,0,2025-07-10,2025-07-10,合同会社Ａｒｉｓｅ　Ｌｏｏｐ,,合同会社,東京都,目黒区,下目黒１丁目１番１４号コノトラビル７Ｆ,,13,110,1530064,,,,,,,2025-07-10,1,,,,,アライズループ,0
1355,6011101112248,新規,0,2025-07-10,2025-07-10,株式会社ＳＰＮ,,株式会社,東京都,新宿区,四谷坂町１２番２１号,,13,104,1600002,,,,,,,2025-07-10,1,,,,,エスピーエヌ,0
1359,6011401027245,新規,0,2025-07-10,2025-07-10,株式会社Ｉｊｉｎｎ,,株式会社,東京都,板橋区,清水町６３番１号,,13,119,1740053,,,,,,,2025-07-10,1,,,,,イジン,0
1363,6011501032277,新規,0,2025-07-10,2025-07-10,株式会社ＣＬＥＡＲ　ＳＥＮＣＥ,,株式会社,東京都,荒川区,荒川７丁目３２－２,,13,118,1160002,,,,,,,2025-07-10,1,,,,,クリアセンス,0
1369,6012701018966,新規,0,2025-07-10,2025-07-10,株式会社グランドリアルティ,,株式会社,東京都,東村山市,萩山町１丁目１０番地２０,,13,213,1890012,,,,,,,2025-07-10,1,,,,,グランドリアルティ,0
1370,6012801024096,新規,0,2025-07-10,2025-07-10,株式会社フェレオ,,株式会社,東京都,立川市,若葉町３丁目５番地の５ヴェルデコートＡ１０２号,,13,202,1900001,,,,,,,2025-07-10,1,,,,,フェレオ,0
1371,6012803003791,新規,0,2025-07-10,2025-07-10,ＵＮＬＩＭＩＴＥＤ合同会社,,合同会社,東京都,国分寺市,本多４丁目１３番２２号,,13,214,1850011,,,,,,,2025-07-10,1,,,,,アンリミテッド,0
1378,6020001163813,新規,0,2025-07-10,2025-07-10,株式会社ＰＥＡＣＥ,,株式会社,神奈川県,横浜市栄区,小菅ケ谷１丁目１－１本郷台駅前アーケード商店街,,14,115,2470007,,,,,,,2025-07-10,1,,,,,ピース,0
1379,6020001163846,新規,0,2025-07-10,2025-07-10,株式会社Ｓｉｕ,,株式会社,神奈川県,横浜市西区,浅間町１丁目４番３号ウィザードビル４０２,,14,103,2200072,,,,,,,2025-07-10,1,,,,,シウ,0
1380,6020001163854,新規,0,2025-07-10,2025-07-10,株式会社笠原商会,,株式会社,神奈川県,川崎市幸区,鹿島田３丁目８番１２号,,14,132,2120058,,,,,,,2025-07-10,1,,,,,カサハラショウカイ,0
1381,6020003028898,新規,0,2025-07-10,2025-07-10,Ｔｏｏｌ　Ｆｏｒｅｓｔ合同会社,,合同会社,神奈川県,横浜市戸塚区,汲沢町３０５番地１２,,14,110,2450062,,,,,,,2025-07-10,1,,,,,ツールフォレスト,0
1382,6020003028923,新規,0,2025-07-10,2025-07-10,合同会社ＰＩＣ,,合同会社,神奈川県,横浜市港南区,東永谷３丁目５４番４号,,14,111,2330011,,,,,,,2025-07-10,1,,,,,,0
1386,6021001085758,新規,0,2025-07-10,2025-07-10,株式会社いせはら動物病院,,株式会社,神奈川県,伊勢原市,伊勢原３丁目８番１０号,,14,214,2591131,,,,,,,2025-07-10,1,,,,,イセハラドウブツビョウイン,0
1397,6030001167482,新規,0,2025-07-10,2025-07-10,株式会社光和ＥＳ,,株式会社,埼玉県,川口市,上青木西３丁目７－１１グランドソレイユ３０２号,,11,203,3330845,,,,,,,2025-07-10,1,,,,,コウワイーエス,0
1398,6030001167532,新規,0,2025-07-10,2025-07-10,株式会社前田建設,,株式会社,埼玉県,戸田市,中町１丁目１番地の６アンビシャス西川口６０３,,11,224,3350012,,,,,,,2025-07-10,1,,,,,マエダケンセツ,0
1399,6030001167549,新規,0,2025-07-10,2025-07-10,株式会社藤和興業,,株式会社,埼玉県,入間市,大字南峯３５４番地３７,,11,225,3580046,,,,,,,2025-07-10,1,,,,,トウワコウギョウ,0
1400,6030001167565,新規,0,2025-07-10,2025-07-10,株式会社優愛Ｇ．,,株式会社,埼玉県,ふじみ野市,市沢１丁目１４番３０号,,11,245,3560057,,,,,,,2025-07-10,1,,,,,ユウアイジー,0
1401,6030001167573,新規,0,2025-07-10,2025-07-10,株式会社塗人,,株式会社,埼玉県,所沢市,大字下富１０４７番地の２９,,11,208,3590001,,,,,,,2025-07-10,1,,,,,ヌリビト,0
1402,6030001167581,新規,0,2025-07-10,2025-07-10,株式会社Ｒｉｋａｓ,,株式会社,埼玉県,川口市,戸塚１丁目６番３３－３０１号サニーコート東川口第１２,,11,203,3330811,,,,,,,2025-07-10,1,,,,,リーカス,0
1403,6030001167598,新規,0,2025-07-10,2025-07-10,株式会社ＡＲＣＣＩ,,株式会社,埼玉県,加須市,南篠崎２丁目３番地１,,11,210,3470017,,,,,,,2025-07-10,1,,,,,アーチ,0
1404,6030001167607,新規,0,2025-07-10,2025-07-10,株式会社和起葉,,株式会社,埼玉県,川口市,大字木曽呂８８７番地の３,,11,203,3330831,,,,,,,2025-07-10,1,,,,,ナギバ,0
1407,6030003027180,新規,0,2025-07-10,2025-07-10,合同会社イベントサービス,,合同会社,埼玉県,狭山市,柏原２２２８番地の５,,11,215,3501335,,,,,,,2025-07-10,1,,,,,イベントサービス,0
1411,6040001139530,新規,0,2025-07-10,2025-07-10,株式会社アイユー,,株式会社,千葉県,我孫子市,新木野４丁目３番２０号,,12,222,2701114,,,,,,,2025-07-10,1,,,,,アイユー,0
1412,6040001139571,新規,0,2025-07-10,2025-07-10,株式会社Ｃｒｏｉｘ,,株式会社,千葉県,佐倉市,吉見４８７番地１,,12,212,2850834,,,,,,,2025-07-10,1,,,,,クロア,0
1415,6040003028013,新規,0,2025-07-10,2025-07-10,合同会社鈴舞,,合同会社,千葉県,市原市,五井中央東２丁目１５番地４マル新ビル２階,,12,219,2900054,,,,,,,2025-07-10,1,,,,,スズマイ,0
1422,6060001038391,新規,0,2025-07-10,2025-07-10,株式会社トワセルヴィ,,株式会社,栃木県,大田原市,紫塚３丁目２６０９番地１００,,09,210,3240058,,,,,,,2025-07-10,1,,,,,トワセルヴィ,0
1424,6080101025643,新規,0,2025-07-10,2025-07-10,株式会社ｓａｓｓｙ,,株式会社,静岡県,富士市,松本７３番地の３,,22,210,4160903,,,,,,,2025-07-10,1,,,,,サッシー,0
1425,6080101025651,新規,0,2025-07-10,2025-07-10,株式会社Ｗｉｔｈ　Ｄｏｕｌａ,,株式会社,静岡県,駿東郡清水町,徳倉１１５５番地の９,,22,341,4110917,,,,,,,2025-07-10,1,,,,,ウィズドゥーラ,0
1433,6090001019380,新規,0,2025-07-10,2025-07-10,株式会社Ｃａｆｕｎｅ,,株式会社,山梨県,甲府市,国母３丁目１１番１２号ジェイエンタープライズビル３Ｆ,,19,201,4000043,,,,,,,2025-07-10,1,,,,,カフネ,0
1435,6110001039418,新規,0,2025-07-10,2025-07-10,株式会社ＹＭＤ住宅リペア,,株式会社,新潟県,新潟市東区,秋葉１丁目１番４１号,,15,102,9500054,,,,,,,2025-07-10,1,,,,,ワイエムディージュウタクリペア,0
1436,6110003005806,新規,0,2025-07-10,2025-07-10,合同会社糸魚川いのまた,,合同会社,新潟県,糸魚川市,中央１丁目１１番１４号,,15,216,9410062,,,,,,,2025-07-10,1,,,,,イトイガワイノマタ,0
1437,6110005017246,新規,0,2025-07-10,2025-07-10,一般社団法人予防と備え,,その他の設立登記法人,新潟県,加茂市,幸町１丁目１６番１６号,,15,209,9591313,,,,,,,2025-07-10,1,,,,,ヨボウトソナエ,0
1444,6120001277628,新規,0,2025-07-10,2025-07-10,株式会社ＶＯＩＤＥ,,株式会社,大阪府,大阪市淀川区,十三東１丁目１２－３グランテリア３０１号,,27,123,5320023,,,,,,,2025-07-10,1,,,,,ヴォイド,0
1445,6120001277644,新規,0,2025-07-10,2025-07-10,株式会社ＣＶ,,株式会社,大阪府,大阪市福島区,玉川４丁目１０番２号－７０５号,,27,103,5530004,,,,,,,2025-07-10,1,,,,,シーブイ,0
1446,6120001277669,新規,0,2025-07-10,2025-07-10,ココクルーズ株式会社,,株式会社,大阪府,大阪市城東区,永田３丁目４番２号,,27,118,5360022,,,,,,,2025-07-10,1,,,,,ココクルーズ,0
1447,6120001277702,新規,0,2025-07-10,2025-07-10,株式会社ＭＡＰコンサルティング,,株式会社,大阪府,大阪市中央区,北浜２丁目２番２１－５０８号,,27,128,5410041,,,,,,,2025-07-10,1,,,,,マップコンサルティング,0
1448,6120001277776,新規,0,2025-07-10,2025-07-10,海卓株式会社,,株式会社,大阪府,大阪市西成区,南津守６丁目３番７１－１０１号,,27,122,5570063,,,,,,,2025-07-10,1,,,,,カイタク,0
1451,6120003029993,新規,0,2025-07-10,2025-07-10,合同会社Ｈｏｍｅ　Ｌａｎｄ,,合同会社,大阪府,大阪市淀川区,宮原１丁目１８番９－９０１号,,27,123,5320003,,,,,,,2025-07-10,1,,,,,ホームランド,0
1453,6120005025033,新規,0,2025-07-10,2025-07-10,一般社団法人医食農改革研究所,,その他の設立登記法人,大阪府,大阪市北区,西天満３丁目１３番２９－２２０１号,,27,127,5300047,,,,,,,2025-07-10,1,,,,,イショクノウカイカクケンキュウショ,0
1461,6130001080072,新規,0,2025-07-10,2025-07-10,株式会社橋本建設,,株式会社,京都府,京都市西京区,大枝西新林町１丁目１１番地４,,26,111,6101141,,,,,,,2025-07-10,1,,,,,ハシモトケンセツ,0
1462,6130003010589,新規,0,2025-07-10,2025-07-10,合同会社学びの製作所,,合同会社,京都府,京都市右京区,京北上中町城下町４３番地１,,26,108,6010532,,,,,,,2025-07-10,1,,,,,マナビノセイサクジョ,0
1470,6140005027556,新規,0,2025-07-10,2025-07-10,一般社団法人プライミングサポート,,その他の設立登記法人,兵庫県,芦屋市,朝日ケ丘町１０番３１－１０４号,,28,206,6590012,,,,,,,2025-07-10,1,,,,,プライミングサポート,0
1471,6160003003524,新規,0,2025-07-10,2025-07-10,合同会社ａｎｙｗｈｅｒｅｆｉｔ,,合同会社,滋賀県,草津市,大路３丁目５番４－３０６号,,25,206,5250032,,,,,,,2025-07-10,1,,,,,エニィウェアフィット,0
1473,6170001018705,新規,0,2025-07-10,2025-07-10,株式会社鳳技建,,株式会社,和歌山県,和歌山市,北島４７９－５３,,30,201,6408403,,,,,,,2025-07-10,1,,,,,オオトリギケン,0
1480,6180301040003,新規,0,2025-07-10,2025-07-10,株式会社ｙｏｕｔ　Ｈｏｌｄｉｎｇｓ．Ｐｏｓｉｔｉｖｅ　Ｍｉｎｄ,,株式会社,愛知県,豊田市,喜多町１丁目７７番地,,23,211,4710027,,,,,,,2025-07-10,1,,,,,ユウトホールディングスポジティブマインド,0
1481,6180301040011,新規,0,2025-07-10,2025-07-10,ＳＨＯＳＨＩＮ　ＡＵＴＯ　ＴＲＡＤＩＮＧ　ＣＯＭＰＡＮＹ株式会社,,株式会社,愛知県,豊田市,寿町８丁目４番地１後藤マンション２階Ｄ号室,,23,211,4710834,,,,,,,2025-07-10,1,,,,,ショーシャインオートトレーディングカンパニー,0
1482,6180305009705,新規,0,2025-07-10,2025-07-10,一般社団法人中小企業情報整備支援機構,,その他の設立登記法人,愛知県,岡崎市,美合町字生田３１３番地１,,23,202,4440804,,,,,,,2025-07-10,1,,,,,チュウショウキギョウジョウホウセイビシエンキコウ,0
1484,6200001044012,新規,0,2025-07-10,2025-07-10,Ａｒｉｎｔｉ株式会社,,株式会社,岐阜県,岐阜市,金町６丁目２１岐阜ステーションビル３０４,,21,201,5008842,,,,,,,2025-07-10,1,,,,,アリンティ,0
1485,6210001020235,新規,0,2025-07-10,2025-07-10,株式会社ＢＴエステート,,株式会社,福井県,敦賀市,野神２３号３番地,,18,202,9140121,,,,,,,2025-07-10,1,,,,,ビーティーエステート,0
1487,6220001026801,新規,0,2025-07-10,2025-07-10,株式会社Ｃｈｅｒｉｅ＆Ｃｏ．,,株式会社,石川県,金沢市,近岡町４２８番地１ＳＯＯＬＢＵＩＬＤＩＮＧ３Ｆ,,17,201,9208217,,,,,,,2025-07-10,1,,,,,シェリーアンドコー,0
1491,6250001021246,新規,0,2025-07-10,2025-07-10,株式会社ルミエル,,株式会社,山口県,周南市,河東町５番２６－１２０３号,,35,215,7450845,,,,,,,2025-07-10,1,,,,,ルミエル,0
1492,6290001110615,新規,0,2025-07-10,2025-07-10,株式会社Ｙａｍａｇｉｓｈｉ,,株式会社,福岡県,福岡市中央区,薬院１丁目１６番２２－７０１号,,40,133,8100022,,,,,,,2025-07-10,1,,,,,ヤマギシ,0
1493,6290001110656,新規,0,2025-07-10,2025-07-10,マストリンク株式会社,,株式会社,福岡県,福岡市博多区,金の隈３丁目２－７－９０５,,40,132,8120863,,,,,,,2025-07-10,1,,,,,マストリンク,0
1497,6290801031663,新規,0,2025-07-10,2025-07-10,株式会社ＩＭＩ補償コンサル,,株式会社,福岡県,北九州市八幡西区,北鷹見町９番１４－２０５号,,40,109,8070834,,,,,,,2025-07-10,1,,,,,アイエムアイホショウコンサル,0
1500,6300003002313,新規,0,2025-07-10,2025-07-10,合同会社ｓｑｕａｒｅ,,合同会社,佐賀県,佐賀市,本庄町大字袋１３１番地６,,41,201,8400023,,,,,,,2025-07-10,1,,,,,スクエア,0
1504,6320001021206,新規,0,2025-07-10,2025-07-10,啓成工業株式会社,,株式会社,大分県,佐伯市,弥生大字江良２６７７番地１,,44,205,8760125,,,,,,,2025-07-10,1,,,,,ケイセイコウギョウ,0
1506,6340003004891,新規,0,2025-07-10,2025-07-10,合同会社ＳＯＵＬ,,合同会社,鹿児島県,薩摩川内市,高江町２２３９番地１,,46,215,8950131,,,,,,,2025-07-10,1,,,,,ソウル,0
1507,6340003004900,新規,0,2025-07-10,2025-07-10,Ｌｉｎｏａ合同会社,,合同会社,鹿児島県,鹿児島市,高麗町２２－１５シャトーエスポワール２０７,,46,201,8900051,,,,,,,2025-07-10,1,,,,,リノア,0
1510,6360001035458,新規,0,2025-07-10,2025-07-10,株式会社太永富,,株式会社,沖縄県,那覇市,泊２丁目５番地４ミオカステーロ泊ＩＩ１１０３,00139885,47,201,9000012,,,,,,,2025-07-10,1,,,,,タエイト,0
1511,6360001035466,新規,0,2025-07-10,2025-07-10,株式会社デジタルプラス,,株式会社,沖縄県,浦添市,伊祖１丁目４番１４号,,47,208,9012132,,,,,,,2025-07-10,1,,,,,デジタルプラス,0
1512,6360003015078,新規,0,2025-07-10,2025-07-10,ナナヨンシステム合同会社,,合同会社,沖縄県,島尻郡南風原町,字宮平３８１－１６北丘ハイツＡ－６５,,47,350,9011104,,,,,,,2025-07-10,1,,,,,ナナヨンシステム,0
1516,6380001035431,新規,0,2025-07-10,2025-07-10,株式会社あいグループ,,株式会社,福島県,会津若松市,中央２丁目１番１０号あいグループ２階,,07,202,9650037,,,,,,,2025-07-10,1,,,,,アイグループ,0
1518,6380003006091,新規,0,2025-07-10,2025-07-10,合同会社明治食品,,合同会社,福島県,福島市,飯野町明治字西鍛治合内６番地,,07,201,9601302,,,,,,,2025-07-10,1,,,,,,0
1522,6410001014217,新規,0,2025-07-10,2025-07-10,株式会社魯はん,,株式会社,秋田県,大館市,字桂城４０番地,,05,204,0170893,,,,,,,2025-07-10,1,,,,,ロハン,0
1536,6700150131353,新規,0,2025-07-10,2025-07-10,ｓｈｅｎ　ｚｈｅｎ　ｄｅ　ｄｕｎ　ｚｈｉ　ｎｅｎｇ　ｋｅ　ｊｉ　ｙｏｕ　ｘｉａｎ　ｇｏｎｇ　ｓｉ,,外国会社等,,,,,,,,Ｓｏｕｔｈ　ｏｆ　ｔｈｅ　３８ｔｈ　ｆｌｏｏｒ　ｏｆ　ｔｈｅ　Ｊｉｎｘｉｎｇ　Ｉｎｄｕｓｔｒｉａｌ　Ｐａｒｋ　ｆａｃｔｏｒｙ　ｉｎ　Ｔａｎｇｗｅｉ　Ｃｏｍｍｕｎｉｔｙ，Ｆｕｈａｉ　Ｓｔｒｅｅｔ，Ｂａｏａｎ　Ｄｉｓｔｒｉｃｔ，Ｓｈｅｎｚｈｅｎ　Ｃｉｔｙ,,,,,,2025-07-10,1,,,,,シェンジェンドーァドゥンジーヌオンコーァジーヨウシエンゴーンスー,0
1537,6700150131361,新規,0,2025-07-10,2025-07-10,ＳｈｅｎＺｈｅｎＳｈｉ　ＣｈｕｎＭｉｎｇＹｕａｎ　ＫｅＪｉ　ＹｏｕＸｉａｎ　ＧｏｎｇＳｉ,,外国会社等,,,,,,,,Ｌｏｎｇ　Ｈｕａ　Ｑｕ，Ｄａ　Ｌａｎｇ　Ｊｉｅ　Ｄａｏ　Ｌａｎｇ　Ｋｏｕ　Ｓｈｅ　Ｑｕ　Ｂａｏ　Ｌｏｎｇ　Ｘｉｎ　Ｃｕｎ　３３１　Ｈａｏ　４０１，Ｌｏｎｇ　Ｈｕａ　Ｄｉｓｔｒｉｃｔ，Ｇｕａｎｇｄｏｎｇ　Ｐｒｏｖｉｎｃｅ，Ｓｈｅｎｚｈｅｎ　Ｃｉｔｙ　５１８０００　ＣＮ,,,,,,2025-07-10,1,,,,,シェンジェンシーチュンミーンユエンコーァジーヨウシエンゴーンスー,0
1545,7010001256550,新規,0,2025-07-10,2025-07-10,株式会社フォネクスター,,株式会社,東京都,中央区,銀座１丁目１２番４号,,13,102,1040061,,,,,,,2025-07-10,1,,,,,フォネクスター,0
1546,7010001256724,新規,0,2025-07-10,2025-07-10,株式会社Ｙ．Ｄ．Ｓ,,株式会社,東京都,千代田区,飯田橋３丁目７番４号彩風館ビル４階,,13,101,1020072,,,,,,,2025-07-10,1,,,,,ワイディーエス,0
1547,7010001256732,新規,0,2025-07-10,2025-07-10,株式会社ＮＥＯＲＩＺＥ,,株式会社,東京都,千代田区,外神田２丁目３番１号,,13,101,1010021,,,,,,,2025-07-10,1,,,,,ネオライズ,0
1548,7010001256740,新規,0,2025-07-10,2025-07-10,ＪＢｒｉｄｇｅ株式会社,,株式会社,東京都,中央区,銀座６丁目１３－１６銀座ＷａｌｌビルＵＣＦ５階,,13,102,1040061,,,,,,,2025-07-10,1,,,,,ジェイブリッジ,0
1549,7010001256757,新規,0,2025-07-10,2025-07-10,株式会社ＴＹＭ　Ｈｏｌｄｉｎｇｓ,,株式会社,東京都,中央区,銀座１丁目１２－４Ｎ＆ＥＢＬＤ．７階,,13,102,1040061,,,,,,,2025-07-10,1,,,,,ティーワイエムホールディングス,0
1550,7010001256765,新規,0,2025-07-10,2025-07-10,株式会社ウィステック,,株式会社,東京都,千代田区,神田須田町１丁目７番８号ＶＯＲＴ秋葉原ＩＶ２Ｆ,00139883,13,101,1010041,,,,,,,2025-07-10,1,,,,,ウィステック,0
1551,7010001256798,新規,0,2025-07-10,2025-07-10,株式会社ＧＳＣＷ１,,株式会社,東京都,千代田区,外神田３丁目１６番１２号アキバＣＯビル８Ｆ,,13,101,1010021,,,,,,,2025-07-10,1,,,,,ジーエスシーダブリューワン,0
1553,7010003047915,新規,0,2025-07-10,2025-07-10,合同会社Ｋｉｓｅｋｉ　Ｗｏｒｋｓ,,合同会社,東京都,中央区,晴海５丁目５番２－６０９号,,13,102,1040053,,,,,,,2025-07-10,1,,,,,キセキワークス,0
1554,7010003048005,新規,0,2025-07-10,2025-07-10,合同会社ペリドット,,合同会社,東京都,千代田区,丸の内１丁目４番１号東京共同会計事務所内,,13,101,1000005,,,,,,,2025-07-10,1,,,,,ペリドット,0
1556,7010005040356,新規,0,2025-07-10,2025-07-10,一般社団法人ＳＦＣインベストメントＩＩ,,その他の設立登記法人,東京都,千代田区,丸の内１丁目４番１号東京共同会計事務所内,,13,101,1000005,,,,,,,2025-07-10,1,,,,,エスエフシーインベストメントツー,0
1558,7010101016755,新規,0,2025-07-10,2025-07-10,株式会社Ｍ・Ｔ設備,,株式会社,東京都,八王子市,弐分方町４４４番地７スモールマウンテンハイム２０５号,,13,201,1930822,,,,,,,2025-07-10,1,,,,,エムティーセツビ,0
1564,7010401191513,新規,0,2025-07-10,2025-07-10,株式会社ＧＥ,,株式会社,東京都,港区,南青山２丁目２６番３７号,,13,103,1070062,,,,,,,2025-07-10,1,,,,,ジーイー,0
1565,7010401191587,新規,0,2025-07-10,2025-07-10,株式会社モビサイド,,株式会社,東京都,港区,新橋４丁目３１－３第三名和ビル１－９Ｆ,,13,103,1050004,,,,,,,2025-07-10,1,,,,,モビサイド,0
1566,7010401191604,新規,0,2025-07-10,2025-07-10,ハウジングキャスト株式会社,,株式会社,東京都,港区,南青山４丁目１７番３３号,,13,103,1070062,,,,,,,2025-07-10,1,,,,,ハウジングキャスト,0
1567,7010401191661,新規,0,2025-07-10,2025-07-10,Ｄ’ＯＰＥＲＡＴＩＯＮ株式会社,,株式会社,東京都,港区,東新橋１丁目９番２号汐留住友ビル１４階,,13,103,1050021,,,,,,,2025-07-10,1,,,,,ディオペレーション,0
1568,7010401191678,新規,0,2025-07-10,2025-07-10,Ａｍｂｅｒｗａｖｅ株式会社,,株式会社,東京都,港区,南麻布３丁目１４番４号グレース南麻布２０２,,13,103,1060047,,,,,,,2025-07-10,1,,,,,アンバーウェーブ,0
1569,7010401191694,新規,0,2025-07-10,2025-07-10,株式会社Ｍｏｎｏｒｋａ,,株式会社,東京都,港区,南青山３丁目１番３６号青山丸竹ビル６Ｆ,,13,103,1070062,,,,,,,2025-07-10,1,,,,,モノルカ,0
1570,7010403035552,新規,0,2025-07-10,2025-07-10,合同会社アーキテクトラボ,,合同会社,東京都,港区,浜松町２丁目２番１５号浜松町ダイヤビル２Ｆ,,13,103,1050013,,,,,,,2025-07-10,1,,,,,アーキテクトラボ,0
1571,7010403035560,新規,0,2025-07-10,2025-07-10,Ｖｉｖｉｔｏｎｅ合同会社,,合同会社,東京都,港区,北青山１丁目３番１号アールキューブ青山３階,,13,103,1070061,,,,,,,2025-07-10,1,,,,,ヴィヴィトーン,0
1572,7010403035577,新規,0,2025-07-10,2025-07-10,合同会社Ｓｈｕｔ　Ｏｕｔ,,合同会社,東京都,港区,虎ノ門１丁目１番１８号ヒューリック虎ノ門ビル９階Ｌ＆Ｐ司法書士法人内,,13,103,1050001,,,,,,,2025-07-10,1,,,,,シャットアウト,0
1573,7010405024545,新規,0,2025-07-10,2025-07-10,Ｊａｐａｎ１一般社団法人,,その他の設立登記法人,東京都,港区,西新橋２丁目２０番１号Ｎａｎ－ｏＢｌｄｇ．新虎５階,,13,103,1050003,,,,,,,2025-07-10,1,,,,,ジャパンワン,0
1575,7010501054388,新規,0,2025-07-10,2025-07-10,株式会社ＧａｔｈｅｒＺ,,株式会社,東京都,台東区,橋場１丁目２３番１－１Ｆ,,13,106,1110023,,,,,,,2025-07-10,1,,,,,ギャザーズ,0
1577,7010503007914,新規,0,2025-07-10,2025-07-10,合同会社ＵＴＲ,,合同会社,東京都,台東区,東上野３丁目１３番２号７階,,13,106,1100015,,,,,,,2025-07-10,1,,,,,ユーティーアール,0
1581,7010701047976,新規,0,2025-07-10,2025-07-10,セーフィーグロースパートナーズ株式会社,,株式会社,東京都,品川区,西品川１丁目１番１号住友不動産大崎ガーデンタワー,,13,109,1410033,,,,,,,2025-07-10,1,,,,,セーフィーグロースパートナーズ,0
1582,7010701047984,新規,0,2025-07-10,2025-07-10,株式会社Ｆｌｙｄｉｎｏ　Ｊａｐａｎ,,株式会社,東京都,品川区,東品川２丁目２番２８号ＥＺＯＨＵＢＴＯＫＹＯ,,13,109,1400002,,,,,,,2025-07-10,1,,,,,フライディーノジャパン,0
1587,7010801036375,新規,0,2025-07-10,2025-07-10,ブルーチェビ株式会社,,株式会社,東京都,大田区,田園調布４丁目３９番４号,,13,111,1450071,,,,,,,2025-07-10,1,,,,,ブルーチェビ,0
1590,7010803005469,新規,0,2025-07-10,2025-07-10,合同会社ＨＡＮＤ＆ＦＯＯＴ,,合同会社,東京都,大田区,久が原３丁目４０番５号,,13,111,1460085,,,,,,,2025-07-10,1,,,,,ハンドアンドフット,0
1594,7010901057701,新規,0,2025-07-10,2025-07-10,株式会社ＯＮＴＥ,,株式会社,東京都,世田谷区,若林２丁目２３番２０号,,13,112,1540023,,,,,,,2025-07-10,1,,,,,オンテ,0
1595,7010901057726,新規,0,2025-07-10,2025-07-10,株式会社アルムコンサルティング,,株式会社,東京都,世田谷区,経堂１丁目１９番１６号ハーヴェスト経堂３０１,,13,112,1560052,,,,,,,2025-07-10,1,,,,,アルムコンサルティング,0
1597,7010903010071,新規,0,2025-07-10,2025-07-10,合同会社Ｎｅｖｅｒ　ｖｉｎｔａｇｅ,,合同会社,東京都,世田谷区,代沢１丁目１４番３号ルーツ駒場東大前１０３,,13,112,1550032,,,,,,,2025-07-10,1,,,,,ネバーヴィンテージ,0
1598,7010903010088,新規,0,2025-07-10,2025-07-10,ＳＡＫＡＥ合同会社,,合同会社,東京都,世田谷区,上祖師谷２丁目２９番１号,,13,112,1570065,,,,,,,2025-07-10,1,,,,,サカエ,0
1602,7011001170758,新規,0,2025-07-10,2025-07-10,株式会社むさしＡＩ研修,,株式会社,東京都,渋谷区,神南１丁目１１番４号ＦＰＧリンクス神南５階,,13,113,1500041,,,,,,,2025-07-10,1,,,,,ムサシエーアイケンシュウ,0
1603,7011001170849,新規,0,2025-07-10,2025-07-10,株式会社Ｔ３,,株式会社,東京都,渋谷区,神宮前４丁目１４番１３号ハイシティ表参道１１５号,,13,113,1500001,,,,,,,2025-07-10,1,,,,,ティースリー,0
1604,7011001170857,新規,0,2025-07-10,2025-07-10,株式会社ＴＡＩＹＵ,,株式会社,東京都,目黒区,中町２丁目３番７号シャレー祐天寺カワベ第７－１０３,,13,110,1530065,,,,,,,2025-07-10,1,,,,,タイユー,0
1605,7011001170873,新規,0,2025-07-10,2025-07-10,株式会社レイマルラニ,,株式会社,東京都,目黒区,南１丁目３番１７号,,13,110,1520013,,,,,,,2025-07-10,1,,,,,,0
1606,7011001170881,新規,0,2025-07-10,2025-07-10,株式会社Ｒｅｖａｌｉａ,,株式会社,東京都,渋谷区,道玄坂１丁目１０番８号渋谷道玄坂東急ビル２Ｆ－Ｃ,,13,113,1500043,,,,,,,2025-07-10,1,,,,,レヴァリア,0
1607,7011001170923,新規,0,2025-07-10,2025-07-10,株式会社北斗村,,株式会社,東京都,目黒区,目黒１丁目２４番９－８０３号,,13,110,1530063,,,,,,,2025-07-10,1,,,,,ホクトムラ,0
1608,7011001170956,新規,0,2025-07-10,2025-07-10,株式会社ＤＡＲ,,株式会社,東京都,渋谷区,神宮前６丁目２８番９号東武ビル６階,,13,113,1500001,,,,,,,2025-07-10,1,,,,,ダル,0
1610,7011003021918,新規,0,2025-07-10,2025-07-10,キーロックジャパン合同会社,,合同会社,東京都,渋谷区,広尾５丁目４番１２号大成鋼機ビル４Ｆ,,13,113,1500012,,,,,,,2025-07-10,1,,,,,キーロックジャパン,0
1616,7011801046447,新規,0,2025-07-10,2025-07-10,株式会社シンオリティ,,株式会社,東京都,足立区,西新井本町５丁目３番２３－１２０７号ＮＢ西新井南ウィング,,13,121,1230845,,,,,,,2025-07-10,1,,,,,シンオリティ,0
1618,7011803006960,新規,0,2025-07-10,2025-07-10,エージュスタジオ合同会社,,合同会社,東京都,葛飾区,お花茶屋２丁目４番２６号,,13,122,1240003,,,,,,,2025-07-10,1,,,,,エージュスタジオ,0
1621,7012401043330,新規,0,2025-07-10,2025-07-10,株式会社ＣＹＴ,,株式会社,東京都,多摩市,落合６丁目１４番地の３リヴェール多摩センター１１１,,13,224,2060033,,,,,,,2025-07-10,1,,,,,シイワイティ,0
1622,7012403007234,新規,0,2025-07-10,2025-07-10,フジタ合同会社,,合同会社,東京都,府中市,住吉町２丁目３０番地３１号,,13,206,1830034,,,,,,,2025-07-10,1,,,,,フジタ,0
1623,7012801024095,新規,0,2025-07-10,2025-07-10,株式会社光和商事,,株式会社,東京都,東大和市,芋窪３丁目１７１８番地の３,,13,220,2070033,,,,,,,2025-07-10,1,,,,,コウワショウジ,0
1626,7013301054582,新規,0,2025-07-10,2025-07-10,株式会社エグゼマッチ,,株式会社,東京都,豊島区,池袋２丁目３２番１０号オウルガーデンヒルズイケブクロ２０６,,13,116,1710014,,,,,,,2025-07-10,1,,,,,エグゼマッチ,0
1628,7013303007753,新規,0,2025-07-10,2025-07-10,ノイマ合同会社,,合同会社,東京都,豊島区,目白２丁目３４番８号,,13,116,1710031,,,,,,,2025-07-10,1,,,,,ノイマ,0
1635,7020001163787,新規,0,2025-07-10,2025-07-10,株式会社ロックンスリー,,株式会社,神奈川県,横浜市港北区,新横浜２丁目１４番地２１,,14,109,2220033,,,,,,,2025-07-10,1,,,,,ロックンスリー,0
1636,7020001163829,新規,0,2025-07-10,2025-07-10,Ｅｎｃｈａｎｔｅｄ　Ｗｏｒｋｓ株式会社,,株式会社,神奈川県,横浜市港北区,新横浜３丁目７番地１８日総第１８ビル６階,,14,109,2220033,,,,,,,2025-07-10,1,,,,,エンチャンテッドワークス,0
1637,7020001163837,新規,0,2025-07-10,2025-07-10,株式会社モデスト,,株式会社,神奈川県,横浜市保土ケ谷区,仏向町９５４番地７,,14,106,2400044,,,,,,,2025-07-10,1,,,,,モデスト,0
1639,7020003028922,新規,0,2025-07-10,2025-07-10,合同会社ポリゴーノ,,合同会社,神奈川県,川崎市中原区,新丸子町７４５番地３メゾン英２０１号,,14,133,2110005,,,,,,,2025-07-10,1,,,,,ポリゴーノ,0
1642,7021001085708,新規,0,2025-07-10,2025-07-10,株式会社Ｔｗｉｎｆｉｎ,,株式会社,神奈川県,逗子市,小坪５丁目９番６号,,14,208,2490008,,,,,,,2025-07-10,1,,,,,ツウィンフィン,0
1643,7021001085749,新規,0,2025-07-10,2025-07-10,株式会社ＲＪＹ,,株式会社,神奈川県,大和市,渋谷１丁目１６番地５,,14,213,2420023,,,,,,,2025-07-10,1,,,,,アールジェイワイ,0
1646,7021003016157,新規,0,2025-07-10,2025-07-10,ＲＯＯＭ３１６合同会社,,合同会社,神奈川県,茅ヶ崎市,中海岸４丁目１１番１９号,,14,207,2530055,,,,,,,2025-07-10,1,,,,,ルームサンイチロク,0
1650,7030001167548,新規,0,2025-07-10,2025-07-10,株式会社三吉,,株式会社,埼玉県,川口市,西川口１丁目１６番１号サニーコーボ２０３,,11,203,3320021,,,,,,,2025-07-10,1,,,,,サンキチ,0
1651,7030001167556,新規,0,2025-07-10,2025-07-10,平遠国際株式会社,,株式会社,埼玉県,ふじみ野市,大井武蔵野１３４９－７,,11,245,3560054,,,,,,,2025-07-10,1,,,,,ヘイエンコクサイ,0
1652,7030001167580,新規,0,2025-07-10,2025-07-10,株式会社センチュリオンロジスティクス,,株式会社,埼玉県,川口市,東川口２丁目１番１６号,,11,203,3330801,,,,,,,2025-07-10,1,,,,,センチュリオンロジスティクス,0
1656,7030003027155,新規,0,2025-07-10,2025-07-10,合同会社Ｐ．Ｆｅｌｉｃｅ,,合同会社,埼玉県,川口市,南前川２丁目５番２１号,,11,203,3330846,,,,,,,2025-07-10,1,,,,,ポルタフェリーチェ,0
1657,7030003027163,新規,0,2025-07-10,2025-07-10,ＷＹ合同会社,,合同会社,埼玉県,草加市,瀬崎１丁目７－５５オークライブ４０１,,11,221,3400022,,,,,,,2025-07-10,1,,,,,ダブリューワイ,0
1658,7030003027171,新規,0,2025-07-10,2025-07-10,合同会社オフィスＡＺＵＫＩ,,合同会社,埼玉県,南埼玉郡宮代町,宮代台１丁目１９番７号,,11,442,3450835,,,,,,,2025-07-10,1,,,,,オフィスアズキ,0
1660,7040001139570,新規,0,2025-07-10,2025-07-10,株式会社雄登,,株式会社,千葉県,佐倉市,吉見４８７番地１,,12,212,2850834,,,,,,,2025-07-10,1,,,,,ユウト,0
1661,7040001139587,新規,0,2025-07-10,2025-07-10,株式会社ネクストステージ,,株式会社,千葉県,船橋市,本町１丁目１８番１０号,,12,204,2730005,,,,,,,2025-07-10,1,,,,,ネクストステージ,0
1668,7050003009408,新規,0,2025-07-10,2025-07-10,Ｓｔａｎ合同会社,,合同会社,茨城県,古河市,山田４８２番地,,08,204,3060114,,,,,,,2025-07-10,1,,,,,スタン,0
1671,7060001038390,新規,0,2025-07-10,2025-07-10,ＯＧＡ株式会社,,株式会社,栃木県,宇都宮市,砂田町４８８番地７,,09,201,3210113,,,,,,,2025-07-10,1,,,,,オージーエー,0
1672,7060001038399,新規,0,2025-07-10,2025-07-10,株式会社金子総合企画,,株式会社,栃木県,小山市,大字犬塚１００番地２,,09,208,3230811,,,,,,,2025-07-10,1,,,,,カネコソウゴウキカク,0
1677,7080101025642,新規,0,2025-07-10,2025-07-10,株式会社おおむろ葬,,株式会社,静岡県,伊東市,荻９０番地,,22,208,4140053,,,,,,,2025-07-10,1,,,,,オオムロソウ,0
1678,7080101025650,新規,0,2025-07-10,2025-07-10,株式会社押忍,,株式会社,静岡県,沼津市,原１７６６番地の２,,22,203,4100312,,,,,,,2025-07-10,1,,,,,オス,0
1683,7100001038758,新規,0,2025-07-10,2025-07-10,株式会社ＡｃｔＷｏｒｋｓ,,株式会社,長野県,諏訪市,大字上諏訪９２５０番地８,,20,206,3920003,,,,,,,2025-07-10,1,,,,,アクトワークス,0
1686,7100003008288,新規,0,2025-07-10,2025-07-10,秀運合同会社,,合同会社,長野県,須坂市,大字塩川５４２－１－Ｂ１０２,,20,207,3820916,,,,,,,2025-07-10,1,,,,,ヒデウン,0
1687,7110001039409,新規,0,2025-07-10,2025-07-10,株式会社フジタ管工,,株式会社,新潟県,新潟市西蒲区,巻甲２６番地９,,15,108,9530041,,,,,,,2025-07-10,1,,,,,フジタカンコウ,0
1688,7110001039417,新規,0,2025-07-10,2025-07-10,株式会社ＡＩ不動産,,株式会社,新潟県,新発田市,富塚町１丁目４番１号,,15,206,9570062,,,,,,,2025-07-10,1,,,,,エーアイフドウサン,0
1696,7120001277635,新規,0,2025-07-10,2025-07-10,株式会社ココハウス,,株式会社,大阪府,大阪市西成区,潮路１丁目４番２７号,,27,122,5570052,,,,,,,2025-07-10,1,,,,,ココハウス,0
1697,7120001277676,新規,0,2025-07-10,2025-07-10,株式会社ＳＯＵＴＥＣＨ,,株式会社,大阪府,大阪市北区,天満橋２丁目３番１０－５０５号,,27,127,5300042,,,,,,,2025-07-10,1,,,,,ソーテック,0
1698,7120001277701,新規,0,2025-07-10,2025-07-10,聊購科技株式会社,,株式会社,大阪府,大阪市阿倍野区,王子町３丁目１３－１２－１０１,,27,119,5450023,,,,,,,2025-07-10,1,,,,,リョウコウカギ,0
1699,7120001277718,新規,0,2025-07-10,2025-07-10,株式会社多田商店,,株式会社,大阪府,寝屋川市,河北中町２４番９号,,27,215,5720816,,,,,,,2025-07-10,1,,,,,タダショウテン,0
1700,7120001277726,新規,0,2025-07-10,2025-07-10,株式会社ＡｌｔｅｒｎａＬｉｖ,,株式会社,大阪府,大阪市北区,大深町６番３８号グラングリーン大阪北館ＪＡＭＢＡＳＥ６階ＪＡＭ－ＤＥＳＫ,,27,127,5300011,,,,,,,2025-07-10,1,,,,,オルタナリヴ,0
1701,7120001277874,新規,0,2025-07-10,2025-07-10,瑠璃川株式会社,,株式会社,大阪府,大阪市北区,梅田１丁目２番２号大阪駅前第２ビル１２－１２,,27,127,5300001,,,,,,,2025-07-10,1,,,,,ルリカワ,0
1702,7120003029968,新規,0,2025-07-10,2025-07-10,合同会社ＫＩＴＳＵＮＥ,,合同会社,大阪府,枚方市,大垣内町２丁目７－１６小北ビル２Ａ号,,27,210,5730027,,,,,,,2025-07-10,1,,,,,キツネ,0
1706,7122001039412,新規,0,2025-07-10,2025-07-10,株式会社Ｒｉｎｇホールディングス,,株式会社,大阪府,八尾市,南久宝寺１丁目２６番地,,27,212,5810076,,,,,,,2025-07-10,1,,,,,リングホールディングス,0
1716,7180001167459,新規,0,2025-07-10,2025-07-10,株式会社Ｇ．Ｌ,,株式会社,愛知県,名古屋市中区,栄３丁目３２番２４号コジマテントビル８階,,23,106,4600008,,,,,,,2025-07-10,1,,,,,ジーエル,0
1717,7180003028683,新規,0,2025-07-10,2025-07-10,合同会社リトルフォレスト,,合同会社,愛知県,名古屋市北区,池花町２６６番地,,23,103,4620005,,,,,,,2025-07-10,1,,,,,リトルフォレスト,0
1721,7180301040002,新規,0,2025-07-10,2025-07-10,ＡＬＤ株式会社,,株式会社,愛知県,豊田市,押井町寺ノ入４番地,,23,211,4442812,,,,,,,2025-07-10,1,,,,,エーエルディー,0
1722,7180301040010,新規,0,2025-07-10,2025-07-10,株式会社ＴＦＴ　Ｌａｂｏ,,株式会社,愛知県,豊橋市,平川本町３丁目７番地１８,,23,201,4400038,,,,,,,2025-07-10,1,,,,,ティーエフティーラボ,0
1726,7200001043987,新規,0,2025-07-10,2025-07-10,スリーゼ株式会社,,株式会社,岐阜県,大垣市,安井町５丁目１番地エスペランサＩ１０１,00139884,21,202,5030837,,,,,,,2025-07-10,1,,,,,スリーゼ,0
1727,7200001044011,新規,0,2025-07-10,2025-07-10,株式会社ワンステップ,,株式会社,岐阜県,高山市,大新町５丁目１番地２‐１階,,21,203,5060851,,,,,,,2025-07-10,1,,,,,ワンステップ,0
1735,7240005015962,新規,0,2025-07-10,2025-07-10,皆実ビル管理組合法人,,その他の設立登記法人,広島県,広島市南区,皆実町６丁目１１番９号,,34,103,7340007,,,,,,,2025-07-10,1,,,,,ミナミビル,0
1737,7250001021245,新規,0,2025-07-10,2025-07-10,山口ウォーターシステム株式会社,,株式会社,山口県,光市,大字小周防１４８０番地７,,35,210,7430061,,,,,,,2025-07-10,1,,,,,,0
1743,7290001110655,新規,0,2025-07-10,2025-07-10,株式会社ＰＡＴＨＣＲＯＳＳ,,株式会社,福岡県,八女市,津江１２５２,,40,210,8340024,,,,,,,2025-07-10,1,,,,,パスクロス,0
1744,7290003017072,新規,0,2025-07-10,2025-07-10,合同会社Ｔｒｅｅ　Ｆｉｅｌｄ,,合同会社,福岡県,福岡市南区,大橋２丁目４番２０－９０６号エスペランサ大橋,,40,134,8150033,,,,,,,2025-07-10,1,,,,,ツリーフィールド,0
1749,7290805009845,新規,0,2025-07-10,2025-07-10,一般財団法人内田育英文化財団,,その他の設立登記法人,福岡県,北九州市小倉南区,西水町８番４号,,40,107,8020812,,,,,,,2025-07-10,1,,,,,ウチダイクエイブンカザイダン,0
1751,7330001033348,新規,0,2025-07-10,2025-07-10,株式会社Ｋ‐Ｗｅｓｔ,,株式会社,熊本県,玉名郡玉東町,大字上木葉３４６番地１,,43,364,8690305,,,,,,,2025-07-10,1,,,,,ケイウエスト,0
1752,7330001033380,新規,0,2025-07-10,2025-07-10,株式会社ブレブレ,,株式会社,熊本県,熊本市中央区,新市街１３番８号アズマビル１Ｆ,,43,101,8600803,,,,,,,2025-07-10,1,,,,,ブレブレ,0
1753,7340001027497,新規,0,2025-07-10,2025-07-10,株式会社マウンテック,,株式会社,鹿児島県,鹿児島市,西陵７丁目３２番７号,,46,201,8900032,,,,,,,2025-07-10,1,,,,,マウンテック,0
1755,7340003004899,新規,0,2025-07-10,2025-07-10,合同会社ＬｉｆｅＳｗｉｔｃｈ,,合同会社,鹿児島県,指宿市,十二町２３１０番地２,,46,210,8910403,,,,,,,2025-07-10,1,,,,,ライフスイッチ,0
1756,7350001019634,新規,0,2025-07-10,2025-07-10,誉ｇｓａ株式会社,,株式会社,宮崎県,児湯郡川南町,大字川南１９６５番地,,45,405,8891301,,,,,,,2025-07-10,1,,,,,ホマレジーエスエー,0
1758,7360001035449,新規,0,2025-07-10,2025-07-10,株式会社福琉建設,,株式会社,沖縄県,豊見城市,宜保４丁目５－１４,,47,212,9010244,,,,,,,2025-07-10,1,,,,,フクリュウケンセツ,0
1761,7370001052798,新規,0,2025-07-10,2025-07-10,オプトアップ株式会社,,株式会社,宮城県,仙台市青葉区,国見４丁目３番３２－５号,,04,101,9810943,,,,,,,2025-07-10,1,,,,,オプトアップ,0
1763,7370003007180,新規,0,2025-07-10,2025-07-10,合同会社ＳＭＴ敬天,,合同会社,宮城県,仙台市青葉区,川内三十人町１８番地の３,,04,101,9800866,,,,,,,2025-07-10,1,,,,,エスエムティーケイテン,0
1765,7380001035455,新規,0,2025-07-10,2025-07-10,株式会社ＮＯＭＡＯＩ　ＬＯＶＥＲＳ,,株式会社,福島県,双葉郡浪江町,大字室原字竹ノ花６２番地,,07,547,9791506,,,,,,,2025-07-10,1,,,,,ノマオイラバーズ,0
1781,7460103001727,新規,0,2025-07-10,2025-07-10,合同会社ものづくり技術研究所,,合同会社,北海道,帯広市,西六条南２７丁目２２番地５,,01,207,0800016,,,,,,,2025-07-10,1,,,,,モノヅクリギジュツケンキュウショ,0
1785,7700150131352,新規,0,2025-07-10,2025-07-10,ＨＵＩＺＨＯＵＳＨＩＳＵＢＯＫＥＪＩＹＯＵＸＩＡＮＧＯＮＧＳＩ,,外国会社等,,,,,,,,ｈｕｉｚｈｏｕ　ｚｈｏｎｇｋａｉｇａｏｘｉｎｑｕ　ｃｈｅｎｊｉａｎｇｊｉｅｄａｏ　ｃｈｅｎｊｉａｎｇｄａｄａｏｂｅｉ３６ｈａｏ（ｇａｏｘｉｎｋｅｊｉｃｈｕａｎｇｘｉｎｆｕｈｕａｑｉ）５ｌｏｕ　５１０ｈａｏ　５１６０２９　ＣＮ,,,,,,2025-07-10,1,,,,,ホゥイゾウシスボカギヨウシエンゴンスー,0
1786,7700150131360,新規,0,2025-07-10,2025-07-10,Ｓｈｅｎ　Ｚｈｅｎ　Ｍａｎ　Ｚｈｉ　Ｇｕ　Ｍａｏ　Ｙｉ　Ｙｏｕ　Ｘｉａｎ　Ｇｏｎｇ　Ｓｉ,,外国会社等,,,,,,,,ＸｉＸｉａｎｇＤａＤａｏ　３４１Ｈａｏ　ＧｕｏＨｕｉＴｏｎｇＳｈａｎｇＷｕＤａＳｈａ　６０２Ｓｈｉ　ＢａｏＡｎＱｕ　ＸｉＸｉａｎｇＪｉｅＤａｏ　ＸｉＸｉａｎｇＤａＤａｏ　Ｙｕ　ＸｉｎＨｕＬｕ　ＪｉａｏＪｉｅＣｈｕ　ＳｈｅｎＺｈｅｎＳｈｉ　５１８０００　ＣＮ,,,,,,2025-07-10,1,,,,,シンセンマンジグマオイヨウシエンゴンスー,0
1796,8010001256624,新規,0,2025-07-10,2025-07-10,株式会社Ｂｉｚ　Ｃａｒｒｉｅｒ,,株式会社,東京都,中央区,銀座５丁目１１番１２号日総２６ビル,,13,102,1040061,,,,,,,2025-07-10,1,,,,,ビズキャリア,0
1797,8010001256673,新規,0,2025-07-10,2025-07-10,株式会社Ｓ＆Ｂディフェンシブエキスパート,,株式会社,東京都,中央区,銀座１丁目２２－１１銀座大竹ビジデンス２階,,13,102,1040061,,,,,,,2025-07-10,1,,,,,エスアンドビーディフェンシブエキスパート,0
1798,8010001256715,新規,0,2025-07-10,2025-07-10,株式会社Ｆｉｎｅ　Ａｇｅｎｃｙ,,株式会社,東京都,千代田区,内神田１丁目１１番１１号,,13,101,1010047,,,,,,,2025-07-10,1,,,,,ファインエージェンシー,0
1799,8010001256756,新規,0,2025-07-10,2025-07-10,株式会社アシスト,,株式会社,東京都,千代田区,神田須田町２丁目１９番２３号,,13,101,1010041,,,,,,,2025-07-10,1,,,,,アシスト,0
1800,8010001256764,新規,0,2025-07-10,2025-07-10,株式会社ＷＡＮＳＨＵ,,株式会社,東京都,千代田区,四番町９－２－５０１,,13,101,1020081,,,,,,,2025-07-10,1,,,,,ワンシュ,0
1803,8010003047963,新規,0,2025-07-10,2025-07-10,合同会社勝運,,合同会社,東京都,千代田区,神田紺屋町４６番地,,13,101,1010035,,,,,,,2025-07-10,1,,,,,,0
1805,8010005040355,新規,0,2025-07-10,2025-07-10,一般社団法人ペリドットホールディングス,,その他の設立登記法人,東京都,千代田区,丸の内１丁目４番１号東京共同会計事務所内,,13,101,1000005,,,,,,,2025-07-10,1,,,,,ペリドットホールディングス,0
1813,8010401191553,新規,0,2025-07-10,2025-07-10,株式会社Ｈｕｉｔ　ｊａｐａｎ,,株式会社,東京都,港区,北青山１丁目３番１号アールキューブ青山３階,,13,103,1070061,,,,,,,2025-07-10,1,,,,,ユイットジャパン,0
1814,8010401191611,新規,0,2025-07-10,2025-07-10,日本メディカルチェックセンター株式会社,,株式会社,東京都,港区,西新橋３丁目１９番１４号東京建硝ビル２階,,13,103,1050003,,,,,,,2025-07-10,1,,,,,ニホンメディカルチェックセンター,0
1815,8010401191644,新規,0,2025-07-10,2025-07-10,株式会社青雲の志,,株式会社,東京都,港区,西新橋１丁目５番９号,,13,103,1050003,,,,,,,2025-07-10,1,,,,,セイウンノココロザシ,0
1816,8010401191685,新規,0,2025-07-10,2025-07-10,バズノミクス株式会社,,株式会社,東京都,港区,赤坂８丁目５－４０ペガサス青山７４０,,13,103,1070052,,,,,,,2025-07-10,1,,,,,バズノミクス,0
1818,8010403035535,新規,0,2025-07-10,2025-07-10,合同会社ＡＮＯＮｉｘ,,合同会社,東京都,港区,白金２丁目５番２０－９０６号,,13,103,1080072,,,,,,,2025-07-10,1,,,,,アノニックス,0
1819,8010403035551,新規,0,2025-07-10,2025-07-10,トリプルベイ合同会社,,合同会社,東京都,港区,赤坂６丁目１９番４６号フォーチュンマレット赤坂１階,,13,103,1070052,,,,,,,2025-07-10,1,,,,,トリプルベイ,0
1820,8010405024577,新規,0,2025-07-10,2025-07-10,一般社団法人Ｗｉｐｈａ,,その他の設立登記法人,東京都,港区,虎ノ門１丁目１番１８号ヒューリック虎ノ門ビル９階Ｌ＆Ｐ司法書士法人内,,13,103,1050001,,,,,,,2025-07-10,1,,,,,ウィパー,0
1822,8010501054387,新規,0,2025-07-10,2025-07-10,株式会社ＥＮＴＥＲ,,株式会社,東京都,台東区,橋場１丁目９番３－６０２号,,13,106,1110023,,,,,,,2025-07-10,1,,,,,エンター,0
1825,8010701047967,新規,0,2025-07-10,2025-07-10,株式会社ＵＳＥＮ　ＭＥＤＩＡ　ＰＲＯＭＯＴＩＯＮ,,株式会社,東京都,品川区,上大崎３丁目１番１号,,13,109,1410021,,,,,,,2025-07-10,1,,,,,ユウセンメディアプロモーション,0
1826,8010701047975,新規,0,2025-07-10,2025-07-10,株式会社ＡＩ‐Ｂｒｉｄｇｅ,,株式会社,東京都,品川区,西五反田３丁目１５番６号リードシー目黒不動前,,13,109,1410031,,,,,,,2025-07-10,1,,,,,エーアイブリッジ,0
1828,8010801036374,新規,0,2025-07-10,2025-07-10,株式会社Ｏｐｐｏｒｔｕｎｉｔｙ,,株式会社,東京都,大田区,東雪谷５丁目９番６号東雪谷５丁目ビル２０１,,13,111,1450065,,,,,,,2025-07-10,1,,,,,アパチュニティ,0
1830,8010803005468,新規,0,2025-07-10,2025-07-10,合同会社Ｓｙｎｅｒｇｙ,,合同会社,東京都,大田区,下丸子１丁目１９番４－８０８号,,13,111,1460092,,,,,,,2025-07-10,1,,,,,シナジー,0
1832,8010901057725,新規,0,2025-07-10,2025-07-10,株式会社Ｌｅｉ　Ｃｒａｆｔ,,株式会社,東京都,世田谷区,若林３丁目１５番３－２０１号,,13,112,1540023,,,,,,,2025-07-10,1,,,,,レイクラフト,0
1837,8011001170559,新規,0,2025-07-10,2025-07-10,株式会社ＲａｓｅｎＡＩ,,株式会社,東京都,目黒区,中目黒１丁目１番１７号ＬＡＮＴＩＱＵＥＢＹＩＯＱＦＤ－０８,,13,110,1530061,,,,,,,2025-07-10,1,,,,,ラセンエーアイ,0
1838,8011001170773,新規,0,2025-07-10,2025-07-10,株式会社栗の木恒産,,株式会社,東京都,目黒区,自由が丘１丁目８番２３号,,13,110,1520035,,,,,,,2025-07-10,1,,,,,クリノキコウサン,0
1839,8011001170897,新規,0,2025-07-10,2025-07-10,株式会社プレヴナンス,,株式会社,東京都,渋谷区,道玄坂１丁目１０番８号渋谷道玄坂東急ビル２Ｆ－Ｃ,,13,113,1500043,,,,,,,2025-07-10,1,,,,,プレヴナンス,0
1844,8011101112411,新規,0,2025-07-10,2025-07-10,皇晶日本バイオテクノロジー株式会社,,株式会社,東京都,新宿区,新宿１丁目３６番２号新宿第七葉山ビル３Ｆ,,13,104,1600022,,,,,,,2025-07-10,1,,,,,コウショウニホンバイオテクノロジー,0
1846,8011103016123,新規,0,2025-07-10,2025-07-10,合同会社Ｇ　ＥＩＧＨＴ,,合同会社,東京都,新宿区,西早稲田１丁目１３番５－６０２号,,13,104,1690051,,,,,,,2025-07-10,1,,,,,ジーエイト,0
1850,8011301030719,新規,0,2025-07-10,2025-07-10,ＨＦセーフティ株式会社,,株式会社,東京都,杉並区,桃井１丁目５番４号,,13,115,1670034,,,,,,,2025-07-10,1,,,,,ハフセーフティ,0
1860,8011703004312,新規,0,2025-07-10,2025-07-10,潤＿合同会社,00139887,合同会社,東京都,江戸川区,西小岩５丁目１３－１３―１５７号室,,13,123,1330057,,,,,,,2025-07-10,1,,,,,ジュンキン,0
1864,8011801046446,新規,0,2025-07-10,2025-07-10,メトロックス・オート株式会社,,株式会社,東京都,足立区,入谷９丁目２１番８号,,13,121,1210836,,,,,,,2025-07-10,1,,,,,メトロックスオート,0
1865,8012701018964,新規,0,2025-07-10,2025-07-10,布想家株式会社,,株式会社,東京都,清瀬市,野塩２丁目３９０番地３１,,13,221,2040004,,,,,,,2025-07-10,1,,,,,フソウカ,0
1874,8020001163811,新規,0,2025-07-10,2025-07-10,株式会社ＮＡＦＵＴＵＲＥ,,株式会社,神奈川県,横浜市中区,竹之丸８５番地１１,,14,104,2310847,,,,,,,2025-07-10,1,,,,,ネヒュチャー,0
1875,8020001163828,新規,0,2025-07-10,2025-07-10,株式会社ＺＥＲＯ,,株式会社,神奈川県,横浜市中区,本牧原３７番７－２号,,14,104,2310821,,,,,,,2025-07-10,1,,,,,ゼロ,0
1880,8021001085590,新規,0,2025-07-10,2025-07-10,株式会社シュクラン,,株式会社,神奈川県,小田原市,本町２丁目３番３４号ティーグランデ本町５０５,,14,206,2500012,,,,,,,2025-07-10,1,,,,,シュクラン,0
1883,8021003016263,新規,0,2025-07-10,2025-07-10,合同会社Ｙ＆Ｍ,,合同会社,神奈川県,横須賀市,森崎４丁目２１番６号,,14,201,2380023,,,,,,,2025-07-10,1,,,,,ワイアンドエム,0
1887,8030001167489,新規,0,2025-07-10,2025-07-10,株式会社ｗｉｎｚ,,株式会社,埼玉県,さいたま市南区,辻２丁目１８番２２－１号,00139886,11,108,3360026,,,,,,,2025-07-10,1,,,,,ウィンズ,0
1888,8030001167563,新規,0,2025-07-10,2025-07-10,ベストフィルター株式会社,,株式会社,埼玉県,越谷市,東越谷１丁目２１番５号,,11,222,3430023,,,,,,,2025-07-10,1,,,,,ベストフィルター,0
1889,8030001167588,新規,0,2025-07-10,2025-07-10,ディーエムアイ株式会社,,株式会社,埼玉県,さいたま市南区,大字太田窪２３５３番地９,,11,108,3360015,,,,,,,2025-07-10,1,,,,,ディーエムアイ,0
1890,8030001167596,新規,0,2025-07-10,2025-07-10,株式会社Ｔｒｕｅ　Ｂｅａｕｔｙ,,株式会社,埼玉県,さいたま市南区,四谷１丁目６番２１号アビタシオン１０１,,11,108,3360032,,,,,,,2025-07-10,1,,,,,トゥルービューティー,0
1891,8030001167605,新規,0,2025-07-10,2025-07-10,株式会社ＣＨＡＮ,,株式会社,埼玉県,川口市,上青木１丁目２３番３６－４０７号ソーニ・ドゥ・オーロ,,11,203,3330844,,,,,,,2025-07-10,1,,,,,チャン,0
1892,8030001167621,新規,0,2025-07-10,2025-07-10,株式会社Ａｄｖａｎｃｅ,,株式会社,埼玉県,行田市,大字小敷田１５４番地,,11,206,3610065,,,,,,,2025-07-10,1,,,,,アドバンス,0
1897,8030003027170,新規,0,2025-07-10,2025-07-10,ＩＲＯＭＩＴ合同会社,,合同会社,埼玉県,川越市,菅原町２４番地５（ＫｏｎｏｍｉＧｏｂａｎｋａｎ２０１号室）,,11,201,3500046,,,,,,,2025-07-10,1,,,,,アイロミット,0
1898,8030003027179,新規,0,2025-07-10,2025-07-10,東成商事合同会社,,合同会社,埼玉県,戸田市,喜沢南２丁目９番２４号１０６号室,,11,224,3350014,,,,,,,2025-07-10,1,,,,,トウセイショウジ,0
1903,8040001139586,新規,0,2025-07-10,2025-07-10,株式会社Ｙ．ｃｏｌｏｒｓ,,株式会社,千葉県,市川市,行徳駅前１丁目２６番３－９０２号,,12,203,2720133,,,,,,,2025-07-10,1,,,,,ワイドットカラーズ,0
1918,8070001043133,新規,0,2025-07-10,2025-07-10,山翔不動産株式会社,,株式会社,群馬県,邑楽郡大泉町,西小泉４丁目２２番２１号,,10,524,3700517,,,,,,,2025-07-10,1,,,,,ヤマショウフドウサン,0
1920,8080101025641,新規,0,2025-07-10,2025-07-10,株式会社ドラゴンハウス,,株式会社,静岡県,熱海市,下多賀８９７番地の７大浜ビル１０２号室,,22,205,4130102,,,,,,,2025-07-10,1,,,,,ドラゴンハウス,0
1929,8100003008270,新規,0,2025-07-10,2025-07-10,くらしごと合同会社,,合同会社,長野県,上高井郡小布施町,大字福原１５－１５,,20,541,3810202,,,,,,,2025-07-10,1,,,,,クラシゴト,0
1937,8120001277634,新規,0,2025-07-10,2025-07-10,株式会社ＧＡＲＯＮＧＥ,,株式会社,大阪府,大阪市中央区,島之内２丁目２番１５－４０１号,,27,128,5420082,,,,,,,2025-07-10,1,,,,,ガロンジ,0
1938,8120001277691,新規,0,2025-07-10,2025-07-10,株式会社ＳＳＳ,,株式会社,大阪府,大阪市旭区,清水２丁目３番４－１号,,27,117,5350021,,,,,,,2025-07-10,1,,,,,エスエスエス,0
1939,8120001277766,新規,0,2025-07-10,2025-07-10,アークネスト株式会社,,株式会社,大阪府,大阪市阿倍野区,文の里２丁目１８番３号,,27,119,5450004,,,,,,,2025-07-10,1,,,,,アークネスト,0
1940,8120001277782,新規,0,2025-07-10,2025-07-10,西柚株式会社,,株式会社,大阪府,大阪市阿倍野区,阪南町３丁目３８番１号,,27,119,5450021,,,,,,,2025-07-10,1,,,,,セイユウ,0
1941,8120001277790,新規,0,2025-07-10,2025-07-10,株式会社京和クリエイト,,株式会社,大阪府,大阪市旭区,清水４丁目１０番２４号メゾン寿３０２,,27,117,5350021,,,,,,,2025-07-10,1,,,,,キョウワクリエイト,0
1942,8120001277808,新規,0,2025-07-10,2025-07-10,株式会社ＵＲＳＩＳ,,株式会社,大阪府,大阪市淀川区,新高５丁目１０番３１号,,27,123,5320033,,,,,,,2025-07-10,1,,,,,ユアシス,0
1943,8120001277816,新規,0,2025-07-10,2025-07-10,株式会社ｍｉｒｅｎｉｃ,,株式会社,大阪府,大阪市福島区,福島１丁目１番４８－３０１１号,,27,103,5530003,,,,,,,2025-07-10,1,,,,,ミレニック,0
1944,8120001277824,新規,0,2025-07-10,2025-07-10,ＳＹＳ株式会社,,株式会社,大阪府,大阪市住吉区,殿辻２丁目３番１２－３０１号,,27,120,5580042,,,,,,,2025-07-10,1,,,,,エスワイエス,0
1947,8120003029959,新規,0,2025-07-10,2025-07-10,Ｃｈａｗｏｎｉｘ合同会社,,合同会社,大阪府,大阪市西区,立売堀１丁目４番１２号,,27,106,5500012,,,,,,,2025-07-10,1,,,,,チャウォニックス,0
1948,8120003029967,新規,0,2025-07-10,2025-07-10,青春合同会社,,合同会社,大阪府,大阪市西区,九条１丁目１２番２４－３１０号,,27,106,5500027,,,,,,,2025-07-10,1,,,,,セイシュン,0
1949,8120003029983,新規,0,2025-07-10,2025-07-10,とととＤｅｓｉｇｎ合同会社,,合同会社,大阪府,大阪市大正区,南恩加島１丁目１３番２１号,,27,108,5510021,,,,,,,2025-07-10,1,,,,,トトトデザイン,0
1952,8120005025023,新規,0,2025-07-10,2025-07-10,一般社団法人関西ＴＡＭＡＲＩＶＥＲ,,その他の設立登記法人,大阪府,大阪市西淀川区,中島１丁目１４番１４号,,27,113,5550041,,,,,,,2025-07-10,1,,,,,カンサイタマリバ,0
1955,8120101072084,新規,0,2025-07-10,2025-07-10,株式会社ｍｉｉ,,株式会社,大阪府,堺市東区,白鷺町１丁３番１３号３Ｆ,,27,143,5998107,,,,,,,2025-07-10,1,,,,,ミイ,0
1962,8130001080062,新規,0,2025-07-10,2025-07-10,株式会社ＨＩＲＡＮＯＹＡ,,株式会社,京都府,京都市下京区,新町通五条下る蛭子町１１７番地,,26,106,6008302,,,,,,,2025-07-10,1,,,,,ヒラノヤ,0
1967,8140001139213,新規,0,2025-07-10,2025-07-10,株式会社ＮＥＷ　ＧＥＮＥＲＡＴＩＯＮ７３,,株式会社,兵庫県,神戸市灘区,鶴甲３丁目１２番２６－８０１号,,28,102,6570011,,,,,,,2025-07-10,1,,,,,ニュージェネレーションナナサン,0
1970,8150001028266,新規,0,2025-07-10,2025-07-10,リヴィーナ株式会社,,株式会社,奈良県,天理市,杣之内町９１３番地４,,29,204,6320032,,,,,,,2025-07-10,1,,,,,リヴィーナ,0
1972,8160003003539,新規,0,2025-07-10,2025-07-10,合同会社タイサンＡ,,合同会社,滋賀県,東近江市,五個荘五位田町４０１－３,,25,213,5291415,,,,,,,2025-07-10,1,,,,,タイサンエー,0
1975,8170003002242,新規,0,2025-07-10,2025-07-10,合同会社一音,,合同会社,和歌山県,和歌山市,鳴神１３番地２９朝日プラザ鳴神５０３,,30,201,6408303,,,,,,,2025-07-10,1,,,,,イト,0
1977,8180301040001,新規,0,2025-07-10,2025-07-10,山内工業株式会社,,株式会社,愛知県,豊田市,平井町７丁目２番地５,,23,211,4710011,,,,,,,2025-07-10,1,,,,,ヤマウチコウギョウ,0
1979,8180303006652,新規,0,2025-07-10,2025-07-10,合同会社Ｒｅｖｅｓ,,合同会社,愛知県,豊田市,司町２丁目２０番地マンションモントレー４０３号,,23,211,4710831,,,,,,,2025-07-10,1,,,,,レーヴス,0
1980,8180305009703,新規,0,2025-07-10,2025-07-10,一般社団法人ＡｎｄＦｏｒｅｓｔ,,その他の設立登記法人,愛知県,岡崎市,毛呂町字石田３４番地,,23,202,4443437,,,,,,,2025-07-10,1,,,,,アンドフォレスト,0
1983,8200001044010,新規,0,2025-07-10,2025-07-10,株式会社ＥＩＫＩ,,株式会社,岐阜県,岐阜市,茜部大川２丁目３５番地４,,21,201,5008282,,,,,,,2025-07-10,1,,,,,エイキ,0
1992,8240001065192,新規,0,2025-07-10,2025-07-10,株式会社Ｃｉｅｌｏ,,株式会社,広島県,安芸郡海田町,稲荷町９番１９号,,34,304,7360067,,,,,,,2025-07-10,1,,,,,シエロ,0
2002,8290001110654,新規,0,2025-07-10,2025-07-10,株式会社トルク,,株式会社,福岡県,福岡市博多区,博多駅前１丁目２３番２号ＰａｒｋＦｒｏｎｔ博多駅前１丁目５Ｆ－Ｂ,,40,132,8120011,,,,,,,2025-07-10,1,,,,,トルク,0
2011,8310001019686,新規,0,2025-07-10,2025-07-10,株式会社ＭＲ,,株式会社,長崎県,長崎市,岩屋町２４番３２号,,42,201,8528052,,,,,,,2025-07-10,1,,,,,エムアール,0
2012,8310001019703,新規,0,2025-07-10,2025-07-10,株式会社煌,,株式会社,長崎県,長崎市,花園町２６番２３号フォーマルハウト２０２,,42,201,8528024,,,,,,,2025-07-10,1,,,,,,0
2016,8340001027496,新規,0,2025-07-10,2025-07-10,ソラリスエナジー株式会社,,株式会社,鹿児島県,鹿児島市,西田３丁目８番１２号１Ｆ,,46,201,8900046,,,,,,,2025-07-10,1,,,,,ソラリスエナジー,0
2017,8340003004898,新規,0,2025-07-10,2025-07-10,合同会社グリーンハピネス,,合同会社,鹿児島県,鹿児島市,永吉２丁目３２番１２号,,46,201,8900023,,,,,,,2025-07-10,1,,,,,グリーンハピネス,0
2019,8360001035472,新規,0,2025-07-10,2025-07-10,株式会社Ｈ＆Ｋカンパニー,,株式会社,沖縄県,中頭郡嘉手納町,字嘉手納５０９番地１,,47,325,9040203,,,,,,,2025-07-10,1,,,,,エイチアンドケイカンパニー,0
2020,8360001035480,新規,0,2025-07-10,2025-07-10,株式会社日本情報映像,,株式会社,沖縄県,中頭郡中城村,字南上原７５０番地,,47,328,9012424,,,,,,,2025-07-10,1,,,,,ニホンジョウホウエイゾウ,0
2021,8360003015084,新規,0,2025-07-10,2025-07-10,合同会社ゆか,,合同会社,沖縄県,那覇市,安里２丁目６番２３－９０８号インペリアルハイム喜納,,47,201,9020067,,,,,,,2025-07-10,1,,,,,ユカ,0
2028,8390001018053,新規,0,2025-07-10,2025-07-10,株式会社Ｒａｄｉｃｉａ,,株式会社,山形県,酒田市,錦町５丁目５７番地７,,06,204,9980103,,,,,,,2025-07-10,1,,,,,ラディシア,0
2030,8400001017111,新規,0,2025-07-10,2025-07-10,株式会社志ごとや,,株式会社,岩手県,盛岡市,志家町９－１８,,03,201,0200883,,,,,,,2025-07-10,1,,,,,シゴトヤ,0
2031,8400003003497,新規,0,2025-07-10,2025-07-10,合同会社山っこ暮らし,,合同会社,岩手県,滝沢市,湯舟沢２５１番地,,03,216,0200617,,,,,,,2025-07-10,1,,,,,ヤマッコグラシ,0
2032,8410003004123,新規,0,2025-07-10,2025-07-10,アプトー合同会社,,合同会社,秋田県,由利本荘市,土谷字海老ノ口８４番地４,,05,210,0150055,,,,,,,2025-07-10,1,,,,,アプトー,0
2039,8470001020793,新規,0,2025-07-10,2025-07-10,株式会社Ｋ．ａｒｔ,,株式会社,香川県,高松市,木太町６９０番地４,,37,201,7600080,,,,,,,2025-07-10,1,,,,,ケーアート,0
2043,8500001026408,新規,0,2025-07-10,2025-07-10,織肌工房株式会社,,株式会社,愛媛県,西条市,樋之口１３３番地１グレース・エム３０２,,38,206,7930043,,,,,,,2025-07-10,1,,,,,オリハダコウボウ,0
2057,9010001256565,新規,0,2025-07-10,2025-07-10,株式会社レアル建設,,株式会社,東京都,中央区,京橋２丁目１４番１号,,13,102,1040031,,,,,,,2025-07-10,1,,,,,レアルケンセツ,0
2058,9010001256672,新規,0,2025-07-10,2025-07-10,Ｒ＆Ｒ株式会社,,株式会社,東京都,千代田区,神田須田町１丁目２－７淡路町駅前ビル３階,,13,101,1010041,,,,,,,2025-07-10,1,,,,,アールアンドアール,0
2059,9010001256714,新規,0,2025-07-10,2025-07-10,株式会社Ｌａ　Ｓｅｕｌｅ,,株式会社,東京都,中央区,銀座１丁目１２番４号Ｎ＆Ｅ・ＢＬＤ．６Ｆ,,13,102,1040061,,,,,,,2025-07-10,1,,,,,ラスール,0
2061,9010003047913,新規,0,2025-07-10,2025-07-10,ＭＳホールディングス合同会社,,合同会社,東京都,千代田区,神田須田町２丁目３番地１２号１２ＫＡＮＤＡ１０２,,13,101,1010041,,,,,,,2025-07-10,1,,,,,エムエスホールディングス,0
2062,9010003047979,新規,0,2025-07-10,2025-07-10,ことあ合同会社,,合同会社,東京都,中央区,日本橋室町１丁目１１番１２号日本橋水野ビル７階,,13,102,1030022,,,,,,,2025-07-10,1,,,,,コトア,0
2072,9010401191593,新規,0,2025-07-10,2025-07-10,株式会社日本ヤントラー,,株式会社,東京都,港区,芝４丁目６番５号芝大井ビル３Ｆ,,13,103,1080014,,,,,,,2025-07-10,1,,,,,ニッポンヤントラー,0
2073,9010401191602,新規,0,2025-07-10,2025-07-10,イワタアセット株式会社,,株式会社,東京都,港区,赤坂２丁目１３番２１号,,13,103,1070052,,,,,,,2025-07-10,1,,,,,イワタアセット,0
2074,9010401191610,新規,0,2025-07-10,2025-07-10,バリューアップラボ株式会社,,株式会社,東京都,港区,三田１丁目６番３－３１１２号,,13,103,1080073,,,,,,,2025-07-10,1,,,,,バリューアップラボ,0
2075,9010401191651,新規,0,2025-07-10,2025-07-10,株式会社ｇｉｌｔｚ,,株式会社,東京都,港区,南青山６丁目１３番４－４０１号,,13,103,1070062,,,,,,,2025-07-10,1,,,,,ギルツ,0
2076,9010401191668,新規,0,2025-07-10,2025-07-10,レトロニクステクノロジージャパン株式会社,,株式会社,東京都,港区,新橋６丁目２１番３号６階,,13,103,1050004,,,,,,,2025-07-10,1,,,,,レトロニクステクノロジージャパン,0
2078,9010403035550,新規,0,2025-07-10,2025-07-10,Ｐｕｎｃｈ合同会社,,合同会社,東京都,港区,西麻布２丁目１５番１３号,,13,103,1060031,,,,,,,2025-07-10,1,,,,,パンチ,0
2079,9010403035559,新規,0,2025-07-10,2025-07-10,合同会社Ｉｎｓｉｄｅ　Ｏｕｔ,,合同会社,東京都,港区,南青山３丁目１番３６号青山丸竹ビル６Ｆ,,13,103,1070062,,,,,,,2025-07-10,1,,,,,インサイドアウト,0
2080,9010405024576,新規,0,2025-07-10,2025-07-10,一般社団法人Ｎａｒｉ,,その他の設立登記法人,東京都,港区,虎ノ門１丁目１番１８号ヒューリック虎ノ門ビル９階Ｌ＆Ｐ司法書士法人内,,13,103,1050001,,,,,,,2025-07-10,1,,,,,ナーリー,0
2084,9010503007912,新規,0,2025-07-10,2025-07-10,潤＿合同会社,00139891,合同会社,東京都,台東区,花川戸２丁目８番８号２Ｆ,,13,106,1110033,,,,,,,2025-07-10,1,,,,,,0
2088,9010901057724,新規,0,2025-07-10,2025-07-10,株式会社Ｓ,,株式会社,東京都,世田谷区,弦巻５丁目２０－１８－２０４,,13,112,1540016,,,,,,,2025-07-10,1,,,,,エス,0
2097,9011001170252,新規,0,2025-07-10,2025-07-10,コスコスカンパニー株式会社,,株式会社,東京都,渋谷区,神南１丁目１１－４ＦＰＧリンクス神南５階,,13,113,1500041,,,,,,,2025-07-10,1,,,,,コスコスカンパニー,0
2098,9011001170764,新規,0,2025-07-10,2025-07-10,ＷＡＳＯ　Ｊａｐａｎ株式会社,,株式会社,東京都,渋谷区,桜丘町１８番４号二宮ビル１Ｆー７９,,13,113,1500031,,,,,,,2025-07-10,1,,,,,ワソウジャパン,0
2099,9011001170780,新規,0,2025-07-10,2025-07-10,株式会社ｋｏｏｏｏｏｍｉ,,株式会社,東京都,渋谷区,神南１丁目１１番４号ＦＰＧリンクス神南５階,,13,113,1500041,,,,,,,2025-07-10,1,,,,,コミ,0
2100,9011001170797,新規,0,2025-07-10,2025-07-10,ｉｉｍｏｎｏ株式会社,,株式会社,東京都,目黒区,五本木１丁目２３番６号,,13,110,1530053,,,,,,,2025-07-10,1,,,,,イイモノ,0
2101,9011001170954,新規,0,2025-07-10,2025-07-10,株式会社ＴＲＩＧＧＥＲ,,株式会社,東京都,目黒区,下目黒１丁目１番１４号コノトラビル７階,,13,110,1530064,,,,,,,2025-07-10,1,,,,,トリガー,0
2104,9011003022088,新規,0,2025-07-10,2025-07-10,合同会社ＭＩＤ,,合同会社,東京都,目黒区,自由が丘３丁目１１番２３号,,13,110,1520035,,,,,,,2025-07-10,1,,,,,エムアイディ,0
2109,9011101112393,新規,0,2025-07-10,2025-07-10,株式会社サカシンテック,,株式会社,東京都,新宿区,余丁町１２番９号,,13,104,1620055,,,,,,,2025-07-10,1,,,,,サカシンテック,0
2110,9011301030718,新規,0,2025-07-10,2025-07-10,株式会社ＹＦＫ,,株式会社,東京都,杉並区,天沼２丁目２番１６号,,13,115,1670032,,,,,,,2025-07-10,1,,,,,ワイエフケー,0
2111,9011405002398,新規,0,2025-07-10,2025-07-10,一般社団法人日本動物リハビリテーション学会,,その他の設立登記法人,東京都,板橋区,小豆沢２丁目９－１９,,13,119,1740051,,,,,,,2025-07-10,1,,,,,ニホンドウブツリハビリテーションガッカイ,0
2112,9011501032299,新規,0,2025-07-10,2025-07-10,株式会社ＡＮ商事,,株式会社,東京都,北区,神谷２丁目７番５号アムールオオシマ１０２,,13,117,1150043,,,,,,,2025-07-10,1,,,,,エーエヌショウジ,0
2117,9011801046445,新規,0,2025-07-10,2025-07-10,Ｎ　Ｌｉｎｋ株式会社,,株式会社,東京都,足立区,皿沼２丁目１３番６号,,13,121,1230862,,,,,,,2025-07-10,1,,,,,エヌリンク,0
2118,9012801024093,新規,0,2025-07-10,2025-07-10,株式会社立川補聴器,,株式会社,東京都,立川市,高松町３丁目２１番４号,,13,202,1900011,,,,,,,2025-07-10,1,,,,,タチカワホチョウキ,0
2120,9013305003732,新規,0,2025-07-10,2025-07-10,日本助成金センター社会保険労務士法人,,その他の設立登記法人,東京都,豊島区,東池袋４丁目３９番１１号サニービル池袋８階,,13,116,1700013,,,,,,,2025-07-10,1,,,,,ニホンジョセイキンセンター,0
2125,9020001163827,新規,0,2025-07-10,2025-07-10,株式会社カイトファシリティ,,株式会社,神奈川県,横浜市神奈川区,金港町５－１４クアドリフォリオ８階,,14,102,2210056,,,,,,,2025-07-10,1,,,,,カイトファシリティ,0
2128,9020003028912,新規,0,2025-07-10,2025-07-10,合同会社みずの設備,,合同会社,神奈川県,川崎市幸区,戸手３丁目３番７号,,14,132,2120005,,,,,,,2025-07-10,1,,,,,ミズノセツビ,0
2130,9021001085722,新規,0,2025-07-10,2025-07-10,株式会社Ｈｅｒｍａｎｏｓ,,株式会社,神奈川県,足柄下郡湯河原町,宮下３５１番地,,14,384,2590304,,,,,,,2025-07-10,1,,,,,エルマーノス,0
2144,9030001167496,新規,0,2025-07-10,2025-07-10,株式会社ＳＩＳＩＣＸ,,株式会社,埼玉県,川口市,東川口２丁目８番２９－２０５号ウィズプラス東川口,,11,203,3330801,,,,,,,2025-07-10,1,,,,,シシックス,0
2145,9030001167546,新規,0,2025-07-10,2025-07-10,株式会社ケーズ美光,,株式会社,埼玉県,新座市,栄２丁目３番３号,,11,230,3520014,,,,,,,2025-07-10,1,,,,,ケーズビコウ,0
2146,9030001167562,新規,0,2025-07-10,2025-07-10,Ｓｏｌｉｄ　Ａｃｃｅｌ株式会社,,株式会社,埼玉県,さいたま市浦和区,常盤４丁目５番１４－２０３号,,11,107,3300061,,,,,,,2025-07-10,1,,,,,ソリッドアクセル,0
2147,9030001167620,新規,0,2025-07-10,2025-07-10,株式会社ＣＯＯＬ　ＰＯＲＴＥＲＳ,,株式会社,埼玉県,三郷市,谷口３２０番地２,,11,237,3410042,,,,,,,2025-07-10,1,,,,,クールポーターズ,0
2151,9030003027178,新規,0,2025-07-10,2025-07-10,合同会社ソーシャルコーケン,,合同会社,埼玉県,さいたま市桜区,桜田１丁目７－２５アムールＢ棟１０１号,,11,106,3380833,,,,,,,2025-07-10,1,,,,,ソーシャルコーケン,0
2157,9040001139503,新規,0,2025-07-10,2025-07-10,株式会社ＴＳＴ,,株式会社,千葉県,柏市,豊四季３０４番地２３サン・ウインド１０３,,12,217,2770863,,,,,,,2025-07-10,1,,,,,ティーエスティー,0
2158,9040001139528,新規,0,2025-07-10,2025-07-10,菅澤鉄工株式会社,,株式会社,千葉県,旭市,萬歳２８８８番地４,,12,215,2890505,,,,,,,2025-07-10,1,,,,,スガサワテッコウ,0
2159,9040001139585,新規,0,2025-07-10,2025-07-10,佐野総業株式会社,,株式会社,千葉県,四街道市,鹿放ケ丘２５８番地８,,12,228,2840008,,,,,,,2025-07-10,1,,,,,サノソウギョウ,0
2163,9060001038380,新規,0,2025-07-10,2025-07-10,スミスケ株式会社,,株式会社,栃木県,鹿沼市,上殿町１００２番地１,,09,205,3220045,,,,,,,2025-07-10,1,,,,,スミスケ,0
2170,9080101025649,新規,0,2025-07-10,2025-07-10,株式会社真生工業,,株式会社,静岡県,沼津市,大諏訪５８９番地の９,,22,203,4100873,,,,,,,2025-07-10,1,,,,,シンセイコウギョウ,0
2178,9100001038756,新規,0,2025-07-10,2025-07-10,株式会社中信解業,,株式会社,長野県,安曇野市,明科七貴６２６７番地５,,20,220,3997104,,,,,,,2025-07-10,1,,,,,チュウシンカイギョウ,0
2185,9110001039415,新規,0,2025-07-10,2025-07-10,株式会社Ｑｕａｒｔｏ,,株式会社,新潟県,新潟市中央区,女池１丁目３番１３号,,15,103,9500941,,,,,,,2025-07-10,1,,,,,クアルト,0
2196,9120001277419,新規,0,2025-07-10,2025-07-10,株式会社ｅＨａｌａｌ,,株式会社,大阪府,大阪市北区,梅田１丁目２番２号大阪駅前第２ビル１２－１２,,27,127,5300001,,,,,,,2025-07-10,1,,,,,イーハラル,0
2197,9120001277641,新規,0,2025-07-10,2025-07-10,ＭＯＤＥホールディングス株式会社,,株式会社,大阪府,大阪市中央区,本町４丁目５番１５－４０１号,,27,128,5410053,,,,,,,2025-07-10,1,,,,,モードホールディングス,0
2198,9120001277658,新規,0,2025-07-10,2025-07-10,盛泰株式会社,,株式会社,大阪府,大阪市東淀川区,豊新２丁目５番１４号３０４室,,27,114,5330014,,,,,,,2025-07-10,1,,,,,セイタイ,0
2199,9120001277682,新規,0,2025-07-10,2025-07-10,ケイズ株式会社,,株式会社,大阪府,門真市,殿島町６番４号守口門真商工会館１０１,,27,223,5710045,,,,,,,2025-07-10,1,,,,,ケイズ,0
2200,9120001277699,新規,0,2025-07-10,2025-07-10,株式会社幸来家,,株式会社,大阪府,大阪市西区,西本町１丁目５番２０号１階,,27,106,5500005,,,,,,,2025-07-10,1,,,,,コウライヤ,0
2201,9120001277740,新規,0,2025-07-10,2025-07-10,株式会社スプラウトプロジェクト,,株式会社,大阪府,大阪市北区,天神橋４丁目１１番９号,,27,127,5300041,,,,,,,2025-07-10,1,,,,,スプラウトプロジェクト,0
2202,9120001277757,新規,0,2025-07-10,2025-07-10,株式会社ＦＩＮＯＶＡＴＥ　ＧＲＯＵＰ,,株式会社,大阪府,大阪市北区,梅田１丁目２番２号大阪駅前第２ビル１２－１２,,27,127,5300001,,,,,,,2025-07-10,1,,,,,フィノベートグループ,0
2203,9120001277765,新規,0,2025-07-10,2025-07-10,株式会社ＡＳＵＰＬＵＳ,,株式会社,大阪府,大阪市天王寺区,生玉前町１－１８,,27,109,5430072,,,,,,,2025-07-10,1,,,,,アスプラス,0
2204,9120001277773,新規,0,2025-07-10,2025-07-10,株式会社ＳＡＩ　ＣＯＭＰＡＮＹ,,株式会社,大阪府,大阪市生野区,新今里６丁目１４番１３号,,27,116,5440001,,,,,,,2025-07-10,1,,,,,サイカンパニー,0
2205,9120001277815,新規,0,2025-07-10,2025-07-10,ＳＥＶＥＮホールディングス株式会社,,株式会社,大阪府,大阪市北区,西天満４丁目１４番３号１０階,,27,127,5300047,,,,,,,2025-07-10,1,,,,,セブンホールディングス,0
2208,9120003029982,新規,0,2025-07-10,2025-07-10,合同会社ＳＴＭＫ,,合同会社,大阪府,大阪市北区,大淀中２丁目６番１７－１３０２号,,27,127,5310076,,,,,,,2025-07-10,1,,,,,エスティーエムケー,0
2218,9130003010628,新規,0,2025-07-10,2025-07-10,Ｔｓｕｂｏｍｉ　Ｌａｂ合同会社,,合同会社,京都府,京都市下京区,小稲荷町８５－２Ｇｒａｎｄ－Ｋ京都駅前ビル２０１,,26,106,6008208,,,,,,,2025-07-10,1,,,,,ツボミラボ,0
2221,9140001139105,新規,0,2025-07-10,2025-07-10,株式会社大和リサーチ＆コンサルティング,,株式会社,兵庫県,姫路市,山田町南山田１１２８番地,,28,201,6792113,,,,,,,2025-07-10,1,,,,,ヤマトリサーチアンドコンサルティング,0
2222,9140001139212,新規,0,2025-07-10,2025-07-10,鈴蘭株式会社,,株式会社,兵庫県,神戸市中央区,中町通３丁目１番８号ライオンズステーションプラザ神戸４０５号室,,28,110,6500027,,,,,,,2025-07-10,1,,,,,スズラン,0
2223,9140001139220,新規,0,2025-07-10,2025-07-10,株式会社リアル不動産管理,,株式会社,兵庫県,姫路市,南畝町２３番地１,,28,201,6700961,,,,,,,2025-07-10,1,,,,,リアルフドウサンカンリ,0
2225,9140003022275,新規,0,2025-07-10,2025-07-10,合同会社うなぎ七輪亭,,合同会社,兵庫県,姫路市,城見町９５,,28,201,6700831,,,,,,,2025-07-10,1,,,,,ウナギシチリンテイ,0
2227,9150001028257,新規,0,2025-07-10,2025-07-10,株式会社清栄,,株式会社,奈良県,桜井市,大字大福１８８－３－１０３,,29,206,6330067,,,,,,,2025-07-10,1,,,,,セイエイ,0
2229,9160003003538,新規,0,2025-07-10,2025-07-10,菌工芸合同会社,,合同会社,滋賀県,長浜市,神照町１９４番地３８,,25,203,5260015,,,,,,,2025-07-10,1,,,,,,0
2232,9160005011423,新規,0,2025-07-10,2025-07-10,一般社団法人ＬＡＫＥＳＩＤＥＪｒ,,その他の設立登記法人,滋賀県,近江八幡市,浅小井町６９９番地ヴォーリズ学園近江兄弟社小学校内,,25,204,5230817,,,,,,,2025-07-10,1,,,,,レイクサイドジュニア,0
2236,9180005021156,新規,0,2025-07-10,2025-07-10,一般社団法人ａｍｕ,,その他の設立登記法人,愛知県,名古屋市天白区,山根町９４番地,,23,116,4680038,,,,,,,2025-07-10,1,,,,,アム,0
2239,9180301040000,新規,0,2025-07-10,2025-07-10,アカシ株式会社,,株式会社,愛知県,額田郡幸田町,大字大草字赤石４７番地１,,23,501,4440103,,,,,,,2025-07-10,1,,,,,アカシ,0
2240,9180303006651,新規,0,2025-07-10,2025-07-10,トリガーリンクス合同会社,,合同会社,愛知県,西尾市,米津町種木４８－８,,23,213,4450802,,,,,,,2025-07-10,1,,,,,トリガーリンクス,0
2244,9190003005093,新規,0,2025-07-10,2025-07-10,合同会社スプリング,,合同会社,三重県,四日市市,諏訪町３番１３号幸栄ビル２階,,24,202,5100085,,,,,,,2025-07-10,1,,,,,スプリング,0
2249,9200005013778,新規,0,2025-07-10,2025-07-10,一般社団法人飛騨春慶ネイル,,その他の設立登記法人,岐阜県,高山市,本町３丁目５８,,21,203,5060011,,,,,,,2025-07-10,1,,,,,ヒダシュンケイネイル,0
2266,9290803005101,新規,0,2025-07-10,2025-07-10,合同会社レーベル薬局,,合同会社,福岡県,北九州市小倉南区,下石田１丁目２番５号,,40,107,8020832,,,,,,,2025-07-10,1,,,,,レーベルヤッキョク,0
2275,9330001033387,新規,0,2025-07-10,2025-07-10,株式会社ＫＯＫＵＤＯ,,株式会社,熊本県,宇土市,築籠町１８４番地,,43,211,8690408,,,,,,,2025-07-10,1,,,,,コクド,0
2279,9340003004897,新規,0,2025-07-10,2025-07-10,合同会社操恵,,合同会社,鹿児島県,鹿児島市,柳町４番１７号ポートタウン３５－７０２号,,46,201,8920819,,,,,,,2025-07-10,1,,,,,ソウケイ,0
2280,9340005009886,新規,0,2025-07-10,2025-07-10,一般社団法人光来,,その他の設立登記法人,鹿児島県,霧島市,霧島大窪３８４－６,,46,218,8994203,,,,,,,2025-07-10,1,,,,,コウライ,0
2290,9390003002418,新規,0,2025-07-10,2025-07-10,合同会社エステート天一,,合同会社,山形県,山形市,幸町１６番１４号,,06,201,9900038,,,,,,,2025-07-10,1,,,,,エステートテンイチ,0
2293,9410001014222,新規,0,2025-07-10,2025-07-10,株式会社ＮＥＸＴＵＳ,,株式会社,秋田県,秋田市,仁井田二ツ屋２丁目１８番３号,,05,201,0101431,,,,,,,2025-07-10,1,,,,,ネクスタス,0
2295,9410003004122,新規,0,2025-07-10,2025-07-10,合同会社加賀谷商会,,合同会社,秋田県,秋田市,新屋北浜町１３番１９号,,05,201,0101608,,,,,,,2025-07-10,1,,,,,,0
2305,9430003017840,新規,0,2025-07-10,2025-07-10,Ｋａｌｅａ合同会社,,合同会社,北海道,小樽市,梅ケ枝町１３番１５号,,01,203,0470044,,,,,,,2025-07-10,1,,,,,カレア,0
2306,9430003017857,新規,0,2025-07-10,2025-07-10,合同会社栄建興業,,合同会社,北海道,札幌市厚別区,上野幌三条６丁目１３番２号ＰＯＬＡＲＩＳ　Ｂ１０２,,01,108,0040033,,,,,,,2025-07-10,1,,,,,エイケンコウギョウ,0
2308,9450001014672,新規,0,2025-07-10,2025-07-10,株式会社ストラクチャー・エステート,,株式会社,北海道,旭川市,豊岡十一条７丁目７番１１号,,01,204,0788241,,,,,,,2025-07-10,1,,,,,ストラクチャーエステート,0
2310,9460301005305,新規,0,2025-07-10,2025-07-10,株式会社Ｃｈａｋｉ　ＨＤ,,株式会社,北海道,紋別郡遠軽町,一条通南１丁目８番地１３,,01,555,0990417,,,,,,,2025-07-10,1,,,,,チャキホールディングス,0
2311,9462505000296,新規,0,2025-07-10,2025-07-10,一般社団法人大地と海,,その他の設立登記法人,北海道,野付郡別海町,別海常盤町２７４番地,,01,691,0860205,,,,,,,2025-07-10,1,,,,,ダイチトウミ,0
2315,9500001026415,新規,0,2025-07-10,2025-07-10,株式会社ｋｅｙ総合企画,,株式会社,愛媛県,松山市,和泉南６丁目３番８号シェトワ椿１０１号,,38,201,7900941,,,,,,,2025-07-10,1,,,,,キーソウゴウキカク,0
2316,9500003003552,新規,0,2025-07-10,2025-07-10,合同会社別宮自動車,,合同会社,愛媛県,今治市,上徳甲４８７番地１７,,38,202,7991511,,,,,,,2025-07-10,1,,,,,ベックジドウシャ,0
2318,9700150131359,新規,0,2025-07-10,2025-07-10,ＷｅｎＸｉＸｉａｎＨａｏＣｈｅｎＤｉａｎＺｉＳｈａｎｇＷｕＹｏｕＸｉａｎＧｏｎｇＳｉ,,外国会社等,,,,,,,,Ｎｏ．２４０，Ｇｒｏｕｐ　２，Ｓｕｎ　Ｖｉｌｌａｇｅ，Ｈｅｄｉ　Ｔｏｗｎ，Ｗｅｎｘｉ　Ｃｏｕｎｔｙ，Ｙｕｎｃｈｅｎｇ　Ｃｉｔｙ，Ｓｈａｎｘｉ　Ｐｒｏｖｉｎｃｅ　０４３８００　ＣＮ,,,,,,2025-07-10,1,,,,,ウェンシセンハオチェンデンシショウムヨウシエンゴンスー,0
2319,9700150131367,新規,0,2025-07-10,2025-07-10,ちゅいだちしんかぬちゃー,,その他,沖縄県,糸満市,字真栄里１８６０－１　０４－３０６,,47,210,9010362,,,,,,,2025-07-10,1,,,,,チュイダチシンカヌチャー,0
