sequenceNumber,corporateNumber,process,correct,updateDate,changeDate,name,nameImageId,kind,prefectureName,cityName,streetNumber,addressImageId,prefectureCode,cityCode,postCode,addressOutside,addressOutsideImageId,closeDate,closeCause,successorCorporateNumber,changeCause,assignmentDate,latest,enName,enPrefectureName,enCityName,enAddressOutside,furigana,hihyoji
4,1010001261399,新規,0,2026-01-07,2026-01-07,ＪＹＵ商事株式会社,,株式会社,東京都,中央区,銀座５丁目１５番１号南海東京ビルディングＢ１階,,13,102,1040061,,,,,,,2026-01-07,1,,,,,ジェイワイユーショウジ,0
6,1010001261523,新規,0,2026-01-07,2026-01-07,リトリア株式会社,,株式会社,東京都,千代田区,丸の内２丁目３番２号郵船ビルディング１階,,13,101,1000005,,,,,,,2026-01-07,1,,,,,,0
7,1010001261647,新規,0,2026-01-07,2026-01-07,株式会社エーアイエー,,株式会社,東京都,中央区,銀座１丁目８番７号ＶＯＲＴ銀座ＤＤＩ１Ｆ,,13,102,1040061,,,,,,,2026-01-07,1,,,,,エーアイエー,0
19,1010401195429,新規,0,2026-01-07,2026-01-07,株式会社Ｔｒｅｓ　Ｂｏｎ,,株式会社,東京都,港区,南青山１丁目１番１号新青山ビル東館７階,,13,103,1070062,,,,,,,2026-01-07,1,,,,,トレボン,0
20,1010401195494,新規,0,2026-01-07,2026-01-07,株式会社ジュエム,,株式会社,東京都,港区,北青山２丁目９番９号外苑いちょうの杜６階,,13,103,1070061,,,,,,,2026-01-07,1,,,,,ジュエム,0
21,1010401195528,新規,0,2026-01-07,2026-01-07,ウェルランド株式会社,,株式会社,東京都,港区,南青山５丁目４番３５号たつむら青山マンション５０７号室,,13,103,1070062,,,,,,,2026-01-07,1,,,,,ウェルランド,0
22,1010401195544,新規,0,2026-01-07,2026-01-07,株式会社ファーストキャビン・アセット,,株式会社,東京都,港区,北青山２丁目７番９号,,13,103,1070061,,,,,,,2026-01-07,1,,,,,ファーストキャビンアセット,0
23,1010401195569,新規,0,2026-01-07,2026-01-07,ＴＫホールディングス株式会社,,株式会社,東京都,港区,麻布十番２丁目１番１１号ＬＡＣＩＴＹ麻布十番ＬＵＣＥ５階,,13,103,1060045,,,,,,,2026-01-07,1,,,,,ティーケーホールディングス,0
24,1010401195593,新規,0,2026-01-07,2026-01-07,株式会社ＫＴ,,株式会社,東京都,港区,赤坂９丁目７番２号２２１３,,13,103,1070052,,,,,,,2026-01-07,1,,,,,ケーティー,0
31,1010405025128,新規,0,2026-01-07,2026-01-07,ジー・エイ・ワン・レジデンス・フィフティーン特定目的会社,,その他の設立登記法人,東京都,港区,虎ノ門５丁目１番４号,,13,103,1050001,,,,,,,2026-01-07,1,,,,,ジーエイワンレジデンスフィフティーン,0
40,1010803005664,新規,0,2026-01-07,2026-01-07,ＡＲＴＭＥ合同会社,,合同会社,東京都,大田区,池上６丁目３９番５号,,13,111,1460082,,,,,,,2026-01-07,1,,,,,アートミー,0
44,1010901058738,新規,0,2026-01-07,2026-01-07,株式会社ＣＩＶＥＴＴＡ,,株式会社,東京都,世田谷区,奥沢２丁目４９番１７号,,13,112,1580083,,,,,,,2026-01-07,1,,,,,チベッタ,0
55,1011001174822,新規,0,2026-01-07,2026-01-07,株式会社ＣＯＣＯＬＯ　ＢＡＳＥ,,株式会社,東京都,渋谷区,神南１丁目１１番４号ＦＰＧリンクス神南５階,,13,113,1500041,,,,,,,2026-01-07,1,,,,,ココロベース,0
56,1011003023250,新規,0,2026-01-07,2026-01-07,ＲＹ　Ｃｏｎｓｕｌｔｉｎｇ合同会社,,合同会社,東京都,渋谷区,道玄坂１丁目１０番８号渋谷道玄坂東急ビル２Ｆ－Ｃ,,13,113,1500043,,,,,,,2026-01-07,1,,,,,アールワイコンサルティング,0
57,1011003023259,新規,0,2026-01-07,2026-01-07,合同会社ａｒｎｏ,,合同会社,東京都,渋谷区,道玄坂１丁目１０番８号渋谷道玄坂東急ビル２Ｆ－Ｃ,,13,113,1500043,,,,,,,2026-01-07,1,,,,,アルノ,0
58,1011003023300,新規,0,2026-01-07,2026-01-07,合同会社シェリンフォード,,合同会社,東京都,渋谷区,恵比寿西２丁目４番８号ウィンド恵比寿ビル８Ｆ,,13,113,1500021,,,,,,,2026-01-07,1,,,,,シェリンフォード,0
64,1011101113688,新規,0,2026-01-07,2026-01-07,新陽国際株式会社,,株式会社,東京都,新宿区,西新宿３丁目３番１３号西新宿水間ビル２Ｆ,,13,104,1600023,,,,,,,2026-01-07,1,,,,,シンヨウコクサイ,0
72,1011801047252,新規,0,2026-01-07,2026-01-07,株式会社ＡＬＬ・ｂｌａｓｔ,,株式会社,東京都,足立区,新田２丁目１６番１９号,,13,121,1230865,,,,,,,2026-01-07,1,,,,,オールブラスト,0
74,1012301014668,新規,0,2026-01-07,2026-01-07,株式会社樫村,,株式会社,東京都,町田市,成瀬台２丁目１８番地１８グラース・メゾン２０２,,13,209,1940043,,,,,,,2026-01-07,1,,,,,カシムラ,0
83,1013301055553,新規,0,2026-01-07,2026-01-07,株式会社ＮＡＯインターナショナルバリュエーションアドバイザリー,,株式会社,東京都,豊島区,東池袋３丁目１番１号サンシャイン６０Ｒｅｇｕｓ内（１２階）,,13,116,1700013,,,,,,,2026-01-07,1,,,,,エヌエーオーインターナショナルバリュエーションアドバイザリー,0
86,1020001166507,新規,0,2026-01-07,2026-01-07,株式会社ｓｕｎｒｉｓｅ,,株式会社,神奈川県,川崎市中原区,新丸子東２丁目８９５番２７号マール武蔵小杉１Ｆ,,14,133,2110004,,,,,,,2026-01-07,1,,,,,サンライズ,0
87,1020001166515,新規,0,2026-01-07,2026-01-07,ＬｉＭＥマーケティングコンサルティング株式会社,,株式会社,神奈川県,横浜市西区,霞ケ丘９３番地１０,,14,103,2200035,,,,,,,2026-01-07,1,,,,,ライムマーケティングコンサルティング,0
88,1020001166556,新規,0,2026-01-07,2026-01-07,株式会社横浜港総業,,株式会社,神奈川県,横浜市鶴見区,上末吉１丁目２８番１７号２０１,,14,101,2300011,,,,,,,2026-01-07,1,,,,,ヨコハマミナトソウギョウ,0
89,1020001166580,新規,0,2026-01-07,2026-01-07,メンテナブル株式会社,,株式会社,神奈川県,横浜市神奈川区,金港町５―１４クアドリフォリオ８階,,14,102,2210056,,,,,,,2026-01-07,1,,,,,メンテナブル,0
95,1020003030066,新規,0,2026-01-07,2026-01-07,合同会社ＳＤＴ,,合同会社,神奈川県,川崎市中原区,中丸子１３番地１０ザ・クラッシィタワー２１１３,,14,133,2110012,,,,,,,2026-01-07,1,,,,,エスディーティー,0
100,1030001170375,新規,0,2026-01-07,2026-01-07,株式会社桜プロジェクト,,株式会社,埼玉県,東松山市,大字高坂１９１６番地１９８,,11,212,3550047,,,,,,,2026-01-07,1,,,,,サクラプロジェクト,0
101,1030001170391,新規,0,2026-01-07,2026-01-07,株式会社ｅ‐Ｌｉｑｅｓ,,株式会社,埼玉県,桶川市,下日出谷東２丁目８番地の９,,11,231,3630029,,,,,,,2026-01-07,1,,,,,イーリークス,0
104,1030003028373,新規,0,2026-01-07,2026-01-07,ＦＩＦ合同会社,,合同会社,埼玉県,鶴ヶ島市,若葉２丁目１９番地１５,,11,241,3502207,,,,,,,2026-01-07,1,,,,,フィフ,0
109,1040001141994,新規,0,2026-01-07,2026-01-07,株式会社オーリスト,,株式会社,千葉県,千葉市花見川区,幕張本郷５丁目２４番１号ローズハイツ８号,,12,102,2620033,,,,,,,2026-01-07,1,,,,,オーリスト,0
113,1050001057819,新規,0,2026-01-07,2026-01-07,増田不動産株式会社,,株式会社,茨城県,石岡市,石岡２３２５番地２,,08,205,3150001,,,,,,,2026-01-07,1,,,,,マスダフドウサン,0
119,1080101025994,新規,0,2026-01-07,2026-01-07,いんとぅー株式会社,,株式会社,静岡県,駿東郡清水町,柿田１３６番地の４７,,22,341,4110904,,,,,,,2026-01-07,1,,,,,イントゥー,0
120,1080401028350,新規,0,2026-01-07,2026-01-07,株式会社大恵製菓,,株式会社,静岡県,浜松市中央区,鴨江１丁目２７番１１号,,22,138,4328023,,,,,,,2026-01-07,1,,,,,ダイケイセイカ,0
121,1080401028359,新規,0,2026-01-07,2026-01-07,株式会社平成電装,,株式会社,静岡県,浜松市天竜区,青谷６１４番地の３,,22,140,4313425,,,,,,,2026-01-07,1,,,,,ヘイセイデンソウ,0
122,1080401028367,新規,0,2026-01-07,2026-01-07,銀華株式会社,,株式会社,静岡県,菊川市,加茂５３９０番地,,22,224,4390031,,,,,,,2026-01-07,1,,,,,ギンカ,0
125,1100003008541,新規,0,2026-01-07,2026-01-07,合同会社ＴＫＲ,,合同会社,長野県,安曇野市,豊科高家１０２９番地３０,,20,220,3998204,,,,,,,2026-01-07,1,,,,,ティーケーアール,0
127,1110001039819,新規,0,2026-01-07,2026-01-07,株式会社オーシャンモーターズ,,株式会社,新潟県,上越市,大潟区下小船津浜１１６５番地７,,15,222,9493113,,,,,,,2026-01-07,1,,,,,オーシャンモーターズ,0
138,1120001283119,新規,0,2026-01-07,2026-01-07,天成商貿株式会社,,株式会社,大阪府,大阪市東成区,深江北１丁目１番２９－３０５号,,27,115,5370001,,,,,,,2026-01-07,1,,,,,テンセイショウボウ,0
139,1120001283151,新規,0,2026-01-07,2026-01-07,株式会社宇治田原倉庫,,株式会社,大阪府,大阪市西区,阿波座１丁目１２番２１号,,27,106,5500011,,,,,,,2026-01-07,1,,,,,ウジタワラソウコ,0
145,1120101073023,新規,0,2026-01-07,2026-01-07,ブリッジ株式会社,,株式会社,大阪府,高石市,綾園７丁目５番６６号,,27,225,5920014,,,,,,,2026-01-07,1,,,,,ブリッジ,0
146,1120101073031,新規,0,2026-01-07,2026-01-07,株式会社ＲＥＳＴＡＲＴ　ＦＯＯＤＳ,,株式会社,大阪府,和泉市,伏屋町５丁目９番１－５０９号,,27,219,5940031,,,,,,,2026-01-07,1,,,,,リスタートフーズ,0
151,1120901052036,新規,0,2026-01-07,2026-01-07,キーノート株式会社,,株式会社,大阪府,三島郡島本町,水無瀬２丁目１番１－１Ｆ,,27,301,6180014,,,,,,,2026-01-07,1,,,,,キーノート,0
152,1120901052044,新規,0,2026-01-07,2026-01-07,株式会社花岡不動産,,株式会社,大阪府,摂津市,新在家２丁目１番１９号,,27,224,5660055,,,,,,,2026-01-07,1,,,,,ハナオカフドウサン,0
153,1120901052060,新規,0,2026-01-07,2026-01-07,株式会社ライズテクノ,,株式会社,大阪府,箕面市,粟生外院１丁目１８番１２号,,27,220,5620025,,,,,,,2026-01-07,1,,,,,ライズテクノ,0
154,1120903006015,新規,0,2026-01-07,2026-01-07,エムオン合同会社,,合同会社,大阪府,高槻市,八幡町４番４号,,27,207,5690051,,,,,,,2026-01-07,1,,,,,エムオン,0
155,1120903006023,新規,0,2026-01-07,2026-01-07,合同会社ＰａＴＨｏＳＲｏｏＴ,,合同会社,大阪府,高槻市,南松原町９－１９,,27,207,5690085,,,,,,,2026-01-07,1,,,,,パトスルート,0
157,1130001081331,新規,0,2026-01-07,2026-01-07,株式会社小林酒店,,株式会社,京都府,京都市中京区,新京極通四条上る中之町５６５番地１,,26,104,6048042,,,,,,,2026-01-07,1,,,,,コバヤシサケテン,0
158,1130003011039,新規,0,2026-01-07,2026-01-07,合同会社京いすけ,,合同会社,京都府,京都市中京区,百足屋町３７８番地３,,26,104,6048214,,,,,,,2026-01-07,1,,,,,キョウイスケ,0
159,1130003011055,新規,0,2026-01-07,2026-01-07,合同会社いりやまさん,,合同会社,京都府,宇治市,槇島町大幡６４番地,,26,204,6110041,,,,,,,2026-01-07,1,,,,,イリヤマサン,0
165,1140001141266,新規,0,2026-01-07,2026-01-07,モアネクスト株式会社,,株式会社,兵庫県,尼崎市,塚口町１丁目３番地の５,,28,202,6610002,,,,,,,2026-01-07,1,,,,,モアネクスト,0
166,1140001141282,新規,0,2026-01-07,2026-01-07,株式会社ホーク,,株式会社,兵庫県,尼崎市,南塚口町１丁目３０番１１号,,28,202,6610012,,,,,,,2026-01-07,1,,,,,ホーク,0
167,1140001141290,新規,0,2026-01-07,2026-01-07,株式会社ｍｙＤａｉｓｙ,,株式会社,兵庫県,神戸市中央区,東川崎町１丁目８番４号神戸市産業振興センター８階８－３,,28,110,6500044,,,,,,,2026-01-07,1,,,,,マイデイジー,0
171,1140003023017,新規,0,2026-01-07,2026-01-07,合同会社カナテック工業,,合同会社,兵庫県,尼崎市,築地２丁目１１番６号,,28,202,6600858,,,,,,,2026-01-07,1,,,,,カナテックコウギョウ,0
172,1140003023025,新規,0,2026-01-07,2026-01-07,合同会社ＢＡＳＨ,,合同会社,兵庫県,西宮市,戸崎町６－４甲子園Ｇ・Ｈ２０１号室,,28,204,6638121,,,,,,,2026-01-07,1,,,,,バッシュ,0
173,1140003023033,新規,0,2026-01-07,2026-01-07,合同会社子育て支援ジェットの家,,合同会社,兵庫県,川西市,久代２丁目１０－６,,28,217,6660024,,,,,,,2026-01-07,1,,,,,コソダテシテンジェットノイエ,0
174,1140003023058,新規,0,2026-01-07,2026-01-07,ＡＲＣＸ合同会社,,合同会社,兵庫県,西宮市,羽衣町７－３０夙川グリーンタウン３階,,28,204,6620051,,,,,,,2026-01-07,1,,,,,アークス,0
178,1150001028636,新規,0,2026-01-07,2026-01-07,株式会社春和,,株式会社,奈良県,大和郡山市,筒井町５４５番地７,,29,203,6391123,,,,,,,2026-01-07,1,,,,,ハルワ,0
181,1170001018940,新規,0,2026-01-07,2026-01-07,塗仕美工業株式会社,,株式会社,和歌山県,紀の川市,桃山町段４８６番地,,30,208,6496125,,,,,,,2026-01-07,1,,,,,トシビコウギョウ,0
183,1170003002364,新規,0,2026-01-07,2026-01-07,Ｎｏｖａ　Ｖｉｓｉｏｎ　Ｌｉｆｅ　Ｓｃｉｅｎｃｅ合同会社,,合同会社,和歌山県,和歌山市,八番丁９番地,,30,201,6408157,,,,,,,2026-01-07,1,,,,,ノバビジョンライフサイエンス,0
196,1180001169956,新規,0,2026-01-07,2026-01-07,Ｊ‐ＳＩＳ株式会社,,株式会社,愛知県,名古屋市港区,小賀須２丁目２２０９－２,,23,111,4550882,,,,,,,2026-01-07,1,,,,,ジェイシス,0
197,1180001170088,新規,0,2026-01-07,2026-01-07,株式会社Ｓｅｎ．,,株式会社,愛知県,春日井市,東野町９丁目１２番地２１,,23,206,4860817,,,,,,,2026-01-07,1,,,,,セン,0
198,1180001170096,新規,0,2026-01-07,2026-01-07,株式会社ハレトキ,,株式会社,愛知県,知多郡東浦町,大字緒川字東釜池２６番地,,23,442,4702102,,,,,,,2026-01-07,1,,,,,ハレトキ,0
199,1180001170105,新規,0,2026-01-07,2026-01-07,株式会社ステラ,,株式会社,愛知県,名古屋市瑞穂区,春山町６番地の１２,,23,108,4670024,,,,,,,2026-01-07,1,,,,,ステラ,0
200,1180001170113,新規,0,2026-01-07,2026-01-07,株式会社笙工務店,,株式会社,愛知県,瀬戸市,須原町１０９番地の２１,,23,204,4890033,,,,,,,2026-01-07,1,,,,,ショウコウムテン,0
201,1180005021361,新規,0,2026-01-07,2026-01-07,医療法人徳智会,,その他の設立登記法人,愛知県,稲沢市,下津穂所１丁目２番３,,23,220,4928092,,,,,,,2026-01-07,1,,,,,トクチカイ,0
206,1200003007186,新規,0,2026-01-07,2026-01-07,合同会社ＳａｖｅＵ,,合同会社,岐阜県,土岐市,泉町久尻２４番地の１,,21,212,5095142,,,,,,,2026-01-07,1,,,,,セイブユー,0
207,1210001020438,新規,0,2026-01-07,2026-01-07,田渕商事株式会社,,株式会社,福井県,越前市,若松町６番３号,,18,209,9150821,,,,,,,2026-01-07,1,,,,,タブチショウジ,0
208,1210001020446,新規,0,2026-01-07,2026-01-07,Ｆｏｒｔｙ’ｓ株式会社,,株式会社,福井県,鯖江市,杉本町第１８号１番地７,,18,207,9160005,,,,,,,2026-01-07,1,,,,,フォーティーズ,0
210,1210003001997,新規,0,2026-01-07,2026-01-07,かつやま建築合同会社,,合同会社,福井県,福井市,志津が丘４丁目２５７番地,,18,201,9103635,,,,,,,2026-01-07,1,,,,,カツヤマケンチク,0
211,1210005010245,新規,0,2026-01-07,2026-01-07,特定非営利活動法人がんサロン・ロゴス,,その他の設立登記法人,福井県,福井市,二の宮２丁目７番１７号,,18,201,9100015,,,,,,,2026-01-07,1,,,,,ガンサロンロゴス,0
213,1220001027102,新規,0,2026-01-07,2026-01-07,株式会社クラモトアイスグローバル,,株式会社,石川県,金沢市,湊１丁目５５番地２７,,17,201,9200211,,,,,,,2026-01-07,1,,,,,クラモトアイスグローバル,0
214,1220001027110,新規,0,2026-01-07,2026-01-07,株式会社ＮｏＢｏ,,株式会社,石川県,七尾市,白馬町７０部３番地１９,,17,202,9260828,,,,,,,2026-01-07,1,,,,,ノボ,0
221,1240001065983,新規,0,2026-01-07,2026-01-07,株式会社ＡＰＲＥＳ,,株式会社,広島県,福山市,沖野上町４丁目１２番２８号,,34,207,7200825,,,,,,,2026-01-07,1,,,,,アプレ,0
224,1240005016025,新規,0,2026-01-07,2026-01-07,社会保険労務士法人ＭＳＤブレイン,,その他の設立登記法人,広島県,広島市中区,八丁堀１２番２０－８０２号,,34,101,7300013,,,,,,,2026-01-07,1,,,,,エムエスディーブレイン,0
225,1250005009052,新規,0,2026-01-07,2026-01-07,税理士法人アカンパニメント,,その他の設立登記法人,山口県,萩市,大字土原３５番地３たなかセンタービル,,35,204,7580025,,,,,,,2026-01-07,1,,,,,アカンパニメント,0
230,1290001112649,新規,0,2026-01-07,2026-01-07,株式会社スタンドバイ,,株式会社,福岡県,筑紫野市,針摺南２丁目１１番８号,,40,217,8180082,,,,,,,2026-01-07,1,,,,,スタンドバイ,0
231,1290001112673,新規,0,2026-01-07,2026-01-07,株式会社Ｓｐｒｉｎｇ　Ｄａｙ,,株式会社,福岡県,福岡市中央区,渡辺通５丁目１４－１２南天神ビル３Ｆ,,40,133,8100004,,,,,,,2026-01-07,1,,,,,スプリングデイ,0
232,1290001112681,新規,0,2026-01-07,2026-01-07,株式会社ＹＵＲＡＬＩＡ,,株式会社,福岡県,糟屋郡新宮町,上府北１丁目１番４号ＳｕｎＢｕｌｅ１号,,40,345,8110123,,,,,,,2026-01-07,1,,,,,ユラリア,0
233,1290001112764,新規,0,2026-01-07,2026-01-07,株式会社おさむらい,,株式会社,福岡県,福岡市城南区,堤１丁目１３番３６号プラモール８８－１０４号室,,40,136,8140151,,,,,,,2026-01-07,1,,,,,オサムライ,0
239,1290801032146,新規,0,2026-01-07,2026-01-07,株式会社丸幸開発工業,,株式会社,福岡県,北九州市小倉南区,南方２丁目１番２０号,,40,107,8020976,,,,,,,2026-01-07,1,,,,,マルコウカイハツコウギョウ,0
244,1310001019899,新規,0,2026-01-07,2026-01-07,株式会社ＳＡＩＲＹＯＵ,,株式会社,長崎県,長崎市,魚の町６番１５－１００２号,,42,201,8500874,,,,,,,2026-01-07,1,,,,,サイリョウ,0
248,1310003005162,新規,0,2026-01-07,2026-01-07,合同会社となりの事務所,,合同会社,長崎県,長崎市,葉山１丁目６番２号葉山産商ビル３階３０２号室,,42,201,8528053,,,,,,,2026-01-07,1,,,,,トナリノジムショ,0
251,1320005010283,新規,0,2026-01-07,2026-01-07,一般社団法人大分県管路調査協会,,その他の設立登記法人,大分県,別府市,上原町１３番３０号,,44,202,8740829,,,,,,,2026-01-07,1,,,,,オオイタケンカンロチョウサキョウカイ,0
253,1330001033881,新規,0,2026-01-07,2026-01-07,株式会社カネリョウ・ホールディングス,,株式会社,熊本県,宇土市,笹原町１５４４番地,,43,211,8690402,,,,,,,2026-01-07,1,,,,,カネリョウホールディングス,0
254,1340001027874,新規,0,2026-01-07,2026-01-07,株式会社レア,,株式会社,鹿児島県,鹿児島市,田上５丁目４４番２２号,,46,201,8900034,,,,,,,2026-01-07,1,,,,,レア,0
255,1360001036188,新規,0,2026-01-07,2026-01-07,株式会社マル樹,,株式会社,沖縄県,沖縄市,園田３丁目１０番１９号,,47,211,9040022,,,,,,,2026-01-07,1,,,,,マルキ,0
258,1370001053372,新規,0,2026-01-07,2026-01-07,株式会社祐起,,株式会社,宮城県,仙台市青葉区,宮町１丁目１番１５号風香花京院２１１,,04,101,9800004,,,,,,,2026-01-07,1,,,,,ユウキ,0
259,1370003007434,新規,0,2026-01-07,2026-01-07,Ｅｎｌｉｇｈｔ　Ｅｃｈｏ合同会社,,合同会社,宮城県,多賀城市,大代５丁目１１番４２号,,04,209,9850832,,,,,,,2026-01-07,1,,,,,エンライトエコー,0
265,1390001018209,新規,0,2026-01-07,2026-01-07,株式会社松善,,株式会社,山形県,長井市,成田５３２番地７,,06,209,9930075,,,,,,,2026-01-07,1,,,,,マツゼン,0
268,1400003003586,新規,0,2026-01-07,2026-01-07,合同会社熊本,,合同会社,岩手県,下閉伊郡普代村,第２１地割字堀内１０番地２,,03,485,0288302,,,,,,,2026-01-07,1,,,,,クマモト,0
274,1430001095986,新規,0,2026-01-07,2026-01-07,株式会社ｒｅｓｅｔ,,株式会社,北海道,札幌市東区,北十七条東１５丁目４番３０号鴻基ビル１Ｆ,,01,103,0650017,,,,,,,2026-01-07,1,,,,,リセット,0
275,1430001095994,新規,0,2026-01-07,2026-01-07,株式会社ＧＯＫＡＮＢＡ,,株式会社,北海道,札幌市中央区,南四条東４丁目７番地１アルファスクエア南４条東５０３号,,01,101,0600054,,,,,,,2026-01-07,1,,,,,ゴカンバ,0
277,1430005015387,新規,0,2026-01-07,2026-01-07,司法書士法人中嶋・前川事務所,,その他の設立登記法人,北海道,札幌市中央区,大通西１５丁目１番地１９,,01,101,0600042,,,,,,,2026-01-07,1,,,,,ナカシママエカワジムショ,0
278,1450001014820,新規,0,2026-01-07,2026-01-07,株式会社ほっかいどうライス,,株式会社,北海道,雨竜郡沼田町,字共成１６２番地,,01,438,0782213,,,,,,,2026-01-07,1,,,,,ホッカイドウライス,0
281,1480001013051,新規,0,2026-01-07,2026-01-07,株式会社シンライ,,株式会社,徳島県,徳島市,万代町４丁目２９番地１,,36,201,7700941,,,,,,,2026-01-07,1,,,,,,0
287,1500001026711,新規,0,2026-01-07,2026-01-07,株式会社ＧＲＡＣＥ,,株式会社,愛媛県,松山市,保免上２丁目３番５号,,38,201,7900041,,,,,,,2026-01-07,1,,,,,グレース,0
290,1700150133833,新規,0,2026-01-07,2026-01-07,Ｃｈｏｗ　Ｔａｉ　Ｆｏｏｋ　Ｊｅｗｅｌｌｅｒｙ　Ｃｏｍｐａｎｙ　Ｌｉｍｉｔｅｄ,,外国会社等,,,,,,,,３１／Ｆ，３３／Ｆ，３６／Ｆ，３８／Ｆ，Ｎｅｗ　Ｗｏｒｌｄ　Ｔｏｗｅｒ，１６－１８　Ｑｕｅｅｎ’ｓ　Ｒｏａｄ　Ｃｅｎｔｒａｌ，Ｈｏｎｇ　Ｋｏｎｇ,,,,,,2026-01-07,1,,,,,チュウタイフクジュエリーカンパニーリミテッド,0
291,1700150133841,新規,0,2026-01-07,2026-01-07,デンカ健康保険組合,,その他,新潟県,糸魚川市,大字青海２２０９番地,,15,216,9490305,,,,,,,2026-01-07,1,,,,,デンカケンコウホケンクミアイ,0
300,2010001261497,新規,0,2026-01-07,2026-01-07,株式会社ジブリンク,,株式会社,東京都,中央区,日本橋蛎殻町１丁目２７－５Ａビル４階,,13,102,1030014,,,,,,,2026-01-07,1,,,,,ジブリンク,0
301,2010001261613,新規,0,2026-01-07,2026-01-07,株式会社銀座八,,株式会社,東京都,中央区,銀座１丁目１４番１４号中公ビル１階,,13,102,1040061,,,,,,,2026-01-07,1,,,,,ギンザハチ,0
302,2010001261687,新規,0,2026-01-07,2026-01-07,ｃａｅｒｕｌａｂ．株式会社,,株式会社,東京都,中央区,銀座１丁目１２－４Ｎ＆ＥＢＬＤ．７階,,13,102,1040061,,,,,,,2026-01-07,1,,,,,カエルラボ,0
305,2010003049882,新規,0,2026-01-07,2026-01-07,合同会社ＣＨＩＣＡＧＯ,,合同会社,東京都,中央区,新川１丁目１７番１８号,,13,102,1040033,,,,,,,2026-01-07,1,,,,,シカゴ,0
309,2010005041144,新規,0,2026-01-07,2026-01-07,ハートリンク行政書士法人,,その他の設立登記法人,東京都,中央区,日本橋人形町３丁目３番５号,,13,102,1030013,,,,,,,2026-01-07,1,,,,,ハートリンク,0
312,2010401195428,新規,0,2026-01-07,2026-01-07,アコミックファースト株式会社,,株式会社,東京都,港区,東麻布１丁目４番２号ＴＨＥＷＯＲＫＥＲＳ＆ＣＯ６０３,,13,103,1060044,,,,,,,2026-01-07,1,,,,,アコミックファースト,0
313,2010401195576,新規,0,2026-01-07,2026-01-07,ＡＩＯパートナーズ株式会社,,株式会社,東京都,港区,港南２丁目１６番４号,,13,103,1080075,,,,,,,2026-01-07,1,,,,,エーアイオーパートナーズ,0
318,2010501055267,新規,0,2026-01-07,2026-01-07,株式会社イサオ,,株式会社,東京都,台東区,浅草５丁目４８番７号,,13,106,1110032,,,,,,,2026-01-07,1,,,,,イサオ,0
326,2010601068516,新規,0,2026-01-07,2026-01-07,ｓｉｉｉｐ株式会社,,株式会社,東京都,江東区,千田２０番１６号米倉ビル１Ｆ,,13,108,1350013,,,,,,,2026-01-07,1,,,,,シープ,0
331,2010801036941,新規,0,2026-01-07,2026-01-07,株式会社Ｅｃｈｏｌｅ,,株式会社,東京都,大田区,西蒲田８丁目２４番１号,,13,111,1440051,,,,,,,2026-01-07,1,,,,,エコル,0
332,2010803005671,新規,0,2026-01-07,2026-01-07,合同会社オモシレーゼ,,合同会社,東京都,大田区,西蒲田７丁目４－４小山第二ビル６Ｆ,,13,111,1440051,,,,,,,2026-01-07,1,,,,,オモシレーゼ,0
333,2010901058737,新規,0,2026-01-07,2026-01-07,株式会社ｈ＆ｈ,,株式会社,東京都,世田谷区,奥沢４丁目３６番３号,,13,112,1580083,,,,,,,2026-01-07,1,,,,,エイチアンドエイチ,0
339,2011001174656,新規,0,2026-01-07,2026-01-07,株式会社泉,,株式会社,東京都,渋谷区,円山町１１番６号,,13,113,1500044,,,,,,,2026-01-07,1,,,,,イズミ,0
340,2011001174821,新規,0,2026-01-07,2026-01-07,Ｙｅｂｉｓｙｓ　Ｔｅｃｈｎｏｌｏｇｉｅｓ株式会社,,株式会社,東京都,渋谷区,恵比寿西２丁目４番８号,,13,113,1500021,,,,,,,2026-01-07,1,,,,,エビシステクノロジーズ,0
341,2011003023308,新規,0,2026-01-07,2026-01-07,Ｔｒｅｌａ合同会社,,合同会社,東京都,渋谷区,道玄坂１丁目１０番８号渋谷道玄坂東急ビル２Ｆ－Ｃ,,13,113,1500043,,,,,,,2026-01-07,1,,,,,トレラ,0
343,2011101114297,新規,0,2026-01-07,2026-01-07,株式会社アリュート,,株式会社,東京都,新宿区,西新宿６丁目５番１号新宿アイランドタワー２階,,13,104,1600023,,,,,,,2026-01-07,1,,,,,アリュート,0
344,2011101114347,新規,0,2026-01-07,2026-01-07,株式会社ファントラディア,,株式会社,東京都,新宿区,西新宿３丁目３番１３号西新宿水間ビル２Ｆ,,13,104,1600023,,,,,,,2026-01-07,1,,,,,ファントラディア,0
345,2011103016839,新規,0,2026-01-07,2026-01-07,Ｗｏｒｌｄ　ＳＫＹ　Ｌｉｎｋｓ合同会社,,合同会社,東京都,新宿区,新宿７丁目１２番１号新宿平和ビル１階,,13,104,1600022,,,,,,,2026-01-07,1,,,,,ワールドスカイリンクス,0
346,2011501032974,新規,0,2026-01-07,2026-01-07,株式会社柏屋設計工務店,,株式会社,東京都,荒川区,東尾久１丁目１１番８号,,13,118,1160012,,,,,,,2026-01-07,1,,,,,カシワヤセッケイコウムテン,0
348,2011505002718,新規,0,2026-01-07,2026-01-07,一般社団法人ＧＫＬＣ,,その他の設立登記法人,東京都,北区,東十条５丁目８番２２,,13,117,1140001,,,,,,,2026-01-07,1,,,,,ジーケーエルシー,0
350,2011603004970,新規,0,2026-01-07,2026-01-07,合同会社ＡｒｃｈＣｏｎｓ,,合同会社,東京都,練馬区,石神井台４丁目１０番２０－３０７号,,13,120,1770045,,,,,,,2026-01-07,1,,,,,アークコンズ,0
351,2011701029069,新規,0,2026-01-07,2026-01-07,株式会社エアケア,,株式会社,東京都,江戸川区,平井７丁目５－２３,,13,123,1320035,,,,,,,2026-01-07,1,,,,,エアケア,0
352,2012301014667,新規,0,2026-01-07,2026-01-07,町田住設株式会社,,株式会社,東京都,町田市,金井５丁目２７番１２号,,13,209,1950072,,,,,,,2026-01-07,1,,,,,マチダジュウセツ,0
354,2012701019258,新規,0,2026-01-07,2026-01-07,ホタルワークス株式会社,,株式会社,東京都,小平市,栄町１丁目４番２１号,,13,211,1870034,,,,,,,2026-01-07,1,,,,,ホタルワークス,0
356,2013305003813,新規,0,2026-01-07,2026-01-07,一般社団法人歌唱印税を考える会,,その他の設立登記法人,東京都,豊島区,西池袋４丁目２３番１１号,,13,116,1710021,,,,,,,2026-01-07,1,,,,,カショウインゼイヲカンガエルカイ,0
362,2020001166373,新規,0,2026-01-07,2026-01-07,中村ＡＩ＆採用研究所株式会社,,株式会社,神奈川県,横浜市港北区,日吉７丁目６番５－３０７号,,14,109,2230061,,,,,,,2026-01-07,1,,,,,ナカムラエーアイアンドサイヨウケンキュウジョ,0
363,2020003030057,新規,0,2026-01-07,2026-01-07,ＯＩＤ合同会社,,合同会社,神奈川県,川崎市宮前区,菅生１丁目１８番２０－２号,,14,136,2160015,,,,,,,2026-01-07,1,,,,,オーアイディー,0
364,2020003030065,新規,0,2026-01-07,2026-01-07,合同会社Ｂｏｈｏ　Ｊａｐａｎ,,合同会社,神奈川県,横浜市中区,不老町１丁目６番１０号苗場ビル２階Ｂ－１３号,,14,104,2310032,,,,,,,2026-01-07,1,,,,,ボーホージャパン,0
365,2020003030115,新規,0,2026-01-07,2026-01-07,ＨＩＧＵｐｌｕｓ合同会社,,合同会社,神奈川県,横浜市金沢区,瀬戸５番２―２０５号,,14,108,2360027,,,,,,,2026-01-07,1,,,,,ヒグプラス,0
366,2020003030123,新規,0,2026-01-07,2026-01-07,ハクジャキューブ合同会社,,合同会社,神奈川県,川崎市幸区,小倉１番地１Ｆ―４１５,,14,132,2120054,,,,,,,2026-01-07,1,,,,,ハクジャキューブ,0
374,2030001170366,新規,0,2026-01-07,2026-01-07,株式会社未来巧舎,,株式会社,埼玉県,さいたま市浦和区,上木崎２丁目１４番１６号,,11,107,3300071,,,,,,,2026-01-07,1,,,,,ミライコウシャ,0
383,2040001141993,新規,0,2026-01-07,2026-01-07,株式会社スターズエステート,,株式会社,千葉県,松戸市,稔台１丁目３７番地の８－１階,,12,207,2702231,,,,,,,2026-01-07,1,,,,,スターズエステート,0
386,2040003029238,新規,0,2026-01-07,2026-01-07,合同会社ｂｅｔｈｔｙｌｅ,,合同会社,千葉県,印西市,草深１６８５番地５,,12,231,2701337,,,,,,,2026-01-07,1,,,,,ベスタイル,0
390,2060001038908,新規,0,2026-01-07,2026-01-07,株式会社手塚工業,,株式会社,栃木県,宇都宮市,下川俣町２０６番地２３サンポワール宇都宮２０１号,,09,201,3210972,,,,,,,2026-01-07,1,,,,,テツカコウギョウ,0
391,2060003005914,新規,0,2026-01-07,2026-01-07,合同会社咲八,,合同会社,栃木県,大田原市,末広３丁目２８４４番地８,,09,210,3240042,,,,,,,2026-01-07,1,,,,,サクハチ,0
395,2070003006234,新規,0,2026-01-07,2026-01-07,合同会社やまゆう,,合同会社,群馬県,吾妻郡中之条町,大字大塚２０８番地１,,10,421,3770413,,,,,,,2026-01-07,1,,,,,ヤマユウ,0
396,2080001027355,新規,0,2026-01-07,2026-01-07,株式会社ＫＩＪＩＭＡ,,株式会社,静岡県,静岡市葵区,千代２丁目１０番５５号,,22,101,4211212,,,,,,,2026-01-07,1,,,,,キジマ,0
397,2080001027363,新規,0,2026-01-07,2026-01-07,株式会社薮崎工業,,株式会社,静岡県,藤枝市,岡部町岡部３９７番地の１,,22,214,4211121,,,,,,,2026-01-07,1,,,,,ヤブザキコウギョウ,0
398,2080401028358,新規,0,2026-01-07,2026-01-07,株式会社Ｋｏｍｕｇｉ．,,株式会社,静岡県,浜松市中央区,上島１丁目１７番３３号,,22,138,4338122,,,,,,,2026-01-07,1,,,,,コムギ,0
400,2090001019681,新規,0,2026-01-07,2026-01-07,株式会社クレマチス,,株式会社,山梨県,甲府市,国母１丁目６番１７号,,19,201,4000043,,,,,,,2026-01-07,1,,,,,クレマチス,0
402,2100001039240,新規,0,2026-01-07,2026-01-07,株式会社てんてこまい,,株式会社,長野県,松本市,中央３丁目２番１３号,,20,202,3900811,,,,,,,2026-01-07,1,,,,,テンテコマイ,0
406,2100003008557,新規,0,2026-01-07,2026-01-07,合同会社ＡＤＥＲｉ,,合同会社,長野県,須坂市,大字豊丘３７５番地１９,,20,207,3820921,,,,,,,2026-01-07,1,,,,,アデリ,0
407,2100005013431,新規,0,2026-01-07,2026-01-07,あがたグローバル行政書士法人,,その他の設立登記法人,長野県,長野市,南石堂町１２９３番地３長栄南石堂ビル,,20,201,3810000,,,,,,,2026-01-07,1,,,,,アガタグローバル,0
408,2110001039826,新規,0,2026-01-07,2026-01-07,株式会社わかつきキャリアパートナーズ,,株式会社,新潟県,新潟市東区,東中島４丁目１番３０号,,15,102,9500823,,,,,,,2026-01-07,1,,,,,ワカツキキャリアパートナーズ,0
423,2120001283084,新規,0,2026-01-07,2026-01-07,株式会社フラッグ,,株式会社,大阪府,大阪市北区,梅田１丁目１‐３大阪駅前第３ビル２９階１‐１‐１号室,,27,127,5300001,,,,,,,2026-01-07,1,,,,,フラッグ,0
424,2120001283118,新規,0,2026-01-07,2026-01-07,徳信株式会社,,株式会社,大阪府,大阪市中央区,南船場４丁目９－６－５０４号室,,27,128,5420081,,,,,,,2026-01-07,1,,,,,トクシン,0
425,2120001283134,新規,0,2026-01-07,2026-01-07,株式会社ＥＷ,,株式会社,大阪府,大阪市都島区,高倉町１丁目９番２８－３０６号,,27,102,5340011,,,,,,,2026-01-07,1,,,,,イーダブリュー,0
426,2120001283142,新規,0,2026-01-07,2026-01-07,株式会社Ｉｒｏｈａ,,株式会社,大阪府,大阪市浪速区,元町２丁目３－１４－２０４,,27,111,5560016,,,,,,,2026-01-07,1,,,,,イロハ,0
427,2120001283191,新規,0,2026-01-07,2026-01-07,株式会社イート,,株式会社,大阪府,大阪市淀川区,加島３丁目１１番５３－９０４号,,27,123,5320031,,,,,,,2026-01-07,1,,,,,イート,0
430,2120101073006,新規,0,2026-01-07,2026-01-07,株式会社へいきんだい,,株式会社,大阪府,泉大津市,森町２丁目３番１４号,,27,206,5950005,,,,,,,2026-01-07,1,,,,,ヘイキンダイ,0
431,2120101073030,新規,0,2026-01-07,2026-01-07,株式会社バロウズ,,株式会社,大阪府,泉大津市,助松町１丁目３番３３号エクセラート北助松８０６号,,27,206,5950071,,,,,,,2026-01-07,1,,,,,バロウズ,0
432,2120103006921,新規,0,2026-01-07,2026-01-07,合同会社ＭＵＵ,,合同会社,大阪府,富田林市,錦織南１丁目１３番２７号－１０２,,27,214,5840067,,,,,,,2026-01-07,1,,,,,ムウ,0
435,2120903006022,新規,0,2026-01-07,2026-01-07,合同会社メディカルブレインサービス,,合同会社,大阪府,吹田市,山田東２丁目１０番１５－４０１号,,27,205,5650821,,,,,,,2026-01-07,1,,,,,メディカルブレインサービス,0
440,2130001081322,新規,0,2026-01-07,2026-01-07,株式会社ＰＥＰＥＲＡＣＨＡ,,株式会社,京都府,京都市左京区,岩倉村松町４４番地６,,26,103,6060034,,,,,,,2026-01-07,1,,,,,ペペラッチャ,0
441,2130001081339,新規,0,2026-01-07,2026-01-07,かわい工務店株式会社,,株式会社,京都府,亀岡市,東つつじケ丘都台２丁目６番１２号,,26,206,6210832,,,,,,,2026-01-07,1,,,,,カワイコウムテン,0
443,2130003011046,新規,0,2026-01-07,2026-01-07,合同会社ｇｒｏｗｔｈ,,合同会社,京都府,京都市南区,上鳥羽金仏町４４番地,,26,107,6018175,,,,,,,2026-01-07,1,,,,,グロース,0
447,2140001141265,新規,0,2026-01-07,2026-01-07,美信株式会社,,株式会社,兵庫県,神戸市中央区,浜辺通６丁目１番１－１４０７号,,28,110,6510083,,,,,,,2026-01-07,1,,,,,ビシン,0
448,2140001141281,新規,0,2026-01-07,2026-01-07,株式会社Ｍａｚｅ,,株式会社,兵庫県,神戸市灘区,篠原南町６丁目８番５号,,28,102,6570059,,,,,,,2026-01-07,1,,,,,メイズ,0
449,2140003023016,新規,0,2026-01-07,2026-01-07,合同会社ＩＮＦＩＮＩＴＹ,,合同会社,兵庫県,明石市,大久保町江井島５０７番地の５,,28,203,6740064,,,,,,,2026-01-07,1,,,,,インフィニティ,0
450,2140003023024,新規,0,2026-01-07,2026-01-07,Ａｉｃｈｉｂａｎ　Ｔｒａｄｉｎｇ　Ｇｒｏｕｐ合同会社,,合同会社,兵庫県,佐用郡佐用町,才金５２９番地１,,28,501,6795502,,,,,,,2026-01-07,1,,,,,アイチバントレーディンググループ,0
451,2140003023049,新規,0,2026-01-07,2026-01-07,Ｎａｔｕｒａケア合同会社,,合同会社,兵庫県,神戸市須磨区,道正台１丁目３番６－１２１０号,,28,107,6540122,,,,,,,2026-01-07,1,,,,,ナチュラケア,0
452,2140003023057,新規,0,2026-01-07,2026-01-07,合同会社リンクス,,合同会社,兵庫県,小野市,黒川町１３８－１グリーンルミナスＣ１０２,,28,218,6751371,,,,,,,2026-01-07,1,,,,,リンクス,0
453,2150001028627,新規,0,2026-01-07,2026-01-07,株式会社レガシービルダーズ,,株式会社,奈良県,橿原市,曽我町３５２番地の４,,29,205,6340831,,,,,,,2026-01-07,1,,,,,レガシービルダーズ,0
454,2150001028635,新規,0,2026-01-07,2026-01-07,株式会社ｒｅｆ．ｔｅｃ,,株式会社,奈良県,生駒郡安堵町,大字西安堵４３３番地の１,,29,345,6391066,,,,,,,2026-01-07,1,,,,,レフテック,0
455,2150003003792,新規,0,2026-01-07,2026-01-07,合同会社レイ,,合同会社,奈良県,奈良市,大宮町１丁目１番１２号,,29,201,6308115,,,,,,,2026-01-07,1,,,,,レイ,0
463,2180001169955,新規,0,2026-01-07,2026-01-07,株式会社ムネハズ,,株式会社,愛知県,長久手市,打越２３０ビラ稲垣３０３号,,23,238,4801152,,,,,,,2026-01-07,1,,,,,ムネハズ,0
464,2180001170095,新規,0,2026-01-07,2026-01-07,株式会社Ｂａｍｂｉｎｏ　Ｊａｐａｎ,,株式会社,愛知県,名古屋市熱田区,明野町３番３４号―２,,23,109,4560071,,,,,,,2026-01-07,1,,,,,バンビーノジャパン,0
465,2180001170129,新規,0,2026-01-07,2026-01-07,株式会社ステップ,,株式会社,愛知県,名古屋市中村区,城屋敷町４丁目１３番地の１,,23,105,4530058,,,,,,,2026-01-07,1,,,,,ステップ,0
466,2180005021369,新規,0,2026-01-07,2026-01-07,医療法人スマイルシード,,その他の設立登記法人,愛知県,名古屋市中川区,太平通２丁目３８番地,,23,110,4540838,,,,,,,2026-01-07,1,,,,,スマイルシード,0
467,2180005021377,新規,0,2026-01-07,2026-01-07,一般社団法人みらとも,,その他の設立登記法人,愛知県,名古屋市熱田区,西野町１丁目１０番地の３,,23,109,4560063,,,,,,,2026-01-07,1,,,,,ミラトモ,0
469,2180301040543,新規,0,2026-01-07,2026-01-07,株式会社ＡＸＩＳ,,株式会社,愛知県,岡崎市,正名町字中之切１１番地２,,23,202,4440221,,,,,,,2026-01-07,1,,,,,アクシス,0
472,2190001032798,新規,0,2026-01-07,2026-01-07,株式会社共栄工業,,株式会社,三重県,桑名市,大字和泉６３５番地３,,24,205,5110838,,,,,,,2026-01-07,1,,,,,キョウエイコウギョウ,0
474,2200001044569,新規,0,2026-01-07,2026-01-07,岐阜電力ホールディングス株式会社,,株式会社,岐阜県,瑞穂市,馬場春雨町１丁目３１番地,,21,216,5010204,,,,,,,2026-01-07,1,,,,,ギフデンリョクホールディングス,0
475,2200001044577,新規,0,2026-01-07,2026-01-07,株式会社三條,,株式会社,岐阜県,羽島郡笠松町,北及６５８番地,,21,303,5016064,,,,,,,2026-01-07,1,,,,,サンジョウ,0
476,2210001020445,新規,0,2026-01-07,2026-01-07,株式会社ＥＶＯＵＧＥ,,株式会社,福井県,福井市,高柳１丁目１５０１番地花一倉庫２階,,18,201,9100837,,,,,,,2026-01-07,1,,,,,イヴォーグ,0
477,2210003001996,新規,0,2026-01-07,2026-01-07,合同会社清水緑水会,,合同会社,福井県,福井市,小羽町第１２号１８番地,,18,201,9103621,,,,,,,2026-01-07,1,,,,,シミズリョクスイカイ,0
480,2220001027101,新規,0,2026-01-07,2026-01-07,株式会社ｌａｗ,,株式会社,石川県,金沢市,片町１丁目１２番２６号２階,,17,201,9200981,,,,,,,2026-01-07,1,,,,,ロウ,0
484,2240001065999,新規,0,2026-01-07,2026-01-07,株式会社Ｋホールディングス,,株式会社,広島県,広島市西区,大宮２丁目１番１０号,,34,104,7330007,,,,,,,2026-01-07,1,,,,,ケイホールディングス,0
485,2240001066015,新規,0,2026-01-07,2026-01-07,株式会社つきさゆ,,株式会社,広島県,広島市安佐南区,八木９丁目２４－２４,,34,105,7310101,,,,,,,2026-01-07,1,,,,,ツキサユ,0
488,2240005016024,新規,0,2026-01-07,2026-01-07,一般社団法人広島県キッチンカー協会,,その他の設立登記法人,広島県,福山市,神辺町字十九軒屋２５３番地２,,34,207,7202106,,,,,,,2026-01-07,1,,,,,ヒロシマケンキッチンカーキョウカイ,0
490,2250001021489,新規,0,2026-01-07,2026-01-07,株式会社ヒストリー３,,株式会社,山口県,山口市,吉田字中河内２４６４番地１０,,35,203,7530841,,,,,,,2026-01-07,1,,,,,ヒストリーサン,0
491,2250005009051,新規,0,2026-01-07,2026-01-07,社会保険労務士法人アスナローム,,その他の設立登記法人,山口県,宇部市,明治町１丁目８番１１号,,35,202,7550013,,,,,,,2026-01-07,1,,,,,アスナローム,0
494,2260001040868,新規,0,2026-01-07,2026-01-07,株式会社Ｙ’ｓ　ｏｎｅ,,株式会社,岡山県,岡山市南区,藤田５４６番地２,,33,104,7010221,,,,,,,2026-01-07,1,,,,,ワイズワン,0
495,2260001040876,新規,0,2026-01-07,2026-01-07,株式会社岡建,,株式会社,岡山県,岡山市中区,海吉１８９７番地３Ａ棟,,33,102,7038261,,,,,,,2026-01-07,1,,,,,オカケン,0
496,2260003005472,新規,0,2026-01-07,2026-01-07,ウッチ合同会社,,合同会社,岡山県,岡山市南区,藤田６６５番地３１,,33,104,7010221,,,,,,,2026-01-07,1,,,,,ウッチ,0
503,2290801032129,新規,0,2026-01-07,2026-01-07,株式会社ツリーアセット,,株式会社,福岡県,北九州市小倉北区,木町１丁目７番３３号,,40,106,8030851,,,,,,,2026-01-07,1,,,,,ツリーアセット,0
504,2290805009890,新規,0,2026-01-07,2026-01-07,ＮＰＯ法人ライフスパン,,その他の設立登記法人,福岡県,宮若市,龍徳１１０６番地１７,,40,226,8230001,,,,,,,2026-01-07,1,,,,,エヌピーオーホウジンライフスパン,0
508,2310001019898,新規,0,2026-01-07,2026-01-07,株式会社若義水産,,株式会社,長崎県,雲仙市,小浜町富津２５８５番地,,42,213,8540516,,,,,,,2026-01-07,1,,,,,ワカヨシスイサン,0
509,2310001019907,新規,0,2026-01-07,2026-01-07,キャリアワークス企画株式会社,,株式会社,長崎県,佐世保市,原分町３５２番地３,,42,202,8570103,,,,,,,2026-01-07,1,,,,,キャリアワークスキカク,0
511,2310003005161,新規,0,2026-01-07,2026-01-07,Ｙｕｕｗａ　Ｂａｓｅ合同会社,,合同会社,長崎県,長崎市,赤迫１丁目２番３－２０２号,,42,201,8528156,,,,,,,2026-01-07,1,,,,,ユーワベース,0
520,2360003015528,新規,0,2026-01-07,2026-01-07,創合同会社,,合同会社,沖縄県,中頭郡中城村,字南上原４０４番地１‐１２８街区７画地,,47,328,9012424,,,,,,,2026-01-07,1,,,,,ソウ,0
524,2390001018199,新規,0,2026-01-07,2026-01-07,メンタルラボ・こころトレック株式会社,,株式会社,山形県,鶴岡市,朝暘町１６番９号,,06,203,9970024,,,,,,,2026-01-07,1,,,,,メンタルラボココロトレック,0
525,2390001018208,新規,0,2026-01-07,2026-01-07,株式会社米日和り,,株式会社,山形県,酒田市,飛鳥５１番地,,06,204,9996711,,,,,,,2026-01-07,1,,,,,コメビヨリ,0
528,2400001017273,新規,0,2026-01-07,2026-01-07,株式会社吉田ファームＲｏｏｔｓ＆Ｈｏｏｆｓ,,株式会社,岩手県,紫波郡紫波町,南伝法寺字和田９３番地,,03,321,0283445,,,,,,,2026-01-07,1,,,,,ヨシダファームルーツアンドフーフス,0
531,2410001014352,新規,0,2026-01-07,2026-01-07,株式会社ａｋａｕｌｕ,,株式会社,秋田県,雄勝郡東成瀬村,田子内字仙人下３０－１東成瀬村山村開発センター,,05,464,0190801,,,,,,,2026-01-07,1,,,,,アカウル,0
532,2410003004194,新規,0,2026-01-07,2026-01-07,合同会社大眞,,合同会社,秋田県,湯沢市,清水町６丁目２番２９号第二コーポマルシン１０２,,05,207,0120033,,,,,,,2026-01-07,1,,,,,,0
537,2430001095977,新規,0,2026-01-07,2026-01-07,株式会社未来,,株式会社,北海道,札幌市中央区,北一条西８丁目２番地４０ＩＳＭ札幌大通２Ｆ,,01,101,0600001,,,,,,,2026-01-07,1,,,,,ミライ,0
538,2430001095985,新規,0,2026-01-07,2026-01-07,ＷＡＤＡホールディングス株式会社,,株式会社,北海道,余市郡余市町,大川町１５丁目６番地１,,01,408,0460004,,,,,,,2026-01-07,1,,,,,ワダホールディングス,0
540,2430005015378,新規,0,2026-01-07,2026-01-07,白老牛生産者事業協同組合,,その他の設立登記法人,北海道,白老郡白老町,字社台２８４番地３９,,01,578,0590901,,,,,,,2026-01-07,1,,,,,シラオイギュウセイサンシャ,0
541,2440003001742,新規,0,2026-01-07,2026-01-07,合同会社Ｓｉｎｏｔ　ＰＩＺＺＡ,,合同会社,北海道,函館市,本町４－１５,,01,202,0400011,,,,,,,2026-01-07,1,,,,,シノピザ,0
544,2460103001772,新規,0,2026-01-07,2026-01-07,Ｍｓ．ＰＬＵＳ合同会社,,合同会社,北海道,帯広市,西五条南３８丁目２番１５－１０３号,,01,207,0800015,,,,,,,2026-01-07,1,,,,,エムエスプラス,0
547,2470003003050,新規,0,2026-01-07,2026-01-07,合同会社田村堂,,合同会社,香川県,丸亀市,山北町３９６番地８,,37,202,7630072,,,,,,,2026-01-07,1,,,,,,0
555,2700150133832,新規,0,2026-01-07,2026-01-07,Ｓｈｅｎｚｈｅｎ　Ｃｈｅｎｇｆｅｎｇ　Ｔｒａｄｉｎｇ　Ｃｏ．，Ｌｔｄ．,,外国会社等,,,,,,,,Ｒｏｏｍ　２０７Ａ，２ｎｄ　Ｆｌｏｏｒ，Ｎ＋　Ｃｈｕａｎｇｈｕｉ　Ｂｕｉｌｄｉｎｇ　１５　Ｔｉａｎ’ａｎ　Ｒｏａｄ，Ｂａｎｔｉａｎ　Ｃｏｍｍｕｎｉｔｙ，Ｂａｎｔｉａｎ　Ｓｕｂｄｉｓｔｒｉｃｔ　Ｌｏｎｇｇａｎｇ　Ｄｉｓｔｒｉｃｔ，Ｓｈｅｎｚｈｅｎ,,,,,,2026-01-07,1,,,,,シンセンチェンフォントレーディングカンパニーリミテッド,0
556,2700150133840,新規,0,2026-01-07,2026-01-07,ＤＯＷＡ健康保険組合,,その他,東京都,千代田区,外神田４丁目１４－１　秋葉原ＵＤＸビル　２２Ｆ,,13,101,1010021,,,,,,,2026-01-07,1,,,,,ドウワケンコウホケンクミアイ,0
566,3010001261620,新規,0,2026-01-07,2026-01-07,ろじこらぼ株式会社,,株式会社,東京都,中央区,銀座１丁目１２番４号Ｎ＆Ｅ　ＢＬＤ．６Ｆ,,13,102,1040061,,,,,,,2026-01-07,1,,,,,ロジコラボ,0
567,3010003049840,新規,0,2026-01-07,2026-01-07,合同会社蒼風,,合同会社,東京都,中央区,銀座１丁目１２－４－６Ｆ,,13,102,1040061,,,,,,,2026-01-07,1,,,,,ソウフウ,0
568,3010003049873,新規,0,2026-01-07,2026-01-07,ＤＭＢＬ２合同会社,,合同会社,東京都,中央区,日本橋１丁目４番１号日本橋一丁目ビルディング,,13,102,1030027,,,,,,,2026-01-07,1,,,,,ダンベルツー,0
574,3010401195534,新規,0,2026-01-07,2026-01-07,モーヴアーマネージ株式会社,,株式会社,東京都,港区,芝浦４丁目１５番１－５０３号,,13,103,1080023,,,,,,,2026-01-07,1,,,,,モーヴアーマネージ,0
575,3010401195542,新規,0,2026-01-07,2026-01-07,株式会社ＴＲＹＵ,,株式会社,東京都,港区,浜松町１丁目３０番５号浜松町スクエア９階,,13,103,1050013,,,,,,,2026-01-07,1,,,,,トライユー,0
576,3010401195575,新規,0,2026-01-07,2026-01-07,Ａｍｉｃｏ株式会社,,株式会社,東京都,港区,高輪４丁目２３番６－３０６号,,13,103,1080074,,,,,,,2026-01-07,1,,,,,アミコ,0
581,3010403036918,新規,0,2026-01-07,2026-01-07,合同会社Ｋ９ライフ,,合同会社,東京都,港区,高輪４丁目２３－６ハイホーム高輪７０８,,13,103,1080074,,,,,,,2026-01-07,1,,,,,ケーナインライフ,0
582,3010403036959,新規,0,2026-01-07,2026-01-07,ＪＡＰＡＲＩＳＥ合同会社,,合同会社,東京都,港区,南麻布４丁目１１番３５－７１７号,,13,103,1060047,,,,,,,2026-01-07,1,,,,,ジャパリーズ,0
583,3010403036975,新規,0,2026-01-07,2026-01-07,合同会社Ａｓｔｒｅｌｉａ,,合同会社,東京都,港区,六本木３丁目１６番１２号六本木ＫＳビル５Ｆ,,13,103,1060032,,,,,,,2026-01-07,1,,,,,アストレリア,0
584,3010405025126,新規,0,2026-01-07,2026-01-07,一般社団法人オーバーコンプライアンス改革推進協会,,その他の設立登記法人,東京都,港区,南青山４丁目１８番１１号フォレストヒルズイーストウイング２Ｆ,,13,103,1070062,,,,,,,2026-01-07,1,,,,,オーバーコンプライアンスカイカクスイシンキョウカイ,0
586,3010601068531,新規,0,2026-01-07,2026-01-07,株式会社ＥＺプランニング,,株式会社,東京都,江東区,亀戸６丁目２９番４号,,13,108,1360071,,,,,,,2026-01-07,1,,,,,イーゼットプランニング,0
588,3010605004540,新規,0,2026-01-07,2026-01-07,一般社団法人日本墓苑推進協会,,その他の設立登記法人,東京都,墨田区,吾妻橋２丁目２番４号フェイスティ・ワン６階,,13,107,1300001,,,,,,,2026-01-07,1,,,,,ニホンボエンスイシンキョウカイ,0
591,3010801036932,新規,0,2026-01-07,2026-01-07,株式会社晴天,,株式会社,東京都,大田区,大森北１丁目３０番４号小池ビル２階,,13,111,1430016,,,,,,,2026-01-07,1,,,,,ハレゾラ,0
592,3010803005662,新規,0,2026-01-07,2026-01-07,合同会社Ｎ．Ｓグループ,,合同会社,東京都,大田区,西糀谷３丁目４０－３－１０１,,13,111,1440034,,,,,,,2026-01-07,1,,,,,エヌエスグループ,0
593,3010803005670,新規,0,2026-01-07,2026-01-07,ライクワット合同会社,,合同会社,東京都,大田区,南馬込１丁目２４番４号,,13,111,1430025,,,,,,,2026-01-07,1,,,,,ライクワット,0
601,3010901058728,新規,0,2026-01-07,2026-01-07,株式会社コアカイ,,株式会社,東京都,世田谷区,上野毛２丁目２２番９号１０４,,13,112,1580093,,,,,,,2026-01-07,1,,,,,コアカイ,0
606,3011001174309,新規,0,2026-01-07,2026-01-07,株式会社ＪＴＬ,,株式会社,東京都,渋谷区,渋谷３丁目２番４号帝都青山第２ビル４Ｆ・５Ｆ,,13,113,1500002,,,,,,,2026-01-07,1,,,,,ジェイティーエル,0
607,3011001174663,新規,0,2026-01-07,2026-01-07,株式会社Ｎｏｖａｓ,,株式会社,東京都,目黒区,下目黒１丁目１番１４号コノトラビル７Ｆ,,13,110,1530064,,,,,,,2026-01-07,1,,,,,ノヴァス,0
608,3011001174721,新規,0,2026-01-07,2026-01-07,ＴＡＧプランニング株式会社,,株式会社,東京都,目黒区,三田２丁目１５番４号メグロサンシャインヒルズ１０２,,13,110,1530062,,,,,,,2026-01-07,1,,,,,ティーエージープランニング,0
609,3011001174820,新規,0,2026-01-07,2026-01-07,株式会社Ｓｏｒｂｉｔ,,株式会社,東京都,渋谷区,道玄坂１丁目１０番８号渋谷道玄坂東急ビル２Ｆ－Ｃ,,13,113,1500043,,,,,,,2026-01-07,1,,,,,ソービット,0
615,3011101114271,新規,0,2026-01-07,2026-01-07,株式会社ＦＣＯＭ,,株式会社,東京都,新宿区,西新宿３丁目５－１２トーカン新宿第２キャステール２０９号室,,13,104,1600023,,,,,,,2026-01-07,1,,,,,エフコム,0
620,3011401027693,新規,0,2026-01-07,2026-01-07,株式会社ねこのて,,株式会社,東京都,板橋区,向原３丁目１０番１５－４０１号,,13,119,1730036,,,,,,,2026-01-07,1,,,,,ネコノテ,0
623,3011801047267,新規,0,2026-01-07,2026-01-07,株式会社ものづくり医療センター,,株式会社,東京都,足立区,足立１丁目１２－１２足立メディカルモール９階,,13,121,1200015,,,,,,,2026-01-07,1,,,,,モノヅクリイリョウセンター,0
624,3011803007244,新規,0,2026-01-07,2026-01-07,合同会社ＷＡＫＵＷＡＫＵ,,合同会社,東京都,足立区,六町１丁目１２番１１号,,13,121,1210073,,,,,,,2026-01-07,1,,,,,ワクワク,0
625,3011805003506,新規,0,2026-01-07,2026-01-07,一般社団法人くびれ脚,,その他の設立登記法人,東京都,葛飾区,立石６丁目３１番１０－４０２号,,13,122,1240012,,,,,,,2026-01-07,1,,,,,クビレアシ,0
626,3012303002264,新規,0,2026-01-07,2026-01-07,ＧＵＲＡ合同会社,,合同会社,東京都,町田市,鶴間４丁目１８―１―３０３パークビレッジ南町田,,13,209,1940004,,,,,,,2026-01-07,1,,,,,グラ,0
631,3013301055551,新規,0,2026-01-07,2026-01-07,株式会社ａｍｉｒａ,,株式会社,東京都,豊島区,池袋本町４丁目３番３号ＱｔＩｋｅｂｕｋｕｒｏ４０３号室,,13,116,1700011,,,,,,,2026-01-07,1,,,,,アミラ,0
640,3020001166463,新規,0,2026-01-07,2026-01-07,株式会社ＴＪ　ＳＴＹＬＥ,,株式会社,神奈川県,横浜市南区,別所５丁目２３番１号メゾンアタカ３０１号,,14,105,2320064,,,,,,,2026-01-07,1,,,,,ティージェースタイル,0
641,3020001166513,新規,0,2026-01-07,2026-01-07,株式会社りきさん,,株式会社,神奈川県,横浜市西区,浅間町１丁目４番３号ウィザードビル４０２,,14,103,2200072,,,,,,,2026-01-07,1,,,,,リキサン,0
642,3020001166521,新規,0,2026-01-07,2026-01-07,株式会社シャルム,,株式会社,神奈川県,横浜市緑区,いぶき野４３番地２,,14,113,2260028,,,,,,,2026-01-07,1,,,,,シャルム,0
650,3030001170373,新規,0,2026-01-07,2026-01-07,エムホールディングス株式会社,,株式会社,埼玉県,入間市,牛沢町１番６号,,11,225,3580051,,,,,,,2026-01-07,1,,,,,エムホールディングス,0
659,3030003028355,新規,0,2026-01-07,2026-01-07,龍越合同会社,,合同会社,埼玉県,川口市,本蓮１丁目７－２３コージーハウスみらい３号室,,11,203,3340076,,,,,,,2026-01-07,1,,,,,リュウエツ,0
662,3040001141976,新規,0,2026-01-07,2026-01-07,株式会社あかり,,株式会社,千葉県,野田市,古布内１７３０番地,,12,208,2700221,,,,,,,2026-01-07,1,,,,,アカリ,0
663,3040001141992,新規,0,2026-01-07,2026-01-07,株式会社碧葉工業,,株式会社,千葉県,市原市,青葉台１丁目９番地１ファミール青葉台１棟１０２号,,12,219,2990117,,,,,,,2026-01-07,1,,,,,アオバコウギョウ,0
664,3040001142000,新規,0,2026-01-07,2026-01-07,株式会社御宿海辺の庭,,株式会社,千葉県,茂原市,南吉田２８３１－１１,,12,210,2994104,,,,,,,2026-01-07,1,,,,,オンジュクウミベノニワ,0
666,3040003029237,新規,0,2026-01-07,2026-01-07,合同会社ＧＲＡＣＥ,,合同会社,千葉県,市川市,原木１丁目１１番９号,,12,203,2720004,,,,,,,2026-01-07,1,,,,,グレース,0
672,3070001043699,新規,0,2026-01-07,2026-01-07,株式会社Ｒｏｓａｌｉｅｈｉｌｌ,,株式会社,群馬県,富岡市,中高瀬６２４－５,,10,210,3702333,,,,,,,2026-01-07,1,,,,,,0
676,3100001039231,新規,0,2026-01-07,2026-01-07,株式会社ワクフリスタジオ,,株式会社,長野県,上田市,古里１５５２番地２７,,20,203,3860005,,,,,,,2026-01-07,1,,,,,ワクフリスタジオ,0
678,3100003008556,新規,0,2026-01-07,2026-01-07,合同会社Ｐｅｒｒｉｂｅｒｒｙ,,合同会社,長野県,須坂市,大字豊丘４０２番地１０,,20,207,3820921,,,,,,,2026-01-07,1,,,,,ペリーベリー,0
680,3110001039809,新規,0,2026-01-07,2026-01-07,株式会社カーボンニュートラル新潟,,株式会社,新潟県,長岡市,城岡２丁目８番１号,,15,202,9400021,,,,,,,2026-01-07,1,,,,,カーボンニュートラルニイガタ,0
683,3110003005998,新規,0,2026-01-07,2026-01-07,合同会社ｇｒａｃｉａｓ,,合同会社,新潟県,長岡市,東坂之上町２丁目２―９東坂之上ビル地下１階,,15,202,9400066,,,,,,,2026-01-07,1,,,,,グラシアス,0
684,3110003006022,新規,0,2026-01-07,2026-01-07,合同会社Ｆａｒｍ　Ｒｉｃｈ　Ｆｉｅｌｄ,,合同会社,新潟県,上越市,板倉区戸狩１４２番地,,15,222,9440109,,,,,,,2026-01-07,1,,,,,ファームリッチフィールド,0
696,3120001283100,新規,0,2026-01-07,2026-01-07,ＮＲＡ　Ｍａｎａｇｅｍｅｎｔ株式会社,,株式会社,大阪府,大阪市東成区,中本４丁目８番３２号,,27,115,5370022,,,,,,,2026-01-07,1,,,,,エヌアールエーマネージメント,0
697,3120001283133,新規,0,2026-01-07,2026-01-07,株式会社Ｇ‐ｓｔｙｌｅ,,株式会社,大阪府,大阪市東成区,中本１丁目４番２０－７０３号,,27,115,5370022,,,,,,,2026-01-07,1,,,,,ジースタイル,0
698,3120001283141,新規,0,2026-01-07,2026-01-07,株式会社杉浦,,株式会社,大阪府,大阪市北区,浮田２丁目５番２７号,,27,127,5300021,,,,,,,2026-01-07,1,,,,,スギウラ,0
699,3120001283190,新規,0,2026-01-07,2026-01-07,株式会社ＬＩＮＫ,,株式会社,大阪府,大阪市中央区,徳井町１丁目２－１プレサンス内本町１１０４,,27,128,5400025,,,,,,,2026-01-07,1,,,,,リンク,0
701,3120101073013,新規,0,2026-01-07,2026-01-07,株式会社Ｒｏｏｔｓ,,株式会社,大阪府,堺市堺区,出島町５丁２番２５号,,27,141,5900834,,,,,,,2026-01-07,1,,,,,ルーツ,0
702,3120101073038,新規,0,2026-01-07,2026-01-07,株式会社寺子屋,,株式会社,大阪府,泉南郡熊取町,小垣内２丁目５２６番地の１３,,27,361,5900432,,,,,,,2026-01-07,1,,,,,テラコヤ,0
706,3120901052059,新規,0,2026-01-07,2026-01-07,株式会社ＢＥＴＲＳ　ＥＤＧＥ,,株式会社,大阪府,茨木市,鮎川３丁目２４番１２号の２,,27,211,5670831,,,,,,,2026-01-07,1,,,,,ビテラスエッジ,0
707,3120903006013,新規,0,2026-01-07,2026-01-07,合同会社猫音,,合同会社,大阪府,高槻市,殿町７番２３号高槻グランドハイツ１０３号室,,27,207,5691126,,,,,,,2026-01-07,1,,,,,ネコネ,0
708,3120903006021,新規,0,2026-01-07,2026-01-07,いるかリビング合同会社,,合同会社,大阪府,三島郡島本町,若山台１丁目３番５－５０８号,,27,301,6180024,,,,,,,2026-01-07,1,,,,,イルカリビング,0
714,3130001081346,新規,0,2026-01-07,2026-01-07,株式会社Ｇ‐ＮＥＸＴ,,株式会社,京都府,京都市南区,上鳥羽堀子町８１番地３,,26,107,6018181,,,,,,,2026-01-07,1,,,,,ジーネクスト,0
715,3130001081354,新規,0,2026-01-07,2026-01-07,株式会社Ｌｅｘａ,,株式会社,京都府,宇治市,伊勢田町名木１丁目１番地１２２,,26,204,6110044,,,,,,,2026-01-07,1,,,,,レクサ,0
717,3130003011053,新規,0,2026-01-07,2026-01-07,Ｎｉｎｅ　Ｃａｔ　Ｌａｂ合同会社,,合同会社,京都府,長岡京市,下海印寺西山田１６番地１５,,26,209,6170845,,,,,,,2026-01-07,1,,,,,ナインキャットラボ,0
721,3140001141223,新規,0,2026-01-07,2026-01-07,株式会社イーテック・エンジニアリング,,株式会社,兵庫県,神崎郡福崎町,西治２１２１－１,,28,443,6792215,,,,,,,2026-01-07,1,,,,,イーテックエンジニアリング,0
722,3140001141264,新規,0,2026-01-07,2026-01-07,阪本不動産株式会社,,株式会社,兵庫県,神戸市灘区,八幡町２丁目１３番１８号六甲田中ビル２０５号,,28,102,6570051,,,,,,,2026-01-07,1,,,,,サカモトフドウサン,0
723,3140001141280,新規,0,2026-01-07,2026-01-07,株式会社ＳＫＹＳＥＡ,,株式会社,兵庫県,小野市,匠台６８番地の２,,28,218,6751322,,,,,,,2026-01-07,1,,,,,スカイシー,0
724,3140001141322,新規,0,2026-01-07,2026-01-07,株式会社ＨＩＢＩ,,株式会社,兵庫県,姫路市,八代東光寺町１４番８号,,28,201,6700873,,,,,,,2026-01-07,1,,,,,ヒビ,0
729,3140003023048,新規,0,2026-01-07,2026-01-07,イーキューデザイン合同会社,,合同会社,兵庫県,姫路市,書写８７９番地５５,,28,201,6712201,,,,,,,2026-01-07,1,,,,,イーキューデザイン,0
731,3140005027749,新規,0,2026-01-07,2026-01-07,一般社団法人蓮響環,,その他の設立登記法人,兵庫県,神戸市中央区,楠町３丁目１０番１６号ヒルズ神戸大倉山７０２号,,28,110,6500017,,,,,,,2026-01-07,1,,,,,レンキョウカン,0
732,3140005027757,新規,0,2026-01-07,2026-01-07,一般社団法人日彩,,その他の設立登記法人,兵庫県,明石市,大久保町福田３丁目８番３７号,,28,203,6740066,,,,,,,2026-01-07,1,,,,,ヒヨリ,0
733,3150001028634,新規,0,2026-01-07,2026-01-07,株式会社Ｒｉｔａ　Ｍｅｒｃｈａｎｔ,,株式会社,奈良県,奈良市,南京終町７丁目５７１番３,,29,201,6308141,,,,,,,2026-01-07,1,,,,,リタマーチャント,0
734,3150003003791,新規,0,2026-01-07,2026-01-07,Ｓｕｎ　ｔｈｒｅａｄ合同会社,,合同会社,奈良県,桜井市,大字粟殿１００６－１,,29,206,6330062,,,,,,,2026-01-07,1,,,,,サンスレッド,0
736,3170001018939,新規,0,2026-01-07,2026-01-07,株式会社ａｎｋｏ＆ｋｉｎａｋｏ,,株式会社,和歌山県,紀の川市,東三谷８１７番地,,30,208,6496435,,,,,,,2026-01-07,1,,,,,アンコアンドキナコ,0
742,3180001170094,新規,0,2026-01-07,2026-01-07,株式会社ファミリーオフィス,,株式会社,愛知県,名古屋市天白区,表山３丁目２０１番地,,23,116,4680069,,,,,,,2026-01-07,1,,,,,ファミリーオフィス,0
743,3180001170103,新規,0,2026-01-07,2026-01-07,株式会社丸正ホールディングス,,株式会社,愛知県,名古屋市港区,辰巳町２４番１４号,,23,111,4550003,,,,,,,2026-01-07,1,,,,,マルショウホールディングス,0
749,3190001032789,新規,0,2026-01-07,2026-01-07,株式会社Ｆｉｇｏｅｒａ,,株式会社,三重県,桑名市,千代田町３８番地岡村ビル１Ｆ,,24,205,5110058,,,,,,,2026-01-07,1,,,,,フィゴエラ,0
750,3190001032806,新規,0,2026-01-07,2026-01-07,株式会社ＶＥＧＡ　ＨＯＰＥ,,株式会社,三重県,三重郡菰野町,大字竹成１９５７,,24,341,5101312,,,,,,,2026-01-07,1,,,,,ベガホープ,0
761,3210003001995,新規,0,2026-01-07,2026-01-07,合同会社敦賀物産,,合同会社,福井県,敦賀市,白銀町４番５号,,18,202,9140054,,,,,,,2026-01-07,1,,,,,ツルガブッサン,0
763,3220001027109,新規,0,2026-01-07,2026-01-07,株式会社ＮＡＫＡＴＥＣ,,株式会社,石川県,七尾市,松百町五部８番地１,,17,202,9260841,,,,,,,2026-01-07,1,,,,,ナカテック,0
772,3240001065998,新規,0,2026-01-07,2026-01-07,株式会社ＫＡＧＡＹＡ,,株式会社,広島県,世羅郡世羅町,大字安田１９９３番地,,34,462,7221202,,,,,,,2026-01-07,1,,,,,カガヤ,0
773,3240001066006,新規,0,2026-01-07,2026-01-07,株式会社ＲＥＢＯＲＮ,,株式会社,広島県,広島市安佐南区,伴東７丁目１５番４号,,34,105,7313164,,,,,,,2026-01-07,1,,,,,リボーン,0
774,3240005016023,新規,0,2026-01-07,2026-01-07,一般社団法人福山キッチンカー協会,,その他の設立登記法人,広島県,福山市,神辺町字十九軒屋２５３番地２,,34,207,7202106,,,,,,,2026-01-07,1,,,,,フクヤマキッチンカーキョウカイ,0
776,3260001040875,新規,0,2026-01-07,2026-01-07,株式会社ワヲ,,株式会社,岡山県,岡山市北区,今４丁目８番１８号グローズＩＩＩビル１階,00142075,33,101,7000975,,,,,,,2026-01-07,1,,,,,ワヲ,0
780,3270005005675,新規,0,2026-01-07,2026-01-07,鳥取県芝生産協同組合,,その他の設立登記法人,鳥取県,東伯郡琴浦町,大字中尾５０４番地１,,31,371,6892311,,,,,,,2026-01-07,1,,,,,,0
787,3290001112663,新規,0,2026-01-07,2026-01-07,株式会社Ｙｅｔ,,株式会社,福岡県,福岡市南区,向野２丁目１５－１９－１０１,,40,134,8150035,,,,,,,2026-01-07,1,,,,,イエット,0
788,3290001112746,新規,0,2026-01-07,2026-01-07,株式会社福岡・呉服の横尾,,株式会社,福岡県,福岡市中央区,地行３丁目４番３－４号,,40,133,8100064,,,,,,,2026-01-07,1,,,,,フクオカゴフクノヨコオ,0
790,3290801032152,新規,0,2026-01-07,2026-01-07,株式会社ＲｅＣａｎ,,株式会社,福岡県,北九州市小倉北区,中井５丁目１６番３０－２０１号,,40,106,8030836,,,,,,,2026-01-07,1,,,,,リキャン,0
793,3300003002398,新規,0,2026-01-07,2026-01-07,合同会社ＣＲＯＷＮ,,合同会社,佐賀県,佐賀市,西与賀町大字高太郎９６番地１,,41,201,8400036,,,,,,,2026-01-07,1,,,,,クラウン,0
796,3310003005160,新規,0,2026-01-07,2026-01-07,合同会社Ｂｅｅ‐８,,合同会社,長崎県,長崎市,丸尾町２番６号,,42,201,8528004,,,,,,,2026-01-07,1,,,,,ビーエイト,0
798,3320001021522,新規,0,2026-01-07,2026-01-07,誠和技研株式会社,,株式会社,大分県,大分市,古国府１丁目２番５－３０７,,44,201,8700844,,,,,,,2026-01-07,1,,,,,セイワギケン,0
800,3340001027872,新規,0,2026-01-07,2026-01-07,株式会社高津,00142067,株式会社,鹿児島県,霧島市,隼人町小浜７４８番地,,46,218,8995103,,,,,,,2026-01-07,1,,,,,タカツ,0
801,3340003005050,新規,0,2026-01-07,2026-01-07,合同会社Ｖｏｌｔａ,,合同会社,鹿児島県,鹿児島市,常盤２丁目９番２号,,46,201,8900047,,,,,,,2026-01-07,1,,,,,ヴォルタ,0
802,3340005009933,新規,0,2026-01-07,2026-01-07,一般社団法人鹿児島県水産振興会,,その他の設立登記法人,鹿児島県,鹿児島市,城南町３７番地２,,46,201,8920835,,,,,,,2026-01-07,1,,,,,カゴシマケンスイサンシンコウカイ,0
807,3370001053362,新規,0,2026-01-07,2026-01-07,ニュー・イースト株式会社,,株式会社,宮城県,仙台市青葉区,一番町２丁目６番１６号,,04,101,9800811,,,,,,,2026-01-07,1,,,,,ニューイースト,0
815,3390001018207,新規,0,2026-01-07,2026-01-07,株式会社ワンストップ,,株式会社,山形県,酒田市,北新橋１丁目２番地の１５,,06,204,9980865,,,,,,,2026-01-07,1,,,,,ワンストップ,0
816,3410005006675,新規,0,2026-01-07,2026-01-07,医療法人佳風会,,その他の設立登記法人,秋田県,秋田市,外旭川字中谷地６７－１,,05,201,0100802,,,,,,,2026-01-07,1,,,,,カフウカイ,0
819,3430001095976,新規,0,2026-01-07,2026-01-07,株式会社ＭＲＳ　Ａｓｓｅｔ,,株式会社,北海道,札幌市南区,澄川六条１２丁目１４番１号,,01,106,0050006,,,,,,,2026-01-07,1,,,,,エムアールエスアセット,0
821,3460003001087,新規,0,2026-01-07,2026-01-07,合同会社苅間沢鉄工所,,合同会社,北海道,厚岸郡厚岸町,白浜３丁目７３番地,,01,662,0881125,,,,,,,2026-01-07,1,,,,,カリマザワテッコウショ,0
823,3460303000895,新規,0,2026-01-07,2026-01-07,合同会社ヒオキファーム,,合同会社,北海道,北見市,端野町一区５１３番地,,01,208,0992101,,,,,,,2026-01-07,1,,,,,ヒオキファーム,0
825,3490003002082,新規,0,2026-01-07,2026-01-07,ＫＯＣＨＩＴＯＧＥＴＨＥＲ合同会社,,合同会社,高知県,吾川郡仁淀川町,森２６１８番地,,39,387,7811801,,,,,,,2026-01-07,1,,,,,コウチトゥゲザー,0
831,3700150133831,新規,0,2026-01-07,2026-01-07,ＨＯＮＧ　ＫＯＮＧ　ＤＵＯＣＡＩＸＩＮＧ　ＴＥＣＨＮＯＬＯＧＹ　ＬＩＭＩＴＥＤ,,外国会社等,,,,,,,,ＲＭ　１０　２３／Ｆ　ＮＥＷ　ＴＲＥＮＤ　ＣＥＮＴＲＥ　７０４　ＰＲＩＮＣＥ　ＥＤＷＡＲＤ　ＲＯＡＤ　ＥＡＳＴ　ＳＡＮ　ＰＯ　ＫＯＮＧ　ＨＫ,,,,,,2026-01-07,1,,,,,ホンコンドゥオツアイシンテクノロジーリミテッド,0
834,4010001261594,新規,0,2026-01-07,2026-01-07,株式会社ＬｅａｐＥｄｇｅ,,株式会社,東京都,千代田区,神田須田町１丁目７番８号ＶＯＲＴ秋葉原ＩＶ２Ｆ,00142065,13,101,1010041,,,,,,,2026-01-07,1,,,,,リープエッジ,0
835,4010001261652,新規,0,2026-01-07,2026-01-07,ＴＤグローバル・アセット・マネジメント日本株式会社,,株式会社,東京都,千代田区,大手町１丁目１番１号大手町パークビルディング,,13,101,1000004,,,,,,,2026-01-07,1,,,,,ティーディーグローバルアセットマネジメントニホン,0
836,4010003049914,新規,0,2026-01-07,2026-01-07,合同会社Ｍｏｒｅ　Ｌａｂ,,合同会社,東京都,文京区,小石川４丁目２１番７－９０２号,,13,105,1120002,,,,,,,2026-01-07,1,,,,,モアラボ,0
837,4010005041150,新規,0,2026-01-07,2026-01-07,熊本サイエンスパーク特定目的会社,,その他の設立登記法人,東京都,中央区,日本橋１丁目４番１号,,13,102,1030027,,,,,,,2026-01-07,1,,,,,クマモトサイエンスパーク,0
838,4010005041167,新規,0,2026-01-07,2026-01-07,一般社団法人マテリアルスタートアップ協会,,その他の設立登記法人,東京都,中央区,築地１丁目１２番２２号,,13,102,1040045,,,,,,,2026-01-07,1,,,,,マテリアルスタートアップキョウカイ,0
851,4010401195509,新規,0,2026-01-07,2026-01-07,株式会社ＢＣ２,,株式会社,東京都,港区,虎ノ門５丁目９番１号,,13,103,1050001,,,,,,,2026-01-07,1,,,,,ビーシーツー,0
857,4010403036982,新規,0,2026-01-07,2026-01-07,合同会社リブラ,,合同会社,東京都,港区,虎ノ門５丁目３番２０号株式会社アカウンティング・マネジメント・サービス内,,13,103,1050001,,,,,,,2026-01-07,1,,,,,リブラ,0
859,4010405025125,新規,0,2026-01-07,2026-01-07,一般社団法人日本持株会推進機構,,その他の設立登記法人,東京都,港区,六本木３丁目１６番１２号六本木ＫＳビル５階,,13,103,1060032,,,,,,,2026-01-07,1,,,,,ニホンモチカブカイスイシンキコウ,0
863,4010501055240,新規,0,2026-01-07,2026-01-07,青樺株式会社,,株式会社,東京都,台東区,松が谷２丁目１５番８号浅草Ｋ２ビル３０７号室,,13,106,1110036,,,,,,,2026-01-07,1,,,,,セイカ,0
865,4010505003674,新規,0,2026-01-07,2026-01-07,一般社団法人国際文化教育交流協会,,その他の設立登記法人,東京都,台東区,台東４丁目２２番９号楊ビル３０１,,13,106,1100016,,,,,,,2026-01-07,1,,,,,コクサイブンカキョウイクコウリュウキョウカイ,0
866,4010601068522,新規,0,2026-01-07,2026-01-07,金持株式会社,,株式会社,東京都,墨田区,向島３丁目２２番７オーケービル６階,,13,107,1310033,,,,,,,2026-01-07,1,,,,,カネギ,0
868,4010801036931,新規,0,2026-01-07,2026-01-07,株式会社飯田,,株式会社,東京都,大田区,矢口３丁目２番１６－２０４号,,13,111,1460093,,,,,,,2026-01-07,1,,,,,イイダ,0
876,4011001173235,新規,0,2026-01-07,2026-01-07,株式会社波間屋,,株式会社,東京都,渋谷区,道玄坂１丁目１１－１第二大番ビル２０３,,13,113,1500043,,,,,,,2026-01-07,1,,,,,ハマヤ,0
877,4011001174670,新規,0,2026-01-07,2026-01-07,株式会社メディ,,株式会社,東京都,渋谷区,道玄坂１丁目１０番８号渋谷道玄坂東急ビル２Ｆ－Ｃ,,13,113,1500043,,,,,,,2026-01-07,1,,,,,メディ,0
878,4011001174778,新規,0,2026-01-07,2026-01-07,株式会社整顔院,,株式会社,東京都,目黒区,鷹番３丁目２４番１４号笹田ビル２Ｆ,,13,110,1520004,,,,,,,2026-01-07,1,,,,,セイガンイン,0
879,4011001174786,新規,0,2026-01-07,2026-01-07,株式会社Ｔｏｆｆｉｃａ,,株式会社,東京都,渋谷区,大山町２６－６－３０７,,13,113,1510065,,,,,,,2026-01-07,1,,,,,トフィカ,0
880,4011001174794,新規,0,2026-01-07,2026-01-07,株式会社ｈｍｎ,,株式会社,東京都,目黒区,碑文谷５丁目２－５Ｔ＆Ａビル５Ｆ,,13,110,1520003,,,,,,,2026-01-07,1,,,,,ハモン,0
882,4011003023248,新規,0,2026-01-07,2026-01-07,合同会社アロン．,,合同会社,東京都,渋谷区,神宮前４丁目２４－１ＪＩＮＧＵＭＡＥＣＯＵＲＴＡ３０４,,13,113,1500001,,,,,,,2026-01-07,1,,,,,アロン,0
883,4011003023306,新規,0,2026-01-07,2026-01-07,合同会社Ｚｅｌｄｅｃ,,合同会社,東京都,渋谷区,道玄坂１丁目１０番８号渋谷道玄坂東急ビル２Ｆ－Ｃ,,13,113,1500043,,,,,,,2026-01-07,1,,,,,ゼルデック,0
886,4011103016845,新規,0,2026-01-07,2026-01-07,ヨコヤマ合同会社,,合同会社,東京都,新宿区,高田馬場１丁目３１番８－７１５号,,13,104,1690075,,,,,,,2026-01-07,1,,,,,ヨコヤマ,0
888,4011201026878,新規,0,2026-01-07,2026-01-07,株式会社グロウベース,,株式会社,東京都,中野区,中央４丁目３９－３ブランコート１０１,,13,114,1640011,,,,,,,2026-01-07,1,,,,,グロウベース,0
889,4011201026886,新規,0,2026-01-07,2026-01-07,ＮＥＯ　ＳＡＫＵＲＡ株式会社,,株式会社,東京都,中野区,本町２丁目４６番１号中野坂上サンブライトツイン１４階,,13,114,1640012,,,,,,,2026-01-07,1,,,,,ネオサクラ,0
893,4011501032972,新規,0,2026-01-07,2026-01-07,ＫＪキャピタル株式会社,,株式会社,東京都,荒川区,東日暮里５丁目４８番２号,,13,118,1160014,,,,,,,2026-01-07,1,,,,,ケイジェイキャピタル,0
895,4011601029290,新規,0,2026-01-07,2026-01-07,株式会社東京青雲商事,,株式会社,東京都,練馬区,東大泉７丁目５０－３９,,13,120,1780063,,,,,,,2026-01-07,1,,,,,トウキョウセイウンショウジ,0
898,4011801047258,新規,0,2026-01-07,2026-01-07,株式会社フェニックス,,株式会社,東京都,足立区,興野２丁目３番１１号１Ｆ,,13,121,1230844,,,,,,,2026-01-07,1,,,,,フェニックス,0
900,4012303002271,新規,0,2026-01-07,2026-01-07,合同会社空の音,,合同会社,東京都,町田市,忠生２丁目２７番地４５,,13,209,1940035,,,,,,,2026-01-07,1,,,,,ソラノオト,0
910,4020001166454,新規,0,2026-01-07,2026-01-07,株式会社ＺＹ商事,,株式会社,神奈川県,川崎市川崎区,港町５番１－１０１４号,,14,131,2100807,,,,,,,2026-01-07,1,,,,,ゼットワイショウジ,0
911,4020001166529,新規,0,2026-01-07,2026-01-07,株式会社Ｙｏｕｔｈｆｕｌ,,株式会社,神奈川県,横浜市保土ケ谷区,川島町５７８番地１,,14,106,2400045,,,,,,,2026-01-07,1,,,,,ユースフル,0
924,4030001170240,新規,0,2026-01-07,2026-01-07,Ｓ＆Ｓ株式会社,,株式会社,埼玉県,蕨市,錦町１丁目３番１８号,,11,223,3350005,,,,,,,2026-01-07,1,,,,,エスアンドエス,0
927,4030003028362,新規,0,2026-01-07,2026-01-07,ＰＭＷ合同会社,,合同会社,埼玉県,さいたま市中央区,上落合５丁目１６番７－６０３号,,11,105,3380001,,,,,,,2026-01-07,1,,,,,ピーエムダブリュー,0
928,4030003028395,新規,0,2026-01-07,2026-01-07,合同会社Ａｓｇａｒｏｒ,,合同会社,埼玉県,朝霞市,東弁財１丁目２―３１ベルポート朝霞台駅前７０４,,11,227,3510022,,,,,,,2026-01-07,1,,,,,アスガルド,0
936,4050001057816,新規,0,2026-01-07,2026-01-07,株式会社ＥＭマネジメント,,株式会社,茨城県,神栖市,土合西２丁目６－１３－２,,08,232,3140346,,,,,,,2026-01-07,1,,,,,イーエムマネジメント,0
937,4050001057832,新規,0,2026-01-07,2026-01-07,株式会社リコリス・ラジアータ,,株式会社,茨城県,日立市,大久保町２丁目１２番２０号,,08,202,3160012,,,,,,,2026-01-07,1,,,,,リコリスラジアータ,0
942,4060003005904,新規,0,2026-01-07,2026-01-07,合同会社ビアゲスト,,合同会社,栃木県,宇都宮市,平松本町９２７－１,,09,201,3210932,,,,,,,2026-01-07,1,,,,,ビアゲスト,0
945,4070003006240,新規,0,2026-01-07,2026-01-07,合同会社Ｔｓｕｎａｇｕ,,合同会社,群馬県,伊勢崎市,堀下町１２３３番地２,,10,204,3792212,,,,,,,2026-01-07,1,,,,,ツナグ,0
953,4100001039230,新規,0,2026-01-07,2026-01-07,株式会社ｋｋｕｌ,,株式会社,長野県,佐久市,佐久平駅北２９番１－５０３号,,20,217,3850027,,,,,,,2026-01-07,1,,,,,クル,0
954,4100001039239,新規,0,2026-01-07,2026-01-07,株式会社ライフ・アバンダンス,,株式会社,長野県,塩尻市,大字広丘野村１６８２番地１,,20,215,3990702,,,,,,,2026-01-07,1,,,,,ライフアバンダンス,0
955,4100003008547,新規,0,2026-01-07,2026-01-07,合同会社ｌｅ　ｂｏｎｈｅｕｒ,,合同会社,長野県,松本市,征矢野１丁目４番６号,,20,202,3900842,,,,,,,2026-01-07,1,,,,,ルボヌール,0
970,4120001283116,新規,0,2026-01-07,2026-01-07,Ｆｏｃｕｓ株式会社,,株式会社,大阪府,大阪市住吉区,長居３丁目３番１７号,,27,120,5580003,,,,,,,2026-01-07,1,,,,,フォーカス,0
971,4120001283124,新規,0,2026-01-07,2026-01-07,株式会社Ｖｅｌｉａ,,株式会社,大阪府,大阪市淀川区,西中島４丁目２番６号ＮＬＣ新大阪２号館３０２号,,27,123,5320011,,,,,,,2026-01-07,1,,,,,ヴェリア,0
972,4120001283132,新規,0,2026-01-07,2026-01-07,株式会社天福堂井有薬店,,株式会社,大阪府,大阪市淀川区,東三国５丁目１０番７号,,27,123,5320002,,,,,,,2026-01-07,1,,,,,テンフクドウイユウヤクテン,0
973,4120001283140,新規,0,2026-01-07,2026-01-07,株式会社ネイビーワークス,,株式会社,大阪府,大阪市鶴見区,今津中３丁目１１番２７号,,27,124,5380042,,,,,,,2026-01-07,1,,,,,ネイビーワークス,0
975,4120101073012,新規,0,2026-01-07,2026-01-07,株式会社ＫＩ‐ＢＡＳＥ,,株式会社,大阪府,堺市堺区,楠町３丁３番７号,,27,141,5900836,,,,,,,2026-01-07,1,,,,,キーベース,0
977,4120901052041,新規,0,2026-01-07,2026-01-07,株式会社フロントメディオ,,株式会社,大阪府,豊中市,東豊中町１丁目１４番２２の２号,,27,203,5600003,,,,,,,2026-01-07,1,,,,,フロントメディオ,0
979,4122001040050,新規,0,2026-01-07,2026-01-07,株式会社Ｏｆｆｉｃｅ　ＦＲＥＥＤ,,株式会社,大阪府,四條畷市,清滝中町２２番１６号,,27,229,5750061,,,,,,,2026-01-07,1,,,,,オフィスフリード,0
982,4130001081279,新規,0,2026-01-07,2026-01-07,株式会社エアリアル,,株式会社,京都府,京都市上京区,宮垣町９１番地まむあん荒神口１０２,,26,102,6020853,,,,,,,2026-01-07,1,,,,,エアリアル,0
983,4130001081295,新規,0,2026-01-07,2026-01-07,株式会社ひまわりダイニング,,株式会社,京都府,京都市中京区,河原町通三条下る２丁目東入北車屋町２６６番地１,,26,104,6048021,,,,,,,2026-01-07,1,,,,,ヒマワリダイニング,0
986,4130003011044,新規,0,2026-01-07,2026-01-07,合同会社ｉｓｓｉｋｉ,,合同会社,京都府,京都市中京区,西ノ京小堀町１－５,,26,104,6048383,,,,,,,2026-01-07,1,,,,,イッシキ,0
988,4140001141263,新規,0,2026-01-07,2026-01-07,株式会社ジオニックメタル,,株式会社,兵庫県,姫路市,広畑区西蒲田８４１番地,,28,201,6711107,,,,,,,2026-01-07,1,,,,,ジオニックメタル,0
990,4140003023047,新規,0,2026-01-07,2026-01-07,合同会社ｗｅａｖｅ,,合同会社,兵庫県,尼崎市,元浜町４丁目４９番地の８,,28,202,6600085,,,,,,,2026-01-07,1,,,,,ウィーヴ,0
991,4140003023055,新規,0,2026-01-07,2026-01-07,合同会社タスクル,,合同会社,兵庫県,西宮市,今津山中町９－７－１０２号室,,28,204,6638211,,,,,,,2026-01-07,1,,,,,タスクル,0
992,4140005027748,新規,0,2026-01-07,2026-01-07,医療法人社団中田医院,,その他の設立登記法人,兵庫県,加古川市,平岡町新在家３丁目２８６番地の５,,28,210,6750101,,,,,,,2026-01-07,1,,,,,ナカタイイン,0
993,4150001028633,新規,0,2026-01-07,2026-01-07,株式会社ＳＫ．塗り家,,株式会社,奈良県,北葛城郡王寺町,明神３丁目１２番１号,,29,425,6360022,,,,,,,2026-01-07,1,,,,,エスケーヌリエ,0
998,4170001018938,新規,0,2026-01-07,2026-01-07,ガーデンＰｌａｎ株式会社,,株式会社,和歌山県,有田郡湯浅町,大字栖原９５番地１,,30,361,6430005,,,,,,,2026-01-07,1,,,,,ガーデンプラン,0
1004,4180001170085,新規,0,2026-01-07,2026-01-07,株式会社テイクリア,,株式会社,愛知県,名古屋市瑞穂区,船原町７丁目２１番地,,23,108,4670878,,,,,,,2026-01-07,1,,,,,テイクリア,0
1005,4180001170102,新規,0,2026-01-07,2026-01-07,株式会社ＣＥＬＬＡ,,株式会社,愛知県,名古屋市中区,丸の内３丁目６番１３号,,23,106,4600002,,,,,,,2026-01-07,1,,,,,セラ,0
1006,4180001170143,新規,0,2026-01-07,2026-01-07,アドバンスソリューション株式会社,,株式会社,愛知県,丹羽郡大口町,二ツ屋１丁目１３４番１,,23,361,4800123,,,,,,,2026-01-07,1,,,,,アドバンスソリューション,0
1008,4180003029577,新規,0,2026-01-07,2026-01-07,合同会社Ｏｘａｌｉｓ,,合同会社,愛知県,名古屋市中村区,名駅３丁目４番１０号アルティメイト名駅１ｓｔ２階,,23,105,4500002,,,,,,,2026-01-07,1,,,,,オキザリス,0
1010,4180005021375,新規,0,2026-01-07,2026-01-07,医療法人傾聴会,,その他の設立登記法人,愛知県,名古屋市名東区,猪子石３丁目１２１４番地１,,23,115,4650021,,,,,,,2026-01-07,1,,,,,ケイチョウカイ,0
1014,4200001044583,新規,0,2026-01-07,2026-01-07,株式会社ミノテック,,株式会社,岐阜県,美濃市,２９３６番地６,,21,207,5013701,,,,,,,2026-01-07,1,,,,,ミノテック,0
1017,4230003002561,新規,0,2026-01-07,2026-01-07,合同会社ハーヴェスト,,合同会社,富山県,富山市,田中町３丁目７番１７号,,16,201,9300985,,,,,,,2026-01-07,1,,,,,ハーヴェスト,0
1020,4240001065997,新規,0,2026-01-07,2026-01-07,株式会社ＴＫＳ,,株式会社,広島県,広島市佐伯区,八幡東４丁目２６番４－１－１０２号セトルＡ棟,,34,108,7315115,,,,,,,2026-01-07,1,,,,,ティーケイエス,0
1021,4240001066005,新規,0,2026-01-07,2026-01-07,株式会社Ｇｒａｃｅ・井の丸,,株式会社,広島県,東広島市,八本松町原８６８２番地,,34,212,7390151,,,,,,,2026-01-07,1,,,,,グレイスイノマル,0
1022,4240001066013,新規,0,2026-01-07,2026-01-07,株式会社ジジバ,,株式会社,広島県,広島市中区,大手町３丁目３番７－１００２号,,34,101,7300051,,,,,,,2026-01-07,1,,,,,ジジバ,0
1023,4240001066021,新規,0,2026-01-07,2026-01-07,株式会社Ｄ‐ＬＩＧＨＴ,,株式会社,広島県,広島市安佐南区,西原１丁目７番９号,,34,105,7310113,,,,,,,2026-01-07,1,,,,,ディライト,0
1028,4260001040858,新規,0,2026-01-07,2026-01-07,株式会社ＨＳカンパニー,,株式会社,岡山県,岡山市北区,下石井２丁目１０番３０号５１６号室,,33,101,7000907,,,,,,,2026-01-07,1,,,,,エイチエスカンパニー,0
1029,4260001040866,新規,0,2026-01-07,2026-01-07,株式会社ＭＡＹＷＡファーム,,株式会社,岡山県,岡山市北区,青江１丁目２０番２６号,,33,101,7000941,,,,,,,2026-01-07,1,,,,,メイワファーム,0
1037,4290001112687,新規,0,2026-01-07,2026-01-07,株式会社のどか,,株式会社,福岡県,福岡市博多区,吉塚本町１３番２７－９０３号ＲＪＲプレシア吉塚駅前ＩＩ,00142069,40,132,8120046,,,,,,,2026-01-07,1,,,,,ノドカ,0
1041,4290005019961,新規,0,2026-01-07,2026-01-07,医療法人観色会,,その他の設立登記法人,福岡県,筑紫野市,二日市中央６丁目６番２０号,,40,217,8180072,,,,,,,2026-01-07,1,,,,,カンシキカイ,0
1043,4290801032143,新規,0,2026-01-07,2026-01-07,株式会社極東アールアンドディー,,株式会社,福岡県,北九州市八幡東区,荒生田３丁目３番１７号,,40,108,8050015,,,,,,,2026-01-07,1,,,,,キョクトウアールアンドディー,0
1045,4290803005246,新規,0,2026-01-07,2026-01-07,合同会社パティスリーミモザ,,合同会社,福岡県,北九州市小倉北区,香春口１丁目３番２号,,40,106,8020084,,,,,,,2026-01-07,1,,,,,パティスリーミモザ,0
1047,4310001019905,新規,0,2026-01-07,2026-01-07,株式会社ＡＬＥＸＩＡ,,株式会社,長崎県,西海市,西彼町八木原郷１４８１番地,,42,212,8513423,,,,,,,2026-01-07,1,,,,,アリシア,0
1050,4320001021521,新規,0,2026-01-07,2026-01-07,株式会社ＳＯＲＡＮＡ．,,株式会社,大分県,大分市,中島東１丁目３番５号シャガール中島１Ｆ,,44,201,8700043,,,,,,,2026-01-07,1,,,,,ソラナ,0
1056,4330001033879,新規,0,2026-01-07,2026-01-07,株式会社ＡＭＩＤＡ,,株式会社,熊本県,山鹿市,方保田１６４２番地,,43,208,8610382,,,,,,,2026-01-07,1,,,,,アミダ,0
1057,4330001033887,新規,0,2026-01-07,2026-01-07,株式会社たかいち,,株式会社,熊本県,阿蘇市,乙姫２０７０－１４,,43,214,8692226,,,,,,,2026-01-07,1,,,,,タカイチ,0
1060,4330003011387,新規,0,2026-01-07,2026-01-07,合同会社ＢｉｚＮａｖｉ,,合同会社,熊本県,熊本市東区,月出７丁目１番６８号ファミールＳ月出２０３号,,43,102,8620920,,,,,,,2026-01-07,1,,,,,ビズナビ,0
1063,4360003015526,新規,0,2026-01-07,2026-01-07,合同会社中田会館,,合同会社,沖縄県,沖縄市,諸見里３丁目６番２号,,47,211,9040032,,,,,,,2026-01-07,1,,,,,ナカダカイカン,0
1070,4400001017271,新規,0,2026-01-07,2026-01-07,株式会社暁,,株式会社,岩手県,盛岡市,本宮１丁目２３番２０号ブライトスクエアＡ１０２号,,03,201,0200866,,,,,,,2026-01-07,1,,,,,アカツキ,0
1080,4430005015384,新規,0,2026-01-07,2026-01-07,一般社団法人ＨＩＳＰＥＣ,,その他の設立登記法人,北海道,札幌市北区,北十条西３丁目２３番地１,,01,102,0010010,,,,,,,2026-01-07,1,,,,,ハイスペック,0
1082,4440003001740,新規,0,2026-01-07,2026-01-07,合同会社福函,,合同会社,北海道,函館市,元町３１番６号,,01,202,0400054,,,,,,,2026-01-07,1,,,,,フクバコ,0
1085,4480001013049,新規,0,2026-01-07,2026-01-07,株式会社ＡＵＴＯ　ＦＲＥＡＫＳクロサカ,,株式会社,徳島県,板野郡藍住町,徳命字新居須１０５番地２,,36,403,7711210,,,,,,,2026-01-07,1,,,,,オートフリークスクロサカ,0
1092,4500001026700,新規,0,2026-01-07,2026-01-07,翔栄工業株式会社,,株式会社,愛媛県,今治市,南高下町４丁目２番７号グレイスＫ・Ｃ棟１０１号,,38,202,7940811,,,,,,,2026-01-07,1,,,,,ショウエイコウギョウ,0
1096,4700150133830,新規,0,2026-01-07,2026-01-07,ＢＨＡＰＴＩＣＳ　ＩＮＣ,,外国会社等,,,,,,,,２０１－Ｂ，３６１－１７，Ｇａｐｃｈｅｏｎ－ｒｏ，Ｙｕｓｅｏｎｇ－ｇｕ，Ｄａｅｊｅｏｎ，Ｒｅｐｕｂｌｉｃ　ｏｆ　Ｋｏｒｅａ　３４０３７,,,,,,2026-01-07,1,,,,,ビハプティクスインコーポレイテッド,0
1097,4700150133839,新規,0,2026-01-07,2026-01-07,Ｓ．Ｋ．ＡＧＲＯ,,外国会社等,福岡県,福岡市東区,多の津１丁目２番５号フクダビルＡ－０,,40,131,8130034,スリランカ民主社会主義共和国ミリハネガマ、ミリハネガマ,,,,,,2026-01-07,1,,,,,エスケーアグロ,0
1108,5010103002730,新規,0,2026-01-07,2026-01-07,スターエイト合同会社,,合同会社,東京都,八王子市,長房町４１４番地２,,13,201,1930824,,,,,,,2026-01-07,1,,,,,スターエイト,0
1111,5010401195499,新規,0,2026-01-07,2026-01-07,株式会社ＷＤ２,,株式会社,東京都,港区,北青山３丁目５番１０号,,13,103,1070061,,,,,,,2026-01-07,1,,,,,ダブリューディーツー,0
1112,5010401195508,新規,0,2026-01-07,2026-01-07,株式会社ＢＣ２ホールディングス,,株式会社,東京都,港区,虎ノ門５丁目９番１号,,13,103,1050001,,,,,,,2026-01-07,1,,,,,ビーシーツーホールディングス,0
1117,5010405025132,新規,0,2026-01-07,2026-01-07,ジー・エイ・ワン・レジデンス・ナインティーン特定目的会社,,その他の設立登記法人,東京都,港区,虎ノ門５丁目１番４号,,13,103,1050001,,,,,,,2026-01-07,1,,,,,ジーエイワンレジデンスナインティーン,0
1122,5010601068513,新規,0,2026-01-07,2026-01-07,株式会社のぞみ,,株式会社,東京都,墨田区,錦糸１丁目２番１アルカセントラル１４階,,13,107,1300013,,,,,,,2026-01-07,1,,,,,ノゾミ,0
1125,5010803005669,新規,0,2026-01-07,2026-01-07,ｍｙ　ａｒｃｈｉｔｅｃｔｓ合同会社,,合同会社,東京都,大田区,山王２丁目１２番６号,,13,111,1430023,,,,,,,2026-01-07,1,,,,,マイアーキテクツ,0
1127,5010901058718,新規,0,2026-01-07,2026-01-07,株式会社Ｋ２Ｐｉｃｔｕｒｅｓ　Ｍｕｓｉｃ,,株式会社,東京都,世田谷区,成城１丁目４番１号東宝スタジオプロダクションセンター１、４１２号室,,13,112,1570066,,,,,,,2026-01-07,1,,,,,ケーツーピクチャーズミュージック,0
1128,5010901058734,新規,0,2026-01-07,2026-01-07,株式会社エスアイ商事,,株式会社,東京都,世田谷区,池尻２丁目１９番７号ムラキソウ２０１,,13,112,1540001,,,,,,,2026-01-07,1,,,,,エスアイショウジ,0
1131,5011001174612,新規,0,2026-01-07,2026-01-07,ｈａｐｐｙ＆ｆａｔｔｙ．ｃｏ株式会社,,株式会社,東京都,渋谷区,幡ヶ谷３丁目３７―１１,,13,113,1510072,,,,,,,2026-01-07,1,,,,,ハッピーアンドファティカンパニー,0
1132,5011001174653,新規,0,2026-01-07,2026-01-07,株式会社ＲＹＯＺＥＮ,,株式会社,東京都,渋谷区,道玄坂１丁目１６－６二葉ビル８ｂ,,13,113,1500043,,,,,,,2026-01-07,1,,,,,リョウゼン,0
1133,5011001174711,新規,0,2026-01-07,2026-01-07,株式会社ＲＨＥＡ　Ａｓｓｅｔ　Ｍａｎａｇｅｍｅｎｔ,,株式会社,東京都,渋谷区,恵比寿西２丁目４番８号ウィンド恵比寿ビル８Ｆ,,13,113,1500021,,,,,,,2026-01-07,1,,,,,レアアセットマネジメント,0
1136,5011401027709,新規,0,2026-01-07,2026-01-07,株式会社アイティコモン,,株式会社,東京都,板橋区,桜川３丁目１番２－３１１号ＫＳビル桜川,,13,119,1740075,,,,,,,2026-01-07,1,,,,,アイティコモン,0
1138,5011701029066,新規,0,2026-01-07,2026-01-07,ロアピアマロ株式会社,,株式会社,東京都,江戸川区,中央３丁目１６番１６号,,13,123,1320021,,,,,,,2026-01-07,1,,,,,ロアピアマロ,0
1139,5011701029082,新規,0,2026-01-07,2026-01-07,株式会社ＬＡＴＥＯ,,株式会社,東京都,江戸川区,一之江３丁目２３番１９－１０７号,,13,123,1320024,,,,,,,2026-01-07,1,,,,,ラテオ,0
1141,5012305002161,新規,0,2026-01-07,2026-01-07,特定非営利活動法人ドリームキッズ,,その他の設立登記法人,東京都,町田市,本町田２８１２番地２,,13,209,1940032,,,,,,,2026-01-07,1,,,,,ドリームキッズ,0
1143,5012701019255,新規,0,2026-01-07,2026-01-07,株式会社武藤興業,,株式会社,東京都,清瀬市,竹丘３丁目２２番２０－８号,,13,221,2040023,,,,,,,2026-01-07,1,,,,,ムトウコウギョウ,0
1145,5012801024444,新規,0,2026-01-07,2026-01-07,株式会社ＹＣＯ,,株式会社,東京都,国分寺市,本町２丁目１２番２号,,13,214,1850012,,,,,,,2026-01-07,1,,,,,ワイシーオー,0
1146,5012803003958,新規,0,2026-01-07,2026-01-07,Ａｚｕｓａ合同会社,,合同会社,東京都,立川市,錦町１丁目４－２０ＴＳＣビル６階,,13,202,1900022,,,,,,,2026-01-07,1,,,,,アズサ,0
1148,5013301055558,新規,0,2026-01-07,2026-01-07,リュウライド株式会社,,株式会社,東京都,豊島区,目白３丁目４番５号アビタメジロ３０２号室,,13,116,1710031,,,,,,,2026-01-07,1,,,,,リュウライド,0
1149,5013303008043,新規,0,2026-01-07,2026-01-07,合同会社Ｂｌａｚｉｎｇ　Ｓｍｏｋｅｓｔａｃｋｓ,,合同会社,東京都,豊島区,西池袋４丁目１９番１４号,,13,116,1710021,,,,,,,2026-01-07,1,,,,,ブレイジングスモークスタックス,0
1155,5020003030070,新規,0,2026-01-07,2026-01-07,合同会社トライン・アンド・カンパニー,,合同会社,神奈川県,横浜市港北区,綱島西２丁目６－１７黒川ビル３０６,,14,109,2230053,,,,,,,2026-01-07,1,,,,,トラインアンドカンパニー,0
1167,5030001170371,新規,0,2026-01-07,2026-01-07,ＳＣＷｏｒｋｓ株式会社,,株式会社,埼玉県,和光市,下新倉５丁目５番１８－２０２号,,11,229,3510111,,,,,,,2026-01-07,1,,,,,エスシーワークス,0
1168,5030001170388,新規,0,2026-01-07,2026-01-07,株式会社ヴレ,,株式会社,埼玉県,川口市,川口４丁目２番３６－２８０５号,,11,203,3320015,,,,,,,2026-01-07,1,,,,,ヴレ,0
1175,5040001141933,新規,0,2026-01-07,2026-01-07,株式会社あらき野積算室,,株式会社,千葉県,我孫子市,新木野４丁目１０番１０号,,12,222,2701114,,,,,,,2026-01-07,1,,,,,アラキノセキサンシツ,0
1176,5040001141966,新規,0,2026-01-07,2026-01-07,株式会社ＧＲＩＮＧ,,株式会社,千葉県,印旛郡栄町,南ケ丘１丁目１３番２号,,12,329,2701533,,,,,,,2026-01-07,1,,,,,グリング,0
1180,5050001057798,新規,0,2026-01-07,2026-01-07,株式会社ｂｌｕｅ　ｆｌｏｗｅｒｓ,,株式会社,茨城県,日立市,十王町伊師３４４８番１,,08,202,3191301,,,,,,,2026-01-07,1,,,,,ブルーフラワーズ,0
1181,5050003009830,新規,0,2026-01-07,2026-01-07,合同会社ｗｏｏｄｂｅｌｌ,,合同会社,茨城県,つくば市,梅園２丁目１番地１５スプリングテックつくばビル４０１,,08,220,3050045,,,,,,,2026-01-07,1,,,,,ウッドベル,0
1182,5050003009855,新規,0,2026-01-07,2026-01-07,合同会社フレームクラフト,,合同会社,茨城県,つくば市,梅園２丁目１番地１５スプリングテックつくばビル４０１,,08,220,3050045,,,,,,,2026-01-07,1,,,,,フレームクラフト,0
1185,5060001038905,新規,0,2026-01-07,2026-01-07,株式会社ＣＡＬＯＮ,,株式会社,栃木県,小山市,神鳥谷１丁目１１番１０号ハシモトテナント１,,09,208,3230034,,,,,,,2026-01-07,1,,,,,カロン,0
1188,5060003005911,新規,0,2026-01-07,2026-01-07,合同会社ＬＢ・Ｂａｎｋｕｌｅ,,合同会社,栃木県,宇都宮市,西川田南２丁目１０－１１,,09,201,3210155,,,,,,,2026-01-07,1,,,,,エルビーバンクル,0
1189,5070001043680,新規,0,2026-01-07,2026-01-07,Ｗｉｌｌ　ｔｏＳＳ株式会社,,株式会社,群馬県,前橋市,大友町３丁目２４番地１ホテル１－２－３前橋マーキュリー７Ｆ,,10,201,3710847,,,,,,,2026-01-07,1,,,,,ウィルトス,0
1190,5070001043706,新規,0,2026-01-07,2026-01-07,株式会社松村アシスト,,株式会社,群馬県,高崎市,和田町１６番４号,,10,202,3700847,,,,,,,2026-01-07,1,,,,,マツムラアシスト,0
1194,5080101025990,新規,0,2026-01-07,2026-01-07,株式会社ぴっとえむ,,株式会社,静岡県,伊豆の国市,古奈２４１番地の１,,22,225,4102201,,,,,,,2026-01-07,1,,,,,ピットエム,0
1195,5080403005419,新規,0,2026-01-07,2026-01-07,合同会社ＮＩＳＨＩ　ＪＥＦＦ,,合同会社,静岡県,浜松市中央区,天王町２１０番地の２,,22,138,4350052,,,,,,,2026-01-07,1,,,,,ニシジェフ,0
1217,5120001283008,新規,0,2026-01-07,2026-01-07,株式会社ｃｌｏｕｄ,,株式会社,大阪府,大阪市鶴見区,横堤１丁目１１番１－５０６号,,27,124,5380052,,,,,,,2026-01-07,1,,,,,クラウド,0
1218,5120001283197,新規,0,2026-01-07,2026-01-07,株式会社フロントライン,,株式会社,大阪府,大阪市平野区,背戸口４丁目１０－１０,,27,126,5470034,,,,,,,2026-01-07,1,,,,,フロントライン,0
1220,5120003031620,新規,0,2026-01-07,2026-01-07,合同会社ＩＯＲＯＩ　ＧＲＯＵＰ,,合同会社,大阪府,大阪市北区,梅田１丁目２番２号大阪駅前第２ビル１２‐１２,,27,127,5300001,,,,,,,2026-01-07,1,,,,,イオロイグループ,0
1222,5120101073011,新規,0,2026-01-07,2026-01-07,株式会社ＨＡＴＴＡ　ＴＯＲＵ　ＣＥＲＡＭＩＣＳ,,株式会社,大阪府,富田林市,富田林町２７番１２号,,27,214,5840033,,,,,,,2026-01-07,1,,,,,ハッタトオルセラミックス,0
1223,5120901052057,新規,0,2026-01-07,2026-01-07,株式会社ＡＳＵＫＡＴＳＵ,,株式会社,大阪府,高槻市,古曽部町３丁目３２－２７,,27,207,5691115,,,,,,,2026-01-07,1,,,,,アスカツ,0
1234,5130001081360,新規,0,2026-01-07,2026-01-07,株式会社Ｌｉｏｎｓ　Ｒｅｆｏｒｍ,,株式会社,京都府,京都市北区,西賀茂下庄田町１６２番地３,,26,101,6038801,,,,,,,2026-01-07,1,,,,,ライオンズリフォーム,0
1236,5130003011035,新規,0,2026-01-07,2026-01-07,合同会社家庭教師まんてん,,合同会社,京都府,京都市上京区,聚楽町８６３－２５ロジビル３Ｆ,,26,102,6028156,,,,,,,2026-01-07,1,,,,,カテイキョウシマンテン,0
1241,5140001141262,新規,0,2026-01-07,2026-01-07,株式会社ＯＭＯＲＩファミリー,,株式会社,兵庫県,姫路市,飾磨区中島５３４番地１,,28,201,6728035,,,,,,,2026-01-07,1,,,,,オオモリファミリー,0
1242,5140001141270,新規,0,2026-01-07,2026-01-07,株式会社ヒューマンシステム,,株式会社,兵庫県,姫路市,魚町１１５番地ＢＷビル１３－２Ｆ－Ａ,,28,201,6700905,,,,,,,2026-01-07,1,,,,,ヒューマンシステム,0
1243,5140001141287,新規,0,2026-01-07,2026-01-07,ｓｉｍｐｌｅ株式会社,,株式会社,兵庫県,神戸市東灘区,御影郡家１丁目４番地３号,,28,101,6580048,,,,,,,2026-01-07,1,,,,,シンプル,0
1244,5140001141304,新規,0,2026-01-07,2026-01-07,株式会社ツーオーバースリー,,株式会社,兵庫県,西宮市,南越木岩町５番１２号,,28,204,6620075,,,,,,,2026-01-07,1,,,,,ツーオーバースリー,0
1245,5140001141320,新規,0,2026-01-07,2026-01-07,株式会社鈴木重機,,株式会社,兵庫県,神戸市西区,竜が岡５丁目２４番地の２７,,28,111,6512412,,,,,,,2026-01-07,1,,,,,スズキジュウキ,0
1248,5140003023013,新規,0,2026-01-07,2026-01-07,合同会社ＡＬＫＵ,,合同会社,兵庫県,加古川市,加古川町南備後２５４番１１,,28,210,6750033,,,,,,,2026-01-07,1,,,,,アルク,0
1251,5140005027755,新規,0,2026-01-07,2026-01-07,一般社団法人アルス,,その他の設立登記法人,兵庫県,神戸市中央区,北長狭通５丁目４番３号,,28,110,6500012,,,,,,,2026-01-07,1,,,,,アルス,0
1261,5180001170084,新規,0,2026-01-07,2026-01-07,株式会社泡沫研究所,,株式会社,愛知県,名古屋市中川区,戸田明正１丁目１５０１番地－Ａ１０２号,,23,110,4540961,,,,,,,2026-01-07,1,,,,,ウタカタケンキュウジョ,0
1262,5180001170150,新規,0,2026-01-07,2026-01-07,株式会社ＩＲＯＤＲＩ,,株式会社,愛知県,知多市,寺本新町１丁目１１５番,,23,224,4780063,,,,,,,2026-01-07,1,,,,,イロドリ,0
1266,5180003029584,新規,0,2026-01-07,2026-01-07,河本商事合同会社,,合同会社,愛知県,名古屋市北区,西志賀町４丁目６３－４,,23,103,4620058,,,,,,,2026-01-07,1,,,,,カワモトショウジ,0
1267,5180005021366,新規,0,2026-01-07,2026-01-07,医療法人長沢医院,,その他の設立登記法人,愛知県,名古屋市守山区,桜坂２丁目２６１１番地,,23,113,4630018,,,,,,,2026-01-07,1,,,,,ナガサワイイン,0
1272,5210001020442,新規,0,2026-01-07,2026-01-07,株式会社Ｃｏ‐Ｌａｂｏｒａｔｏｒｙ,,株式会社,福井県,福井市,八ツ島町第１４号２番地４,,18,201,9100065,,,,,,,2026-01-07,1,,,,,コラボラトリー,0
1273,5210003001993,新規,0,2026-01-07,2026-01-07,合同会社ノウハタカラ,,合同会社,福井県,あわら市,清間第２号７番地,,18,208,9190611,,,,,,,2026-01-07,1,,,,,ノウハタカラ,0
1274,5220001027098,新規,0,2026-01-07,2026-01-07,株式会社みらくら,,株式会社,石川県,金沢市,福久町ト３３番地１５,,17,201,9203122,,,,,,,2026-01-07,1,,,,,ミラクラ,0
1277,5240001065988,新規,0,2026-01-07,2026-01-07,株式会社ｇｏｏｄ　ｒｉｖｅｒ,,株式会社,広島県,広島市佐伯区,五日市町下小深川１５７番地,,34,108,7315100,,,,,,,2026-01-07,1,,,,,グッドリバー,0
1278,5240001066004,新規,0,2026-01-07,2026-01-07,株式会社Ｌｉｆｏｂｂｙ,,株式会社,広島県,広島市佐伯区,五月が丘２丁目１７番２８号,,34,108,7315101,,,,,,,2026-01-07,1,,,,,ライフォビー,0
1279,5240001066012,新規,0,2026-01-07,2026-01-07,株式会社ＭＩＺＵＮＡＧＡ,,株式会社,広島県,福山市,明王台４丁目１３番７号,,34,207,7200834,,,,,,,2026-01-07,1,,,,,ミズナガ,0
1280,5240001066020,新規,0,2026-01-07,2026-01-07,株式会社アートスタイル,,株式会社,広島県,福山市,駅家町坊寺４００－１,,34,207,7210000,,,,,,,2026-01-07,1,,,,,アートスタイル,0
1282,5260001040865,新規,0,2026-01-07,2026-01-07,株式会社フジリンク,,株式会社,岡山県,岡山市北区,撫川１５０６番地２,,33,101,7010164,,,,,,,2026-01-07,1,,,,,フジリンク,0
1283,5260001040873,新規,0,2026-01-07,2026-01-07,株式会社内建,,株式会社,岡山県,総社市,久代３５０６番地１,,33,208,7101201,,,,,,,2026-01-07,1,,,,,ウチケン,0
1284,5260005011565,新規,0,2026-01-07,2026-01-07,ＮＰＯ法人岡山グライダークラブ,,その他の設立登記法人,岡山県,岡山市南区,福富西３丁目７番４１号,,33,104,7028031,,,,,,,2026-01-07,1,,,,,オカヤマグライダークラブ,0
1287,5280001009561,新規,0,2026-01-07,2026-01-07,株式会社ＲＩＺＥ．ｃｏｍ,,株式会社,島根県,出雲市,上塩冶町２５７７番地３,,32,203,6930022,,,,,,,2026-01-07,1,,,,,ライズドットコム,0
1293,5290001112637,新規,0,2026-01-07,2026-01-07,株式会社高田ホールディングス,,株式会社,福岡県,福岡市南区,高木２丁目１７番１号,,40,134,8150004,,,,,,,2026-01-07,1,,,,,タカダホールディングス,0
1294,5290001112678,新規,0,2026-01-07,2026-01-07,アイエム株式会社,,株式会社,福岡県,福岡市早良区,賀茂３丁目２１番２１号,,40,137,8140164,,,,,,,2026-01-07,1,,,,,アイエム,0
1295,5290001112736,新規,0,2026-01-07,2026-01-07,株式会社Ｒｏｍａｎ　ｐｌｕｓ,,株式会社,福岡県,福岡市博多区,上川端町１番７号,,40,132,8120026,,,,,,,2026-01-07,1,,,,,ロマンプラス,0
1296,5290003017900,新規,0,2026-01-07,2026-01-07,合同会社縁旅,,合同会社,福岡県,糸島市,前原西１丁目８番２７号第二廣瀬ビル２０３号,,40,230,8191117,,,,,,,2026-01-07,1,,,,,エニシ,0
1298,5290803005245,新規,0,2026-01-07,2026-01-07,合同会社ＩＭＩ,,合同会社,福岡県,北九州市小倉南区,山手１丁目１０番１号,,40,107,8020982,,,,,,,2026-01-07,1,,,,,アイエムアイ,0
1304,5310001019904,新規,0,2026-01-07,2026-01-07,株式会社カーレイヴン,,株式会社,長崎県,佐世保市,大塔町１７０８番地１１,,42,202,8571161,,,,,,,2026-01-07,1,,,,,カーレイヴン,0
1305,5310005008886,新規,0,2026-01-07,2026-01-07,税理士法人となりの事務所,,その他の設立登記法人,長崎県,長崎市,葉山１丁目６番２号葉山産商ビル３階３０２号室,,42,201,8528053,,,,,,,2026-01-07,1,,,,,トナリノジムショ,0
1310,5330001033903,新規,0,2026-01-07,2026-01-07,株式会社スターリアルティ,,株式会社,熊本県,熊本市南区,良町２丁目８番１０号２Ｆ,,43,104,8620969,,,,,,,2026-01-07,1,,,,,スターリアルティ,0
1311,5330001033911,新規,0,2026-01-07,2026-01-07,株式会社ＵＭＥＮＯＶＡ,,株式会社,熊本県,熊本市南区,日吉１丁目１番１１―５０３号,,43,104,8614109,,,,,,,2026-01-07,1,,,,,ウメノバ,0
1314,5340003005057,新規,0,2026-01-07,2026-01-07,弥勒仏壇店合同会社,,合同会社,鹿児島県,鹿児島市,中町６番１８号,,46,201,8920827,,,,,,,2026-01-07,1,,,,,ミロクブツダンテン,0
1318,5370001053360,新規,0,2026-01-07,2026-01-07,株式会社カメチャン,,株式会社,宮城県,仙台市青葉区,国分町２丁目２番２３号ＴＭ３９ビル５Ｆ,,04,101,9800803,,,,,,,2026-01-07,1,,,,,カメチャン,0
1322,5380001035787,新規,0,2026-01-07,2026-01-07,株式会社聖工業,,株式会社,福島県,いわき市,内郷綴町柴崎５７番地の８,,07,204,9738403,,,,,,,2026-01-07,1,,,,,セイコウギョウ,0
1326,5400003003590,新規,0,2026-01-07,2026-01-07,柳原産業医・労働衛生コンサルタント合同会社,,合同会社,岩手県,花巻市,二枚橋町南１丁目７４番地１,,03,205,0250315,,,,,,,2026-01-07,1,,,,,ヤナギハラサンギョウイロウドウエイセイコンサルタント,0
1328,5410005006673,新規,0,2026-01-07,2026-01-07,医療法人おおもとクリニック,,その他の設立登記法人,秋田県,大館市,有浦６丁目２番２６号,,05,204,0170043,,,,,,,2026-01-07,1,,,,,オオモトクリニック,0
1336,5430001095982,新規,0,2026-01-07,2026-01-07,株式会社レイングロー,,株式会社,北海道,札幌市西区,八軒一条西１丁目１－２６アルファ琴似駅前ビル,,01,107,0630841,,,,,,,2026-01-07,1,,,,,レイングロー,0
1338,5470001021043,新規,0,2026-01-07,2026-01-07,株式会社はるかぜ,,株式会社,香川県,高松市,鹿角町２８２－１２,,37,201,7618082,,,,,,,2026-01-07,1,,,,,ハルカゼ,0
1342,5500001026699,新規,0,2026-01-07,2026-01-07,株式会社ヘイゲン,,株式会社,愛媛県,今治市,拝志６番４３号,,38,202,7991504,,,,,,,2026-01-07,1,,,,,ヘイゲン,0
1345,5700150133838,新規,0,2026-01-07,2026-01-07,株式会社　ザ・パートナーズ,,外国会社等,埼玉県,吉川市,大字高久５８３番地５,,11,243,3420035,大韓民国京畿道安養市萬安区徳川路１５２番キル２５、アイエスビズタワーセントラル６０２号、６０３号（安養洞）,,,,,,2026-01-07,1,,,,,カブシキガイシヤザパートナーズ,0
1360,6010401195523,新規,0,2026-01-07,2026-01-07,ＲＩＮ株式会社,,株式会社,東京都,港区,赤坂９丁目６番２３号赤坂葵ビル４０３号,,13,103,1070052,,,,,,,2026-01-07,1,,,,,リン,0
1361,6010401195564,新規,0,2026-01-07,2026-01-07,株式会社ＳＡＯサポート,,株式会社,東京都,港区,六本木２丁目２番８号オーイズミ六本木ビル５階,,13,103,1060032,,,,,,,2026-01-07,1,,,,,エスエーオーサポート,0
1362,6010403036964,新規,0,2026-01-07,2026-01-07,合同会社ＳＳＳ,,合同会社,東京都,港区,元赤坂１丁目２番７号ＡＫＡＳＡＫＡ・Ｋ－ＴＯＷＥＲ１０Ｆ,,13,103,1070051,,,,,,,2026-01-07,1,,,,,エスエスエス,0
1363,6010405025131,新規,0,2026-01-07,2026-01-07,ジー・エイ・ワン・レジデンス・エイティーン特定目的会社,,その他の設立登記法人,東京都,港区,虎ノ門５丁目１番４号,,13,103,1050001,,,,,,,2026-01-07,1,,,,,ジーエイワンレジデンスエイティーン,0
1371,6010601068537,新規,0,2026-01-07,2026-01-07,株式会社Ｍｅｌｉａ,,株式会社,東京都,墨田区,堤通１丁目１０番７－２０３号,,13,107,1310034,,,,,,,2026-01-07,1,,,,,メリア,0
1373,6010703008069,新規,0,2026-01-07,2026-01-07,合同会社Ｖｂｉｚ,,合同会社,東京都,品川区,南大井４丁目５－４グランドガーラ南大井１１０３号,,13,109,1400013,,,,,,,2026-01-07,1,,,,,ビズ,0
1377,6010801036921,新規,0,2026-01-07,2026-01-07,株式会社Ｑ’ｓ,,株式会社,東京都,大田区,西蒲田７丁目４－４－６Ｆ,,13,111,1440051,,,,,,,2026-01-07,1,,,,,キューズ,0
1386,6011001174652,新規,0,2026-01-07,2026-01-07,Ａｅｒ株式会社,,株式会社,東京都,渋谷区,道玄坂１丁目１０－８渋谷道玄坂東急ビル２Ｆ－Ｃ,,13,113,1500043,,,,,,,2026-01-07,1,,,,,アエル,0
1387,6011001174693,新規,0,2026-01-07,2026-01-07,株式会社Ｓｏｕｎｄ　Ｃｒａｆｔ　Ｌａｂ,,株式会社,東京都,目黒区,大橋１丁目７番５号２Ｆ,,13,110,1530044,,,,,,,2026-01-07,1,,,,,サウンドクラフトラボ,0
1389,6011003023246,新規,0,2026-01-07,2026-01-07,合同会社ｉｔｃｈｏｕ,,合同会社,東京都,渋谷区,神泉町１０番１５号アネックス神泉３０１,,13,113,1500045,,,,,,,2026-01-07,1,,,,,イッチョウ,0
1390,6011003023254,新規,0,2026-01-07,2026-01-07,合同会社ヴェルナーテクノロジー,,合同会社,東京都,渋谷区,東２丁目２１番８－１１０３号プライムレジデンス渋谷,,13,113,1500011,,,,,,,2026-01-07,1,,,,,ヴェルナーテクノロジー,0
1391,6011003023279,新規,0,2026-01-07,2026-01-07,合同会社Ｋｉｚｍｅｅｔ,,合同会社,東京都,目黒区,東が丘１丁目２９－５,,13,110,1520021,,,,,,,2026-01-07,1,,,,,キズミート,0
1392,6011003023304,新規,0,2026-01-07,2026-01-07,合同会社ＶＩＧＯＳ　ｃｏｌｌｅｃｔｉｖｅ,,合同会社,東京都,渋谷区,神宮前６丁目２３番４号桑野ビル２階,,13,113,1500001,,,,,,,2026-01-07,1,,,,,ヴィゴスコレクティブ,0
1393,6011003023312,新規,0,2026-01-07,2026-01-07,Ｍｅｓａｌｉｇｎ　Ｔｅｃｈｎｏｌｏｇｉｅｓ合同会社,,合同会社,東京都,渋谷区,道玄坂１丁目１０番８号渋谷道玄坂東急ビル２Ｆ－Ｃ,,13,113,1500043,,,,,,,2026-01-07,1,,,,,メサラインテクノロジーズ,0
1395,6011005011315,新規,0,2026-01-07,2026-01-07,一般社団法人統合医療研究機構,,その他の設立登記法人,東京都,渋谷区,円山町５番３号ＭＩＥＵＸ渋谷ビル８階,,13,113,1500044,,,,,,,2026-01-07,1,,,,,,0
1399,6011101114260,新規,0,2026-01-07,2026-01-07,株式会社ｏｍｏ　Ｃｒｅａｔｉｏｎ,,株式会社,東京都,新宿区,新宿６丁目２７番４６－６０７号,,13,104,1600022,,,,,,,2026-01-07,1,,,,,オモクリエーション,0
1405,6011305003086,新規,0,2026-01-07,2026-01-07,特定非営利活動法人Ｕｎｉｒ　Ｓｏｕｎｄ,,その他の設立登記法人,東京都,杉並区,和泉４丁目４１番１３－１１４号,,13,115,1680063,,,,,,,2026-01-07,1,,,,,ウニールサウンド,0
1406,6011501032970,新規,0,2026-01-07,2026-01-07,伝明実業株式会社,,株式会社,東京都,荒川区,町屋３丁目２４番２号面川ビル３０３号室,,13,118,1160001,,,,,,,2026-01-07,1,,,,,デンメイジツギョウ,0
1408,6011601029289,新規,0,2026-01-07,2026-01-07,株式会社ｓｐｅｃｔｒａ,,株式会社,東京都,練馬区,豊玉上１丁目２番５－６０６号,,13,120,1760011,,,,,,,2026-01-07,1,,,,,スペクトラ,0
1430,6020001166460,新規,0,2026-01-07,2026-01-07,株式会社篠田プロジェクト,,株式会社,神奈川県,川崎市川崎区,塩浜３丁目１２－１３,,14,131,2100826,,,,,,,2026-01-07,1,,,,,シノダプロジェクト,0
1431,6020001166502,新規,0,2026-01-07,2026-01-07,株式会社ＧＬＯＷ,,株式会社,神奈川県,横浜市磯子区,洋光台６丁目１０番３９号,,14,107,2350045,,,,,,,2026-01-07,1,,,,,グロウ,0
1432,6020001166543,新規,0,2026-01-07,2026-01-07,株式会社Ｏｔｏ　Ｌｕｃｅ,,株式会社,神奈川県,横浜市港北区,篠原北１丁目１２番２‐１号,,14,109,2220021,,,,,,,2026-01-07,1,,,,,オトルーチェ,0
1436,6020003030061,新規,0,2026-01-07,2026-01-07,合同会社ＦＴＢ,,合同会社,神奈川県,横浜市中区,山下町８０－３横濱ディアタワー１１０７,,14,104,2310023,,,,,,,2026-01-07,1,,,,,エフティービー,0
1441,6021005013500,新規,0,2026-01-07,2026-01-07,ＮＰＯ法人Ｊａｎｅ　Ｇｏｏｄａｌｌ　Ｉｎｓｔｉｔｕｔｅ　Ｊａｐａｎ,,その他の設立登記法人,神奈川県,鎌倉市,佐助１丁目１８番１７－４０５号,,14,204,2480017,,,,,,,2026-01-07,1,,,,,ジェーングドールインスティテュートジャパン,0
1454,6030001170338,新規,0,2026-01-07,2026-01-07,株式会社ＵｎｉＲｉａ,,株式会社,埼玉県,さいたま市北区,宮原町３丁目５３９番地２,,11,102,3310812,,,,,,,2026-01-07,1,,,,,ユニリア,0
1455,6030001170346,新規,0,2026-01-07,2026-01-07,株式会社ユウキ,,株式会社,埼玉県,川口市,戸塚東４丁目２９番２１号,,11,203,3330802,,,,,,,2026-01-07,1,,,,,ユウキ,0
1456,6030001170370,新規,0,2026-01-07,2026-01-07,株式会社リペア塗装,,株式会社,埼玉県,川口市,柳崎５丁目７番６号,,11,203,3330861,,,,,,,2026-01-07,1,,,,,リペアトソウ,0
1457,6030001170429,新規,0,2026-01-07,2026-01-07,株式会社みやうち,,株式会社,埼玉県,久喜市,野久喜４９４番地７,,11,232,3460002,,,,,,,2026-01-07,1,,,,,ミヤウチ,0
1458,6030003028377,新規,0,2026-01-07,2026-01-07,合同会社コネクト,,合同会社,埼玉県,川口市,大字赤山１１７０番地の５,,11,203,3330825,,,,,,,2026-01-07,1,,,,,コネクト,0
1460,6040003029218,新規,0,2026-01-07,2026-01-07,ＥｌＳｏｎａ合同会社,,合同会社,千葉県,富津市,下飯野字引越２４５７番８,,12,226,2930006,,,,,,,2026-01-07,1,,,,,エルソナ,0
1462,6050003009854,新規,0,2026-01-07,2026-01-07,たちあおい合同会社,,合同会社,茨城県,常陸大宮市,野中町３２８６番地の５,,08,225,3192255,,,,,,,2026-01-07,1,,,,,タチアオイ,0
1463,6060001038912,新規,0,2026-01-07,2026-01-07,株式会社賢工業,,株式会社,栃木県,宇都宮市,ゆいの杜５丁目１９番１１号,,09,201,3213226,,,,,,,2026-01-07,1,,,,,タカコウギョウ,0
1471,6080401028362,新規,0,2026-01-07,2026-01-07,Ｎ．Ｖ．Ｔ株式会社,,株式会社,静岡県,浜松市中央区,肴町３１８番地の３コスモ第３ビル,,22,138,4300932,,,,,,,2026-01-07,1,,,,,エヌブイティ,0
1472,6090003002954,新規,0,2026-01-07,2026-01-07,合同会社オートグラスＴＲ,,合同会社,山梨県,南都留郡富士河口湖町,西湖西５番２０号,,19,430,4010333,,,,,,,2026-01-07,1,,,,,オートグラスティーアール,0
1473,6100001039229,新規,0,2026-01-07,2026-01-07,株式会社ＥＭＩＴＵＳ,,株式会社,長野県,安曇野市,三郷小倉４５２イ,,20,220,3998103,,,,,,,2026-01-07,1,,,,,エミタス,0
1474,6100001039245,新規,0,2026-01-07,2026-01-07,昭和商事株式会社,,株式会社,長野県,長野市,大字中御所１７８番地２,,20,201,3800935,,,,,,,2026-01-07,1,,,,,ショウワショウジ,0
1486,6120001283089,新規,0,2026-01-07,2026-01-07,株式会社芦屋リフォーム,,株式会社,大阪府,大阪市中央区,安土町２丁目４番１１号,,27,128,5410052,,,,,,,2026-01-07,1,,,,,アシヤリフォーム,0
1487,6120001283139,新規,0,2026-01-07,2026-01-07,ＰＥＡＣＥ＆Ｃｏ．株式会社,,株式会社,大阪府,大阪市西区,南堀江１丁目２１番１号プラウド堀江公園１３０２号,,27,106,5500015,,,,,,,2026-01-07,1,,,,,ピースアンドコー,0
1488,6120001283155,新規,0,2026-01-07,2026-01-07,株式会社ソラカゼ,,株式会社,大阪府,大阪市城東区,放出西３丁目１番２７号,,27,118,5360011,,,,,,,2026-01-07,1,,,,,ソラカゼ,0
1489,6120001283188,新規,0,2026-01-07,2026-01-07,株式会社リベッラ,,株式会社,大阪府,大阪市東淀川区,相川１丁目８番１４号２Ｃ号,,27,114,5330007,,,,,,,2026-01-07,1,,,,,リベッラ,0
1490,6120001283262,新規,0,2026-01-07,2026-01-07,ロータス・ディーエムシー株式会社,,株式会社,大阪府,大阪市淀川区,塚本２丁目２６番４－５０１号,,27,123,5320026,,,,,,,2026-01-07,1,,,,,ロータスディーエムシー,0
1493,6120003031603,新規,0,2026-01-07,2026-01-07,合同会社鬼火,,合同会社,大阪府,大阪市中央区,博労町１丁目２番１７号３０４号室,,27,128,5410059,,,,,,,2026-01-07,1,,,,,オニヒ,0
1496,6120101073010,新規,0,2026-01-07,2026-01-07,ＲＩＳＥＯＮ株式会社,,株式会社,大阪府,富田林市,昭和町１丁目７番１５号,,27,214,5840092,,,,,,,2026-01-07,1,,,,,ライズオン,0
1498,6120901052048,新規,0,2026-01-07,2026-01-07,株式会社Ａｃｃｌｙ　Ｐａｒｔｎｅｒｓ,,株式会社,大阪府,吹田市,広芝町１０番８号江坂董友ビル,,27,205,5640052,,,,,,,2026-01-07,1,,,,,アクリーパートナーズ,0
1504,6130001081368,新規,0,2026-01-07,2026-01-07,株式会社ＳＹＯＡＩホールディングス,,株式会社,京都府,京都市伏見区,向島橋詰町７７０番地６,,26,109,6128111,,,,,,,2026-01-07,1,,,,,ショウアイホールディングス,0
1509,6140001141237,新規,0,2026-01-07,2026-01-07,株式会社ＳＯＮＧＳＡＭ,,株式会社,兵庫県,尼崎市,神田中通２丁目２４番地４７阪神ＯＮＯビル７階７０４,,28,202,6600884,,,,,,,2026-01-07,1,,,,,ソンクサム,0
1510,6140001141245,新規,0,2026-01-07,2026-01-07,ＶｉｌｌａＬｉｎｋ株式会社,,株式会社,兵庫県,宝塚市,千種１丁目６番９号,,28,214,6650072,,,,,,,2026-01-07,1,,,,,ヴィラリンク,0
1511,6140001141261,新規,0,2026-01-07,2026-01-07,国津商事株式会社,,株式会社,兵庫県,川西市,一庫２丁目８番１４号,,28,217,6660153,,,,,,,2026-01-07,1,,,,,クニツショウジ,0
1512,6140001141286,新規,0,2026-01-07,2026-01-07,株式会社アクリア,,株式会社,兵庫県,多可郡多可町,加美区大袋１７９番地９,,28,365,6791332,,,,,,,2026-01-07,1,,,,,アクリア,0
1513,6140001141311,新規,0,2026-01-07,2026-01-07,株式会社オルシングホールディングス,,株式会社,兵庫県,芦屋市,船戸町５番２６号,,28,206,6590093,,,,,,,2026-01-07,1,,,,,オルシングホールディングス,0
1514,6140001141336,新規,0,2026-01-07,2026-01-07,株式会社寺内クリーニング,,株式会社,兵庫県,たつの市,龍野町日山１番地３０,,28,229,6794161,,,,,,,2026-01-07,1,,,,,テラウチクリーニング,0
1516,6140003023045,新規,0,2026-01-07,2026-01-07,合同会社ＴＫＲ,,合同会社,兵庫県,神戸市西区,大津和１丁目１－８ハイツ大津和１Ｆ,,28,111,6512112,,,,,,,2026-01-07,1,,,,,ティーケイアール,0
1518,6140005027754,新規,0,2026-01-07,2026-01-07,一般社団法人あおぞらユースプレイス,,その他の設立登記法人,兵庫県,加古郡稲美町,国安３２２番地６８,,28,381,6751114,,,,,,,2026-01-07,1,,,,,アオゾラユースプレイス,0
1520,6150003003789,新規,0,2026-01-07,2026-01-07,シャンス合同会社,,合同会社,奈良県,奈良市,中山町１７３８番地の２,,29,201,6310012,,,,,,,2026-01-07,1,,,,,シャンス,0
1535,6180001170059,新規,0,2026-01-07,2026-01-07,Ｎｅｘｔ　Ｉｎｎｏｖａｔｉｏｎ株式会社,,株式会社,愛知県,名古屋市中区,栄５丁目１２番２３号－６Ａ,,23,106,4600008,,,,,,,2026-01-07,1,,,,,ネクストイノベーション,0
1536,6180001170075,新規,0,2026-01-07,2026-01-07,株式会社Ｓｙｎｋ　Ｐｏｒｔ,,株式会社,愛知県,江南市,上奈良町天王２７－２,,23,217,4838259,,,,,,,2026-01-07,1,,,,,シンクポート,0
1537,6180001170083,新規,0,2026-01-07,2026-01-07,株式会社ＯＭＯＦＵＬ,,株式会社,愛知県,名古屋市中区,上前津２丁目１０番２８号美容あいち１Ｆ,,23,106,4600013,,,,,,,2026-01-07,1,,,,,オモフル,0
1538,6180001170091,新規,0,2026-01-07,2026-01-07,株式会社ＭｅｉｓｔｅｒＢｕｓｉｎｅｓｓ,,株式会社,愛知県,小牧市,春日寺２丁目１１４番地,,23,219,4850025,,,,,,,2026-01-07,1,,,,,マイスタービジネス,0
1539,6180001170100,新規,0,2026-01-07,2026-01-07,ＪＮＴ株式会社,,株式会社,愛知県,名古屋市千種区,春岡通５丁目３０番の２,,23,101,4640847,,,,,,,2026-01-07,1,,,,,ジェイエヌティー,0
1540,6180305009754,新規,0,2026-01-07,2026-01-07,一般社団法人モアスタディ学童クラブ,,その他の設立登記法人,愛知県,豊田市,大林町１２丁目６番地１８,,23,211,4730902,,,,,,,2026-01-07,1,,,,,モアスタディガクドウクラブ,0
1544,6200001044565,新規,0,2026-01-07,2026-01-07,株式会社ＩＫＯ,,株式会社,岐阜県,中津川市,八幡町６番１号,,21,206,5080043,,,,,,,2026-01-07,1,,,,,アイケーオー,0
1545,6200001044573,新規,0,2026-01-07,2026-01-07,アイ・ビジネスアーキテクト株式会社,,株式会社,岐阜県,岐阜市,長良校前町１丁目１０番地,,21,201,5020045,,,,,,,2026-01-07,1,,,,,アイビジネスアーキテクト,0
1547,6210001020441,新規,0,2026-01-07,2026-01-07,株式会社Ｔ．Ｋ．Ｅ,,株式会社,福井県,坂井市,丸岡町一本田中第３４号６６番地１,,18,210,9100253,,,,,,,2026-01-07,1,,,,,ティーケーイー,0
1549,6230001021231,新規,0,2026-01-07,2026-01-07,株式会社Ｓｔｒｅａｍ,,株式会社,富山県,富山市,桜橋通り３番１号富山電気ビルディング本館２階,,16,201,9300004,,,,,,,2026-01-07,1,,,,,ストリーム,0
1553,6240001066003,新規,0,2026-01-07,2026-01-07,株式会社若友工務店,,株式会社,広島県,広島市安佐北区,三入東２丁目６８番４号,,34,106,7310212,,,,,,,2026-01-07,1,,,,,ワカトモコウムテン,0
1557,6240003007541,新規,0,2026-01-07,2026-01-07,えげな合同会社,,合同会社,広島県,広島市中区,大手町１丁目１－２０相生橋ビル７階Ａ号室,,34,101,7300051,,,,,,,2026-01-07,1,,,,,エゲナ,0
1558,6250001021493,新規,0,2026-01-07,2026-01-07,フジナガマシンツール株式会社,,株式会社,山口県,下松市,旗岡３丁目３番７号,,35,207,7440006,,,,,,,2026-01-07,1,,,,,フジナガマシンツール,0
1562,6260001040856,新規,0,2026-01-07,2026-01-07,株式会社ゴキゲンふぁーむ,,株式会社,岡山県,岡山市北区,御津中泉６０２番地１,,33,101,7092135,,,,,,,2026-01-07,1,,,,,ゴキゲンファーム,0
1563,6260003005469,新規,0,2026-01-07,2026-01-07,合同会社ＥＮＩＳＨＩ,,合同会社,岡山県,津山市,日上８０番地７,,33,203,7080845,,,,,,,2026-01-07,1,,,,,エニシ,0
1578,6290001112669,新規,0,2026-01-07,2026-01-07,スーヴェニールグループ株式会社,,株式会社,福岡県,福岡市中央区,六本松４丁目９番１５－５０２号,,40,133,8100044,,,,,,,2026-01-07,1,,,,,スーヴェニールグループ,0
1579,6290001112727,新規,0,2026-01-07,2026-01-07,株式会社スタジオフジ,,株式会社,福岡県,大牟田市,長溝町２２番地１１,,40,202,8360804,,,,,,,2026-01-07,1,,,,,スタジオフジ,0
1580,6290001112735,新規,0,2026-01-07,2026-01-07,株式会社ふか川,,株式会社,福岡県,小郡市,大板井１６７番地７・１階,,40,216,8380142,,,,,,,2026-01-07,1,,,,,フカガワ,0
1583,6290005019951,新規,0,2026-01-07,2026-01-07,医療法人瑛志会,,その他の設立登記法人,福岡県,福岡市早良区,荒江２丁目２４－１７メゾンドユーロ１０１号,,40,137,8140021,,,,,,,2026-01-07,1,,,,,エイシカイ,0
1584,6290801032141,新規,0,2026-01-07,2026-01-07,メタルリンク株式会社,,株式会社,福岡県,直方市,大字上頓野４７１１番地７,,40,204,8220003,,,,,,,2026-01-07,1,,,,,メタルリンク,0
1585,6290803005244,新規,0,2026-01-07,2026-01-07,合同会社アクロス,,合同会社,福岡県,北九州市小倉南区,八重洲町１１－３,,40,107,8020831,,,,,,,2026-01-07,1,,,,,アクロス,0
1586,6310001019911,新規,0,2026-01-07,2026-01-07,株式会社マネラボ,,株式会社,長崎県,長崎市,住吉町８番１２号セブンビル１Ｆ,,42,201,8528154,,,,,,,2026-01-07,1,,,,,マネラボ,0
1588,6310003005158,新規,0,2026-01-07,2026-01-07,合同会社中村内装,,合同会社,長崎県,島原市,有明町大三東戊５１０２番地９,,42,203,8591415,,,,,,,2026-01-07,1,,,,,ナカムラナイソウ,0
1589,6330001033877,新規,0,2026-01-07,2026-01-07,株式会社小田製作所,,株式会社,熊本県,荒尾市,高浜１９５２番地１６,,43,204,8640025,,,,,,,2026-01-07,1,,,,,オダセイサクショ,0
1590,6330001033885,新規,0,2026-01-07,2026-01-07,株式会社ＥＡＳＴ　ＧＲＯＵＰ,,株式会社,熊本県,熊本市東区,健軍３丁目５０番２２－４０２号,,43,102,8620911,,,,,,,2026-01-07,1,,,,,イーストグループ,0
1594,6340001027878,新規,0,2026-01-07,2026-01-07,株式会社テイトリム,,株式会社,鹿児島県,日置市,東市来町湯田２４０６番地１,,46,216,8992201,,,,,,,2026-01-07,1,,,,,テイトリム,0
1597,6370003007438,新規,0,2026-01-07,2026-01-07,合同会社Ｎｅｗ　Ｖｉｌｌａｇｅ,,合同会社,宮城県,仙台市太白区,八木山東１丁目１５番２１号,,04,104,9820802,,,,,,,2026-01-07,1,,,,,ニューヴィレッジ,0
1599,6380001035786,新規,0,2026-01-07,2026-01-07,株式会社ｓｏｆｕ,,株式会社,福島県,郡山市,富久山町福原字大師前６番地７,,07,203,9638061,,,,,,,2026-01-07,1,,,,,ソフ,0
1601,6390001018204,新規,0,2026-01-07,2026-01-07,株式会社みやび,,株式会社,山形県,上山市,中生居９６番地,,06,207,9993203,,,,,,,2026-01-07,1,,,,,ミヤビ,0
1602,6400001017278,新規,0,2026-01-07,2026-01-07,株式会社つなぐ,,株式会社,岩手県,二戸郡一戸町,岩舘字田中６２番地２,,03,524,0285316,,,,,,,2026-01-07,1,,,,,ツナグ,0
1603,6410001014357,新規,0,2026-01-07,2026-01-07,株式会社アグリベースにかほ,,株式会社,秋田県,にかほ市,平沢字坪貝２番１２,,05,214,0180402,,,,,,,2026-01-07,1,,,,,アグリベースニカホ,0
1608,6430001095981,新規,0,2026-01-07,2026-01-07,ＨＲＰ株式会社,,株式会社,北海道,札幌市中央区,南六条西３丁目１１番地３セントラルビル７０７,,01,101,0640806,,,,,,,2026-01-07,1,,,,,エイチアールピー,0
1609,6430001096006,新規,0,2026-01-07,2026-01-07,株式会社ＪＵＭＡ,,株式会社,北海道,札幌市南区,真駒内南町１丁目１番１５号ルネ真駒内５０６,,01,106,0050016,,,,,,,2026-01-07,1,,,,,ジュマ,0
1613,6450001014824,新規,0,2026-01-07,2026-01-07,株式会社須摩シーリング,,株式会社,北海道,旭川市,永山八条１７丁目１番９号,,01,204,0798418,,,,,,,2026-01-07,1,,,,,スマシーリング,0
1614,6450003002760,新規,0,2026-01-07,2026-01-07,合同会社ササキ,,合同会社,北海道,旭川市,永山十条１５丁目４番１７号,,01,204,0798420,,,,,,,2026-01-07,1,,,,,ササキ,0
1616,6460301005332,新規,0,2026-01-07,2026-01-07,株式会社Ｗａｔｅｒ　Ｌｉｎｅｓ,,株式会社,北海道,北見市,豊地６１番地４６,,01,208,0991587,,,,,,,2026-01-07,1,,,,,ウォーターラインズ,0
1622,6500001026707,新規,0,2026-01-07,2026-01-07,株式会社ＭｏｆｕＦｉｌｍ,,株式会社,愛媛県,松山市,祝谷６丁目１１２２番地１２クリスタルコート道後９２－１１０４号,,38,201,7900833,,,,,,,2026-01-07,1,,,,,モフフィルム,0
1624,6500003003654,新規,0,2026-01-07,2026-01-07,合同会社愛ハート,,合同会社,愛媛県,喜多郡内子町,寺村２５７２,,38,422,7913502,,,,,,,2026-01-07,1,,,,,アイハート,0
1627,6700150133837,新規,0,2026-01-07,2026-01-07,ＬＥＱＥＥ　ＨＯＮＧ　ＫＯＮＧ　ＴＥＣＨＮＯＬＯＧＹ　ＬＩＭＩＴＥＤ,,外国会社等,,,,,,,,ＲＭ　９０１　ＹＩＰ　ＦＵＮＧ　ＢＬＤＧ　２－１２Ｄ’ＡＧＵＩＬＡＲ　ＳＴ　ＣＥＮＴＲＡＬ　ＨＫ,,,,,,2026-01-07,1,,,,,レキーホンコンテクノロジーリミテッド,0
1631,7010001261765,新規,0,2026-01-07,2026-01-07,Ｈ‐ＷＯＲＫＳ株式会社,,株式会社,東京都,中央区,日本橋２丁目１６－４ｒｅｍｉｘ日本橋６階,,13,102,1030027,,,,,,,2026-01-07,1,,,,,エイチワークス,0
1636,7010005041172,新規,0,2026-01-07,2026-01-07,一般社団法人銀河第１３号,,その他の設立登記法人,東京都,中央区,日本橋１丁目４番１号日本橋一丁目ビルディング,,13,102,1030027,,,,,,,2026-01-07,1,,,,,ギンガダイジュウサンゴウ,0
1637,7010101017035,新規,0,2026-01-07,2026-01-07,株式会社セルウスワン,,株式会社,東京都,八王子市,堀之内３丁目１０番地１４,,13,201,1920355,,,,,,,2026-01-07,1,,,,,セルウスワン,0
1639,7010401195456,新規,0,2026-01-07,2026-01-07,株式会社ＦＯＲＧＥ,,株式会社,東京都,港区,六本木３丁目１番３０号Ａ・Ｂビル６Ｆ,,13,103,1060032,,,,,,,2026-01-07,1,,,,,フォージ,0
1640,7010401195506,新規,0,2026-01-07,2026-01-07,ＭＭＧホールディングス株式会社,,株式会社,東京都,港区,虎ノ門２丁目６番１号,,13,103,1050001,,,,,,,2026-01-07,1,,,,,エムエムジーホールディングス,0
1641,7010401195514,新規,0,2026-01-07,2026-01-07,タイハオ・エレクトリック・テクノロジーズ・ジャパン株式会社,,株式会社,東京都,港区,芝５丁目２６番２４号,,13,103,1080014,,,,,,,2026-01-07,1,,,,,タイハオエレクトリックテクノロジーズジャパン,0
1643,7010403036864,新規,0,2026-01-07,2026-01-07,合同会社未達はダメだべ,,合同会社,東京都,港区,南青山３丁目１番３６号青山丸竹ビル６Ｆ,,13,103,1070062,,,,,,,2026-01-07,1,,,,,ミタツハダメダベ,0
1646,7010405025130,新規,0,2026-01-07,2026-01-07,ジー・エイ・ワン・レジデンス・セブンティーン特定目的会社,,その他の設立登記法人,東京都,港区,虎ノ門５丁目１番４号,,13,103,1050001,,,,,,,2026-01-07,1,,,,,ジーエイワンレジデンスセブンティーン,0
1647,7010501055238,新規,0,2026-01-07,2026-01-07,三誉国際貿易株式会社,,株式会社,東京都,台東区,台東４丁目２５－３安信ビル３０１,,13,106,1100016,,,,,,,2026-01-07,1,,,,,サンヨコクサイボウエキ,0
1648,7010501055246,新規,0,2026-01-07,2026-01-07,ＡｉＴＯＫパートナーズ株式会社,,株式会社,東京都,台東区,根岸５丁目１４番１３号,,13,106,1100003,,,,,,,2026-01-07,1,,,,,アイトックパートナーズ,0
1649,7010501055254,新規,0,2026-01-07,2026-01-07,なんじゃもんじゃ株式会社,,株式会社,東京都,台東区,台東４丁目７番５－７０１号,,13,106,1100016,,,,,,,2026-01-07,1,,,,,ナンジャモンジャ,0
1650,7010503008136,新規,0,2026-01-07,2026-01-07,合同会社ｌｅｒｎｅｎ,,合同会社,東京都,台東区,柳橋１丁目１２番６－２０２号,,13,106,1110052,,,,,,,2026-01-07,1,,,,,レルネン,0
1659,7011001174701,新規,0,2026-01-07,2026-01-07,株式会社Ｃｒａｃｋ,,株式会社,東京都,渋谷区,広尾１丁目２番地１号ヒカリビル４階,,13,113,1500012,,,,,,,2026-01-07,1,,,,,クラック,0
1660,7011001174718,新規,0,2026-01-07,2026-01-07,株式会社ｙａｍ,,株式会社,東京都,渋谷区,恵比寿西２丁目４番８号ウィンド恵比寿ビル８Ｆ,,13,113,1500021,,,,,,,2026-01-07,1,,,,,ヤム,0
1661,7011001174783,新規,0,2026-01-07,2026-01-07,株式会社Ｙｏｉｉ　Ｌｉｑｕｉｄｉｔｙ　Ｃａｐｉｔａｌ,,株式会社,東京都,渋谷区,千駄ヶ谷３丁目１６－１２第一ＦＭＧビル,,13,113,1510051,,,,,,,2026-01-07,1,,,,,ヨイリクイディティキャピタル,0
1662,7011003023261,新規,0,2026-01-07,2026-01-07,Ｐｒｏｔｏｖ合同会社,,合同会社,東京都,渋谷区,道玄坂１丁目１０番８号渋谷道玄坂東急ビル２Ｆ―Ｃ,,13,113,1500043,,,,,,,2026-01-07,1,,,,,プロトヴ,0
1663,7011003023303,新規,0,2026-01-07,2026-01-07,ＷＩＴＨＡ合同会社,,合同会社,東京都,目黒区,中町１丁目２８―１２,,13,110,1530065,,,,,,,2026-01-07,1,,,,,ウィザ,0
1668,7011101114301,新規,0,2026-01-07,2026-01-07,株式会社Ａｉｌｏ,,株式会社,東京都,新宿区,西新宿３丁目３－１３水間ビル６階,,13,104,1600023,,,,,,,2026-01-07,1,,,,,アイロ,0
1674,7011201026875,新規,0,2026-01-07,2026-01-07,株式会社ＫＤ,,株式会社,東京都,中野区,本町４丁目４２番２号,,13,114,1640012,,,,,,,2026-01-07,1,,,,,ケーディー,0
1677,7011501032978,新規,0,2026-01-07,2026-01-07,株式会社ＩＮＦＩＮＩＴＹ,,株式会社,東京都,北区,豊島４丁目１８番７－４０４号プレミスト東京王子,,13,117,1140003,,,,,,,2026-01-07,1,,,,,インフィニティ,0
1680,7011803007232,新規,0,2026-01-07,2026-01-07,合同会社ｉｎｉｔｉａ,,合同会社,東京都,足立区,神明南２丁目１３－１０－１０５,,13,121,1210057,,,,,,,2026-01-07,1,,,,,イニツィア,0
1681,7011803007249,新規,0,2026-01-07,2026-01-07,合同会社Ｔｈｅ　Ｂｏｄｙ　Ｃｏａｃｈ,,合同会社,東京都,葛飾区,東金町１丁目４０－３,,13,122,1250041,,,,,,,2026-01-07,1,,,,,ザボディコーチ,0
1689,7012803003956,新規,0,2026-01-07,2026-01-07,合同会社ヴェッドリーアンドジェイピー,,合同会社,東京都,立川市,錦町１丁目４番４号サニービル２階シーズプレイス内,,13,202,1900022,,,,,,,2026-01-07,1,,,,,ヴェッドリーアンドジェイピー,0
1692,7013301055556,新規,0,2026-01-07,2026-01-07,ミスター・ビードル株式会社,,株式会社,東京都,豊島区,東池袋１丁目３４番５号いちご東池袋ビル６階,,13,116,1700013,,,,,,,2026-01-07,1,,,,,ミスタービードル,0
1695,7020001166377,新規,0,2026-01-07,2026-01-07,銘境株式会社,,株式会社,神奈川県,横浜市南区,六ツ川１丁目１５－７プランドール１０１,,14,105,2320066,,,,,,,2026-01-07,1,,,,,メイキョウ,0
1696,7020001166484,新規,0,2026-01-07,2026-01-07,ＬＳＣ　Ｅｃｏｓｙｓｔｅｍ　Ｊａｐａｎ株式会社,,株式会社,神奈川県,横浜市中区,桜木町１丁目１－７ヒューリックみなとみらい１０階,,14,104,2310062,,,,,,,2026-01-07,1,,,,,エルエスシーエコシステムジャパン,0
1697,7020001166501,新規,0,2026-01-07,2026-01-07,株式会社Ｓｔｕｄｉｏ　Ｇｒｏｏｖｅ,,株式会社,神奈川県,横浜市神奈川区,三枚町９番地９,,14,102,2210862,,,,,,,2026-01-07,1,,,,,スタジオグルーヴ,0
1698,7020001166542,新規,0,2026-01-07,2026-01-07,株式会社ＢｅＳｋｉｎ,,株式会社,神奈川県,横浜市西区,北幸２丁目１０‐４２‐２階,,14,103,2200004,,,,,,,2026-01-07,1,,,,,ビースキン,0
1703,7020003030069,新規,0,2026-01-07,2026-01-07,ＲＯＴＴＡ合同会社,,合同会社,神奈川県,横浜市磯子区,森３丁目３－１７－１１１２横浜森町分譲共同ビル,,14,107,2350023,,,,,,,2026-01-07,1,,,,,ロッタ,0
1704,7020003030077,新規,0,2026-01-07,2026-01-07,合同会社Ｌｉｅｎ,,合同会社,神奈川県,川崎市川崎区,駅前本町１８番地１,,14,131,2100007,,,,,,,2026-01-07,1,,,,,リアン,0
1714,7030001170436,新規,0,2026-01-07,2026-01-07,株式会社ゆうりんファーマシー,,株式会社,埼玉県,春日部市,一ノ割１丁目５番６号,,11,214,3440031,,,,,,,2026-01-07,1,,,,,ユウリンファーマシー,0
1715,7030001170485,新規,0,2026-01-07,2026-01-07,株式会社ｋｒｅｉｓ,,株式会社,埼玉県,志木市,幸町３丁目４番４シーズウィッシュ志木１００９号,,11,228,3530005,,,,,,,2026-01-07,1,,,,,クライス,0
1719,7030005022377,新規,0,2026-01-07,2026-01-07,一般社団法人朝霞よさこい鳴子踊り振興協会,,その他の設立登記法人,埼玉県,朝霞市,西原１丁目５番５号３Ｆ,,11,227,3510034,,,,,,,2026-01-07,1,,,,,アサカヨサコイナルコオドリシンコウキョウカイ,0
1721,7040001141931,新規,0,2026-01-07,2026-01-07,株式会社玉井建設,,株式会社,千葉県,東金市,日吉台１丁目４番地１３,,12,213,2830803,,,,,,,2026-01-07,1,,,,,タマイケンセツ,0
1722,7040001141972,新規,0,2026-01-07,2026-01-07,三井トラベル株式会社,,株式会社,千葉県,白井市,冨士１１４－３６,,12,232,2701432,,,,,,,2026-01-07,1,,,,,ミツイトラベル,0
1723,7040001142005,新規,0,2026-01-07,2026-01-07,株式会社ＴＩＮＥＳＴ,,株式会社,千葉県,木更津市,八幡台４丁目４－１６,,12,206,2920814,,,,,,,2026-01-07,1,,,,,タイネスト,0
1726,7050003009837,新規,0,2026-01-07,2026-01-07,ＴＨ合同会社,,合同会社,茨城県,常総市,水海道森下４３６０ＥＳＴＵビル２０２号,,08,211,3030000,,,,,,,2026-01-07,1,,,,,ティーエイチ,0
1729,7060001038894,新規,0,2026-01-07,2026-01-07,Ｎ．Ｆ．ホールディングス株式会社,,株式会社,栃木県,佐野市,富岡町１５７５番地２,,09,204,3270844,,,,,,,2026-01-07,1,,,,,エヌエフホールディングス,0
1730,7060001038911,新規,0,2026-01-07,2026-01-07,株式会社ＡＳＵ,,株式会社,栃木県,宇都宮市,若松原３丁目１７番６号,,09,201,3210139,,,,,,,2026-01-07,1,,,,,アス,0
1733,7070003006238,新規,0,2026-01-07,2026-01-07,合同会社前橋街商,,合同会社,群馬県,前橋市,千代田町５丁目１番７号,,10,201,3710022,,,,,,,2026-01-07,1,,,,,マエバシガイショウ,0
1734,7080001027359,新規,0,2026-01-07,2026-01-07,株式会社Ｓ・Ｂ・Ｇ,,株式会社,静岡県,焼津市,栄町６丁目１６番１９号,,22,212,4250027,,,,,,,2026-01-07,1,,,,,エスビージー,0
1738,7080103003497,新規,0,2026-01-07,2026-01-07,合同会社引退馬とハジメ,,合同会社,静岡県,富士宮市,粟倉２４９０番地の６,,22,207,4180011,,,,,,,2026-01-07,1,,,,,インタイバトハジメ,0
1739,7080401028353,新規,0,2026-01-07,2026-01-07,株式会社フェリーツェ,,株式会社,静岡県,浜松市中央区,上島６丁目３４番２３号,,22,138,4338122,,,,,,,2026-01-07,1,,,,,フェリーツェ,0
1740,7080401028361,新規,0,2026-01-07,2026-01-07,株式会社カルメン,,株式会社,静岡県,浜松市中央区,西山町３４９番地の６,,22,138,4328001,,,,,,,2026-01-07,1,,,,,カルメン,0
1744,7100001039228,新規,0,2026-01-07,2026-01-07,株式会社ｒｅ,,株式会社,長野県,長野市,大字鶴賀権堂町２２６９番地８地下１階,,20,201,3800833,,,,,,,2026-01-07,1,,,,,アールイー,0
1753,7120001283187,新規,0,2026-01-07,2026-01-07,株式会社Ｂ．Ｔ．ライズ,,株式会社,大阪府,大阪市東成区,玉津２丁目１１番２３号,,27,115,5370023,,,,,,,2026-01-07,1,,,,,ビーティーライズ,0
1754,7120001283195,新規,0,2026-01-07,2026-01-07,萌寵欣株式会社,,株式会社,大阪府,大阪市城東区,東中浜６丁目１０番１６－１０１号,,27,118,5360023,,,,,,,2026-01-07,1,,,,,モウチョウキン,0
1755,7120001283253,新規,0,2026-01-07,2026-01-07,株式会社ＬＩＶＥＮＣＥ,,株式会社,大阪府,大阪市中央区,西心斎橋２丁目１３番１号アンゴリーノビル１階,,27,128,5420086,,,,,,,2026-01-07,1,,,,,リベンス,0
1758,7120003031593,新規,0,2026-01-07,2026-01-07,合同会社加賀美設備商会,,合同会社,大阪府,門真市,北岸和田２丁目１番３５号,,27,223,5710007,,,,,,,2026-01-07,1,,,,,カガミセツビショウカイ,0
1759,7120003031602,新規,0,2026-01-07,2026-01-07,合同会社ヒューマン・ヘルシーライフ研究所,,合同会社,大阪府,大阪市浪速区,幸町１丁目３－１１Ｍ’プラザ難波駅前５０７号,,27,111,5560021,,,,,,,2026-01-07,1,,,,,ヒューマンヘルシーライフケンキュウジョ,0
1760,7120003031610,新規,0,2026-01-07,2026-01-07,合同会社Ｃｉｎｑ　Ａｍｉｓ,,合同会社,大阪府,大阪市北区,曾根崎新地１丁目５番１４号みもざ館２階,,27,127,5300002,,,,,,,2026-01-07,1,,,,,サンクアミ,0
1761,7120101073026,新規,0,2026-01-07,2026-01-07,株式会社真ころ,,株式会社,大阪府,泉北郡忠岡町,馬瀬３丁目５番２０－１号,,27,341,5950804,,,,,,,2026-01-07,1,,,,,マコロ,0
1773,7140001141244,新規,0,2026-01-07,2026-01-07,株式会社Ｓｏｒｉｈａｓｈｉｙａ,,株式会社,兵庫県,神戸市兵庫区,大開通７丁目２番１０号,,28,105,6520803,,,,,,,2026-01-07,1,,,,,ソリハシヤ,0
1774,7140001141269,新規,0,2026-01-07,2026-01-07,株式会社スカイテック,,株式会社,兵庫県,姫路市,夢前町菅生澗１７６３番地１,,28,201,6712134,,,,,,,2026-01-07,1,,,,,スカイテック,0
1775,7140001141277,新規,0,2026-01-07,2026-01-07,株式会社ｕｍ．,,株式会社,兵庫県,神戸市中央区,磯辺通１丁目１番１８号カサベラ国際プラザビル７０７号室,,28,110,6510084,,,,,,,2026-01-07,1,,,,,ウム,0
1776,7140001141302,新規,0,2026-01-07,2026-01-07,株式会社アルティメイト,,株式会社,兵庫県,姫路市,白浜町乙８４８番地２,,28,201,6728023,,,,,,,2026-01-07,1,,,,,アルティメイト,0
1779,7140003023044,新規,0,2026-01-07,2026-01-07,合同会社ｎｏ‐ｃａ,,合同会社,兵庫県,丹波篠山市,川原７０,,28,221,6692512,,,,,,,2026-01-07,1,,,,,ノウカ,0
1780,7140003023052,新規,0,2026-01-07,2026-01-07,合同会社Ｆｕｋｕ　Ｌａｂ．,,合同会社,兵庫県,神戸市須磨区,友が丘９丁目２６０３－５７,,28,107,6540142,,,,,,,2026-01-07,1,,,,,フクラボ,0
1781,7150001028630,新規,0,2026-01-07,2026-01-07,木嶋屋株式会社,,株式会社,奈良県,奈良市,四条大路２丁目２番１３号いこまビル３Ｆ,,29,201,6308014,,,,,,,2026-01-07,1,,,,,キシマヤ,0
1782,7160001027326,新規,0,2026-01-07,2026-01-07,株式会社善四朗,,株式会社,滋賀県,大津市,大萱２丁目２番１６号,,25,201,5202144,,,,,,,2026-01-07,1,,,,,ゼンシロウ,0
1783,7160003003696,新規,0,2026-01-07,2026-01-07,Ｊ‐ＯＲＩＧＩＮ合同会社,,合同会社,滋賀県,蒲生郡日野町,大字木津５０２番地,,25,383,5291607,,,,,,,2026-01-07,1,,,,,ジェイオリジン,0
1785,7170001018935,新規,0,2026-01-07,2026-01-07,株式会社ＮｅｘｕｓＲｉｓｅ,,株式会社,和歌山県,田辺市,上秋津２３１０番地の２０４,,30,206,6460001,,,,,,,2026-01-07,1,,,,,ネクサスライズ,0
1794,7180001170066,新規,0,2026-01-07,2026-01-07,株式会社暁,,株式会社,愛知県,名古屋市中区,新栄１丁目２３番１９－４０２号,,23,106,4600007,,,,,,,2026-01-07,1,,,,,アカツキ,0
1795,7180001170074,新規,0,2026-01-07,2026-01-07,株式会社全国技能教習センター,,株式会社,愛知県,春日井市,知多町１丁目７０番地,,23,206,4860947,,,,,,,2026-01-07,1,,,,,ゼンコクギノウキョウシュウセンター,0
1796,7180001170108,新規,0,2026-01-07,2026-01-07,株式会社愛知芸術文化センター,,株式会社,愛知県,名古屋市中区,三の丸１丁目６番１号,,23,106,4600001,,,,,,,2026-01-07,1,,,,,アイチゲイジユツブンカセンター,0
1798,7180003029558,新規,0,2026-01-07,2026-01-07,合同会社ハングル,,合同会社,愛知県,名古屋市名東区,藤が丘１４８浅野ビル３Ｆ,,23,115,4650032,,,,,,,2026-01-07,1,,,,,ハングル,0
1799,7180003029566,新規,0,2026-01-07,2026-01-07,合同会社あかね,,合同会社,愛知県,名古屋市守山区,白山１丁目１５１７－５,,23,113,4630032,,,,,,,2026-01-07,1,,,,,アカネ,0
1802,7190001032802,新規,0,2026-01-07,2026-01-07,株式会社ＡＩＮＡＸ,,株式会社,三重県,桑名市,西正和台４丁目１３番地２８,,24,205,5110933,,,,,,,2026-01-07,1,,,,,アイナックス,0
1809,7220001027096,新規,0,2026-01-07,2026-01-07,馬場先商会株式会社,,株式会社,石川県,金沢市,暁町６番１３号,,17,201,9200926,,,,,,,2026-01-07,1,,,,,ババサキショウカイ,0
1810,7220001027105,新規,0,2026-01-07,2026-01-07,株式会社ＵＮＴＲＡＣＥ,,株式会社,石川県,金沢市,千日町９‐２３セレーネＩＩＩ１０１,00142063,17,201,9218023,,,,,,,2026-01-07,1,,,,,,0
1815,7240001065994,新規,0,2026-01-07,2026-01-07,株式会社ＫＤファシリティーズ,,株式会社,広島県,広島市西区,己斐本町２丁目１８番９号,,34,104,7330812,,,,,,,2026-01-07,1,,,,,ケーディーファシリティーズ,0
1816,7240001066002,新規,0,2026-01-07,2026-01-07,株式会社ケーズクリエイト,,株式会社,広島県,広島市西区,古江西町１９番２７号,,34,104,7330874,,,,,,,2026-01-07,1,,,,,ケーズクリエイト,0
1817,7240001066010,新規,0,2026-01-07,2026-01-07,株式会社児玉工務店,,株式会社,広島県,大竹市,白石１丁目１７番２５号１０３,,34,211,7390614,,,,,,,2026-01-07,1,,,,,コダマコウムテン,0
1820,7250003003877,新規,0,2026-01-07,2026-01-07,合同会社ＩＣＨＩ,,合同会社,山口県,宇部市,東小羽山町１丁目１０番４号,,35,202,7550082,,,,,,,2026-01-07,1,,,,,イチ,0
1822,7260001040855,新規,0,2026-01-07,2026-01-07,株式会社Ｋ‐ｓｔｙｌｅ,,株式会社,岡山県,小田郡矢掛町,東三成２０４２番地,,33,461,7141211,,,,,,,2026-01-07,1,,,,,ケイスタイル,0
1823,7260001040863,新規,0,2026-01-07,2026-01-07,株式会社咲楽,,株式会社,岡山県,玉野市,宇野７丁目１番１０号,,33,204,7060011,,,,,,,2026-01-07,1,,,,,サクラ,0
1824,7260001040871,新規,0,2026-01-07,2026-01-07,株式会社樹,,株式会社,岡山県,倉敷市,昭和２丁目１番２８号,,33,202,7100057,,,,,,,2026-01-07,1,,,,,イツキ,0
1832,7290003017898,新規,0,2026-01-07,2026-01-07,博多ジャンたこ合同会社,,合同会社,福岡県,福岡市中央区,荒戸３丁目９番１３号,,40,133,8100062,,,,,,,2026-01-07,1,,,,,ハカタジャンタコ,0
1834,7290801032140,新規,0,2026-01-07,2026-01-07,株式会社氷菓,,株式会社,福岡県,北九州市八幡西区,里中３丁目９番５号,,40,109,8070846,,,,,,,2026-01-07,1,,,,,ヒョウカ,0
1835,7290801032149,新規,0,2026-01-07,2026-01-07,マイケルワールド株式会社,,株式会社,福岡県,行橋市,南大橋５丁目５番１３号,,40,213,8240032,,,,,,,2026-01-07,1,,,,,マイケルワールド,0
1839,7310001019902,新規,0,2026-01-07,2026-01-07,株式会社Ｉｒｉｅ,,株式会社,長崎県,佐世保市,上原町２６番地２９,,42,202,8593202,,,,,,,2026-01-07,1,,,,,アイリー,0
1840,7310001019910,新規,0,2026-01-07,2026-01-07,株式会社ＮＳ　ＣＯＮＮＥＣＴ,,株式会社,長崎県,長崎市,宿町６８８番地３,,42,201,8510121,,,,,,,2026-01-07,1,,,,,エヌエスコネクト,0
1845,7310003005157,新規,0,2026-01-07,2026-01-07,塩崎工業合同会社,00142066,合同会社,長崎県,東彼杵郡川棚町,白石郷１１２５番地４１,,42,322,8593616,,,,,,,2026-01-07,1,,,,,シオサキコウギョウ,0
1847,7320001021510,新規,0,2026-01-07,2026-01-07,株式会社スリーセイル,,株式会社,大分県,別府市,東荘園３丁目６番５号,,44,202,8740836,,,,,,,2026-01-07,1,,,,,スリーセイル,0
1852,7330001033884,新規,0,2026-01-07,2026-01-07,株式会社ビレッジアップ不動産,,株式会社,熊本県,熊本市東区,下江津２丁目８番１１－１０４号,,43,102,8620960,,,,,,,2026-01-07,1,,,,,ビレッジアップフドウサン,0
1860,7340001027877,新規,0,2026-01-07,2026-01-07,株式会社楓,,株式会社,鹿児島県,鹿児島市,喜入瀬々串町２９９５番地２,,46,201,8910201,,,,,,,2026-01-07,1,,,,,カエデ,0
1862,7360003015523,新規,0,2026-01-07,2026-01-07,合同会社ＯＧＴ,,合同会社,沖縄県,中頭郡北谷町,伊平１丁目３番３５号ＷＡＩＯＬＡＨＯＵＳＥ１Ｆ,,47,326,9040102,,,,,,,2026-01-07,1,,,,,オージーティー,0
1866,7370001053342,新規,0,2026-01-07,2026-01-07,株式会社ＭＡＧＮＯＬＩＡ,,株式会社,宮城県,仙台市青葉区,中央２丁目１１番１９号仙南ビル４階－Ａ,,04,101,9800021,,,,,,,2026-01-07,1,,,,,マグノリア,0
1867,7380001035785,新規,0,2026-01-07,2026-01-07,株式会社読売民友センター常磐,,株式会社,福島県,いわき市,常磐湯本町吹谷９７番地田口屋ビル１階,,07,204,9728321,,,,,,,2026-01-07,1,,,,,ヨミウリミンユウセンタージョウバン,0
1868,7380003006223,新規,0,2026-01-07,2026-01-07,合同会社ｍｏｋｍｏｋ,,合同会社,福島県,郡山市,菜根１丁目７番５号,,07,203,9638862,,,,,,,2026-01-07,1,,,,,モクモク,0
1870,7390001018211,新規,0,2026-01-07,2026-01-07,想クリエイト株式会社,,株式会社,山形県,酒田市,住吉町１番１２号,,06,204,9980029,,,,,,,2026-01-07,1,,,,,,0
1871,7400003003589,新規,0,2026-01-07,2026-01-07,アオバデンキ合同会社,,合同会社,岩手県,一関市,青葉１丁目８番１７号,,03,209,0210031,,,,,,,2026-01-07,1,,,,,アオバデンキ,0
1872,7410001014356,新規,0,2026-01-07,2026-01-07,株式会社ＹＡＭＡＴＡ,,株式会社,秋田県,秋田市,牛島東２丁目１番３１号,,05,201,0100062,,,,,,,2026-01-07,1,,,,,ヤマタ,0
1881,7500001026697,新規,0,2026-01-07,2026-01-07,株式会社ＧＯＬＤＥＮ　ＷＡＹ,,株式会社,愛媛県,今治市,山路町１丁目１番２３号,,38,202,7940071,,,,,,,2026-01-07,1,,,,,ゴールデンウェイ,0
1882,7500001026706,新規,0,2026-01-07,2026-01-07,Ｔ３プランニング株式会社,,株式会社,愛媛県,北宇和郡鬼北町,大字近永１３０５番地１,,38,488,7981300,,,,,,,2026-01-07,1,,,,,ティースリープランニング,0
1883,7500003003653,新規,0,2026-01-07,2026-01-07,合同会社浅海商会,,合同会社,愛媛県,今治市,波方町波方乙４８１番地２０,,38,202,7992101,,,,,,,2026-01-07,1,,,,,アサウミショウカイ,0
1887,7700150133836,新規,0,2026-01-07,2026-01-07,ＫＯＬＣＡＲＴ　ＬＩＭＩＴＥＤ,,外国会社等,,,,,,,,ＦＬＡＴ／ＲＭ　１２２９　１２／Ｆ　ＳＯＬＯ　ＢＵＩＬＤＩＮＧ　４１－４３　ＣＡＲＮＡＲＶＯＮ　ＲＯＡＤ　Ｔｓｉｍｓｈａｔｓｕｉ，Ｋｏｗｌｏｏｎ　Ｈｏｎｇ　Ｋｏｎｇ,,,,,,2026-01-07,1,,,,,コールカートリミテッド,0
1892,8010001261632,新規,0,2026-01-07,2026-01-07,株式会社ＶＡＳＣ‐ＭＥＤ,,株式会社,東京都,千代田区,永田町２丁目９番８号パレロワイヤル永田町８０５号,,13,101,1000014,,,,,,,2026-01-07,1,,,,,バスクメド,0
1899,8010101017034,新規,0,2026-01-07,2026-01-07,Ｓ，Ｋ，ＲＩＳＥ株式会社,,株式会社,東京都,八王子市,館町２７９番地３,,13,201,1930944,,,,,,,2026-01-07,1,,,,,エスケーライズ,0
1901,8010103002728,新規,0,2026-01-07,2026-01-07,合同会社ＡＲＵＧＯ　ＷＯＲＫＳ,,合同会社,東京都,八王子市,裏高尾町３９６―１,,13,201,1930841,,,,,,,2026-01-07,1,,,,,アルゴワークス,0
1911,8010401195240,新規,0,2026-01-07,2026-01-07,株式会社ＳＫｇｒｏｕｐ,,株式会社,東京都,港区,六本木４丁目１番１６号六本木ハイツ７０５,,13,103,1060032,,,,,,,2026-01-07,1,,,,,エスケイグループ,0
1912,8010401195430,新規,0,2026-01-07,2026-01-07,Ｅｒｉｓｈ　Ｓｏｌｕｔｉｏｎｓ株式会社,,株式会社,東京都,港区,元赤坂１丁目１番地７号１１０３号室,,13,103,1070051,,,,,,,2026-01-07,1,,,,,エリッシュソリューションズ,0
1913,8010401195505,新規,0,2026-01-07,2026-01-07,ヒトタメ・フードテック株式会社,,株式会社,東京都,港区,三田３丁目９番１１号ＲａｎｄＬＴＡＫＡＮＡＷＡＧＡＴＥＷＡＹ・ＦＤ－０６,,13,103,1080073,,,,,,,2026-01-07,1,,,,,ヒトタメフードテック,0
1914,8010401195546,新規,0,2026-01-07,2026-01-07,Ｔ＆Ｋ　Ｗｏｒｋｓ株式会社,,株式会社,東京都,港区,芝浦４丁目１０番１－２７１４号,,13,103,1080023,,,,,,,2026-01-07,1,,,,,ティーアンドケーワークス,0
1915,8010401195604,新規,0,2026-01-07,2026-01-07,株式会社境生社,,株式会社,東京都,港区,北青山１丁目３番１号アールキューブ青山３階,,13,103,1070061,,,,,,,2026-01-07,1,,,,,キョウショウシャ,0
1917,8010403036962,新規,0,2026-01-07,2026-01-07,ロゴトス合同会社,,合同会社,東京都,港区,六本木７丁目１８番５号,,13,103,1060032,,,,,,,2026-01-07,1,,,,,ロゴトス,0
1918,8010403036970,新規,0,2026-01-07,2026-01-07,クルーズポート那覇合同会社,,合同会社,東京都,港区,六本木３丁目３番２７号スハラ六本木１階,,13,103,1060032,,,,,,,2026-01-07,1,,,,,クルーズポートナハ,0
1922,8010405025138,新規,0,2026-01-07,2026-01-07,一般社団法人ジョイスポーツ協会,,その他の設立登記法人,東京都,港区,北青山２丁目７番１１青山但馬屋ビル７Ｆ,,13,103,1070061,,,,,,,2026-01-07,1,,,,,,0
1923,8010405025204,新規,0,2026-01-07,2026-01-07,一般社団法人リブラ,,その他の設立登記法人,東京都,港区,虎ノ門５丁目３番２０号株式会社アカウンティング・マネジメント・サービス内,,13,103,1050001,,,,,,,2026-01-07,1,,,,,リブラ,0
1924,8010405025212,新規,0,2026-01-07,2026-01-07,有明一般社団法人,,その他の設立登記法人,東京都,港区,元赤坂１丁目１番７－１２０９号株式会社赤坂国際会計内,,13,103,1070051,,,,,,,2026-01-07,1,,,,,アリアケ,0
1926,8010501055245,新規,0,2026-01-07,2026-01-07,株式会社徳心,,株式会社,東京都,台東区,下谷２丁目２番１号,,13,106,1100004,,,,,,,2026-01-07,1,,,,,トクシン,0
1927,8010503008135,新規,0,2026-01-07,2026-01-07,合同会社ｆｏｒｅｓｔＦｉｅｌｄ,,合同会社,東京都,台東区,上野１丁目１７番６号広小路ビル８Ｆ－Ｂ,,13,106,1100005,,,,,,,2026-01-07,1,,,,,フォレストフィールド,0
1932,8010601068527,新規,0,2026-01-07,2026-01-07,株式会社晨光,,株式会社,東京都,江東区,森下２丁目２番２号,,13,108,1350004,,,,,,,2026-01-07,1,,,,,シンコウ,0
1933,8010601068543,新規,0,2026-01-07,2026-01-07,株式会社Ｕ,,株式会社,東京都,墨田区,東向島５丁目１４－９,,13,107,1310032,,,,,,,2026-01-07,1,,,,,ウー,0
1936,8010703008067,新規,0,2026-01-07,2026-01-07,合同会社エービーイーシー,,合同会社,東京都,品川区,西五反田５丁目２２番５号Ｂ１Ｆ,,13,109,1410031,,,,,,,2026-01-07,1,,,,,エービーイーシー,0
1939,8010801036936,新規,0,2026-01-07,2026-01-07,株式会社アオハネ,,株式会社,東京都,大田区,山王２丁目５－６ＳＡＮＮＯＢＲＩＤＧＥ,,13,111,1430023,,,,,,,2026-01-07,1,,,,,アオハネ,0
1940,8010801036944,新規,0,2026-01-07,2026-01-07,荏原ドライブシステム株式会社,,株式会社,東京都,大田区,羽田旭町１１番１号,,13,111,1440042,,,,,,,2026-01-07,1,,,,,エバラドライブシステム,0
1943,8010901058731,新規,0,2026-01-07,2026-01-07,株式会社ビラーダ,,株式会社,東京都,世田谷区,北沢１丁目４６番１３号サマースノーテラス２Ｆ,,13,112,1550031,,,,,,,2026-01-07,1,,,,,ビラーダ,0
1945,8011003023252,新規,0,2026-01-07,2026-01-07,合同会社ＢＩＴＺ,,合同会社,東京都,渋谷区,広尾１丁目２番地１号ヒカリビル４階,,13,113,1500012,,,,,,,2026-01-07,1,,,,,ビッツ,0
1946,8011003023260,新規,0,2026-01-07,2026-01-07,合同会社ＢＡＭ,,合同会社,東京都,渋谷区,道玄坂１丁目１０番８号渋谷道玄坂東急ビル２Ｆ－Ｃ,,13,113,1500043,,,,,,,2026-01-07,1,,,,,バム,0
1948,8011301031155,新規,0,2026-01-07,2026-01-07,株式会社１００１０,,株式会社,東京都,杉並区,本天沼２丁目５番１０号荻窪ロウハウスＧ,,13,115,1670031,,,,,,,2026-01-07,1,,,,,マンジュウ,0
1950,8011501032969,新規,0,2026-01-07,2026-01-07,三竪沐山株式会社,,株式会社,東京都,荒川区,町屋３丁目２４番２号面川ビル２０８号,,13,118,1160001,,,,,,,2026-01-07,1,,,,,サンケンモクザン,0
1952,8011601029287,新規,0,2026-01-07,2026-01-07,株式会社ＳＫクリエイティング,,株式会社,東京都,練馬区,大泉町２丁目８番９号,,13,120,1780062,,,,,,,2026-01-07,1,,,,,エスケークリエイティング,0
1953,8011603004965,新規,0,2026-01-07,2026-01-07,合同会社プロフェッショナルＥ,,合同会社,東京都,練馬区,南大泉２丁目１番４１号インザファームＩＸ１０２,00142059,13,120,1780064,,,,,,,2026-01-07,1,,,,,プロフェッショナルイー,0
1955,8011801047246,新規,0,2026-01-07,2026-01-07,株式会社ＣＯＲＥ,,株式会社,東京都,葛飾区,亀有２丁目３４番２号,,13,122,1250061,,,,,,,2026-01-07,1,,,,,コア,0
1956,8011801047254,新規,0,2026-01-07,2026-01-07,ＥＤＩＴＲＥＸ株式会社,,株式会社,東京都,足立区,伊興本町１丁目３番１１－２０２号,,13,121,1210807,,,,,,,2026-01-07,1,,,,,エディトレックス,0
1957,8011801047270,新規,0,2026-01-07,2026-01-07,株式会社Ｆａｍ,,株式会社,東京都,足立区,宮城１丁目２番１８号,,13,121,1200047,,,,,,,2026-01-07,1,,,,,ファム,0
1960,8013101009901,新規,0,2026-01-07,2026-01-07,株式会社オートガレージ,,株式会社,東京都,西多摩郡瑞穂町,大字武蔵３６７番地１,,13,303,1901213,,,,,,,2026-01-07,1,,,,,オートガレージ,0
1965,8013301055563,新規,0,2026-01-07,2026-01-07,株式会社プログレス,,株式会社,東京都,豊島区,東池袋２丁目６２番８号ＢＩＧオフィスプラザ池袋１１０２,,13,116,1700013,,,,,,,2026-01-07,1,,,,,プログレス,0
1972,8020003030068,新規,0,2026-01-07,2026-01-07,Ｌｕｍｉｎａ　Ａｔｅｌｉｅｒ合同会社,,合同会社,神奈川県,横浜市西区,浅間町１丁目４番３号,,14,103,2200072,,,,,,,2026-01-07,1,,,,,ルミナアトリエ,0
1973,8020003030101,新規,0,2026-01-07,2026-01-07,ＭｉＲａｌｅｓ合同会社,,合同会社,神奈川県,横浜市西区,北幸２丁目１０番４８号むつみビル３階,,14,103,2200004,,,,,,,2026-01-07,1,,,,,ミラレス,0
1978,8021003016882,新規,0,2026-01-07,2026-01-07,Ｈａｎａ合同会社,,合同会社,神奈川県,鎌倉市,材木座５丁目１３―３７―２０２,,14,204,2480013,,,,,,,2026-01-07,1,,,,,ハナ,0
1988,8040003029208,新規,0,2026-01-07,2026-01-07,ＹＯＳＨＩＤＡ　ＩＮＴ　ＴＲＡＤＩＮＧ合同会社,,合同会社,千葉県,野田市,木間ケ瀬７５６番地１２,,12,208,2700222,,,,,,,2026-01-07,1,,,,,ヨシダイントレーディング,0
1991,8050003009852,新規,0,2026-01-07,2026-01-07,合同会社ｎｉｃｏ人間研究所,,合同会社,茨城県,笠間市,下市毛１００８番地１,,08,216,3091626,,,,,,,2026-01-07,1,,,,,ニコニンゲンケンキュウジョ,0
1992,8050003009860,新規,0,2026-01-07,2026-01-07,ＳＨＡＫＥＥＬ　ＭＯＴＯＲＳ合同会社,,合同会社,茨城県,筑西市,布川１０１７番地５０江連アパート３号館１０３,,08,227,3080846,,,,,,,2026-01-07,1,,,,,シャキールモーターズ,0
1997,8060003005917,新規,0,2026-01-07,2026-01-07,ＡＭＷ合同会社,,合同会社,栃木県,栃木市,宮田町２３５番地,,09,203,3280022,,,,,,,2026-01-07,1,,,,,エーエムダブリュー,0
2002,8080001027358,新規,0,2026-01-07,2026-01-07,Ｒｅ＆Ｒｅｅキャリア株式会社,,株式会社,静岡県,静岡市葵区,東千代田３丁目６番２１号,,22,101,4200801,,,,,,,2026-01-07,1,,,,,リーアンドリーキャリア,0
2004,8080401028360,新規,0,2026-01-07,2026-01-07,株式会社深草テレビ通信,,株式会社,静岡県,浜松市浜名区,細江町中川７１７２番地の２００３,,22,139,4311304,,,,,,,2026-01-07,1,,,,,フカクサテレビツウシン,0
2007,8110003006018,新規,0,2026-01-07,2026-01-07,合同会社Ｌｉｎｏ,,合同会社,新潟県,上越市,中央１丁目２０番７号,,15,222,9420001,,,,,,,2026-01-07,1,,,,,リノ,0
2008,8110003006026,新規,0,2026-01-07,2026-01-07,ふくろう合同会社,,合同会社,新潟県,新潟市秋葉区,浦興野３２３番地１,,15,105,9560044,,,,,,,2026-01-07,1,,,,,フクロウ,0
2020,8120001283112,新規,0,2026-01-07,2026-01-07,株式会社ＮＦＴ　ＨＯＬＤＩＮＧＳ,,株式会社,大阪府,大阪市北区,天神橋７丁目１２番１４号グレーシィ天神橋３０１Ａ,,27,127,5310041,,,,,,,2026-01-07,1,,,,,ニホンフードテックホールディングス,0
2021,8120001283120,新規,0,2026-01-07,2026-01-07,株式会社グランハウス,,株式会社,大阪府,大阪市西成区,山王１丁目１２番２０号,,27,122,5570001,,,,,,,2026-01-07,1,,,,,グランハウス,0
2022,8120001283145,新規,0,2026-01-07,2026-01-07,株式会社ゼネラルグループ,,株式会社,大阪府,大阪市西淀川区,野里２丁目２２番２６号,,27,113,5550024,,,,,,,2026-01-07,1,,,,,ゼネラルグループ,0
2023,8120001283161,新規,0,2026-01-07,2026-01-07,株式会社肆興,,株式会社,大阪府,寝屋川市,河北中町２５番２３－１０１号,,27,215,5720816,,,,,,,2026-01-07,1,,,,,ヨンコウ,0
2024,8120001283194,新規,0,2026-01-07,2026-01-07,Ｍ＆Ｈコンサルティング株式会社,,株式会社,大阪府,大阪市淀川区,十三東１丁目７番１８号酒井ビル２０１号,,27,123,5320023,,,,,,,2026-01-07,1,,,,,エムアンドエイチコンサルティング,0
2025,8120001283285,新規,0,2026-01-07,2026-01-07,株式会社ＳＨＯＳＨＩＮ,,株式会社,大阪府,大阪市西区,南堀江１丁目３番１２－２９０７号,,27,106,5500015,,,,,,,2026-01-07,1,,,,,ショーシン,0
2028,8120003031592,新規,0,2026-01-07,2026-01-07,合同会社ＳＵＮＤＡＹ,,合同会社,大阪府,大阪市浪速区,元町２丁目７番４号,,27,111,5560016,,,,,,,2026-01-07,1,,,,,サンデー,0
2029,8120005025329,新規,0,2026-01-07,2026-01-07,一般社団法人日本精神科訪問看護協会,,その他の設立登記法人,大阪府,大阪市平野区,加美南１丁目８番１５号,,27,126,5470003,,,,,,,2026-01-07,1,,,,,ニホンセイシンカホウモンカンゴキョウカイ,0
2030,8120101073017,新規,0,2026-01-07,2026-01-07,株式会社ｃａｒ　ｃｒａｆｔ　ＳＵＮＲＩＳＥ,,株式会社,大阪府,松原市,天美西５丁目２５６番地１,,27,217,5800034,,,,,,,2026-01-07,1,,,,,カークラフトサンライズ,0
2033,8120901052062,新規,0,2026-01-07,2026-01-07,北摂匠不動産株式会社,,株式会社,大阪府,豊中市,庄内東町２丁目１－４,,27,203,5610831,,,,,,,2026-01-07,1,,,,,ホクセツタクミフドウサン,0
2034,8120903006017,新規,0,2026-01-07,2026-01-07,合同会社ファーストラボ,,合同会社,大阪府,吹田市,南吹田２丁目１４番１０－１号,,27,205,5640043,,,,,,,2026-01-07,1,,,,,ファーストラボ,0
2035,8122001040039,新規,0,2026-01-07,2026-01-07,株式会社Ｒｉｓｈａｎｔｅ,,株式会社,大阪府,東大阪市,善根寺町３丁目３－５６,,27,227,5798001,,,,,,,2026-01-07,1,,,,,リシャンテ,0
2042,8130001081341,新規,0,2026-01-07,2026-01-07,テルワール株式会社,,株式会社,京都府,京都市伏見区,竹田段川原町２６１番地ボナセーラ竹田１０７,,26,109,6128414,,,,,,,2026-01-07,1,,,,,テルワール,0
2047,8140001141268,新規,0,2026-01-07,2026-01-07,株式会社ケアスタイル優,,株式会社,兵庫県,尼崎市,若王寺３丁目１２番４４－３号,,28,202,6610974,,,,,,,2026-01-07,1,,,,,ケアスタイルユウ,0
2050,8140003023027,新規,0,2026-01-07,2026-01-07,合同会社鸞土,,合同会社,兵庫県,明石市,西明石北町３丁目４－３ゼフィール西明石１０２,,28,203,6730018,,,,,,,2026-01-07,1,,,,,ランド,0
2051,8140005027752,新規,0,2026-01-07,2026-01-07,医療法人社団でんの整形外科,,その他の設立登記法人,兵庫県,尼崎市,南武庫之荘４丁目３番１２号,,28,202,6610033,,,,,,,2026-01-07,1,,,,,デンノセイケイゲカ,0
2054,8160001027325,新規,0,2026-01-07,2026-01-07,株式会社Ｍａｍｐｕｋｕ,,株式会社,滋賀県,長浜市,常喜町５４３番地,,25,203,5260823,,,,,,,2026-01-07,1,,,,,マンプク,0
2057,8170001018934,新規,0,2026-01-07,2026-01-07,株式会社Ｆａｍｉｌｙ　Ｒｉｓｅ,,株式会社,和歌山県,和歌山市,中２３１番地,,30,201,6408451,,,,,,,2026-01-07,1,,,,,ファミリーライズ,0
2067,8180003029565,新規,0,2026-01-07,2026-01-07,ダイコー合同会社,,合同会社,愛知県,愛知郡東郷町,大字諸輪字尼ケ根３４番地８,,23,302,4700151,,,,,,,2026-01-07,1,,,,,ダイコー,0
2068,8180003029581,新規,0,2026-01-07,2026-01-07,合同会社恒成テック,,合同会社,愛知県,名古屋市中川区,露橋２丁目１５番７号イトーピア八島マンションＢ棟４０１,,23,110,4540022,,,,,,,2026-01-07,1,,,,,コウセイテック,0
2069,8180005021371,新規,0,2026-01-07,2026-01-07,一般財団法人天野キレイと元気財団,,その他の設立登記法人,愛知県,名古屋市東区,葵１丁目３番１５号,,23,102,4610004,,,,,,,2026-01-07,1,,,,,アマノキレイトゲンキザイダン,0
2075,8200001044596,新規,0,2026-01-07,2026-01-07,株式会社上野,,株式会社,岐阜県,加茂郡八百津町,野上２７８番地２,,21,505,5050307,,,,,,,2026-01-07,1,,,,,ウエノ,0
2079,8200005013837,新規,0,2026-01-07,2026-01-07,一般社団法人就労支援ぎふの会,,その他の設立登記法人,岐阜県,岐阜市,岩利１１５８番地,,21,201,5011102,,,,,,,2026-01-07,1,,,,,シュウロウシエンギフノカイ,0
2080,8210001020448,新規,0,2026-01-07,2026-01-07,輝電工株式会社,,株式会社,福井県,福井市,北今泉町第３号１番地３,,18,201,9188212,,,,,,,2026-01-07,1,,,,,カガヤキデンコウ,0
2086,8240001065993,新規,0,2026-01-07,2026-01-07,株式会社ＰｒｉｍａＭａｔｅｒｉａ,,株式会社,広島県,安芸郡府中町,清水ケ丘８－４２,,34,302,7350002,,,,,,,2026-01-07,1,,,,,プリママテリア,0
2087,8240001066018,新規,0,2026-01-07,2026-01-07,株式会社ＴＨＥ　ＨＥＲＢＡＬ　ＤＡＹＳ,,株式会社,広島県,広島市南区,段原南１丁目２番８号１Ｆ,,34,103,7320814,,,,,,,2026-01-07,1,,,,,ザハーバルデイズ,0
2089,8250001021483,新規,0,2026-01-07,2026-01-07,株式会社ＶｅｒｔｅｘＬａｙｅｒ,,株式会社,山口県,下関市,長府紺屋町３番９号,,35,201,7520968,,,,,,,2026-01-07,1,,,,,バーテックスレイヤー,0
2090,8250003003876,新規,0,2026-01-07,2026-01-07,合同会社倭,,合同会社,山口県,美祢市,秋芳町秋吉５２５８番地１,,35,213,7540511,,,,,,,2026-01-07,1,,,,,ヤマト,0
2094,8260001040854,新規,0,2026-01-07,2026-01-07,株式会社ティーシークラブ,,株式会社,岡山県,倉敷市,片島町８３４番地１３,,33,202,7100805,,,,,,,2026-01-07,1,,,,,ティーシークラブ,0
2095,8260001040862,新規,0,2026-01-07,2026-01-07,株式会社ダイキチオートモービル,,株式会社,岡山県,岡山市中区,江並４１１番地２５,,33,102,7028004,,,,,,,2026-01-07,1,,,,,ダイキチオートモービル,0
2096,8260001040870,新規,0,2026-01-07,2026-01-07,株式会社キヨムネ装業,,株式会社,岡山県,岡山市北区,下中野３３８番地１２４アースビル３,,33,101,7000973,,,,,,,2026-01-07,1,,,,,キヨムネソウギョウ,0
2099,8290001112576,新規,0,2026-01-07,2026-01-07,株式会社優しい樹,,株式会社,福岡県,飯塚市,勢田字水洗１２８４番地１,,40,205,8201111,,,,,,,2026-01-07,1,,,,,ヤサシイキ,0
2100,8290001112642,新規,0,2026-01-07,2026-01-07,株式会社カンパーニョ,,株式会社,福岡県,福岡市東区,名子２丁目３番４２号,,40,131,8130024,,,,,,,2026-01-07,1,,,,,カンパーニョ,0
2101,8290001112741,新規,0,2026-01-07,2026-01-07,株式会社エデュソルグループ,,株式会社,福岡県,福岡市博多区,博多駅前２丁目１９番１７号３０５号室,,40,132,8120011,,,,,,,2026-01-07,1,,,,,エデュソルグループ,0
2104,8290801032148,新規,0,2026-01-07,2026-01-07,村橋空調株式会社,,株式会社,福岡県,北九州市小倉南区,上吉田２丁目１２番３号（２０１）,,40,107,8000201,,,,,,,2026-01-07,1,,,,,ムラハシクウチョウ,0
2105,8290803005242,新規,0,2026-01-07,2026-01-07,億連合同会社,,合同会社,福岡県,遠賀郡岡垣町,大字山田９２４番地２,,40,383,8114221,,,,,,,2026-01-07,1,,,,,イレン,0
2106,8300001014465,新規,0,2026-01-07,2026-01-07,株式会社ＡＧＯＲＡ,,株式会社,佐賀県,佐賀市,川副町鹿江９８４－７,,41,201,8490000,,,,,,,2026-01-07,1,,,,,アゴラ,0
2108,8310001019901,新規,0,2026-01-07,2026-01-07,株式会社ＰＥＴＡＬ,,株式会社,長崎県,佐世保市,本島町１－１シネマ太陽本島ビル１４　１０１,,42,202,8570871,,,,,,,2026-01-07,1,,,,,ペタル,0
2113,8330003011383,新規,0,2026-01-07,2026-01-07,合同会社さち工芸,,合同会社,熊本県,熊本市東区,東野４丁目９番１号,,43,102,8612106,,,,,,,2026-01-07,1,,,,,サチコウゲイ,0
2116,8340003005062,新規,0,2026-01-07,2026-01-07,アトラスティア合同会社,,合同会社,鹿児島県,薩摩川内市,尾白江町７４７４番地１,,46,215,8950035,,,,,,,2026-01-07,1,,,,,アトラスティア,0
2118,8360003015522,新規,0,2026-01-07,2026-01-07,ＺＥＰＨＹＲ合同会社,,合同会社,沖縄県,うるま市,石川東恩納８９３番地５フォレストガーデン３０５,,47,213,9041111,,,,,,,2026-01-07,1,,,,,ゼファー,0
2123,8370003007436,新規,0,2026-01-07,2026-01-07,合同会社Ｋｏｎｎｏ,,合同会社,宮城県,仙台市青葉区,荒巻中央１６－１,,04,101,9810964,,,,,,,2026-01-07,1,,,,,コンノ,0
2125,8380001035784,新規,0,2026-01-07,2026-01-07,株式会社ＣＫ,,株式会社,福島県,郡山市,富久山町久保田字梅田１６２番地の２酒井ビル２Ｆ,,07,203,9638071,,,,,,,2026-01-07,1,,,,,シーケー,0
2128,8400003003588,新規,0,2026-01-07,2026-01-07,合同会社奥州造園,,合同会社,岩手県,奥州市,江刺愛宕字落合５５番地,,03,215,0231131,,,,,,,2026-01-07,1,,,,,オウシュウゾウエン,0
2130,8410001014355,新規,0,2026-01-07,2026-01-07,株式会社オートバンク,,株式会社,秋田県,由利本荘市,薬師堂字中道２３８番地６,,05,210,0150041,,,,,,,2026-01-07,1,,,,,オートバンク,0
2132,8410003004189,新規,0,2026-01-07,2026-01-07,ネクストキャピタル合同会社,,合同会社,秋田県,大仙市,太田町駒場字中村１６番地,,05,212,0191604,,,,,,,2026-01-07,1,,,,,ネクストキャピタル,0
2136,8430001095996,新規,0,2026-01-07,2026-01-07,ＳＫエンジニア株式会社,,株式会社,北海道,札幌市北区,新川西三条２丁目４番１２－１０２号,,01,102,0010933,,,,,,,2026-01-07,1,,,,,エスケーエンジニア,0
2139,8450001014822,新規,0,2026-01-07,2026-01-07,上田農場株式会社,,株式会社,北海道,上川郡当麻町,宇園別３区,,01,454,0781332,,,,,,,2026-01-07,1,,,,,ウエダノウジョウ,0
2144,8470003003045,新規,0,2026-01-07,2026-01-07,合同会社ｃｉｅｌｏ‐ａｚｕｌ,,合同会社,香川県,高松市,新田町甲２２６７－７,,37,201,7610102,,,,,,,2026-01-07,1,,,,,シエロアスール,0
2156,8700150133835,新規,0,2026-01-07,2026-01-07,ＨＥＨＵＩＹＵＡＮ　ＥＬＥＣＴＲＯＮＩＣＳ（ＨＫ）ＣＯ．，ＬＩＭＩＴＥＤ,,外国会社等,,,,,,,,ＵＮＩＴ　２５０８Ａ　２５／Ｆ　ＢＡＮＫ　ＯＦ　ＡＭＥＲＩＣＡ　ＴＯＷＥＲ　１２　ＨＡＲＣＯＵＲＴ　ＲＯＡＤ　ＣＥＮＴＲＡＬ　ＨＫ,,,,,,2026-01-07,1,,,,,ヘイフィユエンエレクトロニクスホンコンカンパニーリミテッド,0
2157,8700150133843,新規,0,2026-01-07,2026-01-07,高砂鐵工健康保険組合,,その他,東京都,板橋区,新河岸１丁目１番１号,,13,119,1750081,,,,,,,2026-01-07,1,,,,,タカサゴテッコウケンコウホケンクミアイ,0
2162,9010001261326,新規,0,2026-01-07,2026-01-07,株式会社源,,株式会社,東京都,中央区,日本橋室町１丁目１１番１２号日本橋水野ビル７階,,13,102,1030022,,,,,,,2026-01-07,1,,,,,ミナモト,0
2163,9010001261499,新規,0,2026-01-07,2026-01-07,株式会社ＣａｐｉｔａｌＸ,,株式会社,東京都,千代田区,神田多町２丁目１－２３,,13,101,1010046,,,,,,,2026-01-07,1,,,,,キャピタルエックス,0
2164,9010003049711,新規,0,2026-01-07,2026-01-07,合同会社Ｍｃｒｅｓｔ,,合同会社,東京都,千代田区,岩本町２丁目８番１０号神田永谷マンション５０４号,,13,101,1010032,,,,,,,2026-01-07,1,,,,,エムクレスト,0
2167,9010401195537,新規,0,2026-01-07,2026-01-07,株式会社ＦＥＥＤ　ＦＯＲＷＡＲＤ,,株式会社,東京都,港区,港南２丁目１５番１号品川インターシティＡ棟２８階,,13,103,1080075,,,,,,,2026-01-07,1,,,,,フィードフォワード,0
2168,9010401195594,新規,0,2026-01-07,2026-01-07,株式会社ＲＴ,,株式会社,東京都,港区,赤坂９丁目７番２号２２１３,,13,103,1070052,,,,,,,2026-01-07,1,,,,,アールティー,0
2169,9010401195669,新規,0,2026-01-07,2026-01-07,株式会社エピック・トレイルズ,,株式会社,東京都,港区,虎ノ門城山トラストタワー２７階,,13,103,1050000,,,,,,,2026-01-07,1,,,,,エピックトレイルズ,0
2170,9010403036879,新規,0,2026-01-07,2026-01-07,エンエナジージャパン合同会社,,合同会社,東京都,港区,新橋６丁目５番４－６１６号,,13,103,1050004,,,,,,,2026-01-07,1,,,,,エンエナジージャパン,0
2171,9010405025087,新規,0,2026-01-07,2026-01-07,一般財団法人フォンダシオン・ドゥ・フランス・ジャポン,,その他の設立登記法人,東京都,港区,赤坂６丁目３番２０号ＨＡＴビル９階ＬＰＡ外国法事務弁護士法人内,,13,103,1070052,,,,,,,2026-01-07,1,,,,,フォンダシオンドゥフランスジャポン,0
2172,9010405025129,新規,0,2026-01-07,2026-01-07,ジー・エイ・ワン・レジデンス・シックスティーン特定目的会社,,その他の設立登記法人,東京都,港区,虎ノ門５丁目１番４号,,13,103,1050001,,,,,,,2026-01-07,1,,,,,ジーエイワンレジデンスシックスティーン,0
2175,9010601068526,新規,0,2026-01-07,2026-01-07,ワイルドキャットキャピタル株式会社,,株式会社,東京都,江東区,東雲１丁目９番３２－４４１２号,,13,108,1350062,,,,,,,2026-01-07,1,,,,,ワイルドキャットキャピタル,0
2178,9010701048849,新規,0,2026-01-07,2026-01-07,株式会社Ｌｕｐｉｎｔｉｃ　Ｍｕｓｉｃ,,株式会社,東京都,品川区,東五反田５丁目４番１３号,,13,109,1410022,,,,,,,2026-01-07,1,,,,,ルパンティックミュージック,0
2179,9010703008066,新規,0,2026-01-07,2026-01-07,Ｓｍａｌｌｔｅｃｈ合同会社,,合同会社,東京都,品川区,大井３丁目１０番６号グランエステート大井１０１,,13,109,1400014,,,,,,,2026-01-07,1,,,,,スモールテック,0
2181,9010801036919,新規,0,2026-01-07,2026-01-07,株式会社ノミンウェルネス,,株式会社,東京都,大田区,田園調布５丁目５番１５号,,13,111,1450071,,,,,,,2026-01-07,1,,,,,ノミンウェルネス,0
2182,9010801036951,新規,0,2026-01-07,2026-01-07,株式会社東総業,,株式会社,東京都,大田区,大森北３丁目１１番６号,,13,111,1430016,,,,,,,2026-01-07,1,,,,,ヒガシソウギョウ,0
2185,9010803005665,新規,0,2026-01-07,2026-01-07,プロジェッティスタ合同会社,,合同会社,東京都,大田区,大森西６丁目１７－１７,,13,111,1430015,,,,,,,2026-01-07,1,,,,,プロジェッティスタ,0
2187,9010901058739,新規,0,2026-01-07,2026-01-07,株式会社ｉｔｓｕｋｉ,,株式会社,東京都,世田谷区,用賀４丁目１７番６号,,13,112,1580097,,,,,,,2026-01-07,1,,,,,イツキ,0
2188,9010903010532,新規,0,2026-01-07,2026-01-07,合同会社ふぁんぱん,,合同会社,東京都,世田谷区,若林４丁目２７番９号,,13,112,1540023,,,,,,,2026-01-07,1,,,,,ファンパン,0
2191,9011001174583,新規,0,2026-01-07,2026-01-07,プラネット株式会社,,株式会社,東京都,渋谷区,道玄坂１丁目１６－６二葉ビル８ｂ,,13,113,1500043,,,,,,,2026-01-07,1,,,,,プラネット,0
2192,9011001174732,新規,0,2026-01-07,2026-01-07,株式会社ぺりぺり,,株式会社,東京都,渋谷区,道玄坂１丁目１０番８号渋谷道玄坂東急ビル２Ｆ－Ｃ,,13,113,1500043,,,,,,,2026-01-07,1,,,,,ペリペリ,0
2195,9011103016840,新規,0,2026-01-07,2026-01-07,合同会社Ｖａｍｏｎｏｓ,,合同会社,東京都,新宿区,西新宿６丁目５番１号新宿アイランドタワー２階,,13,104,1600023,,,,,,,2026-01-07,1,,,,,バモノス,0
2198,9011301031154,新規,0,2026-01-07,2026-01-07,グローバルリンク株式会社,,株式会社,東京都,杉並区,高井戸東２丁目３番２２号,,13,115,1680072,,,,,,,2026-01-07,1,,,,,グローバルリンク,0
2202,9011501032968,新規,0,2026-01-07,2026-01-07,株式会社ＣｏｒｅＶｉａ,,株式会社,東京都,北区,田端１丁目１番８号グランコンフォート３０１号,,13,117,1140014,,,,,,,2026-01-07,1,,,,,コレビア,0
2203,9011501032976,新規,0,2026-01-07,2026-01-07,株式会社暁,,株式会社,東京都,北区,赤羽北３丁目１４番９－２０６号,,13,117,1150052,,,,,,,2026-01-07,1,,,,,アカツキ,0
2205,9011701029070,新規,0,2026-01-07,2026-01-07,株式会社Ｇｏｄ　ｃａｒｒｙ　ｂｒｏｔｈｅｒｓ,,株式会社,東京都,江戸川区,鹿骨４丁目１０番４号,,13,123,1330073,,,,,,,2026-01-07,1,,,,,ゴッドキャリーブラザーズ,0
2206,9011801047261,新規,0,2026-01-07,2026-01-07,株式会社Ｓｈｅｎｌｏｎｇ,,株式会社,東京都,葛飾区,東立石２丁目１８番７号,,13,122,1240013,,,,,,,2026-01-07,1,,,,,シェンロン,0
2208,9011803007247,新規,0,2026-01-07,2026-01-07,合同会社ＹＧ,,合同会社,東京都,足立区,古千谷本町１丁目５番９－３０１号,,13,121,1210832,,,,,,,2026-01-07,1,,,,,ワイジー,0
2211,9012303002267,新規,0,2026-01-07,2026-01-07,ＫＡＫＵＳＥＩ　Ｎｅｘｔ合同会社,,合同会社,東京都,町田市,図師町２２２６番地６,,13,209,1940203,,,,,,,2026-01-07,1,,,,,カクセイネクスト,0
2219,9013301055554,新規,0,2026-01-07,2026-01-07,Ｎｏｎ　Ｆｕｎｇｉｂｌｅ　Ｏｎｅ株式会社,,株式会社,東京都,豊島区,東池袋１丁目２６番４号,,13,116,1700013,,,,,,,2026-01-07,1,,,,,ノンファンジブルワン,0
2227,9020001166631,新規,0,2026-01-07,2026-01-07,株式会社Ｂｉｘｅｅ,,株式会社,神奈川県,川崎市宮前区,鷺沼２丁目１７－３－１０７,,14,136,2160004,,,,,,,2026-01-07,1,,,,,ビクシー,0
2231,9020003030067,新規,0,2026-01-07,2026-01-07,合同会社エスリンク,,合同会社,神奈川県,横浜市港北区,大倉山７丁目２１番１－４０５号,,14,109,2220037,,,,,,,2026-01-07,1,,,,,エスリンク,0
2232,9020003030100,新規,0,2026-01-07,2026-01-07,合同会社ＨＭＳ,,合同会社,神奈川県,横浜市港北区,大曽根１丁目５－９－３６,,14,109,2220003,,,,,,,2026-01-07,1,,,,,エイチエムエス,0
2239,9030001170392,新規,0,2026-01-07,2026-01-07,グリーンケミー販売株式会社,,株式会社,埼玉県,川口市,南鳩ヶ谷３丁目２０番１８号,,11,203,3340013,,,,,,,2026-01-07,1,,,,,グリーンケミーハンバイ,0
2249,9040001142003,新規,0,2026-01-07,2026-01-07,バリューアセットデザイン株式会社,,株式会社,千葉県,松戸市,幸田３丁目９１番地,,12,207,2700001,,,,,,,2026-01-07,1,,,,,バリューアセットデザイン,0
2251,9040003029181,新規,0,2026-01-07,2026-01-07,合同会社ほうき星,,合同会社,千葉県,野田市,桜木７番地の２,,12,208,2780028,,,,,,,2026-01-07,1,,,,,ホウキボシ,0
2252,9040005022993,新規,0,2026-01-07,2026-01-07,一般社団法人ヒーラー養成認定協会,,その他の設立登記法人,千葉県,野田市,中里７７４番地の１０,,12,208,2700237,,,,,,,2026-01-07,1,,,,,ヒーラーヨウセイニンテイキョウカイ,0
2261,9060003005916,新規,0,2026-01-07,2026-01-07,合同会社りあん,,合同会社,栃木県,矢板市,石関１１２１－３４,,09,211,3291576,,,,,,,2026-01-07,1,,,,,リアン,0
2265,9080401028351,新規,0,2026-01-07,2026-01-07,Ｂｌａｕ株式会社,,株式会社,静岡県,浜松市中央区,上西町１４番地の５ゆーかりＨｉｌｌｓＶ１０１,00142058,22,138,4350048,,,,,,,2026-01-07,1,,,,,ブラウ,0
2266,9090001019675,新規,0,2026-01-07,2026-01-07,株式会社ＳＫＩ,,株式会社,山梨県,甲府市,中央３丁目１２番２４号,,19,201,4000032,,,,,,,2026-01-07,1,,,,,エスケイアイ,0
2267,9100001039234,新規,0,2026-01-07,2026-01-07,プライム不動産株式会社,,株式会社,長野県,安曇野市,穂高柏原３２６７番地２１,,20,220,3998304,,,,,,,2026-01-07,1,,,,,プライムフドウサン,0
2268,9100001039242,新規,0,2026-01-07,2026-01-07,株式会社ｈｉｐｐｏｎｅｓｓ,,株式会社,長野県,上田市,材木町１丁目６番１３号ＳａｉｎＫ１１５号室,,20,203,3860014,,,,,,,2026-01-07,1,,,,,ヒッポネス,0
2283,9120001283128,新規,0,2026-01-07,2026-01-07,株式会社ＦＯＲ　ＲＥＬＬ,,株式会社,大阪府,大阪市中央区,淡路町１丁目６番９号ＤＰスクエア堺筋本町８Ｆ,,27,128,5410047,,,,,,,2026-01-07,1,,,,,フォーリル,0
2284,9120001283144,新規,0,2026-01-07,2026-01-07,株式会社ＭＯＮＯＬＩＴＨ　Ｅｓｔａｔｅ,,株式会社,大阪府,大阪市中央区,淡路町２丁目６番６号淡路町パークビル２号館３階,,27,128,5410047,,,,,,,2026-01-07,1,,,,,モノリスエステート,0
2285,9120001283177,新規,0,2026-01-07,2026-01-07,株式会社オーロラ,,株式会社,大阪府,大阪市北区,東天満１丁目９－８－５Ｆ,,27,127,5300044,,,,,,,2026-01-07,1,,,,,オーロラ,0
2286,9120001283193,新規,0,2026-01-07,2026-01-07,株式会社ｅｎｇｉｗａ．,,株式会社,大阪府,大阪市北区,中之島６丁目１－３８－４９１４,,27,127,5300005,,,,,,,2026-01-07,1,,,,,エンギワ,0
2287,9120003031609,新規,0,2026-01-07,2026-01-07,Ｈ＆Ｊ合同会社,,合同会社,大阪府,大阪市東淀川区,下新庄２丁目８－１６セントラル淡路２０４号,,27,114,5330021,,,,,,,2026-01-07,1,,,,,エイチアンドジェー,0
2289,9120101073008,新規,0,2026-01-07,2026-01-07,株式会社根耒,00142064,株式会社,大阪府,岸和田市,下池田町１丁目２１番５号,,27,202,5960811,,,,,,,2026-01-07,1,,,,,ネゴロ,0
2291,9120901052053,新規,0,2026-01-07,2026-01-07,株式会社ファステート,,株式会社,大阪府,吹田市,豊津町１－１８エクラート江坂ビル７０２,,27,205,5640051,,,,,,,2026-01-07,1,,,,,ファステート,0
2293,9120905006823,新規,0,2026-01-07,2026-01-07,一般社団法人庭連,,その他の設立登記法人,大阪府,茨木市,大字泉原８３１番地１,,27,211,5680097,,,,,,,2026-01-07,1,,,,,ニワレン,0
2294,9122001040038,新規,0,2026-01-07,2026-01-07,ＢＲＩＧＨＴ　ＣＯＲＥ７２株式会社,,株式会社,大阪府,八尾市,安中町２丁目１番６５号,,27,212,5810085,,,,,,,2026-01-07,1,,,,,ブライトコアセブンティツー,0
2295,9122001040054,新規,0,2026-01-07,2026-01-07,株式会社ＥＮＯＲＡ,,株式会社,大阪府,東大阪市,小若江３丁目６番９号近畿大学ＫＩＮＣＵＢＡＢａｓｅｃａｍｐ,,27,227,5770818,,,,,,,2026-01-07,1,,,,,エノーラ,0
2297,9130001081290,新規,0,2026-01-07,2026-01-07,株式会社翠蓮,,株式会社,京都府,京都市西京区,川島玉頭町１１番地１べレオ桂ＩＩ２０１,00142076,26,111,6158193,,,,,,,2026-01-07,1,,,,,スイレン,0
2298,9130001081316,新規,0,2026-01-07,2026-01-07,株式会社立腰ジャパン,,株式会社,京都府,京都市中京区,西横町１７４－１１０１,,26,104,6040023,,,,,,,2026-01-07,1,,,,,タテゴシジャパン,0
2307,9140001141267,新規,0,2026-01-07,2026-01-07,株式会社徳綿,,株式会社,兵庫県,多可郡多可町,中区中村町４０４番地,,28,365,6791113,,,,,,,2026-01-07,1,,,,,トクメン,0
2308,9140001141275,新規,0,2026-01-07,2026-01-07,ＨＫＲ株式会社,,株式会社,兵庫県,神戸市垂水区,舞多聞西１丁目２０番１０号,,28,108,6550051,,,,,,,2026-01-07,1,,,,,エイチケイアール,0
2309,9140001141283,新規,0,2026-01-07,2026-01-07,正和食品株式会社,,株式会社,兵庫県,西脇市,高田井町１３９番地の５,,28,213,6770016,,,,,,,2026-01-07,1,,,,,マサワショクヒン,0
2311,9140003023042,新規,0,2026-01-07,2026-01-07,合同会社ビジネス・ブースターズ,,合同会社,兵庫県,神戸市東灘区,御影山手６丁目５－２４,,28,101,6580065,,,,,,,2026-01-07,1,,,,,ビジネスブースターズ,0
2312,9140003023059,新規,0,2026-01-07,2026-01-07,リョウイク合同会社,,合同会社,兵庫県,神崎郡神河町,寺前２８７,,28,446,6793116,,,,,,,2026-01-07,1,,,,,リョウイク,0
2314,9150001028629,新規,0,2026-01-07,2026-01-07,シーエーシー奈良株式会社,,株式会社,奈良県,奈良市,学園大和町４丁目６番地の３,,29,201,6310041,,,,,,,2026-01-07,1,,,,,シーエーシーナラ,0
2315,9150003003794,新規,0,2026-01-07,2026-01-07,合同会社井筒商会,,合同会社,奈良県,生駒市,有里町４８１番地７,,29,209,6300233,,,,,,,2026-01-07,1,,,,,イヅツショウカイ,0
2317,9150005009749,新規,0,2026-01-07,2026-01-07,一般社団法人サードステージ,,その他の設立登記法人,奈良県,大和郡山市,若槻町１０９番地５２,,29,203,6391107,,,,,,,2026-01-07,1,,,,,サードステージ,0
2333,9180001170089,新規,0,2026-01-07,2026-01-07,株式会社Ａ　ＬＩＴＴＬＥ　ＰＬＡＮＴ,,株式会社,愛知県,一宮市,浅井町河田字桜の里１８２番地,,23,203,4910142,,,,,,,2026-01-07,1,,,,,リトルプラント,0
2334,9180001170097,新規,0,2026-01-07,2026-01-07,ミノリスタ株式会社,,株式会社,愛知県,名古屋市中川区,八熊２丁目１番１号,,23,110,4540013,,,,,,,2026-01-07,1,,,,,ミノリスタ,0
2335,9180001170114,新規,0,2026-01-07,2026-01-07,ＭＩＮＯＲＩ株式会社,,株式会社,愛知県,春日井市,八田町２丁目４番地２０,,23,206,4860849,,,,,,,2026-01-07,1,,,,,ミノリ,0
2336,9180001170122,新規,0,2026-01-07,2026-01-07,株式会社ＥＶＯ,,株式会社,愛知県,あま市,新居屋辻畑６４番地３,00142068,23,237,4901105,,,,,,,2026-01-07,1,,,,,エヴォ,0
2337,9180001170139,新規,0,2026-01-07,2026-01-07,萬昇工業株式会社,,株式会社,愛知県,一宮市,千秋町穂積塚本字上川原８８番地１,,23,203,4910803,,,,,,,2026-01-07,1,,,,,マンショウコウギョウ,0
2340,9180003029589,新規,0,2026-01-07,2026-01-07,合同会社ｈｙｍ．,,合同会社,愛知県,名古屋市名東区,牧の原２丁目１０６番地,,23,115,4650072,,,,,,,2026-01-07,1,,,,,ハイム,0
2347,9200001044570,新規,0,2026-01-07,2026-01-07,ＫＥＩＳＥＩ株式会社,,株式会社,岐阜県,下呂市,森５８５番地,,21,220,5092202,,,,,,,2026-01-07,1,,,,,ケイセイ,0
2348,9210005010246,新規,0,2026-01-07,2026-01-07,一般社団法人アオミドリ,,その他の設立登記法人,福井県,鯖江市,別司町第３３号８番地１,,18,207,9161225,,,,,,,2026-01-07,1,,,,,アオミドリ,0
2349,9220001027111,新規,0,2026-01-07,2026-01-07,株式会社エス・ティー設備,,株式会社,石川県,白山市,殿町９番地,,17,210,9240885,,,,,,,2026-01-07,1,,,,,エスティーセツビ,0
2354,9240005016026,新規,0,2026-01-07,2026-01-07,社会保険労務士法人ＡＣＥ,,その他の設立登記法人,広島県,広島市佐伯区,五日市駅前１丁目１０番１－４０２号,,34,108,7315125,,,,,,,2026-01-07,1,,,,,エース,0
2356,9250001021490,新規,0,2026-01-07,2026-01-07,ＹＢパートナーズ株式会社,,株式会社,山口県,宇部市,大字川上１０７０番地,,35,202,7550084,,,,,,,2026-01-07,1,,,,,ワイビーパートナーズ,0
2359,9260001040861,新規,0,2026-01-07,2026-01-07,株式会社むらい農産,,株式会社,岡山県,津山市,宮尾３００番地２,,33,203,7094613,,,,,,,2026-01-07,1,,,,,ムライノウサン,0
2368,9290001112658,新規,0,2026-01-07,2026-01-07,株式会社Ｓｕｎｎｙ　Ｓｅａ,,株式会社,福岡県,春日市,惣利１丁目４１番地２,,40,218,8160813,,,,,,,2026-01-07,1,,,,,サニーシー,0
2372,9290003017888,新規,0,2026-01-07,2026-01-07,合同会社Ｏｎｅ　Ａｃｔｉｏｎ,,合同会社,福岡県,福岡市博多区,板付４丁目８番３－２０２号ＡＬＦＬＡＴＥＡＳＴ,,40,132,8120888,,,,,,,2026-01-07,1,,,,,ワンアクション,0
2373,9290003017896,新規,0,2026-01-07,2026-01-07,合同会社一如,,合同会社,福岡県,福岡市博多区,博多駅南２丁目１番１７－１５０２号,,40,132,8120016,,,,,,,2026-01-07,1,,,,,イチニョ,0
2374,9290801032130,新規,0,2026-01-07,2026-01-07,ＹＳ　Ｇｌｏｂａｌ　Ｓｅａｒｃｈ株式会社,,株式会社,福岡県,北九州市小倉北区,富野台７番１７号,,40,106,8020033,,,,,,,2026-01-07,1,,,,,ワイエスグローバルサーチ,0
2375,9290801032139,新規,0,2026-01-07,2026-01-07,株式会社ＹＭプランニング,,株式会社,福岡県,北九州市小倉北区,大畠３丁目７番５５号寿山ビル５０３号,,40,106,8020026,,,,,,,2026-01-07,1,,,,,ワイエムプランニング,0
2376,9310001019900,新規,0,2026-01-07,2026-01-07,株式会社ほけん家サン,,株式会社,長崎県,佐世保市,白岳町９２９番地１－１,,42,202,8571164,,,,,,,2026-01-07,1,,,,,ホケンヤサン,0
2377,9310003005163,新規,0,2026-01-07,2026-01-07,Ｋ．Ｂ‐Ｌａｂ合同会社,,合同会社,長崎県,東彼杵郡波佐見町,宿郷４２０番地１,,42,323,8593715,,,,,,,2026-01-07,1,,,,,ケービーラボ,0
2380,9320001021533,新規,0,2026-01-07,2026-01-07,株式会社涼成建設,,株式会社,大分県,速見郡日出町,大字大神２９２８番地３,,44,341,8791504,,,,,,,2026-01-07,1,,,,,リョウセイケンセツ,0
2385,9330001033882,新規,0,2026-01-07,2026-01-07,永旭株式会社,,株式会社,熊本県,熊本市中央区,水前寺４丁目５２番４４号,,43,101,8620950,,,,,,,2026-01-07,1,,,,,エイキョク,0
2386,9340001027867,新規,0,2026-01-07,2026-01-07,株式会社タイヤワークストキダ,,株式会社,鹿児島県,大島郡瀬戸内町,大字手安９２４－２,,46,525,8941531,,,,,,,2026-01-07,1,,,,,タイヤワークストキダ,0
2396,9400001017267,新規,0,2026-01-07,2026-01-07,株式会社東日金属,,株式会社,岩手県,盛岡市,黒川１９地割５番地１,,03,201,0200402,,,,,,,2026-01-07,1,,,,,トウニチキンゾク,0
2397,9400005008535,新規,0,2026-01-07,2026-01-07,気仙液化ガス事業協同組合,,その他の設立登記法人,岩手県,大船渡市,盛町字二本枠２３番地４,,03,203,0220003,,,,,,,2026-01-07,1,,,,,,0
2405,9430001095987,新規,0,2026-01-07,2026-01-07,株式会社フードダイレクト,,株式会社,北海道,札幌市豊平区,平岸四条４丁目７番１１号,,01,105,0620934,,,,,,,2026-01-07,1,,,,,フードダイレクト,0
2406,9430001095995,新規,0,2026-01-07,2026-01-07,株式会社Ｇ・Ｓ商事,,株式会社,北海道,札幌市中央区,南七条東１丁目１番地２クリオ南７条８０２号,,01,101,0600057,,,,,,,2026-01-07,1,,,,,ジーエスショウジ,0
2410,9450001014821,新規,0,2026-01-07,2026-01-07,株式会社アップフードコーポレーション,,株式会社,北海道,士別市,大通東１７丁目３１４３番地２２サンビル２階,,01,220,0950019,,,,,,,2026-01-07,1,,,,,アップフードコーポレーション,0
2413,9470005006672,新規,0,2026-01-07,2026-01-07,ひろせ司法書士法人,,その他の設立登記法人,香川県,高松市,木太町１２８８番地２,,37,201,7600080,,,,,,,2026-01-07,1,,,,,ヒロセ,0
2418,9500001026704,新規,0,2026-01-07,2026-01-07,イーアールイーホールディングス株式会社,,株式会社,愛媛県,松山市,愛光町８番４１号,,38,201,7900064,,,,,,,2026-01-07,1,,,,,イーアールイーホールディングス,0
2420,9700150133834,新規,0,2026-01-07,2026-01-07,ＳＵＮＷＩＮ　ＥＬＥＣＴＲＯＮＩＣ（ＨＫ）ＣＯ．，ＬＩＭＩＴＥＤ,,外国会社等,,,,,,,,Ｕｎｉｔ　９７６，９／Ｆ，Ｏｎｅ　Ｖｉｓｔａ　Ｓｕｐｒｅｍｅ　１　Ｓａｎ　Ｈｏｐ　Ｌａｎｅ　Ｔｕｅｎ　Ｍｕｎ　Ｎｅｗ　Ｔｅｒｒｉｔｏｒｉｅｓ　ＨＫ,,,,,,2026-01-07,1,,,,,サンウィンエレクトロニックホンコンカンパニーリミテッド,0
2421,9700150133842,新規,0,2026-01-07,2026-01-07,花王健康保険組合,,その他,東京都,中央区,日本橋茅場町１丁目１３－１２,,13,102,1030025,,,,,,,2026-01-07,1,,,,,カオウケンコウホケンクミアイ,0
