sequenceNumber,corporateNumber,process,correct,updateDate,changeDate,name,nameImageId,kind,prefectureName,cityName,streetNumber,addressImageId,prefectureCode,cityCode,postCode,addressOutside,addressOutsideImageId,closeDate,closeCause,successorCorporateNumber,changeCause,assignmentDate,latest,enName,enPrefectureName,enCityName,enAddressOutside,furigana,hihyoji
2,1010001215611,登記記録の閉鎖等,0,2025-10-03,2025-09-30,クロシ株式会社,,株式会社,東京都,中央区,勝どき６丁目３番１－２７０８号,,13,102,1040054,,,2025-09-30,清算の結了等,,,2021-02-04,1,,,,,クロシ,0
13,1010002048770,登記記録の閉鎖等,0,2025-10-03,2025-09-05,有限会社スイフト・ネット,,有限会社,東京都,中央区,日本橋浜町３丁目３２番３－１７０４号,,13,102,1030007,,,2025-09-05,清算の結了等,,,2015-10-05,1,,,,,スイフトネット,0
14,1010003025356,登記記録の閉鎖等,0,2025-10-03,2025-09-25,合同会社ワイズアセット,,合同会社,埼玉県,越谷市,レイクタウン６丁目１６番地４,,11,222,3430828,,,2025-09-25,清算の結了等,,,2017-05-18,1,,,,,ワイズアセット,0
23,1010401045922,登記記録の閉鎖等,0,2025-10-03,2025-09-04,株式会社ユニパックス,,株式会社,東京都,千代田区,麹町２丁目１０番３号,,13,101,1020083,,,2025-09-04,清算の結了等,,,2015-10-05,1,UNIPAX Corporation,Tokyo,"2-10-3, Kojimachi, Chiyoda ku",,ユニパックス,0
33,1010405016928,登記記録の閉鎖等,0,2025-10-03,2025-09-01,日比谷アライアンス特定目的会社,,その他の設立登記法人,東京都,港区,六本木１丁目９番１０号アークヒルズ仙石山森タワー４０階,,13,103,1060032,,,2025-09-01,清算の結了等,,,2018-07-24,1,,,,,ヒビヤアライアンス,0
46,1010901024657,登記記録の閉鎖等,0,2025-10-03,2025-10-01,株式会社エソール,,株式会社,東京都,世田谷区,代沢４丁目２５番７号,,13,112,1550032,,,2025-10-01,清算の結了等,,,2015-10-05,1,,,,,エソール,0
52,1011001123440,登記記録の閉鎖等,0,2025-10-03,2025-09-29,ＳＡＩＣＯＯＬ株式会社,,株式会社,東京都,渋谷区,渋谷２丁目２２番３号渋谷東口ビル６階,,13,113,1500002,,,2025-09-29,合併による解散等,9011001149585,令和７年９月１日東京都千代田区麹町三丁目５番１７号株式会社ｅｎａｂｌｅＸ（9011001149585）に合併し解散,2018-07-27,1,,,,,サイクール,0
58,1011005006658,登記記録の閉鎖等,0,2025-10-03,2025-09-01,クローバー社会保険労務士法人,,その他の設立登記法人,東京都,渋谷区,広尾１丁目１番３９号恵比寿プライムスクエアタワー１９階,,13,113,1500012,,,2025-09-01,清算の結了等,,,2016-02-18,1,,,,,クローバー,0
67,1011303004603,登記記録の閉鎖等,0,2025-10-03,2025-09-22,合同会社ＳｔｕｄｉｏＴＡＧＡＮ,,合同会社,東京都,杉並区,阿佐谷北１丁目３７－３中杉ビル３Ｆ,,13,115,1660001,,,2025-09-22,清算の結了等,,,2022-12-09,1,,,,,スタジオタガン,0
75,1011801010326,登記記録の閉鎖等,0,2025-10-03,2025-09-30,株式会社東晋,,株式会社,東京都,足立区,梅島２丁目５番１１号,,13,121,1210816,,,2025-09-30,清算の結了等,,,2015-10-05,1,,,,,トウシン,0
124,1080002000428,登記記録の閉鎖等,0,2025-10-03,2025-09-26,有限会社池田電機,,有限会社,静岡県,静岡市駿河区,用宗５丁目１２番１０－１号,,22,102,4210122,,,2025-09-26,清算の結了等,,,2015-10-05,1,,,,,イケダデンキ,0
127,1080002014659,登記記録の閉鎖等,0,2025-10-03,2025-09-26,有限会社とんかつ小山,,有限会社,静岡県,榛原郡吉田町,住吉１３６６番地の６,,22,424,4210301,,,2025-09-26,清算の結了等,,,2015-10-05,1,,,,,,0
132,1110001028474,登記記録の閉鎖等,0,2025-10-03,2025-09-01,Ｇ．ｒｅｆｏｒｍ株式会社,,株式会社,新潟県,新潟市秋葉区,新津４４６２番地３,,15,105,9560031,,,2025-09-01,合併による解散等,7110001009345,令和７年８月３１日新潟市秋葉区新津４４６２番地３ＢＤコーポレーション株式会社（7110001009345）に合併し解散,2015-10-05,1,,,,,ジーリフォーム,0
137,1120001006850,登記記録の閉鎖等,0,2025-10-03,2025-09-19,アサヒ金物株式会社,,株式会社,大阪府,大阪市都島区,片町２丁目９番２８－３０２,,27,102,5340025,,,2025-09-19,清算の結了等,,,2015-10-05,1,,,,,アサヒカナモノ,0
170,1130001058437,登記記録の閉鎖等,0,2025-10-03,2025-10-01,株式会社ワントゥーテンイマジン,,株式会社,京都府,京都市下京区,烏丸通四条下る水銀屋町６２０番地ＣＯＣＯＮ烏丸４Ｆ,,26,106,6008411,,,2025-10-01,清算の結了等,,,2016-10-12,1,,,,,ワントゥーテンイマジン,0
193,1180002014772,登記記録の閉鎖等,0,2025-10-03,2025-09-12,有限会社満庄,,有限会社,愛知県,名古屋市南区,松城町１丁目３４番地,,23,112,4570045,,,2025-09-12,清算の結了等,,,2015-10-05,1,,,,,マンショウ,0
201,1180301017204,登記記録の閉鎖等,0,2025-10-03,2025-09-11,株式会社横建,,株式会社,愛知県,安城市,今池町３丁目５番３５号フローラ今池１０５,,23,212,4460071,,,2025-09-11,清算の結了等,,,2015-10-05,1,,,,,ヨコケン,0
203,1180303002229,登記記録の閉鎖等,0,2025-10-03,2025-09-17,合資会社本田製作所,,合資会社,愛知県,知立市,中山町神狭間１８番地１,,23,225,4720032,,,2025-09-17,清算の結了等,,,2015-10-05,1,,,,,ホンダセイサクショ,0
230,1260002025480,登記記録の閉鎖等,0,2025-10-03,2025-09-18,有限会社安原木工,,有限会社,岡山県,笠岡市,小平井６７８番地の３,,33,205,7140012,,,2025-09-18,清算の結了等,,,2015-10-05,1,,,,,ヤスハラモッコウ,0
234,1290001077413,登記記録の閉鎖等,0,2025-10-03,2025-09-05,株式会社クローバープランニング,,株式会社,福岡県,太宰府市,観世音寺１丁目２６番７号,,40,221,8180101,,,2025-09-05,清算の結了等,,,2017-04-17,1,,,,,クローバープランニング,0
237,1290002011189,登記記録の閉鎖等,0,2025-10-03,2025-09-05,有限会社真美健康体操協会,,有限会社,福岡県,福岡市中央区,大名２丁目９番３０号淀ビル４０３,,40,133,8100041,,,2025-09-05,清算の結了等,,,2015-10-05,1,,,,,シンビケンコウタイソウキョウカイ,0
248,1320001001575,登記記録の閉鎖等,0,2025-10-03,2025-09-30,株式会社大景建設工業,,株式会社,大分県,大分市,王子山の手町２６番６号,,44,201,8700813,,,2025-09-30,清算の結了等,,,2015-10-05,1,,,,,オオカゲケンセツコウギョウ,0
275,1390002007854,登記記録の閉鎖等,0,2025-10-03,2025-09-29,有限会社フォトキャンバス,,有限会社,山形県,酒田市,東中の口町１番２８号,,06,204,9980855,,,2025-09-29,清算の結了等,,,2015-10-05,1,,,,,フォトキャンバス,0
277,1430001079312,登記記録の閉鎖等,0,2025-10-03,2025-09-29,株式会社Ｄ２,,株式会社,北海道,札幌市中央区,南一条西９丁目５番１号,,01,101,0600061,,,2025-09-29,清算の結了等,,,2019-07-08,1,,,,,ディーツー,0
294,1470002000165,登記記録の閉鎖等,0,2025-10-03,2025-09-30,有限会社ニュー安田総合保険事務所,,有限会社,香川県,高松市,庵治町１５６番地１６１,,37,201,7610130,,,2025-09-30,清算の結了等,,,2015-10-05,1,,,,,ニューヤスダソウゴウホケンジムショ,0
306,2010005029247,登記記録の閉鎖等,0,2025-10-03,2025-09-30,一般社団法人Ｒｈａｐｓｏｄｙ,,その他の設立登記法人,東京都,中央区,銀座１丁目６番１１号土志田ビルディング３Ｆ,,13,102,1040061,,,2025-09-30,清算の結了等,,,2018-10-22,1,,,,,ラプソディー,0
323,2010902014433,登記記録の閉鎖等,0,2025-10-03,2025-09-30,有限会社マルコムテック,,有限会社,東京都,世田谷区,北沢１丁目４５番３８号,,13,112,1550031,,,2025-09-30,清算の結了等,,,2015-10-05,1,,,,,マルコムテック,0
324,2010902015794,登記記録の閉鎖等,0,2025-10-03,2025-10-01,有限会社雄飛,,有限会社,東京都,世田谷区,駒沢３丁目１６番２号,,13,112,1540012,,,2025-10-01,合併による解散等,2010901027799,令和７年１０月１日東京都世田谷区世田谷四丁目１２番１０号株式会社雄翔（2010901027799）に合併し解散,2015-10-05,1,,,,,ユウヒ,0
339,2011701003404,登記記録の閉鎖等,0,2025-10-03,2025-09-24,株式会社サンセキハウジング,,株式会社,東京都,江戸川区,上一色３丁目１２番１４号,,13,123,1330041,,,2025-09-24,清算の結了等,,,2015-10-05,1,,,,,サンセキハウジング,0
343,2012401023080,登記記録の閉鎖等,0,2025-10-03,2025-09-24,カーネリアン株式会社,,株式会社,東京都,小金井市,梶野町４丁目１６番１２号,,13,210,1840002,,,2025-09-24,清算の結了等,,,2015-10-05,1,,,,,カーネリアン,0
356,2013303005308,登記記録の閉鎖等,0,2025-10-03,2025-09-30,合同会社リペアクリニック,,合同会社,石川県,鹿島郡中能登町,芹川ミ２７番地,,17,407,9291815,,,2025-09-30,清算の結了等,,,2020-09-17,1,,,,,リペアクリニック,0
390,2040001118612,登記記録の閉鎖等,0,2025-10-03,2025-09-10,株式会社ＫＵＭＯ,,株式会社,千葉県,千葉市稲毛区,轟町４丁目２番１号,,12,103,2630021,,,2025-09-10,清算の結了等,,,2021-05-26,1,,,,,クモ,0
396,2040005019534,登記記録の閉鎖等,0,2025-10-03,2025-09-09,ＮＰＯ法人生活支援センター四街道,,その他の設立登記法人,千葉県,四街道市,内黒田２４９番地３,,12,228,2840013,,,2025-09-09,清算の結了等,,,2017-05-17,1,,,,,セイカツシエンセンターヨツカイドウ,0
401,2060001019172,登記記録の閉鎖等,0,2025-10-03,2025-09-29,堀江プラスチック工業株式会社,,株式会社,栃木県,足利市,葉鹿町１２３３番地,,09,202,3260143,,,2025-09-29,清算の結了等,,,2015-10-05,1,,,,,ホリエプラスチックコウギョウ,0
405,2060002012028,登記記録の閉鎖等,0,2025-10-03,2025-09-29,有限会社翔栄産業,,有限会社,栃木県,宇都宮市,南町５番３号,,09,201,3210142,,,2025-09-29,清算の結了等,,,2015-10-05,1,,,,,ショウエイサンギョウ,0
410,2080101010517,登記記録の閉鎖等,0,2025-10-03,2025-09-30,株式会社鈴与カーゴサービス富士,,株式会社,静岡県,富士市,比奈字片田５００番地の２,,22,210,4170847,,,2025-09-30,合併による解散等,9080001010676,令和７年９月１日静岡市清水区愛染町２１番地の１靜甲愛染ビル３階株式会社鈴与カーゴサービス静岡（9080001010676）に合併し解散,2015-10-05,1,,,,,スズヨカーゴサービスフジ,0
413,2100002037326,登記記録の閉鎖等,0,2025-10-03,2025-09-26,有限会社まると,,有限会社,長野県,飯田市,上郷黒田７７５番地５,,20,205,3950004,,,2025-09-26,清算の結了等,,,2015-10-05,1,,,,,マルト,0
415,2110002004911,登記記録の閉鎖等,0,2025-10-03,2025-09-25,有限会社新潟物件速報社,,有限会社,新潟県,新潟市西区,平島１３０１番地,,15,107,9502004,,,2025-09-25,清算の結了等,,,2015-10-05,1,,,,,ニイガタブッケンソクホウシャ,0
417,2120001008012,登記記録の閉鎖等,0,2025-10-03,2025-09-22,株式会社高野酒店,,株式会社,大阪府,大阪市都島区,片町２丁目７番５７号,,27,102,5340025,,,2025-09-22,清算の結了等,,,2015-10-05,1,,,,,タカノサケテン,0
439,2130001013589,登記記録の閉鎖等,0,2025-10-03,2025-09-25,株式会社和田,,株式会社,京都府,京都市山科区,小野御所ノ内町５２番地の１,,26,110,6078255,,,2025-09-25,清算の結了等,,,2015-10-05,1,,,,,ワダ,0
447,2140001061538,登記記録の閉鎖等,0,2025-10-03,2025-10-01,株式会社ホンダ四輪販売山陽,,株式会社,兵庫県,姫路市,東今宿３丁目６番６号,,28,201,6700056,,,2025-10-01,合併による解散等,8140001018796,令和７年１０月１日神戸市垂水区舞子坂一丁目１０番３７号株式会社ホンダカーズ兵庫中央（8140001018796）に合併し解散,2015-10-05,1,,,,,ホンダヨンリンハンバイサンヨウ,0
448,2140001117661,登記記録の閉鎖等,0,2025-10-03,2025-09-26,ＧＢＲ株式会社,,株式会社,大阪府,大阪市中央区,本町４丁目４－１７ＲＥ－０１２－６０５号,,27,128,5410053,,,2025-09-26,清算の結了等,,,2020-06-10,1,,,,,ジービーアール,0
468,2180002064651,登記記録の閉鎖等,0,2025-10-03,2025-09-16,有限会社ディーアンドエーパートナーズ,,有限会社,愛知県,豊明市,三崎町中ノ坪４番地８,,23,229,4701125,,,2025-09-16,清算の結了等,,,2015-10-05,1,,,,,ディーアンドエーパートナーズ,0
470,2180003022220,登記記録の閉鎖等,0,2025-10-03,2025-09-11,合同会社ＢＥＬＵＴＥ,,合同会社,愛知県,清須市,清洲２６０３番地＠内堀Ａ２,,23,233,4520942,,,2025-09-11,清算の結了等,,,2021-03-10,1,,,,,ベルーテ,0
481,2200001010281,登記記録の閉鎖等,0,2025-10-03,2025-09-25,ラフィーネ辻株式会社,00076523,株式会社,岐阜県,本巣郡北方町,柱本南２丁目１３１,,21,421,5010445,,,2025-09-25,清算の結了等,,,2015-10-05,1,,,,,ラフィーネツジ,0
502,2290001049155,登記記録の閉鎖等,0,2025-10-03,2025-09-01,株式会社太郎兼光工業所,,株式会社,福岡県,久留米市,梅満町２６５番地の１,,40,203,8300048,,,2025-09-01,合併による解散等,1290002048438,令和７年９月１日福岡県久留米市梅満町２６３番地の２井上産業株式会社（1290002048438）に合併し解散,2015-10-05,1,,,,,タロウカネミツコウギョウショ,0
517,2330002017965,登記記録の閉鎖等,0,2025-10-03,2025-09-22,有限会社松本工務店,,有限会社,熊本県,菊池市,隈府１７１０番地２７,,43,210,8611331,,,2025-09-22,清算の結了等,,,2015-10-05,1,,,,,マツモトコウムテン,0
519,2340001001647,登記記録の閉鎖等,0,2025-10-03,2025-09-29,株式会社光陽社,,株式会社,鹿児島県,鹿児島市,新栄町２３番３８号,,46,201,8900072,,,2025-09-29,清算の結了等,,,2015-10-05,1,,,,,コウヨウシャ,0
523,2350001016917,登記記録の閉鎖等,0,2025-10-03,2025-10-02,株式会社ＳＡＮＫＹＯ,,株式会社,宮崎県,宮崎市,大字田吉６２２８番地１０,,45,201,8800911,,,2025-10-02,合併による解散等,5350002001849,令和７年９月３０日宮崎市大字田吉６２２８番地１０株式会社三協測量設計（5350002001849）に合併し解散,2021-03-03,1,,,,,サンキョー,0
528,2360005003877,登記記録の閉鎖等,0,2025-10-03,2025-09-25,医療法人おおはらクリニック,,その他の設立登記法人,沖縄県,宮古島市,平良字下里１０９９番地の３,,47,214,9060013,,,2025-09-25,清算の結了等,,,2015-10-05,1,,,,,オオハラクリニック,0
535,2390002009370,登記記録の閉鎖等,0,2025-10-03,2025-09-26,有限会社佐藤乾物店,,有限会社,山形県,鶴岡市,三和町８番７,,06,203,9970818,,,2025-09-26,清算の結了等,,,2015-10-05,1,,,,,サトウカンブツテン,0
539,2420001014574,登記記録の閉鎖等,0,2025-10-03,2025-09-24,株式会社Ｆｌｅｕｒ－ｄｅ－ｌｉｓ,,株式会社,福島県,福島市,万世町５番４３号パセオビル７Ｆ,,07,201,9608033,,,2025-09-24,清算の結了等,,,2015-10-05,1,,,,,フルールドリス,0
540,2420002016735,登記記録の閉鎖等,0,2025-10-03,2025-09-22,有限会社立花スポーツ,,有限会社,青森県,十和田市,東十四番町１７番３９号,,02,206,0340024,,,2025-09-22,清算の結了等,,,2015-10-05,1,,,,,タチバナスポーツ,0
541,2430001084518,登記記録の閉鎖等,0,2025-10-03,2025-09-12,北海道地域創生プラットフォーム株式会社,,株式会社,北海道,札幌市中央区,北一条西３丁目３番地札幌ＭＮビル５階,,01,101,0600001,,,2025-09-12,清算の結了等,,,2021-07-09,1,,,,,ホッカイドウチイキソウセイプラットフォーム,0
543,2430002040560,登記記録の閉鎖等,0,2025-10-03,2025-09-29,黒川塗装工業有限会社,,有限会社,北海道,札幌市白石区,川北三条１丁目８番２７号,,01,104,0030853,,,2025-09-29,清算の結了等,,,2015-10-05,1,,,,,クロカワトソウコウギョウ,0
553,2470002015732,登記記録の閉鎖等,0,2025-10-03,2025-10-01,有限会社ホリセ洋服店,,有限会社,香川県,坂出市,元町１丁目１０番２９号,,37,203,7620045,,,2025-10-01,清算の結了等,,,2015-10-05,1,,,,,ホリセヨウフクテン,0
555,2470005000533,登記記録の閉鎖等,0,2025-10-03,2025-10-01,医療法人社団石井皮膚科医院,,その他の設立登記法人,香川県,高松市,木太町１３２３番地１,,37,201,7600080,,,2025-10-01,清算の結了等,,,2015-10-05,1,,,,,イシイヒフカイイン,0
562,3010001055551,登記記録の閉鎖等,0,2025-10-03,2025-09-08,福商金属株式会社,,株式会社,東京都,中央区,日本橋本町３丁目１番６号,,13,102,1030023,,,2025-09-08,清算の結了等,,,2015-10-05,1,,,,,,0
578,3010002030644,登記記録の閉鎖等,0,2025-10-03,2025-09-09,有限会社グローバル・ヴィレッジ・メディア,,有限会社,東京都,中央区,八重洲１丁目７番２０号,,13,102,1030028,,,2025-09-09,清算の結了等,,,2015-10-05,1,,,,,グローバルビレッジメディア,0
582,3010005034650,登記記録の閉鎖等,0,2025-10-03,2025-09-29,一般社団法人ＯＷ２,,その他の設立登記法人,東京都,千代田区,丸の内２丁目２番１号岸本ビルヂング６Ｆ,,13,101,1000005,,,2025-09-29,清算の結了等,,,2022-03-02,1,,,,,オーダブリューツー,0
591,3010601035151,登記記録の閉鎖等,0,2025-10-03,2025-09-29,株式会社エフ・エヌ・シー,,株式会社,東京都,江東区,有明３丁目１番２５号,,13,108,1350063,,,2025-09-29,清算の結了等,,,2015-10-05,1,,,,,エフエヌシー,0
598,3010803002701,登記記録の閉鎖等,0,2025-10-03,2025-09-08,合同会社スパークル,,合同会社,東京都,板橋区,南常盤台１丁目１１番６レフア南常盤台１０１号,,13,119,1740072,,,2025-09-08,清算の結了等,,,2018-05-29,1,,,,,スパークル,0
602,3010902019150,登記記録の閉鎖等,0,2025-10-03,2025-09-30,有限会社エバコム,,有限会社,東京都,世田谷区,北沢１丁目４５番５号,,13,112,1550031,,,2025-09-30,清算の結了等,,,2015-10-05,1,,,,,エバコム,0
609,3011001170316,登記記録の閉鎖等,0,2025-10-03,2025-09-29,株式会社アスピレテックコンサルティング,,株式会社,東京都,渋谷区,渋谷２丁目２２－３渋谷東口ビル６Ｆ,,13,113,1500002,,,2025-09-29,合併による解散等,9011001149585,令和７年９月１日東京都千代田区麹町三丁目５番１７号株式会社ｅｎａｂｌｅＸ（9011001149585）に合併し解散,2025-06-09,1,,,,,アスピレテックコンサルティング,0
621,3011202006830,登記記録の閉鎖等,0,2025-10-03,2025-09-19,有限会社おふぃすラポート,,有限会社,東京都,中野区,南台４丁目３１番６号コンフォート南台２０４,,13,114,1640014,,,2025-09-19,清算の結了等,,,2015-10-05,1,,,,,,0
628,3011501000501,登記記録の閉鎖等,0,2025-10-03,2025-09-26,株式会社ウェイスト・リサーチ,,株式会社,東京都,北区,赤羽南１丁目１１番５号,,13,117,1150044,,,2025-09-26,清算の結了等,,,2015-10-05,1,,,,,ウェイストリサーチ,0
649,3020001013153,登記記録の閉鎖等,0,2025-10-03,2025-09-11,株式会社ＴＫＰ,,株式会社,神奈川県,横浜市西区,平沼１丁目３番９号,,14,103,2200023,,,2025-09-11,清算の結了等,,,2015-10-05,1,,,,,ティーケーピー,0
672,3030001165506,登記記録の閉鎖等,0,2025-10-03,2025-10-02,株式会社ＫＹコンサルティング,,株式会社,埼玉県,所沢市,緑町１丁目１８番８号,,11,208,3591111,,,2025-10-02,清算の結了等,,,2025-03-24,1,,,,,ケイワイコンサルティング,0
681,3040001032770,登記記録の閉鎖等,0,2025-10-03,2025-08-18,株式会社ヴィ・ドール,,株式会社,千葉県,市川市,南大野２丁目４番Ｄ棟７１０号,,12,203,2720804,,,2025-08-18,清算の結了等,,,2015-10-05,1,,,,,ヴィドール,0
699,3060002011103,登記記録の閉鎖等,0,2025-10-03,2025-09-30,有限会社グッド,,有限会社,栃木県,河内郡上三川町,大字上蒲生３７番地６,,09,301,3290617,,,2025-09-30,清算の結了等,,,2015-10-05,1,,,,,グッド,0
716,3120001009975,登記記録の閉鎖等,0,2025-10-03,2025-09-24,シルバー株式会社,,株式会社,大阪府,大阪市東住吉区,照ケ丘矢田２丁目１８番２１号,,27,121,5460021,,,2025-09-24,清算の結了等,,,2015-10-05,1,,,,,シルバー,0
764,3180001017477,登記記録の閉鎖等,0,2025-10-03,2025-09-11,株式会社ティ・ピィ・エス設計事務所,,株式会社,愛知県,名古屋市西区,浅間２丁目４－６ヤマコ第一ビル４０３,,23,104,4510035,,,2025-09-11,清算の結了等,,,2015-10-05,1,,,,,ティピィエスセッケイジムショ,0
765,3180001055485,登記記録の閉鎖等,0,2025-10-03,2025-09-16,森産業株式会社,,株式会社,愛知県,名古屋市天白区,植田山１丁目９０１番地,,23,116,4680001,,,2025-09-16,清算の結了等,,,2015-10-05,1,,,,,モリサンギョウ,0
766,3180001097445,登記記録の閉鎖等,0,2025-10-03,2025-09-11,株式会社マルコーエンタープライズ,,株式会社,愛知県,名古屋市中区,栄５丁目２６番３６号,,23,106,4600008,,,2025-09-11,清算の結了等,,,2015-10-05,1,,,,,マルコーエンタープライズ,0
767,3180001117211,登記記録の閉鎖等,0,2025-10-03,2025-09-05,株式会社スカイネット,,株式会社,愛知県,東海市,名和町戸石１５－１,,23,222,4760002,,,2025-09-05,清算の結了等,,,2015-10-05,1,,,,,スカイネット,0
769,3180001127689,登記記録の閉鎖等,0,2025-10-03,2025-09-11,株式会社パートナーズ,,株式会社,愛知県,名古屋市北区,西志賀町５丁目２８番地の１,,23,103,4620058,,,2025-09-11,清算の結了等,,,2017-05-10,1,,,,,パートナーズ,0
784,3190001010530,登記記録の閉鎖等,0,2025-10-03,2025-09-30,丸幸商事株式会社,,株式会社,三重県,松阪市,上川町字どんど２７３９番地の３６,,24,204,5150041,,,2025-09-30,清算の結了等,,,2015-10-05,1,,,,,マルコウショウジ,0
792,3210002010031,登記記録の閉鎖等,0,2025-10-03,2025-09-30,有限会社赤ちゃん堂,,有限会社,福井県,敦賀市,神楽町２丁目３番１７号,,18,202,9140063,,,2025-09-30,清算の結了等,,,2015-10-05,1,,,,,アカチャンドウ,0
794,3230001011482,登記記録の閉鎖等,0,2025-10-03,2025-09-29,株式会社浅地建築設計事務所,,株式会社,富山県,氷見市,幸町３２番４１号,,16,205,9350021,,,2025-09-29,清算の結了等,,,2015-10-05,1,,,,,アサヂケンチクセッケイジムショ,0
795,3240001021811,登記記録の閉鎖等,0,2025-10-03,2025-09-30,メディカル技研株式会社,,株式会社,広島県,広島市安佐南区,緑井２丁目２７番２０－６号,,34,105,7310103,,,2025-09-30,清算の結了等,,,2015-10-05,1,,,,,メディカルギケン,0
803,3290001063072,登記記録の閉鎖等,0,2025-10-03,2025-09-04,ライトデザインワークス株式会社,,株式会社,福岡県,久留米市,大石町２６５番地８,,40,203,8300049,,,2025-09-04,清算の結了等,,,2015-10-05,1,,,,,ライトデザインワークス,0
813,3290802014158,登記記録の閉鎖等,0,2025-10-03,2025-09-30,有限会社佐伯機械工業所,,有限会社,福岡県,北九州市八幡西区,岩崎１丁目１０番１１号,,40,109,8071153,,,2025-09-30,清算の結了等,,,2015-10-05,1,,,,,サイキキカイコウギョウショ,0
825,3330005001998,登記記録の閉鎖等,0,2025-10-03,2025-09-24,医療法人社団響会,,その他の設立登記法人,熊本県,熊本市南区,御幸笛田４丁目１４番２３号,,43,104,8614172,,,2025-09-24,清算の結了等,,,2015-10-05,1,,,,,ヒビキカイ,0
826,3340001003964,登記記録の閉鎖等,0,2025-10-03,2025-09-29,株式会社マツシタデザイン,,株式会社,鹿児島県,鹿児島市,田上５丁目２３番１号,,46,201,8900034,,,2025-09-29,清算の結了等,,,2015-10-05,1,,,,,マツシタデザイン,0
851,3440002001437,登記記録の閉鎖等,0,2025-10-03,2025-09-30,有限会社ゆんたく会館,,有限会社,北海道,函館市,高松町４３０番地,,01,202,0420952,,,2025-09-30,清算の結了等,,,2015-10-05,1,,,,,ユンタクカイカン,0
852,3460001002087,登記記録の閉鎖等,0,2025-10-03,2025-09-26,京都コンテンツ株式会社,,株式会社,北海道,川上郡弟子屈町,字屈斜路５２６番地４,,01,665,0883341,,,2025-09-26,清算の結了等,,,2015-10-05,1,,,,,キョウトコンテンツ,0
874,4010005023198,登記記録の閉鎖等,0,2025-10-03,2025-09-30,もみじ一般社団法人,,その他の設立登記法人,東京都,中央区,銀座１丁目６番１１号土志田ビルディング３Ｆ,,13,102,1040061,,,2025-09-30,清算の結了等,,,2015-10-05,1,,,,,モミジ,0
875,4010005029352,登記記録の閉鎖等,0,2025-10-03,2025-09-30,一般社団法人ＧＫ　Ｒｈａｐｓｏｄｙ,,その他の設立登記法人,東京都,中央区,銀座１丁目６番１１号土志田ビルディング３Ｆ,,13,102,1040061,,,2025-09-30,清算の結了等,,,2018-11-14,1,,,,,ジーケーラプソディー,0
879,4010401184577,登記記録の閉鎖等,0,2025-10-03,2025-09-01,株式会社ドルフィン・バリュー・アップ１６号,,株式会社,東京都,港区,芝公園１丁目１番１号住友不動産御成門タワー７階,,13,103,1050011,,,2025-09-01,清算の結了等,,,2024-08-19,1,,,,,ドルフィンバリューアップジュウロクゴウ,0
889,4010602026644,登記記録の閉鎖等,0,2025-10-03,2025-09-24,有限会社町田商店,,有限会社,東京都,墨田区,菊川３丁目１３番１１号,,13,107,1300024,,,2025-09-24,清算の結了等,,,2015-10-05,1,,,,,マチダショウテン,0
900,4010903008903,登記記録の閉鎖等,0,2025-10-03,2025-10-01,Ｂｒｅｅｚｅ＆Ｉ合同会社,,合同会社,東京都,世田谷区,上馬３丁目１４番１６,,13,112,1540011,,,2025-10-01,清算の結了等,,,2024-03-18,1,,,,,ブリーズアンドアイ,0
906,4011003014049,登記記録の閉鎖等,0,2025-10-03,2025-09-02,ＥｕｐｈｏＰｉａ株式会社,,株式会社,東京都,渋谷区,神宮前６丁目２３－４桑野ビル２Ｆ,,13,113,1500001,,,2025-09-02,清算の結了等,,,2022-01-26,1,,,,,ユーフォピア,0
927,4012401037319,登記記録の閉鎖等,0,2025-10-03,2025-09-24,株式会社ｂｅｓｔｐｌａｃｅ,,株式会社,東京都,多摩市,関戸４丁目２４番地７第１６通南ビル２階,,13,224,2060011,,,2025-09-24,清算の結了等,,,2020-12-24,1,,,,,ベストプレイス,0
938,4020001078550,登記記録の閉鎖等,0,2025-10-03,2025-09-12,株式会社医療情報サービス,,株式会社,神奈川県,川崎市高津区,末長１丁目６番３２－７０２号,,14,134,2130013,,,2025-09-12,清算の結了等,,,2015-10-05,1,,,,,イリョウジョウホウサービス,0
974,4060001031019,登記記録の閉鎖等,0,2025-10-03,2025-09-29,株式会社ときた保険ＬＡＢ,,株式会社,栃木県,足利市,錦町６２番地１,,09,202,3260047,,,2025-09-29,清算の結了等,,,2018-10-30,1,,,,,トキタホケンラボ,0
981,4070002036577,登記記録の閉鎖等,0,2025-10-03,2025-09-29,有限会社タケウチ,,有限会社,群馬県,吾妻郡東吾妻町,大字原町４２８番地,,10,429,3770801,,,2025-09-29,清算の結了等,,,2015-10-05,1,,,,,タケウチ,0
990,4110002000710,登記記録の閉鎖等,0,2025-10-03,2025-09-24,有限会社五十嵐建具製作所,,有限会社,新潟県,新潟市北区,三軒屋町１４番２２号,,15,101,9503124,,,2025-09-24,清算の結了等,,,2015-10-05,1,,,,,イカラシタテグセイサクショ,0
993,4110005004460,登記記録の閉鎖等,0,2025-10-03,2025-09-25,特定非営利活動法人コスモ夢舞台,,その他の設立登記法人,新潟県,東蒲原郡阿賀町,豊実乙１０３６番地,,15,385,9594304,,,2025-09-25,清算の結了等,,,2015-10-05,1,,,,,コスモユメブタイ,0
994,4120001061835,登記記録の閉鎖等,0,2025-10-03,2025-09-24,株式会社エフ三益,,株式会社,大阪府,大阪市北区,東天満１丁目１２番５号,,27,127,5300044,,,2025-09-24,清算の結了等,,,2015-10-05,1,,,,,エフミマス,0
998,4120001245231,登記記録の閉鎖等,0,2025-10-03,2025-09-17,株式会社九思,,株式会社,大阪府,大阪市浪速区,恵美須東１丁目５番１５号パークハイツ３０６,,27,111,5560002,,,2025-09-17,清算の結了等,,,2022-04-13,1,,,,,キュウシ,0
1039,4180001167148,登記記録の閉鎖等,0,2025-10-03,2025-09-12,株式会社ビューティーブレイン,,株式会社,愛知県,名古屋市千種区,西崎町２丁目３６番地の４,,23,101,4640825,,,2025-09-12,清算の結了等,,,2025-06-04,1,,,,,ビューティーブレイン,0
1043,4180002039602,登記記録の閉鎖等,0,2025-10-03,2025-09-10,中部ロジテム株式会社,,株式会社,愛知県,名古屋市中川区,清船町５丁目１番地の３,,23,110,4540832,,,2025-09-10,清算の結了等,,,2015-10-05,1,,,,,チュウブロジテム,0
1044,4180002041698,登記記録の閉鎖等,0,2025-10-03,2025-09-16,有限会社みかどサッシ販売,,有限会社,愛知県,名古屋市天白区,池場３丁目１０４番地,,23,116,4680055,,,2025-09-16,清算の結了等,,,2015-10-05,1,,,,,ミカドサッシハンバイ,0
1066,4240001058308,登記記録の閉鎖等,0,2025-10-03,2025-09-30,クリーンエネルギー株式会社,,株式会社,広島県,広島市中区,八丁堀１４－１０新八丁堀ビル７階,,34,101,7300013,,,2025-09-30,清算の結了等,,,2021-07-27,1,,,,,クリーンエネルギー,0
1072,4260002007889,登記記録の閉鎖等,0,2025-10-03,2025-09-19,有限会社ハッピーラック,,有限会社,岡山県,岡山市南区,豊成２丁目４番１７号,,33,104,7000942,,,2025-09-19,清算の結了等,,,2015-10-05,1,,,,,ハッピーラック,0
1099,4340005009387,登記記録の閉鎖等,0,2025-10-03,2025-09-22,特定非営利活動法人徳之島元気創造プロジェクト,,その他の設立登記法人,鹿児島県,大島郡伊仙町,大字検福４４３番地２,,46,532,8918116,,,2025-09-22,清算の結了等,,,2021-12-27,1,,,,,トクノシマゲンキソウゾウプロジェクト,0
1106,4380001005122,登記記録の閉鎖等,0,2025-10-03,2025-09-22,コム・ジャパン株式会社,,株式会社,福島県,郡山市,日和田町字財ノ木原６番地の３鈴木アパートＢ棟,,07,203,9630534,,,2025-09-22,清算の結了等,,,2015-10-05,1,,,,,コムジャパン,0
1108,4380002012885,登記記録の閉鎖等,0,2025-10-03,2025-09-22,有限会社山本造園土木,,有限会社,福島県,郡山市,富田町字大徳南２６番地の４,,07,203,9638041,,,2025-09-22,清算の結了等,,,2015-10-05,1,,,,,ヤマモトゾウエンドボク,0
1114,4430001068584,登記記録の閉鎖等,0,2025-10-03,2025-08-25,株式会社ＬＸ　ＪＡＰＡＮ,,株式会社,千葉県,千葉市美浜区,高洲２丁目７番７棟５１０号,,12,106,2610004,,,2025-08-25,清算の結了等,,,2015-10-05,1,,,,,エルエックスジャパン,0
1124,4500001007931,登記記録の閉鎖等,0,2025-10-03,2025-09-16,株式会社堀建築研究所,,株式会社,愛媛県,西予市,宇和町卯之町２丁目２５２番地,,38,214,7970015,,,2025-09-16,清算の結了等,,,2015-10-05,1,,,,,ホリケンチクケンキュウショ,0
1138,5010002016286,登記記録の閉鎖等,0,2025-10-03,2025-09-16,アキラ運送有限会社,,有限会社,東京都,中央区,勝どき４丁目４番７号,,13,102,1040054,,,2025-09-16,清算の結了等,,,2015-10-05,1,,,,,アキラウンソウ,0
1153,5010403031693,登記記録の閉鎖等,0,2025-10-03,2025-09-02,ＩＨ‐ＣＯＭ合同会社,,合同会社,東京都,港区,北青山１丁目３番１号アールキューブ青山３階,,13,103,1070061,,,2025-09-02,清算の結了等,,,2024-01-10,1,,,,,アイエイチコム,0
1155,5010405016676,登記記録の閉鎖等,0,2025-10-03,2025-09-30,ときわ一般社団法人,,その他の設立登記法人,東京都,中央区,銀座１丁目６番１１号土志田ビルディング３Ｆ,,13,102,1040061,,,2025-09-30,清算の結了等,,,2018-04-24,1,,,,,トキワ,0
1158,5010502020622,登記記録の閉鎖等,0,2025-10-03,2025-09-02,株式会社ナカジマデリバリーセンター,,株式会社,東京都,渋谷区,神泉町１０番１５号,,13,113,1500045,,,2025-09-02,合併による解散等,3011003013951,令和７年９月１日東京都渋谷区代々木５－２８－１０株式会社中嶋グループホールディングス（3011003013951）に合併し解散,2015-10-05,1,,,,,ナカジマデリバリーセンター,0
1159,5010503007544,登記記録の閉鎖等,0,2025-10-03,2025-09-11,合同会社稲香,,合同会社,東京都,台東区,台東３丁目５番１０号１０２－２Ｔダイアパレス御徒町第３,,13,106,1100016,,,2025-09-11,清算の結了等,,,2024-08-13,1,,,,,トウショウ,0
1169,5010902017284,登記記録の閉鎖等,0,2025-10-03,2025-10-01,有限会社フレッシュフーズ,,有限会社,東京都,世田谷区,経堂１丁目２２番１８号,,13,112,1560052,,,2025-10-01,清算の結了等,,,2015-10-05,1,,,,,フレッシュフーズ,0
1170,5011001120871,登記記録の閉鎖等,0,2025-10-03,2025-09-19,株式会社東京ナレーション演技研究所,,株式会社,東京都,豊島区,駒込１丁目３番１号,,13,116,1700003,,,2025-09-19,清算の結了等,,,2018-02-27,1,,,,,トウキョウナレーションエンギケンキュウジョ,0
1207,5021001011038,登記記録の閉鎖等,0,2025-10-03,2025-09-11,アイテック株式会社,,株式会社,神奈川県,横浜市緑区,西八朔町２０２,,14,113,2260024,,,2025-09-11,清算の結了等,,,2015-10-05,1,,,,,アイテック,0
1212,5030001092632,登記記録の閉鎖等,0,2025-10-03,2025-09-30,株式会社近衛町メディカル,,株式会社,埼玉県,川口市,芝高木１丁目６番２４号,,11,203,3330868,,,2025-09-30,合併による解散等,1030001116089,令和７年９月３０日埼玉県川口市芝高木一丁目６番２４号株式会社近衛町メディカルフィットネス（1030001116089）に合併し解散,2015-10-05,1,,,,,コノエチョウメディカル,0
1230,5040003019293,登記記録の閉鎖等,0,2025-10-03,2025-08-28,合同会社アマテ,,合同会社,千葉県,東金市,松之郷１２７９番地,,12,213,2830805,,,2025-08-28,清算の結了等,,,2022-01-14,1,,,,,アマテ,0
1239,5060001016919,登記記録の閉鎖等,0,2025-10-03,2025-09-29,株式会社川島建設,,株式会社,栃木県,栃木市,藤岡町藤岡４３０３番地１,,09,203,3231104,,,2025-09-29,清算の結了等,,,2015-10-05,1,,,,,カワシマケンセツ,0
1241,5060002004583,登記記録の閉鎖等,0,2025-10-03,2025-09-29,有限会社新星興業,,有限会社,栃木県,宇都宮市,下小池町５６１番地,,09,201,3212105,,,2025-09-29,清算の結了等,,,2015-10-05,1,,,,,シンセイコウギョウ,0
1246,5080001012271,登記記録の閉鎖等,0,2025-10-03,2025-09-26,株式会社アルト,,株式会社,静岡県,静岡市駿河区,南町１１番１号,,22,102,4228067,,,2025-09-26,清算の結了等,,,2015-10-05,1,,,,,アルト,0
1259,5110003003050,登記記録の閉鎖等,0,2025-10-03,2025-10-01,合同会社Ｋ’ｓ　Ｄｅｃａｓ,,合同会社,新潟県,新潟市中央区,上大川前通１１番町１８９９番地,,15,103,9518068,,,2025-10-01,合併による解散等,7110001032727,令和７年１０月１日新潟市中央区白山浦二丁目１９６番地Ｍｉｏメディカルマネージメント株式会社（7110001032727）に合併し解散,2015-10-05,1,,,,,ケーズディーカス,0
1260,5120001080842,登記記録の閉鎖等,0,2025-10-03,2025-09-22,株式会社ジェイステーション,,株式会社,大阪府,大阪市城東区,関目３丁目２番１７－８０３号,,27,118,5360008,,,2025-09-22,清算の結了等,,,2015-10-05,1,,,,,ジェイステーション,0
1285,5120901009692,登記記録の閉鎖等,0,2025-10-03,2025-09-19,太成化工株式会社,,株式会社,大阪府,摂津市,鶴野３丁目９番７号,,27,224,5660035,,,2025-09-19,清算の結了等,,,2015-10-05,1,,,,,タイセイカコウ,0
1292,5130001019955,登記記録の閉鎖等,0,2025-10-03,2025-10-01,上原硝子株式会社,,株式会社,京都府,京都市伏見区,横大路下三栖宮ノ後６７番地,,26,109,6128245,,,2025-10-01,合併による解散等,3130001023307,令和７年１０月１日京都市伏見区横大路下三栖宮ノ後６７番地ＮＥＸＵＳ　ｗｉｎｄｏｗ株式会社（3130001023307）に合併し解散,2015-10-05,1,,,,,ウエハラガラス,0
1300,5130002026133,登記記録の閉鎖等,0,2025-10-03,2025-10-01,有限会社エムワイ企画,,有限会社,京都府,宇治市,折居台４丁目１番地の１８１,,26,204,6110023,,,2025-10-01,清算の結了等,,,2015-10-05,1,,,,,エムワイキカク,0
1301,5130003009351,登記記録の閉鎖等,0,2025-10-03,2025-09-26,合同会社ＭＢＦ,,合同会社,京都府,久世郡久御山町,市田和気３７－９,,26,322,6130022,,,2025-09-26,清算の結了等,,,2024-03-06,1,,,,,エムビーエフ,0
1302,5140001004031,登記記録の閉鎖等,0,2025-10-03,2025-10-01,株式会社ホンダオート神戸,,株式会社,兵庫県,神戸市灘区,記田町４丁目３番１２号,,28,102,6570034,,,2025-10-01,合併による解散等,8140001018796,令和７年１０月１日神戸市垂水区舞子坂一丁目１０番３７号株式会社ホンダカーズ兵庫中央（8140001018796）に合併し解散,2015-10-05,1,,,,,ホンダオートコウベ,0
1310,5140002062342,登記記録の閉鎖等,0,2025-10-03,2025-09-26,有限会社コニシ,,有限会社,兵庫県,加西市,鴨谷町１２５０番地の１,,28,220,6752444,,,2025-09-26,清算の結了等,,,2015-10-05,1,,,,,コニシ,0
1311,5140003011554,登記記録の閉鎖等,0,2025-10-03,2025-09-25,合同会社野菜がともだち,,合同会社,兵庫県,姫路市,広畑区正門通４丁目４番地２,,28,201,6711116,,,2025-09-25,清算の結了等,,,2016-08-08,1,,,,,ヤサイガトモダチ,0
1325,5180001148592,登記記録の閉鎖等,0,2025-10-03,2025-09-16,株式会社なごチューブ,,株式会社,愛知県,名古屋市中区,錦３丁目６番１５号先,,23,106,4600003,,,2025-09-16,清算の結了等,,,2021-11-04,1,,,,,ナゴチューブ,0
1343,5210001008925,登記記録の閉鎖等,0,2025-10-03,2025-10-01,株式会社シティライツストア,,株式会社,福井県,福井市,市波町第３０号１１番地,,18,201,9102222,,,2025-10-01,清算の結了等,,,2015-10-05,1,,,,,シティライツストア,0
1349,5230001000624,登記記録の閉鎖等,0,2025-10-03,2025-09-04,株式会社ＫＭ,,株式会社,東京都,千代田区,丸の内１丁目９番２号,,13,101,1000005,,,2025-09-04,清算の結了等,,,2015-10-05,1,,,,,,0
1367,5280001008695,登記記録の閉鎖等,0,2025-10-03,2025-09-30,株式会社ｂｅｓｓｅｒ,,株式会社,島根県,出雲市,大津朝倉２丁目２番地１６,,32,203,6930015,,,2025-09-30,清算の結了等,,,2022-05-13,1,,,,,ベーサー,0
1375,5290003004089,登記記録の閉鎖等,0,2025-10-03,2025-09-01,合同会社花みずき,,合同会社,福岡県,春日市,光町３丁目８番地,,40,218,8160806,,,2025-09-01,清算の結了等,,,2015-10-05,1,,,,,ハナミズキ,0
1385,5320001004830,登記記録の閉鎖等,0,2025-10-03,2025-10-01,株式会社坂本宗一郎,,株式会社,大分県,大分市,大字森町４４２番地の７,,44,201,8700127,,,2025-10-01,清算の結了等,,,2015-10-05,1,,,,,サカモトソウイチロウ,0
1402,5370001042454,登記記録の閉鎖等,0,2025-10-03,2025-09-18,株式会社三心商事,,株式会社,宮城県,塩竈市,青葉ケ丘３１番１１号,,04,203,9850082,,,2025-09-18,清算の結了等,,,2017-12-26,1,,,,,サンシンショウジ,0
1405,5380001008545,登記記録の閉鎖等,0,2025-10-03,2025-09-17,株式会社ネクストライフ,,株式会社,福島県,郡山市,神明町５番３７号Ｄクラディア神明５０３号,,07,203,9638013,,,2025-09-17,清算の結了等,,,2015-10-05,1,,,,,ネクストライフ,0
1408,5380003004880,登記記録の閉鎖等,0,2025-10-03,2025-09-19,合同会社Ｔ・Ｍ・タック,,合同会社,福島県,伊達市,川原町６０番地２,,07,213,9600431,,,2025-09-19,清算の結了等,,,2021-03-18,1,,,,,ティエムタック,0
1414,5420005002283,登記記録の閉鎖等,0,2025-10-03,2025-09-16,特定非営利活動法人コンピューターシステム調達の適正化研究会,,その他の設立登記法人,青森県,青森市,大字安田字近野１３４番地の１４,,02,201,0380021,,,2025-09-16,清算の結了等,,,2015-10-05,1,,,,,コンピューターシステムチョウタツノテキセイカケンキュウカイ,0
1420,5430002013638,登記記録の閉鎖等,0,2025-10-03,2025-09-12,有限会社道新竹内販売所,,有限会社,北海道,札幌市豊平区,月寒東三条１９丁目１３番１２号,,01,105,0620053,,,2025-09-12,清算の結了等,,,2015-10-05,1,,,,,ドウシンタケウチハンバイショ,0
1434,6010001122398,登記記録の閉鎖等,0,2025-10-03,2025-09-30,岩国サンプロダクツ株式会社,,株式会社,山口県,岩国市,通津３９１５番地,,35,208,7400044,,,2025-09-30,清算の結了等,,,2015-10-05,1,,,,,イワクニサンプロダクツ,0
1436,6010001223064,登記記録の閉鎖等,0,2025-10-03,2025-10-01,株式会社ＳＯＬＡ　ＧＡＭＥＷＯＲＫＳ,,株式会社,東京都,千代田区,四番町２番地１２,,13,101,1020081,,,2025-10-01,合併による解散等,7011201020077,令和７年１０月１日東京都千代田区四番町２番地１２株式会社ＳＯＬＡ　ＥＮＴＥＲＴＡＩＮＭＥＮＴ（7011201020077）に合併し解散,2021-12-09,1,,,,,ソラゲームワークス,0
1464,6010501024838,登記記録の閉鎖等,0,2025-10-03,2025-09-29,株式会社一舘,,株式会社,東京都,北区,東田端２丁目７番２－４０５号,,13,117,1140013,,,2025-09-29,清算の結了等,,,2015-10-05,1,,,,,イチカン,0
1465,6010502022329,登記記録の閉鎖等,0,2025-10-03,2025-09-30,有限会社インプレッション,,有限会社,福岡県,北九州市小倉北区,馬借２丁目６番３号,,40,106,8020077,,,2025-09-30,清算の結了等,,,2015-10-05,1,,,,,インプレッション,0
1474,6011001013397,登記記録の閉鎖等,0,2025-10-03,2025-09-02,株式会社タイム計画研究所,,株式会社,東京都,渋谷区,代々木４丁目３４番５－１０１号,,13,113,1510053,,,2025-09-02,清算の結了等,,,2015-10-05,1,,,,,タイムケイカクケンキュウジョ,0
1476,6011001116704,登記記録の閉鎖等,0,2025-10-03,2025-09-01,株式会社Ｆｒｅｎｚｙ　Ｃａｐｉｔａｌ,,株式会社,東京都,港区,愛宕２丁目５番１号,,13,103,1050002,,,2025-09-01,清算の結了等,,,2017-06-06,1,,,,,フレンジーキャピタル,0
1478,6011001151577,登記記録の閉鎖等,0,2025-10-03,2025-09-17,株式会社アスコット・メディック,,株式会社,東京都,渋谷区,神宮前３丁目１番３０号,,13,113,1500001,,,2025-09-17,合併による解散等,7011101028617,令和７年９月１７日東京都渋谷区神宮前三丁目１番３０号株式会社アスコット（7011101028617）に合併し解散,2022-12-19,1,,,,,アスコットメディック,0
1479,6011001155891,登記記録の閉鎖等,0,2025-10-03,2025-07-24,株式会社Ａ．Ｓ．Ｍ,,株式会社,東京都,渋谷区,渋谷２丁目１０番１５号,,13,113,1500002,,,2025-07-24,清算の結了等,,,2023-07-26,1,,,,,エーエスエム,0
1500,6011302004913,登記記録の閉鎖等,0,2025-10-03,2025-09-29,有限会社末広工機,,有限会社,東京都,杉並区,上井草１丁目２０番９号,,13,115,1670023,,,2025-09-29,清算の結了等,,,2015-10-05,1,,,,,スエヒロコウキ,0
1506,6011503005363,登記記録の閉鎖等,0,2025-10-03,2025-09-26,バブ企画合同会社,,合同会社,東京都,北区,田端新町１丁目７－１４ビズフィールド西日暮里４０２,,13,117,1140012,,,2025-09-26,清算の結了等,,,2022-11-22,1,,,,,バブキカク,0
1542,6050001012562,登記記録の閉鎖等,0,2025-10-03,2025-09-22,株式会社セツ企画,,株式会社,茨城県,土浦市,千束町８番６号,,08,203,3000046,,,2025-09-22,清算の結了等,,,2015-10-05,1,,,,,セツキカク,0
1569,6110002024138,登記記録の閉鎖等,0,2025-10-03,2025-09-24,有限会社創樹,,有限会社,新潟県,上越市,大島区岡５５番地７,,15,222,9421106,,,2025-09-24,清算の結了等,,,2015-10-05,1,,,,,ソウジュ,0
1585,6120002079230,登記記録の閉鎖等,0,2025-10-03,2025-09-22,有限会社レアール,,有限会社,大阪府,守口市,東光町３丁目６番１８号,,27,209,5700035,,,2025-09-22,清算の結了等,,,2015-10-05,1,,,,,,0
1586,6120003012479,登記記録の閉鎖等,0,2025-10-03,2025-09-22,合同会社かなざす,,合同会社,大阪府,大阪市西淀川区,大和田１丁目３番６－４０３号,,27,113,5550032,,,2025-09-22,清算の結了等,,,2017-02-14,1,,,,,カナザス,0
1599,6122002014423,登記記録の閉鎖等,0,2025-10-03,2025-09-11,有限会社中山金属製作所,,有限会社,大阪府,八尾市,老原６丁目６５番地の２,,27,212,5810092,,,2025-09-11,清算の結了等,,,2015-10-05,1,,,,,ナカヤマキンゾクセイサクショ,0
1600,6130001002638,登記記録の閉鎖等,0,2025-10-03,2025-09-29,株式会社オーエスディーインベストメント,,株式会社,京都府,京都市上京区,西洞院通一条下る讃州寺町２３７番地,,26,102,6020922,,,2025-09-29,清算の結了等,,,2015-10-05,1,,,,,オーエスディーインベストメント,0
1602,6130001021299,登記記録の閉鎖等,0,2025-10-03,2025-10-01,株式会社全国醸界新聞社,,株式会社,京都府,京都市右京区,西京極東大丸町４９番地１,,26,108,6150807,,,2025-10-01,清算の結了等,,,2015-10-05,1,,,,,ゼンコクジョウカイシンブンシャ,0
1607,6130003006819,登記記録の閉鎖等,0,2025-10-03,2025-09-26,合同会社医連絡,,合同会社,京都府,京都市山科区,日ノ岡ホッパラ町１１－４,,26,110,6078497,,,2025-09-26,清算の結了等,,,2020-10-15,1,,,,,イレンラク,0
1608,6130005016758,登記記録の閉鎖等,0,2025-10-03,2025-09-26,一般社団法人東栄,,その他の設立登記法人,京都府,京都市右京区,西院西矢掛町１８番地,,26,108,6150025,,,2025-09-26,清算の結了等,,,2023-04-18,1,,,,,トウエイ,0
1620,6160005004396,登記記録の閉鎖等,0,2025-10-03,2025-10-01,善立寺,,その他の設立登記法人,滋賀県,長浜市,高月町東物部８１０番地,,25,203,5290261,,,2025-10-01,清算の結了等,,,2015-10-05,1,,,,,ゼンリツジ,0
1621,6170001013739,登記記録の閉鎖等,0,2025-10-03,2025-10-01,株式会社濱田,00045428,株式会社,和歌山県,西牟婁郡上富田町,南紀の台１３番５号,,30,404,6492106,,,2025-10-01,清算の結了等,,,2015-10-05,1,,,,,ハマダ,0
1623,6180001003747,登記記録の閉鎖等,0,2025-10-03,2025-09-11,株式会社川津商店,,株式会社,愛知県,名古屋市千種区,竹越１丁目１０番２７号,,23,101,4640007,,,2025-09-11,清算の結了等,,,2015-10-05,1,,,,,カワツショウテン,0
1624,6180001020453,登記記録の閉鎖等,0,2025-10-03,2025-09-11,名古屋メツセンジヤー株式会社,,株式会社,愛知県,名古屋市中川区,四女子町２丁目３３番地,,23,110,4540822,,,2025-09-11,清算の結了等,,,2015-10-05,1,,,,,ナゴヤメツセンジヤー,0
1628,6180001144649,登記記録の閉鎖等,0,2025-10-03,2025-09-11,株式会社Ｓｅｎｄ,,株式会社,愛知県,名古屋市中村区,並木２丁目１４８番地１０３,,23,105,4530856,,,2025-09-11,清算の結了等,,,2021-02-04,1,,,,,センド,0
1632,6180002078169,登記記録の閉鎖等,0,2025-10-03,2025-09-11,有限会社加納製作所,,有限会社,愛知県,一宮市,明地字東下城１００番地の１,,23,203,4940012,,,2025-09-11,清算の結了等,,,2015-10-05,1,,,,,カノウセイサクショ,0
1639,6220002015539,登記記録の閉鎖等,0,2025-10-03,2025-09-30,有限会社立野味噌糀店,00078530,有限会社,石川県,輪島市,河井町２３部１番地４９,,17,204,9280001,,,2025-09-30,清算の結了等,,,2015-10-05,1,,,,,タテノミソコウジテン,0
1653,6290001100368,登記記録の閉鎖等,0,2025-10-03,2025-09-05,株式会社朝日企画,,株式会社,福岡県,大野城市,大城２丁目２４番１３号,,40,219,8160911,,,2025-09-05,清算の結了等,,,2023-01-31,1,,,,,アサヒキカク,0
1690,6400005002813,登記記録の閉鎖等,0,2025-10-03,2025-09-22,特定非営利活動法人精神保健を考えるいわての会,,その他の設立登記法人,岩手県,盛岡市,南青山町１６番２４号,,03,201,0200134,,,2025-09-22,清算の結了等,,,2015-10-05,1,,,,,セイシンホケンヲカンガエルイワテノカイ,0
1700,6430003006136,登記記録の閉鎖等,0,2025-10-03,2025-09-16,合同会社ＴＫキャピタルマネジメント,,合同会社,北海道,札幌市北区,北八条西１丁目３番地,,01,102,0600808,,,2025-09-16,清算の結了等,,,2015-10-05,1,,,,,ティーケーキャピタルマネジメント,0
1702,6440002007209,登記記録の閉鎖等,0,2025-10-03,2025-09-25,株式会社Ｍａｘフーズ,,株式会社,北海道,函館市,赤川町１３９番地３０,,01,202,0410804,,,2025-09-25,清算の結了等,,,2015-10-05,1,,,,,マックスフーズ,0
1705,6470005002360,登記記録の閉鎖等,0,2025-10-03,2025-09-29,特定非営利活動法人障害児者ゴーゴースクラム,,その他の設立登記法人,香川県,高松市,紙町新開５０番地３,,37,201,7618055,,,2025-09-29,清算の結了等,,,2015-10-05,1,,,,,ショウガイジゴーゴースクラム,0
1717,7010001240273,登記記録の閉鎖等,0,2025-10-03,2025-09-04,ＪＯＹ　ＨＡＲＢＯＲ株式会社,,株式会社,東京都,千代田区,神田佐久間町２丁目１８番地１秋葉原ＳＴＮフロント１０,,13,101,1010025,,,2025-09-04,清算の結了等,,,2023-11-24,1,,,,,ジョイハーバー,0
1725,7010401058381,登記記録の閉鎖等,0,2025-10-03,2025-09-01,株式会社ホールマンホールディングス,,株式会社,東京都,港区,六本木３丁目１番１７号,,13,103,1060032,,,2025-09-01,合併による解散等,6010401058382,令和７年９月１日東京都港区六本木三丁目１番１７号株式会社ホールマン（6010401058382）に合併し解散,2015-10-05,1,,,,,ホールマンホールディングス,0
1728,7010401157935,登記記録の閉鎖等,0,2025-10-03,2025-09-02,株式会社日進総備,,株式会社,東京都,港区,芝３丁目４番１５号,,13,103,1050014,,,2025-09-02,清算の結了等,,,2021-02-03,1,,,,,ニッシンソウビ,0
1732,7010403023763,登記記録の閉鎖等,0,2025-10-03,2025-09-02,合同会社Ｋｉｓｈｉｎｅ　Ｐａｒｋ,,合同会社,東京都,港区,南青山２丁目２番１５号ウィン青山１２１４号,,13,103,1070062,,,2025-09-02,清算の結了等,,,2020-09-18,1,,,,,キシネパーク,0
1739,7010805002670,登記記録の閉鎖等,0,2025-10-03,2025-09-22,一般社団法人日本ＳＥＬ推進協会,,その他の設立登記法人,東京都,大田区,田園調布本町６番１６号,,13,111,1450072,,,2025-09-22,清算の結了等,,,2019-07-02,1,,,,,ニホンエスイーエルスイシンキョウカイ,0
1742,7011001000659,登記記録の閉鎖等,0,2025-10-03,2025-09-02,株式会社アール・エム・エンジニアリング,,株式会社,東京都,渋谷区,幡ヶ谷２丁目３５番４号,,13,113,1510072,,,2025-09-02,清算の結了等,,,2015-10-05,1,,,,,アールエムエンジニアリング,0
1758,7011302005605,登記記録の閉鎖等,0,2025-10-03,2025-09-29,有限会社車多倶楽部,,有限会社,東京都,杉並区,高井戸西１丁目５番１４号,,13,115,1680071,,,2025-09-29,清算の結了等,,,2015-10-05,1,,,,,シャタクラブ,0
1782,7020003012372,登記記録の閉鎖等,0,2025-10-03,2025-09-11,合同会社ドリームプランニング,,合同会社,神奈川県,川崎市中原区,北谷町６９３番地,,14,133,2110015,,,2025-09-11,清算の結了等,,,2017-02-14,1,,,,,ドリームプランニング,0
1796,7040001076013,登記記録の閉鎖等,0,2025-10-03,2025-09-04,株式会社マルショウ,,株式会社,千葉県,柏市,花野井７６７番地１,,12,217,2770812,,,2025-09-04,清算の結了等,,,2015-10-05,1,,,,,マルショウ,0
1812,7070001020257,登記記録の閉鎖等,0,2025-10-03,2025-09-01,安田精機株式会社,,株式会社,群馬県,邑楽郡大泉町,大字吉田１２２１番地,,10,524,3700523,,,2025-09-01,合併による解散等,5070001022791,令和７年９月１日群馬県邑楽郡大泉町大字吉田２４７９番地２株式会社カンセイ（5070001022791）に合併し解散,2015-10-05,1,,,,,ヤスダセイキ,0
1831,7110005000580,登記記録の閉鎖等,0,2025-10-03,2025-09-24,医療法人社団浅井整形外科,,その他の設立登記法人,新潟県,新潟市中央区,女池６丁目５番７号,,15,103,9500941,,,2025-09-24,清算の結了等,,,2015-10-05,1,,,,,アサイセイケイゲカ,0
1859,7122001024083,登記記録の閉鎖等,0,2025-10-03,2025-09-29,株式会社ウジョントラスト,,株式会社,大阪府,大阪市東住吉区,中野３丁目１番１３号,,27,121,5460012,,,2025-09-29,合併による解散等,3120002051530,令和７年９月２５日大阪市東住吉区中野三丁目１番１３号株式会社エヌ・ケー不動産販売（3120002051530）に合併し解散,2015-10-05,1,,,,,ウジョントラスト,0
1864,7130001069032,登記記録の閉鎖等,0,2025-10-03,2025-10-01,エム・エス・シー株式会社,,株式会社,京都府,京都市下京区,四条通室町東入函谷鉾町１０１アーバンネット四条烏丸ビル６Ｆ,,26,106,6008009,,,2025-10-01,合併による解散等,7130001033319,令和７年１０月１日京都府久世郡久御山町佐古外屋敷６４番地１小川医理器株式会社（7130001033319）に合併し解散,2021-04-08,1,,,,,エムエスシー,0
1881,7180001151537,登記記録の閉鎖等,0,2025-10-03,2025-09-12,シャイン・パール株式会社,,株式会社,愛知県,名古屋市名東区,藤見が丘３０,,23,115,4650048,,,2025-09-12,清算の結了等,,,2022-06-01,1,,,,,シャインパール,0
1887,7180002010122,登記記録の閉鎖等,0,2025-10-03,2025-09-16,有限会社日之出自動車,,有限会社,愛知県,名古屋市昭和区,鶴舞３丁目１２番１９号,,23,107,4660064,,,2025-09-16,清算の結了等,,,2015-10-05,1,,,,,ヒノデジドウシャ,0
1921,7290001039440,登記記録の閉鎖等,0,2025-10-03,2025-09-05,オーエーサプライズ株式会社,,株式会社,福岡県,糟屋郡志免町,大字吉原１０９番地１,,40,343,8112208,,,2025-09-05,清算の結了等,,,2015-10-05,1,,,,,オーエーサプライズ,0
1968,7430002028741,登記記録の閉鎖等,0,2025-10-03,2025-09-29,有限会社サッポロサンエイ,,有限会社,北海道,札幌市白石区,北郷九条８丁目３番２０号,,01,104,0030839,,,2025-09-29,清算の結了等,,,2015-10-05,1,,,,,サッポロサンエイ,0
1977,7460002000994,登記記録の閉鎖等,0,2025-10-03,2025-10-01,有限会社小池建設,,有限会社,北海道,釧路市,昭和南４丁目１６番２号,,01,206,0840909,,,2025-10-01,清算の結了等,,,2015-10-05,1,,,,,コイケケンセツ,0
1992,8010001182853,登記記録の閉鎖等,0,2025-10-03,2025-09-30,株式会社帝塚山エステート,00109956,株式会社,東京都,中央区,銀座７丁目１３番６号サガミビル２階,,13,102,1040061,,,2025-09-30,合併による解散等,9010003024425,令和７年９月３０日東京都中央区日本橋三丁目２番１４号新槇町ビル別館第一１階合同会社阪南アセットマネジメント（9010003024425）に合併し解散,2017-04-19,1,,,,,テヅカヤマエステート,0
2020,8010401130783,登記記録の閉鎖等,0,2025-10-03,2025-09-04,ＣＡ　ＰＡＲＴＮＥＲＳ株式会社,,株式会社,東京都,千代田区,永田町２丁目１７番１７号アイオス永田町２Ｆ,,13,101,1000014,,,2025-09-04,清算の結了等,,,2017-04-17,1,,,,,シーエーパートナーズ,0
2030,8010502016213,登記記録の閉鎖等,0,2025-10-03,2025-09-09,有限会社グローリー企画,,有限会社,東京都,台東区,上野２丁目１２番９号,,13,106,1100005,,,2025-09-09,合併による解散等,5010501003033,令和７年９月１日東京都台東区上野二丁目１２番９号金栄商事株式会社（5010501003033）に合併し解散,2015-10-05,1,,,,,グローリーキカク,0
2051,8011101084898,登記記録の閉鎖等,0,2025-10-03,2025-09-29,株式会社山口総合経済研究所,,株式会社,東京都,新宿区,新宿１丁目３５番３－８０５号,,13,104,1600022,,,2025-09-29,清算の結了等,,,2018-07-27,1,,,,,ヤマグチソウゴウケイザイケンキュウジョ,0
2053,8011103015249,登記記録の閉鎖等,0,2025-10-03,2025-09-01,合同会社さんほうが,,合同会社,東京都,新宿区,西新宿３丁目３番１３号西新宿水間ビル６階,,13,104,1600023,,,2025-09-01,清算の結了等,,,2024-12-04,1,,,,,サンホウガ,0
2056,8011203004102,登記記録の閉鎖等,0,2025-10-03,2025-09-19,合同会社ＲｅＡＣＴ,,合同会社,東京都,中野区,本町４丁目６－３平友荘１階６号室,,13,114,1640012,,,2025-09-19,清算の結了等,,,2023-06-09,1,,,,,リアクト,0
2059,8011502007540,登記記録の閉鎖等,0,2025-10-03,2025-09-29,有限会社尾久金物金専,,有限会社,東京都,荒川区,東尾久５丁目１６番１６号,,13,118,1160012,,,2025-09-29,清算の結了等,,,2015-10-05,1,,,,,オグカナモノカネセン,0
2067,8011702004890,登記記録の閉鎖等,0,2025-10-03,2025-09-29,有限会社佐々木サッシ工業所,,有限会社,東京都,江戸川区,東小松川４丁目１１番２３号,,13,123,1320033,,,2025-09-29,清算の結了等,,,2015-10-05,1,,,,,ササキサッシコウギョウショ,0
2069,8011801000634,登記記録の閉鎖等,0,2025-10-03,2025-09-24,株式会社越後屋,,株式会社,東京都,江東区,亀戸５丁目１２番３号,,13,108,1360071,,,2025-09-24,清算の結了等,,,2015-10-05,1,,,,,エチゴヤ,0
2083,8020001098504,登記記録の閉鎖等,0,2025-10-03,2025-09-11,ファーストケイアール株式会社,,株式会社,神奈川県,横浜市旭区,今宿西町３７０番２２,,14,112,2410031,,,2025-09-11,清算の結了等,,,2015-10-05,1,,,,,ファーストケイアール,0
2090,8020001157350,登記記録の閉鎖等,0,2025-10-03,2025-09-05,株式会社Ｈ２ｍｉ,,株式会社,神奈川県,横浜市旭区,小高町１７０－８,,14,112,2410015,,,2025-09-05,清算の結了等,,,2024-05-27,1,,,,,エイチツーミー,0
2118,8060001032351,登記記録の閉鎖等,0,2025-10-03,2025-09-30,株式会社清賀,,株式会社,栃木県,栃木市,大平町新９４４番地１５,,09,203,3294425,,,2025-09-30,清算の結了等,,,2020-03-03,1,,,,,キヨカ,0
2127,8080002005222,登記記録の閉鎖等,0,2025-10-03,2025-09-26,有限会社ベル装,,有限会社,静岡県,静岡市駿河区,桃園町１３番８号,,22,102,4210114,,,2025-09-26,清算の結了等,,,2015-10-05,1,,,,,ベルソウ,0
2165,8130002009036,登記記録の閉鎖等,0,2025-10-03,2025-09-30,有限会社辻達運送,00037159,有限会社,京都府,京都市西京区,樫原内垣外町２５番地９,,26,111,6158152,,,2025-09-30,清算の結了等,,,2015-10-05,1,,,,,ツジタツウンソウ,0
2168,8130005014017,登記記録の閉鎖等,0,2025-10-03,2025-09-26,一般社団法人電子連絡ノート協会,,その他の設立登記法人,京都府,京都市山科区,日ノ岡ホッパラ町１１番地４,,26,110,6078497,,,2025-09-26,清算の結了等,,,2015-10-05,1,,,,,デンシレンラクノートキョウカイ,0
2184,8180001056099,登記記録の閉鎖等,0,2025-10-03,2025-09-10,株式会社クリーン・エコ,,株式会社,愛知県,小牧市,高根１丁目９１番地,,23,219,4850803,,,2025-09-10,清算の結了等,,,2015-10-05,1,,,,,クリーンエコ,0
2190,8180002066527,登記記録の閉鎖等,0,2025-10-03,2025-09-11,有限会社タケシン,,有限会社,愛知県,春日井市,大手田酉町１丁目５番地９,,23,206,4860806,,,2025-09-11,清算の結了等,,,2015-10-05,1,,,,,タケシン,0
2205,8200002010011,登記記録の閉鎖等,0,2025-10-03,2025-10-01,有限会社ローム,,有限会社,岐阜県,瑞穂市,稲里６７０番地,,21,216,5010224,,,2025-10-01,清算の結了等,,,2015-10-05,1,,,,,ローム,0
2218,8240001053908,登記記録の閉鎖等,0,2025-10-03,2025-10-01,株式会社モダン・アイ,,株式会社,広島県,広島市中区,東千田町２丁目３番１７号,,34,101,7300053,,,2025-10-01,合併による解散等,8240001019173,令和７年１０月１日広島市西区中広町一丁目１７番１号株式会社モダンパック石田（8240001019173）に合併し解散,2019-02-06,1,,,,,モダンアイ,0
2225,8250002018859,登記記録の閉鎖等,0,2025-10-03,2025-09-30,有限会社錦ドリーム開発,,有限会社,山口県,岩国市,錦町広瀬１２番地,,35,208,7400724,,,2025-09-30,清算の結了等,,,2015-10-05,1,,,,,ニシキドリームカイハツ,0
2233,8290003008145,登記記録の閉鎖等,0,2025-10-03,2025-09-05,合同会社穏ケア,,合同会社,福岡県,宗像市,赤間５丁目６－８－９０１,,40,220,8114146,,,2025-09-05,清算の結了等,,,2018-06-13,1,,,,,オンケア,0
2241,8310005001839,登記記録の閉鎖等,0,2025-10-03,2025-10-01,西彼中央土地開発公社,,その他の設立登記法人,長崎県,西彼杵郡長与町,嬉里郷６５９番地１,,42,307,8512128,,,2025-10-01,清算の結了等,,,2015-10-05,1,,,,,セイヒチュウオウ,0
2246,8320003002318,登記記録の閉鎖等,0,2025-10-03,2025-09-29,合同会社ビリーブ・プレイス,,合同会社,大分県,大分市,敷戸新町４番１号（三和コーポ３８敷戸１０１）,,44,201,8701102,,,2025-09-29,清算の結了等,,,2015-11-19,1,,,,,,0
2256,8340002023783,登記記録の閉鎖等,0,2025-10-03,2025-09-26,有限会社カネマツ,,有限会社,鹿児島県,枕崎市,恵比須町２３番地,,46,204,8980009,,,2025-09-26,清算の結了等,,,2015-10-05,1,,,,,カネマツ,0
2261,8370005010487,登記記録の閉鎖等,0,2025-10-03,2025-09-12,一般社団法人ｎｅｔｏｍ,,その他の設立登記法人,宮城県,東松島市,大塚字長浜１４３,,04,214,9810414,,,2025-09-12,清算の結了等,,,2022-06-03,1,,,,,ネットム,0
2273,8430001044012,登記記録の閉鎖等,0,2025-10-03,2025-09-29,北海道有機農材株式会社,,株式会社,北海道,千歳市,駒里１２９１番地,,01,224,0660011,,,2025-09-29,清算の結了等,,,2015-10-05,1,,,,,,0
2276,8430002044309,登記記録の閉鎖等,0,2025-10-03,2025-09-16,有限会社敬電設,,有限会社,北海道,北広島市,里見町２丁目３番地２,,01,234,0611147,,,2025-09-16,清算の結了等,,,2015-10-05,1,,,,,ケイデンセツ,0
2287,8490002007219,登記記録の閉鎖等,0,2025-10-03,2025-10-01,有限会社豊栄興業,,有限会社,高知県,高知市,春野町仁ノ３０９７番地１,,39,201,7810323,,,2025-10-01,清算の結了等,,,2015-10-05,1,,,,,ホウエイコウギョウ,0
2291,8500003001516,登記記録の閉鎖等,0,2025-10-03,2025-09-30,合同会社のぞみファーミング,,合同会社,兵庫県,宝塚市,亀井町１０番６３－６１９号,,28,214,6650047,,,2025-09-30,清算の結了等,,,2015-10-05,1,,,,,ノゾミファーミング,0
2309,9010101012570,登記記録の閉鎖等,0,2025-10-03,2025-09-30,白虎建設株式会社,,株式会社,東京都,八王子市,元横山町３丁目１０番１４号,,13,201,1920063,,,2025-09-30,清算の結了等,,,2016-11-14,1,,,,,,0
2326,9010901032462,登記記録の閉鎖等,0,2025-10-03,2025-09-30,株式会社ヴェクティ・ジャパン,,株式会社,東京都,世田谷区,玉川３丁目１番１８号,,13,112,1580094,,,2025-09-30,清算の結了等,,,2015-10-05,1,,,,,ヴェクティジャパン,0
2399,9040002074526,登記記録の閉鎖等,0,2025-10-03,2025-09-01,有限会社ナガタ商会,,有限会社,千葉県,市原市,青葉台６丁目１３番地の１４,,12,219,2990117,,,2025-09-01,清算の結了等,,,2015-10-05,1,,,,,ナガタショウカイ,0
2424,9110002002611,登記記録の閉鎖等,0,2025-10-03,2025-09-24,有限会社斎久,,有限会社,新潟県,新潟市中央区,沼垂東５丁目１４番７号,,15,103,9500075,,,2025-09-24,清算の結了等,,,2015-10-05,1,,,,,サイキュウ,0
2440,9120002016115,登記記録の閉鎖等,0,2025-10-03,2025-09-24,有限会社アサヒ工芸社,,有限会社,大阪府,大阪市住之江区,南加賀屋４丁目４番３３－１５０２号,,27,125,5590015,,,2025-09-24,清算の結了等,,,2015-10-05,1,,,,,アサヒコウゲイシャ,0
2482,9180002006465,登記記録の閉鎖等,0,2025-10-03,2025-09-12,有限会社信和電機,,有限会社,愛知県,名古屋市中川区,中花町２４１番地,,23,110,4540931,,,2025-09-12,清算の結了等,,,2015-10-05,1,,,,,シンワデンキ,0
2492,9190003003527,登記記録の閉鎖等,0,2025-10-03,2025-09-24,Ｍｏｎｔｅｓｓｏｒｉ　Ｉｎｔｅｒｎａｔｉｏｎａｌ合同会社,,合同会社,三重県,四日市市,南松本町１０番地１０,,24,202,5100838,,,2025-09-24,清算の結了等,,,2020-11-17,1,,,,,モンテッソーリインターナショナル,0
2495,9200001005317,登記記録の閉鎖等,0,2025-10-03,2025-09-29,みやび株式会社,,株式会社,岐阜県,岐阜市,住田町１丁目３番地,,21,201,5008843,,,2025-09-29,清算の結了等,,,2015-10-05,1,,,,,,0
2502,9240001019726,登記記録の閉鎖等,0,2025-10-03,2025-10-01,株式会社真栄,,株式会社,広島県,広島市中区,江波南１丁目３７番２２号,,34,101,7300835,,,2025-10-01,合併による解散等,5240001052037,令和７年１０月１日広島市中区江波南一丁目２１番２１号株式会社美咲興業（5240001052037）に合併し解散,2015-10-05,1,,,,,シンエイ,0
2512,9290001011645,登記記録の閉鎖等,0,2025-10-03,2025-09-30,株式会社イワサ,,株式会社,福岡県,福岡市博多区,半道橋２丁目７番３３号,,40,132,8120897,,,2025-09-30,合併による解散等,8260001005659,令和７年９月１日岡山市中区平井１１６２番地の１株式会社ヒラタ（8260001005659）に合併し解散,2015-10-05,1,,,,,イワサ,0
2517,9290002053257,登記記録の閉鎖等,0,2025-10-03,2025-09-04,有限会社クリーンスヤスヤ,,有限会社,福岡県,みやま市,瀬高町太神１３３４番地の１,,40,229,8350013,,,2025-09-04,清算の結了等,,,2015-10-05,1,,,,,クリーンスヤスヤ,0
2526,9310002002590,登記記録の閉鎖等,0,2025-10-03,2025-09-24,有限会社スギタビル,,有限会社,長崎県,長崎市,油屋町１番３１－６０１号,,42,201,8500832,,,2025-09-24,清算の結了等,,,2015-10-05,1,,,,,スギタビル,0
2536,9350002011209,登記記録の閉鎖等,0,2025-10-03,2025-09-29,有限会社姫野電業,,有限会社,宮崎県,東臼杵郡門川町,東栄町１丁目６番６号,,45,421,8890621,,,2025-09-29,清算の結了等,,,2015-10-05,1,,,,,ヒメノデンギョウ,0
2546,9410002007217,登記記録の閉鎖等,0,2025-10-03,2025-10-01,株式会社サンねむの木,,株式会社,秋田県,にかほ市,象潟町字才の神３１番地１,,05,214,0180129,,,2025-10-01,合併による解散等,1410001005088,令和７年１０月１日秋田県にかほ市象潟町字下浜山９番地２０株式会社秋田マシナリー（1410001005088）に合併し解散,2015-10-05,1,,,,,サンネムノキ,0
2550,9430002043235,登記記録の閉鎖等,0,2025-10-03,2025-09-29,有限会社エーエヌドリーム,,有限会社,北海道,石狩市,緑苑台東三条３丁目２３６番地,,01,235,0613223,,,2025-09-29,清算の結了等,,,2015-10-05,1,,,,,,0
2555,9470002003912,登記記録の閉鎖等,0,2025-10-03,2025-10-01,有限会社清泉,,有限会社,香川県,高松市,一宮町４５０番地１３,,37,201,7618084,,,2025-10-01,合併による解散等,5470002005433,令和７年１０月１日香川県高松市一宮町４５０番地１株式会社橋本薬局（5470002005433）に合併し解散,2015-10-05,1,,,,,セイセン,0
2556,9500001008958,登記記録の閉鎖等,0,2025-10-03,2025-09-26,株式会社港新開発,,株式会社,愛媛県,西条市,港１０２番地の２,,38,206,7930046,,,2025-09-26,合併による解散等,3500001009763,令和７年９月２５日愛媛県西条市港９３番地１菅工業株式会社（3500001009763）に合併し解散,2015-10-05,1,,,,,コウシンカイハツ,0
