sequenceNumber,corporateNumber,process,correct,updateDate,changeDate,name,nameImageId,kind,prefectureName,cityName,streetNumber,addressImageId,prefectureCode,cityCode,postCode,addressOutside,addressOutsideImageId,closeDate,closeCause,successorCorporateNumber,changeCause,assignmentDate,latest,enName,enPrefectureName,enCityName,enAddressOutside,furigana,hihyoji
4,1010001225214,新規,0,2022-03-23,2022-03-23,株式会社シッコク,,株式会社,東京都,千代田区,神田練塀町３００番住友不動産秋葉原駅前ビル２階,,13,101,1010022,,,,,,,2022-03-23,1,,,,,シッコク,0
5,1010001225321,新規,0,2022-03-23,2022-03-23,ユニティ・ワン株式会社,,株式会社,東京都,千代田区,飯田橋４丁目４番１－１２０３号,,13,101,1020072,,,,,,,2022-03-23,1,,,,,ユニティワン,0
8,1010003037203,新規,0,2022-03-23,2022-03-23,合同会社シルバーミント,,合同会社,東京都,中央区,銀座８丁目１５番１０号,,13,102,1040061,,,,,,,2022-03-23,1,,,,,シルバーミント,0
9,1010003037310,新規,0,2022-03-23,2022-03-23,合同会社イノベーションアイピーコンサルティング,,合同会社,東京都,中央区,日本橋兜町１７番２号兜町第６葉山ビル４階,,13,102,1030026,,,,,,,2022-03-23,1,,,,,イノベーションアイピーコンサルティング,0
10,1010003037319,新規,0,2022-03-23,2022-03-23,合同会社レトナデザイン,,合同会社,東京都,中央区,日本橋浜町３丁目１６－９－７０４,,13,102,1030007,,,,,,,2022-03-23,1,,,,,レトナデザイン,0
12,1010101015110,新規,0,2022-03-23,2022-03-23,株式会社ロハズ,,株式会社,東京都,八王子市,大塚５０１番地ナカジマビル１階,,13,201,1920352,,,,,,,2022-03-23,1,,,,,ロハズ,0
16,1010401166314,新規,0,2022-03-23,2022-03-23,株式会社ＭＡＭＯＲＵ,,株式会社,東京都,港区,六本木４丁目５番１１号ＳＩＸ４階,,13,103,1060032,,,,,,,2022-03-23,1,,,,,マモル,0
17,1010401166355,新規,0,2022-03-23,2022-03-23,株式会社Ｓｐｏｔｌｉｇｈｔ３号,,株式会社,東京都,港区,東新橋１丁目６番１号,,13,103,1050021,,,,,,,2022-03-23,1,,,,,スポットライトサンゴウ,0
20,1010603009444,新規,0,2022-03-23,2022-03-23,ＶＥＲＯＮ合同会社,,合同会社,東京都,江東区,有明１丁目６番３０－７０２号,,13,108,1350063,,,,,,,2022-03-23,1,,,,,ヴェーロン,0
27,1011001146409,新規,0,2022-03-23,2022-03-23,ロボッコ株式会社,,株式会社,東京都,渋谷区,代々木５丁目２５番２１号アパートメント代々木３０１,,13,113,1510053,,,,,,,2022-03-23,1,,,,,ロボッコ,0
28,1011003014373,新規,0,2022-03-23,2022-03-23,合同会社Ｍａｏｌｉ,,合同会社,東京都,渋谷区,渋谷３丁目１３番５号ＢＰＲレジデンス７０６,,13,113,1500002,,,,,,,2022-03-23,1,,,,,マオリ,0
31,1011101098228,新規,0,2022-03-23,2022-03-23,株式会社中卒,,株式会社,東京都,新宿区,北新宿３丁目１－２０北新宿ユニオンビル６Ｆ,,13,104,1690074,,,,,,,2022-03-23,1,,,,,チュウソツ,0
32,1011101098252,新規,0,2022-03-23,2022-03-23,株式会社Ａ＆Ｍ,,株式会社,東京都,新宿区,高田馬場４丁目２５番５号,,13,104,1690075,,,,,,,2022-03-23,1,,,,,エーアンドエム,0
33,1011103011584,新規,0,2022-03-23,2022-03-23,Ｌｉｖｉｎｇ　Ｆｏｕｎｄａｔｉｏｎ合同会社,,合同会社,東京都,新宿区,原町３丁目１５番地１プラウド新宿牛込柳町２１４,,13,104,1620053,,,,,,,2022-03-23,1,,,,,リビングファンデーション,0
35,1011201023721,新規,0,2022-03-23,2022-03-23,株式会社新通産,,株式会社,東京都,中野区,中央３丁目３４番１－６０１号,,13,114,1640011,,,,,,,2022-03-23,1,,,,,シンツウサン,0
39,1011401024115,新規,0,2022-03-23,2022-03-23,ＹＰＳテクノ株式会社,,株式会社,東京都,板橋区,東山町１番５－２０５号,,13,119,1740073,,,,,,,2022-03-23,1,,,,,ワイピーエステクノ,0
40,1011601025821,新規,0,2022-03-23,2022-03-23,ミヤエステート株式会社,,株式会社,東京都,練馬区,上石神井４丁目１９番１２号,,13,120,1770044,,,,,,,2022-03-23,1,,,,,ミヤエステート,0
41,1011603003552,新規,0,2022-03-23,2022-03-23,合同会社ＯＰＴＩＡ,,合同会社,東京都,練馬区,田柄３丁目１４番１２号,,13,120,1790073,,,,,,,2022-03-23,1,,,,,オプティア,0
42,1011701025135,新規,0,2022-03-23,2022-03-23,株式会社Ｃｕｏｒｅ,,株式会社,東京都,江戸川区,谷河内２丁目１２番２２号,,13,123,1330002,,,,,,,2022-03-23,1,,,,,クオーレ,0
43,1011703003089,新規,0,2022-03-23,2022-03-23,合同会社ＣＡＯ,,合同会社,東京都,江戸川区,西一之江１丁目３－１３・１Ｆ,,13,123,1320023,,,,,,,2022-03-23,1,,,,,カオ,0
51,1011803005019,新規,0,2022-03-23,2022-03-23,金縫合同会社,,合同会社,東京都,足立区,関原２丁目４３番７号,,13,121,1230852,,,,,,,2022-03-23,1,,,,,キンヌイ,0
53,1012403005292,新規,0,2022-03-23,2022-03-23,合同会社ニゾウ,,合同会社,東京都,小金井市,貫井北町３丁目３４番２７号,,13,210,1840015,,,,,,,2022-03-23,1,,,,,ニゾウ,0
57,1013301048821,新規,0,2022-03-23,2022-03-23,株式会社ハウジングウエストホールディングス,,株式会社,東京都,豊島区,池袋２丁目３８番７号加藤ビル２Ｆ,,13,116,1710014,,,,,,,2022-03-23,1,,,,,ハウジングウエストホールディングス,0
58,1013301048854,新規,0,2022-03-23,2022-03-23,連華メトウォス株式会社,,株式会社,東京都,豊島区,池袋２丁目５７番１号１階,,13,116,1710014,,,,,,,2022-03-23,1,,,,,レンカメトウォス,0
63,1020001145700,新規,0,2022-03-23,2022-03-23,株式会社ナノジャパン,,株式会社,神奈川県,横浜市港北区,新横浜３丁目１３番６号,,14,109,2220033,,,,,,,2022-03-23,1,,,,,ナノジャパン,0
70,1020003021478,新規,0,2022-03-23,2022-03-23,合同会社ジーラボ,,合同会社,神奈川県,川崎市高津区,久本２丁目４番１３－１６０８号,,14,134,2130011,,,,,,,2022-03-23,1,,,,,ジーラボ,0
86,1040001122689,新規,0,2022-03-23,2022-03-23,株式会社フォースブリッジ,,株式会社,千葉県,市川市,新田４丁目１２番１３－５０１号,,12,203,2720035,,,,,,,2022-03-23,1,,,,,フォースブリッジ,0
87,1040001122714,新規,0,2022-03-23,2022-03-23,株式会社エイト不動産,,株式会社,千葉県,東金市,関下３７３番地４７,,12,213,2830038,,,,,,,2022-03-23,1,,,,,エイトフドウサン,0
95,1040003019669,新規,0,2022-03-23,2022-03-23,ＫＥＮ　ＡＵＴＯ合同会社,,合同会社,千葉県,旭市,長部４１１番地１８,,12,215,2890502,,,,,,,2022-03-23,1,,,,,ケンオート,0
96,1040003019710,新規,0,2022-03-23,2022-03-23,合同会社いちごワールド,,合同会社,千葉県,浦安市,北栄３丁目３４番１１－３０２号ジュネパレス浦安第１,,12,227,2790002,,,,,,,2022-03-23,1,,,,,イチゴワールド,0
97,1040003019719,新規,0,2022-03-23,2022-03-23,合同会社ＫＥＥＰＧｏｉｎｇ,,合同会社,千葉県,流山市,前ケ崎６４３番地の１リシアンサス・ガーデンＢ－２０１,,12,220,2700144,,,,,,,2022-03-23,1,,,,,キープゴーイング,0
98,1040003019727,新規,0,2022-03-23,2022-03-23,合同会社ＨＡＲＭＯＮＹ,,合同会社,千葉県,流山市,江戸川台東１丁目２２３番地,,12,220,2700111,,,,,,,2022-03-23,1,,,,,ハーモニー,0
103,1050001050798,新規,0,2022-03-23,2022-03-23,株式会社サインオブハピネス,,株式会社,茨城県,鹿嶋市,大字平井１３１６番地９グランファミーユＩＩＩ２０４,00126029,08,222,3140012,,,,,,,2022-03-23,1,,,,,サインオブハピネス,0
104,1050001050823,新規,0,2022-03-23,2022-03-23,株式会社サンライズ,,株式会社,茨城県,那珂市,津田２６５８番地５,,08,226,3110112,,,,,,,2022-03-23,1,,,,,サンライズ,0
105,1050001050831,新規,0,2022-03-23,2022-03-23,ＭＥＩＫＯ株式会社,,株式会社,茨城県,常陸太田市,亀作町１８１９番地,,08,212,3130023,,,,,,,2022-03-23,1,,,,,メイコー,0
114,1060001034676,新規,0,2022-03-23,2022-03-23,株式会社ユナイト那須,,株式会社,栃木県,那須塩原市,関谷６１２番地２,,09,213,3292801,,,,,,,2022-03-23,1,,,,,ユナイトナス,0
115,1070001039063,新規,0,2022-03-23,2022-03-23,株式会社ＫＯＫＯ,,株式会社,群馬県,高崎市,栄町３番１１号高崎バナーズビル４Ｆ,,10,202,3700841,,,,,,,2022-03-23,1,,,,,ココ,0
125,1100003006462,新規,0,2022-03-23,2022-03-23,合同会社ＳＡＩＦ,,合同会社,長野県,下高井郡山ノ内町,大字夜間瀬１３６１,,20,561,3810405,,,,,,,2022-03-23,1,,,,,セイフ,0
128,1100005012839,新規,0,2022-03-23,2022-03-23,一般社団法人足部反射中医学療法協会,,その他の設立登記法人,長野県,飯山市,大字豊田６７６３番地イ,,20,213,3892411,,,,,,,2022-03-23,1,,,,,ソクブハンシャチュウイガクリョウホウキョウカイ,0
135,1120001244616,新規,0,2022-03-23,2022-03-23,オリゾン株式会社,,株式会社,大阪府,大阪市城東区,中央２丁目１４番Ｃ－２７０３号,,27,118,5360005,,,,,,,2022-03-23,1,,,,,オリゾン,0
140,1120003021303,新規,0,2022-03-23,2022-03-23,合同会社リーフ,,合同会社,大阪府,寝屋川市,成田東町３２－２１－１,,27,215,5720001,,,,,,,2022-03-23,1,,,,,リーフ,0
150,1122001035697,新規,0,2022-03-23,2022-03-23,株式会社ビゴップ,,株式会社,大阪府,東大阪市,荒本新町８－１９,,27,227,5770022,,,,,,,2022-03-23,1,,,,,ビゴップ,0
155,1130005016416,新規,0,2022-03-23,2022-03-23,一般社団法人クレーシス,,その他の設立登記法人,京都府,京都市北区,上賀茂御薗口町３３番地,,26,101,6038065,,,,,,,2022-03-23,1,,,,,クレーシス,0
159,1140001125277,新規,0,2022-03-23,2022-03-23,株式会社ｄｅｍａｎｄ,,株式会社,兵庫県,神戸市中央区,磯辺通２丁目１－１フレイランス磯辺３Ｂ,,28,110,6510084,,,,,,,2022-03-23,1,,,,,デマンダ,0
160,1140001125327,新規,0,2022-03-23,2022-03-23,株式会社奥城崎,,株式会社,兵庫県,豊岡市,竹野町竹野１７０５番地,,28,209,6696201,,,,,,,2022-03-23,1,,,,,オクキノサキ,0
161,1140001125343,新規,0,2022-03-23,2022-03-23,株式会社ｈｉｂｉＰＦＣ,,株式会社,兵庫県,神戸市灘区,岩屋北町２丁目５番４－１０１号,,28,102,6570846,,,,,,,2022-03-23,1,,,,,ヒビピーエフシー,0
162,1140001125351,新規,0,2022-03-23,2022-03-23,株式会社ＬＫパートナー,,株式会社,兵庫県,神戸市中央区,下山手通４丁目６番１３号,,28,110,6500011,,,,,,,2022-03-23,1,,,,,エルケーパートナー,0
163,1140005026083,新規,0,2022-03-23,2022-03-23,医療法人社団明賀会,,その他の設立登記法人,兵庫県,西宮市,松山町１３－２６甲子園口グリーンプレイスＢ棟２０１,,28,204,6638101,,,,,,,2022-03-23,1,,,,,メイガカイ,0
166,1150003002647,新規,0,2022-03-23,2022-03-23,合同会社ＡＬＩＶＥ,,合同会社,奈良県,奈良市,中町３９９６－２,,29,201,6310052,,,,,,,2022-03-23,1,,,,,アライヴ,0
175,1180001150486,新規,0,2022-03-23,2022-03-23,北斗株式会社,,株式会社,愛知県,名古屋市中区,錦３丁目２番２３号プレサンス錦エボリューション１２０２号,,23,106,4600003,,,,,,,2022-03-23,1,,,,,ホクト,0
176,1180001150494,新規,0,2022-03-23,2022-03-23,株式会社Ｍ’ｓ　Ｐｏｓｓｉｂｉｌｉｔｙ,,株式会社,愛知県,名古屋市北区,金田町３丁目１２番地の４,,23,103,4620033,,,,,,,2022-03-23,1,,,,,エムズポッシビリティー,0
177,1180001150511,新規,0,2022-03-23,2022-03-23,株式会社ＨＹＭＳ,,株式会社,愛知県,名古屋市中区,栄１丁目２１番８号ＨＫＲ伏見ビル２階,,23,106,4600008,,,,,,,2022-03-23,1,,,,,ハイムズ,0
180,1180301036039,新規,0,2022-03-23,2022-03-23,セーフティーアンドコントロール株式会社,,株式会社,愛知県,豊田市,市木町１０丁目７番地７,,23,211,4710006,,,,,,,2022-03-23,1,,,,,セーフティーアンドコントロール,0
183,1190003003930,新規,0,2022-03-23,2022-03-23,石井合同会社,,合同会社,三重県,伊勢市,勢田町４６４番地５,,24,203,5160035,,,,,,,2022-03-23,1,,,,,イシイ,0
185,1200001039875,新規,0,2022-03-23,2022-03-23,株式会社ＹＳ工業,,株式会社,岐阜県,羽島郡岐南町,八剣４丁目１９番地,,21,302,5016012,,,,,,,2022-03-23,1,,,,,ワイエスコウギョウ,0
196,1240001059481,新規,0,2022-03-23,2022-03-23,株式会社ＴＯＷＡ,,株式会社,広島県,広島市西区,庚午中３丁目８番１９－３０１号,,34,104,7330822,,,,,,,2022-03-23,1,,,,,トウワ,0
200,1250001019468,新規,0,2022-03-23,2022-03-23,ＹＫｃａｄ株式会社,,株式会社,山口県,下関市,彦島福浦町２丁目２０番１８号,,35,201,7500087,,,,,,,2022-03-23,1,,,,,ワイケーキャド,0
206,1260001036652,新規,0,2022-03-23,2022-03-23,株式会社アトリエ・シャルアーツ,,株式会社,岡山県,岡山市北区,西長瀬２６２番地１０８,,33,101,7000965,,,,,,,2022-03-23,1,,,,,アトリエシャルアーツ,0
215,1290001096875,新規,0,2022-03-23,2022-03-23,ＡＰ　ＮＥＸＴ株式会社,,株式会社,福岡県,福岡市博多区,博多駅前２丁目５番１０号,,40,132,8120011,,,,,,,2022-03-23,1,,,,,エーピーネクスト,0
216,1290001096883,新規,0,2022-03-23,2022-03-23,ウィルコーポレーション株式会社,,株式会社,福岡県,福岡市西区,泉３丁目１２番１２号,,40,135,8190381,,,,,,,2022-03-23,1,,,,,ウィルコーポレーション,0
217,1290001096900,新規,0,2022-03-23,2022-03-23,＿賀国際通商株式会社,00126032,株式会社,福岡県,福岡市東区,香椎５丁目２５番１６号,,40,131,8130011,,,,,,,2022-03-23,1,,,,,キンカコクサイツウショウ,0
219,1290003012310,新規,0,2022-03-23,2022-03-23,ＰＡＦＵ合同会社,,合同会社,福岡県,福岡市博多区,博多駅南５丁目４－１,,40,132,8120016,,,,,,,2022-03-23,1,,,,,パフ,0
230,1320001018974,新規,0,2022-03-23,2022-03-23,株式会社Ｎｓ　Ｂａｓｅ,,株式会社,大分県,大分市,牧２丁目７番２３号ソファレ中島２０２,,44,201,8700924,,,,,,,2022-03-23,1,,,,,,0
254,1430001086218,新規,0,2022-03-23,2022-03-23,株式会社ＴＹサービス,,株式会社,北海道,札幌市豊平区,西岡四条６丁目９番７号,,01,105,0620034,,,,,,,2022-03-23,1,,,,,ティワイサービス,0
255,1430001086242,新規,0,2022-03-23,2022-03-23,北海道蟹販株式会社,,株式会社,北海道,札幌市清田区,真栄二条１丁目３番１５号札幌蟹販ビル,,01,110,0040832,,,,,,,2022-03-23,1,,,,,ホッカイドウカニハン,0
256,1430001086259,新規,0,2022-03-23,2022-03-23,長尾建築工房株式会社,,株式会社,北海道,札幌市南区,澄川五条１３丁目９番２１号,,01,106,0050005,,,,,,,2022-03-23,1,,,,,ナガオケンチクコウボウ,0
258,1430003013731,新規,0,2022-03-23,2022-03-23,合同会社知津研,,合同会社,北海道,札幌市北区,新琴似九条１丁目４番１－５０３号,,01,102,0010909,,,,,,,2022-03-23,1,,,,,トモツケン,0
260,1480003001806,新規,0,2022-03-23,2022-03-23,Ｋａｉｒｕ合同会社,,合同会社,徳島県,海部郡海陽町,大里字馬谷１３９番地,,36,388,7750203,,,,,,,2022-03-23,1,,,,,カイル,0
273,2010001225312,新規,0,2022-03-23,2022-03-23,レノン株式会社,,株式会社,東京都,中央区,銀座１丁目２２番１１号銀座大竹ビジデンス２階,,13,102,1040061,,,,,,,2022-03-23,1,,,,,レノン,0
274,2010001225386,新規,0,2022-03-23,2022-03-23,株式会社Ａｒｔｅｒｅ,,株式会社,東京都,文京区,本駒込３丁目４０番１３号ヴィラ東邦２０３,,13,105,1130021,,,,,,,2022-03-23,1,,,,,アルテア,0
280,2010003037301,新規,0,2022-03-23,2022-03-23,団子坂の上の音楽教室合同会社,,合同会社,東京都,文京区,千駄木５丁目１番３号,,13,105,1130022,,,,,,,2022-03-23,1,,,,,ダンゴザカノウエノオンガクキョウシツ,0
281,2010003037318,新規,0,2022-03-23,2022-03-23,たぐちＬＡＢＯ合同会社,,合同会社,東京都,中央区,入船２丁目６－１０、２０１号室,,13,102,1040042,,,,,,,2022-03-23,1,,,,,タグチラボ,0
284,2010005034759,新規,0,2022-03-23,2022-03-23,岡山早島デベロップメント一般社団法人,,その他の設立登記法人,東京都,中央区,日本橋１丁目４番１号日本橋一丁目ビルディング,,13,102,1030027,,,,,,,2022-03-23,1,,,,,オカヤマハヤシマデベロップメント,0
291,2010401166346,新規,0,2022-03-23,2022-03-23,株式会社Ｇ３,,株式会社,東京都,港区,麻布台２丁目１番２号,,13,103,1060041,,,,,,,2022-03-23,1,,,,,ジースリー,0
292,2010401166354,新規,0,2022-03-23,2022-03-23,株式会社綾鷹,,株式会社,東京都,港区,赤坂３丁目９番１６号,,13,103,1070052,,,,,,,2022-03-23,1,,,,,アヤタカ,0
311,2011001146374,新規,0,2022-03-23,2022-03-23,ＣＢＤ　ＬＡＢ　ＪＡＰＡＮ株式会社,,株式会社,東京都,渋谷区,富ヶ谷１丁目１４番１４号スタンフォードアネックスビル４Ｆ,,13,113,1510063,,,,,,,2022-03-23,1,,,,,シービーディーラボジャパン,0
312,2011001146432,新規,0,2022-03-23,2022-03-23,株式会社Ｕｎｉｔｒａｎｓ,,株式会社,東京都,渋谷区,広尾１丁目８番１１号シティフラット広尾５０５,,13,113,1500012,,,,,,,2022-03-23,1,,,,,ユニトランス,0
313,2011001146440,新規,0,2022-03-23,2022-03-23,ＭｏｎＣａｒｇｏ株式会社,,株式会社,東京都,渋谷区,渋谷２丁目１９－１５宮益坂ビルディング６０９,,13,113,1500002,,,,,,,2022-03-23,1,,,,,モンカルゴ,0
314,2011001146498,新規,0,2022-03-23,2022-03-23,上進株式会社,,株式会社,東京都,渋谷区,恵比寿西２丁目２１番１５号,,13,113,1500021,,,,,,,2022-03-23,1,,,,,ジョウシン,0
316,2011003014323,新規,0,2022-03-23,2022-03-23,永谷明海合同会社,,合同会社,東京都,渋谷区,西原１丁目４０－１１,,13,113,1510066,,,,,,,2022-03-23,1,,,,,ナガタニアキウミ,0
317,2011003014380,新規,0,2022-03-23,2022-03-23,障がい者自立サポートＣａｒｅｆｒｅｅ合同会社,,合同会社,東京都,目黒区,八雲１丁目１０番２０－２０７号,,13,110,1520023,,,,,,,2022-03-23,1,,,,,ショウガイシャジリツサポートケアフリー,0
318,2011003014389,新規,0,2022-03-23,2022-03-23,ヴォーグテラス上野桜木合同会社,,合同会社,東京都,渋谷区,猿楽町１１番２４号,,13,113,1500033,,,,,,,2022-03-23,1,,,,,ヴォーグテラスウエノサクラギ,0
326,2011101098243,新規,0,2022-03-23,2022-03-23,株式会社あらうち,,株式会社,東京都,新宿区,原町３丁目３７番地安藤ビル３０３,,13,104,1620053,,,,,,,2022-03-23,1,,,,,アラウチ,0
327,2011103011583,新規,0,2022-03-23,2022-03-23,合同会社仕命塾,,合同会社,東京都,新宿区,西新宿７丁目５番９号１８０５,,13,104,1600023,,,,,,,2022-03-23,1,,,,,シメイジュク,0
329,2011303004346,新規,0,2022-03-23,2022-03-23,合同会社Ｃｈａｍｅｌｅｏｎ　Ｉｎｖｅｓｔｍｅｎｔ,,合同会社,東京都,杉並区,高井戸東３丁目２３番２号,,13,115,1680072,,,,,,,2022-03-23,1,,,,,カメレオンインベストメント,0
330,2011503005103,新規,0,2022-03-23,2022-03-23,ＪＵＫ合同会社,,合同会社,東京都,北区,東十条３丁目４番１６号エイム１０３号,,13,117,1140001,,,,,,,2022-03-23,1,,,,,ジューク,0
333,2011601025820,新規,0,2022-03-23,2022-03-23,株式会社イーリスチェン,,株式会社,東京都,練馬区,土支田３丁目１５番３号,,13,120,1790076,,,,,,,2022-03-23,1,,,,,イーリスチェン,0
340,2011701025142,新規,0,2022-03-23,2022-03-23,株式会社マコト建設,,株式会社,東京都,江戸川区,中葛西２丁目４番２７号,,13,123,1340083,,,,,,,2022-03-23,1,,,,,マコトケンセツ,0
341,2011703003088,新規,0,2022-03-23,2022-03-23,美臣合同会社,,合同会社,東京都,江戸川区,西葛西６丁目９－９,,13,123,1340088,,,,,,,2022-03-23,1,,,,,ビジン,0
342,2011801040470,新規,0,2022-03-23,2022-03-23,溢彩株式会社,,株式会社,東京都,足立区,西新井本町５丁目２番４－２０４号,,13,121,1230845,,,,,,,2022-03-23,1,,,,,イーサイ,0
343,2011801040479,新規,0,2022-03-23,2022-03-23,新安産業株式会社,,株式会社,東京都,足立区,鹿浜３丁目４番２６中安ビル,,13,121,1230864,,,,,,,2022-03-23,1,,,,,シンアンサンギョウ,0
351,2012401038987,新規,0,2022-03-23,2022-03-23,株式会社オークラビル,,株式会社,東京都,小金井市,梶野町５丁目２番３２号,,13,210,1840002,,,,,,,2022-03-23,1,,,,,オークラビル,0
358,2013301048837,新規,0,2022-03-23,2022-03-23,ＴＯＫＹＯインベスターズ株式会社,,株式会社,東京都,豊島区,駒込４丁目６番７号,,13,116,1700003,,,,,,,2022-03-23,1,,,,,トウキョウインベスターズ,0
363,2020001145732,新規,0,2022-03-23,2022-03-23,株式会社ｒｅｂｉｒｔｈ,,株式会社,神奈川県,川崎市高津区,千年新町１１番地２リブレス武蔵新城１０１,,14,134,2130021,,,,,,,2022-03-23,1,,,,,リバース,0
364,2020001145740,新規,0,2022-03-23,2022-03-23,株式会社共進建設,,株式会社,神奈川県,横浜市泉区,和泉町３５２番地１５,,14,116,2450016,,,,,,,2022-03-23,1,,,,,キョウシンケンセツ,0
369,2020003021345,新規,0,2022-03-23,2022-03-23,ＣＯＬＯＲ　ＹＯＵＲ　ＬＩＦＥ合同会社,,合同会社,神奈川県,川崎市中原区,小杉御殿町２丁目１２２テラス陽だまり５号,,14,133,2110068,,,,,,,2022-03-23,1,,,,,カラーユアライフ,0
380,2030001147372,新規,0,2022-03-23,2022-03-23,株式会社ｐｌａｎＢ,,株式会社,埼玉県,草加市,八幡町５６番地２５,,11,221,3400006,,,,,,,2022-03-23,1,,,,,プランビー,0
381,2030003019074,新規,0,2022-03-23,2022-03-23,合同会社ニライカナイ,,合同会社,埼玉県,さいたま市大宮区,桜木町２番３号大宮マルイ７階,,11,103,3300800,,,,,,,2022-03-23,1,,,,,ニライカナイ,0
385,2050001050822,新規,0,2022-03-23,2022-03-23,株式会社ウィンワード,,株式会社,茨城県,常総市,小保川９８０番地２,,08,211,3002703,,,,,,,2022-03-23,1,,,,,ウィンワード,0
386,2050001050830,新規,0,2022-03-23,2022-03-23,株式会社力丸,,株式会社,茨城県,笠間市,小原３６８０番地２,,08,216,3091701,,,,,,,2022-03-23,1,,,,,リキマル,0
387,2050003006442,新規,0,2022-03-23,2022-03-23,合同会社優らき,,合同会社,茨城県,常総市,大沢１４９２番地の１マルワ大沢ビル３階,,08,211,3002727,,,,,,,2022-03-23,1,,,,,ユウラキ,0
389,2080001024815,新規,0,2022-03-23,2022-03-23,株式会社西島薬局,,株式会社,静岡県,焼津市,駅北２丁目６番１１号,,22,212,4250028,,,,,,,2022-03-23,1,,,,,ニシジマヤッキョク,0
390,2080003002760,新規,0,2022-03-23,2022-03-23,合同会社管財,,合同会社,静岡県,焼津市,石津９３５番地の２,,22,212,4250041,,,,,,,2022-03-23,1,,,,,カンザイ,0
391,2080103002553,新規,0,2022-03-23,2022-03-23,合同会社彩,,合同会社,静岡県,富士市,大淵３９２３番地の４,,22,210,4170801,,,,,,,2022-03-23,1,,,,,サイ,0
396,2090001017487,新規,0,2022-03-23,2022-03-23,株式会社ＪＥＴ,,株式会社,山梨県,西八代郡市川三郷町,上野２４１５番地１,,19,346,4093612,,,,,,,2022-03-23,1,,,,,ジェット,0
398,2100001035173,新規,0,2022-03-23,2022-03-23,株式会社ＧＩＦＴ,,株式会社,長野県,諏訪市,大字中洲５５１６番地２１,,20,206,3920015,,,,,,,2022-03-23,1,,,,,ギフト,0
408,2120001244482,新規,0,2022-03-23,2022-03-23,株式会社ＫＳＣ,,株式会社,大阪府,大阪市福島区,吉野２丁目１１番２０－３２５号,,27,103,5530006,,,,,,,2022-03-23,1,,,,,ケーエスシー,0
409,2120001244573,新規,0,2022-03-23,2022-03-23,天澤株式会社,,株式会社,大阪府,大阪市中央区,高麗橋１丁目７－７ＴＨＥＫＩＴＡＨＡＭＡ３１０５号室,,27,128,5410043,,,,,,,2022-03-23,1,,,,,テンザワ,0
410,2120001244598,新規,0,2022-03-23,2022-03-23,株式会社ブライトリガー,,株式会社,大阪府,大阪市浪速区,難波中１丁目１４－８リップルｍｏｎａｍｉ５０２号室,,27,111,5560011,,,,,,,2022-03-23,1,,,,,ブライトリガー,0
411,2120001244623,新規,0,2022-03-23,2022-03-23,みんな乃はかま株式会社,,株式会社,大阪府,枚方市,岡本町８番１８－３０２号,,27,210,5730031,,,,,,,2022-03-23,1,,,,,ミンナノハカマ,0
412,2120001244631,新規,0,2022-03-23,2022-03-23,株式会社ｃａｒｒｅｆｌｅｘ,,株式会社,大阪府,大阪市北区,中崎西３丁目３番３号アザレア梅田９０２号室,,27,127,5300015,,,,,,,2022-03-23,1,,,,,カレフレックス,0
416,2120101065267,新規,0,2022-03-23,2022-03-23,株式会社ＧＬＯＯ　ｔｅｃｈｎｏｌｏｇｅｓ,,株式会社,大阪府,河内長野市,美加の台７丁目３１番３号,,27,216,5860044,,,,,,,2022-03-23,1,,,,,グルーテクノロジーズ,0
422,2122001035688,新規,0,2022-03-23,2022-03-23,株式会社ＳＫＹ　ＡＣＴＩＲＯＮ,,株式会社,大阪府,八尾市,竹渕西２丁目１６７番地,,27,212,5810051,,,,,,,2022-03-23,1,,,,,スカイアクティロン,0
424,2140001125318,新規,0,2022-03-23,2022-03-23,株式会社ＦＢＫホールディングス,,株式会社,兵庫県,西宮市,山口町名来１丁目７番１６号,,28,204,6511411,,,,,,,2022-03-23,1,,,,,エフビーケイホールディングス,0
425,2140001125326,新規,0,2022-03-23,2022-03-23,エスライズ株式会社,,株式会社,兵庫県,神戸市中央区,楠町６丁目２番１０号,,28,110,6500017,,,,,,,2022-03-23,1,,,,,エスライズ,0
426,2140001125334,新規,0,2022-03-23,2022-03-23,株式会社ＷＩＮ　ＰＬＵＳ,,株式会社,兵庫県,神戸市兵庫区,東出町３丁目１５番２号２Ｆ,,28,105,6520823,,,,,,,2022-03-23,1,,,,,ウインプラス,0
427,2140001125342,新規,0,2022-03-23,2022-03-23,株式会社ルクス,,株式会社,兵庫県,神戸市中央区,楠町５丁目４番１８号田中ビル１Ｆ,,28,110,6500017,,,,,,,2022-03-23,1,,,,,ルクス,0
430,2140003017488,新規,0,2022-03-23,2022-03-23,合同会社高田家,00126031,合同会社,兵庫県,丹波篠山市,河原町１４６番地,,28,221,6692325,,,,,,,2022-03-23,1,,,,,タカダケ,0
433,2140005026082,新規,0,2022-03-23,2022-03-23,一般社団法人自律神経調律学協会,,その他の設立登記法人,兵庫県,明石市,大久保町ゆりのき通１丁目２番地の３、３番館１０２,,28,203,6740068,,,,,,,2022-03-23,1,,,,,ジリツシンケイチョウリツガクキョウカイ,0
441,2180001150436,新規,0,2022-03-23,2022-03-23,ＤＳ株式会社,,株式会社,愛知県,半田市,山代町１丁目１０６番地７三栄ビル２階,,23,205,4750974,,,,,,,2022-03-23,1,,,,,ディーエス,0
442,2180001150477,新規,0,2022-03-23,2022-03-23,アガ・トレーディング株式会社,,株式会社,愛知県,あま市,七宝町鯰橋８丁目１５番地１,,23,237,4970015,,,,,,,2022-03-23,1,,,,,アガトレーディング,0
448,2180305009320,新規,0,2022-03-23,2022-03-23,医療法人春成会,,その他の設立登記法人,愛知県,蒲郡市,三谷町九舗６８番地３,,23,214,4430021,,,,,,,2022-03-23,1,,,,,シュンセイカイ,0
456,2210001018852,新規,0,2022-03-23,2022-03-23,株式会社西岡鮮魚店,,株式会社,福井県,坂井市,春江町中筋北浦９７番地,,18,210,9190448,,,,,,,2022-03-23,1,,,,,ニシオカセンギョテン,0
460,2240001059480,新規,0,2022-03-23,2022-03-23,株式会社Ｈ＆Ｔホールディングス,,株式会社,広島県,廿日市市,峠６１０番地１,,34,213,7380202,,,,,,,2022-03-23,1,,,,,エイチアンドティーホールディングス,0
475,2290001096890,新規,0,2022-03-23,2022-03-23,株式会社フレデリックスタンダード,,株式会社,福岡県,大牟田市,笹原町２丁目１４番地２,,40,202,8360884,,,,,,,2022-03-23,1,,,,,フレデリックスタンダード,0
476,2290001096899,新規,0,2022-03-23,2022-03-23,株式会社ＫＯＢＵＳＨＩ,,株式会社,福岡県,福岡市中央区,白金１丁目９番３号,,40,133,8100012,,,,,,,2022-03-23,1,,,,,コブシ,0
482,2310005008600,新規,0,2022-03-23,2022-03-23,一般社団法人長崎さくらねこの会,,その他の設立登記法人,長崎県,長崎市,魚の町３番２１号マリンハイツ長崎１０１号,,42,201,8500874,,,,,,,2022-03-23,1,,,,,ナガサキサクラネコノカイ,0
488,2330003009301,新規,0,2022-03-23,2022-03-23,合同会社どんこん天草,,合同会社,熊本県,天草市,五和町鬼池８３７番２号,,43,215,8632331,,,,,,,2022-03-23,1,,,,,ドンコンアマクサ,0
491,2340001024581,新規,0,2022-03-23,2022-03-23,株式会社久丸,,株式会社,鹿児島県,鹿児島市,下荒田４丁目５４番１５－３０３号,,46,201,8900056,,,,,,,2022-03-23,1,,,,,ヒサマル,0
502,2390001016830,新規,0,2022-03-23,2022-03-23,株式会社ナースリハネット,,株式会社,山形県,山形市,馬見ケ崎４丁目１３番１０号,,06,201,9900810,,,,,,,2022-03-23,1,,,,,ナースリハネット,0
504,2400001015822,新規,0,2022-03-23,2022-03-23,田中株式会社,,株式会社,岩手県,二戸市,上斗米字前田３４番地２,,03,213,0286108,,,,,,,2022-03-23,1,,,,,タナカ,0
506,2420003002486,新規,0,2022-03-23,2022-03-23,合同会社Ｆｉｎｄ　ｙｏｕ,,合同会社,青森県,青森市,橋本３丁目２０番１４号,,02,201,0300823,,,,,,,2022-03-23,1,,,,,ファインドユー,0
513,2430001086217,新規,0,2022-03-23,2022-03-23,株式会社ＳＳラボ,,株式会社,北海道,江別市,元江別８６６番地１３－２階,,01,217,0670032,,,,,,,2022-03-23,1,,,,,エスエスラボ,0
514,2430001086241,新規,0,2022-03-23,2022-03-23,株式会社エルフォルク,,株式会社,北海道,札幌市豊平区,豊平三条３丁目２－２９　３Ｆ,,01,105,0620903,,,,,,,2022-03-23,1,,,,,エルフォルク,0
515,2430001086258,新規,0,2022-03-23,2022-03-23,株式会社丸尚青山建設,,株式会社,北海道,札幌市北区,篠路二条８丁目４番２１－３号,,01,102,0028022,,,,,,,2022-03-23,1,,,,,マルショウアオヤマケンセツ,0
518,2430003013730,新規,0,2022-03-23,2022-03-23,合同会社縁,,合同会社,北海道,札幌市東区,北十三条東１０丁目２番１－３０５号,,01,103,0650013,,,,,,,2022-03-23,1,,,,,エニシ,0
531,3010001225311,新規,0,2022-03-23,2022-03-23,株式会社ＴＳＳ,,株式会社,東京都,千代田区,岩本町２丁目１７番１３号,,13,101,1010032,,,,,,,2022-03-23,1,,,,,ティーエスエス,0
532,3010001225377,新規,0,2022-03-23,2022-03-23,株式会社１７,,株式会社,東京都,中央区,銀座６丁目１３番１６号銀座ＷａｌｌビルＵＣＦ５０１,,13,102,1040061,,,,,,,2022-03-23,1,,,,,ワンセブン,0
537,3010003037275,新規,0,2022-03-23,2022-03-23,Ｌｉｆｅ　Ｓｈｉｆｔ合同会社,,合同会社,東京都,中央区,日本橋小舟町８番１４－７０６号,,13,102,1030024,,,,,,,2022-03-23,1,,,,,ライフシフト,0
538,3010003037309,新規,0,2022-03-23,2022-03-23,合同会社Ｂｌｏｏｍｉｎｇ,,合同会社,東京都,文京区,本駒込４丁目１７番６号,,13,105,1130021,,,,,,,2022-03-23,1,,,,,ブルーミング,0
548,3010403027314,新規,0,2022-03-23,2022-03-23,Ｌｉ‐Ｃｙｃｌｅ　Ｊａｐａｎ合同会社,,合同会社,東京都,港区,西新橋３丁目２４番８号山内ビル３階,,13,103,1050003,,,,,,,2022-03-23,1,,,,,リサイクルジャパン,0
558,3010603009450,新規,0,2022-03-23,2022-03-23,合同会社彩雲,,合同会社,東京都,江東区,森下４丁目２５番４－１２０２号,,13,108,1350004,,,,,,,2022-03-23,1,,,,,サイウン,0
561,3010701042394,新規,0,2022-03-23,2022-03-23,プラタナス株式会社,,株式会社,東京都,品川区,北品川１丁目９番７号,,13,109,1400001,,,,,,,2022-03-23,1,,,,,プラタナス,0
562,3010701042403,新規,0,2022-03-23,2022-03-23,株式会社フコクホールディングス,,株式会社,東京都,品川区,東大井３丁目１番３号,,13,109,1400011,,,,,,,2022-03-23,1,,,,,フコクホールディングス,0
565,3010803004103,新規,0,2022-03-23,2022-03-23,合同会社マーキー,,合同会社,東京都,大田区,久が原１丁目３３番６号,,13,111,1460085,,,,,,,2022-03-23,1,,,,,マーキー,0
567,3010901050552,新規,0,2022-03-23,2022-03-23,株式会社オレンジアップ・パートナーズ,,株式会社,東京都,世田谷区,経堂５丁目２９番３号ハイツ上川２０１,,13,112,1560052,,,,,,,2022-03-23,1,,,,,オレンジアップパートナーズ,0
571,3011001146398,新規,0,2022-03-23,2022-03-23,マイルストーン株式会社,,株式会社,東京都,目黒区,中目黒５丁目３番５号,,13,110,1530061,,,,,,,2022-03-23,1,,,,,マイルストーン,0
572,3011001146415,新規,0,2022-03-23,2022-03-23,株式会社Ａｃｅ　Ｘ,,株式会社,東京都,渋谷区,広尾１丁目１３番１号,,13,113,1500012,,,,,,,2022-03-23,1,,,,,エースエックス,0
573,3011003014371,新規,0,2022-03-23,2022-03-23,テストベース合同会社,,合同会社,東京都,渋谷区,渋谷２丁目１９番地１５号宮益坂ビルディング６０９,,13,113,1500002,,,,,,,2022-03-23,1,,,,,テストベース,0
574,3011101098226,新規,0,2022-03-23,2022-03-23,株式会社アルティカディア,,株式会社,東京都,新宿区,新宿２丁目１２－１３新宿アントレサロンビル２階,,13,104,1600022,,,,,,,2022-03-23,1,,,,,アルティカディア,0
581,3011501027866,新規,0,2022-03-23,2022-03-23,ＣＡＮＳＤ株式会社,,株式会社,東京都,北区,滝野川２丁目５６番９号,,13,117,1140023,,,,,,,2022-03-23,1,,,,,シーエーエヌエスディー,0
589,3012401039002,新規,0,2022-03-23,2022-03-23,株式会社福籠工房,,株式会社,東京都,調布市,多摩川５丁目９番地３チェリーブロッサム４０１,,13,208,1820025,,,,,,,2022-03-23,1,,,,,フクロウコウボウ,0
595,3013301048852,新規,0,2022-03-23,2022-03-23,株式会社シェアクリエイト,,株式会社,東京都,豊島区,東池袋２丁目６２－８ＢＩＧオフィスプラザ池袋１１Ｆ,,13,116,1700013,,,,,,,2022-03-23,1,,,,,シェアクリエイト,0
600,3020001145756,新規,0,2022-03-23,2022-03-23,株式会社ＦＰ‐ｘ,,株式会社,神奈川県,横浜市保土ケ谷区,新桜ケ丘２丁目１２番２４号,,14,106,2400036,,,,,,,2022-03-23,1,,,,,エフピークロス,0
606,3021001075480,新規,0,2022-03-23,2022-03-23,ジェルメ株式会社,,株式会社,神奈川県,茅ヶ崎市,東海岸南６丁目４番７８－１号,,14,207,2530054,,,,,,,2022-03-23,1,,,,,ジェルメ,0
607,3021001075489,新規,0,2022-03-23,2022-03-23,Ｐｒｉｍｅ　Ａｕｔｏ株式会社,,株式会社,神奈川県,綾瀬市,吉岡６３２番地,,14,218,2521124,,,,,,,2022-03-23,1,,,,,プライムオート,0
608,3021001075497,新規,0,2022-03-23,2022-03-23,サイバータックラー株式会社,,株式会社,神奈川県,厚木市,泉町５番７号,,14,212,2430013,,,,,,,2022-03-23,1,,,,,サイバータックラー,0
624,3040001122662,新規,0,2022-03-23,2022-03-23,株式会社ＲＥＤｉｎｎｅｒ,,株式会社,千葉県,市原市,椎津６３３－１ブリーゼ・ベル・ウッドＩＩＩ２０１,00126033,12,219,2990118,,,,,,,2022-03-23,1,,,,,レディナー,0
625,3040001122704,新規,0,2022-03-23,2022-03-23,株式会社ギブリス,,株式会社,千葉県,市川市,南行徳１丁目２２番８号東１５ビル１階,,12,203,2720138,,,,,,,2022-03-23,1,,,,,ギブリス,0
631,3060001034674,新規,0,2022-03-23,2022-03-23,株式会社石川鳶工業,,株式会社,栃木県,栃木市,大宮町１７３５番地３,,09,203,3280011,,,,,,,2022-03-23,1,,,,,イシカワトビコウギョウ,0
632,3060001034682,新規,0,2022-03-23,2022-03-23,株式会社グリーンベアー,,株式会社,栃木県,那須郡那須町,大字高久甲１４８２番地,,09,407,3250001,,,,,,,2022-03-23,1,,,,,グリーンベアー,0
638,3090003002057,新規,0,2022-03-23,2022-03-23,ＰＡＮＣＨＭＵＫＨＩ合同会社,,合同会社,山梨県,甲府市,善光寺３丁目２番３号,,19,201,4000806,,,,,,,2022-03-23,1,,,,,パンチャムキ,0
639,3100001035180,新規,0,2022-03-23,2022-03-23,株式会社塩澤工業,,株式会社,長野県,駒ヶ根市,赤穂１６１５番地２,,20,210,3994117,,,,,,,2022-03-23,1,,,,,シオザワコウギョウ,0
646,3120001244606,新規,0,2022-03-23,2022-03-23,ジェイサポート株式会社,,株式会社,大阪府,大阪市天王寺区,上本町８丁目９番２３号,,27,109,5430001,,,,,,,2022-03-23,1,,,,,ジェイサポート,0
654,3120101065258,新規,0,2022-03-23,2022-03-23,３ピース株式会社,,株式会社,大阪府,大阪狭山市,池尻中１丁目２６番１３号,,27,231,5890007,,,,,,,2022-03-23,1,,,,,スリーピース,0
655,3120901045748,新規,0,2022-03-23,2022-03-23,株式会社Ｅｄｕｔａｉｎｍｅｎｔ　Ｅｄｕｃａｔｉｏｎ,,株式会社,大阪府,摂津市,南千里丘５番１３号パークタワー南千里丘,,27,224,5660021,,,,,,,2022-03-23,1,,,,,エデュテイメントエデュケーション,0
656,3120903004074,新規,0,2022-03-23,2022-03-23,源盛貿易合同会社,,合同会社,大阪府,茨木市,大字銭原７３１番地,,27,211,5680087,,,,,,,2022-03-23,1,,,,,ゲンセイボウエキ,0
658,3122001035695,新規,0,2022-03-23,2022-03-23,株式会社ぱまる,,株式会社,大阪府,東大阪市,川田１丁目２－３３,,27,227,5780905,,,,,,,2022-03-23,1,,,,,パマル,0
662,3130001071388,新規,0,2022-03-23,2022-03-23,株式会社京蘭,,株式会社,京都府,京都市左京区,岡崎徳成町１７番地９,,26,103,6068351,,,,,,,2022-03-23,1,,,,,キョウラン,0
663,3140001125341,新規,0,2022-03-23,2022-03-23,株式会社ウィステリア,,株式会社,兵庫県,尼崎市,御園町５４番地２４０６,,28,202,6600861,,,,,,,2022-03-23,1,,,,,ウィステリア,0
670,3140005026081,新規,0,2022-03-23,2022-03-23,一般社団法人ハイム,,その他の設立登記法人,兵庫県,神戸市中央区,北野町４丁目１６番７号２階,,28,110,6500002,,,,,,,2022-03-23,1,,,,,ハイム,0
671,3150003002645,新規,0,2022-03-23,2022-03-23,合同会社瀬川工業,,合同会社,奈良県,天理市,蔵之庄町４２３番地４,,29,204,6320006,,,,,,,2022-03-23,1,,,,,セガワコウギョウ,0
672,3160001024062,新規,0,2022-03-23,2022-03-23,株式会社Ｒｅ‐Ａ,,株式会社,滋賀県,大津市,神宮町６－２０,,25,201,5200015,,,,,,,2022-03-23,1,,,,,リーア,0
674,3170001017024,新規,0,2022-03-23,2022-03-23,株式会社結己建設,,株式会社,和歌山県,田辺市,下万呂５７７番１号サンフェストプラザ２階２号,,30,206,6460004,,,,,,,2022-03-23,1,,,,,ユウキケンセツ,0
678,3180001150492,新規,0,2022-03-23,2022-03-23,株式会社ブライト,,株式会社,愛知県,春日井市,八田町２丁目４４－２,,23,206,4860849,,,,,,,2022-03-23,1,,,,,ブライト,0
679,3180001150526,新規,0,2022-03-23,2022-03-23,株式会社小牧ハイウェイ企画駐車場開発,,株式会社,愛知県,小牧市,中央１丁目１７８番地,,23,219,4850029,,,,,,,2022-03-23,1,,,,,コマキハイウェイキカクチュウシャジョウカイハツ,0
681,3180003023564,新規,0,2022-03-23,2022-03-23,合同会社Ｃ．Ｌ．Ｃ,,合同会社,愛知県,江南市,大海道町青木７４番地,,23,217,4838187,,,,,,,2022-03-23,1,,,,,シーエルシー,0
682,3180003023630,新規,0,2022-03-23,2022-03-23,合同会社Ｐｏｃｈｅ,,合同会社,愛知県,名古屋市天白区,鴻の巣１丁目８０１番地,,23,116,4680003,,,,,,,2022-03-23,1,,,,,ポッシュ,0
683,3180003023639,新規,0,2022-03-23,2022-03-23,合同会社ＭＡＲＩ,,合同会社,愛知県,名古屋市熱田区,波寄町１０番５号,,23,109,4560003,,,,,,,2022-03-23,1,,,,,マリ,0
688,3180301036037,新規,0,2022-03-23,2022-03-23,株式会社酒井土木,,株式会社,愛知県,刈谷市,築地町２丁目６番地１７,,23,210,4480011,,,,,,,2022-03-23,1,,,,,サカイドボク,0
693,3190003003929,新規,0,2022-03-23,2022-03-23,ひよこのおっさん合同会社,,合同会社,三重県,名張市,緑が丘中３７３番地,,24,208,5180755,,,,,,,2022-03-23,1,,,,,ヒヨコノオッサン,0
697,3200001039873,新規,0,2022-03-23,2022-03-23,白木商会株式会社,,株式会社,岐阜県,岐阜市,宇佐南４丁目１９番１０号,,21,201,5008367,,,,,,,2022-03-23,1,,,,,シラキショウカイ,0
698,3200001039881,新規,0,2022-03-23,2022-03-23,株式会社アイワメディカルギフ,,株式会社,岐阜県,岐阜市,北一色１０丁目１１番１２号,,21,201,5008227,,,,,,,2022-03-23,1,,,,,アイワメディカルギフ,0
700,3220001024758,新規,0,2022-03-23,2022-03-23,ユナイサス株式会社,,株式会社,石川県,金沢市,桂町ホ９１番地７,,17,201,9200334,,,,,,,2022-03-23,1,,,,,ユナイサス,0
714,3270005005502,新規,0,2022-03-23,2022-03-23,一般社団法人Ｃｏｍｏｄｏ,,その他の設立登記法人,鳥取県,倉吉市,小田７９番地１５,,31,203,6820044,,,,,,,2022-03-23,1,,,,,コモド,0
716,3280001008664,新規,0,2022-03-23,2022-03-23,株式会社メンテナンス山陰,,株式会社,島根県,松江市,宍道町佐々布２２７０番地２,,32,201,6990406,,,,,,,2022-03-23,1,,,,,メンテナンスサンイン,0
719,3290001096832,新規,0,2022-03-23,2022-03-23,株式会社ＲＫＬ,,株式会社,福岡県,福岡市城南区,長尾５丁目１９番２０－１０５号,,40,136,8140123,,,,,,,2022-03-23,1,,,,,アールケーエル,0
720,3290001096881,新規,0,2022-03-23,2022-03-23,宇景株式会社,,株式会社,福岡県,福岡市博多区,板付７丁目８番４０号,,40,132,8120888,,,,,,,2022-03-23,1,,,,,ウケイ,0
728,3310003004311,新規,0,2022-03-23,2022-03-23,合同会社旅するこむぎの,,合同会社,長崎県,壱岐市,郷ノ浦町柳田触１９５,,42,210,8115114,,,,,,,2022-03-23,1,,,,,タビスルコムギノ,0
733,3320005009976,新規,0,2022-03-23,2022-03-23,一般社団法人アイズケアサポート,,その他の設立登記法人,大分県,速見郡日出町,大字豊岡１０３２番地１,,44,341,8791507,,,,,,,2022-03-23,1,,,,,アイズケアサポート,0
734,3330001029564,新規,0,2022-03-23,2022-03-23,トリイ株式会社,,株式会社,熊本県,阿蘇市,無田１６６番地,,43,214,8692233,,,,,,,2022-03-23,1,,,,,トリイ,0
740,3360001030156,新規,0,2022-03-23,2022-03-23,株式会社ｍｉｕｓｉｃ　ｌａｂ,,株式会社,沖縄県,宜野湾市,喜友名２丁目２６番２７号,,47,205,9012222,,,,,,,2022-03-23,1,,,,,ミュージックラボ,0
755,3430001086265,新規,0,2022-03-23,2022-03-23,株式会社大蔵マネジメント,,株式会社,北海道,札幌市豊平区,平岸一条１７丁目２番１号東急ドエル平岸ビレジ１号棟４０４号室,,01,105,0620931,,,,,,,2022-03-23,1,,,,,オオクラマネジメント,0
773,4010003037258,新規,0,2022-03-23,2022-03-23,合同会社きんゆう女子,,合同会社,東京都,中央区,日本橋茅場町１丁目５番８号東京証券会館Ｂ―３１３,,13,102,1030025,,,,,,,2022-03-23,1,,,,,キンユウジョシ,0
774,4010003037290,新規,0,2022-03-23,2022-03-23,パール合同会社,,合同会社,東京都,中央区,晴海５丁目１番１７－２０２０号,,13,102,1040053,,,,,,,2022-03-23,1,,,,,パール,0
776,4010103001881,新規,0,2022-03-23,2022-03-23,合同会社どうぶつぐらし,,合同会社,東京都,八王子市,堀之内１９９番地２,,13,201,1920355,,,,,,,2022-03-23,1,,,,,ドウブツグラシ,0
784,4010401166294,新規,0,2022-03-23,2022-03-23,松永株式会社,,株式会社,東京都,港区,海岸１丁目１３番１５－１３０６号,,13,103,1050022,,,,,,,2022-03-23,1,,,,,マツナガ,0
786,4010501048616,新規,0,2022-03-23,2022-03-23,株式会社Ｌｏｕｉｓ＆Ｎｏｅｌ,,株式会社,東京都,台東区,寿３丁目１４番７号,,13,106,1110042,,,,,,,2022-03-23,1,,,,,ルイスアンドノエル,0
787,4010503006539,新規,0,2022-03-23,2022-03-23,合同会社Ｍｏｉｒａｉ,,合同会社,東京都,台東区,浅草３丁目２７番１０号ユニハイツ４０３号,,13,106,1110032,,,,,,,2022-03-23,1,,,,,モイライ,0
788,4010601060867,新規,0,2022-03-23,2022-03-23,ＢＵＺＺＬＥ株式会社,,株式会社,東京都,江東区,亀戸１丁目６番６－１２０４号,,13,108,1360071,,,,,,,2022-03-23,1,,,,,バズル,0
789,4010605004060,新規,0,2022-03-23,2022-03-23,医療法人社団一滄会,,その他の設立登記法人,東京都,江東区,東陽３丁目５番５号ラウクティビルディング４階,,13,108,1350016,,,,,,,2022-03-23,1,,,,,イッソウカイ,0
791,4010701042402,新規,0,2022-03-23,2022-03-23,株式会社和Ｔｒｅｅ,,株式会社,東京都,品川区,戸越４丁目１１番１７号ニューバレー２０１,,13,109,1420041,,,,,,,2022-03-23,1,,,,,ワトゥリー,0
810,4011001146372,新規,0,2022-03-23,2022-03-23,株式会社ルーフ,,株式会社,東京都,渋谷区,猿楽町２８番１３号,,13,113,1500033,,,,,,,2022-03-23,1,,,,,ルーフ,0
811,4011001146380,新規,0,2022-03-23,2022-03-23,株式会社みやぞう,,株式会社,東京都,目黒区,柿の木坂３丁目９番２３号ＲＩＳ柿の木坂２０２,,13,110,1520022,,,,,,,2022-03-23,1,,,,,ミヤゾウ,0
813,4011003014387,新規,0,2022-03-23,2022-03-23,合同会社ＳＨＩＲＡ,,合同会社,東京都,目黒区,中目黒３丁目３番３号,,13,110,1530061,,,,,,,2022-03-23,1,,,,,シラ,0
816,4011005009501,新規,0,2022-03-23,2022-03-23,医療法人社団ＹＤＯ,,その他の設立登記法人,東京都,渋谷区,広尾５丁目１９番７号協和ビル２階,,13,113,1500012,,,,,,,2022-03-23,1,,,,,ワイディーオー,0
818,4011101098191,新規,0,2022-03-23,2022-03-23,株式会社ＡＬ　ＢＡＲＡＫＡ,,株式会社,東京都,新宿区,高田馬場１丁目２９番７号,,13,104,1690075,,,,,,,2022-03-23,1,,,,,アルバラカ,0
825,4011501027857,新規,0,2022-03-23,2022-03-23,株式会社ＣＨＩＣＡＭＩ,,株式会社,東京都,北区,赤羽１丁目５９番８号ヒノデビル４Ｆ,,13,117,1150045,,,,,,,2022-03-23,1,,,,,チカミ,0
826,4011601025819,新規,0,2022-03-23,2022-03-23,株式会社ＺＥＮ,,株式会社,東京都,練馬区,大泉学園町５丁目６－１９,,13,120,1780061,,,,,,,2022-03-23,1,,,,,ゼン,0
830,4011701025140,新規,0,2022-03-23,2022-03-23,株式会社涼風庭苑,,株式会社,東京都,江戸川区,南葛西４丁目１１番３号エヴィメリアビルディング９０１,,13,123,1340085,,,,,,,2022-03-23,1,,,,,スズカゼテイエン,0
831,4011703003094,新規,0,2022-03-23,2022-03-23,Ｅ・ＲＩＤＥＷＩＮＤ合同会社,,合同会社,東京都,江戸川区,東小岩１丁目１番４号,,13,123,1330052,,,,,,,2022-03-23,1,,,,,イーライドウィンド,0
833,4011803005016,新規,0,2022-03-23,2022-03-23,合同会社ウィルソリューション,,合同会社,東京都,足立区,六町４丁目３番２８号,,13,121,1210073,,,,,,,2022-03-23,1,,,,,ウィルソリューション,0
842,4020001145739,新規,0,2022-03-23,2022-03-23,Ｏｒｉｅｎｔ　Ｉｎｄｕｓｔｒｉｅｓ株式会社,,株式会社,神奈川県,横浜市戸塚区,汲沢２丁目１４番１５号,,14,110,2450061,,,,,,,2022-03-23,1,,,,,オリエントインダストリーズ,0
843,4020001145755,新規,0,2022-03-23,2022-03-23,株式会社信和設備グループ,,株式会社,神奈川県,川崎市高津区,子母口５４番地４４,,14,134,2130023,,,,,,,2022-03-23,1,,,,,シンワセツビグループ,0
844,4020001145763,新規,0,2022-03-23,2022-03-23,株式会社エスパス,,株式会社,神奈川県,横浜市戸塚区,戸塚町５０２４番地１－８１１号,,14,110,2440003,,,,,,,2022-03-23,1,,,,,エスパス,0
850,4021001075488,新規,0,2022-03-23,2022-03-23,株式会社Ｐｏｎｏハウス,,株式会社,神奈川県,横須賀市,船越町５丁目１番２４号,,14,201,2370076,,,,,,,2022-03-23,1,,,,,ポノハウス,0
851,4021003011508,新規,0,2022-03-23,2022-03-23,カーサ杉浦合同会社,,合同会社,神奈川県,平塚市,山下１０７５番地の２,,14,203,2540911,,,,,,,2022-03-23,1,,,,,カーサスギウラ,0
854,4030001147370,新規,0,2022-03-23,2022-03-23,株式会社Ｍ＆Ｃ,,株式会社,埼玉県,さいたま市大宮区,桜木町１丁目２６６番地３シンワＫＩビル２Ｆ,,11,103,3300854,,,,,,,2022-03-23,1,,,,,エムアンドシー,0
855,4030003019072,新規,0,2022-03-23,2022-03-23,ｅ‐ｓｐｌａｎ合同会社,,合同会社,埼玉県,越谷市,蒲生２丁目１４番４５号,,11,222,3430838,,,,,,,2022-03-23,1,,,,,イーズプラン,0
860,4040001122678,新規,0,2022-03-23,2022-03-23,株式会社ＢＵＬＬ　ＭＡＲＫＥＴ,,株式会社,千葉県,浦安市,入船４丁目１番２２号１Ｆ,,12,227,2790012,,,,,,,2022-03-23,1,,,,,ブルマーケット,0
874,4060001034681,新規,0,2022-03-23,2022-03-23,株式会社宇都宮アクア機工,,株式会社,栃木県,宇都宮市,雀の宮１丁目６番１号,,09,201,3210132,,,,,,,2022-03-23,1,,,,,ウツノミヤアクアキコウ,0
876,4070001039060,新規,0,2022-03-23,2022-03-23,龍新産業株式会社,,株式会社,群馬県,伊勢崎市,曲沢町１６１番５,,10,204,3792203,,,,,,,2022-03-23,1,,,,,リュウシンサンギョウ,0
877,4070001039069,新規,0,2022-03-23,2022-03-23,株式会社ジンユウ,,株式会社,群馬県,高崎市,竜見町９６番地,,10,202,3700835,,,,,,,2022-03-23,1,,,,,ジンユウ,0
884,4110001036516,新規,0,2022-03-23,2022-03-23,株式会社新潟管財企画,,株式会社,新潟県,新潟市中央区,紫竹山２丁目５番４０号,,15,103,9500914,,,,,,,2022-03-23,1,,,,,ニイガタカンザイキカク,0
885,4110003004719,新規,0,2022-03-23,2022-03-23,ＭＦ４Ｕ合同会社,,合同会社,新潟県,燕市,宮町４番３９号,,15,213,9591257,,,,,,,2022-03-23,1,,,,,エムエフフォーユー,0
893,4120001244621,新規,0,2022-03-23,2022-03-23,株式会社ビーイングスピリット,,株式会社,大阪府,大阪市西区,靱本町１丁目７番１８号,,27,106,5500004,,,,,,,2022-03-23,1,,,,,ビーイングスピリット,0
898,4120903004081,新規,0,2022-03-23,2022-03-23,合同会社ＫＡＲＩＣＡ,,合同会社,大阪府,茨木市,沢良宜浜３丁目２番１２号,,27,211,5670864,,,,,,,2022-03-23,1,,,,,カリカ,0
904,4130001071379,新規,0,2022-03-23,2022-03-23,資粮道株式会社,,株式会社,京都府,京都市上京区,百万遍町８１番地２,,26,102,6028276,,,,,,,2022-03-23,1,,,,,シリョウドウ,0
905,4130001071387,新規,0,2022-03-23,2022-03-23,株式会社水ノ雅,,株式会社,京都府,京都市伏見区,京町１丁目２４４,,26,109,6128083,,,,,,,2022-03-23,1,,,,,ミズノミヤビ,0
911,4140001125324,新規,0,2022-03-23,2022-03-23,株式会社ＳＫＹ’ｓ,,株式会社,兵庫県,明石市,本町１丁目９番２号,,28,203,6730892,,,,,,,2022-03-23,1,,,,,スカイズ,0
912,4140001125332,新規,0,2022-03-23,2022-03-23,株式会社ＨＧＡＳ,,株式会社,兵庫県,丹波市,青垣町桧倉２７２番地,,28,223,6693821,,,,,,,2022-03-23,1,,,,,ハーガス,0
913,4140001125340,新規,0,2022-03-23,2022-03-23,株式会社Ｅｖｅｒ　Ｏｎｗａｒｄ創進,,株式会社,兵庫県,神戸市東灘区,御影本町５丁目２番２２号,,28,101,6580046,,,,,,,2022-03-23,1,,,,,エバーオンワードソウシン,0
914,4140001125349,新規,0,2022-03-23,2022-03-23,株式会社将陽テック,,株式会社,兵庫県,宝塚市,逆瀬川１丁目６番１４号,,28,214,6650035,,,,,,,2022-03-23,1,,,,,ショウヨウテック,0
915,4140003017486,新規,0,2022-03-23,2022-03-23,合同会社ｋｅｅｌ,,合同会社,兵庫県,神戸市灘区,灘北通２丁目３番１６号ハイツマイルド１０２号,,28,102,6570835,,,,,,,2022-03-23,1,,,,,キール,0
916,4140005026072,新規,0,2022-03-23,2022-03-23,医療法人健康みらい,,その他の設立登記法人,兵庫県,神戸市中央区,港島南町１丁目３番地１国際くらしの医療館・神戸４階,,28,110,6500047,,,,,,,2022-03-23,1,,,,,ケンコウミライ,0
919,4160005011064,新規,0,2022-03-23,2022-03-23,ＮＰＯ法人エコ・地域文化研究会,,その他の設立登記法人,滋賀県,近江八幡市,多賀町３９６番地の２,,25,204,5230821,,,,,,,2022-03-23,1,,,,,エコチイキブンカケンキュウカイ,0
920,4170003001702,新規,0,2022-03-23,2022-03-23,合同会社ＥＮ　ｐｕｂｌｉｓｈｉｎｇ,,合同会社,和歌山県,海南市,下津町下津１４９１番地岩井克次様方,,30,202,6490101,,,,,,,2022-03-23,1,,,,,,0
926,4180001150475,新規,0,2022-03-23,2022-03-23,株式会社Ｃｏｎｎｅｃｔ,,株式会社,愛知県,名古屋市中区,錦１丁目１７番１３号明興ビルディング３Ｆ－Ｂ２４,,23,106,4600003,,,,,,,2022-03-23,1,,,,,コネクト,0
930,4180301036036,新規,0,2022-03-23,2022-03-23,ヨシグチ自動車株式会社,,株式会社,愛知県,岡崎市,宇頭町字井ノ上１３番地,,23,202,4440905,,,,,,,2022-03-23,1,,,,,ヨシグチジドウシャ,0
931,4180303005286,新規,0,2022-03-23,2022-03-23,合同会社大珠,,合同会社,愛知県,豊川市,伊奈町南山新田１１２番地８,,23,207,4410105,,,,,,,2022-03-23,1,,,,,タイジュ,0
935,4210003001474,新規,0,2022-03-23,2022-03-23,ＮＨＫ合同会社,,合同会社,福井県,越前市,府中３丁目２番２６号坂東ビル２階,,18,209,9150071,,,,,,,2022-03-23,1,,,,,エヌエイチケイ,0
937,4230001019285,新規,0,2022-03-23,2022-03-23,株式会社Ｗｉｎ　Ｓｔｙｌｅ,,株式会社,富山県,高岡市,江尻１１９番地１１,,16,202,9330062,,,,,,,2022-03-23,1,,,,,ウィンスタイル,0
940,4240001059487,新規,0,2022-03-23,2022-03-23,Ｕ‐ＤＥＮＫＩ株式会社,,株式会社,広島県,広島市安佐北区,落合５丁目１５番４号ＢＭ－１１ビル１０５,,34,106,7391731,,,,,,,2022-03-23,1,,,,,ユーデンキ,0
943,4250001019465,新規,0,2022-03-23,2022-03-23,株式会社万人舎,,株式会社,山口県,周南市,銀南街四丁目徳山銀南街ビル１階,,35,215,7450031,,,,,,,2022-03-23,1,,,,,バンニンシャ,0
947,4250005008729,新規,0,2022-03-23,2022-03-23,医療法人まつだ歯科,,その他の設立登記法人,山口県,山口市,佐山１２５７－１,,35,203,7540894,,,,,,,2022-03-23,1,,,,,マツダシカ,0
956,4290001096807,新規,0,2022-03-23,2022-03-23,株式会社すゞな舎,,株式会社,福岡県,福岡市南区,寺塚２丁目１２番１号金産ビル６４１号,,40,134,8150074,,,,,,,2022-03-23,1,,,,,スズナシャ,0
957,4290001096889,新規,0,2022-03-23,2022-03-23,株式会社ＣｒｏｓｓＢｏｎｄｓ,,株式会社,福岡県,大野城市,瓦田４丁目７番１８－２０５号,,40,219,8160932,,,,,,,2022-03-23,1,,,,,クロスボンズ,0
958,4290001096897,新規,0,2022-03-23,2022-03-23,ＴＩＡＨ株式会社,,株式会社,福岡県,うきは市,吉井町２９５番地５,,40,225,8391321,,,,,,,2022-03-23,1,,,,,ティア,0
963,4290801028364,新規,0,2022-03-23,2022-03-23,紡和建設株式会社,,株式会社,福岡県,北九州市若松区,二島５丁目１番３８－１０５号,,40,103,8080103,,,,,,,2022-03-23,1,,,,,ホウワケンセツ,0
971,4310003004310,新規,0,2022-03-23,2022-03-23,燈合同会社,,合同会社,長崎県,佐世保市,白岳町７２０番地５９,,42,202,8571164,,,,,,,2022-03-23,1,,,,,トウ,0
973,4330001029563,新規,0,2022-03-23,2022-03-23,ＳＲ・ＤＥＮＳＯ株式会社,,株式会社,熊本県,合志市,須屋１８３３番地２３,,43,216,8611102,,,,,,,2022-03-23,1,,,,,エスアールデンソー,0
979,4370003005625,新規,0,2022-03-23,2022-03-23,アイランド合同会社,,合同会社,宮城県,塩竈市,青葉ケ丘１７番１１号,,04,203,9850082,,,,,,,2022-03-23,1,,,,,アイランド,0
987,4400001015820,新規,0,2022-03-23,2022-03-23,株式会社八漱葡萄酒,,株式会社,岩手県,滝沢市,室小路６５５番地６グランヒルズＤ棟,,03,216,0200634,,,,,,,2022-03-23,1,,,,,ハッソウブドウシュ,0
989,4420003002476,新規,0,2022-03-23,2022-03-23,合同会社永紋,,合同会社,青森県,八戸市,大字田面木字下田面木３２番地,,02,203,0391104,,,,,,,2022-03-23,1,,,,,エエモン,0
1011,5010001225152,新規,0,2022-03-23,2022-03-23,ＥＢＤ株式会社,,株式会社,東京都,中央区,銀座７丁目１５番８号タウンハイツ銀座４０６,,13,102,1040061,,,,,,,2022-03-23,1,,,,,イービーディー,0
1012,5010001225359,新規,0,2022-03-23,2022-03-23,ＨＭ商事株式会社,,株式会社,東京都,千代田区,神田三崎町３丁目７－１２原田ビル４Ｆ,,13,101,1010061,,,,,,,2022-03-23,1,,,,,エイチエムショウジ,0
1013,5010001225391,新規,0,2022-03-23,2022-03-23,株式会社Ｐｌａｙ　Ｂｌｕｅ,,株式会社,東京都,千代田区,平河町２丁目５番３号,,13,101,1020093,,,,,,,2022-03-23,1,,,,,プレイブルー,0
1014,5010001225409,新規,0,2022-03-23,2022-03-23,ｉＴＭＳ株式会社,,株式会社,東京都,中央区,日本橋本町３丁目８番５号,,13,102,1030023,,,,,,,2022-03-23,1,,,,,アイティーエムエス,0
1015,5010001225417,新規,0,2022-03-23,2022-03-23,繋株式会社,,株式会社,東京都,千代田区,有楽町１丁目２番２号東宝日比谷ビル９Ｆ,,13,101,1000006,,,,,,,2022-03-23,1,,,,,ツナグ,0
1020,5010003037307,新規,0,2022-03-23,2022-03-23,ＺＥＡＦ１合同会社,,合同会社,東京都,千代田区,丸の内１丁目７番１２号サピアタワー１８階,,13,101,1000005,,,,,,,2022-03-23,1,,,,,ジーフワン,0
1021,5010003037323,新規,0,2022-03-23,2022-03-23,Ｓｕｚｕｏｋａ合同会社,,合同会社,東京都,中央区,新川１丁目２７番８号新川大原ビル８階,,13,102,1040033,,,,,,,2022-03-23,1,,,,,スズオカ,0
1024,5010401166310,新規,0,2022-03-23,2022-03-23,株式会社ＴＳ,,株式会社,東京都,港区,六本木７丁目７番１３－４０１号,,13,103,1060032,,,,,,,2022-03-23,1,,,,,ティーエス,0
1025,5010401166351,新規,0,2022-03-23,2022-03-23,セレスティア株式会社,,株式会社,東京都,港区,赤坂２丁目１６番１３号パークヒルズ赤坂１００１,,13,103,1070052,,,,,,,2022-03-23,1,,,,,セレスティア,0
1028,5010405020819,新規,0,2022-03-23,2022-03-23,医療法人社団丸山矯正歯科,,その他の設立登記法人,東京都,港区,浜松町２丁目１１番１６号ユーワビル３階,,13,103,1050013,,,,,,,2022-03-23,1,,,,,マルヤマキョウセイシカ,0
1032,5010601060866,新規,0,2022-03-23,2022-03-23,株式会社サステナブルチャレンジ,,株式会社,東京都,江東区,新砂３丁目４－３－１２１０,,13,108,1360075,,,,,,,2022-03-23,1,,,,,サステナブルチャレンジ,0
1033,5010603009449,新規,0,2022-03-23,2022-03-23,ＦＳサービス合同会社,,合同会社,東京都,墨田区,業平４丁目８－９－５０２ニシジマハウジング,,13,107,1300002,,,,,,,2022-03-23,1,,,,,エフエスサービス,0
1038,5010901050534,新規,0,2022-03-23,2022-03-23,株式会社ミドコロ,,株式会社,東京都,世田谷区,玉川１丁目２番８号,,13,112,1580094,,,,,,,2022-03-23,1,,,,,ミドコロ,0
1044,5011001146388,新規,0,2022-03-23,2022-03-23,株式会社ＴＯＭＯＳＨＩＶＩ,,株式会社,東京都,渋谷区,恵比寿西１丁目１６番８号ＤＲＯＰＩＮ代官山２Ｆ,,13,113,1500021,,,,,,,2022-03-23,1,,,,,トモシヴィ,0
1045,5011001146405,新規,0,2022-03-23,2022-03-23,株式会社ＣＬＡＳＹ,,株式会社,東京都,目黒区,中町２丁目３２番１－３０７号ルミエール中町,,13,110,1530065,,,,,,,2022-03-23,1,,,,,クラシー,0
1046,5011001146421,新規,0,2022-03-23,2022-03-23,マルキ東京株式会社,,株式会社,東京都,渋谷区,恵比寿西１丁目３３－３光雲閣３０４号室,,13,113,1500021,,,,,,,2022-03-23,1,,,,,マルキトウキョウ,0
1053,5011401024111,新規,0,2022-03-23,2022-03-23,株式会社フォルザ,,株式会社,東京都,板橋区,板橋１丁目４８番９号建材ビル６Ｆ,,13,119,1730004,,,,,,,2022-03-23,1,,,,,フォルザ,0
1055,5011501027864,新規,0,2022-03-23,2022-03-23,株式会社ＡＳＡＲＩＣＯ,,株式会社,東京都,荒川区,南千住６丁目４１番１０号,,13,118,1160003,,,,,,,2022-03-23,1,,,,,アサリコ,0
1059,5011703003085,新規,0,2022-03-23,2022-03-23,合同会社リフォン,,合同会社,東京都,江戸川区,東小岩４丁目１８番７号,,13,123,1330052,,,,,,,2022-03-23,1,,,,,リフォン,0
1060,5011703003093,新規,0,2022-03-23,2022-03-23,Ｔｈｅ　Ｆｉｆｔｈ　Ｓｅａｓｏｎ合同会社,,合同会社,東京都,江戸川区,船堀４丁目１０－２２ヌゥベルアイＩＶ１０１,00126026,13,123,1340091,,,,,,,2022-03-23,1,,,,,フィフスシーズン,0
1065,5012401038992,新規,0,2022-03-23,2022-03-23,株式会社Ｉｎｄｉｇｏ　Ｂｏｗｌ,,株式会社,東京都,調布市,小島町２丁目５１－３ロイヤルプラザマンション６０６,,13,208,1820026,,,,,,,2022-03-23,1,,,,,インディゴボウル,0
1066,5012401039000,新規,0,2022-03-23,2022-03-23,Ｓａｍコンサルティング株式会社,,株式会社,東京都,武蔵野市,吉祥寺北町５丁目３番４号,,13,203,1800001,,,,,,,2022-03-23,1,,,,,サムコンサルティング,0
1067,5012803002737,新規,0,2022-03-23,2022-03-23,ホワイトレイ合同会社,,合同会社,東京都,日野市,多摩平４丁目７番地１－８棟２０３号,,13,212,1910062,,,,,,,2022-03-23,1,,,,,ホワイトレイ,0
1072,5013301048850,新規,0,2022-03-23,2022-03-23,文華株式会社,,株式会社,東京都,豊島区,西池袋５丁目５番２１－１３０９号,,13,116,1710021,,,,,,,2022-03-23,1,,,,,,0
1077,5020001145754,新規,0,2022-03-23,2022-03-23,株式会社ＳＥＬＳＥＡ　ＰＲＯＪＥＣＴ,,株式会社,神奈川県,横浜市鶴見区,下末吉６丁目１１番２号,,14,101,2300012,,,,,,,2022-03-23,1,,,,,セルシープロジェクト,0
1078,5020001145762,新規,0,2022-03-23,2022-03-23,株式会社笠井塗装,,株式会社,神奈川県,川崎市高津区,千年７８２番地１ハウスポート１０６,,14,134,2130022,,,,,,,2022-03-23,1,,,,,カサイトソウ,0
1083,5020005015425,新規,0,2022-03-23,2022-03-23,医療法人ながたファミリー歯科,,その他の設立登記法人,神奈川県,横浜市鶴見区,矢向６丁目６番３５号グランドソレイユ矢向１階,,14,101,2300001,,,,,,,2022-03-23,1,,,,,ナガタファミリーシカ,0
1091,5030001147378,新規,0,2022-03-23,2022-03-23,株式会社友輝工業,,株式会社,埼玉県,さいたま市緑区,東大門３丁目７番地１５,,11,109,3360964,,,,,,,2022-03-23,1,,,,,ユウキコウギョウ,0
1099,5040001122702,新規,0,2022-03-23,2022-03-23,株式会社つつじ,,株式会社,千葉県,市川市,大野町３丁目１７８６番地２４,,12,203,2720805,,,,,,,2022-03-23,1,,,,,ツツジ,0
1100,5040001122727,新規,0,2022-03-23,2022-03-23,株式会社Ｉ’ＬＬ　ＢＥ,,株式会社,千葉県,船橋市,咲が丘４丁目２５番２３号,,12,204,2740807,,,,,,,2022-03-23,1,,,,,アイルビー,0
1105,5040003019707,新規,0,2022-03-23,2022-03-23,森ノ軒合同会社,,合同会社,千葉県,印旛郡酒々井町,東酒々井６丁目６番（８棟５０５号）,,12,322,2850923,,,,,,,2022-03-23,1,,,,,モリノケン,0
1106,5040003019715,新規,0,2022-03-23,2022-03-23,ＡＫＩＹＯ　ＴＲＡＤＩＮＧ合同会社,,合同会社,千葉県,袖ケ浦市,久保田代宿入会地３番地２の２,,12,229,2990200,,,,,,,2022-03-23,1,,,,,アキヨトレーディング,0
1107,5040003019723,新規,0,2022-03-23,2022-03-23,合同会社瞬ＴＥＣＨ,,合同会社,千葉県,東金市,北之幸谷９３１番地１８,,12,213,2830061,,,,,,,2022-03-23,1,,,,,シュンテック,0
1111,5060001034680,新規,0,2022-03-23,2022-03-23,株式会社コンタクト,,株式会社,栃木県,宇都宮市,上籠谷町４３７９番地１,,09,201,3213233,,,,,,,2022-03-23,1,,,,,コンタクト,0
1114,5080001024820,新規,0,2022-03-23,2022-03-23,株式会社アスベストプラン,,株式会社,静岡県,静岡市葵区,大岩４丁目２３番１２号セピア平ヶ谷１－Ａ,,22,101,4200886,,,,,,,2022-03-23,1,,,,,アスベストプラン,0
1118,5100001035179,新規,0,2022-03-23,2022-03-23,株式会社リベラルアーツテクノロジー,,株式会社,長野県,岡谷市,大栄町２丁目４番１５号,,20,204,3940025,,,,,,,2022-03-23,1,,,,,リベラルアーツテクノロジー,0
1119,5110001036515,新規,0,2022-03-23,2022-03-23,株式会社ＣＬＯＳＴ,,株式会社,新潟県,新潟市中央区,紫竹山２丁目５番４０号,,15,103,9500914,,,,,,,2022-03-23,1,,,,,クロスト,0
1132,5120001244612,新規,0,2022-03-23,2022-03-23,株式会社希学園ホールディングス,,株式会社,大阪府,大阪市北区,中崎西２丁目４番１２号,,27,127,5300015,,,,,,,2022-03-23,1,,,,,ノゾミガクエンホールディングス,0
1133,5120001244620,新規,0,2022-03-23,2022-03-23,株式会社バンデ・ライン,,株式会社,大阪府,守口市,佐太東町２丁目１番１４号（０４）,,27,209,5700017,,,,,,,2022-03-23,1,,,,,バンデライン,0
1144,5120901045746,新規,0,2022-03-23,2022-03-23,ＧＳＩ研究所株式会社,,株式会社,大阪府,吹田市,春日４丁目３番３号,,27,205,5650853,,,,,,,2022-03-23,1,,,,,ジーエスアイケンキュウショ,0
1147,5122001035693,新規,0,2022-03-23,2022-03-23,株式会社ＣＨＡＮＣＥ,,株式会社,大阪府,八尾市,安中町８丁目９－２８ルピナスＡ１０５,,27,212,5810085,,,,,,,2022-03-23,1,,,,,チャンス,0
1148,5130001071394,新規,0,2022-03-23,2022-03-23,株式会社ＵＮｃｏｎｄｉｔｉｏｎ,,株式会社,京都府,京都市左京区,田中西高原町８番地,,26,103,6068241,,,,,,,2022-03-23,1,,,,,アンコンディション,0
1150,5130003007826,新規,0,2022-03-23,2022-03-23,合同会社Ｅｌｔｕｎｅ,,合同会社,京都府,京田辺市,田辺棚倉３１番地３４,,26,211,6100331,,,,,,,2022-03-23,1,,,,,エルチューン,0
1154,5140001125331,新規,0,2022-03-23,2022-03-23,ＦＡＣＴＯ　ＴＵＭ　ＪＡＰＡＮ株式会社,,株式会社,兵庫県,尼崎市,築地５丁目６番１６号山栄ビル５０２号,,28,202,6600858,,,,,,,2022-03-23,1,,,,,ファクトタムジャパン,0
1155,5140001125348,新規,0,2022-03-23,2022-03-23,ＡＤＳＴＡＲ株式会社,,株式会社,兵庫県,尼崎市,南武庫之荘２丁目５番２４号室田ビル１階,,28,202,6610033,,,,,,,2022-03-23,1,,,,,アドスター,0
1160,5150001025415,新規,0,2022-03-23,2022-03-23,エトナ株式会社,,株式会社,奈良県,葛城市,林堂５０番地１,,29,211,6392131,,,,,,,2022-03-23,1,,,,,エトナ,0
1161,5160001024052,新規,0,2022-03-23,2022-03-23,株式会社Ｇ．Ｌｐｌｕｓｈｏｍｅ,,株式会社,滋賀県,甲賀市,水口町松尾７４４番地１８,,25,209,5280074,,,,,,,2022-03-23,1,,,,,ジーエルプラスホーム,0
1162,5160001024060,新規,0,2022-03-23,2022-03-23,株式会社ふくふく,,株式会社,滋賀県,東近江市,八日市本町７番３号小川ビル,,25,213,5270012,,,,,,,2022-03-23,1,,,,,フクフク,0
1164,5160005011063,新規,0,2022-03-23,2022-03-23,一般社団法人ＦＣＶｏｒｉｅｓ,,その他の設立登記法人,滋賀県,近江八幡市,市井町１７７番地,,25,204,5230851,,,,,,,2022-03-23,1,,,,,エフシーヴォーリズ,0
1165,5170001017022,新規,0,2022-03-23,2022-03-23,株式会社いはら屋,,株式会社,和歌山県,日高郡日高町,大字荊木１７８４番地,,30,382,6491211,,,,,,,2022-03-23,1,,,,,イハラヤ,0
1171,5180001150482,新規,0,2022-03-23,2022-03-23,株式会社凱晟機工,,株式会社,愛知県,名古屋市中区,大須１丁目７－１７パークＩＭビル２Ｆ,,23,106,4600011,,,,,,,2022-03-23,1,,,,,カイセイキコウ,0
1176,5180003023637,新規,0,2022-03-23,2022-03-23,合同会社ｌａ　Ｍａｕｉ,,合同会社,愛知県,名古屋市天白区,菅田１丁目２５０８番地インテリジェンス野並１Ａ,,23,116,4680043,,,,,,,2022-03-23,1,,,,,ラマウイ,0
1177,5180005019690,新規,0,2022-03-23,2022-03-23,医療法人芳和会,,その他の設立登記法人,愛知県,清須市,西枇杷島町橋詰７２番地１,,23,233,4520026,,,,,,,2022-03-23,1,,,,,ホウワカイ,0
1179,5180301036035,新規,0,2022-03-23,2022-03-23,株式会社ＲＩＳＥＲＡＧＥ,,株式会社,愛知県,岡崎市,鴨田町字末広４１番地２,,23,202,4442121,,,,,,,2022-03-23,1,,,,,ライズレージ,0
1180,5180301036043,新規,0,2022-03-23,2022-03-23,株式会社アグレアーブル,,株式会社,愛知県,岡崎市,美合町字八ケ尻８番地１８,,23,202,4440802,,,,,,,2022-03-23,1,,,,,アグレアーブル,0
1181,5180303005285,新規,0,2022-03-23,2022-03-23,極楽屋合同会社,,合同会社,愛知県,豊川市,麻生田町北浦１番地,,23,207,4420802,,,,,,,2022-03-23,1,,,,,ゴクラクヤ,0
1185,5220001024756,新規,0,2022-03-23,2022-03-23,名山瓦店株式会社,,株式会社,石川県,羽咋郡志賀町,高浜町ヰ２７番地５,,17,384,9250141,,,,,,,2022-03-23,1,,,,,ナヤマカワラテン,0
1188,5230001019284,新規,0,2022-03-23,2022-03-23,株式会社エクステンド,,株式会社,富山県,高岡市,関本町１１４番地２,,16,202,9330863,,,,,,,2022-03-23,1,,,,,エクステンド,0
1195,5250001019464,新規,0,2022-03-23,2022-03-23,株式会社かわ村,,株式会社,山口県,下松市,瑞穂町２丁目１１－１瑞穂タウン２番館１Ｆ,,35,207,7440075,,,,,,,2022-03-23,1,,,,,カワムラ,0
1197,5250005008728,新規,0,2022-03-23,2022-03-23,医療法人山代会,,その他の設立登記法人,山口県,岩国市,御庄１丁目１０５番地３,,35,208,7410083,,,,,,,2022-03-23,1,,,,,ヤマシロカイ,0
1199,5260001036640,新規,0,2022-03-23,2022-03-23,弥成興業株式会社,,株式会社,岡山県,岡山市東区,城東台西３丁目１１番２０号,,33,103,7090624,,,,,,,2022-03-23,1,,,,,ビセイコウギョウ,0
1210,5290001096896,新規,0,2022-03-23,2022-03-23,株式会社ＴＩＧ,,株式会社,福岡県,福岡市東区,香住ヶ丘２丁目８番２７号,,40,131,8130003,,,,,,,2022-03-23,1,,,,,ティアイジー,0
1213,5290003012307,新規,0,2022-03-23,2022-03-23,合同会社中山,,合同会社,福岡県,福岡市博多区,青木１丁目３番１１号,,40,132,8120851,,,,,,,2022-03-23,1,,,,,ナカヤマ,0
1214,5290801028363,新規,0,2022-03-23,2022-03-23,株式会社ＷＥＬＬＮＥＳＳ　ＥＡＳＴ,,株式会社,福岡県,北九州市小倉北区,京町３丁目７番１－１３０２号,,40,106,8020002,,,,,,,2022-03-23,1,,,,,ウェルネスイースト,0
1217,5320001018970,新規,0,2022-03-23,2022-03-23,株式会社Ｂａｃ,,株式会社,大分県,別府市,大字南立石１９２７番地の４,,44,202,8740000,,,,,,,2022-03-23,1,,,,,バック,0
1218,5320003003756,新規,0,2022-03-23,2022-03-23,合同会社ｕｎ,,合同会社,大分県,日田市,大字西有田２５６番地３,,44,204,8770000,,,,,,,2022-03-23,1,,,,,アン,0
1224,5340001024587,新規,0,2022-03-23,2022-03-23,株式会社流麗,,株式会社,鹿児島県,鹿児島市,与次郎２丁目７番１８－４０８号,,46,201,8900062,,,,,,,2022-03-23,1,,,,,リュウレイ,0
1227,5360001030162,新規,0,2022-03-23,2022-03-23,株式会社平仲建装,,株式会社,沖縄県,宜野湾市,字佐真下１５３－２５、１Ｆ,,47,205,9012216,,,,,,,2022-03-23,1,,,,,ヒラナカケンソウ,0
1229,5360003011887,新規,0,2022-03-23,2022-03-23,合同会社Ｆａｓｔ,,合同会社,沖縄県,島尻郡八重瀬町,字後原３５８番地１５ＮＡＮＡＨＯＵＳＥ１０１,,47,362,9010504,,,,,,,2022-03-23,1,,,,,ファスト,0
1246,5430001086247,新規,0,2022-03-23,2022-03-23,ＴＫテクニカル株式会社,,株式会社,北海道,札幌市手稲区,新発寒七条１１丁目８番５号,,01,109,0060807,,,,,,,2022-03-23,1,,,,,ティーケーテクニカル,0
1247,5430001086255,新規,0,2022-03-23,2022-03-23,株式会社ＫＵＲＩ,,株式会社,北海道,北広島市,美咲き野２丁目３番地２,,01,234,0611115,,,,,,,2022-03-23,1,,,,,クリ,0
1260,6010001225390,新規,0,2022-03-23,2022-03-23,株式会社ＭＴＸメディカルデータラボ,,株式会社,東京都,千代田区,六番町１番地１恩田ビル５０１号室,,13,101,1020085,,,,,,,2022-03-23,1,,,,,エムティーエックスメディカルデータラボ,0
1264,6010005034763,新規,0,2022-03-23,2022-03-23,一般社団法人ＺＥＡＦ１,,その他の設立登記法人,東京都,千代田区,丸の内１丁目７番１２号サピアタワー１８階,,13,101,1000005,,,,,,,2022-03-23,1,,,,,ジーフワン,0
1269,6010401166318,新規,0,2022-03-23,2022-03-23,株式会社ＹＴ　Ａｓｓｅｔ　Ｍａｎａｇｅｍｅｎｔ,,株式会社,東京都,港区,元麻布１丁目３番１号,,13,103,1060046,,,,,,,2022-03-23,1,,,,,ワイティーアセットマネジメント,0
1272,6010403027278,新規,0,2022-03-23,2022-03-23,合同会社ａｎｄｅｒ,,合同会社,東京都,港区,高輪１丁目２３－３４グランドガーラ白金高輪２－１１０３,,13,103,1080074,,,,,,,2022-03-23,1,,,,,アンダー,0
1278,6010701042409,新規,0,2022-03-23,2022-03-23,株式会社クリッピングポイント,,株式会社,東京都,品川区,大井１丁目３１番１－１５０１号,,13,109,1400014,,,,,,,2022-03-23,1,,,,,クリッピングポイント,0
1284,6011001146429,新規,0,2022-03-23,2022-03-23,株式会社ｒｕｍｅｄｉａ,,株式会社,東京都,渋谷区,神宮前６丁目２３番４号桑野ビル２階,,13,113,1500001,,,,,,,2022-03-23,1,,,,,ルメディア,0
1285,6011003014402,新規,0,2022-03-23,2022-03-23,アクセル・コンセプツ合同会社,,合同会社,東京都,渋谷区,恵比寿１丁目１５番９号日宝恵比寿ビル４０３,,13,113,1500013,,,,,,,2022-03-23,1,,,,,アクセルコンセプツ,0
1293,6011103011588,新規,0,2022-03-23,2022-03-23,合同会社メディアワークス,,合同会社,東京都,新宿区,百人町１丁目５番１３－１０２号グレイスコート,,13,104,1690073,,,,,,,2022-03-23,1,,,,,メディアワークス,0
1295,6011105010191,新規,0,2022-03-23,2022-03-23,一般社団法人日本クラフトコーラ協会,,その他の設立登記法人,東京都,新宿区,高田馬場３丁目４４番２号,,13,104,1690075,,,,,,,2022-03-23,1,,,,,ニホンクラフトコーラキョウカイ,0
1297,6011301027650,新規,0,2022-03-23,2022-03-23,風游鯨株式会社,,株式会社,東京都,杉並区,梅里２丁目２５番１３号高円寺プラザ２０３号,,13,115,1660011,,,,,,,2022-03-23,1,,,,,フウユウゲイ,0
1300,6011601025809,新規,0,2022-03-23,2022-03-23,ダブルグッド株式会社,,株式会社,東京都,練馬区,高松１丁目１８番４号,,13,120,1790075,,,,,,,2022-03-23,1,,,,,ダブルグッド,0
1302,6011701025139,新規,0,2022-03-23,2022-03-23,株式会社ファンテェック,,株式会社,東京都,江戸川区,北葛西３丁目６番１３号,,13,123,1340081,,,,,,,2022-03-23,1,,,,,ファンテック,0
1304,6011705001722,新規,0,2022-03-23,2022-03-23,一般社団法人ピアーズ咲楽,,その他の設立登記法人,東京都,江戸川区,中葛西４丁目２０番２２号,,13,123,1340083,,,,,,,2022-03-23,1,,,,,ビアーズサクラ,0
1306,6011801040475,新規,0,2022-03-23,2022-03-23,株式会社ＬＵＣＫＹ　ＦＩＥＬＤ,,株式会社,東京都,足立区,千住旭町３８番１号,,13,121,1200026,,,,,,,2022-03-23,1,,,,,ラッキーフィールド,0
1307,6011803005014,新規,0,2022-03-23,2022-03-23,Ｉｚｕｍｏ　Ｄａｔａ　Ｔｅｃｈ合同会社,,合同会社,東京都,葛飾区,水元３丁目２番１３－４０５号,,13,122,1250032,,,,,,,2022-03-23,1,,,,,イズモデータテック,0
1308,6012801021473,新規,0,2022-03-23,2022-03-23,株式会社和御魂,,株式会社,東京都,国分寺市,本多１丁目１４－１１下田ビル３階,,13,214,1850011,,,,,,,2022-03-23,1,,,,,ニキミタマ,0
1313,6013303006087,新規,0,2022-03-23,2022-03-23,合同会社ＯＧＲＥＦＬＡＴ,,合同会社,東京都,豊島区,長崎２丁目２６番１２号,,13,116,1710051,,,,,,,2022-03-23,1,,,,,オーガフラット,0
1325,6020001145737,新規,0,2022-03-23,2022-03-23,株式会社日成,,株式会社,神奈川県,横浜市中区,山元町３丁目１２７番地,,14,104,2310851,,,,,,,2022-03-23,1,,,,,ニッセイ,0
1328,6020005015424,新規,0,2022-03-23,2022-03-23,医療法人社団Ｆｅｌｓｅｎｂｕｒｇ,,その他の設立登記法人,神奈川県,横浜市西区,北幸２丁目１番２２号ナガオカビル６階,,14,103,2200004,,,,,,,2022-03-23,1,,,,,フェルゼンブルク,0
1330,6021001075461,新規,0,2022-03-23,2022-03-23,株式会社ｐｕｂｌｉｃ　ａｎｄ　ｃｏ,,株式会社,神奈川県,鎌倉市,大町１丁目１－１４ＨＡＴＳＵ鎌倉,,14,204,2480007,,,,,,,2022-03-23,1,,,,,パブリックアンドコー,0
1331,6021001075486,新規,0,2022-03-23,2022-03-23,株式会社高瀬工務店,,株式会社,神奈川県,相模原市中央区,田名１８７８－６,,14,152,2520244,,,,,,,2022-03-23,1,,,,,タカセコウムテン,0
1338,6030001147360,新規,0,2022-03-23,2022-03-23,株式会社Ｌｏｏｓｅ,,株式会社,埼玉県,さいたま市南区,曲本４丁目６番４号,,11,108,3360033,,,,,,,2022-03-23,1,,,,,ルース,0
1339,6030001147377,新規,0,2022-03-23,2022-03-23,岸田茶屋株式会社,,株式会社,埼玉県,さいたま市大宮区,桜木町２丁目３番地大宮マルイ７階,,11,103,3300854,,,,,,,2022-03-23,1,,,,,キシダチャヤ,0
1354,6040001122701,新規,0,2022-03-23,2022-03-23,ライフトラスト・ディベロップメント株式会社,,株式会社,千葉県,習志野市,奏の杜２丁目１７番１０号ウエスト奏の杜１０２号,,12,216,2750028,,,,,,,2022-03-23,1,,,,,ライフトラストディベロップメント,0
1356,6040003019697,新規,0,2022-03-23,2022-03-23,合同会社バタフライライフウェルネス＆スポーツ,,合同会社,千葉県,習志野市,津田沼１丁目３番１号４Ｆ,,12,216,2750016,,,,,,,2022-03-23,1,,,,,,0
1357,6040003019722,新規,0,2022-03-23,2022-03-23,ＴＡＩ合同会社,,合同会社,千葉県,佐倉市,染井野５丁目６７番地３３,,12,212,2850831,,,,,,,2022-03-23,1,,,,,ティーエーアイ,0
1370,6080401025698,新規,0,2022-03-23,2022-03-23,株式会社Ｎ＆Ｕ,,株式会社,静岡県,浜松市中区,萩丘４丁目１３番５号,,22,131,4338121,,,,,,,2022-03-23,1,,,,,エヌアンドユウ,0
1372,6100001035178,新規,0,2022-03-23,2022-03-23,欅塗工株式会社,,株式会社,長野県,塩尻市,大字広丘原新田２２５番地１２,,20,215,3990706,,,,,,,2022-03-23,1,,,,,ケヤキトコウ,0
1385,6120001244644,新規,0,2022-03-23,2022-03-23,株式会社Ｇｅｅｋｅｒ,,株式会社,大阪府,大阪市東成区,大今里４丁目１７番８号,,27,115,5370012,,,,,,,2022-03-23,1,,,,,ギーカー,0
1386,6120003021315,新規,0,2022-03-23,2022-03-23,合同会社Ｒｅｍｏｃｏｎ,,合同会社,大阪府,大阪市北区,長柄西１丁目３番５４－１３１６号,,27,127,5310061,,,,,,,2022-03-23,1,,,,,リモコン,0
1387,6120003021323,新規,0,2022-03-23,2022-03-23,合同会社カクオン,,合同会社,大阪府,守口市,寺内町２丁目７番２９－４０２号,,27,209,5700056,,,,,,,2022-03-23,1,,,,,カクオン,0
1388,6120005022848,新規,0,2022-03-23,2022-03-23,ＮＰＯ法人Ｄｉｓｃｏｖｅｒｙ　Ｓｃｈｏｏｌ,,その他の設立登記法人,大阪府,大阪市天王寺区,東高津町８－１－２階,,27,109,5430021,,,,,,,2022-03-23,1,,,,,ディスカバリースクール,0
1390,6120103004616,新規,0,2022-03-23,2022-03-23,ウルミス合同会社,,合同会社,大阪府,和泉市,鶴山台４丁目１４番２号,,27,219,5940013,,,,,,,2022-03-23,1,,,,,ウルミス,0
1392,6120901045729,新規,0,2022-03-23,2022-03-23,ＫＩＬＩＮ　ＴＥＣ株式会社,,株式会社,大阪府,豊中市,曽根東町２丁目１１番１－８２２号,,27,203,5610802,,,,,,,2022-03-23,1,,,,,キリンテック,0
1393,6120901045745,新規,0,2022-03-23,2022-03-23,株式会社ｏｆｆｉｃｅ　ｋ,,株式会社,大阪府,吹田市,南吹田３丁目４番２６号,,27,205,5640043,,,,,,,2022-03-23,1,,,,,オフィスケー,0
1396,6130001071352,新規,0,2022-03-23,2022-03-23,株式会社ｃｌａｓｓｙ　Ｍ　ｓｔｙｌｅ,,株式会社,京都府,久世郡久御山町,市田東大門１番地１,,26,322,6130022,,,,,,,2022-03-23,1,,,,,クラッシィエムスタイル,0
1401,6140001125330,新規,0,2022-03-23,2022-03-23,株式会社ロジマル,,株式会社,兵庫県,芦屋市,浜芦屋町４番１号,00126028,28,206,6590054,,,,,,,2022-03-23,1,,,,,ロジマル,0
1402,6140001125339,新規,0,2022-03-23,2022-03-23,Ｎｏ７株式会社,,株式会社,兵庫県,尼崎市,塚口本町２丁目２７番１２号,,28,202,6610001,,,,,,,2022-03-23,1,,,,,ナンバーセブン,0
1403,6140001125347,新規,0,2022-03-23,2022-03-23,株式会社ＫＩＧ兵庫,,株式会社,兵庫県,神戸市長田区,細田町５丁目２番２５号ライオンビル東館２０３,,28,106,6530835,,,,,,,2022-03-23,1,,,,,ケーアイジーヒョウゴ,0
1407,6140005026079,新規,0,2022-03-23,2022-03-23,特定非営利活動法人ＴＥＡＭ・あげあげ,,その他の設立登記法人,兵庫県,加古川市,西神吉町岸５２２番の１サザンスクエア加古川１４０５号,,28,210,6750045,,,,,,,2022-03-23,1,,,,,チームアゲアゲ,0
1412,6170001017021,新規,0,2022-03-23,2022-03-23,株式会社前嶋工業,,株式会社,和歌山県,東牟婁郡那智勝浦町,大字朝日２丁目２４８番地,,30,421,6495332,,,,,,,2022-03-23,1,,,,,マエジマコウギョウ,0
1416,6180001150498,新規,0,2022-03-23,2022-03-23,株式会社ＴＥＲＲＡｃｏ．,,株式会社,愛知県,名古屋市緑区,細口１丁目１０８番地の３,,23,114,4580006,,,,,,,2022-03-23,1,,,,,テラコ,0
1417,6180001150515,新規,0,2022-03-23,2022-03-23,株式会社楓工業,,株式会社,愛知県,一宮市,一宮字中島北１６番地１,,23,203,4910059,,,,,,,2022-03-23,1,,,,,カエデコウギョウ,0
1419,6180003023644,新規,0,2022-03-23,2022-03-23,合同会社鳳凰,,合同会社,愛知県,稲沢市,高重町屋敷１８番地３,,23,220,4928422,,,,,,,2022-03-23,1,,,,,ホウオウ,0
1422,6190001029238,新規,0,2022-03-23,2022-03-23,株式会社ＣＡＭＩＯＮ　ＷＡＬＫＳ,,株式会社,三重県,桑名市,星見ヶ丘３丁目５０７番地オーズメゾー星見ヶ丘１０２号,,24,205,5110912,,,,,,,2022-03-23,1,,,,,カミオンワークス,0
1434,6240001059485,新規,0,2022-03-23,2022-03-23,株式会社シスコン,,株式会社,広島県,東広島市,黒瀬町国近５１０－１,,34,212,7392502,,,,,,,2022-03-23,1,,,,,シスコン,0
1452,6290001096887,新規,0,2022-03-23,2022-03-23,株式会社そよぎデザイン,,株式会社,福岡県,福岡市博多区,吉塚６丁目１１番１６号,,40,132,8120041,,,,,,,2022-03-23,1,,,,,ソヨギデザイン,0
1453,6290001096895,新規,0,2022-03-23,2022-03-23,株式会社ＦＩＦＴＹ　ＦＩＶＥ,,株式会社,福岡県,福岡市博多区,博多駅南１丁目５番２７号１階,,40,132,8120016,,,,,,,2022-03-23,1,,,,,フィフティファイブ,0
1454,6290003012289,新規,0,2022-03-23,2022-03-23,合同会社風来坊,,合同会社,福岡県,福岡市南区,大橋３丁目２－１－７０５,,40,134,8150033,,,,,,,2022-03-23,1,,,,,フウライボウ,0
1455,6290003012297,新規,0,2022-03-23,2022-03-23,合同会社サンマルゴ,,合同会社,福岡県,久留米市,津福本町１７０－１０ルネックス花畑２－１,,40,203,8300047,,,,,,,2022-03-23,1,,,,,サンマルゴ,0
1458,6290803004089,新規,0,2022-03-23,2022-03-23,合同会社まつぼっくり,,合同会社,福岡県,築上郡上毛町,大字土佐井７９２番地２,,40,646,8710921,,,,,,,2022-03-23,1,,,,,マツボックリ,0
1459,6300001012850,新規,0,2022-03-23,2022-03-23,朝日工務株式会社,,株式会社,佐賀県,嬉野市,嬉野町大字岩屋川内丙８５９番地３,,41,209,8430304,,,,,,,2022-03-23,1,,,,,アサヒコウム,0
1465,6330001029561,新規,0,2022-03-23,2022-03-23,株式会社ＭＫ・ライズ,,株式会社,熊本県,熊本市南区,富合町南田尻字江崎９６８番地,,43,104,8614155,,,,,,,2022-03-23,1,,,,,エムケーライズ,0
1470,6340001024586,新規,0,2022-03-23,2022-03-23,株式会社ＯＳＡＫＯ　ｆａｒｍ,,株式会社,鹿児島県,出水市,高尾野町江内４１６４番地３,,46,208,8990407,,,,,,,2022-03-23,1,,,,,オオサコファーム,0
1472,6360001030153,新規,0,2022-03-23,2022-03-23,ＫＨＭ株式会社,,株式会社,沖縄県,那覇市,おもろまち１丁目３番１２号６階,,47,201,9000006,,,,,,,2022-03-23,1,,,,,ケイエイチエム,0
1473,6360003011886,新規,0,2022-03-23,2022-03-23,合同会社屋宜土質エンジニア,,合同会社,沖縄県,中頭郡北中城村,字島袋１４０２番地７,,47,327,9012301,,,,,,,2022-03-23,1,,,,,ヤギドシツエンジニア,0
1481,6380005012550,新規,0,2022-03-23,2022-03-23,税理士法人あらい経営会計,,その他の設立登記法人,福島県,郡山市,鶴見坦１丁目５番１号コーポビル３０１,,07,203,9638861,,,,,,,2022-03-23,1,,,,,アライケイエイカイケイ,0
1483,6400003002914,新規,0,2022-03-23,2022-03-23,合同会社ハルノ企画,,合同会社,岩手県,一関市,大町４番１１号,,03,209,0210881,,,,,,,2022-03-23,1,,,,,ハルノキカク,0
1489,6430001086238,新規,0,2022-03-23,2022-03-23,株式会社ＭＥＲ　ＡＵＴＯ,,株式会社,北海道,小樽市,長橋３丁目１３番２３号,,01,203,0470036,,,,,,,2022-03-23,1,,,,,メルオート,0
1490,6430003013735,新規,0,2022-03-23,2022-03-23,合同会社アールティー,,合同会社,北海道,札幌市厚別区,厚別西三条３丁目４番１３号,,01,108,0040063,,,,,,,2022-03-23,1,,,,,アールティー,0
1501,6490001010142,新規,0,2022-03-23,2022-03-23,株式会社西川水産,,株式会社,高知県,高岡郡中土佐町,久礼６２２４番地５４,,39,401,7891301,,,,,,,2022-03-23,1,,,,,ニシカワスイサン,0
1503,6500001024074,新規,0,2022-03-23,2022-03-23,株式会社ＮＵＴＳ　Ｃ．Ｃ,,株式会社,愛媛県,四国中央市,土居町蕪崎２６３４番地２,,38,213,7990724,,,,,,,2022-03-23,1,,,,,ナッツシーシー,0
1506,6700150107469,新規,0,2022-03-23,2022-03-23,Ａｌｇｏｄｏｒ　Ｌｉｍｉｔｅｄ,,外国会社等,東京都,新宿区,新宿２丁目９番２２号多摩川新宿ビル３階,,13,104,1600022,英領西インド諸島、ケイマン諸島、グランドケイマン、ジョージタウン、エルジン通り１９０、ウォーカーズ・フィデューシャリー・リミテッド,,,,,,2022-03-23,1,,,,,アルゴドルリミテツド,0
1512,7010001225274,新規,0,2022-03-23,2022-03-23,Ｂｅｙｏｎｄａｂｉｌｉｔｙ株式会社,,株式会社,東京都,千代田区,丸の内１丁目１１－１パシフィックセンチュリープレイス１３階,,13,101,1000005,,,,,,,2022-03-23,1,,,,,ビヨンダビリティ,0
1513,7010001225381,新規,0,2022-03-23,2022-03-23,ＣｉｒｃｕｌＡｒｔ株式会社,,株式会社,東京都,千代田区,九段南１丁目５番６号りそな九段ビル５階ＫＳフロア,,13,101,1020074,,,,,,,2022-03-23,1,,,,,サーキュラート,0
1514,7010001225398,新規,0,2022-03-23,2022-03-23,株式会社コスタインターナショナル,,株式会社,東京都,千代田区,神田神保町３丁目１０番地,,13,101,1010051,,,,,,,2022-03-23,1,,,,,コスタインターナショナル,0
1515,7010001225415,新規,0,2022-03-23,2022-03-23,Ｃｏｃｏ．ｌｅｏエステート株式会社,,株式会社,東京都,中央区,日本橋浜町２丁目４５番２－２０３号,,13,102,1030007,,,,,,,2022-03-23,1,,,,,ココレオエステート,0
1518,7010003037305,新規,0,2022-03-23,2022-03-23,ＲＢソーラースカイ合同会社,,合同会社,東京都,千代田区,麹町２丁目８番地ＭＬＣ麹町ビル４階フィンポート税理士法人内,,13,101,1020083,,,,,,,2022-03-23,1,,,,,アールビーソーラースカイ,0
1519,7010003037313,新規,0,2022-03-23,2022-03-23,フォレストソーラーウェイ合同会社,,合同会社,東京都,千代田区,丸の内３丁目１番１号,,13,101,1000005,,,,,,,2022-03-23,1,,,,,フォレストソーラーウェイ,0
1520,7010005034754,新規,0,2022-03-23,2022-03-23,一般社団法人産直ドミノ基金,,その他の設立登記法人,東京都,千代田区,岩本町１丁目１０番３号,,13,101,1010032,,,,,,,2022-03-23,1,,,,,サンチョクドミノキキン,0
1527,7010501048613,新規,0,2022-03-23,2022-03-23,株式会社ＮＥＸＴ　ＡＣＣＥＳＳ,,株式会社,東京都,台東区,上野３丁目２２番２号大久保ビル３階,,13,106,1100005,,,,,,,2022-03-23,1,,,,,ネクストアクセス,0
1539,7011001146386,新規,0,2022-03-23,2022-03-23,６Ｄ株式会社,,株式会社,東京都,目黒区,祐天寺１丁目１５番６号柳沢ビル２Ｆ,,13,110,1530052,,,,,,,2022-03-23,1,,,,,シックスディ,0
1544,7011003014384,新規,0,2022-03-23,2022-03-23,合同会社伊優光,,合同会社,東京都,目黒区,三田２丁目３番２０号ｐｅｅｒｌｅｓｓＢ１Ｆ,,13,110,1530062,,,,,,,2022-03-23,1,,,,,イユリ,0
1548,7011701025138,新規,0,2022-03-23,2022-03-23,リプロ不動産株式会社,,株式会社,東京都,江戸川区,瑞江２丁目１－１４長塚第２ビル６０７号室,,13,123,1320011,,,,,,,2022-03-23,1,,,,,リプロフドウサン,0
1549,7011703003091,新規,0,2022-03-23,2022-03-23,合同会社ラピート,,合同会社,東京都,江戸川区,小松川１丁目２－１－１４０６,,13,123,1320034,,,,,,,2022-03-23,1,,,,,ラピート,0
1550,7011801040482,新規,0,2022-03-23,2022-03-23,株式会社ＲａＲｅ,,株式会社,東京都,足立区,鹿浜２丁目２５番１８号,,13,121,1230864,,,,,,,2022-03-23,1,,,,,レア,0
1552,7011803005021,新規,0,2022-03-23,2022-03-23,佰利合同会社,,合同会社,東京都,足立区,六月３丁目５番７号,,13,121,1210814,,,,,,,2022-03-23,1,,,,,ハクリ,0
1559,7012801021472,新規,0,2022-03-23,2022-03-23,株式会社Ｗｅｌｌｎｅｃｔ,,株式会社,東京都,国分寺市,東恋ヶ窪２丁目２４－１Ｍ’ｓＣｏｕｒｔ国分寺２０９,,13,214,1850014,,,,,,,2022-03-23,1,,,,,ウェルネクト,0
1567,7013303006094,新規,0,2022-03-23,2022-03-23,Ｔ’ｓ合同会社,,合同会社,東京都,豊島区,東池袋１丁目３４番５号いちご東池袋ビル６階,,13,116,1700013,,,,,,,2022-03-23,1,,,,,ティーズ,0
1569,7020001145736,新規,0,2022-03-23,2022-03-23,株式会社Ｕｎｉｑｕｅ．,,株式会社,神奈川県,川崎市中原区,上小田中１丁目２８－１－３０５エバーグリーンフォレスト,,14,133,2110053,,,,,,,2022-03-23,1,,,,,ユニーク,0
1570,7020001145760,新規,0,2022-03-23,2022-03-23,株式会社リプラス,,株式会社,神奈川県,横浜市西区,中央２丁目４５番７号,,14,103,2200051,,,,,,,2022-03-23,1,,,,,リプラス,0
1573,7021001075428,新規,0,2022-03-23,2022-03-23,株式会社Ｓポワール,,株式会社,神奈川県,相模原市緑区,上九沢１３８番地３,,14,151,2520136,,,,,,,2022-03-23,1,,,,,エスポワール,0
1574,7021001075485,新規,0,2022-03-23,2022-03-23,株式会社Ｊ＆Ｈ,,株式会社,神奈川県,厚木市,戸室３丁目１６番３５号,,14,212,2430031,,,,,,,2022-03-23,1,,,,,ジェイアンドエイチ,0
1592,7040001122675,新規,0,2022-03-23,2022-03-23,株式会社ＵＡＩ,,株式会社,千葉県,千葉市美浜区,若葉３丁目１番地１８幕張ベイパーククロスレジデンスＳ２－１,,12,106,2610014,,,,,,,2022-03-23,1,,,,,ユーエーアイ,0
1595,7040003019705,新規,0,2022-03-23,2022-03-23,合同会社ＪＫ,,合同会社,千葉県,船橋市,西習志野４丁目１８番１８号スカイハイツ２０２号,,12,204,2740815,,,,,,,2022-03-23,1,,,,,ジェイケイ,0
1600,7050003006446,新規,0,2022-03-23,2022-03-23,合同会社にじのかけはし,,合同会社,茨城県,ひたちなか市,新光町３８番地ひたちなかテクノセンター,,08,221,3120005,,,,,,,2022-03-23,1,,,,,ニジノカケハシ,0
1602,7060003003995,新規,0,2022-03-23,2022-03-23,合同会社にじのもり,,合同会社,栃木県,宇都宮市,富士見が丘４丁目２７－２３,,09,201,3200011,,,,,,,2022-03-23,1,,,,,ニジノモリ,0
1607,7080101023167,新規,0,2022-03-23,2022-03-23,株式会社河津浜玉翠,,株式会社,静岡県,賀茂郡河津町,浜３５７番地,,22,302,4130513,,,,,,,2022-03-23,1,,,,,カワヅハマギョクスイ,0
1609,7090001017490,新規,0,2022-03-23,2022-03-23,Ｔｏｍｏｒｒｏｗ　ｎｅｖｅｒ　ｋｎｏｗｓ株式会社,,株式会社,山梨県,北杜市,高根町清里３５４５－３５７－Ｂ,,19,209,4070301,,,,,,,2022-03-23,1,,,,,トゥモローネバーノウズ,0
1611,7100001035177,新規,0,2022-03-23,2022-03-23,株式会社明結興業,,株式会社,長野県,長野市,篠ノ井岡田字水押５５３番４、５５９番１,,20,201,3812225,,,,,,,2022-03-23,1,,,,,メイユウコウギョウ,0
1613,7110001036521,新規,0,2022-03-23,2022-03-23,株式会社ｆ＆ｖｅｉｎ,,株式会社,新潟県,新潟市西区,寺尾東３丁目５番１０号,,15,107,9502054,,,,,,,2022-03-23,1,,,,,エフヴェイン,0
1625,7120001244569,新規,0,2022-03-23,2022-03-23,Ｖｉｇｏｒ　Ｅｘｐｒｅｓｓ株式会社,,株式会社,大阪府,大阪市北区,豊崎３丁目１６番１６－１１０１号,,27,127,5310072,,,,,,,2022-03-23,1,,,,,ヴィガーエクスプレス,0
1626,7120001244602,新規,0,2022-03-23,2022-03-23,株式会社ＪＡＮＥ,,株式会社,大阪府,大阪市中央区,北浜１丁目１番１９号ベレーザ北浜ビル２Ｆ,,27,128,5410041,,,,,,,2022-03-23,1,,,,,ジェーン,0
1629,7120003021330,新規,0,2022-03-23,2022-03-23,ＳＡＨＡＲＡ　ＧＬＯＢＡＬ合同会社,,合同会社,大阪府,大阪市淀川区,新北野３丁目１１番１８－５０１号,,27,123,5320025,,,,,,,2022-03-23,1,,,,,サハラグローバル,0
1630,7120005022847,新規,0,2022-03-23,2022-03-23,一般社団法人非常電源整備協会,,その他の設立登記法人,大阪府,大阪市淀川区,西中島６丁目３番３２号,,27,123,5320011,,,,,,,2022-03-23,1,,,,,ヒジョウデンゲンセイビキョウカイ,0
1639,7120905006296,新規,0,2022-03-23,2022-03-23,特定非営利活動法人ニジュエル,,その他の設立登記法人,大阪府,茨木市,中津町１９番１７号の１,,27,211,5670824,,,,,,,2022-03-23,1,,,,,ニジュエル,0
1642,7122001035691,新規,0,2022-03-23,2022-03-23,株式会社Ｌｕｍｉｅｒｅ　Ｉｒｉｓｅｅ,,株式会社,大阪府,八尾市,萱振町２丁目１２７番地の２,,27,212,5810834,,,,,,,2022-03-23,1,,,,,ルミエールイリゼ,0
1645,7130001071384,新規,0,2022-03-23,2022-03-23,株式会社Ｒ,,株式会社,京都府,京都市伏見区,東菱屋町４２４番地,,26,109,6128355,,,,,,,2022-03-23,1,,,,,アール,0
1646,7130001071392,新規,0,2022-03-23,2022-03-23,株式会社関西ＥＶ給電機サービス,,株式会社,京都府,京都市下京区,西橋詰町７６２京栄中央ビル６階,,26,106,6000000,,,,,,,2022-03-23,1,,,,,カンサイイーブイキュウデンキサービス,0
1650,7140001125338,新規,0,2022-03-23,2022-03-23,アシヤ・ラヂヲ株式会社,,株式会社,兵庫県,西宮市,苦楽園三番町２番５０号,,28,204,6620081,,,,,,,2022-03-23,1,,,,,アシヤラヂヲ,0
1651,7140001125346,新規,0,2022-03-23,2022-03-23,株式会社よしむら総合コンサルティング,,株式会社,兵庫県,明石市,松の内２丁目６番地の２アルファステイツ西明石駅８０１号,,28,203,6730016,,,,,,,2022-03-23,1,,,,,ヨシムラソウゴウコンサルティング,0
1653,7140003017483,新規,0,2022-03-23,2022-03-23,ＪＴＡテクノス合同会社,,合同会社,兵庫県,尼崎市,東園田町６丁目１９番地の３パストラル東園田１０７号,,28,202,6610953,,,,,,,2022-03-23,1,,,,,ジェイティエーテクノス,0
1654,7140005026078,新規,0,2022-03-23,2022-03-23,一般社団法人ＥＮＧＩＮＥ,,その他の設立登記法人,兵庫県,姫路市,二階町３番地,,28,201,6700922,,,,,,,2022-03-23,1,,,,,エンジン,0
1655,7140005026086,新規,0,2022-03-23,2022-03-23,医療法人社団ＳＨＩＧＹＯ　ＭＥＤＩＣＡＬ,,その他の設立登記法人,兵庫県,尼崎市,大庄中通１丁目７０番,,28,202,6600075,,,,,,,2022-03-23,1,,,,,シギョウメディカル,0
1658,7160003002517,新規,0,2022-03-23,2022-03-23,合同会社レディアンツ,,合同会社,滋賀県,愛知郡愛荘町,島川１１７９番地,,25,425,5291223,,,,,,,2022-03-23,1,,,,,,0
1659,7170001017020,新規,0,2022-03-23,2022-03-23,株式会社Ｌｉｖｉｎｇ‐ｉｎ,,株式会社,和歌山県,和歌山市,黒田８７番地１３、２Ｆ,,30,201,6408341,,,,,,,2022-03-23,1,,,,,リビングイン,0
1667,7180001150456,新規,0,2022-03-23,2022-03-23,株式会社ＡＣＥ,,株式会社,愛知県,春日井市,町屋町３９７２番地５,,23,206,4860809,,,,,,,2022-03-23,1,,,,,エース,0
1668,7180001150464,新規,0,2022-03-23,2022-03-23,愛知サンハウス株式会社,,株式会社,愛知県,春日井市,勝川町５丁目９２番地６,,23,206,4860945,,,,,,,2022-03-23,1,,,,,アイチサンハウス,0
1669,7180001150480,新規,0,2022-03-23,2022-03-23,Ｐｒｉｍｅ株式会社,,株式会社,愛知県,名古屋市中区,上前津２丁目４番２６号,,23,106,4600013,,,,,,,2022-03-23,1,,,,,プライム,0
1670,7180001150489,新規,0,2022-03-23,2022-03-23,株式会社リアン,,株式会社,愛知県,名古屋市西区,中小田井２丁目４１１番地の１,,23,104,4520822,,,,,,,2022-03-23,1,,,,,リアン,0
1671,7180001150497,新規,0,2022-03-23,2022-03-23,株式会社ｎａｖｙ　ｈａｉｒ,,株式会社,愛知県,名古屋市昭和区,台町２丁目２９番地５,,23,107,4660033,,,,,,,2022-03-23,1,,,,,ネイビーヘアー,0
1672,7180001150514,新規,0,2022-03-23,2022-03-23,株式会社Ｋｓ,,株式会社,愛知県,名古屋市中村区,牛田通３丁目２０番地の４,,23,105,4530853,,,,,,,2022-03-23,1,,,,,ケーズ,0
1682,7200003005507,新規,0,2022-03-23,2022-03-23,パートナーズ合同会社,,合同会社,岐阜県,岐阜市,西川手９丁目１１８番地２,,21,201,5008258,,,,,,,2022-03-23,1,,,,,パートナーズ,0
1684,7230001019282,新規,0,2022-03-23,2022-03-23,株式会社ゼノマート,,株式会社,富山県,南砺市,在房８１５番地,,16,210,9391600,,,,,,,2022-03-23,1,,,,,ゼノマート,0
1688,7240001059484,新規,0,2022-03-23,2022-03-23,株式会社かんスポーツ,,株式会社,広島県,福山市,大門町１丁目４０番７号,,34,207,7210926,,,,,,,2022-03-23,1,,,,,カンスポーツ,0
1690,7250003003027,新規,0,2022-03-23,2022-03-23,合同会社ＮｅｘｔＧｅｎｅｒａｔｉｏｎ,,合同会社,山口県,山口市,小郡下郷２７番地１２,,35,203,7540002,,,,,,,2022-03-23,1,,,,,ネクストジェネレーション,0
1696,7290001096886,新規,0,2022-03-23,2022-03-23,スフレ株式会社,,株式会社,福岡県,福岡市中央区,鳥飼２丁目６番２号,,40,133,8100053,,,,,,,2022-03-23,1,,,,,スフレ,0
1697,7290001096894,新規,0,2022-03-23,2022-03-23,プリズムエンターテインメント株式会社,,株式会社,福岡県,福岡市博多区,吉塚５丁目１１番３３号,,40,132,8120041,,,,,,,2022-03-23,1,,,,,プリズムエンターテインメント,0
1700,7290003012288,新規,0,2022-03-23,2022-03-23,九州再生可能エネルギー開発合同会社,,合同会社,福岡県,福岡市東区,名子３丁目５番３号,,40,131,8130024,,,,,,,2022-03-23,1,,,,,キュウシュウサイセイカノウエネルギーカイハツ,0
1701,7290003012305,新規,0,2022-03-23,2022-03-23,合同会社ＤＧＤ,,合同会社,福岡県,福岡市博多区,店屋町２番１０－４０２号ヨーロピアン冷泉,,40,132,8120025,,,,,,,2022-03-23,1,,,,,ディージーディー,0
1702,7290801028361,新規,0,2022-03-23,2022-03-23,株式会社リベール,,株式会社,福岡県,北九州市八幡東区,昭和１丁目８番１５号,,40,108,8050013,,,,,,,2022-03-23,1,,,,,リベール,0
1703,7310001017773,新規,0,2022-03-23,2022-03-23,ワンステップ株式会社,,株式会社,長崎県,北松浦郡佐々町,古川免１９６番地,,42,391,8570314,,,,,,,2022-03-23,1,,,,,ワンステップ,0
1707,7320001018969,新規,0,2022-03-23,2022-03-23,株式会社神力水産,,株式会社,大分県,佐伯市,蒲江大字蒲江浦３３９９番地,,44,205,8762401,,,,,,,2022-03-23,1,,,,,シンリキスイサン,0
1712,7330003009296,新規,0,2022-03-23,2022-03-23,合同会社ｆｕｕｋｉ,,合同会社,熊本県,熊本市中央区,国府３丁目１０－３０,,43,101,8620949,,,,,,,2022-03-23,1,,,,,フウキ,0
1713,7330005010483,新規,0,2022-03-23,2022-03-23,一般社団法人ユニバ,,その他の設立登記法人,熊本県,熊本市中央区,新屋敷１丁目３番１１－６０１号,,43,101,8620975,,,,,,,2022-03-23,1,,,,,ユニバ,0
1715,7340001024585,新規,0,2022-03-23,2022-03-23,株式会社エース不動産,,株式会社,鹿児島県,霧島市,国分新町１丁目２０番２７号,,46,218,8994351,,,,,,,2022-03-23,1,,,,,エースフドウサン,0
1716,7350001017646,新規,0,2022-03-23,2022-03-23,九州テックジャパン株式会社,,株式会社,宮崎県,都城市,妻ケ丘町２３街区１１の２号,,45,202,8850033,,,,,,,2022-03-23,1,,,,,キュウシュウテックジャパン,0
1717,7360003011885,新規,0,2022-03-23,2022-03-23,合同会社Ｍａｍｍａｌｓ,,合同会社,沖縄県,那覇市,泊１丁目１５番地５エムズガーデンとまり２０２,,47,201,9000012,,,,,,,2022-03-23,1,,,,,マンマルズ,0
1731,7430001086237,新規,0,2022-03-23,2022-03-23,株式会社匠クレア,,株式会社,北海道,札幌市白石区,南郷通１４丁目南５番３－１１１号,,01,104,0030022,,,,,,,2022-03-23,1,,,,,タクミクレア,0
1739,7470001019011,新規,0,2022-03-23,2022-03-23,株式会社プロポジション,,株式会社,香川県,高松市,香西南町１９５番地５,,37,201,7618014,,,,,,,2022-03-23,1,,,,,プロポジション,0
1742,7470005006427,新規,0,2022-03-23,2022-03-23,特定非営利活動法人ＳＴＥＡＭ教育Ｌａｂ．みらいの風,,その他の設立登記法人,香川県,観音寺市,幸町３番２１号,,37,205,7680074,,,,,,,2022-03-23,1,,,,,スティームキョウイクラボミライノカゼ,0
1744,7480001011685,新規,0,2022-03-23,2022-03-23,アンドリペア株式会社,,株式会社,徳島県,徳島市,住吉３丁目８番１８号,,36,201,7700861,,,,,,,2022-03-23,1,,,,,アンドリペア,0
1746,7700150107468,新規,0,2022-03-23,2022-03-23,ＭＯＴＯＲ　ＫＩＮＧ　ＥＮＴＥＲＰＲＩＳＥＳ,,外国会社等,千葉県,茂原市,中の島町６８３番地オフィス３号,,12,210,2970034,スリランカ民主社会主義共和国、キャンディ、ゲリオヤ、ガンポラロード、４１－１,,,,,,2022-03-23,1,,,,,モーターキングエンタープライセス,0
1751,8010001225224,新規,0,2022-03-23,2022-03-23,Ｔ２Ａ株式会社,,株式会社,東京都,千代田区,九段南１丁目５番６号りそな九段ビル５Ｆ,,13,101,1020074,,,,,,,2022-03-23,1,,,,,ティーツーエー,0
1752,8010001225389,新規,0,2022-03-23,2022-03-23,株式会社フジダンホールディングス,,株式会社,東京都,中央区,日本橋大伝馬町１番８号,,13,102,1030011,,,,,,,2022-03-23,1,,,,,フジダンホールディングス,0
1753,8010001225414,新規,0,2022-03-23,2022-03-23,ビジョンアセスメント株式会社,,株式会社,東京都,中央区,銀座７丁目４番１５号ＲＢＭ銀座ビル１階ＺＥＩＳＳＶＩＳＩＯＮＣＥＮＴＥＲ,,13,102,1040061,,,,,,,2022-03-23,1,,,,,ビジョンアセスメント,0
1754,8010003037304,新規,0,2022-03-23,2022-03-23,ＲＢソーラーシャイン合同会社,,合同会社,東京都,千代田区,麹町２丁目８番地ＭＬＣ麹町ビル４階フィンポート税理士法人内,,13,101,1020083,,,,,,,2022-03-23,1,,,,,アールビーソーラーシャイン,0
1755,8010003037312,新規,0,2022-03-23,2022-03-23,合同会社Ｒ２,,合同会社,東京都,中央区,晴海２丁目３番２－２９０９号,,13,102,1040053,,,,,,,2022-03-23,1,,,,,アールツー,0
1760,8010401166332,新規,0,2022-03-23,2022-03-23,株式会社Ｏｎｅ　ｍｏｒｅ　ｔｉｍｅ,,株式会社,東京都,港区,南青山２丁目２番１５号,,13,103,1070062,,,,,,,2022-03-23,1,,,,,ワンモアタイム,0
1761,8010401166349,新規,0,2022-03-23,2022-03-23,ＧｅｅｋＯｕｔ株式会社,,株式会社,東京都,港区,麻布十番２丁目２０番７号,,13,103,1060045,,,,,,,2022-03-23,1,,,,,ギークアウト,0
1767,8010701042407,新規,0,2022-03-23,2022-03-23,株式会社アンフィニ,,株式会社,東京都,品川区,西五反田１丁目７番１号リビオプラグマＧタワー３０６,,13,109,1410031,,,,,,,2022-03-23,1,,,,,アンフィニ,0
1773,8010901050548,新規,0,2022-03-23,2022-03-23,株式会社ＷＡＶＥ,,株式会社,東京都,世田谷区,玉川２丁目１４番１４－１０１号,,13,112,1580094,,,,,,,2022-03-23,1,,,,,ウェーブ,0
1779,8011001146419,新規,0,2022-03-23,2022-03-23,株式会社ＡＥＦ,,株式会社,東京都,渋谷区,松濤１丁目２８番２号,,13,113,1500046,,,,,,,2022-03-23,1,,,,,エーイーエフ,0
1780,8011001146427,新規,0,2022-03-23,2022-03-23,スリープロダクト株式会社,,株式会社,東京都,渋谷区,神宮前６丁目２３番４号,,13,113,1500001,,,,,,,2022-03-23,1,,,,,スリープロダクト,0
1783,8011005009506,新規,0,2022-03-23,2022-03-23,一般社団法人町会会議,,その他の設立登記法人,東京都,渋谷区,恵比寿２丁目３１番５号アクシア広尾９０５,,13,113,1500013,,,,,,,2022-03-23,1,,,,,チョウカイカイギ,0
1787,8011103011586,新規,0,2022-03-23,2022-03-23,ＲＥＹ合同会社,,合同会社,東京都,新宿区,西新宿３丁目３番１３号西新宿水間ビル６階,,13,104,1600023,,,,,,,2022-03-23,1,,,,,レイ,0
1794,8011403003606,新規,0,2022-03-23,2022-03-23,合同会社水坪,,合同会社,東京都,板橋区,中台１丁目２８番１５号プラウド上板橋５０４,,13,119,1740064,,,,,,,2022-03-23,1,,,,,ミズツボ,0
1798,8011701025137,新規,0,2022-03-23,2022-03-23,株式会社サザンクロス,,株式会社,東京都,江戸川区,瑞江１丁目３７番６号,,13,123,1320011,,,,,,,2022-03-23,1,,,,,サザンクロス,0
1799,8011701025145,新規,0,2022-03-23,2022-03-23,株式会社ＥＢＣ,,株式会社,東京都,江戸川区,松島３丁目４番１０号,,13,123,1320031,,,,,,,2022-03-23,1,,,,,イービーシー,0
1802,8011703003090,新規,0,2022-03-23,2022-03-23,合同会社ラグ,,合同会社,東京都,江戸川区,西小岩３丁目２１－２４あい田ビルディング５０２,,13,123,1330057,,,,,,,2022-03-23,1,,,,,ラグ,0
1804,8011801040481,新規,0,2022-03-23,2022-03-23,鴻鵠株式会社,,株式会社,東京都,足立区,新田３丁目３６番１３号１２０２号室,,13,121,1230865,,,,,,,2022-03-23,1,,,,,コウコク,0
1806,8011805003146,新規,0,2022-03-23,2022-03-23,特定非営利活動法人花畑養蜂ボランティア,,その他の設立登記法人,東京都,足立区,花畑４丁目１６番８号足立区花畑地域学習センター,,13,121,1210061,,,,,,,2022-03-23,1,,,,,ハナハタヨウホウボランティア,0
1810,8012801021471,新規,0,2022-03-23,2022-03-23,株式会社ＳＡＭＥＳＨＩＰ,,株式会社,東京都,立川市,富士見町１丁目１０番７号,,13,202,1900013,,,,,,,2022-03-23,1,,,,,セイムシップ,0
1816,8013301048848,新規,0,2022-03-23,2022-03-23,Ｅｌｅｃｓｐａｃｅ株式会社,,株式会社,東京都,豊島区,池袋３丁目３４番７号ビジネスパーク池袋２階,,13,116,1710014,,,,,,,2022-03-23,1,,,,,エレクスペース,0
1829,8020001145743,新規,0,2022-03-23,2022-03-23,ＫＩＣＫ　ＺＡ　ＩＳＳＵＥ株式会社,,株式会社,神奈川県,横浜市港北区,新羽町２２９５－１,,14,109,2230057,,,,,,,2022-03-23,1,,,,,キックザイシュー,0
1830,8020001145751,新規,0,2022-03-23,2022-03-23,株式会社ＦＵ＆ＭＩ,,株式会社,神奈川県,川崎市宮前区,菅生５丁目２番４３号,,14,136,2160015,,,,,,,2022-03-23,1,,,,,,0
1831,8020001145768,新規,0,2022-03-23,2022-03-23,株式会社といろホーム,,株式会社,神奈川県,川崎市幸区,下平間２２３番地３０１,,14,132,2120053,,,,,,,2022-03-23,1,,,,,トイロホーム,0
1834,8020003021471,新規,0,2022-03-23,2022-03-23,合同会社琉球兄弟,,合同会社,神奈川県,横浜市保土ケ谷区,天王町１丁目６番地４,,14,106,2400003,,,,,,,2022-03-23,1,,,,,リュウキュウキョウダイ,0
1840,8030001147367,新規,0,2022-03-23,2022-03-23,志成株式会社,,株式会社,埼玉県,草加市,谷塚仲町３６０番地７,,11,221,3400025,,,,,,,2022-03-23,1,,,,,シセイ,0
1843,8030003019044,新規,0,2022-03-23,2022-03-23,合同会社スリークリエイティブ,,合同会社,埼玉県,行田市,中央１番５号,,11,206,3610078,,,,,,,2022-03-23,1,,,,,スリークリエイティブ,0
1844,8030003019069,新規,0,2022-03-23,2022-03-23,未来損保鑑定合同会社,,合同会社,埼玉県,さいたま市北区,別所町１０００番地１０４,,11,102,3310821,,,,,,,2022-03-23,1,,,,,ミクルソンポカンテイ,0
1850,8040001122682,新規,0,2022-03-23,2022-03-23,株式会社ＲＫＭ,,株式会社,千葉県,四街道市,和良比５２５番地４２,,12,228,2840044,,,,,,,2022-03-23,1,,,,,アールケーエム,0
1852,8040003019679,新規,0,2022-03-23,2022-03-23,合同会社花見川産業保健事務所,,合同会社,千葉県,千葉市花見川区,朝日ケ丘４丁目８―６,,12,102,2620019,,,,,,,2022-03-23,1,,,,,ハナミガワサンギョウホケンジムショ,0
1853,8050001050817,新規,0,2022-03-23,2022-03-23,株式会社ネクサス,,株式会社,茨城県,ひたちなか市,大字足崎２８０番地の１,,08,221,3120003,,,,,,,2022-03-23,1,,,,,ネクサス,0
1855,8050003006437,新規,0,2022-03-23,2022-03-23,ライフサポート合同会社,,合同会社,茨城県,日立市,本宮町５丁目７番１７－１０３号,,08,202,3170054,,,,,,,2022-03-23,1,,,,,ライフサポート,0
1858,8060003003994,新規,0,2022-03-23,2022-03-23,間舘石材合同会社,,合同会社,栃木県,下野市,薬師寺２７８５番地２,,09,216,3290431,,,,,,,2022-03-23,1,,,,,マダテセキザイ,0
1861,8070001039065,新規,0,2022-03-23,2022-03-23,株式会社フォーグ,,株式会社,群馬県,前橋市,箱田町３８８番地５,,10,201,3710837,,,,,,,2022-03-23,1,,,,,フォーグ,0
1866,8080001024818,新規,0,2022-03-23,2022-03-23,ＢＯＮＤＳ株式会社,,株式会社,静岡県,静岡市駿河区,桃園町１５番９－１０２号,,22,102,4210114,,,,,,,2022-03-23,1,,,,,ボンズ,0
1868,8080401025696,新規,0,2022-03-23,2022-03-23,株式会社まろうど浜松西店,,株式会社,静岡県,浜松市西区,佐浜町５４３１番地,,22,133,4311114,,,,,,,2022-03-23,1,,,,,マロウドハママツニシテン,0
1899,8120001244601,新規,0,2022-03-23,2022-03-23,Ｍｙｔｈ建築事務所株式会社,,株式会社,大阪府,大阪市東淀川区,豊里６丁目１５番５－１０１号,,27,114,5330013,,,,,,,2022-03-23,1,,,,,ミスケンチクジムショ,0
1900,8120001244626,新規,0,2022-03-23,2022-03-23,米田建設株式会社,,株式会社,大阪府,大阪市東住吉区,杭全２丁目６番４号,,27,121,5460002,,,,,,,2022-03-23,1,,,,,ヨネダケンセツ,0
1901,8120001244634,新規,0,2022-03-23,2022-03-23,株式会社Ｈ＆Ｋ,,株式会社,大阪府,大阪市東淀川区,大道南２丁目２５番１１号,,27,114,5330012,,,,,,,2022-03-23,1,,,,,エイチアンドケー,0
1909,8122001035690,新規,0,2022-03-23,2022-03-23,株式会社Ｙａｎｄカンパニー,,株式会社,大阪府,東大阪市,長栄寺１１番２２号１０７号室,,27,227,5770055,,,,,,,2022-03-23,1,,,,,ワイアンドカンパニー,0
1911,8130001071391,新規,0,2022-03-23,2022-03-23,株式会社柴田建装,,株式会社,京都府,京都市山科区,勧修寺平田町１４８番地,,26,110,6078214,,,,,,,2022-03-23,1,,,,,シバタケンソウ,0
1916,8140001125337,新規,0,2022-03-23,2022-03-23,株式会社ＴＥＲＡＳＩＡ,,株式会社,兵庫県,芦屋市,三条町３４番１８号,,28,206,6590087,,,,,,,2022-03-23,1,,,,,テラシア,0
1919,8140003017474,新規,0,2022-03-23,2022-03-23,スカイオーシャン合同会社,,合同会社,兵庫県,神戸市中央区,熊内町１丁目４番２－１２０１号,,28,110,6510056,,,,,,,2022-03-23,1,,,,,スカイオーシャン,0
1920,8150003002640,新規,0,2022-03-23,2022-03-23,サミットマネジメント合同会社,,合同会社,奈良県,香芝市,真美ヶ丘１丁目１０－１８,,29,210,6390223,,,,,,,2022-03-23,1,,,,,サミットマネジメント,0
1921,8160001024066,新規,0,2022-03-23,2022-03-23,株式会社Ｍｕｓｃｌｅ　Ｑｕａｌｉｔｙ,,株式会社,滋賀県,草津市,東矢倉２丁目５－３６、１８９ビル５Ｆ,,25,206,5250054,,,,,,,2022-03-23,1,,,,,マッスルクオリティ,0
1925,8180001150455,新規,0,2022-03-23,2022-03-23,株式会社ＵＣＨＩＯ工業,,株式会社,愛知県,大府市,森岡町３丁目２８４番地,,23,223,4740038,,,,,,,2022-03-23,1,,,,,ウチオコウギョウ,0
1926,8180001150513,新規,0,2022-03-23,2022-03-23,株式会社ＭＯＮＡ　ｃｏｍｐａｎｙ,,株式会社,愛知県,名古屋市昭和区,御器所３丁目１９番１８号カームそうえん２０１号室,,23,107,4660051,,,,,,,2022-03-23,1,,,,,モナカンパニー,0
1937,8200003005506,新規,0,2022-03-23,2022-03-23,合同会社ハーフクリーク,,合同会社,岐阜県,揖斐郡揖斐川町,脛永９２３番地,,21,401,5010622,,,,,,,2022-03-23,1,,,,,ハーフクリーク,0
1938,8210003001479,新規,0,2022-03-23,2022-03-23,合同会社ＣＯＭ企画,,合同会社,福井県,福井市,市波町第１６号８番地１,,18,201,9102222,,,,,,,2022-03-23,1,,,,,コムキカク,0
1942,8230001019281,新規,0,2022-03-23,2022-03-23,株式会社ＢＯＸＬＡＢ,,株式会社,富山県,魚津市,北鬼江２８０６番地２,,16,204,9370066,,,,,,,2022-03-23,1,,,,,ボックスラボ,0
1943,8240001059491,新規,0,2022-03-23,2022-03-23,株式会社マルシン,,株式会社,広島県,福山市,新涯町４丁目８番２５号,,34,207,7210955,,,,,,,2022-03-23,1,,,,,マルシン,0
1951,8260003003850,新規,0,2022-03-23,2022-03-23,合同会社アクセスポイント,,合同会社,岡山県,岡山市北区,駅前町１丁目８番１号新光ビル岡山５階,,33,101,7000023,,,,,,,2022-03-23,1,,,,,アクセスポイント,0
1967,8290001096885,新規,0,2022-03-23,2022-03-23,株式会社九州カーリース,,株式会社,福岡県,福岡市中央区,大名２丁目２番１－７０５号,,40,133,8100041,,,,,,,2022-03-23,1,,,,,キュウシュウカーリース,0
1972,8290801028369,新規,0,2022-03-23,2022-03-23,株式会社ジー・エス,,株式会社,福岡県,直方市,大字植木１９３１番地１,,40,204,8220031,,,,,,,2022-03-23,1,,,,,ジーエス,0
1978,8350001017645,新規,0,2022-03-23,2022-03-23,株式会社ＢＡＳＫ,,株式会社,宮崎県,宮崎市,昭栄町１１９番地,,45,201,8800833,,,,,,,2022-03-23,1,,,,,バスク,0
1982,8370005010454,新規,0,2022-03-23,2022-03-23,特定非営利活動法人Ｓｉｄｅ　ｂｙ　ｓｉｄｅ,,その他の設立登記法人,宮城県,仙台市宮城野区,小田原２丁目２番４６号高橋ビル１階,,04,102,9830803,,,,,,,2022-03-23,1,,,,,サイドバイサイド,0
1986,8380001032666,新規,0,2022-03-23,2022-03-23,株式会社ＴＡＳＵＫＵ建設,,株式会社,福島県,いわき市,東田町２丁目６番地の２エルディム大町１０３,,07,204,9748212,,,,,,,2022-03-23,1,,,,,タスクケンセツ,0
1987,8380001032674,新規,0,2022-03-23,2022-03-23,株式会社ケーアライズ,,株式会社,福島県,二本松市,油井字証拠屋敷１４３番地２,,07,210,9691404,,,,,,,2022-03-23,1,,,,,ケーアライズ,0
1997,8420003002480,新規,0,2022-03-23,2022-03-23,合同会社北川運送,,合同会社,青森県,青森市,赤坂２丁目４４番２号,,02,201,0300956,,,,,,,2022-03-23,1,,,,,キタガワウンソウ,0
2003,8430003013741,新規,0,2022-03-23,2022-03-23,合同会社Ｌａ　Ｐｏｒｔｅ　Ｋ,,合同会社,北海道,札幌市中央区,南十七条西７丁目２番１５－１５０５号,,01,101,0640917,,,,,,,2022-03-23,1,,,,,ラポルトケイ,0
2004,8450001013642,新規,0,2022-03-23,2022-03-23,株式会社ガレージ・ミヤジマ,,株式会社,北海道,雨竜郡北竜町,字板谷１０７番地１,,01,437,0782511,,,,,,,2022-03-23,1,,,,,ガレージミヤジマ,0
2005,8460101007155,新規,0,2022-03-23,2022-03-23,株式会社十字式整体院,,株式会社,北海道,足寄郡足寄町,里見が丘３番地の５,,01,647,0893732,,,,,,,2022-03-23,1,,,,,ジュウジシキセイタイイン,0
2007,8460105002235,新規,0,2022-03-23,2022-03-23,医療法人ハート歯科クリニック,,その他の設立登記法人,北海道,帯広市,西九条南１０丁目３番地１パシフィック白樺通パルトネール２０６,,01,207,0800019,,,,,,,2022-03-23,1,,,,,,0
2009,8460405000541,新規,0,2022-03-23,2022-03-23,一般社団法人Ｏ’ｈａｎａ,,その他の設立登記法人,北海道,根室市,清隆町１丁目３３番地１,,01,223,0870042,,,,,,,2022-03-23,1,,,,,オハナ,0
2010,8470001019010,新規,0,2022-03-23,2022-03-23,株式会社Ｇｏｏ　ｔｏｕｃｈ,,株式会社,香川県,丸亀市,土器町西１丁目７５９番地,,37,202,7630081,,,,,,,2022-03-23,1,,,,,グータッチ,0
2015,8500001024072,新規,0,2022-03-23,2022-03-23,大日株式会社,,株式会社,愛媛県,大洲市,菅田町菅田甲９８８番地,,38,207,7950081,,,,,,,2022-03-23,1,,,,,ダイニチ,0
2023,9010001225363,新規,0,2022-03-23,2022-03-23,木村産業株式会社,,株式会社,東京都,中央区,日本橋蛎殻町１丁目３番５号共同ビル２階２３号,,13,102,1030014,,,,,,,2022-03-23,1,,,,,キムラサンギョウ,0
2024,9010001225388,新規,0,2022-03-23,2022-03-23,株式会社ランドメイク,,株式会社,東京都,中央区,銀座８丁目５番６号,,13,102,1040061,,,,,,,2022-03-23,1,,,,,ランドメイク,0
2026,9010003037286,新規,0,2022-03-23,2022-03-23,合同会社エンブリオ,,合同会社,東京都,中央区,東日本橋２丁目２８番４号日本橋ＣＥＴビル２階,,13,102,1030004,,,,,,,2022-03-23,1,,,,,エンブリオ,0
2027,9010003037303,新規,0,2022-03-23,2022-03-23,ＲＢソーラームーン合同会社,,合同会社,東京都,千代田区,麹町２丁目８番地ＭＬＣ麹町ビル４階フィンポート税理士法人内,,13,101,1020083,,,,,,,2022-03-23,1,,,,,アールビーソーラームーン,0
2028,9010003037311,新規,0,2022-03-23,2022-03-23,ライズシステムズ合同会社,,合同会社,東京都,中央区,銀座１丁目２２番１１号銀座大竹ビジデンス２階,,13,102,1040061,,,,,,,2022-03-23,1,,,,,ライズシステムズ,0
2032,9010005034752,新規,0,2022-03-23,2022-03-23,一般社団法人電子帳簿＆電子インボイス制度研究会,,その他の設立登記法人,東京都,中央区,銀座１丁目１６番５号銀座三田ビル４Ｆ,,13,102,1040061,,,,,,,2022-03-23,1,,,,,デンシチョウボアンドデンシインボイスセイドケンキュウカイ,0
2053,9010403027317,新規,0,2022-03-23,2022-03-23,合同会社西,,合同会社,東京都,港区,高輪４丁目２４番２７号５０２,,13,103,1080074,,,,,,,2022-03-23,1,,,,,ニシ,0
2055,9010505003298,新規,0,2022-03-23,2022-03-23,医療法人社団ＨＯＬＯＳ,,その他の設立登記法人,東京都,台東区,蔵前４丁目２０番４号蔵前四ビル１階,,13,106,1110051,,,,,,,2022-03-23,1,,,,,ホロス,0
2069,9011001146401,新規,0,2022-03-23,2022-03-23,ｇｍｊｐ株式会社,,株式会社,東京都,渋谷区,恵比寿南３丁目５番７号デジタルゲートビル,,13,113,1500022,,,,,,,2022-03-23,1,,,,,ジーエムジェイピー,0
2070,9011001146475,新規,0,2022-03-23,2022-03-23,株式会社Ｍ＆Ｊ,,株式会社,東京都,渋谷区,道玄坂１丁目１０番８号渋谷道玄坂東急ビル２Ｆ－Ｃ,,13,113,1500043,,,,,,,2022-03-23,1,,,,,エムアンドジェー,0
2086,9011603003553,新規,0,2022-03-23,2022-03-23,合同会社Ｒ,,合同会社,東京都,練馬区,高松５丁目６番３－８０１号,,13,120,1790075,,,,,,,2022-03-23,1,,,,,アール,0
2087,9011701025136,新規,0,2022-03-23,2022-03-23,ホームビルド株式会社,,株式会社,東京都,江戸川区,東葛西５丁目１番６号,,13,123,1340084,,,,,,,2022-03-23,1,,,,,ホームビルド,0
2088,9011703003098,新規,0,2022-03-23,2022-03-23,合同会社くら甚,,合同会社,東京都,江戸川区,下篠崎町２１番２号,,13,123,1330064,,,,,,,2022-03-23,1,,,,,クラジン,0
2089,9011801040480,新規,0,2022-03-23,2022-03-23,株式会社安野興業,,株式会社,東京都,足立区,古千谷本町３丁目１０番１４号,,13,121,1210832,,,,,,,2022-03-23,1,,,,,ヤスノコウギョウ,0
2094,9012801021462,新規,0,2022-03-23,2022-03-23,株式会社Ｎｅｗ　Ｃｌｕｂ　Ｐｉｎｋｙ,,株式会社,東京都,立川市,錦町１丁目３番２５号丸三ビル３階,,13,202,1900022,,,,,,,2022-03-23,1,,,,,ニュークラブピンキー,0
2095,9012803002733,新規,0,2022-03-23,2022-03-23,合同会社花和,,合同会社,東京都,東大和市,芋窪６丁目１２９６番地１３,,13,220,2070033,,,,,,,2022-03-23,1,,,,,ハナワ,0
2100,9013303006084,新規,0,2022-03-23,2022-03-23,合同会社ＳＨＲＥＥＪＡＬ,,合同会社,東京都,豊島区,高松１丁目１８番６号,,13,116,1710042,,,,,,,2022-03-23,1,,,,,シュリージャル,0
2107,9020001145676,新規,0,2022-03-23,2022-03-23,株式会社横浜和泉,,株式会社,神奈川県,横浜市青葉区,荏田西５丁目１番地３６,,14,117,2250014,,,,,,,2022-03-23,1,,,,,ヨコハマイズミ,0
2108,9020001145750,新規,0,2022-03-23,2022-03-23,株式会社島大,,株式会社,神奈川県,横浜市戸塚区,戸塚町４７９０番地３,,14,110,2440003,,,,,,,2022-03-23,1,,,,,シマダイ,0
2109,9020001145767,新規,0,2022-03-23,2022-03-23,株式会社スラッシュ,,株式会社,神奈川県,横浜市都筑区,牛久保東１丁目２５番１６号オランジェ２０３号,,14,118,2240014,,,,,,,2022-03-23,1,,,,,スラッシュ,0
2117,9021001075442,新規,0,2022-03-23,2022-03-23,アンドアップ株式会社,,株式会社,神奈川県,逗子市,逗子５丁目２番５３号,,14,208,2490006,,,,,,,2022-03-23,1,,,,,アンドアップ,0
2138,9040001122640,新規,0,2022-03-23,2022-03-23,株式会社リベル,,株式会社,千葉県,流山市,思井４３６番地,,12,220,2700154,,,,,,,2022-03-23,1,,,,,リベル,0
2139,9040001122715,新規,0,2022-03-23,2022-03-23,株式会社アイエスコールド,,株式会社,千葉県,佐倉市,城１９１番地１１７,,12,212,2850815,,,,,,,2022-03-23,1,,,,,アイエスコールド,0
2142,9050001050832,新規,0,2022-03-23,2022-03-23,龍騰金属株式会社,,株式会社,茨城県,結城市,大字大木１５７１,,08,207,3070031,,,,,,,2022-03-23,1,,,,,リュウトウキンゾク,0
2146,9060001034669,新規,0,2022-03-23,2022-03-23,イチカ工業株式会社,,株式会社,栃木県,那須塩原市,下永田７丁目１０５６番地８８,,09,213,3292712,,,,,,,2022-03-23,1,,,,,イチカコウギョウ,0
2152,9070001039064,新規,0,2022-03-23,2022-03-23,株式会社彩海,,株式会社,群馬県,太田市,中根町３７０番地３,,10,205,3730846,,,,,,,2022-03-23,1,,,,,サイカ,0
2158,9100003006471,新規,0,2022-03-23,2022-03-23,テクトーン合同会社,,合同会社,長野県,諏訪市,大字中洲５３０６番地１Ａ棟,,20,206,3920015,,,,,,,2022-03-23,1,,,,,テクトーン,0
2176,9120001244583,新規,0,2022-03-23,2022-03-23,株式会社晃,,株式会社,大阪府,門真市,四宮６丁目５番７号,,27,223,5710017,,,,,,,2022-03-23,1,,,,,アキラ,0
2177,9120001244591,新規,0,2022-03-23,2022-03-23,株式会社葵,,株式会社,大阪府,大阪市大正区,平尾３丁目２４番１２号,,27,108,5510012,,,,,,,2022-03-23,1,,,,,アオイ,0
2178,9120001244625,新規,0,2022-03-23,2022-03-23,株式会社ＩＥＩＴ,,株式会社,大阪府,大阪市西淀川区,大野３丁目４番２１号,,27,113,5550043,,,,,,,2022-03-23,1,,,,,イエイット,0
2183,9120005022853,新規,0,2022-03-23,2022-03-23,一般社団法人国際ＳＤＧｓ機構,,その他の設立登記法人,大阪府,守口市,八雲西町２丁目１０番１５号ヨドガワコーポレーションビル２Ｆ,,27,209,5700006,,,,,,,2022-03-23,1,,,,,コクサイエスディージーズキコウ,0
2185,9122001035698,新規,0,2022-03-23,2022-03-23,株式会社ｓｕｒｐｒｉｓｅ,,株式会社,大阪府,八尾市,北本町２丁目１４番２７－５０１号,,27,212,5810802,,,,,,,2022-03-23,1,,,,,シュルプリーズ,0
2189,9130001071390,新規,0,2022-03-23,2022-03-23,ファンディーナ株式会社,,株式会社,京都府,京都市中京区,河原町通夷川上る指物町３２８番地,,26,104,6040903,,,,,,,2022-03-23,1,,,,,ファンディーナ,0
2197,9140001125328,新規,0,2022-03-23,2022-03-23,株式会社新西工業,,株式会社,兵庫県,神戸市西区,糀台３丁目４番地の１５,,28,111,6512273,,,,,,,2022-03-23,1,,,,,シンセイコウギョウ,0
2198,9140001125336,新規,0,2022-03-23,2022-03-23,株式会社シラサギファーム,,株式会社,兵庫県,姫路市,下手野１丁目３番１号,,28,201,6700063,,,,,,,2022-03-23,1,,,,,シラサギファーム,0
2199,9140001125344,新規,0,2022-03-23,2022-03-23,えびす工業株式会社,,株式会社,兵庫県,神戸市兵庫区,七宮町１丁目７番２２号,,28,105,6520831,,,,,,,2022-03-23,1,,,,,エビスコウギョウ,0
2200,9140001125352,新規,0,2022-03-23,2022-03-23,株式会社テクニワーク,,株式会社,兵庫県,川西市,滝山町２０番２－６０４号,,28,217,6660002,,,,,,,2022-03-23,1,,,,,テクニワーク,0
2201,9140002071174,新規,0,2022-03-23,2022-03-23,有限会社ニシキ開発,,有限会社,兵庫県,神戸市中央区,花隈町１０５番地の２第二長尾ビル３階,,28,110,6500013,,,,,,,2022-03-23,1,,,,,ニシキカイハツ,0
2202,9140003017481,新規,0,2022-03-23,2022-03-23,ＥＫＯＭＫＡＲ合同会社,,合同会社,兵庫県,神戸市須磨区,月見山本町１丁目５番２６－９０２号,,28,107,6540051,,,,,,,2022-03-23,1,,,,,エコムカール,0
2216,9180001150487,新規,0,2022-03-23,2022-03-23,株式会社ＨＡＺＥ,,株式会社,愛知県,北名古屋市,中之郷栗島４８番地,,23,234,4810045,,,,,,,2022-03-23,1,,,,,ヒーズ,0
2224,9190003003931,新規,0,2022-03-23,2022-03-23,いちどろ合同会社,,合同会社,三重県,鈴鹿市,平田新町１番４６号,,24,207,5130845,,,,,,,2022-03-23,1,,,,,イチドロ,0
2226,9200001039876,新規,0,2022-03-23,2022-03-23,株式会社恵興業,,株式会社,岐阜県,恵那市,大井町２２１６番地１５,,21,210,5097201,,,,,,,2022-03-23,1,,,,,メグミコウギョウ,0
2227,9210001018854,新規,0,2022-03-23,2022-03-23,株式会社エンジョブ,,株式会社,福井県,福井市,新田塚１丁目７０番１号,,18,201,9100067,,,,,,,2022-03-23,1,,,,,エンジョブ,0
2233,9230001019280,新規,0,2022-03-23,2022-03-23,ミチシタ商会株式会社,,株式会社,富山県,魚津市,青島３７７番地２,,16,204,9370063,,,,,,,2022-03-23,1,,,,,ミチシタショウカイ,0
2236,9240003005559,新規,0,2022-03-23,2022-03-23,Ａ管理合同会社,,合同会社,広島県,広島市南区,大須賀町１４番１２号第一ビル１Ｆ,,34,103,7320821,,,,,,,2022-03-23,1,,,,,エーカンリ,0
2240,9250003003025,新規,0,2022-03-23,2022-03-23,合同会社Ｌｉｌａｓ,,合同会社,山口県,下関市,秋根北町９番２５号パレス新下関１０１号室,,35,201,7510876,,,,,,,2022-03-23,1,,,,,リラ,0
2242,9260001036653,新規,0,2022-03-23,2022-03-23,株式会社ＴＮＴ情報サービス,,株式会社,岡山県,小田郡矢掛町,西川面１３９７番地５,,33,461,7141222,,,,,,,2022-03-23,1,,,,,ティーエヌティージョウホウサービス,0
2247,9290001096793,新規,0,2022-03-23,2022-03-23,株式会社メイクアップ,,株式会社,福岡県,福岡市早良区,百道１丁目１番１５号,,40,137,8140006,,,,,,,2022-03-23,1,,,,,メイクアップ,0
2248,9290001096851,新規,0,2022-03-23,2022-03-23,グローバル製紙株式会社,,株式会社,福岡県,大川市,大字鐘ケ江５８２番地３２,,40,212,8310008,,,,,,,2022-03-23,1,,,,,グローバルセイシ,0
2249,9290001096868,新規,0,2022-03-23,2022-03-23,株式会社マゼンタプロダクツ,,株式会社,福岡県,飯塚市,本町１１番８号オーヴィジョン飯塚本町９０５号,,40,205,8200042,,,,,,,2022-03-23,1,,,,,マゼンタプロダクツ,0
2250,9290001096884,新規,0,2022-03-23,2022-03-23,株式会社貴コーポレーション,,株式会社,福岡県,糟屋郡粕屋町,酒殿１丁目６番８号,,40,349,8112303,,,,,,,2022-03-23,1,,,,,タカコーポレーション,0
2263,9340001024583,新規,0,2022-03-23,2022-03-23,株式会社エムテック,,株式会社,鹿児島県,鹿児島市,中山町５４０２番地２１,,46,201,8910105,,,,,,,2022-03-23,1,,,,,エムテック,0
2268,9350003004046,新規,0,2022-03-23,2022-03-23,合同会社エスポワール,,合同会社,宮崎県,児湯郡新富町,大字下富田４４４４番地５１,,45,402,8891404,,,,,,,2022-03-23,1,,,,,エスポワール,0
2270,9360001030150,新規,0,2022-03-23,2022-03-23,株式会社仲盛,,株式会社,沖縄県,糸満市,字武富３６５番地,,47,210,9010311,,,,,,,2022-03-23,1,,,,,ナカモリ,0
2271,9360001030159,新規,0,2022-03-23,2022-03-23,株式会社城憲,,株式会社,沖縄県,中頭郡中城村,字北上原８９２番地３,,47,328,9012423,,,,,,,2022-03-23,1,,,,,シロケン,0
2273,9360003011883,新規,0,2022-03-23,2022-03-23,合同会社Ｏｆｆｉｃｅ　ＳＥＮＡ,,合同会社,沖縄県,沖縄市,高原４丁目１１番３号,,47,211,9042171,,,,,,,2022-03-23,1,,,,,オフィスセナ,0
2285,9430003013732,新規,0,2022-03-23,2022-03-23,アート工房合同会社,,合同会社,北海道,札幌市白石区,本郷通１２丁目南２番１７号,,01,104,0030024,,,,,,,2022-03-23,1,,,,,アートコウボウ,0
2290,9480001011683,新規,0,2022-03-23,2022-03-23,株式会社西野建設,,株式会社,徳島県,美馬市,脇町大字北庄９７９番地１,,36,207,7793604,,,,,,,2022-03-23,1,,,,,ニシノケンセツ,0
