sequenceNumber,corporateNumber,process,correct,updateDate,changeDate,name,nameImageId,kind,prefectureName,cityName,streetNumber,addressImageId,prefectureCode,cityCode,postCode,addressOutside,addressOutsideImageId,closeDate,closeCause,successorCorporateNumber,changeCause,assignmentDate,latest,enName,enPrefectureName,enCityName,enAddressOutside,furigana,hihyoji
17,1010002044258,登記記録の閉鎖等,0,2023-11-01,2023-10-24,有限会社ボニータ,,有限会社,東京都,文京区,音羽１丁目２０番１６号,,13,105,1120013,,,2023-10-24,清算の結了等,,,2015-10-05,1,,,,,ボニータ,0
26,1010403027497,登記記録の閉鎖等,0,2023-11-01,2023-10-25,Ｓｅｅｄ合同会社,,合同会社,東京都,世田谷区,深沢４丁目４番２０号,,13,112,1580081,,,2023-10-25,清算の結了等,,,2022-04-15,1,,,,,シード,0
32,1010601059862,登記記録の閉鎖等,0,2023-11-01,2023-10-27,ライフサポート株式会社,,株式会社,東京都,江東区,有明３丁目７番２６号有明フロンティアビルＢ棟９階,,13,108,1350063,,,2023-10-27,清算の結了等,,,2021-08-30,1,,,,,ライフサポート,0
36,1010801008990,登記記録の閉鎖等,0,2023-11-01,2023-10-30,日本ディジタル株式会社,,株式会社,東京都,大田区,東馬込２丁目１９番１１号,,13,111,1430022,,,2023-10-30,清算の結了等,,,2015-10-05,1,,,,,ニホンディジタル,0
44,1011001126658,登記記録の閉鎖等,0,2023-11-01,2023-10-30,アスタス株式会社,,株式会社,東京都,多摩市,関戸５丁目１５番地の１３スカール聖蹟桜ヶ丘３０４,,13,224,2060011,,,2023-10-30,清算の結了等,,,2019-02-20,1,,,,,アスタス,0
60,1011103007707,登記記録の閉鎖等,0,2023-11-01,2023-10-18,寄付ナビ合同会社,,合同会社,東京都,千代田区,神田錦町１丁目６番２階,,13,101,1010054,,,2023-10-18,合併による解散等,3010001172974,令和５年１０月１日東京都千代田区神田錦町一丁目６番２階株式会社バリオーサマーケティング（3010001172974）に合併し解散,2018-03-22,1,,,,,キフナビ,0
68,1011801001969,登記記録の閉鎖等,0,2023-11-01,2023-10-27,株式会社昭和テツク,,株式会社,東京都,葛飾区,立石８丁目１５番７号,,13,122,1240012,,,2023-10-27,清算の結了等,,,2015-10-05,1,,,,,ショウワテツク,0
71,1012401020401,登記記録の閉鎖等,0,2023-11-01,2023-10-27,株式会社アーバンインベスト,,株式会社,東京都,調布市,深大寺北町２丁目３６番地５,,13,208,1820011,,,2023-10-27,清算の結了等,,,2015-10-05,1,,,,,アーバンインベスト,0
86,1020001050438,登記記録の閉鎖等,0,2023-11-01,2023-10-20,株式会社ＵＮＯ．,,株式会社,神奈川県,横浜市中区,相生町４丁目７６ラタンビル,,14,104,2310012,,,2023-10-20,清算の結了等,,,2015-10-05,1,,,,,,0
89,1020001075996,登記記録の閉鎖等,0,2023-11-01,2023-10-23,株式会社ポーレック,,株式会社,神奈川県,川崎市高津区,下作延６丁目３０番３号,,14,134,2130033,,,2023-10-23,清算の結了等,,,2015-10-05,1,,,,,ポーレック,0
109,1030001041576,登記記録の閉鎖等,0,2023-11-01,2023-10-19,首都圏開発株式会社,,株式会社,埼玉県,上尾市,大字菅谷４１１番地の３,,11,219,3620003,,,2023-10-19,清算の結了等,,,2015-10-05,1,,,,,シュトケンカイハツ,0
121,1030001125503,登記記録の閉鎖等,0,2023-11-01,2023-10-19,株式会社リノ,,株式会社,埼玉県,川口市,弥平３丁目１２番５号,,11,203,3320002,,,2023-10-19,清算の結了等,,,2018-05-08,1,,,,,リノ,0
129,1040001092643,登記記録の閉鎖等,0,2023-11-01,2023-10-23,株式会社Ｉ＆Ｓコンサルティング,,株式会社,千葉県,富里市,日吉台３丁目１３番地９第８印東マンション３０４,,12,233,2860201,,,2023-10-23,清算の結了等,,,2015-11-06,1,,,,,,0
134,1040002012286,登記記録の閉鎖等,0,2023-11-01,2023-10-20,吉田倉庫有限会社,,有限会社,千葉県,千葉市若葉区,若松町９１２番地,,12,104,2640021,,,2023-10-20,清算の結了等,,,2015-10-05,1,,,,,ヨシダソウコ,0
145,1060002019899,登記記録の閉鎖等,0,2023-11-01,2023-10-30,有限会社川田油店,,有限会社,栃木県,鹿沼市,上日向４２番地２,,09,205,3220076,,,2023-10-30,清算の結了等,,,2015-10-05,1,,,,,カワタアブラテン,0
160,1110002012163,登記記録の閉鎖等,0,2023-11-01,2023-10-27,有限会社日本電話衛生協会,,有限会社,新潟県,新潟市西蒲区,新保３番地６,,15,108,9530014,,,2023-10-27,清算の結了等,,,2015-10-05,1,,,,,ニホンデンワエイセイキョウカイ,0
176,1120902010827,登記記録の閉鎖等,0,2023-11-01,2023-10-30,有限会社豊浦電工,,有限会社,大阪府,高槻市,西冠１丁目１番２１号Ｂ棟１０７,,27,207,5690055,,,2023-10-30,清算の結了等,,,2015-10-05,1,,,,,トヨウラデンコウ,0
184,1140001042349,登記記録の閉鎖等,0,2023-11-01,2023-10-27,株式会社ごこう,,株式会社,兵庫県,宍粟市,山崎町山崎４３７番地,,28,227,6712577,,,2023-10-27,清算の結了等,,,2015-10-05,1,,,,,ゴコウ,0
199,1180001114573,登記記録の閉鎖等,0,2023-11-01,2023-10-30,株式会社Ｄ商事,,株式会社,愛知県,名古屋市中区,丸の内３丁目７番１９号,,23,106,4600002,,,2023-10-30,清算の結了等,,,2015-10-05,1,,,,,ディーショウジ,0
200,1180001116181,登記記録の閉鎖等,0,2023-11-01,2023-10-24,株式会社知万宝,,株式会社,愛知県,名古屋市昭和区,福江３丁目５番１５号,,23,107,4660059,,,2023-10-24,清算の結了等,,,2015-10-05,1,,,,,チマンホウ,0
210,1200002005406,登記記録の閉鎖等,0,2023-11-01,2023-10-31,有限会社ユーデン,,有限会社,岐阜県,岐阜市,南蝉１丁目３番地,,21,201,5020852,,,2023-10-31,清算の結了等,,,2015-10-05,1,,,,,ユーデン,0
213,1200003001049,登記記録の閉鎖等,0,2023-11-01,2023-10-31,合資会社坂本鉄工所,,合資会社,岐阜県,山県市,椎倉１８４番地,,21,215,5012103,,,2023-10-31,清算の結了等,,,2015-10-05,1,,,,,サカモトテッコウショ,0
215,1220002001948,登記記録の閉鎖等,0,2023-11-01,2023-10-27,有限会社神野商事,,有限会社,石川県,金沢市,神野３丁目６９番地１,,17,201,9200368,,,2023-10-27,清算の結了等,,,2015-10-05,1,,,,,カミノショウジ,0
224,1250001009139,登記記録の閉鎖等,0,2023-11-01,2023-10-30,中根海運株式会社,,株式会社,山口県,周南市,築港町１２番２２号,,35,215,7450025,,,2023-10-30,清算の結了等,,,2015-10-05,1,,,,,ナカネカイウン,0
225,1250001010360,登記記録の閉鎖等,0,2023-11-01,2023-10-30,株式会社山文,,株式会社,山口県,光市,室積３丁目８番１７号,,35,210,7430007,,,2023-10-30,清算の結了等,,,2015-10-05,1,,,,,ヤマブン,0
233,1290001000440,登記記録の閉鎖等,0,2023-11-01,2023-10-17,株式会社西商,,株式会社,福岡県,福岡市西区,下山門２丁目１番８号,,40,135,8190052,,,2023-10-17,合併による解散等,4290001035228,令和５年１０月１日福岡市南区向野二丁目８番１８号西部ガスリアルライフ福岡株式会社（4290001035228）に合併し解散,2015-10-05,1,,,,,ニッショウ,0
260,1360001018351,登記記録の閉鎖等,0,2023-11-01,2023-10-27,沖縄プロテイントモグラフィー株式会社,,株式会社,沖縄県,国頭郡恩納村,字谷茶１９１９番地１,,47,311,9040412,,,2023-10-27,清算の結了等,,,2015-10-05,1,,,,,オキナワプロテイントモグラフィー,0
263,1370002004787,登記記録の閉鎖等,0,2023-11-01,2023-10-27,カズサ有限会社,,有限会社,東京都,北区,十条仲原１丁目２５番７号,,13,117,1140031,,,2023-10-27,清算の結了等,,,2015-10-05,1,,,,,カズサ,0
264,1370002011593,登記記録の閉鎖等,0,2023-11-01,2023-10-30,有限会社商業企画,,有限会社,宮城県,仙台市青葉区,小松島３丁目６番２３コーポ小松島５０４号室,,04,101,9810905,,,2023-10-30,清算の結了等,,,2015-10-05,1,,,,,ショウギョウキカク,0
275,1410002006325,登記記録の閉鎖等,0,2023-11-01,2023-10-27,有限会社吉田工産,,有限会社,秋田県,潟上市,天王字追分西２番地９８,,05,211,0100101,,,2023-10-27,清算の結了等,,,2015-10-05,1,,,,,ヨシダコウサン,0
277,1430001012958,登記記録の閉鎖等,0,2023-11-01,2023-10-20,株式会社ニユーフルヤ,,株式会社,北海道,札幌市白石区,菊水元町八条２丁目４番１６号,,01,104,0030828,,,2023-10-20,清算の結了等,,,2015-10-05,1,,,,,ニューフルヤ,0
278,1430001067515,登記記録の閉鎖等,0,2023-11-01,2023-10-23,株式会社Ｕ２,,株式会社,北海道,札幌市清田区,北野二条２丁目５番１５号,,01,110,0040862,,,2023-10-23,清算の結了等,,,2015-10-05,1,,,,,ユーツー,0
293,1470002014454,登記記録の閉鎖等,0,2023-11-01,2023-10-31,有限会社リップス,,有限会社,香川県,善通寺市,善通寺町１７５０番地,,37,204,7650004,,,2023-10-31,清算の結了等,,,2015-10-05,1,,,,,リップス,0
304,2010001150865,登記記録の閉鎖等,0,2023-11-01,2023-10-25,山佐２００４ＨＫ２リース株式会社,,株式会社,東京都,千代田区,丸の内３丁目１番１号東京共同会計事務所内,,13,101,1000005,,,2023-10-25,清算の結了等,,,2015-10-05,1,,,,,ヤマサニセンヨンエイチケイニリース,0
329,2010603008065,登記記録の閉鎖等,0,2023-11-01,2023-10-30,ＢＩＫＫＩ　ＪＡＰＡＮ合同会社,,合同会社,東京都,江東区,南砂５丁目２１番１－８０２号,,13,108,1360076,,,2023-10-30,清算の結了等,,,2019-11-11,1,,,,,ビッキジャパン,0
330,2010701035985,登記記録の閉鎖等,0,2023-11-01,2023-10-24,株式会社キャスト,,株式会社,東京都,世田谷区,桜１丁目５０番３号ル・シエル１０２,,13,112,1560053,,,2023-10-24,清算の結了等,,,2018-06-18,1,,,,,キャスト,0
333,2010803003659,登記記録の閉鎖等,0,2023-11-01,2023-10-30,ＴＫサポート合同会社,,合同会社,東京都,大田区,仲六郷２丁目１１番６号,,13,111,1440055,,,2023-10-30,清算の結了等,,,2021-03-01,1,,,,,ティーケーサポート,0
338,2011001060757,登記記録の閉鎖等,0,2023-11-01,2023-10-26,デイサポート株式会社,,株式会社,東京都,渋谷区,幡ヶ谷３丁目３９番１２号渋谷ウェストビル１階,,13,113,1510072,,,2023-10-26,清算の結了等,,,2015-10-05,1,,,,,デイサポート,0
340,2011001128934,登記記録の閉鎖等,0,2023-11-01,2023-10-20,株式会社エースプランニング,,株式会社,東京都,目黒区,上目黒１丁目２６－１中目黒アトラスタワー３４０７,,13,110,1530051,,,2023-10-20,清算の結了等,,,2019-07-08,1,,,,,エースプランニング,0
347,2011002012195,登記記録の閉鎖等,0,2023-11-01,2023-10-26,有限会社マルダイ商会,,有限会社,東京都,渋谷区,宇田川町６番１１－２０６号,,13,113,1500042,,,2023-10-26,清算の結了等,,,2015-10-05,1,,,,,マルダイショウカイ,0
361,2012402020267,登記記録の閉鎖等,0,2023-11-01,2023-10-30,有限会社三浦電設,,有限会社,東京都,三鷹市,野崎１丁目２番２号,,13,204,1810014,,,2023-10-30,清算の結了等,,,2015-10-05,1,,,,,,0
366,2020001075698,登記記録の閉鎖等,0,2023-11-01,2023-10-20,株式会社ＫＴＣ,,株式会社,神奈川県,川崎市川崎区,京町１丁目１６番２８号,,14,131,2100848,,,2023-10-20,清算の結了等,,,2015-10-05,1,,,,,,0
389,2030002061374,登記記録の閉鎖等,0,2023-11-01,2023-10-20,有限会社新洋ショッピングセンター,,有限会社,埼玉県,新座市,畑中１丁目１０番２７号,,11,230,3520012,,,2023-10-20,清算の結了等,,,2015-10-05,1,,,,,シンヨウショッピングセンター,0
390,2030002070342,登記記録の閉鎖等,0,2023-11-01,2023-10-20,有限会社倉持建設,,有限会社,埼玉県,北葛飾郡杉戸町,大字椿７８６番地,,11,464,3450013,,,2023-10-20,清算の結了等,,,2015-10-05,1,,,,,クラモチケンセツ,0
401,2030005019584,登記記録の閉鎖等,0,2023-11-01,2023-09-27,一般社団法人月田橋清流の郷農場,,その他の設立登記法人,埼玉県,東松山市,大字上唐子３０４番地,,11,212,3550077,,,2023-09-27,清算の結了等,,,2019-09-02,1,,,,,ツキタバシセイリュウノサトノウジョウ,0
404,2040001076001,登記記録の閉鎖等,0,2023-11-01,2023-10-23,株式会社Ｇ－アライメント,,株式会社,千葉県,佐倉市,木野子字大山３６２番地,,12,212,2850801,,,2023-10-23,清算の結了等,,,2015-10-05,1,,,,,ジーアライメント,0
410,2040002062933,登記記録の閉鎖等,0,2023-11-01,2023-10-20,有限会社山屋電器,,有限会社,千葉県,印旛郡酒々井町,東酒々井１丁目１番１５,,12,322,2850923,,,2023-10-20,清算の結了等,,,2015-10-05,1,,,,,ヤマヤデンキ,0
422,2060002030013,登記記録の閉鎖等,0,2023-11-01,2023-10-27,有限会社エムケーライフ,,有限会社,栃木県,真岡市,久下田５２２番地１,,09,209,3214521,,,2023-10-27,清算の結了等,,,2015-10-05,1,,,,,エムケーライフ,0
441,2120001163988,登記記録の閉鎖等,0,2023-11-01,2023-10-25,株式会社ＹＳ２１,,株式会社,大阪府,大阪市此花区,島屋６丁目２番１４－２１０８号,,27,104,5540024,,,2023-10-25,清算の結了等,,,2015-10-05,1,,,,,ワイエスニジュウイチ,0
451,2120002052637,登記記録の閉鎖等,0,2023-11-01,2023-10-27,有限会社アズミ産商,,有限会社,大阪府,摂津市,新在家１丁目２１番７号,,27,224,5660055,,,2023-10-27,清算の結了等,,,2015-10-05,1,,,,,アズミサンショウ,0
463,2122001003876,登記記録の閉鎖等,0,2023-11-01,2023-10-30,大一鋼業株式会社,,株式会社,大阪府,東大阪市,東鴻池町２丁目２番６２号,,27,227,5780973,,,2023-10-30,清算の結了等,,,2015-10-05,1,,,,,ダイイチコウギョウ,0
471,2140001120632,登記記録の閉鎖等,0,2023-11-01,2023-10-20,株式会社パソナ日本創生大学校,,株式会社,兵庫県,淡路市,岩屋２９４２番地２６,,28,226,6562401,,,2023-10-20,合併による解散等,5140001122519,令和５年１０月１日兵庫県淡路市岩屋２９４２番地２６株式会社パソナＨＲ　ＨＵＢ（5140001122519）に合併し解散,2021-03-04,1,,,,,パソナニホンソウセイダイガッコウ,0
483,2180001024375,登記記録の閉鎖等,0,2023-11-01,2023-10-27,御幸運送株式会社,,株式会社,愛知県,名古屋市天白区,元八事４丁目３５番地,,23,116,4680066,,,2023-10-27,清算の結了等,,,2015-10-05,1,,,,,ミユキウンソウ,0
484,2180001097470,登記記録の閉鎖等,0,2023-11-01,2023-10-30,株式会社スズキプレス金型,,株式会社,愛知県,愛西市,森川町堤外１１７番地の２,,23,232,4960943,,,2023-10-30,清算の結了等,,,2015-10-05,1,,,,,スズキプレスカナガタ,0
488,2180001112089,登記記録の閉鎖等,0,2023-11-01,2023-10-27,白慎建設株式会社,,株式会社,愛知県,知多市,寺本台２丁目６番地８,,23,224,4780003,,,2023-10-27,清算の結了等,,,2015-10-05,1,,,,,ハクシンケンセツ,0
493,2180002021603,登記記録の閉鎖等,0,2023-11-01,2023-10-30,ジャパン・インダストリー有限会社,,有限会社,愛知県,名古屋市天白区,植田西１丁目５２０番地,,23,116,4680058,,,2023-10-30,清算の結了等,,,2015-10-05,1,,,,,ジャパンインダストリー,0
499,2180302022524,登記記録の閉鎖等,0,2023-11-01,2023-10-24,有限会社ダイエーシステム,,有限会社,愛知県,豊田市,本地町３丁目２１番地３８,,23,211,4710848,,,2023-10-24,清算の結了等,,,2015-10-05,1,,,,,ダイエーシステム,0
501,2200001021279,登記記録の閉鎖等,0,2023-11-01,2023-10-30,株式会社久野製陶所,,株式会社,岐阜県,土岐市,土岐津町土岐口２１６１番地,,21,212,5095122,,,2023-10-30,清算の結了等,,,2015-10-05,1,,,,,クノセイトウジョ,0
511,2240002027998,登記記録の閉鎖等,0,2023-11-01,2023-10-30,有限会社坪島睦会,,有限会社,広島県,東広島市,西条町西条１９８番地の３,,34,212,7390001,,,2023-10-30,清算の結了等,,,2015-10-05,1,,,,,ツボシマムツミカイ,0
519,2290001026880,登記記録の閉鎖等,0,2023-11-01,2023-10-18,株式会社ワイエスコーポレーション,,株式会社,福岡県,福岡市南区,中尾１丁目１４番１０号,,40,134,8111364,,,2023-10-18,清算の結了等,,,2015-10-05,1,,,,,ワイエスコーポレーション,0
524,2290001091082,登記記録の閉鎖等,0,2023-11-01,2023-10-23,株式会社ジャンコ,,株式会社,福岡県,福岡市博多区,綱場町４－１１－７０１,,40,132,8120024,,,2023-10-23,清算の結了等,,,2020-11-27,1,,,,,ジャンコ,0
533,2340001016182,登記記録の閉鎖等,0,2023-11-01,2023-10-31,建築工房数寄屋株式会社,,株式会社,鹿児島県,鹿児島市,紫原２丁目３９番６号,,46,201,8900082,,,2023-10-31,清算の結了等,,,2015-10-05,1,,,,,ケンチクコウボウスキヤ,0
534,2350002004037,登記記録の閉鎖等,0,2023-11-01,2023-10-26,株式会社日豊メディック,,株式会社,宮崎県,宮崎市,大字芳士１０９８番地７,,45,201,8800123,,,2023-10-26,清算の結了等,,,2015-10-05,1,,,,,ニッポウメディック,0
553,2400001013396,登記記録の閉鎖等,0,2023-11-01,2023-10-20,株式会社モリオカ技工,,株式会社,岩手県,盛岡市,みたけ２丁目４番２７号,,03,201,0200122,,,2023-10-20,清算の結了等,,,2016-10-07,1,,,,,,0
565,2430005013258,登記記録の閉鎖等,0,2023-11-01,2023-10-20,一般社団法人居住支援協会,,その他の設立登記法人,北海道,札幌市中央区,南十四条西６丁目６－１３,,01,101,0640914,,,2023-10-20,清算の結了等,,,2017-10-11,1,,,,,キョジュウシエンキョウカイ,0
570,2480002005402,登記記録の閉鎖等,0,2023-11-01,2023-10-31,有限会社リン・テクノサービス,,有限会社,徳島県,徳島市,山城西３丁目５１番地５,,36,201,7708054,,,2023-10-31,清算の結了等,,,2015-10-05,1,,,,,リンテクノサービス,0
577,3010001025810,登記記録の閉鎖等,0,2023-11-01,2023-10-25,西川不動産株式会社,,株式会社,東京都,千代田区,神田富山町１８番地,,13,101,1010043,,,2023-10-25,清算の結了等,,,2015-10-05,1,,,,,ニシカワフドウサン,0
580,3010001150864,登記記録の閉鎖等,0,2023-11-01,2023-10-25,山佐２００４ＨＫ１リース株式会社,,株式会社,東京都,千代田区,丸の内３丁目１番１号東京共同会計事務所内,,13,101,1000005,,,2023-10-25,清算の結了等,,,2015-10-05,1,,,,,ヤマサニセンヨンエイチケイイチリース,0
588,3010003020438,登記記録の閉鎖等,0,2023-11-01,2023-10-26,ＲＰＪ名古屋錦合同会社,,合同会社,東京都,港区,赤坂１丁目７番１号,,13,103,1070052,,,2023-10-26,清算の結了等,,,2015-10-05,1,,,,,アールピージェイナゴヤニシキ,0
591,3010005020015,登記記録の閉鎖等,0,2023-11-01,2023-10-27,銀座大栄ビル一般社団法人,,その他の設立登記法人,東京都,千代田区,丸の内３丁目１番１号東京共同会計事務所内,,13,101,1000005,,,2023-10-27,清算の結了等,,,2015-10-05,1,,,,,ギンザダイエイビル,0
593,3010401029626,登記記録の閉鎖等,0,2023-11-01,2023-10-25,森隆工機株式会社,,株式会社,東京都,港区,芝公園１丁目３番９号,,13,103,1050011,,,2023-10-25,清算の結了等,,,2015-10-05,1,,,,,モリリュウコウキ,0
594,3010401062684,登記記録の閉鎖等,0,2023-11-01,2023-10-30,ゼーレ・マンシャフト株式会社,,株式会社,東京都,世田谷区,等々力５丁目２６番１２号,,13,112,1580082,,,2023-10-30,合併による解散等,7010401035364,令和５年１０月１日東京都港区赤坂４－２－８赤坂金春ビル５階Ｂリアルリンク株式会社（7010401035364）に合併し解散,2015-10-05,1,,,,,,0
636,3012401007272,登記記録の閉鎖等,0,2023-11-01,2023-10-27,株式会社飯野商事,,株式会社,東京都,調布市,布田４丁目９番地４,,13,208,1820024,,,2023-10-27,清算の結了等,,,2015-10-05,1,,,,,イイノショウジ,0
660,3021002019800,登記記録の閉鎖等,0,2023-11-01,2023-10-26,有限会社ケンエステート,,有限会社,神奈川県,相模原市南区,麻溝台７丁目２８番２８号,,14,153,2520328,,,2023-10-26,清算の結了等,,,2015-10-05,1,,,,,ケンエステート,0
661,3021002046019,登記記録の閉鎖等,0,2023-11-01,2023-10-25,有限会社映峰産業,,有限会社,神奈川県,綾瀬市,上土棚中１丁目９番３９－２０４号,,14,218,2521113,,,2023-10-25,清算の結了等,,,2015-10-05,1,,,,,エイホウサンギョウ,0
667,3030001028786,登記記録の閉鎖等,0,2023-11-01,2023-10-23,株式会社ＬＥＶＥＬ－Ｄ,,株式会社,埼玉県,所沢市,青葉台１３４１番地の２０,,11,208,3591105,,,2023-10-23,清算の結了等,,,2015-10-05,1,,,,,レベルディー,0
680,3030002082403,登記記録の閉鎖等,0,2023-11-01,2023-10-23,有限会社石島建材,,有限会社,埼玉県,鴻巣市,堤町２２番１８号,,11,217,3650056,,,2023-10-23,清算の結了等,,,2015-10-05,1,,,,,イシジマケンザイ,0
685,3040001034288,登記記録の閉鎖等,0,2023-11-01,2023-10-27,東関東メルテック株式会社,,株式会社,千葉県,千葉市中央区,富士見２丁目３番１号塚本大千葉ビル５階,,12,101,2600015,,,2023-10-27,合併による解散等,6011101062468,令和５年１０月１日東京都新宿区西新宿二丁目４番１号東日本ビルテクノサービス株式会社（6011101062468）に合併し解散,2015-10-05,1,,,,,ヒガシカントウメルテック,0
693,3040002074267,登記記録の閉鎖等,0,2023-11-01,2023-10-19,有限会社坪井組,,有限会社,千葉県,市原市,姉崎１７０２番地１０,,12,219,2990111,,,2023-10-19,清算の結了等,,,2015-10-05,1,,,,,ツボイグミ,0
703,3070001023123,登記記録の閉鎖等,0,2023-11-01,2023-10-27,日精オンテクノ株式会社,,株式会社,群馬県,渋川市,中郷２５０８番地の１３,,10,208,3770202,,,2023-10-27,清算の結了等,,,2015-10-05,1,,,,,ニッセイオンテクノ,0
709,3110002000389,登記記録の閉鎖等,0,2023-11-01,2023-10-30,有限会社相和企画,,有限会社,新潟県,新潟市中央区,東中通１番町１８７番地３,,15,103,9518116,,,2023-10-30,清算の結了等,,,2015-10-05,1,,,,,アイワキカク,0
710,3110002005933,登記記録の閉鎖等,0,2023-11-01,2023-10-20,有限会社ホーリーエンス,,有限会社,新潟県,新潟市中央区,本町通８番町１３０７番地,,15,103,9518067,,,2023-10-20,清算の結了等,,,2015-10-05,1,,,,,ホーリーエンス,0
750,3140002041926,登記記録の閉鎖等,0,2023-11-01,2023-10-26,有限会社中村造園,,有限会社,兵庫県,尼崎市,富松町２丁目１５番１３号,,28,202,6610003,,,2023-10-26,清算の結了等,,,2015-10-05,1,,,,,ナカムラゾウエン,0
751,3140003006432,登記記録の閉鎖等,0,2023-11-01,2023-10-27,合同会社明光さくら咲く,,合同会社,兵庫県,加古川市,加古川町河原２０９番地の４,,28,210,6750067,,,2023-10-27,清算の結了等,,,2015-10-05,1,,,,,メイコウサクラサク,0
760,3180001058538,登記記録の閉鎖等,0,2023-11-01,2023-10-27,株式会社ａｍ,,株式会社,愛知県,名古屋市中区,大須４丁目３番４０号,,23,106,4600011,,,2023-10-27,清算の結了等,,,2015-10-05,1,,,,,アム,0
766,3180301020692,登記記録の閉鎖等,0,2023-11-01,2023-10-30,株式会社マルフジ,,株式会社,愛知県,豊田市,深田町４丁目３４番地２８,,23,211,4710841,,,2023-10-30,清算の結了等,,,2015-10-05,1,,,,,,0
771,3200001029222,登記記録の閉鎖等,0,2023-11-01,2023-10-30,株式会社エクセル,,株式会社,岐阜県,多治見市,姫町７丁目３０番地,,21,204,5070061,,,2023-10-30,清算の結了等,,,2015-10-05,1,,,,,,0
773,3210001019255,登記記録の閉鎖等,0,2023-11-01,2023-10-27,株式会社スバル工業,,株式会社,福井県,坂井市,春江町上小森第２０号１１番地１,,18,210,9190405,,,2023-10-27,清算の結了等,,,2023-03-08,1,,,,,スバルコウギョウ,0
775,3210002002499,登記記録の閉鎖等,0,2023-11-01,2023-10-25,有限会社ドツグサロンシミズ,,有限会社,福井県,福井市,春山２丁目６番１３号,,18,201,9100019,,,2023-10-25,清算の結了等,,,2015-10-05,1,,,,,ドツグサロンシミズ,0
812,3340001012742,登記記録の閉鎖等,0,2023-11-01,2023-10-31,トゥーライフ株式会社,,株式会社,鹿児島県,南さつま市,加世田東本町１２番地１,,46,220,8970031,,,2023-10-31,清算の結了等,,,2015-10-05,1,,,,,トゥーライフ,0
823,3360003011195,登記記録の閉鎖等,0,2023-11-01,2023-10-17,合同会社マーケティングフォース,,合同会社,沖縄県,那覇市,前島３丁目２５番２号泊ポートビル１Ｆ,,47,201,9000016,,,2023-10-17,清算の結了等,,,2021-06-09,1,,,,,マーケティングフォース,0
834,3380001014272,登記記録の閉鎖等,0,2023-11-01,2023-10-26,株式会社高崎商店,,株式会社,福島県,いわき市,佐糠町東２丁目８番地の３,,07,204,9748223,,,2023-10-26,清算の結了等,,,2015-10-05,1,,,,,タカサキショウテン,0
840,3420002008921,登記記録の閉鎖等,0,2023-11-01,2023-10-25,有限会社松橋眼鏡店,,有限会社,青森県,八戸市,大字番町３８番地,,02,203,0310031,,,2023-10-25,清算の結了等,,,2015-10-05,1,,,,,マツハシガンキョウテン,0
856,3480002004725,登記記録の閉鎖等,0,2023-11-01,2023-10-31,有限会社三木ハウス,,有限会社,徳島県,徳島市,明神町５丁目７番地,,36,201,7700938,,,2023-10-31,清算の結了等,,,2015-10-05,1,,,,,,0
877,4010001214338,登記記録の閉鎖等,0,2023-11-01,2023-10-24,株式会社シオンプラス,,株式会社,東京都,千代田区,有楽町２丁目１０番１号,,13,101,1000006,,,2023-10-24,清算の結了等,,,2020-12-11,1,,,,,シオンプラス,0
888,4010005005097,登記記録の閉鎖等,0,2023-11-01,2023-10-26,コダックグラフィックコミュニケーションズ労働組合,,その他の設立登記法人,東京都,千代田区,神田駿河台２丁目９番地,,13,101,1010062,,,2023-10-26,清算の結了等,,,2015-10-05,1,,,,,コダックグラフィックコミュニケーションズ,0
889,4010005035367,登記記録の閉鎖等,0,2023-11-01,2023-10-27,一般社団法人シラソル,,その他の設立登記法人,東京都,千代田区,丸の内３丁目１番１号東京共同会計事務所内,,13,101,1000005,,,2023-10-27,清算の結了等,,,2022-08-03,1,,,,,シラソル,0
896,4010401105772,登記記録の閉鎖等,0,2023-11-01,2023-10-26,株式会社ＪＯＫＥＲ・Ａ,,株式会社,東京都,港区,高輪２丁目１４番１７号,,13,103,1080074,,,2023-10-26,清算の結了等,,,2015-10-05,1,,,,,,0
938,4011501023063,登記記録の閉鎖等,0,2023-11-01,2023-10-27,株式会社ＪＩＮ　ｉｎｆｏ,,株式会社,東京都,荒川区,荒川４丁目２０番１号,,13,118,1160002,,,2023-10-27,清算の結了等,,,2017-10-02,1,,,,,ジンインフォ,0
965,4021001006625,登記記録の閉鎖等,0,2023-11-01,2023-10-26,株式会社エフ・エム・シー,,株式会社,神奈川県,茅ヶ崎市,茅ヶ崎２３３番地５,,14,207,2530041,,,2023-10-26,清算の結了等,,,2015-10-05,1,,,,,エフエムシー,0
1003,4040002040953,登記記録の閉鎖等,0,2023-11-01,2023-10-19,有限会社三信メタル,,有限会社,千葉県,浦安市,入船２丁目１６番２０１号,,12,227,2790012,,,2023-10-19,清算の結了等,,,2015-10-05,1,,,,,サンシンメタル,0
1006,4050002023957,登記記録の閉鎖等,0,2023-11-01,2023-10-26,有限会社澤勝寝具店,,有限会社,茨城県,古河市,原町３番１号,,08,204,3060025,,,2023-10-26,清算の結了等,,,2015-10-05,1,,,,,サワカツシングテン,0
1011,4060002037725,登記記録の閉鎖等,0,2023-11-01,2023-10-27,有限会社ライフ・パル,,有限会社,栃木県,足利市,助戸大橋町１９４３番地,,09,202,3260048,,,2023-10-27,清算の結了等,,,2015-10-05,1,,,,,ライフパル,0
1012,4080001002249,登記記録の閉鎖等,0,2023-11-01,2023-10-31,杉山工務店株式会社,,株式会社,静岡県,静岡市駿河区,広野４丁目３番５５号,,22,102,4210121,,,2023-10-31,清算の結了等,,,2015-10-05,1,,,,,スギヤマコウムテン,0
1014,4080001019350,登記記録の閉鎖等,0,2023-11-01,2023-10-30,株式会社グリーン,,株式会社,静岡県,静岡市葵区,緑町４－２４,,22,101,4200844,,,2023-10-30,清算の結了等,,,2015-10-05,1,,,,,グリーン,0
1016,4080402018463,登記記録の閉鎖等,0,2023-11-01,2023-10-30,有限会社中央,,有限会社,静岡県,菊川市,上平川３０８番地の１,,22,224,4371521,,,2023-10-30,清算の結了等,,,2015-10-05,1,,,,,,0
1018,4090001006496,登記記録の閉鎖等,0,2023-11-01,2023-10-30,山梨産業株式会社,,株式会社,山梨県,笛吹市,一宮町東原９２７番地の１,,19,211,4050075,,,2023-10-30,清算の結了等,,,2015-10-05,1,,,,,ヤマナシサンギョウ,0
1019,4090002008541,登記記録の閉鎖等,0,2023-11-01,2023-10-06,有限会社八光企業管理センター,,有限会社,山梨県,笛吹市,石和町四日市場１７４５番地,,19,211,4060032,,,2023-10-06,合併による解散等,8090001004463,令和５年９月３０日山梨県甲府市中央二丁目４番２号株式会社オーチョ・ブライト・インターナショナル（8090001004463）に合併し解散,2015-10-05,1,,,,,ハッコウキギョウカンリセンター,0
1023,4110001016492,登記記録の閉鎖等,0,2023-11-01,2023-10-26,株式会社松澤鉄工,,株式会社,新潟県,燕市,大武新田７２番地３７,,15,213,9590122,,,2023-10-26,清算の結了等,,,2015-10-05,1,,,,,マツザワテッコウ,0
1063,4130003007447,登記記録の閉鎖等,0,2023-11-01,2023-10-18,合同会社京運,,合同会社,京都府,長岡京市,神足１丁目１１番１１号ベルテ長岡京一階,,26,209,6170833,,,2023-10-18,清算の結了等,,,2021-08-30,1,,,,,キョウウン,0
1067,4140002037452,登記記録の閉鎖等,0,2023-11-01,2023-10-27,淺原印刷有限会社,,有限会社,兵庫県,加古郡播磨町,南大中１丁目８番３３号,,28,382,6750147,,,2023-10-27,清算の結了等,,,2015-10-05,1,,,,,アサハラインサツ,0
1070,4170001005746,登記記録の閉鎖等,0,2023-11-01,2023-10-30,田村繊維株式会社,,株式会社,和歌山県,海南市,阪井６９３番地,,30,202,6420024,,,2023-10-30,清算の結了等,,,2015-10-05,1,,,,,タムラセンイ,0
1072,4170002008756,登記記録の閉鎖等,0,2023-11-01,2023-10-31,有限会社興新商事,,有限会社,和歌山県,田辺市,稲成町２３２１番地の１,,30,206,6460051,,,2023-10-31,清算の結了等,,,2015-10-05,1,,,,,コウシンショウジ,0
1074,4180001034950,登記記録の閉鎖等,0,2023-11-01,2023-10-30,株式会社岡田パテントサービス,,株式会社,愛知県,名古屋市中区,栄２丁目１５番２３号,,23,106,4600008,,,2023-10-30,清算の結了等,,,2015-10-05,1,,,,,オカダパテントサービス,0
1077,4180001137142,登記記録の閉鎖等,0,2023-11-01,2023-10-27,株式会社フォーダブル,,株式会社,愛知県,名古屋市千種区,下方町４丁目５７番地（グランドメゾン千種下方６０１号）,,23,101,4640096,,,2023-10-27,清算の結了等,,,2019-07-02,1,,,,,フォーダブル,0
1085,4190001005042,登記記録の閉鎖等,0,2023-11-01,2023-10-31,三洋物産株式会社,,株式会社,三重県,鈴鹿市,南江島町３８０番地,,24,207,5100235,,,2023-10-31,清算の結了等,,,2015-10-05,1,,,,,サンヨウブッサン,0
1091,4200002008075,登記記録の閉鎖等,0,2023-11-01,2023-10-31,有限会社山晴屋,,有限会社,岐阜県,各務原市,各務山の前町３丁目２３番地の８,,21,213,5090105,,,2023-10-31,清算の結了等,,,2015-10-05,1,,,,,ヤマハルヤ,0
1095,4260001012361,登記記録の閉鎖等,0,2023-11-01,2023-10-30,株式会社ニュースレター作成代行センター,,株式会社,岡山県,岡山市北区,今２丁目４－１０,,33,101,7000975,,,2023-10-30,清算の結了等,,,2015-10-05,1,,,,,ニュースレターサクセイダイコウセンター,0
1097,4260002006552,登記記録の閉鎖等,0,2023-11-01,2023-10-31,有限会社坪井商店,,有限会社,岡山県,岡山市北区,駅前町１丁目２番２０号,,33,101,7000023,,,2023-10-31,清算の結了等,,,2015-10-05,1,,,,,ツボイショウテン,0
1135,4390002012018,登記記録の閉鎖等,0,2023-11-01,2023-10-30,有限会社満丸や運輸,,有限会社,山形県,北村山郡大石田町,大字横山字下宿２６７番地の２,,06,341,9994121,,,2023-10-30,清算の結了等,,,2015-10-05,1,,,,,,0
1141,4410002006149,登記記録の閉鎖等,0,2023-11-01,2023-10-27,有限会社男鹿潜水,,有限会社,秋田県,男鹿市,船川港比詰字餅ケ沢２７番地７,00086651,05,206,0100502,,,2023-10-27,清算の結了等,,,2015-10-05,1,,,,,オガセンスイ,0
1147,4430002001973,登記記録の閉鎖等,0,2023-11-01,2023-10-20,有限会社インテリアおぐら,,有限会社,北海道,札幌市手稲区,前田五条９丁目１０番２１号,,01,109,0060815,,,2023-10-20,清算の結了等,,,2015-10-05,1,,,,,インテリアオグラ,0
1151,4430002060185,登記記録の閉鎖等,0,2023-11-01,2023-10-23,有限会社ムライ商事,,有限会社,北海道,苫小牧市,沼ノ端中央３丁目５番９号,,01,213,0591305,,,2023-10-23,清算の結了等,,,2015-10-05,1,,,,,,0
1161,4500001023887,登記記録の閉鎖等,0,2023-11-01,2023-10-31,株式会社ＯＮＥ　ＳＴＥＰ,,株式会社,愛媛県,伊予市,米湊９１９番地３,,38,210,7993113,,,2023-10-31,清算の結了等,,,2021-12-23,1,,,,,ワンステップ,0
1162,4500002001363,登記記録の閉鎖等,0,2023-11-01,2023-10-31,有限会社えひめファーム・プロデュース,,有限会社,愛媛県,松山市,食場町乙１０２番地１０３,,38,201,7910104,,,2023-10-31,清算の結了等,,,2015-10-05,1,,,,,エヒメファームプロデュース,0
1170,5010001150219,登記記録の閉鎖等,0,2023-11-01,2023-10-25,山佐ＴＯＭ２リース株式会社,,株式会社,東京都,千代田区,丸の内３丁目１番１号東京共同会計事務所内,,13,101,1000005,,,2023-10-25,清算の結了等,,,2015-10-05,1,,,,,ヤマサティーオーエムニリース,0
1183,5010005012514,登記記録の閉鎖等,0,2023-11-01,2023-10-27,ＴＣ一般社団法人,,その他の設立登記法人,東京都,中央区,新川２丁目２７番１号,,13,102,1040033,,,2023-10-27,清算の結了等,,,2015-10-05,1,,,,,ティーシー,0
1187,5010101003458,登記記録の閉鎖等,0,2023-11-01,2023-10-30,株式会社フジコーポレーション,,株式会社,東京都,八王子市,椚田町５３７番地の２,,13,201,1930942,,,2023-10-30,清算の結了等,,,2015-10-05,1,,,,,フジコーポレーション,0
1218,5011101032158,登記記録の閉鎖等,0,2023-11-01,2023-10-24,オレンジ・ジャパン株式会社,,株式会社,東京都,港区,赤坂１丁目１２－３２アーク森ビル１６階,,13,103,1070052,,,2023-10-24,清算の結了等,,,2015-10-05,1,,,,,オレンジジャパン,0
1231,5011601016305,登記記録の閉鎖等,0,2023-11-01,2023-10-27,株式会社東建ビルメン,,株式会社,東京都,練馬区,石神井台３丁目７番１０号,,13,120,1770045,,,2023-10-27,清算の結了等,,,2015-10-05,1,,,,,トウケンビルメン,0
1247,5020002040938,登記記録の閉鎖等,0,2023-11-01,2023-10-20,有限会社ロビング,,有限会社,神奈川県,横浜市鶴見区,上末吉５丁目２８番２２号,,14,101,2300011,,,2023-10-20,清算の結了等,,,2015-10-05,1,,,,,ロビング,0
1258,5021002056503,登記記録の閉鎖等,0,2023-11-01,2023-10-26,有限会社野口都市研究所,,有限会社,神奈川県,中郡大磯町,東小磯３８５番地２１,,14,341,2550004,,,2023-10-26,清算の結了等,,,2015-10-05,1,,,,,ノグチトシケンキュウジョ,0
1266,5030001073368,登記記録の閉鎖等,0,2023-11-01,2023-10-20,株式会社マツヤ酒販,,株式会社,埼玉県,川口市,鳩ヶ谷本町１丁目１５番２２,,11,203,3340002,,,2023-10-20,清算の結了等,,,2015-10-05,1,,,,,マツヤシュハン,0
1288,5040001080826,登記記録の閉鎖等,0,2023-11-01,2023-10-23,株式会社ＡＨＲＰ,,株式会社,千葉県,市川市,市川１丁目１２番１号セゾン尾瀬４０５,,12,203,2720034,,,2023-10-23,清算の結了等,,,2015-10-05,1,,,,,エーエイチアールピー,0
1305,5040005013385,登記記録の閉鎖等,0,2023-11-01,2023-10-23,農事組合法人ドルチェ,,その他の設立登記法人,千葉県,香取市,鳩山２８６番地の３,,12,236,2890421,,,2023-10-23,清算の結了等,,,2015-10-05,1,,,,,ドルチェ,0
1318,5080002016123,登記記録の閉鎖等,0,2023-11-01,2023-10-30,日本ミニメイド有限会社,,有限会社,静岡県,焼津市,保福島３０１番地の３,,22,212,4250087,,,2023-10-30,清算の結了等,,,2015-10-05,1,,,,,ニホンミニメイド,0
1329,5110001032695,登記記録の閉鎖等,0,2023-11-01,2023-10-25,株式会社Ａ’ＩＮＡ,,株式会社,新潟県,新潟市中央区,南笹口２丁目７番２５号リブレ南笹口４０３号,,15,103,9500912,,,2023-10-25,清算の結了等,,,2017-09-07,1,,,,,アイーナ,0
1341,5120002074587,登記記録の閉鎖等,0,2023-11-01,2023-10-31,有限会社津田屋,,有限会社,大阪府,枚方市,松丘町１０番２０号,,27,210,5730012,,,2023-10-31,清算の結了等,,,2015-10-05,1,,,,,ツダヤ,0
1356,5140003017155,登記記録の閉鎖等,0,2023-11-01,2023-10-30,合同会社アシスト,,合同会社,東京都,台東区,浅草橋５丁目８番１１号大富ビル２Ｆ,,13,106,1110053,,,2023-10-30,清算の結了等,,,2022-01-06,1,,,,,アシスト,0
1359,5170001001249,登記記録の閉鎖等,0,2023-11-01,2023-10-30,康和運送株式会社,,株式会社,和歌山県,和歌山市,有本字中州６８８番地の３,,30,201,6408390,,,2023-10-30,清算の結了等,,,2015-10-05,1,,,,,コウワウンソウ,0
1365,5180001130443,登記記録の閉鎖等,0,2023-11-01,2023-10-27,株式会社新名サービス,,株式会社,愛知県,小牧市,城山４丁目５６番地１４,,23,219,4850812,,,2023-10-27,清算の結了等,,,2017-12-13,1,,,,,シンメイサービス,0
1366,5180001139807,登記記録の閉鎖等,0,2023-11-01,2023-10-26,株式会社ヴィヴァン杜,,株式会社,愛知県,尾張旭市,南原山町赤土２６８番地４,,23,226,4880066,,,2023-10-26,清算の結了等,,,2020-01-28,1,,,,,ヴィヴァンモリ,0
1370,5180002049963,登記記録の閉鎖等,0,2023-11-01,2023-10-30,有限会社オリーブ,,有限会社,愛知県,稲沢市,駅前２丁目２７番１８号,,23,220,4928143,,,2023-10-30,合併による解散等,1180003018789,令和５年１０月２９日愛知県愛知郡東郷町大字春木字池田４２番地旭合同会社（1180003018789）に合併し解散,2015-10-05,1,,,,,オリーブ,0
1374,5190001009067,登記記録の閉鎖等,0,2023-11-01,2023-10-30,廣岡建設株式会社,00075661,株式会社,三重県,伊賀市,阿保１４７番地の１８,,24,216,5180226,,,2023-10-30,清算の結了等,,,2015-10-05,1,,,,,,0
1378,5200001014775,登記記録の閉鎖等,0,2023-11-01,2023-10-31,株式会社郷鉄工所,,株式会社,岐阜県,不破郡垂井町,表佐字大持野５８番地の２,,21,361,5032122,,,2023-10-31,清算の結了等,,,2015-10-05,1,,,,,,0
1382,5230001017395,登記記録の閉鎖等,0,2023-11-01,2023-10-31,株式会社Ｍ’ｓコーポレーション,,株式会社,富山県,富山市,石屋９４番地,,16,201,9398121,,,2023-10-31,清算の結了等,,,2018-04-06,1,,,,,エムズコーポレーション,0
1388,5240002039925,登記記録の閉鎖等,0,2023-11-01,2023-10-30,有限会社オフィスワンライン,,有限会社,広島県,福山市,南蔵王町５丁目１４番２１号,,34,207,7210973,,,2023-10-30,清算の結了等,,,2015-10-05,1,,,,,オフィスワンライン,0
1409,5320002017402,登記記録の閉鎖等,0,2023-11-01,2023-10-31,有限会社山之内食品,,有限会社,大分県,佐伯市,鶴岡町３丁目４番３２号,,44,205,8760835,,,2023-10-31,清算の結了等,,,2015-10-05,1,,,,,ヤマノウチショクヒン,0
1417,5340005005807,登記記録の閉鎖等,0,2023-11-01,2023-10-31,医療法人盛裕会,,その他の設立登記法人,鹿児島県,枕崎市,港町１０７番地,,46,204,8980004,,,2023-10-31,清算の結了等,,,2015-10-05,1,,,,,セイユウカイ,0
1432,5370202003486,登記記録の閉鎖等,0,2023-11-01,2023-10-30,有限会社三協土木,,有限会社,宮城県,大崎市,鹿島台深谷字堀籠２０番地の２５,,04,215,9894105,,,2023-10-30,清算の結了等,,,2015-10-05,1,,,,,,0
1433,5370401000912,登記記録の閉鎖等,0,2023-11-01,2023-10-30,株式会社サトウ,,株式会社,宮城県,登米市,豊里町新田町１７２番地５,,04,212,9870361,,,2023-10-30,清算の結了等,,,2015-10-05,1,,,,,,0
1439,5430001047298,登記記録の閉鎖等,0,2023-11-01,2023-10-19,株式会社フォトバード,,株式会社,北海道,夕張郡栗山町,中央３丁目２２４番地,,01,429,0691511,,,2023-10-19,清算の結了等,,,2015-10-05,1,,,,,フォトバード,0
1445,5430002058641,登記記録の閉鎖等,0,2023-11-01,2023-10-20,有限会社サエキ電器,,有限会社,北海道,苫小牧市,見山町２丁目８番７号,,01,213,0530855,,,2023-10-20,清算の結了等,,,2015-10-05,1,,,,,サエキデンキ,0
1463,6010001150218,登記記録の閉鎖等,0,2023-11-01,2023-10-25,山佐ＴＯＭ１リース株式会社,,株式会社,東京都,千代田区,丸の内３丁目１番１号東京共同会計事務所内,,13,101,1000005,,,2023-10-25,清算の結了等,,,2015-10-05,1,,,,,ヤマサティーオーエムイチリース,0
1472,6010403020101,登記記録の閉鎖等,0,2023-11-01,2023-10-25,パシフィコ・エナジー三田合同会社,,合同会社,東京都,港区,六本木３丁目２番１号六本木グランドタワー,,13,103,1060032,,,2023-10-25,清算の結了等,,,2019-02-01,1,,,,,パシフィコエナジーサンダ,0
1473,6010405011957,登記記録の閉鎖等,0,2023-11-01,2023-10-24,一般社団法人日創楽育舎,,その他の設立登記法人,東京都,港区,西新橋３丁目１４番２号柾木ビル１Ｆ,,13,103,1050003,,,2023-10-24,清算の結了等,,,2015-10-05,1,,,,,ニッソウガクイクカイ,0
1491,6011003001937,登記記録の閉鎖等,0,2023-11-01,2023-10-26,合同会社エンジニアサポート,,合同会社,東京都,渋谷区,渋谷２丁目７番１４号中村ビル５階,,13,113,1500002,,,2023-10-26,清算の結了等,,,2015-10-05,1,,,,,エンジニアサポート,0
1515,6012401008103,登記記録の閉鎖等,0,2023-11-01,2023-10-30,株式会社タカノ産業,,株式会社,東京都,調布市,飛田給３丁目４０番１５号,,13,208,1820036,,,2023-10-30,清算の結了等,,,2015-10-05,1,,,,,,0
1521,6012801010105,登記記録の閉鎖等,0,2023-11-01,2023-10-25,アウレス株式会社,,株式会社,東京都,立川市,柴崎町３丁目９番１１号フロントハウス,,13,202,1900023,,,2023-10-25,清算の結了等,,,2015-10-05,1,,,,,アウレス,0
1538,6020005008915,登記記録の閉鎖等,0,2023-11-01,2023-10-20,特定非営利活動法人ウツ病から抜け出し未来に希望の道を拓く会,,その他の設立登記法人,神奈川県,川崎市中原区,西加瀬８番２０号１０１,,14,133,2110024,,,2023-10-20,清算の結了等,,,2015-10-05,1,,,,,ウツビョウカラヌケダシミライニキボウノミチヲヒラクカイ,0
1552,6030001091039,登記記録の閉鎖等,0,2023-11-01,2023-10-20,株式会社タカハシ産業,,株式会社,埼玉県,秩父郡小鹿野町,小鹿野１８５５番地の６,,11,365,3680105,,,2023-10-20,清算の結了等,,,2015-10-05,1,,,,,タカハシサンギョウ,0
1567,6040001031357,登記記録の閉鎖等,0,2023-11-01,2023-10-23,葵錦株式会社,,株式会社,千葉県,船橋市,三山８丁目１１番２棟５０３号,,12,204,2740072,,,2023-10-23,清算の結了等,,,2015-10-05,1,,,,,アオイニシキ,0
1570,6040001094528,登記記録の閉鎖等,0,2023-11-01,2023-10-23,株式会社真祐技巧,,株式会社,千葉県,八千代市,高津８５０番地６６,,12,221,2760036,,,2023-10-23,清算の結了等,,,2016-03-22,1,,,,,,0
1579,6040005012122,登記記録の閉鎖等,0,2023-11-01,2023-10-20,特定非営利活動法人都市と農村交流協会,,その他の設立登記法人,千葉県,香取郡多古町,多古５９２番地,,12,347,2892241,,,2023-10-20,清算の結了等,,,2015-10-05,1,,,,,トシトノウソンコウリュウキョウカイ,0
1596,6080102008093,登記記録の閉鎖等,0,2023-11-01,2023-10-30,有限会社エム・ケーデンタル,,有限会社,静岡県,伊豆の国市,北江間１１６１番地の１,,22,225,4102223,,,2023-10-30,清算の結了等,,,2015-10-05,1,,,,,エムケーデンタル,0
1601,6100001008472,登記記録の閉鎖等,0,2023-11-01,2023-10-23,株式会社弾建築事務所,,株式会社,長野県,小諸市,己６８番地４,,20,208,3840805,,,2023-10-23,清算の結了等,,,2015-10-05,1,,,,,ダンケンチクジムショ,0
1620,6120101060248,登記記録の閉鎖等,0,2023-11-01,2023-10-30,株式会社大伸綜合警備,,株式会社,大阪府,堺市美原区,北余部２４番地１０,,27,147,5870051,,,2023-10-30,清算の結了等,,,2019-07-29,1,,,,,ダイシンソウゴウケイビ,0
1641,6140001117716,登記記録の閉鎖等,0,2023-11-01,2023-10-27,株式会社里山商事,,株式会社,兵庫県,神戸市兵庫区,里山町１番地の９２,,28,105,6520051,,,2023-10-27,清算の結了等,,,2020-06-15,1,,,,,サトヤマショウジ,0
1656,6180002015304,登記記録の閉鎖等,0,2023-11-01,2023-10-31,有限会社葵デンタルラボ,,有限会社,愛知県,名古屋市東区,東大曽根町３４番１２号,,23,102,4610022,,,2023-10-31,清算の結了等,,,2015-10-05,1,,,,,アオイデンタルラボ,0
1668,6200001034343,登記記録の閉鎖等,0,2023-11-01,2023-10-31,株式会社お肉いちば,,株式会社,岐阜県,山県市,大森１８１番地１,,21,215,5012123,,,2023-10-31,清算の結了等,,,2017-08-14,1,,,,,オニクイチバ,0
1671,6210002012396,登記記録の閉鎖等,0,2023-11-01,2023-10-25,有限会社石佳エンジニアリング,,有限会社,福井県,越前市,東千福町７番２５号,,18,209,9150847,,,2023-10-25,清算の結了等,,,2015-10-05,1,,,,,セキカエンジニアリング,0
1672,6220001002918,登記記録の閉鎖等,0,2023-11-01,2023-10-30,株式会社サンコー・サービス,,株式会社,石川県,金沢市,湊２丁目７２番地１,,17,201,9200211,,,2023-10-30,合併による解散等,6220001021769,令和５年１０月２８日石川県金沢市神宮寺三丁目１番５号金沢三菱自動車販売株式会社（6220001021769）に合併し解散,2015-10-05,1,,,,,サンコーサービス,0
1676,6240001025173,登記記録の閉鎖等,0,2023-11-01,2023-10-30,株式会社重道保険事務所,,株式会社,広島県,三次市,西酒屋町３０番地３,,34,209,7280022,,,2023-10-30,清算の結了等,,,2015-10-05,1,,,,,,0
1689,6280002004916,登記記録の閉鎖等,0,2023-11-01,2023-10-30,有限会社三島製麺,,有限会社,島根県,安来市,安来町２４４２番地１,,32,206,6920011,,,2023-10-30,清算の結了等,,,2015-10-05,1,,,,,ミシマセイメン,0
1696,6290802009717,登記記録の閉鎖等,0,2023-11-01,2023-10-31,有限会社中村鉄筋工業,,有限会社,福岡県,北九州市小倉北区,金田２丁目３番１６号,,40,106,8030816,,,2023-10-31,清算の結了等,,,2015-10-05,1,,,,,ナカムラテッキンコウギョウ,0
1704,6340001001602,登記記録の閉鎖等,0,2023-11-01,2023-10-31,株式会社貢健,,株式会社,鹿児島県,鹿児島市,平之町９番３３号牧野ビル５階,,46,201,8920848,,,2023-10-31,清算の結了等,,,2015-10-05,1,,,,,コウケン,0
1714,6370302000102,登記記録の閉鎖等,0,2023-11-01,2023-10-30,有限会社アベエクステリア,,有限会社,宮城県,石巻市,渡波字根岸前１４７番地の１２,,04,202,9862135,,,2023-10-30,清算の結了等,,,2015-10-05,1,,,,,,0
1716,6380001013098,登記記録の閉鎖等,0,2023-11-01,2023-10-26,株式会社ジュリアン・ワールド,,株式会社,福島県,いわき市,草木台２丁目１番地の２,,07,204,9728301,,,2023-10-26,清算の結了等,,,2015-10-05,1,,,,,ジュリアンワールド,0
1724,6430001072048,登記記録の閉鎖等,0,2023-11-01,2023-10-24,株式会社エアーテック,,株式会社,北海道,札幌市厚別区,上野幌二条４丁目４番１７号,,01,108,0040032,,,2023-10-24,清算の結了等,,,2016-07-21,1,,,,,エアーテック,0
1732,6450002011151,登記記録の閉鎖等,0,2023-11-01,2023-10-30,有限会社北洋,,有限会社,北海道,稚内市,栄１丁目９番３号,,01,214,0970017,,,2023-10-30,清算の結了等,,,2015-10-05,1,,,,,ホクヨウ,0
1736,6480001008468,登記記録の閉鎖等,0,2023-11-01,2023-10-31,三協土地株式会社,,株式会社,徳島県,徳島市,西船場町４丁目３３番地,,36,201,7700901,,,2023-10-31,清算の結了等,,,2015-10-05,1,,,,,サンキョウトチ,0
1770,7010902015930,登記記録の閉鎖等,0,2023-11-01,2023-10-23,有限会社横川スタジオ,,有限会社,東京都,世田谷区,下馬５丁目２６番１０号,,13,112,1540002,,,2023-10-23,清算の結了等,,,2015-10-05,1,,,,,ヨコカワスタジオ,0
1794,7011102020325,登記記録の閉鎖等,0,2023-11-01,2023-10-30,有限会社マルニ・プラネット,,有限会社,東京都,新宿区,築地町１７番地,,13,104,1620818,,,2023-10-30,清算の結了等,,,2015-10-05,1,,,,,マルニプラネット,0
1804,7011403003219,登記記録の閉鎖等,0,2023-11-01,2023-10-27,合同会社百和商事,,合同会社,東京都,板橋区,板橋１丁目４５番１号３Ｆ落合ビル,,13,119,1730004,,,2023-10-27,清算の結了等,,,2021-01-25,1,,,,,ヒャクワショウジ,0
1823,7020001122520,登記記録の閉鎖等,0,2023-11-01,2023-10-20,トカイナカ不動産株式会社,,株式会社,神奈川県,川崎市多摩区,東生田４丁目１番６号,,14,135,2140031,,,2023-10-20,清算の結了等,,,2017-08-09,1,,,,,トカイナカフドウサン,0
1833,7020002028691,登記記録の閉鎖等,0,2023-11-01,2023-10-23,有限会社ピープル,,有限会社,神奈川県,横浜市西区,久保町１６番地の９,,14,103,2200061,,,2023-10-23,清算の結了等,,,2015-10-05,1,,,,,ピープル,0
1852,7030002092621,登記記録の閉鎖等,0,2023-11-01,2023-10-02,有限会社第一商事,,有限会社,埼玉県,坂戸市,大字石井２４０９番地４,,11,239,3500212,,,2023-10-02,合併による解散等,8030002094377,令和５年１０月２日埼玉県比企郡鳩山町大字大豆戸３４５番地７株式会社ＡＱＣＩＶ（8030002094377）に合併し解散,2015-10-05,1,,,,,ダイイチショウジ,0
1853,7030002115869,登記記録の閉鎖等,0,2023-11-01,2023-10-20,有限会社田島印刷所,,有限会社,埼玉県,大里郡寄居町,大字寄居１４２６番地２,,11,408,3691203,,,2023-10-20,清算の結了等,,,2015-10-05,1,,,,,タジマインサツジョ,0
1856,7040001090146,登記記録の閉鎖等,0,2023-11-01,2023-10-20,株式会社ＮＩＰＰＯＮの底力,,株式会社,千葉県,市川市,市川１丁目２６－１５花亀ビル１Ｆ－Ｂ,,12,203,2720034,,,2023-10-20,清算の結了等,,,2015-10-05,1,,,,,,0
1874,7050001034127,登記記録の閉鎖等,0,2023-11-01,2023-10-20,株式会社スズホウ,,株式会社,茨城県,かすみがうら市,西野寺７４３番地,,08,230,3150073,,,2023-10-20,清算の結了等,,,2015-10-05,1,,,,,スズホウ,0
1884,7080101001841,登記記録の閉鎖等,0,2023-11-01,2023-10-31,丸八木材株式会社,,株式会社,静岡県,富士市,桑崎２９３番地の６,,22,210,4170803,,,2023-10-31,清算の結了等,,,2015-10-05,1,,,,,マルハチモクザイ,0
1898,7100002007670,登記記録の閉鎖等,0,2023-11-01,2023-10-23,有限会社ケーエス・イー,,有限会社,長野県,長野市,大字稲葉２５４７番地２７,,20,201,3800911,,,2023-10-23,清算の結了等,,,2015-10-05,1,,,,,ケーエスイー,0
1901,7110002011143,登記記録の閉鎖等,0,2023-11-01,2023-10-27,有限会社梅澤農場,,有限会社,新潟県,新潟市西蒲区,富岡１３５番地,,15,108,9530122,,,2023-10-27,清算の結了等,,,2015-10-05,1,,,,,ウメザワノウジョウ,0
1903,7120001094799,登記記録の閉鎖等,0,2023-11-01,2023-10-31,株式会社エムデイ研究所,,株式会社,大阪府,大阪市淀川区,新北野１丁目９番１５号,,27,123,5320025,,,2023-10-31,清算の結了等,,,2015-10-05,1,,,,,エムデイケンキュウショ,0
1926,7122001012385,登記記録の閉鎖等,0,2023-11-01,2023-10-30,株式会社ばいぶーん,,株式会社,大阪府,東大阪市,友井５丁目３番１７－１００６号,,27,227,5770816,,,2023-10-30,清算の結了等,,,2015-10-05,1,,,,,バイブーン,0
1968,7210002004260,登記記録の閉鎖等,0,2023-11-01,2023-10-27,有限会社丸の内商事,,有限会社,福井県,福井市,江端町第６号４２番地,,18,201,9188016,,,2023-10-27,清算の結了等,,,2015-10-05,1,,,,,マルノウチショウジ,0
1969,7220001005358,登記記録の閉鎖等,0,2023-11-01,2023-10-31,パンネツトワーク株式会社,,株式会社,石川県,金沢市,円光寺２丁目３４５番地,,17,201,9218173,,,2023-10-31,清算の結了等,,,2015-10-05,1,,,,,パンネツトワーク,0
1991,7290802011779,登記記録の閉鎖等,0,2023-11-01,2023-10-31,有限会社アイ・サービス,,有限会社,福岡県,北九州市小倉南区,田原２丁目１１番９号,,40,107,8000225,,,2023-10-31,清算の結了等,,,2015-10-05,1,,,,,アイサービス,0
1998,7320001010521,登記記録の閉鎖等,0,2023-11-01,2023-10-30,株式会社伊藤電気,,株式会社,大分県,日田市,田島本町５番１８号,,44,204,8770026,,,2023-10-30,合併による解散等,5320201000258,令和５年１０月３０日大分県津久見市大字津久見１５７５番地の１豊南電工株式会社（5320201000258）に合併し解散,2015-10-05,1,,,,,イトウデンキ,0
2002,7370001006399,登記記録の閉鎖等,0,2023-11-01,2023-10-27,東北ガス圧接株式会社,,株式会社,宮城県,仙台市宮城野区,大梶１７番１３号,,04,102,9830835,,,2023-10-27,清算の結了等,,,2015-10-05,1,,,,,トウホクガスアッセツ,0
2015,7420002001022,登記記録の閉鎖等,0,2023-11-01,2023-10-30,有限会社クリーンカンパニー,,有限会社,青森県,青森市,浜田２丁目１５番地１９,,02,201,0300843,,,2023-10-30,清算の結了等,,,2015-10-05,1,,,,,クリーンカンパニー,0
2016,7420002001303,登記記録の閉鎖等,0,2023-11-01,2023-10-30,有限会社サポート,,有限会社,青森県,青森市,浜田２丁目１５番地１９,,02,201,0300843,,,2023-10-30,清算の結了等,,,2015-10-05,1,,,,,サポート,0
2032,7460102007816,登記記録の閉鎖等,0,2023-11-01,2023-10-31,有限会社鳥羽組,,有限会社,北海道,足寄郡足寄町,西町４丁目１番地の２２,,01,647,0893733,,,2023-10-31,清算の結了等,,,2023-10-23,1,,,,,トバグミ,0
2034,7470002000259,登記記録の閉鎖等,0,2023-11-01,2023-10-30,太倉石材有限会社,,有限会社,香川県,高松市,牟礼町牟礼３７００番地,,37,201,7610121,,,2023-10-30,清算の結了等,,,2015-10-05,1,,,,,オオクラセキザイ,0
2035,7480002002163,登記記録の閉鎖等,0,2023-11-01,2023-10-31,有限会社椙原木材,,有限会社,徳島県,徳島市,北沖洲３丁目１０番５６号,,36,201,7700872,,,2023-10-31,清算の結了等,,,2015-10-05,1,,,,,スギハラモクザイ,0
2042,8010001022051,登記記録の閉鎖等,0,2023-11-01,2023-10-20,株式会社ＴＭＤ,,株式会社,東京都,千代田区,丸の内１丁目７番１２号サピアタワー１４Ｆ弁護士法人北浜法律事務所東京事務所,,13,101,1000005,,,2023-10-20,清算の結了等,,,2015-10-05,1,,,,,,0
2044,8010001196812,登記記録の閉鎖等,0,2023-11-01,2023-10-24,株式会社アスペクツオブライフ,,株式会社,東京都,文京区,千駄木２丁目３２番４号,,13,105,1130022,,,2023-10-24,清算の結了等,,,2018-12-05,1,,,,,アスペクツオブライフ,0
2047,8010001224531,登記記録の閉鎖等,0,2023-11-01,2023-10-24,ＴＡＳＫ株式会社,,株式会社,東京都,千代田区,九段南１丁目５－６りそな九段ビル５ＦＫＳフロア,,13,101,1020074,,,2023-10-24,清算の結了等,,,2022-02-15,1,,,,,タスク,0
2062,8010403020099,登記記録の閉鎖等,0,2023-11-01,2023-10-25,パシフィコ・エナジー播州合同会社,,合同会社,東京都,港区,六本木３丁目２番１号六本木グランドタワー,,13,103,1060032,,,2023-10-25,清算の結了等,,,2019-02-01,1,,,,,パシフィコエナジーバンシュウ,0
2065,8010403029801,登記記録の閉鎖等,0,2023-11-01,2023-10-26,合同会社Ｂ‐Ｓｉｄｅ,,合同会社,東京都,港区,六本木７丁目３番８号永谷ヒルプラザ六本木３０４,,13,103,1060032,,,2023-10-26,清算の結了等,,,2023-04-03,1,,,,,ビーサイド,0
2075,8010701036937,登記記録の閉鎖等,0,2023-11-01,2023-10-23,株式会社アイシュン,,株式会社,神奈川県,川崎市中原区,小杉陣屋町２丁目２２番４１－１号,,14,133,2110062,,,2023-10-23,清算の結了等,,,2019-01-08,1,,,,,アイシュン,0
2103,8011802026455,登記記録の閉鎖等,0,2023-11-01,2023-10-26,有限会社ライーク,,有限会社,東京都,葛飾区,堀切６丁目２９番１号,,13,122,1240006,,,2023-10-26,清算の結了等,,,2015-10-05,1,,,,,ライーク,0
2114,8013202006070,登記記録の閉鎖等,0,2023-11-01,2023-10-25,有限会社丸真商店,,有限会社,東京都,目黒区,祐天寺２丁目７番２５号,,13,110,1530052,,,2023-10-25,清算の結了等,,,2015-10-05,1,,,,,マルシンショウテン,0
2125,8020003018055,登記記録の閉鎖等,0,2023-11-01,2023-10-23,合同会社アトムカンパニー,,合同会社,神奈川県,横浜市港北区,樽町１丁目２２番６０－３０９号,,14,109,2220001,,,2023-10-23,清算の結了等,,,2020-06-23,1,,,,,アトムカンパニー,0
2134,8021002017799,登記記録の閉鎖等,0,2023-11-01,2023-10-27,株式会社石井工建,,株式会社,神奈川県,相模原市中央区,田名１５７４番地１,,14,152,2520244,,,2023-10-27,清算の結了等,,,2015-10-05,1,,,,,,0
2137,8021002033029,登記記録の閉鎖等,0,2023-11-01,2023-10-27,有限会社プロスパディ,,有限会社,神奈川県,厚木市,田村町３番３７号,,14,212,2430016,,,2023-10-27,清算の結了等,,,2015-10-05,1,,,,,プロスパディ,0
2143,8030001115877,登記記録の閉鎖等,0,2023-11-01,2023-10-18,株式会社連華商事,,株式会社,埼玉県,さいたま市桜区,西堀９丁目１３番１０号サニーコート南与野第２・７０７号室,,11,106,3380832,,,2023-10-18,清算の結了等,,,2016-08-12,1,,,,,レンカショウジ,0
2155,8040001023138,登記記録の閉鎖等,0,2023-11-01,2023-10-20,株式会社ＭＥＴ,,株式会社,千葉県,八街市,八街い４２番地５０,,12,230,2891143,,,2023-10-20,清算の結了等,,,2015-10-05,1,,,,,メット,0
2164,8060002006008,登記記録の閉鎖等,0,2023-11-01,2023-10-30,中央商事有限会社,,有限会社,栃木県,宇都宮市,中央３丁目７番７号,,09,201,3200806,,,2023-10-30,清算の結了等,,,2015-10-05,1,,,,,チュウオウショウジ,0
2168,8080002001196,登記記録の閉鎖等,0,2023-11-01,2023-10-30,有限会社大村石材店,,有限会社,静岡県,静岡市駿河区,向手越２丁目１４番１４号,,22,102,4210107,,,2023-10-30,清算の結了等,,,2015-10-05,1,,,,,オオムラセキザイテン,0
2180,8110005010182,登記記録の閉鎖等,0,2023-11-01,2023-10-30,十日町市本町四丁目商店街振興組合,,その他の設立登記法人,新潟県,十日町市,本町４丁目５４番地１,,15,210,9480082,,,2023-10-30,清算の結了等,,,2015-10-05,1,,,,,トオカマチシホンチョウヨンチョウメ,0
2192,8120001223209,登記記録の閉鎖等,0,2023-11-01,2023-10-31,株式会社リユース,,株式会社,大阪府,大阪市西区,新町１丁目８番１号,,27,106,5500013,,,2023-10-31,清算の結了等,,,2019-08-19,1,,,,,リユース,0
2219,8140005015212,登記記録の閉鎖等,0,2023-11-01,2023-10-30,特定非営利活動法人歴史と出会えるまちづくり船場城西の会,,その他の設立登記法人,兵庫県,姫路市,琴岡町２６６番地１,,28,201,6700035,,,2023-10-30,清算の結了等,,,2015-10-05,1,,,,,レキシトデアエルマチヅクリセンバジョウサイノカイ,0
2234,8190002011300,登記記録の閉鎖等,0,2023-11-01,2023-10-31,有限会社家具のオクヤマ,,有限会社,三重県,志摩市,阿児町鵜方１６０１番地の１２,,24,215,5170501,,,2023-10-31,清算の結了等,,,2015-10-05,1,,,,,カグノオクヤマ,0
2235,8200001022263,登記記録の閉鎖等,0,2023-11-01,2023-10-30,株式会社英山タイル,,株式会社,岐阜県,多治見市,笠原町４４８５番地の２,,21,204,5070901,,,2023-10-30,清算の結了等,,,2015-10-05,1,,,,,エイザンタイル,0
2249,8290001003949,登記記録の閉鎖等,0,2023-11-01,2023-10-17,株式会社福岡ライフ,,株式会社,福岡県,福岡市東区,和白丘２丁目４番１８号,,40,131,8110213,,,2023-10-17,合併による解散等,4290001035228,令和５年１０月１日福岡市南区向野二丁目８番１８号西部ガスリアルライフ福岡株式会社（4290001035228）に合併し解散,2015-10-05,1,,,,,フクオカライフ,0
2250,8290001061063,登記記録の閉鎖等,0,2023-11-01,2023-10-18,株式会社ｃａ’ｄｏｒｏ,,株式会社,福岡県,朝倉市,須川１７８２番地,,40,228,8381304,,,2023-10-18,清算の結了等,,,2015-10-05,1,,,,,カドーロ,0
2260,8290802007743,登記記録の閉鎖等,0,2023-11-01,2023-10-30,有限会社プランニングエム,,有限会社,福岡県,北九州市門司区,東新町２丁目１０番６号,,40,101,8000055,,,2023-10-30,清算の結了等,,,2015-10-05,1,,,,,プランニングエム,0
2263,8300005005527,登記記録の閉鎖等,0,2023-11-01,2023-10-31,呼子商店サービス協同組合,,その他の設立登記法人,佐賀県,唐津市,呼子町呼子３７６４番地７４,,41,202,8470303,,,2023-10-31,清算の結了等,,,2015-10-05,1,,,,,ヨブコショウテンサービス,0
2265,8310001011676,登記記録の閉鎖等,0,2023-11-01,2023-10-30,クレインシー株式会社,,株式会社,長崎県,諫早市,小長井町川内２６２番地,,42,204,8590154,,,2023-10-30,清算の結了等,,,2015-10-05,1,,,,,,0
2272,8330001031004,登記記録の閉鎖等,0,2023-11-01,2023-10-25,ＤＲＵＮＫ株式会社,,株式会社,熊本県,熊本市南区,平成２丁目５番１１号ＤＫビル,,43,104,8600833,,,2023-10-25,清算の結了等,,,2023-07-07,1,,,,,ドランク,0
2274,8350002004287,登記記録の閉鎖等,0,2023-11-01,2023-10-26,有限会社丸和,,有限会社,宮崎県,宮崎市,権現町６８番地,,45,201,8800822,,,2023-10-26,清算の結了等,,,2015-10-05,1,,,,,マルワ,0
2284,8400001014430,登記記録の閉鎖等,0,2023-11-01,2023-10-20,株式会社グレイス,,株式会社,岩手県,滝沢市,葉の木沢山５０６番２８,,03,216,0200625,,,2023-10-20,清算の結了等,,,2018-12-12,1,,,,,,0
2297,8470003001916,登記記録の閉鎖等,0,2023-11-01,2023-10-31,合同会社Ｙｏｕ　ｍａｋｅ,,合同会社,香川県,高松市,サンポート２番１号高松シンボルタワータワー棟４・５階情報通信交流館（ｅ－とぴあ・かがわ）内,,37,201,7600019,,,2023-10-31,清算の結了等,,,2021-02-19,1,,,,,ユーメイク,0
2308,9010001040473,登記記録の閉鎖等,0,2023-11-01,2023-10-23,株式会社開政広告社,,株式会社,東京都,中央区,湊１丁目２番７号カワジリビル４階,,13,102,1040043,,,2023-10-23,清算の結了等,,,2015-10-05,1,,,,,,0
2329,9010405018958,登記記録の閉鎖等,0,2023-11-01,2023-10-25,レジデンス・エイト特定目的会社,,その他の設立登記法人,東京都,港区,赤坂２丁目１０番５号税理士法人赤坂国際会計事務所内,,13,103,1070052,,,2023-10-25,清算の結了等,,,2020-08-11,1,,,,,レジデンスエイト,0
2340,9010903007875,登記記録の閉鎖等,0,2023-11-01,2023-10-23,ＴＭＯカード合同会社,,合同会社,東京都,世田谷区,下馬３丁目３２－１２,,13,112,1540002,,,2023-10-23,清算の結了等,,,2023-01-06,1,,,,,ティーエムオーカード,0
2379,9012802001686,登記記録の閉鎖等,0,2023-11-01,2023-10-25,有限会社トラストシステム,,有限会社,東京都,立川市,錦町２丁目３番１９号,,13,202,1900022,,,2023-10-25,清算の結了等,,,2015-10-05,1,,,,,トラストシステム,0
2397,9020002095549,登記記録の閉鎖等,0,2023-11-01,2023-10-20,有限会社いしがき,,有限会社,神奈川県,川崎市川崎区,大島３丁目３５番７号,,14,131,2100834,,,2023-10-20,清算の結了等,,,2015-10-05,1,,,,,イシガキ,0
2401,9021001010705,登記記録の閉鎖等,0,2023-11-01,2023-10-26,株式会社エム・プラス,,株式会社,神奈川県,鎌倉市,大船６丁目１１番２２号,,14,204,2470056,,,2023-10-26,清算の結了等,,,2015-10-05,1,,,,,エムプラス,0
2404,9021001065666,登記記録の閉鎖等,0,2023-11-01,2023-10-25,株式会社コーエイ,,株式会社,神奈川県,海老名市,国分南１丁目１７番２号,,14,215,2430405,,,2023-10-25,清算の結了等,,,2018-09-18,1,,,,,コーエイ,0
2408,9021002026782,登記記録の閉鎖等,0,2023-11-01,2023-10-26,有限会社トラウト,,有限会社,神奈川県,相模原市南区,鵜野森３丁目４３番１－５０３号,,14,153,2520301,,,2023-10-26,清算の結了等,,,2015-10-05,1,,,,,トラウト,0
2419,9030002002041,登記記録の閉鎖等,0,2023-11-01,2023-10-19,有限会社遠藤研究室,,有限会社,埼玉県,戸田市,本町３丁目８番６号,,11,224,3350023,,,2023-10-19,清算の結了等,,,2015-10-05,1,,,,,エンドウケンキュウシツ,0
2420,9030002023277,登記記録の閉鎖等,0,2023-11-01,2023-10-23,有限会社ユニテック,,有限会社,埼玉県,さいたま市岩槻区,大字鹿室８０６番地７,,11,110,3390001,,,2023-10-23,清算の結了等,,,2015-10-05,1,,,,,ユニテック,0
2433,9040001098996,登記記録の閉鎖等,0,2023-11-01,2023-10-23,ＷＡＹ株式会社,,株式会社,千葉県,我孫子市,白山３丁目８番１６－１０３号,,12,222,2701154,,,2023-10-23,清算の結了等,,,2017-02-27,1,,,,,ウエイ,0
2446,9060001008037,登記記録の閉鎖等,0,2023-11-01,2023-10-30,烏山精機株式会社,,株式会社,栃木県,那須烏山市,野上７６５番地,,09,215,3210634,,,2023-10-30,清算の結了等,,,2015-10-05,1,,,,,カラスヤマセイキ,0
2450,9070001038355,登記記録の閉鎖等,0,2023-11-01,2023-10-24,株式会社ユナイト,,株式会社,東京都,中央区,銀座１丁目２２番１１号銀座大竹ビジデンス２階,,13,102,1040061,,,2023-10-24,清算の結了等,,,2021-08-18,1,,,,,ユナイト,0
2452,9080101018660,登記記録の閉鎖等,0,2023-11-01,2023-10-31,株式会社あかり,,株式会社,静岡県,御殿場市,新橋１９９０番地の１０,,22,215,4120043,,,2023-10-31,清算の結了等,,,2015-10-05,1,,,,,アカリ,0
2456,9080401014649,登記記録の閉鎖等,0,2023-11-01,2023-10-30,株式会社スズキスポーツ,,株式会社,静岡県,掛川市,大坂４５５番地の４,,22,213,4371421,,,2023-10-30,清算の結了等,,,2015-10-05,1,,,,,スズキスポーツ,0
2457,9080402005242,登記記録の閉鎖等,0,2023-11-01,2023-10-30,有限会社テクニカルアプリケーションメイト,,有限会社,静岡県,浜松市東区,半田山１丁目５番５号,,22,132,4313125,,,2023-10-30,清算の結了等,,,2015-10-05,1,,,,,テクニカルアプリケーションメイト,0
2460,9100001011317,登記記録の閉鎖等,0,2023-11-01,2023-10-23,株式会社ナノ炭素研究所,,株式会社,長野県,上田市,中央１丁目６番７号７０３,,20,203,3860012,,,2023-10-23,清算の結了等,,,2015-10-05,1,,,,,ナノタンソケンキュウショ,0
2481,9120901014400,登記記録の閉鎖等,0,2023-11-01,2023-10-31,株式会社千里丘ハウジングセンター,,株式会社,大阪府,摂津市,千里丘１丁目９番１４号,,27,224,5660001,,,2023-10-31,清算の結了等,,,2015-10-05,1,,,,,センリオカハウジングセンター,0
2497,9140005003273,登記記録の閉鎖等,0,2023-11-01,2023-10-27,兵庫県中部電気工事工業協同組合,,その他の設立登記法人,兵庫県,神戸市兵庫区,湊町１丁目３番２４号,,28,105,6520812,,,2023-10-27,清算の結了等,,,2015-10-05,1,,,,,ヒョウゴケンチュウブデンキコウジコウギョウ,0
2500,9180001007051,登記記録の閉鎖等,0,2023-11-01,2023-10-25,名古屋港起業株式会社,,株式会社,愛知県,名古屋市港区,潮見町１５番地の１,,23,111,4550028,,,2023-10-25,清算の結了等,,,2015-10-05,1,,,,,ナゴヤコウキギョウ,0
2504,9180001072748,登記記録の閉鎖等,0,2023-11-01,2023-10-30,株式会社やまと,,株式会社,愛知県,名古屋市昭和区,長戸町２丁目１６番地３ＭＡＳＡビル１階,,23,107,4660848,,,2023-10-30,清算の結了等,,,2015-10-05,1,,,,,ヤマト,0
2511,9180002073588,登記記録の閉鎖等,0,2023-11-01,2023-10-30,有限会社あぽろ保険,,有限会社,愛知県,瀬戸市,品野町６丁目１１１番地の１０,,23,204,4801207,,,2023-10-30,清算の結了等,,,2015-10-05,1,,,,,アポロホケン,0
2519,9190001009476,登記記録の閉鎖等,0,2023-11-01,2023-10-30,株式会社パナホーム伊賀,,株式会社,三重県,伊賀市,桐ケ丘７丁目１１４番地,,24,216,5180225,,,2023-10-30,清算の結了等,,,2015-10-05,1,,,,,パナホームイガ,0
2521,9190001029763,登記記録の閉鎖等,0,2023-11-01,2023-10-30,株式会社中部農産,,株式会社,三重県,松阪市,保津町７９４番地２,,24,204,5150124,,,2023-10-30,清算の結了等,,,2022-09-14,1,,,,,チュウブノウサン,0
2525,9220001014324,登記記録の閉鎖等,0,2023-11-01,2023-10-31,パンネット石川株式会社,,株式会社,石川県,金沢市,円光寺２丁目３４５番地,,17,201,9218173,,,2023-10-31,清算の結了等,,,2015-10-05,1,,,,,パンネットイシカワ,0
2558,9340002007356,登記記録の閉鎖等,0,2023-11-01,2023-10-31,有限会社西和田工作所,,有限会社,鹿児島県,鹿児島市,唐湊１丁目１０番１号,,46,201,8900081,,,2023-10-31,清算の結了等,,,2015-10-05,1,,,,,ニシワダコウサクジョ,0
2566,9360003011719,登記記録の閉鎖等,0,2023-11-01,2023-10-26,合同会社ＭＬ,,合同会社,東京都,港区,南青山２丁目４番１５－Ｓ３０６号,,13,103,1070062,,,2023-10-26,清算の結了等,,,2022-01-17,1,,,,,エムエル,0
2567,9360005004720,登記記録の閉鎖等,0,2023-11-01,2023-10-26,一般社団法人沖縄伝統志道館空手古武術国際連盟,,その他の設立登記法人,沖縄県,島尻郡八重瀬町,字屋宜原６８番地,,47,362,9010406,,,2023-10-26,清算の結了等,,,2015-10-05,1,,,,,オキナワデントウシドウカンカラテコブジュツコクサイレンメイ,0
2580,9430001062252,登記記録の閉鎖等,0,2023-11-01,2023-10-24,株式会社ＮＥＯＫＡＭ,,株式会社,北海道,札幌市中央区,南三条東１丁目４番地アルファ創成川公園ビル１階,,01,101,0600053,,,2023-10-24,清算の結了等,,,2015-10-05,1,,,,,ネオカム,0
2584,9430002041718,登記記録の閉鎖等,0,2023-11-01,2023-10-23,ひばり運送株式会社,,株式会社,北海道,札幌市東区,北三十九条東７丁目２番２２号,,01,103,0070839,,,2023-10-23,清算の結了等,,,2015-10-05,1,,,,,ヒバリウンソウ,0
2585,9430002051907,登記記録の閉鎖等,0,2023-11-01,2023-10-20,有限会社小川工務所,,有限会社,北海道,芦別市,常磐町７３４番地の９,,01,216,0750018,,,2023-10-20,清算の結了等,,,2015-10-05,1,,,,,オガワコウムショ,0
2589,9430003013451,登記記録の閉鎖等,0,2023-11-01,2023-10-20,合同会社ＬｉＢ,,合同会社,北海道,苫小牧市,川沿町５丁目６番３０号,,01,213,0530822,,,2023-10-20,清算の結了等,,,2021-12-14,1,,,,,リブ,0
