sequenceNumber,corporateNumber,process,correct,updateDate,changeDate,name,nameImageId,kind,prefectureName,cityName,streetNumber,addressImageId,prefectureCode,cityCode,postCode,addressOutside,addressOutsideImageId,closeDate,closeCause,successorCorporateNumber,changeCause,assignmentDate,latest,enName,enPrefectureName,enCityName,enAddressOutside,furigana,hihyoji
6,1010001132006,登記記録の閉鎖等,0,2021-09-16,2021-07-26,ソフトブレーン株式会社,,株式会社,東京都,中央区,日本橋１丁目１３番１号,,13,102,1030027,,,2021-07-26,合併による解散等,4010001210790,令和３年７月１日東京都千代田区丸の内一丁目２番１号シー・ファイブ・エイト・ホールディングス株式会社（4010001210790）に合併し解散,2015-10-05,1,,,,,,0
10,1010001216964,登記記録の閉鎖等,0,2021-09-16,2021-09-10,株式会社Ｂｅｓｔ　ｂｌｏｏｍ,,株式会社,東京都,中央区,晴海２丁目２番４２－４０１７号,,13,102,1040053,,,2021-09-10,清算の結了等,,,2021-04-08,1,,,,,ベストブルーム,0
18,1010003029233,登記記録の閉鎖等,0,2021-09-16,2021-09-10,新習志野プロパティ合同会社,,合同会社,東京都,中央区,日本橋１丁目４番１号日本橋一丁目ビルディング,,13,102,1030027,,,2021-09-10,清算の結了等,,,2019-02-07,1,,,,,シンナラシノプロパティ,0
40,1010701009024,登記記録の閉鎖等,0,2021-09-16,2021-09-14,株式会社本田組,,株式会社,東京都,品川区,東中延１丁目１０番１６号,,13,109,1420052,,,2021-09-14,合併による解散等,3020001031989,令和３年９月１日横浜市戸塚区吉田町１３３番地２株式会社セラミックワン（3020001031989）に合併し解散,2015-10-05,1,,,,,ホンダグミ,0
45,1010801013792,登記記録の閉鎖等,0,2021-09-16,2021-09-14,スマート・ブリック株式会社,,株式会社,東京都,品川区,南大井６丁目１６番４号,,13,109,1400013,,,2021-09-14,合併による解散等,3020001031989,令和３年９月１日横浜市戸塚区吉田町１３３番地２株式会社セラミックワン（3020001031989）に合併し解散,2015-10-05,1,,,,,スマートブリック,0
50,1010802008305,登記記録の閉鎖等,0,2021-09-16,2021-09-07,有限会社第一メデイカル・サービス,,有限会社,東京都,大田区,西蒲田７丁目６０番６号,,13,111,1440051,,,2021-09-07,清算の結了等,,,2015-10-05,1,,,,,ダイイチメデイカルサービス,0
61,1011203003358,登記記録の閉鎖等,0,2021-09-16,2021-09-13,Ｆｕｔｕｒｅ　Ｓｐｉｄｅｒ合同会社,,合同会社,東京都,中野区,中央１丁目６番６－２０２号,,13,114,1640011,,,2021-09-13,清算の結了等,,,2020-08-11,1,,,,,フューチャースパイダー,0
64,1011302015923,登記記録の閉鎖等,0,2021-09-16,2021-09-08,有限会社きがわ,,有限会社,東京都,杉並区,成田東４丁目２５番７号,,13,115,1660015,,,2021-09-08,清算の結了等,,,2015-10-05,1,,,,,キガワ,0
78,1013201000106,登記記録の閉鎖等,0,2021-09-16,2021-09-01,株式会社アートワークス,,株式会社,東京都,目黒区,駒場２丁目１２番２号,,13,110,1530041,,,2021-09-01,合併による解散等,5011001035178,令和３年９月１日東京都渋谷区神宮前二丁目５番１０号株式会社キーワーク（5011001035178）に合併し解散,2015-10-05,1,,,,,アートワークス,0
112,1040001010662,登記記録の閉鎖等,0,2021-09-16,2021-09-10,株式会社グローバルファシリテーション,,株式会社,千葉県,長生郡長南町,又富６１１番地１,,12,427,2970104,,,2021-09-10,清算の結了等,,,2015-10-05,1,,,,,グローバルファシリテーション,0
119,1040002001545,登記記録の閉鎖等,0,2021-09-16,2021-09-09,有限会社梅津電気,,有限会社,千葉県,千葉市若葉区,御成台３丁目１４番７号,,12,104,2650077,,,2021-09-09,清算の結了等,,,2015-10-05,1,,,,,ウメヅデンキ,0
142,1100001015416,登記記録の閉鎖等,0,2021-09-16,2021-09-14,株式会社丸建,,株式会社,長野県,安曇野市,明科光６７１番地,,20,220,3997103,,,2021-09-14,清算の結了等,,,2015-10-05,1,,,,,マルケン,0
145,1110001029118,登記記録の閉鎖等,0,2021-09-16,2021-09-10,株式会社カワラボ・ジャパン,,株式会社,新潟県,新潟市中央区,女池南３丁目２番３２号,,15,103,9500948,,,2021-09-10,清算の結了等,,,2015-10-05,1,,,,,カワラボジャパン,0
146,1110005001576,登記記録の閉鎖等,0,2021-09-16,2021-09-13,医療法人社団高橋医院,,その他の設立登記法人,新潟県,新潟市江南区,東本町４丁目５番１８号,,15,104,9500126,,,2021-09-13,清算の結了等,,,2015-10-05,1,,,,,タカハシイイン,0
150,1120001053109,登記記録の閉鎖等,0,2021-09-16,2021-09-08,薮内電業株式会社,,株式会社,大阪府,大阪市東淀川区,豊里６丁目２８番１１号,,27,114,5330013,,,2021-09-08,清算の結了等,,,2015-10-05,1,,,,,,0
180,1120902009407,登記記録の閉鎖等,0,2021-09-16,2021-09-10,有限会社朝たかプランニング,,有限会社,大阪府,高槻市,上田辺町２番１９号,,27,207,5690805,,,2021-09-10,清算の結了等,,,2015-10-05,1,,,,,アサタカプランニング,0
201,1180001084016,登記記録の閉鎖等,0,2021-09-16,2021-09-13,株式会社良友,,株式会社,愛知県,一宮市,三ツ井４丁目２番２１号,,23,203,4910827,,,2021-09-13,清算の結了等,,,2015-10-05,1,,,,,リョウユウ,0
210,1180302007294,登記記録の閉鎖等,0,2021-09-16,2021-09-13,有限会社ケイエスケイ,,有限会社,愛知県,豊橋市,前田南町２丁目７番地７,,23,201,4400851,,,2021-09-13,清算の結了等,,,2015-10-05,1,,,,,ケイエスケイ,0
211,1190001012999,登記記録の閉鎖等,0,2021-09-16,2021-09-13,イワタニ三重ガスセンター株式会社,,株式会社,三重県,いなべ市,大安町鍋坂字上川原２２２４番地,,24,214,5110275,,,2021-09-13,合併による解散等,2010401033141,令和３年９月１日大阪市北区西天満四丁目８番１７号岩谷瓦斯株式会社（2010401033141）に合併し解散,2015-10-05,1,,,,,イワタニミエガスセンター,0
224,1270002001605,登記記録の閉鎖等,0,2021-09-16,2021-09-09,有限会社中原工芸,,有限会社,鳥取県,鳥取市,湖山町南３丁目１０１番地９,,31,201,6800945,,,2021-09-09,清算の結了等,,,2015-10-05,1,,,,,ナカハラコウゲイ,0
236,1290801007065,登記記録の閉鎖等,0,2021-09-16,2021-09-03,株式会社ヤマトコーポレーション,,株式会社,福岡県,北九州市小倉北区,井堀３丁目１７番３号,,40,106,8030835,,,2021-09-03,清算の結了等,,,2015-10-05,1,,,,,,0
250,1320003001920,登記記録の閉鎖等,0,2021-09-16,2021-09-14,合同会社臼杵会,,合同会社,大分県,豊後大野市,三重町市場５９０番地,,44,212,8797131,,,2021-09-14,清算の結了等,,,2015-10-05,1,,,,,ウスキカイ,0
253,1330002021613,登記記録の閉鎖等,0,2021-09-16,2021-09-14,有明クレーン有限会社,,有限会社,熊本県,荒尾市,増永４２４番地の１,,43,204,8640032,,,2021-09-14,清算の結了等,,,2015-10-05,1,,,,,アリアケクレーン,0
269,1400003002324,登記記録の閉鎖等,0,2021-09-16,2021-09-15,合同会社リキソー福介家,,合同会社,岩手県,盛岡市,中央通２丁目８番１０号,,03,201,0200021,,,2021-09-15,清算の結了等,,,2018-04-18,1,,,,,リキソーフクスケヤ,0
274,1430002038424,登記記録の閉鎖等,0,2021-09-16,2021-09-01,有限会社セントラル,,有限会社,北海道,札幌市中央区,南八条西４丁目４２３番地１１,,01,101,0640808,,,2021-09-01,清算の結了等,,,2015-10-05,1,,,,,セントラル,0
285,2010001154420,登記記録の閉鎖等,0,2021-09-16,2021-09-08,株式会社Ｇｌｏｂａｌ　Ａｓｉａ,,株式会社,東京都,文京区,小石川１丁目１５番１２－４０５号,,13,105,1120002,,,2021-09-08,清算の結了等,,,2015-10-05,1,,,,,,0
293,2010402005503,登記記録の閉鎖等,0,2021-09-16,2021-09-08,有限会社さくら鮨,,有限会社,東京都,港区,芝浦２丁目１５番１９号,,13,103,1080023,,,2021-09-08,清算の結了等,,,2015-10-05,1,,,,,サクラズシ,0
309,2010801009633,登記記録の閉鎖等,0,2021-09-16,2021-09-07,博栄産業株式会社,,株式会社,東京都,大田区,東糀谷３丁目１４番１８号,,13,111,1440033,,,2021-09-07,清算の結了等,,,2015-10-05,1,,,,,,0
330,2011502016233,登記記録の閉鎖等,0,2021-09-16,2021-09-13,有限会社内山商事,,有限会社,東京都,北区,王子２丁目３０番２号,,13,117,1140002,,,2021-09-13,清算の結了等,,,2015-10-05,1,,,,,,0
340,2013201015441,登記記録の閉鎖等,0,2021-09-16,2021-09-01,株式会社ブープラン,,株式会社,東京都,目黒区,青葉台１丁目１６番７号,,13,110,1530042,,,2021-09-01,清算の結了等,,,2015-10-05,1,,,,,ブープラン,0
361,2021001067181,登記記録の閉鎖等,0,2021-09-16,2021-09-14,株式会社地元未来研究所,,株式会社,神奈川県,横須賀市,大滝町２丁目６番地ザ・タワー横須賀中央３０２,,14,201,2380008,,,2021-09-14,清算の結了等,,,2019-05-09,1,,,,,ジモトミライケンキュウジョ,0
369,2030001107145,登記記録の閉鎖等,0,2021-09-16,2021-09-14,正和株式会社,,株式会社,東京都,渋谷区,道玄坂１丁目１５番１０号,,13,113,1500043,,,2021-09-14,清算の結了等,,,2015-10-05,1,,,,,セイワ,0
402,2100005002756,登記記録の閉鎖等,0,2021-09-16,2021-09-14,上山田戸倉温泉芸寮協同組合,,その他の設立登記法人,長野県,千曲市,上山田温泉２丁目１２番地１０,,20,218,3890821,,,2021-09-14,清算の結了等,,,2015-10-05,1,,,,,カミヤマダトグラオンセンゲイリョウ,0
417,2120002025840,登記記録の閉鎖等,0,2021-09-16,2021-09-08,有限会社睦和工業所,,有限会社,大阪府,大阪市東淀川区,北江口４丁目１２番１１号,,27,114,5330002,,,2021-09-08,清算の結了等,,,2015-10-05,1,,,,,ムツワコウギョウショ,0
419,2120002079969,登記記録の閉鎖等,0,2021-09-16,2021-09-08,有限会社出崎製作所,,有限会社,大阪府,門真市,四宮６丁目６番７号,,27,223,5710017,,,2021-09-08,清算の結了等,,,2015-10-05,1,,,,,デザキセイサクショ,0
442,2140002038634,登記記録の閉鎖等,0,2021-09-16,2021-09-10,有限会社本山商会,,有限会社,兵庫県,加古郡稲美町,国安３２２番地の６０,,28,381,6751114,,,2021-09-10,清算の結了等,,,2015-10-05,1,,,,,モトヤマショウカイ,0
451,2180001011126,登記記録の閉鎖等,0,2021-09-16,2021-09-10,株式会社三木工務店,,株式会社,愛知県,名古屋市瑞穂区,豆田町１丁目７番地,,23,108,4670864,,,2021-09-10,清算の結了等,,,2015-10-05,1,,,,,ミキコウムテン,0
456,2180001122906,登記記録の閉鎖等,0,2021-09-16,2021-09-10,ベストクオリティ株式会社,,株式会社,愛知県,海部郡大治町,大字東條字中切１２３番地,,23,424,4901134,,,2021-09-10,清算の結了等,,,2016-04-15,1,,,,,ベストクオリティ,0
461,2180002044612,登記記録の閉鎖等,0,2021-09-16,2021-09-13,有限会社ピーアンドエムコーポレーション,,有限会社,愛知県,名古屋市中川区,好本町２丁目４９番地の１,,23,110,4540825,,,2021-09-13,清算の結了等,,,2015-10-05,1,,,,,ピーアンドエムコーポレーション,0
464,2190001020118,登記記録の閉鎖等,0,2021-09-16,2021-09-15,株式会社ウェルフード,,株式会社,三重県,四日市市,小生町７８７番地１,,24,202,5120932,,,2021-09-15,清算の結了等,,,2015-10-05,1,,,,,,0
465,2190001020729,登記記録の閉鎖等,0,2021-09-16,2021-09-15,株式会社大紀マリンサポート,,株式会社,三重県,度会郡大紀町,錦１２５番地９,,24,471,5192911,,,2021-09-15,清算の結了等,,,2015-10-05,1,,,,,ダイキマリンサポート,0
471,2220001020452,登記記録の閉鎖等,0,2021-09-16,2021-09-14,株式会社山口保険サービス,,株式会社,石川県,加賀市,大聖寺地方町１４の７番地７,,17,206,9220861,,,2021-09-14,清算の結了等,,,2015-10-05,1,,,,,ヤマグチホケンサービス,0
488,2290001009563,登記記録の閉鎖等,0,2021-09-16,2021-08-31,ニュー津田株式会社,,株式会社,福岡県,福岡市中央区,桜坂２丁目１０番４４号,,40,133,8100024,,,2021-08-31,清算の結了等,,,2015-10-05,1,,,,,ニューツダ,0
491,2290001060013,登記記録の閉鎖等,0,2021-09-16,2021-09-01,サイコスポーツ株式会社,,株式会社,福岡県,福岡市城南区,神松寺２丁目１７番４号,,40,136,8140121,,,2021-09-01,清算の結了等,,,2015-10-05,1,,,,,,0
498,2290801015257,登記記録の閉鎖等,0,2021-09-16,2021-09-03,太平ハーネス株式会社,,株式会社,福岡県,行橋市,南泉１丁目２６番１号,,40,213,8240036,,,2021-09-03,清算の結了等,,,2015-10-05,1,,,,,タイヘイハーネス,0
528,2470002012309,登記記録の閉鎖等,0,2021-09-16,2021-09-13,有限会社丸松,,有限会社,香川県,丸亀市,広島町青木１５０番地,,37,202,7630105,,,2021-09-13,清算の結了等,,,2015-10-05,1,,,,,マルショウ,0
532,3010001049157,登記記録の閉鎖等,0,2021-09-16,2021-09-14,株式会社大丸文房具店,,株式会社,東京都,中央区,東日本橋２丁目１番１号,,13,102,1030004,,,2021-09-14,清算の結了等,,,2015-10-05,1,,,,,ダイマルブンボウグテン,0
536,3010001182593,登記記録の閉鎖等,0,2021-09-16,2021-09-13,千葉パワー株式会社,,株式会社,東京都,千代田区,丸の内１丁目７番１２号,,13,101,1000005,,,2021-09-13,清算の結了等,,,2017-04-11,1,,,,,チバパワー,0
537,3010001207680,登記記録の閉鎖等,0,2021-09-16,2021-09-14,株式会社ミヤガワ東京,,株式会社,東京都,品川区,南大井６丁目１６番４号,,13,109,1400013,,,2021-09-14,合併による解散等,3020001031989,令和３年９月１日横浜市戸塚区吉田町１３３番地２株式会社セラミックワン（3020001031989）に合併し解散,2020-02-25,1,,,,,ミヤガワトウキョウ,0
555,3010402025228,登記記録の閉鎖等,0,2021-09-16,2021-09-08,有限会社竹田企画,,有限会社,東京都,港区,白金２丁目１番３８－４０３号,,13,103,1080072,,,2021-09-08,清算の結了等,,,2015-10-05,1,,,,,タケダキカク,0
563,3010703002974,登記記録の閉鎖等,0,2021-09-16,2021-09-13,コクーントラスト合同会社,,合同会社,東京都,品川区,北品川１丁目９－７トップルーム品川１０１５,,13,109,1400001,,,2021-09-13,合併による解散等,3011001112094,令和３年８月３０日東京都渋谷区幡ケ谷三丁目３９番１２号澁谷ウェストビル１階株式会社ブルーオーシャン（3011001112094）に合併し解散,2016-01-06,1,,,,,,0
577,3011001122837,登記記録の閉鎖等,0,2021-09-16,2021-09-10,株式会社Ｃｏｎｔｅｅ,,株式会社,東京都,渋谷区,鶯谷町１番５号,,13,113,1500032,,,2021-09-10,合併による解散等,7010401130322,令和３年９月１日東京都中央区八丁堀三丁目２６番８号高橋ビル５階ＳｈｅｅｐＭｅｄｉｃａｌ株式会社（7010401130322）に合併し解散,2018-06-20,1,,,,,コンテ,0
583,3011301002012,登記記録の閉鎖等,0,2021-09-16,2021-09-09,株式会社クスマ,,株式会社,東京都,杉並区,天沼３丁目３番７－３０８号,,13,115,1670032,,,2021-09-09,清算の結了等,,,2015-10-05,1,,,,,クスマ,0
589,3012302007850,登記記録の閉鎖等,0,2021-09-16,2021-09-06,株式会社あすかライフケア,,株式会社,東京都,町田市,能ヶ谷４丁目７番１３号,,13,209,1950053,,,2021-09-06,清算の結了等,,,2015-10-05,1,,,,,アスカライフケア,0
612,3020003009059,登記記録の閉鎖等,0,2021-09-16,2021-09-06,合同会社オースタート,,合同会社,東京都,新宿区,新宿３丁目１２番４号新宿Ｎタウンプラザ３０９号,,13,104,1600022,,,2021-09-06,清算の結了等,,,2015-10-05,1,,,,,オースタート,0
620,3021002023018,登記記録の閉鎖等,0,2021-09-16,2021-09-14,有限会社ナリ企画,,有限会社,神奈川県,相模原市南区,古淵１丁目６番１０号,,14,153,2520344,,,2021-09-14,清算の結了等,,,2015-10-05,1,,,,,ナリキカク,0
621,3021002039699,登記記録の閉鎖等,0,2021-09-16,2021-09-13,有限会社さがみ福祉会,,有限会社,神奈川県,伊勢原市,岡崎６７８４番地７号,,14,214,2591135,,,2021-09-13,清算の結了等,,,2015-10-05,1,,,,,サガミフクシカイ,0
635,3040001060821,登記記録の閉鎖等,0,2021-09-16,2021-09-07,株式会社丸藤,,株式会社,千葉県,市川市,新井２丁目１８番１１号,,12,203,2720144,,,2021-09-07,清算の結了等,,,2015-10-05,1,,,,,マルフジ,0
650,3080001022982,登記記録の閉鎖等,0,2021-09-16,2021-09-14,アオイビール株式会社,,株式会社,静岡県,静岡市葵区,宮ケ崎町３０番地,,22,101,4200868,,,2021-09-14,清算の結了等,,,2019-07-10,1,,,,,アオイビール,0
665,3100002037481,登記記録の閉鎖等,0,2021-09-16,2021-09-14,有限会社みやした呉服店,,有限会社,長野県,飯田市,知久町３丁目３５番地,,20,205,3950045,,,2021-09-14,清算の結了等,,,2015-10-05,1,,,,,ミヤシタゴフクテン,0
668,3100005008141,登記記録の閉鎖等,0,2021-09-16,2021-09-15,大沢林野利用農業協同組合,,その他の設立登記法人,長野県,茅野市,金沢１８４９番地１,,20,214,3910012,,,2021-09-15,清算の結了等,,,2015-10-05,1,,,,,オオサワリンヤリヨウ,0
672,3110002018968,登記記録の閉鎖等,0,2021-09-16,2021-09-13,有限会社ケミカルジャパン,,有限会社,長野県,長野市,大字栗田字舎利田６５３番地９,,20,201,3800921,,,2021-09-13,清算の結了等,,,2015-10-05,1,,,,,ケミカルジャパン,0
685,3120002045177,登記記録の閉鎖等,0,2021-09-16,2021-09-13,アヤアンドミワ有限会社,,有限会社,京都府,京都市下京区,西洞院通仏光寺下る本柳水町７６８番地,,26,106,6008462,,,2021-09-13,清算の結了等,,,2015-10-05,1,,,,,アヤアンドミワ,0
695,3120901028249,登記記録の閉鎖等,0,2021-09-16,2021-09-15,株式会社フォレント,,株式会社,大阪府,豊中市,小曽根３丁目１８番７号,,27,203,5610813,,,2021-09-15,清算の結了等,,,2015-10-05,1,,,,,フォレント,0
702,3140001014858,登記記録の閉鎖等,0,2021-09-16,2021-09-14,株式会社オー、エス．マート,,株式会社,兵庫県,神戸市北区,西大池１丁目３番１６号,,28,109,6511201,,,2021-09-14,清算の結了等,,,2015-10-05,1,,,,,オーエスマート,0
733,3180002039982,登記記録の閉鎖等,0,2021-09-16,2021-09-10,有限会社カナメグリーンゴルフ,,有限会社,愛知県,名古屋市南区,三吉町３丁目２１番地,,23,112,4570805,,,2021-09-10,清算の結了等,,,2015-10-05,1,,,,,カナメグリーンゴルフ,0
737,3180301009447,登記記録の閉鎖等,0,2021-09-16,2021-09-13,老津鍛造株式会社,,株式会社,愛知県,豊橋市,老津町字今下１３７番地の２,,23,201,4413301,,,2021-09-13,清算の結了等,,,2015-10-05,1,,,,,オイツタンゾウ,0
741,3200001001107,登記記録の閉鎖等,0,2021-09-16,2021-09-14,粥川商事株式会社,,株式会社,岐阜県,岐阜市,三歳町４丁目１番地の１２,,21,201,5008335,,,2021-09-14,清算の結了等,,,2015-10-05,1,,,,,,0
742,3210002007614,登記記録の閉鎖等,0,2021-09-16,2021-09-13,有限会社てぃーあーるタカハシ,,有限会社,福井県,あわら市,波松第６９号５９番地１,,18,208,9104277,,,2021-09-13,清算の結了等,,,2015-10-05,1,,,,,ティーアールタカハシ,0
743,3220002015384,登記記録の閉鎖等,0,2021-09-16,2021-09-14,有限会社エーアイケー,,有限会社,石川県,羽咋郡宝達志水町,今浜ム１４９番地１,,17,386,9291344,,,2021-09-14,清算の結了等,,,2015-10-05,1,,,,,エーアイケー,0
748,3260001029646,登記記録の閉鎖等,0,2021-09-16,2021-09-14,立河船装株式会社,,株式会社,岡山県,玉野市,御崎２丁目３１番７号,,33,204,7060024,,,2021-09-14,清算の結了等,,,2016-06-07,1,,,,,タチカワセンソウ,0
754,3290001063270,登記記録の閉鎖等,0,2021-09-16,2021-09-01,株式会社サイコスポーツ鍼灸整骨院,,株式会社,福岡県,福岡市南区,塩原３丁目５番３３号,,40,134,8150032,,,2021-09-01,清算の結了等,,,2015-10-05,1,,,,,,0
774,3340002022377,登記記録の閉鎖等,0,2021-09-16,2021-09-10,有限会社ケイ・アンド・ティ,,有限会社,鹿児島県,出水市,昭和町２７番３号,,46,208,8990202,,,2021-09-10,清算の結了等,,,2015-10-05,1,,,,,ケイアンドティ,0
775,3350001001570,登記記録の閉鎖等,0,2021-09-16,2021-09-10,北栄株式会社,,株式会社,宮崎県,宮崎市,大字恒久１８００番地１,,45,201,8800916,,,2021-09-10,合併による解散等,8350001005600,令和３年８月３０日宮崎県西都市大字岡富１２５９番地３６都栄工業株式会社（8350001005600）に合併し解散,2015-10-05,1,,,,,ホクエイ,0
781,3390001013942,登記記録の閉鎖等,0,2021-09-16,2021-09-10,株式会社サプリフードしらたか,,株式会社,山形県,西置賜郡白鷹町,大字荒砥乙５５５番地１,,06,402,9920832,,,2021-09-10,清算の結了等,,,2015-10-05,1,,,,,サプリフードシラタカ,0
809,4010101012138,登記記録の閉鎖等,0,2021-09-16,2021-09-10,グローバル・アイ株式会社,,株式会社,東京都,青梅市,野上町４丁目２番地の５ソシアリヴェール２１、３０１,,13,205,1980032,,,2021-09-10,清算の結了等,,,2016-01-05,1,,,,,,0
810,4010105001252,登記記録の閉鎖等,0,2021-09-16,2021-09-15,特定非営利活動法人日本ポーセレンペインティングインストラクター協会,,その他の設立登記法人,東京都,八王子市,西寺方町３８４番地,,13,201,1920153,,,2021-09-15,清算の結了等,,,2015-10-05,1,,,,,,0
832,4011001032705,登記記録の閉鎖等,0,2021-09-16,2021-09-14,株式会社エルプランニング,,株式会社,東京都,渋谷区,千駄ヶ谷３丁目１３番２２号,,13,113,1510051,,,2021-09-14,清算の結了等,,,2015-10-05,1,,,,,エルプランニング,0
833,4011001070738,登記記録の閉鎖等,0,2021-09-16,2021-09-10,株式会社ＡＣＩ,,株式会社,東京都,小金井市,本町２丁目６番１０号シティ・ライブ武蔵小金井１Ｆ,,13,210,1840004,,,2021-09-10,清算の結了等,,,2015-10-05,1,,,,,エーシーアイ,0
850,4011501008378,登記記録の閉鎖等,0,2021-09-16,2021-09-14,光産業株式会社,,株式会社,東京都,荒川区,町屋４丁目３５番４号,,13,118,1160001,,,2021-09-14,清算の結了等,,,2015-10-05,1,,,,,ヒカリサンギョウ,0
851,4011501023674,登記記録の閉鎖等,0,2021-09-16,2021-09-13,越後ライフスタイル株式会社,,株式会社,東京都,荒川区,西日暮里４丁目１番２０号,,13,118,1160013,,,2021-09-13,清算の結了等,,,2018-04-26,1,,,,,エチゴライフスタイル,0
852,4011502006224,登記記録の閉鎖等,0,2021-09-16,2021-09-13,有限会社ゆいねお企画,,有限会社,東京都,北区,昭和町１丁目４番１号,,13,117,1140011,,,2021-09-13,清算の結了等,,,2015-10-05,1,,,,,,0
861,4013101000426,登記記録の閉鎖等,0,2021-09-16,2021-09-13,山貴建設株式会社,,株式会社,東京都,福生市,志茂２２７番地５,,13,218,1970023,,,2021-09-13,清算の結了等,,,2015-10-05,1,,,,,ヤマキケンセツ,0
863,4013201015811,登記記録の閉鎖等,0,2021-09-16,2021-09-01,株式会社オクト,,株式会社,東京都,目黒区,鷹番１丁目１５番３号,,13,110,1520004,,,2021-09-01,合併による解散等,8013202012894,令和３年９月１日東京都目黒区鷹番一丁目１５番３号株式会社晃真珠（8013202012894）に合併し解散,2015-10-05,1,,,,,オクト,0
867,4020001044404,登記記録の閉鎖等,0,2021-09-16,2021-09-08,株式会社アオバ,,株式会社,神奈川県,横浜市旭区,今宿２丁目１０番５号,,14,112,2410817,,,2021-09-08,清算の結了等,,,2015-10-05,1,,,,,,0
885,4021001048956,登記記録の閉鎖等,0,2021-09-16,2021-09-14,株式会社ホンプランニング,,株式会社,神奈川県,三浦市,南下浦町上宮田３１２５番地１,,14,210,2380101,,,2021-09-14,清算の結了等,,,2015-10-05,1,,,,,ホンプランニング,0
888,4021002033255,登記記録の閉鎖等,0,2021-09-16,2021-09-14,有限会社丸丹百貨店,,有限会社,神奈川県,厚木市,中町１丁目８番１０号,,14,212,2430018,,,2021-09-14,清算の結了等,,,2015-10-05,1,,,,,マルタンヒャッカテン,0
891,4021005001787,登記記録の閉鎖等,0,2021-09-16,2021-09-13,特定非営利活動法人工房朱,,その他の設立登記法人,神奈川県,茅ヶ崎市,幸町１９番２２号,,14,207,2530052,,,2021-09-13,清算の結了等,,,2015-10-05,1,,,,,コウボウシュ,0
906,4040001056208,登記記録の閉鎖等,0,2021-09-16,2021-09-08,株式会社市原商興,,株式会社,千葉県,市原市,西国吉１６７８番地２００,,12,219,2900231,,,2021-09-08,清算の結了等,,,2015-10-05,1,,,,,イチハラショウコウ,0
916,4040003010435,登記記録の閉鎖等,0,2021-09-16,2021-09-09,シグナル合同会社,,合同会社,千葉県,佐倉市,江原台１丁目２９番地６号シャルムハイツＥ１０１,,12,212,2850825,,,2021-09-09,清算の結了等,,,2017-08-15,1,,,,,シグナル,0
932,4100001005232,登記記録の閉鎖等,0,2021-09-16,2021-09-13,株式会社トラストテック長野,,株式会社,長野県,長野市,大字栗田６４６番地２,,20,201,3800921,,,2021-09-13,清算の結了等,,,2015-10-05,1,,,,,トラストテックナガノ,0
937,4100001033398,登記記録の閉鎖等,0,2021-09-16,2021-09-14,株式会社ホームツール,,株式会社,長野県,上高井郡高山村,大字高井６４４５番地２,,20,543,3820800,,,2021-09-14,清算の結了等,,,2020-08-04,1,,,,,ホームツール,0
942,4100005011920,登記記録の閉鎖等,0,2021-09-16,2021-09-13,特定非営利活動法人長野国際友好協会,,その他の設立登記法人,長野県,長野市,大字鶴賀問御所１２９３番地有限会社長野外国語センター内,,20,201,3800907,,,2021-09-13,清算の結了等,,,2016-08-29,1,,,,,ナガノコクサイユウコウキョウカイ,0
972,4120102003307,登記記録の閉鎖等,0,2021-09-16,2021-09-09,有限会社ナウ・システム・ジャパン,,有限会社,大阪府,堺市中区,深井沢町３３５３番地,,27,142,5998236,,,2021-09-09,清算の結了等,,,2015-10-05,1,,,,,ナウシステムジャパン,0
984,4130001001170,登記記録の閉鎖等,0,2021-09-16,2021-09-10,大商物産株式会社,,株式会社,京都府,京都市右京区,嵯峨天龍寺北造路町４６番地の２,,26,108,6168374,,,2021-09-10,清算の結了等,,,2015-10-05,1,,,,,ダイショウブッサン,0
985,4130001006046,登記記録の閉鎖等,0,2021-09-16,2021-09-10,株式会社絵瑠夢,,株式会社,京都府,京都市左京区,松ケ崎正田町３番地５,,26,103,6060966,,,2021-09-10,清算の結了等,,,2015-10-05,1,,,,,,0
999,4160002013336,登記記録の閉鎖等,0,2021-09-16,2021-09-15,有限会社エス,,有限会社,滋賀県,草津市,東矢倉３丁目１９番７号,,25,206,5250054,,,2021-09-15,清算の結了等,,,2015-10-05,1,,,,,エス,0
1006,4180001122689,登記記録の閉鎖等,0,2021-09-16,2021-09-13,株式会社Ｎｏｎｅ,,株式会社,愛知県,名古屋市中川区,四女子町４丁目６３番地,,23,110,4540822,,,2021-09-13,清算の結了等,,,2016-04-01,1,,,,,エヌワン,0
1029,4220002009724,登記記録の閉鎖等,0,2021-09-16,2021-09-14,有限会社住専サービス,,有限会社,石川県,金沢市,高尾南３丁目２０５番地１,,17,201,9218154,,,2021-09-14,清算の結了等,,,2015-10-05,1,,,,,ジュウセンサービス,0
1030,4220002014377,登記記録の閉鎖等,0,2021-09-16,2021-09-10,有限会社加賀,,有限会社,石川県,鹿島郡中能登町,在江ヲ部２０番地甲,,17,407,9291804,,,2021-09-10,清算の結了等,,,2015-10-05,1,,,,,カガ,0
1034,4240005011188,登記記録の閉鎖等,0,2021-09-16,2021-09-13,医療法人社団純鼎会村上医院,,その他の設立登記法人,広島県,尾道市,土堂２丁目２番１６号,,34,205,7220035,,,2021-09-13,清算の結了等,,,2015-10-05,1,,,,,ジュンテイカイムラカミイイン,0
1038,4270002002088,登記記録の閉鎖等,0,2021-09-16,2021-09-14,鳥取情報サービス有限会社,,有限会社,鳥取県,鳥取市,吉方町２丁目２８２番地,,31,201,6800062,,,2021-09-14,清算の結了等,,,2015-10-05,1,,,,,トットリジョウホウサービス,0
1067,4330002031568,登記記録の閉鎖等,0,2021-09-16,2021-09-14,有限会社オカザキ,,有限会社,熊本県,山鹿市,山鹿４１番地,,43,208,8610501,,,2021-09-14,清算の結了等,,,2020-12-03,1,,,,,オカザキ,0
1077,4390002000179,登記記録の閉鎖等,0,2021-09-16,2021-09-08,有限会社安孫子電気工事,,有限会社,山形県,山形市,大字十文字４８５番地２１,,06,201,9902211,,,2021-09-08,清算の結了等,,,2015-10-05,1,,,,,アビコデンキコウジ,0
1083,4430001061853,登記記録の閉鎖等,0,2021-09-16,2021-09-08,株式会社ポートフォーリオイースト,,株式会社,北海道,北広島市,朝日町１丁目４番地７,,01,234,0611123,,,2021-09-08,清算の結了等,,,2015-10-05,1,,,,,ポートフォーリオイースト,0
1090,4430005012480,登記記録の閉鎖等,0,2021-09-16,2021-09-07,特定非営利活動法人噴火湾アートビレッジ,,その他の設立登記法人,北海道,伊達市,館山町２１番地５,,01,233,0520031,,,2021-09-07,清算の結了等,,,2015-10-05,1,,,,,フンカワンアートビレッジ,0
1104,5010001102005,登記記録の閉鎖等,0,2021-09-16,2021-09-09,レックス株式会社,,株式会社,千葉県,成田市,本三里塚２３番１０,,12,211,2860118,,,2021-09-09,清算の結了等,,,2015-10-05,1,,,,,レックス,0
1106,5010001124536,登記記録の閉鎖等,0,2021-09-16,2021-09-13,株式会社祥,00049461,株式会社,東京都,中央区,銀座８丁目８番６号,,13,102,1040061,,,2021-09-13,清算の結了等,,,2015-10-05,1,,,,,ショウ,0
1120,5010401155635,登記記録の閉鎖等,0,2021-09-16,2021-09-08,株式会社ＡＰ７０,,株式会社,東京都,港区,虎ノ門４丁目１番２８号虎ノ門タワーズオフィス１７階,,13,103,1050001,,,2021-09-08,清算の結了等,,,2020-10-08,1,,,,,エイピーナナジュウ,0
1144,5010802010091,登記記録の閉鎖等,0,2021-09-16,2021-09-07,有限会社東神,,有限会社,東京都,大田区,大森北３丁目２３番９号,,13,111,1430016,,,2021-09-07,清算の結了等,,,2015-10-05,1,,,,,トウシン,0
1147,5011001033116,登記記録の閉鎖等,0,2021-09-16,2021-08-31,株式会社ミュートラ,,株式会社,東京都,渋谷区,代官山町１６番５号,,13,113,1500034,,,2021-08-31,合併による解散等,3011001003319,令和３年８月３１日東京都渋谷区代官山町１６番５号株式会社センス（3011001003319）に合併し解散,2015-10-05,1,,,,,ミュートラ,0
1153,5011001123098,登記記録の閉鎖等,0,2021-09-16,2021-09-08,株式会社ＦａｎＭｏ,,株式会社,東京都,港区,南青山２丁目１２番１号ミヤコヤビル４階,,13,103,1070062,,,2021-09-08,清算の結了等,,,2018-07-04,1,,,,,ファンモ,0
1177,5013202012006,登記記録の閉鎖等,0,2021-09-16,2021-09-01,有限会社オフィス・テレーズ,,有限会社,東京都,目黒区,洗足２丁目１８番１－２０４号,,13,110,1520012,,,2021-09-01,清算の結了等,,,2015-10-05,1,,,,,オフィステレーズ,0
1178,5013301034578,登記記録の閉鎖等,0,2021-09-16,2021-09-08,株式会社Ｎ＆Ｉマーケティング,,株式会社,東京都,豊島区,東池袋２丁目６３番１５号,,13,116,1700013,,,2021-09-08,清算の結了等,,,2015-10-05,1,,,,,,0
1181,5020001001759,登記記録の閉鎖等,0,2021-09-16,2021-09-08,株式会社龍王設備,,株式会社,神奈川県,横浜市瀬谷区,阿久和西４丁目１４番地７,,14,114,2460025,,,2021-09-08,清算の結了等,,,2015-10-05,1,,,,,,0
1188,5020002071363,登記記録の閉鎖等,0,2021-09-16,2021-09-08,有限会社エムアンドエム,,有限会社,神奈川県,横浜市泉区,西が岡１丁目８番地の９,,14,116,2450006,,,2021-09-08,清算の結了等,,,2015-10-05,1,,,,,エムアンドエム,0
1213,5040001082715,登記記録の閉鎖等,0,2021-09-16,2021-09-07,株式会社ねこの手,,株式会社,千葉県,印西市,原２丁目５番地Ｃ棟２０２号,,12,231,2701335,,,2021-09-07,清算の結了等,,,2015-10-05,1,,,,,ネコノテ,0
1223,5040003008032,登記記録の閉鎖等,0,2021-09-16,2021-09-08,合同会社プリンテップ,,合同会社,千葉県,松戸市,小金原１丁目２１番３４号,,12,207,2700021,,,2021-09-08,清算の結了等,,,2015-12-18,1,,,,,プリンテップ,0
1229,5080001015365,登記記録の閉鎖等,0,2021-09-16,2021-09-15,株式会社ヤマケン・ユタカフーズ,,株式会社,静岡県,焼津市,方ノ上５２３番地の１,,22,212,4250005,,,2021-09-15,清算の結了等,,,2015-10-05,1,,,,,ヤマケンユタカフーズ,0
1233,5080405006431,登記記録の閉鎖等,0,2021-09-16,2021-09-14,ＮＰＯ法人ｋｉｚｕｎａ,,その他の設立登記法人,静岡県,浜松市北区,細江町中川７１７２番地の１７８６,,22,135,4311304,,,2021-09-14,清算の結了等,,,2015-10-05,1,,,,,キズナ,0
1239,5100001009315,登記記録の閉鎖等,0,2021-09-16,2021-09-14,眞啓堂金型株式会社,,株式会社,長野県,佐久市,内山５０６９番地１,,20,217,3850031,,,2021-09-14,清算の結了等,,,2015-10-05,1,,,,,シンケイドウカナガタ,0
1240,5100002011897,登記記録の閉鎖等,0,2021-09-16,2021-09-13,有限会社イワイ工作所,,有限会社,長野県,南佐久郡佐久穂町,大字宿岩５４番地１,,20,309,3840612,,,2021-09-13,清算の結了等,,,2015-10-05,1,,,,,イワイコウサクショ,0
1244,5110002008059,登記記録の閉鎖等,0,2021-09-16,2021-09-10,有限会社さかい,,有限会社,新潟県,新潟市江南区,亀田本町４丁目３番２号,,15,104,9500164,,,2021-09-10,清算の結了等,,,2015-10-05,1,,,,,サカイ,0
1246,5120001007531,登記記録の閉鎖等,0,2021-09-16,2021-09-08,佐竹株式会社,,株式会社,大阪府,大阪市都島区,中野町２丁目８番１６号,,27,102,5340027,,,2021-09-08,清算の結了等,,,2015-10-05,1,,,,,,0
1300,5180301008827,登記記録の閉鎖等,0,2021-09-16,2021-09-06,株式会社栄大,,株式会社,愛知県,豊橋市,大崎町字東里中１５番地,,23,201,4418073,,,2021-09-06,清算の結了等,,,2015-10-05,1,,,,,エイダイ,0
1306,5200001025186,登記記録の閉鎖等,0,2021-09-16,2021-09-13,斐太バス株式会社,,株式会社,岐阜県,高山市,西之一色町２丁目１２６番地の１,,21,203,5060031,,,2021-09-13,清算の結了等,,,2015-10-05,1,,,,,ヒダバス,0
1307,5200001036027,登記記録の閉鎖等,0,2021-09-16,2021-09-14,株式会社エーラボ,,株式会社,岐阜県,各務原市,鵜沼山崎町７丁目５９番地１,,21,213,5090124,,,2021-09-14,清算の結了等,,,2019-03-15,1,,,,,エーラボ,0
1311,5220001013164,登記記録の閉鎖等,0,2021-09-16,2021-09-13,株式会社北鉄工,,株式会社,石川県,加賀市,保賀町２５４番地の２,,17,206,9220015,,,2021-09-13,清算の結了等,,,2015-10-05,1,,,,,キタテッコウ,0
1332,5290803002432,登記記録の閉鎖等,0,2021-09-16,2021-09-01,合同会社さかえ,,合同会社,福岡県,北九州市八幡西区,茶屋の原３丁目２４番１０号,,40,109,8071134,,,2021-09-01,清算の結了等,,,2015-10-05,1,,,,,サカエ,0
1346,5350001009182,登記記録の閉鎖等,0,2021-09-16,2021-09-13,株式会社松建設,,株式会社,宮崎県,都城市,乙房町３２３１番地１,,45,202,8850112,,,2021-09-13,清算の結了等,,,2015-10-05,1,,,,,マツケンセツ,0
1352,5370001011351,登記記録の閉鎖等,0,2021-09-16,2021-09-06,東北大進設備株式会社,,株式会社,宮城県,仙台市青葉区,上愛子字上町１３番地の１,,04,101,9893124,,,2021-09-06,清算の結了等,,,2015-10-05,1,,,,,トウホクダイシンセツビ,0
1356,5380002017009,登記記録の閉鎖等,0,2021-09-16,2021-09-10,有限会社坂元タイル,,有限会社,福島県,本宮市,岩根字下年神９９番地１,,07,214,9691106,,,2021-09-10,清算の結了等,,,2015-10-05,1,,,,,サカモトタイル,0
1375,5470001017867,登記記録の閉鎖等,0,2021-09-16,2021-09-13,ツーエム企画株式会社,,株式会社,香川県,高松市,松島町２丁目１３番３１号,,37,201,7600068,,,2021-09-13,清算の結了等,,,2020-02-05,1,,,,,ツーエムキカク,0
1385,6010001107655,登記記録の閉鎖等,0,2021-09-16,2021-09-08,株式会社山恭,,株式会社,東京都,千代田区,外神田２丁目１５番８号,,13,101,1010021,,,2021-09-08,清算の結了等,,,2015-10-05,1,,,,,サンキョウ,0
1386,6010001125764,登記記録の閉鎖等,0,2021-09-16,2021-09-13,ＡＳ　Ｃｏｍｍｕｎｉｃａｔｉｏｎｓ株式会社,,株式会社,東京都,千代田区,大手町２丁目６番１号朝日生命大手町ビル,,13,101,1000004,,,2021-09-13,合併による解散等,9010001098999,令和３年９月１日東京都千代田区大手町二丁目６番１号朝日生命大手町ビルＡｐａｍａｎ　Ｎｅｔｗｏｒｋ株式会社（9010001098999）に合併し解散,2015-10-05,1,,,,,エイエスコミュニケーションズ,0
1457,6013305001508,登記記録の閉鎖等,0,2021-09-16,2021-09-08,特定非営利活動法人ソフトグリーン,,その他の設立登記法人,東京都,豊島区,巣鴨５丁目１４番１３号,,13,116,1700002,,,2021-09-08,清算の結了等,,,2015-10-05,1,,,,,ソフトグリーン,0
1483,6021002023519,登記記録の閉鎖等,0,2021-09-16,2021-09-14,有限会社ピコット,,有限会社,神奈川県,相模原市中央区,千代田２丁目１０番１９号千代田マンション１Ｆ,,14,152,2520237,,,2021-09-14,清算の結了等,,,2015-10-05,1,,,,,ピコット,0
1499,6040001078670,登記記録の閉鎖等,0,2021-09-16,2021-09-13,オプトオール株式会社,,株式会社,東京都,中央区,日本橋浜町２丁目１６番６号,,13,102,1030007,,,2021-09-13,清算の結了等,,,2015-10-05,1,,,,,オプトオール,0
1503,6040002071278,登記記録の閉鎖等,0,2021-09-16,2021-09-08,有限会社ジャストワン,,有限会社,千葉県,富津市,西大和田３７９番地の２,,12,226,2930035,,,2021-09-08,清算の結了等,,,2015-10-05,1,,,,,ジャストワン,0
1513,6080401003019,登記記録の閉鎖等,0,2021-09-16,2021-09-10,拓殖株式会社,,株式会社,静岡県,浜松市北区,三方原町７５６番地の１,,22,135,4338105,,,2021-09-10,合併による解散等,5080401000784,令和３年９月１日静岡県浜松市北区三方原町７５６番地の１エンサン株式会社（5080401000784）に合併し解散,2015-10-05,1,,,,,タクショク,0
1529,6110002021878,登記記録の閉鎖等,0,2021-09-16,2021-09-10,有限会社ウインド・ラブ,,有限会社,新潟県,村上市,岩船新田町４番１２号,,15,212,9580054,,,2021-09-10,清算の結了等,,,2015-10-05,1,,,,,ウインドラブ,0
1558,6120102005615,登記記録の閉鎖等,0,2021-09-16,2021-09-14,有限会社ネプチューン,,有限会社,大阪府,高石市,加茂１丁目１８番２８号,,27,225,5920011,,,2021-09-14,清算の結了等,,,2015-10-05,1,,,,,ネプチューン,0
1559,6120102015779,登記記録の閉鎖等,0,2021-09-16,2021-09-13,有限会社ティー・エヌ・アール,,有限会社,大阪府,松原市,天美北３丁目１７番８号,,27,217,5800031,,,2021-09-13,清算の結了等,,,2015-10-05,1,,,,,ティーエヌアール,0
1575,6140001109820,登記記録の閉鎖等,0,2021-09-16,2021-09-10,リポソーム・ラボ株式会社,,株式会社,兵庫県,神戸市中央区,栄町通３丁目６番２７,,28,110,6500023,,,2021-09-10,清算の結了等,,,2018-04-23,1,,,,,リポソームラボ,0
1577,6140003009234,登記記録の閉鎖等,0,2021-09-16,2021-09-08,合同会社シオミ,,合同会社,大阪府,大阪市中央区,北浜１丁目９番１０号,,27,128,5410041,,,2021-09-08,清算の結了等,,,2015-10-05,1,,,,,シオミ,0
1584,6180001084531,登記記録の閉鎖等,0,2021-09-16,2021-09-10,株式会社たなかや,,株式会社,愛知県,一宮市,せんい２丁目６番１６号,,23,203,4910873,,,2021-09-10,清算の結了等,,,2015-10-05,1,,,,,タナカヤ,0
1587,6180001128890,登記記録の閉鎖等,0,2021-09-16,2021-09-10,株式会社ＪＨＴ,,株式会社,愛知県,知多市,八幡字浦浜１番地５１,,23,224,4780001,,,2021-09-10,合併による解散等,3180001095267,令和３年９月１日愛知県知多市八幡字浦浜１番地５１桟生工業株式会社（3180001095267）に合併し解散,2017-08-04,1,,,,,ジェイエイチティー,0
1594,6180003005972,登記記録の閉鎖等,0,2021-09-16,2021-09-10,合資会社森田屋商店,,合資会社,愛知県,名古屋市中区,大須３丁目４１番２２号,,23,106,4600011,,,2021-09-10,清算の結了等,,,2015-10-05,1,,,,,モリタヤショウテン,0
1596,6180003018702,登記記録の閉鎖等,0,2021-09-16,2021-09-07,合同会社九曜,,合同会社,愛知県,春日井市,熊野町北１丁目５番地１,,23,206,4860820,,,2021-09-07,合併による解散等,6180003016078,令和３年９月１日名古屋市中区千代田三丁目１５番１２号合同会社ＯＴＳ（6180003016078）に合併し解散,2018-02-26,1,,,,,クヨウ,0
1608,6230002006685,登記記録の閉鎖等,0,2021-09-16,2021-09-13,有限会社キンコン館,,有限会社,富山県,富山市,八尾町黒田５３１８番地,,16,201,9392304,,,2021-09-13,清算の結了等,,,2015-10-05,1,,,,,キンコンカン,0
1612,6240002047662,登記記録の閉鎖等,0,2021-09-16,2021-09-14,有限会社高槻鋼材,,有限会社,広島県,福山市,西深津町４丁目１番１２号,,34,207,7210975,,,2021-09-14,清算の結了等,,,2015-10-05,1,,,,,タカツキコウザイ,0
1617,6260001028760,登記記録の閉鎖等,0,2021-09-16,2021-09-13,株式会社ＨａｎｄＳ,,株式会社,岡山県,倉敷市,真備町箭田１１２８番地４,,33,202,7101301,,,2021-09-13,清算の結了等,,,2015-10-05,1,,,,,エイチアンドエス,0
1618,6260003002838,登記記録の閉鎖等,0,2021-09-16,2021-09-15,合同会社セカンド,,合同会社,岡山県,岡山市南区,泉田２丁目５番５号,,33,104,7000944,,,2021-09-15,清算の結了等,,,2019-04-19,1,,,,,セカンド,0
1624,6290005015975,登記記録の閉鎖等,0,2021-09-16,2021-09-09,ＮＰＯ法人あずみ,,その他の設立登記法人,福岡県,福岡市南区,横手２丁目５番１３号,,40,134,8111311,,,2021-09-09,清算の結了等,,,2016-06-23,1,,,,,アズミ,0
1646,6350001006518,登記記録の閉鎖等,0,2021-09-16,2021-09-14,株式会社小松,,株式会社,宮崎県,宮崎市,大字小松２５１１番地,,45,201,8802112,,,2021-09-14,清算の結了等,,,2015-10-05,1,,,,,コマツ,0
1669,6450001001327,登記記録の閉鎖等,0,2021-09-16,2021-09-15,株式会社さがわ商会,,株式会社,北海道,旭川市,六条通８丁目左１号,,01,204,0700036,,,2021-09-15,清算の結了等,,,2015-10-05,1,,,,,サガワショウカイ,0
1671,6450002002737,登記記録の閉鎖等,0,2021-09-16,2021-09-16,有限会社シバタ工芸,,有限会社,北海道,旭川市,東旭川町共栄１８６番地,,01,204,0788340,,,2021-09-16,清算の結了等,,,2015-10-05,1,,,,,シバタコウゲイ,0
1705,7010801021055,登記記録の閉鎖等,0,2021-09-16,2021-09-03,株式会社ローカルリンク,,株式会社,東京都,大田区,蒲田５丁目４９番３,,13,111,1440052,,,2021-09-03,清算の結了等,,,2015-10-05,1,,,,,ローカルリンク,0
1715,7011001096169,登記記録の閉鎖等,0,2021-09-16,2021-09-10,株式会社ＳＪ佐賀・大野,,株式会社,佐賀県,唐津市,相知町大野６３９番地２０,,41,202,8493221,,,2021-09-10,合併による解散等,2011001094086,令和３年９月１日東京都新宿区西新宿三丁目２０番２号株式会社ジェイエムエス・スリー（2011001094086）に合併し解散,2015-10-05,1,,,,,エスジェイサガオオノ,0
1719,7011101024145,登記記録の閉鎖等,0,2021-09-16,2021-09-08,株式会社ナオ・エージェンシー,,株式会社,東京都,新宿区,市谷仲之町３番３４号,,13,104,1620064,,,2021-09-08,清算の結了等,,,2015-10-05,1,,,,,,0
1739,7011801031242,登記記録の閉鎖等,0,2021-09-16,2021-09-07,株式会社ＴＳ企画,,株式会社,千葉県,流山市,大字東深井８４６番地の３１,,12,220,2700101,,,2021-09-07,清算の結了等,,,2016-01-12,1,,,,,ティーエスキカク,0
1750,7013302019329,登記記録の閉鎖等,0,2021-09-16,2021-09-08,有限会社アィディ会,,有限会社,東京都,豊島区,西池袋３丁目２２番７号,,13,116,1710021,,,2021-09-08,清算の結了等,,,2015-10-05,1,,,,,,0
1756,7020001091294,登記記録の閉鎖等,0,2021-09-16,2021-09-08,嵯峨野商事株式会社,,株式会社,神奈川県,川崎市中原区,木月住吉町１９番１号,,14,133,2110021,,,2021-09-08,清算の結了等,,,2015-10-05,1,,,,,サガノショウジ,0
1771,7021001039358,登記記録の閉鎖等,0,2021-09-16,2021-09-13,株式会社湘大,,株式会社,神奈川県,平塚市,錦町３番４－１３０３号,,14,203,2540044,,,2021-09-13,清算の結了等,,,2015-10-05,1,,,,,ショウダイ,0
1780,7030002020904,登記記録の閉鎖等,0,2021-09-16,2021-09-06,有限会社協伸興業,,有限会社,埼玉県,さいたま市岩槻区,西原６番７８号,,11,110,3390081,,,2021-09-06,清算の結了等,,,2015-10-05,1,,,,,キョウシンコウギョウ,0
1805,7080401004833,登記記録の閉鎖等,0,2021-09-16,2021-09-15,株式会社豊栄,,株式会社,静岡県,浜松市中区,北寺島町２０６番地の１,,22,131,4300923,,,2021-09-15,清算の結了等,,,2015-10-05,1,,,,,,0
1854,7122001026856,登記記録の閉鎖等,0,2021-09-16,2021-09-15,株式会社新井不動産,,株式会社,大阪府,東大阪市,岸田堂南町１２番７号,,27,227,5770847,,,2021-09-15,清算の結了等,,,2015-10-05,1,,,,,,0
1873,7160001014324,登記記録の閉鎖等,0,2021-09-16,2021-09-15,株式会社Ｂｅ　Ｎｉｃｅ,,株式会社,滋賀県,草津市,東矢倉１丁目７番７号,,25,206,5250054,,,2021-09-15,清算の結了等,,,2015-10-05,1,,,,,ビーナイス,0
1883,7180302015597,登記記録の閉鎖等,0,2021-09-16,2021-09-13,有限会社タカダ総合保険事務所,,有限会社,愛知県,蒲郡市,鹿島町岡１１番地５,,23,214,4430037,,,2021-09-13,清算の結了等,,,2015-10-05,1,,,,,タカダソウゴウホケンジムショ,0
1888,7200003002801,登記記録の閉鎖等,0,2021-09-16,2021-09-13,合資会社イナリ木工所,,合資会社,岐阜県,郡上市,八幡町初納５０５番地,,21,219,5014203,,,2021-09-13,清算の結了等,,,2015-10-05,1,,,,,イナリモッコウジョ,0
1897,7250002011328,登記記録の閉鎖等,0,2021-09-16,2021-09-13,有限会社ヤマキヨ電設,,有限会社,山口県,下関市,新垢田北町４番２号,,35,201,7510845,,,2021-09-13,清算の結了等,,,2015-10-05,1,,,,,ヤマキヨデンセツ,0
1911,7290002013188,登記記録の閉鎖等,0,2021-09-16,2021-09-13,有限会社マイルド,,有限会社,佐賀県,嬉野市,塩田町大字五町田甲４００８番地１６,,41,209,8491425,,,2021-09-13,清算の結了等,,,2015-10-05,1,,,,,マイルド,0
1926,7330001024306,登記記録の閉鎖等,0,2021-09-16,2021-09-14,株式会社リアレスト,,株式会社,熊本県,熊本市東区,東野２丁目５番４号,,43,102,8612106,,,2021-09-14,清算の結了等,,,2017-08-01,1,,,,,リアレスト,0
1945,7410002002896,登記記録の閉鎖等,0,2021-09-16,2021-09-15,有限会社新岡商事,,有限会社,秋田県,秋田市,八橋イサノ１丁目４番２３号,,05,201,0100961,,,2021-09-15,清算の結了等,,,2015-10-05,1,,,,,ニイオカショウジ,0
1947,7430002002515,登記記録の閉鎖等,0,2021-09-16,2021-09-09,有限会社ウッド工芸,,有限会社,北海道,札幌市白石区,川北二条３丁目９番１号,,01,104,0030852,,,2021-09-09,清算の結了等,,,2015-10-05,1,,,,,ウッドコウゲイ,0
1948,7430002048847,登記記録の閉鎖等,0,2021-09-16,2021-09-08,サンプラント有限会社,,有限会社,北海道,恵庭市,柏木町１丁目１番１０号,,01,231,0611423,,,2021-09-08,清算の結了等,,,2015-10-05,1,,,,,サンプラント,0
1954,7460102000779,登記記録の閉鎖等,0,2021-09-16,2021-09-14,有限会社カネモリ大進工業,,有限会社,北海道,帯広市,白樺十六条東１８丁目４番地,,01,207,0800050,,,2021-09-14,清算の結了等,,,2015-10-05,1,,,,,カネモリタイシンコウギョウ,0
1956,7470002005539,登記記録の閉鎖等,0,2021-09-16,2021-09-13,ハヤシ住設有限会社,,有限会社,香川県,高松市,三谷町１３７６番地３,,37,201,7610450,,,2021-09-13,清算の結了等,,,2015-10-05,1,,,,,ハヤシジュウセツ,0
1980,8010401113508,登記記録の閉鎖等,0,2021-09-16,2021-09-09,Ｂｉｇ　Ｓｗｉｔｃｈ　Ｎｅｔｗｏｒｋｓ株式会社,,株式会社,東京都,豊島区,東池袋３丁目１番１号サンシャイン６０,,13,116,1700013,,,2021-09-09,清算の結了等,,,2015-10-05,1,,,,,ビッグスウィッチネットワークス,0
1986,8010601041401,登記記録の閉鎖等,0,2021-09-16,2021-09-13,サンヨーアパレル株式会社,,株式会社,神奈川県,横浜市中区,石川町１丁目１３番２号,,14,104,2310868,,,2021-09-13,合併による解散等,1010401075845,令和３年９月１日東京都新宿区四谷本塩町６番１４号株式会社三陽商会（1010401075845）に合併し解散,2015-10-05,1,,,,,サンヨーアパレル,0
2001,8011001091045,登記記録の閉鎖等,0,2021-09-16,2021-09-10,株式会社ＪＭ佐賀・相知,,株式会社,佐賀県,唐津市,相知町相知７９８番地,,41,202,8493201,,,2021-09-10,合併による解散等,7011001091772,令和３年９月１日東京都新宿区西新宿三丁目２０番２号株式会社ジェイエムエス・ツー（7011001091772）に合併し解散,2015-10-05,1,,,,,ジェイエムサガオウチ,0
2002,8011001093033,登記記録の閉鎖等,0,2021-09-16,2021-09-10,株式会社ＪＭ佐賀・北波多,,株式会社,佐賀県,唐津市,北波多岸山３７３番地１５,,41,202,8471211,,,2021-09-10,合併による解散等,7011001091772,令和３年９月１日東京都新宿区西新宿三丁目２０番２号株式会社ジェイエムエス・ツー（7011001091772）に合併し解散,2015-10-05,1,,,,,ジェイエムサガキタハタ,0
2010,8011101069552,登記記録の閉鎖等,0,2021-09-16,2021-09-08,株式会社ＳＰＡＣＥ,,株式会社,東京都,新宿区,新宿３丁目１１番６号,,13,104,1600022,,,2021-09-08,清算の結了等,,,2015-10-05,1,,,,,スペース,0
2022,8012301011816,登記記録の閉鎖等,0,2021-09-16,2021-09-01,Ｙａｎｃｌｅ株式会社,,株式会社,東京都,新宿区,市谷田町２丁目１７番地,,13,104,1620843,,,2021-09-01,合併による解散等,9011101089186,令和３年８月３１日東京都新宿区市谷田町二丁目１７番地Ｒｅｌｉｇｈｔ株式会社（9011101089186）に合併し解散,2019-07-23,1,,,,,ヤンクル,0
2031,8013302006425,登記記録の閉鎖等,0,2021-09-16,2021-09-09,有限会社ティーエーシー,,有限会社,東京都,豊島区,東池袋２丁目１４番１０号,,13,116,1700013,,,2021-09-09,清算の結了等,,,2015-10-05,1,,,,,ティーエーシー,0
2114,8120101049768,登記記録の閉鎖等,0,2021-09-16,2021-09-14,ＹＮ販売株式会社,,株式会社,大阪府,河内長野市,南貴望ケ丘１１番７号,,27,216,5860092,,,2021-09-14,清算の結了等,,,2015-10-05,1,,,,,ワイエヌハンバイ,0
2117,8120902019580,登記記録の閉鎖等,0,2021-09-16,2021-09-15,有限会社福留建設,,有限会社,大阪府,豊中市,中桜塚３丁目１０番３５号,,27,203,5610881,,,2021-09-15,清算の結了等,,,2015-10-05,1,,,,,,0
2130,8140001109224,登記記録の閉鎖等,0,2021-09-16,2021-09-01,株式会社ＫＯＵＫＥＮ,,株式会社,兵庫県,加古川市,加古川町美乃利１６２番地の１,,28,210,6750062,,,2021-09-01,合併による解散等,3140001104667,令和３年９月１日兵庫県加古川市加古川町美乃利１６２番地の１株式会社ＫＩＲＡ（3140001104667）に合併し解散,2018-02-26,1,,,,,コウケン,0
2144,8180002090964,登記記録の閉鎖等,0,2021-09-16,2021-09-10,ヒロホームズ有限会社,,有限会社,愛知県,弥富市,子宝４丁目２８番地,,23,235,4901413,,,2021-09-10,清算の結了等,,,2015-10-05,1,,,,,ヒロホームズ,0
2178,8330002019279,登記記録の閉鎖等,0,2021-09-16,2021-09-14,有限会社前田工務店,,有限会社,熊本県,熊本市北区,植木町亀甲５９２番地,,43,105,8610127,,,2021-09-14,清算の結了等,,,2015-10-05,1,,,,,マエダコウムテン,0
2189,8420003002010,登記記録の閉鎖等,0,2021-09-16,2021-09-08,合同会社グリーンヴィレッジ,,合同会社,青森県,八戸市,大字鮫町字日蔭沢１９番地９０,,02,203,0310841,,,2021-09-08,清算の結了等,,,2019-07-19,1,,,,,グリーンヴィレッジ,0
2214,9010401096735,登記記録の閉鎖等,0,2021-09-16,2021-08-30,株式会社フューチャー・アイ・ディ研究所,,株式会社,東京都,港区,南青山２丁目２番１５号,,13,103,1070062,,,2021-08-30,清算の結了等,,,2015-10-05,1,,,,,,0
2222,9010701026136,登記記録の閉鎖等,0,2021-09-16,2021-09-08,株式会社ａ－ｃｒｏｓｓ,,株式会社,東京都,港区,南青山２丁目２番１５号,,13,103,1070062,,,2021-09-08,清算の結了等,,,2015-10-05,1,,,,,,0
2235,9011001054117,登記記録の閉鎖等,0,2021-09-16,2021-09-14,株式会社Ｍｏｒｅ－Ｓｅｌｅｃｔｉｏｎｓ,,株式会社,東京都,渋谷区,東１丁目２７－６ＹＭビル５階,,13,113,1500011,,,2021-09-14,合併による解散等,1010001067359,令和３年９月１日東京都千代田区丸の内一丁目５番１号株式会社パソナ（1010001067359）に合併し解散,2015-10-05,1,,,,,モアセレクションズ,0
2251,9011801020986,登記記録の閉鎖等,0,2021-09-16,2021-09-15,株式会社ユコム,,株式会社,東京都,足立区,伊興１丁目２４番５号菊池ビル２階,,13,121,1210823,,,2021-09-15,清算の結了等,,,2015-10-05,1,,,,,ユコム,0
2254,9011801036363,登記記録の閉鎖等,0,2021-09-16,2021-09-14,福双設備株式会社,,株式会社,東京都,足立区,西新井５丁目７番１４－１０２号,,13,121,1230841,,,2021-09-14,清算の結了等,,,2019-07-11,1,,,,,フクソウセツビ,0
2255,9011802005887,登記記録の閉鎖等,0,2021-09-16,2021-09-14,有限会社成田商会,,有限会社,東京都,葛飾区,細田４丁目４２番７号,,13,122,1240021,,,2021-09-14,清算の結了等,,,2015-10-05,1,,,,,ナリタショウカイ,0
2257,9012402006895,登記記録の閉鎖等,0,2021-09-16,2021-09-07,有限会社エレガンス,,有限会社,東京都,国立市,東１丁目１７番地の１１,,13,215,1860002,,,2021-09-07,清算の結了等,,,2015-10-05,1,,,,,エレガンス,0
2270,9020001080519,登記記録の閉鎖等,0,2021-09-16,2021-09-09,株式会社ソフトワーク,,株式会社,神奈川県,川崎市中原区,小杉町３丁目２６０番地,,14,133,2110063,,,2021-09-09,清算の結了等,,,2015-10-05,1,,,,,ソフトワーク,0
2284,9021001049644,登記記録の閉鎖等,0,2021-09-16,2021-09-14,あすまいる株式会社,,株式会社,神奈川県,大和市,深見台１丁目１１番３０号ウイング・マンション・メルベーユ３０１号,,14,213,2420013,,,2021-09-14,清算の結了等,,,2015-10-05,1,,,,,アスマイル,0
2288,9021002024489,登記記録の閉鎖等,0,2021-09-16,2021-09-13,有限会社丸吉自動車,,有限会社,神奈川県,相模原市緑区,橋本１丁目１４番５号,,14,151,2520143,,,2021-09-13,清算の結了等,,,2015-10-05,1,,,,,マルヨシジドウシャ,0
2293,9030001111231,登記記録の閉鎖等,0,2021-09-16,2021-09-06,株式会社徳峰,,株式会社,埼玉県,川越市,大字寺山１４９番地９,,11,201,3500827,,,2021-09-06,清算の結了等,,,2015-11-06,1,,,,,トクミネ,0
2306,9040001010267,登記記録の閉鎖等,0,2021-09-16,2021-09-08,日本防災株式会社,,株式会社,神奈川県,横浜市神奈川区,神奈川本町三丁目６番,,14,102,2210046,,,2021-09-08,清算の結了等,,,2015-10-05,1,,,,,ニホンボウサイ,0
2322,9060002005479,登記記録の閉鎖等,0,2021-09-16,2021-09-10,有限会社大輝,,有限会社,栃木県,宇都宮市,元今泉７丁目２２番１２号,,09,201,3210954,,,2021-09-10,清算の結了等,,,2015-10-05,1,,,,,ダイキ,0
2325,9080005005128,登記記録の閉鎖等,0,2021-09-16,2021-09-14,牧南茶農業協同組合,,その他の設立登記法人,静岡県,牧之原市,静谷２５５０番地１０,,22,226,4210404,,,2021-09-14,清算の結了等,,,2015-10-05,1,,,,,マキナンチャ,0
2334,9100002003940,登記記録の閉鎖等,0,2021-09-16,2021-09-13,有限会社日信商事,,有限会社,長野県,長野市,大字栗田字舎利田６５３番地９,,20,201,3800921,,,2021-09-13,清算の結了等,,,2015-10-05,1,,,,,ニッシンショウジ,0
2371,9130001006198,登記記録の閉鎖等,0,2021-09-16,2021-09-10,株式会社北白川ともえ,,株式会社,京都府,京都市左京区,北白川別当町３の３,,26,103,6068276,,,2021-09-10,清算の結了等,,,2015-10-05,1,,,,,キタシラカワトモエ,0
2396,9180001074232,登記記録の閉鎖等,0,2021-09-16,2021-09-10,株式会社システムポート,,株式会社,愛知県,春日井市,押沢台４丁目９番地４,,23,206,4870005,,,2021-09-10,清算の結了等,,,2015-10-05,1,,,,,システムポート,0
2405,9180002007711,登記記録の閉鎖等,0,2021-09-16,2021-09-13,有限会社エグチ,,有限会社,愛知県,名古屋市昭和区,山花町８４番地,,23,107,4660807,,,2021-09-13,清算の結了等,,,2015-10-05,1,,,,,エグチ,0
2438,9290002020018,登記記録の閉鎖等,0,2021-09-16,2021-08-31,有限会社エフエヌシー,,有限会社,福岡県,福岡市中央区,薬院３丁目３番９－７０２号,,40,133,8100022,,,2021-08-31,清算の結了等,,,2015-10-05,1,,,,,エフエヌシー,0
2451,9330002030532,登記記録の閉鎖等,0,2021-09-16,2021-09-14,有限会社松本工業,,有限会社,熊本県,人吉市,西間下町６番地の９,,43,203,8680072,,,2021-09-14,清算の結了等,,,2015-10-05,1,,,,,マツモトコウギョウ,0
2472,9380005002029,登記記録の閉鎖等,0,2021-09-16,2021-09-10,梁川町商業事業協同組合,,その他の設立登記法人,福島県,伊達市,梁川町字大町１丁目３７番地,,07,213,9600741,,,2021-09-10,清算の結了等,,,2015-10-05,1,,,,,ヤナガワマチショウギョウ,0
2474,9420002006705,登記記録の閉鎖等,0,2021-09-16,2021-09-10,有限会社木村容器店,,有限会社,青森県,八戸市,大字湊町字久保４４番地１６０,,02,203,0310812,,,2021-09-10,清算の結了等,,,2015-10-05,1,,,,,キムラヨウキテン,0
2482,9460102002823,登記記録の閉鎖等,0,2021-09-16,2021-09-13,有限会社ファイン,,有限会社,北海道,帯広市,西十八条南４丁目３１番２０号,,01,207,0800028,,,2021-09-13,清算の結了等,,,2015-10-05,1,,,,,ファイン,0
2485,9470002007384,登記記録の閉鎖等,0,2021-09-16,2021-09-15,有限会社ライト電設工業,,有限会社,香川県,高松市,木太町２８５１番地２,,37,201,7600080,,,2021-09-15,清算の結了等,,,2015-10-05,1,,,,,ライトデンセツコウギョウ,0
