sequenceNumber,corporateNumber,process,correct,updateDate,changeDate,name,nameImageId,kind,prefectureName,cityName,streetNumber,addressImageId,prefectureCode,cityCode,postCode,addressOutside,addressOutsideImageId,closeDate,closeCause,successorCorporateNumber,changeCause,assignmentDate,latest,enName,enPrefectureName,enCityName,enAddressOutside,furigana,hihyoji
5,1010001240428,新規,0,2023-11-30,2023-11-30,ＷＬ株式会社,,株式会社,東京都,文京区,春日１丁目５番３－３０５号,,13,105,1120003,,,,,,,2023-11-30,1,,,,,ダブリューエル,0
6,1010001240436,新規,0,2023-11-30,2023-11-30,株式会社Ｓｍｉｌｅ　Ｖｉｓｔａ,,株式会社,東京都,中央区,京橋１丁目１７－３内村京橋ビル２階,,13,102,1040031,,,,,,,2023-11-30,1,,,,,スマイルビスタ,0
9,1010003042319,新規,0,2023-11-30,2023-11-30,合同会社ＢＲＯＷＮ１,,合同会社,東京都,中央区,築地７丁目１８番２８－４３２号,,13,102,1040045,,,,,,,2023-11-30,1,,,,,ブラウンワン,0
10,1010003042335,新規,0,2023-11-30,2023-11-30,Ｒｏｕｔｅ　Ｇｒｉｔ合同会社,,合同会社,東京都,中央区,銀座１丁目１２番４号Ｎ＆ＥＢＬＤ．６Ｆ,,13,102,1040061,,,,,,,2023-11-30,1,,,,,ルートグリット,0
19,1010401178458,新規,0,2023-11-30,2023-11-30,千守株式会社,,株式会社,東京都,港区,芝１丁目１４－１ハイツ芝大門９０４号,,13,103,1050014,,,,,,,2023-11-30,1,,,,,センシュ,0
20,1010401178771,新規,0,2023-11-30,2023-11-30,株式会社ゴルフタイムス,,株式会社,東京都,港区,三田３丁目２番４号,,13,103,1080073,,,,,,,2023-11-30,1,,,,,ゴルフタイムス,0
26,1010601064227,新規,0,2023-11-30,2023-11-30,崇道株式会社,,株式会社,東京都,江東区,深川１丁目１番２号協和ビル２階４６,,13,108,1350033,,,,,,,2023-11-30,1,,,,,スウドウ,0
35,1011001158271,新規,0,2023-11-30,2023-11-30,株式会社ＩＮＴＥＲＩＯＲ　ＢＵＹＥＲ,,株式会社,東京都,目黒区,鷹番３丁目２３番１０－３０４,,13,110,1520004,,,,,,,2023-11-30,1,,,,,インテリアバイヤー,0
36,1011001158528,新規,0,2023-11-30,2023-11-30,株式会社Ｆ．Ｆ．Ｆ,,株式会社,東京都,目黒区,碑文谷５丁目４番９号,,13,110,1520003,,,,,,,2023-11-30,1,,,,,エフエフエフ,0
37,1011001158544,新規,0,2023-11-30,2023-11-30,株式会社ＲＹＯＧＥＮ,,株式会社,東京都,渋谷区,桜丘町２２－６プライマル渋谷桜丘４０５号室,,13,113,1500031,,,,,,,2023-11-30,1,,,,,リョウゲン,0
44,1011101105297,新規,0,2023-11-30,2023-11-30,株式会社Ｅｓｔｒｅｌｌａ,,株式会社,東京都,新宿区,下落合２丁目１０番１０－５０７号,,13,104,1610033,,,,,,,2023-11-30,1,,,,,エストレージャ,0
45,1011203004240,新規,0,2023-11-30,2023-11-30,合同会社ＨＳ,,合同会社,東京都,中野区,中央２丁目３０番９号,,13,114,1640011,,,,,,,2023-11-30,1,,,,,エイチエス,0
49,1011403004189,新規,0,2023-11-30,2023-11-30,さくら青深ラインｘｙｚ合同会社,,合同会社,東京都,板橋区,赤塚２丁目３６番２９号清栄荘１０１号室,,13,119,1750092,,,,,,,2023-11-30,1,,,,,サクラセイエンラインエックスワイゼット,0
53,1011503005863,新規,0,2023-11-30,2023-11-30,合同会社ぴよこ,,合同会社,東京都,荒川区,南千住４丁目７番３－２１１５号,,13,118,1160003,,,,,,,2023-11-30,1,,,,,ピヨコ,0
57,1011703003675,新規,0,2023-11-30,2023-11-30,合同会社ＣＨＴ,,合同会社,東京都,江戸川区,本一色１丁目１１―１８,,13,123,1330044,,,,,,,2023-11-30,1,,,,,シーエイチティー,0
60,1011805003318,新規,0,2023-11-30,2023-11-30,税理士法人やっちゃば,,その他の設立登記法人,東京都,足立区,千住河原町２０番２号,,13,121,1200037,,,,,,,2023-11-30,1,,,,,ヤッチャバ,0
63,1012401041265,新規,0,2023-11-30,2023-11-30,たまよき株式会社,,株式会社,東京都,狛江市,元和泉１丁目１番２－２０１号,,13,219,2010013,,,,,,,2023-11-30,1,,,,,タマヨキ,0
67,1013303006901,新規,0,2023-11-30,2023-11-30,合同会社ＦＲＥＥＬＡＮ,,合同会社,東京都,豊島区,千川２丁目６番１８号,,13,116,1710041,,,,,,,2023-11-30,1,,,,,フリーラン,0
81,1021003013853,新規,0,2023-11-30,2023-11-30,タイド合同会社,,合同会社,神奈川県,綾瀬市,深谷南１丁目１５番１号,,14,218,2521106,,,,,,,2023-11-30,1,,,,,タイド,0
88,1030001157281,新規,0,2023-11-30,2023-11-30,株式会社グローバルエリート,,株式会社,埼玉県,朝霞市,栄町２丁目１３－３６,,11,227,3510012,,,,,,,2023-11-30,1,,,,,グローバルエリート,0
102,1040001131153,新規,0,2023-11-30,2023-11-30,株式会社ＥＣＬ,,株式会社,千葉県,松戸市,上矢切３２５番地の１オークス２０１号,,12,207,2710094,,,,,,,2023-11-30,1,,,,,イーシーエル,0
114,1050005013355,新規,0,2023-11-30,2023-11-30,一般社団法人ＩＳＨＩＧＥ　ＭＡＳＪＩＤ　ＪＡＰＡＮ,,その他の設立登記法人,茨城県,常総市,本石下４５６２番地１,,08,211,3002707,,,,,,,2023-11-30,1,,,,,イシゲマスジドジャパン,0
116,1070001041119,新規,0,2023-11-30,2023-11-30,株式会社千商事,,株式会社,群馬県,高崎市,小八木町１２０２番地１,,10,202,3700071,,,,,,,2023-11-30,1,,,,,センショウジ,0
117,1070001041127,新規,0,2023-11-30,2023-11-30,株式会社Ｍ＆Ａ‐ＷＯＲＫＳ,,株式会社,群馬県,伊勢崎市,美茂呂町３３３０番地１,,10,204,3720037,,,,,,,2023-11-30,1,,,,,エムアンドエーワークス,0
122,1080401026866,新規,0,2023-11-30,2023-11-30,株式会社ワンビリオン,,株式会社,静岡県,湖西市,鷲津８６７番地の１,,22,221,4310431,,,,,,,2023-11-30,1,,,,,ワンビリオン,0
139,1120001260274,新規,0,2023-11-30,2023-11-30,ウェブサイトストア株式会社,,株式会社,大阪府,大阪市浪速区,桜川２丁目７－２－９０４,,27,111,5560022,,,,,,,2023-11-30,1,,,,,ウェブサイトストア,0
151,1122001037594,新規,0,2023-11-30,2023-11-30,株式会社ＭＯＳテク,,株式会社,大阪府,八尾市,南久宝寺１丁目２８番地の１,,27,212,5810076,,,,,,,2023-11-30,1,,,,,モステク,0
156,1140001132488,新規,0,2023-11-30,2023-11-30,株式会社ＦＩＫ,,株式会社,兵庫県,神戸市灘区,篠原台１４番２号,,28,102,6570016,,,,,,,2023-11-30,1,,,,,エフアイケー,0
169,1210003001725,新規,0,2023-11-30,2023-11-30,合同会社ＡＫＶＯ,,合同会社,福井県,福井市,飯塚町第１３号１４７番地リバティ・ヴィラＩＩＩ１０３,00132831,18,201,9188067,,,,,,,2023-11-30,1,,,,,アクボ,0
179,1290001103763,新規,0,2023-11-30,2023-11-30,株式会社江崎地所,00132827,株式会社,福岡県,春日市,大谷１丁目３２番地,,40,218,8160831,,,,,,,2023-11-30,1,,,,,エザキジショ,0
183,1330003010103,新規,0,2023-11-30,2023-11-30,橋本興業合同会社,,合同会社,熊本県,阿蘇郡産山村,大字田尻１８６番地３,,43,425,8692704,,,,,,,2023-11-30,1,,,,,ハシモトコウギョウ,0
185,1340003004319,新規,0,2023-11-30,2023-11-30,合同会社ニシハラブランドマネジメント,,合同会社,鹿児島県,鹿児島市,新栄町１番１２－３０２号,,46,201,8900072,,,,,,,2023-11-30,1,,,,,ニシハラブランドマネジメント,0
186,1350001018682,新規,0,2023-11-30,2023-11-30,株式会社フクヤ製麺,,株式会社,宮崎県,宮崎市,大字跡江２５７７番地１,,45,201,8802101,,,,,,,2023-11-30,1,,,,,フクヤセイメン,0
187,1350003004508,新規,0,2023-11-30,2023-11-30,合同会社マーケットドリーム,,合同会社,宮崎県,宮崎市,恒久６丁目２－２,,45,201,8800913,,,,,,,2023-11-30,1,,,,,マーケットドリーム,0
190,1360001032880,新規,0,2023-11-30,2023-11-30,株式会社Ｔ’ｓデスク,,株式会社,沖縄県,那覇市,牧志２丁目１７－２７－４０１,,47,201,9000013,,,,,,,2023-11-30,1,,,,,ティーズデスク,0
192,1360003013516,新規,0,2023-11-30,2023-11-30,合同会社あららがま,,合同会社,沖縄県,浦添市,宮城４丁目１５番１０－４０２号翁長荘,,47,208,9012126,,,,,,,2023-11-30,1,,,,,アララガマ,0
207,1430001090500,新規,0,2023-11-30,2023-11-30,株式会社マハロコーポレーション,,株式会社,北海道,札幌市中央区,大通西７丁目２番地１シテイハウス大通西７丁目１３０１号,,01,101,0600042,,,,,,,2023-11-30,1,,,,,マハロコーポレーション,0
214,1490001010650,新規,0,2023-11-30,2023-11-30,株式会社ＲｉＺ,,株式会社,高知県,香南市,香我美町山北８９５,,39,211,7815453,,,,,,,2023-11-30,1,,,,,リズ,0
221,2010001240393,新規,0,2023-11-30,2023-11-30,株式会社イシカワシステム,,株式会社,東京都,千代田区,神田和泉町１番地６の１６ヤマトビル４０５,,13,101,1010024,,,,,,,2023-11-30,1,,,,,イシカワシステム,0
222,2010001240410,新規,0,2023-11-30,2023-11-30,スピーディーレンタカー株式会社,,株式会社,東京都,文京区,小石川４丁目１７番２２号,,13,105,1120002,,,,,,,2023-11-30,1,,,,,スピーディーレンタカー,0
224,2010003042334,新規,0,2023-11-30,2023-11-30,Ａｒｉｇａｔｅ合同会社,,合同会社,東京都,中央区,銀座１丁目１２番４号Ｎ＆ＥＢＬＤ．６Ｆ,,13,102,1040061,,,,,,,2023-11-30,1,,,,,アリゲート,0
234,2010401178085,新規,0,2023-11-30,2023-11-30,星瑞デジタル株式会社,,株式会社,東京都,港区,南青山３丁目１－３６青山丸竹ビル６Ｆ,,13,103,1070062,,,,,,,2023-11-30,1,,,,,ホシミズデジタル,0
236,2010403031465,新規,0,2023-11-30,2023-11-30,合同会社Ｐ＆Ｐ,,合同会社,東京都,港区,六本木３丁目８番５－９０１号,,13,103,1060032,,,,,,,2023-11-30,1,,,,,ピーアンドピー,0
241,2010701045200,新規,0,2023-11-30,2023-11-30,凱楓株式会社,,株式会社,東京都,品川区,東五反田５丁目２２番３７号,,13,109,1410022,,,,,,,2023-11-30,1,,,,,ガイフウ,0
245,2010803004764,新規,0,2023-11-30,2023-11-30,合同会社オール・アウト,,合同会社,東京都,大田区,南千束３丁目１８番２号,,13,111,1450063,,,,,,,2023-11-30,1,,,,,オールアウト,0
259,2011001158485,新規,0,2023-11-30,2023-11-30,株式会社ミライプロジェクトＨＲ,,株式会社,東京都,渋谷区,神宮前１丁目１５番１５号タガミ神宮前ビル２階,,13,113,1500001,,,,,,,2023-11-30,1,,,,,ミライプロジェクトエイチアール,0
260,2011001158543,新規,0,2023-11-30,2023-11-30,株式会社Ａｐｐｒｉｒｅ,,株式会社,東京都,渋谷区,円山町５番５号Ｎａｖｉ渋谷Ｖ３階,,13,113,1500044,,,,,,,2023-11-30,1,,,,,アプリル,0
264,2011201025080,新規,0,2023-11-30,2023-11-30,株式会社ＪＭヒカリ,,株式会社,東京都,中野区,弥生町３丁目１番９号,,13,114,1640013,,,,,,,2023-11-30,1,,,,,ジェーエムヒカリ,0
268,2011501030061,新規,0,2023-11-30,2023-11-30,株式会社ＨＢアセットマネジメント,,株式会社,東京都,北区,田端１丁目１１番１－６０１号,,13,117,1140014,,,,,,,2023-11-30,1,,,,,エイチビーアセットマネジメント,0
271,2011601027338,新規,0,2023-11-30,2023-11-30,ガイドメン株式会社,,株式会社,東京都,練馬区,桜台３丁目３６－７,,13,120,1760002,,,,,,,2023-11-30,1,,,,,ガイドメン,0
280,2012403006298,新規,0,2023-11-30,2023-11-30,合同会社ホクレア,,合同会社,東京都,府中市,寿町１丁目４番１７号寿ビル４階,,13,206,1830056,,,,,,,2023-11-30,1,,,,,ホクレア,0
281,2012801022789,新規,0,2023-11-30,2023-11-30,株式会社Ｋ２,,株式会社,東京都,立川市,錦町２丁目１番７号,,13,202,1900022,,,,,,,2023-11-30,1,,,,,ケイツー,0
285,2013305003549,新規,0,2023-11-30,2023-11-30,一般社団法人Ｄ,,その他の設立登記法人,東京都,豊島区,目白５丁目３１番１号コートヤード目白１Ｆ,,13,116,1710031,,,,,,,2023-11-30,1,,,,,ディー,0
287,2020001154691,新規,0,2023-11-30,2023-11-30,株式会社センス,,株式会社,神奈川県,横浜市青葉区,大場町１０３－１７,,14,117,2250023,,,,,,,2023-11-30,1,,,,,センス,0
289,2020003025081,新規,0,2023-11-30,2023-11-30,合同会社ダイナマイッ,,合同会社,神奈川県,川崎市高津区,下作延２丁目２９－８琳和クレストコート５０４,,14,134,2130033,,,,,,,2023-11-30,1,,,,,ダイナマイッ,0
290,2020003025098,新規,0,2023-11-30,2023-11-30,合同会社オモシロむ,,合同会社,神奈川県,横浜市中区,本牧緑ケ丘２７番地１０,,14,104,2310832,,,,,,,2023-11-30,1,,,,,オモシロム,0
293,2021003013844,新規,0,2023-11-30,2023-11-30,土井工務店合同会社,,合同会社,神奈川県,相模原市南区,下溝３１８番地１,,14,153,2520335,,,,,,,2023-11-30,1,,,,,ドイコウムテン,0
305,2040001131177,新規,0,2023-11-30,2023-11-30,ＡＲＤ株式会社,,株式会社,千葉県,香取市,岩ケ崎台２１－１０シャトミーＧ２０３,,12,236,2870004,,,,,,,2023-11-30,1,,,,,エーアールディー,0
315,2040003023810,新規,0,2023-11-30,2023-11-30,ＭＣＹ合同会社,,合同会社,千葉県,柏市,豊町１丁目１番１２号ケーズグレスト柏１階,,12,217,2770854,,,,,,,2023-11-30,1,,,,,エムシーワイ,0
316,2040003023835,新規,0,2023-11-30,2023-11-30,合同会社バーディマシン,,合同会社,千葉県,野田市,蕃昌２５２－５８,,12,208,2780041,,,,,,,2023-11-30,1,,,,,バーディマシン,0
330,2100003007286,新規,0,2023-11-30,2023-11-30,合同会社きたやつファーム,,合同会社,長野県,南佐久郡佐久穂町,大字畑３４０８番地３,,20,309,3840701,,,,,,,2023-11-30,1,,,,,キタヤツファーム,0
342,2120001260224,新規,0,2023-11-30,2023-11-30,株式会社ＮＯＲＩＮＯＲＩプロジェクト,,株式会社,大阪府,大阪市東成区,東小橋３丁目１番１５号ＮＫＢビル３階,,27,115,5370024,,,,,,,2023-11-30,1,,,,,ノリノリプロジェクト,0
343,2120001260232,新規,0,2023-11-30,2023-11-30,株式会社ｎｉｓｓｉ,,株式会社,大阪府,大阪市東成区,玉津３丁目１－３３－３Ｆ,,27,115,5370023,,,,,,,2023-11-30,1,,,,,ニッシ,0
344,2120001260273,新規,0,2023-11-30,2023-11-30,株式会社清水,,株式会社,大阪府,大阪市西成区,出城１丁目８番１９号１Ｆ－Ｃ,,27,122,5570024,,,,,,,2023-11-30,1,,,,,シミズ,0
345,2120001260307,新規,0,2023-11-30,2023-11-30,Ｒｏａｄｓ　Ｊａｐａｎ株式会社,,株式会社,大阪府,大阪市淀川区,西宮原２丁目６番１６号新大阪コーポビアネーズ８１４,,27,123,5320004,,,,,,,2023-11-30,1,,,,,ロードスジャパン,0
353,2130001075836,新規,0,2023-11-30,2023-11-30,株式会社ＳＨＬ,,株式会社,京都府,京都市西京区,下津林六反田１番地の３４,,26,111,6158063,,,,,,,2023-11-30,1,,,,,エスエッチエル,0
363,2140001132495,新規,0,2023-11-30,2023-11-30,株式会社ｆｏｒ　ｔｈｅ　ｂｅｓｔ,,株式会社,兵庫県,芦屋市,朝日ケ丘町４０番１４－３０６号,,28,206,6590012,,,,,,,2023-11-30,1,,,,,フォーザベスト,0
364,2140001132520,新規,0,2023-11-30,2023-11-30,株式会社Ｂｒｉｇｈｔ　Ｆｕｔｕｒｅ,,株式会社,兵庫県,西宮市,門戸岡田町１番２０号ラフォーレ・ハタＩＩ１階,00132829,28,204,6620826,,,,,,,2023-11-30,1,,,,,ブライトフューチャー,0
367,2140003019856,新規,0,2023-11-30,2023-11-30,イラガ合同会社,,合同会社,兵庫県,西宮市,山口町下山口１丁目９番２４号,,28,204,6511412,,,,,,,2023-11-30,1,,,,,イラガ,0
368,2140005026818,新規,0,2023-11-30,2023-11-30,特定非営利活動法人認知症サポートグループＯＮＢＯＡＲＤ,,その他の設立登記法人,兵庫県,西宮市,木津山町３番１１号,,28,204,6620062,,,,,,,2023-11-30,1,,,,,ニンチショウサポートグループオンボード,0
369,2150001026903,新規,0,2023-11-30,2023-11-30,株式会社Ｍａｒｓｈａｂｙｓｓ,,株式会社,奈良県,奈良市,百楽園５丁目１３番１４号,,29,201,6310024,,,,,,,2023-11-30,1,,,,,マーシャビス,0
377,2180001159122,新規,0,2023-11-30,2023-11-30,株式会社レクシード,,株式会社,愛知県,稲沢市,国府宮３丁目６番１２号エクセランス国府宮５０３号,,23,220,4928137,,,,,,,2023-11-30,1,,,,,レクシード,0
382,2180003026007,新規,0,2023-11-30,2023-11-30,合同会社ブルームーン,,合同会社,愛知県,名古屋市西区,大野木１丁目８７番地マ・メゾン大野木２０３号,,23,104,4520803,,,,,,,2023-11-30,1,,,,,ブルームーン,0
387,2190001030918,新規,0,2023-11-30,2023-11-30,ＨＤＳ株式会社,,株式会社,三重県,伊勢市,御薗町小林１４１７番地３,,24,203,5160801,,,,,,,2023-11-30,1,,,,,エイチディーエス,0
409,2290003014628,新規,0,2023-11-30,2023-11-30,にこ．にこ．ディアー．フレンズ合同会社,,合同会社,福岡県,福岡市中央区,天神４丁目９番１２号光ビル４－Ｂ,,40,133,8100001,,,,,,,2023-11-30,1,,,,,,0
410,2290003014660,新規,0,2023-11-30,2023-11-30,合同会社ＤＥＮＱ,,合同会社,福岡県,宗像市,青葉台２丁目４４番地２,,40,220,8114162,,,,,,,2023-11-30,1,,,,,デンキュウ,0
412,2300001013539,新規,0,2023-11-30,2023-11-30,株式会社ＡＩＴＥＣ,,株式会社,佐賀県,鳥栖市,水屋町１５８１番地１,,41,203,8410043,,,,,,,2023-11-30,1,,,,,アイテック,0
420,2340003004318,新規,0,2023-11-30,2023-11-30,合同会社太平,,合同会社,鹿児島県,鹿児島市,東俣町３８１６番地７,,46,201,8911102,,,,,,,2023-11-30,1,,,,,タイヘイ,0
421,2350003004507,新規,0,2023-11-30,2023-11-30,合同会社パプラ,,合同会社,宮崎県,宮崎市,恒久６丁目２－２,,45,201,8800913,,,,,,,2023-11-30,1,,,,,パプラ,0
426,2370001050674,新規,0,2023-11-30,2023-11-30,株式会社かとう,,株式会社,宮城県,仙台市青葉区,上杉１丁目１４番２０号,,04,101,9800011,,,,,,,2023-11-30,1,,,,,カトウ,0
435,2430001090499,新規,0,2023-11-30,2023-11-30,ＴＭホールディングス株式会社,,株式会社,北海道,札幌市白石区,川北２２４８番地２,,01,104,0030859,,,,,,,2023-11-30,1,,,,,ティーエムホールディングス,0
436,2430001090532,新規,0,2023-11-30,2023-11-30,株式会社ケンショウ,,株式会社,北海道,岩見沢市,幌向南三条１丁目２１９番地７１,,01,210,0690373,,,,,,,2023-11-30,1,,,,,ケンショウ,0
438,2430003015702,新規,0,2023-11-30,2023-11-30,合同会社泰永技研工業,,合同会社,北海道,札幌市北区,西茨戸四条１丁目３番１８号,,01,102,0028034,,,,,,,2023-11-30,1,,,,,ヤスナガギケンコウギョウ,0
454,3010001240376,新規,0,2023-11-30,2023-11-30,株式会社ひかり,,株式会社,東京都,文京区,向丘１丁目２番地１２号,,13,105,1130023,,,,,,,2023-11-30,1,,,,,ヒカリ,0
455,3010001240392,新規,0,2023-11-30,2023-11-30,Ｏｐｕｓ株式会社,,株式会社,東京都,中央区,入船１丁目７番１０号,,13,102,1040042,,,,,,,2023-11-30,1,,,,,オーパス,0
456,3010001240418,新規,0,2023-11-30,2023-11-30,株式会社ＴＨＲＥＥｉ,,株式会社,東京都,中央区,日本橋室町１丁目１１番１２号日本橋水野ビル７階,,13,102,1030022,,,,,,,2023-11-30,1,,,,,スリーアイ,0
457,3010001240442,新規,0,2023-11-30,2023-11-30,株式会社アマテラス,,株式会社,東京都,文京区,根津２丁目３３番１０号,,13,105,1130031,,,,,,,2023-11-30,1,,,,,アマテラス,0
458,3010003042341,新規,0,2023-11-30,2023-11-30,合同会社本郷開発,,合同会社,東京都,文京区,本郷３丁目１１番５号水野ビル３０１,,13,105,1130033,,,,,,,2023-11-30,1,,,,,ホンゴウカイハツ,0
467,3010401178670,新規,0,2023-11-30,2023-11-30,株式会社ガチャ,,株式会社,東京都,港区,新橋６丁目４番３号,,13,103,1050004,,,,,,,2023-11-30,1,,,,,ガチャ,0
468,3010401178794,新規,0,2023-11-30,2023-11-30,株式会社道標,,株式会社,東京都,港区,赤坂３丁目１番１６号ＢＩビル６Ｆ,,13,103,1070052,,,,,,,2023-11-30,1,,,,,ミチシルベ,0
469,3010401178836,新規,0,2023-11-30,2023-11-30,株式会社ＵＸホールディングス,,株式会社,東京都,港区,赤坂９丁目７番１号,,13,103,1070052,,,,,,,2023-11-30,1,,,,,ユーエックスホールディングス,0
470,3010403031472,新規,0,2023-11-30,2023-11-30,合同会社ＨＩＭＥＬ,,合同会社,東京都,港区,南青山３丁目１番３６号青山丸竹ビル６Ｆ,,13,103,1070062,,,,,,,2023-11-30,1,,,,,ヒメル,0
471,3010405022734,新規,0,2023-11-30,2023-11-30,一般財団法人善い心を未来へつなぐ財団,,その他の設立登記法人,東京都,港区,西新橋１丁目２０番３号虎ノ門法曹ビルレジデンス,,13,103,1050003,,,,,,,2023-11-30,1,,,,,ヨイココロヲミライヘツナグザイダン,0
472,3010501051447,新規,0,2023-11-30,2023-11-30,瑞金株式会社,,株式会社,東京都,台東区,上野２丁目１１－９オスカービル２Ｆ,,13,106,1100005,,,,,,,2023-11-30,1,,,,,ミズキン,0
473,3010503007224,新規,0,2023-11-30,2023-11-30,やす訪問看護リハビリステーション合同会社,,合同会社,東京都,台東区,清川２丁目６番１号,,13,106,1110022,,,,,,,2023-11-30,1,,,,,ヤスホウモンカンゴリハビリステーション,0
476,3010601064225,新規,0,2023-11-30,2023-11-30,株式会社エムケーコーポレーション,,株式会社,東京都,墨田区,吾妻橋２丁目３番１２号大瀬プラザステーションビル１階,,13,107,1300001,,,,,,,2023-11-30,1,,,,,エムケーコーポレーション,0
479,3010701045199,新規,0,2023-11-30,2023-11-30,ＴＯＮＡ商貿株式会社,,株式会社,東京都,品川区,東五反田５丁目２２番３７号,,13,109,1410022,,,,,,,2023-11-30,1,,,,,トナーショウボウ,0
488,3011001158518,新規,0,2023-11-30,2023-11-30,株式会社Ｋｅｙ　ＷＯＲＬＤ　ＪＡＰＡＮ,,株式会社,東京都,渋谷区,恵比寿南１丁目２番１２号ＩＮＯビル４Ｆ,,13,113,1500022,,,,,,,2023-11-30,1,,,,,キーワールドジャパン,0
489,3011001158534,新規,0,2023-11-30,2023-11-30,ちょっと株式会社,,株式会社,東京都,渋谷区,道玄坂２丁目１５－１ノア道玄坂９０９,,13,113,1500043,,,,,,,2023-11-30,1,,,,,チョット,0
490,3011001158550,新規,0,2023-11-30,2023-11-30,株式会社ＩＭＰＵＬＳＥ　ＧＲＯＵＰ,,株式会社,東京都,目黒区,中目黒４丁目９番６－４０１号ルネ中目黒ガーデン,,13,110,1530061,,,,,,,2023-11-30,1,,,,,インパルスグループ,0
491,3011003018018,新規,0,2023-11-30,2023-11-30,合同会社ＢＡＳＴＥＴ,,合同会社,東京都,渋谷区,渋谷２丁目１９－１５宮益坂ビルディング６０９,,13,113,1500002,,,,,,,2023-11-30,1,,,,,バステト,0
492,3011005010294,新規,0,2023-11-30,2023-11-30,一般社団法人日本コーポレート・ガバナンス・イニシアチブ,,その他の設立登記法人,東京都,渋谷区,上原１丁目３番９号,,13,113,1510064,,,,,,,2023-11-30,1,,,,,ニホンコーポレートガバナンスイニシアチブ,0
505,3011301029195,新規,0,2023-11-30,2023-11-30,株式会社レッツ,,株式会社,東京都,杉並区,荻窪１丁目１９番１１－２０５号第２野村ビル,,13,115,1670051,,,,,,,2023-11-30,1,,,,,レッツ,0
509,3011703003673,新規,0,2023-11-30,2023-11-30,合同会社ＯＮ,,合同会社,東京都,江戸川区,大杉１丁目５番７号大杉マンション１０３,,13,123,1320022,,,,,,,2023-11-30,1,,,,,オン,0
516,3011801043431,新規,0,2023-11-30,2023-11-30,株式会社澤築工藝舎,,株式会社,東京都,足立区,保木間４丁目２番８号,,13,121,1210064,,,,,,,2023-11-30,1,,,,,サワチクコウゲイシャ,0
525,3012801022796,新規,0,2023-11-30,2023-11-30,株式会社ＭＹ,,株式会社,東京都,国立市,西２丁目２４番地の１ザ・ライオンズ国立１０４,,13,215,1860005,,,,,,,2023-11-30,1,,,,,エムワイ,0
529,3013301051690,新規,0,2023-11-30,2023-11-30,株式会社ＬＩＢＲＥ,,株式会社,東京都,豊島区,南池袋１丁目９番１８号１３０号室,,13,116,1710022,,,,,,,2023-11-30,1,,,,,リブレ,0
536,3020001154690,新規,0,2023-11-30,2023-11-30,株式会社ＮＥＷ　ＬＩＦＥ　ＮＥＸＵＳ,,株式会社,神奈川県,横浜市都筑区,中川中央１丁目３３－１１,,14,118,2240003,,,,,,,2023-11-30,1,,,,,ニューライフネクサス,0
538,3020003025089,新規,0,2023-11-30,2023-11-30,合同会社ふみさん,,合同会社,神奈川県,横浜市西区,東ケ丘４１番地２グリーンフォート横浜桜木町２０１号室,,14,103,2200033,,,,,,,2023-11-30,1,,,,,フミサン,0
539,3020003025097,新規,0,2023-11-30,2023-11-30,合同会社音羽屋,,合同会社,神奈川県,横浜市南区,大岡１丁目２４－２９パティオ大岡１０３号,,14,105,2320061,,,,,,,2023-11-30,1,,,,,オトワヤ,0
546,3021001080860,新規,0,2023-11-30,2023-11-30,株式会社ＥＯＯＯＶ,,株式会社,神奈川県,小田原市,栄町３丁目４番２１号,,14,206,2500011,,,,,,,2023-11-30,1,,,,,イーヴ,0
548,3021005012942,新規,0,2023-11-30,2023-11-30,一般社団法人経済発展研究所,,その他の設立登記法人,神奈川県,相模原市南区,若松２丁目１３番６号,,14,153,2520334,,,,,,,2023-11-30,1,,,,,,0
554,3030001157313,新規,0,2023-11-30,2023-11-30,株式会社Ｈｉｔｉｗａ,,株式会社,埼玉県,越谷市,北越谷４丁目３番１５号,,11,222,3430026,,,,,,,2023-11-30,1,,,,,ヒチワ,0
555,3030001157362,新規,0,2023-11-30,2023-11-30,株式会社ＢＬＡＣＫ　ＴＩＥ,,株式会社,埼玉県,越谷市,大沢４丁目７番１５号サンリーフ大沢２０２号,,11,222,3430025,,,,,,,2023-11-30,1,,,,,ブラックタイ,0
556,3030001157370,新規,0,2023-11-30,2023-11-30,株式会社Ｔｈｅ　Ｗ,,株式会社,埼玉県,上尾市,大字畔吉６０９番地１,,11,219,3620065,,,,,,,2023-11-30,1,,,,,ザダブリュー,0
582,3070003005177,新規,0,2023-11-30,2023-11-30,Ｊｕｎｋ　Ｌａｎｄ合同会社,,合同会社,群馬県,高崎市,藤塚町１１３－４,,10,202,3700875,,,,,,,2023-11-30,1,,,,,ジャンクランド,0
586,3080105006378,新規,0,2023-11-30,2023-11-30,静岡未来推進事業協同組合,,その他の設立登記法人,静岡県,沼津市,花園町１９－８オークタウンＡ１０５,,22,203,4100065,,,,,,,2023-11-30,1,,,,,シズオカミライスイシンジギョウ,0
588,3100001036988,新規,0,2023-11-30,2023-11-30,ＪＸコンサルティング株式会社,,株式会社,長野県,塩尻市,大字洗馬２７１番地２,,20,215,3996462,,,,,,,2023-11-30,1,,,,,ジェイエックスコンサルティング,0
593,3110001038001,新規,0,2023-11-30,2023-11-30,株式会社チームアップ,,株式会社,新潟県,新潟市中央区,米山４丁目１番３１号紫竹綜合ビル３１１号,,15,103,9500916,,,,,,,2023-11-30,1,,,,,チームアップ,0
605,3120001260058,新規,0,2023-11-30,2023-11-30,株式会社ＴＲＡＮＳＩＴ,,株式会社,大阪府,大阪市都島区,東野田町４丁目８番１４号天崎ビル３Ｆ,,27,102,5340024,,,,,,,2023-11-30,1,,,,,トランジット,0
606,3120001260140,新規,0,2023-11-30,2023-11-30,ＳＡＴＯ株式会社,,株式会社,大阪府,大阪市平野区,平野上町１丁目６番５号２０１室,,27,126,5470045,,,,,,,2023-11-30,1,,,,,サトオ,0
607,3120001260231,新規,0,2023-11-30,2023-11-30,株式会社ＦＬＥＸ,,株式会社,大阪府,大阪市北区,本庄東２丁目３番３３号,,27,127,5310074,,,,,,,2023-11-30,1,,,,,フレックス,0
608,3120001260264,新規,0,2023-11-30,2023-11-30,株式会社Ｋｏａｒｔｏ,,株式会社,大阪府,大阪市北区,豊崎３丁目１５－５ＴＫビル２Ｆ,,27,127,5310072,,,,,,,2023-11-30,1,,,,,コアルト,0
609,3120001260280,新規,0,2023-11-30,2023-11-30,株式会社ＶＩＳＩＯＮ＆Ｃｏ．,,株式会社,大阪府,大阪市中央区,北浜東１－１５ビル・リバーセンター５０２,,27,128,5400031,,,,,,,2023-11-30,1,,,,,ヴィジョンアンドシーオー,0
610,3120001260314,新規,0,2023-11-30,2023-11-30,ウィルワン・プロパティ株式会社,,株式会社,大阪府,大阪市西区,江戸堀１丁目８番２２号,,27,106,5500002,,,,,,,2023-11-30,1,,,,,ウィルワンプロパティ,0
612,3120005024021,新規,0,2023-11-30,2023-11-30,一般社団法人フリーランスエイド,,その他の設立登記法人,大阪府,大阪市大正区,鶴町３丁目１０番１２号,,27,108,5510023,,,,,,,2023-11-30,1,,,,,フリーランスエイド,0
631,3150001026910,新規,0,2023-11-30,2023-11-30,株式会社ＫＯＨＫＥＮ,,株式会社,奈良県,桜井市,大字大福２７番地の８,,29,206,6330067,,,,,,,2023-11-30,1,,,,,コウケン,0
634,3160003003048,新規,0,2023-11-30,2023-11-30,合同会社パインスリー,,合同会社,滋賀県,大津市,大萱１丁目１８番７号,,25,201,5202144,,,,,,,2023-11-30,1,,,,,パインスリー,0
638,3180001159088,新規,0,2023-11-30,2023-11-30,株式会社ｂｌｏｏｍ‐Ｔ,,株式会社,愛知県,名古屋市西区,八筋町４４１番地,,23,104,4520815,,,,,,,2023-11-30,1,,,,,ブルームティー,0
639,3180001159096,新規,0,2023-11-30,2023-11-30,株式会社Ｊｕｎｉｐｅｒ　Ｂｅｒｒｙ,,株式会社,愛知県,名古屋市中区,千代田２丁目１９番２０号トーカンマンション鶴舞３０７号,,23,106,4600012,,,,,,,2023-11-30,1,,,,,ジュニパベリー,0
640,3180001159105,新規,0,2023-11-30,2023-11-30,株式会社ＣＧＨ,,株式会社,愛知県,名古屋市中区,丸の内３丁目１６番１９号,,23,106,4600002,,,,,,,2023-11-30,1,,,,,シージーエイチ,0
641,3180001159113,新規,0,2023-11-30,2023-11-30,株式会社Ｒｅａｌｉｚｅ　Ｗｉｔｈ,,株式会社,愛知県,名古屋市西区,名駅２丁目３４番１７号セントラル名古屋１１０１号,,23,104,4510045,,,,,,,2023-11-30,1,,,,,リアライズウィズ,0
648,3190001030917,新規,0,2023-11-30,2023-11-30,株式会社住井左官,,株式会社,三重県,鳥羽市,船津町６５番地１２,,24,211,5170045,,,,,,,2023-11-30,1,,,,,スミイサカン,0
666,3240001062475,新規,0,2023-11-30,2023-11-30,ペンステモン株式会社,,株式会社,広島県,広島市南区,翠５丁目１９番７－３０７号,,34,103,7340005,,,,,,,2023-11-30,1,,,,,ペンステモン,0
670,3250005008878,新規,0,2023-11-30,2023-11-30,山口街商移動商業協同組合,,その他の設立登記法人,山口県,山口市,平井１６４５番地８,,35,203,7530831,,,,,,,2023-11-30,1,,,,,ヤマグチガイショウイドウショウギョウ,0
674,3280003001790,新規,0,2023-11-30,2023-11-30,こもれび合同会社,,合同会社,島根県,松江市,宍道町佐々布３２４５番地１４,,32,201,6990406,,,,,,,2023-11-30,1,,,,,コモレビ,0
679,3290001103852,新規,0,2023-11-30,2023-11-30,株式会社ＫＣＧ　Ｆｕｋｕｏｋａ,,株式会社,福岡県,久留米市,東和町１番地１２・１Ｆ,,40,203,8300035,,,,,,,2023-11-30,1,,,,,ケーシージーフクオカ,0
680,3290001103860,新規,0,2023-11-30,2023-11-30,株式会社ＮＥＥＤ　ＪＡＰＡＮ,,株式会社,福岡県,福岡市博多区,博多駅前１丁目２３番１号ＰａｒｋＦｒｏｎｔ博多駅前１丁目５Ｆ－Ｂ,,40,132,8120011,,,,,,,2023-11-30,1,,,,,ニードジャパン,0
681,3290001103877,新規,0,2023-11-30,2023-11-30,株式会社チキンナゲッツ,,株式会社,福岡県,古賀市,日吉３丁目２２番３９号,,40,223,8113106,,,,,,,2023-11-30,1,,,,,チキンナゲッツ,0
682,3290001103885,新規,0,2023-11-30,2023-11-30,三恵サポート株式会社,,株式会社,福岡県,福岡市早良区,西新４丁目１－１,,40,137,8140002,,,,,,,2023-11-30,1,,,,,サンケイサポート,0
686,3320001020152,新規,0,2023-11-30,2023-11-30,江河株式会社,,株式会社,大分県,中津市,耶馬溪町大字深耶馬３１７７番１１,,44,203,8710422,,,,,,,2023-11-30,1,,,,,コウガ,0
692,3350003004506,新規,0,2023-11-30,2023-11-30,合同会社マネジメントエッジ,,合同会社,宮崎県,宮崎市,恒久６丁目２－２,,45,201,8800913,,,,,,,2023-11-30,1,,,,,マネジメントエッジ,0
695,3360003013514,新規,0,2023-11-30,2023-11-30,合同会社丸良オートサービス,,合同会社,沖縄県,浦添市,当山３丁目７番１号,,47,208,9012104,,,,,,,2023-11-30,1,,,,,マルヨシオートサービス,0
698,3400001016472,新規,0,2023-11-30,2023-11-30,株式会社アプロヴォイス,,株式会社,岩手県,盛岡市,茶畑１丁目１７番１０号,,03,201,0200822,,,,,,,2023-11-30,1,,,,,アプロヴォイス,0
700,3430001090531,新規,0,2023-11-30,2023-11-30,札管電工株式会社,,株式会社,北海道,札幌市豊平区,美園四条５丁目３番６号,,01,105,0620004,,,,,,,2023-11-30,1,,,,,サッカンデンコウ,0
704,3490001010649,新規,0,2023-11-30,2023-11-30,株式会社Ｓｋｙ　Ｓｅｒｖｉｃｅ,,株式会社,高知県,香南市,野市町西野４３８番地２,,39,211,7815232,,,,,,,2023-11-30,1,,,,,スカイサービス,0
705,3500001025331,新規,0,2023-11-30,2023-11-30,株式会社ＴＲグロー,,株式会社,愛媛県,新居浜市,萩生１９１８番地の３,,38,205,7920050,,,,,,,2023-11-30,1,,,,,ティーアールグロー,0
709,3700150122479,新規,0,2023-11-30,2023-11-30,ＨＤ現代エレクトリック株式会社,,外国会社等,大阪府,大阪市中央区,南船場２丁目４－８長堀プラザビル５階１号室,,27,128,5420081,大韓民国京畿道城南市盆唐区盆唐水西路４７７（亭子洞）,,,,,,2023-11-30,1,,,,,エイチデイーゲンダイエレクトリツクカブシキガイシヤ,0
714,4010001240409,新規,0,2023-11-30,2023-11-30,ＳＮＳ　ＪＡＰＡＮ株式会社,,株式会社,東京都,文京区,大塚５丁目１１番７号３０１,,13,105,1120012,,,,,,,2023-11-30,1,,,,,エスエヌエスジャパン,0
715,4010001240433,新規,0,2023-11-30,2023-11-30,ＳＳＧホールディングス株式会社,,株式会社,東京都,千代田区,九段南２丁目７番１号喜京家ビル４階,,13,101,1020074,,,,,,,2023-11-30,1,,,,,エスエスジーホールディングス,0
716,4010003042332,新規,0,2023-11-30,2023-11-30,サステナブルローンファンド２０号合同会社,,合同会社,東京都,中央区,八丁堀４丁目２番１０号ＡＯＪ税理士法人内,,13,102,1040032,,,,,,,2023-11-30,1,,,,,サステナブルローンファンドニジュウゴウ,0
717,4010005037586,新規,0,2023-11-30,2023-11-30,山佐産業ＣＭ一般社団法人,,その他の設立登記法人,東京都,千代田区,丸の内３丁目１番１号東京共同会計事務所内,,13,101,1000005,,,,,,,2023-11-30,1,,,,,ヤマササンギョウシーエム,0
723,4010401178827,新規,0,2023-11-30,2023-11-30,株式会社ＬＩＦＴ　ＫＥＹ,,株式会社,東京都,港区,虎ノ門１丁目１７番１号虎ノ門ヒルズビジネスタワー１５階,,13,103,1050001,,,,,,,2023-11-30,1,,,,,リフトキー,0
725,4010403031455,新規,0,2023-11-30,2023-11-30,千葉ＳＰＶ合同会社,,合同会社,東京都,港区,六本木１丁目１０番３－９０１号スウェーデン大使館ビル内,,13,103,1060032,,,,,,,2023-11-30,1,,,,,チバエスピーブイ,0
726,4010403031471,新規,0,2023-11-30,2023-11-30,合同会社ＥＵＰＨＯＲＩＡ,,合同会社,東京都,港区,西麻布２丁目２６番７号,,13,103,1060031,,,,,,,2023-11-30,1,,,,,ユーフォリア,0
727,4010405022741,新規,0,2023-11-30,2023-11-30,一般社団法人Ｏｎｅ　Ｂｌｕｅ,,その他の設立登記法人,東京都,港区,元赤坂１丁目１番８号株式会社赤坂国際会計内,,13,103,1070051,,,,,,,2023-11-30,1,,,,,ワンブルー,0
728,4010505003476,新規,0,2023-11-30,2023-11-30,一般社団法人桃太郎オフィス,,その他の設立登記法人,東京都,台東区,台東３丁目１５番４号日神デュオステージ御徒町３０６号室,,13,106,1100016,,,,,,,2023-11-30,1,,,,,モモタロウオフィス,0
732,4010801034563,新規,0,2023-11-30,2023-11-30,株式会社エーアールホールディングス,,株式会社,東京都,大田区,田園調布２丁目４８番１２号メゾン田園調布２０３号,,13,111,1450071,,,,,,,2023-11-30,1,,,,,エーアールホールディングス,0
746,4011001158491,新規,0,2023-11-30,2023-11-30,株式会社ｉｒｏｎｏｉ,,株式会社,東京都,目黒区,自由が丘２丁目１５番６号３階,,13,110,1520035,,,,,,,2023-11-30,1,,,,,イロノイ,0
747,4011001158525,新規,0,2023-11-30,2023-11-30,株式会社ＩＮＯＶＥ,,株式会社,東京都,渋谷区,代々木４丁目３５番１２号アーバン代々木１０３,,13,113,1510053,,,,,,,2023-11-30,1,,,,,イノーヴ,0
748,4011001158541,新規,0,2023-11-30,2023-11-30,株式会社ウィルファクトリー,,株式会社,東京都,渋谷区,幡ヶ谷１丁目２番２号京王幡ヶ谷ビル４階,,13,113,1510072,,,,,,,2023-11-30,1,,,,,ウィルファクトリー,0
754,4011003018009,新規,0,2023-11-30,2023-11-30,合同会社ＹＥＬＬ,,合同会社,東京都,渋谷区,渋谷２丁目１９番１５号宮益坂ビルディング６０９,,13,113,1500002,,,,,,,2023-11-30,1,,,,,エール,0
759,4011101105303,新規,0,2023-11-30,2023-11-30,株式会社ＨＦｔｅｃ,,株式会社,東京都,新宿区,西新宿８丁目１１－１０星野ビル３Ｆ,,13,104,1600023,,,,,,,2023-11-30,1,,,,,ヘフテック,0
763,4011201025079,新規,0,2023-11-30,2023-11-30,株式会社Ｗｅｂ　Ｃｏｎｎｅｃｔｉｏｎ,,株式会社,東京都,中野区,大和町１丁目４０番４号ファミール渋谷１０２,,13,114,1650034,,,,,,,2023-11-30,1,,,,,ウェブコネクション,0
773,4011801043430,新規,0,2023-11-30,2023-11-30,株式会社技芸,,株式会社,東京都,足立区,足立１丁目８番１号メゾン・ラフィーネ８０１号室,,13,121,1200015,,,,,,,2023-11-30,1,,,,,ワザワザ,0
780,4012703002862,新規,0,2023-11-30,2023-11-30,合同会社７ｓｔｕｄｉ‐ｏ,,合同会社,東京都,西東京市,南町３丁目１番１６号,,13,229,1880012,,,,,,,2023-11-30,1,,,,,ナナスタジオ,0
792,4020003025096,新規,0,2023-11-30,2023-11-30,合同会社ライジングエイト,,合同会社,神奈川県,川崎市宮前区,犬蔵２丁目３９番２―６２０号,,14,136,2160011,,,,,,,2023-11-30,1,,,,,ライジングエイト,0
799,4021003013842,新規,0,2023-11-30,2023-11-30,合同会社Ｔ‐ｂａｌａｎｃｅ,,合同会社,神奈川県,座間市,新田宿１７６番地の２,,14,216,2520026,,,,,,,2023-11-30,1,,,,,ティーバランス,0
804,4030001157428,新規,0,2023-11-30,2023-11-30,株式会社彩家ＣＰ,,株式会社,埼玉県,入間郡三芳町,大字上富１５５２番地１１,,11,324,3540045,,,,,,,2023-11-30,1,,,,,サイカシーピー,0
826,4050001053889,新規,0,2023-11-30,2023-11-30,ＳＫ未来株式会社,,株式会社,茨城県,下妻市,平方２０９番地１北口,,08,210,3040001,,,,,,,2023-11-30,1,,,,,エスケーミライ,0
829,4050003007918,新規,0,2023-11-30,2023-11-30,合同会社未来橋,,合同会社,茨城県,古河市,東３丁目８番３号,,08,204,3060011,,,,,,,2023-11-30,1,,,,,ミライバシ,0
836,4070005010199,新規,0,2023-11-30,2023-11-30,一般社団法人桃里会,,その他の設立登記法人,群馬県,桐生市,境野町４丁目１０６５番１,,10,203,3760002,,,,,,,2023-11-30,1,,,,,,0
842,4080103002931,新規,0,2023-11-30,2023-11-30,合同会社富士コンサルティング,,合同会社,静岡県,御殿場市,川島田８０３番１号アイクレスト御殿場ＩＩ３０５,00132837,22,215,4120045,,,,,,,2023-11-30,1,,,,,フジコンサルティング,0
845,4090001018434,新規,0,2023-11-30,2023-11-30,株式会社ＮＥＷＭＥ,,株式会社,山梨県,甲府市,堀之内町８８１コネクトハウスＣ号棟,,19,201,4000056,,,,,,,2023-11-30,1,,,,,ニューミー,0
850,4110001038000,新規,0,2023-11-30,2023-11-30,株式会社ＺＥＲＯ　Ａｎｉｍａｔｉｏｎ,,株式会社,新潟県,南魚沼郡湯沢町,大字湯沢１８３１番地,,15,461,9496101,,,,,,,2023-11-30,1,,,,,ゼロアニメーション,0
857,4120001260230,新規,0,2023-11-30,2023-11-30,ＧＯＯＤ　ＶＩＢＥＳ株式会社,,株式会社,大阪府,大阪市中央区,平野町２丁目２番６－１１０２号,,27,128,5410046,,,,,,,2023-11-30,1,,,,,グッドバイブス,0
858,4120001260255,新規,0,2023-11-30,2023-11-30,株式会社ｄｉｆｆｆｅｒｅｎｔ,,株式会社,大阪府,大阪市東淀川区,淡路４丁目５番１５号サンシャイン淡路駅前３０１号,,27,114,5330032,,,,,,,2023-11-30,1,,,,,ディファレント,0
862,4120005024020,新規,0,2023-11-30,2023-11-30,一般社団法人越団,,その他の設立登記法人,大阪府,大阪市西成区,鶴見橋２丁目８番１号,,27,122,5570031,,,,,,,2023-11-30,1,,,,,エツダン,0
876,4140003019862,新規,0,2023-11-30,2023-11-30,合同会社オリーブ,,合同会社,兵庫県,神戸市中央区,御幸通８丁目１番６号神戸国際会館２２階,,28,110,6510087,,,,,,,2023-11-30,1,,,,,オリーブ,0
877,4170001017898,新規,0,2023-11-30,2023-11-30,株式会社ｃｏｇ‐ｌａｂ,,株式会社,和歌山県,紀の川市,西脇５５４番地５,,30,208,6496616,,,,,,,2023-11-30,1,,,,,コグラボ,0
883,4180001159087,新規,0,2023-11-30,2023-11-30,株式会社エースガレージ,,株式会社,愛知県,津島市,宮川町１丁目６９番地３,,23,208,4960853,,,,,,,2023-11-30,1,,,,,エースガレージ,0
884,4180001159095,新規,0,2023-11-30,2023-11-30,株式会社スリーエイト,,株式会社,愛知県,名古屋市東区,東桜２丁目３番７号,,23,102,4610005,,,,,,,2023-11-30,1,,,,,スリーエイト,0
904,4290001103851,新規,0,2023-11-30,2023-11-30,株式会社ＯＳ　Ｃｏｍｐａｎｙ　Ｊａｐａｎ,,株式会社,福岡県,福岡市東区,香椎３丁目２２番１４－３０１号,,40,131,8130011,,,,,,,2023-11-30,1,,,,,オーエスカンパニージャパン,0
905,4290001103876,新規,0,2023-11-30,2023-11-30,株式会社つむぎ,,株式会社,福岡県,福岡市西区,生の松原１丁目１６番６－２０２号,,40,135,8190055,,,,,,,2023-11-30,1,,,,,ツムギ,0
909,4290003014659,新規,0,2023-11-30,2023-11-30,ＫＩＮＧＲＡＤＥ合同会社,,合同会社,福岡県,福岡市城南区,七隈８丁目２番１－３１１号,,40,136,8140133,,,,,,,2023-11-30,1,,,,,キングレード,0
910,4290003014667,新規,0,2023-11-30,2023-11-30,合同会社真心,,合同会社,福岡県,福岡市東区,奈多１丁目１２番５４号１０７号室,,40,131,8110204,,,,,,,2023-11-30,1,,,,,,0
913,4290801030089,新規,0,2023-11-30,2023-11-30,株式会社１ｓｔ５,,株式会社,福岡県,北九州市小倉北区,砂津１丁目５－２６ベルコモンズ５０５,,40,106,8020014,,,,,,,2023-11-30,1,,,,,ファーストファイブ,0
916,4350003004505,新規,0,2023-11-30,2023-11-30,合同会社ＳＡＫＵ,,合同会社,宮崎県,宮崎市,佐土原町下田島８９４７番地２,,45,201,8800211,,,,,,,2023-11-30,1,,,,,サク,0
928,4420001018499,新規,0,2023-11-30,2023-11-30,株式会社Ｔ＆Ｔ,,株式会社,青森県,弘前市,大字蔵主町３番地８,,02,202,0368345,,,,,,,2023-11-30,1,,,,,ティアンドティ,0
930,4430001090530,新規,0,2023-11-30,2023-11-30,株式会社ＲＥＡＭ,,株式会社,北海道,札幌市中央区,双子山２丁目３番３０号,,01,101,0640946,,,,,,,2023-11-30,1,,,,,リアム,0
931,4430003015675,新規,0,2023-11-30,2023-11-30,合同会社シー・ユー・ビー,,合同会社,北海道,白老郡白老町,字社台２７５番地４３,,01,578,0590901,,,,,,,2023-11-30,1,,,,,シーユービー,0
942,4470001019922,新規,0,2023-11-30,2023-11-30,株式会社スプーンプラス,,株式会社,香川県,高松市,元山町２８３番地３,,37,201,7610311,,,,,,,2023-11-30,1,,,,,スプーンプラス,0
953,5010001240424,新規,0,2023-11-30,2023-11-30,株式会社Ｓｕｒｇｅ　Ｅｎｇｉｎｅｅｒｉｎｇ,,株式会社,東京都,千代田区,神田錦町２丁目１番地５－９０４号,,13,101,1010054,,,,,,,2023-11-30,1,,,,,サージエンジニアリング,0
954,5010001240465,新規,0,2023-11-30,2023-11-30,株式会社潤林,,株式会社,東京都,中央区,晴海５丁目１－１７－１６１３室,,13,102,1040053,,,,,,,2023-11-30,1,,,,,ジュンリン,0
961,5010005037569,新規,0,2023-11-30,2023-11-30,一般社団法人飛梅,,その他の設立登記法人,東京都,千代田区,霞が関３丁目２番５号,,13,101,1000013,,,,,,,2023-11-30,1,,,,,トビウメ,0
965,5010401178792,新規,0,2023-11-30,2023-11-30,株式会社キーストンクラブ東京,,株式会社,東京都,港区,麻布十番２丁目２番５号,,13,103,1060045,,,,,,,2023-11-30,1,,,,,キーストンクラブトウキョウ,0
966,5010401178818,新規,0,2023-11-30,2023-11-30,株式会社Ｆｕｌｌ　Ｂｅｔ,,株式会社,東京都,港区,新橋６丁目５番４－２０３号,,13,103,1050004,,,,,,,2023-11-30,1,,,,,フルベット,0
967,5010405022740,新規,0,2023-11-30,2023-11-30,一般社団法人国際ＩＴコンサルタント業協会,,その他の設立登記法人,東京都,港区,北青山１丁目３番１号アールキューブ青山３階,,13,103,1070061,,,,,,,2023-11-30,1,,,,,コクサイアイティーコンサルタントギョウキョウカイ,0
968,5010501051429,新規,0,2023-11-30,2023-11-30,日本奥達国際株式会社,,株式会社,東京都,台東区,上野６丁目７番１６号川久保ビル４２０号室,,13,106,1100005,,,,,,,2023-11-30,1,,,,,ニホンオウタツコクサイ,0
983,5010903008621,新規,0,2023-11-30,2023-11-30,合同会社ｄｅｅｄｅｅ,,合同会社,東京都,世田谷区,新町２丁目２２－１５ユニベル新町１０３,,13,112,1540014,,,,,,,2023-11-30,1,,,,,ディーディー,0
991,5011001158268,新規,0,2023-11-30,2023-11-30,株式会社プリカーレ,,株式会社,東京都,渋谷区,渋谷２丁目６番１１号花門ビル３階,,13,113,1500002,,,,,,,2023-11-30,1,,,,,プリカーレ,0
992,5011001158516,新規,0,2023-11-30,2023-11-30,株式会社長楽,,株式会社,東京都,渋谷区,宇田川町２番１－３１３号,,13,113,1500042,,,,,,,2023-11-30,1,,,,,チョウラク,0
993,5011001158532,新規,0,2023-11-30,2023-11-30,株式会社小林興業,,株式会社,東京都,渋谷区,幡ヶ谷３丁目１５番１０号,,13,113,1510072,,,,,,,2023-11-30,1,,,,,コバヤシコウギョウ,0
1002,5011303004979,新規,0,2023-11-30,2023-11-30,合同会社ルーチェワークス,,合同会社,東京都,杉並区,西荻南２丁目１２－１９,,13,115,1670053,,,,,,,2023-11-30,1,,,,,ルーチェワークス,0
1008,5011501030059,新規,0,2023-11-30,2023-11-30,Ｏｎｅ　Ｃｏｉｎ株式会社,,株式会社,東京都,北区,王子５丁目１番１－１２７号,,13,117,1140002,,,,,,,2023-11-30,1,,,,,ワンコイン,0
1011,5011601027335,新規,0,2023-11-30,2023-11-30,ＴＯＫＡＮＯ株式会社,,株式会社,東京都,練馬区,上石神井３丁目２７－３１,,13,120,1770044,,,,,,,2023-11-30,1,,,,,トカノ,0
1020,5011803005964,新規,0,2023-11-30,2023-11-30,合同会社楽人,,合同会社,東京都,足立区,加平３丁目１０番１５－１０３号,,13,121,1210055,,,,,,,2023-11-30,1,,,,,ラクト,0
1023,5012701017977,新規,0,2023-11-30,2023-11-30,株式会社Ｂ．Ｃ．Ｗｏｒｋｓ,,株式会社,東京都,西東京市,東町４丁目１５番１４号ユーハイツ１０１号,,13,229,2020012,,,,,,,2023-11-30,1,,,,,ビーシーワークス,0
1024,5012801022794,新規,0,2023-11-30,2023-11-30,株式会社ｍｏｍａｓ６０,,株式会社,東京都,日野市,平山６丁目１０番地の４７コーポサンライズ１０１,,13,212,1910043,,,,,,,2023-11-30,1,,,,,モーマズロー,0
1031,5013303006897,新規,0,2023-11-30,2023-11-30,合同会社はちす,,合同会社,東京都,豊島区,池袋３丁目３２番５号レオネクストＣｏｍｏ池袋３－２０３号,,13,116,1710014,,,,,,,2023-11-30,1,,,,,ハチス,0
1035,5020001154689,新規,0,2023-11-30,2023-11-30,株式会社共愛,,株式会社,神奈川県,横浜市泉区,上飯田町４５９６番地２,,14,116,2450018,,,,,,,2023-11-30,1,,,,,キョウアイ,0
1038,5020003025005,新規,0,2023-11-30,2023-11-30,合同会社Ｈａｕｔｅ　Ａ＆Ｐ,,合同会社,神奈川県,横浜市西区,みなとみらい４丁目４番２号横浜ブルーアベニュー１２階,,14,103,2200012,,,,,,,2023-11-30,1,,,,,オートエーアンドピー,0
1050,5030001157377,新規,0,2023-11-30,2023-11-30,日本シニアサポート株式会社,,株式会社,埼玉県,さいたま市浦和区,東高砂町２３番９号,,11,107,3300055,,,,,,,2023-11-30,1,,,,,ニホンシニアサポート,0
1064,5040001131133,新規,0,2023-11-30,2023-11-30,株式会社桂花ミヤビ,,株式会社,千葉県,木更津市,請西東７丁目１８番地４,,12,206,2920806,,,,,,,2023-11-30,1,,,,,ケイカミヤビ,0
1065,5040001131141,新規,0,2023-11-30,2023-11-30,株式会社スターク,,株式会社,千葉県,市原市,大厩１１４６番地１,,12,219,2900002,,,,,,,2023-11-30,1,,,,,スターク,0
1070,5040003023832,新規,0,2023-11-30,2023-11-30,合同会社開喜樹,,合同会社,千葉県,船橋市,三山２丁目４０番５－１号,,12,204,2740072,,,,,,,2023-11-30,1,,,,,カイキジュ,0
1073,5050003007974,新規,0,2023-11-30,2023-11-30,合同会社ＳＵＺＵＣＯＴＯ,,合同会社,茨城県,つくば市,吾妻１丁目５－７ダイワロイネットホテルつくばビル１階・２階,,08,220,3050031,,,,,,,2023-11-30,1,,,,,スズコト,0
1077,5080103002930,新規,0,2023-11-30,2023-11-30,合同会社笑愛,,合同会社,静岡県,富士市,永田町１丁目１５中村ビル２０１ＬＩＴＴＬＥ・Ｌ内,,22,210,4170055,,,,,,,2023-11-30,1,,,,,ワライアイ,0
1087,5120001260213,新規,0,2023-11-30,2023-11-30,株式会社ＫＳ　Ｇｒｏｕｐ　Ｓｔｕｄｉｏ,,株式会社,大阪府,大阪市北区,中崎３丁目２－２９,,27,127,5300016,,,,,,,2023-11-30,1,,,,,ケーエスグループスタジオ,0
1088,5120001260295,新規,0,2023-11-30,2023-11-30,株式会社ライヴリー,,株式会社,大阪府,大阪市北区,芝田２丁目８番１１号３階,,27,127,5300012,,,,,,,2023-11-30,1,,,,,ライヴリー,0
1090,5120003025399,新規,0,2023-11-30,2023-11-30,キッズ楽富貿易合同会社,,合同会社,大阪府,大阪市北区,梅田１丁目２番２号大阪駅前第２ビル１２－１２,,27,127,5300001,,,,,,,2023-11-30,1,,,,,キッズラフボウエキ,0
1091,5120003025424,新規,0,2023-11-30,2023-11-30,合同会社ここらぼ,,合同会社,大阪府,大阪市北区,太融寺町２番２１－７０１,,27,127,5300051,,,,,,,2023-11-30,1,,,,,ココラボ,0
1094,5120101068614,新規,0,2023-11-30,2023-11-30,栄益株式会社,,株式会社,大阪府,羽曳野市,高鷲２丁目８番３号,,27,222,5830882,,,,,,,2023-11-30,1,,,,,エイエキ,0
1110,5130001075833,新規,0,2023-11-30,2023-11-30,株式会社ＩＴＴＯＫＵ,,株式会社,京都府,京都市南区,上鳥羽大物町３１マチエール大宮４０２,,26,107,6018121,,,,,,,2023-11-30,1,,,,,イットク,0
1121,5180001159128,新規,0,2023-11-30,2023-11-30,株式会社ＣＵＯＲＥｓｔａｆｆ,,株式会社,愛知県,一宮市,真清田１丁目３－３桃花館４Ｂ,,23,203,4910043,,,,,,,2023-11-30,1,,,,,クオレスタッフ,0
1127,5180301038072,新規,0,2023-11-30,2023-11-30,株式会社ＭＳ管理センター,,株式会社,愛知県,西尾市,八ツ面町梅之宮５１番地,,23,213,4450082,,,,,,,2023-11-30,1,,,,,エムエスカンリセンター,0
1140,5240001062481,新規,0,2023-11-30,2023-11-30,株式会社ＳＯＲＡ建築工房,,株式会社,広島県,広島市南区,東霞町６番２０－１５号,,34,103,7340046,,,,,,,2023-11-30,1,,,,,ソラケンチクコウボウ,0
1167,5350003004504,新規,0,2023-11-30,2023-11-30,合同会社グローバルダッシュ,,合同会社,宮崎県,宮崎市,恒久３丁目２０－６－２０２,,45,201,8800913,,,,,,,2023-11-30,1,,,,,グローバルダッシュ,0
1171,5360005006943,新規,0,2023-11-30,2023-11-30,豊見城バプテスト教会,,その他の設立登記法人,沖縄県,豊見城市,字渡嘉敷２８７番地１,,47,212,9010215,,,,,,,2023-11-30,1,,,,,トミシロバプテストキョウカイ,0
1172,5370001050671,新規,0,2023-11-30,2023-11-30,株式会社ＦＳＥ,,株式会社,宮城県,大崎市,古川駅前大通２丁目３番３９号,,04,215,9896162,,,,,,,2023-11-30,1,,,,,エフエスイー,0
1173,5380001034161,新規,0,2023-11-30,2023-11-30,株式会社メディカルクラウン,,株式会社,福島県,いわき市,平字五色町１７,,07,204,9708026,,,,,,,2023-11-30,1,,,,,メディカルクラウン,0
1183,5470001019921,新規,0,2023-11-30,2023-11-30,株式会社プラスワン,,株式会社,香川県,高松市,天神前１０番５号高松セントラルスカイビルディング３Ｆ　ｓｏｕｔｈ,,37,201,7600018,,,,,,,2023-11-30,1,,,,,プラスワン,0
1192,5700150122469,新規,0,2023-11-30,2023-11-30,ハノーファー・エスジー・ツー・ピーティーイー・リミテッド,,外国会社等,東京都,港区,六本木１丁目６番１号泉ガーデンタワー,,13,103,1060032,シンガポール共和国０４９３２１、オーユーイー・ベイフロント、コリヤーキー５０、＃０４－０３,,,,,,2023-11-30,1,,,,,ハノーフアーエスジーツーピーテイーイーリミテツド,0
1210,6010005037592,新規,0,2023-11-30,2023-11-30,別府スパリゾート一般社団法人,,その他の設立登記法人,東京都,千代田区,丸の内３丁目１番１号東京共同会計事務所内,,13,101,1000005,,,,,,,2023-11-30,1,,,,,ベップスパリゾート,0
1214,6010401178742,新規,0,2023-11-30,2023-11-30,ＯＬＩＮＡ　ＴＯＫＹＯ株式会社,,株式会社,東京都,港区,東麻布３丁目６番１１号ＴＨＥ・ＣＩＴＹ麻布十番ＥＡＳＴ５Ｆ,,13,103,1060044,,,,,,,2023-11-30,1,,,,,オリナトウキョウ,0
1215,6010401178841,新規,0,2023-11-30,2023-11-30,株式会社Ｎｅｘｔ　Ｉｎｎｏｖａｔｉｏｎ,,株式会社,東京都,港区,赤坂９丁目１－２ザレジデンス赤坂檜町６１４号室,,13,103,1070052,,,,,,,2023-11-30,1,,,,,ネクストイノベーション,0
1219,6010403031461,新規,0,2023-11-30,2023-11-30,ロバスト・ノンキネティック合同会社,,合同会社,東京都,港区,港南４丁目６番６,,13,103,1080075,,,,,,,2023-11-30,1,,,,,ロバストノンキネティック,0
1222,6010505003474,新規,0,2023-11-30,2023-11-30,一般社団法人ガラシア,,その他の設立登記法人,東京都,台東区,浅草２丁目３４番４号,,13,106,1110032,,,,,,,2023-11-30,1,,,,,ガラシア,0
1227,6010601064222,新規,0,2023-11-30,2023-11-30,株式会社ＣＯＲＥ　ＳＰＲＥＡＤ７７,,株式会社,東京都,墨田区,亀沢３丁目１４番１１号－２０３,,13,107,1300014,,,,,,,2023-11-30,1,,,,,コアスプレッドナナジュウナナ,0
1228,6010601064230,新規,0,2023-11-30,2023-11-30,株式会社Ｗｅｌｌｎｅｓｓ　Ｖｅｎｔｕｒｅｓ,,株式会社,東京都,江東区,青海２丁目７番４号ｔｈｅＳＯＨＯ５２４,,13,108,1350064,,,,,,,2023-11-30,1,,,,,ウェルネスヴェンチャーズ,0
1234,6010803004760,新規,0,2023-11-30,2023-11-30,九雲合同会社,,合同会社,東京都,大田区,中央１丁目１番１号,,13,111,1430024,,,,,,,2023-11-30,1,,,,,クモ,0
1246,6011003017999,新規,0,2023-11-30,2023-11-30,合同会社ＨＡＧＨＡＧ,,合同会社,東京都,渋谷区,代々木５丁目２０番２０－９０３号,,13,113,1510053,,,,,,,2023-11-30,1,,,,,ハグハグ,0
1247,6011003018023,新規,0,2023-11-30,2023-11-30,合同会社サヤトル,,合同会社,東京都,渋谷区,恵比寿西２丁目８番４号ＥＸ恵比寿西ビル５階,,13,113,1500021,,,,,,,2023-11-30,1,,,,,サヤトル,0
1257,6011701026814,新規,0,2023-11-30,2023-11-30,Ａｐｐｙｙ　Ｗｏｒｋｓ株式会社,,株式会社,東京都,江戸川区,平井４丁目２０番１５－７０３号,,13,123,1320035,,,,,,,2023-11-30,1,,,,,アピーワークス,0
1258,6011703003670,新規,0,2023-11-30,2023-11-30,合同会社ｓｉｄｅｈａｎｄ,,合同会社,東京都,江戸川区,南葛西６丁目１７番２１－２０５号ＫＳスピリット,,13,123,1340085,,,,,,,2023-11-30,1,,,,,サイドハンド,0
1259,6011801043412,新規,0,2023-11-30,2023-11-30,Ｇｅｅｋｚ　Ｉｎｖｅｓｔｍｅｎｔ株式会社,,株式会社,東京都,足立区,一ツ家３丁目２４番１９号,,13,121,1210075,,,,,,,2023-11-30,1,,,,,ギークズインベストメント,0
1260,6011801043429,新規,0,2023-11-30,2023-11-30,株式会社美景,,株式会社,東京都,足立区,梅田７丁目６番４－３０６号,,13,121,1230851,,,,,,,2023-11-30,1,,,,,ビケイ,0
1265,6012401041269,新規,0,2023-11-30,2023-11-30,株式会社ＸＹＺ,,株式会社,東京都,府中市,浅間町２丁目１番地の４３,,13,206,1830001,,,,,,,2023-11-30,1,,,,,エックスワイゼット,0
1270,6012801022793,新規,0,2023-11-30,2023-11-30,東望洋株式会社,,株式会社,東京都,日野市,南平４丁目４１番地の１,,13,212,1910041,,,,,,,2023-11-30,1,,,,,トウモウヨウ,0
1274,6013301051696,新規,0,2023-11-30,2023-11-30,株式会社ＭＰＲＯ,,株式会社,東京都,豊島区,高田３丁目２０番１２号,,13,116,1710033,,,,,,,2023-11-30,1,,,,,エムプロ,0
1290,6021001080858,新規,0,2023-11-30,2023-11-30,株式会社櫻松,,株式会社,神奈川県,小田原市,久野４３９番地の１ハイツ伊東２０１,,14,206,2500055,,,,,,,2023-11-30,1,,,,,オウショウ,0
1292,6021003013857,新規,0,2023-11-30,2023-11-30,Ｗｏｒｌｄ　Ｄｅｃｏｒａｔｉｏｎｓ合同会社,,合同会社,神奈川県,海老名市,国分北４丁目１７―１１,,14,215,2430406,,,,,,,2023-11-30,1,,,,,ワールドデコレーションズ,0
1302,6030003023072,新規,0,2023-11-30,2023-11-30,Ｔｒａｈｏｒｅｐｒｏ合同会社,,合同会社,埼玉県,川越市,伊勢原町１丁目１７番地５,,11,201,3501108,,,,,,,2023-11-30,1,,,,,トラホレプロ,0
1309,6040001131132,新規,0,2023-11-30,2023-11-30,株式会社のびしろ開発センター,,株式会社,千葉県,市川市,富浜３丁目２番２１号,,12,203,2720115,,,,,,,2023-11-30,1,,,,,ノビシロカイハツセンター,0
1316,6040005022212,新規,0,2023-11-30,2023-11-30,特定非営利活動法人あーぶる,,その他の設立登記法人,千葉県,千葉市若葉区,小倉台４丁目１９番１号作田ビル２階Ａ,,12,104,2640006,,,,,,,2023-11-30,1,,,,,アーブル,0
1323,6060003004821,新規,0,2023-11-30,2023-11-30,合同会社ユナイト,,合同会社,栃木県,宇都宮市,不動前４丁目２番３９号朝日プラザシェモア不動前８０５,,09,201,3200833,,,,,,,2023-11-30,1,,,,,ユナイト,0
1325,6070001041130,新規,0,2023-11-30,2023-11-30,ＫＮＤ株式会社,,株式会社,群馬県,高崎市,新保町３３４番地,,10,202,3700018,,,,,,,2023-11-30,1,,,,,ケイエヌディ,0
1327,6070003005174,新規,0,2023-11-30,2023-11-30,Ｎ＆Ｋ総合企画合同会社,,合同会社,群馬県,前橋市,総社町高井４０番地１,,10,201,3710856,,,,,,,2023-11-30,1,,,,,,0
1334,6100001037018,新規,0,2023-11-30,2023-11-30,株式会社Ｃｈｅｒｃｈｅ　ｌａ　ｂｅａｕｔｅ,,株式会社,長野県,北佐久郡軽井沢町,大字長倉２１９９番地３６,,20,321,3890111,,,,,,,2023-11-30,1,,,,,シェルシェラボーテ,0
1336,6110001037999,新規,0,2023-11-30,2023-11-30,株式会社土沼空設,,株式会社,新潟県,新潟市中央区,大島８８番地１,,15,103,9500953,,,,,,,2023-11-30,1,,,,,ドヌマクウセツ,0
1352,6120001260237,新規,0,2023-11-30,2023-11-30,株式会社ＥＬＨＯＰＥ,,株式会社,大阪府,寝屋川市,高倉２丁目６番３２号,,27,215,5720864,,,,,,,2023-11-30,1,,,,,エルホープ,0
1376,6140003019869,新規,0,2023-11-30,2023-11-30,合同会社Ｕｎｂｏｏｌ,,合同会社,兵庫県,姫路市,砥堀２４９－１－５０６,,28,201,6700802,,,,,,,2023-11-30,1,,,,,アンブール,0
1377,6140005026814,新規,0,2023-11-30,2023-11-30,一般社団法人丸弥会,,その他の設立登記法人,兵庫県,尼崎市,神田北通１丁目２番地,,28,202,6600883,,,,,,,2023-11-30,1,,,,,マルミカイ,0
1388,6180001159110,新規,0,2023-11-30,2023-11-30,株式会社ジャイアンコーポレーション,,株式会社,愛知県,一宮市,印田通２丁目１３番地３ＲＳプラスイレブンＡ,,23,203,4910865,,,,,,,2023-11-30,1,,,,,ジャイアンコーポレーション,0
1389,6180001159127,新規,0,2023-11-30,2023-11-30,株式会社英橋,,株式会社,愛知県,名古屋市東区,泉１丁目４番６号,,23,102,4610001,,,,,,,2023-11-30,1,,,,,エイキョウ,0
1390,6180001159135,新規,0,2023-11-30,2023-11-30,株式会社明建総業,,株式会社,愛知県,名古屋市中川区,かの里１丁目７０１ライオンズガーデン戸田１００２,,23,110,4540957,,,,,,,2023-11-30,1,,,,,ミョウケンソウギョウ,0
1391,6180003026052,新規,0,2023-11-30,2023-11-30,合同会社リアン,,合同会社,愛知県,春日井市,南花長町８番地１,,23,206,4860954,,,,,,,2023-11-30,1,,,,,リアン,0
1392,6180003026060,新規,0,2023-11-30,2023-11-30,合同会社ＮＮＫ１号,,合同会社,愛知県,名古屋市中区,栄１丁目２３番２９号伏見ポイントビル３０４号室,,23,106,4600008,,,,,,,2023-11-30,1,,,,,エヌエヌケーイチゴウ,0
1396,6190001030914,新規,0,2023-11-30,2023-11-30,株式会社Ｈｅｒｅｄａｙｓ,,株式会社,三重県,いなべ市,大安町石榑東２３７６番地,,24,214,5110264,,,,,,,2023-11-30,1,,,,,ヒアデイズ,0
1400,6200001041934,新規,0,2023-11-30,2023-11-30,株式会社七菠,,株式会社,岐阜県,大垣市,青木町２０１６番地,,21,202,5032202,,,,,,,2023-11-30,1,,,,,ナナハ,0
1407,6220001025712,新規,0,2023-11-30,2023-11-30,アトム・ワン株式会社,,株式会社,石川県,小松市,岩渕町ロ１８９番地,,17,203,9230073,,,,,,,2023-11-30,1,,,,,アトムワン,0
1412,6260003004504,新規,0,2023-11-30,2023-11-30,合同会社ＴＫＣ,,合同会社,岡山県,倉敷市,中庄３５９７番地１ポレスター中庄リーモ７０３,,33,202,7100016,,,,,,,2023-11-30,1,,,,,ティーケーシー,0
1417,6290001103800,新規,0,2023-11-30,2023-11-30,株式会社スタジオ,,株式会社,福岡県,福岡市早良区,西新２丁目１８番２６号,,40,137,8140002,,,,,,,2023-11-30,1,,,,,スタジオ,0
1418,6290001103866,新規,0,2023-11-30,2023-11-30,ヤマサキエンジニアリング株式会社,,株式会社,福岡県,糟屋郡粕屋町,大字大隈４２番地５,,40,349,8112302,,,,,,,2023-11-30,1,,,,,ヤマサキエンジニアリング,0
1419,6290001103890,新規,0,2023-11-30,2023-11-30,株式会社Ｎ．,,株式会社,福岡県,福岡市博多区,博多駅前２丁目１９番１７号トーカン博多第５ビル３１２号室,,40,132,8120011,,,,,,,2023-11-30,1,,,,,エヌ,0
1421,6290003014657,新規,0,2023-11-30,2023-11-30,合同会社フォーバッグ,,合同会社,福岡県,大野城市,中央１丁目６番２１－４１０号,,40,219,8160942,,,,,,,2023-11-30,1,,,,,フォーバッグ,0
1422,6290003014665,新規,0,2023-11-30,2023-11-30,合同会社カトレア,,合同会社,福岡県,福岡市博多区,吉塚６丁目５番２９－１００２号ラフレシーサ博多東,,40,132,8120041,,,,,,,2023-11-30,1,,,,,カトレア,0
1423,6290005019209,新規,0,2023-11-30,2023-11-30,弁護士法人神田法律事務所,,その他の設立登記法人,福岡県,福岡市中央区,六本松２丁目１２番１９号ＢＣＣビル４階,,40,133,8100044,,,,,,,2023-11-30,1,,,,,カンダホウリツジムショ,0
1427,6330003010107,新規,0,2023-11-30,2023-11-30,合同会社Ｕｎｉ,,合同会社,熊本県,熊本市北区,清水新地５丁目１番２８号,,43,105,8618075,,,,,,,2023-11-30,1,,,,,ウニ,0
1428,6350003004503,新規,0,2023-11-30,2023-11-30,合同会社ＡＢＸ,,合同会社,宮崎県,宮崎市,恒久３丁目２０－６－２０２,,45,201,8800913,,,,,,,2023-11-30,1,,,,,エービーエックス,0
1432,6370001050679,新規,0,2023-11-30,2023-11-30,株式会社ミライレベル,,株式会社,宮城県,名取市,愛島北目字竹の内９１番地の１,,04,207,9811237,,,,,,,2023-11-30,1,,,,,ミライレベル,0
1435,6380001034160,新規,0,2023-11-30,2023-11-30,株式会社福建ホールディング,,株式会社,福島県,南相馬市,原町区日の出町５２８番地,,07,212,9750038,,,,,,,2023-11-30,1,,,,,フクケンホールディング,0
1440,6430001090529,新規,0,2023-11-30,2023-11-30,７８ＢＡＳＥ株式会社,,株式会社,北海道,札幌市東区,丘珠町３９１－１,,01,103,0070880,,,,,,,2023-11-30,1,,,,,ナナハチベース,0
1441,6430001090537,新規,0,2023-11-30,2023-11-30,株式会社片瀬技研,,株式会社,北海道,札幌市東区,北十六条東４丁目２番１－１０３号,,01,103,0650016,,,,,,,2023-11-30,1,,,,,カタセギケン,0
1447,6480001012305,新規,0,2023-11-30,2023-11-30,株式会社マツモト工業,,株式会社,徳島県,徳島市,八万町法花１２９番地９,,36,201,7708083,,,,,,,2023-11-30,1,,,,,マツモトコウギョウ,0
1450,6700150122468,新規,0,2023-11-30,2023-11-30,ＫｙｇｏＬｉｍｉｔｅｄ,,外国会社等,,,,,,,,Ｓｕｉｔｅ１００５，１０／Ｆ，Ｔａｉ　Ｙｉｐ　Ｂｕｉｌｄｉｎｇ，１４１　Ｔｈｏｍｓｏｎ　Ｒｏａｄ，Ｗａｎ　Ｃｈａｉ，Ｈｏｎｇ　Ｋｏｎｇ,,,,,,2023-11-30,1,,,,,キゴウリミテツド,0
1458,7010001240397,新規,0,2023-11-30,2023-11-30,株式会社ＣＲＯＷ‐ＶＥＲＳＥ,,株式会社,東京都,千代田区,神田佐久間河岸７１号地１パティオ秋葉原２０１,,13,101,1010026,,,,,,,2023-11-30,1,,,,,クラウバース,0
1459,7010001240422,新規,0,2023-11-30,2023-11-30,ゼロポイント株式会社,,株式会社,東京都,中央区,銀座１丁目１２番４号Ｎ＆ＥＢＬＤ．６Ｆ,,13,102,1040061,,,,,,,2023-11-30,1,,,,,ゼロポイント,0
1460,7010001240447,新規,0,2023-11-30,2023-11-30,株式会社ＰｒｏＡｃｔｉｖｅ,,株式会社,東京都,中央区,銀座１丁目２２番１１号銀座大竹ビジデンス２Ｆ,,13,102,1040061,,,,,,,2023-11-30,1,,,,,プロアクティブ,0
1471,7010401178808,新規,0,2023-11-30,2023-11-30,Ｔｏｋｙｏ　Ｇｒａｎｄ　Ｐｒｉｘ株式会社,,株式会社,東京都,港区,白金台２丁目２６番９－２０２号,,13,103,1080071,,,,,,,2023-11-30,1,,,,,トウキョウグランドプリックス,0
1472,7010401178840,新規,0,2023-11-30,2023-11-30,株式会社ショービズ,,株式会社,東京都,港区,赤坂５丁目５－７リヴシティ赤坂３０２,,13,103,1070052,,,,,,,2023-11-30,1,,,,,ショービズ,0
1474,7010403031469,新規,0,2023-11-30,2023-11-30,合同会社Ｈｏｋｕｌｅａ,,合同会社,東京都,港区,北青山１丁目３番１号アールキューブ青山３階,,13,103,1070061,,,,,,,2023-11-30,1,,,,,ホクレア,0
1479,7010603010495,新規,0,2023-11-30,2023-11-30,ＤＯＵＥＮ合同会社,,合同会社,東京都,江東区,東雲１丁目９番４－４３０３号,,13,108,1350062,,,,,,,2023-11-30,1,,,,,ドウエン,0
1480,7010605004264,新規,0,2023-11-30,2023-11-30,一般社団法人ＴＳＵＢＵＲＥＮ　ｂｅａｕｔｙ　Ａｓｓｏｃｉａｔｉｏｎ,,その他の設立登記法人,東京都,墨田区,東向島３丁目３７番７－７０８号,,13,107,1310032,,,,,,,2023-11-30,1,,,,,ツブレンビューティーアソシエーション,0
1482,7010801034560,新規,0,2023-11-30,2023-11-30,ＹＵＲＩ株式会社,,株式会社,東京都,大田区,下丸子１丁目１４番６号,,13,111,1460092,,,,,,,2023-11-30,1,,,,,ユウリ,0
1496,7011001158530,新規,0,2023-11-30,2023-11-30,株式会社ＣａＬａｍｏｓ,,株式会社,東京都,渋谷区,恵比寿１丁目１５－９日宝恵比寿ビル４０３,,13,113,1500013,,,,,,,2023-11-30,1,,,,,カラモス,0
1498,7011003018022,新規,0,2023-11-30,2023-11-30,ＳＥＶＥＮＴＨ合同会社,,合同会社,東京都,目黒区,中目黒３丁目７番７－１０２号,,13,110,1530061,,,,,,,2023-11-30,1,,,,,セブンス,0
1506,7011203004243,新規,0,2023-11-30,2023-11-30,合同会社アポロアーツ,,合同会社,東京都,中野区,白鷺２丁目４８番６号,,13,114,1650035,,,,,,,2023-11-30,1,,,,,アポロアーツ,0
1509,7011301029217,新規,0,2023-11-30,2023-11-30,エフスリー株式会社,,株式会社,東京都,杉並区,天沼３丁目３９番１４号,,13,115,1670032,,,,,,,2023-11-30,1,,,,,エフスリー,0
1511,7011501029999,新規,0,2023-11-30,2023-11-30,東進コーポレーション株式会社,,株式会社,東京都,北区,豊島５丁目５－８－５１９,,13,117,1140003,,,,,,,2023-11-30,1,,,,,トーシンコーポレーション,0
1513,7011701026813,新規,0,2023-11-30,2023-11-30,環境物流３５７株式会社,,株式会社,東京都,江戸川区,宇喜田町１５０１番地３関第一ビル２階,,13,123,1340082,,,,,,,2023-11-30,1,,,,,カンキョウブツリュウサンゴウナナ,0
1516,7011801043428,新規,0,2023-11-30,2023-11-30,キャップシス株式会社,,株式会社,東京都,足立区,扇２丁目６番地２２号メゾンド・ボナー扇４０５,,13,121,1230873,,,,,,,2023-11-30,1,,,,,キャップシス,0
1519,7012401041276,新規,0,2023-11-30,2023-11-30,株式会社スリーエスオフィス,,株式会社,東京都,府中市,新町１丁目２５番地の６,,13,206,1830052,,,,,,,2023-11-30,1,,,,,スリーエスオフィス,0
1525,7013301051695,新規,0,2023-11-30,2023-11-30,オルトワーク株式会社,,株式会社,東京都,豊島区,東池袋４丁目３２番１５号ボヌール東池袋４０４,,13,116,1700013,,,,,,,2023-11-30,1,,,,,オルトワーク,0
1541,7020005016198,新規,0,2023-11-30,2023-11-30,一般社団法人ＳＯＮＯＢＡ,,その他の設立登記法人,神奈川県,横浜市都筑区,南山田町４１８１番地６,,14,118,2240026,,,,,,,2023-11-30,1,,,,,ソノバ,0
1545,7021003013848,新規,0,2023-11-30,2023-11-30,ＺＥＮＩＴＨ　ＥＮＴＥＲＰＲＩＳＥＳ合同会社,,合同会社,神奈川県,厚木市,山際５２番地１－２０５号室,,14,212,2430803,,,,,,,2023-11-30,1,,,,,ゼニスエンタープライセス,0
1552,7030001157292,新規,0,2023-11-30,2023-11-30,メルト・レジデンシャル株式会社,,株式会社,埼玉県,川口市,幸町３丁目１０番１８号マリオン川口第一５０２号,,11,203,3320016,,,,,,,2023-11-30,1,,,,,メルトレジデンシャル,0
1569,7040001131049,新規,0,2023-11-30,2023-11-30,株式会社ウォーターフィールド,,株式会社,千葉県,大網白里市,柳橋１０７５番地１５,,12,239,2993263,,,,,,,2023-11-30,1,,,,,ウォーターフィールド,0
1570,7040001131131,新規,0,2023-11-30,2023-11-30,株式会社匠装業,,株式会社,千葉県,安房郡鋸南町,吉浜５２６番地１０,,12,463,2991908,,,,,,,2023-11-30,1,,,,,タクミソウギョウ,0
1574,7040003023806,新規,0,2023-11-30,2023-11-30,命覇誉雅合同会社,,合同会社,千葉県,成田市,成井４２１番地１２７,,12,211,2890114,,,,,,,2023-11-30,1,,,,,ミハキオ,0
1575,7040003023830,新規,0,2023-11-30,2023-11-30,合同会社ＰＳ,,合同会社,千葉県,千葉市若葉区,加曽利町１８００番地１８０ハイツ塙１０２,,12,104,2640017,,,,,,,2023-11-30,1,,,,,ピーエス,0
1584,7060001036592,新規,0,2023-11-30,2023-11-30,株式会社Ｃｏｒｅ,,株式会社,栃木県,宇都宮市,山本１丁目１４番１６号,,09,201,3200012,,,,,,,2023-11-30,1,,,,,コア,0
1608,7120001260236,新規,0,2023-11-30,2023-11-30,恵沢株式会社,,株式会社,大阪府,大阪市北区,天満２丁目１－１２天満橋ＳＥビル４Ｆ,,27,127,5300043,,,,,,,2023-11-30,1,,,,,ケイタク,0
1609,7120001260252,新規,0,2023-11-30,2023-11-30,キャラバンワールド株式会社,,株式会社,大阪府,大阪市北区,南森町２丁目１番２０号,,27,127,5300054,,,,,,,2023-11-30,1,,,,,キャラバンワールド,0
1616,7120101068612,新規,0,2023-11-30,2023-11-30,イーピーシージャパン株式会社,,株式会社,大阪府,松原市,三宅東３丁目２番２６号,,27,217,5800041,,,,,,,2023-11-30,1,,,,,イーピーシージャパン,0
1617,7120103005555,新規,0,2023-11-30,2023-11-30,１３６８合同会社,,合同会社,大阪府,堺市西区,浜寺石津町中１丁９番３３号,,27,144,5928334,,,,,,,2023-11-30,1,,,,,イサロハ,0
1620,7120901048433,新規,0,2023-11-30,2023-11-30,株式会社ＫＥＩＳＨＩＮ,,株式会社,大阪府,豊中市,小曽根２丁目１０番３３号,,27,203,5610813,,,,,,,2023-11-30,1,,,,,ケイシン,0
1621,7120905006536,新規,0,2023-11-30,2023-11-30,一般財団法人つなぐ未来へ,,その他の設立登記法人,大阪府,箕面市,萱野１丁目８番２０号,,27,220,5620014,,,,,,,2023-11-30,1,,,,,ツナグミライヘ,0
1622,7122001037614,新規,0,2023-11-30,2023-11-30,Ｒｅ‐ＢＯＯＴ株式会社,,株式会社,大阪府,八尾市,沼４丁目６４番地１,,27,212,5810036,,,,,,,2023-11-30,1,,,,,リブート,0
1631,7140001132490,新規,0,2023-11-30,2023-11-30,セムココンサルティング株式会社,,株式会社,兵庫県,神戸市西区,高塚台５丁目４番地の２３,,28,111,6512271,,,,,,,2023-11-30,1,,,,,セムココンサルティング,0
1632,7140001132499,新規,0,2023-11-30,2023-11-30,株式会社結珠庵,,株式会社,兵庫県,相生市,那波本町１０番１９号,,28,208,6780055,,,,,,,2023-11-30,1,,,,,ユズアン,0
1633,7140001132516,新規,0,2023-11-30,2023-11-30,株式会社Ｎｅｘｔ　Ｌｅａｐ,,株式会社,兵庫県,芦屋市,岩園町４番１７－２号,,28,206,6590013,,,,,,,2023-11-30,1,,,,,ネクストリープ,0
1657,7180003026043,新規,0,2023-11-30,2023-11-30,山村工業合同会社,,合同会社,愛知県,江南市,古知野町広見１４０番地,,23,217,4838274,,,,,,,2023-11-30,1,,,,,ヤマムラコウギョウ,0
1660,7180301038054,新規,0,2023-11-30,2023-11-30,株式会社サティリシャス,,株式会社,愛知県,刈谷市,中手町１丁目４１１番地３,,23,210,4480049,,,,,,,2023-11-30,1,,,,,サティリシャス,0
1662,7190001030913,新規,0,2023-11-30,2023-11-30,豊源商貿株式会社,,株式会社,三重県,松阪市,久保町４９２番地１カーサ・オリージャＢ棟１０１,,24,204,5150044,,,,,,,2023-11-30,1,,,,,ホウゲンショウボウ,0
1666,7200001041933,新規,0,2023-11-30,2023-11-30,株式会社ＮＩＰＰＯＮ　ＭＯＴＯＲＳ,,株式会社,岐阜県,瑞穂市,野白新田３０１番地１,,21,216,5010231,,,,,,,2023-11-30,1,,,,,ニッポンモータース,0
1683,7290001103840,新規,0,2023-11-30,2023-11-30,農業生産法人株式会社８０ｆａｒｍ,,株式会社,福岡県,うきは市,浮羽町山北１６４５番地３,,40,225,8391408,,,,,,,2023-11-30,1,,,,,エイティファーム,0
1684,7290001103849,新規,0,2023-11-30,2023-11-30,株式会社寛舎,,株式会社,福岡県,福岡市早良区,高取２丁目１７番４６－３０２号シャンピア藤崎,,40,137,8140011,,,,,,,2023-11-30,1,,,,,カンシャ,0
1685,7290001103873,新規,0,2023-11-30,2023-11-30,株式会社桜美園,,株式会社,福岡県,福岡市博多区,竹丘町１丁目４番１１－２０１号桜美館,,40,132,8120878,,,,,,,2023-11-30,1,,,,,オウビエン,0
1686,7290001103881,新規,0,2023-11-30,2023-11-30,株式会社ＮＫＳ　ＬＡＢ,,株式会社,福岡県,福岡市博多区,中洲１丁目８番１１号ＰＡＲＡＣＩＴＹビル一階Ｈ,,40,132,8100801,,,,,,,2023-11-30,1,,,,,エヌケイエスラボ,0
1688,7290003014664,新規,0,2023-11-30,2023-11-30,合同会社Ｓ‐Ｔｅｃｈ,,合同会社,福岡県,福津市,若木台５丁目９番地の８,,40,224,8113221,,,,,,,2023-11-30,1,,,,,エステック,0
1696,7320003004240,新規,0,2023-11-30,2023-11-30,合同会社赤蜻蛉,,合同会社,大分県,大分市,大字市５０１番地の３,,44,201,8701151,,,,,,,2023-11-30,1,,,,,アカトンボ,0
1699,7350003004502,新規,0,2023-11-30,2023-11-30,合同会社アトモスクリエイト,,合同会社,宮崎県,宮崎市,恒久３丁目２０－６－２０２,,45,201,8800913,,,,,,,2023-11-30,1,,,,,アトモスクリエイト,0
1700,7350003004510,新規,0,2023-11-30,2023-11-30,合同会社ブレインライト,,合同会社,宮崎県,宮崎市,恒久６丁目２－２,,45,201,8800913,,,,,,,2023-11-30,1,,,,,ブレインライト,0
1702,7360003013510,新規,0,2023-11-30,2023-11-30,合同会社ＦＫＣ,,合同会社,沖縄県,中頭郡北谷町,字吉原８４番地３,,47,326,9040105,,,,,,,2023-11-30,1,,,,,エフケーシー,0
1706,7370003006406,新規,0,2023-11-30,2023-11-30,合同会社ぶどうばたけ,,合同会社,宮城県,仙台市宮城野区,田子２丁目１９番２０号,,04,102,9830021,,,,,,,2023-11-30,1,,,,,ブドウバタケ,0
1714,7390001017428,新規,0,2023-11-30,2023-11-30,株式会社豊家,,株式会社,山形県,米沢市,大町３丁目５番４３号,,06,202,9920031,,,,,,,2023-11-30,1,,,,,ユタカ,0
1718,7420001018496,新規,0,2023-11-30,2023-11-30,株式会社ＬａｓｔＳｔａｎｄ,,株式会社,青森県,八戸市,大字市川町字尻引前山３１番地１８４１サンリットサイジロウＩＩＩ２０４号,00132830,02,203,0392241,,,,,,,2023-11-30,1,,,,,ラストスタンド,0
1725,7700150121394,新規,0,2023-11-30,2023-10-25,レクシオ綱島ＩＩ管理組合,00131991,その他,神奈川県,横浜市港北区,樽町２丁目３－２２,,14,109,2220001,,,,,,,2023-10-25,1,,,,,レクシオツナシマツーカンリクミアイ,0
1731,8010001240421,新規,0,2023-11-30,2023-11-30,株式会社昇ケン不動産,,株式会社,東京都,中央区,銀座７丁目１３番６号サガミビル２階,,13,102,1040061,,,,,,,2023-11-30,1,,,,,ショウケンフドウサン,0
1732,8010001240454,新規,0,2023-11-30,2023-11-30,ムーンウォーク株式会社,,株式会社,東京都,中央区,銀座１丁目１２－４Ｎ＆ＥＢＬＤ．７階,,13,102,1040061,,,,,,,2023-11-30,1,,,,,ムーンウォーク,0
1733,8010001240462,新規,0,2023-11-30,2023-11-30,星野商事株式会社,,株式会社,東京都,文京区,小石川５丁目１番１－３０２号,,13,105,1120002,,,,,,,2023-11-30,1,,,,,ホシノショウジ,0
1736,8010003042320,新規,0,2023-11-30,2023-11-30,合同会社久遠システム,,合同会社,東京都,千代田区,神田和泉町１番地６－１６ヤマトビル４０５,,13,101,1010024,,,,,,,2023-11-30,1,,,,,クオンシステム,0
1739,8010005037574,新規,0,2023-11-30,2023-11-30,一般社団法人ＥＣＣＪａｐａｎ,,その他の設立登記法人,東京都,千代田区,神田駿河台２丁目１,,13,101,1010062,,,,,,,2023-11-30,1,,,,,イーシーシージャパン,0
1741,8010105002239,新規,0,2023-11-30,2023-11-30,一般社団法人八王子建設発生土適正処理協会,,その他の設立登記法人,東京都,八王子市,下恩方町７２５番地１,,13,201,1920154,,,,,,,2023-11-30,1,,,,,ハチオウジケンセツハッセイドテキセイショリキョウカイ,0
1746,8010401178773,新規,0,2023-11-30,2023-11-30,愛信尚株式会社,,株式会社,東京都,港区,西麻布４丁目１４番２２号ザ・ロイヤルハウス西麻布,,13,103,1060031,,,,,,,2023-11-30,1,,,,,アイシンショウ,0
1747,8010401178798,新規,0,2023-11-30,2023-11-30,株式会社メゾン・デュ・ウィーケンド,,株式会社,東京都,港区,南青山３丁目１番３６号青山丸竹ビル６Ｆ,,13,103,1070062,,,,,,,2023-11-30,1,,,,,メゾンデュウィーケンド,0
1748,8010401178807,新規,0,2023-11-30,2023-11-30,株式会社ステラユナイト,,株式会社,東京都,港区,北青山１丁目３番１号アールキューブ青山３階,,13,103,1070061,,,,,,,2023-11-30,1,,,,,ステラユナイト,0
1752,8010405022721,新規,0,2023-11-30,2023-11-30,一般社団法人日越医療交流協会,,その他の設立登記法人,東京都,港区,南青山１丁目２－６ラティス青山８Ｆヘレネ内,,13,103,1070062,,,,,,,2023-11-30,1,,,,,ニチエツイリョウコウリュウキョウカイ,0
1753,8010405022738,新規,0,2023-11-30,2023-11-30,一般社団法人全日本ヤンキー青少年保護協会,,その他の設立登記法人,東京都,港区,虎ノ門３丁目２２番１０号,,13,103,1050001,,,,,,,2023-11-30,1,,,,,ゼンニホンヤンキーセイショウネンホゴキョウカイ,0
1758,8010601064237,新規,0,2023-11-30,2023-11-30,株式会社ＴＲＹＴＲＡＤＥ,,株式会社,東京都,墨田区,墨田２丁目２９－１１,,13,107,1310031,,,,,,,2023-11-30,1,,,,,トライトレード,0
1761,8010603010494,新規,0,2023-11-30,2023-11-30,同真合同会社,,合同会社,東京都,江東区,北砂３丁目２８－１不動コーポ２０７号,,13,108,1360073,,,,,,,2023-11-30,1,,,,,トウシン,0
1762,8010703006970,新規,0,2023-11-30,2023-11-30,合同会社ｉｒｏｄｏｒｉ,,合同会社,東京都,品川区,西五反田２丁目９番７号,,13,109,1410031,,,,,,,2023-11-30,1,,,,,イロドリ,0
1765,8010903008619,新規,0,2023-11-30,2023-11-30,ＥＦＨターゲット合同会社,,合同会社,東京都,世田谷区,上用賀３丁目１番１０号,,13,112,1580098,,,,,,,2023-11-30,1,,,,,イーエフエイチターゲット,0
1773,8011003017881,新規,0,2023-11-30,2023-11-30,合同会社リコレ,,合同会社,東京都,渋谷区,道玄坂１丁目１０番８号渋谷道玄坂東急ビル２Ｆ－Ｃ,,13,113,1500043,,,,,,,2023-11-30,1,,,,,リコレ,0
1774,8011003018013,新規,0,2023-11-30,2023-11-30,合同会社Ｃｉｔｒｕｓ,,合同会社,東京都,目黒区,上目黒３丁目１０番７－１０４号,,13,110,1530051,,,,,,,2023-11-30,1,,,,,シトラス,0
1777,8011101105290,新規,0,2023-11-30,2023-11-30,ＢＡ‐ｐｌｕｓ株式会社,,株式会社,東京都,新宿区,新宿１丁目１番１１号,,13,104,1600022,,,,,,,2023-11-30,1,,,,,ビーエープラス,0
1780,8011403004182,新規,0,2023-11-30,2023-11-30,合同会社ＣｒｅａｔｉｖｅＦＤ,,合同会社,東京都,板橋区,板橋１丁目５３番１２－１４０１号板橋ビュータワー,,13,119,1730004,,,,,,,2023-11-30,1,,,,,クリエイティブエフディー,0
1784,8011603004148,新規,0,2023-11-30,2023-11-30,ｃａｔｌｙｓｔ合同会社,,合同会社,東京都,練馬区,氷川台４丁目４５番２０号１Ｆ,,13,120,1790084,,,,,,,2023-11-30,1,,,,,カタリスト,0
1786,8011801043427,新規,0,2023-11-30,2023-11-30,株式会社ＩＴＳ,,株式会社,東京都,葛飾区,鎌倉２丁目４－１８,,13,122,1250053,,,,,,,2023-11-30,1,,,,,アイティーエス,0
1803,8013301051694,新規,0,2023-11-30,2023-11-30,株式会社ＫＯＫＵＢＯ,,株式会社,東京都,豊島区,南長崎３丁目１３番１号,,13,116,1710052,,,,,,,2023-11-30,1,,,,,コクボ,0
1804,8013301051703,新規,0,2023-11-30,2023-11-30,株式会社プロパティワークス,,株式会社,東京都,豊島区,池袋３丁目３６番８号,,13,116,1710014,,,,,,,2023-11-30,1,,,,,プロパティワークス,0
1816,8021001080856,新規,0,2023-11-30,2023-11-30,株式会社ｉｔｕｍｏ,,株式会社,神奈川県,藤沢市,菖蒲沢９９番地の３,,14,205,2520823,,,,,,,2023-11-30,1,,,,,イツモ,0
1818,8021003013855,新規,0,2023-11-30,2023-11-30,合同会社ＣＡＲＲＥＲＡ,,合同会社,神奈川県,大和市,中央林間８丁目３番１－１０７号,,14,213,2420007,,,,,,,2023-11-30,1,,,,,カレラ,0
1824,8030001157366,新規,0,2023-11-30,2023-11-30,株式会社スペースプラウド,,株式会社,埼玉県,川口市,西川口１丁目５番２０号４階,,11,203,3320021,,,,,,,2023-11-30,1,,,,,スペースプラウド,0
1827,8030003023087,新規,0,2023-11-30,2023-11-30,合同会社ラン,,合同会社,埼玉県,さいたま市大宮区,桜木町２丁目３大宮マルイ７階,,11,103,3300854,,,,,,,2023-11-30,1,,,,,ラン,0
1838,8050001053885,新規,0,2023-11-30,2023-11-30,株式会社常陽プラス,,株式会社,茨城県,坂東市,小山２０９７番地１,,08,228,3060626,,,,,,,2023-11-30,1,,,,,ジョウヨウプラス,0
1839,8050001053893,新規,0,2023-11-30,2023-11-30,株式会社ＦＥＬＩＣＥ,,株式会社,茨城県,取手市,戸頭２４２５番地４,,08,217,3020034,,,,,,,2023-11-30,1,,,,,フェリーチェ,0
1841,8050003007971,新規,0,2023-11-30,2023-11-30,合同会社エマーブル,,合同会社,茨城県,龍ケ崎市,松葉１丁目１８番地３,,08,208,3010043,,,,,,,2023-11-30,1,,,,,エマーブル,0
1848,8080001025997,新規,0,2023-11-30,2023-11-30,株式会社高橋,00132828,株式会社,静岡県,静岡市葵区,北沼上１３１６番地,,22,101,4200901,,,,,,,2023-11-30,1,,,,,タカハシ,0
1849,8080101024370,新規,0,2023-11-30,2023-11-30,株式会社シーエフ・アイ,,株式会社,静岡県,富士市,松本２５２番地の１７,,22,210,4160903,,,,,,,2023-11-30,1,,,,,シーエフアイ,0
1851,8080401026868,新規,0,2023-11-30,2023-11-30,株式会社浜松測建,,株式会社,静岡県,浜松市西区,馬郡町４２４５番地,,22,133,4310203,,,,,,,2023-11-30,1,,,,,ハママツソッケン,0
1853,8090001018439,新規,0,2023-11-30,2023-11-30,株式会社ａｍｅｎｏｗａ,,株式会社,山梨県,北杜市,大泉町西井出８２４０番地８３０９,,19,209,4091501,,,,,,,2023-11-30,1,,,,,アメノワ,0
1867,8120001260061,新規,0,2023-11-30,2023-11-30,日本溥立株式会社,,株式会社,大阪府,大阪市港区,市岡元町３丁目１３番５－４０８号,,27,107,5520002,,,,,,,2023-11-30,1,,,,,ニホンフリツ,0
1868,8120001260251,新規,0,2023-11-30,2023-11-30,福源株式会社,,株式会社,大阪府,大阪市西成区,千本南１丁目１２番１８号,,27,122,5570055,,,,,,,2023-11-30,1,,,,,フゲン,0
1869,8120001260268,新規,0,2023-11-30,2023-11-30,株式会社ゼロベー,,株式会社,大阪府,大阪市西淀川区,佃４丁目７番２２号,,27,113,5550001,,,,,,,2023-11-30,1,,,,,ゼロベー,0
1870,8120001260301,新規,0,2023-11-30,2023-11-30,株式会社サモエド,,株式会社,大阪府,大阪市中央区,西心斎橋１丁目８－１１、４Ｆ,,27,128,5420086,,,,,,,2023-11-30,1,,,,,サモエド,0
1875,8120005024017,新規,0,2023-11-30,2023-11-30,一般社団法人スパルタサッカー連盟,,その他の設立登記法人,大阪府,大阪市天王寺区,生玉前町５番２８号アンビション三和３０３号,,27,109,5430072,,,,,,,2023-11-30,1,,,,,スパルタサッカーレンメイ,0
1879,8120101068594,新規,0,2023-11-30,2023-11-30,Ｂｒａｈｍａｎ株式会社,,株式会社,大阪府,河内長野市,清見台４丁目１３番９号,,27,216,5860043,,,,,,,2023-11-30,1,,,,,ブラフマン,0
1880,8120101068611,新規,0,2023-11-30,2023-11-30,株式会社タケノテル,,株式会社,大阪府,泉佐野市,南泉ケ丘２丁目６番３１号,,27,213,5980073,,,,,,,2023-11-30,1,,,,,タケノテル,0
1884,8122001037613,新規,0,2023-11-30,2023-11-30,イサロビューティー株式会社,,株式会社,大阪府,八尾市,南亀井町１丁目３番４１号,,27,212,5810054,,,,,,,2023-11-30,1,,,,,イサロビューティー,0
1891,8130003009159,新規,0,2023-11-30,2023-11-30,合同会社ＴＮメディカルリンク,,合同会社,京都府,京都市中京区,堺町通二条上る亀屋町１６６番地１リソシエアージュ御所南２０２号,,26,104,6040811,,,,,,,2023-11-30,1,,,,,ティーエヌメディカルリンク,0
1903,8140003019867,新規,0,2023-11-30,2023-11-30,合同会社丹波ふるさと村,,合同会社,兵庫県,丹波篠山市,西八上３１４番地１,,28,221,6692433,,,,,,,2023-11-30,1,,,,,タンバフルサトムラ,0
1909,8180001159083,新規,0,2023-11-30,2023-11-30,株式会社ＦＮホールディングス,,株式会社,愛知県,知多郡東浦町,大字緒川字南石根１１番地４,,23,442,4702102,,,,,,,2023-11-30,1,,,,,エフエヌホールディングス,0
1910,8180001159100,新規,0,2023-11-30,2023-11-30,株式会社ｃｏ‐ｃｒｅａｔｏｒ,,株式会社,愛知県,名古屋市東区,東桜２丁目２０番９号天陽第一ビル３階南,,23,102,4610005,,,,,,,2023-11-30,1,,,,,コークリエイター,0
1911,8180001159109,新規,0,2023-11-30,2023-11-30,株式会社ＶＡＬＩＡＮＴ,,株式会社,愛知県,一宮市,印田通２丁目１３番地３ＲＳプラスイレブンＡ,,23,203,4910865,,,,,,,2023-11-30,1,,,,,バリアント,0
1914,8180303005919,新規,0,2023-11-30,2023-11-30,合同会社蓮華,,合同会社,愛知県,岡崎市,上地１丁目２９番地８,,23,202,4440823,,,,,,,2023-11-30,1,,,,,レンゲ,0
1917,8190001030920,新規,0,2023-11-30,2023-11-30,株式会社アイ不動産管理,,株式会社,三重県,鈴鹿市,林崎町１０５３番地の２,,24,207,5130059,,,,,,,2023-11-30,1,,,,,アイフドウサンカンリ,0
1918,8190003004518,新規,0,2023-11-30,2023-11-30,合同会社ＹＵＺＵ,,合同会社,三重県,松阪市,岡本町６７５番地３,,24,204,5150831,,,,,,,2023-11-30,1,,,,,ユズ,0
1920,8200001041932,新規,0,2023-11-30,2023-11-30,株式会社花のことば,,株式会社,岐阜県,可児市,川合３７８番地７,,21,214,5090201,,,,,,,2023-11-30,1,,,,,ハナノコトバ,0
1927,8240001062470,新規,0,2023-11-30,2023-11-30,明工産業株式会社,,株式会社,広島県,福山市,西新涯町２丁目１６－５０,,34,207,7210958,,,,,,,2023-11-30,1,,,,,メイコウサンギョウ,0
1936,8290001103864,新規,0,2023-11-30,2023-11-30,株式会社世利住設,,株式会社,福岡県,福岡市城南区,樋井川４丁目３１番３１号,,40,136,8140153,,,,,,,2023-11-30,1,,,,,セリジュウセツ,0
1937,8290001103872,新規,0,2023-11-30,2023-11-30,株式会社ＳＡＧＲＩ　ＩＮＴＥＲＮＡＴＩＯＮＡＬ,,株式会社,福岡県,朝倉市,柿原６２０番地１,,40,228,8380026,,,,,,,2023-11-30,1,,,,,サグリインターナショナル,0
1938,8290001103889,新規,0,2023-11-30,2023-11-30,株式会社Ｃｌｏｖｅｒ,,株式会社,福岡県,福岡市東区,香椎照葉３丁目２－７－３００１,,40,131,8130017,,,,,,,2023-11-30,1,,,,,クローバー,0
1939,8290003014663,新規,0,2023-11-30,2023-11-30,合同会社末男,,合同会社,福岡県,福岡市中央区,天神１丁目９番１７号福岡天神フコク生命ビル１５階,,40,133,8100001,,,,,,,2023-11-30,1,,,,,スエオ,0
1940,8290801030085,新規,0,2023-11-30,2023-11-30,株式会社フレイス,,株式会社,福岡県,北九州市八幡西区,瀬板１丁目２番１７号,,40,109,8070822,,,,,,,2023-11-30,1,,,,,フレイス,0
1943,8290805009687,新規,0,2023-11-30,2023-11-30,一般社団法人悠笑庵,,その他の設立登記法人,福岡県,北九州市小倉南区,湯川４丁目２１番２－７０３号,,40,107,8000257,,,,,,,2023-11-30,1,,,,,ユウショウアン,0
1951,8350003004501,新規,0,2023-11-30,2023-11-30,合同会社ＣＳ＆Ｕ,,合同会社,宮崎県,宮崎市,恒久３丁目２０－６－２０２,,45,201,8800913,,,,,,,2023-11-30,1,,,,,シーエスアンドユー,0
1954,8370003006405,新規,0,2023-11-30,2023-11-30,合同会社１２４,,合同会社,宮城県,仙台市青葉区,本町２丁目８－２０－１４０３,,04,101,9800014,,,,,,,2023-11-30,1,,,,,イチニヨン,0
1966,8430001090535,新規,0,2023-11-30,2023-11-30,株式会社ＬＩＧＨＴＳ　ＣＬＥＡＮ,,株式会社,北海道,札幌市白石区,本通１２丁目北１番２６号,,01,104,0030027,,,,,,,2023-11-30,1,,,,,ライツクリーン,0
1969,8430003015696,新規,0,2023-11-30,2023-11-30,Ｔｈｅ　Ｄａｙ　Ｗａｘ合同会社,,合同会社,北海道,虻田郡ニセコ町,字本通１２番地４リーガルニセコ１０１,,01,395,0481502,,,,,,,2023-11-30,1,,,,,ザデイワックス,0
1970,8430003015705,新規,0,2023-11-30,2023-11-30,合同会社Ｌｉｎｋｓ,,合同会社,北海道,札幌市白石区,平和通１７丁目北１２番３号,,01,104,0030029,,,,,,,2023-11-30,1,,,,,リンクス,0
1982,8500005008658,新規,0,2023-11-30,2023-11-30,医療法人笑福会,,その他の設立登記法人,愛媛県,松山市,北久米町２１７番地２,,38,201,7900923,,,,,,,2023-11-30,1,,,,,ショウフクカイ,0
1989,9010001240370,新規,0,2023-11-30,2023-11-30,プラウド・イノベーション株式会社,,株式会社,東京都,中央区,銀座１丁目１２番４号Ｎ＆ＥＢＬＤ．６Ｆ,,13,102,1040061,,,,,,,2023-11-30,1,,,,,プラウドイノベーション,0
1990,9010001240412,新規,0,2023-11-30,2023-11-30,株式会社ビーインテグリティ,,株式会社,東京都,中央区,銀座１丁目２２番１１号銀座大竹ビジデンス２Ｆ,,13,102,1040061,,,,,,,2023-11-30,1,,,,,ビーインテグリティ,0
1991,9010001240420,新規,0,2023-11-30,2023-11-30,株式会社いろ羽,,株式会社,東京都,千代田区,神田松永町１３番地ＶＯＲＴ秋葉原ＩＩ,00132826,13,101,1010023,,,,,,,2023-11-30,1,,,,,イロハ,0
1992,9010001240429,新規,0,2023-11-30,2023-11-30,株式会社ＫＹＯＲＩＣＡ,,株式会社,東京都,文京区,小石川２丁目１２番１号ハウス富坂１０１,,13,105,1120002,,,,,,,2023-11-30,1,,,,,キョウリカ,0
1994,9010003042336,新規,0,2023-11-30,2023-11-30,Ｐａｋａｏ合同会社,,合同会社,東京都,千代田区,神田駿河台３丁目１番１号,,13,101,1010062,,,,,,,2023-11-30,1,,,,,パカオ,0
1996,9010101015904,新規,0,2023-11-30,2023-11-30,株式会社Ｃｒｏｓｓ　Ｃｏｌｏｕｒｓ,,株式会社,東京都,八王子市,松が谷１０,,13,201,1920354,,,,,,,2023-11-30,1,,,,,クロスカラーズ,0
2001,9010401178756,新規,0,2023-11-30,2023-11-30,Ｃａｓａｎｏｖａｆａｍｉｌｉａ株式会社,,株式会社,東京都,港区,南青山５丁目４番２７号,,13,103,1070062,,,,,,,2023-11-30,1,,,,,カサノバファミリア,0
2002,9010401178797,新規,0,2023-11-30,2023-11-30,株式会社オオジ商店,,株式会社,東京都,港区,三田２丁目７番１－１４０７号,,13,103,1080073,,,,,,,2023-11-30,1,,,,,オオジショウテン,0
2007,9010501051441,新規,0,2023-11-30,2023-11-30,ルミックスデザイン株式会社,,株式会社,東京都,台東区,千束３丁目２３－１１,,13,106,1110031,,,,,,,2023-11-30,1,,,,,ルミックスデザイン,0
2015,9010901054267,新規,0,2023-11-30,2023-11-30,ＳｐｈｅｒｅＭｙｓｔｉｃａ株式会社,,株式会社,東京都,世田谷区,北沢２丁目２１－２２,,13,112,1550031,,,,,,,2023-11-30,1,,,,,スフィアミスティカ,0
2018,9011001158470,新規,0,2023-11-30,2023-11-30,株式会社再生医療テクノ,,株式会社,東京都,目黒区,上目黒１丁目１６番１２号,,13,110,1530051,,,,,,,2023-11-30,1,,,,,サイセイイリョウテクノ,0
2019,9011001158495,新規,0,2023-11-30,2023-11-30,株式会社ＡＳＴＲＡＬＥＹＥ,,株式会社,東京都,渋谷区,神宮前６丁目２８番９号,,13,113,1500001,,,,,,,2023-11-30,1,,,,,アストラルアイ,0
2020,9011001158504,新規,0,2023-11-30,2023-11-30,株式会社ノブシテック,,株式会社,東京都,渋谷区,渋谷３丁目６－２,,13,113,1500002,,,,,,,2023-11-30,1,,,,,ノブシテック,0
2021,9011003017591,新規,0,2023-11-30,2023-11-30,合同会社ｔｒｉｐｐｓ,,合同会社,東京都,渋谷区,渋谷２丁目１９－１５宮益坂ビルディング６０９,,13,113,1500002,,,,,,,2023-11-30,1,,,,,トリップス,0
2023,9011101105265,新規,0,2023-11-30,2023-11-30,株式会社Ｓ‐ＴＰ,,株式会社,東京都,新宿区,新宿２丁目２番４号,,13,104,1600022,,,,,,,2023-11-30,1,,,,,エスティーピー,0
2029,9011503005864,新規,0,2023-11-30,2023-11-30,合同会社ｓｔｏｎｅｓｔａｎｄ,,合同会社,東京都,北区,浮間２丁目２４番２６－２０２号スカイハイツ,,13,117,1150051,,,,,,,2023-11-30,1,,,,,ストーンスタンド,0
2032,9011601027331,新規,0,2023-11-30,2023-11-30,叶セイ株式会社,,株式会社,東京都,練馬区,高松４丁目２４番４号,,13,120,1790075,,,,,,,2023-11-30,1,,,,,カノウセイ,0
2037,9012401041274,新規,0,2023-11-30,2023-11-30,株式会社Ｒｉｓｉｃａｒｅ,,株式会社,東京都,府中市,宮西町５丁目６－２アローランドマンション２０３,,13,206,1830022,,,,,,,2023-11-30,1,,,,,リジカーレ,0
2038,9012403006300,新規,0,2023-11-30,2023-11-30,ＦＯＣ合同会社,,合同会社,東京都,武蔵野市,吉祥寺本町３丁目８番７号ＷｅｌｌＨｏｍｅｓＡ,,13,203,1800004,,,,,,,2023-11-30,1,,,,,エフオーシー,0
2050,9013301051693,新規,0,2023-11-30,2023-11-30,Ｍ．Ｙ　ｓｐａｃｅ株式会社,,株式会社,東京都,豊島区,北大塚２丁目９番３号第一矢島ビル５０１,,13,116,1700004,,,,,,,2023-11-30,1,,,,,エムワイスペース,0
2051,9013303006902,新規,0,2023-11-30,2023-11-30,合同会社サンブルーム,,合同会社,東京都,豊島区,南池袋２丁目１７番８号,,13,116,1710022,,,,,,,2023-11-30,1,,,,,サンブルーム,0
2059,9020001154702,新規,0,2023-11-30,2023-11-30,株式会社ｍｅｍｅｎｔｏ　ｍｏｒｉ,,株式会社,神奈川県,横浜市港北区,菊名４丁目５番５号,,14,109,2220011,,,,,,,2023-11-30,1,,,,,メメントモリ,0
2065,9020003025091,新規,0,2023-11-30,2023-11-30,合同会社デサフィナード,,合同会社,神奈川県,横浜市青葉区,しらとり台１１番地１１しらとり台住宅２－３０７,,14,117,2270054,,,,,,,2023-11-30,1,,,,,デサフィナード,0
2067,9021001080855,新規,0,2023-11-30,2023-11-30,株式会社ＭＮＢ,,株式会社,神奈川県,相模原市南区,相南４丁目２１番２１号,,14,153,2520312,,,,,,,2023-11-30,1,,,,,エムエヌビー,0
2087,9040001131063,新規,0,2023-11-30,2023-11-30,ＫＡＷＡＭＵＲＡ株式会社,,株式会社,千葉県,千葉市中央区,宮崎１丁目１７番２４－３０７号,,12,101,2600806,,,,,,,2023-11-30,1,,,,,カワムラ,0
2091,9040003023820,新規,0,2023-11-30,2023-11-30,合同会社セイワ,,合同会社,千葉県,船橋市,海神３丁目２４番１４号株式会社ピーターパン内,,12,204,2730021,,,,,,,2023-11-30,1,,,,,セイワ,0
2106,9080001026004,新規,0,2023-11-30,2023-11-30,株式会社ＨＹＳ,,株式会社,静岡県,静岡市葵区,竜南３丁目１番４６号,,22,101,4200804,,,,,,,2023-11-30,1,,,,,エイチワイエス,0
2118,9120003025420,新規,0,2023-11-30,2023-11-30,合同会社Ｓｅｃｏｎｄ,,合同会社,大阪府,大阪市北区,梅田１丁目１２番１２号東京建物梅田ビル１２階,,27,127,5300001,,,,,,,2023-11-30,1,,,,,セカンド,0
2126,9120101068610,新規,0,2023-11-30,2023-11-30,アポロ・アセットマネジメント株式会社,,株式会社,大阪府,堺市堺区,香ヶ丘町１丁１番７号,,27,141,5900011,,,,,,,2023-11-30,1,,,,,アポロアセットマネジメント,0
2127,9120101068619,新規,0,2023-11-30,2023-11-30,本田建設工業株式会社,,株式会社,大阪府,堺市北区,北花田町３丁３８番地１１－３０５号,,27,146,5918002,,,,,,,2023-11-30,1,,,,,ホンダケンセツコウギョウ,0
2128,9120103005553,新規,0,2023-11-30,2023-11-30,合同会社ＮＬＤ,,合同会社,大阪府,岸和田市,内畑町１０９６番地,,27,202,5960105,,,,,,,2023-11-30,1,,,,,エヌエルディ,0
2144,9150003003126,新規,0,2023-11-30,2023-11-30,合同会社ＫＡＩＤＡ,,合同会社,奈良県,香芝市,関屋北７丁目８番１号,,29,210,6390254,,,,,,,2023-11-30,1,,,,,カイダ,0
2161,9190005011890,新規,0,2023-11-30,2023-11-30,一般社団法人こはるびより,,その他の設立登記法人,三重県,津市,殿村３８５番地１６,,24,201,5140073,,,,,,,2023-11-30,1,,,,,コハルビヨリ,0
2176,9250003003388,新規,0,2023-11-30,2023-11-30,ライフケアサポートＯＮＥ合同会社,,合同会社,山口県,宇部市,中央町２丁目３番３号,,35,202,7550045,,,,,,,2023-11-30,1,,,,,ライフケアサポートワン,0
2186,9330001031515,新規,0,2023-11-30,2023-11-30,株式会社アグリリゾート熊本開発,,株式会社,熊本県,熊本市中央区,水道町４番１１号,,43,101,8600844,,,,,,,2023-11-30,1,,,,,アグリリゾートクマモトカイハツ,0
2189,9350003004500,新規,0,2023-11-30,2023-11-30,合同会社アクアテラス,,合同会社,宮崎県,宮崎市,恒久３丁目２０－６－２０２,,45,201,8800913,,,,,,,2023-11-30,1,,,,,アクアテラス,0
2190,9350003004509,新規,0,2023-11-30,2023-11-30,合同会社アドクリエイト,,合同会社,宮崎県,宮崎市,恒久６丁目２－２,,45,201,8800913,,,,,,,2023-11-30,1,,,,,アドクリエイト,0
2199,9370001050676,新規,0,2023-11-30,2023-11-30,株式会社Ｊ・Ｗｏｒｋｓ,,株式会社,宮城県,仙台市太白区,上野山２丁目１番１０号,,04,104,9820812,,,,,,,2023-11-30,1,,,,,ジェイワークス,0
2200,9370003006404,新規,0,2023-11-30,2023-11-30,合同会社プログレス,,合同会社,宮城県,仙台市青葉区,国分町２丁目１番１号１９フジビル１階,,04,101,9800803,,,,,,,2023-11-30,1,,,,,プログレス,0
2208,9420001018494,新規,0,2023-11-30,2023-11-30,株式会社パレットドア,,株式会社,青森県,弘前市,大字末広３丁目１番地４,,02,202,0368085,,,,,,,2023-11-30,1,,,,,パレットドア,0
2210,9430001090542,新規,0,2023-11-30,2023-11-30,株式会社ｂｉｂｉ　ｆｏｏｄｓ,,株式会社,北海道,札幌市豊平区,美園五条３丁目３番１３号,,01,105,0620005,,,,,,,2023-11-30,1,,,,,ビビフーズ,0
2217,9430003015687,新規,0,2023-11-30,2023-11-30,合同会社レゾリューション,,合同会社,北海道,札幌市南区,澄川五条３丁目８番１３－１０２号,,01,106,0050005,,,,,,,2023-11-30,1,,,,,レゾリューション,0
2218,9430003015695,新規,0,2023-11-30,2023-11-30,合同会社田鎖内装,,合同会社,北海道,札幌市北区,屯田八条２丁目２番３号,,01,102,0020858,,,,,,,2023-11-30,1,,,,,タグサリナイソウ,0
2219,9430003015704,新規,0,2023-11-30,2023-11-30,Ａ‐ＤＶＩＳＥ合同会社,,合同会社,北海道,札幌市北区,新琴似十一条１丁目５番６号,,01,102,0010911,,,,,,,2023-11-30,1,,,,,アドバイス,0
2228,9480001012302,新規,0,2023-11-30,2023-11-30,株式会社テンセイ,,株式会社,徳島県,鳴門市,撫養町弁財天字本丁４７番地５,,36,202,7720014,,,,,,,2023-11-30,1,,,,,テンセイ,0
