sequenceNumber,corporateNumber,process,correct,updateDate,changeDate,name,nameImageId,kind,prefectureName,cityName,streetNumber,addressImageId,prefectureCode,cityCode,postCode,addressOutside,addressOutsideImageId,closeDate,closeCause,successorCorporateNumber,changeCause,assignmentDate,latest,enName,enPrefectureName,enCityName,enAddressOutside,furigana,hihyoji
1,1000020328642,登記記録の閉鎖等,0,2022-02-17,2021-12-31,浜田市江津市旧有福村有財産共同管理組合,,地方公共団体,島根県,江津市,江津町１５２５,,32,207,6950011,,,2021-12-31,その他の清算の結了等,,,2015-10-05,1,The Arifuku Village Property Management Association Hamada and Gotsu,Shimane,"1525, Gotsu cho, Gotsu Shi",,ハマダシゴウツシキュウアリフクソンユウザイサンキョウドウカンリクミアイ,0
10,1010001182521,登記記録の閉鎖等,0,2022-02-17,2022-02-16,株式会社ファーストキャビン京都嵐山,,株式会社,東京都,千代田区,紀尾井町３番６号,,13,101,1020094,,,2022-02-16,清算の結了等,,,2017-04-06,1,,,,,ファーストキャビンキョウトアラシヤマ,0
13,1010001212121,登記記録の閉鎖等,0,2022-02-17,2022-02-07,株式会社ストリームライン,,株式会社,東京都,千代田区,丸の内１丁目８番３号丸の内トラストタワー本館２０階,,13,101,1000005,,,2022-02-07,清算の結了等,,,2020-09-08,1,,,,,ストリームライン,0
30,1010701032570,登記記録の閉鎖等,0,2022-02-17,2022-02-14,株式会社ＦＡＣＴ　ＣＯＲＰＯＲＡＴＩＯＮ,,株式会社,大阪府,大阪市西区,新町３丁目８番１８号,,27,106,5500013,,,2022-02-14,清算の結了等,,,2016-06-09,1,,,,,,0
62,1012402020276,登記記録の閉鎖等,0,2022-02-17,2022-02-14,有限会社玲芳,,有限会社,東京都,武蔵野市,吉祥寺南町４丁目２１番２０号,,13,203,1800003,,,2022-02-14,清算の結了等,,,2015-10-05,1,,,,,,0
63,1012403003536,登記記録の閉鎖等,0,2022-02-17,2022-02-09,合同会社りゅえーる,,合同会社,東京都,調布市,下石原１丁目２７番３号マコトビル３０２号室,,13,208,1820034,,,2022-02-09,清算の結了等,,,2018-08-02,1,,,,,リュエール,0
73,1013301047773,登記記録の閉鎖等,0,2022-02-17,2022-01-31,株式会社ｎｏｏｔ,,株式会社,東京都,豊島区,高松１丁目５番２号ハイム白澤１０１号,,13,116,1710042,,,2022-01-31,清算の結了等,,,2021-07-27,1,,,,,ノート,0
86,1020002097354,登記記録の閉鎖等,0,2022-02-17,2022-02-14,有限会社清水製作所,,有限会社,神奈川県,川崎市川崎区,小田６丁目７番１９号,,14,131,2100846,,,2022-02-14,清算の結了等,,,2015-10-05,1,,,,,シミズセイサクショ,0
97,1021003006304,登記記録の閉鎖等,0,2022-02-17,2022-02-14,合同会社Ｒｅｅｆ,,合同会社,神奈川県,茅ヶ崎市,平和町８番４号,,14,207,2530024,,,2022-02-14,清算の結了等,,,2016-11-11,1,,,,,リーフ,0
117,1070002030087,登記記録の閉鎖等,0,2022-02-17,2022-02-16,有限会社塚越自動車商会,00025846,有限会社,群馬県,太田市,飯塚町１３６７番地,,10,205,3730817,,,2022-02-16,清算の結了等,,,2015-10-05,1,,,,,ツカゴシジドウシャショウカイ,0
128,1100002005770,登記記録の閉鎖等,0,2022-02-17,2022-02-15,有限会社リビングコジマ,,有限会社,長野県,長野市,西三才２３５１番地,,20,201,3810083,,,2022-02-15,清算の結了等,,,2015-10-05,1,,,,,リビングコジマ,0
129,1100002018608,登記記録の閉鎖等,0,2022-02-17,2022-02-14,有限会社たまりや酒店,,有限会社,長野県,下高井郡山ノ内町,大字平穏２１６２番地,,20,561,3810401,,,2022-02-14,清算の結了等,,,2015-10-05,1,,,,,タマリヤサケテン,0
130,1100005012673,登記記録の閉鎖等,0,2022-02-17,2022-02-14,一般社団法人Ｐ．Ｐ．Ｐｉｎｅ,,その他の設立登記法人,長野県,諏訪市,南町１３番地８,,20,206,3920014,,,2022-02-14,清算の結了等,,,2021-02-18,1,,,,,ピーピーパイン,0
135,1110002020471,登記記録の閉鎖等,0,2022-02-17,2022-02-10,有限会社桑山建具製作所,,有限会社,新潟県,柏崎市,田塚１丁目４番５３号,,15,205,9450032,,,2022-02-10,清算の結了等,,,2015-10-05,1,,,,,クワヤマタテグセイサクジョ,0
163,1140001072577,登記記録の閉鎖等,0,2022-02-17,2022-02-14,エルビー株式会社,,株式会社,兵庫県,西宮市,戸田町６番１号,,28,204,6620916,,,2022-02-14,清算の結了等,,,2015-10-05,1,,,,,エルビー,0
175,1180001074644,登記記録の閉鎖等,0,2022-02-17,2022-02-14,株式会社ナカムラ,,株式会社,愛知県,春日井市,神屋町字熊野上１１３９番地２５,,23,206,4800304,,,2022-02-14,清算の結了等,,,2015-10-05,1,,,,,ナカムラ,0
201,1220002014066,登記記録の閉鎖等,0,2022-02-17,2022-02-10,有限会社ブルームーン,,有限会社,石川県,七尾市,藤橋町巳部４５番地３,,17,202,9260816,,,2022-02-10,清算の結了等,,,2015-10-05,1,,,,,ブルームーン,0
205,1240002031811,登記記録の閉鎖等,0,2022-02-17,2022-02-14,優ネットワーク有限会社,,有限会社,広島県,庄原市,宮内町１００２番地,,34,210,7270007,,,2022-02-14,清算の結了等,,,2015-10-05,1,,,,,ユウネットワーク,0
211,1260002000269,登記記録の閉鎖等,0,2022-02-17,2022-02-17,有限会社アキタ鉄工,,有限会社,岡山県,岡山市南区,内尾４９番地５,,33,104,7010212,,,2022-02-17,清算の結了等,,,2015-10-05,1,,,,,アキタテッコウ,0
222,1320001004108,登記記録の閉鎖等,0,2022-02-17,2022-02-15,株式会社銀河鉄道,,株式会社,大分県,由布市,湯布院町川上１４７４番地の３,,44,213,8795102,,,2022-02-15,清算の結了等,,,2015-10-05,1,,,,,ギンガテツドウ,0
223,1330002001929,登記記録の閉鎖等,0,2022-02-17,2022-02-14,有限会社オフィスまつ本,,有限会社,熊本県,熊本市北区,楠４丁目６番２－３０２号,,43,105,8618003,,,2022-02-14,清算の結了等,,,2015-10-05,1,,,,,オフィスマツモト,0
284,2010703003908,登記記録の閉鎖等,0,2022-02-17,2022-02-15,合同会社東京ノーチカ,,合同会社,東京都,品川区,北品川１丁目９番７号トップルーム品川１０１５号,,13,109,1400001,,,2022-02-15,清算の結了等,,,2017-11-10,1,,,,,トウキョウノーチカ,0
334,2020002017484,登記記録の閉鎖等,0,2022-02-17,2022-02-15,有限会社北新興業,,有限会社,神奈川県,横浜市西区,境之谷１１５番地,,14,103,2200054,,,2022-02-15,清算の結了等,,,2015-10-05,1,,,,,ホクシンコウギヨウ,0
336,2021001044511,登記記録の閉鎖等,0,2022-02-17,2022-02-14,株式会社ＨＡＰＰＹ　ＣＯＭＰＡＮＹ,,株式会社,神奈川県,逗子市,桜山７丁目１３９５－１８１,,14,208,2490005,,,2022-02-14,清算の結了等,,,2015-10-05,1,,,,,,0
339,2021002071190,登記記録の閉鎖等,0,2022-02-17,2022-02-14,有限会社ワイ・ユー,,有限会社,神奈川県,逗子市,新宿１丁目１番２０号,,14,208,2490007,,,2022-02-14,清算の結了等,,,2015-10-05,1,,,,,ワイユー,0
396,2120101044428,登記記録の閉鎖等,0,2022-02-17,2022-02-14,株式会社マタノ,,株式会社,大阪府,泉南市,男里５丁目１０番１号,,27,228,5900526,,,2022-02-14,清算の結了等,,,2015-10-05,1,,,,,マタノ,0
398,2120105005632,登記記録の閉鎖等,0,2022-02-17,2022-02-15,ＮＰＯ法人ＡＳＵＨＥ,,その他の設立登記法人,大阪府,河内長野市,旭ケ丘１番２２号,,27,216,5860084,,,2022-02-15,清算の結了等,,,2015-10-05,1,,,,,アスエ,0
401,2120901038298,登記記録の閉鎖等,0,2022-02-17,2022-02-14,株式会社フレンド,,株式会社,大阪府,高槻市,前島３丁目１２番１号,,27,207,5690021,,,2022-02-14,清算の結了等,,,2017-04-13,1,,,,,フレンド,0
403,2122001007753,登記記録の閉鎖等,0,2022-02-17,2022-02-15,八洲鉄工株式会社,,株式会社,大阪府,東大阪市,高井田１５番２４号,,27,227,5770053,,,2022-02-15,清算の結了等,,,2015-10-05,1,,,,,ヤシマテッコウ,0
419,2140001101104,登記記録の閉鎖等,0,2022-02-17,2022-02-14,株式会社Ｈａｎｄｓ,,株式会社,兵庫県,西宮市,豊楽町１３番３２号,,28,204,6620072,,,2022-02-14,清算の結了等,,,2016-02-24,1,,,,,ハンズ,0
420,2140001103356,登記記録の閉鎖等,0,2022-02-17,2022-02-14,株式会社オフィスＫｉｃｈｉ,,株式会社,兵庫県,姫路市,飾磨区阿成植木１００３番地,,28,201,6728030,,,2022-02-14,清算の結了等,,,2016-09-12,1,,,,,オフィスキチ,0
428,2180001064330,登記記録の閉鎖等,0,2022-02-17,2022-02-14,株式会社ＢＥＲＮＡＲＤＳ　ＴＲＡＤＩＮＧ　ＣＯＭＰＡＮＹ　ＬＩＭＩＴＥＤ,,株式会社,愛知県,名古屋市西区,宝地町１８５番地宝地ハイツ３０３号,,23,104,4520808,,,2022-02-14,清算の結了等,,,2015-10-05,1,,,,,,0
430,2180001135882,登記記録の閉鎖等,0,2022-02-17,2022-02-10,株式会社ＡＩＱ,,株式会社,愛知県,瀬戸市,八幡台３丁目９０番地,,23,204,4890861,,,2022-02-10,清算の結了等,,,2019-03-28,1,,,,,エーアイキュー,0
440,2200001011940,登記記録の閉鎖等,0,2022-02-17,2022-02-14,株式会社ケイツーワン,,株式会社,岐阜県,岐阜市,領下１６８９番地３,,21,201,5008241,,,2022-02-14,清算の結了等,,,2015-10-05,1,,,,,ケイツーワン,0
448,2240002033204,登記記録の閉鎖等,0,2022-02-17,2022-02-15,有限会社セカンドキッチンよしおか,,有限会社,広島県,呉市,伏原１丁目８番１２号,,34,202,7370077,,,2022-02-15,清算の結了等,,,2015-10-05,1,,,,,セカンドキッチンヨシオカ,0
452,2240005014399,登記記録の閉鎖等,0,2022-02-17,2022-02-14,特定非営利活動法人鞆の浦太田家住宅を守る会,,その他の設立登記法人,広島県,福山市,鞆町鞆８４２番地,,34,207,7200201,,,2022-02-14,清算の結了等,,,2017-06-05,1,,,,,トモノウラオオタケジュウタクヲマモルカイカツドウホウジン,0
481,3010001124190,登記記録の閉鎖等,0,2022-02-17,2022-02-10,ウォールストリート・システムズ・サービス・コーポレーション・ジャパン株式会社,,株式会社,東京都,港区,赤坂２丁目２３番１号アークヒルズフロントタワーＲｏＰ８０６号室,,13,103,1070052,,,2022-02-10,清算の結了等,,,2015-10-05,1,,,,,,0
490,3010002008252,登記記録の閉鎖等,0,2022-02-17,2022-02-15,有限会社エム・オー・シー,,有限会社,東京都,千代田区,西神田２丁目３番６号,,13,101,1010065,,,2022-02-15,清算の結了等,,,2015-10-05,1,,,,,エムオーシー,0
513,3010501026705,登記記録の閉鎖等,0,2022-02-17,2022-02-14,カネシロホールディングス株式会社,,株式会社,東京都,台東区,東上野２丁目２２番５号,,13,106,1100015,,,2022-02-14,清算の結了等,,,2015-10-05,1,,,,,カネシロホールディングス,0
519,3010601055661,登記記録の閉鎖等,0,2022-02-17,2022-02-01,株式会社ＨＡＮＡ,,株式会社,東京都,渋谷区,千駄ヶ谷３丁目１１番８号（ＴＯＳグループ内）,,13,113,1510051,,,2022-02-01,清算の結了等,,,2019-06-17,1,,,,,ハナ,0
530,3011001130575,登記記録の閉鎖等,0,2022-02-17,2022-02-01,バウワースアンドウィルキンス・ジャパン株式会社,,株式会社,東京都,渋谷区,桜丘町２６番１号セルリアンタワー１５階,,13,113,1500031,,,2022-02-01,清算の結了等,,,2019-10-28,1,,,,,バウワースアンドウィルキンスジャパン,0
562,3011801037425,登記記録の閉鎖等,0,2022-02-17,2022-02-16,ＦＦ．ＦＩＮＡＮＣＥ株式会社,,株式会社,東京都,足立区,舎人４丁目５番６号クレール・ド・ルネ３０３,,13,121,1210831,,,2022-02-16,清算の結了等,,,2020-03-17,1,,,,,エフエフファイナンス,0
565,3011802006065,登記記録の閉鎖等,0,2022-02-17,2022-02-16,有限会社根津工業所,,有限会社,東京都,葛飾区,立石２丁目２４番７号,,13,122,1240012,,,2022-02-16,清算の結了等,,,2015-10-05,1,,,,,ネヅコウギョウショ,0
596,3030002039056,登記記録の閉鎖等,0,2022-02-17,2022-02-14,有限会社金子産業,,有限会社,埼玉県,久喜市,菖蒲町上栢間３１０４番地,,11,232,3460114,,,2022-02-14,清算の結了等,,,2015-10-05,1,,,,,カネコサンギョウ,0
602,3040002018281,登記記録の閉鎖等,0,2022-02-17,2022-02-07,有限会社ケイ・ワン,,有限会社,千葉県,習志野市,香澄１丁目２番１２－１０４号,,12,216,2750022,,,2022-02-07,清算の結了等,,,2015-10-05,1,,,,,ケイワン,0
620,3110001031567,登記記録の閉鎖等,0,2022-02-17,2022-02-14,株式会社下倉城,,株式会社,新潟県,魚沼市,四日町１２０４番地１,,15,225,9460007,,,2022-02-14,清算の結了等,,,2016-06-09,1,,,,,シタグラジョウ,0
644,3120002073401,登記記録の閉鎖等,0,2022-02-17,2022-02-14,有限会社アソット・ワン,,有限会社,大阪府,交野市,星田９丁目３９番１１号,,27,230,5760016,,,2022-02-14,清算の結了等,,,2015-10-05,1,,,,,アソットワン,0
685,3180002000903,登記記録の閉鎖等,0,2022-02-17,2022-02-10,有限会社大善,,有限会社,愛知県,名古屋市守山区,松坂町７０番地,,23,113,4630007,,,2022-02-10,清算の結了等,,,2015-10-05,1,,,,,ダイゼン,0
691,3180302007425,登記記録の閉鎖等,0,2022-02-17,2022-02-07,有限会社小林板金,,有限会社,愛知県,豊橋市,東幸町字大山１６７番地の４,,23,201,4400843,,,2022-02-07,清算の結了等,,,2015-10-05,1,,,,,コバヤシバンキン,0
692,3180302009421,登記記録の閉鎖等,0,2022-02-17,2022-02-15,福井有限会社,,有限会社,愛知県,豊橋市,牟呂中村町８番地１３,,23,201,4418093,,,2022-02-15,清算の結了等,,,2015-10-05,1,,,,,フクイ,0
697,3230002005863,登記記録の閉鎖等,0,2022-02-17,2022-02-16,有限会社タカベッツ,,有限会社,富山県,中新川郡上市町,中江上７０番地,,16,322,9300313,,,2022-02-16,清算の結了等,,,2015-10-05,1,,,,,タカベッツ,0
706,3290001077361,登記記録の閉鎖等,0,2022-02-17,2022-02-15,株式会社シー・エフ・ピー,,株式会社,福岡県,福岡市中央区,今泉１丁目１８番１３－６０４号,,40,133,8100021,,,2022-02-15,清算の結了等,,,2017-04-10,1,,,,,シーエフピー,0
719,3330005006808,登記記録の閉鎖等,0,2022-02-17,2022-02-15,医療法人にしきど整形外科,,その他の設立登記法人,熊本県,天草市,東浜町１９番３号,,43,215,8630014,,,2022-02-15,清算の結了等,,,2015-10-05,1,,,,,ニシキドセイケイゲカ,0
721,3350002010323,登記記録の閉鎖等,0,2022-02-17,2022-02-14,有限会社安次富養豚,,有限会社,宮崎県,児湯郡川南町,大字川南１８３１７番地,,45,405,8891301,,,2022-02-14,清算の結了等,,,2015-10-05,1,,,,,アジトミヨウトン,0
730,3380002012226,登記記録の閉鎖等,0,2022-02-17,2022-01-31,有限会社孫田建築所,,有限会社,福島県,郡山市,久留米２丁目１６０番地,,07,203,9638846,,,2022-01-31,清算の結了等,,,2015-10-05,1,,,,,マゴタケンチクショ,0
732,3390001014998,登記記録の閉鎖等,0,2022-02-17,2022-02-08,ジー・ツリー株式会社,,株式会社,山形県,寒河江市,中央１丁目２番４３号,,06,206,9910021,,,2022-02-08,清算の結了等,,,2017-07-25,1,,,,,ジーツリー,0
734,3430001047192,登記記録の閉鎖等,0,2022-02-17,2022-02-14,株式会社王子森の恵みサプライ,,株式会社,北海道,岩見沢市,十二条西３丁目４番地１,,01,210,0680032,,,2022-02-14,清算の結了等,,,2015-10-05,1,,,,,オウジモリノメグミサプライ,0
739,3500005008010,登記記録の閉鎖等,0,2022-02-17,2022-02-14,特定非営利活動法人虹色のたね,,その他の設立登記法人,愛媛県,西条市,北条１１８９番地７,,38,206,7991354,,,2022-02-14,清算の結了等,,,2018-10-30,1,,,,,ニジイロノタネ,0
745,4010001076142,登記記録の閉鎖等,0,2022-02-17,2022-02-10,ピットクルー株式会社,,株式会社,東京都,千代田区,岩本町２丁目４番１号,,13,101,1010032,,,2022-02-10,合併による解散等,4180001046442,令和４年２月１日名古屋市名東区上社三丁目８０１番地ポールトゥウィン株式会社（4180001046442）に合併し解散,2015-10-05,1,,,,,ピットクルー,0
755,4010001182543,登記記録の閉鎖等,0,2022-02-17,2022-02-16,株式会社ファーストキャビン京都三条,,株式会社,東京都,千代田区,紀尾井町３番６号,,13,101,1020094,,,2022-02-16,清算の結了等,,,2017-04-12,1,,,,,ファーストキャビンキョウトサンジョウ,0
758,4010001186973,登記記録の閉鎖等,0,2022-02-17,2022-02-16,株式会社ファーストキャビン・フーズ,,株式会社,東京都,千代田区,紀尾井町３番６号,,13,101,1020094,,,2022-02-16,清算の結了等,,,2017-10-19,1,,,,,ファーストキャビンフーズ,0
767,4010101012179,登記記録の閉鎖等,0,2022-02-17,2022-02-10,株式会社八光塗装,,株式会社,東京都,八王子市,大和田町２丁目３－１３,,13,201,1920045,,,2022-02-10,清算の結了等,,,2016-01-19,1,,,,,ヤコウトソウ,0
769,4010401091253,登記記録の閉鎖等,0,2022-02-17,2022-01-31,テバファーマスーティカル株式会社,,株式会社,東京都,渋谷区,恵比寿４丁目２０番３号,,13,113,1500013,,,2022-01-31,清算の結了等,,,2015-10-05,1,,,,,テバファーマスーティカル,0
773,4010402002003,登記記録の閉鎖等,0,2022-02-17,2022-02-10,有限会社江口梱包運輸,,有限会社,東京都,港区,東新橋２丁目２番７号,,13,103,1050021,,,2022-02-10,清算の結了等,,,2015-10-05,1,,,,,エグチコンポウウンユ,0
807,4012401031016,登記記録の閉鎖等,0,2022-02-17,2022-02-14,株式会社オフィス・ＭＯＲＩＹＡＳＵ,,株式会社,東京都,府中市,小柳町５丁目２２番地１４,,13,206,1830013,,,2022-02-14,清算の結了等,,,2016-01-29,1,,,,,オフィスモリヤス,0
814,4013303002773,登記記録の閉鎖等,0,2022-02-17,2022-02-10,ユニバージー９５合同会社,,合同会社,東京都,港区,芝公園１丁目３番１号留園ビル６階,,13,103,1050011,,,2022-02-10,合併による解散等,3010403025755,令和４年２月１０日東京都港区芝公園一丁目３番１号留園ビル６階ＳＳ光２９合同会社（3010403025755）に合併し解散,2015-10-05,1,,,,,ユニバージーキュウジュウゴ,0
827,4021001047405,登記記録の閉鎖等,0,2022-02-17,2022-02-15,株式会社スポーツプラザ横須賀,,株式会社,神奈川県,横須賀市,若松町１丁目８番地泉ビル４Ｆ,,14,201,2380007,,,2022-02-15,清算の結了等,,,2015-10-05,1,,,,,,0
836,4030001063147,登記記録の閉鎖等,0,2022-02-17,2022-02-14,ロッカウェイ・ダイニング株式会社,,株式会社,埼玉県,さいたま市西区,宮前町１６５１番地５,,11,101,3310046,,,2022-02-14,清算の結了等,,,2015-10-05,1,,,,,ロッカウェイダイニング,0
845,4030002073723,登記記録の閉鎖等,0,2022-02-17,2022-02-10,有限会社下田技術翻訳,,有限会社,埼玉県,川越市,大字寺尾７４９番地９,,11,201,3501141,,,2022-02-10,清算の結了等,,,2015-10-05,1,,,,,シモダギジュツホンヤク,0
867,4070002018105,登記記録の閉鎖等,0,2022-02-17,2022-02-15,有限会社共栄警備保障,,有限会社,群馬県,藤岡市,西平井１７６２番地,,10,209,3750044,,,2022-02-15,清算の結了等,,,2015-10-05,1,,,,,キョウエイケイビホショウ,0
870,4080101013328,登記記録の閉鎖等,0,2022-02-17,2022-01-19,株式会社伊豆深層水,,株式会社,静岡県,伊東市,宇佐美１７６０番地の１,,22,208,4140001,,,2022-01-19,清算の結了等,,,2015-10-05,1,,,,,イズシンソウスイ,0
890,4120102020483,登記記録の閉鎖等,0,2022-02-17,2022-02-15,有限会社武蔵,,有限会社,大阪府,富田林市,美山台７番４－１１０６号,,27,214,5840039,,,2022-02-15,清算の結了等,,,2015-10-05,1,,,,,ムサシ,0
899,4122005002922,登記記録の閉鎖等,0,2022-02-17,2022-02-14,特定非営利活動法人スポーツコミュニティキッズ＆シニア大阪総合型地域スポーツクラブ,,その他の設立登記法人,大阪府,東大阪市,加納７丁目２１番２４号,,27,227,5780901,,,2022-02-14,清算の結了等,,,2015-10-05,1,,,,,スポーツコミュニティキッズアンドシニアオオサカソウゴウガタチイキスポーツクラブ,0
903,4130002022397,登記記録の閉鎖等,0,2022-02-17,2022-02-15,有限会社メイキ,,有限会社,京都府,京都市伏見区,納所北城堀１番地の１１,,26,109,6128279,,,2022-02-15,清算の結了等,,,2015-10-05,1,,,,,メイキ,0
914,4160001015622,登記記録の閉鎖等,0,2022-02-17,2022-02-15,滋賀ニシリク株式会社,,株式会社,滋賀県,野洲市,上屋１４５番地の４,,25,210,5202316,,,2022-02-15,合併による解散等,3120001148393,令和４年２月１日大阪府寝屋川市池田新町１９番３０号ニシリク株式会社（3120001148393）に合併し解散,2015-10-05,1,,,,,シガニシリク,0
946,4280002002525,登記記録の閉鎖等,0,2022-02-17,2022-02-14,有限会社ランドマーク,,有限会社,島根県,松江市,上乃木７丁目４番５号,,32,201,6900015,,,2022-02-14,清算の結了等,,,2015-10-05,1,,,,,ランドマーク,0
956,4330005008398,登記記録の閉鎖等,0,2022-02-17,2022-02-14,特定非営利活動法人日本マイホームプランナーズ協会,,その他の設立登記法人,熊本県,熊本市東区,西原２丁目３５番３３号,,43,102,8618029,,,2022-02-14,清算の結了等,,,2015-10-05,1,,,,,ニホンマイホームプランナーズキョウカイ,0
974,4420002009191,登記記録の閉鎖等,0,2022-02-17,2022-02-14,有限会社山正商店,,有限会社,青森県,八戸市,内丸１丁目１番４７号,,02,203,0310075,,,2022-02-14,清算の結了等,,,2015-10-05,1,,,,,ヤマショウショウテン,0
1009,5010901037366,登記記録の閉鎖等,0,2022-02-17,2022-02-15,株式会社マイクＫコンサルティング,,株式会社,東京都,世田谷区,代田４丁目３４番１９号,,13,112,1550033,,,2022-02-15,清算の結了等,,,2016-01-07,1,,,,,マイクケイコンサルティング,0
1030,5011103010112,登記記録の閉鎖等,0,2022-02-17,2022-02-14,合同会社ノベルトジャパン,,合同会社,東京都,新宿区,西新宿７丁目１番７号新宿ダイカンプラザＡ１０１８,,13,104,1600023,,,2022-02-14,清算の結了等,,,2020-10-23,1,,,,,ノベルトジャパン,0
1034,5011301002019,登記記録の閉鎖等,0,2022-02-17,2022-02-14,株式会社クニコーポレーション,,株式会社,東京都,杉並区,西荻北２丁目４番１２号,,13,115,1670042,,,2022-02-14,清算の結了等,,,2015-10-05,1,,,,,クニコーポレーション,0
1054,5012801007795,登記記録の閉鎖等,0,2022-02-17,2022-02-16,株式会社ホウワ,,株式会社,東京都,昭島市,郷地町３丁目５番２１号,,13,207,1960032,,,2022-02-16,清算の結了等,,,2015-10-05,1,,,,,ホウワ,0
1072,5020005014385,登記記録の閉鎖等,0,2022-02-17,2022-02-04,一般社団法人誰一人取り残さない社会研究所,,その他の設立登記法人,神奈川県,横浜市神奈川区,鶴屋町２丁目１２－１０千菊ビル３０１,,14,102,2210835,,,2022-02-04,清算の結了等,,,2019-11-19,1,,,,,ダレヒトリトリノコサナイシャカイケンキュウジョ,0
1075,5021001053864,登記記録の閉鎖等,0,2022-02-17,2022-02-16,株式会社フリーバード,,株式会社,神奈川県,横須賀市,ハイランド１丁目５４番１４号,,14,201,2390833,,,2022-02-16,清算の結了等,,,2015-10-05,1,,,,,フリーバード,0
1095,5040001078853,登記記録の閉鎖等,0,2022-02-17,2022-02-01,リンクス株式会社,,株式会社,東京都,渋谷区,恵比寿１丁目８番１４－５１５号,,13,113,1500013,,,2022-02-01,清算の結了等,,,2015-10-05,1,,,,,リンクス,0
1111,5070002024754,登記記録の閉鎖等,0,2022-02-17,2022-02-15,有限会社マシンリベア,,有限会社,群馬県,みどり市,笠懸町久宮４１７番地の８,,10,212,3792312,,,2022-02-15,清算の結了等,,,2015-10-05,1,,,,,マシンリベア,0
1113,5080002015100,登記記録の閉鎖等,0,2022-02-17,2022-02-15,有限会社神崎運送,,有限会社,静岡県,牧之原市,坂部３７５５番地１,,22,226,4210412,,,2022-02-15,清算の結了等,,,2015-10-05,1,,,,,カンザキウンソウ,0
1115,5080401021673,登記記録の閉鎖等,0,2022-02-17,2022-02-15,株式会社丸愛,,株式会社,静岡県,浜松市西区,入野町２０００２番地の２１,,22,133,4328061,,,2022-02-15,清算の結了等,,,2016-08-19,1,,,,,マルアイ,0
1116,5100001033983,登記記録の閉鎖等,0,2022-02-17,2022-02-14,株式会社こうちゃんキッチン,,株式会社,長野県,諏訪市,南町１３番地２,,20,206,3920014,,,2022-02-14,清算の結了等,,,2021-02-25,1,,,,,コウチャンキッチン,0
1120,5120001034377,登記記録の閉鎖等,0,2022-02-17,2022-02-16,ウラタ建装株式会社,,株式会社,兵庫県,尼崎市,塚口町５丁目２７番地の３,,28,202,6610002,,,2022-02-16,清算の結了等,,,2015-10-05,1,,,,,ウラタケンソウ,0
1134,5120101035622,登記記録の閉鎖等,0,2022-02-17,2022-02-14,株式会社一喜,,株式会社,大阪府,富田林市,東板持町３丁目１０番１６号,,27,214,5840046,,,2022-02-14,清算の結了等,,,2015-10-05,1,,,,,イチヨシ,0
1155,5180001072553,登記記録の閉鎖等,0,2022-02-17,2022-02-14,株式会社スマイルボディー,,株式会社,愛知県,名古屋市中区,栄３丁目４番５号,,23,106,4600008,,,2022-02-14,清算の結了等,,,2015-10-05,1,,,,,スマイルボディー,0
1173,5200002006499,登記記録の閉鎖等,0,2022-02-17,2022-02-15,有限会社寺田油脂,,有限会社,岐阜県,山県市,高富２０５６番地の５,,21,215,5012105,,,2022-02-15,清算の結了等,,,2015-10-05,1,,,,,テラダユシ,0
1174,5200002015772,登記記録の閉鎖等,0,2022-02-17,2022-02-15,有限会社森塗装,,有限会社,岐阜県,揖斐郡池田町,小寺３１２番地の３,,21,404,5032419,,,2022-02-15,清算の結了等,,,2015-10-05,1,,,,,モリトソウ,0
1175,5220001019624,登記記録の閉鎖等,0,2022-02-17,2022-02-14,大宗ロジスティクス株式会社,,株式会社,石川県,金沢市,諸江町下丁２２２,,17,201,9200017,,,2022-02-14,清算の結了等,,,2015-10-05,1,,,,,ダイソウロジスティクス,0
1183,5250001009548,登記記録の閉鎖等,0,2022-02-17,2022-02-15,株式会社セイフティサービス,,株式会社,山口県,下松市,大字末武上５６２番地８,,35,207,7440024,,,2022-02-15,清算の結了等,,,2015-10-05,1,,,,,セイフティサービス,0
1184,5250002000514,登記記録の閉鎖等,0,2022-02-17,2022-02-15,有限会社クラフトマン,,有限会社,山口県,山口市,陶４５２８番地の１,,35,203,7540891,,,2022-02-15,清算の結了等,,,2015-10-05,1,,,,,クラフトマン,0
1190,5270001000934,登記記録の閉鎖等,0,2022-02-17,2022-02-16,鳥取鉄工センター株式会社,,株式会社,鳥取県,鳥取市,南栄町３５番地３,,31,201,6891121,,,2022-02-16,清算の結了等,,,2015-10-05,1,,,,,トットリテッコウセンター,0
1209,5330002021774,登記記録の閉鎖等,0,2022-02-17,2022-02-14,有限会社坂井工業,,有限会社,熊本県,玉名郡南関町,大字四ツ原２９６８番地１,,43,367,8610823,,,2022-02-14,清算の結了等,,,2015-10-05,1,,,,,サカイコウギョウ,0
1212,5360003002201,登記記録の閉鎖等,0,2022-02-17,2022-02-14,合資会社パームコンセプト,,合資会社,沖縄県,那覇市,泉崎２丁目１４番１３号泉崎コーポ３０１,,47,201,9000021,,,2022-02-14,清算の結了等,,,2015-10-05,1,,,,,パームコンセプト,0
1237,6010102004867,登記記録の閉鎖等,0,2022-02-17,2022-02-15,有限会社トミヒロ建設,,有限会社,東京都,八王子市,石川町２０１１番地の８,,13,201,1920032,,,2022-02-15,清算の結了等,,,2015-10-05,1,,,,,,0
1249,6010605002962,登記記録の閉鎖等,0,2022-02-17,2022-02-08,特定非営利活動法人食と健康プロジェクト,,その他の設立登記法人,東京都,墨田区,石原１丁目３０番６－８０１号アーバンヒルズ両国,,13,107,1300011,,,2022-02-08,清算の結了等,,,2015-10-05,1,,,,,ショクトケンコウプロジェクト,0
1268,6011005005259,登記記録の閉鎖等,0,2022-02-17,2022-02-01,医療法人社団白雲会,,その他の設立登記法人,東京都,渋谷区,神宮前４丁目２６番１２号カワノビル表参道地下１階,,13,113,1500001,,,2022-02-01,清算の結了等,,,2015-10-05,1,,,,,ハクウンカイ,0
1274,6011305000612,登記記録の閉鎖等,0,2022-02-17,2022-02-14,特定非営利活動法人杉の樹カレッジ,,その他の設立登記法人,東京都,杉並区,上井草３丁目３７番１７号,,13,115,1670023,,,2022-02-14,清算の結了等,,,2015-10-05,1,,,,,スギノキカレッジ,0
1278,6011601025131,登記記録の閉鎖等,0,2022-02-17,2022-02-01,株式会社ｍｕｇ．,,株式会社,東京都,渋谷区,渋谷２丁目１９番１５号宮益坂ビルディング６０９,,13,113,1500002,,,2022-02-01,清算の結了等,,,2021-06-03,1,,,,,マグ,0
1297,6013305001664,登記記録の閉鎖等,0,2022-02-17,2022-01-26,特定非営利活動法人細川たかしとワールドスキージュニア,,その他の設立登記法人,東京都,渋谷区,西原３丁目３８番２号株式会社ロータス内,,13,113,1510066,,,2022-01-26,清算の結了等,,,2015-10-05,1,,,,,ホソカワタカシトワールドスキージュニア,0
1300,6020001058939,登記記録の閉鎖等,0,2022-02-17,2022-02-10,エフ・エー・エス株式会社,,株式会社,神奈川県,横浜市南区,別所中里台５番４号,,14,105,2320065,,,2022-02-10,清算の結了等,,,2015-10-05,1,,,,,エフエーエス,0
1304,6020002075132,登記記録の閉鎖等,0,2022-02-17,2022-02-14,有限会社ホリエ,,有限会社,神奈川県,横浜市西区,平沼２丁目５番８－８０３号,,14,103,2200023,,,2022-02-14,清算の結了等,,,2015-10-05,1,,,,,ホリエ,0
1316,6030001094743,登記記録の閉鎖等,0,2022-02-17,2022-02-14,株式会社写真の写楽川本店,,株式会社,埼玉県,行田市,佐間２丁目４番４６号,,11,206,3610032,,,2022-02-14,清算の結了等,,,2015-10-05,1,,,,,シャシンノシャラクカワホンテン,0
1317,6030002004874,登記記録の閉鎖等,0,2022-02-17,2022-02-14,有限会社コジマ薬局,,有限会社,埼玉県,さいたま市浦和区,高砂３丁目１０番１６号,,11,107,3300063,,,2022-02-14,清算の結了等,,,2015-10-05,1,,,,,コジマヤッキョク,0
1340,6070002031353,登記記録の閉鎖等,0,2022-02-17,2022-02-15,有限会社山口設備,,有限会社,群馬県,邑楽郡邑楽町,大字石打１４８２番地の１,,10,525,3700604,,,2022-02-15,清算の結了等,,,2015-10-05,1,,,,,ヤマグチセツビ,0
1353,6110001034864,登記記録の閉鎖等,0,2022-02-17,2022-02-10,株式会社ＡＮＤバリウス,,株式会社,新潟県,新潟市西区,鳥原２６６３番地１０,,15,107,9501115,,,2022-02-10,清算の結了等,,,2020-05-11,1,,,,,アンドバリウス,0
1356,6120001155791,登記記録の閉鎖等,0,2022-02-17,2022-02-10,崎本精工株式会社,,株式会社,大阪府,守口市,南寺方北通１丁目７番７号,,27,209,5700046,,,2022-02-10,清算の結了等,,,2015-10-05,1,,,,,サキモトセイコウ,0
1362,6120001193362,登記記録の閉鎖等,0,2022-02-17,2022-02-15,株式会社ＭＩＺＥＬ,,株式会社,大阪府,大阪市北区,紅梅町２番１号,,27,127,5300038,,,2022-02-15,清算の結了等,,,2015-10-05,1,,,,,ミジェル,0
1370,6120002058127,登記記録の閉鎖等,0,2022-02-17,2022-02-14,有限会社ライブハウス建築事務所,,有限会社,大阪府,豊中市,城山町１丁目３番７－５０５号,,27,203,5610803,,,2022-02-14,清算の結了等,,,2015-10-05,1,,,,,ライブハウスケンチクジムショ,0
1371,6120002065684,登記記録の閉鎖等,0,2022-02-17,2022-02-14,有限会社ヒラソル．ＣＯ,,有限会社,大阪府,大阪市西成区,岸里東１丁目６番６号エスティーノ聖天坂Ｂ１号室,,27,122,5570042,,,2022-02-14,清算の結了等,,,2015-10-05,1,,,,,ヒラソルシーオー,0
1377,6120101027908,登記記録の閉鎖等,0,2022-02-17,2022-02-04,さくらファーム株式会社,,株式会社,大阪府,和泉市,光明台２丁目３４番７号,,27,219,5941111,,,2022-02-04,清算の結了等,,,2015-10-05,1,,,,,サクラファーム,0
1384,6122001007460,登記記録の閉鎖等,0,2022-02-17,2022-02-16,株式会社マルウチ精密金型製作所,,株式会社,大阪府,東大阪市,加納４丁目１４番１４号,,27,227,5780901,,,2022-02-16,清算の結了等,,,2015-10-05,1,,,,,,0
1385,6130001022306,登記記録の閉鎖等,0,2022-02-17,2022-02-15,株式会社フォトカツラ,,株式会社,京都府,京都市中京区,三条通御幸町東入弁慶石町５７番地,,26,104,6048082,,,2022-02-15,清算の結了等,,,2015-10-05,1,,,,,フォトカツラ,0
1409,6180002034576,登記記録の閉鎖等,0,2022-02-17,2022-02-14,有限会社ぼんち,,有限会社,愛知県,名古屋市北区,御成通４丁目２２番地,,23,103,4620807,,,2022-02-14,清算の結了等,,,2015-10-05,1,,,,,ボンチ,0
1430,6240001047969,登記記録の閉鎖等,0,2022-02-17,2022-02-15,株式会社ＨＩＦ－Ｂ,,株式会社,広島県,広島市中区,袋町３番１７号,,34,101,7300036,,,2022-02-15,清算の結了等,,,2015-10-05,1,,,,,エイチアイエフビー,0
1443,6290001053723,登記記録の閉鎖等,0,2022-02-17,2022-02-14,株式会社エムビーエスコーポレーション,,株式会社,福岡県,大牟田市,大字唐船１１９番地の１,,40,202,8360003,,,2022-02-14,清算の結了等,,,2015-10-05,1,,,,,エムビーエスコーポレーション,0
1466,6390002005168,登記記録の閉鎖等,0,2022-02-17,2022-02-14,有限会社山瑛,,有限会社,山形県,山形市,馬見ケ崎３丁目１５番２０号,,06,201,9900810,,,2022-02-14,清算の結了等,,,2015-10-05,1,,,,,ヤマエイ,0
1482,7010003026935,登記記録の閉鎖等,0,2022-02-17,2022-02-16,富船マネージメント合同会社,,合同会社,東京都,千代田区,丸の内１丁目１１番１号,,13,101,1000005,,,2022-02-16,清算の結了等,,,2018-02-07,1,,,,,トミフネマネージメント,0
1499,7010501026924,登記記録の閉鎖等,0,2022-02-17,2022-02-14,株式会社ケースリー,,株式会社,東京都,台東区,東上野２丁目２２番５号,,13,106,1100015,,,2022-02-14,清算の結了等,,,2015-10-05,1,,,,,ケースリー,0
1504,7010801007509,登記記録の閉鎖等,0,2022-02-17,2022-02-01,株式会社ディ・ディ・ディ・アール,,株式会社,東京都,大田区,大森北１丁目１番６号,,13,111,1430016,,,2022-02-01,合併による解散等,7010801007921,令和４年２月１日東京都大田区大森北一丁目１番６号株式会社東京マネージメントコンサルテイング（7010801007921）に合併し解散,2015-10-05,1,,,,,ディディディアール,0
1512,7011002009749,登記記録の閉鎖等,0,2022-02-17,2022-02-02,有限会社ハイマック,,有限会社,東京都,渋谷区,神山町２５番７号,,13,113,1500047,,,2022-02-02,清算の結了等,,,2015-10-05,1,,,,,ハイマック,0
1544,7013302000734,登記記録の閉鎖等,0,2022-02-17,2022-02-09,有限会社アトリエディグ,,有限会社,東京都,豊島区,目白３丁目１３番２０号,,13,116,1710031,,,2022-02-09,清算の結了等,,,2015-10-05,1,,,,,アトリエディグ,0
1559,7021001033864,登記記録の閉鎖等,0,2022-02-17,2022-02-15,株式会社オールイン,,株式会社,京都府,京都市中京区,西ノ京北聖町２４－１中橋ビル１階,,26,104,6048382,,,2022-02-15,清算の結了等,,,2015-10-05,1,,,,,オールイン,0
1561,7021001045629,登記記録の閉鎖等,0,2022-02-17,2022-02-10,株式会社匯川通商,,株式会社,神奈川県,相模原市中央区,千代田２丁目７番２４号,,14,152,2520237,,,2022-02-10,清算の結了等,,,2015-10-05,1,,,,,カイカワツウショウ,0
1573,7040001033427,登記記録の閉鎖等,0,2022-02-17,2022-02-14,株式会社メディカル・ペイメント,,株式会社,東京都,千代田区,麹町５丁目１番地１,,13,101,1020083,,,2022-02-14,清算の結了等,,,2015-10-05,1,,,,,メディカルペイメント,0
1586,7050002030884,登記記録の閉鎖等,0,2022-02-17,2022-02-15,タクミ機設有限会社,,有限会社,茨城県,日立市,東成沢町３丁目６番１５号,,08,202,3160034,,,2022-02-15,清算の結了等,,,2015-10-05,1,,,,,タクミキセツ,0
1598,7100001024865,登記記録の閉鎖等,0,2022-02-17,2022-02-14,株式会社パートオブライフ,,株式会社,長野県,小諸市,御幸町１丁目１３番１６号,,20,208,3840005,,,2022-02-14,清算の結了等,,,2015-10-05,1,,,,,パートオブライフ,0
1615,7120005020462,登記記録の閉鎖等,0,2022-02-17,2022-02-14,一般社団法人全国基礎地盤技術振興協議会,,その他の設立登記法人,大阪府,大阪市鶴見区,鶴見３丁目１３番６３号,,27,124,5380053,,,2022-02-14,清算の結了等,,,2018-10-03,1,,,,,ゼンコクキソジバンギジュツシンコウキョウギカイ,0
1617,7120101027907,登記記録の閉鎖等,0,2022-02-17,2022-02-04,さくらフーズ株式会社,,株式会社,大阪府,堺市堺区,市之町東６丁２番１６号,,27,141,5900952,,,2022-02-04,清算の結了等,,,2015-10-05,1,,,,,サクラフーズ,0
1625,7120901029433,登記記録の閉鎖等,0,2022-02-17,2022-02-15,近畿産業株式会社,,株式会社,大阪府,豊中市,名神口１丁目６番１号,,27,203,5610841,,,2022-02-15,清算の結了等,,,2015-10-05,1,,,,,キンキサンギョウ,0
1658,7180002079827,登記記録の閉鎖等,0,2022-02-17,2022-02-10,有限会社みのり,,有限会社,愛知県,稲沢市,東畑２丁目１８番地,,23,220,4928247,,,2022-02-10,清算の結了等,,,2015-10-05,1,,,,,ミノリ,0
1677,7260003001517,登記記録の閉鎖等,0,2022-02-17,2022-02-15,ミラクル２合同会社,,合同会社,岡山県,岡山市北区,厚生町３丁目７番６－２０２号,,33,101,7000985,,,2022-02-15,清算の結了等,,,2015-10-05,1,,,,,ミラクルツー,0
1679,7270001005849,登記記録の閉鎖等,0,2022-02-17,2022-02-16,株式会社Ｔ．Ｆ．Ｍコーポレーション,,株式会社,鳥取県,鳥取市,南安長２丁目６９０番地１８,,31,201,6800914,,,2022-02-16,清算の結了等,,,2015-10-05,1,,,,,ティーエフエムコーポレーション,0
1682,7280005004169,登記記録の閉鎖等,0,2022-02-17,2022-02-16,株式会社ＭＰ,,株式会社,島根県,浜田市,三隅町三隅８９０番地１,,32,202,6993211,,,2022-02-16,清算の結了等,,,2015-10-05,1,,,,,,0
1686,7290001065288,登記記録の閉鎖等,0,2022-02-17,2022-02-14,株式会社ＧＳＴ,,株式会社,福岡県,那珂川市,今光２丁目８７,,40,231,8111211,,,2022-02-14,清算の結了等,,,2015-10-05,1,,,,,ジーエスティ,0
1697,7320003002129,登記記録の閉鎖等,0,2022-02-17,2022-02-15,合同会社ケアマネステーションシナモン,,合同会社,大分県,竹田市,荻町馬場４６８番地２,,44,208,8796115,,,2022-02-15,清算の結了等,,,2015-10-05,1,,,,,ケアマネステーションシナモン,0
1730,8010001178728,登記記録の閉鎖等,0,2022-02-17,2022-02-16,株式会社ファーストキャビン関西空港,,株式会社,東京都,千代田区,紀尾井町３番６号,,13,101,1020094,,,2022-02-16,清算の結了等,,,2016-10-11,1,,,,,ファーストキャビンカンサイクウコウ,0
1733,8010002006441,登記記録の閉鎖等,0,2022-02-17,2022-02-10,有限会社ラ・ヴォーグ,,有限会社,東京都,文京区,小石川４丁目５番１１－２０３号,,13,105,1120002,,,2022-02-10,清算の結了等,,,2015-10-05,1,,,,,ラヴォーグ,0
1734,8010003026934,登記記録の閉鎖等,0,2022-02-17,2022-02-16,富船プロパティー２合同会社,,合同会社,東京都,千代田区,丸の内１丁目１１番１号,,13,101,1000005,,,2022-02-16,清算の結了等,,,2018-02-07,1,,,,,トミフネプロパティーニ,0
1738,8010401106437,登記記録の閉鎖等,0,2022-02-17,2022-02-10,スカテック・ソーラー株式会社,,株式会社,東京都,港区,北青山２丁目５番１号,,13,103,1070061,,,2022-02-10,清算の結了等,,,2015-10-05,1,,,,,スカテックソーラー,0
1743,8010402011149,登記記録の閉鎖等,0,2022-02-17,2022-02-14,有限会社福島商店,,有限会社,東京都,港区,三田５丁目２０番８号,,13,103,1080073,,,2022-02-14,清算の結了等,,,2015-10-05,1,,,,,,0
1779,8011303001552,登記記録の閉鎖等,0,2022-02-17,2022-02-09,ＦＰアシスト合同会社,,合同会社,東京都,中野区,中野６丁目１２番８号ＡＳハイツ１０１,,13,114,1640001,,,2022-02-09,清算の結了等,,,2015-10-05,1,,,,,エフピーアシスト,0
1805,8020001020302,登記記録の閉鎖等,0,2022-02-17,2022-02-14,株式会社アイエスピイエム,,株式会社,神奈川県,横浜市港北区,綱島西２丁目４番１０号,,14,109,2230053,,,2022-02-14,合併による解散等,9020001030432,令和４年２月１２日横浜市港北区綱島西二丁目４番１０号株式会社アイエスピイ（9020001030432）に合併し解散,2015-10-05,1,,,,,アイエスピイエム,0
1813,8020001127824,登記記録の閉鎖等,0,2022-02-17,2022-02-14,株式会社エフ企画,,株式会社,神奈川県,横浜市旭区,上白根町８９１番地西ひかりが丘団地２０街区１１棟２０２号,,14,112,2410001,,,2022-02-14,清算の結了等,,,2018-09-05,1,,,,,エフキカク,0
1820,8020002083538,登記記録の閉鎖等,0,2022-02-17,2022-02-14,有限会社コスミツク歯研,,有限会社,神奈川県,川崎市中原区,新城１丁目１１番２０号,,14,133,2110044,,,2022-02-14,清算の結了等,,,2015-10-05,1,,,,,コスミツクシケン,0
1833,8030001029615,登記記録の閉鎖等,0,2022-02-17,2022-02-14,株式会社ＴＫサービス,,株式会社,埼玉県,入間市,東町７丁目４番１５号,,11,225,3580002,,,2022-02-14,清算の結了等,,,2015-10-05,1,,,,,ティーケーサービス,0
1845,8030002119679,登記記録の閉鎖等,0,2022-02-17,2022-02-14,有限会社トミヤマ,,有限会社,埼玉県,飯能市,大字双柳３５３番地１７３,,11,209,3570021,,,2022-02-14,清算の結了等,,,2015-10-05,1,,,,,トミヤマ,0
1850,8040002102196,登記記録の閉鎖等,0,2022-02-17,2022-02-09,有限会社奥田水産,,有限会社,千葉県,勝浦市,鵜原８４２番地の２,,12,218,2995243,,,2022-02-09,清算の結了等,,,2015-10-05,1,,,,,,0
1852,8040005007780,登記記録の閉鎖等,0,2022-02-17,2022-02-07,医療法人社団祥三会,,その他の設立登記法人,千葉県,船橋市,本町７丁目２７番２０号村野ビル２階２－Ｃ,,12,204,2730005,,,2022-02-07,清算の結了等,,,2015-10-05,1,,,,,ショウザンカイ,0
1862,8070001033340,登記記録の閉鎖等,0,2022-02-17,2022-02-09,株式会社キヨフジ,,株式会社,群馬県,高崎市,沖町４８６番地２５７,,10,202,3700086,,,2022-02-09,清算の結了等,,,2017-04-11,1,,,,,キヨフジ,0
1864,8080101020089,登記記録の閉鎖等,0,2022-02-17,2022-02-16,株式会社ＭＡＴＳＵＫＡＺＥ,,株式会社,静岡県,駿東郡清水町,長沢６２１－１,,22,341,4110905,,,2022-02-16,清算の結了等,,,2017-10-02,1,,,,,マツカゼ,0
1865,8080102001641,登記記録の閉鎖等,0,2022-02-17,2022-02-15,有限会社静浦自動車工業,,有限会社,静岡県,沼津市,志下４９８番地の１,,22,203,4100106,,,2022-02-15,清算の結了等,,,2015-10-05,1,,,,,シズウラジドウシャコウギョウ,0
1870,8080401015301,登記記録の閉鎖等,0,2022-02-17,2022-02-15,株式会社アシスト,,株式会社,静岡県,菊川市,下平川６２６８番地,,22,224,4371514,,,2022-02-15,清算の結了等,,,2015-10-05,1,,,,,アシスト,0
1881,8120001012495,登記記録の閉鎖等,0,2022-02-17,2022-02-10,株式会社ジェーエッチシー,,株式会社,大阪府,大阪市東成区,深江南１丁目１４番２０号,,27,115,5370002,,,2022-02-10,清算の結了等,,,2015-10-05,1,,,,,ジェーエッチシー,0
1893,8120002015885,登記記録の閉鎖等,0,2022-02-17,2022-02-14,有限会社豊月堂,,有限会社,大阪府,大阪市港区,八幡屋２丁目２番１５号,,27,107,5520014,,,2022-02-14,清算の結了等,,,2015-10-05,1,,,,,ホウゲツドウ,0
1898,8120102006660,登記記録の閉鎖等,0,2022-02-17,2022-02-10,有限会社サーティワン商事,,有限会社,大阪府,堺市中区,堀上町１０３３番地,,27,142,5998261,,,2022-02-10,清算の結了等,,,2015-10-05,1,,,,,サーティワンショウジ,0
1911,8180001070430,登記記録の閉鎖等,0,2022-02-17,2022-02-14,溝口建設株式会社,,株式会社,愛知県,名古屋市西区,大野木４丁目３６７番地マイネビル１０１号,,23,104,4520803,,,2022-02-14,清算の結了等,,,2015-10-05,1,,,,,ミゾグチケンセツ,0
1933,8200002004624,登記記録の閉鎖等,0,2022-02-17,2022-02-16,有限会社三島インテリア,,有限会社,岐阜県,岐阜市,太郎丸知之道２５２番地,,21,201,5012579,,,2022-02-16,清算の結了等,,,2015-10-05,1,,,,,ミシマインテリア,0
1938,8220001017484,登記記録の閉鎖等,0,2022-02-17,2022-02-03,株式会社クラハシ,,株式会社,石川県,河北郡津幡町,字横浜へ６６番地,,17,361,9290341,,,2022-02-03,清算の結了等,,,2015-10-05,1,,,,,クラハシ,0
1939,8240001021955,登記記録の閉鎖等,0,2022-02-17,2022-02-16,株式会社ＺＥＲＯ,,株式会社,広島県,広島市西区,横川町３丁目１０番２０号,,34,104,7330011,,,2022-02-16,清算の結了等,,,2015-10-05,1,,,,,ゼロ,0
1941,8240002028727,登記記録の閉鎖等,0,2022-02-17,2022-02-14,有限会社ケイコーポレーション,,有限会社,広島県,東広島市,西条町寺家５４８４番地の１,,34,212,7390041,,,2022-02-14,清算の結了等,,,2015-10-05,1,,,,,ケイコーポレーション,0
1946,8250001009495,登記記録の閉鎖等,0,2022-02-17,2022-02-10,株式会社山陽開発,,株式会社,山口県,下松市,大字西豊井１３６８番地の４８,,35,207,7440011,,,2022-02-10,清算の結了等,,,2015-10-05,1,,,,,サンヨウカイハツ,0
1962,8320001018159,登記記録の閉鎖等,0,2022-02-17,2022-02-15,株式会社功仁会,,株式会社,大分県,大分市,東野台２丁目１番,,44,201,8700867,,,2022-02-15,清算の結了等,,,2021-01-22,1,,,,,コウジンカイ,0
1970,8360003001547,登記記録の閉鎖等,0,2022-02-17,2022-02-14,合名会社五泉工房,,合名会社,沖縄県,那覇市,松尾１丁目９番１７号,,47,201,9000014,,,2022-02-14,清算の結了等,,,2015-10-05,1,,,,,ゴセンコウボウ,0
1973,8380001007932,登記記録の閉鎖等,0,2022-02-17,2022-02-14,株式会社建設たむら,,株式会社,福島県,田村郡小野町,大字小野新町字中通１８番地,,07,522,9633401,,,2022-02-14,清算の結了等,,,2015-10-05,1,,,,,,0
1979,8380002035569,登記記録の閉鎖等,0,2022-02-17,2022-02-15,有限会社中山建設工業,,有限会社,福島県,南会津郡下郷町,大字中山字中平２５番地,,07,362,9695325,,,2022-02-15,清算の結了等,,,2015-10-05,1,,,,,,0
1986,8430001052080,登記記録の閉鎖等,0,2022-02-17,2022-02-10,ホンダプリモ岩内株式会社,,株式会社,北海道,岩内郡共和町,梨野舞納１７番地の１７,,01,401,0450031,,,2022-02-10,清算の結了等,,,2015-10-05,1,,,,,ホンダプリモイワナイ,0
1993,8470002001116,登記記録の閉鎖等,0,2022-02-17,2022-02-15,有限会社岩野薬局,,有限会社,香川県,高松市,宮脇町１丁目３３番１３号,,37,201,7600005,,,2022-02-15,清算の結了等,,,2015-10-05,1,,,,,イワノヤッキョク,0
1998,8500002019468,登記記録の閉鎖等,0,2022-02-17,2022-02-14,有限会社吉井鮮魚,,有限会社,愛媛県,今治市,黄金町２丁目４番地８,,38,202,7940037,,,2022-02-14,清算の結了等,,,2015-10-05,1,,,,,ヨシイセンギョ,0
2004,9010001045885,登記記録の閉鎖等,0,2022-02-17,2022-02-07,信誠印刷株式会社,,株式会社,東京都,中央区,新富１丁目１１番７号ミツヤ第３ビル５Ｆ,,13,102,1040041,,,2022-02-07,清算の結了等,,,2015-10-05,1,,,,,シンセイインサツ,0
2011,9010003026933,登記記録の閉鎖等,0,2022-02-17,2022-02-16,富船プロパティー１合同会社,,合同会社,東京都,千代田区,丸の内１丁目１１番１号,,13,101,1000005,,,2022-02-16,清算の結了等,,,2018-02-07,1,,,,,トミフネプロパティーイチ,0
2015,9010005027541,登記記録の閉鎖等,0,2022-02-17,2022-02-15,一般社団法人日本マクロヘルス協会,,その他の設立登記法人,東京都,中央区,八丁堀２丁目１９番７号,,13,102,1040032,,,2022-02-15,清算の結了等,,,2017-10-04,1,,,,,ニホンマクロヘルスキョウカイ,0
2036,9011101061054,登記記録の閉鎖等,0,2022-02-17,2022-02-14,ＧＧＭ株式会社,,株式会社,東京都,港区,南青山３丁目１番３０号エイベックスビルコワーキングスペース「ａｖｅｘＥＹＥ」内,,13,103,1070062,,,2022-02-14,清算の結了等,,,2015-10-05,1,,,,,ジージーエム,0
2054,9011702013833,登記記録の閉鎖等,0,2022-02-17,2022-02-15,有限会社旭洋研磨,,有限会社,東京都,江戸川区,松江４丁目２３番１８号,,13,123,1320025,,,2022-02-15,清算の結了等,,,2015-10-05,1,,,,,キョクヨウケンマ,0
2071,9012802003328,登記記録の閉鎖等,0,2022-02-17,2022-02-08,有限会社多摩マネージメントシステム,,有限会社,東京都,昭島市,緑町４丁目２２番３号,,13,207,1960004,,,2022-02-08,清算の結了等,,,2015-10-05,1,,,,,タママネージメントシステム,0
2075,9013303005458,登記記録の閉鎖等,0,2022-02-17,2022-02-10,合同会社ＩＭＳコーポレーション,,合同会社,東京都,豊島区,南池袋３丁目１３番９号ビスハイム池袋９０１号室,,13,116,1710022,,,2022-02-10,清算の結了等,,,2020-12-28,1,,,,,アイエムエスコーポレーション,0
2102,9021003010083,登記記録の閉鎖等,0,2022-02-17,2022-02-14,ＲＩＯ　ＳＨＯＫＡＩ合同会社,,合同会社,神奈川県,高座郡寒川町,倉見１８９１番地１,,14,321,2530101,,,2022-02-14,清算の結了等,,,2021-01-22,1,,,,,リオショウカイ,0
2115,9040002059015,登記記録の閉鎖等,0,2022-02-17,2022-02-09,有限会社アレッツ,,有限会社,千葉県,白井市,冨士３３番地４,,12,232,2701432,,,2022-02-09,清算の結了等,,,2015-10-05,1,,,,,アレッツ,0
2117,9040003017830,登記記録の閉鎖等,0,2022-02-17,2022-02-07,合同会社熊谷工業,,合同会社,千葉県,佐倉市,ユーカリが丘４丁目１番Ｅ－２９０３号,,12,212,2850858,,,2022-02-07,清算の結了等,,,2021-05-26,1,,,,,クマガイコウギョウ,0
2122,9050002006123,登記記録の閉鎖等,0,2022-02-17,2022-02-14,有限会社スギムラ,,有限会社,茨城県,水戸市,笠原町１２４６番地の４１,,08,201,3100852,,,2022-02-14,清算の結了等,,,2015-10-05,1,,,,,スギムラ,0
2151,9120002003501,登記記録の閉鎖等,0,2022-02-17,2022-02-16,有限会社ニュー丹波,,有限会社,大阪府,大阪市阿倍野区,昭和町１丁目５番２５号,,27,119,5450011,,,2022-02-16,清算の結了等,,,2015-10-05,1,,,,,ニュータンバ,0
2170,9150002001188,登記記録の閉鎖等,0,2022-02-17,2022-02-14,ときわ産業有限会社,,有限会社,奈良県,奈良市,東九条町８４２番地の１,,29,201,6308144,,,2022-02-14,清算の結了等,,,2015-10-05,1,,,,,トキワサンギョウ,0
2185,9190002023006,登記記録の閉鎖等,0,2022-02-17,2022-02-15,有限会社キドウ工業,,有限会社,三重県,三重郡菰野町,大字竹成３７０番地４０,,24,341,5101312,,,2022-02-15,清算の結了等,,,2015-10-05,1,,,,,キドウコウギョウ,0
2186,9190002023889,登記記録の閉鎖等,0,2022-02-17,2022-02-14,有限会社カヒロシステムパートナー,,有限会社,三重県,四日市市,尾平町２９３４番地,,24,202,5120921,,,2022-02-14,清算の結了等,,,2015-10-05,1,,,,,カヒロシステムパートナー,0
2208,9290001078370,登記記録の閉鎖等,0,2022-02-17,2022-02-10,エミリング株式会社,,株式会社,福岡県,筑紫野市,二日市中央１丁目１２番２２号,,40,217,8180072,,,2022-02-10,合併による解散等,3290001036086,令和４年２月１０日福岡市博多区東比恵四丁目４番８－４０３号九州レンタルサポート株式会社（3290001036086）に合併し解散,2017-07-11,1,,,,,エミリング,0
2235,9420002011218,登記記録の閉鎖等,0,2022-02-17,2022-02-15,有限会社高松建設,,有限会社,青森県,五所川原市,字烏森６１５番地,,02,205,0370032,,,2022-02-15,清算の結了等,,,2015-10-05,1,,,,,タカマツケンセツ,0
