sequenceNumber,corporateNumber,process,correct,updateDate,changeDate,name,nameImageId,kind,prefectureName,cityName,streetNumber,addressImageId,prefectureCode,cityCode,postCode,addressOutside,addressOutsideImageId,closeDate,closeCause,successorCorporateNumber,changeCause,assignmentDate,latest,enName,enPrefectureName,enCityName,enAddressOutside,furigana,hihyoji
13,1010001248553,新規,0,2024-09-30,2024-09-30,株式会社インナーセンスアジア,,株式会社,東京都,千代田区,麹町５丁目７番地１,,13,101,1020083,,,,,,,2024-09-30,1,,,,,インナーセンスアジア,0
14,1010001248561,新規,0,2024-09-30,2024-09-30,タイムラックス株式会社,,株式会社,東京都,中央区,新川１丁目６番１１号ニューリバータワー９０１,,13,102,1040033,,,,,,,2024-09-30,1,,,,,タイムラックス,0
15,1010001248578,新規,0,2024-09-30,2024-09-30,株式会社村石産業,,株式会社,東京都,文京区,大塚６丁目８番３号１Ｆ,,13,105,1120012,,,,,,,2024-09-30,1,,,,,ムライシサンギョウ,0
16,1010001248586,新規,0,2024-09-30,2024-09-30,エスキャピタル株式会社,,株式会社,東京都,千代田区,四番町４－９東越伯鷹ビル５階,,13,101,1020081,,,,,,,2024-09-30,1,,,,,エスキャピタル,0
17,1010001248603,新規,0,2024-09-30,2024-09-30,開明株式会社,,株式会社,東京都,千代田区,岩本町３丁目６番１０号,,13,101,1010032,,,,,,,2024-09-30,1,,,,,カイメイ,0
18,1010001248611,新規,0,2024-09-30,2024-09-30,株式会社ネオナアド,,株式会社,東京都,千代田区,神田須田町２丁目２５番地ＧＹＢ秋葉原４Ｆ,,13,101,1010041,,,,,,,2024-09-30,1,,,,,ネオナアド,0
27,1010003044983,新規,0,2024-09-30,2024-09-30,Ｒｏｂｕｓｔ合同会社,,合同会社,東京都,八丈島八丈町,三根２８番地１,,13,401,1001511,,,,,,,2024-09-30,1,,,,,ロバスト,0
28,1010003045016,新規,0,2024-09-30,2024-09-30,Ｎスタイル合同会社,,合同会社,東京都,文京区,本郷３丁目４３番地１４号グランドメゾン本郷参丁目２０２号室,,13,105,1130033,,,,,,,2024-09-30,1,,,,,エヌスタイル,0
29,1010005038884,新規,0,2024-09-30,2024-09-30,ＧＬＰＤＣ２一般社団法人,,その他の設立登記法人,東京都,千代田区,丸の内１丁目４番１号東京共同会計事務所内,,13,101,1000005,,,,,,,2024-09-30,1,,,,,ジーエルピーディーシーツー,0
34,1010405023610,新規,0,2024-09-30,2024-09-30,スプリングホールディング２一般社団法人,,その他の設立登記法人,東京都,港区,虎ノ門３丁目２２番１０－２０１号,,13,103,1050001,,,,,,,2024-09-30,1,,,,,スプリングホールディングツー,0
35,1010501052959,新規,0,2024-09-30,2024-09-30,株式会社ＲＵＳＨ,,株式会社,東京都,台東区,橋場１丁目３６番１１－１００９号カーサ浅草桜橋,,13,106,1110023,,,,,,,2024-09-30,1,,,,,ラッシュ,0
41,1010701046595,新規,0,2024-09-30,2024-09-30,株式会社湊屋,,株式会社,東京都,品川区,南大井５丁目２７番１１号,,13,109,1400013,,,,,,,2024-09-30,1,,,,,ミナトヤ,0
43,1010801035416,新規,0,2024-09-30,2024-09-30,Ｋｍｅｔｒｉｃ株式会社,,株式会社,東京都,大田区,雪谷大塚町１０番１－８０２号,,13,111,1450067,,,,,,,2024-09-30,1,,,,,ケーメトリック,0
50,1011001164939,新規,0,2024-09-30,2024-09-30,ＦｏｃｕｓＦｉｒｓｔＡｄｖｉｓｏｒｓ株式会社,,株式会社,東京都,渋谷区,渋谷２丁目１９‐１５宮益坂ビルディング,,13,113,1500002,,,,,,,2024-09-30,1,,,,,フォーカスファーストアドバイザーズ,0
53,1011005010676,新規,0,2024-09-30,2024-09-30,医療法人社団怜美会,,その他の設立登記法人,東京都,渋谷区,恵比寿南１丁目２番９号小林ビル３階,,13,113,1500022,,,,,,,2024-09-30,1,,,,,レイビカイ,0
54,1011005010684,新規,0,2024-09-30,2024-09-30,社会保険労務士法人あやめ,,その他の設立登記法人,東京都,渋谷区,恵比寿西１丁目１７番２号シャルマンコーポ恵比寿４０８,,13,113,1500021,,,,,,,2024-09-30,1,,,,,アヤメ,0
57,1011101108928,新規,0,2024-09-30,2024-09-30,株式会社アルバトロス,,株式会社,東京都,新宿区,新宿１丁目１５番５号カテリーナ新宿御苑駅前５０４,,13,104,1600022,,,,,,,2024-09-30,1,,,,,アルバトロス,0
58,1011103014975,新規,0,2024-09-30,2024-09-30,ＬＥＮ合同会社,,合同会社,東京都,新宿区,西新宿３丁目３番１３号西新宿水間ビル２Ｆ,,13,104,1600023,,,,,,,2024-09-30,1,,,,,レン,0
64,1011501031192,新規,0,2024-09-30,2024-09-30,育華株式会社,,株式会社,東京都,北区,十条仲原１丁目３－５鈴木ビル２０６号室,,13,117,1140031,,,,,,,2024-09-30,1,,,,,イクカ,0
66,1011603004468,新規,0,2024-09-30,2024-09-30,合同会社アジア太平洋文化研究所,,合同会社,東京都,練馬区,上石神井南町１１番１２号,,13,120,1770043,,,,,,,2024-09-30,1,,,,,アジアタイヘイヨウブンカケンキュウショ,0
67,1011801044910,新規,0,2024-09-30,2024-09-30,株式会社楽道,,株式会社,東京都,葛飾区,四つ木５丁目１９番地１７マイキャッスルお花茶屋２０６,,13,122,1240011,,,,,,,2024-09-30,1,,,,,ラクドウ,0
68,1011803006479,新規,0,2024-09-30,2024-09-30,合同会社かるたけ,,合同会社,東京都,足立区,関原３丁目３１番１７－２０１号第二サンシャイン関原,,13,121,1230852,,,,,,,2024-09-30,1,,,,,カルタケ,0
71,1012401042313,新規,0,2024-09-30,2024-09-30,Ｇａｒａｇｅ　Ｎａｒｒｏｗ株式会社,,株式会社,東京都,調布市,多摩川３丁目１１番地３,,13,208,1820025,,,,,,,2024-09-30,1,,,,,ガレージナロー,0
74,1012703003095,新規,0,2024-09-30,2024-09-30,合同会社ＥＳＧファクトリー,,合同会社,東京都,東村山市,萩山町３丁目３１番地５６－１１４号,,13,213,1890012,,,,,,,2024-09-30,1,,,,,イーエスジーファクトリー,0
81,1020001159262,新規,0,2024-09-30,2024-09-30,株式会社ツクルワ,,株式会社,神奈川県,横浜市西区,浅間町１丁目４－３ウィザードビル４０２,,14,103,2200072,,,,,,,2024-09-30,1,,,,,ツクルワ,0
82,1020001159270,新規,0,2024-09-30,2024-09-30,株式会社ＹＵＡＳＡ　ＣＯＭＰＡＮＹ,,株式会社,神奈川県,横浜市港北区,新吉田東８丁目２４番１５号,,14,109,2230058,,,,,,,2024-09-30,1,,,,,ユアサカンパニー,0
83,1020001159295,新規,0,2024-09-30,2024-09-30,株式会社瑞,,株式会社,神奈川県,横浜市港南区,日野６丁目１５番３６号,,14,111,2340051,,,,,,,2024-09-30,1,,,,,ズイ,0
89,1020005016567,新規,0,2024-09-30,2024-09-30,司法書士法人燈,,その他の設立登記法人,神奈川県,横浜市西区,北幸１丁目５番１０号ＪＰＲ横浜ビル９階,,14,103,2200004,,,,,,,2024-09-30,1,,,,,アカリ,0
100,1030001162645,新規,0,2024-09-30,2024-09-30,良恩堂株式会社,,株式会社,埼玉県,越谷市,元柳田町６番６２号ハピネスマンション２０１,,11,222,3430815,,,,,,,2024-09-30,1,,,,,リョウオンドウ,0
117,1050001055459,新規,0,2024-09-30,2024-09-30,株式会社ＬＩＭ　ＣＯＲＰＯＲＡＴＩＯＮ,,株式会社,茨城県,結城市,大字鹿窪７１番地,,08,207,3070015,,,,,,,2024-09-30,1,,,,,リムコーポレーション,0
123,1060003005262,新規,0,2024-09-30,2024-09-30,合同会社ＳＡＫＩＧＡＫＥ　ＥＡＳＴ,,合同会社,栃木県,鹿沼市,村井町２５１番地３,,09,205,3220048,,,,,,,2024-09-30,1,,,,,サキガケイースト,0
128,1080001026507,新規,0,2024-09-30,2024-09-30,株式会社ヒカリテラス,,株式会社,静岡県,島田市,中河町２７０番地の３,,22,209,4270041,,,,,,,2024-09-30,1,,,,,ヒカリテラス,0
141,1120001268821,新規,0,2024-09-30,2024-09-30,株式会社エニコミ,,株式会社,大阪府,大阪市西区,立売堀５丁目３番９号１１０２,,27,106,5500012,,,,,,,2024-09-30,1,,,,,エニコミ,0
147,1120003027614,新規,0,2024-09-30,2024-09-30,合同会社サザンクロス,,合同会社,大阪府,大阪市中央区,南船場１丁目５－１８第二クロスビル４０１号室,,27,128,5420081,,,,,,,2024-09-30,1,,,,,サザンクロス,0
150,1120101070334,新規,0,2024-09-30,2024-09-30,日生ホールディングス株式会社,,株式会社,大阪府,泉大津市,東助松町４丁目３番２号,,27,206,5950006,,,,,,,2024-09-30,1,,,,,ニッセイホールディングス,0
151,1120103006071,新規,0,2024-09-30,2024-09-30,合同会社きみ,,合同会社,大阪府,泉南市,信達大苗代１１２５番地,,27,228,5900505,,,,,,,2024-09-30,1,,,,,キミ,0
152,1120901049817,新規,0,2024-09-30,2024-09-30,Ｊｅ　ｔ’ａｄｏｒｅ株式会社,,株式会社,大阪府,豊中市,中桜塚４丁目２番２０の２号,00136433,27,203,5610881,,,,,,,2024-09-30,1,,,,,ジュタドール,0
160,1140001135920,新規,0,2024-09-30,2024-09-30,ＪＨＪＧ株式会社,,株式会社,兵庫県,神戸市灘区,楠丘町３丁目７番１９号,,28,102,6570024,,,,,,,2024-09-30,1,,,,,ジェイエイチジェイジー,0
164,1140005027214,新規,0,2024-09-30,2024-09-30,一般社団法人日本度量衡検査会,,その他の設立登記法人,兵庫県,神戸市中央区,多聞通２丁目１番５号,,28,110,6500015,,,,,,,2024-09-30,1,,,,,ニホンドリョウコウケンサカイ,0
165,1160001026242,新規,0,2024-09-30,2024-09-30,株式会社レイ・エステイト,,株式会社,滋賀県,大津市,尾花川８番３２号,,25,201,5200031,,,,,,,2024-09-30,1,,,,,レイエステイト,0
173,1180001163414,新規,0,2024-09-30,2024-09-30,株式会社Ａｎｄ　Ｓｍｉｌｅ,,株式会社,愛知県,一宮市,木曽川町玉ノ井字稲荷前２８９番地１,,23,203,4930004,,,,,,,2024-09-30,1,,,,,アンドスマイル,0
184,1200001042978,新規,0,2024-09-30,2024-09-30,株式会社Ｂｏｓｈｌａｎ,,株式会社,岐阜県,岐阜市,金園町１丁目１－３・１Ｆ,,21,201,5008113,,,,,,,2024-09-30,1,,,,,ボシュラン,0
186,1220001026228,新規,0,2024-09-30,2024-09-30,西出電気株式会社,,株式会社,石川県,小松市,安宅町リ４５番地２６６,,17,203,9230003,,,,,,,2024-09-30,1,,,,,ニシデデンキ,0
187,1230003002300,新規,0,2024-09-30,2024-09-30,ＡＭＴ　Ｉｎｔｅｒｎａｔｉｏｎａｌ合同会社,,合同会社,富山県,魚津市,木下新２７３番地,,16,204,9370011,,,,,,,2024-09-30,1,,,,,エーエムティインターナショナル,0
200,1290001107327,新規,0,2024-09-30,2024-09-30,鶴源株式会社,,株式会社,福岡県,福岡市東区,馬出２丁目２１－２７,,40,131,8120054,,,,,,,2024-09-30,1,,,,,カクゲン,0
201,1290001107343,新規,0,2024-09-30,2024-09-30,株式会社ＧＭＵＳ,,株式会社,福岡県,福岡市中央区,天神２丁目３番１０号天神パインクレスト７１９号,,40,133,8100001,,,,,,,2024-09-30,1,,,,,ジムース,0
202,1290003015841,新規,0,2024-09-30,2024-09-30,合同会社ケアプランサービスおおつか,,合同会社,福岡県,福岡市西区,姪の浜５丁目１９番１１号,,40,135,8190002,,,,,,,2024-09-30,1,,,,,ケアプランサービスオオツカ,0
203,1310001019222,新規,0,2024-09-30,2024-09-30,株式会社サンヤマト,,株式会社,長崎県,佐世保市,日宇町２０５９番地,,42,202,8571151,,,,,,,2024-09-30,1,,,,,サンヤマト,0
205,1330001032487,新規,0,2024-09-30,2024-09-30,株式会社Ｓスタイル,,株式会社,熊本県,熊本市中央区,八王寺町３番２７号,,43,101,8600831,,,,,,,2024-09-30,1,,,,,エススタイル,0
210,1340003004616,新規,0,2024-09-30,2024-09-30,合同会社ＳＤＪ,,合同会社,鹿児島県,熊毛郡中種子町,野間５２２７番地１,,46,501,8913604,,,,,,,2024-09-30,1,,,,,エスディジェイ,0
213,1370001051764,新規,0,2024-09-30,2024-09-30,株式会社レジリエンスギルド,,株式会社,宮城県,仙台市太白区,青山２丁目２５番１９号,,04,104,9820834,,,,,,,2024-09-30,1,,,,,レジリエンスギルド,0
223,1430001092752,新規,0,2024-09-30,2024-09-30,ＫＯＳ株式会社,,株式会社,北海道,千歳市,花園５丁目９番３号,,01,224,0660028,,,,,,,2024-09-30,1,,,,,コス,0
225,1430003016833,新規,0,2024-09-30,2024-09-30,合同会社ＣＨＯＰ,,合同会社,北海道,札幌市中央区,南九条西９丁目１番３５－６０２号,,01,101,0640809,,,,,,,2024-09-30,1,,,,,チョップ,0
237,2010001248528,新規,0,2024-09-30,2024-09-30,ＱＴＯＲＹ株式会社,,株式会社,東京都,中央区,新川１丁目１０番１０号とらい館６Ｆ,,13,102,1040033,,,,,,,2024-09-30,1,,,,,キュートリー,0
238,2010001248569,新規,0,2024-09-30,2024-09-30,株式会社Ｗ　ＥＩＧＨＴ,,株式会社,東京都,中央区,築地２丁目８番１－３０５号築地永谷タウンプラザ,,13,102,1040045,,,,,,,2024-09-30,1,,,,,ダブルエイト,0
239,2010001248577,新規,0,2024-09-30,2024-09-30,株式会社Ｏｌｐｅａｋ,,株式会社,東京都,中央区,銀座１丁目１２番４号Ｎ＆ＥＢＬＤ．６Ｆ,,13,102,1040061,,,,,,,2024-09-30,1,,,,,オルピーク,0
240,2010001248585,新規,0,2024-09-30,2024-09-30,株式会社グティ,,株式会社,東京都,中央区,日本橋室町１丁目１１番１２号日本橋水野ビル７階,,13,102,1030022,,,,,,,2024-09-30,1,,,,,グティ,0
241,2010001248593,新規,0,2024-09-30,2024-09-30,株式会社てん,,株式会社,東京都,千代田区,神田須田町２丁目２３番２３号ワンサードレジデンス２Ｆ,,13,101,1010041,,,,,,,2024-09-30,1,,,,,テン,0
242,2010001248602,新規,0,2024-09-30,2024-09-30,ＤＷ株式会社,,株式会社,東京都,中央区,勝どき４丁目６番１－３４２４号,,13,102,1040054,,,,,,,2024-09-30,1,,,,,ディーダブリュー,0
245,2010003045031,新規,0,2024-09-30,2024-09-30,合同会社ＣＢ２,,合同会社,東京都,中央区,日本橋１丁目４番１号,,13,102,1030027,,,,,,,2024-09-30,1,,,,,シービーツー,0
248,2010005038867,新規,0,2024-09-30,2024-09-30,特定非営利活動法人Ｌｅａｒｎｉｎｇ　ａｓ　Ｄｅｖｅｌｏｐｍｅｎｔ　ｆｏｒ　Ａｌｌ,,その他の設立登記法人,東京都,文京区,関口２丁目４番１９－４０６号,,13,105,1120014,,,,,,,2024-09-30,1,,,,,ラーニングアズディベロップメントフォーオール,0
249,2010005038883,新規,0,2024-09-30,2024-09-30,ＧＬＰＰＦ一般社団法人,,その他の設立登記法人,東京都,千代田区,丸の内１丁目４番１号東京共同会計事務所内,,13,101,1000005,,,,,,,2024-09-30,1,,,,,ジーエルピーピーエフ,0
255,2010401185379,新規,0,2024-09-30,2024-09-30,Ｐｈａｎｔｏｍ株式会社,,株式会社,東京都,港区,海岸１丁目１９番４号国分マンション１１０１,,13,103,1050022,,,,,,,2024-09-30,1,,,,,ファントム,0
256,2010401185395,新規,0,2024-09-30,2024-09-30,ＢＥＴＴＥＲ　ＤＡＹＳ　ＰＲＩＯＲＩＴＹ株式会社,,株式会社,東京都,港区,南青山２丁目２７番２８号１１階,,13,103,1070062,,,,,,,2024-09-30,1,,,,,ベターデイズプライオリティ,0
258,2010601066008,新規,0,2024-09-30,2024-09-30,プラスコード株式会社,,株式会社,東京都,江東区,東砂６丁目１９番１８号,,13,108,1360074,,,,,,,2024-09-30,1,,,,,プラスコード,0
259,2010701046594,新規,0,2024-09-30,2024-09-30,株式会社マタギヴィジュアル,,株式会社,東京都,品川区,東大井６丁目７番９号,,13,109,1400011,,,,,,,2024-09-30,1,,,,,マタギヴィジュアル,0
260,2010701046603,新規,0,2024-09-30,2024-09-30,株式会社ＯＶＥＲ,,株式会社,東京都,品川区,旗の台６丁目２８番８号,,13,109,1420064,,,,,,,2024-09-30,1,,,,,オーバー,0
261,2010703007363,新規,0,2024-09-30,2024-09-30,合同会社所縁,,合同会社,東京都,品川区,東五反田４丁目１０番２２号パークアクシス池田山６０９,,13,109,1410022,,,,,,,2024-09-30,1,,,,,,0
263,2010801035423,新規,0,2024-09-30,2024-09-30,株式会社Ａｎｔ　Ｃｏｎｓｕｌｔｉｎｇ,,株式会社,東京都,大田区,東嶺町７番８－２０３号,,13,111,1450074,,,,,,,2024-09-30,1,,,,,アントコンサルティング,0
264,2010803005110,新規,0,2024-09-30,2024-09-30,合同会社人事天命,,合同会社,東京都,大田区,山王１丁目４１番５－７０１号,,13,111,1430023,,,,,,,2024-09-30,1,,,,,ジンジテンメイ,0
280,2011303005303,新規,0,2024-09-30,2024-09-30,合同会社メディア・ベース,,合同会社,東京都,杉並区,南荻窪２丁目６番１４－００４号,,13,115,1670052,,,,,,,2024-09-30,1,,,,,メディアベース,0
282,2011601028088,新規,0,2024-09-30,2024-09-30,昇龍工業株式会社,,株式会社,東京都,練馬区,東大泉３丁目５９番５－７０１,,13,120,1780063,,,,,,,2024-09-30,1,,,,,ショウリュウコウギョウ,0
283,2011603004467,新規,0,2024-09-30,2024-09-30,合同会社ＲＡＦＴ,,合同会社,東京都,練馬区,大泉学園町７丁目５番１９号,,13,120,1780061,,,,,,,2024-09-30,1,,,,,ラフト,0
286,2011701027650,新規,0,2024-09-30,2024-09-30,旭日東昇株式会社,,株式会社,東京都,江戸川区,上一色３丁目８－５－２０１号,,13,123,1330041,,,,,,,2024-09-30,1,,,,,キョクジツトウショウ,0
288,2011803006478,新規,0,2024-09-30,2024-09-30,合同会社ＬＯＡ,,合同会社,東京都,足立区,小台２丁目３６－２,,13,121,1200046,,,,,,,2024-09-30,1,,,,,ロア,0
294,2013301053143,新規,0,2024-09-30,2024-09-30,デイペイ株式会社,,株式会社,東京都,豊島区,東池袋５丁目７番３号アゼリア東池袋４０１,,13,116,1700013,,,,,,,2024-09-30,1,,,,,デイペイ,0
299,2020001159245,新規,0,2024-09-30,2024-09-30,株式会社Ｒｅｉｓｈａｌｌ,,株式会社,神奈川県,川崎市多摩区,菅稲田堤１丁目１６番１８－４０３号,,14,135,2140003,,,,,,,2024-09-30,1,,,,,レイシャル,0
300,2020001159286,新規,0,2024-09-30,2024-09-30,株式会社Ｋ＆Ｊ,,株式会社,神奈川県,横浜市南区,吉野町１丁目１番地６－５０４号,,14,105,2320014,,,,,,,2024-09-30,1,,,,,ケイアンドジェイ,0
301,2020001159336,新規,0,2024-09-30,2024-09-30,株式会社ウィズ・ツー,,株式会社,神奈川県,横浜市神奈川区,斎藤分町６番３３号,,14,102,2210811,,,,,,,2024-09-30,1,,,,,ウィズツー,0
307,2021001083328,新規,0,2024-09-30,2024-09-30,ホーム企画株式会社,,株式会社,神奈川県,座間市,小松原１丁目２７番１号,,14,216,2520002,,,,,,,2024-09-30,1,,,,,ホームキカク,0
308,2021001083336,新規,0,2024-09-30,2024-09-30,株式会社ＮＡＴＵＲＡＬ　ＭＡＤＥ,,株式会社,神奈川県,大和市,南林間１丁目７－９・３階,,14,213,2420006,,,,,,,2024-09-30,1,,,,,ナチュラルメイド,0
309,2021001083344,新規,0,2024-09-30,2024-09-30,株式会社伊藤電設,,株式会社,神奈川県,相模原市中央区,相模原６丁目１０番１２－１号,,14,152,2520231,,,,,,,2024-09-30,1,,,,,イトウデンセツ,0
310,2021001083360,新規,0,2024-09-30,2024-09-30,株式会社オルビス,,株式会社,神奈川県,小田原市,南鴨宮２丁目３８番８号,,14,206,2500875,,,,,,,2024-09-30,1,,,,,オルビス,0
314,2021003015048,新規,0,2024-09-30,2024-09-30,合同会社Ｐｌｕｍａ,,合同会社,神奈川県,大和市,中央３丁目４番２６号１Ｆ東,,14,213,2420021,,,,,,,2024-09-30,1,,,,,プルマ,0
330,2040003025872,新規,0,2024-09-30,2024-09-30,合同会社ＴＨＲＥＥ　ＰＩＥＣＥ,,合同会社,千葉県,八千代市,勝田台１丁目７－１京成サンコーポＤ－１０３,,12,221,2760023,,,,,,,2024-09-30,1,,,,,,0
336,2060001037513,新規,0,2024-09-30,2024-09-30,株式会社フロンティア,,株式会社,栃木県,宇都宮市,星が丘１丁目２番１４号,,09,201,3200038,,,,,,,2024-09-30,1,,,,,フロンティア,0
338,2060003005261,新規,0,2024-09-30,2024-09-30,合同会社ＷＡＷＡＷＡ,,合同会社,栃木県,日光市,瀬尾５４８,,09,206,3211264,,,,,,,2024-09-30,1,,,,,ワワワ,0
345,2090001018931,新規,0,2024-09-30,2024-09-30,株式会社花京,,株式会社,山梨県,笛吹市,石和町川中島１１６番地,,19,211,4060024,,,,,,,2024-09-30,1,,,,,カキョウ,0
347,2100001037871,新規,0,2024-09-30,2024-09-30,株式会社エイ・エル・エー,,株式会社,長野県,松本市,渚３丁目４番１７号,,20,202,3900841,,,,,,,2024-09-30,1,,,,,エイエルエー,0
356,2120001268738,新規,0,2024-09-30,2024-09-30,株式会社ナナ,,株式会社,大阪府,寝屋川市,成田南町１９－５３－１０,,27,215,5720003,,,,,,,2024-09-30,1,,,,,ナナ,0
357,2120001268820,新規,0,2024-09-30,2024-09-30,株式会社ミサキビル,,株式会社,大阪府,大阪市住吉区,長居東３丁目７番１９号,,27,120,5580004,,,,,,,2024-09-30,1,,,,,ミサキビル,0
358,2120001268903,新規,0,2024-09-30,2024-09-30,株式会社ひらく,,株式会社,大阪府,大阪市中央区,松屋町住吉６番１６号,,27,128,5400017,,,,,,,2024-09-30,1,,,,,ヒラク,0
361,2120101070333,新規,0,2024-09-30,2024-09-30,株式会社ＹＦＣ,,株式会社,大阪府,泉佐野市,羽倉崎上町２丁目３４４７番地の１,,27,213,5980037,,,,,,,2024-09-30,1,,,,,ワイエフシー,0
365,2120901049816,新規,0,2024-09-30,2024-09-30,ＧＵＣＡＳＥ株式会社,,株式会社,大阪府,吹田市,藤白台１丁目１番８－５０３号,,27,205,5650873,,,,,,,2024-09-30,1,,,,,ジーユーケース,0
367,2122001038476,新規,0,2024-09-30,2024-09-30,藤田造園土木株式会社,,株式会社,大阪府,八尾市,東山本町１丁目１１番１２号,,27,212,5810847,,,,,,,2024-09-30,1,,,,,フジタゾウエンドボク,0
376,2140001135903,新規,0,2024-09-30,2024-09-30,株式会社ネストヘッド,,株式会社,兵庫県,三田市,弥生が丘５丁目１０番地９,,28,219,6691546,,,,,,,2024-09-30,1,,,,,ネストヘッド,0
377,2140001135911,新規,0,2024-09-30,2024-09-30,濱本不動産株式会社,,株式会社,兵庫県,加古郡稲美町,岡２６９２番地の２,,28,381,6751113,,,,,,,2024-09-30,1,,,,,ハマモトフドウサン,0
393,2170003002108,新規,0,2024-09-30,2024-09-30,ＳＫＹ　ＨＡＵＳ合名会社,,合名会社,和歌山県,海南市,阪井３１３番地,,30,202,6420024,,,,,,,2024-09-30,1,,,,,スカイハウス,0
396,2180001163355,新規,0,2024-09-30,2024-09-30,株式会社フリーヒルズラボ,,株式会社,愛知県,名古屋市千種区,自由ケ丘１丁目２愛知工業大学自由が丘キャンパス内,,23,101,4640044,,,,,,,2024-09-30,1,,,,,フリーヒルズラボ,0
397,2180001163363,新規,0,2024-09-30,2024-09-30,株式会社ライデル,,株式会社,愛知県,名古屋市中村区,黄金通５丁目３１番地プレサンスロジェ名古屋黄金通６０３号,,23,105,4530804,,,,,,,2024-09-30,1,,,,,ライデル,0
398,2180001163396,新規,0,2024-09-30,2024-09-30,株式会社スカイアンリミット,,株式会社,愛知県,名古屋市西区,浄心本通３丁目３０番地の１,,23,104,4510073,,,,,,,2024-09-30,1,,,,,スカイアンリミット,0
399,2180001163438,新規,0,2024-09-30,2024-09-30,株式会社ＯＭＫ,,株式会社,愛知県,名古屋市東区,泉１丁目２２番７号,,23,102,4610001,,,,,,,2024-09-30,1,,,,,オーエムケー,0
403,2180003027351,新規,0,2024-09-30,2024-09-30,ＭＤＫ高橋合同会社,,合同会社,愛知県,名古屋市中村区,名駅４丁目２４番５号第２森ビル４０１,,23,105,4500002,,,,,,,2024-09-30,1,,,,,エムディケータカハシ,0
404,2180005020783,新規,0,2024-09-30,2024-09-30,一般社団法人ＪＡＳＴＡ,,その他の設立登記法人,愛知県,名古屋市中川区,百船町１５番１３号３Ｆ,,23,110,4540801,,,,,,,2024-09-30,1,,,,,ジャスタ,0
418,2230003002308,新規,0,2024-09-30,2024-09-30,合同会社しるばーサービス,,合同会社,富山県,富山市,上赤江町１丁目８‐４７‐８,,16,201,9300816,,,,,,,2024-09-30,1,,,,,シルバーサービス,0
431,2310001019221,新規,0,2024-09-30,2024-09-30,株式会社トムズワーカー,,株式会社,長崎県,諫早市,湯野尾町１７４番地,,42,204,8540092,,,,,,,2024-09-30,1,,,,,トムズワーカー,0
438,2330003010572,新規,0,2024-09-30,2024-09-30,合同会社寺崎工業,,合同会社,熊本県,熊本市北区,清水亀井町５０番６０号,,43,105,8618066,,,,,,,2024-09-30,1,,,,,テラサキコウギョウ,0
440,2340001026818,新規,0,2024-09-30,2024-09-30,株式会社ＣＩＥＬ,,株式会社,鹿児島県,鹿児島市,甲突町２２番１９号６０１,,46,201,8920837,,,,,,,2024-09-30,1,,,,,シエル,0
443,2350001019201,新規,0,2024-09-30,2024-09-30,株式会社アンダーパイン,,株式会社,宮崎県,宮崎市,宮田町３番１３号陣内ビル３０１号室,,45,201,8800804,,,,,,,2024-09-30,1,,,,,アンダーパイン,0
445,2370001006379,新規,0,2024-09-30,2024-09-30,株式会社渡喜,,株式会社,宮城県,仙台市宮城野区,蒲生２丁目３１番５,,04,102,9830002,,,,,,,2024-09-30,1,,,,,,0
447,2370001051763,新規,0,2024-09-30,2024-09-30,株式会社ＨＡＬＥＴＯ,,株式会社,宮城県,仙台市宮城野区,宮千代２丁目１番２号アイランドビル２階,,04,102,9830044,,,,,,,2024-09-30,1,,,,,ハレト,0
452,2430001092751,新規,0,2024-09-30,2024-09-30,株式会社リゾア,,株式会社,北海道,札幌市南区,藤野三条９丁目４番２５号,,01,106,0612283,,,,,,,2024-09-30,1,,,,,リゾア,0
453,2430003016832,新規,0,2024-09-30,2024-09-30,合同会社Ｎｏｒｄ　Ｒｅｖｉｓｉｏｎ,,合同会社,北海道,岩見沢市,五条西１１丁目２番地１７,,01,210,0680025,,,,,,,2024-09-30,1,,,,,ノールリヴィジョン,0
462,3010001248576,新規,0,2024-09-30,2024-09-30,ＴＭ　Ａｓｓｅｔ　Ｍａｎａｇｅｍｅｎｔ株式会社,,株式会社,東京都,中央区,新川２丁目１７番１５号ピアース東京インプレイス１１０３,,13,102,1040033,,,,,,,2024-09-30,1,,,,,ティーエムアセットマネジメント,0
463,3010001248601,新規,0,2024-09-30,2024-09-30,株式会社ｉ,,株式会社,東京都,千代田区,紀尾井町４－１,,13,101,1020094,,,,,,,2024-09-30,1,,,,,アイ,0
465,3010003044998,新規,0,2024-09-30,2024-09-30,合同会社ＷＩＺＨ,,合同会社,東京都,中央区,銀座１丁目２２番１１号銀座大竹ビジデンス２Ｆ,,13,102,1040061,,,,,,,2024-09-30,1,,,,,ウイズ,0
466,3010003045030,新規,0,2024-09-30,2024-09-30,合同会社シンプルクエスチョン,,合同会社,東京都,中央区,銀座１丁目１２番４号Ｎ＆ＥＢＬＤ．６Ｆ,,13,102,1040061,,,,,,,2024-09-30,1,,,,,シンプルクエスチョン,0
467,3010005038866,新規,0,2024-09-30,2024-09-30,一般財団法人樋口季一郎中将顕彰会,,その他の設立登記法人,東京都,中央区,京橋２丁目８番１号,,13,102,1040031,,,,,,,2024-09-30,1,,,,,ヒグチキイチロウチュウジョウケンショウカイ,0
468,3010005038874,新規,0,2024-09-30,2024-09-30,一般社団法人カーボンニュートラル,,その他の設立登記法人,東京都,中央区,京橋２丁目１２番６号ＡＯＪ税理士法人内,,13,102,1040031,,,,,,,2024-09-30,1,,,,,カーボンニュートラル,0
475,3010401185361,新規,0,2024-09-30,2024-09-30,株式会社Ｍｅｉｌｌｅｕｒｅ　ｖｉｅ,,株式会社,東京都,港区,六本木７丁目１５－７,,13,103,1060032,,,,,,,2024-09-30,1,,,,,ミラヴィ,0
476,3010401185378,新規,0,2024-09-30,2024-09-30,株式会社トライフォース,,株式会社,東京都,港区,元麻布２丁目１－７,,13,103,1060046,,,,,,,2024-09-30,1,,,,,トライフォース,0
478,3010405023609,新規,0,2024-09-30,2024-09-30,スプリングホールディング１一般社団法人,,その他の設立登記法人,東京都,港区,虎ノ門３丁目２２番１０－２０１号,,13,103,1050001,,,,,,,2024-09-30,1,,,,,スプリングホールディングワン,0
486,3011001164755,新規,0,2024-09-30,2024-09-30,Ｍｅｔｅｏｒａ株式会社,,株式会社,東京都,渋谷区,神宮前６丁目２３番４号桑野ビル２階,,13,113,1500001,,,,,,,2024-09-30,1,,,,,メテオラ,0
489,3011003020080,新規,0,2024-09-30,2024-09-30,合同会社Ｊｉｎｇｒｏｗ,,合同会社,東京都,目黒区,青葉台４丁目１番３－２０２号パルテール目黒青葉台,,13,110,1530042,,,,,,,2024-09-30,1,,,,,ジングロウ,0
496,3011305003007,新規,0,2024-09-30,2024-09-30,ＮＰＯ法人伝承伝説文化交流会,,その他の設立登記法人,東京都,杉並区,天沼３丁目７番１４号ハイリビング関根Ｂ２０２,,13,115,1670032,,,,,,,2024-09-30,1,,,,,デンショウデンセツブンカコウリュウカイ,0
501,3012701018473,新規,0,2024-09-30,2024-09-30,ラークヒルズ２４株式会社,,株式会社,東京都,西東京市,住吉町４丁目７番１４号,,13,229,2020005,,,,,,,2024-09-30,1,,,,,ラークヒルズトゥエンティフォー,0
509,3020001159252,新規,0,2024-09-30,2024-09-30,株式会社ＴＥＡＭ２１３,,株式会社,神奈川県,川崎市宮前区,平２丁目１５番２７－２号,,14,136,2160022,,,,,,,2024-09-30,1,,,,,チームニイイチサン,0
510,3020001159285,新規,0,2024-09-30,2024-09-30,株式会社エース,,株式会社,神奈川県,川崎市麻生区,東百合丘４丁目４９－５,,14,137,2150012,,,,,,,2024-09-30,1,,,,,エース,0
511,3020001159302,新規,0,2024-09-30,2024-09-30,京華商事株式会社,,株式会社,神奈川県,横浜市鶴見区,鶴見中央５丁目１４番２７号シークレイン２０１,,14,101,2300051,,,,,,,2024-09-30,1,,,,,キョウカショウジ,0
515,3020003026905,新規,0,2024-09-30,2024-09-30,合同会社ＴＳＲＫ　Ｃｏｎｓｕｌｔｉｎｇ,,合同会社,神奈川県,川崎市中原区,小杉町３丁目６００,,14,133,2110063,,,,,,,2024-09-30,1,,,,,ティーエスアールケーコンサルティング,0
516,3020005016557,新規,0,2024-09-30,2024-09-30,一般社団法人先進的カーボンニュートラル推進機構,,その他の設立登記法人,神奈川県,横浜市中区,常盤町３丁目２４番地,,14,104,2310014,,,,,,,2024-09-30,1,,,,,センシンテキカーボンニュートラルスイシンキコウ,0
517,3021001083327,新規,0,2024-09-30,2024-09-30,株式会社ＢＳ　ＬＩＮＥ,,株式会社,神奈川県,小田原市,蓮正寺４７０番地の２８３,,14,206,2500865,,,,,,,2024-09-30,1,,,,,ビーエスライン,0
519,3021003015055,新規,0,2024-09-30,2024-09-30,ふく企画合同会社,,合同会社,神奈川県,藤沢市,藤沢９６７番地,,14,205,2510052,,,,,,,2024-09-30,1,,,,,フクキカク,0
524,3030001162635,新規,0,2024-09-30,2024-09-30,株式会社佐藤工業,,株式会社,埼玉県,草加市,手代３丁目１９番３２号,,11,221,3400021,,,,,,,2024-09-30,1,,,,,サトウコウギョウ,0
525,3030001162643,新規,0,2024-09-30,2024-09-30,株式会社加藤鉄工,,株式会社,埼玉県,秩父市,下影森４９７番地１,,11,207,3691871,,,,,,,2024-09-30,1,,,,,カトウテッコウ,0
526,3030003025195,新規,0,2024-09-30,2024-09-30,合同会社Ｋｕｋｋａ,,合同会社,埼玉県,八潮市,大字柳之宮１６８番地１６,,11,234,3400832,,,,,,,2024-09-30,1,,,,,クッカ,0
531,3040001135532,新規,0,2024-09-30,2024-09-30,株式会社ホームアートサービス,,株式会社,千葉県,市川市,南大野１丁目２６番２５号,,12,203,2720804,,,,,,,2024-09-30,1,,,,,ホームアートサービス,0
532,3040001135565,新規,0,2024-09-30,2024-09-30,株式会社恵比寿,,株式会社,千葉県,千葉市中央区,星久喜町６１０番地１３,,12,101,2600808,,,,,,,2024-09-30,1,,,,,エビス,0
536,3040003025855,新規,0,2024-09-30,2024-09-30,合同会社ＤＭ　ｓｔａｒｓ,,合同会社,千葉県,野田市,柳沢２５０番地,,12,208,2780006,,,,,,,2024-09-30,1,,,,,ディーエムスターズ,0
537,3040003025871,新規,0,2024-09-30,2024-09-30,合同会社シャルール,,合同会社,千葉県,君津市,北子安２丁目３番１２,,12,225,2991161,,,,,,,2024-09-30,1,,,,,シャルール,0
544,3060001037529,新規,0,2024-09-30,2024-09-30,株式会社麗ＢＲＡＮＤ,,株式会社,栃木県,宇都宮市,長岡町３１－１,,09,201,3200004,,,,,,,2024-09-30,1,,,,,レイブランド,0
557,3090001018922,新規,0,2024-09-30,2024-09-30,株式会社目白コーポレーション,,株式会社,山梨県,甲府市,富士見２丁目１番１７号,,19,201,4000027,,,,,,,2024-09-30,1,,,,,メジロコーポレーション,0
559,3100001037870,新規,0,2024-09-30,2024-09-30,株式会社光譽,,株式会社,長野県,中野市,大字一本木３７９番地２,,20,211,3830012,,,,,,,2024-09-30,1,,,,,コウヨ,0
570,3120001268852,新規,0,2024-09-30,2024-09-30,株式会社ＮＩＰＰＯＮ　ＷＡＧＹＵ　ＩＮＴＥＲＮＡＴＩＯＮＡＬ,,株式会社,大阪府,大阪市住之江区,北加賀屋３丁目４番７号,,27,125,5590011,,,,,,,2024-09-30,1,,,,,ニッポンワギュウインターナショナル,0
571,3120001268860,新規,0,2024-09-30,2024-09-30,株式会社Ｍ,,株式会社,大阪府,大阪市中央区,常盤町２丁目２番５－２９０１号,,27,128,5400028,,,,,,,2024-09-30,1,,,,,エム,0
572,3120001268910,新規,0,2024-09-30,2024-09-30,ＭＳ＆Ｈコンサルティング株式会社,,株式会社,大阪府,大阪市北区,東天満２丁目２番１５号第六振興ビル５０１,,27,127,5300044,,,,,,,2024-09-30,1,,,,,エムエスアンドエイチコンサルティング,0
573,3120001268943,新規,0,2024-09-30,2024-09-30,株式会社ＩＶＥ,,株式会社,大阪府,大阪市北区,天満橋１丁目４番８－１２０２,,27,127,5300042,,,,,,,2024-09-30,1,,,,,アイヴ,0
576,3120003027612,新規,0,2024-09-30,2024-09-30,合同会社ＴｅＤ,,合同会社,大阪府,大阪市北区,梅田１丁目２番２号大阪駅前第２ビル１２－１２,,27,127,5300001,,,,,,,2024-09-30,1,,,,,テッド,0
578,3120101070332,新規,0,2024-09-30,2024-09-30,東宜株式会社,,株式会社,大阪府,泉大津市,条南町３番２６号１０５号室,,27,206,5950016,,,,,,,2024-09-30,1,,,,,トウギ,0
579,3120901049815,新規,0,2024-09-30,2024-09-30,株式会社Ｓｅｎｓｅ,,株式会社,大阪府,茨木市,片桐町１２番５号,,27,211,5670819,,,,,,,2024-09-30,1,,,,,センス,0
580,3120901049831,新規,0,2024-09-30,2024-09-30,鹿倉建設株式会社,,株式会社,大阪府,吹田市,広芝町１０番８号江坂董友ビル,,27,205,5640052,,,,,,,2024-09-30,1,,,,,シカクラケンセツ,0
593,3180001163354,新規,0,2024-09-30,2024-09-30,株式会社翔豊,,株式会社,愛知県,名古屋市守山区,小幡南２丁目１８番１４号榊原ビル４０２号室,,23,113,4630048,,,,,,,2024-09-30,1,,,,,カケトヨ,0
596,3180003027400,新規,0,2024-09-30,2024-09-30,合同会社樹媽,,合同会社,愛知県,名古屋市中村区,中島町３丁目２１番地セントラルマンション１－Ａ,,23,105,4530022,,,,,,,2024-09-30,1,,,,,キボ,0
597,3180005020782,新規,0,2024-09-30,2024-09-30,特定非営利活動法人名古屋小児がん基金,,その他の設立登記法人,愛知県,名古屋市中区,千代田５丁目１１番３３号,,23,106,4600012,,,,,,,2024-09-30,1,,,,,ナゴヤショウニガンキキン,0
600,3180303006293,新規,0,2024-09-30,2024-09-30,合同会社Ｕｎｗｉｎｄ,,合同会社,愛知県,岡崎市,矢作町字末広９番地３２Ｔｈｅ　Ｄａｙ矢作３０２,,23,202,4440943,,,,,,,2024-09-30,1,,,,,アンワインド,0
605,3230001020541,新規,0,2024-09-30,2024-09-30,株式会社吉,,株式会社,富山県,富山市,婦中町西本郷１３８番地２４,,16,201,9392701,,,,,,,2024-09-30,1,,,,,キチ,0
612,3290001107325,新規,0,2024-09-30,2024-09-30,株式会社ＵＮＩＴＥＳ,,株式会社,福岡県,福岡市南区,高宮４丁目１６－２４ファーネストヒルズ高宮エステルノ５０３号室,,40,134,8150083,,,,,,,2024-09-30,1,,,,,ニナイト,0
613,3290001107382,新規,0,2024-09-30,2024-09-30,たけとらＦＯＯＤｓ株式会社,,株式会社,福岡県,福岡市博多区,住吉５丁目１２番１８－１０２号,,40,132,8120018,,,,,,,2024-09-30,1,,,,,タケトラフーズ,0
616,3330001032485,新規,0,2024-09-30,2024-09-30,ＬＷ株式会社,,株式会社,熊本県,熊本市南区,城南町鰐瀬７７－１,,43,104,8614222,,,,,,,2024-09-30,1,,,,,エルダブリュ,0
617,3330001032493,新規,0,2024-09-30,2024-09-30,レグルスプランニング株式会社,,株式会社,熊本県,熊本市東区,健軍１丁目１８番７号,,43,102,8620911,,,,,,,2024-09-30,1,,,,,レグルスプランニング,0
618,3330003010563,新規,0,2024-09-30,2024-09-30,やつしろインフォメーションハウス合同会社,,合同会社,熊本県,八代市,通町６―４０,,43,202,8660856,,,,,,,2024-09-30,1,,,,,ヤツシロインフォメーションハウス,0
619,3340001026817,新規,0,2024-09-30,2024-09-30,株式会社竹,,株式会社,鹿児島県,指宿市,新西方３０７２番地１,,46,210,8910313,,,,,,,2024-09-30,1,,,,,タケ,0
620,3350003004753,新規,0,2024-09-30,2024-09-30,合同会社ｋｎａｃｋ,,合同会社,宮崎県,延岡市,永池町１丁目３番地５,,45,203,8820843,,,,,,,2024-09-30,1,,,,,ナック,0
621,3370003006764,新規,0,2024-09-30,2024-09-30,合同会社Ｌｉｎｋ,,合同会社,宮城県,仙台市泉区,市名坂字万吉前１２５番地の２,,04,105,9813117,,,,,,,2024-09-30,1,,,,,リンク,0
632,3430001092759,新規,0,2024-09-30,2024-09-30,安吉株式会社,,株式会社,北海道,札幌市中央区,南四条東４丁目１番３９－４０１号,,01,101,0600054,,,,,,,2024-09-30,1,,,,,アンキチ,0
637,3480001012605,新規,0,2024-09-30,2024-09-30,福優盛株式会社,,株式会社,徳島県,徳島市,津田海岸町４番１号,,36,201,7708001,,,,,,,2024-09-30,1,,,,,フクユウセイ,0
639,3500001025901,新規,0,2024-09-30,2024-09-30,株式会社ジャパニーズアイデンティティ,,株式会社,愛媛県,松山市,本町５丁目８番地５,,38,201,7900811,,,,,,,2024-09-30,1,,,,,ジャパニーズアイデンティティ,0
649,4010001248559,新規,0,2024-09-30,2024-09-30,株式会社Ｐｒｅｃｏｎｃｅｐｔｉｏｎ　Ｃａｒｅ　Ｊａｐａｎ,,株式会社,東京都,中央区,銀座１丁目１２番４号Ｎ＆ＥＢＬＤ．６Ｆ,,13,102,1040061,,,,,,,2024-09-30,1,,,,,プレコンセプションケアジャパン,0
650,4010001248567,新規,0,2024-09-30,2024-09-30,株式会社モリタラボ,,株式会社,東京都,中央区,銀座７丁目１３番２０号銀座ＴＨビル９階,,13,102,1040061,,,,,,,2024-09-30,1,,,,,モリタラボ,0
651,4010001248600,新規,0,2024-09-30,2024-09-30,マカグア株式会社,,株式会社,東京都,中央区,銀座３丁目４－１大倉別館５階,,13,102,1040061,,,,,,,2024-09-30,1,,,,,マカグア,0
652,4010001248609,新規,0,2024-09-30,2024-09-30,株式会社ＳＳヴィジョン,,株式会社,東京都,千代田区,神田淡路町１丁目１７番地デュオ・スカーラ御茶ノ水ＩＩ１０７号室,00136432,13,101,1010063,,,,,,,2024-09-30,1,,,,,エスエスヴィジョン,0
653,4010001248617,新規,0,2024-09-30,2024-09-30,ＮＹＣ　Ｍｅｔａｌ株式会社,,株式会社,東京都,中央区,新川１丁目６番１１号,,13,102,1040033,,,,,,,2024-09-30,1,,,,,エヌワイシーメタル,0
655,4010005038873,新規,0,2024-09-30,2024-09-30,一般社団法人ＳＯＳｉＬＡプライベートファンド２,,その他の設立登記法人,東京都,中央区,京橋２丁目１２番６号ＡＯＪ税理士法人内,,13,102,1040031,,,,,,,2024-09-30,1,,,,,ソシラプライベートファンドセカンド,0
656,4010005038881,新規,0,2024-09-30,2024-09-30,一般社団法人丸の内研究所,,その他の設立登記法人,東京都,千代田区,丸の内１丁目４番１号東京共同会計事務所内,,13,101,1000005,,,,,,,2024-09-30,1,,,,,マルノウチケンキュウジョ,0
661,4010401185377,新規,0,2024-09-30,2024-09-30,三行プロパティ株式会社,,株式会社,東京都,港区,西新橋３丁目２０－１－１７０２,,13,103,1050003,,,,,,,2024-09-30,1,,,,,サンギョウプロパティ,0
665,4010403033501,新規,0,2024-09-30,2024-09-30,ＥＳＲ３６合同会社,,合同会社,東京都,港区,浜松町１丁目２０番１０号ライオネス浜松町５０６号室,,13,103,1050013,,,,,,,2024-09-30,1,,,,,イーエスアールサンジュウロク,0
669,4010701046592,新規,0,2024-09-30,2024-09-30,誠運通商株式会社,,株式会社,東京都,品川区,南大井３丁目２７番１４号,,13,109,1400013,,,,,,,2024-09-30,1,,,,,セイウンツウショウ,0
672,4010901056029,新規,0,2024-09-30,2024-09-30,株式会社トイボックス,,株式会社,東京都,世田谷区,駒沢３丁目１５番１２号ＡＲＣＳＫＯＭＡＺＡＷＡ２０１,,13,112,1540012,,,,,,,2024-09-30,1,,,,,トイボックス,0
682,4011103014980,新規,0,2024-09-30,2024-09-30,ａｅｒａ合同会社,,合同会社,東京都,新宿区,西新宿３丁目３番１３号西新宿水間ビル２Ｆ,,13,104,1600023,,,,,,,2024-09-30,1,,,,,アエラ,0
687,4011403004509,新規,0,2024-09-30,2024-09-30,合同会社ＣＬＥＡＲ,,合同会社,東京都,板橋区,大山金井町２７－１１,,13,119,1730024,,,,,,,2024-09-30,1,,,,,クリア,0
689,4011801044890,新規,0,2024-09-30,2024-09-30,株式会社ブルームコンサルティング,,株式会社,東京都,足立区,綾瀬３丁目１９番１６号松代ビル２０２,,13,121,1200005,,,,,,,2024-09-30,1,,,,,ブルームコンサルティング,0
691,4011803006476,新規,0,2024-09-30,2024-09-30,合同会社海島,,合同会社,東京都,足立区,入谷１丁目２２番１０号,,13,121,1210836,,,,,,,2024-09-30,1,,,,,ウミジマ,0
692,4011805003397,新規,0,2024-09-30,2024-09-30,一般社団法人日本愛玩動物振興会,,その他の設立登記法人,東京都,葛飾区,鎌倉４丁目２８番２７号,,13,122,1250053,,,,,,,2024-09-30,1,,,,,ニホンアイガンドウブツシンコウカイ,0
698,4012405005049,新規,0,2024-09-30,2024-09-30,一般社団法人ニューロダイバーシティ協会,,その他の設立登記法人,東京都,府中市,新町２丁目３３番地の９,,13,206,1830052,,,,,,,2024-09-30,1,,,,,ニューロダイバーシティキョウカイ,0
700,4012701018472,新規,0,2024-09-30,2024-09-30,Ｍａｒｃｏ株式会社,,株式会社,東京都,小平市,学園東町３丁目１５番１０号サンシャインコート２０１号室,,13,211,1870043,,,,,,,2024-09-30,1,,,,,マルコ,0
705,4020001159284,新規,0,2024-09-30,2024-09-30,Ｑｕｅｓｔ　Ｖｉｓｉｏｎ株式会社,,株式会社,神奈川県,横浜市西区,北幸１丁目１１番１号水信ビル７階,,14,103,2200004,,,,,,,2024-09-30,1,,,,,クエストビジョン,0
706,4020001159301,新規,0,2024-09-30,2024-09-30,株式会社Ｆａｌｃｏｎｉａ,,株式会社,神奈川県,横浜市青葉区,あざみ野南３丁目１４番地７,,14,117,2250012,,,,,,,2024-09-30,1,,,,,ファルコニア,0
712,4021001083326,新規,0,2024-09-30,2024-09-30,株式会社グレイスホールディングス,,株式会社,神奈川県,横須賀市,森崎１丁目１１番１９号,,14,201,2380023,,,,,,,2024-09-30,1,,,,,グレイスホールディングス,0
719,4030001162626,新規,0,2024-09-30,2024-09-30,大成株式会社,,株式会社,埼玉県,川口市,芝３丁目１番２４－１０１号,,11,203,3330866,,,,,,,2024-09-30,1,,,,,,0
729,4040001135564,新規,0,2024-09-30,2024-09-30,亜潤株式会社,,株式会社,千葉県,市川市,欠真間２丁目１番２１号ハピーハイツ行徳１０５,,12,203,2720142,,,,,,,2024-09-30,1,,,,,アジュン,0
732,4040003025870,新規,0,2024-09-30,2024-09-30,合同会社アント,,合同会社,千葉県,松戸市,西馬橋５丁目３番地メゾンパークス１０５号,,12,207,2710044,,,,,,,2024-09-30,1,,,,,アント,0
744,4070001017636,新規,0,2024-09-30,2024-09-30,株式会社後藤雅雄商店,,株式会社,群馬県,渋川市,吹屋３９４番地の３,,10,208,3770203,,,,,,,2024-09-30,1,,,,,ゴトウマサオショウテン,0
749,4080103003153,新規,0,2024-09-30,2024-09-30,合同会社ｍａｒｕｔａ,,合同会社,静岡県,富士市,松岡２０１番地の１５,,22,210,4160909,,,,,,,2024-09-30,1,,,,,マルタ,0
751,4090001018921,新規,0,2024-09-30,2024-09-30,株式会社ファースト測量設計,,株式会社,山梨県,甲州市,勝沼町小佐手９６７番地,,19,213,4091303,,,,,,,2024-09-30,1,,,,,ファーストソクリョウセッケイ,0
754,4100003007788,新規,0,2024-09-30,2024-09-30,ＳＩＴ・ＬＡＮＫＡ合同会社,,合同会社,長野県,小諸市,大字加増１６６番地１,,20,208,3840061,,,,,,,2024-09-30,1,,,,,エスアイティーランカ,0
759,4110003005527,新規,0,2024-09-30,2024-09-30,合同会社Ｒｕｍｍｙ,,合同会社,新潟県,東蒲原郡阿賀町,赤岩２９０５番地,,15,385,9594408,,,,,,,2024-09-30,1,,,,,ルミー,0
764,4120001268967,新規,0,2024-09-30,2024-09-30,ＹＨＲビューティー株式会社,,株式会社,大阪府,大阪市北区,梅田１丁目１番３号,,27,127,5300001,,,,,,,2024-09-30,1,,,,,ワイエイチアールビューティー,0
765,4120003027660,新規,0,2024-09-30,2024-09-30,合同会社グリーンハウス,,合同会社,大阪府,大阪市大正区,三軒家東６丁目７番２１号ケイアンドティ大正２０１号室,,27,108,5510002,,,,,,,2024-09-30,1,,,,,グリーンハウス,0
772,4120901049822,新規,0,2024-09-30,2024-09-30,Ａｍｂｉｔｉｏ株式会社,,株式会社,大阪府,池田市,井口堂２丁目２番８号,,27,204,5630023,,,,,,,2024-09-30,1,,,,,アンビティオ,0
778,4130001078011,新規,0,2024-09-30,2024-09-30,株式会社ＡＬＢＡＬＩＺＥ,,株式会社,京都府,京都市伏見区,醍醐西大路町１－１－３－２０２,,26,109,6011374,,,,,,,2024-09-30,1,,,,,アルバライズ,0
794,4180001163386,新規,0,2024-09-30,2024-09-30,株式会社トライアングルサポーター,,株式会社,愛知県,名古屋市西区,香呑町５丁目６５番地,,23,104,4510015,,,,,,,2024-09-30,1,,,,,トライアングルサポーター,0
799,4200001042983,新規,0,2024-09-30,2024-09-30,株式会社ぎふ柳ケ瀬,,株式会社,岐阜県,岐阜市,日ノ出町２丁目５－８松田ビル２階,,21,201,5008876,,,,,,,2024-09-30,1,,,,,ギフヤナガセ,0
803,4230001020540,新規,0,2024-09-30,2024-09-30,株式会社ＳＯＡ　ＶＩＴＡ．ＤＥＳＩＧＮ,,株式会社,富山県,富山市,清水元町１番１８号,,16,201,9300034,,,,,,,2024-09-30,1,,,,,ソアヴィータデザイン,0
808,4240001063869,新規,0,2024-09-30,2024-09-30,株式会社オルカ,,株式会社,広島県,福山市,高西町３丁目１４－３５,,34,207,7290106,,,,,,,2024-09-30,1,,,,,オルカ,0
813,4280001009265,新規,0,2024-09-30,2024-09-30,株式会社ＥＳＣＯＮＹ,,株式会社,島根県,松江市,乃木福富町７００番地５,,32,201,6900046,,,,,,,2024-09-30,1,,,,,エスコニ,0
816,4290001014405,新規,0,2024-09-30,2024-09-30,株式会社第一興産,,株式会社,福岡県,福岡市博多区,千代２丁目２番３８号共進ビル５０３号,,40,132,8120044,,,,,,,2024-09-30,1,,,,,,0
820,4290001107316,新規,0,2024-09-30,2024-09-30,株式会社Ｓｏｉｌｉｅｒ,,株式会社,福岡県,福岡市中央区,天神４丁目６番２８号天神ファーストビル７階,,40,133,8100001,,,,,,,2024-09-30,1,,,,,ソワリエ,0
821,4290001107340,新規,0,2024-09-30,2024-09-30,株式会社Ｄｏｕｎｅ,,株式会社,福岡県,太宰府市,水城１丁目２１－５,,40,221,8180131,,,,,,,2024-09-30,1,,,,,ドウネ,0
823,4290003015847,新規,0,2024-09-30,2024-09-30,合同会社そらいろ商会,,合同会社,福岡県,筑紫野市,美しが丘南６丁目４番地２０,,40,217,8180034,,,,,,,2024-09-30,1,,,,,ソライロショウカイ,0
837,4350003004752,新規,0,2024-09-30,2024-09-30,合同会社ニコリンク,,合同会社,宮崎県,延岡市,卸本町６番９号,,45,203,8820855,,,,,,,2024-09-30,1,,,,,ニコリンク,0
839,4370003006763,新規,0,2024-09-30,2024-09-30,アルバメディスン合同会社,,合同会社,宮城県,仙台市青葉区,星陵町二丁目１番地５号館６Ｆ,,04,101,9800872,,,,,,,2024-09-30,1,,,,,アルバメディスン,0
850,4420001018879,新規,0,2024-09-30,2024-09-30,株式会社つくだま,,株式会社,青森県,八戸市,南類家３丁目１１番１１－２号,,02,203,0310004,,,,,,,2024-09-30,1,,,,,ツクダマ,0
866,5010001248566,新規,0,2024-09-30,2024-09-30,Ｊｇｒａｎ株式会社,,株式会社,東京都,千代田区,九段北１丁目１０番３－８０１号,,13,101,1020073,,,,,,,2024-09-30,1,,,,,ジェイグラン,0
867,5010001248582,新規,0,2024-09-30,2024-09-30,株式会社Ｋｕｌａｍ　ＲＮＴ,,株式会社,東京都,千代田区,飯田橋４丁目１０番１－７０９号,,13,101,1020072,,,,,,,2024-09-30,1,,,,,クラムレント,0
868,5010001248590,新規,0,2024-09-30,2024-09-30,株式会社Ｕ．Ｂ．ＢＡＬＬＯＯＮ,,株式会社,東京都,文京区,湯島４丁目６番１２―４０５号,,13,105,1130034,,,,,,,2024-09-30,1,,,,,ユービーバルーン,0
869,5010001248599,新規,0,2024-09-30,2024-09-30,ユーラゼオグローバルインベスタージャパン株式会社,,株式会社,東京都,千代田区,丸の内３丁目２番２号丸の内二重橋ビル３階,,13,101,1000005,,,,,,,2024-09-30,1,,,,,ユーラゼオグローバルインベスタージャパン,0
870,5010001248608,新規,0,2024-09-30,2024-09-30,株式会社シャイン,,株式会社,東京都,千代田区,東神田３丁目３番１１号,,13,101,1010031,,,,,,,2024-09-30,1,,,,,シャイン,0
871,5010001248616,新規,0,2024-09-30,2024-09-30,株式会社パラドックスＡＩ,,株式会社,東京都,千代田区,五番町６－４グレイス五番町ビル３Ｆ,,13,101,1020076,,,,,,,2024-09-30,1,,,,,パラドックスエーアイ,0
874,5010003044996,新規,0,2024-09-30,2024-09-30,合同会社ＴＡＫＯＩＴＯ,,合同会社,東京都,文京区,後楽２丁目２３番６－７０２号,,13,105,1120004,,,,,,,2024-09-30,1,,,,,タコイト,0
875,5010003045004,新規,0,2024-09-30,2024-09-30,合同会社Ｋ,,合同会社,東京都,中央区,勝どき４丁目６番１－２７２３号,,13,102,1040054,,,,,,,2024-09-30,1,,,,,ケイ,0
876,5010003045020,新規,0,2024-09-30,2024-09-30,石川白山ロジスティクス合同会社,,合同会社,東京都,中央区,日本橋１丁目４番１号,,13,102,1030027,,,,,,,2024-09-30,1,,,,,イシカワハクサンロジスティクス,0
877,5010005038880,新規,0,2024-09-30,2024-09-30,一般社団法人ＧＬ　ＪＲＥ　Ｅ３,,その他の設立登記法人,東京都,千代田区,永田町２丁目１７番５号,,13,101,1000014,,,,,,,2024-09-30,1,,,,,ジーエルジェーアールイーイースリー,0
879,5010401185368,新規,0,2024-09-30,2024-09-30,最適化総合研究所株式会社,,株式会社,東京都,港区,北青山１丁目３番１号アールキューブ青山３階,,13,103,1070061,,,,,,,2024-09-30,1,,,,,サイテキカソウゴウケンキュウジョ,0
880,5010401185376,新規,0,2024-09-30,2024-09-30,レッドヒルズ株式会社,,株式会社,東京都,港区,高輪２丁目６番７号,,13,103,1080074,,,,,,,2024-09-30,1,,,,,レッドヒルズ,0
883,5010405023623,新規,0,2024-09-30,2024-09-30,ＥＳＲ３６・１一般社団法人,,その他の設立登記法人,東京都,港区,浜松町１丁目２０番１０号ライオネス浜松町５０６号室,,13,103,1050013,,,,,,,2024-09-30,1,,,,,イーエスアールサンジュウロクイチ,0
884,5010501052971,新規,0,2024-09-30,2024-09-30,忽然日本株式会社,,株式会社,東京都,台東区,浅草橋３丁目２８番３－２０５号ＴＲＡＤＩＳ浅草橋,,13,106,1110053,,,,,,,2024-09-30,1,,,,,コツゼンニホン,0
907,5011101108940,新規,0,2024-09-30,2024-09-30,株式会社ＷｅＣｏａｃｈ,,株式会社,東京都,新宿区,西新宿３丁目３番１３号西新宿水間ビル２Ｆ,,13,104,1600023,,,,,,,2024-09-30,1,,,,,ウィコーチ,0
910,5011403004516,新規,0,2024-09-30,2024-09-30,合同会社Ｐｉｔ　Ｂｕｌｌ,,合同会社,東京都,板橋区,仲宿５８－１５矢作ビル４０１号室,,13,119,1730005,,,,,,,2024-09-30,1,,,,,ピットブル,0
913,5011803006467,新規,0,2024-09-30,2024-09-30,合同会社ｆｏｒ　Ｌａｕｇｈ,,合同会社,東京都,足立区,舎人５丁目１３番２６号レクシオ見沼代親水公園４０１号,,13,121,1210831,,,,,,,2024-09-30,1,,,,,フォーラフ,0
917,5012405005048,新規,0,2024-09-30,2024-09-30,一般社団法人Ｃｏ．Ｒｕｒｉ　Ｍｉｔｏ,,その他の設立登記法人,東京都,武蔵野市,関前３丁目１番６号,,13,203,1800014,,,,,,,2024-09-30,1,,,,,コールリミトウ,0
924,5020001159259,新規,0,2024-09-30,2024-09-30,株式会社アブラヤ,,株式会社,神奈川県,横浜市旭区,鶴ケ峰１丁目８２番地１５,,14,112,2410022,,,,,,,2024-09-30,1,,,,,アブラヤ,0
925,5020001159341,新規,0,2024-09-30,2024-09-30,株式会社太田コーポレーション,,株式会社,神奈川県,横浜市鶴見区,梶山２丁目３４番３２号,,14,101,2300072,,,,,,,2024-09-30,1,,,,,オオタコーポレーション,0
926,5020001159457,新規,0,2024-09-30,2024-09-30,株式会社ＰＬＵＳ　ＮＥＷ,,株式会社,神奈川県,横浜市青葉区,市ケ尾町４０４番地ハローモーリィ２０２,,14,117,2250024,,,,,,,2024-09-30,1,,,,,プラスニュー,0
927,5020003026936,新規,0,2024-09-30,2024-09-30,ＳＳｗｏｒｋｓ合同会社,,合同会社,神奈川県,川崎市麻生区,白鳥４丁目４番４１号,,14,137,2150024,,,,,,,2024-09-30,1,,,,,エスエスワークス,0
928,5021001083341,新規,0,2024-09-30,2024-09-30,株式会社ｎａｔｕｒａｌ,,株式会社,神奈川県,藤沢市,辻堂新町１丁目１６番２２号,,14,205,2510042,,,,,,,2024-09-30,1,,,,,ナチュラル,0
935,5030003025185,新規,0,2024-09-30,2024-09-30,合同会社オリーブハウス,,合同会社,埼玉県,日高市,大字旭ケ丘３０番地,,11,242,3501203,,,,,,,2024-09-30,1,,,,,オリーブハウス,0
936,5030003025193,新規,0,2024-09-30,2024-09-30,合同会社蓮美,,合同会社,埼玉県,行田市,大字埼玉１２９６番地５,,11,206,3610025,,,,,,,2024-09-30,1,,,,,ハスビ,0
938,5040001135563,新規,0,2024-09-30,2024-09-30,株式会社エムエフトレーディング,,株式会社,千葉県,八街市,八街に１３０番地１８,,12,230,2891103,,,,,,,2024-09-30,1,,,,,エムエフトレーディング,0
941,5040003025861,新規,0,2024-09-30,2024-09-30,Ｍ，トラスト合同会社,,合同会社,千葉県,千葉市稲毛区,緑町１丁目２５－５加納ビル３階,,12,103,2630023,,,,,,,2024-09-30,1,,,,,エムトラスト,0
943,5060001037527,新規,0,2024-09-30,2024-09-30,株式会社ふもん,,株式会社,栃木県,小山市,犬塚８丁目５－１６,,09,208,3230811,,,,,,,2024-09-30,1,,,,,フモン,0
945,5070001042212,新規,0,2024-09-30,2024-09-30,株式会社Ｅｍｉｌｉａｎ,,株式会社,群馬県,前橋市,川曲町６３５番地９,,10,201,3710823,,,,,,,2024-09-30,1,,,,,エミリアン,0
946,5080001026511,新規,0,2024-09-30,2024-09-30,株式会社こどもリハビリ発達支援青い鳥,,株式会社,静岡県,静岡市葵区,大岩本町２番１２号,,22,101,4200884,,,,,,,2024-09-30,1,,,,,コドモリハビリハッタツシエンアオイトリ,0
949,5100001037877,新規,0,2024-09-30,2024-09-30,株式会社ツミカサネ,,株式会社,長野県,木曽郡木曽町,新開６９４３番地１,,20,432,3970002,,,,,,,2024-09-30,1,,,,,ツミカサネ,0
953,5110003005526,新規,0,2024-09-30,2024-09-30,合同会社あすか語学教育,,合同会社,新潟県,三条市,一ノ門２丁目１番１１号,,15,204,9550045,,,,,,,2024-09-30,1,,,,,アスカゴガクキョウイク,0
954,5120001040870,新規,0,2024-09-30,2024-09-30,浅羽中央織物株式会社,,株式会社,大阪府,大阪市中央区,淡路町１丁目４番１０号,,27,128,5410047,,,,,,,2024-09-30,1,,,,,,0
961,5120001268818,新規,0,2024-09-30,2024-09-30,ペレグリン・ラディアント・アーク株式会社,,株式会社,大阪府,大阪市西区,西本町１丁目７番２１－８０２号,,27,106,5500005,,,,,,,2024-09-30,1,,,,,ペレグリンラディアントアーク,0
962,5120001268842,新規,0,2024-09-30,2024-09-30,ゴールデンキウイ株式会社,,株式会社,大阪府,大阪市北区,黒崎町８番１７号１０１号室,,27,127,5300023,,,,,,,2024-09-30,1,,,,,ゴールデンキウイ,0
963,5120001268891,新規,0,2024-09-30,2024-09-30,株式会社Ｂｒｉｇｈｔｌｙ,,株式会社,大阪府,大阪市住之江区,安立４丁目１４番２６号,,27,125,5590003,,,,,,,2024-09-30,1,,,,,ブライトリィ,0
964,5120001268917,新規,0,2024-09-30,2024-09-30,株式会社Ｃｏｕｒａｇｅ,,株式会社,大阪府,大阪市福島区,福島７丁目３－１８第一住建福島駅前ビル５階,,27,103,5530003,,,,,,,2024-09-30,1,,,,,カレッジ,0
968,5120003027593,新規,0,2024-09-30,2024-09-30,合同会社池崎工務店,00136440,合同会社,大阪府,大阪市天王寺区,北河堀町７－１６グランカサ天王寺１Ｆ,,27,109,5430053,,,,,,,2024-09-30,1,,,,,イケザキコウムテン,0
971,5120101070322,新規,0,2024-09-30,2024-09-30,株式会社裕昌,,株式会社,大阪府,藤井寺市,津堂１丁目１０番１号,,27,226,5830037,,,,,,,2024-09-30,1,,,,,ユウショウ,0
975,5130001078027,新規,0,2024-09-30,2024-09-30,株式会社イークルス,,株式会社,京都府,京都市下京区,朱雀宝蔵町４４番地協栄ビル２階京都朱雀スタジオ,,26,106,6008846,,,,,,,2024-09-30,1,,,,,イークルス,0
979,5140001135883,新規,0,2024-09-30,2024-09-30,株式会社ｐｌａｃｅ・ｔｏ・ｃｏｎｎｅｃｔ,,株式会社,兵庫県,宝塚市,山本南１丁目３０番５－２号,,28,214,6650882,,,,,,,2024-09-30,1,,,,,プレイストゥコネクト,0
980,5140001135925,新規,0,2024-09-30,2024-09-30,株式会社リメイク,,株式会社,兵庫県,神戸市垂水区,五色山３丁目２番２７号,,28,108,6550035,,,,,,,2024-09-30,1,,,,,リメイク,0
986,5160005011344,新規,0,2024-09-30,2024-09-30,医療法人近江今津駅前メンタルクリニック,,その他の設立登記法人,滋賀県,高島市,今津町名小路１丁目６番８号今津第１ビル１Ｆ,,25,212,5201631,,,,,,,2024-09-30,1,,,,,オウミイマヅエキマエメンタルクリニック,0
992,5180001163344,新規,0,2024-09-30,2024-09-30,株式会社フクロウ,,株式会社,愛知県,名古屋市北区,新堀町２５番地の３,,23,103,4620801,,,,,,,2024-09-30,1,,,,,フクロウ,0
998,5180301039087,新規,0,2024-09-30,2024-09-30,株式会社ＤＡＮＫ,,株式会社,愛知県,安城市,横山町大山田中８６番地,,23,212,4460045,,,,,,,2024-09-30,1,,,,,ダンク,0
999,5180303006291,新規,0,2024-09-30,2024-09-30,合同会社ＳＨＩＭＩＺＵ,,合同会社,愛知県,安城市,二本木町荒田１４９番地２,,23,212,4460054,,,,,,,2024-09-30,1,,,,,シミズ,0
1003,5200001042966,新規,0,2024-09-30,2024-09-30,株式会社ダイユウホールディングス,,株式会社,岐阜県,各務原市,鵜沼西町４丁目６９番地,,21,213,5090132,,,,,,,2024-09-30,1,,,,,ダイユウホールディングス,0
1004,5200001042982,新規,0,2024-09-30,2024-09-30,株式会社藤吉塗工,,株式会社,岐阜県,岐阜市,小野２丁目１２０番地１,,21,201,5011174,,,,,,,2024-09-30,1,,,,,フジヨシトコウ,0
1007,5220001026216,新規,0,2024-09-30,2024-09-30,株式会社山形ホールディングス,,株式会社,石川県,金沢市,神田１丁目１８番１０号,,17,201,9218027,,,,,,,2024-09-30,1,,,,,ヤマガタホールディングス,0
1018,5240003006874,新規,0,2024-09-30,2024-09-30,合同会社ＬＥＡＤ,,合同会社,広島県,福山市,南松永町１丁目２－１２－３,,34,207,7290105,,,,,,,2024-09-30,1,,,,,リード,0
1023,5290001107323,新規,0,2024-09-30,2024-09-30,株式会社イケベグロース,,株式会社,福岡県,福岡市博多区,下川端町２－１,,40,132,8120027,,,,,,,2024-09-30,1,,,,,イケベグロース,0
1024,5290001107372,新規,0,2024-09-30,2024-09-30,株式会社ＮＳ５‐４号,,株式会社,福岡県,福岡市博多区,上川端町１２番２０号,,40,132,8120026,,,,,,,2024-09-30,1,,,,,エヌエスファイブヨンゴウ,0
1026,5290003015838,新規,0,2024-09-30,2024-09-30,合同会社ブライトネス,,合同会社,福岡県,福岡市早良区,田村３丁目７番１８－１０１号,,40,137,8140175,,,,,,,2024-09-30,1,,,,,ブライトネス,0
1028,5310001019219,新規,0,2024-09-30,2024-09-30,株式会社ＭＥＧＵＲＩ,,株式会社,長崎県,佐世保市,日宇町１０９４番地１,,42,202,8571151,,,,,,,2024-09-30,1,,,,,メグリ,0
1029,5310003004870,新規,0,2024-09-30,2024-09-30,やまき海産合同会社,,合同会社,長崎県,南島原市,深江町丁１９０７,,42,214,8591504,,,,,,,2024-09-30,1,,,,,,0
1033,5350001019198,新規,0,2024-09-30,2024-09-30,株式会社シャチフーズ,,株式会社,宮崎県,宮崎市,吉村町今村甲４１６０番地１,,45,201,8800841,,,,,,,2024-09-30,1,,,,,シャチフーズ,0
1034,5350005006259,新規,0,2024-09-30,2024-09-30,一般社団法人海渡塾,,その他の設立登記法人,宮崎県,日向市,大字富高６２８５番地１８,,45,206,8830034,,,,,,,2024-09-30,1,,,,,,0
1045,5420001018878,新規,0,2024-09-30,2024-09-30,オール株式会社,,株式会社,青森県,青森市,新町１丁目２番１８号１階　スタートアップセンター内,,02,201,0300801,,,,,,,2024-09-30,1,,,,,オール,0
1046,5430001092765,新規,0,2024-09-30,2024-09-30,株式会社ネクサス,,株式会社,北海道,札幌市東区,北三十四条東４丁目１番２２号,,01,103,0070834,,,,,,,2024-09-30,1,,,,,ネクサス,0
1048,5430005015078,新規,0,2024-09-30,2024-09-30,一般社団法人えらま,,その他の設立登記法人,北海道,札幌市白石区,本通１丁目南４番４号,,01,104,0030026,,,,,,,2024-09-30,1,,,,,エラマ,0
1053,6010001248573,新規,0,2024-09-30,2024-09-30,株式会社フリーホームズ,,株式会社,東京都,中央区,銀座８丁目１５番１０号銀座ダイヤビル１００８号,,13,102,1040061,,,,,,,2024-09-30,1,,,,,フリーホームズ,0
1054,6010001248581,新規,0,2024-09-30,2024-09-30,株式会社ｉｋｉｔｅｒｕ,,株式会社,東京都,千代田区,有楽町１丁目５番２号東宝日比谷プロムナードビル１１階,,13,101,1000006,,,,,,,2024-09-30,1,,,,,イキテル,0
1055,6010001248607,新規,0,2024-09-30,2024-09-30,株式会社摘星舎,,株式会社,東京都,中央区,銀座１丁目２２番１１号銀座大竹ビジデンス２Ｆ,,13,102,1040061,,,,,,,2024-09-30,1,,,,,テキセイシャ,0
1056,6010001248631,新規,0,2024-09-30,2024-09-30,株式会社ＯＦＦＩＣＥ．ｂ,,株式会社,東京都,千代田区,神田須田町２丁目３番地１２、１２ＫＡＮＤＡ８０５号室,,13,101,1010041,,,,,,,2024-09-30,1,,,,,オフィスビー,0
1057,6010003045036,新規,0,2024-09-30,2024-09-30,ＧＬＰプロパティ２合同会社,,合同会社,東京都,中央区,八重洲２丁目２番１号,,13,102,1040028,,,,,,,2024-09-30,1,,,,,ジーエルピープロパティツー,0
1067,6010401185367,新規,0,2024-09-30,2024-09-30,ＴｅＴｏＰａｗ株式会社,,株式会社,東京都,港区,白金台５丁目１３番３－２０２号,,13,103,1080071,,,,,,,2024-09-30,1,,,,,テトポ,0
1068,6010401185391,新規,0,2024-09-30,2024-09-30,ｇａｌｔｏｎ株式会社,,株式会社,東京都,港区,虎ノ門４丁目１番２８号虎ノ門タワーズオフィス１９Ｆ,,13,103,1050001,,,,,,,2024-09-30,1,,,,,ゴルトン,0
1083,6010901056043,新規,0,2024-09-30,2024-09-30,Ｃｏｄｅｘ株式会社,,株式会社,東京都,世田谷区,奥沢１丁目１４番１９号,,13,112,1580083,,,,,,,2024-09-30,1,,,,,コーデックス,0
1094,6011101108931,新規,0,2024-09-30,2024-09-30,株式会社Ａｄｌｅｒｓ　Ｈｏｌｄｉｎｇｓ,,株式会社,東京都,新宿区,西新宿３丁目２番９号新宿ワシントンホテルビル本館２Ｆ・ＴＨＥ・ＨＵＢ新宿ワシントン,,13,104,1600023,,,,,,,2024-09-30,1,,,,,アドラーズホールディングス,0
1095,6011103014979,新規,0,2024-09-30,2024-09-30,Ｗｏｇｉ　Ｊａｐａｎ合同会社,,合同会社,東京都,新宿区,新宿２丁目１２－１３新宿アントレサロン２階,,13,104,1600022,,,,,,,2024-09-30,1,,,,,ウォギジャパン,0
1099,6011403004515,新規,0,2024-09-30,2024-09-30,合同会社Ｃｉｎｅｍａｇｏ,,合同会社,東京都,板橋区,弥生町５８番１号,,13,119,1730021,,,,,,,2024-09-30,1,,,,,シネマゴ,0
1100,6011501031171,新規,0,2024-09-30,2024-09-30,万家国際株式会社,,株式会社,東京都,北区,浮間１丁目１－１４－１０７号室,,13,117,1150051,,,,,,,2024-09-30,1,,,,,マンカコクサイ,0
1102,6011601028084,新規,0,2024-09-30,2024-09-30,大松商事株式会社,,株式会社,東京都,練馬区,富士見台１丁目２２番１号１０２,,13,120,1770034,,,,,,,2024-09-30,1,,,,,ダイマツショウジ,0
1110,6011801044889,新規,0,2024-09-30,2024-09-30,株式会社セントラル,,株式会社,東京都,足立区,綾瀬３丁目１９番１６号松代ビル２０２,,13,121,1200005,,,,,,,2024-09-30,1,,,,,セントラル,0
1111,6011801044906,新規,0,2024-09-30,2024-09-30,株式会社セントヒルズ柴又,,株式会社,東京都,葛飾区,鎌倉４丁目１７－１－９０３シティハウス新柴又ステーションコート,,13,122,1250053,,,,,,,2024-09-30,1,,,,,セントヒルズシバマタ,0
1113,6012701018470,新規,0,2024-09-30,2024-09-30,株式会社丸慶,,株式会社,東京都,西東京市,東伏見４丁目４番５－８０４号,,13,229,2020021,,,,,,,2024-09-30,1,,,,,マルヨシ,0
1118,6020001159266,新規,0,2024-09-30,2024-09-30,株式会社ＥＣＴＩＭＥ,,株式会社,神奈川県,横浜市港北区,下田町１丁目１番１－６０９号,,14,109,2230064,,,,,,,2024-09-30,1,,,,,イーシータイム,0
1119,6020001159299,新規,0,2024-09-30,2024-09-30,株式会社ロータスシステムコーポレーション,,株式会社,神奈川県,横浜市西区,北幸２丁目１０番４８号むつみビル３階,,14,103,2200004,,,,,,,2024-09-30,1,,,,,ロータスシステムコーポレーション,0
1120,6020001159357,新規,0,2024-09-30,2024-09-30,株式会社ウルトクデリバリー,,株式会社,神奈川県,横浜市都筑区,茅ケ崎中央３６番５号エルドラード横浜５階,,14,118,2240032,,,,,,,2024-09-30,1,,,,,ウルトクデリバリー,0
1124,6021001083316,新規,0,2024-09-30,2024-09-30,エクステリアクローバー株式会社,,株式会社,神奈川県,藤沢市,用田１１３２番地の６,,14,205,2520821,,,,,,,2024-09-30,1,,,,,エクステリアクローバー,0
1125,6021001083349,新規,0,2024-09-30,2024-09-30,株式会社いざわや,,株式会社,神奈川県,大和市,渋谷３丁目１番地１２,,14,213,2420023,,,,,,,2024-09-30,1,,,,,イザワヤ,0
1131,6030005021859,新規,0,2024-09-30,2024-09-30,一般社団法人才色健美,,その他の設立登記法人,埼玉県,川口市,西川口５丁目１０番２８号,,11,203,3320021,,,,,,,2024-09-30,1,,,,,サイショクケンビ,0
1141,6060001037526,新規,0,2024-09-30,2024-09-30,株式会社吉兆茶谷,,株式会社,栃木県,那須塩原市,二つ室３５番地１,,09,213,3292731,,,,,,,2024-09-30,1,,,,,キッチョウチャタニ,0
1150,6080101025024,新規,0,2024-09-30,2024-09-30,株式会社下田湊マリンプロダクツ,,株式会社,静岡県,下田市,二丁目１０番９号,,22,219,4150022,,,,,,,2024-09-30,1,,,,,シモダミナトマリンプロダクツ,0
1154,6080403005104,新規,0,2024-09-30,2024-09-30,ＨＤ合同会社,,合同会社,静岡県,菊川市,高橋３５９８番地,,22,224,4371505,,,,,,,2024-09-30,1,,,,,エイチディー,0
1158,6100001037868,新規,0,2024-09-30,2024-09-30,株式会社デ・ジャット,,株式会社,長野県,長野市,三輪６丁目１６番３０－４０２号三輪マンション,,20,201,3800803,,,,,,,2024-09-30,1,,,,,デジャット,0
1166,6110001038725,新規,0,2024-09-30,2024-09-30,株式会社ＳＥＮＮ　Ｈｏｔｅｌ　Ｇｒｏｕｐ,,株式会社,新潟県,佐渡市,青野１０５１番地３,,15,224,9521326,,,,,,,2024-09-30,1,,,,,センホテルグループ,0
1173,6120001268817,新規,0,2024-09-30,2024-09-30,株式会社パークディライト,,株式会社,大阪府,大阪市中央区,南船場４丁目１０番１８号,,27,128,5420081,,,,,,,2024-09-30,1,,,,,パークディライト,0
1174,6120001268841,新規,0,2024-09-30,2024-09-30,フィス株式会社,,株式会社,大阪府,大阪市北区,梅田３丁目２番１２３号,,27,127,5300001,,,,,,,2024-09-30,1,,,,,フィス,0
1178,6120103006067,新規,0,2024-09-30,2024-09-30,ＴＹ合同会社,,合同会社,大阪府,富田林市,錦織中１丁目９番１１号,,27,214,5840068,,,,,,,2024-09-30,1,,,,,ティワイ,0
1180,6120903005350,新規,0,2024-09-30,2024-09-30,合同会社クレリア,,合同会社,大阪府,豊中市,蛍池西町２－１５－１－２０７,,27,203,5600000,,,,,,,2024-09-30,1,,,,,クレリア,0
1181,6130001078026,新規,0,2024-09-30,2024-09-30,ＮｅｗＢａｒ株式会社,,株式会社,京都府,京都市東山区,大和大路通四条下る大和町１８番,,26,105,6050802,,,,,,,2024-09-30,1,,,,,ニューバー,0
1188,6140001135899,新規,0,2024-09-30,2024-09-30,株式会社ＲＥＦＬＥ仁,,株式会社,兵庫県,洲本市,上内膳３３７番地３,,28,205,6560017,,,,,,,2024-09-30,1,,,,,リフレジン,0
1189,6140001135908,新規,0,2024-09-30,2024-09-30,株式会社パルプラッツ,,株式会社,兵庫県,神戸市兵庫区,浜中町１丁目７番５－６０７号,,28,105,6520875,,,,,,,2024-09-30,1,,,,,パルプラッツ,0
1202,6180001163376,新規,0,2024-09-30,2024-09-30,ＳｕｍａＣｏ株式会社,,株式会社,愛知県,名古屋市北区,如来町１４０番地の２,,23,103,4620008,,,,,,,2024-09-30,1,,,,,スマコ,0
1206,6180303006290,新規,0,2024-09-30,2024-09-30,合同会社３,,合同会社,愛知県,額田郡幸田町,大字上六栗字中切２３番地１,,23,501,4440123,,,,,,,2024-09-30,1,,,,,スリー,0
1211,6220001026223,新規,0,2024-09-30,2024-09-30,ジェネラル株式会社,,株式会社,石川県,金沢市,堀川町７番２０号,,17,201,9200847,,,,,,,2024-09-30,1,,,,,ジェネラル,0
1217,6240001063850,新規,0,2024-09-30,2024-09-30,株式会社ライフグループ,,株式会社,広島県,広島市中区,八丁堀１５番１０号セントラルビル,,34,101,7300013,,,,,,,2024-09-30,1,,,,,ライフグループ,0
1218,6240001063867,新規,0,2024-09-30,2024-09-30,株式会社ＦＡＭＺ未来会計,,株式会社,広島県,広島市中区,舟入町２番２０号,,34,101,7300841,,,,,,,2024-09-30,1,,,,,ファムズミライカイケイ,0
1220,6240003006873,新規,0,2024-09-30,2024-09-30,星丸合同会社,,合同会社,広島県,広島市中区,堀川町１番－７号福連木ビル３階３０１,,34,101,7300033,,,,,,,2024-09-30,1,,,,,ホシマル,0
1225,6310001019226,新規,0,2024-09-30,2024-09-30,株式会社森山不動産,,株式会社,長崎県,長崎市,白木町７番１２号１０１,,42,201,8500812,,,,,,,2024-09-30,1,,,,,モリヤマフドウサン,0
1231,6360003014336,新規,0,2024-09-30,2024-09-30,合同会社ヤシの実,,合同会社,沖縄県,名護市,字為又２６９番地２シャトーユミザ５０６号室,,47,209,9050005,,,,,,,2024-09-30,1,,,,,ヤシノミ,0
1232,6370001051751,新規,0,2024-09-30,2024-09-30,株式会社コタプラン,,株式会社,宮城県,仙台市太白区,向山４丁目２番５号,,04,104,9820841,,,,,,,2024-09-30,1,,,,,コタプラン,0
1241,6440003001631,新規,0,2024-09-30,2024-09-30,合同会社エイチクラフト,,合同会社,北海道,函館市,美原３丁目２０番２０号,,01,202,0410806,,,,,,,2024-09-30,1,,,,,エイチクラフト,0
1243,6500001025898,新規,0,2024-09-30,2024-09-30,株式会社ランドユース山本,,株式会社,愛媛県,宇和島市,高串２番耕地２０６番地,,38,203,7980020,,,,,,,2024-09-30,1,,,,,ランドユースヤマモト,0
1249,7010001248564,新規,0,2024-09-30,2024-09-30,Ｃａｌｌａｉｓ　Ｎ’ｅｓｔ株式会社,,株式会社,東京都,中央区,銀座１丁目２２番１１号銀座大竹ビジデンス２Ｆ,,13,102,1040061,,,,,,,2024-09-30,1,,,,,カーライスネスト,0
1250,7010001248622,新規,0,2024-09-30,2024-09-30,スクラム・テクノロジーズ株式会社,,株式会社,東京都,中央区,新川１丁目３番２１号,,13,102,1040033,,,,,,,2024-09-30,1,,,,,スクラムテクノロジーズ,0
1251,7010001248630,新規,0,2024-09-30,2024-09-30,株式会社ｏｎｅ‐ｏｎ‐ｏｎｅ,,株式会社,東京都,中央区,日本橋室町１丁目１１番１２号日本橋水野ビル７階,,13,102,1030022,,,,,,,2024-09-30,1,,,,,ワンオンワン,0
1255,7010003045002,新規,0,2024-09-30,2024-09-30,合同会社Ｎｉｈｏｎ　Ｔａｌｅｎｔ　Ａｇｅｎｃｙ,,合同会社,東京都,中央区,銀座４丁目１３‐８岩藤ビル５階,,13,102,1040061,,,,,,,2024-09-30,1,,,,,ニホンタレントエージェンシー,0
1256,7010003045010,新規,0,2024-09-30,2024-09-30,ＫＫキャピタル合同会社,,合同会社,東京都,中央区,日本橋室町１丁目１１番１２号日本橋水野ビル７階,,13,102,1030022,,,,,,,2024-09-30,1,,,,,ケーケーキャピタル,0
1257,7010003045019,新規,0,2024-09-30,2024-09-30,合同会社幹光文化,,合同会社,東京都,中央区,銀座１丁目２２番１１号銀座大竹ビジデンス２Ｆ,,13,102,1040061,,,,,,,2024-09-30,1,,,,,カンコウブンカ,0
1266,7010403033507,新規,0,2024-09-30,2024-09-30,星光資産合同会社,,合同会社,東京都,港区,南青山５丁目４－１１ザ・パークハウスグラン南青山１１１号室,,13,103,1070062,,,,,,,2024-09-30,1,,,,,セイコウシサン,0
1270,7010701046598,新規,0,2024-09-30,2024-09-30,株式会社ＬｉｂＬｉｖｅ,,株式会社,東京都,品川区,東五反田１丁目２３番７号ＩＡＮＤＩ五反田１８Ｍ３Ｆ,,13,109,1410022,,,,,,,2024-09-30,1,,,,,リブライブ,0
1272,7010803005114,新規,0,2024-09-30,2024-09-30,合同会社翼製作,,合同会社,東京都,大田区,西蒲田７丁目４－４小山第二ビル６Ｆおおたｆａｂ,,13,111,1440051,,,,,,,2024-09-30,1,,,,,ツバサセイサク,0
1273,7010901056001,新規,0,2024-09-30,2024-09-30,Ｍａｉｎｓｔａｙ　Ｐａｒｔｎｅｒｓ株式会社,,株式会社,東京都,世田谷区,世田谷１丁目３－１８,,13,112,1540017,,,,,,,2024-09-30,1,,,,,メインステイパートナーズ,0
1274,7010903009386,新規,0,2024-09-30,2024-09-30,合同会社Ｓｈｉｎｏｚａｋｙ,,合同会社,東京都,世田谷区,新町２丁目２８番１８号,,13,112,1540014,,,,,,,2024-09-30,1,,,,,シノザキ,0
1278,7011001164850,新規,0,2024-09-30,2024-09-30,サンド株式会社,,株式会社,東京都,渋谷区,東２丁目２４－４荒井ビル３階,,13,113,1500011,,,,,,,2024-09-30,1,,,,,サンド,0
1280,7011101108922,新規,0,2024-09-30,2024-09-30,株式会社Ｇｒｏｖｅ　Ｐａｒｔｎｅｒｓ,,株式会社,東京都,新宿区,西新宿３丁目３番１３号西新宿水間ビル２Ｆ,,13,104,1600023,,,,,,,2024-09-30,1,,,,,グローブパートナーズ,0
1286,7011503006237,新規,0,2024-09-30,2024-09-30,合同会社ＮＰ,,合同会社,東京都,荒川区,西日暮里２丁目１６－３パロス日暮里１０１号,,13,118,1160013,,,,,,,2024-09-30,1,,,,,エヌピー,0
1288,7011703003975,新規,0,2024-09-30,2024-09-30,合同会社このみや,,合同会社,東京都,江戸川区,小松川２丁目１０－１－４１８,,13,123,1320034,,,,,,,2024-09-30,1,,,,,コノミヤ,0
1290,7011801044888,新規,0,2024-09-30,2024-09-30,株式会社オークマネジメント,,株式会社,東京都,足立区,綾瀬３丁目１９番１６号松代ビル２０２,,13,121,1200005,,,,,,,2024-09-30,1,,,,,オークマネジメント,0
1295,7012703003098,新規,0,2024-09-30,2024-09-30,合同会社ＦＩＮＤＳ,,合同会社,東京都,東久留米市,弥生１丁目６番５６号,,13,222,2030034,,,,,,,2024-09-30,1,,,,,ファインズ,0
1307,7020001159249,新規,0,2024-09-30,2024-09-30,株式会社保科商事,,株式会社,神奈川県,川崎市川崎区,小田２丁目１１番３号,,14,131,2100846,,,,,,,2024-09-30,1,,,,,ホシナショウジ,0
1308,7020003026926,新規,0,2024-09-30,2024-09-30,合同会社さわやかな風,,合同会社,神奈川県,横浜市青葉区,しらとり台３４－９－２０３,,14,117,2270054,,,,,,,2024-09-30,1,,,,,サワヤカナカゼ,0
1309,7020003026975,新規,0,2024-09-30,2024-09-30,合同会社ユーテック,,合同会社,神奈川県,横浜市旭区,笹野台３丁目３９番２１号,,14,112,2410816,,,,,,,2024-09-30,1,,,,,ユーテック,0
1312,7021001083307,新規,0,2024-09-30,2024-09-30,株式会社葵,,株式会社,神奈川県,海老名市,国分北３丁目１番７号,,14,215,2430406,,,,,,,2024-09-30,1,,,,,アオイ,0
1313,7021001083348,新規,0,2024-09-30,2024-09-30,ＭＡＧＮＯＬＩＡ株式会社,,株式会社,神奈川県,藤沢市,鵠沼桜が岡２丁目１０番９号,00136435,14,205,2510027,,,,,,,2024-09-30,1,,,,,マグノリア,0
1322,7030001162648,新規,0,2024-09-30,2024-09-30,株式会社Ｈｉｇｈ　Ｃｒｅａｔｉｏｎ,,株式会社,埼玉県,入間市,東藤沢６丁目２０番１３号,,11,225,3580012,,,,,,,2024-09-30,1,,,,,ハイクリエーション,0
1323,7030001162672,新規,0,2024-09-30,2024-09-30,Ｊａｐａｎ　Ｓｕｉｔｅ　Ｒｅｎｔａｌｓ株式会社,,株式会社,埼玉県,蕨市,塚越３丁目１４番１３号,,11,223,3350002,,,,,,,2024-09-30,1,,,,,ジャパンスウィートレンタルズ,0
1326,7040001135553,新規,0,2024-09-30,2024-09-30,ＢＥＡＲ　ＢＡＳＥ株式会社,,株式会社,千葉県,木更津市,朝日３丁目２－２３朝日メゾン２０６,,12,206,2920055,,,,,,,2024-09-30,1,,,,,ベアベース,0
1327,7040001135561,新規,0,2024-09-30,2024-09-30,株式会社ＳＭＩＬＥ　ＦＡＲＭＹ’Ｓ,,株式会社,千葉県,銚子市,常世田町９０７番地,,12,202,2880824,,,,,,,2024-09-30,1,,,,,スマイルファーミーズ,0
1329,7040003025884,新規,0,2024-09-30,2024-09-30,合同会社ＫＢＳ,,合同会社,千葉県,香取郡東庄町,東今泉２３５７番地３１,,12,349,2890613,,,,,,,2024-09-30,1,,,,,ケービーエス,0
1334,7050001055461,新規,0,2024-09-30,2024-09-30,株式会社つなぐみらい,,株式会社,茨城県,水戸市,南町２丁目４番４５号よしみやビル３－Ｂ,,08,201,3100021,,,,,,,2024-09-30,1,,,,,ツナグミライ,0
1335,7050003008698,新規,0,2024-09-30,2024-09-30,Ｏａｓｉｓ合同会社,,合同会社,茨城県,日立市,多賀町１丁目８番２号グリーンハウス３０２号室,,08,202,3160003,,,,,,,2024-09-30,1,,,,,オアシス,0
1336,7050005013498,新規,0,2024-09-30,2024-09-30,一般社団法人茨城県塗装みらい研究会,,その他の設立登記法人,茨城県,水戸市,東台２丁目９番６号,,08,201,3100818,,,,,,,2024-09-30,1,,,,,イバラキケントソウミライケンキュウカイ,0
1337,7060001037525,新規,0,2024-09-30,2024-09-30,株式会社Ｇ‐Ｌｕｃｋｓ,,株式会社,栃木県,下野市,緑５丁目２３番地１グリーンハイツ鈴木Ａ－２０６号,,09,216,3290433,,,,,,,2024-09-30,1,,,,,ジーラックス,0
1345,7080101025023,新規,0,2024-09-30,2024-09-30,株式会社未来,,株式会社,静岡県,富士市,中央町１丁目５番２４号１階,,22,210,4170052,,,,,,,2024-09-30,1,,,,,ミライ,0
1351,7090001018927,新規,0,2024-09-30,2024-09-30,株式会社アミューズランド,,株式会社,山梨県,北杜市,小淵沢町８００番地,,19,209,4080044,,,,,,,2024-09-30,1,,,,,アミューズランド,0
1361,7120001268816,新規,0,2024-09-30,2024-09-30,株式会社Ｂｅｌｉｅｖｅ,,株式会社,大阪府,大阪市生野区,新今里４丁目２－２０,,27,116,5440001,,,,,,,2024-09-30,1,,,,,ビリーブ,0
1363,7120003027609,新規,0,2024-09-30,2024-09-30,輝煌合同会社,,合同会社,大阪府,大阪市西成区,花園南１丁目１０番８号６１号室,,27,122,5570015,,,,,,,2024-09-30,1,,,,,キコウ,0
1365,7120005024554,新規,0,2024-09-30,2024-09-30,一般社団法人Ｒ・ＡＳＫ１３,,その他の設立登記法人,大阪府,大阪市北区,梅田３丁目２番２号,,27,127,5300001,,,,,,,2024-09-30,1,,,,,アールエーエスケーサーティーン,0
1376,7130003009886,新規,0,2024-09-30,2024-09-30,ＧＬＯＢＥＬＩＮＫ合同会社,,合同会社,京都府,京都市右京区,梅津フケノ川町１７番地７,,26,108,6150921,,,,,,,2024-09-30,1,,,,,グローブリンク,0
1382,7140001135881,新規,0,2024-09-30,2024-09-30,株式会社小西瓦店,,株式会社,兵庫県,佐用郡佐用町,中島９９８番地,,28,501,6795202,,,,,,,2024-09-30,1,,,,,コニシカワラテン,0
1383,7140001135915,新規,0,2024-09-30,2024-09-30,株式会社オフィス村瀬,,株式会社,兵庫県,姫路市,坂元町１２番地,,28,201,6700016,,,,,,,2024-09-30,1,,,,,オフィスムラセ,0
1389,7140003021130,新規,0,2024-09-30,2024-09-30,合同会社シャカイナグローリー,,合同会社,兵庫県,芦屋市,津知町１０番１４－Ｃ号,,28,206,6590075,,,,,,,2024-09-30,1,,,,,シャカイナグローリー,0
1390,7140005027217,新規,0,2024-09-30,2024-09-30,一般社団法人雪梅会,,その他の設立登記法人,兵庫県,神戸市中央区,楠町７丁目５番１号,,28,110,6500017,,,,,,,2024-09-30,1,,,,,セツバイカイ,0
1391,7150003003383,新規,0,2024-09-30,2024-09-30,ＫＡＲＭＡ合同会社,,合同会社,奈良県,山辺郡山添村,大字三ケ谷１６２８番地倉庫,,29,322,6302223,,,,,,,2024-09-30,1,,,,,カルマ,0
1403,7180001163375,新規,0,2024-09-30,2024-09-30,株式会社ノヴァベース,,株式会社,愛知県,名古屋市熱田区,三本松町１９番２号,,23,109,4560032,,,,,,,2024-09-30,1,,,,,ノヴァベース,0
1406,7180003027363,新規,0,2024-09-30,2024-09-30,照サービス合同会社,,合同会社,愛知県,名古屋市中区,平和１丁目１６－６チサンマンション東別院２０３号,,23,106,4600021,,,,,,,2024-09-30,1,,,,,ショウサービス,0
1408,7180305009613,新規,0,2024-09-30,2024-09-30,医療法人実琴会,,その他の設立登記法人,愛知県,豊川市,駅前通２丁目９８番２,,23,207,4420045,,,,,,,2024-09-30,1,,,,,ミコトカイ,0
1409,7190001031671,新規,0,2024-09-30,2024-09-30,株式会社ＪｅＶｏ,,株式会社,三重県,桑名市,大字小貝須１１４６‐８,,24,205,5110841,,,,,,,2024-09-30,1,,,,,ジェヴォ,0
1411,7200001042980,新規,0,2024-09-30,2024-09-30,鴻鵬海運日本株式会社,,株式会社,岐阜県,岐阜市,長良宮路町３丁目２０番地１,,21,201,5020053,,,,,,,2024-09-30,1,,,,,コウホウカイウンニホン,0
1423,7240005015839,新規,0,2024-09-30,2024-09-30,医療法人真路会,,その他の設立登記法人,広島県,広島市安佐南区,伴南１丁目５番１８－８－２０２号,,34,105,7313168,,,,,,,2024-09-30,1,,,,,シンロカイ,0
1427,7270003001672,新規,0,2024-09-30,2024-09-30,合同会社クローバーキッチン,,合同会社,鳥取県,米子市,上後藤８丁目１番７号,,31,202,6830841,,,,,,,2024-09-30,1,,,,,クローバーキッチン,0
1439,7410001013944,新規,0,2024-09-30,2024-09-30,株式会社みんなのお家,,株式会社,秋田県,鹿角市,十和田毛馬内字柏崎４１－３,,05,209,0185334,,,,,,,2024-09-30,1,,,,,,0
1442,7420001018876,新規,0,2024-09-30,2024-09-30,きむらこうき商店株式会社,,株式会社,青森県,五所川原市,字中平井町１６番地１,,02,205,0370066,,,,,,,2024-09-30,1,,,,,キムラコウキショウテン,0
1463,7430003016811,新規,0,2024-09-30,2024-09-30,合同会社ＣＳステーブル,,合同会社,北海道,新冠郡新冠町,字万世１５番地の２,,01,604,0592426,,,,,,,2024-09-30,1,,,,,シーエスステーブル,0
1464,7430003016836,新規,0,2024-09-30,2024-09-30,合同会社Ｔ＆Ａ,,合同会社,北海道,札幌市中央区,南六条東２丁目１１番地１エッジウォーターテラス１５０７号,,01,101,0600056,,,,,,,2024-09-30,1,,,,,ティーアンドエー,0
1465,7450005004424,新規,0,2024-09-30,2024-09-30,一般社団法人ちいさなじちのものがたり,,その他の設立登記法人,北海道,上川郡下川町,錦町２０９番地,,01,468,0981207,,,,,,,2024-09-30,1,,,,,チイサナジチノモノガタリ,0
1477,8010001248555,新規,0,2024-09-30,2024-09-30,王子国際観光株式会社,,株式会社,東京都,中央区,銀座１丁目２８－１４－３Ｆ,,13,102,1040061,,,,,,,2024-09-30,1,,,,,オウジコクサイカンコウ,0
1478,8010001248571,新規,0,2024-09-30,2024-09-30,株式会社ＨＩＢＡＬ,,株式会社,東京都,千代田区,神田佐久間町１丁目８番地４アルテール秋葉原７０８,,13,101,1010025,,,,,,,2024-09-30,1,,,,,ヒバル,0
1479,8010001248588,新規,0,2024-09-30,2024-09-30,Ｃｏｎｎｅｃｔｉｎｇ　Ｔｈｅ　Ｃｏｍｍｕｎｉｔｉｅｓ株式会社,,株式会社,東京都,中央区,銀座１丁目２２－１１銀座大竹ビジデンス２階,,13,102,1040061,,,,,,,2024-09-30,1,,,,,コネクティングザコミュニティーズ,0
1480,8010001248605,新規,0,2024-09-30,2024-09-30,株式会社ＣＩＥＬ,,株式会社,東京都,中央区,銀座１丁目１２番４号７階,,13,102,1040061,,,,,,,2024-09-30,1,,,,,シエル,0
1481,8010001248613,新規,0,2024-09-30,2024-09-30,株式会社千輪社,,株式会社,東京都,千代田区,有楽町１丁目２番７号,,13,101,1000006,,,,,,,2024-09-30,1,,,,,センリンシャ,0
1482,8010001248621,新規,0,2024-09-30,2024-09-30,清飛ヘルースプロパティ株式会社,,株式会社,東京都,中央区,銀座１丁目２８番１７－２０４号,,13,102,1040061,,,,,,,2024-09-30,1,,,,,セイヒヘルースプロパティ,0
1483,8010001248662,新規,0,2024-09-30,2024-09-30,株式会社ＳＯＲＡＴＯ,,株式会社,東京都,千代田区,九段北１丁目９番５号朝日九段ビル５０３号,,13,101,1020073,,,,,,,2024-09-30,1,,,,,ソラト,0
1489,8010003045001,新規,0,2024-09-30,2024-09-30,合同会社家吉,,合同会社,東京都,中央区,日本橋人形町２丁目７番５－６０８号,,13,102,1030013,,,,,,,2024-09-30,1,,,,,イエヨシ,0
1497,8010801035426,新規,0,2024-09-30,2024-09-30,ＤａｔｅＢｏｏｋ株式会社,,株式会社,東京都,大田区,田園調布３丁目３－１２,,13,111,1450071,,,,,,,2024-09-30,1,,,,,デイトブック,0
1504,8011001164791,新規,0,2024-09-30,2024-09-30,株式会社ＮＡＴＵＲＡＬ　ＥＮＥＲＧＹ,,株式会社,東京都,渋谷区,神南１丁目１３番１５号神南ペアシティ３０５,,13,113,1500041,,,,,,,2024-09-30,1,,,,,ナチュラルエナジー,0
1505,8011001164874,新規,0,2024-09-30,2024-09-30,株式会社ｐｅｒｃｅｎｔ　Ｘ,,株式会社,東京都,渋谷区,渋谷２丁目１９－１５宮益坂ビルディング６０９,,13,113,1500002,,,,,,,2024-09-30,1,,,,,パーセントエックス,0
1507,8011005010686,新規,0,2024-09-30,2024-09-30,医療法人社団永慶会,,その他の設立登記法人,東京都,渋谷区,神宮前５丁目５０番６号サクセス青山ビル３階,,13,113,1500001,,,,,,,2024-09-30,1,,,,,エイケイカイ,0
1511,8011101108913,新規,0,2024-09-30,2024-09-30,株式会社イーレント,,株式会社,東京都,新宿区,百人町１丁目１８番８号大久保カドビルＬｉｎｋＳｐａｃｅ百人町Ｃ１８,,13,104,1690073,,,,,,,2024-09-30,1,,,,,イーレント,0
1512,8011103014977,新規,0,2024-09-30,2024-09-30,合同会社Ｅｉｚａｎ,,合同会社,東京都,新宿区,西新宿３丁目３番１３号西新宿水間ビル６階,,13,104,1600023,,,,,,,2024-09-30,1,,,,,エイザン,0
1518,8011703003974,新規,0,2024-09-30,2024-09-30,合同会社江戸壱工業,,合同会社,東京都,江戸川区,篠崎町２丁目２５－１８リヴィエール篠崎２０５,,13,123,1330061,,,,,,,2024-09-30,1,,,,,エドイチコウギョウ,0
1521,8011801044846,新規,0,2024-09-30,2024-09-30,山二商事株式会社,,株式会社,東京都,葛飾区,新宿２丁目２３番８号,,13,122,1250051,,,,,,,2024-09-30,1,,,,,ヤマニショウジ,0
1526,8012701018469,新規,0,2024-09-30,2024-09-30,株式会社ＴＫＭ　ＷＯＲＫＳ,,株式会社,東京都,西東京市,芝久保町１丁目２１番１６号,,13,229,1880014,,,,,,,2024-09-30,1,,,,,ティーケーエムワークス,0
1527,8012703003097,新規,0,2024-09-30,2024-09-30,ＲＥＩＧＨＴＳ合同会社,,合同会社,東京都,西東京市,西原町３丁目５番４－３０１号,,13,229,1880004,,,,,,,2024-09-30,1,,,,,レイツ,0
1536,8021001083347,新規,0,2024-09-30,2024-09-30,株式会社Ｍｉｎｏｒｉ,,株式会社,神奈川県,平塚市,四之宮３丁目１２番４号,,14,203,2540014,,,,,,,2024-09-30,1,,,,,ミノリ,0
1544,8030001162564,新規,0,2024-09-30,2024-09-30,福永建設株式会社,,株式会社,埼玉県,所沢市,上新井５丁目２２番地の１２,,11,208,3591142,,,,,,,2024-09-30,1,,,,,フクナガケンセツ,0
1545,8030001162647,新規,0,2024-09-30,2024-09-30,Ｈｏｍｅ　Ｙｏｕ株式会社,,株式会社,埼玉県,南埼玉郡宮代町,宮代１丁目１番２０－６０８号,,11,442,3450823,,,,,,,2024-09-30,1,,,,,ホームユー,0
1546,8030001162655,新規,0,2024-09-30,2024-09-30,株式会社トライプロス,,株式会社,埼玉県,所沢市,けやき台１丁目１３番地の４,,11,208,3591118,,,,,,,2024-09-30,1,,,,,トライプロス,0
1553,8040001135560,新規,0,2024-09-30,2024-09-30,株式会社Ｃｏｎｎｅｃｔ,,株式会社,千葉県,市川市,北方町４丁目２０９４,,12,203,2720811,,,,,,,2024-09-30,1,,,,,シーオーエヌエヌイーシーティー,0
1559,8040005022516,新規,0,2024-09-30,2024-09-30,フロームファースト市川管理組合法人,,その他の設立登記法人,千葉県,市川市,市川１丁目３番３号,,12,203,2720034,,,,,,,2024-09-30,1,,,,,フロームファーストイチカワ,0
1560,8050001055460,新規,0,2024-09-30,2024-09-30,ＳＥＩＫＡ株式会社,,株式会社,茨城県,稲敷市,江戸崎甲２１０番地６,,08,229,3000504,,,,,,,2024-09-30,1,,,,,セイカ,0
1562,8050003008697,新規,0,2024-09-30,2024-09-30,合同会社夢心,,合同会社,茨城県,鹿嶋市,大字国末１５０８番地５,,08,222,3140016,,,,,,,2024-09-30,1,,,,,ムシン,0
1574,8080105006456,新規,0,2024-09-30,2024-09-30,特定非営利活動法人森里人ヘルシーリンク,,その他の設立登記法人,静岡県,駿東郡小山町,柳島４１５番地の１,,22,344,4101301,,,,,,,2024-09-30,1,,,,,モリトヘルシーリンク,0
1577,8090005007652,新規,0,2024-09-30,2024-09-30,医療法人社団緑奏会,,その他の設立登記法人,山梨県,甲斐市,下今井１０６０番地１,,19,210,4000105,,,,,,,2024-09-30,1,,,,,リョクソウカイ,0
1578,8100001037890,新規,0,2024-09-30,2024-09-30,道安国際咨詢株式会社,,株式会社,長野県,北佐久郡軽井沢町,大字長倉２１３９－９２０（別荘番号：千ヶ滝西区３７０３）,,20,321,3890111,,,,,,,2024-09-30,1,,,,,ドアンインターナショナルコンサルティング,0
1580,8110001038723,新規,0,2024-09-30,2024-09-30,エステート源株式会社,,株式会社,新潟県,上越市,大字下源入２４１番地,,15,222,9420051,,,,,,,2024-09-30,1,,,,,エステートミナモト,0
1583,8110003005531,新規,0,2024-09-30,2024-09-30,合同会社ハッピー,,合同会社,新潟県,加茂市,赤谷１０－７,,15,209,9591324,,,,,,,2024-09-30,1,,,,,ハッピー,0
1590,8120001268823,新規,0,2024-09-30,2024-09-30,株式会社ＭＫ,,株式会社,大阪府,大阪市生野区,勝山北５丁目７－２２,,27,116,5440033,,,,,,,2024-09-30,1,,,,,エムケイ,0
1591,8120001268831,新規,0,2024-09-30,2024-09-30,豊国シッピング株式会社,,株式会社,大阪府,大阪市北区,梅田２丁目５番２５号,,27,127,5300001,,,,,,,2024-09-30,1,,,,,ホウコクシッピング,0
1592,8120001268848,新規,0,2024-09-30,2024-09-30,株式会社京葉ＩＮＧアセットマネジメント,,株式会社,大阪府,大阪市中央区,南本町２丁目３番１２号,,27,128,5410054,,,,,,,2024-09-30,1,,,,,ケイヨウイングアセットマネジメント,0
1593,8120001268872,新規,0,2024-09-30,2024-09-30,安士製薬株式会社,,株式会社,大阪府,大阪市北区,堂山町１－５三共梅田ビル６階センターオフィス,,27,127,5300027,,,,,,,2024-09-30,1,,,,,アンシセイヤク,0
1601,8120103006073,新規,0,2024-09-30,2024-09-30,ＳＴＥＥＤ合同会社,,合同会社,大阪府,藤井寺市,小山５丁目２番１８－２０１号,,27,226,5830033,,,,,,,2024-09-30,1,,,,,スティード,0
1603,8120901049802,新規,0,2024-09-30,2024-09-30,株式会社Ｆｕｔｕｒｏ,,株式会社,大阪府,吹田市,桃山台２丁目３番３－３０５号,,27,205,5650854,,,,,,,2024-09-30,1,,,,,フトゥーロ,0
1606,8122001038470,新規,0,2024-09-30,2024-09-30,株式会社ＫＡＳＫ,,株式会社,大阪府,東大阪市,横小路町４丁目３番２７号,,27,227,5798063,,,,,,,2024-09-30,1,,,,,カスク,0
1607,8122003003010,新規,0,2024-09-30,2024-09-30,みらい創造パートナーズ合同会社,,合同会社,大阪府,八尾市,北本町３丁目１２－５,,27,212,5810802,,,,,,,2024-09-30,1,,,,,ミライソウゾウパートナーズ,0
1612,8140001135922,新規,0,2024-09-30,2024-09-30,志水設備株式会社,,株式会社,兵庫県,加古川市,野口町坂元１２６番地の７,,28,210,6750018,,,,,,,2024-09-30,1,,,,,シミズセツビ,0
1624,8180001163382,新規,0,2024-09-30,2024-09-30,株式会社ルナ・スター,,株式会社,愛知県,知多市,八幡字汐海道１３６番地の６,,23,224,4780001,,,,,,,2024-09-30,1,,,,,ルナスター,0
1626,8180005020786,新規,0,2024-09-30,2024-09-30,医療法人菅谷クリニック,,その他の設立登記法人,愛知県,名古屋市瑞穂区,豆田町２丁目１番,,23,108,4670864,,,,,,,2024-09-30,1,,,,,スガヤクリニック,0
1633,8180303006280,新規,0,2024-09-30,2024-09-30,合同会社ＲｉｚｅＨａｐｐｙメディア館,,合同会社,愛知県,額田郡幸田町,大字菱池字大山１７番地１,,23,501,4440113,,,,,,,2024-09-30,1,,,,,ライズハッピーメディアカン,0
1634,8180303006289,新規,0,2024-09-30,2024-09-30,ＨＴＫＭ合同会社,,合同会社,愛知県,岡崎市,赤渋町字下郷中３５番地,,23,202,4440241,,,,,,,2024-09-30,1,,,,,エイチティケーエム,0
1635,8180305009612,新規,0,2024-09-30,2024-09-30,医療法人清稜会,,その他の設立登記法人,愛知県,安城市,横山町八左１９７番１０,,23,212,4460045,,,,,,,2024-09-30,1,,,,,セイリョウカイ,0
1650,8220001026221,新規,0,2024-09-30,2024-09-30,株式会社寿,,株式会社,石川県,金沢市,泉が丘１丁目３‐１０マストテラス金沢泉ケ丘２０４号,,17,201,9218035,,,,,,,2024-09-30,1,,,,,コトブキ,0
1651,8220003003846,新規,0,2024-09-30,2024-09-30,Ｕｌｕ合同会社,,合同会社,石川県,金沢市,駅西本町５丁目８番３２号,,17,201,9200025,,,,,,,2024-09-30,1,,,,,ウル,0
1652,8250001020832,新規,0,2024-09-30,2024-09-30,山口航測株式会社,,株式会社,山口県,山口市,駅通り２丁目５番１１号５－Ｃ号室,,35,203,7530048,,,,,,,2024-09-30,1,,,,,ヤマグチコウソク,0
1657,8290003015835,新規,0,2024-09-30,2024-09-30,合同会社Ｍ　Ｐｌａｎｏ,,合同会社,福岡県,久留米市,上津町２１３１番地３８,,40,203,8300052,,,,,,,2024-09-30,1,,,,,エムプラノ,0
1660,8330001032480,新規,0,2024-09-30,2024-09-30,ｍｏｇａｎａ　ｃｒｅａｔｉｏｎ株式会社,,株式会社,熊本県,熊本市東区,三郎１丁目１４番３号Ｎビル１０２号,,43,102,8620922,,,,,,,2024-09-30,1,,,,,モガナクリエーション,0
1669,8370001051766,新規,0,2024-09-30,2024-09-30,株式会社Ｗｅｌｌ　ｃｏｍｍｕｎｉｃａｔｅ,,株式会社,宮城県,仙台市青葉区,本町１丁目５番２８号カーニープレイス仙台駅前通６０３号室,,04,101,9800014,,,,,,,2024-09-30,1,,,,,ウェルコミュニケート,0
1671,8380001002537,新規,0,2024-09-30,2024-09-30,株式会社宝玄建設,,株式会社,福島県,伊達郡伊達町,大字箱崎字宝玄２０番地,,07,302,9600502,,,,,,,2024-09-30,1,,,,,ホウゲンケンセツ,0
1679,8410003003991,新規,0,2024-09-30,2024-09-30,合同会社チル,,合同会社,秋田県,秋田市,大町３丁目４番１１号ハイクリエイトビル２０７号,,05,201,0100921,,,,,,,2024-09-30,1,,,,,チル,0
1684,8430001092580,新規,0,2024-09-30,2024-09-30,株式会社ＭＡＴＡＧＩ,,株式会社,北海道,札幌市中央区,南八条西１２丁目２番１０号,,01,101,0640808,,,,,,,2024-09-30,1,,,,,マタギ,0
1685,8430001092762,新規,0,2024-09-30,2024-09-30,株式会社ＳｕＲｏ　Ｇｒｏｕｐ,,株式会社,北海道,札幌市北区,北二十一条西４丁目１番１５号,,01,102,0010021,,,,,,,2024-09-30,1,,,,,スログループ,0
1688,8450001014418,新規,0,2024-09-30,2024-09-30,株式会社ＷＡＫＡＳＡホールディングス,,株式会社,北海道,旭川市,永山町１１丁目１９４番２号,,01,204,0798431,,,,,,,2024-09-30,1,,,,,ワカサホールディングス,0
1693,8470005006582,新規,0,2024-09-30,2024-09-30,一般社団法人高松相続相談センター,,その他の設立登記法人,香川県,高松市,今里町２丁目３９番地,,37,201,7600078,,,,,,,2024-09-30,1,,,,,タカマツソウゾクソウダンセンター,0
1705,9010001248546,新規,0,2024-09-30,2024-09-30,ＩＣＥＹＥ　Ｊａｐａｎ株式会社,,株式会社,東京都,千代田区,丸の内２丁目１番１号明治生命館７階ディーエルエイ・パイパー東京パートナーシップ外国法共同事業法律事務所内,,13,101,1000005,,,,,,,2024-09-30,1,,,,,アイサイジャパン,0
1706,9010001248570,新規,0,2024-09-30,2024-09-30,株式会社大正,,株式会社,東京都,文京区,小石川５丁目４番１０－２０１号,,13,105,1120002,,,,,,,2024-09-30,1,,,,,タイショウ,0
1707,9010001248604,新規,0,2024-09-30,2024-09-30,株式会社ＧＹＭエンターテイメント,,株式会社,東京都,千代田区,東神田２丁目８番９－７０２号,,13,101,1010031,,,,,,,2024-09-30,1,,,,,ジーワイエムエンターテイメント,0
1708,9010001248645,新規,0,2024-09-30,2024-09-30,ファミリーファイナンシャルアドバイザーズ株式会社,,株式会社,東京都,中央区,銀座１丁目２２番１１号銀座大竹ビジデンス２Ｆ,,13,102,1040061,,,,,,,2024-09-30,1,,,,,ファミリーファイナンシャルアドバイザーズ,0
1710,9010003045000,新規,0,2024-09-30,2024-09-30,首都圏レジ２合同会社,,合同会社,東京都,千代田区,霞が関３丁目２番５号,,13,101,1000013,,,,,,,2024-09-30,1,,,,,シュトケンレジニ,0
1711,9010003045025,新規,0,2024-09-30,2024-09-30,合同会社ラフィネス,,合同会社,東京都,文京区,関口１丁目６番８号ラフィネ小石川３０１,,13,105,1120014,,,,,,,2024-09-30,1,,,,,ラフィネス,0
1717,9010401185067,新規,0,2024-09-30,2024-09-30,ＦＳ株式会社,,株式会社,東京都,港区,浜松町２丁目７番１７号イーグル浜松町,,13,103,1050013,,,,,,,2024-09-30,1,,,,,エフエス,0
1720,9010403033471,新規,0,2024-09-30,2024-09-30,Ｖｏｘｌ　Ｓｔｕｄｉｏｓ合同会社,,合同会社,東京都,港区,赤坂２丁目１４番５号Ｄａｉｗａ赤坂ビル４階,,13,103,1070052,,,,,,,2024-09-30,1,,,,,ボクサルストューディオーズ,0
1721,9010403033505,新規,0,2024-09-30,2024-09-30,伊賀土地合同会社,,合同会社,東京都,港区,六本木３丁目２番１号六本木グランドタワー,,13,103,1060032,,,,,,,2024-09-30,1,,,,,イガトチ,0
1724,9010501052943,新規,0,2024-09-30,2024-09-30,株式会社芳王,,株式会社,東京都,台東区,下谷１丁目１１－１５ソレイユ入谷４Ｆ６Ｂ,,13,106,1100004,,,,,,,2024-09-30,1,,,,,ヨシオウ,0
1728,9010803005112,新規,0,2024-09-30,2024-09-30,Ｌｕｍｉｎｏｕｓ合同会社,,合同会社,東京都,大田区,田園調布１丁目５０番１２号,,13,111,1450071,,,,,,,2024-09-30,1,,,,,ルミナス,0
1734,9010903009384,新規,0,2024-09-30,2024-09-30,ＫＫグローバルアソシエイツ合同会社,,合同会社,東京都,世田谷区,弦巻４丁目３４番１１号桜新町シティハウス４０３号,,13,112,1540016,,,,,,,2024-09-30,1,,,,,ケイケイグローバルアソシエイツ,0
1742,9011005010710,新規,0,2024-09-30,2024-09-30,司法書士法人アベリア,,その他の設立登記法人,東京都,渋谷区,恵比寿１丁目２０番２号恵比寿ファーストビル５階,,13,113,1500013,,,,,,,2024-09-30,1,,,,,アベリア,0
1748,9011101108920,新規,0,2024-09-30,2024-09-30,株式会社サンカク,,株式会社,東京都,新宿区,西新宿１丁目２６番２号新宿野村ビル３２階,,13,104,1600023,,,,,,,2024-09-30,1,,,,,サンカク,0
1749,9011101108929,新規,0,2024-09-30,2024-09-30,株式会社エスケー,,株式会社,東京都,新宿区,新宿６丁目２７番２９号,,13,104,1600022,,,,,,,2024-09-30,1,,,,,エスケー,0
1750,9011201025818,新規,0,2024-09-30,2024-09-30,株式会社Ｂｏｎａｎｚａ,,株式会社,東京都,中野区,本町３丁目２０－８－２０５,,13,114,1640012,,,,,,,2024-09-30,1,,,,,ボナンザ,0
1757,9011501031152,新規,0,2024-09-30,2024-09-30,ＡＧＡＴＥ株式会社,,株式会社,東京都,北区,豊島７丁目１６－２、２階,,13,117,1140003,,,,,,,2024-09-30,1,,,,,アゲート,0
1758,9011501031193,新規,0,2024-09-30,2024-09-30,株式会社ＴＲＹＲｉｃ,,株式会社,東京都,荒川区,西日暮里４丁目１２番１０山一ビル２０１号,,13,118,1160013,,,,,,,2024-09-30,1,,,,,トライリック,0
1763,9012401042322,新規,0,2024-09-30,2024-09-30,株式会社ケレス,,株式会社,東京都,稲城市,矢野口１１０８番地のロ号,,13,225,2060812,,,,,,,2024-09-30,1,,,,,ケレス,0
1766,9012701018468,新規,0,2024-09-30,2024-09-30,株式会社ｃｏｃｏｋａｒａＮｅｗ,,株式会社,東京都,西東京市,芝久保町３丁目２２番１６号,,13,229,1880014,,,,,,,2024-09-30,1,,,,,ココカラニュウ,0
1767,9012703003096,新規,0,2024-09-30,2024-09-30,ＦｌｕｘＰｕｌｓｅ合同会社,,合同会社,東京都,東久留米市,前沢５丁目３２番２６号,,13,222,2030032,,,,,,,2024-09-30,1,,,,,フラックスパルス,0
1771,9020001159255,新規,0,2024-09-30,2024-09-30,株式会社ＤＵＳＫ,,株式会社,神奈川県,川崎市中原区,上丸子山王町２丁目１０４８番地ヤマトビル１０２,,14,133,2110002,,,,,,,2024-09-30,1,,,,,ダスク,0
1772,9020001159271,新規,0,2024-09-30,2024-09-30,ＹＫリフォーム株式会社,,株式会社,神奈川県,横浜市西区,北幸２丁目１０番４８号むつみビル３階,,14,103,2200004,,,,,,,2024-09-30,1,,,,,ワイケイリフォーム,0
1777,9020003026916,新規,0,2024-09-30,2024-09-30,合同会社ＫＣＢ,,合同会社,神奈川県,川崎市中原区,木月住吉町３０－３４ＰＬＡＩＮＩＩＩ１０１,00136431,14,133,2110021,,,,,,,2024-09-30,1,,,,,ケイシイビイ,0
1778,9020003026932,新規,0,2024-09-30,2024-09-30,ＲＥＢＯＯＯＴ合同会社,,合同会社,神奈川県,川崎市麻生区,栗平２丁目１６番２９号,,14,137,2150031,,,,,,,2024-09-30,1,,,,,リブート,0
1791,9030001162464,新規,0,2024-09-30,2024-09-30,株式会社ＥＭＢＡＲＫ,,株式会社,埼玉県,比企郡川島町,八幡２丁目１０番地１６,,11,346,3500151,,,,,,,2024-09-30,1,,,,,エンバーク,0
1792,9030001162646,新規,0,2024-09-30,2024-09-30,株式会社崚越工業,,株式会社,埼玉県,熊谷市,三ヶ尻２９１３番地６,,11,202,3600843,,,,,,,2024-09-30,1,,,,,リョウエツコウギョウ,0
1793,9030001162670,新規,0,2024-09-30,2024-09-30,株式会社アクア,,株式会社,埼玉県,越谷市,大字袋山１６２７番地６,,11,222,3430032,,,,,,,2024-09-30,1,,,,,アクア,0
1795,9030003025198,新規,0,2024-09-30,2024-09-30,なないろ合同会社,,合同会社,埼玉県,所沢市,松葉町１番５号新所沢ビル２階,,11,208,3590044,,,,,,,2024-09-30,1,,,,,ナナイロ,0
1806,9050001055451,新規,0,2024-09-30,2024-09-30,株式会社ＴＲＵＳＴＧＡＲＡＧＥ,,株式会社,茨城県,筑西市,玉戸１２８９番地８３,,08,227,3080847,,,,,,,2024-09-30,1,,,,,トラストガレージ,0
1822,9080105006455,新規,0,2024-09-30,2024-09-30,ＮＰＯ法人伊豆下田共創プラットフォーム,,その他の設立登記法人,静岡県,下田市,二丁目１２番１号,,22,219,4150022,,,,,,,2024-09-30,1,,,,,イズシモダキョウソウプラットフォーム,0
1825,9080405007673,新規,0,2024-09-30,2024-09-30,さくら行政書士法人,,その他の設立登記法人,静岡県,浜松市中央区,曳馬６丁目２２番１０号,,22,138,4300901,,,,,,,2024-09-30,1,,,,,サクラ,0
1835,9120001268145,新規,0,2024-09-30,2024-09-30,風華高科農業食品株式会社,,株式会社,大阪府,大阪市淀川区,田川１丁目１２番２２号,,27,123,5320027,,,,,,,2024-09-30,1,,,,,フウカコウカノウギョウショクヒン,0
1838,9120103006072,新規,0,2024-09-30,2024-09-30,合同会社シンセイ,,合同会社,大阪府,堺市中区,堀上町１９６番地１（２０２）,,27,142,5998261,,,,,,,2024-09-30,1,,,,,シンセイ,0
1839,9120901049826,新規,0,2024-09-30,2024-09-30,株式会社ＬＡＫＡ,,株式会社,大阪府,箕面市,小野原東５丁目１５番１５号,,27,220,5620031,,,,,,,2024-09-30,1,,,,,ラカ,0
1845,9122001038461,新規,0,2024-09-30,2024-09-30,株式会社ＰＡＳＳＩＯ,,株式会社,大阪府,八尾市,安中町４丁目８番１８号,,27,212,5810085,,,,,,,2024-09-30,1,,,,,パシオ,0
1846,9122001038478,新規,0,2024-09-30,2024-09-30,株式会社ＨＴＳ,,株式会社,大阪府,東大阪市,日下町２丁目９－１３,,27,227,5798003,,,,,,,2024-09-30,1,,,,,エイチティーエス,0
1849,9130001078023,新規,0,2024-09-30,2024-09-30,株式会社ＧＡＴＥ,,株式会社,京都府,舞鶴市,字浜３７２－１,,26,202,6250036,,,,,,,2024-09-30,1,,,,,ゲート,0
1852,9140001135863,新規,0,2024-09-30,2024-09-30,株式会社ヒアーズテック,,株式会社,兵庫県,尼崎市,額田町５－４６,,28,202,6610962,,,,,,,2024-09-30,1,,,,,ヒアーズテック,0
1868,9180001163407,新規,0,2024-09-30,2024-09-30,株式会社そっから,,株式会社,愛知県,名古屋市東区,古出来２丁目５番１０号,,23,102,4610049,,,,,,,2024-09-30,1,,,,,ソッカラ,0
1869,9180001163431,新規,0,2024-09-30,2024-09-30,株式会社日本住宅ＮＥＸＴ,,株式会社,愛知県,春日井市,松河戸町５丁目２番地２６,,23,206,4860932,,,,,,,2024-09-30,1,,,,,ニホンジュウタクネクスト,0
1870,9180001163464,新規,0,2024-09-30,2024-09-30,ｃａｔｄｏｇ株式会社,,株式会社,愛知県,名古屋市名東区,藤森１丁目２８６番地の６,,23,115,4650026,,,,,,,2024-09-30,1,,,,,キャットドッグ,0
1878,9190003004806,新規,0,2024-09-30,2024-09-30,ＩＮｖｉｌｌａｇｅ合同会社,,合同会社,三重県,伊勢市,小俣町明野９８２番地３,,24,203,5190501,,,,,,,2024-09-30,1,,,,,インヴィレッジ,0
1879,9200001042979,新規,0,2024-09-30,2024-09-30,株式会社Ｍ．ｂｒｅｅｚｅ,,株式会社,岐阜県,岐阜市,蔵前６丁目２１番７号,,21,201,5008233,,,,,,,2024-09-30,1,,,,,エムブリーズ,0
1884,9220001026229,新規,0,2024-09-30,2024-09-30,株式会社Ｆｅｌｉｘ,,株式会社,石川県,金沢市,大河端町東１０５番地１,,17,201,9200213,,,,,,,2024-09-30,1,,,,,フィリックス,0
1886,9230001015049,新規,0,2024-09-30,2024-09-30,福田勘産業株式会社,,株式会社,富山県,富山市,宝町１丁目４番１号,,16,201,9300007,,,,,,,2024-09-30,1,,,,,,0
1890,9250001020831,新規,0,2024-09-30,2024-09-30,三洋商事株式会社,,株式会社,山口県,長門市,西深川２８６１番地３,,35,211,7594102,,,,,,,2024-09-30,1,,,,,サンヨウショウジ,0
1895,9270005005612,新規,0,2024-09-30,2024-09-30,一般社団法人生命医科学研究ステーション,,その他の設立登記法人,鳥取県,米子市,西町８６番地,,31,202,6830826,,,,,,,2024-09-30,1,,,,,セイメイイカガクケンキュウステーション,0
1897,9290001107311,新規,0,2024-09-30,2024-09-30,株式会社Ｊ　ＴＮＴ,,株式会社,福岡県,福岡市中央区,天神２丁目２番１２号Ｔ＆Ｊビルディング７Ｆ,,40,133,8100001,,,,,,,2024-09-30,1,,,,,ジェイティーエヌティー,0
1898,9290001107328,新規,0,2024-09-30,2024-09-30,株式会社ＣａｒｅＳｍｉｌｅ,,株式会社,福岡県,大牟田市,姫島町３８番地７姫島ビル２０Ｃ,,40,202,8360056,,,,,,,2024-09-30,1,,,,,ケアスマイル,0
1899,9290003015834,新規,0,2024-09-30,2024-09-30,合同会社フルカワ石陶,,合同会社,福岡県,福岡市西区,福重３丁目１７番１４－２０７号シャトレ喜多崎,,40,135,8190022,,,,,,,2024-09-30,1,,,,,フルカワセキトウ,0
1901,9320001020733,新規,0,2024-09-30,2024-09-30,株式会社プロサポ大分,,株式会社,大分県,別府市,大字鶴見１８８１－１５,,44,202,8740840,,,,,,,2024-09-30,1,,,,,プロサポオオイタ,0
1902,9330001032488,新規,0,2024-09-30,2024-09-30,株式会社ＲＪ,,株式会社,熊本県,熊本市中央区,下通２丁目５番１０－６０２号シャワーサイドテラス,,43,101,8600807,,,,,,,2024-09-30,1,,,,,アールジェイ,0
1903,9330003010574,新規,0,2024-09-30,2024-09-30,合同会社ライズ,,合同会社,熊本県,熊本市中央区,中央街８番１０号,,43,101,8600802,,,,,,,2024-09-30,1,,,,,ライズ,0
1905,9350003004756,新規,0,2024-09-30,2024-09-30,Ｇｏａｌ合同会社,,合同会社,宮崎県,宮崎市,吉村町南今村甲４０５４－２仁田脇マンション２０１,,45,201,8800841,,,,,,,2024-09-30,1,,,,,ゴール,0
1907,9370001051757,新規,0,2024-09-30,2024-09-30,ライズオン株式会社,,株式会社,宮城県,岩沼市,玉浦西２丁目４番地の７,,04,211,9892428,,,,,,,2024-09-30,1,,,,,ライズオン,0
1908,9370001051765,新規,0,2024-09-30,2024-09-30,株式会社Ｓｏｌ　ｒａｉｚｕ,,株式会社,宮城県,仙台市青葉区,国分町２丁目５番１号４Ｆ,,04,101,9800803,,,,,,,2024-09-30,1,,,,,ソルライズ,0
1909,9370003006767,新規,0,2024-09-30,2024-09-30,Ｍ＆ＲＥＰＯＳ合同会社,,合同会社,宮城県,仙台市青葉区,二日町１１－３１－１００１,,04,101,9800802,,,,,,,2024-09-30,1,,,,,エムアンドルポ,0
1923,9430003016826,新規,0,2024-09-30,2024-09-30,合同会社ニセコデザイン,,合同会社,北海道,千歳市,緑町１丁目３－３０,,01,224,0660074,,,,,,,2024-09-30,1,,,,,ニセコデザイン,0
1925,9450001014417,新規,0,2024-09-30,2024-09-30,株式会社ちあふる,,株式会社,北海道,旭川市,末広五条２丁目３番２０号,,01,204,0718135,,,,,,,2024-09-30,1,,,,,チアフル,0
