sequenceNumber,corporateNumber,process,correct,updateDate,changeDate,name,nameImageId,kind,prefectureName,cityName,streetNumber,addressImageId,prefectureCode,cityCode,postCode,addressOutside,addressOutsideImageId,closeDate,closeCause,successorCorporateNumber,changeCause,assignmentDate,latest,enName,enPrefectureName,enCityName,enAddressOutside,furigana,hihyoji
3,1010001074660,登記記録の閉鎖等,0,2023-05-15,2023-05-02,株式会社カイエ,,株式会社,東京都,千代田区,平河町１丁目１番８号,,13,101,1020093,,,2023-05-02,合併による解散等,7010001047537,令和５年５月１日東京都千代田区平河町一丁目１番８号諏訪貿易株式会社（7010001047537）に合併し解散,2015-10-05,1,,,,,カイエ,0
7,1010001168611,登記記録の閉鎖等,0,2023-05-15,2023-04-28,株式会社グロージア,,株式会社,東京都,台東区,浅草橋１丁目３２番６号長尾第２ビル２Ｆ,,13,106,1110053,,,2023-04-28,合併による解散等,1050001012550,令和５年４月１日東京都台東区雷門二丁目１９番１３号浅草駅前ビル６Ｆティー・エヌ・エス株式会社（1050001012550）に合併し解散,2015-10-05,1,,,,,グロージア,0
21,1010401149830,登記記録の閉鎖等,0,2023-05-15,2023-05-01,株式会社エンブリオ,,株式会社,東京都,目黒区,三田２丁目１０番７５号恵比寿ガーデン４００１号,,13,110,1530062,,,2023-05-01,清算の結了等,,,2019-12-13,1,,,,,エンブリオ,0
38,1010802000170,登記記録の閉鎖等,0,2023-05-15,2023-05-08,有限会社愛珠,,有限会社,東京都,町田市,西成瀬１丁目３３番１号,,13,209,1940046,,,2023-05-08,清算の結了等,,,2015-10-05,1,,,,,アイジュ,0
49,1011001008344,登記記録の閉鎖等,0,2023-05-15,2023-05-11,株式会社コマ文庫,,株式会社,東京都,渋谷区,神宮前６丁目３５番３－７０５号,,13,113,1500001,,,2023-05-11,合併による解散等,7010001013365,令和５年５月１日東京都千代田区神田駿河台二丁目１番地１９株式会社オフイス環境研究所（7010001013365）に合併し解散,2015-10-05,1,,,,,コマブンコ,0
63,1011502010939,登記記録の閉鎖等,0,2023-05-15,2023-04-28,有限会社平和金属製作所,,有限会社,東京都,荒川区,東尾久４丁目４３番６号,,13,118,1160012,,,2023-04-28,清算の結了等,,,2015-10-05,1,,,,,ヘイワキンゾクセイサクショ,0
80,1013201015715,登記記録の閉鎖等,0,2023-05-15,2023-04-28,スカイリミット株式会社,,株式会社,東京都,目黒区,上目黒２丁目４４番２１－６０５号,,13,110,1530051,,,2023-04-28,清算の結了等,,,2015-10-05,1,,,,,スカイリミット,0
92,1020001131221,登記記録の閉鎖等,0,2023-05-15,2023-05-08,ＮＥＷＳ株式会社,,株式会社,東京都,中央区,日本橋３丁目２番１４号日本橋ＫＮビル４階,,13,102,1030027,,,2023-05-08,清算の結了等,,,2019-05-21,1,,,,,ニューズ,0
109,1020003018004,登記記録の閉鎖等,0,2023-05-15,2023-05-02,アスミルプラン合同会社,,合同会社,神奈川県,横浜市港北区,大倉山２丁目２１番２７－２０１号,,14,109,2220037,,,2023-05-02,清算の結了等,,,2020-06-10,1,,,,,アスミルプラン,0
118,1030001029324,登記記録の閉鎖等,0,2023-05-15,2023-04-21,株式会社Ｉ・Ｍ・Ｃ,,株式会社,埼玉県,狭山市,大字水野３５７番地の７６,,11,215,3501317,,,2023-04-21,清算の結了等,,,2015-10-05,1,,,,,アイエムシー,0
154,1060001032853,登記記録の閉鎖等,0,2023-05-15,2023-04-28,株式会社ｇｅｎｔｌｙ,,株式会社,栃木県,鹿沼市,千渡１６０５番地３０９,,09,205,3220002,,,2023-04-28,清算の結了等,,,2020-08-07,1,,,,,ジェントリー,0
172,1120001170234,登記記録の閉鎖等,0,2023-05-15,2023-05-11,株式会社ライフ工業,,株式会社,大阪府,大阪市生野区,田島２丁目１０番３５号,,27,116,5440011,,,2023-05-11,清算の結了等,,,2015-10-05,1,,,,,ライフコウギョウ,0
183,1120002037085,登記記録の閉鎖等,0,2023-05-15,2023-05-11,有限会社辻内モータース,00030915,有限会社,大阪府,大阪市中央区,高津３丁目２番３５号,,27,128,5420072,,,2023-05-11,清算の結了等,,,2015-10-05,1,,,,,ツジウチモータース,0
218,1150001012268,登記記録の閉鎖等,0,2023-05-15,2023-05-09,株式会社阿佐工務店,,株式会社,奈良県,大和高田市,大字出２１６番地,,29,202,6350043,,,2023-05-09,清算の結了等,,,2015-10-05,1,,,,,アサコウムテン,0
226,1180001083141,登記記録の閉鎖等,0,2023-05-15,2023-05-10,株式会社坪内電気工業所,,株式会社,愛知県,一宮市,森本３丁目２５番７号,,23,203,4910831,,,2023-05-10,清算の結了等,,,2015-10-05,1,,,,,ツボウチデンキコウギョウショ,0
247,1240001041233,登記記録の閉鎖等,0,2023-05-15,2023-05-01,アルタス株式会社,,株式会社,広島県,広島市南区,的場町１丁目６番８号,,34,103,7320824,,,2023-05-01,合併による解散等,3240001056782,令和５年５月１日広島市南区的場町１－６－８Ｅｌｓｏｃｋｅｔ株式会社（3240001056782）に合併し解散,2015-10-05,1,,,,,アルタス,0
249,1240002028436,登記記録の閉鎖等,0,2023-05-15,2023-05-10,有限会社マエカワ機販,,有限会社,広島県,東広島市,黒瀬町市飯田１１３６番地,,34,212,7392626,,,2023-05-10,清算の結了等,,,2015-10-05,1,,,,,マエカワキハン,0
250,1240002040837,登記記録の閉鎖等,0,2023-05-15,2023-05-10,有限会社サロン・ドはらだ,,有限会社,広島県,福山市,南手城町４丁目２０番３３号,,34,207,7210963,,,2023-05-10,清算の結了等,,,2015-10-05,1,,,,,サロンドハラダ,0
251,1240002040944,登記記録の閉鎖等,0,2023-05-15,2023-05-10,有限会社山備工業,,有限会社,広島県,福山市,光南町２丁目４番８号,,34,207,7200814,,,2023-05-10,清算の結了等,,,2015-10-05,1,,,,,サンビコウギョウ,0
282,1330001018239,登記記録の閉鎖等,0,2023-05-15,2023-05-08,株式会社結,,株式会社,熊本県,菊池市,泗水町福本１２８１番地,,43,210,8611205,,,2023-05-08,清算の結了等,,,2015-10-05,1,,,,,ユイ,0
355,2010403028453,登記記録の閉鎖等,0,2023-05-15,2023-04-21,合同会社エスエフ南青山,,合同会社,東京都,港区,虎ノ門３丁目２２番１０－２０１号,,13,103,1050001,,,2023-04-21,清算の結了等,,,2022-09-09,1,,,,,エスエフミナミアオヤマ,0
363,2010502015286,登記記録の閉鎖等,0,2023-05-15,2023-04-21,有限会社クレセント,,有限会社,埼玉県,さいたま市西区,大字中野林１７７番地６,,11,101,3310057,,,2023-04-21,清算の結了等,,,2015-10-05,1,,,,,クレセント,0
364,2010601047651,登記記録の閉鎖等,0,2023-05-15,2023-04-24,株式会社ハマカン,,株式会社,千葉県,習志野市,津田沼７丁目３番９号,,12,216,2750016,,,2023-04-24,清算の結了等,,,2015-10-05,1,,,,,ハマカン,0
411,2020001115652,登記記録の閉鎖等,0,2023-05-15,2023-05-02,株式会社エムケイテック,,株式会社,神奈川県,横浜市瀬谷区,阿久和南２丁目５番地４マイキャッスル三ツ境ＩＩ４０１,00117088,14,114,2460026,,,2023-05-02,清算の結了等,,,2016-04-06,1,,,,,エムケイテック,0
415,2020001129529,登記記録の閉鎖等,0,2023-05-15,2023-05-08,だよね株式会社,,株式会社,東京都,中央区,日本橋３丁目２番１４号日本橋ＫＮビル４階,,13,102,1030027,,,2023-05-08,清算の結了等,,,2019-01-16,1,,,,,ダヨネ,0
426,2020002063421,登記記録の閉鎖等,0,2023-05-15,2023-05-08,有限会社今内装,,有限会社,神奈川県,横浜市瀬谷区,阿久和東３丁目４９番地１４,,14,114,2460023,,,2023-05-08,清算の結了等,,,2015-10-05,1,,,,,,0
444,2030001038563,登記記録の閉鎖等,0,2023-05-15,2023-04-25,株式会社ミワエンタープライズ,,株式会社,埼玉県,八潮市,大字二丁目１０４６－１,,11,234,3400811,,,2023-04-25,清算の結了等,,,2015-10-05,1,,,,,ミワエンタープライズ,0
459,2030002024661,登記記録の閉鎖等,0,2023-05-15,2023-04-24,有限会社タケダ自動車,,有限会社,埼玉県,戸田市,美女木東１丁目３番地の１１,,11,224,3350032,,,2023-04-24,清算の結了等,,,2015-10-05,1,,,,,,0
483,2080102011654,登記記録の閉鎖等,0,2023-05-15,2023-05-10,株式会社マルサン商会,,株式会社,静岡県,三島市,南田町５番４５号,,22,206,4110837,,,2023-05-10,清算の結了等,,,2015-10-05,1,,,,,マルサンショウカイ,0
505,2120002073831,登記記録の閉鎖等,0,2023-05-15,2023-05-10,有限会社奥野企画,,有限会社,大阪府,枚方市,朝日丘町１６番１－２０９号,,27,210,5730026,,,2023-05-10,清算の結了等,,,2015-10-05,1,,,,,オクノキカク,0
520,2130002017795,登記記録の閉鎖等,0,2023-05-15,2023-05-08,有限会社若松矢,,有限会社,京都府,京都市左京区,下鴨北園町５番地の２,,26,103,6060831,,,2023-05-08,清算の結了等,,,2015-10-05,1,,,,,ワカマツヤ,0
541,2180001085104,登記記録の閉鎖等,0,2023-05-15,2023-05-09,株式会社カネサダ工業,,株式会社,愛知県,一宮市,萩原町中島字道場４２番地,,23,203,4910364,,,2023-05-09,合併による解散等,6190001014818,令和５年４月２１日三重県四日市市昌栄町４番５号五光山彦株式会社（6190001014818）に合併し解散,2015-10-05,1,,,,,カネサダコウギョウ,0
564,2230002010823,登記記録の閉鎖等,0,2023-05-15,2023-05-12,有限会社学友社,,有限会社,富山県,高岡市,中川１丁目２番１２号,,16,202,9330056,,,2023-05-12,清算の結了等,,,2015-10-05,1,,,,,ガクユウシャ,0
574,2260002011249,登記記録の閉鎖等,0,2023-05-15,2023-05-11,有限会社カーショップ共栄,,有限会社,岡山県,岡山市東区,瀬戸町鍛冶屋５８番地の１,,33,103,7090845,,,2023-05-11,清算の結了等,,,2015-10-05,1,,,,,カーショップキョウエイ,0
591,2330002012990,登記記録の閉鎖等,0,2023-05-15,2023-05-09,有限会社ハラタケ企画,,有限会社,熊本県,熊本市中央区,桜町１番２５－９０２号,,43,101,8600805,,,2023-05-09,清算の結了等,,,2015-10-05,1,,,,,ハラタケキカク,0
598,2370602000986,登記記録の閉鎖等,0,2023-05-15,2023-05-10,有限会社菅原興業,,有限会社,宮城県,多賀城市,留ケ谷３丁目６番１０号,,04,209,9850871,,,2023-05-10,清算の結了等,,,2015-10-05,1,,,,,スガワラコウギョウ,0
599,2380001003937,登記記録の閉鎖等,0,2023-05-15,2023-05-10,株式会社ブランシェ・エンタープライズ,,株式会社,福島県,福島市,飯坂町平野字谷地田８番地１０,,07,201,9600231,,,2023-05-10,清算の結了等,,,2015-10-05,1,,,,,ブランシェエンタープライズ,0
639,3010001140452,登記記録の閉鎖等,0,2023-05-15,2023-04-19,株式会社オズファクトリー,,株式会社,東京都,港区,六本木３丁目１１番６号ウナカミビル２Ｆ,,13,103,1060032,,,2023-04-19,清算の結了等,,,2015-10-05,1,,,,,オズファクトリー,0
648,3010002001257,登記記録の閉鎖等,0,2023-05-15,2023-05-02,有限会社大葉志,,有限会社,東京都,文京区,小石川４丁目１６番９－８０１号,,13,105,1120002,,,2023-05-02,清算の結了等,,,2015-10-05,1,,,,,オオハシ,0
664,3010502003083,登記記録の閉鎖等,0,2023-05-15,2023-05-11,有限会社京弥商店,,有限会社,東京都,台東区,寿４丁目２番５号,,13,106,1110042,,,2023-05-11,清算の結了等,,,2015-10-05,1,,,,,キョウヤショウテン,0
666,3010502013776,登記記録の閉鎖等,0,2023-05-15,2023-05-10,有限会社ワイエムディ,,有限会社,東京都,台東区,上野５丁目１３番７号,,13,106,1100005,,,2023-05-10,清算の結了等,,,2015-10-05,1,,,,,ワイエムディ,0
667,3010601046116,登記記録の閉鎖等,0,2023-05-15,2023-05-10,日昇株式会社,,株式会社,東京都,江東区,亀戸２丁目３４番１号,,13,108,1360071,,,2023-05-10,清算の結了等,,,2015-10-05,1,,,,,ニショ,0
674,3010702012108,登記記録の閉鎖等,0,2023-05-15,2023-05-02,東京工業デザイン有限会社,,有限会社,東京都,品川区,大崎１丁目２０番８号ＩＮＯビル大崎７０５号,,13,109,1410032,,,2023-05-02,清算の結了等,,,2015-10-05,1,,,,,トウキョウコウギョウデザイン,0
679,3010903006420,登記記録の閉鎖等,0,2023-05-15,2023-05-10,合同会社ｂｌｉｓｓ,,合同会社,東京都,台東区,上野６丁目１番６号御徒町グリーンハイツ１００５号,,13,106,1100005,,,2023-05-10,清算の結了等,,,2021-04-05,1,,,,,ブリス,0
693,3011105009625,登記記録の閉鎖等,0,2023-05-15,2023-05-10,一般財団法人日本語デジタル教育推進協会,,その他の設立登記法人,東京都,新宿区,若葉１丁目８－４,,13,104,1600011,,,2023-05-10,清算の結了等,,,2020-12-10,1,,,,,ニホンゴデジタルキョウイクスイシンキョウカイ,0
717,3012705001459,登記記録の閉鎖等,0,2023-05-15,2023-05-10,特定非営利活動法人ヒューマンウェルネス研究所,,その他の設立登記法人,東京都,西東京市,南町２丁目２番５号,,13,229,1880012,,,2023-05-10,清算の結了等,,,2015-10-05,1,,,,,ヒューマンウェルネスケンキュウジョ,0
726,3020001010695,登記記録の閉鎖等,0,2023-05-15,2023-05-02,株式会社ヤマムロ食品,,株式会社,神奈川県,横浜市保土ケ谷区,権太坂１丁目４８番１３号,,14,106,2400026,,,2023-05-02,清算の結了等,,,2015-10-05,1,,,,,ヤマムロショクヒン,0
748,3021002048196,登記記録の閉鎖等,0,2023-05-15,2023-05-08,有限会社木山工業,,有限会社,神奈川県,大和市,福田１５５６番地６９,,14,213,2420024,,,2023-05-08,清算の結了等,,,2015-10-05,1,,,,,キヤマコウギョウ,0
773,3040002006773,登記記録の閉鎖等,0,2023-05-15,2023-04-21,大日本印相有限会社,,有限会社,千葉県,茂原市,八幡原６９９番地１２,,12,210,2970054,,,2023-04-21,清算の結了等,,,2015-10-05,1,,,,,ダイニホンインソウ,0
776,3050001040079,登記記録の閉鎖等,0,2023-05-15,2023-05-11,株式会社谷津自動車,,株式会社,茨城県,水戸市,杉崎町１７５８番地,,08,201,3190306,,,2023-05-11,清算の結了等,,,2015-11-11,1,,,,,ヤツジドウシャ,0
850,3180002084351,登記記録の閉鎖等,0,2023-05-15,2023-05-10,有限会社前田工業所,,有限会社,愛知県,知多郡武豊町,字上ケ６９番地１,,23,447,4702332,,,2023-05-10,清算の結了等,,,2015-10-05,1,,,,,マエダコウギョウショ,0
863,3240001022859,登記記録の閉鎖等,0,2023-05-15,2023-05-10,全日観光株式会社,,株式会社,広島県,東広島市,黒瀬町市飯田１４７５番地１,,34,212,7392626,,,2023-05-10,清算の結了等,,,2015-10-05,1,,,,,ゼンニチカンコウ,0
868,3240002000541,登記記録の閉鎖等,0,2023-05-15,2023-05-02,有限会社アキラ,,有限会社,広島県,広島市南区,元宇品町１１番３号,,34,103,7340012,,,2023-05-02,清算の結了等,,,2015-10-05,1,,,,,アキラ,0
883,3290001080712,登記記録の閉鎖等,0,2023-05-15,2023-05-01,アールコーポレーション株式会社,,株式会社,福岡県,福岡市西区,今宿３丁目２７番１６号ウインドフィル今宿１０１,,40,135,8190167,,,2023-05-01,清算の結了等,,,2018-03-06,1,,,,,アールコーポレーション,0
887,3290002052594,登記記録の閉鎖等,0,2023-05-15,2023-05-01,有限会社福岡蜂の子本舗,,有限会社,福岡県,久留米市,原古賀町２０番地１６ツインタワー久留米４０３号,,40,203,8300046,,,2023-05-01,清算の結了等,,,2015-10-05,1,,,,,フクオカハチノコホンポ,0
903,3350002009274,登記記録の閉鎖等,0,2023-05-15,2023-05-01,有限会社金丸測量設計事務所,,有限会社,宮崎県,西都市,大字鹿野田１１５５４番地,,45,208,8810104,,,2023-05-01,清算の結了等,,,2015-10-05,1,,,,,カネマルソクリョウセッケイジムショ,0
951,4010003034239,登記記録の閉鎖等,0,2023-05-15,2023-05-10,Ｇｓｈｏｐｐｅｒジャパン合同会社,,合同会社,東京都,台東区,上野３丁目１６番２号天翔上野末広町ビル６階６０５－Ｄ号室,,13,106,1100005,,,2023-05-10,清算の結了等,,,2021-02-26,1,,,,,ジーショッパージャパン,0
953,4010005025260,登記記録の閉鎖等,0,2023-05-15,2023-05-10,一般社団法人リンク,,その他の設立登記法人,東京都,千代田区,西神田２丁目２－６,,13,101,1010065,,,2023-05-10,清算の結了等,,,2016-04-15,1,,,,,リンク,0
972,4010403028831,登記記録の閉鎖等,0,2023-05-15,2023-04-21,ＲＢソーラーアテネ合同会社,,合同会社,東京都,港区,虎ノ門３丁目２２番１０－２０１号,,13,103,1050001,,,2023-04-21,合併による解散等,1490003001185,令和５年４月２１日東京都港区虎ノ門三丁目２２番１０－２０１号合同会社やまいのソーラーパワー（1490003001185）に合併し解散,2022-11-07,1,,,,,アールビーソーラーアテネ,0
979,4010501001863,登記記録の閉鎖等,0,2023-05-15,2023-05-11,株式会社蝦夷屋,,株式会社,東京都,台東区,松が谷２丁目２５番９号,,13,106,1110036,,,2023-05-11,清算の結了等,,,2015-10-05,1,,,,,エゾヤ,0
981,4010501045654,登記記録の閉鎖等,0,2023-05-15,2023-05-11,株式会社インターゲート,,株式会社,東京都,台東区,根岸５丁目１６番１４－７０１号ソルフィエスタ三ノ輪,,13,106,1100003,,,2023-05-11,清算の結了等,,,2020-04-23,1,,,,,インターゲート,0
995,4010901000795,登記記録の閉鎖等,0,2023-05-15,2023-05-10,株式会社アローラジャパン,,株式会社,東京都,世田谷区,岡本１丁目２８番１１号,,13,112,1570076,,,2023-05-10,清算の結了等,,,2015-10-05,1,,,,,アローラジャパン,0
1016,4011102019634,登記記録の閉鎖等,0,2023-05-15,2023-05-10,有限会社ジージェーピー,,有限会社,東京都,新宿区,百人町１丁目２１番１号,,13,104,1690073,,,2023-05-10,清算の結了等,,,2015-10-05,1,,,,,ジージェーピー,0
1036,4012402016024,登記記録の閉鎖等,0,2023-05-15,2023-05-11,有限会社青木印刷,,有限会社,東京都,武蔵野市,西久保３丁目１０番５号,,13,203,1800013,,,2023-05-11,清算の結了等,,,2015-10-05,1,,,,,アオキインサツ,0
1038,4013301010381,登記記録の閉鎖等,0,2023-05-15,2023-05-08,ピジョン株式会社,,株式会社,東京都,豊島区,目白４丁目２３番１０号,,13,116,1710031,,,2023-05-08,清算の結了等,,,2015-10-05,1,,,,,ピジョン,0
1039,4013301045428,登記記録の閉鎖等,0,2023-05-15,2023-05-02,株式会社ＰＨＡＩＮＤ,,株式会社,東京都,豊島区,東池袋１丁目３４番５号いちご東池袋ビル６階,,13,116,1700013,,,2023-05-02,清算の結了等,,,2020-03-31,1,,,,,ファインド,0
1051,4021001001485,登記記録の閉鎖等,0,2023-05-15,2023-05-11,株式会社トーカイ,,株式会社,神奈川県,藤沢市,遠藤２０２１番地の１８,,14,205,2520816,,,2023-05-11,清算の結了等,,,2015-10-05,1,,,,,トーカイ,0
1089,4040002092243,登記記録の閉鎖等,0,2023-05-15,2023-04-20,有限会社青山経営研究所,,有限会社,千葉県,我孫子市,青山台４丁目２４番８号,,12,222,2701175,,,2023-04-20,清算の結了等,,,2015-10-05,1,,,,,アオヤマケイエイケンキュウジョ,0
1101,4100005010344,登記記録の閉鎖等,0,2023-05-15,2023-05-08,特定非営利活動法人市田柿発祥の里,,その他の設立登記法人,長野県,下伊那郡高森町,下市田２１８３番地１,,20,403,3993103,,,2023-05-08,清算の結了等,,,2015-10-05,1,,,,,イチダガキハッショウノサト,0
1102,4110001011709,登記記録の閉鎖等,0,2023-05-15,2023-04-28,株式会社芳賀商店,,株式会社,新潟県,五泉市,本町２丁目３番３２号,,15,218,9591865,,,2023-04-28,清算の結了等,,,2015-10-05,1,,,,,ハガショウテン,0
1156,4140002011143,登記記録の閉鎖等,0,2023-05-15,2023-05-11,協和住宅有限会社,,有限会社,兵庫県,神戸市兵庫区,里山町６５２番地,,28,105,6520051,,,2023-05-11,清算の結了等,,,2015-10-05,1,,,,,キョウワジュウタク,0
1167,4160002006224,登記記録の閉鎖等,0,2023-05-15,2023-05-11,有限会社粟林電気設備工業,,有限会社,滋賀県,長浜市,榎木町３８７番地の１,,25,203,5260805,,,2023-05-11,清算の結了等,,,2015-10-05,1,,,,,アワバヤシデンキセツビコウギョウ,0
1182,4180302018702,登記記録の閉鎖等,0,2023-05-15,2023-05-10,有限会社丹羽鉄工所,,有限会社,愛知県,刈谷市,野田町石佛４番地１,,23,210,4480803,,,2023-05-10,清算の結了等,,,2015-10-05,1,,,,,ニワテッコウショ,0
1205,4290001075380,登記記録の閉鎖等,0,2023-05-15,2023-05-01,株式会社梅の花サービス東日本,,株式会社,福岡県,久留米市,天神町１４６番地,,40,203,8300033,,,2023-05-01,合併による解散等,6290001050621,令和５年５月１日福岡県久留米市天神町１４６番地株式会社梅の花サービス（6290001050621）に合併し解散,2016-10-11,1,,,,,ウメノハナサービスヒガシニホン,0
1214,4290003009989,登記記録の閉鎖等,0,2023-05-15,2023-05-01,合同会社エンデヴァー,,合同会社,福岡県,福岡市中央区,天神２丁目３番１０号天神パインクレスト７１９号,,40,133,8100001,,,2023-05-01,清算の結了等,,,2020-06-05,1,,,,,エンデヴァー,0
1221,4310002006472,登記記録の閉鎖等,0,2023-05-15,2023-05-12,有限会社ツルハ,,有限会社,長崎県,長崎市,清水町１１番７号,,42,201,8528041,,,2023-05-12,清算の結了等,,,2015-10-05,1,,,,,ツルハ,0
1226,4330001005515,登記記録の閉鎖等,0,2023-05-15,2023-05-09,株式会社フオーカス,,株式会社,熊本県,熊本市中央区,坪井４丁目５番７号,,43,101,8600863,,,2023-05-09,清算の結了等,,,2015-10-05,1,,,,,フォーカス,0
1232,4360002007763,登記記録の閉鎖等,0,2023-05-15,2023-05-08,有限会社リリーフ沖縄,,有限会社,沖縄県,豊見城市,字豊見城４３７番地１、１．１ビル２－Ａ号室,,47,212,9010241,,,2023-05-08,清算の結了等,,,2015-10-05,1,,,,,リリーフオキナワ,0
1260,4430005007357,登記記録の閉鎖等,0,2023-05-15,2023-05-08,中空知自動車整備協同組合,,その他の設立登記法人,北海道,砂川市,西一条北２１丁目１番３５号,,01,226,0730161,,,2023-05-08,清算の結了等,,,2015-10-05,1,,,,,ナカソラチジドウシャセイビ,0
1271,5010001120139,登記記録の閉鎖等,0,2023-05-15,2023-05-02,アイワジャパン株式会社,,株式会社,東京都,千代田区,外神田３丁目１４番１０号,,13,101,1010021,,,2023-05-02,合併による解散等,3010001203473,令和５年４月２６日東京都千代田区外神田三丁目１４番１０号株式会社ＫＩＮＵＪＯ　ＪＡＰＡＮ（3010001203473）に合併し解散,2015-10-05,1,,,,,アイワジャパン,0
1285,5010401096227,登記記録の閉鎖等,0,2023-05-15,2023-05-01,株式会社Ｐｅｏｐｌｅ＆ＭｏｂｉｌｅＪａｐａｎ,,株式会社,東京都,北区,赤羽台２丁目３番２－３０５号,,13,117,1150053,,,2023-05-01,合併による解散等,7010401089286,令和５年５月１日東京都北区赤羽台二丁目３番２－３０５号株式会社スターライツ（7010401089286）に合併し解散,2015-10-05,1,,,,,ピープルアンドモバイルジャパン,0
1314,5010901003401,登記記録の閉鎖等,0,2023-05-15,2023-05-09,株式会社熊崎製作所,,株式会社,東京都,世田谷区,下馬５丁目３５番３号－１０１,,13,112,1540002,,,2023-05-09,清算の結了等,,,2015-10-05,1,,,,,クマサキセイサクショ,0
1332,5011102019699,登記記録の閉鎖等,0,2023-05-15,2023-05-10,有限会社エルジェーピー,,有限会社,東京都,新宿区,百人町１丁目２１番１号,,13,104,1690073,,,2023-05-10,清算の結了等,,,2015-10-05,1,,,,,エルジェーピー,0
1351,5013301021642,登記記録の閉鎖等,0,2023-05-15,2023-05-08,株式会社ノイバンシュタイン,,株式会社,東京都,豊島区,目白４丁目２３番１０号,,13,116,1710031,,,2023-05-08,清算の結了等,,,2015-10-05,1,,,,,ノイバンシュタイン,0
1352,5013301048256,登記記録の閉鎖等,0,2023-05-15,2023-05-01,株式会社ゼット,,株式会社,東京都,豊島区,池袋２丁目６８番８－２０３号,,13,116,1710014,,,2023-05-01,清算の結了等,,,2021-11-10,1,,,,,ゼット,0
1355,5013401005660,登記記録の閉鎖等,0,2023-05-15,2023-05-11,株式会社大河内でんき,,株式会社,東京都,多摩市,落合４丁目２番地６－１０４,,13,224,2060033,,,2023-05-11,清算の結了等,,,2015-10-05,1,,,,,オオコウチデンキ,0
1365,5020001128197,登記記録の閉鎖等,0,2023-05-15,2023-05-08,おっとっと株式会社,,株式会社,東京都,中央区,日本橋３丁目２番１４号日本橋ＫＮビル４階,,13,102,1030027,,,2023-05-08,清算の結了等,,,2018-10-03,1,,,,,オットット,0
1377,5021001008273,登記記録の閉鎖等,0,2023-05-15,2023-05-11,株式会社フューク,,株式会社,神奈川県,茅ヶ崎市,平和町５番８号,,14,207,2530024,,,2023-05-11,清算の結了等,,,2015-10-05,1,,,,,フューク,0
1394,5030001091345,登記記録の閉鎖等,0,2023-05-15,2023-04-11,アサヒ林業株式会社,,株式会社,埼玉県,秩父市,阿保町２番２５号,,11,207,3680016,,,2023-04-11,清算の結了等,,,2015-10-05,1,,,,,アサヒリンギョウ,0
1405,5030003013173,登記記録の閉鎖等,0,2023-05-15,2023-05-09,東京興業貿易合同会社,,合同会社,東京都,足立区,島根２丁目１３番２２号メゾンド・ソレイユ２Ｆ,,13,121,1210815,,,2023-05-09,合併による解散等,9010601046762,令和５年４月１日東京都足立区島根二丁目１３番２２号メゾンド・ソレイユ２Ｆ株式会社ＥＴＰＩ（9010601046762）に合併し解散,2019-02-28,1,,,,,トウキョウコウギョウボウエキ,0
1407,5040001030715,登記記録の閉鎖等,0,2023-05-15,2023-04-24,株式会社秀都建築設計,,株式会社,千葉県,市川市,八幡２丁目３番１３号,,12,203,2720021,,,2023-04-24,清算の結了等,,,2015-10-05,1,,,,,,0
1408,5040001039285,登記記録の閉鎖等,0,2023-05-15,2023-04-21,株式会社松戸プラクテスサポート,,株式会社,千葉県,松戸市,八ケ崎緑町３３２番地の２,,12,207,2700024,,,2023-04-21,清算の結了等,,,2015-10-05,1,,,,,マツドプラクテスサポート,0
1444,5120001163993,登記記録の閉鎖等,0,2023-05-15,2023-05-10,株式会社ジョイコーポレーション,,株式会社,大阪府,大阪市中央区,内久宝寺町２丁目６番１０号１５０１,,27,128,5400013,,,2023-05-10,清算の結了等,,,2015-10-05,1,,,,,ジョイコーポレーション,0
1473,5130005012246,登記記録の閉鎖等,0,2023-05-15,2023-05-10,特定非営利活動法人日本歌謡振興機構,,その他の設立登記法人,大阪府,八尾市,安中町２丁目１番６１号,,27,212,5810085,,,2023-05-10,清算の結了等,,,2015-10-05,1,,,,,ニホンカヨウシンコウキコウ,0
1493,5180001086776,登記記録の閉鎖等,0,2023-05-15,2023-05-10,株式会社佐野商店,,株式会社,愛知県,稲沢市,小池２丁目１３番１４号,,23,220,4928144,,,2023-05-10,清算の結了等,,,2015-10-05,1,,,,,サノショウテン,0
1525,5290001027447,登記記録の閉鎖等,0,2023-05-15,2023-05-01,アステックトーヨー株式会社,,株式会社,福岡県,福岡市早良区,飯倉３丁目３７番５号,,40,137,8140161,,,2023-05-01,清算の結了等,,,2015-10-05,1,,,,,アステックトーヨー,0
1546,5330001025149,登記記録の閉鎖等,0,2023-05-15,2023-05-09,クレール・ヒューマン株式会社,,株式会社,熊本県,熊本市北区,高平２丁目１６番２５－２０３号,,43,105,8600085,,,2023-05-09,清算の結了等,,,2018-03-29,1,,,,,クレールヒューマン,0
1584,5500001010711,登記記録の閉鎖等,0,2023-05-15,2023-05-11,飯尾テック株式会社,,株式会社,愛媛県,新居浜市,磯浦町１１番３２号,,38,205,7920002,,,2023-05-11,清算の結了等,,,2015-10-05,1,,,,,イイオテック,0
1595,6010001227437,登記記録の閉鎖等,0,2023-05-15,2023-05-01,ＫＡＷＯＷ株式会社,,株式会社,東京都,千代田区,神田須田町１丁目７番１号,,13,101,1010041,,,2023-05-01,清算の結了等,,,2022-06-17,1,,,,,カワオ,0
1603,6010003038799,登記記録の閉鎖等,0,2023-05-15,2023-05-02,エス・ジャパン合同会社,,合同会社,東京都,中央区,銀座１丁目１２番４号エヌアンドイービルディング７階,,13,102,1040061,,,2023-05-02,清算の結了等,,,2022-10-20,1,,,,,,0
1607,6010005032569,登記記録の閉鎖等,0,2023-05-15,2023-05-09,一般社団法人ＫＳＴ１,,その他の設立登記法人,東京都,千代田区,内幸町２丁目１番６号,,13,101,1000011,,,2023-05-09,清算の結了等,,,2020-11-18,1,,,,,ケイエスティワン,0
1618,6010401172571,登記記録の閉鎖等,0,2023-05-15,2023-05-01,株式会社Ｒｅｄ　Ｇａｍｅｓ,,株式会社,東京都,港区,赤坂４丁目５番２１号バルミー赤坂３１７号室,,13,103,1070052,,,2023-05-01,合併による解散等,9010401171232,令和５年５月１日東京都港区虎ノ門四丁目１番４０号江戸見坂森ビル４Ｆ株式会社Ｒｅｄ　Ｇａｍｅｓ（9010401171232）に合併し解散,2023-02-15,1,,,,,レッドゲームズ,0
1624,6010501032915,登記記録の閉鎖等,0,2023-05-15,2023-05-09,株式会社リステック,,株式会社,東京都,台東区,竜泉２丁目２０番２号,,13,106,1100012,,,2023-05-09,清算の結了等,,,2015-10-05,1,,,,,リステック,0
1627,6010602018400,登記記録の閉鎖等,0,2023-05-15,2023-05-09,有限会社川上青果,,有限会社,東京都,墨田区,墨田１丁目１６番１７号,,13,107,1310031,,,2023-05-09,清算の結了等,,,2015-10-05,1,,,,,カワカミセイカ,0
1630,6010701038968,登記記録の閉鎖等,0,2023-05-15,2023-05-02,ＣＳファウンダー株式会社,,株式会社,東京都,品川区,東五反田１丁目３番１０号,,13,109,1410022,,,2023-05-02,清算の結了等,,,2020-03-05,1,,,,,シーエスファウンダー,0
1643,6011002026613,登記記録の閉鎖等,0,2023-05-15,2023-04-28,有限会社ミュー,,有限会社,東京都,渋谷区,東１丁目３２番１２号,,13,113,1500011,,,2023-04-28,清算の結了等,,,2015-10-05,1,,,,,ミュー,0
1654,6011102018576,登記記録の閉鎖等,0,2023-05-15,2023-05-10,有限会社エフジェーピー,,有限会社,東京都,新宿区,百人町１丁目２１番１号,,13,104,1690073,,,2023-05-10,清算の結了等,,,2015-10-05,1,,,,,エフジェーピー,0
1656,6011201018873,登記記録の閉鎖等,0,2023-05-15,2023-05-12,株式会社アシストリード,,株式会社,東京都,中野区,本町４丁目３８番１６－２０４号,,13,114,1640012,,,2023-05-12,清算の結了等,,,2016-02-05,1,,,,,アシストリード,0
1658,6011301016604,登記記録の閉鎖等,0,2023-05-15,2023-05-08,株式会社スマイル,,株式会社,東京都,杉並区,阿佐谷北２丁目９番２０号,,13,115,1660001,,,2023-05-08,清算の結了等,,,2015-10-05,1,,,,,スマイル,0
1678,6013201005819,登記記録の閉鎖等,0,2023-05-15,2023-05-09,株式会社メイ・ジュンコ・タカオ,,株式会社,東京都,目黒区,青葉台１丁目６番２号,,13,110,1530042,,,2023-05-09,清算の結了等,,,2015-10-05,1,,,,,メイジュンコタカオ,0
1680,6020001065893,登記記録の閉鎖等,0,2023-05-15,2023-05-08,ウツミ販売株式会社,,株式会社,神奈川県,川崎市高津区,久地４丁目７番１号,,14,134,2130032,,,2023-05-08,清算の結了等,,,2015-10-05,1,,,,,ウツミハンバイ,0
1682,6020001072898,登記記録の閉鎖等,0,2023-05-15,2023-05-01,エヌケーケーシームレス鋼管株式会社,,株式会社,神奈川県,横浜市港北区,新横浜２丁目３番地１２新横浜スクエアビル１４階,,14,109,2220033,,,2023-05-01,清算の結了等,,,2015-10-05,1,NKKTUBES,,,,エヌケーケーシームレスコウカン,0
1691,6020002059655,登記記録の閉鎖等,0,2023-05-15,2023-05-01,有限会社テクノサッシ,,有限会社,神奈川県,横浜市港北区,鳥山町１２５０番地,,14,109,2220035,,,2023-05-01,清算の結了等,,,2015-10-05,1,,,,,テクノサッシ,0
1708,6021002025738,登記記録の閉鎖等,0,2023-05-15,2023-05-08,有限会社ワイアンドエスオフィス,,有限会社,神奈川県,相模原市南区,鵜野森１丁目２８番３号Ｂ１－４０７,,14,153,2520301,,,2023-05-08,清算の結了等,,,2015-10-05,1,,,,,ワイアンドエスオフィス,0
1748,6070001007899,登記記録の閉鎖等,0,2023-05-15,2023-05-09,ナカジマ産業株式会社,,株式会社,群馬県,高崎市,寺尾町１６７番地１,,10,202,3700865,,,2023-05-09,合併による解散等,3060001003885,令和５年４月１日栃木県宇都宮市元今泉四丁目６番９号株式会社フカサワ（3060001003885）に合併し解散,2015-10-05,1,,,,,ナカジマサンギョウ,0
1767,6120001228044,登記記録の閉鎖等,0,2023-05-15,2023-05-11,株式会社エース,,株式会社,大阪府,大阪市中央区,高津３丁目２－３０,,27,128,5420072,,,2023-05-11,清算の結了等,,,2020-03-26,1,,,,,エース,0
1800,6170002008878,登記記録の閉鎖等,0,2023-05-15,2023-05-12,有限会社大光住宅,,有限会社,和歌山県,田辺市,湊２２番６号,,30,206,6460031,,,2023-05-12,清算の結了等,,,2015-10-05,1,,,,,ダイコウジュウタク,0
1813,6180302019764,登記記録の閉鎖等,0,2023-05-15,2023-05-10,有限会社和夢,,有限会社,愛知県,知立市,八橋町踊場３７番地４,,23,225,4720001,,,2023-05-10,清算の結了等,,,2015-10-05,1,,,,,ワム,0
1834,6290001093091,登記記録の閉鎖等,0,2023-05-15,2023-05-01,株式会社梅の花サービス九州,,株式会社,福岡県,久留米市,天神町１４６番地,,40,203,8300033,,,2023-05-01,合併による解散等,6290001050621,令和５年５月１日福岡県久留米市天神町１４６番地株式会社梅の花サービス（6290001050621）に合併し解散,2021-05-14,1,,,,,ウメノハナサービスキュウシュウ,0
1847,6340001011502,登記記録の閉鎖等,0,2023-05-15,2023-05-12,株式会社康心ホスメディカル,,株式会社,鹿児島県,鹿児島市,山田町３３２３番地１１,,46,201,8910104,,,2023-05-12,清算の結了等,,,2015-10-05,1,,,,,コウシンホスメディカル,0
1859,6380003000391,登記記録の閉鎖等,0,2023-05-15,2023-05-10,シュガー＆そると合同会社,,合同会社,福島県,福島市,南向台１丁目３番地の３,,07,201,9608143,,,2023-05-10,清算の結了等,,,2015-10-05,1,,,,,シュガーアンドソルト,0
1861,6380005011453,登記記録の閉鎖等,0,2023-05-15,2023-05-02,特定非営利活動法人リトルｈａｎａ・ｈａｎａ,,その他の設立登記法人,福島県,会津若松市,御旗町８－３０片柳町団地５棟４０２,,07,202,9650851,,,2023-05-02,清算の結了等,,,2015-10-05,1,,,,,リトルハナハナ,0
1862,6390001006076,登記記録の閉鎖等,0,2023-05-15,2023-05-11,石井ハウス株式会社,,株式会社,山形県,酒田市,東大町３丁目２７番地１０,,06,204,9980851,,,2023-05-11,清算の結了等,,,2015-10-05,1,,,,,,0
1863,6390001011480,登記記録の閉鎖等,0,2023-05-15,2023-05-11,株式会社ＹＭ,,株式会社,山形県,東置賜郡高畠町,大字高畠４７４番地の１２,,06,381,9920351,,,2023-05-11,清算の結了等,,,2015-10-05,1,,,,,ワイエム,0
1871,6420001017029,登記記録の閉鎖等,0,2023-05-15,2023-05-01,株式会社角三本店,,株式会社,青森県,三戸郡五戸町,字下モ沢向８番地５６,,02,442,0391518,,,2023-05-01,合併による解散等,4420001005506,令和５年５月１日青森県八戸市大字十日市字上樋田２６番地１１青森つばめプロパン販売株式会社（4420001005506）に合併し解散,2020-06-04,1,,,,,カクサンホンテン,0
1884,6490002009134,登記記録の閉鎖等,0,2023-05-15,2023-05-08,有限会社大漁水産,,有限会社,高知県,宿毛市,宿毛５３４２番地２７,,39,208,7880000,,,2023-05-08,清算の結了等,,,2015-10-05,1,,,,,ダイリョウスイサン,0
1899,7010001150571,登記記録の閉鎖等,0,2023-05-15,2023-05-08,株式会社ＲＯＯＴＳ　ＥＮＴＥＲＴＡＩＮＭＥＮＴ,,株式会社,東京都,千代田区,神田神保町１丁目４２番３号,,13,101,1010051,,,2023-05-08,清算の結了等,,,2015-10-05,1,,,,,ルーツエンターテイメント,0
1900,7010001161420,登記記録の閉鎖等,0,2023-05-15,2023-05-11,株式会社ウームヘルス,,株式会社,東京都,中央区,銀座１丁目４－４銀座１０５ビル５階,,13,102,1040061,,,2023-05-11,合併による解散等,6290001059662,令和５年４月２８日東京都江戸川区新堀二丁目３０番１２号株式会社ウーミスト（6290001059662）に合併し解散,2015-10-05,1,,,,,ウームヘルス,0
1915,7010005026982,登記記録の閉鎖等,0,2023-05-15,2023-05-09,ＨＫＲＪ　Ｈａｌｕｗａ一般社団法人,,その他の設立登記法人,東京都,千代田区,平河町１丁目６番１５号シルスフィア会計事務所内,,13,101,1020093,,,2023-05-09,清算の結了等,,,2017-06-16,1,,,,,エイチケーアールジェイハルーワ,0
1934,7010501025141,登記記録の閉鎖等,0,2023-05-15,2023-05-11,桐祥株式会社,,株式会社,東京都,台東区,浅草橋１丁目２７番４号,,13,106,1110053,,,2023-05-11,清算の結了等,,,2015-10-05,1,,,,,トウショウ,0
1943,7010802014784,登記記録の閉鎖等,0,2023-05-15,2023-05-10,八洲梱包有限会社,,有限会社,福島県,福島市,飯坂町字十綱下１２番地の４昭和マンション飯坂５０３号室,,07,201,9600201,,,2023-05-10,清算の結了等,,,2015-10-05,1,,,,,ヤシマコンポウ,0
1944,7010803003472,登記記録の閉鎖等,0,2023-05-15,2023-05-01,合同会社ｌａｂｅａｌｉｓ,,合同会社,東京都,大田区,蒲田５丁目１９番１号,,13,111,1440052,,,2023-05-01,清算の結了等,,,2020-09-04,1,,,,,ラベリス,0
1948,7010902013587,登記記録の閉鎖等,0,2023-05-15,2023-05-10,有限会社プロフォルムデザイン,,有限会社,東京都,世田谷区,千歳台４丁目３０番６－４０４号,,13,112,1570071,,,2023-05-10,清算の結了等,,,2015-10-05,1,,,,,プロフォルムデザイン,0
1960,7011101003165,登記記録の閉鎖等,0,2023-05-15,2023-04-24,株式会社エックス．アイ．デザイン,,株式会社,埼玉県,所沢市,向陽町２１２９番地の５テラス向陽２－１,,11,208,3591103,,,2023-04-24,清算の結了等,,,2015-10-05,1,,,,,エックスアイデザイン,0
1996,7020001134870,登記記録の閉鎖等,0,2023-05-15,2023-05-08,ｎｏｅｌ株式会社,,株式会社,東京都,中央区,日本橋３丁目２番１４号日本橋ＫＮビル４階,,13,102,1030027,,,2023-05-08,清算の結了等,,,2020-02-07,1,,,,,ノエル,0
2016,7021002058191,登記記録の閉鎖等,0,2023-05-15,2023-05-11,有限会社宍戸工務店,,有限会社,神奈川県,平塚市,小鍋島１３６４番地,,14,203,2540004,,,2023-05-11,清算の結了等,,,2015-10-05,1,,,,,,0
2032,7030003018690,登記記録の閉鎖等,0,2023-05-15,2023-04-21,合同会社サンロード,,合同会社,埼玉県,川口市,並木２丁目４１番９号九龍ビル５０１号室,,11,203,3320034,,,2023-04-21,清算の結了等,,,2022-01-19,1,,,,,サンロード,0
2070,7120001094675,登記記録の閉鎖等,0,2023-05-15,2023-05-10,株式会社近畿サンイースト,,株式会社,大阪府,大阪市平野区,背戸口４丁目８番１２号,,27,126,5470034,,,2023-05-10,清算の結了等,,,2015-10-05,1,,,,,キンキサンイースト,0
2081,7120002013262,登記記録の閉鎖等,0,2023-05-15,2023-05-12,有限会社大建,,有限会社,大阪府,大阪市西成区,萩之茶屋２丁目７番１２号,,27,122,5570004,,,2023-05-12,清算の結了等,,,2015-10-05,1,,,,,ダイケン,0
2090,7130001045958,登記記録の閉鎖等,0,2023-05-15,2023-05-11,旭精工株式会社,,株式会社,京都府,八幡市,川口天神崎３４番地９,,26,210,6148106,,,2023-05-11,清算の結了等,,,2015-10-05,1,,,,,,0
2098,7140001031263,登記記録の閉鎖等,0,2023-05-15,2023-05-10,株式会社耕次郎運輸,,株式会社,兵庫県,神戸市兵庫区,下祇園町３番７号,00039393,28,105,6520015,,,2023-05-10,清算の結了等,,,2015-10-05,1,,,,,コウジロウウンユ,0
2099,7140001035586,登記記録の閉鎖等,0,2023-05-15,2023-05-11,株式会社メイシュ,,株式会社,兵庫県,明石市,新明町１１番２６号,,28,203,6730027,,,2023-05-11,清算の結了等,,,2015-10-05,1,,,,,メイシュ,0
2108,7140002013434,登記記録の閉鎖等,0,2023-05-15,2023-05-02,有限会社柏原商店,,有限会社,兵庫県,神戸市中央区,三宮町２丁目９番４号,,28,110,6500021,,,2023-05-02,清算の結了等,,,2015-10-05,1,,,,,カシハラショウテン,0
2111,7140002068767,登記記録の閉鎖等,0,2023-05-15,2023-05-11,有限会社おがわ,,有限会社,兵庫県,洲本市,上物部１丁目８番２号,,28,205,6560053,,,2023-05-11,清算の結了等,,,2015-10-05,1,,,,,オガワ,0
2113,7180001037926,登記記録の閉鎖等,0,2023-05-15,2023-05-10,玉竹染工株式会社,,株式会社,愛知県,名古屋市中区,栄３丁目２５番２６号,,23,106,4600008,,,2023-05-10,清算の結了等,,,2015-10-05,1,,,,,タマタケセンコウ,0
2121,7180001149449,登記記録の閉鎖等,0,2023-05-15,2023-05-10,株式会社ケイエイチ,,株式会社,愛知県,一宮市,西萩原字下出２３８５番地１,,23,203,4940011,,,2023-05-10,清算の結了等,,,2022-01-12,1,,,,,ケイエイチ,0
2130,7180302020812,登記記録の閉鎖等,0,2023-05-15,2023-05-10,有限会社石原工業,,有限会社,愛知県,知立市,長篠町丸山４番地２５,,23,225,4720045,,,2023-05-10,清算の結了等,,,2015-10-05,1,,,,,イシハラコウギョウ,0
2131,7220002001868,登記記録の閉鎖等,0,2023-05-15,2023-05-10,有限会社カツオ工務店,,有限会社,石川県,金沢市,鈴見台５丁目４番１６号,,17,201,9201161,,,2023-05-10,清算の結了等,,,2015-10-05,1,,,,,カツオコウムテン,0
2135,7240002014587,登記記録の閉鎖等,0,2023-05-15,2023-05-11,有限会社ブティックいなだ,,有限会社,広島県,広島市東区,牛田東３丁目１４番１３号,,34,102,7320063,,,2023-05-11,清算の結了等,,,2015-10-05,1,,,,,ブティックイナダ,0
2177,7380002035116,登記記録の閉鎖等,0,2023-05-15,2023-05-10,有限会社丸住,,有限会社,福島県,喜多方市,字寺町４７６８番地,,07,208,9660861,,,2023-05-10,清算の結了等,,,2015-10-05,1,,,,,マルスミ,0
2179,7380005003540,登記記録の閉鎖等,0,2023-05-15,2023-05-01,天理教瀬ノ春分教会,,その他の設立登記法人,福島県,田村郡三春町,字雁木田５８番地,,07,521,9637747,,,2023-05-01,合併による解散等,9380005003563,令和５年５月１日福島県田村郡三春町字雁木田１０３番地の１天理教南春分教会（9380005003563）に合併し解散,2015-10-05,1,,,,,テンリキョウセノハルブンキョウカイ,0
2190,7440002002605,登記記録の閉鎖等,0,2023-05-15,2023-05-11,有限会社竹田牛乳,,有限会社,北海道,函館市,上湯川町２８番１８号,,01,202,0420914,,,2023-05-11,清算の結了等,,,2015-10-05,1,,,,,タケダギュウニュウ,0
2209,8010001204112,登記記録の閉鎖等,0,2023-05-15,2023-05-01,アクセストレード株式会社,,株式会社,東京都,千代田区,外神田２丁目３番１号,,13,101,1010021,,,2023-05-01,合併による解散等,4010001171810,令和５年５月１日東京都千代田区外神田２－３－１アルファゲート株式会社（4010001171810）に合併し解散,2019-09-25,1,,,,,アクセストレード,0
2211,8010001215588,登記記録の閉鎖等,0,2023-05-15,2023-05-02,株式会社ａｕｌｅｔ,,株式会社,東京都,千代田区,外神田４丁目９－２－１Ｆ,,13,101,1010021,,,2023-05-02,清算の結了等,,,2021-02-05,1,,,,,アウレット,0
2238,8010402011066,登記記録の閉鎖等,0,2023-05-15,2023-04-19,有限会社ファッションクリーナーパリス,,有限会社,東京都,港区,東麻布２丁目１４番１号,,13,103,1060044,,,2023-04-19,清算の結了等,,,2015-10-05,1,,,,,ファッションクリーナーパリス,0
2248,8010701000471,登記記録の閉鎖等,0,2023-05-15,2023-05-11,株式会社アサヒ酸素商会,,株式会社,東京都,品川区,西五反田６丁目２２番８号,,13,109,1410031,,,2023-05-11,合併による解散等,8010401007230,令和５年４月１５日東京都港区浜松町二丁目７番１１号カミマル株式会社（8010401007230）に合併し解散,2015-10-05,1,,,,,アサヒサンソショウカイ,0
2253,8010701042720,登記記録の閉鎖等,0,2023-05-15,2023-05-01,株式会社サニーガーディアン,,株式会社,東京都,品川区,南大井６丁目１９番８号アズ大森ビル６Ｆ,,13,109,1400013,,,2023-05-01,清算の結了等,,,2022-05-30,1,,,,,サニーガーディアン,0
2261,8010903004931,登記記録の閉鎖等,0,2023-05-15,2023-05-10,合同会社ソレイユ,,合同会社,群馬県,高崎市,江木町６１４番地２３,,10,202,3700046,,,2023-05-10,清算の結了等,,,2019-04-26,1,,,,,ソレイユ,0
2276,8011003009078,登記記録の閉鎖等,0,2023-05-15,2023-05-09,アンフィニ合同会社,,合同会社,東京都,渋谷区,代官山町２０番９号,,13,113,1500034,,,2023-05-09,清算の結了等,,,2018-08-15,1,,,,,アンフィニ,0
2307,8013302000007,登記記録の閉鎖等,0,2023-05-15,2023-05-01,有限会社アイオン,,有限会社,東京都,豊島区,高田３丁目３６番１５号スパジオ山崎１０３号,,13,116,1710033,,,2023-05-01,清算の結了等,,,2015-10-05,1,,,,,アイオン,0
2320,8020002019277,登記記録の閉鎖等,0,2023-05-15,2023-05-01,有限会社近岡工務店,,有限会社,神奈川県,横浜市港南区,丸山台４丁目１６番８号,,14,111,2330013,,,2023-05-01,清算の結了等,,,2015-10-05,1,,,,,チカオカコウムテン,0
2321,8020002031083,登記記録の閉鎖等,0,2023-05-15,2023-05-02,有限会社ヴァンベール,,有限会社,神奈川県,横浜市南区,大橋町３丁目５３番地,,14,105,2320054,,,2023-05-02,清算の結了等,,,2015-10-05,1,,,,,ヴァンベール,0
2343,8030002026842,登記記録の閉鎖等,0,2023-05-15,2023-04-25,有限会社ユウビ企画,,有限会社,埼玉県,戸田市,大字新曽１３２３－２,,11,224,3350021,,,2023-04-25,清算の結了等,,,2015-10-05,1,,,,,ユウビキカク,0
2374,8070002033918,登記記録の閉鎖等,0,2023-05-15,2023-05-09,有限会社前沢製作所,,有限会社,群馬県,館林市,上赤生田町３２４５番地,,10,207,3740015,,,2023-05-09,清算の結了等,,,2015-10-05,1,,,,,マエザワセイサクショ,0
2375,8080001002088,登記記録の閉鎖等,0,2023-05-15,2023-05-11,松栄運輸株式会社,,株式会社,静岡県,静岡市駿河区,下島９５番地の１,,22,102,4228037,,,2023-05-11,清算の結了等,,,2015-10-05,1,,,,,ショウエイウンユ,0
2421,8130002024828,登記記録の閉鎖等,0,2023-05-15,2023-05-09,有限会社たつや塩干店,,有限会社,京都府,長岡京市,友岡３丁目５番１４号,,26,209,6170843,,,2023-05-09,清算の結了等,,,2015-10-05,1,,,,,タツヤエンカンテン,0
2465,8260001012036,登記記録の閉鎖等,0,2023-05-15,2023-05-11,株式会社ＡＱＵＡ,,株式会社,岡山県,岡山市南区,福田１５８－５,,33,104,7028021,,,2023-05-11,合併による解散等,1260001003628,令和５年５月１日岡山市南区当新田４４８番地の６セイフ興産株式会社（1260001003628）に合併し解散,2015-10-05,1,,,,,,0
2506,8390002015603,登記記録の閉鎖等,0,2023-05-15,2023-05-10,有限会社小林印刷所,,有限会社,山形県,寒河江市,七日町２番１３号,,06,206,9910022,,,2023-05-10,清算の結了等,,,2015-10-05,1,,,,,コバヤシインサツジョ,0
2520,8480002016055,登記記録の閉鎖等,0,2023-05-15,2023-05-11,有限会社エイブル学館,,有限会社,徳島県,三好郡東みよし町,足代２１５８番地１,,36,489,7712502,,,2023-05-11,清算の結了等,,,2015-10-05,1,,,,,エイブルガッカン,0
2537,9010002020994,登記記録の閉鎖等,0,2023-05-15,2023-04-24,株式会社宇宙,,株式会社,千葉県,千葉市若葉区,桜木６丁目１４番６号クレインシティ６０２号,,12,104,2640028,,,2023-04-24,清算の結了等,,,2015-10-05,1,,,,,ウチュウ,0
2567,9011001117237,登記記録の閉鎖等,0,2023-05-15,2023-05-09,株式会社ビジマッチ,,株式会社,東京都,新宿区,新宿１丁目１８番４号東京蓮見ビル４０３,,13,104,1600022,,,2023-05-09,清算の結了等,,,2017-07-10,1,,,,,ビジマッチ,0
2573,9011101023327,登記記録の閉鎖等,0,2023-05-15,2023-05-10,株式会社日装,,株式会社,東京都,新宿区,愛住町２２番地,,13,104,1600005,,,2023-05-10,合併による解散等,1013301030275,令和５年５月１日東京都豊島区東池袋三丁目４番３号ＮＢＦ池袋イースト１４Ｆ株式会社日装・ツツミワークス（1013301030275）に合併し解散,2015-10-05,1,,,,,ニッソウ,0
2600,9013301023957,登記記録の閉鎖等,0,2023-05-15,2023-05-08,株式会社新都市情報システム,,株式会社,東京都,豊島区,東池袋３丁目１２番６号,,13,116,1700013,,,2023-05-08,清算の結了等,,,2015-10-05,1,,,,,シントシジョウホウシステム,0
2602,9013302001680,登記記録の閉鎖等,0,2023-05-15,2023-05-11,有限会社エイトマン,,有限会社,静岡県,伊東市,富戸２７０番地の４,,22,208,4130231,,,2023-05-11,清算の結了等,,,2015-10-05,1,,,,,エイトマン,0
2618,9020002050090,登記記録の閉鎖等,0,2023-05-15,2023-05-02,有限会社美健,,有限会社,神奈川県,横浜市旭区,鶴ケ峰２丁目８番地,,14,112,2410022,,,2023-05-02,清算の結了等,,,2015-10-05,1,,,,,ミケン,0
2619,9020002058679,登記記録の閉鎖等,0,2023-05-15,2023-05-02,有限会社セントラルベイシステムズ,,有限会社,神奈川県,横浜市栄区,飯島町１２９３番地４,,14,115,2440842,,,2023-05-02,清算の結了等,,,2015-10-05,1,,,,,セントラルベイシステムズ,0
2623,9021001021396,登記記録の閉鎖等,0,2023-05-15,2023-05-11,株式会社アプリスター,,株式会社,神奈川県,厚木市,七沢１６２４番地３２,,14,212,2430121,,,2023-05-11,清算の結了等,,,2015-10-05,1,,,,,アプリスター,0
2638,9030001091341,登記記録の閉鎖等,0,2023-05-15,2023-04-11,株式会社貴船の郷,,株式会社,埼玉県,秩父市,上宮地町２８番２０号,,11,207,3680024,,,2023-04-11,清算の結了等,,,2015-10-05,1,,,,,キセンノサト,0
2640,9030001127954,登記記録の閉鎖等,0,2023-05-15,2023-04-20,株式会社ＰＥＣＨＯＩＮ,,株式会社,東京都,港区,高輪３丁目７番１０号,,13,103,1080074,,,2023-04-20,清算の結了等,,,2018-10-24,1,,,,,ペチョイン,0
2650,9030002021801,登記記録の閉鎖等,0,2023-05-15,2023-04-24,有限会社まつもと,,有限会社,埼玉県,春日部市,上蛭田３１番地１イトーピア豊春６０３号,,11,214,3440046,,,2023-04-24,清算の結了等,,,2015-10-05,1,,,,,マツモト,0
2669,9040003018779,登記記録の閉鎖等,0,2023-05-15,2023-04-24,合同会社メディクレアーレ,,合同会社,千葉県,習志野市,東習志野２丁目１８番４４－１１９号,,12,216,2750001,,,2023-04-24,清算の結了等,,,2021-10-19,1,,,,,メディクレアーレ,0
2733,9130001026898,登記記録の閉鎖等,0,2023-05-15,2023-05-11,都住建株式会社,,株式会社,京都府,京都市山科区,大塚西浦町３７番地２,00121070,26,110,6078125,,,2023-05-11,清算の結了等,,,2015-10-05,1,,,,,トジュウケン,0
2734,9130001065368,登記記録の閉鎖等,0,2023-05-15,2023-05-11,株式会社エタニティ,,株式会社,京都府,京都市下京区,中堂寺粟田町９３番地,,26,106,6008815,,,2023-05-11,清算の結了等,,,2019-10-02,1,,,,,エタニティ,0
2760,9180302026502,登記記録の閉鎖等,0,2023-05-15,2023-05-11,有限会社松田鉄工所,,有限会社,愛知県,西尾市,中原町荒子２１番地,,23,213,4450083,,,2023-05-11,清算の結了等,,,2015-10-05,1,,,,,マツダテッコウショ,0
2762,9200001031998,登記記録の閉鎖等,0,2023-05-15,2023-05-12,株式会社ワンメタル,,株式会社,岐阜県,養老郡養老町,宇田１１６６番地,,21,341,5031335,,,2023-05-12,清算の結了等,,,2015-10-05,1,,,,,ワンメタル,0
2779,9260002020185,登記記録の閉鎖等,0,2023-05-15,2023-05-11,有限会社ケイ・エム企画,,有限会社,岡山県,倉敷市,玉島爪崎６４１番地１,,33,202,7100252,,,2023-05-11,清算の結了等,,,2015-10-05,1,,,,,ケイエムキカク,0
2781,9280002011612,登記記録の閉鎖等,0,2023-05-15,2023-05-10,有限会社若槻建設工業,,有限会社,島根県,雲南市,三刀屋町三刀屋１００番地９,,32,209,6902404,,,2023-05-10,清算の結了等,,,2015-10-05,1,,,,,ワカツキケンセツコウギョウ,0
2782,9290001012437,登記記録の閉鎖等,0,2023-05-15,2023-05-02,株式会社九州サン・シール,,株式会社,福岡県,福岡市博多区,諸岡６丁目１１番２１号,,40,132,8120894,,,2023-05-02,清算の結了等,,,2015-10-05,1,,,,,キュウシュウサンシール,0
2797,9320001003894,登記記録の閉鎖等,0,2023-05-15,2023-05-08,Ｊａｐａｎ　Ｅｃｏｌｏｇｙ　Ｌｏｇｉｓｔｉｃｓ株式会社,,株式会社,大分県,由布市,湯布院町川北８９４番地１７２,,44,213,8795114,,,2023-05-08,清算の結了等,,,2015-10-05,1,,,,,,0
2798,9320001014685,登記記録の閉鎖等,0,2023-05-15,2023-05-08,株式会社亀吉,,株式会社,大分県,津久見市,大字千怒４１４５番地,,44,207,8792401,,,2023-05-08,清算の結了等,,,2016-01-27,1,,,,,カメキチ,0
2799,9320002010601,登記記録の閉鎖等,0,2023-05-15,2023-05-10,株式会社ＯＭＳＧ,,株式会社,大分県,大分市,中央町２丁目８番１０号,,44,201,8700035,,,2023-05-10,合併による解散等,8340002001822,令和５年５月１日鹿児島市加治屋町１３番８号株式会社ＦＡＲＥ（8340002001822）に合併し解散,2015-10-05,1,,,,,オーエムエスジー,0
2833,9420001006524,登記記録の閉鎖等,0,2023-05-15,2023-05-08,株式会社福真,,株式会社,青森県,八戸市,石堂２丁目１６番２１号,,02,203,0391165,,,2023-05-08,清算の結了等,,,2015-10-05,1,,,,,フクシン,0
