sequenceNumber,corporateNumber,process,correct,updateDate,changeDate,name,nameImageId,kind,prefectureName,cityName,streetNumber,addressImageId,prefectureCode,cityCode,postCode,addressOutside,addressOutsideImageId,closeDate,closeCause,successorCorporateNumber,changeCause,assignmentDate,latest,enName,enPrefectureName,enCityName,enAddressOutside,furigana,hihyoji
16,1010001256481,新規,0,2025-07-07,2025-07-07,Ｓｔｕｄｙ　Ｓｔｏｃｋ　ｔｅｃｈｎｏｌｏｇｉｅｓ株式会社,,株式会社,東京都,中央区,新富１丁目５番１号ｇｒａｎ＋ＧＩＮＺＡＥＡＳＴ２Ｆ,,13,102,1040041,,,,,,,2025-07-07,1,,,,,スタディストックテクノロジーズ,0
17,1010001256498,新規,0,2025-07-07,2025-07-07,株式会社星野インターナショナル,,株式会社,東京都,千代田区,神田須田町２丁目１９番地２３Ｄａｉｗａ秋葉原ビル２階,,13,101,1010041,,,,,,,2025-07-07,1,,,,,ホシノインターナショナル,0
18,1010001256507,新規,0,2025-07-07,2025-07-07,株式会社イリデッセントオーシャン,,株式会社,東京都,千代田区,神田須田町１丁目７番８号ＶＯＲＴ秋葉原ＩＶ２Ｆ,00139818,13,101,1010041,,,,,,,2025-07-07,1,,,,,イリデッセントオーシャン,0
19,1010001256556,新規,0,2025-07-07,2025-07-07,株式会社ＢＩＪＯＵ,,株式会社,東京都,中央区,銀座６丁目４番７号ｇｏｗｅｓｔビル６階,,13,102,1040061,,,,,,,2025-07-07,1,,,,,ビジュー,0
20,1010001256671,新規,0,2025-07-07,2025-07-07,株式会社Ｌｉｂｅｒｉｘ,,株式会社,東京都,千代田区,神田和泉町１番地６－１６ヤマトビル４０５,,13,101,1010024,,,,,,,2025-07-07,1,,,,,リベリクス,0
22,1010003047879,新規,0,2025-07-07,2025-07-07,合同会社ハモレビ,,合同会社,東京都,中央区,日本橋室町１丁目１１番１２号日本橋水野ビル７階,,13,102,1030022,,,,,,,2025-07-07,1,,,,,ハモレビ,0
23,1010003047904,新規,0,2025-07-07,2025-07-07,Ｏｐｔｉｎｎｏ合同会社,,合同会社,東京都,中央区,日本橋室町１丁目１１番１２号日本橋水野ビル７階,,13,102,1030022,,,,,,,2025-07-07,1,,,,,オプティノ,0
24,1010003047945,新規,0,2025-07-07,2025-07-07,合同会社Ｇｌｏｐｓ,,合同会社,東京都,中央区,銀座１丁目１２－４Ｎ＆ＥＢＬＤ．７階,,13,102,1040061,,,,,,,2025-07-07,1,,,,,ジーエルオプス,0
26,1010005040304,新規,0,2025-07-07,2025-07-07,Ｕｎｏ税理士法人,,その他の設立登記法人,東京都,千代田区,神田錦町３丁目７番２号東京堂錦町ビルディング,,13,101,1010054,,,,,,,2025-07-07,1,,,,,ウーノ,0
33,1010401191411,新規,0,2025-07-07,2025-07-07,ＥＲ３１株式会社,,株式会社,東京都,港区,六本木１丁目６番１号,,13,103,1060032,,,,,,,2025-07-07,1,,,,,イーアールサーティーワン,0
34,1010401191485,新規,0,2025-07-07,2025-07-07,株式会社Ｎｅｘｕｓ,,株式会社,東京都,港区,高輪４丁目２１番８－５０１号,,13,103,1080074,,,,,,,2025-07-07,1,,,,,ネクサス,0
35,1010401191493,新規,0,2025-07-07,2025-07-07,株式会社データＱ,,株式会社,東京都,港区,南青山３丁目１番３６号青山丸竹ビル６Ｆ,,13,103,1070062,,,,,,,2025-07-07,1,,,,,データキュー,0
36,1010401191519,新規,0,2025-07-07,2025-07-07,株式会社Ｓｌｅｅｐｅｒ,,株式会社,東京都,港区,南青山３丁目１番３６号青山丸竹ビル６階,,13,103,1070062,,,,,,,2025-07-07,1,,,,,スリーパー,0
39,1010503007911,新規,0,2025-07-07,2025-07-07,ＫｏｎｎｉｃｈｉＷｏｒｌｄ合同会社,,合同会社,東京都,台東区,清川２丁目２９番９号,,13,106,1110022,,,,,,,2025-07-07,1,,,,,コンニチワールド,0
42,1010701047924,新規,0,2025-07-07,2025-07-07,ＡＲＴＶＩＮＥ株式会社,,株式会社,東京都,品川区,大井３丁目４番１３号１０３,,13,109,1400014,,,,,,,2025-07-07,1,,,,,アートヴァイン,0
43,1010701047940,新規,0,2025-07-07,2025-07-07,株式会社ストレート,,株式会社,東京都,品川区,北品川２丁目２８番９号パークサイドＫ２０１,,13,109,1400001,,,,,,,2025-07-07,1,,,,,ストレート,0
45,1010803005466,新規,0,2025-07-07,2025-07-07,日本ナノフロー合同会社,,合同会社,東京都,大田区,西馬込１丁目７番８号エクセル馬込３０２,,13,111,1430026,,,,,,,2025-07-07,1,,,,,ニッポンナノフロー,0
47,1010901057698,新規,0,2025-07-07,2025-07-07,Ｓｔｕｄｉｏ‐Ｊ　Ｃｏｎｓｕｌｔｉｎｇ株式会社,,株式会社,東京都,世田谷区,上祖師谷７丁目１２番６号,,13,112,1570065,,,,,,,2025-07-07,1,,,,,スタジオジェイコンサルティング,0
52,1010903010069,新規,0,2025-07-07,2025-07-07,長瀬興業合同会社,,合同会社,東京都,世田谷区,成城３丁目１０番３４号,,13,112,1570066,,,,,,,2025-07-07,1,,,,,ナガセコウギョウ,0
57,1011003021898,新規,0,2025-07-07,2025-07-07,合同会社Ｚｅｎｏｖｉａ,,合同会社,東京都,目黒区,自由が丘２丁目１６番１２号ＲＪ３,,13,110,1520035,,,,,,,2025-07-07,1,,,,,ゼノヴィア,0
58,1011003021956,新規,0,2025-07-07,2025-07-07,合同会社ＧｒａｎＥｄｉｔ,,合同会社,東京都,目黒区,下目黒３丁目１３番１３－４０１号,,13,110,1530064,,,,,,,2025-07-07,1,,,,,グランエディット,0
59,1011003021972,新規,0,2025-07-07,2025-07-07,Ｂｅｅｌｉｎｅ合同会社,,合同会社,東京都,目黒区,五本木２丁目１８番１１号,,13,110,1530053,,,,,,,2025-07-07,1,,,,,ビーライン,0
62,1011101112384,新規,0,2025-07-07,2025-07-07,株式会社Ｅｎａｃｔｉｃ,,株式会社,東京都,新宿区,四谷１丁目２２番地５,,13,104,1600004,,,,,,,2025-07-07,1,,,,,エナクティック,0
65,1011301030700,新規,0,2025-07-07,2025-07-07,株式会社のらねこアセットマネジメント,,株式会社,東京都,杉並区,善福寺２丁目３４番１４号,,13,115,1670041,,,,,,,2025-07-07,1,,,,,ノラネコアセットマネジメント,0
66,1011303005626,新規,0,2025-07-07,2025-07-07,ｉｈｍ合同会社,,合同会社,東京都,杉並区,上高井戸１丁目１４番７号クレール八幡山Ｂ－３０１,,13,115,1680074,,,,,,,2025-07-07,1,,,,,アイエイチエム,0
71,1011801046403,新規,0,2025-07-07,2025-07-07,株式会社ＸＩエステート,,株式会社,東京都,葛飾区,小菅４丁目２１番３６号,,13,122,1240001,,,,,,,2025-07-07,1,,,,,エックスアイエステート,0
73,1013301054563,新規,0,2025-07-07,2025-07-07,株式会社竹内テクノロジー,,株式会社,東京都,豊島区,高田２丁目１７番２６－３０４号,,13,116,1710033,,,,,,,2025-07-07,1,,,,,タケウチテクノロジー,0
80,1020001163669,新規,0,2025-07-07,2025-07-07,株式会社ファスト設備,,株式会社,神奈川県,横浜市鶴見区,下末吉１丁目１１番１９号,,14,101,2300012,,,,,,,2025-07-07,1,,,,,ファストセツビ,0
83,1021001085713,新規,0,2025-07-07,2025-07-07,株式会社かろや,,株式会社,神奈川県,相模原市中央区,陽光台２丁目２８番１７号,,14,152,2520226,,,,,,,2025-07-07,1,,,,,カロヤ,0
84,1021001085738,新規,0,2025-07-07,2025-07-07,株式会社Ｓｎｅｅｄ,,株式会社,神奈川県,相模原市南区,相模大野７丁目１４―３メゾンリキ２０５,,14,153,2520303,,,,,,,2025-07-07,1,,,,,ソニード,0
85,1021003016220,新規,0,2025-07-07,2025-07-07,合同会社サクライ,,合同会社,神奈川県,藤沢市,鵠沼桜が岡１丁目１２番２０号,,14,205,2510027,,,,,,,2025-07-07,1,,,,,サクライ,0
86,1021003016253,新規,0,2025-07-07,2025-07-07,合同会社ａｎｄ　ＬＵＸＥ　ｐｒｏｐｅｒｔｙ,,合同会社,神奈川県,相模原市緑区,原宿１丁目１０番２０号,,14,151,2520102,,,,,,,2025-07-07,1,,,,,アンドリュクスプロパティ,0
90,1030001167355,新規,0,2025-07-07,2025-07-07,株式会社ネストサポート,,株式会社,埼玉県,坂戸市,千代田２丁目２０番２６号,,11,239,3500214,,,,,,,2025-07-07,1,,,,,ネストサポート,0
91,1030001167446,新規,0,2025-07-07,2025-07-07,株式会社彩北テクノ,,株式会社,埼玉県,熊谷市,妻沼７０８番地１４,,11,202,3600201,,,,,,,2025-07-07,1,,,,,サイホクテクノ,0
92,1030001167504,新規,0,2025-07-07,2025-07-07,株式会社ＡＧＥグループ,,株式会社,埼玉県,入間市,大字小谷田２９８番地４,,11,225,3580026,,,,,,,2025-07-07,1,,,,,エージーイーグループ,0
93,1030001167520,新規,0,2025-07-07,2025-07-07,ワーキーズ・インターナショナル株式会社,,株式会社,埼玉県,さいたま市桜区,田島２丁目１２番１０－４０４号,,11,106,3380837,,,,,,,2025-07-07,1,,,,,ワーキーズインターナショナル,0
94,1030001167529,新規,0,2025-07-07,2025-07-07,株式会社アポカリボックス,,株式会社,埼玉県,さいたま市西区,西大宮３丁目３８番地１デュオヒルズ西大宮ザ・グランテラス３２９,,11,101,3310078,,,,,,,2025-07-07,1,,,,,アポカリボックス,0
95,1030001167537,新規,0,2025-07-07,2025-07-07,株式会社Ｕｎｉｑｕｅ　Ｐｅｅｋ,,株式会社,埼玉県,さいたま市浦和区,常盤９丁目１７番１４号,,11,107,3300061,,,,,,,2025-07-07,1,,,,,ユニークピーク,0
96,1030003027136,新規,0,2025-07-07,2025-07-07,合同会社深沢建設,,合同会社,埼玉県,東松山市,本町１丁目９番２１号,,11,212,3550015,,,,,,,2025-07-07,1,,,,,フカザワケンセツ,0
97,1030003027144,新規,0,2025-07-07,2025-07-07,合同会社アイビーネッツソリューションズ,,合同会社,埼玉県,秩父郡東秩父村,大字安戸１２１２番地３,,11,369,3550374,,,,,,,2025-07-07,1,,,,,アイビーネッツソリューションズ,0
101,1040001139460,新規,0,2025-07-07,2025-07-07,株式会社フアロ,,株式会社,千葉県,千葉市中央区,青葉町１２６９番地青葉の森公園通り８－３０１号,,12,101,2600852,,,,,,,2025-07-07,1,,,,,フアロ,0
102,1040001139485,新規,0,2025-07-07,2025-07-07,株式会社ＣｏｒｅＬｉｎｅ,,株式会社,千葉県,市川市,国府台３丁目１１番１５号,,12,203,2720827,,,,,,,2025-07-07,1,,,,,コアライン,0
103,1040001139493,新規,0,2025-07-07,2025-07-07,株式会社求人グルー,,株式会社,千葉県,柏市,船戸１丁目１４－２,,12,217,2770802,,,,,,,2025-07-07,1,,,,,キュウジングルー,0
107,1040003027985,新規,0,2025-07-07,2025-07-07,合同会社Ａ＆Ａ　ＴＲＡＤＩＮＧ,,合同会社,千葉県,浦安市,北栄２丁目２５番１２号クローバーハイツ２－１階７号,,12,227,2790002,,,,,,,2025-07-07,1,,,,,エーアンドエートレーディング,0
108,1040003027993,新規,0,2025-07-07,2025-07-07,ＣｏｍｉＶｉａ合同会社,,合同会社,千葉県,印西市,滝野３丁目６番５６号,,12,231,2702329,,,,,,,2025-07-07,1,,,,,コミヴィア,0
113,1050005013660,新規,0,2025-07-07,2025-07-07,司法書士法人田山事務所,,その他の設立登記法人,茨城県,土浦市,下高津１丁目１９番３６号,,08,203,3000812,,,,,,,2025-07-07,1,,,,,タヤマジムショ,0
119,1080001027018,新規,0,2025-07-07,2025-07-07,Ｈｅｒｏ株式会社,,株式会社,静岡県,島田市,島４０１番地の２,,22,209,4280007,,,,,,,2025-07-07,1,,,,,ヒーロー,0
125,1110001039397,新規,0,2025-07-07,2025-07-07,株式会社萬福,,株式会社,新潟県,十日町市,中条甲１６２０番地,,15,210,9498615,,,,,,,2025-07-07,1,,,,,マンプク,0
126,1110001039406,新規,0,2025-07-07,2025-07-07,株式会社石井鉄工所,,株式会社,新潟県,新潟市江南区,木津４丁目１０番５１号,,15,104,9500206,,,,,,,2025-07-07,1,,,,,イシイテッコウジョ,0
131,1120001277392,新規,0,2025-07-07,2025-07-07,ルイシュン株式会社,,株式会社,大阪府,大阪市浪速区,戎本町１丁目９－２４－１０６,,27,111,5560013,,,,,,,2025-07-07,1,,,,,ルイシュン,0
132,1120001277475,新規,0,2025-07-07,2025-07-07,株式会社アラス,,株式会社,大阪府,大阪市生野区,巽中２丁目８－６,,27,116,5440013,,,,,,,2025-07-07,1,,,,,アラス,0
133,1120001277509,新規,0,2025-07-07,2025-07-07,株式会社ＥＣＤ,,株式会社,大阪府,大阪市阿倍野区,阿倍野筋４丁目８番１６号,,27,119,5450052,,,,,,,2025-07-07,1,,,,,イーシーディー,0
134,1120001277525,新規,0,2025-07-07,2025-07-07,株式会社ＯＳＥ,,株式会社,大阪府,大阪市中央区,南船場３丁目２番２２号おおきに南船場ビル２０５,,27,128,5420081,,,,,,,2025-07-07,1,,,,,オーエスイー,0
135,1120001277541,新規,0,2025-07-07,2025-07-07,エレベーターマネージメント株式会社,,株式会社,大阪府,大阪市淀川区,三津屋南３丁目１７番３０号,,27,123,5320035,,,,,,,2025-07-07,1,,,,,エレベーターマネージメント,0
136,1120001277558,新規,0,2025-07-07,2025-07-07,塗器具工房株式会社,,株式会社,大阪府,守口市,大日町４丁目３０番４号ラビュール大日２０１号,,27,209,5700003,,,,,,,2025-07-07,1,,,,,トキグコウボウ,0
137,1120001277566,新規,0,2025-07-07,2025-07-07,株式会社ケイアイパートナーズ,,株式会社,大阪府,大阪市此花区,西九条６丁目１番１２５－２１４号,,27,104,5540012,,,,,,,2025-07-07,1,,,,,ケイアイパートナーズ,0
138,1120001277649,新規,0,2025-07-07,2025-07-07,ＴＳＤホールディングス株式会社,,株式会社,大阪府,大阪市生野区,新今里１丁目４番１５号,,27,116,5440001,,,,,,,2025-07-07,1,,,,,ティーエスディーホールディングス,0
139,1120001277673,新規,0,2025-07-07,2025-07-07,花仙子株式会社,,株式会社,大阪府,大阪市生野区,新今里６丁目９番１７－２０２号,,27,116,5440001,,,,,,,2025-07-07,1,,,,,カセンシ,0
143,1120003029924,新規,0,2025-07-07,2025-07-07,合同会社ＮＹ　Ｄｅｓｉｇｎ,,合同会社,大阪府,大阪市西区,土佐堀２丁目３番１３号,,27,106,5500001,,,,,,,2025-07-07,1,,,,,エヌワイデサイン,0
144,1120003029932,新規,0,2025-07-07,2025-07-07,合同会社ＡＣＣＥＳＳ,,合同会社,大阪府,大阪市浪速区,敷津西２丁目２番２－９０２号,,27,111,5560015,,,,,,,2025-07-07,1,,,,,アクセス,0
145,1120003029940,新規,0,2025-07-07,2025-07-07,合同会社ホームタウン,,合同会社,大阪府,枚方市,山之上北町五丁目２番２０３号,,27,210,5730049,,,,,,,2025-07-07,1,,,,,ホームタウン,0
148,1120101072000,新規,0,2025-07-07,2025-07-07,株式会社リクプラ,,株式会社,大阪府,富田林市,高辺台１丁目１１番３９号,,27,214,5840072,,,,,,,2025-07-07,1,,,,,リクプラ,0
149,1120101072009,新規,0,2025-07-07,2025-07-07,株式会社ＴＷＯ,,株式会社,大阪府,泉佐野市,りんくう往来北２番１１,,27,213,5980048,,,,,,,2025-07-07,1,,,,,ティダブリュオー,0
150,1120103006550,新規,0,2025-07-07,2025-07-07,栄泰商事合同会社,,合同会社,大阪府,岸和田市,天神山町２丁目９番６号２０５号室,,27,202,5960834,,,,,,,2025-07-07,1,,,,,エイタイショウジ,0
156,1120903005743,新規,0,2025-07-07,2025-07-07,合同会社エフ・ケー,,合同会社,大阪府,豊中市,上野西３丁目２番４６号,,27,203,5600011,,,,,,,2025-07-07,1,,,,,エフケー,0
161,1130003010577,新規,0,2025-07-07,2025-07-07,合同会社半径３メートル,,合同会社,京都府,京都市山科区,大宅関生町４番地,,26,110,6078188,,,,,,,2025-07-07,1,,,,,ハンケイサンメートル,0
167,1140001139137,新規,0,2025-07-07,2025-07-07,株式会社ＮｏｖａＥｒａ,,株式会社,兵庫県,神戸市兵庫区,御崎町１丁目４番２３号,,28,105,6520855,,,,,,,2025-07-07,1,,,,,ノヴァエラ,0
168,1140001139145,新規,0,2025-07-07,2025-07-07,株式会社フェアリーズ,,株式会社,兵庫県,芦屋市,浜芦屋町３番５－２０４号,00139804,28,206,6590054,,,,,,,2025-07-07,1,,,,,フェアリーズ,0
169,1140001139161,新規,0,2025-07-07,2025-07-07,株式会社ココファーマシーズ,,株式会社,兵庫県,神戸市東灘区,深江北町２丁目７番５号コンフォート芦屋西１階,,28,101,6580013,,,,,,,2025-07-07,1,,,,,ココファーマシーズ,0
183,1180001167514,新規,0,2025-07-07,2025-07-07,株式会社ＬＩＶＩ,,株式会社,愛知県,瀬戸市,西吉田町３番地の４,,23,204,4890807,,,,,,,2025-07-07,1,,,,,リビ,0
190,1200001043976,新規,0,2025-07-07,2025-07-07,株式会社レッドスピネル,,株式会社,岐阜県,高山市,新宮町３６９２番地１,,21,203,5060035,,,,,,,2025-07-07,1,,,,,レッドスピネル,0
191,1200001044000,新規,0,2025-07-07,2025-07-07,株式会社仲西内装,,株式会社,岐阜県,岐阜市,日野北１丁目７番４号,,21,201,5008207,,,,,,,2025-07-07,1,,,,,ナカニシナイソウ,0
194,1200005013777,新規,0,2025-07-07,2025-07-07,一般社団法人ＭＩＣ,,その他の設立登記法人,岐阜県,美濃市,１５９９番地,,21,207,5013701,,,,,,,2025-07-07,1,,,,,ミック,0
196,1210001020223,新規,0,2025-07-07,2025-07-07,株式会社田中生魚,,株式会社,福井県,三方上中郡若狭町,神谷第２８号２３番地,,18,501,9191544,,,,,,,2025-07-07,1,,,,,タナカセイギョ,0
206,1240001065166,新規,0,2025-07-07,2025-07-07,株式会社エイトホールディングス,,株式会社,広島県,福山市,箕島町５８１６番地５,,34,207,7210957,,,,,,,2025-07-07,1,,,,,エイトホールディングス,0
207,1240001065182,新規,0,2025-07-07,2025-07-07,山陽商事株式会社,,株式会社,広島県,安芸郡府中町,浜田３丁目５番１３－２０２号,,34,302,7350013,,,,,,,2025-07-07,1,,,,,サンヨウショウジ,0
212,1260001040340,新規,0,2025-07-07,2025-07-07,株式会社丸通モータース,,株式会社,岡山県,瀬戸内市,邑久町大富２０２番地１,,33,212,7014234,,,,,,,2025-07-07,1,,,,,マルツウモータース,0
213,1260003005242,新規,0,2025-07-07,2025-07-07,合同会社Ｈａｐｐｉｎｅｓｓ　Ｒｏａｄ,,合同会社,岡山県,備前市,佐山１５５６番地,,33,211,7050026,,,,,,,2025-07-07,1,,,,,ハピネスロード,0
217,1290005019790,新規,0,2025-07-07,2025-07-07,Ｇ‐ＦＡＳ税理士法人,,その他の設立登記法人,福岡県,福岡市中央区,大名２丁目９番３４号アクシブ天神ビル８０１号室,,40,133,8100041,,,,,,,2025-07-07,1,,,,,ジーファス,0
219,1290801031684,新規,0,2025-07-07,2025-07-07,株式会社将栄テック,,株式会社,福岡県,北九州市小倉南区,長行西４丁目１番４号,,40,107,8030272,,,,,,,2025-07-07,1,,,,,ショウエイテック,0
222,1300001014257,新規,0,2025-07-07,2025-07-07,幸栄建設株式会社,,株式会社,佐賀県,鳥栖市,村田町１８番地１６,,41,203,8410072,,,,,,,2025-07-07,1,,,,,コウエイケンセツ,0
223,1300001014265,新規,0,2025-07-07,2025-07-07,株式会社プロッグ,,株式会社,佐賀県,佐賀市,神園２丁目８番３７号,,41,201,8400806,,,,,,,2025-07-07,1,,,,,プロッグ,0
225,1320001021202,新規,0,2025-07-07,2025-07-07,ＳＥＮＯＢＩ株式会社,,株式会社,大分県,日田市,三本松２丁目１番４６号,,44,204,8770016,,,,,,,2025-07-07,1,,,,,セノビ,0
229,1320005010250,新規,0,2025-07-07,2025-07-07,ＭＴＫ人材支援事業協同組合,,その他の設立登記法人,大分県,大分市,碩田町３丁目１番３５号Ｍｉｔｓｕｋｉｎｂｉｄｇ１Ｆ,,44,201,8700048,,,,,,,2025-07-07,1,,,,,エムティーケイジンザイシエンジギョウ,0
230,1340001027486,新規,0,2025-07-07,2025-07-07,株式会社照国ハウス,,株式会社,鹿児島県,鹿児島市,照国町１５番１５号,,46,201,8920841,,,,,,,2025-07-07,1,,,,,テルクニハウス,0
235,1370001052787,新規,0,2025-07-07,2025-07-07,株式会社ｅｙｅｓ,,株式会社,宮城県,仙台市太白区,長町５丁目１１－８－２Ｃａｓｅ長町１０１,,04,104,9820011,,,,,,,2025-07-07,1,,,,,アイズ,0
244,1410001014213,新規,0,2025-07-07,2025-07-07,株式会社アイズモーターファクトリー,,株式会社,秋田県,北秋田市,七日市字前田６８番地２,,05,213,0183452,,,,,,,2025-07-07,1,,,,,アイズモーターファクトリー,0
245,1410001014221,新規,0,2025-07-07,2025-07-07,株式会社プラウド,,株式会社,秋田県,秋田市,手形字才ノ浜２７番６号,,05,201,0100851,,,,,,,2025-07-07,1,,,,,プラウド,0
247,1410003004121,新規,0,2025-07-07,2025-07-07,合同会社ＴＫＳｃｏｎｎｅｃｔ,,合同会社,秋田県,潟上市,飯田川下虻川字城ノ後１１４番地２,,05,211,0181502,,,,,,,2025-07-07,1,,,,,ティーケーエスコネクト,0
250,1430001094757,新規,0,2025-07-07,2025-07-07,株式会社やまもと商店,,株式会社,北海道,札幌市北区,あいの里四条３丁目１６番１３号,,01,102,0028074,,,,,,,2025-07-07,1,,,,,ヤマモトショウテン,0
251,1430001094773,新規,0,2025-07-07,2025-07-07,株式会社縁紡,,株式会社,北海道,札幌市中央区,宮の森三条３丁目４番５－１１０号,,01,101,0640953,,,,,,,2025-07-07,1,,,,,エニシツムグ,0
254,1440001009631,新規,0,2025-07-07,2025-07-07,株式会社ＴａｃｋＭｏｒｅ,,株式会社,北海道,函館市,杉並町６－２Ｐｅｒａｚｚｉ杉並１０３号室,,01,202,0400004,,,,,,,2025-07-07,1,,,,,タックモア,0
280,2010003047903,新規,0,2025-07-07,2025-07-07,ＧＢＡマネジメント合同会社,,合同会社,東京都,中央区,銀座１丁目２２番１１号銀座大竹ビジデンス２Ｆ,,13,102,1040061,,,,,,,2025-07-07,1,,,,,ジービーエーマネジメント,0
283,2010005040253,新規,0,2025-07-07,2025-07-07,一般社団法人ＵＴ‐ＬＡＢ,,その他の設立登記法人,東京都,文京区,西片２丁目２５番８号モンテベルデ本郷西片１階,,13,105,1130024,,,,,,,2025-07-07,1,,,,,ユーティーラボ,0
284,2010005040303,新規,0,2025-07-07,2025-07-07,一般社団法人Ｐｒａｂｕ　Ｊａｐａｎ　Ｏｒｇａｎｉｚａｔｉｏｎ,,その他の設立登記法人,東京都,中央区,新富１丁目４－１,,13,102,1040041,,,,,,,2025-07-07,1,,,,,プラブジャパンオーガニゼーション,0
285,2010005040311,新規,0,2025-07-07,2025-07-07,一般社団法人ソロプロエージェント,,その他の設立登記法人,東京都,中央区,銀座７丁目１３番６号サガミビル２階,,13,102,1040061,,,,,,,2025-07-07,1,,,,,ソロプロエージェント,0
299,2010405024509,新規,0,2025-07-07,2025-07-07,一般社団法人ＦＩＰＧＣアジア支部,,その他の設立登記法人,東京都,港区,芝４丁目７番６号芝ビルディング７０４,,13,103,1080014,,,,,,,2025-07-07,1,,,,,エフアイピージーシーアジアシブ,0
300,2010501054368,新規,0,2025-07-07,2025-07-07,途陽国際株式会社,,株式会社,東京都,台東区,浅草橋１丁目９－１２－６Ｆ,,13,106,1110053,,,,,,,2025-07-07,1,,,,,トヨウコクサイ,0
301,2010503007910,新規,0,2025-07-07,2025-07-07,東江貿易合同会社,,合同会社,東京都,台東区,駒形２丁目３番５－１１０５号駒形武蔵野マンション,,13,106,1110043,,,,,,,2025-07-07,1,,,,,トウコウボウエキ,0
303,2010601067567,新規,0,2025-07-07,2025-07-07,株式会社ワン,,株式会社,東京都,江東区,住吉２丁目７番１０号杉田ビル,,13,108,1350002,,,,,,,2025-07-07,1,,,,,ワン,0
304,2010601067575,新規,0,2025-07-07,2025-07-07,ルートリア株式会社,,株式会社,東京都,墨田区,石原２丁目１７番１４号,,13,107,1300011,,,,,,,2025-07-07,1,,,,,ルートリア,0
309,2010801036330,新規,0,2025-07-07,2025-07-07,株式会社ＱＵＯＲＱ,,株式会社,東京都,大田区,北糀谷２丁目１０番２－５０９号,,13,111,1440032,,,,,,,2025-07-07,1,,,,,クオルク,0
311,2010901057680,新規,0,2025-07-07,2025-07-07,株式会社ネクサセット,,株式会社,東京都,世田谷区,等々力８丁目１７－１,,13,112,1580082,,,,,,,2025-07-07,1,,,,,ネクサセット,0
316,2011001170498,新規,0,2025-07-07,2025-07-07,株式会社Ｗｏｒｌｄ　ｃｌｏｓｅｔ,,株式会社,東京都,渋谷区,道玄坂１丁目１０番８号渋谷道玄坂東急ビル２Ｆ－Ｃ,,13,113,1500043,,,,,,,2025-07-07,1,,,,,ワールドクローゼット,0
317,2011001170523,新規,0,2025-07-07,2025-07-07,株式会社ＭＩＴＡＫＥ,,株式会社,東京都,目黒区,中根１丁目２０番１３号ＣＳ自由が丘２Ｂ,,13,110,1520031,,,,,,,2025-07-07,1,,,,,ミタケ,0
318,2011001170754,新規,0,2025-07-07,2025-07-07,Ｔｓｕｎａｂｉｚ株式会社,,株式会社,東京都,渋谷区,初台１丁目４８番５－８０３号,,13,113,1510061,,,,,,,2025-07-07,1,,,,,ツナビズ,0
319,2011001170977,新規,0,2025-07-07,2025-07-07,朝日ホールディングス株式会社,,株式会社,東京都,渋谷区,神宮前５丁目１７番４号,,13,113,1500001,,,,,,,2025-07-07,1,,,,,アサヒホールディングス,0
321,2011003021914,新規,0,2025-07-07,2025-07-07,合同会社もりなカンパニー,,合同会社,東京都,渋谷区,道玄坂１丁目１０番８号渋谷道玄坂東急ビル２Ｆ－Ｃ,,13,113,1500043,,,,,,,2025-07-07,1,,,,,モリナカンパニー,0
324,2011101112292,新規,0,2025-07-07,2025-07-07,株式会社ガンマエイト,,株式会社,東京都,新宿区,西新宿３丁目３番１３号西新宿水間ビル６階,,13,104,1600023,,,,,,,2025-07-07,1,,,,,ガンマエイト,0
325,2011101112342,新規,0,2025-07-07,2025-07-07,Ｄｅｖｅｌｏｐｍｅｎｔ　Ａｇｅｎｃｙ株式会社,,株式会社,東京都,新宿区,百人町１丁目１０－１５新大久保駅ビル４Ｆ,,13,104,1690073,,,,,,,2025-07-07,1,,,,,デベロップメントエージェンシー,0
329,2011301030708,新規,0,2025-07-07,2025-07-07,株式会社ＹＵＬＡＢ,,株式会社,東京都,杉並区,浜田山４丁目２９番２８号,,13,115,1680065,,,,,,,2025-07-07,1,,,,,ユーラボ,0
331,2011401027224,新規,0,2025-07-07,2025-07-07,景和商貿株式会社,,株式会社,東京都,板橋区,成増３丁目４－１７グリーンエステート４０１,,13,119,1750094,,,,,,,2025-07-07,1,,,,,ケイワトレーディング,0
332,2011403004741,新規,0,2025-07-07,2025-07-07,合同会社Ｐｏｎａｃｃｉａ,,合同会社,東京都,板橋区,清水町３８番１号２０３号室,,13,119,1740053,,,,,,,2025-07-07,1,,,,,ポナッチャ,0
342,2012303002190,新規,0,2025-07-07,2025-07-07,合同会社ミライバトン,,合同会社,東京都,町田市,金井２丁目３７番地２２,,13,209,1950072,,,,,,,2025-07-07,1,,,,,ミライバトン,0
345,2012803003787,新規,0,2025-07-07,2025-07-07,ＢＡＳＥ合同会社,,合同会社,東京都,昭島市,松原町５丁目１番１２号大和荘２０２号,,13,207,1960003,,,,,,,2025-07-07,1,,,,,ベイス,0
352,2020001163668,新規,0,2025-07-07,2025-07-07,ビジネス．リーディング．イノベーション株式会社,,株式会社,神奈川県,横浜市鶴見区,北寺尾６丁目４番２８－４号,,14,101,2300074,,,,,,,2025-07-07,1,,,,,ビジネスリーディングイノベーション,0
353,2020001163701,新規,0,2025-07-07,2025-07-07,株式会社成浜,,株式会社,神奈川県,川崎市幸区,小倉５丁目２９番２号,,14,132,2120054,,,,,,,2025-07-07,1,,,,,ナルハマ,0
354,2020001163734,新規,0,2025-07-07,2025-07-07,株式会社Ｇｒａｕ,,株式会社,神奈川県,川崎市麻生区,王禅寺東２丁目８番１０－２号,,14,137,2150018,,,,,,,2025-07-07,1,,,,,グラウ,0
355,2020001163750,新規,0,2025-07-07,2025-07-07,株式会社清水総合設備,,株式会社,神奈川県,横浜市旭区,二俣川２丁目５０番地１４－２９０４号室,,14,112,2410821,,,,,,,2025-07-07,1,,,,,シミズソウゴウセツビ,0
361,2020003028869,新規,0,2025-07-07,2025-07-07,ノーブルメディカル合同会社,,合同会社,神奈川県,横浜市青葉区,奈良３丁目１４番地１・３－３０４,,14,117,2270038,,,,,,,2025-07-07,1,,,,,ノーブルメディカル,0
362,2020003028885,新規,0,2025-07-07,2025-07-07,ＨＭＫ合同会社,,合同会社,神奈川県,川崎市川崎区,港町５番２－１８０１号,,14,131,2100807,,,,,,,2025-07-07,1,,,,,エイチエムケイ,0
363,2021001085687,新規,0,2025-07-07,2025-07-07,ＩＫＫＡＮ株式会社,,株式会社,神奈川県,鎌倉市,七里ガ浜東２丁目３３番２号,,14,204,2480025,,,,,,,2025-07-07,1,,,,,イッカン,0
364,2021001085712,新規,0,2025-07-07,2025-07-07,トレステック防災株式会社,,株式会社,神奈川県,高座郡寒川町,小谷３丁目１２番１６号,,14,321,2530103,,,,,,,2025-07-07,1,,,,,トレステックボウサイ,0
365,2021001085737,新規,0,2025-07-07,2025-07-07,株式会社インテリアアレックス,,株式会社,神奈川県,座間市,相模が丘４丁目６６番１４号,,14,216,2520001,,,,,,,2025-07-07,1,,,,,インテリアアレックス,0
369,2021003016244,新規,0,2025-07-07,2025-07-07,合同会社りたひま,,合同会社,神奈川県,相模原市南区,磯部９９０,,14,153,2520327,,,,,,,2025-07-07,1,,,,,,0
372,2030001167503,新規,0,2025-07-07,2025-07-07,株式会社トラストライズ,,株式会社,埼玉県,坂戸市,大字四日市場３４９番地１３,,11,239,3500245,,,,,,,2025-07-07,1,,,,,トラストライズ,0
373,2030001167536,新規,0,2025-07-07,2025-07-07,ＡＩ商事株式会社,,株式会社,埼玉県,比企郡小川町,大字高谷８４１番地１号,,11,343,3550311,,,,,,,2025-07-07,1,,,,,エーアイショウジ,0
378,2030003027110,新規,0,2025-07-07,2025-07-07,天下一品紅玉白飯堂合同会社,,合同会社,埼玉県,朝霞市,幸町３丁目１３番１０－５４４号,,11,227,3510015,,,,,,,2025-07-07,1,,,,,テンカイッピンコウギョクハクハンドウ,0
379,2030003027151,新規,0,2025-07-07,2025-07-07,合同会社ｍｏｍｏｒｉ,,合同会社,埼玉県,戸田市,大字新曽１４８９番地（オッソボル・エスト１０１号室）,,11,224,3350021,,,,,,,2025-07-07,1,,,,,モモリ,0
380,2040001139419,新規,0,2025-07-07,2025-07-07,株式会社ｂｈ　Ｃｏｎｎｅｃｔ,,株式会社,千葉県,千葉市中央区,都町３丁目１０番３号,,12,101,2600001,,,,,,,2025-07-07,1,,,,,ビーエイチコネクト,0
381,2040001139476,新規,0,2025-07-07,2025-07-07,株式会社オトキ,,株式会社,千葉県,八街市,上砂７９１番地１,,12,230,2891125,,,,,,,2025-07-07,1,,,,,オトキ,0
382,2040001139501,新規,0,2025-07-07,2025-07-07,瑞宝株式会社,,株式会社,千葉県,船橋市,駿河台１丁目２０－３－１０１,,12,204,2730862,,,,,,,2025-07-07,1,,,,,ズイホウ,0
393,2040005022819,新規,0,2025-07-07,2025-07-07,特定非営利活動法人まちなかカレッジ,,その他の設立登記法人,千葉県,柏市,篠籠田１１２０番地１,,12,217,2770862,,,,,,,2025-07-07,1,,,,,マチナカカレッジ,0
394,2050001056910,新規,0,2025-07-07,2025-07-07,株式会社Ｒ＆Ｓ,,株式会社,茨城県,猿島郡境町,大字若林２８３９番地,,08,546,3060417,,,,,,,2025-07-07,1,,,,,アールアンドエス,0
406,2080003003503,新規,0,2025-07-07,2025-07-07,合同会社Ｃｏｎｎｅｃｔ,,合同会社,静岡県,静岡市清水区,梅ヶ谷１６４番地の１０,,22,103,4240001,,,,,,,2025-07-07,1,,,,,コネクト,0
407,2080401028003,新規,0,2025-07-07,2025-07-07,共益株式会社,,株式会社,静岡県,浜松市天竜区,西藤平１２９１番地の１,,22,140,4313532,,,,,,,2025-07-07,1,,,,,キョウエキ,0
408,2080403005289,新規,0,2025-07-07,2025-07-07,合同会社ｍｙＧ,,合同会社,静岡県,浜松市中央区,小沢渡町１２１５－２インテグラＤ１０１,,22,138,4328063,,,,,,,2025-07-07,1,,,,,マイジー,0
422,2120001277185,新規,0,2025-07-07,2025-07-07,株式会社Ｋｙｏｔｏ　Ｃｅｌｌ　Ｐｒｏ,,株式会社,大阪府,大阪市中央区,淡路町１丁目６番９号,,27,128,5410047,,,,,,,2025-07-07,1,,,,,キョウトセルプロ,0
423,2120001277458,新規,0,2025-07-07,2025-07-07,ＬＥＯＧＡ株式会社,,株式会社,大阪府,大阪市北区,西天満６丁目２番３号１階,,27,127,5300047,,,,,,,2025-07-07,1,,,,,レオガ,0
424,2120001277474,新規,0,2025-07-07,2025-07-07,Ｈｏｒｖｉｘ株式会社,,株式会社,大阪府,大阪市東淀川区,豊新２丁目５番３０号,,27,114,5330014,,,,,,,2025-07-07,1,,,,,ホルビックス,0
425,2120001277524,新規,0,2025-07-07,2025-07-07,株式会社ＡｗＡ,,株式会社,大阪府,大阪市北区,西天満１丁目８番９号ＶＩＥＱＵＴＯＷＥＲＯＳＡＫＡ３４０４,,27,127,5300047,,,,,,,2025-07-07,1,,,,,ダブルエース,0
426,2120001277540,新規,0,2025-07-07,2025-07-07,株式会社ＺＥＥＤ,,株式会社,大阪府,大阪市東住吉区,中野１丁目１１番９－１０２号,,27,121,5460012,,,,,,,2025-07-07,1,,,,,ジード,0
427,2120001277557,新規,0,2025-07-07,2025-07-07,株式会社クレオパトラジャパン,,株式会社,大阪府,大阪市中央区,谷町６丁目４番８号新空堀ビル３０２号,,27,128,5420012,,,,,,,2025-07-07,1,,,,,クレオパトラジャパン,0
428,2120001277565,新規,0,2025-07-07,2025-07-07,株式会社ＥＮ,,株式会社,大阪府,大阪市中央区,上本町西２丁目１－１９,,27,128,5420062,,,,,,,2025-07-07,1,,,,,エン,0
429,2120001277581,新規,0,2025-07-07,2025-07-07,株式会社ＨＫＲ,,株式会社,大阪府,大阪市鶴見区,中茶屋１丁目１１番７号,,27,124,5380033,,,,,,,2025-07-07,1,,,,,エイチケイアール,0
431,2120003029923,新規,0,2025-07-07,2025-07-07,ＡＭＡＺＩＮＧ　ＳＴＡＲ＆ＣＯ．合同会社,,合同会社,大阪府,大阪市東成区,深江南２丁目２番７号,,27,115,5370002,,,,,,,2025-07-07,1,,,,,アメイジングスターアンドコー,0
432,2120003029931,新規,0,2025-07-07,2025-07-07,合同会社ＴＫＬ,,合同会社,大阪府,大阪市都島区,都島本通３丁目９番２０号チェリーハイム３０４号,,27,102,5340021,,,,,,,2025-07-07,1,,,,,ティーケーエル,0
433,2120101072008,新規,0,2025-07-07,2025-07-07,トーワ株式会社,,株式会社,大阪府,泉佐野市,りんくう往来北２番１１,,27,213,5980048,,,,,,,2025-07-07,1,,,,,トーワ,0
434,2120101072040,新規,0,2025-07-07,2025-07-07,株式会社山優,,株式会社,大阪府,堺市堺区,大町東３丁２－２８永木ビル６階,,27,141,5900954,,,,,,,2025-07-07,1,,,,,サンユウ,0
436,2120901051177,新規,0,2025-07-07,2025-07-07,株式会社ホライズン＆オーシャン・ジャパン,,株式会社,大阪府,箕面市,桜ケ丘３丁目１番１５号,,27,220,5620046,,,,,,,2025-07-07,1,,,,,ホライズンアンドオーシャンジャパン,0
437,2120901051185,新規,0,2025-07-07,2025-07-07,ＣＳＣ株式会社,,株式会社,大阪府,高槻市,藤の里町１番３１号,,27,207,5690025,,,,,,,2025-07-07,1,,,,,シーエスシー,0
439,2120903005742,新規,0,2025-07-07,2025-07-07,ベネット合同会社,,合同会社,大阪府,茨木市,園田町１番７号１０１,,27,211,5670825,,,,,,,2025-07-07,1,,,,,ベネット,0
449,2140001139136,新規,0,2025-07-07,2025-07-07,株式会社坤栄通商,,株式会社,兵庫県,神戸市中央区,熊内町９丁目２番３５－１０１号,,28,110,6510056,,,,,,,2025-07-07,1,,,,,コンエイツウショウ,0
450,2140001139160,新規,0,2025-07-07,2025-07-07,株式会社ＬＵＮＯＡＩＲ,,株式会社,兵庫県,加古川市,平岡町一色西２丁目２０４番地ぷらーざきくや１０４号,,28,210,6750117,,,,,,,2025-07-07,1,,,,,ルノエアー,0
454,2140005027543,新規,0,2025-07-07,2025-07-07,一般社団法人日本認定遺伝カウンセラー協会,,その他の設立登記法人,兵庫県,神戸市中央区,京町８３番地三宮センチュリービル３Ｆ株式会社プロアクティブ内,,28,110,6500034,,,,,,,2025-07-07,1,,,,,ニホンニンテイイデンカウンセラーキョウカイ,0
455,2150003003636,新規,0,2025-07-07,2025-07-07,合同会社ＷＩＤＥＶＩＳＩＯＮ,,合同会社,奈良県,北葛城郡王寺町,王寺２丁目１３－１７－３０４,,29,425,6360002,,,,,,,2025-07-07,1,,,,,ワイドビジョン,0
464,2180001167505,新規,0,2025-07-07,2025-07-07,株式会社Ｍａｉｓｏｎ　ｓｈｙｕ,,株式会社,愛知県,尾張旭市,東栄町４丁目６番地４,,23,226,4880011,,,,,,,2025-07-07,1,,,,,メゾンシュウ,0
465,2180001167570,新規,0,2025-07-07,2025-07-07,ＳＣＳＫ　Ｎｉｔｅｒｒａ　ＩＴソリューションズ株式会社,,株式会社,愛知県,名古屋市中区,錦２丁目１６番２６号,,23,106,4600003,,,,,,,2025-07-07,1,,,,,エスシーエスケイニテラアイティソリューションズ,0
470,2190001032360,新規,0,2025-07-07,2025-07-07,株式会社リノアート,,株式会社,三重県,松阪市,町平尾町９９番地１,,24,204,5150803,,,,,,,2025-07-07,1,,,,,リノアート,0
472,2200001043967,新規,0,2025-07-07,2025-07-07,株式会社銀河屋,,株式会社,岐阜県,岐阜市,茜部本郷１丁目４０－１シャーメゾン茜部本郷１０６,,21,201,5008262,,,,,,,2025-07-07,1,,,,,ギンガヤ,0
473,2200001043975,新規,0,2025-07-07,2025-07-07,株式会社ＴＯＫＡＩ　ＮＥＸＴＲＡ,,株式会社,岐阜県,海津市,平田町三郷１０８２番地,,21,221,5030312,,,,,,,2025-07-07,1,,,,,トウカイネクストラ,0
476,2210001020230,新規,0,2025-07-07,2025-07-07,アンハインダード貿易商会株式会社,,株式会社,福井県,福井市,栃泉町１０４－９－７,,18,201,9102163,,,,,,,2025-07-07,1,,,,,アンハインダードボウエキショウカイ,0
488,2250001021233,新規,0,2025-07-07,2025-07-07,株式会社うちとみ住設,,株式会社,山口県,防府市,大字牟礼８５８番地の４７,,35,206,7470004,,,,,,,2025-07-07,1,,,,,ウチトミジュウセツ,0
489,2250001021241,新規,0,2025-07-07,2025-07-07,株式会社ＫＹ,,株式会社,山口県,周南市,周陽２丁目８番１２号,,35,215,7450823,,,,,,,2025-07-07,1,,,,,ケイワイ,0
502,2290003017077,新規,0,2025-07-07,2025-07-07,寧愿合同会社,,合同会社,福岡県,福岡市東区,松島２丁目３－３１ハイツ松島４０１室,,40,131,8120062,,,,,,,2025-07-07,1,,,,,ネイゲン,0
503,2290003017085,新規,0,2025-07-07,2025-07-07,合同会社ノカリオ,,合同会社,福岡県,八女市,宅間田４７４－２Ａ１号,,40,210,8340001,,,,,,,2025-07-07,1,,,,,ノカリオ,0
509,2300001014256,新規,0,2025-07-07,2025-07-07,株式会社井上商店,,株式会社,佐賀県,神埼郡吉野ヶ里町,吉田１７４２番地７愛家夢Ｉ－１０２号,00139816,41,327,8420031,,,,,,,2025-07-07,1,,,,,イノウエショウテン,0
510,2300001014264,新規,0,2025-07-07,2025-07-07,株式会社ＳＡＮＡ,,株式会社,佐賀県,唐津市,佐志１ー１,,41,202,8470111,,,,,,,2025-07-07,1,,,,,サナ,0
511,2310003005038,新規,0,2025-07-07,2025-07-07,Ｕ’ｓ　ｍａｒｋｅｔｉｎｇ合同会社,,合同会社,長崎県,大村市,宮小路３丁目１３３８番地１０３号,,42,205,8560807,,,,,,,2025-07-07,1,,,,,ユーズマーケティング,0
514,2330001033377,新規,0,2025-07-07,2025-07-07,株式会社ＴＧフロンティア,,株式会社,熊本県,熊本市南区,城南町宮地５４２番地１,,43,104,8614202,,,,,,,2025-07-07,1,,,,,ティージーフロンティア,0
516,2330003011100,新規,0,2025-07-07,2025-07-07,Ａｏｎａｍｉ合同会社,,合同会社,熊本県,球磨郡あさぎり町,上北１０１０,,43,514,8680422,,,,,,,2025-07-07,1,,,,,アオナミ,0
520,2360001035420,新規,0,2025-07-07,2025-07-07,株式会社光重工,,株式会社,沖縄県,浦添市,西原４丁目２９番５号,,47,208,9012101,,,,,,,2025-07-07,1,,,,,ヒカリジュウコウ,0
521,2360003015065,新規,0,2025-07-07,2025-07-07,合同会社ＲｉＫ沖縄,,合同会社,沖縄県,那覇市,小禄１丁目２４番２号カーサヴェルデＩＩ３０２,00139827,47,201,9010152,,,,,,,2025-07-07,1,,,,,,0
525,2370003007177,新規,0,2025-07-07,2025-07-07,合同会社ＲＡＩＮＡ,,合同会社,宮城県,仙台市宮城野区,鶴ケ谷北１丁目１８－１０,,04,102,9830825,,,,,,,2025-07-07,1,,,,,ライナ,0
530,2380001035435,新規,0,2025-07-07,2025-07-07,株式会社Ｉ．Ｔ．Ｃ．Ｐ．,,株式会社,福島県,郡山市,駅前２丁目１１番１号,,07,203,9638002,,,,,,,2025-07-07,1,,,,,アイティーシーピー,0
538,2410001014220,新規,0,2025-07-07,2025-07-07,株式会社ジンワークス,,株式会社,秋田県,秋田市,大住３丁目４番１３号,,05,201,0101436,,,,,,,2025-07-07,1,,,,,ジンワークス,0
540,2420001019193,新規,0,2025-07-07,2025-07-07,佐藤商店株式会社,,株式会社,青森県,青森市,古川１丁目１１番９号,,02,201,0300862,,,,,,,2025-07-07,1,,,,,サトウショウテン,0
544,2430003017822,新規,0,2025-07-07,2025-07-07,合同会社ｄａｍｏｆ,,合同会社,北海道,札幌市東区,北十九条東８丁目４番１０号Ｙ２ハイム北１９条１０１号室,,01,103,0650019,,,,,,,2025-07-07,1,,,,,ダモフ,0
545,2430003017871,新規,0,2025-07-07,2025-07-07,合同会社ＴｒｉｐＭｏｂｉｌｉｔｙ,,合同会社,北海道,江別市,豊幌美咲町５７番地１,,01,217,0670027,,,,,,,2025-07-07,1,,,,,トリップモビリティ,0
571,3010001256538,新規,0,2025-07-07,2025-07-07,株式会社アセットヒューマン,,株式会社,東京都,千代田区,四番町８番地６,,13,101,1020081,,,,,,,2025-07-07,1,,,,,アセットヒューマン,0
573,3010003047893,新規,0,2025-07-07,2025-07-07,合同会社ナマギーリ,,合同会社,東京都,千代田区,神田須田町１丁目７番８号ＶＯＲＴ秋葉原ＩＶ２階,00139808,13,101,1010041,,,,,,,2025-07-07,1,,,,,ナマギーリ,0
575,3010005040277,新規,0,2025-07-07,2025-07-07,一般社団法人ジャパンパワーストレージ１,,その他の設立登記法人,東京都,中央区,京橋２丁目１２番６号ＡＯＪ税理士法人内,,13,102,1040031,,,,,,,2025-07-07,1,,,,,ジャパンパワーストレージワン,0
576,3010005040302,新規,0,2025-07-07,2025-07-07,一般社団法人日本ヒストリックカー協会,,その他の設立登記法人,東京都,文京区,小日向２丁目１番３２号,,13,105,1120006,,,,,,,2025-07-07,1,,,,,ニホンヒストリックカーキョウカイ,0
577,3010005040310,新規,0,2025-07-07,2025-07-07,一般社団法人クラウンエイジェンツ,,その他の設立登記法人,東京都,千代田区,平河町２丁目７番５号,,13,101,1020093,,,,,,,2025-07-07,1,,,,,クラウンエイジェンツ,0
583,3010401191483,新規,0,2025-07-07,2025-07-07,株式会社メタ・メディカル,,株式会社,東京都,港区,芝公園１丁目５番１３号,,13,103,1050011,,,,,,,2025-07-07,1,,,,,メタメディカル,0
584,3010401191491,新規,0,2025-07-07,2025-07-07,株式会社ＣＲＯＷ設計,,株式会社,東京都,港区,南青山２丁目２２番１５号クリヤマビル６階,,13,103,1070062,,,,,,,2025-07-07,1,,,,,クロウセッケイ,0
588,3010403035473,新規,0,2025-07-07,2025-07-07,Ｍａｒａｍｉ合同会社,,合同会社,東京都,港区,赤坂２丁目２１－４,,13,103,1070052,,,,,,,2025-07-07,1,,,,,マラミ,0
591,3010501054334,新規,0,2025-07-07,2025-07-07,乾成株式会社,,株式会社,東京都,台東区,台東３丁目５番１０号ダイアパレス御徒町第三１０２－２Ｔ号室,,13,106,1100016,,,,,,,2025-07-07,1,,,,,ケンセイ,0
593,3010601067566,新規,0,2025-07-07,2025-07-07,アカクロゲート株式会社,,株式会社,東京都,墨田区,京島３丁目１６番８－３０１号,,13,107,1310046,,,,,,,2025-07-07,1,,,,,アカクロゲート,0
594,3010701047930,新規,0,2025-07-07,2025-07-07,東美和トラベル株式会社,,株式会社,東京都,品川区,西五反田８丁目１－１３ＧＢＳ－Ｅ－１１号,,13,109,1410031,,,,,,,2025-07-07,1,,,,,ヒガシビワトラベル,0
595,3010701047939,新規,0,2025-07-07,2025-07-07,株式会社Ｎｅｘｔ　ｏｎｅ,,株式会社,東京都,品川区,西五反田３丁目１５番９－３０２号,,13,109,1410031,,,,,,,2025-07-07,1,,,,,ネクストワン,0
596,3010701047947,新規,0,2025-07-07,2025-07-07,ＳＴＵＤＩＯ　ＨｉｇｅＭｅｇａｎｅ株式会社,,株式会社,東京都,品川区,東中延１丁目８番４号,,13,109,1420052,,,,,,,2025-07-07,1,,,,,スタジオヒゲメガネ,0
601,3011001170745,新規,0,2025-07-07,2025-07-07,株式会社Ａｎｇｋｏｒ　Ｂｙｔｅ,,株式会社,東京都,渋谷区,道玄坂１丁目１０番８号渋谷道玄坂東急ビル２Ｆ－Ｃ,,13,113,1500043,,,,,,,2025-07-07,1,,,,,アンコールバイト,0
603,3011003021896,新規,0,2025-07-07,2025-07-07,合同会社Ｓｔｒｅｌｉｔｚｉａ,,合同会社,東京都,渋谷区,円山町５番５号Ｎａｖｉ渋谷Ｖ３階,00139811,13,113,1500044,,,,,,,2025-07-07,1,,,,,ストレリチア,0
615,3011301030707,新規,0,2025-07-07,2025-07-07,株式会社アートレイＨＤ,,株式会社,東京都,杉並区,高円寺北１丁目１７番５号上野ビル,,13,115,1660002,,,,,,,2025-07-07,1,,,,,アートレイエイチディ,0
618,3011701028490,新規,0,2025-07-07,2025-07-07,株式会社ｍｉｒｅｄｏ,,株式会社,東京都,江戸川区,南小岩３丁目２８番５号,,13,123,1330056,,,,,,,2025-07-07,1,,,,,ミレド,0
622,3012403007221,新規,0,2025-07-07,2025-07-07,Ａｒｐｏｒｒａ合同会社,,合同会社,東京都,多摩市,桜ヶ丘２丁目２０番地の６,,13,224,2060013,,,,,,,2025-07-07,1,,,,,アルポッラ,0
630,3020001163667,新規,0,2025-07-07,2025-07-07,株式会社青葉不動産,,株式会社,神奈川県,川崎市宮前区,菅生５丁目５番１６－２号,,14,136,2160015,,,,,,,2025-07-07,1,,,,,アオバフドウサン,0
631,3020001163741,新規,0,2025-07-07,2025-07-07,株式会社繁盛テック,,株式会社,神奈川県,横浜市港北区,綱島西２丁目４番１８号,,14,109,2230053,,,,,,,2025-07-07,1,,,,,ハンジョウテック,0
632,3020001163758,新規,0,2025-07-07,2025-07-07,株式会社ＬＯＪＩ,,株式会社,神奈川県,横浜市中区,海岸通１番地１,,14,104,2310000,,,,,,,2025-07-07,1,,,,,ロジ,0
634,3020003028851,新規,0,2025-07-07,2025-07-07,合同会社８ＯＫ,,合同会社,神奈川県,横浜市戸塚区,名瀬町６６番地４栗原テラスハウス１０２号,,14,110,2450051,,,,,,,2025-07-07,1,,,,,エイトオーケー,0
641,3021001085736,新規,0,2025-07-07,2025-07-07,株式会社モネール,,株式会社,神奈川県,綾瀬市,寺尾釜田３丁目８番２０号,,14,218,2521135,,,,,,,2025-07-07,1,,,,,モネール,0
643,3021003016243,新規,0,2025-07-07,2025-07-07,合同会社Ｓｌｏｗ　Ｍ’ｏｃｅａｎ,,合同会社,神奈川県,藤沢市,鵠沼藤が谷３丁目１２番９号,,14,205,2510031,,,,,,,2025-07-07,1,,,,,スローモーション,0
649,3030001167386,新規,0,2025-07-07,2025-07-07,エイドウェル株式会社,,株式会社,埼玉県,川口市,大字新堀９９３番地８号,,11,203,3340061,,,,,,,2025-07-07,1,,,,,エイドウェル,0
650,3030001167394,新規,0,2025-07-07,2025-07-07,株式会社川口,,株式会社,埼玉県,川口市,西川口３丁目３３番１９号,,11,203,3320021,,,,,,,2025-07-07,1,,,,,カワグチ,0
651,3030001167469,新規,0,2025-07-07,2025-07-07,株式会社慈愛,,株式会社,埼玉県,上尾市,愛宕３丁目４番１２号,,11,219,3620034,,,,,,,2025-07-07,1,,,,,ジアイ,0
652,3030001167485,新規,0,2025-07-07,2025-07-07,ＳｔｏｒｍＣｒｅｗ株式会社,,株式会社,埼玉県,羽生市,大字羽生１４７－１－３１５,,11,216,3480055,,,,,,,2025-07-07,1,,,,,ストームクルー,0
653,3030001167502,新規,0,2025-07-07,2025-07-07,ＡＮＴＳＵ株式会社,,株式会社,埼玉県,越谷市,北越谷１丁目３番１０号アネックス北越谷２１期１０３号室,,11,222,3430026,,,,,,,2025-07-07,1,,,,,アンツウ,0
654,3030003027142,新規,0,2025-07-07,2025-07-07,合同会社ユーネット,,合同会社,埼玉県,さいたま市岩槻区,上野１丁目１８番地６,,11,110,3390073,,,,,,,2025-07-07,1,,,,,ユーネット,0
662,3040001139467,新規,0,2025-07-07,2025-07-07,丸丸株式会社,,株式会社,千葉県,松戸市,根木内１１－６ワコーレエレガンス北小金２０１,,12,207,2700011,,,,,,,2025-07-07,1,,,,,マルマル,0
663,3040001139483,新規,0,2025-07-07,2025-07-07,株式会社ＥＰＩＣ,,株式会社,千葉県,千葉市中央区,浜野町１３８８ウィザースレジデンス浜野駅前２店舗１,,12,101,2600824,,,,,,,2025-07-07,1,,,,,エピック,0
669,3050001056892,新規,0,2025-07-07,2025-07-07,Ｉ・Ｎ・Ｇ警備保障株式会社,,株式会社,茨城県,古河市,雷電町１０番２５号,,08,204,3060004,,,,,,,2025-07-07,1,,,,,アイエヌジーケイビホショウ,0
672,3050005013659,新規,0,2025-07-07,2025-07-07,一般社団法人コミュニティデザイン,,その他の設立登記法人,茨城県,かすみがうら市,稲吉２丁目６番２３号,,08,230,3150054,,,,,,,2025-07-07,1,,,,,コミュニティデザイン,0
675,3060003005624,新規,0,2025-07-07,2025-07-07,合同会社スヤミツ,,合同会社,栃木県,宇都宮市,塙田３丁目１番１６号,,09,201,3200027,,,,,,,2025-07-07,1,,,,,スヤミツ,0
684,3100003008259,新規,0,2025-07-07,2025-07-07,合同会社金中工業所,,合同会社,長野県,岡谷市,湖畔３丁目２番１２号,,20,204,3940034,,,,,,,2025-07-07,1,,,,,カネナカコウギョウショ,0
702,3120001277515,新規,0,2025-07-07,2025-07-07,株式会社ＹＯＫＥ　Ｄｅｓｉｇｎ,,株式会社,大阪府,枚方市,宮之阪１丁目１１番５号,,27,210,5730022,,,,,,,2025-07-07,1,,,,,ヨークデザイン,0
703,3120001277556,新規,0,2025-07-07,2025-07-07,株式会社ＰＡＬＭ,,株式会社,大阪府,大阪市北区,太融寺町３番２７号,,27,127,5300051,,,,,,,2025-07-07,1,,,,,パーム,0
704,3120003029922,新規,0,2025-07-07,2025-07-07,合同会社ディープファクトリー,,合同会社,大阪府,大阪市西区,江戸堀１丁目２３－３５－５Ｆ,,27,106,5500002,,,,,,,2025-07-07,1,,,,,ディープファクトリー,0
707,3120101071990,新規,0,2025-07-07,2025-07-07,株式会社ハウオリ,,株式会社,大阪府,堺市堺区,石津町２丁２番２４号,,27,141,5900814,,,,,,,2025-07-07,1,,,,,ハウオリ,0
708,3120101072007,新規,0,2025-07-07,2025-07-07,天佑株式会社,,株式会社,大阪府,堺市堺区,甲斐町東６丁１番４号朝日プラザ堺東７１４号室,,27,141,5900953,,,,,,,2025-07-07,1,,,,,テンユウ,0
711,3120901051168,新規,0,2025-07-07,2025-07-07,株式会社Ｐａｒａｄｏｃｋｓ,,株式会社,大阪府,豊中市,浜１丁目２５番３２号ハイツノア１０８,,27,203,5610817,,,,,,,2025-07-07,1,,,,,パラドックス,0
712,3120901051176,新規,0,2025-07-07,2025-07-07,つばめ刺しゅう株式会社,,株式会社,大阪府,池田市,天神１丁目１０－２１ニシキマンション１０３,,27,204,5630031,,,,,,,2025-07-07,1,,,,,ツバメシシュウ,0
713,3120901051184,新規,0,2025-07-07,2025-07-07,株式会社月の雫,,株式会社,大阪府,高槻市,上田辺町３－９ＣＡＳＡＭＩＡｄｕｅ２０１号,,27,207,5690805,,,,,,,2025-07-07,1,,,,,ツキノシズク,0
717,3122001039382,新規,0,2025-07-07,2025-07-07,すすむテクノロジー株式会社,,株式会社,大阪府,東大阪市,岸田堂西１丁目１番２４号,,27,227,5770848,,,,,,,2025-07-07,1,,,,,ススムテクノロジー,0
723,3140001139119,新規,0,2025-07-07,2025-07-07,株式会社ジャストエル,,株式会社,兵庫県,神戸市垂水区,川原５丁目２番３－１０４号,,28,108,6550894,,,,,,,2025-07-07,1,,,,,ジャストエル,0
724,3140001139184,新規,0,2025-07-07,2025-07-07,サザン・ブルー株式会社,,株式会社,兵庫県,神戸市中央区,御幸通６丁目１番２２号住野太平ビル９階,,28,110,6510087,,,,,,,2025-07-07,1,,,,,サザンブルー,0
726,3140003022280,新規,0,2025-07-07,2025-07-07,合同会社Ｄａｎｋ,,合同会社,兵庫県,姫路市,飾磨区西浜町２丁目６６番地－１０２号,,28,201,6728086,,,,,,,2025-07-07,1,,,,,ダンク,0
729,3150001028254,新規,0,2025-07-07,2025-07-07,ＴＧＳ株式会社,,株式会社,奈良県,奈良市,芝辻町３丁目８番３７号,00139806,29,201,6308114,,,,,,,2025-07-07,1,,,,,ティージーエス,0
735,3180001167479,新規,0,2025-07-07,2025-07-07,株式会社ｍｉｒａｉｅ,,株式会社,愛知県,清須市,土器野６５０番２号,,23,233,4520914,,,,,,,2025-07-07,1,,,,,ミライエ,0
736,3180001167537,新規,0,2025-07-07,2025-07-07,株式会社Ｒ１１７,,株式会社,愛知県,名古屋市中村区,名駅５丁目２－１７フロンティア名駅１３階,,23,105,4500002,,,,,,,2025-07-07,1,,,,,アールイチイチナナ,0
737,3180001167660,新規,0,2025-07-07,2025-07-07,株式会社ＥＢＡＮ,,株式会社,愛知県,名古屋市中村区,名駅１丁目１番１号ＪＰタワー名古屋２１階,,23,105,4500002,,,,,,,2025-07-07,1,,,,,エバン,0
741,3180005021153,新規,0,2025-07-07,2025-07-07,医療法人こばやしＦＣ,,その他の設立登記法人,愛知県,名古屋市緑区,桃山２丁目５－２,,23,114,4580002,,,,,,,2025-07-07,1,,,,,コバヤシエフシー,0
742,3180301039972,新規,0,2025-07-07,2025-07-07,株式会社ＲＩＢ,,株式会社,愛知県,豊橋市,菰口町１丁目５５番地４,,23,201,4418011,,,,,,,2025-07-07,1,,,,,リブ,0
743,3180303006640,新規,0,2025-07-07,2025-07-07,合同会社Ｍａｎｄｉ,,合同会社,愛知県,豊田市,水源町２丁目１８番地７,,23,211,4710822,,,,,,,2025-07-07,1,,,,,マンディ,0
745,3190001032368,新規,0,2025-07-07,2025-07-07,株式会社ＲＥＤ　ＲＯＯＴ,,株式会社,三重県,多気郡明和町,大字佐田６５５番地１,,24,442,5150331,,,,,,,2025-07-07,1,,,,,レッドルーツ,0
746,3190005012060,新規,0,2025-07-07,2025-07-07,一般社団法人日本ラシカル協会,,その他の設立登記法人,三重県,鈴鹿市,江島町１２３１番地５０３,,24,207,5100237,,,,,,,2025-07-07,1,,,,,ニホンラシカルキョウカイ,0
748,3200001043982,新規,0,2025-07-07,2025-07-07,株式会社林田,,株式会社,岐阜県,各務原市,那加前洞新町２丁目３２番地２,,21,213,5040021,,,,,,,2025-07-07,1,,,,,ハヤシダ,0
749,3200001043990,新規,0,2025-07-07,2025-07-07,ＡＬＵＬＡ株式会社,,株式会社,岐阜県,多治見市,滝呂町１７丁目３番地の７,,21,204,5070813,,,,,,,2025-07-07,1,,,,,アルラ,0
753,3220003004072,新規,0,2025-07-07,2025-07-07,合同会社みなと金沢,,合同会社,石川県,金沢市,柿木畠２番８号アートビル１階,,17,201,9200999,,,,,,,2025-07-07,1,,,,,ミナトカナザワ,0
757,3230001020995,新規,0,2025-07-07,2025-07-07,株式会社クロスウエイズ,,株式会社,富山県,射水市,堀岡明神新１２番地７,,16,211,9330228,,,,,,,2025-07-07,1,,,,,クロスウエイズ,0
764,3250001021232,新規,0,2025-07-07,2025-07-07,株式会社タマデン,,株式会社,山口県,山陽小野田市,大字郡１０２６８番地５７,,35,216,7570002,,,,,,,2025-07-07,1,,,,,タマデン,0
765,3250001021240,新規,0,2025-07-07,2025-07-07,株式会社リンテク,,株式会社,山口県,周南市,夢ヶ丘２丁目１番１６号,,35,215,7450613,,,,,,,2025-07-07,1,,,,,リンテク,0
766,3250003003765,新規,0,2025-07-07,2025-07-07,しよう合同会社,,合同会社,山口県,宇部市,大字西岐波４２５５番地８,,35,202,7550151,,,,,,,2025-07-07,1,,,,,シヨウ,0
767,3260001040339,新規,0,2025-07-07,2025-07-07,クラフトコンサルティング株式会社,,株式会社,岡山県,岡山市北区,磨屋町３番１０号,,33,101,7000826,,,,,,,2025-07-07,1,,,,,クラフトコンサルティング,0
768,3260001040355,新規,0,2025-07-07,2025-07-07,株式会社Ｎｅｗ　Ｂａｋｅ,,株式会社,岡山県,岡山市南区,万倍６３－１,,33,104,7000955,,,,,,,2025-07-07,1,,,,,ニューベイク,0
769,3260003005249,新規,0,2025-07-07,2025-07-07,暮らしとワークス合同会社,,合同会社,岡山県,岡山市北区,高松６２０―６,,33,101,7011335,,,,,,,2025-07-07,1,,,,,クラシトワークス,0
774,3290001110576,新規,0,2025-07-07,2025-07-07,株式会社ｄｒｅａｍｓ　ｏｆ　ｆｒｅｅｄｏｍ,,株式会社,福岡県,糟屋郡宇美町,宇美６丁目３番１１号,,40,341,8112101,,,,,,,2025-07-07,1,,,,,ドリームスオブフリーダム,0
775,3290001110601,新規,0,2025-07-07,2025-07-07,株式会社Ｌｅｍｏｎ,,株式会社,福岡県,福岡市東区,香椎台１丁目８番５号,,40,131,8130014,,,,,,,2025-07-07,1,,,,,レモン,0
776,3300001014263,新規,0,2025-07-07,2025-07-07,Ｌｉｎｋ　Ｃｉｒｃｌｅ株式会社,,株式会社,佐賀県,神埼郡吉野ヶ里町,吉田２３０３番地４４,,41,327,8420031,,,,,,,2025-07-07,1,,,,,リンクサークル,0
777,3300003002308,新規,0,2025-07-07,2025-07-07,合同会社レストガーデン・ミニ,,合同会社,佐賀県,武雄市,山内町大字宮野３２５番地１,,41,206,8492305,,,,,,,2025-07-07,1,,,,,レストガーデンミニ,0
778,3310001019674,新規,0,2025-07-07,2025-07-07,株式会社ネオトラネス,,株式会社,長崎県,長崎市,西山４丁目４７４番６,,42,201,8500001,,,,,,,2025-07-07,1,,,,,ネオトラネス,0
783,3330003011090,新規,0,2025-07-07,2025-07-07,合同会社さつき不動産,,合同会社,熊本県,八代市,本町３丁目４番１１号,,43,202,8660861,,,,,,,2025-07-07,1,,,,,サツキフドウサン,0
790,3360001035428,新規,0,2025-07-07,2025-07-07,株式会社タム,,株式会社,沖縄県,糸満市,字潮平６００番地の１２知名ハイツ２０２号,,47,210,9010302,,,,,,,2025-07-07,1,,,,,タム,0
791,3360001035436,新規,0,2025-07-07,2025-07-07,株式会社ＫＳＣ,,株式会社,沖縄県,那覇市,山下町３０－１２,,47,201,9000027,,,,,,,2025-07-07,1,,,,,ケーエスシー,0
797,3380001035434,新規,0,2025-07-07,2025-07-07,ＦＫＤ会計株式会社,,株式会社,福島県,南相馬市,鹿島区小池字原畑１１－１,,07,212,9792453,,,,,,,2025-07-07,1,,,,,エフケーディー,0
799,3410001014211,新規,0,2025-07-07,2025-07-07,株式会社ＫＡＴＳＵＲＡ,,株式会社,秋田県,湯沢市,川連町字大舘屋布前１２４番地,,05,207,0120105,,,,,,,2025-07-07,1,,,,,カツラ,0
804,3420001019192,新規,0,2025-07-07,2025-07-07,株式会社黒石シーサー,,株式会社,青森県,黒石市,角田４６番地１４,,02,204,0360337,,,,,,,2025-07-07,1,,,,,,0
808,3430001094771,新規,0,2025-07-07,2025-07-07,株式会社Ｎｏｅｓｉｓ,,株式会社,北海道,札幌市中央区,南四条東２丁目７番地１フォリウム２０１号,,01,101,0600054,,,,,,,2025-07-07,1,,,,,ノーシス,0
817,3480001012885,新規,0,2025-07-07,2025-07-07,株式会社ＫＡＺＵＦＡＲＭ,,株式会社,徳島県,徳島市,川内町榎瀬４２６番地,,36,201,7710144,,,,,,,2025-07-07,1,,,,,カズファーム,0
827,4010001256487,新規,0,2025-07-07,2025-07-07,株式会社武村交易,,株式会社,東京都,千代田区,神田須田町１丁目７番８号ＶＯＲＴ秋葉原ＩＶ２Ｆ,00139817,13,101,1010041,,,,,,,2025-07-07,1,,,,,タケムラコウエキ,0
831,4010005040284,新規,0,2025-07-07,2025-07-07,一般社団法人事業開発支援機構,,その他の設立登記法人,東京都,中央区,銀座１丁目１２番４号Ｎ＆ＥＢＬＤ．６階,,13,102,1040061,,,,,,,2025-07-07,1,,,,,ジギョウカイハツシエンキコウ,0
838,4010401191391,新規,0,2025-07-07,2025-07-07,榮株式会社,,株式会社,東京都,港区,浜松町１丁目３－２パークコート浜離宮ザ・タワー２６０３,,13,103,1050013,,,,,,,2025-07-07,1,,,,,サカエ,0
839,4010401191458,新規,0,2025-07-07,2025-07-07,株式会社ＳＧＹＭ,,株式会社,東京都,港区,赤坂５丁目３番３－７０４号,,13,103,1070052,,,,,,,2025-07-07,1,,,,,エスジーワイエム,0
840,4010401191516,新規,0,2025-07-07,2025-07-07,ＳＢＩ　Ｎ　Ｓｙｓｔｅｍｓ株式会社,,株式会社,東京都,港区,六本木３丁目１番１号,,13,103,1060032,,,,,,,2025-07-07,1,,,,,エスビーアイエヌシステムズ,0
843,4010501054317,新規,0,2025-07-07,2025-07-07,百木臨川株式会社,,株式会社,東京都,台東区,鳥越２丁目８－４島崎第１０ビル５０２Ｂ,,13,106,1110054,,,,,,,2025-07-07,1,,,,,ヒャクモクリンカワ,0
844,4010503007909,新規,0,2025-07-07,2025-07-07,合同会社ビリーブ,,合同会社,東京都,台東区,千束４丁目２１番１号,,13,106,1110031,,,,,,,2025-07-07,1,,,,,ビリーブ,0
846,4010601067557,新規,0,2025-07-07,2025-07-07,株式会社ＭＳルームス,,株式会社,東京都,墨田区,本所２丁目１４番１２号,,13,107,1300004,,,,,,,2025-07-07,1,,,,,エムエスルームス,0
847,4010601067573,新規,0,2025-07-07,2025-07-07,１００株式会社,,株式会社,東京都,江東区,白河２丁目１４－２ＷＯＲＫＬＡＢＥＬ清澄白河４０５号室,,13,108,1350021,,,,,,,2025-07-07,1,,,,,ヒャク,0
848,4010601067581,新規,0,2025-07-07,2025-07-07,株式会社ベターマン,,株式会社,東京都,江東区,南砂２丁目３番７号,,13,108,1360076,,,,,,,2025-07-07,1,,,,,ベターマン,0
849,4010801036337,新規,0,2025-07-07,2025-07-07,株式会社Ｒｅｖｉｖｅ,,株式会社,東京都,大田区,下丸子３丁目２０番１８号,,13,111,1460092,,,,,,,2025-07-07,1,,,,,リバイブ,0
850,4010801036345,新規,0,2025-07-07,2025-07-07,株式会社ＮＫプランニング,,株式会社,東京都,大田区,蒲田５丁目１０番９号コワフールアバンセ２階,,13,111,1440052,,,,,,,2025-07-07,1,,,,,エヌケープランニング,0
851,4010803005463,新規,0,2025-07-07,2025-07-07,ＩｍＰパートナー合同会社,,合同会社,東京都,大田区,東嶺町３２番１５号,,13,111,1450074,,,,,,,2025-07-07,1,,,,,アイエムピーパートナー,0
856,4010901057695,新規,0,2025-07-07,2025-07-07,株式会社マネジメントスキャン,,株式会社,東京都,世田谷区,代沢５丁目１９－１２ＷＡＶＩＡ・ＳＨＩＭＯＫＩＴＡＺＡＷＡ２Ｆ,,13,112,1550032,,,,,,,2025-07-07,1,,,,,マネジメントスキャン,0
857,4010903010058,新規,0,2025-07-07,2025-07-07,ブルーグレイド合同会社,,合同会社,東京都,世田谷区,岡本１丁目２５番１０号,,13,112,1570076,,,,,,,2025-07-07,1,,,,,ブルーグレイド,0
858,4010903010066,新規,0,2025-07-07,2025-07-07,合同会社コードハーバー,,合同会社,東京都,世田谷区,北烏山１丁目１０ー１７サンフラワー北烏山１０７号室,,13,112,1570061,,,,,,,2025-07-07,1,,,,,コードハーバー,0
866,4011001170513,新規,0,2025-07-07,2025-07-07,株式会社ＭＥＡＴ　ＵＰ,,株式会社,東京都,渋谷区,渋谷４丁目１番８号,,13,113,1500002,,,,,,,2025-07-07,1,,,,,ミートアップ,0
867,4011001170620,新規,0,2025-07-07,2025-07-07,株式会社ＨＡＶＥ　Ａ　ＮＩＣＥ　ＤＡＹ　Ｉ,,株式会社,東京都,渋谷区,代々木５丁目１２番１０－５０７号代々木ロイヤルマンション,,13,113,1510053,,,,,,,2025-07-07,1,,,,,ハブアナイスディアイ,0
869,4011003021961,新規,0,2025-07-07,2025-07-07,Ｍｏｍｏｋｏｕ合同会社,,合同会社,東京都,渋谷区,円山町５番３号ＭＩＥＵＸ渋谷ビル８階,,13,113,1500044,,,,,,,2025-07-07,1,,,,,モモコウ,0
876,4011101112340,新規,0,2025-07-07,2025-07-07,亦揚株式会社,,株式会社,東京都,新宿区,富久町３２－３東新富久町ビル１０６号室,,13,104,1620067,,,,,,,2025-07-07,1,,,,,エキヨウ,0
878,4011401027206,新規,0,2025-07-07,2025-07-07,起業応援株式会社,,株式会社,東京都,板橋区,坂下２丁目３１番１３号外山ビル５階,,13,119,1740043,,,,,,,2025-07-07,1,,,,,キギョウオウエン,0
886,4011803006955,新規,0,2025-07-07,2025-07-07,ＹＨＭ商事合同会社,,合同会社,東京都,葛飾区,金町２丁目２番２５号,,13,122,1250042,,,,,,,2025-07-07,1,,,,,ワイエッチエムショウジ,0
887,4011805003463,新規,0,2025-07-07,2025-07-07,一般社団法人駄菓子振興協会,,その他の設立登記法人,東京都,足立区,東保木間１丁目２１番１０－５０２号グローリア初穂綾瀬,,13,121,1210063,,,,,,,2025-07-07,1,,,,,ダガシシンコウキョウカイ,0
893,4013303007748,新規,0,2025-07-07,2025-07-07,Ｔ＆Ｑ合同会社,,合同会社,東京都,豊島区,東池袋１丁目３６－７アルテ－ル池袋５０３,,13,116,1700013,,,,,,,2025-07-07,1,,,,,ティーアンドキュー,0
898,4020001163749,新規,0,2025-07-07,2025-07-07,株式会社鴻源エステート,,株式会社,神奈川県,横浜市南区,中里３丁目８番９号,,14,105,2320063,,,,,,,2025-07-07,1,,,,,コウゲンエステート,0
899,4020003028842,新規,0,2025-07-07,2025-07-07,合同会社門,,合同会社,神奈川県,横浜市西区,浅間町１丁目４番３号ウィザードビル４０２,,14,103,2200072,,,,,,,2025-07-07,1,,,,,モン,0
903,4021001085677,新規,0,2025-07-07,2025-07-07,株式会社かまくらすーべにあ,,株式会社,神奈川県,鎌倉市,手広２丁目１１番５号,,14,204,2480036,,,,,,,2025-07-07,1,,,,,カマクラスーベニア,0
905,4021003016226,新規,0,2025-07-07,2025-07-07,Ｌｉｎｅｓｔｏ合同会社,,合同会社,神奈川県,藤沢市,城南２丁目６－２０,,14,205,2510057,,,,,,,2025-07-07,1,,,,,リネスト,0
914,4030001167476,新規,0,2025-07-07,2025-07-07,株式会社栗原農産,,株式会社,埼玉県,羽生市,大字上村君２２３番地３,,11,216,3480005,,,,,,,2025-07-07,1,,,,,クリバラノウサン,0
917,4030003027100,新規,0,2025-07-07,2025-07-07,合同会社東大,,合同会社,埼玉県,草加市,松原４丁目１番８号－２階,,11,221,3400041,,,,,,,2025-07-07,1,,,,,トウダイ,0
918,4030003027109,新規,0,2025-07-07,2025-07-07,武物流サービス合同会社,,合同会社,埼玉県,さいたま市中央区,大戸６丁目３－９－１０１,,11,105,3380012,,,,,,,2025-07-07,1,,,,,タケルブツリュウサービス,0
919,4030003027125,新規,0,2025-07-07,2025-07-07,ＡＳＫコーポレーション合同会社,,合同会社,埼玉県,和光市,下新倉５丁目１８番２５号,,11,229,3510111,,,,,,,2025-07-07,1,,,,,エーエスケーコーポレーション,0
920,4030003027141,新規,0,2025-07-07,2025-07-07,ＨＪ合同会社,,合同会社,埼玉県,川口市,芝５丁目３番１７号芝銀座ハイツ２０６号,,11,203,3330866,,,,,,,2025-07-07,1,,,,,エイチジェイ,0
923,4040001139490,新規,0,2025-07-07,2025-07-07,株式会社トレスタシステム,,株式会社,千葉県,千葉市花見川区,南花園２丁目５番１号第１花園ビル８０１,,12,102,2620022,,,,,,,2025-07-07,1,,,,,トレスタシステム,0
935,4060001038360,新規,0,2025-07-07,2025-07-07,株式会社エンジョイント,,株式会社,栃木県,宇都宮市,西川田本町１丁目１７番９号,,09,201,3210158,,,,,,,2025-07-07,1,,,,,エンジョイント,0
937,4070001043120,新規,0,2025-07-07,2025-07-07,ネクスクラフト株式会社,,株式会社,群馬県,前橋市,南町４丁目２９番地１ＩＥＰビル２Ｆ,,10,201,3710805,,,,,,,2025-07-07,1,,,,,ネクスクラフト,0
938,4080001027015,新規,0,2025-07-07,2025-07-07,株式会社ｆ‐ｔｅｃｈ,,株式会社,静岡県,静岡市葵区,柳町１５３番地の１７,,22,101,4200007,,,,,,,2025-07-07,1,,,,,エフテック,0
939,4080001027023,新規,0,2025-07-07,2025-07-07,株式会社エスワークス,,株式会社,静岡県,島田市,中河９８１番地の１,,22,209,4270103,,,,,,,2025-07-07,1,,,,,エスワークス,0
941,4080102022567,新規,0,2025-07-07,2025-07-07,有限会社永田保温工業,,有限会社,静岡県,富士市,蓼原１１１７番地の７,,22,210,4160931,,,,,,,2025-07-07,1,,,,,ナガタホオンコウギョウ,0
947,4100001038744,新規,0,2025-07-07,2025-07-07,株式会社Ｄｒ．Ｃｒａｆｔ,,株式会社,長野県,佐久市,協和４７６番地１,,20,217,3842204,,,,,,,2025-07-07,1,,,,,ドクタークラフト,0
948,4100001038752,新規,0,2025-07-07,2025-07-07,アテラ株式会社,,株式会社,長野県,大町市,大町２５３１番地２の２,,20,212,3980002,,,,,,,2025-07-07,1,,,,,アテラ,0
950,4100003008266,新規,0,2025-07-07,2025-07-07,合同会社ＭＡＤＡＳ,,合同会社,長野県,千曲市,大字屋代２０２４番地７,,20,218,3870007,,,,,,,2025-07-07,1,,,,,マーダス,0
954,4110001039394,新規,0,2025-07-07,2025-07-07,株式会社ＬＯＮＭＥ,,株式会社,新潟県,柏崎市,大字与三１５７９番地,,15,205,9450111,,,,,,,2025-07-07,1,,,,,ロム,0
955,4110001039403,新規,0,2025-07-07,2025-07-07,株式会社ＬｉｎｋＦｌｏｗ,,株式会社,新潟県,新潟市秋葉区,北上２丁目２番８号,,15,105,9560861,,,,,,,2025-07-07,1,,,,,リンクフロー,0
969,4120001277448,新規,0,2025-07-07,2025-07-07,株式会社ユーテックホールディングス,,株式会社,大阪府,大阪市福島区,野田３丁目１番２７号,,27,103,5530005,,,,,,,2025-07-07,1,,,,,ユーテックホールディングス,0
970,4120001277472,新規,0,2025-07-07,2025-07-07,株式会社ウリ,,株式会社,大阪府,大阪市生野区,桃谷２丁目１６番１３号,,27,116,5440034,,,,,,,2025-07-07,1,,,,,ウリ,0
971,4120001277489,新規,0,2025-07-07,2025-07-07,株式会社浅野測量事務所,,株式会社,大阪府,枚方市,楠葉並木２丁目２２番１０号,,27,210,5731118,,,,,,,2025-07-07,1,,,,,アサノソクリョウジムショ,0
972,4120001277506,新規,0,2025-07-07,2025-07-07,株式会社ＣＩＮＣＩＡＴＥ,,株式会社,大阪府,大阪市西区,靱本町２丁目４番１２号,,27,106,5500004,,,,,,,2025-07-07,1,,,,,シンシエイト,0
973,4120001277514,新規,0,2025-07-07,2025-07-07,株式会社ＢＵＺＺ　ＡＬＬＩＡＮＣＥ,,株式会社,大阪府,大阪市中央区,西心斎橋１丁目１２番１１号アーバンスタイル心斎橋５０５,,27,128,5420086,,,,,,,2025-07-07,1,,,,,バズアライアンス,0
974,4120001277547,新規,0,2025-07-07,2025-07-07,日和智匠株式会社,,株式会社,大阪府,大阪市西成区,萩之茶屋２丁目６番４号ニューかめや２０３号室,,27,122,5570004,,,,,,,2025-07-07,1,,,,,ヒヨリチショウ,0
975,4120001277555,新規,0,2025-07-07,2025-07-07,瑞翔株式会社,,株式会社,大阪府,大阪市東成区,大今里３丁目１５番６号ＩｍａｚａｔｏＴｏｗｅｒ５０５Ｄ,,27,115,5370012,,,,,,,2025-07-07,1,,,,,ズイショウ,0
976,4120001277571,新規,0,2025-07-07,2025-07-07,ＭＭＫ株式会社,,株式会社,大阪府,大阪市平野区,平野北１丁目５番２９号,,27,126,5470041,,,,,,,2025-07-07,1,,,,,エムエムケー,0
977,4120001277588,新規,0,2025-07-07,2025-07-07,株式会社一碧,,株式会社,大阪府,大阪市都島区,都島北通１丁目８番６号,,27,102,5340014,,,,,,,2025-07-07,1,,,,,イッペキ,0
979,4120003029946,新規,0,2025-07-07,2025-07-07,合同会社ＫＵＲＡＳＨＩ　ＬＩＮＫ,,合同会社,大阪府,大阪市住吉区,大領４丁目８番１５－４Ｄ,,27,120,5580001,,,,,,,2025-07-07,1,,,,,クラシリンク,0
981,4120101072022,新規,0,2025-07-07,2025-07-07,株式会社肉よし,,株式会社,大阪府,羽曳野市,島泉５丁目５番１２号,,27,222,5830881,,,,,,,2025-07-07,1,,,,,ニクヨシ,0
982,4120101072030,新規,0,2025-07-07,2025-07-07,株式会社小太刀,,株式会社,大阪府,和泉市,今福町１丁目１０－１４,,27,219,5940063,,,,,,,2025-07-07,1,,,,,コダチ,0
986,4120901051167,新規,0,2025-07-07,2025-07-07,株式会社プロスネスト,,株式会社,大阪府,豊中市,走井２丁目９番８の１号,,27,203,5610891,,,,,,,2025-07-07,1,,,,,プロスネスト,0
1000,4140001139118,新規,0,2025-07-07,2025-07-07,株式会社グランツパートナーズ,,株式会社,兵庫県,川西市,小花１丁目５番１５号山之内ビル５階,,28,217,6660015,,,,,,,2025-07-07,1,,,,,グランツパートナーズ,0
1001,4140001139142,新規,0,2025-07-07,2025-07-07,株式会社ＴＫスタイル,,株式会社,兵庫県,姫路市,元町９３番地１－９０１号,,28,201,6700049,,,,,,,2025-07-07,1,,,,,ティーケースタイル,0
1002,4140001139183,新規,0,2025-07-07,2025-07-07,ノーティ・クラフト・ジャパン株式会社,,株式会社,兵庫県,神戸市中央区,御幸通６丁目１番２２号住野太平ビル８階,,28,110,6510087,,,,,,,2025-07-07,1,,,,,ノーティクラフトジャパン,0
1003,4140003022263,新規,0,2025-07-07,2025-07-07,Ｃａｓｅ　Ｔ合同会社,,合同会社,兵庫県,尼崎市,昭和通２丁目１０番地１コーポイケダ４Ｄ,,28,202,6600881,,,,,,,2025-07-07,1,,,,,ケースティー,0
1011,4180001167536,新規,0,2025-07-07,2025-07-07,株式会社ｋｙｏｓｅｉ,,株式会社,愛知県,名古屋市中区,錦３丁目６－１５先・名古屋テレビ塔３階,,23,106,4600003,,,,,,,2025-07-07,1,,,,,キョウセイ,0
1012,4180001167552,新規,0,2025-07-07,2025-07-07,株式会社ＨＩＲＯ設計,,株式会社,愛知県,知多郡武豊町,字山ノ神３９番地１,,23,447,4702336,,,,,,,2025-07-07,1,,,,,ヒロセッケイ,0
1013,4180001167577,新規,0,2025-07-07,2025-07-07,株式会社翔華,,株式会社,愛知県,豊明市,二村台４丁目２２番地１,,23,229,4701131,,,,,,,2025-07-07,1,,,,,ショウカ,0
1015,4180005021144,新規,0,2025-07-07,2025-07-07,医療法人しらゆき会,,その他の設立登記法人,愛知県,半田市,彦洲町２丁目１８３番地１,,23,205,4750975,,,,,,,2025-07-07,1,,,,,シラユキカイ,0
1016,4180301039971,新規,0,2025-07-07,2025-07-07,株式会社みのり不動産,,株式会社,愛知県,豊橋市,柱三番町７４番地,,23,201,4418052,,,,,,,2025-07-07,1,,,,,ミノリフドウサン,0
1024,4200003006904,新規,0,2025-07-07,2025-07-07,ことり合同会社,,合同会社,岐阜県,多治見市,平井町４丁目１２８番地の８,,21,204,5070058,,,,,,,2025-07-07,1,,,,,コトリ,0
1031,4230001020986,新規,0,2025-07-07,2025-07-07,温度計測ジャパン株式会社,,株式会社,富山県,富山市,才覚寺２４２番地,,16,201,9398263,,,,,,,2025-07-07,1,,,,,オンドケイソクジャパン,0
1037,4240005015957,新規,0,2025-07-07,2025-07-07,労働者協同組合みんなの暮らし研究所,,その他の設立登記法人,広島県,福山市,西町１丁目１－１・１Ｆ,,34,207,7200067,,,,,,,2025-07-07,1,,,,,ミンナノクラシケンキュウジョ,0
1046,4290001110591,新規,0,2025-07-07,2025-07-07,株式会社ＨＩＭＵＫＡ,,株式会社,福岡県,福岡市中央区,輝国２丁目１番２５－４０１号,,40,133,8100032,,,,,,,2025-07-07,1,,,,,ヒムカ,0
1054,4290803005097,新規,0,2025-07-07,2025-07-07,合同会社キレイネ,,合同会社,福岡県,田川郡香春町,大字中津原１０４６番地,,40,601,8221405,,,,,,,2025-07-07,1,,,,,キレイネ,0
1055,4300001014262,新規,0,2025-07-07,2025-07-07,株式会社ノリノリ‐ともき,,株式会社,佐賀県,佐賀市,諸富町大字為重９番地１４,,41,201,8402102,,,,,,,2025-07-07,1,,,,,ノリノリトモキ,0
1058,4310001019681,新規,0,2025-07-07,2025-07-07,株式会社ｈａｒｕｔａ,,株式会社,長崎県,佐世保市,大黒町４１番１７号,,42,202,8570843,,,,,,,2025-07-07,1,,,,,ハルタ,0
1063,4330001033375,新規,0,2025-07-07,2025-07-07,株式会社アカリ,,株式会社,熊本県,熊本市東区,新外３丁目９番７６号,,43,102,8620921,,,,,,,2025-07-07,1,,,,,アカリ,0
1066,4340003004885,新規,0,2025-07-07,2025-07-07,合同会社ｅｔｓｕネクストステージ,,合同会社,鹿児島県,鹿児島市,鴨池新町４０番１－６０３号,,46,201,8900064,,,,,,,2025-07-07,1,,,,,エツネクストステージ,0
1069,4360001035427,新規,0,2025-07-07,2025-07-07,株式会社総合金物一建,,株式会社,沖縄県,那覇市,字安次嶺６番地１８,,47,201,9010143,,,,,,,2025-07-07,1,,,,,ソウゴウカナモノイチケン,0
1070,4360001035435,新規,0,2025-07-07,2025-07-07,株式会社Ｓｏｒａｒｉ,,株式会社,沖縄県,石垣市,字大川２７８番地ＴＡＭＡビル２・２０１号室,,47,207,9070022,,,,,,,2025-07-07,1,,,,,ソラリ,0
1071,4360003015039,新規,0,2025-07-07,2025-07-07,ＮＥＷ　ＷＡＶＥＳ　ＧＵＡＭ合同会社,,合同会社,沖縄県,中頭郡北谷町,桑江１丁目２－２０号クレステージ北谷４０５号室,,47,326,9040103,,,,,,,2025-07-07,1,,,,,ニューウェーブスグアム,0
1074,4370001052776,新規,0,2025-07-07,2025-07-07,株式会社ＫＩＴＨ,,株式会社,宮城県,柴田郡柴田町,船岡新栄１丁目１４番地２,,04,323,9891607,,,,,,,2025-07-07,1,,,,,キース,0
1087,4410001014210,新規,0,2025-07-07,2025-07-07,株式会社Ｍ・Ｉウッド,,株式会社,秋田県,山本郡三種町,豊岡金田字前谷地１６番地２,,05,348,0182304,,,,,,,2025-07-07,1,,,,,エムアイウッド,0
1091,4430001094746,新規,0,2025-07-07,2025-07-07,株式会社ＬＩＥＮ,,株式会社,北海道,札幌市中央区,北一条東１０丁目１５番地８２　７０９号,,01,101,0600031,,,,,,,2025-07-07,1,,,,,リアン,0
1097,4470003002918,新規,0,2025-07-07,2025-07-07,合同会社誉水ケアサービス,,合同会社,香川県,東かがわ市,横内３７番地１,,37,207,7692603,,,,,,,2025-07-07,1,,,,,,0
1098,4480001012876,新規,0,2025-07-07,2025-07-07,リヒトリア株式会社,,株式会社,徳島県,徳島市,沖浜町居屋敷１７１番地の８,,36,201,7708051,,,,,,,2025-07-07,1,,,,,リヒトリア,0
1110,5010001256461,新規,0,2025-07-07,2025-07-07,株式会社ＺＯＵＵＵ,,株式会社,東京都,中央区,日本橋兜町１７－１,,13,102,1030026,,,,,,,2025-07-07,1,,,,,ゾウ,0
1111,5010001256478,新規,0,2025-07-07,2025-07-07,株式会社Ｃａｍｉｎｏ,,株式会社,東京都,中央区,銀座７丁目４番１５号ＲＢＭ銀座ビル２階,,13,102,1040061,,,,,,,2025-07-07,1,,,,,カミノ,0
1112,5010001256544,新規,0,2025-07-07,2025-07-07,株式会社Ｓ・ＣＲＡＦＴ,,株式会社,東京都,中央区,銀座１丁目２２番１１号銀座大竹ビジデンス２Ｆ,,13,102,1040061,,,,,,,2025-07-07,1,,,,,エスクラフト,0
1114,5010003047900,新規,0,2025-07-07,2025-07-07,タウルス合同会社,,合同会社,東京都,千代田区,丸の内２丁目７番３号東京ビルディング,,13,101,1000005,,,,,,,2025-07-07,1,,,,,タウルス,0
1128,5010501054357,新規,0,2025-07-07,2025-07-07,株式会社テラシア,,株式会社,東京都,台東区,下谷１丁目１１番１５号ソレイユ入谷４階,,13,106,1100004,,,,,,,2025-07-07,1,,,,,,0
1129,5010503007908,新規,0,2025-07-07,2025-07-07,合同会社ワイツーファニチャー,,合同会社,東京都,台東区,下谷２丁目２２番６号,,13,106,1100004,,,,,,,2025-07-07,1,,,,,ワイツーファニチャー,0
1130,5010601067572,新規,0,2025-07-07,2025-07-07,Ｍｉｎｉｓｏｆｔ株式会社,,株式会社,東京都,江東区,亀戸１丁目２１番５号,,13,108,1360071,,,,,,,2025-07-07,1,,,,,ミニソフト,0
1131,5010601067580,新規,0,2025-07-07,2025-07-07,株式会社山塗屋,,株式会社,東京都,江東区,亀戸９丁目１番１０号,,13,108,1360071,,,,,,,2025-07-07,1,,,,,ヤマトヤ,0
1135,5010701047929,新規,0,2025-07-07,2025-07-07,ネクソリス株式会社,,株式会社,東京都,品川区,西五反田５丁目２３－３ＢＬＯＣＫＳＯＦＦＩＣＥ目黒不動前３１３号室,,13,109,1410031,,,,,,,2025-07-07,1,,,,,ネクソリス,0
1137,5010801036336,新規,0,2025-07-07,2025-07-07,株式会社オフィスＴＡＩ,,株式会社,東京都,大田区,南千束３丁目２２番２０号,,13,111,1450063,,,,,,,2025-07-07,1,,,,,オフィスタイ,0
1138,5010801036352,新規,0,2025-07-07,2025-07-07,株式会社ソレラシステム,,株式会社,東京都,大田区,大森北１丁目３０番５号ヒルマビル１０１,,13,111,1430016,,,,,,,2025-07-07,1,,,,,ソレラシステム,0
1139,5010803005462,新規,0,2025-07-07,2025-07-07,合同会社紅葉通商,,合同会社,東京都,大田区,中央１丁目１番１号白いビル２階,,13,111,1430024,,,,,,,2025-07-07,1,,,,,コウヨウツウショウ,0
1141,5010901057678,新規,0,2025-07-07,2025-07-07,ＨＹエナジーコンサルティング株式会社,,株式会社,東京都,世田谷区,太子堂４丁目１８番１５号マガザン三軒茶屋２－３Ｆ－３,,13,112,1540004,,,,,,,2025-07-07,1,,,,,エイチワイエナジーコンサルティング,0
1142,5010901057686,新規,0,2025-07-07,2025-07-07,ロバストコンサルティング株式会社,,株式会社,東京都,世田谷区,瀬田４丁目１１番２９号グランドメゾン瀬田２０４,,13,112,1580095,,,,,,,2025-07-07,1,,,,,ロバストコンサルティング,0
1143,5010901057703,新規,0,2025-07-07,2025-07-07,株式会社リオリス,,株式会社,東京都,世田谷区,成城２丁目４０番８号,,13,112,1570066,,,,,,,2025-07-07,1,,,,,リオリス,0
1146,5011001170693,新規,0,2025-07-07,2025-07-07,株式会社メドルミエール,,株式会社,東京都,渋谷区,千駄ヶ谷３丁目５４番１３号アーバン原宿１階,,13,113,1510051,,,,,,,2025-07-07,1,,,,,メドルミエール,0
1147,5011001170743,新規,0,2025-07-07,2025-07-07,株式会社ミッドスケイプ,,株式会社,東京都,渋谷区,道玄坂１丁目１０番８号渋谷道玄坂東急ビル２Ｆ－Ｃ,,13,113,1500043,,,,,,,2025-07-07,1,,,,,ミッドスケイプ,0
1152,5011003021886,新規,0,2025-07-07,2025-07-07,ＧＩＮＲＯ　ＧＵＡＲＤ合同会社,,合同会社,東京都,目黒区,南２丁目４－１４,,13,110,1520013,,,,,,,2025-07-07,1,,,,,ギンロウガード,0
1153,5011003021960,新規,0,2025-07-07,2025-07-07,合同会社インフィリンク,,合同会社,東京都,渋谷区,道玄坂１丁目１０番８号渋谷道玄坂東急ビル２Ｆ－Ｃ,,13,113,1500043,,,,,,,2025-07-07,1,,,,,インフィリンク,0
1160,5011303005622,新規,0,2025-07-07,2025-07-07,ａ．ｉ合同会社,,合同会社,東京都,杉並区,浜田山１丁目３３番２５－２０５号パーク・ハイム浜田山ヴィクレアール,,13,115,1680065,,,,,,,2025-07-07,1,,,,,エーアイ,0
1162,5011403004747,新規,0,2025-07-07,2025-07-07,合同会社リトルノ,,合同会社,東京都,板橋区,宮本町４７番８号,,13,119,1740054,,,,,,,2025-07-07,1,,,,,リトルノ,0
1166,5011803006954,新規,0,2025-07-07,2025-07-07,合同会社マルシゲ工舎,,合同会社,東京都,葛飾区,東水元４丁目１０番５号,,13,122,1250033,,,,,,,2025-07-07,1,,,,,マルシゲコウシャ,0
1168,5012403007194,新規,0,2025-07-07,2025-07-07,合同会社ハイクル,,合同会社,東京都,稲城市,大丸１０３６番地の１フェリシア１０２,,13,225,2060801,,,,,,,2025-07-07,1,,,,,ハイクル,0
1179,5020001163715,新規,0,2025-07-07,2025-07-07,株式会社ＣＬＡＰＳ,,株式会社,神奈川県,横浜市金沢区,釜利谷東２丁目１６番３０号高野ビル４階,,14,108,2360042,,,,,,,2025-07-07,1,,,,,クラップス,0
1180,5020001163756,新規,0,2025-07-07,2025-07-07,アールズ株式会社,,株式会社,神奈川県,横浜市南区,六ツ川３丁目２９番地４５,,14,105,2320066,,,,,,,2025-07-07,1,,,,,アールズ,0
1184,5020003028882,新規,0,2025-07-07,2025-07-07,センドダイレクト合同会社,,合同会社,神奈川県,横浜市都筑区,早渕３丁目１３番１号地下１階,,14,118,2240025,,,,,,,2025-07-07,1,,,,,センドダイレクト,0
1185,5021001085701,新規,0,2025-07-07,2025-07-07,株式会社Ｉフィールド,,株式会社,神奈川県,相模原市南区,東大沼３丁目２９番４５号,,14,153,2520333,,,,,,,2025-07-07,1,,,,,アイフィールド,0
1191,5030001167483,新規,0,2025-07-07,2025-07-07,株式会社トップ,,株式会社,埼玉県,白岡市,新白岡４丁目１３番地３新白岡駅前ホスピタリティパーク３０２号室,,11,246,3490212,,,,,,,2025-07-07,1,,,,,トップ,0
1192,5030001167491,新規,0,2025-07-07,2025-07-07,株式会社ティエス,,株式会社,埼玉県,所沢市,中富南４丁目２７番地の１４,,11,208,3590003,,,,,,,2025-07-07,1,,,,,ティエス,0
1193,5030001167500,新規,0,2025-07-07,2025-07-07,株式会社電建ＨＤ,,株式会社,埼玉県,入間市,宮寺２８３６番地４,,11,225,3580014,,,,,,,2025-07-07,1,,,,,デンケンホールディングス,0
1194,5030001167517,新規,0,2025-07-07,2025-07-07,株式会社サードミレニアム,,株式会社,埼玉県,さいたま市中央区,上落合６丁目１０番２５号,,11,105,3380001,,,,,,,2025-07-07,1,,,,,サードミレニアム,0
1195,5030001167525,新規,0,2025-07-07,2025-07-07,株式会社和武州川越,,株式会社,埼玉県,川越市,大塚２丁目１９番地１５,,11,201,3501129,,,,,,,2025-07-07,1,,,,,ナゴミブシュウカワゴエ,0
1208,5050001056890,新規,0,2025-07-07,2025-07-07,刈部農産株式会社,,株式会社,茨城県,桜川市,真壁町田１０２８番地,,08,231,3004411,,,,,,,2025-07-07,1,,,,,カリベノウサン,0
1209,5050001056908,新規,0,2025-07-07,2025-07-07,株式会社アグリテックフジイ,,株式会社,茨城県,坂東市,長須４２５５番地１,,08,228,3060645,,,,,,,2025-07-07,1,,,,,アグリテックフジイ,0
1213,5060003005606,新規,0,2025-07-07,2025-07-07,合同会社ハブラシ,,合同会社,栃木県,宇都宮市,ゆいの杜２丁目１番４号,,09,201,3213226,,,,,,,2025-07-07,1,,,,,ハブラシ,0
1219,5100001038751,新規,0,2025-07-07,2025-07-07,オフィスまる和株式会社,,株式会社,長野県,長野市,大字高田９７２番地,,20,201,3810034,,,,,,,2025-07-07,1,,,,,オフィスマルワ,0
1221,5100003008265,新規,0,2025-07-07,2025-07-07,ディスプレイ合同会社,,合同会社,長野県,佐久市,岩村田１６８７番地フォーレス砂田Ｂ２０１,,20,217,3850022,,,,,,,2025-07-07,1,,,,,ディスプレイ,0
1235,5120001277471,新規,0,2025-07-07,2025-07-07,みらい株式会社,,株式会社,大阪府,大阪市中央区,南久宝寺町４丁目５番１５－９０４,,27,128,5410058,,,,,,,2025-07-07,1,,,,,ミライ,0
1236,5120001277488,新規,0,2025-07-07,2025-07-07,株式会社ＥＦＡＭ,,株式会社,大阪府,大阪市北区,豊崎３丁目１５－５ＴＫビル２Ｆ,,27,127,5310072,,,,,,,2025-07-07,1,,,,,イーファム,0
1237,5120001277554,新規,0,2025-07-07,2025-07-07,英特株式会社,,株式会社,大阪府,大阪市東成区,大今里３丁目１５番６号ＩｍａｚａｔｏＴｏｗｅｒ５０５Ａ,,27,115,5370012,,,,,,,2025-07-07,1,,,,,エイトク,0
1238,5120001277562,新規,0,2025-07-07,2025-07-07,株式会社Ｚ　ＰＯＷＥＲ,,株式会社,大阪府,大阪市中央区,南船場４丁目４番２１号ＴｏｄａＢｕｉｌｄｉｎｇ心斎橋８Ｆ,,27,128,5420081,,,,,,,2025-07-07,1,,,,,ゼットパワー,0
1239,5120001277570,新規,0,2025-07-07,2025-07-07,株式会社ヤマケン,,株式会社,大阪府,大阪市旭区,赤川２丁目４番７号,,27,117,5350005,,,,,,,2025-07-07,1,,,,,ヤマケン,0
1240,5120001277587,新規,0,2025-07-07,2025-07-07,株式会社スリーウェイズインテグリティ,,株式会社,大阪府,枚方市,山田池東町２４番１２号,,27,210,5730165,,,,,,,2025-07-07,1,,,,,スリーウェイズインテグリティ,0
1242,5120003029920,新規,0,2025-07-07,2025-07-07,２３６２３６Ｋ合同会社,,合同会社,大阪府,大阪市東住吉区,北田辺１丁目９番２３号サンファボーレ北田辺５０５号,,27,121,5460044,,,,,,,2025-07-07,1,,,,,ニーサンロクニーサンロクケー,0
1243,5120003029929,新規,0,2025-07-07,2025-07-07,合同会社ＴＫＴ,,合同会社,大阪府,大阪市西区,京町堀１丁目４番９号京町橋八千代ビル６Ｆ,,27,106,5500003,,,,,,,2025-07-07,1,,,,,ティーケーティー,0
1246,5120101072005,新規,0,2025-07-07,2025-07-07,株式会社ライスシャワー,,株式会社,大阪府,富田林市,寺池台４丁目２番３５２－１０５号,,27,214,5840073,,,,,,,2025-07-07,1,,,,,ライスシャワー,0
1247,5120101072013,新規,0,2025-07-07,2025-07-07,マリンテック株式会社,,株式会社,大阪府,松原市,大堀３丁目１２－１３,,27,217,5800006,,,,,,,2025-07-07,1,,,,,マリンテック,0
1248,5120101072021,新規,0,2025-07-07,2025-07-07,株式会社リギングワン,,株式会社,大阪府,泉大津市,臨海町１丁目３５番地１,,27,206,5950075,,,,,,,2025-07-07,1,,,,,リギングワン,0
1249,5120101072038,新規,0,2025-07-07,2025-07-07,株式会社ＲＳＴ,,株式会社,大阪府,堺市堺区,北三国ヶ丘町８丁１番１２号,,27,141,5900021,,,,,,,2025-07-07,1,,,,,アールエスティー,0
1250,5120101072046,新規,0,2025-07-07,2025-07-07,株式会社フーレ,,株式会社,大阪府,岸和田市,岡山町９７２番地の９,,27,202,5960814,,,,,,,2025-07-07,1,,,,,フーレ,0
1257,5120901051166,新規,0,2025-07-07,2025-07-07,山口ボーリング工業株式会社,,株式会社,大阪府,豊中市,宝山町３番３７号,,27,203,5610893,,,,,,,2025-07-07,1,,,,,ヤマグチボーリングコウギョウ,0
1258,5120901051174,新規,0,2025-07-07,2025-07-07,株式会社ＬｕｃｋｙＴｒａｎｃｅ,,株式会社,大阪府,豊中市,寺内２丁目８番７－２０１号,,27,203,5610872,,,,,,,2025-07-07,1,,,,,ラッキートランス,0
1259,5120901051182,新規,0,2025-07-07,2025-07-07,株式会社ＫｅＹ　ＮＥＸＴ,,株式会社,大阪府,茨木市,玉瀬町５番１１号,,27,211,5670893,,,,,,,2025-07-07,1,,,,,キーネクスト,0
1260,5120901051190,新規,0,2025-07-07,2025-07-07,株式会社スナゴオートサービス,,株式会社,大阪府,吹田市,山田東１丁目２９番９号,,27,205,5650821,,,,,,,2025-07-07,1,,,,,スナゴオートサービス,0
1261,5120903005748,新規,0,2025-07-07,2025-07-07,合同会社ジーボット,,合同会社,大阪府,豊中市,新千里東町１丁目１－２－４７０９,,27,203,5600082,,,,,,,2025-07-07,1,,,,,ジーボット,0
1262,5120905006752,新規,0,2025-07-07,2025-07-07,ＮＰＯ法人おおさかレモネードスタンドプロジェクトＰｉｌｉｎａ,,その他の設立登記法人,大阪府,豊中市,服部本町５丁目８番８号,,27,203,5610852,,,,,,,2025-07-07,1,,,,,オオサカレモネードスタンドプロジェクトピリナ,0
1266,5122001039397,新規,0,2025-07-07,2025-07-07,エスアール地所株式会社,,株式会社,大阪府,東大阪市,足代１丁目１４番１６号,,27,227,5770841,,,,,,,2025-07-07,1,,,,,エスアールチショ,0
1269,5130001080024,新規,0,2025-07-07,2025-07-07,株式会社リョーワ,,株式会社,京都府,京都市伏見区,横大路富ノ森町３１番地,,26,109,6128257,,,,,,,2025-07-07,1,,,,,リョーワ,0
1274,5140001139166,新規,0,2025-07-07,2025-07-07,株式会社ハッピーショップ,,株式会社,兵庫県,三田市,富士が丘２丁目９番地１００,,28,219,6691547,,,,,,,2025-07-07,1,,,,,ハッピーショップ,0
1287,5180001167551,新規,0,2025-07-07,2025-07-07,株式会社ＥＸＣＩＡ,,株式会社,愛知県,あま市,金岩後堂１６番地２,,23,237,4901221,,,,,,,2025-07-07,1,,,,,エクシア,0
1288,5180001167568,新規,0,2025-07-07,2025-07-07,和牛株式会社,,株式会社,愛知県,名古屋市千種区,千代が丘六丁目１０番地平和ビル１階７号,,23,101,4640005,,,,,,,2025-07-07,1,,,,,ワギュウ,0
1289,5180001167584,新規,0,2025-07-07,2025-07-07,株式会社ポートフジコーチング,,株式会社,愛知県,一宮市,今伊勢町宮後字下苧島６０番地１１,,23,203,4910057,,,,,,,2025-07-07,1,,,,,ポートフジコーチング,0
1290,5180303006639,新規,0,2025-07-07,2025-07-07,つづみ屋合同会社,,合同会社,愛知県,岡崎市,大門４丁目２１番地１５,,23,202,4442135,,,,,,,2025-07-07,1,,,,,ツヅミヤ,0
1295,5190005012059,新規,0,2025-07-07,2025-07-07,一般社団法人三重県女性起業家コミュニティｗｉｚ,,その他の設立登記法人,三重県,四日市市,栄町１番１１号,,24,202,5100084,,,,,,,2025-07-07,1,,,,,ミエケンジョセイキギョウカコミュニティウィズ,0
1296,5200001043989,新規,0,2025-07-07,2025-07-07,オトックス株式会社,,株式会社,岐阜県,土岐市,泉東窯町１丁目１８番地１,,21,212,5095103,,,,,,,2025-07-07,1,,,,,オトックス,0
1301,5220005008978,新規,0,2025-07-07,2025-07-07,土地家屋調査士法人柿島事務所,,その他の設立登記法人,石川県,金沢市,松村５丁目２番地,,17,201,9200348,,,,,,,2025-07-07,1,,,,,カキシマジムショ,0
1302,5230001020977,新規,0,2025-07-07,2025-07-07,株式会社ＩＭＲＡＮ　ＢＲＯＴＨＥＲ’Ｓ　ＴＲＡＤＩＮＧ,,株式会社,富山県,射水市,草岡町２丁目１７－１３,,16,211,9330225,,,,,,,2025-07-07,1,,,,,イムランブラザーズトレーディング,0
1308,5240005015956,新規,0,2025-07-07,2025-07-07,一般社団法人Ｍｉｒａｌｉｓ,,その他の設立登記法人,広島県,広島市中区,南吉島２丁目３番５７号,,34,101,7300826,,,,,,,2025-07-07,1,,,,,ミラリス,0
1309,5260001040320,新規,0,2025-07-07,2025-07-07,株式会社ＡＸＩＯＮ,,株式会社,岡山県,岡山市北区,磨屋町３番１０号２ＦＴＯＧＩＴＯＧＩ,,33,101,7000826,,,,,,,2025-07-07,1,,,,,アクシオン,0
1310,5260003005247,新規,0,2025-07-07,2025-07-07,合同会社フリーツリー,,合同会社,岡山県,倉敷市,茶屋町１６６０番地５Ｖｅｒｄｅ茶屋町４０５,,33,202,7101101,,,,,,,2025-07-07,1,,,,,フリーツリー,0
1324,5290001110574,新規,0,2025-07-07,2025-07-07,株式会社ｚｅｏｄｙ,,株式会社,福岡県,福岡市中央区,天神４丁目６－２８いちご天神ノースビル７階,,40,133,8100001,,,,,,,2025-07-07,1,,,,,ゼオディ,0
1325,5290001110582,新規,0,2025-07-07,2025-07-07,株式会社ｍａｓｕｅ,,株式会社,福岡県,福岡市西区,上山門１丁目８番３号,,40,135,8190054,,,,,,,2025-07-07,1,,,,,マスエ,0
1326,5290001110616,新規,0,2025-07-07,2025-07-07,株式会社良質蔵,,株式会社,福岡県,福岡市早良区,有田１丁目３０番１４号,,40,137,8140033,,,,,,,2025-07-07,1,,,,,リョウシツグラ,0
1327,5290001110665,新規,0,2025-07-07,2025-07-07,株式会社Ｎｅｘｔ．Ｏｎｅ,,株式会社,福岡県,大野城市,畑ケ坂１丁目８番１０号Ｂ棟,,40,219,8160982,,,,,,,2025-07-07,1,,,,,ネクストワン,0
1331,5300001014261,新規,0,2025-07-07,2025-07-07,山口内装株式会社,,株式会社,佐賀県,鹿島市,大字森５０番地,,41,207,8491303,,,,,,,2025-07-07,1,,,,,ヤマグチナイソウ,0
1333,5320003004705,新規,0,2025-07-07,2025-07-07,合同会社ＨＯＮＥＳＴ,,合同会社,大分県,大分市,大字中戸次４３３９番地メゾン本町通り１０３,,44,201,8797761,,,,,,,2025-07-07,1,,,,,オネスト,0
1338,5360001035418,新規,0,2025-07-07,2025-07-07,株式会社ＹＵＺＵ,,株式会社,沖縄県,那覇市,宮城１丁目１７番６－３１０号Ｆステージ小禄宮城弐番館,,47,201,9010147,,,,,,,2025-07-07,1,,,,,ユウズウ,0
1339,5370001052775,新規,0,2025-07-07,2025-07-07,株式会社ぽらびす,,株式会社,宮城県,仙台市泉区,南中山５丁目５番地の７０,,04,105,9813213,,,,,,,2025-07-07,1,,,,,ポラビス,0
1340,5370001052791,新規,0,2025-07-07,2025-07-07,株式会社Ｓａｃｈｉｎａｓｕ,,株式会社,宮城県,富谷市,大清水１丁目３３番１,,04,216,9813329,,,,,,,2025-07-07,1,,,,,サチナス,0
1342,5380001035424,新規,0,2025-07-07,2025-07-07,株式会社ＡＩＦ,,株式会社,福島県,会津若松市,慶山２丁目１番１０号,,07,202,9650812,,,,,,,2025-07-07,1,,,,,エーアイエフ,0
1343,5380003006084,新規,0,2025-07-07,2025-07-07,合同会社ながしまペットクリニック,,合同会社,福島県,郡山市,南２丁目１５１番地,,07,203,9630115,,,,,,,2025-07-07,1,,,,,ナガシマペットクリニック,0
1350,5420001019190,新規,0,2025-07-07,2025-07-07,株式会社あおもりリンゴ研究室,,株式会社,青森県,十和田市,大字三本木字西金崎４６７－２,,02,206,0340001,,,,,,,2025-07-07,1,,,,,アオモリリンゴケンキュウシツ,0
1356,5430003017828,新規,0,2025-07-07,2025-07-07,合同会社Ｇ３,,合同会社,北海道,札幌市東区,丘珠町３２６番地５,,01,103,0070880,,,,,,,2025-07-07,1,,,,,ジースリー,0
1357,5440003001698,新規,0,2025-07-07,2025-07-07,合同会社うぉむ,,合同会社,北海道,北斗市,一本木１３５番地１,,01,236,0411223,,,,,,,2025-07-07,1,,,,,ウォム,0
1372,6010001256469,新規,0,2025-07-07,2025-07-07,株式会社ＳＱＵＡＲＥ　ＲＥＡＬＴＹ,,株式会社,東京都,中央区,銀座６丁目１２－２－４０７,,13,102,1040061,,,,,,,2025-07-07,1,,,,,スクエアリアルティ,0
1373,6010001256485,新規,0,2025-07-07,2025-07-07,株式会社プリベント,,株式会社,東京都,中央区,銀座１丁目１２番４号Ｎ＆ＥＢＬＤ６Ｆ,,13,102,1040061,,,,,,,2025-07-07,1,,,,,プリベント,0
1374,6010001256510,新規,0,2025-07-07,2025-07-07,株式会社ミート２２エステート,,株式会社,東京都,文京区,千駄木５丁目１７番６号,,13,105,1130022,,,,,,,2025-07-07,1,,,,,ミートニジュウニエステート,0
1375,6010001256543,新規,0,2025-07-07,2025-07-07,株式会社ＹＯＨＡＫＵ　Ｐｌａｎｎｉｎｇ,,株式会社,東京都,中央区,佃３丁目４番１２－４０２号,,13,102,1040051,,,,,,,2025-07-07,1,,,,,ヨハクプランニング,0
1378,6010003047908,新規,0,2025-07-07,2025-07-07,合同会社ＣＲ１,,合同会社,東京都,中央区,銀座２丁目１０番８号マニエラ銀座ビル４階,,13,102,1040061,,,,,,,2025-07-07,1,,,,,シーアールワン,0
1381,6010005040274,新規,0,2025-07-07,2025-07-07,一般社団法人越境実験室,,その他の設立登記法人,東京都,中央区,日本橋室町１丁目１１番１２号日本橋水野ビル７階,,13,102,1030022,,,,,,,2025-07-07,1,,,,,エッキョウジッケンシツ,0
1382,6010005040316,新規,0,2025-07-07,2025-07-07,一般財団法人キッズスポーツ推進協会,,その他の設立登記法人,東京都,千代田区,丸の内２丁目７番２号ＪＰタワー２２階,,13,101,1000005,,,,,,,2025-07-07,1,,,,,キッズスポーツスイシンキョウカイ,0
1387,6010401191480,新規,0,2025-07-07,2025-07-07,株式会社ラポールシナジー,,株式会社,東京都,港区,南青山２丁目２番１５号,,13,103,1070062,,,,,,,2025-07-07,1,,,,,ラポールシナジー,0
1388,6010401191489,新規,0,2025-07-07,2025-07-07,株式会社ＭＩＧＩＥ,,株式会社,東京都,港区,麻布十番２丁目５番２号,,13,103,1060045,,,,,,,2025-07-07,1,,,,,ミギエ,0
1389,6010401191497,新規,0,2025-07-07,2025-07-07,株式会社ＷＡＮ,,株式会社,東京都,港区,北青山１丁目３番１号,,13,103,1070061,,,,,,,2025-07-07,1,,,,,ワン,0
1390,6010401191530,新規,0,2025-07-07,2025-07-07,株式会社ＵＬＩＣＯ,,株式会社,東京都,港区,北青山１丁目３番１号アールキューブ青山３階,,13,103,1070061,,,,,,,2025-07-07,1,,,,,ウリコ,0
1397,6010403035495,新規,0,2025-07-07,2025-07-07,Ｖｉｒｉｈｕｂオウシザ合同会社,,合同会社,東京都,港区,芝５丁目１９－６ＡＲＩＳＴＯ三田１１階,,13,103,1080014,,,,,,,2025-07-07,1,,,,,ビリハブオウシザ,0
1401,6010501054298,新規,0,2025-07-07,2025-07-07,辰星資本株式会社,,株式会社,東京都,台東区,松が谷２丁目１５番８号浅草Ｋ２ビル２０１号室,,13,106,1110036,,,,,,,2025-07-07,1,,,,,シンセイシホン,0
1402,6010501054315,新規,0,2025-07-07,2025-07-07,株式会社ＣＯＣＯ,,株式会社,東京都,台東区,竜泉１丁目２９番４号永田ビル１０２,,13,106,1100012,,,,,,,2025-07-07,1,,,,,ココ,0
1404,6010503007907,新規,0,2025-07-07,2025-07-07,合同会社木宮商店,,合同会社,東京都,台東区,蔵前４丁目２０－５保光ビル１Ｆ,,13,106,1110051,,,,,,,2025-07-07,1,,,,,キミヤショウテン,0
1407,6010601067571,新規,0,2025-07-07,2025-07-07,高桐株式会社,00139829,株式会社,東京都,墨田区,向島４丁目１番１－２１３号,,13,107,1310033,,,,,,,2025-07-07,1,,,,,コウトウ,0
1409,6010701047936,新規,0,2025-07-07,2025-07-07,株式会社ダブリュー,,株式会社,東京都,品川区,南大井５丁目２０番１４号メゾンパーク大森４０８,,13,109,1400013,,,,,,,2025-07-07,1,,,,,ダブリュー,0
1413,6010901057685,新規,0,2025-07-07,2025-07-07,駒沢企画株式会社,,株式会社,東京都,世田谷区,砧５丁目２０番１９－２１３号,,13,112,1570073,,,,,,,2025-07-07,1,,,,,コマザワキカク,0
1414,6010903010064,新規,0,2025-07-07,2025-07-07,Ａｚｕｍａｙａ　Ｉｎｎｏｖａｔｉｏｎｓ合同会社,,合同会社,東京都,世田谷区,奥沢８丁目９番１７号,,13,112,1580083,,,,,,,2025-07-07,1,,,,,アズマヤイノベーションズ,0
1419,6011001169859,新規,0,2025-07-07,2025-07-07,株式会社ウルトラシーズ,,株式会社,東京都,渋谷区,初台１丁目４５番６号ＭＧビル５階,,13,113,1510061,,,,,,,2025-07-07,1,,,,,ウルトラシーズ,0
1420,6011001170511,新規,0,2025-07-07,2025-07-07,株式会社Ｄ‐Ｌｉｎｋ’ｓ,,株式会社,東京都,目黒区,下目黒１丁目１番１４号コノトラビル７Ｆ,,13,110,1530064,,,,,,,2025-07-07,1,,,,,ディーリンクス,0
1421,6011003022074,新規,0,2025-07-07,2025-07-07,ＴＯＷＡ　Ｍｉｎｄ＆Ｃａｒｅ合同会社,,合同会社,東京都,渋谷区,神南１丁目１１―４ＦＰＧリンクス神南５階,,13,113,1500041,,,,,,,2025-07-07,1,,,,,トワマインドアンドケア,0
1427,6011103015985,新規,0,2025-07-07,2025-07-07,合同会社Ｒｉｔｚ,,合同会社,東京都,新宿区,百人町１丁目２３－１１土田ビル２階,,13,104,1690073,,,,,,,2025-07-07,1,,,,,リッツ,0
1430,6011301030704,新規,0,2025-07-07,2025-07-07,株式会社ＩＭＣ‐Ｎｅｘｔ,,株式会社,東京都,杉並区,高円寺北２丁目８番１０号,,13,115,1660002,,,,,,,2025-07-07,1,,,,,アイエムシーネクスト,0
1431,6011303005621,新規,0,2025-07-07,2025-07-07,合同会社コレプシー,,合同会社,東京都,杉並区,和田１丁目３９番３２号パセオ杉並１０３,,13,115,1660012,,,,,,,2025-07-07,1,,,,,コレプシー,0
1436,6011501032285,新規,0,2025-07-07,2025-07-07,叡智株式会社,,株式会社,東京都,荒川区,東日暮里５丁目２２番１３号,,13,118,1160014,,,,,,,2025-07-07,1,,,,,エイチ,0
1437,6011501032293,新規,0,2025-07-07,2025-07-07,７ＫＩＮＧＳ　ＣＯＤＥ株式会社,,株式会社,東京都,北区,赤羽２丁目６２番８号ハイネスＵ２０１号,,13,117,1150045,,,,,,,2025-07-07,1,,,,,セブンキングスコード,0
1441,6011505002697,新規,0,2025-07-07,2025-07-07,一般社団法人ウィズ・スマイル,,その他の設立登記法人,東京都,北区,滝野川５丁目３２－３,,13,117,1140023,,,,,,,2025-07-07,1,,,,,ウィズスマイル,0
1444,6011701028496,新規,0,2025-07-07,2025-07-07,ｏｎｅ　ｕｐ株式会社,,株式会社,東京都,江戸川区,上篠崎３丁目５番１８号,,13,123,1330054,,,,,,,2025-07-07,1,,,,,ワンアップ,0
1445,6011701028505,新規,0,2025-07-07,2025-07-07,ｓａｆｅｎｅｔ株式会社,,株式会社,東京都,江戸川区,上一色２丁目７番５－４０４号,,13,123,1330041,,,,,,,2025-07-07,1,,,,,セーフネット,0
1448,6011801046407,新規,0,2025-07-07,2025-07-07,株式会社Ｕｎｉｑｕｅ　ｓｔｒｅｎｇｔｈｓ,,株式会社,東京都,葛飾区,奥戸３丁目６番１３号,,13,122,1240022,,,,,,,2025-07-07,1,,,,,ユニークストレングス,0
1449,6011801046415,新規,0,2025-07-07,2025-07-07,株式会社Ｍ‐Ｎｅｘｔ,,株式会社,東京都,足立区,六木１丁目１７番２５－６０２号,,13,121,1210052,,,,,,,2025-07-07,1,,,,,エムネクスト,0
1451,6012801024088,新規,0,2025-07-07,2025-07-07,株式会社ＤＯ‐ＭＯ,,株式会社,東京都,日野市,百草２９６番地の１,,13,212,1910033,,,,,,,2025-07-07,1,,,,,ドーモ,0
1452,6013101009738,新規,0,2025-07-07,2025-07-07,株式会社晴彩,,株式会社,東京都,あきる野市,小川東１丁目２２番地５,,13,228,1970822,,,,,,,2025-07-07,1,,,,,ハレイロ,0
1453,6013301054575,新規,0,2025-07-07,2025-07-07,富達商事株式会社,,株式会社,東京都,豊島区,東池袋１丁目４２番１４号２８山京ビル６０１,,13,116,1700013,,,,,,,2025-07-07,1,,,,,フタツショウジ,0
1462,6020001163648,新規,0,2025-07-07,2025-07-07,株式会社ＰＹＧＧ,,株式会社,神奈川県,横浜市都筑区,仲町台３丁目１２番２－３１３号,,14,118,2240041,,,,,,,2025-07-07,1,,,,,ピグ,0
1463,6020001163664,新規,0,2025-07-07,2025-07-07,株式会社リバティー,,株式会社,神奈川県,横浜市瀬谷区,宮沢２丁目３０番地１リベルテ三ッ境１０２,,14,114,2460038,,,,,,,2025-07-07,1,,,,,リバティー,0
1464,6020001163714,新規,0,2025-07-07,2025-07-07,株式会社ＭＫＫｉ,,株式会社,神奈川県,川崎市幸区,堀川町５８０－１６川崎テックセンター１５階,,14,132,2120013,,,,,,,2025-07-07,1,,,,,エムケーケーアイ,0
1465,6020001163722,新規,0,2025-07-07,2025-07-07,株式会社ＮＣＤ,,株式会社,神奈川県,横浜市西区,北幸１丁目１１番１号水信ビル７階,,14,103,2200004,,,,,,,2025-07-07,1,,,,,エヌシーディー,0
1466,6020001163730,新規,0,2025-07-07,2025-07-07,藤井興業株式会社,,株式会社,神奈川県,横浜市旭区,中希望が丘１２番地１リーベンリールＩＩ２０３,00139820,14,112,2410825,,,,,,,2025-07-07,1,,,,,フジイコウギョウ,0
1467,6020001163739,新規,0,2025-07-07,2025-07-07,株式会社池田工業,,株式会社,神奈川県,横浜市磯子区,中原３丁目１７番１８号,,14,107,2350036,,,,,,,2025-07-07,1,,,,,イケダコウギョウ,0
1468,6020001163755,新規,0,2025-07-07,2025-07-07,株式会社ネクストパートナー,,株式会社,神奈川県,川崎市多摩区,登戸２８４４番地１－３０１,,14,135,2140014,,,,,,,2025-07-07,1,,,,,ネクストパートナー,0
1469,6020001163771,新規,0,2025-07-07,2025-07-07,株式会社セラヴィ,,株式会社,神奈川県,横浜市鶴見区,駒岡３丁目７番４号,,14,101,2300071,,,,,,,2025-07-07,1,,,,,セラヴィ,0
1476,6021001085691,新規,0,2025-07-07,2025-07-07,株式会社Ｋ・Ｎサポート,,株式会社,神奈川県,相模原市中央区,田名４４９３番地１,,14,152,2520244,,,,,,,2025-07-07,1,,,,,,0
1477,6021001085709,新規,0,2025-07-07,2025-07-07,株式会社手島電気,,株式会社,神奈川県,綾瀬市,落合北５丁目３番１２号,,14,218,2521116,,,,,,,2025-07-07,1,,,,,テシマデンキ,0
1484,6030001167391,新規,0,2025-07-07,2025-07-07,フォーティーン株式会社,,株式会社,埼玉県,川越市,大字的場２０２３番地１１,,11,201,3501101,,,,,,,2025-07-07,1,,,,,フォーティーン,0
1485,6030001167474,新規,0,2025-07-07,2025-07-07,株式会社ニキ,,株式会社,埼玉県,入間郡三芳町,大字竹間沢３１９－８,,11,324,3540043,,,,,,,2025-07-07,1,,,,,ニキ,0
1486,6030001167508,新規,0,2025-07-07,2025-07-07,株式会社ソラリス,,株式会社,埼玉県,春日部市,東中野１５５５番地２,,11,214,3440114,,,,,,,2025-07-07,1,,,,,ソラリス,0
1491,6030003027123,新規,0,2025-07-07,2025-07-07,ＳＵＳＨＭＩＴＡ合同会社,,合同会社,埼玉県,川口市,飯塚１丁目９番３８号ホッカイマンション１０１号,,11,203,3320023,,,,,,,2025-07-07,1,,,,,ススミタ,0
1492,6030003027148,新規,0,2025-07-07,2025-07-07,合同会社ｆｅｎｎｅｌ＆ｃｏ,,合同会社,埼玉県,桶川市,大字加納８６番地の１７,,11,231,3630001,,,,,,,2025-07-07,1,,,,,フェンネルアンドコー,0
1510,6050001056898,新規,0,2025-07-07,2025-07-07,株式会社葱ｄｏｒｉマスターズ,,株式会社,茨城県,石岡市,三村４８２１番地,,08,205,3150048,,,,,,,2025-07-07,1,,,,,ネギドリマスターズ,0
1518,6080001027013,新規,0,2025-07-07,2025-07-07,平野工業株式会社,,株式会社,静岡県,藤枝市,岡部町内谷１７１１番地の５,,22,214,4211131,,,,,,,2025-07-07,1,,,,,ヒラノコウギョウ,0
1519,6080001027021,新規,0,2025-07-07,2025-07-07,ＦＵＪＩＥＤＡ　ＬＩＦＥ株式会社,,株式会社,静岡県,藤枝市,駅前１丁目８－３ＦＵＪＩＥＤＡｍｉｋｉｎｅ１階１０２区画,,22,214,4260034,,,,,,,2025-07-07,1,,,,,フジエダライフ,0
1528,6110001039392,新規,0,2025-07-07,2025-07-07,株式会社ＡＮｂｒｅｌｌａ,,株式会社,新潟県,新潟市北区,すみれ野２丁目１９番１６号,,15,101,9503133,,,,,,,2025-07-07,1,,,,,アンブレラ,0
1535,6120001277454,新規,0,2025-07-07,2025-07-07,株式会社Ｉｚｕｍｉ,,株式会社,大阪府,大阪市天王寺区,勝山２丁目１９番１１号,,27,109,5430043,,,,,,,2025-07-07,1,,,,,イズミ,0
1536,6120001277462,新規,0,2025-07-07,2025-07-07,ＡＩＣＣ株式会社,,株式会社,大阪府,大阪市都島区,都島本通４丁目１６番１１号ドリーマー２１、３０２号,,27,102,5340021,,,,,,,2025-07-07,1,,,,,エーアイシーシ,0
1537,6120001277512,新規,0,2025-07-07,2025-07-07,株式会社村塾,,株式会社,大阪府,大阪市中央区,難波千日前１４番１８号道具屋筋横丁１階,,27,128,5420075,,,,,,,2025-07-07,1,,,,,ソンジュク,0
1538,6120001277520,新規,0,2025-07-07,2025-07-07,ＬＲ株式会社,,株式会社,大阪府,大阪市西成区,松３丁目１１－２２－２０３,,27,122,5570034,,,,,,,2025-07-07,1,,,,,エルアル,0
1539,6120001277537,新規,0,2025-07-07,2025-07-07,株式会社ａｙａｓｅ,,株式会社,大阪府,大阪市北区,天神橋７丁目１番１６－４０９号,,27,127,5310041,,,,,,,2025-07-07,1,,,,,アヤセ,0
1540,6120001277553,新規,0,2025-07-07,2025-07-07,耀昇株式会社,,株式会社,大阪府,大阪市東成区,大今里３丁目１５番６号ＩｍａｚａｔｏＴｏｗｅｒ５１０Ａ,,27,115,5370012,,,,,,,2025-07-07,1,,,,,ヨウショウ,0
1541,6120001277603,新規,0,2025-07-07,2025-07-07,株式会社晴れとハレ,,株式会社,大阪府,大阪市西区,北堀江１丁目５番８号Ｖａｌｏｒｅ北堀江１階,,27,106,5500014,,,,,,,2025-07-07,1,,,,,ハレトハレ,0
1542,6120001277611,新規,0,2025-07-07,2025-07-07,空間株式会社,,株式会社,大阪府,大阪市港区,弁天３丁目１０番２０－３０２号,,27,107,5520007,,,,,,,2025-07-07,1,,,,,クウカン,0
1543,6120003029928,新規,0,2025-07-07,2025-07-07,合同会社ＣＲＯＷＤ,,合同会社,大阪府,門真市,大池町３６番６－１０５号,,27,223,5710076,,,,,,,2025-07-07,1,,,,,クラウド,0
1546,6120101072012,新規,0,2025-07-07,2025-07-07,株式会社フレッシュマインド,,株式会社,大阪府,堺市堺区,西湊町６丁７番２５－５号,,27,141,5900835,,,,,,,2025-07-07,1,,,,,フレッシュマインド,0
1547,6120101072020,新規,0,2025-07-07,2025-07-07,ＨＴ　Ｓｍｉｌｅ株式会社,,株式会社,大阪府,堺市北区,中村町８３番地５５,,27,146,5918012,,,,,,,2025-07-07,1,,,,,エイチティースマイル,0
1548,6120101072037,新規,0,2025-07-07,2025-07-07,ＩＲＩＳトータルケア株式会社,,株式会社,大阪府,堺市堺区,三国ヶ丘御幸通二丁２番地,,27,141,5900028,,,,,,,2025-07-07,1,,,,,アイリストータルケア,0
1551,6120901051165,新規,0,2025-07-07,2025-07-07,株式会社Ａｒｃｗｅｌｌ,,株式会社,大阪府,豊中市,日出町２丁目１番２７号,,27,203,5610821,,,,,,,2025-07-07,1,,,,,アーチウェル,0
1552,6120901051173,新規,0,2025-07-07,2025-07-07,株式会社ハレノヒビ,,株式会社,大阪府,箕面市,彩都粟生北７丁目１番７８号,,27,220,5620029,,,,,,,2025-07-07,1,,,,,ハレノヒビ,0
1553,6120903005747,新規,0,2025-07-07,2025-07-07,合同会社ケアトリエ,,合同会社,大阪府,箕面市,外院３丁目２１番９号,,27,220,5620026,,,,,,,2025-07-07,1,,,,,ケアトリエ,0
1555,6122001039396,新規,0,2025-07-07,2025-07-07,福魚株式会社,,株式会社,大阪府,八尾市,大竹７丁目１６９ブルースカイコート２１０号室,,27,212,5810854,,,,,,,2025-07-07,1,,,,,フクギョ,0
1566,6140003022294,新規,0,2025-07-07,2025-07-07,合同会社ｔｅａｍＡＩ,,合同会社,兵庫県,神戸市中央区,下山手通２丁目１１番２２号,,28,110,6500011,,,,,,,2025-07-07,1,,,,,チームアイ,0
1573,6170001018696,新規,0,2025-07-07,2025-07-07,株式会社松井,,株式会社,和歌山県,和歌山市,船所８１－１６７,,30,201,6408461,,,,,,,2025-07-07,1,,,,,マツイ,0
1579,6180003028701,新規,0,2025-07-07,2025-07-07,合同会社クルトン,,合同会社,愛知県,春日井市,高蔵寺町北１丁目１７９番地・２Ｆ,,23,206,4870016,,,,,,,2025-07-07,1,,,,,クルトン,0
1580,6180005021150,新規,0,2025-07-07,2025-07-07,一般社団法人リエゾン,,その他の設立登記法人,愛知県,名古屋市東区,矢田１丁目１０－３１エツカ大曽根ビル２０２,,23,102,4610040,,,,,,,2025-07-07,1,,,,,リエゾン,0
1581,6180301039961,新規,0,2025-07-07,2025-07-07,株式会社暖家,,株式会社,愛知県,豊川市,伊奈町北村９２番地,,23,207,4410105,,,,,,,2025-07-07,1,,,,,ダンケ,0
1585,6190001032357,新規,0,2025-07-07,2025-07-07,株式会社イロトカタチ,,株式会社,三重県,伊勢市,小俣町宮前８５番地,,24,203,5190504,,,,,,,2025-07-07,1,,,,,イロトカタチ,0
1586,6190001032365,新規,0,2025-07-07,2025-07-07,株式会社エムケイエス,,株式会社,三重県,鈴鹿市,寺家１丁目２８番７号,,24,207,5100254,,,,,,,2025-07-07,1,,,,,エムケイエス,0
1587,6200001043955,新規,0,2025-07-07,2025-07-07,株式会社Ｍ’ｓ,,株式会社,岐阜県,揖斐郡池田町,萩原１３３４番地の１,,21,404,5032416,,,,,,,2025-07-07,1,,,,,エムズ,0
1588,6200001043963,新規,0,2025-07-07,2025-07-07,株式会社チャイルドホープ,,株式会社,岐阜県,岐阜市,宇佐南１丁目１２－１０,,21,201,5008367,,,,,,,2025-07-07,1,,,,,チャイルドホープ,0
1589,6200001043971,新規,0,2025-07-07,2025-07-07,株式会社丸通ホールディングス,,株式会社,岐阜県,郡上市,美並町白山８３３番地,,21,219,5014106,,,,,,,2025-07-07,1,,,,,マルツウホールディングス,0
1590,6200001043996,新規,0,2025-07-07,2025-07-07,株式会社ケイズテック,,株式会社,岐阜県,多治見市,笠原町４２１０番地の１,,21,204,5070901,,,,,,,2025-07-07,1,,,,,ケイズテック,0
1594,6200003006910,新規,0,2025-07-07,2025-07-07,２２３Ｇｌｏｂａｌ　Ｔｒａｄｉｎｇ合同会社,,合同会社,岐阜県,羽島郡笠松町,門間１６２７番地,,21,303,5016065,,,,,,,2025-07-07,1,,,,,ツツミグローバルトレーディング,0
1595,6210001020227,新規,0,2025-07-07,2025-07-07,株式会社エムズファクトリーホールディングス,,株式会社,福井県,福井市,下森田桜町２０５番地,,18,201,9100146,,,,,,,2025-07-07,1,,,,,エムズファクトリーホールディングス,0
1597,6220005008977,新規,0,2025-07-07,2025-07-07,一般社団法人志津良の荘,,その他の設立登記法人,石川県,輪島市,門前町皆月ソの１５１番地,,17,204,9272271,,,,,,,2025-07-07,1,,,,,シツラノショウ,0
1602,6240001065178,新規,0,2025-07-07,2025-07-07,株式会社福山クリーナー,,株式会社,広島県,福山市,新涯町３丁目２７番８号,,34,207,7210955,,,,,,,2025-07-07,1,,,,,フクヤマクリーナー,0
1603,6240001065186,新規,0,2025-07-07,2025-07-07,サツキ設備株式会社,,株式会社,広島県,広島市佐伯区,五日市５丁目３番１－１０３号,,34,108,7315127,,,,,,,2025-07-07,1,,,,,サツキセツビ,0
1606,6260001040344,新規,0,2025-07-07,2025-07-07,株式会社Ｌｉｎｋ,,株式会社,岡山県,倉敷市,林２８０番地１ブランネージュ１０１,,33,202,7100142,,,,,,,2025-07-07,1,,,,,リンク,0
1608,6260003005238,新規,0,2025-07-07,2025-07-07,合同会社Ｙｅａｇｅｒ,,合同会社,岡山県,岡山市北区,富田町２丁目１番３号シスター富田町マンション３０１,,33,101,7000816,,,,,,,2025-07-07,1,,,,,イエガー,0
1610,6270003001764,新規,0,2025-07-07,2025-07-07,足森合同会社,,合同会社,鳥取県,米子市,富益町５９番地１３,,31,202,6830103,,,,,,,2025-07-07,1,,,,,アシモリ,0
1612,6280001009453,新規,0,2025-07-07,2025-07-07,株式会社カービス,,株式会社,島根県,益田市,あけぼの本町９番地２０,,32,204,6980026,,,,,,,2025-07-07,1,,,,,カービス,0
1619,6290001110532,新規,0,2025-07-07,2025-07-07,株式会社グランツ,,株式会社,福岡県,福岡市東区,千早４丁目１４番１－１５１５号,,40,131,8130044,,,,,,,2025-07-07,1,,,,,グランツ,0
1620,6290001110631,新規,0,2025-07-07,2025-07-07,株式会社佐藤笑事,,株式会社,福岡県,福岡市博多区,中洲５丁目３番８号アクア博多５Ｆ,,40,132,8100801,,,,,,,2025-07-07,1,,,,,サトウショウジ,0
1624,6290803005095,新規,0,2025-07-07,2025-07-07,ＳＵＳＵＭＵ合同会社,,合同会社,福岡県,直方市,大字下境３９７０番地５,,40,204,8220007,,,,,,,2025-07-07,1,,,,,ススム,0
1625,6300001014260,新規,0,2025-07-07,2025-07-07,株式会社リペアラボ,,株式会社,佐賀県,三養基郡みやき町,大字白壁２２３０番地１,,41,346,8490111,,,,,,,2025-07-07,1,,,,,リペアラボ,0
1626,6300001014269,新規,0,2025-07-07,2025-07-07,株式会社Ｒｕｆｕｒｅａ,,株式会社,佐賀県,嬉野市,嬉野町大字下野甲５７００番地１７,,41,209,8430302,,,,,,,2025-07-07,1,,,,,ルフレア,0
1628,6310001019688,新規,0,2025-07-07,2025-07-07,ＭＩＮＤＥＯ　Ｊａｐａｎ株式会社,,株式会社,長崎県,長崎市,家野町５番１９号,,42,201,8528136,,,,,,,2025-07-07,1,,,,,ミンディオジャパン,0
1633,6330003011105,新規,0,2025-07-07,2025-07-07,合同会社慎栄Ｃｏｍｐａｎｙ,,合同会社,熊本県,熊本市南区,八分字町２８８８番地,,43,104,8615253,,,,,,,2025-07-07,1,,,,,シンエイカンパニー,0
1636,6340003004883,新規,0,2025-07-07,2025-07-07,合同会社つきの環,,合同会社,鹿児島県,鹿児島市,東谷山２丁目１６番３号,,46,201,8910113,,,,,,,2025-07-07,1,,,,,ツキノワ,0
1637,6360001035417,新規,0,2025-07-07,2025-07-07,ＨｕｍａｎＬｅｆｔ株式会社,,株式会社,沖縄県,浦添市,伊祖２丁目２番５号,,47,208,9012132,,,,,,,2025-07-07,1,,,,,ヒューマンレフト,0
1638,6360001035441,新規,0,2025-07-07,2025-07-07,株式会社裕進建設フォーム,,株式会社,沖縄県,島尻郡南風原町,字新川１６９－４伊佐ハイツ１０２,,47,350,9011105,,,,,,,2025-07-07,1,,,,,ユウシンケンセツフォーム,0
1645,6380003006083,新規,0,2025-07-07,2025-07-07,合同会社ＨＵＥＬＯ,,合同会社,福島県,郡山市,桑野４丁目５番地の９桑野タウンハウスＦ棟４号,,07,203,9638025,,,,,,,2025-07-07,1,,,,,ヒュエロ,0
1646,6410001014209,新規,0,2025-07-07,2025-07-07,株式会社Ｓｔｕｄｉｏ　ＱＷＡ,,株式会社,秋田県,秋田市,山王７丁目５番１０号ワタルビル,,05,201,0100951,,,,,,,2025-07-07,1,,,,,スタジオキューダブリューエー,0
1649,6430001094777,新規,0,2025-07-07,2025-07-07,高山株式会社,,株式会社,北海道,札幌市南区,藤野三条１１丁目１０番３２号ジェイライブビル１０２号,,01,106,0612283,,,,,,,2025-07-07,1,,,,,タカヤマ,0
1650,6430003017827,新規,0,2025-07-07,2025-07-07,合同会社Ｓ‐ｓｏｌｅｉｌ,,合同会社,北海道,札幌市東区,苗穂町９丁目３番１５号,,01,103,0650043,,,,,,,2025-07-07,1,,,,,エスソレイユ,0
1651,6430003017835,新規,0,2025-07-07,2025-07-07,ＳＵＺ合同会社,,合同会社,北海道,札幌市北区,北三十条西１１丁目２番２８号,,01,102,0010030,,,,,,,2025-07-07,1,,,,,サウザ,0
1655,6460101007727,新規,0,2025-07-07,2025-07-07,株式会社タロー牧場,,株式会社,北海道,広尾郡広尾町,字紋別１７線９２番地,,01,642,0892446,,,,,,,2025-07-07,1,,,,,タローボクジョウ,0
1659,6470003002916,新規,0,2025-07-07,2025-07-07,合同会社ｗｉｌｌ,,合同会社,香川県,高松市,上福岡町９０１－３ファミール上福岡２０３号室,,37,201,7600077,,,,,,,2025-07-07,1,,,,,,0
1674,7010001256492,新規,0,2025-07-07,2025-07-07,Ｏｎｅ　Ｍｏｒｅ　Ｗｏｒｋｓ株式会社,,株式会社,東京都,千代田区,神田多町２丁目１番地２３神田東山ビル７Ｆ・８Ｆ,,13,101,1010046,,,,,,,2025-07-07,1,,,,,ワンモアワークス,0
1675,7010001256518,新規,0,2025-07-07,2025-07-07,ＲＯＴＨ　Ｃｒｅａｔｅ株式会社,,株式会社,東京都,中央区,東日本橋１丁目１１番１７号クレジデンス日本橋浜町４０３号室,,13,102,1030004,,,,,,,2025-07-07,1,,,,,ロスクリエイト,0
1676,7010001256526,新規,0,2025-07-07,2025-07-07,株式会社モルフィズム,,株式会社,東京都,中央区,日本橋室町１丁目１１番１２号日本橋水野ビル７階,,13,102,1030022,,,,,,,2025-07-07,1,,,,,モルフィズム,0
1677,7010001256591,新規,0,2025-07-07,2025-07-07,ウェルベース株式会社,,株式会社,東京都,文京区,目白台３丁目１８番１９号１Ｆ,,13,105,1120015,,,,,,,2025-07-07,1,,,,,ウェルベース,0
1682,7010003047881,新規,0,2025-07-07,2025-07-07,合同会社ｓｗｅｅｔ,,合同会社,東京都,中央区,銀座７丁目１３番６号サガミビル２階,,13,102,1040061,,,,,,,2025-07-07,1,,,,,スイート,0
1685,7010005040281,新規,0,2025-07-07,2025-07-07,きづき行政書士法人,,その他の設立登記法人,東京都,中央区,日本橋茅場町２丁目１２番１０号ＰＭＯＥＸ日本橋茅場町,,13,102,1030025,,,,,,,2025-07-07,1,,,,,キヅキ,0
1686,7010005040298,新規,0,2025-07-07,2025-07-07,一般社団法人銀河第１１号,,その他の設立登記法人,東京都,中央区,日本橋１丁目４番１号日本橋一丁目ビルディング,,13,102,1030027,,,,,,,2025-07-07,1,,,,,ギンガダイジュウイチゴウ,0
1687,7010005040331,新規,0,2025-07-07,2025-07-07,一般社団法人日本マイナー世代ラクロス推進機構,,その他の設立登記法人,東京都,中央区,日本橋横山町９番１３号,,13,102,1030003,,,,,,,2025-07-07,1,,,,,ニホンマイナーセダイラクロススイシンキコウ,0
1695,7010401191273,新規,0,2025-07-07,2025-07-07,ポジキャス株式会社,,株式会社,東京都,港区,虎ノ門３丁目４番７号虎ノ門３６森ビル８階,,13,103,1050001,,,,,,,2025-07-07,1,,,,,ポジキャス,0
1696,7010401191496,新規,0,2025-07-07,2025-07-07,ＯＮ＆ＢＯＡＲＤホールディングス株式会社,,株式会社,東京都,港区,虎ノ門１丁目１７番１号虎ノ門ヒルズビジネスタワー１５階,,13,103,1050001,,,,,,,2025-07-07,1,,,,,オンボードホールディングス,0
1698,7010403035494,新規,0,2025-07-07,2025-07-07,Ｖｉｒｉｈｕｂカニザ合同会社,,合同会社,東京都,港区,芝５丁目１９－６ＡＲＩＳＴＯ三田１１階,,13,103,1080014,,,,,,,2025-07-07,1,,,,,ビリハブカニザ,0
1699,7010403035503,新規,0,2025-07-07,2025-07-07,合同会社ＸＩＧＡ　Ｃｏｎｓｕｌｔｉｎｇ,,合同会社,東京都,港区,芝４丁目１６番２－１９０７号,,13,103,1080014,,,,,,,2025-07-07,1,,,,,サイガコンサルティング,0
1700,7010403035511,新規,0,2025-07-07,2025-07-07,ＧＮＭＩジャパン合同会社,,合同会社,東京都,港区,六本木１丁目９番１０号アークヒルズ仙石山森タワー２８階ベーカー＆マッケンジー法律事務所（外国法共同事業）内,,13,103,1060032,,,,,,,2025-07-07,1,,,,,ジーエヌエムアイジャパン,0
1702,7010501054355,新規,0,2025-07-07,2025-07-07,オーパス・ラボ株式会社,,株式会社,東京都,台東区,元浅草１丁目５番５－１１０１号ネオマイム新御徒町ＩＩ,00139807,13,106,1110041,,,,,,,2025-07-07,1,,,,,オーパスラボ,0
1704,7010503007906,新規,0,2025-07-07,2025-07-07,合同会社ＦＬＡＧ,,合同会社,東京都,台東区,池之端２丁目４番２２号リック池之端２０３,,13,106,1100008,,,,,,,2025-07-07,1,,,,,フラッグ,0
1705,7010601067570,新規,0,2025-07-07,2025-07-07,株式会社ムニワークス,,株式会社,東京都,江東区,森下４丁目１３番１２号ライズ４０４,,13,108,1350004,,,,,,,2025-07-07,1,,,,,ムニワークス,0
1709,7010703007788,新規,0,2025-07-07,2025-07-07,合同会社オハナライフ,,合同会社,東京都,品川区,西五反田４丁目２４－９ツリートップハウス久保３０１,,13,109,1410031,,,,,,,2025-07-07,1,,,,,オハナライフ,0
1710,7010801036334,新規,0,2025-07-07,2025-07-07,株式会社ハイプアンドコー,,株式会社,東京都,大田区,中馬込３丁目１６番１７－５０６号,,13,111,1430027,,,,,,,2025-07-07,1,,,,,ハイプアンドコー,0
1714,7010901057668,新規,0,2025-07-07,2025-07-07,株式会社ＬＩＶＩＣＡ,,株式会社,東京都,世田谷区,船橋４丁目１６番３号,,13,112,1560055,,,,,,,2025-07-07,1,,,,,リヴィカ,0
1715,7010903010055,新規,0,2025-07-07,2025-07-07,Ｐｏｔｅｎｚｉａ合同会社,,合同会社,東京都,世田谷区,駒沢２丁目２５－２４,,13,112,1540012,,,,,,,2025-07-07,1,,,,,ポテンツィア,0
1719,7011001170527,新規,0,2025-07-07,2025-07-07,株式会社Ａｃｕａ,,株式会社,東京都,渋谷区,円山町５番３号ＭＩＥＵＸ渋谷ビル８階,,13,113,1500044,,,,,,,2025-07-07,1,,,,,アクア,0
1720,7011001170717,新規,0,2025-07-07,2025-07-07,株式会社ＥＩＧＨＴ．,,株式会社,東京都,目黒区,大橋２丁目２番３号,,13,110,1530044,,,,,,,2025-07-07,1,,,,,エイト,0
1721,7011001171005,新規,0,2025-07-07,2025-07-07,株式会社戸狩温泉ホールディングス,,株式会社,東京都,渋谷区,猿楽町１８番１２号,,13,113,1500033,,,,,,,2025-07-07,1,,,,,トガリオンセンホールディングス,0
1724,7011101112321,新規,0,2025-07-07,2025-07-07,Ｇｌｏｂｉｒｉｓｅ株式会社,,株式会社,東京都,新宿区,西新宿３丁目３番１３号西新宿水間ビル６階,,13,104,1600023,,,,,,,2025-07-07,1,,,,,グロビライズ,0
1725,7011101112338,新規,0,2025-07-07,2025-07-07,ロイヤルホーク株式会社,,株式会社,東京都,新宿区,西新宿７丁目２２番３３号Ｐｏｌａｒ西新宿５階,,13,104,1600023,,,,,,,2025-07-07,1,,,,,ロイヤルホーク,0
1726,7011103016082,新規,0,2025-07-07,2025-07-07,合同会社ウィスカー,,合同会社,東京都,新宿区,西新宿３丁目３番１３号西新宿水間ビル２Ｆ,,13,104,1600023,,,,,,,2025-07-07,1,,,,,ウィスカー,0
1733,7011303005620,新規,0,2025-07-07,2025-07-07,合同会社ＯＺ,,合同会社,東京都,杉並区,和泉３丁目４６番９号,,13,115,1680063,,,,,,,2025-07-07,1,,,,,オズ,0
1738,7011803006952,新規,0,2025-07-07,2025-07-07,合同会社Ｌｉｎ,,合同会社,東京都,足立区,綾瀬６丁目２８番８号シャンテ綾瀬１０４,,13,121,1200005,,,,,,,2025-07-07,1,,,,,リン,0
1739,7012401043289,新規,0,2025-07-07,2025-07-07,株式会社ＭＪＲ　Ａｓｓｅｔ,,株式会社,東京都,武蔵野市,吉祥寺本町２丁目２８－１６－５０４,,13,203,1800004,,,,,,,2025-07-07,1,,,,,エムジェイアールアセット,0
1742,7012803003790,新規,0,2025-07-07,2025-07-07,合同会社猫屋万年堂,,合同会社,東京都,武蔵村山市,岸３丁目２０－１０,,13,223,2080031,,,,,,,2025-07-07,1,,,,,ネコヤマンネンドウ,0
1746,7020001163457,新規,0,2025-07-07,2025-07-07,株式会社カラフルマインド,,株式会社,神奈川県,横浜市磯子区,氷取沢町１０１０番地４３棟４３１２号,,14,107,2350043,,,,,,,2025-07-07,1,,,,,カラフルマインド,0
1747,7020001163738,新規,0,2025-07-07,2025-07-07,株式会社大木建築工房,,株式会社,神奈川県,横浜市戸塚区,平戸１丁目１５番２５－１００３号,,14,110,2440802,,,,,,,2025-07-07,1,,,,,オオキケンチクコウボウ,0
1753,7021001085682,新規,0,2025-07-07,2025-07-07,株式会社ナインテン,,株式会社,神奈川県,相模原市緑区,相原２丁目１７番４号,,14,151,2520141,,,,,,,2025-07-07,1,,,,,ナインテン,0
1757,7030001167465,新規,0,2025-07-07,2025-07-07,パンプキン株式会社,,株式会社,埼玉県,朝霞市,西原１丁目８番４０号,,11,227,3510034,,,,,,,2025-07-07,1,,,,,パンプキン,0
1760,7030003027122,新規,0,2025-07-07,2025-07-07,合同会社小嶋商店,,合同会社,埼玉県,久喜市,桜田２丁目６番２－３０７,,11,232,3400203,,,,,,,2025-07-07,1,,,,,コジマショウテン,0
1761,7030003027130,新規,0,2025-07-07,2025-07-07,合同会社ｂｅｌｌｅ,,合同会社,埼玉県,久喜市,久喜中央２丁目６－２３ＯｈａｎａＩ１階,00139812,11,232,3460003,,,,,,,2025-07-07,1,,,,,ベル,0
1774,7050001056889,新規,0,2025-07-07,2025-07-07,Ａ＆Ｙ　ＧＲＯＵＰ株式会社,,株式会社,茨城県,坂東市,矢作３２６０番地,,08,228,3060624,,,,,,,2025-07-07,1,,,,,エーアンドワイグループ,0
1775,7050001056897,新規,0,2025-07-07,2025-07-07,株式会社ＯＨＮＯ　ＷＯＲＫＳ,,株式会社,茨城県,つくば市,中内２８０番地２,,08,220,3050068,,,,,,,2025-07-07,1,,,,,オオノワークス,0
1778,7060001038358,新規,0,2025-07-07,2025-07-07,株式会社よしかつ農産,,株式会社,栃木県,宇都宮市,鶴田町３１９１番地４,,09,201,3200851,,,,,,,2025-07-07,1,,,,,ヨシカツノウサン,0
1779,7060003005629,新規,0,2025-07-07,2025-07-07,Ｓｏｌｉｄａｒｉｔｕｓ合同会社,,合同会社,栃木県,小山市,西城南４丁目１７番地１,,09,208,3230820,,,,,,,2025-07-07,1,,,,,ソリダリタス,0
1785,7080001027020,新規,0,2025-07-07,2025-07-07,株式会社ＷＥＬＤＯＷ,,株式会社,静岡県,静岡市葵区,瀬名川２丁目２－３５ＭＯＯＲＳＰＬＡＣＥ２０２,,22,101,4200913,,,,,,,2025-07-07,1,,,,,ウェルドウ,0
1796,7100003008263,新規,0,2025-07-07,2025-07-07,合同会社木下ダイヤモンド,,合同会社,長野県,岡谷市,長地柴宮２丁目６番６号,,20,204,3940083,,,,,,,2025-07-07,1,,,,,キノシタダイヤモンド,0
1797,7100005013369,新規,0,2025-07-07,2025-07-07,一般社団法人日本アニマルウェルフェア協会,,その他の設立登記法人,長野県,飯田市,北方１０２３番地１,,20,205,3950151,,,,,,,2025-07-07,1,,,,,ニホンアニマルウェルフェア,0
1815,7120001277528,新規,0,2025-07-07,2025-07-07,ジュウガツハン株式会社,,株式会社,大阪府,大阪市西区,江之子島１丁目１０番１５－３２１号,,27,106,5500006,,,,,,,2025-07-07,1,,,,,ジュウガツハン,0
1816,7120001277536,新規,0,2025-07-07,2025-07-07,株式会社メシアｆｉｆｔｙ,,株式会社,大阪府,大阪市福島区,鷺洲５丁目１２番１－１５０４号,,27,103,5530002,,,,,,,2025-07-07,1,,,,,メシアフィフティ,0
1817,7120001277577,新規,0,2025-07-07,2025-07-07,日本佳依株式会社,,株式会社,大阪府,大阪市中央区,久太郎町２丁目１番４－１３０９号,,27,128,5410056,,,,,,,2025-07-07,1,,,,,ニホンカイ,0
1820,7120003029927,新規,0,2025-07-07,2025-07-07,合同会社ＺＥＮ,,合同会社,大阪府,大阪市東成区,東小橋３丁目１７番１２号,,27,115,5370024,,,,,,,2025-07-07,1,,,,,ゼン,0
1823,7120101071962,新規,0,2025-07-07,2025-07-07,株式会社コジマ設備,,株式会社,大阪府,松原市,天美北８丁目４番１号,,27,217,5800031,,,,,,,2025-07-07,1,,,,,コジマセツビ,0
1824,7120101072003,新規,0,2025-07-07,2025-07-07,株式会社ワールドオフィス,,株式会社,大阪府,泉南郡熊取町,五月ヶ丘２丁目２３番２９号,,27,361,5900445,,,,,,,2025-07-07,1,,,,,ワールドオフィス,0
1825,7120101072036,新規,0,2025-07-07,2025-07-07,株式会社Ｂｏｎｖａｘ,,株式会社,大阪府,藤井寺市,青山２丁目８番９号,,27,226,5830015,,,,,,,2025-07-07,1,,,,,ボンバックス,0
1827,7120105010025,新規,0,2025-07-07,2025-07-07,一般社団法人ゆとりの会,,その他の設立登記法人,大阪府,堺市北区,長曽根町３０２４番地３７,,27,146,5918025,,,,,,,2025-07-07,1,,,,,ユトリノカイ,0
1829,7120901051156,新規,0,2025-07-07,2025-07-07,株式会社ランドホールディングス,,株式会社,大阪府,茨木市,西駅前町５番１０号茨木大同生命ビル６階,,27,211,5670032,,,,,,,2025-07-07,1,,,,,ランドホールディングス,0
1830,7120901051164,新規,0,2025-07-07,2025-07-07,株式会社３ｒｄ　Ｄｅｓｉｇｎ,,株式会社,大阪府,豊中市,中桜塚３丁目１０番３３－８０２号,,27,203,5610881,,,,,,,2025-07-07,1,,,,,サードデザイン,0
1831,7120901051180,新規,0,2025-07-07,2025-07-07,ｔｓｕｍｕｎｉｃｏ株式会社,,株式会社,大阪府,吹田市,内本町２丁目１番２号,,27,205,5640032,,,,,,,2025-07-07,1,,,,,ツムニコ,0
1832,7120901051189,新規,0,2025-07-07,2025-07-07,株式会社Ｇｌｏｂａｌ　Ｇｌｏｗ,,株式会社,大阪府,池田市,畑２丁目１番２３号山下ビル２０１号室,,27,204,5630021,,,,,,,2025-07-07,1,,,,,グローバルグロウ,0
1833,7120903005746,新規,0,2025-07-07,2025-07-07,合同会社ＳＧＲ　ｍａｄｅ,,合同会社,大阪府,摂津市,鳥飼新町２丁目１１番１１号,,27,224,5660065,,,,,,,2025-07-07,1,,,,,エスジーアールメイド,0
1837,7122003003242,新規,0,2025-07-07,2025-07-07,合同会社アルマタッグ,,合同会社,大阪府,東大阪市,菱屋西３丁目９－３,,27,227,5770807,,,,,,,2025-07-07,1,,,,,アルマタッグ,0
1841,7130001080055,新規,0,2025-07-07,2025-07-07,株式会社Ｓａｓｕｒａｉ,,株式会社,京都府,京都市下京区,七条通油小路東入大黒町２２７番地第２キョートビル４０２,,26,106,6008223,,,,,,,2025-07-07,1,,,,,サスライ,0
1845,7140001139131,新規,0,2025-07-07,2025-07-07,株式会社ギャロップファーム,,株式会社,兵庫県,神戸市中央区,新港町１１番１号,,28,110,6500041,,,,,,,2025-07-07,1,,,,,ギャロップファーム,0
1846,7140001139148,新規,0,2025-07-07,2025-07-07,Ｓｃｈｎｉｔｔ　Ｔｅａｍ株式会社,,株式会社,兵庫県,神戸市中央区,下山手通２丁目１３番３号,,28,110,6500011,,,,,,,2025-07-07,1,,,,,シュニットチーム,0
1849,7140003022244,新規,0,2025-07-07,2025-07-07,合同会社Ｍｙｔｈｉｎｇ,,合同会社,兵庫県,神戸市垂水区,狩口台７丁目６番１ラ・メール狩口ＩＩ１番館３０３号室,00139828,28,108,6550049,,,,,,,2025-07-07,1,,,,,マイシン,0
1852,7150001028250,新規,0,2025-07-07,2025-07-07,株式会社Ｍｕｌｔｉ　Ｓｅｇｍｅｎｔ,,株式会社,奈良県,大和郡山市,北郡山町２０５番地５Ｒｉｃｅ２０５５Ｂｌｄｇ．３Ｆ,,29,203,6391160,,,,,,,2025-07-07,1,,,,,マルチセグメント,0
1855,7160001026864,新規,0,2025-07-07,2025-07-07,ｓｍｉｌｅｙ‐ｈｏｍｅ株式会社,,株式会社,滋賀県,米原市,顔戸１４１５番地４８,,25,214,5210072,,,,,,,2025-07-07,1,,,,,スマイリーホーム,0
1856,7170001018695,新規,0,2025-07-07,2025-07-07,株式会社ａｃｅｔｏ,,株式会社,和歌山県,和歌山市,出口甲賀丁５０番地,,30,201,6408282,,,,,,,2025-07-07,1,,,,,アチェット,0
1857,7170003002235,新規,0,2025-07-07,2025-07-07,合同会社そもそも,,合同会社,和歌山県,有田郡湯浅町,大字湯浅１５９４番地２３,,30,361,6430004,,,,,,,2025-07-07,1,,,,,ソモソモ,0
1865,7180301039977,新規,0,2025-07-07,2025-07-07,株式会社ワタナベ,,株式会社,愛知県,豊橋市,馬見塚町２５番地,,23,201,4418007,,,,,,,2025-07-07,1,,,,,ワタナベ,0
1870,7190001032356,新規,0,2025-07-07,2025-07-07,酒井総業株式会社,,株式会社,三重県,四日市市,ときわ４丁目９番２号クオーレトラストＩＩ－１０５,00139805,24,202,5100834,,,,,,,2025-07-07,1,,,,,サカイソウギョウ,0
1874,7200001043970,新規,0,2025-07-07,2025-07-07,株式会社パウダーインテリジェンス,,株式会社,岐阜県,岐阜市,大学西１丁目２５番地４岐阜市公立大学法人岐阜薬科大学内,,21,201,5011113,,,,,,,2025-07-07,1,,,,,パウダーインテリジェンス,0
1875,7200001043979,新規,0,2025-07-07,2025-07-07,株式会社トーカイ営塗,,株式会社,岐阜県,多治見市,金岡町３丁目８９番地,,21,204,5070016,,,,,,,2025-07-07,1,,,,,トーカイエイト,0
1876,7200001043995,新規,0,2025-07-07,2025-07-07,株式会社米ぬか酵素風呂,,株式会社,岐阜県,加茂郡八百津町,和知２１３２－２,,21,505,5050305,,,,,,,2025-07-07,1,,,,,コメヌカコウソブロ,0
1877,7200003006901,新規,0,2025-07-07,2025-07-07,ＴＮＴ合同会社,,合同会社,岐阜県,高山市,奥飛騨温泉郷神坂４００番地１,,21,203,5061421,,,,,,,2025-07-07,1,,,,,,0
1880,7230001020991,新規,0,2025-07-07,2025-07-07,田形電気事務所株式会社,,株式会社,富山県,高岡市,戸出町５丁目６番６０号,,16,202,9391104,,,,,,,2025-07-07,1,,,,,タガタデンキジムショ,0
1886,7260001040319,新規,0,2025-07-07,2025-07-07,サントラスト株式会社,,株式会社,岡山県,倉敷市,連島町連島１４３番地１,,33,202,7128011,,,,,,,2025-07-07,1,,,,,サントラスト,0
1888,7260003005245,新規,0,2025-07-07,2025-07-07,ｔａｍａｓｉｓ合同会社,,合同会社,岡山県,井原市,西江原町２９６１番地４,,33,207,7150006,,,,,,,2025-07-07,1,,,,,タマシス,0
1895,7290001110614,新規,0,2025-07-07,2025-07-07,株式会社新幸エフディー,,株式会社,福岡県,福岡市早良区,小田部３丁目１３番１８号,,40,137,8140032,,,,,,,2025-07-07,1,,,,,シンコウエフディー,0
1897,7290003017056,新規,0,2025-07-07,2025-07-07,合同会社ｐｉｎｚｏｌｏ　ｆｉｌｍ,,合同会社,福岡県,福岡市早良区,城西３丁目１番７号Ｂｉｇｌｕｃｋ西新,,40,137,8140003,,,,,,,2025-07-07,1,,,,,ピンゾロフィルム,0
1906,7330003011104,新規,0,2025-07-07,2025-07-07,合同会社スミカラフ,,合同会社,熊本県,熊本市北区,梶尾町１７７１番地１０,,43,105,8615512,,,,,,,2025-07-07,1,,,,,スミカラフ,0
1907,7360001035432,新規,0,2025-07-07,2025-07-07,株式会社おきぎんサクセスパートナーズ,,株式会社,沖縄県,那覇市,牧志１丁目３番４５号牧志ビル２階,,47,201,9000013,,,,,,,2025-07-07,1,,,,,オキギンサクセスパートナーズ,0
1911,7360003015077,新規,0,2025-07-07,2025-07-07,合同会社Ｌｉｆｅ　Ｓｔｙｌｅ,,合同会社,沖縄県,うるま市,与那城屋慶名４３３番地２,,47,213,9042304,,,,,,,2025-07-07,1,,,,,ライフスタイル,0
1913,7370001052773,新規,0,2025-07-07,2025-07-07,株式会社山真商事,,株式会社,宮城県,気仙沼市,赤岩小田４６番地３,,04,205,9880185,,,,,,,2025-07-07,1,,,,,ヤマシンショウジ,0
1914,7370001052781,新規,0,2025-07-07,2025-07-07,株式会社ｄｓウンノビル,,株式会社,宮城県,仙台市宮城野区,小田原山本丁１００番地の１０雲野ビル,,04,102,9830817,,,,,,,2025-07-07,1,,,,,ディーエスウンノビル,0
1922,7410001014208,新規,0,2025-07-07,2025-07-07,株式会社シーズジャパン,,株式会社,秋田県,由利本荘市,石脇字山ノ神１１番地７１３,,05,210,0150014,,,,,,,2025-07-07,1,,,,,シーズジャパン,0
1923,7420001019197,新規,0,2025-07-07,2025-07-07,株式会社カナヤス,,株式会社,青森県,八戸市,根城７丁目１番２６号,,02,203,0391166,,,,,,,2025-07-07,1,,,,,カナヤス,0
1924,7420001019206,新規,0,2025-07-07,2025-07-07,株式会社ＷｏｏｄＢａｓｅオーガ,,株式会社,青森県,上北郡六戸町,大字犬落瀬字下久保１番地３４２,,02,405,0330071,,,,,,,2025-07-07,1,,,,,ウッドベースオーガ,0
1927,7430001094751,新規,0,2025-07-07,2025-07-07,株式会社Ｇｅｍｉｎｉｔｙ,,株式会社,北海道,札幌市西区,八軒二条東２丁目４番４－２０３号,,01,107,0630862,,,,,,,2025-07-07,1,,,,,ジェミニティ,0
1938,7490001011098,新規,0,2025-07-07,2025-07-07,株式会社ＳＴＯＬＩ,,株式会社,高知県,土佐市,高岡町甲１１０１番地１０,,39,205,7811101,,,,,,,2025-07-07,1,,,,,ストリ,0
1946,8010001256517,新規,0,2025-07-07,2025-07-07,イフェクティブアセットマネジメント株式会社,,株式会社,東京都,中央区,八丁堀４丁目１番３号宝町ＴＡＴＳＵＭＩビル,,13,102,1040032,,,,,,,2025-07-07,1,,,,,イフェクティブアセットマネジメント,0
1952,8010003047897,新規,0,2025-07-07,2025-07-07,ＰｗＣアドバンストセキュリティサービス合同会社,,合同会社,東京都,千代田区,大手町１丁目１番１号大手町パークビルディング,,13,101,1000004,,,,,,,2025-07-07,1,,,,,ピーダブリューシーアドバンストセキュリティサービス,0
1953,8010005040306,新規,0,2025-07-07,2025-07-07,一般社団法人シニアファミリーみらいサポート,,その他の設立登記法人,東京都,中央区,入船３丁目９番１号第２細矢ビル２階２０３号室,,13,102,1040042,,,,,,,2025-07-07,1,,,,,シニアファミリーミライサポート,0
1954,8010005040314,新規,0,2025-07-07,2025-07-07,弁護士法人豊島総合法律事務所,,その他の設立登記法人,東京都,千代田区,平河町１丁目１番８号麹町市原ビル９階,,13,101,1020093,,,,,,,2025-07-07,1,,,,,トヨシマソウゴウホウリツジムショ,0
1960,8010401191413,新規,0,2025-07-07,2025-07-07,ＥＲ３３株式会社,,株式会社,東京都,港区,六本木１丁目６番１号,,13,103,1060032,,,,,,,2025-07-07,1,,,,,イーアールサーティースリー,0
1961,8010401191487,新規,0,2025-07-07,2025-07-07,株式会社Ａ‐Ｐｒｏｄｕｃｔ,,株式会社,東京都,港区,北青山１丁目３番３号三橋ビル３階,,13,103,1070061,,,,,,,2025-07-07,1,,,,,エイプロダクト,0
1962,8010401191520,新規,0,2025-07-07,2025-07-07,株式会社ＦＸ　Ｃｏｌｌｅｇｅ,,株式会社,東京都,港区,虎ノ門３丁目１８番６号朝日虎ノ門マンション６１４号室,,13,103,1050001,,,,,,,2025-07-07,1,,,,,エフエックスカレッジ,0
1963,8010401191529,新規,0,2025-07-07,2025-07-07,グリーンテクト株式会社,,株式会社,東京都,港区,元赤坂１丁目５番２０－２０６号,,13,103,1070051,,,,,,,2025-07-07,1,,,,,グリーンテクト,0
1965,8010403035493,新規,0,2025-07-07,2025-07-07,Ｖｉｒｉｈｕｂサソリザ合同会社,,合同会社,東京都,港区,芝５丁目１９－６ＡＲＩＳＴＯ三田１１階,,13,103,1080014,,,,,,,2025-07-07,1,,,,,ビリハブサソリザ,0
1966,8010403035502,新規,0,2025-07-07,2025-07-07,エムアンドワイ合同会社,,合同会社,東京都,港区,北青山１丁目３番１号,,13,103,1070061,,,,,,,2025-07-07,1,,,,,エムアンドワイ,0
1967,8010403035510,新規,0,2025-07-07,2025-07-07,Ｓｔｒａｔｐｈａｒｍａ　Ｎｉｐｐｏｎ合同会社,,合同会社,東京都,港区,西麻布１丁目４番４０号西麻布ＳＨＩＮＯビル４階,,13,103,1060031,,,,,,,2025-07-07,1,,,,,ストラトファーマニッポン,0
1968,8010501054354,新規,0,2025-07-07,2025-07-07,クマピカ株式会社,,株式会社,東京都,台東区,北上野１丁目１２番８－５０１号グラーナ上野,,13,106,1100014,,,,,,,2025-07-07,1,,,,,クマピカ,0
1969,8010501054362,新規,0,2025-07-07,2025-07-07,台新イノベーションズ株式会社,,株式会社,東京都,台東区,谷中３丁目２３番１０号モダーヴ西日暮里４０１,,13,106,1100001,,,,,,,2025-07-07,1,,,,,タイシンイノベーションズ,0
1970,8010503007905,新規,0,2025-07-07,2025-07-07,合同会社Ｐｏｎｙ,,合同会社,東京都,台東区,上野桜木１丁目９番２号,,13,106,1100002,,,,,,,2025-07-07,1,,,,,ポニー,0
1971,8010503007913,新規,0,2025-07-07,2025-07-07,東上野合同会社,,合同会社,東京都,台東区,東上野５丁目１２番３－６０３号ルフォンプログレ上野マークス,,13,106,1100015,,,,,,,2025-07-07,1,,,,,ヒガシウエノ,0
1974,8010601067553,新規,0,2025-07-07,2025-07-07,株式会社ファーストスカイ,,株式会社,東京都,江東区,青海２丁目７番４号,,13,108,1350064,,,,,,,2025-07-07,1,,,,,ファーストスカイ,0
1975,8010601067578,新規,0,2025-07-07,2025-07-07,株式会社ＪＡＦＩＮＤＯ,,株式会社,東京都,墨田区,錦糸１丁目２番１号アルカセントラル１４階,,13,107,1300013,,,,,,,2025-07-07,1,,,,,ジャフィンド,0
1979,8010701047926,新規,0,2025-07-07,2025-07-07,株式会社カンヤリマンヤリ,,株式会社,東京都,品川区,東五反田５丁目４番１－４０１号,,13,109,1410022,,,,,,,2025-07-07,1,,,,,カンヤリマンヤリ,0
1980,8010701047942,新規,0,2025-07-07,2025-07-07,株式会社ＴＧＣ,,株式会社,東京都,品川区,戸越２丁目５番３号,,13,109,1420041,,,,,,,2025-07-07,1,,,,,ティージーシー,0
1981,8010801036366,新規,0,2025-07-07,2025-07-07,株式会社ＬＩＮＯ　ＯＨＡＮＡ　Ｒ,,株式会社,東京都,大田区,西糀谷４丁目６番２号レガーロ・ノンノＩＩ４０２号室,00139830,13,111,1440034,,,,,,,2025-07-07,1,,,,,リノオハナアール,0
1986,8010903010070,新規,0,2025-07-07,2025-07-07,合同会社Ｂａｓｅ　ｔｈｒｅｅ,,合同会社,東京都,世田谷区,成城３丁目１０番３４号,,13,112,1570066,,,,,,,2025-07-07,1,,,,,ベーススリー,0
1987,8010905004797,新規,0,2025-07-07,2025-07-07,一般社団法人リベリッシマ,,その他の設立登記法人,東京都,世田谷区,太子堂４丁目１８番１５号マガザン三軒茶屋２・３Ｆ－３,,13,112,1540004,,,,,,,2025-07-07,1,,,,,リベリッシマ,0
1991,8011001170591,新規,0,2025-07-07,2025-07-07,株式会社ＭｅｔａＮｉｇｈｔ,,株式会社,東京都,渋谷区,道玄坂１丁目１０番８号渋谷道玄坂東急ビル２Ｆ－Ｃ,,13,113,1500043,,,,,,,2025-07-07,1,,,,,メタナイト,0
1992,8011001170831,新規,0,2025-07-07,2025-07-07,株式会社Ｔｅｃｈ　Ｖｏｒｔ,,株式会社,東京都,渋谷区,円山町５番３号ＭＩＥＵＸ渋谷ビル８階,,13,113,1500044,,,,,,,2025-07-07,1,,,,,テックボート,0
2005,8011301030710,新規,0,2025-07-07,2025-07-07,株式会社ＡＲＩＡ,,株式会社,東京都,杉並区,阿佐谷北３丁目４１－１３クレッシェンド阿佐ヶ谷１０２号室,,13,115,1660001,,,,,,,2025-07-07,1,,,,,アリア,0
2006,8011401027227,新規,0,2025-07-07,2025-07-07,株式会社ＩＺＵＭＩ,,株式会社,東京都,板橋区,大谷口北町２６番１－１０２号,,13,119,1730031,,,,,,,2025-07-07,1,,,,,イズミ,0
2009,8011801046396,新規,0,2025-07-07,2025-07-07,珈祥株式会社,,株式会社,東京都,葛飾区,東新小岩２丁目４－１,,13,122,1240023,,,,,,,2025-07-07,1,,,,,カショウ,0
2011,8012301014447,新規,0,2025-07-07,2025-07-07,株式会社Ｍｅａｎｓ,,株式会社,東京都,町田市,南町田２丁目６－１,,13,209,1940005,,,,,,,2025-07-07,1,,,,,ミーンズ,0
2016,8020001163621,新規,0,2025-07-07,2025-07-07,株式会社シッパー,,株式会社,神奈川県,横浜市青葉区,しらとり台１２番地４２,,14,117,2270054,,,,,,,2025-07-07,1,,,,,シッパー,0
2017,8020001163670,新規,0,2025-07-07,2025-07-07,株式会社Ｒ３４ｒｉｄｅ,,株式会社,神奈川県,川崎市中原区,上小田中３丁目２２番８号ブランノワール３０１,,14,133,2110053,,,,,,,2025-07-07,1,,,,,アールサンヨンライド,0
2018,8020001163737,新規,0,2025-07-07,2025-07-07,株式会社リフェリア,,株式会社,神奈川県,横浜市中区,尾上町５丁目８０番地神奈川中小企業センタービル７階,,14,104,2310015,,,,,,,2025-07-07,1,,,,,リフェリア,0
2020,8020003028797,新規,0,2025-07-07,2025-07-07,楓合同会社,,合同会社,神奈川県,横浜市神奈川区,子安通２丁目２８３番地１クリオ新子安参番館４０３号室,,14,102,2210021,,,,,,,2025-07-07,1,,,,,カエデ,0
2021,8020003028814,新規,0,2025-07-07,2025-07-07,Ｚｏｎｅ合同会社,,合同会社,神奈川県,横浜市西区,北幸２丁目１０番４８号むつみビル３階,,14,103,2200004,,,,,,,2025-07-07,1,,,,,ゾーン,0
2022,8020003028863,新規,0,2025-07-07,2025-07-07,ＡＤテックコンサルティング合同会社,,合同会社,神奈川県,川崎市高津区,上作延４丁目３０番３号Ｉ,00139810,14,134,2130034,,,,,,,2025-07-07,1,,,,,エーディーテックコンサルティング,0
2031,8030001167373,新規,0,2025-07-07,2025-07-07,株式会社フォーワン・ホールディングス,,株式会社,埼玉県,草加市,青柳２丁目２１－７,,11,221,3400002,,,,,,,2025-07-07,1,,,,,フォーワンホールディングス,0
2032,8030001167539,新規,0,2025-07-07,2025-07-07,株式会社グローリハイム関東,,株式会社,埼玉県,新座市,栄３丁目６番２８号,,11,230,3520014,,,,,,,2025-07-07,1,,,,,グローリハイムカントウ,0
2034,8030003027138,新規,0,2025-07-07,2025-07-07,Ｉ．ＷＥＬＬ．ＤＯＮＥ合同会社,,合同会社,埼玉県,入間市,狭山台２丁目１３番地６,,11,225,3580033,,,,,,,2025-07-07,1,,,,,アイウェルダン,0
2035,8030003027146,新規,0,2025-07-07,2025-07-07,合同会社ナツー,,合同会社,埼玉県,川口市,大字東本郷８７１番地の３９,,11,203,3340063,,,,,,,2025-07-07,1,,,,,ナツー,0
2036,8030003027162,新規,0,2025-07-07,2025-07-07,ネクシデア合同会社,,合同会社,埼玉県,さいたま市北区,別所町１０００番地１８１,,11,102,3310821,,,,,,,2025-07-07,1,,,,,ネクシデア,0
2052,8040001139413,新規,0,2025-07-07,2025-07-07,株式会社ＳＹＭＥＴＳ,,株式会社,千葉県,松戸市,六実６丁目２２番地の６,,12,207,2702204,,,,,,,2025-07-07,1,,,,,サイメッツ,0
2053,8040001139470,新規,0,2025-07-07,2025-07-07,株式会社Ｂｌｅｓｓｉｎｇ,,株式会社,千葉県,船橋市,西船６丁目８－５６,,12,204,2730031,,,,,,,2025-07-07,1,,,,,ブレッシング,0
2054,8040001139479,新規,0,2025-07-07,2025-07-07,株式会社Ｔ．Ｈ．Ａｉｒ,,株式会社,千葉県,市川市,塩焼５丁目１２番３４号,,12,203,2720114,,,,,,,2025-07-07,1,,,,,ティーエイチエアー,0
2060,8040003027888,新規,0,2025-07-07,2025-07-07,ＶＩＡＬｉｎｋ合同会社,,合同会社,千葉県,八千代市,ゆりのき台１丁目１９番１オーベルグランディオ八千代中央参番館２０２,,12,221,2760042,,,,,,,2025-07-07,1,,,,,ヴィアリンク,0
2061,8040003027979,新規,0,2025-07-07,2025-07-07,ＫａｚｅＷａｙ合同会社,,合同会社,千葉県,流山市,大字東深井８４６－３１－２Ｆ,,12,220,2700101,,,,,,,2025-07-07,1,,,,,カゼウェイ,0
2062,8040003027987,新規,0,2025-07-07,2025-07-07,Ｃｏｓｔａ　Ｍｅｌａ合同会社,,合同会社,千葉県,館山市,布良１２２５番地の２,,12,205,2940234,,,,,,,2025-07-07,1,,,,,コスタメラ,0
2071,8070003005973,新規,0,2025-07-07,2025-07-07,合同会社Ｒｅｂｏｒｎ,,合同会社,群馬県,桐生市,菱町２丁目１３６４番１,,10,203,3760001,,,,,,,2025-07-07,1,,,,,リボーン,0
2076,8080003003497,新規,0,2025-07-07,2025-07-07,合同会社ｌｏｖｉｎ,,合同会社,静岡県,静岡市駿河区,東新田４丁目１８番３３号,,22,102,4210112,,,,,,,2025-07-07,1,,,,,ラヴィン,0
2081,8080401028014,新規,0,2025-07-07,2025-07-07,アステムタナカ株式会社,,株式会社,静岡県,掛川市,成滝１８０番地の２,,22,213,4360085,,,,,,,2025-07-07,1,,,,,アステムタナカ,0
2085,8080403005300,新規,0,2025-07-07,2025-07-07,合同会社バタフライ,,合同会社,静岡県,浜松市浜名区,小松７８０番地,,22,139,4340042,,,,,,,2025-07-07,1,,,,,バタフライ,0
2096,8110001039399,新規,0,2025-07-07,2025-07-07,株式会社ｓｔｕｄｉｏ　Ｉ,,株式会社,新潟県,新潟市西蒲区,漆山２６９１番地３,,15,108,9530054,,,,,,,2025-07-07,1,,,,,スタジオアイ,0
2104,8120001277411,新規,0,2025-07-07,2025-07-07,ＭＳＪ株式会社,,株式会社,大阪府,大阪市西区,西本町１丁目８番２号三晃ビル５階,,27,106,5500005,,,,,,,2025-07-07,1,,,,,エムエスジェイ,0
2105,8120001277452,新規,0,2025-07-07,2025-07-07,株式会社ｏｋｉｍａｉ,,株式会社,大阪府,大阪市西区,京町堀１丁目８番２５号ＦＭ－Ｕｔｓｕｂｏ－Ｐａｒｋ５０１,,27,106,5500003,,,,,,,2025-07-07,1,,,,,オキマイ,0
2106,8120001277551,新規,0,2025-07-07,2025-07-07,株式会社ＴＳＡ,,株式会社,大阪府,大阪市中央区,平野町４丁目５番７号,,27,128,5410046,,,,,,,2025-07-07,1,,,,,ティーエスエー,0
2107,8120001277568,新規,0,2025-07-07,2025-07-07,千川株式会社,,株式会社,大阪府,大阪市西成区,天下茶屋２丁目２１番６号パインリーフ天下茶屋３１１号室,,27,122,5570014,,,,,,,2025-07-07,1,,,,,センカワ,0
2108,8120001277576,新規,0,2025-07-07,2025-07-07,株式会社リベロ,,株式会社,大阪府,大阪市中央区,淡路町４丁目５番４号,,27,128,5410047,,,,,,,2025-07-07,1,,,,,リベロ,0
2109,8120001277601,新規,0,2025-07-07,2025-07-07,星空デザイン株式会社,,株式会社,大阪府,大阪市西成区,北津守１丁目４番３２号,,27,122,5570061,,,,,,,2025-07-07,1,,,,,ホシゾラデザイン,0
2110,8120001277650,新規,0,2025-07-07,2025-07-07,深度科技株式会社,,株式会社,大阪府,大阪市浪速区,日本橋５丁目１４番２号大協ビル２階２６号室,,27,111,5560005,,,,,,,2025-07-07,1,,,,,シンドカジツ,0
2113,8120003029918,新規,0,2025-07-07,2025-07-07,ＧＯＬＤ　ＭＵＭ　ＥＳＴＡＴＥ合同会社,,合同会社,大阪府,大阪市住之江区,浜口西２丁目８番１９号,,27,125,5590006,,,,,,,2025-07-07,1,,,,,ゴールドマムエステート,0
2114,8120003029926,新規,0,2025-07-07,2025-07-07,合同会社スマイヨ,,合同会社,大阪府,大阪市淀川区,東三国６丁目１７番２２－４０７号,,27,123,5320002,,,,,,,2025-07-07,1,,,,,スマイヨ,0
2116,8120101072019,新規,0,2025-07-07,2025-07-07,株式会社シェマン,,株式会社,大阪府,堺市北区,百舌鳥赤畑町１丁８番地１０,,27,146,5918037,,,,,,,2025-07-07,1,,,,,シェマン,0
2117,8120101072043,新規,0,2025-07-07,2025-07-07,ＷＨＸ株式会社,,株式会社,大阪府,堺市北区,南花田町４１７－３－２１３,,27,146,5918011,,,,,,,2025-07-07,1,,,,,ダブリューエイチエックス,0
2118,8120105010024,新規,0,2025-07-07,2025-07-07,一般社団法人ＶＥＲ　Ｓｐｏｒｔｓ　Ｂａｓｅ,,その他の設立登記法人,大阪府,堺市中区,東山２８番地,,27,142,5998247,,,,,,,2025-07-07,1,,,,,ベルスポーツベース,0
2119,8120901051163,新規,0,2025-07-07,2025-07-07,株式会社フォーキャスト,,株式会社,大阪府,豊中市,緑丘１丁目１５番７号,,27,203,5600002,,,,,,,2025-07-07,1,,,,,フォーキャスト,0
2120,8120901051171,新規,0,2025-07-07,2025-07-07,株式会社かかし,,株式会社,大阪府,吹田市,南清和園町１５番１０号,,27,205,5640038,,,,,,,2025-07-07,1,,,,,カカシ,0
2123,8122003003241,新規,0,2025-07-07,2025-07-07,合同会社Ａｃｃｏｒｄ,,合同会社,大阪府,東大阪市,衣摺５丁目３番５号,,27,227,5770827,,,,,,,2025-07-07,1,,,,,アコード,0
2131,8140001139097,新規,0,2025-07-07,2025-07-07,株式会社Ｂｒｉｄｇｅ　Ｊａｐａｎ,,株式会社,兵庫県,川辺郡猪名川町,つつじが丘１丁目２０番地３,,28,301,6660245,,,,,,,2025-07-07,1,,,,,ブリッジジャパン,0
2132,8140001139155,新規,0,2025-07-07,2025-07-07,株式会社リベルテ,,株式会社,兵庫県,神崎郡福崎町,南田原７７６番地１,,28,443,6792203,,,,,,,2025-07-07,1,,,,,リベルテ,0
2133,8140001139163,新規,0,2025-07-07,2025-07-07,株式会社ウエストワン,,株式会社,兵庫県,西宮市,山口町下山口字畑山１７５９番,,28,204,6511412,,,,,,,2025-07-07,1,,,,,ウエストワン,0
2134,8140001139188,新規,0,2025-07-07,2025-07-07,株式会社将栄工務店,,株式会社,兵庫県,姫路市,西夢前台２丁目６４番地,,28,201,6712214,,,,,,,2025-07-07,1,,,,,ショウエイコウムテン,0
2137,8140005027546,新規,0,2025-07-07,2025-07-07,一般社団法人Ｖｉｓｉｏｎ＆Ｍｏｂｉｌｉｔｙ,,その他の設立登記法人,兵庫県,神戸市中央区,港島南町２丁目１番８号神戸アイセンター５階,,28,110,6500047,,,,,,,2025-07-07,1,,,,,ビジョンアンドモビリティー,0
2140,8170001018694,新規,0,2025-07-07,2025-07-07,株式会社Ｃｉｎａ,,株式会社,和歌山県,和歌山市,西浜３丁目９番６０号榎本マンション１１号,,30,201,6410036,,,,,,,2025-07-07,1,,,,,シーナ,0
2142,8170003002234,新規,0,2025-07-07,2025-07-07,合同会社Ｃｕｔｔｙ　Ｓａｒｋ,,合同会社,和歌山県,和歌山市,直川１０５４番地６,,30,201,6408481,,,,,,,2025-07-07,1,,,,,カティーサーク,0
2148,8180001167409,新規,0,2025-07-07,2025-07-07,株式会社じぇいわい,,株式会社,愛知県,名古屋市中村区,長筬町６丁目３１番地の２,,23,105,4530839,,,,,,,2025-07-07,1,,,,,ジェイワイ,0
2149,8180001167524,新規,0,2025-07-07,2025-07-07,株式会社和,,株式会社,愛知県,名古屋市緑区,大高町字砂畑４２番地の９,,23,114,4598001,,,,,,,2025-07-07,1,,,,,ヤマト,0
2150,8180001167648,新規,0,2025-07-07,2025-07-07,株式会社Ｐｉｌｏｐｅｒｎｅｔｅｓ,,株式会社,愛知県,名古屋市中川区,高畑１丁目１２６番地高畑ハイツ４０２,,23,110,4540911,,,,,,,2025-07-07,1,,,,,ピロパネテス,0
2156,8200001043986,新規,0,2025-07-07,2025-07-07,株式会社Ｅｉｇｈｔ,,株式会社,岐阜県,山県市,高富２４９３番地１,,21,215,5012105,,,,,,,2025-07-07,1,,,,,エイト,0
2160,8210001020233,新規,0,2025-07-07,2025-07-07,株式会社Ｃａｕｓｅ　Ｅｆｆｅｃｔ,,株式会社,福井県,福井市,上北野１丁目１１番２７号,,18,201,9188203,,,,,,,2025-07-07,1,,,,,コーズエフェクト,0
2161,8220001026782,新規,0,2025-07-07,2025-07-07,株式会社スペサン,,株式会社,石川県,金沢市,中央通町１１番４９号,,17,201,9200866,,,,,,,2025-07-07,1,,,,,スペサン,0
2167,8240001065168,新規,0,2025-07-07,2025-07-07,株式会社Ｓｙｕｗａ,,株式会社,広島県,安芸郡熊野町,川角２丁目１７番１５号,,34,307,7314223,,,,,,,2025-07-07,1,,,,,シュウワ,0
2169,8250001021228,新規,0,2025-07-07,2025-07-07,株式会社北川メンテナンス,,株式会社,山口県,山陽小野田市,大休団地１１番３号,,35,216,7560008,,,,,,,2025-07-07,1,,,,,キタガワメンテナンス,0
2170,8260001040350,新規,0,2025-07-07,2025-07-07,株式会社南電気,,株式会社,岡山県,岡山市南区,芳泉１丁目４－８,,33,104,7028027,,,,,,,2025-07-07,1,,,,,ミナミデンキ,0
2181,8290801031686,新規,0,2025-07-07,2025-07-07,株式会社マツヤハウス,,株式会社,福岡県,北九州市小倉南区,八幡町２１番４号,,40,107,8020805,,,,,,,2025-07-07,1,,,,,マツヤハウス,0
2182,8300001014259,新規,0,2025-07-07,2025-07-07,株式会社川崎工業,00139819,株式会社,佐賀県,佐賀市,大和町大字池上６３４番地１,,41,201,8400212,,,,,,,2025-07-07,1,,,,,カワサキコウギョウ,0
2183,8300001014267,新規,0,2025-07-07,2025-07-07,株式会社さがサイコー,,株式会社,佐賀県,鹿島市,大字山浦甲６４番地３,,41,207,8491314,,,,,,,2025-07-07,1,,,,,サガサイコー,0
2191,8360001035423,新規,0,2025-07-07,2025-07-07,株式会社ＢＵＬＡ　ＪＡＰＡＮ,,株式会社,沖縄県,国頭郡今帰仁村,字古宇利２９４番１,,47,306,9050406,,,,,,,2025-07-07,1,,,,,ブラジャパン,0
2194,8360003015068,新規,0,2025-07-07,2025-07-07,Ｈｙｐｒｏ合同会社,,合同会社,沖縄県,那覇市,首里石嶺町３丁目２１５座波第８アパート４－Ａ,,47,201,9030804,,,,,,,2025-07-07,1,,,,,ハイプロ,0
2195,8360005007253,新規,0,2025-07-07,2025-07-07,特定非営利活動法人ＳｔａｒＣｒａｆｔｅｒｓ,,その他の設立登記法人,沖縄県,宜野湾市,真志喜２丁目８番３－５０５号ライオンズマンション真志喜第６,,47,205,9012224,,,,,,,2025-07-07,1,,,,,スタークラフターズ,0
2196,8370001052772,新規,0,2025-07-07,2025-07-07,ＫＳＮ株式会社,,株式会社,宮城県,気仙沼市,赤岩宮口下９０番地１,,04,205,9880000,,,,,,,2025-07-07,1,,,,,ケイエスエヌ,0
2198,8380001035421,新規,0,2025-07-07,2025-07-07,幸星株式会社,,株式会社,福島県,福島市,仲間町６番８号,,07,201,9608105,,,,,,,2025-07-07,1,,,,,コウセイ,0
2201,8390001018045,新規,0,2025-07-07,2025-07-07,株式会社千音のえがお,,株式会社,山形県,天童市,芳賀タウン南４丁目１１番１号,,06,210,9940083,,,,,,,2025-07-07,1,,,,,,0
2204,8410001014215,新規,0,2025-07-07,2025-07-07,株式会社せな,,株式会社,秋田県,男鹿市,脇本百川字相ノ沢３２番地,,05,206,0100347,,,,,,,2025-07-07,1,,,,,セナ,0
2205,8420001019205,新規,0,2025-07-07,2025-07-07,株式会社秋田住築,,株式会社,青森県,北津軽郡中泊町,大字深郷田字甘木１４０番地１６８,,02,387,0370308,,,,,,,2025-07-07,1,,,,,アキタジュウチク,0
2208,8420003003149,新規,0,2025-07-07,2025-07-07,ＩＴａｋａＮＷ合同会社,,合同会社,青森県,三戸郡五戸町,字正場沢２４番地５,,02,442,0391545,,,,,,,2025-07-07,1,,,,,アイタカネットワーク,0
2211,8430001094750,新規,0,2025-07-07,2025-07-07,株式会社Ｓａｎｂｏ　Ｂａｒｉ,,株式会社,北海道,札幌市東区,北四十二条東１７丁目４番８－１００４号,,01,103,0070842,,,,,,,2025-07-07,1,,,,,サンボバリ,0
2212,8430001094775,新規,0,2025-07-07,2025-07-07,株式会社リベイス,,株式会社,北海道,札幌市南区,南三十条西８丁目５番１号,,01,106,0050030,,,,,,,2025-07-07,1,,,,,リベイス,0
2222,8490001011097,新規,0,2025-07-07,2025-07-07,株式会社ＬＥＶＥＬ３,,株式会社,高知県,高知市,高須新町４丁目８番１８号,,39,201,7818122,,,,,,,2025-07-07,1,,,,,レヴェルスリー,0
2242,9010001256516,新規,0,2025-07-07,2025-07-07,ＣＲＥＳＣ　Ｏｎｅ株式会社,,株式会社,東京都,千代田区,丸の内２丁目２番１号岸本ビル７階,,13,101,1000005,,,,,,,2025-07-07,1,,,,,クレスクワン,0
2245,9010003047888,新規,0,2025-07-07,2025-07-07,合同会社ＡａｎｄＫ,,合同会社,東京都,千代田区,隼町３番１１号,,13,101,1020092,,,,,,,2025-07-07,1,,,,,エイアンドケイ,0
2246,9010003047896,新規,0,2025-07-07,2025-07-07,ＰｗＣビジネストランスフォーメーション合同会社,,合同会社,東京都,千代田区,大手町１丁目１番１号大手町パークビルディング,,13,101,1000004,,,,,,,2025-07-07,1,,,,,ピーダブリューシービジネストランスフォーメーション,0
2248,9010005040313,新規,0,2025-07-07,2025-07-07,一般社団法人国際平和促進機構,,その他の設立登記法人,東京都,千代田区,二番町９番３号ＴＨＥＢＡＳＥ麹町,,13,101,1020084,,,,,,,2025-07-07,1,,,,,コクサイヘイワソクシンキコウ,0
2259,9010401191412,新規,0,2025-07-07,2025-07-07,ＥＲ３２株式会社,,株式会社,東京都,港区,六本木１丁目６番１号,,13,103,1060032,,,,,,,2025-07-07,1,,,,,イーアールサーティートゥー,0
2260,9010401191461,新規,0,2025-07-07,2025-07-07,株式会社Ｕｎｓｔａｎｄａｒｄ,,株式会社,東京都,港区,北青山１丁目３－１アールキューブ青山３階,,13,103,1070061,,,,,,,2025-07-07,1,,,,,アンスタンダード,0
2261,9010401191494,新規,0,2025-07-07,2025-07-07,Ｓｏｕｌｉｎ株式会社,,株式会社,東京都,港区,南青山２丁目２番１５号ウィン青山９４２,,13,103,1070062,,,,,,,2025-07-07,1,,,,,ソウリン,0
2262,9010401191511,新規,0,2025-07-07,2025-07-07,株式会社ネルフ,,株式会社,東京都,港区,海岸１丁目１番１号ラトゥール汐留４６０９号室,,13,103,1050022,,,,,,,2025-07-07,1,,,,,ネルフ,0
2263,9010403035492,新規,0,2025-07-07,2025-07-07,Ｖｉｒｉｈｕｂオヒツジザ合同会社,,合同会社,東京都,港区,芝５丁目１９－６ＡＲＩＳＴＯ三田１１階,,13,103,1080014,,,,,,,2025-07-07,1,,,,,ビリハブオヒツジザ,0
2264,9010403035501,新規,0,2025-07-07,2025-07-07,メタトロン合同会社,,合同会社,東京都,港区,白金６丁目１４番１５号白金グリーンハイム３０６,,13,103,1080072,,,,,,,2025-07-07,1,,,,,メタトロン,0
2266,9010501054007,新規,0,2025-07-07,2025-07-07,株式会社Ｂｉｓｔｏｓ,,株式会社,東京都,台東区,浅草１丁目１４番３号,,13,106,1110032,,,,,,,2025-07-07,1,,,,,ビストス,0
2269,9010603011657,新規,0,2025-07-07,2025-07-07,ｌｅ　ｌｉｅｎグループ合同会社,,合同会社,東京都,墨田区,立花４丁目２５番２号武田マンション１０１,,13,107,1310043,,,,,,,2025-07-07,1,,,,,ルリアングループ,0
2279,9010901057690,新規,0,2025-07-07,2025-07-07,株式会社アスファリア,,株式会社,東京都,世田谷区,池尻２丁目１３番２号５０１号室,,13,112,1540001,,,,,,,2025-07-07,1,,,,,アスファリア,0
2280,9010903010053,新規,0,2025-07-07,2025-07-07,合同会社ＴＩＭＯＨＡＱＵＥ,,合同会社,東京都,世田谷区,松原１丁目８番４号ＪＬＢグランエクリュ明大前２０１,,13,112,1560043,,,,,,,2025-07-07,1,,,,,ティモハク,0
2281,9010903010061,新規,0,2025-07-07,2025-07-07,合同会社あざれあ,,合同会社,東京都,世田谷区,成城５丁目２３番１４号,,13,112,1570066,,,,,,,2025-07-07,1,,,,,アザレア,0
2282,9010905004796,新規,0,2025-07-07,2025-07-07,一般社団法人ランニングキャンパス,,その他の設立登記法人,東京都,世田谷区,用賀２丁目３３番２０号飯田ビル３Ｆ－１,,13,112,1580097,,,,,,,2025-07-07,1,,,,,ランニングキャンパス,0
2290,9011001170509,新規,0,2025-07-07,2025-07-07,株式会社レナロ,,株式会社,東京都,渋谷区,円山町５番３号ＭＩＥＵＸ渋谷ビル８階,,13,113,1500044,,,,,,,2025-07-07,1,,,,,レナロ,0
2291,9011001170649,新規,0,2025-07-07,2025-07-07,ＨＭＮＹ　Ｊａｐａｎ株式会社,,株式会社,東京都,渋谷区,道玄坂１丁目１０番８号渋谷道玄坂東急ビル２Ｆ－Ｃ,,13,113,1500043,,,,,,,2025-07-07,1,,,,,エイチエムエヌワイジャパン,0
2292,9011001170665,新規,0,2025-07-07,2025-07-07,ＥＳＯＬ株式会社,,株式会社,東京都,渋谷区,代々木２丁目２３番１号,,13,113,1510053,,,,,,,2025-07-07,1,,,,,イーソル,0
2293,9011001170772,新規,0,2025-07-07,2025-07-07,株式会社Ｅｃｏｎｏｍｉｃ　Ｇｅｅｋｓ,,株式会社,東京都,渋谷区,鉢山町５番１号ケイハウス２０１,,13,113,1500035,,,,,,,2025-07-07,1,,,,,エコノミックギークス,0
2294,9011001171060,新規,0,2025-07-07,2025-07-07,株式会社コンパス,,株式会社,東京都,目黒区,中央町１丁目１７番１４号ラティエラ学芸大学２０３号,,13,110,1520001,,,,,,,2025-07-07,1,,,,,コンパス,0
2295,9011001171077,新規,0,2025-07-07,2025-07-07,株式会社オンリーフォワード,,株式会社,東京都,渋谷区,円山町５番３号ＭＩＥＵＸ渋谷ビル８階,,13,113,1500044,,,,,,,2025-07-07,1,,,,,オンリーフォワード,0
2296,9011003022047,新規,0,2025-07-07,2025-07-07,ＳｏｎｅＢｚ合同会社,,合同会社,東京都,渋谷区,神南１丁目１１番４号ＦＰＧリンクス神南５階,,13,113,1500041,,,,,,,2025-07-07,1,,,,,ソネビーゼ,0
2300,9011101112294,新規,0,2025-07-07,2025-07-07,Ｐｏｓｉｔｉｖｅ　Ｋｉｎｄｎｅｓｓ株式会社,,株式会社,東京都,新宿区,富久町３２－３東新富久町ビル３０５号室,,13,104,1620067,,,,,,,2025-07-07,1,,,,,ポジティブカインドネス,0
2301,9011101112344,新規,0,2025-07-07,2025-07-07,株式会社マペンド,,株式会社,東京都,新宿区,市谷田町２丁目２１番地２グランベスタージュ市ヶ谷１０２,,13,104,1620843,,,,,,,2025-07-07,1,,,,,マペンド,0
2305,9011301030692,新規,0,2025-07-07,2025-07-07,大有国際株式会社,,株式会社,東京都,杉並区,下井草５丁目１１番２１号２０１,,13,115,1670022,,,,,,,2025-07-07,1,,,,,ダイユウコクサイ,0
2306,9011301030701,新規,0,2025-07-07,2025-07-07,株式会社ｃｕｒｂ,,株式会社,東京都,杉並区,高円寺南３丁目５５番２号イルミ高円寺Ａ,,13,115,1660003,,,,,,,2025-07-07,1,,,,,カーブ,0
2307,9011303005627,新規,0,2025-07-07,2025-07-07,ＯＣＴ　ＧＬＯＢＡＬ合同会社,,合同会社,東京都,杉並区,上高井戸１丁目３０番１６－２０６号,,13,115,1680074,,,,,,,2025-07-07,1,,,,,オーシーティーグローバル,0
2309,9011501032290,新規,0,2025-07-07,2025-07-07,株式会社ＭＯＭＯ　Ａ,,株式会社,東京都,荒川区,南千住３丁目２２番１０号,,13,118,1160003,,,,,,,2025-07-07,1,,,,,モモエース,0
2311,9011801046412,新規,0,2025-07-07,2025-07-07,株式会社ＹＵＷＡ　ＨＯＬＤＩＮＧＳ,,株式会社,東京都,足立区,関原３丁目３４番２号,,13,121,1230852,,,,,,,2025-07-07,1,,,,,ユーワホールディングス,0
2320,9013103001467,新規,0,2025-07-07,2025-07-07,トランポスペース合同会社,,合同会社,東京都,青梅市,河辺町７丁目５－３４,,13,205,1980036,,,,,,,2025-07-07,1,,,,,トランポスペース,0
2330,9020001163629,新規,0,2025-07-07,2025-07-07,株式会社ソウゾウ,,株式会社,神奈川県,横浜市鶴見区,北寺尾６丁目２６－５－２階,,14,101,2300074,,,,,,,2025-07-07,1,,,,,ソウゾウ,0
2331,9020001163645,新規,0,2025-07-07,2025-07-07,株式会社トータルアセットマネジメントアドバイザリー,,株式会社,神奈川県,横浜市都筑区,中川３丁目９番２３号,,14,118,2240001,,,,,,,2025-07-07,1,,,,,トータルアセットマネジメントアドバイザリー,0
2332,9020001163703,新規,0,2025-07-07,2025-07-07,プライベートマネーデザイン株式会社,,株式会社,神奈川県,横浜市西区,北幸２丁目１０番４８号むつみビル３階,,14,103,2200004,,,,,,,2025-07-07,1,,,,,プライベートマネーデザイン,0
2333,9020001163728,新規,0,2025-07-07,2025-07-07,ＡＮＩＣＯ株式会社,,株式会社,神奈川県,横浜市神奈川区,片倉４丁目１９番２２号,,14,102,2210865,,,,,,,2025-07-07,1,,,,,アニコ,0
2334,9020001163736,新規,0,2025-07-07,2025-07-07,株式会社ＴＡＯ,,株式会社,神奈川県,横浜市港北区,菊名２丁目８番２０号,,14,109,2220011,,,,,,,2025-07-07,1,,,,,タオ,0
2336,9020003028870,新規,0,2025-07-07,2025-07-07,合同会社カリオネ,,合同会社,神奈川県,横浜市中区,桜木町１丁目１０１－１クロスゲート７階,,14,104,2310062,,,,,,,2025-07-07,1,,,,,カリオネ,0
2337,9021001085714,新規,0,2025-07-07,2025-07-07,株式会社アクティブ,,株式会社,神奈川県,厚木市,山際９０５番地２２,,14,212,2430803,,,,,,,2025-07-07,1,,,,,アクティブ,0
2341,9030001167439,新規,0,2025-07-07,2025-07-07,株式会社ＢＡＢＢＯ,,株式会社,埼玉県,熊谷市,筑波３丁目１１９番地,,11,202,3600037,,,,,,,2025-07-07,1,,,,,バッボ,0
2342,9030001167488,新規,0,2025-07-07,2025-07-07,株式会社ＡＬＯ建設,,株式会社,埼玉県,川口市,柳根町２１番１０号,,11,203,3330864,,,,,,,2025-07-07,1,,,,,アローケンセツ,0
2343,9030001167505,新規,0,2025-07-07,2025-07-07,株式会社トロピック,,株式会社,埼玉県,川越市,上戸新町８番地１,,11,201,3500817,,,,,,,2025-07-07,1,,,,,トロピック,0
2344,9030001167513,新規,0,2025-07-07,2025-07-07,株式会社ウィズ動物病院,,株式会社,埼玉県,朝霞市,三原５丁目１０番２０号ＪＵＮ朝霞ビル１０１,,11,227,3510025,,,,,,,2025-07-07,1,,,,,ウィズドウブツビョウイン,0
2345,9030003027137,新規,0,2025-07-07,2025-07-07,ＭＤＷ合同会社,,合同会社,埼玉県,入間郡三芳町,大字藤久保９０３番地６,,11,324,3540041,,,,,,,2025-07-07,1,,,,,エムディーダブリュー,0
2346,9030003027153,新規,0,2025-07-07,2025-07-07,Ｏｐｅｎ　Ｄｒｏｐ合同会社,,合同会社,埼玉県,越谷市,北越谷４丁目２３－１６－３０５号,,11,222,3430026,,,,,,,2025-07-07,1,,,,,オープンドロップ,0
2347,9030005022202,新規,0,2025-07-07,2025-07-07,一般社団法人キャリアとウェルビーイング実践支援センター,,その他の設立登記法人,埼玉県,北葛飾郡杉戸町,高野台東２丁目５番地１,,11,464,3450047,,,,,,,2025-07-07,1,,,,,キャリアトウェルビーイングジッセンシエンセンター,0
2357,9040001139478,新規,0,2025-07-07,2025-07-07,株式会社伊藤,,株式会社,千葉県,船橋市,湊町２丁目５番６号,,12,204,2730011,,,,,,,2025-07-07,1,,,,,イトウ,0
2358,9040001139486,新規,0,2025-07-07,2025-07-07,松田電気工事株式会社,,株式会社,千葉県,成田市,はなのき台１丁目３番地１３,,12,211,2860007,,,,,,,2025-07-07,1,,,,,マツダデンキコウジ,0
2359,9040001139511,新規,0,2025-07-07,2025-07-07,株式会社ＢＬＩＳＡＬＩＡ,,株式会社,千葉県,佐倉市,ユーカリが丘４丁目１ー１スカイプラザ３階スマートオフィスプレイス,,12,212,2850858,,,,,,,2025-07-07,1,,,,,ブリサリア,0
2363,9040003027937,新規,0,2025-07-07,2025-07-07,合同会社Ｓｈｏｖｅｌ　Ｃｒｅａｔｉｖｅ,,合同会社,千葉県,習志野市,鷺沼台３丁目１０番１４号シャンポール白鷺２０４号,,12,216,2750015,,,,,,,2025-07-07,1,,,,,シャベルクリエイティブ,0
2367,9050001056904,新規,0,2025-07-07,2025-07-07,飛福株式会社,,株式会社,茨城県,稲敷市,犬塚１２２０番地６,,08,229,3000507,,,,,,,2025-07-07,1,,,,,ヒフク,0
2369,9050003009406,新規,0,2025-07-07,2025-07-07,合同会社ＦＮＪロジコム,,合同会社,茨城県,東茨城郡茨城町,大字下土師１９５０番地１,,08,302,3113155,,,,,,,2025-07-07,1,,,,,エフエヌジェイロジコム,0
2371,9050005013661,新規,0,2025-07-07,2025-07-07,一般社団法人つくば眼科医療ネットワーク,,その他の設立登記法人,茨城県,つくば市,上ノ室１２７８番地１,,08,220,3050023,,,,,,,2025-07-07,1,,,,,ツクバガンカイリョウネットワーク,0
2376,9080001027019,新規,0,2025-07-07,2025-07-07,ｉｎａｈｏ株式会社,,株式会社,静岡県,島田市,島４０１番地の２,,22,209,4280007,,,,,,,2025-07-07,1,,,,,イナホ,0
2381,9110001039398,新規,0,2025-07-07,2025-07-07,株式会社永久,,株式会社,新潟県,長岡市,花園南１丁目１１１番地,,15,202,9400841,,,,,,,2025-07-07,1,,,,,トコシエ,0
2391,9120001277204,新規,0,2025-07-07,2025-07-07,ｐｒｏｖｉｄｅ　ｖａｌｕｅ株式会社,,株式会社,大阪府,大阪市住之江区,東加賀屋４丁目２番２４号,,27,125,5590012,,,,,,,2025-07-07,1,,,,,プロバイドバリュー,0
2392,9120001277501,新規,0,2025-07-07,2025-07-07,ｆｕ‐Ｌｉｎｋ株式会社,,株式会社,大阪府,大阪市住吉区,苅田５丁目１番２８号,,27,120,5580011,,,,,,,2025-07-07,1,,,,,エフユーリンク,0
2393,9120001277534,新規,0,2025-07-07,2025-07-07,株式会社ＲＲ,,株式会社,大阪府,大阪市浪速区,芦原１丁目１番２３－４０３号,,27,111,5560029,,,,,,,2025-07-07,1,,,,,アールアール,0
2394,9120001277542,新規,0,2025-07-07,2025-07-07,大阪みなみ株式会社,,株式会社,大阪府,大阪市平野区,喜連５丁目２番３８号,,27,126,5470027,,,,,,,2025-07-07,1,,,,,オオサカミナミ,0
2395,9120001277550,新規,0,2025-07-07,2025-07-07,株式会社ホワイトキャブ,,株式会社,大阪府,守口市,寺内町１丁目１０ー１１モリビル１Ｆ,,27,209,5700056,,,,,,,2025-07-07,1,,,,,ホワイトキャブ,0
2396,9120001277559,新規,0,2025-07-07,2025-07-07,株式会社スキルアップ,,株式会社,大阪府,大阪市北区,万歳町３番３９－３１０号,,27,127,5300028,,,,,,,2025-07-07,1,,,,,スキルアップ,0
2397,9120001277567,新規,0,2025-07-07,2025-07-07,Ｓ‐ＬＹＮＱホールディングス株式会社,,株式会社,大阪府,大阪市淀川区,塚本２丁目８番１４－４０１号,,27,123,5320026,,,,,,,2025-07-07,1,,,,,エスリンクホールディングス,0
2398,9120001277591,新規,0,2025-07-07,2025-07-07,株式会社ＡＮＦＩＥＬＤ,,株式会社,大阪府,大阪市平野区,長吉長原２丁目１番６号サンヴァリ長吉１０２号,,27,126,5470016,,,,,,,2025-07-07,1,,,,,アンフィールド,0
2399,9120001277674,新規,0,2025-07-07,2025-07-07,株式会社ＳＰＵＲＫ,,株式会社,大阪府,大阪市西区,南堀江２丁目１番１５－１３０９号,,27,106,5500015,,,,,,,2025-07-07,1,,,,,スパーク,0
2405,9120003029933,新規,0,2025-07-07,2025-07-07,合同会社３ＳＢ,,合同会社,大阪府,大阪市西成区,太子１丁目７－１１,,27,122,5570002,,,,,,,2025-07-07,1,,,,,スリーエスビー,0
2406,9120003029941,新規,0,2025-07-07,2025-07-07,合同会社わたあめＬａｂ．,,合同会社,大阪府,大阪市天王寺区,北山町１０番６８号,,27,109,5430035,,,,,,,2025-07-07,1,,,,,ワタアメラボ,0
2408,9120005025014,新規,0,2025-07-07,2025-07-07,税理士法人久田総合事務所,,その他の設立登記法人,大阪府,大阪市中央区,谷町７丁目５番４号グラン・ドムール高津北２０１号,,27,128,5420012,,,,,,,2025-07-07,1,,,,,ヒサダソウゴウジムショ,0
2411,9120101071993,新規,0,2025-07-07,2025-07-07,株式会社ネンリン,,株式会社,大阪府,大阪狭山市,東池尻２丁目１１７０番地の１９,,27,231,5890004,,,,,,,2025-07-07,1,,,,,ネンリン,0
2412,9120101072034,新規,0,2025-07-07,2025-07-07,株式会社Ｂａｒｒｅｌ,,株式会社,大阪府,藤井寺市,岡１丁目５－３岡サンハイツ２号棟４０７号室,,27,226,5830027,,,,,,,2025-07-07,1,,,,,バレル,0
2415,9120901051162,新規,0,2025-07-07,2025-07-07,修和ビル株式会社,,株式会社,大阪府,箕面市,百楽荘１丁目６番１２号,,27,220,5620042,,,,,,,2025-07-07,1,,,,,シュウワビル,0
2425,9140001139187,新規,0,2025-07-07,2025-07-07,株式会社ｍ,,株式会社,兵庫県,神戸市兵庫区,荒田町４丁目２９－２４,,28,105,6520032,,,,,,,2025-07-07,1,,,,,エム,0
2429,9140005027553,新規,0,2025-07-07,2025-07-07,一般社団法人加西ゴルフ振興委員会,,その他の設立登記法人,兵庫県,加西市,中野町１３３３番地の１,,28,220,6752102,,,,,,,2025-07-07,1,,,,,カサイゴルフシンコウイインカイ,0
2433,9170001018693,新規,0,2025-07-07,2025-07-07,ＧＩＡＮ商事株式会社,,株式会社,和歌山県,和歌山市,栄谷３９２番地１,,30,201,6408441,,,,,,,2025-07-07,1,,,,,ジャイアンショウジ,0
2440,9180001167498,新規,0,2025-07-07,2025-07-07,株式会社ＡＫ,,株式会社,愛知県,東海市,大田町後浜新田２２０番地１シャーメゾン叶１階Ｄ,,23,222,4770031,,,,,,,2025-07-07,1,,,,,エーケー,0
2441,9180001167523,新規,0,2025-07-07,2025-07-07,株式会社まるやＫＳホールディングス,,株式会社,愛知県,名古屋市天白区,植田西３丁目１２１２番地,,23,116,4680058,,,,,,,2025-07-07,1,,,,,マルヤケイエスホールディングス,0
2442,9180001167556,新規,0,2025-07-07,2025-07-07,株式会社コモンシステム,,株式会社,愛知県,稲沢市,附島町屋敷８番地２,,23,220,4928442,,,,,,,2025-07-07,1,,,,,コモンシステム,0
2443,9180001167564,新規,0,2025-07-07,2025-07-07,株式会社グランマメディカルサポート,,株式会社,愛知県,名古屋市中区,栄３丁目６番２０号辰晃ビル７階,,23,106,4600008,,,,,,,2025-07-07,1,,,,,グランマメディカルサポート,0
2444,9180003028707,新規,0,2025-07-07,2025-07-07,合同会社渡邉設計,,合同会社,愛知県,稲沢市,治郎丸大角町２６番地１,,23,220,4928134,,,,,,,2025-07-07,1,,,,,ワタナベセッケイ,0
2446,9180301039967,新規,0,2025-07-07,2025-07-07,株式会社Ｈａｐｐｙクローバー,,株式会社,愛知県,豊田市,大清水町南岬１番地４４７,,23,211,4700342,,,,,,,2025-07-07,1,,,,,ハッピークローバー,0
2447,9190001032362,新規,0,2025-07-07,2025-07-07,株式会社ＦＡＮ　Ｅｎｅｒｇｙ,,株式会社,三重県,伊勢市,神田久志本町１７８４番１,,24,203,5160016,,,,,,,2025-07-07,1,,,,,ファンエナジー,0
2448,9190001032370,新規,0,2025-07-07,2025-07-07,一色電機株式会社,,株式会社,三重県,鈴鹿市,伊船町９０３番地２,,24,207,5190323,,,,,,,2025-07-07,1,,,,,イッシキデンキ,0
2449,9200001043977,新規,0,2025-07-07,2025-07-07,株式会社Ａｌｔａｖｏｌａ,,株式会社,岐阜県,岐阜市,北一色９丁目１３番９号,,21,201,5008227,,,,,,,2025-07-07,1,,,,,アルタヴォラ,0
2450,9200001044001,新規,0,2025-07-07,2025-07-07,株式会社メモリア総合研究所,,株式会社,岐阜県,大垣市,小野３丁目４７番１,,21,202,5030803,,,,,,,2025-07-07,1,,,,,メモリアソウゴウケンキュウジョ,0
2452,9200003006908,新規,0,2025-07-07,2025-07-07,合同会社輝氣３６９,,合同会社,岐阜県,本巣市,小柿１１９５番地１,,21,218,5010463,,,,,,,2025-07-07,1,,,,,カガヤキミロク,0
2457,9240001065167,新規,0,2025-07-07,2025-07-07,株式会社ＳＥＮＧＡＫＵ,,株式会社,広島県,廿日市市,宮島町３５７番地,,34,213,7390588,,,,,,,2025-07-07,1,,,,,センガク,0
2462,9250001021219,新規,0,2025-07-07,2025-07-07,株式会社フォーカス,,株式会社,山口県,防府市,大字高井４０８番地の２,,35,206,7470064,,,,,,,2025-07-07,1,,,,,フォーカス,0
2463,9250001021227,新規,0,2025-07-07,2025-07-07,株式会社みやび商事,,株式会社,山口県,周南市,大字徳山５５４２番地の１,,35,215,7450851,,,,,,,2025-07-07,1,,,,,ミヤビショウジ,0
2464,9250001021235,新規,0,2025-07-07,2025-07-07,株式会社宗内工業,,株式会社,山口県,宇部市,西宇部南４丁目１番１５号セントポーリアＩ２０１,00139823,35,202,7590208,,,,,,,2025-07-07,1,,,,,ムネウチコウギョウ,0
2468,9260001040341,新規,0,2025-07-07,2025-07-07,株式会社Ａｃｒｏｘｅｅｄ,,株式会社,岡山県,赤磐市,桜が丘西４丁目５番２３号,,33,213,7090802,,,,,,,2025-07-07,1,,,,,アクロシード,0
2469,9260005011495,新規,0,2025-07-07,2025-07-07,ＮＰＯ法人吉縁起村協議会,,その他の設立登記法人,岡山県,真庭市,吉３６１４番地２,,33,214,7193136,,,,,,,2025-07-07,1,,,,,ヨシエンギムラキョウギカイ,0
2472,9290001110570,新規,0,2025-07-07,2025-07-07,株式会社ｍａｉｎｃｈａｒａｃｔｅｒ,,株式会社,福岡県,福岡市早良区,百道２丁目１５－１サンライフ藤崎１０１,,40,137,8140006,,,,,,,2025-07-07,1,,,,,メインキャラクター,0
2475,9290003017054,新規,0,2025-07-07,2025-07-07,博達合同会社,,合同会社,福岡県,福岡市博多区,祇園町８番１２号１１階,,40,132,8120038,,,,,,,2025-07-07,1,,,,,ハクタツ,0
2476,9290801031685,新規,0,2025-07-07,2025-07-07,株式会社Ｒｏｓｓｏ,,株式会社,福岡県,北九州市八幡西区,岡田町１１番４９－７０１号,,40,109,8060033,,,,,,,2025-07-07,1,,,,,ロッソ,0
2478,9290805009843,新規,0,2025-07-07,2025-07-07,ＮＰＯ法人Ｔｒｕｍｐｒｉｍｏ,,その他の設立登記法人,福岡県,北九州市八幡西区,泉ケ浦１丁目１８番６号（２０２）,,40,109,8070854,,,,,,,2025-07-07,1,,,,,トランプリモ,0
2480,9300001014258,新規,0,2025-07-07,2025-07-07,株式会社仁工業,,株式会社,佐賀県,唐津市,鏡１８番地１４,,41,202,8470022,,,,,,,2025-07-07,1,,,,,ジンコウギョウ,0
2485,9320001021186,新規,0,2025-07-07,2025-07-07,株式会社ＹＡＤＯ　ＯＮＥ,,株式会社,大分県,大分市,大字神崎２１８番４,,44,201,8700100,,,,,,,2025-07-07,1,,,,,ヤドワン,0
2494,9360001035422,新規,0,2025-07-07,2025-07-07,株式会社金城農園,,株式会社,沖縄県,国頭郡大宜味村,字津波１９７１番地４８,,47,302,9051318,,,,,,,2025-07-07,1,,,,,キンジョウノウエン,0
2495,9360001035430,新規,0,2025-07-07,2025-07-07,株式会社島袋電設,,株式会社,沖縄県,国頭郡伊江村,字川平１７７番地,,47,315,9050503,,,,,,,2025-07-07,1,,,,,シマブクロデンセツ,0
2496,9360001035439,新規,0,2025-07-07,2025-07-07,株式会社さんご,,株式会社,沖縄県,那覇市,松尾２丁目１０番１号第一牧志公設市場内西銘鮮魚店,,47,201,9000014,,,,,,,2025-07-07,1,,,,,サンゴ,0
2497,9360003015059,新規,0,2025-07-07,2025-07-07,合同会社Ｒ・Ｙ企画興業,,合同会社,沖縄県,名護市,大東２丁目２番４号,,47,209,9050016,,,,,,,2025-07-07,1,,,,,アールワイキカクコウギョウ,0
2500,9370001052788,新規,0,2025-07-07,2025-07-07,株式会社ＭＯＴＩＶＥ,,株式会社,宮城県,仙台市宮城野区,宮千代１丁目１９－４スクーデリア宮千代Ｌ号室,,04,102,9830044,,,,,,,2025-07-07,1,,,,,モーティブ,0
2501,9370001052805,新規,0,2025-07-07,2025-07-07,シンプラム株式会社,,株式会社,宮城県,大崎市,古川七日町１０番２号,,04,215,9896153,,,,,,,2025-07-07,1,,,,,シンプラム,0
2507,9380001035429,新規,0,2025-07-07,2025-07-07,株式会社ＫＯＢＡＹＡＳＨＩ　ａｎｄ　ＳＯＮＳ,,株式会社,福島県,河沼郡会津坂下町,大字大沖字沖中７１３番地,,07,421,9696573,,,,,,,2025-07-07,1,,,,,コバヤシアンドサンズ,0
2508,9380001035445,新規,0,2025-07-07,2025-07-07,株式会社白石工業,,株式会社,福島県,田村市,船引町今泉字後田９６番地,,07,211,9634311,,,,,,,2025-07-07,1,,,,,シロイシコウギョウ,0
2511,9410001014214,新規,0,2025-07-07,2025-07-07,株式会社ライゼルキャピタルパートナーズ,,株式会社,秋田県,大仙市,富士見町８番１４号,,05,212,0140011,,,,,,,2025-07-07,1,,,,,ライゼルキャピタルパートナーズ,0
2513,9430001094774,新規,0,2025-07-07,2025-07-07,株式会社アワハウス,,株式会社,北海道,札幌市南区,南三十条西８丁目５番１号,,01,106,0050030,,,,,,,2025-07-07,1,,,,,アワハウス,0
2521,9490001011096,新規,0,2025-07-07,2025-07-07,株式会社ＶＦＣ,,株式会社,高知県,土佐市,新居１０３５番地,,39,205,7811154,,,,,,,2025-07-07,1,,,,,ヴイエフシー,0
