sequenceNumber,corporateNumber,process,correct,updateDate,changeDate,name,nameImageId,kind,prefectureName,cityName,streetNumber,addressImageId,prefectureCode,cityCode,postCode,addressOutside,addressOutsideImageId,closeDate,closeCause,successorCorporateNumber,changeCause,assignmentDate,latest,enName,enPrefectureName,enCityName,enAddressOutside,furigana,hihyoji
21,1010001227086,登記記録の閉鎖等,0,2023-11-08,2023-10-31,エムアイメディカル株式会社,,株式会社,東京都,千代田区,神田東松下町１８番地,,13,101,1010042,,,2023-10-31,清算の結了等,,,2022-06-07,1,,,,,エムアイメディカル,0
23,1010003020571,登記記録の閉鎖等,0,2023-11-08,2023-10-31,ＳＳＪメガソーラー２８合同会社,,合同会社,東京都,千代田区,神田三崎町２丁目４番１号ＴＵＧ－Ｉビル９Ｆ,,13,101,1010061,,,2023-10-31,清算の結了等,,,2015-10-05,1,,,,,エスエスジェイメガソーラーニジュウハチ,0
50,1010901028410,登記記録の閉鎖等,0,2023-11-08,2023-10-31,株式会社リ・キュウ,,株式会社,東京都,世田谷区,代田４丁目１番６号,,13,112,1550033,,,2023-10-31,清算の結了等,,,2015-10-05,1,,,,,リキュウ,0
57,1011003006627,登記記録の閉鎖等,0,2023-11-08,2023-10-31,合同会社ＦＡＣＴＬＹアセット,,合同会社,東京都,世田谷区,成城６丁目９番７号,,13,112,1570066,,,2023-10-31,清算の結了等,,,2016-03-08,1,,,,,ファクトリーアセット,0
64,1011101097031,登記記録の閉鎖等,0,2023-11-08,2023-11-01,エクウスジャパン株式会社,,株式会社,東京都,千代田区,丸の内３丁目１番１号国際ビル,,13,101,1000005,,,2023-11-01,合併による解散等,7010001034873,令和５年１１月１日東京都千代田区丸の内三丁目１番１号カーギルジャパン合同会社（7010001034873）に合併し解散,2021-11-25,1,,,,,エクウスジャパン,0
76,1011801035050,登記記録の閉鎖等,0,2023-11-08,2023-10-30,タケシタロジスティクス株式会社,,株式会社,埼玉県,川口市,元郷２丁目１５－１－３５０２,,11,203,3320011,,,2023-10-30,清算の結了等,,,2018-08-06,1,,,,,タケシタロジスティクス,0
87,1013201004420,登記記録の閉鎖等,0,2023-11-08,2023-10-25,株式会社日経ライフ,,株式会社,東京都,目黒区,目黒本町１丁目１０番１６号,,13,110,1520002,,,2023-10-25,清算の結了等,,,2015-10-05,1,,,,,ニッケイライフ,0
88,1013202007496,登記記録の閉鎖等,0,2023-11-08,2023-10-31,第六感の港有限会社,,有限会社,東京都,目黒区,目黒３丁目１４番５号,,13,110,1530063,,,2023-10-31,清算の結了等,,,2015-10-05,1,,,,,ダイロッカンノミナト,0
94,1020001022321,登記記録の閉鎖等,0,2023-11-08,2023-10-27,株式会社アメミヤ建装,,株式会社,神奈川県,横浜市神奈川区,片倉２丁目３７番５号,,14,102,2210865,,,2023-10-27,清算の結了等,,,2015-10-05,1,,,,,,0
95,1020001023699,登記記録の閉鎖等,0,2023-11-08,2023-10-30,株式会社旅ジェットトラベルセンター,,株式会社,神奈川県,横浜市旭区,上川井町６８４番地４,,14,112,2410802,,,2023-10-30,清算の結了等,,,2015-10-05,1,,,,,タビジェットトラベルセンター,0
96,1020001061617,登記記録の閉鎖等,0,2023-11-08,2023-10-27,株式会社Ｈａｓｅｇａｗａ,,株式会社,神奈川県,横浜市鶴見区,市場大和町１０番６号,,14,101,2300025,,,2023-10-27,清算の結了等,,,2015-10-05,1,,,,,ハセガワ,0
114,1020005013250,登記記録の閉鎖等,0,2023-11-08,2023-11-06,ＮＰＯ法人女神の子どものためのネットワーク会議,,その他の設立登記法人,静岡県,熱海市,伊豆山１０９６－１スパックス熱海伊豆山８１０号室,,22,205,4130002,,,2023-11-06,清算の結了等,,,2017-08-14,1,,,,,メガミノコドモノタメノネットワークカイギ,0
120,1030001102808,登記記録の閉鎖等,0,2023-11-08,2023-10-30,株式会社ｓｕｍｉ－ｋａ,,株式会社,埼玉県,秩父市,番場町１１番１３号,,11,207,3680041,,,2023-10-30,清算の結了等,,,2015-10-05,1,,,,,スミカ,0
126,1040001022773,登記記録の閉鎖等,0,2023-11-08,2023-10-30,株式会社Ｅｉｒ,,株式会社,千葉県,船橋市,松が丘３丁目６４番地６－１３号,,12,204,2740064,,,2023-10-30,清算の結了等,,,2015-10-05,1,,,,,エイル,0
129,1040001095332,登記記録の閉鎖等,0,2023-11-08,2023-11-01,株式会社ＦＯＲＣＥ,,株式会社,千葉県,千葉市緑区,おゆみ野中央３丁目６番地１６,,12,105,2660032,,,2023-11-01,清算の結了等,,,2016-05-19,1,,,,,フォース,0
146,1060003000528,登記記録の閉鎖等,0,2023-11-08,2023-11-06,合同会社マツモト,,合同会社,栃木県,真岡市,上高間木２丁目２７番地１２,,09,209,3214337,,,2023-11-06,清算の結了等,,,2015-10-05,1,,,,,マツモト,0
151,1070002008281,登記記録の閉鎖等,0,2023-11-08,2023-11-02,有限会社レガート,,有限会社,群馬県,前橋市,天川原町２丁目２２１番地８,,10,201,3710803,,,2023-11-02,清算の結了等,,,2015-10-05,1,,,,,レガート,0
160,1090005005902,登記記録の閉鎖等,0,2023-11-08,2023-10-26,身延珠数土産品協同組合,,その他の設立登記法人,山梨県,南巨摩郡身延町,身延３５６７番地,,19,365,4092524,,,2023-10-26,清算の結了等,,,2015-10-05,1,,,,,ミノブジュズミヤゲヒン,0
169,1120001004912,登記記録の閉鎖等,0,2023-11-08,2023-10-31,岡本邦株式会社,,株式会社,大阪府,大阪市阿倍野区,阪南町１丁目５０番９号,,27,119,5450021,,,2023-10-31,清算の結了等,,,2015-10-05,1,,,,,オカモトクニ,0
204,1130001059559,登記記録の閉鎖等,0,2023-11-08,2023-10-30,株式会社ＴＭ・ＦＡＣＴＯＲＹ,,株式会社,京都府,京都市中京区,河原町通二条下る一之船入町３７６クロトビル５階,,26,104,6040924,,,2023-10-30,清算の結了等,,,2017-04-14,1,,,,,ティーエムファクトリー,0
213,1140002032431,登記記録の閉鎖等,0,2023-11-08,2023-10-31,有限会社大盛左官,,有限会社,兵庫県,たつの市,御津町朝臣７８２番地の３,,28,229,6711342,,,2023-10-31,清算の結了等,,,2015-10-05,1,,,,,オオモリサカン,0
214,1140003016846,登記記録の閉鎖等,0,2023-11-08,2023-11-01,ＲｅＣ合同会社,,合同会社,兵庫県,豊岡市,中央町７番２８号,,28,209,6680033,,,2023-11-01,合併による解散等,9140001056531,令和５年１１月１日兵庫県豊岡市中央町８番４号株式会社アートフィアー（9140001056531）に合併し解散,2021-10-11,1,,,,,レック,0
221,1170001005963,登記記録の閉鎖等,0,2023-11-08,2023-11-07,船場自動車株式会社,,株式会社,和歌山県,海草郡紀美野町,下佐々２６７番地の１,,30,304,6401121,,,2023-11-07,清算の結了等,,,2015-10-05,1,,,,,フナバジドウシャ,0
224,1180001008073,登記記録の閉鎖等,0,2023-11-08,2023-10-30,梶原重機株式会社,,株式会社,愛知県,名古屋市昭和区,滝子町１番４号,,23,107,4660053,,,2023-10-30,清算の結了等,,,2015-10-05,1,,,,,カジワラジュウキ,0
230,1180001085096,登記記録の閉鎖等,0,2023-11-08,2023-11-01,オーモリニッセキ株式会社,,株式会社,愛知県,一宮市,丹陽町九日市場字中田１２９,,23,203,4910824,,,2023-11-01,合併による解散等,3180001082307,令和５年１１月１日愛知県一宮市丹陽町九日市場字中田１２９大森石油株式会社（3180001082307）に合併し解散,2015-10-05,1,,,,,オーモリニッセキ,0
233,1180001117683,登記記録の閉鎖等,0,2023-11-08,2023-11-02,株式会社シーラパワー,,株式会社,愛知県,名古屋市中区,丸の内２丁目１８番１４号,,23,106,4600002,,,2023-11-02,合併による解散等,4180001110768,令和５年１１月１日名古屋市中区丸の内二丁目１８番１４号株式会社シーラソーラー（4180001110768）に合併し解散,2015-10-05,1,,,,,シーラパワー,0
236,1180001145635,登記記録の閉鎖等,0,2023-11-08,2023-11-02,ＡＴＧ株式会社,,株式会社,愛知県,名古屋市天白区,中平４丁目１７０９番地グローリアスヒルズ天白南８０４号,,23,116,4680014,,,2023-11-02,清算の結了等,,,2021-04-08,1,,,,,エーティージー,0
240,1180002007413,登記記録の閉鎖等,0,2023-11-08,2023-11-01,有限会社吉田新聞店,,有限会社,愛知県,名古屋市港区,幸町３丁目４２番地の２,,23,111,4550041,,,2023-11-01,清算の結了等,,,2015-10-05,1,,,,,ヨシダシンブンテン,0
249,1190002007528,登記記録の閉鎖等,0,2023-11-08,2023-11-07,有限会社長谷川建設,,有限会社,三重県,鈴鹿市,中冨田町２８６番地の５,,24,207,5130009,,,2023-11-07,清算の結了等,,,2015-10-05,1,,,,,ハセガワケンセツ,0
257,1270002008773,登記記録の閉鎖等,0,2023-11-08,2023-11-02,有限会社エイチ・エス・ピー山陰販売,,有限会社,鳥取県,米子市,米原７丁目２番１６号フローレンス米原１１０５号,,31,202,6830804,,,2023-11-02,清算の結了等,,,2015-10-05,1,,,,,エイチエスピーサンインハンバイ,0
271,1290802018474,登記記録の閉鎖等,0,2023-11-08,2023-11-06,有限会社西日本セフテイーサービス,,有限会社,福岡県,北九州市若松区,南二島２丁目２番３０号,,40,103,8080109,,,2023-11-06,清算の結了等,,,2015-10-05,1,,,,,ニシニホンセフテイーサービス,0
275,1310002012960,登記記録の閉鎖等,0,2023-11-08,2023-11-06,有限会社レコンテファミリー,,有限会社,長崎県,東彼杵郡川棚町,百津郷３３８番地１９,,42,322,8593605,,,2023-11-06,清算の結了等,,,2015-10-05,1,,,,,レコンテファミリー,0
277,1320002002770,登記記録の閉鎖等,0,2023-11-08,2023-11-07,有限会社コピーセンター,,有限会社,大分県,大分市,富士見が丘東４丁目１０番７号,,44,201,8701176,,,2023-11-07,清算の結了等,,,2015-10-05,1,,,,,コピーセンター,0
279,1320005005829,登記記録の閉鎖等,0,2023-11-08,2023-11-06,特定非営利活動法人さんゆうあけぼの,,その他の設立登記法人,大分県,佐伯市,字女島１０４２５番地,,44,205,8760000,,,2023-11-06,清算の結了等,,,2015-10-05,1,,,,,サンユウアケボノ,0
287,1370002006560,登記記録の閉鎖等,0,2023-11-08,2023-11-01,有限会社吾妻建築設計事務所,,有限会社,宮城県,仙台市宮城野区,田子２丁目６番３２号,,04,102,9830021,,,2023-11-01,合併による解散等,8370002016009,令和５年１１月１日仙台市宮城野区田子二丁目６番１６号株式会社マックス・コーポレーション（8370002016009）に合併し解散,2015-10-05,1,,,,,,0
304,1430001067671,登記記録の閉鎖等,0,2023-11-08,2023-10-30,高島設備株式会社,,株式会社,北海道,千歳市,稲穂２丁目１１番３号,,01,224,0660029,,,2023-10-30,清算の結了等,,,2015-10-05,1,,,,,タカシマセツビ,0
308,1430002057283,登記記録の閉鎖等,0,2023-11-08,2023-10-30,有限会社レディースファッションアライ,,有限会社,北海道,虻田郡倶知安町,北三条東２丁目５番地,,01,400,0440003,,,2023-10-30,清算の結了等,,,2015-10-05,1,,,,,レディースファッションアライ,0
314,1460401000337,登記記録の閉鎖等,0,2023-11-08,2023-11-06,株式会社リビング・マルイ,,株式会社,北海道,根室市,清隆町２丁目１１番地,,01,223,0870042,,,2023-11-06,清算の結了等,,,2015-10-05,1,,,,,リビングマルイ,0
315,1470001012203,登記記録の閉鎖等,0,2023-11-08,2023-11-02,株式会社長井昇平商店,,株式会社,香川県,小豆郡土庄町,淵崎甲１２９０番地の２,,37,322,7614121,,,2023-11-02,清算の結了等,,,2015-10-05,1,,,,,ナガイショウヘイショウテン,0
342,2010003020562,登記記録の閉鎖等,0,2023-11-08,2023-10-31,ＳＳＪメガソーラー１９合同会社,,合同会社,東京都,千代田区,神田三崎町２丁目４番１号ＴＵＧ－Ｉビル９Ｆ,,13,101,1010061,,,2023-10-31,清算の結了等,,,2015-10-05,1,,,,,エスエスジェイメガソーラージュウキュウ,0
344,2010005008366,登記記録の閉鎖等,0,2023-11-08,2023-10-20,西川一般社団法人,,その他の設立登記法人,広島県,広島市中区,大手町５丁目１７番１３号株式会社合同総研内,,34,101,7300051,,,2023-10-20,清算の結了等,,,2015-10-05,1,,,,,ニシガワ,0
345,2010401035170,登記記録の閉鎖等,0,2023-11-08,2023-11-01,株式会社アワード,,株式会社,東京都,新宿区,箪笥町４３番地,,13,104,1620833,,,2023-11-01,合併による解散等,5011101056074,令和５年１１月１日東京都新宿区箪笥町４３番地株式会社キャンパスサポート（5011101056074）に合併し解散,2015-10-05,1,,,,,アワード,0
354,2010401149887,登記記録の閉鎖等,0,2023-11-08,2023-11-01,ホライズン７株式会社,,株式会社,東京都,港区,虎ノ門１丁目３番１号,,13,103,1050001,,,2023-11-01,合併による解散等,5010401175550,令和５年１１月１日東京都港区虎ノ門一丁目３番１号ＮＨホールディングス株式会社（5010401175550）に合併し解散,2019-12-17,1,,,,,ホライズンセブン,0
359,2010402012706,登記記録の閉鎖等,0,2023-11-08,2023-10-31,有限会社美和商会,,有限会社,東京都,港区,三田５丁目１番１号,,13,103,1080073,,,2023-10-31,清算の結了等,,,2015-10-05,1,,,,,ミワショウカイ,0
364,2010501028974,登記記録の閉鎖等,0,2023-11-08,2023-10-30,株式会社ワイ・イズ・エム,,株式会社,東京都,文京区,湯島３丁目３５番３号,,13,105,1130034,,,2023-10-30,清算の結了等,,,2015-10-05,1,,,,,ワイイズエム,0
377,2010901037071,登記記録の閉鎖等,0,2023-11-08,2023-10-30,株式会社ミートアップ,,株式会社,東京都,世田谷区,代沢５丁目２２番５号,,13,112,1550032,,,2023-10-30,清算の結了等,,,2015-11-16,1,,,,,ミートアップ,0
379,2010901049298,登記記録の閉鎖等,0,2023-11-08,2023-10-31,ＺＩＴＡＮ株式会社,,株式会社,東京都,港区,南青山２丁目２番１５号,,13,103,1070062,,,2023-10-31,清算の結了等,,,2021-08-20,1,,,,,ジタン,0
384,2011001115676,登記記録の閉鎖等,0,2023-11-08,2023-10-30,株式会社ＴＰコンテクストマーケティング,,株式会社,神奈川県,横浜市都筑区,佐江戸町６００番地,,14,118,2240054,,,2023-10-30,清算の結了等,,,2017-04-11,1,,,,,ティーピーコンテクストマーケティング,0
391,2011101052407,登記記録の閉鎖等,0,2023-11-08,2023-11-06,キーマン株式会社,,株式会社,東京都,新宿区,矢来町９０番地,,13,104,1620805,,,2023-11-06,清算の結了等,,,2015-10-05,1,,,,,キーマン,0
397,2011401005171,登記記録の閉鎖等,0,2023-11-08,2023-11-01,パイオニアランチ株式会社,,株式会社,東京都,板橋区,高島平９丁目３番１１号,,13,119,1750082,,,2023-11-01,合併による解散等,8011401002007,令和５年１１月１日東京都板橋区新河岸二丁目５番３号光食株式会社（8011401002007）に合併し解散,2015-10-05,1,,,,,パイオニアランチ,0
401,2011403001391,登記記録の閉鎖等,0,2023-11-08,2023-11-01,合同会社岡井,,合同会社,東京都,板橋区,坂下３丁目９番,,13,119,1740043,,,2023-11-01,清算の結了等,,,2015-10-05,1,,,,,オカイ,0
428,2013402004029,登記記録の閉鎖等,0,2023-11-08,2023-11-01,有限会社六真企画,,有限会社,東京都,稲城市,東長沼２４１６番地プラウドシティ南山２１９,,13,225,2060802,,,2023-11-01,清算の結了等,,,2015-10-05,1,,,,,,0
437,2021002019248,登記記録の閉鎖等,0,2023-11-08,2023-11-02,有限会社紙屋商店,,有限会社,神奈川県,相模原市緑区,大島７７７番地,,14,151,2520135,,,2023-11-02,清算の結了等,,,2015-10-05,1,,,,,カミヤショウテン,0
441,2030001033985,登記記録の閉鎖等,0,2023-11-08,2023-10-27,株式会社朱鯉興業,,株式会社,埼玉県,久喜市,上清久３８１番地２,,11,232,3460038,,,2023-10-27,清算の結了等,,,2015-10-05,1,,,,,シュリコウギョウ,0
442,2030001092627,登記記録の閉鎖等,0,2023-11-08,2023-10-27,株式会社光葬儀社,,株式会社,埼玉県,川口市,上青木１丁目１８番９号,,11,203,3330844,,,2023-10-27,清算の結了等,,,2015-10-05,1,,,,,,0
450,2030002043827,登記記録の閉鎖等,0,2023-11-08,2023-10-30,川ミニポンプ有限会社,,有限会社,埼玉県,草加市,旭町６丁目５番１２号４階,,11,221,3400053,,,2023-10-30,清算の結了等,,,2015-10-05,1,,,,,カワミニポンプ,0
466,2040002089142,登記記録の閉鎖等,0,2023-11-08,2023-10-31,大茂地所有限会社,,有限会社,千葉県,柏市,柏１丁目７番１－１１０８号,,12,217,2770005,,,2023-10-31,清算の結了等,,,2015-10-05,1,,,,,ダイモジショ,0
476,2050002016293,登記記録の閉鎖等,0,2023-11-08,2023-11-01,有限会社くうや,,有限会社,茨城県,石岡市,鹿の子１丁目１１番地１５－２０１,,08,205,3150005,,,2023-11-01,清算の結了等,,,2015-10-05,1,,,,,クウヤ,0
491,2080103000821,登記記録の閉鎖等,0,2023-11-08,2023-11-06,合同会社ＥＬＳＥコミュニケーションズ,,合同会社,静岡県,沼津市,山王台９番３号,,22,203,4100035,,,2023-11-06,清算の結了等,,,2015-10-05,1,,,,,イーエルエスイーコミュニケーションズ,0
492,2090001011184,登記記録の閉鎖等,0,2023-11-08,2023-10-27,株式会社フタバ,,株式会社,山梨県,北杜市,武川町三吹１６５２番地,,19,209,4080301,,,2023-10-27,清算の結了等,,,2021-03-04,1,,,,,フタバ,0
500,2100005012739,登記記録の閉鎖等,0,2023-11-08,2023-11-01,一般社団法人ＡＩＯビジネスアカデミー,,その他の設立登記法人,長野県,長野市,松代町西条４２４７番地４パークサイド青垣２０５号室,,20,201,3811232,,,2023-11-01,清算の結了等,,,2021-07-07,1,,,,,アイオビジネスアカデミー,0
536,2130001012277,登記記録の閉鎖等,0,2023-11-08,2023-10-26,株式会社赤玉,,株式会社,京都府,京都市山科区,音羽野田町１番地の６,,26,110,6078075,,,2023-10-26,清算の結了等,,,2015-10-05,1,,,,,アカダマ,0
538,2130001023266,登記記録の閉鎖等,0,2023-11-08,2023-10-30,株式会社京都医療システムセンター,,株式会社,京都府,京都市中京区,蛸薬師通室町西入姥柳町２０３,,26,104,6048213,,,2023-10-30,清算の結了等,,,2015-10-05,1,,,,,キョウトイリョウシステムセンター,0
553,2140002065983,登記記録の閉鎖等,0,2023-11-08,2023-11-01,有限会社野沢モータース,,有限会社,兵庫県,川西市,栄町１０番１７号,,28,217,6660033,,,2023-11-01,清算の結了等,,,2015-10-05,1,,,,,ノザワモータース,0
556,2160001004024,登記記録の閉鎖等,0,2023-11-08,2023-11-06,株式会社清龍,,株式会社,滋賀県,大津市,本堅田３丁目１３番２号,,25,201,5200242,,,2023-11-06,清算の結了等,,,2015-10-05,1,,,,,セイリュウ,0
562,2180001112221,登記記録の閉鎖等,0,2023-11-08,2023-11-06,株式会社はなみずき,,株式会社,愛知県,名古屋市中川区,小本本町３丁目２２４番地,,23,110,4540826,,,2023-11-06,清算の結了等,,,2015-10-05,1,,,,,ハナミズキ,0
563,2180001115298,登記記録の閉鎖等,0,2023-11-08,2023-11-01,株式会社ハートランドスタジオ,,株式会社,愛知県,名古屋市東区,東桜２丁目１２番８号,,23,102,4610005,,,2023-11-01,合併による解散等,7180001106004,令和５年１１月１日名古屋市東区東桜二丁目１２番８号株式会社エスフラッグプロモーション（7180001106004）に合併し解散,2015-10-05,1,,,,,ハートランドスタジオ,0
574,2190002011611,登記記録の閉鎖等,0,2023-11-08,2023-10-24,有限会社アルコイリス,,有限会社,三重県,伊勢市,岡本２丁目５番５１号,,24,203,5160036,,,2023-10-24,清算の結了等,,,2015-10-05,1,,,,,アルコイリス,0
575,2200001023416,登記記録の閉鎖等,0,2023-11-08,2023-11-06,株式会社中部電興社,,株式会社,岐阜県,中津川市,花戸町５番２６号,,21,206,5080004,,,2023-11-06,清算の結了等,,,2015-10-05,1,,,,,チュウブデンコウシャ,0
577,2200001032326,登記記録の閉鎖等,0,2023-11-08,2023-11-06,梅村建築株式会社,,株式会社,岐阜県,揖斐郡揖斐川町,白樫９４６番地,,21,401,5010635,,,2023-11-06,清算の結了等,,,2015-12-04,1,,,,,,0
586,2240002051684,登記記録の閉鎖等,0,2023-11-08,2023-11-01,有限会社山本エンジニアリング,,有限会社,広島県,尾道市,向島町５５５８番地９,,34,205,7220073,,,2023-11-01,清算の結了等,,,2015-10-05,1,,,,,ヤマモトエンジニアリング,0
589,2250002014698,登記記録の閉鎖等,0,2023-11-08,2023-11-02,有限会社山陽スチール工業,,有限会社,山口県,周南市,大字久米６９３番地の３,,35,215,7450801,,,2023-11-02,清算の結了等,,,2015-10-05,1,,,,,サンヨウスチールコウギョウ,0
603,2290002036482,登記記録の閉鎖等,0,2023-11-08,2023-10-25,有限会社昭栄自動車,,有限会社,福岡県,糟屋郡志免町,桜丘２丁目９番１２号,,40,343,8112201,,,2023-10-25,清算の結了等,,,2015-10-05,1,,,,,,0
605,2290005015087,登記記録の閉鎖等,0,2023-11-08,2023-10-31,ＮＰＯ法人そよかぜ学童おおむた,,その他の設立登記法人,福岡県,大牟田市,大字今山１１８０番地,,40,202,8370922,,,2023-10-31,清算の結了等,,,2015-10-05,1,,,,,ソヨカゼガクドウオオムタ,0
612,2320001011391,登記記録の閉鎖等,0,2023-11-08,2023-11-06,株式会社営農鍋島,,株式会社,大分県,中津市,大字鍋島１５１３番地２,,44,203,8790102,,,2023-11-06,清算の結了等,,,2015-10-05,1,,,,,エイノウナベシマ,0
613,2320001018164,登記記録の閉鎖等,0,2023-11-08,2023-11-06,株式会社新名商店,,株式会社,大分県,中津市,大字永添２６４６番地１１,,44,203,8710162,,,2023-11-06,合併による解散等,9320001000792,令和５年１１月１日大分市大字下郡３２６０番地の１０株式会社環境整備産業（9320001000792）に合併し解散,2021-01-25,1,,,,,ニイナショウテン,0
633,2370001018606,登記記録の閉鎖等,0,2023-11-08,2023-11-02,株式会社ジョイワークス,,株式会社,宮城県,仙台市青葉区,昭和町１番４３－３０１号,,04,101,9810913,,,2023-11-02,清算の結了等,,,2015-10-05,1,,,,,ジョイワークス,0
655,2460102006459,登記記録の閉鎖等,0,2023-11-08,2023-11-02,有限会社アルファタカダ薬局,,有限会社,北海道,中川郡池田町,字大通２丁目１４番地,,01,644,0830090,,,2023-11-02,清算の結了等,,,2015-10-05,1,,,,,,0
671,3010001116080,登記記録の閉鎖等,0,2023-11-08,2023-10-24,株式会社千里,,株式会社,東京都,千代田区,内神田１丁目１８番１号,,13,101,1010047,,,2023-10-24,清算の結了等,,,2015-10-05,1,,,,,センリ,0
688,3010401079753,登記記録の閉鎖等,0,2023-11-08,2023-10-30,株式会社リノ,,株式会社,東京都,港区,虎ノ門２丁目７番１０号,,13,103,1050001,,,2023-10-30,清算の結了等,,,2015-10-05,1,,,,,リノ,0
696,3010401109015,登記記録の閉鎖等,0,2023-11-08,2023-11-01,株式会社エムズエステート,,株式会社,東京都,港区,芝浦４丁目１５番１－３１０６号,,13,103,1080023,,,2023-11-01,合併による解散等,2010401109016,令和５年１１月１日東京都港区芝浦四丁目１５番１－３１０６号株式会社ケーズエステート（2010401109016）に合併し解散,2015-10-05,1,,,,,エムズエステート,0
697,3010401117653,登記記録の閉鎖等,0,2023-11-08,2023-11-01,株式会社ＧＯＬＤ　ＢＲＡＩＮＳ,,株式会社,東京都,港区,西麻布１丁目１３－１４シャロム西麻布５Ｆ,,13,103,1060031,,,2023-11-01,合併による解散等,1010401092733,令和５年１１月１日東京都港区六本木七丁目１７番１４号中湊ビル１Ｆ株式会社ＬＯＵＡＮＧＥ　ＴＯＫＹＯ（1010401092733）に合併し解散,2015-10-05,1,,,,,ゴールドブレインズ,0
761,3020001088385,登記記録の閉鎖等,0,2023-11-08,2023-11-01,株式会社エルエスマテリアルズ,,株式会社,東京都,港区,芝３丁目２４番２１号三和ビル,,13,103,1050014,,,2023-11-01,清算の結了等,,,2015-10-05,1,,,,,エルエスマテリアルズ,0
765,3020002014423,登記記録の閉鎖等,0,2023-11-08,2023-10-30,有限会社志田,,有限会社,神奈川県,横浜市青葉区,青葉台２丁目２６番地１,,14,117,2270062,,,2023-10-30,清算の結了等,,,2015-10-05,1,,,,,シダ,0
772,3021001026590,登記記録の閉鎖等,0,2023-11-08,2023-11-01,株式会社大和,,株式会社,神奈川県,座間市,座間１丁目２１４４番地２,,14,216,2520027,,,2023-11-01,清算の結了等,,,2015-10-05,1,,,,,ヤマト,0
783,3030001120188,登記記録の閉鎖等,0,2023-11-08,2023-10-27,株式会社ダイエイ技建,,株式会社,埼玉県,日高市,大字中鹿山４５２番地１５５,,11,242,3501232,,,2023-10-27,清算の結了等,,,2017-05-15,1,,,,,ダイエイギケン,0
791,3030002102251,登記記録の閉鎖等,0,2023-11-08,2023-10-30,有限会社ケイアンドワイ,,有限会社,埼玉県,川口市,前上町１２番１５号,,11,203,3330843,,,2023-10-30,清算の結了等,,,2015-10-05,1,,,,,ケイアンドワイ,0
792,3030002106046,登記記録の閉鎖等,0,2023-11-08,2023-10-30,有限会社長谷部軽合金鋳造所,,有限会社,埼玉県,川口市,並木１丁目１２番１８号,,11,203,3320034,,,2023-10-30,清算の結了等,,,2015-10-05,1,,,,,ハセベケイゴウキンチュウゾウショ,0
793,3030002118727,登記記録の閉鎖等,0,2023-11-08,2023-10-27,有限会社関越急送,,有限会社,埼玉県,深谷市,今泉８４３番地１,,11,218,3690215,,,2023-10-27,清算の結了等,,,2015-10-05,1,,,,,カンエツキュウソウ,0
800,3040001078070,登記記録の閉鎖等,0,2023-11-08,2023-10-31,株式会社ジャパンテクノロジーサポート,,株式会社,千葉県,いすみ市,大原４９５番地,,12,238,2980004,,,2023-10-31,清算の結了等,,,2015-10-05,1,,,,,ジャパンテクノロジーサポート,0
809,3040002037661,登記記録の閉鎖等,0,2023-11-08,2023-10-31,有限会社エリモ,,有限会社,千葉県,鎌ケ谷市,鎌ケ谷８丁目２番１４－２０６号,,12,224,2730105,,,2023-10-31,清算の結了等,,,2015-10-05,1,,,,,エリモ,0
819,3070005009663,登記記録の閉鎖等,0,2023-11-08,2023-11-02,特定非営利活動法人群馬外国人支援センター,,その他の設立登記法人,群馬県,高崎市,緑町４丁目５番地２０糸井ホールディングス緑町第一ビル,,10,202,3700073,,,2023-11-02,清算の結了等,,,2019-11-12,1,,,,,グンマガイコクジンシエンセンター,0
822,3090001016117,登記記録の閉鎖等,0,2023-11-08,2023-10-30,株式会社ＤｉＤｉ　Ｈｏｌｄｉｎｇｓ,,株式会社,山梨県,甲府市,丸の内１丁目１６番２０号ライオンズタワー１９０７,,19,201,4000031,,,2023-10-30,合併による解散等,3090001016174,令和５年１０月３０日山梨県甲府市丸の内一丁目１６番２０号ライオンズタワー１９０７株式会社ＤｉＤｉ　Ｉｎｖｅｓｔｍｅｎｔｓ（3090001016174）に合併し解散,2019-07-19,1,,,,,,0
825,3110001020388,登記記録の閉鎖等,0,2023-11-08,2023-11-02,株式会社ＮＫ,,株式会社,新潟県,妙高市,大字関川６４３番地９,,15,217,9492112,,,2023-11-02,清算の結了等,,,2015-10-05,1,,,,,エヌケイ,0
831,3120001218279,登記記録の閉鎖等,0,2023-11-08,2023-11-01,株式会社キンダーキッズ大阪,,株式会社,大阪府,大阪市北区,錦町４番３３号,,27,127,5300034,,,2023-11-01,合併による解散等,2120001101312,令和５年１１月１日大阪市北区池田町３番１号株式会社キンダーキッズ（2120001101312）に合併し解散,2019-01-11,1,,,,,キンダーキッズオオサカ,0
857,3122002009707,登記記録の閉鎖等,0,2023-11-08,2023-11-06,有限会社トキ貿易,,有限会社,大阪府,東大阪市,中新開２丁目１０番１７号,,27,227,5780911,,,2023-11-06,清算の結了等,,,2015-10-05,1,,,,,トキボウエキ,0
870,3130002029006,登記記録の閉鎖等,0,2023-11-08,2023-10-17,有限会社タカハラ,,有限会社,京都府,亀岡市,篠町見晴３丁目１２番４号,,26,206,6210824,,,2023-10-17,清算の結了等,,,2015-10-05,1,,,,,タカハラ,0
871,3140001014370,登記記録の閉鎖等,0,2023-11-08,2023-11-01,明和コンサルタント株式会社,,株式会社,兵庫県,神戸市兵庫区,新開地３丁目３番１７号,,28,105,6520811,,,2023-11-01,清算の結了等,,,2015-10-05,1,,,,,メイワコンサルタント,0
875,3140002058763,登記記録の閉鎖等,0,2023-11-08,2023-11-01,日本ポリマック有限会社,,有限会社,兵庫県,西宮市,上ケ原八番町１１番１５－６０２号,,28,204,6620882,,,2023-11-01,清算の結了等,,,2015-10-05,1,,,,,ニホンポリマック,0
892,3180002042251,登記記録の閉鎖等,0,2023-11-08,2023-11-06,石原冷熱有限会社,,有限会社,愛知県,名古屋市北区,丸新町２１０番地,,23,103,4620063,,,2023-11-06,清算の結了等,,,2015-10-05,1,,,,,イシハラレイネツ,0
902,3190002013078,登記記録の閉鎖等,0,2023-11-08,2023-10-26,東峰クリーニング有限会社,,有限会社,三重県,名張市,つつじが丘南１番町２３５番地,,24,208,5180421,,,2023-10-26,清算の結了等,,,2015-10-05,1,,,,,,0
903,3190002013994,登記記録の閉鎖等,0,2023-11-08,2023-11-06,株式会社スズ商会,,株式会社,三重県,松阪市,東町１７１番地,,24,204,5150012,,,2023-11-06,清算の結了等,,,2015-10-05,1,,,,,スズショウカイ,0
905,3200001009389,登記記録の閉鎖等,0,2023-11-08,2023-11-06,ｇｍｇメタル株式会社,,株式会社,岐阜県,大垣市,島里２丁目２７番地１,,21,202,5030935,,,2023-11-06,清算の結了等,,,2015-10-05,1,,,,,,0
913,3240002035703,登記記録の閉鎖等,0,2023-11-08,2023-11-01,有限会社丸二工業所,,有限会社,広島県,江田島市,江田島町切串３丁目４５番２７号,,34,215,7372111,,,2023-11-01,清算の結了等,,,2015-10-05,1,,,,,マルニコウギョウショ,0
931,3290001029081,登記記録の閉鎖等,0,2023-11-08,2023-10-25,株式会社ジーシーエス,,株式会社,福岡県,福岡市博多区,店屋町８番１７号,,40,132,8120025,,,2023-10-25,清算の結了等,,,2015-10-05,1,,,,,ジーシーエス,0
950,3340003001090,登記記録の閉鎖等,0,2023-11-08,2023-11-06,合同会社グローリー,,合同会社,鹿児島県,出水市,本町６－１３,,46,208,8990205,,,2023-11-06,清算の結了等,,,2015-10-05,1,,,,,グローリー,0
962,3370003005931,登記記録の閉鎖等,0,2023-11-08,2023-11-02,合同会社コネチヨ,,合同会社,宮城県,仙台市宮城野区,自由ケ丘８番３号,,04,102,9830831,,,2023-11-02,清算の結了等,,,2022-12-28,1,,,,,,0
969,3410001009277,登記記録の閉鎖等,0,2023-11-08,2023-11-01,株式会社ノースファーマ,,株式会社,秋田県,横手市,横手町字四ノ口３６番地,,05,203,0130061,,,2023-11-01,清算の結了等,,,2015-10-05,1,,,,,ノースファーマ,0
976,3440001006362,登記記録の閉鎖等,0,2023-11-08,2023-11-06,株式会社リアリティーファーム,,株式会社,北海道,茅部郡森町,字駒ケ岳４９１番地の１,,01,345,0492141,,,2023-11-06,清算の結了等,,,2015-10-05,1,,,,,リアリティーファーム,0
983,3500001013220,登記記録の閉鎖等,0,2023-11-08,2023-11-06,株式会社ミツル工業,,株式会社,愛媛県,今治市,高部甲１５３番地１,,38,202,7992113,,,2023-11-06,清算の結了等,,,2015-10-05,1,,,,,ミツルコウギョウ,0
986,3500002018838,登記記録の閉鎖等,0,2023-11-08,2023-11-06,有限会社ナベ企画,,有限会社,愛媛県,今治市,小泉２丁目１０番３６号,,38,202,7940064,,,2023-11-06,清算の結了等,,,2015-10-05,1,,,,,ナベキカク,0
1002,4010001145327,登記記録の閉鎖等,0,2023-11-08,2023-10-31,ハードランクデザイン株式会社,,株式会社,東京都,中央区,入船２丁目９番４号,,13,102,1040042,,,2023-10-31,清算の結了等,,,2015-10-05,1,,,,,ハードランクデザイン,0
1013,4010003020569,登記記録の閉鎖等,0,2023-11-08,2023-10-31,ＳＳＪメガソーラー２６合同会社,,合同会社,東京都,千代田区,神田三崎町２丁目４番１号ＴＵＧ－Ｉビル９Ｆ,,13,101,1010061,,,2023-10-31,清算の結了等,,,2015-10-05,1,,,,,エスエスジェイメガソーラーニジュウロク,0
1014,4010003032399,登記記録の閉鎖等,0,2023-11-08,2023-10-31,クラージュ合同会社,,合同会社,東京都,中央区,銀座６丁目１３番１６号銀座ＷａｌｌビルＵＣＦ５階,,13,102,1040061,,,2023-10-31,清算の結了等,,,2020-06-12,1,,,,,クラージュ,0
1033,4010403018907,登記記録の閉鎖等,0,2023-11-08,2023-11-01,合同会社奈七,,合同会社,東京都,港区,西麻布２丁目２４番３３号,,13,103,1060031,,,2023-11-01,清算の結了等,,,2018-07-06,1,,,,,ナナ,0
1034,4010403021472,登記記録の閉鎖等,0,2023-11-08,2023-11-01,合同会社ソーラーパーク３号,,合同会社,東京都,港区,六本木３丁目２番１号,,13,103,1060032,,,2023-11-01,合併による解散等,3011001038942,令和５年１１月１日東京都港区六本木三丁目２番１号合同会社ＤＭＭ．ｃｏｍ（3011001038942）に合併し解散,2019-09-20,1,,,,,ソーラーパークサンゴウ,0
1042,4010505002305,登記記録の閉鎖等,0,2023-11-08,2023-11-06,一般社団法人日本高視認性安全服研究所,,その他の設立登記法人,東京都,台東区,蔵前１丁目８番３号,,13,106,1110051,,,2023-11-06,清算の結了等,,,2015-10-05,1,,,,,ニホンコウシニンセイアンゼンフクケンキュウジョ,0
1046,4010603005647,登記記録の閉鎖等,0,2023-11-08,2023-11-01,ＴＡＩＹＯＵ合同会社,,合同会社,東京都,港区,虎ノ門３丁目２２番１０－２０１号,,13,103,1050001,,,2023-11-01,清算の結了等,,,2015-10-05,1,,,,,タイヨウ,0
1051,4010901051351,登記記録の閉鎖等,0,2023-11-08,2023-11-01,クラフタスジャパン株式会社,,株式会社,東京都,世田谷区,若林３丁目１番１８号,,13,112,1540023,,,2023-11-01,清算の結了等,,,2022-08-05,1,,,,,クラフタスジャパン,0
1064,4011003006450,登記記録の閉鎖等,0,2023-11-08,2023-11-01,合同会社ＭＺＯＭ,,合同会社,東京都,渋谷区,恵比寿南３丁目４番１３号,,13,113,1500022,,,2023-11-01,清算の結了等,,,2015-12-24,1,,,,,エムズィーーオーエム,0
1080,4011302004460,登記記録の閉鎖等,0,2023-11-08,2023-10-26,有限会社進幸産業,,有限会社,東京都,杉並区,井草５丁目４番１１号３０２,,13,115,1670021,,,2023-10-26,清算の結了等,,,2015-10-05,1,,,,,シンコウサンギョウ,0
1094,4012403001917,登記記録の閉鎖等,0,2023-11-08,2023-10-27,合同会社ＩＣＴ企画,,合同会社,東京都,武蔵野市,緑町１丁目７番２８号,,13,203,1800012,,,2023-10-27,清算の結了等,,,2015-10-05,1,,,,,アイシーティーキカク,0
1100,4020001065342,登記記録の閉鎖等,0,2023-11-08,2023-10-23,株式会社多摩植物園,,株式会社,神奈川県,川崎市麻生区,岡上６５６番地,,14,137,2150027,,,2023-10-23,清算の結了等,,,2023-08-09,1,,,,,タマショクブツエン,0
1130,4030002088837,登記記録の閉鎖等,0,2023-11-08,2023-10-27,有限会社ハッピーライフ赤山,,有限会社,埼玉県,越谷市,赤山町３丁目１６９番地,,11,222,3430807,,,2023-10-27,清算の結了等,,,2015-10-05,1,,,,,ハッピーライフアカヤマ,0
1145,4080001001903,登記記録の閉鎖等,0,2023-11-08,2023-11-06,株式会社ジェイユー静岡,,株式会社,静岡県,静岡市葵区,南沼上１８５９番地の２,,22,101,4200905,,,2023-11-06,清算の結了等,,,2015-10-05,1,,,,,ジェイユーシズオカ,0
1147,4080101008419,登記記録の閉鎖等,0,2023-11-08,2023-11-02,株式会社共和商会,,株式会社,静岡県,富士市,久沢１丁目３番６６号,,22,210,4190202,,,2023-11-02,清算の結了等,,,2015-10-05,1,,,,,キョウワショウカイ,0
1152,4100001004655,登記記録の閉鎖等,0,2023-11-08,2023-11-01,株式会社信毎販売研修所,,株式会社,長野県,長野市,稲里１丁目１０番地２,,20,201,3812243,,,2023-11-01,合併による解散等,2100001006802,令和５年１１月１日長野市川中島町原５３０番地２株式会社中島新聞店（2100001006802）に合併し解散,2015-10-05,1,,,,,シンマイハンバイケンシュウジョ,0
1154,4110002006501,登記記録の閉鎖等,0,2023-11-08,2023-11-02,有限会社みやびインテリア,,有限会社,新潟県,新潟市東区,中木戸２８６番地１３,,15,102,9500886,,,2023-11-02,清算の結了等,,,2015-10-05,1,,,,,ミヤビインテリア,0
1155,4120001042975,登記記録の閉鎖等,0,2023-11-08,2023-11-01,クローバーテキスタイル株式会社,,株式会社,大阪府,大阪市中央区,森ノ宮中央２丁目４－６,,27,128,5400003,,,2023-11-01,清算の結了等,,,2015-10-05,1,,,,,クローバーテキスタイル,0
1156,4120001054558,登記記録の閉鎖等,0,2023-11-08,2023-10-27,カワムラ実業株式会社,,株式会社,大阪府,大阪市淀川区,木川東３丁目１番２３号,,27,123,5320012,,,2023-10-27,清算の結了等,,,2015-10-05,1,,,,,,0
1157,4120001165891,登記記録の閉鎖等,0,2023-11-08,2023-11-02,株式会社大和美建,,株式会社,大阪府,大阪市西成区,潮路１丁目８番１８号,,27,122,5570052,,,2023-11-02,清算の結了等,,,2015-10-05,1,,,,,ダイワビケン,0
1162,4120001223897,登記記録の閉鎖等,0,2023-11-08,2023-11-01,株式会社アーチャーズ,,株式会社,大阪府,大阪市中央区,備後町２丁目５番８号,,27,128,5410051,,,2023-11-01,合併による解散等,6120001119334,令和５年１１月１日大阪市中央区備後町二丁目５番８号株式会社ＫＢＧホールディングス（6120001119334）に合併し解散,2019-09-24,1,,,,,アーチャーズ,0
1188,4120102001161,登記記録の閉鎖等,0,2023-11-08,2023-11-08,有限会社岡部電装工業所,,有限会社,大阪府,堺市中区,深阪６丁８番５６号,,27,142,5998253,,,2023-11-08,清算の結了等,,,2015-10-05,1,,,,,オカベデンソウコウギョウショ,0
1212,4140001090849,登記記録の閉鎖等,0,2023-11-08,2023-11-01,レセップス株式会社,,株式会社,兵庫県,西宮市,甲陽園目神山町２６番７１号,,28,204,6620011,,,2023-11-01,清算の結了等,,,2015-10-05,1,,,,,レセップス,0
1213,4140001096581,登記記録の閉鎖等,0,2023-11-08,2023-11-02,株式会社Ｒｅ－ｔａ,,株式会社,兵庫県,神戸市須磨区,須磨浦通４丁目８番６号,,28,107,6540055,,,2023-11-02,清算の結了等,,,2015-10-05,1,,,,,リータ,0
1223,4140002065503,登記記録の閉鎖等,0,2023-11-08,2023-11-02,有限会社コーリング,,有限会社,兵庫県,伊丹市,瑞穂町２丁目８３番地１パークハイツ１階,,28,207,6640013,,,2023-11-02,清算の結了等,,,2015-10-05,1,,,,,コーリング,0
1230,4180001116187,登記記録の閉鎖等,0,2023-11-08,2023-11-01,株式会社ライズフラッグ,,株式会社,愛知県,名古屋市東区,東桜２丁目１２番８号,,23,102,4610005,,,2023-11-01,合併による解散等,7180001106004,令和５年１１月１日名古屋市東区東桜二丁目１２番８号株式会社エスフラッグプロモーション（7180001106004）に合併し解散,2015-10-05,1,,,,,ライズフラッグ,0
1238,4190001001264,登記記録の閉鎖等,0,2023-11-08,2023-11-07,株式会社インテリア・ワールドマルミヤ,,株式会社,三重県,津市,久居射場町１４９番地２,,24,201,5141108,,,2023-11-07,清算の結了等,,,2015-10-05,1,,,,,インテリアワールドマルミヤ,0
1249,4240001027147,登記記録の閉鎖等,0,2023-11-08,2023-11-06,山清青果株式会社,,株式会社,広島県,呉市,豊町大長４８１９番地,,34,202,7340301,,,2023-11-06,清算の結了等,,,2015-10-05,1,,,,,ヤマキヨセイカ,0
1251,4250002008871,登記記録の閉鎖等,0,2023-11-08,2023-11-06,グロウスオーナメント有限会社,,有限会社,山口県,下関市,彦島福浦町１丁目１２番１５号,,35,201,7500087,,,2023-11-06,清算の結了等,,,2015-10-05,1,,,,,グロウスオーナメント,0
1256,4260005001583,登記記録の閉鎖等,0,2023-11-08,2023-11-07,医療法人秀和会,,その他の設立登記法人,岡山県,岡山市北区,弓之町５番８号,,33,101,7000817,,,2023-11-07,清算の結了等,,,2015-10-05,1,,,,,シュウワカイ,0
1259,4290001038577,登記記録の閉鎖等,0,2023-11-08,2023-10-25,株式会社福昌,,株式会社,福岡県,糟屋郡志免町,桜丘２丁目９番１２号,,40,343,8112201,,,2023-10-25,清算の結了等,,,2015-10-05,1,,,,,,0
1260,4290001081131,登記記録の閉鎖等,0,2023-11-08,2023-10-25,立志総研株式会社,,株式会社,福岡県,福岡市中央区,薬院２丁目３－５－４０２号,,40,133,8100022,,,2023-10-25,清算の結了等,,,2018-04-13,1,,,,,リッシソウケン,0
1266,4290802013737,登記記録の閉鎖等,0,2023-11-08,2023-11-06,かみや薬局有限会社,,有限会社,福岡県,北九州市八幡西区,萩原１丁目７番５号,,40,109,8060059,,,2023-11-06,清算の結了等,,,2015-10-05,1,,,,,カミヤヤッキョク,0
1270,4300002005847,登記記録の閉鎖等,0,2023-11-08,2023-11-06,有限会社大宅木箱,,有限会社,佐賀県,武雄市,武内町大字真手野２８２５１番地,,41,206,8492342,,,2023-11-06,清算の結了等,,,2015-10-05,1,,,,,オオヤキバコ,0
1285,4370001039105,登記記録の閉鎖等,0,2023-11-08,2023-10-30,株式会社エコラボ,,株式会社,東京都,文京区,小石川５丁目６番９－１００１号,,13,105,1120002,,,2023-10-30,清算の結了等,,,2016-01-19,1,,,,,エコラボ,0
1286,4370002010320,登記記録の閉鎖等,0,2023-11-08,2023-11-02,有限会社オリーブ,,有限会社,宮城県,仙台市青葉区,昭和町１番４３－３０１号,,04,101,9810913,,,2023-11-02,清算の結了等,,,2015-10-05,1,,,,,オリーブ,0
1301,4430002055557,登記記録の閉鎖等,0,2023-11-08,2023-10-30,有限会社ヤマジュウ・トミタ,,有限会社,北海道,小樽市,赤岩１丁目２７番３号,,01,203,0470046,,,2023-10-30,清算の結了等,,,2015-10-05,1,,,,,ヤマジュウトミタ,0
1322,5010001129568,登記記録の閉鎖等,0,2023-11-08,2023-10-31,フェリシオンジャパン株式会社,,株式会社,東京都,港区,南青山２丁目２番１５号ＷＩＮ青山５３１,,13,103,1070062,,,2023-10-31,清算の結了等,,,2015-10-05,1,,,,,フェリシオンジャパン,0
1332,5010003018414,登記記録の閉鎖等,0,2023-11-08,2023-10-31,ＳＳＪメガソーラー８合同会社,,合同会社,東京都,千代田区,神田三崎町２丁目４番１号ＴＵＧ－Ｉビル９Ｆ,,13,101,1010061,,,2023-10-31,清算の結了等,,,2015-10-05,1,,,,,エスエスジェイメガソーラーハチ,0
1333,5010003020485,登記記録の閉鎖等,0,2023-11-08,2023-10-31,ＳＳＪメガソーラー１７合同会社,,合同会社,東京都,千代田区,神田三崎町２丁目４番１号ＴＵＧ－Ｉビル９Ｆ,00112217,13,101,1010061,,,2023-10-31,清算の結了等,,,2015-10-05,1,,,,,エスエスジェイメガソーラージュウナナ,0
1334,5010003020568,登記記録の閉鎖等,0,2023-11-08,2023-10-31,ＳＳＪメガソーラー２５合同会社,,合同会社,東京都,千代田区,神田三崎町２丁目４番１号ＴＵＧ－Ｉビル９Ｆ,,13,101,1010061,,,2023-10-31,清算の結了等,,,2015-10-05,1,,,,,エスエスジェイメガソーラーニジュウゴ,0
1350,5010403015218,登記記録の閉鎖等,0,2023-11-08,2023-10-31,Ａｃｌａｒａ　Ｊａｐａｎ合同会社,,合同会社,東京都,港区,西新橋３丁目２４番８号山内ビル３階,,13,103,1050003,,,2023-10-31,清算の結了等,,,2016-08-22,1,,,,,アクララジャパン,0
1356,5010601041643,登記記録の閉鎖等,0,2023-11-08,2023-10-30,株式会社Ｓ＆Ｔコミュニケーションズ,,株式会社,東京都,墨田区,錦糸３丁目３番９号イーストビル錦糸町３０１,,13,107,1300013,,,2023-10-30,清算の結了等,,,2015-10-05,1,,,,,エスアンドティコミュニケーションズ,0
1374,5011003012803,登記記録の閉鎖等,0,2023-11-08,2023-10-27,合同会社ＤＡＲＥＯＮＡ,,合同会社,東京都,目黒区,上目黒３丁目１番１４号メイツ中目黒３０５,,13,110,1530051,,,2023-10-27,清算の結了等,,,2021-05-31,1,,,,,ダレオナ,0
1380,5011102019105,登記記録の閉鎖等,0,2023-11-08,2023-11-02,有限会社オデヲン・グラフィックス,,有限会社,東京都,新宿区,富久町８－１９エスポワール市ヶ谷１００１,,13,104,1620067,,,2023-11-02,清算の結了等,,,2015-10-05,1,,,,,オデヲングラフィックス,0
1382,5011105007230,登記記録の閉鎖等,0,2023-11-08,2023-11-02,ＷＯＲＫ　ｔｈｅ　ＭＡＧＩＣ　ＯＮ行政書士法人,,その他の設立登記法人,東京都,新宿区,四谷１丁目１８番地,,13,104,1600004,,,2023-11-02,清算の結了等,,,2016-04-26,1,,,,,ワークザマジックオン,0
1383,5011201024393,登記記録の閉鎖等,0,2023-11-08,2023-10-27,萩興産株式会社,,株式会社,東京都,中野区,野方１丁目３０番１号松永ビル,,13,114,1650027,,,2023-10-27,清算の結了等,,,2023-02-07,1,,,,,ハギコウサン,0
1394,5011401002265,登記記録の閉鎖等,0,2023-11-08,2023-11-01,株式会社三栄プレス,,株式会社,東京都,板橋区,東新町２丁目２８番８号,,13,119,1740074,,,2023-11-01,清算の結了等,,,2015-10-05,1,,,,,,0
1400,5011701022021,登記記録の閉鎖等,0,2023-11-08,2023-10-31,株式会社アセットプラス,,株式会社,東京都,世田谷区,上野毛４丁目４番１７－３２１号,,13,112,1580093,,,2023-10-31,清算の結了等,,,2018-08-23,1,,,,,アセットプラス,0
1431,5021002060356,登記記録の閉鎖等,0,2023-11-08,2023-11-02,有限会社大磯自動車鈑金塗装工場,,有限会社,神奈川県,中郡大磯町,国府本郷５３２番地の１,,14,341,2590111,,,2023-11-02,清算の結了等,,,2015-10-05,1,,,,,オオイソジドウシャバンキントソウコウジョウ,0
1452,5040001119707,登記記録の閉鎖等,0,2023-11-08,2023-10-31,株式会社ＦＡＢＲＩＣ,,株式会社,千葉県,松戸市,松戸１８３６番地メグロビル３階,,12,207,2710092,,,2023-10-31,清算の結了等,,,2021-08-11,1,,,,,ファブリツク,0
1464,5050001009262,登記記録の閉鎖等,0,2023-11-08,2023-10-30,株式会社かどや商店,,株式会社,茨城県,土浦市,中央１丁目１４番６号,,08,203,3000043,,,2023-10-30,清算の結了等,,,2015-10-05,1,,,,,カドヤショウテン,0
1470,5060002007644,登記記録の閉鎖等,0,2023-11-08,2023-11-01,有限会社廣田園芸,,有限会社,栃木県,宇都宮市,飯田町１５２１番地,,09,201,3210347,,,2023-11-01,合併による解散等,7060001023558,令和５年１１月１日栃木県鹿沼市高谷１０２６番地株式会社大柿園芸（7060001023558）に合併し解散,2015-10-05,1,,,,,ヒロタエンゲイ,0
1477,5080102000860,登記記録の閉鎖等,0,2023-11-08,2023-11-07,有限会社柏木製作所,,有限会社,静岡県,沼津市,大岡２６７０番地の１,,22,203,4100022,,,2023-11-07,清算の結了等,,,2015-10-05,1,,,,,カシワギセイサクショ,0
1478,5080105004982,登記記録の閉鎖等,0,2023-11-08,2023-11-02,一般財団法人知と文明のフォーラム,,その他の設立登記法人,東京都,調布市,布田２丁目２７番地１０,,13,208,1820024,,,2023-11-02,清算の結了等,,,2015-10-05,1,,,,,チトブンメイノフォーラム,0
1480,5100002013456,登記記録の閉鎖等,0,2023-11-08,2023-10-31,有限会社佐藤商店,,有限会社,長野県,小諸市,赤坂１丁目６番１６号,,20,208,3840011,,,2023-10-31,清算の結了等,,,2015-10-05,1,,,,,サトウショウテン,0
1484,5120001085230,登記記録の閉鎖等,0,2023-11-08,2023-11-07,株式会社東栄建築事務所,00028636,株式会社,大阪府,大阪市平野区,平野南４丁目６番２－８１３号,,27,126,5470031,,,2023-11-07,清算の結了等,,,2015-10-05,1,,,,,トウエイケンチクジムショ,0
1513,5122002012675,登記記録の閉鎖等,0,2023-11-08,2023-11-06,有限会社ウエスト工業,,有限会社,大阪府,大東市,新田境町１番１０号,,27,218,5740051,,,2023-11-06,清算の結了等,,,2015-10-05,1,,,,,,0
1514,5130001023692,登記記録の閉鎖等,0,2023-11-08,2023-10-30,株式会社パラシャクティカミヤ,,株式会社,京都府,京都市右京区,西京極西衣手町５番地の１３,,26,108,6150877,,,2023-10-30,清算の結了等,,,2015-10-05,1,,,,,パラシャクティカミヤ,0
1537,5140002021587,登記記録の閉鎖等,0,2023-11-08,2023-11-01,有限会社奥井,,有限会社,兵庫県,神戸市東灘区,御影山手３丁目１３番３号,,28,101,6580065,,,2023-11-01,清算の結了等,,,2015-10-05,1,,,,,オクイ,0
1538,5140003015316,登記記録の閉鎖等,0,2023-11-08,2023-11-06,合同会社川瀬好彦事務所,,合同会社,兵庫県,神戸市東灘区,向洋町中５丁目６番地の１、９０８号,,28,101,6580032,,,2023-11-06,清算の結了等,,,2020-08-26,1,,,,,カワセヨシヒコジムショ,0
1546,5180001113010,登記記録の閉鎖等,0,2023-11-08,2023-11-02,ティースリーサービス株式会社,,株式会社,愛知県,名古屋市港区,正保町２丁目６番地,,23,111,4550074,,,2023-11-02,清算の結了等,,,2015-10-05,1,,,,,ティースリーサービス,0
1553,5180301003687,登記記録の閉鎖等,0,2023-11-08,2023-11-06,株式会社三和工業,,株式会社,愛知県,岡崎市,大樹寺１丁目１０番地１２,,23,202,4442134,,,2023-11-06,清算の結了等,,,2015-10-05,1,,,,,,0
1555,5180302001888,登記記録の閉鎖等,0,2023-11-08,2023-10-30,有限会社スポット便,,有限会社,愛知県,岡崎市,寿町４番地９,,23,202,4442116,,,2023-10-30,清算の結了等,,,2015-10-05,1,,,,,スポットビン,0
1564,5230002009714,登記記録の閉鎖等,0,2023-11-08,2023-11-02,有限会社浦山重機,,有限会社,富山県,南砺市,小坂６３３番地の２,,16,210,9391671,,,2023-11-02,清算の結了等,,,2015-10-05,1,,,,,ウラヤマジュウキ,0
1580,5290801014082,登記記録の閉鎖等,0,2023-11-08,2023-11-06,株式会社川村岩吉商店,,株式会社,福岡県,直方市,大字感田字小野牟田３５９７番地の９,,40,204,8220001,,,2023-11-06,清算の結了等,,,2015-10-05,1,,,,,カワムライワキチショウテン,0
1606,5380002025184,登記記録の閉鎖等,0,2023-11-08,2023-11-02,有限会社ナガシマドラム,,有限会社,福島県,いわき市,桜ケ丘３丁目２７番地の１サンヒルズ湯本４０７号,,07,204,9728324,,,2023-11-02,清算の結了等,,,2015-10-05,1,,,,,ナガシマドラム,0
1612,5410002000902,登記記録の閉鎖等,0,2023-11-08,2023-11-01,有限会社オージェイ販売,,有限会社,秋田県,秋田市,中通６丁目７番９号,,05,201,0100001,,,2023-11-01,清算の結了等,,,2015-10-05,1,,,,,オージェイハンバイ,0
1636,6010001097236,登記記録の閉鎖等,0,2023-11-08,2023-10-31,株式会社フォルツァテクノス,,株式会社,東京都,文京区,小日向２丁目１番１０号,,13,105,1120006,,,2023-10-31,清算の結了等,,,2015-10-05,1,,,,,フォルツァテクノス,0
1640,6010001155563,登記記録の閉鎖等,0,2023-11-08,2023-10-31,株式会社ブレス,,株式会社,東京都,中央区,日本橋本石町３丁目１番２号,,13,102,1030021,,,2023-10-31,清算の結了等,,,2015-10-05,1,,,,,ブレス,0
1661,6010403011331,登記記録の閉鎖等,0,2023-11-08,2023-11-01,清水合同会社,,合同会社,東京都,港区,赤坂１丁目５番１３号,,13,103,1070052,,,2023-11-01,清算の結了等,,,2015-10-05,1,,,,,シミズ,0
1708,6013302003333,登記記録の閉鎖等,0,2023-11-08,2023-11-02,山栄造花有限会社,,有限会社,東京都,豊島区,長崎３丁目１９番９号,,13,116,1710051,,,2023-11-02,清算の結了等,,,2015-10-05,1,,,,,サンエイゾウカ,0
1711,6020001109568,登記記録の閉鎖等,0,2023-11-08,2023-11-02,株式会社クロスエス,,株式会社,東京都,墨田区,江東橋３丁目２番２号,,13,107,1300022,,,2023-11-02,合併による解散等,8020001111497,令和５年１０月３１日東京都品川区東五反田一丁目２０番３号株式会社クロスディ（8020001111497）に合併し解散,2015-10-05,1,,,,,クロスエス,0
1712,6020001117471,登記記録の閉鎖等,0,2023-11-08,2023-10-25,ＦＬＡＸ　ＪＡＰＡＮ株式会社,,株式会社,神奈川県,横浜市中区,本牧緑ケ丘９９－１,,14,104,2310832,,,2023-10-25,清算の結了等,,,2016-08-15,1,,,,,フラックスジャパン,0
1749,6040001092820,登記記録の閉鎖等,0,2023-11-08,2023-10-31,株式会社ｃｒｅａｔｏｒｓｈｉｐｓ,,株式会社,千葉県,印西市,中央南２丁目１－７０８,,12,231,2701340,,,2023-10-31,清算の結了等,,,2015-11-17,1,,,,,クリエイターシップス,0
1761,6060002016297,登記記録の閉鎖等,0,2023-11-08,2023-11-02,有限会社奈良部商店,,有限会社,栃木県,日光市,足尾町赤沢１９番２２号,,09,206,3211524,,,2023-11-02,清算の結了等,,,2015-10-05,1,,,,,ナラブショウテン,0
1766,6080001001389,登記記録の閉鎖等,0,2023-11-08,2023-11-07,株式会社建福工業所,00067218,株式会社,静岡県,静岡市葵区,安西１丁目７１番地,,22,101,4200011,,,2023-11-07,清算の結了等,,,2015-10-05,1,,,,,タテフクコウギョウショ,0
1769,6080102019875,登記記録の閉鎖等,0,2023-11-08,2023-11-02,有限会社里福,,有限会社,静岡県,伊東市,幸町２番２号,,22,208,4140017,,,2023-11-02,清算の結了等,,,2015-10-05,1,,,,,サトフク,0
1783,6110001026432,登記記録の閉鎖等,0,2023-11-08,2023-11-06,株式会社ナグモヤ,,株式会社,新潟県,南魚沼市,上原１２７番地２,,15,226,9497137,,,2023-11-06,清算の結了等,,,2015-10-05,1,,,,,ナグモヤ,0
1786,6120001062963,登記記録の閉鎖等,0,2023-11-08,2023-11-01,株式会社協進電工社,,株式会社,大阪府,豊中市,刀根山６丁目１５番２５－３０１号,,27,203,5600045,,,2023-11-01,清算の結了等,,,2015-10-05,1,,,,,キョウシンデンコウシャ,0
1789,6120001175039,登記記録の閉鎖等,0,2023-11-08,2023-11-02,株式会社山高物産,00029718,株式会社,大阪府,大阪市住吉区,東粉浜３丁目１２番１３号,,27,120,5580051,,,2023-11-02,合併による解散等,5011001098877,令和５年１０月２９日大阪市住吉区東粉浜三丁目１２番１３号株式会社財富不動産（5011001098877）に合併し解散,2015-10-05,1,,,,,サンコウブッサン,0
1805,6120002051478,登記記録の閉鎖等,0,2023-11-08,2023-11-01,有限会社ベストプランナー,,有限会社,大阪府,大阪市西区,靱本町１丁目４番５号,,27,106,5500004,,,2023-11-01,清算の結了等,,,2015-10-05,1,,,,,,0
1806,6120003012181,登記記録の閉鎖等,0,2023-11-08,2023-11-06,合同会社ＪＲＣ,,合同会社,大阪府,大阪市西区,新町１丁目２１番８－２９０２号,,27,106,5500013,,,2023-11-06,清算の結了等,,,2016-11-16,1,,,,,ジェイアールシー,0
1812,6120101030795,登記記録の閉鎖等,0,2023-11-08,2023-11-06,株式会社義建興業,,株式会社,大阪府,富田林市,平町１丁目９４４番地の５,,27,214,5840002,,,2023-11-06,清算の結了等,,,2015-10-05,1,,,,,ヨシケンコウギョウ,0
1815,6120901017926,登記記録の閉鎖等,0,2023-11-08,2023-11-01,株式会社ホリスティックカンパニー,,株式会社,大阪府,高槻市,北園町１０番１０号,,27,207,5690802,,,2023-11-01,清算の結了等,,,2015-10-05,1,,,,,ホリスティックカンパニー,0
1834,6140001110646,登記記録の閉鎖等,0,2023-11-08,2023-11-02,株式会社Ｌｉｎｋｅｒ－ｔｅｃ,,株式会社,兵庫県,伊丹市,森本２丁目１０,,28,207,6640842,,,2023-11-02,清算の結了等,,,2018-07-13,1,,,,,リンカーテック,0
1855,6180003010849,登記記録の閉鎖等,0,2023-11-08,2023-11-02,丸勝鉱業合資会社,,合資会社,愛知県,尾張旭市,旭前町１丁目３番地２０カーサ旭前１０２号,,23,226,4880855,,,2023-11-02,清算の結了等,,,2015-10-05,1,,,,,マルカツコウギョウ,0
1863,6190001014941,登記記録の閉鎖等,0,2023-11-08,2023-11-06,イチニサンシ株式会社,,株式会社,三重県,四日市市,河原田町１３０１番地,,24,202,5100874,,,2023-11-06,清算の結了等,,,2015-10-05,1,,,,,イチニサンシ,0
1871,6200005009234,登記記録の閉鎖等,0,2023-11-08,2023-11-06,中央高速輸送センター事業協同組合,,その他の設立登記法人,岐阜県,恵那市,武並町竹折字向流１７０１番地の８,,21,210,5097122,,,2023-11-06,清算の結了等,,,2015-10-05,1,,,,,チュウオウコウソクユソウセンター,0
1875,6220001006803,登記記録の閉鎖等,0,2023-11-08,2023-11-06,ミカゲ株式会社,,株式会社,石川県,金沢市,湊１丁目４５番地４,,17,201,9200211,,,2023-11-06,清算の結了等,,,2015-10-05,1,,,,,ミカゲ,0
1878,6230003001074,登記記録の閉鎖等,0,2023-11-08,2023-11-06,合同会社ＫＳサービス,,合同会社,富山県,富山市,針原中町１０６０－７,,16,201,9318431,,,2023-11-06,清算の結了等,,,2016-12-27,1,,,,,ケーエスサービス,0
1879,6240001029587,登記記録の閉鎖等,0,2023-11-08,2023-11-06,株式会社中国トラベル,,株式会社,広島県,福山市,南蔵王町５丁目１０番１１号,,34,207,7210973,,,2023-11-06,合併による解散等,2260001007082,令和５年１１月１日岡山市北区錦町６番１号株式会社リョービツアーズ（2260001007082）に合併し解散,2015-10-05,1,,,,,チュウゴクトラベル,0
1880,6240002013838,登記記録の閉鎖等,0,2023-11-08,2023-11-01,有限会社ビューニック,,有限会社,広島県,広島市南区,南大河町６番５号,,34,103,7340043,,,2023-11-01,清算の結了等,,,2015-10-05,1,,,,,ビューニック,0
1904,6300001000194,登記記録の閉鎖等,0,2023-11-08,2023-11-02,株式会社杵島商会,,株式会社,佐賀県,佐賀市,若宮１丁目１０番３－８０２号,,41,201,8490926,,,2023-11-02,清算の結了等,,,2015-10-05,1,,,,,キシマショウカイ,0
1912,6330002004051,登記記録の閉鎖等,0,2023-11-08,2023-10-31,有限会社近藤文具店,,有限会社,熊本県,熊本市中央区,南坪井町１番４号,,43,101,8600848,,,2023-10-31,清算の結了等,,,2015-10-05,1,,,,,コンドウブングテン,0
1917,6340002005362,登記記録の閉鎖等,0,2023-11-08,2023-11-06,有限会社西陵電設,,有限会社,鹿児島県,鹿児島市,西陵２丁目３番７号,,46,201,8900032,,,2023-11-06,清算の結了等,,,2015-10-05,1,,,,,セイリョウデンセツ,0
1932,6370001017315,登記記録の閉鎖等,0,2023-11-08,2023-11-01,エイチ・アイ・ケイ株式会社,,株式会社,宮城県,仙台市泉区,紫山５丁目２９番地の１,,04,105,9813205,,,2023-11-01,合併による解散等,5370801000974,令和５年１１月１日仙台市泉区大沢三丁目２番地の５アオバ・グループ・ホールディングス株式会社（5370801000974）に合併し解散,2015-10-05,1,,,,,エイチアイケイ,0
1936,6370001045984,登記記録の閉鎖等,0,2023-11-08,2023-11-06,株式会社豊太,,株式会社,宮城県,仙台市太白区,青山２丁目２４－１３－１０３,,04,104,9820834,,,2023-11-06,清算の結了等,,,2020-07-22,1,,,,,,0
1937,6370002006408,登記記録の閉鎖等,0,2023-11-08,2023-11-01,有限会社宮城野総業,,有限会社,宮城県,仙台市若林区,五橋３丁目５番２２号,,04,103,9840022,,,2023-11-01,合併による解散等,7370002014054,令和５年１１月１日仙台市青葉区中央一丁目９番５号株式会社吉田屋（7370002014054）に合併し解散,2015-10-05,1,,,,,ミヤギノソウギョウ,0
1954,6430002040169,登記記録の閉鎖等,0,2023-11-08,2023-10-30,有限会社アジアプラス,,有限会社,北海道,札幌市西区,山の手三条７丁目４番１７号,,01,107,0630003,,,2023-10-30,清算の結了等,,,2015-10-05,1,,,,,アジアプラス,0
1969,7010001190816,登記記録の閉鎖等,0,2023-11-08,2023-10-31,株式会社Ｍ＆Ａ取引所,,株式会社,東京都,千代田区,飯田橋１丁目７番４号,,13,101,1020072,,,2023-10-31,清算の結了等,,,2018-04-11,1,,,,,エムアンドエートリヒキジョ,0
1977,7010002000247,登記記録の閉鎖等,0,2023-11-08,2023-10-31,有限会社アシストエンジニア,,有限会社,東京都,文京区,大塚５丁目１３番７号,,13,105,1120012,,,2023-10-31,清算の結了等,,,2015-10-05,1,,,,,アシストエンジニア,0
1978,7010002000676,登記記録の閉鎖等,0,2023-11-08,2023-10-30,有限会社井上プレイテイング,,有限会社,東京都,文京区,千駄木３丁目４２番１０号,,13,105,1130022,,,2023-10-30,清算の結了等,,,2015-10-05,1,,,,,イノウエプレイテイング,0
1980,7010002026044,登記記録の閉鎖等,0,2023-11-08,2023-10-30,有限会社やすや,,有限会社,東京都,中央区,日本橋蛎殻町１丁目３３番７号,,13,102,1030014,,,2023-10-30,清算の結了等,,,2015-10-05,1,,,,,ヤスヤ,0
1981,7010002045358,登記記録の閉鎖等,0,2023-11-08,2023-10-31,有限会社タイヨープランニング,,有限会社,東京都,千代田区,西神田３丁目３番９号,,13,101,1010065,,,2023-10-31,合併による解散等,3010001092909,令和５年１０月３１日東京都千代田区西神田三丁目３番９号株式会社大洋図書（3010001092909）に合併し解散,2015-10-05,1,,,,,タイヨープランニング,0
1987,7010401055123,登記記録の閉鎖等,0,2023-11-08,2023-10-30,ＷＰＣコーポレーション株式会社,,株式会社,東京都,千代田区,神田錦町３丁目２１番地プラットフォームスクエア１２９９,,13,101,1010054,,,2023-10-30,清算の結了等,,,2015-10-05,1,,,,,ダブリュピーシーコーポレーション,0
2023,7011002032619,登記記録の閉鎖等,0,2023-11-08,2023-11-01,有限会社Ｓｗｅｅｔｉｅ,,有限会社,東京都,渋谷区,神宮前１丁目１７番５号,,13,113,1500001,,,2023-11-01,清算の結了等,,,2015-10-05,1,,,,,スイーティー,0
2045,7012301007658,登記記録の閉鎖等,0,2023-11-08,2023-11-01,株式会社ＦＭコミュニケーション,,株式会社,東京都,町田市,木曽東１丁目１５番４７号１,,13,209,1940036,,,2023-11-01,合併による解散等,5012301001200,令和５年１１月１日東京都町田市木曽東一丁目１５番４７号１株式会社澁谷石油（5012301001200）に合併し解散,2015-10-05,1,,,,,エフエムコミュニケーション,0
2057,7020002048987,登記記録の閉鎖等,0,2023-11-08,2023-10-26,有限会社中華園,,有限会社,神奈川県,横浜市南区,庚台２０番地,,14,105,2320008,,,2023-10-26,清算の結了等,,,2015-10-05,1,,,,,,0
2072,7030002021844,登記記録の閉鎖等,0,2023-11-08,2023-10-26,有限会社村田商事,,有限会社,埼玉県,さいたま市岩槻区,東町１丁目１１番１０号,,11,110,3390055,,,2023-10-26,清算の結了等,,,2015-10-05,1,,,,,ムラタショウジ,0
2086,7060001021545,登記記録の閉鎖等,0,2023-11-08,2023-11-02,株式会社大栄製作所,,株式会社,栃木県,下都賀郡壬生町,大字安塚８番地２７,,09,361,3210201,,,2023-11-02,清算の結了等,,,2015-10-05,1,,,,,ダイエイセイサクジョ,0
2093,7070002012765,登記記録の閉鎖等,0,2023-11-08,2023-11-02,有限会社ランチボックス,,有限会社,群馬県,高崎市,真町５０番地サーパス高崎駅前４０６号,,10,202,3700054,,,2023-11-02,清算の結了等,,,2015-10-05,1,,,,,ランチボックス,0
2100,7080002009546,登記記録の閉鎖等,0,2023-11-08,2023-11-06,有限会社オヤイヅ,,有限会社,静岡県,静岡市清水区,杉山７０４番地の２,,22,103,4240106,,,2023-11-06,清算の結了等,,,2015-10-05,1,,,,,オヤイヅ,0
2102,7080002013192,登記記録の閉鎖等,0,2023-11-08,2023-11-06,有限会社キャンビー,,有限会社,静岡県,静岡市駿河区,小鹿８６５番地の１５三輪ビル３０８,,22,102,4228021,,,2023-11-06,清算の結了等,,,2015-10-05,1,,,,,キャンビー,0
2108,7090001011691,登記記録の閉鎖等,0,2023-11-08,2023-11-06,株式会社ハルク,,株式会社,山梨県,韮崎市,藤井町北下條３９２番地の１,,19,207,4070003,,,2023-11-06,清算の結了等,,,2015-10-05,1,,,,,ハルク,0
2109,7090002012532,登記記録の閉鎖等,0,2023-11-08,2023-11-06,富士セイケン有限会社,,有限会社,山梨県,南都留郡富士河口湖町,小立６３４番地,,19,430,4010302,,,2023-11-06,清算の結了等,,,2015-10-05,1,,,,,フジセイケン,0
2111,7100001032224,登記記録の閉鎖等,0,2023-11-08,2023-10-31,株式会社道發,,株式会社,長野県,上伊那郡南箕輪村,２０４５番地１０,,20,385,3994511,,,2023-10-31,清算の結了等,,,2019-05-24,1,,,,,ドウハツ,0
2114,7110002031174,登記記録の閉鎖等,0,2023-11-08,2023-11-02,有限会社島寛,,有限会社,新潟県,長岡市,栃堀４５２５番地,,15,202,9400145,,,2023-11-02,清算の結了等,,,2015-10-05,1,,,,,シマカン,0
2115,7120001105267,登記記録の閉鎖等,0,2023-11-08,2023-11-06,株式会社セブンブリッジ,,株式会社,奈良県,奈良市,二名２丁目２４５８番地の８,,29,201,6310072,,,2023-11-06,清算の結了等,,,2015-10-05,1,,,,,セブンブリッジ,0
2121,7120001211362,登記記録の閉鎖等,0,2023-11-08,2023-11-01,株式会社タレステクニカ,,株式会社,大阪府,大阪市西区,新町１丁目８番１号,,27,106,5500013,,,2023-11-01,清算の結了等,,,2018-02-13,1,,,,,タレステクニカ,0
2128,7120101045933,登記記録の閉鎖等,0,2023-11-08,2023-10-31,岬フード株式会社,,株式会社,大阪府,泉大津市,臨海町２丁目１番地,,27,206,5950075,,,2023-10-31,清算の結了等,,,2015-10-05,1,,,,,ミサキフード,0
2142,7130003005010,登記記録の閉鎖等,0,2023-11-08,2023-10-30,ハミングバード合同会社,,合同会社,京都府,京都市山科区,西野山階町４０番地９,,26,110,6078346,,,2023-10-30,清算の結了等,,,2017-04-24,1,,,,,ハミングバード,0
2145,7140001054479,登記記録の閉鎖等,0,2023-11-08,2023-11-01,株式会社ホータス,,株式会社,兵庫県,尼崎市,武庫町１丁目５０番３号,,28,202,6610044,,,2023-11-01,清算の結了等,,,2015-10-05,1,,,,,ホータス,0
2148,7140001099912,登記記録の閉鎖等,0,2023-11-08,2023-11-01,匠＆イノベーション株式会社,,株式会社,兵庫県,芦屋市,南宮町２番１０－６０３号,,28,206,6590024,,,2023-11-01,清算の結了等,,,2015-11-05,1,,,,,タクミアンドイノベーション,0
2166,7180001045152,登記記録の閉鎖等,0,2023-11-08,2023-11-02,株式会社名鉄レストラン,,株式会社,愛知県,名古屋市中村区,名駅１丁目２番４号,,23,105,4500002,,,2023-11-02,清算の結了等,,,2015-10-05,1,,,,,メイテツレストラン,0
2180,7200001014179,登記記録の閉鎖等,0,2023-11-08,2023-11-06,株式会社ヒロセ,,株式会社,岐阜県,大垣市,小泉町３７１番地１,,21,202,5030816,,,2023-11-06,清算の結了等,,,2015-10-05,1,,,,,ヒロセ,0
2186,7230002006321,登記記録の閉鎖等,0,2023-11-08,2023-11-06,三田建築有限会社,,有限会社,富山県,富山市,婦中町大瀬谷８１５番地,,16,201,9392635,,,2023-11-06,清算の結了等,,,2015-10-05,1,,,,,ミツダケンチク,0
2189,7240002014034,登記記録の閉鎖等,0,2023-11-08,2023-11-06,有限会社平野店装,,有限会社,広島県,広島市南区,段原３丁目１５番３号,,34,103,7320811,,,2023-11-06,清算の結了等,,,2015-10-05,1,,,,,ヒラノテンソウ,0
2195,7250001009901,登記記録の閉鎖等,0,2023-11-08,2023-11-06,協和建設株式会社,,株式会社,山口県,周南市,福川１丁目１６番７号,,35,215,7460038,,,2023-11-06,清算の結了等,,,2015-10-05,1,,,,,キョウワケンセツ,0
2207,7280003000038,登記記録の閉鎖等,0,2023-11-08,2023-11-06,新央運輸合名会社,,合名会社,島根県,松江市,東奥谷町１８９番地１,,32,201,6900871,,,2023-11-06,清算の結了等,,,2015-10-05,1,,,,,シンオウウンユ,0
2229,7350001006566,登記記録の閉鎖等,0,2023-11-08,2023-11-01,サニティションコンサルタント株式会社,,株式会社,宮崎県,宮崎市,鶴島１丁目３番５号,,45,201,8800014,,,2023-11-01,清算の結了等,,,2015-10-05,1,,,,,サニティションコンサルタント,0
2241,7370201003659,登記記録の閉鎖等,0,2023-11-08,2023-11-06,株式会社ミヤマ・コーケン,,株式会社,宮城県,大崎市,古川小野字中蝦沢１３９番８６,,04,215,9896251,,,2023-11-06,清算の結了等,,,2015-10-05,1,,,,,,0
2243,7380001008782,登記記録の閉鎖等,0,2023-11-08,2023-11-01,株式会社大崎商事,,株式会社,福島県,郡山市,昭和１丁目２番５号,,07,203,9638822,,,2023-11-01,合併による解散等,7380001004732,令和５年１１月１日福島県郡山市舞木町正神平１５６番地株式会社大崎製作所（7380001004732）に合併し解散,2015-10-05,1,,,,,オオサキショウジ,0
2252,7430001006599,登記記録の閉鎖等,0,2023-11-08,2023-10-30,株式会社坂本建築設計事務所,,株式会社,北海道,札幌市中央区,北三条東５丁目５番地岩佐ビル,,01,101,0600033,,,2023-10-30,清算の結了等,,,2015-10-05,1,,,,,サカモトケンチクセッケイジムショ,0
2267,7470002000011,登記記録の閉鎖等,0,2023-11-08,2023-11-06,上野海運有限会社,,有限会社,香川県,香川郡直島町,８９５番地３,,37,364,7613110,,,2023-11-06,清算の結了等,,,2015-10-05,1,,,,,ウエノカイウン,0
2284,8010001201679,登記記録の閉鎖等,0,2023-11-08,2023-10-31,株式会社Ｖｏｉｃｅ　Ｍａｎａｇｅｍｅｎｔ　Ａｇｅｎｃｙ,,株式会社,東京都,中央区,築地１丁目４番３－６０４号,,13,102,1040045,,,2023-10-31,清算の結了等,,,2019-06-17,1,,,,,ヴォイスマネジメントエージェンシー,0
2296,8010003021431,登記記録の閉鎖等,0,2023-11-08,2023-10-31,ＳＳＪメガソーラー３５合同会社,,合同会社,東京都,千代田区,神田三崎町２丁目４番１号ＴＵＧ－Ｉビル９Ｆ,,13,101,1010061,,,2023-10-31,清算の結了等,,,2015-10-05,1,,,,,エスエスジェイメガソーラーサンジュウゴ,0
2297,8010003028625,登記記録の閉鎖等,0,2023-11-08,2023-10-31,合同会社クローバー２０１９,,合同会社,東京都,千代田区,丸の内３丁目１番１号東京共同会計事務所内,,13,101,1000005,,,2023-10-31,清算の結了等,,,2018-11-06,1,,,,,クローバーニセンジュウク,0
2300,8010401092652,登記記録の閉鎖等,0,2023-11-08,2023-11-01,株式会社Ｅ　ＮＥＸＴ,,株式会社,東京都,港区,新橋５丁目９番１号新橋五丁目ビル,,13,103,1050004,,,2023-11-01,合併による解散等,4010402016127,令和５年１１月１日東京都港区新橋五丁目９番１号新橋五丁目ビル株式会社イー・カンパニー（4010402016127）に合併し解散,2015-10-05,1,,,,,イーネクスト,0
2305,8010403025131,登記記録の閉鎖等,0,2023-11-08,2023-10-31,合同会社ギルド,,合同会社,東京都,港区,東麻布２丁目２０番１－１２０１号,,13,103,1060044,,,2023-10-31,清算の結了等,,,2021-04-19,1,,,,,ギルド,0
2315,8010701014851,登記記録の閉鎖等,0,2023-11-08,2023-11-06,株式会社ティーエスシー,,株式会社,東京都,品川区,西五反田５丁目５番７号,,13,109,1410031,,,2023-11-06,合併による解散等,1011001014953,令和５年９月２１日東京都渋谷区恵比寿南二丁目１９番３号テスコム電機株式会社（1011001014953）に合併し解散,2015-10-05,1,,,,,ティーエスシー,0
2338,8011102029191,登記記録の閉鎖等,0,2023-11-08,2023-10-31,有限会社アウェア,,有限会社,東京都,千代田区,九段南１丁目５番６号,,13,101,1020074,,,2023-10-31,清算の結了等,,,2015-10-05,1,,,,,アウェア,0
2345,8011401019240,登記記録の閉鎖等,0,2023-11-08,2023-10-30,Ｒ・Ｇ・Ｈ株式会社,,株式会社,長野県,長野市,大字鶴賀緑町２２１４番２１号権堂ビル１階Ａ号室,,20,201,3800813,,,2023-10-30,清算の結了等,,,2016-02-10,1,,,,,アールジーエイチ,0
2355,8012403005807,登記記録の閉鎖等,0,2023-11-08,2023-11-02,合同会社Ｃｒｙｓｔａｌ　Ｃｌｅａｒ　Ｌａｂｏ,,合同会社,東京都,稲城市,押立１６９８－６－６０３,,13,225,2060811,,,2023-11-02,清算の結了等,,,2023-02-15,1,,,,,クリスタルクリアラボ,0
2356,8012802002181,登記記録の閉鎖等,0,2023-11-08,2023-10-30,有限会社マネジメント科学研究所,,有限会社,東京都,立川市,上砂町２丁目２７番地の３２,,13,202,1900032,,,2023-10-30,清算の結了等,,,2015-10-05,1,,,,,,0
2384,8021001001531,登記記録の閉鎖等,0,2023-11-08,2023-10-27,東洋地所株式会社,,株式会社,神奈川県,藤沢市,南藤沢１６番１０－１０１号,,14,205,2510055,,,2023-10-27,清算の結了等,,,2023-02-21,1,,,,,,0
2386,8021002004673,登記記録の閉鎖等,0,2023-11-08,2023-11-02,有限会社マミワ,,有限会社,神奈川県,藤沢市,片瀬海岸３丁目１番３３号,,14,205,2510035,,,2023-11-02,清算の結了等,,,2015-10-05,1,,,,,マミワ,0
2398,8030003003114,登記記録の閉鎖等,0,2023-11-08,2023-10-30,合資会社オートショップオオシマ,,合資会社,埼玉県,北本市,本宿２丁目８０番地,,11,233,3640005,,,2023-10-30,清算の結了等,,,2015-10-05,1,,,,,オートショップオオシマ,0
2401,8030005019703,登記記録の閉鎖等,0,2023-11-08,2023-10-27,一般社団法人発達精神プロシューマー協会,,その他の設立登記法人,埼玉県,富士見市,関沢２丁目２５番４６号ベルメゾン２４３－２０３号室,,11,235,3540025,,,2023-10-27,清算の結了等,,,2019-11-11,1,,,,,ハッタツセイシンプロシューマーキョウカイ,0
2426,8100001012704,登記記録の閉鎖等,0,2023-11-08,2023-10-31,アルプス興業株式会社,,株式会社,長野県,松本市,高宮東１番３６－１号,,20,202,3900835,,,2023-10-31,清算の結了等,,,2015-10-05,1,,,,,アルプスコウギョウ,0
2427,8100001023404,登記記録の閉鎖等,0,2023-11-08,2023-10-25,株式会社ＭＩＧ,,株式会社,長野県,飯田市,八幡町５２７番地１,,20,205,3950814,,,2023-10-25,清算の結了等,,,2015-10-05,1,,,,,ミグ,0
2429,8100002022009,登記記録の閉鎖等,0,2023-11-08,2023-10-31,有限会社山辺工務店,,有限会社,長野県,松本市,大字里山辺４８０５番地,,20,202,3900221,,,2023-10-31,清算の結了等,,,2015-10-05,1,,,,,ヤマベコウムテン,0
2439,8120001142227,登記記録の閉鎖等,0,2023-11-08,2023-10-31,株式会社アヴォリオ,,株式会社,大阪府,大阪市都島区,東野田町１丁目２１番１４－３０７号,,27,102,5340024,,,2023-10-31,清算の結了等,,,2015-10-05,1,,,,,アヴォリオ,0
2455,8120101022147,登記記録の閉鎖等,0,2023-11-08,2023-11-07,エヌ・テック株式会社,,株式会社,大阪府,堺市東区,白鷺町３丁２番１号,,27,143,5998107,,,2023-11-07,清算の結了等,,,2015-10-05,1,,,,,エヌテック,0
2463,8122001007054,登記記録の閉鎖等,0,2023-11-08,2023-11-06,伯耆酪農商事株式会社,,株式会社,大阪府,東大阪市,新家中町１番１８号,,27,227,5770027,,,2023-11-06,清算の結了等,,,2015-10-05,1,,,,,ホウキラクノウショウジ,0
2484,8180001089066,登記記録の閉鎖等,0,2023-11-08,2023-11-02,株式会社ワンステップ３０３,,株式会社,愛知県,名古屋市北区,上飯田西町１丁目１４番地,,23,103,4620809,,,2023-11-02,清算の結了等,,,2015-10-05,1,,,,,ワンステップサンマルサン,0
2491,8180001142270,登記記録の閉鎖等,0,2023-11-08,2023-11-02,株式会社シーラＯ＆Ｍ,,株式会社,愛知県,名古屋市中区,丸の内２丁目１８番１４号,,23,106,4600002,,,2023-11-02,合併による解散等,4180001110768,令和５年１１月１日名古屋市中区丸の内二丁目１８番１４号株式会社シーラソーラー（4180001110768）に合併し解散,2020-08-06,1,,,,,シーラオーアンドエム,0
2499,8180003020342,登記記録の閉鎖等,0,2023-11-08,2023-11-02,合同会社レイワークス,,合同会社,愛知県,名古屋市中区,千代田２丁目１０番２４号,,23,106,4600012,,,2023-11-02,清算の結了等,,,2019-09-10,1,,,,,レイワークス,0
2504,8200001005458,登記記録の閉鎖等,0,2023-11-08,2023-11-06,株式会社モードハピネス,,株式会社,岐阜県,岐阜市,大宝町２丁目１７番地,,21,201,5008851,,,2023-11-06,清算の結了等,,,2015-10-05,1,,,,,モードハピネス,0
2506,8210001002396,登記記録の閉鎖等,0,2023-11-08,2023-11-01,フェビオン株式会社,,株式会社,福井県,坂井市,丸岡町猪爪９丁目２７番地,,18,210,9100303,,,2023-11-01,清算の結了等,,,2015-10-05,1,,,,,フェビオン,0
2516,8240002051051,登記記録の閉鎖等,0,2023-11-08,2023-11-06,有限会社陶器苑しもしげ,,有限会社,広島県,尾道市,土堂２丁目２番２１号,,34,205,7220035,,,2023-11-06,清算の結了等,,,2015-10-05,1,,,,,トウキエンシモシゲ,0
2526,8290002034902,登記記録の閉鎖等,0,2023-11-08,2023-10-25,有限会社コスモ,,有限会社,福岡県,宗像市,冨地原３９７番地２,,40,220,8114154,,,2023-10-25,清算の結了等,,,2015-10-05,1,,,,,,0
2533,8310001006230,登記記録の閉鎖等,0,2023-11-08,2023-11-01,株式会社西窯,,株式会社,長崎県,東彼杵郡波佐見町,折敷瀬郷字平田２２１０番地,,42,323,8593701,,,2023-11-01,合併による解散等,4310001006226,令和５年１１月１日長崎県東彼杵郡波佐見町折敷瀬郷２１２４番地西海陶器株式会社（4310001006226）に合併し解散,2015-10-05,1,,,,,セイヨウ,0
2534,8310001015215,登記記録の閉鎖等,0,2023-11-08,2023-11-06,三友企画株式会社,,株式会社,長崎県,西彼杵郡長与町,高田郷２９４番地３,,42,307,8512127,,,2023-11-06,清算の結了等,,,2017-11-07,1,,,,,サンユウキカク,0
2537,8330001011963,登記記録の閉鎖等,0,2023-11-08,2023-10-31,株式会社植野電子,,株式会社,熊本県,玉名市,築地１４６２番地１,,43,206,8650065,,,2023-10-31,清算の結了等,,,2015-10-05,1,,,,,ウエノデンシ,0
2543,8340002016102,登記記録の閉鎖等,0,2023-11-08,2023-11-02,有限会社福元高圧瓦工場,,有限会社,鹿児島県,姶良市,寺師４０８番地３,,46,225,8995401,,,2023-11-02,清算の結了等,,,2015-10-05,1,,,,,フクモトコウアツカワラコウジョウ,0
2544,8350001000477,登記記録の閉鎖等,0,2023-11-08,2023-11-01,株式会社マハロアイコン,,株式会社,宮崎県,宮崎市,大字赤江１番地３,,45,201,8800912,,,2023-11-01,清算の結了等,,,2015-10-05,1,,,,,マハロアイコン,0
2555,8370002001118,登記記録の閉鎖等,0,2023-11-08,2023-11-07,善翁商会有限会社,,有限会社,宮城県,仙台市泉区,七北田字日野１５４番地の１,,04,105,9813131,,,2023-11-07,清算の結了等,,,2015-10-05,1,,,,,ゼンオウショウカイ,0
2565,8390002014258,登記記録の閉鎖等,0,2023-11-08,2023-11-02,有限会社オオタケ,,有限会社,山形県,南陽市,漆山９９１番地の１,,06,213,9920474,,,2023-11-02,清算の結了等,,,2015-10-05,1,,,,,オオタケ,0
2566,8400602001380,登記記録の閉鎖等,0,2023-11-08,2023-10-27,有限会社県南観光,,有限会社,岩手県,奥州市,前沢字三日町４番地,,03,215,0294207,,,2023-10-27,清算の結了等,,,2015-10-05,1,,,,,ケンナンカンコウ,0
2567,8410002005543,登記記録の閉鎖等,0,2023-11-08,2023-10-30,有限会社五城目商連,,有限会社,秋田県,南秋田郡五城目町,字下タ町１９８番地,,05,361,0181706,,,2023-10-30,清算の結了等,,,2015-10-05,1,,,,,ゴジョウメショウレン,0
2570,8420002003042,登記記録の閉鎖等,0,2023-11-08,2023-11-02,有限会社ヤマト食品,,有限会社,青森県,青森市,大字幸畑字谷脇２９３番地２,,02,201,0300943,,,2023-11-02,清算の結了等,,,2015-10-05,1,,,,,,0
2580,8470002009621,登記記録の閉鎖等,0,2023-11-08,2023-11-02,有限会社ワールド測研,,有限会社,香川県,高松市,香川町大野１９１５番地５０,,37,201,7611701,,,2023-11-02,清算の結了等,,,2015-10-05,1,,,,,ワールドソッケン,0
2583,8500002011375,登記記録の閉鎖等,0,2023-11-08,2023-11-06,愛媛特機有限会社,00007927,有限会社,愛媛県,東温市,田窪１９７９番地,,38,215,7910212,,,2023-11-06,清算の結了等,,,2015-10-05,1,,,,,エヒメトクキ,0
2589,9010001185426,登記記録の閉鎖等,0,2023-11-08,2023-10-30,ＲＯＲホールディング株式会社,,株式会社,東京都,中央区,新川１丁目１７番１８号,,13,102,1040033,,,2023-10-30,清算の結了等,,,2017-08-04,1,,,,,アールオーアールホールディング,0
2600,9010003020572,登記記録の閉鎖等,0,2023-11-08,2023-10-31,ＳＳＪメガソーラー２９合同会社,,合同会社,東京都,千代田区,神田三崎町２丁目４番１号ＴＵＧ－Ｉビル９Ｆ,,13,101,1010061,,,2023-10-31,清算の結了等,,,2015-10-05,1,,,,,エスエスジェイメガソーラーニジュウキュウ,0
2612,9010401133397,登記記録の閉鎖等,0,2023-11-08,2023-10-31,株式会社Ｃｌｉｍｂｅｒ,,株式会社,東京都,港区,浜松町２丁目２番１５号,,13,103,1050013,,,2023-10-31,清算の結了等,,,2017-08-24,1,,,,,クライマー,0
2615,9010401169862,登記記録の閉鎖等,0,2023-11-08,2023-11-01,株式会社アルディートホールディングス,,株式会社,東京都,港区,浜松町２丁目５番５号ＰＭＯ浜松町４Ｆ,,13,103,1050013,,,2023-11-01,合併による解散等,8020001041307,令和５年１１月１日東京都港区浜松町二丁目５番５号ＰＭＯ浜松町４Ｆ株式会社アルディート（8020001041307）に合併し解散,2022-09-22,1,,,,,アルディートホールディングス,0
2618,9010402011643,登記記録の閉鎖等,0,2023-11-08,2023-11-01,有限会社ペガサスビル,,有限会社,東京都,港区,南青山１丁目１５番３号ペガサスビル,,13,103,1070062,,,2023-11-01,合併による解散等,4010401115937,令和５年１１月１日東京都港区南青山一丁目１５番３号ペガサスビル株式会社ブリオッシュ（4010401115937）に合併し解散,2015-10-05,1,,,,,ペガサスビル,0
2628,9010901027784,登記記録の閉鎖等,0,2023-11-08,2023-11-01,株式会社安間コーポレーション,,株式会社,東京都,世田谷区,駒沢３丁目１０番１－３２２号駒沢ガーデンハイツ,,13,112,1540012,,,2023-11-01,清算の結了等,,,2015-10-05,1,,,,,ヤスマコーポレーション,0
2632,9011001013626,登記記録の閉鎖等,0,2023-11-08,2023-10-25,株式会社高野塗装店,,株式会社,東京都,渋谷区,恵比寿３丁目１４番９号,,13,113,1500013,,,2023-10-25,清算の結了等,,,2015-10-05,1,,,,,タカノトソウテン,0
2647,9011301013490,登記記録の閉鎖等,0,2023-11-08,2023-10-27,ケイエム建物管理株式会社,,株式会社,東京都,杉並区,上高井戸１丁目２９番１３号,,13,115,1680074,,,2023-10-27,清算の結了等,,,2015-10-05,1,,,,,ケイエムタテモノカンリ,0
2659,9011702012439,登記記録の閉鎖等,0,2023-11-08,2023-11-01,有限会社ライフテック,,有限会社,東京都,江戸川区,西篠崎２丁目１９番１４号,,13,123,1330055,,,2023-11-01,合併による解散等,4011701005976,令和５年１１月１日東京都江戸川区西篠崎二丁目１９番１４号南場総合ガス株式会社（4011701005976）に合併し解散,2015-10-05,1,,,,,ライフテック,0
2669,9012403005806,登記記録の閉鎖等,0,2023-11-08,2023-11-02,合同会社Ｃｒｙｓｔａｌ　Ｆｌｏｗｅｒｓ,,合同会社,東京都,稲城市,押立１６９８－６－６０３,,13,225,2060811,,,2023-11-02,清算の結了等,,,2023-02-15,1,,,,,クリスタルフラワーズ,0
2673,9012802003740,登記記録の閉鎖等,0,2023-11-08,2023-11-02,有限会社ホワイトカラー,,有限会社,東京都,福生市,大字熊川１４４２－１,,13,218,1970003,,,2023-11-02,清算の結了等,,,2015-10-05,1,,,,,,0
2690,9021003006908,登記記録の閉鎖等,0,2023-11-08,2023-11-01,合同会社プラススタイル,,合同会社,東京都,港区,南青山３丁目１０番４１号ジュエル青山ビル２０２号,,13,103,1070062,,,2023-11-01,合併による解散等,2021003006030,令和５年１１月１日東京都港区南青山三丁目１０番４１号ジュエル青山ビル２０２号合同会社プラスワン（2021003006030）に合併し解散,2017-08-24,1,,,,,プラススタイル,0
2693,9030001063233,登記記録の閉鎖等,0,2023-11-08,2023-10-30,株式会社エフ・エス・アール・ティー,,株式会社,東京都,中央区,銀座８丁目１１番５号,,13,102,1040061,,,2023-10-30,清算の結了等,,,2015-10-05,1,,,,,エフエスアールティー,0
2695,9030001105019,登記記録の閉鎖等,0,2023-11-08,2023-10-30,株式会社マルヨ・ヨリタ商店,,株式会社,埼玉県,吉川市,保１丁目５番地１グリーンシティマンション１０５号,,11,243,3420041,,,2023-10-30,清算の結了等,,,2015-10-05,1,,,,,マルヨヨリタショウテン,0
2718,9050005013208,登記記録の閉鎖等,0,2023-11-08,2023-10-30,無限責任佐竹村猪ノ手負債整理組合,,その他の設立登記法人,茨城県,常陸太田市,天神林町１３５０番地,,08,212,3130049,,,2023-10-30,清算の結了等,,,2023-02-21,1,,,,,ムゲンセキニンサタケムライノテ,0
2719,9070001021484,登記記録の閉鎖等,0,2023-11-08,2023-11-02,株式会社ブロードヒューマンネットワーク,,株式会社,群馬県,太田市,西矢島町７１４－１,,10,205,3730823,,,2023-11-02,清算の結了等,,,2015-10-05,1,,,,,,0
2723,9070002007284,登記記録の閉鎖等,0,2023-11-08,2023-11-02,有限会社ナカムラ不動産,,有限会社,群馬県,前橋市,笂井町４６番地の２,,10,201,3792115,,,2023-11-02,清算の結了等,,,2015-10-05,1,,,,,ナカムラフドウサン,0
2726,9080101005824,登記記録の閉鎖等,0,2023-11-08,2023-11-02,第一工営株式会社,,株式会社,静岡県,駿東郡清水町,伏見６２７番地,,22,341,4110907,,,2023-11-02,合併による解散等,8080101006377,令和５年１１月１日静岡県駿東郡清水町伏見６２７番地良工舎山本鋼業株式会社（8080101006377）に合併し解散,2015-10-05,1,,,,,ダイイチコウエイ,0
2730,9080405007104,登記記録の閉鎖等,0,2023-11-08,2023-11-01,一般社団法人七曜会,,その他の設立登記法人,静岡県,浜松市東区,植松町９３番地の１１,,22,132,4300803,,,2023-11-01,清算の結了等,,,2018-09-20,1,,,,,シチヨウカイ,0
2736,9100001031315,登記記録の閉鎖等,0,2023-11-08,2023-10-31,株式会社小沢新聞店,,株式会社,長野県,須坂市,大字米持大道下３０６番地１,,20,207,3820000,,,2023-10-31,清算の結了等,,,2018-06-05,1,,,,,オザワシンブンテン,0
2739,9120001017262,登記記録の閉鎖等,0,2023-11-08,2023-11-02,株式会社共進ブラザーズ,,株式会社,大阪府,大阪市生野区,巽南５丁目９番１号,00027293,27,116,5440015,,,2023-11-02,清算の結了等,,,2015-10-05,1,,,,,キョウシンブラザーズ,0
2748,9120001222952,登記記録の閉鎖等,0,2023-11-08,2023-11-01,株式会社ＰＵＬＳＥ,,株式会社,大阪府,大阪市東成区,神路１丁目７番４号コンフォートビル７Ｆ,,27,115,5370003,,,2023-11-01,清算の結了等,,,2019-08-09,1,,,,,パルス,0
2778,9130002031889,登記記録の閉鎖等,0,2023-11-08,2023-10-26,有限会社京都宇治お茶の茶楽,,有限会社,京都府,綴喜郡宇治田原町,大字郷之口小字本町５４番地の３,,26,344,6100255,,,2023-10-26,清算の結了等,,,2015-10-05,1,,,,,キョウトウジオチャノチャラク,0
2782,9140001024298,登記記録の閉鎖等,0,2023-11-08,2023-10-31,株式会社ヒラセツ,,株式会社,兵庫県,加古川市,志方町志方町１６３４番地３,,28,210,6750321,,,2023-10-31,清算の結了等,,,2015-10-05,1,,,,,ヒラセツ,0
2796,9160002004982,登記記録の閉鎖等,0,2023-11-08,2023-11-06,石部石油有限会社,,有限会社,滋賀県,湖南市,石部口１丁目４番１７号,,25,211,5203114,,,2023-11-06,清算の結了等,,,2015-10-05,1,,,,,イシベセキユ,0
2807,9190003002000,登記記録の閉鎖等,0,2023-11-08,2023-11-07,合同会社エム・アイ・エル,,合同会社,三重県,鈴鹿市,稲生塩屋３丁目７番１０号,,24,207,5100207,,,2023-11-07,清算の結了等,,,2015-10-05,1,,,,,エムアイエル,0
2809,9200001039752,登記記録の閉鎖等,0,2023-11-08,2023-11-07,ヒラキン株式会社,,株式会社,岐阜県,岐阜市,東中島１丁目１１番１０号,,21,201,5008235,,,2023-11-07,清算の結了等,,,2022-02-17,1,,,,,ヒラキン,0
2814,9230002009594,登記記録の閉鎖等,0,2023-11-08,2023-11-06,有限会社櫻野商事,,有限会社,富山県,砺波市,庄川町示野１６７番地の２,,16,208,9320315,,,2023-11-06,清算の結了等,,,2015-10-05,1,,,,,サクラノショウジ,0
2818,9240002005394,登記記録の閉鎖等,0,2023-11-08,2023-11-02,有限会社経協,,有限会社,広島県,広島市中区,舟入本町１５番９号,,34,101,7300843,,,2023-11-02,清算の結了等,,,2015-10-05,1,,,,,ケイキョウ,0
2820,9240005009509,登記記録の閉鎖等,0,2023-11-08,2023-10-20,特定非営利活動法人あしすと,,その他の設立登記法人,広島県,福山市,平成台３１番３４号,,34,207,7210943,,,2023-10-20,清算の結了等,,,2015-10-05,1,,,,,アシスト,0
2821,9250001003588,登記記録の閉鎖等,0,2023-11-08,2023-11-02,防長ペイント工業株式会社,,株式会社,山口県,宇部市,大字東須恵２７４５番地,,35,202,7590206,,,2023-11-02,清算の結了等,,,2015-10-05,1,,,,,ボウチョウペイントコウギョウ,0
2825,9260001027396,登記記録の閉鎖等,0,2023-11-08,2023-11-01,株式会社シンコーポレーション,,株式会社,岡山県,倉敷市,玉島阿賀崎２４７１番地１,,33,202,7138121,,,2023-11-01,合併による解散等,4260001013830,令和５年１１月１日岡山県倉敷市玉島爪崎１１５５番地の８玉島道路株式会社（4260001013830）に合併し解散,2015-10-05,1,,,,,シンコーポレーション,0
2829,9280001004039,登記記録の閉鎖等,0,2023-11-08,2023-11-06,株式会社セラミカ,,株式会社,島根県,大田市,大森町イ１６８８番地２,,32,205,6940305,,,2023-11-06,清算の結了等,,,2015-10-05,1,,,,,セラミカ,0
2832,9290001101165,登記記録の閉鎖等,0,2023-11-08,2023-10-25,株式会社玉置ＲＥ．Ｆ,,株式会社,福岡県,福岡市東区,多の津５丁目４０番３０号,,40,131,8130034,,,2023-10-25,清算の結了等,,,2023-04-12,1,,,,,タマキアールイードットエフ,0
2843,9320002000858,登記記録の閉鎖等,0,2023-11-08,2023-11-06,池永電設工業有限会社,,有限会社,大分県,大分市,明野高尾１丁目１１番１７号,,44,201,8700162,,,2023-11-06,清算の結了等,,,2015-10-05,1,,,,,イケナガデンセツコウギョウ,0
2859,9360003003427,登記記録の閉鎖等,0,2023-11-08,2023-10-31,合資会社大謝名住宅,,合資会社,沖縄県,宜野湾市,大謝名４丁目２番１号,,47,205,9012225,,,2023-10-31,清算の結了等,,,2015-10-05,1,,,,,オオジャナジュウタク,0
2865,9370802000219,登記記録の閉鎖等,0,2023-11-08,2023-11-02,有限会社慶,,有限会社,宮城県,名取市,手倉田字堰根２７７番地,,04,207,9811231,,,2023-11-02,清算の結了等,,,2015-10-05,1,,,,,ケイ,0
2886,9470001018416,登記記録の閉鎖等,0,2023-11-08,2023-10-31,株式会社フライア,,株式会社,千葉県,千葉市中央区,蘇我３丁目３２番３７号,,12,101,2600822,,,2023-10-31,清算の結了等,,,2021-03-15,1,,,,,フライア,0
2887,9470005004791,登記記録の閉鎖等,0,2023-11-08,2023-11-06,公益財団法人倉岡奨学会,,その他の設立登記法人,香川県,高松市,西の丸町５番１８号,,37,201,7600021,,,2023-11-06,清算の結了等,,,2015-10-05,1,,,,,クラオカショウガクカイ,0
