sequenceNumber,corporateNumber,process,correct,updateDate,changeDate,name,nameImageId,kind,prefectureName,cityName,streetNumber,addressImageId,prefectureCode,cityCode,postCode,addressOutside,addressOutsideImageId,closeDate,closeCause,successorCorporateNumber,changeCause,assignmentDate,latest,enName,enPrefectureName,enCityName,enAddressOutside,furigana,hihyoji
4,1010001234124,新規,0,2023-04-03,2023-04-03,株式会社アーツジェイ,,株式会社,東京都,千代田区,飯田橋１丁目８番９号,,13,101,1020072,,,,,,,2023-04-03,1,,,,,アーツジェイ,0
13,1010701044054,新規,0,2023-04-03,2023-04-03,スリーエムヘルスケアジャパンプロダクツ株式会社,,株式会社,東京都,品川区,北品川６丁目７番２９号,,13,109,1410001,,,,,,,2023-04-03,1,,,,,スリーエムヘルスケアジャパンプロダクツ,0
14,1010703006647,新規,0,2023-04-03,2023-04-03,スリーエムヘルスケアジャパンホールディングス合同会社,,合同会社,東京都,品川区,北品川６丁目７番２９号,,13,109,1410001,,,,,,,2023-04-03,1,,,,,スリーエムヘルスケアジャパンホールディングス,0
15,1010803004492,新規,0,2023-04-03,2023-04-03,合同会社フォーマルハウト,,合同会社,東京都,大田区,中央３丁目２５番１０号,,13,111,1430024,,,,,,,2023-04-03,1,,,,,フォーマルハウト,0
17,1010903008063,新規,0,2023-04-03,2023-04-03,合同会社ＬｏｖｅＡｎｇｅｌ,,合同会社,東京都,世田谷区,等々力７丁目２４番２１号リムテラス世田谷等々力１０６,,13,112,1580082,,,,,,,2023-04-03,1,,,,,ラブエンジェル,0
20,1011001153446,新規,0,2023-04-03,2023-04-03,株式会社ｗａｖｅｓ,,株式会社,東京都,目黒区,青葉台３丁目４番１－７０５号,,13,110,1530042,,,,,,,2023-04-03,1,,,,,ウェイブス,0
21,1011001153479,新規,0,2023-04-03,2023-04-03,ツクルミライ株式会社,,株式会社,東京都,渋谷区,道玄坂１丁目１０番８号渋谷道玄坂東急ビル２Ｆ－Ｃ,,13,113,1500043,,,,,,,2023-04-03,1,,,,,ツクルミライ,0
25,1011101102360,新規,0,2023-04-03,2023-04-03,コロモエ株式会社,,株式会社,東京都,新宿区,下落合４丁目２４番９号,,13,104,1610033,,,,,,,2023-04-03,1,,,,,コロモエ,0
29,1011601026654,新規,0,2023-04-03,2023-04-03,松竹梅株式会社,,株式会社,東京都,練馬区,関町北５丁目６番７号関町マンション４０２Ｆ,,13,120,1770051,,,,,,,2023-04-03,1,,,,,ショウチクバイ,0
30,1011601026695,新規,0,2023-04-03,2023-04-03,興盛株式会社,,株式会社,東京都,練馬区,中村北２丁目１８番９号メインステージ中村橋９０２,,13,120,1760023,,,,,,,2023-04-03,1,,,,,コウセイ,0
31,1011701026117,新規,0,2023-04-03,2023-04-03,株式会社Ｌａｎｃｅｒ,,株式会社,東京都,江戸川区,上篠崎４丁目２２番１５号,,13,123,1330054,,,,,,,2023-04-03,1,,,,,ランサー,0
36,1012801022229,新規,0,2023-04-03,2023-04-03,株式会社Ｃｈａｌｌｅｎｇｅ　ｐｌａｃｅ,,株式会社,東京都,立川市,曙町２丁目１４番２３号,00129932,13,202,1900012,,,,,,,2023-04-03,1,,,,,チャレンジプレイス,0
37,1012803003045,新規,0,2023-04-03,2023-04-03,合同会社ユウ・コーポレーション,,合同会社,東京都,国分寺市,富士本１丁目７番地１３,,13,214,1850031,,,,,,,2023-04-03,1,,,,,ユウコーポレーション,0
38,1013301050546,新規,0,2023-04-03,2023-04-03,株式会社ＩＮＤＡＲＵＭＡ,,株式会社,東京都,豊島区,長崎３丁目９番３号,,13,116,1710051,,,,,,,2023-04-03,1,,,,,インダルマ,0
45,1020005015916,新規,0,2023-04-03,2023-04-03,特定非営利活動法人ＥｄｕＡｒｔ,,その他の設立登記法人,神奈川県,横浜市神奈川区,沢渡２１番地１９グリーンメゾン沢渡２０８号,,14,102,2210844,,,,,,,2023-04-03,1,,,,,エデュアート,0
51,1030003021477,新規,0,2023-04-03,2023-04-03,合同会社ＳＯＵＥＮ,,合同会社,埼玉県,越谷市,南越谷４丁目１７番地２クオーレシャトー南越谷５０２,,11,222,3430845,,,,,,,2023-04-03,1,,,,,ソウエン,0
57,1060003004487,新規,0,2023-04-03,2023-04-03,Ｙ＆Ｋ合同会社,,合同会社,栃木県,栃木市,藤岡町新波１４４５,,09,203,3290314,,,,,,,2023-04-03,1,,,,,ワイアンドケー,0
59,1080001025541,新規,0,2023-04-03,2023-04-03,株式会社ＳＮＴ工業,,株式会社,静岡県,静岡市清水区,庵原町１５７番地の９,,22,103,4240114,,,,,,,2023-04-03,1,,,,,エスエヌティコウギョウ,0
60,1080101023882,新規,0,2023-04-03,2023-04-03,株式会社デザインオフィスｏｎｅ,,株式会社,静岡県,沼津市,添地町８２番地,,22,203,4100803,,,,,,,2023-04-03,1,,,,,デザインオフィスワン,0
73,1120001253625,新規,0,2023-04-03,2023-04-03,株式会社マイビルディング,,株式会社,大阪府,大阪市都島区,東野田町４丁目９番２号,,27,102,5340024,,,,,,,2023-04-03,1,,,,,マイビルディング,0
74,1120001253658,新規,0,2023-04-03,2023-04-03,鮓谷ホールディングス株式会社,,株式会社,大阪府,大阪市中央区,難波３丁目２番１３号,,27,128,5420076,,,,,,,2023-04-03,1,,,,,スシタニホールディングス,0
81,1120901047325,新規,0,2023-04-03,2023-04-03,ＹＵＫＡＲＩ株式会社,,株式会社,大阪府,豊中市,庄内東町２丁目６－１,,27,203,5610831,,,,,,,2023-04-03,1,,,,,ユカリ,0
82,1120901047341,新規,0,2023-04-03,2023-04-03,株式会社Ｗｅｅｄ　ｓｏｕｌ,,株式会社,大阪府,茨木市,彩都あさぎ３丁目５番９号,,27,211,5670085,,,,,,,2023-04-03,1,,,,,ウィードソウル,0
83,1120903004571,新規,0,2023-04-03,2023-04-03,合同会社Ｔｉｋａ,,合同会社,大阪府,茨木市,南春日丘７丁目４番２３号松景５号,,27,211,5670046,,,,,,,2023-04-03,1,,,,,ティカ,0
86,1122001036852,新規,0,2023-04-03,2023-04-03,株式会社ＳＳＭコーポレーション,,株式会社,大阪府,八尾市,東弓削３丁目８９番地の９,,27,212,5810029,,,,,,,2023-04-03,1,,,,,エスエスエムコーポレーション,0
88,1122003002547,新規,0,2023-04-03,2023-04-03,合同会社Ｂｉｓｈｏ,,合同会社,大阪府,東大阪市,金岡１丁目７番１６号,,27,227,5770823,,,,,,,2023-04-03,1,,,,,ビショウ,0
94,1130001073972,新規,0,2023-04-03,2023-04-03,株式会社エスターテ,,株式会社,京都府,京都市中京区,壬生賀陽御所町５０番地,,26,104,6048811,,,,,,,2023-04-03,1,,,,,エスターテ,0
103,1140001129526,新規,0,2023-04-03,2023-04-03,株式会社ＩＢＫ,,株式会社,兵庫県,南あわじ市,松帆北方６２３番地,,28,224,6560301,,,,,,,2023-04-03,1,,,,,アイビーケイ,0
104,1140001129600,新規,0,2023-04-03,2023-04-03,株式会社Ｍロジ,,株式会社,兵庫県,神戸市中央区,港島南町４丁目６－１（ＭＳＣポートアイランド６０）,,28,110,6500047,,,,,,,2023-04-03,1,,,,,エムロジ,0
106,1140003018900,新規,0,2023-04-03,2023-04-03,合同会社ＭＲＴ,,合同会社,兵庫県,姫路市,魚町５５番地處今日庵－Ｂｌｄ６Ｆ,,28,201,6700905,,,,,,,2023-04-03,1,,,,,エムアールティー,0
113,1180001155510,新規,0,2023-04-03,2023-04-03,株式会社ＩＳＭ,,株式会社,愛知県,名古屋市中村区,名楽町１丁目４２番地１２Ｉ’ｓＮо６、３０２号室,,23,105,4530024,,,,,,,2023-04-03,1,,,,,イズム,0
114,1180001155527,新規,0,2023-04-03,2023-04-03,株式会社ＭＹコーポレーション,,株式会社,愛知県,名古屋市昭和区,山花町１８１番地の３,,23,107,4660807,,,,,,,2023-04-03,1,,,,,エムワイコーポレーション,0
115,1180001155576,新規,0,2023-04-03,2023-04-03,株式会社ｓｏｐｈ,,株式会社,愛知県,名古屋市西区,城西２丁目１３番２２号クリオ名古屋城西３０２号,,23,104,4510031,,,,,,,2023-04-03,1,,,,,ソフ,0
116,1180001155592,新規,0,2023-04-03,2023-04-03,新日本木材株式会社,,株式会社,愛知県,名古屋市中区,丸の内１丁目１５番２８号ナビシティ丸の内４０３,,23,106,4600002,,,,,,,2023-04-03,1,,,,,シンニホンモクザイ,0
117,1180001155601,新規,0,2023-04-03,2023-04-03,精工商事株式会社,,株式会社,愛知県,名古屋市港区,甚兵衛通３丁目２２番地の４,,23,111,4550822,,,,,,,2023-04-03,1,,,,,セイコウショウジ,0
119,1180005020157,新規,0,2023-04-03,2023-04-03,特定非営利活動法人ｔｏｍｏｎｉなごや,,その他の設立登記法人,愛知県,名古屋市昭和区,山花町６２番地１,,23,107,4660807,,,,,,,2023-04-03,1,,,,,トモニナゴヤ,0
122,1180301037235,新規,0,2023-04-03,2023-04-03,株式会社ＳＨＯＷＳＨＩＮ,,株式会社,愛知県,岡崎市,朝日町３丁目１６番地,,23,202,4440022,,,,,,,2023-04-03,1,,,,,ショウシン,0
135,1240001061272,新規,0,2023-04-03,2023-04-03,株式会社シンヤ,,株式会社,広島県,尾道市,高須町５６８５番地１６,,34,205,7290141,,,,,,,2023-04-03,1,,,,,シンヤ,0
142,1260001037782,新規,0,2023-04-03,2023-04-03,株式会社アヴァンテ,,株式会社,岡山県,岡山市南区,豊成２丁目８番３５号,,33,104,7000942,,,,,,,2023-04-03,1,,,,,アヴァンテ,0
145,1280001008906,新規,0,2023-04-03,2023-04-03,株式会社ａｃｔａｒｉｓｅ,,株式会社,島根県,松江市,東津田町２１６８番地３８６,,32,201,6900011,,,,,,,2023-04-03,1,,,,,アクトアライズ,0
149,1290001101024,新規,0,2023-04-03,2023-04-03,株式会社Ｓｃａｒｌｅｔ,,株式会社,福岡県,福岡市中央区,大名１丁目９番５０号２Ｆ,,40,133,8100041,,,,,,,2023-04-03,1,,,,,スカーレット,0
150,1290001101049,新規,0,2023-04-03,2023-04-03,株式会社イイワークス,,株式会社,福岡県,糸島市,神在西１丁目１８番７号,,40,230,8191148,,,,,,,2023-04-03,1,,,,,イイワークス,0
155,1290801029407,新規,0,2023-04-03,2023-04-03,株式会社ＮＩグループ,,株式会社,福岡県,北九州市小倉北区,京町３丁目１番１号セントシティ７階,,40,106,8020002,,,,,,,2023-04-03,1,,,,,エヌアイグループ,0
162,1330001030714,新規,0,2023-04-03,2023-04-03,株式会社Ｅｎ　Ｇｒｏｕｐ,,株式会社,熊本県,熊本市北区,植木町投刀塚４４番地,,43,105,8610141,,,,,,,2023-04-03,1,,,,,エングループ,0
172,1400005008311,新規,0,2023-04-03,2023-04-03,特定非営利活動法人ほめのばバスケラボ,,その他の設立登記法人,岩手県,北上市,大曲町３番２５号,,03,206,0240091,,,,,,,2023-04-03,1,,,,,ホメノババスケラボ,0
178,1430001088726,新規,0,2023-04-03,2023-04-03,株式会社パル子,,株式会社,北海道,札幌市西区,八軒九条西６丁目１番１０号,,01,107,0630849,,,,,,,2023-04-03,1,,,,,パルコ,0
182,1450003002311,新規,0,2023-04-03,2023-04-03,合同会社ＴＫシステム,,合同会社,北海道,留萌市,元町５丁目９６番地の１,,01,212,0770004,,,,,,,2023-04-03,1,,,,,ティケィシステム,0
188,1490001010436,新規,0,2023-04-03,2023-04-03,株式会社えん,,株式会社,高知県,高知市,大川筋１丁目６番５４号,,39,201,7800052,,,,,,,2023-04-03,1,,,,,エン,0
195,2010001233819,新規,0,2023-04-03,2023-04-03,優ＬＡＢ株式会社,,株式会社,東京都,千代田区,東神田１丁目１１－６,,13,101,1010031,,,,,,,2023-04-03,1,,,,,ユウラボ,0
196,2010001234107,新規,0,2023-04-03,2023-04-03,株式会社Ｋｄａｎ　Ｊａｐａｎ,,株式会社,東京都,千代田区,平河町１丁目３番６号ＢＩＺＭＡＲＫＳ麹町２Ｆ,,13,101,1020093,,,,,,,2023-04-03,1,,,,,ケダンジャパン,0
206,2010401173417,新規,0,2023-04-03,2023-04-03,株式会社ＭＫアセットマネジメント,,株式会社,東京都,港区,六本木３丁目３番２７号,,13,103,1060032,,,,,,,2023-04-03,1,,,,,エムケーアセットマネジメント,0
207,2010405021968,新規,0,2023-04-03,2023-04-03,ＳＣＧ５３特定目的会社,,その他の設立登記法人,東京都,港区,虎ノ門４丁目１番２８号,,13,103,1050001,,,,,,,2023-04-03,1,,,,,エスシージーフィフティスリー,0
218,2010701044053,新規,0,2023-04-03,2023-04-03,スリーエムヘルスケアジャパンイノベーション株式会社,,株式会社,東京都,品川区,北品川６丁目７番２９号,,13,109,1410001,,,,,,,2023-04-03,1,,,,,スリーエムヘルスケアジャパンイノベーション,0
222,2011003016526,新規,0,2023-04-03,2023-04-03,ＲｅｉｎｅＯｎｅ合同会社,,合同会社,東京都,渋谷区,神泉町１０番１５号,,13,113,1500045,,,,,,,2023-04-03,1,,,,,レーヌワン,0
223,2011003016550,新規,0,2023-04-03,2023-04-03,ＡＢＣコンサルティング合同会社,,合同会社,東京都,渋谷区,神泉町１０番１５号,,13,113,1500045,,,,,,,2023-04-03,1,,,,,エービーシーコンサルティング,0
226,2011103012887,新規,0,2023-04-03,2023-04-03,合同会社Ｃｏｄｅ,,合同会社,東京都,新宿区,荒木町１１番地,,13,104,1600007,,,,,,,2023-04-03,1,,,,,コード,0
228,2011301028578,新規,0,2023-04-03,2023-04-03,株式会社Ｙ・Ｓグループ,,株式会社,東京都,杉並区,高円寺南１丁目５番４－４０６号高円寺サンハイツ,,13,115,1660003,,,,,,,2023-04-03,1,,,,,ワイエスグループ,0
229,2011401025013,新規,0,2023-04-03,2023-04-03,株式会社ｍｏｎｒｙｕ,,株式会社,東京都,板橋区,大山金井町３６－４Ｒａｆｆｉｎｅ大山２０２,,13,119,1730024,,,,,,,2023-04-03,1,,,,,モンリュー,0
231,2011501029112,新規,0,2023-04-03,2023-04-03,ＴＫ株式会社,,株式会社,東京都,荒川区,東尾久１丁目３０－１５,,13,118,1160012,,,,,,,2023-04-03,1,,,,,ティーケー,0
237,2011703003435,新規,0,2023-04-03,2023-04-03,合同会社ＴＥＲＩＯ,,合同会社,東京都,江戸川区,東葛西９丁目３番１４－７０５号,,13,123,1340084,,,,,,,2023-04-03,1,,,,,テリオ,0
238,2011801042153,新規,0,2023-04-03,2023-04-03,株式会社リリー・コーポレーション,,株式会社,東京都,葛飾区,東新小岩５丁目１２番４ガーデンヴィラ３０３,,13,122,1240023,,,,,,,2023-04-03,1,,,,,リリーコーポレーション,0
239,2011803005579,新規,0,2023-04-03,2023-04-03,強盛商事合同会社,,合同会社,東京都,足立区,一ツ家３丁目５番１３号ブルーメーツ家３３,,13,121,1210075,,,,,,,2023-04-03,1,,,,,キョウセイショウジ,0
243,2012703002666,新規,0,2023-04-03,2023-04-03,新清和建築設備事務所合同会社,,合同会社,東京都,小平市,大沼町４丁目２７番４－２０３号,,13,211,1870001,,,,,,,2023-04-03,1,,,,,シンセイワケンチクセツビジムショ,0
249,2020001150872,新規,0,2023-04-03,2023-04-03,株式会社りあん,,株式会社,神奈川県,横浜市中区,常盤町２丁目１１番地４,,14,104,2310014,,,,,,,2023-04-03,1,,,,,リアン,0
255,2020003023622,新規,0,2023-04-03,2023-04-03,合同会社Ｈ＆Ｃ　ｔｒａｄｅ,,合同会社,神奈川県,横浜市神奈川区,沢渡５１－２１－Ｂ３０１,,14,102,2210844,,,,,,,2023-04-03,1,,,,,エイチアンドシートレード,0
258,2021001078583,新規,0,2023-04-03,2023-04-03,株式会社Ｈｏｂｂｙ　Ｇａｒｄｅｎ,,株式会社,神奈川県,相模原市中央区,横山台２丁目３４番１６号,,14,152,2520241,,,,,,,2023-04-03,1,,,,,ホビーガーデン,0
267,2030003021468,新規,0,2023-04-03,2023-04-03,ＬＴ合同会社,,合同会社,埼玉県,さいたま市南区,南浦和２丁目２８番１３号,,11,108,3360017,,,,,,,2023-04-03,1,,,,,エルティー,0
268,2030003021484,新規,0,2023-04-03,2023-04-03,ＫＮＩＴ合同会社,,合同会社,埼玉県,深谷市,萱場２８９番地３,,11,218,3660818,,,,,,,2023-04-03,1,,,,,ニット,0
275,2060001035847,新規,0,2023-04-03,2023-04-03,株式会社碧建設,,株式会社,栃木県,宇都宮市,双葉２丁目１０番９号２０２号,,09,201,3210164,,,,,,,2023-04-03,1,,,,,アオイケンセツ,0
278,2080001025540,新規,0,2023-04-03,2023-04-03,株式会社グランエステート,,株式会社,静岡県,静岡市葵区,美川町９番２０号,,22,101,4200875,,,,,,,2023-04-03,1,,,,,グランエステート,0
279,2080101023881,新規,0,2023-04-03,2023-04-03,株式会社プレストコネクト,,株式会社,静岡県,熱海市,中央町１０番１０号平鶴ビル４０１,,22,205,4130015,,,,,,,2023-04-03,1,,,,,プレストコネクト,0
295,2120001253608,新規,0,2023-04-03,2023-04-03,株式会社ＦＯＲＥＳＴＩＮ,,株式会社,大阪府,大阪市淀川区,西宮原１丁目７－４オリエント新大阪アーバンライフ９１２号,,27,123,5320004,,,,,,,2023-04-03,1,,,,,フォースティン,0
296,2120001253616,新規,0,2023-04-03,2023-04-03,株式会社バスターウルフ,,株式会社,大阪府,大阪市北区,堂山町６番１号アジヨシビル４Ｆ,,27,127,5300027,,,,,,,2023-04-03,1,,,,,バスターウルフ,0
297,2120001253632,新規,0,2023-04-03,2023-04-03,＿亮株式会社,00129934,株式会社,大阪府,大阪市大正区,千島１丁目１０番１０号エスポワール４３,,27,108,5510003,,,,,,,2023-04-03,1,,,,,ゲツリョウ,0
298,2120001253640,新規,0,2023-04-03,2023-04-03,株式会社アイランズ,,株式会社,大阪府,大阪市中央区,久太郎町１丁目９番７号,,27,128,5410056,,,,,,,2023-04-03,1,,,,,アイランズ,0
299,2120001253657,新規,0,2023-04-03,2023-04-03,株式会社ヒーズテック,,株式会社,大阪府,大阪市城東区,放出西２丁目１３番３号,,27,118,5360011,,,,,,,2023-04-03,1,,,,,ヒーズテック,0
302,2120101067230,新規,0,2023-04-03,2023-04-03,コントレール株式会社,,株式会社,大阪府,松原市,田井城１丁目６番２２号３階Ｂ,,27,217,5800044,,,,,,,2023-04-03,1,,,,,コントレール,0
303,2120901047340,新規,0,2023-04-03,2023-04-03,株式会社ベストパートナー,,株式会社,大阪府,茨木市,真砂２丁目１５番８号,,27,211,5670851,,,,,,,2023-04-03,1,,,,,ベストパートナー,0
304,2120901047349,新規,0,2023-04-03,2023-04-03,株式会社ＩＡＫ,,株式会社,大阪府,摂津市,鶴野４丁目１１番１２号,,27,224,5660035,,,,,,,2023-04-03,1,,,,,アイエーケー,0
312,2140003018908,新規,0,2023-04-03,2023-04-03,合同会社ＬＯＣＡＬ　ＣＲＥＡＴＩＯＮ,,合同会社,兵庫県,神戸市兵庫区,湊町４丁目２番１２－２１１号,,28,105,6520812,,,,,,,2023-04-03,1,,,,,ローカルクリエーション,0
317,2180001155542,新規,0,2023-04-03,2023-04-03,株式会社アウル,,株式会社,愛知県,名古屋市港区,入場１丁目１５１４番地ファミリアーレ当知東１３０３号,,23,111,4550803,,,,,,,2023-04-03,1,,,,,アウル,0
318,2180001155600,新規,0,2023-04-03,2023-04-03,株式会社ひらめき創造研究所,,株式会社,愛知県,東海市,荒尾町大城１番地１,,23,222,4760003,,,,,,,2023-04-03,1,,,,,ヒラメキソウゾウケンキュウショ,0
321,2180301037234,新規,0,2023-04-03,2023-04-03,株式会社日臨,,株式会社,愛知県,豊川市,八幡町上ノ蔵３２番地,,23,207,4420857,,,,,,,2023-04-03,1,,,,,ニチリン,0
331,2260001037781,新規,0,2023-04-03,2023-04-03,株式会社倉敷ＦＣ,,株式会社,岡山県,倉敷市,阿知３丁目２１‐１９,,33,202,7100055,,,,,,,2023-04-03,1,,,,,クラシキエフシー,0
334,2290001101023,新規,0,2023-04-03,2023-04-03,昌建株式会社,,株式会社,福岡県,久留米市,北野町今山１０７２番地１２,,40,203,8301122,,,,,,,2023-04-03,1,,,,,ショウケン,0
335,2290001101048,新規,0,2023-04-03,2023-04-03,株式会社みちわき研究所,,株式会社,福岡県,福岡市西区,福重１丁目５番１１号,,40,135,8190022,,,,,,,2023-04-03,1,,,,,ミチワキケンキュウジョ,0
343,2360001031766,新規,0,2023-04-03,2023-04-03,沖縄観光サービス株式会社,,株式会社,沖縄県,那覇市,久茂地２丁目１４番１２号２階,,47,201,9000015,,,,,,,2023-04-03,1,,,,,オキナワカンコウサービス,0
344,2360001031774,新規,0,2023-04-03,2023-04-03,ＤＡＺＺ株式会社,,株式会社,沖縄県,中頭郡北谷町,字宮城２－１０８－１０１,,47,326,9040113,,,,,,,2023-04-03,1,,,,,ダッズ,0
347,2360003012839,新規,0,2023-04-03,2023-04-03,合同会社ＦｕＫｕＭｕＳｕＨｉ,,合同会社,沖縄県,那覇市,泊２丁目４番地９シティハイムとまり７０２,,47,201,9000012,,,,,,,2023-04-03,1,,,,,フクムスビ,0
350,2370001049774,新規,0,2023-04-03,2023-04-03,株式会社キタタカ企画,,株式会社,宮城県,仙台市泉区,北高森１０番地の５,,04,105,9813202,,,,,,,2023-04-03,1,,,,,キタタカキカク,0
362,2420003002692,新規,0,2023-04-03,2023-04-03,Ｍ合同会社,,合同会社,青森県,弘前市,大字泉野２丁目１８番地１１,,02,202,0368164,,,,,,,2023-04-03,1,,,,,エム,0
367,2430003014877,新規,0,2023-04-03,2023-04-03,合同会社ＩＭＯ,,合同会社,北海道,札幌市北区,新琴似十二条９丁目１番１２号,,01,102,0010912,,,,,,,2023-04-03,1,,,,,アイエムオー,0
368,2430003014885,新規,0,2023-04-03,2023-04-03,合同会社ＰＬＵＭＥ,,合同会社,北海道,札幌市白石区,南郷通７丁目南５番１５－４０３号,,01,104,0030022,,,,,,,2023-04-03,1,,,,,プリューム,0
370,2450005004370,新規,0,2023-04-03,2023-04-03,公立大学法人旭川市立大学,,その他の設立登記法人,北海道,旭川市,永山三条２３丁目１番９号,,01,204,0798413,,,,,,,2023-04-03,1,,,,,アサヒカワシリツダイガク,0
374,2500001024838,新規,0,2023-04-03,2023-04-03,株式会社ＯＯＮＯ　ＯＦＦＩＣＥ,,株式会社,愛媛県,東温市,西岡乙２番地１,,38,215,7910205,,,,,,,2023-04-03,1,,,,,オオノオフィス,0
378,2700150115112,新規,0,2023-04-03,2023-04-03,Ｆｅｎｉｘ　Ｗｅｓｔ　Ｆｕｒａｎｏ　Ｒｅｓｏｒｔｓ　Ｌｉｍｉｔｅｄ,,外国会社等,北海道,富良野市,北の峰町２１４１番２２,,01,229,0760034,Ｒｏａｄ　Ｔｏｗｎ，Ｔｏｒｔｏｌａ，ＶＧ　１１１０,,,,,,2023-04-03,1,,,,,フエニツクスウエストフラノリゾーツリミテツド,0
389,3010001234048,新規,0,2023-04-03,2023-04-03,株式会社Ｏｎｄｅｓ,,株式会社,東京都,中央区,晴海３丁目１３番２－２０１５号,,13,102,1040053,,,,,,,2023-04-03,1,,,,,オンド,0
395,3010401173432,新規,0,2023-04-03,2023-04-03,Ｈｉｇｈ　Ｆｅｎｃｅ株式会社,,株式会社,東京都,港区,南青山３丁目１番３６号青山丸竹ビル６Ｆ,,13,103,1070062,,,,,,,2023-04-03,1,,,,,ハイフェンス,0
396,3010401173440,新規,0,2023-04-03,2023-04-03,めりーごーらうんど株式会社,,株式会社,東京都,港区,港南１丁目９番３６号,,13,103,1080075,,,,,,,2023-04-03,1,,,,,メリーゴーラウンド,0
398,3010403029839,新規,0,2023-04-03,2023-04-03,Ｔａｎｚ合同会社,,合同会社,東京都,港区,南青山１丁目１５ー８ー６０１号,,13,103,1070062,,,,,,,2023-04-03,1,,,,,タンズ,0
399,3010405021967,新規,0,2023-04-03,2023-04-03,ＳＣＧ５２特定目的会社,,その他の設立登記法人,東京都,港区,虎ノ門４丁目１番２８号,,13,103,1050001,,,,,,,2023-04-03,1,,,,,エスシージーフィフティツー,0
400,3010501050226,新規,0,2023-04-03,2023-04-03,株式会社ｅｖｅｎｔｅｒｎｅｔ,,株式会社,東京都,台東区,台東４丁目３０番６－５０４号,,13,106,1100016,,,,,,,2023-04-03,1,,,,,イベンターネット,0
404,3010603010086,新規,0,2023-04-03,2023-04-03,合同会社山美,,合同会社,東京都,墨田区,太平２丁目４番３号,,13,107,1300012,,,,,,,2023-04-03,1,,,,,ヤマビ,0
411,3011001153493,新規,0,2023-04-03,2023-04-03,株式会社くるまなび,,株式会社,東京都,渋谷区,円山町５番５号Ｎａｖｉ渋谷Ｖ３階,,13,113,1500044,,,,,,,2023-04-03,1,,,,,クルマナビ,0
412,3011003016509,新規,0,2023-04-03,2023-04-03,Ｈａｎｃｏｃｋ　Ｉｎｔｅｒｎａｔｉｏｎａｌ合同会社,,合同会社,東京都,渋谷区,神南１丁目２３－４,,13,113,1500041,,,,,,,2023-04-03,1,,,,,ハンコックインターナショナル,0
414,3011101102367,新規,0,2023-04-03,2023-04-03,株式会社メディトト,,株式会社,東京都,新宿区,上落合２丁目１９番７号シャルムタナカ３０１,,13,104,1610034,,,,,,,2023-04-03,1,,,,,メディトト,0
415,3011103012886,新規,0,2023-04-03,2023-04-03,Ｏｎｅ’ｓコンサルティング合同会社,,合同会社,東京都,新宿区,西新宿３丁目３番１３号西新宿水間ビル２Ｆ,,13,104,1600023,,,,,,,2023-04-03,1,,,,,ワンズコンサルティング,0
416,3011301028577,新規,0,2023-04-03,2023-04-03,渚ラボ株式会社,,株式会社,東京都,杉並区,久我山４丁目１３番６号リードン久我山１０２,,13,115,1680082,,,,,,,2023-04-03,1,,,,,ナギサラボ,0
428,3020003023646,新規,0,2023-04-03,2023-04-03,合同会社マーベルハウス,,合同会社,神奈川県,横浜市鶴見区,東寺尾北台５－８－３０４,,14,101,2300016,,,,,,,2023-04-03,1,,,,,マーベルハウス,0
429,3020005015914,新規,0,2023-04-03,2023-04-03,医療法人社団星樹会,,その他の設立登記法人,神奈川県,横浜市港北区,篠原西町１番１８号１Ｆ,,14,109,2220025,,,,,,,2023-04-03,1,,,,,セイジュカイ,0
436,3040001127711,新規,0,2023-04-03,2023-04-03,株式会社昂栄,,株式会社,千葉県,長生郡睦沢町,大谷木１２００番地１,,12,422,2994405,,,,,,,2023-04-03,1,,,,,コウエイ,0
437,3040001127728,新規,0,2023-04-03,2023-04-03,株式会社メディケアサービス,,株式会社,千葉県,千葉市稲毛区,柏台１－１９－１０９,,12,103,2630053,,,,,,,2023-04-03,1,,,,,メディケアサービス,0
441,3040003022316,新規,0,2023-04-03,2023-04-03,ＣＡＲＬＩＦＴＯ合同会社,,合同会社,千葉県,佐倉市,王子台２丁目１３番１６号王子台ミハラビル２０２号室,,12,212,2850837,,,,,,,2023-04-03,1,,,,,カーリフト,0
442,3050003007373,新規,0,2023-04-03,2023-04-03,合同会社ビルドライフ,,合同会社,茨城県,稲敷郡美浦村,大字舟子４番地４,,08,442,3000428,,,,,,,2023-04-03,1,,,,,ビルドライフ,0
446,3080401026402,新規,0,2023-04-03,2023-04-03,株式会社ビズデザイン,,株式会社,静岡県,浜松市中区,田町２２３番地の２１ビオラ田町３Ｆ,,22,131,4300944,,,,,,,2023-04-03,1,,,,,ビズデザイン,0
453,3120001253508,新規,0,2023-04-03,2023-04-03,永高株式会社,,株式会社,大阪府,大阪市都島区,内代町１丁目１２番１６号ベストレジデンス都島５０２号,,27,102,5340013,,,,,,,2023-04-03,1,,,,,エイコウ,0
454,3120001253598,新規,0,2023-04-03,2023-04-03,株式会社不動産ラボ,,株式会社,大阪府,大阪市浪速区,敷津西１丁目５番１７号,,27,111,5560015,,,,,,,2023-04-03,1,,,,,フドウサンラボ,0
455,3120001253656,新規,0,2023-04-03,2023-04-03,アーキワーズバーグ株式会社,,株式会社,大阪府,大阪市北区,中津１丁目１０番１号東中ビル,,27,127,5310071,,,,,,,2023-04-03,1,,,,,アーキワーズバーグ,0
456,3120003023751,新規,0,2023-04-03,2023-04-03,合同会社名もなき左官,,合同会社,大阪府,枚方市,田口１丁目５５―７,,27,210,5731162,,,,,,,2023-04-03,1,,,,,ナモナキサカン,0
457,3120005023527,新規,0,2023-04-03,2023-04-03,一般社団法人日本健康寿命研究会,,その他の設立登記法人,大阪府,大阪市北区,梅田２丁目２番２号ヒルトンプラザウェストオフィスタワー１８階,,27,127,5300001,,,,,,,2023-04-03,1,,,,,ニホンケンコウジュミョウケンキュウカイ,0
462,3122003002553,新規,0,2023-04-03,2023-04-03,エヌフューチャー合同会社,,合同会社,大阪府,四條畷市,大字下田原１２２８,,27,229,5750012,,,,,,,2023-04-03,1,,,,,エヌフューチャー,0
465,3130001073979,新規,0,2023-04-03,2023-04-03,Ｔｈｅ　Ｌｉｇｈｔｓ株式会社,,株式会社,京都府,京都市左京区,黒谷町３０－３黒谷３０３－２階,,26,103,6068331,,,,,,,2023-04-03,1,,,,,ジライツ,0
469,3130005016728,新規,0,2023-04-03,2023-04-03,一般社団法人岡共同墓地管理組合,,その他の設立登記法人,京都府,福知山市,字天田３８５番地,,26,201,6200000,,,,,,,2023-04-03,1,,,,,オカキョウドウボチカンリクミアイ,0
478,3140005026544,新規,0,2023-04-03,2023-04-03,福龍寺,,その他の設立登記法人,兵庫県,神戸市長田区,六番町１丁目４番５,,28,106,6530002,,,,,,,2023-04-03,1,,,,,フクリュウジ,0
479,3150001026274,新規,0,2023-04-03,2023-04-03,株式会社ＨＡＹＡＭＩ,,株式会社,奈良県,大和高田市,土庫１丁目８番３３号,,29,202,6350002,,,,,,,2023-04-03,1,,,,,ハヤミ,0
486,3180001155632,新規,0,2023-04-03,2023-04-03,株式会社ふくおか農園,,株式会社,愛知県,日進市,赤池町西組３８番地２,,23,230,4700126,,,,,,,2023-04-03,1,,,,,フクオカノウエン,0
491,3180003025032,新規,0,2023-04-03,2023-04-03,もっち合同会社,,合同会社,愛知県,名古屋市中村区,名駅３丁目４－１０アルティメイト名駅１ｓｔ２階,,23,105,4500002,,,,,,,2023-04-03,1,,,,,モッチ,0
494,3190001030280,新規,0,2023-04-03,2023-04-03,株式会社Ｙａｎａ‐ｔｅｃｈ,,株式会社,三重県,志摩市,大王町波切１２４９番地２１,,24,215,5170603,,,,,,,2023-04-03,1,,,,,ヤナッテク,0
497,3200001041128,新規,0,2023-04-03,2023-04-03,株式会社田中金属製作所,,株式会社,岐阜県,山県市,日永１０７９番地,,21,215,5012253,,,,,,,2023-04-03,1,,,,,タナカキンゾクセイサクショ,0
509,3260003004259,新規,0,2023-04-03,2023-04-03,合同会社ＲＩＳＥ,,合同会社,岡山県,岡山市北区,大元駅前３‐６５ロイヤルガーデン大元駅前１１０１,,33,101,7000923,,,,,,,2023-04-03,1,,,,,ライズ,0
516,3290001101039,新規,0,2023-04-03,2023-04-03,株式会社ＳＡＩＬ　ＨＯＵＳＥ,,株式会社,福岡県,福岡市中央区,高砂１丁目２０番１８号,,40,133,8100011,,,,,,,2023-04-03,1,,,,,セイルハウス,0
517,3290001101047,新規,0,2023-04-03,2023-04-03,デイトナ株式会社,,株式会社,福岡県,大野城市,横峰２丁目２０番７号,,40,219,8160973,,,,,,,2023-04-03,1,,,,,デイトナ,0
521,3290005018989,新規,0,2023-04-03,2023-04-03,一般社団法人再生医療安全推進機構,,その他の設立登記法人,福岡県,福岡市東区,香椎照葉５丁目１番１２－３１０６号センターマークスタワー,,40,131,8130017,,,,,,,2023-04-03,1,,,,,サイセイイリョウアンゼンスイシンキコウ,0
522,3300005007131,新規,0,2023-04-03,2023-04-03,一般社団法人ねこあい,,その他の設立登記法人,佐賀県,武雄市,武雄町大字富岡７７５１番地２５,,41,206,8430024,,,,,,,2023-04-03,1,,,,,ネコアイ,0
524,3320003004054,新規,0,2023-04-03,2023-04-03,合同会社ＪＥＵＸ,,合同会社,大分県,大分市,王子中町７－３－１３０３,,44,201,8700006,,,,,,,2023-04-03,1,,,,,ジュー,0
531,3360001031765,新規,0,2023-04-03,2023-04-03,株式会社沖縄ルヴィ,,株式会社,沖縄県,那覇市,牧志２丁目１６番８号ＢＩＴＰＬＡＺＡ１Ｆ,,47,201,9000013,,,,,,,2023-04-03,1,,,,,オキナワルヴィ,0
537,3400003003048,新規,0,2023-04-03,2023-04-03,合同会社レガート,,合同会社,岩手県,花巻市,愛宕町１０番４７号,,03,205,0250071,,,,,,,2023-04-03,1,,,,,レガート,0
542,3420002020323,新規,0,2023-04-03,2023-04-03,有限会社瀬川不動産,,有限会社,青森県,十和田市,西一番町１４番１０号,,02,206,0340092,,,,,,,2023-04-03,1,,,,,セガワフドウサン,0
548,3430001088732,新規,0,2023-04-03,2023-04-03,株式会社Ｃｒｅ‐ｅｉｇｈｔ,,株式会社,北海道,札幌市白石区,栄通５丁目１０番１０－１０３号,,01,104,0030021,,,,,,,2023-04-03,1,,,,,クリエイト,0
549,3430001088740,新規,0,2023-04-03,2023-04-03,株式会社レードルワークス,,株式会社,北海道,苫小牧市,川沿町３丁目１７番２０号,,01,213,0530822,,,,,,,2023-04-03,1,,,,,レードルワークス,0
558,3700150036860,新規,0,2023-04-03,2015-10-09,水沢地区町内会連絡協議会,,その他,岩手県,奥州市,水沢字聖天８５－２,,03,215,0230063,,,,,,,2015-10-09,1,,,,,ミズサワチクチヨウナイカイレンラクキヨウギカイ,0
562,4010001233890,新規,0,2023-04-03,2023-04-03,株式会社ミティアン投資顧問,,株式会社,東京都,千代田区,永田町２丁目１１番１号,,13,101,1000014,,,,,,,2023-04-03,1,,,,,ミティアントウシコモン,0
563,4010001234039,新規,0,2023-04-03,2023-04-03,株式会社ＰＯＰ　ＲＯＣＫ,,株式会社,東京都,中央区,日本橋本町１丁目２－８Ｎ１１ビル２階,,13,102,1030023,,,,,,,2023-04-03,1,,,,,ポップロック,0
564,4010001234113,新規,0,2023-04-03,2023-04-03,株式会社Ｔ３,,株式会社,東京都,中央区,日本橋茅場町２丁目１７番６号いづみハイツニュー茅場町７０７,,13,102,1030025,,,,,,,2023-04-03,1,,,,,ティースリー,0
567,4010401173415,新規,0,2023-04-03,2023-04-03,株式会社ＳＡＤＡＲＡ,,株式会社,東京都,港区,西麻布４丁目２２番８号麻布ポイントビルＢ１階,,13,103,1060031,,,,,,,2023-04-03,1,,,,,サダラ,0
568,4010401173423,新規,0,2023-04-03,2023-04-03,株式会社ｓｔｕｄｉｏ　Ａ,,株式会社,東京都,港区,赤坂４丁目１５－１赤坂ガーデンシティー１６階,,13,103,1070052,,,,,,,2023-04-03,1,,,,,スタジオエー,0
569,4010401173448,新規,0,2023-04-03,2023-04-03,ＭＯＬＶＡＮＹ　ＪＡＰＡＮ株式会社,,株式会社,東京都,港区,南青山２丁目１１－１６,,13,103,1070062,,,,,,,2023-04-03,1,,,,,モルバニージャパン,0
570,4010405021958,新規,0,2023-04-03,2023-04-03,一般社団法人医療データ連携分析基盤協会,,その他の設立登記法人,東京都,港区,浜松町２丁目２番１５号浜松町ダイヤビル２Ｆ,,13,103,1050013,,,,,,,2023-04-03,1,,,,,イリョウデータレンケイブンセキキバンキョウカイ,0
571,4010405021966,新規,0,2023-04-03,2023-04-03,ＳＣＧ５１特定目的会社,,その他の設立登記法人,東京都,港区,虎ノ門４丁目１番２８号,,13,103,1050001,,,,,,,2023-04-03,1,,,,,エスシージーフィフティワン,0
591,4011003016532,新規,0,2023-04-03,2023-04-03,ＳＨＫ合同会社,,合同会社,東京都,渋谷区,道玄坂１丁目１０番８号渋谷道玄坂東急ビル２Ｆ－Ｃ,,13,113,1500043,,,,,,,2023-04-03,1,,,,,エスエイチケー,0
592,4011003016557,新規,0,2023-04-03,2023-04-03,合同会社トケスタジオ,,合同会社,東京都,渋谷区,神宮前６丁目２３番４号桑野ビル２階,,13,113,1500001,,,,,,,2023-04-03,1,,,,,トケスタジオ,0
594,4011101102333,新規,0,2023-04-03,2023-04-03,Ｌａｐｉｎｅ株式会社,,株式会社,東京都,新宿区,西新宿４丁目５番４号２階,,13,104,1600023,,,,,,,2023-04-03,1,,,,,ラピーヌ,0
595,4011101102374,新規,0,2023-04-03,2023-04-03,株式会社魚千代家,,株式会社,東京都,新宿区,新宿２丁目５番１号,,13,104,1600022,,,,,,,2023-04-03,1,,,,,ウオチヨヤ,0
598,4011501029110,新規,0,2023-04-03,2023-04-03,ＫＣ株式会社,,株式会社,東京都,北区,浮間１丁目１番１４号リムジンビル２１８,,13,117,1150051,,,,,,,2023-04-03,1,,,,,ケイシー,0
605,4013301050543,新規,0,2023-04-03,2023-04-03,株式会社ラウンジスタイルシステムズ,,株式会社,東京都,豊島区,西池袋１丁目１７番７号池袋ルミエールビル４Ｆ,,13,116,1710021,,,,,,,2023-04-03,1,,,,,ラウンジスタイルシステムズ,0
617,4020001150887,新規,0,2023-04-03,2023-04-03,株式会社ライムセクション,,株式会社,神奈川県,横浜市西区,北幸２丁目１０番地２８むつみビル３Ｆ,,14,103,2200004,,,,,,,2023-04-03,1,,,,,ライムセクション,0
621,4020003023645,新規,0,2023-04-03,2023-04-03,合同会社ひらいコンサルタント,,合同会社,神奈川県,横浜市保土ケ谷区,峰岡町１丁目７番地１２－１２０７号,,14,106,2400064,,,,,,,2023-04-03,1,,,,,ヒライコンサルタント,0
626,4030003021458,新規,0,2023-04-03,2023-04-03,Ｎｇｏｃ　Ｈａ合同会社,,合同会社,埼玉県,三郷市,三郷３丁目１９番地２４,,11,237,3410024,,,,,,,2023-04-03,1,,,,,ゴックハ,0
628,4040001127702,新規,0,2023-04-03,2023-04-03,Ｅ‐ＤＯＭＭＩＮＧＯＳ　ＣＯＭＰＡＮＹ株式会社,,株式会社,千葉県,柏市,若柴６番地３４１,,12,217,2770871,,,,,,,2023-04-03,1,,,,,,0
629,4040001127727,新規,0,2023-04-03,2023-04-03,株式会社ＢＯＺＥ．,,株式会社,千葉県,木更津市,東中央１丁目４番６号,,12,206,2920057,,,,,,,2023-04-03,1,,,,,ボウズ,0
653,4120001253572,新規,0,2023-04-03,2023-04-03,八月株式会社,,株式会社,大阪府,大阪市東成区,東小橋２丁目８番２９号コスナーマンション６０６号,,27,115,5370024,,,,,,,2023-04-03,1,,,,,ハチガツ,0
654,4120001253630,新規,0,2023-04-03,2023-04-03,信栄商事株式会社,,株式会社,大阪府,大阪市中央区,島之内２丁目１３番１１号,,27,128,5420082,,,,,,,2023-04-03,1,,,,,シンエイショウジ,0
655,4120003023750,新規,0,2023-04-03,2023-04-03,メーリオ合同会社,,合同会社,大阪府,大阪市浪速区,難波中１丁目６番５号相鉄フレッサイン大阪なんば駅前１階,,27,111,5560011,,,,,,,2023-04-03,1,,,,,メーリオ,0
666,4130003008619,新規,0,2023-04-03,2023-04-03,マリオリペア合同会社,,合同会社,京都府,木津川市,加茂町里南古田１１７,,26,214,6191152,,,,,,,2023-04-03,1,,,,,マリオリペア,0
673,4140003018906,新規,0,2023-04-03,2023-04-03,合同会社ＹＣ,,合同会社,兵庫県,神戸市中央区,山本通１丁目７番１５号東洋ハイツ２階,,28,110,6500003,,,,,,,2023-04-03,1,,,,,ワイシー,0
674,4140005026543,新規,0,2023-04-03,2023-04-03,学校法人Ｋ学園,,その他の設立登記法人,兵庫県,尼崎市,久々知西町２丁目１番３２号,,28,202,6610978,,,,,,,2023-04-03,1,,,,,ケイガクエン,0
676,4150001026273,新規,0,2023-04-03,2023-04-03,株式会社ａ　Ｒｅｂｏｒｎ,,株式会社,奈良県,生駒市,南田原町１１２４番地１カルムドミール３０２,,29,209,6300135,,,,,,,2023-04-03,1,,,,,アリボーン,0
677,4160001024937,新規,0,2023-04-03,2023-04-03,株式会社藤備,,株式会社,滋賀県,草津市,草津町１３４３－１５,,25,206,5250036,,,,,,,2023-04-03,1,,,,,フジビ,0
683,4180001155540,新規,0,2023-04-03,2023-04-03,株式会社Ｒｅｗｒｉｔｅ,,株式会社,愛知県,名古屋市中川区,柳森町１８１２番地の２（１０３）,,23,110,4540871,,,,,,,2023-04-03,1,,,,,リライト,0
684,4180001155549,新規,0,2023-04-03,2023-04-03,株式会社ＳＵＲＹＡ,,株式会社,愛知県,名古屋市西区,浅間２丁目４番６号ヤマコ第一ビル３０２号,,23,104,4510035,,,,,,,2023-04-03,1,,,,,スーリヤ,0
685,4180001155607,新規,0,2023-04-03,2023-04-03,株式会社グランレント,,株式会社,愛知県,名古屋市港区,小碓２丁目８５番地,,23,111,4550801,,,,,,,2023-04-03,1,,,,,グランレント,0
686,4180001155623,新規,0,2023-04-03,2023-04-03,株式会社わかばケアサービス,,株式会社,愛知県,犬山市,もえぎヶ丘３丁目２番地,,23,215,4840020,,,,,,,2023-04-03,1,,,,,ワカバケアサービス,0
687,4180001155631,新規,0,2023-04-03,2023-04-03,株式会社ｄｉｍｐｌｅ,,株式会社,愛知県,名古屋市名東区,牧の里１丁目１２１４番地ＣＡＳＡ　ＤＥ　ＰＲＩＭＡＶＥＲＡ,,23,115,4650068,,,,,,,2023-04-03,1,,,,,ディンプル,0
691,4180003025023,新規,0,2023-04-03,2023-04-03,合同会社Ｈｏｓｈｉｋａ,,合同会社,愛知県,名古屋市中村区,名駅４丁目２４番５号第２森ビル４０１号,,23,105,4500002,,,,,,,2023-04-03,1,,,,,ホシカ,0
696,4180303005666,新規,0,2023-04-03,2023-04-03,合同会社カトデン,,合同会社,愛知県,新城市,庭野字原川２７番地３,,23,221,4411331,,,,,,,2023-04-03,1,,,,,カトデン,0
699,4210001019270,新規,0,2023-04-03,2023-04-03,株式会社４ａｄｄｉｃｔ,,株式会社,福井県,福井市,問屋町４丁目１１２番地２,,18,201,9188231,,,,,,,2023-04-03,1,,,,,フォーアディクト,0
701,4230001019764,新規,0,2023-04-03,2023-04-03,株式会社ヴェンティー,,株式会社,富山県,富山市,新屋１５６番地４,,16,201,9300822,,,,,,,2023-04-03,1,,,,,ヴェンティー,0
706,4240001061278,新規,0,2023-04-03,2023-04-03,ＢＥＬＬ　ＴＥＣ株式会社,,株式会社,広島県,広島市中区,八丁堀６番１１－６０２号,,34,101,7300013,,,,,,,2023-04-03,1,,,,,ベルテック,0
711,4260003004258,新規,0,2023-04-03,2023-04-03,合同会社ミドマ,,合同会社,岡山県,高梁市,備中町西山３６０４番地３,,33,209,7160323,,,,,,,2023-04-03,1,,,,,ミドマ,0
712,4270005005550,新規,0,2023-04-03,2023-04-03,一般社団法人アイデンティティ・パートナーズ,,その他の設立登記法人,鳥取県,鳥取市,国府町三代寺７４６番地２２,,31,201,6800154,,,,,,,2023-04-03,1,,,,,アイデンティティパートナーズ,0
715,4290001101005,新規,0,2023-04-03,2023-04-03,清華貿易株式会社,,株式会社,福岡県,糟屋郡新宮町,上府北３丁目６－３,,40,345,8110123,,,,,,,2023-04-03,1,,,,,セイカボウエキ,0
716,4290001101038,新規,0,2023-04-03,2023-04-03,徹工業株式会社,,株式会社,福岡県,太宰府市,高雄４丁目１１番１２号,,40,221,8180122,,,,,,,2023-04-03,1,,,,,トオルコウギョウ,0
717,4290001101046,新規,0,2023-04-03,2023-04-03,株式会社医療研究所,,株式会社,福岡県,福岡市西区,内浜１丁目１６番２５－５０２号,,40,135,8190005,,,,,,,2023-04-03,1,,,,,イリョウケンキュウジョ,0
745,4410001013435,新規,0,2023-04-03,2023-04-03,大澤建設株式会社,,株式会社,秋田県,秋田市,茨島６丁目２２番１１号,,05,201,0100065,,,,,,,2023-04-03,1,,,,,オオサワケンセツ,0
751,4430001088731,新規,0,2023-04-03,2023-04-03,株式会社Ｓ‐ＬＩＦＥ,,株式会社,北海道,札幌市中央区,南九条西４丁目３－１ＡＭＳＴＯＷＥＲ４０４,,01,101,0640809,,,,,,,2023-04-03,1,,,,,エスライフ,0
752,4430001088748,新規,0,2023-04-03,2023-04-03,ＹＯＳＨＩ‐ＴＥＣＨ株式会社,,株式会社,北海道,札幌市中央区,南十条西１２丁目２番４５－６０１号,,01,101,0640810,,,,,,,2023-04-03,1,,,,,ヨシテック,0
753,4430001088756,新規,0,2023-04-03,2023-04-03,株式会社フクショウ,,株式会社,北海道,札幌市東区,東苗穂十四条４丁目４番１３号,,01,103,0070814,,,,,,,2023-04-03,1,,,,,フクショウ,0
760,4450001013935,新規,0,2023-04-03,2023-04-03,株式会社ＱＲＥＳｉＡ,,株式会社,北海道,旭川市,東光十三条７丁目２番５号,,01,204,0788353,,,,,,,2023-04-03,1,,,,,クレシア,0
769,4700150114962,新規,0,2023-04-03,2023-03-27,アルカス土浦管理組合,,その他,茨城県,土浦市,大和町１番１号,,08,203,3000036,,,,,,,2023-03-27,1,,,,,アルカスツチウラカンリクミアイ,0
775,5010001234145,新規,0,2023-04-03,2023-04-03,株式会社ＧＯ　ＦＵＮ,,株式会社,東京都,中央区,銀座１丁目１２番４号Ｎ＆ＥＢＬＤ．６Ｆ,,13,102,1040061,,,,,,,2023-04-03,1,,,,,ゴーファン,0
788,5010401173422,新規,0,2023-04-03,2023-04-03,花ツバメ株式会社,,株式会社,東京都,港区,港南２丁目１６番１号品川イーストワンタワー４階,,13,103,1080075,,,,,,,2023-04-03,1,,,,,ハナツバメ,0
789,5010401173430,新規,0,2023-04-03,2023-04-03,株式会社Ａｃｔｉｙｏｎ　Ｊａｐａｎ,,株式会社,東京都,港区,南麻布４丁目１２番２５号南麻布セントレＰｌａｚａＭ′ｓ,,13,103,1060047,,,,,,,2023-04-03,1,,,,,アクティヨンジャパン,0
791,5010405021965,新規,0,2023-04-03,2023-04-03,ＳＣＧ５０特定目的会社,,その他の設立登記法人,東京都,港区,虎ノ門４丁目１番２８号,,13,103,1050001,,,,,,,2023-04-03,1,,,,,エスシージーフィフティ,0
799,5010801033820,新規,0,2023-04-03,2023-04-03,ＬＯＣＡＬＨＥＲＯＥＳ株式会社,,株式会社,東京都,大田区,蒲田５丁目２６番地３東商第２ビル４０２,,13,111,1440052,,,,,,,2023-04-03,1,,,,,ローカルヒーローズ,0
802,5010901052778,新規,0,2023-04-03,2023-04-03,株式会社リオアマゾナスコーポレーション,,株式会社,東京都,世田谷区,池尻２丁目３７番１４号,,13,112,1540001,,,,,,,2023-04-03,1,,,,,リオアマゾナスコーポレーション,0
803,5011001153467,新規,0,2023-04-03,2023-04-03,株式会社こたしん,,株式会社,東京都,目黒区,自由が丘２丁目８番５号,,13,110,1520035,,,,,,,2023-04-03,1,,,,,コタシン,0
804,5011101102357,新規,0,2023-04-03,2023-04-03,株式会社クロノゲート,,株式会社,東京都,新宿区,北新宿１丁目２７－１２グランドステータス北新宿３階,,13,104,1690074,,,,,,,2023-04-03,1,,,,,クロノゲート,0
805,5011101102381,新規,0,2023-04-03,2023-04-03,株式会社高精度検査会,,株式会社,東京都,新宿区,新宿６丁目２８－７新宿ＥＡＳＴＣＯＵＲＴ２Ｆ,,13,104,1600022,,,,,,,2023-04-03,1,,,,,コウセイドケンサカイ,0
813,5020001150886,新規,0,2023-04-03,2023-04-03,株式会社八木下,,株式会社,神奈川県,横浜市鶴見区,生麦３丁目８番３５号,,14,101,2300052,,,,,,,2023-04-03,1,,,,,ヤギシタ,0
815,5030001153079,新規,0,2023-04-03,2023-04-03,ウィズライフコーポレーション株式会社,,株式会社,埼玉県,加須市,北小浜３０２番地４,,11,210,3470011,,,,,,,2023-04-03,1,,,,,ウィズライフコーポレーション,0
816,5030001153095,新規,0,2023-04-03,2023-04-03,世方商事株式会社,,株式会社,埼玉県,戸田市,喜沢１丁目１４番地の５３－１Ｆ,,11,224,3350013,,,,,,,2023-04-03,1,,,,,セイホウショウジ,0
820,5030003021473,新規,0,2023-04-03,2023-04-03,ＹＧグリーン合同会社,,合同会社,埼玉県,朝霞市,根岸台７丁目３番２０号,,11,227,3510005,,,,,,,2023-04-03,1,,,,,ワイジーグリーン,0
828,5040001127734,新規,0,2023-04-03,2023-04-03,株式会社ＶＩｅ,,株式会社,千葉県,千葉市稲毛区,轟町４丁目８番地１５号小川ビル１０１,,12,103,2630021,,,,,,,2023-04-03,1,,,,,ヴィ,0
851,5120001253571,新規,0,2023-04-03,2023-04-03,ＣＬＯＵＤＳ　ＳＨＯＲＥ　ＭＡＮＡＧＥＭＥＮＴ株式会社,,株式会社,大阪府,大阪市東淀川区,小松１丁目１４番１８号ハイツ上新第五小松３０６号,,27,114,5330004,,,,,,,2023-04-03,1,,,,,クラウズショアーマネジメント,0
852,5120001253638,新規,0,2023-04-03,2023-04-03,株式会社ｒｅａｄ,,株式会社,大阪府,大阪市福島区,福島６丁目１８番１８－８０１号,,27,103,5530003,,,,,,,2023-04-03,1,,,,,リード,0
858,5120005023533,新規,0,2023-04-03,2023-04-03,一般社団法人大阪日中経営者協会,,その他の設立登記法人,大阪府,大阪市中央区,淡路町１丁目４番１５号ＲＩＣＯＴＴＯ,,27,128,5410047,,,,,,,2023-04-03,1,,,,,オオサカニッチュウケイエイシャキョウカイ,0
861,5120101067203,新規,0,2023-04-03,2023-04-03,株式会社タクハイ,,株式会社,大阪府,堺市北区,中百舌鳥町６丁９９８番地３中百舌鳥公園団地５号棟７２５号室,,27,146,5918023,,,,,,,2023-04-03,1,,,,,タクハイ,0
874,5150001026272,新規,0,2023-04-03,2023-04-03,株式会社Ｄ‐ＬＩＮＥ,,株式会社,奈良県,吉野郡大淀町,大字桧垣本２０９３番地の７３,,29,442,6380812,,,,,,,2023-04-03,1,,,,,ディーライン,0
882,5180001155597,新規,0,2023-04-03,2023-04-03,株式会社Ｇｉｖｅｒ　ｏｆ　Ｃｏｕｒａｇｅ,,株式会社,愛知県,名古屋市西区,大野木２丁目１７６サンコー沙羅２Ａ,,23,104,4520803,,,,,,,2023-04-03,1,,,,,ギバーオブカーレッジ,0
883,5180001155622,新規,0,2023-04-03,2023-04-03,株式会社愛知メタル,,株式会社,愛知県,一宮市,丹陽町九日市場字中田８０番地,,23,203,4910824,,,,,,,2023-04-03,1,,,,,アイチメタル,0
884,5180001155630,新規,0,2023-04-03,2023-04-03,株式会社伊藤商事,,株式会社,愛知県,名古屋市北区,上飯田北町２丁目５２番地の１,,23,103,4620802,,,,,,,2023-04-03,1,,,,,イトウショウジ,0
889,5210005010084,新規,0,2023-04-03,2023-04-03,特定非営利活動法人防音製品評価基準協議会,,その他の設立登記法人,福井県,鯖江市,中野町第２８号２４番地１,,18,207,9160033,,,,,,,2023-04-03,1,,,,,ボウオンセイヒンヒョウカキジュンキョウギカイ,0
890,5220001025333,新規,0,2023-04-03,2023-04-03,株式会社一心,,株式会社,石川県,白山市,平松町２４４番地１２,,17,210,9240841,,,,,,,2023-04-03,1,,,,,イッシン,0
892,5240001061269,新規,0,2023-04-03,2023-04-03,株式会社セ・ラ・ヴィ,,株式会社,広島県,福山市,昭和町１０番１号,,34,207,7200808,,,,,,,2023-04-03,1,,,,,セラヴィ,0
894,5250001020034,新規,0,2023-04-03,2023-04-03,熊毛テクノ株式会社,,株式会社,山口県,周南市,大字大河内７００番地の４８６,,35,215,7450651,,,,,,,2023-04-03,1,,,,,クマゲテクノ,0
900,5260003004257,新規,0,2023-04-03,2023-04-03,ナギカンパニー合同会社,,合同会社,岡山県,加賀郡吉備中央町,湯山１２８０番地３４,,33,681,7161112,,,,,,,2023-04-03,1,,,,,ナギカンパニー,0
906,5290001101020,新規,0,2023-04-03,2023-04-03,ＹＩＳＴＡＲ株式会社,,株式会社,福岡県,福岡市博多区,西月隈５丁目１８－４３－１階１０５号,,40,132,8120857,,,,,,,2023-04-03,1,,,,,イースター,0
907,5290001101029,新規,0,2023-04-03,2023-04-03,株式会社ｍｆ　ｚｅｒｏ,,株式会社,福岡県,福岡市中央区,舞鶴２丁目３番８号,,40,133,8100073,,,,,,,2023-04-03,1,,,,,エムエフゼロ,0
908,5290001101053,新規,0,2023-04-03,2023-04-03,Ｗａｌｋ　Ｔｏ　Ｓｅｅ株式会社,,株式会社,福岡県,福岡市中央区,長浜２丁目３番５－５０７号,,40,133,8100072,,,,,,,2023-04-03,1,,,,,ウォークトゥーシー,0
909,5290801029411,新規,0,2023-04-03,2023-04-03,株式会社堀井企画,,株式会社,福岡県,北九州市小倉北区,浅野３丁目８番１号ＡＩＭビル６階,,40,106,8020001,,,,,,,2023-04-03,1,,,,,ホリイキカク,0
919,5360001031771,新規,0,2023-04-03,2023-04-03,株式会社ＬＩＳ,,株式会社,沖縄県,那覇市,松山１丁目１４番１９号ペアシティビル１０２,,47,201,9000032,,,,,,,2023-04-03,1,,,,,エルアイエス,0
920,5360002023181,新規,0,2023-04-03,2023-04-03,有限会社ティ・エーファーム,,有限会社,沖縄県,浦添市,勢理客２丁目１４番９号,,47,208,9012122,,,,,,,2023-04-03,1,,,,,ティエーファーム,0
937,5480003001959,新規,0,2023-04-03,2023-04-03,合同会社縁庭,,合同会社,徳島県,小松島市,日開野町字行地９番地５,,36,203,7730010,,,,,,,2023-04-03,1,,,,,エンテイ,0
946,6010001234094,新規,0,2023-04-03,2023-04-03,株式会社エキサイトプロデュース,,株式会社,東京都,文京区,大塚４丁目１２－１１藤野ハウス３０１,,13,105,1120012,,,,,,,2023-04-03,1,,,,,エキサイトプロデュース,0
947,6010003040193,新規,0,2023-04-03,2023-04-03,Ｄｉｐｌｏｍａｔｉｃ　Ｓｕｐｐｏｒｔ　Ｓｅｒｖｉｃｅｓ合同会社,,合同会社,東京都,千代田区,一番町２２－７－５０１,,13,101,1020082,,,,,,,2023-04-03,1,,,,,ディプロマティックサポートサーヴィシーズ,0
948,6010003040202,新規,0,2023-04-03,2023-04-03,ＤＲＷ‐ＮＸ　Ｊａｐａｎ合同会社,,合同会社,東京都,千代田区,丸の内１丁目６番５号丸の内北口ビルディング９階,,13,101,1000005,,,,,,,2023-04-03,1,,,,,ディーアールダブリューエヌエックスジャパン,0
951,6010005036438,新規,0,2023-04-03,2023-04-03,一般社団法人スプリング２,,その他の設立登記法人,東京都,千代田区,丸の内３丁目１番１号東京共同会計事務所内,,13,101,1000005,,,,,,,2023-04-03,1,,,,,スプリングツー,0
954,6010403029836,新規,0,2023-04-03,2023-04-03,合同会社ＨＡＲＡＦＵＪＩ,,合同会社,東京都,港区,元麻布２丁目７－２１－４０６,,13,103,1060046,,,,,,,2023-04-03,1,,,,,ハラフジ,0
955,6010405021964,新規,0,2023-04-03,2023-04-03,ＳＣＧ４９特定目的会社,,その他の設立登記法人,東京都,港区,虎ノ門４丁目１番２８号,,13,103,1050001,,,,,,,2023-04-03,1,,,,,エスシージーフォーティナイン,0
969,6010903008059,新規,0,2023-04-03,2023-04-03,合同会社ＴＡＯ,,合同会社,東京都,世田谷区,桜丘２丁目８番３０－２１９号,,13,112,1560054,,,,,,,2023-04-03,1,,,,,タオ,0
982,6011101102372,新規,0,2023-04-03,2023-04-03,株式会社東京ヤナシヨ,,株式会社,東京都,新宿区,大久保１丁目１１番１９号１階,,13,104,1690072,,,,,,,2023-04-03,1,,,,,トウキョウヤナシヨ,0
983,6011101102380,新規,0,2023-04-03,2023-04-03,株式会社Ｈｕｎｔｅｒ,,株式会社,東京都,新宿区,市谷田町２丁目１７八重洲市谷ビル８Ｆ,,13,104,1620843,,,,,,,2023-04-03,1,,,,,ハンター,0
988,6011703003431,新規,0,2023-04-03,2023-04-03,興龍合同会社,,合同会社,東京都,江戸川区,平井５丁目１３番６号三田ビル１Ｆ,,13,123,1320035,,,,,,,2023-04-03,1,,,,,キョウリュウ,0
990,6011801042166,新規,0,2023-04-03,2023-04-03,三盛株式会社,,株式会社,東京都,足立区,栗原３丁目２６番１号２Ｆ,,13,121,1230842,,,,,,,2023-04-03,1,,,,,サンセイ,0
992,6012801022232,新規,0,2023-04-03,2023-04-03,株式会社ワイディーファクトリー,,株式会社,東京都,国分寺市,東恋ヶ窪６丁目７－７桂ビル２０３号室,,13,214,1850014,,,,,,,2023-04-03,1,,,,,ワイディーファクトリー,0
1007,6020003023610,新規,0,2023-04-03,2023-04-03,キャンバステック合同会社,,合同会社,神奈川県,川崎市宮前区,平１丁目９－８－１０２,,14,136,2160022,,,,,,,2023-04-03,1,,,,,キャンバステック,0
1008,6020003023627,新規,0,2023-04-03,2023-04-03,合同会社ＥＤＥＮ,,合同会社,神奈川県,横浜市西区,浅間町１丁目４番３号ウィザードビル４０２,,14,103,2200072,,,,,,,2023-04-03,1,,,,,エデン,0
1009,6020003023643,新規,0,2023-04-03,2023-04-03,合同会社ＹＡＮＮＵ,,合同会社,神奈川県,横浜市都筑区,早渕１丁目２番７‐８０２号,,14,118,2240025,,,,,,,2023-04-03,1,,,,,ヤンヌ,0
1015,6030001153061,新規,0,2023-04-03,2023-04-03,株式会社Ｓ＆Ｋミライム,,株式会社,埼玉県,川越市,むさし野南２２番地６,,11,201,3501158,,,,,,,2023-04-03,1,,,,,エスアンドケーミライム,0
1016,6030001153094,新規,0,2023-04-03,2023-04-03,株式会社ボルティングソリューション,,株式会社,埼玉県,東松山市,元宿１丁目９番地１スカイハイツ高坂２０６号室,,11,212,3550063,,,,,,,2023-04-03,1,,,,,ボルティングソリューション,0
1025,6040003022313,新規,0,2023-04-03,2023-04-03,合同会社ＡＰＯＬＬＯ,,合同会社,千葉県,野田市,上花輪１２７６,,12,208,2780033,,,,,,,2023-04-03,1,,,,,アポロ,0
1028,6050001052600,新規,0,2023-04-03,2023-04-03,株式会社ＷＨＳ,,株式会社,茨城県,水戸市,東前３丁目１３８番地,,08,201,3111136,,,,,,,2023-04-03,1,,,,,ダブリューエイチエス,0
1029,6050003007379,新規,0,2023-04-03,2023-04-03,ＪＤＭ　ＣＡＲＳ　ＭＩＴＯ合同会社,,合同会社,茨城県,東茨城郡茨城町,大字奥谷１８２１番地３６,,08,302,3113156,,,,,,,2023-04-03,1,,,,,ジェイディエムカーズミト,0
1038,6080401026399,新規,0,2023-04-03,2023-04-03,Ｍ・Ｋデザイン株式会社,,株式会社,静岡県,浜松市西区,大久保町２８５８番地,,22,133,4328006,,,,,,,2023-04-03,1,,,,,エムケーデザイン,0
1043,6110001037396,新規,0,2023-04-03,2023-04-03,株式会社カインド,,株式会社,新潟県,新潟市東区,太平４丁目２０番地３１,,15,102,9500005,,,,,,,2023-04-03,1,,,,,カインド,0
1053,6120001253612,新規,0,2023-04-03,2023-04-03,ＳＡＯ株式会社,,株式会社,大阪府,大阪市北区,梅田１丁目１１番４－１８００号,,27,127,5300001,,,,,,,2023-04-03,1,,,,,エスエイオ,0
1054,6120001253629,新規,0,2023-04-03,2023-04-03,拓心株式会社,,株式会社,大阪府,大阪市浪速区,桜川４丁目１７番２７号桜・リバーテラス２０８号室,,27,111,5560022,,,,,,,2023-04-03,1,,,,,タクシン,0
1055,6120001253637,新規,0,2023-04-03,2023-04-03,株式会社ｎｏｎｏ,,株式会社,大阪府,大阪市阿倍野区,天王寺町南３丁目５番１４－５０３号,,27,119,5450002,,,,,,,2023-04-03,1,,,,,ノノ,0
1056,6120001253661,新規,0,2023-04-03,2023-04-03,株式会社オールクリーン・ワン,,株式会社,大阪府,大阪市平野区,瓜破４丁目２番５１号,,27,126,5470024,,,,,,,2023-04-03,1,,,,,オールクリーンワン,0
1057,6120003023740,新規,0,2023-04-03,2023-04-03,合同会社ＳＨＩＧＥＭＵＲＡ,,合同会社,大阪府,枚方市,長尾峠町２１番１８号,,27,210,5730101,,,,,,,2023-04-03,1,,,,,シゲムラ,0
1058,6120003023749,新規,0,2023-04-03,2023-04-03,礼仁合同会社,,合同会社,大阪府,大阪市都島区,友渕町１丁目３番３４－４０７号,,27,102,5340016,,,,,,,2023-04-03,1,,,,,レイジン,0
1059,6120003023757,新規,0,2023-04-03,2023-04-03,合同会社Ｌｉｍａリンパサロン,,合同会社,大阪府,枚方市,氷室台１丁目９番１８号,,27,210,5730115,,,,,,,2023-04-03,1,,,,,リマリンパサロン,0
1060,6120005023532,新規,0,2023-04-03,2023-04-03,一般社団法人大阪外国人相談支援センター,,その他の設立登記法人,大阪府,大阪市中央区,瓦町４丁目４番１４号,,27,128,5410048,,,,,,,2023-04-03,1,,,,,オオサカガイコクジンソウダンシエンセンター,0
1065,6120901047329,新規,0,2023-04-03,2023-04-03,株式会社ＳＴＵＤＩＯ　ＥＮＩ,,株式会社,大阪府,吹田市,広芝町１０番８号,,27,205,5640052,,,,,,,2023-04-03,1,,,,,スタジオエニ,0
1066,6120903004567,新規,0,2023-04-03,2023-04-03,エックスワイゼット合同会社,,合同会社,大阪府,吹田市,南金田２丁目４－２７，３０６,,27,205,5640044,,,,,,,2023-04-03,1,,,,,エックスワイゼット,0
1067,6122001036856,新規,0,2023-04-03,2023-04-03,株式会社グッドモールド,,株式会社,大阪府,東大阪市,長田西２丁目６番３１－１００３号,,27,227,5770016,,,,,,,2023-04-03,1,,,,,グッドモールド,0
1075,6130003008625,新規,0,2023-04-03,2023-04-03,前田屋商店合同会社,,合同会社,京都府,京都市下京区,玉津島町２９４,,26,106,6008427,,,,,,,2023-04-03,1,,,,,マエダヤショウテン,0
1080,6140001129579,新規,0,2023-04-03,2023-04-03,株式会社ｇｒａｎｐｏｃｋｅ　ｌａｂｏ,,株式会社,兵庫県,西宮市,甲東園１丁目１番６号パセオ甲東１１０,,28,204,6620812,,,,,,,2023-04-03,1,,,,,グランポッケラボ,0
1081,6140001129587,新規,0,2023-04-03,2023-04-03,株式会社エンリッチ,,株式会社,兵庫県,西宮市,甲子園浜田町１１番１－２０８号,,28,204,6638167,,,,,,,2023-04-03,1,,,,,エンリッチ,0
1092,6180001155571,新規,0,2023-04-03,2023-04-03,Ｗｅａｐｓ株式会社,,株式会社,愛知県,春日井市,稲口町３丁目４番地１６,,23,206,4860905,,,,,,,2023-04-03,1,,,,,ウィープス,0
1093,6180001155605,新規,0,2023-04-03,2023-04-03,株式会社セキュアー,,株式会社,愛知県,一宮市,緑４丁目１２番４号－１０３号,,23,203,4910862,,,,,,,2023-04-03,1,,,,,セキュアー,0
1094,6180001155613,新規,0,2023-04-03,2023-04-03,株式会社Ｔ‐Ａｄｖａｎｃｅ,,株式会社,愛知県,名古屋市西区,江向町３丁目２４番地の１,,23,104,4510013,,,,,,,2023-04-03,1,,,,,ティーアドバンス,0
1095,6180001155638,新規,0,2023-04-03,2023-04-03,Ｓｅｑｕｏｉａ　Ｍｉｒａｉ株式会社,,株式会社,愛知県,名古屋市東区,東桜２丁目３番７号東カン名古屋キャステール９１１,,23,102,4610005,,,,,,,2023-04-03,1,,,,,セコイアミライ,0
1109,6240003006080,新規,0,2023-04-03,2023-04-03,合同会社曽,,合同会社,広島県,広島市中区,千田町１丁目１２番２号,,34,101,7300052,,,,,,,2023-04-03,1,,,,,ソ,0
1111,6260001037786,新規,0,2023-04-03,2023-04-03,株式会社スウジン,,株式会社,岡山県,倉敷市,玉島陶１２４４番地,,33,202,7138112,,,,,,,2023-04-03,1,,,,,スウジン,0
1114,6260003004256,新規,0,2023-04-03,2023-04-03,合同会社ＴＥＴＳＵＪＩＮ,,合同会社,岡山県,岡山市中区,清水１丁目６－２７,,33,102,7038243,,,,,,,2023-04-03,1,,,,,テツジン,0
1121,6290001101052,新規,0,2023-04-03,2023-04-03,株式会社和心フーズ,,株式会社,福岡県,大野城市,仲畑２丁目１４番９－３０３号,,40,219,8160921,,,,,,,2023-04-03,1,,,,,ワゴコロフーズ,0
1128,6290801029410,新規,0,2023-04-03,2023-04-03,株式会社ｐｒｏｃｕｒｅ,,株式会社,福岡県,行橋市,大字沓尾１９０番地,,40,213,8240013,,,,,,,2023-04-03,1,,,,,プロキュレ,0
1132,6340001025460,新規,0,2023-04-03,2023-04-03,株式会社オートショップ１１,,株式会社,鹿児島県,日置市,東市来町長里９４４番地１,,46,216,8992202,,,,,,,2023-04-03,1,,,,,オートショップワンワン,0
1134,6360001031762,新規,0,2023-04-03,2023-04-03,ＳＴＡＤＩＵＭ株式会社,,株式会社,沖縄県,宜野湾市,志真志３丁目４－２１マンションライラック５０３号室,,47,205,9012213,,,,,,,2023-04-03,1,,,,,スタジアム,0
1135,6360001031770,新規,0,2023-04-03,2023-04-03,株式会社ＰＭＲ,,株式会社,沖縄県,那覇市,松山１丁目５番１号ナムラプラザビル１階,,47,201,9000032,,,,,,,2023-04-03,1,,,,,ピーエムアール,0
1164,6700150059099,新規,0,2023-04-03,2015-10-09,福岡市民の祭り振興会,,その他,福岡県,福岡市博多区,博多駅前２丁目９－２８福岡商工会議所内,,40,132,8120011,,,,,,,2015-10-09,1,,,,,フクオカシミンノマツリシンコウカイ,0
1166,7000012010039,新規,0,2023-04-03,2023-04-03,こども家庭庁,,国の機関,東京都,千代田区,霞が関３丁目２番５号霞が関ビルディング,,13,101,1000013,,,,,,,2023-04-03,1,,,,,コドモカテイチョウ,0
1167,7000020258784,新規,0,2023-04-03,2023-04-03,草津栗東行政事務組合,,地方公共団体,滋賀県,栗東市,安養寺１丁目１３－３３,,25,208,5203015,,,,,,,2023-04-03,1,,,,,クサツリットウギョウセイジムクミアイ,0
1173,7010001234069,新規,0,2023-04-03,2023-04-03,株式会社ＪＰサクセス,,株式会社,東京都,千代田区,神田錦町１丁目８番地５伊藤ビル６階,,13,101,1010054,,,,,,,2023-04-03,1,,,,,ジェイピーサクセス,0
1174,7010001234077,新規,0,2023-04-03,2023-04-03,Ｂｅｌｆｉｕｍｅ株式会社,,株式会社,東京都,千代田区,九段北４丁目３番３２号７Ｆ,,13,101,1020073,,,,,,,2023-04-03,1,,,,,ベルフィウム,0
1175,7010001234143,新規,0,2023-04-03,2023-04-03,株式会社第一新日本キャピタル,,株式会社,東京都,千代田区,鍛冶町２丁目５番５号,,13,101,1010044,,,,,,,2023-04-03,1,,,,,ダイイチシンニホンキャピタル,0
1177,7010005036429,新規,0,2023-04-03,2023-04-03,一般社団法人ジャパンゲーミングベストプラクティス協会,,その他の設立登記法人,東京都,千代田区,丸の内１丁目６番２号新丸の内センタービルディング２１階,,13,101,1000005,,,,,,,2023-04-03,1,,,,,ジャパンゲーミングベストプラクティス,0
1194,7010801033819,新規,0,2023-04-03,2023-04-03,株式会社ＰＲＥＡＭＳ　Ｚ,,株式会社,東京都,大田区,鵜の木３丁目３１番１１号パストラーレ嶺町１０２,,13,111,1460091,,,,,,,2023-04-03,1,,,,,プリームスゼット,0
1200,7011001153309,新規,0,2023-04-03,2023-04-03,株式会社あなたへこもれび,,株式会社,東京都,渋谷区,神宮前６丁目２３番４号桑野ビル２階,,13,113,1500001,,,,,,,2023-04-03,1,,,,,アナタヘコモレビ,0
1201,7011001153481,新規,0,2023-04-03,2023-04-03,インテリアデザインカンパニー株式会社,,株式会社,東京都,渋谷区,神宮前６丁目２３番４号桑野ビル２Ｆ,,13,113,1500001,,,,,,,2023-04-03,1,,,,,インテリアデザインカンパニー,0
1203,7011003016521,新規,0,2023-04-03,2023-04-03,ＡＴＬＡＳ合同会社,,合同会社,東京都,渋谷区,道玄坂１丁目１０番８号渋谷道玄坂東急ビル２Ｆ－Ｃ,,13,113,1500043,,,,,,,2023-04-03,1,,,,,アトラス,0
1204,7011005010010,新規,0,2023-04-03,2023-04-03,一般財団法人天孫財団,,その他の設立登記法人,東京都,渋谷区,神宮前１丁目１１番１１－６０１号,,13,113,1500001,,,,,,,2023-04-03,1,,,,,テンソンザイダン,0
1207,7011101102371,新規,0,2023-04-03,2023-04-03,つぶのなみ株式会社,,株式会社,東京都,新宿区,市谷加賀町２丁目５番７号,,13,104,1620062,,,,,,,2023-04-03,1,,,,,ツブノナミ,0
1212,7011301028573,新規,0,2023-04-03,2023-04-03,株式会社Ｐｒｏｓｐｅｒｏｕｓ　Ｇｒｏｖｅ,,株式会社,東京都,杉並区,高円寺南３丁目２９番１号,,13,115,1660003,,,,,,,2023-04-03,1,,,,,プロスファラスグローブ,0
1213,7011303004705,新規,0,2023-04-03,2023-04-03,合同会社ＢＡＮＵＰＳ,,合同会社,東京都,杉並区,和田２丁目３６－５,,13,115,1660012,,,,,,,2023-04-03,1,,,,,バナップス,0
1223,7012805003186,新規,0,2023-04-03,2023-04-03,一般社団法人Ｓａｌａ　ｄｅ　ｂａｉｌｅ　ＦＣ,,その他の設立登記法人,東京都,国分寺市,本多３丁目９－１８,,13,214,1850011,,,,,,,2023-04-03,1,,,,,サラデバイレエフシー,0
1231,7020001150884,新規,0,2023-04-03,2023-04-03,日建株式会社,,株式会社,神奈川県,横浜市中区,山下町２１１番地４－４０３号,,14,104,2310023,,,,,,,2023-04-03,1,,,,,ニッケン,0
1238,7020005015919,新規,0,2023-04-03,2023-04-03,一般財団法人襟川教育財団,,その他の設立登記法人,神奈川県,横浜市港北区,日吉本町１丁目４番２４号,,14,109,2230062,,,,,,,2023-04-03,1,,,,,エリカワキョウイクザイダン,0
1248,7040005021948,新規,0,2023-04-03,2023-04-03,一般社団法人健幸子育て応援隊,,その他の設立登記法人,千葉県,柏市,若柴１７８番地４,,12,217,2770871,,,,,,,2023-04-03,1,,,,,ケンコウコソダデオウエンタイ,0
1251,7050001052590,新規,0,2023-04-03,2023-04-03,株式会社ＫＩＭＵＲＡ　ＦＯＯＤ　ＬＡＢ,,株式会社,茨城県,取手市,青柳１２４番地４,,08,217,3020006,,,,,,,2023-04-03,1,,,,,キムラフードラボ,0
1258,7080101023877,新規,0,2023-04-03,2023-04-03,株式会社海の形,,株式会社,静岡県,熱海市,銀座町３番３号浜角ビル４０４,,22,205,4130013,,,,,,,2023-04-03,1,,,,,ウミノカタチ,0
1259,7080101023885,新規,0,2023-04-03,2023-04-03,株式会社ＳＭＡＲＴ,,株式会社,静岡県,富士市,伝法２０５４－１,,22,210,4170061,,,,,,,2023-04-03,1,,,,,スマート,0
1260,7080401026398,新規,0,2023-04-03,2023-04-03,株式会社ライフプラス,,株式会社,静岡県,浜松市西区,雄踏町宇布見４８９２番地の１１,,22,133,4310102,,,,,,,2023-04-03,1,,,,,ライフプラス,0
1261,7080403004765,新規,0,2023-04-03,2023-04-03,合同会社Ｔａｋｅ　ａ　Ｄｒｉｖｅ,,合同会社,静岡県,浜松市中区,山下町２番地の１,,22,131,4300941,,,,,,,2023-04-03,1,,,,,テイクアドライブ,0
1265,7110001037395,新規,0,2023-04-03,2023-04-03,株式会社消化管病理研究所,,株式会社,新潟県,新潟市中央区,上大川前通７番町１２３０番地７ストークビル鏡橋７Ｆ,,15,103,9518068,,,,,,,2023-04-03,1,,,,,ショウカカンビョウリケンキュウジョ,0
1266,7110005016908,新規,0,2023-04-03,2023-04-03,農事組合法人羽茂ファーム,,その他の設立登記法人,新潟県,佐渡市,羽茂大石１０７２番地,,15,224,9520511,,,,,,,2023-04-03,1,,,,,ハモチファーム,0
1276,7120001253628,新規,0,2023-04-03,2023-04-03,泰専工業株式会社,,株式会社,大阪府,大阪市北区,山崎町５番５－８０１号,,27,127,5300024,,,,,,,2023-04-03,1,,,,,タイセンコウギョウ,0
1277,7120001253660,新規,0,2023-04-03,2023-04-03,株式会社ＲＫライフ,,株式会社,大阪府,大阪市生野区,林寺２丁目２番３０号コトンヴァリ１０３,,27,116,5440023,,,,,,,2023-04-03,1,,,,,アールケーライフ,0
1280,7120003023748,新規,0,2023-04-03,2023-04-03,合同会社ｙｓｋ吉川由佳,,合同会社,大阪府,大阪市平野区,西脇１丁目１３－３２エルエムヒルズ朋栄３Ａ,,27,126,5470035,,,,,,,2023-04-03,1,,,,,ワイエスケーヨシカワユカ,0
1282,7120101067234,新規,0,2023-04-03,2023-04-03,ＭＥＲＡＣＨ　ＪＡＰＡＮ株式会社,,株式会社,大阪府,堺市北区,南花田町４１７－３－２０６,,27,146,5918011,,,,,,,2023-04-03,1,,,,,メラクジャパン,0
1284,7120901047328,新規,0,2023-04-03,2023-04-03,株式会社２ｒｕｅＰａｉｎ‐Ｓｕｐｐｏｒｔ,,株式会社,大阪府,豊中市,春日町５丁目１番１号リバーサイド野畑２０１,,27,203,5600052,,,,,,,2023-04-03,1,,,,,トゥルーペインサポート,0
1285,7120903004566,新規,0,2023-04-03,2023-04-03,合同会社あいるー,,合同会社,大阪府,豊中市,上野坂２丁目２１－１ソシアＤ２－７Ｃ,,27,203,5600012,,,,,,,2023-04-03,1,,,,,アイルー,0
1299,7140003018903,新規,0,2023-04-03,2023-04-03,合同会社プラス・ウィングス,,合同会社,兵庫県,神戸市中央区,脇浜海岸通４丁目１番２－１００６号,,28,110,6510073,,,,,,,2023-04-03,1,,,,,プラスウィングス,0
1301,7140005026549,新規,0,2023-04-03,2023-04-03,特定非営利活動法人地域チャレンジセンター・プラス,,その他の設立登記法人,兵庫県,神戸市北区,有野中町３丁目１７番８号はるやま鍼灸整骨院３Ｆ,,28,109,6511313,,,,,,,2023-04-03,1,,,,,チイキチャレンジセンタープラス,0
1315,7180001155604,新規,0,2023-04-03,2023-04-03,株式会社Ｐｏｔ　ｆｉｖｅ,,株式会社,愛知県,江南市,木賀町杉２００番地,,23,217,4838253,,,,,,,2023-04-03,1,,,,,ポットファイブ,0
1321,7180303005663,新規,0,2023-04-03,2023-04-03,ＷＵＭＩＮＧ商社合同会社,,合同会社,愛知県,刈谷市,山池町４丁目６０２番地２,,23,210,4480036,,,,,,,2023-04-03,1,,,,,ナノショウシャ,0
1323,7190001030285,新規,0,2023-04-03,2023-04-03,株式会社セレモ三重北,,株式会社,三重県,志摩市,阿児町神明１２５３番地１１,,24,215,5170502,,,,,,,2023-04-03,1,,,,,セレモミエキタ,0
1325,7190003004287,新規,0,2023-04-03,2023-04-03,ＫＫＤホールディングス合同会社,,合同会社,三重県,亀山市,みずほ台１４番地１７３,,24,210,5190105,,,,,,,2023-04-03,1,,,,,ケィケィディホールディングス,0
1351,7290003013732,新規,0,2023-04-03,2023-04-03,合同会社ｐｅｇ,,合同会社,福岡県,福岡市東区,香椎照葉６丁目４番２－３０５号フォレストプレイス香椎照葉ザ・テラス０２,,40,131,8130017,,,,,,,2023-04-03,1,,,,,ペグ,0
1362,7360003012834,新規,0,2023-04-03,2023-04-03,リアル・デザイン・パートナーズ合同会社,,合同会社,沖縄県,那覇市,辻１丁目１６番９号サングリーンビル１階,00129933,47,201,9000037,,,,,,,2023-04-03,1,,,,,リアルデザインパートナーズ,0
1371,7400001016188,新規,0,2023-04-03,2023-04-03,株式会社はしの不動産,,株式会社,岩手県,盛岡市,本宮１丁目１６番１２号,,03,201,0200866,,,,,,,2023-04-03,1,,,,,ハシノフドウサン,0
1381,7430003014856,新規,0,2023-04-03,2023-04-03,合同会社ペリドット,,合同会社,北海道,千歳市,本町５丁目８７８－１２０,,01,224,0660047,,,,,,,2023-04-03,1,,,,,ペリドット,0
1382,7430003014880,新規,0,2023-04-03,2023-04-03,合同会社ベネッセレ,,合同会社,北海道,札幌市北区,新琴似三条３丁目７番１６号,,01,102,0010903,,,,,,,2023-04-03,1,,,,,ベネッセレ,0
1384,7460003000944,新規,0,2023-04-03,2023-04-03,合同会社露風庵,,合同会社,北海道,釧路市,黒金町１３丁目２５,,01,206,0850018,,,,,,,2023-04-03,1,,,,,ロフウアン,0
1389,7500001024841,新規,0,2023-04-03,2023-04-03,株式会社結び美,,株式会社,愛媛県,松山市,姫原３丁目９番４１号,,38,201,7918012,,,,,,,2023-04-03,1,,,,,ムスビミ,0
1400,8010001234101,新規,0,2023-04-03,2023-04-03,株式会社ＦＯＺ,,株式会社,東京都,中央区,銀座７丁目１３番２０号銀座ＴＨビル９階,,13,102,1040061,,,,,,,2023-04-03,1,,,,,フォズ,0
1401,8010003040200,新規,0,2023-04-03,2023-04-03,Ｇｏｌｄ　Ｓｕｃｃｅｓｓ合同会社,,合同会社,東京都,中央区,銀座１丁目２２番１１号銀座大竹ビジデンス２Ｆ,,13,102,1040061,,,,,,,2023-04-03,1,,,,,ゴールドサクセス,0
1406,8010401173329,新規,0,2023-04-03,2023-04-03,株式会社ノワール,,株式会社,東京都,港区,浜松町１丁目２０番１０号ライオネス浜松町５０６号,,13,103,1050013,,,,,,,2023-04-03,1,,,,,ノワール,0
1407,8010401173411,新規,0,2023-04-03,2023-04-03,株式会社アクィナス,,株式会社,東京都,港区,赤坂７丁目５番４３号グリーンレジデンス赤坂５１２,,13,103,1070052,,,,,,,2023-04-03,1,,,,,アクィナス,0
1408,8010403029801,新規,0,2023-04-03,2023-04-03,合同会社Ｂ‐Ｓｉｄｅ,,合同会社,東京都,港区,六本木７丁目３番８号永谷ヒルプラザ六本木３０４,,13,103,1060032,,,,,,,2023-04-03,1,,,,,ビーサイド,0
1428,8011001153431,新規,0,2023-04-03,2023-04-03,株式会社ＣＯＡＴＩＮＧｌａｂ,,株式会社,東京都,渋谷区,神宮前６丁目２３番７号,,13,113,1500001,,,,,,,2023-04-03,1,,,,,コーティングラボ,0
1429,8011003016537,新規,0,2023-04-03,2023-04-03,合同会社Ｒｏｃｋ　Ｒｉｓｉｎｇ,,合同会社,東京都,渋谷区,渋谷２丁目１９－１５宮益坂ビルディング６０９,,13,113,1500002,,,,,,,2023-04-03,1,,,,,ロックライジング,0
1434,8011101102379,新規,0,2023-04-03,2023-04-03,株式会社コレクト,,株式会社,東京都,新宿区,高田馬場３丁目３番２３号,,13,104,1690075,,,,,,,2023-04-03,1,,,,,コレクト,0
1435,8011203004044,新規,0,2023-04-03,2023-04-03,ＤＯＮＥ合同会社,,合同会社,東京都,中野区,中野２丁目１３番３号１階,,13,114,1640001,,,,,,,2023-04-03,1,,,,,ダン,0
1440,8011701026119,新規,0,2023-04-03,2023-04-03,ＩＳＫ株式会社,,株式会社,東京都,江戸川区,北小岩３丁目２３－２－２０３,,13,123,1330051,,,,,,,2023-04-03,1,,,,,アイエスケイ,0
1441,8011801042172,新規,0,2023-04-03,2023-04-03,株式会社ワカバクリーン,,株式会社,東京都,葛飾区,東新小岩４丁目３番７号,,13,122,1240023,,,,,,,2023-04-03,1,,,,,ワカバクリーン,0
1443,8012301013374,新規,0,2023-04-03,2023-04-03,株式会社Ｄｏｇｗｏｏｄ,,株式会社,東京都,町田市,つくし野２丁目２６番４５号,,13,209,1940001,,,,,,,2023-04-03,1,,,,,ドッグウッド,0
1457,8020003023633,新規,0,2023-04-03,2023-04-03,合同会社ｒｕｓｈ,,合同会社,神奈川県,横浜市青葉区,梅が丘３９番地１２－３０７号,,14,117,2270052,,,,,,,2023-04-03,1,,,,,ラッシュ,0
1461,8030001153101,新規,0,2023-04-03,2023-04-03,株式会社ＹＺＦ,,株式会社,埼玉県,上尾市,浅間台３丁目３３番地５,,11,219,3620073,,,,,,,2023-04-03,1,,,,,ワイゼットエフ,0
1462,8030001153118,新規,0,2023-04-03,2023-04-03,株式会社コスモスドア,,株式会社,埼玉県,北本市,本宿４丁目５５番地３ベルデ大島１０２,,11,233,3640005,,,,,,,2023-04-03,1,,,,,コスモスドア,0
1463,8030001153126,新規,0,2023-04-03,2023-04-03,株式会社三信,,株式会社,埼玉県,三郷市,彦成１丁目３０８番地３,,11,237,3410003,,,,,,,2023-04-03,1,,,,,サンシン,0
1467,8030003021470,新規,0,2023-04-03,2023-04-03,合同会社ＫＹＯＵＥＩ,,合同会社,埼玉県,さいたま市岩槻区,日の出町２－１５,,11,110,3390064,,,,,,,2023-04-03,1,,,,,キョウエイ,0
1471,8040001127723,新規,0,2023-04-03,2023-04-03,株式会社根鈴商事,,株式会社,千葉県,船橋市,芝山６丁目１１番１７号,,12,204,2740816,,,,,,,2023-04-03,1,,,,,ネレイショウジ,0
1475,8040003022294,新規,0,2023-04-03,2023-04-03,合同会社ＲＡＰＰＩＯＵＳ,,合同会社,千葉県,柏市,豊町１丁目４番２０－５０５号,,12,217,2770854,,,,,,,2023-04-03,1,,,,,ラピアス,0
1476,8040003022303,新規,0,2023-04-03,2023-04-03,ＨＯＳＨＩＫＥ　ＡＵＴＯ　ＴＲＡＤＩＮＧ合同会社,,合同会社,千葉県,香取郡神崎町,小松７２４番地１小松Ａ棟,,12,342,2890223,,,,,,,2023-04-03,1,,,,,ホシケオートトレーディング,0
1477,8040003022311,新規,0,2023-04-03,2023-04-03,合同会社農機具ジャパン,,合同会社,千葉県,柏市,藤ケ谷２１５番地６,,12,217,2770931,,,,,,,2023-04-03,1,,,,,ノウキグジャパン,0
1479,8040005021947,新規,0,2023-04-03,2023-04-03,一般社団法人うさぎグループ,,その他の設立登記法人,千葉県,鎌ケ谷市,新鎌ケ谷１丁目１１番８－１３０１号,,12,224,2730107,,,,,,,2023-04-03,1,,,,,ウサギグループ,0
1485,8050003007377,新規,0,2023-04-03,2023-04-03,合同会社Ｆｕｊｉ　Ｉｎｔｅｒｎａｔｉｏｎａｌ,,合同会社,茨城県,龍ケ崎市,若柴町１１２７番地１,,08,208,3010041,,,,,,,2023-04-03,1,,,,,フジインターナショナル,0
1486,8060003004497,新規,0,2023-04-03,2023-04-03,合同会社Ｐｒｅｃｉｏｕｓ,,合同会社,栃木県,佐野市,犬伏新町２３４１番地４,,09,204,3270803,,,,,,,2023-04-03,1,,,,,プレシャス,0
1490,8080003002953,新規,0,2023-04-03,2023-04-03,合同会社ＳＵオフィス,,合同会社,静岡県,焼津市,田尻２８１７番地の３,,22,212,4250052,,,,,,,2023-04-03,1,,,,,エスユーオフィス,0
1493,8080405007534,新規,0,2023-04-03,2023-04-03,医療法人社団ＳＯＲＡ,,その他の設立登記法人,静岡県,浜松市西区,大人見町３３９３番地の６,,22,133,4311112,,,,,,,2023-04-03,1,,,,,ソラ,0
1497,8100001036182,新規,0,2023-04-03,2023-04-03,株式会社西村ファーム,,株式会社,長野県,千曲市,大字森１６４４番地,,20,218,3870005,,,,,,,2023-04-03,1,,,,,ニシムラファーム,0
1498,8110001037394,新規,0,2023-04-03,2023-04-03,株式会社ＭＩＫＫＥ,,株式会社,新潟県,新潟市中央区,和合町２丁目４番９号,,15,103,9500985,,,,,,,2023-04-03,1,,,,,ミッケ,0
1507,8120001253503,新規,0,2023-04-03,2023-04-03,株式会社Ｍｓ．Ｄｕ,,株式会社,大阪府,大阪市城東区,蒲生３丁目１５番１２号セザンヌ藤３０３Ａ,,27,118,5360016,,,,,,,2023-04-03,1,,,,,エムエスドットドゥー,0
1508,8120001253560,新規,0,2023-04-03,2023-04-03,山林復興建設株式会社,,株式会社,大阪府,大阪市天王寺区,石ケ辻町２７番地,,27,109,5430031,,,,,,,2023-04-03,1,,,,,サンリンフッコウケンセツ,0
1509,8120001253593,新規,0,2023-04-03,2023-04-03,伝易株式会社,,株式会社,大阪府,大阪市大正区,三軒家西３丁目４番１６号中山ビル３０１Ａ,,27,108,5510001,,,,,,,2023-04-03,1,,,,,デンイ,0
1510,8120001253651,新規,0,2023-04-03,2023-04-03,株式会社ＶＩＮＯ　ＰＲＥＧＩＯ,,株式会社,大阪府,大阪市中央区,農人橋３丁目１番１号,,27,128,5400011,,,,,,,2023-04-03,1,,,,,ヴィーノプレジオ,0
1512,8120003023747,新規,0,2023-04-03,2023-04-03,森海合同会社,,合同会社,大阪府,大阪市西区,九条南２丁目１６番１３号,,27,106,5500025,,,,,,,2023-04-03,1,,,,,シンカイ,0
1515,8122001036854,新規,0,2023-04-03,2023-04-03,株式会社ＣＵＭＷ,,株式会社,大阪府,東大阪市,御厨栄町３丁目１番４３－５０１号,,27,227,5770036,,,,,,,2023-04-03,1,,,,,カム,0
1522,8130001073982,新規,0,2023-04-03,2023-04-03,株式会社祇園下里,00129935,株式会社,京都府,京都市東山区,八坂新地末吉町７９番・８０番合地,,26,105,6050085,,,,,,,2023-04-03,1,,,,,ギオンシモサト,0
1531,8140001129585,新規,0,2023-04-03,2023-04-03,株式会社ＬＨＣ,,株式会社,兵庫県,川西市,けやき坂３丁目２８番地の１１,,28,217,6660145,,,,,,,2023-04-03,1,,,,,エルエイチシー,0
1532,8140001129602,新規,0,2023-04-03,2023-04-03,株式会社Ｌａ　ｃｈｏｕ　ｃｈｏｕ,,株式会社,兵庫県,神戸市長田区,久保町７丁目４番５号１Ｆ,,28,106,6530041,,,,,,,2023-04-03,1,,,,,ラシュシュ,0
1547,8180001155594,新規,0,2023-04-03,2023-04-03,株式会社ＯＮＥＡＣＥ,,株式会社,愛知県,名古屋市千種区,富士見台１丁目２５番地,,23,101,4640015,,,,,,,2023-04-03,1,,,,,ワンエース,0
1548,8180001155603,新規,0,2023-04-03,2023-04-03,株式会社ＡＬＯ’Ｓ,,株式会社,愛知県,名古屋市中村区,名駅南４丁目１番７号,,23,105,4500003,,,,,,,2023-04-03,1,,,,,アロ,0
1555,8180303005662,新規,0,2023-04-03,2023-04-03,合同会社Ｅサービス,,合同会社,愛知県,豊川市,諏訪西町１丁目１２番地の５,,23,207,4420069,,,,,,,2023-04-03,1,,,,,イーサービス,0
1557,8190003004286,新規,0,2023-04-03,2023-04-03,合同会社ＴＫＧ,,合同会社,三重県,伊勢市,御薗町長屋４２５番地１,,24,203,5160804,,,,,,,2023-04-03,1,,,,,ティーケージー,0
1568,8240003006079,新規,0,2023-04-03,2023-04-03,西賀商事合同会社,,合同会社,広島県,広島市安佐北区,三入２丁目３０番４－２号,,34,106,7310211,,,,,,,2023-04-03,1,,,,,セイガショウジ,0
1569,8250001020031,新規,0,2023-04-03,2023-04-03,株式会社ＳＤＭ,,株式会社,山口県,防府市,泉町８番４３号,,35,206,7470051,,,,,,,2023-04-03,1,,,,,エスディーエム,0
1574,8290001101018,新規,0,2023-04-03,2023-04-03,株式会社アセットパートナー,,株式会社,福岡県,福岡市南区,横手４丁目１２番８－９０９号,,40,134,8111311,,,,,,,2023-04-03,1,,,,,アセットパートナー,0
1578,8290801029409,新規,0,2023-04-03,2023-04-03,株式会社ＦＨ,,株式会社,福岡県,北九州市小倉南区,大字貫１８８１番地３,,40,107,8000245,,,,,,,2023-04-03,1,,,,,エフエイチ,0
1583,8360001031769,新規,0,2023-04-03,2023-04-03,株式会社グローバルアイランド,,株式会社,沖縄県,宜野湾市,大山２丁目７番１７号,,47,205,9012223,,,,,,,2023-04-03,1,,,,,グローバルアイランド,0
1584,8370003006058,新規,0,2023-04-03,2023-04-03,伊達ナ未来合同会社,,合同会社,宮城県,仙台市青葉区,国見２丁目８番地５号,,04,101,9810943,,,,,,,2023-04-03,1,,,,,ダテナミライ,0
1589,8400001016187,新規,0,2023-04-03,2023-04-03,株式会社木村商店,,株式会社,岩手県,下閉伊郡山田町,北浜町９６番地４,,03,482,0281331,,,,,,,2023-04-03,1,,,,,キムラショウテン,0
1599,8430001088744,新規,0,2023-04-03,2023-04-03,山ちゃんホーム株式会社,,株式会社,北海道,札幌市西区,発寒十六条１２丁目１番１号,,01,107,0630836,,,,,,,2023-04-03,1,,,,,ヤマチャンホーム,0
1619,9000020229610,新規,0,2023-04-03,2023-04-03,南伊豆地域清掃施設組合,,地方公共団体,静岡県,下田市,敷根１３番８号南豆衛生プラント組合汚泥処理クリーンセンター内,,22,219,4150037,,,,,,,2023-04-03,1,,,,,ミナミイズチイキセイソウシセツクミアイ,0
1628,9010005036427,新規,0,2023-04-03,2023-04-03,一般社団法人ＹＡ出版会,,その他の設立登記法人,東京都,千代田区,神田神保町１丁目１１番地４信ビルディング３階,,13,101,1010051,,,,,,,2023-04-03,1,,,,,ワイエーシュッパンカイ,0
1632,9010401173328,新規,0,2023-04-03,2023-04-03,株式会社Ｃｏａｃｈｉｎｇ　Ａｇｅｎｔ,,株式会社,東京都,港区,浜松町２丁目２番１５号浜松町ダイヤビル２Ｆ,,13,103,1050013,,,,,,,2023-04-03,1,,,,,コーチングエージェント,0
1633,9010401173410,新規,0,2023-04-03,2023-04-03,株式会社Ａｓ,,株式会社,東京都,港区,南青山３丁目１番３６号青山丸竹ビル６Ｆ,,13,103,1070062,,,,,,,2023-04-03,1,,,,,アズ,0
1659,9011003016528,新規,0,2023-04-03,2023-04-03,合同会社Ｃｈｉｐｉｅ　ｌｏｌ,,合同会社,東京都,渋谷区,神泉町１０番１５号,,13,113,1500045,,,,,,,2023-04-03,1,,,,,シピロル,0
1660,9011003016560,新規,0,2023-04-03,2023-04-03,合同会社ストーンフリー,,合同会社,東京都,渋谷区,道玄坂１丁目１０番８号渋谷道玄坂東急ビル２Ｆ－Ｃ,,13,113,1500043,,,,,,,2023-04-03,1,,,,,ストーンフリー,0
1668,9011403003951,新規,0,2023-04-03,2023-04-03,合同会社大信,,合同会社,東京都,板橋区,板橋２丁目６３番４号,,13,119,1730004,,,,,,,2023-04-03,1,,,,,ダイシン,0
1671,9011701026118,新規,0,2023-04-03,2023-04-03,株式会社江戸川架設,,株式会社,東京都,江戸川区,鹿骨１丁目１５－１５,,13,123,1330073,,,,,,,2023-04-03,1,,,,,エドガワカセツ,0
1674,9012401040342,新規,0,2023-04-03,2023-04-03,株式会社５Ｎｏｂｌｅ　ｃｔ．,,株式会社,東京都,多摩市,唐木田１丁目８番地の１ヒルトップマークス多摩唐木田５０５,,13,224,2060035,,,,,,,2023-04-03,1,,,,,ファイブノーヴルカラット,0
1680,9020001150899,新規,0,2023-04-03,2023-04-03,株式会社横浜ダイトク設計,,株式会社,神奈川県,横浜市西区,高島２丁目１１番２号スカイメナー横浜５１９,,14,103,2200011,,,,,,,2023-04-03,1,,,,,ヨコハマダイトクセッケイ,0
1685,9020003023632,新規,0,2023-04-03,2023-04-03,ＴｅｒｒａＬｕｎａ合同会社,,合同会社,神奈川県,横浜市神奈川区,台町１４－２３オープンレジデンシア横浜台町１０１号,,14,102,2210834,,,,,,,2023-04-03,1,,,,,テラルナ,0
1689,9030001153018,新規,0,2023-04-03,2023-04-03,株式会社金子商事,,株式会社,埼玉県,志木市,上宗岡４丁目３番２９－１０５号,,11,228,3530001,,,,,,,2023-04-03,1,,,,,カネコショウジ,0
1690,9030001153117,新規,0,2023-04-03,2023-04-03,株式会社二本松,,株式会社,埼玉県,三郷市,早稲田１丁目１１番地１５,,11,237,3410018,,,,,,,2023-04-03,1,,,,,ニホンマツ,0
1691,9030001153125,新規,0,2023-04-03,2023-04-03,代田橋自販株式会社,,株式会社,埼玉県,戸田市,美女木４丁目５番２１号,,11,224,3350031,,,,,,,2023-04-03,1,,,,,ダイタバシジハン,0
1695,9030003021478,新規,0,2023-04-03,2023-04-03,合同会社ＴＫＳ,,合同会社,埼玉県,飯能市,大字中藤下郷１３番地４,,11,209,3570123,,,,,,,2023-04-03,1,,,,,ティーケーエス,0
1701,9040001127722,新規,0,2023-04-03,2023-04-03,株式会社アド・ワン,,株式会社,千葉県,船橋市,本中山２丁目１番２０号ガーデンレジデンス１０１,,12,204,2730035,,,,,,,2023-04-03,1,,,,,アドワン,0
1702,9040001127730,新規,0,2023-04-03,2023-04-03,株式会社ヘンなカタチ,,株式会社,千葉県,木更津市,金田東３丁目１０番地２,,12,206,2920009,,,,,,,2023-04-03,1,,,,,ヘンナカタチ,0
1703,9050001052597,新規,0,2023-04-03,2023-04-03,ＷＡ　ＭＯＴＯＲＳ株式会社,,株式会社,茨城県,猿島郡境町,大字伏木３３９２番地１,,08,546,3060416,,,,,,,2023-04-03,1,,,,,ダブリューエーモータース,0
1706,9060005010063,新規,0,2023-04-03,2023-04-03,特定非営利活動法人ちもり,,その他の設立登記法人,栃木県,佐野市,植下町４４２番地１２,,09,204,3270835,,,,,,,2023-04-03,1,,,,,チモリ,0
1711,9080001025542,新規,0,2023-04-03,2023-04-03,ペッツビューティー株式会社,,株式会社,静岡県,藤枝市,前島２丁目１３番７号,,22,214,4260067,,,,,,,2023-04-03,1,,,,,ペッツビューティー,0
1713,9080101023883,新規,0,2023-04-03,2023-04-03,八富士株式会社,,株式会社,静岡県,富士市,増川７２５番地の１２,,22,210,4170815,,,,,,,2023-04-03,1,,,,,ハチフジ,0
1719,9100001036264,新規,0,2023-04-03,2023-04-03,株式会社相生ホールディングス,,株式会社,長野県,千曲市,上山田温泉２丁目１２番地１３,,20,218,3890821,,,,,,,2023-04-03,1,,,,,アイオイホールディングス,0
1720,9100001036272,新規,0,2023-04-03,2023-04-03,トネガワ商事株式会社,,株式会社,長野県,長野市,大字金箱３４５番地の１,,20,201,3810007,,,,,,,2023-04-03,1,,,,,トネガワショウジ,0
1738,9120001253618,新規,0,2023-04-03,2023-04-03,株式会社トトエア,,株式会社,大阪府,大阪市浪速区,桜川２丁目２番３１号ザクロコーポレーション桜川ビル６階,,27,111,5560022,,,,,,,2023-04-03,1,,,,,トトエア,0
1740,9120101067190,新規,0,2023-04-03,2023-04-03,株式会社ＦＡＩＴＨ　ＭＡＮＡＧＥＭＥＮＴ,,株式会社,大阪府,和泉市,鶴山台１丁目２７－８,,27,219,5940013,,,,,,,2023-04-03,1,,,,,フェイスマネジメント,0
1741,9120101067232,新規,0,2023-04-03,2023-04-03,辰己船舶艤販株式会社,,株式会社,大阪府,高石市,高師浜丁３－６－２,,27,225,5920006,,,,,,,2023-04-03,1,,,,,タツミセンパクギハン,0
1744,9122001036853,新規,0,2023-04-03,2023-04-03,株式会社キャリーオンネット,,株式会社,大阪府,東大阪市,吉田５丁目１７番２０－９号,,27,227,5780924,,,,,,,2023-04-03,1,,,,,キャリーオンネット,0
1748,9130001073973,新規,0,2023-04-03,2023-04-03,株式会社ｍｕｓｅｉａｍ,,株式会社,京都府,京都市下京区,堺町通綾小路下る永原町１５３コアロイヤル京都５０２,,26,106,6008073,,,,,,,2023-04-03,1,,,,,ミュージアム,0
1749,9130001073981,新規,0,2023-04-03,2023-04-03,えふ建築工業株式会社,,株式会社,京都府,城陽市,久世下大谷３７番地の４５,,26,207,6100102,,,,,,,2023-04-03,1,,,,,エフケンチクコウギョウ,0
1754,9140001129592,新規,0,2023-04-03,2023-04-03,ヒカリ人材株式会社,,株式会社,兵庫県,姫路市,飾磨区妻鹿１９９４番地１４,,28,201,6728031,,,,,,,2023-04-03,1,,,,,ヒカリジンザイ,0
1762,9180001155643,新規,0,2023-04-03,2023-04-03,株式会社Ｃｈｉｂｕｎ,,株式会社,愛知県,名古屋市緑区,滝ノ水４丁目２１０１番地セントラル滝ノ水４０１号室,,23,114,4580021,,,,,,,2023-04-03,1,,,,,チブン,0
1766,9190003004285,新規,0,2023-04-03,2023-04-03,合同会社ｇｅｎａｕ,,合同会社,三重県,津市,大谷町１９４番地１,,24,201,5140007,,,,,,,2023-04-03,1,,,,,ゲナウ,0
1783,9290001101041,新規,0,2023-04-03,2023-04-03,株式会社ＦＵＫＵＯＫＡ　ＦＯＯＤＳ,,株式会社,福岡県,福岡市東区,和白東５丁目２２－５,,40,131,8110214,,,,,,,2023-04-03,1,,,,,フクオカフーズ,0
1794,9320005010061,新規,0,2023-04-03,2023-04-03,一般社団法人大分ラグビーフットボールクラブ,,その他の設立登記法人,大分県,大分市,大字猪野９８６番地の６９,,44,201,8700134,,,,,,,2023-04-03,1,,,,,オオイタラグビーフットボールクラブ,0
1796,9330005010639,新規,0,2023-04-03,2023-04-03,ＮＰＯ法人Ｏｎｅ　ｆｏｒ　ａｌｌ　Ａｌｌ　ｆｏｒ　ｏｎｅ,,その他の設立登記法人,熊本県,熊本市東区,戸島２丁目１番２５号,,43,102,8618041,,,,,,,2023-04-03,1,,,,,ワンフォーオールオールフォーワン,0
1805,9370001049776,新規,0,2023-04-03,2023-04-03,ＢＳＳｅａ株式会社,,株式会社,宮城県,仙台市青葉区,本町１丁目５番２８号,,04,101,9800014,,,,,,,2023-04-03,1,,,,,ビーエスシー,0
1812,9380005012696,新規,0,2023-04-03,2023-04-03,福島国際研究教育機構,,その他の設立登記法人,福島県,双葉郡浪江町,大字権現堂字矢沢町６番地１,,07,547,9791521,,,,,,,2023-04-03,1,,,,,フクシマコクサイケンキュウキョウイクキコウ,0
1814,9430001088719,新規,0,2023-04-03,2023-04-03,株式会社はんな,,株式会社,北海道,札幌市西区,発寒三条２丁目６番３号,,01,107,0630823,,,,,,,2023-04-03,1,,,,,ハンナ,0
1817,9460305001993,新規,0,2023-04-03,2023-04-03,特定非営利活動法人北見歌翔会,,その他の設立登記法人,北海道,北見市,川沿町１２４番地９０,,01,208,0900821,,,,,,,2023-04-03,1,,,,,キタミカショウカイ,0
1820,9490001010437,新規,0,2023-04-03,2023-04-03,株式会社中平健康経営研究所,,株式会社,高知県,高知市,大津甲１１６番地１,,39,201,7815102,,,,,,,2023-04-03,1,,,,,ナカヒラケンコウケイエイケンキュウショ,0
1823,9700150098656,新規,0,2023-04-03,2020-04-06,真室川町観光物産協会,,その他,山形県,最上郡真室川町,大字新町１２４－４,,06,364,9995312,,,,,,,2020-04-06,1,,,,,マムロガワマチカンコウブツサンキヨウカイ,0
