sequenceNumber,corporateNumber,process,correct,updateDate,changeDate,name,nameImageId,kind,prefectureName,cityName,streetNumber,addressImageId,prefectureCode,cityCode,postCode,addressOutside,addressOutsideImageId,closeDate,closeCause,successorCorporateNumber,changeCause,assignmentDate,latest,enName,enPrefectureName,enCityName,enAddressOutside,furigana,hihyoji
1,1010001090113,登記記録の閉鎖等,0,2024-03-08,2024-03-06,株式会社キャリアメディカル,,株式会社,東京都,足立区,千住３丁目６番１２号,,13,121,1200034,,,2024-03-06,清算の結了等,,,2015-10-05,1,,,,,キャリアメディカル,0
7,1010005026633,登記記録の閉鎖等,0,2024-03-08,2024-03-05,一般社団法人クラウド経営協会,,その他の設立登記法人,東京都,千代田区,麹町４丁目８番１号,,13,101,1020083,,,2024-03-05,清算の結了等,,,2017-03-24,1,,,,,クラウドケイエイキョウカイ,0
8,1010401061721,登記記録の閉鎖等,0,2024-03-08,2024-03-06,株式会社アジアビジネスパートナー,,株式会社,東京都,世田谷区,下馬３丁目２３番１４号,,13,112,1540002,,,2024-03-06,清算の結了等,,,2015-10-05,1,,,,,アジアビジネスパートナー,0
9,1010401107078,登記記録の閉鎖等,0,2024-03-08,2024-03-06,アール・アンド・ケイ株式会社,,株式会社,東京都,渋谷区,恵比寿３丁目２２－７,,13,113,1500013,,,2024-03-06,清算の結了等,,,2015-10-05,1,,,,,アールアンドケイ,0
15,1010402016732,登記記録の閉鎖等,0,2024-03-08,2024-03-06,ウイニープランニング有限会社,,有限会社,東京都,品川区,西品川３丁目１番２０号,,13,109,1410033,,,2024-03-06,清算の結了等,,,2015-10-05,1,,,,,ウイニープランニング,0
17,1010405018973,登記記録の閉鎖等,0,2024-03-08,2024-03-06,ジュピターインフラホールディングス一般社団法人,,その他の設立登記法人,東京都,港区,元赤坂１丁目１番７号,,13,103,1070051,,,2024-03-06,清算の結了等,,,2020-08-06,1,,,,,ジュピターインフラホールディングス,0
21,1010501048635,登記記録の閉鎖等,0,2024-03-08,2024-03-01,旌愈株式会社,,株式会社,東京都,台東区,北上野２丁目２５番９号－３０４号室,,13,106,1100014,,,2024-03-01,清算の結了等,,,2022-03-31,1,,,,,セイユ,0
24,1010701001534,登記記録の閉鎖等,0,2024-03-08,2024-03-06,株式会社コングロ,,株式会社,東京都,新宿区,西新宿７丁目１５番６号,,13,104,1600023,,,2024-03-06,合併による解散等,7120001061675,令和６年３月１日群馬県高崎市栄町１番１号株式会社ヤマダホームズ（7120001061675）に合併し解散,2015-10-05,1,,,,,コングロ,0
60,1011401001122,登記記録の閉鎖等,0,2024-03-08,2024-03-05,株式会社オートショップホサカ,,株式会社,東京都,板橋区,上板橋２丁目５番２号,,13,119,1740076,,,2024-03-05,清算の結了等,,,2015-10-05,1,,,,,オートショップホサカ,0
63,1011701006424,登記記録の閉鎖等,0,2024-03-08,2024-02-29,株式会社パセオ,,株式会社,東京都,江戸川区,平井２丁目１５番１５号,,13,123,1320035,,,2024-02-29,清算の結了等,,,2015-10-05,1,,,,,パセオ,0
66,1011702007941,登記記録の閉鎖等,0,2024-03-08,2024-03-06,有限会社早川内装,,有限会社,東京都,江戸川区,南篠崎町２丁目７番９－４０３号,,13,123,1330065,,,2024-03-06,清算の結了等,,,2015-10-05,1,,,,,ハヤカワナイソウ,0
74,1012402011903,登記記録の閉鎖等,0,2024-03-08,2024-03-04,有限会社トーエイ電気施設,,有限会社,東京都,調布市,布田６丁目１４番地３,,13,208,1820024,,,2024-03-04,清算の結了等,,,2015-10-05,1,,,,,トーエイデンキシセツ,0
79,1013102005641,登記記録の閉鎖等,0,2024-03-08,2024-03-05,有限会社赤坂製作所,,有限会社,東京都,青梅市,長淵７丁目３７２番地,,13,205,1980052,,,2024-03-05,清算の結了等,,,2015-10-05,1,,,,,アカサカセイサクショ,0
81,1020001080823,登記記録の閉鎖等,0,2024-03-08,2024-03-05,株式会社ＴＯＰ－ＦＩＥＬＤ,,株式会社,神奈川県,川崎市中原区,下小田中４丁目１番１８－６０２号,,14,133,2110041,,,2024-03-05,清算の結了等,,,2015-10-05,1,,,,,トップフィールド,0
100,1030001042582,登記記録の閉鎖等,0,2024-03-08,2024-03-04,株式会社ニッパン,,株式会社,埼玉県,上尾市,大字堤崎４４４番地１６,,11,219,3620054,,,2024-03-04,清算の結了等,,,2015-10-05,1,,,,,ニッパン,0
127,1050002033835,登記記録の閉鎖等,0,2024-03-08,2024-03-04,町田運送有限会社,,有限会社,茨城県,稲敷郡河内町,羽子騎５９７番地,,08,447,3001321,,,2024-03-04,清算の結了等,,,2015-10-05,1,,,,,マチダウンソウ,0
137,1080402000928,登記記録の閉鎖等,0,2024-03-08,2024-03-06,有限会社稲垣塗装工業所,,有限会社,静岡県,浜松市中央区,細島町２０３番地,,22,138,4350045,,,2024-03-06,清算の結了等,,,2015-10-05,1,,,,,イナガキトソウコウギョウショ,0
161,1120001204454,登記記録の閉鎖等,0,2024-03-08,2024-03-01,株式会社住まいるサポートラボ,,株式会社,大阪府,大阪市北区,菅原町１１番１１号９０１号室,,27,127,5300046,,,2024-03-01,合併による解散等,2120001066497,令和６年３月１日大阪市北区菅原町１１番１１号株式会社大作（2120001066497）に合併し解散,2017-03-16,1,,,,,スマイルサポートラボ,0
173,1120003018522,登記記録の閉鎖等,0,2024-03-08,2024-03-06,合同会社ＣＲＵＸ　ＰＲＯＤＵＣＴＩＯＮＳ,,合同会社,大阪府,大阪市中央区,谷町６丁目６番７号第五松屋ビル５８２号室,,27,128,5420012,,,2024-03-06,清算の結了等,,,2020-12-08,1,,,,,クラックスプロダクションス,0
177,1120101046862,登記記録の閉鎖等,0,2024-03-08,2024-03-07,株式会社祈龍,,株式会社,奈良県,北葛城郡広陵町,大字疋相４３０番地１,,29,426,6350824,,,2024-03-07,清算の結了等,,,2015-10-05,1,,,,,キリュウ,0
178,1120101051623,登記記録の閉鎖等,0,2024-03-08,2024-03-05,株式会社ＳＢＣ不動産,,株式会社,大阪府,堺市東区,大美野３３番地２７,,27,143,5998126,,,2024-03-05,合併による解散等,2120002070903,令和６年２月２９日大阪市北区太融寺町３番２４号ミカタホールディングス株式会社（2120002070903）に合併し解散,2015-10-05,1,,,,,エスビーシーフドウサン,0
192,1130005008603,登記記録の閉鎖等,0,2024-03-08,2024-03-05,扶桑教三玉教会,,その他の設立登記法人,京都府,木津川市,加茂町北山ノ上３３番地,,26,214,6191113,,,2024-03-05,清算の結了等,,,2015-10-05,1,,,,,,0
217,1180301018499,登記記録の閉鎖等,0,2024-03-08,2024-03-04,株式会社鈴木フードサービス,,株式会社,愛知県,豊田市,御幸本町１丁目２４５番地,,23,211,4730901,,,2024-03-04,清算の結了等,,,2015-10-05,1,,,,,スズキフードサービス,0
224,1200001014531,登記記録の閉鎖等,0,2024-03-08,2024-03-07,長良川株式会社,,株式会社,岐阜県,安八郡安八町,大森５９番地,,21,383,5030116,,,2024-03-07,清算の結了等,,,2015-10-05,1,,,,,,0
232,1240001030987,登記記録の閉鎖等,0,2024-03-08,2024-03-06,伸洋産業株式会社,,株式会社,広島県,福山市,川口町２丁目２０番２４号,,34,207,7200822,,,2024-03-06,清算の結了等,,,2015-10-05,1,,,,,シンヨウサンギョウ,0
240,1290001001100,登記記録の閉鎖等,0,2024-03-08,2024-03-04,モダンタイムス株式会社,,株式会社,福岡県,福岡市南区,那の川１丁目８号１３番地の２,,40,134,8150081,,,2024-03-04,清算の結了等,,,2015-10-05,1,,,,,モダンタイムス,0
247,1290801001349,登記記録の閉鎖等,0,2024-03-08,2024-03-06,国土住宅株式会社,,株式会社,福岡県,北九州市小倉北区,室町２丁目１１番１９号,,40,106,8030812,,,2024-03-06,清算の結了等,,,2015-10-05,1,,,,,コクドジュウタク,0
248,1290802018391,登記記録の閉鎖等,0,2024-03-08,2024-03-05,有限会社たなか,,有限会社,福岡県,北九州市八幡東区,宮の町２丁目４番１１号,,40,108,8050023,,,2024-03-05,清算の結了等,,,2015-10-05,1,,,,,タナカ,0
257,1330001011482,登記記録の閉鎖等,0,2024-03-08,2024-03-06,姫浦興産株式会社,,株式会社,熊本県,玉名市,滑石５１０番地の３１,,43,206,8650056,,,2024-03-06,合併による解散等,7290001054092,令和６年３月１日福岡県大牟田市長田町３２番地の１三池生コンクリート工業株式会社（7290001054092）に合併し解散,2015-10-05,1,,,,,ヒメガウラコウサン,0
260,1340001010244,登記記録の閉鎖等,0,2024-03-08,2024-03-07,清水商事株式会社,,株式会社,鹿児島県,大島郡知名町,大字知名３１３番地の２,,46,534,8919214,,,2024-03-07,清算の結了等,,,2015-10-05,1,,,,,シミズショウジ,0
270,1370001015554,登記記録の閉鎖等,0,2024-03-08,2024-03-01,株式会社シグマコミュニティ,,株式会社,宮城県,仙台市青葉区,西花苑１丁目３９番７号,,04,101,9820262,,,2024-03-01,合併による解散等,6370001008504,令和６年３月１日仙台市青葉区西花苑一丁目３９番７号株式会社シグマ（6370001008504）に合併し解散,2015-10-05,1,,,,,シグマコミュニティ,0
275,1370202001378,登記記録の閉鎖等,0,2024-03-08,2024-03-04,有限会社ウイン・サード,,有限会社,宮城県,遠田郡美里町,字桜木町５５番地,,04,505,9870011,,,2024-03-04,清算の結了等,,,2015-10-05,1,,,,,ウインサード,0
297,1460102006055,登記記録の閉鎖等,0,2024-03-08,2024-03-01,有限会社ライフ産業,,有限会社,北海道,河東郡鹿追町,中瓜幕西２１線２６番地３７,,01,634,0810345,,,2024-03-01,清算の結了等,,,2015-10-05,1,,,,,,0
301,1500001010913,登記記録の閉鎖等,0,2024-03-08,2024-03-05,株式会社アイシン総合サービス,,株式会社,愛媛県,松山市,三番町６丁目７番２号,,38,201,7900003,,,2024-03-05,清算の結了等,,,2015-10-05,1,,,,,アイシンソウゴウサービス,0
309,2010001135313,登記記録の閉鎖等,0,2024-03-08,2024-03-04,株式会社エフティ・オークラ,,株式会社,東京都,千代田区,神田駿河台４丁目４番地,,13,101,1010062,,,2024-03-04,清算の結了等,,,2015-10-05,1,,,,,エフティオークラ,0
317,2010401055400,登記記録の閉鎖等,0,2024-03-08,2024-03-05,株式会社インマークス,,株式会社,東京都,江東区,越中島１丁目１番１号ヤマタネ深川１号館２階,,13,108,1350044,,,2024-03-05,合併による解散等,3340001003270,令和６年３月１日鹿児島市与次郎一丁目１０番２１号株式会社西原商会（3340001003270）に合併し解散,2015-10-05,1,,,,,インマークス,0
326,2010405015251,登記記録の閉鎖等,0,2024-03-08,2024-03-04,一般社団法人日本カイロプラクティック徒手医学会,,その他の設立登記法人,東京都,港区,浜松町１丁目２番１３号,,13,103,1050013,,,2024-03-04,清算の結了等,,,2016-11-07,1,,,,,ニホンカイロプラクティックトシュイガクカイ,0
339,2010705002800,登記記録の閉鎖等,0,2024-03-08,2024-03-05,特定非営利活動法人ＴＯＳＳ青年事務局,,その他の設立登記法人,東京都,品川区,西中延３丁目１４番２号第２ＴＯＳＳビル,,13,109,1420054,,,2024-03-05,清算の結了等,,,2018-07-30,1,,,,,トスセイネンジムキョク,0
362,2011201001899,登記記録の閉鎖等,0,2024-03-08,2024-03-07,株式会社サンエース,,株式会社,東京都,中野区,中央２丁目３０番２号,,13,114,1640011,,,2024-03-07,清算の結了等,,,2015-10-05,1,,,,,サンエース,0
363,2011301001824,登記記録の閉鎖等,0,2024-03-08,2024-03-01,株式会社北村商店,,株式会社,東京都,杉並区,久我山４丁目２番１号,,13,115,1680082,,,2024-03-01,清算の結了等,,,2015-10-05,1,,,,,キタムラショウテン,0
374,2011802006339,登記記録の閉鎖等,0,2024-03-08,2024-03-04,有限会社ビーエスセンター,,有限会社,茨城県,牛久市,南４丁目２０番地１３,,08,219,3001222,,,2024-03-04,清算の結了等,,,2015-10-05,1,,,,,ビーエスセンター,0
388,2013103000789,登記記録の閉鎖等,0,2024-03-08,2024-03-05,合同会社和ｔｅｃ,,合同会社,東京都,青梅市,藤橋３丁目５番地２７,,13,205,1980022,,,2024-03-05,清算の結了等,,,2017-11-20,1,,,,,カズテック,0
391,2020001050610,登記記録の閉鎖等,0,2024-03-08,2024-03-01,株式会社ＳＨＪ＆Ｍ,,株式会社,東京都,品川区,大井１丁目３１番１－９１２号,,13,109,1400014,,,2024-03-01,合併による解散等,2140001035814,令和６年３月１日東京都品川区大井一丁目３１番１－９１２号株式会社サトミ・ホールディングス（2140001035814）に合併し解散,2015-10-05,1,,,,,エスエイチジェイアンドエム,0
392,2020001145732,登記記録の閉鎖等,0,2024-03-08,2024-02-29,株式会社ｒｅｂｉｒｔｈ,,株式会社,神奈川県,川崎市高津区,千年新町１１番地２リブレス武蔵新城１０１,,14,134,2130021,,,2024-02-29,清算の結了等,,,2022-03-23,1,,,,,リバース,0
397,2020002093897,登記記録の閉鎖等,0,2024-03-08,2024-03-01,有限会社イマガワインテリア,,有限会社,神奈川県,川崎市麻生区,多摩美１丁目１３番１号,,14,137,2150002,,,2024-03-01,清算の結了等,,,2015-10-05,1,,,,,イマガワインテリア,0
402,2030001136656,登記記録の閉鎖等,0,2024-03-08,2024-03-01,株式会社エーエム,,株式会社,埼玉県,川口市,柳崎５丁目１番５４号,,11,203,3330861,,,2024-03-01,合併による解散等,4030001075209,令和６年３月１日埼玉県川口市柳崎五丁目１番５４号株式会社エヌエーシー（4030001075209）に合併し解散,2020-06-02,1,,,,,エーエム,0
409,2030005005774,登記記録の閉鎖等,0,2024-03-08,2024-01-29,関東ファッション協同組合,,その他の設立登記法人,埼玉県,草加市,手代町２６４番地１,,11,221,3400021,,,2024-01-29,登記官による閉鎖,,,2015-10-05,1,,,,,,0
450,2100001001225,登記記録の閉鎖等,0,2024-03-08,2024-03-04,株式会社しなの麺工房,,株式会社,長野県,長野市,大字風間２０３４番地,,20,201,3810023,,,2024-03-04,清算の結了等,,,2015-10-05,1,,,,,シナノメンコウボウ,0
455,2120001014794,登記記録の閉鎖等,0,2024-03-08,2024-03-06,株式会社コウケン,,株式会社,大阪府,大阪市城東区,野江３丁目２７番２３号,,27,118,5360006,,,2024-03-06,清算の結了等,,,2015-10-05,1,,,,,コウケン,0
477,2120005011441,登記記録の閉鎖等,0,2024-03-08,2024-03-05,弁護士法人岸田総合法律事務所,,その他の設立登記法人,大阪府,大阪市中央区,南船場４丁目１１番１７号,,27,128,5420081,,,2024-03-05,清算の結了等,,,2015-10-05,1,,,,,キシダソウゴウホウリツジムショ,0
481,2130001035559,登記記録の閉鎖等,0,2024-03-08,2024-01-25,京都交通株式会社,,株式会社,京都府,亀岡市,古世町向嶋１０番地,,26,206,6210815,,,2024-01-25,清算の結了等,,,2022-11-28,1,,,,,キョウトコウツウ,0
488,2140001034386,登記記録の閉鎖等,0,2024-03-08,2024-03-01,株式会社明石高速,,株式会社,兵庫県,姫路市,白浜町宇佐崎北１丁目１５９番地,,28,201,6728013,,,2024-03-01,清算の結了等,,,2015-10-05,1,,,,,アカシコウソク,0
502,2180001010466,登記記録の閉鎖等,0,2024-03-08,2024-03-04,株式会社ダイシン,,株式会社,愛知県,名古屋市瑞穂区,密柑山町１丁目１６番地,,23,108,4670041,,,2024-03-04,清算の結了等,,,2015-10-05,1,,,,,ダイシン,0
514,2180302017994,登記記録の閉鎖等,0,2024-03-08,2024-03-04,えん有限会社,,有限会社,愛知県,刈谷市,下重原町３丁目７番地１,,23,210,4480024,,,2024-03-04,清算の結了等,,,2015-10-05,1,,,,,エン,0
521,2230005002504,登記記録の閉鎖等,0,2024-03-08,2024-03-07,富山神通ガス事業協同組合,,その他の設立登記法人,富山県,富山市,婦中町萩島字土手下３２５１番地１,,16,201,9392723,,,2024-03-07,清算の結了等,,,2015-10-05,1,,,,,トヤマジンヅウガス,0
526,2240001052147,登記記録の閉鎖等,0,2024-03-08,2024-03-01,株式会社なごみ,,株式会社,広島県,広島市佐伯区,海老園１丁目６番９号,,34,108,7315135,,,2024-03-01,合併による解散等,5240001052648,令和６年３月１日広島市佐伯区海老園一丁目６番９号株式会社ＳＫＹグループ（5240001052648）に合併し解散,2017-12-28,1,,,,,ナゴミ,0
531,2260001000467,登記記録の閉鎖等,0,2024-03-08,2024-01-31,石田産業株式会社,,株式会社,岡山県,岡山市北区,原３２３番地の１,,33,101,7012154,,,2024-01-31,清算の結了等,,,2023-12-01,1,,,,,イシダサンギョウ,0
536,2290001064278,登記記録の閉鎖等,0,2024-03-08,2024-03-01,株式会社イーシーファン,,株式会社,福岡県,福岡市博多区,沖浜町１２番１号,,40,132,8120031,,,2024-03-01,合併による解散等,3290001023935,令和６年３月１日福岡市博多区沖浜町１２番１号極東海運株式会社（3290001023935）に合併し解散,2015-10-05,1,,,,,イーシーファン,0
545,2300005000137,登記記録の閉鎖等,0,2024-03-08,2024-01-25,財団法人佐賀県先覚者顕彰会,,その他の設立登記法人,佐賀県,佐賀市,神野町６７０番地,,41,201,,,,2024-01-25,登記官による閉鎖,,,2015-10-05,1,,,,,,1
570,2400602000413,登記記録の閉鎖等,0,2024-03-08,2024-03-04,有限会社想原舎,,有限会社,岩手県,奥州市,水沢佐倉河字東高山２７０番地,,03,215,0230003,,,2024-03-04,清算の結了等,,,2015-10-05,1,,,,,ソウゲンシャ,0
573,2430002028523,登記記録の閉鎖等,0,2024-03-08,2024-03-01,有限会社ヒラハタケ,,有限会社,北海道,札幌市豊平区,西岡三条９丁目７番１８号,,01,105,0620033,,,2024-03-01,清算の結了等,,,2015-10-05,1,,,,,ヒラハタケ,0
579,2490002011911,登記記録の閉鎖等,0,2024-03-08,2024-03-06,有限会社南寿石材工業,,有限会社,高知県,南国市,岡豊町小蓮大坪３３２番地１,,39,204,7830043,,,2024-03-06,清算の結了等,,,2015-10-05,1,,,,,ナンジュセキザイコウギョウ,0
586,3010001160087,登記記録の閉鎖等,0,2024-03-08,2024-03-01,アルテパートナーズ株式会社,,株式会社,東京都,台東区,台東１丁目３０番３号,,13,106,1100016,,,2024-03-01,清算の結了等,,,2015-10-05,1,,,,,アルテパートナーズ,0
589,3010001227134,登記記録の閉鎖等,0,2024-03-08,2024-03-05,株式会社スターズ,,株式会社,東京都,中央区,銀座６丁目１３番１６号銀座ＷａｌｌビルＵＣＦ５階,,13,102,1040061,,,2024-03-05,合併による解散等,1011101092759,令和６年３月１日東京都新宿区新宿四丁目４番１７号ヒロノビル４階株式会社ファースト（1011101092759）に合併し解散,2022-06-06,1,,,,,スターズ,0
592,3010003022987,登記記録の閉鎖等,0,2024-03-08,2024-03-05,ニクソンジャパン合同会社,,合同会社,東京都,品川区,北品川１丁目１３番３号,,13,109,1400001,,,2024-03-05,清算の結了等,,,2016-01-25,1,,,,,ニクソンジャパン,0
610,3010801013691,登記記録の閉鎖等,0,2024-03-08,2024-03-04,フル・スキル・ロッコウ・ジャパン株式会社,,株式会社,東京都,大田区,北糀谷１丁目６番６号,,13,111,1440032,,,2024-03-04,清算の結了等,,,2015-10-05,1,,,,,フルスキルロッコウジャパン,0
631,3011501000740,登記記録の閉鎖等,0,2024-03-08,2024-03-05,株式会社王子加工所,,株式会社,東京都,北区,王子６丁目７番１２号,,13,117,1140002,,,2024-03-05,合併による解散等,1010703006829,令和６年３月１日東京都品川区上大崎三丁目１番１号目黒セントラルスクエア１５階王子加工所ホールディングス合同会社（1010703006829）に合併し解散,2015-10-05,1,,,,,オウジカコウショ,0
647,3012403003385,登記記録の閉鎖等,0,2024-03-08,2024-02-28,Ｂｒｉｌｌａｎｔｅ合同会社,,合同会社,東京都,府中市,新町１丁目４０番地の８,,13,206,1830052,,,2024-02-28,清算の結了等,,,2018-03-12,1,,,,,ブリランテ,0
655,3020002013334,登記記録の閉鎖等,0,2024-03-08,2024-02-29,有限会社青戸金物商会,,有限会社,神奈川県,横浜市青葉区,鴨志田町５３３番地グリーンヒル鴨志田東団地７棟３０１号,,14,117,2270033,,,2024-02-29,清算の結了等,,,2015-10-05,1,,,,,,0
663,3021001065606,登記記録の閉鎖等,0,2024-03-08,2024-02-29,ｇｉｇａＳＰＧ　Ｃｏｎｓｔｒｕｃｔｉｏｎ株式会社,,株式会社,神奈川県,鎌倉市,鎌倉山１丁目１９番７号,,14,204,2480031,,,2024-02-29,清算の結了等,,,2018-09-07,1,,,,,ギガエスピージーコンストラクション,0
669,3030001015256,登記記録の閉鎖等,0,2024-03-08,2024-03-05,ＢＴアライアンス株式会社,,株式会社,埼玉県,さいたま市大宮区,大成町１丁目１７２番１号－２０１,,11,103,3300852,,,2024-03-05,清算の結了等,,,2015-10-05,1,,,,,ビーティアライアンス,0
682,3030002063114,登記記録の閉鎖等,0,2024-03-08,2024-03-05,有限会社斉藤造園,,有限会社,埼玉県,富士見市,大字水子１９４３番地,,11,235,3540011,,,2024-03-05,清算の結了等,,,2015-10-05,1,,,,,サイトウゾウエン,0
683,3030002109544,登記記録の閉鎖等,0,2024-03-08,2024-03-05,有限会社小島鉄工所,,有限会社,埼玉県,川口市,栄町１丁目１番２１号,,11,203,3320017,,,2024-03-05,清算の結了等,,,2015-10-05,1,,,,,コジマテッコウショ,0
685,3030003009776,登記記録の閉鎖等,0,2024-03-08,2024-03-04,合同会社有川コーポレーション,,合同会社,埼玉県,比企郡鳩山町,楓ヶ丘４丁目２０番１４号,,11,348,3500314,,,2024-03-04,清算の結了等,,,2017-01-17,1,,,,,アリカワコーポレーション,0
721,3120001001890,登記記録の閉鎖等,0,2024-03-08,2024-02-29,サンエヌ設備株式会社,,株式会社,大阪府,大阪市鶴見区,今津中３丁目１１番２７号,,27,124,5380042,,,2024-02-29,清算の結了等,,,2015-10-05,1,,,,,サンエヌセツビ,0
750,3130002002160,登記記録の閉鎖等,0,2024-03-08,2024-03-05,有限会社帯の幸啓,,有限会社,京都府,京都市上京区,六軒町通五辻上る末広町３０番地,00036865,26,102,6028312,,,2024-03-05,清算の結了等,,,2015-10-05,1,,,,,オビノコウケイ,0
773,3180001085524,登記記録の閉鎖等,0,2024-03-08,2024-03-04,株式会社トーセン,,株式会社,愛知県,一宮市,三ツ井４丁目１５番２６号,,23,203,4910827,,,2024-03-04,清算の結了等,,,2015-10-05,1,,,,,トーセン,0
792,3190005007630,登記記録の閉鎖等,0,2024-03-08,2024-02-28,一般財団法人生徒指導士認定協会,,その他の設立登記法人,三重県,津市,江戸橋１丁目１４１番２,,24,201,5140001,,,2024-02-28,清算の結了等,,,2015-10-05,1,,,,,セイトシドウシニンテイキョウカイ,0
797,3220001003753,登記記録の閉鎖等,0,2024-03-08,2024-03-01,株式会社ソーコ流通サービス,,株式会社,石川県,金沢市,古府町南４５９番地,,17,201,9200363,,,2024-03-01,合併による解散等,1220001025782,令和６年３月１日石川県金沢市古府町南４５９番地アップティー株式会社（1220001025782）に合併し解散,2015-10-05,1,,,,,ソーコリュウツウサービス,0
828,3330001023955,登記記録の閉鎖等,0,2024-03-08,2024-03-01,株式会社ノジマカーサービス,,株式会社,熊本県,上益城郡嘉島町,大字井寺２５０番地,,43,442,8613103,,,2024-03-01,合併による解散等,5330003000678,令和６年３月１日熊本県上益城郡嘉島町井寺２５０番地株式会社野島商事（5330003000678）に合併し解散,2017-04-17,1,,,,,ノジマカーサービス,0
832,3350005001666,登記記録の閉鎖等,0,2024-03-08,2024-03-01,特定非営利活動法人宮崎柔道塾,,その他の設立登記法人,宮崎県,宮崎市,出来島町２９番地７号,,45,201,8800861,,,2024-03-01,清算の結了等,,,2015-10-05,1,,,,,ミヤザキジュウドウジュク,0
852,3430002018028,登記記録の閉鎖等,0,2024-03-08,2024-03-01,有限会社北進設備工業,,有限会社,北海道,札幌市東区,東雁来六条２丁目３番１４号,,01,103,0070826,,,2024-03-01,合併による解散等,1430001018484,令和６年３月１日札幌市白石区北郷六条四丁目４番１７号株式会社おがた（1430001018484）に合併し解散,2015-10-05,1,,,,,ホクシンセツビコウギョウ,0
855,3430005014610,登記記録の閉鎖等,0,2024-03-08,2024-03-01,有限責任札幌平和住宅組合,,その他の設立登記法人,北海道,札幌市中央区,南十条西１５丁目１４２５番地,,01,101,0640810,,,2024-03-01,清算の結了等,,,2022-12-19,1,,,,,ユウゲンセキニンサッポロヘイワ,0
879,4010401128757,登記記録の閉鎖等,0,2024-03-08,2024-03-05,株式会社ｒｅｍｉｇｏ,,株式会社,東京都,港区,芝浦４丁目５番９号ＴＨＥＨＡＲＢＯＵＲＳＨＩＢＡＵＲＡ３０２号室,,13,103,1080023,,,2024-03-05,清算の結了等,,,2016-12-16,1,,,,,レミゴ,0
880,4010401154150,登記記録の閉鎖等,0,2024-03-08,2024-03-05,アークジャパンリミテッド株式会社,,株式会社,東京都,千代田区,紀尾井町３番３３号,,13,101,1020094,,,2024-03-05,合併による解散等,7020001153895,令和６年１月２２日神奈川県横浜市都筑区東山田町１２４ＢＲＡＮＣＯ　ＣＡＰＩＴＡＬ株式会社（7020001153895）に合併し解散,2020-07-27,1,,,,,アークジャパンリミテッド,0
901,4010605002452,登記記録の閉鎖等,0,2024-03-08,2024-03-04,一般社団法人江東区柔道会,,その他の設立登記法人,東京都,江東区,東砂３丁目２７番２号,,13,108,1360074,,,2024-03-04,清算の結了等,,,2015-10-05,1,,,,,コウトウクジュウドウカイ,0
902,4010701035471,登記記録の閉鎖等,0,2024-03-08,2024-03-01,株式会社ＫＲＡＦＴ,,株式会社,東京都,目黒区,平町２丁目１３番５号,,13,110,1520032,,,2024-03-01,合併による解散等,7010501039273,令和６年３月１日東京都目黒区平町二丁目１３番５号株式会社ＭＯＬＴＳ（7010501039273）に合併し解散,2018-03-07,1,,,,,クラフト,0
904,4010901042490,登記記録の閉鎖等,0,2024-03-08,2024-03-05,株式会社グッドブリッジ,,株式会社,東京都,世田谷区,深沢２丁目２番２０号,,13,112,1580081,,,2024-03-05,清算の結了等,,,2018-07-26,1,,,,,グッドブリッジ,0
905,4010901045469,登記記録の閉鎖等,0,2024-03-08,2024-03-04,株式会社日本の食,,株式会社,東京都,世田谷区,奥沢３丁目１２番１４号,,13,112,1580083,,,2024-03-04,清算の結了等,,,2020-01-06,1,,,,,ニホンノショク,0
906,4010902010406,登記記録の閉鎖等,0,2024-03-08,2024-03-06,株式会社東京進学ゼミナール,,株式会社,東京都,荒川区,西日暮里２丁目５１番３号,,13,118,1160013,,,2024-03-06,合併による解散等,2370001013689,令和６年３月１日仙台市若林区土樋１０４番地株式会社イー・エス・ティ（2370001013689）に合併し解散,2015-10-05,1,,,,,トウキョウシンガクゼミナール,0
908,4010902020735,登記記録の閉鎖等,0,2024-03-08,2024-03-04,有限会社伊藤事務所,,有限会社,東京都,世田谷区,中町１丁目１４番３号,,13,112,1580091,,,2024-03-04,清算の結了等,,,2015-10-05,1,,,,,,0
910,4011001104495,登記記録の閉鎖等,0,2024-03-08,2024-03-01,株式会社マニフェストデスティニー,,株式会社,東京都,渋谷区,代官山町２番３号,,13,113,1500034,,,2024-03-01,合併による解散等,6011002026101,令和６年３月１日東京都渋谷区代官山町２番３号株式会社マニフェストディストニー（6011002026101）に合併し解散,2015-10-05,1,,,,,マニフェストデスティニー,0
912,4011001111500,登記記録の閉鎖等,0,2024-03-08,2024-03-05,株式会社４７ｓｔａｆｆｉｎｇ,,株式会社,東京都,新宿区,新宿２丁目１番２号白鳥ビル３Ｆ,,13,104,1600022,,,2024-03-05,合併による解散等,2011001068305,令和６年３月１日福島県いわき市平字白銀町２番地の１０株式会社４７ＰＬＡＮＮＩＮＧ（2011001068305）に合併し解散,2016-06-22,1,,,,,ヨンナナスタッフィング,0
949,4012402003831,登記記録の閉鎖等,0,2024-03-08,2024-03-05,有限会社橘電気商会,,有限会社,東京都,国分寺市,東恋ヶ窪２丁目１４番地の８,,13,214,1850014,,,2024-03-05,清算の結了等,,,2015-10-05,1,,,,,タチバナデンキショウカイ,0
952,4012801007219,登記記録の閉鎖等,0,2024-03-08,2024-03-04,株式会社上楽,,株式会社,東京都,立川市,一番町６丁目３番地の１立川一番町東５８棟２０６号,,13,202,1900033,,,2024-03-04,清算の結了等,,,2015-10-05,1,,,,,ジョウラク,0
971,4030001044683,登記記録の閉鎖等,0,2024-03-08,2024-03-06,加藤商事株式会社,,株式会社,埼玉県,朝霞市,根岸台５丁目３番１２号,,11,227,3510005,,,2024-03-06,清算の結了等,,,2015-10-05,1,,,,,カトウショウジ,0
983,4030002045499,登記記録の閉鎖等,0,2024-03-08,2024-01-29,有限会社平野建設土木,,有限会社,埼玉県,草加市,新栄町１０００番地新栄町団地２－１０－３０１,,11,221,3400056,,,2024-01-29,登記官による閉鎖,,,2015-10-05,1,,,,,,0
1005,4050002025012,登記記録の閉鎖等,0,2024-03-08,2024-03-04,有限会社ゆうゆう,,有限会社,茨城県,古河市,下辺見１０８１番地８,,08,204,3060235,,,2024-03-04,清算の結了等,,,2015-10-05,1,,,,,ユウユウ,0
1012,4070001002836,登記記録の閉鎖等,0,2024-03-08,2024-03-04,株式会社不二リビングシステム,,株式会社,群馬県,前橋市,元総社町１７５番地の２,,10,201,3710846,,,2024-03-04,清算の結了等,,,2015-10-05,1,,,,,フジリビングシステム,0
1016,4080101003493,登記記録の閉鎖等,0,2024-03-08,2024-03-06,株式会社アイシンワークス,,株式会社,静岡県,沼津市,松長８１４番地,,22,203,4100874,,,2024-03-06,清算の結了等,,,2015-10-05,1,,,,,アイシンワークス,0
1028,4110002004042,登記記録の閉鎖等,0,2024-03-08,2024-03-06,有限会社たなべ呉服店,,有限会社,新潟県,新潟市中央区,沼垂東２丁目６番２８号,,15,103,9500075,,,2024-03-06,清算の結了等,,,2015-10-05,1,,,,,タナベゴフクテン,0
1031,4120001044575,登記記録の閉鎖等,0,2024-03-08,2024-03-01,正峰大阪販売株式会社,,株式会社,大阪府,大阪市西区,立売堀６丁目７番３１号,,27,106,5500012,,,2024-03-01,合併による解散等,5120001149885,令和６年３月１日大阪府枚方市出屋敷西町二丁目２０番２３号正峰工業株式会社（5120001149885）に合併し解散,2015-10-05,1,,,,,セイホウオオサカハンバイ,0
1053,4120005022957,登記記録の閉鎖等,0,2024-03-08,2024-03-07,一般社団法人Ｄａｉｇａｓ不動産ファンド第１号,,その他の設立登記法人,大阪府,大阪市中央区,高麗橋４丁目３番７号淀屋橋総合会計内,,27,128,5410043,,,2024-03-07,清算の結了等,,,2022-05-20,1,,,,,ダイガスフドウサンファンドダイイチゴウ,0
1057,4120901043949,登記記録の閉鎖等,0,2024-03-08,2024-03-05,パーキンソン病治療研究株式会社,,株式会社,大阪府,吹田市,山田西４丁目２番８８－１００５号,,27,205,5650824,,,2024-03-05,清算の結了等,,,2021-03-02,1,,,,,パーキンソンビョウチリョウケンキュウ,0
1060,4120903001145,登記記録の閉鎖等,0,2024-03-08,2024-03-05,合同会社ブッサンコム,,合同会社,大阪府,箕面市,牧落５丁目８番２－２０４,,27,220,5620004,,,2024-03-05,清算の結了等,,,2015-10-05,1,,,,,ブッサンコム,0
1062,4122002004343,登記記録の閉鎖等,0,2024-03-08,2024-03-06,有限会社ポピ・ツリー,,有限会社,奈良県,香芝市,関屋北６丁目２８番２号,,29,210,6390254,,,2024-03-06,清算の結了等,,,2015-10-05,1,,,,,ポピツリー,0
1073,4160001015226,登記記録の閉鎖等,0,2024-03-08,2024-03-07,株式会社エルエスホーム,,株式会社,滋賀県,守山市,勝部４丁目１０９０－１－２０４号,,25,207,5240041,,,2024-03-07,清算の結了等,,,2015-10-05,1,,,,,エルエスホーム,0
1081,4180001158543,登記記録の閉鎖等,0,2024-03-08,2024-03-06,株式会社ｕｎａ,,株式会社,愛知県,名古屋市中区,大井町１番３７号,,23,106,4600015,,,2024-03-06,清算の結了等,,,2023-10-19,1,,,,,ウーナ,0
1087,4180002004110,登記記録の閉鎖等,0,2024-03-08,2024-03-04,有限会社耕成ゴム工業所,,有限会社,愛知県,名古屋市千種区,竹越２丁目４番２５号,,23,101,4640007,,,2024-03-04,清算の結了等,,,2015-10-05,1,,,,,コウセイゴムコウギョウショ,0
1088,4180002028720,登記記録の閉鎖等,0,2024-03-08,2024-03-01,有限会社白友舎,,有限会社,愛知県,名古屋市中村区,大正町４丁目４１番地の５,,23,105,4530806,,,2024-03-01,清算の結了等,,,2015-10-05,1,,,,,ハクユウシャ,0
1093,4180002068650,登記記録の閉鎖等,0,2024-03-08,2024-03-01,有限会社エスケイ化成,,有限会社,愛知県,小牧市,大字小牧原新田字鷹の橋６４３番地の１,,23,219,4850012,,,2024-03-01,清算の結了等,,,2015-10-05,1,,,,,エスケイカセイ,0
1104,4200002010849,登記記録の閉鎖等,0,2024-03-08,2024-03-08,有限会社竹組,,有限会社,岐阜県,羽島市,正木町大浦１２８５番地,,21,209,5016224,,,2024-03-08,清算の結了等,,,2015-10-05,1,,,,,タケグミ,0
1105,4200002013521,登記記録の閉鎖等,0,2024-03-08,2024-03-06,有限会社スーパー神戸北店,,有限会社,岐阜県,安八郡神戸町,大字北一色７９３番地の３,,21,381,5032306,,,2024-03-06,清算の結了等,,,2015-10-05,1,,,,,スーパーゴウドキタテン,0
1106,4230001010401,登記記録の閉鎖等,0,2024-03-08,2024-01-22,株式会社谷道,,株式会社,富山県,高岡市,問屋町１０９番地,,16,202,9330804,,,2024-01-22,清算の結了等,,,2016-01-15,1,,,,,タニミチ,0
1141,4370003004940,登記記録の閉鎖等,0,2024-03-08,2024-03-04,合同会社あらや,,合同会社,宮城県,大崎市,古川大幡字谷地田７２番地１ＨａｒｕＡ棟１０１号,,04,215,9896114,,,2024-03-04,清算の結了等,,,2020-10-02,1,,,,,アラヤ,0
1142,4370302001515,登記記録の閉鎖等,0,2024-03-08,2024-03-04,タクシーネットワーク石巻有限会社,,有限会社,宮城県,石巻市,新栄２丁目１番地の３,,04,202,9860004,,,2024-03-04,清算の結了等,,,2015-10-05,1,,,,,タクシーネットワークイシノマキ,0
1157,4500001023185,登記記録の閉鎖等,0,2024-03-08,2024-03-06,株式会社ここキッチン,,株式会社,愛媛県,新居浜市,宮西町１番９号,,38,205,7920024,,,2024-03-06,清算の結了等,,,2021-02-04,1,,,,,ココキッチン,0
1169,5010003035161,登記記録の閉鎖等,0,2024-03-08,2024-03-04,ＡＥｙｅ　Ｊａｐａｎ合同会社,,合同会社,東京都,中央区,京橋２丁目８番３号ＡＣＮ京橋八重洲ビル株式会社オーナーズブレイン内,,13,102,1040031,,,2024-03-04,清算の結了等,,,2021-06-25,1,,,,,エーアイジャパン,0
1179,5010403028252,登記記録の閉鎖等,0,2024-03-08,2024-02-29,合同会社ＡＭＯＷ,,合同会社,東京都,港区,南青山２丁目２－１５,,13,103,1070062,,,2024-02-29,清算の結了等,,,2022-09-06,1,,,,,アモウ,0
1190,5010701035470,登記記録の閉鎖等,0,2024-03-08,2024-03-01,株式会社ＳＴＡＵＴ,,株式会社,東京都,目黒区,平町２丁目１３番５号,,13,110,1520032,,,2024-03-01,合併による解散等,7010501039273,令和６年３月１日東京都目黒区平町二丁目１３番５号株式会社ＭＯＬＴＳ（7010501039273）に合併し解散,2018-03-07,1,,,,,スタウト,0
1193,5010802014943,登記記録の閉鎖等,0,2024-03-08,2024-03-05,有限会社山崎商会,,有限会社,東京都,大田区,東六郷３丁目８番４－７０５号,,13,111,1440046,,,2024-03-05,清算の結了等,,,2015-10-05,1,,,,,ヤマザキショウカイ,0
1200,5011001025914,登記記録の閉鎖等,0,2024-03-08,2024-02-29,若葉商亊株式会社,,株式会社,東京都,杉並区,久我山５丁目１２番９号,,13,115,1680082,,,2024-02-29,合併による解散等,1011001024614,令和６年２月２９日東京都杉並区久我山五丁目１２番９号若葉ビル株式会社（1011001024614）に合併し解散,2015-10-05,1,,,,,ワカバショウジ,0
1201,5011001046324,登記記録の閉鎖等,0,2024-03-08,2024-03-05,株式会社エスティビジョン,,株式会社,千葉県,市川市,北国分１丁目２８番１６号,,12,203,2720836,,,2024-03-05,合併による解散等,7010401040983,令和６年２月１日東京都渋谷区東二丁目６番１６号株式会社ハセガワエスティ（7010401040983）に合併し解散,2015-10-05,1,,,,,エスティビジョン,0
1202,5011001060267,登記記録の閉鎖等,0,2024-03-08,2024-03-05,株式会社ティー・オーエンタテインメント,,株式会社,東京都,渋谷区,神泉町１８番８号,,13,113,1500045,,,2024-03-05,清算の結了等,,,2015-10-05,1,,,,,ティーオーエンタテインメント,0
1203,5011001068822,登記記録の閉鎖等,0,2024-03-08,2024-02-29,株式会社ＭＩＸＩ　ＲＥＣＲＵＩＴＭＥＮＴ,,株式会社,東京都,渋谷区,渋谷２丁目２４番１２号渋谷スクランブルスクエア,,13,113,1500002,,,2024-02-29,清算の結了等,,,2015-10-05,1,,,,,ミクシィリクルートメント,0
1212,5011005007537,登記記録の閉鎖等,0,2024-03-08,2024-03-01,一般社団法人ＬＩＶＥ東京２１,,その他の設立登記法人,東京都,目黒区,目黒本町４丁目１２番２０号モンファイエ目黒本町６０１,,13,110,1520002,,,2024-03-01,清算の結了等,,,2018-02-08,1,,,,,ライブトウキョウニイチ,0
1214,5011101092805,登記記録の閉鎖等,0,2024-03-08,2024-03-05,角美商事株式会社,,株式会社,東京都,新宿区,高田馬場１丁目５－２１グランメール高田馬場４０７号室,,13,104,1690075,,,2024-03-05,清算の結了等,,,2020-10-27,1,,,,,カドミショウジ,0
1226,5011802002153,登記記録の閉鎖等,0,2024-03-08,2024-03-06,有限会社菊オートサービス,,有限会社,東京都,葛飾区,柴又６丁目４番７号,,13,122,1250052,,,2024-03-06,清算の結了等,,,2015-10-05,1,,,,,キクオートサービス,0
1228,5012401005167,登記記録の閉鎖等,0,2024-03-08,2024-03-04,株式会社ドバシ,,株式会社,東京都,国立市,富士見台２丁目４５番地の１２,,13,215,1860003,,,2024-03-04,清算の結了等,,,2015-10-05,1,,,,,ドバシ,0
1234,5020001119923,登記記録の閉鎖等,0,2024-03-08,2024-01-16,ＬＵＺ株式会社,,株式会社,東京都,港区,芝浦４丁目５番９号ＴＨＥＨＡＲＢＯＵＲＳＨＩＢＡＵＲＡ５０３号室,,13,103,1080023,,,2024-01-16,清算の結了等,,,2017-02-13,1,,,,,ルース,0
1242,5020002029279,登記記録の閉鎖等,0,2024-03-08,2024-03-04,有限会社オフイスワンツーリターン,,有限会社,神奈川県,横浜市南区,南吉田町２丁目２３番地１ランドシティ横濱吉野町レジデンス６０２号,,14,105,2320012,,,2024-03-04,清算の結了等,,,2015-10-05,1,,,,,オフイスワンツーリターン,0
1243,5020002065480,登記記録の閉鎖等,0,2024-03-08,2024-02-28,有限会社エム・エム・シー,,有限会社,神奈川県,横浜市西区,高島２丁目５番１２号横浜ＤＫビル,,14,103,2200011,,,2024-02-28,清算の結了等,,,2015-10-05,1,,,,,エムエムシー,0
1252,5030001004942,登記記録の閉鎖等,0,2024-03-08,2024-03-01,大保企業株式会社,,株式会社,埼玉県,富士見市,ふじみ野西１丁目２１番地１,,11,235,3540035,,,2024-03-01,合併による解散等,5030001046563,令和６年３月１日埼玉県富士見市ふじみ野西一丁目２１番地１株式会社谷澤総合コンサルタント（5030001046563）に合併し解散,2015-10-05,1,,,,,ダイホキギョウ,0
1259,5030002121704,登記記録の閉鎖等,0,2024-03-08,2024-03-01,グリーンアンドハウス株式会社,,株式会社,埼玉県,秩父市,大野原１５２６番地６,,11,207,3680005,,,2024-03-01,合併による解散等,1030001009771,令和６年３月１日埼玉県さいたま市西区三橋五丁目６３５番地無垢スタイル建築設計株式会社（1030001009771）に合併し解散,2015-10-05,1,,,,,グリーンアンドハウス,0
1264,5030005016018,登記記録の閉鎖等,0,2024-03-08,2024-03-01,特定非営利活動法人久喜の自然を愛する会,,その他の設立登記法人,埼玉県,久喜市,吉羽２丁目２２番地９,,11,232,3460014,,,2024-03-01,清算の結了等,,,2015-10-05,1,,,,,クキノシゼンヲアイスルカイ,0
1271,5050001047584,登記記録の閉鎖等,0,2024-03-08,2024-03-05,株式会社東都警備,,株式会社,茨城県,古河市,駒羽根１３９１番地１３,,08,204,3060221,,,2024-03-05,合併による解散等,4050001034872,令和６年２月２９日茨城県ひたちなか市市毛１１５７番１株式会社明誠警備（4050001034872）に合併し解散,2020-05-25,1,,,,,トオトケイビ,0
1276,5050003003585,登記記録の閉鎖等,0,2024-03-08,2024-03-04,合同会社たねの声,,合同会社,茨城県,笠間市,大田町２１５番地３７,,08,216,3091738,,,2024-03-04,清算の結了等,,,2017-02-03,1,,,,,タネノコエ,0
1283,5080001019795,登記記録の閉鎖等,0,2024-03-08,2024-03-06,株式会社さんかく,,株式会社,静岡県,静岡市葵区,千代田２丁目１番２２号Ｅ２棟,,22,101,4200803,,,2024-03-06,清算の結了等,,,2015-10-05,1,,,,,サンカク,0
1286,5080101023697,登記記録の閉鎖等,0,2024-03-08,2024-03-06,株式会社フルフレッジ,,株式会社,静岡県,富士市,天間１９１０番地の１,,22,210,4190205,,,2024-03-06,清算の結了等,,,2022-12-19,1,,,,,フルフレッジ,0
1288,5080401009710,登記記録の閉鎖等,0,2024-03-08,2024-03-01,株式会社アポロン,,株式会社,静岡県,浜松市中央区,舞阪町弁天島３３７１番地の１,,22,138,4310214,,,2024-03-01,合併による解散等,4080401004448,令和６年３月１日静岡県浜松市中央区舞阪町弁天島３３７１番地の１株式会社Ｅネクスト（4080401004448）に合併し解散,2015-10-05,1,,,,,アポロン,0
1291,5100001003359,登記記録の閉鎖等,0,2024-03-08,2024-03-01,株式会社Ｎ・バロウ,,株式会社,愛知県,名古屋市昭和区,白金３丁目１番９号,,23,107,4660058,,,2024-03-01,合併による解散等,7180001138261,令和６年３月１日名古屋市千種区吹上一丁目５番３号株式会社コリーダモータース（7180001138261）に合併し解散,2015-10-05,1,,,,,エヌバロウ,0
1320,5120901039426,登記記録の閉鎖等,0,2024-03-08,2024-03-07,株式会社ＹＯＢＯ,,株式会社,大阪府,豊中市,上野西３丁目９番６の２号,,27,203,5600011,,,2024-03-07,清算の結了等,,,2018-01-12,1,,,,,ヨボウ,0
1345,5180302013578,登記記録の閉鎖等,0,2024-03-08,2024-03-01,有限会社都築食品,,有限会社,愛知県,豊川市,一宮町栄２１６番地,,23,207,4411231,,,2024-03-01,清算の結了等,,,2015-10-05,1,,,,,ツヅキショクヒン,0
1348,5200001002961,登記記録の閉鎖等,0,2024-03-08,2024-03-06,ダイケン・インターナショナル株式会社,,株式会社,岐阜県,岐阜市,日ノ出町３丁目５番地,,21,201,5008876,,,2024-03-06,清算の結了等,,,2015-10-05,1,,,,,ダイケンインターナショナル,0
1356,5240002006917,登記記録の閉鎖等,0,2024-03-08,2024-03-04,有限会社佐々木臨床検査センター,,有限会社,広島県,広島市安佐北区,白木町大字井原５４７７番地,,34,106,7391301,,,2024-03-04,清算の結了等,,,2015-10-05,1,,,,,ササキリンショウケンサセンター,0
1375,5330001023953,登記記録の閉鎖等,0,2024-03-08,2024-03-01,株式会社ノジママシーンサービス,,株式会社,熊本県,上益城郡嘉島町,大字井寺２５０番地,,43,442,8613103,,,2024-03-01,合併による解散等,7330001023951,令和６年３月１日熊本県上益城郡嘉島町井寺２５０番地株式会社ノジマ加工センター（7330001023951）に合併し解散,2017-04-17,1,,,,,ノジママシーンサービス,0
1400,5420002012426,登記記録の閉鎖等,0,2024-03-08,2024-03-01,有限会社三栄,,有限会社,青森県,つがる市,木造浮巣４５番地２,,02,209,0383141,,,2024-03-01,清算の結了等,,,2015-10-05,1,,,,,サンエイ,0
1407,5470001004626,登記記録の閉鎖等,0,2024-03-08,2024-03-06,ファンホーム株式会社,,株式会社,香川県,高松市,伏石町２１３０番地４,,37,201,7618071,,,2024-03-06,清算の結了等,,,2015-10-05,1,,,,,ファンホーム,0
1430,6010501039010,登記記録の閉鎖等,0,2024-03-08,2024-03-04,日昇株式会社,,株式会社,東京都,台東区,東浅草１丁目１５番４－４０１号,,13,106,1110025,,,2024-03-04,清算の結了等,,,2016-01-13,1,,,,,,0
1431,6010501049447,登記記録の閉鎖等,0,2024-03-08,2024-03-01,栄豊株式会社,,株式会社,東京都,台東区,北上野２丁目２５番９号－６０２号室,,13,106,1100014,,,2024-03-01,清算の結了等,,,2022-10-07,1,,,,,エイホウ,0
1439,6010901047703,登記記録の閉鎖等,0,2024-03-08,2024-02-16,モバイルスタジオ株式会社,,株式会社,東京都,新宿区,西新宿３丁目７番１号,,13,104,1600023,,,2024-02-16,清算の結了等,,,2020-12-22,1,,,,,モバイルスタジオ,0
1446,6011001137980,登記記録の閉鎖等,0,2024-03-08,2024-03-01,株式会社ビーアット,,株式会社,東京都,渋谷区,神宮前３丁目２４番５号４Ｆ,,13,113,1500001,,,2024-03-01,合併による解散等,9011101017881,令和６年３月１日東京都渋谷区神宮前一丁目５番８号株式会社ビームスクリエイティブ（9011101017881）に合併し解散,2021-01-15,1,,,,,ビーアット,0
1452,6011003014501,登記記録の閉鎖等,0,2024-03-08,2024-03-04,ＱＰ合同会社,,合同会社,東京都,渋谷区,円山町５番５号Ｎａｖｉ渋谷Ｖ３階,00130738,13,113,1500044,,,2024-03-04,合併による解散等,9420003002216,令和６年２月２７日青森県八戸市大字白銀町字雷３９番地４株式会社ヒラケドア（9420003002216）に合併し解散,2022-04-11,1,,,,,キューピー,0
1454,6011101012670,登記記録の閉鎖等,0,2024-03-08,2024-03-06,株式会社第一興産,,株式会社,東京都,新宿区,西新宿８丁目２番２０号,,13,104,1600023,,,2024-03-06,清算の結了等,,,2022-08-29,1,,,,,ダイイチコウサン,0
1467,6011702002723,登記記録の閉鎖等,0,2024-03-08,2024-01-29,有限会社柿の木工房,,有限会社,東京都,江戸川区,西瑞江２丁目１３番地９,,13,123,1320015,,,2024-01-29,登記官による閉鎖,,,2015-10-05,1,,,,,,0
1489,6030001036118,登記記録の閉鎖等,0,2024-03-08,2024-03-04,鈴木工業株式会社,,株式会社,埼玉県,八潮市,大字木曽根字上６６３番３,,11,234,3400813,,,2024-03-04,清算の結了等,,,2015-10-05,1,,,,,スズキコウギョウ,0
1503,6030003004915,登記記録の閉鎖等,0,2024-03-08,2024-03-04,アイドット合同会社,,合同会社,埼玉県,飯能市,大字青木５１番地７,,11,209,3570003,,,2024-03-04,清算の結了等,,,2015-10-05,1,,,,,アイドット,0
1522,6060001025357,登記記録の閉鎖等,0,2024-03-08,2024-03-01,株式会社カクニシ都市開発,,株式会社,栃木県,鹿沼市,上野町２８１番地４,,09,205,3220021,,,2024-03-01,合併による解散等,2060001010288,令和６年３月１日栃木県鹿沼市上野町２８１番地４株式会社カクニシビルダー（2060001010288）に合併し解散,2015-10-05,1,,,,,カクニシトシカイハツ,0
1528,6070002015422,登記記録の閉鎖等,0,2024-03-08,2024-03-05,有限会社うりづん,,有限会社,群馬県,安中市,古屋３６４番地５,,10,211,3790131,,,2024-03-05,清算の結了等,,,2015-10-05,1,,,,,ウリヅン,0
1534,6100002014940,登記記録の閉鎖等,0,2024-03-08,2024-03-04,有限会社ヤトウ商会,,有限会社,長野県,上田市,古里１９３９番地４,,20,203,3860005,,,2024-03-04,清算の結了等,,,2015-10-05,1,,,,,ヤトウショウカイ,0
1535,6110001002615,登記記録の閉鎖等,0,2024-03-08,2024-03-05,株式会社上新トレーディング,,株式会社,新潟県,新潟市東区,山木戸７丁目２番６１号,,15,102,9500871,,,2024-03-05,合併による解散等,3340001003270,令和６年３月１日鹿児島市与次郎一丁目１０番２１号株式会社西原商会（3340001003270）に合併し解散,2015-10-05,1,,,,,ジョウシントレーディング,0
1557,6130001008577,登記記録の閉鎖等,0,2024-03-08,2024-01-31,株式会社ハヤシ建設工業,,株式会社,京都府,京都市西京区,大原野上里南ノ町５４４番地の３,,26,111,6101123,,,2024-01-31,清算の結了等,,,2023-06-26,1,,,,,ハヤシケンセツコウギョウ,0
1579,6180301009436,登記記録の閉鎖等,0,2024-03-08,2024-03-07,株式会社ＭＩＹＵＫＩ,,株式会社,静岡県,浜松市中央区,雄踏１丁目１５番９号,,22,138,4310103,,,2024-03-07,清算の結了等,,,2015-10-05,1,,,,,ミユキ,0
1580,6180301032223,登記記録の閉鎖等,0,2024-03-08,2024-03-01,ＨＡＮＤＥＮ株式会社,,株式会社,愛知県,豊川市,赤坂町御園２０１番地,,23,207,4410202,,,2024-03-01,合併による解散等,1180301011090,令和６年３月１日愛知県蒲郡市西浦町池田１０番地スギヤマプラスチック株式会社（1180301011090）に合併し解散,2019-02-08,1,,,,,ハンデン,0
1584,6190002024080,登記記録の閉鎖等,0,2024-03-08,2024-03-06,有限会社協和設備工業,,有限会社,三重県,三重郡菰野町,大字吉沢４３８番地１,,24,341,5101200,,,2024-03-06,清算の結了等,,,2015-10-05,1,,,,,キョウワセツビコウギョウ,0
1588,6210001016365,登記記録の閉鎖等,0,2024-03-08,2024-03-01,鯖精マシンサービス株式会社,,株式会社,福井県,越前市,上太田町第３６号５番地６,,18,209,9150882,,,2024-03-01,合併による解散等,8210001012560,令和６年３月１日福井県丹生郡越前町気比庄第２２号８番地鯖江精機株式会社（8210001012560）に合併し解散,2016-06-07,1,,,,,サバセイマシンサービス,0
1627,6360003001350,登記記録の閉鎖等,0,2024-03-08,2024-03-06,合資会社赤玉食品,,合資会社,沖縄県,うるま市,字州崎８番地１５,,47,213,9042234,,,2024-03-06,清算の結了等,,,2015-10-05,1,,,,,,0
1637,6380002008659,登記記録の閉鎖等,0,2024-03-08,2024-03-05,有限会社カノー企画,,有限会社,福島県,郡山市,朝日１丁目１８番１８号,,07,203,9638024,,,2024-03-05,清算の結了等,,,2015-10-05,1,,,,,カノーキカク,0
1645,6430001010610,登記記録の閉鎖等,0,2024-03-08,2024-03-04,株式会社辻本建装,00088273,株式会社,北海道,札幌市白石区,北郷五条３丁目３番１９号,,01,104,0030835,,,2024-03-04,清算の結了等,,,2015-10-05,1,,,,,ツジモトケンソウ,0
1651,6450001002135,登記記録の閉鎖等,0,2024-03-08,2024-03-01,道内運輸株式会社,,株式会社,北海道,旭川市,東鷹栖東二条６丁目３１２番地の８,,01,204,0718112,,,2024-03-01,合併による解散等,5450001002136,令和６年３月１日北海道旭川市東鷹栖東二条六丁目３１２番地の８道内建設株式会社（5450001002136）に合併し解散,2015-10-05,1,,,,,ドウナイウンユ,0
1653,6470002011447,登記記録の閉鎖等,0,2024-03-08,2024-03-05,有限会社大平,,有限会社,香川県,丸亀市,今津町７４９番地９,,37,202,7630051,,,2024-03-05,清算の結了等,,,2015-10-05,1,,,,,オオヒラ,0
1663,7010001198289,登記記録の閉鎖等,0,2024-03-08,2024-03-01,ＣｏｉｎＤｅｓｋ　Ｊａｐａｎ株式会社,,株式会社,東京都,港区,赤坂２丁目５番８号,,13,103,1070052,,,2024-03-01,合併による解散等,2010001196768,令和６年２月２９日東京都港区赤坂二丁目５番８号Ｎ．Ａｖｅｎｕｅ株式会社（2010001196768）に合併し解散,2019-02-07,1,,,,,コインデスクジャパン,0
1671,7010401072498,登記記録の閉鎖等,0,2024-03-08,2024-03-05,イントラード・ジャパン株式会社,,株式会社,東京都,新宿区,西新宿１丁目２０番３号西新宿高木ビル７階,00124326,13,104,1600023,,,2024-03-05,清算の結了等,,,2015-10-05,1,,,,,イントラードジャパン,0
1701,7011101014757,登記記録の閉鎖等,0,2024-03-08,2024-03-06,山手物産株式会社,,株式会社,東京都,西東京市,南町６丁目９番１６－２０４号,,13,229,1880012,,,2024-03-06,清算の結了等,,,2015-10-05,1,,,,,,0
1724,7011802001418,登記記録の閉鎖等,0,2024-03-08,2024-03-05,有限会社オートサービスタカハシ,,有限会社,東京都,葛飾区,東立石２丁目２２番２号,,13,122,1240013,,,2024-03-05,清算の結了等,,,2015-10-05,1,,,,,オートサービスタカハシ,0
1729,7012402014603,登記記録の閉鎖等,0,2024-03-08,2024-03-05,有限会社ピー・シー・イー,,有限会社,東京都,調布市,柴崎１丁目４３番地６,,13,208,1820014,,,2024-03-05,清算の結了等,,,2015-10-05,1,,,,,,0
1745,7020002069141,登記記録の閉鎖等,0,2024-03-08,2024-03-04,有限会社神奈川十壱屋,,有限会社,神奈川県,横浜市中区,山元町３丁目１２９番地５,,14,104,2310851,,,2024-03-04,清算の結了等,,,2015-10-05,1,,,,,カナガワジュウイチヤ,0
1752,7021001061353,登記記録の閉鎖等,0,2024-03-08,2024-03-06,株式会社エム・エム,,株式会社,神奈川県,横須賀市,若松町１丁目２１番地１０,,14,201,2380007,,,2024-03-06,合併による解散等,1021002052101,令和６年３月１日東京都千代田区岩本町三丁目２番４号岩本町ビル９階ＭＭクリエイティブコネクト株式会社（1021002052101）に合併し解散,2017-02-13,1,,,,,エムエム,0
1775,7040002043937,登記記録の閉鎖等,0,2024-03-08,2024-03-04,相美伊有限会社,,有限会社,千葉県,松戸市,常盤平２丁目１２番地の１９,,12,207,2702261,,,2024-03-04,清算の結了等,,,2015-10-05,1,,,,,アイビイ,0
1784,7050003005266,登記記録の閉鎖等,0,2024-03-08,2024-02-26,合同会社Ａｎａｔｉｏｎ,,合同会社,茨城県,水戸市,大塚町１８５７－１グランヒルナイン２０５,,08,201,3114143,,,2024-02-26,清算の結了等,,,2020-07-07,1,,,,,エーネイション,0
1785,7060002020067,登記記録の閉鎖等,0,2024-03-08,2024-01-24,有限会社幸春,,有限会社,栃木県,鹿沼市,茂呂４７番地１,,09,205,3220026,,,2024-01-24,清算の結了等,,,2023-10-24,1,,,,,コウシュン,0
1796,7080401018445,登記記録の閉鎖等,0,2024-03-08,2024-03-07,ユニクラス株式会社,,株式会社,静岡県,浜松市中央区,中央３丁目７番１－８０４号ハーモニア新町,,22,138,4300929,,,2024-03-07,清算の結了等,,,2015-10-05,1,,,,,,0
1816,7120001204151,登記記録の閉鎖等,0,2024-03-08,2024-03-01,大阪レンタカー株式会社,,株式会社,大阪府,大阪市浪速区,元町１丁目１４番６－２０２号,,27,111,5560016,,,2024-03-01,合併による解散等,7120001161483,令和６年３月１日大阪市浪速区難波中二丁目８番９９号株式会社武嶋（7120001161483）に合併し解散,2017-03-07,1,,,,,オオサカレンタカー,0
1830,7120101033285,登記記録の閉鎖等,0,2024-03-08,2024-03-06,株式会社ソレールプラス,,株式会社,大阪府,茨木市,並木町１８番１５号,,27,211,5670892,,,2024-03-06,清算の結了等,,,2015-10-05,1,,,,,ソレールプラス,0
1831,7120901042015,登記記録の閉鎖等,0,2024-03-08,2024-03-07,株式会社錬輝,,株式会社,大阪府,高槻市,五領町１９－１６,,27,207,5690016,,,2024-03-07,清算の結了等,,,2019-11-14,1,,,,,レンキ,0
1850,7150005008620,登記記録の閉鎖等,0,2024-03-08,2024-03-07,一般社団法人こころエーアイネット,,その他の設立登記法人,奈良県,磯城郡田原本町,大字千代２５番地の１４,,29,363,6360246,,,2024-03-07,清算の結了等,,,2015-10-05,1,,,,,ココロエーアイネット,0
1868,7180002004974,登記記録の閉鎖等,0,2024-03-08,2024-02-29,野田実業有限会社,,有限会社,愛知県,名古屋市名東区,宝が丘９番地の４,,23,115,4650043,,,2024-02-29,清算の結了等,,,2015-10-05,1,,,,,ノダジツギョウ,0
1869,7180002050606,登記記録の閉鎖等,0,2024-03-08,2024-03-01,有限会社ダンク,,有限会社,愛知県,名古屋市天白区,一本松１丁目１０４番地,,23,116,4680008,,,2024-03-01,合併による解散等,3180001064123,令和６年３月１日名古屋市天白区一本松一丁目１０４番地株式会社ＮＫプランニング（3180001064123）に合併し解散,2015-10-05,1,,,,,ダンク,0
1872,7180003012984,登記記録の閉鎖等,0,2024-03-08,2024-02-20,合名会社丸ツ新美,,合名会社,愛知県,知多郡東浦町,大字藤江字上廻間２５番地,,23,442,4702105,,,2024-02-20,清算の結了等,,,2015-10-05,1,,,,,マルツニイミ,0
1875,7180301005665,登記記録の閉鎖等,0,2024-03-08,2024-03-01,株式会社三洋技研,,株式会社,愛知県,豊橋市,浜道町字管石３１番地３,,23,201,4418117,,,2024-03-01,清算の結了等,,,2015-10-05,1,,,,,サンヨウギケン,0
1882,7240002036862,登記記録の閉鎖等,0,2024-03-08,2024-03-05,有限会社ファミリー企画,,有限会社,広島県,廿日市市,陽光台２丁目３番地９,,34,213,7380060,,,2024-03-05,清算の結了等,,,2015-10-05,1,,,,,ファミリーキカク,0
1885,7250002006047,登記記録の閉鎖等,0,2024-03-08,2024-03-06,有限会社大谷設計事務所,,有限会社,山口県,山陽小野田市,大字有帆９３８番地の３,,35,216,7560038,,,2024-03-06,清算の結了等,,,2015-10-05,1,,,,,オオタニセッケイジムショ,0
1888,7260002005997,登記記録の閉鎖等,0,2024-03-08,2024-03-06,有限会社高岡製作所,00003436,有限会社,岡山県,岡山市北区,富町２丁目５番８号,,33,101,7000031,,,2024-03-06,清算の結了等,,,2015-10-05,1,,,,,タカオカセイサクショ,0
1892,7280001007299,登記記録の閉鎖等,0,2024-03-08,2024-03-01,創電工業株式会社,,株式会社,島根県,松江市,宍道町西来待６７６番地１,,32,201,6990403,,,2024-03-01,合併による解散等,8280001000071,令和６年３月１日島根県松江市東朝日町２７５番地１一畑住設株式会社（8280001000071）に合併し解散,2016-09-21,1,,,,,ソウデンコウギョウ,0
1894,7290001006250,登記記録の閉鎖等,0,2024-03-08,2024-03-01,株式会社インターナショナルマーケットサービス,,株式会社,福岡県,福岡市中央区,白金１丁目１８番６号,,40,133,8100012,,,2024-03-01,清算の結了等,,,2015-10-05,1,,,,,インターナショナルマーケットサービス,0
1900,7290002007537,登記記録の閉鎖等,0,2024-03-08,2024-03-01,有限会社アサダホーム企画,,有限会社,福岡県,福岡市早良区,東入部８丁目３番１１号,,40,137,8111102,,,2024-03-01,清算の結了等,,,2015-10-05,1,,,,,アサダホームキカク,0
1928,7410001012822,登記記録の閉鎖等,0,2024-03-08,2024-02-06,みちのく麺匠グローバルアドバイザーズ株式会社,00122877,株式会社,秋田県,秋田市,寺内後城１６番６５号,,05,201,0110906,,,2024-02-06,清算の結了等,,,2021-04-27,1,,,,,ミチノクメンショウグローバルアドバイザーズ,0
1929,7410003003803,登記記録の閉鎖等,0,2024-03-08,2024-03-04,合同会社八伸ＨＤ．,,合同会社,秋田県,横手市,赤川字村北荒堰間１７６番地１,,05,203,0130073,,,2024-03-04,清算の結了等,,,2023-05-24,1,,,,,ハッシンホールディングス,0
1944,7470002014390,登記記録の閉鎖等,0,2024-03-08,2024-02-29,有限会社ふぁいぶびいんず,,有限会社,香川県,丸亀市,綾歌町岡田東８８９番地１,,37,202,7612404,,,2024-02-29,清算の結了等,,,2015-10-05,1,,,,,ファイブビインズ,0
1966,8010401159096,登記記録の閉鎖等,0,2024-03-08,2024-03-04,Ｂｉｌｉｂｉｌｉ　Ｃｏｍｉｃｓ株式会社,,株式会社,東京都,港区,六本木７丁目１８番１８号,,13,103,1060032,,,2024-03-04,清算の結了等,,,2021-03-29,1,,,,,ビリビリコミックス,0
1989,8011002017676,登記記録の閉鎖等,0,2024-03-08,2024-02-26,有限会社岡部則之計画工房,,有限会社,東京都,渋谷区,代々木２丁目１８番８号むら第７ビル５階,,13,113,1510053,,,2024-02-26,清算の結了等,,,2015-10-05,1,,,,,オカベノリユキケイカクコウボウ,0
1997,8011105002880,登記記録の閉鎖等,0,2024-03-08,2024-01-25,特定非営利活動法人国際環境保全協会,,その他の設立登記法人,東京都,新宿区,坂町６番地,,13,104,1600000,,,2024-01-25,登記官による閉鎖,,,2015-10-05,1,,,,,,0
2017,8013102001403,登記記録の閉鎖等,0,2024-03-08,2024-03-04,有限会社橋本梱包,,有限会社,東京都,羽村市,神明台３丁目２０番地の３,,13,227,2050023,,,2024-03-04,清算の結了等,,,2015-10-05,1,,,,,,0
2018,8013301021012,登記記録の閉鎖等,0,2024-03-08,2024-03-05,株式会社ユーサムコーポレーション,,株式会社,東京都,文京区,関口１丁目２３番６号プラザ江戸川橋１１６号室,,13,105,1120014,,,2024-03-05,合併による解散等,2011101038208,令和６年３月１日東京都新宿区山吹町３３５番地安井ビル３階ユーサムトラスト株式会社（2011101038208）に合併し解散,2015-10-05,1,,,,,ユーサムコーポレーション,0
2028,8020001083514,登記記録の閉鎖等,0,2024-03-08,2024-03-04,ＮＥＣモバイルコミュニケーションズ株式会社,,株式会社,神奈川県,川崎市中原区,下沼部１７５３番地,,14,133,2110011,,,2024-03-04,清算の結了等,,,2015-10-05,1,,,,,エヌイーシーモバイルコミュニケーションズ,0
2040,8020002066518,登記記録の閉鎖等,0,2024-03-08,2024-03-04,有限会社森田工務店,,有限会社,神奈川県,横浜市泉区,中田西４丁目２９番６号,,14,116,2450015,,,2024-03-04,清算の結了等,,,2015-10-05,1,,,,,モリタコウムテン,0
2050,8030001133730,登記記録の閉鎖等,0,2024-03-08,2024-03-01,プラスエステート株式会社,,株式会社,埼玉県,さいたま市大宮区,宮町２丁目７９番地７プラスビル６階,,11,103,3300802,,,2024-03-01,合併による解散等,1030001009771,令和６年３月１日埼玉県さいたま市西区三橋五丁目６３５番地無垢スタイル建築設計株式会社（1030001009771）に合併し解散,2019-11-12,1,,,,,プラスエステート,0
2056,8030002088494,登記記録の閉鎖等,0,2024-03-08,2024-03-01,有限会社吉澤ビル,,有限会社,埼玉県,越谷市,南越谷２丁目５番３０号,,11,222,3430845,,,2024-03-01,合併による解散等,9030002088163,令和６年３月１日埼玉県越谷市南越谷二丁目５番３０号株式会社プログレスジャパン（9030002088163）に合併し解散,2015-10-05,1,,,,,ヨシザワビル,0
2059,8040001023939,登記記録の閉鎖等,0,2024-03-08,2024-01-25,株式会社リンクエージェンシー,,株式会社,千葉県,八千代市,勝田台北１丁目３番１６号勝田台ＴＳビル３Ｆ,,12,221,2760020,,,2024-01-25,清算の結了等,,,2015-10-05,1,,,,,リンクエージェンシー,0
2067,8040002083692,登記記録の閉鎖等,0,2024-03-08,2024-03-05,有限会社カトー自動車センター,,有限会社,千葉県,香取郡多古町,多古３２４７番地９,,12,347,2892241,,,2024-03-05,清算の結了等,,,2015-10-05,1,,,,,カトージドウシャセンター,0
2069,8050001007271,登記記録の閉鎖等,0,2024-03-08,2024-03-04,株式会社椎野商事,,株式会社,茨城県,東茨城郡大洗町,磯浜町３６０２番地の２,,08,309,3111301,,,2024-03-04,清算の結了等,,,2015-10-05,1,,,,,シイノショウジ,0
2079,8080002017069,登記記録の閉鎖等,0,2024-03-08,2024-03-06,有限会社ベジタブル東海,,有限会社,静岡県,焼津市,中新田１５０２番地の３,,22,212,4250068,,,2024-03-06,清算の結了等,,,2015-10-05,1,,,,,ベジタブルトウカイ,0
2084,8110005005505,登記記録の閉鎖等,0,2024-03-08,2024-03-06,医療法人社団小出医院,,その他の設立登記法人,新潟県,三条市,本町４丁目２番１０号,,15,204,9550071,,,2024-03-06,清算の結了等,,,2015-10-05,1,,,,,コイデイイン,0
2102,8120002062300,登記記録の閉鎖等,0,2024-03-08,2024-03-06,有限会社Ｐ＆Ｍ商會,,有限会社,大阪府,吹田市,古江台１丁目６番５号,,27,205,5650874,,,2024-03-06,清算の結了等,,,2015-10-05,1,,,,,ピーアンドエムショウカイ,0
2144,8180001058649,登記記録の閉鎖等,0,2024-03-08,2024-03-01,株式会社アクションテック,,株式会社,愛知県,名古屋市北区,光音寺町字野方１９１８番地の５９,,23,103,4620053,,,2024-03-01,清算の結了等,,,2015-10-05,1,,,,,アクションテック,0
2147,8180002043105,登記記録の閉鎖等,0,2024-03-08,2024-03-01,有限会社福祉館,,有限会社,愛知県,日進市,北新町南鶯５１４番地１,,23,230,4700103,,,2024-03-01,合併による解散等,9180001104286,令和６年３月１日名古屋市西区山木二丁目１８番地株式会社エイルサポート（9180001104286）に合併し解散,2015-10-05,1,,,,,フクシカン,0
2162,8240002020584,登記記録の閉鎖等,0,2024-03-08,2024-03-01,有限会社リーヴ・プロダクト,,有限会社,広島県,広島市佐伯区,五日市中央２丁目１１番１号,,34,108,7315128,,,2024-03-01,合併による解散等,5240001052648,令和６年３月１日広島市佐伯区海老園一丁目６番９号株式会社ＳＫＹグループ（5240001052648）に合併し解散,2015-10-05,1,,,,,リーヴプロダクト,0
2164,8250002000528,登記記録の閉鎖等,0,2024-03-08,2024-03-06,有限会社国近不動産情報センター,,有限会社,山口県,山口市,小郡下郷８６１番地の１,,35,203,7540002,,,2024-03-06,清算の結了等,,,2015-10-05,1,,,,,クニチカフドウサンジョウホウセンター,0
2193,8370005008960,登記記録の閉鎖等,0,2024-03-08,2024-02-26,株式会社どんぐり農園仙台ファクトリー,,株式会社,宮城県,柴田郡川崎町,大字川内字朴木山３番地４,,04,324,9891503,,,2024-02-26,合併による解散等,7370101001548,令和６年２月２３日宮城県柴田郡川崎町大字川内字朴木山３番地４株式会社森の木の子工房（7370101001548）に合併し解散,2016-03-22,1,,,,,ドングリノウエンセンダイファクトリー,0
2201,8390001010720,登記記録の閉鎖等,0,2024-03-08,2024-03-07,吉野鉱山株式会社,,株式会社,山形県,南陽市,荻２５３５番地,,06,213,9920582,,,2024-03-07,清算の結了等,,,2015-10-05,1,,,,,ヨシノコウザン,0
2203,8410001002351,登記記録の閉鎖等,0,2024-03-08,2024-03-04,株式会社ホテル大和,,株式会社,秋田県,秋田市,土崎港中央１丁目６番３３号,,05,201,0110946,,,2024-03-04,清算の結了等,,,2015-10-05,1,,,,,ホテルダイワ,0
2216,8500005004319,登記記録の閉鎖等,0,2024-03-08,2024-03-07,ＮＰＯ法人守ってあげ隊,,その他の設立登記法人,愛媛県,新居浜市,山田町７番３３号,,38,205,7920837,,,2024-03-07,清算の結了等,,,2015-10-05,1,,,,,マモッテアゲタイ,0
2293,9012801016223,登記記録の閉鎖等,0,2024-03-08,2024-03-04,ＵＯＲＡＭＡ株式会社,,株式会社,東京都,立川市,栄町３丁目２２番地の１６,,13,202,1900003,,,2024-03-04,清算の結了等,,,2015-10-05,1,,,,,,0
2297,9013301030243,登記記録の閉鎖等,0,2024-03-08,2024-03-06,株式会社ウィングスファーマシー,,株式会社,東京都,豊島区,池袋本町１丁目４５番１６号,,13,116,1700011,,,2024-03-06,清算の結了等,,,2015-10-05,1,,,,,ウィングスファーマシー,0
2302,9020001081731,登記記録の閉鎖等,0,2024-03-08,2024-03-01,株式会社ホールハート,,株式会社,東京都,世田谷区,太子堂１丁目４番２４号萩藤ビル４階,,13,112,1540004,,,2024-03-01,合併による解散等,4011001144921,令和６年３月１日東京都世田谷区太子堂一丁目４番２４号萩藤ビル４階株式会社ホールハートエージェント（4011001144921）に合併し解散,2015-10-05,1,,,,,ホールハート,0
2305,9020002035744,登記記録の閉鎖等,0,2024-03-08,2024-02-29,有限会社豊進,,有限会社,神奈川県,横浜市港北区,高田町２１０５番地の２０,,14,109,2230063,,,2024-02-29,清算の結了等,,,2015-10-05,1,,,,,トヨシン,0
2325,9030002019300,登記記録の閉鎖等,0,2024-03-08,2024-03-04,有限会社シンセリティ,,有限会社,埼玉県,さいたま市北区,宮原町１丁目４６３番地３・３階,,11,102,3310812,,,2024-03-04,清算の結了等,,,2015-10-05,1,,,,,シンセリティ,0
2361,9110001036684,登記記録の閉鎖等,0,2024-03-08,2024-02-26,株式会社ＧｕｇｅｎｋａＲｅａｄｙ,,株式会社,新潟県,新潟市西区,内野西が丘２丁目９番８号,,15,107,9502157,,,2024-02-26,清算の結了等,,,2022-05-31,1,,,,,グゲンカレディ,0
2413,9160001016368,登記記録の閉鎖等,0,2024-03-08,2024-03-06,株式会社近畿リフレッシュサービス,,株式会社,滋賀県,守山市,焔魔堂町字円前２２５番地６,00049019,25,207,5240042,,,2024-03-06,清算の結了等,,,2015-10-05,1,,,,,キンキリフレッシュサービス,0
2415,9170001012705,登記記録の閉鎖等,0,2024-03-08,2024-03-07,株式会社ＴＳＵＣＨＩＹＡ,,株式会社,和歌山県,有田郡有田川町,大字天満６８番地２,,30,366,6430032,,,2024-03-07,清算の結了等,,,2015-10-05,1,,,,,ツチヤ,0
2423,9180001130621,登記記録の閉鎖等,0,2024-03-08,2024-03-01,株式会社ノリタック,,株式会社,愛知県,名古屋市熱田区,森後町１０の１パール熱田４０９号,,23,109,4560024,,,2024-03-01,清算の結了等,,,2017-12-27,1,,,,,ノリタック,0
2429,9180003003817,登記記録の閉鎖等,0,2024-03-08,2024-03-04,合資会社ナガ井薬局,,合資会社,愛知県,名古屋市西区,那古野２丁目１６番１３号,,23,104,4510042,,,2024-03-04,清算の結了等,,,2015-10-05,1,,,,,ナガイヤッキョク,0
2440,9200005009099,登記記録の閉鎖等,0,2024-03-08,2024-03-06,中津川市土地開発公社,,その他の設立登記法人,岐阜県,中津川市,かやの木町２番１号,,21,206,5080045,,,2024-03-06,清算の結了等,,,2015-10-05,1,,,,,,0
2441,9240002007812,登記記録の閉鎖等,0,2024-03-08,2024-03-06,有限会社清水ランドリー,,有限会社,広島県,広島市南区,旭１丁目９番２１号,,34,103,7340036,,,2024-03-06,清算の結了等,,,2015-10-05,1,,,,,シミズランドリー,0
2462,9290002014432,登記記録の閉鎖等,0,2024-03-08,2024-03-01,有限会社エックス,,有限会社,大阪府,大阪市中央区,伏見町３丁目３番３号,,27,128,5410044,,,2024-03-01,合併による解散等,2120001043208,令和６年３月１日大阪市北区茶屋町８番２１－３００４号甲陽株式会社（2120001043208）に合併し解散,2015-10-05,1,,,,,エックス,0
2484,9380001022393,登記記録の閉鎖等,0,2024-03-08,2024-03-06,株式会社Ｄｉｏ　Ａｍｂｉｔｉｏｕｓ　Ｊａｐａｎ,,株式会社,福島県,福島市,松川町浅川字台坂１番地の１,,07,201,9601245,,,2024-03-06,清算の結了等,,,2015-10-05,1,,,,,,0
