sequenceNumber,corporateNumber,process,correct,updateDate,changeDate,name,nameImageId,kind,prefectureName,cityName,streetNumber,addressImageId,prefectureCode,cityCode,postCode,addressOutside,addressOutsideImageId,closeDate,closeCause,successorCorporateNumber,changeCause,assignmentDate,latest,enName,enPrefectureName,enCityName,enAddressOutside,furigana,hihyoji
9,1010001224769,新規,0,2022-02-24,2022-02-24,千代田ホールディングス株式会社,,株式会社,東京都,千代田区,飯田橋４丁目７番１１号,,13,101,1020072,,,,,,,2022-02-24,1,,,,,チヨダホールディングス,0
10,1010001224785,新規,0,2022-02-24,2022-02-24,株式会社うせいさん,,株式会社,東京都,中央区,日本橋人形町１丁目１番２２号,,13,102,1030013,,,,,,,2022-02-24,1,,,,,ウセイサン,0
13,1010005034628,新規,0,2022-02-24,2022-02-24,一般財団法人アイム・ジャパン,,その他の設立登記法人,東京都,中央区,日本橋堀留町２丁目４番３号日本橋堀留町ビル７階,,13,102,1030012,,,,,,,2022-02-24,1,,,,,アイムジャパン,0
20,1010401165761,新規,0,2022-02-24,2022-02-24,株式会社ＨｏｏＫ,,株式会社,東京都,港区,赤坂２丁目１６－６ＢＩＺＭＡＲＫＳ赤坂,,13,103,1070052,,,,,,,2022-02-24,1,,,,,フック,0
21,1010403027142,新規,0,2022-02-24,2022-02-24,合同会社ＨＩＰＰＯ,,合同会社,東京都,港区,南青山２丁目２番１５号,,13,103,1070062,,,,,,,2022-02-24,1,,,,,ヒッポ,0
24,1010501048503,新規,0,2022-02-24,2022-02-24,Ｂ－Ａｗｅｓｏｍｅ株式会社,,株式会社,東京都,台東区,元浅草３丁目２２番８－１３０１号クリオ浅草弐番館,,13,106,1110041,,,,,,,2022-02-24,1,,,,,ビーオーサム,0
27,1010603009403,新規,0,2022-02-24,2022-02-24,ＧＥＮ　ＧＲＯＵＰ合同会社,,合同会社,東京都,江東区,大島１丁目１２番８号グランド大島１０４,,13,108,1360072,,,,,,,2022-02-24,1,,,,,ジェングループ,0
31,1010701042264,新規,0,2022-02-24,2022-02-24,株式会社ココディレクション,,株式会社,東京都,品川区,西五反田１丁目２６番２号五反田サンハイツビル９１１,,13,109,1410031,,,,,,,2022-02-24,1,,,,,ココディレクション,0
33,1010703006127,新規,0,2022-02-24,2022-02-24,ＡＳＯＢＩＮＯ－ＢＡＳＥ合同会社,,合同会社,東京都,品川区,東五反田１丁目７番１１号アイオス五反田アネックスビル,,13,109,1410022,,,,,,,2022-02-24,1,,,,,アソビノベース,0
40,1010903007172,新規,0,2022-02-24,2022-02-24,合同会社Ｚｅｎｍａｉ,,合同会社,東京都,世田谷区,奥沢２丁目１０－９－３０１,,13,112,1580083,,,,,,,2022-02-24,1,,,,,ゼンマイ,0
49,1011001145880,新規,0,2022-02-24,2022-02-24,株式会社ｄａｒｕｍａ,,株式会社,東京都,目黒区,碑文谷３丁目１６番２０－１０２号,,13,110,1520003,,,,,,,2022-02-24,1,,,,,ダルマ,0
50,1011001145889,新規,0,2022-02-24,2022-02-24,Ｅｎｎ＆ＣＯ株式会社,,株式会社,東京都,渋谷区,渋谷２丁目１９番１５号宮益坂ビルディング６０９,,13,113,1500002,,,,,,,2022-02-24,1,,,,,エンアンドコー,0
51,1011001145897,新規,0,2022-02-24,2022-02-24,えがく株式会社,,株式会社,東京都,渋谷区,千駄ヶ谷５丁目３０番８号,,13,113,1510051,,,,,,,2022-02-24,1,,,,,エガク,0
52,1011001145906,新規,0,2022-02-24,2022-02-24,株式会社デルマドール,,株式会社,東京都,渋谷区,神宮前６丁目２３番４号桑野ビル２階,,13,113,1500001,,,,,,,2022-02-24,1,,,,,デルマドール,0
53,1011001145930,新規,0,2022-02-24,2022-02-24,株式会社Ａｖｅｎｉｒ　Ｂｒｉｌｌａｎｔ,,株式会社,東京都,渋谷区,富ヶ谷１丁目４４番２１号,,13,113,1510063,,,,,,,2022-02-24,1,,,,,アヴニールブリヨン,0
58,1011005009438,新規,0,2022-02-24,2022-02-24,特定非営利活動法人Ｉｎｔｅｒｎａｔｉｏｎａｌ　Ｍｉｎｄ　ｂｕｉｌｄｉｎｇ　Ａｓｓｏｃｉａｔｉｏｎ,,その他の設立登記法人,東京都,渋谷区,神宮前２丁目３２番１１号２Ｆ,,13,113,1500001,,,,,,,2022-02-24,1,,,,,インターナショナルマインドビルディングアソシエーション,0
59,1011101097915,新規,0,2022-02-24,2022-02-24,日本機能性衣料株式会社,,株式会社,東京都,新宿区,新宿１丁目３６番２号新宿第七葉山ビル３階,,13,104,1600022,,,,,,,2022-02-24,1,,,,,ニッポンキノウセイイリョウ,0
61,1011103011502,新規,0,2022-02-24,2022-02-24,Ｌａｔｏ合同会社,,合同会社,東京都,新宿区,西新宿３丁目３番１３号,,13,104,1600023,,,,,,,2022-02-24,1,,,,,ラート,0
68,1011401024049,新規,0,2022-02-24,2022-02-24,株式会社ぼくのひみつきち,,株式会社,東京都,板橋区,常盤台３丁目２番１５号ル・ミューゲときわ台１０３号室,,13,119,1740071,,,,,,,2022-02-24,1,,,,,ボクノヒミツキチ,0
69,1011501027777,新規,0,2022-02-24,2022-02-24,Ｇｏｏｍａｘ　Ｅｎｅｒｇｙ株式会社,,株式会社,東京都,北区,中十条４丁目６番１０号,,13,117,1140032,,,,,,,2022-02-24,1,,,,,グーマックスエナジー,0
73,1011603003536,新規,0,2022-02-24,2022-02-24,合同会社ｉｄｅａｌ,,合同会社,東京都,練馬区,大泉学園町８丁目１０－１８－４１０,,13,120,1780061,,,,,,,2022-02-24,1,,,,,アイディール,0
82,1012401038880,新規,0,2022-02-24,2022-02-24,萩原建設株式会社,,株式会社,東京都,多摩市,諏訪２丁目２番地Ｄ－００６,,13,224,2060024,,,,,,,2022-02-24,1,,,,,ハギワラケンセツ,0
94,1020001145270,新規,0,2022-02-24,2022-02-24,ミッチちゃん株式会社,,株式会社,神奈川県,横浜市西区,宮崎町４８番地７,,14,103,2200031,,,,,,,2022-02-24,1,,,,,ミッチチャン,0
95,1020001145345,新規,0,2022-02-24,2022-02-24,株式会社ＭＡ－１,,株式会社,神奈川県,川崎市幸区,塚越２丁目１８６,,14,132,2120024,,,,,,,2022-02-24,1,,,,,エムエーワン,0
98,1020003021321,新規,0,2022-02-24,2022-02-24,合同会社ミライ,,合同会社,神奈川県,川崎市高津区,下野毛３丁目９番２号,,14,134,2130006,,,,,,,2022-02-24,1,,,,,ミライ,0
103,1021001075243,新規,0,2022-02-24,2022-02-24,株式会社ＴＳ,,株式会社,神奈川県,逗子市,池子２丁目１１番４号神武寺ハイム２０３号,,14,208,2490003,,,,,,,2022-02-24,1,,,,,ティーエス,0
104,1021001075251,新規,0,2022-02-24,2022-02-24,株式会社エレライト,,株式会社,神奈川県,横須賀市,根岸町５丁目２９番２５－３０５号,,14,201,2390807,,,,,,,2022-02-24,1,,,,,エレライト,0
106,1021003011411,新規,0,2022-02-24,2022-02-24,鴻運合同会社,,合同会社,神奈川県,平塚市,大神１９３３番地の４－２Ｆ,,14,203,2540012,,,,,,,2022-02-24,1,,,,,コウウン,0
107,1021003011428,新規,0,2022-02-24,2022-02-24,合同会社ぶれえめん大船,,合同会社,神奈川県,鎌倉市,大船１丁目１１－２０,,14,204,2470056,,,,,,,2022-02-24,1,,,,,ブレエメンオオフナ,0
114,1030001146895,新規,0,2022-02-24,2022-02-24,株式会社白根サイトウ,,株式会社,埼玉県,草加市,西町８５番地５,,11,221,3400035,,,,,,,2022-02-24,1,,,,,シラネサイトウ,0
115,1030001146912,新規,0,2022-02-24,2022-02-24,株式会社ａｒｒｏｗｓ,,株式会社,埼玉県,上尾市,壱丁目北６番地４,,11,219,3620081,,,,,,,2022-02-24,1,,,,,アローズ,0
118,1030005020725,新規,0,2022-02-24,2022-02-24,一般社団法人高品質住宅,,その他の設立登記法人,埼玉県,さいたま市大宮区,桜木町４丁目２４４番地１都築ビル,,11,103,3300854,,,,,,,2022-02-24,1,,,,,コウヒンシツジュウタク,0
121,1040001122284,新規,0,2022-02-24,2022-02-24,Ｅｏｎｅファーム株式会社,,株式会社,千葉県,君津市,東坂田２丁目２番地ＳＵＱＲＥビル２Ｆ,,12,225,2991144,,,,,,,2022-02-24,1,,,,,イーワンファーム,0
122,1040001122292,新規,0,2022-02-24,2022-02-24,株式会社２,,株式会社,千葉県,我孫子市,我孫子４丁目２１番３５号２０２,,12,222,2701166,,,,,,,2022-02-24,1,,,,,ニジョウ,0
123,1040001122318,新規,0,2022-02-24,2022-02-24,アストライト株式会社,,株式会社,千葉県,市川市,高谷３丁目４番１２号,,12,203,2720013,,,,,,,2022-02-24,1,,,,,アストライト,0
124,1040001122326,新規,0,2022-02-24,2022-02-24,株式会社アサイン,,株式会社,千葉県,船橋市,西浦２丁目４番１号ＯＭビル１Ｆ,,12,204,2730017,,,,,,,2022-02-24,1,,,,,アサイン,0
126,1040003019529,新規,0,2022-02-24,2022-02-24,合同会社ＹＫＹＲ,,合同会社,千葉県,千葉市中央区,富士見２丁目１８番５号ＭＤビル３０１,,12,101,2600015,,,,,,,2022-02-24,1,,,,,ワイケイワイアール,0
127,1040003019553,新規,0,2022-02-24,2022-02-24,合同会社ステルス,,合同会社,千葉県,柏市,豊四季台３丁目１番１３－２１１号,,12,217,2770845,,,,,,,2022-02-24,1,,,,,ステルス,0
128,1040003019561,新規,0,2022-02-24,2022-02-24,合同会社ＴＥＮＫＡＩ,,合同会社,千葉県,千葉市美浜区,高浜１丁目１４番,,12,106,2610003,,,,,,,2022-02-24,1,,,,,テンカイ,0
129,1050001050674,新規,0,2022-02-24,2022-02-24,株式会社ＧＡＵ,,株式会社,茨城県,つくば市,花室１０２９番地,,08,220,3050025,,,,,,,2022-02-24,1,,,,,ガウ,0
132,1060001034585,新規,0,2022-02-24,2022-02-24,栃木溶接株式会社,,株式会社,栃木県,真岡市,大谷台町３９番地１６,,09,209,3214338,,,,,,,2022-02-24,1,,,,,トチギヨウセツ,0
133,1060001034593,新規,0,2022-02-24,2022-02-24,株式会社福道,,株式会社,栃木県,宇都宮市,春日町１７－１４サンエフケイ１－１０２,,09,201,3210108,,,,,,,2022-02-24,1,,,,,フクミチ,0
138,1070003004395,新規,0,2022-02-24,2022-02-24,合同会社エスアンドワイワーカーズ,,合同会社,群馬県,高崎市,新町１２６１番地１３,,10,202,3701301,,,,,,,2022-02-24,1,,,,,エスアンドワイワーカーズ,0
142,1070005009954,新規,0,2022-02-24,2022-02-24,一般社団法人ハレルワ,,その他の設立登記法人,群馬県,前橋市,千代田町４丁目１８番地４号,,10,201,3710022,,,,,,,2022-02-24,1,,,,,ハレルワ,0
144,1080001024774,新規,0,2022-02-24,2022-02-24,株式会社ＶＥｗｏｒｋｓ,,株式会社,静岡県,静岡市葵区,末広町１１１番地,,22,101,4200004,,,,,,,2022-02-24,1,,,,,ブイイーワークス,0
145,1080101023115,新規,0,2022-02-24,2022-02-24,株式会社ｓｉｏｎ．ａ,,株式会社,静岡県,御殿場市,中畑４８７番地の２６,,22,215,4120006,,,,,,,2022-02-24,1,,,,,ソワンドエー,0
151,1100003006421,新規,0,2022-02-24,2022-02-24,オガワハウス合同会社,,合同会社,長野県,松本市,桐１丁目６番１４号,,20,202,3900871,,,,,,,2022-02-24,1,,,,,オガワハウス,0
155,1110003004705,新規,0,2022-02-24,2022-02-24,ＰｒａｎａＰｒｏｄｕｃｔｓ合同会社,,合同会社,新潟県,新潟市中央区,鐙西２丁目３５番１３号ダイアパレス鐙西１０９号,,15,103,9500915,,,,,,,2022-02-24,1,,,,,プラナプロダクツ,0
167,1120001243931,新規,0,2022-02-24,2022-02-24,株式会社果木堂,,株式会社,大阪府,守口市,京阪北本通２番１号,,27,209,5700094,,,,,,,2022-02-24,1,,,,,カモクドウ,0
168,1120001243972,新規,0,2022-02-24,2022-02-24,株式会社Ｌｉｎｋ,,株式会社,大阪府,大阪市中央区,東心斎橋１丁目３－３－２５０４号室,,27,128,5420083,,,,,,,2022-02-24,1,,,,,リンク,0
170,1120003021063,新規,0,2022-02-24,2022-02-24,合同会社向井ｉ,,合同会社,大阪府,大阪市中央区,本町４丁目８番１号ＳＤ本町ビル７０２号,,27,128,5410053,,,,,,,2022-02-24,1,,,,,ムカイイ,0
171,1120003021187,新規,0,2022-02-24,2022-02-24,合同会社Ｓ＆Ｉ　Ｄｅｓｉｇｎ　Ｗｏｒｋｓ,,合同会社,大阪府,大阪市城東区,鴫野東３丁目３－６ＣａｓｔｌｅＣｏａｔ大阪城東,,27,118,5360013,,,,,,,2022-02-24,1,,,,,エスアンドアイデザインワークス,0
172,1120003021195,新規,0,2022-02-24,2022-02-24,合同会社アプリコットツリー,,合同会社,大阪府,枚方市,南楠葉１丁目６６番７－６０１号,,27,210,5731105,,,,,,,2022-02-24,1,,,,,アプリコットツリー,0
175,1120005022811,新規,0,2022-02-24,2022-02-24,未来都市デザイン事業協同組合,,その他の設立登記法人,大阪府,大阪市中央区,東高麗橋１番６号清水不動産ビル４０２,,27,128,5400039,,,,,,,2022-02-24,1,,,,,ミライトシデザインジギョウ,0
183,1120101065103,新規,0,2022-02-24,2022-02-24,株式会社Ａｇｉｌｅａｐ,,株式会社,大阪府,堺市東区,北野田１０００－１０８,,27,143,5998123,,,,,,,2022-02-24,1,,,,,アジャイリープ,0
184,1120103004587,新規,0,2022-02-24,2022-02-24,都市情報基盤合同会社,,合同会社,大阪府,羽曳野市,はびきの５丁目６－２８,,27,222,5830872,,,,,,,2022-02-24,1,,,,,トシジョウホウキバン,0
186,1120905006285,新規,0,2022-02-24,2022-02-24,特定非営利活動法人あしすと,,その他の設立登記法人,大阪府,摂津市,三島３丁目１－２９第３セントラルハイツ１０１号,,27,224,5660022,,,,,,,2022-02-24,1,,,,,アシスト,0
187,1122001035607,新規,0,2022-02-24,2022-02-24,株式会社ＳＭＡＲＫ,,株式会社,大阪府,大東市,寺川４丁目６番１８号,,27,218,5740014,,,,,,,2022-02-24,1,,,,,スマーク,0
193,1140001124989,新規,0,2022-02-24,2022-02-24,株式会社堀市,,株式会社,兵庫県,加古川市,野口町長砂７０７番地,,28,210,6750016,,,,,,,2022-02-24,1,,,,,ホリイチ,0
196,1150005009376,新規,0,2022-02-24,2022-02-24,一般社団法人ひらく,,その他の設立登記法人,奈良県,生駒市,北新町１７番１１号,,29,209,6300245,,,,,,,2022-02-24,1,,,,,ヒラク,0
201,1180001150057,新規,0,2022-02-24,2022-02-24,株式会社エレミ,,株式会社,愛知県,名古屋市瑞穂区,彌富町字円山５番地の１,,23,108,4670033,,,,,,,2022-02-24,1,,,,,エレミ,0
202,1180001150065,新規,0,2022-02-24,2022-02-24,株式会社ＡＴＨＬＩＳＴＡ,,株式会社,愛知県,名古屋市中区,錦３丁目１５番３１号,,23,106,4600003,,,,,,,2022-02-24,1,,,,,アスリスタ,0
203,1180001150098,新規,0,2022-02-24,2022-02-24,株式会社ＳＲＹ,,株式会社,愛知県,日進市,岩崎町新ラ田８７－１８,,23,230,4700131,,,,,,,2022-02-24,1,,,,,スライ,0
204,1180001150115,新規,0,2022-02-24,2022-02-24,株式会社セルティス,,株式会社,愛知県,名古屋市千種区,春里町２丁目５番地の１８,,23,101,4640038,,,,,,,2022-02-24,1,,,,,セルティス,0
207,1180003023525,新規,0,2022-02-24,2022-02-24,合同会社ネスレコンサルトオフィス,,合同会社,愛知県,名古屋市守山区,瀬古１丁目１３２４番地ダイアパレス矢田リバーズガーデン６０５号,,23,113,4630068,,,,,,,2022-02-24,1,,,,,ネスレコンサルトオフィス,0
208,1180003023533,新規,0,2022-02-24,2022-02-24,合同会社Ｏ．ｗ．Ｌ,,合同会社,愛知県,半田市,勘内町４８番地,,23,205,4750877,,,,,,,2022-02-24,1,,,,,アウル,0
214,1200003005470,新規,0,2022-02-24,2022-02-24,合同会社ライブライフ,,合同会社,岐阜県,関市,下有知１１８５番地４,,21,205,5013217,,,,,,,2022-02-24,1,,,,,ライブライフ,0
218,1230001019247,新規,0,2022-02-24,2022-02-24,株式会社Ｍドラッグ,,株式会社,富山県,富山市,大町７番地,,16,201,9398073,,,,,,,2022-02-24,1,,,,,エムドラッグ,0
219,1230003001806,新規,0,2022-02-24,2022-02-24,合同会社ＥＮＲＩＣＨ,,合同会社,富山県,高岡市,駅南３丁目３番９号,,16,202,9330871,,,,,,,2022-02-24,1,,,,,エンリッチ,0
221,1240001059358,新規,0,2022-02-24,2022-02-24,いろはクリエイティブデザイン株式会社,,株式会社,広島県,広島市中区,本通７－２９アイビービル７Ｆ,,34,101,7300035,,,,,,,2022-02-24,1,,,,,イロハクリエイティブデザイン,0
225,1240003005517,新規,0,2022-02-24,2022-02-24,合同会社バリアフリー,,合同会社,広島県,広島市東区,二葉の里２丁目８－１５,,34,102,7320057,,,,,,,2022-02-24,1,,,,,バリアフリー,0
226,1250001019427,新規,0,2022-02-24,2022-02-24,株式会社はらしん,,株式会社,山口県,周南市,昭和通２丁目２３番地,,35,215,7450013,,,,,,,2022-02-24,1,,,,,ハラシン,0
228,1260001036561,新規,0,2022-02-24,2022-02-24,株式会社Ｎ　Ｉ　ＣＯＭＰＡＮＹ,,株式会社,岡山県,倉敷市,玉島阿賀崎２４６４番地１,,33,202,7138121,,,,,,,2022-02-24,1,,,,,エヌアイカンパニー,0
232,1270001008460,新規,0,2022-02-24,2022-02-24,株式会社ＳＡＯＲＩ　ＹＡＭＡＭＵＲＡ　ＡＢＵＮＤＡＮＴＩＡ,,株式会社,鳥取県,鳥取市,新７８番地２１,,31,201,6800861,,,,,,,2022-02-24,1,,,,,サオリヤマムラアバンダンティア,0
245,1320001018917,新規,0,2022-02-24,2022-02-24,株式会社Ｌａｕｇｈｋｉｎｇ　Ｃｏｍｐａｎｙ,,株式会社,大分県,臼杵市,野津町大字柚野木２の２５７６番地の１,,44,206,8750236,,,,,,,2022-02-24,1,,,,,ラッフィンカンパニー,0
246,1330003009252,新規,0,2022-02-24,2022-02-24,合同会社Ｌａｙｅｒｓ,,合同会社,熊本県,熊本市中央区,春竹町大字春竹４８６番地１,,43,101,8600815,,,,,,,2022-02-24,1,,,,,レイヤーズ,0
247,1330005010472,新規,0,2022-02-24,2022-02-24,医療法人坂本内科循環器科医院,,その他の設立登記法人,熊本県,熊本市東区,江津２丁目２６－２０,,43,102,8620942,,,,,,,2022-02-24,1,,,,,サカモトナイカジュンカンキカイイン,0
248,1340001024500,新規,0,2022-02-24,2022-02-24,株式会社あかり福祉会,,株式会社,鹿児島県,曽於市,財部町南俣３５６５番地１,,46,217,8994101,,,,,,,2022-02-24,1,,,,,アカリフクシカイ,0
249,1360001030042,新規,0,2022-02-24,2022-02-24,株式会社グロウアップ,,株式会社,沖縄県,沖縄市,上地２丁目２番１３号,,47,211,9040031,,,,,,,2022-02-24,1,,,,,グロウアップ,0
254,1370001048240,新規,0,2022-02-24,2022-02-24,Ｒｅｎｅｅ株式会社,,株式会社,宮城県,仙台市青葉区,上杉１丁目４番８号,,04,101,9800011,,,,,,,2022-02-24,1,,,,,レネ,0
255,1370005010444,新規,0,2022-02-24,2022-02-24,特定非営利活動法人健康経営サポート協会,,その他の設立登記法人,宮城県,仙台市若林区,六丁の目西町３番３３－７０５号,,04,103,9840011,,,,,,,2022-02-24,1,,,,,ケンコウケイエイサポートキョウカイ,0
257,1380001032598,新規,0,2022-02-24,2022-02-24,株式会社テンフィート,,株式会社,福島県,郡山市,喜久田町堀之内字松山池東２２番地の６,,07,203,9630541,,,,,,,2022-02-24,1,,,,,テンフィート,0
260,1380003005107,新規,0,2022-02-24,2022-02-24,合同会社関本ベース,,合同会社,福島県,南会津郡南会津町,関本字上道下４３７－２,,07,368,9670013,,,,,,,2022-02-24,1,,,,,,0
261,1380005012539,新規,0,2022-02-24,2022-02-24,一般社団法人佐藤道雄記念会,,その他の設立登記法人,福島県,郡山市,安積町日出山４丁目１５６番地３,,07,203,9630101,,,,,,,2022-02-24,1,,,,,サトウミチオキネンカイ,0
262,1390001016798,新規,0,2022-02-24,2022-02-24,株式会社ランフォワード,,株式会社,山形県,山形市,大字風間６７番地３,,06,201,9902221,,,,,,,2022-02-24,1,,,,,ランフォワード,0
270,1430001086052,新規,0,2022-02-24,2022-02-24,株式会社オール申請サポート,,株式会社,北海道,札幌市厚別区,厚別西三条２丁目１番１号,,01,108,0040063,,,,,,,2022-02-24,1,,,,,オールシンセイ,0
276,1460101007145,新規,0,2022-02-24,2022-02-24,株式会社しかおい水素ファーム,,株式会社,北海道,河東郡鹿追町,鹿追北４線５番地,,01,634,0810216,,,,,,,2022-02-24,1,,,,,シカオイスイソファーム,0
278,1480001011658,新規,0,2022-02-24,2022-02-24,株式会社キミラボ,,株式会社,徳島県,徳島市,伊月町１丁目４９番地,,36,201,7700935,,,,,,,2022-02-24,1,,,,,キミラボ,0
283,1500003002776,新規,0,2022-02-24,2022-02-24,合同会社うさぎ総合研究所,,合同会社,愛媛県,松山市,三番町１丁目１３番地９－２０１号,,38,201,7900003,,,,,,,2022-02-24,1,,,,,ウサギソウゴウケンキュウショ,0
284,1700150107168,新規,0,2022-02-24,2022-02-24,大今租賃有限公司,,外国会社等,,,,,,,,台湾　臺北市大同区民蓋西路１０６－３－１,,,,,,2022-02-24,1,,,,,ダイコンソチンユウゲンコウシ,0
296,2010001224710,新規,0,2022-02-24,2022-02-24,株式会社インシュアランス・サポート,,株式会社,東京都,千代田区,丸の内２丁目２番１号岸本ビルヂング６Ｆ,,13,101,1000005,,,,,,,2022-02-24,1,,,,,インシュアランスサポート,0
297,2010001224743,新規,0,2022-02-24,2022-02-24,Ｍａｘｓｃｅｎｄ　Ｔｅｃｈｎｏｌｏｇｙ　ＪＡＰＡＮ株式会社,,株式会社,東京都,千代田区,内幸町２丁目２番２号富国生命ビル渥美坂井法律事務所内,,13,101,1000011,,,,,,,2022-02-24,1,,,,,マックスセンドテクノロジージャパン,0
298,2010001224776,新規,0,2022-02-24,2022-02-24,Ｔ２ＷＥＢ株式会社,,株式会社,東京都,中央区,銀座１丁目２２－１１銀座大竹ビジデンス２Ｆ,,13,102,1040061,,,,,,,2022-02-24,1,,,,,ティーツーウェブ,0
299,2010001224784,新規,0,2022-02-24,2022-02-24,株式会社ガネーシャ,,株式会社,東京都,千代田区,外神田６丁目１１－１４アーツ千代田３３３１,,13,101,1010021,,,,,,,2022-02-24,1,,,,,ガネーシャ,0
301,2010003037053,新規,0,2022-02-24,2022-02-24,合同会社つばき,,合同会社,東京都,千代田区,一ツ橋２丁目６番３号アクシスインベストメントアドバイザーズ株式会社内,,13,101,1010003,,,,,,,2022-02-24,1,,,,,ツバキ,0
306,2010401165612,新規,0,2022-02-24,2022-02-24,Ｆｉｔ　Ｆｉｅｌｄ株式会社,,株式会社,東京都,港区,新橋４丁目１８番４号,,13,103,1050004,,,,,,,2022-02-24,1,,,,,フィットフィールド,0
307,2010401165736,新規,0,2022-02-24,2022-02-24,ＮＡ　Ｐｒｏｐｅｒｔｙ株式会社,,株式会社,東京都,港区,白金台４丁目１７番１５号,,13,103,1080071,,,,,,,2022-02-24,1,,,,,エヌエープロパティ,0
312,2010503006516,新規,0,2022-02-24,2022-02-24,合同会社ＵＥＮＯ,,合同会社,東京都,台東区,浅草１丁目５番７－９０１号ライオンズマンション浅草雷門,,13,106,1110032,,,,,,,2022-02-24,1,,,,,ウエノ,0
314,2010605004046,新規,0,2022-02-24,2022-02-24,一般社団法人新百姓,,その他の設立登記法人,東京都,墨田区,緑１丁目１４番６－１００２号シティポート両国,,13,107,1300021,,,,,,,2022-02-24,1,,,,,シンヒャクショウ,0
318,2010801032767,新規,0,2022-02-24,2022-02-24,永栄株式会社,,株式会社,東京都,大田区,矢口１丁目１６－１９コスモビルＩＩ３０９,00125793,13,111,1460093,,,,,,,2022-02-24,1,,,,,エイエイ,0
329,2011001145863,新規,0,2022-02-24,2022-02-24,株式会社Ｐｏｋｋｅ,,株式会社,東京都,渋谷区,渋谷２丁目１９番１５号宮益坂ビルディング６０９,,13,113,1500002,,,,,,,2022-02-24,1,,,,,ポッケ,0
330,2011001145888,新規,0,2022-02-24,2022-02-24,株式会社Ｔａｍａｓｈ,,株式会社,東京都,目黒区,下目黒６丁目５番２１－３１８号シティテラス下目黒,,13,110,1530064,,,,,,,2022-02-24,1,,,,,タマッシュ,0
331,2011001145896,新規,0,2022-02-24,2022-02-24,株式会社ＲＥＧＡＵＳＳ,,株式会社,東京都,渋谷区,幡ヶ谷１丁目７番７号,,13,113,1510072,,,,,,,2022-02-24,1,,,,,リガウス,0
332,2011001145921,新規,0,2022-02-24,2022-02-24,象牙の風呂敷株式会社,,株式会社,東京都,渋谷区,渋谷２丁目８番７号青山宮野ビル３０５,,13,113,1500002,,,,,,,2022-02-24,1,,,,,ゾウゲノフロシキ,0
341,2011101097897,新規,0,2022-02-24,2022-02-24,株式会社ホワイト・サイエンス,,株式会社,東京都,新宿区,西新宿２丁目６番１号新宿住友ビル,,13,104,1600023,,,,,,,2022-02-24,1,,,,,ホワイトサイエンス,0
355,2012401038871,新規,0,2022-02-24,2022-02-24,株式会社ＨＳコンサルティング,,株式会社,東京都,調布市,菊野台１丁目１８番地１０,,13,208,1820007,,,,,,,2022-02-24,1,,,,,エイチエスコンサルティング,0
358,2012805003091,新規,0,2022-02-24,2022-02-24,一般社団法人中小企業物流協会,,その他の設立登記法人,東京都,武蔵村山市,中原２丁目１８番地の１１,,13,223,2080035,,,,,,,2022-02-24,1,,,,,チュウショウキギョウブツリュウキョウカイ,0
361,2013301048705,新規,0,2022-02-24,2022-02-24,株式会社ＡＵＲＯＲＡ,,株式会社,東京都,豊島区,東池袋４丁目２１番１－４３０８号,,13,116,1700013,,,,,,,2022-02-24,1,,,,,オーロラ,0
366,2020001145336,新規,0,2022-02-24,2022-02-24,株式会社関東技研,,株式会社,神奈川県,横浜市中区,桜木町１丁目１０１番地１クロスゲート７Ｆ,,14,104,2310062,,,,,,,2022-02-24,1,,,,,カントウギケン,0
367,2020001145360,新規,0,2022-02-24,2022-02-24,株式会社ｋａｍｅ,,株式会社,神奈川県,川崎市麻生区,王禅寺東４丁目２３番６号,,14,137,2150018,,,,,,,2022-02-24,1,,,,,ケイム,0
372,2021001075242,新規,0,2022-02-24,2022-02-24,ＳＵＷＡセキュリティ株式会社,,株式会社,神奈川県,藤沢市,湘南台２丁目７番地９,,14,205,2520804,,,,,,,2022-02-24,1,,,,,スワセキュリティ,0
373,2021001075259,新規,0,2022-02-24,2022-02-24,ロイヤルペットフーズ株式会社,,株式会社,神奈川県,鎌倉市,材木座５丁目６番２６号,,14,204,2480013,,,,,,,2022-02-24,1,,,,,ロイヤルペットフーズ,0
374,2021003011427,新規,0,2022-02-24,2022-02-24,合同会社Ｌｕｖｘ４,,合同会社,神奈川県,平塚市,上平塚７番４７号,,14,203,2540055,,,,,,,2022-02-24,1,,,,,ラヴバイフォー,0
380,2030001146936,新規,0,2022-02-24,2022-02-24,フェイスアロー株式会社,,株式会社,埼玉県,入間市,大字南峯２５１番地１,,11,225,3580046,,,,,,,2022-02-24,1,,,,,フェイスアロー,0
381,2030001146944,新規,0,2022-02-24,2022-02-24,株式会社映海,,株式会社,埼玉県,久喜市,桜田２丁目２番５ー７１３号室,,11,232,3400203,,,,,,,2022-02-24,1,,,,,エイカイ,0
382,2030001146969,新規,0,2022-02-24,2022-02-24,株式会社エスワン,,株式会社,埼玉県,さいたま市西区,西大宮１丁目２番地１,,11,101,3310078,,,,,,,2022-02-24,1,,,,,エスワン,0
383,2030001146977,新規,0,2022-02-24,2022-02-24,株式会社スタンダード,,株式会社,埼玉県,羽生市,中央２丁目５－２６,,11,216,3480058,,,,,,,2022-02-24,1,,,,,スタンダード,0
384,2030001146985,新規,0,2022-02-24,2022-02-24,株式会社ＹＴＲ,,株式会社,埼玉県,熊谷市,大原１丁目１１番２０号,,11,202,3600812,,,,,,,2022-02-24,1,,,,,ワイティーアール,0
393,2040001122283,新規,0,2022-02-24,2022-02-24,株式会社エムアイコーポレーション,,株式会社,千葉県,松戸市,高塚新田５２６番地の７０,,12,207,2702222,,,,,,,2022-02-24,1,,,,,エムアイコーポレーション,0
394,2040001122291,新規,0,2022-02-24,2022-02-24,株式会社Ｓｏｃｉａｌ　Ｗｉｎｇ,,株式会社,千葉県,松戸市,根木内６番地の４,,12,207,2700011,,,,,,,2022-02-24,1,,,,,ソーシャルウイング,0
395,2040001122325,新規,0,2022-02-24,2022-02-24,株式会社ながしま,,株式会社,千葉県,君津市,大山野７１８番地６,,12,225,2991123,,,,,,,2022-02-24,1,,,,,ナガシマ,0
396,2040001122341,新規,0,2022-02-24,2022-02-24,株式会社ＢＵＭＰ,,株式会社,千葉県,四街道市,めいわ３丁目１１番１０号,,12,228,2840043,,,,,,,2022-02-24,1,,,,,バンプ,0
403,2050001050649,新規,0,2022-02-24,2022-02-24,株式会社ＯＰＥＮ　ＳＰＡＣＥ,,株式会社,茨城県,行方市,行方２２１３,,08,233,3113801,,,,,,,2022-02-24,1,,,,,オープンスペース,0
416,2080101023114,新規,0,2022-02-24,2022-02-24,ＳＴＡＲ　ＣＯＲＲＥＣＴ株式会社,,株式会社,静岡県,三島市,佐野１３５番地の４,,22,206,4110047,,,,,,,2022-02-24,1,,,,,スターコレクト,0
417,2080401025636,新規,0,2022-02-24,2022-02-24,株式会社ＴＡネクサス,,株式会社,静岡県,浜松市東区,半田山５丁目１５番１号,,22,132,4313125,,,,,,,2022-02-24,1,,,,,ティーエーネクサス,0
418,2080403004472,新規,0,2022-02-24,2022-02-24,合同会社森と海,,合同会社,静岡県,菊川市,半済１９４４番地の１,,22,224,4390019,,,,,,,2022-02-24,1,,,,,モリトウミ,0
419,2100001035090,新規,0,2022-02-24,2022-02-24,ブレイブコーポレーション株式会社,,株式会社,長野県,北佐久郡軽井沢町,大字長倉７３２番地６,,20,321,3890111,,,,,,,2022-02-24,1,,,,,ブレイブコーポレーション,0
427,2120001243930,新規,0,2022-02-24,2022-02-24,株式会社Ｗｅｓｔ　Ｍａｒｒｏｎ,,株式会社,大阪府,大阪市淀川区,西中島１丁目１０番１２号インフィニティ北川口３１１号,,27,123,5320011,,,,,,,2022-02-24,1,,,,,ウエストマロン,0
428,2120001243988,新規,0,2022-02-24,2022-02-24,株式会社ＲＩＫＥＳ,,株式会社,大阪府,大阪市西区,北堀江１丁目２番２７号ＡＸＩＳＳＯＵＴＨ四ツ橋ビル８０２,,27,106,5500014,,,,,,,2022-02-24,1,,,,,ライクス,0
432,2120103004586,新規,0,2022-02-24,2022-02-24,合同会社アドストア,,合同会社,大阪府,富田林市,津々山台１丁目１番６－３０５号,,27,214,5840086,,,,,,,2022-02-24,1,,,,,アドストア,0
439,2122001035606,新規,0,2022-02-24,2022-02-24,株式会社ティーエムアール,,株式会社,大阪府,八尾市,佐堂町２丁目３番１５号,,27,212,5810816,,,,,,,2022-02-24,1,,,,,ティーエムアール,0
442,2130001071190,新規,0,2022-02-24,2022-02-24,株式会社ＳＯＣＲＡＨ,,株式会社,京都府,京田辺市,興戸地蔵谷１番地同志社大学京田辺キャンパス業成館（Ｄ－ｅｇｇ）３１１号室,,26,211,6100332,,,,,,,2022-02-24,1,,,,,ソクラ,0
450,2140003017380,新規,0,2022-02-24,2022-02-24,合同会社ブースト,,合同会社,兵庫県,尼崎市,昭和南通４丁目６４番地５０２号,,28,202,6600882,,,,,,,2022-02-24,1,,,,,ブースト,0
451,2140003017389,新規,0,2022-02-24,2022-02-24,合同会社ＨＩＳ,,合同会社,兵庫県,神戸市中央区,相生町４丁目２番２８号,,28,110,6500025,,,,,,,2022-02-24,1,,,,,,0
452,2170003001687,新規,0,2022-02-24,2022-02-24,合同会社たいよう,,合同会社,和歌山県,和歌山市,太田６６７番地１,,30,201,6408323,,,,,,,2022-02-24,1,,,,,タイヨウ,0
461,2180001150097,新規,0,2022-02-24,2022-02-24,株式会社山錦木,,株式会社,愛知県,愛知郡東郷町,北山台４丁目４番地５,,23,302,4700152,,,,,,,2022-02-24,1,,,,,ヤマニシキギ,0
464,2180003023524,新規,0,2022-02-24,2022-02-24,合同会社とんかつのとん八,,合同会社,愛知県,名古屋市中区,千代田２丁目１６番１０号アーバニア鶴舞第２　８１１号,,23,106,4600012,,,,,,,2022-02-24,1,,,,,トンカツノトンパチ,0
468,2200001039783,新規,0,2022-02-24,2022-02-24,リベロ株式会社,,株式会社,岐阜県,羽島郡笠松町,天王町４７番地,,21,303,5016077,,,,,,,2022-02-24,1,,,,,リベロ,0
469,2220003003224,新規,0,2022-02-24,2022-02-24,合同会社やなさんふぁくとりー,,合同会社,石川県,金沢市,畝田西１丁目５３番地,,17,201,9200342,,,,,,,2022-02-24,1,,,,,ヤナサンファクトリー,0
481,2250001019426,新規,0,2022-02-24,2022-02-24,株式会社ｅｎｅｒｇｙ　ｆｉｒｍ,,株式会社,山口県,防府市,大字高井４４２番地の２,,35,206,7470064,,,,,,,2022-02-24,1,,,,,エナジーファーム,0
486,2260001036560,新規,0,2022-02-24,2022-02-24,八鍵株式会社,,株式会社,岡山県,岡山市中区,国富７６７－２－１０２,,33,102,7038236,,,,,,,2022-02-24,1,,,,,ハチカギ,0
487,2270003001388,新規,0,2022-02-24,2022-02-24,令和建設合同会社,,合同会社,鳥取県,鳥取市,気高町浜村７８３―１８５,,31,201,6890331,,,,,,,2022-02-24,1,,,,,レイワケンセツ,0
491,2290005018569,新規,0,2022-02-24,2022-02-24,行政書士法人にくま総合法務事務所,,その他の設立登記法人,福岡県,久留米市,荒木町荒木４８６番地３９,,40,203,8300063,,,,,,,2022-02-24,1,,,,,ニクマソウゴウホウムジムショ,0
497,2330001029466,新規,0,2022-02-24,2022-02-24,株式会社ヴォルテックス,,株式会社,熊本県,合志市,幾久富１９０９番地１０７７,,43,216,8611112,,,,,,,2022-02-24,1,,,,,ヴォルテックス,0
500,2340001024508,新規,0,2022-02-24,2022-02-24,株式会社サークルファーム,,株式会社,鹿児島県,曽於市,大隅町岩川７２９９番地１,,46,217,8998102,,,,,,,2022-02-24,1,,,,,サークルファーム,0
502,2360001030017,新規,0,2022-02-24,2022-02-24,Ｓｉｍｐｌｅｘ株式会社,,株式会社,沖縄県,中頭郡北谷町,字砂辺３０６番地１２,,47,326,9040111,,,,,,,2022-02-24,1,,,,,シンプレックス,0
505,2360005006599,新規,0,2022-02-24,2022-02-24,一般社団法人おーびっと,,その他の設立登記法人,沖縄県,中頭郡嘉手納町,字嘉手納１３４番地４,,47,325,9040203,,,,,,,2022-02-24,1,,,,,オービット,0
506,2370001048231,新規,0,2022-02-24,2022-02-24,株式会社８Ｄｉｒｅｃｔｉｏｎｓ　Ｔｈｒｏｕｇｈ,,株式会社,宮城県,名取市,植松４丁目１２番７－３号Ｅ号室,,04,207,9811226,,,,,,,2022-02-24,1,,,,,エイトディレクションズスルー,0
518,2430001086043,新規,0,2022-02-24,2022-02-24,株式会社オーワン,,株式会社,北海道,札幌市中央区,南二十二条西８丁目１番２８号１０３号室,,01,101,0640922,,,,,,,2022-02-24,1,,,,,オーワン,0
519,2430001086051,新規,0,2022-02-24,2022-02-24,緑株式会社,,株式会社,北海道,恵庭市,緑町１丁目２番９号,,01,231,0611442,,,,,,,2022-02-24,1,,,,,エン,0
521,2430003013648,新規,0,2022-02-24,2022-02-24,桜見商事合同会社,,合同会社,北海道,札幌市中央区,南六条西９丁目１０１９－１２－８０７,,01,101,0640806,,,,,,,2022-02-24,1,,,,,サクラミショウジ,0
527,2470005006415,新規,0,2022-02-24,2022-02-24,一般社団法人国際地域連携研究所,,その他の設立登記法人,香川県,高松市,寺井町１３９０番地６,,37,201,7618085,,,,,,,2022-02-24,1,,,,,コクサイチイキレンケイケンキュウジョ,0
528,2490003001630,新規,0,2022-02-24,2022-02-24,合同会社まだらねこ,,合同会社,高知県,高知市,瀬戸南町２丁目８－５０,,39,201,7810253,,,,,,,2022-02-24,1,,,,,マダラネコ,0
530,2500003002775,新規,0,2022-02-24,2022-02-24,ＤＯＪＯ合同会社,,合同会社,愛媛県,今治市,郷桜井２丁目２番２１号,,38,202,7991523,,,,,,,2022-02-24,1,,,,,ドウジョウ,0
531,2700150107167,新規,0,2022-02-24,2022-02-24,Ｐａｃｉｆｉｃ　Ｌｉｆｅ　Ｒｅ　Ｉｎｔｅｒｎａｔｉｏｎａｌ　Ｌｉｍｉｔｅｄ　日本駐在員事務所,,外国会社等,東京都,千代田区,有楽町２丁目７－１有楽町イトシア１２階,,13,101,1000006,５ｔｈ　Ｆｌｏｏｒ　Ｗｅｓｔ，　Ｐｏｉｎｔ　Ｈｏｕｓｅ，　６　Ｆｒｏｎｔ　Ｓｔｒｅｅｔ，　Ｈａｍｉｌｔｏｎ，　Ｂｅｒｍｕｄａ　ＨＭ１１,,,,,,2022-02-24,1,,,,,パシフイツクライフリインターナシヨナルリミテツドニホンチユウザイインジムシヨ,0
538,3010001224734,新規,0,2022-02-24,2022-02-24,株式会社ファームファーム,,株式会社,東京都,中央区,日本橋本町１丁目４番９号,,13,102,1030023,,,,,,,2022-02-24,1,,,,,ファームファーム,0
542,3010005034626,新規,0,2022-02-24,2022-02-24,一般社団法人日本学生射撃スポーツ連盟,,その他の設立登記法人,東京都,文京区,湯島３丁目２３番１２号,,13,105,1130034,,,,,,,2022-02-24,1,,,,,ニホンガクセイシャゲキスポーツレンメイ,0
546,3010401165727,新規,0,2022-02-24,2022-02-24,株式会社ＯＫＥＮ,,株式会社,東京都,港区,西麻布３丁目１７番２０号ＬＹ西麻布Ｂ１Ｆ,,13,103,1060031,,,,,,,2022-02-24,1,,,,,オケン,0
547,3010401165735,新規,0,2022-02-24,2022-02-24,第一環境エンジニアリング株式会社,,株式会社,東京都,港区,白金台４丁目１７番１５号,,13,103,1080071,,,,,,,2022-02-24,1,,,,,ダイイチカンキョウエンジニアリング,0
548,3010401165768,新規,0,2022-02-24,2022-02-24,株式会社Ｍｕｓｅｅ　Ｄｙｎａｍｉｃ,,株式会社,東京都,港区,麻布十番３丁目７－５デシモ麻布３０１号室,,13,103,1060045,,,,,,,2022-02-24,1,,,,,ミューゼダイナミック,0
549,3010401165784,新規,0,2022-02-24,2022-02-24,株式会社Ｓｕｐｅｒ－Ｌｉｆｅ－Ｇａｌｌｅｒｙ,,株式会社,東京都,港区,南青山５丁目１７番２号シドニービル５０２号室,,13,103,1070062,,,,,,,2022-02-24,1,,,,,スーパーライフギャラリー,0
550,3010401165801,新規,0,2022-02-24,2022-02-24,株式会社ＮＮＳ,,株式会社,東京都,港区,新橋３丁目１３番２号,,13,103,1050004,,,,,,,2022-02-24,1,,,,,エヌエヌエス,0
551,3010403027140,新規,0,2022-02-24,2022-02-24,合同会社えどえん,,合同会社,東京都,港区,芝浦２丁目１番１１－７１０号,,13,103,1080023,,,,,,,2022-02-24,1,,,,,エドエン,0
553,3010501048476,新規,0,2022-02-24,2022-02-24,株式会社Ｗａｌｌｅｓｓ,,株式会社,東京都,台東区,三ノ輪１丁目２８番１６号,,13,106,1100011,,,,,,,2022-02-24,1,,,,,ウォレス,0
554,3010501048501,新規,0,2022-02-24,2022-02-24,株式会社ＤｒｉｖｅＸ,,株式会社,東京都,台東区,雷門２丁目２０番６号クロスビルロイヤルパレス３０２,,13,106,1110034,,,,,,,2022-02-24,1,,,,,,0
555,3010503006515,新規,0,2022-02-24,2022-02-24,合同会社フフフ,,合同会社,東京都,台東区,浅草１丁目８－６－１１０６,,13,106,1110032,,,,,,,2022-02-24,1,,,,,フフフ,0
564,3010703006125,新規,0,2022-02-24,2022-02-24,新産業創成パートナーズ合同会社,,合同会社,東京都,品川区,上大崎２丁目１５番１９号,,13,109,1410021,,,,,,,2022-02-24,1,,,,,シンサンギョウソウセイパートナーズ,0
577,3011001145854,新規,0,2022-02-24,2022-02-24,Ｅｆｆｉｃａ株式会社,,株式会社,東京都,渋谷区,渋谷２丁目１９番１５号宮益坂ビルディング６０９,,13,113,1500002,,,,,,,2022-02-24,1,,,,,エフィカ,0
578,3011001145862,新規,0,2022-02-24,2022-02-24,株式会社Ｌｅｔｓ,,株式会社,東京都,渋谷区,渋谷２丁目１９番１５号宮益坂ビルディング６０９,,13,113,1500002,,,,,,,2022-02-24,1,,,,,レッツ,0
579,3011001145879,新規,0,2022-02-24,2022-02-24,ＹＯＫＵＭＩＲＵ株式会社,,株式会社,東京都,渋谷区,神宮前３丁目１番２７号,,13,113,1500001,,,,,,,2022-02-24,1,,,,,ヨクミル,0
580,3011001145920,新規,0,2022-02-24,2022-02-24,株式会社ウラーノ,,株式会社,東京都,渋谷区,渋谷２丁目１９番１５号宮益坂ビルディング６０９,,13,113,1500002,,,,,,,2022-02-24,1,,,,,ウラーノ,0
587,3011101097896,新規,0,2022-02-24,2022-02-24,株式会社Ｃ＆Ｂ,,株式会社,東京都,新宿区,新宿７丁目２７番９号リブレ東新宿２００３,,13,104,1600022,,,,,,,2022-02-24,1,,,,,シーアンドビー,0
590,3011103011517,新規,0,2022-02-24,2022-02-24,合同会社ＭＯプラニング,,合同会社,東京都,新宿区,西早稲田２丁目９番１７号,,13,104,1690051,,,,,,,2022-02-24,1,,,,,エムオウプラニング,0
606,3011801040370,新規,0,2022-02-24,2022-02-24,株式会社ＰＩＴＬＡＢ,,株式会社,東京都,足立区,扇１丁目２９番１９号,,13,121,1230873,,,,,,,2022-02-24,1,,,,,ピットラボ,0
610,3012401038870,新規,0,2022-02-24,2022-02-24,株式会社Ｒｅ．ＬＩＦＥ,,株式会社,東京都,稲城市,矢野口２６１６番地２,,13,225,2060812,,,,,,,2022-02-24,1,,,,,リライフ,0
625,3020001145335,新規,0,2022-02-24,2022-02-24,株式会社ＴＦＣ,,株式会社,神奈川県,川崎市高津区,子母口８２番地３,,14,134,2130023,,,,,,,2022-02-24,1,,,,,ティーエフシー,0
630,3021001075258,新規,0,2022-02-24,2022-02-24,株式会社逸品餃子房,,株式会社,神奈川県,相模原市南区,相模大野３丁目９番１号相模大野駅前９２ビル相模大野モアーズ内６階,,14,153,2520303,,,,,,,2022-02-24,1,,,,,イッピンギョウザボウ,0
631,3021003011418,新規,0,2022-02-24,2022-02-24,合同会社ライフエクスパンド,,合同会社,神奈川県,鎌倉市,津６０３番地７３,,14,204,2480032,,,,,,,2022-02-24,1,,,,,ライフエクスパンド,0
634,3030001146927,新規,0,2022-02-24,2022-02-24,楽観株式会社,,株式会社,埼玉県,越谷市,南町３丁目１７番地１９彩光荘２０２号室,,11,222,3430832,,,,,,,2022-02-24,1,,,,,ラッカン,0
635,3030001146943,新規,0,2022-02-24,2022-02-24,株式会社Ｍｕｍｅｎｔ,,株式会社,埼玉県,鶴ヶ島市,大字鶴ヶ丘７９１,,11,241,3502204,,,,,,,2022-02-24,1,,,,,ムメント,0
636,3030001146951,新規,0,2022-02-24,2022-02-24,株式会社シーキューブ,,株式会社,埼玉県,さいたま市大宮区,桜木町１丁目２６６番地３,,11,103,3300854,,,,,,,2022-02-24,1,,,,,シーキューブ,0
637,3030001146976,新規,0,2022-02-24,2022-02-24,株式会社ＳＤＭ,,株式会社,埼玉県,日高市,武蔵台２丁目１１番１０号,,11,242,3501255,,,,,,,2022-02-24,1,,,,,エスディーエム,0
638,3030003018769,新規,0,2022-02-24,2022-02-24,ＶＵＩ　ＶＵＩ　Ｅｎｔｅｒｐｒｉｓｅ合同会社,,合同会社,埼玉県,吉川市,中央１丁目４番地１,,11,243,3420061,,,,,,,2022-02-24,1,,,,,ブイブイエンタープライズ,0
640,3030005020731,新規,0,2022-02-24,2022-02-24,特定非営利活動法人ＧＲＥＥＮ　ＴＨＵＭＢ,,その他の設立登記法人,埼玉県,狭山市,大字南入曽２０６番地の１,,11,215,3501316,,,,,,,2022-02-24,1,,,,,グリーンサム,0
641,3040001122290,新規,0,2022-02-24,2022-02-24,株式会社ＢＩＺトレーニング,,株式会社,千葉県,千葉市美浜区,若葉３丁目１番地１９－２４０１号,,12,106,2610014,,,,,,,2022-02-24,1,,,,,ビズトレーニング,0
642,3040001122316,新規,0,2022-02-24,2022-02-24,株式会社佐助建設,,株式会社,千葉県,富津市,八幡９５番地,,12,226,2930056,,,,,,,2022-02-24,1,,,,,サスケケンセツ,0
643,3040001122324,新規,0,2022-02-24,2022-02-24,株式会社フードビジネスロード,,株式会社,千葉県,市川市,北方２丁目３３番４号,,12,203,2720815,,,,,,,2022-02-24,1,,,,,フードビジネスロード,0
646,3040003019527,新規,0,2022-02-24,2022-02-24,合同会社絆,,合同会社,千葉県,我孫子市,湖北台４丁目１２番１号Ｉ・Ｍ・Ｒｅｓｉｄｅｎｃｅ１０４号,,12,222,2701132,,,,,,,2022-02-24,1,,,,,キズナ,0
647,3040003019543,新規,0,2022-02-24,2022-02-24,合同会社ＲＳＴ,,合同会社,千葉県,木更津市,高柳４８９３－１,,12,206,2920014,,,,,,,2022-02-24,1,,,,,アールエスティー,0
657,3080101023113,新規,0,2022-02-24,2022-02-24,株式会社Ｌｉｏ,,株式会社,静岡県,沼津市,香貫が丘７番３号,,22,203,4100824,,,,,,,2022-02-24,1,,,,,リオ,0
662,3090001017420,新規,0,2022-02-24,2022-02-24,株式会社佐藤設計企画室,,株式会社,山梨県,南都留郡道志村,７７７５番地,,19,422,4020200,,,,,,,2022-02-24,1,,,,,サトウセッケイキカクシツ,0
678,3120001243962,新規,0,2022-02-24,2022-02-24,株式会社ＭｉｌｌｉＥ,,株式会社,大阪府,大阪市北区,梅田１丁目１番３号大阪駅前第三ビル２３０７,,27,127,5300001,,,,,,,2022-02-24,1,,,,,ミリー,0
679,3120001243987,新規,0,2022-02-24,2022-02-24,株式会社東信,,株式会社,大阪府,大阪市中央区,島之内２丁目９番２０号,,27,128,5420082,,,,,,,2022-02-24,1,,,,,トウシン,0
680,3120001243995,新規,0,2022-02-24,2022-02-24,株式会社さっさん,,株式会社,大阪府,大阪市中央区,博労町３丁目６番７号御堂筋三都ビル５０１号室,,27,128,5410059,,,,,,,2022-02-24,1,,,,,サッサン,0
682,3120003021169,新規,0,2022-02-24,2022-02-24,合同会社ＩＭＣ,,合同会社,大阪府,大阪市北区,梅田１丁目１番３－２９００号大阪駅前第３ビル２９階１－１－１号室,,27,127,5300001,,,,,,,2022-02-24,1,,,,,アイエムシー,0
683,3120003021185,新規,0,2022-02-24,2022-02-24,Ｇ－ＣＵＢＥ合同会社,,合同会社,大阪府,大阪市北区,梅田２丁目５番１３号桜橋第一ビル３０４号,,27,127,5300001,,,,,,,2022-02-24,1,,,,,ジーキューブ,0
693,3140001124962,新規,0,2022-02-24,2022-02-24,株式会社イチジュート,,株式会社,兵庫県,西宮市,小曽根町４丁目４番１１号,,28,204,6638122,,,,,,,2022-02-24,1,,,,,イチジュート,0
696,3170003001686,新規,0,2022-02-24,2022-02-24,合同会社Ｃａｓｔｌｅ　Ｒｏｃｋ　Ｆｏｏｄｓ,,合同会社,和歌山県,日高郡美浜町,浜ノ瀬３８,,30,381,6440000,,,,,,,2022-02-24,1,,,,,キャッスルロックフーズ,0
700,3180001150047,新規,0,2022-02-24,2022-02-24,株式会社Ｆｏｒ,,株式会社,愛知県,稲沢市,小池２丁目２８番３号,,23,220,4928144,,,,,,,2022-02-24,1,,,,,フォー,0
701,3180001150071,新規,0,2022-02-24,2022-02-24,株式会社Ｔ．Ｓ,,株式会社,愛知県,一宮市,小信中島字東鵜飼分４４番地６,,23,203,4940007,,,,,,,2022-02-24,1,,,,,ティーエス,0
711,3220003003223,新規,0,2022-02-24,2022-02-24,合同会社デスパシオ,,合同会社,石川県,小松市,鵜川町ト１２５番地,,17,203,9230063,,,,,,,2022-02-24,1,,,,,デスパシオ,0
713,3240001059364,新規,0,2022-02-24,2022-02-24,株式会社美栄商事,,株式会社,広島県,広島市佐伯区,五月が丘５丁目１２番２３号,,34,108,7315101,,,,,,,2022-02-24,1,,,,,ビエイショウジ,0
727,3290001096527,新規,0,2022-02-24,2022-02-24,株式会社ＭＲ．ｆａｃｔｏｒｙ,,株式会社,福岡県,福岡市博多区,博多駅前３丁目２７番２５号,,40,132,8120011,,,,,,,2022-02-24,1,,,,,エムアールファクトリー,0
728,3290001096535,新規,0,2022-02-24,2022-02-24,株式会社興商,,株式会社,福岡県,小郡市,小郡２４９３番地,,40,216,8380141,,,,,,,2022-02-24,1,,,,,コウショウ,0
729,3290003012176,新規,0,2022-02-24,2022-02-24,ＮＴＥコーポレーション合同会社,,合同会社,福岡県,久留米市,西町２８９番地２５,,40,203,8300038,,,,,,,2022-02-24,1,,,,,エヌティイーコーポレーション,0
730,3290003012184,新規,0,2022-02-24,2022-02-24,ＳＥＪ　ＸＸＩ合同会社,,合同会社,福岡県,福岡市早良区,百道浜２丁目４番２７号ＡＩビル６Ｆ,,40,137,8140001,,,,,,,2022-02-24,1,,,,,エスイージェートゥエンティワン,0
732,3290005018576,新規,0,2022-02-24,2022-02-24,一般社団法人なかがわ音楽館,,その他の設立登記法人,福岡県,那珂川市,大字上梶原１００８番地３２,,40,231,8111223,,,,,,,2022-02-24,1,,,,,ナカガワオンガクカン,0
737,3320001018915,新規,0,2022-02-24,2022-02-24,株式会社ＡＳＡ宮上,,株式会社,大分県,大分市,永興３丁目４番１６号,,44,201,8700883,,,,,,,2022-02-24,1,,,,,エーエスエーミヤガミ,0
739,3330001029465,新規,0,2022-02-24,2022-02-24,株式会社ｕｒｂａｎ　ｄｉｒｅｃｔｉｏｎ,,株式会社,熊本県,熊本市中央区,黒髪２丁目３４番７－２号２Ｆ,,43,101,8600862,,,,,,,2022-02-24,1,,,,,アーバンディレクション,0
740,3330001029473,新規,0,2022-02-24,2022-02-24,株式会社ティーズフォレスト,,株式会社,熊本県,八代市,迎町２丁目８号１２番地,,43,202,8660055,,,,,,,2022-02-24,1,,,,,ティーズフォレスト,0
741,3330003009259,新規,0,2022-02-24,2022-02-24,合同会社樹,,合同会社,熊本県,八代市,古閑中町３０４６,,43,202,8660898,,,,,,,2022-02-24,1,,,,,イツキ,0
742,3350001017600,新規,0,2022-02-24,2022-02-24,株式会社ＤＯＮＯＷ,,株式会社,宮崎県,宮崎市,佐土原町下田島１２２６０番地１６,,45,201,8800211,,,,,,,2022-02-24,1,,,,,ドナウ,0
745,3360003011831,新規,0,2022-02-24,2022-02-24,あかばな合同会社,,合同会社,沖縄県,島尻郡八重瀬町,字屋宜原２３番地２０,,47,362,9010406,,,,,,,2022-02-24,1,,,,,アカバナ,0
746,3370001048222,新規,0,2022-02-24,2022-02-24,株式会社ランドスタイル輝,,株式会社,宮城県,石巻市,蛇田字上待井６５番地２,,04,202,9860861,,,,,,,2022-02-24,1,,,,,ランドスタイルキラリ,0
747,3370001048239,新規,0,2022-02-24,2022-02-24,株式会社メディカルヒルズ,,株式会社,宮城県,仙台市太白区,八木山南５丁目１番地の１４,,04,104,9820807,,,,,,,2022-02-24,1,,,,,メディカルヒルズ,0
750,3390003001929,新規,0,2022-02-24,2022-02-24,合同会社龍園の餃子,,合同会社,山形県,天童市,大字奈良沢乙２３７番地１,,06,210,9940051,,,,,,,2022-02-24,1,,,,,リュウエンノギョウザ,0
755,3430001086018,新規,0,2022-02-24,2022-02-24,株式会社プラスアルファ,,株式会社,北海道,札幌市北区,北二十七条西７丁目３番７－５号,,01,102,0010027,,,,,,,2022-02-24,1,,,,,プラスアルファ,0
757,3430003013639,新規,0,2022-02-24,2022-02-24,合同会社ｍａｔｅｒｉ,,合同会社,北海道,滝川市,一の坂町西３丁目１番３２号,,01,225,0730017,,,,,,,2022-02-24,1,,,,,マテリ,0
758,3430003013647,新規,0,2022-02-24,2022-02-24,Ｂｕｃｋｙ合同会社,,合同会社,北海道,虻田郡ニセコ町,字本通２４８番地１１,,01,395,0481502,,,,,,,2022-02-24,1,,,,,バッキー,0
762,3450001013622,新規,0,2022-02-24,2022-02-24,株式会社縁,,株式会社,北海道,旭川市,末広二条４丁目４番２１号,,01,204,0718132,,,,,,,2022-02-24,1,,,,,エン,0
763,3480005006883,新規,0,2022-02-24,2022-02-24,特定非営利活動法人Ａｒｔｓ　Ｓｈｉｋｏｋｕ,,その他の設立登記法人,徳島県,小松島市,金磯町字入江町６３－１,,36,203,7730007,,,,,,,2022-02-24,1,,,,,アーツシコク,0
766,3700150107166,新規,0,2022-02-24,2022-02-24,ＣＥＹＬＯＮ　ＥＮＴＥＲＰＲＩＳＥＳ,,外国会社等,千葉県,茂原市,清水２２４０－１５清水オフィス４,,12,210,2994101,スリランカ民主社会主義共和国、ガムポラ、ウェラムボダ、リヤンガハワタ、１３３／２,,,,,,2022-02-24,1,,,,,シロンエンタープライセス,0
772,4010001224709,新規,0,2022-02-24,2022-02-24,株式会社ＳＭＥ,,株式会社,東京都,中央区,日本橋小舟町９－２,,13,102,1030024,,,,,,,2022-02-24,1,,,,,エスエムイー,0
773,4010001224766,新規,0,2022-02-24,2022-02-24,Ｄｅｅｌ　Ｊａｐａｎ株式会社,,株式会社,東京都,千代田区,丸の内２丁目１番１号明治生命館７階ディーエルエイ・パイパー東京パートナーシップ外国法共同事業法律事務所内,,13,101,1000005,,,,,,,2022-02-24,1,,,,,ディールジャパン,0
776,4010003037076,新規,0,2022-02-24,2022-02-24,ゴールドラッシュ合同会社,,合同会社,東京都,千代田区,三番町２番地三番町住宅９０３号,,13,101,1020075,,,,,,,2022-02-24,1,,,,,ゴールドラッシュ,0
781,4010401165684,新規,0,2022-02-24,2022-02-24,株式会社ＣＯＣＯＲＯ　Ｌａｂ,,株式会社,東京都,港区,浜松町２丁目２番１５号,,13,103,1050013,,,,,,,2022-02-24,1,,,,,ココロラボ,0
782,4010401165692,新規,0,2022-02-24,2022-02-24,株式会社ＷＡＴＣＨｍｅ,,株式会社,東京都,港区,高輪４丁目３番１５号,,13,103,1080074,,,,,,,2022-02-24,1,,,,,ウォッチミー,0
783,4010401165759,新規,0,2022-02-24,2022-02-24,株式会社ｓｏｒｅｉｌ　ｔｅｃｈｎｏｌｏｇｉｅｓ,,株式会社,東京都,港区,芝３丁目１８番１号ＳｐｒｏｕｔＳｈｉｂａ１０２,,13,103,1050014,,,,,,,2022-02-24,1,,,,,ソレイユテクノロジーズ,0
785,4010403027131,新規,0,2022-02-24,2022-02-24,合同会社ナルコス,,合同会社,東京都,港区,六本木５丁目１７－１４－２０６号室コアロード六本木フロンテ,,13,103,1060032,,,,,,,2022-02-24,1,,,,,ナルコス,0
786,4010403027148,新規,0,2022-02-24,2022-02-24,アイピーオー合同会社,,合同会社,東京都,港区,浜松町２丁目２番１５号浜松町ダイヤビル２Ｆ,,13,103,1050013,,,,,,,2022-02-24,1,,,,,アイピーオー,0
787,4010405020737,新規,0,2022-02-24,2022-02-24,特定目的会社新大阪開発,,その他の設立登記法人,東京都,港区,六本木６丁目１０番１号六本木ヒルズ森タワー,,13,103,1060032,,,,,,,2022-02-24,1,,,,,シンオオサカカイハツ,0
789,4010503006514,新規,0,2022-02-24,2022-02-24,合同会社ＧＥパワープラント２号,,合同会社,東京都,台東区,東上野３丁目３５番９号本池田ビル７階,,13,106,1100015,,,,,,,2022-02-24,1,,,,,ジーイーパワープラントニゴウ,0
791,4010605004044,新規,0,2022-02-24,2022-02-24,一般社団法人日本巻き爪協会,,その他の設立登記法人,東京都,墨田区,立花１丁目５番９号,,13,107,1310043,,,,,,,2022-02-24,1,,,,,ニホンマキヅメキョウカイ,0
795,4010701042261,新規,0,2022-02-24,2022-02-24,株式会社フライト,,株式会社,東京都,品川区,荏原７丁目１７－１７,,13,109,1420063,,,,,,,2022-02-24,1,,,,,フライト,0
797,4010703006124,新規,0,2022-02-24,2022-02-24,合同会社ｅｍｍ,,合同会社,東京都,品川区,上大崎２丁目６番２５号,,13,109,1410021,,,,,,,2022-02-24,1,,,,,エム,0
802,4010903007161,新規,0,2022-02-24,2022-02-24,合同会社こはぜ珈琲,,合同会社,東京都,世田谷区,北沢２丁目３３番６号グリーンテラス１０２,,13,112,1550031,,,,,,,2022-02-24,1,,,,,コハゼコーヒー,0
807,4011001145845,新規,0,2022-02-24,2022-02-24,株式会社エイドル,,株式会社,東京都,目黒区,駒場２丁目８番９号,,13,110,1530041,,,,,,,2022-02-24,1,,,,,エイドル,0
808,4011001145853,新規,0,2022-02-24,2022-02-24,ＭＩＹＯＳＨＩ　ＡＲＣＨＩＴＥＣＴＳ株式会社,,株式会社,東京都,目黒区,東が丘１丁目１４番１９号,,13,110,1520021,,,,,,,2022-02-24,1,,,,,ミヨシアーキテクツ,0
809,4011001145878,新規,0,2022-02-24,2022-02-24,株式会社ＤＦＰＪ,,株式会社,東京都,渋谷区,神宮前６丁目１６番４号,,13,113,1500001,,,,,,,2022-02-24,1,,,,,ディエフピージェー,0
810,4011001145936,新規,0,2022-02-24,2022-02-24,株式会社ＭＡＭＳ,,株式会社,東京都,渋谷区,道玄坂１丁目１１番３号,,13,113,1500043,,,,,,,2022-02-24,1,,,,,マムズ,0
811,4011003014230,新規,0,2022-02-24,2022-02-24,コリーナヴェルデ合同会社,,合同会社,東京都,目黒区,緑が丘２丁目２番３号,,13,110,1520034,,,,,,,2022-02-24,1,,,,,コリーナヴェルデ,0
818,4011401024038,新規,0,2022-02-24,2022-02-24,株式会社Ｐｏｌｙｃｏｍｅ,,株式会社,東京都,板橋区,成増４丁目９番１７号Ｂｌａｎｃｆｏｒｅｔ２０２,,13,119,1750094,,,,,,,2022-02-24,1,,,,,ポリカム,0
819,4011401024054,新規,0,2022-02-24,2022-02-24,ミトラ株式会社,,株式会社,東京都,板橋区,成増４丁目２７番２５号,,13,119,1750094,,,,,,,2022-02-24,1,,,,,ミトラ,0
829,4020001145292,新規,0,2022-02-24,2022-02-24,株式会社松本コンサルティング事務所,,株式会社,神奈川県,横浜市港北区,大曽根２丁目５３番１４号,,14,109,2220003,,,,,,,2022-02-24,1,,,,,マツモトコンサルティングジムショ,0
830,4020001145342,新規,0,2022-02-24,2022-02-24,株式会社Ｆｕｔｕｒａ,,株式会社,神奈川県,横浜市中区,桜木町１丁目１０１番地１クロスゲート７階,,14,104,2310062,,,,,,,2022-02-24,1,,,,,フーツラ,0
831,4020003021343,新規,0,2022-02-24,2022-02-24,ＳＨＲＥＳＴＨＡ合同会社,,合同会社,神奈川県,横浜市神奈川区,松見町１丁目２８－１６ヴィラ妙蓮寺２０４号,,14,102,2210005,,,,,,,2022-02-24,1,,,,,スレスタ,0
832,4021001075232,新規,0,2022-02-24,2022-02-24,株式会社鎌倉ビールＦｏｏｄｓＬａｂ,,株式会社,神奈川県,鎌倉市,大町５丁目９番２９号,,14,204,2480007,,,,,,,2022-02-24,1,,,,,カマクラビールフーズラボ,0
841,4030001146926,新規,0,2022-02-24,2022-02-24,千秋貿易株式会社,,株式会社,埼玉県,草加市,柿木町１２９０－１,,11,221,3400001,,,,,,,2022-02-24,1,,,,,チアキボウエキ,0
842,4030001146934,新規,0,2022-02-24,2022-02-24,株式会社ノレン,,株式会社,埼玉県,戸田市,大字新曽２２００－２渡邉第２ビル２階,,11,224,3350021,,,,,,,2022-02-24,1,,,,,ノレン,0
846,4030005020730,新規,0,2022-02-24,2022-02-24,一般社団法人わかば幸せ相続相談センター,,その他の設立登記法人,埼玉県,鶴ヶ島市,大字上広谷７９２番地１レクセルプラザ若葉４０３号,,11,241,3502203,,,,,,,2022-02-24,1,,,,,ワカバシアワセソウゾクソウダンセンター,0
852,4040001122281,新規,0,2022-02-24,2022-02-24,株式会社ｋｉｒｉｎｔｅｃ,,株式会社,千葉県,木更津市,請西東３丁目８番地８,,12,206,2920806,,,,,,,2022-02-24,1,,,,,キリンテック,0
853,4040001122298,新規,0,2022-02-24,2022-02-24,リタファーム株式会社,,株式会社,千葉県,佐倉市,内田１１７５番地３,,12,212,2850077,,,,,,,2022-02-24,1,,,,,リタファーム,0
854,4040001122307,新規,0,2022-02-24,2022-02-24,株式会社リングアス,,株式会社,千葉県,松戸市,紙敷字新田前１３８７番地３,,12,207,2702221,,,,,,,2022-02-24,1,,,,,リングアス,0
855,4040001122323,新規,0,2022-02-24,2022-02-24,株式会社ＫＨＣＷ,,株式会社,千葉県,千葉市美浜区,中瀬１丁目３番地幕張テクノガーデン,,12,106,2610023,,,,,,,2022-02-24,1,,,,,ケーエイチシーダブリュー,0
857,4040003019550,新規,0,2022-02-24,2022-02-24,ルアンボージャパン合同会社,,合同会社,千葉県,東金市,南上宿１４番地１サンフィールド東金ＩＩ－１０１,00125786,12,213,2830066,,,,,,,2022-02-24,1,,,,,ルアンボージャパン,0
859,4050001050671,新規,0,2022-02-24,2022-02-24,株式会社ジープラニング,,株式会社,茨城県,つくば市,栄２６９番地２,,08,220,3050013,,,,,,,2022-02-24,1,,,,,ジープラニング,0
864,4070001038970,新規,0,2022-02-24,2022-02-24,株式会社ＰＨＲ,,株式会社,群馬県,桐生市,川内町１丁目３１番地の７,,10,203,3760041,,,,,,,2022-02-24,1,,,,,ピーエイチアール,0
871,4080101023120,新規,0,2022-02-24,2022-02-24,株式会社ＢＥ．ＢＲＡＶＥ,,株式会社,静岡県,富士市,中之郷２６７５番地の１５,,22,210,4213306,,,,,,,2022-02-24,1,,,,,ビーブレイブ,0
872,4080103002535,新規,0,2022-02-24,2022-02-24,合同会社ハートフルリンクアジア,,合同会社,静岡県,富士宮市,山宮９４８番地の３９,,22,207,4180111,,,,,,,2022-02-24,1,,,,,ハートフルリンクアジア,0
875,4100001035089,新規,0,2022-02-24,2022-02-24,株式会社仲平工業,,株式会社,長野県,下伊那郡高森町,出原１８２番地１,,20,403,3993107,,,,,,,2022-02-24,1,,,,,ナカダイラコウギョウ,0
888,4120001243945,新規,0,2022-02-24,2022-02-24,株式会社イオシスホールディングス,,株式会社,大阪府,大阪市中央区,博労町３丁目５番１号,,27,128,5410059,,,,,,,2022-02-24,1,,,,,イオシスホールディングス,0
889,4120001243961,新規,0,2022-02-24,2022-02-24,株式会社ＧＯＯＤ　ＤＡＹ,,株式会社,大阪府,大阪市中央区,南本町４丁目３番１６－１８０７号,,27,128,5410054,,,,,,,2022-02-24,1,,,,,グッドデイ,0
890,4120001244010,新規,0,2022-02-24,2022-02-24,株式会社Ｍａｓａｈｉｋｏ　Ｏｚｕｍｉ　Ｐａｒｉｓ,,株式会社,大阪府,大阪市北区,西天満３丁目５番１８号,,27,127,5300047,,,,,,,2022-02-24,1,,,,,マサヒコオズミパリ,0
899,4130001071107,新規,0,2022-02-24,2022-02-24,株式会社いも吉,,株式会社,京都府,亀岡市,南つつじケ丘大葉台１丁目１５番地５号,,26,206,6210846,,,,,,,2022-02-24,1,,,,,イモキチ,0
900,4130001071172,新規,0,2022-02-24,2022-02-24,ＨＫＡアセットクリエイツ株式会社,,株式会社,京都府,京都市伏見区,向島善阿弥町１３番地１,,26,109,6128121,,,,,,,2022-02-24,1,,,,,エイチケーエーアセットクリエイツ,0
901,4130001071206,新規,0,2022-02-24,2022-02-24,株式会社幸エステート,,株式会社,京都府,京都市南区,西九条柳ノ内町８３番地４－３０１号,,26,107,6018435,,,,,,,2022-02-24,1,,,,,コウエステート,0
902,4130003007769,新規,0,2022-02-24,2022-02-24,ヘッジホッグデザイン合同会社,,合同会社,京都府,京都市伏見区,羽束師鴨川町１７９－４,,26,109,6128484,,,,,,,2022-02-24,1,,,,,ヘッジホッグデザイン,0
908,4140001124961,新規,0,2022-02-24,2022-02-24,株式会社サンライズ,,株式会社,兵庫県,西宮市,名塩南台３丁目２０番地５７,,28,204,6691132,,,,,,,2022-02-24,1,,,,,サンライズ,0
909,4140001124986,新規,0,2022-02-24,2022-02-24,スリーワイドレーシング株式会社,,株式会社,兵庫県,西宮市,甲陽園目神山町１８番５１号,,28,204,6620011,,,,,,,2022-02-24,1,,,,,スリーワイドレーシング,0
910,4140003017379,新規,0,2022-02-24,2022-02-24,ビーマット合同会社,,合同会社,兵庫県,宝塚市,逆瀬台１丁目８番Ａ－７０１号,,28,214,6650024,,,,,,,2022-02-24,1,,,,,ビーマット,0
912,4160003002503,新規,0,2022-02-24,2022-02-24,合同会社ＶＩＮＯ　ＭＩＮＯ,,合同会社,滋賀県,大津市,中央４丁目６－５５,,25,201,5200043,,,,,,,2022-02-24,1,,,,,ヴィーノミーノ,0
918,4180001150062,新規,0,2022-02-24,2022-02-24,株式会社Ｓｔｅｌｌｉｆｙ,,株式会社,愛知県,名古屋市中区,栄５丁目２６番３９号ＧＳ栄ビル３Ｆ,,23,106,4600008,,,,,,,2022-02-24,1,,,,,ステリファイ,0
919,4180001150112,新規,0,2022-02-24,2022-02-24,株式会社芋山,,株式会社,愛知県,名古屋市昭和区,広瀬町２丁目１０番地の２,,23,107,4660004,,,,,,,2022-02-24,1,,,,,イモヤマ,0
925,4180301035954,新規,0,2022-02-24,2022-02-24,ＡＭＢＥＲＧＲＩＳ　ＪＡＰＡＮ株式会社,,株式会社,愛知県,安城市,昭和町１７番２６号,,23,212,4460063,,,,,,,2022-02-24,1,,,,,アンバーグリスジャパン,0
926,4190001029157,新規,0,2022-02-24,2022-02-24,株式会社アールツー,,株式会社,三重県,松阪市,西肥留町１９０番地,,24,204,5152106,,,,,,,2022-02-24,1,,,,,アールツー,0
928,4200003005468,新規,0,2022-02-24,2022-02-24,合同会社シクミプラス,,合同会社,岐阜県,岐阜市,加納丸之内８番地１９,,21,201,5008485,,,,,,,2022-02-24,1,,,,,シクミプラス,0
932,4220001024708,新規,0,2022-02-24,2022-02-24,株式会社ＵＫ　Ｇｒｏｕｐ,,株式会社,石川県,金沢市,増泉４丁目１番１号ニューフナミビル３０１,,17,201,9218025,,,,,,,2022-02-24,1,,,,,ユーケーグループ,0
940,4240001059363,新規,0,2022-02-24,2022-02-24,株式会社ＡＳＣＥＮＤ,,株式会社,広島県,広島市南区,段原３丁目２１番７号ＮＥＸＴ・ＨＩＲＯＳＨＩＭＡ５階,,34,103,7320811,,,,,,,2022-02-24,1,,,,,アセンド,0
943,4240003005522,新規,0,2022-02-24,2022-02-24,合同会社あけぼの,,合同会社,広島県,尾道市,高須町４９８２番地,,34,205,7290141,,,,,,,2022-02-24,1,,,,,アケボノ,0
947,4250001019424,新規,0,2022-02-24,2022-02-24,株式会社マルヤス,,株式会社,山口県,宇部市,西平原４丁目２番１１号,,35,202,7550808,,,,,,,2022-02-24,1,,,,,マルヤス,0
950,4260001036559,新規,0,2022-02-24,2022-02-24,株式会社ＰＬＡＹＯＵＴ　ＤＥＳＩＧＮ,,株式会社,岡山県,岡山市中区,中納言町７番３４号サンジェルマン中納言,,33,102,7038292,,,,,,,2022-02-24,1,,,,,プレイアウトデザイン,0
958,4290001096534,新規,0,2022-02-24,2022-02-24,株式会社Ｃｏｎｎｅｃｔ,,株式会社,福岡県,福岡市東区,松島５丁目１番８号,,40,131,8130062,,,,,,,2022-02-24,1,,,,,コネクト,0
959,4290003012183,新規,0,2022-02-24,2022-02-24,ＳＥＪ　ＸＸＩＩ合同会社,,合同会社,福岡県,福岡市早良区,百道浜２丁目４番２７号ＡＩビル６Ｆ,,40,137,8140001,,,,,,,2022-02-24,1,,,,,エスイージェートゥエンティトゥー,0
961,4290005018567,新規,0,2022-02-24,2022-02-24,カウントオン税理士法人,,その他の設立登記法人,福岡県,福岡市中央区,薬院１丁目１３番８号,,40,133,8100022,,,,,,,2022-02-24,1,,,,,カウントオン,0
968,4320001018897,新規,0,2022-02-24,2022-02-24,株式会社イシケン建設工業,,株式会社,大分県,宇佐市,安心院町下毛１５４番地１,,44,211,8720521,,,,,,,2022-02-24,1,,,,,イシケンケンセツコウギョウ,0
971,4340003003714,新規,0,2022-02-24,2022-02-24,合同会社ｋｉｂｉ,,合同会社,鹿児島県,奄美市,笠利町宇宿２５９８－１,,46,222,8940000,,,,,,,2022-02-24,1,,,,,キビ,0
976,4360003011814,新規,0,2022-02-24,2022-02-24,ＡＩＲＡ　ＧＬＯＢＡＬ合同会社,,合同会社,沖縄県,国頭郡今帰仁村,字古宇利２９４番地１,,47,306,9050406,,,,,,,2022-02-24,1,,,,,アイラグローバル,0
977,4360003011830,新規,0,2022-02-24,2022-02-24,合同会社てぃんく,,合同会社,沖縄県,沖縄市,宮里３丁目８番７号１Ｆ,,47,211,9042165,,,,,,,2022-02-24,1,,,,,ティンク,0
979,4370001048238,新規,0,2022-02-24,2022-02-24,株式会社ルベウス,,株式会社,宮城県,栗原市,一迫字一本杉３９９番地,,04,213,9872343,,,,,,,2022-02-24,1,,,,,ルベウス,0
980,4370005010441,新規,0,2022-02-24,2022-02-24,一般社団法人ボタニカルラウンジ,,その他の設立登記法人,宮城県,宮城郡松島町,磯崎字蟹松１７番地の２０,,04,401,9810212,,,,,,,2022-02-24,1,,,,,ボタニカルラウンジ,0
983,4380001032595,新規,0,2022-02-24,2022-02-24,株式会社エスケイファーム,,株式会社,福島県,喜多方市,山都町三津合字宮月４０７８番地１,,07,208,9694105,,,,,,,2022-02-24,1,,,,,エスケイファーム,0
991,4430001086058,新規,0,2022-02-24,2022-02-24,株式会社モモンガ撮影所,,株式会社,北海道,札幌市中央区,宮の森一条１１丁目２番,,01,101,0640951,,,,,,,2022-02-24,1,,,,,モモンガサツエイジョ,0
992,4440001009034,新規,0,2022-02-24,2022-02-24,株式会社カクサン商店,,株式会社,北海道,茅部郡森町,字砂原５丁目２３番地１,,01,345,0492222,,,,,,,2022-02-24,1,,,,,カクサンショウテン,0
993,4450001013621,新規,0,2022-02-24,2022-02-24,株式会社ねこと,,株式会社,北海道,旭川市,忠和一条２丁目５番２３号,,01,204,0708041,,,,,,,2022-02-24,1,,,,,ネコト,0
994,4470003002141,新規,0,2022-02-24,2022-02-24,ａｎｄ　ｓｏ　ｙｏｕ合同会社,,合同会社,香川県,高松市,花園町１丁目１１番６号花園パークマンション６０２号室,,37,201,7600072,,,,,,,2022-02-24,1,,,,,アンドソウユウ,0
997,4700150099460,新規,0,2022-02-24,2020-06-17,ライオンズマンション中野哲学堂公園管理組合,,その他,東京都,中野区,松が丘１丁目３２－８,,13,114,1650024,,,,,,,2020-06-17,1,,,,,ライオンズマンシヨンナカノテツガクドウコウエンカンリクミアイ,0
1007,5010001224724,新規,0,2022-02-24,2022-02-24,株式会社メタバースジャパン,,株式会社,東京都,千代田区,内幸町１丁目１番１号,,13,101,1000011,,,,,,,2022-02-24,1,,,,,メタバースジャパン,0
1008,5010001224757,新規,0,2022-02-24,2022-02-24,株式会社ｕｎｉｔｅ,,株式会社,東京都,千代田区,平河町２丁目１６番９号永田町グラスゲート１階,,13,101,1020093,,,,,,,2022-02-24,1,,,,,ユナイト,0
1009,5010001224765,新規,0,2022-02-24,2022-02-24,株式会社アガットイノベーション,,株式会社,東京都,千代田区,神田神保町１丁目３番地５,,13,101,1010051,,,,,,,2022-02-24,1,,,,,アガットイノベーション,0
1010,5010001224831,新規,0,2022-02-24,2022-02-24,ＤＸ通信株式会社,,株式会社,東京都,中央区,日本橋１丁目１３番１号日鉄日本橋ビル３階,,13,102,1030027,,,,,,,2022-02-24,1,,,,,ディーエックスツウシン,0
1014,5010005034632,新規,0,2022-02-24,2022-02-24,一般社団法人六本木リアルティ・ツー,,その他の設立登記法人,東京都,中央区,日本橋１丁目４番１号,,13,102,1030027,,,,,,,2022-02-24,1,,,,,ロッポンギリアルティツー,0
1020,5010401165691,新規,0,2022-02-24,2022-02-24,株式会社チェック・プラン・ドゥ・サイクル,,株式会社,東京都,港区,南青山２丁目２番８号,,13,103,1070062,,,,,,,2022-02-24,1,,,,,チェックプランドゥサイクル,0
1021,5010401165774,新規,0,2022-02-24,2022-02-24,Ａｗａｋｅ株式会社,,株式会社,東京都,港区,南青山２丁目２番１５号ウィン青山９４２,,13,103,1070062,,,,,,,2022-02-24,1,,,,,アウェイク,0
1022,5010403027147,新規,0,2022-02-24,2022-02-24,セブンスターズプランニング合同会社,,合同会社,東京都,港区,南青山２丁目２番１５号ウィン青山１２１４号,,13,103,1070062,,,,,,,2022-02-24,1,,,,,セブンスターズプランニング,0
1024,5010601060734,新規,0,2022-02-24,2022-02-24,株式会社ａｉＴｅａＴｅｃｈ,,株式会社,東京都,江東区,有明２丁目１－２－２８０７,,13,108,1350063,,,,,,,2022-02-24,1,,,,,アイティーテック,0
1026,5010603009408,新規,0,2022-02-24,2022-02-24,合同会社オザ,,合同会社,東京都,墨田区,向島５丁目１１番８－７０４号,,13,107,1310033,,,,,,,2022-02-24,1,,,,,オザ,0
1029,5010801032756,新規,0,2022-02-24,2022-02-24,ＡＴＳ株式会社,,株式会社,東京都,大田区,蒲田２丁目１３番１７号,,13,111,1440052,,,,,,,2022-02-24,1,,,,,エーティーエス,0
1030,5010803004068,新規,0,2022-02-24,2022-02-24,ＩＮＴＵ合同会社,,合同会社,東京都,大田区,下丸子２丁目１３番５号,,13,111,1460092,,,,,,,2022-02-24,1,,,,,インツ,0
1041,5011001145704,新規,0,2022-02-24,2022-02-24,株式会社ＴＯＰＣＯ　ＪＡＰＡＮ,,株式会社,東京都,渋谷区,神南１丁目２３番１４号リージャス渋谷公園通り,,13,113,1500041,,,,,,,2022-02-24,1,,,,,トップコージャパン,0
1042,5011001145761,新規,0,2022-02-24,2022-02-24,株式会社ＮＯＫＩＤ　ＷＥＢＴＯＯＮ,,株式会社,東京都,渋谷区,松濤１丁目２８番２号ＷＯＲＫＣＯＵＲＴ渋谷松濤,,13,113,1500046,,,,,,,2022-02-24,1,,,,,ノーキッドウェブトゥーン,0
1043,5011001145852,新規,0,2022-02-24,2022-02-24,ＢＹＳコンサルティング株式会社,,株式会社,東京都,渋谷区,道玄坂１丁目１０番８号渋谷道玄坂東急ビル２Ｆ－Ｃ,,13,113,1500043,,,,,,,2022-02-24,1,,,,,ビーワイエスコンサルティング,0
1044,5011001145869,新規,0,2022-02-24,2022-02-24,株式会社メゾン・ド・アーティスト,,株式会社,東京都,渋谷区,神宮前１丁目５番８号神宮前タワービルディング１２階,,13,113,1500001,,,,,,,2022-02-24,1,,,,,メゾンドアーティスト,0
1045,5011001145910,新規,0,2022-02-24,2022-02-24,株式会社ＭＳＨＴ　ＰＯＷＥＲＳ,,株式会社,東京都,渋谷区,桜丘町１５番１４号フジビル４０・７Ｆ,,13,113,1500031,,,,,,,2022-02-24,1,,,,,エムエスエイチティーパワーズ,0
1046,5011001145927,新規,0,2022-02-24,2022-02-24,グローバルエステート株式会社,,株式会社,東京都,渋谷区,神宮前６丁目４番２号神宮前Ｆビル１階,,13,113,1500001,,,,,,,2022-02-24,1,,,,,グローバルエステート,0
1049,5011101097911,新規,0,2022-02-24,2022-02-24,株式会社リラインスホールディングス,,株式会社,東京都,新宿区,西新宿６丁目６番３号,,13,104,1600023,,,,,,,2022-02-24,1,,,,,リラインスホールディングス,0
1052,5011301027569,新規,0,2022-02-24,2022-02-24,株式会社ＤＡＮＴＩ,,株式会社,東京都,杉並区,阿佐谷南１丁目６番２５号,,13,115,1660004,,,,,,,2022-02-24,1,,,,,ダンチ,0
1053,5011303004319,新規,0,2022-02-24,2022-02-24,ＨＯＰＥ合同会社,,合同会社,東京都,杉並区,阿佐谷南２丁目１６－６第２芝仁ビル６Ｆ,,13,115,1660004,,,,,,,2022-02-24,1,,,,,ホープ,0
1055,5011401024053,新規,0,2022-02-24,2022-02-24,株式会社丸吉工業,,株式会社,東京都,板橋区,東山町４７番１号－２０２,,13,119,1740073,,,,,,,2022-02-24,1,,,,,マルヨシコウギョウ,0
1056,5011403003575,新規,0,2022-02-24,2022-02-24,合同会社ＣＴ４,,合同会社,東京都,板橋区,舟渡２丁目６番１０－１００８号,,13,119,1740041,,,,,,,2022-02-24,1,,,,,シーティーフォー,0
1060,5011801040352,新規,0,2022-02-24,2022-02-24,株式会社Ｒｅ‐Ｂｏｒｎ,,株式会社,東京都,足立区,綾瀬６丁目３番６号グリーンパーク綾瀬リバーサイド３０１,,13,121,1200005,,,,,,,2022-02-24,1,,,,,リボーン,0
1067,5012701016946,新規,0,2022-02-24,2022-02-24,株式会社アロハウェーブインターナショナル,,株式会社,東京都,小平市,小川東町２６０４番地の９,,13,211,1870031,,,,,,,2022-02-24,1,,,,,アロハウェーブインターナショナル,0
1069,5012703002408,新規,0,2022-02-24,2022-02-24,合同会社ＹＵＲＵＨＩ,,合同会社,東京都,東村山市,廻田町３丁目２番地６,,13,213,1890025,,,,,,,2022-02-24,1,,,,,ユルヒ,0
1071,5013103001108,新規,0,2022-02-24,2022-02-24,Ｄ－ＲＩＳＥ合同会社,,合同会社,東京都,西多摩郡瑞穂町,大字二本木３９４番地１Ｂ－２,,13,303,1901201,,,,,,,2022-02-24,1,,,,,ディーライズ,0
1075,5013303006055,新規,0,2022-02-24,2022-02-24,合同会社ＫＩＬＡ,,合同会社,東京都,豊島区,長崎１丁目１０番８号ネクストワン椎名町８０２,,13,116,1710051,,,,,,,2022-02-24,1,,,,,キラ,0
1082,5020003021350,新規,0,2022-02-24,2022-02-24,大喜多商事合同会社,,合同会社,神奈川県,横浜市栄区,笠間５丁目２番４０－３号,,14,115,2470006,,,,,,,2022-02-24,1,,,,,オオキタショウジ,0
1087,5021005012445,新規,0,2022-02-24,2022-02-24,一般社団法人マイ・ピース,,その他の設立登記法人,神奈川県,小田原市,栄町３丁目１９番５号,,14,206,2500011,,,,,,,2022-02-24,1,,,,,マイピース,0
1097,5030001146891,新規,0,2022-02-24,2022-02-24,株式会社とび匠,,株式会社,埼玉県,上尾市,大字上５５４番地８,,11,219,3620001,,,,,,,2022-02-24,1,,,,,トビショウ,0
1098,5030001146917,新規,0,2022-02-24,2022-02-24,株式会社アスパラファーム,,株式会社,埼玉県,児玉郡上里町,大字忍保１５９９番地,,11,385,3690303,,,,,,,2022-02-24,1,,,,,アスパラファーム,0
1109,5040001122280,新規,0,2022-02-24,2022-02-24,株式会社神平,,株式会社,千葉県,市原市,国分寺台中央６丁目１２番地１２ゴルフォ・デ・コリナＡ２０２,,12,219,2900073,,,,,,,2022-02-24,1,,,,,シンペイ,0
1110,5040001122339,新規,0,2022-02-24,2022-02-24,株式会社リファジョブ,,株式会社,千葉県,船橋市,海神町南１丁目１５４４－１８,,12,204,2730024,,,,,,,2022-02-24,1,,,,,リファジョブ,0
1115,5040003019558,新規,0,2022-02-24,2022-02-24,合同会社やまさん,,合同会社,千葉県,鎌ケ谷市,北中沢１丁目８－２８,,12,224,2730111,,,,,,,2022-02-24,1,,,,,ヤマサン,0
1141,5120001243944,新規,0,2022-02-24,2022-02-24,株式会社ＹＵＫＩ,,株式会社,大阪府,大阪市東成区,大今里南５丁目９番２４号,,27,115,5370013,,,,,,,2022-02-24,1,,,,,ユキ,0
1142,5120001243969,新規,0,2022-02-24,2022-02-24,株式会社インテグリティ,,株式会社,大阪府,大阪市旭区,大宮２丁目２７番１７号,,27,117,5350002,,,,,,,2022-02-24,1,,,,,インテグリティ,0
1143,5120001244001,新規,0,2022-02-24,2022-02-24,梨可商会株式会社,,株式会社,大阪府,大阪市中央区,島之内１丁目１３番３２号,,27,128,5420082,,,,,,,2022-02-24,1,,,,,リカショウカイ,0
1144,5120001244018,新規,0,2022-02-24,2022-02-24,ＴＲＡＮ　ＤＵＹＥＮ株式会社,,株式会社,大阪府,大阪市生野区,中川西１丁目６－２,,27,116,5440032,,,,,,,2022-02-24,1,,,,,チャンズエン,0
1145,5120001244050,新規,0,2022-02-24,2022-02-24,株式会社いとはん,,株式会社,大阪府,大阪市北区,樋之口町１－２０－１８０５,,27,127,5300032,,,,,,,2022-02-24,1,,,,,イトハン,0
1148,5120003021150,新規,0,2022-02-24,2022-02-24,合同会社ＦｉｅｌｄＲａｉｎ,,合同会社,大阪府,大阪市西区,千代崎１丁目２３番１３号,,27,106,5500023,,,,,,,2022-02-24,1,,,,,フィールドレイン,0
1159,5130001071196,新規,0,2022-02-24,2022-02-24,株式会社下ル上ル,,株式会社,京都府,京都市伏見区,桃山町養斉１６－３５桃山町養斉ビル３階,,26,109,6128016,,,,,,,2022-02-24,1,,,,,クダルノボル,0
1160,5130003007776,新規,0,2022-02-24,2022-02-24,合同会社Ｎ,,合同会社,京都府,京都市右京区,西京極長町３番地１サンマンション西京極３２０号,,26,108,6150831,,,,,,,2022-02-24,1,,,,,エヌ,0
1165,5140001124911,新規,0,2022-02-24,2022-02-24,株式会社オリンピアコンサルティング,,株式会社,兵庫県,神戸市兵庫区,小松通５丁目１番１４号,,28,105,6520865,,,,,,,2022-02-24,1,,,,,オリンピアコンサルティング,0
1166,5140001124952,新規,0,2022-02-24,2022-02-24,タイホーマリン株式会社,,株式会社,兵庫県,南あわじ市,湊里１２９６番地２,,28,224,6560331,,,,,,,2022-02-24,1,,,,,タイホーマリン,0
1167,5140001124993,新規,0,2022-02-24,2022-02-24,株式会社Ｐｌｕｓ　Ｆ,,株式会社,兵庫県,加古郡稲美町,六分一１１８２番地の３８,,28,381,6751112,,,,,,,2022-02-24,1,,,,,プラスエフ,0
1173,5160003002502,新規,0,2022-02-24,2022-02-24,合同会社ＮＡＮＡ,,合同会社,滋賀県,大津市,湖青１丁目１－１２,,25,201,5200532,,,,,,,2022-02-24,1,,,,,ナナ,0
1176,5170005006946,新規,0,2022-02-24,2022-02-24,一般社団法人ラリースマイル,,その他の設立登記法人,和歌山県,和歌山市,栄谷９５８番地６１,,30,201,6408441,,,,,,,2022-02-24,1,,,,,ラリースマイル,0
1184,5180001150078,新規,0,2022-02-24,2022-02-24,株式会社ＲＣＫ－Ｄｅｓｉｇｎ,,株式会社,愛知県,長久手市,岩作高山１２番地２２,,23,238,4801103,,,,,,,2022-02-24,1,,,,,アールシーケイデザイン,0
1185,5180001150086,新規,0,2022-02-24,2022-02-24,株式会社九印,,株式会社,愛知県,名古屋市中村区,名駅４丁目２１番６号東食品ビル１Ｆ,,23,105,4500002,,,,,,,2022-02-24,1,,,,,キュウジルシ,0
1186,5180001150094,新規,0,2022-02-24,2022-02-24,株式会社ＳＯＬＥＭＯ．,,株式会社,愛知県,名古屋市熱田区,三本松町１７番５号エステイタスＡＳ－１７　４０８号室,,23,109,4560032,,,,,,,2022-02-24,1,,,,,ソレモ,0
1188,5180003023505,新規,0,2022-02-24,2022-02-24,合同会社スゥリール,,合同会社,愛知県,名古屋市熱田区,南一番町７－２４カルティア熱田４０８,,23,109,4560055,,,,,,,2022-02-24,1,,,,,スゥリール,0
1190,5180301035953,新規,0,2022-02-24,2022-02-24,株式会社ＤＲＥ　ＢＡＳＥ１３８,,株式会社,愛知県,安城市,小堤町８‐３レジデンスカミヤ１Ｆ,,23,212,4460036,,,,,,,2022-02-24,1,,,,,ディーアールイーベースイチサンハチ,0
1191,5190001029156,新規,0,2022-02-24,2022-02-24,株式会社ＭＬＩＢ,,株式会社,三重県,松阪市,下村町１０４１番地３,,24,204,5150043,,,,,,,2022-02-24,1,,,,,エムリブ,0
1192,5200001039780,新規,0,2022-02-24,2022-02-24,ＫＯＳＴＹ．ｐｒｉｍｅ株式会社,,株式会社,岐阜県,岐阜市,鹿島町４丁目７番地,,21,201,5008323,,,,,,,2022-02-24,1,,,,,コスティプライム,0
1205,5260001036558,新規,0,2022-02-24,2022-02-24,ロイヤルメディカルサポート株式会社,,株式会社,岡山県,岡山市北区,幸町７番８号ロイヤルガーデンタワー幸町９１０号室,,33,101,7000903,,,,,,,2022-02-24,1,,,,,ロイヤルメディカルサポート,0
1206,5260001036566,新規,0,2022-02-24,2022-02-24,株式会社ｎｅｃｏ,,株式会社,岡山県,倉敷市,船穂町船穂１９－２,,33,202,7100261,,,,,,,2022-02-24,1,,,,,ネコ,0
1207,5260005011037,新規,0,2022-02-24,2022-02-24,一般社団法人岡山誓和会,,その他の設立登記法人,岡山県,岡山市北区,岡町１０番１８号,,33,101,7000867,,,,,,,2022-02-24,1,,,,,オカヤマセイワカイ,0
1213,5290003012182,新規,0,2022-02-24,2022-02-24,ＳＥＪ　ＸＸＩＩＩ合同会社,,合同会社,福岡県,福岡市早良区,百道浜２丁目４番２７号ＡＩビル６Ｆ,,40,137,8140001,,,,,,,2022-02-24,1,,,,,エスイージェートゥエンティスリー,0
1217,5300001012819,新規,0,2022-02-24,2022-02-24,コガケンセツ株式会社,,株式会社,佐賀県,佐賀市,川副町大字南里１３８６番地１,,41,201,8402205,,,,,,,2022-02-24,1,,,,,コガケンセツ,0
1218,5310003004284,新規,0,2022-02-24,2022-02-24,合同会社長崎火錬,,合同会社,長崎県,長崎市,三和町７５３番地,,42,201,8500975,,,,,,,2022-02-24,1,,,,,ナガサキカレン,0
1224,5330001029463,新規,0,2022-02-24,2022-02-24,Ｄｏｒａｇｏ株式会社,,株式会社,熊本県,熊本市中央区,水前寺３丁目３４番１０号Ｓ－ＦＯＲＴ水前寺３１７,,43,101,8620950,,,,,,,2022-02-24,1,,,,,ドラゴ,0
1225,5340001024513,新規,0,2022-02-24,2022-02-24,株式会社みずほ６０２,,株式会社,鹿児島県,鹿児島市,中央町１９番地４０－６Ｆ,,46,201,8900053,,,,,,,2022-02-24,1,,,,,ミズホロクマルニ,0
1226,5340003003713,新規,0,2022-02-24,2022-02-24,合同会社ＲＩＡＳＩＳ,,合同会社,鹿児島県,姶良市,宮島町２－２７吉野ビル２Ｆ,,46,225,8995432,,,,,,,2022-02-24,1,,,,,リアシス,0
1229,5350003004033,新規,0,2022-02-24,2022-02-24,合同会社輝龍工業,,合同会社,宮崎県,都城市,金田町１０７８－２,,45,202,8850001,,,,,,,2022-02-24,1,,,,,キリュウコウギョウ,0
1232,5360001030030,新規,0,2022-02-24,2022-02-24,株式会社ｃｏｌｕ,,株式会社,沖縄県,糸満市,字照屋３９２－１ＫＳＢ．Ｌ．Ｄ１０２,,47,210,9010315,,,,,,,2022-02-24,1,,,,,コル,0
1233,5360003011821,新規,0,2022-02-24,2022-02-24,合同会社丸幹総合,,合同会社,沖縄県,宮古島市,平良字西里１１１９番地２９和アパート２、５Ａ,,47,214,9060012,,,,,,,2022-02-24,1,,,,,マルキソウゴウ,0
1237,5390001016794,新規,0,2022-02-24,2022-02-24,株式会社西奥羽パール,,株式会社,山形県,寒河江市,幸町１番１５号,,06,206,9910035,,,,,,,2022-02-24,1,,,,,ニシオウウパール,0
1241,5410001013104,新規,0,2022-02-24,2022-02-24,笹島陸輸株式会社,,株式会社,秋田県,秋田市,土崎港中央７丁目１２番２８号,,05,201,0110946,,,,,,,2022-02-24,1,,,,,ササジマリクユ,0
1250,5430001086040,新規,0,2022-02-24,2022-02-24,ビーシーエージェント株式会社,,株式会社,北海道,札幌市北区,北十条西４丁目１番地１７北大前シティハウス１００２号,,01,102,0010010,,,,,,,2022-02-24,1,,,,,ビーシーエージェント,0
1251,5430001086049,新規,0,2022-02-24,2022-02-24,株式会社Ｔｒｙ　Ｃｏｒｐｏｒａｔｉｏｎ,,株式会社,北海道,札幌市東区,北四十一条東２丁目２番２５－３０１号,,01,103,0070841,,,,,,,2022-02-24,1,,,,,トライコーポレーション,0
1267,6010001224616,新規,0,2022-02-24,2022-02-24,株式会社まちハブ,,株式会社,東京都,中央区,晴海２丁目３番２－３８１１号,,13,102,1040053,,,,,,,2022-02-24,1,,,,,マチハブ,0
1268,6010001224764,新規,0,2022-02-24,2022-02-24,株式会社鯨洋商事,,株式会社,東京都,中央区,日本橋１丁目１３番１号日鉄日本橋ビル３階,,13,102,1030027,,,,,,,2022-02-24,1,,,,,ゲイヨウショウジ,0
1273,6010005034615,新規,0,2022-02-24,2022-02-24,一般社団法人ＣＣＳ協会,,その他の設立登記法人,東京都,千代田区,丸の内３丁目２－３丸の内二重橋ビル５階ＦＣＣＪ、Ｈｅｒｍａｎ方,,13,101,1000005,,,,,,,2022-02-24,1,,,,,シーシーエスキョウカイ,0
1278,6010401165154,新規,0,2022-02-24,2022-02-24,株式会社Ｔｈｅ　Ｍａｇｉｃ,,株式会社,東京都,港区,西新橋１丁目２番９号日比谷セントラルビル１４階,,13,103,1050003,,,,,,,2022-02-24,1,,,,,ザマジック,0
1279,6010401165682,新規,0,2022-02-24,2022-02-24,株式会社Ｆｉｏｒｉｓ,,株式会社,東京都,港区,浜松町２丁目２番１５号,,13,103,1050013,,,,,,,2022-02-24,1,,,,,フィオリス,0
1280,6010401165690,新規,0,2022-02-24,2022-02-24,株式会社ＮＯＴＹＰＥ,,株式会社,東京都,港区,南青山２丁目２番１５号ウィン青山９４２,,13,103,1070062,,,,,,,2022-02-24,1,,,,,ノータイプ,0
1281,6010401165757,新規,0,2022-02-24,2022-02-24,株式会社Ｉｍｐａｃｔ,,株式会社,東京都,港区,南青山２丁目２番１５号ウィン青山９４２,,13,103,1070062,,,,,,,2022-02-24,1,,,,,インパクト,0
1283,6010403027146,新規,0,2022-02-24,2022-02-24,ＥＳＲ２７合同会社,,合同会社,東京都,港区,浜松町１丁目２０番１０号ライオネス浜松町５０６号室,,13,103,1050013,,,,,,,2022-02-24,1,,,,,イーエスアールニジュウナナ,0
1284,6010405020727,新規,0,2022-02-24,2022-02-24,ＤＳＦ特定目的会社,,その他の設立登記法人,東京都,港区,元赤坂１丁目１番７号,,13,103,1070051,,,,,,,2022-02-24,1,,,,,ディーエスエフ,0
1287,6010601060725,新規,0,2022-02-24,2022-02-24,株式会社ＢｏｏＭ,,株式会社,東京都,墨田区,向島２丁目６番７号,,13,107,1310033,,,,,,,2022-02-24,1,,,,,ブーム,0
1288,6010803004067,新規,0,2022-02-24,2022-02-24,合同会社Ｋ．Ｔ,,合同会社,東京都,大田区,池上６丁目３４番５号,,13,111,1460082,,,,,,,2022-02-24,1,,,,,ケイティ,0
1293,6010901050401,新規,0,2022-02-24,2022-02-24,ノーザンライツ株式会社,,株式会社,東京都,世田谷区,粕谷３丁目２６番４号,,13,112,1570063,,,,,,,2022-02-24,1,,,,,ノーザンライツ,0
1300,6011001145760,新規,0,2022-02-24,2022-02-24,株式会社ＮＯＫＩＤ　ＣＲＥＡＴＩＶＥ,,株式会社,東京都,渋谷区,松濤１丁目２８番２号ＷＯＲＫＣＯＵＲＴ渋谷松濤,,13,113,1500046,,,,,,,2022-02-24,1,,,,,ノーキッドクリエイティブ,0
1301,6011001145876,新規,0,2022-02-24,2022-02-24,株式会社Ｎａｔｕｒａｌ　Ｍｅｄｉｃｉｎｅ　Ｊａｐａｎ,,株式会社,東京都,渋谷区,神宮前６丁目２３番４号桑野ビル２階,,13,113,1500001,,,,,,,2022-02-24,1,,,,,ナチュラルメディスンジャパン,0
1302,6011001145884,新規,0,2022-02-24,2022-02-24,株式会社ジョーズメディカル,,株式会社,東京都,渋谷区,神宮前６丁目２３番４号桑野ビル２階,,13,113,1500001,,,,,,,2022-02-24,1,,,,,ジョーズメディカル,0
1303,6011001145901,新規,0,2022-02-24,2022-02-24,株式会社ＯＮＥ　ＲＥＤ,,株式会社,東京都,渋谷区,恵比寿南１丁目１番１号ＨｕｍａｘＥｂｉｓｕビル７階,,13,113,1500022,,,,,,,2022-02-24,1,,,,,ワンレッド,0
1310,6011005009433,新規,0,2022-02-24,2022-02-24,特定非営利活動法人ささえ,,その他の設立登記法人,東京都,渋谷区,東２丁目１５番５号エスキナビル６Ｆ,,13,113,1500011,,,,,,,2022-02-24,1,,,,,ササエ,0
1313,6011101097893,新規,0,2022-02-24,2022-02-24,株式会社ＦＩＶＥ　Ａｒｒｏｗｓ,,株式会社,東京都,新宿区,西新宿３丁目３番１３号西新宿水間ビル６階,,13,104,1600023,,,,,,,2022-02-24,1,,,,,ファイブアローズ,0
1318,6011201023659,新規,0,2022-02-24,2022-02-24,ｍｏｓｗｏｒｋ株式会社,,株式会社,東京都,中野区,大和町１丁目３８番１０号マインセントラル高円寺１０３,,13,114,1650034,,,,,,,2022-02-24,1,,,,,モスワーク,0
1319,6011301027568,新規,0,2022-02-24,2022-02-24,株式会社エイチツーワイ,,株式会社,東京都,杉並区,永福３丁目４０番１０号,,13,115,1680064,,,,,,,2022-02-24,1,,,,,エイチツーワイ,0
1320,6011301027576,新規,0,2022-02-24,2022-02-24,株式会社ＯＫＤＯ,,株式会社,東京都,杉並区,久我山４丁目３番地３号,,13,115,1680082,,,,,,,2022-02-24,1,,,,,オーケーディーオー,0
1321,6011303004318,新規,0,2022-02-24,2022-02-24,ＫＲＩＴＡ　ＴＲＡＤＩＮＧ合同会社,,合同会社,東京都,杉並区,上荻２丁目２９－１２ドエルプティエール２階２０１号,,13,115,1670043,,,,,,,2022-02-24,1,,,,,クリタトレーディング,0
1323,6011601025759,新規,0,2022-02-24,2022-02-24,株式会社Ｎ・Ｓｕｐｐｏｒｔ,,株式会社,東京都,練馬区,田柄４丁目９番１１号,,13,120,1790073,,,,,,,2022-02-24,1,,,,,エヌサポート,0
1324,6011701025072,新規,0,2022-02-24,2022-02-24,株式会社李花,,株式会社,東京都,江戸川区,中葛西７丁目２６番１４号Ｕハイム１０８,,13,123,1340083,,,,,,,2022-02-24,1,,,,,リハナ,0
1327,6011801040351,新規,0,2022-02-24,2022-02-24,株式会社ＫＯ商事,,株式会社,東京都,葛飾区,亀有５丁目４２番１－２０７号レクセルマンション亀有,,13,122,1250061,,,,,,,2022-02-24,1,,,,,キオショウジ,0
1328,6011801040376,新規,0,2022-02-24,2022-02-24,天沢製作所株式会社,,株式会社,東京都,足立区,西新井栄町１丁目１４番１３－１０２号,,13,121,1230843,,,,,,,2022-02-24,1,,,,,アマサワセイサクショ,0
1331,6012401038868,新規,0,2022-02-24,2022-02-24,株式会社ロマンズ,,株式会社,東京都,狛江市,猪方１丁目５番１３号サクラスクエアウエスト２０４,,13,219,2010015,,,,,,,2022-02-24,1,,,,,ロマンズ,0
1332,6012703002407,新規,0,2022-02-24,2022-02-24,東和合同会社,,合同会社,東京都,東村山市,廻田町３丁目１５番地３２,,13,213,1890025,,,,,,,2022-02-24,1,,,,,トウワ,0
1340,6020001145332,新規,0,2022-02-24,2022-02-24,株式会社蔵工業,,株式会社,神奈川県,横浜市中区,本牧町２丁目３０４加藤ビル３０２Ｄ,,14,104,2310806,,,,,,,2022-02-24,1,,,,,クラコウギョウ,0
1341,6020001145340,新規,0,2022-02-24,2022-02-24,株式会社ＭＡＮＥＡ,,株式会社,神奈川県,横浜市西区,みなとみらい４丁目４－２横浜ブルーアベニュー１２階,,14,103,2200012,,,,,,,2022-02-24,1,,,,,マネア,0
1342,6020001145357,新規,0,2022-02-24,2022-02-24,株式会社Ｔｈｅｔａ,,株式会社,神奈川県,横浜市保土ケ谷区,岩井町１２２－１クイーンハイツ保土ヶ谷７０７,,14,106,2400023,,,,,,,2022-02-24,1,,,,,セータ,0
1350,6021001075214,新規,0,2022-02-24,2022-02-24,Ｈｅａｌ　ｔｈｅ　Ｆｕｔｕｒｅ株式会社,,株式会社,神奈川県,鎌倉市,御成町１３番１４号,,14,204,2480012,,,,,,,2022-02-24,1,,,,,ヒールザヒューチャー,0
1351,6021001075263,新規,0,2022-02-24,2022-02-24,株式会社Ｅｌｅｃｔｒｏ　Ｓｏｎ’ｓ,,株式会社,神奈川県,横須賀市,平作７丁目７番１３号,,14,201,2380032,,,,,,,2022-02-24,1,,,,,エレクトロサンズ,0
1360,6030001146932,新規,0,2022-02-24,2022-02-24,興和国際株式会社,,株式会社,埼玉県,越谷市,新明町一丁目２２４番地１ホーユウパレス越谷３０８号,,11,222,3430000,,,,,,,2022-02-24,1,,,,,コウワコクサイ,0
1361,6030001146949,新規,0,2022-02-24,2022-02-24,株式会社ａ－ｒｏｂｏ,,株式会社,埼玉県,川越市,大字山田１６２１－１モンドビル２Ｆ,,11,201,3500822,,,,,,,2022-02-24,1,,,,,エーロボ,0
1366,6030005020729,新規,0,2022-02-24,2022-02-24,一般社団法人根っこワーク協会,,その他の設立登記法人,埼玉県,上尾市,大字久保６５番地１セントラルコート上尾ジョワイユ８０１,,11,219,3620007,,,,,,,2022-02-24,1,,,,,ネッコワークキョウカイ,0
1372,6040001122321,新規,0,2022-02-24,2022-02-24,ＬＷＨ株式会社,,株式会社,千葉県,船橋市,三山８丁目６番１３号,,12,204,2740072,,,,,,,2022-02-24,1,,,,,エルダブリューエイチ,0
1376,6040003019516,新規,0,2022-02-24,2022-02-24,合同会社あい,,合同会社,千葉県,千葉市若葉区,千城台北１丁目２８番１号ヴィラロイヤル千城台３０５号,,12,104,2640005,,,,,,,2022-02-24,1,,,,,アイ,0
1377,6040003019540,新規,0,2022-02-24,2022-02-24,合同会社ステラ,,合同会社,千葉県,浦安市,富士見４丁目７－３０－１０１,,12,227,2790043,,,,,,,2022-02-24,1,,,,,ステラ,0
1379,6060001034597,新規,0,2022-02-24,2022-02-24,株式会社利美,,株式会社,栃木県,河内郡上三川町,大字上三川４６６５番地２,,09,301,3290611,,,,,,,2022-02-24,1,,,,,トシミ,0
1394,6080101023119,新規,0,2022-02-24,2022-02-24,ＴｅａｍＷ　Ｏｆｆｉｃｅ株式会社,,株式会社,静岡県,駿東郡長泉町,中土狩７５３番地の５,,22,342,4110942,,,,,,,2022-02-24,1,,,,,チームダブリューオフィス,0
1395,6080103002533,新規,0,2022-02-24,2022-02-24,ｋａ　ｆａ合同会社,,合同会社,静岡県,御殿場市,西田中４８０番地の５,,22,215,4120027,,,,,,,2022-02-24,1,,,,,カファ,0
1396,6090002015742,新規,0,2022-02-24,2022-02-24,山梨食糧工業有限会社,,有限会社,山梨県,甲府市,住吉通り２８番地,,19,201,4000000,,,,,,,2022-02-24,1,,,,,,0
1414,6120001243893,新規,0,2022-02-24,2022-02-24,カワノ電気工業株式会社,,株式会社,大阪府,寝屋川市,池田２丁目１番５７－２号,,27,215,5720039,,,,,,,2022-02-24,1,,,,,カワノデンキコウギョウ,0
1415,6120001243927,新規,0,2022-02-24,2022-02-24,株式会社Ｃｈｅｒｉｓｈ,,株式会社,大阪府,大阪市西淀川区,姫島１丁目２８番３号,,27,113,5550033,,,,,,,2022-02-24,1,,,,,チェリッシュ,0
1416,6120001243968,新規,0,2022-02-24,2022-02-24,株式会社ＣＯＣＯｄｅ,,株式会社,大阪府,大阪市浪速区,難波中３丁目６番１２号,,27,111,5560011,,,,,,,2022-02-24,1,,,,,ココデ,0
1417,6120001243992,新規,0,2022-02-24,2022-02-24,Ｃ．Ｌ．Ｐ株式会社,,株式会社,大阪府,大阪市西区,北堀江１丁目１６－１８森脇ビル３Ｂ,,27,106,5500014,,,,,,,2022-02-24,1,,,,,シーエルピー,0
1418,6120001244074,新規,0,2022-02-24,2022-02-24,ＡｗｅｓｏｍｅＣｏｄｅ株式会社,,株式会社,大阪府,大阪市北区,樋之口町１番２０－３６１０,,27,127,5300032,,,,,,,2022-02-24,1,,,,,オーサムコード,0
1427,6120903004047,新規,0,2022-02-24,2022-02-24,合同会社マントリーバ,,合同会社,大阪府,箕面市,坊島４丁目９－１０ラ・フォルテ箕面３０１,,27,220,5620013,,,,,,,2022-02-24,1,,,,,マントリーバ,0
1429,6122001035602,新規,0,2022-02-24,2022-02-24,株式会社ベーシック,,株式会社,大阪府,大東市,深野４丁目１３番２号,,27,218,5740072,,,,,,,2022-02-24,1,,,,,ベーシック,0
1433,6130001071204,新規,0,2022-02-24,2022-02-24,株式会社桃井家,,株式会社,京都府,京都市山科区,栗栖野華ノ木町１５番地６,,26,110,6078204,,,,,,,2022-02-24,1,,,,,モモイエ,0
1434,6130003007775,新規,0,2022-02-24,2022-02-24,オクノ設計事務所合同会社,,合同会社,京都府,京都市伏見区,羽束師菱川町５１１－１－２０９,,26,109,6128487,,,,,,,2022-02-24,1,,,,,オクノセッケイジムショ,0
1436,6140003017369,新規,0,2022-02-24,2022-02-24,合同会社ワールドトランスポート,,合同会社,兵庫県,宝塚市,売布東の町１６番９号,,28,214,6650867,,,,,,,2022-02-24,1,,,,,ワールドトランスポート,0
1437,6140003017385,新規,0,2022-02-24,2022-02-24,合同会社カフネ,,合同会社,兵庫県,丹波篠山市,味間新９１番地１,,28,221,6692214,,,,,,,2022-02-24,1,,,,,カフネ,0
1447,6180001150036,新規,0,2022-02-24,2022-02-24,株式会社トラスト,,株式会社,愛知県,名古屋市中村区,上石川町１丁目５番地の２ハーモニーテラス上石川町ＩＩＩ１０１号,00125785,23,105,4530835,,,,,,,2022-02-24,1,,,,,トラスト,0
1448,6180001150069,新規,0,2022-02-24,2022-02-24,株式会社ｓｕｎｒｉｓｅ,,株式会社,愛知県,名古屋市中川区,伏屋１丁目６０５番地の２セイントヒル１０３号,,23,110,4540996,,,,,,,2022-02-24,1,,,,,サンライズ,0
1449,6180001150085,新規,0,2022-02-24,2022-02-24,株式会社ＲＡＩＮＹＤＡＹ,,株式会社,愛知県,名古屋市中区,千代田３丁目３３番２０号（Ｓ－ＦＯＲＴ鶴舞ａｒｔｓ１２０１号）,,23,106,4600012,,,,,,,2022-02-24,1,,,,,レイニーデイ,0
1450,6180001150093,新規,0,2022-02-24,2022-02-24,株式会社システムＫサポート,,株式会社,愛知県,一宮市,大和町馬引字郷東１番地２９パーク・ホームズ一宮５０４号,,23,203,4910931,,,,,,,2022-02-24,1,,,,,システムケイサポート,0
1451,6180001150110,新規,0,2022-02-24,2022-02-24,Ｒｅｇｒａｔｓ株式会社,,株式会社,愛知県,名古屋市中区,栄３丁目１５番３３号栄ガスビル１３階,,23,106,4600008,,,,,,,2022-02-24,1,,,,,リグラット,0
1452,6180301035952,新規,0,2022-02-24,2022-02-24,株式会社パートナーズ,,株式会社,愛知県,岡崎市,戸崎町字牛転１０番地１２０,,23,202,4440840,,,,,,,2022-02-24,1,,,,,パートナーズ,0
1459,6220003003220,新規,0,2022-02-24,2022-02-24,合同会社ＭＩＳＳＩＯＮ,,合同会社,石川県,河北郡内灘町,字大根布５丁目１０３番地,,17,365,9200266,,,,,,,2022-02-24,1,,,,,,0
1468,6290001096490,新規,0,2022-02-24,2022-02-24,株式会社ハッピー・プラス,,株式会社,福岡県,福岡市博多区,博多駅前１丁目３１番１７号,,40,132,8120011,,,,,,,2022-02-24,1,,,,,ハッピープラス,0
1469,6290001096540,新規,0,2022-02-24,2022-02-24,ＣＩＤホールディングス株式会社,,株式会社,福岡県,福岡市博多区,博多駅中央街８番２７号,,40,132,8120012,,,,,,,2022-02-24,1,,,,,シーアイーディーホールディングス,0
1470,6290003012173,新規,0,2022-02-24,2022-02-24,対馬洋上風力発電合同会社,,合同会社,福岡県,福岡市博多区,綱場町７番１号リアンプレミアム呉服町ステーション９階,,40,132,8120024,,,,,,,2022-02-24,1,,,,,ツシマヨウジョウフウリョクハツデン,0
1473,6290803004072,新規,0,2022-02-24,2022-02-24,ＡＣサイト合同会社,,合同会社,福岡県,北九州市小倉南区,沼緑町２丁目１０番８号,,40,107,8000207,,,,,,,2022-02-24,1,,,,,エイシーサイト,0
1478,6310003004283,新規,0,2022-02-24,2022-02-24,合同会社ＪＯＩＥ,,合同会社,長崎県,長崎市,興善町７番１１号,,42,201,8500032,,,,,,,2022-02-24,1,,,,,ジョア,0
1479,6320001018904,新規,0,2022-02-24,2022-02-24,ｆｆ　ｆｕｌｌ　ｈｏｕｓｅ株式会社,,株式会社,大分県,大分市,錦町１丁目１０番９号,,44,201,8700024,,,,,,,2022-02-24,1,,,,,エフエフフルハウス,0
1480,6320001018912,新規,0,2022-02-24,2022-02-24,株式会社金ぱら,,株式会社,大分県,中津市,大字蛎瀬１３４６番地１,,44,203,8710007,,,,,,,2022-02-24,1,,,,,キンパラ,0
1485,6340003003720,新規,0,2022-02-24,2022-02-24,合同会社Ｓｉｄｅｄｏｎ,,合同会社,鹿児島県,鹿児島市,名山町８－７,,46,201,8920821,,,,,,,2022-02-24,1,,,,,サイドドン,0
1500,6380001032593,新規,0,2022-02-24,2022-02-24,スカイ工業株式会社,,株式会社,福島県,会津若松市,日新町２番２３号,,07,202,9650861,,,,,,,2022-02-24,1,,,,,スカイコウギョウ,0
1501,6380003005110,新規,0,2022-02-24,2022-02-24,合同会社ちゃのまプロジェクト,,合同会社,福島県,双葉郡広野町,大字下北迫字折返３５番地４,,07,541,9790402,,,,,,,2022-02-24,1,,,,,チャノマプロジェクト,0
1505,6430001086064,新規,0,2022-02-24,2022-02-24,株式会社ファームアグリカ,,株式会社,北海道,勇払郡むかわ町,花岡７２６番地１,,01,586,0540013,,,,,,,2022-02-24,1,,,,,ファームアグリカ,0
1522,6700150107171,新規,0,2022-02-24,2022-02-24,ランジットシンインベストメントプライベートリミテッド,,外国会社等,大阪府,大阪市中央区,久太郎町１丁目１－９,,27,128,5410056,１ＮＯＲＴＨ　ＢＲＩＤＧＥ　ＲＯＡＤ　＃Ｂ１－０４　ＨＩＧＨ　ＳＴＲＥＥＴ　ＣＥＮＴＲＥ　ＳＩＮＧＡＰＯＲＥ,,,,,,2022-02-24,1,,,,,ランジツトシンインベストメントプライベートリミテツド,0
1529,7010001224714,新規,0,2022-02-24,2022-02-24,トータルヘルステック株式会社,,株式会社,東京都,千代田区,神田神保町３丁目１０番地宝栄ビル７０２号室,,13,101,1010051,,,,,,,2022-02-24,1,,,,,トータルヘルステック,0
1545,7010401165772,新規,0,2022-02-24,2022-02-24,株式会社デジタリズム,,株式会社,東京都,港区,南青山２丁目２番１５号,,13,103,1070062,,,,,,,2022-02-24,1,,,,,デジタリズム,0
1546,7010403027145,新規,0,2022-02-24,2022-02-24,合同会社ＹＣＨ９,,合同会社,東京都,港区,南青山２丁目２番１５－８２５号,,13,103,1070062,,,,,,,2022-02-24,1,,,,,ワイシーエイチナイン,0
1561,7010901050400,新規,0,2022-02-24,2022-02-24,株式会社ＳＥＢＡＳＴＩＡＮ,,株式会社,東京都,世田谷区,松原５丁目７番１９号,,13,112,1560043,,,,,,,2022-02-24,1,,,,,セバスチャン,0
1562,7010903007134,新規,0,2022-02-24,2022-02-24,合同会社スカイ・インベスト,,合同会社,東京都,世田谷区,太子堂２丁目１４番６号スペーシア三軒茶屋弐番館４１８号,,13,112,1540004,,,,,,,2022-02-24,1,,,,,スカイインベスト,0
1567,7011001145784,新規,0,2022-02-24,2022-02-24,株式会社ファクトネス,,株式会社,東京都,渋谷区,代々木２丁目３３－１ライフロックスアイル２０４号室,,13,113,1510053,,,,,,,2022-02-24,1,,,,,ファクトネス,0
1568,7011001145850,新規,0,2022-02-24,2022-02-24,株式会社ＴＫｂｒａｎｄ,,株式会社,東京都,渋谷区,千駄ヶ谷３丁目５９－４クエストコート原宿４０５,,13,113,1510051,,,,,,,2022-02-24,1,,,,,ティーケーブランド,0
1569,7011001145900,新規,0,2022-02-24,2022-02-24,ＭａｒｋｅｔｉｎｇＷｏｒｋｓ株式会社,,株式会社,東京都,渋谷区,恵比寿西２丁目１７番１７号代官山眺めのいい家４０６,,13,113,1500021,,,,,,,2022-02-24,1,,,,,マーケティングワークス,0
1573,7011003014236,新規,0,2022-02-24,2022-02-24,合同会社玉木事務所,,合同会社,東京都,目黒区,碑文谷１丁目８番１８号２階,,13,110,1520003,,,,,,,2022-02-24,1,,,,,タマキジムショ,0
1574,7011003014252,新規,0,2022-02-24,2022-02-24,Ｍ１Ｃｏ合同会社,,合同会社,東京都,渋谷区,円山町３番６号,,13,113,1500044,,,,,,,2022-02-24,1,,,,,エムワンコ,0
1578,7011101097892,新規,0,2022-02-24,2022-02-24,金石株式会社,,株式会社,東京都,新宿区,百人町１丁目１７－６成田ビル３０２,,13,104,1690073,,,,,,,2022-02-24,1,,,,,キンセキ,0
1579,7011101097918,新規,0,2022-02-24,2022-02-24,万物潮生日本株式会社,,株式会社,東京都,新宿区,新宿２丁目１１－２ＹＭビル４Ｆ,,13,104,1600022,,,,,,,2022-02-24,1,,,,,バンブツチョウセイニホン,0
1580,7011301027575,新規,0,2022-02-24,2022-02-24,万松株式会社,,株式会社,東京都,杉並区,阿佐谷南３丁目３７番１２号６階,,13,115,1660004,,,,,,,2022-02-24,1,,,,,バンショウ,0
1581,7011403003581,新規,0,2022-02-24,2022-02-24,合同会社サンロビン,,合同会社,東京都,板橋区,熊野町１２番８号Ｓａｃｒｅｄ北池１０１,,13,119,1730025,,,,,,,2022-02-24,1,,,,,サンロビン,0
1586,7011601025766,新規,0,2022-02-24,2022-02-24,株式会社アースオブライフ,,株式会社,東京都,練馬区,桜台２丁目３４番１４号,,13,120,1760002,,,,,,,2022-02-24,1,,,,,アースオブライフ,0
1587,7011701025071,新規,0,2022-02-24,2022-02-24,Ｉｐｏｍｏｅａ株式会社,,株式会社,東京都,江戸川区,東小岩５丁目３５－８,,13,123,1330052,,,,,,,2022-02-24,1,,,,,イポメア,0
1589,7011801040375,新規,0,2022-02-24,2022-02-24,株式会社明光舎,,株式会社,東京都,葛飾区,堀切５丁目３９番２号,,13,122,1240006,,,,,,,2022-02-24,1,,,,,メイコウシャ,0
1592,7012401038883,新規,0,2022-02-24,2022-02-24,株式会社アセンション・コンサルティング,,株式会社,東京都,武蔵野市,吉祥寺北町５丁目８－２,,13,203,1800001,,,,,,,2022-02-24,1,,,,,アセンションコンサルティング,0
1601,7013303006045,新規,0,2022-02-24,2022-02-24,合同会社ＫＫＮＲ,,合同会社,東京都,豊島区,南大塚２丁目１１番１０号ミモザビル３階,,13,116,1700005,,,,,,,2022-02-24,1,,,,,ケーケーエヌアール,0
1605,7020001145356,新規,0,2022-02-24,2022-02-24,株式会社エルアーチ,,株式会社,神奈川県,横浜市青葉区,藤が丘１丁目３番地７－１Ｆ,,14,117,2270043,,,,,,,2022-02-24,1,,,,,エルアーチ,0
1613,7020003021349,新規,0,2022-02-24,2022-02-24,合同会社ニケ,,合同会社,神奈川県,横浜市青葉区,美しが丘西３丁目４８番地４－１０１,,14,117,2250001,,,,,,,2022-02-24,1,,,,,ニケ,0
1617,7021001075196,新規,0,2022-02-24,2022-02-24,ＫＥＹ　ＯＦ　ＬＩＦＥ株式会社,,株式会社,神奈川県,茅ヶ崎市,今宿１２１５番地１－６０３号,,14,207,2530072,,,,,,,2022-02-24,1,,,,,キーオブライフ,0
1618,7021001075246,新規,0,2022-02-24,2022-02-24,株式会社願わくは,,株式会社,神奈川県,鎌倉市,笛田６丁目１７番１７号,,14,204,2480027,,,,,,,2022-02-24,1,,,,,ネガワクハ,0
1619,7021003011422,新規,0,2022-02-24,2022-02-24,合同会社ニュクス,,合同会社,神奈川県,高座郡寒川町,倉見１７７８番地１１,,14,321,2530101,,,,,,,2022-02-24,1,,,,,ニュクス,0
1620,7021005012443,新規,0,2022-02-24,2022-02-24,一般社団法人国際多文化研修ラボ,,その他の設立登記法人,神奈川県,横須賀市,山科台２６番１６号,,14,201,2380312,,,,,,,2022-02-24,1,,,,,コクサイタブンカケンシュウラボ,0
1625,7030001146948,新規,0,2022-02-24,2022-02-24,株式会社ＧＡＣＨＡｘＧＡＣＨＡ,,株式会社,埼玉県,川口市,柳崎１丁目２１－２６,,11,203,3330861,,,,,,,2022-02-24,1,,,,,ガチャガチャ,0
1626,7030001146980,新規,0,2022-02-24,2022-02-24,株式会社ＯＪＡＬＡＮＤ,,株式会社,埼玉県,所沢市,上新井４丁目２番地の４－２Ｆ,,11,208,3591142,,,,,,,2022-02-24,1,,,,,オジャランド,0
1631,7030003018906,新規,0,2022-02-24,2022-02-24,合同会社ねこやなぎ,,合同会社,埼玉県,上尾市,大字平塚２０１０番地５,00125795,11,219,3620000,,,,,,,2022-02-24,1,,,,,ネコヤナギ,0
1635,7040001122295,新規,0,2022-02-24,2022-02-24,コニーズ株式会社,,株式会社,千葉県,松戸市,岩瀬２７６番地の３,,12,207,2710076,,,,,,,2022-02-24,1,,,,,コニーズ,0
1636,7040001122304,新規,0,2022-02-24,2022-02-24,誠心堂ホールディングス株式会社,,株式会社,千葉県,市川市,南行徳３丁目１８番２３号,,12,203,2720138,,,,,,,2022-02-24,1,,,,,セイシンドウホールディングス,0
1637,7040001122329,新規,0,2022-02-24,2022-02-24,Ｒｅｂｏｏｔ　Ｅｎｔｅｒｔａｉｎｍｅｎｔ株式会社,,株式会社,千葉県,山武市,木戸３０６番地,,12,237,2891301,,,,,,,2022-02-24,1,,,,,リブートエンターテイメント,0
1638,7040001122337,新規,0,2022-02-24,2022-02-24,株式会社一鶴,,株式会社,千葉県,山武郡横芝光町,鳥喰新田７１８番地１２,,12,410,2891739,,,,,,,2022-02-24,1,,,,,イッカク,0
1643,7040003019548,新規,0,2022-02-24,2022-02-24,ＩＮＭＡＲＫ　ＪＡＰＡＮ合同会社,,合同会社,千葉県,白井市,中４４４－１,,12,232,2701406,,,,,,,2022-02-24,1,,,,,インマークジャパン,0
1653,7060001034588,新規,0,2022-02-24,2022-02-24,ランドリアルデータバンク株式会社,,株式会社,栃木県,宇都宮市,泉が丘６丁目３番２５号,,09,201,3210952,,,,,,,2022-02-24,1,,,,,ランドリアルデータバンク,0
1655,7080101023118,新規,0,2022-02-24,2022-02-24,グランコーヨー富士株式会社,,株式会社,静岡県,富士市,広見本町１０番３号,,22,210,4170864,,,,,,,2022-02-24,1,,,,,グランコーヨーフジ,0
1656,7080103002532,新規,0,2022-02-24,2022-02-24,合同会社結,,合同会社,静岡県,富士宮市,上井出８８０番地の１８,,22,207,4180103,,,,,,,2022-02-24,1,,,,,ユイ,0
1658,7100001035094,新規,0,2022-02-24,2022-02-24,株式会社タンケイ,,株式会社,長野県,長野市,大字鶴賀問御所町１３０３番地グランセル表参道１１０１,,20,201,3800834,,,,,,,2022-02-24,1,,,,,タンケイ,0
1661,7100003006424,新規,0,2022-02-24,2022-02-24,ミチクサ合同会社,,合同会社,長野県,南佐久郡佐久穂町,大字宿岩４０６番地３スクエア佐久穂２０３,,20,309,3840612,,,,,,,2022-02-24,1,,,,,ミチクサ,0
1676,7120101065114,新規,0,2022-02-24,2022-02-24,株式会社ＢＩ　ＢＬＯＯＭ,,株式会社,大阪府,堺市堺区,南瓦町１－２０,,27,141,5900078,,,,,,,2022-02-24,1,,,,,ビブルーム,0
1684,7122001035601,新規,0,2022-02-24,2022-02-24,株式会社ＨＡＫＵ,,株式会社,大阪府,柏原市,石川町４番２２号,,27,221,5820029,,,,,,,2022-02-24,1,,,,,ハク,0
1685,7130003007774,新規,0,2022-02-24,2022-02-24,合同会社イバール,,合同会社,京都府,宇治市,大久保町田原３６番地の１パデシオン京都大久保６１３号,,26,204,6110033,,,,,,,2022-02-24,1,,,,,イバール,0
1690,7140001124983,新規,0,2022-02-24,2022-02-24,株式会社シドラス,,株式会社,兵庫県,神戸市中央区,熊内橋通６丁目３番１９号,,28,110,6510055,,,,,,,2022-02-24,1,,,,,シドラス,0
1691,7140003017384,新規,0,2022-02-24,2022-02-24,Ｆ＆Ｋ合同会社,,合同会社,兵庫県,神戸市北区,山田町字西畑１８番地,,28,109,6511100,,,,,,,2022-02-24,1,,,,,エフアンドケー,0
1693,7150001025363,新規,0,2022-02-24,2022-02-24,株式会社あとりえｍａｎｅｋｉｎｅｋｏ,,株式会社,奈良県,奈良市,神殿町６０６番地の４,,29,201,6308441,,,,,,,2022-02-24,1,,,,,アトリエマネキネコ,0
1705,7180001150118,新規,0,2022-02-24,2022-02-24,株式会社Ｓｅａｓｏｎｓ,,株式会社,愛知県,東海市,加木屋町陀々法師１４番地６５,,23,222,4770032,,,,,,,2022-02-24,1,,,,,シーズンズ,0
1710,7180003023536,新規,0,2022-02-24,2022-02-24,合同会社パル,,合同会社,愛知県,名古屋市瑞穂区,弥富通二丁目２４番地１０１,,23,108,4670000,,,,,,,2022-02-24,1,,,,,パル,0
1714,7180301035943,新規,0,2022-02-24,2022-02-24,結び不動産株式会社,,株式会社,愛知県,刈谷市,新栄町７丁目４２番地１,,23,210,4480843,,,,,,,2022-02-24,1,,,,,ムスビフドウサン,0
1715,7190001029154,新規,0,2022-02-24,2022-02-24,株式会社ライフ,,株式会社,三重県,桑名市,寿町３丁目７０番地,,24,205,5110061,,,,,,,2022-02-24,1,,,,,ライフ,0
1717,7200003005465,新規,0,2022-02-24,2022-02-24,合同会社未来会計パートナー,,合同会社,岐阜県,岐阜市,福田町２丁目１６番地１,,21,201,5020822,,,,,,,2022-02-24,1,,,,,ミライカイケイパートナー,0
1721,7230003001809,新規,0,2022-02-24,2022-02-24,Ａｖａｎｃａｒ合同会社,,合同会社,富山県,魚津市,青島６９８番地２,,16,204,9370063,,,,,,,2022-02-24,1,,,,,アヴァンセ,0
1722,7240001059377,新規,0,2022-02-24,2022-02-24,株式会社李氏家業,,株式会社,広島県,広島市南区,松原町５番２－５２０６号,,34,103,7320822,,,,,,,2022-02-24,1,,,,,リスージェーイェー,0
1728,7260001036556,新規,0,2022-02-24,2022-02-24,株式会社Ｊ－ＳＴＯＲＥ,,株式会社,岡山県,真庭市,西河内６９６番地４３,,33,214,7193145,,,,,,,2022-02-24,1,,,,,ジェイストア,0
1729,7260003003819,新規,0,2022-02-24,2022-02-24,合同会社池田商店,,合同会社,岡山県,真庭市,蒜山下福田９４４,,33,214,7170504,,,,,,,2022-02-24,1,,,,,イケダショウテン,0
1735,7290001096531,新規,0,2022-02-24,2022-02-24,株式会社マルキチ,,株式会社,福岡県,朝倉市,来春４０３番地ハイラーク甘木Ｆ２０１,,40,228,8380069,,,,,,,2022-02-24,1,,,,,マルキチ,0
1736,7290003012189,新規,0,2022-02-24,2022-02-24,合同会社みちなり,,合同会社,福岡県,福岡市博多区,博多駅前２丁目１９番１７号トーカン博多第５ビル３１２号室,,40,132,8120011,,,,,,,2022-02-24,1,,,,,ミチナリ,0
1738,7290801028279,新規,0,2022-02-24,2022-02-24,株式会社Ｋｉｃｋ　ＯＮ,,株式会社,福岡県,行橋市,南泉３丁目５８番１０号,,40,213,8240036,,,,,,,2022-02-24,1,,,,,キックオン,0
1739,7300001012817,新規,0,2022-02-24,2022-02-24,九州資材販売株式会社,,株式会社,佐賀県,佐賀市,水ヶ江４丁目９番１４号,,41,201,8400054,,,,,,,2022-02-24,1,,,,,キュウシュウシザイハンバイ,0
1747,7350001017588,新規,0,2022-02-24,2022-02-24,株式会社石川商会,,株式会社,宮崎県,北諸県郡三股町,大字長田１８３７番地２５,,45,341,8891911,,,,,,,2022-02-24,1,,,,,イシカワショウカイ,0
1750,7360001030037,新規,0,2022-02-24,2022-02-24,株式会社ＧＩサービス,,株式会社,沖縄県,うるま市,石川４３０番地１Ｆ,,47,213,9041106,,,,,,,2022-02-24,1,,,,,ジーアイサービス,0
1752,7360003011828,新規,0,2022-02-24,2022-02-24,合同会社アンシェイカブル,,合同会社,沖縄県,宜野湾市,嘉数１丁目１７番５－２０２号ベイヒルズＩＩ,00125784,47,205,9012226,,,,,,,2022-02-24,1,,,,,アンシェイカブル,0
1753,7370003005589,新規,0,2022-02-24,2022-02-24,合同会社７ｔｏｏｌｓ,,合同会社,宮城県,仙台市太白区,長町南２丁目１番１０－２０２号,,04,104,9820012,,,,,,,2022-02-24,1,,,,,セブンツールズ,0
1757,7420003002457,新規,0,2022-02-24,2022-02-24,合同会社Ｏｇｎ,,合同会社,青森県,八戸市,根城５丁目１番１０号マスコット雅Ｈ号室,,02,203,0391166,,,,,,,2022-02-24,1,,,,,オージーエヌ,0
1761,7430001086014,新規,0,2022-02-24,2022-02-24,株式会社Ｔｓｏｒｏ,,株式会社,北海道,札幌市中央区,南二条西１２丁目３２３番地８,,01,101,0600062,,,,,,,2022-02-24,1,,,,,テゾーロ,0
1763,7430003013651,新規,0,2022-02-24,2022-02-24,合同会社スピカ,,合同会社,北海道,札幌市中央区,南一条西１０丁目４番地１６３－７０７号,,01,101,0600061,,,,,,,2022-02-24,1,,,,,スピカ,0
1764,7450003002181,新規,0,2022-02-24,2022-02-24,合同会社なまらコリア,,合同会社,北海道,旭川市,緑が丘南二条２丁目８番１０号,,01,204,0788812,,,,,,,2022-02-24,1,,,,,ナマラコリア,0
1767,7460303000751,新規,0,2022-02-24,2022-02-24,合同会社アイズ,,合同会社,北海道,網走市,字潮見１７９番地の１７,,01,211,0930042,,,,,,,2022-02-24,1,,,,,,0
1779,7700150106726,新規,0,2022-02-24,2022-01-19,ＣＥＮＴＲＡＬ　ＡＲＴ,,その他,岐阜県,土岐市,泉町大富１８８７番地,,21,212,5095132,,,,,,,2022-01-19,1,,,,,セントラルアート,0
1780,7700150107170,新規,0,2022-02-24,2022-02-24,ＦＯＸＣＯＮＮ　ＩＮＴＥＲＣＯＮＮＥＣＴ　ＴＥＣＨＮＯＬＯＧＹ　ＳＩＮＧＡＰＯＲＥ　ＰＴＥ．　ＬＴＤ．,,外国会社等,,,,,,,,５４　ＧＥＮＴＩＮＧ　ＬＡＮＥ＃０３－０５，　ＲＵＢＹ　ＬＡＮＤ　ＣＯＭＰＬＥＸ，　ＳＩＮＧＡＰＯＲＥ　３４９５６２,,,,,,2022-02-24,1,,,,,フオツクスコンインターコネクトテクノロジーシンガポールピーテイーイーエルテイデイ,0
1789,8010001224721,新規,0,2022-02-24,2022-02-24,株式会社ｒｅｍｂｕｌａｎ,,株式会社,東京都,中央区,日本橋兜町１７番１号日本橋ロイヤルプラザ７０６,,13,102,1030026,,,,,,,2022-02-24,1,,,,,レンブラン,0
1790,8010001224754,新規,0,2022-02-24,2022-02-24,株式会社佐野会計事務所,,株式会社,東京都,千代田区,岩本町１丁目３番１号,,13,101,1010032,,,,,,,2022-02-24,1,,,,,サノカイケイジムショ,0
1791,8010001224770,新規,0,2022-02-24,2022-02-24,Ｉ．Ｃ．Ｍ株式会社,,株式会社,東京都,千代田区,飯田橋４丁目７番１１号,,13,101,1020072,,,,,,,2022-02-24,1,,,,,アイシーエム,0
1793,8010003037048,新規,0,2022-02-24,2022-02-24,ニーハオ中文合同会社,,合同会社,東京都,文京区,向丘１丁目１２番４号ミセレニ白山３０２,,13,105,1130023,,,,,,,2022-02-24,1,,,,,ニーハオチュウブン,0
1794,8010003037064,新規,0,2022-02-24,2022-02-24,六本木リアルティ・ツー合同会社,,合同会社,東京都,中央区,日本橋１丁目４番１号,,13,102,1030027,,,,,,,2022-02-24,1,,,,,ロッポンギリアルティツー,0
1802,8010401165714,新規,0,2022-02-24,2022-02-24,株式会社Ｌ．Ｃ．Ｌ．トランスフォームコーチング,,株式会社,東京都,港区,浜松町２丁目２番１５号浜松町ダイヤビル２Ｆ,,13,103,1050013,,,,,,,2022-02-24,1,,,,,エルシーエルトランスフォームコーチング,0
1803,8010401165788,新規,0,2022-02-24,2022-02-24,株式会社Ａｍｅｌｉａ　Ｌｉｓｈａ,,株式会社,東京都,港区,海岸２丁目５番１号,,13,103,1050022,,,,,,,2022-02-24,1,,,,,アメリアリシャ,0
1805,8010403027152,新規,0,2022-02-24,2022-02-24,シトラスインベストメント合同会社,,合同会社,東京都,港区,北青山２丁目５番１号,,13,103,1070061,,,,,,,2022-02-24,1,,,,,シトラスインベストメント,0
1818,8011001145668,新規,0,2022-02-24,2022-02-24,アドゲート株式会社,,株式会社,東京都,渋谷区,渋谷１丁目８番５号,,13,113,1500002,,,,,,,2022-02-24,1,,,,,アドゲート,0
1819,8011001145858,新規,0,2022-02-24,2022-02-24,株式会社１０万回,,株式会社,東京都,渋谷区,代官山町８番７号,,13,113,1500034,,,,,,,2022-02-24,1,,,,,ジュウマンカイ,0
1820,8011001145882,新規,0,2022-02-24,2022-02-24,株式会社ｍｅｐｏＲｅｆ,,株式会社,東京都,渋谷区,神宮前６丁目２３番４号,,13,113,1500001,,,,,,,2022-02-24,1,,,,,メポレフ,0
1823,8011101097909,新規,0,2022-02-24,2022-02-24,聯鉅株式会社,,株式会社,東京都,新宿区,早稲田鶴巻町５２０番地１０,,13,104,1620041,,,,,,,2022-02-24,1,,,,,レンキョ,0
1825,8011103011504,新規,0,2022-02-24,2022-02-24,合同会社ＫＡＺ　Ｐｅｔ　Ｓｅｒｖｉｃｅ,,合同会社,東京都,新宿区,原町１丁目５７番地４,,13,104,1620053,,,,,,,2022-02-24,1,,,,,カズペットサービス,0
1827,8011105010149,新規,0,2022-02-24,2022-02-24,一般社団法人アトラップレーヴ,,その他の設立登記法人,東京都,新宿区,西新宿７丁目８番１１号美笠ビル６０１,,13,104,1600023,,,,,,,2022-02-24,1,,,,,アトラップレーヴ,0
1828,8011301027566,新規,0,2022-02-24,2022-02-24,株式会社ものつくり,,株式会社,東京都,杉並区,荻窪４丁目３３番２－３０６号,,13,115,1670051,,,,,,,2022-02-24,1,,,,,モノツクリ,0
1831,8011601025757,新規,0,2022-02-24,2022-02-24,株式会社メディカル・トラスト,,株式会社,東京都,練馬区,関町北４丁目２１番８号,,13,120,1770051,,,,,,,2022-02-24,1,,,,,メディカルトラスト,0
1838,8012403005245,新規,0,2022-02-24,2022-02-24,合同会社ＴＡＭＡ未来会計,,合同会社,東京都,武蔵野市,御殿山１丁目２番４号ゼクシア吉祥寺御殿山７０２号室,,13,203,1800005,,,,,,,2022-02-24,1,,,,,タマミライカイケイ,0
1840,8012701016943,新規,0,2022-02-24,2022-02-24,株式会社ＳＫＥ,,株式会社,東京都,西東京市,富士町４丁目１２番５号東伏見ハイム１０１,,13,229,2020014,,,,,,,2022-02-24,1,,,,,エスケイイー,0
1855,8021001075138,新規,0,2022-02-24,2022-02-24,ＥＩＮＥＲ株式会社,,株式会社,神奈川県,藤沢市,鵠沼石上１丁目４－１３ロコテラス湘南４０１号室,,14,205,2510025,,,,,,,2022-02-24,1,,,,,,0
1859,8030001146914,新規,0,2022-02-24,2022-02-24,ＡＴＢ株式会社,,株式会社,埼玉県,川口市,大字里１４７０番地の１０,,11,203,3340005,,,,,,,2022-02-24,1,,,,,エティビ,0
1860,8030001146955,新規,0,2022-02-24,2022-02-24,株式会社Ｍ－ｏｒｎａｍｅｎｔ,,株式会社,埼玉県,富士見市,針ケ谷１丁目２番地１４パークサイド１０５号,,11,235,3540017,,,,,,,2022-02-24,1,,,,,エムオーナメント,0
1865,8030003018896,新規,0,2022-02-24,2022-02-24,合同会社ＵＮＩＶＥＲＳＥ,,合同会社,埼玉県,草加市,手代１丁目３１番９号,,11,221,3400021,,,,,,,2022-02-24,1,,,,,ユニバース,0
1866,8030003018913,新規,0,2022-02-24,2022-02-24,北関東エムフォールディングス合同会社,,合同会社,埼玉県,行田市,大字若小玉２２２７－１,,11,206,3610017,,,,,,,2022-02-24,1,,,,,キタカントウエムフォールディングス,0
1877,8040001122286,新規,0,2022-02-24,2022-02-24,株式会社ＰＥＡＣＨＥＳ,,株式会社,千葉県,流山市,おおたかの森東２丁目１３番地の３オーベルグランディオおおたかの森７１３,,12,220,2700138,,,,,,,2022-02-24,1,,,,,ピーチーズ,0
1878,8040001122294,新規,0,2022-02-24,2022-02-24,株式会社ＹＹホーム,,株式会社,千葉県,船橋市,夏見台５丁目５番２号,,12,204,2730866,,,,,,,2022-02-24,1,,,,,ワイワイホーム,0
1879,8040001122303,新規,0,2022-02-24,2022-02-24,株式会社ＪＰＩＡ,,株式会社,千葉県,鴨川市,小湊５７番地,,12,223,2995501,,,,,,,2022-02-24,1,,,,,ジェピア,0
1880,8040001122328,新規,0,2022-02-24,2022-02-24,株式会社ＳＵＬＯＶＥ,,株式会社,千葉県,船橋市,三咲３丁目１番１４号,,12,204,2740812,,,,,,,2022-02-24,1,,,,,スラブ,0
1881,8040001122336,新規,0,2022-02-24,2022-02-24,株式会社カレット,,株式会社,千葉県,千葉市中央区,栄町１５－８－１０２,,12,101,2600016,,,,,,,2022-02-24,1,,,,,カレット,0
1884,8040003019530,新規,0,2022-02-24,2022-02-24,合同会社ＡＸＩＡ,,合同会社,千葉県,柏市,中原２丁目１５番１８号,,12,217,2770085,,,,,,,2022-02-24,1,,,,,アクシア,0
1885,8040003019547,新規,0,2022-02-24,2022-02-24,合同会社ｔｉｎｋ,,合同会社,千葉県,船橋市,本中山７丁目１０番１７－３０６号,,12,204,2730035,,,,,,,2022-02-24,1,,,,,ティンク,0
1886,8040003019555,新規,0,2022-02-24,2022-02-24,合同会社駿達不動産,,合同会社,千葉県,千葉市中央区,花輪町１６番地１,,12,101,2600803,,,,,,,2022-02-24,1,,,,,シュンダツフドウサン,0
1892,8070001038967,新規,0,2022-02-24,2022-02-24,株式会社リベワン,,株式会社,群馬県,高崎市,台新田町１４７番地２,,10,202,3701206,,,,,,,2022-02-24,1,,,,,リベワン,0
1895,8080001024776,新規,0,2022-02-24,2022-02-24,株式会社静清ハウジング,,株式会社,静岡県,静岡市清水区,袖師町１１０７番地,,22,103,4240037,,,,,,,2022-02-24,1,,,,,セイシンハウジング,0
1914,8120001243974,新規,0,2022-02-24,2022-02-24,株式会社大森工務店,,株式会社,大阪府,枚方市,中宮山戸町１２番２３号,,27,210,5730011,,,,,,,2022-02-24,1,,,,,オオモリコウムテン,0
1915,8120001243982,新規,0,2022-02-24,2022-02-24,株式会社ナイスオン,,株式会社,大阪府,大阪市北区,梅田１丁目１番３号大阪駅前第３ビル２９階１－１－１号室,,27,127,5300001,,,,,,,2022-02-24,1,,,,,ナイスオン,0
1916,8120001243990,新規,0,2022-02-24,2022-02-24,鴻飛フード株式会社,,株式会社,大阪府,大阪市淀川区,木川西２丁目６番１６号,,27,123,5320013,,,,,,,2022-02-24,1,,,,,ホンフェイフード,0
1917,8120001243999,新規,0,2022-02-24,2022-02-24,裕翔株式会社,,株式会社,大阪府,大阪市淀川区,十三本町１丁目２１番３２号,,27,123,5320024,,,,,,,2022-02-24,1,,,,,ユウショウ,0
1924,8120901045636,新規,0,2022-02-24,2022-02-24,株式会社コスモケミカル,,株式会社,大阪府,摂津市,東一津屋３番３３号,,27,224,5660074,,,,,,,2022-02-24,1,,,,,コスモケミカル,0
1925,8120905006287,新規,0,2022-02-24,2022-02-24,ＮＰＯ法人ｐｏｃｏ　ａ　ｐｏｃｏ,,その他の設立登記法人,大阪府,茨木市,彩都やまぶき２丁目２番Ｂ－１２０８号,,27,211,5670086,,,,,,,2022-02-24,1,,,,,ポコアポコ,0
1930,8130003007773,新規,0,2022-02-24,2022-02-24,合同会社おふくろ,,合同会社,京都府,京都市右京区,太秦一町芝町１番地８,,26,108,6168175,,,,,,,2022-02-24,1,,,,,オフクロ,0
1936,8140001124966,新規,0,2022-02-24,2022-02-24,株式会社榮,,株式会社,兵庫県,姫路市,東駅前町１００番地姫路ザ．レジデンス１５０６号,,28,201,6700926,,,,,,,2022-02-24,1,,,,,サカエ,0
1937,8140001124990,新規,0,2022-02-24,2022-02-24,株式会社ミライト,,株式会社,兵庫県,三田市,弥生が丘１丁目３番地１・２番館１４１０号,,28,219,6691546,,,,,,,2022-02-24,1,,,,,ミライト,0
1938,8140001124999,新規,0,2022-02-24,2022-02-24,全国植物工場本部株式会社,,株式会社,兵庫県,川西市,多田院１丁目９番８号,,28,217,6660126,,,,,,,2022-02-24,1,,,,,ゼンコクショクブツコウジョウホンブ,0
1939,8140001125007,新規,0,2022-02-24,2022-02-24,株式会社アイリース,,株式会社,兵庫県,神戸市東灘区,魚崎中町１丁目９番１１号ＹＭビル３０１－Ｂ号,,28,101,6580083,,,,,,,2022-02-24,1,,,,,アイリース,0
1940,8140001125015,新規,0,2022-02-24,2022-02-24,株式会社コンパニオン,,株式会社,兵庫県,神戸市中央区,八雲通３丁目１番２号中山マンション１Ｆ,,28,110,6510078,,,,,,,2022-02-24,1,,,,,コンパニオン,0
1943,8170001016987,新規,0,2022-02-24,2022-02-24,ビジネスラボ株式会社,,株式会社,和歌山県,和歌山市,毛見１５０５番地１１パシフィックビスタＩＶ２０２,00125782,30,201,6410014,,,,,,,2022-02-24,1,,,,,ビジネスラボ,0
1950,8180001150100,新規,0,2022-02-24,2022-02-24,株式会社アトモス,,株式会社,愛知県,名古屋市熱田区,四番１丁目１６番４６号,,23,109,4560051,,,,,,,2022-02-24,1,,,,,アトモス,0
1951,8180001150109,新規,0,2022-02-24,2022-02-24,株式会社箒星,,株式会社,愛知県,小牧市,大字文津１６－１,,23,219,4850827,,,,,,,2022-02-24,1,,,,,ホウキボシ,0
1955,8180003023527,新規,0,2022-02-24,2022-02-24,合同会社ＬＥＯＮ,,合同会社,愛知県,あま市,新居屋上古川７番地２スカイハイツ甚目寺Ｒ棟１０１３号,,23,237,4901105,,,,,,,2022-02-24,1,,,,,レオン,0
1959,8180301035950,新規,0,2022-02-24,2022-02-24,株式会社リンクスタッド,,株式会社,愛知県,田原市,東赤石５丁目３７番地,,23,231,4413416,,,,,,,2022-02-24,1,,,,,リンクスタッド,0
1960,8180303005258,新規,0,2022-02-24,2022-02-24,合同会社ＵＮＦＯＲＭＡＴ,,合同会社,愛知県,豊田市,三軒町７丁目２５番地１シェルブルー２０５号,,23,211,4710037,,,,,,,2022-02-24,1,,,,,アンフォーマット,0
1967,8200001039761,新規,0,2022-02-24,2022-02-24,株式会社Ｌｕａｎ,,株式会社,岐阜県,多治見市,住吉町６丁目２３番１号住吉ファインビル１Ｆ,,21,204,5070015,,,,,,,2022-02-24,1,,,,,ルアン,0
1975,8240003005519,新規,0,2022-02-24,2022-02-24,ＡＩＲＳＨＩＰ　ＪＡＰＡＮ合同会社,,合同会社,広島県,尾道市,東土堂町２番１２号,,34,205,7220033,,,,,,,2022-02-24,1,,,,,エアシップジャパン,0
1982,8290001096539,新規,0,2022-02-24,2022-02-24,株式会社福ラボ,,株式会社,福岡県,福岡市博多区,店屋町１－２１ＨＡＫＡＴＡＴＥＮＹＡＭＡＣＨＩＰＬＡＣＥ１０Ｆ,,40,132,8120025,,,,,,,2022-02-24,1,,,,,フクラボ,0
1987,8290003012171,新規,0,2022-02-24,2022-02-24,合同会社Ｍ２,,合同会社,福岡県,福岡市西区,今宿２丁目７番２号,,40,135,8190167,,,,,,,2022-02-24,1,,,,,エムツー,0
1988,8290003012188,新規,0,2022-02-24,2022-02-24,合同会社三星開発,,合同会社,福岡県,福岡市博多区,美野島２丁目１番２８号１階,,40,132,8120017,,,,,,,2022-02-24,1,,,,,サンセイカイハツ,0
1994,8310001017731,新規,0,2022-02-24,2022-02-24,株式会社アライズ,,株式会社,長崎県,西彼杵郡時津町,野田郷７２３番地１０,,42,308,8512104,,,,,,,2022-02-24,1,,,,,アライズ,0
1995,8320001018910,新規,0,2022-02-24,2022-02-24,株式会社ＦＵＧＡ,,株式会社,大分県,大分市,大字森町２３６番地の１,,44,201,8700127,,,,,,,2022-02-24,1,,,,,フウガ,0
1998,8320003003737,新規,0,2022-02-24,2022-02-24,ＬＡＥＴＵＳ合同会社,,合同会社,大分県,大分市,木上台２丁目１０番１号,,44,201,8701169,,,,,,,2022-02-24,1,,,,,ラエトゥス,0
2004,8370001048218,新規,0,2022-02-24,2022-02-24,オフィス・タカハシ株式会社,,株式会社,宮城県,宮城郡利府町,しらかし台１丁目１番地４３,,04,406,9810134,,,,,,,2022-02-24,1,,,,,オフィスタカハシ,0
2005,8370001048226,新規,0,2022-02-24,2022-02-24,株式会社エクシードクロス,,株式会社,宮城県,仙台市青葉区,花京院１丁目１番２０号（花京院スクエア１９階）,,04,101,9800013,,,,,,,2022-02-24,1,,,,,エクシードクロス,0
2006,8370001048234,新規,0,2022-02-24,2022-02-24,株式会社眞栄エンジニア,,株式会社,宮城県,遠田郡美里町,関根字堤筒８３番地,,04,505,9870006,,,,,,,2022-02-24,1,,,,,シンエイエンジニア,0
2007,8370003005596,新規,0,2022-02-24,2022-02-24,合同会社エビス,,合同会社,宮城県,仙台市青葉区,小田原７丁目１番３号ラビットハイツ２－１０１号室,,04,101,9800003,,,,,,,2022-02-24,1,,,,,エビス,0
2012,8380005012540,新規,0,2022-02-24,2022-02-24,農事組合法人藤橋ファーマーズ,,その他の設立登記法人,福島県,双葉郡浪江町,大字藤橋字観音前３１番地,,07,547,9791502,,,,,,,2022-02-24,1,,,,,フジハシファーマーズ,0
2018,8430001086038,新規,0,2022-02-24,2022-02-24,株式会社北翔技建,,株式会社,北海道,札幌市西区,発寒十一条５丁目７番２２号,,01,107,0630831,,,,,,,2022-02-24,1,,,,,ホクショウギケン,0
2019,8430003013650,新規,0,2022-02-24,2022-02-24,合同会社ＣＨＲＹＳＯＳ,,合同会社,北海道,札幌市中央区,南十一条西８丁目３―２０エフェクト南１１条Ａ棟５０５号室,,01,101,0640811,,,,,,,2022-02-24,1,,,,,クリソ,0
2020,8450003002180,新規,0,2022-02-24,2022-02-24,合同会社Ｅｃｈｏｅｓ,,合同会社,北海道,旭川市,忠和五条１丁目８番２号,,01,204,0708045,,,,,,,2022-02-24,1,,,,,エコーズ,0
2025,8500003002778,新規,0,2022-02-24,2022-02-24,合同会社Ｓｕｎｎｙ,,合同会社,愛媛県,松山市,桑原２丁目１番１６号,,38,201,7900911,,,,,,,2022-02-24,1,,,,,サニー,0
2026,8700150107178,新規,0,2022-02-24,2022-02-24,Ｐｒａｇｅｅｔｈ　Ｍｏｔｏｒｓ,,外国会社等,千葉県,いすみ市,大原６７０８番地１２,,12,238,2980004,スリランカ民主社会主義共和国、カラリヤッダ、テルデニヤ、２０．Ｂ,,,,,,2022-02-24,1,,,,,プラギースモタース,0
2032,9010001224695,新規,0,2022-02-24,2022-02-24,株式会社ＫＯＮ,,株式会社,東京都,中央区,月島２丁目１４番１４－２０１号,,13,102,1040052,,,,,,,2022-02-24,1,,,,,コン,0
2033,9010001224729,新規,0,2022-02-24,2022-02-24,株式会社ヴェジスタ,,株式会社,東京都,千代田区,九段南３丁目４番５号,,13,101,1020074,,,,,,,2022-02-24,1,,,,,ヴェジスタ,0
2035,9010003037063,新規,0,2022-02-24,2022-02-24,合同会社ＡＳＳＥＴ　ＣＯＭＰＡＳＳ,,合同会社,東京都,中央区,銀座１丁目２２番１１号銀座大竹ビジデンス２階,,13,102,1040061,,,,,,,2022-02-24,1,,,,,アセットコンパス,0
2040,9010401165688,新規,0,2022-02-24,2022-02-24,株式会社ＴＵＭＵＧＵＹＡ,,株式会社,東京都,港区,赤坂８丁目１番５号,,13,103,1070052,,,,,,,2022-02-24,1,,,,,ツムグヤ,0
2041,9010401165754,新規,0,2022-02-24,2022-02-24,Ｆｏｒ　Ｆｕｔｕｒｅ　Ｇｅｎｅｒａｔｉｏｎ株式会社,,株式会社,東京都,港区,虎ノ門１丁目１７番１号虎ノ門ヒルズビジネスタワー１５階,,13,103,1050001,,,,,,,2022-02-24,1,,,,,フォーフューチャージェネレーション,0
2046,9010403027119,新規,0,2022-02-24,2022-02-24,和歌山洋上風力発電合同会社,,合同会社,東京都,港区,新橋６丁目１７番２１号住友不動産御成門駅前ビル１０階,,13,103,1050004,,,,,,,2022-02-24,1,,,,,ワカヤマヨウジョウフウリョクハツデン,0
2048,9010405020724,新規,0,2022-02-24,2022-02-24,ＦＡ協同組合,,その他の設立登記法人,東京都,港区,新橋６丁目１番１１号Ｄａｉｗａ御成門ビル３階,,13,103,1050004,,,,,,,2022-02-24,1,,,,,エフエイ,0
2049,9010405020740,新規,0,2022-02-24,2022-02-24,ＥＳＲ２７・１一般社団法人,,その他の設立登記法人,東京都,港区,浜松町１丁目２０番１０号ライオネス浜松町５０６号室,,13,103,1050013,,,,,,,2022-02-24,1,,,,,イーエスアールニジュウナナイチ,0
2050,9010601060722,新規,0,2022-02-24,2022-02-24,株式会社Ｕ－ＰＯＷＥＲ,,株式会社,東京都,墨田区,向島１丁目９番１号,,13,107,1310033,,,,,,,2022-02-24,1,,,,,ユーパワー,0
2051,9010601060730,新規,0,2022-02-24,2022-02-24,伊達株式会社,,株式会社,東京都,江東区,東雲１丁目９－４パークタワー東雲２９１５号室,,13,108,1350062,,,,,,,2022-02-24,1,,,,,イダチ,0
2052,9010603009404,新規,0,2022-02-24,2022-02-24,合同会社Ａ,,合同会社,東京都,江東区,大島３丁目８番７－１１８号,,13,108,1360072,,,,,,,2022-02-24,1,,,,,エイ,0
2058,9010701042265,新規,0,2022-02-24,2022-02-24,株式会社Ｇｏｌｄ　Ｆｕｌｌ　Ｃａｐｉｔａｌ,,株式会社,東京都,品川区,東大井５丁目２１番９号Ｋ－８ビル１階,,13,109,1400011,,,,,,,2022-02-24,1,,,,,ゴールドフルキャピタル,0
2068,9010903007173,新規,0,2022-02-24,2022-02-24,ミドリクラフトワークス合同会社,,合同会社,東京都,世田谷区,上祖師谷２丁目２８番１３号,,13,112,1570065,,,,,,,2022-02-24,1,,,,,ミドリクラフトワークス,0
2076,9011001145857,新規,0,2022-02-24,2022-02-24,エンタープライズミキ株式会社,,株式会社,東京都,渋谷区,幡ヶ谷３丁目４８番８号,,13,113,1510072,,,,,,,2022-02-24,1,,,,,エンタープライズミキ,0
2077,9011001145881,新規,0,2022-02-24,2022-02-24,株式会社ＳＯＬＳＯＬ　ＦＲＩＥＮＤＳ,,株式会社,東京都,渋谷区,恵比寿西１丁目３４番２８号代官山ファースト２階,,13,113,1500021,,,,,,,2022-02-24,1,,,,,ソルソルフレンズ,0
2078,9011001145907,新規,0,2022-02-24,2022-02-24,株式会社ＭＥＥＺ,,株式会社,東京都,渋谷区,渋谷３丁目５番１６号渋谷三丁目スクエアビル２階,,13,113,1500002,,,,,,,2022-02-24,1,,,,,ミーズ,0
2084,9011005009439,新規,0,2022-02-24,2022-02-24,一般社団法人Ｋｎｏｃｋｕ,,その他の設立登記法人,東京都,渋谷区,上原３丁目１７番３号,,13,113,1510064,,,,,,,2022-02-24,1,,,,,ノッキュー,0
2085,9011005009447,新規,0,2022-02-24,2022-02-24,一般財団法人ブラッサム財団,,その他の設立登記法人,東京都,渋谷区,西原２丁目２６番３号ＧＡ西原１０２,,13,113,1510066,,,,,,,2022-02-24,1,,,,,ブラッサムザイダン,0
2088,9011101097908,新規,0,2022-02-24,2022-02-24,株式会社Ｓｆｉｄａ,,株式会社,東京都,新宿区,百人町１丁目１８番９号,,13,104,1690073,,,,,,,2022-02-24,1,,,,,スフィーダ,0
2094,9011301027573,新規,0,2022-02-24,2022-02-24,ミナトＨＤ株式会社,,株式会社,東京都,杉並区,宮前５丁目１６番４号,,13,115,1680081,,,,,,,2022-02-24,1,,,,,ミナトエイチディー,0
2102,9011801040373,新規,0,2022-02-24,2022-02-24,株式会社豊栄興業,,株式会社,東京都,足立区,六町４丁目４番１４号－３０１,,13,121,1210073,,,,,,,2022-02-24,1,,,,,ホウエイコウギョウ,0
2105,9012803002709,新規,0,2022-02-24,2022-02-24,Ｉｚｕｍｉ　Ｄｅｓｉｇｎ合同会社,00125792,合同会社,東京都,武蔵村山市,学園１丁目２９－２０,,13,223,2080011,,,,,,,2022-02-24,1,,,,,イズミデザイン,0
2106,9013101008852,新規,0,2022-02-24,2022-02-24,株式会社ＳＡＦＩ,,株式会社,東京都,青梅市,河辺町８丁目６番地の２９,,13,205,1980036,,,,,,,2022-02-24,1,,,,,サフィー,0
2116,9020001145362,新規,0,2022-02-24,2022-02-24,株式会社ＹＹＤＳ,,株式会社,神奈川県,横浜市南区,八幡町７２番地３９,,14,105,2320037,,,,,,,2022-02-24,1,,,,,ワイワイディーエス,0
2120,9021001075228,新規,0,2022-02-24,2022-02-24,株式会社長谷川派遣,,株式会社,神奈川県,平塚市,四之宮２丁目１５番１２号,,14,203,2540014,,,,,,,2022-02-24,1,,,,,ハセガワハケン,0
2121,9021001075236,新規,0,2022-02-24,2022-02-24,株式会社ラウリーフ,,株式会社,神奈川県,相模原市中央区,相模原１丁目２番５号好月堂ビル２Ｆ,,14,152,2520231,,,,,,,2022-02-24,1,,,,,ラウリーフ,0
2125,9021005012441,新規,0,2022-02-24,2022-02-24,特定非営利活動法人ことりのおうち,,その他の設立登記法人,神奈川県,藤沢市,高倉６４１番地の５,,14,205,2520802,,,,,,,2022-02-24,1,,,,,コトリノオウチ,0
2129,9030001146194,新規,0,2022-02-24,2022-02-24,株式会社都建設,,株式会社,埼玉県,所沢市,大字上安松４０９－１５,,11,208,3590025,,,,,,,2022-02-24,1,,,,,ミヤコケンセツ,0
2130,9030001146731,新規,0,2022-02-24,2022-02-24,株式会社メディＫＫ,,株式会社,埼玉県,さいたま市北区,日進町２丁目１６６９番地２,,11,102,3310823,,,,,,,2022-02-24,1,,,,,メディック,0
2132,9030003018870,新規,0,2022-02-24,2022-02-24,合同会社ＨＦＴキング,,合同会社,埼玉県,所沢市,西所沢１丁目３－１１アルカディア８（６０５）,,11,208,3591144,,,,,,,2022-02-24,1,,,,,エイチエフティーキング,0
2133,9030003018887,新規,0,2022-02-24,2022-02-24,中星日本合同会社,,合同会社,埼玉県,川口市,大字芝７０４８番４２号,,11,203,3330866,,,,,,,2022-02-24,1,,,,,ナカホシニホン,0
2134,9030003018895,新規,0,2022-02-24,2022-02-24,合同会社藤田工業,,合同会社,埼玉県,鶴ヶ島市,大字上広谷５３－１－４０６,,11,241,3502203,,,,,,,2022-02-24,1,,,,,フジタコウギョウ,0
2139,9040001122211,新規,0,2022-02-24,2022-02-24,株式会社ＺＡＩＭＡ,,株式会社,千葉県,千葉市稲毛区,黒砂１丁目３番１７号,,12,103,2630042,,,,,,,2022-02-24,1,,,,,ザイマ,0
2140,9040001122252,新規,0,2022-02-24,2022-02-24,株式会社ベルミール,,株式会社,千葉県,印旛郡栄町,安食３丁目１２番地７,,12,329,2701516,,,,,,,2022-02-24,1,,,,,ベルミール,0
2141,9040001122269,新規,0,2022-02-24,2022-02-24,株式会社ＯＬＩＭ,,株式会社,千葉県,柏市,藤心字上人塚前９６２番地１,,12,217,2770034,,,,,,,2022-02-24,1,,,,,オーリム,0
2148,9040003019546,新規,0,2022-02-24,2022-02-24,合同会社鈴木通信,,合同会社,千葉県,八千代市,勝田台１丁目１０番地Ａ棟７０８号,,12,221,2760023,,,,,,,2022-02-24,1,,,,,スズキツウシン,0
2149,9040003019554,新規,0,2022-02-24,2022-02-24,Ｂｉｚｇｒｏ合同会社,,合同会社,千葉県,千葉市美浜区,高洲４丁目９－１プレミスト稲毛海岸８０６,,12,106,2610004,,,,,,,2022-02-24,1,,,,,ビズグロ,0
2164,9080103002530,新規,0,2022-02-24,2022-02-24,ＡｑｕａＭａｏｆ　Ｊａｐａｎ合同会社,,合同会社,静岡県,駿東郡小山町,上野字一沢１０２４番地の１,,22,344,4101306,,,,,,,2022-02-24,1,,,,,アクアマオフジャパン,0
2167,9110001036453,新規,0,2022-02-24,2022-02-24,花園板金株式会社,,株式会社,新潟県,長岡市,花園東２丁目１９１番地１,,15,202,9400846,,,,,,,2022-02-24,1,,,,,ハナゾノバンキン,0
2182,9120001243965,新規,0,2022-02-24,2022-02-24,株式会社Ｌ’ｓ－Ｋ,,株式会社,大阪府,大阪市淀川区,宮原１丁目１９－２３－８２５,,27,123,5320003,,,,,,,2022-02-24,1,,,,,エルズケー,0
2183,9120001243981,新規,0,2022-02-24,2022-02-24,株式会社アイデル,,株式会社,大阪府,大阪市北区,梅田１丁目１番３号大阪駅前第３ビル２９階１－１－１号室,,27,127,5300001,,,,,,,2022-02-24,1,,,,,アイデル,0
2184,9120001244063,新規,0,2022-02-24,2022-02-24,２株式会社,,株式会社,大阪府,大阪市北区,鶴野町１番９号,,27,127,5300014,,,,,,,2022-02-24,1,,,,,ツー,0
2187,9120003021122,新規,0,2022-02-24,2022-02-24,合同会社アバマユ,,合同会社,大阪府,大阪市北区,同心１丁目８－２６－１３０２,,27,127,5300035,,,,,,,2022-02-24,1,,,,,アバマユ,0
2188,9120005022804,新規,0,2022-02-24,2022-02-24,特定非営利活動法人ひいらぎの花,,その他の設立登記法人,大阪府,大阪市生野区,林寺３丁目４番７号,,27,116,5440023,,,,,,,2022-02-24,1,,,,,ヒイラギノハナ,0
2192,9120101065120,新規,0,2022-02-24,2022-02-24,皆成建設株式会社,,株式会社,大阪府,堺市中区,深阪４丁１６番５号,,27,142,5998253,,,,,,,2022-02-24,1,,,,,カイセイケンセツ,0
2195,9120901045627,新規,0,2022-02-24,2022-02-24,株式会社実業創研,,株式会社,大阪府,吹田市,江の木町１７番２０号,,27,205,5640053,,,,,,,2022-02-24,1,,,,,ジツギョウソウケン,0
2201,9122001035608,新規,0,2022-02-24,2022-02-24,株式会社ミウロゼ,,株式会社,大阪府,東大阪市,北石切町１９番１６号,,27,227,5798015,,,,,,,2022-02-24,1,,,,,ミウロゼ,0
2204,9130001071184,新規,0,2022-02-24,2022-02-24,株式会社ＷＥＳＴ　ＦＩＶＥ,,株式会社,京都府,京都市中京区,御幸町通三条上る丸屋町３１５番地たけうちビル７０１,,26,104,6048086,,,,,,,2022-02-24,1,,,,,ウエストファイブ,0
2210,9140001124998,新規,0,2022-02-24,2022-02-24,株式会社ＡｃｔｉＶ　Ｃｒｅａｔｅ,,株式会社,兵庫県,西宮市,鷲林寺１丁目８番１７号,,28,204,6620004,,,,,,,2022-02-24,1,,,,,アクティブクリエイト,0
2211,9140001125006,新規,0,2022-02-24,2022-02-24,株式会社ＤＫＴ　Ｃｏｎｓｕｌｔｉｎｇ,,株式会社,兵庫県,西宮市,末広町３番１１号,,28,204,6620041,,,,,,,2022-02-24,1,,,,,ディーケーティーコンサルティング,0
2213,9140003017382,新規,0,2022-02-24,2022-02-24,合同会社鳶京,,合同会社,兵庫県,姫路市,別所町別所２丁目３７番地,,28,201,6710221,,,,,,,2022-02-24,1,,,,,トビキョウ,0
2216,9150001025353,新規,0,2022-02-24,2022-02-24,飛躍株式会社,,株式会社,奈良県,桜井市,大字西之宮２４５番地の１－２０２号室,,29,206,6330066,,,,,,,2022-02-24,1,,,,,ヒヤク,0
2217,9150001025361,新規,0,2022-02-24,2022-02-24,株式会社ＡＢＩＬＩＴＹ,,株式会社,奈良県,生駒郡安堵町,大字東安堵１２２番地の１２,,29,345,6391061,,,,,,,2022-02-24,1,,,,,アビリティ,0
2220,9170001016986,新規,0,2022-02-24,2022-02-24,シン・ファーム株式会社,,株式会社,和歌山県,紀の川市,貴志川町長山２７５番地,,30,208,6400416,,,,,,,2022-02-24,1,,,,,シンファーム,0
2227,9180001150099,新規,0,2022-02-24,2022-02-24,株式会社ＰＦＡ,,株式会社,愛知県,名古屋市中区,新栄２丁目１３番１９号,,23,106,4600007,,,,,,,2022-02-24,1,,,,,ピーエフエー,0
2233,9180003023526,新規,0,2022-02-24,2022-02-24,合同会社ＤＦＷ,,合同会社,愛知県,名古屋市東区,山口町３番６号アネックス徳川西３０５号,,23,102,4610024,,,,,,,2022-02-24,1,,,,,ディーエフダブル,0
2234,9180003023534,新規,0,2022-02-24,2022-02-24,クローバー合同会社,,合同会社,愛知県,名古屋市緑区,諸の木１丁目５１５,,23,114,4580817,,,,,,,2022-02-24,1,,,,,クローバー,0
2239,9190001029160,新規,0,2022-02-24,2022-02-24,株式会社ＣＲＥＡＴＩＯＮ,,株式会社,三重県,松阪市,中町１８８５番地,,24,204,5150083,,,,,,,2022-02-24,1,,,,,クリエーション,0
2240,9190005011676,新規,0,2022-02-24,2022-02-24,特定非営利活動法人ビリオン,,その他の設立登記法人,三重県,津市,緑が丘２丁目２０番地の８,,24,201,5140825,,,,,,,2022-02-24,1,,,,,ビリオン,0
2242,9200001039777,新規,0,2022-02-24,2022-02-24,株式会社ＴＯＭ,,株式会社,岐阜県,本巣郡北方町,朝日町４丁目２２番地の３,,21,421,5010424,,,,,,,2022-02-24,1,,,,,トム,0
2246,9230001019248,新規,0,2022-02-24,2022-02-24,株式会社ＺＩＮＣ．,,株式会社,富山県,高岡市,福岡町赤丸１０１５番地１３,,16,202,9390101,,,,,,,2022-02-24,1,,,,,ジンクドット,0
2252,9240003005476,新規,0,2022-02-24,2022-02-24,合同会社桂馬,,合同会社,広島県,福山市,西町１丁目８番１号禄屋ビル２階,,34,207,7200067,,,,,,,2022-02-24,1,,,,,ケイマ,0
2260,9260001036538,新規,0,2022-02-24,2022-02-24,株式会社ＫＭＹ,,株式会社,岡山県,岡山市北区,東古松３丁目４番３０号,,33,101,7000921,,,,,,,2022-02-24,1,,,,,ケーエムワイ,0
2261,9260001036562,新規,0,2022-02-24,2022-02-24,株式会社Ｔｅｔｏｗａ,,株式会社,岡山県,岡山市中区,原尾島４丁目７番１３号,,33,102,7038235,,,,,,,2022-02-24,1,,,,,テトワ,0
2262,9260003003817,新規,0,2022-02-24,2022-02-24,あじさい企画合同会社,,合同会社,岡山県,岡山市南区,内尾４０２番地２２,,33,104,7010212,,,,,,,2022-02-24,1,,,,,アジサイキカク,0
2269,9290001096521,新規,0,2022-02-24,2022-02-24,株式会社Ｅ＆Ｅ,,株式会社,福岡県,糟屋郡宇美町,平和２丁目１９番１０号,,40,341,8112121,,,,,,,2022-02-24,1,,,,,イーアンドイー,0
2270,9290001096538,新規,0,2022-02-24,2022-02-24,株式会社ユナイテッドネイション,,株式会社,福岡県,福岡市城南区,梅林１丁目１１番４１－２０２号,,40,136,8140144,,,,,,,2022-02-24,1,,,,,ユナイテッドネイション,0
2272,9290005018570,新規,0,2022-02-24,2022-02-24,企業組合Ｃｏｃｏｒａ,,その他の設立登記法人,福岡県,福岡市中央区,笹丘３丁目１６番１６号,,40,133,8100034,,,,,,,2022-02-24,1,,,,,ココラ,0
2282,9330003009261,新規,0,2022-02-24,2022-02-24,ＳＯインフィニティ合同会社,,合同会社,熊本県,球磨郡錦町,大字木上東１１７８番地５,,43,501,8680301,,,,,,,2022-02-24,1,,,,,ソーインフィニティ,0
2286,9370001048225,新規,0,2022-02-24,2022-02-24,株式会社エクシード分割準備会社,,株式会社,宮城県,仙台市青葉区,花京院１丁目１番２０号（花京院スクエア１９階）,,04,101,9800013,,,,,,,2022-02-24,1,,,,,エクシードブンカツジュンビカイシャ,0
2289,9390005008941,新規,0,2022-02-24,2022-02-24,特定非営利活動法人やまごや,,その他の設立登記法人,山形県,鶴岡市,末広町５番２２－２０１号（マリカ西館２階）Ａ－３,,06,203,9970015,,,,,,,2022-02-24,1,,,,,ヤマゴヤ,0
2307,9480001011659,新規,0,2022-02-24,2022-02-24,共栄株式会社,,株式会社,徳島県,徳島市,秋田町３丁目１１,,36,201,7700934,,,,,,,2022-02-24,1,,,,,キョウエイ,0
2310,9500003002777,新規,0,2022-02-24,2022-02-24,ｄｅｓ　ｌａｐｉｎｓ合同会社,,合同会社,愛媛県,松山市,西垣生町３０８番地１４,,38,201,7918044,,,,,,,2022-02-24,1,,,,,デラパン,0
2311,9700150107169,新規,0,2022-02-24,2022-02-24,Ｐａｖｉｌｉｏｎ　Ｈｏｔｅｌｓ　Ｌｉｍｉｔｅｄ,,外国会社等,京都府,京都市下京区,木屋町通松原上る３丁目天王町１５５番、１５５番１,,26,106,6008013,ＯＭＣ　Ｃｈａｍｂｅｒｓ，　Ｗｉｃｋｈａｍｓ　Ｃａｙ　１，　Ｒｏａｄ　Ｔｏｗｎ，　Ｔｏｒｔｏｌａ　ＢＶＩ,,,,,,2022-02-24,1,,,,,パビリオンホテルズリミテツド,0
