sequenceNumber,corporateNumber,process,correct,updateDate,changeDate,name,nameImageId,kind,prefectureName,cityName,streetNumber,addressImageId,prefectureCode,cityCode,postCode,addressOutside,addressOutsideImageId,closeDate,closeCause,successorCorporateNumber,changeCause,assignmentDate,latest,enName,enPrefectureName,enCityName,enAddressOutside,furigana,hihyoji
12,1010001220792,新規,0,2021-09-01,2021-09-01,Ｉｎｆｉｎｉｔｙ　Ｗｅａｌｔｈ　Ｍａｎａｇｅｍｅｎｔ株式会社,,株式会社,東京都,千代田区,岩本町２丁目７－１２,,13,101,1010032,,,,,,,2021-09-01,1,,,,,インフィニティウェルスマネジメント,0
13,1010001220801,新規,0,2021-09-01,2021-09-01,ＹＯＩＣＨＩ蒸溜所株式会社,,株式会社,東京都,中央区,東日本橋２丁目２８番５号５０８,,13,102,1030004,,,,,,,2021-09-01,1,,,,,ヨイチージョウリュウショ,0
15,1010003035710,新規,0,2021-09-01,2021-09-01,三太郎商事合同会社,,合同会社,東京都,文京区,白山２丁目５番２号,,13,105,1120001,,,,,,,2021-09-01,1,,,,,サンタロウショウジ,0
16,1010003035719,新規,0,2021-09-01,2021-09-01,合同会社ＪＲＥＡＳＴファンド第４号,,合同会社,東京都,中央区,日本橋１丁目４番１号日本橋一丁目ビルディング,,13,102,1030027,,,,,,,2021-09-01,1,,,,,ジェイアールイーストファンドダイヨンゴウ,0
21,1010005033893,新規,0,2021-09-01,2021-09-01,一般社団法人蒼晴社,,その他の設立登記法人,東京都,千代田区,九段北４丁目３番２０号九段フラワーホーム３０４号室,,13,101,1020073,,,,,,,2021-09-01,1,,,,,ソウセイシャ,0
27,1010401162404,新規,0,2021-09-01,2021-09-01,ホットティー・ホールディングス株式会社,,株式会社,東京都,港区,白金１丁目６番１１号,,13,103,1080072,,,,,,,2021-09-01,1,,,,,ホットティーホールディングス,0
28,1010401162429,新規,0,2021-09-01,2021-09-01,株式会社ＯＮＥ,,株式会社,東京都,港区,海岸１丁目９番１４－５０６号,,13,103,1050022,,,,,,,2021-09-01,1,,,,,ワン,0
29,1010401162437,新規,0,2021-09-01,2021-09-01,株式会社Ｐ－ＲＥＶＯ,,株式会社,東京都,港区,六本木６丁目１番７号大沢ビル１Ｆ,,13,103,1060032,,,,,,,2021-09-01,1,,,,,ピーレボ,0
40,1010801032272,新規,0,2021-09-01,2021-09-01,東京と株式会社,,株式会社,東京都,大田区,南久が原１丁目２番５号,,13,111,1460084,,,,,,,2021-09-01,1,,,,,トウキョウト,0
52,1011101096140,新規,0,2021-09-01,2021-09-01,株式会社ＭＡＲＵＡＣＨＩ,,株式会社,東京都,新宿区,四谷４丁目３番２号,,13,104,1600004,,,,,,,2021-09-01,1,,,,,,0
53,1011103010974,新規,0,2021-09-01,2021-09-01,合同会社ＢＡＳＡＲＡ,,合同会社,東京都,新宿区,大久保１丁目１１番１号大森ビル５階,,13,104,1690072,,,,,,,2021-09-01,1,,,,,バサラ,0
54,1011203003630,新規,0,2021-09-01,2021-09-01,合同会社Ｔｅｅ,,合同会社,東京都,中野区,南台２丁目１０－１スカイコート幡ヶ谷２０１,,13,114,1640014,,,,,,,2021-09-01,1,,,,,ティー,0
59,1011401023637,新規,0,2021-09-01,2021-09-01,株式会社Ｍａｍ’ｓ,,株式会社,東京都,板橋区,大和町４８番１３号２階,,13,119,1730012,,,,,,,2021-09-01,1,,,,,マムズ,0
73,1012401038253,新規,0,2021-09-01,2021-09-01,Ｈｙｐｅｒｌａｂ　Ｊａｐａｎ株式会社,,株式会社,東京都,三鷹市,中原４丁目２６番２９号,,13,204,1810005,,,,,,,2021-09-01,1,,,,,ハイパーラボジャパン,0
75,1013301047930,新規,0,2021-09-01,2021-09-01,株式会社レミライズ,,株式会社,東京都,豊島区,東池袋４丁目２７番５号ライオンズプラザ池袋７１５号,,13,116,1700013,,,,,,,2021-09-01,1,,,,,レミライズ,0
93,1021001073809,新規,0,2021-09-01,2021-09-01,株式会社明豊測量サービス,,株式会社,神奈川県,藤沢市,石川１丁目２番地の２１,,14,205,2520815,,,,,,,2021-09-01,1,,,,,,0
96,1021005012283,新規,0,2021-09-01,2021-09-01,特定非営利活動法人ざま災害ボランティアネットワーク,,その他の設立登記法人,神奈川県,座間市,入谷東２丁目８番２－９１４号東建座間ハイツ,,14,216,2520028,,,,,,,2021-09-01,1,,,,,ザマサイガイボランティアネットワーク,0
105,1030001144057,新規,0,2021-09-01,2021-09-01,共濃物流株式会社,,株式会社,埼玉県,川越市,大字鴨田１１１１番地４,,11,201,3500844,,,,,,,2021-09-01,1,,,,,キョウノウブツリュウ,0
106,1030001144073,新規,0,2021-09-01,2021-09-01,株式会社Ｓｗａｌｌｏｗ　Ｔａｙｌｏｒ,,株式会社,埼玉県,さいたま市大宮区,堀の内町１丁目８番地１レクセル大宮２０４号,,11,103,3300804,,,,,,,2021-09-01,1,,,,,スワローテイラー,0
107,1030001144098,新規,0,2021-09-01,2021-09-01,株式会社ＴＲＹＶＥＳ,,株式会社,埼玉県,上尾市,大字平塚２０４８番地,,11,219,3620011,,,,,,,2021-09-01,1,,,,,トライブス,0
114,1030003017863,新規,0,2021-09-01,2021-09-01,合同会社Ｂｅｅｓｔａ,,合同会社,埼玉県,さいたま市見沼区,大字小深作６２４－１６,,11,104,3370005,,,,,,,2021-09-01,1,,,,,ビースタ,0
121,1040001119958,新規,0,2021-09-01,2021-09-01,株式会社麹の学校,,株式会社,千葉県,千葉市美浜区,打瀬３丁目４番地パティオス２０番街６０５号,,12,106,2610013,,,,,,,2021-09-01,1,,,,,コウジノガッコウ,0
122,1040001119966,新規,0,2021-09-01,2021-09-01,株式会社アイビーホーム,,株式会社,千葉県,千葉市花見川区,幕張本郷１丁目１１番３号ワコービル２階,,12,102,2620033,,,,,,,2021-09-01,1,,,,,アイビーホーム,0
123,1040001119974,新規,0,2021-09-01,2021-09-01,株式会社武笠板金工業,,株式会社,千葉県,成田市,久住中央３丁目６番地２,,12,211,2860819,,,,,,,2021-09-01,1,,,,,ムカサバンキンコウギョウ,0
125,1040003018373,新規,0,2021-09-01,2021-09-01,合同会社Ｈｅｍｐｎｅｓｓ,,合同会社,千葉県,八千代市,村上南５丁目１３番地２４ファインハウスⅡ２０１号室,00124075,12,221,2760029,,,,,,,2021-09-01,1,,,,,ヘンプネス,0
126,1040003018423,新規,0,2021-09-01,2021-09-01,合同会社Ｏｒｃｈｉｄｅｅ,,合同会社,千葉県,千葉市美浜区,磯辺４丁目１３番２号,,12,106,2610012,,,,,,,2021-09-01,1,,,,,オルキデ,0
131,1060001034040,新規,0,2021-09-01,2021-09-01,株式会社アイズランド,,株式会社,栃木県,那須塩原市,安藤町４０番地３２９,,09,213,3250021,,,,,,,2021-09-01,1,,,,,アイズランド,0
136,1080101022736,新規,0,2021-09-01,2021-09-01,株式会社小田嶋電設,,株式会社,静岡県,裾野市,茶畑１２２７番地の１５,,22,220,4101121,,,,,,,2021-09-01,1,,,,,オダジマデンセツ,0
137,1080103002414,新規,0,2021-09-01,2021-09-01,合同会社ＣＯＳＭＯ　ＡＮＴＩＱＵＥ,,合同会社,静岡県,賀茂郡東伊豆町,稲取１６１１番地３,,22,301,4130411,,,,,,,2021-09-01,1,,,,,,0
144,1100001034564,新規,0,2021-09-01,2021-09-01,株式会社山宮工業,,株式会社,長野県,長野市,大字北長池２０６０番地５,,20,201,3810025,,,,,,,2021-09-01,1,,,,,サングウコウギョウ,0
160,1120001240004,新規,0,2021-09-01,2021-09-01,小さな菜園株式会社,,株式会社,大阪府,大阪市中央区,久太郎町３丁目１番１５号,,27,128,5410056,,,,,,,2021-09-01,1,,,,,チイサナサイエン,0
161,1120001240029,新規,0,2021-09-01,2021-09-01,ｂ　Ｓｔｒｅａｍ株式会社,,株式会社,大阪府,大阪市東淀川区,下新庄５丁目６番１６－５０５号,,27,114,5330021,,,,,,,2021-09-01,1,,,,,ビーストリーム,0
162,1120001240045,新規,0,2021-09-01,2021-09-01,株式会社Ｋテック,,株式会社,大阪府,大阪市西成区,旭３丁目７番４０号,,27,122,5570032,,,,,,,2021-09-01,1,,,,,ケイテック,0
163,1120001240053,新規,0,2021-09-01,2021-09-01,華衛株式会社,,株式会社,大阪府,大阪市淀川区,西中島４丁目７番２－８０４号,,27,123,5320011,,,,,,,2021-09-01,1,,,,,カエイ,0
164,1120001240061,新規,0,2021-09-01,2021-09-01,ＵＫＮＯＷ株式会社,,株式会社,大阪府,大阪市北区,芝田２丁目８番１１号共栄ビル３Ｆ,,27,127,5300012,,,,,,,2021-09-01,1,,,,,ユーノウ,0
165,1120001240094,新規,0,2021-09-01,2021-09-01,大立株式会社,,株式会社,大阪府,大阪市中央区,南久宝寺町１丁目５番１０－１１０３号,,27,128,5410058,,,,,,,2021-09-01,1,,,,,ダイリツ,0
174,1120003020123,新規,0,2021-09-01,2021-09-01,合同会社バイオマス発電七,,合同会社,大阪府,大阪市中央区,久太郎町１丁目９番４号,,27,128,5410056,,,,,,,2021-09-01,1,,,,,バイオマスハツデンナナ,0
182,1130001070020,新規,0,2021-09-01,2021-09-01,株式会社１２,,株式会社,京都府,京都市南区,上鳥羽塔ノ森東向町１９番地４,,26,107,6018151,,,,,,,2021-09-01,1,,,,,トゥエルブ,0
192,1140001122844,新規,0,2021-09-01,2021-09-01,株式会社ＫＯＴＯＢＵＫＩ,,株式会社,兵庫県,伊丹市,南野北５丁目３番１７－２号,,28,207,6640887,,,,,,,2021-09-01,1,,,,,コトブキ,0
193,1140001122852,新規,0,2021-09-01,2021-09-01,株式会社南天堂,,株式会社,兵庫県,神戸市東灘区,田中町３丁目１３番３３号,,28,101,6580081,,,,,,,2021-09-01,1,,,,,ナンテンドウ,0
202,1160001023586,新規,0,2021-09-01,2021-09-01,Ｃａｍｐ　Ｆｉｒｅ株式会社,,株式会社,滋賀県,大津市,伊香立下在地町１１０８番地の１,,25,201,5200352,,,,,,,2021-09-01,1,,,,,キャンプファイア,0
212,1180001147598,新規,0,2021-09-01,2021-09-01,株式会社Ｄ－Ｓｕｐｐｏｒｔ,,株式会社,愛知県,半田市,宮本町２丁目９５番地,,23,205,4750925,,,,,,,2021-09-01,1,,,,,ディーサポート,0
213,1180001147615,新規,0,2021-09-01,2021-09-01,株式会社メゾン・デュ・ミエル,,株式会社,愛知県,名古屋市中川区,八熊３丁目１７番３号,,23,110,4540013,,,,,,,2021-09-01,1,,,,,メゾンデュミエル,0
214,1180001147623,新規,0,2021-09-01,2021-09-01,株式会社でらぐーん,,株式会社,愛知県,名古屋市守山区,八反４番１２号,,23,113,4630063,,,,,,,2021-09-01,1,,,,,デラグーン,0
219,1180003022907,新規,0,2021-09-01,2021-09-01,フジ・インターレント合同会社,,合同会社,愛知県,江南市,飛高町本町１９６番地,,23,217,4838068,,,,,,,2021-09-01,1,,,,,フジインターレント,0
220,1180005019414,新規,0,2021-09-01,2021-09-01,特定非営利活動法人ココオハナ,,その他の設立登記法人,愛知県,長久手市,喜婦嶽９１７番地,,23,238,4801117,,,,,,,2021-09-01,1,,,,,ココオハナ,0
248,1260001035910,新規,0,2021-09-01,2021-09-01,株式会社連島車両,,株式会社,岡山県,倉敷市,神田４丁目１０番２５号,,33,202,7128061,,,,,,,2021-09-01,1,,,,,ツラジマシャリョウ,0
255,1290001094441,新規,0,2021-09-01,2021-09-01,株式会社ミラークス,,株式会社,福岡県,春日市,下白水北２丁目８９番地８,,40,218,8160854,,,,,,,2021-09-01,1,,,,,ミラークス,0
275,1360001029308,新規,0,2021-09-01,2021-09-01,株式会社イラミナ建装,,株式会社,沖縄県,浦添市,西原６丁目３２番,,47,208,9012101,,,,,,,2021-09-01,1,,,,,イラミナケンソウ,0
282,1380001032152,新規,0,2021-09-01,2021-09-01,ＨＩＷＡＤ　ＴＲＡＤＩＮＧ株式会社,,株式会社,福島県,須賀川市,大桑原字弥次郎内２番地１,,07,207,9620056,,,,,,,2021-09-01,1,,,,,ヒワドトレーディング,0
288,1420001017561,新規,0,2021-09-01,2021-09-01,北日本産業株式会社,,株式会社,青森県,青森市,大字造道字沢田２３番地,,02,201,,,,,,,,2021-09-01,1,,,,,キタニホンサンギョウ,0
292,1430001084840,新規,0,2021-09-01,2021-09-01,株式会社ムードメーカー,,株式会社,北海道,札幌市中央区,南七条西９丁目１０２４番地４２,,01,101,0640807,,,,,,,2021-09-01,1,,,,,ムードメーカー,0
293,1430001084849,新規,0,2021-09-01,2021-09-01,株式会社ＴＥＲＡ,,株式会社,北海道,札幌市北区,北九条西３丁目１番地１パワービル札幌駅前５階,,01,102,0600809,,,,,,,2021-09-01,1,,,,,テラ,0
294,1430001084857,新規,0,2021-09-01,2021-09-01,株式会社Ｅ‐ＳＵＰＰＯＲＴ,,株式会社,北海道,北広島市,希望ヶ丘２丁目３－５８,,01,234,0611261,,,,,,,2021-09-01,1,,,,,イーサポート,0
295,1430005014257,新規,0,2021-09-01,2021-09-01,一般社団法人ジェンダーベイスト・バイオレンス専門支援員養成センター,,その他の設立登記法人,北海道,札幌市中央区,北九条西１７丁目１番地１ラポール桑園駅前Ａ棟４１０号,,01,101,0600009,,,,,,,2021-09-01,1,,,,,ジェンダーベイストバイオレンスセンモンシエンインヨウセイセンター,0
299,1470001018679,新規,0,2021-09-01,2021-09-01,河合サービス株式会社,,株式会社,香川県,高松市,香川町安原下第３号８８番地１,,37,201,7611708,,,,,,,2021-09-01,1,,,,,カワイサービス,0
300,1490003001581,新規,0,2021-09-01,2021-09-01,合同会社日本ブラックジンジャー,,合同会社,高知県,高知市,土佐山１２７番地３,,39,201,7813201,,,,,,,2021-09-01,1,,,,,ニホンブラックジンジャー,0
311,2010001220742,新規,0,2021-09-01,2021-09-01,株式会社ＬＩＦＥ　ＢＯＡＲＤ,,株式会社,東京都,中央区,勝どき５丁目３－１勝どきザ・タワー１３０６,,13,102,1040054,,,,,,,2021-09-01,1,,,,,ライフボード,0
312,2010001220791,新規,0,2021-09-01,2021-09-01,株式会社ジェイムス,,株式会社,東京都,中央区,日本橋本町４丁目２番４号サンヨービル,,13,102,1030023,,,,,,,2021-09-01,1,,,,,ジェイムス,0
314,2010005033884,新規,0,2021-09-01,2021-09-01,一般社団法人身元保証協会,,その他の設立登記法人,東京都,千代田区,丸の内１丁目１１番１号,,13,101,1000005,,,,,,,2021-09-01,1,,,,,ミモトホショウキョウカイ,0
315,2010005033892,新規,0,2021-09-01,2021-09-01,一般社団法人ＴＫカンパニ,,その他の設立登記法人,東京都,千代田区,九段北４丁目３番２０号九段フラワーホーム３０４号室,,13,101,1020073,,,,,,,2021-09-01,1,,,,,ティーケーカンパニ,0
322,2010401162312,新規,0,2021-09-01,2021-09-01,株式会社ＰＡＲＯＬＥ,,株式会社,東京都,港区,北青山２丁目７－２０猪瀬ビル２Ｆ,,13,103,1070061,,,,,,,2021-09-01,1,,,,,パローレ,0
323,2010401162403,新規,0,2021-09-01,2021-09-01,ＷＡｎｏｃｏｔｏ株式会社,,株式会社,東京都,港区,北青山３丁目５番９号,,13,103,1070061,,,,,,,2021-09-01,1,,,,,ワノコト,0
324,2010401162428,新規,0,2021-09-01,2021-09-01,株式会社ＡＢコミュニケーション,,株式会社,東京都,港区,高輪２丁目１番５３－００３号,,13,103,1080074,,,,,,,2021-09-01,1,,,,,エービーコミュニケーション,0
325,2010401162436,新規,0,2021-09-01,2021-09-01,株式会社Ｍｕｌｂｅｌｅａ,,株式会社,東京都,港区,芝１丁目１３番１０－８０４号,,13,103,1050014,,,,,,,2021-09-01,1,,,,,マルベリー,0
326,2010401162452,新規,0,2021-09-01,2021-09-01,株式会社Ｆｒｏｎｔｉｖｅ　Ｓｐｏｒｔｓ　Ｍａｎａｇｅｍｅｎｔ,,株式会社,東京都,港区,赤坂９丁目６番２８号,,13,103,1070052,,,,,,,2021-09-01,1,,,,,フロンティブスポーツマネージメント,0
329,2010403026036,新規,0,2021-09-01,2021-09-01,Ｅｇｓｅｙ合同会社,,合同会社,東京都,港区,南青山２丁目２番１５号,,13,103,1070062,,,,,,,2021-09-01,1,,,,,エグシー,0
330,2010403026044,新規,0,2021-09-01,2021-09-01,合同会社ＨＴＫ,,合同会社,東京都,港区,北青山２丁目１２番１３号青山ＫＹビル４階,,13,103,1070061,,,,,,,2021-09-01,1,,,,,エイチティーケー,0
335,2010503006359,新規,0,2021-09-01,2021-09-01,Ｈｏｕｓｅ合同会社,,合同会社,東京都,台東区,北上野１丁目１－９三恵マンション６０２室,,13,106,1100014,,,,,,,2021-09-01,1,,,,,ハウス,0
336,2010503006375,新規,0,2021-09-01,2021-09-01,ＫＭ－ｓｙｓｔｅｍｓ合同会社,,合同会社,東京都,台東区,上野６丁目８番１９号,,13,106,1100005,,,,,,,2021-09-01,1,,,,,ケーエムシステムズ,0
344,2010703005920,新規,0,2021-09-01,2021-09-01,ＡＪＩジャパン合同会社,,合同会社,東京都,品川区,八潮５丁目６番３７－１２１６号,,13,109,1400003,,,,,,,2021-09-01,1,,,,,エージェイアイジャパン,0
359,2011001142547,新規,0,2021-09-01,2021-09-01,株式会社ｐｕｒｐｌｅ　ｄａｎｄｙ,,株式会社,東京都,目黒区,青葉台４丁目５番１号,,13,110,1530042,,,,,,,2021-09-01,1,,,,,パープルダンディ,0
363,2011103010973,新規,0,2021-09-01,2021-09-01,ＹＫシステム合同会社,,合同会社,東京都,新宿区,歌舞伎町２丁目２５番８号（ＥｃｏＰｌａｃｅ新宿２５９号）,,13,104,1600021,,,,,,,2021-09-01,1,,,,,ワイケイシステム,0
365,2011303004148,新規,0,2021-09-01,2021-09-01,キノコプラス合同会社,,合同会社,東京都,杉並区,宮前２丁目１番１６－６０２号,,13,115,1680081,,,,,,,2021-09-01,1,,,,,キノコプラス,0
369,2011401023636,新規,0,2021-09-01,2021-09-01,株式会社ＧＢコネクト,,株式会社,東京都,板橋区,桜川３丁目２６番７－２０１号,,13,119,1740075,,,,,,,2021-09-01,1,,,,,ジービーコネクト,0
378,2011601025358,新規,0,2021-09-01,2021-09-01,株式会社ＴＧＴ,,株式会社,東京都,練馬区,高松５丁目５番３０－７０３号,,13,120,1790075,,,,,,,2021-09-01,1,,,,,ティージーティー,0
383,2012403005003,新規,0,2021-09-01,2021-09-01,合同会社ＫＡＫＵＭＩ,,合同会社,東京都,武蔵野市,吉祥寺南町２丁目６番２号サウステラス吉祥寺２階,,13,203,1800003,,,,,,,2021-09-01,1,,,,,カクミ,0
405,2020001142779,新規,0,2021-09-01,2021-09-01,チョイス株式会社,,株式会社,神奈川県,横浜市旭区,上川井町２０５３－１ライオンズガーデンつきみ野東６０９,,14,112,2410802,,,,,,,2021-09-01,1,,,,,チョイス,0
418,2030001144097,新規,0,2021-09-01,2021-09-01,株式会社ＡＸＩＳ,,株式会社,埼玉県,熊谷市,樋春２０７２番地２４,00124087,11,202,3600112,,,,,,,2021-09-01,1,,,,,アクシス,0
422,2030005020501,新規,0,2021-09-01,2021-09-01,行政書士法人インプエスト,,その他の設立登記法人,埼玉県,越谷市,南町２丁目１９番１３号,,11,222,3430832,,,,,,,2021-09-01,1,,,,,インプエスト,0
431,2050001049765,新規,0,2021-09-01,2021-09-01,株式会社ひろ空調,,株式会社,茨城県,常陸大宮市,秋田６０４番地の１,,08,225,3114611,,,,,,,2021-09-01,1,,,,,ヒロクウチョウ,0
432,2050001049773,新規,0,2021-09-01,2021-09-01,株式会社青野建設,,株式会社,茨城県,稲敷市,時崎２３３番地２４,,08,229,3000523,,,,,,,2021-09-01,1,,,,,アオノケンセツ,0
434,2060001034031,新規,0,2021-09-01,2021-09-01,株式会社ストーク,,株式会社,栃木県,小山市,大字喜沢１２６２番地,,09,208,3230014,,,,,,,2021-09-01,1,,,,,ストーク,0
437,2080101022735,新規,0,2021-09-01,2021-09-01,サンフィールド株式会社,,株式会社,静岡県,三島市,南二日町２４番１１号,,22,206,4110832,,,,,,,2021-09-01,1,,,,,サンフィールド,0
438,2080101022743,新規,0,2021-09-01,2021-09-01,株式会社ユーエム商工,,株式会社,静岡県,富士市,五貫島３９７番地,,22,210,4160946,,,,,,,2021-09-01,1,,,,,ユーエムショウコウ,0
451,2120001240028,新規,0,2021-09-01,2021-09-01,株式会社Ｒｕｓｈ,,株式会社,大阪府,大阪市淀川区,西中島３丁目１７番５号,,27,123,5320011,,,,,,,2021-09-01,1,,,,,ラッシュ,0
452,2120001240044,新規,0,2021-09-01,2021-09-01,Ｏｕｔｓｉｇｈｔ株式会社,,株式会社,大阪府,大阪市中央区,高津３丁目８番１９号スター・レジデンス黒門２０２,,27,128,5420072,,,,,,,2021-09-01,1,,,,,アウトサイト,0
453,2120001240093,新規,0,2021-09-01,2021-09-01,株式会社清優建設,,株式会社,大阪府,門真市,下馬伏町１４番１８－２０６号,,27,223,5710009,,,,,,,2021-09-01,1,,,,,セイユウケンセツ,0
458,2120003020114,新規,0,2021-09-01,2021-09-01,Ｃｌａｒｉｓ合同会社,,合同会社,大阪府,大阪市淀川区,宮原１丁目１２番４－５０１号,,27,123,5320003,,,,,,,2021-09-01,1,,,,,クラリス,0
459,2120003020122,新規,0,2021-09-01,2021-09-01,合同会社バイオマス発電六,,合同会社,大阪府,大阪市中央区,久太郎町１丁目９番４号,,27,128,5410056,,,,,,,2021-09-01,1,,,,,バイオマスハツデンロク,0
463,2120103004322,新規,0,2021-09-01,2021-09-01,ＨＡＩ　ＰＨＯＮＧ合同会社,,合同会社,大阪府,泉佐野市,市場西３丁目５番３９号,,27,213,5980006,,,,,,,2021-09-01,1,,,,,ハイフォン,0
474,2160001023585,新規,0,2021-09-01,2021-09-01,株式会社石迫電設,,株式会社,滋賀県,大津市,一里山４丁目２０番１４号,,25,201,5202153,,,,,,,2021-09-01,1,,,,,イシサコデンセツ,0
477,2160005010976,新規,0,2021-09-01,2021-09-01,一般社団法人日本サッカーサイエンス研究会,,その他の設立登記法人,滋賀県,大津市,南郷５丁目１４番１４－８０７号レックスガーデン大津南郷リオ,,25,201,5200865,,,,,,,2021-09-01,1,,,,,ニホンサッカーサイエンスケンキュウカイ,0
478,2170003001621,新規,0,2021-09-01,2021-09-01,合同会社上田,,合同会社,和歌山県,新宮市,下本町２丁目４番地の２０,,30,207,6470011,,,,,,,2021-09-01,1,,,,,ウエダ,0
483,2180001147580,新規,0,2021-09-01,2021-09-01,株式会社ｇｅｎｅ,,株式会社,愛知県,名古屋市千種区,井上町９８番地ベレーサ星ケ丘１５０２号,,23,101,4640026,,,,,,,2021-09-01,1,,,,,ジーン,0
490,2180003022906,新規,0,2021-09-01,2021-09-01,合同会社グリーンエステート,,合同会社,愛知県,名古屋市緑区,大高町字西丸根７１番地の１,,23,114,4598001,,,,,,,2021-09-01,1,,,,,グリーンエステート,0
497,2200001039065,新規,0,2021-09-01,2021-09-01,株式会社システックホールディングス,,株式会社,岐阜県,多治見市,笠原町４１０６番地の１４７,,21,204,5070901,,,,,,,2021-09-01,1,,,,,システックホールディングス,0
514,2240001058508,新規,0,2021-09-01,2021-09-01,サンファーム株式会社,,株式会社,広島県,呉市,海岸３丁目１７番２３号,,34,202,7370823,,,,,,,2021-09-01,1,,,,,サンファーム,0
524,2270001008344,新規,0,2021-09-01,2021-09-01,威納商事株式会社,,株式会社,鳥取県,鳥取市,鹿野町今市４０７番地６２,,31,201,6890425,,,,,,,2021-09-01,1,,,,,イノウショウジ,0
533,2290001094440,新規,0,2021-09-01,2021-09-01,株式会社Ｔｉｒｅ　Ｃｒａｆｔ,,株式会社,福岡県,糟屋郡粕屋町,長者原西２丁目６番３９号,,40,349,8112316,,,,,,,2021-09-01,1,,,,,タイヤクラフト,0
548,2340001024061,新規,0,2021-09-01,2021-09-01,株式会社ヨツケン,,株式会社,鹿児島県,鹿児島市,宇宿９丁目３６番１１号,,46,201,8900073,,,,,,,2021-09-01,1,,,,,ヨツケン,0
553,2360001029307,新規,0,2021-09-01,2021-09-01,ライフィ株式会社,,株式会社,沖縄県,宜野湾市,普天間１丁目１番１０号普天間ビル１Ｆ,,47,205,9012202,,,,,,,2021-09-01,1,,,,,ライフィ,0
560,2380001011584,新規,0,2021-09-01,2021-09-01,株式会社城野組,,株式会社,福島県,石川郡石川町,字高田２６４番地,,07,501,9637845,,,,,,,2021-09-01,1,,,,,ジョウノグミ,0
563,2400001015590,新規,0,2021-09-01,2021-09-01,株式会社ｅｎＳＴＡＦＦ,,株式会社,岩手県,盛岡市,津志田２７地割１６番地２６センチュリーハウス津志田Ｂ２０３号室,,03,201,0200835,,,,,,,2021-09-01,1,,,,,エンスタッフ,0
566,2430001084848,新規,0,2021-09-01,2021-09-01,株式会社山平,,株式会社,北海道,札幌市中央区,北四条東２丁目８番４号,,01,101,0600034,,,,,,,2021-09-01,1,,,,,ヤマヒラ,0
583,3010003035725,新規,0,2021-09-01,2021-09-01,合同会社ＭＹ１,,合同会社,東京都,中央区,日本橋堀留町２丁目５番１０－４０３号,,13,102,1030012,,,,,,,2021-09-01,1,,,,,エムワイワン,0
584,3010005033891,新規,0,2021-09-01,2021-09-01,湖南プロパティ特定目的会社,,その他の設立登記法人,東京都,中央区,日本橋１丁目４番１号日本橋一丁目ビルディング,,13,102,1030027,,,,,,,2021-09-01,1,,,,,コナンプロパティ,0
594,3010401162427,新規,0,2021-09-01,2021-09-01,株式会社マノア,,株式会社,東京都,港区,六本木５丁目１３番２８－１０１号,,13,103,1060032,,,,,,,2021-09-01,1,,,,,マノア,0
595,3010401162451,新規,0,2021-09-01,2021-09-01,株式会社ジェイクィーン,,株式会社,東京都,港区,赤坂３丁目１１番１４号,,13,103,1070052,,,,,,,2021-09-01,1,,,,,ジェイクィーン,0
597,3010403026027,新規,0,2021-09-01,2021-09-01,合同会社北斗舎,,合同会社,東京都,港区,虎ノ門１丁目１７番１号虎ノ門ヒルズビジネスタワー,,13,103,1050001,,,,,,,2021-09-01,1,,,,,ホクトシャ,0
598,3010403026043,新規,0,2021-09-01,2021-09-01,ＪＤＰ４合同会社,,合同会社,東京都,港区,東新橋１丁目５番２号汐留シティセンター,,13,103,1050021,,,,,,,2021-09-01,1,,,,,ジェイディーピーフォー,0
599,3010501047767,新規,0,2021-09-01,2021-09-01,株式会社Ｍａｘ　Ｓｐｅｅｄ　Ｒａｃｉｎｇ,,株式会社,東京都,台東区,台東２丁目２７番３号,,13,106,1100016,,,,,,,2021-09-01,1,,,,,マックススピードレーシング,0
624,3011005009196,新規,0,2021-09-01,2021-09-01,一般社団法人意識情報フィールド研究所,,その他の設立登記法人,東京都,渋谷区,千駄ヶ谷３丁目３－３エグゼクティブ原宿５０５,,13,113,1510051,,,,,,,2021-09-01,1,,,,,イシキジョウホウフィールドケンキュウショ,0
633,3011401023627,新規,0,2021-09-01,2021-09-01,東研株式会社,,株式会社,東京都,板橋区,成増１丁目１４－９成増グリーンハイツ４０１,,13,119,1750094,,,,,,,2021-09-01,1,,,,,トウケン,0
636,3011403003429,新規,0,2021-09-01,2021-09-01,Ｔ・Ｓ・Ｅ合同会社,,合同会社,東京都,板橋区,小豆沢１丁目２３番９－５０２号,,13,119,1740051,,,,,,,2021-09-01,1,,,,,ティーエスイー,0
639,3011503004871,新規,0,2021-09-01,2021-09-01,合同会社スノークラウン,,合同会社,東京都,北区,赤羽１丁目７番９号赤羽第一葉山ビル４階,,13,117,1150045,,,,,,,2021-09-01,1,,,,,スノークラウン,0
666,3030001144030,新規,0,2021-09-01,2021-09-01,株式会社Ａ　Ｐｌａｎｎｉｎｇ,,株式会社,埼玉県,上尾市,大字平方領々家５３５－２,,11,219,3620055,,,,,,,2021-09-01,1,,,,,エープランニング,0
667,3030001144071,新規,0,2021-09-01,2021-09-01,株式会社サークルテン,,株式会社,埼玉県,さいたま市緑区,大字三室２１３８番地５２,,11,109,3360911,,,,,,,2021-09-01,1,,,,,サークルテン,0
672,3030003017837,新規,0,2021-09-01,2021-09-01,ＧＲＥＮＳＴＯＣＫ合同会社,,合同会社,埼玉県,川口市,芝５丁目１９番１９号,,11,203,3330866,,,,,,,2021-09-01,1,,,,,グレンストック,0
675,3040001119964,新規,0,2021-09-01,2021-09-01,株式会社ムードアップ,,株式会社,千葉県,千葉市中央区,浜野町６６６番地グリーンビレッジ浜野６０４号,,12,101,2600824,,,,,,,2021-09-01,1,,,,,ムードアップ,0
676,3040001119972,新規,0,2021-09-01,2021-09-01,弘康株式会社,,株式会社,千葉県,松戸市,和名ケ谷９５３番地の１,,12,207,2702232,,,,,,,2021-09-01,1,,,,,コウコウ,0
677,3040001119980,新規,0,2021-09-01,2021-09-01,株式会社アライ,,株式会社,千葉県,印西市,草深２７５番地４,,12,231,2701337,,,,,,,2021-09-01,1,,,,,アライ,0
680,3040002104899,新規,0,2021-09-01,2021-09-01,有限会社京葉開発,,有限会社,千葉県,木更津市,富士見１丁目９番２３号,,12,206,2920831,,,,,,,2021-09-01,1,,,,,ケイヨウカイハツ,0
681,3040003018421,新規,0,2021-09-01,2021-09-01,合同会社ジングルベル,,合同会社,千葉県,千葉市中央区,富士見２丁目７番９号富士見ビル６０９号室,,12,101,2600015,,,,,,,2021-09-01,1,,,,,ジングルベル,0
685,3050001049772,新規,0,2021-09-01,2021-09-01,株式会社ＮＥＸＳＩＡ,,株式会社,茨城県,結城市,新福寺５丁目１３－２３ルメイユール３０１,,08,207,3070053,,,,,,,2021-09-01,1,,,,,ネクシア,0
687,3060001034030,新規,0,2021-09-01,2021-09-01,株式会社ＯＸＹＳ,,株式会社,栃木県,那須塩原市,住吉町２番１７号,,09,213,3250062,,,,,,,2021-09-01,1,,,,,オクシス,0
688,3060001034039,新規,0,2021-09-01,2021-09-01,株式会社ソーシン,,株式会社,栃木県,佐野市,閑馬町２８２３番地２,,09,204,3270321,,,,,,,2021-09-01,1,,,,,ソーシン,0
716,3120001239878,新規,0,2021-09-01,2021-09-01,株式会社ＭＯＴ,,株式会社,大阪府,大阪市生野区,巽中２丁目５番１５号クリエオーレ巽中Ⅰ１０３号室,00124081,27,116,5440013,,,,,,,2021-09-01,1,,,,,エムオーティー,0
717,3120001240010,新規,0,2021-09-01,2021-09-01,ＫＵＡＩＰＡＯ　ＫＡＮＳＡＩ株式会社,,株式会社,大阪府,大阪市浪速区,敷津西２丁目１３番２号,,27,111,5560015,,,,,,,2021-09-01,1,,,,,カイパオカンサイ,0
718,3120001240027,新規,0,2021-09-01,2021-09-01,株式会社盛達商事,,株式会社,大阪府,大阪市西成区,北津守２丁目５番２－２５号,,27,122,5570061,,,,,,,2021-09-01,1,,,,,モリタツショウジ,0
719,3120003020113,新規,0,2021-09-01,2021-09-01,合同会社一眞,,合同会社,大阪府,大阪市西成区,梅南２丁目３番１０号,,27,122,5570033,,,,,,,2021-09-01,1,,,,,イッシン,0
720,3120003020121,新規,0,2021-09-01,2021-09-01,合同会社バイオマス発電伍,,合同会社,大阪府,大阪市中央区,久太郎町１丁目９番４号,,27,128,5410056,,,,,,,2021-09-01,1,,,,,バイオマスハツデンゴ,0
728,3120903003803,新規,0,2021-09-01,2021-09-01,みより合同会社,,合同会社,大阪府,茨木市,春日１丁目９－３３－２,,27,211,5670031,,,,,,,2021-09-01,1,,,,,ミヨリ,0
735,3130001070010,新規,0,2021-09-01,2021-09-01,株式会社ブルーム,,株式会社,京都府,京田辺市,興戸塚ノ本３５番地２６,00124088,26,211,6100332,,,,,,,2021-09-01,1,,,,,ブルーム,0
744,3150001024889,新規,0,2021-09-01,2021-09-01,株式会社山三,,株式会社,奈良県,磯城郡田原本町,大字阪手２９８番地,,29,363,6360247,,,,,,,2021-09-01,1,,,,,ヤマサン,0
745,3150003002471,新規,0,2021-09-01,2021-09-01,合同会社ＯＮＥａｎｄＰＲＩＭＥ,,合同会社,奈良県,生駒市,高山町８４５５,,29,209,6300101,,,,,,,2021-09-01,1,,,,,ワンアンドプライム,0
749,3170001016744,新規,0,2021-09-01,2021-09-01,株式会社キナンレーシングチーム,,株式会社,和歌山県,新宮市,浮島１番２５号,,30,207,6470014,,,,,,,2021-09-01,1,,,,,キナンレーシングチーム,0
750,3170003001620,新規,0,2021-09-01,2021-09-01,合同会社ティジェイ興産,,合同会社,和歌山県,和歌山市,土佐町１丁目６１番地２アルファステイツ土佐町２０２,,30,201,6408256,,,,,,,2021-09-01,1,,,,,ティジェイコウサン,0
758,3180001147613,新規,0,2021-09-01,2021-09-01,株式会社モデスト,,株式会社,愛知県,瀬戸市,東松山町１０番地の２,,23,204,4890069,,,,,,,2021-09-01,1,,,,,モデスト,0
763,3180003022905,新規,0,2021-09-01,2021-09-01,合同会社クリエイト２１,,合同会社,愛知県,名古屋市瑞穂区,竹田町１丁目１３番地の７（ハートインタケダ４Ｃ号）,,23,108,4670873,,,,,,,2021-09-01,1,,,,,クリエイトニジュウイチ,0
786,3240003005259,新規,0,2021-09-01,2021-09-01,合同会社Ｂｒｉｌｌａｎｔｅ,,合同会社,広島県,呉市,仁方本町１丁目２２－５,,34,202,7370152,,,,,,,2021-09-01,1,,,,,ブリランテ,0
789,3260005010965,新規,0,2021-09-01,2021-09-01,一般社団法人西大寺活性化協議会,,その他の設立登記法人,岡山県,岡山市東区,西大寺中３丁目６番１５号,,33,103,7048116,,,,,,,2021-09-01,1,,,,,サイダイジカッセイカキョウギカイ,0
792,3290001094431,新規,0,2021-09-01,2021-09-01,株式会社ジャスト・ワン,,株式会社,福岡県,福岡市城南区,東油山１丁目１０番４１号,,40,136,8140155,,,,,,,2021-09-01,1,,,,,ジャストワン,0
800,3340001024060,新規,0,2021-09-01,2021-09-01,株式会社Ｌｏｎｇ　Ｌｉｆｅ　Ｈｏｍｅ,,株式会社,鹿児島県,鹿児島市,西陵６丁目３１番３８号アンソレイユＣ－１号,,46,201,8900032,,,,,,,2021-09-01,1,,,,,ロングライフホーム,0
802,3350001017278,新規,0,2021-09-01,2021-09-01,イトウ防水株式会社,,株式会社,宮崎県,宮崎市,大坪町寺山大迫３１９３番地８,,45,201,8800933,,,,,,,2021-09-01,1,,,,,イトウボウスイ,0
824,3430001084814,新規,0,2021-09-01,2021-09-01,幸不動産株式会社,,株式会社,北海道,札幌市中央区,南十七条西１５丁目１５番地,,01,101,0640917,,,,,,,2021-09-01,1,,,,,サイワイフドウサン,0
830,3470001018677,新規,0,2021-09-01,2021-09-01,株式会社栗林介護サービス,,株式会社,香川県,高松市,鬼無町藤井５６番地２６,,37,201,7618024,,,,,,,2021-09-01,1,,,,,クリバヤシカイゴサービス,0
831,3480003001713,新規,0,2021-09-01,2021-09-01,ＥＫＮＥＸＴ合同会社,,合同会社,徳島県,海部郡牟岐町,大字中村字大戸５８,,36,383,7750006,,,,,,,2021-09-01,1,,,,,イーケーネクスト,0
837,4000030270666,新規,0,2021-09-01,2021-09-01,高月財産区,,地方公共団体,大阪府,泉北郡忠岡町,高月南１丁目６８－５,,27,341,5950802,,,,,,,2021-09-01,1,,,,,タカツキザイサンク,0
846,4010005033890,新規,0,2021-09-01,2021-09-01,一般社団法人中小企業支援協力会,,その他の設立登記法人,東京都,千代田区,麹町３丁目５番地８,,13,101,1020083,,,,,,,2021-09-01,1,,,,,チュウショウキギョウシエンキョウリョクカイ,0
856,4010401162442,新規,0,2021-09-01,2021-09-01,株式会社ｅｍｉｔａｍｅ,,株式会社,東京都,港区,南青山４丁目５番１９号,,13,103,1070062,,,,,,,2021-09-01,1,,,,,エミタメ,0
857,4010401162459,新規,0,2021-09-01,2021-09-01,アスパイアパートナーズ株式会社,,株式会社,東京都,港区,赤坂１丁目３番５号赤坂アビタシオン８Ｆ,,13,103,1070052,,,,,,,2021-09-01,1,,,,,アスパイアパートナーズ,0
863,4010501047766,新規,0,2021-09-01,2021-09-01,株式会社ファイブスターコンシェルジュ,,株式会社,東京都,台東区,浅草橋３丁目２番１０号,,13,106,1110053,,,,,,,2021-09-01,1,,,,,ファイブスターコンシェルジュ,0
864,4010503006373,新規,0,2021-09-01,2021-09-01,合同会社ｗａｋｕｒａ,,合同会社,東京都,台東区,上野３丁目１７番１２号柏木ビル４Ｆ,,13,106,1100005,,,,,,,2021-09-01,1,,,,,ワクワ,0
866,4010701041404,新規,0,2021-09-01,2021-09-01,株式会社永十,,株式会社,東京都,品川区,西五反田２丁目２８番４朝日マンション五反田７０１号室,,13,109,1410031,,,,,,,2021-09-01,1,,,,,エイジュウ,0
869,4010901049354,新規,0,2021-09-01,2021-09-01,株式会社ＪＢリアルエステート,,株式会社,東京都,世田谷区,若林３丁目１番１３号,,13,112,1540023,,,,,,,2021-09-01,1,,,,,ジェイビーリアルエステート,0
870,4010903006766,新規,0,2021-09-01,2021-09-01,合同会社Ｐｉｌｅ,,合同会社,東京都,世田谷区,豪徳寺１丁目３９番１号,,13,112,1540021,,,,,,,2021-09-01,1,,,,,パイル,0
885,4011101096146,新規,0,2021-09-01,2021-09-01,株式会社ＨＯＫＯＲＩ　ＪＡＰＡＮ,,株式会社,東京都,新宿区,百人町２丁目９－２岡山ビジネスビル４０２,,13,104,1690073,,,,,,,2021-09-01,1,,,,,,0
887,4011201023215,新規,0,2021-09-01,2021-09-01,株式会社ＨＡＶＥ　Ａ　ＧＯＯＤ　ＤＡＹ,,株式会社,東京都,中野区,野方６丁目４番１号,,13,114,1650027,,,,,,,2021-09-01,1,,,,,ハブアグッドデイ,0
890,4011403003428,新規,0,2021-09-01,2021-09-01,小豆沢墓苑販売合同会社,,合同会社,東京都,板橋区,小豆沢３丁目７番３２号,,13,119,1740051,,,,,,,2021-09-01,1,,,,,アズサワボエンハンバイ,0
892,4012401038250,新規,0,2021-09-01,2021-09-01,株式会社ＵＬＴＩＭＡＴＥ　ＰＬＡＮＮＩＮＧ,,株式会社,東京都,調布市,下石原２丁目６０－１北棟Ｃ号室,,13,208,1820034,,,,,,,2021-09-01,1,,,,,アルティメットプランニング,0
913,4020001142819,新規,0,2021-09-01,2021-09-01,株式会社Ｒｉｎｇｓ　ｏｎ　ｔｈｅ　Ｗａｔｅｒ,,株式会社,神奈川県,横浜市神奈川区,東神奈川２丁目４０番地１,,14,102,2210044,,,,,,,2021-09-01,1,,,,,リングスオンザウォーター,0
914,4020001142827,新規,0,2021-09-01,2021-09-01,日本珈琲販売株式会社,,株式会社,神奈川県,横浜市青葉区,あざみ野１丁目７番地１,,14,117,2250011,,,,,,,2021-09-01,1,,,,,ニホンコーヒーハンバイ,0
915,4020001142835,新規,0,2021-09-01,2021-09-01,株式会社でんきのかんり,,株式会社,神奈川県,横浜市青葉区,荏田北１丁目２番地５－１０２号,,14,117,2250015,,,,,,,2021-09-01,1,,,,,デンキノカンリ,0
916,4020003020320,新規,0,2021-09-01,2021-09-01,ＰｒｅｖａｉｌＰａｒｔｎｅｒｓ合同会社,,合同会社,神奈川県,横浜市旭区,川島町２９０８番地１,,14,112,2410011,,,,,,,2021-09-01,1,,,,,プリヴェイルパートナーズ,0
917,4020003020411,新規,0,2021-09-01,2021-09-01,ヒトソーシャル合同会社,,合同会社,神奈川県,川崎市宮前区,神木２丁目５番地４２,,14,136,2160032,,,,,,,2021-09-01,1,,,,,ヒトソーシャル,0
920,4021001073797,新規,0,2021-09-01,2021-09-01,ヤマキタ森林ベンチャー株式会社,,株式会社,神奈川県,足柄上郡山北町,向原５１１７番地,,14,364,2580111,,,,,,,2021-09-01,1,,,,,ヤマキタシンリンベンチャー,0
930,4030001144079,新規,0,2021-09-01,2021-09-01,つなちーずかんぱにー株式会社,,株式会社,埼玉県,川口市,朝日２丁目１番２６－６０５号,,11,203,3320001,,,,,,,2021-09-01,1,,,,,ツナチーズカンパニー,0
931,4030001144095,新規,0,2021-09-01,2021-09-01,株式会社ｙａｍａｚａｋｉ,,株式会社,埼玉県,ふじみ野市,うれし野２丁目５番２４－１２０１号,,11,245,3560056,,,,,,,2021-09-01,1,,,,,ヤマザキ,0
932,4030001144104,新規,0,2021-09-01,2021-09-01,安田耕商事株式会社,,株式会社,埼玉県,川越市,清水町７番地１２,,11,201,3501145,,,,,,,2021-09-01,1,,,,,ヤスダコウショウジ,0
936,4030003017844,新規,0,2021-09-01,2021-09-01,ファーストカード６６６合同会社,,合同会社,埼玉県,草加市,西町９１６－５,,11,221,3400035,,,,,,,2021-09-01,1,,,,,ファーストカードサタン,0
937,4030003017869,新規,0,2021-09-01,2021-09-01,ＶｉｎａＡｕｔｏ合同会社,,合同会社,埼玉県,行田市,大字下忍字京田４２８番１,,11,206,3610037,,,,,,,2021-09-01,1,,,,,ヴィナオート,0
942,4030005020499,新規,0,2021-09-01,2021-09-01,特定非営利活動法人ツナグ,,その他の設立登記法人,埼玉県,さいたま市中央区,上落合８丁目１３番地４アファブル上落合１０２,,11,105,3380001,,,,,,,2021-09-01,1,,,,,ツナグ,0
951,4050003006052,新規,0,2021-09-01,2021-09-01,ｃａｒ　ｆａｃｔｏｒｙ　ａｇｒｏｏｐ合同会社,,合同会社,茨城県,水戸市,住吉町１３７番地８,,08,201,3100844,,,,,,,2021-09-01,1,,,,,カーファクトリーアグループ,0
987,4120001240042,新規,0,2021-09-01,2021-09-01,株式会社虎月堂,,株式会社,大阪府,大阪市北区,西天満４丁目１２番１０号,,27,127,5300047,,,,,,,2021-09-01,1,,,,,コゲツドウ,0
992,4120003020112,新規,0,2021-09-01,2021-09-01,岸里商会合同会社,,合同会社,大阪府,大阪市西成区,千本中１丁目９－１７,,27,122,5570054,,,,,,,2021-09-01,1,,,,,キシサトショウカイ,0
993,4120003020120,新規,0,2021-09-01,2021-09-01,合同会社ｂｌｅｓｓ　ｙｏｕ,,合同会社,大阪府,大阪市中央区,久太郎町１丁目９番４号,,27,128,5410056,,,,,,,2021-09-01,1,,,,,ブレスユー,0
998,4120101064218,新規,0,2021-09-01,2021-09-01,株式会社Ｙｇｒｏｕｐ,,株式会社,大阪府,岸和田市,西之内町４９番７号,,27,202,5960044,,,,,,,2021-09-01,1,,,,,ワイグループ,0
1007,4122005003581,新規,0,2021-09-01,2021-09-01,一般社団法人Ｇｒｅｅｎ,,その他の設立登記法人,大阪府,柏原市,法善寺３丁目７８６番地の５,,27,221,5820005,,,,,,,2021-09-01,1,,,,,グリーン,0
1016,4140001122841,新規,0,2021-09-01,2021-09-01,株式会社カーゴメンテサービス,,株式会社,兵庫県,神戸市東灘区,深江浜町１１１－２,,28,101,6580023,,,,,,,2021-09-01,1,,,,,カーゴメンテサービス,0
1017,4140003016678,新規,0,2021-09-01,2021-09-01,ＩＨＦ合同会社,,合同会社,兵庫県,尼崎市,御園町２４番尼崎第一ビル４０２号,,28,202,6600861,,,,,,,2021-09-01,1,,,,,アイエイチエフ,0
1020,4150001024888,新規,0,2021-09-01,2021-09-01,株式会社大和エンジニアリング,,株式会社,奈良県,大和郡山市,九条町８１５番地１２,,29,203,6391001,,,,,,,2021-09-01,1,,,,,ダイワエンジニアリング,0
1025,4170001016751,新規,0,2021-09-01,2021-09-01,株式会社コメキ,,株式会社,和歌山県,田辺市,宝来町７番３７号,,30,206,6460026,,,,,,,2021-09-01,1,,,,,コメキ,0
1033,4180001147579,新規,0,2021-09-01,2021-09-01,株式会社ＳＴＲＥＡＭ,,株式会社,愛知県,名古屋市天白区,梅が丘４丁目１８０１番地の３,,23,116,4680004,,,,,,,2021-09-01,1,,,,,ストリーム,0
1034,4180001147612,新規,0,2021-09-01,2021-09-01,株式会社府川住建,,株式会社,愛知県,愛知郡東郷町,白鳥３丁目４番地３,,23,302,4700155,,,,,,,2021-09-01,1,,,,,フカワジュウケン,0
1035,4180001147620,新規,0,2021-09-01,2021-09-01,株式会社幸笑,,株式会社,愛知県,海部郡蟹江町,錦２丁目５番地,,23,425,4970054,,,,,,,2021-09-01,1,,,,,コウショウ,0
1047,4190001028638,新規,0,2021-09-01,2021-09-01,マルイデンキ株式会社,,株式会社,三重県,桑名市,多度町南之郷１５９番地,,24,205,5110115,,,,,,,2021-09-01,1,,,,,マルイデンキ,0
1076,4260005010964,新規,0,2021-09-01,2021-09-01,一般社団法人至誠会,,その他の設立登記法人,岡山県,真庭市,勝山３１８番地,,33,214,7170013,,,,,,,2021-09-01,1,,,,,シセイカイ,0
1083,4290001094199,新規,0,2021-09-01,2021-09-01,株式会社Ｇｏｏｄ　ｉｄｅａ,,株式会社,福岡県,福岡市中央区,天神１丁目４番１号,,40,133,8100001,,,,,,,2021-09-01,1,,,,,グッドアイディア,0
1084,4290001094439,新規,0,2021-09-01,2021-09-01,株式会社ＦＴＳ,,株式会社,福岡県,福岡市博多区,寿町２丁目８番１号寿町ハイツ１０５号室,,40,132,8120884,,,,,,,2021-09-01,1,,,,,エフティエス,0
1085,4290001094447,新規,0,2021-09-01,2021-09-01,ｗｉｎｋ　ｆｉｓｈ株式会社,,株式会社,福岡県,福岡市中央区,長浜３丁目１１番３号,,40,133,8100072,,,,,,,2021-09-01,1,,,,,ウインクフィッシュ,0
1109,4430001084854,新規,0,2021-09-01,2021-09-01,株式会社ＷＥＬＬＳＥＥＤ,,株式会社,北海道,札幌市北区,拓北四条４丁目５番１５－１０２号,,01,102,0028064,,,,,,,2021-09-01,1,,,,,ウェルシード,0
1117,4490003001579,新規,0,2021-09-01,2021-09-01,合同会社ＭＫライフ,,合同会社,高知県,高知市,河ノ瀬町１１２－１コーポＭＩＫＩⅠ　２０５,00124073,39,201,7808035,,,,,,,2021-09-01,1,,,,,エムケーライフ,0
1118,4500005008414,新規,0,2021-09-01,2021-09-01,一般社団法人ＢＮＮ,,その他の設立登記法人,愛媛県,松山市,福音寺町５２５番地７,,38,201,7900921,,,,,,,2021-09-01,1,,,,,ビーエヌエヌ,0
1119,5000030270665,新規,0,2021-09-01,2021-09-01,大字稲財産区,,地方公共団体,大阪府,箕面市,西小路４丁目６－１,,27,220,5620003,,,,,,,2021-09-01,1,,,,,オオアザイナザイサンク,0
1123,5010001220822,新規,0,2021-09-01,2021-09-01,株式会社ＫｏＭ,,株式会社,東京都,中央区,銀座７丁目１７番２号アーク銀座ビルディング６Ｆ,,13,102,1040061,,,,,,,2021-09-01,1,,,,,コム,0
1124,5010001220839,新規,0,2021-09-01,2021-09-01,株式会社ＭＡＫＥ　ＪＡＰＡＮ,,株式会社,東京都,千代田区,飯田橋４丁目１－２,,13,101,1020072,,,,,,,2021-09-01,1,,,,,メイクジャパン,0
1126,5010003035665,新規,0,2021-09-01,2021-09-01,ＥＳＲ１０１合同会社,,合同会社,東京都,中央区,日本橋１丁目４番１号日本橋一丁目ビルディング,,13,102,1030027,,,,,,,2021-09-01,1,,,,,イーエスアールヒャクイチ,0
1127,5010003035715,新規,0,2021-09-01,2021-09-01,ｂｉｏｆｉｑｕｅ合同会社,,合同会社,東京都,中央区,銀座１丁目２２番１１号－２Ｆ,,13,102,1040061,,,,,,,2021-09-01,1,,,,,ビオフィーク,0
1128,5010003035723,新規,0,2021-09-01,2021-09-01,Ｂｒｉｌｌｉａｎｔ　Ｓｏｕｌ合同会社,,合同会社,東京都,中央区,日本橋富沢町４－１０,,13,102,1030006,,,,,,,2021-09-01,1,,,,,ブリリアントソウル,0
1138,5010401162400,新規,0,2021-09-01,2021-09-01,株式会社ＳＨＡＲＥ　ＲＩＳＥ,,株式会社,東京都,港区,白金台５丁目５番２号マンション白金苑２０６,,13,103,1080071,,,,,,,2021-09-01,1,,,,,シェアライズ,0
1139,5010401162441,新規,0,2021-09-01,2021-09-01,株式会社バイブハート,,株式会社,東京都,港区,浜松町２丁目２番１５号浜松町ダイヤビル２Ｆ,,13,103,1050013,,,,,,,2021-09-01,1,,,,,バイブハート,0
1150,5010403026033,新規,0,2021-09-01,2021-09-01,合同会社ＣＨＩＬＯ,,合同会社,東京都,港区,南青山２丁目２番１５号ウィン青山９４２,,13,103,1070062,,,,,,,2021-09-01,1,,,,,シロ,0
1151,5010501047773,新規,0,2021-09-01,2021-09-01,株式会社持丸水産,,株式会社,東京都,台東区,上野６丁目１０番７号,,13,106,1100005,,,,,,,2021-09-01,1,,,,,モチマルスイサン,0
1158,5010801032269,新規,0,2021-09-01,2021-09-01,ＲＯＢＩＳＨ　ＩＮＴＥＲＮＡＴＩＯＮＡＬ株式会社,,株式会社,東京都,大田区,上池台１丁目１７番２号ハイツ上池３０２,,13,111,1450064,,,,,,,2021-09-01,1,,,,,ロビッシュインターナショナル,0
1159,5010901049345,新規,0,2021-09-01,2021-09-01,ＲＥＡＫＳ株式会社,,株式会社,東京都,世田谷区,池尻３丁目１８番１６号,,13,112,1540001,,,,,,,2021-09-01,1,,,,,リークス,0
1175,5011201023214,新規,0,2021-09-01,2021-09-01,株式会社Ｌａ　Ｖｉｃｔｏｒｉａ,,株式会社,東京都,中野区,弥生町３丁目１番６号,,13,114,1640013,,,,,,,2021-09-01,1,,,,,ラヴィクトリア,0
1178,5011302017362,新規,0,2021-09-01,2021-09-01,有限会社モリヤ,,有限会社,東京都,杉並区,荻窪４丁目４番５号,,13,115,1670051,,,,,,,2021-09-01,1,,,,,モリヤ,0
1180,5011603003383,新規,0,2021-09-01,2021-09-01,合同会社ウエストウッド,,合同会社,東京都,練馬区,関町東２丁目１３－４,,13,120,1770052,,,,,,,2021-09-01,1,,,,,,0
1195,5020001142818,新規,0,2021-09-01,2021-09-01,株式会社Ｄｏｏｒ,,株式会社,神奈川県,横浜市金沢区,釜利谷南２丁目１６番１６号,,14,108,2360045,,,,,,,2021-09-01,1,,,,,ドアー,0
1196,5020001142826,新規,0,2021-09-01,2021-09-01,株式会社平良興業,,株式会社,神奈川県,横浜市鶴見区,朝日町２丁目６５番地８,,14,101,2300033,,,,,,,2021-09-01,1,,,,,タイラコウギョウ,0
1199,5020003020410,新規,0,2021-09-01,2021-09-01,合同会社ＫＯＵＫＥＮ,,合同会社,神奈川県,横浜市磯子区,岡村４丁目１５番３８号,,14,107,2350021,,,,,,,2021-09-01,1,,,,,コウケン,0
1200,5020003020419,新規,0,2021-09-01,2021-09-01,ＶＥＲＭＡＴＥＲ合同会社,,合同会社,神奈川県,横浜市保土ケ谷区,瀬戸ケ谷町２３１－３０,,14,106,2400024,,,,,,,2021-09-01,1,,,,,ヴァーメーター,0
1207,5021001073755,新規,0,2021-09-01,2021-09-01,株式会社飯泉工務店,,株式会社,神奈川県,横須賀市,岩戸４丁目１１－７,,14,201,2390844,,,,,,,2021-09-01,1,,,,,イイズミコウムテン,0
1208,5021001073821,新規,0,2021-09-01,2021-09-01,横一電工株式会社,,株式会社,神奈川県,横須賀市,長沢１丁目１４番Ａ－３１１号,,14,201,2390842,,,,,,,2021-09-01,1,,,,,,0
1212,5021003010847,新規,0,2021-09-01,2021-09-01,合同会社ａ．ｈ．ｈｏｕｓｅ,,合同会社,神奈川県,逗子市,小坪１丁目５番１８－２０２号,,14,208,2490008,,,,,,,2021-09-01,1,,,,,エーエイチハウス,0
1221,5030001144078,新規,0,2021-09-01,2021-09-01,株式会社ルンペン,,株式会社,埼玉県,三郷市,鷹野４丁目３６番地１,,11,237,3410035,,,,,,,2021-09-01,1,,,,,ルンペン,0
1222,5030001144111,新規,0,2021-09-01,2021-09-01,ＬＯＲＥＡＴＥＣ株式会社,,株式会社,埼玉県,川口市,並木３丁目３－９第３マサキビル２０５,,11,203,3320034,,,,,,,2021-09-01,1,,,,,ロレアテック,0
1225,5030003017868,新規,0,2021-09-01,2021-09-01,合同会社ｔｏｔａｌ　ｂｅａｕｔｙ　ｓａｌｏｎ　ＣＬＯＶＥＲ,,合同会社,埼玉県,所沢市,東住吉９番１号レジデンス沖田３０５,,11,208,3591124,,,,,,,2021-09-01,1,,,,,トータルビューティーサロンクローバー,0
1235,5040001119987,新規,0,2021-09-01,2021-09-01,穂陽成株式会社,,株式会社,千葉県,松戸市,西馬橋蔵元町５５,,12,207,2710046,,,,,,,2021-09-01,1,,,,,ホヨウセイ,0
1240,5050001049770,新規,0,2021-09-01,2021-09-01,株式会社イイツカ,,株式会社,茨城県,神栖市,息栖２８２９番地１３フォレストタウン１０１,,08,232,3140133,,,,,,,2021-09-01,1,,,,,イイツカ,0
1242,5070003004210,新規,0,2021-09-01,2021-09-01,合同会社小林農園,,合同会社,群馬県,前橋市,富士見町時沢２６４４番地２,,10,201,3710104,,,,,,,2021-09-01,1,,,,,コバヤシノウエン,0
1247,5090001017170,新規,0,2021-09-01,2021-09-01,株式会社ＥＡＳＹ‐ＮＥＴ,,株式会社,山梨県,甲府市,美咲２丁目１４番１２号,,19,201,4000007,,,,,,,2021-09-01,1,,,,,,0
1276,5120001240058,新規,0,2021-09-01,2021-09-01,株式会社マーキュリーホーム,,株式会社,大阪府,枚方市,楠葉並木２丁目２２番１０－２０４号,,27,210,5731118,,,,,,,2021-09-01,1,,,,,マーキュリーホーム,0
1287,5120101064225,新規,0,2021-09-01,2021-09-01,株式会社Ｂｅｓｔ,,株式会社,大阪府,堺市堺区,海山町１丁８番地,,27,141,5900982,,,,,,,2021-09-01,1,,,,,ベスト,0
1292,5122003002163,新規,0,2021-09-01,2021-09-01,合同会社ＮＡＴＹＳ,,合同会社,大阪府,東大阪市,吉田本町３丁目４番１２号,,27,227,5780982,,,,,,,2021-09-01,1,,,,,ネイティース,0
1297,5140001122857,新規,0,2021-09-01,2021-09-01,株式会社ファースト,,株式会社,兵庫県,神戸市兵庫区,御崎町１丁目８番１３号ウィングヒル５、１階南,,28,105,6520855,,,,,,,2021-09-01,1,,,,,ファースト,0
1303,5140003016685,新規,0,2021-09-01,2021-09-01,Ｍａｓｔｅｒ　Ｔｒａｉｎｅｒ　Ｏｎ　Ｓｉｔｅ合同会社,,合同会社,兵庫県,尼崎市,常吉１丁目２１－８,,28,202,6610042,,,,,,,2021-09-01,1,,,,,マスタートレーナーオンサイト,0
1305,5150001024887,新規,0,2021-09-01,2021-09-01,株式会社メジャーコネクト,,株式会社,奈良県,奈良市,四条大路２丁目２番１３－５号,,29,201,6308014,,,,,,,2021-09-01,1,,,,,メジャーコネクト,0
1321,5180001147578,新規,0,2021-09-01,2021-09-01,株式会社Ｒａｄｉａｓｔａｒ,,株式会社,愛知県,一宮市,木曽川町玉ノ井字大縄場八ノ切１３０番地ＳＰＡＣＥⅥ・Ｃ棟,00124078,23,203,4930004,,,,,,,2021-09-01,1,,,,,ラディアスター,0
1322,5180001147636,新規,0,2021-09-01,2021-09-01,株式会社サンフォレスト,,株式会社,愛知県,名古屋市緑区,有松３１０１番地の３,,23,114,4580924,,,,,,,2021-09-01,1,,,,,サンフォレスト,0
1325,5180301035301,新規,0,2021-09-01,2021-09-01,未来堂株式会社,,株式会社,愛知県,豊橋市,多米東町１丁目６‐２１,,23,201,4400028,,,,,,,2021-09-01,1,,,,,ミライドウ,0
1352,5240001058513,新規,0,2021-09-01,2021-09-01,株式会社ＡＸＥＥＤ,,株式会社,広島県,広島市佐伯区,河内南１丁目１１番１３号,,34,108,7315153,,,,,,,2021-09-01,1,,,,,アクシード,0
1354,5250001019084,新規,0,2021-09-01,2021-09-01,株式会社アソビバスターズ,,株式会社,山口県,下松市,北斗町１２番４号,,35,207,7440012,,,,,,,2021-09-01,1,,,,,アソビバスターズ,0
1363,5290001094438,新規,0,2021-09-01,2021-09-01,株式会社生活応援隊,,株式会社,福岡県,福岡市西区,愛宕浜２丁目３番８号９０４,,40,135,8190013,,,,,,,2021-09-01,1,,,,,セイカツオウエンタイ,0
1367,5290801027745,新規,0,2021-09-01,2021-09-01,株式会社ＫＵＭＡＤＥＮ,,株式会社,福岡県,北九州市八幡西区,北筑３丁目８番１９号,,40,109,8070857,,,,,,,2021-09-01,1,,,,,クマデン,0
1372,5330001028952,新規,0,2021-09-01,2021-09-01,株式会社ティ・エム・コーポレーション,,株式会社,熊本県,熊本市東区,長嶺南５丁目３－９－１０１,,43,102,8618039,,,,,,,2021-09-01,1,,,,,ティエムコーポレーション,0
1374,5350001017276,新規,0,2021-09-01,2021-09-01,株式会社メモラーブル,,株式会社,宮崎県,東諸県郡国富町,大字本庄４８３６番地,,45,382,8801101,,,,,,,2021-09-01,1,,,,,メモラーブル,0
1392,5430001084845,新規,0,2021-09-01,2021-09-01,ＤＯＭ株式会社,,株式会社,北海道,札幌市中央区,南一条西１１丁目３２７番地,,01,101,0600061,,,,,,,2021-09-01,1,,,,,ディーオーエム,0
1393,5430001084853,新規,0,2021-09-01,2021-09-01,株式会社Ｌｉａｍ　Ａｚｕｌ,,株式会社,北海道,札幌市西区,平和一条５丁目５番１号,,01,107,0630021,,,,,,,2021-09-01,1,,,,,リアムアスール,0
1396,5440001008943,新規,0,2021-09-01,2021-09-01,株式会社カワシマ内装,,株式会社,北海道,函館市,本通１丁目１番１７号,,01,202,0410851,,,,,,,2021-09-01,1,,,,,カワシマナイソウ,0
1400,5500005008413,新規,0,2021-09-01,2021-09-01,一般社団法人基稔会,,その他の設立登記法人,愛媛県,新居浜市,庄内町２丁目５番２号Ｏｌｅｔｈ庄内Ｂ棟,,38,205,7920811,,,,,,,2021-09-01,1,,,,,キネンカイ,0
1401,5700150006770,新規,0,2021-09-01,2015-10-09,文京区商店街連合会,,その他,東京都,文京区,春日１丁目１６番２１号文京シビックセンター地下２階,,13,105,1120003,,,,,,,2015-10-09,1,,,,,ブンキヨウクシヨウテンガイレンゴウカイ,0
1402,5700150104566,新規,0,2021-09-01,2021-09-01,Ａｔｌａｎｔｉｃ　Ｂｌｕｅ　Ｓｋｙ　Ｌｉｍｉｔｅｄ,,外国会社等,北海道,虻田郡倶知安町,字山田１５５－２９４,,01,400,0440081,Ｓｅａ　Ｍｅａｄｏｗ　Ｈｏｕｓｅ，Ｂｌａｃｋｂｕｒｎｅ　Ｈｉｇｈｗａｙ，Ｒｏａｄ　Ｔｏｗｎ，Ｔｏｒｔｏｌａ，Ｂ．Ｖ．Ｉ．,,,,,,2021-09-01,1,,,,,アトランテイツクブルースカイリミテツド,0
1403,6000030270664,新規,0,2021-09-01,2021-09-01,大字如意谷財産区,,地方公共団体,大阪府,箕面市,西小路４丁目６－１,,27,220,5620003,,,,,,,2021-09-01,1,,,,,オオアザニョイダニザイサンク,0
1408,6010001220631,新規,0,2021-09-01,2021-09-01,株式会社私のエステは寝てるだけ,,株式会社,東京都,中央区,日本橋蛎殻町１丁目１２－４－１２０６,,13,102,1030014,,,,,,,2021-09-01,1,,,,,ワタシノエステハネテルダケ,0
1411,6010005033864,新規,0,2021-09-01,2021-09-01,一般社団法人デンタルリノベーション協会,,その他の設立登記法人,東京都,千代田区,大手町１丁目６番１号,,13,101,1000004,,,,,,,2021-09-01,1,,,,,デンタルリノベーションキョウカイ,0
1412,6010005033889,新規,0,2021-09-01,2021-09-01,Ｅａｓｔ　Ｃａｓｔｌｅ特定目的会社,,その他の設立登記法人,東京都,千代田区,丸の内３丁目１番１号東京共同会計事務所内,,13,101,1000005,,,,,,,2021-09-01,1,,,,,イーストキャッスル,0
1415,6010401162416,新規,0,2021-09-01,2021-09-01,株式会社橙,,株式会社,東京都,港区,西麻布１丁目１２番５号ＳＷ六本木通ビル４階,,13,103,1060031,,,,,,,2021-09-01,1,,,,,,0
1419,6010403026016,新規,0,2021-09-01,2021-09-01,合同会社ひのでエージェント,,合同会社,東京都,港区,赤坂９丁目１番７号,,13,103,1070052,,,,,,,2021-09-01,1,,,,,ヒノデエージェント,0
1420,6010405020140,新規,0,2021-09-01,2021-09-01,Ｂａｎｓｏｕ行政書士法人,,その他の設立登記法人,東京都,港区,虎ノ門１丁目１番１２号,,13,103,1050001,,,,,,,2021-09-01,1,,,,,バンソウ,0
1440,6010901049344,新規,0,2021-09-01,2021-09-01,英雄株式会社,,株式会社,東京都,世田谷区,宮坂３丁目１７番７号,,13,112,1560051,,,,,,,2021-09-01,1,,,,,エイユウ,0
1450,6011101096144,新規,0,2021-09-01,2021-09-01,ティハール株式会社,,株式会社,東京都,新宿区,百人町１丁目１７番５－６０５号,,13,104,1690073,,,,,,,2021-09-01,1,,,,,ティハール,0
1453,6011103010978,新規,0,2021-09-01,2021-09-01,合同会社ＲＡＺＡ,,合同会社,東京都,新宿区,下落合４丁目２０－１８－４０１,,13,104,1610033,,,,,,,2021-09-01,1,,,,,ラザ,0
1454,6011105009944,新規,0,2021-09-01,2021-09-01,一般社団法人キャリアヘルス研究所,,その他の設立登記法人,東京都,新宿区,中落合１丁目１４番３２号ブリリア新宿中落合５０１,,13,104,1610032,,,,,,,2021-09-01,1,,,,,キャリアヘルスケンキュウジョ,0
1455,6011201023221,新規,0,2021-09-01,2021-09-01,株式会社ＤＩＣＩＤＥ,,株式会社,東京都,中野区,江古田４丁目２３番５号ブランミューザＡ１０１,,13,114,1650022,,,,,,,2021-09-01,1,,,,,ディサイド,0
1458,6011405002161,新規,0,2021-09-01,2021-09-01,一般社団法人にほん自然災害支援機構,,その他の設立登記法人,東京都,板橋区,南町１０番６号,,13,119,1730027,,,,,,,2021-09-01,1,,,,,ニホンシゼンサイガイシエンキコウ,0
1460,6011501027269,新規,0,2021-09-01,2021-09-01,株式会社ナスメン,,株式会社,東京都,荒川区,東日暮里６丁目５２－２Ｔｒｉａｓ６５２－４０４号,,13,118,1160014,,,,,,,2021-09-01,1,,,,,ナスメン,0
1479,6020003020392,新規,0,2021-09-01,2021-09-01,デンタルアーツラボラトリー合同会社,,合同会社,神奈川県,横浜市都筑区,中川中央１丁目２７番６号イストアール１階,,14,118,2240003,,,,,,,2021-09-01,1,,,,,デンタルアーツラボラトリー,0
1480,6020003020401,新規,0,2021-09-01,2021-09-01,合同会社秋田商会,,合同会社,神奈川県,川崎市中原区,西加瀬５番１－３１４号,,14,133,2110024,,,,,,,2021-09-01,1,,,,,アキタショウカイ,0
1485,6021001073795,新規,0,2021-09-01,2021-09-01,株式会社古川興業,,株式会社,神奈川県,海老名市,門沢橋３丁目２１番１８号,,14,215,2430426,,,,,,,2021-09-01,1,,,,,フルカワコウギョウ,0
1486,6021001073820,新規,0,2021-09-01,2021-09-01,株式会社ＹＭＳプランニング,,株式会社,神奈川県,相模原市南区,当麻１２０５番地３,,14,153,2520336,,,,,,,2021-09-01,1,,,,,ワイエムエスプランニング,0
1497,6030001144069,新規,0,2021-09-01,2021-09-01,株式会社Ｕ－Ｇ　ｄｅｓｉｇｎ,,株式会社,埼玉県,越谷市,赤山町２丁目６７番地１０,,11,222,3430807,,,,,,,2021-09-01,1,,,,,ユージーデザイン,0
1501,6030003017867,新規,0,2021-09-01,2021-09-01,ハーベストリンク合同会社,,合同会社,埼玉県,川口市,末広１丁目１６番７－８２５号,,11,203,3320006,,,,,,,2021-09-01,1,,,,,ハーベストリンク,0
1503,6030005020506,新規,0,2021-09-01,2021-09-01,一般社団法人心灯明福祉会,,その他の設立登記法人,埼玉県,さいたま市岩槻区,大字釣上新田１４２７番地３,,11,110,3390025,,,,,,,2021-09-01,1,,,,,コトアフクシカイ,0
1511,6040001119978,新規,0,2021-09-01,2021-09-01,株式会社ＣＥＲＩＳＥ,,株式会社,千葉県,千葉市中央区,千葉港７番２号ライオンズマンション千葉グランドタワー９０７号,,12,101,2600026,,,,,,,2021-09-01,1,,,,,スリーズ,0
1512,6040001119986,新規,0,2021-09-01,2021-09-01,アシスト・リンク株式会社,,株式会社,千葉県,松戸市,高塚新田６４２番地の１７２,00124076,12,207,2702222,,,,,,,2021-09-01,1,,,,,アシストリンク,0
1515,6040003018410,新規,0,2021-09-01,2021-09-01,合同会社ゴースロー,,合同会社,千葉県,いすみ市,岬町押日４０１０番地６,,12,238,2994622,,,,,,,2021-09-01,1,,,,,ゴースロー,0
1533,6100001034568,新規,0,2021-09-01,2021-09-01,株式会社エイジアドバンス,,株式会社,長野県,長野市,若穂綿内８８３４番地,,20,201,3810101,,,,,,,2021-09-01,1,,,,,エイジアドバンス,0
1545,6120001240032,新規,0,2021-09-01,2021-09-01,株式会社ニーモク,,株式会社,大阪府,大阪市中央区,道修町１丁目４番３号,,27,128,5410045,,,,,,,2021-09-01,1,,,,,ニーモク,0
1548,6120003020093,新規,0,2021-09-01,2021-09-01,合同会社Ｖｉｅ　Ｒａｐｐｏｒｔ,,合同会社,大阪府,大阪市中央区,伏見町４丁目４番９号淀屋橋東洋ビル３Ｆ,,27,128,5410044,,,,,,,2021-09-01,1,,,,,ヴィラポール,0
1549,6120003020110,新規,0,2021-09-01,2021-09-01,莫非特合同会社,,合同会社,大阪府,大阪市浪速区,芦原１丁目１番７号フォレスト難波西１０１号室,00124074,27,111,5560029,,,,,,,2021-09-01,1,,,,,モヒトゴウドウカイシャ,0
1550,6120003020119,新規,0,2021-09-01,2021-09-01,合同会社Ｗｅｓｔ　Ｒｉｖｅｒ,,合同会社,大阪府,大阪市中央区,久太郎町１丁目９番４号,,27,128,5410056,,,,,,,2021-09-01,1,,,,,ウェストリバー,0
1560,6120903003800,新規,0,2021-09-01,2021-09-01,合同会社アグレアーブルサービス,,合同会社,大阪府,箕面市,彩都粟生南６丁目１７番６２号,,27,220,5620028,,,,,,,2021-09-01,1,,,,,アグレアーブルサービス,0
1561,6122003002162,新規,0,2021-09-01,2021-09-01,合同会社パラダイス銀河社,,合同会社,大阪府,八尾市,本町７丁目１３番１７号,,27,212,5810003,,,,,,,2021-09-01,1,,,,,パラダイスギンガシャ,0
1568,6130003007445,新規,0,2021-09-01,2021-09-01,合同会社カミヤヅラボ,,合同会社,京都府,宮津市,字喜多１１５２,,26,205,6260035,,,,,,,2021-09-01,1,,,,,カミヤヅラボ,0
1575,6140003016684,新規,0,2021-09-01,2021-09-01,合同会社ＨＡＲＵＮＡプロジェクト,,合同会社,兵庫県,芦屋市,潮見町２３番１号,,28,206,6590043,,,,,,,2021-09-01,1,,,,,ハルナプロジェクト,0
1577,6160001023581,新規,0,2021-09-01,2021-09-01,ねこのめ不動産株式会社,,株式会社,滋賀県,守山市,守山３丁目１６番３号,,25,207,5240022,,,,,,,2021-09-01,1,,,,,ネコノメフドウサン,0
1579,6170001016758,新規,0,2021-09-01,2021-09-01,株式会社ＭＩＥＵＸ,,株式会社,和歌山県,和歌山市,木ノ本２３６－９,,30,201,6408453,,,,,,,2021-09-01,1,,,,,ミウ,0
1590,6180001147602,新規,0,2021-09-01,2021-09-01,ＲＥＮコンストラクト株式会社,,株式会社,愛知県,名古屋市北区,平安２丁目１３番２１号ニュー平安ビル３階,,23,103,4620819,,,,,,,2021-09-01,1,,,,,レンコンストラクト,0
1591,6180001147619,新規,0,2021-09-01,2021-09-01,愛知みかん園株式会社,,株式会社,愛知県,知多郡美浜町,大字北方字西側２５番地,,23,446,4702403,,,,,,,2021-09-01,1,,,,,アイチミカンエン,0
1602,6180305009234,新規,0,2021-09-01,2021-09-01,特定非営利活動法人ナスもル知立,,その他の設立登記法人,愛知県,知立市,山屋敷町富士塚１番地１６１,,23,225,4720022,,,,,,,2021-09-01,1,,,,,ナスモルチリュウ,0
1609,6200003005292,新規,0,2021-09-01,2021-09-01,合同会社ＭＳＫサービス,,合同会社,岐阜県,岐阜市,西改田字川向１３１番地９,,21,201,5011161,,,,,,,2021-09-01,1,,,,,エムエスケイサービス,0
1623,6240001058504,新規,0,2021-09-01,2021-09-01,Ｓ．ＴＥＣＨ．Ｖ株式会社,,株式会社,広島県,広島市西区,中広町３丁目８番１２－２号,,34,104,7330012,,,,,,,2021-09-01,1,,,,,エステックブイ,0
1626,6240003005256,新規,0,2021-09-01,2021-09-01,合同会社タマ,,合同会社,広島県,福山市,引野町５丁目４３番１８号,,34,207,7210942,,,,,,,2021-09-01,1,,,,,タマ,0
1635,6290001094437,新規,0,2021-09-01,2021-09-01,ＲＩＫＫＹＯ　ＪＡＰＡＮ株式会社,,株式会社,福岡県,福岡市中央区,赤坂１丁目１４番２２号９Ｆ－Ｄ,,40,133,8100042,,,,,,,2021-09-01,1,,,,,リッキョージャパン,0
1636,6290001094453,新規,0,2021-09-01,2021-09-01,株式会社ｃｈｉｃｋｔｅｋ,,株式会社,福岡県,福岡市東区,二又瀬１番１７号,,40,131,8120066,,,,,,,2021-09-01,1,,,,,チックテック,0
1640,6290801027744,新規,0,2021-09-01,2021-09-01,株式会社ビルドワーク,,株式会社,福岡県,北九州市小倉北区,白萩町５番１１号,,40,106,8030825,,,,,,,2021-09-01,1,,,,,ビルドワーク,0
1643,6310003004151,新規,0,2021-09-01,2021-09-01,合同会社ライフパートナーズ長崎,,合同会社,長崎県,大村市,武部町７３番地ハニーハイツＢ棟,,42,205,8560035,,,,,,,2021-09-01,1,,,,,ライフパートナーズナガサキ,0
1659,6360001029303,新規,0,2021-09-01,2021-09-01,株式会社シロ建,,株式会社,沖縄県,那覇市,辻２丁目１１番３号１Ｆ,00124080,47,201,9000037,,,,,,,2021-09-01,1,,,,,シロケン,0
1661,6370003005367,新規,0,2021-09-01,2021-09-01,柴山機械合同会社,,合同会社,宮城県,亘理郡山元町,山寺字西牛橋４２番地８,,04,362,9892201,,,,,,,2021-09-01,1,,,,,シバヤマキカイ,0
1668,6400005008182,新規,0,2021-09-01,2021-09-01,医療法人さくら,,その他の設立登記法人,岩手県,北上市,川岸２丁目１０番２５号,,03,206,0240032,,,,,,,2021-09-01,1,,,,,サクラ,0
1672,6430001084844,新規,0,2021-09-01,2021-09-01,株式会社ＥＫ‐ＳＴＹＬＥ,,株式会社,北海道,札幌市北区,新琴似町７７２番地９,,01,102,0010915,,,,,,,2021-09-01,1,,,,,イーケースタイル,0
1673,6430001084852,新規,0,2021-09-01,2021-09-01,株式会社スターボックス,,株式会社,北海道,札幌市中央区,南二条東３丁目５番地,,01,101,0600052,,,,,,,2021-09-01,1,,,,,スターボックス,0
1674,6430001084860,新規,0,2021-09-01,2021-09-01,株式会社渡辺設計事務所,,株式会社,北海道,札幌市西区,西野四条６丁目１１番６号,,01,107,0630034,,,,,,,2021-09-01,1,,,,,ワタナベセッケイジムショ,0
1677,6430003013099,新規,0,2021-09-01,2021-09-01,合同会社北海慈航社,,合同会社,北海道,小樽市,花園５丁目６番１１号,,01,203,0470024,,,,,,,2021-09-01,1,,,,,ホッカイキコウシャ,0
1683,6700150104508,新規,0,2021-09-01,2021-08-24,小田原こども舞台芸術クラブ,,その他,神奈川県,小田原市,蓮正寺４７０－１９０,,14,206,2500865,,,,,,,2021-08-24,1,,,,,オダワラコドモブタイゲイジユツクラブ,0
1695,7010101014833,新規,0,2021-09-01,2021-09-01,安保設備株式会社,,株式会社,東京都,八王子市,横川町９９１番地７,,13,201,1930823,,,,,,,2021-09-01,1,,,,,アンボセツビ,0
1699,7010401162398,新規,0,2021-09-01,2021-09-01,株式会社ＨＳＫ　Ｃｏｒｐｏｒａｔｉｏｎ,,株式会社,東京都,港区,三田１丁目３番４０号,,13,103,1080073,,,,,,,2021-09-01,1,,,,,エイチエスケイコーポレーション,0
1700,7010401162415,新規,0,2021-09-01,2021-09-01,株式会社ＲｅｅＮＴ,,株式会社,東京都,港区,西新橋３丁目２５番８号,,13,103,1050003,,,,,,,2021-09-01,1,,,,,リエント,0
1701,7010401162431,新規,0,2021-09-01,2021-09-01,モメンタムスポーツ株式会社,,株式会社,東京都,港区,南青山３丁目１５番９号ＭＩＮＯＷＡ表参道３Ｆ,,13,103,1070062,,,,,,,2021-09-01,1,,,,,モメンタムスポーツ,0
1702,7010401162456,新規,0,2021-09-01,2021-09-01,株式会社ＡＴＥＣＳ　ＤＥＳＩＧＮ,,株式会社,東京都,港区,西麻布１丁目１３番１４号シャロム西麻布５階,,13,103,1060031,,,,,,,2021-09-01,1,,,,,アテックスデザイン,0
1711,7010703005924,新規,0,2021-09-01,2021-09-01,Ｊｉｎｇｌｅ合同会社,,合同会社,東京都,品川区,二葉１丁目４番５号,,13,109,1420043,,,,,,,2021-09-01,1,,,,,ジングル,0
1714,7010801032275,新規,0,2021-09-01,2021-09-01,株式会社リッチフィールド,,株式会社,東京都,大田区,大森西５丁目１３番１３－２１０号,,13,111,1430015,,,,,,,2021-09-01,1,,,,,リッチフィールド,0
1716,7010803003869,新規,0,2021-09-01,2021-09-01,合同会社天使のはしご,,合同会社,東京都,大田区,田園調布本町３９番８号キャッスル田園調布１０３,,13,111,1450072,,,,,,,2021-09-01,1,,,,,テンシノハシゴ,0
1717,7010901049351,新規,0,2021-09-01,2021-09-01,株式会社ネルデザイン,,株式会社,東京都,世田谷区,上野毛３丁目２０番６号,,13,112,1580093,,,,,,,2021-09-01,1,,,,,ネルデザイン,0
1727,7011601025361,新規,0,2021-09-01,2021-09-01,英信株式会社,,株式会社,東京都,練馬区,貫井３丁目３８番１２号,,13,120,1760021,,,,,,,2021-09-01,1,,,,,エイシン,0
1737,7012403005007,新規,0,2021-09-01,2021-09-01,Ｋ－ＮＥＸＴ合同会社,,合同会社,東京都,狛江市,駒井町１丁目１５番１１号,,13,219,2010016,,,,,,,2021-09-01,1,,,,,ケーネクスト,0
1738,7012405004634,新規,0,2021-09-01,2021-09-01,一般社団法人Ａｏ,,その他の設立登記法人,東京都,府中市,栄町１丁目３２番地の３９,,13,206,1830051,,,,,,,2021-09-01,1,,,,,アオ,0
1746,7020001142832,新規,0,2021-09-01,2021-09-01,株式会社ＭＩＡＮＡ,,株式会社,神奈川県,横浜市保土ケ谷区,法泉２丁目１０番２３－２号,,14,106,2400032,,,,,,,2021-09-01,1,,,,,ミアナ,0
1755,7020003020400,新規,0,2021-09-01,2021-09-01,合同会社２Ｍ,,合同会社,神奈川県,横浜市金沢区,釜利谷東７丁目１番１号,,14,108,2360042,,,,,,,2021-09-01,1,,,,,ツーエム,0
1771,7030001144092,新規,0,2021-09-01,2021-09-01,ＤｏＹ株式会社,,株式会社,埼玉県,戸田市,美女木８丁目１４番地の１５,,11,224,3350031,,,,,,,2021-09-01,1,,,,,ドゥーイ,0
1772,7030001144101,新規,0,2021-09-01,2021-09-01,株式会社Ｅ－Ｎｅｏ,,株式会社,埼玉県,川越市,大字寺尾１５０番地２２,,11,201,3501141,,,,,,,2021-09-01,1,,,,,イーネオ,0
1773,7030001144118,新規,0,2021-09-01,2021-09-01,ＴＬＴ株式会社,,株式会社,埼玉県,入間市,豊岡１丁目２番６号２Ｆ,,11,225,3580003,,,,,,,2021-09-01,1,,,,,ティーエルティー,0
1776,7030003017866,新規,0,2021-09-01,2021-09-01,合同会社ＰＥＲＳＩＭＭＯＮ,,合同会社,埼玉県,川口市,柳崎５丁目１２番１５号,,11,203,3330861,,,,,,,2021-09-01,1,,,,,パーシモン,0
1777,7030005020505,新規,0,2021-09-01,2021-09-01,Ｐ＆Ａ事業協同組合,,その他の設立登記法人,埼玉県,深谷市,上敷免９３９番地,,11,218,3660029,,,,,,,2021-09-01,1,,,,,ピーアンドエー,0
1785,7040001119960,新規,0,2021-09-01,2021-09-01,株式会社ＵＰｍｏｄｅ,,株式会社,千葉県,柏市,あけぼの１丁目８番２２号,,12,217,2770841,,,,,,,2021-09-01,1,,,,,アップモード,0
1788,7040003018418,新規,0,2021-09-01,2021-09-01,合同会社ＬＵ,,合同会社,千葉県,浦安市,北栄３丁目２５番２８－３０７号ウスタロスＴＫ,,12,227,2790002,,,,,,,2021-09-01,1,,,,,エルユー,0
1799,7080101022739,新規,0,2021-09-01,2021-09-01,株式会社Ｓ．Ｒ,,株式会社,静岡県,沼津市,下香貫七面１１７７番地の１,,22,203,4100822,,,,,,,2021-09-01,1,,,,,エスアール,0
1816,7120001239957,新規,0,2021-09-01,2021-09-01,年号株式会社,,株式会社,大阪府,大阪市城東区,蒲生３丁目１５番１２号セザンヌ藤２０３Ｂ,,27,118,5360016,,,,,,,2021-09-01,1,,,,,ネンゴウ,0
1817,7120001240048,新規,0,2021-09-01,2021-09-01,株式会社ＬＩＴＯＳ,,株式会社,大阪府,大阪市中央区,東高麗橋２番１４号,,27,128,5400039,,,,,,,2021-09-01,1,,,,,リトス,0
1818,7120001240064,新規,0,2021-09-01,2021-09-01,株式会社登竜門,,株式会社,大阪府,大阪市中央区,内本町２丁目３番８号ダイアパレスビル本町４０６号室,,27,128,5400026,,,,,,,2021-09-01,1,,,,,トウリュウモン,0
1819,7120001240080,新規,0,2021-09-01,2021-09-01,株式会社スモーキー,,株式会社,大阪府,大阪市天王寺区,国分町２番８号,,27,109,5430044,,,,,,,2021-09-01,1,,,,,スモーキー,0
1823,7120003020118,新規,0,2021-09-01,2021-09-01,合同会社姫路住設建材,,合同会社,大阪府,大阪市中央区,久太郎町１丁目９番４号,,27,128,5410056,,,,,,,2021-09-01,1,,,,,ヒメジジュウセツケンザイ,0
1847,7180001147601,新規,0,2021-09-01,2021-09-01,株式会社ショルン,,株式会社,愛知県,知多郡美浜町,大字野間字中新田９７番地,,23,446,4703235,,,,,,,2021-09-01,1,,,,,ショルン,0
1848,7180001147618,新規,0,2021-09-01,2021-09-01,株式会社Ｃａｒｂｏｎ　Ｐｉｏｎｅｅｒ,,株式会社,愛知県,名古屋市守山区,川村町２３８第二穂光ビル１－Ａ,,23,113,4630097,,,,,,,2021-09-01,1,,,,,カーボンパイオニア,0
1849,7180001147626,新規,0,2021-09-01,2021-09-01,ＯＳＴ株式会社,,株式会社,愛知県,丹羽郡扶桑町,大字高雄字柳前１３０番地,,23,362,4800102,,,,,,,2021-09-01,1,,,,,オーエスティー,0
1857,7180005019409,新規,0,2021-09-01,2021-09-01,特定非営利活動法人ｓｙｍ,,その他の設立登記法人,愛知県,名古屋市名東区,藤里町３０８番サンシャイン東名４Ｂ,,23,115,4650036,,,,,,,2021-09-01,1,,,,,シム,0
1859,7180301035290,新規,0,2021-09-01,2021-09-01,Ｓｉｌｖｅｒ　Ｆｏｘ株式会社,,株式会社,愛知県,豊川市,伊奈町南山新田１８９番地９,,23,207,4410105,,,,,,,2021-09-01,1,,,,,シルバーフォックス,0
1866,7190001028643,新規,0,2021-09-01,2021-09-01,株式会社ポレット,,株式会社,三重県,四日市市,鵜の森１丁目１３番４３号,,24,202,5100074,,,,,,,2021-09-01,1,,,,,ポレット,0
1869,7200001039069,新規,0,2021-09-01,2021-09-01,株式会社ＪＳ国際貿易,,株式会社,岐阜県,瑞穂市,十九条４９４番地１,,21,216,5010235,,,,,,,2021-09-01,1,,,,,ジェイエスコクサイボウエキ,0
1873,7210003001406,新規,0,2021-09-01,2021-09-01,合同会社ＮｅｘｔＤｒａｆｔ,,合同会社,福井県,坂井市,春江町為国幸１番地７,,18,210,9190435,,,,,,,2021-09-01,1,,,,,ネクストドラフト,0
1877,7230005009164,新規,0,2021-09-01,2021-09-01,一般社団法人富山県社会就労センター協議会,,その他の設立登記法人,富山県,富山市,西金屋６６８２番地,,16,201,9300143,,,,,,,2021-09-01,1,,,,,トヤマケンシャカイシュウロウセンターキョウギカイ,0
1884,7240001058503,新規,0,2021-09-01,2021-09-01,株式会社Ｓ．Ｋ．Ｒ,,株式会社,広島県,呉市,焼山東４丁目８番５号,,34,202,7370936,,,,,,,2021-09-01,1,,,,,エスケーアール,0
1885,7240001058511,新規,0,2021-09-01,2021-09-01,株式会社Ｎｕｔｒｉｃｏｒｅ,,株式会社,広島県,広島市西区,井口明神２丁目２番２１号,,34,104,7330841,,,,,,,2021-09-01,1,,,,,ネイチュリコア,0
1889,7240005015260,新規,0,2021-09-01,2021-09-01,一般社団法人日本易経協会,,その他の設立登記法人,広島県,広島市中区,江波南１丁目４－６,,34,101,7300835,,,,,,,2021-09-01,1,,,,,ニホンエキキョウキョウカイ,0
1890,7250001019090,新規,0,2021-09-01,2021-09-01,株式会社ＡＳＯＢＩ,,株式会社,山口県,下関市,宝町１２番１３－２０２号,,35,201,7510822,,,,,,,2021-09-01,1,,,,,アソビ,0
1908,7290001094444,新規,0,2021-09-01,2021-09-01,株式会社リード,,株式会社,福岡県,大牟田市,栄町１丁目４番地１優創ビル２Ｆ,,40,202,8360042,,,,,,,2021-09-01,1,,,,,リード,0
1915,7290805009465,新規,0,2021-09-01,2021-09-01,一般社団法人北九州プロダクション,,その他の設立登記法人,福岡県,北九州市小倉北区,魚町１丁目１番６号魚町パーキングビル４０１,,40,106,8020006,,,,,,,2021-09-01,1,,,,,キタキュウシュウプロダクション,0
1918,7310003004150,新規,0,2021-09-01,2021-09-01,合同会社サニー,,合同会社,長崎県,長崎市,西町１６番１６－５０２号,,42,201,8528043,,,,,,,2021-09-01,1,,,,,サニー,0
1921,7330001028950,新規,0,2021-09-01,2021-09-01,株式会社ル・ブリアン,,株式会社,熊本県,熊本市南区,江越１丁目１７番２号,,43,104,8600834,,,,,,,2021-09-01,1,,,,,ルブリアン,0
1924,7330005010392,新規,0,2021-09-01,2021-09-01,一般社団法人Ｕｌｔｒａｓ,,その他の設立登記法人,熊本県,熊本市中央区,上通町２番１７号びぷれす熊日会館７階,,43,101,8600845,,,,,,,2021-09-01,1,,,,,ウルトラス,0
1928,7360005006504,新規,0,2021-09-01,2021-09-01,一般社団法人結５１５,,その他の設立登記法人,沖縄県,那覇市,泉崎２丁目３番３号２－Ａ,,47,201,9000021,,,,,,,2021-09-01,1,,,,,ユイゴイチゴ,0
1930,7370001047534,新規,0,2021-09-01,2021-09-01,仙台エネルギー株式会社,,株式会社,宮城県,仙台市宮城野区,新田２丁目１２番７－１０１号,,04,102,9830038,,,,,,,2021-09-01,1,,,,,センダイエネルギー,0
1935,7390001016578,新規,0,2021-09-01,2021-09-01,株式会社アルフレッド,,株式会社,山形県,南陽市,椚塚１６０８番地１,,06,213,9992221,,,,,,,2021-09-01,1,,,,,アルフレッド,0
1952,8000012010038,新規,0,2021-09-01,2021-09-01,デジタル庁,,国の機関,東京都,千代田区,紀尾井町１番３号東京ガーデンテラス紀尾井町,,13,101,1020094,,,,,,,2021-09-01,1,,,,,デジタルチョウ,0
1960,8010101014832,新規,0,2021-09-01,2021-09-01,株式会社豊縁,,株式会社,東京都,八王子市,上柚木３丁目１６－２－４０２,,13,201,1920373,,,,,,,2021-09-01,1,,,,,ホウエン,0
1975,8010703005923,新規,0,2021-09-01,2021-09-01,ＭＴＹ合同会社,,合同会社,東京都,品川区,西五反田３丁目６番２３－２２０３号,,13,109,1410031,,,,,,,2021-09-01,1,,,,,エムティーワイ,0
1976,8010801032274,新規,0,2021-09-01,2021-09-01,株式会社アドブレイン,,株式会社,東京都,大田区,山王２丁目５－６ＳＡＮＮＯＢＲＩＤＧＥ,,13,111,1430023,,,,,,,2021-09-01,1,,,,,アドブレイン,0
1985,8010901049350,新規,0,2021-09-01,2021-09-01,株式会社ＵＮＯ　ＺＥＲＯ,,株式会社,東京都,世田谷区,岡本１丁目３３番１４号,,13,112,1570076,,,,,,,2021-09-01,1,,,,,ウノゼロ,0
1993,8011003013278,新規,0,2021-09-01,2021-09-01,Ｓｅｅｂｕｎ合同会社,,合同会社,東京都,渋谷区,千駄ヶ谷３丁目６番５号ツカサマンション３０３,,13,113,1510051,,,,,,,2021-09-01,1,,,,,シーブン,0
2001,8011101096134,新規,0,2021-09-01,2021-09-01,ＧＣマネジメント株式会社,,株式会社,東京都,新宿区,下落合３丁目２２番１８号,,13,104,1610033,,,,,,,2021-09-01,1,,,,,ジーシーマネジメント,0
2013,8011601025360,新規,0,2021-09-01,2021-09-01,株式会社サカシタ,,株式会社,東京都,練馬区,豊玉中３丁目２５番４号,,13,120,1760013,,,,,,,2021-09-01,1,,,,,サカシタ,0
2038,8020001142831,新規,0,2021-09-01,2021-09-01,株式会社シェアル,,株式会社,神奈川県,横浜市中区,尾上町５丁目８０番地,,14,104,2310015,,,,,,,2021-09-01,1,,,,,シェアル,0
2043,8020003020399,新規,0,2021-09-01,2021-09-01,合同会社久良岐商事,,合同会社,神奈川県,横浜市磯子区,上中里町８５１番地,,14,107,2350042,,,,,,,2021-09-01,1,,,,,クラキショウジ,0
2050,8021001073793,新規,0,2021-09-01,2021-09-01,株式会社ミークワームス,,株式会社,神奈川県,横須賀市,追浜東町３丁目２番地２,,14,201,2370063,,,,,,,2021-09-01,1,,,,,ミークワームス,0
2080,8040001119976,新規,0,2021-09-01,2021-09-01,株式会社創和商事,,株式会社,千葉県,印西市,高花５丁目５番地１８,,12,231,2701342,,,,,,,2021-09-01,1,,,,,ソウワショウジ,0
2081,8040001119984,新規,0,2021-09-01,2021-09-01,ＮＵＷＡＮ　ＬＡＮＫＡ株式会社,,株式会社,千葉県,八街市,朝日５０２番地２,,12,230,2891101,,,,,,,2021-09-01,1,,,,,ヌワンランカ,0
2085,8040003018383,新規,0,2021-09-01,2021-09-01,合同会社マシャコーポレーション,,合同会社,千葉県,松戸市,上本郷９０５番地,,12,207,2710064,,,,,,,2021-09-01,1,,,,,マシャコーポレーション,0
2086,8040003018417,新規,0,2021-09-01,2021-09-01,ＭＯＵＮＴＡＩＮ合同会社,,合同会社,千葉県,浦安市,富士見４丁目７番２０,,12,227,2790043,,,,,,,2021-09-01,1,,,,,マウンテン,0
2088,8040005021336,新規,0,2021-09-01,2021-09-01,一般社団法人Ｃｈａｎｇｅ　Ｏｕｒ　Ｎｅｘｔ　Ｄｅｃａｄｅ,,その他の設立登記法人,千葉県,松戸市,松戸１１０６番地の１－１０１号,,12,207,2710092,,,,,,,2021-09-01,1,,,,,チェンジアワーネクストディケード,0
2090,8050001049768,新規,0,2021-09-01,2021-09-01,株式会社Ｐｒｅｓｅｎｔ＆Ｃｏ．,,株式会社,茨城県,つくば市,松代３丁目２３番地１パークサイドつくば松代５０３,,08,220,3050035,,,,,,,2021-09-01,1,,,,,プレゼントアンドコー,0
2113,8120001240039,新規,0,2021-09-01,2021-09-01,株式会社ｇａＡｏｎ,,株式会社,大阪府,大阪市生野区,鶴橋２丁目８番７号シルクロード壱番館５号室,,27,116,5440031,,,,,,,2021-09-01,1,,,,,ガオン,0
2114,8120001240055,新規,0,2021-09-01,2021-09-01,株式会社シードウィル,,株式会社,大阪府,大阪市生野区,巽北３丁目１７番８号,00124079,27,116,5440004,,,,,,,2021-09-01,1,,,,,シードウィル,0
2115,8120001240063,新規,0,2021-09-01,2021-09-01,株式会社高木産業,,株式会社,大阪府,大阪市住吉区,苅田２丁目１０番２２号１階,,27,120,5580011,,,,,,,2021-09-01,1,,,,,タカギサンギョウ,0
2116,8120001240071,新規,0,2021-09-01,2021-09-01,株式会社Ｍ＆Ｒ,,株式会社,大阪府,交野市,星田山手４丁目７番２８号,,27,230,5760014,,,,,,,2021-09-01,1,,,,,エムアンドアール,0
2118,8120003020117,新規,0,2021-09-01,2021-09-01,合同会社リンクス,,合同会社,大阪府,大阪市中央区,久太郎町１丁目９番４号,,27,128,5410056,,,,,,,2021-09-01,1,,,,,リンクス,0
2126,8130001070014,新規,0,2021-09-01,2021-09-01,株式会社遠洋東昇,,株式会社,京都府,京都市伏見区,深草直違橋２丁目４４０番地２,,26,109,6120889,,,,,,,2021-09-01,1,,,,,エンヨウトウショウ,0
2145,8180001147583,新規,0,2021-09-01,2021-09-01,株式会社ＳＤマネジメント,,株式会社,愛知県,名古屋市瑞穂区,瑞穂通４丁目３９番地の１ライジングコート瑞穂通６０１,,23,108,4670806,,,,,,,2021-09-01,1,,,,,エスディーマネジメント,0
2146,8180001147591,新規,0,2021-09-01,2021-09-01,株式会社ＮＣＷ,,株式会社,愛知県,名古屋市南区,道徳新町３丁目４４番地の２,,23,112,4570847,,,,,,,2021-09-01,1,,,,,エヌシーダブリュー,0
2156,8190001028642,新規,0,2021-09-01,2021-09-01,Ｎ４ｐｌｕｓ株式会社,,株式会社,三重県,四日市市,北浜田町３番５号,,24,202,5100062,,,,,,,2021-09-01,1,,,,,エヌフォープラス,0
2183,8260001035912,新規,0,2021-09-01,2021-09-01,株式会社キリンダイニング,,株式会社,岡山県,倉敷市,宮前４１８－３,,33,202,7100065,,,,,,,2021-09-01,1,,,,,キリンダイニング,0
2184,8260003003660,新規,0,2021-09-01,2021-09-01,合同会社吉村商店,,合同会社,岡山県,岡山市中区,浜６１７番地１,,33,102,7038256,,,,,,,2021-09-01,1,,,,,ヨシムラショウテン,0
2187,8290001094427,新規,0,2021-09-01,2021-09-01,ＹＵＴＡＲＩ－ＳＴＹＬＥ株式会社,,株式会社,福岡県,福岡市早良区,高取１丁目１１－６,,40,137,8140011,,,,,,,2021-09-01,1,,,,,ユタリスタイル,0
2188,8290001094435,新規,0,2021-09-01,2021-09-01,株式会社Ｂｕｌｌ　Ｂｉｒｔｈ,,株式会社,福岡県,福岡市博多区,博多駅南１丁目１５－２８,,40,132,8120016,,,,,,,2021-09-01,1,,,,,ブルバース,0
2194,8330005010391,新規,0,2021-09-01,2021-09-01,一般社団法人九州自転車競技連盟,,その他の設立登記法人,熊本県,熊本市西区,島崎２丁目１番３０－６０５号,,43,103,8600073,,,,,,,2021-09-01,1,,,,,キュウシュウジテンシャキョウギレンメイ,0
2205,8380001032154,新規,0,2021-09-01,2021-09-01,株式会社くぬぎ,,株式会社,福島県,耶麻郡北塩原村,大字北山字新井舘３８４５番地４,,07,402,9660404,,,,,,,2021-09-01,1,,,,,クヌギ,0
2207,8390001016577,新規,0,2021-09-01,2021-09-01,株式会社エール不動産,,株式会社,山形県,東置賜郡高畠町,大字福沢８９９番地１,,06,381,9992174,,,,,,,2021-09-01,1,,,,,エールフドウサン,0
2209,8400001015585,新規,0,2021-09-01,2021-09-01,株式会社八幡平安心サービス,,株式会社,岩手県,八幡平市,大更第２５地割１１３番地,,03,214,0287111,,,,,,,2021-09-01,1,,,,,ハチマンタイアンシンサービス,0
2211,8430001084850,新規,0,2021-09-01,2021-09-01,株式会社ブリッジ・ブリッジ,,株式会社,北海道,札幌市中央区,北三条西７丁目１－１,,01,101,0600003,,,,,,,2021-09-01,1,,,,,ブリッジブリッジ,0
2212,8430001084859,新規,0,2021-09-01,2021-09-01,株式会社青桃楽,,株式会社,北海道,札幌市中央区,宮の森三条１３丁目４番３２号,,01,101,0640953,,,,,,,2021-09-01,1,,,,,セイトウラク,0
2221,8500003002687,新規,0,2021-09-01,2021-09-01,合同会社しっぽり,,合同会社,愛媛県,新居浜市,坂井町２丁目１番４３号パルフェ・ＹＡＮＯ１０２,,38,205,7920812,,,,,,,2021-09-01,1,,,,,シッポリ,0
2222,8700150104274,新規,0,2021-09-01,2021-08-04,袖ケ浦市地域公共交通活性化協議会,,その他,千葉県,袖ケ浦市,坂戸市場１－１,,12,229,2990262,,,,,,,2021-08-04,1,,,,,ソデガウラシチイキコウキヨウコウツウカツセイカキヨウギカイ,0
2232,9010001220793,新規,0,2021-09-01,2021-09-01,株式会社エイジプラス,,株式会社,東京都,中央区,京橋２丁目１４番１号,,13,102,1040031,,,,,,,2021-09-01,1,,,,,エイジプラス,0
2240,9010003035728,新規,0,2021-09-01,2021-09-01,合同会社Ｃａｐｔｕｒｅｓ,,合同会社,東京都,文京区,本郷１丁目２５番２５－３０３号,,13,105,1130033,,,,,,,2021-09-01,1,,,,,,0
2241,9010005033894,新規,0,2021-09-01,2021-09-01,一般社団法人静琉会,,その他の設立登記法人,東京都,千代田区,九段北４丁目３番２０号九段フラワーホーム３０４号室,,13,101,1020073,,,,,,,2021-09-01,1,,,,,セイリュウカイ,0
2250,9010401162396,新規,0,2021-09-01,2021-09-01,株式会社ＳＷＩＮＧ,,株式会社,東京都,港区,新橋５丁目７番８号永井ビル２Ｆ,,13,103,1050004,,,,,,,2021-09-01,1,,,,,スウィング,0
2251,9010401162413,新規,0,2021-09-01,2021-09-01,つみな株式会社,,株式会社,東京都,港区,西新橋１丁目２３－９河野ビル１Ｆ,,13,103,1050003,,,,,,,2021-09-01,1,,,,,ツナミ,0
2253,9010501047753,新規,0,2021-09-01,2021-09-01,株式会社ＨＡＮＡＩＥ,,株式会社,東京都,台東区,浅草橋５丁目２番３号柳北ビル７Ｆ,,13,106,1110053,,,,,,,2021-09-01,1,,,,,ハナイエ,0
2263,9010901049358,新規,0,2021-09-01,2021-09-01,株式会社Ｒ,,株式会社,東京都,世田谷区,羽根木２丁目２７番２６号,,13,112,1560042,,,,,,,2021-09-01,1,,,,,アール,0
2267,9011001142549,新規,0,2021-09-01,2021-09-01,株式会社中目黒技術研究所,,株式会社,東京都,目黒区,上目黒２丁目４１－１４,,13,110,1530051,,,,,,,2021-09-01,1,,,,,ナカメグロギジュツケンキュウジョ,0
2271,9011203003631,新規,0,2021-09-01,2021-09-01,合同会社ドリア,,合同会社,東京都,中野区,鷺宮２丁目６番１５号,,13,114,1650032,,,,,,,2021-09-01,1,,,,,ドリア,0
2297,9020001142806,新規,0,2021-09-01,2021-09-01,株式会社Ｗａｌｌｓ＆Ｂｒｉｄｇｅｓ,,株式会社,神奈川県,川崎市宮前区,西野川１丁目４番９号,,14,136,2160044,,,,,,,2021-09-01,1,,,,,ウォールズアンドブリッジズ,0
2298,9020001142830,新規,0,2021-09-01,2021-09-01,株式会社ＦＯＳ,,株式会社,神奈川県,横浜市都筑区,茅ケ崎中央１９番９号,,14,118,2240032,,,,,,,2021-09-01,1,,,,,フォズ,0
2302,9020003020332,新規,0,2021-09-01,2021-09-01,合同会社中川,,合同会社,神奈川県,川崎市多摩区,三田１丁目１－２,,14,135,2140034,,,,,,,2021-09-01,1,,,,,ナカガワ,0
2303,9020003020398,新規,0,2021-09-01,2021-09-01,合同会社川南プロダクト,,合同会社,神奈川県,横浜市都筑区,川向町３５２番地,,14,118,2240044,,,,,,,2021-09-01,1,,,,,センナンプロダクト,0
2321,9030001144082,新規,0,2021-09-01,2021-09-01,株式会社Ｂｏｎｈｅｕｒ,,株式会社,埼玉県,越谷市,弥栄町２丁目５１４番地１９９,,11,222,3430046,,,,,,,2021-09-01,1,,,,,ボヌール,0
2322,9030001144090,新規,0,2021-09-01,2021-09-01,株式会社ティーズペイントワークス,,株式会社,埼玉県,越谷市,大字西新井２５０番地１,,11,222,3430855,,,,,,,2021-09-01,1,,,,,ティーズペイントワークス,0
2327,9030003017872,新規,0,2021-09-01,2021-09-01,宝徳商事合同会社,,合同会社,埼玉県,川口市,南町２丁目６番４６号－２０８,,11,203,3320026,,,,,,,2021-09-01,1,,,,,ホウトクショウジ,0
2328,9030005020503,新規,0,2021-09-01,2021-09-01,社会福祉法人熱心会,,その他の設立登記法人,埼玉県,さいたま市南区,南浦和２丁目５９４－３,,11,108,3360017,,,,,,,2021-09-01,1,,,,,ネツシンカイ,0
2333,9040001119934,新規,0,2021-09-01,2021-09-01,ＳＵ企画株式会社,,株式会社,千葉県,八街市,文違３０１番地３４３４,,12,230,2891104,,,,,,,2021-09-01,1,,,,,エスユーキカク,0
2334,9040001119975,新規,0,2021-09-01,2021-09-01,株式会社ケイエム商事,,株式会社,千葉県,印西市,高花５丁目５番地１８,,12,231,2701342,,,,,,,2021-09-01,1,,,,,ケイエムショウジ,0
2338,9040003018416,新規,0,2021-09-01,2021-09-01,合同会社リベルテ,,合同会社,千葉県,浦安市,猫実３丁目１０番３６号,,12,227,2790004,,,,,,,2021-09-01,1,,,,,リベルテ,0
2342,9060001034033,新規,0,2021-09-01,2021-09-01,株式会社加藤組,,株式会社,栃木県,宇都宮市,西川田町１１５８番地６,,09,201,3210151,,,,,,,2021-09-01,1,,,,,カトウグミ,0
2343,9060001034041,新規,0,2021-09-01,2021-09-01,Ｔ．Ｋ．Ｍ株式会社,,株式会社,栃木県,足利市,大前町７５２番地石川ビル１－Ｄ,,09,202,3260845,,,,,,,2021-09-01,1,,,,,ティーケーエム,0
2372,9120001240046,新規,0,2021-09-01,2021-09-01,晟町株式会社,,株式会社,大阪府,大阪市中央区,高津３丁目８番１９号スター・レジデンス黒門３０２,,27,128,5420072,,,,,,,2021-09-01,1,,,,,セイチョウ,0
2373,9120001240070,新規,0,2021-09-01,2021-09-01,株式会社ＬＳＴＫ,,株式会社,大阪府,大阪市淀川区,西宮原１丁目４番１５号６０２号室,,27,123,5320004,,,,,,,2021-09-01,1,,,,,エルエスティーケー,0
2375,9120003020116,新規,0,2021-09-01,2021-09-01,合同会社ＤＩＲ．,,合同会社,大阪府,守口市,金田町１丁目３番９号サニーハイム２０５,,27,209,5700011,,,,,,,2021-09-01,1,,,,,ディル,0
2376,9120003020124,新規,0,2021-09-01,2021-09-01,合同会社バイオマス発電八,,合同会社,大阪府,大阪市中央区,久太郎町１丁目９番４号,,27,128,5410056,,,,,,,2021-09-01,1,,,,,バイオマスハツデンハチ,0
2377,9120005022465,新規,0,2021-09-01,2021-09-01,一般社団法人共同養育支援協会,,その他の設立登記法人,大阪府,守口市,菊水通２丁目４番１６号ＹＮビル,,27,209,5700032,,,,,,,2021-09-01,1,,,,,キョウドウヨウイクシエンキョウカイ,0
2380,9120901044819,新規,0,2021-09-01,2021-09-01,株式会社グット・ファミリア,,株式会社,大阪府,高槻市,高垣町６３番５－１０３号,,27,207,5690097,,,,,,,2021-09-01,1,,,,,グットファミリア,0
2393,9140001122845,新規,0,2021-09-01,2021-09-01,株式会社グロリアーク,,株式会社,兵庫県,神戸市中央区,琴ノ緒町５丁目５番９号フューチャービル３０２,,28,110,6510094,,,,,,,2021-09-01,1,,,,,グロリアーク,0
2401,9150003002474,新規,0,2021-09-01,2021-09-01,サロル重機合同会社,,合同会社,奈良県,宇陀郡御杖村,大字土屋原２３９６番地,,29,386,6331303,,,,,,,2021-09-01,1,,,,,サロルジュウキ,0
2411,9180001147616,新規,0,2021-09-01,2021-09-01,株式会社ＳＵＣＣＥＳＯ,,株式会社,愛知県,長久手市,上川原１４番地９エコトピア上川原２０２号,,23,238,4801132,,,,,,,2021-09-01,1,,,,,スチェッソ,0
2412,9180001147624,新規,0,2021-09-01,2021-09-01,株式会社Ｅ－ＰＬＵＳ　ＰＲＯ,,株式会社,愛知県,名古屋市北区,北久手町１６２番地（エンジェルヴィラ２０１号）,,23,103,4620001,,,,,,,2021-09-01,1,,,,,イープラスプロ,0
2419,9190001028641,新規,0,2021-09-01,2021-09-01,Ｍ＆ＳＧ株式会社,,株式会社,三重県,四日市市,富田２丁目１２番３号,,24,202,5108014,,,,,,,2021-09-01,1,,,,,エムアンドエスジー,0
2424,9230003001716,新規,0,2021-09-01,2021-09-01,合同会社Ｄｕｓｔ,,合同会社,富山県,富山市,中野新町１丁目３番２号,,16,201,9398085,,,,,,,2021-09-01,1,,,,,ダスト,0
2441,9290001094426,新規,0,2021-09-01,2021-09-01,Ｂｅ　Ｔｒａｄｉｎｇ株式会社,,株式会社,福岡県,柳川市,西浜武１１１４－１,,40,207,8320081,,,,,,,2021-09-01,1,,,,,ビートレーディング,0
2442,9290001094442,新規,0,2021-09-01,2021-09-01,株式会社ＤＲＡＩＳ,,株式会社,福岡県,福岡市博多区,博多駅前２丁目１９番１７号トーカン博多第５ビル３１２号室,,40,132,8120011,,,,,,,2021-09-01,1,,,,,ドライス,0
2443,9290001094450,新規,0,2021-09-01,2021-09-01,株式会社アセンブル,,株式会社,福岡県,福岡市東区,香椎浜３丁目３番５－１００３号モントレー香椎浜サーフタワーセンターコート,,40,131,8130016,,,,,,,2021-09-01,1,,,,,アセンブル,0
2451,9310001017441,新規,0,2021-09-01,2021-09-01,株式会社古都,,株式会社,長崎県,諫早市,久山町１９１０番地１０,,42,204,8540066,,,,,,,2021-09-01,1,,,,,コト,0
2452,9310003004149,新規,0,2021-09-01,2021-09-01,合同会社フィーカ,,合同会社,長崎県,大村市,武部町８１９番地１アイヒルズネクストＡ２０２号,,42,205,8560035,,,,,,,2021-09-01,1,,,,,フィーカ,0
2460,9330001028949,新規,0,2021-09-01,2021-09-01,株式会社豊華ファム藤島,,株式会社,熊本県,上天草市,大矢野町中２３２５番地１,,43,212,8693603,,,,,,,2021-09-01,1,,,,,ホウカファムフジシマ,0
2462,9350003003915,新規,0,2021-09-01,2021-09-01,合同会社サニーオーシャン,,合同会社,宮崎県,都城市,都北町５４３８番地１４,,45,202,8850004,,,,,,,2021-09-01,1,,,,,サニーオーシャン,0
2463,9350005006024,新規,0,2021-09-01,2021-09-01,行政書士法人ＣＪＴ,,その他の設立登記法人,宮崎県,宮崎市,大字本郷北方２７３５番地１４,,45,201,8800925,,,,,,,2021-09-01,1,,,,,シージェイティー,0
2466,9360003011396,新規,0,2021-09-01,2021-09-01,Ｈｏｋｋｏｒｉカンパニー合同会社,,合同会社,沖縄県,島尻郡久米島町,字仲泊５５２番地１２,,47,361,9013124,,,,,,,2021-09-01,1,,,,,ホッコリカンパニー,0
2472,9370003005372,新規,0,2021-09-01,2021-09-01,合同会社まるーむ,,合同会社,宮城県,仙台市宮城野区,鉄砲町中２番地の１１,,04,102,9830868,,,,,,,2021-09-01,1,,,,,マルーム,0
2476,9380001032153,新規,0,2021-09-01,2021-09-01,株式会社ＭＯＶＥ,,株式会社,福島県,いわき市,泉もえぎ台１丁目３７番地の２アルティメートＭＩＹＵＢ棟,,07,204,9718188,,,,,,,2021-09-01,1,,,,,ムーヴ,0
2479,9400001015584,新規,0,2021-09-01,2021-09-01,株式会社愛ネット補聴器,,株式会社,岩手県,大船渡市,盛町字木町１３番地５,,03,203,0220003,,,,,,,2021-09-01,1,,,,,アイネットホチョウキ,0
2489,9440005002708,新規,0,2021-09-01,2021-09-01,一般社団法人めぐみの杜,,その他の設立登記法人,北海道,函館市,昭和３丁目１番２７号,,01,202,0410812,,,,,,,2021-09-01,1,,,,,メグミノモリ,0
