sequenceNumber,corporateNumber,process,correct,updateDate,changeDate,name,nameImageId,kind,prefectureName,cityName,streetNumber,addressImageId,prefectureCode,cityCode,postCode,addressOutside,addressOutsideImageId,closeDate,closeCause,successorCorporateNumber,changeCause,assignmentDate,latest,enName,enPrefectureName,enCityName,enAddressOutside,furigana,hihyoji
25,1010001232524,新規,0,2023-01-31,2023-01-31,ＨＵＩ株式会社,,株式会社,東京都,千代田区,神田佐久間町３丁目２８番地星野ビル５０１,,13,101,1010025,,,,,,,2023-01-31,1,,,,,ケイ,0
26,1010001232565,新規,0,2023-01-31,2023-01-31,株式会社ペガサススタジオ,,株式会社,東京都,文京区,大塚５丁目９番２号新大塚プラザ５階,,13,105,1120012,,,,,,,2023-01-31,1,,,,,ペガサススタジオ,0
27,1010001232581,新規,0,2023-01-31,2023-01-31,Ｇｌａｎｃｅ　Ｊａｐａｎ株式会社,,株式会社,東京都,千代田区,丸の内２丁目１番１号明治生命館７階ディーエルエイ・パイパー東京パートナーシップ外国法共同事業法律事務所内,,13,101,1000005,,,,,,,2023-01-31,1,,,,,グランスジャパン,0
28,1010001232656,新規,0,2023-01-31,2023-01-31,リンクプライズ株式会社,,株式会社,東京都,中央区,銀座７丁目１３番６号サガミビル２階,,13,102,1040061,,,,,,,2023-01-31,1,,,,,リンクプライズ,0
33,1010003039686,新規,0,2023-01-31,2023-01-31,合同会社鹿商事,,合同会社,東京都,千代田区,神田和泉町１番地６―１６ヤマトビル４０５,,13,101,1010024,,,,,,,2023-01-31,1,,,,,シカショウジ,0
34,1010003039694,新規,0,2023-01-31,2023-01-31,合同会社Ｗｉｓｔｅｒｉａ,,合同会社,東京都,中央区,東日本橋３丁目７－７－１４０４,,13,102,1030004,,,,,,,2023-01-31,1,,,,,ウィステリア,0
35,1010003039728,新規,0,2023-01-31,2023-01-31,神戸摩耶プロパティー合同会社,,合同会社,東京都,千代田区,丸の内１丁目１１番１号,,13,101,1000005,,,,,,,2023-01-31,1,,,,,コウベマヤプロパティー,0
37,1010005036129,新規,0,2023-01-31,2023-01-31,一般財団法人教育研究支援機構,,その他の設立登記法人,東京都,中央区,勝どき５丁目８－４シャンボール第二築地３０２,,13,102,1040054,,,,,,,2023-01-31,1,,,,,キョウイクケンキュウシエンキコウ,0
47,1010401172163,新規,0,2023-01-31,2023-01-31,ＥＰＰ株式会社,,株式会社,東京都,港区,北青山３丁目１２番７号秋月ビル５０２,,13,103,1070061,,,,,,,2023-01-31,1,,,,,イーピーピー,0
48,1010401172171,新規,0,2023-01-31,2023-01-31,株式会社アセットアップデザイン,,株式会社,東京都,港区,芝３丁目３４番１－２３０２号,,13,103,1050014,,,,,,,2023-01-31,1,,,,,アセットアップデザイン,0
51,1010601062528,新規,0,2023-01-31,2023-01-31,株式会社ＰＲＯＧＲＥＳＳ　ＦＩＲＳＴ,,株式会社,東京都,江東区,亀戸９丁目２０番１号,,13,108,1360071,,,,,,,2023-01-31,1,,,,,プログレスファースト,0
55,1010801033634,新規,0,2023-01-31,2023-01-31,株式会社Ｈ＆Ｉ,,株式会社,東京都,大田区,南蒲田２丁目１１番１６号,,13,111,1440035,,,,,,,2023-01-31,1,,,,,エイチアンドアイ,0
58,1010901052419,新規,0,2023-01-31,2023-01-31,株式会社にこにこ,,株式会社,東京都,世田谷区,代沢２丁目４６番１４号,,13,112,1550032,,,,,,,2023-01-31,1,,,,,ニコニコ,0
59,1010901052443,新規,0,2023-01-31,2023-01-31,株式会社サチエンタープライズ,,株式会社,東京都,世田谷区,上北沢３丁目２３番２１号,,13,112,1560057,,,,,,,2023-01-31,1,,,,,サチエンタープライズ,0
62,1010903007940,新規,0,2023-01-31,2023-01-31,Ｓｐｉｃｅｓｐｙ合同会社,,合同会社,東京都,世田谷区,玉川台２丁目４番１２号メゾンドパピヨン２０６,,13,112,1580096,,,,,,,2023-01-31,1,,,,,スパイスエスピワイ,0
66,1011003016196,新規,0,2023-01-31,2023-01-31,Ｐａｒａｄｉｇｍ　Ｇｒｏｕｐ合同会社,,合同会社,東京都,渋谷区,道玄坂１丁目１６番６号二葉ビル８ｂ,,13,113,1500043,,,,,,,2023-01-31,1,,,,,パラダイムグループ,0
69,1011101101701,新規,0,2023-01-31,2023-01-31,株式会社Ｋｉｎｉｓｈ,,株式会社,東京都,新宿区,市谷仲之町３－１０パークハウス市谷仲之町プレイス６０１号室,,13,104,1620064,,,,,,,2023-01-31,1,,,,,キニッシュ,0
70,1011103012640,新規,0,2023-01-31,2023-01-31,合同会社ＣＯライフコミュニケイションズ,,合同会社,東京都,新宿区,新宿４丁目３番１５号レイフラット新宿Ｂ棟３Ｆ,,13,104,1600022,,,,,,,2023-01-31,1,,,,,シーオーライフコミュニケイションズ,0
71,1011103012649,新規,0,2023-01-31,2023-01-31,ＮＹコンサルティング合同会社,,合同会社,東京都,新宿区,河田町５番５号グランバリュー河田町３０１,,13,104,1620054,,,,,,,2023-01-31,1,,,,,エヌワイコンサルティング,0
83,1011403003892,新規,0,2023-01-31,2023-01-31,合同会社三浦マネジメントオフィス,,合同会社,東京都,板橋区,中板橋１９番６－４０６号,,13,119,1730016,,,,,,,2023-01-31,1,,,,,ミウラマネジメントオフィス,0
85,1011503005459,新規,0,2023-01-31,2023-01-31,ヒロヤニッシー合同会社,,合同会社,東京都,北区,上中里２丁目３８－１３,,13,117,1140016,,,,,,,2023-01-31,1,,,,,ヒロヤニッシー,0
86,1011601026539,新規,0,2023-01-31,2023-01-31,株式会社シークエンス,,株式会社,東京都,練馬区,早宮３丁目３２番７号,,13,120,1790085,,,,,,,2023-01-31,1,,,,,シークエンス,0
87,1011801041858,新規,0,2023-01-31,2023-01-31,株式会社ｆａｎｄｏ,,株式会社,東京都,足立区,弘道２丁目２３番２号グリーンパーク第４五反野１０２,,13,121,1200013,,,,,,,2023-01-31,1,,,,,ファンドゥ,0
97,1020001150015,新規,0,2023-01-31,2023-01-31,株式会社トモコンビ,,株式会社,神奈川県,横浜市港北区,大倉山７丁目３３番１５号,,14,109,2220037,,,,,,,2023-01-31,1,,,,,トモコンビ,0
98,1020001150031,新規,0,2023-01-31,2023-01-31,株式会社ＢＥＳＴＲＩＺＡ,,株式会社,神奈川県,横浜市磯子区,岡村３丁目１１番３２号ＭＡＴＳＵＵＲＡＢＬＤ,,14,107,2350021,,,,,,,2023-01-31,1,,,,,,0
105,1021001078080,新規,0,2023-01-31,2023-01-31,株式会社ＭＩＲＡＳＨＩＡ,,株式会社,神奈川県,藤沢市,南藤沢２１番９号とのおかビル３階,,14,205,2510055,,,,,,,2023-01-31,1,,,,,ミラシア,0
106,1021001078089,新規,0,2023-01-31,2023-01-31,株式会社斎藤ゼネラルストアー,,株式会社,神奈川県,藤沢市,辻堂５丁目２０番９号,,14,205,2510047,,,,,,,2023-01-31,1,,,,,サイトウゼネラルストアー,0
112,1030001152183,新規,0,2023-01-31,2023-01-31,株式会社ジムナックス,,株式会社,埼玉県,さいたま市大宮区,桜木町２丁目４９１番地２ＰＯＳＴＯＭＩＹＡ２号棟２０３,,11,103,3300854,,,,,,,2023-01-31,1,,,,,ジムナックス,0
115,1030003021056,新規,0,2023-01-31,2023-01-31,Ｏｆｆｉｃｅ　Ｇｒｅｅｎ合同会社,,合同会社,埼玉県,鶴ヶ島市,大字脚折１４９１番地２２,,11,241,3502213,,,,,,,2023-01-31,1,,,,,オフィスグリーン,0
116,1030003021072,新規,0,2023-01-31,2023-01-31,合同会社リーフフォワード,,合同会社,埼玉県,朝霞市,根岸台１丁目４番２３号アミティ朝霞５０７,,11,227,3510005,,,,,,,2023-01-31,1,,,,,リーフフォワード,0
140,1040001126839,新規,0,2023-01-31,2023-01-31,東葛技研株式会社,,株式会社,千葉県,松戸市,胡録台１６８番地の６中山ビル４０２号,,12,207,2710075,,,,,,,2023-01-31,1,,,,,トウカツギケン,0
141,1040001126847,新規,0,2023-01-31,2023-01-31,Ｍｏｎｋｕｒｏ株式会社,,株式会社,千葉県,木更津市,江川１４８８番地,,12,206,2920063,,,,,,,2023-01-31,1,,,,,モンクロウ,0
166,1040003021798,新規,0,2023-01-31,2023-01-31,合同会社ＹＡＭＡＺＡＫＩ,,合同会社,千葉県,我孫子市,青山台４丁目７番地５,,12,222,2701175,,,,,,,2023-01-31,1,,,,,ヤマザキ,0
167,1040003021815,新規,0,2023-01-31,2023-01-31,合同会社オバケン,,合同会社,千葉県,船橋市,三山５丁目４３番２号,,12,204,2740072,,,,,,,2023-01-31,1,,,,,オバケン,0
176,1060002029163,新規,0,2023-01-31,2023-01-31,有限会社松葉,,有限会社,栃木県,小山市,西城南２丁目１２番地１５,,09,208,3230820,,,,,,,2023-01-31,1,,,,,マツバ,0
182,1070003004809,新規,0,2023-01-31,2023-01-31,ＪＳ．ＯＹＯ　ＩＮＴＥＲＮＡＴＩＯＮＡＬ合同会社,,合同会社,群馬県,太田市,大原町５０３番地７,,10,205,3792304,,,,,,,2023-01-31,1,,,,,ジェイエスオーヨインターナショナル,0
183,1080001025434,新規,0,2023-01-31,2023-01-31,株式会社日本レンタリース東海,,株式会社,静岡県,静岡市葵区,古庄１丁目７番４号,,22,101,4200812,,,,,,,2023-01-31,1,,,,,ニホンレンタリーストウカイ,0
188,1080405007524,新規,0,2023-01-31,2023-01-31,一般社団法人弁財天川シラスうなぎ,,その他の設立登記法人,静岡県,掛川市,大渕４７３９番地の１,,22,213,4371302,,,,,,,2023-01-31,1,,,,,ベンザイテンガワシラスウナギ,0
193,1120001252081,新規,0,2023-01-31,2023-01-31,トータルゼノ株式会社,,株式会社,大阪府,大阪市住吉区,千躰２丁目５番２２－２０３号,,27,120,5580047,,,,,,,2023-01-31,1,,,,,トータルゼノ,0
194,1120001252098,新規,0,2023-01-31,2023-01-31,株式会社ＴｔＴ,,株式会社,大阪府,大阪市西区,北堀江２丁目８番１７－４０２号,,27,106,5500014,,,,,,,2023-01-31,1,,,,,ティティティ,0
200,1120101066902,新規,0,2023-01-31,2023-01-31,株式会社ゆらぎ,,株式会社,大阪府,堺市北区,北花田町３丁２６番５－３０７号,,27,146,5918002,,,,,,,2023-01-31,1,,,,,ユラギ,0
202,1120903004472,新規,0,2023-01-31,2023-01-31,Ｓｃｉｍｉｔａｒ　Ｖｅｎｔｕｒｅｓ合同会社,,合同会社,大阪府,箕面市,小野原東４丁目２５番８号,,27,220,5620031,,,,,,,2023-01-31,1,,,,,シミターヴェンチャーズ,0
208,1130003008489,新規,0,2023-01-31,2023-01-31,合同会社Ｓ,,合同会社,京都府,京都市下京区,寺町通松原下る植松町７０７－２,,26,106,6008028,,,,,,,2023-01-31,1,,,,,エス,0
213,1140001128899,新規,0,2023-01-31,2023-01-31,株式会社Ｂｉｎｎｏｖａｔｉｏｎ,,株式会社,兵庫県,神戸市東灘区,御影本町１丁目４番２０号,,28,101,6580046,,,,,,,2023-01-31,1,,,,,ビーイノベーション,0
214,1140001128908,新規,0,2023-01-31,2023-01-31,株式会社カネオト技建,,株式会社,兵庫県,川西市,大和東１丁目１９番地の１０,,28,217,6660111,,,,,,,2023-01-31,1,,,,,カネオトギケン,0
215,1140001128932,新規,0,2023-01-31,2023-01-31,株式会社Ｅｔｏｉｌｅ,,株式会社,兵庫県,姫路市,花田町上原田５７９番地,,28,201,6710251,,,,,,,2023-01-31,1,,,,,エトワール,0
216,1140003018660,新規,0,2023-01-31,2023-01-31,ＳＴ　ＣＡＰＩＴＡＬ合同会社,,合同会社,兵庫県,明石市,大久保町谷八木７４番地の２２,,28,203,6740062,,,,,,,2023-01-31,1,,,,,エスティーキャピタル,0
217,1170001017455,新規,0,2023-01-31,2023-01-31,株式会社マウンテンボイス,,株式会社,和歌山県,東牟婁郡古座川町,立合１７９,,30,424,6494233,,,,,,,2023-01-31,1,,,,,マウンテンボイス,0
223,1180001154735,新規,0,2023-01-31,2023-01-31,株式会社モリオート,,株式会社,愛知県,津島市,江東町３丁目４１番地１８,,23,208,4960855,,,,,,,2023-01-31,1,,,,,モリオート,0
224,1180001154743,新規,0,2023-01-31,2023-01-31,株式会社名松建設,,株式会社,愛知県,名古屋市港区,十一屋２丁目２５３番地の５,,23,111,4550831,,,,,,,2023-01-31,1,,,,,メイショウケンセツ,0
225,1180001154768,新規,0,2023-01-31,2023-01-31,株式会社フリースタイル,,株式会社,愛知県,名古屋市港区,木場町６番地の１５,,23,111,4550021,,,,,,,2023-01-31,1,,,,,フリースタイル,0
226,1180003024779,新規,0,2023-01-31,2023-01-31,平戸大石合同会社,,合同会社,愛知県,名古屋市熱田区,神宮３丁目５番４号園ビル１階,,23,109,4560031,,,,,,,2023-01-31,1,,,,,ヒラドオオイシ,0
227,1180301037053,新規,0,2023-01-31,2023-01-31,株式会社アドバンス,,株式会社,愛知県,西尾市,伊藤１丁目３番地４,,23,213,4450807,,,,,,,2023-01-31,1,,,,,アドバンス,0
228,1180303005586,新規,0,2023-01-31,2023-01-31,合同会社ＶＩＳＩＵＮ　ＪＡＰＡＮ,,合同会社,愛知県,西尾市,戸ケ崎４丁目４番地２５,,23,213,4450075,,,,,,,2023-01-31,1,,,,,ビジョンジャパン,0
236,1200001021742,新規,0,2023-01-31,2023-01-31,株式会社金中製陶所,,株式会社,岐阜県,瑞浪市,陶町猿爪５９７番地,,21,208,5096361,,,,,,,2023-01-31,1,,,,,カネナカセイトウショ,0
237,1200001040908,新規,0,2023-01-31,2023-01-31,太陽トランスポート株式会社,,株式会社,岐阜県,安八郡輪之内町,四郷２５４１番地の１グレースメゾン小柳Ｌ棟１０２号,,21,382,5030204,,,,,,,2023-01-31,1,,,,,タイヨウトランスポート,0
241,1220001025246,新規,0,2023-01-31,2023-01-31,株式会社ビクトリー,,株式会社,石川県,金沢市,矢木３丁目２０９番地３,,17,201,9218066,,,,,,,2023-01-31,1,,,,,ビクトリー,0
258,1290001100356,新規,0,2023-01-31,2023-01-31,株式会社Ｍｉａｏｕ,,株式会社,福岡県,福岡市南区,三宅２丁目３１番１５号,,40,134,8111344,,,,,,,2023-01-31,1,,,,,ミャウ,0
259,1290001100397,新規,0,2023-01-31,2023-01-31,株式会社日本リメイク,,株式会社,福岡県,福岡市博多区,博多駅前２丁目１番１号,,40,132,8120011,,,,,,,2023-01-31,1,,,,,ニホンリメイク,0
261,1290005018933,新規,0,2023-01-31,2023-01-31,医療法人にしぐち歯科クリニック,,その他の設立登記法人,福岡県,宗像市,自由ヶ丘南２丁目２番７号,,40,220,8114156,,,,,,,2023-01-31,1,,,,,ニシグチシカクリニック,0
262,1290803004325,新規,0,2023-01-31,2023-01-31,合同会社すまいる,,合同会社,福岡県,北九州市小倉北区,篠崎５丁目４２番１９号,,40,106,8030861,,,,,,,2023-01-31,1,,,,,スマイル,0
263,1320001019543,新規,0,2023-01-31,2023-01-31,株式会社ひととせ,,株式会社,大分県,日田市,田島２丁目５－６,,44,204,8770025,,,,,,,2023-01-31,1,,,,,ヒトトセ,0
265,1330001030540,新規,0,2023-01-31,2023-01-31,株式会社Ｎｏａｈ,,株式会社,熊本県,熊本市中央区,本山１丁目６番３３号,,43,101,8600821,,,,,,,2023-01-31,1,,,,,ノア,0
267,1330003009698,新規,0,2023-01-31,2023-01-31,合同会社ＭＣトラスト,,合同会社,熊本県,熊本市北区,龍田陳内２丁目５番１６号,,43,105,8618005,,,,,,,2023-01-31,1,,,,,エムシートラスト,0
269,1340001025333,新規,0,2023-01-31,2023-01-31,株式会社ＳＨＩＭＡＴＡＢＩ,,株式会社,鹿児島県,奄美市,笠利町須野５０６－２,,46,222,8940000,,,,,,,2023-01-31,1,,,,,シマタビ,0
272,1360005006781,新規,0,2023-01-31,2023-01-31,一般社団法人Ｊａｐａｎ　Ｃｕｌｔｕｒｅ　Ｏｋｉｎａｗａ,,その他の設立登記法人,沖縄県,うるま市,字赤道１０１９番地１メゾン・ボヌール１０２,,47,213,9042245,,,,,,,2023-01-31,1,,,,,ジャパンカルチャーオキナワ,0
273,1370001049536,新規,0,2023-01-31,2023-01-31,株式会社森末建築設備,,株式会社,宮城県,塩竈市,越の浦２丁目３番１０号,,04,203,9850083,,,,,,,2023-01-31,1,,,,,モリスエケンチクセツビ,0
274,1380001033431,新規,0,2023-01-31,2023-01-31,株式会社久留米ライスセンター,,株式会社,福島県,郡山市,日和田町高倉字藤坦１２番地４,,07,203,9630531,,,,,,,2023-01-31,1,,,,,クルメライスセンター,0
279,1390001017152,新規,0,2023-01-31,2023-01-31,株式会社司興業,,株式会社,山形県,東根市,大字東根元原方字大森南５２６番地１,,06,211,9993700,,,,,,,2023-01-31,1,,,,,ツカサコウギョウ,0
288,1430003014688,新規,0,2023-01-31,2023-01-31,合同会社Ｎ．Ｔコンサルタント,,合同会社,北海道,札幌市中央区,北六条西２６丁目５番５号,,01,101,0640826,,,,,,,2023-01-31,1,,,,,エヌティーコンサルタント,0
303,1500003002966,新規,0,2023-01-31,2023-01-31,合同会社ｒｅｗｒｉｔｅ,,合同会社,愛媛県,松山市,東長戸１丁目２番３３号,,38,201,7918005,,,,,,,2023-01-31,1,,,,,リライト,0
304,1700150114032,新規,0,2023-01-31,2023-01-31,路晋發展投資有限公司,,外国会社等,東京都,東村山市,栄町２丁目３０番,,13,213,1890013,中華人民共和国香港特別行政区灣仔摩利臣山道８０－８２號柏餘中心５楼５０１室,,,,,,2023-01-31,1,,,,,ロシンハツテントウシユウゲンコウス,0
305,1700150114049,新規,0,2023-01-31,2023-01-31,ＣｈａｎｇｌｉｎｇＳｈｅｎｇｙｕａｎｃｏｍｍｏｄｉｔｙ　ｓａｌｅｓ　ｃｏ．，Ｌｔｄ．,,外国会社等,,,,,,,,Ｓｅｃｔｉｏｎ　４，Ｄｉｓｔｒｉｃｔ　３，Ｔａｉｐｉｎｇｃｈｕａｎ　Ｔｏｗｎ，Ｃｈａｎｇｌｉｎｇ　Ｃｏｕｎｔｙ，Ｓｏｎｇｙｕａｎ　Ｃｉｔｙ,,,,,,2023-01-31,1,,,,,チヨウリンセイエンコモデイテイセールスカンパニーリミテツド,0
306,1700150114057,新規,0,2023-01-31,2023-01-31,ｓｈｅｎｚｈｅｎｓｈｉ　ｌｅｑｉｗａｎｇｌｕｏ　ｋｅｊｉｙｏｕｘｉａｎｇｏｎｇｓｉ,,外国会社等,,,,,,,,Ｒｏｏｍ　１０３，５０１，６０１，Ｂｕｉｌｄｉｎｇ　５，Ｆｅｎｇｈｅ　Ｉｎｄｕｓｔｒｉａｌ　Ｐａｒｋ　Ｎｏ．１３０１－５０　Ｇｕａｎｇｕａｎｇ　Ｒｏａｄ，Ｇｕａｎｌａｎ　Ｓｔｒｅｅｔ，Ｌｏｎｇｈｕａ　Ｄｉｓｔｒｉｃｔ，Ｓｈｅｎｚｈｅｎ　Ｇｕａｎｇｄｏｎｇ，Ｃｈｉｎａ,,,,,,2023-01-31,1,,,,,シンセンシレキワングルオケジユウゲンコウシ,0
307,1700150114065,新規,0,2023-01-31,2023-01-31,Ｓｈｅｚｈｅｎ　Ｔｏｎｇｌｕｅ　Ｓｅｃｕｒｉｔｙ　Ｅｑｕｉｐｍｅｎｔ　Ｃｏ．,,外国会社等,,,,,,,,Ｎｏ．３Ａ２０１，Ｓｈａｎｇ　ｘｕｅ　ｋｅ　ｊｉ　ｙｕａｎ，Ｂａｎ　ｔｉａｎ　Ｓｔｒｅｅｔ，Ｌｏｎｇｇａｎｇ　Ｄｉｓｔｒｉｃｔ，Ｓｈｅｎｚｈｅｎ，Ｇｕａｎｇｄｏｎｇ　Ｐｒｏｖｉｎｃｅ，Ｃｈｉｎａ,,,,,,2023-01-31,1,,,,,シンセントングルセキュリティーイクイップメントカンパニー,0
327,2010001232564,新規,0,2023-01-31,2023-01-31,株式会社ＦＵＳＩＯＮ,,株式会社,東京都,中央区,銀座１丁目１２番４号Ｎ＆ＥＢＬＤ．６Ｆ,,13,102,1040061,,,,,,,2023-01-31,1,,,,,フュージョン,0
328,2010001232580,新規,0,2023-01-31,2023-01-31,善水株式会社,,株式会社,東京都,中央区,銀座１丁目１２番４号Ｎ＆ＥＢＬＤ．６Ｆ,,13,102,1040061,,,,,,,2023-01-31,1,,,,,ゼンスイ,0
331,2010003039660,新規,0,2023-01-31,2023-01-31,Ｄｏｃｔｏｒ’ｓ　Ｆｏｕｒ　Ｊａｐａｎ合同会社,,合同会社,東京都,中央区,佃１丁目１１番８号,,13,102,1040051,,,,,,,2023-01-31,1,,,,,ドクターズフォージャパン,0
332,2010003039677,新規,0,2023-01-31,2023-01-31,合同会社フログレス,,合同会社,東京都,千代田区,内幸町２丁目１－１飯野ビルディング９階クロスオフィス日比谷内,,13,101,1000011,,,,,,,2023-01-31,1,,,,,フログレス,0
338,2010401172162,新規,0,2023-01-31,2023-01-31,株式会社ＹＡＲＤ,,株式会社,東京都,港区,白金台５丁目３番６号,,13,103,1080071,,,,,,,2023-01-31,1,,,,,ヤード,0
340,2010403029393,新規,0,2023-01-31,2023-01-31,合同会社ＤＩＶＥ,,合同会社,東京都,港区,南青山２丁目２番１５号,,13,103,1070062,,,,,,,2023-01-31,1,,,,,ダイブ,0
341,2010403029410,新規,0,2023-01-31,2023-01-31,Ｍｅｅｔ　ｔｈｅ　Ｎｅｗ合同会社,,合同会社,東京都,港区,南青山２丁目２番１５号,,13,103,1070062,,,,,,,2023-01-31,1,,,,,ミートザニュー,0
346,2010601062519,新規,0,2023-01-31,2023-01-31,株式会社ＷＲＡＰＳ,,株式会社,東京都,墨田区,横川１丁目７番６－５０１号,,13,107,1300003,,,,,,,2023-01-31,1,,,,,ラップス,0
347,2010601062527,新規,0,2023-01-31,2023-01-31,株式会社イノウエクラフト,,株式会社,東京都,墨田区,八広２丁目７番１号,,13,107,1310041,,,,,,,2023-01-31,1,,,,,イノウエクラフト,0
349,2010703006563,新規,0,2023-01-31,2023-01-31,合同会社ＥＮＴＡＬＩＴＹ,,合同会社,東京都,品川区,中延４丁目１３番１４号,,13,109,1420053,,,,,,,2023-01-31,1,,,,,アンタリティー,0
353,2010901052442,新規,0,2023-01-31,2023-01-31,株式会社ｃａｍｐｔｒｅｅ,,株式会社,東京都,世田谷区,玉川３丁目４１－２３,,13,112,1580094,,,,,,,2023-01-31,1,,,,,キャンプツリー,0
365,2011001152265,新規,0,2023-01-31,2023-01-31,株式会社Ｓｐａｃｅ　Ｅｎｖｙ,,株式会社,東京都,渋谷区,神宮前３丁目５番６－３０１号オープンレジデンシア表参道神宮前ザ・ハウス,,13,113,1500001,,,,,,,2023-01-31,1,,,,,スペースエンビー,0
366,2011001152273,新規,0,2023-01-31,2023-01-31,株式会社ジェネシス,,株式会社,東京都,渋谷区,代々木１丁目３０番１５号天翔代々木ビル１０５,,13,113,1510053,,,,,,,2023-01-31,1,,,,,ジェネシス,0
367,2011001152281,新規,0,2023-01-31,2023-01-31,イナリエイトフォックス株式会社,,株式会社,東京都,渋谷区,渋谷２丁目１９番１５号宮益坂ビルディング６０９,,13,113,1500002,,,,,,,2023-01-31,1,,,,,イナリエイトフォックス,0
368,2011003016162,新規,0,2023-01-31,2023-01-31,合同会社ｉｓａｇｏ,,合同会社,東京都,目黒区,青葉台４丁目２番４号,,13,110,1530042,,,,,,,2023-01-31,1,,,,,イサゴ,0
369,2011003016195,新規,0,2023-01-31,2023-01-31,ＰＲＯＬＯＧＵＥＳ合同会社,,合同会社,東京都,渋谷区,上原１丁目３７番１０号,,13,113,1510064,,,,,,,2023-01-31,1,,,,,プロローグス,0
373,2011101101700,新規,0,2023-01-31,2023-01-31,株式会社ジャパンドアーズ,,株式会社,東京都,新宿区,大久保１丁目１４－７プレシェード新宿２０２,,13,104,1690072,,,,,,,2023-01-31,1,,,,,ジャパンドアーズ,0
382,2011201024388,新規,0,2023-01-31,2023-01-31,株式会社澤口電気,,株式会社,東京都,中野区,東中野２丁目３２番１６号ニュータカラハイツ３１０,,13,114,1640003,,,,,,,2023-01-31,1,,,,,サワグチデンキ,0
386,2011301028413,新規,0,2023-01-31,2023-01-31,株式会社フタチ,,株式会社,東京都,杉並区,桃井１丁目１番２２号,,13,115,1670034,,,,,,,2023-01-31,1,,,,,フタチ,0
387,2011301028421,新規,0,2023-01-31,2023-01-31,尊豪投資株式会社,,株式会社,東京都,杉並区,和田２丁目４７番２７号ライフピアエスプリ１０２号室,,13,115,1660012,,,,,,,2023-01-31,1,,,,,ソンゴウトウシ,0
390,2011701025976,新規,0,2023-01-31,2023-01-31,ナカマオフィス株式会社,,株式会社,東京都,江戸川区,平井７丁目２１番１９－６０７号,,13,123,1320035,,,,,,,2023-01-31,1,,,,,ナカマオフィス,0
396,2012401040126,新規,0,2023-01-31,2023-01-31,株式会社ａｒｋ,,株式会社,東京都,狛江市,東和泉１丁目２番１号,,13,219,2010014,,,,,,,2023-01-31,1,,,,,アーク,0
398,2012403005804,新規,0,2023-01-31,2023-01-31,三灯舎合同会社,,合同会社,東京都,武蔵野市,御殿山２丁目１９番８号,,13,203,1800005,,,,,,,2023-01-31,1,,,,,サントウシャ,0
403,2012801022112,新規,0,2023-01-31,2023-01-31,株式会社ＣＯＮＯＲＩ,,株式会社,東京都,立川市,錦町１丁目４番４号サニービル２Ｆｃｓ－１６５,,13,202,1900022,,,,,,,2023-01-31,1,,,,,コノリ,0
405,2012803002987,新規,0,2023-01-31,2023-01-31,合同会社ＵＮＡ,,合同会社,東京都,昭島市,昭和町３丁目２番７号,,13,207,1960015,,,,,,,2023-01-31,1,,,,,ウナ,0
407,2020001150039,新規,0,2023-01-31,2023-01-31,Ｌｉｎｋｓｈｏｐ　Ｊａｐａｎ株式会社,,株式会社,神奈川県,横浜市西区,みなとみらい３丁目７番１号オーシャンゲートみなとみらい８階,,14,103,2200012,,,,,,,2023-01-31,1,,,,,リンクショップジャパン,0
408,2020001150047,新規,0,2023-01-31,2023-01-31,株式会社牧瀬工務店,,株式会社,神奈川県,横浜市鶴見区,下末吉４丁目２４番１－２０４号,,14,101,2300012,,,,,,,2023-01-31,1,,,,,マキセコウムテン,0
414,2021001078071,新規,0,2023-01-31,2023-01-31,株式会社ｍａｗａｋａｋａ,,株式会社,神奈川県,逗子市,新宿２丁目１１番５号,,14,208,2490007,,,,,,,2023-01-31,1,,,,,マワカカ,0
418,2021003012680,新規,0,2023-01-31,2023-01-31,ＡＭＴ合同会社,,合同会社,神奈川県,小田原市,荻窪３０７番地飯塚ビル２０２号,,14,206,2500042,,,,,,,2023-01-31,1,,,,,エーエムティー,0
419,2021003012689,新規,0,2023-01-31,2023-01-31,合同会社ＡＢＣｘコンサルティング,,合同会社,神奈川県,相模原市南区,上鶴間７丁目３番１－９０８号,,14,153,2520302,,,,,,,2023-01-31,1,,,,,エービーシーコンサルティング,0
430,2030001152125,新規,0,2023-01-31,2023-01-31,株式会社ＨＡＫＵＮＡ,,株式会社,埼玉県,吉川市,木売２丁目３番４号,,11,243,3420045,,,,,,,2023-01-31,1,,,,,ハクナ,0
431,2030001152133,新規,0,2023-01-31,2023-01-31,株式会社ＴＫマネジメント,,株式会社,埼玉県,比企郡小川町,大字小川７２５番地１０,,11,343,3550321,,,,,,,2023-01-31,1,,,,,ティーケーマネジメント,0
432,2030001152174,新規,0,2023-01-31,2023-01-31,株式会社スノーフォート,,株式会社,埼玉県,朝霞市,朝志ケ丘３丁目９番４１号コンフォート中村Ｅ－１０２,,11,227,3510035,,,,,,,2023-01-31,1,,,,,スノーフォート,0
434,2030003020998,新規,0,2023-01-31,2023-01-31,福運合同会社,,合同会社,埼玉県,蕨市,塚越６丁目１９番１２号,,11,223,3350002,,,,,,,2023-01-31,1,,,,,,0
435,2030003021071,新規,0,2023-01-31,2023-01-31,ＫＮ合同会社,,合同会社,埼玉県,川越市,仙波町４丁目１番３号三千ハイツ１０１,,11,201,3500034,,,,,,,2023-01-31,1,,,,,ケーエヌ,0
455,2040001126838,新規,0,2023-01-31,2023-01-31,株式会社ネクストイノベーション,,株式会社,千葉県,白井市,神々廻１９１５番地１４,,12,232,2701416,,,,,,,2023-01-31,1,,,,,ネクストイノベーション,0
456,2040001126854,新規,0,2023-01-31,2023-01-31,株式会社ＴＧＫ,,株式会社,千葉県,君津市,中野１丁目１８番３８ミルフィーユ中野ビル４０８号,,12,225,2991151,,,,,,,2023-01-31,1,,,,,ティージーケー,0
490,2040003021797,新規,0,2023-01-31,2023-01-31,ｉＣＡＲ合同会社,,合同会社,千葉県,四街道市,和田１５２番地３７,,12,228,2840035,,,,,,,2023-01-31,1,,,,,アイカー,0
499,2040005021894,新規,0,2023-01-31,2023-01-31,医療法人社団鏑木歯科,,その他の設立登記法人,千葉県,柏市,西原１丁目１番２号,,12,217,2770885,,,,,,,2023-01-31,1,,,,,カブラギシカ,0
500,2050003007192,新規,0,2023-01-31,2023-01-31,ＡＭ　ＩＮＴＥＲＮＡＴＩＯＮＡＬ合同会社,,合同会社,茨城県,筑西市,玉戸１３０９番地２７（７）,,08,227,3080847,,,,,,,2023-01-31,1,,,,,エーエムインターナショナル,0
502,2060001035649,新規,0,2023-01-31,2023-01-31,株式会社わかさま陶芸,,株式会社,栃木県,芳賀郡益子町,大字大沢２９３３番地,,09,342,3214104,,,,,,,2023-01-31,1,,,,,ワカサマトウゲイ,0
504,2060002006434,新規,0,2023-01-31,2023-01-31,有限会社床井商事,,有限会社,栃木県,宇都宮市,陽東４丁目１２番１７号,,09,201,3210904,,,,,,,2023-01-31,1,,,,,トコイショウジ,0
505,2060003004395,新規,0,2023-01-31,2023-01-31,合同会社ＨＤＫ　ＥＮＴＥＲＰＲＩＳＥＳ,,合同会社,栃木県,足利市,小俣町３４０８番地２,,09,202,3260141,,,,,,,2023-01-31,1,,,,,エイチディーケーエンタープライゼス,0
508,2080001025433,新規,0,2023-01-31,2023-01-31,株式会社ＶＩＳＩＯＮ　ＭＥＡＴ　ＷＯＲＫＳ,,株式会社,静岡県,静岡市葵区,長沼２丁目１１番１２号,,22,101,4200813,,,,,,,2023-01-31,1,,,,,ビジョンミートワークス,0
531,2120001252056,新規,0,2023-01-31,2023-01-31,株式会社ナガイ,,株式会社,大阪府,大阪市住之江区,御崎６丁目１６番８－６０３号,,27,125,5590013,,,,,,,2023-01-31,1,,,,,ナガイ,0
532,2120001252080,新規,0,2023-01-31,2023-01-31,株式会社キムチのパクちゃん,,株式会社,大阪府,大阪市生野区,桃谷４丁目５番１６号,,27,116,5440034,,,,,,,2023-01-31,1,,,,,キムチノパクチャン,0
533,2120001252114,新規,0,2023-01-31,2023-01-31,Ｆａｄｏ株式会社,,株式会社,大阪府,大阪市北区,茶屋町１番２７号,,27,127,5300013,,,,,,,2023-01-31,1,,,,,ファド,0
534,2120001252139,新規,0,2023-01-31,2023-01-31,信濃橋不動産株式会社,,株式会社,大阪府,大阪市西区,靱本町１丁目４番２１号,,27,106,5500004,,,,,,,2023-01-31,1,,,,,シナノバシフドウサン,0
535,2120001252147,新規,0,2023-01-31,2023-01-31,東田福駿株式会社,,株式会社,大阪府,大阪市淀川区,木川西１丁目９番２３号近畿ビル２０１号,,27,123,5320013,,,,,,,2023-01-31,1,,,,,トウダフクシュン,0
547,2160001024798,新規,0,2023-01-31,2023-01-31,ＴＡＫＡＮＯ　ＷＯＲＫＳ株式会社,,株式会社,滋賀県,栗東市,小野３７１番地１,,25,208,5203016,,,,,,,2023-01-31,1,,,,,タカノワークス,0
548,2160005011157,新規,0,2023-01-31,2023-01-31,一般社団法人ぽりリズム,,その他の設立登記法人,滋賀県,大津市,三井寺町５番１５号,,25,201,5200034,,,,,,,2023-01-31,1,,,,,ポリリズム,0
550,2170003001828,新規,0,2023-01-31,2023-01-31,合同会社ａｃｃｏｊａｍｓ,,合同会社,和歌山県,和歌山市,西高松１丁目１５番３４号パルデンス高松１０１,,30,201,6410051,,,,,,,2023-01-31,1,,,,,アコージャムズ,0
556,2180001154684,新規,0,2023-01-31,2023-01-31,株式会社ＭｅｅＴｗｏ,,株式会社,愛知県,名古屋市中区,大須２丁目７－４６,,23,106,4600011,,,,,,,2023-01-31,1,,,,,ミートゥー,0
557,2180001154726,新規,0,2023-01-31,2023-01-31,株式会社Ｃａｒｒｙ　Ｐｒｏｆｉｔ,,株式会社,愛知県,名古屋市中区,栄３丁目１５番３３号栄ガスビル１３階,,23,106,4600008,,,,,,,2023-01-31,1,,,,,キャリープロフィット,0
558,2180001154742,新規,0,2023-01-31,2023-01-31,株式会社カケヒ建築,,株式会社,愛知県,名古屋市中村区,深川町１丁目４０番地,,23,105,4530805,,,,,,,2023-01-31,1,,,,,カケヒケンチク,0
559,2180001154759,新規,0,2023-01-31,2023-01-31,株式会社日新,,株式会社,愛知県,一宮市,木曽川町玉ノ井字四ツ辻西１１番地３,00129262,23,203,4930004,,,,,,,2023-01-31,1,,,,,ニッシン,0
561,2180003024778,新規,0,2023-01-31,2023-01-31,ミナクル合同会社,,合同会社,愛知県,名古屋市中村区,名駅４丁目２４番５号第２森ビル４０１,,23,105,4500002,,,,,,,2023-01-31,1,,,,,ミナクル,0
563,2180301037052,新規,0,2023-01-31,2023-01-31,２６プロスタッフ株式会社,,株式会社,愛知県,豊橋市,神野新田町字ヨノ割４９番地,,23,201,4418077,,,,,,,2023-01-31,1,,,,,ニジュウロクプロスタッフ,0
566,2220001025245,新規,0,2023-01-31,2023-01-31,サワダホールディングス株式会社,,株式会社,石川県,金沢市,馬替３丁目２１３番地,,17,201,9218141,,,,,,,2023-01-31,1,,,,,サワダホールディングス,0
572,2230001019691,新規,0,2023-01-31,2023-01-31,株式会社ｓｅａｌｄ,,株式会社,富山県,射水市,七美１２４４番地,,16,211,9330252,,,,,,,2023-01-31,1,,,,,シールド,0
574,2240003005994,新規,0,2023-01-31,2023-01-31,合同会社ＭＢコンサルティング,,合同会社,広島県,福山市,御船町１丁目１３番１９号Ｄレジデンス１０２,,34,207,7200042,,,,,,,2023-01-31,1,,,,,エムビーコンサルティング,0
575,2250003003213,新規,0,2023-01-31,2023-01-31,Ｃｒｏｓｓ　Ｐｏｉｎｔ合同会社,,合同会社,山口県,光市,虹ケ丘２丁目１７番２６号,,35,210,7430031,,,,,,,2023-01-31,1,,,,,クロスポイント,0
577,2260005011188,新規,0,2023-01-31,2023-01-31,特定非営利活動法人神南備山を考える会,,その他の設立登記法人,岡山県,津山市,津山口２３１番地３,,33,203,7080884,,,,,,,2023-01-31,1,,,,,カンナビサンヲカンガエルカイ,0
581,2290001100355,新規,0,2023-01-31,2023-01-31,株式会社リンテラス,,株式会社,福岡県,福岡市西区,田尻１丁目１２番１０号,,40,135,8190383,,,,,,,2023-01-31,1,,,,,リンテラス,0
582,2290001100405,新規,0,2023-01-31,2023-01-31,株式会社ＡＣＮ,,株式会社,福岡県,うきは市,吉井町１００４番地９,,40,225,8391321,,,,,,,2023-01-31,1,,,,,エーシーエヌ,0
583,2290003013464,新規,0,2023-01-31,2023-01-31,合同会社Ｙ‐０３,,合同会社,福岡県,福岡市博多区,中洲３丁目７番１５号,,40,132,8100801,,,,,,,2023-01-31,1,,,,,ワイゼロサン,0
584,2290003013472,新規,0,2023-01-31,2023-01-31,合同会社スマイルカンパニー,,合同会社,福岡県,久留米市,東合川町５０６番地４,,40,203,8390807,,,,,,,2023-01-31,1,,,,,スマイルカンパニー,0
597,2370003005965,新規,0,2023-01-31,2023-01-31,ＶＥＮＵＳ　ＩＮＴＥＲＮＡＴＩＯＮＡＬ合同会社,,合同会社,宮城県,柴田郡川崎町,大字前川字裏丁１６８番地４,,04,324,9891501,,,,,,,2023-01-31,1,,,,,ヴィーナスインターナショナル,0
598,2380001033439,新規,0,2023-01-31,2023-01-31,株式会社ふるどの論田エコパワー,,株式会社,福島県,石川郡古殿町,大字論田字早稲田４５番地,,07,505,9638301,,,,,,,2023-01-31,1,,,,,フルドノロンデンエコパワー,0
607,2420001018138,新規,0,2023-01-31,2023-01-31,株式会社日動プラント,,株式会社,青森県,八戸市,南類家２丁目１９番３号,,02,203,0310004,,,,,,,2023-01-31,1,,,,,ニチドウプラント,0
611,2430001088312,新規,0,2023-01-31,2023-01-31,株式会社Ｗｏｗ　Ｃｏｎｓｕｌｔｉｎｇ,,株式会社,北海道,札幌市中央区,南十条西８丁目２番２７－２０４号,,01,101,0640810,,,,,,,2023-01-31,1,,,,,ワオコンサルティング,0
612,2430001088320,新規,0,2023-01-31,2023-01-31,株式会社ＬＩＦＥ　ＰＲＯＯＦ,,株式会社,北海道,札幌市中央区,南五条西２丁目９－２ＬＣ拾七番館１Ｆ,,01,101,0640805,,,,,,,2023-01-31,1,,,,,ライフプルーフ,0
613,2430001088329,新規,0,2023-01-31,2023-01-31,株式会社Ｙｏｉｃｈｉ　Ｒｅｓｏｒｔ,,株式会社,北海道,余市郡余市町,大川町２丁目２６番地グランデリビエール４０１,,01,408,0460004,,,,,,,2023-01-31,1,,,,,ヨイチリゾート,0
626,2480005006942,新規,0,2023-01-31,2023-01-31,一般社団法人遊観,,その他の設立登記法人,徳島県,海部郡牟岐町,大字中村字奥前３８番地,,36,383,7750006,,,,,,,2023-01-31,1,,,,,ユウカン,0
633,2500003002965,新規,0,2023-01-31,2023-01-31,合同会社エス・ホーム,,合同会社,愛媛県,松山市,高砂町３丁目２番地２０－１０１号,,38,201,7900822,,,,,,,2023-01-31,1,,,,,エスホーム,0
634,2700150114015,新規,0,2023-01-31,2023-01-31,カリカ　クラフト　プライベート　リミテッド,,外国会社等,東京都,八王子市,子安町２丁目１３－６六本杉コーポ１１,,13,201,1920904,ネパール連邦民主共和国トカ市第２９区タメル、カトマンズ,,,,,,2023-01-31,1,,,,,カリカクラフトプライベートリミテツド,0
635,2700150114031,新規,0,2023-01-31,2023-01-31,Ｒ＆Ｒ　ＭＯＴＯＲ　ＴＲＡＤＩＮＧ　ＰＶＴ　ＬＴＤ,,外国会社等,千葉県,八街市,八街へ１９９番地１２６４フェリーズ八街１０３,,12,230,2891113,スリランカ民主社会主義共和国、エタライ、クリンジャモッタイ、カッピティヤロード、１２９Ｂ,,,,,,2023-01-31,1,,,,,アールアンドアールモータートレーデイングプライベートリミテツド,0
636,2700150114048,新規,0,2023-01-31,2023-01-31,ｓｈｅｎｚｈｅｎｓｈｉ　ｍｅｉｙｕｘｉｎｇ　ｋｅｊｉ　ｙｏｕｘｉａｎｇｏｎｇｓｉ,,外国会社等,,,,,,,,ｇｕａｎｇｍｉｎｇｘｉｎｑｕ　ｇｏｎｇｍｉｎｇｂａｎｓｈｉｃｈｕ　ｊｉａｎｇｓｈｉｓｈｅｑｕ　ｓｈａｎｇｓｈｉｊｉａｇｏｎｇｙｅｑｕｄｉ７ｄｏｎｇ４ｌｏｕ　Ｓｈｅｎｚｈｅｎ　Ｇｕａｎｇｄｏｎｇ,,,,,,2023-01-31,1,,,,,シエンチエンシメイユーシンカギユウゲンコウシ,0
637,2700150114056,新規,0,2023-01-31,2023-01-31,ｈａｎｇｚｈｏｕｗｅｉｓｈｉ　ｗａｎｇｌｕｏｋｅｊｉ　ｙｏｕｘｉａｎｇｏｎｇｓｉ,,外国会社等,,,,,,,,ｑｉａｎｔａｎｇｘｉｎｑｕ，ｙｉｐｅｎｇｊｉｅｄａｏ，ｔｏｕｐｅｎｇｓｈｅｑｕ，ｊｉａｎｇｙｕｄｏｎｇｆｕ１２－２２０３，Ｈａｎｇｚｈｏｕ，Ｚｈｅｊｉａｎｇ，ｃｈｉｎａ,,,,,,2023-01-31,1,,,,,ハンゾウウェイシワングルオケジユウゲンコウシ,0
638,2700150114064,新規,0,2023-01-31,2023-01-31,Ａｎｊｉ　Ｂａｏｌａｎｄｅ　Ｆｕｒｎｉｔｕｒｅ　Ｃｏ．，Ｌｔｄ．,,外国会社等,,,,,,,,Ｒｏｏｍ　１８０１－１８，Ｕｎｉｔ４，Ｂｕｉｌｄｉｎｇ　１，Ｃｈａｍｂｅｒ　ｏｆ　Ｃｏｍｍｅｒｃｅ　Ｂｕｉｌｄ　Ｔｉａｎｈｕａｎｇｐｉｎｇ　Ｓｏｕｔｈ　Ｒｏａｄ，Ｃｈａｎｇｓｈｕｏ　Ｓｔｒｅｅｔ　Ａｎｊｉ　Ｃｏｕｎｔｙ，Ｈｕｚｈｏｕ　Ｃｉｔｙ　Ｚｈｅｊｉａｎｇ　Ｐｒｏｖｉｎｃｅ，ｃｈｉｎａ,,,,,,2023-01-31,1,,,,,アンジバオランデファニチャーカンパニーリミテッド,0
671,3010001232596,新規,0,2023-01-31,2023-01-31,オープンワーキング株式会社,,株式会社,東京都,中央区,銀座１丁目２０－１７バランスト・グロース・コンサルティング内,,13,102,1040061,,,,,,,2023-01-31,1,,,,,オープンワーキング,0
672,3010003039701,新規,0,2023-01-31,2023-01-31,Ｂｌｕｅ　Ｍａｐ合同会社,,合同会社,東京都,千代田区,霞が関３丁目２番５号,,13,101,1000013,,,,,,,2023-01-31,1,,,,,ブルーマップ,0
673,3010003039718,新規,0,2023-01-31,2023-01-31,合同会社すえなみ事務所,,合同会社,東京都,中央区,日本橋２丁目２番３号ＲＩＳＨＥビルＵＣＦ４階,,13,102,1030027,,,,,,,2023-01-31,1,,,,,スエナミジムショ,0
675,3010005036184,新規,0,2023-01-31,2023-01-31,神谷町一般社団法人,,その他の設立登記法人,東京都,千代田区,神田小川町３丁目２６番８号神田小川町三丁目ビル６階,,13,101,1010052,,,,,,,2023-01-31,1,,,,,カミヤチョウ,0
681,3010401172161,新規,0,2023-01-31,2023-01-31,株式会社ＣＨＯＯ,,株式会社,東京都,港区,芝３丁目１４番５号エムレジデンス芝公園１００４,,13,103,1050014,,,,,,,2023-01-31,1,,,,,チュウ,0
682,3010401172186,新規,0,2023-01-31,2023-01-31,株式会社ファイブ・アイズ,,株式会社,東京都,港区,南青山２丁目２番１５号ウィン青山１２１４号,,13,103,1070062,,,,,,,2023-01-31,1,,,,,ファイブアイズ,0
688,3010405021777,新規,0,2023-01-31,2023-01-31,一般財団法人ＭＫＨ,,その他の設立登記法人,東京都,港区,芝浦３丁目１番２１号,,13,103,1080023,,,,,,,2023-01-31,1,,,,,エムケーエイチ,0
690,3010601062518,新規,0,2023-01-31,2023-01-31,株式会社ワイドリーム,,株式会社,東京都,江東区,塩浜１丁目４番３３－３３８号,,13,108,1350043,,,,,,,2023-01-31,1,,,,,ワイドリーム,0
692,3010603009979,新規,0,2023-01-31,2023-01-31,合同会社エメリー,,合同会社,東京都,江東区,豊洲５丁目１番１３－１７２１号,,13,108,1350061,,,,,,,2023-01-31,1,,,,,エメリー,0
694,3010701043780,新規,0,2023-01-31,2023-01-31,株式会社ネオフリート,,株式会社,東京都,品川区,西五反田１丁目２６番２号五反田サンハイツ９１１,,13,109,1410031,,,,,,,2023-01-31,1,,,,,ネオフリート,0
696,3010801033640,新規,0,2023-01-31,2023-01-31,株式会社リンクパス,,株式会社,東京都,大田区,仲六郷３丁目１２番７－６０４号,,13,111,1440055,,,,,,,2023-01-31,1,,,,,リンクパス,0
697,3010901052400,新規,0,2023-01-31,2023-01-31,株式会社大雅工業,,株式会社,東京都,世田谷区,喜多見町２９４３番地,,13,112,1540000,,,,,,,2023-01-31,1,,,,,,0
698,3010901052417,新規,0,2023-01-31,2023-01-31,株式会社Ｒｉｃｈ,,株式会社,東京都,世田谷区,上野毛１丁目３４番１７号,,13,112,1580093,,,,,,,2023-01-31,1,,,,,リッチ,0
699,3010901052433,新規,0,2023-01-31,2023-01-31,株式会社美有,,株式会社,東京都,世田谷区,南烏山６丁目３－１,,13,112,1570062,,,,,,,2023-01-31,1,,,,,ビユウ,0
700,3010903007939,新規,0,2023-01-31,2023-01-31,Ｈｅｌｌｏ合同会社,,合同会社,東京都,世田谷区,北烏山７丁目１２番２４－４０７号,,13,112,1570061,,,,,,,2023-01-31,1,,,,,ハロー,0
701,3011001017715,新規,0,2023-01-31,2023-01-31,日本システムインテグレーション株式会社,,株式会社,東京都,渋谷区,千駄ヶ谷４丁目２０番１０号,,13,113,1510051,,,,,,,2023-01-31,1,,,,,,0
703,3011001152272,新規,0,2023-01-31,2023-01-31,株式会社ミキリハッシャ,,株式会社,東京都,渋谷区,神南１丁目１４番７号,,13,113,1500041,,,,,,,2023-01-31,1,,,,,ミキリハッシャ,0
704,3011001152289,新規,0,2023-01-31,2023-01-31,ディーバ株式会社,,株式会社,東京都,渋谷区,道玄坂１丁目１２番１号渋谷マークシティウエスト２２階,,13,113,1500043,,,,,,,2023-01-31,1,,,,,ディーバ,0
705,3011003016005,新規,0,2023-01-31,2023-01-31,合同会社ＧＬＯＢＡＬＢＯＯＳＴＥＲ,,合同会社,東京都,渋谷区,神宮前６丁目２３番４号桑野ビル２階,,13,113,1500001,,,,,,,2023-01-31,1,,,,,グローバルブースター,0
706,3011005009923,新規,0,2023-01-31,2023-01-31,一般社団法人日本ドラゴンフルーツ協会,,その他の設立登記法人,東京都,目黒区,中町１丁目８－４,,13,110,1530065,,,,,,,2023-01-31,1,,,,,ニホンドラゴンフルーツキョウカイ,0
714,3011201024379,新規,0,2023-01-31,2023-01-31,喜和美株式会社,,株式会社,東京都,中野区,沼袋４丁目３０－１６森源ビル１０１室,,13,114,1650025,,,,,,,2023-01-31,1,,,,,キワビ,0
716,3011303004650,新規,0,2023-01-31,2023-01-31,合同会社ラプラタプロパティ,,合同会社,東京都,杉並区,下井草３丁目１０番１１号,,13,115,1670022,,,,,,,2023-01-31,1,,,,,ラプラタプロパティ,0
717,3011501028914,新規,0,2023-01-31,2023-01-31,株式会社ファーロング,,株式会社,東京都,北区,上十条１丁目１４－９,,13,117,1140034,,,,,,,2023-01-31,1,,,,,ファーロング,0
721,3011801041856,新規,0,2023-01-31,2023-01-31,株式会社ＡＲＭＹ’Ｓ,,株式会社,東京都,葛飾区,小菅４丁目２０番２２号,,13,122,1240001,,,,,,,2023-01-31,1,,,,,アーミーズ,0
722,3011801041864,新規,0,2023-01-31,2023-01-31,株式会社グローバル・マスタリー不動産鑑定,,株式会社,東京都,葛飾区,金町６丁目２番１－３３０４号ヴィナシス金町タワーレジデンス,,13,122,1250042,,,,,,,2023-01-31,1,,,,,グローバルマスタリーフドウサンカンテイ,0
725,3012401040125,新規,0,2023-01-31,2023-01-31,株式会社エイチエス,,株式会社,東京都,三鷹市,井の頭３丁目１４番１３号,,13,204,1810001,,,,,,,2023-01-31,1,,,,,エイチエス,0
726,3012401040133,新規,0,2023-01-31,2023-01-31,株式会社ワイズハンド,,株式会社,東京都,小金井市,東町４丁目３０番１４号,,13,210,1840011,,,,,,,2023-01-31,1,,,,,ワイズハンド,0
729,3012403005803,新規,0,2023-01-31,2023-01-31,合同会社ミクロクリマ,,合同会社,東京都,三鷹市,下連雀７丁目１４－２１－１０２号,,13,204,1810013,,,,,,,2023-01-31,1,,,,,ミクロクリマ,0
731,3012801022111,新規,0,2023-01-31,2023-01-31,株式会社ホンシツ,,株式会社,東京都,立川市,柴崎町２丁目２番２３号,,13,202,1900023,,,,,,,2023-01-31,1,,,,,ホンシツ,0
737,3013301050263,新規,0,2023-01-31,2023-01-31,株式会社Ｆｏｒ　Ｏｎｃｅ,,株式会社,東京都,豊島区,南大塚２丁目３８番１号リードシー大塚ビル８Ｆ,,13,116,1700005,,,,,,,2023-01-31,1,,,,,フォーワンス,0
747,3020001150021,新規,0,2023-01-31,2023-01-31,株式会社Ｉｌｅｖｅｎ　Ｓｔｙｌｅ,,株式会社,神奈川県,横浜市緑区,白山１丁目１４番１９号,,14,113,2260006,,,,,,,2023-01-31,1,,,,,イレブンスタイル,0
748,3020001150062,新規,0,2023-01-31,2023-01-31,株式会社ＤＡＤＡ,,株式会社,神奈川県,横浜市中区,野毛町１丁目９－２Ｔ＆Ｆ桜木町ビル,,14,104,2310064,,,,,,,2023-01-31,1,,,,,ダダ,0
756,3021001078062,新規,0,2023-01-31,2023-01-31,株式会社ＮＥＷ　ＥＲＡ　ＨＯＭＥＳ,,株式会社,神奈川県,大和市,福田２丁目６番地４太郎丸ビル３階,,14,213,2420024,,,,,,,2023-01-31,1,,,,,ニューエラホームズ,0
757,3021001078079,新規,0,2023-01-31,2023-01-31,株式会社Ｒｏｙａｌ　Ｇｒａｃｅ,,株式会社,神奈川県,相模原市南区,大野台３丁目２５番１９号Ｅｍｐｒｅｓｓ２階,,14,153,2520331,,,,,,,2023-01-31,1,,,,,ロイヤルグレース,0
758,3021001078087,新規,0,2023-01-31,2023-01-31,Ｅｃｏ　Ｐｌａｙテクノロジー株式会社,,株式会社,神奈川県,相模原市中央区,相模原３丁目８－２５第３ＪＳビル７０１,,14,152,2520231,,,,,,,2023-01-31,1,,,,,エコプレイテクノロジー,0
759,3021003012688,新規,0,2023-01-31,2023-01-31,Ａｔｅｌｉｅｒ　ｃｅｓｔ　ｍｉｇｎｏｎｎｅ合同会社,,合同会社,神奈川県,小田原市,南町１丁目５－５４－１,,14,206,2500013,,,,,,,2023-01-31,1,,,,,アトリエセミニョンヌ,0
764,3030001152132,新規,0,2023-01-31,2023-01-31,株式会社ＣａｒｅＬａｂｏ,,株式会社,埼玉県,川越市,通町１３番３号クリオ川越弐番館１０３,,11,201,3500044,,,,,,,2023-01-31,1,,,,,ケアラボ,0
765,3030001152149,新規,0,2023-01-31,2023-01-31,株式会社小林塗装,,株式会社,埼玉県,熊谷市,三ヶ尻３７６０番地,,11,202,3600843,,,,,,,2023-01-31,1,,,,,コバヤシトソウ,0
766,3030001152157,新規,0,2023-01-31,2023-01-31,株式会社ソルテック,,株式会社,埼玉県,北足立郡伊奈町,大字羽貫５５０番地７,,11,301,3620802,,,,,,,2023-01-31,1,,,,,ソルテック,0
767,3030001152173,新規,0,2023-01-31,2023-01-31,新明秀株式会社,,株式会社,埼玉県,さいたま市南区,南本町１丁目１０番１７号,,11,108,3360018,,,,,,,2023-01-31,1,,,,,シンメイシュウ,0
771,3030003021070,新規,0,2023-01-31,2023-01-31,タカハル合同会社,,合同会社,埼玉県,桶川市,下日出谷東１丁目５番地の１グランディールボワＩＩ－３０６号,00129263,11,231,3630029,,,,,,,2023-01-31,1,,,,,タカハル,0
799,3040001126770,新規,0,2023-01-31,2023-01-31,株式会社ＳＶ　Ｌｅｉｓｕｒｅ,,株式会社,千葉県,夷隅郡大多喜町,板谷５８８番地,,12,441,2980261,,,,,,,2023-01-31,1,,,,,エスブイレジャー,0
800,3040001126837,新規,0,2023-01-31,2023-01-31,株式会社ヤマウラ,,株式会社,千葉県,船橋市,本町１丁目１７番４号,,12,204,2730005,,,,,,,2023-01-31,1,,,,,ヤマウラ,0
801,3040001126853,新規,0,2023-01-31,2023-01-31,興盛株式会社,,株式会社,千葉県,千葉市稲毛区,稲毛３丁目７番７号,,12,103,2630034,,,,,,,2023-01-31,1,,,,,コウセイ,0
839,3060001035656,新規,0,2023-01-31,2023-01-31,株式会社いちから,,株式会社,栃木県,宇都宮市,中央本町３番９号鈴木ビル５階,,09,201,3200805,,,,,,,2023-01-31,1,,,,,イチカラ,0
840,3060003004394,新規,0,2023-01-31,2023-01-31,エターナル商会合同会社,,合同会社,栃木県,宇都宮市,西川田南１丁目１０番１０号,,09,201,3210155,,,,,,,2023-01-31,1,,,,,エターナルショウカイ,0
844,3080001025432,新規,0,2023-01-31,2023-01-31,株式会社Ｋ・Ｋ,,株式会社,静岡県,藤枝市,青南町１丁目１１番地の１,,22,214,4260063,,,,,,,2023-01-31,1,,,,,ケーケー,0
857,3120001252113,新規,0,2023-01-31,2023-01-31,株式会社ＴＳＵＤＡ,,株式会社,大阪府,大阪市福島区,福島７丁目２０番１８号,,27,103,5530003,,,,,,,2023-01-31,1,,,,,ツダ,0
858,3120001252121,新規,0,2023-01-31,2023-01-31,株式会社万年青家具製作所,,株式会社,大阪府,大阪市旭区,太子橋１丁目２３－２１,,27,117,5350001,,,,,,,2023-01-31,1,,,,,オモトカグセイサクショ,0
859,3120001252146,新規,0,2023-01-31,2023-01-31,＿＿興業株式会社,00129278,株式会社,大阪府,大阪市淀川区,西宮原２丁目６－１６－５３９号室,,27,123,5320004,,,,,,,2023-01-31,1,,,,,エンキン,0
863,3120901047050,新規,0,2023-01-31,2023-01-31,株式会社エクステリア大八,,株式会社,大阪府,摂津市,一津屋１丁目１３番２号,,27,224,5660043,,,,,,,2023-01-31,1,,,,,エクステリアダイハチ,0
864,3120903004479,新規,0,2023-01-31,2023-01-31,合同会社高橋創建,00129265,合同会社,大阪府,摂津市,三島３丁目１６番２９号,,27,224,5660022,,,,,,,2023-01-31,1,,,,,タカハシソウケン,0
873,3130005016686,新規,0,2023-01-31,2023-01-31,一般社団法人京都の料亭文化を継承する会,,その他の設立登記法人,京都府,京都市北区,大宮玄琢北東町９,,26,101,6038461,,,,,,,2023-01-31,1,,,,,キョウトノリョウテイブンカヲケイショウスルカイ,0
879,3140001128897,新規,0,2023-01-31,2023-01-31,株式会社力仁水産,,株式会社,兵庫県,宝塚市,鹿塩１丁目７番１４号,,28,214,6650054,,,,,,,2023-01-31,1,,,,,リキトスイサン,0
880,3140001128930,新規,0,2023-01-31,2023-01-31,株式会社ハクロ,,株式会社,兵庫県,姫路市,書写字梅垣内１７４６番地１,,28,201,6712201,,,,,,,2023-01-31,1,,,,,ハクロ,0
883,3160001024797,新規,0,2023-01-31,2023-01-31,Ｋ＆Ｋメディカルコンサルティング株式会社,,株式会社,滋賀県,大津市,瀬田５丁目８番４号,,25,201,5202134,,,,,,,2023-01-31,1,,,,,ケーアンドケーメディカルコンサルティング,0
887,3170003001827,新規,0,2023-01-31,2023-01-31,合同会社Ａ‐ａｄ,,合同会社,和歌山県,伊都郡かつらぎ町,大字妙寺５３６－３番地,,30,341,6497113,,,,,,,2023-01-31,1,,,,,エースアド,0
891,3180001154758,新規,0,2023-01-31,2023-01-31,株式会社ピーエーエム,,株式会社,愛知県,名古屋市瑞穂区,村上町３丁目３番地の１,,23,108,4670008,,,,,,,2023-01-31,1,,,,,ピーエーエム,0
892,3180001154766,新規,0,2023-01-31,2023-01-31,株式会社ピープルカレッジ,,株式会社,愛知県,名古屋市東区,泉１丁目１８番３号泉ステイトリービル６０２,,23,102,4610001,,,,,,,2023-01-31,1,,,,,ピープルカレッジ,0
896,3180003024752,新規,0,2023-01-31,2023-01-31,合同会社日進石炭商会,,合同会社,愛知県,名古屋市千種区,新池町４丁目２番地メゾン・ド・タンプル２０６号,,23,101,4640027,,,,,,,2023-01-31,1,,,,,ニッシンセキタンショウカイ,0
897,3180003024769,新規,0,2023-01-31,2023-01-31,合同会社ＰＲＯ‐ＳＴＡＦＦ,,合同会社,愛知県,名古屋市千種区,桜が丘５０,,23,101,4640025,,,,,,,2023-01-31,1,,,,,プロスタッフ,0
900,3180301037051,新規,0,2023-01-31,2023-01-31,株式会社丸根造園,,株式会社,愛知県,豊田市,丸根町４丁目４７番地７,,23,211,4710053,,,,,,,2023-01-31,1,,,,,マルネゾウエン,0
901,3190001030140,新規,0,2023-01-31,2023-01-31,株式会社山凰建装,,株式会社,三重県,松阪市,駅部田町１０３５番地１,,24,204,5150045,,,,,,,2023-01-31,1,,,,,サンオウケンソウ,0
905,3200001040906,新規,0,2023-01-31,2023-01-31,株式会社ＧＲＥＥＮ,,株式会社,岐阜県,多治見市,平和町５丁目６６番地,,21,204,5070827,,,,,,,2023-01-31,1,,,,,グリーン,0
921,3290001100370,新規,0,2023-01-31,2023-01-31,ＣＨインポート株式会社,,株式会社,福岡県,福岡市博多区,豊２丁目３番５０号,,40,132,8120042,,,,,,,2023-01-31,1,,,,,シーエイチインポート,0
923,3290803004323,新規,0,2023-01-31,2023-01-31,合同会社趣みんち,,合同会社,福岡県,北九州市若松区,高須北１丁目５番１号,,40,103,8080147,,,,,,,2023-01-31,1,,,,,シュミンチ,0
927,3330003009696,新規,0,2023-01-31,2023-01-31,合同会社ラバンセ,,合同会社,熊本県,熊本市南区,近見２丁目１２番６２号アルバ日吉２０５号,,43,104,8614101,,,,,,,2023-01-31,1,,,,,ラバンセ,0
931,3360003012680,新規,0,2023-01-31,2023-01-31,合同会社ＣＯＣＯＲＡ,,合同会社,沖縄県,宜野湾市,字宇地泊二丁目２４番６号,,47,205,9012227,,,,,,,2023-01-31,1,,,,,ココラ,0
933,3370001049550,新規,0,2023-01-31,2023-01-31,株式会社ＭＯＶＥ,,株式会社,宮城県,仙台市青葉区,花京院１丁目２番１５号,,04,101,9800013,,,,,,,2023-01-31,1,,,,,ムーブ,0
943,3420003002659,新規,0,2023-01-31,2023-01-31,十和田湖ハウス合同会社,,合同会社,青森県,十和田市,稲生町２２番１０号,,02,206,0340011,,,,,,,2023-01-31,1,,,,,トワダコハウス,0
953,3450001013894,新規,0,2023-01-31,2023-01-31,株式会社高橋農場,00129266,株式会社,北海道,名寄市,風連町字旭２３６０番地,,01,221,0980514,,,,,,,2023-01-31,1,,,,,タカハシノウジョウ,0
958,3470003002340,新規,0,2023-01-31,2023-01-31,合同会社ＴＯＫＵＳＨＩＫＡ,,合同会社,香川県,高松市,三谷町２５９７番地２,,37,201,7610450,,,,,,,2023-01-31,1,,,,,トクシカ,0
961,3700150114014,新規,0,2023-01-31,2023-01-31,Ｈｕｇｏ　Ｌａｎｋａ　Ａｕｔｏ　Ｔｒａｄｅｒｓ,,外国会社等,千葉県,千葉市若葉区,大宮町１７３２番地１－Ｄ号,,12,104,2640016,スリランカ民主社会主義共和国、パナドゥラ、アンバランドゥワ、２３９－Ａ－１,,,,,,2023-01-31,1,,,,,ヒユーゴランカオートトレーダース,0
962,3700150114047,新規,0,2023-01-31,2023-01-31,ｘｉａｍｅｎｈａｎｙｉｎｄｉａｎｚｉｊｉｓｈｕｙｏｕｘｉａｎｇｏｎｇｓｉ,,外国会社等,,,,,,,,Ｘｉａｍｅｎ　Ｆｕｊｉａｎ　ｈｕｏｊｕｇａｏｘｉｎｑｕｃｈｕａｎｇｙｅｙｕａｎａｎｇｙｅｌｏｕ３０５Ａｓｈｉ,,,,,,2023-01-31,1,,,,,アモンカンインデンシギジユツユウゲンコウシ,0
963,3700150114055,新規,0,2023-01-31,2023-01-31,ｃｈａｎｇｓｈａ　ｘｉａｎｇｔｉｎｇｋｅｊｉ　ｙｏｕｘｉａｎｇｏｎｇｓｉ,,外国会社等,,,,,,,,ｙｉｎｈｕａｄａｊｉｕｄｉａｎｓｈａｎｇｗｕｌｏｕｎｅｉｄｅｘｉｅｚｉｌｏｕ４０１－Ａ７２ｈａｏ，ｊｉｕｃａｉｙｕａｎｊｉｅｄａｏｗｕｙｉｄａｄａｏ６１８ｈａｏ，ｃｈａｎｇｓｈａｓｈｉ，ｈｕｎａｎ，Ｃｈｉｎａ,,,,,,2023-01-31,1,,,,,チャンシャシャンティンケジユウゲンコウシ,0
964,3700150114063,新規,0,2023-01-31,2023-01-31,ＳＨＥＮＺＨＥＮ　ＧｕａｎｚｈｏｕＪｉｅ　Ｃｏ．，ＬＴＤ,,外国会社等,,,,,,,,ＮａｎＹｕａｎＤａｓｈａ　Ｄｏｎｇ　＃６０５　Ｓｈｅｎｚｈｅｎ　Ｇｕａｎｇｄｏｎｇ　Ｃｈｉｎａ,,,,,,2023-01-31,1,,,,,シンセンガンズホウジエカンパニーリミテッド,0
991,4010001232513,新規,0,2023-01-31,2023-01-31,株式会社ときわヘルスケアサービス,,株式会社,東京都,千代田区,丸の内１丁目９番２号グラントウキョウサウスタワー８階,,13,101,1000005,,,,,,,2023-01-31,1,,,,,トキワヘルスケアサービス,0
992,4010001232562,新規,0,2023-01-31,2023-01-31,株式会社泥団子,,株式会社,東京都,文京区,湯島３丁目１２－１３－５０３,,13,105,1130034,,,,,,,2023-01-31,1,,,,,ドロダンゴ,0
993,4010001232612,新規,0,2023-01-31,2023-01-31,株式会社ジェリー,,株式会社,東京都,千代田区,有楽町１丁目６番３号日比谷頴川ビル８０１,,13,101,1000006,,,,,,,2023-01-31,1,,,,,ジェリー,0
994,4010001232620,新規,0,2023-01-31,2023-01-31,スイングホーム株式会社,,株式会社,東京都,中央区,銀座６丁目１３番１６号銀座ＷａｌｌビルＵＣＦ５階,,13,102,1040061,,,,,,,2023-01-31,1,,,,,スイングホーム,0
995,4010003039700,新規,0,2023-01-31,2023-01-31,Ｂｅｉｇｅ　Ｍａｐ合同会社,,合同会社,東京都,千代田区,霞が関３丁目２番５号,,13,101,1000013,,,,,,,2023-01-31,1,,,,,ベージュマップ,0
1006,4010401172160,新規,0,2023-01-31,2023-01-31,Ｔｕｅｓｄａｙ株式会社,,株式会社,東京都,港区,浜松町２丁目２番１５号浜松町ダイヤビル２Ｆ,,13,103,1050013,,,,,,,2023-01-31,1,,,,,チューズデー,0
1010,4010601062517,新規,0,2023-01-31,2023-01-31,ＭＦＣ株式会社,,株式会社,東京都,江東区,有明３丁目７番２６号有明フロンティアビルＢ棟９階,,13,108,1350063,,,,,,,2023-01-31,1,,,,,エムエフシー,0
1011,4010603009978,新規,0,2023-01-31,2023-01-31,ゲートブリッジ合同会社,,合同会社,東京都,江東区,豊洲５丁目１番－１３－３６１３号,,13,108,1350061,,,,,,,2023-01-31,1,,,,,ゲートブリッジ,0
1013,4010702003808,新規,0,2023-01-31,2023-01-31,有限会社伸幸,,有限会社,東京都,品川区,中延２丁目１番３号豊ビル,,13,109,1420053,,,,,,,2023-01-31,1,,,,,シンコウ,0
1026,4010901052432,新規,0,2023-01-31,2023-01-31,株式会社大海原,,株式会社,東京都,世田谷区,深沢３丁目２８番２２号,,13,112,1580081,,,,,,,2023-01-31,1,,,,,オオウナバラ,0
1029,4011001152255,新規,0,2023-01-31,2023-01-31,株式会社ＡＲＨＭＳ,,株式会社,東京都,渋谷区,神宮前６丁目２３番４号桑野ビル２階,,13,113,1500001,,,,,,,2023-01-31,1,,,,,アームス,0
1032,4011005009922,新規,0,2023-01-31,2023-01-31,一般社団法人アントレプレナー支援協会,,その他の設立登記法人,東京都,渋谷区,初台１丁目３６番９号マコト初台ハイツ１０７,,13,113,1510061,,,,,,,2023-01-31,1,,,,,アントレプレナーシエンキョウカイ,0
1037,4011101101673,新規,0,2023-01-31,2023-01-31,株式会社ＤＫ,,株式会社,東京都,新宿区,大久保３丁目８番３号,,13,104,1690072,,,,,,,2023-01-31,1,,,,,ディーケー,0
1040,4011103012654,新規,0,2023-01-31,2023-01-31,ＩＲＩＳ合同会社,,合同会社,東京都,新宿区,北新宿３丁目３５－６新柏木マンション５０２,,13,104,1690074,,,,,,,2023-01-31,1,,,,,アイリス,0
1051,4011401024871,新規,0,2023-01-31,2023-01-31,株式会社ボクラ団社,,株式会社,東京都,板橋区,板橋２丁目３２－６生原マンション１０１,,13,119,1730004,,,,,,,2023-01-31,1,,,,,ボクラダンシャ,0
1053,4011801041863,新規,0,2023-01-31,2023-01-31,株式会社ＧＯＡＴＨ,,株式会社,東京都,足立区,花畑６丁目１３番１号,,13,121,1210061,,,,,,,2023-01-31,1,,,,,ゴース,0
1055,4012401040124,新規,0,2023-01-31,2023-01-31,株式会社Ｍａｒｉｏｔｔ,,株式会社,東京都,小金井市,中町２丁目２０番１４号,,13,210,1840012,,,,,,,2023-01-31,1,,,,,マリオット,0
1056,4012405004827,新規,0,2023-01-31,2023-01-31,一般社団法人はるかぜ,,その他の設立登記法人,東京都,武蔵野市,吉祥寺本町２丁目１２番５号スプリングハウスビル３階,,13,203,1800004,,,,,,,2023-01-31,1,,,,,ハルカゼ,0
1061,4013303006477,新規,0,2023-01-31,2023-01-31,合同会社ＣＰＬ,,合同会社,東京都,豊島区,池袋３丁目３９番２号富貴ビル,,13,116,1710014,,,,,,,2023-01-31,1,,,,,シピエル,0
1066,4020001150037,新規,0,2023-01-31,2023-01-31,株式会社アハト,,株式会社,神奈川県,横浜市保土ケ谷区,新井町５５９番地２,,14,106,2400053,,,,,,,2023-01-31,1,,,,,アハト,0
1067,4020001150053,新規,0,2023-01-31,2023-01-31,セツオンライン株式会社,,株式会社,神奈川県,横浜市神奈川区,新浦島町２丁目２－１－３２９,,14,102,2210031,,,,,,,2023-01-31,1,,,,,セツオンライン,0
1068,4020001150061,新規,0,2023-01-31,2023-01-31,株式会社ハーモニー,,株式会社,神奈川県,川崎市幸区,塚越４丁目３６３番地１６－１０３,,14,132,2120024,,,,,,,2023-01-31,1,,,,,ハーモニー,0
1070,4020002108851,新規,0,2023-01-31,2023-01-31,有限会社東戸塚産業,,有限会社,神奈川県,横浜市戸塚区,品濃町５２４番地２,,14,110,2440801,,,,,,,2023-01-31,1,,,,,ヒガシトツカサンギョウ,0
1073,4020003023190,新規,0,2023-01-31,2023-01-31,Ｒｅｖｅｒｓｅ　Ｔｏｎｅ合同会社,,合同会社,神奈川県,横浜市西区,みなとみらい５丁目３番２－１３１３号,,14,103,2200012,,,,,,,2023-01-31,1,,,,,リバーストーン,0
1074,4020003023208,新規,0,2023-01-31,2023-01-31,ベイコンベンション合同会社,,合同会社,神奈川県,横浜市中区,桜木町１丁目１０１番地１クロスゲート７階,,14,104,2310062,,,,,,,2023-01-31,1,,,,,ベイコンベンション,0
1079,4021001078020,新規,0,2023-01-31,2023-01-31,株式会社ＬＥＡＰＥＸ,,株式会社,神奈川県,愛甲郡愛川町,中津３６１番地１,,14,401,2430303,,,,,,,2023-01-31,1,,,,,リーペックス,0
1082,4021003012687,新規,0,2023-01-31,2023-01-31,合同会社ＬＵＫＩＡ,,合同会社,神奈川県,茅ヶ崎市,菱沼２丁目１９番１－３０２号エストレイヤ湘南,,14,207,2530011,,,,,,,2023-01-31,1,,,,,ルキア,0
1089,4030001152189,新規,0,2023-01-31,2023-01-31,株式会社Ｂｅｎｏｉｔ,,株式会社,埼玉県,川越市,南台２丁目６番地２０サザンヒルＭ３０２号室,,11,201,3501165,,,,,,,2023-01-31,1,,,,,ベノワ,0
1093,4030003021029,新規,0,2023-01-31,2023-01-31,合同会社Ｗｈｅａｒｔ,,合同会社,埼玉県,吉川市,高久１丁目１２番地８コーポ昭栄Ａ－１０１,,11,243,3420035,,,,,,,2023-01-31,1,,,,,ワート,0
1094,4030003021045,新規,0,2023-01-31,2023-01-31,釜田一実合同会社,,合同会社,埼玉県,入間市,河原町１番３号駅前ビル５０５,,11,225,3580008,,,,,,,2023-01-31,1,,,,,カマタカズミ,0
1095,4030003021078,新規,0,2023-01-31,2023-01-31,合同会社Ｄｉｖｃｏｒｄ　Ｔｅｃｈｎｏｌｏｇｉｅｓ,,合同会社,埼玉県,さいたま市浦和区,岸町４丁目２０番１０号－８０３,,11,107,3300064,,,,,,,2023-01-31,1,,,,,ディブコードテクノロジーズ,0
1116,4040001126836,新規,0,2023-01-31,2023-01-31,株式会社ＭＩＹＡＢＩ,,株式会社,千葉県,千葉市花見川区,幕張本郷２丁目３８番６号,,12,102,2620033,,,,,,,2023-01-31,1,,,,,ミヤビ,0
1117,4040001126844,新規,0,2023-01-31,2023-01-31,株式会社藤善建設,,株式会社,千葉県,市原市,ちはら台西１丁目４番地３－１０３号,,12,219,2900143,,,,,,,2023-01-31,1,,,,,フジゼンケンセツ,0
1118,4040001126852,新規,0,2023-01-31,2023-01-31,株式会社Ｗｅｌｌ　Ｓｉｄｅ,,株式会社,千葉県,千葉市中央区,祐光４丁目２５番１７号,,12,101,2600007,,,,,,,2023-01-31,1,,,,,ウェルサイド,0
1119,4040001126860,新規,0,2023-01-31,2023-01-31,株式会社Ｌ＆Ｓクリエイト,,株式会社,千葉県,松戸市,常盤平５丁目１８－４トノオカビル２Ｆ,,12,207,2702261,,,,,,,2023-01-31,1,,,,,エルアンドエスクリエイト,0
1154,4040003021804,新規,0,2023-01-31,2023-01-31,合同会社白兎,,合同会社,千葉県,白井市,七次台３丁目４９番６号,,12,232,2701436,,,,,,,2023-01-31,1,,,,,ハクト,0
1165,4050001052313,新規,0,2023-01-31,2023-01-31,株式会社久慈エクステリア工業,,株式会社,茨城県,那珂郡東海村,大字亀下１６７番地,,08,341,3191104,,,,,,,2023-01-31,1,,,,,クジエクステリアコウギョウ,0
1175,4070003004806,新規,0,2023-01-31,2023-01-31,合同会社公友,,合同会社,群馬県,渋川市,上白井２８０８,,10,208,3770201,,,,,,,2023-01-31,1,,,,,コウユウ,0
1177,4080101023772,新規,0,2023-01-31,2023-01-31,キャリアデザイン・メンタルサポート株式会社,,株式会社,静岡県,沼津市,西島町１５番‐１４号,,22,203,4100835,,,,,,,2023-01-31,1,,,,,キャリアデザインメンタルサポート,0
1179,4080403004710,新規,0,2023-01-31,2023-01-31,合同会社ＪＢコンサルティング,,合同会社,静岡県,浜松市中区,城北１丁目２３番６号,,22,131,4328011,,,,,,,2023-01-31,1,,,,,ジェイビーコンサルティング,0
1185,4110001037266,新規,0,2023-01-31,2023-01-31,エヌシーイーアセットマネジメント株式会社,,株式会社,新潟県,新潟市中央区,美咲町１丁目７番２５号,,15,103,9500954,,,,,,,2023-01-31,1,,,,,エヌシーイーアセットマネジメント,0
1192,4120001251989,新規,0,2023-01-31,2023-01-31,株式会社グランドハンドリング,,株式会社,大阪府,大阪市西区,江戸堀１丁目１８番２７号昭和ビルディング５階,,27,106,5500002,,,,,,,2023-01-31,1,,,,,グランドハンドリング,0
1193,4120001252104,新規,0,2023-01-31,2023-01-31,株式会社ティーアンドエス,,株式会社,大阪府,枚方市,招提元町３丁目３６番４３号,,27,210,5731133,,,,,,,2023-01-31,1,,,,,ティーアンドエス,0
1200,4120101066908,新規,0,2023-01-31,2023-01-31,スターホーム株式会社,,株式会社,大阪府,堺市堺区,中三国ヶ丘町３丁５番１６号,,27,141,5900022,,,,,,,2023-01-31,1,,,,,スターホーム,0
1203,4120901047058,新規,0,2023-01-31,2023-01-31,株式会社ＴＣ‐ｆｉｅｌｄ,,株式会社,大阪府,吹田市,朝日が丘町５３番３－２号,,27,205,5640083,,,,,,,2023-01-31,1,,,,,ティーシーフィールド,0
1208,4130001073573,新規,0,2023-01-31,2023-01-31,森本自動車工業株式会社,,株式会社,京都府,八幡市,上津屋石ノ塔３７番地の３,,26,210,6148175,,,,,,,2023-01-31,1,,,,,モリモトジドウシャコウギョウ,0
1210,4140001128888,新規,0,2023-01-31,2023-01-31,株式会社Ｔｏｒｃｈ,,株式会社,兵庫県,西宮市,川西町２番２２号,,28,204,6620951,,,,,,,2023-01-31,1,,,,,トーチ,0
1213,4160001024788,新規,0,2023-01-31,2023-01-31,株式会社壱三壱,,株式会社,滋賀県,近江八幡市,鷹飼町５６０番地の１,,25,204,5230891,,,,,,,2023-01-31,1,,,,,イチサンイチ,0
1214,4160001024796,新規,0,2023-01-31,2023-01-31,株式会社弘森,,株式会社,滋賀県,犬上郡多賀町,大字霜ケ原３６５番地,,25,443,5220326,,,,,,,2023-01-31,1,,,,,コウシン,0
1218,4180001154699,新規,0,2023-01-31,2023-01-31,株式会社源ＧＥＮ,,株式会社,愛知県,名古屋市中区,千代田４丁目１１番２６号ヴィラはせがわ３０１号,,23,106,4600012,,,,,,,2023-01-31,1,,,,,ゲン,0
1219,4180001154740,新規,0,2023-01-31,2023-01-31,株式会社ダンク,,株式会社,愛知県,東海市,富木島町山中８０番地１,,23,222,4760011,,,,,,,2023-01-31,1,,,,,ダンク,0
1222,4180003024776,新規,0,2023-01-31,2023-01-31,合同会社ｙｅｓ,,合同会社,愛知県,名古屋市千種区,今池１丁目９番２２号,,23,101,4640850,,,,,,,2023-01-31,1,,,,,イエス,0
1223,4180003024784,新規,0,2023-01-31,2023-01-31,合同会社夢菓子家,,合同会社,愛知県,津島市,片町１丁目４番地,,23,208,4960826,,,,,,,2023-01-31,1,,,,,ムカシヤ,0
1224,4180301037050,新規,0,2023-01-31,2023-01-31,株式会社ＪＯＮＤ,,株式会社,愛知県,新城市,八束穂９７０番地１１,,23,221,4411318,,,,,,,2023-01-31,1,,,,,ジョンド,0
1225,4190001030131,新規,0,2023-01-31,2023-01-31,株式会社ＪＪ,,株式会社,三重県,松阪市,上川町３４６１番地２４,,24,204,5150041,,,,,,,2023-01-31,1,,,,,ジェイジェイ,0
1226,4190003004199,新規,0,2023-01-31,2023-01-31,合同会社マブ,,合同会社,三重県,伊賀市,中友田６５５番地の２,,24,216,5181304,,,,,,,2023-01-31,1,,,,,マブ,0
1227,4200001040896,新規,0,2023-01-31,2023-01-31,株式会社おうち情報館,,株式会社,岐阜県,岐阜市,本郷町１丁目２５番地１０,,21,201,5008302,,,,,,,2023-01-31,1,,,,,オウチジョウホウカン,0
1228,4200005013436,新規,0,2023-01-31,2023-01-31,下之保村農業會,,その他の設立登記法人,岐阜県,関市,（岐阜県武儀郡下之保村２７３５番地）,,21,205,5013200,,,,,,,2023-01-31,1,,,,,シモノホムラノウギョウカイ,0
1238,4260003004183,新規,0,2023-01-31,2023-01-31,合同会社アミカル,,合同会社,岡山県,岡山市東区,城東台南１丁目９番９号,,33,103,7090623,,,,,,,2023-01-31,1,,,,,アミカル,0
1239,4280003001690,新規,0,2023-01-31,2023-01-31,合同会社ツナグ,,合同会社,島根県,出雲市,今市町８２５番地１９,,32,203,6930001,,,,,,,2023-01-31,1,,,,,,0
1243,4290001100270,新規,0,2023-01-31,2023-01-31,Ｂｅｌｕｇａ株式会社,,株式会社,福岡県,福岡市博多区,博多駅前４丁目１８－２５ＥＳＬＥＡＤＧＲＡＮＤＢＵＲＥＡＵＨＡＫＡＴＡＥＫＩＭＡＥ２０１,,40,132,8120011,,,,,,,2023-01-31,1,,,,,ベルーガ,0
1246,4290003013479,新規,0,2023-01-31,2023-01-31,合同会社幸屋,,合同会社,福岡県,福岡市中央区,清川１丁目１２番４号,,40,133,8100005,,,,,,,2023-01-31,1,,,,,サチヤ,0
1247,4290805009633,新規,0,2023-01-31,2023-01-31,医療法人岡田クリニック,,その他の設立登記法人,福岡県,北九州市小倉南区,大字志井１７１０番地１,,40,107,8020985,,,,,,,2023-01-31,1,,,,,オカダクリニック,0
1248,4300001013207,新規,0,2023-01-31,2023-01-31,株式会社ＫＡＩＳＥＩ,,株式会社,佐賀県,唐津市,佐志９９４番地１,,41,202,8470111,,,,,,,2023-01-31,1,,,,,カイセイ,0
1263,4380001033437,新規,0,2023-01-31,2023-01-31,株式会社誠組,,株式会社,福島県,郡山市,静町２番１４号Ａ－２,,07,203,9630203,,,,,,,2023-01-31,1,,,,,マコトグミ,0
1265,4380003005376,新規,0,2023-01-31,2023-01-31,合同会社ｇｒａｓｓ,,合同会社,福島県,福島市,笹谷字北中條１１番地の１１,,07,201,9600241,,,,,,,2023-01-31,1,,,,,グラス,0
1267,4420001018136,新規,0,2023-01-31,2023-01-31,株式会社ＪＴＳジャパンテクノサービス,,株式会社,青森県,三戸郡階上町,蒼前西３丁目９番地１５６４,,02,446,0391212,,,,,,,2023-01-31,1,,,,,ジェイティーエスジャパンテクノサービス,0
1268,4420003002658,新規,0,2023-01-31,2023-01-31,合同会社ぴぃす,,合同会社,青森県,三沢市,古間木２丁目１９９番地２,,02,207,0330051,,,,,,,2023-01-31,1,,,,,ピィス,0
1274,4430001088310,新規,0,2023-01-31,2023-01-31,株式会社ＤＳＴ,,株式会社,北海道,札幌市中央区,南九条西６丁目１番１２号,,01,101,0640809,,,,,,,2023-01-31,1,,,,,ディーエスティー,0
1282,4470001019443,新規,0,2023-01-31,2023-01-31,株式会社恵比須興業,,株式会社,香川県,高松市,東山崎町３４０－７,,37,201,7610312,,,,,,,2023-01-31,1,,,,,エビスコウギョウ,0
1284,4490001010391,新規,0,2023-01-31,2023-01-31,株式会社ＯａｎｄＨ,,株式会社,高知県,須崎市,西糺町１６番４号ラ・ヴィオーレ３０３,,39,206,7850012,,,,,,,2023-01-31,1,,,,,オーアンドエイチ,0
1286,4700150113964,新規,0,2023-01-31,2023-01-27,下泊地域づくり振興会,,その他,愛媛県,西予市,三瓶町下泊２７０２番地５,,38,214,7960915,,,,,,,2023-01-27,1,,,,,シモドマリチイキヅクリシンコウカイ,0
1287,4700150114046,新規,0,2023-01-31,2023-01-31,ＳＨＥＮＺＨＥＮ　ＤＥＣＨＡＮＧＤＡ　ＩＭＰＯＲＴ　ＡＮＤ　ＥＸＰＯＲＴ　ＣＯ．，ＬＴＤ．,,外国会社等,,,,,,,,Ｎｏ．６０７，Ｈｕａｄｕｈｕａｙｕａｎ，Ｄｏｎｇｈｕａｎ　Ｒｏａｄ　１ｓｔ　Ｌｏｎｇｈｕａ，Ｓｈｅｎｚｈｅｎ,,,,,,2023-01-31,1,,,,,シエンチエンデチヤンダインポートアンドエクスポートカンパニーリミテツド,0
1288,4700150114054,新規,0,2023-01-31,2023-01-31,ｆｏｓｈａｎ　ｎａｎｈａｉ　ｌｅｗｅｉ　ｄｅｃｏｒａｔｉｏｎ　ｍａｔｅｒｉａｌｓ　ｃｏ．，ｌｔｄ．,,外国会社等,,,,,,,,ｓＲｍ　Ｎｏ．９１５，Ｂｕｉｌｄｉｎｇ　Ｂ，Ｓｈｉｄａｉ　Ｓｑｕａｒｅ，Ｔｅｎｇｄａ　Ｎｏ．１１，Ｓｈｉｃｈｅｎｇ　Ｒｄ　ｆｏｓｈａｎ　ｇｕａｎｇｄｏｎｇ，Ｃｈｉｎａ,,,,,,2023-01-31,1,,,,,フォサンナンハイレウェイデコレーションマテリアルズカンパニーリミテッド,0
1289,4700150114062,新規,0,2023-01-31,2023-01-31,ｓｈｅｎｚｈｅｎｓｈｉ　ｙｕｎｃｈｕａｎｇｓｈｉｊｉ　ｋｅｊｉｙｏｕｘｉａｎｇｏｎｇｓｉ,,外国会社等,,,,,,,,７ｔｈ　ｆｌｏｏｒ，Ａ　Ｂｕｉｌｄｉｎｇ，Ｓｈｕｉ　ｃｈａｎ　ｓａｎ　ｗｅｉ　ｇｏｎｇ　ｙｅ　ｙｕａｎ，Ｂａｏａｎｄａｄａｏ　ＮＯ．５００３，Ｓａｎｗｅｉ　Ｃｏｍｍｕｎｉｔｙ，Ｈａｎｇｃｈｅｎｇ　Ｓｔｒｅｅｔ，Ｂａｏａｎ　Ｄｉｓｔｒｉｃｔ，Ｓｈｅｎｚｈｅｎ，Ｇｕａｎｇｄｏｎｇ　Ｐｒｏｖｉｎｃｅ，Ｃｈｉｎａ,,,,,,2023-01-31,1,,,,,シンセンシユンシュアンシジケジユウゲンコウシ,0
1312,5010001232603,新規,0,2023-01-31,2023-01-31,株式会社Ｄｅｅｐ　Ｂｒｉｄｇｅ,,株式会社,東京都,千代田区,九段南１丁目５番６号りそな九段ビル５Ｆ,,13,101,1020074,,,,,,,2023-01-31,1,,,,,ディープブリッジ,0
1317,5010003039699,新規,0,2023-01-31,2023-01-31,Ｒｅｄ　Ｍａｐ合同会社,,合同会社,東京都,千代田区,霞が関３丁目２番５号,,13,101,1000013,,,,,,,2023-01-31,1,,,,,レッドマップ,0
1318,5010003039716,新規,0,2023-01-31,2023-01-31,合同会社佐藤会計事務所,,合同会社,東京都,文京区,音羽１丁目１５番１５－６０３号,,13,105,1120013,,,,,,,2023-01-31,1,,,,,サトウカイケイジムショ,0
1327,5010401172151,新規,0,2023-01-31,2023-01-31,株式会社プラスワンロジスティックスジャパン,,株式会社,東京都,港区,浜松町２丁目２番１５号浜松町ダイヤビル２階,,13,103,1050013,,,,,,,2023-01-31,1,,,,,プラスワンロジスティックスジャパン,0
1328,5010401172168,新規,0,2023-01-31,2023-01-31,株式会社ＯＲｉｈｏｎ,,株式会社,東京都,港区,南麻布１丁目８番１６－１５０６号,,13,103,1060047,,,,,,,2023-01-31,1,,,,,オリホン,0
1331,5010501049935,新規,0,2023-01-31,2023-01-31,ＳＳＳ株式会社,,株式会社,東京都,台東区,千束３丁目２１番１２号キートスビル２０４号,,13,106,1110031,,,,,,,2023-01-31,1,,,,,エスエスエス,0
1338,5010701043779,新規,0,2023-01-31,2023-01-31,株式会社モードエルフ,,株式会社,東京都,品川区,東五反田５丁目２４番１２－４０２号,,13,109,1410022,,,,,,,2023-01-31,1,,,,,モードエルフ,0
1341,5010901052415,新規,0,2023-01-31,2023-01-31,株式会社Ｖｉｒｔｕａｌ　Ｂｒａｉｎ,,株式会社,東京都,世田谷区,新町２丁目１３－１２アーバンハウス２０５,,13,112,1540014,,,,,,,2023-01-31,1,,,,,バーチャルブレイン,0
1345,5011001152155,新規,0,2023-01-31,2023-01-31,Ｈｏｎｏｏ　Ａｎｉｍｅ　Ｃｒｅａｔｏｒｓ＆Ｓｔｕｄｉｏｓ株式会社,,株式会社,東京都,渋谷区,代々木５丁目６０番１号,,13,113,1510053,,,,,,,2023-01-31,1,,,,,ホノオアニメクリエイターズアンドスタジオ,0
1346,5011001152270,新規,0,2023-01-31,2023-01-31,株式会社ＤｅＴｗｉｎ,,株式会社,東京都,渋谷区,恵比寿４丁目２０番３号恵比寿ガーデンプレイスタワー１８階,,13,113,1500013,,,,,,,2023-01-31,1,,,,,ディツイン,0
1347,5011001152279,新規,0,2023-01-31,2023-01-31,株式会社Ｎ　Ｃｏｒｐｏｒａｔｉｏｎ,,株式会社,東京都,目黒区,鷹番３丁目１９番９号,,13,110,1520004,,,,,,,2023-01-31,1,,,,,エヌコーポレーション,0
1348,5011001152295,新規,0,2023-01-31,2023-01-31,Ｗｅｌｌ　Ｂｅａｒ株式会社,,株式会社,東京都,目黒区,碑文谷５丁目２番５号Ｔ＆Ａビル５階,,13,110,1520003,,,,,,,2023-01-31,1,,,,,ウェルベアー,0
1362,5011601026543,新規,0,2023-01-31,2023-01-31,小西インペックス株式会社,,株式会社,東京都,練馬区,貫井１丁目２５番２２－１０８号,,13,120,1760021,,,,,,,2023-01-31,1,,,,,コニシインペックス,0
1366,5011801041854,新規,0,2023-01-31,2023-01-31,ＣＶＴ‐ＭＴ株式会社,,株式会社,東京都,足立区,西新井栄町１丁目１９番３９－１４０１号,,13,121,1230843,,,,,,,2023-01-31,1,,,,,シーブイティーエムティ,0
1367,5011801041862,新規,0,2023-01-31,2023-01-31,株式会社Ｌｉａｎｇｅ,,株式会社,東京都,足立区,東和１丁目１９番７号エクセレント翔Ｂ１０１,,13,121,1200003,,,,,,,2023-01-31,1,,,,,リアンジェ,0
1375,5012703002630,新規,0,2023-01-31,2023-01-31,合同会社ＮＫＧ,,合同会社,東京都,東村山市,秋津町３丁目１２番地７０,,13,213,1890001,,,,,,,2023-01-31,1,,,,,エヌケイジイ,0
1376,5012803002992,新規,0,2023-01-31,2023-01-31,青い森合同会社,,合同会社,東京都,国分寺市,南町３丁目２２番３１号,,13,214,1850021,,,,,,,2023-01-31,1,,,,,アオイモリ,0
1382,5020001150028,新規,0,2023-01-31,2023-01-31,株式会社ＮＡＮＡＴＥＮ,,株式会社,神奈川県,川崎市多摩区,西生田２丁目１番２５号－１０２,,14,135,2140037,,,,,,,2023-01-31,1,,,,,ナナテン,0
1383,5020001150044,新規,0,2023-01-31,2023-01-31,エンビジョン株式会社,,株式会社,神奈川県,川崎市多摩区,三田４丁目８番地８センチュリー生田３１０,,14,135,2140034,,,,,,,2023-01-31,1,,,,,エンビジョン,0
1386,5020003023207,新規,0,2023-01-31,2023-01-31,ＴＲＵＴＨ合同会社,,合同会社,神奈川県,横浜市青葉区,荏子田２丁目３２番地５５,,14,117,2250005,,,,,,,2023-01-31,1,,,,,トゥルース,0
1387,5020005015838,新規,0,2023-01-31,2023-01-31,一般社団法人家具耐震診断士協会,,その他の設立登記法人,神奈川県,横浜市都筑区,中川中央１丁目２１番３ドゥーエセンター北２０１,,14,118,2240003,,,,,,,2023-01-31,1,,,,,カグタイシンシンダンシキョウカイ,0
1389,5021001078085,新規,0,2023-01-31,2023-01-31,株式会社サンテクノ,,株式会社,神奈川県,座間市,小松原１丁目１５番１０号,,14,216,2520002,,,,,,,2023-01-31,1,,,,,サンテクノ,0
1392,5021003012661,新規,0,2023-01-31,2023-01-31,合同会社テト,,合同会社,神奈川県,伊勢原市,笠窪４９３番地の４４,,14,214,2591137,,,,,,,2023-01-31,1,,,,,テト,0
1396,5030001152147,新規,0,2023-01-31,2023-01-31,株式会社トータルサポートサービス,,株式会社,埼玉県,白岡市,小久喜１６７８番地１,,11,246,3490217,,,,,,,2023-01-31,1,,,,,トータルサポートサービス,0
1397,5030001152171,新規,0,2023-01-31,2023-01-31,株式会社勝巳工業,,株式会社,埼玉県,春日部市,備後西５丁目１番３６号,,11,214,3440033,,,,,,,2023-01-31,1,,,,,カツミコウギョウ,0
1398,5030003021044,新規,0,2023-01-31,2023-01-31,合同会社プロダクトフリー,,合同会社,埼玉県,川口市,大字小谷場４２２番地の１１,,11,203,3330857,,,,,,,2023-01-31,1,,,,,プロダクトフリー,0
1413,5040001126819,新規,0,2023-01-31,2023-01-31,東来株式会社,,株式会社,千葉県,成田市,並木町２１９番地１５５ＳＵＮビル,,12,211,2860045,,,,,,,2023-01-31,1,,,,,トウライ,0
1414,5040001126851,新規,0,2023-01-31,2023-01-31,株式会社ＡＲＥＣＯＭＡ　ＣＯ．,,株式会社,千葉県,松戸市,中矢切５６５番地の１４,,12,207,2710095,,,,,,,2023-01-31,1,,,,,アレコマコウ,0
1464,5050001052279,新規,0,2023-01-31,2023-01-31,株式会社ＭＴＹ＆Ｋ,,株式会社,茨城県,水戸市,千波町１２６番地の６,,08,201,3100851,,,,,,,2023-01-31,1,,,,,エムテイワイアンドケイ,0
1480,5090001017955,新規,0,2023-01-31,2023-01-31,株式会社ｆｉｎｄｉｃｓ,,株式会社,山梨県,中央市,下三條９８５番地２,,19,214,4093822,,,,,,,2023-01-31,1,,,,,ファインディクス,0
1482,5100001036103,新規,0,2023-01-31,2023-01-31,株式会社ＭＩＮＯＷＡ,,株式会社,長野県,上田市,天神４丁目２４番２１号,,20,203,3860025,,,,,,,2023-01-31,1,,,,,ミノワ,0
1487,5110001037257,新規,0,2023-01-31,2023-01-31,株式会社平間興業,,株式会社,新潟県,新潟市秋葉区,天ヶ沢３６番地,,15,105,9560114,,,,,,,2023-01-31,1,,,,,ヘイマコウギョウ,0
1489,5110003004973,新規,0,2023-01-31,2023-01-31,ＳＡＫＵＲＡ　ＫＯＩＪＡＰＡＮ合同会社,,合同会社,新潟県,長岡市,中沢４丁目４２２番地１,,15,202,9400853,,,,,,,2023-01-31,1,,,,,サクラコイジャパン,0
1496,5120001252136,新規,0,2023-01-31,2023-01-31,株式会社Ａｓａｇｉ　Ａｎｔｉｑｕｅｓ,,株式会社,大阪府,大阪市中央区,西心斎橋１丁目８－１０,,27,128,5420086,,,,,,,2023-01-31,1,,,,,アサギアンティークス,0
1498,5120003023353,新規,0,2023-01-31,2023-01-31,盈成合同会社,,合同会社,大阪府,大阪市淀川区,三津屋北１丁目３６番１０号２３４室,,27,123,5320032,,,,,,,2023-01-31,1,,,,,エイセイ,0
1502,5120101066907,新規,0,2023-01-31,2023-01-31,株式会社メルフィデザインホーム,,株式会社,大阪府,堺市中区,平井２５２番地９ダイキチビル１階,,27,142,5998251,,,,,,,2023-01-31,1,,,,,メルフィデザインホーム,0
1507,5120901047049,新規,0,2023-01-31,2023-01-31,ＴＡＫＡＹＡ株式会社,,株式会社,大阪府,高槻市,東五百住町３丁目１４番１５号,,27,207,5690811,,,,,,,2023-01-31,1,,,,,タカヤ,0
1510,5120903004477,新規,0,2023-01-31,2023-01-31,シーアイ産業合同会社,,合同会社,大阪府,高槻市,芝生町３丁目２７番３号,,27,207,5690823,,,,,,,2023-01-31,1,,,,,シーアイサンギョウ,0
1516,5130001073572,新規,0,2023-01-31,2023-01-31,株式会社Ｎｉｐｐｏｎ　ｃｌｉｃｋ,,株式会社,京都府,城陽市,平川長筬５番地７,,26,207,6100101,,,,,,,2023-01-31,1,,,,,ニッポンクリック,0
1518,5140001128912,新規,0,2023-01-31,2023-01-31,ブロードファースト株式会社,,株式会社,兵庫県,明石市,東野町２０４３番地の２４,,28,203,6730844,,,,,,,2023-01-31,1,,,,,ブロードファースト,0
1519,5140001128945,新規,0,2023-01-31,2023-01-31,株式会社月見山総合研究所,,株式会社,兵庫県,神戸市須磨区,行幸町１丁目１番３３－２８０６号,,28,107,6540052,,,,,,,2023-01-31,1,,,,,ツキミヤマソウゴウケンキュウショ,0
1520,5140003018665,新規,0,2023-01-31,2023-01-31,ＳＩＳＵ合同会社,,合同会社,兵庫県,神戸市北区,日の峰５丁目１０番地４－７０３,,28,109,6511233,,,,,,,2023-01-31,1,,,,,シス,0
1522,5140005026468,新規,0,2023-01-31,2023-01-31,特定非営利活動法人ＭＩＲＡＩラボ,,その他の設立登記法人,兵庫県,洲本市,由良町由良５６９番地８,,28,205,6562543,,,,,,,2023-01-31,1,,,,,ミライラボ,0
1524,5150001026140,新規,0,2023-01-31,2023-01-31,株式会社Ｏｎｅｓｅｌｆｓ,,株式会社,奈良県,桜井市,大字阿部３２５番地の１,,29,206,6330054,,,,,,,2023-01-31,1,,,,,ワンセルフス,0
1527,5160001024795,新規,0,2023-01-31,2023-01-31,株式会社ハマダ工業,,株式会社,滋賀県,栗東市,坊袋５６番地１０,,25,208,5203023,,,,,,,2023-01-31,1,,,,,ハマダコウギョウ,0
1531,5180001154764,新規,0,2023-01-31,2023-01-31,株式会社ＳＴＡＲＦＩＥＬＤ,,株式会社,愛知県,名古屋市緑区,大高町字砂畑３４番,,23,114,4598001,,,,,,,2023-01-31,1,,,,,スターフィールド,0
1534,5180305009441,新規,0,2023-01-31,2023-01-31,ＡＵＴ協同組合,,その他の設立登記法人,愛知県,豊橋市,札木町２３番地,,23,201,4400893,,,,,,,2023-01-31,1,,,,,エーユーティー,0
1540,5200003005822,新規,0,2023-01-31,2023-01-31,合同会社ＷＩＴＨ　ＬＩＦＥ,,合同会社,岐阜県,大垣市,笠木町３３―４,,21,202,5030023,,,,,,,2023-01-31,1,,,,,ウィズライフ,0
1549,5290001054103,新規,0,2023-01-31,2023-01-31,山藤商事株式会社,,株式会社,福岡県,大牟田市,大正町２丁目５番地の１,,40,202,8360047,,,,,,,2023-01-31,1,,,,,ヤマフジショウジ,0
1557,5330001030537,新規,0,2023-01-31,2023-01-31,株式会社イージックス,,株式会社,熊本県,熊本市中央区,白山２丁目４番１９号４１０,,43,101,8620959,,,,,,,2023-01-31,1,,,,,イージックス,0
1558,5330001030545,新規,0,2023-01-31,2023-01-31,株式会社大虎林業,,株式会社,熊本県,球磨郡あさぎり町,上南１３９９番地１,,43,514,8680423,,,,,,,2023-01-31,1,,,,,タイガリンギョウ,0
1566,5340001025321,新規,0,2023-01-31,2023-01-31,ＣＩＡＮ株式会社,,株式会社,鹿児島県,奄美市,笠利町大字万屋９５番２,,46,222,8940502,,,,,,,2023-01-31,1,,,,,シアン,0
1569,5340003004034,新規,0,2023-01-31,2023-01-31,合同会社ＥｘＺｅｅｄ,,合同会社,鹿児島県,霧島市,国分上小川７６３－２,,46,218,8994316,,,,,,,2023-01-31,1,,,,,,0
1572,5350005006135,新規,0,2023-01-31,2023-01-31,医療法人社団緑永会,,その他の設立登記法人,宮崎県,延岡市,緑ケ丘２丁目８番１１号,,45,203,8820863,,,,,,,2023-01-31,1,,,,,リョクエイカイ,0
1581,5420003002657,新規,0,2023-01-31,2023-01-31,合同会社佐大,,合同会社,青森県,三戸郡南部町,大字剣吉字中町１０番地６,,02,445,0390612,,,,,,,2023-01-31,1,,,,,サダイ,0
1587,5430001088326,新規,0,2023-01-31,2023-01-31,株式会社ＷＡＹＡＷＡＹＡ,,株式会社,北海道,札幌市白石区,本郷通８丁目南３－２３エターナルＦ２階,,01,104,0030024,,,,,,,2023-01-31,1,,,,,ワヤワヤ,0
1596,5450003002290,新規,0,2023-01-31,2023-01-31,合同会社Ｅｍｍａ　ｃｏｒｐｏｒａｔｉｏｎ,,合同会社,北海道,空知郡中富良野町,西町４番１５－１０１号,,01,461,0710761,,,,,,,2023-01-31,1,,,,,エマコーポレーション,0
1600,5490001010390,新規,0,2023-01-31,2023-01-31,株式会社ＬｉｎＱ建築設計,,株式会社,高知県,吾川郡いの町,駅南町６２番地４森沢ワンハイツＩＩＩ２０３号,00129280,39,386,7812106,,,,,,,2023-01-31,1,,,,,リンクケンチクセッケイ,0
1602,5700150114037,新規,0,2023-01-31,2023-01-31,株式会社ＬＰＫ　ＨＩＧＨＴＥＣＨ,,外国会社等,大阪府,大阪市中央区,安土町２丁目３－１３大阪国際ビルディング３１階（コトラ大阪ＧＰセンター内）,,27,128,5410052,大韓民国京義道華城市長安面ムボンギル２００－４４（石浦里）,,,,,,2023-01-31,1,,,,,カブシキガイシヤエルピーケーハイテツク,0
1603,5700150114045,新規,0,2023-01-31,2023-01-31,ＡＣＴＩＶＥ　ＣＡＰＩＴＡＬ　ＧＬＯＢＡＬ　ＬＩＭＩＴＥＤ,,外国会社等,北海道,虻田郡ニセコ町,字ニセコ４３０－４,,01,395,0481511,Ｗｉｃｋｈａｍｓ　Ｃａｙ　ＩＩ，Ｒｏａｄ　Ｔｏｗｎ，Ｔｏｒｔｏｌａ，ＶＧ　１１１０，ＢＶＩ,00129272,,,,,2023-01-31,1,,,,,アクテイブキヤピタルグローバルリミテツド,0
1604,5700150114053,新規,0,2023-01-31,2023-01-31,Ｓｈｅｎｚｈｅｎ　ｙｕｓｈｅｎｇ　ｔｒａｄｅ　ｔｅｃｈｎｏｌｏｇｙ　ｃｏ．ＬＴＤ,,外国会社等,,,,,,,,ｓｈｅｎｚｈｅｎｓｈｉ　ｌｏｎｇｇａｎｇｑｕ　ｂａｎｔｉａｎｊｉｅｄａｏ　ｎａｎｋｅｎｇｓｈｅｑｕｗｕｈｅｄａｄａｏ（ｎａｎ）４１ｈａｏ　ｈｅｋａｎｇｏｎｇｙｅｑｕＡ３ｄｏｎｇ２ｃｅｎｇ２０２，Ｃｈｉｎａ,,,,,,2023-01-31,1,,,,,シンセンシユセントレードテクノロジーカンパニーリミテッド,0
1605,5700150114061,新規,0,2023-01-31,2023-01-31,ｄｏｎｇｇｕａｎｓｈｉ　ｘｉｎｈｕａｉｄｅ　ｄｉａｎｚｉｓｈａｎｇｗｕ　ｙｏｕｘｉａｎｇｏｎｇｓｉ,,外国会社等,,,,,,,,ｎａｎｃｈｅｎｇｑｕ，ｙｕａｎｗｕｂｉａｎ，ｇｕａｎｔａｉｌｕ，ｈｕａｙｕａｎｄａｓｈａ１３０１，ｄｏｎｇｇｕａｎｓｈｉ，ｇｕａｎｇｄｏｎｇｓｈｅｎｇ，Ｃｈｉｎａ,,,,,,2023-01-31,1,,,,,ドングアイシシンフアイデデンシショウムユウゲンコウシ,0
1629,6010001232569,新規,0,2023-01-31,2023-01-31,Ｓｔｕｄｉｏ　Ｋｕｕ株式会社,,株式会社,東京都,中央区,日本橋浜町２丁目５４番５号ゼファーズ３Ａ,,13,102,1030007,,,,,,,2023-01-31,1,,,,,スタディオクー,0
1630,6010001232585,新規,0,2023-01-31,2023-01-31,ＪＰＶ第１１号株式会社,,株式会社,東京都,千代田区,霞が関３丁目２番１号,,13,101,1000013,,,,,,,2023-01-31,1,,,,,ジェイピーブイダイジュウイチゴウ,0
1631,6010001232593,新規,0,2023-01-31,2023-01-31,株式会社グルフリ,,株式会社,東京都,中央区,銀座１丁目２２番１１号銀座大竹ビジデンス２Ｆ,,13,102,1040061,,,,,,,2023-01-31,1,,,,,グルフリ,0
1632,6010001232627,新規,0,2023-01-31,2023-01-31,株式会社ナンバーエイト,,株式会社,東京都,中央区,京橋３丁目１番１号,,13,102,1040031,,,,,,,2023-01-31,1,,,,,ナンバーエイト,0
1634,6010003039715,新規,0,2023-01-31,2023-01-31,日本アイ・ビー・エムＲ＆Ｄマネジメント合同会社,,合同会社,東京都,中央区,日本橋箱崎町１９番２１号,,13,102,1030015,,,,,,,2023-01-31,1,,,,,ニホンアイビーエムアールアンドディーマネジメント,0
1638,6010005036173,新規,0,2023-01-31,2023-01-31,一般社団法人アウトドアサウナ協会,,その他の設立登記法人,東京都,中央区,築地６丁目１６番１号株式会社メトス内,,13,102,1040045,,,,,,,2023-01-31,1,,,,,アウトドアサウナキョウカイ,0
1649,6010401172150,新規,0,2023-01-31,2023-01-31,ＮＣＯＭＩＣ株式会社,,株式会社,東京都,港区,六本木６丁目２番３１号六本木ヒルズノースタワー１７階,,13,103,1060032,,,,,,,2023-01-31,1,,,,,エヌコミック,0
1650,6010401172159,新規,0,2023-01-31,2023-01-31,株式会社的場,,株式会社,東京都,港区,虎ノ門３丁目１９番７号,,13,103,1050001,,,,,,,2023-01-31,1,,,,,マトバ,0
1651,6010401172175,新規,0,2023-01-31,2023-01-31,アーキテックジャパンホーム株式会社,,株式会社,東京都,港区,芝大門２丁目９番１８号,,13,103,1050012,,,,,,,2023-01-31,1,,,,,アーキテックジャパンホーム,0
1653,6010405021741,新規,0,2023-01-31,2023-01-31,一般社団法人ｈａｎｄｙ,,その他の設立登記法人,東京都,港区,高輪４丁目２１番１４号,,13,103,1080074,,,,,,,2023-01-31,1,,,,,ハンディ,0
1654,6010501049934,新規,0,2023-01-31,2023-01-31,サードコネクト株式会社,,株式会社,東京都,台東区,東上野３丁目１４番１２号ＵＥＮＯＢＬＤＧ．３０３号室,,13,106,1100015,,,,,,,2023-01-31,1,,,,,サードコネクト,0
1658,6010601062515,新規,0,2023-01-31,2023-01-31,ナカジマホールディングス株式会社,,株式会社,東京都,江東区,東砂６丁目１１番７号,,13,108,1360074,,,,,,,2023-01-31,1,,,,,ナカジマホールディングス,0
1659,6010601062523,新規,0,2023-01-31,2023-01-31,株式会社マイスワーク,,株式会社,東京都,墨田区,東向島１丁目２４番１９号,,13,107,1310032,,,,,,,2023-01-31,1,,,,,マイスワーク,0
1660,6010601062531,新規,0,2023-01-31,2023-01-31,クラウドメッセンジャー株式会社,,株式会社,東京都,江東区,有明３丁目７番２６号,,13,108,1350063,,,,,,,2023-01-31,1,,,,,クラウドメッセンジャー,0
1661,6010603009976,新規,0,2023-01-31,2023-01-31,青森Ｓｏｕｌｓ合同会社,,合同会社,東京都,江東区,亀戸６丁目２４－１－１０４,,13,108,1360071,,,,,,,2023-01-31,1,,,,,アオモリソウルズ,0
1663,6010801033646,新規,0,2023-01-31,2023-01-31,株式会社宇庭,,株式会社,東京都,大田区,大森西２丁目３番１号田中ビル７０３,,13,111,1430015,,,,,,,2023-01-31,1,,,,,タカテイ,0
1667,6010901052430,新規,0,2023-01-31,2023-01-31,株式会社Ｏｄｅｓｓａ１２,,株式会社,東京都,世田谷区,八幡山１丁目６番１２号,,13,112,1560056,,,,,,,2023-01-31,1,,,,,オデッサトゥエルブ,0
1668,6010901052439,新規,0,2023-01-31,2023-01-31,ＣａｔＳ株式会社,,株式会社,東京都,世田谷区,太子堂１丁目１２－２７コンフォートテラス１００５号,,13,112,1540004,,,,,,,2023-01-31,1,,,,,,0
1669,6010901052447,新規,0,2023-01-31,2023-01-31,株式会社ＣＯＣＯ　Ｂｅａｕｔｙ　Ｃｒｅａｔｉｏｎ,,株式会社,東京都,世田谷区,奥沢２丁目４５－１５ｎｏａｍ１０２,,13,112,1580083,,,,,,,2023-01-31,1,,,,,ココビューティクリエイション,0
1671,6010903007928,新規,0,2023-01-31,2023-01-31,フルムーンキャピタル合同会社,,合同会社,東京都,世田谷区,桜丘５丁目１８番１３号スプリングテラス１０２,,13,112,1560054,,,,,,,2023-01-31,1,,,,,フルムーンキャピタル,0
1672,6010903007936,新規,0,2023-01-31,2023-01-31,Ｗｈｉｔｅ　Ｈａｗｋｓ合同会社,,合同会社,東京都,世田谷区,上祖師谷２丁目２８番３号第２佐益ハイツ２０３,,13,112,1570065,,,,,,,2023-01-31,1,,,,,ホワイトホークス,0
1674,6011001152220,新規,0,2023-01-31,2023-01-31,株式会社ａｒｕｃｓ,,株式会社,東京都,渋谷区,神宮前６丁目２９番４号原宿ｋｏｍｉｙａビル６階,,13,113,1500001,,,,,,,2023-01-31,1,,,,,アルクス,0
1675,6011001152237,新規,0,2023-01-31,2023-01-31,株式会社ドミトル,,株式会社,東京都,渋谷区,道玄坂１丁目１０番８号渋谷道玄坂東急ビル２Ｆ－Ｃ,,13,113,1500043,,,,,,,2023-01-31,1,,,,,ドミトル,0
1676,6011001152261,新規,0,2023-01-31,2023-01-31,トイコーエステート株式会社,,株式会社,東京都,渋谷区,道玄坂２丁目１８－１１サンモール道玄坂２１８,,13,113,1500043,,,,,,,2023-01-31,1,,,,,トイコーエステート,0
1677,6011001152286,新規,0,2023-01-31,2023-01-31,株式会社ＧＬＥＡＮ,,株式会社,東京都,渋谷区,広尾１丁目３番１４号,,13,113,1500012,,,,,,,2023-01-31,1,,,,,グリーン,0
1678,6011001152303,新規,0,2023-01-31,2023-01-31,株式会社Ｗｒｉｃｈ,,株式会社,東京都,渋谷区,神宮前６丁目２３番４号桑野ビル２階,,13,113,1500001,,,,,,,2023-01-31,1,,,,,リッチ,0
1679,6011001152311,新規,0,2023-01-31,2023-01-31,株式会社Ｍｅｄｉｔｏｒ,,株式会社,東京都,渋谷区,松濤２丁目１２番１１号,,13,113,1500046,,,,,,,2023-01-31,1,,,,,メディター,0
1681,6011005009920,新規,0,2023-01-31,2023-01-31,一般社団法人肌管理研究所,,その他の設立登記法人,東京都,目黒区,目黒本町２丁目４番１２号,,13,110,1520002,,,,,,,2023-01-31,1,,,,,ハダカンリケンキュウジョ,0
1686,6011101101696,新規,0,2023-01-31,2023-01-31,株式会社ケイツー,,株式会社,東京都,新宿区,西新宿３丁目７番１号新宿パークタワーＮ３０階,,13,104,1600023,,,,,,,2023-01-31,1,,,,,ケイツー,0
1693,6011403003896,新規,0,2023-01-31,2023-01-31,ティーアンドエー合同会社,,合同会社,東京都,板橋区,双葉町４０－１５ケンコーポラス１０５号,,13,119,1730011,,,,,,,2023-01-31,1,,,,,ティーアンドエー,0
1694,6011501028911,新規,0,2023-01-31,2023-01-31,株式会社Ｗａｌｔ,,株式会社,東京都,北区,王子５丁目６番２２－１０３号サンフレックス,,13,117,1140002,,,,,,,2023-01-31,1,,,,,ウォルト,0
1695,6011503005462,新規,0,2023-01-31,2023-01-31,合同会社ムラサキ,,合同会社,東京都,荒川区,西尾久７丁目１０番２号１階,,13,118,1160011,,,,,,,2023-01-31,1,,,,,ムラサキ,0
1696,6011601026542,新規,0,2023-01-31,2023-01-31,株式会社和輝,,株式会社,東京都,練馬区,石神井台５丁目２番４号ライフピアストーン２０４号室,,13,120,1770045,,,,,,,2023-01-31,1,,,,,ワキ,0
1699,6011701025972,新規,0,2023-01-31,2023-01-31,株式会社ＭＩＲＡＩＲＩＳ,,株式会社,東京都,江戸川区,船堀３丁目５番７－１１０１号,,13,123,1340091,,,,,,,2023-01-31,1,,,,,ミライリス,0
1700,6012301013293,新規,0,2023-01-31,2023-01-31,株式会社ＧＴＲｅａｌｉｓｅｒ,,株式会社,東京都,町田市,忠生３丁目１６番地１７,,13,209,1940035,,,,,,,2023-01-31,1,,,,,,0
1703,6012401040122,新規,0,2023-01-31,2023-01-31,フォーランドインターナショナル株式会社,,株式会社,東京都,小金井市,貫井北町３丁目３９番２３号,,13,210,1840015,,,,,,,2023-01-31,1,,,,,フォーランドインターナショナル,0
1704,6012403005800,新規,0,2023-01-31,2023-01-31,合同会社ＭＲｍｏｕｎｔａｉｎ,,合同会社,東京都,調布市,若葉町２丁目１１番地１パークスクエア武蔵野８０４,,13,208,1820003,,,,,,,2023-01-31,1,,,,,ミスターマウンテン,0
1705,6012701017456,新規,0,2023-01-31,2023-01-31,株式会社ブルックメンテナンス,,株式会社,東京都,東久留米市,八幡町３丁目１１番１６号,,13,222,2030042,,,,,,,2023-01-31,1,,,,,ブルックメンテナンス,0
1710,6013301050260,新規,0,2023-01-31,2023-01-31,株式会社Ｙ＆Ｓ　ｆａｍｉｌｉａ,,株式会社,東京都,豊島区,高松２丁目５番１８号シャトー高松２０１号,,13,116,1710042,,,,,,,2023-01-31,1,,,,,ワイアンドエスファミリア,0
1720,6020003023206,新規,0,2023-01-31,2023-01-31,合同会社Ｒｅ‐ｂｉｒｔｈ,,合同会社,神奈川県,川崎市多摩区,西生田４丁目３番１３－１０１号読売ランドシティハウス,,14,135,2140037,,,,,,,2023-01-31,1,,,,,リバース,0
1721,6020003023222,新規,0,2023-01-31,2023-01-31,ライドオンタイム合同会社,,合同会社,神奈川県,横浜市戸塚区,上矢部町３２０番地２,,14,110,2450053,,,,,,,2023-01-31,1,,,,,ライドオンタイム,0
1730,6021003012677,新規,0,2023-01-31,2023-01-31,合同会社ＮＥＯＮ,,合同会社,神奈川県,藤沢市,片瀬海岸２丁目２０－１２オハナテラス２Ｆ,,14,205,2510035,,,,,,,2023-01-31,1,,,,,ネオン,0
1739,6030001152154,新規,0,2023-01-31,2023-01-31,株式会社ハシバミスタジオ,,株式会社,埼玉県,川越市,広谷新町２番地１８,,11,201,3500805,,,,,,,2023-01-31,1,,,,,ハシバミスタジオ,0
1740,6030001152179,新規,0,2023-01-31,2023-01-31,株式会社日高農園,,株式会社,埼玉県,日高市,大字旭ケ丘４９２番地３,,11,242,3501203,,,,,,,2023-01-31,1,,,,,ヒダカノウエン,0
1743,6030003021035,新規,0,2023-01-31,2023-01-31,合同会社ＤＥＣＨＯ,,合同会社,埼玉県,川口市,芝富士２丁目９－１１,,11,203,3330854,,,,,,,2023-01-31,1,,,,,デチョ,0
1744,6030003021051,新規,0,2023-01-31,2023-01-31,合同会社Ｇａｒｄｅｎ,,合同会社,埼玉県,入間市,大字中神８１１番地４,,11,225,3580035,,,,,,,2023-01-31,1,,,,,ガーデン,0
1745,6030003021076,新規,0,2023-01-31,2023-01-31,Ｊ．Ｋ．Ｓ　ＮＩＰＰＯＮ合同会社,,合同会社,埼玉県,熊谷市,柿沼字金附免２１５－２,,11,202,3600803,,,,,,,2023-01-31,1,,,,,ジェーケーエスニッポン,0
1764,6040001126743,新規,0,2023-01-31,2023-01-31,中台建設株式会社,,株式会社,千葉県,千葉市中央区,宮崎町５７２番地の１３,,12,101,2600805,,,,,,,2023-01-31,1,,,,,ナカダイケンセツ,0
1765,6040001126834,新規,0,2023-01-31,2023-01-31,株式会社ＡｋｉｒＡ,,株式会社,千葉県,船橋市,二和東５丁目２５番２０号,,12,204,2740805,,,,,,,2023-01-31,1,,,,,アキラ,0
1802,6050001052311,新規,0,2023-01-31,2023-01-31,株式会社大貴,,株式会社,茨城県,坂東市,内野山１１８０番地１,,08,228,3060514,,,,,,,2023-01-31,1,,,,,オオタカ,0
1804,6050005013202,新規,0,2023-01-31,2023-01-31,一般社団法人いたこミズベデザイン,,その他の設立登記法人,茨城県,潮来市,日の出１丁目１４番地１８,,08,223,3112423,,,,,,,2023-01-31,1,,,,,イタコミズベデザイン,0
1806,6060001035653,新規,0,2023-01-31,2023-01-31,グロースワーク株式会社,,株式会社,栃木県,佐野市,飯田町４６２番地,,09,204,3270825,,,,,,,2023-01-31,1,,,,,グロースワーク,0
1807,6060001035661,新規,0,2023-01-31,2023-01-31,株式会社石川運輸,,株式会社,栃木県,栃木市,城内町２丁目３７番１２号,,09,203,3280033,,,,,,,2023-01-31,1,,,,,イシカワウンユ,0
1827,6100001036093,新規,0,2023-01-31,2023-01-31,株式会社エーワイ警備,,株式会社,長野県,松本市,大字新村２９０９番地２,,20,202,3901241,,,,,,,2023-01-31,1,,,,,エーワイケイビ,0
1828,6100001036102,新規,0,2023-01-31,2023-01-31,ｈａｃｏｂｕｎｅ株式会社,,株式会社,長野県,松本市,元町１丁目６番１８号,,20,202,3900803,,,,,,,2023-01-31,1,,,,,ハコブネ,0
1830,6100003006862,新規,0,2023-01-31,2023-01-31,合同会社日本農業技術開発,,合同会社,長野県,下伊那郡阿南町,北條１４９８番地,,20,404,3991501,,,,,,,2023-01-31,1,,,,,ニホンノウギョウギジュツカイハツ,0
1842,6120001252036,新規,0,2023-01-31,2023-01-31,日本天潤株式会社,,株式会社,大阪府,大阪市東住吉区,鷹合４丁目２１番１６号３Ｆ－Ｃ,,27,121,5460014,,,,,,,2023-01-31,1,,,,,ニホンテンジュン,0
1843,6120001252135,新規,0,2023-01-31,2023-01-31,株式会社カイズコーポレーション,,株式会社,大阪府,大阪市中央区,釣鐘町２丁目３番１７号,,27,128,5400035,,,,,,,2023-01-31,1,,,,,カイズコーポレーション,0
1847,6120003023344,新規,0,2023-01-31,2023-01-31,合同会社Ｌｉｂｅｒｔｙ,,合同会社,大阪府,枚方市,伊加賀北町８番１－４１２号,,27,210,5730036,,,,,,,2023-01-31,1,,,,,リバティ,0
1848,6120005023441,新規,0,2023-01-31,2023-01-31,関西自動車運送事業協同組合,,その他の設立登記法人,大阪府,大阪市北区,東天満２丁目２番１７号,,27,127,5300044,,,,,,,2023-01-31,1,,,,,カンサイジドウシャウンソウジギョウ,0
1849,6120101066906,新規,0,2023-01-31,2023-01-31,エンリッチホーム株式会社,,株式会社,大阪府,堺市堺区,北花田口町１丁２－１５パークシティ堺東タワーズブライト１５１６,,27,141,5900074,,,,,,,2023-01-31,1,,,,,エンリッチホーム,0
1850,6120103005060,新規,0,2023-01-31,2023-01-31,ユパック大阪メンテナンス合同会社,,合同会社,大阪府,堺市美原区,南余部２４５番地６,,27,147,5870052,,,,,,,2023-01-31,1,,,,,ユパックオオサカメンテナンス,0
1853,6120905006421,新規,0,2023-01-31,2023-01-31,医療法人薫陶会,,その他の設立登記法人,大阪府,茨木市,新中条町１番３０号ビエラ茨木新中条２階,,27,211,5670872,,,,,,,2023-01-31,1,,,,,クントウカイ,0
1856,6122001036633,新規,0,2023-01-31,2023-01-31,株式会社松井建設,,株式会社,大阪府,大東市,灰塚４丁目５番２号,,27,218,5740043,,,,,,,2023-01-31,1,,,,,マツイケンセツ,0
1864,6140001128894,新規,0,2023-01-31,2023-01-31,株式会社ＡＭＡＹＯＫＩ,,株式会社,兵庫県,神戸市西区,学園東町７丁目２番地の１３,,28,111,6512102,,,,,,,2023-01-31,1,,,,,アマヨキ,0
1865,6140001128911,新規,0,2023-01-31,2023-01-31,株式会社ＩＣ,,株式会社,兵庫県,尼崎市,三反田町３丁目１２番３号,,28,202,6610024,,,,,,,2023-01-31,1,,,,,アイシー,0
1866,6140001128944,新規,0,2023-01-31,2023-01-31,Ａｓｓｅｔ　Ｌａｂ株式会社,,株式会社,兵庫県,伊丹市,西台３丁目２番２５－８０８号,,28,207,6640858,,,,,,,2023-01-31,1,,,,,アセットラボ,0
1869,6150003002873,新規,0,2023-01-31,2023-01-31,ＭＣＮ　Ｓｏｌｕｔｉｏｎｓ合同会社,,合同会社,奈良県,生駒市,上町１２５８番地２,,29,209,6300131,,,,,,,2023-01-31,1,,,,,,0
1879,6180001154730,新規,0,2023-01-31,2023-01-31,株式会社Ｆ＆Ｎ,,株式会社,愛知県,名古屋市中区,大須３丁目３１番３２号カワエツＢビル１Ａ,,23,106,4600011,,,,,,,2023-01-31,1,,,,,エフアンドエヌ,0
1880,6180001154747,新規,0,2023-01-31,2023-01-31,株式会社エデュテック,,株式会社,愛知県,丹羽郡扶桑町,大字南山名字寺前２６番地,,23,362,4800105,,,,,,,2023-01-31,1,,,,,エデュテック,0
1881,6180001154755,新規,0,2023-01-31,2023-01-31,株式会社角建,,株式会社,愛知県,名古屋市中川区,野田２丁目４３７番地,,23,110,4540912,,,,,,,2023-01-31,1,,,,,スミケン,0
1883,6180003024733,新規,0,2023-01-31,2023-01-31,合同会社魁,,合同会社,愛知県,稲沢市,稲沢町前田１８４番地５メゾン前田１０２,,23,220,4928217,,,,,,,2023-01-31,1,,,,,サキガケ,0
1885,6180301037049,新規,0,2023-01-31,2023-01-31,株式会社ＵＥＤＡ,,株式会社,愛知県,岡崎市,末広町３番地７鈴木ビル１階,,23,202,4440914,,,,,,,2023-01-31,1,,,,,ウエダ,0
1886,6200001040911,新規,0,2023-01-31,2023-01-31,株式会社渡部ビジネスコンサルティング,,株式会社,岐阜県,岐阜市,長良小松町２丁目１番地,,21,201,5020052,,,,,,,2023-01-31,1,,,,,ワタナベビジネスコンサルティング,0
1888,6200003005821,新規,0,2023-01-31,2023-01-31,合同会社ＯＮＥＡＩＲ,,合同会社,岐阜県,大垣市,中野町４丁目９８番地４,,21,202,5030022,,,,,,,2023-01-31,1,,,,,ワンエア,0
1895,6290001100269,新規,0,2023-01-31,2023-01-31,株式会社ＴＯＣＯＭＡコンサルティング,,株式会社,福岡県,福岡市博多区,博多駅前４丁目１８－２５ＥＳＬＥＡＤＧＲＡＮＤＢＵＲＥＡＵＨＡＫＡＴＡＥＫＩＭＡＥ２０１,,40,132,8120011,,,,,,,2023-01-31,1,,,,,トコマコンサルティング,0
1896,6290001100368,新規,0,2023-01-31,2023-01-31,株式会社朝日企画,,株式会社,福岡県,大野城市,大城２丁目２４番１３号,,40,219,8160911,,,,,,,2023-01-31,1,,,,,アサヒキカク,0
1897,6290001100401,新規,0,2023-01-31,2023-01-31,株式会社康輝ブリッジ,,株式会社,福岡県,福岡市博多区,博多駅前４丁目１１番１０号ダイアパレス博多７０３号室,,40,132,8120011,,,,,,,2023-01-31,1,,,,,コウキブリッジ,0
1899,6290003013436,新規,0,2023-01-31,2023-01-31,合同会社ＲＪＰＲｅｃｒｕｉｔｍｅｎｔ,,合同会社,福岡県,糟屋郡粕屋町,大字大隈１２２－１モアプラス門松駅前２０３号,,40,349,8112302,,,,,,,2023-01-31,1,,,,,アールジェイピーリクルートメント,0
1900,6290005018937,新規,0,2023-01-31,2023-01-31,医療法人楓の会,,その他の設立登記法人,福岡県,久留米市,小森野４丁目１８番２８号,,40,203,8300001,,,,,,,2023-01-31,1,,,,,カエデノカイ,0
1901,6290801029245,新規,0,2023-01-31,2023-01-31,株式会社ＳＴＡＮＤ　ＵＰ,,株式会社,福岡県,北九州市小倉南区,北方２丁目４番１号,,40,107,8020841,,,,,,,2023-01-31,1,,,,,スタンドアップ,0
1905,6310003004507,新規,0,2023-01-31,2023-01-31,合同会社ＴＳＣサロン,,合同会社,長崎県,諫早市,青葉台４４,,42,204,8540068,,,,,,,2023-01-31,1,,,,,ティーエスシーサロン,0
1906,6320002022863,新規,0,2023-01-31,2023-01-31,有限会社吉野ガーデン,,有限会社,大分県,大分市,三佐３丁目１１番２１号,,44,201,8700108,,,,,,,2023-01-31,1,,,,,ヨシノガーデン,0
1907,6320003004010,新規,0,2023-01-31,2023-01-31,小林財経合同会社,,合同会社,大分県,中津市,本耶馬渓町折元９２５番地１,,44,203,8710312,,,,,,,2023-01-31,1,,,,,コバヤシザイケイ,0
1908,6330001030544,新規,0,2023-01-31,2023-01-31,株式会社かれん,,株式会社,熊本県,熊本市中央区,水前寺公園１４－２２パークビル５Ｆ,,43,101,8620956,,,,,,,2023-01-31,1,,,,,カレン,0
1910,6330003009702,新規,0,2023-01-31,2023-01-31,合同会社ひるかわ運送,,合同会社,熊本県,熊本市西区,春日１丁目１番９号ラシック熊本駅前ＩＩ７０１号,00129275,43,103,8600047,,,,,,,2023-01-31,1,,,,,ヒルカワウンソウ,0
1911,6340001001429,新規,0,2023-01-31,2023-01-31,九州産業株式会社,,株式会社,鹿児島県,鹿児島市,小山田町３３７番地１,,46,201,8911231,,,,,,,2023-01-31,1,,,,,キュウシュウサンギョウ,0
1914,6340001025329,新規,0,2023-01-31,2023-01-31,株式会社ＨＡＰＴ,,株式会社,鹿児島県,鹿児島市,小野町４９９３番地２,,46,201,8900022,,,,,,,2023-01-31,1,,,,,ハプト,0
1915,6340003004033,新規,0,2023-01-31,2023-01-31,合同会社ＮＡＲＵＨＯＩＹＡ,,合同会社,鹿児島県,姶良市,蒲生町上久徳２３９６,,46,225,8995302,,,,,,,2023-01-31,1,,,,,ナルホイヤ,0
1918,6370001049548,新規,0,2023-01-31,2023-01-31,株式会社匠,,株式会社,宮城県,亘理郡亘理町,字東郷１７０－１コートクレアールＣ－１０１,,04,361,9892351,,,,,,,2023-01-31,1,,,,,タクミ,0
1921,6420003002656,新規,0,2023-01-31,2023-01-31,合同会社ＢＩＫＩ,,合同会社,青森県,弘前市,大字西茂森１丁目２番地３,,02,202,0368273,,,,,,,2023-01-31,1,,,,,ビキ,0
1924,6430001088309,新規,0,2023-01-31,2023-01-31,株式会社クラフトスコーレ,,株式会社,北海道,札幌市北区,北十一条西３丁目２３番地１ＴＨＥ　ＰＥＡＫ　ＳＡＰＰＯＲＯ１階,,01,102,0010011,,,,,,,2023-01-31,1,,,,,クラフトスコーレ,0
1925,6430001088325,新規,0,2023-01-31,2023-01-31,株式会社マルオ商事,,株式会社,北海道,札幌市手稲区,手稲本町二条２丁目４番２８－８０３号,,01,109,0060022,,,,,,,2023-01-31,1,,,,,マルオショウジ,0
1939,6700150114003,新規,0,2023-01-31,2023-01-31,高萩区,,その他,千葉県,香取市,高萩５５８番地１・５６０番地１,,12,236,2870101,,,,,,,2023-01-31,1,,,,,タカハギク,0
1940,6700150114036,新規,0,2023-01-31,2023-01-31,ＳＧＭ　Ｍａｇｎｅｔｉｃｓ　Ｓ．Ｐ．Ａ．,,外国会社等,愛知県,名古屋市中村区,名駅４丁目４番３８号,,23,105,4500002,イタリア共和国ブレシア県マネルビオ、レノ通り２／Ｄ,,,,,,2023-01-31,1,,,,,エスジーエムマグネテイツクスエスピーエー,0
1941,6700150114044,新規,0,2023-01-31,2023-01-31,Ｔ．Ｓ．ＬＩＮＥＳ　ＬＴＤ．，,,外国会社等,,,,,,,,９／Ｆ．，Ｃ－Ｂｏｎｓ　Ｉｎｔｅｒｎａｔｉｏｎａｌ　Ｃｅｎｔｅｒ，１０８　Ｗａｉ　Ｙｉｐ　Ｓｔｒｅｅｔ，Ｋｏｗｌｏｏｎ，Ｈｏｎｇ　Ｋｏｎｇ,,,,,,2023-01-31,1,,,,,テイエスラインズエルテイーデイー,0
1942,6700150114052,新規,0,2023-01-31,2023-01-31,ＣＲＥＡＴＩＶＥ　ＴＯＯＬＳ　ＨＫ　ＣＯＭＰＡＮＹ　ＬＩＭＩＴＥＤ,,外国会社等,,,,,,,,Ｒｏｏｍ　６０３，Ｋｉｎｇｈａｍ　Ｉｎｄｕｓｔｒｉａｌ　Ｂｕｉｌｄｉｎｇ，８　Ｗａｎｇ　Ｇｕａｎ　Ｒｏａｄ，Ｋｏｗｌｏｏｎ　Ｂａｙ，Ｈｏｎｇ　Ｋｏｎｇ,,,,,,2023-01-31,1,,,,,クリエイティブツールズホンコンカンパニーリミテッド,0
1943,6700150114060,新規,0,2023-01-31,2023-01-31,ｓｈｅｎｚｈｅｎ　ｓｏｕｎｄｓｏｕｌ　ｉｎｆｏｒｍａｔｉｏｎ　ｔｅｃｈｎｏｌｏｇｙ　ｌｔｄ,,外国会社等,,,,,,,,Ｒｍ　６０２－６１０　Ｂｌｄｇ　Ａ４，ＺｈｏｎｇＹｕＧｕａｎ　Ｉｎｄ　Ｚｏｎｅ　ＺｈｏｎｇＹｕＧｕａｎ　Ｒｏａｄ，Ｌｏｎｇｈｕａ　Ｄｉｓｔｒｉｃｔ　ｓｈｅｎｚｈｅｎ，Ｇｕａｎｇｄｏｎｇ　Ｐｒｏｖｉｎｃｅ，Ｃｈｉｎａ,,,,,,2023-01-31,1,,,,,シンセンサウンドソウルインフォメーションテクノロジーリミテッド,0
1976,7010001231751,新規,0,2023-01-31,2023-01-31,倶山国際株式会社,00129267,株式会社,東京都,中央区,築地７丁目１２－６－２０１,,13,102,1040045,,,,,,,2023-01-31,1,,,,,コトヤマコクサイ,0
1977,7010001232584,新規,0,2023-01-31,2023-01-31,ＪＰＶ第１０号株式会社,,株式会社,東京都,千代田区,霞が関３丁目２番１号,,13,101,1000013,,,,,,,2023-01-31,1,,,,,ジェイピーブイダイジュウゴウ,0
1978,7010001232601,新規,0,2023-01-31,2023-01-31,株式会社テトメ・プロモーション,,株式会社,東京都,中央区,日本橋２丁目２番３号ＲＩＳＨＥビルＵＣＦ４階,,13,102,1030027,,,,,,,2023-01-31,1,,,,,テトメプロモーション,0
1981,7010003039623,新規,0,2023-01-31,2023-01-31,エネルエックス・アドバイザリーサービス・ジャパン合同会社,,合同会社,東京都,千代田区,丸の内１丁目９番２号グラントウキョウサウスタワー１１階,,13,101,1000005,,,,,,,2023-01-31,1,,,,,エネルエックスアドバイザリーサービスジャパン,0
1982,7010003039714,新規,0,2023-01-31,2023-01-31,オフィスパスカル合同会社,,合同会社,東京都,千代田区,神田淡路町２丁目１クオリア御茶ノ水６０２,,13,101,1010063,,,,,,,2023-01-31,1,,,,,オフィスパスカル,0
1988,7010401172091,新規,0,2023-01-31,2023-01-31,株式会社７６,,株式会社,東京都,港区,六本木６丁目１５番１号,,13,103,1060032,,,,,,,2023-01-31,1,,,,,ナナジュウロク,0
1989,7010401172158,新規,0,2023-01-31,2023-01-31,株式会社ＬＩＫＥＡＲＩＳＩＮＧＳＵＮ,,株式会社,東京都,港区,浜松町２丁目２番１５号２Ｆ,,13,103,1050013,,,,,,,2023-01-31,1,,,,,ライクアライジングサン,0
1996,7010503006866,新規,0,2023-01-31,2023-01-31,合同会社文英堂印刷,,合同会社,東京都,台東区,千束２丁目４番１０号,,13,106,1110031,,,,,,,2023-01-31,1,,,,,ブンエイドウインサツ,0
1999,7010603009975,新規,0,2023-01-31,2023-01-31,合同会社Ｐｏｎｚｕ　Ｈｏｕｓｅ,,合同会社,東京都,江東区,深川１丁目１０番６号１４０１号室,,13,108,1350033,,,,,,,2023-01-31,1,,,,,ポンズハウス,0
2001,7010901052446,新規,0,2023-01-31,2023-01-31,株式会社ＧｒａｖｉＴ,,株式会社,東京都,世田谷区,玉川台２丁目２３番１号,,13,112,1580096,,,,,,,2023-01-31,1,,,,,グラビティ,0
2003,7010903007935,新規,0,2023-01-31,2023-01-31,合同会社ｔｏｃｏｔｏｎ,,合同会社,東京都,世田谷区,喜多見４丁目１９番１４号,,13,112,1570067,,,,,,,2023-01-31,1,,,,,トコトン,0
2011,7011001152252,新規,0,2023-01-31,2023-01-31,ＦＵＪＩＫＩＮＧ株式会社,,株式会社,東京都,渋谷区,富ヶ谷１丁目１４番１４号４階,,13,113,1510063,,,,,,,2023-01-31,1,,,,,フジキング,0
2015,7011103012635,新規,0,2023-01-31,2023-01-31,合同会社ＦＵＥＬ,,合同会社,東京都,新宿区,北新宿４丁目３番１１号２０４,,13,104,1690074,,,,,,,2023-01-31,1,,,,,フューエル,0
2025,7011401024869,新規,0,2023-01-31,2023-01-31,株式会社令和住販,,株式会社,東京都,板橋区,南常盤台２丁目４番２１号,,13,119,1740072,,,,,,,2023-01-31,1,,,,,レイワジュウハン,0
2026,7011403003895,新規,0,2023-01-31,2023-01-31,合同会社ＫＴコーポレーション,,合同会社,東京都,板橋区,常盤台３丁目１３－１３－５０２,,13,119,1740071,,,,,,,2023-01-31,1,,,,,ケイティコーポレーション,0
2029,7011601026541,新規,0,2023-01-31,2023-01-31,株式会社財務総合支援機構,,株式会社,東京都,練馬区,下石神井１丁目６番１８号,,13,120,1770042,,,,,,,2023-01-31,1,,,,,ザイムソウゴウシエンキコウ,0
2034,7012703002629,新規,0,2023-01-31,2023-01-31,ＧＲＡＳＰ合同会社,,合同会社,東京都,東久留米市,中央町１丁目７－１－６０２,,13,222,2030054,,,,,,,2023-01-31,1,,,,,グラスプ,0
2036,7012803002990,新規,0,2023-01-31,2023-01-31,合同会社ＢＥＳＴ　ＰＬＡＮ,,合同会社,東京都,日野市,多摩平３丁目１６番地の２０,,13,212,1910062,,,,,,,2023-01-31,1,,,,,ベストプラン,0
2041,7013303006482,新規,0,2023-01-31,2023-01-31,エフタル合名会社,,合名会社,東京都,豊島区,池袋３丁目５９番２号,,13,116,1710014,,,,,,,2023-01-31,1,,,,,エフタル,0
2044,7013305003437,新規,0,2023-01-31,2023-01-31,司法書士法人岡部事務所,,その他の設立登記法人,東京都,豊島区,南池袋２丁目１０番３号,,13,116,1710022,,,,,,,2023-01-31,1,,,,,オカベジムショ,0
2048,7020001150067,新規,0,2023-01-31,2023-01-31,株式会社国際創興業,,株式会社,神奈川県,横浜市保土ケ谷区,天王町１丁目２２番地１８－２０３号,,14,106,2400003,,,,,,,2023-01-31,1,,,,,コクサイソウコウギョウ,0
2054,7020003023155,新規,0,2023-01-31,2023-01-31,Ｕｎｉ合同会社,,合同会社,神奈川県,川崎市宮前区,土橋３丁目１８－７,,14,136,2160005,,,,,,,2023-01-31,1,,,,,ユニ,0
2055,7020003023188,新規,0,2023-01-31,2023-01-31,薫々堂ｌａｂｏｒａｔｏｒｙ合同会社,,合同会社,神奈川県,横浜市泉区,和泉中央南２丁目２６番５２号,,14,116,2450023,,,,,,,2023-01-31,1,,,,,クンクンドウラボラトリー,0
2057,7020005015836,新規,0,2023-01-31,2023-01-31,一般社団法人ＲＩＮＫ,,その他の設立登記法人,神奈川県,川崎市川崎区,殿町３丁目２５－１０ＲｅｓｅａｒｃｈＧａｔｅＢｕｉｌｄｉｎｇＴＯＮＯＭＡＣＨＩ２－Ａ棟４階,,14,131,2100821,,,,,,,2023-01-31,1,,,,,リンク,0
2062,7021001078075,新規,0,2023-01-31,2023-01-31,株式会社洸,,株式会社,神奈川県,相模原市南区,大野台４丁目１２番２号,,14,153,2520331,,,,,,,2023-01-31,1,,,,,コウ,0
2063,7021001078091,新規,0,2023-01-31,2023-01-31,株式会社エスティー,,株式会社,神奈川県,平塚市,代官町２１番３号－４Ｆ,,14,203,2540807,,,,,,,2023-01-31,1,,,,,エスティー,0
2069,7030001151774,新規,0,2023-01-31,2023-01-31,株式会社ｔｅｄｄｙ　ｂｉｓｓｃｕｉｔ,,株式会社,埼玉県,越谷市,瓦曽根２丁目９番１９号ステイツ新越谷３０５号,,11,222,3430821,,,,,,,2023-01-31,1,,,,,テディビスケット,0
2070,7030001152129,新規,0,2023-01-31,2023-01-31,株式会社シーケー,,株式会社,埼玉県,蕨市,南町２丁目１６番５号,,11,223,3350003,,,,,,,2023-01-31,1,,,,,シーケー,0
2071,7030001152137,新規,0,2023-01-31,2023-01-31,株式会社植田工務店,,株式会社,埼玉県,上尾市,大字戸崎３８４番地４,,11,219,3620053,,,,,,,2023-01-31,1,,,,,ウエダコウムテン,0
2076,7030003021067,新規,0,2023-01-31,2023-01-31,ＸＵＡＮ　ＴＨＡＮＨ合同会社,,合同会社,埼玉県,蕨市,塚越５丁目３９番５号蕨ハイツ２０５号室,,11,223,3350002,,,,,,,2023-01-31,1,,,,,スアンタン,0
2077,7030003021075,新規,0,2023-01-31,2023-01-31,合同会社ＨＥＲＯ,,合同会社,埼玉県,三郷市,半田４１８番地１エフローレ新三郷２１６－２２２号,,11,237,3410012,,,,,,,2023-01-31,1,,,,,ヒーロー,0
2099,7040001126841,新規,0,2023-01-31,2023-01-31,株式会社瑠稀興業,,株式会社,千葉県,市原市,青柳２０５６番地９,,12,219,2990102,,,,,,,2023-01-31,1,,,,,ルキコウギョウ,0
2127,7040003021792,新規,0,2023-01-31,2023-01-31,合同会社Ｋ’ｓ　Ｃｏｒｐｏｒａｔｉｏｎ,,合同会社,千葉県,浦安市,日の出３丁目３番Ｄ―１２０６号シーガーデン新浦安,,12,227,2790013,,,,,,,2023-01-31,1,,,,,ケーズコーポレーション,0
2128,7040003021801,新規,0,2023-01-31,2023-01-31,スズキ合同会社,,合同会社,千葉県,習志野市,津田沼４丁目８番１６号,,12,216,2750016,,,,,,,2023-01-31,1,,,,,スズキ,0
2129,7040003021818,新規,0,2023-01-31,2023-01-31,合同会社ＯＲＩＥＮＴ,,合同会社,千葉県,銚子市,栄町３丁目１５５６番地サカエマンション２０３,,12,202,2880812,,,,,,,2023-01-31,1,,,,,オリエント,0
2140,7050001052310,新規,0,2023-01-31,2023-01-31,株式会社いなしきエナジー,,株式会社,茨城県,稲敷市,犬塚１５７０番地１,,08,229,3000507,,,,,,,2023-01-31,1,,,,,イナシキエナジー,0
2145,7060001035652,新規,0,2023-01-31,2023-01-31,ＴＨＩＮＫ株式会社,,株式会社,栃木県,佐野市,豊代町５８５番地,,09,204,3270512,,,,,,,2023-01-31,1,,,,,シンク,0
2146,7060003004390,新規,0,2023-01-31,2023-01-31,合同会社栃木商会,,合同会社,栃木県,大田原市,佐久山４００８番地,,09,210,3240032,,,,,,,2023-01-31,1,,,,,トチギショウカイ,0
2154,7110001037263,新規,0,2023-01-31,2023-01-31,株式会社チーム,,株式会社,新潟県,五泉市,南本町３丁目２３８７番地１,,15,218,9591836,,,,,,,2023-01-31,1,,,,,チーム,0
2155,7110005016890,新規,0,2023-01-31,2023-01-31,ステラタワー神立管理組合法人,,その他の設立登記法人,新潟県,南魚沼郡湯沢町,大字神立２７０４番地,,15,461,9496102,,,,,,,2023-01-31,1,,,,,ステラタワーカンダツ,0
2161,7120001252068,新規,0,2023-01-31,2023-01-31,泰隆株式会社,,株式会社,大阪府,大阪市中央区,北久宝寺町４丁目３番８号,,27,128,5410057,,,,,,,2023-01-31,1,,,,,タイリュウ,0
2162,7120001252084,新規,0,2023-01-31,2023-01-31,株式会社Ｅａｇｌｅ,,株式会社,大阪府,大阪市北区,梅田１丁目１番３号大阪駅前第３ビル２９階１－１－１号室,,27,127,5300001,,,,,,,2023-01-31,1,,,,,イーグル,0
2163,7120001252092,新規,0,2023-01-31,2023-01-31,株式会社めばえＲｅｆｏｒｍ,,株式会社,大阪府,大阪市北区,梅田１丁目１－３大阪駅前第３ビル２３０７,,27,127,5300001,,,,,,,2023-01-31,1,,,,,メバエリフォーム,0
2164,7120001252159,新規,0,2023-01-31,2023-01-31,株式会社ＤＡＩＩＣＨＩ厨房,,株式会社,大阪府,大阪市港区,三先１丁目８番１９号,,27,107,5520016,,,,,,,2023-01-31,1,,,,,ダイイチチュウボウ,0
2165,7120003023351,新規,0,2023-01-31,2023-01-31,合同会社ＨｓＲ,,合同会社,大阪府,大阪市平野区,加美東２丁目９番１１－１０１号,,27,126,5470002,,,,,,,2023-01-31,1,,,,,エイチエスアール,0
2172,7120901047055,新規,0,2023-01-31,2023-01-31,株式会社ティーエスプロジェクト,,株式会社,大阪府,茨木市,平田台１０番１２号,,27,211,5670849,,,,,,,2023-01-31,1,,,,,ティーエスプロジェクト,0
2174,7120903004475,新規,0,2023-01-31,2023-01-31,合同会社ＭＯＵＴＯＫＵ,,合同会社,大阪府,吹田市,泉町５丁目１７番３－３号,,27,205,5640041,,,,,,,2023-01-31,1,,,,,モウトク,0
2175,7122001036640,新規,0,2023-01-31,2023-01-31,株式会社ＴＣＳ,,株式会社,大阪府,東大阪市,玉串町東２丁目６番６号,,27,227,5780932,,,,,,,2023-01-31,1,,,,,ティーシーエス,0
2179,7130003008483,新規,0,2023-01-31,2023-01-31,合同会社ｕｒｉ,,合同会社,京都府,京都市左京区,東丸太町７,,26,103,6068395,,,,,,,2023-01-31,1,,,,,ウリ,0
2180,7130003008491,新規,0,2023-01-31,2023-01-31,合同会社Ｈ２Ｍ未来,,合同会社,京都府,京都市南区,唐橋高田町１０番地１０,,26,107,6018464,,,,,,,2023-01-31,1,,,,,エイチツーエムミライ,0
2185,7140001128910,新規,0,2023-01-31,2023-01-31,Ｒ．Ｃホーム株式会社,,株式会社,兵庫県,尼崎市,南武庫之荘７丁目１４番２１号,,28,202,6610033,,,,,,,2023-01-31,1,,,,,アールシーホーム,0
2189,7140003018614,新規,0,2023-01-31,2023-01-31,ＳＣＩ合同会社,,合同会社,兵庫県,神戸市東灘区,魚崎南町７丁目２番２号アルテ魚崎４０３号,,28,101,6580025,,,,,,,2023-01-31,1,,,,,エスシーアイ,0
2201,7180001154746,新規,0,2023-01-31,2023-01-31,株式会社モリケン,,株式会社,愛知県,名古屋市北区,丸新町４８６番地コーポ坂元２０２号,,23,103,4620063,,,,,,,2023-01-31,1,,,,,モリケン,0
2202,7180001154762,新規,0,2023-01-31,2023-01-31,Ｋｍ株式会社,,株式会社,愛知県,愛知郡東郷町,大字和合字南蚊谷２２５番地１,,23,302,4700153,,,,,,,2023-01-31,1,,,,,ケイエム,0
2205,7190001030137,新規,0,2023-01-31,2023-01-31,株式会社ＺＥＲＯＭ　ＥＡＳＴ,,株式会社,三重県,四日市市,新正４丁目５番２１号,,24,202,5100064,,,,,,,2023-01-31,1,,,,,ゼロムイースト,0
2206,7200001040910,新規,0,2023-01-31,2023-01-31,一木商事株式会社,,株式会社,岐阜県,大垣市,見取町２丁目１９安田マンション１０２,,21,202,5030025,,,,,,,2023-01-31,1,,,,,イチノキショウジ,0
2218,7260001037612,新規,0,2023-01-31,2023-01-31,株式会社優工業,,株式会社,岡山県,岡山市北区,富原６４６番地１－２０１号,,33,101,7011153,,,,,,,2023-01-31,1,,,,,ユウコウギョウ,0
2221,7280001006540,新規,0,2023-01-31,2023-01-31,出雲金融株式会社,,株式会社,島根県,出雲市,今市町５５７番地２,,32,203,6930001,,,,,,,2023-01-31,1,,,,,イズモキンユウ,0
2223,7290001100375,新規,0,2023-01-31,2023-01-31,日田株式会社,,株式会社,福岡県,福岡市博多区,祇園町６２９番１－７０５,,40,132,8120038,,,,,,,2023-01-31,1,,,,,ヒダ,0
2226,7290005018936,新規,0,2023-01-31,2023-01-31,医療法人なかのクリニック,,その他の設立登記法人,福岡県,宗像市,赤間駅前１丁目４番１号トリアビル５階,,40,220,8114185,,,,,,,2023-01-31,1,,,,,ナカノクリニック,0
2227,7290801029244,新規,0,2023-01-31,2023-01-31,株式会社ｔｕｍｕｇｏｏ,,株式会社,福岡県,遠賀郡岡垣町,大字三吉３８３番３号,,40,383,8114205,,,,,,,2023-01-31,1,,,,,ツムグー,0
2229,7300001013204,新規,0,2023-01-31,2023-01-31,メラーキ株式会社,,株式会社,佐賀県,嬉野市,塩田町大字谷所甲５１６番地３,,41,209,8491422,,,,,,,2023-01-31,1,,,,,メラーキ,0
2235,7310001018243,新規,0,2023-01-31,2023-01-31,株式会社長田組,,株式会社,長崎県,西彼杵郡長与町,吉無田郷１１８５番地１２５,,42,307,8512126,,,,,,,2023-01-31,1,,,,,ナガタグミ,0
2247,7360003012669,新規,0,2023-01-31,2023-01-31,合同会社イメージ,,合同会社,沖縄県,那覇市,松山２丁目１６－１４ＣＬＯＵＤ１ビル４Ｆ,,47,201,9000032,,,,,,,2023-01-31,1,,,,,イメージ,0
2248,7360003012685,新規,0,2023-01-31,2023-01-31,合同会社ＴｒｉＰｏｉｎｔ,,合同会社,沖縄県,那覇市,辻１丁目１６番９号サングリーンビル１階,,47,201,9000037,,,,,,,2023-01-31,1,,,,,トライポイント,0
2251,7370001049547,新規,0,2023-01-31,2023-01-31,株式会社Ｃｌａｎ,,株式会社,宮城県,大崎市,古川宮内字東高畑４８－８,,04,215,9896127,,,,,,,2023-01-31,1,,,,,クラン,0
2255,7380001033434,新規,0,2023-01-31,2023-01-31,株式会社松本養鶏,,株式会社,福島県,いわき市,遠野町大平字清道２７０番地,,07,204,9720253,,,,,,,2023-01-31,1,,,,,マツモトヨウケイ,0
2266,7430001088308,新規,0,2023-01-31,2023-01-31,株式会社工藤設備工業,,株式会社,北海道,石狩市,花川北六条２丁目７９番地,,01,235,0613216,,,,,,,2023-01-31,1,,,,,クドウセツビコウギョウ,0
2267,7430001088316,新規,0,2023-01-31,2023-01-31,株式会社Ｊ‐ＳＴＥＡＭＬＡＢ,,株式会社,北海道,札幌市中央区,宮の森四条１０丁目１番２５号,,01,101,0640954,,,,,,,2023-01-31,1,,,,,ジェースティームラボ,0
2276,7490002013416,新規,0,2023-01-31,2023-01-31,有限会社正義鍛造所,,有限会社,高知県,土佐郡土佐町,田井９１３番地,,39,363,7813521,,,,,,,2023-01-31,1,,,,,,0
2277,7500005008568,新規,0,2023-01-31,2023-01-31,一般社団法人茶の湯住宅推進機構,,その他の設立登記法人,愛媛県,松山市,西垣生町４８６番地２,,38,201,7918044,,,,,,,2023-01-31,1,,,,,チャノユジュウタクスイシンキコウ,0
2279,7700150108136,新規,0,2023-01-31,2022-04-19,絵空箱　吉野翼企画,,その他,東京都,新宿区,山吹町３６１誠志堂ビル１Ｆ２Ｆ,,13,104,1620801,,,,,,,2022-04-19,1,,,,,エソラバコヨシノタスクキカク,0
2280,7700150114043,新規,0,2023-01-31,2023-01-31,ＩＺＵ　ＯＮＳＥＮ　ＲＥＳＯＲＴＳ　ＬＩＭＩＴＥＤ,,外国会社等,大阪府,大阪市浪速区,幸町２丁目９－１９,,27,111,5560021,Ｖｉｓｔｒａ　Ｃｏｒｐｏｒａｔｅ　Ｓｅｒｖｉｃｅｓ　Ｃｅｎｔｒｅ，Ｗｉｃｋｈａｍｓ　Ｃａｙ　ＩＩ，Ｒｏａｄ　Ｔｏｗｎ，Ｔｏｒｔｏｌａ，ＶＧ１１１０，ＢＶＩ,00129259,,,,,2023-01-31,1,,,,,イズオンセンリゾーツリミテツド,0
2281,7700150114051,新規,0,2023-01-31,2023-01-31,ＺＨＥＪＩＡＮＧ　ＮＺＬ　ＴＥＣＨＮＯＬＯＧＹ　ＣＯ．，ＬＴＤ．,,外国会社等,,,,,,,,Ｄｏｕｙａｎｃｕｎ，Ｚｈｕｊｉｓｈｉ，Ｐａｉｔｏｕｚｈｅｎ，Ｚｈｅｊｉａｎｇｓｈｅｎｇ，ＣＨＩＮＡ,,,,,,2023-01-31,1,,,,,ゼジャンエヌジーエルテクノロジーカンパニーリミテッド,0
2282,7700150114068,新規,0,2023-01-31,2023-01-31,ｓｈｅｎｚｈｅｎｓｈｉ　ｚｅｎｇｙｕｇｕｏｊｉ　ｍａｏｙｉｙｏｕｘｉａｎｇｏｎｇｓｉ,,外国会社等,,,,,,,,２０１Ｆ　２０１Ｄ，Ｂｕｉｌｄｉｎｇ　８，Ｘｉｈｕ　Ｃｏｍｍｕｎｉｔｙ，Ｎｏ．２３６，Ｎｏｒｔｈ　Ｇｕｉｙｕａｎ　Ｒｏａｄ，Ｄａｔａｎｇｌｏｎｇ　Ｃｏｍｍｕｎｉｔｙ，Ｇｕｉｙｕａｎ　Ｓｔｒｅｅｔ，Ｌｕｏｈｕ　Ｄｉｓｔｒｉｃｔ，Ｓｈｅｎｚｈｅｎ，Ｃｈｉｎａ,,,,,,2023-01-31,1,,,,,シンセンシゼンギュウゴジマオイユウゲンコウシ,0
2321,8010001232559,新規,0,2023-01-31,2023-01-31,亜矢商事株式会社,,株式会社,東京都,千代田区,岩本町２丁目８番２号,,13,101,1010032,,,,,,,2023-01-31,1,,,,,アヤショウジ,0
2322,8010001232567,新規,0,2023-01-31,2023-01-31,株式会社グローバル技術研究所,,株式会社,東京都,千代田区,西神田３丁目１番６号日本弘道会ビル,,13,101,1010065,,,,,,,2023-01-31,1,,,,,グローバルギジュツケンキュウショ,0
2323,8010001232583,新規,0,2023-01-31,2023-01-31,エスアンドエスホールディングス株式会社,,株式会社,東京都,中央区,日本橋茅場町２丁目８番５号,,13,102,1030025,,,,,,,2023-01-31,1,,,,,エスアンドエスホールディングス,0
2337,8010401172149,新規,0,2023-01-31,2023-01-31,株式会社Ｄｅｗａｙｖｅ,,株式会社,東京都,港区,南青山３丁目１番３６号青山丸竹ビル６Ｆ,,13,103,1070062,,,,,,,2023-01-31,1,,,,,ディウェイブ,0
2338,8010401172165,新規,0,2023-01-31,2023-01-31,株式会社スピードワゴンジャパン,,株式会社,東京都,港区,三田１丁目６番３号,,13,103,1080073,,,,,,,2023-01-31,1,,,,,スピードワゴンジャパン,0
2339,8010401172181,新規,0,2023-01-31,2023-01-31,ＤＡＩ　Ｌａｂｓ株式会社,,株式会社,東京都,港区,三田５丁目２番２２号ザ・パークハウス三田ガーデン２００１,,13,103,1080073,,,,,,,2023-01-31,1,,,,,ダイラブズ,0
2340,8010401172198,新規,0,2023-01-31,2023-01-31,Ｙｏｓｅｍｉｔｅ２株式会社,,株式会社,東京都,港区,南青山３丁目１番３号スプライン青山東急ビル３階,,13,103,1070062,,,,,,,2023-01-31,1,,,,,ヨセミテツー,0
2341,8010403029396,新規,0,2023-01-31,2023-01-31,ＨＡＲＥ　ＫＡＲＥ合同会社,,合同会社,東京都,港区,浜松町２丁目２番１５号浜松町ダイヤビル２Ｆ,,13,103,1050013,,,,,,,2023-01-31,1,,,,,ハレカレ,0
2343,8010601062521,新規,0,2023-01-31,2023-01-31,株式会社イエデネ,,株式会社,東京都,江東区,豊洲２丁目５番１－１３０３号,,13,108,1350061,,,,,,,2023-01-31,1,,,,,イエデネ,0
2346,8010701043784,新規,0,2023-01-31,2023-01-31,株式会社フォーミース,,株式会社,東京都,品川区,東五反田１丁目６番３号いちご東五反田ビル３階,,13,109,1410022,,,,,,,2023-01-31,1,,,,,フォーミース,0
2347,8010703006566,新規,0,2023-01-31,2023-01-31,合同会社宏和商事,,合同会社,東京都,品川区,二葉１丁目１７番１６号ＬＡＰｉＳ大井町ＩＩ４０４,00129261,13,109,1420043,,,,,,,2023-01-31,1,,,,,コウワショウジ,0
2351,8010803004437,新規,0,2023-01-31,2023-01-31,合同会社ＫＭ,,合同会社,東京都,大田区,南蒲田１丁目７番４号,,13,111,1440035,,,,,,,2023-01-31,1,,,,,ケイエム,0
2353,8010901052420,新規,0,2023-01-31,2023-01-31,株式会社Ｂｃｒａｚｙ,,株式会社,東京都,世田谷区,松原１丁目３７番２０号川久保ビル１階,,13,112,1560043,,,,,,,2023-01-31,1,,,,,ビークレイジー,0
2354,8010901052437,新規,0,2023-01-31,2023-01-31,ｍｏｎａｍｉｓｍ株式会社,,株式会社,東京都,世田谷区,上野毛２丁目２３番３４－４０１号,,13,112,1580093,,,,,,,2023-01-31,1,,,,,モナミズム,0
2359,8011001152144,新規,0,2023-01-31,2023-01-31,株式会社Ｆｏｘｘ,,株式会社,東京都,渋谷区,渋谷２丁目１９－１５宮益坂ビルディング６０９,,13,113,1500002,,,,,,,2023-01-31,1,,,,,フォックス,0
2360,8011001152268,新規,0,2023-01-31,2023-01-31,株式会社Ｅｃｏ　Ｅｎｅｒｇｙ,,株式会社,東京都,渋谷区,広尾３丁目１７－２７イトーピア広尾ヒルズクローチェ１１０１,,13,113,1500012,,,,,,,2023-01-31,1,,,,,エコエナジー,0
2361,8011001152276,新規,0,2023-01-31,2023-01-31,新東洋通商株式会社,,株式会社,東京都,渋谷区,幡ヶ谷１丁目３０番１－７０７号,,13,113,1510072,,,,,,,2023-01-31,1,,,,,シントウヨウツウショウ,0
2362,8011001152284,新規,0,2023-01-31,2023-01-31,株式会社ＰＯＩＮＴ　ＩＮＮＯＶＡ,,株式会社,東京都,渋谷区,神宮前４丁目９番１３号,,13,113,1500001,,,,,,,2023-01-31,1,,,,,ポイントイノーバ,0
2366,8011003016198,新規,0,2023-01-31,2023-01-31,合同会社ｈｅｒｅ　ｏｎ　ｍｅｗ,,合同会社,東京都,渋谷区,道玄坂１丁目１０番８号渋谷道玄坂東急ビル２Ｆ－Ｃ,,13,113,1500043,,,,,,,2023-01-31,1,,,,,ヒアオンミャー,0
2370,8011105010537,新規,0,2023-01-31,2023-01-31,一般社団法人国際支援推進機構,,その他の設立登記法人,東京都,新宿区,高田馬場１丁目２１番１３号廣池ビル４０１号,,13,104,1690075,,,,,,,2023-01-31,1,,,,,コクサイシエンスイシンキコウ,0
2373,8011201024390,新規,0,2023-01-31,2023-01-31,ＧＯＬＤ　ＳＨＩＰ株式会社,,株式会社,東京都,中野区,南台２丁目２４番１１号武蔵屋ビル４０２,,13,114,1640014,,,,,,,2023-01-31,1,,,,,ゴールドシップ,0
2385,8011801041868,新規,0,2023-01-31,2023-01-31,株式会社シージェープラス,,株式会社,東京都,足立区,千住元町３５番１－１０９号,,13,121,1200041,,,,,,,2023-01-31,1,,,,,シージェープラス,0
2390,8012401040129,新規,0,2023-01-31,2023-01-31,株式会社隆興,,株式会社,東京都,府中市,紅葉丘２丁目３５番地の１０コーポオノハラ３号棟２０１,,13,206,1830004,,,,,,,2023-01-31,1,,,,,リュウコウ,0
2399,8020003023220,新規,0,2023-01-31,2023-01-31,合同会社いちまる,,合同会社,神奈川県,横浜市中区,本牧町２丁目３０２番地,,14,104,2310806,,,,,,,2023-01-31,1,,,,,イチマル,0
2400,8020005015835,新規,0,2023-01-31,2023-01-31,一般社団法人日本生涯教育研究所,,その他の設立登記法人,神奈川県,横浜市中区,山下町２５５番１リリファ横濱山下町３０１,,14,104,2310023,,,,,,,2023-01-31,1,,,,,ニホンショウガイキョウイクケンキュウジョ,0
2403,8021001078074,新規,0,2023-01-31,2023-01-31,株式会社コウチ,,株式会社,神奈川県,鎌倉市,手広３丁目１３番６号,,14,204,2480036,,,,,,,2023-01-31,1,,,,,コウチ,0
2404,8021001078082,新規,0,2023-01-31,2023-01-31,株式会社ライトホワイト,,株式会社,神奈川県,座間市,入谷東４丁目３０番９号,,14,216,2520028,,,,,,,2023-01-31,1,,,,,ライトホワイト,0
2405,8021001078099,新規,0,2023-01-31,2023-01-31,ニト・コンサルティング株式会社,,株式会社,神奈川県,相模原市南区,御園３丁目３７番９１号,,14,153,2520317,,,,,,,2023-01-31,1,,,,,ニトコンサルティング,0
2409,8021003012634,新規,0,2023-01-31,2023-01-31,合同会社ハビット,,合同会社,神奈川県,厚木市,中荻野３０－２,,14,212,2430202,,,,,,,2023-01-31,1,,,,,ハビット,0
2410,8021003012683,新規,0,2023-01-31,2023-01-31,ＤＸＬ合同会社,,合同会社,神奈川県,足柄下郡湯河原町,吉浜１８番地の４アデニウム真鶴４１３,,14,384,2590312,,,,,,,2023-01-31,1,,,,,ディーエックスエル,0
2413,8030001152169,新規,0,2023-01-31,2023-01-31,航碩株式会社,,株式会社,埼玉県,川口市,芝富士１丁目３番２１号,,11,203,3330854,,,,,,,2023-01-31,1,,,,,コウセキ,0
2420,8030003020968,新規,0,2023-01-31,2023-01-31,浩鴻合同会社,,合同会社,埼玉県,川口市,並木２丁目１１番２３号ライオンズマンション西川口第７・４０６,,11,203,3320034,,,,,,,2023-01-31,1,,,,,コウグ,0
2421,8030003021066,新規,0,2023-01-31,2023-01-31,合同会社みらい,,合同会社,埼玉県,久喜市,青毛１丁目１３番地４２,,11,232,3460011,,,,,,,2023-01-31,1,,,,,ミライ,0
2446,8040001126849,新規,0,2023-01-31,2023-01-31,ａｐｐｒｅｃｉａｔｉｏｎ　ｗｅｂ株式会社,,株式会社,千葉県,市川市,南大野１丁目４０番１２－６０３号,,12,203,2720804,,,,,,,2023-01-31,1,,,,,アプリシエーションウェブ,0
2447,8040001126857,新規,0,2023-01-31,2023-01-31,Ｄｏｕｂｌｅ　Ｏ株式会社,,株式会社,千葉県,大網白里市,南今泉４８８１番８,,12,239,2993202,,,,,,,2023-01-31,1,,,,,ダブルオー,0
2480,8040005021897,新規,0,2023-01-31,2023-01-31,医療法人社団凜華会,,その他の設立登記法人,千葉県,千葉市花見川区,幕張町６丁目７９番地１７,,12,102,2620032,,,,,,,2023-01-31,1,,,,,リンカカイ,0
2483,8060001035651,新規,0,2023-01-31,2023-01-31,株式会社興竹エステート,,株式会社,栃木県,小山市,東城南４丁目９番地３グランドハイツ１０３,,09,208,3230829,,,,,,,2023-01-31,1,,,,,コウチクエステート,0
2494,8080001025436,新規,0,2023-01-31,2023-01-31,株式会社リゾルブ,,株式会社,静岡県,静岡市葵区,瀬名川１丁目２２番７６号,,22,101,4200913,,,,,,,2023-01-31,1,,,,,リゾルブ,0
2506,8120001252059,新規,0,2023-01-31,2023-01-31,株式会社フリーテック,,株式会社,大阪府,大阪市北区,梅田２丁目５番１３号桜橋第一ビル３０４号,,27,127,5300001,,,,,,,2023-01-31,1,,,,,フリーテック,0
2507,8120001252083,新規,0,2023-01-31,2023-01-31,株式会社未来図,,株式会社,大阪府,大阪市西区,新町１丁目８番２４号ＦＭＹｏｔｓｕｂａｓｈｉＢＬＤＧ６階６Ａ,,27,106,5500013,,,,,,,2023-01-31,1,,,,,ミライズ,0
2508,8120001252091,新規,0,2023-01-31,2023-01-31,株式会社フロンティアエステート,,株式会社,大阪府,大阪市西区,新町１丁目１４番４３号日宝ニュー立売堀ビル３階,,27,106,5500013,,,,,,,2023-01-31,1,,,,,フロンティアエステート,0
2509,8120001252109,新規,0,2023-01-31,2023-01-31,福多株式会社,,株式会社,大阪府,大阪市中央区,谷町７丁目３番４新谷町第三ビル３０７号,,27,128,5420012,,,,,,,2023-01-31,1,,,,,フクタ,0
2510,8120001252117,新規,0,2023-01-31,2023-01-31,株式会社ＧＥＬ,,株式会社,大阪府,大阪市中央区,粉川町４－２松田ビル１Ｆ,,27,128,5400018,,,,,,,2023-01-31,1,,,,,ジーイーエル,0
2511,8120001252133,新規,0,2023-01-31,2023-01-31,株式会社ＧＵＫＫＥＮ,,株式会社,大阪府,枚方市,須山町３０番１号,,27,210,5731164,,,,,,,2023-01-31,1,,,,,グッケン,0
2516,8120003023342,新規,0,2023-01-31,2023-01-31,合同会社和富企画,,合同会社,大阪府,門真市,新橋町７番１０号,,27,223,5710048,,,,,,,2023-01-31,1,,,,,カズトミキカク,0
2518,8120903004474,新規,0,2023-01-31,2023-01-31,ｖａｌｅｕｒ合同会社,,合同会社,大阪府,茨木市,橋の内２丁目７番３－２０５号,,27,211,5670805,,,,,,,2023-01-31,1,,,,,バルール,0
2526,8140001128926,新規,0,2023-01-31,2023-01-31,株式会社コトリヤ,,株式会社,兵庫県,神戸市灘区,篠原中町２丁目４番２０号,,28,102,6570066,,,,,,,2023-01-31,1,,,,,コトリヤ,0
2530,8140005026473,新規,0,2023-01-31,2023-01-31,天龍協同組合,,その他の設立登記法人,兵庫県,神戸市兵庫区,新開地６丁目２番２５号,,28,105,6520811,,,,,,,2023-01-31,1,,,,,,0
2533,8160001024792,新規,0,2023-01-31,2023-01-31,株式会社Ｈｉ‐ｂａｒｒｙ,,株式会社,滋賀県,長浜市,森町４２６－１,,25,203,5260018,,,,,,,2023-01-31,1,,,,,ハイバリー,0
2534,8160001024801,新規,0,2023-01-31,2023-01-31,株式会社大紀クリエイターズスピリッツ,,株式会社,滋賀県,大津市,桐生２丁目９番１８号,,25,201,5202111,,,,,,,2023-01-31,1,,,,,ダイキクリエイターズスピリッツ,0
2537,8180001154745,新規,0,2023-01-31,2023-01-31,株式会社住まいるハウス不動産,,株式会社,愛知県,江南市,古知野町北屋敷１４８番地,,23,217,4838272,,,,,,,2023-01-31,1,,,,,スマイルハウスフドウサン,0
2538,8180001154753,新規,0,2023-01-31,2023-01-31,株式会社キッカーズ,,株式会社,愛知県,北名古屋市,六ツ師１０８０番地２,,23,234,4810001,,,,,,,2023-01-31,1,,,,,キッカーズ,0
2539,8180001154761,新規,0,2023-01-31,2023-01-31,ＫＪ株式会社,,株式会社,愛知県,名古屋市名東区,若葉台５１４番地,,23,115,4650015,,,,,,,2023-01-31,1,,,,,ケージェイ,0
2543,8180303005588,新規,0,2023-01-31,2023-01-31,合同会社中堀工房一級建築士事務所,,合同会社,愛知県,西尾市,住崎１丁目８７番地,,23,213,4450879,,,,,,,2023-01-31,1,,,,,ナカホリコウボウイッキュウケンチクシジムショ,0
2545,8190003004212,新規,0,2023-01-31,2023-01-31,虹合同会社,,合同会社,三重県,度会郡南伊勢町,切原２６１６番地１,,24,472,5160102,,,,,,,2023-01-31,1,,,,,ニジ,0
2549,8240001061010,新規,0,2023-01-31,2023-01-31,株式会社樋ノ口農園,,株式会社,広島県,東広島市,黒瀬町乃美尾１１２３番地３－２０３号,,34,212,7392622,,,,,,,2023-01-31,1,,,,,ヒノクチノウエン,0
2550,8240001061019,新規,0,2023-01-31,2023-01-31,株式会社今福ファシー,,株式会社,広島県,呉市,押込５丁目４番２６－１号,,34,202,7370915,,,,,,,2023-01-31,1,,,,,イマフクファシー,0
2571,8320003004009,新規,0,2023-01-31,2023-01-31,ＪＴＫ’ｓエンターテイメント合同会社,,合同会社,大分県,別府市,大字亀川字論田１７０３番地２ベッパーガーデンＪＴＫ’ｓ道場,,44,202,8740000,,,,,,,2023-01-31,1,,,,,ジェイティーケイズエンターテイメント,0
2577,8330005010615,新規,0,2023-01-31,2023-01-31,ＮＰＯ法人スリ・日本国際アーユルヴェーダ協会,,その他の設立登記法人,熊本県,玉名郡玉東町,大字稲佐３０３番地２,,43,364,8690301,,,,,,,2023-01-31,1,,,,,スリニホンコクサイアーユルヴェーダキョウカイ,0
2580,8350001018156,新規,0,2023-01-31,2023-01-31,株式会社Ｔｈｏｔｈ,,株式会社,宮崎県,宮崎市,霧島３丁目２５番地１ブランシエラ霧島４０４号,,45,201,8800032,,,,,,,2023-01-31,1,,,,,トート,0
2582,8360001031496,新規,0,2023-01-31,2023-01-31,株式会社ハングリー,,株式会社,沖縄県,那覇市,久茂地１丁目１番１号９階,,47,201,9000015,,,,,,,2023-01-31,1,,,,,ハングリー,0
2587,8370003005968,新規,0,2023-01-31,2023-01-31,合同会社ＢＴＲ,,合同会社,宮城県,大崎市,古川七日町４番６号七日町パーキング１Ｆ,,04,215,9896153,,,,,,,2023-01-31,1,,,,,ビーティーアール,0
2593,8380003005372,新規,0,2023-01-31,2023-01-31,合同会社湧利,,合同会社,福島県,相馬市,粟津字粟津３－５４,,07,209,9760152,,,,,,,2023-01-31,1,,,,,ユウリ,0
2598,8400005008296,新規,0,2023-01-31,2023-01-31,一般社団法人環境創造会議,,その他の設立登記法人,岩手県,和賀郡西和賀町,沢内字新町２０地割８７番地４,,03,366,0295611,,,,,,,2023-01-31,1,,,,,カンキョウソウゾウカイギ,0
2626,8500001024741,新規,0,2023-01-31,2023-01-31,株式会社榮華,,株式会社,愛媛県,松山市,上野町甲８９番地１３,,38,201,7911136,,,,,,,2023-01-31,1,,,,,エイカ,0
2628,8700150114042,新規,0,2023-01-31,2023-01-31,海徳威科技集団青島有限公司,00129256,外国会社等,兵庫県,神戸市中央区,海岸通６番地建隆ビルＩＩ７０５号室,00129258,28,110,6500024,中華人民共和国山東省青島市＿山区科苑経六路３２号,00129257,,,,,2023-01-31,1,,,,,カイトクイカギシユウダンアオシマユウゲンコウシ,0
2629,8700150114050,新規,0,2023-01-31,2023-01-31,厦門集舟国際物流有限公司,,外国会社等,,,,,,,,中国福建省自由貿易試験区厦門片区（保税区）嶋南三路１８号四楼Ｇ区,,,,,,2023-01-31,1,,,,,アモイシユウセンコクサイブツリユウユウゲンコンス,0
2630,8700150114059,新規,0,2023-01-31,2023-01-31,ｓｈｅｎ　ｚｈｅｎ　ｓｈｉ　ｍｕ　ｓｉ　ｓｈｉ　ｙｅ　ｙｏｕ　ｘｉａｎ　ｇｏｎｇ　ｓｉ,,外国会社等,,,,,,,,ｓｈｉ　ｙａｎ　ｊｉｅ　ｄａｏ，ｂａｏ　ｓｈｉ　ｄｏｎｇ　ｌｕ，ｘｉｎ　ｊｉ　ｇｏｎｇ　ｙｅ　ｑｕ　３　ｄｏｎｇ，ｂａｏ　ａｎ　ｑｕ，ｓｈｅｎ　ｚｈｅｎ，Ｇｕｎａｇｄｏｎｇ　ｐｒｏｖｉｎｃｅ，ｃｈｉｎａ,,,,,,2023-01-31,1,,,,,シンセンシムシシエユウゲンコウシ,0
2631,8700150114067,新規,0,2023-01-31,2023-01-31,ｓｈｅｎｚｈｅｎｓｈｉ　ｍｉｎｃｉｊｉｓｈｕ　ｙｏｕｘｉａｎｇｏｎｇｓｉ,,外国会社等,,,,,,,,２０１，Ｎｏ．５２－５，Ｆｅｎｇｔａｎｇ　Ａｖｅｎｕｅ，Ｒｅｎｔｉａｎ　Ｃｏｍｍｕｎｉｔｙ，Ｆｕｈａｉ　Ｓｔｒｅｅｔ，Ｂａｏ’ａｎ　Ｄｉｓｔｒｉｃｔ，Ｓｈｅｎｚｈｅｎ，Ｇｕａｎｇｄｏｎｇ　Ｐｒｏｖｉｎｃｅ，Ｃｈｉｎａ,,,,,,2023-01-31,1,,,,,シンセンシミンシジシュユウゲンコウシ,0
2664,9010001232533,新規,0,2023-01-31,2023-01-31,株式会社Ｇｒａｆｉｃａ,,株式会社,東京都,中央区,銀座１丁目１２－４Ｎ＆ＥＢＬＤ．７階,,13,102,1040061,,,,,,,2023-01-31,1,,,,,グラフィカ,0
2665,9010001232558,新規,0,2023-01-31,2023-01-31,富永實業株式会社,,株式会社,東京都,千代田区,岩本町２丁目８番２号,,13,101,1010032,,,,,,,2023-01-31,1,,,,,トミナガジツギョウ,0
2666,9010001232566,新規,0,2023-01-31,2023-01-31,株式会社フェニックスグループ,,株式会社,東京都,文京区,目白台１丁目１７番１号,,13,105,1120015,,,,,,,2023-01-31,1,,,,,フェニックスグループ,0
2667,9010003039729,新規,0,2023-01-31,2023-01-31,合同会社ＫＴ,,合同会社,東京都,中央区,銀座１丁目１２－４Ｎ＆Ｅ．ＢＬＤ．７階,,13,102,1040061,,,,,,,2023-01-31,1,,,,,ケーティー,0
2681,9010401172148,新規,0,2023-01-31,2023-01-31,ＴｅｃｈｓＰｌｕｓ株式会社,,株式会社,東京都,港区,南青山２丁目２番１５号,,13,103,1070062,,,,,,,2023-01-31,1,,,,,テックスプラス,0
2682,9010401172164,新規,0,2023-01-31,2023-01-31,Ｃｈｏｖａｎａｋ株式会社,,株式会社,東京都,港区,芝浦３丁目４番２号２１０１,,13,103,1080023,,,,,,,2023-01-31,1,,,,,コバナク,0
2683,9010401172172,新規,0,2023-01-31,2023-01-31,株式会社ｅｎ’ｓ　ｌｉｆｅ,,株式会社,東京都,港区,南青山３丁目１－３６青山丸竹ビル６Ｆ,,13,103,1070062,,,,,,,2023-01-31,1,,,,,エンズライフ,0
2693,9010601062520,新規,0,2023-01-31,2023-01-31,株式会社Ｌｕｎａｆｉｏｒｅ,,株式会社,東京都,江東区,東砂３丁目３１番１号,,13,108,1360074,,,,,,,2023-01-31,1,,,,,ルナフィオーレ,0
2694,9010703006565,新規,0,2023-01-31,2023-01-31,まつやま興業合同会社,,合同会社,東京都,品川区,戸越４丁目７番１２号,,13,109,1420041,,,,,,,2023-01-31,1,,,,,マツヤマコウギョウ,0
2696,9010801033627,新規,0,2023-01-31,2023-01-31,クマルトレーディング株式会社,,株式会社,東京都,大田区,南雪谷２丁目１１番２４号,,13,111,1450066,,,,,,,2023-01-31,1,,,,,クマルトレーディング,0
2700,9010901052436,新規,0,2023-01-31,2023-01-31,株式会社ｋｏｔｏｗｎ,,株式会社,東京都,世田谷区,成城６丁目１６番１２号,,13,112,1570066,,,,,,,2023-01-31,1,,,,,コータウン,0
2702,9010903007909,新規,0,2023-01-31,2023-01-31,合同会社ｏｆｆｅｒ,,合同会社,東京都,世田谷区,北烏山３丁目１８番２１号,,13,112,1570061,,,,,,,2023-01-31,1,,,,,オファー,0
2703,9010903007933,新規,0,2023-01-31,2023-01-31,Ｋ．Ｃ．Ｓ合同会社,,合同会社,東京都,世田谷区,喜多見９丁目５番１７号,,13,112,1570067,,,,,,,2023-01-31,1,,,,,ケーシーエス,0
2708,9011001152250,新規,0,2023-01-31,2023-01-31,株式会社ミチルコーポレーション,,株式会社,東京都,渋谷区,千駄ヶ谷３丁目１４番３－９０１号,,13,113,1510051,,,,,,,2023-01-31,1,,,,,ミチルコーポレーション,0
2709,9011001152267,新規,0,2023-01-31,2023-01-31,株式会社ＮＥＸＵＳ,,株式会社,東京都,渋谷区,道玄坂１丁目１０番８号渋谷道玄坂東急ビル２Ｆ－Ｃ,,13,113,1500043,,,,,,,2023-01-31,1,,,,,,0
2710,9011001152275,新規,0,2023-01-31,2023-01-31,株式会社近代プラスラボ,,株式会社,東京都,渋谷区,神泉町２０番２１号クロスシー渋谷神泉ビル５－１６,,13,113,1500045,,,,,,,2023-01-31,1,,,,,キンダイプラスラボ,0
2711,9011001152291,新規,0,2023-01-31,2023-01-31,バリュー・インベストメンツ株式会社,,株式会社,東京都,目黒区,鷹番１丁目９番２２号,,13,110,1520004,,,,,,,2023-01-31,1,,,,,バリューインベストメンツ,0
2712,9011001152300,新規,0,2023-01-31,2023-01-31,株式会社Ｔａｎａｋａ＆Ａｓｓｏｃｉａｔｅｓ,,株式会社,東京都,渋谷区,神宮前６丁目３４番１４号原宿表参道ビル３Ｆ,,13,113,1500001,,,,,,,2023-01-31,1,,,,,タナカアンドアソシエイツ,0
2715,9011101101677,新規,0,2023-01-31,2023-01-31,電力総合サービス株式会社,,株式会社,東京都,新宿区,西新宿６丁目１５番１－１１０４号,,13,104,1600023,,,,,,,2023-01-31,1,,,,,,0
2716,9011101101693,新規,0,2023-01-31,2023-01-31,株式会社Ｒｅｂｅｌｌｉｏｎ,,株式会社,東京都,新宿区,西新宿７丁目７番３３号新銘ビル４階,,13,104,1600023,,,,,,,2023-01-31,1,,,,,リベリオン,0
2727,9011203003994,新規,0,2023-01-31,2023-01-31,ＭＪファクトリー合同会社,,合同会社,東京都,中野区,新井４丁目３２番１２－１１０号,,13,114,1650026,,,,,,,2023-01-31,1,,,,,エムジェイファクトリー,0
2735,9011701025978,新規,0,2023-01-31,2023-01-31,株式会社Ｊｕｕｒｉ,,株式会社,東京都,江戸川区,春江町２丁目１６番２０号グランデュール１０２,,13,123,1320003,,,,,,,2023-01-31,1,,,,,ユーリ,0
2736,9011801041859,新規,0,2023-01-31,2023-01-31,株式会社仲條商店,,株式会社,東京都,足立区,辰沼２丁目１７番１６号,,13,121,1210054,,,,,,,2023-01-31,1,,,,,ナカジョウショウテン,0
2751,9020001150040,新規,0,2023-01-31,2023-01-31,株式会社ディーノ,,株式会社,神奈川県,川崎市川崎区,小川町４番地１,,14,131,2100023,,,,,,,2023-01-31,1,,,,,ディーノ,0
2752,9020001150065,新規,0,2023-01-31,2023-01-31,株式会社エイチアンドティー,,株式会社,神奈川県,川崎市宮前区,鷺沼４丁目１番６号ラーチ鷺沼１０６,,14,136,2160004,,,,,,,2023-01-31,1,,,,,エイチアンドティー,0
2754,9020003023178,新規,0,2023-01-31,2023-01-31,Ｇｏｏｄ　Ｇｏｒｔｕｎｅ合同会社,,合同会社,神奈川県,横浜市戸塚区,矢部町１５３０番地１ルピナス戸塚・参番館３－３０５号,,14,110,2440002,,,,,,,2023-01-31,1,,,,,グッドゴォーチュン,0
2755,9020005015834,新規,0,2023-01-31,2023-01-31,特定非営利活動法人セイラビリティ横濱,,その他の設立登記法人,神奈川県,横浜市金沢区,幸浦１丁目２番地３横浜港木材倉庫株式会社内,,14,108,2360003,,,,,,,2023-01-31,1,,,,,セイラビリティヨコハマ,0
2757,9021001078040,新規,0,2023-01-31,2023-01-31,株式会社ｎｏｂｕ,,株式会社,神奈川県,三浦郡葉山町,一色５３０－１６６,,14,301,2400111,,,,,,,2023-01-31,1,,,,,ノブ,0
2758,9021001078081,新規,0,2023-01-31,2023-01-31,御旗地所株式会社,,株式会社,神奈川県,横須賀市,大滝町２丁目６番地ザ・タワー横須賀中央２７０３,,14,201,2380008,,,,,,,2023-01-31,1,,,,,ミハタジショ,0
2759,9021001078098,新規,0,2023-01-31,2023-01-31,ＳＰＩＣＡホールディングス株式会社,,株式会社,神奈川県,大和市,中央１丁目７番４号,,14,213,2420021,,,,,,,2023-01-31,1,,,,,スピカホールディングス,0
2760,9021003012666,新規,0,2023-01-31,2023-01-31,東洋トレーディング合同会社,,合同会社,神奈川県,大和市,西鶴間１丁目９番１８号,,14,213,2420005,,,,,,,2023-01-31,1,,,,,,0
2761,9021003012682,新規,0,2023-01-31,2023-01-31,合同会社つや子医療システムよろずや,,合同会社,神奈川県,茅ヶ崎市,幸町２１番３４号,,14,207,2530052,,,,,,,2023-01-31,1,,,,,ツヤコイリョウシステムヨロズヤ,0
2766,9030001152127,新規,0,2023-01-31,2023-01-31,株式会社Ａｎｇｅｌｕｘ,,株式会社,埼玉県,川口市,安行出羽４丁目７番２９号ピュアシャングリラＡ棟１０６,,11,203,3340052,,,,,,,2023-01-31,1,,,,,アンジェルクス,0
2767,9030001152143,新規,0,2023-01-31,2023-01-31,スターツアーズ株式会社,,株式会社,埼玉県,川口市,幸町３丁目８番７－２０３号,,11,203,3320016,,,,,,,2023-01-31,1,,,,,スターツアーズ,0
2768,9030001152192,新規,0,2023-01-31,2023-01-31,ＪＶ　ＩＮＶＥＳＴＭＥＮＴ株式会社,,株式会社,埼玉県,さいたま市見沼区,大和田町１丁目８１３－１,,11,104,3370053,,,,,,,2023-01-31,1,,,,,ジェイブイインベストメント,0
2771,9030003021073,新規,0,2023-01-31,2023-01-31,合同会社Ｒｏｏｔｓ,,合同会社,埼玉県,鴻巣市,松原３丁目１８－２６,,11,217,3650042,,,,,,,2023-01-31,1,,,,,ルーツ,0
2786,9040001126856,新規,0,2023-01-31,2023-01-31,アドバイザー株式会社,,株式会社,千葉県,柏市,松ケ崎１１７０番１９７,,12,217,2770835,,,,,,,2023-01-31,1,,,,,アドバイザー,0
2821,9040003021799,新規,0,2023-01-31,2023-01-31,ＡＮＥＸＴ合同会社,,合同会社,千葉県,船橋市,夏見３丁目１０番１５号,,12,204,2730865,,,,,,,2023-01-31,1,,,,,アネクスト,0
2828,9040005021896,新規,0,2023-01-31,2023-01-31,一般社団法人信英医学研究所,,その他の設立登記法人,千葉県,柏市,高柳１丁目１番１号シャーメゾン高柳１０２,,12,217,2770941,,,,,,,2023-01-31,1,,,,,シンエイイガクケンキュウジョ,0
2833,9060003004397,新規,0,2023-01-31,2023-01-31,ＤＯＮ合同会社,,合同会社,栃木県,佐野市,植下町５９１番地１舘野アパート西－Ｂ,,09,204,3270835,,,,,,,2023-01-31,1,,,,,ドン,0
2835,9070001040071,新規,0,2023-01-31,2023-01-31,株式会社Ｐｒｏｕｄ　ｂｉｚ,,株式会社,群馬県,高崎市,栄町１６番１７－８０１号,,10,202,3700841,,,,,,,2023-01-31,1,,,,,プラウドビズ,0
2838,9080001025427,新規,0,2023-01-31,2023-01-31,株式会社ＹＳＫ,,株式会社,静岡県,藤枝市,天王町３丁目１０番２５号,,22,214,4260019,,,,,,,2023-01-31,1,,,,,ワイエスケイ,0
2840,9080101023768,新規,0,2023-01-31,2023-01-31,株式会社フジノデリス,,株式会社,静岡県,御殿場市,東田中３丁目１５番７号,,22,215,4120026,,,,,,,2023-01-31,1,,,,,フジノデリス,0
2850,9120001252066,新規,0,2023-01-31,2023-01-31,株式会社山本ホールディングス,,株式会社,大阪府,大阪市平野区,加美北１丁目４番２４－４１５号,,27,126,5470001,,,,,,,2023-01-31,1,,,,,ヤマモトホールディングス,0
2851,9120001252074,新規,0,2023-01-31,2023-01-31,芋屋六三郎株式会社,,株式会社,大阪府,枚方市,香里園桜木町１番２１号,,27,210,5730088,,,,,,,2023-01-31,1,,,,,イモヤロクサブロウ,0
2852,9120001252082,新規,0,2023-01-31,2023-01-31,株式会社Ｇｒａｎｄ　Ｌｉｎｅ,,株式会社,大阪府,大阪市西区,本田２丁目１２番２号２Ｆ,,27,106,5500022,,,,,,,2023-01-31,1,,,,,グランドライン,0
2853,9120001252090,新規,0,2023-01-31,2023-01-31,株式会社リフト,,株式会社,大阪府,大阪市住之江区,西住之江４丁目６番１８号,,27,125,5590005,,,,,,,2023-01-31,1,,,,,リフト,0
2854,9120001252116,新規,0,2023-01-31,2023-01-31,株式会社ユナイティ,,株式会社,大阪府,大阪市東淀川区,上新庄２丁目２４番２３号,,27,114,5330006,,,,,,,2023-01-31,1,,,,,ユナイティ,0
2855,9120001252124,新規,0,2023-01-31,2023-01-31,株式会社ＶＯ　ＧＲＯＵＰ　ＪＡＰＡＮ,,株式会社,大阪府,大阪市平野区,平野西１丁目６番２４号,,27,126,5470033,,,,,,,2023-01-31,1,,,,,ヴォグループジャパン,0
2856,9120001252132,新規,0,2023-01-31,2023-01-31,ＭＳコンサルティング株式会社,,株式会社,大阪府,大阪市西淀川区,御幣島３丁目８番７－１１０２号,,27,113,5550012,,,,,,,2023-01-31,1,,,,,エムエスコンサルティング,0
2857,9120001252140,新規,0,2023-01-31,2023-01-31,株式会社Ｖ・Ｒ・Ｅ,,株式会社,大阪府,大阪市北区,曾根崎新地１丁目１－４４フジモトビル６Ａ,,27,127,5300002,,,,,,,2023-01-31,1,,,,,ヴイアールイー,0
2858,9120003023341,新規,0,2023-01-31,2023-01-31,ＩＴ　Ｉｎｖｅｓｔｍｅｎｔ合同会社,,合同会社,大阪府,大阪市北区,梅田２丁目２番２号ヒルトンプラザウエストオフィスタワー１９階,,27,127,5300001,,,,,,,2023-01-31,1,,,,,アイティインベストメント,0
2859,9120101066894,新規,0,2023-01-31,2023-01-31,ＯＳＡＫＡ　ＣＯＮＮＥＣＴ株式会社,,株式会社,大阪府,堺市堺区,香ヶ丘町４丁３番３３号２Ｆ,,27,141,5900011,,,,,,,2023-01-31,1,,,,,オオサカコネクト,0
2860,9120101066903,新規,0,2023-01-31,2023-01-31,株式会社Ｇ,,株式会社,大阪府,松原市,小川５丁目２４番１４号,,27,217,5800002,,,,,,,2023-01-31,1,,,,,ジー,0
2861,9120901047045,新規,0,2023-01-31,2023-01-31,株式会社ブランド,,株式会社,大阪府,摂津市,新在家１丁目１０番２号木田ハイツ１０２号,,27,224,5660055,,,,,,,2023-01-31,1,,,,,ブランド,0
2862,9120901047061,新規,0,2023-01-31,2023-01-31,ｍｉｎｅ株式会社,,株式会社,大阪府,高槻市,上田辺町６－２３上田辺薩摩ビル５０５,00129279,27,207,5690805,,,,,,,2023-01-31,1,,,,,マイン,0
2865,9130001073577,新規,0,2023-01-31,2023-01-31,株式会社Ｇａｒ　Ｓｅｃｏｎｄ,,株式会社,京都府,京都市東山区,祇園町南側５７０番地７１,,26,105,6050074,,,,,,,2023-01-31,1,,,,,ガーセカンド,0
2866,9130001073585,新規,0,2023-01-31,2023-01-31,株式会社アミタホールディングス,,株式会社,京都府,京都市左京区,下鴨泉川町３６番地の２１,,26,103,6060807,,,,,,,2023-01-31,1,,,,,アミタホールディングス,0
2871,9140001128933,新規,0,2023-01-31,2023-01-31,株式会社グッドウィズ,,株式会社,兵庫県,宝塚市,売布きよしガ丘１０－３,,28,214,6650855,,,,,,,2023-01-31,1,,,,,グッドウィズ,0
2880,9170001017456,新規,0,2023-01-31,2023-01-31,アーベント・シュテルン株式会社,,株式会社,和歌山県,御坊市,島９１９番地１,,30,205,6440003,,,,,,,2023-01-31,1,,,,,アーベントシュテルン,0
2887,9180001154728,新規,0,2023-01-31,2023-01-31,Ａｌｌｉａｎｃｅ株式会社,,株式会社,愛知県,名古屋市中区,新栄２丁目３５番６号丸美ロイヤル新栄１３０４号,,23,106,4600007,,,,,,,2023-01-31,1,,,,,アライアンス,0
2888,9180001154736,新規,0,2023-01-31,2023-01-31,株式会社通達産業,,株式会社,愛知県,北名古屋市,鹿田東蒲屋敷５５７番９－２０１号,,23,234,4810004,,,,,,,2023-01-31,1,,,,,ツウタツサンギョウ,0
2889,9180001154769,新規,0,2023-01-31,2023-01-31,株式会社ＵＮＩＴＹ,,株式会社,愛知県,一宮市,篭屋３丁目８番４,,23,203,4940002,,,,,,,2023-01-31,1,,,,,ユニティ,0
2892,9180303005587,新規,0,2023-01-31,2023-01-31,合同会社ＳＯＡｓｏａ,,合同会社,愛知県,岡崎市,能見通１丁目４６番地,,23,202,4440073,,,,,,,2023-01-31,1,,,,,ソアソア,0
2894,9190001030135,新規,0,2023-01-31,2023-01-31,株式会社セテイラ,,株式会社,三重県,津市,南新町５番１１－６０１号,,24,201,5140043,,,,,,,2023-01-31,1,,,,,セテイラ,0
2916,9290001100357,新規,0,2023-01-31,2023-01-31,株式会社ＭＯＴＹＬＥ,,株式会社,福岡県,福岡市中央区,桜坂１丁目１６番１－５０２号,,40,133,8100024,,,,,,,2023-01-31,1,,,,,モティール,0
2917,9290001100398,新規,0,2023-01-31,2023-01-31,株式会社ピークスキャリア,,株式会社,福岡県,福岡市南区,大楠３丁目２１－５高宮東ビル２階,,40,134,8150082,,,,,,,2023-01-31,1,,,,,ピークスキャリア,0
2919,9290003013466,新規,0,2023-01-31,2023-01-31,ほえみ合同会社,,合同会社,福岡県,福岡市中央区,大手門２丁目３－３１－９０１,,40,133,8100074,,,,,,,2023-01-31,1,,,,,,0
2920,9290005018926,新規,0,2023-01-31,2023-01-31,医療法人聰仁会,,その他の設立登記法人,福岡県,福岡市早良区,田隈２丁目８番１３号,,40,137,8140174,,,,,,,2023-01-31,1,,,,,ソウジンカイ,0
2921,9290005018934,新規,0,2023-01-31,2023-01-31,一般社団法人福岡終活支援センター,,その他の設立登記法人,福岡県,福岡市西区,姪浜駅南２丁目２０番２５号,,40,135,8190006,,,,,,,2023-01-31,1,,,,,フクオカシュウカツシエンセンター,0
2923,9310001018241,新規,0,2023-01-31,2023-01-31,株式会社西海自家用自動車,,株式会社,長崎県,西海市,西海町川内郷１１０６番地５,,42,212,8513502,,,,,,,2023-01-31,1,,,,,サイカイジカヨウジドウシャ,0
2935,9360005006782,新規,0,2023-01-31,2023-01-31,一般社団法人マネーキャリアラボ,,その他の設立登記法人,沖縄県,豊見城市,字豊崎３番地５９,,47,212,9010225,,,,,,,2023-01-31,1,,,,,マネーキャリアラボ,0
2939,9380001033432,新規,0,2023-01-31,2023-01-31,株式会社Ｋ’ｓ外装,,株式会社,福島県,石川郡平田村,大字永田字切山１５７番地の３,,07,503,9638205,,,,,,,2023-01-31,1,,,,,ケーズガイソウ,0
2943,9410001013380,新規,0,2023-01-31,2023-01-31,株式会社ｄｅｇｏｒａ‐ｍａｇｏｒａ,,株式会社,秋田県,秋田市,泉菅野２丁目６番１３号,,05,201,0100817,,,,,,,2023-01-31,1,,,,,デゴラマゴラ,0
2945,9430001088280,新規,0,2023-01-31,2023-01-31,株式会社ＴＯＯＺ,,株式会社,北海道,札幌市中央区,北五条西８丁目１番地１ラ・トゥール札幌伊藤ガーデン２８０６号,,01,101,0600005,,,,,,,2023-01-31,1,,,,,トゥーズ,0
2946,9430001088314,新規,0,2023-01-31,2023-01-31,株式会社札幌ＥＣ,,株式会社,北海道,札幌市手稲区,富丘三条３丁目７番２０号,,01,109,0060013,,,,,,,2023-01-31,1,,,,,サッポロイーシー,0
2956,9700150112565,新規,0,2023-01-31,2022-11-04,ｓｏａｖｅ　ｍｕｓｉｃ,,その他,大分県,別府市,浜町４－５シーサイドビルＢ１５３号,,44,202,8740945,,,,,,,2022-11-04,1,,,,,ソアーベミユージツク,0
2957,9700150114009,新規,0,2023-01-31,2023-01-31,Ｓ　Ｎ　ＬＡＮＫＡ　ＴＲＡＤＩＮＧ　ＰＲＩＶＡＴＥ　ＬＩＭＩＴＥＤ,,外国会社等,神奈川県,大和市,福田１３８０－５Ａ４,,14,213,2420024,スリランカ民主社会主義共和国、キャンディ、アンバテンネ、プージャーピティヤジャンクション、０５番,,,,,,2023-01-31,1,,,,,エスエンランカトレーデイングプライベートリミテツド,0
2958,9700150114033,新規,0,2023-01-31,2023-01-31,ＣＥＡ　Ｐｒｏｐｅｒｔｙ　Ｐｔｙ　Ｌｔｄ,,外国会社等,北海道,虻田郡倶知安町,ニセコひらふ一条４丁目４－５－３０８,,01,400,0440080,Ｓｔｒｅｅｔ６２ＢｕｒｗｏｏｄＳｔＣｉｔｙＢｕｒｗｏｏｄＳｔａｔｅＮＳＷ２１３４Ａｕｓｔｒａｌｉａ,,,,,,2023-01-31,1,,,,,シーイーエープロパテイーピーテイーワイエルテイーデイー,0
2959,9700150114041,新規,0,2023-01-31,2023-01-31,Ｍｉｎａ　ｓｙｓｔｅｍｓ　ＬＬＣ,,外国会社等,東京都,渋谷区,恵比寿西１丁目３６－２－１３０３,,13,113,1500021,１　Ｎｏｒｔｈ　Ｂｒｅｎｔｗｏｏｄ，Ｓｕｉｔｅ　１０００，Ｓｔ．Ｌｏｕｉｓ，ＭＯ　６３１０５,,,,,,2023-01-31,1,,,,,ミナシステムズエルエルシー,0
2960,9700150114058,新規,0,2023-01-31,2023-01-31,ｓｈｅｎｚｈｅｎｓｈｉ　ｂａｏｃｈｅｎｇｇｕｏｊｉ　ｍａｏｙｉｙｏｕｘｉａｎｇｏｎｇｓｉ,,外国会社等,,,,,,,,ｓｈｅｎｚｈｅｎｓｈｉ，ｌｏｎｇｇａｎｇｑｕ，ｂｕｌｏｎｇｌｕ，ｌｉｈｕｈｕａｙｕａｎ，１７ｄｏｎｇｈｕｂｉｎｇｅ４２１，ｓｈｅｎｚｈｅｎ，ｇｕｎｇｄｏｎｇ，ｃｈｉｎａ,,,,,,2023-01-31,1,,,,,シンセンシバオケングオジマオイユウゲンコウシ,0
2961,9700150114066,新規,0,2023-01-31,2023-01-31,Ｗｅｎｚｈｏｕ　Ｔｉｌｏｎｇ　Ｋｅｊｉ　Ｙｕｏｘｉａｎｇｏｎｇｓｉ,,外国会社等,,,,,,,,Ｎｏ．５１，Ｚｈｏｎｇｔａｎｇ　Ｒｏａｄ，Ｚｅｙａ　Ｔｏｗｎ，Ｏｕｈａｉ　Ｄｉｓｔｒｉｃｔ，Ｗｅｎｚｈｏｕ　Ｃｉｔｙ，Ｚｈｅｊｉａｎｇ　Ｐｒｏｖｉｎｃｅ（ｔｈｅ　ｆｉｒｓｔ　ｆｌｏｏｒ）Ｃｈｉｎａ,,,,,,2023-01-31,1,,,,,ウェンゾウタイロンケジユウゲンコウシ,0
