sequenceNumber,corporateNumber,process,correct,updateDate,changeDate,name,nameImageId,kind,prefectureName,cityName,streetNumber,addressImageId,prefectureCode,cityCode,postCode,addressOutside,addressOutsideImageId,closeDate,closeCause,successorCorporateNumber,changeCause,assignmentDate,latest,enName,enPrefectureName,enCityName,enAddressOutside,furigana,hihyoji
45,1011101069674,登記記録の閉鎖等,0,2022-07-05,2022-06-30,株式会社坂の上総合研究所,,株式会社,東京都,新宿区,神楽坂５丁目２０番地５－２２０３号,,13,104,1620825,,,2022-06-30,清算の結了等,,,2015-10-05,1,,,,,サカノウエソウゴウケンキュウショ,0
56,1011702016364,登記記録の閉鎖等,0,2022-07-05,2022-07-04,有限会社リバートップ,,有限会社,東京都,江戸川区,南小岩７丁目２番２号,,13,123,1330056,,,2022-07-04,清算の結了等,,,2015-10-05,1,,,,,リバートップ,0
80,1020001110464,登記記録の閉鎖等,0,2022-07-05,2022-06-28,株式会社オラリアス,,株式会社,神奈川県,横浜市港北区,大倉山２丁目３番２７号,,14,109,2220037,,,2022-06-28,清算の結了等,,,2015-10-05,1,,,,,オラリアス,0
87,1021001022435,登記記録の閉鎖等,0,2022-07-05,2022-06-27,株式会社神奈川精機,,株式会社,東京都,中央区,新川２丁目１８番４号八重洲マンション４０１,,13,102,1040033,,,2022-06-27,清算の結了等,,,2015-10-05,1,,,,,カナガワセイキ,0
104,1040001096925,登記記録の閉鎖等,0,2022-07-05,2022-06-22,株式会社愛宕工業,,株式会社,千葉県,銚子市,笠上町６９７７番地の１１,,12,202,2880004,,,2022-06-22,清算の結了等,,,2016-09-13,1,,,,,アタゴコウギョウ,0
113,1070001027910,登記記録の閉鎖等,0,2022-07-05,2022-06-23,株式会社仏法僧,,株式会社,群馬県,安中市,大竹１９０番地３,,10,211,3790121,,,2022-06-23,清算の結了等,,,2015-10-05,1,,,,,ブッポウソウ,0
145,1120002068535,登記記録の閉鎖等,0,2022-07-05,2022-07-01,有限会社栄角,,有限会社,大阪府,大阪市中央区,道修町１丁目５番７号,,27,128,5410045,,,2022-07-01,合併による解散等,9120001032542,令和４年７月１日大阪市中央区道修町一丁目５番７号株式会社ピカソ（9120001032542）に合併し解散,2015-10-05,1,,,,,エイカク,0
148,1120005007226,登記記録の閉鎖等,0,2022-07-05,2022-06-28,新日本特紡工業組合,,その他の設立登記法人,大阪府,大阪市中央区,久太郎町１丁目６番１５号,,27,128,5410056,,,2022-06-28,清算の結了等,,,2015-10-05,1,,,,,シンニホントクボウ,0
182,1180001013115,登記記録の閉鎖等,0,2022-07-05,2022-06-29,株式会社日本浮世絵同好会,,株式会社,愛知県,名古屋市北区,東味鋺１丁目２３０１番地,,23,103,4620013,,,2022-06-29,清算の結了等,,,2015-10-05,1,,,,,ニホンウキヨエドウコウカイ,0
187,1180001074231,登記記録の閉鎖等,0,2022-07-05,2022-06-30,株式会社システム中部,,株式会社,愛知県,春日井市,春見町５２番地の９,,23,206,4860837,,,2022-06-30,清算の結了等,,,2015-10-05,1,,,,,,0
199,1180003001844,登記記録の閉鎖等,0,2022-07-05,2022-06-30,合同会社大栄商店,,合同会社,愛知県,名古屋市北区,大曽根２丁目８番５６号,,23,103,4620825,,,2022-06-30,清算の結了等,,,2015-10-05,1,,,,,,0
219,1260005005026,登記記録の閉鎖等,0,2022-07-05,2022-06-30,岡山県西部再生資源協同組合,,その他の設立登記法人,岡山県,笠岡市,笠岡５９１１番地の３,,33,205,7140081,,,2022-06-30,清算の結了等,,,2015-10-05,1,,,,,オカヤマケンセイブサイセイシゲン,0
228,1290001085853,登記記録の閉鎖等,0,2022-07-05,2022-06-28,株式会社新日本語教育,,株式会社,福岡県,久留米市,櫛原町１２７番地９,00117138,40,203,8300013,,,2022-06-28,清算の結了等,,,2019-07-12,1,,,,,シンニホンゴキョウイク,0
246,1320002002507,登記記録の閉鎖等,0,2022-07-05,2022-07-01,有限会社研水,,有限会社,大分県,大分市,錦町１０番１７号三和荘１０３号,,44,201,8700100,,,2022-07-01,清算の結了等,,,2015-10-05,1,,,,,ケンスイ,0
250,1330002018262,登記記録の閉鎖等,0,2022-07-05,2022-06-23,有限会社ペック,,有限会社,熊本県,合志市,御代志２０７４番地１,,43,216,8611104,,,2022-06-23,清算の結了等,,,2015-10-05,1,,,,,ペック,0
263,1380001020891,登記記録の閉鎖等,0,2022-07-05,2022-07-01,株式会社南会建機,,株式会社,福島県,南会津郡只見町,大字大倉字上田１６２番地１,,07,367,9680602,,,2022-07-01,合併による解散等,4380001017530,令和４年７月１日福島県会津若松市町北町大字上荒久田字鈴木５７番地１株式会社南会西部建設コーポレーション（4380001017530）に合併し解散,2015-10-05,1,,,,,ナンカイケンキ,0
265,1380005010435,登記記録の閉鎖等,0,2022-07-05,2022-06-27,特定非営利活動法人環境ワーキンググループ伊達,,その他の設立登記法人,福島県,伊達市,保原町字半道４９番地２,,07,213,9600635,,,2022-06-27,清算の結了等,,,2015-10-05,1,,,,,カンキョウワーキンググループダテ,0
292,1460302003083,登記記録の閉鎖等,0,2022-07-05,2022-07-04,有限会社新生堂,,有限会社,北海道,紋別郡遠軽町,一条通南１丁目７番地,,01,555,0990417,,,2022-07-04,清算の結了等,,,2015-10-05,1,,,,,シンセイドウ,0
307,2010001186967,登記記録の閉鎖等,0,2022-07-05,2022-07-01,株式会社ウォルクラフト,,株式会社,東京都,中央区,日本橋人形町１丁目１１番２号,,13,102,1030013,,,2022-07-01,合併による解散等,8040001084667,令和４年７月１日東京都中央区日本橋人形町一丁目１１番２号株式会社ＳＧＯ（8040001084667）に合併し解散,2017-10-16,1,,,,,ウォルクラフト,0
308,2010001217053,登記記録の閉鎖等,0,2022-07-05,2022-06-27,ＩＢＭジャパンテクノロジーサービス株式会社,,株式会社,東京都,中央区,日本橋箱崎町１９番２１号,,13,102,1030015,,,2022-06-27,清算の結了等,,,2021-04-06,1,,,,,アイビーエムジャパンテクノロジーサービス,0
314,2010401093391,登記記録の閉鎖等,0,2022-07-05,2022-07-01,ヴィーナスコーポレーション株式会社,,株式会社,大阪府,大阪市中央区,道修町１丁目５番７号,,27,128,5410045,,,2022-07-01,合併による解散等,9120001032542,令和４年７月１日大阪市中央区道修町一丁目５番７号株式会社ピカソ（9120001032542）に合併し解散,2015-10-05,1,,,,,ヴィーナスコーポレーション,0
348,2011702009441,登記記録の閉鎖等,0,2022-07-05,2022-07-01,有限会社ビーンズ,,有限会社,東京都,江戸川区,清新町１丁目１番１１－３１０号,,13,123,1340087,,,2022-07-01,清算の結了等,,,2015-10-05,1,,,,,ビーンズ,0
393,2070001033932,登記記録の閉鎖等,0,2022-07-05,2022-06-23,パワースライダー株式会社,,株式会社,群馬県,安中市,下秋間３６６４番地１,,10,211,3790104,,,2022-06-23,清算の結了等,,,2017-09-11,1,,,,,パワースライダー,0
400,2080402000712,登記記録の閉鎖等,0,2022-07-05,2022-06-29,有限会社井指商店,,有限会社,静岡県,浜松市南区,新貝町２３９番地の１,,22,134,4350023,,,2022-06-29,清算の結了等,,,2015-10-05,1,,,,,イサシショウテン,0
407,2120001118100,登記記録の閉鎖等,0,2022-07-05,2022-07-01,株式会社サンタ,,株式会社,大阪府,大阪市中央区,道修町１丁目５番７号,,27,128,5410045,,,2022-07-01,合併による解散等,9120001032542,令和４年７月１日大阪市中央区道修町一丁目５番７号株式会社ピカソ（9120001032542）に合併し解散,2015-10-05,1,,,,,サンタ,0
411,2120001173715,登記記録の閉鎖等,0,2022-07-05,2022-07-01,Ｔｈｒｅｅ　Ａ株式会社,,株式会社,大阪府,大阪市平野区,長吉長原４丁目１３番４号,,27,126,5470016,,,2022-07-01,合併による解散等,6120001215389,令和４年７月１日大阪市平野区長吉長原四丁目１３番３号伸栄紙器工業株式会社（6120001215389）に合併し解散,2015-10-05,1,,,,,スリーエー,0
423,2120901015999,登記記録の閉鎖等,0,2022-07-05,2022-07-01,株式会社神戸フーズ,,株式会社,大阪府,茨木市,小柳町９番２１号,,27,211,5670852,,,2022-07-01,合併による解散等,3120901001560,令和４年７月１日大阪府茨木市小柳町９番２１号株式会社ニッショク（3120901001560）に合併し解散,2015-10-05,1,,,,,コウベフーズ,0
446,2180002074031,登記記録の閉鎖等,0,2022-07-05,2022-07-01,有限会社ズームランドスケープデザイン,,有限会社,愛知県,瀬戸市,鹿乗町３３番地,,23,204,4890007,,,2022-07-01,清算の結了等,,,2015-10-05,1,,,,,ズームランドスケープデザイン,0
447,2180003017419,登記記録の閉鎖等,0,2022-07-05,2022-06-29,合同会社彩伸,,合同会社,愛知県,名古屋市千種区,覚王山通７丁目１１番地,,23,101,4640841,,,2022-06-29,清算の結了等,,,2016-10-12,1,,,,,サイシン,0
449,2180303004538,登記記録の閉鎖等,0,2022-07-05,2022-06-29,合同会社ナガサカ商会,,合同会社,愛知県,岡崎市,本宿町字西木竹２４番地１,,23,202,4443505,,,2022-06-29,清算の結了等,,,2020-02-06,1,,,,,ナガサカショウカイ,0
453,2200002016550,登記記録の閉鎖等,0,2022-07-05,2022-06-30,有限会社松仙,,有限会社,岐阜県,加茂郡八百津町,和知１１３６番地の２,,21,505,5050305,,,2022-06-30,清算の結了等,,,2015-10-05,1,,,,,ショウセン,0
455,2210002010429,登記記録の閉鎖等,0,2022-07-05,2022-06-23,有限会社ティーエム企画,,有限会社,福井県,敦賀市,津内町１丁目１４番１号,,18,202,9140056,,,2022-06-23,清算の結了等,,,2015-10-05,1,,,,,ティーエムキカク,0
456,2210002012912,登記記録の閉鎖等,0,2022-07-05,2022-06-28,有限会社熊野米穀店,,有限会社,福井県,鯖江市,水落町２丁目８番１２号,,18,207,9160022,,,2022-06-28,清算の結了等,,,2015-10-05,1,,,,,クマノベイコクテン,0
457,2210002013340,登記記録の閉鎖等,0,2022-07-05,2022-06-28,有限会社福井フレームセンター,,有限会社,福井県,鯖江市,小泉町第６号１０番地５,,18,207,9160084,,,2022-06-28,清算の結了等,,,2015-10-05,1,,,,,フクイフレームセンター,0
464,2220003002028,登記記録の閉鎖等,0,2022-07-05,2022-06-30,ＮＫアカウンティング合同会社,,合同会社,石川県,金沢市,広岡１丁目３番１号,,17,201,9200031,,,2022-06-30,清算の結了等,,,2015-10-05,1,,,,,エヌケーアカウンティング,0
515,2380002010098,登記記録の閉鎖等,0,2022-07-05,2022-06-27,有限会社ジャルパック商会,,有限会社,福島県,郡山市,富久山町久保田字前田８３番地,,07,203,9638071,,,2022-06-27,清算の結了等,,,2015-10-05,1,,,,,ジャルパックショウカイ,0
520,2400001005930,登記記録の閉鎖等,0,2022-07-05,2022-06-27,株式会社エステック,,株式会社,東京都,千代田区,麹町３丁目３番地ＫＤＸ麹町ビル４階,,13,101,1020083,,,2022-06-27,清算の結了等,,,2015-10-05,1,,,,,エステック,0
555,3010003031105,登記記録の閉鎖等,0,2022-07-05,2022-06-24,合同会社Ｐｒｉｍｅ　Ｓｑｕａｒｅ,,合同会社,東京都,文京区,大塚３丁目３番３－７０２号,00118261,13,105,1120012,,,2022-06-24,清算の結了等,,,2019-11-21,1,,,,,プライムスクエア,0
556,3010003035064,登記記録の閉鎖等,0,2022-07-05,2022-06-27,ジャパンストア合同会社,,合同会社,東京都,千代田区,麹町２丁目１０番地３,,13,101,1020083,,,2022-06-27,清算の結了等,,,2021-06-15,1,,,,,ジャパンストア,0
574,3010601049812,登記記録の閉鎖等,0,2022-07-05,2022-07-01,Ｚｅｍａｘ　Ｊａｐａｎ株式会社,,株式会社,東京都,新宿区,市谷本村町２番５号ＡＤ市ヶ谷ビル４階,,13,104,1620845,,,2022-07-01,合併による解散等,6011101057245,令和４年７月１日東京都新宿区西新宿六丁目１０番１号アンシス・ジャパン株式会社（6011101057245）に合併し解散,2016-06-07,1,,,,,ゼマックスジャパン,0
608,3012401022734,登記記録の閉鎖等,0,2022-07-05,2022-06-30,株式会社ｋａｎ工房,,株式会社,東京都,世田谷区,給田２丁目１２番２－２０８号,,13,112,1570064,,,2022-06-30,清算の結了等,,,2015-10-05,1,,,,,カンコウボウ,0
610,3012402018277,登記記録の閉鎖等,0,2022-07-05,2022-07-01,有限会社石川設備,,有限会社,東京都,三鷹市,下連雀２丁目１８番１０－２０５号,,13,204,1810013,,,2022-07-01,清算の結了等,,,2015-10-05,1,,,,,イシカワセツビ,0
611,3012402021487,登記記録の閉鎖等,0,2022-07-05,2022-06-30,有限会社ジョリー・ジョブ,,有限会社,東京都,三鷹市,新川６丁目２７番８－６０２号,,13,204,1810004,,,2022-06-30,清算の結了等,,,2015-10-05,1,,,,,ジョリージョブ,0
658,3050002012936,登記記録の閉鎖等,0,2022-07-05,2022-06-27,有限会社共電社,,有限会社,茨城県,土浦市,高岡８４５番地,,08,203,3004117,,,2022-06-27,清算の結了等,,,2015-10-05,1,,,,,キョウデンシャ,0
659,3060001009057,登記記録の閉鎖等,0,2022-07-05,2022-06-17,株式会社花の蔵,,株式会社,栃木県,日光市,小代４８番地,,09,206,3211107,,,2022-06-17,清算の結了等,,,2015-10-05,1,,,,,ハナノクラ,0
680,3120001118099,登記記録の閉鎖等,0,2022-07-05,2022-07-01,株式会社キュービック,,株式会社,大阪府,大阪市中央区,道修町１丁目５番７号,,27,128,5410045,,,2022-07-01,合併による解散等,9120001032542,令和４年７月１日大阪市中央区道修町一丁目５番７号株式会社ピカソ（9120001032542）に合併し解散,2015-10-05,1,,,,,キュービック,0
684,3120001188695,登記記録の閉鎖等,0,2022-07-05,2022-07-01,株式会社Ａｒｉａ,,株式会社,大阪府,大阪市中央区,道修町１丁目５番７号,,27,128,5410045,,,2022-07-01,合併による解散等,9120001032542,令和４年７月１日大阪市中央区道修町一丁目５番７号株式会社ピカソ（9120001032542）に合併し解散,2015-10-05,1,,,,,アリア,0
704,3120901030519,登記記録の閉鎖等,0,2022-07-05,2022-06-30,株式会社ヤルケンサプライ,,株式会社,大阪府,豊中市,夕日丘１丁目４番２０－３０５号,,27,203,5610864,,,2022-06-30,清算の結了等,,,2015-10-05,1,,,,,ヤルケンサプライ,0
737,3180302008290,登記記録の閉鎖等,0,2022-07-05,2022-06-30,有限会社ダイワホーム,,有限会社,愛知県,豊橋市,植田町字法事堂１１８番地の３,,23,201,4418134,,,2022-06-30,清算の結了等,,,2015-10-05,1,,,,,ダイワホーム,0
746,3230001018305,登記記録の閉鎖等,0,2022-07-05,2022-06-29,ライズラボ株式会社,,株式会社,富山県,富山市,向新庄１３５８番地５,,16,201,9300916,,,2022-06-29,清算の結了等,,,2020-04-14,1,,,,,ライズラボ,0
758,3250005008358,登記記録の閉鎖等,0,2022-07-05,2022-06-28,周南協同組合,,その他の設立登記法人,山口県,下松市,大字山田３６番１号,,35,207,7440041,,,2022-06-28,清算の結了等,,,2017-11-06,1,,,,,シュウナン,0
759,3260001014796,登記記録の閉鎖等,0,2022-07-05,2022-07-01,マルオ・ライオン株式会社,,株式会社,岡山県,岡山市北区,津島南２丁目３番１５号,,33,101,7000085,,,2022-07-01,合併による解散等,7260001012846,令和４年７月１日岡山市北区津島南二丁目３番１５号株式会社オギノリース（7260001012846）に合併し解散,2015-10-05,1,,,,,マルオライオン,0
823,3420001000375,登記記録の閉鎖等,0,2022-07-05,2022-06-27,株式会社アサヒケン,,株式会社,青森県,青森市,大字石江字岡部７６番地１,,02,201,0380003,,,2022-06-27,清算の結了等,,,2015-10-05,1,,,,,アサヒケン,0
827,3430001014481,登記記録の閉鎖等,0,2022-07-05,2022-06-22,株式会社宝石のよねつ,,株式会社,北海道,札幌市中央区,南一条西１丁目１６番４号,,01,101,0600061,,,2022-06-22,清算の結了等,,,2015-10-05,1,,,,,,0
851,4010001175860,登記記録の閉鎖等,0,2022-07-05,2022-07-01,株式会社レジデンシャルペイメント,,株式会社,東京都,中央区,日本橋人形町１丁目１１番２号,,13,102,1030013,,,2022-07-01,合併による解散等,5010001171058,令和４年７月１日東京都中央区日本橋人形町一丁目１１番２号株式会社ヴァンガードスミス（5010001171058）に合併し解散,2016-05-25,1,,,,,レジデンシャルペイメント,0
852,4010001179647,登記記録の閉鎖等,0,2022-07-05,2022-06-27,株式会社風水経,,株式会社,東京都,中央区,銀座２丁目１４番８号ＭＬ１１１１１１１１,,13,102,1040061,,,2022-06-27,清算の結了等,,,2016-11-17,1,,,,,フウスイケイ,0
855,4010001218165,登記記録の閉鎖等,0,2022-07-05,2022-06-27,ＩＢＭジャパンスタッフオペレーション株式会社,,株式会社,東京都,中央区,日本橋箱崎町１９番２１号,,13,102,1030015,,,2022-06-27,清算の結了等,,,2021-05-17,1,,,,,アイビーエムジャパンスタッフオペレーション,0
861,4010002016378,登記記録の閉鎖等,0,2022-07-05,2022-06-27,有限会社あすなろ企画,,有限会社,東京都,中央区,銀座３丁目１２番６号,,13,102,1040061,,,2022-06-27,清算の結了等,,,2015-10-05,1,,,,,アスナロキカク,0
867,4010401159629,登記記録の閉鎖等,0,2022-07-05,2022-06-06,桃山国際オークション株式会社,,株式会社,東京都,港区,港南２丁目１５番１号品川インターシティＡ棟２８階,,13,103,1080075,,,2022-06-06,清算の結了等,,,2021-04-19,1,,,,,モモヤマコクサイオークション,0
868,4010401163317,登記記録の閉鎖等,0,2022-07-05,2022-06-30,株式会社ＷＯＲＬＤ　ＩＮ,,株式会社,東京都,港区,西新橋３丁目１３番７号ＶＯＲＴ虎ノ門ｓｏｕｔｈ１階,,13,103,1050003,,,2022-06-30,清算の結了等,,,2021-10-19,1,,,,,ワールドイン,0
874,4010402026357,登記記録の閉鎖等,0,2022-07-05,2022-06-24,株式会社ホウレンソウ,,株式会社,東京都,中野区,中央５丁目３番１１－１０７号,,13,114,1640011,,,2022-06-24,清算の結了等,,,2015-10-05,1,,,,,ホウレンソウ,0
876,4010405014210,登記記録の閉鎖等,0,2022-07-05,2022-06-17,一般社団法人自主改善活動協会,,その他の設立登記法人,東京都,港区,赤坂１丁目９番１３号三会堂ビル地下１階,,13,103,1070052,,,2022-06-17,清算の結了等,,,2015-10-05,1,,,,,,0
882,4010605002007,登記記録の閉鎖等,0,2022-07-05,2022-06-28,医療法人社団パリアン,,その他の設立登記法人,東京都,墨田区,立川２丁目１番９号ＫＨハウス３階,,13,107,1300023,,,2022-06-28,清算の結了等,,,2015-10-05,1,,,,,パリアン,0
897,4011101033537,登記記録の閉鎖等,0,2022-07-05,2022-06-30,エリア株式会社,,株式会社,東京都,新宿区,新宿５丁目１７番６号,,13,104,1600022,,,2022-06-30,清算の結了等,,,2015-10-05,1,,,,,エリア,0
900,4011102029848,登記記録の閉鎖等,0,2022-07-05,2022-06-30,有限会社ＫＴトラスト,,有限会社,東京都,新宿区,下落合４丁目１９番９号,,13,104,1610033,,,2022-06-30,清算の結了等,,,2015-10-05,1,,,,,ケーティートラスト,0
904,4011201022811,登記記録の閉鎖等,0,2022-07-05,2022-06-24,株式会社スピードリーム,,株式会社,東京都,中野区,中野１丁目２１番２２号,,13,114,1640001,,,2022-06-24,清算の結了等,,,2021-03-11,1,,,,,スピードリーム,0
932,4012701003986,登記記録の閉鎖等,0,2022-07-05,2022-07-01,株式会社磯しん,,株式会社,東京都,清瀬市,松山２丁目１番６号,,13,221,2040022,,,2022-07-01,清算の結了等,,,2015-10-05,1,,,,,,0
954,4021001007210,登記記録の閉鎖等,0,2022-07-05,2022-06-30,株式会社冨田創建,,株式会社,神奈川県,茅ヶ崎市,元町１１番１１号,,14,207,2530043,,,2022-06-30,清算の結了等,,,2015-10-05,1,,,,,トミタソウケン,0
955,4021001049005,登記記録の閉鎖等,0,2022-07-05,2022-06-29,株式会社Ｇ・Ｋアドバンス,,株式会社,神奈川県,厚木市,下古沢２０番地３,,14,212,2430214,,,2022-06-29,清算の結了等,,,2015-10-05,1,,,,,,0
964,4030001127050,登記記録の閉鎖等,0,2022-07-05,2022-06-24,株式会社アンビシャス,,株式会社,埼玉県,さいたま市見沼区,大字小深作３４３番地１,,11,104,3370005,,,2022-06-24,清算の結了等,,,2018-08-16,1,,,,,アンビシャス,0
970,4040001014982,登記記録の閉鎖等,0,2022-07-05,2022-06-28,株式会社Ｔ．Ｐ．Ｃ,,株式会社,千葉県,習志野市,本大久保４丁目３番３６号,,12,216,2750012,,,2022-06-28,清算の結了等,,,2015-10-05,1,,,,,ティピーシー,0
995,4080402004315,登記記録の閉鎖等,0,2022-07-05,2022-06-29,有限会社清光電気,,有限会社,静岡県,浜松市中区,高丘東５丁目１４番１７号,,22,131,4338117,,,2022-06-29,清算の結了等,,,2015-10-05,1,,,,,セイコウデンキ,0
998,4110001036053,登記記録の閉鎖等,0,2022-07-05,2022-06-29,株式会社クロスエリア,,株式会社,新潟県,長岡市,原町１丁目５番地２,,15,202,9400013,,,2022-06-29,清算の結了等,,,2021-09-22,1,,,,,クロスエリア,0
1020,4140001028139,登記記録の閉鎖等,0,2022-07-05,2022-06-30,株式会社ｅＭＰＴ,,株式会社,兵庫県,神戸市須磨区,菊池町１丁目２－５,,28,107,6540008,,,2022-06-30,清算の結了等,,,2015-10-05,1,,,,,エンプティ,0
1021,4140001087011,登記記録の閉鎖等,0,2022-07-05,2022-06-30,株式会社インシュアランス・サポート,,株式会社,兵庫県,宝塚市,山手台東３丁目７番２号,,28,214,6650887,,,2022-06-30,清算の結了等,,,2015-10-05,1,,,,,インシュアランスサポート,0
1024,4150001021522,登記記録の閉鎖等,0,2022-07-05,2022-06-30,株式会社タイムライン,,株式会社,奈良県,香芝市,別所６２番地,,29,210,6390224,,,2022-06-30,清算の結了等,,,2017-05-16,1,,,,,タイムライン,0
1041,4200001012920,登記記録の閉鎖等,0,2022-07-05,2022-06-30,株式会社クローバー,,株式会社,岐阜県,岐阜市,正木西町１１番２５号,,21,201,5020865,,,2022-06-30,清算の結了等,,,2015-10-05,1,,,,,クローバー,0
1071,4290005004633,登記記録の閉鎖等,0,2022-07-05,2022-06-29,北部九州資源リサイクル推進事業協同組合,,その他の設立登記法人,福岡県,福岡市中央区,渡辺通２丁目９番１７号,,40,133,8100004,,,2022-06-29,清算の結了等,,,2015-10-05,1,,,,,ホクブキュウシュウシゲンリサイクルスイシン,0
1104,4380002012332,登記記録の閉鎖等,0,2022-07-05,2022-06-27,有限会社マル＿三瓶工業所,00083604,有限会社,福島県,郡山市,小原田４丁目１２番２５号,,07,203,9638835,,,2022-06-27,清算の結了等,,,2015-10-05,1,,,,,,0
1114,4410001010093,登記記録の閉鎖等,0,2022-07-05,2022-06-24,株式会社ＡＴテック,,株式会社,秋田県,横手市,安本字下御所野１番１１,,05,203,0130811,,,2022-06-24,清算の結了等,,,2015-10-05,1,,,,,エーティーテック,0
1124,4430001072256,登記記録の閉鎖等,0,2022-07-05,2022-06-30,株式会社オーズテック,,株式会社,北海道,札幌市厚別区,大谷地東３丁目１番１号,,01,108,0040041,,,2022-06-30,清算の結了等,,,2016-08-30,1,,,,,オーズテック,0
1127,4450002010320,登記記録の閉鎖等,0,2022-07-05,2022-07-01,有限会社大前商店,,有限会社,北海道,士別市,上士別町二十線五号２９番地,,01,220,0950371,,,2022-07-01,清算の結了等,,,2015-10-05,1,,,,,オオマエショウテン,0
1129,4470001012836,登記記録の閉鎖等,0,2022-07-05,2022-06-30,株式会社ケトル,,株式会社,香川県,高松市,鬼無町鬼無３０５番地８,,37,201,7618026,,,2022-06-30,清算の結了等,,,2015-10-05,1,,,,,ケトル,0
1133,4470002015499,登記記録の閉鎖等,0,2022-07-05,2022-06-30,有限会社雪枝製麸所,,有限会社,香川県,坂出市,横津町２丁目１番３４号,,37,203,7620005,,,2022-06-30,清算の結了等,,,2015-10-05,1,,,,,ユキエセイフショ,0
1137,4500001015331,登記記録の閉鎖等,0,2022-07-05,2022-07-01,宇和島陸送株式会社,,株式会社,愛媛県,宇和島市,坂下津甲４０７番地８８,,38,203,7980087,,,2022-07-01,清算の結了等,,,2015-10-05,1,,,,,ウワジマリクソウ,0
1146,5010101011816,登記記録の閉鎖等,0,2022-07-05,2022-06-29,ＮＳ株式会社,,株式会社,東京都,八王子市,大塚６２７番地の１柴田ビル１階,,13,201,1920352,,,2022-06-29,清算の結了等,,,2015-10-05,1,,,,,エヌエス,0
1156,5010401145396,登記記録の閉鎖等,0,2022-07-05,2022-07-01,株式会社日本障害福祉グループ,,株式会社,東京都,港区,麻布十番２丁目１８番４号１０ポイントビル５０１号,,13,103,1060045,,,2022-07-01,合併による解散等,5070001031834,令和４年６月２０日群馬県前橋市広瀬町三丁目１８番地１５株式会社ｏｎｅｌｉｆｅＬＡＢ（5070001031834）に合併し解散,2019-05-14,1,,,,,ニホンショウガイフクシグループ,0
1191,5011405000298,登記記録の閉鎖等,0,2022-07-05,2022-06-30,中板橋駅南口商店街振興組合,,その他の設立登記法人,東京都,板橋区,弥生町４４番４号,,13,119,1730021,,,2022-06-30,清算の結了等,,,2015-10-05,1,,,,,ナカイタバシエキミナミグチ,0
1214,5020001034040,登記記録の閉鎖等,0,2022-07-05,2022-06-29,日本ビューテック株式会社,,株式会社,神奈川県,横浜市保土ケ谷区,新井町３９１番地,,14,106,2400053,,,2022-06-29,清算の結了等,,,2015-10-05,1,,,,,ニホンビューテック,0
1219,5021001021169,登記記録の閉鎖等,0,2022-07-05,2022-06-29,株式会社太陽機材エンジニアリング,,株式会社,神奈川県,伊勢原市,岡崎５０６８番地４,,14,214,2591135,,,2022-06-29,清算の結了等,,,2015-10-05,1,,,,,タイヨウキザイエンジニアリング,0
1220,5021001049664,登記記録の閉鎖等,0,2022-07-05,2022-06-27,株式会社Ｙ・Ｄ・Ｒ,,株式会社,神奈川県,平塚市,立野町３８番４号,,14,203,2540046,,,2022-06-27,清算の結了等,,,2015-10-05,1,,,,,ワイディアール,0
1223,5030001077352,登記記録の閉鎖等,0,2022-07-05,2022-06-23,ミクロ技研株式会社,,株式会社,埼玉県,川口市,東本郷１丁目６番２８号,,11,203,3340063,,,2022-06-23,清算の結了等,,,2015-10-05,1,,,,,ミクロギケン,0
1242,5080101007659,登記記録の閉鎖等,0,2022-07-05,2022-07-01,株式会社ワース・アライブ,,株式会社,静岡県,御殿場市,竈２０１３番地の３４,,22,215,4120039,,,2022-07-01,清算の結了等,,,2015-10-05,1,,,,,ワースアライブ,0
1246,5080401005008,登記記録の閉鎖等,0,2022-07-05,2022-06-29,株式会社松原屋商店,,株式会社,静岡県,浜松市中区,佐鳴台１丁目８番３号,,22,131,4328021,,,2022-06-29,清算の結了等,,,2015-10-05,1,,,,,マツバラヤショウテン,0
1256,5110002028362,登記記録の閉鎖等,0,2022-07-05,2022-06-29,有限会社テイアール,,有限会社,新潟県,長岡市,学校町１丁目６番３１号,,15,202,9400041,,,2022-06-29,清算の結了等,,,2015-10-05,1,,,,,テイアール,0
1262,5120001082517,登記記録の閉鎖等,0,2022-07-05,2022-07-01,株式会社正龍コーポレーション,,株式会社,大阪府,大阪市中央区,南船場３丁目１１番１８号６階,,27,128,5420081,,,2022-07-01,合併による解散等,9120001077488,令和４年７月１日大阪市中央区南船場三丁目１１番１８号６階株式会社正龍アセットマネジメント（9120001077488）に合併し解散,2015-10-05,1,,,,,セイリュウコーポレーション,0
1271,5120101027504,登記記録の閉鎖等,0,2022-07-05,2022-06-30,株式会社ル・マルシェ,,株式会社,大阪府,大阪狭山市,東野西２丁目８４５番地の３,,27,231,5890001,,,2022-06-30,清算の結了等,,,2015-10-05,1,,,,,ルマルシェ,0
1283,5130001010724,登記記録の閉鎖等,0,2022-07-05,2022-07-01,株式会社三協商会,,株式会社,京都府,京都市南区,吉祥院観音堂南町１番地２１,,26,107,6018347,,,2022-07-01,清算の結了等,,,2015-10-05,1,,,,,サンキョウショウカイ,0
1294,5140001003405,登記記録の閉鎖等,0,2022-07-05,2022-06-28,三協商事株式会社,,株式会社,兵庫県,神戸市灘区,船寺通５丁目３番地８,,28,102,6570842,,,2022-06-28,清算の結了等,,,2015-10-05,1,,,,,サンキョウショウジ,0
1307,5180001000828,登記記録の閉鎖等,0,2022-07-05,2022-07-04,ティエフケー株式会社,,株式会社,愛知県,名古屋市守山区,新守山５０６番地,,23,113,4630070,,,2022-07-04,清算の結了等,,,2015-10-05,1,,,,,ティエフケー,0
1322,5220002006241,登記記録の閉鎖等,0,2022-07-05,2022-06-30,有限会社吉元商事,,有限会社,石川県,金沢市,北町丁７８番地,,17,201,9200055,,,2022-06-30,清算の結了等,,,2015-10-05,1,,,,,ヨシモトショウジ,0
1331,5260001017558,登記記録の閉鎖等,0,2022-07-05,2022-06-30,ネットワールド株式会社,,株式会社,岡山県,玉野市,渋川２丁目１５番３５号,,33,204,7060028,,,2022-06-30,清算の結了等,,,2015-10-05,1,,,,,ネットワールド,0
1343,5290801007549,登記記録の閉鎖等,0,2022-07-05,2022-06-30,株式会社九州エステート,,株式会社,福岡県,北九州市戸畑区,汐井町１番６号,,40,105,8040067,,,2022-06-30,清算の結了等,,,2015-10-05,1,,,,,キュウシュウエステート,0
1348,5290802019816,登記記録の閉鎖等,0,2022-07-05,2022-06-30,有限会社よし宗,,有限会社,福岡県,北九州市若松区,畑谷町１７番１２号,,40,103,8080055,,,2022-06-30,清算の結了等,,,2015-10-05,1,,,,,ヨシソウ,0
1370,5370601000514,登記記録の閉鎖等,0,2022-07-05,2022-06-23,高橋建設株式会社,00082832,株式会社,宮城県,宮城郡七ヶ浜町,松ヶ浜字謡３８番地の７,,04,404,9850812,,,2022-06-23,清算の結了等,,,2015-10-05,1,,,,,タカハシケンセツ,0
1372,5380001018503,登記記録の閉鎖等,0,2022-07-05,2022-07-01,株式会社小原商工,,株式会社,福島県,耶麻郡西会津町,野沢字小屋田乙１４８７番地２,,07,405,9694406,,,2022-07-01,合併による解散等,3380001017787,令和４年７月１日福島県会津若松市日吉町８番３４号福島日石株式会社（3380001017787）に合併し解散,2015-10-05,1,,,,,オバラショウコウ,0
1390,5430002059276,登記記録の閉鎖等,0,2022-07-05,2022-06-20,有限会社登信地建,,有限会社,北海道,白老郡白老町,字竹浦１１８番地の２１３,,01,578,0590642,,,2022-06-20,清算の結了等,,,2015-10-05,1,,,,,トウシンチケン,0
1395,5450001002672,登記記録の閉鎖等,0,2022-07-05,2022-07-04,株式会社宝石のまつ井金正堂,,株式会社,北海道,旭川市,八条通１丁目１４８５番地の７１３,,01,204,0700038,,,2022-07-04,清算の結了等,,,2015-10-05,1,,,,,ホウセキノマツイキンショウドウ,0
1404,5470003000251,登記記録の閉鎖等,0,2022-07-05,2022-06-29,合同会社アベゼ,,合同会社,香川県,高松市,桜町１丁目２番３７,,37,201,7600074,,,2022-06-29,清算の結了等,,,2015-10-05,1,,,,,アベゼ,0
1410,5500001014539,登記記録の閉鎖等,0,2022-07-05,2022-06-30,株式会社石川米吉商店,,株式会社,愛媛県,四国中央市,川之江町１７４５番地,,38,213,7990101,,,2022-06-30,清算の結了等,,,2015-10-05,1,,,,,イシカワヨネキチショウテン,0
1420,6010001172352,登記記録の閉鎖等,0,2022-07-05,2022-06-24,株式会社ｅｒｕ,,株式会社,埼玉県,戸田市,本町４丁目４番４号,,11,224,3350023,,,2022-06-24,清算の結了等,,,2015-12-21,1,,,,,エル,0
1427,6010401137995,登記記録の閉鎖等,0,2022-07-05,2022-06-16,株式会社エイチエムエー,,株式会社,東京都,港区,南麻布３丁目８番６－１０２号,,13,103,1060047,,,2022-06-16,清算の結了等,,,2018-04-26,1,,,,,エイチエムエー,0
1438,6010602010596,登記記録の閉鎖等,0,2022-07-05,2022-06-27,有限会社グリルとみやま,,有限会社,東京都,墨田区,墨田３丁目３１番８号,,13,107,1310031,,,2022-06-27,清算の結了等,,,2015-10-05,1,,,,,グリルトミヤマ,0
1442,6010802015882,登記記録の閉鎖等,0,2022-07-05,2022-06-29,有限会社若江屋,,有限会社,東京都,大田区,池上６丁目１２番２０号,,13,111,1460082,,,2022-06-29,清算の結了等,,,2015-10-05,1,,,,,ワカエヤ,0
1451,6011001109550,登記記録の閉鎖等,0,2022-07-05,2022-06-27,株式会社サルーテ,,株式会社,東京都,渋谷区,恵比寿西１丁目２１番３号,,13,113,1500021,,,2022-06-27,清算の結了等,,,2016-02-17,1,,,,,サルーテ,0
1468,6011201014971,登記記録の閉鎖等,0,2022-07-05,2022-07-01,株式会社ｉｃｏｎ,,株式会社,東京都,新宿区,新宿２丁目１２番１３号新宿アントレサロンビル２階,,13,104,1600022,,,2022-07-01,清算の結了等,,,2015-10-05,1,,,,,アイコン,0
1474,6011302014490,登記記録の閉鎖等,0,2022-07-05,2022-06-30,有限会社クロカワ商会,,有限会社,東京都,杉並区,高井戸西１丁目２７番３号,,13,115,1680071,,,2022-06-30,清算の結了等,,,2015-10-05,1,,,,,クロカワショウカイ,0
1485,6012702007811,登記記録の閉鎖等,0,2022-07-05,2022-07-01,有限会社近藤商事,00058511,有限会社,東京都,東村山市,栄町２丁目１９番３号,,13,213,1890013,,,2022-07-01,清算の結了等,,,2015-10-05,1,,,,,,0
1488,6020001003556,登記記録の閉鎖等,0,2022-07-05,2022-06-29,株式会社アキヤマ,,株式会社,神奈川県,横浜市港南区,大久保３丁目１９番１３号,,14,111,2330007,,,2022-06-29,清算の結了等,,,2015-10-05,1,,,,,アキヤマ,0
1490,6020001092681,登記記録の閉鎖等,0,2022-07-05,2022-06-27,ブライトレターズ株式会社,,株式会社,東京都,渋谷区,渋谷１丁目２０番地２２号北沢館３０１号,,13,113,1500002,,,2022-06-27,清算の結了等,,,2015-10-05,1,,,,,ブライトレターズ,0
1538,6100002039327,登記記録の閉鎖等,0,2022-07-05,2022-06-29,有限会社加藤綿店,,有限会社,長野県,長野市,大字鶴賀田町２４１７番地,,20,201,3800815,,,2022-06-29,清算の結了等,,,2022-06-16,1,,,,,カトウワタテン,0
1598,6180005017297,登記記録の閉鎖等,0,2022-07-05,2022-06-30,一般社団法人東海後見人支援機構,,その他の設立登記法人,愛知県,名古屋市昭和区,桜山町２丁目４８番地の１ジュネコキアージュ桜山７０２,,23,107,4660044,,,2022-06-30,清算の結了等,,,2017-04-28,1,,,,,トウカイコウケンニンシエンキコウ,0
1601,6200001026258,登記記録の閉鎖等,0,2022-07-05,2022-07-01,株式会社ひだ白川郷鳩工房,,株式会社,岐阜県,大野郡白川村,大字鳩谷１１１番地,,21,604,5015629,,,2022-07-01,清算の結了等,,,2015-10-05,1,,,,,ヒダシラカワゴウハトコウボウ,0
1604,6220002010201,登記記録の閉鎖等,0,2022-07-05,2022-06-30,有限会社荒川機業場,,有限会社,石川県,小松市,日末町つ１６番地,,17,203,9230983,,,2022-06-30,清算の結了等,,,2015-10-05,1,,,,,アラカワキギョウジョウ,0
1617,6250001013648,登記記録の閉鎖等,0,2022-07-05,2022-06-29,株式会社イー・ホームズ,,株式会社,山口県,宇部市,大字善和２８番地５,,35,202,7590134,,,2022-06-29,清算の結了等,,,2015-10-05,1,,,,,,0
1623,6260002003102,登記記録の閉鎖等,0,2022-07-05,2022-06-30,有限会社協和保険リサーチ,,有限会社,岡山県,岡山市中区,平井５丁目７番４７の４号,,33,102,7038282,,,2022-06-30,清算の結了等,,,2015-10-05,1,,,,,キョウワホケンリサーチ,0
1626,6270001002624,登記記録の閉鎖等,0,2022-07-05,2022-07-01,株式会社和工房寓,,株式会社,鳥取県,鳥取市,雲山１２４番地２５,,31,201,6800862,,,2022-07-01,清算の結了等,,,2015-10-05,1,,,,,ワコウボウグウ,0
1636,6290002045975,登記記録の閉鎖等,0,2022-07-05,2022-06-27,有限会社毎日屋,,有限会社,福岡県,飯塚市,菰田西２丁目２番３号,,40,205,8200017,,,2022-06-27,清算の結了等,,,2015-10-05,1,,,,,マイニチヤ,0
1657,6350001016161,登記記録の閉鎖等,0,2022-07-05,2022-06-30,株式会社ギオン,,株式会社,宮崎県,西臼杵郡高千穂町,大字三田井７８９番地,,45,441,8821101,,,2022-06-30,清算の結了等,,,2019-12-17,1,,,,,ギオン,0
1670,6430001061604,登記記録の閉鎖等,0,2022-07-05,2022-06-22,株式会社睦商事,,株式会社,北海道,室蘭市,東町５丁目２７番９号,,01,205,0500083,,,2022-06-22,清算の結了等,,,2015-10-05,1,,,,,ムツミショウジ,0
1675,6450002004832,登記記録の閉鎖等,0,2022-07-05,2022-07-01,有限会社北幸裝建,,有限会社,北海道,上川郡鷹栖町,北野東一条１丁目１番１１号,,01,452,0711221,,,2022-07-01,清算の結了等,,,2015-10-05,1,,,,,ホクコウソウケン,0
1692,7010001175552,登記記録の閉鎖等,0,2022-07-05,2022-06-30,札幌電力株式会社,,株式会社,北海道,札幌市中央区,大通西１丁目１４－２桂和大通ビル５０、９Ｆ,,01,101,0600042,,,2022-06-30,清算の結了等,,,2016-05-12,1,,,,,,0
1701,7010003033667,登記記録の閉鎖等,0,2022-07-05,2022-06-27,合同会社ＫＲＦ９７,,合同会社,東京都,千代田区,内幸町２丁目１番６号,,13,101,1000011,,,2022-06-27,清算の結了等,,,2020-12-07,1,,,,,ケイアールエフナインティセブン,0
1737,7011103009350,登記記録の閉鎖等,0,2022-07-05,2022-06-30,合同会社Ｆａｒ　Ｅａｓｔ　Ｅｎｅｒｇｙ商会,,合同会社,東京都,新宿区,神楽坂６丁目８番地,,13,104,1620825,,,2022-06-30,清算の結了等,,,2019-12-25,1,,,,,ファーイーストエナジーショウカイ,0
1776,7021002030919,登記記録の閉鎖等,0,2022-07-05,2022-06-29,有限会社栄進,,有限会社,神奈川県,厚木市,三田南２丁目２１番３５号,,14,212,2430217,,,2022-06-29,清算の結了等,,,2015-10-05,1,,,,,エイシン,0
1781,7030001065124,登記記録の閉鎖等,0,2022-07-05,2022-06-22,株式会社パパスサン,,株式会社,埼玉県,越谷市,谷中町１丁目１３６番地,,11,222,3430856,,,2022-06-22,清算の結了等,,,2015-10-05,1,,,,,パパスサン,0
1824,7120001138457,登記記録の閉鎖等,0,2022-07-05,2022-07-01,平野物産株式会社,,株式会社,大阪府,大阪市中央区,道修町１丁目５番７号,,27,128,5410045,,,2022-07-01,合併による解散等,9120001032542,令和４年７月１日大阪市中央区道修町一丁目５番７号株式会社ピカソ（9120001032542）に合併し解散,2015-10-05,1,,,,,ヒラノブッサン,0
1846,7150001018037,登記記録の閉鎖等,0,2022-07-05,2022-06-30,晃代鉄工株式会社,,株式会社,奈良県,生駒郡三郷町,立野南１丁目２１番４４号,,29,343,6360822,,,2022-06-30,清算の結了等,,,2015-10-05,1,,,,,コウダイテッコウ,0
1848,7160003000669,登記記録の閉鎖等,0,2022-07-05,2022-06-29,合同会社プログレス,,合同会社,滋賀県,東近江市,山路町２８２６番地,,25,213,5211225,,,2022-06-29,清算の結了等,,,2015-10-05,1,,,,,プログレス,0
1870,7220003002155,登記記録の閉鎖等,0,2022-07-05,2022-06-30,合同会社ａｎｎｏｎ,,合同会社,石川県,鹿島郡中能登町,良川壱七部３３番地４,,17,407,9291717,,,2022-06-30,清算の結了等,,,2016-07-07,1,,,,,アンノン,0
1875,7240005002655,登記記録の閉鎖等,0,2022-07-05,2022-06-28,特定非営利活動法人はなみずき,,その他の設立登記法人,広島県,広島市安佐南区,上安２丁目２４番３１号,,34,105,7310154,,,2022-06-28,清算の結了等,,,2015-10-05,1,,,,,ハナミズキ,0
1877,7250002013324,登記記録の閉鎖等,0,2022-07-05,2022-06-29,有限会社秦呉服店,,有限会社,山口県,萩市,大字西田町３９番地１,,35,204,7580046,,,2022-06-29,清算の結了等,,,2015-10-05,1,,,,,ハタゴフクテン,0
1878,7260001000644,登記記録の閉鎖等,0,2022-07-05,2022-06-30,株式会社ウキタ・アクティブ,,株式会社,岡山県,岡山市南区,浦安本町６５番地の１４,,33,104,7028026,,,2022-06-30,清算の結了等,,,2015-10-05,1,,,,,ウキタアクティブ,0
1918,7370002013452,登記記録の閉鎖等,0,2022-07-05,2022-06-24,有限会社本田パーキング,,有限会社,宮城県,仙台市青葉区,国分町２丁目８番６号,,04,101,9800803,,,2022-06-24,清算の結了等,,,2015-10-05,1,,,,,ホンダパーキング,0
1924,7380002019977,登記記録の閉鎖等,0,2022-07-05,2022-06-27,有限会社西武ファッション・プレス,,有限会社,福島県,須賀川市,芹沢町６番地,,07,207,9620036,,,2022-06-27,清算の結了等,,,2015-10-05,1,,,,,,0
1996,8011401011825,登記記録の閉鎖等,0,2022-07-05,2022-06-30,株式会社ウエルネス,,株式会社,東京都,板橋区,東新町２丁目２２番２号,,13,119,1740074,,,2022-06-30,清算の結了等,,,2015-10-05,1,,,,,ウエルネス,0
2014,8020001086657,登記記録の閉鎖等,0,2022-07-05,2022-06-28,株式会社エスケイプラン,,株式会社,神奈川県,横浜市旭区,今宿西町２５５番地,,14,112,2410031,,,2022-06-28,清算の結了等,,,2015-10-05,1,,,,,エスケイプラン,0
2018,8020003015762,登記記録の閉鎖等,0,2022-07-05,2022-06-28,合同会社山口商事,,合同会社,神奈川県,川崎市中原区,小杉御殿町２丁目１２３メゾン・アン・ルージュ３１１号,,14,133,2110068,,,2022-06-28,清算の結了等,,,2019-03-14,1,,,,,ヤマグチショウジ,0
2022,8021001057838,登記記録の閉鎖等,0,2022-07-05,2022-06-29,株式会社メイリオ企画,,株式会社,神奈川県,平塚市,西八幡３丁目２番２３－２号,,14,203,2540073,,,2022-06-29,清算の結了等,,,2015-11-19,1,,,,,,0
2068,8110001010590,登記記録の閉鎖等,0,2022-07-05,2022-06-29,株式会社ジーエー,,株式会社,新潟県,新潟市西蒲区,福島１１７６番地,,15,108,9501344,,,2022-06-29,清算の結了等,,,2015-10-05,1,,,,,ジーエー,0
2070,8110005015256,登記記録の閉鎖等,0,2022-07-05,2022-06-28,一般社団法人ライフサポートマネジメント研究所,,その他の設立登記法人,新潟県,新潟市中央区,西大畑町６２０番地４３,,15,103,9518104,,,2022-06-28,清算の結了等,,,2015-10-05,1,,,,,ライフサポートマネジメントケンキュウジョ,0
2074,8120001124729,登記記録の閉鎖等,0,2022-07-05,2022-06-30,株式会社イーナ,,株式会社,大阪府,大阪市中央区,備後町３丁目４番９号,,27,128,5410051,,,2022-06-30,合併による解散等,4010001221978,令和４年６月１日東京都千代田区丸の内二丁目４番１号株式会社イーナ（4010001221978）に合併し解散,2015-10-05,1,,,,,,0
2086,8120901016001,登記記録の閉鎖等,0,2022-07-05,2022-07-01,株式会社Ｍ．Ｉ．Ｈ,,株式会社,大阪府,茨木市,小柳町９番２１号,,27,211,5670852,,,2022-07-01,合併による解散等,3120901001560,令和４年７月１日大阪府茨木市小柳町９番２１号株式会社ニッショク（3120901001560）に合併し解散,2015-10-05,1,,,,,エムアイエイチ,0
2128,8200001024417,登記記録の閉鎖等,0,2022-07-05,2022-06-30,ケイワ工業株式会社,,株式会社,岐阜県,中津川市,付知町９４２０番地１,,21,206,5080351,,,2022-06-30,清算の結了等,,,2015-10-05,1,,,,,ケイワコウギョウ,0
2129,8200002015992,登記記録の閉鎖等,0,2022-07-05,2022-06-30,有限会社加茂観光,,有限会社,岐阜県,美濃加茂市,西町２丁目７７番地,,21,211,5050046,,,2022-06-30,清算の結了等,,,2015-10-05,1,,,,,カモカンコウ,0
2168,8290805003806,登記記録の閉鎖等,0,2022-07-05,2022-07-04,特定非営利活動法人大地,,その他の設立登記法人,福岡県,北九州市門司区,大字伊川１１４３番地５,,40,101,8000101,,,2022-07-04,清算の結了等,,,2015-10-05,1,,,,,ダイチ,0
2173,8330002022068,登記記録の閉鎖等,0,2022-07-05,2022-06-24,有限会社ケイ・コーポレーション,,有限会社,熊本県,玉名市,大浜町３８６０番地２,,43,206,8650055,,,2022-06-24,清算の結了等,,,2015-10-05,1,,,,,ケイコーポレーション,0
2240,9010701002459,登記記録の閉鎖等,0,2022-07-05,2022-06-30,株式会社カルテックス,,株式会社,東京都,品川区,西五反田２丁目９番７号,,13,109,1410031,,,2022-06-30,清算の結了等,,,2015-10-05,1,,,,,カルテックス,0
2243,9010901019633,登記記録の閉鎖等,0,2022-07-05,2022-06-30,クリエイターズカンパニー株式会社,,株式会社,東京都,狛江市,東和泉１丁目４番１３号,,13,219,2010014,,,2022-06-30,清算の結了等,,,2015-10-05,1,,,,,クリエイターズカンパニー,0
2253,9011101056054,登記記録の閉鎖等,0,2022-07-05,2022-07-01,株式会社ワンダージャパン,,株式会社,東京都,新宿区,百人町１丁目１番４号ＴＫビル６階,,13,104,1690073,,,2022-07-01,清算の結了等,,,2015-10-05,1,,,,,ワンダージャパン,0
2293,9021002026361,登記記録の閉鎖等,0,2022-07-05,2022-06-27,有限会社サット・ウェイ,,有限会社,神奈川県,相模原市南区,相模大野４丁目５番１０－６０６号,,14,153,2520303,,,2022-06-27,清算の結了等,,,2015-10-05,1,,,,,サットウェイ,0
2296,9030001053713,登記記録の閉鎖等,0,2022-07-05,2022-06-30,ザヒルブラザーズ株式会社,,株式会社,宮崎県,都城市,高崎町縄瀬３９７番地,,45,202,8894503,,,2022-06-30,清算の結了等,,,2015-10-05,1,,,,,,0
2314,9060003003515,登記記録の閉鎖等,0,2022-07-05,2022-06-23,合同会社同心,,合同会社,栃木県,那須塩原市,上赤田３１０番地２３８,,09,213,3292748,,,2022-06-23,清算の結了等,,,2020-11-11,1,,,,,ドウシン,0
2321,9080402008006,登記記録の閉鎖等,0,2022-07-05,2022-07-01,有限会社三井建築,,有限会社,静岡県,浜松市中区,高丘東３丁目２６番１５号,,22,131,4338117,,,2022-07-01,清算の結了等,,,2015-10-05,1,,,,,,0
2333,9120001244617,登記記録の閉鎖等,0,2022-07-05,2022-07-01,ＨＴＲ株式会社,,株式会社,大阪府,大阪市住之江区,浜口西１丁目１３番３号,,27,125,5590006,,,2022-07-01,合併による解散等,7120001028121,令和４年７月１日大阪市住之江区浜口西一丁目１３番３号ＨＯＴＡＲＵ株式会社（7120001028121）に合併し解散,2022-03-24,1,,,,,エイチティーアール,0
2340,9120005015007,登記記録の閉鎖等,0,2022-07-05,2022-06-17,特定非営利活動法人東北復興支援きずなの輪,,その他の設立登記法人,宮城県,登米市,津山町柳津字大柳津６３番地,,04,212,9860401,,,2022-06-17,清算の結了等,,,2015-10-05,1,,,,,,0
2348,9120901016000,登記記録の閉鎖等,0,2022-07-05,2022-07-01,株式会社一千,,株式会社,大阪府,茨木市,小柳町９番２１号,,27,211,5670852,,,2022-07-01,合併による解散等,3120901001560,令和４年７月１日大阪府茨木市小柳町９番２１号株式会社ニッショク（3120901001560）に合併し解散,2015-10-05,1,,,,,イッセン,0
2353,9122002000817,登記記録の閉鎖等,0,2022-07-05,2022-06-27,有限会社エム・シー・エー,,有限会社,大阪府,東大阪市,出雲井町５－６シャルマンコーポＫ－１０４,,27,227,5798033,,,2022-06-27,清算の結了等,,,2015-10-05,1,,,,,エムシーエー,0
2364,9140002000439,登記記録の閉鎖等,0,2022-07-05,2022-06-30,新大阪物産有限会社,,有限会社,兵庫県,芦屋市,伊勢町９番１７号,,28,206,6590052,,,2022-06-30,清算の結了等,,,2015-10-05,1,,,,,シンオオサカブッサン,0
2371,9170001007721,登記記録の閉鎖等,0,2022-07-05,2022-06-30,株式会社イー・シー,,株式会社,和歌山県,岩出市,中黒４７８番地の１,,30,209,6496248,,,2022-06-30,清算の結了等,,,2015-10-05,1,,,,,イーシー,0
2386,9200002018615,登記記録の閉鎖等,0,2022-07-05,2022-06-30,有限会社亀山組基礎工業,,有限会社,岐阜県,関市,小屋名９０４番地の２,,21,205,5013941,,,2022-06-30,清算の結了等,,,2015-10-05,1,,,,,カメヤマグミキソコウギョウ,0
2390,9210001002593,登記記録の閉鎖等,0,2022-07-05,2022-06-27,株式会社中七商店,,株式会社,福井県,福井市,成和１丁目２２１３番地,,18,201,9188239,,,2022-06-27,清算の結了等,,,2015-10-05,1,,,,,ナカシチショウテン,0
2413,9260002008461,登記記録の閉鎖等,0,2022-07-05,2022-07-01,有限会社藤建具店,,有限会社,岡山県,岡山市北区,舟橋町７番２９号,,33,101,7000841,,,2022-07-01,清算の結了等,,,2015-10-05,1,,,,,フジタテグテン,0
2414,9290001072729,登記記録の閉鎖等,0,2022-07-05,2022-06-28,株式会社タイセイ,,株式会社,福岡県,大牟田市,小浜町１００番地４,,40,202,8360034,,,2022-06-28,清算の結了等,,,2016-02-03,1,,,,,タイセイ,0
2419,9290003010562,登記記録の閉鎖等,0,2022-07-05,2022-06-28,合同会社えんフィナンシャルファンズ,,合同会社,福岡県,福岡市博多区,住吉３丁目１２番１号えん博多ビル,,40,132,8120018,,,2022-06-28,清算の結了等,,,2020-10-29,1,,,,,エンフィナンシャルファンズ,0
2426,9320001003077,登記記録の閉鎖等,0,2022-07-05,2022-07-04,株式会社協和サプリ,,株式会社,大分県,大分市,今津留１丁目１番７号－１０１,,44,201,8700938,,,2022-07-04,清算の結了等,,,2015-10-05,1,,,,,キョウワサプリ,0
2428,9320002020823,登記記録の閉鎖等,0,2022-07-05,2022-07-01,大栄不動産有限会社,,有限会社,大分県,中津市,大字金手１３９番地の３,,44,203,8710013,,,2022-07-01,清算の結了等,,,2015-10-05,1,,,,,,0
2442,9340002008346,登記記録の閉鎖等,0,2022-07-05,2022-06-30,有限会社フジファーム,,有限会社,鹿児島県,鹿児島市,原良町２１２１番地の２,,46,201,8900025,,,2022-06-30,清算の結了等,,,2015-10-05,1,,,,,,0
2445,9350002011258,登記記録の閉鎖等,0,2022-07-05,2022-06-30,ユキ電工ラボー有限会社,,有限会社,宮崎県,東臼杵郡門川町,城ケ丘１５番１０号,,45,421,8890624,,,2022-06-30,清算の結了等,,,2015-10-05,1,,,,,ユキデンコウラボー,0
2458,9390002007145,登記記録の閉鎖等,0,2022-07-05,2022-06-28,有限会社小野商店,,有限会社,山形県,酒田市,千石町２丁目１１番１４号,,06,204,9980843,,,2022-06-28,清算の結了等,,,2015-10-05,1,,,,,オノショウテン,0
2479,9430002024631,登記記録の閉鎖等,0,2022-07-05,2022-06-22,有限会社コノエビルサービス,,有限会社,北海道,札幌市北区,北十八条西３丁目２番２６号,,01,102,0010018,,,2022-06-22,清算の結了等,,,2015-10-05,1,,,,,コノエビルサービス,0
2480,9430002051725,登記記録の閉鎖等,0,2022-07-05,2022-06-22,有限会社石黒花園,,有限会社,北海道,芦別市,常磐町２０１５番地,,01,216,0750018,,,2022-06-22,清算の結了等,,,2015-10-05,1,,,,,,0
