sequenceNumber,corporateNumber,process,correct,updateDate,changeDate,name,nameImageId,kind,prefectureName,cityName,streetNumber,addressImageId,prefectureCode,cityCode,postCode,addressOutside,addressOutsideImageId,closeDate,closeCause,successorCorporateNumber,changeCause,assignmentDate,latest,enName,enPrefectureName,enCityName,enAddressOutside,furigana,hihyoji
8,1010001227193,新規,0,2022-06-08,2022-06-08,株式会社ＣＡＲＩＮＧ,,株式会社,東京都,千代田区,西神田２丁目５－８共和壱五番館ビル２Ｆ,,13,101,1010065,,,,,,,2022-06-08,1,,,,,ケアリング,0
12,1010003037847,新規,0,2022-06-08,2022-06-08,合同会社ＣＲＥＭＬファンド４,,合同会社,東京都,中央区,京橋１丁目１４番９号株式会社えいえん堂内,,13,102,1040031,,,,,,,2022-06-08,1,,,,,シーアールイーエムエルファンドフォー,0
13,1010005035072,新規,0,2022-06-08,2022-06-08,弁護士法人ＩＬＩ法律事務所,,その他の設立登記法人,東京都,千代田区,神田神保町２丁目２０番１３号Ｙ’ｓコーラルビル３階,,13,101,1010051,,,,,,,2022-06-08,1,,,,,アイエルアイホウリツジムショ,0
14,1010101015201,新規,0,2022-06-08,2022-06-08,株式会社ＭＡＨＡＬＯ　Ｖ．Ｈ．,,株式会社,東京都,八王子市,上野町２７番地５,,13,201,1920902,,,,,,,2022-06-08,1,,,,,マハロブイエイチ,0
17,1010401167808,新規,0,2022-06-08,2022-06-08,Ｔｒｏｉｓ　Ｒｏｉｓ株式会社,,株式会社,東京都,港区,元麻布３丁目１番６号,,13,103,1060046,,,,,,,2022-06-08,1,,,,,トロイスロイス,0
18,1010401167816,新規,0,2022-06-08,2022-06-08,ネクスト・エンゲージメント株式会社,,株式会社,東京都,港区,東麻布１丁目１０番１４－５０５号,,13,103,1060044,,,,,,,2022-06-08,1,,,,,ネクストエンゲージメント,0
24,1010701042768,新規,0,2022-06-08,2022-06-08,ＬＵＣＲＩＳ株式会社,,株式会社,東京都,品川区,南大井３丁目１８番６号南大井ＭＣビル２０２号室,,13,109,1400013,,,,,,,2022-06-08,1,,,,,ラクリス,0
25,1010701042776,新規,0,2022-06-08,2022-06-08,株式会社オイシル,,株式会社,東京都,品川区,北品川５丁目１２－４－７Ｆ,,13,109,1410001,,,,,,,2022-06-08,1,,,,,オイシル,0
35,1011001147885,新規,0,2022-06-08,2022-06-08,株式会社ｅｎａ,,株式会社,東京都,渋谷区,渋谷２丁目１９－１５宮益坂ビルディング６０９,,13,113,1500002,,,,,,,2022-06-08,1,,,,,,0
36,1011001147902,新規,0,2022-06-08,2022-06-08,コンバースブランドマネジメント株式会社,,株式会社,東京都,渋谷区,神宮前１丁目１４番４号,,13,113,1500001,,,,,,,2022-06-08,1,,,,,コンバースブランドマネジメント,0
55,1011801040819,新規,0,2022-06-08,2022-06-08,株式会社チョコ竹の塚,00126806,株式会社,東京都,足立区,保木間２丁目２番６号,,13,121,1210064,,,,,,,2022-06-08,1,,,,,チョコタケノツカ,0
58,1012403005409,新規,0,2022-06-08,2022-06-08,合同会社スターフィールド,,合同会社,東京都,府中市,若松町４丁目２４番地の７カーサグランデＤ－１,,13,206,1830005,,,,,,,2022-06-08,1,,,,,スターフィールド,0
60,1013301049200,新規,0,2022-06-08,2022-06-08,ｄｏｕｂｌｅ　ｊｕｍｐ．ｆｒｏｇ株式会社,,株式会社,東京都,豊島区,東池袋１丁目１７番１１号パークハイツ池袋１１０５号,,13,116,1700013,,,,,,,2022-06-08,1,,,,,ダブルジャンプフロッグ,0
61,1013301049217,新規,0,2022-06-08,2022-06-08,株式会社ＨＯＮＥＹ,,株式会社,東京都,豊島区,西池袋２丁目３９番９号６０５号室,,13,116,1710021,,,,,,,2022-06-08,1,,,,,ハニー,0
64,1013305003351,新規,0,2022-06-08,2022-06-08,一般社団法人心の會,,その他の設立登記法人,東京都,豊島区,南池袋２丁目４１番１７号,,13,116,1710022,,,,,,,2022-06-08,1,,,,,シンノカイ,0
76,1020003021899,新規,0,2022-06-08,2022-06-08,合同会社椎野技工所,,合同会社,神奈川県,横浜市港南区,港南６丁目２７番２０号,,14,111,2330003,,,,,,,2022-06-08,1,,,,,シイノギコウショ,0
80,1021001076134,新規,0,2022-06-08,2022-06-08,株式会社Ｓ．Ｃ,,株式会社,神奈川県,藤沢市,辻堂元町３丁目１５番４号,,14,205,2510043,,,,,,,2022-06-08,1,,,,,エスドットシー,0
81,1021001076150,新規,0,2022-06-08,2022-06-08,株式会社Ｂｕｋｓ,,株式会社,神奈川県,茅ヶ崎市,赤羽根３３６０番地７,,14,207,2530001,,,,,,,2022-06-08,1,,,,,ブクス,0
82,1021001076167,新規,0,2022-06-08,2022-06-08,株式会社セイドウ,,株式会社,神奈川県,平塚市,下吉沢４５０番地の２１,,14,203,2591203,,,,,,,2022-06-08,1,,,,,セイドウ,0
85,1021003011799,新規,0,2022-06-08,2022-06-08,合同会社アンドリュー,,合同会社,神奈川県,相模原市南区,相模大野８丁目２番６－８０５号,,14,153,2520303,,,,,,,2022-06-08,1,,,,,アンドリュー,0
88,1030001148586,新規,0,2022-06-08,2022-06-08,株式会社英樹,,株式会社,埼玉県,入間市,東藤沢４丁目１番６号３０１,,11,225,3580012,,,,,,,2022-06-08,1,,,,,エイキ,0
94,1030003019546,新規,0,2022-06-08,2022-06-08,合同会社小林設備,,合同会社,埼玉県,越谷市,瓦曽根１丁目１３番５号,,11,222,3430821,,,,,,,2022-06-08,1,,,,,コバヤシセツビ,0
104,1040001123712,新規,0,2022-06-08,2022-06-08,株式会社傳商,,株式会社,千葉県,君津市,外箕輪４丁目２０番２７号,,12,225,2991173,,,,,,,2022-06-08,1,,,,,デンショウ,0
105,1040001123720,新規,0,2022-06-08,2022-06-08,涵洋産業株式会社,,株式会社,千葉県,袖ケ浦市,今井３丁目２４番地袖ケ浦シーハイツＣ棟５０１号,,12,229,2990264,,,,,,,2022-06-08,1,,,,,カンヨウサンギョウ,0
106,1040001123778,新規,0,2022-06-08,2022-06-08,株式会社常贏,00126812,株式会社,千葉県,千葉市美浜区,真砂２丁目２３－８－４０２,,12,106,2610011,,,,,,,2022-06-08,1,,,,,ジョウエイ,0
110,1040003020206,新規,0,2022-06-08,2022-06-08,トリガーアンドニックス合同会社,,合同会社,千葉県,浦安市,東野１丁目２７番１－１０１号パークホームズ新浦安カーサ・セントリア,,12,227,2790042,,,,,,,2022-06-08,1,,,,,トリガーアンドニックス,0
113,1050001051169,新規,0,2022-06-08,2022-06-08,株式会社アキラ輸送,,株式会社,茨城県,常総市,中沼１９３番地２,,08,211,3002726,,,,,,,2022-06-08,1,,,,,アキラユソウ,0
118,1060003004099,新規,0,2022-06-08,2022-06-08,ウィステリアトレーディング合同会社,,合同会社,栃木県,芳賀郡茂木町,大字三坂１４４番地１,,09,343,3213532,,,,,,,2022-06-08,1,,,,,ウィステリアトレーディング,0
120,1070001039303,新規,0,2022-06-08,2022-06-08,サンエイレルム株式会社,,株式会社,群馬県,伊勢崎市,連取町３０８０番地１,,10,204,3720812,,,,,,,2022-06-08,1,,,,,サンエイレルム,0
131,1110001036700,新規,0,2022-06-08,2022-06-08,Ｔ‐ｌｉｎｅ株式会社,,株式会社,新潟県,上越市,国府２丁目９番１２号,,15,222,9420082,,,,,,,2022-06-08,1,,,,,ティーライン,0
147,1120001246471,新規,0,2022-06-08,2022-06-08,株式会社Ｗｏｒｌｄ　Ｓｔａｎｄａｒｄ,,株式会社,大阪府,大阪市中央区,南船場４丁目１０番５号南船場ＳＯＨＯビル,,27,128,5420081,,,,,,,2022-06-08,1,,,,,ワールドスタンダード,0
151,1120003021757,新規,0,2022-06-08,2022-06-08,しーさーず合同会社,,合同会社,大阪府,大阪市此花区,伝法１丁目１番１－７２６号,,27,104,5540002,,,,,,,2022-06-08,1,,,,,シーサーズ,0
152,1120101065714,新規,0,2022-06-08,2022-06-08,株式会社山真,,株式会社,大阪府,和泉市,和気町１丁目６番１４号,,27,219,5940073,,,,,,,2022-06-08,1,,,,,ヤマシン,0
156,1122001035929,新規,0,2022-06-08,2022-06-08,株式会社ＩＡＢメディカルイノベーション,,株式会社,大阪府,東大阪市,稲田上町１丁目３番２５号,,27,227,5770002,,,,,,,2022-06-08,1,,,,,アイエービーメディカルイノベーション,0
158,1130001071919,新規,0,2022-06-08,2022-06-08,株式会社岡田測量,,株式会社,京都府,宮津市,字中野２１７番地,,26,205,6292232,,,,,,,2022-06-08,1,,,,,オカダソクリョウ,0
159,1130001071935,新規,0,2022-06-08,2022-06-08,株式会社エミクル,,株式会社,京都府,京都市伏見区,竹田西段川原町１４９,,26,109,6128429,,,,,,,2022-06-08,1,,,,,エミクル,0
163,1140001126234,新規,0,2022-06-08,2022-06-08,株式会社ＪｏａＧＯＬＦ,,株式会社,兵庫県,神戸市中央区,下山手通２丁目１３－３,,28,110,6500011,,,,,,,2022-06-08,1,,,,,ジョアゴルフ,0
164,1140001126259,新規,0,2022-06-08,2022-06-08,株式会社いなば不動産,,株式会社,兵庫県,たつの市,龍野町富永７２８番地３,,28,229,6794167,,,,,,,2022-06-08,1,,,,,イナバフドウサン,0
165,1140001126267,新規,0,2022-06-08,2022-06-08,株式会社寿音,,株式会社,兵庫県,宝塚市,末成町２５番１５号,,28,214,6650044,,,,,,,2022-06-08,1,,,,,コトネ,0
166,1140001126300,新規,0,2022-06-08,2022-06-08,株式会社ＫＥＮＣＨＩＫＵ‐ＹＡ．２４,,株式会社,兵庫県,姫路市,広畑区本町３丁目５７６番地コーポ西宮２Ｆ東,,28,201,6711114,,,,,,,2022-06-08,1,,,,,ケンチクヤニジュウヨン,0
175,1180001151633,新規,0,2022-06-08,2022-06-08,Ｇｉｖ　ｆｉｎａｎｃｅ株式会社,,株式会社,愛知県,名古屋市東区,泉３丁目１７番１０号泉ビル３Ｆ,,23,102,4610001,,,,,,,2022-06-08,1,,,,,ギブファイナンス,0
176,1180001151658,新規,0,2022-06-08,2022-06-08,株式会社アイケーホーム,,株式会社,愛知県,一宮市,千秋町町屋字蕪池１１番地２,,23,203,4910813,,,,,,,2022-06-08,1,,,,,アイケーホーム,0
180,1180003023888,新規,0,2022-06-08,2022-06-08,合同会社グランキャスティロ,,合同会社,愛知県,小牧市,小牧３丁目１６２国保ビル３Ｆ,,23,219,4850041,,,,,,,2022-06-08,1,,,,,グランキャスティロ,0
181,1180003023905,新規,0,2022-06-08,2022-06-08,合同会社Ｍｉｎｔ,,合同会社,愛知県,津島市,蛭間町字宮重５６１番地,,23,208,4960004,,,,,,,2022-06-08,1,,,,,ミント,0
182,1180003023913,新規,0,2022-06-08,2022-06-08,合同会社Ｓｕｎ,,合同会社,愛知県,名古屋市中区,栄４丁目２１番１７号エリザベスガーデンビル２階,,23,106,4600008,,,,,,,2022-06-08,1,,,,,サン,0
183,1180005019785,新規,0,2022-06-08,2022-06-08,一般社団法人Ｓａｔｓｕｋｉ　Ａｃａｄｅｍｙ,,その他の設立登記法人,愛知県,名古屋市中区,富士見町１４番１５号,,23,106,4600014,,,,,,,2022-06-08,1,,,,,サツキアカデミー,0
184,1180005019793,新規,0,2022-06-08,2022-06-08,一般社団法人ＪＰケアネット,,その他の設立登記法人,愛知県,西春日井郡豊山町,大字青山字江川２７番地２,,23,342,4800201,,,,,,,2022-06-08,1,,,,,ジェイピーケアネット,0
185,1180301036303,新規,0,2022-06-08,2022-06-08,株式会社三杉電設,,株式会社,愛知県,西尾市,丁田町中ノ切１０番地１,,23,213,4450062,,,,,,,2022-06-08,1,,,,,ミスギデンセツ,0
186,1180303005347,新規,0,2022-06-08,2022-06-08,合同会社水道屋,,合同会社,愛知県,豊田市,野見山町１丁目１０４番地１１,,23,211,4710813,,,,,,,2022-06-08,1,,,,,スイドウヤ,0
212,1290001097824,新規,0,2022-06-08,2022-06-08,ビルトテック株式会社,,株式会社,福岡県,糟屋郡須惠町,大字植木２０４番地１,,40,344,8112112,,,,,,,2022-06-08,1,,,,,ビルトテック,0
219,1330001029806,新規,0,2022-06-08,2022-06-08,株式会社Ｎ．,,株式会社,熊本県,熊本市中央区,新市街一丁目１１番サンホワイトビル４階,,43,101,8600803,,,,,,,2022-06-08,1,,,,,エヌドット,0
223,1340001024789,新規,0,2022-06-08,2022-06-08,株式会社はまだベース,,株式会社,鹿児島県,鹿屋市,浜田町６６９番地５,,46,203,8930053,,,,,,,2022-06-08,1,,,,,ハマダベース,0
231,1360001030505,新規,0,2022-06-08,2022-06-08,株式会社コザ総動舎,,株式会社,沖縄県,沖縄市,中央１丁目２４番１０号２階,,47,211,9040004,,,,,,,2022-06-08,1,,,,,コザソウドウシャ,0
236,1370003005727,新規,0,2022-06-08,2022-06-08,合同会社畠山林産,,合同会社,宮城県,加美郡加美町,字新小路７６番９号,,04,445,9814335,,,,,,,2022-06-08,1,,,,,ハタヤマリンサン,0
249,1430001086762,新規,0,2022-06-08,2022-06-08,わゆあ株式会社,,株式会社,北海道,石狩郡当別町,スウェーデンヒルズ２２６８番地５１,,01,303,0613777,,,,,,,2022-06-08,1,,,,,ワユア,0
250,1430001086787,新規,0,2022-06-08,2022-06-08,株式会社ＲＯＧ,,株式会社,北海道,札幌市西区,平和三条７丁目１番１号,,01,107,0630023,,,,,,,2022-06-08,1,,,,,ログ,0
251,1430001086812,新規,0,2022-06-08,2022-06-08,株式会社Ｂｕｉｌｄ,,株式会社,北海道,札幌市西区,八軒八条東２丁目４番１８号,,01,107,0630868,,,,,,,2022-06-08,1,,,,,ビルド,0
253,1430003013995,新規,0,2022-06-08,2022-06-08,インードゥ合同会社,,合同会社,北海道,札幌市中央区,南十条西１０丁目１番２０号さくらビル５階,,01,101,0640810,,,,,,,2022-06-08,1,,,,,インドゥ,0
261,1700150108653,新規,0,2022-06-08,2022-05-12,ピッコロバイオリン研究会,,その他,東京都,港区,台場１丁目１－１－１２０２,,13,103,1350091,,,,,,,2022-05-12,1,,,,,ピツコロバイオリンケンキユウカイ,0
279,2010005035105,新規,0,2022-06-08,2022-06-08,一般社団法人ＣＲＥ海老名開発,,その他の設立登記法人,東京都,中央区,京橋１丁目１４番９号株式会社えいえん堂内,,13,102,1040031,,,,,,,2022-06-08,1,,,,,シーアールイーエビナカイハツ,0
288,2010401167740,新規,0,2022-06-08,2022-06-08,株式会社勝山商事,,株式会社,東京都,港区,浜松町２丁目２番１５号浜松町ダイヤビル２Ｆ,,13,103,1050013,,,,,,,2022-06-08,1,,,,,カツヤマショウジ,0
289,2010401167757,新規,0,2022-06-08,2022-06-08,株式会社Ｍｉｇｒａｔｉｏｎ＆Ｃｏ．,,株式会社,東京都,港区,赤坂２丁目１９番８号赤坂二丁目アネックス２階,,13,103,1070052,,,,,,,2022-06-08,1,,,,,マイグレーションアンドコー,0
290,2010401167773,新規,0,2022-06-08,2022-06-08,株式会社鮨将司,,株式会社,東京都,港区,北青山２丁目１２番２７号５階,,13,103,1070061,,,,,,,2022-06-08,1,,,,,スシマサシ,0
291,2010401167815,新規,0,2022-06-08,2022-06-08,株式会社カムイ,,株式会社,東京都,港区,三田３丁目４番１８号二葉ビル８０１号,,13,103,1080073,,,,,,,2022-06-08,1,,,,,カムイ,0
293,2010601061297,新規,0,2022-06-08,2022-06-08,株式会社ＧＲＡＣＥ,,株式会社,東京都,墨田区,両国２丁目２１番５号両国ダイカンプラザ５０８号,,13,107,1300026,,,,,,,2022-06-08,1,,,,,グレイス,0
297,2010603009575,新規,0,2022-06-08,2022-06-08,合同会社まどかクリニック,,合同会社,東京都,江東区,亀戸６丁目３番２号,,13,108,1360071,,,,,,,2022-06-08,1,,,,,マドカクリニック,0
306,2010901050966,新規,0,2022-06-08,2022-06-08,株式会社優武不動産,,株式会社,東京都,世田谷区,八幡山３丁目３５番２４号,,13,112,1560056,,,,,,,2022-06-08,1,,,,,スグムフドウサン,0
307,2010901051007,新規,0,2022-06-08,2022-06-08,株式会社ブルーウッド,,株式会社,東京都,世田谷区,北烏山１丁目２２番５－３０４号,,13,112,1570061,,,,,,,2022-06-08,1,,,,,ブルーウッド,0
308,2010903007378,新規,0,2022-06-08,2022-06-08,合同会社Ｔ‐ｆｉｔ,,合同会社,東京都,世田谷区,砧１丁目８番１１－２０４号,,13,112,1570073,,,,,,,2022-06-08,1,,,,,ティーフィット,0
315,2011001147884,新規,0,2022-06-08,2022-06-08,株式会社３ＤＳ,,株式会社,東京都,渋谷区,初台１丁目４７番４号,,13,113,1510061,,,,,,,2022-06-08,1,,,,,,0
328,2011103011831,新規,0,2022-06-08,2022-06-08,ＥＡＯＬｉｆｅ合同会社,,合同会社,東京都,新宿区,西新宿３丁目３番１３号,,13,104,1600023,,,,,,,2022-06-08,1,,,,,イーエーオーライフ,0
332,2011201023877,新規,0,2022-06-08,2022-06-08,株式会社Ａｖａｎｚａ　Ｈｏｍｅｓ,,株式会社,東京都,中野区,丸山２丁目７番１３－２０２号,,13,114,1650021,,,,,,,2022-06-08,1,,,,,アバンサホームズ,0
343,2011501028114,新規,0,2022-06-08,2022-06-08,株式会社Ｌ’２,,株式会社,東京都,北区,滝野川７丁目２４番６－１０３号セジョリ板橋桜通り,,13,117,1140023,,,,,,,2022-06-08,1,,,,,エルズ,0
347,2011603003618,新規,0,2022-06-08,2022-06-08,合同会社花・雨,,合同会社,東京都,練馬区,東大泉５丁目３４－１１、２０３室,,13,120,1780063,,,,,,,2022-06-08,1,,,,,ハナビ,0
348,2011701025365,新規,0,2022-06-08,2022-06-08,株式会社ＦＵＬＬ　ＦＵＬＬ,,株式会社,東京都,江戸川区,西葛西４丁目３－５コーボハイツ２０６号,,13,123,1340088,,,,,,,2022-06-08,1,,,,,フルフル,0
349,2011703003154,新規,0,2022-06-08,2022-06-08,Ａ２Ｚ合同会社,,合同会社,東京都,江戸川区,平井３丁目１７番２２号四谷荘３０２号室,,13,123,1320035,,,,,,,2022-06-08,1,,,,,エーツーゼット,0
350,2011801040801,新規,0,2022-06-08,2022-06-08,株式会社Ｎ＆Ａ,,株式会社,東京都,足立区,扇２丁目１７番２８－５０１号アクアコースト,,13,121,1230873,,,,,,,2022-06-08,1,,,,,エヌアンドエー,0
359,2013301049199,新規,0,2022-06-08,2022-06-08,株式会社ブライトン,,株式会社,東京都,豊島区,東池袋１丁目４７番１号,,13,116,1700013,,,,,,,2022-06-08,1,,,,,ブライトン,0
361,2013303006173,新規,0,2022-06-08,2022-06-08,合同会社ホルス,,合同会社,東京都,豊島区,南大塚２丁目３５番１０号アーバンエスケイプ５０２号,,13,116,1700005,,,,,,,2022-06-08,1,,,,,ホルス,0
384,2030001148577,新規,0,2022-06-08,2022-06-08,株式会社ＤＡＩＷＡ設備,,株式会社,埼玉県,さいたま市見沼区,大和田町１丁目９７７番地２,,11,104,3370053,,,,,,,2022-06-08,1,,,,,ダイワセツビ,0
385,2030001148593,新規,0,2022-06-08,2022-06-08,株式会社ミュール左工舎,,株式会社,埼玉県,川口市,大字石神２１６番地の１６,,11,203,3330823,,,,,,,2022-06-08,1,,,,,ミュールサコウシャ,0
391,2030003019545,新規,0,2022-06-08,2022-06-08,Ｍ＆Ｔ合同会社,,合同会社,埼玉県,三郷市,さつき平２丁目５番２－６０８号,,11,237,3410021,,,,,,,2022-06-08,1,,,,,エムアンドティ,0
401,2040001123703,新規,0,2022-06-08,2022-06-08,株式会社こえむ,,株式会社,千葉県,船橋市,本町７丁目１１番１号,,12,204,2730005,,,,,,,2022-06-08,1,,,,,コエム,0
403,2040003020147,新規,0,2022-06-08,2022-06-08,合同会社海人,,合同会社,千葉県,市川市,行徳駅前１丁目２１番１３－２０３号,,12,203,2720133,,,,,,,2022-06-08,1,,,,,ウミンチュ,0
404,2040003020205,新規,0,2022-06-08,2022-06-08,合同会社Ｔ‐Ｒ,,合同会社,千葉県,成田市,久米野３２２番地８,,12,211,2860126,,,,,,,2022-06-08,1,,,,,ティーアール,0
407,2050001051168,新規,0,2022-06-08,2022-06-08,株式会社富島純一,,株式会社,茨城県,土浦市,板谷６丁目６４９番地３,,08,203,3000007,,,,,,,2022-06-08,1,,,,,トミシマジュンイチ,0
408,2050001051192,新規,0,2022-06-08,2022-06-08,アールエス株式会社,,株式会社,茨城県,水戸市,南町３丁目３－３５,,08,201,3100021,,,,,,,2022-06-08,1,,,,,アールエス,0
409,2060001034956,新規,0,2022-06-08,2022-06-08,ＭＹＳ株式会社,,株式会社,栃木県,小山市,東城南１丁目１０番地１,,09,208,3230829,,,,,,,2022-06-08,1,,,,,エムワイエス,0
412,2080101023337,新規,0,2022-06-08,2022-06-08,株式会社サカソウ,,株式会社,静岡県,田方郡函南町,塚本２２５番地の７,,22,325,4190124,,,,,,,2022-06-08,1,,,,,サカソウ,0
414,2090001017611,新規,0,2022-06-08,2022-06-08,割烹立よし株式会社,,株式会社,山梨県,南巨摩郡富士川町,鰍沢１２３２番地,,19,368,4000601,,,,,,,2022-06-08,1,,,,,カッポウタツヨシ,0
416,2090003002099,新規,0,2022-06-08,2022-06-08,ＲＥＮＳＡ合同会社,,合同会社,山梨県,甲州市,大和町初鹿野１６５２－１５,,19,213,4091203,,,,,,,2022-06-08,1,,,,,レンサ,0
419,2100001035388,新規,0,2022-06-08,2022-06-08,株式会社ＫＲ,,株式会社,長野県,安曇野市,穂高７７７番地,,20,220,3998303,,,,,,,2022-06-08,1,,,,,ケーアール,0
423,2110001036724,新規,0,2022-06-08,2022-06-08,株式会社太田ハウジング,,株式会社,新潟県,上越市,大貫１丁目１６番７号,,15,222,9430893,,,,,,,2022-06-08,1,,,,,オオタハウジング,0
425,2110003004786,新規,0,2022-06-08,2022-06-08,合同会社Ｍｏｒｒｅｌ,,合同会社,新潟県,西蒲原郡弥彦村,大字弥彦８３１番地１,,15,342,9590323,,,,,,,2022-06-08,1,,,,,モレル,0
436,2120001246413,新規,0,2022-06-08,2022-06-08,株式会社ライフステージ,,株式会社,大阪府,大阪市中央区,南船場１丁目３番９号,,27,128,5420081,,,,,,,2022-06-08,1,,,,,ライフステージ,0
437,2120001246454,新規,0,2022-06-08,2022-06-08,株式会社笑み家,,株式会社,大阪府,大阪市大正区,小林西２丁目１１－１０,,27,108,5510013,,,,,,,2022-06-08,1,,,,,エミヤ,0
438,2120001246495,新規,0,2022-06-08,2022-06-08,第一商事株式会社,,株式会社,大阪府,大阪市浪速区,戎本町１丁目９番２１号ＴＯＹＯＴＯＭＩＢＵＩＬＤＩＮＧ４０２号,,27,111,5560013,,,,,,,2022-06-08,1,,,,,ダイイチショウジ,0
443,2120101065713,新規,0,2022-06-08,2022-06-08,株式会社ネクストＫＯＭ,,株式会社,大阪府,堺市堺区,賑町３丁６－１３,,27,141,5900066,,,,,,,2022-06-08,1,,,,,ネクストコム,0
449,2130001071884,新規,0,2022-06-08,2022-06-08,軽舟株式会社,,株式会社,京都府,京都市左京区,下鴨西本町７番地１・１０２号,,26,103,6060826,,,,,,,2022-06-08,1,,,,,ケイシュウ,0
450,2130001071926,新規,0,2022-06-08,2022-06-08,株式会社ｇｉｇｇｉｏ,,株式会社,京都府,京都市伏見区,下鳥羽六反長町１１１番地,,26,109,6128206,,,,,,,2022-06-08,1,,,,,ジッジョ,0
451,2130001071934,新規,0,2022-06-08,2022-06-08,株式会社オーエスパートナーズ,,株式会社,京都府,久世郡久御山町,野村村東１５６－２,,26,322,6130023,,,,,,,2022-06-08,1,,,,,オーエスパートナーズ,0
454,2140001126225,新規,0,2022-06-08,2022-06-08,株式会社Ａｗａｊｉ　Ｎａｔｕｒｅ　Ｆａｒｍ,,株式会社,兵庫県,淡路市,野島常盤字源八１５１０番地４,,28,226,6561726,,,,,,,2022-06-08,1,,,,,アワジネイチャーファーム,0
455,2140001126266,新規,0,2022-06-08,2022-06-08,株式会社共立工業,,株式会社,兵庫県,神戸市北区,八多町深谷１０５８,,28,109,6511341,,,,,,,2022-06-08,1,,,,,キョウリツコウギョウ,0
461,2150001025608,新規,0,2022-06-08,2022-06-08,三和興業株式会社,,株式会社,奈良県,橿原市,中曽司町４４４－７,,29,205,6340845,,,,,,,2022-06-08,1,,,,,サンワコウギョウ,0
471,2180001151558,新規,0,2022-06-08,2022-06-08,株式会社名古屋ＭＥＩＪＩ,,株式会社,愛知県,名古屋市緑区,清水山２丁目１６１８番地,,23,114,4598009,,,,,,,2022-06-08,1,,,,,ナゴヤメイジ,0
472,2180001151673,新規,0,2022-06-08,2022-06-08,株式会社クラウドオリジン,,株式会社,愛知県,名古屋市中村区,名駅３丁目２０番２０号名駅錦ビル６Ｆ,,23,105,4500002,,,,,,,2022-06-08,1,,,,,クラウドオリジン,0
478,2180301036310,新規,0,2022-06-08,2022-06-08,株式会社ＳＥＮＳＨＩＮ,,株式会社,愛知県,新城市,稲木字仲野７１－２,,23,221,4411351,,,,,,,2022-06-08,1,,,,,センシン,0
483,2190005011708,新規,0,2022-06-08,2022-06-08,一般社団法人雲出台自主運営会,,その他の設立登記法人,三重県,津市,白山町二本木３４２９番地１０２,,24,201,5152602,,,,,,,2022-06-08,1,,,,,クモズダイジシュウンエイカイ,0
494,2240003005648,新規,0,2022-06-08,2022-06-08,合同会社ＴＳＭ,,合同会社,広島県,福山市,北吉津町１丁目１番１２－４０２号,,34,207,7200073,,,,,,,2022-06-08,1,,,,,ティーエスエム,0
496,2240005015406,新規,0,2022-06-08,2022-06-08,特定非営利活動法人ハワイアンピュティーゴルフ協会,,その他の設立登記法人,広島県,広島市西区,己斐本町１丁目１５番１０－１１０４号,,34,104,7330812,,,,,,,2022-06-08,1,,,,,ハワイアンピュティーゴルフキョウカイ,0
497,2250001019599,新規,0,2022-06-08,2022-06-08,株式会社松村工業,,株式会社,山口県,周南市,大字徳山６３７番地の１グランドヒルズ若草２番館２０２号,,35,215,7450851,,,,,,,2022-06-08,1,,,,,マツムラコウギョウ,0
502,2270001008534,新規,0,2022-06-08,2022-06-08,日本海航路株式会社,,株式会社,鳥取県,境港市,中町７２番地,,31,204,6840012,,,,,,,2022-06-08,1,,,,,ニホンカイコウロ,0
503,2270003001413,新規,0,2022-06-08,2022-06-08,合同会社ミライネイト,,合同会社,鳥取県,境港市,夕日ヶ丘１丁目２６１番地,,31,204,6840076,,,,,,,2022-06-08,1,,,,,ミライネイト,0
507,2290001097708,新規,0,2022-06-08,2022-06-08,一期一会株式会社,,株式会社,福岡県,小郡市,小郡１３１１－９,,40,216,8380141,,,,,,,2022-06-08,1,,,,,イチゴイチエ,0
508,2290001097848,新規,0,2022-06-08,2022-06-08,白虎漢方堂株式会社,,株式会社,福岡県,福岡市早良区,干隈３丁目１６番２号,,40,137,8140163,,,,,,,2022-06-08,1,,,,,ビャッコカンポウドウ,0
515,2290801028606,新規,0,2022-06-08,2022-06-08,株式会社ＲＩＳＥ,,株式会社,福岡県,北九州市小倉北区,魚町３丁目５番１５－２０３号,,40,106,8020006,,,,,,,2022-06-08,1,,,,,ライズ,0
516,2290801028614,新規,0,2022-06-08,2022-06-08,株式会社Ｋ　ＬＩＮＥ,,株式会社,福岡県,築上郡築上町,大字安武１２８１番地２０,,40,647,8290111,,,,,,,2022-06-08,1,,,,,ケイライン,0
525,2360001030520,新規,0,2022-06-08,2022-06-08,株式会社Ｌｅｋｋｉ,,株式会社,沖縄県,うるま市,与那城平安座４２７番地１,,47,213,9042426,,,,,,,2022-06-08,1,,,,,レッキ,0
530,2370001048644,新規,0,2022-06-08,2022-06-08,株式会社なるこみらい,,株式会社,宮城県,大崎市,鳴子温泉字新屋敷４１番地１,,04,215,9896822,,,,,,,2022-06-08,1,,,,,ナルコミライ,0
535,2380001032886,新規,0,2022-06-08,2022-06-08,株式会社いわきモビリティ,,株式会社,福島県,いわき市,小名浜字下町１１,,07,204,9718101,,,,,,,2022-06-08,1,,,,,イワキモビリティ,0
538,2420001017882,新規,0,2022-06-08,2022-06-08,株式会社幸山工業,,株式会社,青森県,黒石市,追子野木２丁目３６８番地２,,02,204,0360357,,,,,,,2022-06-08,1,,,,,コウヤマコウギョウ,0
539,2420005007814,新規,0,2022-06-08,2022-06-08,特定非営利活動法人学びどき,,その他の設立登記法人,青森県,三戸郡南部町,大字大向字泉山道９－５４－２Ｆ,,02,445,0390103,,,,,,,2022-06-08,1,,,,,マナビドキ,0
552,2490005006850,新規,0,2022-06-08,2022-06-08,一般社団法人高知小児先進医療協議会,,その他の設立登記法人,高知県,南国市,岡豊町小蓮１８５番地１高知大学医学部内,,39,204,7830043,,,,,,,2022-06-08,1,,,,,コウチショウニセンシンイリョウキョウギカイ,0
566,3010001227092,新規,0,2022-06-08,2022-06-08,ジャパン・シーランド株式会社,,株式会社,東京都,千代田区,有楽町１丁目２番２号９階,,13,101,1000006,,,,,,,2022-06-08,1,,,,,ジャパンシーランド,0
567,3010001227150,新規,0,2022-06-08,2022-06-08,Ｋ＆Ｂコンサルティング株式会社,,株式会社,東京都,中央区,日本橋蛎殻町２丁目６番１号グレース水天宮武内ビル２Ｆ,,13,102,1030014,,,,,,,2022-06-08,1,,,,,ケイアンドビーコンサルティング,0
573,3010005035087,新規,0,2022-06-08,2022-06-08,一般社団法人ＴＯＣＡＲ　ＦＯＯＴＢＡＬＬ協会,,その他の設立登記法人,東京都,千代田区,外神田６丁目１５番４号ＯｗｌｓｏｍｅＢｕｉｌｄｉｎｇ２階・Ａｉｒ‐Ｅｒａ,,13,101,1010021,,,,,,,2022-06-08,1,,,,,トカールフットボールキョウカイ,0
574,3010005035112,新規,0,2022-06-08,2022-06-08,一般社団法人Ｊ＆ＴＣエナジーリンク,,その他の設立登記法人,東京都,千代田区,霞が関３丁目２番５号,,13,101,1000013,,,,,,,2022-06-08,1,,,,,ジェイアンドティーシーエナジーリンク,0
582,3010401167772,新規,0,2022-06-08,2022-06-08,株式会社ＯＺＡＳＡ,,株式会社,東京都,港区,赤坂８丁目１０番３０－５１０号,,13,103,1070052,,,,,,,2022-06-08,1,,,,,オザサ,0
584,3010405021083,新規,0,2022-06-08,2022-06-08,ＵＩ　ＩｔａＳｅｎ一般社団法人,,その他の設立登記法人,東京都,港区,元赤坂１丁目１番７号,,13,103,1070051,,,,,,,2022-06-08,1,,,,,ユーアイイタセン,0
592,3010603009574,新規,0,2022-06-08,2022-06-08,ＭＫＡ合同会社,,合同会社,東京都,江東区,豊洲５丁目５番１－１０１３号,,13,108,1350061,,,,,,,2022-06-08,1,,,,,エムケーエー,0
598,3010901051006,新規,0,2022-06-08,2022-06-08,株式会社Ｗｅｂｏｓｑｕｅ,,株式会社,東京都,世田谷区,北沢３丁目２番１１号,,13,112,1550031,,,,,,,2022-06-08,1,,,,,ウェボスケ,0
604,3011001147818,新規,0,2022-06-08,2022-06-08,株式会社ＭＲＶＳ,,株式会社,東京都,渋谷区,渋谷３丁目６－２エクラート渋谷４－５Ｆ．８Ｆ,,13,113,1500002,,,,,,,2022-06-08,1,,,,,ミラヴィス,0
606,3011003014751,新規,0,2022-06-08,2022-06-08,ターフクラウン合同会社,,合同会社,東京都,渋谷区,道玄坂１丁目１０番８号渋谷道玄坂東急ビル２Ｆ－Ｃ,,13,113,1500043,,,,,,,2022-06-08,1,,,,,ターフクラウン,0
610,3011101099125,新規,0,2022-06-08,2022-06-08,丸幸株式会社,,株式会社,東京都,新宿区,岩戸町１４番地不二ビル１階,,13,104,1620832,,,,,,,2022-06-08,1,,,,,マルコウ,0
611,3011101099133,新規,0,2022-06-08,2022-06-08,株式会社なかむら編集室,,株式会社,東京都,新宿区,西新宿３丁目３番１３号西新宿水間ビル６階,,13,104,1600023,,,,,,,2022-06-08,1,,,,,ナカムラヘンシュウシツ,0
614,3011201023876,新規,0,2022-06-08,2022-06-08,株式会社Ｉｒｉｄｅｓｃｅｎｔ,,株式会社,東京都,中野区,本町４丁目２２番１４号グルックレーベンＨＡＲＡ３１２,,13,114,1640012,,,,,,,2022-06-08,1,,,,,イリディセント,0
624,3011601026009,新規,0,2022-06-08,2022-06-08,株式会社エールママ,,株式会社,東京都,練馬区,大泉学園町６丁目２番２６号,,13,120,1780061,,,,,,,2022-06-08,1,,,,,エールママ,0
628,3011801040809,新規,0,2022-06-08,2022-06-08,株式会社ビッグス,,株式会社,東京都,足立区,千住宮元町２０番６－７０５号,,13,121,1200043,,,,,,,2022-06-08,1,,,,,ビッグス,0
629,3011801040817,新規,0,2022-06-08,2022-06-08,株式会社ｉｔｒｕｓｔ,,株式会社,東京都,葛飾区,亀有１丁目９番３号,,13,122,1250061,,,,,,,2022-06-08,1,,,,,アイトラスト,0
632,3012401039241,新規,0,2022-06-08,2022-06-08,Ｂｅｇｉｎ　Ａｇａｉｎ株式会社,,株式会社,東京都,武蔵野市,西久保２丁目２３番７号アリリパトラＳ,,13,203,1800013,,,,,,,2022-06-08,1,,,,,ビギンアゲイン,0
643,3013301049215,新規,0,2022-06-08,2022-06-08,新居プランニング株式会社,,株式会社,東京都,豊島区,南池袋２丁目３５番７号岩田光建ビル３０２号室,,13,116,1710022,,,,,,,2022-06-08,1,,,,,シンキョプランニング,0
650,3020003021897,新規,0,2022-06-08,2022-06-08,合同会社ユゾーン,,合同会社,神奈川県,横浜市鶴見区,北寺尾２丁目２番１１号,,14,101,2300074,,,,,,,2022-06-08,1,,,,,ユゾーン,0
654,3021001076165,新規,0,2022-06-08,2022-06-08,株式会社ＨＢ４８‐彩,,株式会社,神奈川県,藤沢市,打戻１８５９番地の１０,,14,205,2520824,,,,,,,2022-06-08,1,,,,,エイチビーフォーティーエイトイロドリ,0
655,3021001076181,新規,0,2022-06-08,2022-06-08,株式会社ＴＡＫＥＤＡ,,株式会社,神奈川県,相模原市南区,当麻８８６番地６,,14,153,2520336,,,,,,,2022-06-08,1,,,,,タケダ,0
658,3021003011806,新規,0,2022-06-08,2022-06-08,合同会社ベストサービス,,合同会社,神奈川県,秦野市,下大槻４１０番地２－１３－６０４,,14,211,2570004,,,,,,,2022-06-08,1,,,,,ベストサービス,0
665,3030003019552,新規,0,2022-06-08,2022-06-08,アールエー合同会社,,合同会社,埼玉県,さいたま市桜区,大字大久保領家５６３番地３２,,11,106,3380826,,,,,,,2022-06-08,1,,,,,アールエー,0
676,3040001123735,新規,0,2022-06-08,2022-06-08,株式会社ＡＴＳ,,株式会社,千葉県,八街市,朝日１６番地３９,,12,230,2891101,,,,,,,2022-06-08,1,,,,,エーティーエス,0
677,3040001123751,新規,0,2022-06-08,2022-06-08,株式会社グリーンソフト,,株式会社,千葉県,船橋市,西船２丁目３３番３１号,,12,204,2730031,,,,,,,2022-06-08,1,,,,,グリーンソフト,0
678,3040001123768,新規,0,2022-06-08,2022-06-08,株式会社Ｓクラス,,株式会社,千葉県,八千代市,大和田新田４５１番地５メゾン・ド・エメロード３０７号室,,12,221,2760046,,,,,,,2022-06-08,1,,,,,エスクラス,0
679,3040001123776,新規,0,2022-06-08,2022-06-08,舘越工務店株式会社,,株式会社,千葉県,千葉市花見川区,作新台２丁目６－１８,,12,102,2620045,,,,,,,2022-06-08,1,,,,,タテコシコウムテン,0
685,3050001051175,新規,0,2022-06-08,2022-06-08,株式会社Ｎｅｘｔ　Ｄｏｎｋｅｙ,,株式会社,茨城県,つくばみらい市,筒戸２１７３番地２９,,08,235,3002435,,,,,,,2022-06-08,1,,,,,ネクストドンキー,0
686,3050001051191,新規,0,2022-06-08,2022-06-08,株式会社三和型枠工業,,株式会社,茨城県,古河市,尾崎３９４９番地１９,,08,204,3060101,,,,,,,2022-06-08,1,,,,,サンワカタワクコウギョウ,0
699,3090001017610,新規,0,2022-06-08,2022-06-08,株式会社Ｒ,,株式会社,山梨県,甲府市,青葉町１４番３号,,19,201,4000828,,,,,,,2022-06-08,1,,,,,アール,0
711,3120001246445,新規,0,2022-06-08,2022-06-08,戴文株式会社,,株式会社,大阪府,大阪市城東区,蒲生３丁目１５番１２号セザンヌ藤３０２Ｂ,,27,118,5360016,,,,,,,2022-06-08,1,,,,,タイブン,0
712,3120001246486,新規,0,2022-06-08,2022-06-08,明和株式会社,,株式会社,大阪府,大阪市住吉区,遠里小野３丁目２０－９ロイヤル遠里小野,,27,120,5580032,,,,,,,2022-06-08,1,,,,,メイワ,0
716,3120005022974,新規,0,2022-06-08,2022-06-08,一般財団法人大阪府スキー連盟,,その他の設立登記法人,大阪府,大阪市東成区,大今里西２丁目５番１２号,,27,115,5370014,,,,,,,2022-06-08,1,,,,,オオサカフスキーレンメイ,0
726,3122001035935,新規,0,2022-06-08,2022-06-08,株式会社Ｓｏｌｉｄ　Ｐｈａｓｅ,,株式会社,大阪府,東大阪市,横小路町６丁目５番１６号,,27,227,5798063,,,,,,,2022-06-08,1,,,,,ソリッドフェーズ,0
734,3130005016496,新規,0,2022-06-08,2022-06-08,一般社団法人Ｒｏｎｄａｔ,,その他の設立登記法人,京都府,京都市山科区,四ノ宮大将軍町１６－３ＬＡＮＡＳＵＮ－ＹＯＵ１Ｆ,,26,110,6078029,,,,,,,2022-06-08,1,,,,,ロンダート,0
738,3140001126216,新規,0,2022-06-08,2022-06-08,株式会社ジュン工務店,,株式会社,兵庫県,姫路市,飾磨区上野田３丁目１１９,,28,201,6728043,,,,,,,2022-06-08,1,,,,,ジュンコウムテン,0
739,3140001126224,新規,0,2022-06-08,2022-06-08,株式会社ときよ,,株式会社,兵庫県,伊丹市,緑ケ丘１丁目１１２番地５,,28,207,6640012,,,,,,,2022-06-08,1,,,,,トキヨ,0
740,3140003017751,新規,0,2022-06-08,2022-06-08,合同会社Ａ２Ｚ,,合同会社,兵庫県,姫路市,西八代町１番２７－６０１号,,28,201,6700876,,,,,,,2022-06-08,1,,,,,エーツーゼット,0
741,3140003017768,新規,0,2022-06-08,2022-06-08,合同会社ＷｏｒｋＢｉｚ,,合同会社,兵庫県,尼崎市,若王寺２丁目３８番１０号,,28,202,6610974,,,,,,,2022-06-08,1,,,,,ワークビズ,0
750,3180001151656,新規,0,2022-06-08,2022-06-08,株式会社サテーンカーリ,,株式会社,愛知県,名古屋市南区,柴田町３丁目２４番地カニエハイツ第二１階,,23,112,4570815,,,,,,,2022-06-08,1,,,,,サテーンカーリ,0
751,3180001151672,新規,0,2022-06-08,2022-06-08,株式会社Ｍプランニング,,株式会社,愛知県,春日井市,西本町２丁目４番地１２レインボー西本町３０５号,,23,206,4860958,,,,,,,2022-06-08,1,,,,,エムプランニング,0
757,3180003023894,新規,0,2022-06-08,2022-06-08,合同会社ＴＷＯ‐ＯＮ,,合同会社,愛知県,名古屋市守山区,白沢町１７番地ＲＥＡＬＥ２０１号,,23,113,4630092,,,,,,,2022-06-08,1,,,,,ツーオン,0
762,3180005019791,新規,0,2022-06-08,2022-06-08,ＮＰＯ法人とまと食堂,,その他の設立登記法人,愛知県,東海市,富木島町新長口１番地の３１,,23,222,4760011,,,,,,,2022-06-08,1,,,,,トマトショクドウ,0
763,3180301036301,新規,0,2022-06-08,2022-06-08,株式会社ＨＡＮＡＩ,,株式会社,愛知県,豊橋市,飯村町字西山２５番地の１２３,,23,201,4400833,,,,,,,2022-06-08,1,,,,,ハナイ,0
764,3180303005345,新規,0,2022-06-08,2022-06-08,合同会社よなは,,合同会社,愛知県,豊田市,小畑町塚ノ元８番地１,,23,211,4442805,,,,,,,2022-06-08,1,,,,,ヨナハ,0
766,3190001029496,新規,0,2022-06-08,2022-06-08,株式会社ジョイントシステム,,株式会社,三重県,員弁郡東員町,大字穴太１５２３番地１,,24,324,5110243,,,,,,,2022-06-08,1,,,,,ジョイントシステム,0
772,3220001024898,新規,0,2022-06-08,2022-06-08,株式会社ＫＵ・ＡＲＴ,,株式会社,石川県,能美市,三道山町ト３３番地２,,17,211,9231124,,,,,,,2022-06-08,1,,,,,クアート,0
774,3220003003297,新規,0,2022-06-08,2022-06-08,合同会社ＬＵＣＫＢＡＧ,,合同会社,石川県,七尾市,中島町小牧ム部８４番地,,17,202,9292214,,,,,,,2022-06-08,1,,,,,ラックバッグ,0
780,3240001059892,新規,0,2022-06-08,2022-06-08,Ｓｔａｒ　ｔｏ　ＵＰ株式会社,,株式会社,広島県,広島市安佐北区,口田南９丁目１４番１５号,,34,106,7391733,,,,,,,2022-06-08,1,,,,,スタートアップ,0
781,3240001059901,新規,0,2022-06-08,2022-06-08,株式会社ジュメイラ,,株式会社,広島県,広島市佐伯区,旭園２７番１４号,,34,108,7315133,,,,,,,2022-06-08,1,,,,,ジュメイラ,0
784,3240005015405,新規,0,2022-06-08,2022-06-08,弁理士法人Ｃ＆Ｎ,,その他の設立登記法人,広島県,福山市,野上町２丁目１９番１７号,,34,207,7200815,,,,,,,2022-06-08,1,,,,,シーアンドエヌ,0
789,3270003001412,新規,0,2022-06-08,2022-06-08,合同会社リアンエージェンシー,,合同会社,鳥取県,鳥取市,千代水２丁目１００番地,,31,201,6800911,,,,,,,2022-06-08,1,,,,,リアンエージェンシー,0
791,3280003001618,新規,0,2022-06-08,2022-06-08,鳳凰合同会社,,合同会社,島根県,出雲市,塩冶町１３５９番地１５,,32,203,6930021,,,,,,,2022-06-08,1,,,,,ホウオウ,0
799,3290001097814,新規,0,2022-06-08,2022-06-08,株式会社犬丸,,株式会社,福岡県,大川市,大字酒見３４１番地,,40,212,8310016,,,,,,,2022-06-08,1,,,,,イヌマル,0
800,3290001097830,新規,0,2022-06-08,2022-06-08,株式会社有明機材センター,,株式会社,福岡県,柳川市,佃町１８２８番地１５,,40,207,8320051,,,,,,,2022-06-08,1,,,,,アリアケキザイセンター,0
801,3290001097839,新規,0,2022-06-08,2022-06-08,株式会社ＴＯＣ,,株式会社,福岡県,福岡市博多区,博多駅前２丁目１９番１７号トーカン博多第５ビル３１２号室,,40,132,8120011,,,,,,,2022-06-08,1,,,,,ティーオーシー,0
807,3290003012589,新規,0,2022-06-08,2022-06-08,合同会社ＡＣＥホールディングス,,合同会社,福岡県,福岡市博多区,博多駅前２丁目１９番１７号トーカン博多第５ビル３１２号室,,40,132,8120011,,,,,,,2022-06-08,1,,,,,エースホールディングス,0
814,3300001012952,新規,0,2022-06-08,2022-06-08,株式会社上瀧造園,,株式会社,佐賀県,佐賀市,大和町大字久池井２３５０番地１,,41,201,8400202,,,,,,,2022-06-08,1,,,,,ジョウタキゾウエン,0
816,3300003001854,新規,0,2022-06-08,2022-06-08,合同会社スプロジ,,合同会社,佐賀県,佐賀市,駅前中央２丁目８番５－４０２号アルファステージ佐賀駅前,,41,201,8400801,,,,,,,2022-06-08,1,,,,,スプロジ,0
823,3330001029795,新規,0,2022-06-08,2022-06-08,株式会社ホテル＆ファーム,,株式会社,熊本県,玉名郡和水町,内田２１６２番地１,,43,369,8650104,,,,,,,2022-06-08,1,,,,,ホテルアンドファーム,0
824,3330001029812,新規,0,2022-06-08,2022-06-08,植木レジャーランド株式会社,,株式会社,熊本県,熊本市中央区,中央街４番１０,,43,101,8600802,,,,,,,2022-06-08,1,,,,,ウエキレジャーランド,0
840,3390001016904,新規,0,2022-06-08,2022-06-08,青果マーケット株式会社,,株式会社,山形県,鶴岡市,末広町８番３２号,,06,203,9970015,,,,,,,2022-06-08,1,,,,,セイカマーケット,0
852,3420001017857,新規,0,2022-06-08,2022-06-08,株式会社アンカリンク,,株式会社,青森県,弘前市,大字城南１丁目１３番地１コーポラスサンライフ２－２０７号,,02,202,0368232,,,,,,,2022-06-08,1,,,,,アンカリンク,0
857,3420005007813,新規,0,2022-06-08,2022-06-08,一般社団法人ＷｏｎＵｐ　ｔｓｕｇａｒｕ,,その他の設立登記法人,青森県,弘前市,大字三岳町１２番地８,,02,202,0368153,,,,,,,2022-06-08,1,,,,,ワンアップツガル,0
860,3430001086711,新規,0,2022-06-08,2022-06-08,悠泊株式会社,,株式会社,北海道,虻田郡倶知安町,南十一条西１丁目３７番５,,01,400,0440045,,,,,,,2022-06-08,1,,,,,ユウハク,0
863,3490001010203,新規,0,2022-06-08,2022-06-08,株式会社田部電気,,株式会社,高知県,須崎市,下分乙７４１番地,,39,206,7850023,,,,,,,2022-06-08,1,,,,,タベデンキ,0
871,4010001227158,新規,0,2022-06-08,2022-06-08,株式会社ｂｕｚｚ．,,株式会社,東京都,中央区,勝どき１丁目１３番６－２００６号,,13,102,1040054,,,,,,,2022-06-08,1,,,,,バズドット,0
872,4010001227174,新規,0,2022-06-08,2022-06-08,ｑｕｕｐ株式会社,,株式会社,東京都,中央区,京橋１丁目３番２号モリイチビル,,13,102,1040031,,,,,,,2022-06-08,1,,,,,クープ,0
875,4010003037852,新規,0,2022-06-08,2022-06-08,和工業合同会社,,合同会社,東京都,中央区,銀座１丁目２２－１１銀座大竹ビジデンス２Ｆ,,13,102,1040061,,,,,,,2022-06-08,1,,,,,ナゴミコウギョウ,0
887,4010401167714,新規,0,2022-06-08,2022-06-08,株式会社ＴＯ,,株式会社,東京都,港区,虎ノ門３丁目７番２０－６０１号,,13,103,1050001,,,,,,,2022-06-08,1,,,,,ティーオー,0
888,4010401167763,新規,0,2022-06-08,2022-06-08,株式会社ＡＫＤ　Ｊａｐａｎ,,株式会社,東京都,港区,東麻布１丁目２５番５号,,13,103,1060044,,,,,,,2022-06-08,1,,,,,アルカディアジャパン,0
889,4010401167796,新規,0,2022-06-08,2022-06-08,Ｒｉａ　Ｆｉｎａｎｃｉａｌ　Ｓｅｒｖｉｃｅｓ　Ｊａｐａｎ株式会社,,株式会社,東京都,港区,元麻布３丁目１番６号,,13,103,1060046,,,,,,,2022-06-08,1,,,,,リアファイナンシャルサービシズジャパン,0
890,4010401167813,新規,0,2022-06-08,2022-06-08,株式会社ＰａｓｓＰｏｒｔ　Ｔｅｃｈｎｏｌｏｇｉｅｓ，Ｊａｐａｎ,,株式会社,東京都,港区,愛宕２丁目５番１号愛宕グリーンヒルズＭＯＲＩタワー２１階,,13,103,1050002,,,,,,,2022-06-08,1,,,,,パスポートテクノロジーズジャパン,0
891,4010401167870,新規,0,2022-06-08,2022-06-08,株式会社ＬＳＡ,,株式会社,東京都,港区,南青山２丁目２番１５号ウィン青山１２０７,,13,103,1070062,,,,,,,2022-06-08,1,,,,,エルエスエイ,0
894,4010601061270,新規,0,2022-06-08,2022-06-08,株式会社ドローンテクニカ,,株式会社,東京都,江東区,亀戸２丁目６番３０号,,13,108,1360071,,,,,,,2022-06-08,1,,,,,ドローンテクニカ,0
895,4010603009581,新規,0,2022-06-08,2022-06-08,合同会社コーセイリビング,,合同会社,東京都,江東区,豊洲３丁目４－２ザシティタワーズ豊洲ザ・ツインノースタワー１８１３号室,,13,108,1350061,,,,,,,2022-06-08,1,,,,,コーセイリビング,0
896,4010605004093,新規,0,2022-06-08,2022-06-08,一般社団法人ＣＤＭｅｄｉｃａｌ,,その他の設立登記法人,東京都,江東区,大島５丁目１０－１０セントラルプラザ大島１階,,13,108,1360072,,,,,,,2022-06-08,1,,,,,シーディーメディカル,0
899,4010803004184,新規,0,2022-06-08,2022-06-08,合同会社ＴＮＧＲ,,合同会社,東京都,大田区,山王４丁目２９－１２－１,,13,111,1430023,,,,,,,2022-06-08,1,,,,,ツナガリ,0
909,4011001147957,新規,0,2022-06-08,2022-06-08,ＹＭＫＹ株式会社,,株式会社,東京都,渋谷区,神宮前３丁目１７番１１号,,13,113,1500001,,,,,,,2022-06-08,1,,,,,ワイエムケーワイ,0
912,4011101099116,新規,0,2022-06-08,2022-06-08,株式会社ぴゃも,,株式会社,東京都,新宿区,高田馬場４丁目１１番８号,,13,104,1690075,,,,,,,2022-06-08,1,,,,,ピャモ,0
924,4011501028095,新規,0,2022-06-08,2022-06-08,株式会社Ｇｒａｎｄ　Ｂｌｕｅ,,株式会社,東京都,荒川区,西尾久２丁目３２番３号,,13,118,1160011,,,,,,,2022-06-08,1,,,,,グランドブルー,0
928,4011605002459,新規,0,2022-06-08,2022-06-08,一般社団法人Ｓｔａｄｔｌｕｆｔ,,その他の設立登記法人,東京都,練馬区,桜台１丁目２９番５号,,13,120,1760002,,,,,,,2022-06-08,1,,,,,シュタットルフト,0
933,4011803005115,新規,0,2022-06-08,2022-06-08,ＧＳＴＡＶ合同会社,,合同会社,東京都,足立区,西竹の塚２丁目１１番６号,,13,121,1210822,,,,,,,2022-06-08,1,,,,,グスタフ,0
938,4013301049214,新規,0,2022-06-08,2022-06-08,ＪＯＩＮＴＯ株式会社,,株式会社,東京都,豊島区,池袋４丁目１５番８号頭川ビル３０２号室,,13,116,1710014,,,,,,,2022-06-08,1,,,,,ジョイント,0
947,4020001146761,新規,0,2022-06-08,2022-06-08,株式会社ドゥナキュア,,株式会社,神奈川県,横浜市栄区,鍛冶ケ谷２丁目５４番,,14,115,2470009,,,,,,,2022-06-08,1,,,,,ドゥナキュア,0
953,4021001076172,新規,0,2022-06-08,2022-06-08,七福商事株式会社,,株式会社,神奈川県,厚木市,南町２２番１２号,,14,212,2430015,,,,,,,2022-06-08,1,,,,,シチフクショウジ,0
956,4021003011796,新規,0,2022-06-08,2022-06-08,合同会社ＢａｙＴｗｅｌｖｅ,,合同会社,神奈川県,藤沢市,辻堂西海岸２丁目１３－５－３,,14,205,2510046,,,,,,,2022-06-08,1,,,,,ベイトゥエルブ,0
960,4030001148567,新規,0,2022-06-08,2022-06-08,ＫｉｍｉＴｏ　Ｃｏｎｓｕｌｔｉｎｇ株式会社,,株式会社,埼玉県,白岡市,西２丁目１８番８,,11,246,3490205,,,,,,,2022-06-08,1,,,,,キミトコンサルティング,0
961,4030001148583,新規,0,2022-06-08,2022-06-08,株式会社ＲＩＣＥ　ＣＬＯＵＤ,,株式会社,埼玉県,川口市,幸町３丁目２－２２－１３０９,,11,203,3320016,,,,,,,2022-06-08,1,,,,,ライスクラウド,0
968,4040001123759,新規,0,2022-06-08,2022-06-08,株式会社三鷹産業,,株式会社,千葉県,山武郡横芝光町,木戸７９７０番地,,12,410,2891726,,,,,,,2022-06-08,1,,,,,ミタカサンギョウ,0
973,4040003020178,新規,0,2022-06-08,2022-06-08,合同会社はーピカッと,,合同会社,千葉県,八街市,文違１３４番地４１,,12,230,2891104,,,,,,,2022-06-08,1,,,,,ハーピカット,0
974,4040003020203,新規,0,2022-06-08,2022-06-08,合同会社Ｔｅａｍ　Ｋｕｍａ,,合同会社,千葉県,船橋市,八木が谷３丁目９番５号,,12,204,2740802,,,,,,,2022-06-08,1,,,,,チームクマ,0
977,4050003006597,新規,0,2022-06-08,2022-06-08,合同会社ｍｉｔｓｕｂａｃｈｉ,,合同会社,茨城県,日立市,千石町１丁目４－２４辻本ビル１Ｆ,,08,202,3160013,,,,,,,2022-06-08,1,,,,,ミツバチ,0
984,4070001039291,新規,0,2022-06-08,2022-06-08,Ｌａ　Ｖｉｄａ株式会社,,株式会社,群馬県,邑楽郡大泉町,大字寄木戸１５９２番地２,,10,524,3700535,,,,,,,2022-06-08,1,,,,,ラヴィーダ,0
996,4110001036722,新規,0,2022-06-08,2022-06-08,株式会社Ｔｒｕｍｐ　Ｎｉｉｇａｔａ,,株式会社,新潟県,新潟市北区,木崎１１１１番地２,,15,101,9503304,,,,,,,2022-06-08,1,,,,,トランプニイガタ,0
999,4120001246064,新規,0,2022-06-08,2022-06-08,株式会社シェノンパートナーズ,,株式会社,大阪府,大阪市中央区,瓦町２丁目３番１４号日宝瓦町ビル４０８,,27,128,5410048,,,,,,,2022-06-08,1,,,,,シェノンパートナーズ,0
1000,4120001246337,新規,0,2022-06-08,2022-06-08,株式会社ｓｗｉｔｃｈ,,株式会社,大阪府,大阪市中央区,平野町２丁目３番７号,,27,128,5410046,,,,,,,2022-06-08,1,,,,,スイッチ,0
1001,4120001246428,新規,0,2022-06-08,2022-06-08,株式会社Ｍ＆Ｈ　ｆａｍｉｌｉａ,,株式会社,大阪府,大阪市中央区,本町２丁目３番４号アソルティ本町４Ｆ,,27,128,5410053,,,,,,,2022-06-08,1,,,,,エムアンドエイチファミリア,0
1002,4120001246444,新規,0,2022-06-08,2022-06-08,鹿鳴春株式会社,,株式会社,大阪府,大阪市中央区,松屋町９番２０号ローレルステート松屋町４０１Ａ,,27,128,5420067,,,,,,,2022-06-08,1,,,,,ロクメイシュン,0
1003,4120001246477,新規,0,2022-06-08,2022-06-08,株式会社Ｌｉｅｎ,,株式会社,大阪府,大阪市北区,梅田１丁目２番２－２００号大阪駅前第２ビル２階３の１の２,,27,127,5300001,,,,,,,2022-06-08,1,,,,,リアン,0
1005,4120003021688,新規,0,2022-06-08,2022-06-08,合同会社藤本物産,,合同会社,大阪府,大阪市港区,磯路１丁目４‐１６,,27,107,5520003,,,,,,,2022-06-08,1,,,,,フジモトブッサン,0
1006,4120003021762,新規,0,2022-06-08,2022-06-08,ＬｔｄＩｎｃ合同会社,,合同会社,大阪府,大阪市北区,梅田１丁目１－３大阪駅前第３ビル２９階１－１－１号室,,27,127,5300001,,,,,,,2022-06-08,1,,,,,エルティーディーインク,0
1007,4120003021837,新規,0,2022-06-08,2022-06-08,ＤＭＫ合同会社,,合同会社,大阪府,大阪市中央区,谷町６丁目１４－１３－３０６,,27,128,5420012,,,,,,,2022-06-08,1,,,,,ディーエムケー,0
1018,4122001035934,新規,0,2022-06-08,2022-06-08,株式会社Ｌｉｋｅ　ｔｏ　Ｅａｔ,,株式会社,大阪府,東大阪市,本庄２丁目１番２号,,27,227,5780953,,,,,,,2022-06-08,1,,,,,ライクトゥイート,0
1023,4130001071908,新規,0,2022-06-08,2022-06-08,ＫＭＳ運送株式会社,,株式会社,京都府,京都市南区,上鳥羽卯ノ花１５番地２,,26,107,6018141,,,,,,,2022-06-08,1,,,,,ケーエムエスウンソウ,0
1025,4140001126215,新規,0,2022-06-08,2022-06-08,津田水産株式会社,,株式会社,兵庫県,たつの市,御津町室津１０３４－４５,,28,229,6711332,,,,,,,2022-06-08,1,,,,,ツダスイサン,0
1026,4140001126256,新規,0,2022-06-08,2022-06-08,株式会社ＬＣＢ,,株式会社,兵庫県,神戸市灘区,楠丘町４丁目５番６号,,28,102,6570024,,,,,,,2022-06-08,1,,,,,エルシービー,0
1028,4160003002585,新規,0,2022-06-08,2022-06-08,合同会社ＢＡＣＥ　ＣＡＭＰ,,合同会社,滋賀県,彦根市,高宮町１６４４－１５,,25,202,5220201,,,,,,,2022-06-08,1,,,,,ベースキャンプ,0
1037,4180001151498,新規,0,2022-06-08,2022-06-08,ユーニスウエスト株式会社,,株式会社,愛知県,名古屋市中区,丸の内２丁目１８番１４号,,23,106,4600002,,,,,,,2022-06-08,1,,,,,ユーニスウエスト,0
1038,4180001151606,新規,0,2022-06-08,2022-06-08,株式会社ウエステート,,株式会社,愛知県,名古屋市西区,大金町２丁目１８番地,,23,104,4510082,,,,,,,2022-06-08,1,,,,,ウエステート,0
1039,4180001151639,新規,0,2022-06-08,2022-06-08,長田幕府株式会社,,株式会社,愛知県,名古屋市西区,天塚町４丁目６９番地の３バンベール庄内通ザ・ガーデン８０２号,,23,104,4510021,,,,,,,2022-06-08,1,,,,,ナガタバクフ,0
1040,4180001151655,新規,0,2022-06-08,2022-06-08,株式会社Ｔｈｉｎｋｉｎｇ,,株式会社,愛知県,名古屋市東区,東片端町１６番地の１プロビデンス東片端,,23,102,4610015,,,,,,,2022-06-08,1,,,,,シンキング,0
1042,4180003023893,新規,0,2022-06-08,2022-06-08,合同会社Ｂｌｅｓｓｉｎｇ,,合同会社,愛知県,名古屋市北区,長田町４丁目８４番地の３,,23,103,4620834,,,,,,,2022-06-08,1,,,,,ブレッシング,0
1043,4180301036309,新規,0,2022-06-08,2022-06-08,株式会社ｋａｅｍｏｎ,,株式会社,愛知県,西尾市,一色町味浜西乾地５２番地１,,23,213,4440422,,,,,,,2022-06-08,1,,,,,カエモン,0
1050,4230003001860,新規,0,2022-06-08,2022-06-08,合同会社ＬＯＣＡＬ　ＥＭＯＴＩＯＮＳ,,合同会社,富山県,氷見市,小久米４８５番地,,16,205,9350263,,,,,,,2022-06-08,1,,,,,ローカルエモーションズ,0
1053,4240003005638,新規,0,2022-06-08,2022-06-08,合同会社ｃｈｉｌｌ,,合同会社,広島県,福山市,本郷町５０６番地５,,34,207,7290252,,,,,,,2022-06-08,1,,,,,チル,0
1067,4270001008549,新規,0,2022-06-08,2022-06-08,株式会社ネクストステージ,,株式会社,鳥取県,西伯郡伯耆町,大殿１０８６番地,,31,390,6894121,,,,,,,2022-06-08,1,,,,,ネクストステージ,0
1076,4290801028604,新規,0,2022-06-08,2022-06-08,株式会社Ｍａｋｋａｒｉ　ｋｎｉｖｅｓ,,株式会社,福岡県,鞍手郡小竹町,大字赤地１７８７番地１６,,40,401,8201102,,,,,,,2022-06-08,1,,,,,マッカリーナイブス,0
1083,4320003003823,新規,0,2022-06-08,2022-06-08,合同会社ＵＳＡ　ＧＩＢＩＥＲ　ＬＡＢＯＲＡＴＯＲＹ,,合同会社,大分県,宇佐市,院内町香下１３０番地１,,44,211,8720311,,,,,,,2022-06-08,1,,,,,ウサジビエラボラトリー,0
1089,4350005006078,新規,0,2022-06-08,2022-06-08,司法書士法人いしむら綜合事務所,,その他の設立登記法人,宮崎県,宮崎市,別府町２番５号コスモ別府ビル５階,,45,201,8800802,,,,,,,2022-06-08,1,,,,,イシムラソウゴウジムショ,0
1095,4380001032884,新規,0,2022-06-08,2022-06-08,株式会社セルフサービスオート,,株式会社,福島県,福島市,飯野町大久保字菅平１０番地の１,,07,201,9601304,,,,,,,2022-06-08,1,,,,,セルフサービスオート,0
1107,4430001086818,新規,0,2022-06-08,2022-06-08,株式会社ＮＡＮＢＡ,,株式会社,北海道,札幌市北区,屯田七条１０丁目７番３６号,,01,102,0020857,,,,,,,2022-06-08,1,,,,,ナンバ,0
1108,4430001086826,新規,0,2022-06-08,2022-06-08,株式会社ＶｅｌｉＡ,,株式会社,北海道,札幌市中央区,南五条西４丁目７番地１Ｎ・ＳＱＵＡＲＥ６階,,01,101,0640805,,,,,,,2022-06-08,1,,,,,ヴェリア,0
1117,4490001010202,新規,0,2022-06-08,2022-06-08,株式会社カワマートジョイ,,株式会社,高知県,四万十市,有岡３１番地１,,39,210,7870771,,,,,,,2022-06-08,1,,,,,カワマートジョイ,0
1120,4490005006849,新規,0,2022-06-08,2022-06-08,一般社団法人四国遍路文化推進機構,,その他の設立登記法人,高知県,高岡郡四万十町,茂串町３番１３号岩本寺内,,39,412,7860004,,,,,,,2022-06-08,1,,,,,シコクヘンロブンカスイシンキコウ,0
1124,4700150079883,新規,0,2022-06-08,2017-01-13,日光市国際交流協会,,その他,栃木県,日光市,今市本町１,,09,206,3211272,,,,,,,2017-01-13,1,,,,,ニツコウシコクサイコウリユウキヨウカイ,0
1125,4700150109285,新規,0,2022-06-08,2022-06-08,三光産業取引先持株会,,その他,東京都,渋谷区,神宮前３丁目４２－６,,13,113,1500001,,,,,,,2022-06-08,1,,,,,サンコウサンギョウトリヒキサキモチカブカイ,0
1140,5010001227090,新規,0,2022-06-08,2022-06-08,株式会社東京ニュースエージェント,,株式会社,東京都,中央区,銀座７丁目１６番３号日鐵木挽ビル,,13,102,1040061,,,,,,,2022-06-08,1,,,,,トウキョウニュースエージェント,0
1141,5010001227108,新規,0,2022-06-08,2022-06-08,ＳＴＥＰ国際コンサルティング株式会社,,株式会社,東京都,中央区,東日本橋２丁目２８番５号５Ｆ,,13,102,1030004,,,,,,,2022-06-08,1,,,,,ステップコクサイコンサルティング,0
1142,5010001227198,新規,0,2022-06-08,2022-06-08,株式会社フルスイング,,株式会社,東京都,中央区,日本橋小網町１８番２０号,,13,102,1030016,,,,,,,2022-06-08,1,,,,,フルスイング,0
1158,5010401167795,新規,0,2022-06-08,2022-06-08,ＨＫＣ　ＪＡＰＡＮ株式会社,,株式会社,東京都,港区,赤坂２丁目８番１４－５０４号,,13,103,1070052,,,,,,,2022-06-08,1,,,,,エイチケイシージャパン,0
1162,5010601061294,新規,0,2022-06-08,2022-06-08,株式会社ＴＲＣ,,株式会社,東京都,江東区,亀戸３丁目３２番８号,,13,108,1360071,,,,,,,2022-06-08,1,,,,,ティーアールシー,0
1164,5010603009580,新規,0,2022-06-08,2022-06-08,ＣＯＮＮＥＣＴＥＤ合同会社,,合同会社,東京都,江東区,東陽７丁目２番３４号,,13,108,1350016,,,,,,,2022-06-08,1,,,,,コネクテッド,0
1165,5010703006271,新規,0,2022-06-08,2022-06-08,合同会社パーフェクト・サイド,,合同会社,東京都,品川区,西五反田４丁目２４－９－２０２,,13,109,1410031,,,,,,,2022-06-08,1,,,,,パーフェクトサイド,0
1178,5010903007425,新規,0,2022-06-08,2022-06-08,合同会社Ｏｎｅ’ｓ　Ｐａｉｓ,,合同会社,東京都,世田谷区,松原１丁目８番１３号エルピア明大前１０２,,13,112,1560043,,,,,,,2022-06-08,1,,,,,ワンスパイス,0
1184,5011001147873,新規,0,2022-06-08,2022-06-08,５８株式会社,,株式会社,東京都,渋谷区,道玄坂１丁目１０番８号渋谷道玄坂東急ビル２Ｆ－Ｃ,,13,113,1500043,,,,,,,2022-06-08,1,,,,,,0
1185,5011001147964,新規,0,2022-06-08,2022-06-08,株式会社ＳｏＷｉＬＬ,,株式会社,東京都,渋谷区,恵比寿１丁目１０番６号,,13,113,1500013,,,,,,,2022-06-08,1,,,,,ソーウィル,0
1186,5011101099073,新規,0,2022-06-08,2022-06-08,Ｇａｋｕ　Ｊａｐａｎ株式会社,,株式会社,東京都,新宿区,上落合１丁目２９番９号,,13,104,1610034,,,,,,,2022-06-08,1,,,,,ガクジャパン,0
1187,5011101099131,新規,0,2022-06-08,2022-06-08,株式会社社長募集,,株式会社,東京都,新宿区,弁天町１７７番地９,,13,104,1620851,,,,,,,2022-06-08,1,,,,,シャチョウボシュウ,0
1193,5011503005182,新規,0,2022-06-08,2022-06-08,グレイスランド合同会社,,合同会社,東京都,北区,赤羽西３丁目３１番６号,,13,117,1150055,,,,,,,2022-06-08,1,,,,,グレイスランド,0
1197,5011801040807,新規,0,2022-06-08,2022-06-08,株式会社太陽コンサルタント,,株式会社,東京都,足立区,扇１丁目４５番２８号,,13,121,1230873,,,,,,,2022-06-08,1,,,,,タイヨウコンサルタント,0
1199,5012403005413,新規,0,2022-06-08,2022-06-08,合同会社アスク・コーポレーション,,合同会社,東京都,三鷹市,下連雀４丁目１７番１０号,,13,204,1810013,,,,,,,2022-06-08,1,,,,,,0
1211,5013301049221,新規,0,2022-06-08,2022-06-08,株式会社エヌワン,,株式会社,東京都,豊島区,池袋２丁目１２番１２号,,13,116,1710014,,,,,,,2022-06-08,1,,,,,エヌワン,0
1237,5021001076163,新規,0,2022-06-08,2022-06-08,株式会社アークス,,株式会社,神奈川県,大和市,大和東２丁目７番３０号島田ビル２階Ｂ号,,14,213,2420017,,,,,,,2022-06-08,1,,,,,アークス,0
1253,5030003019534,新規,0,2022-06-08,2022-06-08,合同会社一文字商事,,合同会社,埼玉県,蕨市,南町２丁目２９番２号蕨グリーンハイツ３１５号,,11,223,3350003,,,,,,,2022-06-08,1,,,,,イチモンジショウジ,0
1254,5030003019550,新規,0,2022-06-08,2022-06-08,合同会社Ｍ’ｓ,,合同会社,埼玉県,さいたま市大宮区,桜木町２丁目３番地大宮７階,,11,103,3300854,,,,,,,2022-06-08,1,,,,,エムズ,0
1256,5030005020886,新規,0,2022-06-08,2022-06-08,特定非営利活動法人スポーツコミュニティ入間,,その他の設立登記法人,埼玉県,入間市,大字寺竹４９５番地９,,11,225,3580045,,,,,,,2022-06-08,1,,,,,スポーツコミュニティイルマ,0
1265,5040001123741,新規,0,2022-06-08,2022-06-08,株式会社ハル・Ｄ・スタジオ,,株式会社,千葉県,船橋市,高野台１丁目１５番２０号,,12,204,2740801,,,,,,,2022-06-08,1,,,,,ハルディスタジオ,0
1266,5040001123758,新規,0,2022-06-08,2022-06-08,ＫＩＮＧＤＯＭ　ＤＥＶＥＬＯＰＭＥＮＴ株式会社,,株式会社,千葉県,浦安市,北栄１丁目３番５号,,12,227,2790002,,,,,,,2022-06-08,1,,,,,キングダムデベロップメント,0
1267,5040001123782,新規,0,2022-06-08,2022-06-08,Ｓｏｉｃｈｉ株式会社,,株式会社,千葉県,四街道市,和良比２５６番地１３３－２０１,,12,228,2840044,,,,,,,2022-06-08,1,,,,,ソウイチ,0
1269,5040003020160,新規,0,2022-06-08,2022-06-08,ｌｉｂｅｒｏ合同会社,,合同会社,千葉県,市川市,市川１丁目６－１５－４０４,,12,203,2720034,,,,,,,2022-06-08,1,,,,,リベロ,0
1270,5040003020202,新規,0,2022-06-08,2022-06-08,こだま建築合同会社,,合同会社,千葉県,南房総市,和田町花園８６２,,12,234,2992701,,,,,,,2022-06-08,1,,,,,コダマケンチク,0
1272,5050001051207,新規,0,2022-06-08,2022-06-08,株式会社ＳＳＹＳ,,株式会社,茨城県,つくば市,学園の森２丁目１１番地６,,08,220,3050816,,,,,,,2022-06-08,1,,,,,エスシス,0
1276,5050003006596,新規,0,2022-06-08,2022-06-08,ＡｒｏｍａＡｎｅｌａ合同会社,,合同会社,茨城県,神栖市,平泉５２７番地１９,,08,232,3140146,,,,,,,2022-06-08,1,,,,,アロマアネラ,0
1279,5060001034961,新規,0,2022-06-08,2022-06-08,株式会社ＳＡＵＤ　ＡＢＣ,,株式会社,栃木県,小山市,城東６丁目７番２２号ＡＭＢＩＴＩＯＮ城東ＩＩ１０６号室,00126808,09,208,3230807,,,,,,,2022-06-08,1,,,,,サウドエビシ,0
1284,5080101023342,新規,0,2022-06-08,2022-06-08,株式会社ＴＭＣ,,株式会社,静岡県,沼津市,上土町３７番地２階,,22,203,4100802,,,,,,,2022-06-08,1,,,,,ティーエムシー,0
1291,5080403004560,新規,0,2022-06-08,2022-06-08,コンコルディア合同会社,,合同会社,静岡県,磐田市,一言３１７０番地,,22,211,4380811,,,,,,,2022-06-08,1,,,,,コンコルディア,0
1304,5120001246468,新規,0,2022-06-08,2022-06-08,Ｆｏｒｔｕｎａ株式会社,,株式会社,大阪府,大阪市中央区,南船場３丁目１番７－４０３号室,,27,128,5420081,,,,,,,2022-06-08,1,,,,,フォーチュナ,0
1305,5120001246476,新規,0,2022-06-08,2022-06-08,株式会社ＤＥＬＴＡＦＩＸ,,株式会社,大阪府,大阪市北区,梅田１丁目１番３号大阪駅前第３ビル２９階１－１－１号室,,27,127,5300001,,,,,,,2022-06-08,1,,,,,デルタフィックス,0
1306,5120001246484,新規,0,2022-06-08,2022-06-08,株式会社ミックス,,株式会社,大阪府,大阪市旭区,生江２丁目１５番２７号,,27,117,5350004,,,,,,,2022-06-08,1,,,,,ミックス,0
1307,5120001246492,新規,0,2022-06-08,2022-06-08,株式会社Ｌｉｖ．,,株式会社,大阪府,大阪市住吉区,大領５丁目２－４ロイヤルコート３０３,,27,120,5580001,,,,,,,2022-06-08,1,,,,,リブ,0
1322,5130001071907,新規,0,2022-06-08,2022-06-08,ＯＹＯインベストメンツ株式会社,,株式会社,京都府,京都市左京区,下鴨北園町１５番地１,,26,103,6060831,,,,,,,2022-06-08,1,,,,,オーヨーインベストメンツ,0
1330,5140001126197,新規,0,2022-06-08,2022-06-08,株式会社ＯＳ開発,,株式会社,兵庫県,三木市,平田２丁目１０番地１１,,28,215,6730405,,,,,,,2022-06-08,1,,,,,オーエスカイハツ,0
1331,5140001126214,新規,0,2022-06-08,2022-06-08,株式会社赤木不動産開発,,株式会社,兵庫県,加古川市,加古川町粟津７１０番地の３,,28,210,6750039,,,,,,,2022-06-08,1,,,,,アカギフドウサンカイハツ,0
1332,5140001126296,新規,0,2022-06-08,2022-06-08,株式会社グッドホーム松本,,株式会社,兵庫県,尼崎市,大庄北２丁目３番１６号,,28,202,6600063,,,,,,,2022-06-08,1,,,,,グッドホームマツモト,0
1333,5140003017733,新規,0,2022-06-08,2022-06-08,オニク合同会社,,合同会社,兵庫県,神戸市兵庫区,梅元町１６番４０号,,28,105,6520003,,,,,,,2022-06-08,1,,,,,オニク,0
1335,5150001025588,新規,0,2022-06-08,2022-06-08,株式会社ファーストステージ,,株式会社,奈良県,奈良市,油阪地方町６番４号,,29,201,6308246,,,,,,,2022-06-08,1,,,,,ファーストステージ,0
1339,5180001151638,新規,0,2022-06-08,2022-06-08,株式会社クマテックソリューション,,株式会社,愛知県,日進市,折戸町高松５２番地７５４,,23,230,4700115,,,,,,,2022-06-08,1,,,,,クマテックソリューション,0
1340,5180001151646,新規,0,2022-06-08,2022-06-08,株式会社相宮工業,,株式会社,愛知県,名古屋市西区,あし原町４４番地,,23,104,4520823,,,,,,,2022-06-08,1,,,,,アイミヤコウギョウ,0
1341,5180001151662,新規,0,2022-06-08,2022-06-08,株式会社ウィルネクスト,,株式会社,愛知県,名古屋市北区,新沼町８０番地,,23,103,4620062,,,,,,,2022-06-08,1,,,,,ウィルネクスト,0
1348,5180301036274,新規,0,2022-06-08,2022-06-08,株式会社オン・スリー,,株式会社,愛知県,豊橋市,新栄町字一本木３８番地３,,23,201,4418016,,,,,,,2022-06-08,1,,,,,オンスリー,0
1349,5180301036299,新規,0,2022-06-08,2022-06-08,ＫＣＬ株式会社,,株式会社,愛知県,岡崎市,上和田町字城前５３番地３,,23,202,4440201,,,,,,,2022-06-08,1,,,,,ケーシーエル,0
1351,5180303005351,新規,0,2022-06-08,2022-06-08,合同会社Ａｌｅｇｒｉａ,,合同会社,愛知県,豊橋市,つつじが丘２丁目１２－５,,23,201,4400858,,,,,,,2022-06-08,1,,,,,アレグリア,0
1355,5200001040144,新規,0,2022-06-08,2022-06-08,株式会社Ｋワーク,,株式会社,岐阜県,羽島郡笠松町,円城寺２２６８番地,,21,303,5016035,,,,,,,2022-06-08,1,,,,,ケイワーク,0
1364,5240001059882,新規,0,2022-06-08,2022-06-08,株式会社トライアングル,,株式会社,広島県,山県郡北広島町,今吉田１５２７番地,,34,369,7311221,,,,,,,2022-06-08,1,,,,,トライアングル,0
1365,5240001059899,新規,0,2022-06-08,2022-06-08,株式会社ラフター,,株式会社,広島県,安芸郡海田町,三迫１丁目５番１１－１９号,,34,304,7360014,,,,,,,2022-06-08,1,,,,,ラフター,0
1369,5250005008752,新規,0,2022-06-08,2022-06-08,特定非営利活動法人小羽山学童保育クラブ,,その他の設立登記法人,山口県,宇部市,北小羽山町２丁目６番５０号,,35,202,7550081,,,,,,,2022-06-08,1,,,,,オバヤマガクドウホイククラブ,0
1376,5290001097837,新規,0,2022-06-08,2022-06-08,Ｓ＆Ｓ株式会社,,株式会社,福岡県,福岡市城南区,友丘３丁目６番１８号,,40,136,8140112,,,,,,,2022-06-08,1,,,,,エスアンドエス,0
1379,5290801028603,新規,0,2022-06-08,2022-06-08,株式会社コスパサービス,,株式会社,福岡県,直方市,大字上境１４５６番１号,,40,204,8220006,,,,,,,2022-06-08,1,,,,,コスパサービス,0
1380,5290801028611,新規,0,2022-06-08,2022-06-08,くらすたす株式会社,,株式会社,福岡県,北九州市小倉北区,南丘２丁目６番１６号,,40,106,8030863,,,,,,,2022-06-08,1,,,,,クラスタス,0
1384,5320001019119,新規,0,2022-06-08,2022-06-08,株式会社日隈電工,,株式会社,大分県,玖珠郡玖珠町,大字大隈５４番地の８,,44,462,8794414,,,,,,,2022-06-08,1,,,,,ヒグマデンコウ,0
1385,5320005009999,新規,0,2022-06-08,2022-06-08,一般社団法人鉄輪温泉管理組合,,その他の設立登記法人,大分県,別府市,大字鉄輪７２４番地,,44,202,8740000,,,,,,,2022-06-08,1,,,,,カンナワオンセンカンリクミアイ,0
1388,5330003009380,新規,0,2022-06-08,2022-06-08,合同会社ＡＲＫ,,合同会社,熊本県,荒尾市,蔵満５６１番地９,,43,204,8640027,,,,,,,2022-06-08,1,,,,,アーク,0
1395,5370001048641,新規,0,2022-06-08,2022-06-08,Ｍ＆Ｍ株式会社,,株式会社,宮城県,仙台市青葉区,中央４丁目２番９号ＳＵＧＡＤＡＮビル中央３階,,04,101,9800021,,,,,,,2022-06-08,1,,,,,エムアンドエム,0
1413,5430001086791,新規,0,2022-06-08,2022-06-08,株式会社プライズライフ,,株式会社,北海道,札幌市西区,西野一条５丁目１番５７－２号,,01,107,0630031,,,,,,,2022-06-08,1,,,,,プライズライフ,0
1414,5430001086817,新規,0,2022-06-08,2022-06-08,株式会社ＨＡＺ,,株式会社,北海道,札幌市豊平区,美園三条４丁目３番１０号,,01,105,0620003,,,,,,,2022-06-08,1,,,,,ハズ,0
1417,5440003001467,新規,0,2022-06-08,2022-06-08,合同会社メガノス,,合同会社,北海道,函館市,神山３丁目５３番２０号,,01,202,0410832,,,,,,,2022-06-08,1,,,,,メガノス,0
1421,5480001011761,新規,0,2022-06-08,2022-06-08,株式会社オリエント企画,,株式会社,徳島県,名西郡石井町,高原字西高原６２１番地１,,36,341,7793204,,,,,,,2022-06-08,1,,,,,オリエントキカク,0
1423,5490001010201,新規,0,2022-06-08,2022-06-08,株式会社カワマートダイニング,,株式会社,高知県,四万十市,有岡３１番地１,,39,210,7870771,,,,,,,2022-06-08,1,,,,,カワマートダイニング,0
1429,5700150046148,新規,0,2022-06-08,2015-10-09,菊川地区安全運転管理協会,,その他,静岡県,菊川市,加茂５８８９,,22,224,4390031,,,,,,,2015-10-09,1,,,,,キクガワチクアンゼンウンテンカンリキヨウカイ,0
1430,5700150108674,新規,0,2022-06-08,2022-05-12,会津サクソフォンプロジェクト,,その他,東京都,練馬区,南田中１丁目２１－６－５０３,,13,120,1770035,,,,,,,2022-05-12,1,,,,,アイヅサクソフオンプロジエクト,0
1440,6010001227107,新規,0,2022-06-08,2022-06-08,株式会社ニューロシューティカルズｉＶＮＳ,,株式会社,東京都,文京区,本郷３丁目２４番６号,,13,105,1130033,,,,,,,2022-06-08,1,,,,,ニューロシューティカルズアイブイネヌエス,0
1441,6010001227115,新規,0,2022-06-08,2022-06-08,ＡＯＩ．コミュニケーションズ株式会社,,株式会社,東京都,中央区,勝どき５丁目１０番１０－１２０６号,,13,102,1040054,,,,,,,2022-06-08,1,,,,,アオイコミュニケーションズ,0
1442,6010001227189,新規,0,2022-06-08,2022-06-08,ＳｍａｒｔＴＶ株式会社,,株式会社,東京都,文京区,後楽２丁目１６－５,,13,105,1120004,,,,,,,2022-06-08,1,,,,,スマートティービー,0
1443,6010001227197,新規,0,2022-06-08,2022-06-08,ＳｍａｌｌＲｉｇ　Ｊａｐａｎ株式会社,,株式会社,東京都,中央区,勝どき５丁目１２番４－１２０３号,,13,102,1040054,,,,,,,2022-06-08,1,,,,,スモールリグジャパン,0
1451,6010401167753,新規,0,2022-06-08,2022-06-08,ルイディ株式会社,,株式会社,東京都,港区,芝５丁目２９－２０,,13,103,1080014,,,,,,,2022-06-08,1,,,,,ルイディ,0
1458,6010601061293,新規,0,2022-06-08,2022-06-08,株式会社ＵＣＤＡ　Ｏｒｇａｎｉｃ,,株式会社,東京都,墨田区,錦糸１丁目２－１アルカセントラル１４階,,13,107,1300013,,,,,,,2022-06-08,1,,,,,ユーシーディーエーオーガニック,0
1477,6010903007432,新規,0,2022-06-08,2022-06-08,合同会社ＴＯＫＹＯ　ＰＵＮＴＯ,,合同会社,東京都,世田谷区,北沢１丁目２８－３一番奥,,13,112,1550031,,,,,,,2022-06-08,1,,,,,トーキョープント,0
1485,6011001147889,新規,0,2022-06-08,2022-06-08,株式会社ＮＡＴＡＬＹＡ,,株式会社,東京都,渋谷区,神宮前６丁目２３番４号桑野ビル２Ｆ,,13,113,1500001,,,,,,,2022-06-08,1,,,,,ナタリヤ,0
1489,6011003014798,新規,0,2022-06-08,2022-06-08,合同会社イシモトテクノロジーズ,,合同会社,東京都,渋谷区,渋谷２丁目１９番１５号宮益坂ビルディング６０９,,13,113,1500002,,,,,,,2022-06-08,1,,,,,イシモトテクノロジーズ,0
1495,6011101099114,新規,0,2022-06-08,2022-06-08,ＫＵＲＯＫＯＮＯ株式会社,,株式会社,東京都,新宿区,西新宿１丁目２６－２新宿野村ビル３２階,,13,104,1600023,,,,,,,2022-06-08,1,,,,,クロコノ,0
1496,6011101099130,新規,0,2022-06-08,2022-06-08,デンタルメディア株式会社,,株式会社,東京都,新宿区,四谷４丁目１１番地４,,13,104,1600004,,,,,,,2022-06-08,1,,,,,,0
1498,6011103011828,新規,0,2022-06-08,2022-06-08,アッシュ・エム合同会社,,合同会社,東京都,新宿区,百人町１丁目１１番３０－１０３号室,,13,104,1690073,,,,,,,2022-06-08,1,,,,,アッシュエム,0
1501,6011201023873,新規,0,2022-06-08,2022-06-08,株式会社青角,,株式会社,東京都,中野区,上鷺宮４丁目１６番１９号,,13,114,1650031,,,,,,,2022-06-08,1,,,,,アオカク,0
1509,6011501028110,新規,0,2022-06-08,2022-06-08,株式会社稲穂,,株式会社,東京都,北区,赤羽１丁目１７番３号,,13,117,1150045,,,,,,,2022-06-08,1,,,,,イナホ,0
1516,6011801040814,新規,0,2022-06-08,2022-06-08,株式会社ＴｅｃｈＵｓ,,株式会社,東京都,葛飾区,水元３丁目１２－６,,13,122,1250032,,,,,,,2022-06-08,1,,,,,テックアス,0
1517,6011801040822,新規,0,2022-06-08,2022-06-08,株式会社ＵＭＭ,,株式会社,東京都,葛飾区,東金町７丁目２５番８号パシフィックパレス金町７０４,,13,122,1250041,,,,,,,2022-06-08,1,,,,,ユーエムエム,0
1518,6011803005113,新規,0,2022-06-08,2022-06-08,ＹＡＧＡＩ合同会社,,合同会社,東京都,葛飾区,鎌倉２丁目１５番４号,,13,122,1250053,,,,,,,2022-06-08,1,,,,,ヤガイ,0
1521,6012303001684,新規,0,2022-06-08,2022-06-08,ｉｓＬａｎｄ合同会社,,合同会社,東京都,町田市,金井ヶ丘２丁目３７番１４号,,13,209,1950076,,,,,,,2022-06-08,1,,,,,アイランド,0
1530,6013301049220,新規,0,2022-06-08,2022-06-08,株式会社ワークフライ,,株式会社,東京都,豊島区,池袋２丁目１２番１２号,,13,116,1710014,,,,,,,2022-06-08,1,,,,,ワークフライ,0
1539,6020001146826,新規,0,2022-06-08,2022-06-08,株式会社ＯＮＯＤＥＲＡ防災,,株式会社,神奈川県,横浜市泉区,中田南３丁目１７番２号,,14,116,2450014,,,,,,,2022-06-08,1,,,,,オノデラボウサイ,0
1546,6021003011794,新規,0,2022-06-08,2022-06-08,合同会社Ｊ．Ｄ．Ｓ,,合同会社,神奈川県,相模原市南区,東林間４丁目２８番９号,,14,153,2520311,,,,,,,2022-06-08,1,,,,,ジェイディーエス,0
1548,6030001148540,新規,0,2022-06-08,2022-06-08,株式会社ＮＥＯ,,株式会社,埼玉県,川口市,上青木５丁目１３－１７,,11,203,3330844,,,,,,,2022-06-08,1,,,,,ネオ,0
1549,6030001148598,新規,0,2022-06-08,2022-06-08,Ｍ＆Ｍ株式会社,,株式会社,埼玉県,川口市,並木４丁目１６－２１,,11,203,3320034,,,,,,,2022-06-08,1,,,,,エムアンドエム,0
1550,6030001148607,新規,0,2022-06-08,2022-06-08,小栗興産株式会社,,株式会社,埼玉県,久喜市,伊坂１１７０番地１４,,11,232,3491121,,,,,,,2022-06-08,1,,,,,オグリコウサン,0
1561,6040001123773,新規,0,2022-06-08,2022-06-08,株式会社オーリーブレッド,,株式会社,千葉県,袖ケ浦市,今井１丁目４２番地,,12,229,2990264,,,,,,,2022-06-08,1,,,,,オーリーブレッド,0
1567,6050001051172,新規,0,2022-06-08,2022-06-08,株式会社柿元良美装蹄所,,株式会社,茨城県,稲敷郡阿見町,岡崎２丁目７番地２６,,08,443,3000335,,,,,,,2022-06-08,1,,,,,カキモトヨシミソウテイショ,0
1568,6050001051180,新規,0,2022-06-08,2022-06-08,株式会社清美,,株式会社,茨城県,下妻市,宗道２０４５番地の２,,08,210,3040814,,,,,,,2022-06-08,1,,,,,キヨミ,0
1571,6060001034960,新規,0,2022-06-08,2022-06-08,ＭＡトレーディング株式会社,,株式会社,栃木県,大田原市,南金丸１９０３番地１,,09,210,3240012,,,,,,,2022-06-08,1,,,,,エムエートレーディング,0
1584,6080001025000,新規,0,2022-06-08,2022-06-08,株式会社あわの泉,,株式会社,静岡県,静岡市葵区,上足洗３丁目６番４号,,22,101,4200841,,,,,,,2022-06-08,1,,,,,アワノイズミ,0
1615,6120001246277,新規,0,2022-06-08,2022-06-08,行と観株式会社,,株式会社,大阪府,大阪市中央区,谷町６丁目３－１２プレアール谷町４０３,,27,128,5420012,,,,,,,2022-06-08,1,,,,,ギョウトカン,0
1616,6120001246426,新規,0,2022-06-08,2022-06-08,株式会社ＹＭＹ,,株式会社,大阪府,大阪市中央区,北浜３丁目１番２２号,,27,128,5410041,,,,,,,2022-06-08,1,,,,,ワイエムワイ,0
1617,6120001246467,新規,0,2022-06-08,2022-06-08,株式会社ＷＯＯＤＥＲ　ＪＡＰＡＮ,,株式会社,大阪府,大阪市淀川区,西中島６丁目３番２４号Ｌ４２１,,27,123,5320011,,,,,,,2022-06-08,1,,,,,ウッダージャパン,0
1618,6120001246475,新規,0,2022-06-08,2022-06-08,株式会社ＡＰＤＡＴＥ,,株式会社,大阪府,大阪市中央区,北浜１丁目９番１０号北浜宗田ビル５０５,,27,128,5410041,,,,,,,2022-06-08,1,,,,,アプデート,0
1619,6120001246483,新規,0,2022-06-08,2022-06-08,株式会社ＧｒｅｅｎＮｅｘｔ,,株式会社,大阪府,大阪市西区,新町３丁目８－１８,,27,106,5500013,,,,,,,2022-06-08,1,,,,,グリーンネクスト,0
1620,6120001246491,新規,0,2022-06-08,2022-06-08,株式会社中辻金物,00126807,株式会社,大阪府,大阪市鶴見区,鶴見３丁目１０番２６号,,27,124,5380053,,,,,,,2022-06-08,1,,,,,ナカツジカナモノ,0
1623,6120003021843,新規,0,2022-06-08,2022-06-08,Ｍｉｒａｉ合同会社,,合同会社,大阪府,大阪市浪速区,芦原２丁目５番４６号,,27,111,5560029,,,,,,,2022-06-08,1,,,,,ミライ,0
1637,6122001035908,新規,0,2022-06-08,2022-06-08,株式会社ｂｌｕｅ　ｓｅａ,,株式会社,大阪府,東大阪市,横小路町６丁目５番４１号メゾンド和２０２,,27,227,5798063,,,,,,,2022-06-08,1,,,,,ブルーシー,0
1638,6122001035932,新規,0,2022-06-08,2022-06-08,株式会社アトリエＳＨＯＫＯ,,株式会社,大阪府,八尾市,長池町５丁目２１番地の１ファミーユ長池Ｂ－１０２号,,27,212,5810836,,,,,,,2022-06-08,1,,,,,アトリエショウコ,0
1644,6130001071807,新規,0,2022-06-08,2022-06-08,珈鵬株式会社,,株式会社,京都府,京都市伏見区,深草大亀谷西久宝寺町１８－２０－１Ｆ,,26,109,6120862,,,,,,,2022-06-08,1,,,,,カホウ,0
1653,6140001126213,新規,0,2022-06-08,2022-06-08,株式会社Ｔｅａｍ　Ｒｅｖｏ,,株式会社,兵庫県,姫路市,阿保甲２１６番地１、２階,,28,201,6700944,,,,,,,2022-06-08,1,,,,,チームレボ,0
1654,6140001126221,新規,0,2022-06-08,2022-06-08,株式会社ＺＥＸ,,株式会社,兵庫県,高砂市,米田町米田新２３番地の１,,28,216,6760801,,,,,,,2022-06-08,1,,,,,ゼクス,0
1655,6140001126254,新規,0,2022-06-08,2022-06-08,スターワールド株式会社,,株式会社,兵庫県,神戸市中央区,北長狭通５丁目２番１９号コフィオ神戸元町,,28,110,6500012,,,,,,,2022-06-08,1,,,,,スターワールド,0
1656,6140001126262,新規,0,2022-06-08,2022-06-08,ジアグループ株式会社,,株式会社,兵庫県,芦屋市,業平町６番１６号－４０２,,28,206,6590068,,,,,,,2022-06-08,1,,,,,ジアグループ,0
1657,6140001126304,新規,0,2022-06-08,2022-06-08,株式会社ＡＬＢｒｉｄｇｅ,,株式会社,兵庫県,尼崎市,長洲中通１丁目１番４１号梅花住宅２階２号,,28,202,6600802,,,,,,,2022-06-08,1,,,,,アルブリッジ,0
1660,6140003017773,新規,0,2022-06-08,2022-06-08,合同会社フィーロ,,合同会社,兵庫県,神戸市須磨区,若木町１丁目２番２０号１０２号室,,28,107,6540014,,,,,,,2022-06-08,1,,,,,フィーロ,0
1668,6170005006961,新規,0,2022-06-08,2022-06-08,一般社団法人あったかクラブ,,その他の設立登記法人,和歌山県,紀の川市,東国分４９８番地,,30,208,6496428,,,,,,,2022-06-08,1,,,,,アッタカクラブ,0
1673,6180001151653,新規,0,2022-06-08,2022-06-08,ＧＩＡ株式会社,,株式会社,愛知県,名古屋市緑区,梅里１丁目２４番地１,,23,114,4580001,,,,,,,2022-06-08,1,,,,,ギア,0
1674,6180001151661,新規,0,2022-06-08,2022-06-08,株式会社東海ＤＣ,,株式会社,愛知県,名古屋市中区,栄５丁目２６番地３９号ＧＳ栄ビル３階,,23,106,4600008,,,,,,,2022-06-08,1,,,,,トウカイディーシー,0
1680,6180301036298,新規,0,2022-06-08,2022-06-08,株式会社ＴＭＳｏｌｕｔｉｏｎ,,株式会社,愛知県,刈谷市,野田町新上納１３１番地２３,,23,210,4480803,,,,,,,2022-06-08,1,,,,,ティーエムソリューション,0
1681,6180301036307,新規,0,2022-06-08,2022-06-08,株式会社篠田開発,,株式会社,愛知県,豊川市,東上町平松２番地２２,,23,207,4411201,,,,,,,2022-06-08,1,,,,,シノダカイハツ,0
1695,6240001059881,新規,0,2022-06-08,2022-06-08,株式会社Ｓ．ＳＯＬ,,株式会社,広島県,山県郡北広島町,今吉田１５２７番地,,34,369,7311221,,,,,,,2022-06-08,1,,,,,エスソル,0
1696,6240001059898,新規,0,2022-06-08,2022-06-08,株式会社絆・きずなｉｎローズ,,株式会社,広島県,福山市,草戸町５丁目５番２０号,,34,207,7200831,,,,,,,2022-06-08,1,,,,,キズナキズナインローズ,0
1708,6290001097836,新規,0,2022-06-08,2022-06-08,株式会社荒木組,,株式会社,福岡県,久留米市,高良内町１１９３番地１,,40,203,8390852,,,,,,,2022-06-08,1,,,,,アラキグミ,0
1710,6290005018714,新規,0,2022-06-08,2022-06-08,医療法人優豊会,,その他の設立登記法人,福岡県,福岡市博多区,千代１丁目１番５５号アットホーム福岡１階,,40,132,8120044,,,,,,,2022-06-08,1,,,,,ユウホウカイ,0
1715,6320001019118,新規,0,2022-06-08,2022-06-08,株式会社財津砂利,,株式会社,大分県,日田市,天瀬町桜竹６３４番地１,,44,204,8794201,,,,,,,2022-06-08,1,,,,,ザイツジャリ,0
1716,6320005009998,新規,0,2022-06-08,2022-06-08,橋本・石和税理士法人,,その他の設立登記法人,大分県,大分市,古ケ鶴１丁目３番１号,,44,201,8700935,,,,,,,2022-06-08,1,,,,,ハシモトイシワ,0
1719,6330001029801,新規,0,2022-06-08,2022-06-08,ＧＯＯＤ　ＬＩＦＥ株式会社,,株式会社,熊本県,熊本市北区,龍田２丁目１９番４３号,,43,105,8618006,,,,,,,2022-06-08,1,,,,,グッドライフ,0
1720,6330003009405,新規,0,2022-06-08,2022-06-08,合同会社ＹＣＭ,,合同会社,熊本県,菊池市,泗水町吉富２２９４番地４,,43,210,8611201,,,,,,,2022-06-08,1,,,,,ワイシーエム,0
1722,6340001024784,新規,0,2022-06-08,2022-06-08,株式会社Ｇ＆Ｍ,,株式会社,鹿児島県,大島郡瀬戸内町,大字諸数５８７番地１,,46,525,8942144,,,,,,,2022-06-08,1,,,,,ジーアンドエム,0
1724,6350001017795,新規,0,2022-06-08,2022-06-08,株式会社ＳＴＯＣＫＲＯＯＭ,,株式会社,宮崎県,宮崎市,橘通西５丁目３番２９号２Ｆ,,45,201,8800001,,,,,,,2022-06-08,1,,,,,ストックルーム,0
1732,6380003005192,新規,0,2022-06-08,2022-06-08,合同会社川畑,,合同会社,福島県,郡山市,日和田町字向山１６番地の４サンヒルズＳ２０２号,,07,203,9630534,,,,,,,2022-06-08,1,,,,,カワバタ,0
1736,6410003003671,新規,0,2022-06-08,2022-06-08,合同会社ＥＶＯ　Ｉｎｃ,,合同会社,秋田県,大仙市,大花町１８番４号,,05,212,0140022,,,,,,,2022-06-08,1,,,,,エボインク,0
1747,6430001086790,新規,0,2022-06-08,2022-06-08,株式会社丸末商事,,株式会社,北海道,札幌市北区,篠路十条３丁目１番１５号,,01,102,0028030,,,,,,,2022-06-08,1,,,,,マルスエショウジ,0
1751,6450001013719,新規,0,2022-06-08,2022-06-08,株式会社Ｓコンサル,,株式会社,北海道,旭川市,豊岡七条３丁目５番６号,,01,204,0788237,,,,,,,2022-06-08,1,,,,,エスコンサル,0
1758,6490001010200,新規,0,2022-06-08,2022-06-08,株式会社カワマートフーズ,,株式会社,高知県,四万十市,有岡３１番地１,,39,210,7870771,,,,,,,2022-06-08,1,,,,,カワマートフーズ,0
1762,6700150107576,新規,0,2022-06-08,2022-03-31,阿蘇キャンドルナイト実行委員会,,その他,熊本県,阿蘇市,内牧３６４－２,,43,214,8692301,,,,,,,2022-03-31,1,,,,,アソキヤンドルナイトジツコウイインカイ,0
1763,6700150108946,新規,0,2022-06-08,2022-05-24,谷町音楽倶楽部,,その他,大阪府,大阪市中央区,内本町２丁目３－１１内本町グリーンビル８０２,,27,128,5400026,,,,,,,2022-05-24,1,,,,,タニマチオンガククラブ,0
1779,7010401167744,新規,0,2022-06-08,2022-06-08,株式会社ｗｅｂ３テクノロジーズ,,株式会社,東京都,港区,南青山６丁目７番２号,,13,103,1070062,,,,,,,2022-06-08,1,,,,,ウェブスリーテクノロジーズ,0
1780,7010401167777,新規,0,2022-06-08,2022-06-08,充たす株式会社,,株式会社,東京都,港区,南青山２丁目１５番５号ＦＡＲＯ青山１階,,13,103,1070062,,,,,,,2022-06-08,1,,,,,ミタス,0
1781,7010401167810,新規,0,2022-06-08,2022-06-08,株式会社ミライヲカタル,,株式会社,東京都,港区,新橋１丁目１２番９号,,13,103,1050004,,,,,,,2022-06-08,1,,,,,ミライヲカタル,0
1782,7010401167835,新規,0,2022-06-08,2022-06-08,Ｐｒｏｐｃａｐ　Ｊａｐａｎ株式会社,,株式会社,東京都,港区,六本木１丁目９番４号,,13,103,1060032,,,,,,,2022-06-08,1,,,,,プロップキャップジャパン,0
1783,7010401167843,新規,0,2022-06-08,2022-06-08,株式会社Ｆ＆Ｊ　ＨＤ,,株式会社,東京都,港区,虎ノ門１丁目２３番１号ジャフコグループ株式会社内,,13,103,1050001,,,,,,,2022-06-08,1,,,,,エフアンドジェイホールディングス,0
1786,7010403027822,新規,0,2022-06-08,2022-06-08,合同会社Ｃｒｅｓｔ　Ｃａｐｉｔａｌ,,合同会社,東京都,港区,虎ノ門４丁目１番２０－１７０２号,,13,103,1050001,,,,,,,2022-06-08,1,,,,,クレストキャピタル,0
1788,7010405021055,新規,0,2022-06-08,2022-06-08,一般社団法人日本地方創生ＤＸ協議会,,その他の設立登記法人,東京都,港区,三田１丁目１番１５号,,13,103,1080073,,,,,,,2022-06-08,1,,,,,ニホンチホウソウセイディーエックスキョウギカイ,0
1799,7010603009562,新規,0,2022-06-08,2022-06-08,ボクトウシシュー合同会社,,合同会社,東京都,墨田区,立花５丁目１番２１号,,13,107,1310043,,,,,,,2022-06-08,1,,,,,ボクトウシシュー,0
1800,7010603009570,新規,0,2022-06-08,2022-06-08,合同会社マホロバーニーズ,,合同会社,東京都,墨田区,東向島１丁目１３番２０号,,13,107,1310032,,,,,,,2022-06-08,1,,,,,マホロバーニーズ,0
1801,7010603009579,新規,0,2022-06-08,2022-06-08,合同会社ＦＤ春江,,合同会社,東京都,江東区,毛利１丁目２１番２号,,13,108,1350001,,,,,,,2022-06-08,1,,,,,エフディハルエ,0
1808,7010701042770,新規,0,2022-06-08,2022-06-08,株式会社Ａｌｂｅｒｏ,,株式会社,東京都,品川区,二葉３丁目２２番２号,,13,109,1420043,,,,,,,2022-06-08,1,,,,,アルベロ,0
1809,7010701042787,新規,0,2022-06-08,2022-06-08,株式会社橋詰商会,,株式会社,東京都,品川区,上大崎３丁目１０番５０－１０４号,,13,109,1410021,,,,,,,2022-06-08,1,,,,,ハシヅメショウカイ,0
1829,7011001147921,新規,0,2022-06-08,2022-06-08,株式会社ローズアップ,,株式会社,東京都,渋谷区,渋谷２丁目１９－１５宮益坂ビルディング６０９,,13,113,1500002,,,,,,,2022-06-08,1,,,,,ローズアップ,0
1830,7011001147979,新規,0,2022-06-08,2022-06-08,株式会社ＯＦＦＩＣＥ　ＫＯＢＡＹＡＳＨＩ,,株式会社,東京都,渋谷区,東１丁目２番２号,,13,113,1500011,,,,,,,2022-06-08,1,,,,,オフィスコバヤシ,0
1831,7011003014806,新規,0,2022-06-08,2022-06-08,合同会社エンターシップ,,合同会社,東京都,目黒区,目黒本町２丁目２８番１３号,,13,110,1520002,,,,,,,2022-06-08,1,,,,,エンターシップ,0
1833,7011101099121,新規,0,2022-06-08,2022-06-08,株式会社Ｓ‐ＧＡＴＥ,,株式会社,東京都,新宿区,西新宿７丁目５－５プラザ西新宿３０９,,13,104,1600023,,,,,,,2022-06-08,1,,,,,エスゲート,0
1835,7011105010273,新規,0,2022-06-08,2022-06-08,一般社団法人ＮＰＰＦ　ＪＡＰＡＮ,,その他の設立登記法人,東京都,新宿区,北新宿３丁目２８番１６－１０３号,,13,104,1690074,,,,,,,2022-06-08,1,,,,,エヌピーピーエフジャパン,0
1848,7011801040805,新規,0,2022-06-08,2022-06-08,野上工業株式会社,,株式会社,東京都,足立区,本木２丁目３１番５号,,13,121,1230853,,,,,,,2022-06-08,1,,,,,ノガミコウギョウ,0
1850,7011803005112,新規,0,2022-06-08,2022-06-08,合同会社アンドソレイユ,,合同会社,東京都,足立区,島根３丁目３番１２号プラザドゥミハルＢ２０１,,13,121,1210815,,,,,,,2022-06-08,1,,,,,アンドソレイユ,0
1853,7012401039279,新規,0,2022-06-08,2022-06-08,ＭＥ株式会社,,株式会社,東京都,府中市,若松町４丁目２２番地の１５,,13,206,1830005,,,,,,,2022-06-08,1,,,,,エムイー,0
1854,7012403005411,新規,0,2022-06-08,2022-06-08,合同会社レインボウ,,合同会社,東京都,狛江市,駒井町２丁目１６番１３号,,13,219,2010016,,,,,,,2022-06-08,1,,,,,レインボウ,0
1859,7013301049203,新規,0,2022-06-08,2022-06-08,株式会社カーボンゼロ,,株式会社,東京都,豊島区,南大塚３丁目３６番７号南大塚Ｔ＆Ｔビル５Ｆ,,13,116,1700005,,,,,,,2022-06-08,1,,,,,カーボンゼロ,0
1876,7020001146783,新規,0,2022-06-08,2022-06-08,株式会社エッセンス,,株式会社,神奈川県,横浜市栄区,尾月２３番７号,,14,115,2470027,,,,,,,2022-06-08,1,,,,,エッセンス,0
1877,7020001146866,新規,0,2022-06-08,2022-06-08,株式会社ＡＩＤＡ　Ｍａｎａｇｅｍｅｎｔ,,株式会社,神奈川県,川崎市幸区,中幸町３丁目３１番地２,,14,132,2120012,,,,,,,2022-06-08,1,,,,,アイダマネジメント,0
1882,7020005015563,新規,0,2022-06-08,2022-06-08,一般社団法人ほごねっと,,その他の設立登記法人,神奈川県,横浜市栄区,犬山町４４番２２号,,14,115,2470026,,,,,,,2022-06-08,1,,,,,ホゴネット,0
1889,7021001076161,新規,0,2022-06-08,2022-06-08,株式会社オーバーテック,,株式会社,神奈川県,相模原市中央区,東淵野辺４丁目１３番２－２０３号,,14,152,2520203,,,,,,,2022-06-08,1,,,,,オーバーテック,0
1890,7021001076178,新規,0,2022-06-08,2022-06-08,ＬＥＣＫ株式会社,,株式会社,神奈川県,鎌倉市,雪ノ下６３６番１０号立花大倉ビル３階,,14,204,2480005,,,,,,,2022-06-08,1,,,,,エルイーシーケー,0
1896,7030001148580,新規,0,2022-06-08,2022-06-08,イーライフデザイン株式会社,,株式会社,埼玉県,和光市,白子１丁目２番４０,,11,229,3510101,,,,,,,2022-06-08,1,,,,,イーライフデザイン,0
1897,7030001148606,新規,0,2022-06-08,2022-06-08,Ｉ‐アイ株式会社,,株式会社,埼玉県,川口市,末広３丁目１６－１７,,11,203,3320006,,,,,,,2022-06-08,1,,,,,アイアイ,0
1901,7030003019549,新規,0,2022-06-08,2022-06-08,クリーンメディア合同会社,,合同会社,埼玉県,三郷市,番匠免１丁目７１番地１深谷コーポＡ－３,,11,237,3410056,,,,,,,2022-06-08,1,,,,,クリーンメディア,0
1905,7040001123756,新規,0,2022-06-08,2022-06-08,Ｏｓｅｎ　Ｃａｐｉｔａｌ　Ｍａｎａｇｅｍｅｎｔ株式会社,,株式会社,千葉県,浦安市,入船４丁目３７番４号,,12,227,2790012,,,,,,,2022-06-08,1,,,,,オオセンキャピタルマネジメント,0
1906,7040003020142,新規,0,2022-06-08,2022-06-08,合同会社ライフパートナーズ,,合同会社,千葉県,流山市,おおたかの森北１丁目４―１ソライエグラン流山おおたかの森３１１,,12,220,2700119,,,,,,,2022-06-08,1,,,,,ライフパートナーズ,0
1907,7040003020183,新規,0,2022-06-08,2022-06-08,エス・コム合同会社,,合同会社,千葉県,松戸市,大橋１８４－２,,12,207,2702224,,,,,,,2022-06-08,1,,,,,エスコム,0
1908,7040003020191,新規,0,2022-06-08,2022-06-08,合同会社ＫＤ１号,,合同会社,千葉県,柏市,柏４丁目５番１０号,,12,217,2770005,,,,,,,2022-06-08,1,,,,,ケーディーイチゴウ,0
1910,7040005021634,新規,0,2022-06-08,2022-06-08,一般社団法人Ｃｏ‐Ｄｅｓｉｇｎ　ＣＨＩＢＡ,,その他の設立登記法人,千葉県,千葉市美浜区,幸町２丁目２４－１,,12,106,2610001,,,,,,,2022-06-08,1,,,,,コデザインチバ,0
1912,7050001051163,新規,0,2022-06-08,2022-06-08,株式会社磯部硝子,,株式会社,茨城県,かすみがうら市,下佐谷８９６番地１,,08,230,3150067,,,,,,,2022-06-08,1,,,,,イソベガラス,0
1913,7050001051188,新規,0,2022-06-08,2022-06-08,中和科学株式会社,,株式会社,茨城県,つくば市,千現１丁目２番１号,,08,220,3050047,,,,,,,2022-06-08,1,,,,,チュウワカガク,0
1914,7050001051205,新規,0,2022-06-08,2022-06-08,株式会社ＴＹＨｕｍｉｌｉｔｙ,,株式会社,茨城県,取手市,新町１丁目９－１－５０１区画,,08,217,3020024,,,,,,,2022-06-08,1,,,,,ティーワイヒュミリティー,0
1915,7050003006603,新規,0,2022-06-08,2022-06-08,昇商業合同会社,,合同会社,茨城県,鹿嶋市,大字宮中４６７８番地２,,08,222,3140031,,,,,,,2022-06-08,1,,,,,ノボルショウギョウ,0
1922,7080101023340,新規,0,2022-06-08,2022-06-08,株式会社ナグラトレーディング,,株式会社,静岡県,御殿場市,板妻３６７番地,,22,215,4120048,,,,,,,2022-06-08,1,,,,,ナグラトレーディング,0
1932,7120001246466,新規,0,2022-06-08,2022-06-08,グレイスデザイン株式会社,,株式会社,大阪府,大阪市中央区,南船場１丁目１７番８号,,27,128,5420081,,,,,,,2022-06-08,1,,,,,グレイスデザイン,0
1933,7120001246482,新規,0,2022-06-08,2022-06-08,株式会社ティーチ,,株式会社,大阪府,大阪市都島区,都島南通１丁目９番１２号ＳｕｎＳｈｉｎｅ３０２号,,27,102,5340023,,,,,,,2022-06-08,1,,,,,ティーチ,0
1934,7120001246490,新規,0,2022-06-08,2022-06-08,株式会社バー,,株式会社,大阪府,大阪市淀川区,十三東３丁目２５－２－５３０,,27,123,5320023,,,,,,,2022-06-08,1,,,,,バー,0
1938,7120003021719,新規,0,2022-06-08,2022-06-08,合同会社Ｉ‐ｆｉｅｌｄ,,合同会社,大阪府,寝屋川市,黒原新町１１－１８,,27,215,5720059,,,,,,,2022-06-08,1,,,,,アイフィールド,0
1939,7120003021834,新規,0,2022-06-08,2022-06-08,ＳＰＡＲＫ合同会社,,合同会社,大阪府,大阪市西淀川区,福町１丁目１２－３４－１１１６,,27,113,5550034,,,,,,,2022-06-08,1,,,,,エスパーク,0
1941,7120101065709,新規,0,2022-06-08,2022-06-08,光大株式会社,,株式会社,大阪府,泉南市,鳴滝２丁目９番７号,,27,228,5900534,,,,,,,2022-06-08,1,,,,,コウダイ,0
1947,7120901046065,新規,0,2022-06-08,2022-06-08,株式会社フラッシュアート,,株式会社,大阪府,豊中市,東豊中町６丁目１６番２８号,,27,203,5600003,,,,,,,2022-06-08,1,,,,,フラッシュアート,0
1956,7140001126212,新規,0,2022-06-08,2022-06-08,クスダ株式会社,,株式会社,兵庫県,姫路市,書写３５番地１グリーンハイツＢ２０１,,28,201,6712201,,,,,,,2022-06-08,1,,,,,クスダ,0
1957,7140001126294,新規,0,2022-06-08,2022-06-08,株式会社風花,,株式会社,兵庫県,神戸市須磨区,北落合２丁目１０番２号,,28,107,6540151,,,,,,,2022-06-08,1,,,,,フウカ,0
1958,7140001126303,新規,0,2022-06-08,2022-06-08,ＭＥＴＨＥＵＳ株式会社,,株式会社,兵庫県,神戸市東灘区,向洋町中６丁目９番地神戸ファッションマート８階,,28,101,6580032,,,,,,,2022-06-08,1,,,,,メテウス,0
1961,7140003017748,新規,0,2022-06-08,2022-06-08,合同会社清晃,,合同会社,兵庫県,西宮市,山口町上山口１丁目１８番２２号,,28,204,6511421,,,,,,,2022-06-08,1,,,,,セイコウ,0
1966,7180001151553,新規,0,2022-06-08,2022-06-08,株式会社つしまラボ,,株式会社,愛知県,名古屋市中村区,二瀬町２番地,,23,105,4530837,,,,,,,2022-06-08,1,,,,,ツシマラボ,0
1967,7180001151636,新規,0,2022-06-08,2022-06-08,リキトラ株式会社,,株式会社,愛知県,名古屋市緑区,鳴海町字城３０番地,,23,114,4580801,,,,,,,2022-06-08,1,,,,,リキトラ,0
1968,7180001151644,新規,0,2022-06-08,2022-06-08,株式会社ＡＬＬ,,株式会社,愛知県,名古屋市西区,則武新町４丁目４番１９号,,23,104,4510051,,,,,,,2022-06-08,1,,,,,オール,0
1969,7180001151652,新規,0,2022-06-08,2022-06-08,株式会社エスフロント,,株式会社,愛知県,名古屋市北区,志賀町３丁目２６番地の２,,23,103,4620037,,,,,,,2022-06-08,1,,,,,エスフロント,0
1973,7180005019796,新規,0,2022-06-08,2022-06-08,一般社団法人国際バリ・スパ協会,,その他の設立登記法人,愛知県,名古屋市中区,錦３丁目５番１３号尾国ビル５Ｆ,,23,106,4600003,,,,,,,2022-06-08,1,,,,,コクサイバリスパキョウカイ,0
1977,7180301036297,新規,0,2022-06-08,2022-06-08,株式会社ＳＴＹＬＥ　ＤＥＳＩＧＮ　ＯＦＦＩＣＥ,,株式会社,愛知県,豊橋市,南大清水町字元町１８９番地３,,23,201,4418132,,,,,,,2022-06-08,1,,,,,スタイルデザインオフィス,0
1978,7180301036306,新規,0,2022-06-08,2022-06-08,株式会社ＭＭＲ,,株式会社,愛知県,豊川市,御津町下佐脇御所１１１番地,,23,207,4410302,,,,,,,2022-06-08,1,,,,,エムエムアール,0
1996,7240001059897,新規,0,2022-06-08,2022-06-08,株式会社ＳＥＡ　ＷＡＹ,,株式会社,広島県,広島市南区,段原２丁目１８番１２号,,34,103,7320811,,,,,,,2022-06-08,1,,,,,シーウェイ,0
2003,7240003005643,新規,0,2022-06-08,2022-06-08,合同会社博貴,,合同会社,広島県,東広島市,西条町下見３５７番地,,34,212,7390044,,,,,,,2022-06-08,1,,,,,ヒロキ,0
2004,7240003005651,新規,0,2022-06-08,2022-06-08,合同会社ＲＥＩ,,合同会社,広島県,広島市西区,庚午中３丁目５番３－１０２号,,34,104,7330822,,,,,,,2022-06-08,1,,,,,アールイーアイ,0
2011,7270001008546,新規,0,2022-06-08,2022-06-08,株式会社ＹＭＫ,,株式会社,鳥取県,東伯郡北栄町,妻波７１８番地,,31,372,6892224,,,,,,,2022-06-08,1,,,,,ワイエムケー,0
2020,7290001097802,新規,0,2022-06-08,2022-06-08,株式会社関家具ホールディングス,,株式会社,福岡県,大川市,大字幡保９８番地の７,,40,212,8310033,,,,,,,2022-06-08,1,,,,,セキカグホールディングス,0
2021,7290001097810,新規,0,2022-06-08,2022-06-08,株式会社小島警備保障,,株式会社,福岡県,福岡市西区,富士見１丁目１９,,40,135,8190387,,,,,,,2022-06-08,1,,,,,コジマケイビホショウ,0
2022,7290001097843,新規,0,2022-06-08,2022-06-08,株式会社ＶＭＳ,,株式会社,福岡県,糟屋郡新宮町,下府５丁目７－２２浦野ビル２０２号室,,40,345,8110112,,,,,,,2022-06-08,1,,,,,ブイエムエス,0
2027,7290803004138,新規,0,2022-06-08,2022-06-08,合同会社サウスフィールド,,合同会社,福岡県,田川郡香春町,大字鏡山８５８－２,,40,601,8221402,,,,,,,2022-06-08,1,,,,,サウスフィールド,0
2036,7340001024775,新規,0,2022-06-08,2022-06-08,ＴＯＫＥＮ．ＳＳ株式会社,,株式会社,鹿児島県,いちき串木野市,袴田７３４番地１,,46,219,8960058,,,,,,,2022-06-08,1,,,,,トーケンエスエス,0
2037,7350001017794,新規,0,2022-06-08,2022-06-08,株式会社ｇｏｅｎｎ,,株式会社,宮崎県,宮崎市,太田３丁目１番２７号ＢＬＫ－ＳＱＵＡＲＥ２Ｆ,,45,201,8800903,,,,,,,2022-06-08,1,,,,,ゴエン,0
2038,7350003004097,新規,0,2022-06-08,2022-06-08,合同会社スポーツ・ラボ,,合同会社,宮崎県,日南市,中央通２丁目９番地７,,45,204,8870021,,,,,,,2022-06-08,1,,,,,スポーツラボ,0
2040,7360005006669,新規,0,2022-06-08,2022-06-08,社会保険労務士法人琉球ＷＩＬＬ,,その他の設立登記法人,沖縄県,那覇市,牧志２丁目１６番４６号,,47,201,9000013,,,,,,,2022-06-08,1,,,,,リュウキュウウィル,0
2052,7380003005191,新規,0,2022-06-08,2022-06-08,合同会社すぐり,,合同会社,福島県,田村市,都路町岩井沢字北作１３１－２,,07,211,9634702,,,,,,,2022-06-08,1,,,,,スグリ,0
2053,7400003002946,新規,0,2022-06-08,2022-06-08,まると合同会社,,合同会社,岩手県,紫波郡矢巾町,大字北矢幅第４地割２１番地５,,03,322,0283613,,,,,,,2022-06-08,1,,,,,マルト,0
2056,7420001017886,新規,0,2022-06-08,2022-06-08,Ｔ‐スタイル株式会社,,株式会社,青森県,十和田市,大字三本木字並木西１４６番地,,02,206,0340001,,,,,,,2022-06-08,1,,,,,ティースタイル,0
2072,7700150108202,新規,0,2022-06-08,2022-04-21,Ｔｈｅ　ＤＵＳＴ’Ｎ’ＢＯＮＥＺ,,その他,東京都,中野区,南台５丁目２０－５－１０５,,13,114,1640014,,,,,,,2022-04-21,1,,,,,ザダストンボーンズ,0
2087,8010003037824,新規,0,2022-06-08,2022-06-08,零式合同会社,,合同会社,東京都,中央区,銀座１丁目２２番１１号,,13,102,1040061,,,,,,,2022-06-08,1,,,,,レイシキ,0
2088,8010003037849,新規,0,2022-06-08,2022-06-08,合同会社フード・ワン,,合同会社,東京都,中央区,日本橋蛎殻町１丁目３２番５号,,13,102,1030014,,,,,,,2022-06-08,1,,,,,フードワン,0
2092,8010401167743,新規,0,2022-06-08,2022-06-08,株式会社カシワテック,,株式会社,東京都,港区,高輪４丁目５番４号,,13,103,1080074,,,,,,,2022-06-08,1,,,,,カシワテック,0
2094,8010403027846,新規,0,2022-06-08,2022-06-08,合同会社ＭＡＳ,,合同会社,東京都,港区,南青山４丁目２０番１４号南青山アパートメンツ,,13,103,1070062,,,,,,,2022-06-08,1,,,,,エムエーエス,0
2104,8010601061300,新規,0,2022-06-08,2022-06-08,株式会社ビーエイチ,,株式会社,東京都,墨田区,江東橋３丁目５番１０号,,13,107,1300022,,,,,,,2022-06-08,1,,,,,ビーエイチ,0
2105,8010603009537,新規,0,2022-06-08,2022-06-08,ｍ２ｄｅｓｉｇｎ合同会社,,合同会社,東京都,江東区,東雲１丁目９番２１－７０３号,,13,108,1350062,,,,,,,2022-06-08,1,,,,,エムツーデザイン,0
2112,8010801033025,新規,0,2022-06-08,2022-06-08,株式会社Ｓｉｄｅ　ｒｉｃｅ　ｆｉｅｌｄ,,株式会社,東京都,大田区,大森東４丁目３９－６,,13,111,1430012,,,,,,,2022-06-08,1,,,,,サイドライスフィールド,0
2116,8010903007422,新規,0,2022-06-08,2022-06-08,合同会社セイリュウ,,合同会社,東京都,世田谷区,鎌田２丁目１２番１０ー３０２号,,13,112,1570077,,,,,,,2022-06-08,1,,,,,セイリュウ,0
2117,8010903007430,新規,0,2022-06-08,2022-06-08,合同会社サンシャイン,,合同会社,東京都,世田谷区,等々力７丁目１４番２－２０３号,,13,112,1580082,,,,,,,2022-06-08,1,,,,,サンシャイン,0
2125,8011005009596,新規,0,2022-06-08,2022-06-08,隨縁会,,その他の設立登記法人,東京都,渋谷区,代々木５丁目４６番２号,,13,113,1510053,,,,,,,2022-06-08,1,,,,,ズイエンカイ,0
2136,8011401024298,新規,0,2022-06-08,2022-06-08,シン株式会社,,株式会社,東京都,板橋区,常盤台４丁目３２番３号蔵元ビル３階,,13,119,1740071,,,,,,,2022-06-08,1,,,,,シン,0
2140,8011701025351,新規,0,2022-06-08,2022-06-08,株式会社ユキ工業,,株式会社,東京都,江戸川区,江戸川５丁目３１番地２４,,13,123,1340013,,,,,,,2022-06-08,1,,,,,ユキコウギョウ,0
2143,8011801040804,新規,0,2022-06-08,2022-06-08,株式会社ＲＥＶＩＶＥ,,株式会社,東京都,足立区,梅田６丁目４－１４－１３０５,,13,121,1230851,,,,,,,2022-06-08,1,,,,,リバイブ,0
2144,8011801040820,新規,0,2022-06-08,2022-06-08,株式会社エピック,,株式会社,東京都,葛飾区,新小岩１丁目５４番３号,,13,122,1240024,,,,,,,2022-06-08,1,,,,,エピック,0
2146,8012403005419,新規,0,2022-06-08,2022-06-08,合同会社うっしーふぁーむ,,合同会社,東京都,狛江市,猪方３丁目２４番１６号,,13,219,2010015,,,,,,,2022-06-08,1,,,,,ウッシーファーム,0
2159,8020001146790,新規,0,2022-06-08,2022-06-08,株式会社受託開発営業,,株式会社,神奈川県,横浜市南区,永田みなみ台２－８－７０６,,14,105,2320075,,,,,,,2022-06-08,1,,,,,ジュタクカイハツエイギョウ,0
2160,8020001146857,新規,0,2022-06-08,2022-06-08,株式会社ニコー,,株式会社,神奈川県,横浜市鶴見区,駒岡３丁目３０番Ｃ－１０５号,,14,101,2300071,,,,,,,2022-06-08,1,,,,,ニコー,0
2166,8021001076169,新規,0,2022-06-08,2022-06-08,株式会社カエサル,,株式会社,神奈川県,平塚市,紅谷町４番６号,,14,203,2540043,,,,,,,2022-06-08,1,,,,,カエサル,0
2184,8040001123755,新規,0,2022-06-08,2022-06-08,涼風物流株式会社,,株式会社,千葉県,富津市,千種新田８７３番地５,,12,226,2930036,,,,,,,2022-06-08,1,,,,,スズカゼブツリュウ,0
2186,8050001051195,新規,0,2022-06-08,2022-06-08,株式会社アヴァロン,,株式会社,茨城県,土浦市,沢辺８２８－２,,08,203,3004104,,,,,,,2022-06-08,1,,,,,アヴァロン,0
2187,8050001051204,新規,0,2022-06-08,2022-06-08,総志サービス株式会社,,株式会社,茨城県,かすみがうら市,下稲吉７８４番地,,08,230,3150052,,,,,,,2022-06-08,1,,,,,ソウシサービス,0
2190,8050003006602,新規,0,2022-06-08,2022-06-08,合同会社Ｐ．Ｓ．Ｄ　ＩＮＴＥＲＮＡＴＩＯＮＡＬ,,合同会社,茨城県,龍ケ崎市,野原町６１番地３ロイヤル・コート野原第２０３号室,,08,208,3010831,,,,,,,2022-06-08,1,,,,,ピーエスディーインターナショナル,0
2194,8070003004505,新規,0,2022-06-08,2022-06-08,合同会社ＨＩＶＩＳＩＯＮ,,合同会社,群馬県,前橋市,西片貝町４丁目１２番地２０,,10,201,3710013,,,,,,,2022-06-08,1,,,,,ハイヴィジョン,0
2195,8080001024999,新規,0,2022-06-08,2022-06-08,株式会社しずおかライフサポート,,株式会社,静岡県,静岡市清水区,入江岡町１番８号入江岡コーポ１Ｂ,,22,103,4240839,,,,,,,2022-06-08,1,,,,,シズオカライフサポート,0
2203,8100003006571,新規,0,2022-06-08,2022-06-08,合同会社Ｋａｋｅｒｕｃｏ,,合同会社,長野県,佐久市,中込２３３６－１ワークテラス佐久,,20,217,3850051,,,,,,,2022-06-08,1,,,,,カケルコ,0
2220,8120001246358,新規,0,2022-06-08,2022-06-08,株式会社シナジーグローバル九州,,株式会社,大阪府,大阪市北区,梅田１丁目１番３号大阪駅前第三ビル７階,,27,127,5300001,,,,,,,2022-06-08,1,,,,,シナジーグローバルキュウシュウ,0
2221,8120001246457,新規,0,2022-06-08,2022-06-08,フィリール・マテリアル株式会社,,株式会社,大阪府,守口市,南寺方東通６丁目１１番１２号,,27,209,5700043,,,,,,,2022-06-08,1,,,,,フィリールマテリアル,0
2222,8120001246481,新規,0,2022-06-08,2022-06-08,株式会社アダプトール,,株式会社,大阪府,大阪市北区,太融寺町２番２１－３０１号,,27,127,5300051,,,,,,,2022-06-08,1,,,,,アダプトール,0
2226,8120003021841,新規,0,2022-06-08,2022-06-08,朝陽合同会社,,合同会社,大阪府,大阪市西成区,天下茶屋北１丁目３番１５号,,27,122,5570003,,,,,,,2022-06-08,1,,,,,アサヒ,0
2228,8120101065708,新規,0,2022-06-08,2022-06-08,中田株式会社,,株式会社,大阪府,泉佐野市,羽倉崎上町３丁目３番２７号サンワハイツ,,27,213,5980037,,,,,,,2022-06-08,1,,,,,ナカタ,0
2239,8130001071887,新規,0,2022-06-08,2022-06-08,Ａ　Ｔｅｃ株式会社,,株式会社,京都府,八幡市,男山長沢２６番地３５,,26,210,6148367,,,,,,,2022-06-08,1,,,,,エーテック,0
2240,8130001071929,新規,0,2022-06-08,2022-06-08,日生管理サービス株式会社,,株式会社,京都府,京都市北区,鷹峯木ノ畑町７７番地１,,26,101,6038447,,,,,,,2022-06-08,1,,,,,ニッセイカンリサービス,0
2245,8140001126260,新規,0,2022-06-08,2022-06-08,株式会社人良食,,株式会社,兵庫県,神戸市兵庫区,梅元町４番３号,,28,105,6520003,,,,,,,2022-06-08,1,,,,,ジンリョウショク,0
2246,8140001126277,新規,0,2022-06-08,2022-06-08,株式会社蒼,,株式会社,兵庫県,川西市,栄根２丁目８番２－３０７号,,28,217,6660021,,,,,,,2022-06-08,1,,,,,ソウ,0
2247,8140001126293,新規,0,2022-06-08,2022-06-08,ＡＣＥサポート株式会社,,株式会社,兵庫県,神戸市灘区,日尾町１丁目１番５号,,28,102,6570029,,,,,,,2022-06-08,1,,,,,エースサポート,0
2250,8140003017763,新規,0,2022-06-08,2022-06-08,合同会社あわじ入鹿商事,,合同会社,兵庫県,洲本市,納３１４番地２,,28,205,6560101,,,,,,,2022-06-08,1,,,,,アワジイリシカショウジ,0
2253,8160001024264,新規,0,2022-06-08,2022-06-08,株式会社アスコネクト,,株式会社,滋賀県,長浜市,神照町３９９番地９,,25,203,5260015,,,,,,,2022-06-08,1,,,,,アスコネクト,0
2263,8180001151635,新規,0,2022-06-08,2022-06-08,株式会社クライム,,株式会社,愛知県,名古屋市守山区,小幡常燈１８番９号,,23,113,4630047,,,,,,,2022-06-08,1,,,,,クライム,0
2264,8180001151651,新規,0,2022-06-08,2022-06-08,株式会社Ｍｅ‐テクノ,,株式会社,愛知県,名古屋市緑区,鳴海町字山腰７３番地,,23,114,4580801,,,,,,,2022-06-08,1,,,,,エムイーテクノ,0
2269,8180301036296,新規,0,2022-06-08,2022-06-08,株式会社マルナカ,,株式会社,愛知県,刈谷市,日高町４丁目５１０番地,,23,210,4480046,,,,,,,2022-06-08,1,,,,,マルナカ,0
2272,8180303005349,新規,0,2022-06-08,2022-06-08,合同会社真秀櫓芭,,合同会社,愛知県,西尾市,米津町宮前５番地４,,23,213,4450802,,,,,,,2022-06-08,1,,,,,マホロバ,0
2275,8190001029491,新規,0,2022-06-08,2022-06-08,ハッピーベルテック株式会社,,株式会社,三重県,伊賀市,川東２７４０番地,,24,216,5191424,,,,,,,2022-06-08,1,,,,,ハッピーベルテック,0
2280,8200001040141,新規,0,2022-06-08,2022-06-08,株式会社アピシェ・ジャパン,,株式会社,岐阜県,高山市,丹生川町久手３６４番地２,,21,203,5062252,,,,,,,2022-06-08,1,,,,,アピシェジャパン,0
2284,8230003001857,新規,0,2022-06-08,2022-06-08,あおば合同会社,,合同会社,富山県,富山市,明輪町１番２４２―１０１０号アパガーデンハイツ富山駅前,,16,201,9300001,,,,,,,2022-06-08,1,,,,,アオバ,0
2286,8230005009238,新規,0,2022-06-08,2022-06-08,一般社団法人国際芸術写真協会,,その他の設立登記法人,富山県,富山市,新根塚町１丁目４番３２－１３０２号ポレスター根塚,,16,201,9398205,,,,,,,2022-06-08,1,,,,,コクサイゲイジュツシャシンキョウカイ,0
2288,8240001059863,新規,0,2022-06-08,2022-06-08,友鉄ホールディングス株式会社,,株式会社,広島県,広島市安佐北区,亀山２丁目２４番１４号,,34,106,7310231,,,,,,,2022-06-08,1,,,,,トモテツホールディングス,0
2289,8240001059896,新規,0,2022-06-08,2022-06-08,株式会社ＶＡＬＯＲＥ,,株式会社,広島県,安芸郡海田町,寺迫１丁目２番２３－１０２号,,34,304,7360011,,,,,,,2022-06-08,1,,,,,バローレ,0
2291,8250001019610,新規,0,2022-06-08,2022-06-08,株式会社ひつもと,,株式会社,山口県,下関市,竹崎町２丁目７番６号,,35,201,7500025,,,,,,,2022-06-08,1,,,,,ヒツモト,0
2297,8290001097818,新規,0,2022-06-08,2022-06-08,株式会社ＫＡＧＥ,,株式会社,福岡県,福岡市東区,香椎駅前１丁目１０－７ＴＡＴＴＯＩ香椎５０４,,40,131,8130013,,,,,,,2022-06-08,1,,,,,カゲ,0
2301,8290003012601,新規,0,2022-06-08,2022-06-08,合同会社グーグー,,合同会社,福岡県,福岡市南区,平和２丁目６番４０号Ｃ＆Ｃ平和１０１,,40,134,8150071,,,,,,,2022-06-08,1,,,,,グーグー,0
2305,8290801028591,新規,0,2022-06-08,2022-06-08,株式会社香田工務店,,株式会社,福岡県,直方市,大字下新入２９４６番地１,,40,204,8220032,,,,,,,2022-06-08,1,,,,,コウダコウムテン,0
2310,8310003004380,新規,0,2022-06-08,2022-06-08,合同会社タナカ内装,,合同会社,長崎県,雲仙市,千々石町甲５５２番地,,42,213,8540401,,,,,,,2022-06-08,1,,,,,タナカナイソウ,0
2313,8320001019116,新規,0,2022-06-08,2022-06-08,株式会社アシスト・コア,,株式会社,大分県,別府市,大字南立石１０７９番地の１６４,,44,202,8740000,,,,,,,2022-06-08,1,,,,,アシストコア,0
2315,8330003009403,新規,0,2022-06-08,2022-06-08,合同会社ＲＹＵＫＹＵ,,合同会社,熊本県,球磨郡あさぎり町,免田西２５２２番地１,,43,514,8680415,,,,,,,2022-06-08,1,,,,,リュウキュウ,0
2319,8360003012065,新規,0,2022-06-08,2022-06-08,合同会社Ａｃｈｅｒｍａｋｅ,,合同会社,沖縄県,那覇市,字安里３８１－１ＺＯＲＫＳ沖縄,,47,201,9020067,,,,,,,2022-06-08,1,,,,,アッチャーメイク,0
2322,8370001048606,新規,0,2022-06-08,2022-06-08,カメイ株式会社,,株式会社,宮城県,登米市,迫町佐沼字中江２丁目１番地５,,04,212,9870511,,,,,,,2022-06-08,1,,,,,カメイ,0
2323,8370001048630,新規,0,2022-06-08,2022-06-08,株式会社どうもね,,株式会社,宮城県,仙台市泉区,泉中央１丁目１２番６号,,04,105,9813133,,,,,,,2022-06-08,1,,,,,ドオモネ,0
2330,8390001016924,新規,0,2022-06-08,2022-06-08,さくらワイナリー山形株式会社,,株式会社,山形県,東根市,神町北５丁目５番１７号,,06,211,9993762,,,,,,,2022-06-08,1,,,,,サクラワイナリーヤマガタ,0
2335,8430001086797,新規,0,2022-06-08,2022-06-08,株式会社魚匠くら,,株式会社,北海道,札幌市北区,北二十一条西１３丁目３番７号,,01,102,0010021,,,,,,,2022-06-08,1,,,,,ギョショウクラ,0
2349,8460101007205,新規,0,2022-06-08,2022-06-08,アップグレード株式会社,,株式会社,北海道,帯広市,西二十五条南３丁目４番地１１６,,01,207,0802475,,,,,,,2022-06-08,1,,,,,アップグレード,0
2350,8460303000767,新規,0,2022-06-08,2022-06-08,合同会社ＮＯＲＵＢＵ,,合同会社,北海道,北見市,留辺蘂町旭西１７６番地２２,,01,208,0910027,,,,,,,2022-06-08,1,,,,,ノルブ,0
2356,8490001010198,新規,0,2022-06-08,2022-06-08,株式会社北岡,,株式会社,高知県,高知市,大川筋２丁目１番２６号,,39,201,7800052,,,,,,,2022-06-08,1,,,,,キタオカ,0
2357,8490005006853,新規,0,2022-06-08,2022-06-08,山下行政書士法人,,その他の設立登記法人,高知県,高知市,河ノ瀬町１６７番地竹田ビル,,39,201,7808035,,,,,,,2022-06-08,1,,,,,ヤマシタ,0
2359,8700150108655,新規,0,2022-06-08,2022-05-12,ＡＫ　ｐｒｏｊｅｃｔ,,その他,兵庫県,宝塚市,川面３丁目１３－２６,,28,214,6650842,,,,,,,2022-05-12,1,,,,,エーケープロジエクト,0
2371,9010001227161,新規,0,2022-06-08,2022-06-08,誠徳株式会社,,株式会社,東京都,千代田区,神田三崎町３丁目６番１号ＢＡＣＨビル,,13,101,1010061,,,,,,,2022-06-08,1,,,,,セイトク,0
2373,9010003037798,新規,0,2022-06-08,2022-06-08,ＥＯＳ　Ａｃｃｏｕｎｔａｎｔｓ合同会社,,合同会社,東京都,千代田区,丸の内１丁目８番３号丸の内トラストタワー２０階,,13,101,1000005,,,,,,,2022-06-08,1,,,,,イーオーエスアカウンタンツ,0
2374,9010005035107,新規,0,2022-06-08,2022-06-08,住之江デベロップメント特定目的会社,,その他の設立登記法人,東京都,中央区,新川２丁目２７番１号,,13,102,1040033,,,,,,,2022-06-08,1,,,,,スミノエデベロップメント,0
2378,9010401167610,新規,0,2022-06-08,2022-06-08,株式会社ｆｕｒａｓｕｃｏ,,株式会社,東京都,港区,港南２丁目１６番２号,,13,103,1080075,,,,,,,2022-06-08,1,,,,,フラスコ,0
2379,9010401167734,新規,0,2022-06-08,2022-06-08,株式会社ＨｏｌｙＴｅｃｈ,,株式会社,東京都,港区,南青山２丁目２番１５号ＷＩＮ青山５３１,,13,103,1070062,,,,,,,2022-06-08,1,,,,,ホーリーテック,0
2380,9010401167742,新規,0,2022-06-08,2022-06-08,株式会社高天原商事,,株式会社,東京都,港区,赤坂６丁目１９－４６Ｆｒｏｍ１ｓｔＲｏｐｐｏｎｇｉ３０２,,13,103,1070052,,,,,,,2022-06-08,1,,,,,タカマガハラショウジ,0
2381,9010401167759,新規,0,2022-06-08,2022-06-08,株式会社ＴＯＷＡ,,株式会社,東京都,港区,新橋３丁目２６番３号,,13,103,1050004,,,,,,,2022-06-08,1,,,,,トワ,0
2382,9010401167783,新規,0,2022-06-08,2022-06-08,エレファントアビエーション株式会社,,株式会社,東京都,港区,芝大門１丁目１１番８－１３０３号,,13,103,1050012,,,,,,,2022-06-08,1,,,,,エレファントアビエーション,0
2383,9010401167800,新規,0,2022-06-08,2022-06-08,株式会社ノネット,,株式会社,東京都,港区,虎ノ門３丁目２０番３号,,13,103,1050001,,,,,,,2022-06-08,1,,,,,ノネット,0
2384,9010401167841,新規,0,2022-06-08,2022-06-08,株式会社ｉｏ,,株式会社,東京都,港区,南青山５丁目１２番２４号シャトー東洋南青山Ｂ１,,13,103,1070062,,,,,,,2022-06-08,1,,,,,イオ,0
2386,9010403027498,新規,0,2022-06-08,2022-06-08,合同会社ＡＭＵＢＩＳ,,合同会社,東京都,港区,白金４丁目２－６白金グレースマンション４０３,,13,103,1080072,,,,,,,2022-06-08,1,,,,,アムビス,0
2387,9010403027787,新規,0,2022-06-08,2022-06-08,合同会社エルムの木,,合同会社,東京都,港区,港南４丁目６番５号ワールドシティタワーズ・６０６号室,,13,103,1080075,,,,,,,2022-06-08,1,,,,,エルムノキ,0
2392,9010603009577,新規,0,2022-06-08,2022-06-08,合同会社ｈｏｋｕ,,合同会社,東京都,江東区,北砂４丁目３６番１２号光洋ビル２０７,,13,108,1360073,,,,,,,2022-06-08,1,,,,,ホク,0
2398,9010901051009,新規,0,2022-06-08,2022-06-08,株式会社結築,,株式会社,東京都,世田谷区,大原１丁目６３番９号アーク笹塚ビル４Ｆ,,13,112,1560041,,,,,,,2022-06-08,1,,,,,ユズキ,0
2404,9011001147886,新規,0,2022-06-08,2022-06-08,ジャストライト・ジャパン株式会社,,株式会社,東京都,渋谷区,神宮前１丁目５－８、神宮前タワービルディング１２階,,13,113,1500001,,,,,,,2022-06-08,1,,,,,ジャストライトジャパン,0
2405,9011001147977,新規,0,2022-06-08,2022-06-08,ＢＩＧ　Ｉｍｐａｃｔ株式会社,,株式会社,東京都,渋谷区,渋谷２丁目２４番１２号,,13,113,1500002,,,,,,,2022-06-08,1,,,,,ビッグインパクト,0
2412,9011103011817,新規,0,2022-06-08,2022-06-08,合同会社洗濯船,,合同会社,東京都,新宿区,中井２丁目１２番１９号ラルーチェ中井１０２,,13,104,1610035,,,,,,,2022-06-08,1,,,,,センタクセン,0
2416,9011203003838,新規,0,2022-06-08,2022-06-08,合同会社Ｆｏｌｉｕｍ,,合同会社,東京都,中野区,弥生町３丁目３４番８号ＴＫビル５階,,13,114,1640013,,,,,,,2022-06-08,1,,,,,フォリウム,0
2426,9011701025367,新規,0,2022-06-08,2022-06-08,ＧＯＬＤ株式会社,,株式会社,東京都,江戸川区,西葛西５丁目１－５サンシティ西葛西５０２,,13,123,1340088,,,,,,,2022-06-08,1,,,,,ゴールド,0
2427,9011801040811,新規,0,2022-06-08,2022-06-08,Ｙｕ‐Ｗａ株式会社,,株式会社,東京都,葛飾区,南水元２丁目２番２２号ｆｓｐｒｉｎｇ２０３,,13,122,1250035,,,,,,,2022-06-08,1,,,,,ユーワ,0
2437,9013103001137,新規,0,2022-06-08,2022-06-08,ＴＲＡＮＧ　ＴＲＡＮＧ合同会社,,合同会社,東京都,あきる野市,秋川２丁目１番地６－１ＦＢ,,13,228,1970804,,,,,,,2022-06-08,1,,,,,チャンチャン,0
2443,9013301049218,新規,0,2022-06-08,2022-06-08,株式会社グロリアトレーディング,,株式会社,東京都,豊島区,高田３丁目１０番１８号東ビル３０１号,,13,116,1710033,,,,,,,2022-06-08,1,,,,,グロリアトレーディング,0
2449,9020001146831,新規,0,2022-06-08,2022-06-08,株式会社プレイスメイキング横浜,,株式会社,神奈川県,横浜市中区,海岸通４丁目２３番マリンビル３０２,,14,104,2310002,,,,,,,2022-06-08,1,,,,,プレイスメイキングヨコハマ,0
2456,9020003021917,新規,0,2022-06-08,2022-06-08,ＫＨ‐ｉＤ合同会社,,合同会社,神奈川県,横浜市中区,山下町２８番地２ライオンズプラザ山下公園３２８号室,,14,104,2310023,,,,,,,2022-06-08,1,,,,,ケイエイチアイディ,0
2457,9020005015561,新規,0,2022-06-08,2022-06-08,アレスコ税理士法人,,その他の設立登記法人,神奈川県,川崎市多摩区,登戸１８９９番地－１０１,,14,135,2140014,,,,,,,2022-06-08,1,,,,,アレスコ,0
2462,9021001076102,新規,0,2022-06-08,2022-06-08,株式会社ＵＮＷＩＮＤ,,株式会社,神奈川県,鎌倉市,七里ガ浜東２丁目７番２－３０２号,,14,204,2480025,,,,,,,2022-06-08,1,,,,,アンワインド,0
2463,9021001076176,新規,0,2022-06-08,2022-06-08,株式会社宝宮設備,,株式会社,神奈川県,厚木市,松枝１丁目６番１１号,,14,212,2430005,,,,,,,2022-06-08,1,,,,,ホウミヤセツビ,0
2466,9021003011800,新規,0,2022-06-08,2022-06-08,合同会社ＷｉｌｌＫｅｅｐＳｉｄｅ,,合同会社,神奈川県,中郡二宮町,山西８０４,,14,342,2590124,,,,,,,2022-06-08,1,,,,,ウィルキープサイド,0
2480,9030001148587,新規,0,2022-06-08,2022-06-08,株式会社ジョネス,,株式会社,埼玉県,さいたま市北区,別所町１０５番地４グラン・コート大宮別所１０８号,,11,102,3310821,,,,,,,2022-06-08,1,,,,,ジョネス,0
2495,9050001051178,新規,0,2022-06-08,2022-06-08,アーバンアセットマネジメント株式会社,,株式会社,茨城県,潮来市,あやめ２丁目１６番地６,,08,223,3112425,,,,,,,2022-06-08,1,,,,,アーバンアセットマネジメント,0
2496,9050003006601,新規,0,2022-06-08,2022-06-08,合同会社ＨＡＪＩＭＥ　ＪＰ,,合同会社,茨城県,坂東市,桐木６４７番地１０２,,08,228,3060636,,,,,,,2022-06-08,1,,,,,ハジメジェーピー,0
2498,9060001034958,新規,0,2022-06-08,2022-06-08,株式会社ＳＵＮ’Ｓ．ＬＴＤ,,株式会社,栃木県,宇都宮市,西原町６００番地１４９,,09,201,3200826,,,,,,,2022-06-08,1,,,,,サンズリミテッド,0
2504,9060005009989,新規,0,2022-06-08,2022-06-08,司法書士法人シビックプライド,,その他の設立登記法人,栃木県,栃木市,泉町１９番１８号,,09,203,3280014,,,,,,,2022-06-08,1,,,,,シビックプライド,0
2507,9080001024998,新規,0,2022-06-08,2022-06-08,株式会社小林電気,,株式会社,静岡県,静岡市清水区,船原２丁目３番地の９,,22,103,4240845,,,,,,,2022-06-08,1,,,,,コバヤシデンキ,0
2510,9080101023339,新規,0,2022-06-08,2022-06-08,株式会社モリ機械設計,,株式会社,静岡県,富士市,久沢７７４番地の８,,22,210,4190202,,,,,,,2022-06-08,1,,,,,モリキカイセッケイ,0
2516,9110001036718,新規,0,2022-06-08,2022-06-08,株式会社北越学校給食,,株式会社,新潟県,上越市,寺町２丁目１０番１７号,,15,222,9430892,,,,,,,2022-06-08,1,,,,,ホクエツガッコウキュウショク,0
2517,9110001036726,新規,0,2022-06-08,2022-06-08,株式会社ＫＭ　ＴＲＡＤＩＮＧ,,株式会社,新潟県,新潟市北区,島見町１５６４番地１,,15,101,9503102,,,,,,,2022-06-08,1,,,,,ケイエムトレーディング,0
2520,9110005016815,新規,0,2022-06-08,2022-06-08,一般社団法人フィールド佐渡,,その他の設立登記法人,新潟県,佐渡市,貝塚５８１番地１,,15,224,9521207,,,,,,,2022-06-08,1,,,,,フィールドサド,0
2528,9120001246398,新規,0,2022-06-08,2022-06-08,株式会社鳥友会,,株式会社,大阪府,大阪市住之江区,北加賀屋５丁目５番１号,,27,125,5590011,,,,,,,2022-06-08,1,,,,,トリトモカイ,0
2529,9120001246489,新規,0,2022-06-08,2022-06-08,フクロウ株式会社,,株式会社,大阪府,門真市,北巣本町８－１１,,27,223,5710073,,,,,,,2022-06-08,1,,,,,フクロウ,0
2541,9122001035938,新規,0,2022-06-08,2022-06-08,株式会社ｌｉｇｈｔ　ｕｐ,,株式会社,大阪府,八尾市,八尾木北２丁目４７番地の１,,27,212,5810016,,,,,,,2022-06-08,1,,,,,ライトアップ,0
2544,9130003007979,新規,0,2022-06-08,2022-06-08,合同会社Ｏｂｅｒ,,合同会社,京都府,京都市西京区,大枝北沓掛町２丁目１２番地１サンシティ桂坂壱番館４０７号,,26,111,6101101,,,,,,,2022-06-08,1,,,,,オーバー,0
2546,9140001126227,新規,0,2022-06-08,2022-06-08,株式会社ＴＨ神戸,,株式会社,兵庫県,神戸市中央区,栄町通３丁目２番２号和栄ビル３号館３０９号室,,28,110,6500023,,,,,,,2022-06-08,1,,,,,ティーエイチコウベ,0
2547,9140001126251,新規,0,2022-06-08,2022-06-08,株式会社木部工業,,株式会社,兵庫県,姫路市,勝原区朝日谷３０４番地１,,28,201,6711204,,,,,,,2022-06-08,1,,,,,キベコウギョウ,0
2548,9140001126292,新規,0,2022-06-08,2022-06-08,共栄海事株式会社,,株式会社,兵庫県,神戸市灘区,摩耶埠頭摩耶業務センター４階,,28,102,6570854,,,,,,,2022-06-08,1,,,,,キョウエイカイジ,0
2549,9140001126301,新規,0,2022-06-08,2022-06-08,株式会社ＩＤＥＱ,,株式会社,兵庫県,尼崎市,長洲本通１丁目６－１８コスモ尼崎駅前通４０８号,,28,202,6600803,,,,,,,2022-06-08,1,,,,,アイデック,0
2550,9140003017713,新規,0,2022-06-08,2022-06-08,合同会社Ａ＆Ｒ,,合同会社,兵庫県,伊丹市,安堂寺町７丁目３１番地,,28,207,6640864,,,,,,,2022-06-08,1,,,,,エイアンドアール,0
2554,9160001024263,新規,0,2022-06-08,2022-06-08,株式会社ポルクス,,株式会社,滋賀県,東近江市,五個荘竜田町５１２番地ネオ・ユニゾンＩＩＩ２０１号,00126811,25,213,5291421,,,,,,,2022-06-08,1,,,,,ポルクス,0
2561,9180001151510,新規,0,2022-06-08,2022-06-08,株式会社八幡内装,,株式会社,愛知県,名古屋市中川区,四女子町３丁目７０番地,,23,110,4540822,,,,,,,2022-06-08,1,,,,,ヤワタナイソウ,0
2562,9180001151543,新規,0,2022-06-08,2022-06-08,株式会社メディカルアドバイスパートナー,,株式会社,愛知県,名古屋市中村区,名駅４丁目２４－８いちご名古屋ビル７Ｆ,,23,105,4500002,,,,,,,2022-06-08,1,,,,,メディカルアドバイスパートナー,0
2563,9180001151592,新規,0,2022-06-08,2022-06-08,株式会社ＢｅｌｌＴｒｅｅ,,株式会社,愛知県,名古屋市昭和区,山脇町１丁目３番地,,23,107,4660063,,,,,,,2022-06-08,1,,,,,ベルツリー,0
2564,9180001151634,新規,0,2022-06-08,2022-06-08,ショウテクト株式会社,,株式会社,愛知県,東海市,加木屋町石塚１０５番地サンヒルズ石塚（３０３号室）,,23,222,4770032,,,,,,,2022-06-08,1,,,,,ショウテクト,0
2565,9180001151650,新規,0,2022-06-08,2022-06-08,ベルカント産業株式会社,,株式会社,愛知県,名古屋市緑区,作の山町１８８番地,,23,114,4580038,,,,,,,2022-06-08,1,,,,,ベルカントサンギョウ,0
2566,9180001151667,新規,0,2022-06-08,2022-06-08,株式会社氷竜,,株式会社,愛知県,一宮市,中町２丁目７番１－５０５号パークメゾン野村５０２号,,23,203,4910913,,,,,,,2022-06-08,1,,,,,ヒリュウ,0
2571,9180005019794,新規,0,2022-06-08,2022-06-08,一般社団法人障がい福祉研究所,,その他の設立登記法人,愛知県,名古屋市緑区,鳴海町字乙子山５７番地の１,,23,114,4580801,,,,,,,2022-06-08,1,,,,,ショウガイフクシケンキュウショ,0
2572,9180301036304,新規,0,2022-06-08,2022-06-08,株式会社Ｆｉｔ＆ｗａｎ,,株式会社,愛知県,岡崎市,若松町字乙下２３番地５,,23,202,4440826,,,,,,,2022-06-08,1,,,,,フィットアンドワン,0
2573,9180303005348,新規,0,2022-06-08,2022-06-08,合同会社結び,,合同会社,愛知県,田原市,田原町中小路４番地１,,23,231,4413421,,,,,,,2022-06-08,1,,,,,ムスビ,0
2577,9200001040140,新規,0,2022-06-08,2022-06-08,株式会社バース,,株式会社,岐阜県,岐阜市,清本町８丁目７１番地ベルカーサ１０２号,,21,201,5008351,,,,,,,2022-06-08,1,,,,,バース,0
2581,9240001059895,新規,0,2022-06-08,2022-06-08,株式会社グランベル,,株式会社,広島県,広島市佐伯区,美鈴が丘東３丁目８番２４号,,34,108,7315111,,,,,,,2022-06-08,1,,,,,グランベル,0
2587,9240005015408,新規,0,2022-06-08,2022-06-08,一般社団法人ライフステージ,,その他の設立登記法人,広島県,広島市安佐北区,安佐町大字久地１１８５番地１６,,34,106,7313362,,,,,,,2022-06-08,1,,,,,ライフステージ,0
2595,9270003001407,新規,0,2022-06-08,2022-06-08,合同会社Ｓｋｙ,,合同会社,鳥取県,米子市,東福原４丁目２１番５号,,31,202,6830802,,,,,,,2022-06-08,1,,,,,スカイ,0
2599,9290001097841,新規,0,2022-06-08,2022-06-08,株式会社Ｈ,,株式会社,福岡県,福岡市博多区,中洲１丁目２番地１２号,,40,132,8100801,,,,,,,2022-06-08,1,,,,,エイチ,0
2600,9290003012600,新規,0,2022-06-08,2022-06-08,合同会社ＦＵＣＨＩ,,合同会社,福岡県,飯塚市,潤野８０６番地９,,40,205,8200021,,,,,,,2022-06-08,1,,,,,フチ,0
2604,9290801028608,新規,0,2022-06-08,2022-06-08,マスターズ株式会社,,株式会社,福岡県,宮若市,沼口６５８番地３,,40,226,8220152,,,,,,,2022-06-08,1,,,,,マスターズ,0
2605,9290801028616,新規,0,2022-06-08,2022-06-08,株式会社ＧＡＴＥｅｎｇ．,,株式会社,福岡県,築上郡吉富町,大字土屋５０７番地１,,40,642,8710834,,,,,,,2022-06-08,1,,,,,,0
2611,9330003009393,新規,0,2022-06-08,2022-06-08,合同会社イバチヨ,,合同会社,熊本県,熊本市中央区,花畑町１番１４号Ａ＆Ｍ・ＨＡＮＡＢＡＴＡ３０１号,,43,101,8600806,,,,,,,2022-06-08,1,,,,,イバチヨ,0
2615,9360003012064,新規,0,2022-06-08,2022-06-08,合同会社フォース,,合同会社,沖縄県,那覇市,上之屋１丁目１９－２４ワイズエステムコート１４０５号,,47,201,9000011,,,,,,,2022-06-08,1,,,,,フォース,0
2622,9390001016923,新規,0,2022-06-08,2022-06-08,株式会社花電,,株式会社,山形県,上山市,長清水３丁目１番２７号,,06,207,9993232,,,,,,,2022-06-08,1,,,,,ハナデン,0
2629,9430001086788,新規,0,2022-06-08,2022-06-08,株式会社やきとりザンギナンバーワン,,株式会社,北海道,札幌市西区,琴似三条７丁目４番１０－７０４号,,01,107,0630813,,,,,,,2022-06-08,1,,,,,ヤキトリザンギナンバーワン,0
2630,9430001086796,新規,0,2022-06-08,2022-06-08,ＫＪプランニング株式会社,,株式会社,北海道,札幌市中央区,北二条西２６丁目２番１８号２６ＷＥＳＴ４階Ｃ号室,,01,101,0640822,,,,,,,2022-06-08,1,,,,,ケージェイプランニング,0
2631,9430001086805,新規,0,2022-06-08,2022-06-08,株式会社クライムピーク,,株式会社,北海道,札幌市中央区,南十三条西１４丁目３番３０－３０１号,,01,101,0640913,,,,,,,2022-06-08,1,,,,,クライムピーク,0
2636,9490001010197,新規,0,2022-06-08,2022-06-08,株式会社小林塗装,,株式会社,高知県,四万十市,渡川３丁目１３番１号,,39,210,7870050,,,,,,,2022-06-08,1,,,,,コバヤシトソウ,0
2637,9700150106889,新規,0,2022-06-08,2022-02-01,ＪａＭ－Ａｒｔｉｓｔ　ｉｎ　Ｈｏｍｅｓｔａｙ－,,その他,東京都,世田谷区,船橋２丁目２１－５,,13,112,1560055,,,,,,,2022-02-01,1,,,,,ジヤムアーテイストインホームステイ,0
