sequenceNumber,corporateNumber,process,correct,updateDate,changeDate,name,nameImageId,kind,prefectureName,cityName,streetNumber,addressImageId,prefectureCode,cityCode,postCode,addressOutside,addressOutsideImageId,closeDate,closeCause,successorCorporateNumber,changeCause,assignmentDate,latest,enName,enPrefectureName,enCityName,enAddressOutside,furigana,hihyoji
14,1010005010380,登記記録の閉鎖等,0,2024-10-03,2024-09-26,特定非営利活動法人消費者ネットジャパン,,その他の設立登記法人,東京都,中央区,湊２丁目１５番１４－１２１２号,,13,102,1040043,,,2024-09-26,清算の結了等,,,2015-10-05,1,,,,,ショウヒシャネットジャパン,0
15,1010005012377,登記記録の閉鎖等,0,2024-10-03,2024-09-30,特定非営利活動法人個別労使紛争処理センター,,その他の設立登記法人,東京都,千代田区,神田駿河台１丁目７番１０号ＹＫ駿河台ビル５Ｆ,,13,101,1010062,,,2024-09-30,清算の結了等,,,2015-10-05,1,,,,,コベツロウシフンソウショリセンター,0
23,1010401158303,登記記録の閉鎖等,0,2024-10-03,2024-09-09,株式会社ｇ＆ｌｏｖｅｒｓ　ｐｒｏｄｕｃｔｓ,,株式会社,東京都,港区,東麻布２丁目３３－５第四松坂ビル,,13,103,1060044,,,2024-09-09,清算の結了等,,,2021-02-17,1,,,,,ジーアンドラバーズプロダクツ,0
74,1021001072918,登記記録の閉鎖等,0,2024-10-03,2024-10-02,茅ヶ崎ＤＭＯまちづくり株式会社,,株式会社,神奈川県,茅ヶ崎市,東海岸北１丁目６番３２号,,14,207,2530053,,,2024-10-02,清算の結了等,,,2021-05-20,1,,,,,チガサキディーエムオーマチヅクリ,0
100,1040002055211,登記記録の閉鎖等,0,2024-10-03,2024-09-26,正建興業有限会社,,有限会社,千葉県,成田市,橋賀台１丁目３８番地の１,,12,211,2860037,,,2024-09-26,清算の結了等,,,2015-10-05,1,,,,,,0
116,1080102017025,登記記録の閉鎖等,0,2024-10-03,2024-09-27,有限会社東静ポリマー,,有限会社,静岡県,富士宮市,三園平５０３番地,,22,207,4180004,,,2024-09-27,清算の結了等,,,2015-10-05,1,,,,,トウセイポリマー,0
133,1120001186668,登記記録の閉鎖等,0,2024-10-03,2024-09-30,サヤマリース株式会社,,株式会社,大阪府,大阪市住之江区,平林北２丁目９番８６号,,27,125,5590026,,,2024-09-30,清算の結了等,,,2015-10-05,1,,,,,サヤマリース,0
143,1120005024015,登記記録の閉鎖等,0,2024-10-03,2024-10-01,一般社団法人不動産あんしん相談センター,,その他の設立登記法人,大阪府,大阪市中央区,平野町１丁目７番１号堺筋高橋ビル５Ｆ,,27,128,5410046,,,2024-10-01,清算の結了等,,,2023-11-29,1,,,,,フドウサンアンシンソウダンセンター,0
152,1122002012919,登記記録の閉鎖等,0,2024-10-03,2024-09-30,技研工業有限会社,,有限会社,大阪府,八尾市,老原４丁目４番地の１４,,27,212,5810092,,,2024-09-30,清算の結了等,,,2015-10-05,1,,,,,ギケンコウギョウ,0
159,1130002003755,登記記録の閉鎖等,0,2024-10-03,2024-10-01,サカモト有限会社,,有限会社,京都府,京都市北区,大北山原谷乾町２２番地の１６,,26,101,6038487,,,2024-10-01,清算の結了等,,,2015-10-05,1,,,,,サカモト,0
164,1140001014331,登記記録の閉鎖等,0,2024-10-03,2024-09-30,株式会社三藤会,,株式会社,兵庫県,神戸市兵庫区,中之島１丁目１番１号神戸市中央卸売市場（神戸水産物小売協同組合内）,,28,105,6520844,,,2024-09-30,清算の結了等,,,2015-10-05,1,,,,,ミフジカイ,0
165,1140001089316,登記記録の閉鎖等,0,2024-10-03,2024-09-27,ウェルネスステージ株式会社,,株式会社,兵庫県,小野市,本町１丁目７０番地２２号,,28,218,6751374,,,2024-09-27,清算の結了等,,,2015-10-05,1,,,,,ウェルネスステージ,0
179,1180001020268,登記記録の閉鎖等,0,2024-10-03,2024-09-20,株式会社東和建材,,株式会社,愛知県,名古屋市中川区,山王４丁目４番１７号,,23,110,4540011,,,2024-09-20,清算の結了等,,,2015-10-05,1,,,,,トウワケンザイ,0
204,1200002022962,登記記録の閉鎖等,0,2024-10-03,2024-10-01,有限会社ネクスト,,有限会社,岐阜県,多治見市,希望ケ丘１丁目１７２番地,,21,204,5070008,,,2024-10-01,清算の結了等,,,2015-10-05,1,,,,,ネクスト,0
216,1260001006630,登記記録の閉鎖等,0,2024-10-03,2024-10-01,メレックシステム株式会社,,株式会社,岡山県,岡山市北区,島田本町１丁目２番２５号,,33,101,7000033,,,2024-10-01,合併による解散等,3260001006629,令和６年１０月１日岡山市北区島田本町一丁目２番２５号株式会社メレック（3260001006629）に合併し解散,2015-10-05,1,,,,,メレックシステム,0
221,1260002004864,登記記録の閉鎖等,0,2024-10-03,2024-09-27,シスター電子工業有限会社,,有限会社,岡山県,岡山市北区,大井２２７２番地,,33,101,7011462,,,2024-09-27,清算の結了等,,,2015-10-05,1,,,,,シスターデンシコウギョウ,0
228,1290002040659,登記記録の閉鎖等,0,2024-10-03,2024-08-26,九州軽金属工業有限会社,,有限会社,福岡県,大野城市,仲畑１丁目８番１１号,,40,219,8160921,,,2024-08-26,清算の結了等,,,2015-10-05,1,,,,,キュウシュウケイキンゾクコウギョウ,0
249,1370402001896,登記記録の閉鎖等,0,2024-10-03,2024-09-18,有限会社仙北ビーフ,,有限会社,宮城県,登米市,米山町字桜岡峯前子１７３番地１７,,04,212,9870311,,,2024-09-18,清算の結了等,,,2015-10-05,1,,,,,センポクビーフ,0
251,1370602003263,登記記録の閉鎖等,0,2024-10-03,2024-09-18,有限会社カズコーポレーション,,有限会社,宮城県,多賀城市,丸山１丁目１４番２号,,04,209,9850834,,,2024-09-18,清算の結了等,,,2015-10-05,1,,,,,カズコーポレーション,0
256,1390002011377,登記記録の閉鎖等,0,2024-10-03,2024-09-24,有限会社松田製材,,有限会社,山形県,最上郡最上町,大字月楯１１８番地,,06,362,9996215,,,2024-09-24,清算の結了等,,,2015-10-05,1,,,,,マツダセイザイ,0
269,1450002010653,登記記録の閉鎖等,0,2024-10-03,2024-09-26,有限会社呉服のワタイ,,有限会社,北海道,枝幸郡浜頓別町,大通１丁目１４番地,,01,512,0985725,,,2024-09-26,清算の結了等,,,2015-10-05,1,,,,,ゴフクノワタイ,0
272,1490005000103,登記記録の閉鎖等,0,2024-10-03,2024-09-26,四鉄高知特約店協同組合,,その他の設立登記法人,高知県,高知市,若草南町５番２０号,,39,201,7808082,,,2024-09-26,清算の結了等,,,2015-10-05,1,,,,,シテツコウチトクヤクテン,0
273,1500001013239,登記記録の閉鎖等,0,2024-10-03,2024-09-30,株式会社近松鈑金塗装,,株式会社,愛媛県,今治市,別名５７６番地,,38,202,7940065,,,2024-09-30,清算の結了等,,,2015-10-05,1,,,,,チカマツバンキントソウ,0
277,1500002006522,登記記録の閉鎖等,0,2024-10-03,2024-09-30,有限会社ミート伊藤,,有限会社,愛媛県,伊予市,八倉１１３番地１,,38,210,7993101,,,2024-09-30,清算の結了等,,,2015-10-05,1,,,,,,0
294,2010401003895,登記記録の閉鎖等,0,2024-10-03,2024-10-01,株式会社エー・アール・シー,,株式会社,東京都,中野区,松が丘１丁目２５番５号,,13,114,1650024,,,2024-10-01,合併による解散等,4010401016549,令和６年９月１日東京都中野区松が丘一丁目２５番５号株式会社タウンズマン・コーディネイション（4010401016549）に合併し解散,2015-10-05,1,,,,,エーアールシー,0
303,2010403012589,登記記録の閉鎖等,0,2024-10-03,2024-09-06,Ｆｌｏｒｅｎｔｉａ　ＩＢＬＰ合同会社,,合同会社,東京都,港区,赤坂２丁目１０番５号税理士法人赤坂国際会計事務所内,,13,103,1070052,,,2024-09-06,清算の結了等,,,2015-10-05,1,,,,,,0
313,2010901030209,登記記録の閉鎖等,0,2024-10-03,2024-09-30,株式会社オフィスモリイズミ,,株式会社,東京都,世田谷区,等々力６丁目２９番１６－２０４号,,13,112,1580082,,,2024-09-30,清算の結了等,,,2015-10-05,1,,,,,オフィスモリイズミ,0
318,2011001119000,登記記録の閉鎖等,0,2024-10-03,2024-09-05,株式会社ラブール,,株式会社,東京都,港区,六本木７丁目１４番１号東李閣ビル７階,,13,103,1060032,,,2024-09-05,清算の結了等,,,2017-10-27,1,,,,,ラブール,0
369,2040001038232,登記記録の閉鎖等,0,2024-10-03,2024-09-27,テクノ精工株式会社,,株式会社,千葉県,流山市,駒木台４９５番地の５,,12,220,2700113,,,2024-09-27,清算の結了等,,,2015-10-05,1,,,,,テクノセイコウ,0
381,2040002006238,登記記録の閉鎖等,0,2024-10-03,2024-09-27,有限会社清宮興業,,有限会社,千葉県,千葉市稲毛区,山王町２９５番地１８,,12,103,2630002,,,2024-09-27,清算の結了等,,,2015-10-05,1,,,,,セイミヤコウギョウ,0
382,2040002050104,登記記録の閉鎖等,0,2024-10-03,2024-09-25,有限会社ジーシープラザ,,有限会社,千葉県,松戸市,緑ケ丘１丁目９３番地の２,,12,207,2710074,,,2024-09-25,清算の結了等,,,2015-10-05,1,,,,,ジーシープラザ,0
393,2070002030482,登記記録の閉鎖等,0,2024-10-03,2024-09-30,有限会社ハギモト,,有限会社,群馬県,邑楽郡大泉町,大字寄木戸１３７３番地,,10,524,3700535,,,2024-09-30,清算の結了等,,,2015-10-05,1,,,,,ハギモト,0
402,2080402014638,登記記録の閉鎖等,0,2024-10-03,2024-09-26,有限会社旭工業所,,有限会社,静岡県,浜松市浜名区,沼６５番地,,22,139,4340037,,,2024-09-26,清算の結了等,,,2015-10-05,1,,,,,アサヒコウギョウショ,0
410,2100002028795,登記記録の閉鎖等,0,2024-10-03,2024-09-25,有限会社廣鋼材,,有限会社,長野県,岡谷市,長地出早１丁目９番１５号,,20,204,3940089,,,2024-09-25,清算の結了等,,,2015-10-05,1,,,,,ヒロコウザイ,0
424,2120003023323,登記記録の閉鎖等,0,2024-10-03,2024-09-26,合同会社池田,,合同会社,大阪府,大阪市港区,南市岡１丁目４番４０号,,27,107,5520011,,,2024-09-26,清算の結了等,,,2023-01-25,1,,,,,イケダ,0
457,2180001097487,登記記録の閉鎖等,0,2024-10-03,2024-09-20,株式会社プアメリア,,株式会社,愛知県,愛西市,渕高町蔭島１５番地１,,23,232,4968018,,,2024-09-20,清算の結了等,,,2015-10-05,1,,,,,プアメリア,0
461,2180001147036,登記記録の閉鎖等,0,2024-10-03,2024-09-20,株式会社ＳＡＮＤＢＯＸ　ＷＯＭＡＮ,,株式会社,愛知県,名古屋市中区,栄１丁目１８番１号,,23,106,4600008,,,2024-09-20,清算の結了等,,,2021-07-21,1,,,,,サンドボックスウーマン,0
468,2180301007567,登記記録の閉鎖等,0,2024-10-03,2024-09-26,吉見建設工業株式会社,,株式会社,愛知県,豊橋市,中柴町１１０番地,,23,201,4400885,,,2024-09-26,清算の結了等,,,2015-10-05,1,,,,,ヨシミケンセツコウギョウ,0
475,2180305004536,登記記録の閉鎖等,0,2024-10-03,2024-09-27,安城資源回収協同組合,,その他の設立登記法人,愛知県,安城市,住吉町３丁目１２番１号新英金属株式会社内,,23,212,4460072,,,2024-09-27,清算の結了等,,,2015-10-05,1,,,,,アンジョウシゲンカイシュウ,0
487,2230001000395,登記記録の閉鎖等,0,2024-10-03,2024-09-24,株式会社エス・ピー,,株式会社,富山県,富山市,下赤江町１丁目４番５号,,16,201,9300813,,,2024-09-24,清算の結了等,,,2015-10-05,1,,,,,エスピー,0
489,2240001027140,登記記録の閉鎖等,0,2024-10-03,2024-09-27,株式会社片平組,,株式会社,広島県,呉市,豊町沖友１２９２番地,,34,202,7340303,,,2024-09-27,清算の結了等,,,2015-10-05,1,,,,,カタヒラグミ,0
491,2240002035506,登記記録の閉鎖等,0,2024-10-03,2024-09-27,有限会社藤岡産業,,有限会社,広島県,呉市,川尻町東１丁目５番１１号,,34,202,7372607,,,2024-09-27,清算の結了等,,,2015-10-05,1,,,,,フジオカサンギョウ,0
494,2260001024094,登記記録の閉鎖等,0,2024-10-03,2024-10-01,株式会社メトロ浪花,,株式会社,大阪府,大阪市浪速区,大国３丁目１３番２０号,,27,111,5560014,,,2024-10-01,合併による解散等,1260002015795,令和６年１０月１日大阪市浪速区大国三丁目１番２６号株式会社メトロ今宮（1260002015795）に合併し解散,2015-10-05,1,,,,,メトロナニワ,0
499,2290001034231,登記記録の閉鎖等,0,2024-10-03,2024-09-30,株式会社ネットワークテクノス,,株式会社,福岡県,福岡市早良区,百道浜２丁目４番２７号,,40,137,8140001,,,2024-09-30,合併による解散等,1011001098377,令和６年９月１日東京都目黒区目黒一丁目２４番１２号ＡＬＨ株式会社（1011001098377）に合併し解散,2015-10-05,1,,,,,,0
518,2370002005719,登記記録の閉鎖等,0,2024-10-03,2024-09-17,有限会社永沢商会,,有限会社,宮城県,仙台市若林区,白萩町４番１３号,,04,103,9840048,,,2024-09-17,清算の結了等,,,2015-10-05,1,,,,,ナガサワショウカイ,0
522,2370202005213,登記記録の閉鎖等,0,2024-10-03,2024-09-19,有限会社ヤマジ,,有限会社,宮城県,栗原市,築館字留場中川原１６０番地１,,04,213,9872272,,,2024-09-19,清算の結了等,,,2015-10-05,1,,,,,ヤマジ,0
524,2370602001448,登記記録の閉鎖等,0,2024-10-03,2024-09-20,有限会社錦電設,,有限会社,宮城県,宮城郡利府町,中央３丁目１４番地２,,04,406,9810104,,,2024-09-20,清算の結了等,,,2015-10-05,1,,,,,ニシキデンセツ,0
527,2380002016574,登記記録の閉鎖等,0,2024-10-03,2024-09-20,有限会社松山商店,,有限会社,福島県,二本松市,松岡１４２番地,,07,210,9640905,,,2024-09-20,清算の結了等,,,2015-10-05,1,,,,,,0
529,2380002020378,登記記録の閉鎖等,0,2024-10-03,2024-09-20,有限会社ワタシュウ,,有限会社,福島県,須賀川市,吉美根字二枚橋１０２番地,,07,207,9620059,,,2024-09-20,清算の結了等,,,2015-10-05,1,,,,,ワタシュウ,0
575,3010402023272,登記記録の閉鎖等,0,2024-10-03,2024-09-06,有限会社茂田オフィス,,有限会社,東京都,港区,赤坂９丁目５番２９－１０５号,,13,103,1070052,,,2024-09-06,清算の結了等,,,2015-10-05,1,,,,,シゲタオフィス,0
576,3010403012588,登記記録の閉鎖等,0,2024-10-03,2024-09-06,Ｂｉｒｅｎｚ合同会社,,合同会社,東京都,港区,赤坂２丁目１０番５号税理士法人赤坂国際会計事務所内,,13,103,1070052,,,2024-09-06,清算の結了等,,,2015-10-05,1,,,,,ビレンズ,0
607,3011505000943,登記記録の閉鎖等,0,2024-10-03,2024-10-02,医療法人社団加藤産婦人科医院,,その他の設立登記法人,東京都,荒川区,町屋２丁目９番２１号１階,,13,118,1160001,,,2024-10-02,清算の結了等,,,2015-10-05,1,,,,,カトウサンフジンカイイン,0
608,3011601016364,登記記録の閉鎖等,0,2024-10-03,2024-09-26,株式会社音波堂環境デザイン研究所,,株式会社,東京都,練馬区,春日町１丁目４番１０号,,13,120,1790074,,,2024-09-26,清算の結了等,,,2015-10-05,1,,,,,オンパドウカンキョウデザインケンキュウジョ,0
613,3011702007436,登記記録の閉鎖等,0,2024-10-03,2024-09-20,有限会社田丸製作所,,有限会社,東京都,江戸川区,南小岩６丁目２番１７号,,13,123,1330056,,,2024-09-20,清算の結了等,,,2015-10-05,1,,,,,タマルセイサクショ,0
634,3020003017912,登記記録の閉鎖等,0,2024-10-03,2024-09-12,合同会社Ａｘｉｚｅｉ,,合同会社,神奈川県,横浜市中区,常盤町３丁目２２番地３徳栄ビル３階,,14,104,2310014,,,2024-09-12,清算の結了等,,,2020-05-28,1,,,,,アクシージー,0
635,3021001001957,登記記録の閉鎖等,0,2024-10-03,2024-10-01,株式会社プラスト,,株式会社,神奈川県,藤沢市,鵠沼橘１丁目１番５号,,14,205,2510024,,,2024-10-01,清算の結了等,,,2015-10-05,1,,,,,プラスト,0
637,3021001014604,登記記録の閉鎖等,0,2024-10-03,2024-10-01,株式会社スリーオー,,株式会社,神奈川県,相模原市緑区,中野１９５８番地２２９,,14,151,2520157,,,2024-10-01,清算の結了等,,,2015-10-05,1,,,,,スリーオー,0
638,3021001035947,登記記録の閉鎖等,0,2024-10-03,2024-10-01,ＪＴＮ株式会社,,株式会社,神奈川県,茅ヶ崎市,本村３丁目１０番１６－１０２号メゾン茅ヶ崎,,14,207,2530042,,,2024-10-01,清算の結了等,,,2015-10-05,1,,,,,ジェイティエヌ,0
651,3030001049320,登記記録の閉鎖等,0,2024-10-03,2024-09-26,株式会社ラステック,,株式会社,埼玉県,和光市,白子３丁目２９番２９号,,11,229,3510101,,,2024-09-26,清算の結了等,,,2015-10-05,1,,,,,ラステック,0
687,3070002019426,登記記録の閉鎖等,0,2024-10-03,2024-09-30,有限会社豊城商事,,有限会社,群馬県,伊勢崎市,豊城町１４８２番地１２,,10,204,3720012,,,2024-09-30,清算の結了等,,,2015-10-05,1,,,,,トヨシロショウジ,0
689,3080105000216,登記記録の閉鎖等,0,2024-10-03,2024-09-30,沼津上本通り商店街振興組合,,その他の設立登記法人,静岡県,沼津市,大手町５丁目１１番３号,,22,203,4100801,,,2024-09-30,清算の結了等,,,2015-10-05,1,,,,,ヌマヅカミホンドオリ,0
693,3110001002023,登記記録の閉鎖等,0,2024-10-03,2024-09-26,株式会社寿屋,,株式会社,新潟県,新潟市中央区,船場町２丁目３４２４番地,,15,103,9518035,,,2024-09-26,清算の結了等,,,2015-10-05,1,,,,,コトブキヤ,0
694,3110001003376,登記記録の閉鎖等,0,2024-10-03,2024-09-26,出来島酒販株式会社,,株式会社,新潟県,新潟市中央区,網川原１丁目１４番２０号,,15,103,9500964,,,2024-09-26,清算の結了等,,,2015-10-05,1,,,,,デキジマシュハン,0
696,3120001032317,登記記録の閉鎖等,0,2024-10-03,2024-10-01,株式会社おくつ,,株式会社,大阪府,大阪市住吉区,長居東３丁目１４番２２－２０２号,,27,120,5580004,,,2024-10-01,清算の結了等,,,2015-10-05,1,,,,,オクツ,0
717,3122001036677,登記記録の閉鎖等,0,2024-10-03,2024-09-30,株式会社不動産のたかやま,,株式会社,大阪府,大東市,緑が丘１丁目３番８号,,27,218,5740073,,,2024-09-30,清算の結了等,,,2023-02-07,1,,,,,フドウサンノタカヤマ,0
725,3140001020006,登記記録の閉鎖等,0,2024-10-03,2024-09-27,株式会社ヴィアスピリット,,株式会社,兵庫県,芦屋市,楠町１６番１８－４０５号,,28,206,6590015,,,2024-09-27,合併による解散等,4010401066346,令和６年９月１日東京都港区南青山７－１－１４－８１５株式会社カリアッジジャパン（4010401066346）に合併し解散,2015-10-05,1,,,,,,0
752,3180002021313,登記記録の閉鎖等,0,2024-10-03,2024-09-20,有限会社河村屋,,有限会社,愛知県,名古屋市天白区,野並２丁目３１７番地,,23,116,4680045,,,2024-09-20,清算の結了等,,,2015-10-05,1,,,,,カワムラヤ,0
756,3180305005070,登記記録の閉鎖等,0,2024-10-03,2024-09-26,刈谷市桜町通り商店街振興組合,,その他の設立登記法人,愛知県,刈谷市,桜町２丁目２１番地,,23,210,4480028,,,2024-09-26,清算の結了等,,,2015-10-05,1,,,,,カリヤシサクラマチドオリ,0
766,3200001030444,登記記録の閉鎖等,0,2024-10-03,2024-10-01,株式会社ソンティアン,,株式会社,岐阜県,岐阜市,長良福光１５９２番地,,21,201,5020817,,,2024-10-01,清算の結了等,,,2015-10-05,1,,,,,ソンティアン,0
768,3200002023430,登記記録の閉鎖等,0,2024-10-03,2024-10-01,有限会社童夢,,有限会社,岐阜県,中津川市,太田町２丁目２番６号,,21,206,5080033,,,2024-10-01,清算の結了等,,,2015-10-05,1,,,,,ドウム,0
772,3230002012835,登記記録の閉鎖等,0,2024-10-03,2024-09-30,有限会社北浜商店,,有限会社,富山県,氷見市,栄町３４番２３号,,16,205,9350005,,,2024-09-30,清算の結了等,,,2015-10-05,1,,,,,キタハマショウテン,0
773,3230002013544,登記記録の閉鎖等,0,2024-10-03,2024-10-01,有限会社タカラ工業所,,有限会社,富山県,氷見市,三尾６０８番地,,16,205,9350261,,,2024-10-01,清算の結了等,,,2015-10-05,1,,,,,タカラコウギョウショ,0
792,3340002017410,登記記録の閉鎖等,0,2024-10-03,2024-09-30,有限会社第三船間島,,有限会社,鹿児島県,薩摩川内市,湯島町３３７３番地７,,46,215,8991923,,,2024-09-30,清算の結了等,,,2015-10-05,1,,,,,ダイサンフナマジマ,0
805,3380002011665,登記記録の閉鎖等,0,2024-10-03,2024-09-19,有限会社美幸写真館,,有限会社,福島県,郡山市,安積町日出山２丁目７６番地,,07,203,9630101,,,2024-09-19,清算の結了等,,,2015-10-05,1,,,,,ミユキシャシンカン,0
812,3460303000821,登記記録の閉鎖等,0,2024-10-03,2024-10-01,合同会社賛整,,合同会社,北海道,斜里郡斜里町,青葉町３番地３,,01,545,0994117,,,2024-10-01,清算の結了等,,,2024-04-19,1,,,,,サンセイ,0
824,4010001106519,登記記録の閉鎖等,0,2024-10-03,2024-09-18,ピー・エス・エイ株式会社,,株式会社,東京都,文京区,小石川５丁目２３番４号,,13,105,1120002,,,2024-09-18,清算の結了等,,,2015-10-05,1,,,,,ピーエスエイ,0
879,4012302003361,登記記録の閉鎖等,0,2024-10-03,2024-09-30,有限会社豊川工業,,有限会社,東京都,町田市,南町田３丁目９番４７号,,13,209,1940005,,,2024-09-30,清算の結了等,,,2015-10-05,1,,,,,トヨカワコウギョウ,0
894,4020002029701,登記記録の閉鎖等,0,2024-10-03,2024-09-17,有限会社工藤商会,,有限会社,神奈川県,横浜市南区,井土ケ谷上町３４番１号,,14,105,2320051,,,2024-09-17,清算の結了等,,,2015-10-05,1,,,,,クドウショウカイ,0
896,4021001040970,登記記録の閉鎖等,0,2024-10-03,2024-09-30,株式会社ビデオセンター横須賀,,株式会社,神奈川県,横須賀市,日の出町１丁目１６番１,,14,201,2380006,,,2024-09-30,清算の結了等,,,2015-10-05,1,,,,,ビデオセンターヨコスカ,0
901,4021005000120,登記記録の閉鎖等,0,2024-10-03,2024-10-01,本鵠沼商店街協同組合,00014135,その他の設立登記法人,神奈川県,藤沢市,鵠沼桜が岡４丁目１６番１１号,,14,205,2510027,,,2024-10-01,清算の結了等,,,2015-10-05,1,,,,,ホンクゲヌマショウテンガイ,0
907,4030002063352,登記記録の閉鎖等,0,2024-10-03,2024-09-26,有限会社拓,,有限会社,埼玉県,富士見市,鶴瀬東２丁目２７番３１号,,11,235,3540024,,,2024-09-26,清算の結了等,,,2015-10-05,1,,,,,タク,0
924,4050005011843,登記記録の閉鎖等,0,2024-10-03,2024-09-17,一般社団法人ＯＨＡＮＡ,,その他の設立登記法人,茨城県,神栖市,平泉東１丁目６４－６０,,08,232,3140145,,,2024-09-17,清算の結了等,,,2016-03-23,1,,,,,オハナ,0
928,4070001040729,登記記録の閉鎖等,0,2024-10-03,2024-10-01,株式会社木榑記念総業,00131436,株式会社,群馬県,前橋市,上新田町１１９２番地７,,10,201,3710821,,,2024-10-01,清算の結了等,,,2023-08-08,1,,,,,コグレキネンソウギョウ,0
933,4080001000624,登記記録の閉鎖等,0,2024-10-03,2024-09-24,株式会社イズコウエコー産業,,株式会社,静岡県,静岡市駿河区,用宗１丁目２６番１０号,,22,102,4210122,,,2024-09-24,清算の結了等,,,2015-10-05,1,,,,,イズコウエコーサンギョウ,0
942,4100002019446,登記記録の閉鎖等,0,2024-10-03,2024-09-24,有限会社オークグリーンシステム,,有限会社,長野県,松本市,城東１丁目６番１２号,,20,202,3900807,,,2024-09-24,清算の結了等,,,2015-10-05,1,,,,,オークグリーンシステム,0
943,4100002028942,登記記録の閉鎖等,0,2024-10-03,2024-09-25,有限会社丸中木型製作所,,有限会社,長野県,諏訪郡下諏訪町,１８番地１,,20,361,3930000,,,2024-09-25,清算の結了等,,,2015-10-05,1,,,,,マルナカキガタセイサクジョ,0
962,4120901001106,登記記録の閉鎖等,0,2024-10-03,2024-09-25,株式会社菅原建築,,株式会社,大阪府,茨木市,中穂積１丁目１番１０－１４１０号,,27,211,5670034,,,2024-09-25,清算の結了等,,,2015-10-05,1,,,,,スガワラケンチク,0
972,4130001049895,登記記録の閉鎖等,0,2024-10-03,2024-10-01,株式会社上田写真加工舎,,株式会社,京都府,京都市北区,紫竹高縄町８番地５,,26,101,6038204,,,2024-10-01,清算の結了等,,,2015-10-05,1,,,,,ウエダシャシンカコウシャ,0
978,4140001003455,登記記録の閉鎖等,0,2024-10-03,2024-09-30,株式会社栞プロジェクト,,株式会社,兵庫県,神戸市中央区,磯上通８丁目１番２３号３Ｆ,,28,110,6510086,,,2024-09-30,清算の結了等,,,2015-10-05,1,,,,,シオリプロジェクト,0
979,4140001042346,登記記録の閉鎖等,0,2024-10-03,2024-09-30,株式会社デザイニングパワー,,株式会社,兵庫県,神戸市中央区,新港町１７番４号住ビルイースト３０２号,,28,110,6500041,,,2024-09-30,清算の結了等,,,2015-10-05,1,,,,,,0
995,4180001128389,登記記録の閉鎖等,0,2024-10-03,2024-09-20,株式会社シンスマイル,,株式会社,愛知県,名古屋市中川区,中郷３丁目１３１番地,,23,110,4540921,,,2024-09-20,清算の結了等,,,2017-06-23,1,,,,,シンスマイル,0
998,4180001151341,登記記録の閉鎖等,0,2024-10-03,2024-09-18,株式会社東海コーポレーション,,株式会社,愛知県,東海市,名和町２丁目２９番地,,23,222,4760002,,,2024-09-18,清算の結了等,,,2022-05-18,1,,,,,トウカイコーポレーション,0
1010,4180302026647,登記記録の閉鎖等,0,2024-10-03,2024-09-26,有限会社中村精密,,有限会社,愛知県,西尾市,上町御向８番地,,23,213,4450894,,,2024-09-26,清算の結了等,,,2015-10-05,1,,,,,ナカムラセイミツ,0
1027,4210002003190,登記記録の閉鎖等,0,2024-10-03,2024-09-27,有限会社福井棋院,,有限会社,福井県,福井市,日之出３丁目１５番２０号,,18,201,9100859,,,2024-09-27,清算の結了等,,,2015-10-05,1,,,,,フクイキイン,0
1028,4210002004866,登記記録の閉鎖等,0,2024-10-03,2024-09-30,有限会社朝日新聞サービスアンカー福井東,,有限会社,福井県,福井市,南四ツ居２丁目３番４号,,18,201,9188204,,,2024-09-30,清算の結了等,,,2015-10-05,1,,,,,アサヒシンブンサービスアンカーフクイヒガシ,0
1036,4250005002640,登記記録の閉鎖等,0,2024-10-03,2024-09-26,企業組合ファーイーストネットワーク,,その他の設立登記法人,山口県,宇部市,大字東岐波１１９２－３,,35,202,7550241,,,2024-09-26,清算の結了等,,,2015-10-05,1,,,,,ファーイーストネットワーク,0
1047,4300002001862,登記記録の閉鎖等,0,2024-10-03,2024-09-26,有限会社吉岡薬局,,有限会社,佐賀県,佐賀市,川副町大字早津江２６９番地４,,41,201,8402203,,,2024-09-26,合併による解散等,6030001066965,令和６年９月１日埼玉県北葛飾郡松伏町築比地７９５番地１株式会社ウィーズ（6030001066965）に合併し解散,2015-10-05,1,,,,,ヨシオカヤッキョク,0
1049,4320002018194,登記記録の閉鎖等,0,2024-10-03,2024-09-30,有限会社赤嶺綜合建設,,有限会社,大分県,豊後大野市,三重町菅生１番地２５５,,44,212,8797102,,,2024-09-30,合併による解散等,2320001009667,令和６年９月３０日大分県豊後大野市大野町藤北１２６９番地株式会社三宮組（2320001009667）に合併し解散,2015-10-05,1,,,,,アカミネソウゴウケンセツ,0
1057,4340002004192,登記記録の閉鎖等,0,2024-10-03,2024-10-01,有限会社榊コンタクトレンズセンター,,有限会社,鹿児島県,鹿児島市,東千石町１９番２３号,,46,201,8920842,,,2024-10-01,清算の結了等,,,2015-10-05,1,,,,,サカキコンタクトレンズセンター,0
1059,4350002009273,登記記録の閉鎖等,0,2024-10-03,2024-09-27,有限会社金丸製材所,,有限会社,宮崎県,西都市,大字三宅２４６９番地３,,45,208,8810005,,,2024-09-27,清算の結了等,,,2015-10-05,1,,,,,カネマルセイザイショ,0
1089,4460301000483,登記記録の閉鎖等,0,2024-10-03,2024-10-02,株式会社シーエス,,株式会社,北海道,北見市,美山町西４丁目１０７番地１,,01,208,0900070,,,2024-10-02,清算の結了等,,,2015-10-05,1,,,,,シーエス,0
1090,4470002004568,登記記録の閉鎖等,0,2024-10-03,2024-09-30,有限会社田村興産,,有限会社,香川県,高松市,上天神町１３２番地９,,37,201,7618056,,,2024-09-30,清算の結了等,,,2015-10-05,1,,,,,タムラコウサン,0
1100,5010001020710,登記記録の閉鎖等,0,2024-10-03,2024-09-18,株式会社精糖工業会館,,株式会社,東京都,千代田区,有楽町１丁目９番３号,,13,101,1000006,,,2024-09-18,清算の結了等,,,2015-10-05,1,,,,,セイトウコウギョウカイカン,0
1101,5010001062323,登記記録の閉鎖等,0,2024-10-03,2024-10-01,ＮＳ建材薄板株式会社,,株式会社,東京都,中央区,日本橋２丁目７番１号,,13,102,1030027,,,2024-10-01,合併による解散等,3010001094558,令和６年１０月１日東京都中央区日本橋二丁目７番１号日鉄物産株式会社（3010001094558）に合併し解散,2015-10-05,1,,,,,エヌエスケンザイウスイタ,0
1114,5010002009950,登記記録の閉鎖等,0,2024-10-03,2024-09-19,有限会社晃大商事,,有限会社,東京都,千代田区,神田錦町２丁目５番地１,,13,101,1010054,,,2024-09-19,清算の結了等,,,2015-10-05,1,,,,,コウダイショウジ,0
1125,5010403010747,登記記録の閉鎖等,0,2024-10-03,2024-10-01,アイザック国際知財コンサルタント合同会社,,合同会社,東京都,港区,虎ノ門１丁目１６番９号双葉ビル,,13,103,1050001,,,2024-10-01,合併による解散等,5021001074010,令和６年９月１日神奈川県鎌倉市稲村ガ崎二丁目１０番２１号株式会社エジソンラボ（5021001074010）に合併し解散,2015-10-05,1,,,,,,0
1134,5010901016510,登記記録の閉鎖等,0,2024-10-03,2024-09-27,株式会社エル・ボックス,,株式会社,東京都,世田谷区,経堂３丁目２８番１９号,,13,112,1560052,,,2024-09-27,清算の結了等,,,2015-10-05,1,,,,,エルボックス,0
1163,5012401013079,登記記録の閉鎖等,0,2024-10-03,2024-10-01,株式会社三室製作所,,株式会社,東京都,三鷹市,上連雀２丁目１５番２号,,13,204,1810012,,,2024-10-01,清算の結了等,,,2015-10-05,1,,,,,ミムロセイサクショ,0
1191,5040002035176,登記記録の閉鎖等,0,2024-10-03,2024-09-17,有限会社田中建具店,,有限会社,千葉県,市川市,高石神３４番３号,,12,203,2720814,,,2024-09-17,清算の結了等,,,2015-10-05,1,,,,,タナカタテグテン,0
1219,5110002009123,登記記録の閉鎖等,0,2024-10-03,2024-09-25,有限会社栄メンテナンス,,有限会社,新潟県,新潟市東区,藤見町１丁目２２番１０号,,15,102,9500025,,,2024-09-25,清算の結了等,,,2015-10-05,1,,,,,サカエメンテナンス,0
1222,5120001023578,登記記録の閉鎖等,0,2024-10-03,2024-09-30,三和プラコン株式会社,,株式会社,大阪府,大阪市天王寺区,四天王寺２丁目２番７号,,27,109,5430051,,,2024-09-30,清算の結了等,,,2015-10-05,1,,,,,サンワプラコン,0
1259,5170001002354,登記記録の閉鎖等,0,2024-10-03,2024-10-02,中尾ミシン株式会社,,株式会社,和歌山県,和歌山市,紀三井寺１４６４番地３,,30,201,6410012,,,2024-10-02,清算の結了等,,,2015-10-05,1,,,,,ナカオミシン,0
1266,5180001141192,登記記録の閉鎖等,0,2024-10-03,2024-09-20,株式会社ＫＯＮＥＫＵ　ＴＲＡＤＩＮＧ,,株式会社,愛知県,名古屋市昭和区,鶴舞３丁目１７番８号,,23,107,4660064,,,2024-09-20,清算の結了等,,,2020-05-19,1,,,,,コネクトレーディング,0
1273,5180005020277,登記記録の閉鎖等,0,2024-10-03,2024-09-30,一般社団法人もっと身近な政治研究会,,その他の設立登記法人,愛知県,春日井市,角崎町７７番地ロイヤルシャトー勝川ＩＩ２０４号,00131040,23,206,4860943,,,2024-09-30,清算の結了等,,,2023-07-03,1,,,,,モットミジカナセイジケンキュウカイ,0
1278,5190003003423,登記記録の閉鎖等,0,2024-10-03,2024-09-30,合同会社グッドニュース新聞社,,合同会社,三重県,員弁郡東員町,大字長深３３９３番地,,24,324,5110255,,,2024-09-30,清算の結了等,,,2020-07-06,1,,,,,グッドニュースシンブンシャ,0
1287,5220003003353,登記記録の閉鎖等,0,2024-10-03,2024-09-26,合同会社石川ＩＣＴイノベーション,,合同会社,石川県,野々市市,末松３丁目５７０番,,17,212,9218836,,,2024-09-26,清算の結了等,,,2022-09-06,1,,,,,イシカワアイシーティーイノベーション,0
1293,5250003002996,登記記録の閉鎖等,0,2024-10-03,2024-09-27,合同会社ＰｅＡＡＡｃｅ,,合同会社,山口県,宇部市,大字上宇部２４９４－１２,,35,202,7550091,,,2024-09-27,清算の結了等,,,2022-02-03,1,,,,,,0
1306,5290805004872,登記記録の閉鎖等,0,2024-10-03,2024-09-11,正善寺,,その他の設立登記法人,福岡県,中間市,大字中間２３７３番地,,40,215,8090034,,,2024-09-11,清算の結了等,,,2015-10-05,1,,,,,セイゼンジ,0
1309,5310002008237,登記記録の閉鎖等,0,2024-10-03,2024-09-27,有限会社濱口木工製作所,00095962,有限会社,長崎県,西彼杵郡長与町,本川内郷６５２番地３,,42,307,8512122,,,2024-09-27,清算の結了等,,,2015-10-05,1,,,,,ハマグチモッコウセイサクショ,0
1316,5360002013694,登記記録の閉鎖等,0,2024-10-03,2024-10-01,有限会社ワイエスレストランチェンシステム,,有限会社,沖縄県,うるま市,字州崎８番地１２,,47,213,9042234,,,2024-10-01,合併による解散等,1360002013269,令和６年１０月１日沖縄県うるま市字州崎８番地の１２株式会社キャプテンズフード（1360002013269）に合併し解散,2015-10-05,1,,,,,ワイエスレストランチェンシステム,0
1321,5370001015187,登記記録の閉鎖等,0,2024-10-03,2024-09-17,株式会社鶴ケ谷メディカルサービス,,株式会社,宮城県,仙台市宮城野区,鶴ケ谷７丁目３１番地３,,04,102,9830824,,,2024-09-17,清算の結了等,,,2015-10-05,1,,,,,ツルガヤメディカルサービス,0
1322,5370001046307,登記記録の閉鎖等,0,2024-10-03,2024-09-18,青葉水道株式会社,,株式会社,宮城県,仙台市太白区,東中田２丁目３６番１２号,,04,104,9811107,,,2024-09-18,清算の結了等,,,2020-10-30,1,,,,,アオバスイドウ,0
1330,5400002008327,登記記録の閉鎖等,0,2024-10-03,2024-09-18,有限会社東北アーマライト,,有限会社,岩手県,花巻市,双葉町６番１号,,03,205,0250085,,,2024-09-18,清算の結了等,,,2015-10-05,1,,,,,トウホクアーマライト,0
1354,6010001207323,登記記録の閉鎖等,0,2024-10-03,2024-09-19,ＯｉＤＥ　ＯｐｔｏＥｙｅ株式会社,,株式会社,東京都,中央区,日本橋兜町１１番７号ビーエム兜町ビル２０１号室,,13,102,1030026,,,2024-09-19,清算の結了等,,,2020-02-06,1,,,,,オイデオプトアイ,0
1355,6010001243013,登記記録の閉鎖等,0,2024-10-03,2024-10-01,株式会社ＵＢＢＢ,,株式会社,東京都,千代田区,丸の内２丁目５番２号,,13,101,1000005,,,2024-10-01,合併による解散等,1010001230222,令和６年１０月１日東京都千代田区丸の内二丁目５番２号株式会社ユーザベース（1010001230222）に合併し解散,2024-03-15,1,,,,,ユービービービー,0
1362,6010003018660,登記記録の閉鎖等,0,2024-10-03,2024-09-13,原宿開発合同会社,,合同会社,東京都,中央区,銀座４丁目９番８号,,13,102,1040061,,,2024-09-13,清算の結了等,,,2015-10-05,1,,,,,ハラジュクカイハツ,0
1370,6010401090187,登記記録の閉鎖等,0,2024-10-03,2024-09-09,株式会社大谷事務所,,株式会社,東京都,港区,虎ノ門３丁目６番２号,,13,103,1050001,,,2024-09-09,清算の結了等,,,2015-10-05,1,,,,,オオタニジムショ,0
1372,6010401131478,登記記録の閉鎖等,0,2024-10-03,2024-09-18,ＢＧＩＳ株式会社,,株式会社,東京都,中央区,日本橋３丁目９番１号日本橋三丁目スクエア１１階,,13,102,1030027,,,2024-09-18,清算の結了等,,,2017-05-18,1,,,,,ビージーアイエス,0
1373,6010401145726,登記記録の閉鎖等,0,2024-10-03,2024-09-09,株式会社福エ門,,株式会社,東京都,港区,港南２丁目１５番１号品川インターシティＡ棟２８階,,13,103,1080075,,,2024-09-09,清算の結了等,,,2019-05-24,1,,,,,フクエモン,0
1425,6020001088903,登記記録の閉鎖等,0,2024-10-03,2024-09-17,株式会社イタガキ,,株式会社,神奈川県,川崎市幸区,小倉２丁目１３番１２号,,14,132,2120054,,,2024-09-17,清算の結了等,,,2015-10-05,1,,,,,イタガキ,0
1427,6020001115384,登記記録の閉鎖等,0,2024-10-03,2024-09-17,株式会社レジリエンス,,株式会社,神奈川県,横浜市旭区,中尾１丁目１５番３号,,14,112,2410815,,,2024-09-17,清算の結了等,,,2016-03-24,1,,,,,レジリエンス,0
1431,6021001035738,登記記録の閉鎖等,0,2024-10-03,2024-10-01,株式会社アクティブ,,株式会社,神奈川県,秦野市,上今川町８番３５号,,14,211,2570052,,,2024-10-01,清算の結了等,,,2015-10-05,1,,,,,アクティブ,0
1459,6060002017295,登記記録の閉鎖等,0,2024-10-03,2024-09-30,有限会社白川酒店,,有限会社,栃木県,真岡市,小林５９番地１０,,09,209,3214321,,,2024-09-30,清算の結了等,,,2015-10-05,1,,,,,シラカワサケテン,0
1472,6110001032579,登記記録の閉鎖等,0,2024-10-03,2024-09-25,株式会社みのり,,株式会社,新潟県,上越市,頸城区手島５２７番地,,15,222,9420207,,,2024-09-25,清算の結了等,,,2017-07-28,1,,,,,ミノリ,0
1476,6110002032149,登記記録の閉鎖等,0,2024-10-03,2024-09-26,有限会社金次郎,,有限会社,新潟県,小千谷市,城内４丁目１０番１５号,,15,208,9470028,,,2024-09-26,清算の結了等,,,2015-10-05,1,,,,,キンジロウ,0
1477,6120001102736,登記記録の閉鎖等,0,2024-10-03,2024-10-01,株式会社シティライフ関西,,株式会社,大阪府,大阪市北区,本庄東２丁目４番９号,,27,127,5310074,,,2024-10-01,清算の結了等,,,2015-10-05,1,,,,,シティライフカンサイ,0
1489,6120101023485,登記記録の閉鎖等,0,2024-10-03,2024-10-01,株式会社カナザワ自動車販売,,株式会社,大阪府,堺市中区,深井東町２７６７,,27,142,5998235,,,2024-10-01,清算の結了等,,,2015-10-05,1,,,,,カナザワジドウシャハンバイ,0
1510,6140001051254,登記記録の閉鎖等,0,2024-10-03,2024-09-30,株式会社牧商店,,株式会社,兵庫県,尼崎市,七松町３丁目４番１０号,,28,202,6600052,,,2024-09-30,清算の結了等,,,2015-10-05,1,,,,,マキショウテン,0
1511,6140001106702,登記記録の閉鎖等,0,2024-10-03,2024-09-30,Ａｇｕ株式会社,,株式会社,兵庫県,姫路市,紺屋町８７番地,,28,201,6700924,,,2024-09-30,清算の結了等,,,2017-06-28,1,,,,,アグウ,0
1514,6140002037797,登記記録の閉鎖等,0,2024-10-03,2024-09-30,有限会社播磨工業,,有限会社,兵庫県,加古郡稲美町,野寺下南岡１９３番地の９８,,28,381,6751104,,,2024-09-30,清算の結了等,,,2015-10-05,1,,,,,ハリマコウギョウ,0
1523,6180001072040,登記記録の閉鎖等,0,2024-10-03,2024-09-24,株式会社太陽,,株式会社,愛知県,名古屋市北区,大杉１丁目２１番３号,,23,103,4620837,,,2024-09-24,清算の結了等,,,2015-10-05,1,,,,,タイヨウ,0
1547,6200002020251,登記記録の閉鎖等,0,2024-10-03,2024-10-01,有限会社サンセラ工芸,,有限会社,岐阜県,多治見市,幸町５丁目１番地の７９,,21,204,5070077,,,2024-10-01,清算の結了等,,,2015-10-05,1,,,,,サンセラコウゲイ,0
1567,6290001058301,登記記録の閉鎖等,0,2024-10-03,2024-08-19,株式会社ＭＫテック,,株式会社,福岡県,福岡市東区,箱崎１丁目３８番１７－６０３号,,40,131,8120053,,,2024-08-19,清算の結了等,,,2015-10-05,1,,,,,エムケイテック,0
1573,6310005001857,登記記録の閉鎖等,0,2024-10-03,2024-09-26,ＮＰＯ法人コミュニティ時津,,その他の設立登記法人,長崎県,西彼杵郡時津町,久留里郷１０４８番地１１,,42,308,8512107,,,2024-09-26,清算の結了等,,,2015-10-05,1,,,,,コミュニティトギツ,0
1575,6330001018597,登記記録の閉鎖等,0,2024-10-03,2024-09-25,株式会社ＱＵＥＥＮ,,株式会社,熊本県,八代市,大村町８６８番地１,,43,202,8660895,,,2024-09-25,清算の結了等,,,2015-10-05,1,,,,,クイーン,0
1625,7010003014551,登記記録の閉鎖等,0,2024-10-03,2024-09-13,マンデュロ合同会社,,合同会社,東京都,中央区,銀座４丁目１２番２３号,,13,102,1040061,,,2024-09-13,清算の結了等,,,2015-10-05,1,,,,,マンデュロ,0
1647,7010801004761,登記記録の閉鎖等,0,2024-10-03,2024-09-27,山王物産株式会社,,株式会社,東京都,大田区,東馬込２丁目８番２号,,13,111,1430022,,,2024-09-27,清算の結了等,,,2015-10-05,1,,,,,サンノウブッサン,0
1659,7011101060652,登記記録の閉鎖等,0,2024-10-03,2024-09-25,株式会社ドリーミィー,,株式会社,東京都,台東区,浅草橋２丁目２１番１０号白石ビル,,13,106,1110053,,,2024-09-25,清算の結了等,,,2015-10-05,1,,,,,ドリーミィー,0
1667,7011701003250,登記記録の閉鎖等,0,2024-10-03,2024-09-19,三晃株式会社,,株式会社,東京都,江戸川区,平井６丁目３番１０号,,13,123,1320035,,,2024-09-19,清算の結了等,,,2015-10-05,1,,,,,サンコウ,0
1669,7011702000817,登記記録の閉鎖等,0,2024-10-03,2024-09-20,有限会社イクオン,,有限会社,東京都,江戸川区,東小岩４丁目２４番１４号,,13,123,1330052,,,2024-09-20,清算の結了等,,,2015-10-05,1,,,,,イクオン,0
1705,7021005002320,登記記録の閉鎖等,0,2024-10-03,2024-10-01,医療法人森と海,,その他の設立登記法人,神奈川県,鎌倉市,鎌倉山１丁目２３番１号,,14,204,2480031,,,2024-10-01,清算の結了等,,,2015-10-05,1,,,,,モリトウミ,0
1724,7040002050628,登記記録の閉鎖等,0,2024-10-03,2024-09-24,有限会社新稜光倶楽部,,有限会社,千葉県,松戸市,岩瀬９７番地の１藤和シティコープ松戸岩瀬４０７号,,12,207,2710076,,,2024-09-24,清算の結了等,,,2015-10-05,1,,,,,シンリョウコウクラブ,0
1731,7050001050181,登記記録の閉鎖等,0,2024-10-03,2024-09-23,ＴＳ　ｎａｔｕｒｉｎｇ　ｓｅｒｖｉｃｅ株式会社,,株式会社,茨城県,かすみがうら市,深谷２８０６番地４５,,08,230,3000134,,,2024-09-23,清算の結了等,,,2021-11-24,1,,,,,テイエスネイチャリングサービス,0
1737,7070002030973,登記記録の閉鎖等,0,2024-10-03,2024-10-01,有限会社間下会館,,有限会社,群馬県,邑楽郡邑楽町,大字赤堀２２７５番地の２,,10,525,3700614,,,2024-10-01,清算の結了等,,,2015-10-05,1,,,,,マシモカイカン,0
1742,7080103002037,登記記録の閉鎖等,0,2024-10-03,2024-09-30,合同会社Ｋ３,,合同会社,静岡県,三島市,文教町１丁目５番１５号,,22,206,4110033,,,2024-09-30,清算の結了等,,,2019-09-24,1,,,,,ケースリー,0
1750,7100001011698,登記記録の閉鎖等,0,2024-10-03,2024-09-26,Ｋ＆Ｑジャパン株式会社,,株式会社,長野県,上田市,常田３丁目１５番１号信州大学繊維学部内ＡＲＥＣ,,20,203,3860018,,,2024-09-26,清算の結了等,,,2015-10-05,1,,,,,ジャパン,0
1756,7120001021514,登記記録の閉鎖等,0,2024-10-03,2024-10-01,フタバグラビア株式会社,,株式会社,大阪府,大阪市平野区,加美北３丁目９番２１号,,27,126,5470001,,,2024-10-01,清算の結了等,,,2015-10-05,1,,,,,フタバグラビア,0
1760,7120001178817,登記記録の閉鎖等,0,2024-10-03,2024-09-27,株式会社リッツ・ライブラリエ,,株式会社,兵庫県,尼崎市,昭和通５丁目１８６番地の２クラウンハイム５０３,,28,202,6600881,,,2024-09-27,清算の結了等,,,2015-10-05,1,,,,,リッツライブラリエ,0
1800,7140002027608,登記記録の閉鎖等,0,2024-10-03,2024-09-30,株式会社エム・ティー・ネット,,株式会社,兵庫県,神戸市西区,神出町広谷６０１番地,,28,111,6512331,,,2024-09-30,清算の結了等,,,2015-10-05,1,,,,,エムティーネット,0
1803,7160001007880,登記記録の閉鎖等,0,2024-10-03,2024-09-30,株式会社セルツコミュニケーションズ,,株式会社,滋賀県,長浜市,末広町２番２６号,,25,203,5260063,,,2024-09-30,合併による解散等,1160001006748,令和６年９月３０日滋賀県長浜市末広町２番２６号株式会社セルツホールディングス（1160001006748）に合併し解散,2015-10-05,1,,,,,セルツコミュニケーションズ,0
1807,7170005002514,登記記録の閉鎖等,0,2024-10-03,2024-10-01,医療法人みおつくし会,,その他の設立登記法人,和歌山県,有田郡広川町,大字広３０８番地の３,,30,362,6430071,,,2024-10-01,清算の結了等,,,2015-10-05,1,,,,,ミオツクシカイ,0
1819,7180005017437,登記記録の閉鎖等,0,2024-10-03,2024-09-26,ＮＰＯ法人ビーン,,その他の設立登記法人,愛知県,名古屋市北区,大杉３丁目１４番８号,,23,103,4620837,,,2024-09-26,清算の結了等,,,2017-08-10,1,,,,,ビーン,0
1824,7200001005590,登記記録の閉鎖等,0,2024-10-03,2024-10-01,山勝青果株式会社,,株式会社,岐阜県,岐阜市,茜部新所２丁目５番地岐阜市中央卸売市場内,,21,201,5008263,,,2024-10-01,清算の結了等,,,2015-10-05,1,,,,,ヤマカツセイカ,0
1833,7220002005646,登記記録の閉鎖等,0,2024-10-03,2024-09-25,有限会社水野染工場,,有限会社,石川県,金沢市,専光寺町ニ１８０番地,,17,201,9200356,,,2024-09-25,清算の結了等,,,2015-10-05,1,,,,,ミズノセンコウジョウ,0
1834,7230001002957,登記記録の閉鎖等,0,2024-10-03,2024-10-01,株式会社北陸研材,,株式会社,富山県,富山市,相生町１番２１号,,16,201,9300075,,,2024-10-01,清算の結了等,,,2015-10-05,1,,,,,ホクリクケンザイ,0
1850,7290002045933,登記記録の閉鎖等,0,2024-10-03,2024-08-26,福菱石材有限会社,,有限会社,福岡県,飯塚市,伊岐須２１９番地の１０,,40,205,8200053,,,2024-08-26,清算の結了等,,,2015-10-05,1,,,,,フクリョウセキザイ,0
1855,7310001000226,登記記録の閉鎖等,0,2024-10-03,2024-10-02,株式会社エコシステム,,株式会社,長崎県,長崎市,旭町８番２０号,,42,201,8528003,,,2024-10-02,清算の結了等,,,2015-10-05,1,,,,,エコシステム,0
1862,7340005009467,登記記録の閉鎖等,0,2024-10-03,2024-09-17,霧島建設人材協同組合,,その他の設立登記法人,鹿児島県,霧島市,国分清水３丁目７番１１号,,46,218,8994304,,,2024-09-17,清算の結了等,,,2022-05-30,1,,,,,キリシマケンセツジンザイ,0
1884,7440001004890,登記記録の閉鎖等,0,2024-10-03,2024-10-02,株式会社ひのき,,株式会社,北海道,函館市,堀川町５番１６号,,01,202,0400025,,,2024-10-02,清算の結了等,,,2015-10-05,1,,,,,ヒノキ,0
1887,7460301002436,登記記録の閉鎖等,0,2024-10-03,2024-10-01,サロマ水産株式会社,,株式会社,北海道,紋別郡湧別町,港町３０番地１,,01,559,0996401,,,2024-10-01,清算の結了等,,,2015-10-05,1,,,,,サロマスイサン,0
1892,7500002002177,登記記録の閉鎖等,0,2024-10-03,2024-09-30,有限会社河本博信デザイン事務所,,有限会社,愛媛県,松山市,湯の山３丁目１番地１０,,38,201,7910121,,,2024-09-30,清算の結了等,,,2015-10-05,1,,,,,カワモトヒロノブデザインジムショ,0
1918,8010802012969,登記記録の閉鎖等,0,2024-10-03,2024-09-27,有限会社ベルフィーユ,,有限会社,東京都,大田区,南蒲田１丁目１６番１号,,13,111,1440035,,,2024-09-27,清算の結了等,,,2015-10-05,1,,,,,ベルフィーユ,0
1920,8010805001795,登記記録の閉鎖等,0,2024-10-03,2024-09-24,一般社団法人羽田仲七町会,,その他の設立登記法人,東京都,大田区,羽田５丁目２４番７号仲七会館,,13,111,1440043,,,2024-09-24,清算の結了等,,,2015-10-05,1,,,,,ハネダナカシチチョウカイ,0
1922,8011001030762,登記記録の閉鎖等,0,2024-10-03,2024-09-18,ヘルスファーム株式会社,,株式会社,東京都,中央区,銀座５丁目１０番２号,,13,102,1040061,,,2024-09-18,清算の結了等,,,2015-10-05,1,,,,,ヘルスファーム,0
1929,8011002031925,登記記録の閉鎖等,0,2024-10-03,2024-09-06,有限会社レニー・エンタテインメント,,有限会社,東京都,渋谷区,松濤２丁目２１番４号,,13,113,1500046,,,2024-09-06,清算の結了等,,,2015-10-05,1,,,,,,0
1931,8011101056014,登記記録の閉鎖等,0,2024-10-03,2024-10-01,株式会社アーバンプランニング,,株式会社,東京都,中野区,東中野４丁目１１番１４号,,13,114,1640003,,,2024-10-01,合併による解散等,8011101062185,令和６年１０月１日東京都中野区東中野四丁目１１番１４号株式会社オリーブ商会（8011101062185）に合併し解散,2015-10-05,1,,,,,アーバンプランニング,0
1935,8011103007709,登記記録の閉鎖等,0,2024-10-03,2024-09-19,合同会社エスプーマ,,合同会社,東京都,千代田区,大手町２丁目２番２号アーバンネット大手町ビル,,13,101,1000004,,,2024-09-19,清算の結了等,,,2018-02-28,1,,,,,エスプーマ,0
1948,8012302004595,登記記録の閉鎖等,0,2024-10-03,2024-09-30,有限会社桝屋米穀店,,有限会社,東京都,町田市,木曽東１丁目４７番７号,,13,209,1940036,,,2024-09-30,清算の結了等,,,2015-10-05,1,,,,,マスヤベイコクテン,0
1967,8021005010009,登記記録の閉鎖等,0,2024-10-03,2024-10-02,一般社団法人湘南子ども’ｓ・子そだてサポート,,その他の設立登記法人,神奈川県,茅ヶ崎市,東海岸北１丁目４番６２号ＮＴＴ東日本茅ヶ崎ビル,,14,207,2530053,,,2024-10-02,清算の結了等,,,2015-10-05,1,,,,,ショウナンコドモズコソダテサポート,0
1989,8060002028927,登記記録の閉鎖等,0,2024-10-03,2024-09-30,有限会社徳山商事,,有限会社,栃木県,小山市,大字横倉６９２番地,,09,208,3230813,,,2024-09-30,合併による解散等,1060002030055,令和６年９月３０日栃木県小山市駅東通り一丁目４６番２５号株式会社城東商事（1060002030055）に合併し解散,2015-10-05,1,,,,,トクヤマショウジ,0
2002,8080101007805,登記記録の閉鎖等,0,2024-10-03,2024-09-30,株式会社マルタカ,,株式会社,静岡県,御殿場市,東田中１４４６番地の１８,,22,215,4120026,,,2024-09-30,清算の結了等,,,2015-10-05,1,,,,,マルタカ,0
2004,8080105005870,登記記録の閉鎖等,0,2024-10-03,2024-09-30,一般社団法人石廊崎オーシャンパーク,,その他の設立登記法人,静岡県,賀茂郡南伊豆町,石廊崎５４６番地の５,,22,304,4150156,,,2024-09-30,清算の結了等,,,2018-07-17,1,,,,,イロウザキオーシャンパーク,0
2005,8080402015341,登記記録の閉鎖等,0,2024-10-03,2024-09-25,有限会社西川石装,,有限会社,静岡県,浜松市浜名区,横須賀１０７８番地の２,,22,139,4340036,,,2024-09-25,清算の結了等,,,2015-10-05,1,,,,,ニシカワセキソウ,0
2008,8100001021135,登記記録の閉鎖等,0,2024-10-03,2024-09-25,株式会社石川医科器械店,,株式会社,長野県,駒ヶ根市,赤穂１３８８番地３,,20,210,3994117,,,2024-09-25,清算の結了等,,,2015-10-05,1,,,,,イシカワイカキカイテン,0
2009,8100002006309,登記記録の閉鎖等,0,2024-10-03,2024-09-26,有限会社峯村商店,,有限会社,長野県,長野市,豊野町豊野１０８０番地,,20,201,3891105,,,2024-09-26,清算の結了等,,,2015-10-05,1,,,,,ミネムラショウテン,0
2018,8120001167034,登記記録の閉鎖等,0,2024-10-03,2024-09-30,株式会社レボルメ,,株式会社,大阪府,大阪市西区,南堀江１丁目１０番１１号,,27,106,5500015,,,2024-09-30,清算の結了等,,,2015-10-05,1,,,,,レボルメ,0
2020,8120001182074,登記記録の閉鎖等,0,2024-10-03,2024-10-01,株式会社メトロ都島,,株式会社,大阪府,大阪市都島区,高倉町３丁目１番３号,,27,102,5340011,,,2024-10-01,合併による解散等,1260002015795,令和６年１０月１日大阪市浪速区大国三丁目１番２６号株式会社メトロ今宮（1260002015795）に合併し解散,2015-10-05,1,,,,,メトロミヤコジマ,0
2051,8140001095051,登記記録の閉鎖等,0,2024-10-03,2024-09-30,株式会社政輝,,株式会社,兵庫県,神戸市垂水区,美山台１丁目１番４号,,28,108,6550874,,,2024-09-30,清算の結了等,,,2015-10-05,1,,,,,,0
2055,8140002014919,登記記録の閉鎖等,0,2024-10-03,2024-09-30,有限会社中央酒販,,有限会社,兵庫県,神戸市中央区,坂口通７丁目２番２３号,,28,110,6510062,,,2024-09-30,清算の結了等,,,2015-10-05,1,,,,,,0
2074,8180301025068,登記記録の閉鎖等,0,2024-10-03,2024-09-26,株式会社リレーションシップマネジメント,,株式会社,愛知県,岡崎市,稲熊町字１丁目６５番地１ＯＤＡビル２Ｆ０２,,23,202,4440071,,,2024-09-26,清算の結了等,,,2015-10-05,1,,,,,リレーションシップマネジメント,0
2096,8290801001004,登記記録の閉鎖等,0,2024-10-03,2024-09-30,協和石油株式会社,,株式会社,東京都,世田谷区,奥沢５丁目３１番７号,,13,112,1580083,,,2024-09-30,清算の結了等,,,2015-10-05,1,,,,,キョウワセキユ,0
2111,8350001015319,登記記録の閉鎖等,0,2024-10-03,2024-09-30,株式会社Ｍｉｌｋ　Ｌａｂ．,,株式会社,宮崎県,宮崎市,松橋２丁目４番３１号,,45,201,8800013,,,2024-09-30,清算の結了等,,,2018-06-08,1,,,,,ミルクラボ,0
2112,8350002001136,登記記録の閉鎖等,0,2024-10-03,2024-10-01,神中商事有限会社,,有限会社,宮崎県,宮崎市,月見ケ丘２丁目５番５号,,45,201,8800926,,,2024-10-01,清算の結了等,,,2015-10-05,1,,,,,カミナカショウジ,0
2114,8360002013270,登記記録の閉鎖等,0,2024-10-03,2024-10-01,有限会社キャプテンズグループ,,有限会社,沖縄県,うるま市,字州崎８番地の１２,,47,213,9042234,,,2024-10-01,合併による解散等,1360002013269,令和６年１０月１日沖縄県うるま市字州崎８番地の１２株式会社キャプテンズフード（1360002013269）に合併し解散,2015-10-05,1,,,,,キャプテンズグループ,0
2118,8380002001554,登記記録の閉鎖等,0,2024-10-03,2024-09-18,有限会社サンテック,,有限会社,福島県,福島市,飯坂町平野字林添１番地の１７,,07,201,9600231,,,2024-09-18,清算の結了等,,,2015-10-05,1,,,,,サンテック,0
2129,8400601000986,登記記録の閉鎖等,0,2024-10-03,2024-09-18,株式会社ワン・バイ・ワン,,株式会社,岩手県,奥州市,水沢大手町３丁目１２番地,,03,215,0230053,,,2024-09-18,清算の結了等,,,2015-10-05,1,,,,,ワンバイワン,0
2133,8430005001991,登記記録の閉鎖等,0,2024-10-03,2024-10-01,医療法人社団長谷川クリニック,,その他の設立登記法人,北海道,札幌市北区,北七条西２丁目２０番地ＮＣＯ札幌駅北口３Ｆ,,01,102,0600807,,,2024-10-01,清算の結了等,,,2015-10-05,1,,,,,ハセガワクリニック,0
2134,8450001006497,登記記録の閉鎖等,0,2024-10-03,2024-09-27,富良野小型運送株式会社,,株式会社,北海道,富良野市,花園町１番６号,,01,229,0760027,,,2024-09-27,清算の結了等,,,2015-10-05,1,,,,,フラノコガタウンソウ,0
2135,8450001012677,登記記録の閉鎖等,0,2024-10-03,2024-08-29,株式会社テクノサーブ,,株式会社,北海道,旭川市,永山九条８丁目４番２４号,,01,204,0798419,,,2024-08-29,清算の結了等,,,2019-03-18,1,,,,,テクノサーブ,0
2137,8460002002180,登記記録の閉鎖等,0,2024-10-03,2024-10-01,有限会社成澤表具店,,有限会社,北海道,釧路市,中園町１８番１２号,,01,206,0850052,,,2024-10-01,清算の結了等,,,2015-10-05,1,,,,,ナリサワヒョウグテン,0
2139,8470001019547,登記記録の閉鎖等,0,2024-10-03,2024-09-30,株式会社Ｌｏｄｉｃｃ,,株式会社,香川県,高松市,サンポート２－１高松シンボルタワータワー棟４・５階情報通信交流館内,,37,201,7600019,,,2024-09-30,清算の結了等,,,2023-04-07,1,,,,,ロディック,0
2165,9010405020633,登記記録の閉鎖等,0,2024-10-03,2024-09-09,霧島山一般社団法人,,その他の設立登記法人,東京都,港区,北青山１丁目２番３号,,13,103,1070061,,,2024-09-09,清算の結了等,,,2022-02-02,1,,,,,キリシマヤマ,0
2168,9010502018019,登記記録の閉鎖等,0,2024-10-03,2024-09-24,有限会社映像マジック,,有限会社,東京都,台東区,根岸５丁目７番１２－４０３号,,13,106,1100003,,,2024-09-24,清算の結了等,,,2015-10-05,1,,,,,エイゾウマジック,0
2175,9010702005444,登記記録の閉鎖等,0,2024-10-03,2024-09-27,有限会社テクノスリー,,有限会社,東京都,品川区,西大井１丁目１２番２号,,13,109,1400015,,,2024-09-27,清算の結了等,,,2015-10-05,1,,,,,テクノスリー,0
2199,9011402006617,登記記録の閉鎖等,0,2024-10-03,2024-09-27,有限会社中板レンタルサービス,,有限会社,千葉県,松戸市,小山５２３番地の８サングリーン松戸Ａ－２０２,,12,207,2710093,,,2024-09-27,清算の結了等,,,2015-10-05,1,,,,,ナカイタレンタルサービス,0
2200,9011402018835,登記記録の閉鎖等,0,2024-10-03,2024-09-26,有限会社アーリーオータム,,有限会社,東京都,板橋区,小豆沢２丁目１５番３－１１０１号,,13,119,1740051,,,2024-09-26,清算の結了等,,,2015-10-05,1,,,,,アーリーオータム,0
2202,9011601017646,登記記録の閉鎖等,0,2024-10-03,2024-09-27,三光株式会社,,株式会社,東京都,練馬区,貫井４丁目３４番２号,,13,120,1760021,,,2024-09-27,清算の結了等,,,2015-10-05,1,,,,,サンコウ,0
2221,9020002104937,登記記録の閉鎖等,0,2024-10-03,2024-09-17,有限会社リフォームプロ,,有限会社,神奈川県,川崎市多摩区,西生田４丁目３番２９号,,14,135,2140037,,,2024-09-17,清算の結了等,,,2015-10-05,1,,,,,リフォームプロ,0
2229,9030001032279,登記記録の閉鎖等,0,2024-10-03,2024-09-26,きまぐれスタジオ株式会社,,株式会社,埼玉県,さいたま市中央区,上落合８丁目５番１号,,11,105,3380001,,,2024-09-26,清算の結了等,,,2015-10-05,1,,,,,キマグレスタジオ,0
2245,9060002028406,登記記録の閉鎖等,0,2024-10-03,2024-09-30,有限会社サギシマ,,有限会社,栃木県,栃木市,旭町１８番１５号,,09,203,3280035,,,2024-09-30,清算の結了等,,,2015-10-05,1,,,,,サギシマ,0
2246,9060002035195,登記記録の閉鎖等,0,2024-10-03,2024-09-25,有限会社アーバン商事,,有限会社,栃木県,足利市,助戸新山町１６１７番地,,09,202,3260041,,,2024-09-25,清算の結了等,,,2015-10-05,1,,,,,アーバンショウジ,0
2254,9080102001847,登記記録の閉鎖等,0,2024-10-03,2024-09-30,有限会社杉山土木,,有限会社,静岡県,沼津市,岡宮１３３０番地の３８,,22,203,4100011,,,2024-09-30,清算の結了等,,,2015-10-05,1,,,,,スギヤマドボク,0
2257,9080405003573,登記記録の閉鎖等,0,2024-10-03,2024-09-25,一般社団法人浜北青年会議所,,その他の設立登記法人,静岡県,浜松市浜名区,貴布祢２８９番地の１０,,22,139,4340038,,,2024-09-25,清算の結了等,,,2015-10-05,1,,,,,ハマキタセイネンカイギショ,0
2258,9090002006045,登記記録の閉鎖等,0,2024-10-03,2024-09-27,有限会社エム・ティーコーポレーション,,有限会社,山梨県,甲斐市,西八幡２９７０番地１,,19,210,4000117,,,2024-09-27,清算の結了等,,,2015-10-05,1,,,,,,0
2269,9120001189069,登記記録の閉鎖等,0,2024-10-03,2024-09-30,株式会社ウェバー,,株式会社,大阪府,大阪市天王寺区,茶臼山町４－１,,27,109,5430063,,,2024-09-30,清算の結了等,,,2015-10-05,1,,,,,ウェバー,0
2280,9140001014679,登記記録の閉鎖等,0,2024-10-03,2024-09-27,株式会社日本サービスセンター,,株式会社,兵庫県,神戸市兵庫区,荒田町３丁目３０番８号,,28,105,6520032,,,2024-09-27,清算の結了等,,,2015-10-05,1,,,,,,0
2281,9140001017921,登記記録の閉鎖等,0,2024-10-03,2024-09-26,株式会社マイクロベース,,株式会社,兵庫県,神戸市須磨区,関守町３丁目３番１０号,,28,107,6540073,,,2024-09-26,清算の結了等,,,2015-10-05,1,,,,,マイクロベース,0
2290,9140003015188,登記記録の閉鎖等,0,2024-10-03,2024-10-01,合同会社ａｃｒｏｓｓ　ｂｒｉｄｇｅ,,合同会社,兵庫県,神戸市灘区,高尾通３丁目２番８号,,28,102,6570813,,,2024-10-01,清算の結了等,,,2020-07-29,1,,,,,アクロスブリッジ,0
2292,9150001005611,登記記録の閉鎖等,0,2024-10-03,2024-10-02,永和工業株式会社,,株式会社,奈良県,大和郡山市,池沢町４５番地の５,,29,203,6391032,,,2024-10-02,清算の結了等,,,2015-10-05,1,,,,,エイワコウギョウ,0
2310,9180002078661,登記記録の閉鎖等,0,2024-10-03,2024-09-20,東海物産有限会社,,有限会社,愛知県,一宮市,木曽川町黒田字下市場南１２９番地の２,,23,203,4930001,,,2024-09-20,清算の結了等,,,2015-10-05,1,,,,,トウカイブッサン,0
2320,9210005000115,登記記録の閉鎖等,0,2024-10-03,2024-10-01,福井酪農農業協同組合,,その他の設立登記法人,福井県,福井市,高柳２丁目１３０１番地レインボービル６階,,18,201,9100837,,,2024-10-01,清算の結了等,,,2015-10-05,1,,,,,フクイラクノウ,0
2337,9290002030743,登記記録の閉鎖等,0,2024-10-03,2024-08-26,有限会社ランドマーク,,有限会社,福岡県,福岡市東区,筥松４丁目３番１０号,,40,131,8120061,,,2024-08-26,清算の結了等,,,2015-10-05,1,,,,,,0
2350,9340002018048,登記記録の閉鎖等,0,2024-10-03,2024-09-27,有限会社福寿水産,,有限会社,鹿児島県,いちき串木野市,八房４４０９番地,,46,219,8960056,,,2024-09-27,清算の結了等,,,2015-10-05,1,,,,,フクジュスイサン,0
2363,9370002000861,登記記録の閉鎖等,0,2024-10-03,2024-09-26,有限会社サンライフコミュニティー,,有限会社,宮城県,仙台市泉区,泉中央１丁目６番地の３,,04,105,9813133,,,2024-09-26,合併による解散等,6030001066965,令和６年９月１日埼玉県北葛飾郡松伏町築比地７９５番地１株式会社ウィーズ（6030001066965）に合併し解散,2015-10-05,1,,,,,サンライフコミュニティー,0
2368,9370502000659,登記記録の閉鎖等,0,2024-10-03,2024-09-18,有限会社千葉工務店,,有限会社,宮城県,気仙沼市,松崎高谷２１５番地の２,,04,205,9880124,,,2024-09-18,清算の結了等,,,2015-10-05,1,,,,,チバコウムテン,0
2383,9460301002839,登記記録の閉鎖等,0,2024-10-03,2024-10-02,株式会社ほかく,,株式会社,北海道,北見市,並木町５２８番地１６,,01,208,0900012,,,2024-10-02,清算の結了等,,,2015-10-05,1,,,,,ホカク,0
2387,9470001013466,登記記録の閉鎖等,0,2024-10-03,2024-09-27,四国ヘルスサポート株式会社,,株式会社,香川県,高松市,伏石町２１４０番地１,,37,201,7618071,,,2024-09-27,清算の結了等,,,2015-10-05,1,,,,,シコクヘルスサポート,0
2394,9500002019525,登記記録の閉鎖等,0,2024-10-03,2024-09-30,有限会社ケイ・サプライ,,有限会社,愛媛県,今治市,大新田町５丁目３番２号,,38,202,7940005,,,2024-09-30,清算の結了等,,,2015-10-05,1,,,,,ケイサプライ,0
2396,9500005008211,登記記録の閉鎖等,0,2024-10-03,2024-09-27,特定非営利活動法人ハッピーハート,,その他の設立登記法人,愛媛県,松山市,古川北２丁目８番１１号,,38,201,7900942,,,2024-09-27,清算の結了等,,,2020-07-30,1,,,,,ハッピーハート,0
