sequenceNumber,corporateNumber,process,correct,updateDate,changeDate,name,nameImageId,kind,prefectureName,cityName,streetNumber,addressImageId,prefectureCode,cityCode,postCode,addressOutside,addressOutsideImageId,closeDate,closeCause,successorCorporateNumber,changeCause,assignmentDate,latest,enName,enPrefectureName,enCityName,enAddressOutside,furigana,hihyoji
14,1010001225189,新規,0,2022-03-14,2022-03-14,株式会社ｇａｎｂａｒｕ　ｇｙｍ,,株式会社,東京都,中央区,日本橋久松町１３－５ＡＣＥ日本橋６階,,13,102,1030005,,,,,,,2022-03-14,1,,,,,ガンバルジム,0
17,1010003037236,新規,0,2022-03-14,2022-03-14,南洋興産合同会社,,合同会社,東京都,中央区,銀座１丁目２２番１１号銀座大竹ビジデンス２階,,13,102,1040061,,,,,,,2022-03-14,1,,,,,ナンヨウコウサン,0
22,1010405020789,新規,0,2022-03-14,2022-03-14,一般社団法人Ｎａｚｕｎａ　Ｇｏｓｈｏ　Ｈｏｌｄｉｎｇｓ,,その他の設立登記法人,東京都,港区,虎ノ門５丁目１番４号,,13,103,1050001,,,,,,,2022-03-14,1,,,,,ナズナゴショホールディングス,0
24,1010603009428,新規,0,2022-03-14,2022-03-14,合同会社ＢＷＢ,,合同会社,東京都,江東区,豊洲２丁目５番１号,,13,108,1350061,,,,,,,2022-03-14,1,,,,,ビーダブリュービー,0
25,1010603009436,新規,0,2022-03-14,2022-03-14,ＤＥＡＲＡ．合同会社,,合同会社,東京都,墨田区,太平１丁目６－５,,13,107,1300012,,,,,,,2022-03-14,1,,,,,ディアラ,0
32,1010901050505,新規,0,2022-03-14,2022-03-14,株式会社ミライフ,,株式会社,東京都,世田谷区,太子堂４丁目１番１号キャロットタワー２２階,,13,112,1540004,,,,,,,2022-03-14,1,,,,,ミライフ,0
33,1010901050513,新規,0,2022-03-14,2022-03-14,株式会社ＫＮＢ,,株式会社,東京都,世田谷区,砧４丁目８番２７号,,13,112,1570073,,,,,,,2022-03-14,1,,,,,ケーエヌビー,0
34,1010903007222,新規,0,2022-03-14,2022-03-14,チャレンジドナース合同会社,,合同会社,東京都,世田谷区,三軒茶屋１丁目１５－１０－１１０,,13,112,1540024,,,,,,,2022-03-14,1,,,,,チャレンジドナース,0
40,1011001146177,新規,0,2022-03-14,2022-03-14,ＡＩＣ株式会社,,株式会社,東京都,渋谷区,東３丁目２４－８マーサ恵比寿５０１,,13,113,1500011,,,,,,,2022-03-14,1,,,,,エーアイシ,0
41,1011001146219,新規,0,2022-03-14,2022-03-14,株式会社サンカッケ,,株式会社,東京都,目黒区,青葉台１丁目１０番１１－３１０号コンフォリア目黒青葉台,,13,110,1530042,,,,,,,2022-03-14,1,,,,,サンカッケ,0
42,1011001146227,新規,0,2022-03-14,2022-03-14,株式会社ＭＭ,,株式会社,東京都,渋谷区,広尾２丁目２番２０号ヴェラハイツ広尾３０１,,13,113,1500012,,,,,,,2022-03-14,1,,,,,エムエム,0
47,1011101098070,新規,0,2022-03-14,2022-03-14,ＳＴＥＬＬＡ株式会社,,株式会社,東京都,新宿区,四谷２丁目１１番１７号ＭＹＫビル１０１,,13,104,1600004,,,,,,,2022-03-14,1,,,,,ステラ,0
48,1011101098087,新規,0,2022-03-14,2022-03-14,株式会社ねぎしコーポレーション,,株式会社,東京都,新宿区,西新宿７丁目２２番３６号三井花桐ビル４階,,13,104,1600023,,,,,,,2022-03-14,1,,,,,ネギシコーポレーション,0
49,1011101098120,新規,0,2022-03-14,2022-03-14,株式会社Ｓｅｌｅｃｔ,,株式会社,東京都,新宿区,新小川町５番２８号,,13,104,1620814,,,,,,,2022-03-14,1,,,,,,0
52,1011701025119,新規,0,2022-03-14,2022-03-14,株式会社ＡＵＲＡ　ＴＲＡＤＩＮＧ,,株式会社,東京都,江戸川区,平井４丁目８番５－２０１号エクセレンス平井,,13,123,1320035,,,,,,,2022-03-14,1,,,,,オーラトレーディング,0
53,1011801040439,新規,0,2022-03-14,2022-03-14,株式会社Ｆｕｌｌ’ｓ,,株式会社,東京都,葛飾区,亀有３丁目３０番２号,,13,122,1250061,,,,,,,2022-03-14,1,,,,,フルズ,0
54,1011803005002,新規,0,2022-03-14,2022-03-14,ＳＩＭＲＡＮ合同会社,,合同会社,東京都,葛飾区,高砂６丁目９番１０号アールズ．コート１０２号,,13,122,1250054,,,,,,,2022-03-14,1,,,,,シムラン,0
55,1012301012911,新規,0,2022-03-14,2022-03-14,株式会社ＵＭＩＮ,,株式会社,東京都,町田市,鶴間１丁目２番地６黒岩方,,13,209,1940004,,,,,,,2022-03-14,1,,,,,ユーミン,0
68,1020001145634,新規,0,2022-03-14,2022-03-14,株式会社宝洋,,株式会社,神奈川県,横浜市港北区,小机町１５３８番地２ユナイト小机ステーションクロスビー２１０号,,14,109,2220036,,,,,,,2022-03-14,1,,,,,ホウヨウ,0
69,1020001145642,新規,0,2022-03-14,2022-03-14,株式会社グッドソフトウェアホールディングス,,株式会社,神奈川県,横浜市戸塚区,平戸町７３５番地３,,14,110,2440803,,,,,,,2022-03-14,1,,,,,グッドソフトウェアホールディングス,0
70,1020001145659,新規,0,2022-03-14,2022-03-14,株式会社オーダーメイド,,株式会社,神奈川県,川崎市高津区,新作１丁目２６番１９－３,,14,134,2130014,,,,,,,2022-03-14,1,,,,,オーダーメイド,0
71,1020003021445,新規,0,2022-03-14,2022-03-14,ホームラン合同会社,,合同会社,神奈川県,横浜市都筑区,茅ケ崎中央９番３－７０１号,,14,118,2240032,,,,,,,2022-03-14,1,,,,,ホームラン,0
74,1021001075417,新規,0,2022-03-14,2022-03-14,株式会社ＯＪＭ,,株式会社,神奈川県,厚木市,中町３丁目１３番８号アイリスヴェール１４１ビル７Ｆ,,14,212,2430018,,,,,,,2022-03-14,1,,,,,オージェイエム,0
76,1021003011477,新規,0,2022-03-14,2022-03-14,樂洋合同会社,,合同会社,神奈川県,鎌倉市,大船１丁目１０番１５号,,14,204,2470056,,,,,,,2022-03-14,1,,,,,ラクヨウ,0
93,1030003019018,新規,0,2022-03-14,2022-03-14,合同会社ＩＡＡ,,合同会社,埼玉県,さいたま市浦和区,北浦和５丁目１１番２１－４０１号,,11,107,3300074,,,,,,,2022-03-14,1,,,,,アイエーエー,0
97,1040001122573,新規,0,2022-03-14,2022-03-14,株式会社三和,,株式会社,千葉県,柏市,千代田１丁目１１番１－３０４号,,12,217,2770025,,,,,,,2022-03-14,1,,,,,サンワ,0
98,1040001122615,新規,0,2022-03-14,2022-03-14,晴海工業株式会社,,株式会社,千葉県,千葉市美浜区,稲毛海岸１丁目２番４棟４０５号,,12,106,2610005,,,,,,,2022-03-14,1,,,,,ハルミコウギョウ,0
102,1040003019660,新規,0,2022-03-14,2022-03-14,Ｂ＆Ｆジャパン合同会社,,合同会社,千葉県,野田市,横内６７－２－３０２,,12,208,2780004,,,,,,,2022-03-14,1,,,,,ビーアンドエフジャパン,0
103,1040003019677,新規,0,2022-03-14,2022-03-14,合同会社ＫＭカンパニー,,合同会社,千葉県,市川市,行徳駅前２丁目１番２号,,12,203,2720133,,,,,,,2022-03-14,1,,,,,ケイエムカンパニー,0
122,1100003006446,新規,0,2022-03-14,2022-03-14,マゴスモ合同会社,,合同会社,長野県,飯田市,桐林１９７３－１,,20,205,3992565,,,,,,,2022-03-14,1,,,,,マゴスモ,0
138,1120001244244,新規,0,2022-03-14,2022-03-14,株式会社ピーカ,,株式会社,大阪府,大阪市北区,西天満３丁目５番１０号,,27,127,5300047,,,,,,,2022-03-14,1,,,,,ピーカ,0
139,1120001244418,新規,0,2022-03-14,2022-03-14,株式会社ＭＥＧＡＦＡＲＭＪＰ,,株式会社,大阪府,大阪市大正区,泉尾３丁目１４番６号,,27,108,5510031,,,,,,,2022-03-14,1,,,,,メガファームジェイピー,0
146,1122003002290,新規,0,2022-03-14,2022-03-14,合同会社Ｌｅａｆａｔｈ,,合同会社,大阪府,大東市,南津の辺町１２番４１号,,27,218,5740016,,,,,,,2022-03-14,1,,,,,リーファス,0
157,1140001125178,新規,0,2022-03-14,2022-03-14,株式会社ＳＡＮＫＡＫＵ,,株式会社,兵庫県,加古川市,加古川町溝之口５７８番１号,,28,210,6750064,,,,,,,2022-03-14,1,,,,,サンカク,0
158,1140001125236,新規,0,2022-03-14,2022-03-14,株式会社エンパシー,,株式会社,兵庫県,神戸市西区,池上２丁目２２番地の１,,28,111,6512111,,,,,,,2022-03-14,1,,,,,エンパシー,0
159,1140001125252,新規,0,2022-03-14,2022-03-14,ＮＵ株式会社,,株式会社,兵庫県,神戸市灘区,摩耶埠頭１番１４,,28,102,6570854,,,,,,,2022-03-14,1,,,,,エヌユー,0
183,1180301036006,新規,0,2022-03-14,2022-03-14,株式会社ｐｌａｎｔｓ　ｆａｒｍ,,株式会社,愛知県,額田郡幸田町,大字芦谷字福田８７番地（１０１）,00125952,23,501,4440116,,,,,,,2022-03-14,1,,,,,プランツファーム,0
185,1190001029218,新規,0,2022-03-14,2022-03-14,株式会社うしべ,,株式会社,三重県,鈴鹿市,東庄内町４１６７番地の２,,24,207,5190272,,,,,,,2022-03-14,1,,,,,ウシベ,0
188,1200001039859,新規,0,2022-03-14,2022-03-14,株式会社Ｍｅｌｏｄｉｏｕｓ,,株式会社,岐阜県,岐阜市,金宝町１丁目８番地プレシャスアカオ２Ｆ,,21,201,5008847,,,,,,,2022-03-14,1,,,,,メロディアス,0
196,1260001036636,新規,0,2022-03-14,2022-03-14,株式会社イーデザイン,,株式会社,岡山県,総社市,北溝手４０８番地４７,,33,208,7191117,,,,,,,2022-03-14,1,,,,,イーデザイン,0
205,1290001096669,新規,0,2022-03-14,2022-03-14,エンジニアスピリット株式会社,,株式会社,福岡県,福岡市東区,舞松原１丁目８番１９号,,40,131,8130042,,,,,,,2022-03-14,1,,,,,エンジニアスピリット,0
207,1290003012211,新規,0,2022-03-14,2022-03-14,エンパシーエステート合同会社,,合同会社,福岡県,福岡市東区,青葉７丁目５５番４号サンビレッジ青葉Ａ１０２号,,40,131,8130025,,,,,,,2022-03-14,1,,,,,エンパシーエステート,0
211,1290801028334,新規,0,2022-03-14,2022-03-14,株式会社未来,,株式会社,福岡県,田川市,大字伊田７３０番地１,,40,206,8250002,,,,,,,2022-03-14,1,,,,,ミライ,0
229,1360005006609,新規,0,2022-03-14,2022-03-14,税理士法人ＡＣＬＯＧＯＳ,,その他の設立登記法人,沖縄県,那覇市,泉崎２丁目３－２０,,47,201,9000021,,,,,,,2022-03-14,1,,,,,アクロゴス,0
230,1370001048315,新規,0,2022-03-14,2022-03-14,ＨＲ　ＴＲＡＤＩＮＧ株式会社,,株式会社,宮城県,仙台市青葉区,子平町１６－３サンコーポ２０６,,04,101,9810944,,,,,,,2022-03-14,1,,,,,エイチアールトレーディング,0
251,1410003003627,新規,0,2022-03-14,2022-03-14,合同会社Ｓｕｇａｗａｒａ,,合同会社,秋田県,秋田市,泉中央２丁目１４番６号,,05,201,0100917,,,,,,,2022-03-14,1,,,,,スガワラ,0
256,1460105002233,新規,0,2022-03-14,2022-03-14,医療法人五色彩雲,,その他の設立登記法人,北海道,足寄郡陸別町,字陸別東二条２丁目２０番地１,,01,648,0894300,,,,,,,2022-03-14,1,,,,,ゴシキサイウン,0
257,1470001019000,新規,0,2022-03-14,2022-03-14,株式会社ＡＫｉ,,株式会社,香川県,仲多度郡多度津町,大字見立１４２８番地１,,37,404,7640036,,,,,,,2022-03-14,1,,,,,アキ,0
268,2010001225155,新規,0,2022-03-14,2022-03-14,株式会社都市住宅サービス,,株式会社,東京都,中央区,入船２丁目６番３号,,13,102,1040042,,,,,,,2022-03-14,1,,,,,トシジュウタクサービス,0
269,2010001225163,新規,0,2022-03-14,2022-03-14,ｗａｖｅｌｏｇｙ株式会社,,株式会社,東京都,文京区,本郷６丁目２５番１４号,,13,105,1130033,,,,,,,2022-03-14,1,,,,,ウェーブロジー,0
270,2010001225238,新規,0,2022-03-14,2022-03-14,株式会社アンドデザイン,,株式会社,東京都,中央区,日本橋大伝馬町１３－７日本橋大富ビル３Ｆ,,13,102,1030011,,,,,,,2022-03-14,1,,,,,アンドデザイン,0
273,2010003037202,新規,0,2022-03-14,2022-03-14,合同会社ｉｒｏｈａ,,合同会社,東京都,中央区,銀座１丁目２２－１１銀座大竹ビジデンス２Ｆ,,13,102,1040061,,,,,,,2022-03-14,1,,,,,イロハ,0
275,2010005034726,新規,0,2022-03-14,2022-03-14,医療法人社団悠,,その他の設立登記法人,東京都,中央区,勝どき２丁目１０番４号４階,,13,102,1040054,,,,,,,2022-03-14,1,,,,,ハルカ,0
282,2010401166172,新規,0,2022-03-14,2022-03-14,株式会社キューピット,,株式会社,東京都,港区,港南２丁目４番９号,,13,103,1080075,,,,,,,2022-03-14,1,,,,,キューピット,0
285,2010503006532,新規,0,2022-03-14,2022-03-14,合同会社ＧＲＡＣＥ,,合同会社,東京都,台東区,上野６丁目１番６号,,13,106,1100005,,,,,,,2022-03-14,1,,,,,グレイス,0
289,2010703006126,新規,0,2022-03-14,2022-03-14,合同会社ＦａＭ,,合同会社,東京都,品川区,上大崎２丁目７番２５号パークコート白金長者丸６０３,,13,109,1410021,,,,,,,2022-03-14,1,,,,,ファム,0
290,2010703006150,新規,0,2022-03-14,2022-03-14,合同会社メディカルフォース大井,,合同会社,東京都,品川区,南品川６丁目２番１６号,,13,109,1400004,,,,,,,2022-03-14,1,,,,,メディカルフォースオオイ,0
295,2010901050504,新規,0,2022-03-14,2022-03-14,株式会社ｉｎｔｅｇ,,株式会社,東京都,世田谷区,成城４丁目５番１７号,,13,112,1570066,,,,,,,2022-03-14,1,,,,,インテグ,0
296,2010901050512,新規,0,2022-03-14,2022-03-14,株式会社ｗｒａｐｐｅｄ,,株式会社,東京都,世田谷区,松原３丁目３０－１０－２Ｆ,,13,112,1560043,,,,,,,2022-03-14,1,,,,,ラップト,0
298,2010903007221,新規,0,2022-03-14,2022-03-14,合同会社Ｄｕａｌ　Ｇｒｏｗ,,合同会社,東京都,世田谷区,玉川２丁目１０番１９号,,13,112,1580094,,,,,,,2022-03-14,1,,,,,デュアルグロウ,0
301,2011001146011,新規,0,2022-03-14,2022-03-14,株式会社アカウンティングコンサルタンツ,,株式会社,東京都,渋谷区,代々木１丁目３１番１５号,,13,113,1510053,,,,,,,2022-03-14,1,,,,,アカウンティングコンサルタンツ,0
302,2011001146110,新規,0,2022-03-14,2022-03-14,パイナップルキャピタル株式会社,,株式会社,東京都,渋谷区,道玄坂１丁目１０番８号渋谷道玄坂東急ビル２Ｆ－Ｃ,,13,113,1500043,,,,,,,2022-03-14,1,,,,,パイナップルキャピタル,0
303,2011001146309,新規,0,2022-03-14,2022-03-14,株式会社Ｆｕｔｕｒｉｓｅ　ｓｔａｒＳ,,株式会社,東京都,渋谷区,千駄ヶ谷１丁目２８番８号,,13,113,1510051,,,,,,,2022-03-14,1,,,,,フューチャーライズスターズ,0
304,2011003014331,新規,0,2022-03-14,2022-03-14,大匠文化合同会社,,合同会社,東京都,渋谷区,東２丁目２０番２号三和ビル２０１,,13,113,1500011,,,,,,,2022-03-14,1,,,,,ダイタクミブンカ,0
306,2011101098078,新規,0,2022-03-14,2022-03-14,株式会社Ｓｔｕｄｉｏ　Ｋ,,株式会社,東京都,新宿区,西新宿６丁目８番１号,,13,104,1600023,,,,,,,2022-03-14,1,,,,,スタジオケー,0
307,2011101098128,新規,0,2022-03-14,2022-03-14,株式会社ＭＡＯ　ＣＯＭＰＡＮＹ,,株式会社,東京都,新宿区,西早稲田３丁目１番１２号,,13,104,1690051,,,,,,,2022-03-14,1,,,,,エムエーオーカンパニー,0
310,2011305002810,新規,0,2022-03-14,2022-03-14,医療法人社団ソラのあかり,,その他の設立登記法人,東京都,杉並区,荻窪５丁目７番７号宮澤ビル１階,,13,115,1670051,,,,,,,2022-03-14,1,,,,,ソラノアカリ,0
315,2011701025118,新規,0,2022-03-14,2022-03-14,株式会社Ａ＆Ｈ,,株式会社,東京都,江戸川区,新堀１丁目９番１６号,,13,123,1320001,,,,,,,2022-03-14,1,,,,,エーアンドエッチ,0
316,2011701025126,新規,0,2022-03-14,2022-03-14,株式会社ＫＫＫ,,株式会社,東京都,江戸川区,篠崎町８丁目１０番９号,,13,123,1330061,,,,,,,2022-03-14,1,,,,,ケーケーケー,0
319,2012301012910,新規,0,2022-03-14,2022-03-14,株式会社ティーワイエス,,株式会社,東京都,町田市,小山町２４９２番地７,,13,209,1940212,,,,,,,2022-03-14,1,,,,,ティーワイエス,0
320,2012401038938,新規,0,2022-03-14,2022-03-14,株式会社ＭＯＭＯシステム,,株式会社,東京都,三鷹市,大沢２丁目９番７号,,13,204,1810015,,,,,,,2022-03-14,1,,,,,モモシステム,0
321,2012701016965,新規,0,2022-03-14,2022-03-14,株式会社Ｃｏｔｏｒｉｎｏ,,株式会社,東京都,小平市,天神町１丁目３番１４号メゾンドボヌール武蔵野１Ｆ,,13,211,1870004,,,,,,,2022-03-14,1,,,,,コトリノ,0
322,2012701016981,新規,0,2022-03-14,2022-03-14,株式会社ｄｏｉｇｕｍｉ,,株式会社,東京都,西東京市,南町５丁目３番５号サウスタウン２０１,,13,229,1880012,,,,,,,2022-03-14,1,,,,,ドイグミ,0
326,2013303006074,新規,0,2022-03-14,2022-03-14,合同会社Ｂｒｅａｋ　Ｔｈｒｏｕｇｈ,,合同会社,東京都,豊島区,北大塚１丁目１９－１２コルティス大塚５Ｆ／６Ｆ,,13,116,1700004,,,,,,,2022-03-14,1,,,,,ブレイクスルー,0
330,2020003021452,新規,0,2022-03-14,2022-03-14,３ｒｄ　ＢＥ合同会社,,合同会社,神奈川県,横浜市保土ケ谷区,岩井町１０番地９第３島蔵屋ビル２０１,,14,106,2400023,,,,,,,2022-03-14,1,,,,,サードビー,0
331,2020005015411,新規,0,2022-03-14,2022-03-14,一般社団法人ｓｏｍｅｔｈｉｎｇ　ｌｉｋｅ　ｔｈｉｓ,,その他の設立登記法人,神奈川県,横浜市旭区,若葉台４丁目１４番１００３号,,14,112,2410801,,,,,,,2022-03-14,1,,,,,サムシングライクディス,0
344,2030001147240,新規,0,2022-03-14,2022-03-14,株式会社ＫＡＹＯ,,株式会社,埼玉県,行田市,宮本１３番行田ハイツ１－３０２号,,11,206,3610072,,,,,,,2022-03-14,1,,,,,カヨ,0
345,2030001147249,新規,0,2022-03-14,2022-03-14,株式会社Ｎｏ．７,,株式会社,埼玉県,狭山市,中央１丁目４９番２６号,,11,215,3501308,,,,,,,2022-03-14,1,,,,,ナンバーセブン,0
346,2030001147257,新規,0,2022-03-14,2022-03-14,株式会社ＡＧ,,株式会社,埼玉県,さいたま市緑区,原山１丁目１６番６号,,11,109,3360931,,,,,,,2022-03-14,1,,,,,エージー,0
350,2030003019009,新規,0,2022-03-14,2022-03-14,Ｉｎａｙａ　Ｉｎｔｅｒｎａｔｉｏｎａｌ合同会社,,合同会社,埼玉県,新座市,北野３丁目４－１４ピュアハイツ２０２号室,,11,230,3520003,,,,,,,2022-03-14,1,,,,,イナヤインターナショナル,0
351,2030003019017,新規,0,2022-03-14,2022-03-14,長楽未央合同会社,,合同会社,埼玉県,所沢市,北所沢町１９９２番地の１６アメニティハイツ３０５,,11,208,3590046,,,,,,,2022-03-14,1,,,,,チョウラクミオウ,0
352,2030005020740,新規,0,2022-03-14,2022-03-14,一般社団法人田端,,その他の設立登記法人,埼玉県,富士見市,針ケ谷１丁目４０番地３,,11,235,3540017,,,,,,,2022-03-14,1,,,,,タバタ,0
353,2030005020749,新規,0,2022-03-14,2022-03-14,社会福祉法人スマイルの仲間たち,,その他の設立登記法人,埼玉県,さいたま市浦和区,岸町４丁目２３番１４号,,11,107,3300064,,,,,,,2022-03-14,1,,,,,スマイルノナカマタチ,0
363,2040001122614,新規,0,2022-03-14,2022-03-14,株式会社ｅメディカルサポート,,株式会社,千葉県,市川市,新田５丁目１２番９号,,12,203,2720035,,,,,,,2022-03-14,1,,,,,イーメディカルサポート,0
365,2050001050772,新規,0,2022-03-14,2022-03-14,株式会社ヘスティア,,株式会社,茨城県,桜川市,明日香３丁目４２番地,,08,231,3091216,,,,,,,2022-03-14,1,,,,,ヘスティア,0
372,2080401025677,新規,0,2022-03-14,2022-03-14,株式会社ＥＸ,,株式会社,静岡県,掛川市,千羽４１４番地の１,,22,213,4360008,,,,,,,2022-03-14,1,,,,,イークロス,0
373,2080403004489,新規,0,2022-03-14,2022-03-14,合同会社ＩＳケア,,合同会社,静岡県,浜松市中区,佐鳴台１丁目２２番４号,,22,131,4328021,,,,,,,2022-03-14,1,,,,,アイエスケア,0
408,2120101065218,新規,0,2022-03-14,2022-03-14,株式会社ＶＥＲＴＥＸ,,株式会社,大阪府,富田林市,藤沢台２丁目２番２３９号,,27,214,5840071,,,,,,,2022-03-14,1,,,,,バーテックス,0
422,2140001125243,新規,0,2022-03-14,2022-03-14,ＤＸホールディングス株式会社,,株式会社,兵庫県,神戸市西区,水谷３丁目１３番１３号,,28,111,6512121,,,,,,,2022-03-14,1,,,,,ディーエックスホールディングス,0
424,2140005026066,新規,0,2022-03-14,2022-03-14,特定非営利活動法人森のようちえんＭｏｉｍｏｉ,,その他の設立登記法人,兵庫県,神戸市垂水区,五色山７丁目４番１７号,,28,108,6550035,,,,,,,2022-03-14,1,,,,,モリノヨウチエンモイモイ,0
433,2180001150378,新規,0,2022-03-14,2022-03-14,Ｅ・Ｎコンサル株式会社,,株式会社,愛知県,名古屋市西区,那古野２丁目１９番２３号ＺＥＲＯ－ＮＥＸＴＢ号室,,23,104,4510042,,,,,,,2022-03-14,1,,,,,イーエヌコンサル,0
446,2200001039858,新規,0,2022-03-14,2022-03-14,ＢＨＩＮＤＥＲ　ＴＲＡＤＩＮＧ株式会社,,株式会社,岐阜県,大垣市,東町２丁目９５番地４号メゾンワタナベ２０５号室,,21,202,5030802,,,,,,,2022-03-14,1,,,,,ビンダートレーディング,0
456,2240001059456,新規,0,2022-03-14,2022-03-14,株式会社池田住建,,株式会社,広島県,福山市,坪生町６丁目２６番９号,,34,207,7210903,,,,,,,2022-03-14,1,,,,,イケダジュウケン,0
471,2290001096767,新規,0,2022-03-14,2022-03-14,株式会社Ｓｅａ　Ｌｉｎｋ,,株式会社,福岡県,福岡市西区,姪の浜３丁目４４番１－１号,,40,135,8190002,,,,,,,2022-03-14,1,,,,,シーリンク,0
490,2350003004044,新規,0,2022-03-14,2022-03-14,合同会社ＭＩ‐２,,合同会社,宮崎県,宮崎市,大字島之内７０７３番地２,,45,201,8800121,,,,,,,2022-03-14,1,,,,,エムアイツー,0
493,2370003005619,新規,0,2022-03-14,2022-03-14,合同会社ＢＥＬＬ,,合同会社,宮城県,仙台市青葉区,梅田町１番７０－７０１号,,04,101,9800005,,,,,,,2022-03-14,1,,,,,ベル,0
511,2430005014413,新規,0,2022-03-14,2022-03-14,一般社団法人さっぽろ北海道ＭＩＣＥ振興協会,,その他の設立登記法人,北海道,札幌市中央区,南二条西６丁目１４番地５大友ビル７階Ｎｅｔｗｏｒｋ－Ｌａｂ,,01,101,0600062,,,,,,,2022-03-14,1,,,,,サッポロホッカイドウマイスシンコウキョウカイ,0
512,2450003002186,新規,0,2022-03-14,2022-03-14,合同会社ここる,,合同会社,北海道,旭川市,東光十三条４丁目４番７－２号,,01,204,0788353,,,,,,,2022-03-14,1,,,,,ココル,0
513,2460101007160,新規,0,2022-03-14,2022-03-14,三好エナジ株式会社,,株式会社,北海道,上川郡清水町,南二条４丁目４番５,,01,636,0890138,,,,,,,2022-03-14,1,,,,,ミヨシエナジ,0
519,2490001010138,新規,0,2022-03-14,2022-03-14,株式会社ＡＣＹＬ,,株式会社,高知県,高知市,高見町２０８番地１０,,39,201,7808027,,,,,,,2022-03-14,1,,,,,エイシル,0
529,3010001225154,新規,0,2022-03-14,2022-03-14,東郷の杜株式会社,,株式会社,東京都,千代田区,三番町１８番地１９,,13,101,1020075,,,,,,,2022-03-14,1,,,,,トウゴウノモリ,0
530,3010003037226,新規,0,2022-03-14,2022-03-14,Ａｌｔｅｒｎａｔｉｖｅ　Ｍａｒｋｅｔｉｎｇ合同会社,,合同会社,東京都,中央区,八丁堀２丁目３０番１６号,,13,102,1040032,,,,,,,2022-03-14,1,,,,,オルタナティブマーケティング,0
531,3010003037234,新規,0,2022-03-14,2022-03-14,合同会社ＴＩ,,合同会社,東京都,千代田区,平河町２丁目７番１０号,,13,101,1020093,,,,,,,2022-03-14,1,,,,,ティーアイ,0
532,3010003037242,新規,0,2022-03-14,2022-03-14,ＪＰインベストメント２号合同会社,,合同会社,東京都,千代田区,大手町２丁目３番１号,,13,101,1000004,,,,,,,2022-03-14,1,,,,,ジェイピーインベストメントニゴウ,0
537,3010005034717,新規,0,2022-03-14,2022-03-14,ＴＲＮ２特定目的会社,,その他の設立登記法人,東京都,中央区,日本橋１丁目４番１号,,13,102,1030027,,,,,,,2022-03-14,1,,,,,ティーアールエヌツー,0
546,3010503006531,新規,0,2022-03-14,2022-03-14,合同会社ＭＡＴ,,合同会社,東京都,台東区,浅草６丁目２６－１１,,13,106,1110032,,,,,,,2022-03-14,1,,,,,マット,0
556,3010901050503,新規,0,2022-03-14,2022-03-14,ｍｏｎａ　ｐｏｋｅｒ　ｉｔｅｍ株式会社,,株式会社,東京都,世田谷区,千歳台６丁目２番１４号,,13,112,1570071,,,,,,,2022-03-14,1,,,,,モナポーカーアイテム,0
557,3010903007220,新規,0,2022-03-14,2022-03-14,ソフィアプランニング合同会社,,合同会社,東京都,世田谷区,上北沢３丁目９番８号,,13,112,1560057,,,,,,,2022-03-14,1,,,,,ソフィアプランニング,0
563,3011001146175,新規,0,2022-03-14,2022-03-14,株式会社Ｓｕｉｔｅｄ　Ｖａｌｕｅｓ,,株式会社,東京都,渋谷区,西原１丁目４－１１ライフピア西原６１３号室,,13,113,1510066,,,,,,,2022-03-14,1,,,,,スーテッドバリューズ,0
564,3011001146183,新規,0,2022-03-14,2022-03-14,株式会社目黒不動企画,,株式会社,東京都,目黒区,目黒１丁目４番１６号目黒Ｇビル７Ｆ,,13,110,1530063,,,,,,,2022-03-14,1,,,,,メグロフドウキカク,0
569,3011101098060,新規,0,2022-03-14,2022-03-14,株式会社テリオスメイト,,株式会社,東京都,新宿区,西新宿７丁目２１番２１号西新宿成和ビル１Ｆ,,13,104,1600023,,,,,,,2022-03-14,1,,,,,テリオスメイト,0
570,3011101098127,新規,0,2022-03-14,2022-03-14,株式会社ＧＲＬ,,株式会社,東京都,新宿区,歌舞伎町２丁目９番１０号Ｇ２ビル２階,,13,104,1600021,,,,,,,2022-03-14,1,,,,,ゴリラ,0
571,3011101098135,新規,0,2022-03-14,2022-03-14,株式会社ＶＩＫＡＴＳＵ,,株式会社,東京都,新宿区,下落合１丁目１０番７－５０８号,,13,104,1610033,,,,,,,2022-03-14,1,,,,,ビーカツ,0
575,3011103011558,新規,0,2022-03-14,2022-03-14,合同会社エイトリンク,,合同会社,東京都,新宿区,下落合４丁目１４番８号,,13,104,1610033,,,,,,,2022-03-14,1,,,,,,0
582,3011603003550,新規,0,2022-03-14,2022-03-14,合同会社サカイ,,合同会社,東京都,練馬区,旭町２丁目３９番３－２０４号,,13,120,1790071,,,,,,,2022-03-14,1,,,,,サカイ,0
583,3011701025109,新規,0,2022-03-14,2022-03-14,ＣＨＲＯＭＥ　ＪＡＰＡＮ株式会社,,株式会社,東京都,江戸川区,東葛西９丁目１４番２４－１０４号,,13,123,1340084,,,,,,,2022-03-14,1,,,,,クロームジャパン,0
584,3011703003079,新規,0,2022-03-14,2022-03-14,Ｓｏｎａ　Ｊａｐａｎ合同会社,,合同会社,東京都,江戸川区,船堀５丁目１－１２アパートメントトキ２０６,,13,123,1340091,,,,,,,2022-03-14,1,,,,,ソナジャパン,0
585,3011703003087,新規,0,2022-03-14,2022-03-14,ＴＳＵＫＩ合同会社,,合同会社,東京都,江戸川区,松江１丁目１１番４号,,13,123,1320025,,,,,,,2022-03-14,1,,,,,ツキ,0
586,3011801040437,新規,0,2022-03-14,2022-03-14,株式会社ＧｏｌｄＲｕｓｈ２４,,株式会社,東京都,足立区,保木間３丁目４－１５,,13,121,1210064,,,,,,,2022-03-14,1,,,,,ゴールドラッシュトゥエンティーフォー,0
587,3011801040445,新規,0,2022-03-14,2022-03-14,ＴＥＮ株式会社,,株式会社,東京都,葛飾区,青戸８丁目２３－２,,13,122,1250062,,,,,,,2022-03-14,1,,,,,テン,0
590,3012701016980,新規,0,2022-03-14,2022-03-14,株式会社ＷＩＴＨ．ＬＩＮＫ,,株式会社,東京都,清瀬市,下清戸５丁目９０４番地３４,,13,221,2040011,,,,,,,2022-03-14,1,,,,,ウィズリンク,0
592,3013301048811,新規,0,2022-03-14,2022-03-14,株式会社ｏｆｆｉｃｅ　ｋ,,株式会社,東京都,豊島区,池袋２丁目６１番７－８０２号,,13,116,1710014,,,,,,,2022-03-14,1,,,,,オフィスケイ,0
599,3020001145632,新規,0,2022-03-14,2022-03-14,スライヴ株式会社,,株式会社,神奈川県,横浜市磯子区,岡村６丁目２番２－３号,,14,107,2350021,,,,,,,2022-03-14,1,,,,,スライヴ,0
600,3020001145640,新規,0,2022-03-14,2022-03-14,株式会社サンクロス,,株式会社,神奈川県,横浜市戸塚区,上矢部町１４３－１－７１０号,,14,110,2450053,,,,,,,2022-03-14,1,,,,,サンクロス,0
603,3021001075423,新規,0,2022-03-14,2022-03-14,株式会社ＦＵＳＥ,,株式会社,神奈川県,平塚市,田村７丁目９番１９号,,14,203,2540013,,,,,,,2022-03-14,1,,,,,フューズ,0
620,3030001147215,新規,0,2022-03-14,2022-03-14,カルブレイス・ペルリ株式会社,,株式会社,埼玉県,さいたま市大宮区,浅間町１丁目１３３番地２－４０６,,11,103,3300842,,,,,,,2022-03-14,1,,,,,カルブレイスペルリ,0
621,3030001147248,新規,0,2022-03-14,2022-03-14,エイトラージ株式会社,,株式会社,埼玉県,八潮市,大字大曽根１２２７番地１,,11,234,3400834,,,,,,,2022-03-14,1,,,,,エイトラージ,0
628,3040001122588,新規,0,2022-03-14,2022-03-14,株式会社関川工業,,株式会社,千葉県,松戸市,古ケ崎４丁目３５９２番地の３,,12,207,2710068,,,,,,,2022-03-14,1,,,,,セキカワコウギョウ,0
629,3040001122596,新規,0,2022-03-14,2022-03-14,株式会社ＶＪＴ,,株式会社,千葉県,船橋市,本町２丁目２６－２５相川ビル１Ｆ,,12,204,2730005,,,,,,,2022-03-14,1,,,,,ヴィジェイティ,0
632,3040003019667,新規,0,2022-03-14,2022-03-14,合同会社ベジデポフォーム,,合同会社,千葉県,南房総市,千倉町北朝夷２８３０番地１６,,12,234,2950011,,,,,,,2022-03-14,1,,,,,ベジデポフォーム,0
634,3050001050763,新規,0,2022-03-14,2022-03-14,株式会社細内工業,,株式会社,茨城県,猿島郡五霞町,大字冬木１８５番地,,08,542,3060305,,,,,,,2022-03-14,1,,,,,ホソウチコウギョウ,0
635,3050001050796,新規,0,2022-03-14,2022-03-14,株式会社Ｍａｒｖｅｌ　Ｃｏｎｓｔｒｕｃｔｉｏｎ,,株式会社,茨城県,坂東市,逆井１７１８番地９,,08,228,3060501,,,,,,,2022-03-14,1,,,,,マーベルコンストラクション,0
646,3070001039037,新規,0,2022-03-14,2022-03-14,アクオ株式会社,,株式会社,群馬県,高崎市,上大類町１２７５番地１,,10,202,3700031,,,,,,,2022-03-14,1,,,,,アクオ,0
647,3070003004419,新規,0,2022-03-14,2022-03-14,ウインマル合同会社,,合同会社,群馬県,高崎市,山名町２３６０番地８,,10,202,3701213,,,,,,,2022-03-14,1,,,,,ウインマル,0
650,3100005012837,新規,0,2022-03-14,2022-03-14,農事組合法人信濃アイランド営農,,その他の設立登記法人,長野県,松本市,大字島内６１４６番地２,,20,202,3900851,,,,,,,2022-03-14,1,,,,,シナノアイランドエイノウ,0
661,3120001244424,新規,0,2022-03-14,2022-03-14,株式会社モトキカク,,株式会社,大阪府,寝屋川市,香里北之町２４番５－８０７号,,27,215,5720080,,,,,,,2022-03-14,1,,,,,モトキカク,0
662,3120001244440,新規,0,2022-03-14,2022-03-14,株式会社バンセツ,,株式会社,大阪府,大阪市中央区,内淡路町１丁目３番７号日宝内淡路ビル４階２号室,,27,128,5400038,,,,,,,2022-03-14,1,,,,,バンセツ,0
665,3120003021268,新規,0,2022-03-14,2022-03-14,合同会社ＴＯＭＯＴＣＨＡ,,合同会社,大阪府,大阪市北区,天神橋１丁目１４番６号アストロビル３Ｂ号室,,27,127,5300041,,,,,,,2022-03-14,1,,,,,トモチャ,0
667,3120101065217,新規,0,2022-03-14,2022-03-14,株式会社ＫＹＯＥＩ,,株式会社,大阪府,堺市西区,下田町２番１号,,27,144,5938329,,,,,,,2022-03-14,1,,,,,キョウエイ,0
673,3122003002289,新規,0,2022-03-14,2022-03-14,合同会社Ａ．Ｒ．Ｔ,,合同会社,大阪府,東大阪市,角田２丁目９－３９,,27,227,5780912,,,,,,,2022-03-14,1,,,,,エーアールティー,0
674,3130001071347,新規,0,2022-03-14,2022-03-14,泰和商事株式会社,,株式会社,京都府,京都市山科区,西野山中鳥井町９８番地８,,26,110,6078306,,,,,,,2022-03-14,1,,,,,タイワショウジ,0
676,3130005016406,新規,0,2022-03-14,2022-03-14,司法書士法人片岡事務所,,その他の設立登記法人,京都府,京田辺市,田辺中央１丁目５番地５橋本ビル７階,,26,211,6100334,,,,,,,2022-03-14,1,,,,,カタオカジムショ,0
680,3140001125250,新規,0,2022-03-14,2022-03-14,株式会社アストラ,,株式会社,兵庫県,神戸市兵庫区,築地町３－２８－１Ｆ,,28,105,6520845,,,,,,,2022-03-14,1,,,,,アストラ,0
682,3140003017446,新規,0,2022-03-14,2022-03-14,合同会社ＧＬＴトラスティ,,合同会社,兵庫県,神戸市中央区,相生町５丁目１１番２０号,,28,110,6500025,,,,,,,2022-03-14,1,,,,,ジーエルティートラスティ,0
683,3140003017454,新規,0,2022-03-14,2022-03-14,合同会社山崎康正空間デザイン室,,合同会社,兵庫県,神戸市東灘区,深江南町１丁目１６番３３－２０６号,,28,101,6580022,,,,,,,2022-03-14,1,,,,,ヤマサキヤスマサクウカンデザインシツ,0
685,3160003002512,新規,0,2022-03-14,2022-03-14,合同会社グリュックリッヒ,,合同会社,滋賀県,草津市,野路町１２９２番地１,,25,206,5250055,,,,,,,2022-03-14,1,,,,,グリュックリッヒ,0
695,3180001150352,新規,0,2022-03-14,2022-03-14,株式会社ｅｌｎａｔｏ,,株式会社,愛知県,名古屋市南区,豊１丁目４３番１５号（セレノア１０２号）,,23,112,4570863,,,,,,,2022-03-14,1,,,,,エルナト,0
696,3180001150385,新規,0,2022-03-14,2022-03-14,株式会社有元工業,,株式会社,愛知県,名古屋市熱田区,千年１丁目６番１２号,,23,109,4560054,,,,,,,2022-03-14,1,,,,,アリモトコウギョウ,0
701,3180005019676,新規,0,2022-03-14,2022-03-14,医療法人はまじまクリニック,,その他の設立登記法人,愛知県,名古屋市昭和区,滝子通３丁目１０番地１滝子メディカルステーション２階,,23,107,4660055,,,,,,,2022-03-14,1,,,,,ハマジマクリニック,0
707,3220005008641,新規,0,2022-03-14,2022-03-14,一般社団法人ＪＰＣＳ,,その他の設立登記法人,石川県,金沢市,問屋町１丁目２７番地１,,17,201,9200061,,,,,,,2022-03-14,1,,,,,ジェイピーシーエス,0
720,3250001019458,新規,0,2022-03-14,2022-03-14,株式会社沖台農場,,株式会社,山口県,下関市,菊川町大字吉賀８５０番地５,,35,201,7500316,,,,,,,2022-03-14,1,,,,,オキダイノウジョウ,0
727,3270001008475,新規,0,2022-03-14,2022-03-14,株式会社ＧＥＡＲ　ＴＲＹＭ,,株式会社,鳥取県,八頭郡八頭町,福地４０８番地,,31,329,6800307,,,,,,,2022-03-14,1,,,,,ギアトライム,0
728,3280005007472,新規,0,2022-03-14,2022-03-14,司法書士法人成瀬事務所,,その他の設立登記法人,島根県,出雲市,今市町南本町２１番地３,,32,203,6930003,,,,,,,2022-03-14,1,,,,,ナルセジムショ,0
733,3290001096758,新規,0,2022-03-14,2022-03-14,株式会社ＫＫホールディングス,,株式会社,福岡県,糟屋郡粕屋町,長者原東１丁目１２番１４号,,40,349,8112317,,,,,,,2022-03-14,1,,,,,ケイケイホールディングス,0
734,3290001096766,新規,0,2022-03-14,2022-03-14,Ｌｅ　ＤＥＳＩＧＮ株式会社,,株式会社,福岡県,久留米市,上津町２２２８番地６６,,40,203,8300052,,,,,,,2022-03-14,1,,,,,ルデザイン,0
735,3290001096774,新規,0,2022-03-14,2022-03-14,株式会社中村興産,,株式会社,福岡県,大野城市,平野台１丁目２５番８号,,40,219,8160972,,,,,,,2022-03-14,1,,,,,ナカムラコウサン,0
738,3290003012275,新規,0,2022-03-14,2022-03-14,Ｋｈａｄｋａ　Ｄｉｎｎｅｒｓ合同会社,,合同会社,福岡県,福岡市博多区,吉塚１丁目１６－１８,,40,132,8120041,,,,,,,2022-03-14,1,,,,,カドカダイナーズ,0
747,3320001018956,新規,0,2022-03-14,2022-03-14,株式会社別府駐車場,,株式会社,大分県,別府市,田の湯町１番１０号,,44,202,8740909,,,,,,,2022-03-14,1,,,,,ベップチュウシャジョウ,0
756,3360001030123,新規,0,2022-03-14,2022-03-14,株式会社ＡＩＬＡ,,株式会社,沖縄県,宮古島市,平良字下里５５６番地６ＳＳビル４Ｆ,,47,214,9060013,,,,,,,2022-03-14,1,,,,,アイラ,0
757,3360005006615,新規,0,2022-03-14,2022-03-14,一般社団法人ネコのわくわく自然教室,,その他の設立登記法人,沖縄県,中頭郡中城村,字当間８２２番地１,,47,328,9012406,,,,,,,2022-03-14,1,,,,,ネコノワクワクシゼンキョウシツ,0
759,3370001048313,新規,0,2022-03-14,2022-03-14,株式会社万愈,,株式会社,宮城県,仙台市青葉区,一番町１丁目１１番１７号,,04,101,9800811,,,,,,,2022-03-14,1,,,,,マユ,0
776,3450001013639,新規,0,2022-03-14,2022-03-14,株式会社Ｍｅａｔ　Ｇｒａｐｈｉｃｓ,,株式会社,北海道,旭川市,東旭川町豊田６７４番地の２,,01,204,0781272,,,,,,,2022-03-14,1,,,,,ミートグラフィックス,0
778,3460001005668,新規,0,2022-03-14,2022-03-14,Ｅｅｄｇｅ株式会社,,株式会社,北海道,川上郡標茶町,字虹別原野六十七線１０５番地３４,,01,664,0882300,,,,,,,2022-03-14,1,,,,,エッジ,0
781,3500001024060,新規,0,2022-03-14,2022-03-14,株式会社今治教材,,株式会社,愛媛県,今治市,上徳甲４６５番地１７,,38,202,7991511,,,,,,,2022-03-14,1,,,,,イマバリキョウザイ,0
786,3700150107380,新規,0,2022-03-14,2022-03-14,Ｋａｍａｌａ　Ｃｏｓｍｅｔｉｃ,,外国会社等,東京都,中野区,松が丘１丁目１番３号新井薬師ローヤルコーポ２０４,,13,114,1650024,ネパール連邦民主共和国ダン、ゴラヒ市第１０区,,,,,,2022-03-14,1,,,,,カマラコスメテイツク,0
793,4010001225178,新規,0,2022-03-14,2022-03-14,ＩＮＮＶＴＮＬ株式会社,,株式会社,東京都,中央区,日本橋２丁目１－３－１０Ｆ,,13,102,1030027,,,,,,,2022-03-14,1,,,,,イノベーショナル,0
794,4010001225194,新規,0,2022-03-14,2022-03-14,株式会社Ａｎｎｉｖｅｒｓａｒｙ　Ｐｌａｎｎｉｎｇ,,株式会社,東京都,中央区,銀座１丁目３－３Ｇ１ビル７階,,13,102,1040061,,,,,,,2022-03-14,1,,,,,アニバーサリープランニング,0
800,4010005034716,新規,0,2022-03-14,2022-03-14,医療法人社団路是,,その他の設立登記法人,東京都,文京区,本駒込６丁目２番１号栄泉堂ビル３０１号室,,13,105,1130021,,,,,,,2022-03-14,1,,,,,ロゼ,0
810,4010401165981,新規,0,2022-03-14,2022-03-14,ＬＩＮＯＸＥＥＤ株式会社,,株式会社,東京都,港区,高輪２丁目１１番２１－２０１号,,13,103,1080074,,,,,,,2022-03-14,1,,,,,リノシード,0
815,4010503006522,新規,0,2022-03-14,2022-03-14,合同会社リモートエージェント,,合同会社,東京都,台東区,入谷１丁目１４番２－１００１号,,13,106,1100013,,,,,,,2022-03-14,1,,,,,リモートエージェント,0
816,4010601060826,新規,0,2022-03-14,2022-03-14,株式会社電車道,,株式会社,東京都,江東区,平野２丁目５番９号,,13,108,1350023,,,,,,,2022-03-14,1,,,,,デンシャミチ,0
827,4010901050502,新規,0,2022-03-14,2022-03-14,株式会社ｓｏｎｏ,,株式会社,東京都,世田谷区,上馬１丁目１５番５－２０２号,,13,112,1540011,,,,,,,2022-03-14,1,,,,,ソノ,0
828,4010901050510,新規,0,2022-03-14,2022-03-14,株式会社ＡＲＣＡＴＨ,,株式会社,東京都,世田谷区,宮坂３丁目１－５２リージア経堂テラスガーデン５１５,,13,112,1560051,,,,,,,2022-03-14,1,,,,,アルカス,0
835,4011001146208,新規,0,2022-03-14,2022-03-14,集客マニア株式会社,,株式会社,東京都,渋谷区,渋谷１丁目１番６号エムエフ青山３０４号,,13,113,1500002,,,,,,,2022-03-14,1,,,,,シュウキャクマニア,0
836,4011001146224,新規,0,2022-03-14,2022-03-14,株式会社ｎａｇｉ,,株式会社,東京都,渋谷区,神宮前６丁目２３番４号桑野ビル２階,,13,113,1500001,,,,,,,2022-03-14,1,,,,,ナギ,0
837,4011001146265,新規,0,2022-03-14,2022-03-14,株式会社ＴａｇＴａｇ,,株式会社,東京都,渋谷区,円山町５番５号Ｎａｖｉ渋谷Ｖ３階,,13,113,1500044,,,,,,,2022-03-14,1,,,,,タグタグ,0
845,4011101098126,新規,0,2022-03-14,2022-03-14,株式会社ホンス,,株式会社,東京都,新宿区,百人町１丁目５番２４号１Ｆ,,13,104,1690073,,,,,,,2022-03-14,1,,,,,ホンス,0
846,4011101098142,新規,0,2022-03-14,2022-03-14,株式会社日本ＬＣＳ,,株式会社,東京都,新宿区,西新宿６丁目６番３号新宿国際ビルディング新館４Ｆ,,13,104,1600023,,,,,,,2022-03-14,1,,,,,ニホンエルシーエス,0
852,4011703003086,新規,0,2022-03-14,2022-03-14,合同会社デイリーミール,,合同会社,東京都,江戸川区,平井４丁目２２－３,,13,123,1320035,,,,,,,2022-03-14,1,,,,,デイリーミール,0
857,4012401038969,新規,0,2022-03-14,2022-03-14,株式会社協和管理,,株式会社,東京都,多摩市,豊ヶ丘１丁目６１番地２富士ビル１０１号室,,13,224,2060031,,,,,,,2022-03-14,1,,,,,キョウワカンリ,0
858,4012403005281,新規,0,2022-03-14,2022-03-14,Ｇｒａｃｅ合同会社,,合同会社,東京都,小金井市,本町６丁目２番２０－１６０７号,,13,210,1840004,,,,,,,2022-03-14,1,,,,,グレイス,0
860,4012805003098,新規,0,2022-03-14,2022-03-14,一般社団法人びすたーり,,その他の設立登記法人,東京都,日野市,程久保３丁目１３番地２４号,,13,212,1910042,,,,,,,2022-03-14,1,,,,,ビスターリ,0
865,4013301048802,新規,0,2022-03-14,2022-03-14,匠建興株式会社,,株式会社,東京都,豊島区,北大塚３丁目３３番１号海老ビル３階,00125949,13,116,1700004,,,,,,,2022-03-14,1,,,,,タクミケンコウ,0
869,4013305003316,新規,0,2022-03-14,2022-03-14,医療法人社団ＬＩＦＥ,,その他の設立登記法人,東京都,豊島区,要町３丁目１１番１号菊信第一ビル２階,,13,116,1710043,,,,,,,2022-03-14,1,,,,,ライフ,0
875,4020005015401,新規,0,2022-03-14,2022-03-14,アスタ社会保険労務士法人,,その他の設立登記法人,神奈川県,川崎市幸区,中幸町３丁目１３番８ソラーナ幸４０２,,14,132,2120012,,,,,,,2022-03-14,1,,,,,アスタ,0
876,4021001075422,新規,0,2022-03-14,2022-03-14,株式会社おうち研究所,,株式会社,神奈川県,相模原市中央区,淵野辺本町２丁目１４－１１,,14,152,2520202,,,,,,,2022-03-14,1,,,,,オウチケンキュウジョ,0
880,4021003011474,新規,0,2022-03-14,2022-03-14,合同会社エスエーリベルタ,,合同会社,神奈川県,伊勢原市,東大竹６５９－２イーストレジデンス１０１,,14,214,2591133,,,,,,,2022-03-14,1,,,,,エスエーリベルタ,0
896,4030001147255,新規,0,2022-03-14,2022-03-14,株式会社勇千色彩,,株式会社,埼玉県,比企郡小川町,東小川３丁目３番地１,,11,343,3550322,,,,,,,2022-03-14,1,,,,,,0
901,4030003019007,新規,0,2022-03-14,2022-03-14,合同会社ＫＥＮＳＨＩＮ,,合同会社,埼玉県,川口市,金山町１２－１サウスゲートタワー川口１６１１,,11,203,3320014,,,,,,,2022-03-14,1,,,,,ケンシン,0
902,4030003019015,新規,0,2022-03-14,2022-03-14,合同会社ｉｍｐ,,合同会社,埼玉県,川口市,並木元町１番６６号,,11,203,3320033,,,,,,,2022-03-14,1,,,,,アイエムピー,0
903,4030003019023,新規,0,2022-03-14,2022-03-14,合同会社ＫＡＩＴＡＱ,,合同会社,埼玉県,春日部市,千間１丁目１２９－４,,11,214,3440024,,,,,,,2022-03-14,1,,,,,カイタック,0
911,4040001122579,新規,0,2022-03-14,2022-03-14,株式会社葉月の戸,,株式会社,千葉県,松戸市,西馬橋幸町１７番地フェリスコート３０７号,,12,207,2710047,,,,,,,2022-03-14,1,,,,,ハヅキノト,0
912,4040001122629,新規,0,2022-03-14,2022-03-14,ＤＭ信和株式会社,,株式会社,千葉県,松戸市,六実５丁目７番地の１３,,12,207,2702204,,,,,,,2022-03-14,1,,,,,ディーエムシンワ,0
918,4040003019641,新規,0,2022-03-14,2022-03-14,合同会社ＥＨＯＵ,,合同会社,千葉県,市川市,曽谷２丁目１４番７号,,12,203,2720832,,,,,,,2022-03-14,1,,,,,エホウ,0
919,4040003019658,新規,0,2022-03-14,2022-03-14,合同会社幸和,,合同会社,千葉県,茂原市,茂原２９５－９,,12,210,2970026,,,,,,,2022-03-14,1,,,,,コウワ,0
920,4040003019666,新規,0,2022-03-14,2022-03-14,合同会社ＲＥＧＯＬＩＴＨ,,合同会社,千葉県,木更津市,長須賀９２３番地１レジデンス木更津Ｃ棟,,12,206,2920054,,,,,,,2022-03-14,1,,,,,レゴリス,0
921,4070003004418,新規,0,2022-03-14,2022-03-14,合同会社ＧＡＳ,,合同会社,群馬県,高崎市,石原町３７０３番地５パークヒルズツルベＢ棟３０１号,,10,202,3700864,,,,,,,2022-03-14,1,,,,,ジーエーエス,0
924,4080101023153,新規,0,2022-03-14,2022-03-14,株式会社ホリー,,株式会社,静岡県,田方郡函南町,肥田３１３番地の１,,22,325,4190125,,,,,,,2022-03-14,1,,,,,ホリー,0
926,4080401025683,新規,0,2022-03-14,2022-03-14,ＢＲＡＺＡ株式会社,,株式会社,静岡県,湖西市,新居町新居５３３番地の２０,,22,221,4310302,,,,,,,2022-03-14,1,,,,,ブラザ,0
933,4100003006427,新規,0,2022-03-14,2022-03-14,合同会社恵果,,合同会社,長野県,上伊那郡南箕輪村,２０４６番地４,,20,385,3994511,,,,,,,2022-03-14,1,,,,,ケイカ,0
943,4120001244324,新規,0,2022-03-14,2022-03-14,株式会社ユヤマベンディング,,株式会社,大阪府,枚方市,春日野２丁目１９番２０号,,27,210,5730131,,,,,,,2022-03-14,1,,,,,ユヤマベンディング,0
953,4122003002288,新規,0,2022-03-14,2022-03-14,合同会社ＩＭＰＵＬＳＥ,,合同会社,大阪府,柏原市,本郷４丁目１２２番地の１９,,27,221,5820001,,,,,,,2022-03-14,1,,,,,インパルス,0
964,4150001025399,新規,0,2022-03-14,2022-03-14,株式会社Ｐｅｒｉｔｙ５,,株式会社,奈良県,奈良市,西木辻町１５０番地の２エスポワール奈良八嘉４０２号,00125948,29,201,6308325,,,,,,,2022-03-14,1,,,,,ペリティーファイブ,0
967,4160003002511,新規,0,2022-03-14,2022-03-14,合同会社フォレストシーナリー,,合同会社,滋賀県,草津市,野村５丁目９番３号,,25,206,5250027,,,,,,,2022-03-14,1,,,,,フォレストシーナリー,0
974,4180001150384,新規,0,2022-03-14,2022-03-14,株式会社ＦＸ,,株式会社,愛知県,東海市,加木屋町畑尻１１番地１,,23,222,4770032,,,,,,,2022-03-14,1,,,,,エフエックス,0
975,4180001150392,新規,0,2022-03-14,2022-03-14,株式会社ＪＰＮコーポレーション,,株式会社,愛知県,名古屋市中区,丸の内１丁目１４番３２号,,23,106,4600002,,,,,,,2022-03-14,1,,,,,ジェーピーエヌコーポレーション,0
984,4200001039856,新規,0,2022-03-14,2022-03-14,株式会社イワコウ,,株式会社,岐阜県,羽島市,舟橋町１６４番地１,,21,209,5016302,,,,,,,2022-03-14,1,,,,,イワコウ,0
987,4230001019269,新規,0,2022-03-14,2022-03-14,株式会社ウオー,,株式会社,富山県,富山市,中央通り１丁目４－１６,,16,201,9300044,,,,,,,2022-03-14,1,,,,,ウオー,0
993,4250001019457,新規,0,2022-03-14,2022-03-14,株式会社ＫＤＹプロ,,株式会社,山口県,下関市,勝谷新町１丁目４番２１号,,35,201,7510802,,,,,,,2022-03-14,1,,,,,ケイディワイプロ,0
995,4260001036633,新規,0,2022-03-14,2022-03-14,株式会社ｏｆｆｉｃｅ　ｙｈ,,株式会社,岡山県,岡山市北区,富町１丁目７番２３号,,33,101,7000031,,,,,,,2022-03-14,1,,,,,オフィスワイエイチ,0
996,4260001036641,新規,0,2022-03-14,2022-03-14,ＡＣＣＥＮＴ．株式会社,,株式会社,岡山県,岡山市北区,青江１丁目１２番１８号,,33,101,7000941,,,,,,,2022-03-14,1,,,,,アクセント,0
1005,4290001096765,新規,0,2022-03-14,2022-03-14,株式会社野口いぐさ,,株式会社,福岡県,柳川市,矢加部５５番地１,,40,207,8320004,,,,,,,2022-03-14,1,,,,,ノグチイグサ,0
1006,4290001096781,新規,0,2022-03-14,2022-03-14,株式会社翔陽,,株式会社,福岡県,福岡市西区,石丸２丁目２８番１２号,,40,135,8190025,,,,,,,2022-03-14,1,,,,,ショウヨウ,0
1018,4320001018955,新規,0,2022-03-14,2022-03-14,株式会社誠章,,株式会社,大分県,別府市,大字北石垣１１１１番地の６,,44,202,8740000,,,,,,,2022-03-14,1,,,,,セイショウ,0
1020,4320003003749,新規,0,2022-03-14,2022-03-14,ローカルワーククリエイト合同会社,,合同会社,大分県,玖珠郡玖珠町,大字帆足２５８番地,,44,462,8794403,,,,,,,2022-03-14,1,,,,,ローカルワーククリエイト,0
1026,4330005010478,新規,0,2022-03-14,2022-03-14,一般社団法人アコウプロジェクト,,その他の設立登記法人,熊本県,天草市,御所浦町牧島２１９－２,,43,215,8660334,,,,,,,2022-03-14,1,,,,,アコウプロジェクト,0
1030,4350001017632,新規,0,2022-03-14,2022-03-14,株式会社ＹＳＫ１８,,株式会社,宮崎県,都城市,都島町１２０２番地１,,45,202,8850083,,,,,,,2022-03-14,1,,,,,ワイエスケーイチハチ,0
1032,4360001030122,新規,0,2022-03-14,2022-03-14,株式会社青秋セイサクショ,,株式会社,沖縄県,中頭郡北谷町,字砂辺１３番地２０２号,,47,326,9040111,,,,,,,2022-03-14,1,,,,,アオアキセイサクショ,0
1035,4370001048304,新規,0,2022-03-14,2022-03-14,株式会社佐藤興建,,株式会社,宮城県,石巻市,松原町１番２４号,,04,202,9862134,,,,,,,2022-03-14,1,,,,,サトウコウケン,0
1051,4430003013704,新規,0,2022-03-14,2022-03-14,ｎｏｉ合同会社,,合同会社,北海道,札幌市北区,北十八条西５丁目１－８,,01,102,0010018,,,,,,,2022-03-14,1,,,,,ノイ,0
1054,4430005014411,新規,0,2022-03-14,2022-03-14,医療法人社団おおはた内科循環器クリニック,,その他の設立登記法人,北海道,苫小牧市,三光町１丁目２番１１号,,01,213,0530042,,,,,,,2022-03-14,1,,,,,オオハタナイカジュンカンキクリニック,0
1076,5010001225160,新規,0,2022-03-14,2022-03-14,新生ホールディングス株式会社,,株式会社,東京都,文京区,千駄木３丁目５０番１３号,,13,105,1130022,,,,,,,2022-03-14,1,,,,,シンセイホールディングス,0
1082,5010003037224,新規,0,2022-03-14,2022-03-14,合同会社水谷彰宏アナウンス企画,,合同会社,東京都,文京区,本郷４丁目３２－９,,13,105,1130033,,,,,,,2022-03-14,1,,,,,ミズタニアキヒロアナウンスキカク,0
1083,5010003037232,新規,0,2022-03-14,2022-03-14,合同会社Ｓｋｙ　Ｂｅａｎｓ,,合同会社,東京都,中央区,八丁堀２丁目３０番１３－３０１号,,13,102,1040032,,,,,,,2022-03-14,1,,,,,スカイビーンズ,0
1092,5010401166153,新規,0,2022-03-14,2022-03-14,株式会社ＳＨＩＦＴグロース・キャピタル,,株式会社,東京都,港区,麻布台２丁目４番５号メソニック３９ＭＴビル,,13,103,1060041,,,,,,,2022-03-14,1,,,,,シフトグロースキャピタル,0
1097,5010601060825,新規,0,2022-03-14,2022-03-14,東成株式会社,,株式会社,東京都,墨田区,錦糸４丁目１０番９－１４０５号,,13,107,1300013,,,,,,,2022-03-14,1,,,,,トウセイ,0
1098,5010603009440,新規,0,2022-03-14,2022-03-14,合同会社ベレロ,,合同会社,東京都,江東区,有明１丁目４番２０－１６２１号,,13,108,1350063,,,,,,,2022-03-14,1,,,,,ベレロ,0
1099,5010701042376,新規,0,2022-03-14,2022-03-14,ｇｉｖｉｎｇ株式会社,,株式会社,東京都,品川区,大崎３丁目１４番１４号ＭａｒｉｎｅＣｏｖｅ３０３,,13,109,1410032,,,,,,,2022-03-14,1,,,,,ギビング,0
1103,5010901050501,新規,0,2022-03-14,2022-03-14,株式会社ＷＡＬＡＢＩ,,株式会社,東京都,世田谷区,北沢３丁目２６番１５号,,13,112,1550031,,,,,,,2022-03-14,1,,,,,ワラビ,0
1112,5011001146207,新規,0,2022-03-14,2022-03-14,ＨＩＫ株式会社,,株式会社,東京都,渋谷区,代官山町１３番８号キャッスルマンション代官山５１３号,,13,113,1500034,,,,,,,2022-03-14,1,,,,,エイチアイケー,0
1113,5011003014345,新規,0,2022-03-14,2022-03-14,合同会社アルバトロス,,合同会社,東京都,目黒区,自由が丘１丁目１４－１５－６Ｆ,,13,110,1520035,,,,,,,2022-03-14,1,,,,,アルバトロス,0
1114,5011101097977,新規,0,2022-03-14,2022-03-14,株式会社センテンスランド,,株式会社,東京都,新宿区,西新宿３丁目１５番５－８０６号,,13,104,1600023,,,,,,,2022-03-14,1,,,,,センテンスランド,0
1115,5011301027627,新規,0,2022-03-14,2022-03-14,株式会社Ｂ・Ｆ,,株式会社,東京都,杉並区,高円寺南４丁目７番４号１階,,13,115,1660003,,,,,,,2022-03-14,1,,,,,ビーエフ,0
1118,5011805003157,新規,0,2022-03-14,2022-03-14,医療法人社団翠皓会,,その他の設立登記法人,東京都,足立区,中央本町２丁目２４番１８号五反野藤やビル１階,,13,121,1200011,,,,,,,2022-03-14,1,,,,,スイコウカイ,0
1128,5013103001116,新規,0,2022-03-14,2022-03-14,けんたろす・ふぁみりー合同会社,,合同会社,東京都,あきる野市,雨間２３０番地３,,13,228,1970825,,,,,,,2022-03-14,1,,,,,ケンタロスファミリー,0
1143,5020001145630,新規,0,2022-03-14,2022-03-14,Ｃｏｍ　Ｕ株式会社,,株式会社,神奈川県,横浜市旭区,中希望が丘１４８番地１,,14,112,2410825,,,,,,,2022-03-14,1,,,,,コムユー,0
1144,5020001145647,新規,0,2022-03-14,2022-03-14,株式会社塚本工務店,,株式会社,神奈川県,横浜市金沢区,洲崎町１１番２７号,,14,108,2360028,,,,,,,2022-03-14,1,,,,,ツカモトコウムテン,0
1145,5020003021441,新規,0,2022-03-14,2022-03-14,Ｌｅａｆ合同会社,,合同会社,神奈川県,川崎市多摩区,登戸３３７５番地１第２ＴＳＳビル５０３,,14,135,2140014,,,,,,,2022-03-14,1,,,,,リーフ,0
1149,5021001075413,新規,0,2022-03-14,2022-03-14,株式会社ＡＮＰＡＳ,,株式会社,神奈川県,相模原市南区,若松１丁目１７番１７号,,14,153,2520334,,,,,,,2022-03-14,1,,,,,アンパス,0
1150,5021001075421,新規,0,2022-03-14,2022-03-14,株式会社エステルノ,,株式会社,神奈川県,小田原市,扇町３丁目３０－７,,14,206,2500001,,,,,,,2022-03-14,1,,,,,エステルノ,0
1156,5030001147254,新規,0,2022-03-14,2022-03-14,株式会社ＬＦＧ,,株式会社,埼玉県,さいたま市南区,松本２丁目２２番５号,,11,108,3360035,,,,,,,2022-03-14,1,,,,,エルエフジー,0
1157,5030001147262,新規,0,2022-03-14,2022-03-14,株式会社アラム,,株式会社,埼玉県,草加市,稲荷６丁目１６番１１－１０７号,,11,221,3400003,,,,,,,2022-03-14,1,,,,,アラム,0
1165,5040001122603,新規,0,2022-03-14,2022-03-14,株式会社松戸土地建物,,株式会社,千葉県,松戸市,小根本９１番地の１クィーンシティ松戸２０６号,,12,207,2710073,,,,,,,2022-03-14,1,,,,,マツドトチタテモノ,0
1166,5040001122611,新規,0,2022-03-14,2022-03-14,株式会社カノア,,株式会社,千葉県,八街市,富山１３１４番地３６９０,,12,230,2891141,,,,,,,2022-03-14,1,,,,,カノア,0
1171,5040003019632,新規,0,2022-03-14,2022-03-14,アカヤマ・コンサルティング合同会社,,合同会社,千葉県,船橋市,夏見２丁目１０－１０－２０６,,12,204,2730865,,,,,,,2022-03-14,1,,,,,アカヤマコンサルティング,0
1172,5040003019665,新規,0,2022-03-14,2022-03-14,ＫＡＺＵＮＯ　ＭＯＴＯＲＳ合同会社,,合同会社,千葉県,山武市,小松２６２６番地５,,12,237,2891302,,,,,,,2022-03-14,1,,,,,カズノモータース,0
1173,5040003019673,新規,0,2022-03-14,2022-03-14,ＤＮＳコロンボ合同会社,,合同会社,千葉県,香取市,佐原ホ１２４１番地２,,12,236,2870005,,,,,,,2022-03-14,1,,,,,ディーエヌエスコロンボ,0
1174,5040005021529,新規,0,2022-03-14,2022-03-14,特定非営利活動法人ハッピーハンドフレンズ,,その他の設立登記法人,千葉県,成田市,橋賀台１丁目１番地（２棟５０７号）,,12,211,2860037,,,,,,,2022-03-14,1,,,,,ハッピーハンドフレンズ,0
1181,5070003004400,新規,0,2022-03-14,2022-03-14,ＳＴＪ合同会社,,合同会社,群馬県,邑楽郡大泉町,大字坂田２６３番地の３・２Ｄ,,10,524,3700532,,,,,,,2022-03-14,1,,,,,エスティジェイ,0
1187,5080105006228,新規,0,2022-03-14,2022-03-14,一般社団法人ホテル旅館売却サイト,,その他の設立登記法人,静岡県,熱海市,梅園町１９番地６号,,22,205,4130032,,,,,,,2022-03-14,1,,,,,ホテルリョカンバイキャクサイト,0
1200,5120001244430,新規,0,2022-03-14,2022-03-14,株式会社Ｃｌａｓｓｉｃｏ,,株式会社,大阪府,守口市,八雲西町４丁目８番１－２０１号,,27,209,5700006,,,,,,,2022-03-14,1,,,,,クラシコ,0
1201,5120001244447,新規,0,2022-03-14,2022-03-14,株式会社トラストチャーム,,株式会社,大阪府,大阪市北区,梅田１丁目１２－１７ＪＲＥ梅田スクエアビル１階,,27,127,5300001,,,,,,,2022-03-14,1,,,,,トラストチャーム,0
1202,5120001244463,新規,0,2022-03-14,2022-03-14,株式会社Ａｌｉｖｅ,,株式会社,大阪府,大阪市住之江区,住之江１丁目２番２４号ライズ住之江１Ｆ,,27,125,5590004,,,,,,,2022-03-14,1,,,,,アライブ,0
1212,5122001035660,新規,0,2022-03-14,2022-03-14,株式会社ＲＩＺＥ,,株式会社,大阪府,大東市,南津の辺町２０番１１号クリアネスＫ・Ｙ１０２号,,27,218,5740016,,,,,,,2022-03-14,1,,,,,ライズ,0
1224,5140001125249,新規,0,2022-03-14,2022-03-14,淡路島観光株式会社,,株式会社,兵庫県,洲本市,安乎町平安浦４０番地６,,28,205,6562121,,,,,,,2022-03-14,1,,,,,アワジシマカンコウ,0
1240,5190001029222,新規,0,2022-03-14,2022-03-14,株式会社Ｆｏｇ,,株式会社,三重県,多気郡明和町,大字明星２５４０番地２８,,24,442,5150313,,,,,,,2022-03-14,1,,,,,フォグ,0
1247,5230003001819,新規,0,2022-03-14,2022-03-14,合同会社便利屋ハマー,,合同会社,富山県,富山市,窪新町６－４５－１０３パナメゾン窪新町,,16,201,9300842,,,,,,,2022-03-14,1,,,,,ベンリヤハマー,0
1253,5240003005546,新規,0,2022-03-14,2022-03-14,合同会社ひとのみち大學,,合同会社,広島県,広島市佐伯区,美鈴が丘東４丁目２３番１１号,,34,108,7315111,,,,,,,2022-03-14,1,,,,,ヒトノミチダイガク,0
1263,5290001096566,新規,0,2022-03-14,2022-03-14,株式会社Ｓｐｏｒｔｓ　ｆｏｒ　ＬＩＦＥ,,株式会社,福岡県,福岡市東区,社領１丁目８番１号,,40,131,8120068,,,,,,,2022-03-14,1,,,,,スポーツフォーライフ,0
1264,5290001096748,新規,0,2022-03-14,2022-03-14,豊琳株式会社,,株式会社,福岡県,福岡市博多区,博多駅中央街８番１号,,40,132,8120012,,,,,,,2022-03-14,1,,,,,ホウリン,0
1265,5290001096764,新規,0,2022-03-14,2022-03-14,株式会社俊技工業,,株式会社,福岡県,福岡市南区,野間２丁目１１番１－３０３号,,40,134,8150041,,,,,,,2022-03-14,1,,,,,シュンギコウギョウ,0
1271,5290805009533,新規,0,2022-03-14,2022-03-14,医療法人高見歯科医院,,その他の設立登記法人,福岡県,北九州市八幡東区,高見２丁目８－６,,40,108,8050016,,,,,,,2022-03-14,1,,,,,タカミシカイイン,0
1274,5330001029538,新規,0,2022-03-14,2022-03-14,株式会社ブラックスター,,株式会社,熊本県,荒尾市,大島町３丁目３番８号カーサアバンツァート２０１号,,43,204,8640051,,,,,,,2022-03-14,1,,,,,ブラックスター,0
1282,5360001030047,新規,0,2022-03-14,2022-03-14,株式会社Ｒｅｆｒｏｎ,,株式会社,沖縄県,那覇市,久茂地１丁目１番地１パレットくもじ９階,,47,201,9000015,,,,,,,2022-03-14,1,,,,,リフロン,0
1283,5360005006613,新規,0,2022-03-14,2022-03-14,一般社団法人ＳＣＢ　ＣａｔｓＷａｌｋ,,その他の設立登記法人,沖縄県,中頭郡読谷村,字宇座１８６１番,,47,324,9040328,,,,,,,2022-03-14,1,,,,,エスシービーキャッツワォーク,0
1300,5430001086172,新規,0,2022-03-14,2022-03-14,株式会社Ｐａｕｌｏｎｉａ,,株式会社,北海道,札幌市中央区,宮の森三条４丁目６番７－１０１号,,01,101,0640953,,,,,,,2022-03-14,1,,,,,パウロニア,0
1302,5430003013694,新規,0,2022-03-14,2022-03-14,北の合同会社,,合同会社,北海道,札幌市白石区,北郷一条１１丁目２番１１号,,01,104,0030831,,,,,,,2022-03-14,1,,,,,キタノ,0
1317,5700150107395,新規,0,2022-03-14,2022-03-14,松江市乃白田和土地区画整理組合,,その他,島根県,松江市,乃白町９５番地２,,32,201,6900045,,,,,,,2022-03-14,1,,,,,マツエシノシラタワトチクカクセイリクミアイ,0
1330,6010001225192,新規,0,2022-03-14,2022-03-14,株式会社ＡＡ＆Ｏ,,株式会社,東京都,文京区,本駒込６丁目５番１１－３０５号,,13,105,1130021,,,,,,,2022-03-14,1,,,,,エーエーアンドオー,0
1338,6010003037207,新規,0,2022-03-14,2022-03-14,合同会社ｃｏｌｏｕｒ,,合同会社,東京都,中央区,銀座１丁目２２－１１銀座大竹ビジデンス２Ｆ,,13,102,1040061,,,,,,,2022-03-14,1,,,,,カラー,0
1339,6010003037231,新規,0,2022-03-14,2022-03-14,火木林合同会社,,合同会社,東京都,中央区,銀座１丁目２２番１１号銀座大竹ビジデンス２階,,13,102,1040061,,,,,,,2022-03-14,1,,,,,ヒキリン,0
1346,6010405020792,新規,0,2022-03-14,2022-03-14,特定非営利活動法人ＳＤＧｓ日本語学習者応援プロジェクト,,その他の設立登記法人,東京都,港区,南青山２丁目２番１５号,,13,103,1070062,,,,,,,2022-03-14,1,,,,,エスディージーズニホンゴガクシュウシャオウエンプロジェクト,0
1349,6010501048580,新規,0,2022-03-14,2022-03-14,株式会社友愛,,株式会社,東京都,台東区,千束４丁目２５番１３号,,13,106,1110031,,,,,,,2022-03-14,1,,,,,ユウアイ,0
1355,6010701042375,新規,0,2022-03-14,2022-03-14,株式会社ＣＯＮＮＥＣＴＯＲ７５,,株式会社,東京都,品川区,荏原４丁目１２番１９号,,13,109,1420063,,,,,,,2022-03-14,1,,,,,コネクターナナジュウゴ,0
1360,6010901050509,新規,0,2022-03-14,2022-03-14,株式会社ぽんちくりん,,株式会社,東京都,世田谷区,上用賀４丁目１番１７号,,13,112,1580098,,,,,,,2022-03-14,1,,,,,ポンチクリン,0
1361,6010903007226,新規,0,2022-03-14,2022-03-14,合同会社ＡＳコーポレーション,,合同会社,東京都,世田谷区,松原１丁目５７番１０号,,13,112,1560043,,,,,,,2022-03-14,1,,,,,エーエスコーポレーション,0
1366,6011001146197,新規,0,2022-03-14,2022-03-14,株式会社群青商会,,株式会社,東京都,渋谷区,神宮前６丁目２３番４号桑野ビル２階,,13,113,1500001,,,,,,,2022-03-14,1,,,,,グンジョウショウカイ,0
1367,6011001146214,新規,0,2022-03-14,2022-03-14,株式会社リリアナモデルズ,,株式会社,東京都,渋谷区,神南１丁目１２番１４号,,13,113,1500041,,,,,,,2022-03-14,1,,,,,リリアナモデルズ,0
1370,6011003014261,新規,0,2022-03-14,2022-03-14,木村グローバルマーケティング合同会社,,合同会社,東京都,渋谷区,恵比寿南１丁目１番１号ＨｕｍａｘＥｂｉｓｕビル８階,,13,113,1500022,,,,,,,2022-03-14,1,,,,,キムラグローバルマーケティング,0
1372,6011101098066,新規,0,2022-03-14,2022-03-14,ｆａｍｍｕｕ株式会社,,株式会社,東京都,新宿区,大京町２６－１,,13,104,1600015,,,,,,,2022-03-14,1,,,,,ファミュー,0
1373,6011101098082,新規,0,2022-03-14,2022-03-14,株式会社ＹＯＨＡＫＵ,,株式会社,東京都,新宿区,袋町５番地１ＦＡＲＯ神楽坂１階,,13,104,1620828,,,,,,,2022-03-14,1,,,,,ヨハク,0
1374,6011101098099,新規,0,2022-03-14,2022-03-14,株式会社丸一不動産,,株式会社,東京都,新宿区,新宿１丁目１０番２号,,13,104,1600022,,,,,,,2022-03-14,1,,,,,マルイチフドウサン,0
1379,6011603003548,新規,0,2022-03-14,2022-03-14,合同会社実意丁寧,,合同会社,東京都,練馬区,西大泉５丁目２５番１８号,,13,120,1780065,,,,,,,2022-03-14,1,,,,,ジツイテイネイ,0
1388,6012801021457,新規,0,2022-03-14,2022-03-14,株式会社リハラボ,,株式会社,東京都,立川市,若葉町１丁目９番地の１－１０１,,13,202,1900001,,,,,,,2022-03-14,1,,,,,リハラボ,0
1390,6013103001115,新規,0,2022-03-14,2022-03-14,Ｄｒａｗｉｎｇ合同会社,,合同会社,東京都,福生市,大字福生２４６６番地１,,13,218,1970011,,,,,,,2022-03-14,1,,,,,ドローイング,0
1393,6020001145662,新規,0,2022-03-14,2022-03-14,アトリエＭ株式会社,,株式会社,神奈川県,横浜市金沢区,釜利谷南１丁目３番,,14,108,2360045,,,,,,,2022-03-14,1,,,,,アトリエエム,0
1396,6020003021440,新規,0,2022-03-14,2022-03-14,さかなやＹＹコンサルティング合同会社,,合同会社,神奈川県,横浜市神奈川区,栄町１０番３５－Ｅ３１０２号,,14,102,2210052,,,,,,,2022-03-14,1,,,,,サカナヤワイワイコンサルティング,0
1397,6021001075412,新規,0,2022-03-14,2022-03-14,株式会社ディーゼルサービス,,株式会社,神奈川県,横須賀市,池上７丁目１０番３号池上ハイツ２０２,,14,201,2380035,,,,,,,2022-03-14,1,,,,,ディーゼルサービス,0
1398,6021003011472,新規,0,2022-03-14,2022-03-14,ｍｅｔｅｏｒＡ合同会社,,合同会社,神奈川県,座間市,南栗原１丁目３番１‐２０１号,,14,216,2520015,,,,,,,2022-03-14,1,,,,,ミーティアエース,0
1408,6030001147237,新規,0,2022-03-14,2022-03-14,株式会社ＳＴＰ,,株式会社,埼玉県,八潮市,八潮８丁目６番地２２,,11,234,3400815,,,,,,,2022-03-14,1,,,,,エスティーピー,0
1409,6030001147245,新規,0,2022-03-14,2022-03-14,株式会社魚一,,株式会社,埼玉県,吉川市,保１丁目３１番地１４,,11,243,3420041,,,,,,,2022-03-14,1,,,,,ウオイチ,0
1416,6040001122602,新規,0,2022-03-14,2022-03-14,株式会社ＴＴＥ,,株式会社,千葉県,我孫子市,天王台１丁目２０－９中村ビル３階,,12,222,2701143,,,,,,,2022-03-14,1,,,,,ティーティーイー,0
1417,6040001122610,新規,0,2022-03-14,2022-03-14,株式会社猫舌,,株式会社,千葉県,千葉市中央区,登戸５丁目１７番３号,,12,101,2600032,,,,,,,2022-03-14,1,,,,,ネコジタ,0
1427,6050001050777,新規,0,2022-03-14,2022-03-14,株式会社根本製作所,,株式会社,茨城県,常総市,小山戸町８番地４,,08,211,3030006,,,,,,,2022-03-14,1,,,,,ネモトセイサクジョ,0
1428,6050001050793,新規,0,2022-03-14,2022-03-14,株式会社日本納豆キナーゼ研究所,,株式会社,茨城県,つくば市,学園の森２丁目１４番地３７号,,08,220,3050816,,,,,,,2022-03-14,1,,,,,ニホンナットウキナーゼケンキュウショ,0
1432,6060001034655,新規,0,2022-03-14,2022-03-14,株式会社ココカラ,,株式会社,栃木県,真岡市,並木町４丁目５番地３,,09,209,3214361,,,,,,,2022-03-14,1,,,,,ココカラ,0
1440,6080003002757,新規,0,2022-03-14,2022-03-14,合同会社ＷＩＮＧＳ,,合同会社,静岡県,静岡市葵区,鷹匠３丁目３－１井口ビル３階,,22,101,4200839,,,,,,,2022-03-14,1,,,,,ウィングス,0
1442,6090003002062,新規,0,2022-03-14,2022-03-14,合同会社ＭＫＣ,,合同会社,山梨県,甲府市,北口１丁目１番８号甲府北口ビル,,19,201,4000024,,,,,,,2022-03-14,1,,,,,エムケイシー,0
1450,6110001036497,新規,0,2022-03-14,2022-03-14,株式会社Ｓサービス,,株式会社,新潟県,長岡市,曙１丁目３番地２０,,15,202,9400832,,,,,,,2022-03-14,1,,,,,エスサービス,0
1461,6120001244446,新規,0,2022-03-14,2022-03-14,株式会社ＡＰＥＸ国際,,株式会社,大阪府,大阪市中央区,高津１丁目９－１０インテリジェンスビル５０５号室,,27,128,5420072,,,,,,,2022-03-14,1,,,,,アペクスコクサイ,0
1465,6120901045712,新規,0,2022-03-14,2022-03-14,株式会社Ｆｒｏｎｔ‐Ｒｏｗ,,株式会社,大阪府,茨木市,東太田３丁目１番８－４１９号,,27,211,5670012,,,,,,,2022-03-14,1,,,,,フロントロウ,0
1473,6130001071336,新規,0,2022-03-14,2022-03-14,株式会社舞,,株式会社,京都府,八幡市,橋本興正９－１４,,26,210,6148323,,,,,,,2022-03-14,1,,,,,マイ,0
1474,6130003007809,新規,0,2022-03-14,2022-03-14,合同会社Ｓ　ａｎｄ　Ｗ　Ａｓｓｏｃｉａｔｅｓ,,合同会社,京都府,京都市上京区,晴明町８２３－２アベルティ堀川一条２０３,,26,102,6028222,,,,,,,2022-03-14,1,,,,,エスアンドダブリュアソシエーツ,0
1477,6140001125223,新規,0,2022-03-14,2022-03-14,ＴＲＥＫ株式会社,,株式会社,兵庫県,加古川市,加古川町河原３５９番地の７,,28,210,6750067,,,,,,,2022-03-14,1,,,,,トレック,0
1478,6140001125256,新規,0,2022-03-14,2022-03-14,地産開発株式会社,,株式会社,兵庫県,芦屋市,春日町２４番８号ゲマインシャフト芦屋３０１,00125960,28,206,6590021,,,,,,,2022-03-14,1,,,,,チサンカイハツ,0
1480,6140003017451,新規,0,2022-03-14,2022-03-14,合同会社目黒開発,,合同会社,兵庫県,神戸市中央区,元町通４丁目６番７号,,28,110,6500022,,,,,,,2022-03-14,1,,,,,メグロカイハツ,0
1485,6160001024043,新規,0,2022-03-14,2022-03-14,株式会社ミャクアート,,株式会社,滋賀県,甲賀市,水口町元町９番４７号,,25,209,5280006,,,,,,,2022-03-14,1,,,,,ミャクアート,0
1496,6180001150382,新規,0,2022-03-14,2022-03-14,株式会社Ｎｐｌｕｓ不動産,,株式会社,愛知県,知多郡阿久比町,大字卯坂字上向田４５番地１,,23,441,4702212,,,,,,,2022-03-14,1,,,,,エヌプラスフドウサン,0
1497,6180001150399,新規,0,2022-03-14,2022-03-14,株式会社ホリック,,株式会社,愛知県,清須市,上条２丁目２番地１５,,23,233,4520944,,,,,,,2022-03-14,1,,,,,ホリック,0
1505,6200001039854,新規,0,2022-03-14,2022-03-14,株式会社ＯＮＥ,,株式会社,岐阜県,土岐市,土岐津町土岐口２２５５番地の２５０,,21,212,5095122,,,,,,,2022-03-14,1,,,,,ワン,0
1506,6230003001818,新規,0,2022-03-14,2022-03-14,合同会社たむら,,合同会社,富山県,富山市,婦中町下轡田１３９番地１,,16,201,9392716,,,,,,,2022-03-14,1,,,,,タムラ,0
1508,6240003005553,新規,0,2022-03-14,2022-03-14,合同会社久保工務店,,合同会社,広島県,広島市安佐北区,可部９丁目３６番２号,,34,106,7310221,,,,,,,2022-03-14,1,,,,,クボコウムテン,0
1511,6260003003836,新規,0,2022-03-14,2022-03-14,合同会社ＳＯＷＡＫＡ,,合同会社,岡山県,岡山市南区,藤田７７５番地５８,,33,104,7010221,,,,,,,2022-03-14,1,,,,,ソワカ,0
1515,6290001096763,新規,0,2022-03-14,2022-03-14,株式会社ＹＯＮＥ式,,株式会社,福岡県,筑紫野市,湯町１丁目６番１３号,,40,217,8180058,,,,,,,2022-03-14,1,,,,,ヨネシキ,0
1523,6310005008596,新規,0,2022-03-14,2022-03-14,医療法人ＷａｎｉＷａｎｉ,,その他の設立登記法人,長崎県,長崎市,下西山町３番７号,,42,201,8500004,,,,,,,2022-03-14,1,,,,,ワニワニ,0
1528,6330001029537,新規,0,2022-03-14,2022-03-14,株式会社アクシアファイブ,,株式会社,熊本県,熊本市中央区,上通町９番地２１－７０３,,43,101,8600845,,,,,,,2022-03-14,1,,,,,アクシアファイブ,0
1561,6462501000930,新規,0,2022-03-14,2022-03-14,株式会社ＤａｉｒｙＦａｒｍ本田,,株式会社,北海道,標津郡中標津町,字計根別五十線６３番地４,,01,692,0882682,,,,,,,2022-03-14,1,,,,,デイリーファームホンダ,0
1569,6700150107386,新規,0,2022-03-14,2022-03-14,Ｐ．Ａ．Ｒ．ＭＡＲＫＥＴＩＮＧ　ＩＮＣ,,外国会社等,東京都,中央区,銀座８丁目２１番１号汐留浜離宮ビル２０階,,13,102,1040061,カナダ、ケベック州トロワ・リヴィエール市フォージュ通り４１９番地２５,,,,,,2022-03-14,1,,,,,ピーエーアールマーケテイングインク,0
1582,7010003037222,新規,0,2022-03-14,2022-03-14,小野デジタルヘルス投資合同会社,,合同会社,東京都,中央区,日本橋本町４丁目９番１１号,,13,102,1030023,,,,,,,2022-03-14,1,,,,,オノデジタルヘルストウシ,0
1583,7010003037230,新規,0,2022-03-14,2022-03-14,ｔｍコーポレーション合同会社,,合同会社,東京都,中央区,東日本橋２丁目２８番４号日本橋ＣＥＴビル２階,,13,102,1030004,,,,,,,2022-03-14,1,,,,,ティーエムコーポレーション,0
1584,7010003037239,新規,0,2022-03-14,2022-03-14,グランドアドベンチャー合同会社,,合同会社,東京都,中央区,銀座１丁目１２－４Ｎ＆ＥＢＬＤ．７階,,13,102,1040061,,,,,,,2022-03-14,1,,,,,グランドアドベンチャー,0
1595,7010405020791,新規,0,2022-03-14,2022-03-14,一般社団法人未来産業事業化推進センター,,その他の設立登記法人,東京都,港区,赤坂２丁目１０番１４号,,13,103,1070052,,,,,,,2022-03-14,1,,,,,,0
1596,7010601060823,新規,0,2022-03-14,2022-03-14,株式会社シティインデックスキャピタル,,株式会社,東京都,江東区,豊洲２丁目５番１号,,13,108,1350061,,,,,,,2022-03-14,1,,,,,シティインデックスキャピタル,0
1602,7010701042374,新規,0,2022-03-14,2022-03-14,株式会社ｕｌｕ,,株式会社,東京都,品川区,西五反田４丁目３０番７号飯泉ビル２階,,13,109,1410031,,,,,,,2022-03-14,1,,,,,ウル,0
1609,7010901050508,新規,0,2022-03-14,2022-03-14,株式会社格,,株式会社,東京都,世田谷区,瀬田２丁目２１番４号－５,,13,112,1580095,,,,,,,2022-03-14,1,,,,,カク,0
1618,7011003014260,新規,0,2022-03-14,2022-03-14,合同会社パーパス,,合同会社,東京都,渋谷区,道玄坂１丁目１０－８渋谷道玄坂東急ビル２Ｆ－Ｃ,,13,113,1500043,,,,,,,2022-03-14,1,,,,,パーパス,0
1620,7011101098040,新規,0,2022-03-14,2022-03-14,日本安冉安防株式会社,,株式会社,東京都,新宿区,歌舞伎町２丁目２５番８号,,13,104,1600021,,,,,,,2022-03-14,1,,,,,ニホンアンゼンアンボウ,0
1621,7011101098081,新規,0,2022-03-14,2022-03-14,株式会社ｅｔｏｍｏｊｉ,,株式会社,東京都,新宿区,袋町５番地１ＦＡＲＯ神楽坂１階,,13,104,1620828,,,,,,,2022-03-14,1,,,,,エトモジ,0
1622,7011101098115,新規,0,2022-03-14,2022-03-14,株式会社Ｆｉｒｓｔ,,株式会社,東京都,新宿区,北新宿３丁目２番１号,,13,104,1690074,,,,,,,2022-03-14,1,,,,,ファースト,0
1623,7011103011562,新規,0,2022-03-14,2022-03-14,合同会社パインツリー,,合同会社,東京都,新宿区,四谷１丁目６番１号四谷タワー８階,,13,104,1600004,,,,,,,2022-03-14,1,,,,,パインツリー,0
1628,7011603003547,新規,0,2022-03-14,2022-03-14,合同会社ベルシュライン,,合同会社,東京都,練馬区,練馬１丁目２０番８号日建練馬ビル２階,,13,120,1760001,,,,,,,2022-03-14,1,,,,,ベルシュライン,0
1629,7011701025121,新規,0,2022-03-14,2022-03-14,ＤａｔａＬａｂ株式会社,,株式会社,東京都,江戸川区,篠崎町６丁目１９番１３号,,13,123,1330061,,,,,,,2022-03-14,1,,,,,データラボ,0
1632,7011801040441,新規,0,2022-03-14,2022-03-14,株式会社タクミック,,株式会社,東京都,足立区,西新井３丁目４番７号,,13,121,1230841,,,,,,,2022-03-14,1,,,,,タクミック,0
1633,7012301012914,新規,0,2022-03-14,2022-03-14,株式会社青葉,,株式会社,東京都,町田市,玉川学園７丁目２０番８号,,13,209,1940041,,,,,,,2022-03-14,1,,,,,アオバ,0
1634,7012301012922,新規,0,2022-03-14,2022-03-14,株式会社ＲＥＡＬＩＺＥ,,株式会社,東京都,町田市,南成瀬１丁目８番地８南成瀬テラス７０４,,13,209,1940045,,,,,,,2022-03-14,1,,,,,リアライズ,0
1640,7012803002727,新規,0,2022-03-14,2022-03-14,合同会社フィオーレ,,合同会社,東京都,立川市,錦町１丁目４番４号サニービル２Ｆ－ＣＳ－１３８,,13,202,1900022,,,,,,,2022-03-14,1,,,,,フィオーレ,0
1643,7013301048741,新規,0,2022-03-14,2022-03-14,ヘルシーテック株式会社,,株式会社,東京都,豊島区,南池袋２丁目４９－７池袋パークビル,,13,116,1710022,,,,,,,2022-03-14,1,,,,,ヘルシーテック,0
1644,7013301048808,新規,0,2022-03-14,2022-03-14,株式会社ｉｓｌａｎｄ８０,,株式会社,東京都,豊島区,北大塚２丁目７－７第５市田ビル４階,00125961,13,116,1700004,,,,,,,2022-03-14,1,,,,,アイランドエイティ,0
1649,7020005015415,新規,0,2022-03-14,2022-03-14,特定非営利活動法人Ｏｎｌｙ　Ｌｉｖｅ　Ｏｎｃｅ,,その他の設立登記法人,神奈川県,横浜市磯子区,磯子６丁目２４番１３号,,14,107,2350016,,,,,,,2022-03-14,1,,,,,オンリーリブワンス,0
1652,7021001075378,新規,0,2022-03-14,2022-03-14,インターネット商店街株式会社,,株式会社,神奈川県,座間市,相模が丘１丁目１８番３９－４０４号メゾンカメリヤ,,14,216,2520001,,,,,,,2022-03-14,1,,,,,インターネットショウテンガイ,0
1660,7030001147244,新規,0,2022-03-14,2022-03-14,株式会社八木八,,株式会社,埼玉県,戸田市,本町４丁目１３番４号,,11,224,3350023,,,,,,,2022-03-14,1,,,,,ヤギヤ,0
1669,7040001122592,新規,0,2022-03-14,2022-03-14,株式会社スーリール,,株式会社,千葉県,八街市,朝日１５４番地４５,,12,230,2891101,,,,,,,2022-03-14,1,,,,,スーリール,0
1670,7040001122601,新規,0,2022-03-14,2022-03-14,Ｄ・Ｆ株式会社,,株式会社,千葉県,柏市,千代田２丁目１２－３マンション藤１０５号,,12,217,2770025,,,,,,,2022-03-14,1,,,,,ディーエフ,0
1672,7040005021543,新規,0,2022-03-14,2022-03-14,一般社団法人結,,その他の設立登記法人,千葉県,市川市,八幡５丁目７番１８号,,12,203,2720021,,,,,,,2022-03-14,1,,,,,ユイ,0
1675,7050001050768,新規,0,2022-03-14,2022-03-14,株式会社ｂｒｉｄｇｅ,,株式会社,茨城県,水戸市,宮町１丁目２番４号ＭＹＭビル３Ｆ、ＢＩＺｃｏｍｆｏｒｔ水戸,,08,201,3100015,,,,,,,2022-03-14,1,,,,,ブリッジ,0
1676,7050001050776,新規,0,2022-03-14,2022-03-14,株式会社ＧＡＫＩＧＥＮ　ＧＲＯＵＰ,,株式会社,茨城県,神栖市,大野原１丁目２番３１号,,08,232,3140144,,,,,,,2022-03-14,1,,,,,ガキゲングループ,0
1677,7050001050784,新規,0,2022-03-14,2022-03-14,株式会社ユア・カーコーポレーション,,株式会社,茨城県,結城市,大字結城１１９０２番地１,,08,207,3070001,,,,,,,2022-03-14,1,,,,,ユアカーコーポレーション,0
1678,7050001050792,新規,0,2022-03-14,2022-03-14,株式会社梅ねこ家,,株式会社,茨城県,つくば市,手子生１１１０番地,,08,220,3002647,,,,,,,2022-03-14,1,,,,,ウメネコヤ,0
1701,7120001244429,新規,0,2022-03-14,2022-03-14,Ｌｉｎｋ・Ｈｏｍｅ株式会社,,株式会社,大阪府,大阪市北区,西天満３丁目６番２２号北大阪屋ビル３０６,,27,127,5300047,,,,,,,2022-03-14,1,,,,,リンクホーム,0
1702,7120001244437,新規,0,2022-03-14,2022-03-14,株式会社スリーノーヴェ,,株式会社,大阪府,大阪市西区,江戸堀２丁目１－１江戸堀センタービル９階,,27,106,5500002,,,,,,,2022-03-14,1,,,,,スリーノーヴェ,0
1703,7120003021280,新規,0,2022-03-14,2022-03-14,合同会社ｆ．ｖｅ,,合同会社,大阪府,大阪市西区,靱本町１丁目７番９号１Ｆ,,27,106,5500004,,,,,,,2022-03-14,1,,,,,ファイブ,0
1708,7120101065221,新規,0,2022-03-14,2022-03-14,株式会社Ｋｎｏｔ,,株式会社,大阪府,泉北郡忠岡町,北出２丁目１５番１７号ブリックガーデン１,,27,341,5950803,,,,,,,2022-03-14,1,,,,,ノット,0
1721,7130001071335,新規,0,2022-03-14,2022-03-14,日本建物企画株式会社,,株式会社,京都府,京都市南区,上鳥羽塔ノ森東向町９３番地５,,26,107,6018151,,,,,,,2022-03-14,1,,,,,ニホンタテモノキカク,0
1723,7130003007808,新規,0,2022-03-14,2022-03-14,インセンスフラット合同会社,,合同会社,京都府,京都市左京区,北白川上池田町１－４,,26,103,6068287,,,,,,,2022-03-14,1,,,,,インセンスフラット,0
1724,7130005016410,新規,0,2022-03-14,2022-03-14,社会福祉法人ふきのとう,,その他の設立登記法人,京都府,綾部市,岡町長田３番地の１,,26,203,6230042,,,,,,,2022-03-14,1,,,,,フキノトウ,0
1733,7140001125247,新規,0,2022-03-14,2022-03-14,株式会社ｎａｃｃｏ,,株式会社,兵庫県,神戸市東灘区,住吉宮町３丁目１４番１３号ジュピタービル３０２号室,,28,101,6580053,,,,,,,2022-03-14,1,,,,,ナッコ,0
1734,7140003017418,新規,0,2022-03-14,2022-03-14,１９７９合同会社,,合同会社,兵庫県,神戸市中央区,国香通２丁目２番４－４０６号,,28,110,6510066,,,,,,,2022-03-14,1,,,,,イチキュウナナキュウ,0
1758,7230001019274,新規,0,2022-03-14,2022-03-14,株式会社ｉ　ａｍ,,株式会社,富山県,富山市,大泉東町１丁目９番１号,,16,201,9398093,,,,,,,2022-03-14,1,,,,,アイアム,0
1764,7250001019454,新規,0,2022-03-14,2022-03-14,株式会社ＴＦＵ,,株式会社,山口県,岩国市,藤生町１丁目１５番７号,,35,208,7400036,,,,,,,2022-03-14,1,,,,,ティーエフユー,0
1767,7250005008726,新規,0,2022-03-14,2022-03-14,一般社団法人ドリームレッド,,その他の設立登記法人,山口県,美祢市,美東町赤４２５番地,,35,213,7540302,,,,,,,2022-03-14,1,,,,,ドリームレッド,0
1769,7260001036639,新規,0,2022-03-14,2022-03-14,株式会社コネクタルグループ,,株式会社,岡山県,岡山市北区,中央町６番２０,,33,101,7000836,,,,,,,2022-03-14,1,,,,,コネクタルグループ,0
1773,7290001096754,新規,0,2022-03-14,2022-03-14,株式会社Ｇｒａｎｄｉｒ,,株式会社,福岡県,福岡市中央区,舞鶴３丁目３番２１号木村ハイツ６０１号,,40,133,8100073,,,,,,,2022-03-14,1,,,,,グランディール,0
1774,7290003012255,新規,0,2022-03-14,2022-03-14,ＫＪＯ‐ｐｒｅｍｉｕｍ合同会社,,合同会社,福岡県,飯塚市,小正２３１‐５,,40,205,8200089,,,,,,,2022-03-14,1,,,,,ケイジェイオープレミアム,0
1780,7310005008595,新規,0,2022-03-14,2022-03-14,一般社団法人Ｆｏｒｔｕｎｅ　Ｅｙｅｓ,,その他の設立登記法人,長崎県,諫早市,永昌東町２番１６号,,42,204,8540071,,,,,,,2022-03-14,1,,,,,,0
1787,7330003009288,新規,0,2022-03-14,2022-03-14,合同会社ｂｄ,,合同会社,熊本県,八代市,横手新町１０号５番地,,43,202,8660875,,,,,,,2022-03-14,1,,,,,ビーディー,0
1788,7340001024569,新規,0,2022-03-14,2022-03-14,株式会社グローバルフォワード,,株式会社,鹿児島県,鹿児島市,船津町１番４号Ｃｒｅｄｏｉｋ　Ｃａｓａ．Ｗ７０１号,,46,201,8920831,,,,,,,2022-03-14,1,,,,,グローバルフォワード,0
1789,7340003003736,新規,0,2022-03-14,2022-03-14,ＴＣＭ合同会社,,合同会社,鹿児島県,鹿児島市,長田町２３番２５－４１０号,,46,201,8920854,,,,,,,2022-03-14,1,,,,,ティーシーエム,0
1794,7360005006611,新規,0,2022-03-14,2022-03-14,一般社団法人くじら寺子屋,,その他の設立登記法人,沖縄県,沖縄市,海邦２丁目９番１０号,,47,211,9042162,,,,,,,2022-03-14,1,,,,,クジラテラコヤ,0
1801,7420001017770,新規,0,2022-03-14,2022-03-14,株式会社てらこ屋,,株式会社,青森県,下北郡東通村,大字白糠字前田４４番地１２９号,,02,424,0394224,,,,,,,2022-03-14,1,,,,,テラコヤ,0
1803,7430001086195,新規,0,2022-03-14,2022-03-14,Ｉｉｄａ　ＢｎＢ株式会社,,株式会社,北海道,札幌市中央区,南六条西１丁目５　６・１ビル４階,,01,101,0640806,,,,,,,2022-03-14,1,,,,,イイダビーアンドビー,0
1807,7460005001552,新規,0,2022-03-14,2022-03-14,特定非営利活動法人シマフクロウ基金,,その他の設立登記法人,北海道,阿寒郡鶴居村,字温根内４番地,,01,667,0851145,,,,,,,2022-03-14,1,,,,,シマフクロウキキン,0
1815,7700150107385,新規,0,2022-03-14,2022-03-14,ＴＩＫＴＯＫ　ＰＴＥ．ＬＴＤ．,,外国会社等,,,,,,,,８　Ｍａｒｉｎａ　Ｖｉｅｗ　＃４３－００　Ａｓｉａ　Ｓｑｕａｒｅ　Ｔｏｗｅｒ　１　ＳＩＮＧＡＰＯＲＥ,,,,,,2022-03-14,1,,,,,テイツクトツクピーテイーイーエルテイーデイー,0
1826,8010001225125,新規,0,2022-03-14,2022-03-14,株式会社ヒカリカンパニー,,株式会社,東京都,千代田区,外神田５丁目４番６号山岡ビル２０１,,13,101,1010021,,,,,,,2022-03-14,1,,,,,ヒカリカンパニー,0
1827,8010001225166,新規,0,2022-03-14,2022-03-14,株式会社カットコ,,株式会社,東京都,千代田区,神田三崎町３丁目１０番１０号水道橋ＦＫビル５階,,13,101,1010061,,,,,,,2022-03-14,1,,,,,カットコ,0
1828,8010001225232,新規,0,2022-03-14,2022-03-14,株式会社ＰｕｂｔｅＸ,,株式会社,東京都,千代田区,内神田１丁目１４番８号,,13,101,1010047,,,,,,,2022-03-14,1,,,,,パブテックス,0
1831,8010003037196,新規,0,2022-03-14,2022-03-14,合同会社ジャパン・ウイング,,合同会社,東京都,文京区,本郷１丁目１６番１号,,13,105,1130033,,,,,,,2022-03-14,1,,,,,ジャパンウイング,0
1842,8010401166134,新規,0,2022-03-14,2022-03-14,株式会社ＡＶＡＮＣＥＲ,,株式会社,東京都,港区,浜松町２丁目２番１５号浜松町ダイヤビル２Ｆ,,13,103,1050013,,,,,,,2022-03-14,1,,,,,アヴァンセ,0
1843,8010403027268,新規,0,2022-03-14,2022-03-14,合同会社ほくたいエンジニアリング,,合同会社,東京都,港区,西新橋３丁目２４番８号山内ビル４階,,13,103,1050003,,,,,,,2022-03-14,1,,,,,ホクタイエンジニアリング,0
1847,8010501048579,新規,0,2022-03-14,2022-03-14,ポプラ株式会社,,株式会社,東京都,台東区,根岸２丁目１４番１３－５０１号,,13,106,1100003,,,,,,,2022-03-14,1,,,,,ポプラ,0
1850,8010603009438,新規,0,2022-03-14,2022-03-14,ＳＵＮＮＹ　ＰＡＳＴＥＬ合同会社,,合同会社,東京都,墨田区,京島３丁目１８番３号,,13,107,1310046,,,,,,,2022-03-14,1,,,,,サニーパステル,0
1852,8010905004277,新規,0,2022-03-14,2022-03-14,一般社団法人デジタル広告協会,,その他の設立登記法人,東京都,世田谷区,代田１丁目３９番１０号さんさんＢＯＸ３１０,,13,112,1550033,,,,,,,2022-03-14,1,,,,,デジタルコウコクキョウカイ,0
1860,8011001146121,新規,0,2022-03-14,2022-03-14,株式会社ＡＰＳ,,株式会社,東京都,渋谷区,南平台町１５番地１３,,13,113,1500036,,,,,,,2022-03-14,1,,,,,エーピーエス,0
1866,8011101098072,新規,0,2022-03-14,2022-03-14,株式会社ＪＳＣ,,株式会社,東京都,新宿区,西新宿１丁目２５番１号,,13,104,1600023,,,,,,,2022-03-14,1,,,,,ジェイエスシー,0
1867,8011101098080,新規,0,2022-03-14,2022-03-14,株式会社ＯＴＡデジタルワークス,,株式会社,東京都,新宿区,西新宿６丁目５番１号新宿アイランドタワー２２階,,13,104,1600023,,,,,,,2022-03-14,1,,,,,オーティーエーデジタルワークス,0
1868,8011101098139,新規,0,2022-03-14,2022-03-14,初春株式会社,,株式会社,東京都,新宿区,早稲田鶴巻町５３８番地１９リンクス早稲田ビル５０７,,13,104,1620041,,,,,,,2022-03-14,1,,,,,ショシュン,0
1869,8011103011553,新規,0,2022-03-14,2022-03-14,合同会社イーデングローバル日本,,合同会社,東京都,新宿区,西新宿７丁目５番５号Ｐｌａｚａ西新宿ＵＣＦ４階,,13,104,1600023,,,,,,,2022-03-14,1,,,,,イーデングローバルニホン,0
1878,8011703003082,新規,0,2022-03-14,2022-03-14,ＡＩＫＥＮ合同会社,,合同会社,東京都,江戸川区,松島２丁目４番１４号,,13,123,1320031,,,,,,,2022-03-14,1,,,,,アイケン,0
1879,8011705001720,新規,0,2022-03-14,2022-03-14,医療法人社団ＳＮ会,,その他の設立登記法人,東京都,江戸川区,東小岩４丁目９番３号コーポ南２階,,13,123,1330052,,,,,,,2022-03-14,1,,,,,エスエヌカイ,0
1881,8011801040440,新規,0,2022-03-14,2022-03-14,株式会社なんぐう建設,,株式会社,東京都,葛飾区,鎌倉２丁目２０番６号,,13,122,1250053,,,,,,,2022-03-14,1,,,,,ナングウケンセツ,0
1882,8012401038957,新規,0,2022-03-14,2022-03-14,株式会社ＦＤＬ,,株式会社,東京都,三鷹市,下連雀９丁目４番１５号ＴＨＥパームス三鷹ビバーチェ１０２号室,,13,204,1810013,,,,,,,2022-03-14,1,,,,,エフディーエル,0
1884,8012801021455,新規,0,2022-03-14,2022-03-14,株式会社Ｓｕｐｅｒ　Ｓａｐｐｉ,,株式会社,東京都,国分寺市,日吉町４丁目２－２,,13,214,1850032,,,,,,,2022-03-14,1,,,,,スーパーサッピ,0
1891,8013301048807,新規,0,2022-03-14,2022-03-14,株式会社Ｐｉｘｃｅｓ,,株式会社,東京都,豊島区,東池袋１丁目３４番５号いちご東池袋ビル６階,,13,116,1700013,,,,,,,2022-03-14,1,,,,,ピクセス,0
1895,8020001145644,新規,0,2022-03-14,2022-03-14,株式会社ＮＩＬＥ,,株式会社,神奈川県,川崎市宮前区,南平台８番２－３０７号,,14,136,2160024,,,,,,,2022-03-14,1,,,,,ナイル,0
1896,8020001145652,新規,0,2022-03-14,2022-03-14,株式会社東亜Ｇｒｏｕｐ,,株式会社,神奈川県,横浜市鶴見区,生麦４丁目２９番１６号,,14,101,2300052,,,,,,,2022-03-14,1,,,,,トウアグループ,0
1898,8020003021455,新規,0,2022-03-14,2022-03-14,濱地合同会社,,合同会社,神奈川県,川崎市中原区,新丸子東３丁目１３０１番地Ｇ１４１０,,14,133,2110004,,,,,,,2022-03-14,1,,,,,ハマジ,0
1899,8020005015414,新規,0,2022-03-14,2022-03-14,一般社団法人日本コルギ小顔術協会,,その他の設立登記法人,神奈川県,横浜市中区,宮川町２丁目４７番地大貫ビル７０１,,14,104,2310065,,,,,,,2022-03-14,1,,,,,ニホンコルギコガオジュツキョウカイ,0
1902,8021001075419,新規,0,2022-03-14,2022-03-14,ＭＩＴＳＵＩ　ＡＵＴＯ株式会社,,株式会社,神奈川県,愛甲郡愛川町,三増１１４０番地の１１,,14,401,2430308,,,,,,,2022-03-14,1,,,,,ミツイオート,0
1915,8030005020751,新規,0,2022-03-14,2022-03-14,特定非営利活動法人ｋｏｍａｄｏ,,その他の設立登記法人,埼玉県,川口市,末広１丁目７番５－６０５号,,11,203,3320006,,,,,,,2022-03-14,1,,,,,コマド,0
1920,8040001122575,新規,0,2022-03-14,2022-03-14,株式会社トライアル,,株式会社,千葉県,浦安市,富士見１丁目１３番１５－１０１号パルシオン富士見,,12,227,2790043,,,,,,,2022-03-14,1,,,,,トライアル,0
1921,8040001122591,新規,0,2022-03-14,2022-03-14,株式会社飯田ファーム,00125951,株式会社,千葉県,香取郡東庄町,大友８７番地１,,12,349,2890621,,,,,,,2022-03-14,1,,,,,イイダファーム,0
1922,8040001122617,新規,0,2022-03-14,2022-03-14,Ｊ　Ｏｎｅ株式会社,,株式会社,千葉県,市川市,新田２丁目２８番７－２０２号,,12,203,2720035,,,,,,,2022-03-14,1,,,,,ジェイワン,0
1924,8040003019662,新規,0,2022-03-14,2022-03-14,合同会社藤田,,合同会社,千葉県,船橋市,湊町３丁目２３番３－４号,,12,204,2730011,,,,,,,2022-03-14,1,,,,,フジタ,0
1925,8040005021542,新規,0,2022-03-14,2022-03-14,一般社団法人Ｓ＆Ｒ,,その他の設立登記法人,千葉県,千葉市花見川区,幕張本郷１丁目１２番８－１０２号,,12,102,2620033,,,,,,,2022-03-14,1,,,,,エスアンドアール,0
1926,8050001050767,新規,0,2022-03-14,2022-03-14,Ｍｉｄｏｒｉｎｏ　Ｉｎｔｅｒｎａｔｉｏｎａｌ　Ｋｉｎｄｅｒｇａｒｔｅｎ株式会社,,株式会社,茨城県,つくば市,島名３７２２番地１７,,08,220,3002655,,,,,,,2022-03-14,1,,,,,ミドリノインターナショナルキンダーガーデン,0
1927,8050001050775,新規,0,2022-03-14,2022-03-14,株式会社ナカムラグリーンサービス,,株式会社,茨城県,つくばみらい市,杉下７８番地,,08,235,3002444,,,,,,,2022-03-14,1,,,,,ナカムラグリーンサービス,0
1938,8090001017473,新規,0,2022-03-14,2022-03-14,株式会社ＭＩＣＨＡＥＬＡ,,株式会社,山梨県,甲府市,朝気３丁目７番１号,,19,201,4000862,,,,,,,2022-03-14,1,,,,,ミカエラ,0
1940,8100001035143,新規,0,2022-03-14,2022-03-14,株式会社ＭＡＳＡＭＩ,,株式会社,長野県,上水内郡信濃町,大字柏原２５２８番地１５,,20,583,3891305,,,,,,,2022-03-14,1,,,,,マサミ,0
1941,8100001035151,新規,0,2022-03-14,2022-03-14,株式会社ＰＲＯＢＯＸ　ＪＡＰＡＮ,,株式会社,長野県,須坂市,村山町１９４番地３,,20,207,3820000,,,,,,,2022-03-14,1,,,,,プロボクスジャパン,0
1957,8120001244361,新規,0,2022-03-14,2022-03-14,株式会社Ｃ‐ＴＡＫＥ,,株式会社,大阪府,大阪市淀川区,西中島４丁目５－１７－４０３,,27,123,5320011,,,,,,,2022-03-14,1,,,,,シータケ,0
1958,8120001244428,新規,0,2022-03-14,2022-03-14,株式会社駒川エステート,,株式会社,大阪府,大阪市東住吉区,湯里４丁目１番２号コスタビエント湯里３０３号,,27,121,5460013,,,,,,,2022-03-14,1,,,,,コマガワエステート,0
1959,8120001244436,新規,0,2022-03-14,2022-03-14,株式会社トムズワーカーズ,,株式会社,大阪府,大阪市浪速区,元町３丁目７番１１－１００２号,,27,111,5560016,,,,,,,2022-03-14,1,,,,,トムズワーカーズ,0
1971,8120903004061,新規,0,2022-03-14,2022-03-14,合同会社Ｂｉｒｂｉｒａ,,合同会社,大阪府,箕面市,粟生間谷東６丁目２４番４号,,27,220,5620022,,,,,,,2022-03-14,1,,,,,ビルビラ,0
1972,8120905006295,新規,0,2022-03-14,2022-03-14,一般社団法人ＭＡＳＨ,,その他の設立登記法人,大阪府,豊中市,新千里北町３丁目４番Ｂ１８－３０４号,,27,203,5600081,,,,,,,2022-03-14,1,,,,,マッシュ,0
1980,8130001071326,新規,0,2022-03-14,2022-03-14,株式会社ＨＮＢ,,株式会社,京都府,八幡市,男山石城９番地７、１０３,,26,210,6148374,,,,,,,2022-03-14,1,,,,,エイチエヌビー,0
1981,8130001071342,新規,0,2022-03-14,2022-03-14,株式会社かわの塗装,,株式会社,京都府,京都市左京区,岩倉中在地町１５番地,,26,103,6060027,,,,,,,2022-03-14,1,,,,,カワノトソウ,0
1982,8130003007807,新規,0,2022-03-14,2022-03-14,合同会社クリラボ,,合同会社,京都府,京都市中京区,下古城町３９８番地５０８号,,26,104,6040044,,,,,,,2022-03-14,1,,,,,クリラボ,0
1984,8140001125238,新規,0,2022-03-14,2022-03-14,株式会社クレド,,株式会社,兵庫県,神戸市東灘区,本山中町２丁目３番１－１号,,28,101,6580016,,,,,,,2022-03-14,1,,,,,クレド,0
1991,8170001017011,新規,0,2022-03-14,2022-03-14,株式会社ＩＲＯＤＯＲＵ,,株式会社,和歌山県,有田市,千田１３７番地５,,30,204,6490313,,,,,,,2022-03-14,1,,,,,イロドル,0
2003,8180001150364,新規,0,2022-03-14,2022-03-14,株式会社Ｂｅｏａｎｏｉｓ,,株式会社,愛知県,名古屋市中区,新栄１丁目５番８号広小路アクアプレイス９Ｆ,,23,106,4600007,,,,,,,2022-03-14,1,,,,,ベオアノイズ,0
2008,8180003023576,新規,0,2022-03-14,2022-03-14,合同会社エムジーケイ,,合同会社,愛知県,あま市,二ツ寺鬼田４３番地２８,,23,237,4901207,,,,,,,2022-03-14,1,,,,,エムジーケイ,0
2018,8230001019273,新規,0,2022-03-14,2022-03-14,永森商事株式会社,,株式会社,富山県,富山市,総曲輪３丁目４番１号,,16,201,9300083,,,,,,,2022-03-14,1,,,,,ナガモリショウジ,0
2022,8240003005551,新規,0,2022-03-14,2022-03-14,合同会社ホテルセンチュリー２１広島,,合同会社,広島県,広島市中区,田中町２番１０号,,34,101,7300026,,,,,,,2022-03-14,1,,,,,ホテルセンチュリートゥエンティーワンヒロシマ,0
2030,8290001096786,新規,0,2022-03-14,2022-03-14,株式会社ウエストリバー,,株式会社,福岡県,福岡市博多区,中洲１丁目８番７号,,40,132,8100801,,,,,,,2022-03-14,1,,,,,ウエストリバー,0
2034,8290801028328,新規,0,2022-03-14,2022-03-14,株式会社さくらＱＴ,,株式会社,福岡県,北九州市小倉北区,白銀１丁目９番１－５０２号,,40,106,8020074,,,,,,,2022-03-14,1,,,,,サクラキューティー,0
2035,8290803004079,新規,0,2022-03-14,2022-03-14,合同会社Ｓ＆Ｗ,,合同会社,福岡県,北九州市戸畑区,銀座１丁目１－８－８０５,,40,105,8040076,,,,,,,2022-03-14,1,,,,,エスアンドダブリュー,0
2037,8330001029535,新規,0,2022-03-14,2022-03-14,株式会社Ｒｏｓｅｒ・Ｍ,,株式会社,熊本県,阿蘇市,小里２１７番地２,,43,214,8692307,,,,,,,2022-03-14,1,,,,,ローサーエム,0
2039,8330003009287,新規,0,2022-03-14,2022-03-14,合同会社ブレスティストドットコム,,合同会社,熊本県,熊本市中央区,大江６丁目１７番１７号,,43,101,8620971,,,,,,,2022-03-14,1,,,,,ブレスティストドットコム,0
2046,8360001030110,新規,0,2022-03-14,2022-03-14,株式会社軟水カンパニー,,株式会社,沖縄県,沖縄市,久保田１丁目１－６仲康貸店舗１階,,47,211,9040023,,,,,,,2022-03-14,1,,,,,ナンスイカンパニー,0
2047,8360003011868,新規,0,2022-03-14,2022-03-14,合同会社ムーンライトプロジェクト,,合同会社,沖縄県,名護市,大南２丁目１２番１５－３０３号ジョイフル,,47,209,9050015,,,,,,,2022-03-14,1,,,,,ムーンライトプロジェクト,0
2048,8360005006610,新規,0,2022-03-14,2022-03-14,一般社団法人３ぴーす５８,,その他の設立登記法人,沖縄県,沖縄市,山内１丁目８番１０号,,47,211,9040034,,,,,,,2022-03-14,1,,,,,,0
2049,8370001048300,新規,0,2022-03-14,2022-03-14,株式会社ナラティブ,,株式会社,宮城県,仙台市太白区,向山２丁目１３番８号,,04,104,9820841,,,,,,,2022-03-14,1,,,,,ナラティブ,0
2052,8380003005117,新規,0,2022-03-14,2022-03-14,合同会社フォワード,,合同会社,福島県,福島市,本内字南街道下２８番地の１,,07,201,9600103,,,,,,,2022-03-14,1,,,,,フォワード,0
2057,8410001013118,新規,0,2022-03-14,2022-03-14,株式会社フロンテッド,,株式会社,秋田県,大館市,字観音堂５５４番地１,,05,204,0170042,,,,,,,2022-03-14,1,,,,,フロンテッド,0
2061,8462501000929,新規,0,2022-03-14,2022-03-14,株式会社ＫＴ,,株式会社,北海道,標津郡中標津町,字豊岡４４３４番地２６,,01,692,0861139,,,,,,,2022-03-14,1,,,,,ケーティー,0
2068,8500005008468,新規,0,2022-03-14,2022-03-14,農事組合法人全国楽農有機生産者組合,,その他の設立登記法人,愛媛県,伊予市,市場１３２番２号,,38,210,7993122,,,,,,,2022-03-14,1,,,,,ゼンコクラクノウユウキセイサンシャクミアイ,0
2084,9010001225248,新規,0,2022-03-14,2022-03-14,株式会社ＳＣＯＰＩＯＮ,,株式会社,東京都,文京区,本郷３丁目２４番６号,,13,105,1130033,,,,,,,2022-03-14,1,,,,,スコーピオン,0
2090,9010005034703,新規,0,2022-03-14,2022-03-14,一般財団法人ＫＡＷＡＪＩＲＩ　ＦＯＵＮＤＡＴＩＯＮ,,その他の設立登記法人,東京都,千代田区,二番町１番２号,,13,101,1020084,,,,,,,2022-03-14,1,,,,,カワジリファンデーション,0
2098,9010401166166,新規,0,2022-03-14,2022-03-14,株式会社都市施設２号,,株式会社,東京都,港区,麻布十番２丁目１２番１０－７０４号,,13,103,1060045,,,,,,,2022-03-14,1,,,,,トシシセツニゴウ,0
2105,9010701042372,新規,0,2022-03-14,2022-03-14,ＲｅＥａｔ株式会社,,株式会社,東京都,品川区,西五反田４丁目１８番１６号高瀬アパート２０１,,13,109,1410031,,,,,,,2022-03-14,1,,,,,レイート,0
2110,9010805002925,新規,0,2022-03-14,2022-03-14,一般財団法人宇野澤奨学会,,その他の設立登記法人,東京都,大田区,下丸子２丁目３６番４０号,,13,111,1460092,,,,,,,2022-03-14,1,,,,,ウノザワショウガクカイ,0
2124,9011001146178,新規,0,2022-03-14,2022-03-14,株式会社ぽんす,,株式会社,東京都,渋谷区,神宮前６丁目２３－４桑野ビル２Ｆ,,13,113,1500001,,,,,,,2022-03-14,1,,,,,ポンス,0
2130,9011003014275,新規,0,2022-03-14,2022-03-14,合同会社ハウスオブペンギン,,合同会社,東京都,目黒区,平町１丁目６―１３,,13,110,1520032,,,,,,,2022-03-14,1,,,,,ハウスオブペンギン,0
2131,9011003014341,新規,0,2022-03-14,2022-03-14,合同会社１ＳＴ　ＧＲＯＵＰ,,合同会社,東京都,渋谷区,神宮前６丁目２９番４号原宿ｋｏｍｉｙａビル６階,,13,113,1500001,,,,,,,2022-03-14,1,,,,,ファーストグループ,0
2134,9011401024099,新規,0,2022-03-14,2022-03-14,株式会社ａｎｄ　ｓｕｇａｒ,,株式会社,東京都,板橋区,熊野町３５番地１ライオンズマンション大山第６－５０１号,,13,119,1730025,,,,,,,2022-03-14,1,,,,,アンドシュガー,0
2140,9011803005003,新規,0,2022-03-14,2022-03-14,ＡＬＢＡＳ合同会社,,合同会社,東京都,足立区,千住３丁目１６,,13,121,1200034,,,,,,,2022-03-14,1,,,,,アルバス,0
2141,9012301012912,新規,0,2022-03-14,2022-03-14,株式会社Ｐａｓｔｏｒｅ,,株式会社,東京都,町田市,野津田町３７２１番地１７,,13,209,1950063,,,,,,,2022-03-14,1,,,,,パストーレ,0
2145,9012401038964,新規,0,2022-03-14,2022-03-14,株式会社Ａｌｂａ,,株式会社,東京都,調布市,上石原３丁目２３番地４１,,13,208,1820035,,,,,,,2022-03-14,1,,,,,アルバ,0
2147,9012403005277,新規,0,2022-03-14,2022-03-14,ＮＩＣＯａ合同会社,,合同会社,東京都,多摩市,諏訪１丁目４６－１－５０３,,13,224,2060024,,,,,,,2022-03-14,1,,,,,ニコア,0
2148,9012703002420,新規,0,2022-03-14,2022-03-14,合同会社柏屋,,合同会社,東京都,小平市,御幸町３５３番地の３,,13,211,1870012,,,,,,,2022-03-14,1,,,,,カシワヤ,0
2156,9013301048806,新規,0,2022-03-14,2022-03-14,株式会社ｍｙｓｉｓ,,株式会社,東京都,豊島区,東池袋４丁目６番１０号ルナ大住ビル３Ｆ,,13,116,1700013,,,,,,,2022-03-14,1,,,,,マイシス,0
2161,9020001145635,新規,0,2022-03-14,2022-03-14,株式会社Ｒｈａｐｓｅｅｄ,,株式会社,神奈川県,川崎市中原区,新丸子東３丁目１３０１番地Ｇ１６１０,,14,133,2110004,,,,,,,2022-03-14,1,,,,,ラプシード,0
2165,9020003021446,新規,0,2022-03-14,2022-03-14,ゴラッソ合同会社,,合同会社,神奈川県,横浜市都筑区,茅ケ崎中央９番３－７０１号,,14,118,2240032,,,,,,,2022-03-14,1,,,,,ゴラッソ,0
2166,9020003021454,新規,0,2022-03-14,2022-03-14,合同会社ＳＫＴＴ,,合同会社,神奈川県,川崎市高津区,久本１丁目６番８号,,14,134,2130011,,,,,,,2022-03-14,1,,,,,エスケーティーティー,0
2167,9021001075418,新規,0,2022-03-14,2022-03-14,Ｏｌａ株式会社,,株式会社,神奈川県,横須賀市,米が浜通１丁目１番地杉浦ビル２Ｂ,,14,201,2380011,,,,,,,2022-03-14,1,,,,,オラ,0
2168,9021001075426,新規,0,2022-03-14,2022-03-14,株式会社法龍山麦酒,,株式会社,神奈川県,横須賀市,野比３丁目９番５号,,14,201,2390841,,,,,,,2022-03-14,1,,,,,ホウリュウザンバクシュ,0
2170,9021003011478,新規,0,2022-03-14,2022-03-14,ゼロ・ワン・スリー合同会社,,合同会社,神奈川県,小田原市,酒匂２丁目３番１３号,,14,206,2560816,,,,,,,2022-03-14,1,,,,,ゼロワンスリー,0
2171,9021005012458,新規,0,2022-03-14,2022-03-14,一般社団法人ＫＡＴＥ’Ｓ　ＢＥＡＣＨ　ＣＬＵＢ,,その他の設立登記法人,神奈川県,茅ヶ崎市,矢畑２２６番地１３,,14,207,2530085,,,,,,,2022-03-14,1,,,,,ケイツビーチクラブ,0
2179,9030001147242,新規,0,2022-03-14,2022-03-14,榊株式会社,,株式会社,埼玉県,草加市,谷塚１丁目２６番３３－２０１号,00125950,11,221,3400028,,,,,,,2022-03-14,1,,,,,サカキ,0
2180,9030001147250,新規,0,2022-03-14,2022-03-14,株式会社ｊｏｙ,,株式会社,埼玉県,川口市,上青木西３丁目１０番２３号,,11,203,3330845,,,,,,,2022-03-14,1,,,,,ジョイ,0
2186,9040001122426,新規,0,2022-03-14,2022-03-14,株式会社エイトノット,,株式会社,千葉県,長生郡長生村,水口１２４４番地２５,,12,423,2994335,,,,,,,2022-03-14,1,,,,,エイトノット,0
2187,9040001122574,新規,0,2022-03-14,2022-03-14,興業株式会社,,株式会社,千葉県,千葉市稲毛区,稲毛３丁目７番８号新富稲毛アパート第二１０１号,,12,103,2630034,,,,,,,2022-03-14,1,,,,,コウギョウ,0
2188,9040001122590,新規,0,2022-03-14,2022-03-14,落合産業株式会社,,株式会社,千葉県,柏市,末広町１５番２号,,12,217,2770842,,,,,,,2022-03-14,1,,,,,オチアイサンギョウ,0
2195,9050001050782,新規,0,2022-03-14,2022-03-14,株式会社磯辺,,株式会社,茨城県,小美玉市,小岩戸１９３番地,,08,236,3190107,,,,,,,2022-03-14,1,,,,,イソベ,0
2202,9080401025679,新規,0,2022-03-14,2022-03-14,株式会社ユアエステート,,株式会社,静岡県,浜松市中区,高林５丁目１番２２号,,22,131,4300907,,,,,,,2022-03-14,1,,,,,ユアエステート,0
2204,9090001017472,新規,0,2022-03-14,2022-03-14,株式会社ミライエステート山梨,,株式会社,山梨県,中巨摩郡昭和町,西条新田２１３番地６,,19,384,4093865,,,,,,,2022-03-14,1,,,,,ミライエステートヤマナシ,0
2219,9120001244443,新規,0,2022-03-14,2022-03-14,株式会社四畳半,,株式会社,大阪府,大阪市中央区,南船場１丁目６番１０－１００１号,,27,128,5420081,,,,,,,2022-03-14,1,,,,,ヨジョウハン,0
2220,9120001244468,新規,0,2022-03-14,2022-03-14,エージーシステム株式会社,,株式会社,大阪府,大阪市東住吉区,公園南矢田３丁目１０番８号,,27,121,5460024,,,,,,,2022-03-14,1,,,,,エージーシステム,0
2229,9130001071333,新規,0,2022-03-14,2022-03-14,株式会社ＴＪ,,株式会社,京都府,京都市西京区,松尾神ケ谷町１７番地３２,,26,111,6158286,,,,,,,2022-03-14,1,,,,,ティージェー,0
2230,9130001071341,新規,0,2022-03-14,2022-03-14,株式会社Ｌｉｂｅｒｔｙ,,株式会社,京都府,京都市伏見区,下鳥羽南柳長町３０番地,,26,109,6128490,,,,,,,2022-03-14,1,,,,,リバティー,0
2238,9140003017449,新規,0,2022-03-14,2022-03-14,合同会社Ｖｉｔａ　ｒｉｃｃａ,,合同会社,兵庫県,神戸市須磨区,北落合２丁目３－２２,,28,107,6540151,,,,,,,2022-03-14,1,,,,,ヴィータリッカ,0
2241,9170001017010,新規,0,2022-03-14,2022-03-14,和歌山ＩＲ株式会社,,株式会社,和歌山県,和歌山市,十二番丁３０アオイビル２Ｆ,,30,201,6408158,,,,,,,2022-03-14,1,,,,,ワカヤマアイアール,0
2252,9180005019679,新規,0,2022-03-14,2022-03-14,一般社団法人日本ガーデンデザイナー協会,,その他の設立登記法人,愛知県,豊明市,新田町前原１番地ナビライフ豊明マンションＩＩ番館６１２号,00125947,23,229,4701115,,,,,,,2022-03-14,1,,,,,ニホンガーデンデザイナー,0
2253,9190003003923,新規,0,2022-03-14,2022-03-14,合同会社ここちめいど,,合同会社,三重県,四日市市,浜一色町５番１号,,24,202,5100031,,,,,,,2022-03-14,1,,,,,ココチメイド,0
2254,9200005013316,新規,0,2022-03-14,2022-03-14,一般社団法人陸岐道,,その他の設立登記法人,岐阜県,大垣市,熊野町５丁目１８番地,,21,202,5030032,,,,,,,2022-03-14,1,,,,,リクギドウ,0
2255,9210001018838,新規,0,2022-03-14,2022-03-14,ルーフエンタープライズ株式会社,,株式会社,福井県,坂井市,坂井町蔵垣内第３２号１９番地３,,18,210,9190542,,,,,,,2022-03-14,1,,,,,ルーフエンタープライズ,0
2261,9240003005550,新規,0,2022-03-14,2022-03-14,合同会社Ｇｌｏｂａｌ　Ｗｏｒｋｓ,,合同会社,広島県,福山市,東深津町５丁目４番４号,,34,207,7210974,,,,,,,2022-03-14,1,,,,,グローバルワークス,0
2270,9310003004306,新規,0,2022-03-14,2022-03-14,ｈｏｐｅ合同会社,,合同会社,長崎県,雲仙市,小浜町南本町２５４番地２,,42,213,8540513,,,,,,,2022-03-14,1,,,,,ホープ,0
2290,9370001048299,新規,0,2022-03-14,2022-03-14,株式会社ライツベース,,株式会社,宮城県,仙台市泉区,八乙女３丁目４番７号,,04,105,9813112,,,,,,,2022-03-14,1,,,,,ライツベース,0
2291,9370001048316,新規,0,2022-03-14,2022-03-14,ＦＯＲＷＡＲＤ　ＴＲＡＤＥＲＳ株式会社,,株式会社,宮城県,大崎市,岩出山字浦小路１６岩出山オフィスビルＢ－３,,04,215,9896435,,,,,,,2022-03-14,1,,,,,フォーワードトレーダーズ,0
2301,9380003005124,新規,0,2022-03-14,2022-03-14,ジョワ縫製合同会社,,合同会社,福島県,石川郡玉川村,大字南須釜字中奥平２３番地１,,07,502,9636302,,,,,,,2022-03-14,1,,,,,ジョワホウセイ,0
2316,9480001011675,新規,0,2022-03-14,2022-03-14,株式会社ニューワーカー,,株式会社,徳島県,美馬市,脇町字拝原１６８０番地２,,36,207,7793601,,,,,,,2022-03-14,1,,,,,ニューワーカー,0
2319,9700150107359,新規,0,2022-03-14,2022-03-14,株式会社Ｐｏｌｅｄ,,外国会社等,東京都,世田谷区,野毛３丁目１８番１－２０１号,,13,112,1580092,大韓民国忠清南道瑞山市雲山面チャンセン洞路５２３,,,,,,2022-03-14,1,,,,,カブシキガイシヤポレツド,0
