sequenceNumber,corporateNumber,process,correct,updateDate,changeDate,name,nameImageId,kind,prefectureName,cityName,streetNumber,addressImageId,prefectureCode,cityCode,postCode,addressOutside,addressOutsideImageId,closeDate,closeCause,successorCorporateNumber,changeCause,assignmentDate,latest,enName,enPrefectureName,enCityName,enAddressOutside,furigana,hihyoji
13,1010005025841,登記記録の閉鎖等,0,2022-10-13,2022-10-11,一般社団法人日本科学技術振興会,,その他の設立登記法人,東京都,文京区,湯島３丁目２８番１８号アドホームズ２０４号室,,13,105,1130034,,,2022-10-11,清算の結了等,,,2016-09-29,1,,,,,ニホンカガクギジュツシンコウカイ,0
24,1010403021252,登記記録の閉鎖等,0,2022-10-13,2022-09-22,合同会社ウィンザーハウス,,合同会社,東京都,港区,赤坂９丁目１番７号,,13,103,1070052,,,2022-09-22,清算の結了等,,,2019-08-13,1,,,,,ウィンザーハウス,0
44,1011003010380,登記記録の閉鎖等,0,2022-10-13,2022-09-29,合同会社幸北企画,,合同会社,東京都,渋谷区,桜丘町２３－１７－４０８,,13,113,1500031,,,2022-09-29,清算の結了等,,,2019-09-30,1,,,,,コウホクキカク,0
90,1030001123853,登記記録の閉鎖等,0,2022-10-13,2022-09-30,株式会社アーキシップ,,株式会社,埼玉県,坂戸市,仲町１番２５号グランシャトレ坂戸シュプレーム５０１号室,,11,239,3500227,,,2022-09-30,清算の結了等,,,2018-01-17,1,,,,,アーキシップ,0
97,1040001074815,登記記録の閉鎖等,0,2022-10-13,2022-10-11,株式会社鴨川グランドホテル,,株式会社,千葉県,鴨川市,広場８２０番地,,12,223,2960044,,,2022-10-11,合併による解散等,8010401161085,令和４年１０月１日東京都港区愛宕二丁目５番１号愛宕グリーンヒルズＭＯＲＩタワー株式会社ＮＳＳＫ－Ｖ（8010401161085）に合併し解散,2015-10-05,1,,,,,カモガワグランドホテル,0
104,1060001002393,登記記録の閉鎖等,0,2022-10-13,2022-10-05,株式会社須藤設備工業,,株式会社,栃木県,宇都宮市,下戸祭２丁目１０番８号,,09,201,3200055,,,2022-10-05,清算の結了等,,,2015-10-05,1,,,,,スドウセツビコウギョウ,0
172,1180001026653,登記記録の閉鎖等,0,2022-10-13,2022-10-05,株式会社ノリタケコーテッドアブレーシブ,,株式会社,愛知県,名古屋市西区,則武新町３丁目１番３６号,,23,104,4510051,,,2022-10-05,合併による解散等,3120001048809,令和４年１０月１日大阪市西区北堀江一丁目２２番１０号日本レヂボン株式会社（3120001048809）に合併し解散,2015-10-05,1,,,,,ノリタケコーテッドアブレーシブ,0
173,1180001038467,登記記録の閉鎖等,0,2022-10-13,2022-10-03,株式会社テレビ愛知ミュージック,,株式会社,愛知県,名古屋市中区,大須２丁目４番８号,,23,106,4600011,,,2022-10-03,合併による解散等,8180001145546,令和４年１０月１日名古屋市中区大須二丁目４番８号株式会社ＴＶＡａｄｖａｎｃｅ（8180001145546）に合併し解散,2015-10-05,1,,,,,テレビアイチミュージック,0
176,1180001108195,登記記録の閉鎖等,0,2022-10-13,2022-09-30,株式会社Ｊ．ａｓｃｅｎｄ,,株式会社,愛知県,名古屋市中区,伊勢山２丁目１１番１５号,,23,106,4600026,,,2022-09-30,清算の結了等,,,2015-10-05,1,,,,,ジェイアセンド,0
181,1180001129217,登記記録の閉鎖等,0,2022-10-13,2022-10-07,株式会社アールアイエム,,株式会社,愛知県,名古屋市南区,呼続元町２番５号元町ハウゼ１０２号,,23,112,4570011,,,2022-10-07,清算の結了等,,,2017-08-30,1,,,,,アールアイエム,0
187,1180002008163,登記記録の閉鎖等,0,2022-10-13,2022-10-07,有限会社渉和被服,,有限会社,愛知県,名古屋市昭和区,滝子通４丁目９番地,,23,107,4660055,,,2022-10-07,清算の結了等,,,2015-10-05,1,,,,,ショウワヒフク,0
188,1180002014806,登記記録の閉鎖等,0,2022-10-13,2022-10-06,有限会社真鍋製作所,,有限会社,愛知県,名古屋市南区,上浜町１８８番地,,23,112,4570067,,,2022-10-06,清算の結了等,,,2015-10-05,1,,,,,マナベセイサクショ,0
198,1190002008492,登記記録の閉鎖等,0,2022-10-13,2022-10-05,有限会社オクノ,,有限会社,三重県,伊勢市,小俣町元町１７０６番地,,24,203,5190503,,,2022-10-05,清算の結了等,,,2015-10-05,1,,,,,オクノ,0
199,1200001029356,登記記録の閉鎖等,0,2022-10-13,2022-10-12,株式会社まるめコーポレーション,,株式会社,岐阜県,揖斐郡大野町,大字稲富８８５－１,,21,403,5010501,,,2022-10-12,清算の結了等,,,2015-10-05,1,,,,,マルメコーポレーション,0
205,1220001023092,登記記録の閉鎖等,0,2022-10-13,2022-10-07,株式会社ＴＳＵＲＵＧＩ,,株式会社,石川県,白山市,鶴来古町ヲ１０３番地,,17,210,9202129,,,2022-10-07,清算の結了等,,,2019-09-05,1,,,,,ツルギ,0
254,1430002027897,登記記録の閉鎖等,0,2022-10-13,2022-09-30,さん和工建有限会社,,有限会社,北海道,札幌市中央区,南二条西１３丁目３１９番地１３パシフィック南２条６０３号,,01,101,0600062,,,2022-09-30,清算の結了等,,,2015-10-05,1,,,,,サンワコウケン,0
255,1430002036741,登記記録の閉鎖等,0,2022-10-13,2022-10-03,有限会社クチュール,,有限会社,北海道,札幌市東区,北二十六条東４丁目３番２５号,,01,103,0650026,,,2022-10-03,清算の結了等,,,2015-10-05,1,,,,,クチュール,0
263,1480002005106,登記記録の閉鎖等,0,2022-10-13,2022-10-07,有限会社米崎,,有限会社,徳島県,徳島市,寺島本町東１丁目２５番地,,36,201,7700832,,,2022-10-07,清算の結了等,,,2015-10-05,1,,,,,ヨネサキ,0
265,2010001044035,登記記録の閉鎖等,0,2022-10-13,2022-10-05,厚生コマーシヤル株式会社,,株式会社,東京都,中央区,八重洲１丁目１番６号,,13,102,1030028,,,2022-10-05,清算の結了等,,,2015-10-05,1,,,,,コウセイコマーシャル,0
275,2010003018417,登記記録の閉鎖等,0,2022-10-13,2022-10-05,合同会社ＦＯＲＴＥ,,合同会社,東京都,中央区,日本橋小網町１８－６日本橋白馬ビル８Ｆ,,13,102,1030016,,,2022-10-05,清算の結了等,,,2015-10-05,1,,,,,フォルテ,0
282,2010005007277,登記記録の閉鎖等,0,2022-10-13,2022-10-12,特定非営利活動法人シルバーネット協会,,その他の設立登記法人,東京都,千代田区,神田西福田町４－３善幸ビル３階,,13,101,1010037,,,2022-10-12,清算の結了等,,,2015-10-05,1,,,,,シルバーネットキョウカイ,0
291,2010401117241,登記記録の閉鎖等,0,2022-10-13,2022-09-22,株式会社エイチ・エス・コンサルティング,,株式会社,東京都,港区,六本木３丁目４番５号,,13,103,1060032,,,2022-09-22,清算の結了等,,,2015-10-05,1,,,,,エイチエスコンサルティング,0
343,2012705001402,登記記録の閉鎖等,0,2022-10-13,2022-10-06,医療法人社団サルビア歯科医院,,その他の設立登記法人,東京都,西東京市,田無町４丁目１１番１１号,,13,229,1880011,,,2022-10-06,清算の結了等,,,2015-10-05,1,,,,,サルビアシカイイン,0
347,2013201016695,登記記録の閉鎖等,0,2022-10-13,2022-10-07,株式会社ＫＡＩデザイン,,株式会社,東京都,新宿区,西落合２丁目４番６号,,13,104,1610031,,,2022-10-07,清算の結了等,,,2015-10-05,1,,,,,カイデザイン,0
350,2013301019400,登記記録の閉鎖等,0,2022-10-13,2022-10-05,株式会社アークシステムズ,,株式会社,東京都,荒川区,西日暮里５丁目１４番３号,,13,118,1160013,,,2022-10-05,清算の結了等,,,2015-10-05,1,,,,,アークシステムズ,0
355,2020001071268,登記記録の閉鎖等,0,2022-10-13,2022-10-03,東芝電波システムエンジニアリング株式会社,,株式会社,神奈川県,川崎市幸区,小向東芝町１番地,,14,132,2120001,,,2022-10-03,合併による解散等,5020001075910,令和４年１０月１日川崎市幸区小向東芝町１番地東芝電波テクノロジー株式会社（5020001075910）に合併し解散,2015-10-05,1,,,,,トウシバデンパテクノロジー,0
370,2021001030957,登記記録の閉鎖等,0,2022-10-13,2022-10-06,株式会社ＰＫテクノ藤沢,,株式会社,神奈川県,藤沢市,遠藤２００３番地の１,,14,205,2520816,,,2022-10-06,清算の結了等,,,2015-10-05,1,,,,,ピーケーテクノフジサワ,0
394,2050002024866,登記記録の閉鎖等,0,2022-10-13,2022-10-03,有限会社柳田縫製,,有限会社,茨城県,古河市,下大野７６６番地の３,,08,204,3060204,,,2022-10-03,清算の結了等,,,2015-10-05,1,,,,,ヤナギダホウセイ,0
405,2080002004782,登記記録の閉鎖等,0,2022-10-13,2022-10-12,有限会社美光工務店,,有限会社,静岡県,静岡市葵区,北３丁目１７番１０号,,22,101,4200961,,,2022-10-12,清算の結了等,,,2015-10-05,1,,,,,ビコウコウムテン,0
418,2120001150160,登記記録の閉鎖等,0,2022-10-13,2022-10-04,株式会社常盤鉄工所,,株式会社,大阪府,枚方市,出屋敷西町２丁目２０番２０号,,27,210,5730003,,,2022-10-04,清算の結了等,,,2015-10-05,1,,,,,トキワテッコウショ,0
433,2120101048131,登記記録の閉鎖等,0,2022-10-13,2022-10-07,株式会社豊受会,,株式会社,大阪府,貝塚市,東山７丁目１番２号（３号室）,,27,208,5970046,,,2022-10-07,清算の結了等,,,2015-10-05,1,,,,,トヨウケカイ,0
441,2122001019856,登記記録の閉鎖等,0,2022-10-13,2022-10-07,株式会社平松工芸社,,株式会社,大阪府,八尾市,天王寺屋１丁目４８番地,,27,212,5810025,,,2022-10-07,清算の結了等,,,2015-10-05,1,,,,,ヒラマツコウゲイシャ,0
453,2140001091320,登記記録の閉鎖等,0,2022-10-13,2022-10-06,Ｄｍｅｔ　ｌａｂｅｌ株式会社,,株式会社,兵庫県,神戸市長田区,御蔵通７丁目２９番地,,28,106,6530014,,,2022-10-06,清算の結了等,,,2015-10-05,1,,,,,ディーメットレーベル,0
460,2170002010482,登記記録の閉鎖等,0,2022-10-13,2022-09-28,有限会社キョウエイ商会,,有限会社,和歌山県,日高郡美浜町,大字吉原１０５１番地,,30,381,6440043,,,2022-09-28,清算の結了等,,,2015-10-05,1,,,,,キョウエイショウカイ,0
471,2180003016627,登記記録の閉鎖等,0,2022-10-13,2022-10-03,ＡＤＶＡＮＣＥ２０１合同会社,,合同会社,愛知県,名古屋市名東区,一社１丁目７９番地,,23,115,4650093,,,2022-10-03,合併による解散等,9180301020704,令和４年１０月１日名古屋市千種区内山一丁目２２番９号株式会社ＡＤＶＡＮＣＥ（9180301020704）に合併し解散,2015-10-05,1,,,,,アドバンスニマルイチ,0
474,2190002004350,登記記録の閉鎖等,0,2022-10-13,2022-10-06,有限会社池田損害保険事務所,,有限会社,三重県,津市,白山町二本木１００１番地１００,,24,201,5152602,,,2022-10-06,清算の結了等,,,2015-10-05,1,,,,,イケダソンガイホケンジムショ,0
476,2190002008814,登記記録の閉鎖等,0,2022-10-13,2022-10-11,三協商事有限会社,,有限会社,北海道,札幌市中央区,南一条西１６丁目１番地３２３春野ビル３階,,01,101,0600061,,,2022-10-11,清算の結了等,,,2015-10-05,1,,,,,サンキョウショウジ,0
479,2200003005602,登記記録の閉鎖等,0,2022-10-13,2022-10-12,合同会社あぷりこっと,,合同会社,岐阜県,多治見市,宝町１丁目１７番地スプリングハイツ３０２,,21,204,5070054,,,2022-10-12,清算の結了等,,,2022-06-24,1,,,,,アプリコット,0
497,2280002002997,登記記録の閉鎖等,0,2022-10-13,2022-10-12,有限会社よしだ,,有限会社,島根県,松江市,八雲町日吉３３３番地８４,,32,201,6902101,,,2022-10-12,清算の結了等,,,2015-10-05,1,,,,,ヨシダ,0
541,2430003009720,登記記録の閉鎖等,0,2022-10-13,2022-10-03,合同会社健康Ｓｈｏｐ加来,,合同会社,北海道,札幌市西区,八軒二条東１丁目２番１６－３０２号,,01,107,0630862,,,2022-10-03,清算の結了等,,,2018-09-20,1,,,,,ケンコウショップカク,0
555,3010001144800,登記記録の閉鎖等,0,2022-10-13,2022-10-04,株式会社大原ライフサポート,,株式会社,東京都,千代田区,西神田２丁目４番９号,,13,101,1010065,,,2022-10-04,合併による解散等,8010001012911,令和４年１０月１日東京都千代田区西神田二丁目３番６号株式会社大原キャリアスタッフ（8010001012911）に合併し解散,2015-10-05,1,,,,,オオハラライフサポート,0
559,3010001215989,登記記録の閉鎖等,0,2022-10-13,2022-09-06,東京電解ホールディングス株式会社,,株式会社,東京都,江東区,東砂１丁目３番２０号,,13,108,1360074,,,2022-09-06,合併による解散等,6010601026627,令和４年９月１日東京都江東区東砂一丁目３番２０号東京電解株式会社（6010601026627）に合併し解散,2021-02-19,1,,,,,トウキョウデンカイホールディングス,0
594,3010901030802,登記記録の閉鎖等,0,2022-10-13,2022-10-05,株式会社東京カウンセリングサービス,,株式会社,東京都,世田谷区,松原６丁目３４番９号,,13,112,1560043,,,2022-10-05,清算の結了等,,,2015-10-05,1,,,,,トウキョウカウンセリングサービス,0
598,3010902000853,登記記録の閉鎖等,0,2022-10-13,2022-10-06,有限会社アトリエまり子,,有限会社,東京都,世田谷区,上野毛３丁目２２番５号,,13,112,1580093,,,2022-10-06,清算の結了等,,,2015-10-05,1,,,,,アトリエマリコ,0
619,3011801021032,登記記録の閉鎖等,0,2022-10-13,2022-10-07,ビコー輸送株式会社,,株式会社,東京都,足立区,六木３丁目３２番１８号２０３号室,,13,121,1210052,,,2022-10-07,合併による解散等,5030001050029,令和４年１０月１日埼玉県新座市野火止二丁目８番３６号ビコーオペレーションシステム株式会社（5030001050029）に合併し解散,2015-10-05,1,,,,,ビコーユソウ,0
621,3012302001655,登記記録の閉鎖等,0,2022-10-13,2022-10-06,有限会社ケイズ・プロダクツ,,有限会社,東京都,町田市,南町田５丁目１４番３－６０２号,,13,209,1940005,,,2022-10-06,清算の結了等,,,2015-10-05,1,,,,,ケイズプロダクツ,0
622,3012401029630,登記記録の閉鎖等,0,2022-10-13,2022-10-06,株式会社武蔵野中央,,株式会社,東京都,武蔵野市,中町２丁目６番２号,,13,203,1800006,,,2022-10-06,清算の結了等,,,2015-10-05,1,,,,,ムサシノチュウオウ,0
627,3013201000260,登記記録の閉鎖等,0,2022-10-13,2022-09-30,浅沼通信株式会社,,株式会社,東京都,目黒区,五本木２丁目２６番１号,,13,110,1530053,,,2022-09-30,清算の結了等,,,2015-10-05,1,,,,,,0
633,3020001073957,登記記録の閉鎖等,0,2022-10-13,2022-10-03,東芝エレクトロニックシステムズ株式会社,,株式会社,神奈川県,川崎市幸区,小向東芝町１番地,,14,132,2120001,,,2022-10-03,合併による解散等,5020001075910,令和４年１０月１日川崎市幸区小向東芝町１番地東芝電波テクノロジー株式会社（5020001075910）に合併し解散,2015-10-05,1,,,,,トウシバデンパテクノロジー,0
634,3020001083782,登記記録の閉鎖等,0,2022-10-13,2022-10-03,株式会社アンテック,,株式会社,神奈川県,横浜市都筑区,折本町１７４６－１,,14,118,2240043,,,2022-10-03,合併による解散等,3020001110859,令和４年１０月１日神奈川県横浜市都筑区早渕一丁目２３番２０－２号株式会社シンワホールディングス（3020001110859）に合併し解散,2015-10-05,1,,,,,アンテック,0
637,3020002059641,登記記録の閉鎖等,0,2022-10-13,2022-10-04,有限会社ジーン・ランゲージ・スクール,,有限会社,神奈川県,横浜市港北区,菊名６丁目１６番３２－２０８号,,14,109,2220011,,,2022-10-04,清算の結了等,,,2015-10-05,1,,,,,ジーンランゲージスクール,0
649,3030001060161,登記記録の閉鎖等,0,2022-10-13,2022-09-30,奥村縫製工業株式会社,,株式会社,埼玉県,本庄市,若泉２丁目７番１０号,,11,211,3670055,,,2022-09-30,清算の結了等,,,2015-10-05,1,,,,,オクムラホウセイコウギョウ,0
657,3030002115237,登記記録の閉鎖等,0,2022-10-13,2022-09-30,有限会社アールアンドピー,,有限会社,埼玉県,深谷市,上原４１７番地１,,11,218,3691109,,,2022-09-30,清算の結了等,,,2015-10-05,1,,,,,アールアンドピー,0
661,3040001011964,登記記録の閉鎖等,0,2022-10-13,2022-10-07,株式会社森電機,,株式会社,千葉県,千葉市美浜区,新港１６３番地,,12,106,2610002,,,2022-10-07,合併による解散等,1010401067512,令和４年１０月１日東京都港区高輪二丁目１５番２１号オートゼウス株式会社（1010401067512）に合併し解散,2015-10-05,1,,,,,モリデンキ,0
673,3050001000264,登記記録の閉鎖等,0,2022-10-13,2022-10-05,茨城電建工業株式会社,00021804,株式会社,茨城県,水戸市,酒門町８５８番地,,08,201,3100841,,,2022-10-05,合併による解散等,6010701002651,令和４年１０月１日東京都台東区松が谷三丁目２１番９号株式会社協和機電（6010701002651）に合併し解散,2015-10-05,1,,,,,,0
681,3060001023925,登記記録の閉鎖等,0,2022-10-13,2022-10-05,有本緑地株式会社,,株式会社,栃木県,那須郡那須町,大字寺子乙３３１７番地３,,09,407,3293215,,,2022-10-05,清算の結了等,,,2015-10-05,1,,,,,アリモトリョクチ,0
689,3080102000755,登記記録の閉鎖等,0,2022-10-13,2022-10-11,有限会社荻田書店,,有限会社,静岡県,沼津市,上香貫槇島町１３４９番地,,22,203,4100834,,,2022-10-11,清算の結了等,,,2015-10-05,1,,,,,オギタショテン,0
691,3080402002534,登記記録の閉鎖等,0,2022-10-13,2022-10-06,有限会社久嶋工業,,有限会社,静岡県,浜松市中区,早出町１３５７番地の１,,22,131,4350054,,,2022-10-06,清算の結了等,,,2015-10-05,1,,,,,キュウシマコウギョウ,0
692,3080402021195,登記記録の閉鎖等,0,2022-10-13,2022-10-07,有限会社豊岡農業機械センター,,有限会社,静岡県,磐田市,松之木島５７５番地の６,,22,211,4380125,,,2022-10-07,清算の結了等,,,2015-10-05,1,,,,,トヨオカノウギョウキカイセンター,0
693,3090001013403,登記記録の閉鎖等,0,2022-10-13,2022-10-11,株式会社ちろりん村,,株式会社,山梨県,甲府市,湯村２丁目６番３３号,,19,201,4000073,,,2022-10-11,清算の結了等,,,2015-10-05,1,,,,,チロリンムラ,0
698,3110002006568,登記記録の閉鎖等,0,2022-10-13,2022-10-06,有限会社めぐみ荘,,有限会社,新潟県,新潟市中央区,長嶺町８番１７号,,15,103,9500085,,,2022-10-06,清算の結了等,,,2015-10-05,1,,,,,メグミソウ,0
736,3170001010912,登記記録の閉鎖等,0,2022-10-13,2022-10-06,株式会社今城機料店,00045371,株式会社,和歌山県,橋本市,高野口町名倉７番地,,30,203,6497205,,,2022-10-06,清算の結了等,,,2015-10-05,1,,,,,,0
747,3190002008235,登記記録の閉鎖等,0,2022-10-13,2022-10-11,有限会社入交企業,,有限会社,北海道,札幌市中央区,南一条西１６丁目１番地３２３春野ビル３階,,01,101,0600061,,,2022-10-11,清算の結了等,,,2015-10-05,1,,,,,イリマジリキギョウ,0
749,3200005006110,登記記録の閉鎖等,0,2022-10-13,2022-10-12,妙楽寺,,その他の設立登記法人,岐阜県,揖斐郡揖斐川町,市場１４２２番地,,21,401,5010627,,,2022-10-12,清算の結了等,,,2015-10-05,1,,,,,ミョウラクジ,0
751,3230001015723,登記記録の閉鎖等,0,2022-10-13,2022-10-07,株式会社セーフティーサービス,,株式会社,富山県,射水市,堀内１７９番地７,,16,211,9390253,,,2022-10-07,清算の結了等,,,2015-10-05,1,,,,,セーフティーサービス,0
753,3240001028534,登記記録の閉鎖等,0,2022-10-13,2022-10-06,株式会社三宅工作所,,株式会社,広島県,大竹市,油見１丁目７番５号,,34,211,7390612,,,2022-10-06,清算の結了等,,,2015-10-05,1,,,,,ミヤケコウサクショ,0
758,3240002031090,登記記録の閉鎖等,0,2022-10-13,2022-10-07,甲奴素材有限会社,,有限会社,広島県,三次市,甲奴町本郷６８４番地,,34,209,7294101,,,2022-10-07,清算の結了等,,,2015-10-05,1,,,,,コウヌソザイ,0
765,3270001008327,登記記録の閉鎖等,0,2022-10-13,2022-10-05,株式会社クローバーアカデミー,,株式会社,鳥取県,米子市,末広町３１１番地,,31,202,6830043,,,2022-10-05,清算の結了等,,,2021-08-03,1,,,,,クローバーアカデミー,0
783,3370001012095,登記記録の閉鎖等,0,2022-10-13,2022-10-11,株式会社ブレインハート教育研究所,,株式会社,岩手県,盛岡市,上田３丁目１番３７号,,03,201,0200066,,,2022-10-11,清算の結了等,,,2015-10-05,1,,,,,ブレインハートキョウイクケンキュウジョ,0
793,3420005000578,登記記録の閉鎖等,0,2022-10-13,2022-10-03,公益財団法人青森県国際交流協会,,その他の設立登記法人,青森県,青森市,安方１丁目１番４０号,,02,201,0300803,,,2022-10-03,合併による解散等,4420005006772,令和４年１０月１日青森市安方一丁目１番４０号公益社団法人青森県観光国際交流機構（4420005006772）に合併し解散,2015-10-05,1,,,,,アオモリケンコクサイコウリュウキョウカイ,0
802,3430002064336,登記記録の閉鎖等,0,2022-10-13,2022-09-30,有限会社新和鋼業,,有限会社,北海道,室蘭市,崎守町３８７番,,01,205,0500055,,,2022-09-30,清算の結了等,,,2015-10-05,1,,,,,シンワコウギョウ,0
805,3440002005842,登記記録の閉鎖等,0,2022-10-13,2022-10-05,有限会社佐藤石工,,有限会社,北海道,上磯郡知内町,字涌元１１１番地８,,01,333,0491104,,,2022-10-05,清算の結了等,,,2015-10-05,1,,,,,サトウセッコウ,0
808,3490001000724,登記記録の閉鎖等,0,2022-10-13,2022-10-07,株式会社ステーションクリエイト高知,,株式会社,高知県,高知市,栄田町２丁目１番１７号,,39,201,7800061,,,2022-10-07,合併による解散等,5470001002241,令和４年１０月１日香川県高松市浜ノ町８番２４号ＪＲ四国ステーション開発株式会社（5470001002241）に合併し解散,2015-10-05,1,,,,,ステーションクリエイトコウチ,0
835,4010003014942,登記記録の閉鎖等,0,2022-10-13,2022-10-04,ＦＯＲＥＶＥＲ２１ＪＡＰＡＮ　ＴＲＡＤＩＮＧ　ＣＯＭＰＡＮＹ合同会社,,合同会社,東京都,千代田区,麹町４丁目１番地,,13,101,1020083,,,2022-10-04,清算の結了等,,,2015-10-05,1,,,,,フォーエバートウェンティワンジャパントレーディングカンパニー,0
837,4010005018842,登記記録の閉鎖等,0,2022-10-13,2022-10-03,一般社団法人日本ハンバーグ・ハンバーガー協会,,その他の設立登記法人,東京都,渋谷区,恵比寿１丁目５番６号,,13,113,1500013,,,2022-10-03,清算の結了等,,,2015-10-05,1,,,,,ニホンハンバーグハンバーガーキョウカイ,0
892,4020002057132,登記記録の閉鎖等,0,2022-10-13,2022-10-04,有限会社ダイトク不動産,,有限会社,神奈川県,横浜市旭区,南希望が丘４３番地の８,,14,112,2410824,,,2022-10-04,清算の結了等,,,2015-10-05,1,,,,,ダイトクフドウサン,0
893,4020002083756,登記記録の閉鎖等,0,2022-10-13,2022-10-04,有限会社スーパーダイイチ,,有限会社,神奈川県,川崎市高津区,蟹ケ谷３０８番地６,,14,134,2130025,,,2022-10-04,清算の結了等,,,2015-10-05,1,,,,,スーパーダイイチ,0
908,4030001112119,登記記録の閉鎖等,0,2022-10-13,2022-10-03,銀未来株式会社,,株式会社,埼玉県,川口市,栄町１丁目３番１９号,,11,203,3320017,,,2022-10-03,合併による解散等,1030001077216,令和４年１０月１日埼玉県川口市栄町一丁目３番１９号株式会社フォーエバー（1030001077216）に合併し解散,2016-01-06,1,,,,,ギンミライ,0
919,4040001068475,登記記録の閉鎖等,0,2022-10-13,2022-10-03,プリンスフーズ株式会社,,株式会社,千葉県,柏市,塚崎１２９６番地３１,,12,217,2770923,,,2022-10-03,清算の結了等,,,2015-10-05,1,,,,,プリンスフーズ,0
933,4050002026489,登記記録の閉鎖等,0,2022-10-13,2022-10-03,有限会社猿田工務店,,有限会社,茨城県,鹿嶋市,大字宮中東山２６０番地１６,,08,222,3140031,,,2022-10-03,合併による解散等,4050001020195,令和４年１０月１日茨城県鹿嶋市宮下一丁目６番７号株式会社鹿島美装（4050001020195）に合併し解散,2015-10-05,1,,,,,サルタコウムテン,0
937,4060002030548,登記記録の閉鎖等,0,2022-10-13,2022-10-05,有限会社石橋メディカル,,有限会社,栃木県,下野市,下古山１丁目１番地１２,,09,216,3290502,,,2022-10-05,清算の結了等,,,2015-10-05,1,,,,,イシバシメディカル,0
943,4080001019474,登記記録の閉鎖等,0,2022-10-13,2022-10-12,株式会社ＦＯＳＳＥＴＴＥ,,株式会社,静岡県,静岡市駿河区,みずほ５丁目１３番地の３１,,22,102,4210115,,,2022-10-12,清算の結了等,,,2015-10-05,1,,,,,フォセット,0
954,4110003004462,登記記録の閉鎖等,0,2022-10-13,2022-10-06,Ｇｒａｃｅ合同会社,,合同会社,新潟県,長岡市,中沢２丁目１１５４番地７,,15,202,9400853,,,2022-10-06,清算の結了等,,,2021-04-27,1,,,,,グレース,0
960,4120001026359,登記記録の閉鎖等,0,2022-10-13,2022-10-04,株式会社近藤商会,,株式会社,大阪府,大阪市此花区,四貫島２丁目５番６号,,27,104,5540014,,,2022-10-04,清算の結了等,,,2015-10-05,1,,,,,コンドウショウカイ,0
964,4120001158326,登記記録の閉鎖等,0,2022-10-13,2022-10-03,株式会社山本測量設計事務所,,株式会社,大阪府,門真市,大字三ツ島４０２番地の７,,27,223,5710015,,,2022-10-03,清算の結了等,,,2015-10-05,1,,,,,,0
1024,4180003011378,登記記録の閉鎖等,0,2022-10-13,2022-10-03,株式会社今枝籐製品,,株式会社,愛知県,一宮市,今伊勢町馬寄字桑屋敷イ．２番地,00072635,23,203,4910051,,,2022-10-03,合併による解散等,7180001111086,令和４年１０月１日愛知県一宮市今伊勢町馬寄字桑屋敷イ２番地株式会社今枝籐製品ホールディングス（7180001111086）に合併し解散,2015-10-05,1,,,,,イマエダトウセイヒン,0
1027,4190002005660,登記記録の閉鎖等,0,2022-10-13,2022-10-06,有限会社新靖測量設計,,有限会社,三重県,北牟婁郡紀北町,東長島２１４９番地の１,,24,543,5193204,,,2022-10-06,清算の結了等,,,2015-10-05,1,,,,,シンセイソクリョウセッケイ,0
1029,4190002010421,登記記録の閉鎖等,0,2022-10-13,2022-10-07,有限会社ウエマン,,有限会社,三重県,鳥羽市,相差町２６６番地,,24,211,5170032,,,2022-10-07,清算の結了等,,,2015-10-05,1,,,,,ウエマン,0
1058,4300001003934,登記記録の閉鎖等,0,2022-10-13,2022-10-03,株式会社エィ・ティ・ジー,,株式会社,佐賀県,小城市,芦刈町三王崎８９番地４,00095089,41,208,8490314,,,2022-10-03,合併による解散等,8300001003402,令和４年１０月１日佐賀県小城市芦刈町三王崎１１０番地岡本建設株式会社（8300001003402）に合併し解散,2015-10-05,1,,,,,エィティジー,0
1064,4330002000985,登記記録の閉鎖等,0,2022-10-13,2022-10-07,有限会社岩田工業,,有限会社,熊本県,熊本市東区,下南部３丁目３番３５号,,43,102,8618019,,,2022-10-07,清算の結了等,,,2015-10-05,1,,,,,イワタコウギョウ,0
1071,4360002021681,登記記録の閉鎖等,0,2022-10-13,2022-10-04,有限会社浦本建設,,有限会社,沖縄県,石垣市,字平得３２６番地２,,47,207,9070003,,,2022-10-04,清算の結了等,,,2015-10-05,1,,,,,ウラモトケンセツ,0
1077,4370001020650,登記記録の閉鎖等,0,2022-10-13,2022-10-03,株式会社東北復興パートナーズ,,株式会社,宮城県,仙台市青葉区,中央１丁目６番３５号,,04,101,9800021,,,2022-10-03,清算の結了等,,,2015-10-05,1,,,,,トウホクフッコウパートナーズ,0
1078,4370001044187,登記記録の閉鎖等,0,2022-10-13,2022-10-03,株式会社エクスディーズ,,株式会社,宮城県,仙台市太白区,あすと長町１丁目５番４２－９１５号,,04,104,9820007,,,2022-10-03,清算の結了等,,,2019-04-01,1,,,,,エクスディーズ,0
1081,4400002002363,登記記録の閉鎖等,0,2022-10-13,2022-10-11,有限会社中川ボルト,,有限会社,岩手県,盛岡市,馬場町４番３６号,,03,201,0200876,,,2022-10-11,清算の結了等,,,2015-10-05,1,,,,,ナカガワボルト,0
1102,4480002000707,登記記録の閉鎖等,0,2022-10-13,2022-10-12,有限会社今井商店,,有限会社,徳島県,徳島市,南庄町４丁目４６番地,,36,201,7700045,,,2022-10-12,清算の結了等,,,2015-10-05,1,,,,,イマイショウテン,0
1112,5010001190363,登記記録の閉鎖等,0,2022-10-13,2022-10-04,株式会社メディカルファイナンステクノロジーズ,,株式会社,東京都,千代田区,平河町２丁目７番３号,,13,101,1020093,,,2022-10-04,合併による解散等,4010001133819,令和４年１０月１日東京都千代田区平河町二丁目７番３号株式会社メディカルファイナンステクノロジーズ（4010001133819）に合併し解散,2018-03-16,1,,,,,メディカルファイナンステクノロジーズ,0
1131,5010801026238,登記記録の閉鎖等,0,2022-10-13,2022-10-04,ペッツファースト少額短期保険株式会社,,株式会社,東京都,江東区,豊洲５丁目６番１５号,,13,108,1350061,,,2022-10-04,合併による解散等,6010001087807,令和４年１０月１日東京都江東区豊洲五丁目６番１５号アイペット損害保険株式会社（6010001087807）に合併し解散,2015-12-09,1,,,,,ペッツファーストショウガクタンキホケン,0
1167,5012701004100,登記記録の閉鎖等,0,2022-10-13,2022-10-07,スワロー造園株式会社,,株式会社,東京都,清瀬市,上清戸１丁目１３番４１号,,13,221,2040013,,,2022-10-07,清算の結了等,,,2015-10-05,1,,,,,スワローゾウエン,0
1173,5020001042992,登記記録の閉鎖等,0,2022-10-13,2022-10-03,富士通エフサスシステムズ株式会社,,株式会社,神奈川県,横浜市西区,みなとみらい２丁目３番３号,,14,103,2200012,,,2022-10-03,合併による解散等,8010401056384,令和４年１０月１日川崎市中原区中丸子１３番地２株式会社富士通エフサス（8010401056384）に合併し解散,2015-10-05,1,,,,,フジツウエフサスシステムズ,0
1174,5020001044196,登記記録の閉鎖等,0,2022-10-13,2022-10-03,株式会社露木実業,,株式会社,神奈川県,横浜市青葉区,美しが丘１丁目９番２２,,14,117,2250002,,,2022-10-03,合併による解散等,4020001068122,令和４年１０月１日横浜市青葉区美しが丘一丁目９番地２２露木建設工業株式会社（4020001068122）に合併し解散,2015-10-05,1,,,,,ツユキジツギョウ,0
1186,5020002018703,登記記録の閉鎖等,0,2022-10-13,2022-10-04,有限会社後藤建工,,有限会社,神奈川県,横浜市港南区,上大岡東３丁目９番２１号,,14,111,2330001,,,2022-10-04,清算の結了等,,,2015-10-05,1,,,,,ゴトウケンコウ,0
1195,5021002031290,登記記録の閉鎖等,0,2022-10-13,2022-10-07,有限会社カバーウィズアース,,有限会社,神奈川県,厚木市,旭町５丁目１８番６号,,14,212,2430014,,,2022-10-07,清算の結了等,,,2015-10-05,1,,,,,カバーウィズアース,0
1205,5030002071123,登記記録の閉鎖等,0,2022-10-13,2022-09-30,有限会社石川精機,,有限会社,埼玉県,春日部市,備後西１丁目１０番３２号,,11,214,3440033,,,2022-09-30,清算の結了等,,,2015-10-05,1,,,,,イシカワセイキ,0
1220,5050001017901,登記記録の閉鎖等,0,2022-10-13,2022-10-03,株式会社サンセイ,,株式会社,茨城県,つくば市,上ノ室３８１番地１,,08,220,3050023,,,2022-10-03,合併による解散等,5050001016044,令和４年１０月１日茨城県つくば市上ノ室３８１番地１株式会社サンセイ（5050001016044）に合併し解散,2015-10-05,1,,,,,サンセイ,0
1222,5050001030763,登記記録の閉鎖等,0,2022-10-13,2022-10-03,株式会社フレグランス・フリーク,,株式会社,茨城県,つくばみらい市,板橋１１８８番地,,08,235,3002307,,,2022-10-03,清算の結了等,,,2015-10-05,1,,,,,フレグランスフリーク,0
1224,5050001034129,登記記録の閉鎖等,0,2022-10-13,2022-10-04,株式会社佐藤会計,,株式会社,茨城県,稲敷郡阿見町,大字曙３０５番地１,,08,443,3000306,,,2022-10-04,清算の結了等,,,2015-10-05,1,,,,,サトウカイケイ,0
1287,5180001002130,登記記録の閉鎖等,0,2022-10-13,2022-10-04,株式会社新生ホーム,,株式会社,愛知県,名古屋市名東区,梅森坂１丁目５６２番地の１,,23,115,4650065,,,2022-10-04,清算の結了等,,,2015-10-05,1,,,,,シンセイホーム,0
1294,5180002068328,登記記録の閉鎖等,0,2022-10-13,2022-10-11,有限会社風々堂,,有限会社,愛知県,名古屋市守山区,森宮町２３２番地１,,23,113,4630096,,,2022-10-11,清算の結了等,,,2015-10-05,1,,,,,フウフウドウ,0
1295,5180002074573,登記記録の閉鎖等,0,2022-10-13,2022-10-04,森藤研磨有限会社,,有限会社,愛知県,犬山市,大字羽黒字川原口３６番地,,23,215,4840894,,,2022-10-04,清算の結了等,,,2015-10-05,1,,,,,モリトウケンマ,0
1301,5190002015576,登記記録の閉鎖等,0,2022-10-13,2022-10-11,有限会社杉谷建築工務,,有限会社,三重県,松阪市,小野江町４７３番地１,,24,204,5152109,,,2022-10-11,清算の結了等,,,2015-10-05,1,,,,,スギタニケンチクコウム,0
1304,5200003005599,登記記録の閉鎖等,0,2022-10-13,2022-10-12,合同会社Ｖｅｒｓｅａｕ,,合同会社,岐阜県,多治見市,笠原町３２５９番地の３,,21,204,5070901,,,2022-10-12,清算の結了等,,,2022-06-23,1,,,,,ヴェルソー,0
1331,5330001020488,登記記録の閉鎖等,0,2022-10-13,2022-10-07,株式会社クイーン,,株式会社,熊本県,熊本市北区,八景水谷４丁目５番４５－１０８号,,43,105,8618064,,,2022-10-07,清算の結了等,,,2015-10-05,1,,,,,クイーン,0
1350,5400002008888,登記記録の閉鎖等,0,2022-10-13,2022-10-06,有限会社ティー・ドラッグ,,有限会社,岩手県,花巻市,東和町土沢２区２５７番地,,03,205,0280114,,,2022-10-06,清算の結了等,,,2015-10-05,1,,,,,ティードラッグ,0
1353,5400602000765,登記記録の閉鎖等,0,2022-10-13,2022-10-07,有限会社ヤマツジ,,有限会社,岩手県,奥州市,水沢字横町２１番地,,03,215,0230801,,,2022-10-07,清算の結了等,,,2015-10-05,1,,,,,ヤマツジ,0
1354,5420002016906,登記記録の閉鎖等,0,2022-10-13,2022-10-04,有限会社中野渡カメラ店,,有限会社,青森県,十和田市,西二番町１１番２７号,,02,206,0340082,,,2022-10-04,清算の結了等,,,2015-10-05,1,,,,,ナカノワタリカメラテン,0
1356,5430002051794,登記記録の閉鎖等,0,2022-10-13,2022-09-30,有限会社浮穴商事,,有限会社,北海道,滝川市,江部乙町西１２丁目２番１９号,,01,225,0790462,,,2022-09-30,清算の結了等,,,2015-10-05,1,,,,,,0
1361,5460401000093,登記記録の閉鎖等,0,2022-10-13,2022-10-07,株式会社ケイ・テック,,株式会社,北海道,根室市,琴平町３丁目２８番地,,01,223,0870055,,,2022-10-07,清算の結了等,,,2015-10-05,1,,,,,ケイテック,0
1372,6010001054724,登記記録の閉鎖等,0,2022-10-13,2022-10-05,株式会社晴商會,,株式会社,東京都,中央区,月島１丁目１番１１号,,13,102,1040052,,,2022-10-05,清算の結了等,,,2015-10-05,1,,,,,セイショウカイ,0
1379,6010001196582,登記記録の閉鎖等,0,2022-10-13,2022-10-11,株式会社レフトキャピタル,,株式会社,東京都,港区,東新橋２丁目１４番１号,,13,103,1050021,,,2022-10-11,合併による解散等,1120001122391,令和４年１０月１日大阪市西区江戸堀二丁目１番１号株式会社アロートラストシステムズ（1120001122391）に合併し解散,2018-11-26,1,,,,,レフトキャピタル,0
1401,6010701031989,登記記録の閉鎖等,0,2022-10-13,2022-09-22,株式会社トライリンクアジア,,株式会社,東京都,港区,南青山１丁目１０番２号南青山Ａビル７Ｆ,,13,103,1070062,,,2022-09-22,清算の結了等,,,2016-02-08,1,,,,,トライリンクアジア,0
1428,6011601010455,登記記録の閉鎖等,0,2022-10-13,2022-10-07,株式会社岩瀬工務店,,株式会社,東京都,練馬区,西大泉４丁目８番３号壱番館１０１号,,13,120,1780065,,,2022-10-07,清算の結了等,,,2015-10-05,1,,,,,,0
1429,6011601018408,登記記録の閉鎖等,0,2022-10-13,2022-10-06,ジェイ・フード・サイエンス株式会社,,株式会社,東京都,練馬区,光が丘３丁目７番３－７０４号,,13,120,1790072,,,2022-10-06,清算の結了等,,,2015-10-05,1,,,,,ジェイフードサイエンス,0
1430,6011601021345,登記記録の閉鎖等,0,2022-10-13,2022-10-07,葛西建設株式会社,00108567,株式会社,東京都,練馬区,貫井４丁目４５番６号ガーデンコート１０２,,13,120,1760021,,,2022-10-07,清算の結了等,,,2016-12-01,1,,,,,,0
1432,6011703001344,登記記録の閉鎖等,0,2022-10-13,2022-10-11,インヴィクト合同会社,,合同会社,東京都,江戸川区,東小岩３丁目７番１８号,,13,123,1330052,,,2022-10-11,清算の結了等,,,2015-10-06,1,,,,,インヴィクト,0
1436,6012701009445,登記記録の閉鎖等,0,2022-10-13,2022-10-11,アロビス株式会社,,株式会社,東京都,西東京市,柳沢２丁目１６番２４号,,13,229,2020022,,,2022-10-11,合併による解散等,4020001063602,令和４年１０月１日東京都大田区南蒲田一丁目３番７号株式会社福包（4020001063602）に合併し解散,2015-10-05,1,,,,,アロビス,0
1468,6030002072260,登記記録の閉鎖等,0,2022-10-13,2022-09-30,有限会社石坂会計計算事務所,,有限会社,埼玉県,川越市,大字小室５００番地１０,,11,201,3501106,,,2022-09-30,清算の結了等,,,2015-10-05,1,,,,,イシザカカイケイケイサンジムショ,0
1470,6040001028106,登記記録の閉鎖等,0,2022-10-13,2022-10-03,株式会社五香商会,,株式会社,千葉県,鎌ケ谷市,粟野８１３番地８６,,12,224,2730132,,,2022-10-03,清算の結了等,,,2015-10-05,1,,,,,ゴコウショウカイ,0
1494,6070002019745,登記記録の閉鎖等,0,2022-10-13,2022-10-05,有限会社細谷工業,,有限会社,群馬県,伊勢崎市,阿弥大寺町１０８番地,,10,204,3720821,,,2022-10-05,清算の結了等,,,2015-10-05,1,,,,,ホソヤコウギョウ,0
1496,6080002001231,登記記録の閉鎖等,0,2022-10-13,2022-10-12,有限会社岡の工務店,,有限会社,静岡県,静岡市葵区,駒形通５丁目１４番８号,,22,101,4200042,,,2022-10-12,清算の結了等,,,2015-10-05,1,,,,,オカノコウムテン,0
1498,6090001006940,登記記録の閉鎖等,0,2022-10-13,2022-10-03,ミスターデイク株式会社,,株式会社,山梨県,甲府市,国母７丁目５番９号,,19,201,4000043,,,2022-10-03,合併による解散等,3010001223711,令和４年１０月１日山梨県甲府市国母七丁目５番９号ミスターデイク株式会社（3010001223711）に合併し解散,2015-10-05,1,,,,,ミスターデイク,0
1502,6100005011745,登記記録の閉鎖等,0,2022-10-13,2022-10-07,特定非営利活動法人生東森の会,,その他の設立登記法人,長野県,下伊那郡松川町,生田８３２５番地,,20,402,3993302,,,2022-10-07,清算の結了等,,,2015-11-11,1,,,,,イクトウモリノカイ,0
1508,6110002008041,登記記録の閉鎖等,0,2022-10-13,2022-10-06,有限会社啓峰機料,,有限会社,新潟県,五泉市,南本町１丁目４番６号,,15,218,9591836,,,2022-10-06,清算の結了等,,,2015-10-05,1,,,,,ケイホウキリョウ,0
1510,6120001000221,登記記録の閉鎖等,0,2022-10-13,2022-10-03,株式会社センチュリーアセット,,株式会社,大阪府,大阪市中央区,北浜１丁目９番１０号,,27,128,5410041,,,2022-10-03,合併による解散等,5120001124343,令和４年１０月１日大阪市都島区片町一丁目５番１３号株式会社大倉（5120001124343）に合併し解散,2015-10-05,1,,,,,センチュリーアセット,0
1532,6120101040497,登記記録の閉鎖等,0,2022-10-13,2022-10-06,藤木綿業株式会社,,株式会社,大阪府,泉南郡熊取町,小谷南２丁目２番１５号,,27,361,5900435,,,2022-10-06,清算の結了等,,,2015-10-05,1,,,,,フジキメンギョウ,0
1540,6120102027428,登記記録の閉鎖等,0,2022-10-13,2022-10-11,有限会社アイテイシイ,,有限会社,大阪府,泉南市,信達市場３７番地の２５,,27,228,5900504,,,2022-10-11,清算の結了等,,,2015-10-05,1,,,,,アイテイシイ,0
1565,6180001116185,登記記録の閉鎖等,0,2022-10-13,2022-10-03,ＭＤＦ株式会社,,株式会社,愛知県,名古屋市名東区,山の手３丁目６０４番地の１,,23,115,4650011,,,2022-10-03,合併による解散等,2180002063240,令和４年１０月１日愛知県日進市竹の山四丁目１０５番地味仙株式会社（2180002063240）に合併し解散,2015-10-05,1,,,,,エムディーエフ,0
1575,6180302012232,登記記録の閉鎖等,0,2022-10-13,2022-10-07,有限会社大弘電機,,有限会社,愛知県,豊橋市,野田町字野田１３０番地２,,23,201,4418001,,,2022-10-07,清算の結了等,,,2015-10-05,1,,,,,ダイコウデンキ,0
1579,6200001037569,登記記録の閉鎖等,0,2022-10-13,2022-10-11,株式会社テッシン,,株式会社,岐阜県,本巣郡北方町,曲路東１丁目７４番地の９,,21,421,5010442,,,2022-10-11,清算の結了等,,,2020-07-07,1,,,,,テッシン,0
1583,6220001014401,登記記録の閉鎖等,0,2022-10-13,2022-10-07,株式会社ＡＩ,,株式会社,石川県,金沢市,彦三町１丁目２番１号,,17,201,9200901,,,2022-10-07,清算の結了等,,,2015-10-05,1,,,,,エーアイ,0
1616,6330001021997,登記記録の閉鎖等,0,2022-10-13,2022-10-05,ＡＲＲＩＢＡ株式会社,,株式会社,熊本県,熊本市中央区,京町２丁目１番４号,,43,101,8600078,,,2022-10-05,清算の結了等,,,2015-10-05,1,,,,,アリバ,0
1620,6330002003094,登記記録の閉鎖等,0,2022-10-13,2022-10-07,有限会社熊日九品寺販売,,有限会社,熊本県,熊本市中央区,菅原町８番１３号,,43,101,8620957,,,2022-10-07,清算の結了等,,,2015-10-05,1,,,,,クマニチクホンジハンバイ,0
1626,6360002005121,登記記録の閉鎖等,0,2022-10-13,2022-10-05,有限会社湛エンジニア,,有限会社,沖縄県,那覇市,字銘苅２１１番地の１,,47,201,9000004,,,2022-10-05,清算の結了等,,,2015-10-05,1,,,,,,0
1652,6430002054961,登記記録の閉鎖等,0,2022-10-13,2022-09-30,有限会社野坂工業所,,有限会社,北海道,小樽市,桜１丁目２２番７号,,01,203,0470156,,,2022-09-30,清算の結了等,,,2015-10-05,1,,,,,ノサカコウギョウショ,0
1656,6460101005342,登記記録の閉鎖等,0,2022-10-13,2022-10-07,株式会社ホクショウ,,株式会社,北海道,帯広市,西十七条南４丁目１５番４号,,01,207,0800027,,,2022-10-07,清算の結了等,,,2015-10-05,1,,,,,ホクショウ,0
1668,7010001149218,登記記録の閉鎖等,0,2022-10-13,2022-10-04,株式会社エフピーダイレクト,,株式会社,東京都,中央区,日本橋馬喰町１丁目３番６号ＦＰ日本橋ビル,,13,102,1030002,,,2022-10-04,清算の結了等,,,2015-10-05,1,,,,,エフピーダイレクト,0
1680,7010401132203,登記記録の閉鎖等,0,2022-10-13,2022-10-07,ＡＫＫＡ　Ｊａｐａｎ株式会社,,株式会社,愛知県,名古屋市中区,錦３丁目２２番２４号,,23,106,4600003,,,2022-10-07,清算の結了等,,,2017-06-23,1,,,,,アッカジャパン,0
1691,7010602002485,登記記録の閉鎖等,0,2022-10-13,2022-10-04,有限会社仁生堂,,有限会社,東京都,千代田区,丸の内１丁目９番１号,,13,101,1000005,,,2022-10-04,合併による解散等,9010001064753,令和４年１０月１日東京都千代田区丸の内一丁目９番１号日本調剤株式会社（9010001064753）に合併し解散,2015-10-05,1,,,,,ジンセイドウ,0
1734,7011501003616,登記記録の閉鎖等,0,2022-10-13,2022-10-04,日興自動車株式会社,,株式会社,東京都,練馬区,北町６丁目２６番１号,,13,120,1790081,,,2022-10-04,合併による解散等,7011501003558,令和４年１０月１日東京都練馬区北町六丁目２６番１号日本橋運輸株式会社（7011501003558）に合併し解散,2015-10-05,1,,,,,ニッコウジドウシャ,0
1749,7013202003597,登記記録の閉鎖等,0,2022-10-13,2022-09-30,有限会社鈴木友美堂,,有限会社,東京都,目黒区,原町１丁目８番７号,,13,110,1520011,,,2022-09-30,清算の結了等,,,2015-10-05,1,,,,,スズキユウビドウ,0
1758,7020002079875,登記記録の閉鎖等,0,2022-10-13,2022-10-11,有限会社クレードボーテ,,有限会社,東京都,新宿区,新宿５丁目１８番２０号ルックハイツ新宿８０３号,,13,104,1600022,,,2022-10-11,合併による解散等,4012401013550,令和４年１０月４日東京都武蔵野市吉祥寺本町二丁目４番１４号株式会社ビューティーサイエンス（4012401013550）に合併し解散,2015-10-05,1,,,,,クレードボーテ,0
1786,7050001013080,登記記録の閉鎖等,0,2022-10-13,2022-10-11,ワイ・エム産業株式会社,,株式会社,茨城県,かすみがうら市,深谷２４番地１０,,08,230,3000134,,,2022-10-11,合併による解散等,3010601011994,令和４年１０月１日東京都墨田区本所三丁目６番６号株式会社三喜（3010601011994）に合併し解散,2015-10-05,1,,,,,,0
1792,7070001008987,登記記録の閉鎖等,0,2022-10-13,2022-10-04,株式会社オービター,,株式会社,群馬県,高崎市,問屋町４丁目６番地６,,10,202,3700006,,,2022-10-04,清算の結了等,,,2015-10-05,1,,,,,オービター,0
1797,7080002002906,登記記録の閉鎖等,0,2022-10-13,2022-10-11,有限会社杉山木工所,,有限会社,静岡県,静岡市葵区,安倍口新田２６９番地の１,,22,101,4212114,,,2022-10-11,清算の結了等,,,2015-10-05,1,,,,,,0
1803,7100001005072,登記記録の閉鎖等,0,2022-10-13,2022-10-07,株式会社昇陽,,株式会社,長野県,長野市,大字栗田字舎利田６５３番地２２３,,20,201,3800921,,,2022-10-07,清算の結了等,,,2015-10-05,1,,,,,ショウヨウ,0
1819,7120002023963,登記記録の閉鎖等,0,2022-10-13,2022-10-05,有限会社精工社,,有限会社,大阪府,大阪市西淀川区,花川１丁目１７番１８号,,27,113,5550023,,,2022-10-05,清算の結了等,,,2015-10-05,1,,,,,セイコウシャ,0
1828,7120105008746,登記記録の閉鎖等,0,2022-10-13,2022-10-11,特定非営利活動法人ＮＰＯ醍梟ＤＡＩＫＹＯＵ,,その他の設立登記法人,大阪府,堺市堺区,旭ヶ丘南町３丁２－２４,,27,141,5900807,,,2022-10-11,清算の結了等,,,2017-08-28,1,,,,,エヌピーオーダイキョウダイキョウ,0
1834,7120902016471,登記記録の閉鎖等,0,2022-10-13,2022-10-11,有限会社実践マーケティング研究所,,有限会社,大阪府,池田市,旭丘３丁目３番２９号,,27,204,5630022,,,2022-10-11,清算の結了等,,,2015-10-05,1,,,,,ジッセンマーケティングケンキュウショ,0
1843,7180001140985,登記記録の閉鎖等,0,2022-10-13,2022-10-05,大吉株式会社,,株式会社,愛知県,名古屋市中村区,大秋町３丁目３５番地１４,,23,105,4530042,,,2022-10-05,清算の結了等,,,2020-04-24,1,,,,,ダイキチ,0
1851,7180301006812,登記記録の閉鎖等,0,2022-10-13,2022-09-30,株式会社パナ無線,,株式会社,愛知県,豊橋市,八町通５丁目１２番地,,23,201,4400806,,,2022-09-30,清算の結了等,,,2015-10-05,1,,,,,パナムセン,0
1852,7180301007629,登記記録の閉鎖等,0,2022-10-13,2022-10-03,渡津自動車工業株式会社,,株式会社,愛知県,豊橋市,瓜郷町前川２番地１,,23,201,4400092,,,2022-10-03,合併による解散等,3180301012293,令和４年１０月１日愛知県蒲郡市緑町３番３号株式会社ホンダカーズ愛知南（3180301012293）に合併し解散,2015-10-05,1,,,,,ワタツジドウシャコウギョウ,0
1857,7180302012371,登記記録の閉鎖等,0,2022-10-13,2022-10-07,有限会社センエイ工業,,有限会社,愛知県,豊川市,大橋町３丁目１５６番地４,,23,207,4420809,,,2022-10-07,清算の結了等,,,2015-10-05,1,,,,,,0
1873,7260001003028,登記記録の閉鎖等,0,2022-10-13,2022-10-07,株式会社サンビルド,,株式会社,岡山県,岡山市北区,青江５丁目１８番２３号,,33,101,7000941,,,2022-10-07,清算の結了等,,,2022-08-15,1,,,,,,0
1883,7290801024146,登記記録の閉鎖等,0,2022-10-13,2022-10-07,株式会社颯ライナー,,株式会社,福岡県,北九州市門司区,吉志４丁目１番３７号（１０２）,,40,101,8000114,,,2022-10-07,清算の結了等,,,2017-11-20,1,,,,,ソウライナー,0
1889,7330001007871,登記記録の閉鎖等,0,2022-10-13,2022-10-07,ロイヤル・メッド株式会社,,株式会社,熊本県,熊本市中央区,上水前寺２丁目１番６－５０３号,,43,101,8620951,,,2022-10-07,清算の結了等,,,2015-10-05,1,,,,,ロイヤルメッド,0
1909,7400002004860,登記記録の閉鎖等,0,2022-10-13,2022-10-11,有限会社創,,有限会社,岩手県,滝沢市,大沢箸木平８４番地１３,,03,216,0200708,,,2022-10-11,清算の結了等,,,2015-10-05,1,,,,,ソウ,0
1928,8010001191490,登記記録の閉鎖等,0,2022-10-13,2022-09-21,ＵＲＯＭＥＤＩＡ　ＪＡＰＡＮ株式会社,,株式会社,東京都,港区,芝４丁目６番５号芝大井ビル２階,,13,103,1080014,,,2022-09-21,清算の結了等,,,2018-05-08,1,,,,,ユーロメディアジャパン,0
1932,8010001213105,登記記録の閉鎖等,0,2022-10-13,2022-10-11,株式会社イデオ,,株式会社,東京都,千代田区,丸の内１丁目３番４号丸の内テラス１階,,13,101,1000005,,,2022-10-11,合併による解散等,2120001209262,令和４年１０月１日大阪市中央区淡路町三丁目４番１２号株式会社ＧＡＫＵ（2120001209262）に合併し解散,2020-10-20,1,,,,,,0
1937,8010002036521,登記記録の閉鎖等,0,2022-10-13,2022-10-05,いずみ囲碁ジャパン有限会社,,有限会社,東京都,千代田区,神田鍛冶町３丁目３,,13,101,1010045,,,2022-10-05,清算の結了等,,,2015-10-05,1,,,,,イズミイゴジャパン,0
1957,8010601000506,登記記録の閉鎖等,0,2022-10-13,2022-10-04,入船運輸株式会社,,株式会社,東京都,江東区,東陽１丁目３８番１５号,,13,108,1350016,,,2022-10-04,清算の結了等,,,2015-10-05,1,,,,,イリフネウンユ,0
1958,8010601039222,登記記録の閉鎖等,0,2022-10-13,2022-10-04,株式会社アビターレ,,株式会社,東京都,江東区,富岡２丁目７番４号,,13,108,1350047,,,2022-10-04,清算の結了等,,,2015-10-05,1,,,,,アビターレ,0
1974,8011001016786,登記記録の閉鎖等,0,2022-10-13,2022-09-29,株式会社永田自動車工業所,,株式会社,東京都,渋谷区,神泉町２１番１号,,13,113,1500045,,,2022-09-29,清算の結了等,,,2015-10-05,1,,,,,ナガタジドウシャコウギョウショ,0
1983,8011001134027,登記記録の閉鎖等,0,2022-10-13,2022-09-30,フードテックカンパニー株式会社,,株式会社,東京都,渋谷区,東２丁目１４－２８,,13,113,1500011,,,2022-09-30,清算の結了等,,,2020-06-02,1,,,,,フードテックカンパニー,0
1992,8011101088478,登記記録の閉鎖等,0,2022-10-13,2022-10-04,株式会社春香企画,,株式会社,東京都,新宿区,大久保２丁目２番１１号,,13,104,1690072,,,2022-10-04,清算の結了等,,,2019-08-01,1,,,,,ハルカキカク,0
1997,8011502001543,登記記録の閉鎖等,0,2022-10-13,2022-10-07,有限会社漢友堂,,有限会社,東京都,北区,赤羽１丁目３６番１１号,,13,117,1150045,,,2022-10-07,清算の結了等,,,2015-10-05,1,,,,,カンユウドウ,0
1998,8011601001551,登記記録の閉鎖等,0,2022-10-13,2022-10-06,株式会社上村新聞店,,株式会社,東京都,練馬区,氷川台４丁目４２番１０号,,13,120,1790084,,,2022-10-06,清算の結了等,,,2015-10-05,1,,,,,ウエムラシンブンテン,0
2012,8013301032216,登記記録の閉鎖等,0,2022-10-13,2022-10-07,株式会社ＫＭＳＪ,,株式会社,東京都,豊島区,高田１丁目３８番１２－８０２号,,13,116,1710033,,,2022-10-07,清算の結了等,,,2015-10-05,1,,,,,ケイエムエスジェー,0
2022,8021002033292,登記記録の閉鎖等,0,2022-10-13,2022-10-07,有限会社ミクロテック,,有限会社,神奈川県,厚木市,下荻野５５９番地,,14,212,2430203,,,2022-10-07,清算の結了等,,,2015-10-05,1,,,,,ミクロテック,0
2056,8050002014432,登記記録の閉鎖等,0,2022-10-13,2022-10-03,有限会社コトクメンテ,,有限会社,茨城県,かすみがうら市,下稲吉１３４１番地,,08,230,3150052,,,2022-10-03,清算の結了等,,,2015-10-05,1,,,,,コトクメンテ,0
2059,8060001018136,登記記録の閉鎖等,0,2022-10-13,2022-10-05,株式会社アイケイエス,,株式会社,栃木県,足利市,葉鹿町７２４番地の１,,09,202,3260143,,,2022-10-05,清算の結了等,,,2015-10-05,1,,,,,アイケイエス,0
2067,8080001015255,登記記録の閉鎖等,0,2022-10-13,2022-10-11,株式会社まる八大石商店,,株式会社,静岡県,焼津市,小川新町４丁目３番２３号,,22,212,4250031,,,2022-10-11,清算の結了等,,,2015-10-05,1,,,,,マルハチオオイシショウテン,0
2077,8110001025548,登記記録の閉鎖等,0,2022-10-13,2022-10-06,渡辺石油株式会社,,株式会社,新潟県,長岡市,東川口６０１番地３,,15,202,9497504,,,2022-10-06,清算の結了等,,,2015-10-05,1,,,,,ワタナベセキユ,0
2079,8110002010722,登記記録の閉鎖等,0,2022-10-13,2022-10-07,有限会社高橋一級建築士事務所,,有限会社,新潟県,新潟市北区,東栄町３丁目１２番６号,,15,101,9503323,,,2022-10-07,清算の結了等,,,2015-10-05,1,,,,,タカハシイッキュウケンチクシジムショ,0
2081,8120001047112,登記記録の閉鎖等,0,2022-10-13,2022-10-11,プラス興業株式会社,,株式会社,大阪府,箕面市,桜井１丁目１７番２号,,27,220,5620043,,,2022-10-11,清算の結了等,,,2015-10-05,1,,,,,プラスコウギョウ,0
2082,8120001143051,登記記録の閉鎖等,0,2022-10-13,2022-10-11,ギフトフーズ株式会社,,株式会社,大阪府,大阪市中央区,常盤町２丁目４番２号一久ビル新館３階,,27,128,5400028,,,2022-10-11,合併による解散等,3010601011994,令和４年１０月１日東京都墨田区本所三丁目６番６号株式会社三喜（3010601011994）に合併し解散,2015-10-05,1,,,,,ギフトフーズ,0
2083,8120001228001,登記記録の閉鎖等,0,2022-10-13,2022-10-11,株式会社キレイ,,株式会社,大阪府,大阪市阿倍野区,阪南町１丁目５番１３－３０６号,,27,119,5450021,,,2022-10-11,清算の結了等,,,2020-03-23,1,,,,,キレイ,0
2093,8120002074857,登記記録の閉鎖等,0,2022-10-13,2022-10-04,有限会社長濃工務店,,有限会社,大阪府,枚方市,茄子作４丁目４１番６号,,27,210,5730071,,,2022-10-04,清算の結了等,,,2015-10-05,1,,,,,ナガノコウムテン,0
2120,8180001149209,登記記録の閉鎖等,0,2022-10-13,2022-10-07,世界ＭＯＮＯ開発株式会社,,株式会社,愛知県,名古屋市熱田区,新尾頭１丁目６番１３号第１９金山フクマルビル,,23,109,4560018,,,2022-10-07,清算の結了等,,,2021-12-24,1,,,,,セカイモノカイハツ,0
2126,8180002040309,登記記録の閉鎖等,0,2022-10-13,2022-10-04,清洲アートスクリーン印刷有限会社,,有限会社,愛知県,清須市,西市場３丁目１０番地の２,,23,233,4520941,,,2022-10-04,清算の結了等,,,2015-10-05,1,,,,,キヨスアートスクリーンインサツ,0
2135,8230001014175,登記記録の閉鎖等,0,2022-10-13,2022-10-07,株式会社オフィス城東,,株式会社,富山県,高岡市,中川上町８番２１号,,16,202,9330043,,,2022-10-07,清算の結了等,,,2015-10-05,1,,,,,オフィスジョウトウ,0
2163,8350002014600,登記記録の閉鎖等,0,2022-10-13,2022-10-07,有限会社中原商店,,有限会社,宮崎県,都城市,郡元町２９１３番地２,,45,202,8850013,,,2022-10-07,清算の結了等,,,2015-10-05,1,,,,,ナカハラショウテン,0
2175,8380002029819,登記記録の閉鎖等,0,2022-10-13,2022-10-04,有限会社稲元新聞店,,有限会社,福島県,双葉郡富岡町,中央１丁目１５１番地,,07,543,9791112,,,2022-10-04,清算の結了等,,,2015-10-05,1,,,,,イナモトシンブンテン,0
2218,9010601012260,登記記録の閉鎖等,0,2022-10-13,2022-10-03,株式会社色彩,,株式会社,東京都,墨田区,堤通２丁目１番２号,,13,107,1310034,,,2022-10-03,清算の結了等,,,2015-10-05,1,,,,,シキサイ,0
2247,9011303002509,登記記録の閉鎖等,0,2022-10-13,2022-10-05,合同会社ＳＴＥＰ,,合同会社,東京都,杉並区,高井戸西２丁目７番３８号,,13,115,1680071,,,2022-10-05,清算の結了等,,,2016-07-06,1,,,,,ステップ,0
2250,9011601000288,登記記録の閉鎖等,0,2022-10-13,2022-10-07,株式会社アンゼン,,株式会社,東京都,練馬区,上石神井２丁目３７番８－３０３号,,13,120,1770044,,,2022-10-07,清算の結了等,,,2015-10-05,1,,,,,アンゼン,0
2258,9011702002885,登記記録の閉鎖等,0,2022-10-13,2022-10-07,有限会社片瀬商店,,有限会社,東京都,江戸川区,瑞江１丁目１番３号,,13,123,1320011,,,2022-10-07,清算の結了等,,,2015-10-05,1,,,,,カタセショウテン,0
2266,9012405001233,登記記録の閉鎖等,0,2022-10-13,2022-10-05,特定非営利活動法人エコロジーファースト,,その他の設立登記法人,東京都,三鷹市,大沢４丁目１６番３８号１０５,,13,204,1810015,,,2022-10-05,清算の結了等,,,2015-10-05,1,,,,,,0
2274,9020001049365,登記記録の閉鎖等,0,2022-10-13,2022-10-03,株式会社昌,,株式会社,神奈川県,横浜市保土ケ谷区,峰沢町３１３－１リステージ横浜ＳＡＫＵＲＡＨＩＬＬＳ５０２,,14,106,2400061,,,2022-10-03,清算の結了等,,,2015-10-05,1,,,,,ショウ,0
2281,9020002001052,登記記録の閉鎖等,0,2022-10-13,2022-10-04,有限会社エヌケーオイル,,有限会社,神奈川県,横浜市瀬谷区,北新３４番地の６,,14,114,2460036,,,2022-10-04,清算の結了等,,,2015-10-05,1,,,,,エヌケーオイル,0
2283,9020002016397,登記記録の閉鎖等,0,2022-10-13,2022-10-04,有限会社グランデ食スタイル研究所,,有限会社,神奈川県,横浜市保土ケ谷区,西久保町１４番地デイパーク横濱天王町８０４号,,14,106,2400022,,,2022-10-04,清算の結了等,,,2015-10-05,1,,,,,グランデショクスタイルケンキュウショ,0
2290,9021001065039,登記記録の閉鎖等,0,2022-10-13,2022-10-07,株式会社エスプリ,,株式会社,神奈川県,相模原市緑区,日連１６８３番地１,,14,151,2520185,,,2022-10-07,合併による解散等,3011101014810,令和４年９月３０日東京都新宿区歌舞伎町一丁目２番５号東陽メンテナンス株式会社（3011101014810）に合併し解散,2018-06-26,1,,,,,エスプリ,0
2312,9040003020280,登記記録の閉鎖等,0,2022-10-13,2022-09-30,合同会社アンナポール,,合同会社,千葉県,柏市,南増尾１丁目２５番３８号,,12,217,2770054,,,2022-09-30,清算の結了等,,,2022-06-17,1,,,,,アンナポール,0
2315,9050001032244,登記記録の閉鎖等,0,2022-10-13,2022-10-03,うら筑波観光開発株式会社,,株式会社,茨城県,桜川市,上野原地新田２４１番地,,08,231,3091226,,,2022-10-03,合併による解散等,2050001032218,令和４年１０月１日茨城県桜川市大泉８７７番地大泉砕石株式会社（2050001032218）に合併し解散,2015-10-05,1,,,,,ウラツクバカンコウカイハツ,0
2320,9070001015511,登記記録の閉鎖等,0,2022-10-13,2022-10-05,愛隣堂印刷株式会社,,株式会社,群馬県,桐生市,相生町５丁目５６０番地１,,10,203,3760011,,,2022-10-05,清算の結了等,,,2015-10-05,1,,,,,アイリンドウインサツ,0
2322,9080001009140,登記記録の閉鎖等,0,2022-10-13,2022-10-12,株式会社丸政百々商店,,株式会社,静岡県,静岡市清水区,梅ヶ谷１２３５番地の５,,22,103,4240001,,,2022-10-12,清算の結了等,,,2015-10-05,1,,,,,マルマサドドショウテン,0
2323,9080102013677,登記記録の閉鎖等,0,2022-10-13,2022-10-11,有限会社勝又建鉄工業所,,有限会社,静岡県,富士市,大渕５３８番地の７,,22,210,4170000,,,2022-10-11,清算の結了等,,,2015-10-05,1,,,,,カツマタケンテツコウギョウショ,0
2325,9110001001589,登記記録の閉鎖等,0,2022-10-13,2022-10-03,川田電機株式会社,,株式会社,新潟県,新潟市中央区,稲荷町３４４４番地１,,15,103,9518018,,,2022-10-03,合併による解散等,9110001001936,令和４年１０月１日新潟市東区津島屋七丁目１４６番地１株式会社興和電気（9110001001936）に合併し解散,2015-10-05,1,,,,,カワダデンキ,0
2351,9120901013740,登記記録の閉鎖等,0,2022-10-13,2022-10-06,株式会社音通エフ・リテール,,株式会社,大阪府,大阪市中央区,城見１丁目４番７０号住友生命ＯＢＰプラザビル,,27,128,5400001,,,2022-10-06,合併による解散等,8260001003927,令和４年９月１日大阪市中央区城見一丁目４番７０号住友生命ＯＢＰプラザビル株式会社ワッツ西日本販売（8260001003927）に合併し解散,2015-10-05,1,,,,,オンツウエフリテール,0
2353,9120901027088,登記記録の閉鎖等,0,2022-10-13,2022-10-06,株式会社ナカツ,,株式会社,大阪府,豊中市,宝山町２２番５０号,,27,203,5610893,,,2022-10-06,清算の結了等,,,2022-09-06,1,,,,,,0
2358,9122001025699,登記記録の閉鎖等,0,2022-10-13,2022-10-06,株式会社シーユーエンジニアリング,,株式会社,大阪府,東大阪市,御厨西ノ町１丁目２番１８号,,27,227,5770037,,,2022-10-06,清算の結了等,,,2015-10-05,1,,,,,シーユーエンジニアリング,0
2368,9140002038875,登記記録の閉鎖等,0,2022-10-13,2022-10-06,有限会社マツダオフィス,,有限会社,兵庫県,加古川市,八幡町上西条９９２番地,,28,210,6751204,,,2022-10-06,清算の結了等,,,2015-10-05,1,,,,,マツダオフィス,0
2378,9180001065405,登記記録の閉鎖等,0,2022-10-13,2022-10-05,株式会社結,,株式会社,愛知県,名古屋市千種区,四谷通２丁目１４番地の１,,23,101,4640819,,,2022-10-05,清算の結了等,,,2015-10-05,1,,,,,ユイ,0
2379,9180001073812,登記記録の閉鎖等,0,2022-10-13,2022-10-05,株式会社オオクボ,,株式会社,愛知県,春日井市,如意申町４丁目１６番地の１,,23,206,4860918,,,2022-10-05,清算の結了等,,,2015-10-05,1,,,,,オオクボ,0
2380,9180001088406,登記記録の閉鎖等,0,2022-10-13,2022-10-03,株式会社スカイコーポレーション,,株式会社,愛知県,一宮市,笹野字山屋鋪５４番地３,,23,203,4910131,,,2022-10-03,合併による解散等,1180001143119,令和４年１０月１日愛知県一宮市笹野字山屋鋪５４番地５株式会社ＳＫＹ（1180001143119）に合併し解散,2015-10-05,1,,,,,スカイコーポレーション,0
2384,9180301005218,登記記録の閉鎖等,0,2022-10-13,2022-10-11,株式会社エンゼルモップ,,株式会社,愛知県,豊橋市,柱八番町２１番地,,23,201,4418056,,,2022-10-11,清算の結了等,,,2015-10-05,1,,,,,エンゼルモップ,0
2386,9180301011835,登記記録の閉鎖等,0,2022-10-13,2022-10-11,株式会社豊川リース,,株式会社,愛知県,豊川市,三上町畑ケ中７３番,,23,207,4420812,,,2022-10-11,清算の結了等,,,2015-10-05,1,,,,,,0
2387,9180301015423,登記記録の閉鎖等,0,2022-10-13,2022-09-30,株式会社名倉鋳造所,,株式会社,愛知県,碧南市,汐田町４丁目３８番地,,23,209,4470887,,,2022-09-30,清算の結了等,,,2015-10-05,1,,,,,ナグラチュウゾウショ,0
2408,9290001079955,登記記録の閉鎖等,0,2022-10-13,2022-10-03,株式会社Ｔ’ｓ　Ａｒｋ,,株式会社,福岡県,福岡市中央区,渡辺通５丁目２４番３０－４階,,40,133,8100004,,,2022-10-03,合併による解散等,5290001056867,令和４年１０月１日福岡市中央区渡辺通五丁目２４番３０－４階株式会社ソソグー不動産（5290001056867）に合併し解散,2017-12-18,1,,,,,,0
2419,9320002018371,登記記録の閉鎖等,0,2022-10-13,2022-10-11,有限会社日本晴,,有限会社,大分県,豊後大野市,三重町市場９３５番地３,,44,212,8797131,,,2022-10-11,清算の結了等,,,2015-10-05,1,,,,,ニホンバレ,0
2421,9330002030838,登記記録の閉鎖等,0,2022-10-13,2022-10-06,有限会社愛瀬鉄工,,有限会社,熊本県,球磨郡多良木町,大字多良木１３９１番地,,43,505,8680501,,,2022-10-06,清算の結了等,,,2015-10-05,1,,,,,,0
2430,9400002017522,登記記録の閉鎖等,0,2022-10-13,2022-10-07,有限会社畠山農機,,有限会社,岩手県,一関市,千厩町千厩字構井田６４番地の１３,00110747,03,209,0290803,,,2022-10-07,清算の結了等,,,2017-07-07,1,,,,,ハタケヤマノウキ,0
2434,9430001032271,登記記録の閉鎖等,0,2022-10-13,2022-09-30,株式会社団欒,,株式会社,北海道,札幌市中央区,北五条西１７丁目４番地３,,01,101,0600005,,,2022-09-30,清算の結了等,,,2015-10-05,1,,,,,ダンラン,0
2442,9470001013268,登記記録の閉鎖等,0,2022-10-13,2022-10-11,株式会社ノムラ,,株式会社,香川県,坂出市,加茂町１３番地２,,37,203,7620023,,,2022-10-11,清算の結了等,,,2015-10-05,1,,,,,,0
