sequenceNumber,corporateNumber,process,correct,updateDate,changeDate,name,nameImageId,kind,prefectureName,cityName,streetNumber,addressImageId,prefectureCode,cityCode,postCode,addressOutside,addressOutsideImageId,closeDate,closeCause,successorCorporateNumber,changeCause,assignmentDate,latest,enName,enPrefectureName,enCityName,enAddressOutside,furigana,hihyoji
11,1010003028945,登記記録の閉鎖等,0,2023-08-25,2023-08-18,ＨＬＢ２号合同会社,,合同会社,東京都,千代田区,霞が関３丁目２番５号,,13,101,1000013,,,2023-08-18,清算の結了等,,,2019-01-18,1,,,,,エイチエルビーニゴウ,0
24,1010401151621,登記記録の閉鎖等,0,2023-08-25,2023-08-01,株式会社ＤＭＭ　ＦＳ,,株式会社,東京都,港区,六本木３丁目２番１号,,13,103,1060032,,,2023-08-01,合併による解散等,3011001038942,令和５年８月１日東京都港区六本木三丁目２番１号合同会社ＤＭＭ．ｃｏｍ（3011001038942）に合併し解散,2020-03-12,1,,,,,ディーエムエムエフエス,0
35,1010602031556,登記記録の閉鎖等,0,2023-08-25,2023-08-23,有限会社ミウラサイクル,,有限会社,東京都,江東区,亀戸１丁目４０番５号,,13,108,1360071,,,2023-08-23,清算の結了等,,,2015-10-05,1,,,,,ミウラサイクル,0
39,1010701042743,登記記録の閉鎖等,0,2023-08-25,2023-08-22,花火ギャラリー株式会社,,株式会社,東京都,品川区,北品川５丁目５番１５号,,13,109,1410001,,,2023-08-22,清算の結了等,,,2022-06-06,1,,,,,ハナビギャラリー,0
46,1011001128431,登記記録の閉鎖等,0,2023-08-25,2023-08-17,株式会社グラーテス,,株式会社,東京都,渋谷区,桜丘町２３番１７号シティーコート桜丘４０８,,13,113,1500031,,,2023-08-17,清算の結了等,,,2019-06-07,1,,,,,グラーテス,0
48,1011001138026,登記記録の閉鎖等,0,2023-08-25,2023-08-17,株式会社ＣＹＬ,,株式会社,東京都,目黒区,原町１丁目１５番１２－２０３号西小山ヒルズ,,13,110,1520011,,,2023-08-17,清算の結了等,,,2021-01-22,1,,,,,シーワイエル,0
49,1011001144354,登記記録の閉鎖等,0,2023-08-25,2023-07-05,株式会社資格スクエア,,株式会社,東京都,渋谷区,神宮前６丁目２７番８号,,13,113,1500001,,,2023-07-05,合併による解散等,8011001064760,令和５年７月１日東京都渋谷区神宮前六丁目２７番８号株式会社レアジョブ（8011001064760）に合併し解散,2021-12-03,1,,,,,シカクスクエア,0
63,1011402008819,登記記録の閉鎖等,0,2023-08-25,2023-08-23,有限会社室谷紙工,,有限会社,東京都,板橋区,新河岸２丁目２３番１号,,13,119,1750081,,,2023-08-23,清算の結了等,,,2015-10-05,1,,,,,ムロヤシコウ,0
74,1012305002017,登記記録の閉鎖等,0,2023-08-25,2023-08-23,一般社団法人腸美人研究所,,その他の設立登記法人,東京都,町田市,原町田４丁目１１－１３コロンブスビル３階,,13,209,1940013,,,2023-08-23,清算の結了等,,,2022-07-21,1,,,,,チョウビジンケンキュウジョ,0
92,1030001054990,登記記録の閉鎖等,0,2023-08-25,2023-07-31,鈴鹿食品株式会社,,株式会社,埼玉県,川越市,新宿町１丁目９番地１６,,11,201,3501124,,,2023-07-31,清算の結了等,,,2015-10-05,1,,,,,スズカショクヒン,0
101,1040001056994,登記記録の閉鎖等,0,2023-08-25,2023-08-03,株式会社フォーライフサポート,,株式会社,千葉県,松戸市,殿平賀２００番５号グランバリエ北小金ＩＩ３０１号,00019257,12,207,2700004,,,2023-08-03,清算の結了等,,,2015-10-05,1,,,,,フォーライフサポート,0
117,1070001028413,登記記録の閉鎖等,0,2023-08-25,2023-08-21,株式会社インバンブーデザインラボ,,株式会社,群馬県,北群馬郡榛東村,大字新井２９１２番地４１,,10,344,3703503,,,2023-08-21,清算の結了等,,,2015-10-05,1,,,,,インバンブーデザインラボ,0
154,1130001023275,登記記録の閉鎖等,0,2023-08-25,2023-08-01,京都塩業株式会社,,株式会社,京都府,京都市中京区,壬生神明町１番地の４,,26,104,6048861,,,2023-08-01,清算の結了等,,,2015-10-05,1,,,,,キョウトエンギョウ,0
169,1180001135347,登記記録の閉鎖等,0,2023-08-25,2023-08-23,東田工業株式会社,,株式会社,愛知県,名古屋市名東区,名東本通４丁目３１番地星ケ丘グランドハイツ８０２号,,23,115,4650087,,,2023-08-23,清算の結了等,,,2019-02-04,1,,,,,トウデンコウギョウ,0
177,1180003019630,登記記録の閉鎖等,0,2023-08-25,2023-08-01,合同会社姶良ソーラーパーク望月０１,,合同会社,東京都,港区,六本木３丁目２番１号,,13,103,1060032,,,2023-08-01,合併による解散等,3011001038942,令和５年８月１日東京都港区六本木三丁目２番１号合同会社ＤＭＭ．ｃｏｍ（3011001038942）に合併し解散,2019-01-28,1,,,,,アイラソーラーパークモチズキゼロイチ,0
178,1180005016056,登記記録の閉鎖等,0,2023-08-25,2023-08-21,一般社団法人ゴルフ新中後藤塾,,その他の設立登記法人,愛知県,一宮市,新生２丁目７番４号,,23,203,4910912,,,2023-08-21,清算の結了等,,,2015-10-05,1,,,,,ゴルフシンナカゴトウジュク,0
180,1190001001093,登記記録の閉鎖等,0,2023-08-25,2023-08-23,三重ダクト工業株式会社,,株式会社,三重県,津市,雲出本郷町１８０５番地７,,24,201,5140304,,,2023-08-23,清算の結了等,,,2015-10-05,1,,,,,,0
183,1190002008105,登記記録の閉鎖等,0,2023-08-25,2023-08-18,有限会社伊勢度会調剤センター,,有限会社,三重県,伊勢市,小木町４７１番地１,,24,203,5160007,,,2023-08-18,清算の結了等,,,2015-10-05,1,,,,,イセワタライチョウザイセンター,0
216,1370002000489,登記記録の閉鎖等,0,2023-08-25,2023-08-23,有限会社管建材工業,,有限会社,宮城県,仙台市泉区,館２丁目２４番地の６,,04,105,9813214,,,2023-08-23,清算の結了等,,,2015-10-05,1,,,,,カンケンザイコウギョウ,0
225,1380002006683,登記記録の閉鎖等,0,2023-08-25,2023-08-22,有限会社渡邊機械,,有限会社,福島県,伊達市,梁川町字四日市１４番地の２,,07,213,9600752,,,2023-08-22,清算の結了等,,,2015-10-05,1,,,,,ワタナベキカイ,0
227,1402701000138,登記記録の閉鎖等,0,2023-08-25,2023-08-03,須崎開発株式会社,,株式会社,岩手県,大船渡市,大船渡町字野々田１０番地６,,03,203,0220002,,,2023-08-03,清算の結了等,,,2015-10-05,1,,,,,スザキカイハツ,0
250,2010001217986,登記記録の閉鎖等,0,2023-08-25,2023-08-17,株式会社１１１,,株式会社,東京都,文京区,大塚２丁目１９番７号,,13,105,1120012,,,2023-08-17,清算の結了等,,,2021-05-24,1,,,,,イチイチイチ,0
271,2010701036983,登記記録の閉鎖等,0,2023-08-25,2023-08-01,ＧＡＲＤＥＮＳ　ＧＡＲＤＥＮ株式会社,,株式会社,東京都,品川区,上大崎２丁目２４番９号,,13,109,1410021,,,2023-08-01,合併による解散等,8010401064032,令和５年８月１日東京都品川区上大崎二丁目２４番９号ハイアス・アンド・カンパニー株式会社（8010401064032）に合併し解散,2019-01-18,1,,,,,ガーデンズガーデン,0
272,2010801002167,登記記録の閉鎖等,0,2023-08-25,2023-08-18,株式会社欧文社,,株式会社,東京都,大田区,山王２丁目１番２号（６Ｆ）,,13,111,1430023,,,2023-08-18,清算の結了等,,,2015-10-05,1,,,,,オウブンシャ,0
303,2013202005813,登記記録の閉鎖等,0,2023-08-25,2023-08-17,有限会社ほざかや,,有限会社,東京都,目黒区,自由が丘１丁目１１番５号,,13,110,1520035,,,2023-08-17,清算の結了等,,,2015-10-05,1,,,,,ホザカヤ,0
339,2040001111071,登記記録の閉鎖等,0,2023-08-25,2023-08-01,株式会社大槻外装,,株式会社,千葉県,柏市,増尾台１丁目１８番５１号,,12,217,2770052,,,2023-08-01,清算の結了等,,,2019-10-11,1,,,,,オオツキガイソウ,0
342,2040002010099,登記記録の閉鎖等,0,2023-08-25,2023-08-03,有限会社富士家商店,,有限会社,千葉県,千葉市中央区,宮崎２丁目１０番２０号,,12,101,2600806,,,2023-08-03,清算の結了等,,,2015-10-05,1,,,,,フジヤショウテン,0
344,2040002066257,登記記録の閉鎖等,0,2023-08-25,2023-08-02,有限会社岡埜栄泉堂,,有限会社,千葉県,木更津市,中央２丁目３番１９号,,12,206,2920067,,,2023-08-02,清算の結了等,,,2015-10-05,1,,,,,オカノエイセンドウ,0
349,2050001031343,登記記録の閉鎖等,0,2023-08-25,2023-07-03,株式会社壱番亭本部,,株式会社,茨城県,筑西市,下野殿７９５番地１,,08,227,3080844,,,2023-07-03,合併による解散等,3050001009859,令和５年７月１日茨城県土浦市卸町一丁目７番７号株式会社ゆきむら壱番亭（3050001009859）に合併し解散,2015-10-05,1,,,,,イチバンテイホンブ,0
351,2060001026672,登記記録の閉鎖等,0,2023-08-25,2023-08-16,株式会社パインヒルズ,,株式会社,栃木県,宇都宮市,岩曽町３２番地２,,09,201,3210973,,,2023-08-16,清算の結了等,,,2015-10-05,1,,,,,パインヒルズ,0
353,2060002017084,登記記録の閉鎖等,0,2023-08-25,2023-08-16,有限会社小野クリーニング店,,有限会社,栃木県,真岡市,荒町３丁目４０番地６,,09,209,3214305,,,2023-08-16,清算の結了等,,,2015-10-05,1,,,,,オノクリーニングテン,0
354,2060003003463,登記記録の閉鎖等,0,2023-08-25,2023-08-16,合同会社ＴｒｉｎｉｔｙＪａｐａｎ,,合同会社,栃木県,宇都宮市,今泉町３０２０－１,,09,201,3210962,,,2023-08-16,清算の結了等,,,2020-09-10,1,,,,,トリニティジャパン,0
362,2110001016098,登記記録の閉鎖等,0,2023-08-25,2023-08-23,株式会社鐵販,,株式会社,新潟県,燕市,八王寺２６番地２,,15,213,9591264,,,2023-08-23,清算の結了等,,,2015-10-05,1,,,,,テッパン,0
391,2130005013222,登記記録の閉鎖等,0,2023-08-25,2023-08-08,一般社団法人ニコニココミュニティー,,その他の設立登記法人,京都府,福知山市,字牧２５０番地の５,,26,201,6200913,,,2023-08-08,清算の結了等,,,2015-10-05,1,,,,,ニコニココミュニティー,0
397,2140002006277,登記記録の閉鎖等,0,2023-08-25,2023-08-21,垂水農住管理有限会社,,有限会社,兵庫県,神戸市垂水区,向陽３丁目１番２７号,,28,108,6550012,,,2023-08-21,清算の結了等,,,2015-10-05,1,,,,,タルミノウジュウカンリ,0
399,2160001022562,登記記録の閉鎖等,0,2023-08-25,2023-08-24,スターラボ株式会社,,株式会社,滋賀県,大津市,栄町６－３０,,25,201,5200855,,,2023-08-24,清算の結了等,,,2020-06-10,1,,,,,スターラボ,0
415,2190001026503,登記記録の閉鎖等,0,2023-08-25,2023-08-18,株式会社ｃｒｅａｘｉａ,,株式会社,三重県,松阪市,虹が丘町７１番地３,,24,204,5150042,,,2023-08-18,清算の結了等,,,2019-06-12,1,,,,,クレアシア,0
417,2190002020389,登記記録の閉鎖等,0,2023-08-25,2023-08-22,有限会社サブセンター,,有限会社,三重県,四日市市,三重６丁目１３０番地の３,,24,202,5120912,,,2023-08-22,清算の結了等,,,2015-10-05,1,,,,,サブセンター,0
421,2240002039589,登記記録の閉鎖等,0,2023-08-25,2023-08-22,江草労務管理事務所有限会社,,有限会社,広島県,福山市,芦田町大字下有地８３４番地,00001231,34,207,7201262,,,2023-08-22,清算の結了等,,,2015-10-05,1,,,,,エグサロウムカンリジムショ,0
427,2250001002010,登記記録の閉鎖等,0,2023-08-25,2023-08-03,三光不動産株式会社,,株式会社,山口県,防府市,平和通１７番１１号,,35,206,7470000,,,2023-08-03,清算の結了等,,,2018-11-12,1,,,,,,0
431,2260002033193,登記記録の閉鎖等,0,2023-08-25,2023-08-22,有限会社ベーカリー大野,,有限会社,岡山県,玉野市,後閑１番地１１３,,33,204,7060315,,,2023-08-22,清算の結了等,,,2015-10-05,1,,,,,ベーカリーオオノ,0
443,2320001011631,登記記録の閉鎖等,0,2023-08-25,2023-08-23,大分グリーンプランニング株式会社,,株式会社,大分県,大分市,城南西２丁目６番８号,,44,201,8700826,,,2023-08-23,清算の結了等,,,2015-10-05,1,,,,,オオイタグリーンプランニング,0
461,2430002015496,登記記録の閉鎖等,0,2023-08-25,2023-08-04,有限会社ハーツ,,有限会社,北海道,札幌市南区,真駒内上町１丁目１番５－２０８号,,01,106,0050012,,,2023-08-04,清算の結了等,,,2015-10-05,1,,,,,ハーツ,0
468,2500001013312,登記記録の閉鎖等,0,2023-08-25,2023-08-21,株式会社小野組,,株式会社,愛媛県,今治市,郷桜井４丁目２番２３号,,38,202,7991523,,,2023-08-21,清算の結了等,,,2015-10-05,1,,,,,オノグミ,0
475,3010001079303,登記記録の閉鎖等,0,2023-08-25,2023-08-07,株式会社ＩＨ,,株式会社,東京都,千代田区,麹町２丁目７番地３半蔵門ウッドフィールドビル５階,,13,101,1020083,,,2023-08-07,清算の結了等,,,2015-10-05,1,,,,,アイエッチ,0
493,3010401131852,登記記録の閉鎖等,0,2023-08-25,2023-08-21,アップパワージャパン株式会社,,株式会社,東京都,中央区,入船３丁目８番９号,,13,102,1040042,,,2023-08-21,清算の結了等,,,2017-06-09,1,,,,,アップパワージャパン,0
519,3011102012020,登記記録の閉鎖等,0,2023-08-25,2023-08-14,有限会社松井生花店,,有限会社,東京都,新宿区,四谷坂町２番２５号,,13,104,1600002,,,2023-08-14,清算の結了等,,,2015-10-05,1,,,,,,0
523,3011302002119,登記記録の閉鎖等,0,2023-08-25,2023-08-17,有限会社小原工業,,有限会社,東京都,杉並区,和田２丁目３４番６号,,13,115,1660012,,,2023-08-17,清算の結了等,,,2015-10-05,1,,,,,オバラコウギョウ,0
535,3020001013640,登記記録の閉鎖等,0,2023-08-25,2023-08-15,株式会社常陸屋本店,,株式会社,神奈川県,横浜市中区,山田町４番地,,14,104,2310036,,,2023-08-15,清算の結了等,,,2015-10-05,1,,,,,ヒタチヤホンテン,0
546,3020002046788,登記記録の閉鎖等,0,2023-08-25,2023-08-17,有限会社ビジネスネットワーク二十一,,有限会社,神奈川県,横浜市中区,海岸通４丁目２３大宗マリンビル,,14,104,2310002,,,2023-08-17,清算の結了等,,,2015-10-05,1,,,,,ビジネスネットワークサービスニジュウイチ,0
575,3050001007359,登記記録の閉鎖等,0,2023-08-25,2023-08-22,株式会社エイチアンドエス計測システム,,株式会社,茨城県,水戸市,平須町１８２８番地４９０号,,08,201,3100853,,,2023-08-22,清算の結了等,,,2015-10-05,1,,,,,エイチアンドエスケイソクシステム,0
578,3050002035722,登記記録の閉鎖等,0,2023-08-25,2023-08-21,有限会社寺方材木店,,有限会社,茨城県,常陸大宮市,野口４３３番地,,08,225,3114503,,,2023-08-21,清算の結了等,,,2015-10-05,1,,,,,テラカタザイモクテン,0
580,3060002040011,登記記録の閉鎖等,0,2023-08-25,2023-08-17,有限会社いづみ薬局,,有限会社,栃木県,佐野市,葛生東２丁目１番６号,,09,204,3270501,,,2023-08-17,清算の結了等,,,2015-10-05,1,,,,,イヅミヤッキョク,0
587,3070002015425,登記記録の閉鎖等,0,2023-08-25,2023-08-23,有限会社パルス,,有限会社,群馬県,高崎市,八幡町１１５６番地７,,10,202,3700884,,,2023-08-23,清算の結了等,,,2015-10-05,1,,,,,パルス,0
590,3080102018847,登記記録の閉鎖等,0,2023-08-25,2023-08-23,有限会社アタミ土地開発,,有限会社,静岡県,熱海市,泉２７１番地の１３,,22,205,4130001,,,2023-08-23,清算の結了等,,,2015-10-05,1,,,,,アタミトチカイハツ,0
594,3090001009062,登記記録の閉鎖等,0,2023-08-25,2023-08-10,株式会社塩山病院,,株式会社,山梨県,甲州市,塩山上於曽１３７２番地,,19,213,4040042,,,2023-08-10,清算の結了等,,,2015-10-05,1,,,,,エンザンビョウイン,0
595,3090002010936,登記記録の閉鎖等,0,2023-08-25,2023-08-10,有限会社山梨峽東興業,,有限会社,山梨県,山梨市,落合８６０番地,,19,205,4050033,,,2023-08-10,清算の結了等,,,2015-10-05,1,,,,,ヤマナシキョウトウコウギョウ,0
613,3122001023989,登記記録の閉鎖等,0,2023-08-25,2023-08-21,日輪工業株式会社,,株式会社,大阪府,柏原市,旭ケ丘１丁目１１番８号,,27,221,5820026,,,2023-08-21,清算の結了等,,,2015-10-05,1,,,,,ニチリンコウギョウ,0
617,3130001048163,登記記録の閉鎖等,0,2023-08-25,2023-08-09,株式会社ドリームトランスポート,,株式会社,京都府,京都市伏見区,淀美豆町６８４番地,,26,109,6130916,,,2023-08-09,清算の結了等,,,2015-10-05,1,,,,,ドリームトランスポート,0
619,3130001068442,登記記録の閉鎖等,0,2023-08-25,2023-08-08,株式会社ヴィーナス・ファンド,,株式会社,京都府,京都市下京区,烏丸通仏光寺下る大政所町６８０番地１第八長谷ビル,,26,106,6008413,,,2023-08-08,清算の結了等,,,2021-01-27,1,,,,,ヴィーナスファンド,0
633,3180003022681,登記記録の閉鎖等,0,2023-08-25,2023-08-21,合同会社ワイズワン旭川永山,,合同会社,愛知県,名古屋市中区,栄２丁目３番１号名古屋広小路ビルヂング１７階,,23,106,4600008,,,2023-08-21,清算の結了等,,,2021-07-07,1,,,,,ワイズワンアサヒカワナガヤマ,0
635,3180301030394,登記記録の閉鎖等,0,2023-08-25,2023-08-24,株式会社ＳｍａＨａｐｐｉ,,株式会社,愛知県,豊田市,大林町１０丁目２番地２３,,23,211,4730902,,,2023-08-24,清算の結了等,,,2017-05-30,1,,,,,スマハピ,0
639,3190001009903,登記記録の閉鎖等,0,2023-08-25,2023-08-22,株式会社アエール,,株式会社,三重県,伊賀市,島ヶ原１３８３６番地,,24,216,5191711,,,2023-08-22,清算の結了等,,,2015-10-05,1,,,,,,0
643,3220002016829,登記記録の閉鎖等,0,2023-08-25,2023-08-21,有限会社オケタニ土木建設,,有限会社,石川県,かほく市,木津ハ２４番地１３,,17,209,9291171,,,2023-08-21,清算の結了等,,,2015-10-05,1,,,,,オケタニドボクケンセツ,0
649,3240002030869,登記記録の閉鎖等,0,2023-08-25,2023-08-24,有限会社おき,,有限会社,広島県,三次市,十日市東４丁目１番３０号サングリーン１階,,34,209,7280013,,,2023-08-24,清算の結了等,,,2015-10-05,1,,,,,オキ,0
670,3320002008642,登記記録の閉鎖等,0,2023-08-25,2023-08-24,有限会社メジャープラン,,有限会社,大分県,大分市,生石５丁目６番７号,,44,201,8700003,,,2023-08-24,清算の結了等,,,2015-10-05,1,,,,,メジャープラン,0
678,3330005009892,登記記録の閉鎖等,0,2023-08-25,2023-08-07,ＮＰＯ法人オリーヴ,,その他の設立登記法人,熊本県,熊本市西区,松尾１丁目９番９６号,,43,103,8615280,,,2023-08-07,清算の結了等,,,2018-07-19,1,,,,,オリーヴ,0
679,3330005010405,登記記録の閉鎖等,0,2023-08-25,2023-08-09,一般社団法人Ｈｉｓｕｉ．ｉ,,その他の設立登記法人,熊本県,熊本市北区,大窪１丁目１番３５号,,43,105,8600083,,,2023-08-09,清算の結了等,,,2021-09-30,1,,,,,ヒスイ,0
685,3370002005791,登記記録の閉鎖等,0,2023-08-25,2023-08-22,有限会社博龍,,有限会社,宮城県,仙台市若林区,古城３丁目８番２６号,,04,103,9840825,,,2023-08-22,清算の結了等,,,2015-10-05,1,,,,,ハクリュウ,0
691,3380005002802,登記記録の閉鎖等,0,2023-08-25,2023-08-18,医療法人社団福原内科胃腸科医院,,その他の設立登記法人,福島県,郡山市,神明町１６番８号,,07,203,9638013,,,2023-08-18,清算の結了等,,,2015-10-05,1,,,,,フクハラナイカイチョウカイイン,0
723,4010401078820,登記記録の閉鎖等,0,2023-08-25,2023-08-01,インペックスエービーケー石油株式会社,,株式会社,東京都,港区,赤坂５丁目３番１号,,13,103,1070052,,,2023-08-01,清算の結了等,,,2015-10-05,1,,,,,インペックスエービーケーセキユ,0
750,4011001039519,登記記録の閉鎖等,0,2023-08-25,2023-08-24,株式会社ウエルプレゼンツ,,株式会社,東京都,渋谷区,恵比寿西１丁目８番２号,,13,113,1500021,,,2023-08-24,清算の結了等,,,2015-10-05,1,,,,,ウエルプレゼンツ,0
764,4011102029724,登記記録の閉鎖等,0,2023-08-25,2023-08-21,有限会社鳥松,,有限会社,東京都,新宿区,新宿３丁目１０番７号,,13,104,1600022,,,2023-08-21,清算の結了等,,,2015-10-05,1,,,,,トリマツ,0
774,4011502003304,登記記録の閉鎖等,0,2023-08-25,2023-08-21,有限会社誠和堂,,有限会社,東京都,北区,浮間２丁目２４番１１号,,13,117,1150051,,,2023-08-21,清算の結了等,,,2015-10-05,1,,,,,セイワドウ,0
777,4011705001088,登記記録の閉鎖等,0,2023-08-25,2023-08-24,特定非営利活動法人結花,,その他の設立登記法人,東京都,江戸川区,江戸川６丁目３３番４２号,,13,123,1340013,,,2023-08-24,清算の結了等,,,2015-10-05,1,,,,,ユイバナ,0
782,4012801017820,登記記録の閉鎖等,0,2023-08-25,2023-08-24,株式会社丸山設備工業,,株式会社,東京都,東大和市,清水６丁目１１７０番地,,13,220,2070004,,,2023-08-24,清算の結了等,,,2017-02-24,1,,,,,マルヤマセツビコウギョウ,0
789,4020001142876,登記記録の閉鎖等,0,2023-08-25,2023-08-14,株式会社グローバルフライ,,株式会社,神奈川県,横浜市金沢区,富岡東３丁目９番１２号,,14,108,2360051,,,2023-08-14,清算の結了等,,,2021-09-03,1,,,,,グローバルフライ,0
819,4080003002809,登記記録の閉鎖等,0,2023-08-25,2023-08-24,フリーランスラボ合同会社,,合同会社,静岡県,静岡市葵区,紺屋町１７－１葵タワー１Ｆ,,22,101,4200852,,,2023-08-24,清算の結了等,,,2022-06-02,1,,,,,フリーランスラボ,0
838,4120003016119,登記記録の閉鎖等,0,2023-08-25,2023-08-23,合同会社ＳＫＪＴコンサルティング,,合同会社,大阪府,大阪市中央区,瓦町２丁目３－８（７０６）,,27,128,5410048,,,2023-08-23,清算の結了等,,,2019-08-14,1,,,,,エスケージェーティーコンサルティング,0
841,4120005004071,登記記録の閉鎖等,0,2023-08-25,2023-08-23,一般財団法人大阪市民共済会,,その他の設立登記法人,大阪府,大阪市天王寺区,東高津町１２番１０号,,27,109,5430021,,,2023-08-23,清算の結了等,,,2015-10-05,1,,,,,オオサカシミンキョウサイカイ,0
859,4140002040753,登記記録の閉鎖等,0,2023-08-25,2023-08-22,有限会社ケー・ユー企画,,有限会社,兵庫県,西宮市,上大市４丁目９番１７号,,28,204,6638003,,,2023-08-22,清算の結了等,,,2015-10-05,1,,,,,ケーユーキカク,0
866,4180001128505,登記記録の閉鎖等,0,2023-08-25,2023-08-21,銀杏株式会社,,株式会社,愛知県,名古屋市中区,錦３丁目４番２６号,,23,106,4600003,,,2023-08-21,清算の結了等,,,2017-07-11,1,,,,,ギンナン,0
882,4220001021779,登記記録の閉鎖等,0,2023-08-25,2023-08-23,株式会社Ｋ＆Ｋ,,株式会社,石川県,金沢市,福久町ヘ２９番１,,17,201,9203122,,,2023-08-23,合併による解散等,7230001010828,令和５年８月２１日富山県高岡市石瀬８０８番１株式会社弁慶（7230001010828）に合併し解散,2017-08-02,1,,,,,ケイアンドケイ,0
890,4280002005800,登記記録の閉鎖等,0,2023-08-25,2023-08-23,有限会社中野商店,,有限会社,島根県,出雲市,姫原１丁目６番地８,,32,203,6930068,,,2023-08-23,清算の結了等,,,2015-10-05,1,,,,,ナカノショウテン,0
891,4280002011204,登記記録の閉鎖等,0,2023-08-25,2023-08-24,有限会社イースト,,有限会社,島根県,雲南市,木次町里方４７７番地,,32,209,6991311,,,2023-08-24,清算の結了等,,,2015-10-05,1,,,,,イースト,0
902,4310003001506,登記記録の閉鎖等,0,2023-08-25,2023-08-24,合同会社今道養豚,,合同会社,長崎県,西海市,西彼町亀浦郷１１６２番地,,42,212,8513303,,,2023-08-24,清算の結了等,,,2015-10-05,1,,,,,イマミチヨウトン,0
912,4380002026076,登記記録の閉鎖等,0,2023-08-25,2023-08-22,有限会社松本商事,,有限会社,福島県,いわき市,湘南台１丁目７番地の６,,07,204,9718152,,,2023-08-22,清算の結了等,,,2015-10-05,1,,,,,マツモトショウジ,0
914,4380005003923,登記記録の閉鎖等,0,2023-08-25,2023-08-21,安達地区木材協同組合,,その他の設立登記法人,福島県,二本松市,亀谷２丁目２３９番地,,07,210,9640911,,,2023-08-21,清算の結了等,,,2015-10-05,1,,,,,アダチチクモクザイ,0
920,4420002011379,登記記録の閉鎖等,0,2023-08-25,2023-08-10,有限会社松橋自動車板金塗装工場,,有限会社,青森県,五所川原市,大字姥萢字船橋１５４番地２,00087680,02,205,0370015,,,2023-08-10,清算の結了等,,,2015-10-05,1,,,,,マツハシジドウシャバンキントソウコウジョウ,0
936,4460002000089,登記記録の閉鎖等,0,2023-08-25,2023-08-23,有限会社アサヒトラポ,,有限会社,北海道,釧路市,星が浦南３丁目５番１５号,,01,206,0840913,,,2023-08-23,清算の結了等,,,2015-10-05,1,,,,,アサヒトラポ,0
949,5010001170448,登記記録の閉鎖等,0,2023-08-25,2023-08-18,株式会社ファイブエム,,株式会社,東京都,千代田区,神田紺屋町１１番地２,,13,101,1010035,,,2023-08-18,清算の結了等,,,2015-10-05,1,,,,,ファイブエム,0
956,5010003027869,登記記録の閉鎖等,0,2023-08-25,2023-08-17,合同会社ｄ１０ｎ　Ｌａｂ,,合同会社,東京都,文京区,本郷３丁目３８番１号本郷信徳ビル７階,,13,105,1130033,,,2023-08-17,清算の結了等,,,2018-07-12,1,,,,,ディーテンエヌラボ,0
962,5010401111266,登記記録の閉鎖等,0,2023-08-25,2023-08-01,株式会社ビジネスサポート,,株式会社,東京都,港区,南麻布５丁目１０番２７号,,13,103,1060047,,,2023-08-01,清算の結了等,,,2015-10-05,1,,,,,ビジネスサポート,0
983,5010701042392,登記記録の閉鎖等,0,2023-08-25,2023-08-23,株式会社エンタメ転職,,株式会社,東京都,品川区,西五反田７丁目１番１０号Ｕ’ｓ－１ビル３階,,13,109,1410031,,,2023-08-23,清算の結了等,,,2022-03-17,1,,,,,エンタメテンショク,0
988,5010902007112,登記記録の閉鎖等,0,2023-08-25,2023-08-21,有限会社ジーアンドケー企画,,有限会社,東京都,世田谷区,赤堤２丁目２１番２号,,13,112,1560044,,,2023-08-21,清算の結了等,,,2015-10-05,1,,,,,ジーアンドケーキカク,0
1006,5011701001735,登記記録の閉鎖等,0,2023-08-25,2023-08-22,大島工業株式会社,,株式会社,東京都,江戸川区,西小岩３丁目２０番１１号,,13,123,1330057,,,2023-08-22,清算の結了等,,,2023-06-16,1,,,,,オオシマコウギョウ,0
1007,5011801004613,登記記録の閉鎖等,0,2023-08-25,2023-08-23,丸正鋼管株式会社,,株式会社,東京都,葛飾区,四つ木３丁目４番６号,,13,122,1240011,,,2023-08-23,清算の結了等,,,2015-10-05,1,,,,,マルショウコウカン,0
1009,5011801041292,登記記録の閉鎖等,0,2023-08-25,2023-08-23,長宏株式会社,,株式会社,東京都,足立区,竹の塚５丁目３６番１８－１０１号,,13,121,1210813,,,2023-08-23,清算の結了等,,,2022-09-16,1,,,,,ナガヒロ,0
1019,5013102005910,登記記録の閉鎖等,0,2023-08-25,2023-08-18,有限会社霞電装,,有限会社,東京都,青梅市,新町８丁目５番地の１０,,13,205,1980024,,,2023-08-18,清算の結了等,,,2015-10-05,1,,,,,,0
1023,5013202006692,登記記録の閉鎖等,0,2023-08-25,2023-08-17,有限会社ユニオン,,有限会社,東京都,目黒区,鷹番３丁目１４番１３号,,13,110,1520004,,,2023-08-17,清算の結了等,,,2015-10-05,1,,,,,ユニオン,0
1032,5020002010775,登記記録の閉鎖等,0,2023-08-25,2023-08-17,有限会社宮崎商事,,有限会社,神奈川県,横浜市磯子区,岡村８丁目３番５号,,14,107,2350021,,,2023-08-17,清算の結了等,,,2015-10-05,1,,,,,ミヤザキショウジ,0
1071,5110002023388,登記記録の閉鎖等,0,2023-08-25,2023-08-08,有限会社フジノ住建,,有限会社,新潟県,上越市,福橋６６３番地１,,15,222,9420033,,,2023-08-08,清算の結了等,,,2015-10-05,1,,,,,フジノジュウケン,0
1112,5140001039969,登記記録の閉鎖等,0,2023-08-25,2023-08-21,株式会社春田屋,,株式会社,兵庫県,赤穂市,加里屋５１番地の８,,28,212,6780239,,,2023-08-21,清算の結了等,,,2015-10-05,1,,,,,ハルタヤ,0
1126,5180002003747,登記記録の閉鎖等,0,2023-08-25,2023-08-21,有限会社エヌエーマツク,,有限会社,愛知県,名古屋市千種区,鹿子町３丁目８番地,,23,101,4640033,,,2023-08-21,清算の結了等,,,2015-10-05,1,,,,,エヌエーマツク,0
1128,5180002058667,登記記録の閉鎖等,0,2023-08-25,2023-08-22,有限会社トーライン,,有限会社,愛知県,名古屋市中川区,草平町１丁目２番地,,23,110,4540868,,,2023-08-22,清算の結了等,,,2015-10-05,1,,,,,トーライン,0
1143,5250002011643,登記記録の閉鎖等,0,2023-08-25,2023-08-18,有限会社京応呉服店,00002696,有限会社,山口県,下関市,豊浦町大字宇賀８４４１番地の５,,35,201,7596303,,,2023-08-18,清算の結了等,,,2015-10-05,1,,,,,キョウオウゴフクテン,0
1166,5320005009446,登記記録の閉鎖等,0,2023-08-25,2023-08-24,一般社団法人思郷会,,その他の設立登記法人,大分県,宇佐市,大字川部１７６５番地の１,,44,211,8790452,,,2023-08-24,清算の結了等,,,2016-12-21,1,,,,,シキヨウカイ,0
1173,5360001004752,登記記録の閉鎖等,0,2023-08-25,2023-08-14,株式会社沖縄興業銀行,,株式会社,沖縄県,那覇市,通堂町三丁目１４番地の２,,47,201,9000035,,,2023-08-14,清算の結了等,,,2017-02-03,1,,,,,オキナワゴウギョウギンコウ,0
1177,5370001024353,登記記録の閉鎖等,0,2023-08-25,2023-08-23,株式会社フィッツ,,株式会社,宮城県,仙台市青葉区,花京院１丁目４番２５－４０１号,,04,101,9800013,,,2023-08-23,清算の結了等,,,2015-10-05,1,,,,,フィッツ,0
1179,5370502000704,登記記録の閉鎖等,0,2023-08-25,2023-08-22,有限会社成澤商店,,有限会社,宮城県,気仙沼市,八日町２丁目３番１号,,04,205,9880084,,,2023-08-22,清算の結了等,,,2015-10-05,1,,,,,ナリサワショウテン,0
1205,5500002019314,登記記録の閉鎖等,0,2023-08-25,2023-08-24,有限会社やのや,,有限会社,愛媛県,今治市,国分６丁目４番１１号,,38,202,7991533,,,2023-08-24,清算の結了等,,,2015-10-05,1,,,,,,0
1228,6010501044943,登記記録の閉鎖等,0,2023-08-25,2023-08-23,株式会社協同企画,,株式会社,東京都,小金井市,梶野町４丁目７番１３号,,13,210,1840002,,,2023-08-23,清算の結了等,,,2019-11-27,1,,,,,キョウドウキカク,0
1254,6011702010107,登記記録の閉鎖等,0,2023-08-25,2023-08-23,有限会社ブライトン・インターナショナル,,有限会社,東京都,江戸川区,興宮町３２番９号,,13,123,1330042,,,2023-08-23,清算の結了等,,,2015-10-05,1,,,,,ブライトンインターナショナル,0
1271,6020002046645,登記記録の閉鎖等,0,2023-08-25,2023-08-16,有限会社御幸,,有限会社,神奈川県,横浜市泉区,新橋町１８７２番地,,14,116,2450009,,,2023-08-16,清算の結了等,,,2015-10-05,1,,,,,ミユキ,0
1284,6030005012998,登記記録の閉鎖等,0,2023-08-25,2023-07-31,柳製菓企業組合,,その他の設立登記法人,埼玉県,熊谷市,筑波３丁目３９番地,,11,202,3600037,,,2023-07-31,清算の結了等,,,2015-10-05,1,,,,,ヤナギセイカ,0
1295,6040003018451,登記記録の閉鎖等,0,2023-08-25,2023-08-03,ユーピーアスリート合同会社,,合同会社,千葉県,茂原市,千代田町２丁目８番１０号,,12,210,2970023,,,2023-08-03,清算の結了等,,,2021-09-06,1,,,,,ユーピーアスリート,0
1302,6060001012776,登記記録の閉鎖等,0,2023-08-25,2023-08-17,株式会社川島電気商会,,株式会社,栃木県,大田原市,中央２丁目２番３号,,09,210,3240056,,,2023-08-17,清算の結了等,,,2015-10-05,1,,,,,カワシマデンキショウカイ,0
1307,6080402015558,登記記録の閉鎖等,0,2023-08-25,2023-08-24,マルモ磯部織布有限会社,,有限会社,静岡県,浜松市浜北区,宮口４６１９番地,,22,136,4340004,,,2023-08-24,清算の結了等,,,2015-10-05,1,,,,,マルモイソベショクフ,0
1328,6120003006869,登記記録の閉鎖等,0,2023-08-25,2023-08-23,タッグ建設合同会社,,合同会社,大阪府,大阪市住之江区,浜口西３丁目１番１５号,,27,125,5590006,,,2023-08-23,清算の結了等,,,2015-10-05,1,,,,,タッグケンセツ,0
1361,6190002008538,登記記録の閉鎖等,0,2023-08-25,2023-08-22,有限会社カトー鉄工,,有限会社,三重県,伊勢市,二見町江５９５番地１,,24,203,5190602,,,2023-08-22,清算の結了等,,,2015-10-05,1,,,,,,0
1365,6210002003684,登記記録の閉鎖等,0,2023-08-25,2023-08-23,有限会社ユウコー繊維,,有限会社,福井県,吉田郡永平寺町,松岡小畑第１５号１５番地１,,18,322,9101126,,,2023-08-23,清算の結了等,,,2015-10-05,1,,,,,ユウコーセンイ,0
1375,6240001052465,登記記録の閉鎖等,0,2023-08-25,2023-08-22,田舎ネット三次株式会社,,株式会社,広島県,三次市,三和町下板木１００２１番地１,,34,209,7296612,,,2023-08-22,清算の結了等,,,2018-03-05,1,,,,,イナカネットミヨシ,0
1385,6290001085114,登記記録の閉鎖等,0,2023-08-25,2023-08-07,株式会社アルズ,,株式会社,福岡県,大牟田市,久保田町２丁目２番地３,,40,202,8360045,,,2023-08-07,清算の結了等,,,2019-05-14,1,,,,,アルズ,0
1396,6340001013044,登記記録の閉鎖等,0,2023-08-25,2023-08-24,株式会社Ａ・Ｓ・Ｐ,,株式会社,鹿児島県,鹿児島市,吉野町１４９０番地１,,46,201,8920871,,,2023-08-24,清算の結了等,,,2015-10-05,1,,,,,エーエスピー,0
1403,6360005005201,登記記録の閉鎖等,0,2023-08-25,2023-08-22,一般社団法人コスモス福祉支援センター,,その他の設立登記法人,沖縄県,那覇市,字上間２２４番地５,,47,201,9020073,,,2023-08-22,清算の結了等,,,2015-10-05,1,,,,,コスモスフクシシエンセンター,0
1420,6460302000324,登記記録の閉鎖等,0,2023-08-25,2023-08-23,有限会社オホーツクメディカルサービス,,有限会社,北海道,北見市,大通東５丁目１番地,,01,208,0900020,,,2023-08-23,清算の結了等,,,2015-10-05,1,,,,,オホーツクメディカル,0
1428,7010001019107,登記記録の閉鎖等,0,2023-08-25,2023-08-01,住販株式会社,,株式会社,東京都,港区,西新橋１丁目１７番５号,,13,103,1050003,,,2023-08-01,合併による解散等,2010401046242,令和５年８月１日東京都港区西新橋一丁目１７番５号東海興商株式会社（2010401046242）に合併し解散,2015-10-05,1,,,,,スミハン,0
1432,7010001089331,登記記録の閉鎖等,0,2023-08-25,2023-08-21,東京基盤技研株式会社,,株式会社,東京都,千代田区,外神田１丁目１番５号,,13,101,1010021,,,2023-08-21,清算の結了等,,,2015-10-05,1,,,,,トウキョウキバンギケン,0
1444,7010401019755,登記記録の閉鎖等,0,2023-08-25,2023-08-01,株式会社トプカピ,,株式会社,東京都,港区,六本木４丁目８番７号三河台ビル２Ｆ,,13,103,1060032,,,2023-08-01,合併による解散等,6010401002992,令和５年８月１日東京都港区六本木四丁目８番７号株式会社茜（6010401002992）に合併し解散,2015-10-05,1,,,,,トプカピ,0
1445,7010401121692,登記記録の閉鎖等,0,2023-08-25,2023-08-23,Ｓ＆Ｊ　ＤＩＧＩＴＡＬ株式会社,,株式会社,東京都,新宿区,内藤町１番地３０ジオ御苑内藤町６０３,,13,104,1600014,,,2023-08-23,清算の結了等,,,2015-11-20,1,,,,,エスアンドジェイデジタル,0
1474,7011101035761,登記記録の閉鎖等,0,2023-08-25,2023-08-21,株式会社ＥＥＮインターナショナル,,株式会社,東京都,文京区,本郷３丁目１６番４号本郷天理ビル２階ＥＥＮ内,,13,105,1130033,,,2023-08-21,清算の結了等,,,2015-10-05,1,,,,,イーイーエヌインターナショナル,0
1481,7011201013799,登記記録の閉鎖等,0,2023-08-25,2023-08-24,株式会社ケー・アイ・プランニング,,株式会社,東京都,新宿区,百人町１丁目１９番９号,,13,104,1690073,,,2023-08-24,清算の結了等,,,2015-10-05,1,,,,,ケーアイプランニング,0
1482,7011201021595,登記記録の閉鎖等,0,2023-08-25,2023-08-02,アイライフジャパン株式会社,,株式会社,東京都,港区,港南１丁目９番３６号,,13,103,1080075,,,2023-08-02,清算の結了等,,,2019-08-22,1,,,,,アイライフジャパン,0
1486,7011402001941,登記記録の閉鎖等,0,2023-08-25,2023-08-14,有限会社オキシン,,有限会社,栃木県,塩谷郡塩谷町,大字熊ノ木１１８９－４３,,09,384,3292213,,,2023-08-14,清算の結了等,,,2015-10-05,1,,,,,オキシン,0
1487,7011502001247,登記記録の閉鎖等,0,2023-08-25,2023-08-23,有限会社岡野商事,,有限会社,東京都,足立区,小台２丁目２９番９号,,13,121,1200046,,,2023-08-23,清算の結了等,,,2015-10-05,1,,,,,オカノショウジ,0
1495,7012401037134,登記記録の閉鎖等,0,2023-08-25,2023-08-23,株式会社満天社,,株式会社,東京都,多摩市,落合４丁目２番地５－５０６,,13,224,2060033,,,2023-08-23,清算の結了等,,,2020-10-28,1,,,,,マンテンシャ,0
1501,7013301047454,登記記録の閉鎖等,0,2023-08-25,2023-08-24,エルワイス株式会社,,株式会社,東京都,豊島区,南大塚３丁目３６番７号南大塚Ｔ＆Ｔビル６階,,13,116,1700005,,,2023-08-24,清算の結了等,,,2021-05-19,1,,,,,エルワイス,0
1506,7020001115648,登記記録の閉鎖等,0,2023-08-25,2023-08-16,株式会社ＭＫＳ,,株式会社,東京都,文京区,本郷２丁目１５番１９号,,13,105,1130033,,,2023-08-16,清算の結了等,,,2016-04-07,1,,,,,エムケイエス,0
1535,7040002077118,登記記録の閉鎖等,0,2023-08-25,2023-08-02,有限会社天野建築板金,,有限会社,千葉県,東金市,下武射田２２６８番地２,,12,213,2830012,,,2023-08-02,清算の結了等,,,2015-10-05,1,,,,,アマノケンチクバンキン,0
1539,7050002021132,登記記録の閉鎖等,0,2023-08-25,2023-08-18,有限会社協同興業,,有限会社,茨城県,つくば市,境松５６８番地の３,,08,220,3050864,,,2023-08-18,清算の結了等,,,2015-10-05,1,,,,,キョウドウコウギョウ,0
1550,7110001035903,登記記録の閉鎖等,0,2023-08-25,2023-08-23,株式会社Ｔ．Ｙ　ＬＩＮＥ,,株式会社,新潟県,新潟市東区,藤見町１丁目３番３６号,,15,102,9500025,,,2023-08-23,清算の結了等,,,2021-07-05,1,,,,,ティーワイライン,0
1551,7110005004020,登記記録の閉鎖等,0,2023-08-25,2023-08-23,圓通院,,その他の設立登記法人,新潟県,五泉市,一本杉２９５８番地,,15,218,9591601,,,2023-08-23,清算の結了等,,,2015-10-05,1,,,,,エンツウイン,0
1577,7140001018616,登記記録の閉鎖等,0,2023-08-25,2023-08-21,株式会社テイアンドエス,,株式会社,兵庫県,神戸市垂水区,西舞子６丁目２番３０－５０４号,,28,108,6550048,,,2023-08-21,清算の結了等,,,2015-10-05,1,,,,,テイアンドエス,0
1591,7180001073120,登記記録の閉鎖等,0,2023-08-25,2023-08-22,株式会社ＭＲＣ,,株式会社,愛知県,名古屋市東区,泉２丁目２８番２４号,,23,102,4610001,,,2023-08-22,清算の結了等,,,2015-10-05,1,,,,,エムアールシー,0
1601,7180301031694,登記記録の閉鎖等,0,2023-08-25,2023-08-21,株式会社ワイズ・アーバンデザイン,,株式会社,愛知県,蒲郡市,宝町３番１２号,,23,214,4430044,,,2023-08-21,清算の結了等,,,2018-07-17,1,,,,,ワイズアーバンデザイン,0
1606,7210001010879,登記記録の閉鎖等,0,2023-08-25,2023-08-21,ツルガ物流株式会社,,株式会社,福井県,敦賀市,泉２号６番地の１,,18,202,9140071,,,2023-08-21,清算の結了等,,,2015-10-05,1,,,,,ツルガブツリュウ,0
1609,7240001050352,登記記録の閉鎖等,0,2023-08-25,2023-08-23,株式会社サンポービジョン,,株式会社,広島県,広島市中区,袋町６番５１号,,34,101,7300036,,,2023-08-23,清算の結了等,,,2016-12-21,1,,,,,サンポービジョン,0
1613,7240005002143,登記記録の閉鎖等,0,2023-08-25,2023-08-23,協同組合シセン,,その他の設立登記法人,広島県,広島市南区,的場町１丁目７番２０号,,34,103,7320824,,,2023-08-23,清算の結了等,,,2015-10-05,1,,,,,シセン,0
1617,7290001001103,登記記録の閉鎖等,0,2023-08-25,2023-08-09,北原建設株式会社,,株式会社,福岡県,福岡市南区,野間３丁目９番１９号,,40,134,8150041,,,2023-08-09,清算の結了等,,,2015-10-05,1,,,,,キタハラケンセツ,0
1622,7290805007832,登記記録の閉鎖等,0,2023-08-25,2023-08-18,一般財団法人福智町健康交流体験協会,,その他の設立登記法人,福岡県,田川郡福智町,神崎１０５６番地３０,,40,610,8221202,,,2023-08-18,清算の結了等,,,2015-10-05,1,,,,,フクチマチケンコウコウリュウタイケンキョウカイ,0
1635,7380001019672,登記記録の閉鎖等,0,2023-08-25,2023-08-22,株式会社渡辺土木工業,,株式会社,福島県,いわき市,勿来町白米林ノ中３０番地の１５４,,07,204,9790143,,,2023-08-22,清算の結了等,,,2015-10-05,1,,,,,ワタナベドボクコウギョウ,0
1636,7410001007657,登記記録の閉鎖等,0,2023-08-25,2023-08-21,株式会社三國屋,,株式会社,秋田県,能代市,二ツ井町字比井野９９番地,,05,202,0183155,,,2023-08-21,清算の結了等,,,2015-10-05,1,,,,,ミクニヤ,0
1649,7440005002271,登記記録の閉鎖等,0,2023-08-25,2023-08-23,一般財団法人建設連合・函館地方建設組合,,その他の設立登記法人,北海道,函館市,新川町２１番５号,,01,202,0400032,,,2023-08-23,清算の結了等,,,2015-10-05,1,,,,,ケンセツレンゴウハコダテチホウケンセツクミアイ,0
1657,7490002009174,登記記録の閉鎖等,0,2023-08-25,2023-08-23,有限会社ハトヤ,,有限会社,高知県,宿毛市,桜町１番５号,,39,208,7880006,,,2023-08-23,清算の結了等,,,2015-10-05,1,,,,,ハトヤ,0
1672,8010002004387,登記記録の閉鎖等,0,2023-08-25,2023-08-17,有限会社永瀬,,有限会社,東京都,文京区,千駄木５丁目４１番２０号,,13,105,1130022,,,2023-08-17,清算の結了等,,,2015-10-05,1,,,,,ナガセ,0
1673,8010003021126,登記記録の閉鎖等,0,2023-08-25,2023-08-21,日光７０ベルピア大宮合同会社,,合同会社,東京都,千代田区,丸の内３丁目１番１号東京共同会計事務所内,,13,101,1000005,,,2023-08-21,清算の結了等,,,2015-10-05,1,,,,,ニッコウセブンティーベルピアオオミヤ,0
1689,8010702001007,登記記録の閉鎖等,0,2023-08-25,2023-08-01,有限会社宇城,,有限会社,東京都,港区,浜松町２丁目９番３号,,13,103,1050013,,,2023-08-01,清算の結了等,,,2015-10-05,1,,,,,ウシロ,0
1696,8011201001968,登記記録の閉鎖等,0,2023-08-25,2023-08-23,株式会社賛光,,株式会社,東京都,中野区,江古田４丁目２８番１４号,,13,114,1650022,,,2023-08-23,清算の結了等,,,2015-10-05,1,,,,,サンコウ,0
1707,8012702002042,登記記録の閉鎖等,0,2023-08-25,2023-08-10,渡辺建築有限会社,,有限会社,東京都,小平市,学園東町１丁目２０番９号,,13,211,1870043,,,2023-08-10,清算の結了等,,,2023-02-08,1,,,,,ワタナベケンチク,0
1714,8020001149496,登記記録の閉鎖等,0,2023-08-25,2023-08-16,株式会社アドバーシティ,,株式会社,神奈川県,横浜市戸塚区,原宿４丁目４３番３－Ｂ１０２号,,14,110,2450063,,,2023-08-16,清算の結了等,,,2022-12-23,1,,,,,アドバーシティ,0
1743,8030005012600,登記記録の閉鎖等,0,2023-08-25,2023-08-01,特定非営利活動法人彩の国いしづえ２１,,その他の設立登記法人,埼玉県,さいたま市南区,白幡４丁目１０番１号ベルドミール１０１号室,,11,108,3360022,,,2023-08-01,清算の結了等,,,2015-10-05,1,,,,,サイノクニイシヅエニジュウイチ,0
1751,8040003018061,登記記録の閉鎖等,0,2023-08-25,2023-08-02,ＳｔａｒＩｓｌａｎｄ－Ｔｅｃｈｎｏｌｏｇｙ合同会社,,合同会社,千葉県,船橋市,宮本３丁目９番１５号,,12,204,2730003,,,2023-08-02,清算の結了等,,,2021-06-30,1,,,,,スターアイランドテクノロジー,0
1762,8070005005591,登記記録の閉鎖等,0,2023-08-25,2023-08-22,特定非営利活動法人ブレーメンの会,,その他の設立登記法人,群馬県,高崎市,中尾町２６番地１,,10,202,3700001,,,2023-08-22,清算の結了等,,,2015-10-05,1,,,,,ブレーメンノカイ,0
1763,8080001011717,登記記録の閉鎖等,0,2023-08-25,2023-08-24,株式会社黒汐の華,,株式会社,静岡県,静岡市葵区,末広町１０６番地の１,,22,101,4200004,,,2023-08-24,清算の結了等,,,2015-10-05,1,,,,,クロシオノハナ,0
1768,8100002017776,登記記録の閉鎖等,0,2023-08-25,2023-08-18,有限会社栄和工業,,有限会社,長野県,中野市,大字壁田１５８７番地,,20,211,3830061,,,2023-08-18,清算の結了等,,,2015-10-05,1,,,,,エイワコウギョウ,0
1772,8110002012974,登記記録の閉鎖等,0,2023-08-25,2023-08-24,有限会社かねやま葬祭,,有限会社,新潟県,東蒲原郡阿賀町,津川３７３７番地,,15,385,9594402,,,2023-08-24,清算の結了等,,,2015-10-05,1,,,,,カネヤマソウサイ,0
1773,8110003003898,登記記録の閉鎖等,0,2023-08-25,2023-08-23,合同会社エイジ・ゼロ,,合同会社,新潟県,三条市,西本成寺１丁目２－１７,,15,204,9550845,,,2023-08-23,清算の結了等,,,2019-04-15,1,,,,,エイジゼロ,0
1775,8120001116148,登記記録の閉鎖等,0,2023-08-25,2023-08-21,イシイ彫刻株式会社,,株式会社,大阪府,大阪市西区,千代崎２丁目１５番１３号,,27,106,5500023,,,2023-08-21,清算の結了等,,,2015-10-05,1,,,,,イシイチョウコク,0
1796,8130001002231,登記記録の閉鎖等,0,2023-08-25,2023-08-07,株式会社ルイ,,株式会社,京都府,京都市東山区,東大路松原上ル星野町９１番地,,26,105,6050000,,,2023-08-07,清算の結了等,,,2015-10-05,1,,,,,ルイ,0
1800,8130005008869,登記記録の閉鎖等,0,2023-08-25,2023-08-07,医療法人社団渡部医院,,その他の設立登記法人,京都府,八幡市,男山八望３番地１,,26,210,6148373,,,2023-08-07,清算の結了等,,,2015-10-05,1,,,,,,0
1802,8140001034595,登記記録の閉鎖等,0,2023-08-25,2023-08-24,株式会社エス・エム・エンジニアリング,,株式会社,兵庫県,明石市,大久保町八木５９７番地,,28,203,6740063,,,2023-08-24,清算の結了等,,,2015-10-05,1,,,,,エスエムエンジニアリング,0
1816,8180302016933,登記記録の閉鎖等,0,2023-08-25,2023-08-17,有限会社鶴屋,,有限会社,愛知県,安城市,大山町１丁目１０番地１,,23,212,4460042,,,2023-08-17,清算の結了等,,,2015-10-05,1,,,,,ツルヤ,0
1833,8290001080204,登記記録の閉鎖等,0,2023-08-25,2023-08-14,株式会社ホープイングリッシュ,,株式会社,福岡県,福岡市中央区,大名２丁目９－３５トウセン天神ビル９Ｆ,,40,133,8100041,,,2023-08-14,清算の結了等,,,2018-01-12,1,,,,,ホープイングリッシュ,0
1864,8430002049555,登記記録の閉鎖等,0,2023-08-25,2023-08-21,有限会社寺江商事,,有限会社,北海道,岩見沢市,五条西１７丁目３番地１,,01,210,0680025,,,2023-08-21,清算の結了等,,,2015-10-05,1,,,,,テラエショウジ,0
1870,8460102006916,登記記録の閉鎖等,0,2023-08-25,2023-08-22,有限会社村林商店,,有限会社,北海道,広尾郡広尾町,並木通西２丁目１番地,,01,642,0892623,,,2023-08-22,清算の結了等,,,2015-10-05,1,,,,,,0
1874,8490001007450,登記記録の閉鎖等,0,2023-08-25,2023-08-21,ケイプランニング株式会社,,株式会社,高知県,高知市,城山町１８３番地１４,,39,201,7808037,,,2023-08-21,合併による解散等,5490003000514,令和５年８月１日高知県高岡郡越知町越知甲２１２８番地１合名会社北村酒店（5490003000514）に合併し解散,2015-10-05,1,,,,,ケイプランニング,0
1889,9010001204508,登記記録の閉鎖等,0,2023-08-25,2023-08-21,ＶｉＳｅｎｚｅ　Ｊａｐａｎ株式会社,,株式会社,東京都,中央区,日本橋富沢町９番４号,,13,102,1030006,,,2023-08-21,清算の結了等,,,2019-10-08,1,,,,,ヴィセンズジャパン,0
1905,9010701024429,登記記録の閉鎖等,0,2023-08-25,2023-08-23,株式会社エムスリーインターナショナル,,株式会社,東京都,品川区,大井７丁目６番１３号,,13,109,1400014,,,2023-08-23,清算の結了等,,,2015-10-05,1,,,,,エムスリーインターナショナル,0
1920,9011301006115,登記記録の閉鎖等,0,2023-08-25,2023-08-18,株式会社文工社,,株式会社,東京都,杉並区,永福３丁目２９番６号,,13,115,1680064,,,2023-08-18,清算の結了等,,,2015-10-05,1,,,,,ブンコウシャ,0
1922,9011503004783,登記記録の閉鎖等,0,2023-08-25,2023-08-21,ケイエスジェイ・オフィス合同会社,,合同会社,東京都,北区,神谷１丁目３番５－３０４号,,13,117,1150043,,,2023-08-21,清算の結了等,,,2021-06-03,1,,,,,ケイエスジェイオフィス,0
1929,9012702006199,登記記録の閉鎖等,0,2023-08-25,2023-08-22,有限会社飯泉塗装店,,有限会社,東京都,東久留米市,前沢１丁目２番１９号,,13,222,2030032,,,2023-08-22,清算の結了等,,,2015-10-05,1,,,,,イイズミトソウテン,0
1933,9013301033469,登記記録の閉鎖等,0,2023-08-25,2023-08-22,株式会社レベリアス,,株式会社,東京都,豊島区,南大塚２丁目１１番１０号ミモザビル３階,,13,116,1700005,,,2023-08-22,清算の結了等,,,2015-10-05,1,,,,,レベリアス,0
1934,9020001020730,登記記録の閉鎖等,0,2023-08-25,2023-08-15,セントラル商事株式会社,,株式会社,神奈川県,横浜市港北区,高田東３丁目８番１６号,,14,109,2230065,,,2023-08-15,清算の結了等,,,2015-10-05,1,,,,,セントラルショウジ,0
1937,9020001142384,登記記録の閉鎖等,0,2023-08-25,2023-08-17,株式会社Ｃａｒｉｂｂｅａｎ　Ｓｈａｒｅｓ　Ｔｒａｄｉｎｇ,,株式会社,神奈川県,横浜市中区,山手町２７番地５ベイステージ元町１０２,,14,104,2310862,,,2023-08-17,清算の結了等,,,2021-07-29,1,,,,,カリビアンシェアズトレーディング,0
1939,9020002020226,登記記録の閉鎖等,0,2023-08-25,2023-08-17,有限会社洋光,,有限会社,神奈川県,横浜市南区,別所３丁目３１番１２－１０２号,,14,105,2320064,,,2023-08-17,清算の結了等,,,2015-10-05,1,,,,,ヨウコウ,0
1964,9060001016758,登記記録の閉鎖等,0,2023-08-25,2023-08-16,株式会社佐山製作所,,株式会社,栃木県,栃木市,大平町西野田５０１番地,,09,203,3294421,,,2023-08-16,清算の結了等,,,2015-10-05,1,,,,,サヤマセイサクショ,0
1995,9120102024637,登記記録の閉鎖等,0,2023-08-25,2023-08-23,有限会社つばさ,,有限会社,大阪府,貝塚市,畠中１丁目２番１４号,,27,208,5970072,,,2023-08-23,清算の結了等,,,2015-10-05,1,,,,,ツバサ,0
2018,9180003017899,登記記録の閉鎖等,0,2023-08-25,2023-08-22,合同会社ざわわソフトウェア,,合同会社,愛知県,尾張旭市,長坂町南山２８７４番地３６,,23,226,4880821,,,2023-08-22,清算の結了等,,,2017-05-08,1,,,,,ザワワソフトウェア,0
2023,9190002018971,登記記録の閉鎖等,0,2023-08-25,2023-08-22,有限会社アイビーコスメティックブリオ,,有限会社,三重県,四日市市,別名２丁目６番１９号,,24,202,5100007,,,2023-08-22,清算の結了等,,,2015-10-05,1,,,,,アイビーコスメティックブリオ,0
2031,9260005008467,登記記録の閉鎖等,0,2023-08-25,2023-08-18,協同組合落合ショッピングセンター,,その他の設立登記法人,岡山県,真庭市,落合垂水６２８番地,,33,214,7193144,,,2023-08-18,清算の結了等,,,2015-10-05,1,,,,,オチアイショッピングセンター,0
2076,9490001010016,登記記録の閉鎖等,0,2023-08-25,2023-08-23,株式会社チョイスランド,,株式会社,高知県,土佐市,高岡町乙３０５３番地,,39,205,7811102,,,2023-08-23,清算の結了等,,,2021-10-12,1,,,,,チョイスランド,0
