sequenceNumber,corporateNumber,process,correct,updateDate,changeDate,name,nameImageId,kind,prefectureName,cityName,streetNumber,addressImageId,prefectureCode,cityCode,postCode,addressOutside,addressOutsideImageId,closeDate,closeCause,successorCorporateNumber,changeCause,assignmentDate,latest,enName,enPrefectureName,enCityName,enAddressOutside,furigana,hihyoji
7,1010102006975,登記記録の閉鎖等,0,2025-06-19,2025-06-16,山大運輸企画有限会社,,有限会社,東京都,八王子市,大和田町３丁目８番１８号,,13,201,1920045,,,2025-06-16,清算の結了等,,,2015-10-05,1,,,,,ヤマダイウンユキカク,0
41,1011201012328,登記記録の閉鎖等,0,2025-06-19,2025-06-17,株式会社ジルカ,,株式会社,東京都,中野区,江古田４丁目３４番８号,,13,114,1650022,,,2025-06-17,清算の結了等,,,2015-10-05,1,,,,,ジルカ,0
56,1020001117740,登記記録の閉鎖等,0,2025-06-19,2025-06-16,株式会社ニシケン,,株式会社,神奈川県,横浜市保土ケ谷区,岩間町２丁目１０４－４ライオンズマンション保土ヶ谷第５－１０７,,14,106,2400004,,,2025-06-16,清算の結了等,,,2016-09-05,1,,,,,ニシケン,0
66,1030002046368,登記記録の閉鎖等,0,2025-06-19,2025-06-12,有限会社あいづフラワー,,有限会社,埼玉県,八潮市,緑町１丁目１７番地１９,,11,234,3400808,,,2025-06-12,清算の結了等,,,2015-10-05,1,,,,,アイヅフラワー,0
67,1030002079392,登記記録の閉鎖等,0,2025-06-19,2025-06-11,有限会社リベロ・ワークス,,有限会社,埼玉県,川越市,並木西町１２番地１,,11,201,3500025,,,2025-06-11,清算の結了等,,,2015-10-05,1,,,,,リベロワークス,0
75,1040002072784,登記記録の閉鎖等,0,2025-06-19,2025-06-03,関東重機工有限会社,,有限会社,千葉県,市原市,青葉台３丁目８番地１７,,12,219,2990117,,,2025-06-03,清算の結了等,,,2015-10-05,1,,,,,,0
82,1070001010362,登記記録の閉鎖等,0,2025-06-19,2025-06-10,株式会社トランスパレント,,株式会社,三重県,員弁郡東員町,笹尾東１丁目３０番８,,24,324,5110232,,,2025-06-10,清算の結了等,,,2015-10-05,1,,,,,トランスパレント,0
95,1100002032765,登記記録の閉鎖等,0,2025-06-19,2025-06-16,有限会社此君酒店,,有限会社,長野県,伊那市,坂下３２９９番地２,,20,209,3960024,,,2025-06-16,清算の結了等,,,2015-10-05,1,,,,,コノキミサケテン,0
100,1120001049131,登記記録の閉鎖等,0,2025-06-19,2025-06-12,天野自動車工業株式会社,,株式会社,大阪府,大阪市西淀川区,姫島５丁目１６番２５号,,27,113,5550033,,,2025-06-12,清算の結了等,,,2015-10-05,1,,,,,アマノジドウシャコウギョウ,0
101,1120001212127,登記記録の閉鎖等,0,2025-06-19,2025-06-13,株式会社Ｌｉｂｅｒｔｙ,,株式会社,大阪府,大阪市中央区,南本町２丁目３番１２号ＥＤＧＥ本町３Ｆ,,27,128,5410054,,,2025-06-13,清算の結了等,,,2018-03-20,1,,,,,リバティ,0
110,1120005017431,登記記録の閉鎖等,0,2025-06-19,2025-06-18,一般社団法人日本食品協会,,その他の設立登記法人,大阪府,大阪市鶴見区,諸口５丁目浜７番１３号,,27,124,5380051,,,2025-06-18,清算の結了等,,,2015-10-05,1,,,,,ニホンショクヒンキョウカイ,0
115,1120102001478,登記記録の閉鎖等,0,2025-06-19,2025-05-30,有限会社ケイエス鈴木商店,,有限会社,大阪府,堺市南区,茶山台３丁４番３号,,27,145,5900115,,,2025-05-30,清算の結了等,,,2015-10-05,1,,,,,ケイエススズキショウテン,0
129,1140001108091,登記記録の閉鎖等,0,2025-06-19,2025-06-13,株式会社優和,,株式会社,兵庫県,小野市,万勝寺町８３３番地４,,28,218,6751311,,,2025-06-13,清算の結了等,,,2017-11-02,1,,,,,ユウワ,0
143,1180001069693,登記記録の閉鎖等,0,2025-06-19,2025-06-12,株式会社Ｒｅｌｉｅｖｅ,,株式会社,愛知県,岡崎市,仁木町字川越８２番地３ビレッジハウス仁木２－１０３,,23,202,4442148,,,2025-06-12,清算の結了等,,,2015-10-05,1,,,,,リリーブ,0
145,1180001129274,登記記録の閉鎖等,0,2025-06-19,2025-06-11,株式会社イトーデザイン,,株式会社,愛知県,知多郡美浜町,大字野間字新松下７９番地,,23,446,4703235,,,2025-06-11,清算の結了等,,,2017-09-06,1,,,,,イトーデザイン,0
150,1180002071723,登記記録の閉鎖等,0,2025-06-19,2025-06-10,有限会社ケイ・エフ・ケイ,,有限会社,愛知県,瀬戸市,窯町５２４番地の１,,23,204,4801219,,,2025-06-10,清算の結了等,,,2015-10-05,1,,,,,ケイエフケイ,0
151,1180002089815,登記記録の閉鎖等,0,2025-06-19,2025-06-11,有限会社豊広製作所,,有限会社,愛知県,海部郡蟹江町,大字須成字長田２１７５番地,,23,425,4970031,,,2025-06-11,清算の結了等,,,2015-10-05,1,,,,,トヨヒロセイサクジョ,0
195,1290005012291,登記記録の閉鎖等,0,2025-06-19,2025-06-12,医療法人兼行医院,,その他の設立登記法人,福岡県,大牟田市,旭町１丁目２番地の７,,40,202,8360807,,,2025-06-12,清算の結了等,,,2015-10-05,1,,,,,カネユキイイン,0
215,1430003003988,登記記録の閉鎖等,0,2025-06-19,2025-06-13,クラフトビー合同会社,,合同会社,北海道,札幌市西区,福井８丁目１－２７,,01,107,0630012,,,2025-06-13,清算の結了等,,,2015-10-05,1,,,,,クラフトビー,0
225,2010001215932,登記記録の閉鎖等,0,2025-06-19,2025-06-02,株式会社ＹＫＪＡＰＡＮ,,株式会社,東京都,千代田区,富士見２丁目２番１２号,,13,101,1020071,,,2025-06-02,清算の結了等,,,2021-02-18,1,,,,,ワイケージャパン,0
249,2010701003975,登記記録の閉鎖等,0,2025-06-19,2025-06-09,三洋精密工業株式会社,,株式会社,東京都,品川区,中延５丁目４番１１号,,13,109,1420053,,,2025-06-09,清算の結了等,,,2015-10-05,1,,,,,,0
262,2011101026146,登記記録の閉鎖等,0,2025-06-19,2025-06-13,株式会社雲母書房,,株式会社,東京都,昭島市,緑町５丁目９番３号,,13,207,1960004,,,2025-06-13,清算の結了等,,,2015-10-05,1,,,,,,0
265,2011201009686,登記記録の閉鎖等,0,2025-06-19,2025-06-17,株式会社おとぎや,,株式会社,東京都,世田谷区,船橋４丁目２２番２４号,,13,112,1560055,,,2025-06-17,清算の結了等,,,2015-10-05,1,,,,,オトギヤ,0
270,2012402003123,登記記録の閉鎖等,0,2025-06-19,2025-06-17,有限会社アミカ,,有限会社,長野県,諏訪郡富士見町,境８８７５番地１０,,20,362,3990101,,,2025-06-17,清算の結了等,,,2015-10-05,1,,,,,アミカ,0
275,2020001116782,登記記録の閉鎖等,0,2025-06-19,2025-06-16,株式会社エターナルトラストコンサルティング,,株式会社,神奈川県,川崎市多摩区,南生田６丁目１６番１２号,,14,135,2140036,,,2025-06-16,清算の結了等,,,2016-06-28,1,,,,,エターナルトラストコンサルティング,0
303,2030003017458,登記記録の閉鎖等,0,2025-06-19,2025-06-11,ビリーフ・プラス合同会社,,合同会社,埼玉県,飯能市,仲町６番地１号,,11,209,3570038,,,2025-06-11,清算の結了等,,,2021-06-22,1,,,,,ビリーフプラス,0
314,2050002038461,登記記録の閉鎖等,0,2025-06-19,2025-06-13,有限会社ミヤビ,,有限会社,茨城県,取手市,寺田５２００番地の１,,08,217,3020021,,,2025-06-13,清算の結了等,,,2015-10-05,1,,,,,ミヤビ,0
319,2070002007332,登記記録の閉鎖等,0,2025-06-19,2025-06-10,有限会社志塚興業,,有限会社,群馬県,前橋市,滝窪町８１３番地の５,,10,201,3710235,,,2025-06-10,清算の結了等,,,2015-10-05,1,,,,,シヅカコウギョウ,0
321,2080001012415,登記記録の閉鎖等,0,2025-06-19,2025-06-12,株式会社湧水,,株式会社,静岡県,藤枝市,谷稲葉２１７番地の１リ・エンブル北駿河台３０１号,,22,214,4260083,,,2025-06-12,清算の結了等,,,2015-10-05,1,,,,,ユウスイ,0
324,2080101017933,登記記録の閉鎖等,0,2025-06-19,2025-06-13,株式会社吉村組,,株式会社,静岡県,田方郡函南町,上沢９５５番地の４８,,22,325,4190122,,,2025-06-13,清算の結了等,,,2015-10-05,1,,,,,ヨシムラグミ,0
359,2140002006946,登記記録の閉鎖等,0,2025-06-19,2025-06-02,有限会社アベル,,有限会社,兵庫県,神戸市西区,神出町田井山ノ口９３８－１５,,28,111,6512313,,,2025-06-02,清算の結了等,,,2015-10-05,1,,,,,アベル,0
364,2170002006506,登記記録の閉鎖等,0,2025-06-19,2025-06-16,有限会社辰巳電設,,有限会社,和歌山県,海南市,原野２５２番地,,30,202,6400442,,,2025-06-16,清算の結了等,,,2015-10-05,1,,,,,タツミデンセツ,0
404,2290002048684,登記記録の閉鎖等,0,2025-06-19,2025-06-09,有限会社河原食販,,有限会社,福岡県,久留米市,津福今町４５８番地の６,,40,203,8300061,,,2025-06-09,清算の結了等,,,2015-10-05,1,,,,,カワハラショクハン,0
412,2340002024564,登記記録の閉鎖等,0,2025-06-19,2025-06-10,栫山製茶有限会社,,有限会社,鹿児島県,南九州市,頴娃町郡６１３０番地,,46,223,8910701,,,2025-06-10,清算の結了等,,,2015-10-05,1,,,,,カコイヤマセイチャ,0
413,2350005001543,登記記録の閉鎖等,0,2025-06-19,2025-06-11,特定非営利活動法人ハートム,,その他の設立登記法人,宮崎県,宮崎市,清武町木原５３４番地２,,45,201,8891601,,,2025-06-11,清算の結了等,,,2015-10-05,1,,,,,ハートム,0
435,2500001006167,登記記録の閉鎖等,0,2025-06-19,2025-06-16,株式会社愛媛新聞エリアサービス伊台,,株式会社,愛媛県,松山市,下伊台町１０３８番地１,,38,201,7910112,,,2025-06-16,清算の結了等,,,2015-10-05,1,,,,,エヒメシンブンエリアサービスイダイ,0
436,2500001020201,登記記録の閉鎖等,0,2025-06-19,2025-06-10,マルエーケア株式会社,,株式会社,愛媛県,松山市,山越４丁目４番３５号,,38,201,7918013,,,2025-06-10,清算の結了等,,,2016-11-14,1,,,,,マルエーケア,0
442,3010001190134,登記記録の閉鎖等,0,2025-06-19,2025-06-02,ＡＣＴＵＭ株式会社,,株式会社,東京都,中央区,日本橋兜町１７番２号,,13,102,1030026,,,2025-06-02,清算の結了等,,,2018-03-07,1,,,,,アクタム,0
447,3010401059433,登記記録の閉鎖等,0,2025-06-19,2025-05-29,井田ビルディングサービス株式会社,,株式会社,東京都,千代田区,神田須田町２丁目２番７号トーハン須田町ビル９階,,13,101,1010041,,,2025-05-29,清算の結了等,,,2015-10-05,1,,,,,イダビルディングサービス,0
464,3010801027287,登記記録の閉鎖等,0,2025-06-19,2025-06-11,株式会社ＪＩＮ,,株式会社,東京都,大田区,田園調布５丁目３番１５号,,13,111,1450071,,,2025-06-11,清算の結了等,,,2016-12-07,1,,,,,ジン,0
472,3011001049758,登記記録の閉鎖等,0,2025-06-19,2025-06-17,株式会社ユニークトレードライフ,,株式会社,東京都,品川区,南大井１丁目１４番２号,,13,109,1400013,,,2025-06-17,合併による解散等,4010901043935,令和７年６月１日東京都目黒区青葉台三丁目１２番１６号株式会社グリーンデザイン＆コンサルティング（4010901043935）に合併し解散,2015-10-05,1,,,,,ユニークトレードライフ,0
505,3013301041345,登記記録の閉鎖等,0,2025-06-19,2025-06-04,株式会社ネクサスビルド,,株式会社,東京都,豊島区,池袋２丁目４８番１号信友山の手池袋ビル８階－Ｂ,,13,116,1710014,,,2025-06-04,合併による解散等,2013301031487,令和７年６月１日東京都豊島区池袋二丁目４８番１号信友山の手池袋ビル８階－Ｂ株式会社ロイズコーポレーション（2013301031487）に合併し解散,2017-11-07,1,,,,,ネクサスビルド,0
513,3020002032160,登記記録の閉鎖等,0,2025-06-19,2025-06-11,有限会社レイジ,,有限会社,神奈川県,横浜市南区,睦町１丁目９番地の１９,,14,105,2320041,,,2025-06-11,清算の結了等,,,2015-10-05,1,,,,,レイジ,0
536,3040001061191,登記記録の閉鎖等,0,2025-06-19,2025-06-03,株式会社マスダ電設,,株式会社,千葉県,匝瑳市,春海１５９６番地,,12,235,2892101,,,2025-06-03,清算の結了等,,,2015-10-05,1,,,,,マスダデンセツ,0
541,3050002034575,登記記録の閉鎖等,0,2025-06-19,2025-06-13,有限会社助川保険サービス,,有限会社,茨城県,龍ケ崎市,８１７７番地,,08,208,3010000,,,2025-06-13,清算の結了等,,,2015-10-05,1,,,,,スケガワホケンサービス,0
546,3080001015879,登記記録の閉鎖等,0,2025-06-19,2025-06-17,新星運輸株式会社,,株式会社,静岡県,焼津市,浜当目７０８番地１,,22,212,4250012,,,2025-06-17,合併による解散等,1080401001150,令和７年６月１日静岡県浜松市中央区下石田町４５８番地の４株式会社鈴与カーゴサービス浜松（1080401001150）に合併し解散,2015-10-05,1,,,,,シンセイウンユ,0
554,3100001003749,登記記録の閉鎖等,0,2025-06-19,2025-06-16,株式会社ワシザワビル,,株式会社,長野県,長野市,南千歳１丁目６番地２,,20,201,3800823,,,2025-06-16,清算の結了等,,,2015-10-05,1,,,,,ワシザワビル,0
577,3140001088043,登記記録の閉鎖等,0,2025-06-19,2025-06-16,株式会社ａｍｉｃ,,株式会社,兵庫県,神戸市灘区,水道筋２丁目１６番３号,,28,102,6570831,,,2025-06-16,清算の結了等,,,2015-10-05,1,,,,,アミック,0
585,3150002005517,登記記録の閉鎖等,0,2025-06-19,2025-06-17,有限会社北野商事,,有限会社,奈良県,生駒市,東菜畑１丁目１６５番地１６４,,29,209,6300215,,,2025-06-17,清算の結了等,,,2015-10-05,1,,,,,キタノショウジ,0
591,3180001157785,登記記録の閉鎖等,0,2025-06-19,2025-06-12,株式会社アース,,株式会社,愛知県,岩倉市,下本町丸之内４４番地２（シャイン・ヴィレッジ２０３号）,,23,228,4820005,,,2025-06-12,清算の結了等,,,2023-08-30,1,,,,,アース,0
609,3230001013842,登記記録の閉鎖等,0,2025-06-19,2025-06-12,株式会社テクノトライブ,,株式会社,富山県,富山市,西荒屋１００６番地,,16,201,9398251,,,2025-06-12,合併による解散等,4220001016432,令和７年４月１日石川県七尾市三室町壱壱部２７番地２株式会社セテック（4220001016432）に合併し解散,2015-10-05,1,,,,,テクノトライブ,0
610,3240001034202,登記記録の閉鎖等,0,2025-06-19,2025-06-13,株式会社クリモト,,株式会社,広島県,府中市,府中町１６９番地の１,,34,208,7260005,,,2025-06-13,清算の結了等,,,2015-10-05,1,,,,,クリモト,0
611,3240002021645,登記記録の閉鎖等,0,2025-06-19,2025-06-16,トーヨーゴンドラ　ミマス有限会社,,有限会社,広島県,広島市東区,馬木７丁目２０５８番地,,34,102,7320031,,,2025-06-16,清算の結了等,,,2015-10-05,1,,,,,,0
617,3290001041565,登記記録の閉鎖等,0,2025-06-19,2025-06-11,福南安全産業株式会社,,株式会社,福岡県,春日市,紅葉ヶ丘西７丁目１１４番地４,,40,218,8160832,,,2025-06-11,清算の結了等,,,2015-10-05,1,,,,,フクナンアンゼンサンギョウ,0
636,3370003000230,登記記録の閉鎖等,0,2025-06-19,2025-06-10,合資会社興文堂,,合資会社,宮城県,仙台市青葉区,桜ケ丘１丁目８番８号,,04,101,9810961,,,2025-06-10,清算の結了等,,,2015-10-05,1,,,,,コウブンドウ,0
640,3390002008438,登記記録の閉鎖等,0,2025-06-19,2025-06-09,有限会社余目興産,,有限会社,山形県,東田川郡庄内町,余目字町２０４番地６,,06,428,9997781,,,2025-06-09,清算の結了等,,,2015-10-05,1,,,,,アマルメコウサン,0
641,3410002004517,登記記録の閉鎖等,0,2025-06-19,2025-06-13,有限会社ケン・エステート,,有限会社,秋田県,秋田市,牛島東６丁目３番１号,,05,201,0100062,,,2025-06-13,清算の結了等,,,2015-10-05,1,,,,,ケンエステート,0
646,3440001005372,登記記録の閉鎖等,0,2025-06-19,2025-06-16,エイ・エヌ・ジェイ株式会社,,株式会社,北海道,函館市,本通１丁目７番１８号,,01,202,0410851,,,2025-06-16,清算の結了等,,,2015-10-05,1,,,,,エイエヌジェイ,0
649,3450001006493,登記記録の閉鎖等,0,2025-06-19,2025-06-17,双葉車輛工業株式会社,,株式会社,北海道,富良野市,弥生町４番２２号,,01,229,0760018,,,2025-06-17,清算の結了等,,,2015-10-05,1,,,,,フタバシャリョウコウギョウ,0
652,3470005002719,登記記録の閉鎖等,0,2025-06-19,2025-06-06,宗教法人宇宙真理学会,,その他の設立登記法人,香川県,仲多度郡多度津町,本通２丁目６番３９－８０３号,,37,404,7640014,,,2025-06-06,清算の結了等,,,2015-10-05,1,,,,,ウチュウシンリガッカイ,0
664,4010005026424,登記記録の閉鎖等,0,2025-06-19,2025-06-12,一般社団法人産業廃棄物情報処理電子化推進機構,,その他の設立登記法人,東京都,中央区,八丁堀３丁目１２番８号,,13,102,1040032,,,2025-06-12,清算の結了等,,,2017-02-15,1,,,,,サンギョウハイキブツジョウホウショリデンシカスイシンキコウ,0
669,4010401166848,登記記録の閉鎖等,0,2025-06-19,2025-06-16,株式会社タイズ,,株式会社,神奈川県,横浜市中区,山吹町１番地７パーク・ノヴァ伊勢佐木長者町３０４号,,14,104,2310038,,,2025-06-16,清算の結了等,,,2022-04-27,1,,,,,タイズ,0
674,4010403027643,登記記録の閉鎖等,0,2025-06-19,2025-05-28,合同会社Ｅｓｔｒｅｌｌａ,,合同会社,東京都,港区,浜松町２丁目２番１５号浜松町ダイヤビル２Ｆ,,13,103,1050013,,,2025-05-28,清算の結了等,,,2022-05-17,1,,,,,エストレージャ,0
687,4010902022104,登記記録の閉鎖等,0,2025-06-19,2025-06-16,有限会社ディープエコロジー,,有限会社,東京都,世田谷区,瀬田１丁目２６番２号,,13,112,1580095,,,2025-06-16,合併による解散等,8010601037184,令和７年６月１６日東京都世田谷区瀬田一丁目２６番２号合同会社ディープエコロジー（8010601037184）に合併し解散,2015-10-05,1,,,,,ディープエコロジー,0
709,4011003014833,登記記録の閉鎖等,0,2025-06-19,2025-06-09,合同会社ＴＢエネルギー６,,合同会社,東京都,品川区,上大崎３丁目１番１号,,13,109,1410021,,,2025-06-09,清算の結了等,,,2022-06-09,1,,,,,ティービーエネルギーロク,0
749,4030002007763,登記記録の閉鎖等,0,2025-06-19,2025-06-12,有限会社晴光設備,,有限会社,埼玉県,さいたま市西区,大字二ツ宮４０５番地の３,,11,101,3310065,,,2025-06-12,清算の結了等,,,2015-10-05,1,,,,,セイコウセツビ,0
758,4040002077319,登記記録の閉鎖等,0,2025-06-19,2025-06-03,有限会社ビスターリ,,有限会社,千葉県,東金市,田間３丁目５１番地１,,12,213,2830005,,,2025-06-03,清算の結了等,,,2015-10-05,1,,,,,ビスターリ,0
768,4080002016256,登記記録の閉鎖等,0,2025-06-19,2025-06-12,有限会社マルチ製作所,,有限会社,静岡県,焼津市,吉津６１６番地の６,,22,212,4250002,,,2025-06-12,清算の結了等,,,2015-10-05,1,,,,,マルチセイサクショ,0
770,4080102016544,登記記録の閉鎖等,0,2025-06-19,2025-06-12,有限会社大月グループ,,有限会社,静岡県,富士宮市,淀師１１１４番地の４,,22,207,4180051,,,2025-06-12,清算の結了等,,,2015-10-05,1,,,,,オオツキグループ,0
775,4080402003449,登記記録の閉鎖等,0,2025-06-19,2025-06-13,有限会社サロン・モア・リップス,,有限会社,静岡県,浜松市中央区,幸１丁目１番８号,,22,138,4338123,,,2025-06-13,清算の結了等,,,2015-10-05,1,,,,,サロンモアリップス,0
787,4120001200979,登記記録の閉鎖等,0,2025-06-19,2025-06-11,八光不動産株式会社,,株式会社,大阪府,大阪市福島区,福島２丁目１０番５号,,27,103,5530003,,,2025-06-11,合併による解散等,5120001115986,令和７年６月１日大阪市福島区福島二丁目９番１号株式会社Ｈ．Ｋ．Ｋインベストメント（5120001115986）に合併し解散,2016-10-03,1,,,,,ハッコウフドウサン,0
792,4120003003579,登記記録の閉鎖等,0,2025-06-19,2025-06-13,ヂャイガンティックプリンティング合資会社,,合資会社,大阪府,大阪市浪速区,日本橋東３丁目７番６号,,27,111,5560006,,,2025-06-13,清算の結了等,,,2015-10-05,1,,,,,ヂャイガンティックプリンティング,0
808,4140002005541,登記記録の閉鎖等,0,2025-06-19,2025-06-12,有限会社アイテック,,有限会社,兵庫県,神戸市東灘区,御影石町２丁目１４－１５,,28,101,6580045,,,2025-06-12,清算の結了等,,,2015-10-05,1,,,,,アイテック,0
823,4180001157784,登記記録の閉鎖等,0,2025-06-19,2025-06-12,株式会社ＦＩＮＥ,,株式会社,愛知県,岩倉市,下本町丸之内４４番地２（シャイン・ヴィレッジ２０３号）,,23,228,4820005,,,2025-06-12,清算の結了等,,,2023-08-30,1,,,,,ファイン,0
838,4240001036718,登記記録の閉鎖等,0,2025-06-19,2025-06-12,株式会社昭和技興,,株式会社,広島県,安芸郡坂町,鯛尾１丁目６番５号,,34,309,7314325,,,2025-06-12,合併による解散等,2120901010967,令和７年６月１日大阪府高槻市唐崎西二丁目２６番１号ニシオティーアンドエム株式会社（2120901010967）に合併し解散,2015-10-05,1,,,,,ショウワギコウ,0
843,4260001011594,登記記録の閉鎖等,0,2025-06-19,2025-06-10,隆産業株式会社,,株式会社,岡山県,岡山市北区,西辛川９１４番地１,,33,101,7011213,,,2025-06-10,清算の結了等,,,2015-10-05,1,,,,,リュウサンギョウ,0
845,4260002023845,登記記録の閉鎖等,0,2025-06-19,2025-06-10,有限会社ハナゾノ,,有限会社,岡山県,岡山市南区,浜野３丁目１９番１９号,,33,104,7000845,,,2025-06-10,清算の結了等,,,2015-10-05,1,,,,,ハナゾノ,0
849,4290001053106,登記記録の閉鎖等,0,2025-06-19,2025-06-10,西日本罐詰株式会社,,株式会社,福岡県,柳川市,三橋町今古賀４１７番地,,40,207,8320823,,,2025-06-10,清算の結了等,,,2015-10-05,1,,,,,ニシニホンカンヅメ,0
854,4310001002175,登記記録の閉鎖等,0,2025-06-19,2025-06-17,明和海運株式会社,,株式会社,長崎県,長崎市,江戸町５番６号,,42,201,8500861,,,2025-06-17,清算の結了等,,,2015-10-05,1,,,,,メイワカイウン,0
857,4320005001940,登記記録の閉鎖等,0,2025-06-19,2025-06-10,特定非営利活動法人豊の国づくり塾生会,,その他の設立登記法人,大分県,大分市,豊町２丁目３番４号,,44,201,8700042,,,2025-06-10,清算の結了等,,,2015-10-05,1,,,,,トヨノクニヅクリジュクセイカイ,0
880,4380001013653,登記記録の閉鎖等,0,2025-06-19,2025-06-05,株式会社磐洋建設工業,,株式会社,福島県,いわき市,小名浜玉川町南２９番地の１,,07,204,9718127,,,2025-06-05,清算の結了等,,,2015-10-05,1,,,,,,0
905,5010001098516,登記記録の閉鎖等,0,2025-06-19,2025-05-30,ウエストロー・ジャパン株式会社,,株式会社,東京都,港区,愛宕２丁目５－１愛宕グリーンヒルズＭＯＲＩタワー１０階,,13,103,1050002,,,2025-05-30,清算の結了等,,,2015-10-05,1,,,,,ウエストロージャパン,0
906,5010001140962,登記記録の閉鎖等,0,2025-06-19,2025-06-03,株式会社ホテルアンドクルーズ,,株式会社,東京都,中央区,新川２丁目１９番８号,,13,102,1040033,,,2025-06-03,清算の結了等,,,2015-10-05,1,,,,,ホテルアンドクルーズ,0
907,5010001169829,登記記録の閉鎖等,0,2025-06-19,2025-06-02,ロックツール株式会社,,株式会社,東京都,千代田区,九段南３丁目７番１２号,,13,101,1020074,,,2025-06-02,清算の結了等,,,2015-10-05,1,,,,,ロックツール,0
908,5010001233733,登記記録の閉鎖等,0,2025-06-19,2025-06-02,数算互聯日本株式会社,,株式会社,東京都,千代田区,神田佐久間町１丁目８番４号アルテール秋葉原７０８,,13,101,1010025,,,2025-06-02,清算の結了等,,,2023-03-16,1,,,,,スウサンゴレンニホン,0
913,5010003040013,登記記録の閉鎖等,0,2025-06-19,2025-06-02,アズマソーラー合同会社,,合同会社,東京都,千代田区,麹町２丁目８番地ＭＬＣ麹町ビル４階フィンポート税理士法人内,,13,101,1020083,,,2025-06-02,清算の結了等,,,2023-03-08,1,,,,,アズマソーラー,0
916,5010103001963,登記記録の閉鎖等,0,2025-06-19,2025-05-23,マッチ合同会社,,合同会社,東京都,渋谷区,道玄坂１丁目１０番８号渋谷道玄坂東急ビル２Ｆ－Ｃ,,13,113,1500043,,,2025-05-23,清算の結了等,,,2022-08-04,1,,,,,マッチ,0
931,5010701029869,登記記録の閉鎖等,0,2025-06-19,2025-06-11,株式会社リブロ,,株式会社,東京都,品川区,八潮５丁目１０番５９－５０４号,,13,109,1400003,,,2025-06-11,清算の結了等,,,2015-10-05,1,,,,,リブロ,0
932,5010703001917,登記記録の閉鎖等,0,2025-06-19,2025-06-10,エリアデザイン・グループ合同会社,,合同会社,東京都,品川区,東五反田１丁目５番１号,,13,109,1410022,,,2025-06-10,清算の結了等,,,2015-10-05,1,,,,,エリアデザイングループ,0
964,5011801038982,登記記録の閉鎖等,0,2025-06-19,2025-06-13,株式会社ＳＨＩＮＭＩ　Ｒｅｓｔａｕｒａｎｔ　Ｐａｒｔｎｅｒｓ,,株式会社,東京都,足立区,西保木間１丁目１番１号,,13,121,1210812,,,2025-06-13,清算の結了等,,,2021-04-06,1,,,,,シンミレストランパートナーズ,0
967,5011802019511,登記記録の閉鎖等,0,2025-06-19,2025-06-13,有限会社モードエ・アン,,有限会社,東京都,足立区,千住緑町３丁目１０番１号,,13,121,1200044,,,2025-06-13,清算の結了等,,,2015-10-05,1,,,,,モードエアン,0
980,5021001021251,登記記録の閉鎖等,0,2025-06-19,2025-06-17,株式会社ビツク・イースト,,株式会社,神奈川県,伊勢原市,上粕屋７２５番地の５,,14,214,2591141,,,2025-06-17,清算の結了等,,,2015-10-05,1,,,,,ビツクイースト,0
985,5030001001460,登記記録の閉鎖等,0,2025-06-19,2025-06-12,株式会社オフィスエフ・ジェイ,,株式会社,埼玉県,さいたま市浦和区,木崎５丁目２７番２４号,,11,107,3300042,,,2025-06-12,清算の結了等,,,2015-10-05,1,,,,,オフィスエフジェイ,0
994,5030002072690,登記記録の閉鎖等,0,2025-06-19,2025-06-12,有限会社オチアイ,,有限会社,埼玉県,川越市,清水町２番地２４,,11,201,3501145,,,2025-06-12,清算の結了等,,,2015-10-05,1,,,,,オチアイ,0
999,5040001124822,登記記録の閉鎖等,0,2025-06-19,2025-06-02,株式会社葵会,,株式会社,千葉県,我孫子市,天王台１丁目５番１号,,12,222,2701143,,,2025-06-02,合併による解散等,8040001067705,令和７年５月３１日千葉県我孫子市天王台一丁目５番１号バイオシステム株式会社（8040001067705）に合併し解散,2022-08-29,1,,,,,アオイカイ,0
1014,5080005005156,登記記録の閉鎖等,0,2025-06-19,2025-06-11,一般社団法人榛原歯科医師会,,その他の設立登記法人,静岡県,牧之原市,静波１６９９番地の１５,,22,226,4210422,,,2025-06-11,清算の結了等,,,2015-10-05,1,,,,,ハイバラシカイシカイ,0
1028,5120001079653,登記記録の閉鎖等,0,2025-06-19,2025-06-13,株式会社コーワ,,株式会社,大阪府,大阪市中央区,森ノ宮中央１丁目１４番１０号,,27,128,5400003,,,2025-06-13,清算の結了等,,,2015-10-05,1,,,,,コーワ,0
1029,5120001083853,登記記録の閉鎖等,0,2025-06-19,2025-06-10,株式会社高木商会,,株式会社,大阪府,大阪市中央区,安土町１丁目６番２２－１０３号,,27,128,5410052,,,2025-06-10,清算の結了等,,,2015-10-05,1,,,,,,0
1031,5120001150100,登記記録の閉鎖等,0,2025-06-19,2025-06-13,株式会社太陽保温,,株式会社,大阪府,枚方市,長尾谷町３丁目１９番５号,,27,210,5730164,,,2025-06-13,清算の結了等,,,2015-10-05,1,,,,,タイヨウホオン,0
1054,5130003004773,登記記録の閉鎖等,0,2025-06-19,2025-06-13,ヤコテック・ジャパン合同会社,,合同会社,京都府,八幡市,八幡清水井４５番地の１朝日プラザ石清水２０９号,,26,210,6148062,,,2025-06-13,清算の結了等,,,2016-09-06,1,,,,,ヤコテックジャパン,0
1057,5140001121867,登記記録の閉鎖等,0,2025-06-19,2025-06-05,株式会社介護のおしごと相談窓口,,株式会社,兵庫県,加古川市,平岡町新在家６１５－１イオン加古川店３Ｆ,,28,210,6750101,,,2025-06-05,合併による解散等,6140001045594,令和７年５月３１日兵庫県加古川市別府町石町８０番地株式会社ライフサポーター（6140001045594）に合併し解散,2021-06-22,1,,,,,カイゴノオシゴトソウダンマドグチ,0
1061,5140002005111,登記記録の閉鎖等,0,2025-06-19,2025-06-16,有限会社平原物流,,有限会社,兵庫県,神戸市西区,玉津町水谷３番地の２８,,28,111,6512121,,,2025-06-16,清算の結了等,,,2015-10-05,1,,,,,ヒラハラブツリュウ,0
1077,5180002047703,登記記録の閉鎖等,0,2025-06-19,2025-06-13,有限会社マウントワン,,有限会社,愛知県,名古屋市中区,錦２丁目５番３１号,,23,106,4600003,,,2025-06-13,清算の結了等,,,2015-10-05,1,,,,,マウントワン,0
1083,5200001016136,登記記録の閉鎖等,0,2025-06-19,2025-06-12,株式会社和田建材,,株式会社,岐阜県,揖斐郡揖斐川町,三輪８７５番地の１,,21,401,5010619,,,2025-06-12,清算の結了等,,,2015-10-05,1,,,,,,0
1088,5200002021812,登記記録の閉鎖等,0,2025-06-19,2025-06-16,有限会社ヤママツセラミック,,有限会社,岐阜県,土岐市,土岐津町土岐口７９８番地,,21,212,5095122,,,2025-06-16,清算の結了等,,,2015-10-05,1,,,,,ヤママツセラミック,0
1100,5260002016955,登記記録の閉鎖等,0,2025-06-19,2025-06-10,有限会社オージーオー,,有限会社,岡山県,倉敷市,鳥羽１０５０番地,,33,202,7100012,,,2025-06-10,清算の結了等,,,2015-10-05,1,,,,,オージーオー,0
1136,5450001007374,登記記録の閉鎖等,0,2025-06-19,2025-06-13,株式会社旭星,,株式会社,北海道,名寄市,風連町大町５６番地９,,01,221,0980503,,,2025-06-13,清算の結了等,,,2015-10-05,1,,,,,キョクセイ,0
1138,5460001005666,登記記録の閉鎖等,0,2025-06-19,2025-06-17,Ｍ．Ｃ．Ｍ株式会社,,株式会社,北海道,釧路市,鳥取大通５丁目３－１９オレンジビル２－２,,01,206,0840906,,,2025-06-17,清算の結了等,,,2022-03-03,1,,,,,エムシーエム,0
1142,5490001009235,登記記録の閉鎖等,0,2025-06-19,2025-06-13,株式会社ＭＯＲＩ宅建,,株式会社,高知県,高知市,はりまや町１丁目１２番１５号清流第一ビル４０１号室,,39,201,7800822,,,2025-06-13,清算の結了等,,,2019-04-09,1,,,,,モリタッケン,0
1155,6010401129010,登記記録の閉鎖等,0,2025-06-19,2025-05-26,ＢＡＥシステムズ・アプライド・インテリジェンス・ジャパン株式会社,,株式会社,東京都,港区,赤坂１丁目１２番３２号アーク森ビル２４階,,13,103,1070052,,,2025-05-26,清算の結了等,,,2017-01-06,1,,,,,ビーエーイーシステムズアプライドインテリジェンスジャパン,0
1165,6010901040765,登記記録の閉鎖等,0,2025-06-19,2025-06-18,株式会社ｄｅｚａｉｒｅ,,株式会社,東京都,世田谷区,成城３丁目１３番３０号,,13,112,1570066,,,2025-06-18,清算の結了等,,,2017-09-11,1,,,,,デザイア,0
1168,6010902024370,登記記録の閉鎖等,0,2025-06-19,2025-06-13,有限会社レフトアンドライト,,有限会社,東京都,多摩市,関戸４丁目２３番１号,,13,224,2060011,,,2025-06-13,清算の結了等,,,2015-10-05,1,,,,,レフトアンドライト,0
1189,6011003012901,登記記録の閉鎖等,0,2025-06-19,2025-06-09,合同会社トラストバンク米子,,合同会社,東京都,品川区,上大崎３丁目１番１号,,13,109,1410021,,,2025-06-09,清算の結了等,,,2021-06-11,1,,,,,トラストバンクヨナゴ,0
1211,6012401036450,登記記録の閉鎖等,0,2025-06-19,2025-05-30,共栄パートナー株式会社,,株式会社,東京都,新宿区,西新宿３丁目５－１２トーカン新宿第２キャステール２０９号室,,13,104,1600023,,,2025-05-30,清算の結了等,,,2020-04-13,1,,,,,キョウエイパートナー,0
1220,6020001125895,登記記録の閉鎖等,0,2025-06-19,2025-06-16,株式会社絆建装,,株式会社,神奈川県,横浜市南区,井土ケ谷下町４４番地９石井ビル４０２,,14,105,2320053,,,2025-06-16,清算の結了等,,,2018-04-12,1,,,,,キズナケンソウ,0
1221,6020001131729,登記記録の閉鎖等,0,2025-06-19,2025-06-11,ウェブライフエイド株式会社,,株式会社,神奈川県,横浜市青葉区,荏子田２丁目３３番地２７,,14,117,2250005,,,2025-06-11,清算の結了等,,,2019-06-25,1,,,,,ウェブライフエイド,0
1222,6020001155711,登記記録の閉鎖等,0,2025-06-19,2025-06-12,株式会社ＮＥＫＯＮＯＴＥ,,株式会社,神奈川県,横浜市中区,初音町３丁目５９番地１フェニックスヨコハマスクエア６０２,,14,104,2310053,,,2025-06-12,清算の結了等,,,2024-02-07,1,,,,,ネコノテ,0
1235,6021002071105,登記記録の閉鎖等,0,2025-06-19,2025-06-12,有限会社西川製作所,,有限会社,神奈川県,逗子市,桜山３丁目４番５４号,,14,208,2490005,,,2025-06-12,清算の結了等,,,2015-10-05,1,,,,,ニシカワセイサクショ,0
1236,6030001046496,登記記録の閉鎖等,0,2025-06-19,2025-06-09,シンエイ株式会社,,株式会社,宮城県,仙台市泉区,虹の丘２丁目３番地の２,,04,105,9818007,,,2025-06-09,清算の結了等,,,2015-10-05,1,,,,,シンエイ,0
1251,6040003016901,登記記録の閉鎖等,0,2025-06-19,2025-06-17,合同会社ともえ商事,,合同会社,千葉県,市原市,ちはら台東８丁目５番１５号,,12,219,2900141,,,2025-06-17,清算の結了等,,,2021-01-27,1,,,,,トモエショウジ,0
1255,6050001026075,登記記録の閉鎖等,0,2025-06-19,2025-06-13,株式会社ＥＬＰ,,株式会社,茨城県,龍ケ崎市,大徳町７７８番地９上土井ホームズ２－Ａ,,08,208,3010816,,,2025-06-13,清算の結了等,,,2015-10-05,1,,,,,エルプ,0
1260,6080002018416,登記記録の閉鎖等,0,2025-06-19,2025-06-12,有限会社ワンダービルド,,有限会社,静岡県,藤枝市,岡部町内谷９６４番地の４８,,22,214,4211131,,,2025-06-12,清算の結了等,,,2015-10-05,1,,,,,ワンダービルド,0
1266,6120001039524,登記記録の閉鎖等,0,2025-06-19,2025-06-13,株式会社熨斗秀興堂,,株式会社,大阪府,大阪市浪速区,日本橋東３丁目７番６号,,27,111,5560006,,,2025-06-13,清算の結了等,,,2015-10-05,1,,,,,ノシシュウコウドウ,0
1278,6120001260609,登記記録の閉鎖等,0,2025-06-19,2025-06-13,株式会社アドバンス・レジデンシャル,,株式会社,大阪府,大阪市中央区,城見１丁目３番７号,,27,128,5400001,,,2025-06-13,清算の結了等,,,2023-12-15,1,,,,,アドバンスレジデンシャル,0
1289,6120901013074,登記記録の閉鎖等,0,2025-06-19,2025-06-12,株式会社織田商店,,株式会社,大阪府,茨木市,宮島１丁目１番１号,,27,211,5670853,,,2025-06-12,清算の結了等,,,2024-08-26,1,,,,,,0
1309,6140005023431,登記記録の閉鎖等,0,2025-06-19,2025-06-10,特定非営利活動法人西宮介護タクシー協会,,その他の設立登記法人,兵庫県,西宮市,大井手町４番４号,,28,204,6620036,,,2025-06-10,清算の結了等,,,2017-03-09,1,,,,,ニシノミヤカイゴタクシーキョウカイ,0
1320,6180001150358,登記記録の閉鎖等,0,2025-06-19,2025-06-12,株式会社ウエスト,,株式会社,愛知県,稲沢市,朝府町１番１号,,23,220,4928268,,,2025-06-12,清算の結了等,,,2022-03-09,1,,,,,ウエスト,0
1321,6180001166148,登記記録の閉鎖等,0,2025-06-19,2025-06-17,株式会社リクエストプロ,,株式会社,愛知県,名古屋市中村区,名駅５丁目３１番１０号,,23,105,4500002,,,2025-06-17,合併による解散等,6180001114354,令和７年６月１４日名古屋市中村区名駅五丁目３１番１０号株式会社リクエストＢＥＡＴＳ（6180001114354）に合併し解散,2025-04-04,1,,,,,リクエストプロ,0
1329,6190002017704,登記記録の閉鎖等,0,2025-06-19,2025-06-11,有限会社髪工房匠,,有限会社,三重県,員弁郡東員町,大字山田８２０番２,,24,324,5110251,,,2025-06-11,清算の結了等,,,2015-10-05,1,,,,,カミコウボウタクミ,0
1331,6200001012852,登記記録の閉鎖等,0,2025-06-19,2025-06-16,株式会社翔栄,,株式会社,岐阜県,岐阜市,北一色６丁目１６番１１号,,21,201,5008227,,,2025-06-16,清算の結了等,,,2015-10-05,1,,,,,ショウエイ,0
1346,6260002010263,登記記録の閉鎖等,0,2025-06-19,2025-06-10,有限会社山崎商事,,有限会社,岡山県,岡山市中区,浜３７２番地１ファミール岡山３０７号,,33,102,7038256,,,2025-06-10,清算の結了等,,,2015-10-05,1,,,,,ヤマサキショウジ,0
1368,6370601002897,登記記録の閉鎖等,0,2025-06-19,2025-06-16,ファイブ・スター株式会社,,株式会社,神奈川県,横浜市中区,花咲町２丁目６６番地６,,14,104,2310063,,,2025-06-16,清算の結了等,,,2015-10-05,1,,,,,ファイブスター,0
1380,7010001097747,登記記録の閉鎖等,0,2025-06-19,2025-05-29,井田株式会社,,株式会社,東京都,中央区,八重洲１丁目３番８号,,13,102,1030028,,,2025-05-29,清算の結了等,,,2015-10-05,1,,,,,イダ,0
1382,7010001156379,登記記録の閉鎖等,0,2025-06-19,2025-06-02,Ｄｒｅａｍｙ　Ｌｉｏｎ株式会社,,株式会社,東京都,中央区,銀座２丁目１１番１８号,,13,102,1040061,,,2025-06-02,清算の結了等,,,2015-10-05,1,,,,,ドリーミーライオン,0
1391,7010001189049,登記記録の閉鎖等,0,2025-06-19,2025-06-12,大和管財株式会社,,株式会社,神奈川県,大和市,中央林間７丁目１０番１号,,14,213,2420007,,,2025-06-12,清算の結了等,,,2018-01-18,1,,,,,ヤマトカンザイ,0
1441,7011501014687,登記記録の閉鎖等,0,2025-06-19,2025-06-16,株式会社ウォーム・ハート,,株式会社,東京都,北区,赤羽北３丁目２６番５－１９１４号,,13,117,1150052,,,2025-06-16,清算の結了等,,,2015-10-05,1,,,,,ウォームハート,0
1470,7021002068884,登記記録の閉鎖等,0,2025-06-19,2025-06-11,有限会社第一速記社,,有限会社,神奈川県,三浦郡葉山町,一色１１６番地の４３,,14,301,2400111,,,2025-06-11,清算の結了等,,,2015-10-05,1,,,,,ダイイチソッキシャ,0
1476,7030002044515,登記記録の閉鎖等,0,2025-06-19,2025-06-13,有限会社昇龍,,有限会社,埼玉県,草加市,清門３丁目２８番地１２,,11,221,3400055,,,2025-06-13,清算の結了等,,,2015-10-05,1,,,,,ショウリュウ,0
1478,7040002093040,登記記録の閉鎖等,0,2025-06-19,2025-06-02,有限会社古谷歯研,,有限会社,千葉県,我孫子市,我孫子４丁目３７番７号,,12,222,2701166,,,2025-06-02,清算の結了等,,,2015-10-05,1,,,,,フルヤシケン,0
1496,7080401027702,登記記録の閉鎖等,0,2025-06-19,2025-06-13,三協ピアノ株式会社,,株式会社,静岡県,浜松市中央区,中野町１６６番地,,22,138,4350004,,,2025-06-13,清算の結了等,,,2025-01-29,1,,,,,サンキョウピアノ,0
1497,7080405006082,登記記録の閉鎖等,0,2025-06-19,2025-06-11,農事組合法人あじさいグループ,,その他の設立登記法人,静岡県,周智郡森町,問詰１１１５番地の１,,22,461,4370204,,,2025-06-11,清算の結了等,,,2015-10-05,1,,,,,アジサイグループ,0
1513,7120002080468,登記記録の閉鎖等,0,2025-06-19,2025-06-09,有限会社ネオ・サイン,,有限会社,大阪府,門真市,新橋町２９番１３号,,27,223,5710048,,,2025-06-09,清算の結了等,,,2015-10-05,1,,,,,ネオサイン,0
1526,7120105008688,登記記録の閉鎖等,0,2025-06-19,2025-06-17,一般社団法人ＨＳＫ,,その他の設立登記法人,大阪府,堺市中区,深阪６丁１７番８号,,27,142,5998253,,,2025-06-17,清算の結了等,,,2017-05-16,1,,,,,エイチエスケー,0
1553,7180001155975,登記記録の閉鎖等,0,2025-06-19,2025-06-13,株式会社みずひろ,,株式会社,愛知県,春日井市,六軒屋町西１丁目５番地２,,23,206,4860839,,,2025-06-13,清算の結了等,,,2023-04-24,1,,,,,ミズヒロ,0
1560,7180302012826,登記記録の閉鎖等,0,2025-06-19,2025-06-03,有限会社池田鉄工,,有限会社,愛知県,豊川市,御津町赤根屋敷２６番地,,23,207,4410316,,,2025-06-03,清算の結了等,,,2015-10-05,1,,,,,イケダテッコウ,0
1571,7240001020727,登記記録の閉鎖等,0,2025-06-19,2025-06-16,株式会社ミヤモト,,株式会社,広島県,広島市安佐北区,亀山２丁目１２番１３号,,34,106,7310231,,,2025-06-16,清算の結了等,,,2015-10-05,1,,,,,ミヤモト,0
1579,7280002004279,登記記録の閉鎖等,0,2025-06-19,2025-06-18,有限会社宅建永砂工房,,有限会社,島根県,松江市,上乃木９丁目１２番２７号,,32,201,6900015,,,2025-06-18,清算の結了等,,,2015-10-05,1,,,,,タッケンナガスナコウボウ,0
1599,7350003004139,登記記録の閉鎖等,0,2025-06-19,2025-06-11,合同会社Ａｒｃ　Ｔｒａｄｅ　Ｊａｐａｎ,,合同会社,宮崎県,都城市,南鷹尾町１２街区２１号,,45,202,8850082,,,2025-06-11,清算の結了等,,,2022-08-15,1,,,,,アークトレードジャパン,0
1600,7350005005688,登記記録の閉鎖等,0,2025-06-19,2025-06-11,特定非営利活動法人高岡町の魅力発信・名産品開発プロジェクト,,その他の設立登記法人,宮崎県,宮崎市,高岡町五町９６番地７,,45,201,8802322,,,2025-06-11,清算の結了等,,,2017-05-17,1,,,,,タカオカチョウノミリョクハッシンメイサンヒンカイハツプロジェクト,0
1606,7400002003243,登記記録の閉鎖等,0,2025-06-19,2025-06-04,有限会社ミムラ,,有限会社,岩手県,盛岡市,津志田中央３丁目１８番３０号,,03,201,0200838,,,2025-06-04,清算の結了等,,,2015-10-05,1,,,,,ミムラ,0
1607,7400002012789,登記記録の閉鎖等,0,2025-06-19,2025-06-03,有限会社北岩手総合保険事務所,,有限会社,岩手県,久慈市,川崎町９番３３号,,03,207,0280051,,,2025-06-03,清算の結了等,,,2015-10-05,1,,,,,キタイワテソウゴウホケンジムショ,0
1615,7430001084190,登記記録の閉鎖等,0,2025-06-19,2025-06-12,株式会社ＳＥＩＨＯ　ＥＳＴＡＴＥ,,株式会社,北海道,札幌市中央区,南十六条西７丁目２番６－８０１号,,01,101,0640916,,,2025-06-12,清算の結了等,,,2021-06-01,1,,,,,セイホウエステート,0
1632,8010001196936,登記記録の閉鎖等,0,2025-06-19,2025-06-13,ＷＰＥジャパン株式会社,,株式会社,東京都,板橋区,前野町４丁目５４番２号,,13,119,1740063,,,2025-06-13,清算の結了等,,,2018-12-07,1,,,,,ダブルピーイージャパン,0
1638,8010002028808,登記記録の閉鎖等,0,2025-06-19,2025-06-02,有限会社オフィス・ウイン,,有限会社,東京都,千代田区,外神田６丁目３番８号,,13,101,1010021,,,2025-06-02,清算の結了等,,,2015-10-05,1,,,,,オフィスウイン,0
1647,8010401106916,登記記録の閉鎖等,0,2025-06-19,2025-05-23,株式会社エル・スマイル,,株式会社,東京都,港区,芝浦１丁目９番７号芝浦おもだかビル７階,,13,103,1050023,,,2025-05-23,合併による解散等,1010401088616,令和７年５月２３日東京都港区芝浦一丁目９番７号芝浦おもだかビル７階株式会社ケイ・エス・オー（1010401088616）に合併し解散,2015-10-05,1,,,,,エルスマイル,0
1656,8010701039923,登記記録の閉鎖等,0,2025-06-19,2025-05-28,スパイラルワークス株式会社,,株式会社,東京都,港区,浜松町２丁目２番１５号浜松町ダイヤビル２Ｆ,,13,103,1050013,,,2025-05-28,清算の結了等,,,2020-10-08,1,,,,,スパイラルワークス,0
1660,8010803004131,登記記録の閉鎖等,0,2025-06-19,2025-06-11,合同会社ｊｅｓｕｓ　ｐｒｏｄｕｃｔｓ,,合同会社,東京都,大田区,西蒲田４丁目１８番１８号小根山ビル１Ｆ,,13,111,1440051,,,2025-06-11,清算の結了等,,,2022-04-13,1,,,,,ジーザスプロダクツ,0
1662,8010901020906,登記記録の閉鎖等,0,2025-06-19,2025-06-16,株式会社ウザワカッター工業,,株式会社,東京都,世田谷区,弦巻４丁目２７番１９号,,13,112,1540016,,,2025-06-16,清算の結了等,,,2015-10-05,1,,,,,ウザワカッターコウギョウ,0
1672,8011101078396,登記記録の閉鎖等,0,2025-06-19,2025-05-29,株式会社くじら,,株式会社,東京都,新宿区,信濃町３Ｓ．ＣＯＵＲＴビル２階,,13,104,1600016,,,2025-05-29,清算の結了等,,,2016-10-07,1,,,,,クジラ,0
1675,8011401001058,登記記録の閉鎖等,0,2025-06-19,2025-06-12,株式会社エルフ,,株式会社,東京都,板橋区,大谷口北町４４番７号,,13,119,1730031,,,2025-06-12,清算の結了等,,,2015-10-05,1,,,,,エルフ,0
1693,8020001054028,登記記録の閉鎖等,0,2025-06-19,2025-06-13,株式会社Ｏ－ＫＥＩ樹脂,,株式会社,大阪府,大阪市北区,西天満２丁目５番７号,,27,127,5300047,,,2025-06-13,清算の結了等,,,2015-10-05,1,,,,,オーケイジュシ,0
1697,8020001109566,登記記録の閉鎖等,0,2025-06-19,2025-06-16,株式会社フィールドホーム,,株式会社,神奈川県,川崎市中原区,宮内２丁目１４番２号,,14,133,2110051,,,2025-06-16,清算の結了等,,,2015-10-05,1,,,,,フィールドホーム,0
1705,8020003010235,登記記録の閉鎖等,0,2025-06-19,2025-06-16,合同会社Ｍ’ｓ　ｖｉｇｏｒ,,合同会社,神奈川県,川崎市川崎区,砂子２丁目４番地１,,14,131,2100006,,,2025-06-16,清算の結了等,,,2015-10-05,1,,,,,ミズヴィガー,0
1706,8021001009748,登記記録の閉鎖等,0,2025-06-19,2025-06-17,株式会社トッシュ・アンド・カンパニー,,株式会社,神奈川県,鎌倉市,七里ガ浜東５丁目８番１４号,,14,204,2480025,,,2025-06-17,清算の結了等,,,2015-10-05,1,,,,,トッシュアンドカンパニー,0
1707,8021001069354,登記記録の閉鎖等,0,2025-06-19,2025-06-06,株式会社キタサン,,株式会社,神奈川県,横須賀市,公郷町３丁目６９番地３パシフィックパレス北久里浜６０４,,14,201,2380022,,,2025-06-06,清算の結了等,,,2020-02-20,1,,,,,キタサン,0
1712,8030001100697,登記記録の閉鎖等,0,2025-06-19,2025-06-11,株式会社大桑コーポレーション,,株式会社,埼玉県,春日部市,大枝５８７番地６,,11,214,3440023,,,2025-06-11,清算の結了等,,,2015-10-05,1,,,,,オオクワコーポレーション,0
1714,8030001146071,登記記録の閉鎖等,0,2025-06-19,2025-06-10,株式会社ヘリクリサム,,株式会社,埼玉県,久喜市,本町４丁目４番３６号丸冨本町四丁目店舗１４号室,,11,232,3460005,,,2025-06-10,清算の結了等,,,2021-12-27,1,,,,,ヘリクリサム,0
1733,8070001005455,登記記録の閉鎖等,0,2025-06-19,2025-06-11,株式会社清閑堂,,株式会社,群馬県,伊勢崎市,宮子町３４００番地７,,10,204,3720801,,,2025-06-11,合併による解散等,4070001003272,令和７年５月３１日群馬県前橋市大友町一丁目２番１１号株式会社メモリードグループ（4070001003272）に合併し解散,2015-10-05,1,,,,,セイカンドウ,0
1741,8100002018089,登記記録の閉鎖等,0,2025-06-19,2025-06-16,有限会社テクニカル電設,,有限会社,長野県,中野市,大字中野１７７０番地,,20,211,3830013,,,2025-06-16,清算の結了等,,,2015-10-05,1,,,,,テクニカルデンセツ,0
1746,8120001149040,登記記録の閉鎖等,0,2025-06-19,2025-06-10,株式会社乾製作所,,株式会社,大阪府,枚方市,招提大谷２丁目２３番１２号,,27,210,5731153,,,2025-06-10,清算の結了等,,,2015-10-05,1,,,,,イヌイセイサクショ,0
1748,8120001192569,登記記録の閉鎖等,0,2025-06-19,2025-06-10,株式会社熊本開発,,株式会社,大阪府,大阪市中央区,島之内１丁目２２番２０号,,27,128,5420082,,,2025-06-10,清算の結了等,,,2015-10-05,1,,,,,クマモトカイハツ,0
1767,8120905002781,登記記録の閉鎖等,0,2025-06-19,2025-06-11,税理士法人えびす会計,,その他の設立登記法人,大阪府,茨木市,大手町１１番１９号,,27,211,5670883,,,2025-06-11,清算の結了等,,,2015-10-05,1,,,,,エビスカイケイ,0
1771,8130001028598,登記記録の閉鎖等,0,2025-06-19,2025-06-16,株式会社藤沢製本,,株式会社,滋賀県,大津市,枝１丁目１番２３号,,25,201,5202275,,,2025-06-16,清算の結了等,,,2015-10-05,1,,,,,フジサワセイホン,0
1785,8180001155561,登記記録の閉鎖等,0,2025-06-19,2025-06-12,株式会社松栄通信,,株式会社,愛知県,名古屋市港区,秋葉３丁目３番地,,23,111,4550857,,,2025-06-12,合併による解散等,6180001048073,令和７年６月１日名古屋市港区秋葉三丁目３番地株式会社エスディーエス（6180001048073）に合併し解散,2023-03-31,1,,,,,ショウエイツウシン,0
1789,8180003003207,登記記録の閉鎖等,0,2025-06-19,2025-06-13,田内建具合資会社,,合資会社,愛知県,名古屋市東区,百人町５５番地,,23,102,4610037,,,2025-06-13,清算の結了等,,,2015-10-05,1,,,,,タウチタテグ,0
1795,8190002008791,登記記録の閉鎖等,0,2025-06-19,2025-06-12,有限会社サナヤ酒店,,有限会社,三重県,伊勢市,大世古２丁目８番１４号,,24,203,5160079,,,2025-06-12,清算の結了等,,,2015-10-05,1,,,,,,0
1810,8260001015121,登記記録の閉鎖等,0,2025-06-19,2025-06-02,株式会社ヨシカワ,,株式会社,岡山県,倉敷市,児島赤崎１丁目１８番６号,,33,202,7110931,,,2025-06-02,清算の結了等,,,2015-10-05,1,,,,,ヨシカワ,0
1812,8290001067011,登記記録の閉鎖等,0,2025-06-19,2025-06-10,株式会社ＴＳＩ,,株式会社,福岡県,福岡市中央区,草香江２丁目９番２５－５０３号,,40,133,8100045,,,2025-06-10,清算の結了等,,,2015-10-05,1,,,,,ティーエスアイ,0
1813,8290001070147,登記記録の閉鎖等,0,2025-06-19,2025-06-12,株式会社ヘルサップ,,株式会社,福岡県,福岡市東区,千早５丁目５番４３－６１３号,,40,131,8130044,,,2025-06-12,清算の結了等,,,2015-10-05,1,,,,,ヘルサップ,0
1830,8390005002284,登記記録の閉鎖等,0,2025-06-19,2025-06-09,農事組合法人山口南部農業機械化組合,,その他の設立登記法人,山形県,天童市,大字山口字杉ノ木山５０３１番５,,06,210,9940101,,,2025-06-09,清算の結了等,,,2015-10-05,1,,,,,ヤマグチナンブノウギョウキカイカクミアイ,0
1832,8400502000268,登記記録の閉鎖等,0,2025-06-19,2025-06-04,有限会社啓明商事,,有限会社,岩手県,一関市,地主町１番２４号,,03,209,0210893,,,2025-06-04,清算の結了等,,,2015-10-05,1,,,,,ケイメイショウジ,0
1833,8430001035523,登記記録の閉鎖等,0,2025-06-19,2025-06-12,株式会社ＷＥＢサクセス,,株式会社,北海道,札幌市白石区,菊水二条１丁目４番２７号,,01,104,0030802,,,2025-06-12,清算の結了等,,,2015-10-05,1,,,,,ウエブサクセス,0
1839,8450001012215,登記記録の閉鎖等,0,2025-06-19,2025-06-17,株式会社エグゼ,,株式会社,北海道,旭川市,豊岡四条１丁目１番７号,,01,204,0788234,,,2025-06-17,清算の結了等,,,2017-10-10,1,,,,,エグゼ,0
1841,8450002001027,登記記録の閉鎖等,0,2025-06-19,2025-06-16,有限会社エクスプレツセ,,有限会社,北海道,旭川市,旭岡１丁目１２番地,,01,204,0700822,,,2025-06-16,清算の結了等,,,2015-10-05,1,,,,,エクスプレッセ,0
1847,9010001189237,登記記録の閉鎖等,0,2025-06-19,2025-06-02,Ｃｏｉｎｓｔａｒ株式会社,,株式会社,東京都,中央区,日本橋３丁目９番１号日本橋三丁目スクエア１１階,,13,102,1030027,,,2025-06-02,清算の結了等,,,2018-01-25,1,,,,,コインスター,0
1864,9010601006980,登記記録の閉鎖等,0,2025-06-19,2025-06-13,株式会社渡辺自動車修理工場,,株式会社,東京都,江東区,扇橋３丁目１０番１４号,,13,108,1350011,,,2025-06-13,清算の結了等,,,2015-10-05,1,,,,,,0
1868,9010701031301,登記記録の閉鎖等,0,2025-06-19,2025-06-09,株式会社ＨＵＳＴＬＥ　ＰＲＥＳＳ,,株式会社,東京都,品川区,東五反田５丁目２２番３７号オフィスサークルＮ五反田２Ｆ,,13,109,1410022,,,2025-06-09,清算の結了等,,,2015-10-05,1,,,,,ハッスルプレス,0
1870,9010702000924,登記記録の閉鎖等,0,2025-06-19,2025-06-11,有限会社磯部塗装,,有限会社,東京都,品川区,南品川４丁目５番１８号,,13,109,1400004,,,2025-06-11,清算の結了等,,,2015-10-05,1,,,,,イソベトソウ,0
1871,9010702008991,登記記録の閉鎖等,0,2025-06-19,2025-06-09,有限会社ＷＦＣ,,有限会社,東京都,品川区,小山５丁目２２番３号メルシー小山１０１,,13,109,1420062,,,2025-06-09,清算の結了等,,,2015-10-05,1,,,,,ダブルエフシー,0
1875,9011001096175,登記記録の閉鎖等,0,2025-06-19,2025-05-26,株式会社Ｍｅｍｎｏｎ,,株式会社,東京都,渋谷区,神宮前３丁目２２番３号２階,,13,113,1500001,,,2025-05-26,清算の結了等,,,2015-10-05,1,,,,,メムノン,0
1891,9011101099499,登記記録の閉鎖等,0,2025-06-19,2025-05-29,株式会社Ｌｉａｌ,,株式会社,東京都,新宿区,西新宿７丁目１番７号新宿ダイカンプラザＡ１０１８,,13,104,1600023,,,2025-05-29,清算の結了等,,,2022-07-12,1,,,,,リアル,0
1892,9011101104382,登記記録の閉鎖等,0,2025-06-19,2025-05-30,ＰＲＥＦＬＯＰ株式会社,,株式会社,東京都,新宿区,西新宿６丁目５番１号新宿アイランドタワー２階,,13,104,1600023,,,2025-05-30,清算の結了等,,,2023-10-12,1,,,,,プリフロップ,0
1899,9011502016086,登記記録の閉鎖等,0,2025-06-19,2025-06-16,有限会社さくらクリエイト,,有限会社,東京都,北区,浮間４丁目３０番４号,,13,117,1150051,,,2025-06-16,清算の結了等,,,2015-10-05,1,,,,,サクラクリエイト,0
1901,9011702017280,登記記録の閉鎖等,0,2025-06-19,2025-06-06,有限会社エコ・クリーンサービス,,有限会社,東京都,江戸川区,松島４丁目１５番９号,,13,123,1320031,,,2025-06-06,清算の結了等,,,2015-10-05,1,,,,,エコクリーンサービス,0
1911,9012803003640,登記記録の閉鎖等,0,2025-06-19,2025-06-13,合同会社あかりとかがりとひかり,,合同会社,東京都,日野市,落川３３０番地の２４,,13,212,1910034,,,2025-06-13,清算の結了等,,,2025-02-18,1,,,,,アカリトカガリトヒカリ,0
1925,9030001071153,登記記録の閉鎖等,0,2025-06-19,2025-06-13,株式会社大東運輸,,株式会社,埼玉県,比企郡吉見町,大字松崎１８９番地,,11,347,3550162,,,2025-06-13,清算の結了等,,,2015-10-05,1,,,,,ダイトウウンユ,0
1931,9030002119001,登記記録の閉鎖等,0,2025-06-19,2025-06-16,有限会社オフィス・ヤスダ,,有限会社,埼玉県,深谷市,長在家２２６７番地,,11,218,3691101,,,2025-06-16,合併による解散等,6021001038237,令和７年６月１日神奈川県平塚市桃浜町１７番１号株式会社高浜商事（6021001038237）に合併し解散,2015-10-05,1,,,,,オフィスヤスダ,0
1951,9100002005458,登記記録の閉鎖等,0,2025-06-19,2025-06-17,有限会社山とも庵,,有限会社,長野県,長野市,三輪９丁目４９番２８号,,20,201,3800803,,,2025-06-17,清算の結了等,,,2015-10-05,1,,,,,ヤマトモアン,0
1952,9100002028888,登記記録の閉鎖等,0,2025-06-19,2025-06-13,有限会社ポエム,,有限会社,長野県,諏訪市,大字豊田２１７１番地２,,20,206,3920016,,,2025-06-13,清算の結了等,,,2015-10-05,1,,,,,ポエム,0
1961,9120002027211,登記記録の閉鎖等,0,2025-06-19,2025-06-10,有限会社システム・プラナー,,有限会社,大阪府,大阪市淀川区,西三国１丁目２番３５号,,27,123,5320006,,,2025-06-10,清算の結了等,,,2015-10-05,1,,,,,システムプラナー,0
1965,9120901024671,登記記録の閉鎖等,0,2025-06-19,2025-06-12,千代田工機株式会社,,株式会社,大阪府,豊中市,蛍池西町一丁目１６番１１号,,27,203,5600000,,,2025-06-12,清算の結了等,,,2015-10-05,1,,,,,チヨダコウキ,0
1973,9130001075499,登記記録の閉鎖等,0,2025-06-19,2025-06-13,ＧｒｏｗＨｕｂ　Ｊａｐａｎ　Ｔｅｃｈｎｏｌｏｇｉｅｓ株式会社,,株式会社,京都府,京都市中京区,河原町通夷川上る指物町３２３番地ウッドテック国松４０１,,26,104,6040903,,,2025-06-13,清算の結了等,,,2023-10-25,1,,,,,グロウハブジャパンテクノロジーズ,0
1975,9140001116500,登記記録の閉鎖等,0,2025-06-19,2025-06-13,株式会社ＪＥＸＩＭ,,株式会社,兵庫県,神戸市中央区,浜辺通４丁目１番２３号三宮ベンチャービル８０５号,,28,110,6510083,,,2025-06-13,清算の結了等,,,2020-02-14,1,,,,,ジェクシム,0
1987,9180001123294,登記記録の閉鎖等,0,2025-06-19,2025-06-13,株式会社Ｊ・ＳＯＵＬ,,株式会社,愛知県,名古屋市中区,丸の内３丁目１７番２４号,,23,106,4600002,,,2025-06-13,清算の結了等,,,2016-05-16,1,,,,,ジェイソウル,0
1988,9180001155180,登記記録の閉鎖等,0,2025-06-19,2025-06-12,株式会社トップデリカ,,株式会社,愛知県,江南市,高屋町十六田１５７番地の１,,23,217,4838064,,,2025-06-12,清算の結了等,,,2023-03-07,1,,,,,トップデリカ,0
1997,9200001026370,登記記録の閉鎖等,0,2025-06-19,2025-06-16,株式会社郡上ラボ,,株式会社,岐阜県,郡上市,大和町島５１８４番地１,,21,219,5014610,,,2025-06-16,清算の結了等,,,2015-10-05,1,,,,,グジョウラボ,0
2011,9260001015731,登記記録の閉鎖等,0,2025-06-19,2025-05-20,株式会社クールシステム,,株式会社,岡山県,倉敷市,広江７丁目１１５９番地,,33,202,7128043,,,2025-05-20,清算の結了等,,,2015-10-05,1,,,,,クールシステム,0
2012,9260002026249,登記記録の閉鎖等,0,2025-06-19,2025-06-10,有限会社石田建築,,有限会社,岡山県,浅口郡里庄町,大字新庄グリーンクレスト２６番地の１４,,33,445,7190304,,,2025-06-10,清算の結了等,,,2015-10-05,1,,,,,イシダケンチク,0
2019,9290002035214,登記記録の閉鎖等,0,2025-06-19,2025-06-10,有限会社食歓館,,有限会社,福岡県,宗像市,日の里５丁目４番地２０,,40,220,8113425,,,2025-06-10,清算の結了等,,,2015-10-05,1,,,,,ショクカンカン,0
2020,9290801022032,登記記録の閉鎖等,0,2025-06-19,2025-06-13,株式会社渡邊総合研究所,,株式会社,福岡県,北九州市八幡西区,引野３丁目１８－１８－２０,,40,109,8060067,,,2025-06-13,清算の結了等,,,2015-11-24,1,,,,,ワタナベソウゴウケンキュウショ,0
2041,9430001050166,登記記録の閉鎖等,0,2025-06-19,2025-06-11,株式会社大恵,,株式会社,北海道,小樽市,朝里川温泉２丁目６９２番地,,01,203,0470154,,,2025-06-11,清算の結了等,,,2015-10-05,1,,,,,ダイケイ,0
