sequenceNumber,corporateNumber,process,correct,updateDate,changeDate,name,nameImageId,kind,prefectureName,cityName,streetNumber,addressImageId,prefectureCode,cityCode,postCode,addressOutside,addressOutsideImageId,closeDate,closeCause,successorCorporateNumber,changeCause,assignmentDate,latest,enName,enPrefectureName,enCityName,enAddressOutside,furigana,hihyoji
6,1010001148638,登記記録の閉鎖等,0,2022-03-14,2022-03-11,株式会社メルクール,,株式会社,東京都,品川区,上大崎３丁目１番１号目黒セントラルスクエア１５階,,13,109,1410021,,,2022-03-11,合併による解散等,2010703006092,令和４年３月１１日東京都品川区上大崎三丁目１番１号目黒セントラルスクエア１５階セブンホールディングス合同会社（2010703006092）に合併し解散,2015-10-05,1,,,,,メルクール,0
9,1010001175054,登記記録の閉鎖等,0,2022-03-14,2022-03-08,株式会社サンライフ,,株式会社,東京都,中央区,新川２丁目１３番１１号内田ビル４階,,13,102,1040033,,,2022-03-08,清算の結了等,,,2016-04-20,1,,,,,サンライフ,0
16,1010003032014,登記記録の閉鎖等,0,2022-03-14,2022-03-07,リアルブルーソーラー２合同会社,,合同会社,東京都,港区,虎ノ門３丁目２２番１０－２０１号,,13,103,1050001,,,2022-03-07,清算の結了等,,,2020-04-10,1,,,,,リアルブルーソーラーツー,0
18,1010005023358,登記記録の閉鎖等,0,2022-03-14,2022-03-09,一般社団法人安心生活プロジェクト,,その他の設立登記法人,東京都,中央区,日本橋２丁目３番２１号八重洲セントラルビル７階,,13,102,1030027,,,2022-03-09,清算の結了等,,,2015-10-05,1,,,,,アンシンセイカツプロジェクト,0
31,1010901023221,登記記録の閉鎖等,0,2022-03-14,2022-03-08,株式会社クロスフィルド,,株式会社,東京都,世田谷区,弦巻１丁目１６番１６号,,13,112,1540016,,,2022-03-08,清算の結了等,,,2015-10-05,1,,,,,クロスフィルド,0
43,1011003007996,登記記録の閉鎖等,0,2022-03-14,2022-03-07,アルマ・エントラーダ合同会社,,合同会社,東京都,渋谷区,代官山町２０番９号,,13,113,1500034,,,2022-03-07,清算の結了等,,,2017-08-31,1,,,,,アルマエントラーダ,0
59,1012702008112,登記記録の閉鎖等,0,2022-03-14,2022-03-10,有限会社ベスト企画,,有限会社,東京都,清瀬市,中清戸５丁目２０１番地,,13,221,2040012,,,2022-03-10,清算の結了等,,,2015-10-05,1,,,,,ベストキカク,0
73,1021001041245,登記記録の閉鎖等,0,2022-03-14,2022-03-09,山田工機株式会社,,株式会社,神奈川県,横須賀市,内川１丁目３番２３号,,14,201,2390836,,,2022-03-09,清算の結了等,,,2015-10-05,1,,,,,ヤマダコウキ,0
82,1030001111429,登記記録の閉鎖等,0,2022-03-14,2022-03-01,クリエイティブサポート株式会社,,株式会社,千葉県,柏市,明原４丁目７番６－１０７号,,12,217,2770843,,,2022-03-01,清算の結了等,,,2015-11-18,1,,,,,クリエイティブサポート,0
86,1030002018986,登記記録の閉鎖等,0,2022-03-14,2022-03-10,有限会社ＴＭ建築工房,,有限会社,埼玉県,さいたま市浦和区,高砂１丁目２番１－４０８号,,11,107,3300063,,,2022-03-10,清算の結了等,,,2015-10-05,1,,,,,ティーエムケンチクコウボウ,0
113,1070001033702,登記記録の閉鎖等,0,2022-03-14,2022-03-10,アスライフ株式会社,,株式会社,群馬県,前橋市,朝日が丘町３番地１２,,10,201,3710832,,,2022-03-10,清算の結了等,,,2017-07-06,1,,,,,,0
115,1080102020854,登記記録の閉鎖等,0,2022-03-14,2022-03-10,有限会社安藤泰建築事務所,,有限会社,静岡県,下田市,四丁目６番７号,,22,219,4150024,,,2022-03-10,清算の結了等,,,2015-10-05,1,,,,,アンドウヤスシケンチクジムショ,0
116,1080401000177,登記記録の閉鎖等,0,2022-03-14,2022-03-08,株式会社アスカ工務店,,株式会社,静岡県,浜松市南区,高塚町１０１５番地の１３,,22,134,4328065,,,2022-03-08,清算の結了等,,,2015-10-05,1,,,,,アスカコウムテン,0
123,1110001019473,登記記録の閉鎖等,0,2022-03-14,2022-03-09,株式会社矢沢庄,,株式会社,新潟県,上越市,本町７丁目１番２２号,,15,222,9430832,,,2022-03-09,清算の結了等,,,2015-10-05,1,,,,,ヤザワショウ,0
126,1110002023730,登記記録の閉鎖等,0,2022-03-14,2022-03-10,有限会社渡邊工務店,00070941,有限会社,新潟県,上越市,大字夷浜２８２番地,,15,222,9420025,,,2022-03-10,清算の結了等,,,2015-10-05,1,,,,,ワタナベコウムテン,0
127,1110002034298,登記記録の閉鎖等,0,2022-03-14,2022-03-09,有限会社エス・ピー・シー,,有限会社,新潟県,佐渡市,八幡新町１４番地,,15,224,9521312,,,2022-03-09,清算の結了等,,,2015-10-05,1,,,,,エスピーシー,0
128,1120001039017,登記記録の閉鎖等,0,2022-03-14,2022-03-01,株式会社中央交通トラベルクラブ,,株式会社,大阪府,八尾市,山賀町１丁目４３番地,,27,212,5810812,,,2022-03-01,合併による解散等,6120001099312,令和４年３月１日大阪府八尾市山賀町一丁目４３番地中央交通バス株式会社（6120001099312）に合併し解散,2015-10-05,1,,,,,チュウオウコウツウトラベルクラブ,0
160,1140002004620,登記記録の閉鎖等,0,2022-03-14,2022-03-09,神貴建設有限会社,,有限会社,兵庫県,神戸市西区,伊川谷町有瀬４２番地の１,,28,111,6512113,,,2022-03-09,清算の結了等,,,2015-10-05,1,,,,,シンキケンセツ,0
161,1170001000849,登記記録の閉鎖等,0,2022-03-14,2022-03-10,株式会社北芳,,株式会社,和歌山県,和歌山市,北島１４番地の１３,,30,201,6408403,,,2022-03-10,清算の結了等,,,2015-10-05,1,,,,,キタヨシ,0
171,1180001108187,登記記録の閉鎖等,0,2022-03-14,2022-02-15,株式会社サクシード,,株式会社,愛知県,名古屋市守山区,松坂町２４番地シャルマン松坂２０３号室,,23,113,4630007,,,2022-02-15,清算の結了等,,,2015-10-05,1,,,,,サクシード,0
189,1200005002185,登記記録の閉鎖等,0,2022-03-14,2022-03-11,特定非営利活動法人ジュベントゥーヂフットボールクラブ,,その他の設立登記法人,岐阜県,岐阜市,六条南２丁目２０番地１４,,21,201,5008358,,,2022-03-11,清算の結了等,,,2015-10-05,1,,,,,ジュベントゥーヂフット,0
217,1320005003139,登記記録の閉鎖等,0,2022-03-14,2022-03-11,司法書士法人別府合同事務所,,その他の設立登記法人,大分県,別府市,大字南立石１９２６番地の８４,,44,202,8740000,,,2022-03-11,清算の結了等,,,2015-10-05,1,,,,,ベップゴウドウジムショ,0
232,1370201003474,登記記録の閉鎖等,0,2022-03-14,2022-03-08,株式会社キクチ,,株式会社,宮城県,栗原市,築館字下宮野山畑２７番地,,04,213,9872203,,,2022-03-08,清算の結了等,,,2015-10-05,1,,,,,キクチ,0
262,2010001138729,登記記録の閉鎖等,0,2022-03-14,2022-03-07,株式会社テルマ,,株式会社,東京都,中央区,日本橋大伝馬町１３番８号,,13,102,1030011,,,2022-03-07,清算の結了等,,,2015-10-05,1,,,,,テルマ,0
284,2010403021276,登記記録の閉鎖等,0,2022-03-14,2022-03-07,合同会社中村管財,,合同会社,東京都,港区,新橋６丁目２３番７号,,13,103,1050004,,,2022-03-07,清算の結了等,,,2019-08-16,1,,,,,ナカムラカンザイ,0
286,2010701008990,登記記録の閉鎖等,0,2022-03-14,2022-03-09,株式会社鳳凰堂,,株式会社,東京都,品川区,荏原４丁目３番２号,,13,109,1420063,,,2022-03-09,清算の結了等,,,2015-10-05,1,,,,,,0
313,2011601023312,登記記録の閉鎖等,0,2022-03-14,2022-03-10,株式会社天元,,株式会社,東京都,練馬区,石神井台６丁目１７番７号,,13,120,1770045,,,2022-03-10,清算の結了等,,,2019-05-07,1,,,,,テンゲン,0
317,2011703002858,登記記録の閉鎖等,0,2022-03-14,2022-03-04,合同会社シード,,合同会社,東京都,江戸川区,南葛西３丁目２２番１４－４１７号ジャネットビル,,13,123,1340085,,,2022-03-04,清算の結了等,,,2021-05-19,1,,,,,シード,0
323,2012702013342,登記記録の閉鎖等,0,2022-03-14,2022-03-09,有限会社ＯＫＩ建築工房,,有限会社,東京都,東村山市,富士見町２丁目１５番地６,,13,213,1890024,,,2022-03-09,清算の結了等,,,2015-10-05,1,,,,,オキケンチクコウボウ,0
332,2021002016451,登記記録の閉鎖等,0,2022-03-14,2022-03-09,有限会社エターナルホーム,,有限会社,神奈川県,鎌倉市,寺分２丁目１２番６号,,14,204,2470064,,,2022-03-09,清算の結了等,,,2015-10-05,1,,,,,エターナルホーム,0
335,2030001030999,登記記録の閉鎖等,0,2022-03-14,2022-03-08,株式会社伸栄工業,,株式会社,埼玉県,白岡市,西４丁目８番２,,11,246,3490205,,,2022-03-08,清算の結了等,,,2015-10-05,1,,,,,シンエイコウギョウ,0
336,2030001039867,登記記録の閉鎖等,0,2022-03-14,2022-03-08,株式会社エムアイ工業,,株式会社,埼玉県,草加市,住吉１丁目１１番１３号,,11,221,3400014,,,2022-03-08,清算の結了等,,,2015-10-05,1,,,,,エムアイコウギョウ,0
348,2030002104876,登記記録の閉鎖等,0,2022-03-14,2022-03-09,有限会社タムラ興産,,有限会社,埼玉県,川口市,東川口５丁目７番３０号,,11,203,3330801,,,2022-03-09,清算の結了等,,,2015-10-05,1,,,,,タムラコウサン,0
367,2060001007549,登記記録の閉鎖等,0,2022-03-14,2022-03-08,株式会社ベックス,,株式会社,栃木県,矢板市,片岡８２２番地１,,09,211,3291571,,,2022-03-08,清算の結了等,,,2015-10-05,1,,,,,ベックス,0
385,2110002016691,登記記録の閉鎖等,0,2022-03-14,2022-03-08,有限会社アストン秋田,,有限会社,秋田県,能代市,比八田字十二ケ村１１４番地１,,05,202,0160012,,,2022-03-08,清算の結了等,,,2015-10-05,1,,,,,アストンアキタ,0
386,2110005000057,登記記録の閉鎖等,0,2022-03-14,2022-03-09,一般社団法人新潟県食品産業協会,,その他の設立登記法人,新潟県,新潟市中央区,万代１丁目２番３号コープ野村万代２０５号,,15,103,9500088,,,2022-03-09,清算の結了等,,,2015-10-05,1,,,,,ニイガタケンショクヒンサンギョウキョウカイ,0
420,2130003004339,登記記録の閉鎖等,0,2022-03-14,2022-03-10,合同会社スプラウト,,合同会社,京都府,宇治市,菟道車田４７番地の６２,00103080,26,204,6110000,,,2022-03-10,清算の結了等,,,2015-10-05,1,,,,,,0
421,2140001031598,登記記録の閉鎖等,0,2022-03-14,2022-03-09,ＳＴＹアシスト株式会社,,株式会社,兵庫県,神戸市灘区,五毛通１丁目２番１７号,,28,102,6570814,,,2022-03-09,清算の結了等,,,2015-10-05,1,,,,,エスティーワイアシスト,0
428,2180001067267,登記記録の閉鎖等,0,2022-03-14,2022-03-08,株式会社メイワ,,株式会社,愛知県,日進市,本郷町前田６２１番地,,23,230,4700121,,,2022-03-08,清算の結了等,,,2015-10-05,1,,,,,メイワ,0
465,2290001025321,登記記録の閉鎖等,0,2022-03-14,2022-03-07,サンノー株式会社,,株式会社,福岡県,福岡市博多区,美野島１丁目４番１９号,,40,132,8120017,,,2022-03-07,合併による解散等,1290001014515,令和４年３月１日福岡市中央区那の津三丁目１６番１１号ダンガミ・サンノー株式会社（1290001014515）に合併し解散,2015-10-05,1,,,,,サンノー,0
485,2340001021430,登記記録の閉鎖等,0,2022-03-14,2022-03-01,株式会社ＯＴＣ,,株式会社,鹿児島県,曽於郡大崎町,神領２１５６番地１,,46,468,8997302,,,2022-03-01,清算の結了等,,,2018-08-31,1,,,,,オーティーシー,0
535,3010005009891,登記記録の閉鎖等,0,2022-03-14,2022-03-04,特定非営利活動法人日本インターンシップ推進協会,,その他の設立登記法人,東京都,中央区,築地４丁目４番１４号,,13,102,1040045,,,2022-03-04,清算の結了等,,,2015-10-05,1,,,,,ニホンインターンシップスイシンキョウカイ,0
539,3010401090231,登記記録の閉鎖等,0,2022-03-14,2022-03-07,クロスボーダーメディカルサポート株式会社,,株式会社,東京都,港区,赤坂１丁目１番１７号細川ビル,,13,103,1070052,,,2022-03-07,清算の結了等,,,2015-10-05,1,,,,,クロスボーダーメディカルサポート,0
601,3020002005835,登記記録の閉鎖等,0,2022-03-14,2022-03-10,有限会社共立工業所,,有限会社,神奈川県,横浜市都筑区,東山田３丁目３３番２号,,14,118,2240023,,,2022-03-10,清算の結了等,,,2015-10-05,1,,,,,キョウリツコウギョウショ,0
612,3030001026328,登記記録の閉鎖等,0,2022-03-14,2022-03-07,埼玉特殊硝子株式会社,,株式会社,埼玉県,入間市,扇町屋５丁目３番１５号,,11,225,3580022,,,2022-03-07,清算の結了等,,,2015-10-05,1,,,,,サイタマトクシュガラス,0
618,3030001113638,登記記録の閉鎖等,0,2022-03-14,2022-03-10,株式会社ＴＢＪホールディングス,,株式会社,埼玉県,さいたま市見沼区,東大宮７丁目１番地１３,,11,104,3370051,,,2022-03-10,清算の結了等,,,2016-04-12,1,,,,,ティービージェイホールディングス,0
631,3040003012085,登記記録の閉鎖等,0,2022-03-14,2022-03-07,合同会社ｃｈｅｒｒｙ　ｂｌｏｓｓｏｍ,,合同会社,千葉県,流山市,西初石２丁目３８番地の９,,12,220,2700121,,,2022-03-07,清算の結了等,,,2018-08-29,1,,,,,チェリーブロッサム,0
633,3050001045136,登記記録の閉鎖等,0,2022-03-14,2022-03-07,株式会社備前堀ＬＡＢ,,株式会社,茨城県,水戸市,本町１丁目５番３０号,,08,201,3100815,,,2022-03-07,清算の結了等,,,2018-10-29,1,,,,,ビゼンボリラボ,0
651,3110001018655,登記記録の閉鎖等,0,2022-03-14,2022-03-10,株式会社アルファコスモジャパン,,株式会社,新潟県,新潟市西区,小針台１番１５号,,15,107,9502012,,,2022-03-10,清算の結了等,,,2015-10-05,1,,,,,アルファコスモジャパン,0
652,3110002020065,登記記録の閉鎖等,0,2022-03-14,2022-03-09,有限会社山本精工,,有限会社,新潟県,燕市,殿島１丁目７番１８号,,15,213,9591233,,,2022-03-09,清算の結了等,,,2015-10-05,1,,,,,ヤマモトセイコウ,0
684,3140005022246,登記記録の閉鎖等,0,2022-03-14,2022-03-08,特定非営利活動法人民と倶楽部,,その他の設立登記法人,兵庫県,神戸市垂水区,美山台３丁目７番１０号,,28,108,6550874,,,2022-03-08,清算の結了等,,,2015-10-05,1,,,,,ミントクラブ,0
688,3180001011884,登記記録の閉鎖等,0,2022-03-14,2022-03-10,株式会社河内屋,,株式会社,愛知県,名古屋市北区,大曽根２丁目３番７号,,23,103,4620825,,,2022-03-10,清算の結了等,,,2015-10-05,1,,,,,カワチヤ,0
689,3180001021842,登記記録の閉鎖等,0,2022-03-14,2022-03-10,株式会社コバファーム,,株式会社,愛知県,名古屋市熱田区,川並町２番２２号,,23,109,4560072,,,2022-03-10,清算の結了等,,,2015-10-05,1,,,,,コバファーム,0
704,3190001000779,登記記録の閉鎖等,0,2022-03-14,2022-03-11,株式会社南勢技建,,株式会社,三重県,津市,上浜町４丁目１１番地,,24,201,5140008,,,2022-03-11,清算の結了等,,,2015-10-05,1,,,,,ナンセイギケン,0
721,3250002006141,登記記録の閉鎖等,0,2022-03-14,2022-03-10,有限会社進栄工業,,有限会社,山口県,山陽小野田市,大字小野田４６３４番地の４,,35,216,7560817,,,2022-03-10,清算の結了等,,,2015-10-05,1,,,,,シンエイコウギョウ,0
739,3290005010285,登記記録の閉鎖等,0,2022-03-14,2022-03-07,特定非営利活動法人たくみの会,,その他の設立登記法人,福岡県,久留米市,長門石１丁目１番３４号,,40,203,8300027,,,2022-03-07,清算の結了等,,,2015-10-05,1,,,,,タクミノカイ,0
769,3390005002784,登記記録の閉鎖等,0,2022-03-14,2022-03-10,一般財団法人国際交流促進協会,,その他の設立登記法人,山形県,上山市,金瓶字湯尻１９－１４,,06,207,9993101,,,2022-03-10,清算の結了等,,,2015-10-05,1,,,,,コクサイコウリュウソクシンキョウカイ,0
775,3440002009678,登記記録の閉鎖等,0,2022-03-14,2022-03-10,有限会社杉野塗装店,,有限会社,北海道,檜山郡江差町,字豊川町２３４番地の１,,01,361,0430033,,,2022-03-10,清算の結了等,,,2015-10-05,1,,,,,スギノトソウテン,0
789,4010001190224,登記記録の閉鎖等,0,2022-03-14,2022-03-07,Ｐｕｐｐｅｔ株式会社,,株式会社,東京都,渋谷区,桜丘町２６番１,,13,113,1500031,,,2022-03-07,清算の結了等,,,2018-03-09,1,,,,,パペット,0
798,4010005031663,登記記録の閉鎖等,0,2022-03-14,2022-03-07,リアルブルーホールディングス２一般社団法人,,その他の設立登記法人,東京都,港区,虎ノ門３丁目２２番１０－２０１号,,13,103,1050001,,,2022-03-07,清算の結了等,,,2020-04-07,1,,,,,リアルブルーホールディングスツー,0
801,4010102007657,登記記録の閉鎖等,0,2022-03-14,2022-02-28,有限会社パーブニール,,有限会社,東京都,八王子市,子安町１丁目２９番８号ひまわりビル１階,,13,201,1920904,,,2022-02-28,清算の結了等,,,2015-10-05,1,,,,,パーブニール,0
831,4011001028521,登記記録の閉鎖等,0,2022-03-14,2022-03-07,株式会社シルバーグリーン,,株式会社,東京都,渋谷区,広尾４丁目１番９－４０７号,,13,113,1500012,,,2022-03-07,清算の結了等,,,2015-10-05,1,,,,,シルバーグリーン,0
841,4011005006507,登記記録の閉鎖等,0,2022-03-14,2022-03-07,特定非営利活動法人成年後見きせき,,その他の設立登記法人,東京都,豊島区,東池袋１丁目３６番３－１０１０号,,13,116,1700013,,,2022-03-07,清算の結了等,,,2015-10-05,1,,,,,セイネンコウケンキセキ,0
855,4011802015354,登記記録の閉鎖等,0,2022-03-14,2022-03-09,竹の塚ホーム有限会社,00057439,有限会社,東京都,足立区,竹の塚２丁目１０番３号,,13,121,1210813,,,2022-03-09,清算の結了等,,,2015-10-05,1,,,,,タケノツカホーム,0
856,4012401032765,登記記録の閉鎖等,0,2022-03-14,2022-03-10,株式会社ＴＮＰ,,株式会社,東京都,三鷹市,上連雀１丁目１２番１７号,,13,204,1810012,,,2022-03-10,合併による解散等,8010601005133,令和４年３月１日東京都港区台場二丁目３番５号株式会社ノムラアークス（8010601005133）に合併し解散,2017-05-19,1,,,,,ティーエヌピー,0
868,4013303004745,登記記録の閉鎖等,0,2022-03-14,2022-03-07,アロジーキャピタル合同会社,,合同会社,東京都,豊島区,池袋３丁目５２番１７－４０３号,,13,116,1710014,,,2022-03-07,清算の結了等,,,2019-07-23,1,,,,,アロジーキャピタル,0
883,4030001089530,登記記録の閉鎖等,0,2022-03-14,2022-03-09,株式会社発研,,株式会社,埼玉県,飯能市,大字赤沢５５３番地３,,11,209,3570128,,,2022-03-09,清算の結了等,,,2015-10-05,1,,,,,ハッケン,0
897,4030002007474,登記記録の閉鎖等,0,2022-03-14,2022-03-10,有限会社鈴木工業,,有限会社,埼玉県,さいたま市見沼区,東大宮５丁目５０番地の３０,,11,104,3370051,,,2022-03-10,清算の結了等,,,2015-10-05,1,,,,,スズキコウギョウ,0
907,4040001097177,登記記録の閉鎖等,0,2022-03-14,2022-03-07,株式会社今城,,株式会社,千葉県,千葉市若葉区,中田町２３５７番地１０６,,12,104,2650043,,,2022-03-07,清算の結了等,,,2016-10-04,1,,,,,イマジョウ,0
937,4120001015956,登記記録の閉鎖等,0,2022-03-14,2022-03-01,株式会社放出大洋,,株式会社,大阪府,大阪市城東区,諏訪１丁目１７番４号,,27,118,5360021,,,2022-03-01,合併による解散等,5120001025269,令和４年３月１日大阪市平野区長吉長原四丁目１８番１０号株式会社リッチフィールド（5120001025269）に合併し解散,2015-10-05,1,,,,,ハナテンタイヨウ,0
938,4120001040649,登記記録の閉鎖等,0,2022-03-14,2022-03-01,日本ネオプラン株式会社,,株式会社,大阪府,八尾市,山賀町１丁目４３番地,,27,212,5810812,,,2022-03-01,合併による解散等,6120001099312,令和４年３月１日大阪府八尾市山賀町一丁目４３番地中央交通バス株式会社（6120001099312）に合併し解散,2015-10-05,1,,,,,ニホンネオプラン,0
940,4120001160455,登記記録の閉鎖等,0,2022-03-14,2022-03-07,株式会社鳶辰,,株式会社,大阪府,寝屋川市,河北西町２６番４号,,27,215,5720817,,,2022-03-07,清算の結了等,,,2015-10-05,1,,,,,,0
948,4120101036497,登記記録の閉鎖等,0,2022-03-14,2022-03-09,岸田鋳工株式会社,,株式会社,大阪府,岸和田市,上町３４番１５号,,27,202,5960077,,,2022-03-09,清算の結了等,,,2015-10-05,1,,,,,キシダチュウコウ,0
994,4250002015364,登記記録の閉鎖等,0,2022-03-14,2022-03-10,有限会社水井商事,,有限会社,山口県,周南市,大字四熊２９４番地,,35,215,7460081,,,2022-03-10,清算の結了等,,,2015-10-05,1,,,,,ミズイショウジ,0
998,4260002027160,登記記録の閉鎖等,0,2022-03-14,2022-03-02,有限会社大塚,,有限会社,岡山県,新見市,足見６６番地,,33,210,7192642,,,2022-03-02,合併による解散等,3260001019135,令和４年３月１日岡山県新見市足見６６番地株式会社ふじた（3260001019135）に合併し解散,2015-10-05,1,,,,,フジタ,0
1003,4290001043602,登記記録の閉鎖等,0,2022-03-14,2022-03-01,株式会社ドゥーウェル,,株式会社,福岡県,福岡市中央区,唐人町１丁目５番５号,,40,133,8100063,,,2022-03-01,合併による解散等,5290002054309,令和４年３月１日福岡県大川市大字下林６６２番地の３株式会社サンクリエイト（5290002054309）に合併し解散,2015-10-05,1,,,,,ドゥーウェル,0
1012,4310001012471,登記記録の閉鎖等,0,2022-03-14,2022-03-11,植柾園株式会社,,株式会社,長崎県,長崎市,松原町１１５番地,,42,201,8510131,,,2022-03-11,清算の結了等,,,2015-10-05,1,,,,,ショクセイエン,0
1015,4310005007591,登記記録の閉鎖等,0,2022-03-14,2022-03-11,特定非営利活動法人相談室ほっとルーム,,その他の設立登記法人,長崎県,長崎市,昭和２丁目２１番５号３０２,,42,201,8528145,,,2022-03-11,清算の結了等,,,2015-10-05,1,,,,,ソウダンシツホットルーム,0
1033,4370001040987,登記記録の閉鎖等,0,2022-03-14,2022-03-07,株式会社加藤工建,,株式会社,宮城県,柴田郡柴田町,槻木西１丁目５番６４号,,04,323,9891755,,,2022-03-07,清算の結了等,,,2017-02-21,1,,,,,,0
1049,4430002034271,登記記録の閉鎖等,0,2022-03-14,2022-03-08,有限会社エスダブル,,有限会社,北海道,札幌市中央区,大通西１丁目１４－２,,01,101,0600042,,,2022-03-08,清算の結了等,,,2015-10-05,1,,,,,エスダブル,0
1065,5010001025635,登記記録の閉鎖等,0,2022-03-14,2022-03-09,日東物産株式会社,,株式会社,東京都,千代田区,九段北１丁目３番２号,,13,101,1020073,,,2022-03-09,清算の結了等,,,2015-10-05,1,,,,,ニットウブッサン,0
1088,5010401101721,登記記録の閉鎖等,0,2022-03-14,2022-03-07,ベストコーポレーション株式会社,,株式会社,東京都,港区,白金台３丁目４番２３号,,13,103,1080071,,,2022-03-07,清算の結了等,,,2015-10-05,1,,,,,ベストコーポレーション,0
1100,5010702008327,登記記録の閉鎖等,0,2022-03-14,2022-03-09,有限会社望月設備,,有限会社,東京都,品川区,戸越２丁目７番１０号,,13,109,1420041,,,2022-03-09,清算の結了等,,,2015-10-05,1,,,,,モチヅキセツビ,0
1102,5010802008788,登記記録の閉鎖等,0,2022-03-14,2022-03-08,有限会社高野技研,,有限会社,東京都,大田区,東糀谷３丁目１４番１８号,,13,111,1440033,,,2022-03-08,清算の結了等,,,2015-10-05,1,,,,,タカノギケン,0
1107,5011001091824,登記記録の閉鎖等,0,2022-03-14,2022-03-03,株式会社ＤＯＵＧＨＮＵＴ　ＰＬＡＮＴ　ＴＯＫＹＯ,,株式会社,東京都,目黒区,青葉台３丁目１番１９号,,13,110,1530042,,,2022-03-03,清算の結了等,,,2015-10-05,1,,,,,ドーナッツプラントトウキョウ,0
1122,5012801002862,登記記録の閉鎖等,0,2022-03-14,2022-03-09,株式会社サカエ工芸,,株式会社,東京都,武蔵村山市,残堀１丁目８３番地の１,,13,223,2080034,,,2022-03-09,清算の結了等,,,2015-10-05,1,,,,,サカエコウゲイ,0
1140,5020001084812,登記記録の閉鎖等,0,2022-03-14,2022-03-09,株式会社ネオメディックス,,株式会社,神奈川県,横浜市都筑区,中川中央１丁目２１番１６－８０２号,,14,118,2240003,,,2022-03-09,合併による解散等,1430001027031,令和４年３月１日札幌市白石区菊水七条二丁目７番１号株式会社ネオメディックス（1430001027031）に合併し解散,2015-10-05,1,,,,,ネオメディックス,0
1141,5020001132356,登記記録の閉鎖等,0,2022-03-14,2022-02-22,株式会社ＳＴＲＥＡＭＩＮＧ,,株式会社,東京都,渋谷区,道玄坂２丁目１０番１２号新大宗ビル３号館５３１号,,13,113,1500043,,,2022-02-22,清算の結了等,,,2019-08-09,1,,,,,ストリーミング,0
1170,5040002065900,登記記録の閉鎖等,0,2022-03-14,2022-03-07,有限会社青木屋商店,,有限会社,千葉県,木更津市,中央２丁目５番１１号,,12,206,2920067,,,2022-03-07,清算の結了等,,,2015-10-05,1,,,,,アオキヤショウテン,0
1177,5050002035092,登記記録の閉鎖等,0,2022-03-14,2022-03-09,有限会社シイナ,,有限会社,茨城県,常陸太田市,山下町１１８５番地の１,,08,212,3130013,,,2022-03-09,清算の結了等,,,2015-10-05,1,,,,,シイナ,0
1198,5120001175270,登記記録の閉鎖等,0,2022-03-14,2022-03-08,スパイラルスター株式会社,,株式会社,大阪府,枚方市,岡本町２番２２号,,27,210,5730031,,,2022-03-08,合併による解散等,3120001163483,令和４年３月１日東京都渋谷区恵比寿西二丁目１９番９号株式会社ソウ・ツー・プラス（3120001163483）に合併し解散,2015-10-05,1,,,,,,0
1203,5120002049580,登記記録の閉鎖等,0,2022-03-14,2022-03-07,有限会社米原建設,,有限会社,大阪府,大阪市港区,市岡元町３丁目８番１１号,,27,107,5520002,,,2022-03-07,清算の結了等,,,2015-10-05,1,,,,,,0
1204,5120002050786,登記記録の閉鎖等,0,2022-03-14,2022-03-08,有限会社ファベル,,有限会社,大阪府,大阪市中央区,常盤町１丁目４番９号,,27,128,5400028,,,2022-03-08,清算の結了等,,,2015-10-05,1,,,,,ファベル,0
1232,5180001047308,登記記録の閉鎖等,0,2022-03-14,2022-03-04,株式会社三恵エンジニアリング,,株式会社,愛知県,名古屋市名東区,本郷２丁目１４１番地,,23,115,4650024,,,2022-03-04,清算の結了等,,,2015-10-05,1,,,,,サンケイエンジニアリング,0
1236,5180301018710,登記記録の閉鎖等,0,2022-03-14,2022-03-10,テーエス工業株式会社,,株式会社,愛知県,豊田市,野見山町２丁目３３番地３５,,23,211,4710813,,,2022-03-10,清算の結了等,,,2015-10-05,1,,,,,テーエスコウギョウ,0
1238,5180301021565,登記記録の閉鎖等,0,2022-03-14,2022-03-11,サントリオン株式会社,,株式会社,愛知県,みよし市,黒笹いずみ２丁目１７番地１２,,23,236,4700232,,,2022-03-11,清算の結了等,,,2015-10-05,1,,,,,サントリオン,0
1244,5200003004997,登記記録の閉鎖等,0,2022-03-14,2022-03-09,合同会社カズココンサルティング,,合同会社,岐阜県,岐阜市,中鶉５丁目６８番地ハッピーハイツ１号室,,21,201,5008288,,,2022-03-09,清算の結了等,,,2020-11-10,1,,,,,カズココンサルティング,0
1245,5210002012942,登記記録の閉鎖等,0,2022-03-14,2022-03-10,有限会社ケーツー,,有限会社,福井県,大野市,鍬掛第１１号２３番地１,,18,205,9120071,,,2022-03-10,清算の結了等,,,2015-10-05,1,,,,,ケーツー,0
1267,5290002012175,登記記録の閉鎖等,0,2022-03-14,2022-03-09,有限会社日本コスモパワー,,有限会社,福岡県,福岡市中央区,赤坂１丁目６番２２号,,40,133,8100042,,,2022-03-09,清算の結了等,,,2015-10-05,1,,,,,ニホンコスモパワー,0
1273,5330001014218,登記記録の閉鎖等,0,2022-03-14,2022-03-09,株式会社リュウショウ,,株式会社,熊本県,葦北郡芦北町,大字女島２２４０番地１１,,43,482,8695564,,,2022-03-09,清算の結了等,,,2015-10-05,1,,,,,リュウショウ,0
1278,5350001013465,登記記録の閉鎖等,0,2022-03-14,2022-03-10,株式会社オフィスＫ,,株式会社,宮崎県,宮崎市,大字島之内６３番地８フレグランスタウン住吉５番館１０１号,,45,201,8800121,,,2022-03-10,清算の結了等,,,2015-10-05,1,,,,,,0
1306,5470001014179,登記記録の閉鎖等,0,2022-03-14,2022-03-10,株式会社南原,,株式会社,香川県,高松市,牟礼町大町５００番地２１,,37,201,7610122,,,2022-03-10,清算の結了等,,,2015-10-05,1,,,,,ナンバラ,0
1331,6010003020187,登記記録の閉鎖等,0,2022-03-14,2022-03-07,ＡＳＭ２合同会社,,合同会社,東京都,中央区,日本橋１丁目４番１号日本橋一丁目ビルディング,,13,102,1030027,,,2022-03-07,清算の結了等,,,2015-10-05,1,,,,,エイエスエムツー,0
1340,6010005030317,登記記録の閉鎖等,0,2022-03-14,2022-03-08,一般社団法人クラレスコ,,その他の設立登記法人,東京都,中央区,日本橋人形町２丁目２４番４号,,13,102,1030013,,,2022-03-08,清算の結了等,,,2019-06-13,1,,,,,クラレスコ,0
1350,6010502001150,登記記録の閉鎖等,0,2022-03-14,2022-03-10,有限会社井口米穀店,,有限会社,東京都,台東区,千束３丁目３３番８号,,13,106,1110031,,,2022-03-10,清算の結了等,,,2015-10-05,1,,,,,イグチベイコクテン,0
1371,6011101094858,登記記録の閉鎖等,0,2022-03-14,2022-03-02,株式会社ドン,,株式会社,東京都,豊島区,西巣鴨２丁目５番１７号,,13,116,1700001,,,2022-03-02,清算の結了等,,,2021-04-22,1,,,,,ドン,0
1380,6011701021451,登記記録の閉鎖等,0,2022-03-14,2022-03-11,株式会社貽旺商事,,株式会社,東京都,葛飾区,奥戸６丁目２６－６,,13,122,1240022,,,2022-03-11,清算の結了等,,,2018-01-11,1,,,,,イーオウショウジ,0
1383,6011802029377,登記記録の閉鎖等,0,2022-03-14,2022-03-11,有限会社システムオート,,有限会社,東京都,足立区,西綾瀬２丁目１５－９,,13,121,1200014,,,2022-03-11,清算の結了等,,,2015-10-05,1,,,,,システムオート,0
1384,6012401013961,登記記録の閉鎖等,0,2022-03-14,2022-03-07,株式会社アートシステムズ,,株式会社,東京都,武蔵野市,吉祥寺東町３丁目２９番３号,,13,203,1800002,,,2022-03-07,清算の結了等,,,2015-10-05,1,,,,,,0
1389,6013103000851,登記記録の閉鎖等,0,2022-03-14,2021-12-24,合同会社Ｏｃｔｏｂｅｒ,,合同会社,東京都,青梅市,勝沼２丁目２１１番地,,13,205,1980041,,,2021-12-24,清算の結了等,,,2018-10-31,1,,,,,オクトーバー,0
1395,6020003018957,登記記録の閉鎖等,0,2022-03-14,2022-03-09,合同会社ａｒｃ,,合同会社,神奈川県,川崎市多摩区,生田７丁目２番３号,,14,135,2140038,,,2022-03-09,清算の結了等,,,2020-12-17,1,,,,,アーク,0
1413,6040001023882,登記記録の閉鎖等,0,2022-03-14,2022-03-07,日昭機材工業株式会社,,株式会社,埼玉県,越谷市,大字大房７１０番地６,,11,222,3430027,,,2022-03-07,清算の結了等,,,2015-10-05,1,,,,,ニッショウキザイコウギョウ,0
1421,6040002045819,登記記録の閉鎖等,0,2022-03-14,2022-03-10,小宮商事株式会社,,株式会社,埼玉県,八潮市,大字南後谷１５９番地１,,11,234,3400831,,,2022-03-10,清算の結了等,,,2015-10-05,1,,,,,コミヤショウジ,0
1425,6050001004618,登記記録の閉鎖等,0,2022-03-14,2022-03-07,株式会社フラップ,,株式会社,茨城県,那珂市,菅谷字鍬柄３７３３番地の２,,08,226,3110105,,,2022-03-07,清算の結了等,,,2015-10-05,1,,,,,フラップ,0
1435,6060003001876,登記記録の閉鎖等,0,2022-03-14,2022-03-04,合同会社ディライトカンパニー,,合同会社,栃木県,小山市,西城南１丁目１２番地２９ハイツプレーヌＢ棟１０２号,,09,208,3230820,,,2022-03-04,清算の結了等,,,2015-10-05,1,,,,,ディライトカンパニー,0
1472,6130001021489,登記記録の閉鎖等,0,2022-03-14,2022-03-09,株式会社高橋徳,00035803,株式会社,京都府,京都市北区,小山下内河原町８８番地ルミエール北大路３０２号室,,26,101,6038132,,,2022-03-09,清算の結了等,,,2015-10-05,1,,,,,タカハシトク,0
1494,6180001101798,登記記録の閉鎖等,0,2022-03-14,2022-03-09,株式会社Ｗｉｎ　Ｊｏｂ,,株式会社,東京都,中央区,晴海１丁目８番８号,,13,102,1040053,,,2022-03-09,清算の結了等,,,2015-10-05,1,,,,,,0
1495,6180001138849,登記記録の閉鎖等,0,2022-03-14,2022-03-09,株式会社４ＵＬ,,株式会社,愛知県,名古屋市千種区,今池１丁目６番４号,,23,101,4640850,,,2022-03-09,清算の結了等,,,2019-11-12,1,,,,,フォーウル,0
1498,6180002026573,登記記録の閉鎖等,0,2022-03-14,2022-03-10,有限会社松屋コーヒー店,,有限会社,愛知県,名古屋市緑区,鳴海町字宿地７６番地の２,,23,114,4580801,,,2022-03-10,清算の結了等,,,2015-10-05,1,,,,,マツヤコーヒーテン,0
1514,6290001017505,登記記録の閉鎖等,0,2022-03-14,2022-03-09,株式会社レジャープラン,,株式会社,福岡県,福岡市中央区,天神１丁目１番１号,,40,133,8100001,,,2022-03-09,清算の結了等,,,2015-10-05,1,,,,,レジャープラン,0
1544,6380003001068,登記記録の閉鎖等,0,2022-03-14,2022-03-09,合資会社近藤繁治商店,,合資会社,福島県,いわき市,平字南町６番地,,07,204,9708026,,,2022-03-09,清算の結了等,,,2015-10-05,1,,,,,,0
1547,6380005012237,登記記録の閉鎖等,0,2022-03-14,2022-03-09,一般社団法人相馬ガスホールディングス,,その他の設立登記法人,福島県,南相馬市,原町区青葉町２丁目３番地相馬ガスホールディングス株式会社内,,07,212,9750039,,,2022-03-09,清算の結了等,,,2019-11-18,1,,,,,ソウマガスホールディングス,0
1563,6500001009620,登記記録の閉鎖等,0,2022-03-14,2022-03-10,株式会社伊藤鉄工所,,株式会社,愛媛県,新居浜市,垣生２丁目５番２２号,,38,205,7920872,,,2022-03-10,清算の結了等,,,2015-10-05,1,,,,,,0
1572,7010001151009,登記記録の閉鎖等,0,2022-03-14,2022-03-08,株式会社ショッパーズアイ,,株式会社,東京都,新宿区,西新宿３丁目２０番２号,,13,104,1600023,,,2022-03-08,合併による解散等,9010001086351,令和４年３月１日東京都新宿区西新宿三丁目２０番２号株式会社クロス・マーケティング（9010001086351）に合併し解散,2015-10-05,1,,,,,ショッパーズアイ,0
1592,7010403000432,登記記録の閉鎖等,0,2022-03-14,2022-03-07,合資会社内田商店,,合資会社,東京都,港区,南麻布２丁目７番２８号,,13,103,1060047,,,2022-03-07,清算の結了等,,,2015-10-05,1,,,,,ウチダショウテン,0
1593,7010403012097,登記記録の閉鎖等,0,2022-03-14,2022-03-07,御殿山ハウス合同会社,,合同会社,東京都,港区,浜松町２丁目３番１号,,13,103,1050013,,,2022-03-07,清算の結了等,,,2015-10-05,1,,,,,ゴテンヤマハウス,0
1648,7020002046306,登記記録の閉鎖等,0,2022-03-14,2022-03-10,有限会社山平建築設計事務所,,有限会社,神奈川県,横浜市栄区,中野町２７番地,,14,115,2470015,,,2022-03-10,清算の結了等,,,2015-10-05,1,,,,,ヤマヒラケンチクセッケイジムショ,0
1657,7030001066782,登記記録の閉鎖等,0,2022-03-14,2022-03-07,株式会社タガイ測量設計,,株式会社,埼玉県,吉川市,吉川１丁目３０番地２１,,11,243,3420055,,,2022-03-07,清算の結了等,,,2015-10-05,1,,,,,タガイソクリョウセッケイ,0
1658,7030001082788,登記記録の閉鎖等,0,2022-03-14,2022-03-09,株式会社ＭＡＸ,,株式会社,埼玉県,川口市,江戸袋１丁目４－１１,,11,203,3340075,,,2022-03-09,清算の結了等,,,2015-10-05,1,,,,,マックス,0
1664,7030002058820,登記記録の閉鎖等,0,2022-03-14,2022-03-09,株式会社創美,,株式会社,埼玉県,戸田市,美女木５丁目２１番１０号,,11,224,3350031,,,2022-03-09,清算の結了等,,,2015-10-05,1,,,,,,0
1668,7040001045455,登記記録の閉鎖等,0,2022-03-14,2022-03-07,株式会社ＨＯＰＥ,,株式会社,千葉県,印西市,草深１２４０番地２,,12,231,2701337,,,2022-03-07,清算の結了等,,,2015-10-05,1,,,,,ホープ,0
1674,7050001027881,登記記録の閉鎖等,0,2022-03-14,2022-03-08,株式会社菊池工業,,株式会社,茨城県,取手市,宮和田２２６番地の２,,08,217,3001514,,,2022-03-08,清算の結了等,,,2015-10-05,1,,,,,キクチコウギョウ,0
1679,7050002000516,登記記録の閉鎖等,0,2022-03-14,2022-03-09,有限会社エコー光学製作所,,有限会社,茨城県,水戸市,平須町１９５４番地の４,,08,201,3100853,,,2022-03-09,清算の結了等,,,2015-10-05,1,,,,,,0
1683,7080002003152,登記記録の閉鎖等,0,2022-03-14,2022-03-11,有限会社静岡紙販,,有限会社,静岡県,静岡市葵区,桜町１丁目８番９号,,22,101,4200945,,,2022-03-11,清算の結了等,,,2015-10-05,1,,,,,,0
1684,7080101011023,登記記録の閉鎖等,0,2022-03-14,2022-02-25,東海臨港株式会社,,株式会社,静岡県,富士市,厚原１９７９番地の４,,22,210,4190201,,,2022-02-25,清算の結了等,,,2015-10-05,1,,,,,トウカイリンコウ,0
1690,7110002016943,登記記録の閉鎖等,0,2022-03-14,2022-03-10,有限会社インテリア飛鳥,,有限会社,新潟県,三条市,下保内２８３番地１,,15,204,9550021,,,2022-03-10,清算の結了等,,,2015-10-05,1,,,,,,0
1691,7120001084148,登記記録の閉鎖等,0,2022-03-14,2022-03-09,田中金物株式会社,,株式会社,大阪府,大阪市中央区,平野町４丁目３番７号,,27,128,5410046,,,2022-03-09,清算の結了等,,,2015-10-05,1,,,,,タナカカナモノ,0
1699,7120001213994,登記記録の閉鎖等,0,2022-03-14,2022-03-02,三石株式会社,,株式会社,大阪府,大阪市北区,堂山町１番５号三共梅田ビル６Ｆ,,27,127,5300027,,,2022-03-02,清算の結了等,,,2018-06-20,1,,,,,ミセキ,0
1706,7120101045537,登記記録の閉鎖等,0,2022-03-14,2022-03-08,株式会社光富,,株式会社,大阪府,泉佐野市,鶴原１４８３番地の１,,27,213,5980071,,,2022-03-08,清算の結了等,,,2015-10-05,1,,,,,ミツトミ,0
1715,7122001020818,登記記録の閉鎖等,0,2022-03-14,2022-03-09,大橋商事株式会社,,株式会社,大阪府,柏原市,法善寺３丁目５５６番地,,27,221,5820005,,,2022-03-09,清算の結了等,,,2015-10-05,1,,,,,,0
1729,7140001091745,登記記録の閉鎖等,0,2022-03-14,2022-03-09,株式会社フィールドアップ,,株式会社,兵庫県,加古川市,加古川町河原４４４番地の５７,,28,210,6750067,,,2022-03-09,清算の結了等,,,2015-10-05,1,,,,,フィールドアップ,0
1736,7170001010173,登記記録の閉鎖等,0,2022-03-14,2022-03-10,株式会社丸福,,株式会社,和歌山県,御坊市,湯川町財部７０６番地の１２,,30,205,6440011,,,2022-03-10,清算の結了等,,,2015-10-05,1,,,,,マルフク,0
1744,7180002047949,登記記録の閉鎖等,0,2022-03-14,2022-03-04,有限会社お弁当のいずみ,,有限会社,愛知県,名古屋市天白区,中平１丁目１５０８番地,,23,116,4680014,,,2022-03-04,清算の結了等,,,2015-10-05,1,,,,,オベントウノイズミ,0
1752,7200002002835,登記記録の閉鎖等,0,2022-03-14,2022-03-10,有限会社高橋開発,00076833,有限会社,岐阜県,岐阜市,葭町３丁目１５番地,,21,201,5008334,,,2022-03-10,清算の結了等,,,2015-10-05,1,,,,,タカハシカイハツ,0
1753,7200003005003,登記記録の閉鎖等,0,2022-03-14,2022-03-09,合同会社ＡＳＭシステム,,合同会社,岐阜県,岐阜市,中鶉５丁目６８番地ハッピーハイツ４号室,,21,201,5008288,,,2022-03-09,清算の結了等,,,2020-11-13,1,,,,,エイエスエムシステム,0
1759,7240001028472,登記記録の閉鎖等,0,2022-03-14,2022-03-10,株式会社たかまガス,,株式会社,広島県,大竹市,港町１丁目１番３５号,,34,211,7390621,,,2022-03-10,清算の結了等,,,2015-10-05,1,,,,,タカマガス,0
1796,7370001024194,登記記録の閉鎖等,0,2022-03-14,2022-03-09,株式会社日翔創建,,株式会社,宮城県,仙台市宮城野区,萩野町３丁目８番１９京急仙台プラザ１Ｆ,,04,102,9830043,,,2022-03-09,清算の結了等,,,2015-10-05,1,,,,,ニッショウソウケン,0
1802,7430001065538,登記記録の閉鎖等,0,2022-03-14,2022-03-08,株式会社ジャパンテクニカルケア,,株式会社,北海道,札幌市北区,屯田六条７丁目２番４号,,01,102,0020856,,,2022-03-08,清算の結了等,,,2015-10-05,1,,,,,ジャパンテクニカルケア,0
1816,8010001009395,登記記録の閉鎖等,0,2022-03-14,2022-03-08,株式会社アイ・シー・シー,,株式会社,東京都,千代田区,永田町２丁目１４番２号,,13,101,1000014,,,2022-03-08,清算の結了等,,,2015-10-05,1,,,,,アイシーシー,0
1819,8010001129565,登記記録の閉鎖等,0,2022-03-14,2022-03-09,株式会社ＢＯＲＤＥＲＬＥＳＳ　ＰＲＯＪＥＣＴ,,株式会社,東京都,文京区,音羽２丁目１１番１９号オトワＫＳビル２階,,13,105,1120013,,,2022-03-09,清算の結了等,,,2015-10-05,1,,,,,ボーダレスプロジェクト,0
1830,8010003033138,登記記録の閉鎖等,0,2022-03-14,2022-03-09,合同会社パンプ,,合同会社,東京都,中央区,銀座８丁目１９番３号,,13,102,1040061,,,2022-03-09,清算の結了等,,,2020-09-30,1,,,,,パンプ,0
1844,8010501009259,登記記録の閉鎖等,0,2022-03-14,2022-03-11,東京フアイン株式会社,,株式会社,東京都,台東区,台東１丁目１２番６号,,13,106,1100016,,,2022-03-11,清算の結了等,,,2015-10-05,1,,,,,,0
1851,8010902001789,登記記録の閉鎖等,0,2022-03-14,2022-03-07,有限会社イムペツクス・インターナシヨナル,,有限会社,東京都,世田谷区,太子堂５丁目２９番１６号フアミール太子堂３０２号,,13,112,1540004,,,2022-03-07,清算の結了等,,,2015-10-05,1,,,,,,0
1858,8011001130802,登記記録の閉鎖等,0,2022-03-14,2022-02-25,株式会社ＥｘａＰｒｏｏｆ,,株式会社,東京都,渋谷区,渋谷２丁目１４番６号西田ビル５Ｆ,,13,113,1500002,,,2022-02-25,清算の結了等,,,2019-11-20,1,,,,,エクサプルーフ,0
1900,8021001014401,登記記録の閉鎖等,0,2022-03-14,2022-03-10,渡邊硝子株式会社,,株式会社,神奈川県,相模原市南区,大野台１丁目８番３８号,,14,153,2520331,,,2022-03-10,清算の結了等,,,2015-10-05,1,,,,,ワタナベガラス,0
1907,8030001101794,登記記録の閉鎖等,0,2022-03-14,2022-03-07,株式会社読売ニュースキャリア柳瀬川,,株式会社,埼玉県,新座市,新座２丁目３番６号,,11,230,3520006,,,2022-03-07,合併による解散等,3030001050575,令和４年３月１日埼玉県志木市本町六丁目２７番１１号株式会社読売ニュースキャリア（3030001050575）に合併し解散,2015-10-05,1,,,,,ヨミウリニュースキャリアヤナセガワ,0
1931,8080101009355,登記記録の閉鎖等,0,2022-03-14,2022-03-11,株式会社平井,,株式会社,静岡県,富士市,本町１４番２４号,,22,210,4160914,,,2022-03-11,清算の結了等,,,2015-10-05,1,,,,,ヒライ,0
1932,8080401001821,登記記録の閉鎖等,0,2022-03-14,2022-03-09,株式会社佐伯一郎音楽事務所,,株式会社,静岡県,浜松市中区,元浜町２４５番地,,22,131,4300942,,,2022-03-09,清算の結了等,,,2015-10-05,1,,,,,サエキイチロウオンガクジムショ,0
1939,8100001028956,登記記録の閉鎖等,0,2022-03-14,2022-03-07,リネオホールディングス株式会社,,株式会社,長野県,塩尻市,大字北小野１５８９番地１,,20,215,3990651,,,2022-03-07,清算の結了等,,,2016-01-04,1,,,,,リネオホールディングス,0
1945,8110001026736,登記記録の閉鎖等,0,2022-03-14,2022-03-09,株式会社田上食品,,株式会社,新潟県,魚沼市,四日町１５０４番地,,15,225,9460007,,,2022-03-09,清算の結了等,,,2015-10-05,1,,,,,タガミショクヒン,0
1949,8110005006619,登記記録の閉鎖等,0,2022-03-14,2022-03-07,一般社団法人新潟自然栽培研究会,,その他の設立登記法人,新潟県,新潟市中央区,長潟２丁目１番４号,,15,103,9500932,,,2022-03-07,清算の結了等,,,2015-10-05,1,,,,,ニイガタシゼンサイバイケンキュウカイ,0
1953,8120001194433,登記記録の閉鎖等,0,2022-03-14,2022-03-07,株式会社タイト,,株式会社,大阪府,寝屋川市,河北西町１３０番地の３,,27,215,5720817,,,2022-03-07,清算の結了等,,,2015-11-12,1,,,,,,0
1961,8120002040826,登記記録の閉鎖等,0,2022-03-14,2022-03-08,有限会社レックハウジング,,有限会社,大阪府,大阪市中央区,常盤町１丁目４番９号,,27,128,5400028,,,2022-03-08,清算の結了等,,,2015-10-05,1,,,,,レックハウジング,0
2010,8180301011836,登記記録の閉鎖等,0,2022-03-14,2022-03-08,株式会社Ｆ＆Ｒインベストメンツ,,株式会社,愛知県,豊川市,三蔵子町一里塚６番地ファミール佐藤Ａ棟１０２号,,23,207,4420006,,,2022-03-08,清算の結了等,,,2015-10-05,1,,,,,エフアンドアールインベストメンツ,0
2027,8290001051832,登記記録の閉鎖等,0,2022-03-14,2022-03-08,丸久株式会社,,株式会社,福岡県,久留米市,諏訪野町２６３１番地,,40,203,8300037,,,2022-03-08,清算の結了等,,,2015-10-05,1,,,,,マルキュウ,0
2076,9010001123195,登記記録の閉鎖等,0,2022-03-14,2022-03-08,株式会社ＴＯＰ　ＤＥＳＩＧＮ,,株式会社,東京都,中央区,築地６丁目８番８号,,13,102,1040045,,,2022-03-08,合併による解散等,1011001046823,令和４年２月１７日東京都渋谷区渋谷一丁目１４番８号株式会社ＣＯＭＰＬＥＴＥ　ＦＥＬＬＯＷＳ（1011001046823）に合併し解散,2015-10-05,1,,,,,,0
2087,9010005008302,登記記録の閉鎖等,0,2022-03-14,2022-03-10,一般社団法人ミュー・デベロップ,,その他の設立登記法人,東京都,千代田区,丸の内３丁目１番１号東京共同会計事務所内,,13,101,1000005,,,2022-03-10,清算の結了等,,,2015-10-05,1,,,,,ミューデベロップ,0
2088,9010005021569,登記記録の閉鎖等,0,2022-03-14,2022-03-10,ＳＭＢＣ第２６回ＲＭＢＳ特定目的会社,,その他の設立登記法人,東京都,千代田区,丸の内３丁目１番１号東京共同会計事務所内,,13,101,1000005,,,2022-03-10,清算の結了等,,,2015-10-05,1,,,,,エスエムビーシーダイニジュウロクカイアールエムビーエス,0
2099,9010501005562,登記記録の閉鎖等,0,2022-03-14,2022-03-10,株式会社四季企画,,株式会社,東京都,台東区,浅草橋５丁目４番４号,,13,106,1110053,,,2022-03-10,清算の結了等,,,2015-10-05,1,,,,,シキキカク,0
2136,9011403003043,登記記録の閉鎖等,0,2022-03-14,2022-03-07,ＳＥＩＹＯ合同会社,,合同会社,東京都,板橋区,中丸町３３－１５,,13,119,1730026,,,2022-03-07,清算の結了等,,,2020-07-01,1,,,,,セイヨウ,0
2142,9012401023776,登記記録の閉鎖等,0,2022-03-14,2022-03-11,株式会社セブン,,株式会社,東京都,品川区,上大崎３丁目１番１号目黒セントラルスクエア１５階,,13,109,1410021,,,2022-03-11,合併による解散等,2010703006092,令和４年３月１１日東京都品川区上大崎三丁目１番１号目黒セントラルスクエア１５階セブンホールディングス合同会社（2010703006092）に合併し解散,2015-10-05,1,,,,,セブン,0
2164,9020003017915,登記記録の閉鎖等,0,2022-03-14,2022-02-24,テスティワールド・ジャパン合同会社,,合同会社,神奈川県,川崎市中原区,中丸子２５１番地１ノブレス武蔵小杉３０４,,14,133,2110012,,,2022-02-24,清算の結了等,,,2020-05-28,1,,,,,テスティワールドジャパン,0
2181,9030002025736,登記記録の閉鎖等,0,2022-03-14,2022-03-07,有限会社大塚製缶,,有限会社,埼玉県,蕨市,塚越６丁目２２番６号,,11,223,3350002,,,2022-03-07,清算の結了等,,,2015-10-05,1,,,,,オオツカセイカン,0
2193,9040003013672,登記記録の閉鎖等,0,2022-03-14,2022-03-07,合同会社まめたのごちそう,,合同会社,千葉県,柏市,根戸４７１番地６０金子ハイツ１階左,,12,217,2770831,,,2022-03-07,清算の結了等,,,2019-07-17,1,,,,,マメタノゴチソウ,0
2250,9180003020606,登記記録の閉鎖等,0,2022-03-14,2022-03-07,合同会社Ｒ．Ｙ．Ｒ,,合同会社,愛知県,春日井市,神明町４１番地２,,23,206,4860942,,,2022-03-07,清算の結了等,,,2019-12-06,1,,,,,アールワイアール,0
2264,9260002021266,登記記録の閉鎖等,0,2022-03-14,2022-03-10,有限会社丸石ハウジング,,有限会社,岡山県,倉敷市,玉島柏台３丁目７番１６号,,33,202,7138124,,,2022-03-10,清算の結了等,,,2015-10-05,1,,,,,マルイシハウジング,0
2280,9360001016174,登記記録の閉鎖等,0,2022-03-14,2022-03-08,農業生産法人かでなファーム株式会社,,株式会社,沖縄県,中頭郡嘉手納町,字水釜３６４番地２,,47,325,9040204,,,2022-03-08,清算の結了等,,,2015-10-05,1,,,,,ノウギョウセイサンホウジンカデナファーム,0
2284,9360001021166,登記記録の閉鎖等,0,2022-03-14,2022-03-09,ＳｈｉｉＳａａ　Ｓｅｒｖｉｃｅｓ．Ｓ３株式会社,,株式会社,沖縄県,うるま市,字具志川３３５０番地３,,47,213,9042223,,,2022-03-09,清算の結了等,,,2016-08-04,1,,,,,シーサーサービス,0
2286,9370001014235,登記記録の閉鎖等,0,2022-03-14,2022-03-09,株式会社ひらがコーポレーション,,株式会社,宮城県,仙台市青葉区,中央２丁目１番１５号,,04,101,9800021,,,2022-03-09,清算の結了等,,,2015-10-05,1,,,,,ヒラガコーポレーション,0
2306,9430001002365,登記記録の閉鎖等,0,2022-03-14,2022-03-04,株式会社エスケー創研企画,,株式会社,北海道,札幌市北区,拓北六条１丁目９番１８号,,01,102,0028066,,,2022-03-04,清算の結了等,,,2015-10-05,1,,,,,エスケーソウケンキカク,0
2307,9430001077102,登記記録の閉鎖等,0,2022-03-14,2022-03-08,株式会社アズマ,,株式会社,北海道,恵庭市,恵み野東５丁目４番３,,01,231,0611371,,,2022-03-08,清算の結了等,,,2018-07-31,1,,,,,アズマ,0
2309,9430002013766,登記記録の閉鎖等,0,2022-03-14,2022-03-07,有限会社東豊ガラス企画,,有限会社,北海道,札幌市東区,東苗穂十条２丁目１１番１１号,,01,103,0070810,,,2022-03-07,清算の結了等,,,2015-10-05,1,,,,,トウホウガラスキカク,0
