sequenceNumber,corporateNumber,process,correct,updateDate,changeDate,name,nameImageId,kind,prefectureName,cityName,streetNumber,addressImageId,prefectureCode,cityCode,postCode,addressOutside,addressOutsideImageId,closeDate,closeCause,successorCorporateNumber,changeCause,assignmentDate,latest,enName,enPrefectureName,enCityName,enAddressOutside,furigana,hihyoji
15,1010001238851,新規,0,2023-10-03,2023-10-03,株式会社みんぱる,,株式会社,東京都,中央区,銀座１丁目１２番４号,,13,102,1040061,,,,,,,2023-10-03,1,,,,,ミンパル,0
19,1010005037325,新規,0,2023-10-03,2023-10-03,生駒２特定目的会社,,その他の設立登記法人,東京都,中央区,八重洲２丁目２番１号,,13,102,1040028,,,,,,,2023-10-03,1,,,,,イコマツー,0
22,1010401177501,新規,0,2023-10-03,2023-10-03,サンワエアロスペースインダストリー株式会社,,株式会社,東京都,港区,芝大門２丁目２番２号,,13,103,1050012,,,,,,,2023-10-03,1,,,,,サンワエアロスペースインダストリー,0
27,1010601063880,新規,0,2023-10-03,2023-10-03,株式会社Ｒｉｌｙ,,株式会社,東京都,江東区,大島８丁目２番１３－２０５号,,13,108,1360072,,,,,,,2023-10-03,1,,,,,リリー,0
34,1010701044921,新規,0,2023-10-03,2023-10-03,株式会社ＵＥＳＴＥＣＨ,,株式会社,東京都,品川区,西大井１丁目１－２,,13,109,1400015,,,,,,,2023-10-03,1,,,,,ウエステック,0
41,1010901053912,新規,0,2023-10-03,2023-10-03,株式会社ＴＧＭ,,株式会社,東京都,世田谷区,池尻４丁目１０番１－Ｅ１００３号,,13,112,1540001,,,,,,,2023-10-03,1,,,,,ティージーエム,0
42,1010901053929,新規,0,2023-10-03,2023-10-03,株式会社ロンロン,,株式会社,東京都,世田谷区,上祖師谷１丁目１６番７号,,13,112,1570065,,,,,,,2023-10-03,1,,,,,ロンロン,0
52,1011101104563,新規,0,2023-10-03,2023-10-03,株式会社アイランドバーガーズ,,株式会社,東京都,新宿区,四谷３丁目１－１,,13,104,1600004,,,,,,,2023-10-03,1,,,,,アイランドバーガーズ,0
53,1011101104588,新規,0,2023-10-03,2023-10-03,ナカグリエンターテインメント株式会社,,株式会社,東京都,新宿区,西落合３丁目１５－１２,,13,104,1610031,,,,,,,2023-10-03,1,,,,,ナカグリエンターテインメント,0
54,1011101104596,新規,0,2023-10-03,2023-10-03,ＭＥＴＡＴＯＯＬ株式会社,,株式会社,東京都,新宿区,大久保２丁目２１－１２新和ビル２階,,13,104,1690072,,,,,,,2023-10-03,1,,,,,メタツール,0
59,1011301029040,新規,0,2023-10-03,2023-10-03,株式会社五箇,,株式会社,東京都,杉並区,高円寺北１丁目１２番２０号たかはらハイム２０３,,13,115,1660002,,,,,,,2023-10-03,1,,,,,ゴカ,0
64,1011801043111,新規,0,2023-10-03,2023-10-03,御書坊株式会社,,株式会社,東京都,足立区,梅田２丁目４番１５号ワコー第九梅田マンション３０１号室,,13,121,1230851,,,,,,,2023-10-03,1,,,,,ゴショボウ,0
65,1011803005860,新規,0,2023-10-03,2023-10-03,合同会社オリエント,,合同会社,東京都,葛飾区,四つ木２丁目１８番１号ｐｌｕｍａｓ四つ木４０２,,13,122,1240011,,,,,,,2023-10-03,1,,,,,オリエント,0
68,1012301013612,新規,0,2023-10-03,2023-10-03,株式会社ｓｕｂｒｏｑ,,株式会社,東京都,町田市,森野１丁目３６－２セレステ町田１階２階,,13,209,1940022,,,,,,,2023-10-03,1,,,,,サブロクキュウ,0
70,1012401041067,新規,0,2023-10-03,2023-10-03,株式会社ヤマワキ健康ストア,,株式会社,東京都,府中市,紅葉丘３丁目３３番地の７,,13,206,1830004,,,,,,,2023-10-03,1,,,,,ヤマワキケンコウストア,0
71,1012405004904,新規,0,2023-10-03,2023-10-03,一般社団法人ＲＯＷＪ外国人女性支援協会,,その他の設立登記法人,東京都,府中市,天神町３丁目１４番地の１５,,13,206,1830053,,,,,,,2023-10-03,1,,,,,アールオーダブリュージェイガイコクジンジョセイシエンキョウカイ,0
72,1012703002808,新規,0,2023-10-03,2023-10-03,合同会社西東京薬品,,合同会社,東京都,西東京市,中町１丁目１１番２０号エステート山内２０１,,13,229,2020013,,,,,,,2023-10-03,1,,,,,ニシトウキョウヤクヒン,0
77,1013301051420,新規,0,2023-10-03,2023-10-03,雲山株式会社,,株式会社,東京都,豊島区,東池袋４丁目２３番６－６０５号,,13,116,1700013,,,,,,,2023-10-03,1,,,,,ウンザン,0
88,1020001153711,新規,0,2023-10-03,2023-10-03,ＫＷＳ株式会社,,株式会社,神奈川県,横浜市港北区,高田東１丁目３１番３５号ＢｕｏｎＹａｓｈｉｍａ１０１号,,14,109,2230065,,,,,,,2023-10-03,1,,,,,ケイダブリュエス,0
90,1020003024670,新規,0,2023-10-03,2023-10-03,ＳＵＫＩＷＯ合同会社,,合同会社,神奈川県,横浜市鶴見区,駒岡１丁目３７番２１号,,14,101,2300071,,,,,,,2023-10-03,1,,,,,スキオ,0
91,1020003024679,新規,0,2023-10-03,2023-10-03,合同会社ｖｉｅ,,合同会社,神奈川県,横浜市港北区,仲手原１丁目２２番３２号,,14,109,2220023,,,,,,,2023-10-03,1,,,,,ヴィー,0
97,1021001080318,新規,0,2023-10-03,2023-10-03,圏央空調工業株式会社,,株式会社,神奈川県,愛甲郡愛川町,半原１８００番地,,14,401,2430307,,,,,,,2023-10-03,1,,,,,ケンオウクウチョウコウギョウ,0
100,1021003013614,新規,0,2023-10-03,2023-10-03,合同会社天上,,合同会社,神奈川県,大和市,上和田２４０３レオパレスベルツリーＩＩ２０２,00132107,14,213,2420014,,,,,,,2023-10-03,1,,,,,テンジョウ,0
101,1021003013622,新規,0,2023-10-03,2023-10-03,ＵＰＤＡＴＥ合同会社,,合同会社,神奈川県,茅ヶ崎市,東海岸北２丁目９番２７号,,14,207,2530053,,,,,,,2023-10-03,1,,,,,アップデート,0
107,1030001156358,新規,0,2023-10-03,2023-10-03,ゆき丸インベストメント株式会社,,株式会社,埼玉県,川口市,青木１丁目１７番４１号,,11,203,3320031,,,,,,,2023-10-03,1,,,,,ユキマルインベストメント,0
127,1060003004743,新規,0,2023-10-03,2023-10-03,合同会社Ｔａｋｅｓ,,合同会社,栃木県,日光市,瀬尾１３０番地２１,,09,206,3211264,,,,,,,2023-10-03,1,,,,,テイクス,0
128,1080101024245,新規,0,2023-10-03,2023-10-03,株式会社ＮＥＸＵＳ,,株式会社,静岡県,三島市,松本２６８番地の５,,22,206,4110822,,,,,,,2023-10-03,1,,,,,ネクサス,0
129,1080401026759,新規,0,2023-10-03,2023-10-03,ヨシオセブン株式会社,,株式会社,静岡県,袋井市,国本３０３４番地の１,,22,216,4370012,,,,,,,2023-10-03,1,,,,,ヨシオセブン,0
130,1080401026767,新規,0,2023-10-03,2023-10-03,株式会社ｋａｍｏｓｈｉ,,株式会社,静岡県,浜松市西区,大平台３丁目２９番１６号パレスポート１Ｆ東側,,22,133,4328068,,,,,,,2023-10-03,1,,,,,カモシ,0
132,1100001036817,新規,0,2023-10-03,2023-10-03,株式会社ＴＷＣ,,株式会社,長野県,塩尻市,大字広丘吉田５４３番地１６,,20,215,3990701,,,,,,,2023-10-03,1,,,,,ティーダブリューシー,0
134,1110001037871,新規,0,2023-10-03,2023-10-03,株式会社ルーツクリエイティブ,,株式会社,新潟県,燕市,吉田弥生町２５番２９号,,15,213,9590255,,,,,,,2023-10-03,1,,,,,ルーツクリエイティブ,0
135,1110001037888,新規,0,2023-10-03,2023-10-03,リライユース株式会社,,株式会社,新潟県,村上市,岩船下浜町３番２号,,15,212,9580046,,,,,,,2023-10-03,1,,,,,リライユース,0
140,1120001258483,新規,0,2023-10-03,2023-10-03,株式会社マスダシアターコンサルティング,,株式会社,大阪府,大阪市西区,新町１丁目１２－２３イサオビル,,27,106,5500013,,,,,,,2023-10-03,1,,,,,マスダシアターコンサルティング,0
141,1120001258491,新規,0,2023-10-03,2023-10-03,株式会社ＬｘＬ,,株式会社,大阪府,寝屋川市,楠根北町１１番５号,,27,215,5720845,,,,,,,2023-10-03,1,,,,,エルエクセル,0
142,1120001258517,新規,0,2023-10-03,2023-10-03,Ｍ＆Ａメディカルパートナーズ株式会社,,株式会社,大阪府,大阪市北区,梅田１丁目１番３号大阪駅前第３ビル２９階１－１－１号室,,27,127,5300001,,,,,,,2023-10-03,1,,,,,エムアンドエーメディカルパートナーズ,0
143,1120001258525,新規,0,2023-10-03,2023-10-03,株式会社Ｗａｔａｎａｂｅ屋,,株式会社,大阪府,大阪市此花区,春日出北２丁目６－７－１０２,,27,104,5540021,,,,,,,2023-10-03,1,,,,,ワタナベヤ,0
144,1120001258566,新規,0,2023-10-03,2023-10-03,株式会社地所産業,,株式会社,大阪府,枚方市,中宮西之町１番６２号,,27,210,5730021,,,,,,,2023-10-03,1,,,,,クニドコロサンギョウ,0
152,1130001075309,新規,0,2023-10-03,2023-10-03,株式会社ＨＩ,,株式会社,京都府,京都市下京区,高辻大宮町１０３大宮高辻ビル４階,,26,106,6000000,,,,,,,2023-10-03,1,,,,,ハイ,0
153,1130001075341,新規,0,2023-10-03,2023-10-03,株式会社ｚｅｒｏ,,株式会社,京都府,京都市伏見区,桃山町養斉２１番地１サンハイツフジタＣ－１０２,,26,109,6128016,,,,,,,2023-10-03,1,,,,,ゼロ,0
154,1130001075382,新規,0,2023-10-03,2023-10-03,納川株式会社,,株式会社,京都府,京都市南区,東九条西山町２６番地１８,,26,107,6018046,,,,,,,2023-10-03,1,,,,,オサメガワ,0
160,1140001131845,新規,0,2023-10-03,2023-10-03,株式会社ケーティー工業,,株式会社,兵庫県,西宮市,上甲子園４丁目９番７４号,,28,204,6638114,,,,,,,2023-10-03,1,,,,,ケーティーコウギョウ,0
162,1150001026771,新規,0,2023-10-03,2023-10-03,株式会社ＬＵＸｅ．,,株式会社,奈良県,橿原市,内膳町４丁目５番６号,,29,205,6340804,,,,,,,2023-10-03,1,,,,,リュクス,0
174,1180001158216,新規,0,2023-10-03,2023-10-03,まなぶ工業株式会社,,株式会社,愛知県,名古屋市中川区,下之一色町字松蔭２丁目７４番地,,23,110,4540945,,,,,,,2023-10-03,1,,,,,マナブコウギョウ,0
175,1180001158257,新規,0,2023-10-03,2023-10-03,株式会社Ｌｅｇｏｔｅ,,株式会社,愛知県,名古屋市中川区,万場２丁目６１２－４,,23,110,4540997,,,,,,,2023-10-03,1,,,,,レガート,0
182,1180003025793,新規,0,2023-10-03,2023-10-03,合同会社元町自動車,,合同会社,愛知県,春日井市,篠木町７丁目３７番地９,,23,206,4860851,,,,,,,2023-10-03,1,,,,,モトマチジドウシャ,0
183,1180003025810,新規,0,2023-10-03,2023-10-03,Ａｌａ合同会社,,合同会社,愛知県,名古屋市西区,則武新町１丁目３３番１０号,,23,104,4510051,,,,,,,2023-10-03,1,,,,,アーラ,0
192,1220001025618,新規,0,2023-10-03,2023-10-03,株式会社Ｃｒａｆｔｓ,,株式会社,石川県,河北郡内灘町,字千鳥台２丁目２７９番地,,17,365,9200277,,,,,,,2023-10-03,1,,,,,クラフツ,0
193,1220003003596,新規,0,2023-10-03,2023-10-03,陶芸喫茶東山合同会社,,合同会社,石川県,金沢市,兼六町一丁目１６番地,,17,201,9200936,,,,,,,2023-10-03,1,,,,,トウゲイキッサトウザン,0
195,1240001062205,新規,0,2023-10-03,2023-10-03,株式会社ｒｉｔ,,株式会社,広島県,広島市東区,戸坂くるめ木１丁目１番２８号,,34,102,7320008,,,,,,,2023-10-03,1,,,,,リット,0
200,1250001020302,新規,0,2023-10-03,2023-10-03,株式会社ネクスポート,,株式会社,山口県,周南市,速玉町４番２５号,,35,215,7450844,,,,,,,2023-10-03,1,,,,,ネクスポート,0
212,1290001103210,新規,0,2023-10-03,2023-10-03,株式会社ＴｏｐＳｏｌｕｔｉｏｎＡｇｅｎｃｙ,,株式会社,福岡県,福岡市早良区,西新３丁目１－７サクラフォーレスト西新６０１号,,40,137,8140002,,,,,,,2023-10-03,1,,,,,トップソリューションエージェンシー,0
213,1290001103268,新規,0,2023-10-03,2023-10-03,オカ防災工業株式会社,,株式会社,福岡県,福岡市南区,平和１丁目８番１９号,,40,134,8150071,,,,,,,2023-10-03,1,,,,,オカボウサイコウギョウ,0
215,1290003014406,新規,0,2023-10-03,2023-10-03,合同会社ラフテル,,合同会社,福岡県,糸島市,神在東１丁目５番２５号（１０６）,,40,230,8191120,,,,,,,2023-10-03,1,,,,,ラフテル,0
216,1290003014422,新規,0,2023-10-03,2023-10-03,シーアール合同会社,,合同会社,福岡県,久留米市,御井旗崎２丁目２１番３２－１０３号,,40,203,8390841,,,,,,,2023-10-03,1,,,,,シーアール,0
219,1290801029919,新規,0,2023-10-03,2023-10-03,株式会社Ｌｉｅｎ,,株式会社,福岡県,遠賀郡遠賀町,大字今古賀２０９番地,,40,384,8114303,,,,,,,2023-10-03,1,,,,,リアン,0
220,1290803004515,新規,0,2023-10-03,2023-10-03,合同会社ワィーヴ・オー,,合同会社,福岡県,北九州市小倉北区,下到津５丁目９－１０－６０３,,40,106,8030846,,,,,,,2023-10-03,1,,,,,ワィーヴオー,0
222,1310005008717,新規,0,2023-10-03,2023-10-03,医療法人則栄会,,その他の設立登記法人,長崎県,長崎市,金屋町２番７号坂本屋ビル３Ｆ,,42,201,8500037,,,,,,,2023-10-03,1,,,,,ソクエイカイ,0
229,1360003013334,新規,0,2023-10-03,2023-10-03,合同会社アインツベルン,,合同会社,沖縄県,中頭郡中城村,字南上原３８２番地１シャトレイユミオ３０２号,,47,328,9012424,,,,,,,2023-10-03,1,,,,,アインツベルン,0
230,1360003013342,新規,0,2023-10-03,2023-10-03,合同会社Ｂ．Ｐｌａｎ,,合同会社,沖縄県,那覇市,牧志２丁目１７－２４－４０１,,47,201,9000013,,,,,,,2023-10-03,1,,,,,ビープラン,0
231,1370001050460,新規,0,2023-10-03,2023-10-03,株式会社ｋｙｃ,,株式会社,宮城県,仙台市青葉区,本町１丁目５番２８号カーニープレイス仙台駅前通６０３,,04,101,9800014,,,,,,,2023-10-03,1,,,,,ケイワイシー,0
242,1430001090038,新規,0,2023-10-03,2023-10-03,株式会社ニューライフアップ,,株式会社,北海道,苫小牧市,字勇払１５１番地の１３２,,01,213,0591372,,,,,,,2023-10-03,1,,,,,ニューライフアップ,0
243,1430001090079,新規,0,2023-10-03,2023-10-03,エンカレッジ株式会社,,株式会社,北海道,勇払郡厚真町,京町８４番３,,01,581,0591601,,,,,,,2023-10-03,1,,,,,エンカレッジ,0
250,1440005002764,新規,0,2023-10-03,2023-10-03,特定非営利活動法人学び足しデザイン工房,,その他の設立登記法人,北海道,函館市,亀田中野町１１６－２,,01,202,0410803,,,,,,,2023-10-03,1,,,,,マナビタシデザインコウボウ,0
253,1460001005835,新規,0,2023-10-03,2023-10-03,株式会社シング,,株式会社,北海道,釧路市,緑ケ岡４丁目８番５９号テラスハウス２Ｆ号室,,01,206,0850814,,,,,,,2023-10-03,1,,,,,,0
257,1470003002499,新規,0,2023-10-03,2023-10-03,ＭＩハビタット合同会社,,合同会社,香川県,高松市,林町２５２７番地７,,37,201,7610301,,,,,,,2023-10-03,1,,,,,エムアイハビタット,0
266,1700150119411,新規,0,2023-10-03,2023-10-03,ＫＥＬＭＥ　ＳＰＯＲＴＳ　ＰＲＯＤＵＣＴＳ　ＣＯ．，ＬＴＤ,,外国会社等,,,,,,,,Ｎｏ．１２　ＦＵＸＩＮＧ　ＲＯＡＤ，ＳＨＡＮＧＧＵＯ，ＸＩＮＴＡＮＧ，ＪＩＮＪＩＡＮＧ，ＱＵＡＮＺＨＯＵ，ＦＵＪＩＡＮ，ＣＨＩＮＡ,,,,,,2023-10-03,1,,,,,カオアメイスポーツプロダクツ,0
295,2010001238826,新規,0,2023-10-03,2023-10-03,株式会社Ｖ‐ＭＡＣ,,株式会社,東京都,中央区,月島４丁目８番１０－１０１８号,,13,102,1040052,,,,,,,2023-10-03,1,,,,,ブイマック,0
296,2010001238859,新規,0,2023-10-03,2023-10-03,ワン・ゼロ・テクノロジー株式会社,,株式会社,東京都,中央区,新川１丁目２７番８号新川大原ビル８階,,13,102,1040033,,,,,,,2023-10-03,1,,,,,ワンゼロテクノロジー,0
301,2010003041765,新規,0,2023-10-03,2023-10-03,ＲＴＭ合同会社,,合同会社,東京都,文京区,小石川３丁目３２番１６号,,13,105,1120002,,,,,,,2023-10-03,1,,,,,アールティーエム,0
302,2010003041848,新規,0,2023-10-03,2023-10-03,合同会社関東伐採緑化興行東京勇テック,,合同会社,東京都,中央区,日本橋室町１丁目１１番１２号７Ｆ,,13,102,1030022,,,,,,,2023-10-03,1,,,,,カントウバッサイリョクカコウギョウトウキョウユウテック,0
310,2010401177574,新規,0,2023-10-03,2023-10-03,株式会社クレアチオ・プラス,,株式会社,東京都,港区,白金１丁目１２番６号,,13,103,1080072,,,,,,,2023-10-03,1,,,,,クレアチオプラス,0
311,2010403031044,新規,0,2023-10-03,2023-10-03,ＴＫ５合同会社,,合同会社,東京都,港区,北青山１丁目６番５－１０４号,,13,103,1070061,,,,,,,2023-10-03,1,,,,,ティーケーファイブ,0
320,2011001157256,新規,0,2023-10-03,2023-10-03,Ｔ．Ｋ．Ｐ．株式会社,,株式会社,東京都,渋谷区,鶯谷町１４番６－４０３号,,13,113,1500032,,,,,,,2023-10-03,1,,,,,ティーケーピー,0
321,2011001157280,新規,0,2023-10-03,2023-10-03,株式会社ＡＲＶＩＳ,,株式会社,東京都,渋谷区,桜丘町１７－６,,13,113,1500031,,,,,,,2023-10-03,1,,,,,アルヴィス,0
323,2011101104570,新規,0,2023-10-03,2023-10-03,株式会社Ｃａｒａｔ．,,株式会社,東京都,新宿区,新宿７丁目７番６号,,13,104,1600022,,,,,,,2023-10-03,1,,,,,カラット,0
324,2011101104587,新規,0,2023-10-03,2023-10-03,株式会社フランチャイジーチャンネル,,株式会社,東京都,新宿区,西新宿３丁目３番１３号西新宿水間ビル２Ｆ,,13,104,1600023,,,,,,,2023-10-03,1,,,,,フランチャイジーチャンネル,0
325,2011103013514,新規,0,2023-10-03,2023-10-03,歐紡合同会社,,合同会社,東京都,新宿区,荒木町２０－１７,,13,104,1600007,,,,,,,2023-10-03,1,,,,,オーファイン,0
326,2011103013547,新規,0,2023-10-03,2023-10-03,合同会社ＬＧＣ,,合同会社,東京都,新宿区,四谷４丁目１８番２号,,13,104,1600004,,,,,,,2023-10-03,1,,,,,エルジーシー,0
330,2011701026628,新規,0,2023-10-03,2023-10-03,株式会社オリック,,株式会社,東京都,江戸川区,平井２丁目６番１９号,,13,123,1320035,,,,,,,2023-10-03,1,,,,,オリック,0
336,2011801043102,新規,0,2023-10-03,2023-10-03,株式会社シェイクハンド,,株式会社,東京都,足立区,梅島２丁目１４番１号梅島鈴木Ｂ棟１Ｆ,,13,121,1210816,,,,,,,2023-10-03,1,,,,,シェイクハンド,0
337,2011803005851,新規,0,2023-10-03,2023-10-03,合同会社城北総合サービス,,合同会社,東京都,足立区,西綾瀬２丁目５番８―２０５号,,13,121,1200014,,,,,,,2023-10-03,1,,,,,ジョウホクソウゴウサービス,0
338,2012401041066,新規,0,2023-10-03,2023-10-03,株式会社クリエイティブ,,株式会社,東京都,小金井市,本町５丁目３９番２２号,,13,210,1840004,,,,,,,2023-10-03,1,,,,,クリエイティブ,0
353,2020001153719,新規,0,2023-10-03,2023-10-03,株式会社セレンディピティサロンエリカ,,株式会社,神奈川県,横浜市戸塚区,川上町５４２番地５６ソルクレスト１０１号,,14,110,2440805,,,,,,,2023-10-03,1,,,,,セレンディピティサロンエリカ,0
354,2020001153727,新規,0,2023-10-03,2023-10-03,豊潤株式会社,,株式会社,神奈川県,横浜市神奈川区,子安通２丁目２３７番地４ビッグヴァン横浜アクティブシティ３０１号,,14,102,2210021,,,,,,,2023-10-03,1,,,,,,0
355,2020001153743,新規,0,2023-10-03,2023-10-03,株式会社正松,,株式会社,神奈川県,川崎市幸区,下平間８４番地３１,,14,132,2120053,,,,,,,2023-10-03,1,,,,,セイショウ,0
362,2020003024686,新規,0,2023-10-03,2023-10-03,合同会社牧野恭久建築設計事務所,,合同会社,神奈川県,横浜市磯子区,磯子７丁目２２－５,,14,107,2350016,,,,,,,2023-10-03,1,,,,,マキノヤスヒサケンチクセッケイジムショ,0
369,2030001156357,新規,0,2023-10-03,2023-10-03,新和エンジニアリング株式会社,,株式会社,埼玉県,さいたま市中央区,上落合２丁目３番２号,,11,105,3380001,,,,,,,2023-10-03,1,,,,,シンワエンジニアリング,0
370,2030001156373,新規,0,2023-10-03,2023-10-03,株式会社あさひ工房,,株式会社,埼玉県,吉川市,大字川藤３８５番地１,,11,243,3420005,,,,,,,2023-10-03,1,,,,,アサヒコウボウ,0
373,2030003022656,新規,0,2023-10-03,2023-10-03,合同会社ファン＆ワークス,,合同会社,埼玉県,鶴ヶ島市,大字太田ヶ谷９５２番地１６,,11,241,3502214,,,,,,,2023-10-03,1,,,,,ファンアンドワークス,0
374,2030003022689,新規,0,2023-10-03,2023-10-03,合同会社ＳＨＩＢＡＮＯ,,合同会社,埼玉県,深谷市,人見７００番地１,,11,218,3660811,,,,,,,2023-10-03,1,,,,,シバノ,0
375,2030003022714,新規,0,2023-10-03,2023-10-03,合同会社ＲＥＣ,,合同会社,埼玉県,和光市,白子３丁目２５―４８,,11,229,3510101,,,,,,,2023-10-03,1,,,,,レック,0
385,2040003023455,新規,0,2023-10-03,2023-10-03,Ｔｅａｎｉｌａ合同会社,,合同会社,千葉県,八街市,八街い９９番地９２,,12,230,2891143,,,,,,,2023-10-03,1,,,,,テニラ,0
386,2040005022133,新規,0,2023-10-03,2023-10-03,ＥＱＵＡＬＩＴＹ協同組合,,その他の設立登記法人,千葉県,千葉市稲毛区,園生町１０３３－１ラグナヒルズ稲毛１０１,,12,103,2630051,,,,,,,2023-10-03,1,,,,,イクオリティ,0
392,2070001040920,新規,0,2023-10-03,2023-10-03,株式会社Ｎｅｘｔ　Ａｒｃｈ,,株式会社,群馬県,高崎市,高砂町２６６番地２サンハイツ高崎１０７号室,,10,202,3700047,,,,,,,2023-10-03,1,,,,,ネクストアーチ,0
395,2070005010176,新規,0,2023-10-03,2023-10-03,一般社団法人嬬恋ＳＴＹＬＥ,,その他の設立登記法人,群馬県,吾妻郡嬬恋村,大字鎌原字笹平７１０番地１４,,10,425,3771524,,,,,,,2023-10-03,1,,,,,ツマゴイスタイル,0
400,2080001025887,新規,0,2023-10-03,2023-10-03,株式会社のびのび色,,株式会社,静岡県,静岡市葵区,羽鳥大門町２０－３７－１,,22,101,4211216,,,,,,,2023-10-03,1,,,,,ノビノビイロ,0
401,2080003003065,新規,0,2023-10-03,2023-10-03,合同会社Ｋサービス,,合同会社,静岡県,静岡市葵区,内牧９７番地の３,,22,101,4212118,,,,,,,2023-10-03,1,,,,,ケイサービス,0
403,2080401026766,新規,0,2023-10-03,2023-10-03,株式会社和桜,,株式会社,静岡県,浜松市中区,鍛冶町３１９番地の２０伴野ビル２階,,22,131,4300933,,,,,,,2023-10-03,1,,,,,ワザクラ,0
413,2100001036824,新規,0,2023-10-03,2023-10-03,ｋａｉｋｋｉ　ｇａｌｌｅｒｙ株式会社,,株式会社,長野県,北佐久郡軽井沢町,大字追分１３７２番地６,,20,321,3890115,,,,,,,2023-10-03,1,,,,,カイキギャラリー,0
415,2110001037870,新規,0,2023-10-03,2023-10-03,株式会社ＦＪＥ,,株式会社,新潟県,長岡市,南七日町６８番地８,,15,202,9402116,,,,,,,2023-10-03,1,,,,,エフジェーイー,0
416,2110001037879,新規,0,2023-10-03,2023-10-03,株式会社こはと設備,,株式会社,新潟県,新潟市江南区,長潟１丁目１番５号,,15,104,9500147,,,,,,,2023-10-03,1,,,,,コハトセツビ,0
423,2120001258342,新規,0,2023-10-03,2023-10-03,金盛金属株式会社,,株式会社,大阪府,大阪市東住吉区,鷹合４丁目２１番１６号３Ｆ－Ｅ,,27,121,5460014,,,,,,,2023-10-03,1,,,,,キンセイキンゾク,0
424,2120001258425,新規,0,2023-10-03,2023-10-03,セレブラシステムソリューションズ株式会社,,株式会社,大阪府,大阪市中央区,和泉町１丁目１番１４号,,27,128,5400019,,,,,,,2023-10-03,1,,,,,セレブラシステムソリューションズ,0
426,2120003024965,新規,0,2023-10-03,2023-10-03,合同会社Ａｘｅｌｌ,,合同会社,大阪府,大阪市北区,梅田１丁目２番２号大阪駅前第２ビル１２－１２,,27,127,5300001,,,,,,,2023-10-03,1,,,,,アクセル,0
427,2120003024998,新規,0,2023-10-03,2023-10-03,１０９１合同会社,,合同会社,大阪府,大阪市此花区,梅香３丁目３２番５号,,27,104,5540013,,,,,,,2023-10-03,1,,,,,イレグイ,0
428,2120003025006,新規,0,2023-10-03,2023-10-03,合同会社ピュシス,,合同会社,大阪府,大阪市中央区,森ノ宮中央１丁目１６－１７－６０７,,27,128,5400003,,,,,,,2023-10-03,1,,,,,ピュシス,0
429,2120003025014,新規,0,2023-10-03,2023-10-03,合同会社ＳＡトラベル,,合同会社,大阪府,大阪市中央区,瓦屋町２丁目５番８号ノブリード松本４０１号,,27,128,5420066,,,,,,,2023-10-03,1,,,,,エスエートラベル,0
430,2120003025055,新規,0,2023-10-03,2023-10-03,ＬＫコンサルティング合同会社,,合同会社,大阪府,大阪市住吉区,我孫子西２番４号１７,,27,120,5580000,,,,,,,2023-10-03,1,,,,,エルケーコンサルティング,0
431,2120101068303,新規,0,2023-10-03,2023-10-03,株式会社百花事変,,株式会社,大阪府,和泉市,室堂町８２４番５５号ウエリス光明池８１３号室,,27,219,5941101,,,,,,,2023-10-03,1,,,,,ヒャッカジヘン,0
443,2130001075324,新規,0,2023-10-03,2023-10-03,株式会社京都朱雀乃匠,,株式会社,京都府,京都市右京区,西京極東側町３９番地,,26,108,6150844,,,,,,,2023-10-03,1,,,,,キョウトスザクノタクミ,0
446,2130003009016,新規,0,2023-10-03,2023-10-03,合同会社香究,,合同会社,京都府,京都市上京区,室町通武者小路下る福長町５３０番地１,,26,102,6020907,,,,,,,2023-10-03,1,,,,,コウキュウ,0
454,2150001026754,新規,0,2023-10-03,2023-10-03,株式会社丸福,,株式会社,奈良県,桜井市,安倍木材団地２丁目６番地の１３,,29,206,6330055,,,,,,,2023-10-03,1,,,,,マルフク,0
455,2150003003082,新規,0,2023-10-03,2023-10-03,合同会社ふるさと五條時空探検隊,,合同会社,奈良県,五條市,岡口２丁目３番３６号,,29,207,6370006,,,,,,,2023-10-03,1,,,,,フルサトゴジョウジクウタンケンタイ,0
456,2160001025383,新規,0,2023-10-03,2023-10-03,株式会社エヌズスタイル,,株式会社,滋賀県,長浜市,永久寺町２０１番地２,,25,203,5260833,,,,,,,2023-10-03,1,,,,,エヌズスタイル,0
473,2190001030769,新規,0,2023-10-03,2023-10-03,ＫＡＭＩＭＯＲＩ　ＳＴＵＤＩＯ株式会社,,株式会社,三重県,伊勢市,田尻町７２番地１,,24,203,5160006,,,,,,,2023-10-03,1,,,,,カミモリスタジオ,0
475,2190003004457,新規,0,2023-10-03,2023-10-03,合同会社ファーストチキン,,合同会社,三重県,津市,大里窪田町１３３３番地７,,24,201,5140125,,,,,,,2023-10-03,1,,,,,ファーストチキン,0
479,2250001020301,新規,0,2023-10-03,2023-10-03,株式会社Ｒｅｌａｔｉｏｎ,,株式会社,山口県,山口市,吉敷赤田４丁目２番１２号,,35,203,7530817,,,,,,,2023-10-03,1,,,,,リレーション,0
481,2250003003361,新規,0,2023-10-03,2023-10-03,合同会社パッチワークス,,合同会社,山口県,山口市,吉敷下東２丁目２番３－１０５号（サーフェス上京面）,,35,203,7530814,,,,,,,2023-10-03,1,,,,,パッチワークス,0
493,2290001103201,新規,0,2023-10-03,2023-10-03,ｇｉｆｔ株式会社,,株式会社,福岡県,福岡市南区,大橋１丁目４番１０号,,40,134,8150033,,,,,,,2023-10-03,1,,,,,ギフト,0
497,2290005019162,新規,0,2023-10-03,2023-10-03,特定非営利活動法人おかえり,,その他の設立登記法人,福岡県,福岡市早良区,西入部２丁目１６番１４号,,40,137,8111121,,,,,,,2023-10-03,1,,,,,オカエリ,0
502,2310001018636,新規,0,2023-10-03,2023-10-03,株式会社颯真,,株式会社,長崎県,長崎市,西海町１１３２番地１４,,42,201,8513101,,,,,,,2023-10-03,1,,,,,ソウシン,0
503,2310001018644,新規,0,2023-10-03,2023-10-03,安永石工業株式会社,,株式会社,長崎県,島原市,立野町丙１７２３番地２,,42,203,8550025,,,,,,,2023-10-03,1,,,,,,0
504,2310005008716,新規,0,2023-10-03,2023-10-03,医療法人明幸会,,その他の設立登記法人,長崎県,長崎市,浜町３番２０号浜町くまビル４階,,42,201,8500853,,,,,,,2023-10-03,1,,,,,メイコウカイ,0
507,2330003010003,新規,0,2023-10-03,2023-10-03,合同会社アースフル,,合同会社,熊本県,山鹿市,山鹿４３８番地,,43,208,8610501,,,,,,,2023-10-03,1,,,,,アースフル,0
511,2360001032616,新規,0,2023-10-03,2023-10-03,沖翔株式会社,,株式会社,沖縄県,浦添市,港川１丁目１９番９号１Ｆ,,47,208,9012134,,,,,,,2023-10-03,1,,,,,オキショウ,0
522,2390003002143,新規,0,2023-10-03,2023-10-03,合同会社まごころ,,合同会社,山形県,山形市,旅篭町１丁目１２－２１,,06,201,9900047,,,,,,,2023-10-03,1,,,,,マゴコロ,0
537,2480001012234,新規,0,2023-10-03,2023-10-03,株式会社ミニチュアイメージ,,株式会社,徳島県,徳島市,名東町３丁目１番地の２,,36,201,7700047,,,,,,,2023-10-03,1,,,,,ミニチュアイメージ,0
543,2500001025225,新規,0,2023-10-03,2023-10-03,株式会社Ｋｉｒａｋｕｙａ,,株式会社,愛媛県,松山市,二番町２丁目４番１号１Ｆ,,38,201,7900002,,,,,,,2023-10-03,1,,,,,キラクヤ,0
545,2700150118767,新規,0,2023-10-03,2023-10-03,ＬＡＳＴＰＡＳＳ　ＩＲＥＬＡＮＤ　ＬＩＭＩＴＥＤ,,外国会社等,,,,,,,,Ｔｈｅ　Ｒｅｆｌｅｃｔｏｒ，１０　Ｈａｎｏｖｅｒ　Ｑｕａｙ，Ｄ０２Ｒ５７３，Ｉｒｅｌａｎｄ,,,,,,2023-10-03,1,,,,,ラストパスアイルランドリミテツド,0
546,2700150119138,新規,0,2023-10-03,2023-10-03,Ｈａｎｇｚｈｏｕ　ＷｕＦｅｉ　ＦｕＳｈｉ　Ｙｏｕ　Ｘｉａｎ　Ｇｏｎｇ　Ｓｉ,,外国会社等,,,,,,,,ＪｉｕＨｕａ　Ｒｏａｄ　Ｎｏ．２，Ｊｉａｎｇｇａｎ　Ｄｉｓｔｒｉｃｔ　ＨａｎｇＺｈｏｕ　ＢｕｉＩｄｉｎｇ６，Ｒｏｏｍ３１５　ＨａｎｇＺｈｏｕ　ＺｈｅＪｉａｎｇ　３１００００　ＣＮ,,,,,,2023-10-03,1,,,,,ハンジヨウフエミニンフクソウユウゲンコウシ,0
560,3010001238858,新規,0,2023-10-03,2023-10-03,株式会社Ｗｉｓｅｌｉｎｋ　Ｊａｐａｎ,,株式会社,東京都,千代田区,神田須田町１丁目２番地７淡路町駅前ビル３階,,13,101,1010041,,,,,,,2023-10-03,1,,,,,ワイスリンクジャパン,0
562,3010003041756,新規,0,2023-10-03,2023-10-03,ＭＳＳＫ合同会社,,合同会社,東京都,文京区,本駒込５丁目１９－２－３０３,,13,105,1130021,,,,,,,2023-10-03,1,,,,,エムエスエスケー,0
563,3010003041806,新規,0,2023-10-03,2023-10-03,ＭＢＫＰ　ＧＭ合同会社,,合同会社,東京都,千代田区,永田町２丁目１０番３号,,13,101,1000014,,,,,,,2023-10-03,1,,,,,エムビーケーピージーエム,0
564,3010003041822,新規,0,2023-10-03,2023-10-03,合同会社フリーミー,,合同会社,東京都,中央区,銀座１丁目２２－１１銀座大竹ビジデンス２Ｆ,,13,102,1040061,,,,,,,2023-10-03,1,,,,,フリーミー,0
571,3010401177516,新規,0,2023-10-03,2023-10-03,ＧＣＪＧ３３株式会社,,株式会社,東京都,港区,元赤坂１丁目１番８号株式会社赤坂国際会計内,,13,103,1070051,,,,,,,2023-10-03,1,,,,,ジーシージェイジーサーティースリー,0
575,3010601063887,新規,0,2023-10-03,2023-10-03,株式会社千成,,株式会社,東京都,江東区,豊洲３丁目４番１－３００９号,,13,108,1350061,,,,,,,2023-10-03,1,,,,,センナリ,0
581,3010903008482,新規,0,2023-10-03,2023-10-03,合同会社エイムックコンサルティング,,合同会社,東京都,世田谷区,経堂２丁目２４番４号,,13,112,1560052,,,,,,,2023-10-03,1,,,,,エイムックコンサルティング,0
584,3011003017639,新規,0,2023-10-03,2023-10-03,藤野合同会社,,合同会社,東京都,目黒区,柿の木坂１丁目２４番２３号,,13,110,1520022,,,,,,,2023-10-03,1,,,,,フジノ,0
592,3011401025490,新規,0,2023-10-03,2023-10-03,株式会社エムアンドケイ,,株式会社,東京都,板橋区,仲町３０－１－１０５,,13,119,1730022,,,,,,,2023-10-03,1,,,,,エムアンドケイ,0
595,3011601027155,新規,0,2023-10-03,2023-10-03,株式会社ジェイアイエヌビルド,,株式会社,東京都,練馬区,光が丘３丁目３番１－１４０２号,,13,120,1790072,,,,,,,2023-10-03,1,,,,,ジェイアイエヌビルド,0
597,3011701026627,新規,0,2023-10-03,2023-10-03,株式会社ダバダ,,株式会社,東京都,江戸川区,北小岩１丁目１３番１３号,,13,123,1330051,,,,,,,2023-10-03,1,,,,,ダバダ,0
598,3011701026635,新規,0,2023-10-03,2023-10-03,株式会社ＭＯ‐ＴＯ,,株式会社,東京都,江戸川区,松江２丁目１９番１８号,,13,123,1320025,,,,,,,2023-10-03,1,,,,,モート,0
599,3011801043101,新規,0,2023-10-03,2023-10-03,株式会社尚苑,,株式会社,東京都,葛飾区,鎌倉２丁目６番１号,,13,122,1250053,,,,,,,2023-10-03,1,,,,,ショウエン,0
601,3012305002064,新規,0,2023-10-03,2023-10-03,フレッシュタウン鶴川団地管理組合法人,,その他の設立登記法人,東京都,町田市,広袴２丁目１０番９号,,13,209,1950056,,,,,,,2023-10-03,1,,,,,,0
603,3012401041065,新規,0,2023-10-03,2023-10-03,三栄ビル東京株式会社,,株式会社,東京都,武蔵野市,吉祥寺本町４丁目１５番１２号,,13,203,1800004,,,,,,,2023-10-03,1,,,,,サンエイビルトウキョウ,0
606,3012803003200,新規,0,2023-10-03,2023-10-03,ミトス合同会社,,合同会社,東京都,日野市,落川６００－１０５,,13,212,1910034,,,,,,,2023-10-03,1,,,,,ミトス,0
607,3012805003231,新規,0,2023-10-03,2023-10-03,医療法人社団ＫＡＺ,,その他の設立登記法人,東京都,立川市,錦町１丁目４番３号、１階,,13,202,1900022,,,,,,,2023-10-03,1,,,,,カズ,0
610,3013303006800,新規,0,2023-10-03,2023-10-03,合同会社盛＿,00132109,合同会社,東京都,豊島区,巣鴨４丁目５番１７号,,13,116,1700002,,,,,,,2023-10-03,1,,,,,セイキン,0
622,3020001153395,新規,0,2023-10-03,2023-10-03,プレシジョンイメージング株式会社,,株式会社,神奈川県,横浜市西区,みなとみらい５丁目３番３－２４０７号,,14,103,2200012,,,,,,,2023-10-03,1,,,,,プレシジョンイメージング,0
623,3020001153726,新規,0,2023-10-03,2023-10-03,ＭＤ株式会社,,株式会社,神奈川県,横浜市中区,初音町１丁目２－１６－１階,,14,104,2310053,,,,,,,2023-10-03,1,,,,,エムディー,0
624,3020001153734,新規,0,2023-10-03,2023-10-03,株式会社アルファレーザー,,株式会社,神奈川県,横浜市港北区,新羽町１９７４番地３,,14,109,2230057,,,,,,,2023-10-03,1,,,,,アルファレーザー,0
625,3020001153742,新規,0,2023-10-03,2023-10-03,ＡＯＢＡ　ＥＮＥＲＧＹ株式会社,,株式会社,神奈川県,横浜市青葉区,恩田町１１６５番地９８,,14,117,2270065,,,,,,,2023-10-03,1,,,,,アオバエナジー,0
626,3020001153759,新規,0,2023-10-03,2023-10-03,療育サポート株式会社,,株式会社,神奈川県,横浜市西区,久保町２２番１７－２号,,14,103,2200061,,,,,,,2023-10-03,1,,,,,,0
627,3020003024669,新規,0,2023-10-03,2023-10-03,Ｃｒｅａｔｉｖｅ　Ｉｎｓｉｇｈｔ合同会社,,合同会社,神奈川県,川崎市麻生区,王禅寺西３丁目１２‐８‐１,,14,137,2150017,,,,,,,2023-10-03,1,,,,,クリエイティブインサイト,0
628,3020003024677,新規,0,2023-10-03,2023-10-03,合同会社ＧＭサポート,,合同会社,神奈川県,横浜市鶴見区,獅子ケ谷２丁目３２番４８－５０３号,,14,101,2300073,,,,,,,2023-10-03,1,,,,,ジーエムサポート,0
629,3020003024693,新規,0,2023-10-03,2023-10-03,合同会社ｒｏｏｔｓ　ｉｎ　ｆｉｅｌｄ,,合同会社,神奈川県,川崎市宮前区,東有馬５丁目８―１,,14,136,2160002,,,,,,,2023-10-03,1,,,,,ルーツインフィールド,0
631,3021001080282,新規,0,2023-10-03,2023-10-03,株式会社ＤＣ,,株式会社,神奈川県,藤沢市,亀井野３丁目３０番地の６,,14,205,2520813,,,,,,,2023-10-03,1,,,,,ディーシー,0
633,3021003013620,新規,0,2023-10-03,2023-10-03,クリプラ合同会社,,合同会社,神奈川県,厚木市,妻田北３丁目１１番３－２号,,14,212,2430812,,,,,,,2023-10-03,1,,,,,クリプラ,0
636,3030001156265,新規,0,2023-10-03,2023-10-03,株式会社ＮＥＯｉｓｔ,,株式会社,埼玉県,八潮市,大字大瀬１５３０番地１,,11,234,3400822,,,,,,,2023-10-03,1,,,,,ネオイスト,0
637,3030001156364,新規,0,2023-10-03,2023-10-03,さくらふと株式会社,,株式会社,埼玉県,加須市,愛宕１丁目２番１４号,,11,210,3470057,,,,,,,2023-10-03,1,,,,,サクラフト,0
638,3030001156380,新規,0,2023-10-03,2023-10-03,株式会社Ｓｔａｒ　Ｈｏｌｄｉｎｇｓ,,株式会社,埼玉県,戸田市,美女木１丁目２番地の１３レガーレ３０３号室,,11,224,3350031,,,,,,,2023-10-03,1,,,,,スターホールディングス,0
639,3030001156389,新規,0,2023-10-03,2023-10-03,株式会社つるかめ会計コンサルティング,,株式会社,埼玉県,戸田市,南町１１番２９－２１４号,,11,224,3350025,,,,,,,2023-10-03,1,,,,,ツルカメカイケイコンサルティング,0
647,3030003022523,新規,0,2023-10-03,2023-10-03,レポートプラスアルファ合同会社,,合同会社,埼玉県,春日部市,大沼１丁目４３番地Ａ棟５０４号,,11,214,3440038,,,,,,,2023-10-03,1,,,,,レポートプラスアルファ,0
652,3040001130293,新規,0,2023-10-03,2023-10-03,豊兆株式会社,,株式会社,千葉県,市川市,相之川３丁目９－１６モンテローザＮ２０２号室,,12,203,2720143,,,,,,,2023-10-03,1,,,,,ホウチョウ,0
656,3050001053527,新規,0,2023-10-03,2023-10-03,株式会社ひたち野,,株式会社,茨城県,牛久市,ひたち野西３丁目２６番７号,,08,219,3001206,,,,,,,2023-10-03,1,,,,,ヒタチノ,0
660,3060001036381,新規,0,2023-10-03,2023-10-03,エムケーオーダー株式会社,,株式会社,栃木県,栃木市,片柳町１丁目１０番１３号,,09,203,3280053,,,,,,,2023-10-03,1,,,,,エムケーオーダー,0
664,3080001025886,新規,0,2023-10-03,2023-10-03,株式会社山創,,株式会社,静岡県,静岡市清水区,袖師町６００番地の８,,22,103,4240037,,,,,,,2023-10-03,1,,,,,ヤマソウ,0
665,3080001025894,新規,0,2023-10-03,2023-10-03,ＩＤＭ株式会社,,株式会社,静岡県,静岡市葵区,紺屋町６－６ミツヒサ紺屋町ビル１Ｆ,,22,101,4200852,,,,,,,2023-10-03,1,,,,,アイディーエム,0
667,3080101024243,新規,0,2023-10-03,2023-10-03,株式会社鈴和製作所,,株式会社,静岡県,伊豆市,下船原４７番地,,22,222,4103214,,,,,,,2023-10-03,1,,,,,スズワセイサクショ,0
668,3080401026765,新規,0,2023-10-03,2023-10-03,株式会社コスギテック,,株式会社,静岡県,浜松市浜北区,寺島１５１０番地の１０,,22,136,4340035,,,,,,,2023-10-03,1,,,,,コスギテック,0
679,3120001258481,新規,0,2023-10-03,2023-10-03,株式会社Ａ‐ＳＴＡＲ,,株式会社,大阪府,門真市,桑才新町２７番１５号,,27,223,5710043,,,,,,,2023-10-03,1,,,,,エースター,0
680,3120001258498,新規,0,2023-10-03,2023-10-03,株式会社ＬＩＦＥ．,,株式会社,大阪府,大阪市中央区,北浜２丁目２番２１－１８０５号,,27,128,5410041,,,,,,,2023-10-03,1,,,,,ライフ,0
681,3120001258556,新規,0,2023-10-03,2023-10-03,大盛株式会社,,株式会社,大阪府,大阪市北区,中崎西４丁目３番９－６０７号,,27,127,5300015,,,,,,,2023-10-03,1,,,,,ダイショウ,0
686,3120003024997,新規,0,2023-10-03,2023-10-03,合同会社Ｗ‐ＮＥＸＴ,,合同会社,大阪府,大阪市北区,梅田１丁目１番３号大阪駅前第３ビル２９階１－１－１号室,,27,127,5300001,,,,,,,2023-10-03,1,,,,,ダブルネクスト,0
687,3120005023907,新規,0,2023-10-03,2023-10-03,一般社団法人日本毛髪診断士協会,,その他の設立登記法人,大阪府,大阪市西区,南堀江１丁目１６番９号,,27,106,5500015,,,,,,,2023-10-03,1,,,,,ニホンモウハツシンダンシキョウカイ,0
688,3120101068302,新規,0,2023-10-03,2023-10-03,株式会社ＡＬＬＩＥＳ,,株式会社,大阪府,堺市西区,山田１丁１４番地６,,27,144,5938316,,,,,,,2023-10-03,1,,,,,アライズ,0
692,3122003002685,新規,0,2023-10-03,2023-10-03,合同会社Ｒｅｓｈｉｎｅ,,合同会社,大阪府,東大阪市,日下町２丁目８番４５号,,27,227,5798003,,,,,,,2023-10-03,1,,,,,リシャイン,0
695,3130001075331,新規,0,2023-10-03,2023-10-03,Ｇｏｌｄ　Ａｒｔ　Ｋｙｏｔｏ株式会社,,株式会社,京都府,京都市上京区,浄福寺通寺之内下る大黒町７２８番地２,,26,102,6028482,,,,,,,2023-10-03,1,,,,,ゴールドアートキョウト,0
696,3130001075389,新規,0,2023-10-03,2023-10-03,株式会社Ｈａｃｈｉ,,株式会社,京都府,京都市下京区,真苧屋町２１７番地京都駅前第八ビル２階,,26,106,6008211,,,,,,,2023-10-03,1,,,,,ハチ,0
700,3130005016892,新規,0,2023-10-03,2023-10-03,一般社団法人京都ｅスポーツ協会,,その他の設立登記法人,京都府,京都市中京区,錦小路通室町西入天神山町２８０番地石勘ビル４Ｆ,,26,104,6048221,,,,,,,2023-10-03,1,,,,,キョウトイースポーツキョウカイ,0
704,3140001131802,新規,0,2023-10-03,2023-10-03,株式会社ＫＲＭコンサルティング,,株式会社,兵庫県,尼崎市,南塚口町２丁目２９番１１－１号,,28,202,6610012,,,,,,,2023-10-03,1,,,,,ケイアールエムコンサルティング,0
706,3150001026745,新規,0,2023-10-03,2023-10-03,北陽燃料株式会社,,株式会社,奈良県,生駒市,北田原町２０４６番地,,29,209,6300142,,,,,,,2023-10-03,1,,,,,ホクヨウネンリョウ,0
707,3160003002999,新規,0,2023-10-03,2023-10-03,福祥合同会社,,合同会社,滋賀県,高島市,今津町名小路１丁目６番地８,,25,212,5201631,,,,,,,2023-10-03,1,,,,,フクショウ,0
714,3180001158255,新規,0,2023-10-03,2023-10-03,株式会社ライジング,,株式会社,愛知県,名古屋市熱田区,新尾頭１丁目６番１０号８０３号,,23,109,4560018,,,,,,,2023-10-03,1,,,,,ライジング,0
721,3190001030768,新規,0,2023-10-03,2023-10-03,株式会社スミナス,,株式会社,三重県,亀山市,東御幸町１２０番地１０第２亀山プラザビル１階,,24,210,5190124,,,,,,,2023-10-03,1,,,,,スミナス,0
723,3190003004456,新規,0,2023-10-03,2023-10-03,ＲＭＹ合同会社,,合同会社,三重県,亀山市,南鹿島町６－１５,,24,210,5190114,,,,,,,2023-10-03,1,,,,,アールエムワイ,0
728,3240001062178,新規,0,2023-10-03,2023-10-03,株式会社ＭＯＭＯ,,株式会社,広島県,広島市東区,牛田本町６丁目１番２１－１４０２号,,34,102,7320066,,,,,,,2023-10-03,1,,,,,モモ,0
731,3240003006348,新規,0,2023-10-03,2023-10-03,合同会社プリメイドラボ,,合同会社,広島県,広島市中区,白島北町１１－１２,,34,101,7300001,,,,,,,2023-10-03,1,,,,,プリメイドラボ,0
738,3290001103209,新規,0,2023-10-03,2023-10-03,株式会社ＺＯＯＵ,,株式会社,福岡県,福岡市中央区,六本松１丁目２番３－２０５号,,40,133,8100044,,,,,,,2023-10-03,1,,,,,ゾウ,0
739,3290003014429,新規,0,2023-10-03,2023-10-03,ＳＥＢＭ　ＩＶ合同会社,,合同会社,福岡県,福岡市早良区,百道浜２丁目４番２７号ＡＩビル６Ｆ,,40,137,8140001,,,,,,,2023-10-03,1,,,,,エスイービーエムフォー,0
742,3290801029917,新規,0,2023-10-03,2023-10-03,株式会社サウス,,株式会社,福岡県,北九州市小倉南区,貫弥生が丘２丁目９番３５号,,40,107,8000234,,,,,,,2023-10-03,1,,,,,サウス,0
743,3290801029925,新規,0,2023-10-03,2023-10-03,株式会社ｉｄｉｏｍ,,株式会社,福岡県,北九州市門司区,社ノ木１丁目１６番１８号,,40,101,8000054,,,,,,,2023-10-03,1,,,,,イディオム,0
744,3310001018635,新規,0,2023-10-03,2023-10-03,株式会社ＳＲＣ,,株式会社,長崎県,西彼杵郡長与町,嬉里郷４８０番地３満本ビル１Ｆ　Ａ,,42,307,8512128,,,,,,,2023-10-03,1,,,,,エスアールシー,0
746,3310005008715,新規,0,2023-10-03,2023-10-03,医療法人中田クリニック,,その他の設立登記法人,長崎県,大村市,古賀島町３６８番地１,,42,205,8560817,,,,,,,2023-10-03,1,,,,,ナカタクリニック,0
748,3320003004186,新規,0,2023-10-03,2023-10-03,合同会社有真,,合同会社,大分県,別府市,大字北石垣１５０７番地の２,,44,202,8740000,,,,,,,2023-10-03,1,,,,,ユウシン,0
749,3330001031306,新規,0,2023-10-03,2023-10-03,株式会社日の出,,株式会社,熊本県,菊池市,隈府６１９番地４,,43,210,8611331,,,,,,,2023-10-03,1,,,,,ヒノデ,0
753,3340001025934,新規,0,2023-10-03,2023-10-03,ＪＦＰ株式会社,,株式会社,鹿児島県,出水市,野田町下名２５７９番地５,,46,208,8990502,,,,,,,2023-10-03,1,,,,,ジェイエフピー,0
754,3340001025942,新規,0,2023-10-03,2023-10-03,ＭＭメンテナンス株式会社,,株式会社,鹿児島県,鹿児島市,慈眼寺町２１番２３号－１０１号室,,46,201,8910146,,,,,,,2023-10-03,1,,,,,エムエムメンテナンス,0
756,3340003004267,新規,0,2023-10-03,2023-10-03,グッドライフ合同会社,,合同会社,鹿児島県,指宿市,西方４６８４番地９,,46,210,8910311,,,,,,,2023-10-03,1,,,,,グッドライフ,0
762,3370001050459,新規,0,2023-10-03,2023-10-03,株式会社ＥＶＥＲＲＩＳＥ,,株式会社,宮城県,大崎市,古川李埣２丁目２番３６号サンライフＢ棟,,04,215,9896116,,,,,,,2023-10-03,1,,,,,エバーライズ,0
765,3380001034015,新規,0,2023-10-03,2023-10-03,株式会社トアルヒ,,株式会社,福島県,須賀川市,広表４６番地,,07,207,9620826,,,,,,,2023-10-03,1,,,,,トアルヒ,0
775,3430003015486,新規,0,2023-10-03,2023-10-03,合同会社ＫＧｉ,,合同会社,北海道,札幌市中央区,南十条西１３丁目３－２９イーホライズン伏見４０３号,,01,101,0640810,,,,,,,2023-10-03,1,,,,,ケージーアイ,0
779,3490001010599,新規,0,2023-10-03,2023-10-03,株式会社ＢＬＵＥ　ＲＩＴＺ,,株式会社,高知県,高知市,廿代町５番１号ウインズエステートビル１階,,39,201,7800843,,,,,,,2023-10-03,1,,,,,ブルーリッツ,0
781,3500003003112,新規,0,2023-10-03,2023-10-03,愛媛ドローンサービス合同会社,,合同会社,愛媛県,松山市,久米窪田町３３７―１テクノプラザ愛媛本館内,,38,201,7911101,,,,,,,2023-10-03,1,,,,,エヒメドローンサービス,0
782,3700150042495,新規,0,2023-10-03,2015-10-09,労働保険事務組合　企業文化センター,,その他,愛知県,名古屋市天白区,原５丁目１１０４コーポはらた３０６号,,23,116,4680015,,,,,,,2015-10-09,1,,,,,ロウドウホケンジムクミアイキギヨウブンカセンター,0
783,3700150120961,新規,0,2023-10-03,2023-10-03,Ｍａｈｅｓｈｗｏｒｉ　Ｃｏｓｍｅｔｉｃ　ａｎｄ　Ｆａｎｃｙ　Ｓｈｏｐ,,外国会社等,栃木県,栃木市,岩舟町新里１３０４番地３６号室,,09,203,3294316,ダパシ自治体第８区、カトマンズ、ネパール,,,,,,2023-10-03,1,,,,,マヘソリコスメテイツクアンドフアンシーシヨツプ,0
799,4010001238881,新規,0,2023-10-03,2023-10-03,株式会社ＴＹＦ,,株式会社,東京都,中央区,銀座１丁目１２番４号Ｎ＆ＥＢＬＤ．６Ｆ,,13,102,1040061,,,,,,,2023-10-03,1,,,,,ティーワイエフ,0
804,4010401177481,新規,0,2023-10-03,2023-10-03,株式会社ＨＡＳＴＲＩＢＥ,,株式会社,東京都,港区,六本木１丁目４－５アークヒルズサウスタワー１６Ｆ,,13,103,1060032,,,,,,,2023-10-03,1,,,,,ハストライブ,0
813,4010501051149,新規,0,2023-10-03,2023-10-03,株式会社Ｏ‐ＳＫ,,株式会社,東京都,台東区,上野２丁目１１番８号,,13,106,1100005,,,,,,,2023-10-03,1,,,,,オーエスケー,0
815,4010601063886,新規,0,2023-10-03,2023-10-03,スイム株式会社,,株式会社,東京都,墨田区,向島３丁目５番１０－２０５号,,13,107,1310033,,,,,,,2023-10-03,1,,,,,スイム,0
816,4010701044927,新規,0,2023-10-03,2023-10-03,ＡＸＩＳ株式会社,,株式会社,東京都,品川区,東五反田２丁目１０番２号東五反田スクエア６Ｆ,,13,109,1410022,,,,,,,2023-10-03,1,,,,,アクシス,0
829,4011101104569,新規,0,2023-10-03,2023-10-03,株式会社サトリ,,株式会社,東京都,新宿区,榎町３４－３榎町ビル５階－０２室,,13,104,1620806,,,,,,,2023-10-03,1,,,,,サトリ,0
830,4011101104577,新規,0,2023-10-03,2023-10-03,株式会社Ｚ１,,株式会社,東京都,新宿区,新宿１丁目２７－４Ｈｅｒｏｅｓ２０２号室,,13,104,1600022,,,,,,,2023-10-03,1,,,,,ゼットワン,0
831,4011101104585,新規,0,2023-10-03,2023-10-03,株式会社幕の内企画,,株式会社,東京都,新宿区,西新宿３丁目３番１３号西新宿水間ビル６階,,13,104,1600023,,,,,,,2023-10-03,1,,,,,マクノウチキカク,0
832,4011101104602,新規,0,2023-10-03,2023-10-03,株式会社グリーンベア,,株式会社,東京都,新宿区,西新宿３丁目３番１３号西新宿水間ビル２Ｆ,,13,104,1600023,,,,,,,2023-10-03,1,,,,,グリーンベア,0
833,4011103013545,新規,0,2023-10-03,2023-10-03,合同会社ＹｏｕＭｅ共立,,合同会社,東京都,新宿区,西早稲田２丁目１９番９号,,13,104,1690051,,,,,,,2023-10-03,1,,,,,ユメキョウリツ,0
834,4011103013553,新規,0,2023-10-03,2023-10-03,ＷＨＩＳＭＲ合同会社,,合同会社,東京都,新宿区,西新宿３丁目３番１３号西新宿水間ビル６階,,13,104,1600023,,,,,,,2023-10-03,1,,,,,ウイスマー,0
836,4011701026626,新規,0,2023-10-03,2023-10-03,株式会社ＨＡＮＯＲＵＫＡ,,株式会社,東京都,江戸川区,大杉１丁目１８－１,,13,123,1320022,,,,,,,2023-10-03,1,,,,,ハノルカ,0
837,4011703003615,新規,0,2023-10-03,2023-10-03,合同会社永田企画,,合同会社,東京都,江戸川区,中央４丁目１番７―７０１号サンサーラ新小岩,,13,123,1320021,,,,,,,2023-10-03,1,,,,,ナガタキカク,0
839,4011801043100,新規,0,2023-10-03,2023-10-03,株式会社秀栄興業,,株式会社,東京都,足立区,六月１丁目１４番１８－１０６号,,13,121,1210814,,,,,,,2023-10-03,1,,,,,シュウエイコウギョウ,0
840,4011801043109,新規,0,2023-10-03,2023-10-03,株式会社ＴＡＩＴＯ　ｐｌｕｓ,,株式会社,東京都,足立区,綾瀬２丁目３３番９号－Ｕ２０２,,13,121,1200005,,,,,,,2023-10-03,1,,,,,タイトプラス,0
843,4012701017862,新規,0,2023-10-03,2023-10-03,株式会社４Ｃ　Ｇｒｏｕｐ,,株式会社,東京都,西東京市,住吉町３丁目１７番１３－４号,,13,229,2020005,,,,,,,2023-10-03,1,,,,,ヨシグループ,0
847,4012803003199,新規,0,2023-10-03,2023-10-03,ＦＩＶＥ　ＴＡＰＰ合同会社,,合同会社,東京都,昭島市,拝島町４丁目１９番１１号,,13,207,1960002,,,,,,,2023-10-03,1,,,,,ファイブタップ,0
852,4013301051401,新規,0,2023-10-03,2023-10-03,ＷＥＢマーケティングスクール株式会社,,株式会社,東京都,豊島区,上池袋２丁目４４番６号第２コミヤビリーフ３０１号,,13,116,1700012,,,,,,,2023-10-03,1,,,,,ウェブマーケティングスクール,0
864,4020001153733,新規,0,2023-10-03,2023-10-03,株式会社碧,,株式会社,神奈川県,横浜市神奈川区,三ツ沢西町１１番２８号,,14,102,2210855,,,,,,,2023-10-03,1,,,,,アオイ,0
865,4020001153741,新規,0,2023-10-03,2023-10-03,株式会社ＳＴサービス,,株式会社,神奈川県,横浜市保土ケ谷区,仏向西１４番６号,,14,106,2400046,,,,,,,2023-10-03,1,,,,,エスティーサービス,0
868,4020003024684,新規,0,2023-10-03,2023-10-03,合同会社ＳＭＢＲ,,合同会社,神奈川県,川崎市幸区,南加瀬１丁目１０－３９,,14,132,2120055,,,,,,,2023-10-03,1,,,,,エスエムビーアール,0
873,4021003013628,新規,0,2023-10-03,2023-10-03,合同会社ＢＯＬＤＥＮ,,合同会社,神奈川県,秦野市,平沢５０番地の５ハイツ松の下２０２号,,14,211,2570015,,,,,,,2023-10-03,1,,,,,ボルデン,0
874,4021003013636,新規,0,2023-10-03,2023-10-03,合同会社ＭＡＲ,,合同会社,神奈川県,足柄下郡箱根町,湯本茶屋２５番地,,14,382,2500312,,,,,,,2023-10-03,1,,,,,,0
877,4030001156231,新規,0,2023-10-03,2023-10-03,株式会社日本レイキセラピスト協会,,株式会社,埼玉県,越谷市,花田２丁目７番地３４,,11,222,3430015,,,,,,,2023-10-03,1,,,,,ニホンレイキセラピストキョウカイ,0
878,4030001156297,新規,0,2023-10-03,2023-10-03,カティキア株式会社,,株式会社,埼玉県,さいたま市北区,本郷町１１３番地,,11,102,3310802,,,,,,,2023-10-03,1,,,,,カティキア,0
879,4030001156347,新規,0,2023-10-03,2023-10-03,株式会社叶恵建設,,株式会社,埼玉県,川口市,大字安行原１６５１番地の１０,,11,203,3340057,,,,,,,2023-10-03,1,,,,,カナエケンセツ,0
880,4030001156355,新規,0,2023-10-03,2023-10-03,ＫＧＫ化学株式会社,,株式会社,埼玉県,さいたま市浦和区,領家７丁目２８番２－１０３号,,11,107,3300072,,,,,,,2023-10-03,1,,,,,ケージーケーカガク,0
881,4030001156396,新規,0,2023-10-03,2023-10-03,株式会社ＳＯＡＲＩＮＧ,,株式会社,埼玉県,川越市,中台南２丁目１７番地４,,11,201,3501150,,,,,,,2023-10-03,1,,,,,ソアリン,0
882,4030001156479,新規,0,2023-10-03,2023-10-03,株式会社Ｎｅｗ　Ｌｉｆｅ,,株式会社,埼玉県,吉川市,平沼１丁目１５番地７,,11,243,3420056,,,,,,,2023-10-03,1,,,,,ニューライフ,0
885,4030003022704,新規,0,2023-10-03,2023-10-03,ＡｑｕａＦｏｎｓ合同会社,,合同会社,埼玉県,上尾市,栄町２番２０号,,11,219,3620033,,,,,,,2023-10-03,1,,,,,アクアフォンツ,0
886,4030003022712,新規,0,2023-10-03,2023-10-03,Ｐｒｏｆｏｎｄ合同会社,,合同会社,埼玉県,北葛飾郡杉戸町,大字茨島９００―２コットンハウスＡ１０５,,11,464,3450041,,,,,,,2023-10-03,1,,,,,プロフォン,0
890,4040001130284,新規,0,2023-10-03,2023-10-03,株式会社京都コーポレーション,,株式会社,千葉県,千葉市若葉区,高根町８７８番地６,,12,104,2650061,,,,,,,2023-10-03,1,,,,,キョウトコーポレーション,0
891,4040001130292,新規,0,2023-10-03,2023-10-03,株式会社ディアスポラスペース,,株式会社,千葉県,千葉市若葉区,若松町４１６番地１５６,,12,104,2640021,,,,,,,2023-10-03,1,,,,,ディアスポラスペース,0
894,4040003023387,新規,0,2023-10-03,2023-10-03,合同会社ＫＭＦ,,合同会社,千葉県,流山市,おおたかの森北３丁目２８―２１,,12,220,2700119,,,,,,,2023-10-03,1,,,,,ケーエムエフ,0
895,4040005022131,新規,0,2023-10-03,2023-10-03,一般社団法人グローバルＥｄＴｅｃｈ推進委員会,,その他の設立登記法人,千葉県,浦安市,富岡３丁目１番１－５０８号,,12,227,2790021,,,,,,,2023-10-03,1,,,,,グローバルエドテックスイシンイインカイ,0
905,4070001040919,新規,0,2023-10-03,2023-10-03,株式会社船興,,株式会社,群馬県,太田市,新田赤堀町４０７番地１,,10,205,3700331,,,,,,,2023-10-03,1,,,,,フナコウ,0
907,4080001025885,新規,0,2023-10-03,2023-10-03,松林工務店株式会社,,株式会社,静岡県,静岡市葵区,長沼３丁目９番２０号,,22,101,4200813,,,,,,,2023-10-03,1,,,,,マツバヤシコウムテン,0
911,4080401026764,新規,0,2023-10-03,2023-10-03,ＳｐａｃｅＲａｂｂｉｔ株式会社,,株式会社,静岡県,浜松市南区,卸本町２８番地ＧＳビル２階,,22,134,4328055,,,,,,,2023-10-03,1,,,,,スペースラビット,0
913,4100001036814,新規,0,2023-10-03,2023-10-03,ＭＧ株式会社,,株式会社,長野県,長野市,柳町６９番地１柳町レジデンス２Ａ,,20,201,3800805,,,,,,,2023-10-03,1,,,,,エムジー,0
924,4120001258340,新規,0,2023-10-03,2023-10-03,晶和貿易株式会社,,株式会社,大阪府,大阪市淀川区,宮原１丁目１９－２３ステュディオ新御堂１０１７号室,,27,123,5320003,,,,,,,2023-10-03,1,,,,,ショウワボウエキ,0
925,4120001258431,新規,0,2023-10-03,2023-10-03,海渡株式会社,,株式会社,大阪府,大阪市福島区,福島８丁目１６－１５ロイヤルプラザ福島３０２号室,,27,103,5530003,,,,,,,2023-10-03,1,,,,,カイト,0
926,4120001258480,新規,0,2023-10-03,2023-10-03,株式会社Ｋ．Ｋコンサルティング,,株式会社,大阪府,大阪市中央区,徳井町２丁目４番７号Ｍ，ｈｉｌｌｓ本町東８０１,,27,128,5400025,,,,,,,2023-10-03,1,,,,,ケーケーコンサルティング,0
927,4120001258497,新規,0,2023-10-03,2023-10-03,株式会社シトラス,,株式会社,大阪府,大阪市港区,市岡３丁目８番１４号－３０１,,27,107,5520012,,,,,,,2023-10-03,1,,,,,シトラス,0
928,4120001258506,新規,0,2023-10-03,2023-10-03,株式会社Ｐｅａｃｅ,,株式会社,大阪府,大阪市東成区,玉津１丁目２番７号ＬａＬｕｃｅ長堀通２０３号,,27,115,5370023,,,,,,,2023-10-03,1,,,,,ピース,0
934,4120003025004,新規,0,2023-10-03,2023-10-03,合同会社Ｃｉｒｃｌｅ　Ｆｉｎｅ,,合同会社,大阪府,大阪市北区,梅田２丁目５番１３号桜橋第一ビル３０４号,,27,127,5300001,,,,,,,2023-10-03,1,,,,,サークルファイン,0
936,4120101068318,新規,0,2023-10-03,2023-10-03,株式会社キーエスト,,株式会社,大阪府,和泉市,光明台２丁目２５番４－２号,,27,219,5941111,,,,,,,2023-10-03,1,,,,,キーエスト,0
938,4120901048097,新規,0,2023-10-03,2023-10-03,勝鬨株式会社,,株式会社,大阪府,豊中市,本町１丁目４番３号,,27,203,5600021,,,,,,,2023-10-03,1,,,,,カチドキ,0
947,4140001131784,新規,0,2023-10-03,2023-10-03,株式会社縁,,株式会社,兵庫県,明石市,藤江１４７０番地の１、７０２号,,28,203,6730044,,,,,,,2023-10-03,1,,,,,エニシ,0
948,4140001131826,新規,0,2023-10-03,2023-10-03,株式会社西口組,,株式会社,兵庫県,神戸市須磨区,多井畑字筋替道１７番地の５,,28,107,6540133,,,,,,,2023-10-03,1,,,,,ニシグチグミ,0
952,4160001025381,新規,0,2023-10-03,2023-10-03,株式会社ＯＭＩ,,株式会社,滋賀県,近江八幡市,武佐町６７１番地２－２０３,,25,204,5230012,,,,,,,2023-10-03,1,,,,,オーエムアイ,0
959,4180001158238,新規,0,2023-10-03,2023-10-03,株式会社ＧＲＯＯＫ,,株式会社,愛知県,清須市,春日落合１６０番地２,,23,233,4520961,,,,,,,2023-10-03,1,,,,,グルーク,0
960,4180001158262,新規,0,2023-10-03,2023-10-03,株式会社ＴＡ技研,,株式会社,愛知県,名古屋市昭和区,御器所４丁目７番１号－１,,23,107,4660051,,,,,,,2023-10-03,1,,,,,ティーエーギケン,0
974,4190001030767,新規,0,2023-10-03,2023-10-03,岡村建設株式会社,,株式会社,三重県,鈴鹿市,南玉垣町２３０６番地の２,,24,207,5130816,,,,,,,2023-10-03,1,,,,,オカムラケンセツ,0
978,4190003004455,新規,0,2023-10-03,2023-10-03,合同会社えん,,合同会社,三重県,津市,河芸町中別保２４３８番地７,,24,201,5100305,,,,,,,2023-10-03,1,,,,,エン,0
979,4200001041779,新規,0,2023-10-03,2023-10-03,株式会社カサイ建設,,株式会社,岐阜県,揖斐郡揖斐川町,白樫４７６番地４,,21,401,5010635,,,,,,,2023-10-03,1,,,,,カサイケンセツ,0
982,4220001025615,新規,0,2023-10-03,2023-10-03,株式会社カムラッド,,株式会社,石川県,加賀市,山代温泉２２の１５番地３オークラビル３０１号室,,17,206,9220242,,,,,,,2023-10-03,1,,,,,,0
985,4240003006339,新規,0,2023-10-03,2023-10-03,花月国際合同会社,,合同会社,広島県,福山市,西町１丁目３番３０－３０２号,,34,207,7200067,,,,,,,2023-10-03,1,,,,,ハナツキコクサイ,0
992,4260001038357,新規,0,2023-10-03,2023-10-03,フジテクノ株式会社,,株式会社,岡山県,倉敷市,玉島柏島６９８７番地２,,33,202,7138123,,,,,,,2023-10-03,1,,,,,フジテクノ,0
996,4260003004448,新規,0,2023-10-03,2023-10-03,合同会社片沼美装,,合同会社,岡山県,岡山市北区,青江３丁目１４番２１号いぶき市営住宅１番館３号,,33,101,7000941,,,,,,,2023-10-03,1,,,,,カタヌマビソウ,0
1013,4290001103199,新規,0,2023-10-03,2023-10-03,株式会社植鐡,,株式会社,福岡県,那珂川市,今光４丁目１３番地１,,40,231,8111211,,,,,,,2023-10-03,1,,,,,ウエテツ,0
1014,4290001103208,新規,0,2023-10-03,2023-10-03,株式会社ルームラボ,,株式会社,福岡県,福岡市博多区,博多駅前４丁目１６番６号オフィスニューガイア博多駅前Ｎｏ．５０－６０８号,,40,132,8120011,,,,,,,2023-10-03,1,,,,,,0
1015,4290001103216,新規,0,2023-10-03,2023-10-03,ＧＹＴシステム株式会社,,株式会社,福岡県,福岡市博多区,麦野１丁目１６番７号,,40,132,8120882,,,,,,,2023-10-03,1,,,,,ジーワイティーシステム,0
1016,4290001103240,新規,0,2023-10-03,2023-10-03,株式会社テント,,株式会社,福岡県,福岡市博多区,中洲２丁目３番１号,,40,132,8100801,,,,,,,2023-10-03,1,,,,,テント,0
1019,4290003014428,新規,0,2023-10-03,2023-10-03,ＳＥＢＭ　ＩＩＩ合同会社,,合同会社,福岡県,福岡市早良区,百道浜２丁目４番２７号ＡＩビル６Ｆ,,40,137,8140001,,,,,,,2023-10-03,1,,,,,エスイービーエムスリー,0
1020,4290005019160,新規,0,2023-10-03,2023-10-03,ＮＰＯ法人Ｃｈｏｕ・ｃｈｏｕ,,その他の設立登記法人,福岡県,福岡市城南区,神松寺３丁目６番３６－８０５号,,40,136,8140121,,,,,,,2023-10-03,1,,,,,シュシュ,0
1025,4290801029924,新規,0,2023-10-03,2023-10-03,株式会社勢悟,,株式会社,福岡県,遠賀郡遠賀町,田園３丁目４２番７号,,40,384,8114343,,,,,,,2023-10-03,1,,,,,セイゴ,0
1026,4300001013487,新規,0,2023-10-03,2023-10-03,株式会社荒島工務店,,株式会社,佐賀県,佐賀市,西与賀町大字高太郎１１６３番地２,,41,201,8400036,,,,,,,2023-10-03,1,,,,,アラシマコウムテン,0
1028,4310001018642,新規,0,2023-10-03,2023-10-03,株式会社テラスイート,,株式会社,長崎県,佐世保市,八幡町５番１３号,,42,202,8570028,,,,,,,2023-10-03,1,,,,,テラスイート,0
1029,4310005008714,新規,0,2023-10-03,2023-10-03,医療法人清明会,,その他の設立登記法人,長崎県,長崎市,小ケ倉町３丁目１９５番地１９,,42,201,8500961,,,,,,,2023-10-03,1,,,,,セイメイカイ,0
1030,4320001020028,新規,0,2023-10-03,2023-10-03,株式会社Ｐｌｕｓ,,株式会社,大分県,大分市,中央町２丁目２番６－８０６号,,44,201,8700035,,,,,,,2023-10-03,1,,,,,プラス,0
1032,4330001031305,新規,0,2023-10-03,2023-10-03,株式会社Ｌｉｅｂ,,株式会社,熊本県,熊本市中央区,出水４丁目２５番３０号,,43,101,8620941,,,,,,,2023-10-03,1,,,,,リープ,0
1034,4330003010001,新規,0,2023-10-03,2023-10-03,合同会社ＫＳＫプランニング,,合同会社,熊本県,熊本市東区,健軍５丁目３番１３号,,43,102,8620911,,,,,,,2023-10-03,1,,,,,ケーエスケープランニング,0
1037,4360001032622,新規,0,2023-10-03,2023-10-03,株式会社ｌｉｖｅ　ｗｅｌｌ,,株式会社,沖縄県,那覇市,真嘉比３丁目７－９ｏｌｉｖｅ１階１０１号室,,47,201,9020068,,,,,,,2023-10-03,1,,,,,リヴウェル,0
1038,4370001050458,新規,0,2023-10-03,2023-10-03,株式会社創建,,株式会社,宮城県,仙台市青葉区,東照宮１丁目１６番１－１０１号,,04,101,9810908,,,,,,,2023-10-03,1,,,,,ソウケン,0
1043,4430001090101,新規,0,2023-10-03,2023-10-03,株式会社ＭｅＦＵＬＬ,,株式会社,北海道,札幌市北区,屯田三条２丁目９番２０号,,01,102,0020853,,,,,,,2023-10-03,1,,,,,ミーフル,0
1047,4430003015485,新規,0,2023-10-03,2023-10-03,合同会社ｈｉｄｅ,,合同会社,北海道,札幌市中央区,南七条西１丁目１３番地第２弘安ビル４階,,01,101,0640807,,,,,,,2023-10-03,1,,,,,ヒデ,0
1051,4430005014799,新規,0,2023-10-03,2023-10-03,特定非営利活動法人極真会館北海道本部札幌道場,,その他の設立登記法人,北海道,札幌市北区,北二十一条西３丁目２番３７号,,01,102,0010021,,,,,,,2023-10-03,1,,,,,キョクシンカイカンホッカイドウホンブサッポロドウジョウ,0
1053,4470001019831,新規,0,2023-10-03,2023-10-03,株式会社しげる,,株式会社,香川県,高松市,鶴市町３９７番地２,,37,201,7618032,,,,,,,2023-10-03,1,,,,,シゲル,0
1059,4500001025223,新規,0,2023-10-03,2023-10-03,フォレスト株式会社,,株式会社,愛媛県,北宇和郡松野町,大字豊岡４４６５番地,,38,484,7982103,,,,,,,2023-10-03,1,,,,,フォレスト,0
1060,4500001025231,新規,0,2023-10-03,2023-10-03,山翔トレーディング株式会社,,株式会社,愛媛県,大洲市,阿蔵乙３２１－１８,,38,207,7950025,,,,,,,2023-10-03,1,,,,,ヤマショウトレーディング,0
1069,4700150118575,新規,0,2023-10-03,2023-09-14,豊住ふれあい健康館等管理運営委員会,,その他,千葉県,成田市,北羽鳥１９７５－３,,12,211,2860807,,,,,,,2023-09-14,1,,,,,トヨスミフレアイケンコウカントウカンリウンエイイインカイ,0
1070,4700150119417,新規,0,2023-10-03,2023-10-03,ｓｈａｎｇ　ｈａｉ　ｃａｉ　ｙｉｎｇ　ｍａｏ　ｙｉ　ｙｏｕ　ｘｉａｎ　ｇｏｎｇ　ｓｉ,,外国会社等,,,,,,,,Ａ２３２　ｓｈｉ，７　ｄｏｎｇ，ｊｉｎｇ　ｌｅ　ｌｕ　２２８　ｈａｏ　ｌａｎｇ　ｘｉａ　ｚｈｅｎ，ｊｉｎ　ｓｈａｎ　ｑｕ　ｓｈａｎｇ　ｈａｉ　ｓｈａｎｇ　ｈａｉ　２０１５１６　ＣＮ,,,,,,2023-10-03,1,,,,,シヤンハイサイエイメイエキ,0
1085,5010001238798,新規,0,2023-10-03,2023-10-03,株式会社スカイコネクト,,株式会社,東京都,中央区,日本橋箱崎町３６番２号,,13,102,1030015,,,,,,,2023-10-03,1,,,,,スカイコネクト,0
1095,5010401177464,新規,0,2023-10-03,2023-10-03,ソルト・ヘルスケア株式会社,,株式会社,東京都,港区,西麻布１丁目１０番２号,,13,103,1060031,,,,,,,2023-10-03,1,,,,,ソルトヘルスケア,0
1096,5010401177480,新規,0,2023-10-03,2023-10-03,株式会社メディアリメイク,,株式会社,東京都,港区,港南４丁目１番６号,,13,103,1080075,,,,,,,2023-10-03,1,,,,,メディアリメイク,0
1097,5010401177489,新規,0,2023-10-03,2023-10-03,株式会社Ｃｒａｓｉｓ,,株式会社,東京都,港区,南青山３丁目１番３６号青山丸竹ビル６Ｆ,,13,103,1070062,,,,,,,2023-10-03,1,,,,,クラシス,0
1098,5010401177497,新規,0,2023-10-03,2023-10-03,株式会社Ｐａｗ’ｓ　Ｇｒｅｅｎ,,株式会社,東京都,港区,南青山１丁目１５番１４号,,13,103,1070062,,,,,,,2023-10-03,1,,,,,パウズグリーン,0
1103,5010503007172,新規,0,2023-10-03,2023-10-03,合同会社ＺＥＲＡ　ＦＩＶＥ,,合同会社,東京都,台東区,上野２丁目４番１号エクセル上野ビル２階Ａ号,,13,106,1100005,,,,,,,2023-10-03,1,,,,,ゼラファイブ,0
1104,5010601063877,新規,0,2023-10-03,2023-10-03,株式会社フエルサ,,株式会社,東京都,墨田区,立川２丁目３番１号,,13,107,1300023,,,,,,,2023-10-03,1,,,,,フエルサ,0
1106,5010703006890,新規,0,2023-10-03,2023-10-03,合同会社ＷＢＮ,,合同会社,東京都,品川区,荏原４丁目３－１－７０３,,13,109,1420063,,,,,,,2023-10-03,1,,,,,ダブリュービーエヌ,0
1123,5011101104551,新規,0,2023-10-03,2023-10-03,株式会社凹凸,,株式会社,東京都,新宿区,西新宿７丁目４番７号第一太田ビル３Ｆ,,13,104,1600023,,,,,,,2023-10-03,1,,,,,オウトツ,0
1124,5011101104576,新規,0,2023-10-03,2023-10-03,株式会社ＡＲＵＫＡＳ‐ＬＩＮＥ,,株式会社,東京都,新宿区,新宿５丁目１０番１０号海老沢ビル２０２,,13,104,1600022,,,,,,,2023-10-03,1,,,,,アルカスライン,0
1127,5011103013528,新規,0,2023-10-03,2023-10-03,合同会社ＯＴＡＢＥ,,合同会社,東京都,新宿区,新宿６丁目２７番２９－２８０３号,,13,104,1600022,,,,,,,2023-10-03,1,,,,,オタベ,0
1128,5011103013544,新規,0,2023-10-03,2023-10-03,合同会社Ｙ．Ｄ．Ｃ解体,,合同会社,東京都,新宿区,西新宿３丁目３番１３号西新宿水間ビル２Ｆ,,13,104,1600023,,,,,,,2023-10-03,1,,,,,ワイディーシーカイタイ,0
1130,5011301029045,新規,0,2023-10-03,2023-10-03,株式会社ネイチャーズエンタープライス,,株式会社,東京都,杉並区,梅里１丁目８番１５－８０３号,,13,115,1660011,,,,,,,2023-10-03,1,,,,,ネイチャーズエンタープライス,0
1131,5011401025497,新規,0,2023-10-03,2023-10-03,株式会社熊屋,,株式会社,東京都,板橋区,徳丸６丁目２３－１３三高サンロイヤル１Ｂ,,13,119,1750083,,,,,,,2023-10-03,1,,,,,クマヤ,0
1137,5012401041063,新規,0,2023-10-03,2023-10-03,株式会社ＴＪＲ,,株式会社,東京都,武蔵野市,吉祥寺南町２丁目１２－１０フラット１Ｆ,,13,203,1800003,,,,,,,2023-10-03,1,,,,,ティージェーアール,0
1141,5012801022670,新規,0,2023-10-03,2023-10-03,株式会社スピニングシード,,株式会社,東京都,国分寺市,南町３丁目１２番３号イチジョービル１階,,13,214,1850021,,,,,,,2023-10-03,1,,,,,スピニングシード,0
1147,5020001153724,新規,0,2023-10-03,2023-10-03,株式会社飛翔インテリア,,株式会社,神奈川県,横浜市中区,南仲通４丁目４０番地,,14,104,2310006,,,,,,,2023-10-03,1,,,,,ヒショウインテリア,0
1148,5020001153740,新規,0,2023-10-03,2023-10-03,株式会社Ｐｌａｙ‐Ｏｎ,,株式会社,神奈川県,横浜市旭区,東希望が丘１００番地５エスエスワンビル４０８,,14,112,2410826,,,,,,,2023-10-03,1,,,,,プレイオン,0
1149,5020001153749,新規,0,2023-10-03,2023-10-03,株式会社シンセリティー・ケアマネジメント,,株式会社,神奈川県,横浜市中区,赤門町１丁目３番地,,14,104,2310051,,,,,,,2023-10-03,1,,,,,シンセリティーケアマネジメント,0
1154,5020003024683,新規,0,2023-10-03,2023-10-03,合同会社ａ．ＪＯＹ,,合同会社,神奈川県,川崎市高津区,久末４６２－４オセアン日吉台グリーンヒルズ５０１,,14,134,2130026,,,,,,,2023-10-03,1,,,,,アジョイ,0
1167,5021005012899,新規,0,2023-10-03,2023-10-03,特定非営利活動法人Ｐｌａｙｅｒｓ　Ｆｉｒｓｔ,,その他の設立登記法人,神奈川県,南足柄市,沼田１１１番地１,,14,217,2500115,,,,,,,2023-10-03,1,,,,,プレイヤーズファースト,0
1174,5030001156271,新規,0,2023-10-03,2023-10-03,株式会社リポスヘルス,,株式会社,埼玉県,川口市,幸町１丁目１１番２号,,11,203,3320016,,,,,,,2023-10-03,1,,,,,リポスヘルス,0
1175,5030001156362,新規,0,2023-10-03,2023-10-03,株式会社ＴＳＩ,,株式会社,埼玉県,川口市,本町３丁目２番１２－１０２号ドエルデュアルコート川口イーストビュー,,11,203,3320012,,,,,,,2023-10-03,1,,,,,ティーエスアイ,0
1179,5030003022686,新規,0,2023-10-03,2023-10-03,華英不動産合同会社,,合同会社,埼玉県,朝霞市,三原２丁目２２番２１－４０３号,,11,227,3510025,,,,,,,2023-10-03,1,,,,,カエイフドウサン,0
1180,5030003022694,新規,0,2023-10-03,2023-10-03,合同会社喜与華,,合同会社,埼玉県,さいたま市桜区,大字大久保領家１６５番地２カレッジハウスＶＩＩ１０３,00132113,11,106,3380826,,,,,,,2023-10-03,1,,,,,キヨカ,0
1181,5030003022703,新規,0,2023-10-03,2023-10-03,合同会社永大,,合同会社,埼玉県,朝霞市,根岸台４丁目１４番１１号,,11,227,3510005,,,,,,,2023-10-03,1,,,,,エイダイ,0
1187,5040001130267,新規,0,2023-10-03,2023-10-03,株式会社クレ,,株式会社,千葉県,船橋市,栄町１丁目２２番２６号,,12,204,2730018,,,,,,,2023-10-03,1,,,,,クレ,0
1195,5050001053558,新規,0,2023-10-03,2023-10-03,株式会社Ｎ．ｓｙｓｔｅｍ,,株式会社,茨城県,水戸市,酒門町３２０３番地の５ハオスエーデルワイスＩＩ・２０１号,00132114,08,201,3100841,,,,,,,2023-10-03,1,,,,,エヌシステム,0
1198,5070001040918,新規,0,2023-10-03,2023-10-03,ＳＨＡＨ株式会社,,株式会社,群馬県,藤岡市,中大塚１０６番地９,,10,209,3750053,,,,,,,2023-10-03,1,,,,,シャー,0
1200,5080001025892,新規,0,2023-10-03,2023-10-03,株式会社医療の結び,,株式会社,静岡県,静岡市駿河区,広野１丁目２１番１０号,,22,102,4210121,,,,,,,2023-10-03,1,,,,,イリョウノムスビ,0
1203,5080401026763,新規,0,2023-10-03,2023-10-03,株式会社原田会計,,株式会社,静岡県,浜松市中区,葵西１丁目２番１５号,,22,131,4338111,,,,,,,2023-10-03,1,,,,,ハラダカイケイ,0
1209,5110001037884,新規,0,2023-10-03,2023-10-03,株式会社焼山の北山,,株式会社,新潟県,新潟市江南区,阿賀野２丁目５番１５号,,15,104,9500217,,,,,,,2023-10-03,1,,,,,ヤケヤマノキタヤマ,0
1224,5120001258232,新規,0,2023-10-03,2023-10-03,株式会社ＯＳＡＫＡ　ＰＨＯ‐ＭＥ　ＦＡＣＴＯＲＹ,,株式会社,大阪府,大阪市東成区,大今里西２丁目１０番１８号ウエムラグレース今里１０１,,27,115,5370014,,,,,,,2023-10-03,1,,,,,オオサカフォーミーファクトリー,0
1225,5120001258249,新規,0,2023-10-03,2023-10-03,大福株式会社,,株式会社,大阪府,大阪市阿倍野区,北畠３丁目４番１２－３０１号,,27,119,5450035,,,,,,,2023-10-03,1,,,,,ダイフク,0
1226,5120001258414,新規,0,2023-10-03,2023-10-03,株式会社Ａｍａｔｏ,,株式会社,大阪府,大阪市福島区,吉野４丁目２５番７号,,27,103,5530006,,,,,,,2023-10-03,1,,,,,アマト,0
1227,5120001258430,新規,0,2023-10-03,2023-10-03,株式会社アヌビス,,株式会社,大阪府,大阪市中央区,本町橋６－２１シャンボール内本町１００９号室,,27,128,5400029,,,,,,,2023-10-03,1,,,,,アヌビス,0
1228,5120001258471,新規,0,2023-10-03,2023-10-03,株式会社イズミン,,株式会社,大阪府,大阪市北区,西天満３丁目４番１４－６０５号,,27,127,5300047,,,,,,,2023-10-03,1,,,,,イズミン,0
1229,5120001258488,新規,0,2023-10-03,2023-10-03,ＢＡＴ株式会社,,株式会社,大阪府,大阪市淀川区,宮原２丁目１２番１４－７２４号,,27,123,5320003,,,,,,,2023-10-03,1,,,,,ビーエーティー,0
1232,5120003024979,新規,0,2023-10-03,2023-10-03,合同会社玄関コンサルティング,,合同会社,大阪府,大阪市淀川区,東三国５丁目１３番３２号,,27,123,5320002,,,,,,,2023-10-03,1,,,,,ゲンカンコンサルティング,0
1233,5120003025003,新規,0,2023-10-03,2023-10-03,合同会社Ｎａｌｕ,,合同会社,大阪府,大阪市西淀川区,野里１丁目７－２５フルーレ野里４０３,,27,113,5550024,,,,,,,2023-10-03,1,,,,,ナル,0
1234,5120005023896,新規,0,2023-10-03,2023-10-03,一般社団法人心理カウンセリング協会,,その他の設立登記法人,大阪府,大阪市東住吉区,南田辺３丁目３番７号,,27,121,5460033,,,,,,,2023-10-03,1,,,,,シンリカウンセリングキョウカイ,0
1235,5120101068309,新規,0,2023-10-03,2023-10-03,株式会社ナカガワ工業,,株式会社,大阪府,堺市西区,浜寺船尾町西３丁９１番地１－６０１号,,27,144,5928342,,,,,,,2023-10-03,1,,,,,ナカガワコウギョウ,0
1236,5120101068317,新規,0,2023-10-03,2023-10-03,株式会社イケダ,,株式会社,大阪府,堺市南区,土佐屋台１５７７番地１－１０３号,,27,145,5900104,,,,,,,2023-10-03,1,,,,,イケダ,0
1245,5130001075313,新規,0,2023-10-03,2023-10-03,藍水光生物科技株式会社,,株式会社,京都府,京都市右京区,太秦安井馬塚町１８ハルモニア１０４号,00132108,26,108,6168077,,,,,,,2023-10-03,1,,,,,,0
1246,5130001075338,新規,0,2023-10-03,2023-10-03,株式会社阪田,,株式会社,京都府,京都市南区,上鳥羽南唐戸町７０－３,,26,107,6018107,,,,,,,2023-10-03,1,,,,,サカタ,0
1250,5140001131255,新規,0,2023-10-03,2023-10-03,株式会社大塚設備,,株式会社,兵庫県,西宮市,戸田町５番３０－９０８号,,28,204,6620916,,,,,,,2023-10-03,1,,,,,オオツカセツビ,0
1253,5140003019606,新規,0,2023-10-03,2023-10-03,合同会社ミツバガレージ,,合同会社,兵庫県,伊丹市,池尻７丁目１,,28,207,6640027,,,,,,,2023-10-03,1,,,,,ミツバガレージ,0
1256,5150001026768,新規,0,2023-10-03,2023-10-03,株式会社山協工務店,,株式会社,奈良県,香芝市,真美ヶ丘６丁目９番１６－３０４号,,29,210,6390223,,,,,,,2023-10-03,1,,,,,サンキョウコウムテン,0
1262,5180001158294,新規,0,2023-10-03,2023-10-03,ＳＫＡＭ株式会社,,株式会社,愛知県,名古屋市北区,水草町１丁目２８番地,,23,103,4620042,,,,,,,2023-10-03,1,,,,,エスケーエーエム,0
1263,5180001158303,新規,0,2023-10-03,2023-10-03,株式会社Ｈｅｉｍｉｓｈ,,株式会社,愛知県,名古屋市東区,泉１丁目５番２７号ＮＢビル２階,,23,102,4610001,,,,,,,2023-10-03,1,,,,,ヘイミッシュ,0
1276,5190001030766,新規,0,2023-10-03,2023-10-03,株式会社ＡＳＡＩＴＥＣＨ,,株式会社,三重県,四日市市,小林町３０２５番地７４４,,24,202,5100946,,,,,,,2023-10-03,1,,,,,アサイテック,0
1277,5190003004454,新規,0,2023-10-03,2023-10-03,ＣＲＯＳＳ　ＬＩＮＥ合同会社,,合同会社,三重県,鈴鹿市,若松西４丁目３番１５号,,24,207,5100222,,,,,,,2023-10-03,1,,,,,クロスライン,0
1283,5220001025622,新規,0,2023-10-03,2023-10-03,株式会社ハシモト工業,,株式会社,石川県,加賀市,野田町メ１２３番地３,,17,206,9220443,,,,,,,2023-10-03,1,,,,,ハシモトコウギョウ,0
1292,5290001103116,新規,0,2023-10-03,2023-10-03,株式会社Ｍｉｒａｃｌｅ　ｎｕｒｓｅ,,株式会社,福岡県,福岡市西区,姪の浜４丁目６番２２－１０５号サンレジア姪浜駅前Ｂ,,40,135,8190002,,,,,,,2023-10-03,1,,,,,ミラクルナース,0
1293,5290001103198,新規,0,2023-10-03,2023-10-03,株式会社ＮＯＺＯＭＩグローバル,,株式会社,福岡県,福岡市早良区,四箇田団地３７番７号,,40,137,8140176,,,,,,,2023-10-03,1,,,,,ノゾミグローバル,0
1296,5290003014419,新規,0,2023-10-03,2023-10-03,希望之聲合同会社,,合同会社,福岡県,福岡市中央区,小笹３丁目８－６－２０１,,40,133,8100033,,,,,,,2023-10-03,1,,,,,キボウノセイ,0
1297,5290003014427,新規,0,2023-10-03,2023-10-03,安芸高田バイオマス発電所合同会社,,合同会社,福岡県,福岡市早良区,百道浜２丁目４番２７号ＡＩビル６Ｆ,,40,137,8140001,,,,,,,2023-10-03,1,,,,,アキタカタバイオマスハツデンショ,0
1303,5310001018641,新規,0,2023-10-03,2023-10-03,株式会社つくるのわデザイン,,株式会社,長崎県,長崎市,南山手町１３番２４号,,42,201,8500931,,,,,,,2023-10-03,1,,,,,ツクルノワデザイン,0
1312,5330001031312,新規,0,2023-10-03,2023-10-03,デンタルラボアクア株式会社,,株式会社,熊本県,熊本市西区,池上町１１２８番地１３,,43,103,8600048,,,,,,,2023-10-03,1,,,,,デンタルラボアクア,0
1315,5340001025940,新規,0,2023-10-03,2023-10-03,オールラウンダーシステム株式会社,,株式会社,鹿児島県,鹿児島市,下伊敷３丁目５１番１０号,,46,201,8900005,,,,,,,2023-10-03,1,,,,,オールラウンダーシステム,0
1317,5340003004273,新規,0,2023-10-03,2023-10-03,合同会社ＯＺＡＫＩ,,合同会社,鹿児島県,出水市,野田町上名５７９４番地２,,46,208,8990501,,,,,,,2023-10-03,1,,,,,オザキ,0
1334,5430001090059,新規,0,2023-10-03,2023-10-03,ＤＺホールディング株式会社,,株式会社,北海道,室蘭市,大沢町１丁目２番８号,,01,205,0500086,,,,,,,2023-10-03,1,,,,,ディーゼットホールディング,0
1337,5430003015484,新規,0,2023-10-03,2023-10-03,合同会社ｓｈｉｏｍｉｄａｉ,,合同会社,北海道,札幌市中央区,南七条西１丁目１３番地第２弘安ビル４階,,01,101,0640807,,,,,,,2023-10-03,1,,,,,シオミダイ,0
1338,5430003015492,新規,0,2023-10-03,2023-10-03,合同会社ｋｎｏｄｅ,,合同会社,北海道,札幌市中央区,南一条西１６丁目１番地３２３春野ビル３Ｆ,,01,101,0600061,,,,,,,2023-10-03,1,,,,,ノード,0
1343,5430005014798,新規,0,2023-10-03,2023-10-03,一般社団法人慈昂会,,その他の設立登記法人,北海道,札幌市豊平区,福住一条３丁目１８番２９号,,01,105,0620041,,,,,,,2023-10-03,1,,,,,ジコウカイ,0
1345,5470001019830,新規,0,2023-10-03,2023-10-03,株式会社寿康商会運送,,株式会社,香川県,丸亀市,垂水町３３９７番地１,,37,202,7630095,,,,,,,2023-10-03,1,,,,,ジュコウショウカイウンソウ,0
1347,5480001012231,新規,0,2023-10-03,2023-10-03,株式会社明祥,,株式会社,徳島県,阿波市,土成町高尾字はざま８１番地１,,36,206,7711509,,,,,,,2023-10-03,1,,,,,メイショウ,0
1350,5500001025230,新規,0,2023-10-03,2023-10-03,株式会社ＡＯＨＡＲＵ,,株式会社,愛媛県,松山市,南江戸４丁目９番４４号,,38,201,7900062,,,,,,,2023-10-03,1,,,,,,0
1372,6010001238847,新規,0,2023-10-03,2023-10-03,株式会社Ｋ＆ｊ　Ｐｌａｎ,,株式会社,東京都,千代田区,神田平河町１番地第３東ビル５Ｆ,,13,101,1010027,,,,,,,2023-10-03,1,,,,,ケイアンドジェープラン,0
1373,6010001238863,新規,0,2023-10-03,2023-10-03,辰奕智能技術日本株式会社,,株式会社,東京都,千代田区,九段北１丁目２－１２九段下プラレールビル４０３室,,13,101,1020073,,,,,,,2023-10-03,1,,,,,チンイチノウギジュツニホン,0
1374,6010001238888,新規,0,2023-10-03,2023-10-03,Ｃｏｓｔａｍａｒｅ　Ｂｕｌｋｅｒｓ　Ｓｅｒｖｉｃｅｓ株式会社,,株式会社,東京都,中央区,京橋２丁目２番１号京橋エドグラン２６階,,13,102,1040031,,,,,,,2023-10-03,1,,,,,コスタマーレバルカーズサービシズ,0
1375,6010001238954,新規,0,2023-10-03,2023-10-03,株式会社Ｉ　ｋｎｏｗ．,,株式会社,東京都,中央区,銀座１丁目２２番１１号銀座大竹ビジデンス２Ｆ,,13,102,1040061,,,,,,,2023-10-03,1,,,,,アイノウ,0
1378,6010003041547,新規,0,2023-10-03,2023-10-03,人生楽笑合同会社,,合同会社,東京都,中央区,銀座１丁目１２番４号Ｎ＆ＥＢＬＤ．６Ｆ,,13,102,1040061,,,,,,,2023-10-03,1,,,,,ジンセイラクショウ,0
1379,6010003041794,新規,0,2023-10-03,2023-10-03,合同会社ナルポハク,,合同会社,東京都,中央区,京橋２丁目５番１５号京橋ＲＫビル１１Ｆ,,13,102,1040031,,,,,,,2023-10-03,1,,,,,ナルポハク,0
1383,6010403031049,新規,0,2023-10-03,2023-10-03,合同会社ＳＫＶ１,,合同会社,東京都,港区,西新橋１丁目２２番２号２Ｆ,,13,103,1050003,,,,,,,2023-10-03,1,,,,,エスケーブイワン,0
1385,6010501051147,新規,0,2023-10-03,2023-10-03,株式会社ＢＲ,,株式会社,東京都,台東区,上野６丁目１番６号御徒町グリーンハイツ１００５号,,13,106,1100005,,,,,,,2023-10-03,1,,,,,ビーアール,0
1389,6010603010397,新規,0,2023-10-03,2023-10-03,合同会社ＴＨＥ　ＥＹＥＢＲＯＷ,,合同会社,東京都,江東区,豊洲３丁目４番１－２９０５号,,13,108,1350061,,,,,,,2023-10-03,1,,,,,ザアイブロウ,0
1390,6010901053924,新規,0,2023-10-03,2023-10-03,株式会社ＨＯＩ,,株式会社,東京都,世田谷区,太子堂２丁目２９番４号モデュロール三軒茶屋４０４,,13,112,1540004,,,,,,,2023-10-03,1,,,,,ホイ,0
1394,6011001157293,新規,0,2023-10-03,2023-10-03,株式会社Ｇｒａｃｅ,,株式会社,東京都,渋谷区,恵比寿１丁目１５番９号日宝恵比寿ビル４０３,,13,113,1500013,,,,,,,2023-10-03,1,,,,,グレイス,0
1398,6011101104559,新規,0,2023-10-03,2023-10-03,栄金株式会社,,株式会社,東京都,新宿区,上落合２丁目２２番１２号,,13,104,1610034,,,,,,,2023-10-03,1,,,,,エイキン,0
1399,6011101104575,新規,0,2023-10-03,2023-10-03,株式会社マイクロアールアンドディコア,,株式会社,東京都,新宿区,新宿１丁目３４番１１号ニューローレル９０３,,13,104,1600022,,,,,,,2023-10-03,1,,,,,マイクロアールアンドディコア,0
1400,6011103013527,新規,0,2023-10-03,2023-10-03,ＩＳＨＯ　ＨＯＬＤＩＮＧ合同会社,,合同会社,東京都,新宿区,百人町２丁目１－４５管理員室,,13,104,1690073,,,,,,,2023-10-03,1,,,,,イショホディン,0
1405,6011203004186,新規,0,2023-10-03,2023-10-03,ＤＥＳＫ合同会社,,合同会社,東京都,中野区,中野５丁目６７番７号プラザ中野８０１,,13,114,1640001,,,,,,,2023-10-03,1,,,,,デスク,0
1406,6011303004920,新規,0,2023-10-03,2023-10-03,あおぞらケア合同会社,,合同会社,東京都,杉並区,浜田山４丁目３１－１,,13,115,1680065,,,,,,,2023-10-03,1,,,,,アオゾラケア,0
1413,6011703003613,新規,0,2023-10-03,2023-10-03,合同会社湧閃,,合同会社,東京都,江戸川区,南篠崎町１丁目２７番１０号スックワームＪ２０３,,13,123,1330065,,,,,,,2023-10-03,1,,,,,ユウセン,0
1414,6011803005856,新規,0,2023-10-03,2023-10-03,ＹＵＫＩ合同会社,,合同会社,東京都,葛飾区,金町４丁目８－６金町ナカノ・シティハイツ１０２,,13,122,1250042,,,,,,,2023-10-03,1,,,,,ユキ,0
1432,6020001153715,新規,0,2023-10-03,2023-10-03,株式会社エスケイ,,株式会社,神奈川県,横浜市戸塚区,上矢部町１１８５－５,,14,110,2450053,,,,,,,2023-10-03,1,,,,,エスケイ,0
1433,6020001153723,新規,0,2023-10-03,2023-10-03,株式会社Ｎａｋａｄａｔｅｉｅｎ,,株式会社,神奈川県,横浜市戸塚区,矢部町８１１番地,,14,110,2440002,,,,,,,2023-10-03,1,,,,,ナカダテイエン,0
1434,6020001153731,新規,0,2023-10-03,2023-10-03,株式会社サンストーン,,株式会社,神奈川県,横浜市戸塚区,東俣野町１０３５番地１,,14,110,2450065,,,,,,,2023-10-03,1,,,,,サンストーン,0
1438,6020003024567,新規,0,2023-10-03,2023-10-03,合同会社ＮＯＮＡＭＥ,,合同会社,神奈川県,横浜市中区,山手町１０７番地３,,14,104,2310862,,,,,,,2023-10-03,1,,,,,ノーネーム,0
1442,6021001080305,新規,0,2023-10-03,2023-10-03,株式会社Ｓ．Ｉ企画,,株式会社,神奈川県,相模原市中央区,相模原２丁目２－５ＭＳＫビル３Ｆ,,14,152,2520231,,,,,,,2023-10-03,1,,,,,エスアイキカク,0
1444,6021003013642,新規,0,2023-10-03,2023-10-03,ＦＩＮＴＥＲ合同会社,,合同会社,神奈川県,三浦郡葉山町,堀内４８３―１葉山グリーンプラザ４０２,,14,301,2400112,,,,,,,2023-10-03,1,,,,,フィンター,0
1450,6030001156345,新規,0,2023-10-03,2023-10-03,株式会社空海,,株式会社,埼玉県,ふじみ野市,大原２丁目５番３０号,,11,245,3560003,,,,,,,2023-10-03,1,,,,,クミ,0
1451,6030001156394,新規,0,2023-10-03,2023-10-03,株式会社ＡＮＣＲＡＧＥ,,株式会社,埼玉県,さいたま市大宮区,仲町２丁目２４番地４仲町Ｆ１ビル２０１号,,11,103,3300845,,,,,,,2023-10-03,1,,,,,アンクラージュ,0
1452,6030001156411,新規,0,2023-10-03,2023-10-03,株式会社ＳＴＩＲ,,株式会社,埼玉県,越谷市,東越谷１丁目３番地３,,11,222,3430023,,,,,,,2023-10-03,1,,,,,ステア,0
1457,6030003022636,新規,0,2023-10-03,2023-10-03,合同会社ハピネス,,合同会社,埼玉県,朝霞市,朝志ケ丘１丁目６番６０－８０２号,,11,227,3510035,,,,,,,2023-10-03,1,,,,,ハピネス,0
1458,6030003022693,新規,0,2023-10-03,2023-10-03,Ｒｅ・ＢＩＲＴＨ合同会社,,合同会社,埼玉県,川口市,青木５丁目５番３１－７０３号レクセル西川口第２,,11,203,3320031,,,,,,,2023-10-03,1,,,,,リバース,0
1470,6070001040917,新規,0,2023-10-03,2023-10-03,株式会社うたしあ,,株式会社,群馬県,渋川市,渋川上郷２７６２番地１,,10,208,3770008,,,,,,,2023-10-03,1,,,,,ウタシア,0
1474,6080001025883,新規,0,2023-10-03,2023-10-03,株式会社ＹＵＤＡ,,株式会社,静岡県,焼津市,大島７８０番地の２,,22,212,4250066,,,,,,,2023-10-03,1,,,,,ユダ,0
1475,6080001025891,新規,0,2023-10-03,2023-10-03,株式会社デンユー,,株式会社,静岡県,島田市,阿知ケ谷２３６番地の１０,,22,209,4270006,,,,,,,2023-10-03,1,,,,,デンユー,0
1479,6080401026762,新規,0,2023-10-03,2023-10-03,株式会社悠悠サポート,,株式会社,静岡県,浜松市浜北区,西中瀬２丁目１２番３号,,22,136,4340018,,,,,,,2023-10-03,1,,,,,ユウユウサポート,0
1480,6080403004881,新規,0,2023-10-03,2023-10-03,合同会社ＳＴＵＮＮＩＮＧ,,合同会社,静岡県,磐田市,平間１４６５－２０,,22,211,4380203,,,,,,,2023-10-03,1,,,,,スタニング,0
1481,6080405007577,新規,0,2023-10-03,2023-10-03,あさかぜ社会保険労務士法人,,その他の設立登記法人,静岡県,浜松市中区,中山町６番地,,22,131,4328016,,,,,,,2023-10-03,1,,,,,アサカゼ,0
1486,6100001036820,新規,0,2023-10-03,2023-10-03,株式会社立元警備保障,,株式会社,長野県,松本市,大字水汲４５番地１センターフィールド２０６,,20,202,3900311,,,,,,,2023-10-03,1,,,,,タチモトケイビホショウ,0
1495,6110001037883,新規,0,2023-10-03,2023-10-03,タイムプラス株式会社,,株式会社,新潟県,新潟市北区,太田７２３番地,,15,101,9503313,,,,,,,2023-10-03,1,,,,,タイムプラス,0
1496,6110005016999,新規,0,2023-10-03,2023-10-03,協同組合ライクミー新潟,,その他の設立登記法人,新潟県,新潟市中央区,鳥屋野２丁目４番１２号グリフィスＩＩＢ１０１,00132106,15,103,9500951,,,,,,,2023-10-03,1,,,,,ライクミーニイガタ,0
1503,6120001258297,新規,0,2023-10-03,2023-10-03,グローカルエンジニアリング株式会社,,株式会社,大阪府,大阪市東淀川区,東中島１丁目１７番５号ステュディオ新大阪２３４号室,,27,114,5330033,,,,,,,2023-10-03,1,,,,,グローカルエンジニアリング,0
1504,6120001258388,新規,0,2023-10-03,2023-10-03,ＨＭＧ株式会社,,株式会社,大阪府,大阪市浪速区,恵美須東１丁目１３－１５グリーンハイム２０２,,27,111,5560002,,,,,,,2023-10-03,1,,,,,エチエムジー,0
1505,6120001258438,新規,0,2023-10-03,2023-10-03,株式会社ＴＯＨ,,株式会社,大阪府,大阪市北区,梅田１丁目２番２号大阪駅前第２ビル１２－１２,,27,127,5300001,,,,,,,2023-10-03,1,,,,,トー,0
1506,6120001258479,新規,0,2023-10-03,2023-10-03,Ｄ＆Ｃ株式会社,,株式会社,大阪府,大阪市生野区,生野東２丁目７番１６号１階,,27,116,5440025,,,,,,,2023-10-03,1,,,,,ディーアンドシイー,0
1507,6120001258504,新規,0,2023-10-03,2023-10-03,エース株式会社,,株式会社,大阪府,大阪市中央区,淡路町３丁目４番１号,,27,128,5410047,,,,,,,2023-10-03,1,,,,,,0
1509,6120003024986,新規,0,2023-10-03,2023-10-03,徳恩合同会社,,合同会社,大阪府,大阪市港区,田中２丁目９番１５号,,27,107,5520005,,,,,,,2023-10-03,1,,,,,トクオン,0
1510,6120003024994,新規,0,2023-10-03,2023-10-03,合同会社ビームス,,合同会社,大阪府,大阪市都島区,中野町２丁目４－１９京橋ハイツ３０－５１７号室,,27,102,5340027,,,,,,,2023-10-03,1,,,,,ビームス,0
1511,6120005023904,新規,0,2023-10-03,2023-10-03,一般社団法人日本血液凝固異常症調査研究機構,,その他の設立登記法人,大阪府,大阪市中央区,法円坂２丁目１番１４号,,27,128,5400006,,,,,,,2023-10-03,1,,,,,ケツエキギョウコイジョウショウチョウサケンキュウキコウ,0
1519,6120101068316,新規,0,2023-10-03,2023-10-03,株式会社空,,株式会社,大阪府,和泉市,緑ケ丘２丁目３番４号,,27,219,5941155,,,,,,,2023-10-03,1,,,,,クウ,0
1524,6122001037425,新規,0,2023-10-03,2023-10-03,株式会社Ｈ・Ｋ・Ｔ,,株式会社,大阪府,八尾市,高安町北５丁目１９７番地の４,,27,212,5810871,,,,,,,2023-10-03,1,,,,,エイチケイティ,0
1527,6130001075337,新規,0,2023-10-03,2023-10-03,株式会社ＬＩＮＡＭＩＸ,,株式会社,京都府,京都市伏見区,上板橋町５００番地２ライオンズステージ伏見５０２号,,26,109,6128316,,,,,,,2023-10-03,1,,,,,リナミックス,0
1531,6140001131782,新規,0,2023-10-03,2023-10-03,株式会社ナカジ設備,,株式会社,兵庫県,姫路市,広畑区才７３番地８,,28,201,6711104,,,,,,,2023-10-03,1,,,,,ナカジセツビ,0
1532,6140001131849,新規,0,2023-10-03,2023-10-03,株式会社ディアド,,株式会社,兵庫県,宝塚市,御殿山３丁目１３番２１号,,28,214,6650841,,,,,,,2023-10-03,1,,,,,ディアド,0
1534,6140003019613,新規,0,2023-10-03,2023-10-03,ＫＷ　Ｃｏｌｌｅｃｔｉｏｎ合同会社,,合同会社,兵庫県,西宮市,羽衣町７－３０、３ＦにしのみやＣｏｗｏｒｋｉｎｇコワクラ,,28,204,6620051,,,,,,,2023-10-03,1,,,,,ケーダブリューコレクション,0
1535,6150001026750,新規,0,2023-10-03,2023-10-03,株式会社ＩＲＵＤＡ,,株式会社,奈良県,奈良市,学園朝日町３番６号,,29,201,6310016,,,,,,,2023-10-03,1,,,,,イルダ,0
1563,6230001020035,新規,0,2023-10-03,2023-10-03,株式会社オールテック,,株式会社,富山県,富山市,針原中町８２８番地６,,16,201,9318431,,,,,,,2023-10-03,1,,,,,オールテック,0
1566,6260001038355,新規,0,2023-10-03,2023-10-03,株式会社利豊,,株式会社,岡山県,岡山市南区,藤田字錦６５３番地３８・２階,,33,104,7010221,,,,,,,2023-10-03,1,,,,,リホウ,0
1571,6290001103222,新規,0,2023-10-03,2023-10-03,株式会社住宅工房福岡,,株式会社,福岡県,嘉麻市,上臼井２０７８番地,,40,227,8200502,,,,,,,2023-10-03,1,,,,,ジュウタクコウボウフクオカ,0
1572,6290001103230,新規,0,2023-10-03,2023-10-03,株式会社ＹＥＳ　ＡＮＤ,,株式会社,福岡県,福岡市中央区,天神１丁目４番１号西日本新聞会館１６Ｆスカイホール内,,40,133,8100001,,,,,,,2023-10-03,1,,,,,イエスアンド,0
1573,6290001103271,新規,0,2023-10-03,2023-10-03,株式会社大翔,,株式会社,福岡県,福岡市南区,桧原６丁目１６番１６号キャンベルハウスＢ棟２０３号,,40,134,8111355,,,,,,,2023-10-03,1,,,,,ダイショウ,0
1576,6290003014426,新規,0,2023-10-03,2023-10-03,伊勢バイオマス発電所合同会社,,合同会社,福岡県,福岡市早良区,百道浜２丁目４番２７号ＡＩビル６Ｆ,,40,137,8140001,,,,,,,2023-10-03,1,,,,,イセバイオマスハツデンショ,0
1577,6290003014434,新規,0,2023-10-03,2023-10-03,合同会社ｒｅｃｋｏｎ　Ｊａｐａｎ,,合同会社,福岡県,福岡市西区,姪の浜４丁目７－１２シティライフ姪浜駅１２０１号室,,40,135,8190002,,,,,,,2023-10-03,1,,,,,レコンジャパン,0
1578,6290005019159,新規,0,2023-10-03,2023-10-03,特定非営利活動法人Ｆｕｋｕｏｋａ　Ｒｏｂｏｔｉｃｓ　Ｃｈａｌｌｅｎｇｅ,,その他の設立登記法人,福岡県,糸島市,池田１番地,,40,230,8191103,,,,,,,2023-10-03,1,,,,,フクオカロボティクスチャレンジ,0
1582,6320001020026,新規,0,2023-10-03,2023-10-03,山田興産株式会社,,株式会社,大分県,別府市,大字鶴見１５００番地の３５２,,44,202,8740840,,,,,,,2023-10-03,1,,,,,ヤマダコウサン,0
1583,6320003004191,新規,0,2023-10-03,2023-10-03,合同会社ちはら２９,,合同会社,大分県,別府市,北浜１丁目１１番２号,,44,202,8740920,,,,,,,2023-10-03,1,,,,,チハラニク,0
1585,6330003009999,新規,0,2023-10-03,2023-10-03,ｉｄ．ｍａｒｅ合同会社,,合同会社,熊本県,上益城郡御船町,大字滝尾横野６１８番地,,43,441,8613208,,,,,,,2023-10-03,1,,,,,イデマレ,0
1592,6360003013354,新規,0,2023-10-03,2023-10-03,合同会社コンテンツクリエイト沖縄,,合同会社,沖縄県,浦添市,宮城６丁目２０番８号島袋アパート３０１,,47,208,9012126,,,,,,,2023-10-03,1,,,,,コンテンツクリエイトオキナワ,0
1597,6370003006308,新規,0,2023-10-03,2023-10-03,合同会社Ｏｓｕｇｉ,,合同会社,宮城県,仙台市若林区,上飯田３丁目３０番１４号フレグランスＣ１０２,,04,103,9840838,,,,,,,2023-10-03,1,,,,,オオスギ,0
1605,6430001090090,新規,0,2023-10-03,2023-10-03,株式会社アクセプト,,株式会社,北海道,札幌市北区,新琴似八条８丁目３番２号,,01,102,0010908,,,,,,,2023-10-03,1,,,,,アクセプト,0
1608,6430003015491,新規,0,2023-10-03,2023-10-03,亮和工業所合同会社,,合同会社,北海道,札幌市北区,百合が原８丁目１９番１７号,,01,102,0028081,,,,,,,2023-10-03,1,,,,,リョウワコウギョウショ,0
1611,6462503000210,新規,0,2023-10-03,2023-10-03,合同会社ＹＭ内装,,合同会社,北海道,標津郡中標津町,西八条南８丁目３番地２,,01,692,0861108,,,,,,,2023-10-03,1,,,,,ワイエムナイソウ,0
1616,6480005006988,新規,0,2023-10-03,2023-10-03,一般社団法人九人たぬき,,その他の設立登記法人,徳島県,徳島市,佐古八番町３番地の２４,,36,201,7700028,,,,,,,2023-10-03,1,,,,,クニンタヌキ,0
1620,6500001025221,新規,0,2023-10-03,2023-10-03,株式会社Ｐｏｎｏ,,株式会社,愛媛県,松山市,二番町２丁目５番地５,,38,201,7900002,,,,,,,2023-10-03,1,,,,,ポノ,0
1623,6700150118763,新規,0,2023-10-03,2023-10-03,Ｚｏｏｍ　Ｖｉｄｅｏ　Ｃｏｍｍｕｎｉｃａｔｉｏｎｓ，Ｉｎｃ．,,外国会社等,,,,,,,,５５　Ａｌｍａｄｅｎ　Ｂｌｖｄ，Ｓａｎ　Ｊｏｓｅ，ＣＡ，ＵＳＡ（６ＴＨ　ＦＬＯＯＲ）,,,,,,2023-10-03,1,,,,,ズームビデオコミユニケーシヨンズインク,0
1624,6700150119101,新規,0,2023-10-03,2023-10-03,Ｚｈｕｈａｉ　Ａｏｂｕｒｙ　Ｅｌｅｃｔｒｏｎｉｃ　Ｔｅｃｈｎｏｌｏｇｙ　Ｃｏ　Ｌｔｄ,,外国会社等,,,,,,,,Ｒｏｏｍ　３０１－１０，Ｂｕｉｌｄｉｎｇ　４，Ｎｏ．１０１，Ｄａｘｕｅ　Ｒｏａｄ　Ｔａｎｇｊｉａｗａｎ　Ｔｏｗｎ　Ｚｈｕｈａｉ　Ｈｉｇｈ―ｔｅｃｈ　Ｚｏｎｅ,,,,,,2023-10-03,1,,,,,ジユウハイシオウボウルイデイエンズコアジヨウシエンゴンス,0
1625,6700150119423,新規,0,2023-10-03,2023-10-03,ＷＥＮＺＨＯＵＴＩＡＮＺＯＮＧＪＩＡＪＵＹＯＵＸＩＡＮＧＯＮＧＳＩ,,外国会社等,,,,,,,,ｌｏｎｇｇａｎｇｓｈｉ　ｃａｎｇｑｉａｎｌｕ　１６４－２０２ｈａｏ　１ｚｈｕａｎｇ２ｌｏｕ　ｗｅｎｚｈｏｕｓｈｉ　ｚｈｅｊｉａｎｇｓｈｅｎｇ　３２５８０２　ＣＮ,,,,,,2023-10-03,1,,,,,ウエンジヨウテイエンゾンジアジユイヨウシエンゴンス,0
1626,6700150120959,新規,0,2023-10-03,2023-10-03,ｓｈｅｎｚｈｅｎｓｈｉ　ａｎｗｅｉｓｉｄｉａｎｚｉｓｈａｎｇｗｕ　ｙｏｕｘｉａｎｇｏｎｇｓｉ,,外国会社等,,,,,,,,Ｒｏｏｍ２１０１，Ｂｕｉｌｄｉｎｇ６，Ｇａｌａｘｙ　Ｎｏ．１　Ｙａｂａｏ　Ｒｏａｄ，Ｂａｎｔｉａｎ　Ｓｔｒｅｅｔ，Ｌｏｎｇｇａｎｇ　Ｄｉｓｔｒｉｃｔ　Ｓｈｅｎｚｈｅｎ　Ｇｕａｎｇｄｏｎｇ,,,,,,2023-10-03,1,,,,,シンセンシアンウエウシデンシシヤンウユウゲンコウシ,0
1638,7010003041827,新規,0,2023-10-03,2023-10-03,合同会社Ｓｈｉｏｎ,,合同会社,東京都,中央区,銀座４丁目１３－８－５０３,,13,102,1040061,,,,,,,2023-10-03,1,,,,,シオン,0
1649,7010501051063,新規,0,2023-10-03,2023-10-03,馳力株式会社,,株式会社,東京都,台東区,台東１丁目３２番６号小島ビル４０２,,13,106,1100016,,,,,,,2023-10-03,1,,,,,チリ,0
1650,7010601063891,新規,0,2023-10-03,2023-10-03,株式会社成設備,,株式会社,東京都,墨田区,緑４丁目２７－２－５０６,,13,107,1300021,,,,,,,2023-10-03,1,,,,,ジョウセツビ,0
1655,7010603010396,新規,0,2023-10-03,2023-10-03,合同会社５Ｓｈａｐｅ,,合同会社,東京都,墨田区,東墨田２丁目１３番２９号,,13,107,1310042,,,,,,,2023-10-03,1,,,,,ファイブシェイプ,0
1660,7010901053923,新規,0,2023-10-03,2023-10-03,株式会社Ｕ２,,株式会社,東京都,世田谷区,瀬田２丁目２４番８－４０６号,,13,112,1580095,,,,,,,2023-10-03,1,,,,,ユーツー,0
1662,7010903008487,新規,0,2023-10-03,2023-10-03,合同会社ｔｅｒｒａｒｉｕｍ,,合同会社,東京都,世田谷区,玉川台２丁目３２番１－６０２号,,13,112,1580096,,,,,,,2023-10-03,1,,,,,テラリウム,0
1666,7011001157292,新規,0,2023-10-03,2023-10-03,株式会社ｅｘｐｏｓｅ,,株式会社,東京都,渋谷区,恵比寿４丁目２７番２号赤尾ビル８０１,,13,113,1500013,,,,,,,2023-10-03,1,,,,,エクスポーズ,0
1671,7011101104574,新規,0,2023-10-03,2023-10-03,スリーウェイコンサルティング株式会社,,株式会社,東京都,新宿区,須賀町１番地サンコート四谷３０３,,13,104,1600018,,,,,,,2023-10-03,1,,,,,スリーウェイコンサルティング,0
1672,7011101104582,新規,0,2023-10-03,2023-10-03,大東商事株式会社,,株式会社,東京都,新宿区,市谷甲良町２番１６号１階,,13,104,1620856,,,,,,,2023-10-03,1,,,,,ダイトウショウジ,0
1673,7011303004853,新規,0,2023-10-03,2023-10-03,合同会社安江,,合同会社,東京都,杉並区,大宮１丁目１１―１３,,13,115,1680061,,,,,,,2023-10-03,1,,,,,ヤスエ,0
1676,7011401025487,新規,0,2023-10-03,2023-10-03,株式会社ＡＩｎｎｏＷａｖｅ,,株式会社,東京都,板橋区,中丸町３１－７澤田ビル２Ｆ,,13,119,1730026,,,,,,,2023-10-03,1,,,,,アイノウェーブ,0
1682,7011803005863,新規,0,2023-10-03,2023-10-03,ＭＫインパクト合同会社,,合同会社,東京都,葛飾区,亀有２丁目３７番１２号ＪＴレジデンス亀有弐番館１０１号,,13,122,1250061,,,,,,,2023-10-03,1,,,,,エムケーインパクト,0
1683,7011805003304,新規,0,2023-10-03,2023-10-03,一般社団法人世界芸術家聯盟,,その他の設立登記法人,東京都,足立区,東綾瀬１丁目２２－６－２Ｆ,,13,121,1200004,,,,,,,2023-10-03,1,,,,,セカイゲイジュツカレンメイ,0
1684,7012301013615,新規,0,2023-10-03,2023-10-03,株式会社千プロモーション,,株式会社,東京都,町田市,金井３丁目３２番地５,,13,209,1950072,,,,,,,2023-10-03,1,,,,,センプロモーション,0
1686,7012403006211,新規,0,2023-10-03,2023-10-03,ＴＣＨＤ合同会社,,合同会社,東京都,武蔵野市,吉祥寺本町１丁目２０番１号吉祥寺永谷シティプラザ１００２,,13,203,1800004,,,,,,,2023-10-03,1,,,,,ティーシーエイチディー,0
1689,7012801022660,新規,0,2023-10-03,2023-10-03,株式会社ＰＡＴＨ,,株式会社,東京都,立川市,錦町１丁目２０番２１号ヴィークコート立川１０６号,,13,202,1900022,,,,,,,2023-10-03,1,,,,,パス,0
1690,7012801022669,新規,0,2023-10-03,2023-10-03,株式会社テッパン,,株式会社,東京都,日野市,旭が丘１丁目２３番地の５,,13,212,1910065,,,,,,,2023-10-03,1,,,,,テッパン,0
1695,7020001153730,新規,0,2023-10-03,2023-10-03,株式会社ＶＥＲＴＥＸ,,株式会社,神奈川県,横浜市泉区,和泉中央北３丁目６－１,,14,116,2450024,,,,,,,2023-10-03,1,,,,,バーテックス,0
1696,7020001153739,新規,0,2023-10-03,2023-10-03,株式会社古田興業,,株式会社,神奈川県,横浜市戸塚区,東俣野町９０６番地９,,14,110,2450065,,,,,,,2023-10-03,1,,,,,フルタコウギョウ,0
1697,7020001153755,新規,0,2023-10-03,2023-10-03,株式会社グランドメリット,,株式会社,神奈川県,横浜市西区,平沼１丁目３３番８－１０１号,,14,103,2200023,,,,,,,2023-10-03,1,,,,,グランドメリット,0
1718,7030001156385,新規,0,2023-10-03,2023-10-03,株式会社デーモンズ,,株式会社,埼玉県,春日部市,藤塚１８８８番地１９（１号棟）,,11,214,3440011,,,,,,,2023-10-03,1,,,,,デーモンズ,0
1723,7030003022684,新規,0,2023-10-03,2023-10-03,合同会社ＣＯＣＯ・サロン,,合同会社,埼玉県,所沢市,若狭４丁目２５０７番地の３,,11,208,3591151,,,,,,,2023-10-03,1,,,,,ココサロン,0
1724,7030003022734,新規,0,2023-10-03,2023-10-03,さくらダンス合同会社,,合同会社,埼玉県,さいたま市大宮区,桜木町２丁目３大宮マルイ７階,,11,103,3300854,,,,,,,2023-10-03,1,,,,,サクラダンス,0
1733,7040002071566,新規,0,2023-10-03,2023-10-03,有限会社溝口商店,,有限会社,千葉県,富津市,湊４４番地,,12,226,2991607,,,,,,,2023-10-03,1,,,,,ミゾグチショウテン,0
1734,7040003023104,新規,0,2023-10-03,2023-10-03,Ｓｗｉｍｍｙ合同会社,,合同会社,千葉県,木更津市,朝日３丁目３－１０－２０１,,12,206,2920055,,,,,,,2023-10-03,1,,,,,スウィミー,0
1749,7070001040916,新規,0,2023-10-03,2023-10-03,株式会社ＭＺ　ＴＲＡＤＩＮＧ,,株式会社,群馬県,伊勢崎市,除ケ町３６７番地１９,,10,204,3720832,,,,,,,2023-10-03,1,,,,,エムゼットトレーディング,0
1752,7080001025890,新規,0,2023-10-03,2023-10-03,ホロン株式会社,,株式会社,静岡県,静岡市葵区,伝馬町１－２ホテルシティオ４Ｆ－Ｃ－４５,,22,101,4200858,,,,,,,2023-10-03,1,,,,,ホロン,0
1753,7080005007571,新規,0,2023-10-03,2023-10-03,医療法人社団ＧＲＩＴ,,その他の設立登記法人,静岡県,静岡市駿河区,石田３丁目１１番３２号,,22,102,4228042,,,,,,,2023-10-03,1,,,,,グリット,0
1754,7080401026761,新規,0,2023-10-03,2023-10-03,Ｓａｒａ　Ｔｏｗｎ株式会社,,株式会社,静岡県,浜松市東区,和田町４０８番地の２,,22,132,4350016,,,,,,,2023-10-03,1,,,,,サラタウン,0
1755,7080405007576,新規,0,2023-10-03,2023-10-03,医療法人社団ゆう,,その他の設立登記法人,静岡県,浜松市西区,雄踏町宇布見４０６９番地の１,,22,133,4310102,,,,,,,2023-10-03,1,,,,,ユウ,0
1758,7100005013071,新規,0,2023-10-03,2023-10-03,一般社団法人ＬＩＦＥイノベーション,,その他の設立登記法人,長野県,長野市,大字鶴賀上千歳町１１３７番地２３長野１１３７ビル２階ビジネスポート長野,,20,201,3800821,,,,,,,2023-10-03,1,,,,,ライフイノベーション,0
1767,7120001258395,新規,0,2023-10-03,2023-10-03,欧蔓株式会社,,株式会社,大阪府,大阪市東成区,東小橋１丁目１７－３１グランドハイツ東小橋３０２号室,,27,115,5370024,,,,,,,2023-10-03,1,,,,,オウマン,0
1768,7120001258429,新規,0,2023-10-03,2023-10-03,亜麻株式会社,,株式会社,大阪府,大阪市住吉区,墨江３丁目１７－１８申野オフィス３０１号,,27,120,5580043,,,,,,,2023-10-03,1,,,,,アアサ,0
1769,7120001258437,新規,0,2023-10-03,2023-10-03,若耶溪株式会社,,株式会社,大阪府,大阪市中央区,内本町２丁目２番１４号,,27,128,5400026,,,,,,,2023-10-03,1,,,,,ジャクヤケイ,0
1770,7120001258494,新規,0,2023-10-03,2023-10-03,ｇｒａｃｅ株式会社,,株式会社,大阪府,大阪市天王寺区,大道２丁目７－２０－２０１,,27,109,5430052,,,,,,,2023-10-03,1,,,,,グレイス,0
1771,7120001258536,新規,0,2023-10-03,2023-10-03,アリス株式会社,,株式会社,大阪府,大阪市東住吉区,湯里４丁目１３番１６号,,27,121,5460013,,,,,,,2023-10-03,1,,,,,アリス,0
1772,7120001258610,新規,0,2023-10-03,2023-10-03,焙多楽食品株式会社,,株式会社,大阪府,寝屋川市,香里西之町２６番２号,,27,215,5720089,,,,,,,2023-10-03,1,,,,,ハタラクショクヒン,0
1777,7120901048103,新規,0,2023-10-03,2023-10-03,株式会社エーエムコーポレーション,,株式会社,大阪府,吹田市,山田東３丁目８番２３－６０６号,,27,205,5650821,,,,,,,2023-10-03,1,,,,,エーエムコーポレーション,0
1784,7130001075344,新規,0,2023-10-03,2023-10-03,株式会社薬膳漢方研究所,,株式会社,京都府,京都市下京区,烏丸通六条下る北町１８４番地２ＹＨＤ烏丸六条ビル３階,,26,106,6008176,,,,,,,2023-10-03,1,,,,,ヤクゼンカンポウケンキュウショ,0
1789,7140001131815,新規,0,2023-10-03,2023-10-03,株式会社プラスナイン,,株式会社,兵庫県,神戸市中央区,磯辺通１丁目１番１８号カサベラ国際プラザビル７０７号室,,28,110,6510084,,,,,,,2023-10-03,1,,,,,プラスナイン,0
1794,7140003019612,新規,0,2023-10-03,2023-10-03,ＯＳＡＫＡ　ＢＡＳＥ合同会社,,合同会社,兵庫県,三田市,けやき台３丁目２８番地５６,,28,219,6691321,,,,,,,2023-10-03,1,,,,,オオサカベース,0
1795,7140003019620,新規,0,2023-10-03,2023-10-03,合同会社濱本会計事務所,,合同会社,兵庫県,神戸市灘区,記田町３丁目３番２－２０５号,,28,102,6570034,,,,,,,2023-10-03,1,,,,,ハマモトカイケイジムショ,0
1807,7180001158210,新規,0,2023-10-03,2023-10-03,株式会社みなみ住宅設備,,株式会社,愛知県,弥富市,佐古木５丁目４５７番地３ローレルコート弥富東３０５,,23,235,4980006,,,,,,,2023-10-03,1,,,,,ミナミジュウタクセツビ,0
1808,7180001158235,新規,0,2023-10-03,2023-10-03,イツキ工業株式会社,,株式会社,愛知県,半田市,浜田町１丁目５４番地,,23,205,4750805,,,,,,,2023-10-03,1,,,,,イツキコウギョウ,0
1814,7180003025805,新規,0,2023-10-03,2023-10-03,合同会社プランタンシエル,,合同会社,愛知県,一宮市,島村字更江１０１番地１,,23,203,4910121,,,,,,,2023-10-03,1,,,,,プランタンシエル,0
1815,7180003025813,新規,0,2023-10-03,2023-10-03,合同会社雄希工業,,合同会社,愛知県,名古屋市中村区,中村町７丁目２４番地（サンライズソブエ２Ａ号）,,23,105,4530053,,,,,,,2023-10-03,1,,,,,ユウキコウギョウ,0
1816,7180005020366,新規,0,2023-10-03,2023-10-03,一般社団法人ＡＵＲＡ,,その他の設立登記法人,愛知県,名古屋市中区,錦２丁目９番２５号２Ｆ,,23,106,4600003,,,,,,,2023-10-03,1,,,,,アウラ,0
1817,7180301037857,新規,0,2023-10-03,2023-10-03,株式会社ライオンズゲート,,株式会社,愛知県,碧南市,相生町４丁目９７番地,,23,209,4470862,,,,,,,2023-10-03,1,,,,,ライオンズゲート,0
1818,7180301037865,新規,0,2023-10-03,2023-10-03,株式会社しばんちゅガーデンメンテナンス,,株式会社,愛知県,豊川市,大橋町２丁目１０番地,,23,207,4420809,,,,,,,2023-10-03,1,,,,,シバンチュガーデンメンテナンス,0
1819,7190001030764,新規,0,2023-10-03,2023-10-03,株式会社日本ユニコープ,,株式会社,三重県,伊勢市,宮後２丁目２１番８号,,24,203,5160072,,,,,,,2023-10-03,1,,,,,ニッポンユニコープ,0
1820,7190001030772,新規,0,2023-10-03,2023-10-03,株式会社横山工業,,株式会社,三重県,松阪市,猟師町２２８番地１,,24,204,5150802,,,,,,,2023-10-03,1,,,,,ヨコヤマコウギョウ,0
1831,7230001020034,新規,0,2023-10-03,2023-10-03,株式会社ＮＤＹ,,株式会社,富山県,中新川郡立山町,田添１０５番地３,,16,323,9300219,,,,,,,2023-10-03,1,,,,,エヌディーワイ,0
1833,7240001062190,新規,0,2023-10-03,2023-10-03,株式会社貴産業,,株式会社,広島県,広島市西区,南観音４丁目２番４４号片山ビル５０１,,34,104,7330035,,,,,,,2023-10-03,1,,,,,タカサンギョウ,0
1834,7260001038354,新規,0,2023-10-03,2023-10-03,株式会社シルフ,,株式会社,岡山県,浅口郡里庄町,大字里見４０２０番地,,33,445,7190301,,,,,,,2023-10-03,1,,,,,シルフ,0
1839,7290001103089,新規,0,2023-10-03,2023-10-03,株式会社ねこみみ,,株式会社,福岡県,筑紫野市,二日市北６丁目６番１７号,,40,217,8180056,,,,,,,2023-10-03,1,,,,,ネコミミ,0
1840,7290001103205,新規,0,2023-10-03,2023-10-03,Ｒ‐１デザイン株式会社,,株式会社,福岡県,福岡市南区,中尾３丁目２３番１５号,,40,134,8111364,,,,,,,2023-10-03,1,,,,,,0
1843,7290003014375,新規,0,2023-10-03,2023-10-03,合同会社ラグジュアリー,,合同会社,福岡県,福津市,高平１１番地の１,,40,224,8113227,,,,,,,2023-10-03,1,,,,,ラグジュアリー,0
1852,7330001031302,新規,0,2023-10-03,2023-10-03,株式会社ふかみ農園,,株式会社,熊本県,熊本市北区,植木町有泉１１４５番地,,43,105,8610123,,,,,,,2023-10-03,1,,,,,フカミノウエン,0
1854,7340003004271,新規,0,2023-10-03,2023-10-03,合同会社フラット,,合同会社,鹿児島県,霧島市,国分重久２０９６－２,,46,218,8994301,,,,,,,2023-10-03,1,,,,,フラット,0
1855,7370003006307,新規,0,2023-10-03,2023-10-03,合同会社ＫＡＩＴＡＫＵ,,合同会社,宮城県,仙台市若林区,上飯田３丁目３０番１４号フレグランスＣ１０２,,04,103,9840838,,,,,,,2023-10-03,1,,,,,カイタク,0
1861,7400001016394,新規,0,2023-10-03,2023-10-03,株式会社債権管理,,株式会社,岩手県,北上市,さくら通り５丁目１２番３８号,,03,206,0240084,,,,,,,2023-10-03,1,,,,,サイケンカンリ,0
1868,7430001090098,新規,0,2023-10-03,2023-10-03,株式会社春一家,,株式会社,北海道,札幌市豊平区,美園十一条６丁目１番２２号,,01,105,0620011,,,,,,,2023-10-03,1,,,,,ハルイチヤ,0
1871,7430003015499,新規,0,2023-10-03,2023-10-03,合同会社ＥＮ　ＷＡＶＥ,,合同会社,北海道,札幌市中央区,南五条西１０丁目１０１５‐８‐３０３,,01,101,0640805,,,,,,,2023-10-03,1,,,,,エンウェイブ,0
1872,7460001005838,新規,0,2023-10-03,2023-10-03,株式会社雅コーポレーション,,株式会社,北海道,釧路市,星が浦北１丁目１番２２号,,01,206,0840911,,,,,,,2023-10-03,1,,,,,ミヤビコーポレーション,0
1887,7700150113714,新規,0,2023-10-03,2023-10-03,ＨＤＣ　ＰＯＬＹＡＬＬ　Ｃｏ．，Ｌｔｄ．,,外国会社等,,,,,,,,５９１－１，Ｓｈｉｎｈａｎｇ－ｒｏ，Ｎａｍ－ｇｕ，Ｕｌｓａｎ，Ｒｅｐｕｂｌｉｃ　ｏｆ　Ｋｏｒｅａ,,,,,,2023-10-03,1,,,,,エイチデイーシーポリオールカンパニーリミテツド,0
1888,7700150119117,新規,0,2023-10-03,2023-10-03,ＲＵＩＡＮ　ＣＨＥＮＹＵ　ＥＬＥＣＴＲＯＮＩＣ　ＣＯＭＭＥＲＣＥ　ＣＯ．，ＬＴＤ．,,外国会社等,,,,,,,,Ｎｏ．９，３ｒｄ　Ｌａｎｅ，Ｘｉｎｚｈｏｎｇ　Ｒｏａｄ，Ｚｈｏｎｇｃｕｎ　Ｘｉｎｃｈｅｎｇ　Ｓｔ，Ｒｕｉ　ａｎ　Ｃｉｔｙ　Ｗｅｎｚｈｏｕ　Ｃｉｔｙ　Ｚｈｅｊｉａｎｇ　３２５０００　Ｃｈｉｎａ,,,,,,2023-10-03,1,,,,,ウルイアンチエンユイデイエンズシヤンウヨウシエンゴンス,0
1889,7700150119125,新規,0,2023-10-03,2023-10-03,ｓｈｅｎｚｈｅｎｓｈｉｄｕｏｐａｄｉａｎｚｉｓｈａｎｇｗｕｙｏｕｘｉａｎｚｅｒｅｎｇｏｎｇｓｉ,,外国会社等,,,,,,,,ｓｈｅｎｚｈｅｎｓｈｉ，ｌｏｎｇｇａｎｇｑｕ，ｎａｎｗａｎｊｉｅｄａｏ，ｎａｎｌｉｎｇｃｕｎｓｈｅｑｕ，ｎａｎｌｉｎｘｉｌｕ６１ｈａｏ，ｌｉｚｈｉｈｕａｙｕａｎＢ１１ｄｏｎｇ１６Ｊ，ｓｈｅｎｚｈｅｎｓｈｉ，ｇｕａｎｇｄｏｎｓｈｅｎｇ　５１８１００　ＣＮ,,,,,,2023-10-03,1,,,,,シンセンドーパイーコマースユウゲンガイシヤ,0
1890,7700150120958,新規,0,2023-10-03,2023-10-03,Ｂａｏｄｉｎｇ　Ｋｅｚｈｉ　Ｔｒａｄｅ　Ｃｏ．，Ｌｔｄ．,,外国会社等,,,,,,,,Ｎｏ．６９　Ｘｉｂａｉｌｏｕ　Ｖｉｌｌａｇｅ，Ｂａｉｌｏｕ　Ｔｏｗｎｓｈｉｐ，Ｌｉａｎｃｈｉ　Ｄｉｓｔｒｉｃｔ　Ｂａｏｄｉｎｇ　Ｈｅｂｅｉ　Ｐｒｏｖｉｎｃｅ,,,,,,2023-10-03,1,,,,,バアオデインケジトレードカンパニーリミテツド,0
1903,8010001238861,新規,0,2023-10-03,2023-10-03,百徳株式会社,,株式会社,東京都,中央区,日本橋蛎殻町１丁目３０番４号,,13,102,1030014,,,,,,,2023-10-03,1,,,,,デボン,0
1914,8010003041751,新規,0,2023-10-03,2023-10-03,ＭＵＣ合同会社,,合同会社,東京都,中央区,銀座１丁目１２番４号Ｎ＆ＥＢＬＤ．６Ｆ,,13,102,1040061,,,,,,,2023-10-03,1,,,,,エムユーシー,0
1915,8010003041776,新規,0,2023-10-03,2023-10-03,合同会社ミッドナイトブルー,,合同会社,東京都,千代田区,麹町３丁目２番地１３ＴＨＥ千代田麹町ＴＯＷＥＲ１８０１号,,13,101,1020083,,,,,,,2023-10-03,1,,,,,ミッドナイトブルー,0
1923,8010401177511,新規,0,2023-10-03,2023-10-03,株式会社ＡＥＭ,,株式会社,東京都,港区,赤坂１丁目５番１２号,,13,103,1070052,,,,,,,2023-10-03,1,,,,,アエマ,0
1928,8010901053922,新規,0,2023-10-03,2023-10-03,株式会社プレシオ,,株式会社,東京都,世田谷区,等々力８丁目１３番１７号朝日マンション等々力４０５,,13,112,1580082,,,,,,,2023-10-03,1,,,,,プレシオ,0
1930,8011001156748,新規,0,2023-10-03,2023-10-03,豊柏商事株式会社,,株式会社,東京都,渋谷区,代々木４丁目３１－４キャッスル新宿１２０５号室,,13,113,1510053,,,,,,,2023-10-03,1,,,,,トヨカスショウジ,0
1931,8011001157291,新規,0,2023-10-03,2023-10-03,株式会社タケダ,,株式会社,東京都,目黒区,目黒本町３丁目６番７－４０３号アトラス目黒本町,,13,110,1520002,,,,,,,2023-10-03,1,,,,,タケダ,0
1935,8011101104557,新規,0,2023-10-03,2023-10-03,ＪＣＳ株式会社,,株式会社,東京都,新宿区,富久町１５番１号,,13,104,1620067,,,,,,,2023-10-03,1,,,,,ジェイシーエス,0
1936,8011101104565,新規,0,2023-10-03,2023-10-03,株式会社ウェルスライフ,,株式会社,東京都,新宿区,西新宿７丁目４－７イマス浜田ビル３階,,13,104,1600023,,,,,,,2023-10-03,1,,,,,ウェルスライフ,0
1937,8011101104573,新規,0,2023-10-03,2023-10-03,Ｍｅ＆Ｊｏｅ株式会社,,株式会社,東京都,新宿区,新宿４丁目３番１５号,,13,104,1600022,,,,,,,2023-10-03,1,,,,,ミーアンドジョー,0
1938,8011101104581,新規,0,2023-10-03,2023-10-03,株式会社伊藤商事,,株式会社,東京都,新宿区,西新宿３丁目７番１号新宿パークタワーＮ３０階,,13,104,1600023,,,,,,,2023-10-03,1,,,,,イトウショウジ,0
1939,8011101104598,新規,0,2023-10-03,2023-10-03,株式会社ＡＴＺ,,株式会社,東京都,新宿区,北新宿１丁目１７番１９号新幸ハイム２０３号,,13,104,1690074,,,,,,,2023-10-03,1,,,,,エイティーゼッド,0
1940,8011103013525,新規,0,2023-10-03,2023-10-03,寅裕合同会社,,合同会社,東京都,新宿区,榎町３４－３榎町ビル５階－１２室,,13,104,1620806,,,,,,,2023-10-03,1,,,,,トラヒロ,0
1944,8011701026614,新規,0,2023-10-03,2023-10-03,株式会社Ｇ＆Ｇ,,株式会社,東京都,江戸川区,西小岩１丁目３０番１１号,,13,123,1330057,,,,,,,2023-10-03,1,,,,,ジーアンドジー,0
1946,8011801043113,新規,0,2023-10-03,2023-10-03,株式会社Ｍａｇｎｅｔ,,株式会社,東京都,足立区,柳原２丁目２５番１５号,,13,121,1200022,,,,,,,2023-10-03,1,,,,,マグネット,0
1948,8012403006210,新規,0,2023-10-03,2023-10-03,合同会社自由研究,,合同会社,東京都,多摩市,連光寺３丁目３２－１コートグレイスエクセレント２０６,,13,224,2060021,,,,,,,2023-10-03,1,,,,,ジユウケンキュウ,0
1950,8012801022668,新規,0,2023-10-03,2023-10-03,株式会社Ｐｉｎｏｚ,,株式会社,東京都,武蔵村山市,残堀５丁目６４番地の８,,13,223,2080034,,,,,,,2023-10-03,1,,,,,ピノズ,0
1953,8020001153705,新規,0,2023-10-03,2023-10-03,株式会社吉陽貿易,,株式会社,神奈川県,横浜市中区,羽衣町２丁目５番３号,,14,104,2310047,,,,,,,2023-10-03,1,,,,,ヨシハルボウエキ,0
1954,8020001153713,新規,0,2023-10-03,2023-10-03,株式会社グレース,,株式会社,神奈川県,横浜市磯子区,杉田１丁目５番２７号,,14,107,2350033,,,,,,,2023-10-03,1,,,,,グレース,0
1955,8020001153738,新規,0,2023-10-03,2023-10-03,株式会社根深塗装工業,,株式会社,神奈川県,横浜市戸塚区,戸塚町３４２６番地９,,14,110,2440003,,,,,,,2023-10-03,1,,,,,ネブカトソウコウギョウ,0
1959,8020003024680,新規,0,2023-10-03,2023-10-03,合同会社Ａｖｖｅｎｅｎｔｅ,,合同会社,神奈川県,川崎市多摩区,登戸２４４７番地２ルチアーノ２０１,,14,135,2140014,,,,,,,2023-10-03,1,,,,,アベネンテ,0
1972,8030001156244,新規,0,2023-10-03,2023-10-03,株式会社オリジントレーディングス,,株式会社,埼玉県,さいたま市中央区,上落合２丁目３－２ＭＩＯ新都心,,11,105,3380001,,,,,,,2023-10-03,1,,,,,オリジントレーディングス,0
1973,8030001156335,新規,0,2023-10-03,2023-10-03,岡阪日川株式会社,,株式会社,埼玉県,八潮市,大字西袋６７６番地２２－２０１号室,,11,234,3400833,,,,,,,2023-10-03,1,,,,,オカサカヒガワ,0
1974,8030001156368,新規,0,2023-10-03,2023-10-03,株式会社トイダ,,株式会社,埼玉県,春日部市,南５丁目３番１７号,,11,214,3440064,,,,,,,2023-10-03,1,,,,,トイダ,0
1980,8030003022634,新規,0,2023-10-03,2023-10-03,合同会社のきの,,合同会社,埼玉県,所沢市,東狭山ケ丘２丁目２９７９番地の１４,,11,208,3591106,,,,,,,2023-10-03,1,,,,,ノキノ,0
1981,8030003022659,新規,0,2023-10-03,2023-10-03,ＨＡＳＯＭＯ合同会社,,合同会社,埼玉県,川越市,南台２丁目１１番６号熊谷店舗２階,,11,201,3501165,,,,,,,2023-10-03,1,,,,,ハーソモ,0
1982,8030003022717,新規,0,2023-10-03,2023-10-03,合同会社ジョインクラス,,合同会社,埼玉県,さいたま市南区,大字大谷口３１８３番地３,,11,108,3360042,,,,,,,2023-10-03,1,,,,,ジョインクラス,0
1984,8030005021403,新規,0,2023-10-03,2023-10-03,一般社団法人ソラケイ,,その他の設立登記法人,埼玉県,川越市,諏訪町１１番地２０,,11,201,3501147,,,,,,,2023-10-03,1,,,,,ソラケイ,0
2002,8080401026769,新規,0,2023-10-03,2023-10-03,株式会社ハーベストクリエイト,,株式会社,静岡県,浜松市中区,和地山１丁目７番３１３号チサンマンション浜松,,22,131,4328003,,,,,,,2023-10-03,1,,,,,ハーベストクリエイト,0
2009,8100003007207,新規,0,2023-10-03,2023-10-03,ＹＯＮＤＡ　ＨＯＬＤＩＮＧＳ合同会社,,合同会社,長野県,北安曇郡白馬村,大字北城みそらの２９３７番地５４１,,20,485,3999301,,,,,,,2023-10-03,1,,,,,ヨンダホールディングス,0
2010,8110001037873,新規,0,2023-10-03,2023-10-03,ｌｅａｎｍｅｌ株式会社,,株式会社,新潟県,胎内市,平木田１７００番地３４,,15,227,9592614,,,,,,,2023-10-03,1,,,,,リーンメル,0
2015,8120003025017,新規,0,2023-10-03,2023-10-03,合同会社ＳＫプロテック,,合同会社,大阪府,大阪市中央区,内平野町１丁目２－９グランドビル大手前３階３０４号,,27,128,5400037,,,,,,,2023-10-03,1,,,,,エスケープロテック,0
2026,8130001075343,新規,0,2023-10-03,2023-10-03,株式会社マツケン産業,,株式会社,京都府,京田辺市,田辺池ノ尻２９番地,,26,211,6100331,,,,,,,2023-10-03,1,,,,,マツケンサンギョウ,0
2034,8140001131789,新規,0,2023-10-03,2023-10-03,株式会社でんでん,,株式会社,兵庫県,西宮市,戸田町１番１３－１０１号,,28,204,6620916,,,,,,,2023-10-03,1,,,,,デンデン,0
2035,8140001131797,新規,0,2023-10-03,2023-10-03,Ｗａｉｂａ国際株式会社,,株式会社,兵庫県,神戸市東灘区,北青木２丁目６番４号,,28,101,6580014,,,,,,,2023-10-03,1,,,,,ワイバコクサイ,0
2036,8140001131847,新規,0,2023-10-03,2023-10-03,株式会社ＲＵＫＫＡ,,株式会社,兵庫県,西宮市,丸橋町６番１７号,,28,204,6620831,,,,,,,2023-10-03,1,,,,,ルッカ,0
2052,8180001158218,新規,0,2023-10-03,2023-10-03,株式会社３３５,,株式会社,愛知県,知多市,大草字大瀬１１７－１,,23,224,4780035,,,,,,,2023-10-03,1,,,,,サンサンゴー,0
2053,8180001158242,新規,0,2023-10-03,2023-10-03,東海名和工業株式会社,,株式会社,愛知県,一宮市,多加木２丁目１５番２６号,,23,203,4910837,,,,,,,2023-10-03,1,,,,,トウカイナワコウギョウ,0
2054,8180001158267,新規,0,2023-10-03,2023-10-03,株式会社エムライズ,,株式会社,愛知県,名古屋市港区,浜１丁目８番８号,,23,111,4550036,,,,,,,2023-10-03,1,,,,,エムライズ,0
2055,8180001158275,新規,0,2023-10-03,2023-10-03,株式会社愛生硝子,,株式会社,愛知県,名古屋市中川区,高畑４丁目１７１番地,,23,110,4540911,,,,,,,2023-10-03,1,,,,,アイセイガラス,0
2063,8190001030763,新規,0,2023-10-03,2023-10-03,株式会社コテツコーポレーション,,株式会社,三重県,津市,半田３４２５番地２５３,,24,201,5140823,,,,,,,2023-10-03,1,,,,,コテツコーポレーション,0
2065,8200003006099,新規,0,2023-10-03,2023-10-03,ＭＥＧ合同会社,,合同会社,岐阜県,岐阜市,東興町３０ＩＳ．ＣＯＵＲＴ１階,,21,201,5008137,,,,,,,2023-10-03,1,,,,,エムイージー,0
2077,8240001062198,新規,0,2023-10-03,2023-10-03,株式会社ＲＯＳＥＴ,,株式会社,広島県,広島市中区,堺町１丁目７番３－３０４号,,34,101,7300853,,,,,,,2023-10-03,1,,,,,ロセット,0
2086,8260001038353,新規,0,2023-10-03,2023-10-03,ロードアンドスカイ株式会社,,株式会社,岡山県,玉野市,田井４丁目３０番１６号,,33,204,7060001,,,,,,,2023-10-03,1,,,,,ロードアンドスカイ,0
2095,8290003014399,新規,0,2023-10-03,2023-10-03,ｃｏｚｙ‐ｌａｂｏ合同会社,,合同会社,福岡県,みやま市,高田町下楠田２０００－１１０,,40,229,8390221,,,,,,,2023-10-03,1,,,,,コージーラボ,0
2096,8290003014432,新規,0,2023-10-03,2023-10-03,合同会社Ｅｌｍ　Ｓｔｅｐ,,合同会社,福岡県,那珂川市,中原３丁目４０－１,,40,231,8111213,,,,,,,2023-10-03,1,,,,,エルメステップ,0
2101,8290801029920,新規,0,2023-10-03,2023-10-03,株式会社オンユアマーク,,株式会社,福岡県,北九州市小倉北区,馬借１丁目５番１６－２０５号,,40,106,8020077,,,,,,,2023-10-03,1,,,,,オンユアマーク,0
2116,8340001025946,新規,0,2023-10-03,2023-10-03,株式会社なかむら電工,,株式会社,鹿児島県,出水市,福ノ江町６番地,,46,208,8990133,,,,,,,2023-10-03,1,,,,,ナカムラデンコウ,0
2118,8340003004270,新規,0,2023-10-03,2023-10-03,合同会社ヒラケン内装,,合同会社,鹿児島県,鹿児島市,宇宿７丁目５－１７,,46,201,8900073,,,,,,,2023-10-03,1,,,,,ヒラケンナイソウ,0
2119,8350001018593,新規,0,2023-10-03,2023-10-03,株式会社和拓工業,,株式会社,宮崎県,宮崎市,田野町乙１０８４５番地３,,45,201,8891702,,,,,,,2023-10-03,1,,,,,カズヒラコウギョウ,0
2125,8390001017385,新規,0,2023-10-03,2023-10-03,株式会社チェリーハウス,,株式会社,山形県,東置賜郡高畠町,福沢南８番地３,,06,381,9992175,,,,,,,2023-10-03,1,,,,,チェリーハウス,0
2139,8460001005837,新規,0,2023-10-03,2023-10-03,株式会社北海道リノベーションシステム,,株式会社,北海道,釧路市,武佐１丁目９番２０号,,01,206,0850806,,,,,,,2023-10-03,1,,,,,ホッカイドウリノベーションシステム,0
2143,8480001012237,新規,0,2023-10-03,2023-10-03,田中屋カーサービス株式会社,,株式会社,徳島県,吉野川市,鴨島町敷地１８０番地２,,36,205,7760031,,,,,,,2023-10-03,1,,,,,タナカヤカーサービス,0
2150,8700150120957,新規,0,2023-10-03,2023-10-03,Ｂｅｉｊｉｎｇ　Ｓａｂｉｎｅ　Ｔｅｃｈｎｏｌｏｇｉｅｓ　Ｌｔｄ,,外国会社等,,,,,,,,ｂｅｉｊｉｎｇ　ｈａｉｄｉａｎ　ｘｉｓａｎｑｉｃｈａｎｇｌｉｎ８０１ｈａｏ２７ｈａｏ２ｃｅｎｇ２１５　ｂｅｉｊｉｇ,,,,,,2023-10-03,1,,,,,ペキンサビンテクノロジーズリミテツド,0
2164,9010003041767,新規,0,2023-10-03,2023-10-03,ＨＡＮＡＲＩ合同会社,,合同会社,東京都,千代田区,神田和泉町１番地６－１６ヤマトビル４０５,,13,101,1010024,,,,,,,2023-10-03,1,,,,,ハナリ,0
2167,9010005037326,新規,0,2023-10-03,2023-10-03,三郷デベロップメント一般社団法人,,その他の設立登記法人,東京都,千代田区,丸の内３丁目１番１号東京共同会計事務所内,,13,101,1000005,,,,,,,2023-10-03,1,,,,,ミサトデベロップメント,0
2172,9010401177469,新規,0,2023-10-03,2023-10-03,株式会社グリティア,,株式会社,東京都,港区,南青山３丁目１番３６号青山丸竹ビル６Ｆ,,13,103,1070062,,,,,,,2023-10-03,1,,,,,グリティア,0
2173,9010401177493,新規,0,2023-10-03,2023-10-03,株式会社セカンド,,株式会社,東京都,港区,南青山３丁目１番３６号,,13,103,1070062,,,,,,,2023-10-03,1,,,,,セカンド,0
2174,9010401177519,新規,0,2023-10-03,2023-10-03,株式会社ＳＤアセット,,株式会社,東京都,港区,南青山４丁目１５番９号,,13,103,1070062,,,,,,,2023-10-03,1,,,,,エスディーアセット,0
2177,9010601063881,新規,0,2023-10-03,2023-10-03,株式会社ｂｒｅｅｚｅ,,株式会社,東京都,江東区,猿江２丁目１４番８号,,13,108,1350003,,,,,,,2023-10-03,1,,,,,ブリーズ,0
2187,9011001157290,新規,0,2023-10-03,2023-10-03,株式会社ＤＡＶＲＹＵ,,株式会社,東京都,渋谷区,道玄坂１丁目１０番８号渋谷道玄坂東急ビル２Ｆ－Ｃ,,13,113,1500043,,,,,,,2023-10-03,1,,,,,ダブリュウ,0
2196,9011101104548,新規,0,2023-10-03,2023-10-03,さくら投資株式会社,,株式会社,東京都,新宿区,高田馬場４丁目１８－９ハイシティ高田馬場２０１号室,,13,104,1690075,,,,,,,2023-10-03,1,,,,,サクラトウシ,0
2197,9011101104580,新規,0,2023-10-03,2023-10-03,株式会社ｌｉｇｒｅｔｓ,,株式会社,東京都,新宿区,住吉町２番１８号ウィン四ツ谷７０８,,13,104,1620065,,,,,,,2023-10-03,1,,,,,リグレッツ,0
2198,9011101104597,新規,0,2023-10-03,2023-10-03,株式会社みみくる,,株式会社,東京都,新宿区,新宿１丁目３２番１号苑フタミビル３０１号室,,13,104,1600022,,,,,,,2023-10-03,1,,,,,ミミクル,0
2201,9011201024951,新規,0,2023-10-03,2023-10-03,株式会社ＮＳ興業,,株式会社,東京都,中野区,白鷺３丁目２２番１４号Ｊ’ｓコート白鷺３０３,,13,114,1650035,,,,,,,2023-10-03,1,,,,,エヌエスコウギョウ,0
2204,9011301029041,新規,0,2023-10-03,2023-10-03,株式会社シエルブルー,,株式会社,東京都,杉並区,西荻北５丁目１３番１１号,,13,115,1670042,,,,,,,2023-10-03,1,,,,,シエルブルー,0
2206,9011603004072,新規,0,2023-10-03,2023-10-03,ＢＢ　Ｌｉｆｅ合同会社,,合同会社,東京都,練馬区,練馬３丁目１９－１７－６０３号,,13,120,1760001,,,,,,,2023-10-03,1,,,,,ビビライフ,0
2209,9012301013613,新規,0,2023-10-03,2023-10-03,株式会社グラント,,株式会社,東京都,町田市,本町田１１４７番地７,,13,209,1940032,,,,,,,2023-10-03,1,,,,,グラント,0
2212,9013101009256,新規,0,2023-10-03,2023-10-03,株式会社卵道,,株式会社,東京都,西多摩郡奥多摩町,小丹波５４９番地,,13,308,1980105,,,,,,,2023-10-03,1,,,,,ランウェイ,0
2217,9020001153687,新規,0,2023-10-03,2023-10-03,Ｎｏｍａｄｏ　Ｗｏｒｋｓ株式会社,,株式会社,神奈川県,横浜市西区,北幸２丁目１０番４８号むつみビル３Ｆレゾナンス横浜,,14,103,2200004,,,,,,,2023-10-03,1,,,,,ノマドワークス,0
2218,9020001153720,新規,0,2023-10-03,2023-10-03,株式会社田山工業,,株式会社,神奈川県,横浜市鶴見区,東寺尾６丁目５番２６－２号,,14,101,2300077,,,,,,,2023-10-03,1,,,,,タヤマコウギョウ,0
2219,9020001153737,新規,0,2023-10-03,2023-10-03,株式会社Ｂｅｓｔ　Ｄｏｎｇ　Ｋｈｍｅｒ,,株式会社,神奈川県,川崎市中原区,小杉町３丁目２５３番地１オーガスタ武蔵小杉５０５,,14,133,2110063,,,,,,,2023-10-03,1,,,,,ベストドンクメール,0
2220,9020001153745,新規,0,2023-10-03,2023-10-03,株式会社マイウエルネス,,株式会社,神奈川県,横浜市青葉区,すすき野３丁目５－３,,14,117,2250021,,,,,,,2023-10-03,1,,,,,マイウエルネス,0
2223,9020003024696,新規,0,2023-10-03,2023-10-03,合同会社Ｙｍｄｋｉｔ,,合同会社,神奈川県,川崎市川崎区,駅前本町１８番１号メルスサイトー７０２,,14,131,2100007,,,,,,,2023-10-03,1,,,,,ワイエムディーキット,0
2228,9021001080302,新規,0,2023-10-03,2023-10-03,株式会社絹藤,,株式会社,神奈川県,三浦郡葉山町,長柄１４６０番地の２１,,14,301,2400113,,,,,,,2023-10-03,1,,,,,キヌフジ,0
2229,9021001080319,新規,0,2023-10-03,2023-10-03,株式会社ＳＳＳ,,株式会社,神奈川県,小田原市,本町１丁目９番３２－１号,,14,206,2500012,,,,,,,2023-10-03,1,,,,,スリーエス,0
2230,9021003013607,新規,0,2023-10-03,2023-10-03,合同会社トリノ,,合同会社,神奈川県,相模原市中央区,田名４８６２番地９,,14,152,2520244,,,,,,,2023-10-03,1,,,,,トリノ,0
2237,9030001156367,新規,0,2023-10-03,2023-10-03,株式会社Ｇｌｉｔｔｅｒ,,株式会社,埼玉県,朝霞市,浜崎２丁目２番１６号,,11,227,3510033,,,,,,,2023-10-03,1,,,,,グリッター,0
2238,9030001156400,新規,0,2023-10-03,2023-10-03,株式会社仁喜,,株式会社,埼玉県,さいたま市大宮区,土手町１丁目１７１番地２,,11,103,3300801,,,,,,,2023-10-03,1,,,,,ニキ,0
2239,9030001156417,新規,0,2023-10-03,2023-10-03,株式会社南銀横丁,,株式会社,埼玉県,さいたま市大宮区,仲町１丁目１７番地ＤＡＩＴＯビルＢ１階,,11,103,3300845,,,,,,,2023-10-03,1,,,,,ナンギンヨコチョウ,0
2242,9030005021402,新規,0,2023-10-03,2023-10-03,土地家屋調査士法人ムサシ登記サービス,,その他の設立登記法人,埼玉県,比企郡嵐山町,大字平澤６８９番地２,,11,342,3550215,,,,,,,2023-10-03,1,,,,,ムサシトウキサービス,0
2258,9070001040906,新規,0,2023-10-03,2023-10-03,株式会社Ｙｏｒｋ　Ｆｅｌｌｏｗ,,株式会社,群馬県,太田市,東別所町５０３番地４カーサミニョンＡ－１０１,,10,205,3730815,,,,,,,2023-10-03,1,,,,,ヨークフェロー,0
2262,9080001025880,新規,0,2023-10-03,2023-10-03,株式会社ＬＯＨＡＳ　ｌａｂｏ,,株式会社,静岡県,牧之原市,静波２２８８番地７,,22,226,4210422,,,,,,,2023-10-03,1,,,,,ロハスラボ,0
2266,9080403004879,新規,0,2023-10-03,2023-10-03,合同会社Ａ．Ｋ　ＷＯＲＫＳ,,合同会社,静岡県,浜松市北区,細江町小野２９７－４,,22,135,4311301,,,,,,,2023-10-03,1,,,,,エーケーワークス,0
2267,9080405007574,新規,0,2023-10-03,2023-10-03,司法書士法人Ｗｅ　ｗｉｌｌ,,その他の設立登記法人,静岡県,浜松市中区,板屋町１１１番地の２浜松アクトタワー２６階,,22,131,4300928,,,,,,,2023-10-03,1,,,,,ウィーウィル,0
2269,9100001036818,新規,0,2023-10-03,2023-10-03,株式会社ＵＰＴＵＳ,,株式会社,長野県,伊那市,狐島４２４６番地１サン・シティ伊那Ａ,,20,209,3960014,,,,,,,2023-10-03,1,,,,,アプタス,0
2270,9100003007206,新規,0,2023-10-03,2023-10-03,合同会社おにぎりワークス,,合同会社,長野県,大町市,大町７６９６番地,,20,212,3980002,,,,,,,2023-10-03,1,,,,,オニギリワークス,0
2272,9110001037872,新規,0,2023-10-03,2023-10-03,日起興業株式会社,,株式会社,新潟県,十日町市,野口９番地４,,15,210,9480301,,,,,,,2023-10-03,1,,,,,ニッキコウギョウ,0
2277,9120001258138,新規,0,2023-10-03,2023-10-03,万賀株式会社,,株式会社,大阪府,大阪市阿倍野区,阿倍野元町１４－５、５０８号室,,27,119,5450034,,,,,,,2023-10-03,1,,,,,マンガ,0
2278,9120001258360,新規,0,2023-10-03,2023-10-03,株式会社ソーラーメンテナンス,,株式会社,大阪府,大阪市北区,天神橋２丁目２番１０号ハイマウントビル３０３号室,,27,127,5300041,,,,,,,2023-10-03,1,,,,,ソーラーメンテナンス,0
2279,9120001258427,新規,0,2023-10-03,2023-10-03,株式会社広志,,株式会社,大阪府,大阪市生野区,巽北１丁目７番３号２０１号室,00132110,27,116,5440004,,,,,,,2023-10-03,1,,,,,ヒロシ,0
2280,9120001258492,新規,0,2023-10-03,2023-10-03,コレコム株式会社,,株式会社,大阪府,大阪市中央区,釣鐘町２丁目２番８－４０１号,,27,128,5400035,,,,,,,2023-10-03,1,,,,,コレコム,0
2283,9120003024983,新規,0,2023-10-03,2023-10-03,合同会社ミャク,,合同会社,大阪府,大阪市住之江区,北加賀屋５丁目４番６４号ＳｕｐｅｒＳｔｕｄｉｏＫｉｔａｋａｇａｙａＳｔｕｄｉｏ４,,27,125,5590011,,,,,,,2023-10-03,1,,,,,ミャク,0
2284,9120003025008,新規,0,2023-10-03,2023-10-03,８０８ｐｌａｃｅ合同会社,,合同会社,大阪府,大阪市北区,曾根崎新地１丁目５番２０号大川ビル２Ｆ,,27,127,5300002,,,,,,,2023-10-03,1,,,,,ハチマルハチプレイス,0
2285,9120003025024,新規,0,2023-10-03,2023-10-03,合同会社グランドベア,,合同会社,大阪府,門真市,三ツ島６丁目２４－３４－１０２,,27,223,5710015,,,,,,,2023-10-03,1,,,,,グランドベア,0
2295,9130001075342,新規,0,2023-10-03,2023-10-03,株式会社Ｎ　Ｌｉｂｅｒｔａ,,株式会社,京都府,京都市西京区,下津林番条町４３番地シャーメゾン桂川１０１,,26,111,6158057,,,,,,,2023-10-03,1,,,,,エヌリベルタ,0
2296,9130001075391,新規,0,2023-10-03,2023-10-03,株式会社ＡＲＩ,,株式会社,京都府,長岡京市,天神１丁目１番５０－４１５号エスリード長岡天神,,26,209,6170824,,,,,,,2023-10-03,1,,,,,エーアールアイ,0
2306,9140001131788,新規,0,2023-10-03,2023-10-03,大林商会株式会社,,株式会社,兵庫県,三木市,吉川町金会１００５番,,28,215,6731232,,,,,,,2023-10-03,1,,,,,オオバヤシショウカイ,0
2307,9140001131813,新規,0,2023-10-03,2023-10-03,株式会社竜昇,,株式会社,兵庫県,神戸市灘区,友田町２丁目５番１９－１０２号,,28,102,6570035,,,,,,,2023-10-03,1,,,,,リュウショウ,0
2312,9150001026764,新規,0,2023-10-03,2023-10-03,ＡＹＡ株式会社,,株式会社,奈良県,大和郡山市,材木町５番地３,,29,203,6391141,,,,,,,2023-10-03,1,,,,,アヤ,0
2313,9150001026772,新規,0,2023-10-03,2023-10-03,株式会社ＦＩＲＳＴ,,株式会社,奈良県,大和郡山市,新町７６０番地９,,29,203,6391054,,,,,,,2023-10-03,1,,,,,ファースト,0
2317,9180001158233,新規,0,2023-10-03,2023-10-03,株式会社カレモ,,株式会社,愛知県,一宮市,緑４丁目１０番２５号,,23,203,4910862,,,,,,,2023-10-03,1,,,,,カレモ,0
2318,9180001158241,新規,0,2023-10-03,2023-10-03,株式会社ドットアクト,,株式会社,愛知県,名古屋市西区,則武新町３丁目１番１７号ＢＩＺｒｉｕｍ名古屋４階,,23,104,4510051,,,,,,,2023-10-03,1,,,,,ドットアクト,0
2330,9190001030770,新規,0,2023-10-03,2023-10-03,株式会社ジーエーグラッツェ,,株式会社,三重県,鈴鹿市,算所３丁目２０番５号,,24,207,5130806,,,,,,,2023-10-03,1,,,,,ジーエーグラッツェ,0
2344,9240003006342,新規,0,2023-10-03,2023-10-03,合同会社Ｓｈｅｅｍ,,合同会社,広島県,福山市,駅家町法成寺２７７２－３,,34,207,7210000,,,,,,,2023-10-03,1,,,,,シーム,0
2358,9290001103252,新規,0,2023-10-03,2023-10-03,ヒムカロジテック株式会社,,株式会社,福岡県,福岡市博多区,吉塚３丁目１６番１２－９０３号,,40,132,8120041,,,,,,,2023-10-03,1,,,,,ヒムカロジテック,0
2359,9290001103277,新規,0,2023-10-03,2023-10-03,株式会社Ｇ＆Ｄ,,株式会社,福岡県,福岡市中央区,大名２丁目６番２６号,,40,133,8100041,,,,,,,2023-10-03,1,,,,,ジーアンドディー,0
2366,9340001025945,新規,0,2023-10-03,2023-10-03,株式会社雅商会,,株式会社,鹿児島県,薩摩川内市,水引町３３９７番地４,,46,215,8991921,,,,,,,2023-10-03,1,,,,,ミヤビショウカイ,0
2367,9340001025953,新規,0,2023-10-03,2023-10-03,株式会社Ｂｏｏｓｔ　Ｖｉｓｉｏｎ,,株式会社,鹿児島県,鹿児島市,城西１丁目１１番１５号,,46,201,8900041,,,,,,,2023-10-03,1,,,,,ブーストビジョン,0
2372,9360003013343,新規,0,2023-10-03,2023-10-03,沖縄貨物運送合同会社,,合同会社,沖縄県,浦添市,大平３丁目１６番７号,,47,208,9012113,,,,,,,2023-10-03,1,,,,,オキナワカモツウンソウ,0
2384,9420003002802,新規,0,2023-10-03,2023-10-03,合同会社エヌケーデベロ,,合同会社,青森県,弘前市,大字悪戸字中野１３６番地５,,02,202,0368264,,,,,,,2023-10-03,1,,,,,エヌケーデベロ,0
2393,9480001012236,新規,0,2023-10-03,2023-10-03,株式会社徳島シャッターサービス,,株式会社,徳島県,鳴門市,撫養町大桑島字蛭子山１１１番地１,,36,202,7720011,,,,,,,2023-10-03,1,,,,,トクシマシャッターサービス,0
2405,9700150119420,新規,0,2023-10-03,2023-10-03,Ｆｏｘｐｒｏ　Ｓｐｏｒｔｓ　Ｃｏｍｐａｎｙ,,外国会社等,,,,,,,,１６０　Ａｌｅｗｉｆｅ　Ｂｒｏｏｋ　Ｐｋｗｙ　＃１２５２，Ｃａｍｂｒｉｄｇｅ，ＭＡ　０２１３８　ＵＳＡ,,,,,,2023-10-03,1,,,,,フオツクスプロスポーツカンパニー,0
