sequenceNumber,corporateNumber,process,correct,updateDate,changeDate,name,nameImageId,kind,prefectureName,cityName,streetNumber,addressImageId,prefectureCode,cityCode,postCode,addressOutside,addressOutsideImageId,closeDate,closeCause,successorCorporateNumber,changeCause,assignmentDate,latest,enName,enPrefectureName,enCityName,enAddressOutside,furigana,hihyoji
10,1010005030172,登記記録の閉鎖等,0,2021-11-29,2021-11-25,一般社団法人ＤＲＦ４,,その他の設立登記法人,東京都,中央区,日本橋１丁目４番１号,,13,102,1030027,,,2021-11-25,清算の結了等,,,2019-05-16,1,,,,,ディーアールエフフォー,0
12,1010401093780,登記記録の閉鎖等,0,2021-11-29,2021-11-11,Ｓｔｅｌｌａ　Ｍａｒｉｓ　Ｇｉｎｚａ株式会社,,株式会社,東京都,中央区,銀座４丁目１１番７号,,13,102,1040061,,,2021-11-11,清算の結了等,,,2015-10-05,1,,,,,ステラマリスギンザ,0
19,1010402010009,登記記録の閉鎖等,0,2021-11-29,2021-11-19,有限会社ヌノヤ,,有限会社,東京都,港区,西麻布４丁目２番１０号,,13,103,1060031,,,2021-11-19,清算の結了等,,,2015-10-05,1,,,,,ヌノヤ,0
21,1010402022607,登記記録の閉鎖等,0,2021-11-29,2021-11-24,株式会社ペシェ・ミニョン,,株式会社,神奈川県,鎌倉市,鎌倉山３丁目２番３１号,,14,204,2480031,,,2021-11-24,合併による解散等,1040001080978,令和３年１１月２４日神奈川県鎌倉市鎌倉山三丁目２番３１号ウエスト・シークル株式会社（1040001080978）に合併し解散,2015-10-05,1,,,,,ペシェミニョン,0
26,1010601037579,登記記録の閉鎖等,0,2021-11-29,2021-11-25,株式会社ゼロインワークス,,株式会社,東京都,中央区,銀座７丁目４番１２号銀座メディカルビル,,13,102,1040061,,,2021-11-25,清算の結了等,,,2015-10-05,1,,,,,ゼロインワークス,0
76,1013201004718,登記記録の閉鎖等,0,2021-11-29,2021-11-11,株式会社花清,,株式会社,東京都,目黒区,上目黒２丁目４４番９号,,13,110,1530051,,,2021-11-11,清算の結了等,,,2015-10-05,1,,,,,ハナセイ,0
80,1020001006976,登記記録の閉鎖等,0,2021-11-29,2021-11-25,株式会社横井薬局,,株式会社,神奈川県,横浜市金沢区,六浦２丁目６番４号,,14,108,2360031,,,2021-11-25,清算の結了等,,,2015-10-05,1,,,,,ヨコイヤッキョク,0
88,1020002069634,登記記録の閉鎖等,0,2021-11-29,2021-11-25,有限会社エッグコーポレーション,,有限会社,神奈川県,横浜市中区,日ノ出町１丁目７６番地１インペリアル横浜パークサイド５０２号室,,14,104,2310066,,,2021-11-25,清算の結了等,,,2015-10-05,1,,,,,エッグコーポレーション,0
99,1030001008443,登記記録の閉鎖等,0,2021-11-29,2021-11-25,株式会社基,,株式会社,埼玉県,さいたま市見沼区,大字上山口新田４６１番地の１３,,11,104,3370044,,,2021-11-25,清算の結了等,,,2015-10-05,1,,,,,モトイ,0
108,1040001000102,登記記録の閉鎖等,0,2021-11-29,2021-11-22,株式会社ＫＥＮコーポレーション,,株式会社,千葉県,千葉市若葉区,中田町１１２７番地１０,,12,104,2650043,,,2021-11-22,清算の結了等,,,2015-10-05,1,,,,,ケンコーポレーション,0
110,1040001063396,登記記録の閉鎖等,0,2021-11-29,2021-11-22,株式会社岡野塗装,,株式会社,千葉県,旭市,鎌数９３０５番地３,,12,215,2892505,,,2021-11-22,清算の結了等,,,2015-10-05,1,,,,,オカノトソウ,0
127,1060002019701,登記記録の閉鎖等,0,2021-11-29,2021-11-19,有限会社太田堂,,有限会社,栃木県,鹿沼市,三幸町１４８９番地,,09,205,3220041,,,2021-11-19,清算の結了等,,,2015-10-05,1,,,,,オオタドウ,0
136,1100001006877,登記記録の閉鎖等,0,2021-11-29,2021-11-26,株式会社スプートニク長野,,株式会社,長野県,長野市,松代町松代１４９６番地２１,,20,201,3811231,,,2021-11-26,清算の結了等,,,2015-10-05,1,,,,,スプートニクナガノ,0
140,1100002001621,登記記録の閉鎖等,0,2021-11-29,2021-11-25,有限会社小林匠商事,,有限会社,長野県,長野市,川中島町今井３０番地４,,20,201,3812226,,,2021-11-25,清算の結了等,,,2015-10-05,1,,,,,コバヤシタクミショウジ,0
142,1100005003425,登記記録の閉鎖等,0,2021-11-29,2021-11-25,特定非営利活動法人望月まちづくり研究会,,その他の設立登記法人,長野県,佐久市,望月１０６番地６,,20,217,3842202,,,2021-11-25,清算の結了等,,,2015-10-05,1,,,,,モチヅキマチヅクリケンキュウカイ,0
155,1120001176751,登記記録の閉鎖等,0,2021-11-29,2021-11-24,関西美術競賣株式会社,,株式会社,大阪府,大阪市北区,野崎町９番１０号,,27,127,5300055,,,2021-11-24,清算の結了等,,,2015-10-05,1,,,,,カンサイビジュツキョウバイ,0
159,1120002022624,登記記録の閉鎖等,0,2021-11-29,2021-11-24,長江金庫有限会社,,有限会社,大阪府,大阪市西区,九条南３丁目３番１２号,,27,106,5500025,,,2021-11-24,清算の結了等,,,2015-10-05,1,,,,,ナガエキンコ,0
180,1130005000790,登記記録の閉鎖等,0,2021-11-29,2021-11-11,天理教長京分教会,,その他の設立登記法人,京都府,京都市左京区,岩倉花園町２５５番地３,,26,103,6060024,,,2021-11-11,合併による解散等,5130005000812,令和３年１１月１１日京都市左京区岩倉長谷町１６２番地天理教長谷分教会（5130005000812）に合併し解散,2015-10-05,1,,,,,テンリキョウチョウキョウブンキョウカイ,0
182,1140001087237,登記記録の閉鎖等,0,2021-11-29,2021-11-22,株式会社ＴＥＸＰＲＯ　ＪＡＰＡＮ,,株式会社,大阪府,大阪市北区,芝田１丁目１４番８号梅田北プレイス６階,,27,127,5300012,,,2021-11-22,清算の結了等,,,2015-10-05,1,,,,,テクスプロジャパン,0
202,1180002014178,登記記録の閉鎖等,0,2021-11-29,2021-11-24,有限会社田中メジカル,,有限会社,愛知県,名古屋市南区,外山１丁目６番２７号,,23,112,4570008,,,2021-11-24,清算の結了等,,,2015-10-05,1,,,,,タナカメジカル,0
212,1200003000075,登記記録の閉鎖等,0,2021-11-29,2021-11-29,合名会社末広屋,,合名会社,岐阜県,岐阜市,小柳町１５番地,,21,201,5008832,,,2021-11-29,清算の結了等,,,2015-10-05,1,,,,,スエヒロヤ,0
213,1200005012928,登記記録の閉鎖等,0,2021-11-29,2021-11-24,特定非営利活動法人ヒダ・ココ・プロジェクト,,その他の設立登記法人,岐阜県,高山市,岡本町４丁目３１１番地１４ケア高山２階,,21,203,5060054,,,2021-11-24,清算の結了等,,,2019-04-26,1,,,,,ヒダココプロジェクト,0
214,1210001004556,登記記録の閉鎖等,0,2021-11-29,2021-11-24,福井メナード販売株式会社,,株式会社,福井県,福井市,つくも１丁目３番９号,,18,201,9188001,,,2021-11-24,清算の結了等,,,2015-10-05,1,,,,,フクイメナードハンバイ,0
232,1260002018170,登記記録の閉鎖等,0,2021-11-29,2021-11-26,有限会社コワフュールふくこ,,有限会社,岡山県,倉敷市,水江１５９６番地の１５,,33,202,7100802,,,2021-11-26,清算の結了等,,,2015-10-05,1,,,,,コワフュールフクコ,0
242,1340001009204,登記記録の閉鎖等,0,2021-11-29,2021-11-25,株式会社ロジスティック創,,株式会社,鹿児島県,いちき串木野市,西薩町１７番２０,00098707,46,219,8960046,,,2021-11-25,清算の結了等,,,2015-10-05,1,,,,,ロジスティックソウ,0
254,1420002013023,登記記録の閉鎖等,0,2021-11-29,2021-11-22,有限会社かくちゆう,,有限会社,青森県,弘前市,大字土手町７１番地,,02,202,0368182,,,2021-11-22,清算の結了等,,,2015-10-05,1,,,,,カクチュウ,0
259,1460301002094,登記記録の閉鎖等,0,2021-11-29,2021-11-25,大晃建設株式会社,,株式会社,北海道,網走郡津別町,字西四条１７番地,,01,544,0920213,,,2021-11-25,清算の結了等,,,2015-10-05,1,,,,,タイコウケンセツ,0
267,1490005003774,登記記録の閉鎖等,0,2021-11-29,2021-11-26,しまんと大正製材協同組合,,その他の設立登記法人,高知県,高岡郡四万十町,大正４６１番地,,39,412,7860301,,,2021-11-26,清算の結了等,,,2015-10-05,1,,,,,シマントタイショウセイザイ,0
272,2010001126015,登記記録の閉鎖等,0,2021-11-29,2021-11-22,株式会社晋光,,株式会社,東京都,千代田区,五番町１２番地,,13,101,1020076,,,2021-11-22,清算の結了等,,,2015-10-05,1,,,,,シンコウ,0
274,2010001157324,登記記録の閉鎖等,0,2021-11-29,2021-11-22,株式会社Ｃｏｎｎｅｃｔ,,株式会社,東京都,中央区,日本橋箱崎町１７番１号,,13,102,1030015,,,2021-11-22,清算の結了等,,,2015-10-05,1,,,,,コネクト,0
330,2012401024938,登記記録の閉鎖等,0,2021-11-29,2021-11-22,株式会社マイホーム,,株式会社,東京都,小金井市,前原町１丁目７番５号,,13,210,1840013,,,2021-11-22,清算の結了等,,,2015-10-05,1,,,,,マイホーム,0
331,2012401033468,登記記録の閉鎖等,0,2021-11-29,2021-11-24,ＧＬＯＶＥＳＴ株式会社,,株式会社,東京都,調布市,布田１丁目４５番地６,,13,208,1820024,,,2021-11-24,清算の結了等,,,2017-12-15,1,,,,,,0
342,2021001033101,登記記録の閉鎖等,0,2021-11-29,2021-11-24,株式会社ハセパイ小田原,,株式会社,神奈川県,小田原市,鬼柳１８４番地３,,14,206,2500211,,,2021-11-24,清算の結了等,,,2015-10-05,1,,,,,ハセパイオダワラ,0
349,2030001001901,登記記録の閉鎖等,0,2021-11-29,2021-11-25,関東住建株式会社,,株式会社,埼玉県,さいたま市岩槻区,府内１丁目４番２２号,,11,110,3390042,,,2021-11-25,清算の結了等,,,2015-10-05,1,,,,,,0
371,2040002093144,登記記録の閉鎖等,0,2021-11-29,2021-11-22,有限会社村山ゴム工業所,,有限会社,千葉県,我孫子市,中峠３８６９番地,,12,222,2701121,,,2021-11-22,清算の結了等,,,2015-10-05,1,,,,,ムラヤマゴムコウギョウショ,0
402,2110002011701,登記記録の閉鎖等,0,2021-11-29,2021-11-24,有限会社ジュリエール・タケベ,,有限会社,新潟県,新潟市西蒲区,巻甲４２４６番地３,,15,108,9530041,,,2021-11-24,清算の結了等,,,2015-10-05,1,,,,,,0
416,2120003013712,登記記録の閉鎖等,0,2021-11-29,2021-11-24,ＸＸ合同会社,,合同会社,大阪府,大阪市中央区,南船場４丁目１０番５号南船場ＳＯＨＯビル７０２,,27,128,5420081,,,2021-11-24,清算の結了等,,,2017-12-26,1,,,,,エックスエックス,0
420,2120105008750,登記記録の閉鎖等,0,2021-11-29,2021-11-19,一般社団法人全日本就労支援連盟,,その他の設立登記法人,大阪府,堺市堺区,大町東１丁１番２号,,27,141,5900954,,,2021-11-19,清算の結了等,,,2017-09-11,1,,,,,ゼンニホンシュウロウシエンレンメイ,0
422,2120903003416,登記記録の閉鎖等,0,2021-11-29,2021-11-22,イス・メッルス合同会社,,合同会社,大阪府,高槻市,東五百住町２丁目３番１８号,,27,207,5690811,,,2021-11-22,清算の結了等,,,2020-11-05,1,Is Mellus Japan LLC,Osaka,"2-3-18, Higashiyosumi cho, Takatsuki shi",,イスメッルス,0
423,2122001017942,登記記録の閉鎖等,0,2021-11-29,2021-11-25,株式会社大庭製作所,,株式会社,大阪府,八尾市,山賀町５丁目５１番地の１,,27,212,5810812,,,2021-11-25,清算の結了等,,,2015-10-05,1,,,,,オオバセイサクショ,0
426,2130001005909,登記記録の閉鎖等,0,2021-11-29,2021-11-25,一条建設株式会社,,株式会社,京都府,京都市上京区,寺之内通烏丸西入上る相国寺門前町６４７番地８,,26,102,6020898,,,2021-11-25,清算の結了等,,,2015-10-05,1,,,,,イチジョウケンセツ,0
456,2240001006887,登記記録の閉鎖等,0,2021-11-29,2021-11-26,チュウオウ株式会社,,株式会社,広島県,広島市東区,曙１丁目６番１１号,00000079,34,102,7320045,,,2021-11-26,清算の結了等,,,2015-10-05,1,,,,,,0
486,2340003002049,登記記録の閉鎖等,0,2021-11-29,2021-11-26,合同会社アンサー,,合同会社,鹿児島県,鹿児島市,伊敷４丁目２番１２号,,46,201,8900008,,,2021-11-26,清算の結了等,,,2016-03-09,1,,,,,アンサー,0
489,2360003009851,登記記録の閉鎖等,0,2021-11-29,2021-11-19,ＭＯＯＮ　ＣＡＲＰＥＴＳ　＆　ＧＩＦＴＳ合同会社,,合同会社,沖縄県,沖縄市,中央１丁目６番１８号根路銘店舗１Ｆ右号室,,47,211,9040004,,,2021-11-19,清算の結了等,,,2019-10-30,1,,,,,ムーンカーペットアンドギフト,0
495,2400002009550,登記記録の閉鎖等,0,2021-11-29,2021-11-25,有限会社東邦,,有限会社,岩手県,北上市,鍛冶町１丁目１番２３号,,03,206,0240062,,,2021-11-25,清算の結了等,,,2015-10-05,1,,,,,トウホウ,0
507,2490002010095,登記記録の閉鎖等,0,2021-11-29,2021-11-26,新営開発有限会社,,有限会社,高知県,吾川郡仁淀川町,寺村１７７８番地,,39,387,7811511,,,2021-11-26,清算の結了等,,,2015-10-05,1,,,,,シンエイカイハツ,0
532,3010801007231,登記記録の閉鎖等,0,2021-11-29,2021-11-24,株式会社中央テクニカ,,株式会社,東京都,品川区,西大井３丁目７番２２号,,13,109,1400015,,,2021-11-24,清算の結了等,,,2015-10-05,1,,,,,チュウオウテクニカ,0
543,3011002027110,登記記録の閉鎖等,0,2021-11-29,2021-11-11,有限会社ハーレージャパン,,有限会社,東京都,渋谷区,神宮前２丁目１９番１３号ＶＯＲＴ原宿地下１階,,13,113,1500001,,,2021-11-11,清算の結了等,,,2015-10-05,1,,,,,ハーレージャパン,0
552,3011202002821,登記記録の閉鎖等,0,2021-11-29,2021-11-22,有限会社神宮不動産,,有限会社,東京都,中野区,中央３丁目４７番７号,,13,114,1640011,,,2021-11-22,清算の結了等,,,2015-10-05,1,,,,,ジングウフドウサン,0
571,3012702003417,登記記録の閉鎖等,0,2021-11-29,2021-11-25,有限会社フカザワ電機,,有限会社,東京都,東村山市,青葉町３丁目１５番地４１,,13,213,1890002,,,2021-11-25,清算の結了等,,,2015-10-05,1,,,,,フカザワデンキ,0
573,3013201002240,登記記録の閉鎖等,0,2021-11-29,2021-11-12,株式会社三興商会,,株式会社,東京都,目黒区,八雲１丁目４番１８号,,13,110,1520023,,,2021-11-12,清算の結了等,,,2015-10-05,1,,,,,サンコウショウカイ,0
576,3020001010200,登記記録の閉鎖等,0,2021-11-29,2021-11-25,太陽工業株式会社,,株式会社,神奈川県,横浜市保土ケ谷区,仏向西３１番１０号,,14,106,2400046,,,2021-11-25,清算の結了等,,,2015-10-05,1,,,,,,0
613,3040002071025,登記記録の閉鎖等,0,2021-11-29,2021-11-22,有限会社エスペック,,有限会社,千葉県,富津市,二間塚１９１２番地の２,,12,226,2930002,,,2021-11-22,清算の結了等,,,2015-10-05,1,,,,,エスペック,0
629,3070002036677,登記記録の閉鎖等,0,2021-11-29,2021-11-26,中之条共立部品有限会社,,有限会社,群馬県,吾妻郡中之条町,大字伊勢町８７９番地,,10,421,3770423,,,2021-11-26,清算の結了等,,,2015-10-05,1,,,,,ナカノジョウキョウリツブヒン,0
642,3100005011541,登記記録の閉鎖等,0,2021-11-29,2021-11-25,一般社団法人小諸フィルムコミッション,,その他の設立登記法人,長野県,小諸市,大字御影新田１９６８番６,,20,208,3840808,,,2021-11-25,清算の結了等,,,2015-10-05,1,,,,,コモロフィルムコミッション,0
644,3110001023606,登記記録の閉鎖等,0,2021-11-29,2021-11-24,株式会社山喜商事,,株式会社,新潟県,長岡市,本町３丁目２番地１５,,15,202,9400076,,,2021-11-24,清算の結了等,,,2015-10-05,1,,,,,ヤマキショウジ,0
657,3120001108125,登記記録の閉鎖等,0,2021-11-29,2021-11-25,サンユーエンジニアリング株式会社,,株式会社,大阪府,大阪市西区,江之子島１丁目６番８－２０１号,,27,106,5500006,,,2021-11-25,清算の結了等,,,2015-10-05,1,,,,,サンユーエンジニアリング,0
693,3140001108775,登記記録の閉鎖等,0,2021-11-29,2021-11-22,株式会社Ｗ　ＳＱＵＡＲＥ,,株式会社,兵庫県,神戸市中央区,浪花町５６起業プラザひょうご内,,28,110,6500035,,,2021-11-22,清算の結了等,,,2018-01-12,1,,,,,ダブリュースクエア,0
698,3150002004147,登記記録の閉鎖等,0,2021-11-29,2021-11-26,有限会社トラスト,,有限会社,奈良県,生駒市,壱分町１４０９番地,,29,209,6300222,,,2021-11-26,清算の結了等,,,2015-10-05,1,,,,,トラスト,0
707,3180002085993,登記記録の閉鎖等,0,2021-11-29,2021-11-24,有限会社エヌディエス尾張大野,,有限会社,愛知県,常滑市,大野町７丁目３８番地,,23,216,4790866,,,2021-11-24,清算の結了等,,,2015-10-05,1,,,,,エヌデイエスオワリオオノ,0
728,3240002039431,登記記録の閉鎖等,0,2021-11-29,2021-11-25,有限会社岩田地所,,有限会社,岡山県,笠岡市,吉浜２４８２番地３,,33,205,7140074,,,2021-11-25,清算の結了等,,,2015-10-05,1,,,,,イワタジショ,0
730,3250002000045,登記記録の閉鎖等,0,2021-11-29,2021-11-22,有限会社アージス,,有限会社,山口県,山口市,大内矢田北６丁目１番３３号,,35,203,7530221,,,2021-11-22,清算の結了等,,,2015-10-05,1,,,,,アージス,0
731,3250003001018,登記記録の閉鎖等,0,2021-11-29,2021-11-22,合同会社チヨマキ・ワード,,合同会社,山口県,下松市,楠木町２丁目２番１１号,,35,207,7440029,,,2021-11-22,清算の結了等,,,2015-10-05,1,,,,,チヨマキワード,0
737,3310001003703,登記記録の閉鎖等,0,2021-11-29,2021-11-24,株式会社国際環境コンサルタント,,株式会社,長崎県,長崎市,園田町２５７番地１,,42,201,8511125,,,2021-11-24,清算の結了等,,,2015-10-05,1,,,,,コクサイカンキョウコンサルタント,0
747,3340002001843,登記記録の閉鎖等,0,2021-11-29,2021-11-24,有限会社エスピーアール,,有限会社,鹿児島県,鹿児島市,東千石町５番１２号,,46,201,8920842,,,2021-11-24,清算の結了等,,,2015-10-05,1,,,,,エスピーアール,0
749,3360002014513,登記記録の閉鎖等,0,2021-11-29,2021-11-22,農業生産法人有限会社アグリよみたん苑,,有限会社,沖縄県,中頭郡読谷村,字高志保１０２１番地,,47,324,9040323,,,2021-11-22,清算の結了等,,,2015-10-05,1,,,,,アグリヨミタンエン,0
756,3370602000275,登記記録の閉鎖等,0,2021-11-29,2021-11-22,有限会社エスケイプロジェクト,,有限会社,宮城県,宮城郡利府町,菅谷台１丁目１２番５号,,04,406,9810135,,,2021-11-22,清算の結了等,,,2015-10-05,1,,,,,エスケイプロジェクト,0
758,3390002008405,登記記録の閉鎖等,0,2021-11-29,2021-11-25,有限会社後藤ボーリング,,有限会社,山形県,酒田市,茗ケ沢字前畑１３３番地,,06,204,9996841,,,2021-11-25,清算の結了等,,,2015-10-05,1,,,,,ゴトウボーリング,0
762,3430001071226,登記記録の閉鎖等,0,2021-11-29,2021-11-01,アローエンジニアリング株式会社,,株式会社,宮城県,仙台市宮城野区,萩野町２丁目１１番地の１３,,04,102,9830043,,,2021-11-01,合併による解散等,7370001039267,令和３年１１月１日仙台市泉区館三丁目１７番地の１１アローテック株式会社（7370001039267）に合併し解散,2016-04-12,1,,,,,アローエンジニアリング,0
770,4010001210808,登記記録の閉鎖等,0,2021-11-29,2021-11-17,ＭＡＧＷＯＷ株式会社,,株式会社,東京都,千代田区,東神田２丁目６番７号６０８,,13,101,1010031,,,2021-11-17,清算の結了等,,,2020-07-08,1,,,,,マグワウ,0
773,4010002017137,登記記録の閉鎖等,0,2021-11-29,2021-11-24,有限会社宇佐見紙工,,有限会社,東京都,江東区,猿江２丁目１６番２３－１０１５号,,13,108,1350003,,,2021-11-24,清算の結了等,,,2015-10-05,1,,,,,ウサミシコウ,0
777,4010003021278,登記記録の閉鎖等,0,2021-11-29,2021-11-26,Ｘ－Ｅｌｉｏ１５合同会社,,合同会社,東京都,中央区,銀座４丁目１４番１１号七十七銀座ビル８階,,13,102,1040061,,,2021-11-26,清算の結了等,,,2015-10-05,1,,,,,エクセリオフィフティーン,0
778,4010003024355,登記記録の閉鎖等,0,2021-11-29,2021-11-26,Ｘ－Ｅｌｉｏ１６合同会社,,合同会社,東京都,中央区,銀座４丁目１４番１１号七十七銀座ビル８階,,13,102,1040061,,,2021-11-26,清算の結了等,,,2016-11-09,1,,,,,エクセリオシックスティーン,0
779,4010003024405,登記記録の閉鎖等,0,2021-11-29,2021-11-26,Ｘ－Ｅｌｉｏ１８合同会社,,合同会社,東京都,中央区,銀座４丁目１４番１１号七十七銀座ビル８階,,13,102,1040061,,,2021-11-26,清算の結了等,,,2016-11-22,1,,,,,エクセリオエイティーン,0
782,4010005019023,登記記録の閉鎖等,0,2021-11-29,2021-11-25,一般社団法人ＤＲＦ,,その他の設立登記法人,東京都,中央区,日本橋１丁目４番１号,,13,102,1030027,,,2021-11-25,清算の結了等,,,2015-10-05,1,,,,,ディーアールエフ,0
783,4010101009588,登記記録の閉鎖等,0,2021-11-29,2021-11-25,株式会社グレコ,,株式会社,東京都,八王子市,暁町２丁目６番４号,,13,201,1920043,,,2021-11-25,清算の結了等,,,2015-10-05,1,,,,,グレコ,0
809,4010601053714,登記記録の閉鎖等,0,2021-11-29,2021-11-22,株式会社アートネクスト,,株式会社,東京都,江東区,古石場２丁目１３番９号,,13,108,1350045,,,2021-11-22,清算の結了等,,,2018-08-08,1,,,,,アートネクスト,0
827,4011103004965,登記記録の閉鎖等,0,2021-11-29,2021-11-24,合同会社海成,,合同会社,東京都,新宿区,若松町６番７－１１０４号,,13,104,1620056,,,2021-11-24,清算の結了等,,,2015-10-05,1,,,,,カイセイ,0
840,4012701000629,登記記録の閉鎖等,0,2021-11-29,2021-11-25,株式会社中央加硫,,株式会社,東京都,小平市,天神町４丁目２９番３８－９０２号,,13,211,1870004,,,2021-11-25,清算の結了等,,,2015-10-05,1,,,,,チュウオウカリュウ,0
844,4020001010240,登記記録の閉鎖等,0,2021-11-29,2021-11-25,鶴田技工株式会社,,株式会社,神奈川県,横浜市保土ケ谷区,峰岡町３丁目３７８番地の３１,,14,106,2400064,,,2021-11-25,清算の結了等,,,2015-10-05,1,,,,,ツルタギコウ,0
848,4020001105825,登記記録の閉鎖等,0,2021-11-29,2021-11-25,Ｂｕｄｄｙ株式会社,,株式会社,神奈川県,横浜市都筑区,中川中央２丁目５番１３号メルヴューサガノ１０２,,14,118,2240003,,,2021-11-25,清算の結了等,,,2015-10-05,1,,,,,バディ,0
850,4020003012763,登記記録の閉鎖等,0,2021-11-29,2021-11-24,合同会社食と文化の旅,,合同会社,神奈川県,横浜市青葉区,すみよし台２３番地１１,,14,117,2270035,,,2021-11-24,清算の結了等,,,2017-05-18,1,Culinary Travel Japan LLC,Kanagawa,"23-11, Sumiyoshi-dai, Aoba-ku Yokohama",,ショクトブンカノタビ,0
860,4030001045021,登記記録の閉鎖等,0,2021-11-29,2021-11-26,株式会社ハクユウ,,株式会社,埼玉県,朝霞市,朝志ケ丘２丁目９番１４号,,11,227,3510035,,,2021-11-26,清算の結了等,,,2015-10-05,1,,,,,ハクユウ,0
868,4040001019214,登記記録の閉鎖等,0,2021-11-29,2021-11-19,京葉朝日青果株式会社,,株式会社,千葉県,船橋市,市場１丁目８番１号,,12,204,2730001,,,2021-11-19,合併による解散等,6010001027564,令和３年１１月８日東京都千代田区外神田四丁目３番１１号飛翔物産株式会社（6010001027564）に合併し解散,2015-10-05,1,,,,,ケイヨウアサヒセイカ,0
877,4040002021631,登記記録の閉鎖等,0,2021-11-29,2021-11-22,有限会社教育工房ぶれいん,,有限会社,千葉県,船橋市,習志野台３丁目１８－１大槻ビル２０２号室,,12,204,2740063,,,2021-11-22,清算の結了等,,,2015-10-05,1,,,,,キョウイクコウボウブレイン,0
879,4040003005682,登記記録の閉鎖等,0,2021-11-29,2021-11-24,合同会社デイサービス花,,合同会社,千葉県,茂原市,長尾４４１番地１,,12,210,2970073,,,2021-11-24,清算の結了等,,,2015-10-05,1,,,,,デイサービスハナ,0
887,4060002025721,登記記録の閉鎖等,0,2021-11-29,2021-11-22,有限会社ヤギサワコーポレーション,,有限会社,栃木県,大田原市,野崎２丁目２０番地５,,09,210,3240038,,,2021-11-22,清算の結了等,,,2015-10-05,1,,,,,ヤギサワコーポレーション,0
889,4070001034045,登記記録の閉鎖等,0,2021-11-29,2021-11-25,株式会社アールサクシード,,株式会社,群馬県,高崎市,下之城町５２２番地１２－３０４号,,10,202,3700854,,,2021-11-25,清算の結了等,,,2017-10-16,1,,,,,,0
921,4120002003010,登記記録の閉鎖等,0,2021-11-29,2021-11-22,有限会社グレース,,有限会社,大阪府,大阪市阿倍野区,阪南町４丁目４番１１号,,27,119,5450021,,,2021-11-22,清算の結了等,,,2015-10-05,1,,,,,グレース,0
952,4150005001041,登記記録の閉鎖等,0,2021-11-29,2021-11-25,医療法人白井内科医院,,その他の設立登記法人,奈良県,奈良市,六条２丁目１０番２０号,,29,201,6308043,,,2021-11-25,清算の結了等,,,2015-10-05,1,,,,,シライナイカイイン,0
956,4180001072579,登記記録の閉鎖等,0,2021-11-29,2021-11-22,株式会社奥村,,株式会社,愛知県,名古屋市中区,千代田５丁目１４番１８号,,23,106,4600012,,,2021-11-22,清算の結了等,,,2015-10-05,1,,,,,オクムラ,0
974,4200002017621,登記記録の閉鎖等,0,2021-11-29,2021-11-25,有限会社ぼてふく,,有限会社,岐阜県,可児市,土田字渡２７６３番地３,,21,214,5090206,,,2021-11-25,清算の結了等,,,2015-10-05,1,,,,,ボテフク,0
979,4230002005771,登記記録の閉鎖等,0,2021-11-29,2021-11-24,有限会社アスティ,,有限会社,富山県,中新川郡上市町,湯上野１９番地,,16,322,9300361,,,2021-11-24,清算の結了等,,,2015-10-05,1,,,,,アスティ,0
983,4240002011819,登記記録の閉鎖等,0,2021-11-29,2021-11-24,中原建設有限会社,,有限会社,広島県,広島市安佐南区,西原２丁目２２番２７－１号,,34,105,7310113,,,2021-11-24,清算の結了等,,,2015-10-05,1,,,,,ナカハラケンセツ,0
985,4240005011106,登記記録の閉鎖等,0,2021-11-29,2021-11-09,天理教豊調分教会,,その他の設立登記法人,広島県,尾道市,因島重井町３２９３番地,,34,205,7222102,,,2021-11-09,合併による解散等,5240005010932,令和３年１１月９日広島県尾道市吉浦町１７番３６号天理教尾道分教会（5240005010932）に合併し解散,2015-10-05,1,,,,,テンリキョウトヨツキブンキョウカイ,0
986,4250002001273,登記記録の閉鎖等,0,2021-11-29,2021-11-26,有限会社ヒロサービス,,有限会社,山口県,防府市,大字下右田１０３３番地の１,,35,206,7470063,,,2021-11-26,清算の結了等,,,2015-10-05,1,,,,,ヒロサービス,0
994,4260002017855,登記記録の閉鎖等,0,2021-11-29,2021-11-26,有限会社グリーンパルテック,,有限会社,岡山県,倉敷市,連島町亀島新田４８３－１,,33,202,7128002,,,2021-11-26,清算の結了等,,,2015-10-05,1,,,,,グリーンパルテック,0
1004,4330001014425,登記記録の閉鎖等,0,2021-11-29,2021-11-22,株式会社美菜屋,,株式会社,熊本県,八代市,古閑下町１９９９の１番地,,43,202,8660892,,,2021-11-22,合併による解散等,6330005006334,令和３年１１月２０日熊本県八代市古閑下町２０８７番地の５株式会社ＴＡＣやつしろ（6330005006334）に合併し解散,2015-10-05,1,,,,,ミナヤ,0
1005,4330001022304,登記記録の閉鎖等,0,2021-11-29,2021-11-24,株式会社祥和,,株式会社,熊本県,玉名市,天水町小天３９９８番地,,43,206,8615401,,,2021-11-24,清算の結了等,,,2015-12-03,1,,,,,ショウワ,0
1015,4370001042257,登記記録の閉鎖等,0,2021-11-29,2021-11-19,株式会社掃除専科,,株式会社,宮城県,気仙沼市,南町４丁目４番１８号,,04,205,9880017,,,2021-11-19,清算の結了等,,,2017-11-07,1,,,,,ソウジセンカ,0
1037,4430005001541,登記記録の閉鎖等,0,2021-11-29,2021-11-25,医療法人社団阿部小児科医院,,その他の設立登記法人,北海道,札幌市南区,真駒内緑町１丁目３番１０号,,01,106,0050013,,,2021-11-25,清算の結了等,,,2015-10-05,1,,,,,アベショウニカイイン,0
1040,4470002012083,登記記録の閉鎖等,0,2021-11-29,2021-11-24,有限会社浜田海運,,有限会社,香川県,綾歌郡宇多津町,２８８番地５,,37,386,7690210,,,2021-11-24,合併による解散等,8470005002532,令和３年１１月２４日香川県綾歌郡宇多津町２８８番地５株式会社ハマダコウショウ（8470005002532）に合併し解散,2015-10-05,1,,,,,ハマダカイウン,0
1043,4490001000087,登記記録の閉鎖等,0,2021-11-29,2021-11-26,株式会社亜俚亜,,株式会社,高知県,高知市,駅前町２番４号,,39,201,7800053,,,2021-11-26,清算の結了等,,,2015-10-05,1,,,,,,0
1048,5010001040543,登記記録の閉鎖等,0,2021-11-29,2021-11-25,片倉機器工業株式会社,,株式会社,東京都,中央区,明石町６番４号,,13,102,1040044,,,2021-11-25,清算の結了等,,,2015-10-05,1,,,,,カタクラキキコウギョウ,0
1054,5010003024404,登記記録の閉鎖等,0,2021-11-29,2021-11-26,Ｘ－Ｅｌｉｏ１７合同会社,,合同会社,東京都,中央区,銀座４丁目１４番１１号七十七銀座ビル８階,,13,102,1040061,,,2021-11-26,清算の結了等,,,2016-11-22,1,,,,,エクセリオセブンティーン,0
1063,5010601034408,登記記録の閉鎖等,0,2021-11-29,2021-11-15,株式会社Ｐｉ技術研究所,,株式会社,東京都,墨田区,文花３丁目１７番１６－８０８号,,13,107,1310044,,,2021-11-15,清算の結了等,,,2015-10-05,1,,,,,パイギジュツケンキュウジョ,0
1066,5010702004846,登記記録の閉鎖等,0,2021-11-29,2021-11-24,有限会社大和寿司,,有限会社,東京都,品川区,中延２丁目８番３号,,13,109,1420053,,,2021-11-24,清算の結了等,,,2015-10-05,1,,,,,ヤマトズシ,0
1073,5010902023200,登記記録の閉鎖等,0,2021-11-29,2021-11-26,ユナイテッドバーズ有限会社,,有限会社,東京都,世田谷区,赤堤４丁目４８番１１号,,13,112,1560044,,,2021-11-26,清算の結了等,,,2015-10-05,1,,,,,,0
1103,5020001020908,登記記録の閉鎖等,0,2021-11-29,2021-11-16,タツミ鋼業株式会社,,株式会社,神奈川県,横浜市港北区,樽町４丁目１６番２３号,,14,109,2220001,,,2021-11-16,清算の結了等,,,2015-10-05,1,,,,,タツミコウギョウ,0
1112,5021001005312,登記記録の閉鎖等,0,2021-11-29,2021-11-24,株式会社メディエンス,,株式会社,神奈川県,藤沢市,辻堂元町２丁目９番３号,,14,205,2510043,,,2021-11-24,清算の結了等,,,2015-10-05,1,,,,,メディエンス,0
1138,5050001000097,登記記録の閉鎖等,0,2021-11-29,2021-11-25,株式会社関東医療福祉設備機構,,株式会社,茨城県,水戸市,河和田１丁目１７０４番地１２,,08,201,3114152,,,2021-11-25,清算の結了等,,,2015-10-05,1,,,,,カントウイリョウフクシセツビキコウ,0
1140,5050002036611,登記記録の閉鎖等,0,2021-11-29,2021-11-24,有限会社八巻鉄筋工業,,有限会社,茨城県,取手市,戸頭７丁目７番２１－１０６号,,08,217,3020034,,,2021-11-24,清算の結了等,,,2015-10-05,1,,,,,ヤマキテッキンコウギョウ,0
1145,5070001000203,登記記録の閉鎖等,0,2021-11-29,2021-11-26,新井工機株式会社,,株式会社,群馬県,前橋市,小相木町１９５番地の２,,10,201,3710831,,,2021-11-26,清算の結了等,,,2015-10-05,1,,,,,アライコウキ,0
1146,5070001013221,登記記録の閉鎖等,0,2021-11-29,2021-11-26,ジーエムインダストリー株式会社,,株式会社,群馬県,伊勢崎市,下植木町７６５番地,,10,204,3720024,,,2021-11-26,清算の結了等,,,2015-10-05,1,,,,,ジーエムインダストリー,0
1150,5080401020188,登記記録の閉鎖等,0,2021-11-29,2021-11-25,株式会社アースクレイドル,,株式会社,静岡県,浜松市東区,大蒲町９２番地の１０,,22,132,4350014,,,2021-11-25,清算の結了等,,,2015-10-05,1,,,,,,0
1170,5120001188545,登記記録の閉鎖等,0,2021-11-29,2021-11-25,株式会社ＨＣマテリアル,,株式会社,大阪府,大阪市西成区,太子１丁目２番９号,,27,122,5570002,,,2021-11-25,合併による解散等,8010401064032,令和３年１１月１日東京都品川区上大崎二丁目２４番９号ハイアス・アンド・カンパニー株式会社（8010401064032）に合併し解散,2015-10-05,1,,,,,,0
1181,5120002011813,登記記録の閉鎖等,0,2021-11-29,2021-11-25,有限会社パインローズ,,有限会社,大阪府,大阪市平野区,瓜破２丁目１番４８号,,27,126,5470024,,,2021-11-25,清算の結了等,,,2015-10-05,1,,,,,パインローズ,0
1190,5120901023322,登記記録の閉鎖等,0,2021-11-29,2021-11-25,カントー株式会社,,株式会社,大阪府,豊中市,穂積２丁目１６番２０号,,27,203,5610856,,,2021-11-25,清算の結了等,,,2015-10-05,1,,,,,カントー,0
1202,5140001055157,登記記録の閉鎖等,0,2021-11-29,2021-11-25,Ｆ－ＡＢＣメディカルサポート株式会社,,株式会社,兵庫県,尼崎市,上坂部１丁目２番２－５３８号,,28,202,6610979,,,2021-11-25,清算の結了等,,,2015-10-05,1,,,,,エフエービーシーメディカルサポート,0
1209,5180001034132,登記記録の閉鎖等,0,2021-11-29,2021-11-22,株式会社石原建築設計所,,株式会社,愛知県,名古屋市中区,平和２丁目７番２号,,23,106,4600021,,,2021-11-22,清算の結了等,,,2015-10-05,1,,,,,イシハラケンチクセッケイショ,0
1211,5180001083633,登記記録の閉鎖等,0,2021-11-29,2021-11-24,不動前住宅株式会社,,株式会社,愛知県,一宮市,多加木４丁目１６番７号,,23,203,4910837,,,2021-11-24,清算の結了等,,,2015-10-05,1,,,,,フドウマエジュウタク,0
1212,5180001096230,登記記録の閉鎖等,0,2021-11-29,2021-11-22,株式会社私の小さな家,,株式会社,愛知県,常滑市,多屋町１丁目１７２番地,,23,216,4790839,,,2021-11-22,清算の結了等,,,2015-10-05,1,,,,,ワタシノチイサナイエ,0
1223,5180005013594,登記記録の閉鎖等,0,2021-11-29,2021-11-24,税理士法人内藤事務所,,その他の設立登記法人,愛知県,津島市,良王町２丁目１９番地,,23,208,4960814,,,2021-11-24,清算の結了等,,,2015-10-05,1,,,,,ナイトウジムショ,0
1234,5210001007175,登記記録の閉鎖等,0,2021-11-29,2021-11-25,株式会社ホクセイ,,株式会社,福井県,あわら市,中川６号１０番地１,,18,208,9190741,,,2021-11-25,清算の結了等,,,2015-10-05,1,,,,,,0
1235,5210001009972,登記記録の閉鎖等,0,2021-11-29,2021-11-25,株式会社アイガー,,株式会社,福井県,勝山市,平泉寺町大渡２１字１６番,,18,206,9110828,,,2021-11-25,清算の結了等,,,2015-10-05,1,,,,,アイガー,0
1241,5230005006279,登記記録の閉鎖等,0,2021-11-29,2021-10-26,浄土宗伏木教会,,その他の設立登記法人,富山県,高岡市,伏木本町１４番地,,16,202,9330106,,,2021-10-26,合併による解散等,1230005006407,令和３年１０月２６日富山県高岡市白金町５番１６号淨土寺（1230005006407）に合併し解散,2015-10-05,1,,,,,ジョウドシュウフシキキョウカイ,0
1255,5260002023167,登記記録の閉鎖等,0,2021-11-29,2021-11-26,有限会社さかえ建築工房,,有限会社,岡山県,倉敷市,真備町市場７１６番地の５,,33,202,7101305,,,2021-11-26,清算の結了等,,,2015-10-05,1,,,,,サカエケンチクコウボウ,0
1256,5260003002343,登記記録の閉鎖等,0,2021-11-29,2021-11-26,合同会社ＯＮＥ　ＳＥＬＥＣＴ,,合同会社,岡山県,岡山市中区,西川原３３７番地１コンチェルトＡ３０２,,33,102,7038258,,,2021-11-26,清算の結了等,,,2017-08-16,1,,,,,ワンセレクト,0
1273,5310003003567,登記記録の閉鎖等,0,2021-11-29,2021-11-26,香城合同会社,,合同会社,長崎県,北松浦郡佐々町,平野免６６２番地３３,,42,391,8570342,,,2021-11-26,清算の結了等,,,2018-11-01,1,,,,,コウキ,0
1287,5370001025302,登記記録の閉鎖等,0,2021-11-29,2021-11-24,株式会社ＲＥＲＩＳＥ,,株式会社,宮城県,仙台市太白区,入来田一丁目１９番５号,,04,104,9820000,,,2021-11-24,清算の結了等,,,2015-10-05,1,,,,,リライズ,0
1304,6010001212554,登記記録の閉鎖等,0,2021-11-29,2021-11-17,日本京都黒燿髪健康研究株式会社,,株式会社,東京都,千代田区,東神田２丁目６番７号６０８号,,13,101,1010031,,,2021-11-17,清算の結了等,,,2020-10-01,1,,,,,ニホンキョウトコクヨウハツケンコウケンキュウ,0
1313,6010003025351,登記記録の閉鎖等,0,2021-11-29,2021-11-24,合同会社ＮｏＲＫ,,合同会社,東京都,文京区,大塚４丁目４５番５号,,13,105,1120012,,,2021-11-24,清算の結了等,,,2017-05-18,1,,,,,ノーク,0
1317,6010101012391,登記記録の閉鎖等,0,2021-11-29,2021-11-25,株式会社ＡＮＤ－ＵＩ,,株式会社,東京都,八王子市,宇津木町５２３番地１,,13,201,1920024,,,2021-11-25,清算の結了等,,,2016-06-27,1,,,,,アンドユーアイ,0
1370,6020002003753,登記記録の閉鎖等,0,2021-11-29,2021-11-24,アライ塗装興業有限会社,,有限会社,神奈川県,横浜市緑区,西八朔町３７番地１００,,14,113,2260024,,,2021-11-24,清算の結了等,,,2015-10-05,1,,,,,アライトソウコウギョウ,0
1371,6020002011566,登記記録の閉鎖等,0,2021-11-29,2021-11-24,有限会社ナガシマ,,有限会社,神奈川県,横浜市戸塚区,下倉田町５３２番地３第２輪友ビル２０１,,14,110,2440815,,,2021-11-24,清算の結了等,,,2015-10-05,1,,,,,ナガシマ,0
1372,6020002014354,登記記録の閉鎖等,0,2021-11-29,2021-11-24,有限会社サンプラザ,,有限会社,神奈川県,横浜市青葉区,美しが丘２丁目３８番地３,,14,117,2250002,,,2021-11-24,清算の結了等,,,2015-10-05,1,,,,,サンプラザ,0
1398,6030002017141,登記記録の閉鎖等,0,2021-11-29,2021-11-24,有限会社三雄電設工業,,有限会社,埼玉県,さいたま市北区,日進町２丁目５３１番地５,,11,102,3310823,,,2021-11-24,清算の結了等,,,2015-10-05,1,,,,,サンユウデンセツコウギョウ,0
1410,6050001024756,登記記録の閉鎖等,0,2021-11-29,2021-11-24,株式会社Ｋコーポレーション,,株式会社,茨城県,日立市,川尻町５丁目４７番１号,,08,202,3191411,,,2021-11-24,清算の結了等,,,2015-10-05,1,,,,,ケーコーポレーション,0
1415,6060001030646,登記記録の閉鎖等,0,2021-11-29,2021-11-19,ＥＭＭＡ株式会社,,株式会社,栃木県,足利市,南町４２５４番地１,,09,202,3260821,,,2021-11-19,合併による解散等,4060001022158,令和３年１１月１日栃木県足利市南町４２５４番地１ザ・カンパニー株式会社（4060001022158）に合併し解散,2018-06-20,1,,,,,エマ,0
1416,6060002019127,登記記録の閉鎖等,0,2021-11-29,2021-11-22,有限会社まるほ商事,,有限会社,栃木県,芳賀郡益子町,大字小泉８７３番地,,09,342,3214222,,,2021-11-22,清算の結了等,,,2015-10-05,1,,,,,マルホショウジ,0
1436,6120001127568,登記記録の閉鎖等,0,2021-11-29,2021-11-15,株式会社ＭＡＴＳＵＳＨＩＮ,,株式会社,大阪府,大阪市浪速区,恵美須東３丁目６番１号新世界ＭＤビルＩＩ,00029077,27,111,5560002,,,2021-11-15,合併による解散等,5120001233615,令和３年１１月１日大阪市浪速区恵美須東三丁目６番１号新世界ＭＤビルＩＩ株式会社ＨＡＲＥ（5120001233615）に合併し解散,2015-10-05,1,,,,,,0
1442,6120002011498,登記記録の閉鎖等,0,2021-11-29,2021-11-24,有限会社タニテック,,有限会社,大阪府,大阪市平野区,平野北２丁目５番１２号,,27,126,5470041,,,2021-11-24,清算の結了等,,,2015-10-05,1,,,,,タニテック,0
1455,6130001060702,登記記録の閉鎖等,0,2021-11-29,2021-11-22,株式会社はんなり京都,,株式会社,京都府,京都市伏見区,南寝小屋町１６番地,,26,109,6128379,,,2021-11-22,清算の結了等,,,2017-10-16,1,,,,,ハンナリキョウト,0
1480,6200002009336,登記記録の閉鎖等,0,2021-11-29,2021-11-16,エム・アイ・エス有限会社,,有限会社,鹿児島県,鹿児島市,牟礼岡１丁目４１番２号,,46,201,8911306,,,2021-11-16,清算の結了等,,,2015-10-05,1,,,,,ササオカエン,0
1488,6240002015628,登記記録の閉鎖等,0,2021-11-29,2021-11-26,有限会社松田ビル,,有限会社,広島県,広島市安佐南区,上安２丁目１５番６号,,34,105,7310154,,,2021-11-26,清算の結了等,,,2015-10-05,1,,,,,マツダビル,0
1494,6260001021749,登記記録の閉鎖等,0,2021-11-29,2021-11-26,株式会社クイックバリュー,,株式会社,岡山県,岡山市中区,原尾島３丁目１６番４号,,33,102,7038235,,,2021-11-26,清算の結了等,,,2015-10-05,1,,,,,クイックバリュー,0
1496,6290001013702,登記記録の閉鎖等,0,2021-11-29,2021-11-24,株式会社新建築,,株式会社,福岡県,福岡市博多区,諸岡６丁目１２番２０号,,40,132,8120894,,,2021-11-24,清算の結了等,,,2015-10-05,1,,,,,シンケンチク,0
1514,6340002003696,登記記録の閉鎖等,0,2021-11-29,2021-11-25,有限会社慶友商事,,有限会社,鹿児島県,鹿児島市,荒田２丁目１番８号,,46,201,8900054,,,2021-11-25,清算の結了等,,,2015-10-05,1,,,,,ケイユウショウジ,0
1519,6370801001286,登記記録の閉鎖等,0,2021-11-29,2021-11-24,株式会社エミーズコーポレーション,,株式会社,宮城県,名取市,下増田字丁地２３３番地,,04,207,9811201,,,2021-11-24,清算の結了等,,,2015-10-05,1,,,,,エミーズコーポレーション,0
1534,6490001005794,登記記録の閉鎖等,0,2021-11-29,2021-11-26,相互木材株式会社,,株式会社,高知県,須崎市,港町５番５号,,39,206,7850002,,,2021-11-26,清算の結了等,,,2015-10-05,1,,,,,,0
1548,7010005012594,登記記録の閉鎖等,0,2021-11-29,2021-11-04,特定非営利活動法人日本ペット里親協会,,その他の設立登記法人,東京都,千代田区,神田多町２丁目１番地,,13,101,1010046,,,2021-11-04,合併による解散等,1380005002382,令和３年１１月１日福島市太平寺字堰ノ上５８番地特定非営利活動法人ダイユーエイト災害対策センター（1380005002382）に合併し解散,2015-10-05,1,,,,,ニホンペットサトオヤキョウカイ,0
1553,7010401152011,登記記録の閉鎖等,0,2021-11-29,2021-09-21,株式会社ｄｏｃ－ｕｐ,,株式会社,東京都,港区,北青山２丁目７－２０猪瀬ビル２Ｆ,,13,103,1070061,,,2021-09-21,清算の結了等,,,2020-03-31,1,,,,,ドックアップ,0
1589,7011101048945,登記記録の閉鎖等,0,2021-11-29,2021-11-16,株式会社新草原社,,株式会社,東京都,新宿区,早稲田鶴巻町５４７番地グランステージ早稲田２０１,,13,104,1620041,,,2021-11-16,清算の結了等,,,2015-10-05,1,,,,,シンソウゲンシャ,0
1601,7011401021973,登記記録の閉鎖等,0,2021-11-29,2021-11-17,朝日防熱保温株式会社,,株式会社,東京都,板橋区,南町１８番１号,,13,119,1730027,,,2021-11-17,清算の結了等,,,2019-08-02,1,,,,,,0
1626,7021005006073,登記記録の閉鎖等,0,2021-11-29,2021-11-22,特定非営利活動法人小田原市障害者福祉協議会,,その他の設立登記法人,神奈川県,小田原市,東町１丁目７番７号,,14,206,2500003,,,2021-11-22,清算の結了等,,,2015-10-05,1,,,,,オダワラシショウガイシャフクシキョウギカイ,0
1628,7030001053153,登記記録の閉鎖等,0,2021-11-29,2021-11-24,株式会社Ｏ３,,株式会社,埼玉県,春日部市,粕壁１丁目２番５号,,11,214,3440061,,,2021-11-24,清算の結了等,,,2015-10-05,1,,,,,オースリー,0
1635,7040001016019,登記記録の閉鎖等,0,2021-11-29,2021-11-24,シノプランニングハウス株式会社,,株式会社,千葉県,習志野市,花咲１丁目９番１４号,,12,216,2750013,,,2021-11-24,清算の結了等,,,2015-10-05,1,,,,,シノプランニングハウス,0
1636,7040001019590,登記記録の閉鎖等,0,2021-11-29,2021-11-19,朝日食品株式会社,,株式会社,千葉県,船橋市,市場２丁目１番２２号,,12,204,2730001,,,2021-11-19,合併による解散等,6010001027564,令和３年１１月８日東京都千代田区外神田四丁目３番１１号飛翔物産株式会社（6010001027564）に合併し解散,2015-10-05,1,,,,,アサヒショクヒン,0
1669,7080402008049,登記記録の閉鎖等,0,2021-11-29,2021-11-24,有限会社大幸薬局,,有限会社,静岡県,浜松市東区,植松町１７２番地の１,,22,132,4300803,,,2021-11-24,清算の結了等,,,2015-10-05,1,,,,,タイコウヤッキョク,0
1676,7110001009642,登記記録の閉鎖等,0,2021-11-29,2021-11-22,株式会社伊藤マネジメントサービス,,株式会社,新潟県,新潟市中央区,関屋田町２丁目２９６番地,,15,103,9518136,,,2021-11-22,清算の結了等,,,2015-10-05,1,,,,,イトウマネジメントサービス,0
1680,7110005001983,登記記録の閉鎖等,0,2021-11-29,2021-11-24,新津駅前商店街協同組合,,その他の設立登記法人,新潟県,新潟市秋葉区,新津本町１丁目２番４３号,,15,105,9560864,,,2021-11-24,清算の結了等,,,2015-10-05,1,,,,,ニイツエキマエショウテンガイ,0
1684,7120001125001,登記記録の閉鎖等,0,2021-11-29,2021-11-25,株式会社アサヒアテンドサービス,,株式会社,大阪府,大阪市阿倍野区,播磨町１丁目２０番２３号日商岩井帝塚山マンション１０１,,27,119,5450022,,,2021-11-25,清算の結了等,,,2015-10-05,1,,,,,アサヒアテンドサービス,0
1715,7140001110356,登記記録の閉鎖等,0,2021-11-29,2021-11-22,濱重コーポレーション株式会社,,株式会社,兵庫県,姫路市,白浜町甲７７０番地,,28,201,6728023,,,2021-11-22,合併による解散等,9140001060780,令和３年１１月２２日兵庫県姫路市白浜町甲７７０番地濱中製鎖工業株式会社（9140001060780）に合併し解散,2018-06-11,1,,,,,ハマジュウコーポレーション,0
1726,7150001017501,登記記録の閉鎖等,0,2021-11-29,2021-11-22,大和鋼材工業株式会社,,株式会社,奈良県,葛城市,当麻３８番地,,29,211,6392100,,,2021-11-22,清算の結了等,,,2018-02-09,1,,,,,,0
1749,7180301021464,登記記録の閉鎖等,0,2021-11-29,2021-11-24,株式会社ＢＳ,,株式会社,愛知県,みよし市,三好町木之本７４番地１,,23,236,4700224,,,2021-11-24,清算の結了等,,,2015-10-05,1,,,,,ビーエス,0
1755,7200002002562,登記記録の閉鎖等,0,2021-11-29,2021-11-25,有限会社セツビック,,有限会社,岐阜県,岐阜市,東鶉４丁目８７番地,,21,201,5008281,,,2021-11-25,清算の結了等,,,2015-10-05,1,,,,,セツビック,0
1760,7230001004656,登記記録の閉鎖等,0,2021-11-29,2021-11-24,株式会社未来観光,,株式会社,富山県,富山市,西荒屋５３８番地,,16,201,9398251,,,2021-11-24,清算の結了等,,,2015-10-05,1,,,,,ミライカンコウ,0
1762,7230001015819,登記記録の閉鎖等,0,2021-11-29,2021-11-24,株式会社シーズ,,株式会社,富山県,射水市,戸破４３２７番地,,16,211,9390351,,,2021-11-24,清算の結了等,,,2015-10-05,1,,,,,シーズ,0
1767,7240005002597,登記記録の閉鎖等,0,2021-11-29,2021-11-26,医療法人社団青山神経科内科クリニック,,その他の設立登記法人,広島県,広島市中区,八丁堀１１番１９号,,34,101,7300013,,,2021-11-26,清算の結了等,,,2015-10-05,1,,,,,アオヤマシンケイカナイカクリニック,0
1785,7320002021492,登記記録の閉鎖等,0,2021-11-29,2021-11-26,あんしん保険有限会社,,有限会社,大分県,中津市,豊田町１５番地４,,44,203,8710058,,,2021-11-26,清算の結了等,,,2015-10-05,1,,,,,アンシンホケン,0
1800,7380002023707,登記記録の閉鎖等,0,2021-11-29,2021-11-22,有限会社サン企画,,有限会社,福島県,いわき市,小名浜林城字下高田１５番地の３,,07,204,9718122,,,2021-11-22,清算の結了等,,,2015-10-05,1,,,,,サンキカク,0
1829,8010003025498,登記記録の閉鎖等,0,2021-11-29,2021-11-24,有明アスリート合同会社,,合同会社,東京都,千代田区,麹町５丁目１番地ＮＫ真和ビル９階,,13,101,1020083,,,2021-11-24,清算の結了等,,,2017-06-13,1,,,,,アリアケアスリート,0
1833,8010401002710,登記記録の閉鎖等,0,2021-11-29,2021-11-19,和泉化成株式会社,,株式会社,東京都,港区,三田５丁目２番１８－６１３号,,13,103,1080073,,,2021-11-19,清算の結了等,,,2015-10-05,1,,,,,イズミカセイ,0
1835,8010401135072,登記記録の閉鎖等,0,2021-11-29,2021-11-22,アンドビューティジャパン株式会社,,株式会社,東京都,港区,北青山２丁目９番１２号,,13,103,1070061,,,2021-11-22,清算の結了等,,,2017-11-21,1,,,,,アンドビューティジャパン,0
1851,8010802009734,登記記録の閉鎖等,0,2021-11-29,2021-11-22,有限会社でんきらんどダイゴ,,有限会社,東京都,大田区,大森東１丁目４番２号,,13,111,1430012,,,2021-11-22,清算の結了等,,,2015-10-05,1,,,,,デンキランドダイゴ,0
1860,8011001126239,登記記録の閉鎖等,0,2021-11-29,2021-11-11,株式会社ＢＬＵＥ　ＳＷＡＮ　ＴＥＸＴＩＬＥ,,株式会社,東京都,目黒区,中根２丁目１８番２号,,13,110,1520031,,,2021-11-11,清算の結了等,,,2019-01-25,1,,,,,ブルースワンテキスタイル,0
1877,8011402003623,登記記録の閉鎖等,0,2021-11-29,2021-11-26,有限会社斉藤スクリーン,,有限会社,東京都,板橋区,大谷口北町５３番６号,,13,119,1730031,,,2021-11-26,清算の結了等,,,2015-10-05,1,,,,,サイトウスクリーン,0
1897,8012402012622,登記記録の閉鎖等,0,2021-11-29,2021-11-22,有限会社三宅商事,,有限会社,東京都,調布市,入間町１丁目３５番地２３,,13,208,1820004,,,2021-11-22,清算の結了等,,,2015-10-05,1,,,,,ミヤケショウジ,0
1906,8020001100830,登記記録の閉鎖等,0,2021-11-29,2021-11-25,株式会社フューチャークレス,,株式会社,神奈川県,川崎市中原区,新丸子東２丁目８９５番地武蔵小杉ＡＴビル５０１号室,,14,133,2110004,,,2021-11-25,清算の結了等,,,2015-10-05,1,,,,,フューチャークレス,0
1907,8020001132997,登記記録の閉鎖等,0,2021-11-29,2021-11-24,株式会社田口建装,,株式会社,神奈川県,川崎市川崎区,渡田向町３番８号,,14,131,2100841,,,2021-11-24,清算の結了等,,,2019-10-02,1,,,,,タグチケンソウ,0
1914,8030001013668,登記記録の閉鎖等,0,2021-11-29,2021-11-26,株式会社もものき,,株式会社,埼玉県,さいたま市南区,別所４丁目８番４号,,11,108,3360021,,,2021-11-26,清算の結了等,,,2015-10-05,1,,,,,モモノキ,0
1928,8030005000365,登記記録の閉鎖等,0,2021-11-29,2021-11-09,天理教越宮分教会,,その他の設立登記法人,埼玉県,さいたま市大宮区,上小町３５４番地,,11,103,3300855,,,2021-11-09,合併による解散等,8210005006179,令和３年１１月４日福井県敦賀市三島町二丁目４番３４号天理教越乃國大教会（8210005006179）に合併し解散,2015-10-05,1,,,,,テンリキョウコシミヤブンキョウカイ,0
1930,8030005013862,登記記録の閉鎖等,0,2021-11-29,2021-11-08,天理教玉夏分教会,,その他の設立登記法人,埼玉県,行田市,大字谷郷６４２番地７,,11,206,3610062,,,2021-11-08,合併による解散等,6030005013856,令和３年１１月８日埼玉県行田市佐間一丁目４番２５号天理教忍町分教会（6030005013856）に合併し解散,2015-10-05,1,,,,,,0
1950,8050002012254,登記記録の閉鎖等,0,2021-11-29,2021-11-24,有限会社ホープ,,有限会社,茨城県,つくば市,竹園１丁目６番１号つくば三井ビルディング１８階,,08,220,3050032,,,2021-11-24,清算の結了等,,,2015-10-05,1,,,,,ホープ,0
1958,8070002004373,登記記録の閉鎖等,0,2021-11-29,2021-11-25,有限会社ハルナレーシングファクトリー,,有限会社,群馬県,前橋市,青梨子町７５２番地１２,,10,201,3703573,,,2021-11-25,清算の結了等,,,2015-10-05,1,,,,,,0
1960,8080105000062,登記記録の閉鎖等,0,2021-11-29,2021-11-26,静浦海産物協同組合,,その他の設立登記法人,静岡県,沼津市,馬込１番地の６,,22,203,4100105,,,2021-11-26,清算の結了等,,,2015-10-05,1,,,,,,0
1962,8080402005656,登記記録の閉鎖等,0,2021-11-29,2021-11-24,有限会社南海貿易,,有限会社,静岡県,浜松市東区,丸塚町４６番地の５,00079972,22,132,4350046,,,2021-11-24,清算の結了等,,,2015-10-05,1,,,,,ナンカイボウエキ,0
1970,8110005013160,登記記録の閉鎖等,0,2021-11-29,2021-11-19,六日町重機協同組合,,その他の設立登記法人,新潟県,南魚沼市,四十日２４７５番地１,,15,226,9497145,,,2021-11-19,清算の結了等,,,2015-10-05,1,,,,,ムイカマチジュウキ,0
1976,8120001164270,登記記録の閉鎖等,0,2021-11-29,2021-11-25,株式会社アール・プラス・マテリアル,,株式会社,大阪府,大阪市西成区,太子１丁目２番９号毎日ビル,,27,122,5570002,,,2021-11-25,合併による解散等,8010401064032,令和３年１１月１日東京都品川区上大崎二丁目２４番９号ハイアス・アンド・カンパニー株式会社（8010401064032）に合併し解散,2015-10-05,1,,,,,,0
1997,8122001021121,登記記録の閉鎖等,0,2021-11-29,2021-11-26,日本パラピン紙工業株式会社,,株式会社,大阪府,柏原市,本郷３丁目７番９号,,27,221,5820001,,,2021-11-26,清算の結了等,,,2015-10-05,1,,,,,,0
2028,8180001089371,登記記録の閉鎖等,0,2021-11-29,2021-11-22,株式会社コンバージョン,,株式会社,京都府,京都市上京区,荒神口上がる東入る宮垣町９４まむあん荒神口１０２,,26,102,6020000,,,2021-11-22,清算の結了等,,,2015-10-05,1,,,,,コンバージョン,0
2034,8180002084074,登記記録の閉鎖等,0,2021-11-29,2021-11-22,有限会社山本電気工業,,有限会社,愛知県,半田市,桐ケ丘３丁目１１番地の７,,23,205,4750928,,,2021-11-22,清算の結了等,,,2015-10-05,1,,,,,ヤマモトデンキコウギョウ,0
2045,8200001014970,登記記録の閉鎖等,0,2021-11-29,2021-11-26,株式会社掬水,,株式会社,岐阜県,養老郡養老町,養老公園１２８６番地の１,,21,341,5031254,,,2021-11-26,清算の結了等,,,2015-10-05,1,,,,,,0
2050,8210001004649,登記記録の閉鎖等,0,2021-11-29,2021-11-25,株式会社豊栄サポートバンク,,株式会社,福井県,福井市,渕３丁目１０５番地,,18,201,9188026,,,2021-11-25,清算の結了等,,,2015-10-05,1,,,,,ホウエイサポートバンク,0
2079,8320002010726,登記記録の閉鎖等,0,2021-11-29,2021-11-22,有限会社赤穗計算センター,,有限会社,大分県,別府市,石垣西５丁目５番１６号,,44,202,8740910,,,2021-11-22,清算の結了等,,,2015-10-05,1,,,,,アコウケイサンセンター,0
2082,8330001010602,登記記録の閉鎖等,0,2021-11-29,2021-11-25,株式会社キヨタ電気,,株式会社,熊本県,熊本市北区,植木町木留２８６番地４,,43,105,8610151,,,2021-11-25,清算の結了等,,,2015-10-05,1,,,,,キヨタデンキ,0
2094,8370001046997,登記記録の閉鎖等,0,2021-11-29,2021-11-24,いしだメディカアルケア株式会社,,株式会社,宮城県,仙台市若林区,荒井東２丁目１２番地６,,04,103,9840030,,,2021-11-24,清算の結了等,,,2021-04-19,1,,,,,イシダメディカアルケア,0
2099,8410002013380,登記記録の閉鎖等,0,2021-11-29,2021-11-24,有限会社川崎ファーム,,有限会社,秋田県,横手市,平鹿町中吉田字清水ノ上９０番地の３,,05,203,0130106,,,2021-11-24,清算の結了等,,,2015-10-05,1,,,,,カワサキファーム,0
2104,8440002005301,登記記録の閉鎖等,0,2021-11-29,2021-11-25,有限会社旅館みうら,,有限会社,北海道,松前郡松前町,字博多７２番地,,01,331,0491505,,,2021-11-25,清算の結了等,,,2015-10-05,1,,,,,リョカンミウラ,0
2133,9010002037147,登記記録の閉鎖等,0,2021-11-29,2021-11-22,有限会社ラーデン,,有限会社,東京都,文京区,千石１丁目１１番８号,,13,105,1120011,,,2021-11-22,清算の結了等,,,2015-10-05,1,,,,,ラーデン,0
2134,9010003019342,登記記録の閉鎖等,0,2021-11-29,2021-11-26,Ｘ－Ｅｌｉｏ９合同会社,,合同会社,東京都,中央区,銀座４丁目１４番１１号七十七銀座ビル８階,,13,102,1040061,,,2021-11-26,清算の結了等,,,2015-10-05,1,,,,,エクセリオナイン,0
2147,9010401152686,登記記録の閉鎖等,0,2021-11-29,2021-11-19,株式会社ＭＡＫＡ　ＰＲＯＤＵＣＴＳ,,株式会社,東京都,港区,浜松町２丁目２番１５号浜松町ダイヤビル２Ｆ,,13,103,1050013,,,2021-11-19,清算の結了等,,,2020-05-13,1,,,,,マカプロダクツ,0
2151,9010405008926,登記記録の閉鎖等,0,2021-11-29,2021-11-16,特定非営利活動法人麻布氷川江戸型山車保存会,,その他の設立登記法人,東京都,港区,元麻布１丁目４番２３号麻布氷川神社内,,13,103,1060046,,,2021-11-16,清算の結了等,,,2015-10-05,1,,,,,アザブヒカワエドガタヤマシャホゾンカイ,0
2165,9011001130504,登記記録の閉鎖等,0,2021-11-29,2021-11-11,株式会社ブルーキャピタル,,株式会社,東京都,渋谷区,桜丘町２３番１７号シティコート桜丘４０８,,13,113,1500031,,,2021-11-11,清算の結了等,,,2019-10-18,1,,,,,ブルーキャピタル,0
2184,9011503003018,登記記録の閉鎖等,0,2021-11-29,2021-11-22,合同会社Ｎｏｎ　Ｃｏｎｃｅｐｔ,,合同会社,東京都,北区,浮間３丁目２１番１号セドルハイム北赤羽１０２号,,13,117,1150051,,,2021-11-22,清算の結了等,,,2016-08-10,1,,,,,ノンコンセプト,0
2195,9012801009136,登記記録の閉鎖等,0,2021-11-29,2021-11-26,株式会社不動産コンサルティングセンター,,株式会社,東京都,立川市,柴崎町２丁目１２番６号,,13,202,1900023,,,2021-11-26,清算の結了等,,,2015-10-05,1,,,,,,0
2201,9020001112767,登記記録の閉鎖等,0,2021-11-29,2021-11-25,株式会社アサノ神奈川,,株式会社,神奈川県,横浜市神奈川区,鶴屋町３丁目３０番１号,,14,102,2210835,,,2021-11-25,清算の結了等,,,2015-10-05,1,,,,,アサノカナガワ,0
2209,9020003017865,登記記録の閉鎖等,0,2021-11-29,2021-11-24,合同会社Ｂｒｉｌｌｉａｎｔ　Ｂｒｏｔｈｅｒｓ,,合同会社,東京都,千代田区,丸の内３丁目２－２丸の内二重橋ビル２階,,13,101,1000005,,,2021-11-24,清算の結了等,,,2020-05-15,1,,,,,ブリリアントブラザーズ,0
2212,9030001007875,登記記録の閉鎖等,0,2021-11-29,2021-11-25,株式会社増崎電気設備,,株式会社,埼玉県,さいたま市中央区,八王子５丁目１１番１０－２号,,11,105,3380006,,,2021-11-25,清算の結了等,,,2015-10-05,1,,,,,マスザキデンキセツビ,0
2213,9030001022610,登記記録の閉鎖等,0,2021-11-29,2021-11-25,株式会社エム・ケイプジャパン,,株式会社,埼玉県,戸田市,下前２丁目１番３０号,,11,224,3350016,,,2021-11-25,清算の結了等,,,2015-10-05,1,,,,,エムケイプジャパン,0
2219,9030002024548,登記記録の閉鎖等,0,2021-11-29,2021-11-24,有限会社誠和,,有限会社,埼玉県,戸田市,大字新曽９０１番地の１,,11,224,3350021,,,2021-11-24,清算の結了等,,,2015-10-05,1,,,,,,0
2221,9030002112567,登記記録の閉鎖等,0,2021-11-29,2021-11-26,有限会社ぐるーぷ・トモ,,有限会社,埼玉県,新座市,道場１丁目７番２号,,11,230,3520024,,,2021-11-26,清算の結了等,,,2015-10-05,1,,,,,グループトモ,0
2237,9050001026667,登記記録の閉鎖等,0,2021-11-29,2021-11-25,株式会社恩田組,,株式会社,茨城県,常陸太田市,中染町２４３３番地,,08,212,3130212,,,2021-11-25,清算の結了等,,,2015-10-05,1,,,,,オンダクミ,0
2251,9080102007943,登記記録の閉鎖等,0,2021-11-29,2021-11-26,有限会社浅田硝子店,,有限会社,静岡県,伊豆市,湯ケ島２４９番地の１２,,22,222,4103206,,,2021-11-26,清算の結了等,,,2015-10-05,1,,,,,アサダガラステン,0
2255,9100002012727,登記記録の閉鎖等,0,2021-11-29,2021-11-25,マル和鉄筋工業有限会社,,有限会社,長野県,小諸市,加増３丁目６番４１号,,20,208,3840061,,,2021-11-25,清算の結了等,,,2015-10-05,1,,,,,マルワテッキンコウギョウ,0
2260,9120001063281,登記記録の閉鎖等,0,2021-11-29,2021-11-25,近畿バイオメディカル株式会社,,株式会社,大阪府,大阪市北区,松ケ枝町２番２号,,27,127,5300037,,,2021-11-25,清算の結了等,,,2015-10-05,1,,,,,キンキバイオメディカル,0
2270,9120001220915,登記記録の閉鎖等,0,2021-11-29,2021-11-25,株式会社ＭＴＹ,,株式会社,大阪府,大阪市都島区,東野田町２丁目９番２３号晃進ビル７階,,27,102,5340024,,,2021-11-25,清算の結了等,,,2019-05-10,1,,,,,エムティワイ,0
2282,9122005000475,登記記録の閉鎖等,0,2021-11-29,2021-11-22,浪速無線事業協同組合,,その他の設立登記法人,大阪府,東大阪市,長田西２丁目７番１３号,,27,227,5770016,,,2021-11-22,清算の結了等,,,2015-10-05,1,,,,,ナニワムセン,0
2324,9180002042114,登記記録の閉鎖等,0,2021-11-29,2021-11-24,有限会社前山ハウジング,,有限会社,愛知県,名古屋市昭和区,前山町１丁目３８番地の４,,23,107,4660821,,,2021-11-24,清算の結了等,,,2015-10-05,1,,,,,マエヤマハウジング,0
2326,9180005018821,登記記録の閉鎖等,0,2021-11-29,2021-10-07,一般社団法人みんなの杜,,その他の設立登記法人,愛知県,清須市,上条１丁目２番地１６－３Ｂ,,23,233,4520944,,,2021-10-07,清算の結了等,,,2020-05-29,1,,,,,ミンナノモリ,0
2333,9190002022263,登記記録の閉鎖等,0,2021-11-29,2021-11-26,有限会社村山産業,,有限会社,三重県,四日市市,尾平町２６４６番地,,24,202,5120921,,,2021-11-26,清算の結了等,,,2015-10-05,1,,,,,ムラヤマサンギョウ,0
2339,9210002012492,登記記録の閉鎖等,0,2021-11-29,2021-11-25,有限会社オートクラフトヤマグチ,,有限会社,福井県,越前市,家久町６４字２４番地,,18,209,9150801,,,2021-11-25,清算の結了等,,,2015-10-05,1,,,,,,0
2340,9220002002170,登記記録の閉鎖等,0,2021-11-29,2021-11-26,有限会社喜多設備工業所,,有限会社,石川県,金沢市,四十万町北ヲ７６番地,,17,201,9218133,,,2021-11-26,清算の結了等,,,2015-10-05,1,,,,,キタセツビコウギョウショ,0
2353,9270002009426,登記記録の閉鎖等,0,2021-11-29,2021-11-25,有限会社天野電気商事,,有限会社,鳥取県,東伯郡琴浦町,大字逢束１２０５番地１,00004391,31,371,6892304,,,2021-11-25,清算の結了等,,,2015-10-05,1,,,,,アマノデンキショウジ,0
2363,9290801021323,登記記録の閉鎖等,0,2021-11-29,2021-11-24,株式会社Ｋ・Ｔ,,株式会社,福岡県,北九州市八幡西区,力丸町１０番２８号,,40,109,8070802,,,2021-11-24,清算の結了等,,,2015-10-05,1,,,,,,0
2372,9310002017713,登記記録の閉鎖等,0,2021-11-29,2021-11-25,有限会社友和産業,,有限会社,長崎県,大村市,宮代町２２１２番地,,42,205,8560015,,,2021-11-25,清算の結了等,,,2015-10-05,1,,,,,ユウワサンギョウ,0
2376,9360001012248,登記記録の閉鎖等,0,2021-11-29,2021-11-22,農業生産法人株式会社沖縄エコ,,株式会社,沖縄県,名護市,字稲嶺４３番地,,47,209,9051142,,,2021-11-22,清算の結了等,,,2015-10-05,1,,,,,オキナワエコ,0
2382,9360002013550,登記記録の閉鎖等,0,2021-11-29,2021-11-19,有限会社春工務店,,有限会社,沖縄県,うるま市,与那城９２番地の４,,47,213,9042303,,,2021-11-19,清算の結了等,,,2015-10-05,1,,,,,ハルコウムテン,0
2387,9370301000570,登記記録の閉鎖等,0,2021-11-29,2021-11-01,株式会社内源ジャパン,,株式会社,宮城県,石巻市,魚町１丁目２８番地の２,,04,202,9860022,,,2021-11-01,合併による解散等,3370301000196,令和３年１１月１日宮城県石巻市浜松町４番４６号株式会社内源きょうりんジャパン（3370301000196）に合併し解散,2015-10-05,1,,,,,ウチゲンジャパン,0
2405,9470005000527,登記記録の閉鎖等,0,2021-11-29,2021-11-24,医療法人社団赤井ヒポクラテスの樹医匠会,,その他の設立登記法人,香川県,高松市,香西東町４３３番地１,,37,201,7618013,,,2021-11-24,清算の結了等,,,2015-10-05,1,,,,,シャダンアカイヒポクラテスノキイショウカイ,0
2411,9500001014972,登記記録の閉鎖等,0,2021-11-29,2021-11-24,株式会社ベリーブラン,,株式会社,愛媛県,四国中央市,土居町蕪崎２７７７番地,,38,213,7990724,,,2021-11-24,清算の結了等,,,2015-10-05,1,,,,,ベリーブラン,0
