sequenceNumber,corporateNumber,process,correct,updateDate,changeDate,name,nameImageId,kind,prefectureName,cityName,streetNumber,addressImageId,prefectureCode,cityCode,postCode,addressOutside,addressOutsideImageId,closeDate,closeCause,successorCorporateNumber,changeCause,assignmentDate,latest,enName,enPrefectureName,enCityName,enAddressOutside,furigana,hihyoji
9,1010001252002,新規,0,2025-02-07,2025-02-07,株式会社Ｓ・Ｌｉｍｉｔ引越し,,株式会社,東京都,中央区,勝どき３丁目１３番２号,,13,102,1040054,,,,,,,2025-02-07,1,,,,,,0
10,1010003046328,新規,0,2025-02-07,2025-02-07,合同会社ＨＭインベストメント,,合同会社,東京都,千代田区,丸の内１丁目４番１号東京共同会計事務所内,,13,101,1000005,,,,,,,2025-02-07,1,,,,,エイチエムインベストメント,0
18,1010401187830,新規,0,2025-02-07,2025-02-07,株式会社ＮＥＯＤＯＴ,,株式会社,東京都,港区,虎ノ門４丁目３番１号城山トラストタワー２２Ｆ,,13,103,1050001,,,,,,,2025-02-07,1,,,,,ネオドット,0
19,1010401188028,新規,0,2025-02-07,2025-02-07,ＧＣＪＧ４９株式会社,,株式会社,東京都,港区,元赤坂１丁目１番８号株式会社赤坂国際会計内,,13,103,1070051,,,,,,,2025-02-07,1,,,,,ジーシージェイジーフォーティナイン,0
20,1010401188110,新規,0,2025-02-07,2025-02-07,株式会社ＡＲＦ,,株式会社,東京都,港区,南青山４丁目２０番１９号,,13,103,1070062,,,,,,,2025-02-07,1,,,,,エーアールエフ,0
21,1010403034337,新規,0,2025-02-07,2025-02-07,合同会社ＳＫラティス,,合同会社,東京都,港区,白金台３丁目１６番１０ー４０５号,,13,103,1080071,,,,,,,2025-02-07,1,,,,,エスケーラティス,0
23,1010405024063,新規,0,2025-02-07,2025-02-07,ＳｐｒＡｕｔ監査法人,,その他の設立登記法人,東京都,港区,南青山２丁目１５－５ＦＡＲＯ青山,,13,103,1070062,,,,,,,2025-02-07,1,,,,,スプラウト,0
31,1010601066719,新規,0,2025-02-07,2025-02-07,株式会社ＬＥＣＩＥＬ　ＨＯＭＥＳ,,株式会社,東京都,墨田区,江東橋２丁目８番８号古谷ビル３０１,,13,107,1300022,,,,,,,2025-02-07,1,,,,,ルシエルホームズ,0
34,1010605004410,新規,0,2025-02-07,2025-02-07,税理士法人トレジャーズ,,その他の設立登記法人,東京都,墨田区,江東橋３丁目１０番８号錦糸町スクエアビル７階,,13,107,1300022,,,,,,,2025-02-07,1,,,,,トレジャーズ,0
39,1010801035820,新規,0,2025-02-07,2025-02-07,ＧＯ‐ＥＮ株式会社,,株式会社,東京都,大田区,蒲田七丁目４８番３号大越ビル３階,,13,111,1440000,,,,,,,2025-02-07,1,,,,,ゴエン,0
41,1010903009697,新規,0,2025-02-07,2025-02-07,合同会社フィンリー,,合同会社,東京都,世田谷区,尾山台２丁目２９－１,,13,112,1580086,,,,,,,2025-02-07,1,,,,,フィンリー,0
45,1011001167537,新規,0,2025-02-07,2025-02-07,ゴロテック株式会社,,株式会社,東京都,渋谷区,神南１丁目１１－４ＦＰＧリンクス神南５階,,13,113,1500041,,,,,,,2025-02-07,1,,,,,ゴロテック,0
46,1011001167603,新規,0,2025-02-07,2025-02-07,ＰＳＩ　ｃｏｒｄｉａｌ株式会社,,株式会社,東京都,目黒区,自由が丘１丁目２８番８号自由が丘デパートＢ１,,13,110,1520035,,,,,,,2025-02-07,1,,,,,サイコーデアル,0
47,1011001167685,新規,0,2025-02-07,2025-02-07,ＲＩＯ　ＤＥＳＩＧＮ株式会社,,株式会社,東京都,渋谷区,渋谷２丁目１９－１５宮益坂ビルディング６０９,,13,113,1500002,,,,,,,2025-02-07,1,,,,,リオデザイン,0
48,1011003020900,新規,0,2025-02-07,2025-02-07,Ｏｃｔａｖｅ　Ｌｉｖｉｎｇ　Ｔｏｋｙｏ合同会社,,合同会社,東京都,渋谷区,神宮前１丁目２３番２６号,,13,113,1500001,,,,,,,2025-02-07,1,,,,,オクターブリビングトウキョウ,0
54,1011101110479,新規,0,2025-02-07,2025-02-07,株式会社アセットプラザ,,株式会社,東京都,新宿区,西新宿６丁目１２番７号ストーク新宿１階,,13,104,1600023,,,,,,,2025-02-07,1,,,,,アセットプラザ,0
55,1011101110537,新規,0,2025-02-07,2025-02-07,Ａｉｍａ株式会社,,株式会社,東京都,新宿区,西新宿３丁目３番１３号西新宿水間ビル２階,,13,104,1600023,,,,,,,2025-02-07,1,,,,,アイマ,0
56,1011101110545,新規,0,2025-02-07,2025-02-07,株式会社ＨＩＫＡＲＩ,,株式会社,東京都,新宿区,高田馬場３丁目２７－８,,13,104,1690075,,,,,,,2025-02-07,1,,,,,ヒカリ,0
57,1011101110553,新規,0,2025-02-07,2025-02-07,株式会社Ｓｔｏｎｅ　Ｐｒｏｄｕｃｔｉｏｎ,,株式会社,東京都,新宿区,新宿４丁目１ＪＲ新宿ミライナタワー１８Ｆ,,13,104,1600022,,,,,,,2025-02-07,1,,,,,ストーンプロダクション,0
58,1011101110578,新規,0,2025-02-07,2025-02-07,株式会社ａｔｅｌｏ,,株式会社,東京都,新宿区,神楽坂６丁目３９番地エキューラ神楽坂２Ｃ,,13,104,1620825,,,,,,,2025-02-07,1,,,,,アテロ,0
60,1011103015494,新規,0,2025-02-07,2025-02-07,合同会社ブレイヴアロー,,合同会社,東京都,新宿区,早稲田町８３番地１ＡＧＩＯ早稲田１００１,,13,104,1620042,,,,,,,2025-02-07,1,,,,,ブレイヴアロー,0
61,1011103015503,新規,0,2025-02-07,2025-02-07,合同会社Ｍ２,,合同会社,東京都,新宿区,西新宿３丁目３番１３号西新宿水間ビル２Ｆ,,13,104,1600023,,,,,,,2025-02-07,1,,,,,エムツー,0
62,1011103015511,新規,0,2025-02-07,2025-02-07,合同会社新京自動車,,合同会社,東京都,新宿区,大久保３丁目８番１－１５０８号,,13,104,1690072,,,,,,,2025-02-07,1,,,,,シンキョウジドウシャ,0
80,1012803003623,新規,0,2025-02-07,2025-02-07,合同会社九十九オートモービル,,合同会社,東京都,国立市,西２丁目８番地の７７,,13,215,1860005,,,,,,,2025-02-07,1,,,,,ツクモオートモービル,0
84,1013301053763,新規,0,2025-02-07,2025-02-07,株式会社恒益,,株式会社,東京都,豊島区,東池袋２丁目１３番７－６０２号,,13,116,1700013,,,,,,,2025-02-07,1,,,,,コウエキ,0
86,1013303007536,新規,0,2025-02-07,2025-02-07,合同会社構想デザイン工学研究所,,合同会社,東京都,豊島区,東池袋４丁目２１番１－１１０７号,,13,116,1700013,,,,,,,2025-02-07,1,,,,,コウソウデザインコウガクケンキュウジョ,0
94,1020001161193,新規,0,2025-02-07,2025-02-07,旭和商事株式会社,,株式会社,神奈川県,横浜市鶴見区,鶴見中央３丁目２２－２３ライオンズプラザ鶴見中央８０６号室,,14,101,2300051,,,,,,,2025-02-07,1,,,,,アサヒワショウジ,0
102,1021001084418,新規,0,2025-02-07,2025-02-07,株式会社ＯｃｅａｎＦｌｕｉｄｉｃｓ,,株式会社,神奈川県,横須賀市,夏島町２－１５,,14,201,2370061,,,,,,,2025-02-07,1,,,,,オーシャンフルイディクス,0
103,1021001084434,新規,0,2025-02-07,2025-02-07,株式会社Ｐａｌｍ　Ｔｒｅｅ,,株式会社,神奈川県,逗子市,逗子１丁目７番４号清水屋ビル３階３０２号室,,14,208,2490006,,,,,,,2025-02-07,1,,,,,パームトゥリー,0
109,1030001164724,新規,0,2025-02-07,2025-02-07,株式会社カインド美装,,株式会社,埼玉県,草加市,柳島町７０３番地１６,,11,221,3400033,,,,,,,2025-02-07,1,,,,,カインドビソウ,0
110,1030001164815,新規,0,2025-02-07,2025-02-07,株式会社Ｓｏｐｈｉｓｔ,,株式会社,埼玉県,和光市,丸山台１丁目４－４－２Ｆ,,11,229,3510112,,,,,,,2025-02-07,1,,,,,ソフィスト,0
112,1030003026030,新規,0,2025-02-07,2025-02-07,弘云合同会社,,合同会社,埼玉県,蕨市,中央１丁目１７番３０号ルネ蕨２号館８０８号,,11,223,3350004,,,,,,,2025-02-07,1,,,,,コウウン,0
118,1040001137258,新規,0,2025-02-07,2025-02-07,Ｎｅｗ　Ｔｒｅｎｄｙ　Ｊａｐａｎ株式会社,,株式会社,千葉県,我孫子市,柴崎台２丁目７番２９号コーポ梅澤－２０２号室,,12,222,2701176,,,,,,,2025-02-07,1,,,,,ニュートレンディージャパン,0
119,1040001137282,新規,0,2025-02-07,2025-02-07,株式会社山本組,,株式会社,千葉県,夷隅郡大多喜町,中野２８３番地,,12,441,2980271,,,,,,,2025-02-07,1,,,,,ヤマモトグミ,0
120,1040001137299,新規,0,2025-02-07,2025-02-07,株式会社東田,,株式会社,千葉県,船橋市,海神町２丁目２６４番地１０,,12,204,2730022,,,,,,,2025-02-07,1,,,,,トウダ,0
121,1040001137308,新規,0,2025-02-07,2025-02-07,Ｅｍｅｇｏｎ株式会社,,株式会社,千葉県,浦安市,猫実５丁目９番１７号ライトエイジ８０１号室,,12,227,2790004,,,,,,,2025-02-07,1,,,,,エメゴン,0
125,1040003026822,新規,0,2025-02-07,2025-02-07,合同会社イースプル,,合同会社,千葉県,千葉市緑区,誉田町１丁目７６５番地１いずみハイツ１０２号,,12,105,2660005,,,,,,,2025-02-07,1,,,,,イースプル,0
126,1050001056143,新規,0,2025-02-07,2025-02-07,日本ステイ株式会社,,株式会社,茨城県,つくば市,松野木１５０番地１１,,08,220,3050056,,,,,,,2025-02-07,1,,,,,ニホンステイ,0
127,1050001056151,新規,0,2025-02-07,2025-02-07,株式会社Ｒｅａｃｈ　Ａｆｆｅｃｔｉｏｎｓ,,株式会社,茨城県,ひたちなか市,和尚塚１２４９２,,08,221,3111263,,,,,,,2025-02-07,1,,,,,リーチアフェクションズ,0
128,1050003009009,新規,0,2025-02-07,2025-02-07,境貿易合同会社,,合同会社,茨城県,猿島郡境町,大字若林２５８２番地３,,08,546,3060417,,,,,,,2025-02-07,1,,,,,サカイボウエキ,0
132,1060005010302,新規,0,2025-02-07,2025-02-07,農事組合法人大室,,その他の設立登記法人,栃木県,日光市,大室９０１番地１２,,09,206,3212332,,,,,,,2025-02-07,1,,,,,オオムロ,0
135,1080401027732,新規,0,2025-02-07,2025-02-07,ティーアンドエス株式会社,,株式会社,静岡県,浜松市中央区,舞阪町弁天島３２８５－１日商岩井１０１４,,22,138,4310214,,,,,,,2025-02-07,1,,,,,ティーアンドエス,0
149,1120001272559,新規,0,2025-02-07,2025-02-07,株式会社大神,,株式会社,大阪府,大阪市大正区,鶴町１丁目９番１１号大正ガレージハウスＩＩ－１号,00137931,27,108,5510023,,,,,,,2025-02-07,1,,,,,ダイシン,0
150,1120001272575,新規,0,2025-02-07,2025-02-07,センリアドバンス株式会社,,株式会社,大阪府,大阪市北区,鶴野町４－１１朝日プラザ梅田２Ｆ－８６,,27,127,5300014,,,,,,,2025-02-07,1,,,,,センリアドバンス,0
151,1120001272625,新規,0,2025-02-07,2025-02-07,株式会社ＪＵＮ‐ＮＯＵ,,株式会社,大阪府,大阪市天王寺区,味原町１３－９－３Ｆ（２５）,,27,109,5430023,,,,,,,2025-02-07,1,,,,,ジュンノウ,0
152,1120001272699,新規,0,2025-02-07,2025-02-07,金龍不動産株式会社,,株式会社,大阪府,大阪市中央区,谷町７丁目３－４新谷町第３ビル３階,,27,128,5420012,,,,,,,2025-02-07,1,,,,,キンリュウフドウサン,0
153,1120001272724,新規,0,2025-02-07,2025-02-07,博泰株式会社,,株式会社,大阪府,大阪市此花区,春日出中１丁目９番１３号３０３Ａ,,27,104,5540022,,,,,,,2025-02-07,1,,,,,ハクタイ,0
154,1120001272749,新規,0,2025-02-07,2025-02-07,株式会社あゆみ,,株式会社,大阪府,大阪市北区,中之島６丁目１番３８－６１９号,,27,127,5300005,,,,,,,2025-02-07,1,,,,,アユミ,0
161,1120003028562,新規,0,2025-02-07,2025-02-07,宇宙コドモ研究所合同会社,,合同会社,大阪府,大阪市淀川区,西中島２丁目７番１１号,,27,123,5320011,,,,,,,2025-02-07,1,,,,,ウチュウコドモケンキュウジョ,0
162,1120005024782,新規,0,2025-02-07,2025-02-07,一般財団法人たけでん奨学財団,,その他の設立登記法人,大阪府,大阪市旭区,今市１丁目１４番９号,,27,117,5350011,,,,,,,2025-02-07,1,,,,,タケデンショウガクザイダン,0
166,1120101071019,新規,0,2025-02-07,2025-02-07,Ｍ．Ｉ．Ｔ株式会社,,株式会社,大阪府,堺市堺区,香ヶ丘町２丁４番６号,,27,141,5900011,,,,,,,2025-02-07,1,,,,,エムアイティ,0
167,1120101071027,新規,0,2025-02-07,2025-02-07,株式会社一清建設,,株式会社,大阪府,岸和田市,畑町１丁目９番１５号,,27,202,5960831,,,,,,,2025-02-07,1,,,,,イッセイケンセツ,0
168,1120901050403,新規,0,2025-02-07,2025-02-07,株式会社ｎｅｖｅｒ,,株式会社,大阪府,吹田市,円山町１８番２０－２号,,27,205,5640061,,,,,,,2025-02-07,1,,,,,ネバー,0
176,1130003010197,新規,0,2025-02-07,2025-02-07,はるの合同会社,,合同会社,京都府,綴喜郡宇治田原町,大字贄田小字植山２０番地の３,,26,344,6100253,,,,,,,2025-02-07,1,,,,,ハルノ,0
192,1140001137306,新規,0,2025-02-07,2025-02-07,株式会社ＢＥＣＫ,,株式会社,兵庫県,神戸市中央区,中山手通４丁目１番１４号山の手シャルマンビル４階西号室,,28,110,6500004,,,,,,,2025-02-07,1,,,,,ベック,0
193,1140001137339,新規,0,2025-02-07,2025-02-07,株式会社Ｔｈｒｅｅ・Ｒ,,株式会社,兵庫県,養父市,八鹿町八鹿１０７番地５,,28,222,6670021,,,,,,,2025-02-07,1,,,,,スリーアール,0
210,1180001165352,新規,0,2025-02-07,2025-02-07,株式会社フォレスト,,株式会社,愛知県,名古屋市東区,白壁５丁目３４番地の１,,23,102,4610011,,,,,,,2025-02-07,1,,,,,フォレスト,0
211,1180001165369,新規,0,2025-02-07,2025-02-07,株式会社ＦＡＶＯＲＩＣＨ,,株式会社,愛知県,知多郡美浜町,大字野間字中町６６番地１,,23,446,4703235,,,,,,,2025-02-07,1,,,,,ファボリッチ,0
212,1180003027971,新規,0,2025-02-07,2025-02-07,ＣＯＳＭＯ　ＷＩＺ合同会社,,合同会社,愛知県,名古屋市中区,栄３丁目９番１２号,,23,106,4600008,,,,,,,2025-02-07,1,,,,,コスモウィズ,0
213,1180301039504,新規,0,2025-02-07,2025-02-07,株式会社Ｎ　ＴＥＣＨ,,株式会社,愛知県,高浜市,春日町５丁目７番地６１,,23,227,4441334,,,,,,,2025-02-07,1,,,,,エヌテック,0
214,1180301039512,新規,0,2025-02-07,2025-02-07,株式会社カモテク,,株式会社,愛知県,豊橋市,前芝町字堤下２７番地５,,23,201,4410152,,,,,,,2025-02-07,1,,,,,カモテク,0
215,1190001031974,新規,0,2025-02-07,2025-02-07,株式会社ＰＡＴＨＳＥＥＤ,,株式会社,三重県,津市,柳山津興３３４番地１６,,24,201,5140803,,,,,,,2025-02-07,1,,,,,パスシード,0
216,1190001031982,新規,0,2025-02-07,2025-02-07,株式会社ＳＵＮＲＩＳＥ　ＴＲＡＤＩＮＧ,,株式会社,三重県,伊賀市,白樫４９２９番地の２,,24,216,5181151,,,,,,,2025-02-07,1,,,,,サンライズトレーデイング,0
218,1190003004929,新規,0,2025-02-07,2025-02-07,合同会社マルチョウ産業,,合同会社,三重県,南牟婁郡御浜町,大字阿田和３４０７番地４０,,24,561,5195204,,,,,,,2025-02-07,1,,,,,マルチョウサンギョウ,0
224,1220001026483,新規,0,2025-02-07,2025-02-07,株式会社ＯＳＴ,,株式会社,石川県,鳳珠郡能登町,字柳田仁部７２番２地,,17,463,9280331,,,,,,,2025-02-07,1,,,,,オーエスティ,0
229,1240001064507,新規,0,2025-02-07,2025-02-07,株式会社ＭＧ,,株式会社,広島県,広島市西区,三篠町２丁目８番１２号,,34,104,7330003,,,,,,,2025-02-07,1,,,,,エムジー,0
232,1240003007059,新規,0,2025-02-07,2025-02-07,合同会社ＴＲＩＬＯＧＩＸ,,合同会社,広島県,広島市南区,段原南２丁目４番２１号,,34,103,7320814,,,,,,,2025-02-07,1,,,,,トリロジックス,0
235,1260001039894,新規,0,2025-02-07,2025-02-07,株式会社日本耐震断熱診断機構,,株式会社,岡山県,岡山市北区,東古松４丁目４番１号１Ｆ,,33,101,7000921,,,,,,,2025-02-07,1,,,,,ニホンタイシンダンネツシンダンキコウ,0
238,1290001108837,新規,0,2025-02-07,2025-02-07,白浜不動産株式会社,,株式会社,福岡県,福岡市城南区,別府３丁目２番５号三角ビル２階,,40,136,8140104,,,,,,,2025-02-07,1,,,,,シラハマフドウサン,0
239,1290001108853,新規,0,2025-02-07,2025-02-07,株式会社ＣＬＳ,,株式会社,福岡県,福岡市中央区,舞鶴１丁目４番２９－５０５号,,40,133,8100073,,,,,,,2025-02-07,1,,,,,シーエルエス,0
240,1290001108886,新規,0,2025-02-07,2025-02-07,株式会社ＨＹＯＧＯ,,株式会社,福岡県,福岡市早良区,重留７丁目２番１４号,,40,137,8111101,,,,,,,2025-02-07,1,,,,,ヒョーゴ,0
244,1310003004940,新規,0,2025-02-07,2025-02-07,合同会社ウェルビー,,合同会社,長崎県,西海市,西海町横瀬郷２７６２番地２,,42,212,8513509,,,,,,,2025-02-07,1,,,,,ウェルビー,0
245,1320001020930,新規,0,2025-02-07,2025-02-07,株式会社ユニコネ,,株式会社,大分県,大分市,末広町２丁目３番１５号３０５,,44,201,8700027,,,,,,,2025-02-07,1,,,,,ユニコネ,0
253,1350001019391,新規,0,2025-02-07,2025-02-07,株式会社アグリ１,,株式会社,宮崎県,日向市,亀崎１丁目９８番地１,,45,206,8830066,,,,,,,2025-02-07,1,,,,,アグリワン,0
254,1360003014670,新規,0,2025-02-07,2025-02-07,合同会社ｍｅｉｍｏ,,合同会社,沖縄県,宜野湾市,大謝名５丁目１４番２３号,,47,205,9012225,,,,,,,2025-02-07,1,,,,,メイモ,0
258,1370001052201,新規,0,2025-02-07,2025-02-07,ＧＳ　Ｔｅｃｈ株式会社,,株式会社,宮城県,仙台市泉区,南光台４丁目７番２２５,,04,105,9818003,,,,,,,2025-02-07,1,,,,,ジーエステック,0
273,1430003017253,新規,0,2025-02-07,2025-02-07,合同会社いとう住設,,合同会社,北海道,苫小牧市,見山町３丁目６番１５号,,01,213,0530855,,,,,,,2025-02-07,1,,,,,イトウジュウセツ,0
274,1430003017261,新規,0,2025-02-07,2025-02-07,札幌東警備合同会社,,合同会社,北海道,札幌市東区,北十五条東７丁目１番２０号ＫＡＮＴＩＮＥ　Ｎ１５　Ｘ室,,01,103,0650015,,,,,,,2025-02-07,1,,,,,サッポロヒガシケイビ,0
276,1460103001682,新規,0,2025-02-07,2025-02-07,合同会社Ｓ・Ｔ,,合同会社,北海道,河西郡芽室町,西八条７丁目２番地１,,01,637,0820038,,,,,,,2025-02-07,1,,,,,エスティー,0
280,1490003001978,新規,0,2025-02-07,2025-02-07,合同会社イレブン,,合同会社,高知県,高知市,高須新町３丁目４番１号,,39,201,7818122,,,,,,,2025-02-07,1,,,,,イレブン,0
281,1500003003436,新規,0,2025-02-07,2025-02-07,ＷｅＣｌｏｕｄ　Ｐａｒｔｎｅｒｓ合同会社,,合同会社,愛媛県,松山市,湊町４丁目５－６,,38,201,7900012,,,,,,,2025-02-07,1,,,,,ウィークラウドパートナーズ,0
283,1700150129146,新規,0,2025-02-07,2025-02-07,ｗｕｘｉｗａｎｓｉｊｉａｊｕｋｅｊｉｇｕｆｅｎｙｏｕｘｉａｎｇｏｎｇｓｉ,,外国会社等,,,,,,,,ＮＯ　６６．ＨＵＩＣＨＡＮＧ　ＲＯＡＤ　Ｈｕｉ　Ｓｈａｎ　Ｉｎｄｕｓｔｒｙ　Ｐａｒｋ　ＷＵＸＩ　ＪＩＡＮＧＳＵ　２１４０００　ＣＮ,,,,,,2025-02-07,1,,,,,ウーシーワンスージャアジュイカージグゥフェンヨウシェンゴンスー,0
295,2010003046343,新規,0,2025-02-07,2025-02-07,合同会社永楽町,,合同会社,東京都,千代田区,丸の内１丁目４番１号東京共同会計事務所内,,13,101,1000005,,,,,,,2025-02-07,1,,,,,エイラクチョウ,0
304,2010401188027,新規,0,2025-02-07,2025-02-07,株式会社Ｔａｓｕ,,株式会社,東京都,港区,港南４丁目７番５５－１００９号,,13,103,1080075,,,,,,,2025-02-07,1,,,,,タス,0
313,2010601066742,新規,0,2025-02-07,2025-02-07,青山株式会社,,株式会社,東京都,江東区,亀戸３丁目６２番１０号ＳＡＮビル４０２号室,,13,108,1360071,,,,,,,2025-02-07,1,,,,,アオヤマ,0
325,2010903009696,新規,0,2025-02-07,2025-02-07,合同会社栗原,,合同会社,東京都,世田谷区,下馬６丁目３０番１５－１１４号,,13,112,1540002,,,,,,,2025-02-07,1,,,,,クリハラ,0
329,2011001167271,新規,0,2025-02-07,2025-02-07,日本ＫＳＷＴエネルギー株式会社,,株式会社,東京都,渋谷区,恵比寿４丁目２２番８－６０１号,,13,113,1500013,,,,,,,2025-02-07,1,,,,,ニホンケイエスダブルティエネルギー,0
330,2011001167569,新規,0,2025-02-07,2025-02-07,株式会社Ｓｅｎｓｅ　ｏｆ　Ｗｏｎｄｅｒ,,株式会社,東京都,渋谷区,恵比寿西２丁目８－４ＥＸ恵比寿西ビル５階,,13,113,1500021,,,,,,,2025-02-07,1,,,,,センスオブワンダー,0
332,2011101110536,新規,0,2025-02-07,2025-02-07,株式会社東雲,,株式会社,東京都,新宿区,大久保２丁目１０－１１,,13,104,1690072,,,,,,,2025-02-07,1,,,,,シノノメ,0
333,2011101110569,新規,0,2025-02-07,2025-02-07,世界光株式会社,,株式会社,東京都,新宿区,百人町１丁目１９番１３号浅川ビル５Ｂ,,13,104,1690073,,,,,,,2025-02-07,1,,,,,セカイヒカリ,0
341,2011501031687,新規,0,2025-02-07,2025-02-07,宇安株式会社,,株式会社,東京都,北区,西ケ原３丁目５２番１２号３階００５,,13,117,1140024,,,,,,,2025-02-07,1,,,,,ウアン,0
347,2011801045560,新規,0,2025-02-07,2025-02-07,株式会社みらい堂,,株式会社,東京都,葛飾区,青戸２丁目６－１７－１０１,,13,122,1250062,,,,,,,2025-02-07,1,,,,,ミライドウ,0
348,2012301014254,新規,0,2025-02-07,2025-02-07,株式会社ｐｏｓｉｔｉｖｅ,,株式会社,東京都,町田市,原町田６丁目８番地１号町田センタービル３階,,13,209,1940013,,,,,,,2025-02-07,1,,,,,ポジティブ,0
353,2012803003622,新規,0,2025-02-07,2025-02-07,合同会社令ｗｏｒｋｓ,,合同会社,東京都,立川市,錦町１丁目５番３４号ゆうゆう館５階,,13,202,1900022,,,,,,,2025-02-07,1,,,,,レイワークス,0
363,2013301053770,新規,0,2025-02-07,2025-02-07,株式会社ＨＰＮ,,株式会社,東京都,豊島区,東池袋１丁目１３番６号ロクマルゲート池袋４Ｆ,,13,116,1700013,,,,,,,2025-02-07,1,,,,,エイチピーエヌ,0
367,2020001161168,新規,0,2025-02-07,2025-02-07,株式会社アルテマウェポン,,株式会社,神奈川県,横浜市中区,伊勢佐木町２丁目８－１地下１階,,14,104,2310045,,,,,,,2025-02-07,1,,,,,アルテマウェポン,0
368,2020001161192,新規,0,2025-02-07,2025-02-07,まなとホールディングス株式会社,,株式会社,神奈川県,横浜市都筑区,佐江戸町２３８番地３－１０２,,14,118,2240054,,,,,,,2025-02-07,1,,,,,マナトホールディングス,0
369,2020001161201,新規,0,2025-02-07,2025-02-07,株式会社ＴＡＳＯ,,株式会社,神奈川県,横浜市港北区,新吉田東２丁目９－２５－４０１,,14,109,2230058,,,,,,,2025-02-07,1,,,,,タソ,0
370,2020001161226,新規,0,2025-02-07,2025-02-07,株式会社Ｒｅｌｉａｎｃｅ,,株式会社,神奈川県,横浜市保土ケ谷区,星川１丁目２１番１２－２０３号,,14,106,2400006,,,,,,,2025-02-07,1,,,,,リライアンス,0
371,2020001161250,新規,0,2025-02-07,2025-02-07,シュウカツ株式会社,,株式会社,神奈川県,横浜市神奈川区,西大口５６番地４８,,14,102,2210004,,,,,,,2025-02-07,1,,,,,シュウカツ,0
373,2020003027747,新規,0,2025-02-07,2025-02-07,あいりす合同会社,,合同会社,神奈川県,川崎市高津区,北見方１丁目１０番２６号,,14,134,2130005,,,,,,,2025-02-07,1,,,,,アイリス,0
374,2020003027813,新規,0,2025-02-07,2025-02-07,ＫＫ合同会社,,合同会社,神奈川県,川崎市高津区,蟹ケ谷８８番地３３,,14,134,2130025,,,,,,,2025-02-07,1,,,,,ケーケー,0
375,2020005016681,新規,0,2025-02-07,2025-02-07,特定非営利活動法人リスペクト,,その他の設立登記法人,神奈川県,横浜市泉区,和泉町６２１２番地３グリーンハイムいずみ野４棟５０３号,,14,116,2450016,,,,,,,2025-02-07,1,,,,,リスペクト,0
379,2021001084425,新規,0,2025-02-07,2025-02-07,株式会社トーテム,,株式会社,神奈川県,厚木市,戸室２丁目２１番７－６０７号,,14,212,2430031,,,,,,,2025-02-07,1,,,,,トーテム,0
386,2030001164632,新規,0,2025-02-07,2025-02-07,株式会社京商,,株式会社,埼玉県,さいたま市南区,鹿手袋２丁目９ー１１ー２０３号室,,11,108,3360031,,,,,,,2025-02-07,1,,,,,キョウショウ,0
387,2030001164748,新規,0,2025-02-07,2025-02-07,ＤＰＧホールディングス株式会社,,株式会社,埼玉県,越谷市,大字平方１００４番１１,,11,222,3430002,,,,,,,2025-02-07,1,,,,,ディーピージーホールディングス,0
388,2030001164756,新規,0,2025-02-07,2025-02-07,紫光電工株式会社,,株式会社,埼玉県,川口市,並木２丁目３２番６号並木稲垣ハイツ２０２号,,11,203,3320034,,,,,,,2025-02-07,1,,,,,シコウデンコウ,0
389,2030001164780,新規,0,2025-02-07,2025-02-07,株式会社ソシオエンタープライズ,,株式会社,埼玉県,所沢市,御幸町１６番５号,,11,208,3591115,,,,,,,2025-02-07,1,,,,,ソシオエンタープライズ,0
390,2030001164806,新規,0,2025-02-07,2025-02-07,株式会社うきうき美装,,株式会社,埼玉県,上尾市,大字領家１１５番地２０,,11,219,3620066,,,,,,,2025-02-07,1,,,,,ウキウキビソウ,0
396,2030003026038,新規,0,2025-02-07,2025-02-07,合同会社がく,,合同会社,埼玉県,児玉郡上里町,大字七本木５５３９番地Ｑｕａｔｔｒｏ１０１号,,11,385,3690306,,,,,,,2025-02-07,1,,,,,ガク,0
397,2030003026054,新規,0,2025-02-07,2025-02-07,Ａｄｏｒａｂｌｅ合同会社,,合同会社,埼玉県,白岡市,千駄野７４３－１－３０４,,11,246,3490215,,,,,,,2025-02-07,1,,,,,アドーラブル,0
398,2030003026079,新規,0,2025-02-07,2025-02-07,なごみ紙業合同会社,,合同会社,埼玉県,比企郡小川町,大字腰越１４４４番地,,11,343,3550327,,,,,,,2025-02-07,1,,,,,ナゴミシギョウ,0
413,2040001137315,新規,0,2025-02-07,2025-02-07,株式会社清水文徳,,株式会社,千葉県,柏市,南増尾２丁目７番２８号,,12,217,2770054,,,,,,,2025-02-07,1,,,,,シミズヒサノリ,0
416,2040003026771,新規,0,2025-02-07,2025-02-07,合同会社ｌｕｘ,,合同会社,千葉県,鎌ケ谷市,中央１丁目１－３２,,12,224,2730124,,,,,,,2025-02-07,1,,,,,ルクス,0
418,2050001056159,新規,0,2025-02-07,2025-02-07,株式会社いやさか,,株式会社,茨城県,水戸市,城東１丁目１５番６３号,,08,201,3100012,,,,,,,2025-02-07,1,,,,,イヤサカ,0
424,2060003005410,新規,0,2025-02-07,2025-02-07,合同会社ＡＳＨ　ＧＬＯＢＡＬ　ＣＯＭＰＡＮＹ,,合同会社,栃木県,那須塩原市,太夫塚３丁目２０５－５０,,09,213,3292735,,,,,,,2025-02-07,1,,,,,アッシュグローバルカンパニー,0
435,2100001038275,新規,0,2025-02-07,2025-02-07,株式会社ＳＲ,,株式会社,長野県,松本市,笹部４丁目４番２７－９号ヴィラピーノ笹部Ｂ,,20,202,3900847,,,,,,,2025-02-07,1,,,,,エスアール,0
445,2120001272558,新規,0,2025-02-07,2025-02-07,株式会社ＲＥＢＥＮ,,株式会社,大阪府,大阪市大正区,三軒家西２丁目１２番１２号,,27,108,5510001,,,,,,,2025-02-07,1,,,,,レーベン,0
446,2120001272608,新規,0,2025-02-07,2025-02-07,株式会社ＭＯＣ,,株式会社,大阪府,大阪市東成区,大今里西１丁目２９番１４号富士火災今里ビル６階,,27,115,5370014,,,,,,,2025-02-07,1,,,,,エムオーシー,0
447,2120001272632,新規,0,2025-02-07,2025-02-07,Ｚ‐ｃｌａｓｓ株式会社,,株式会社,大阪府,大阪市淀川区,西中島６丁目２番３号,,27,123,5320011,,,,,,,2025-02-07,1,,,,,ズィークラス,0
448,2120001272649,新規,0,2025-02-07,2025-02-07,寧元企画株式会社,,株式会社,大阪府,大阪市中央区,高津２丁目１番１号３０１室,,27,128,5420072,,,,,,,2025-02-07,1,,,,,ネイゲンキカク,0
449,2120001272665,新規,0,2025-02-07,2025-02-07,株式会社ＹＳホールディングス,,株式会社,大阪府,大阪市中央区,瓦町３丁目５番７号ＮＲＥＧ御堂筋ビル,,27,128,5410048,,,,,,,2025-02-07,1,,,,,ワイエスホールディングス,0
450,2120003028561,新規,0,2025-02-07,2025-02-07,合同会社関西オートパーツ製作所,,合同会社,大阪府,大阪市中央区,南船場３丁目２番２２号,,27,128,5420081,,,,,,,2025-02-07,1,,,,,,0
451,2120003028578,新規,0,2025-02-07,2025-02-07,峯野医学研究所合同会社,,合同会社,大阪府,大阪市東淀川区,豊里４丁目１３番２号,,27,114,5330013,,,,,,,2025-02-07,1,,,,,ミネノイガクケンキュウジョ,0
459,2120103006269,新規,0,2025-02-07,2025-02-07,プロマーレ合同会社,,合同会社,大阪府,堺市北区,長曽根町３０５５番地１０メゾン長曽根Ａ棟１０２号,,27,146,5918025,,,,,,,2025-02-07,1,,,,,プロマーレ,0
463,2122001038856,新規,0,2025-02-07,2025-02-07,株式会社中島工務店,,株式会社,大阪府,八尾市,末広町４丁目１番３２号ルミエール久宝寺１０１号室,,27,212,5810001,,,,,,,2025-02-07,1,,,,,ナカジマコウムテン,0
464,2122001038872,新規,0,2025-02-07,2025-02-07,株式会社ＪＯＫＯ,,株式会社,大阪府,東大阪市,菱屋東２丁目１３番１１号,,27,227,5780948,,,,,,,2025-02-07,1,,,,,ジョーコー,0
468,2130003010196,新規,0,2025-02-07,2025-02-07,Ｌｉｇｈｔｉｎｇ．ｂｅｌｌ合同会社,,合同会社,京都府,宇治市,大久保町上ノ山５５番地の６サーパスシティ大久保駅前６１５号,,26,204,6110033,,,,,,,2025-02-07,1,,,,,ライティングベル,0
472,2150001027868,新規,0,2025-02-07,2025-02-07,ａｌｌ　ｔｈｉｎｋ株式会社,,株式会社,奈良県,大和高田市,春日町２丁目１番８号,,29,202,6350067,,,,,,,2025-02-07,1,,,,,オールシンク,0
473,2150003003479,新規,0,2025-02-07,2025-02-07,合同会社ＳＨＩＣＨＩＳＥＩ,,合同会社,奈良県,北葛城郡王寺町,久度５丁目１番１７号,,29,425,6360003,,,,,,,2025-02-07,1,,,,,シチセイ,0
474,2150003003487,新規,0,2025-02-07,2025-02-07,Ｋ＆Ｎ　ＩＮＴＥＲＮＡＴＩＯＮＡＬ合同会社,,合同会社,奈良県,奈良市,登美ヶ丘３丁目９番２号,,29,201,6310004,,,,,,,2025-02-07,1,,,,,ケイアンドエヌインターナショナル,0
475,2150005009664,新規,0,2025-02-07,2025-02-07,一般社団法人関西広域家庭系廃棄物委託構築協会,,その他の設立登記法人,奈良県,橿原市,上品寺町３４６番地の６,,29,205,6340803,,,,,,,2025-02-07,1,,,,,カンサイコウイキカテイケイハイキブツイタクコウチクキョウカイ,0
478,2160001026539,新規,0,2025-02-07,2025-02-07,株式会社滋賀ファクトリー,,株式会社,滋賀県,守山市,金森町８６９番地２ＲＯＯＴコワーキングスペース内,,25,207,5240045,,,,,,,2025-02-07,1,,,,,シガファクトリー,0
486,2180001165277,新規,0,2025-02-07,2025-02-07,株式会社ロジカ,,株式会社,愛知県,名古屋市西区,名駅２丁目１番１８号スエヒロビル３Ｆ,,23,104,4510045,,,,,,,2025-02-07,1,,,,,ロジカ,0
487,2180001165351,新規,0,2025-02-07,2025-02-07,スペース企画株式会社,,株式会社,愛知県,名古屋市守山区,苗代１丁目１２番２２号（アメニティ小幡南４０３号）,,23,113,4630046,,,,,,,2025-02-07,1,,,,,スペースキカク,0
493,2190003004936,新規,0,2025-02-07,2025-02-07,合同会社ＡＢＤＵＬＬＡＨ　ＡＵＴＯ,,合同会社,三重県,桑名市,大字蛎塚新田８０１番地,,24,205,5110861,,,,,,,2025-02-07,1,,,,,アブドゥラーオート,0
495,2200003006690,新規,0,2025-02-07,2025-02-07,合同会社ｍｅｉｓｅｎ,,合同会社,岐阜県,可児市,広見６丁目４０番地３０２,,21,214,5090214,,,,,,,2025-02-07,1,,,,,メイセン,0
498,2220001026482,新規,0,2025-02-07,2025-02-07,株式会社Ｖｉｓｉｔ　Ｌｉｎｋ,,株式会社,石川県,金沢市,大野町１丁目４７番地,,17,201,9200331,,,,,,,2025-02-07,1,,,,,ヴィジットリンク,0
499,2220003003950,新規,0,2025-02-07,2025-02-07,合同会社ＦＲＯＮＴ,,合同会社,石川県,加賀市,保賀町１１６番地１３,,17,206,9220015,,,,,,,2025-02-07,1,,,,,フロント,0
505,2260001039893,新規,0,2025-02-07,2025-02-07,アサヒ建設株式会社,,株式会社,岡山県,倉敷市,笹沖１２２６番地６第３十合ビル２０１号室,,33,202,7100834,,,,,,,2025-02-07,1,,,,,アサヒケンセツ,0
511,2290001108869,新規,0,2025-02-07,2025-02-07,株式会社バリバリ,,株式会社,福岡県,福岡市早良区,飯倉７丁目２１番１号,,40,137,8140161,,,,,,,2025-02-07,1,,,,,バリバリ,0
512,2290001108885,新規,0,2025-02-07,2025-02-07,チアフルワークス株式会社,,株式会社,福岡県,飯塚市,相田１１５３番地１,,40,205,8200052,,,,,,,2025-02-07,1,,,,,チアフルワークス,0
515,2290801031262,新規,0,2025-02-07,2025-02-07,株式会社白川工業,,株式会社,福岡県,北九州市戸畑区,初音町２番１５－１０５号,,40,105,8040066,,,,,,,2025-02-07,1,,,,,シラカワコウギョウ,0
530,2350005006286,新規,0,2025-02-07,2025-02-07,一般社団法人うらしろスマイルプロジェクト,,その他の設立登記法人,宮崎県,延岡市,富美山町８３番地１４５,,45,203,8820051,,,,,,,2025-02-07,1,,,,,ウラシロスマイルプロジェクト,0
531,2360001034752,新規,0,2025-02-07,2025-02-07,ｖｉｎｇｔ　ｑｕａｔｒｅ株式会社,,株式会社,沖縄県,宮古島市,平良字久貝８２１番地９アッサンブレ２－２－Ｃ,,47,214,9060015,,,,,,,2025-02-07,1,,,,,ヴァンカトル,0
532,2360001034760,新規,0,2025-02-07,2025-02-07,株式会社ＬＧ沖縄,,株式会社,沖縄県,那覇市,古波蔵３丁目１７番４号栄アパート３０３号,,47,201,9000024,,,,,,,2025-02-07,1,,,,,エルジィオキナワ,0
533,2360003014678,新規,0,2025-02-07,2025-02-07,合同会社一撃,,合同会社,沖縄県,那覇市,楚辺１丁目１０－３９美田ハイツ４０Ｂ,,47,201,9000023,,,,,,,2025-02-07,1,,,,,イチゲキ,0
534,2360005007168,新規,0,2025-02-07,2025-02-07,一般財団法人慶佐次財産保全会,,その他の設立登記法人,沖縄県,国頭郡東村,字慶佐次１９番地,,47,303,9051205,,,,,,,2025-02-07,1,,,,,ゲサシザイサンホゼンカイ,0
548,2400001016936,新規,0,2025-02-07,2025-02-07,株式会社Ｌｏｃａｌ　Ｆｌａｖｏｒ,,株式会社,岩手県,一関市,花泉町涌津字亥年前１６,,03,209,0293205,,,,,,,2025-02-07,1,,,,,ローカルフレーバー,0
554,2430001093650,新規,0,2025-02-07,2025-02-07,株式会社Ｂ．ＤＲＥＡＭ,,株式会社,北海道,札幌市西区,八軒四条西４丁目２番１３号,,01,107,0630844,,,,,,,2025-02-07,1,,,,,ビードリーム,0
558,2430003017260,新規,0,2025-02-07,2025-02-07,江別岩見沢警備合同会社,,合同会社,北海道,江別市,野幌町７６番地４ホクヨービル２階,,01,217,0690813,,,,,,,2025-02-07,1,,,,,エベツイワミザワケイビ,0
561,2450001014530,新規,0,2025-02-07,2025-02-07,株式会社ＩＲＯＭＯＮＯ,,株式会社,北海道,旭川市,豊岡十一条６丁目３番２号,,01,204,0788241,,,,,,,2025-02-07,1,,,,,イロモノ,0
562,2450003002599,新規,0,2025-02-07,2025-02-07,合同会社カーライフサービス,,合同会社,北海道,上川郡東神楽町,字東神楽６７１番地６,,01,453,0711500,,,,,,,2025-02-07,1,,,,,カーライフサービス,0
563,2460103001681,新規,0,2025-02-07,2025-02-07,合同会社つばさ,,合同会社,北海道,帯広市,東六条南１９丁目３番地２６,,01,207,0800806,,,,,,,2025-02-07,1,,,,,ツバサ,0
564,2470001020576,新規,0,2025-02-07,2025-02-07,Ａトレード株式会社,,株式会社,香川県,丸亀市,昭和町１１番地１,,37,202,7630061,,,,,,,2025-02-07,1,,,,,エートレード,0
567,2490003001977,新規,0,2025-02-07,2025-02-07,合同会社テク農,,合同会社,高知県,幡多郡黒潮町,御坊畑８００,,39,428,7891936,,,,,,,2025-02-07,1,,,,,テクノウ,0
568,2500001026132,新規,0,2025-02-07,2025-02-07,侑栄工業株式会社,,株式会社,愛媛県,今治市,小泉２丁目８番１８号ポルト・クレアＩ２０５,00137944,38,202,7940064,,,,,,,2025-02-07,1,,,,,ユウエイコウギョウ,0
574,3010001252058,新規,0,2025-02-07,2025-02-07,株式会社六勝,,株式会社,東京都,中央区,銀座１丁目１２－４Ｎ＆ＥＢＬＤ．７階,,13,102,1040061,,,,,,,2025-02-07,1,,,,,ロクショウ,0
575,3010001252090,新規,0,2025-02-07,2025-02-07,株式会社モーモ,,株式会社,東京都,中央区,銀座１丁目１２番４号Ｎ＆ＥＢＬＤ．６Ｆ,,13,102,1040061,,,,,,,2025-02-07,1,,,,,モーモ,0
576,3010001252132,新規,0,2025-02-07,2025-02-07,ダイヤシェケル株式会社,,株式会社,東京都,千代田区,丸の内１丁目５番１号,,13,101,1000005,,,,,,,2025-02-07,1,,,,,ダイヤシェケル,0
579,3010003046350,新規,0,2025-02-07,2025-02-07,合同会社ＬＩＡＭ,,合同会社,東京都,中央区,新川１丁目１７番１８号,,13,102,1040033,,,,,,,2025-02-07,1,,,,,リアム,0
585,3010401187993,新規,0,2025-02-07,2025-02-07,株式会社雷宇星音,,株式会社,東京都,港区,浜松町２丁目３番８号,,13,103,1050013,,,,,,,2025-02-07,1,,,,,ライウセイオン,0
586,3010401188067,新規,0,2025-02-07,2025-02-07,株式会社Ｄｒａｇｏｎｅ　Ｊａｐａｎ,,株式会社,東京都,港区,西新橋１丁目２番９号日比谷セントラルビル１４階,,13,103,1050003,,,,,,,2025-02-07,1,,,,,ドラゴンジャパン,0
587,3010401188075,新規,0,2025-02-07,2025-02-07,株式会社ＬａｃＫＴ,,株式会社,東京都,港区,赤坂６丁目１５番１４号東京都管工事会館１階,,13,103,1070052,,,,,,,2025-02-07,1,,,,,ラック,0
590,3010403034310,新規,0,2025-02-07,2025-02-07,合同会社プライム３１号,,合同会社,東京都,港区,元麻布３丁目１－３４,,13,103,1060046,,,,,,,2025-02-07,1,,,,,プライムサンジュウイチゴウ,0
591,3010403034368,新規,0,2025-02-07,2025-02-07,合同会社Ｙ’ｓ　Ｔｒａｎｓ　Ｌｉｎｋ,,合同会社,東京都,港区,南青山２丁目２－１５,,13,103,1070062,,,,,,,2025-02-07,1,,,,,ワイズトランスリンク,0
594,3010601066725,新規,0,2025-02-07,2025-02-07,株式会社キンモクセイ,,株式会社,東京都,墨田区,立花４丁目３７番１８号１０１,,13,107,1310043,,,,,,,2025-02-07,1,,,,,キンモクセイ,0
595,3010601066758,新規,0,2025-02-07,2025-02-07,吉田家の旅株式会社,,株式会社,東京都,江東区,豊洲６丁目２番３１,,13,108,1350061,,,,,,,2025-02-07,1,,,,,ヨシダヤノタビ,0
596,3010605004409,新規,0,2025-02-07,2025-02-07,一般社団法人起業家アート協会,,その他の設立登記法人,東京都,江東区,平野３丁目２番１２－１００６号,,13,108,1350023,,,,,,,2025-02-07,1,,,,,キギョウカアートキョウカイ,0
604,3010801035819,新規,0,2025-02-07,2025-02-07,ＯＳ１株式会社,,株式会社,東京都,大田区,大森北４丁目１７番１３－２０１号,,13,111,1430016,,,,,,,2025-02-07,1,,,,,オーエスワン,0
613,3010901056789,新規,0,2025-02-07,2025-02-07,株式会社アステリオストラテジーパートナーズ,,株式会社,東京都,世田谷区,玉川台２丁目３２－１－１４０２,,13,112,1580096,,,,,,,2025-02-07,1,,,,,アステリオストラテジーパートナーズ,0
623,3011001167469,新規,0,2025-02-07,2025-02-07,Ｆｏｕｎｄｅｒ＆Ｐａｒｔｎｅｒｓ株式会社,,株式会社,東京都,目黒区,上目黒１丁目１４－６メゾンベルウッド１階店舗区画,,13,110,1530051,,,,,,,2025-02-07,1,,,,,ファウンダーアンドパートナーズ,0
624,3011001167485,新規,0,2025-02-07,2025-02-07,株式会社Ｊｏｈｎ,,株式会社,東京都,渋谷区,渋谷３丁目１３番５号－１２０８号ＢＰＲレジデンス渋谷,,13,113,1500002,,,,,,,2025-02-07,1,,,,,ジョン,0
625,3011001167493,新規,0,2025-02-07,2025-02-07,Ｓｔａｒ　Ｔｅｃｈｎｏｌｏｇｉｅｓ株式会社,,株式会社,東京都,渋谷区,道玄坂１丁目１０番８号渋谷道玄坂東急ビル２Ｆ－Ｃ,,13,113,1500043,,,,,,,2025-02-07,1,,,,,スターテクノロジーズ,0
626,3011001167683,新規,0,2025-02-07,2025-02-07,株式会社Ｒｉｍｏｒ,,株式会社,東京都,渋谷区,広尾１丁目１１番２号ＢＬＯＣＫＳ恵比寿,,13,113,1500012,,,,,,,2025-02-07,1,,,,,リモル,0
630,3011003020873,新規,0,2025-02-07,2025-02-07,Ｈ＆Ｙ　ＣＭＣ合同会社,,合同会社,東京都,目黒区,洗足２丁目８－６－１１０,,13,110,1520012,,,,,,,2025-02-07,1,,,,,エイチアンドワイシーエムシー,0
634,3011101110535,新規,0,2025-02-07,2025-02-07,ＭＡＪＡＲＭ株式会社,,株式会社,東京都,新宿区,西早稲田３丁目１７番２３－６０２号,,13,104,1690051,,,,,,,2025-02-07,1,,,,,メジャーエム,0
635,3011101110543,新規,0,2025-02-07,2025-02-07,株式会社オーディットプラス,,株式会社,東京都,新宿区,西新宿３丁目３番１３号西新宿水間ビル２Ｆ,,13,104,1600023,,,,,,,2025-02-07,1,,,,,オーディットプラス,0
638,3011105011300,新規,0,2025-02-07,2025-02-07,一般社団法人日本医療政策学会,,その他の設立登記法人,東京都,新宿区,箪笥町４３新神楽坂ビル２階,,13,104,1620833,,,,,,,2025-02-07,1,,,,,ニホンイリョウセイサクガッカイ,0
639,3011201026103,新規,0,2025-02-07,2025-02-07,ＨＥＹ　ＤＯ　ＬＩＦＥ株式会社,,株式会社,東京都,中野区,鷺宮４丁目３４番１号ＰＡＬＡＣＥＣＯＯＬ１０２号室,,13,114,1650032,,,,,,,2025-02-07,1,,,,,ヘイドゥーライフ,0
642,3011401026803,新規,0,2025-02-07,2025-02-07,株式会社グローバルヘルス・パートナーズ,,株式会社,東京都,板橋区,南常盤台１丁目１１番地６号レフア南常盤台１０１号室,,13,119,1740072,,,,,,,2025-02-07,1,,,,,グローバルヘルスパートナーズ,0
644,3011501031678,新規,0,2025-02-07,2025-02-07,株式会社リュミスペリテ,,株式会社,東京都,北区,王子本町１丁目３番１号,,13,117,1140022,,,,,,,2025-02-07,1,,,,,リュミスペリテ,0
645,3011501031686,新規,0,2025-02-07,2025-02-07,吉鈞株式会社,,株式会社,東京都,北区,西ケ原３丁目５２番１２号３階００４,,13,117,1140024,,,,,,,2025-02-07,1,,,,,キクン,0
652,3012301014253,新規,0,2025-02-07,2025-02-07,株式会社シティコネクト,,株式会社,東京都,町田市,下小山田町３５４番地１,,13,209,1940202,,,,,,,2025-02-07,1,,,,,シティコネクト,0
653,3012303002108,新規,0,2025-02-07,2025-02-07,合同会社ビークン,,合同会社,東京都,町田市,鶴川５丁目８番地３,,13,209,1950061,,,,,,,2025-02-07,1,,,,,ビークン,0
667,3020001161183,新規,0,2025-02-07,2025-02-07,株式会社ＢＥｔ,,株式会社,神奈川県,川崎市中原区,上小田中６丁目３１番５－１号,,14,133,2110053,,,,,,,2025-02-07,1,,,,,ベット,0
668,3020001161274,新規,0,2025-02-07,2025-02-07,株式会社エクセレント,,株式会社,神奈川県,横浜市中区,松影町１丁目４番地５グランフォース横浜関内１００５,,14,104,2310025,,,,,,,2025-02-07,1,,,,,エクセレント,0
669,3020001161349,新規,0,2025-02-07,2025-02-07,株式会社ファン・クリエイション,,株式会社,神奈川県,横浜市南区,井土ケ谷中町１５７番地,,14,105,2320052,,,,,,,2025-02-07,1,,,,,ファンクリエイション,0
673,3020003027738,新規,0,2025-02-07,2025-02-07,合同会社ｓｃｅｎｅｓ,,合同会社,神奈川県,川崎市多摩区,長尾７丁目２１－１リリファ川崎久地スカイヒル４３０５号,,14,135,2140023,,,,,,,2025-02-07,1,,,,,シーンズ,0
675,3021001084390,新規,0,2025-02-07,2025-02-07,イーストエナジー株式会社,,株式会社,神奈川県,相模原市南区,旭町１４番１４号,,14,153,2520304,,,,,,,2025-02-07,1,,,,,イーストエナジー,0
676,3021001084424,新規,0,2025-02-07,2025-02-07,株式会社ＴＡＲ　Ａｓｓｅｔ　Ｍａｎａｇｅｍｅｎｔ,,株式会社,神奈川県,横須賀市,久比里２丁目１９番２号,,14,201,2390828,,,,,,,2025-02-07,1,,,,,ティーエイアールアセットマネジメント,0
677,3021001084440,新規,0,2025-02-07,2025-02-07,株式会社ＨＩＤＡＩ　ＥＳＴＡＴＥ,,株式会社,神奈川県,海老名市,中野１丁目７番４１号ジーメゾン海老名マーレ２０１,,14,215,2430425,,,,,,,2025-02-07,1,,,,,ヒダイエステート,0
682,3030001164788,新規,0,2025-02-07,2025-02-07,株式会社マイクロテックジャパン,,株式会社,埼玉県,坂戸市,薬師町１７番地１６,,11,239,3500229,,,,,,,2025-02-07,1,,,,,マイクロテックジャパン,0
683,3030001164813,新規,0,2025-02-07,2025-02-07,株式会社ＷＹ,,株式会社,埼玉県,蕨市,中央１丁目１７番３０号ルネ蕨２号館１００６号,,11,223,3350004,,,,,,,2025-02-07,1,,,,,ダブリュワイ,0
687,3030003025996,新規,0,2025-02-07,2025-02-07,合同会社Ｒｉｎｄ,,合同会社,埼玉県,さいたま市緑区,太田窪３丁目８番１１号,,11,109,3360936,,,,,,,2025-02-07,1,,,,,リンド,0
688,3030003026053,新規,0,2025-02-07,2025-02-07,エムケイ・サイエンティフィック合同会社,,合同会社,埼玉県,所沢市,こぶし町３１番２０号,,11,208,3590033,,,,,,,2025-02-07,1,,,,,エムケイサイエンティフィック,0
689,3030003026061,新規,0,2025-02-07,2025-02-07,合同会社クレスト,,合同会社,埼玉県,川越市,熊野町８番地４,,11,201,3501146,,,,,,,2025-02-07,1,,,,,クレスト,0
696,3040001137256,新規,0,2025-02-07,2025-02-07,株式会社青道,,株式会社,千葉県,長生郡一宮町,東浪見７５２８番地５３,,12,421,2994303,,,,,,,2025-02-07,1,,,,,セイドウ,0
701,3040003026779,新規,0,2025-02-07,2025-02-07,合同会社Ｈ．Ａ．Ｋ,,合同会社,千葉県,東金市,日吉台６丁目２２番地７,,12,213,2830803,,,,,,,2025-02-07,1,,,,,エイチエイケイ,0
707,3050003009007,新規,0,2025-02-07,2025-02-07,合同会社琉心工業,,合同会社,茨城県,日立市,日高町１丁目７番２－２０１号,,08,202,3191414,,,,,,,2025-02-07,1,,,,,リュウシンコウギョウ,0
715,3080101025299,新規,0,2025-02-07,2025-02-07,株式会社心優,,株式会社,静岡県,富士市,青島町２０１番地青島ビル１階,,22,210,4170047,,,,,,,2025-02-07,1,,,,,ココロ,0
728,3100003007987,新規,0,2025-02-07,2025-02-07,合同会社ｏｚａｔｏｌｉｎｋ,,合同会社,長野県,塩尻市,大字宗賀５５５番地６,,20,215,3996461,,,,,,,2025-02-07,1,,,,,オザートリンク,0
740,3120001272631,新規,0,2025-02-07,2025-02-07,株式会社Ｂｅａｕｓｏｌｅｉｌ,,株式会社,大阪府,大阪市旭区,赤川４丁目１７番２８号,,27,117,5350005,,,,,,,2025-02-07,1,,,,,ボーソレイユ,0
741,3120001272656,新規,0,2025-02-07,2025-02-07,株式会社永和光,,株式会社,大阪府,大阪市鶴見区,浜３丁目８番４３号３０６号室,,27,124,5380035,,,,,,,2025-02-07,1,,,,,エイワコウ,0
742,3120001272680,新規,0,2025-02-07,2025-02-07,株式会社ｔｅｒａｓｕ,,株式会社,大阪府,枚方市,招提南町２丁目３４番３号,,27,210,5731155,,,,,,,2025-02-07,1,,,,,テラス,0
743,3120001272689,新規,0,2025-02-07,2025-02-07,子邁株式会社,,株式会社,大阪府,大阪市西成区,北津守４丁目４番５１号,,27,122,5570061,,,,,,,2025-02-07,1,,,,,コマイ,0
744,3120001272739,新規,0,2025-02-07,2025-02-07,株式会社ＧＭ,,株式会社,大阪府,大阪市中央区,本町２丁目３番６号本町ビジネスビル９Ｆ,,27,128,5410053,,,,,,,2025-02-07,1,,,,,ジーエム,0
748,3120003028552,新規,0,2025-02-07,2025-02-07,合同会社大友産業医事務所,,合同会社,大阪府,大阪市北区,梅田１丁目２番２号大阪駅前第２ビル１２－１２,,27,127,5300001,,,,,,,2025-02-07,1,,,,,オオトモサンギョウイジムショ,0
749,3120003028569,新規,0,2025-02-07,2025-02-07,茂林合同会社,,合同会社,大阪府,大阪市西成区,玉出東１丁目７番２３号１０３号室,,27,122,5570043,,,,,,,2025-02-07,1,,,,,シゲリン,0
754,3120101071017,新規,0,2025-02-07,2025-02-07,株式会社エミネント,,株式会社,大阪府,岸和田市,土生町２丁目３０番２０号Ｈ・Ｄ第１ビル４０２号室,,27,202,5960825,,,,,,,2025-02-07,1,,,,,エミネント,0
755,3120101071033,新規,0,2025-02-07,2025-02-07,アカリペア株式会社,,株式会社,大阪府,泉佐野市,市場南１丁目７番３号,,27,213,5980004,,,,,,,2025-02-07,1,,,,,アカリペア,0
758,3120103006268,新規,0,2025-02-07,2025-02-07,ＡＫＳ合同会社,,合同会社,大阪府,堺市西区,草部１３１１番地１６,,27,144,5938312,,,,,,,2025-02-07,1,,,,,エーケーエス,0
765,3130001078978,新規,0,2025-02-07,2025-02-07,株式会社ＨａＳｈｉＲａ,,株式会社,京都府,京都市下京区,東洞院通四条下る元悪王子町５１番地,,26,106,6008091,,,,,,,2025-02-07,1,,,,,ハシラ,0
774,3140003021646,新規,0,2025-02-07,2025-02-07,合同会社ＭＵＳＵＢＩＹＡ,,合同会社,兵庫県,神崎郡福崎町,西田原１９７６番地１０,,28,443,6792204,,,,,,,2025-02-07,1,,,,,ムスビヤ,0
780,3150003003494,新規,0,2025-02-07,2025-02-07,みらい製作所合同会社,,合同会社,奈良県,生駒郡斑鳩町,龍田南５丁目７－３８,00137929,29,344,6360153,,,,,,,2025-02-07,1,,,,,ミライセイサクショ,0
788,3180001165326,新規,0,2025-02-07,2025-02-07,株式会社ＩＴＥカンパニー,,株式会社,愛知県,一宮市,三ツ井６丁目１２番２３号,,23,203,4910827,,,,,,,2025-02-07,1,,,,,アイティーイーカンパニー,0
789,3180001165367,新規,0,2025-02-07,2025-02-07,株式会社ＥｎＢ,,株式会社,愛知県,名古屋市中区,錦３丁目１３番３２号第四錦ビル,,23,106,4600003,,,,,,,2025-02-07,1,,,,,エンビー,0
798,3210001020056,新規,0,2025-02-07,2025-02-07,株式会社伊与衛門農園,,株式会社,福井県,あわら市,熊坂１２９－１０－１,,18,208,9190723,,,,,,,2025-02-07,1,,,,,イヨエモンノウエン,0
801,3220001026481,新規,0,2025-02-07,2025-02-07,株式会社ａｒｉｋａ,,株式会社,石川県,金沢市,東山２丁目９番１３号,,17,201,9200831,,,,,,,2025-02-07,1,,,,,アリカ,0
803,3230003002372,新規,0,2025-02-07,2025-02-07,イーコミューン合同会社,,合同会社,富山県,中新川郡立山町,五郎丸１５７番地１,,16,323,9300274,,,,,,,2025-02-07,1,,,,,イーコミューン,0
811,3270001009143,新規,0,2025-02-07,2025-02-07,株式会社リオール,,株式会社,鳥取県,米子市,西福原９丁目８番２０号,,31,202,6830805,,,,,,,2025-02-07,1,,,,,リオール,0
812,3280001009349,新規,0,2025-02-07,2025-02-07,株式会社穏健会,,株式会社,島根県,松江市,古志原５丁目１２‐２４,,32,201,6900012,,,,,,,2025-02-07,1,,,,,オンケンカイ,0
815,3290001108884,新規,0,2025-02-07,2025-02-07,Ｊｐ　ｔｒｕｓｔ株式会社,,株式会社,福岡県,春日市,春日８丁目１２番地,,40,218,8160814,,,,,,,2025-02-07,1,,,,,ジェイピートラスト,0
819,3290003016383,新規,0,2025-02-07,2025-02-07,ＨＡ合同会社,,合同会社,福岡県,福岡市中央区,赤坂１丁目７－５ロマネスク赤坂第２－５０４号,,40,133,8100042,,,,,,,2025-02-07,1,,,,,エーチアー,0
822,3290801031261,新規,0,2025-02-07,2025-02-07,古賀産業株式会社,,株式会社,福岡県,北九州市小倉北区,中津口１丁目８番３０－８０６号,,40,106,8020018,,,,,,,2025-02-07,1,,,,,コガサンギョウ,0
823,3300003002225,新規,0,2025-02-07,2025-02-07,合同会社イザボン,,合同会社,佐賀県,武雄市,朝日町大字甘久１７８７番地１,,41,206,8430001,,,,,,,2025-02-07,1,,,,,イザボン,0
824,3320001020920,新規,0,2025-02-07,2025-02-07,大浦産業株式会社,,株式会社,大分県,宇佐市,大字和気字金田８１３番,,44,211,8791135,,,,,,,2025-02-07,1,,,,,オオウラサンギョウ,0
825,3320001020929,新規,0,2025-02-07,2025-02-07,大任富城株式会社,,株式会社,大分県,大分市,牧１丁目４番３４号第二富城ビル４０１,,44,201,8700924,,,,,,,2025-02-07,1,,,,,ダイニントミシロ,0
830,3340001027105,新規,0,2025-02-07,2025-02-07,株式会社鹿児島アミューズメント,,株式会社,鹿児島県,鹿児島市,山之口町１２番１０号メインパークセカンドタワー３階,,46,201,8920844,,,,,,,2025-02-07,1,,,,,カゴシマアミューズメント,0
837,3360003014677,新規,0,2025-02-07,2025-02-07,宙丸合同会社,,合同会社,沖縄県,国頭郡東村,字川田５２１番地１１,,47,303,9051203,,,,,,,2025-02-07,1,,,,,ソラマル,0
838,3370001052224,新規,0,2025-02-07,2025-02-07,株式会社ケーアンドエー,,株式会社,宮城県,仙台市宮城野区,榴岡４丁目５番１５号３階,,04,102,9830852,,,,,,,2025-02-07,1,,,,,ケーアンドエー,0
852,3400005008466,新規,0,2025-02-07,2025-02-07,一般社団法人ＨＯＰＥ,,その他の設立登記法人,岩手県,紫波郡矢巾町,大字和味第１０地割４２番地,,03,322,0283627,,,,,,,2025-02-07,1,,,,,ホープ,0
859,3440001009563,新規,0,2025-02-07,2025-02-07,株式会社Ｗｅｌｌ‐Ｂｅｉｎｇ,,株式会社,北海道,函館市,堀川町１６番１２－１号,,01,202,0400025,,,,,,,2025-02-07,1,,,,,ウェルビーイング,0
863,3470001020575,新規,0,2025-02-07,2025-02-07,株式会社バンザイサービス香川,,株式会社,香川県,高松市,国分寺町福家甲３３８４番地１６,,37,201,7690103,,,,,,,2025-02-07,1,,,,,バンザイサービスカガワ,0
865,3500003003434,新規,0,2025-02-07,2025-02-07,おざき農園合同会社,,合同会社,愛媛県,四国中央市,土居町津根３６５番地,,38,213,7990704,,,,,,,2025-02-07,1,,,,,オザキノウエン,0
869,3700150129144,新規,0,2025-02-07,2025-02-07,ＡＤＯＲＡ　ＥＮＴＥＲＰＲＩＳＥＳ,,外国会社等,千葉県,大網白里市,細草３１７４番地５,,12,239,2993211,スリランカ民主社会主義共和国、バトゥゴダ、バムヌポラ、プージャピティヤロード、Ｎｏ．８８／６,,,,,,2025-02-07,1,,,,,アドラエンタープライズ,0
873,4010001252032,新規,0,2025-02-07,2025-02-07,永昌興業株式会社,,株式会社,東京都,千代田区,神田小川町２丁目３番地１３,,13,101,1010052,,,,,,,2025-02-07,1,,,,,エイショウコウギョウ,0
874,4010001252123,新規,0,2025-02-07,2025-02-07,株式会社ブルースター,,株式会社,東京都,中央区,日本橋兜町１７番１号日本橋ロイヤルプラザ７０６,,13,102,1030026,,,,,,,2025-02-07,1,,,,,ブルースター,0
883,4010401187984,新規,0,2025-02-07,2025-02-07,株式会社ＭＯＲＩＫＡＷＡ,,株式会社,東京都,港区,浜松町２丁目１０番４号理研機器浜松町ビル１階,,13,103,1050013,,,,,,,2025-02-07,1,,,,,モリカワ,0
884,4010401188025,新規,0,2025-02-07,2025-02-07,ミライコイン株式会社,,株式会社,東京都,港区,六本木１丁目９番９号,,13,103,1060032,,,,,,,2025-02-07,1,,,,,ミライコイン,0
885,4010401188041,新規,0,2025-02-07,2025-02-07,世和株式会社,,株式会社,東京都,港区,港南２丁目１６番１号品川イーストワンタワー８Ｆ,,13,103,1080075,,,,,,,2025-02-07,1,,,,,セイワ,0
886,4010401188066,新規,0,2025-02-07,2025-02-07,ＴｈｉｎｋＡＲ　Ｊａｐａｎ株式会社,,株式会社,東京都,港区,海岸１丁目７番１号東京ポートシティ竹芝オフィスタワー１１Ｆ,,13,103,1050022,,,,,,,2025-02-07,1,,,,,シンクエーアージャパン,0
888,4010403034342,新規,0,2025-02-07,2025-02-07,Ａｒｍｅｒｉａ合同会社,,合同会社,東京都,港区,南青山３丁目１番３６号青山丸竹ビル６Ｆ,,13,103,1070062,,,,,,,2025-02-07,1,,,,,アルメリア,0
889,4010403034350,新規,0,2025-02-07,2025-02-07,ＭＬ　ＴＡＴ　Ｄｅｖｅｌｏｐｍｅｎｔ合同会社,,合同会社,東京都,港区,虎ノ門３丁目２２番１０－２０１号,,13,103,1050001,,,,,,,2025-02-07,1,,,,,エムエルティーエーティーディベロップメント,0
892,4010601066732,新規,0,2025-02-07,2025-02-07,Ｊアドバイザリー株式会社,,株式会社,東京都,江東区,古石場３丁目１１番８－３０５号,,13,108,1350045,,,,,,,2025-02-07,1,,,,,ジェイアドバイザリー,0
893,4010601066740,新規,0,2025-02-07,2025-02-07,株式会社ペイロールプロ,,株式会社,東京都,江東区,亀戸１丁目５番７号錦糸町プライムタワー６階,,13,108,1360071,,,,,,,2025-02-07,1,,,,,ペイロールプロ,0
900,4010901056805,新規,0,2025-02-07,2025-02-07,株式会社ＭａｒｓＦａｃｔｏｒｙ,,株式会社,東京都,世田谷区,三軒茶屋２丁目２６番１０号,,13,112,1540024,,,,,,,2025-02-07,1,,,,,マースファクトリー,0
901,4010903009703,新規,0,2025-02-07,2025-02-07,合同会社翠,,合同会社,東京都,世田谷区,太子堂４丁目１８番１５号マガザン三軒茶屋２－３Ｆ－３,,13,112,1540004,,,,,,,2025-02-07,1,,,,,スイ,0
909,4011101110575,新規,0,2025-02-07,2025-02-07,株式会社Ｓｙｍｐｈｏｎｙ,,株式会社,東京都,新宿区,高田馬場４丁目９番１１号,,13,104,1690075,,,,,,,2025-02-07,1,,,,,シンフォニー,0
910,4011201026110,新規,0,2025-02-07,2025-02-07,株式会社Ｓｃｏｒｐ,,株式会社,東京都,中野区,江原町２丁目１４番１０号,,13,114,1650023,,,,,,,2025-02-07,1,,,,,スコープ,0
918,4011501031677,新規,0,2025-02-07,2025-02-07,株式会社みらいＮＥＸＴ,,株式会社,東京都,荒川区,町屋８丁目１２番１－３１５号,,13,118,1160001,,,,,,,2025-02-07,1,,,,,ミライネクスト,0
919,4011501031685,新規,0,2025-02-07,2025-02-07,吉予株式会社,,株式会社,東京都,北区,西ケ原３丁目５２番１２号３階００３,,13,117,1140024,,,,,,,2025-02-07,1,,,,,キヨ,0
925,4012303002107,新規,0,2025-02-07,2025-02-07,合同会社ルミナス,,合同会社,東京都,町田市,原町田６丁目１８番１７号東亜町田ビルＩＩＩ４階,00137928,13,209,1940013,,,,,,,2025-02-07,1,,,,,ルミナス,0
933,4013101009624,新規,0,2025-02-07,2025-02-07,株式会社ペイフォワード,,株式会社,東京都,羽村市,富士見平２丁目１１番地１５,,13,227,2050013,,,,,,,2025-02-07,1,,,,,ペイフォワード,0
934,4013103001397,新規,0,2025-02-07,2025-02-07,Ｒｉｄｇｅｌｉｎｅ　Ｗｏｒｋｓ合同会社,,合同会社,東京都,西多摩郡檜原村,４５８番地４‐１階,,13,307,1900200,,,,,,,2025-02-07,1,,,,,リッジラインワークス,0
935,4013301053752,新規,0,2025-02-07,2025-02-07,株式会社Ｌｅｔ’ｓ,,株式会社,東京都,豊島区,高松１丁目２２番１－３３０３号,,13,116,1710042,,,,,,,2025-02-07,1,,,,,レッツ,0
938,4020001161208,新規,0,2025-02-07,2025-02-07,株式会社総合建設ＴＡＫＡ,,株式会社,神奈川県,川崎市多摩区,登戸１９１９番地エムアンドアールビル３階,,14,135,2140014,,,,,,,2025-02-07,1,,,,,ソウゴウケンセツタカ,0
939,4020001161249,新規,0,2025-02-07,2025-02-07,株式会社ヴァーテックス,,株式会社,神奈川県,横浜市中区,弥生町２丁目１５番地,,14,104,2310058,,,,,,,2025-02-07,1,,,,,ヴァーテックス,0
947,4021001084398,新規,0,2025-02-07,2025-02-07,株式会社Ｉ電工,,株式会社,神奈川県,横須賀市,不入斗町３丁目１５番地１,,14,201,2380051,,,,,,,2025-02-07,1,,,,,アイデンコウ,0
948,4021001084415,新規,0,2025-02-07,2025-02-07,株式会社ｉｒｉｋａｉ,,株式会社,神奈川県,三浦郡葉山町,長柄１２７０番地の１サンモール葉山２０３号室,,14,301,2400113,,,,,,,2025-02-07,1,,,,,イリカイ,0
949,4021001084423,新規,0,2025-02-07,2025-02-07,株式会社ＭＹ　Ｌｉｎｋｓ,,株式会社,神奈川県,厚木市,愛名５１０番地１１,,14,212,2430038,,,,,,,2025-02-07,1,,,,,マイリンクス,0
950,4021003015558,新規,0,2025-02-07,2025-02-07,ＹＯＳＨＩＴＯ　ＭＯＴＯＲＳ合同会社,,合同会社,神奈川県,伊勢原市,高森１０９０－１高森サンハイツ１０８号室,,14,214,2591114,,,,,,,2025-02-07,1,,,,,ヨシトモータース,0
956,4030001164779,新規,0,2025-02-07,2025-02-07,株式会社ロジ丸パッケージ,,株式会社,埼玉県,本庄市,児玉町吉田林８５番地１,,11,211,3670211,,,,,,,2025-02-07,1,,,,,ロジマルパッケージ,0
965,4040001137288,新規,0,2025-02-07,2025-02-07,志央工業株式会社,,株式会社,千葉県,市川市,福栄４丁目４－１,,12,203,2720137,,,,,,,2025-02-07,1,,,,,シオウコウギョウ,0
968,4040003026794,新規,0,2025-02-07,2025-02-07,合同会社つばさ,,合同会社,千葉県,市川市,北方町４丁目１７８２番地８（１号）,,12,203,2720811,,,,,,,2025-02-07,1,,,,,ツバサ,0
969,4040003026811,新規,0,2025-02-07,2025-02-07,合同会社Ｓｕｃｃｅｅｄ,,合同会社,千葉県,野田市,山崎２２０５番地の２ブルーウェルＡ１０３,,12,208,2780022,,,,,,,2025-02-07,1,,,,,サクシード,0
977,4060001037899,新規,0,2025-02-07,2025-02-07,株式会社エムワイ,,株式会社,栃木県,宇都宮市,福岡町１３１４番地１,,09,201,3210342,,,,,,,2025-02-07,1,,,,,エムワイ,0
1006,4120001272688,新規,0,2025-02-07,2025-02-07,屹澄株式会社,,株式会社,大阪府,大阪市住之江区,東加賀屋２丁目７番１６－２０３号,,27,125,5590012,,,,,,,2025-02-07,1,,,,,ギツチョウ,0
1007,4120001272721,新規,0,2025-02-07,2025-02-07,仕豪株式会社,,株式会社,大阪府,大阪市西成区,聖天下１丁目４番３６号,,27,122,5570012,,,,,,,2025-02-07,1,,,,,シゴウ,0
1008,4120001272738,新規,0,2025-02-07,2025-02-07,金石工業株式会社,,株式会社,大阪府,大阪市住之江区,南港北２丁目１－１０ＡＴＣビルＩＴＭ棟４階Ｎ－２,,27,125,5590034,,,,,,,2025-02-07,1,,,,,キンセキコウギョウ,0
1009,4120001272746,新規,0,2025-02-07,2025-02-07,株式会社ｒｅｖｉｅｗ＆Ｃｏ．,,株式会社,大阪府,大阪市北区,梅田１丁目１－３大阪駅前第３ビル２９階１－１－１号,,27,127,5300001,,,,,,,2025-02-07,1,,,,,レビューアンドコー,0
1013,4120003028576,新規,0,2025-02-07,2025-02-07,合同会社ＫＴｆｉｔｎｅｓｓ,,合同会社,大阪府,大阪市北区,梅田１丁目２番２号大阪駅前第２ビル１２－１２,,27,127,5300001,,,,,,,2025-02-07,1,,,,,ケーティーフィットネス,0
1022,4120101071008,新規,0,2025-02-07,2025-02-07,株式会社Ｔａｋｅ　ＯＮＥ,,株式会社,大阪府,南河内郡河南町,大宝２丁目２１番１号,,27,382,5850005,,,,,,,2025-02-07,1,,,,,テイクワン,0
1023,4120101071016,新規,0,2025-02-07,2025-02-07,株式会社クロス,,株式会社,大阪府,岸和田市,宮本町２９番２９号,,27,202,5960054,,,,,,,2025-02-07,1,,,,,クロス,0
1030,4122001038846,新規,0,2025-02-07,2025-02-07,Ｋ‐ｏｎｅ株式会社,,株式会社,大阪府,大東市,御領１丁目１番８号,,27,218,5740064,,,,,,,2025-02-07,1,,,,,ケーワン,0
1033,4130001078936,新規,0,2025-02-07,2025-02-07,ＮＡＯＫＩ　ＪＡＰＡＮ株式会社,,株式会社,京都府,京都市南区,東九条中殿田町１４番地４,,26,107,6018048,,,,,,,2025-02-07,1,,,,,ナオキジャパン,0
1034,4130001078969,新規,0,2025-02-07,2025-02-07,株式会社ボンジョルノ,,株式会社,京都府,京都市中京区,東洞院通二条上る壺屋町５２４番地,,26,104,6040814,,,,,,,2025-02-07,1,,,,,ボンジョルノ,0
1035,4130003010194,新規,0,2025-02-07,2025-02-07,Ｂｏｒｄｅｒｌｅｓｓ　Ｔｒａｄｅ合同会社,,合同会社,京都府,乙訓郡大山崎町,字円明寺小字金蔵９－２９,,26,303,6180091,,,,,,,2025-02-07,1,,,,,ボーダーレストレード,0
1041,4150003003493,新規,0,2025-02-07,2025-02-07,合同会社エコ・ルークス,,合同会社,奈良県,五條市,野原西２丁目１４番２０号,,29,207,6370036,,,,,,,2025-02-07,1,,,,,エコルークス,0
1043,4170001018483,新規,0,2025-02-07,2025-02-07,株式会社如月建設,,株式会社,和歌山県,岩出市,吉田６８番地の９７,00137939,30,209,6496246,,,,,,,2025-02-07,1,,,,,キサラギケンセツ,0
1049,4180001165333,新規,0,2025-02-07,2025-02-07,株式会社ＳＴＴＭ会,,株式会社,愛知県,名古屋市中川区,長良町４丁目１０１番地,,23,110,4540815,,,,,,,2025-02-07,1,,,,,エスティーティーエムカイ,0
1050,4180001165358,新規,0,2025-02-07,2025-02-07,大創グループ株式会社,,株式会社,愛知県,江南市,宮後町砂場東１９８番地２,,23,217,4838044,,,,,,,2025-02-07,1,,,,,ダイソウグループ,0
1051,4180001165366,新規,0,2025-02-07,2025-02-07,株式会社ナカガワ,,株式会社,愛知県,名古屋市中村区,荒輪井町１丁目１８番地,,23,105,4530848,,,,,,,2025-02-07,1,,,,,ナカガワ,0
1057,4200001043420,新規,0,2025-02-07,2025-02-07,クリエイトプラス株式会社,,株式会社,岐阜県,岐阜市,真砂町３丁目２０番地,,21,201,5008864,,,,,,,2025-02-07,1,,,,,クリエイトプラス,0
1061,4220001026480,新規,0,2025-02-07,2025-02-07,株式会社ＰＡＷＳ,,株式会社,石川県,金沢市,間明町２丁目１１１番地,,17,201,9218005,,,,,,,2025-02-07,1,,,,,ピーエーダブルエス,0
1062,4220003003949,新規,0,2025-02-07,2025-02-07,合同会社サンクレール,,合同会社,石川県,金沢市,小坂町北２１５番地１,,17,201,9200811,,,,,,,2025-02-07,1,,,,,サンクレール,0
1064,4240001064504,新規,0,2025-02-07,2025-02-07,株式会社ＴＭＳ,,株式会社,広島県,広島市中区,東千田町１丁目１番５５－１２０６号ｈｉｔｏｔｏ広島ＴｈｅＴｏｗｅｒ,,34,101,7300053,,,,,,,2025-02-07,1,,,,,ティエムエス,0
1066,4270003001709,新規,0,2025-02-07,2025-02-07,サクセス合同会社,,合同会社,鳥取県,米子市,新開４丁目４番１１号,,31,202,6830801,,,,,,,2025-02-07,1,,,,,サクセス,0
1079,4310001019442,新規,0,2025-02-07,2025-02-07,株式会社壹岐ファミリーレンタカー,,株式会社,長崎県,壱岐市,郷ノ浦町渡良東触９７０番地,,42,210,8115154,,,,,,,2025-02-07,1,,,,,イキファミリーレンタカー,0
1081,4320003004573,新規,0,2025-02-07,2025-02-07,合同会社ＪＴＴ,,合同会社,大分県,大分市,芳河原台１６番９号,,44,201,8700948,,,,,,,2025-02-07,1,,,,,ジェイティーティー,0
1085,4350001019389,新規,0,2025-02-07,2025-02-07,株式会社つながるチーム,,株式会社,宮崎県,都城市,早鈴町１６８１番地１アメニティうちの１０３号,,45,202,8850055,,,,,,,2025-02-07,1,,,,,ツナガルチーム,0
1087,4360001034767,新規,0,2025-02-07,2025-02-07,Ａｉｒｉ　Ｍａｒｉｎｅ株式会社,,株式会社,沖縄県,沖縄市,海邦１丁目１１番２号,,47,211,9042162,,,,,,,2025-02-07,1,,,,,アイリマリン,0
1090,4360003014668,新規,0,2025-02-07,2025-02-07,合同会社和健産業,,合同会社,沖縄県,八重山郡与那国町,字与那国１６２番地,,47,382,9071801,,,,,,,2025-02-07,1,,,,,ワケンサンギョウ,0
1097,4370001052215,新規,0,2025-02-07,2025-02-07,ＴＳＡコンサルティング株式会社,,株式会社,宮城県,仙台市青葉区,立町１４番３号パリスビル５０５,,04,101,9800822,,,,,,,2025-02-07,1,,,,,ティーエスエーコンサルティング,0
1111,4430001093649,新規,0,2025-02-07,2025-02-07,株式会社オーシーシー,,株式会社,北海道,小樽市,若松２丁目８番１５号,,01,203,0470017,,,,,,,2025-02-07,1,,,,,オーシーシー,0
1112,4430001093657,新規,0,2025-02-07,2025-02-07,株式会社Ｖａｕｌｔ,,株式会社,北海道,札幌市北区,屯田八条１２丁目５番３３号,,01,102,0020858,,,,,,,2025-02-07,1,,,,,ヴォルト,0
1113,4430003017259,新規,0,2025-02-07,2025-02-07,札幌白石警備合同会社,,合同会社,北海道,札幌市白石区,南郷通１８丁目南５番１３号久保沼ビル３階,,01,104,0030022,,,,,,,2025-02-07,1,,,,,サッポロシロイシケイビ,0
1115,4450001014529,新規,0,2025-02-07,2025-02-07,Ｏｃｔａｖｅ　Ｌｉｖｉｎｇ　Ｆｕｒａｎｏ株式会社,,株式会社,北海道,富良野市,字学田三区,,01,229,0760035,,,,,,,2025-02-07,1,,,,,オクターブリビングフラノ,0
1117,4500001026130,新規,0,2025-02-07,2025-02-07,株式会社リンク,,株式会社,愛媛県,松山市,白水台６丁目１３番２号,,38,201,7910113,,,,,,,2025-02-07,1,,,,,リンク,0
1118,4500003003433,新規,0,2025-02-07,2025-02-07,おち機械デザインプロダクツ合同会社,,合同会社,愛媛県,伊予郡砥部町,宮内２４９１番地,,38,402,7912120,,,,,,,2025-02-07,1,,,,,オチキカイデザインプロダクツ,0
1122,4700150129143,新規,0,2025-02-07,2025-02-07,Ｓ．Ｓ．ＭＯＴＯＲ　ＴＲＡＤＩＮＧ,,外国会社等,千葉県,山武市,木原１４００番地オフィス７,,12,237,2891212,スリランカ民主社会主義共和国、キャンディ、ラトゥコホディーガラ、パンゴッラマダ、パナガムワロード、Ｎｏ．１４／Ａ,,,,,,2025-02-07,1,,,,,エスエスモータートレーデイング,0
1132,5010001251917,新規,0,2025-02-07,2025-02-07,天晴株式会社,,株式会社,東京都,千代田区,紀尾井町３－１９紀尾井町コートビル４０２室,,13,101,1020094,,,,,,,2025-02-07,1,,,,,テンチエン,0
1133,5010001252023,新規,0,2025-02-07,2025-02-07,株式会社徳報社,,株式会社,東京都,千代田区,五番町５番地１（ＪＳ市ヶ谷ビル７階）,,13,101,1020076,,,,,,,2025-02-07,1,,,,,トクホウシャ,0
1134,5010001252089,新規,0,2025-02-07,2025-02-07,株式会社インデプス,,株式会社,東京都,千代田区,九段南１丁目５番６号りそな九段ビル５階ＫＳフロア,,13,101,1020074,,,,,,,2025-02-07,1,,,,,インデプス,0
1135,5010001252097,新規,0,2025-02-07,2025-02-07,株式会社ＪＳＴＧ,,株式会社,東京都,千代田区,有楽町１丁目１３番２号第一生命日比谷ファースト１８階,,13,101,1000006,,,,,,,2025-02-07,1,,,,,ジェイエスティージー,0
1136,5010001252106,新規,0,2025-02-07,2025-02-07,ｍａｒｕｔｏｐｅ株式会社,,株式会社,東京都,中央区,銀座１丁目１２番４号Ｎ＆ＥＢＬＤ．７階,,13,102,1040061,,,,,,,2025-02-07,1,,,,,マルトープ,0
1138,5010003046316,新規,0,2025-02-07,2025-02-07,合同会社うなぎ中嶋,,合同会社,東京都,文京区,白山１丁目１８番６号,,13,105,1130001,,,,,,,2025-02-07,1,,,,,ウナギナカジマ,0
1139,5010003046349,新規,0,2025-02-07,2025-02-07,合同会社ＮＯＥＬ,,合同会社,東京都,中央区,新川１丁目１７番１８号,,13,102,1040033,,,,,,,2025-02-07,1,,,,,ノエル,0
1147,5010401187991,新規,0,2025-02-07,2025-02-07,株式会社インエディット,,株式会社,東京都,港区,東麻布２丁目３５番１号ＫＣビル６Ｆ,,13,103,1060044,,,,,,,2025-02-07,1,,,,,インエディット,0
1148,5010403034341,新規,0,2025-02-07,2025-02-07,Ｇｌｏｂａｌｓｔａｒ美幌合同会社,,合同会社,東京都,港区,芝浦１丁目３番３号,,13,103,1050023,,,,,,,2025-02-07,1,,,,,グローバルスタービホロ,0
1149,5010403034382,新規,0,2025-02-07,2025-02-07,合同会社ＬｏＣｏＬｏ　Ｍａｎａｇｅｍｅｎｔ,,合同会社,東京都,港区,新橋４丁目１４－１新橋ＡＵＮＢＬＤＧ４階,,13,103,1050004,,,,,,,2025-02-07,1,,,,,ロコローマネージメント,0
1154,5010801035809,新規,0,2025-02-07,2025-02-07,道農株式会社,,株式会社,東京都,大田区,東海３丁目７番３号東海ビル３０２室,,13,111,1430001,,,,,,,2025-02-07,1,,,,,ドウノウ,0
1155,5010803005280,新規,0,2025-02-07,2025-02-07,合同会社ｖｅｒ,,合同会社,東京都,大田区,新蒲田１丁目７番７号知多ビル１階,,13,111,1440054,,,,,,,2025-02-07,1,,,,,ヴェール,0
1159,5010903009702,新規,0,2025-02-07,2025-02-07,ＨＫＮ合同会社,,合同会社,東京都,世田谷区,等々力５丁目２０番２０号,,13,112,1580082,,,,,,,2025-02-07,1,,,,,エイチケーエヌ,0
1164,5011001167582,新規,0,2025-02-07,2025-02-07,株式会社空白,,株式会社,東京都,渋谷区,神宮前３丁目１３番２０号ＰＡＳＥＯ神宮前００４,,13,113,1500001,,,,,,,2025-02-07,1,,,,,クウハク,0
1165,5011001167590,新規,0,2025-02-07,2025-02-07,株式会社ＣＲＥＥＴＥ,,株式会社,東京都,渋谷区,桜丘町１５番１４号フジビル４０・７Ｆ,,13,113,1500031,,,,,,,2025-02-07,1,,,,,クリート,0
1168,5011005010854,新規,0,2025-02-07,2025-02-07,一般社団法人日本ＨＲＢＰ協会,,その他の設立登記法人,東京都,渋谷区,神南１丁目１１－４ＦＰＧリンクス神南５階,,13,113,1500041,,,,,,,2025-02-07,1,,,,,ニホンエイチアールビーピーキョウカイ,0
1169,5011101110525,新規,0,2025-02-07,2025-02-07,株式会社ストックリバティ,,株式会社,東京都,新宿区,高田馬場３丁目１番５号サンパティオ高田馬場３０９号室,,13,104,1690075,,,,,,,2025-02-07,1,,,,,ストックリバティ,0
1170,5011101110533,新規,0,2025-02-07,2025-02-07,株式会社Ｂｕｂｂｌｅ　Ｇｕｍ,,株式会社,東京都,新宿区,若松町７番１号クレヴィア若松町５１３号室,,13,104,1620056,,,,,,,2025-02-07,1,,,,,バブルガム,0
1171,5011101110541,新規,0,2025-02-07,2025-02-07,ＪＩＭＡ株式会社,,株式会社,東京都,新宿区,新宿１丁目１８番１０号金城ビル,,13,104,1600022,,,,,,,2025-02-07,1,,,,,ジーマ,0
1173,5011103015516,新規,0,2025-02-07,2025-02-07,合同会社ＭＯマーケティング,,合同会社,東京都,新宿区,西早稲田２丁目９番１７号,,13,104,1690051,,,,,,,2025-02-07,1,,,,,エムオウマーケティング,0
1179,5011501031676,新規,0,2025-02-07,2025-02-07,恩典株式会社,,株式会社,東京都,北区,浮間１丁目１番１４号リムジンビル３２９,,13,117,1150051,,,,,,,2025-02-07,1,,,,,オンテン,0
1182,5011703004125,新規,0,2025-02-07,2025-02-07,合同会社ＴＯＭＯ　ＭＹＡＮＭＡＲ　ＧＲＯＵＰ,,合同会社,東京都,江戸川区,松島３丁目１２番１１号児玉ビル１階,,13,123,1320031,,,,,,,2025-02-07,1,,,,,トモミャンマーグループ,0
1184,5011801045599,新規,0,2025-02-07,2025-02-07,易元株式会社,,株式会社,東京都,葛飾区,東新小岩２丁目１８番１号８０６号室,,13,122,1240023,,,,,,,2025-02-07,1,,,,,エキゲン,0
1185,5011801045608,新規,0,2025-02-07,2025-02-07,星耀株式会社,,株式会社,東京都,葛飾区,柴又３丁目１１－１１カエデ柴又１０６,,13,122,1250052,,,,,,,2025-02-07,1,,,,,セイヨウ,0
1189,5012801023735,新規,0,2025-02-07,2025-02-07,株式会社ＧＯＫＡＮＲＩ,,株式会社,東京都,武蔵村山市,大南４丁目４６番２号,,13,223,2080013,,,,,,,2025-02-07,1,,,,,ゴカンリ,0
1190,5012803003628,新規,0,2025-02-07,2025-02-07,ＰＭＣ合同会社,,合同会社,東京都,日野市,東豊田３丁目２４番地の５ＴＫビルＩＩ１０７,00137938,13,212,1910052,,,,,,,2025-02-07,1,,,,,ピーエムシー,0
1191,5013101009623,新規,0,2025-02-07,2025-02-07,株式会社ＮｅｘＰｏｒｔ,,株式会社,東京都,福生市,牛浜１２８番地（３０２号室）,,13,218,1970024,,,,,,,2025-02-07,1,,,,,ネクスポート,0
1200,5020001161173,新規,0,2025-02-07,2025-02-07,株式会社Ｋ・ＳＴＡＦＦ,,株式会社,神奈川県,川崎市高津区,溝口２丁目６－９ＫＴビーンズＩＩＩ４０３号室,00137925,14,134,2130001,,,,,,,2025-02-07,1,,,,,,0
1201,5020001161207,新規,0,2025-02-07,2025-02-07,株式会社ＧＯＨプラス,,株式会社,神奈川県,横浜市港北区,日吉６丁目９番１９号,,14,109,2230061,,,,,,,2025-02-07,1,,,,,ゴープラス,0
1202,5020001161248,新規,0,2025-02-07,2025-02-07,株式会社ワンテクト,,株式会社,神奈川県,横浜市保土ケ谷区,川島町５２２,,14,106,2400045,,,,,,,2025-02-07,1,,,,,ワンテクト,0
1203,5020001161256,新規,0,2025-02-07,2025-02-07,株式会社マツデン,,株式会社,神奈川県,横浜市戸塚区,汲沢７丁目１番２５号,,14,110,2450061,,,,,,,2025-02-07,1,,,,,マツデン,0
1204,5020003027736,新規,0,2025-02-07,2025-02-07,アオタ創建合同会社,,合同会社,神奈川県,横浜市港北区,新羽町９３８番地シエスタ大倉山４０６,,14,109,2230057,,,,,,,2025-02-07,1,,,,,アオタソウケン,0
1205,5020003027819,新規,0,2025-02-07,2025-02-07,合同会社エンバイロ・クラブ,,合同会社,神奈川県,横浜市金沢区,並木３丁目９番３－１０１号,,14,108,2360005,,,,,,,2025-02-07,1,,,,,エンバイロクラブ,0
1206,5021001084406,新規,0,2025-02-07,2025-02-07,株式会社ＧＯＷＩＬＤ,,株式会社,神奈川県,茅ヶ崎市,茅ヶ崎８４４,,14,207,2530041,,,,,,,2025-02-07,1,,,,,ゴーワイルド,0
1207,5021001084414,新規,0,2025-02-07,2025-02-07,株式会社ＡＲＵＺＥ,,株式会社,神奈川県,相模原市中央区,淵野辺２丁目５番６２号オハナ淵野辺ガーデニア１１２２号室,,14,152,2520206,,,,,,,2025-02-07,1,,,,,アルゼ,0
1208,5021001084439,新規,0,2025-02-07,2025-02-07,株式会社アルファ,,株式会社,神奈川県,厚木市,酒井１１４３－５Ｄ,,14,212,2430022,,,,,,,2025-02-07,1,,,,,アルファ,0
1220,5030001164761,新規,0,2025-02-07,2025-02-07,株式会社トラスト・ベース,,株式会社,埼玉県,川口市,末広２丁目７番３号,,11,203,3320006,,,,,,,2025-02-07,1,,,,,トラストベース,0
1221,5030001164803,新規,0,2025-02-07,2025-02-07,ホワイトナイツ株式会社,,株式会社,埼玉県,川越市,岸町１丁目２０番地１９,,11,201,3501131,,,,,,,2025-02-07,1,,,,,ホワイトナイツ,0
1222,5030001164811,新規,0,2025-02-07,2025-02-07,株式会社Ｗｏｒｌｄ　Ｖｉｅｗ,,株式会社,埼玉県,鴻巣市,吹上本町４丁目１２番地７－５０７号日神パレステージ吹上,,11,217,3690115,,,,,,,2025-02-07,1,,,,,ワールドビュー,0
1236,5040001137295,新規,0,2025-02-07,2025-02-07,Ａ＆Ｔ　ＮＥＸＴ株式会社,,株式会社,千葉県,習志野市,大久保２丁目１番１０号,,12,216,2750011,,,,,,,2025-02-07,1,,,,,エーアンドティーネクスト,0
1237,5040001137304,新規,0,2025-02-07,2025-02-07,株式会社アルファ,,株式会社,千葉県,八千代市,大和田新田１０６８－２リーベスト八千代緑が丘７０３,,12,221,2760046,,,,,,,2025-02-07,1,,,,,,0
1240,5040003026819,新規,0,2025-02-07,2025-02-07,ナビジョン・パートナーズ合同会社,,合同会社,千葉県,船橋市,本中山３丁目１３―７,,12,204,2730035,,,,,,,2025-02-07,1,,,,,ナビジョンパートナーズ,0
1242,5050001056098,新規,0,2025-02-07,2025-02-07,ＣＨＩＲＡＧＩＹＡ　ＥＮＴＥＲＰＲＩＳＥＳ株式会社,,株式会社,茨城県,猿島郡境町,大字長井戸字元香取３３８－１５,,08,546,3060404,,,,,,,2025-02-07,1,,,,,チラギヤエンタープライズ,0
1245,5050003008980,新規,0,2025-02-07,2025-02-07,合同会社ＬＧＭＱ,,合同会社,茨城県,牛久市,田宮２丁目５‐１,,08,219,3001237,,,,,,,2025-02-07,1,,,,,エルジーエムキュー,0
1246,5050003009013,新規,0,2025-02-07,2025-02-07,杏琳合同会社,,合同会社,茨城県,鉾田市,鳥栖７６２番地,,08,234,3111534,,,,,,,2025-02-07,1,,,,,アンリン,0
1250,5080003003384,新規,0,2025-02-07,2025-02-07,合同会社ハブフェロー,,合同会社,静岡県,静岡市駿河区,馬渕４丁目１－８,,22,102,4228063,,,,,,,2025-02-07,1,,,,,ハブフェロー,0
1255,5090003002740,新規,0,2025-02-07,2025-02-07,合同会社ＪＳトランスポート,,合同会社,山梨県,南アルプス市,藤田２３３番地１ハイステージ若草壱番館２０２,,19,208,4000334,,,,,,,2025-02-07,1,,,,,ジェーエストランスポート,0
1259,5100001038272,新規,0,2025-02-07,2025-02-07,株式会社Ｌｉｅｎ,,株式会社,長野県,茅野市,玉川１０１１１番地１,,20,214,3910011,,,,,,,2025-02-07,1,,,,,リアン,0
1260,5100001038280,新規,0,2025-02-07,2025-02-07,ナカミチ車両サービス株式会社,,株式会社,長野県,松本市,波田６３９８番地５,,20,202,3901401,,,,,,,2025-02-07,1,,,,,ナカミチシャリョウサービス,0
1261,5100001038289,新規,0,2025-02-07,2025-02-07,株式会社ＦｕｎＦａｒｍ,,株式会社,長野県,北佐久郡軽井沢町,大字長倉２０２３番地２,,20,321,3890111,,,,,,,2025-02-07,1,,,,,ファンファーム,0
1263,5110001039039,新規,0,2025-02-07,2025-02-07,Ｓａｔｓｕｋｉ　Ｇｒｏｕｐ株式会社,,株式会社,新潟県,妙高市,大字赤倉１０８－３４,,15,217,9492111,,,,,,,2025-02-07,1,,,,,サツキグループ,0
1279,5120001272638,新規,0,2025-02-07,2025-02-07,ゲンキＬＩＮＫ株式会社,,株式会社,大阪府,大阪市東成区,玉津２丁目１６番２１号,,27,115,5370023,,,,,,,2025-02-07,1,,,,,ゲンキリンク,0
1280,5120001272646,新規,0,2025-02-07,2025-02-07,ＹＵＡＳＡ　Ｐａｒｔｎｅｒｓ株式会社,,株式会社,大阪府,大阪市北区,梅田１丁目２番２号大阪駅前第２ビル１２－１２,,27,127,5300001,,,,,,,2025-02-07,1,,,,,ユアサパートナーズ,0
1281,5120001272687,新規,0,2025-02-07,2025-02-07,株式会社トセイ,,株式会社,大阪府,大阪市中央区,農人橋１丁目４番２８－１００４号,,27,128,5400011,,,,,,,2025-02-07,1,,,,,トセイ,0
1282,5120001272704,新規,0,2025-02-07,2025-02-07,Ｂ．ａｎｄＢ株式会社,,株式会社,大阪府,大阪市中央区,南船場２丁目１１－４,,27,128,5420081,,,,,,,2025-02-07,1,,,,,ビーアンドビー,0
1289,5120005024787,新規,0,2025-02-07,2025-02-07,一般社団法人予防医療振興会,,その他の設立登記法人,大阪府,大阪市中央区,南船場４丁目５－８ラスターオン心斎橋６０２,,27,128,5420081,,,,,,,2025-02-07,1,,,,,ヨボウイリョウシンコウカイ,0
1291,5120101071007,新規,0,2025-02-07,2025-02-07,株式会社エスシステム,,株式会社,大阪府,堺市美原区,多治井４５番地１,,27,147,5870012,,,,,,,2025-02-07,1,,,,,エスシステム,0
1292,5120101071023,新規,0,2025-02-07,2025-02-07,株式会社天美,,株式会社,大阪府,堺市東区,関茶屋７５－２,,27,143,5998115,,,,,,,2025-02-07,1,,,,,アマミ,0
1293,5120101071031,新規,0,2025-02-07,2025-02-07,株式会社ＭＫ,,株式会社,大阪府,藤井寺市,野中５丁目４番６号トレイズ（２０２）,,27,226,5830014,,,,,,,2025-02-07,1,,,,,エムケイ,0
1301,5130001078968,新規,0,2025-02-07,2025-02-07,株式会社Ｅｃｏ　Ｆｏｒｅｓｔ　Ｆｒｉｅｎｄｌｙ,,株式会社,京都府,南丹市,日吉町胡麻丁畑６番地１,,26,213,6290311,,,,,,,2025-02-07,1,,,,,エコフォレストフレンドリー,0
1302,5130001078976,新規,0,2025-02-07,2025-02-07,ラフトレード株式会社,,株式会社,京都府,京都市中京区,壬生相合町６７番地１ＵＮ２０４号,,26,104,6048812,,,,,,,2025-02-07,1,,,,,ラフトレード,0
1308,5140001137310,新規,0,2025-02-07,2025-02-07,株式会社Ｍｏｔｔ　Ｗｅｌｌｎｅｓｓ,,株式会社,兵庫県,神戸市中央区,旭通３丁目１番２－９０７号,,28,110,6510095,,,,,,,2025-02-07,1,,,,,モットウェルネス,0
1309,5140001137368,新規,0,2025-02-07,2025-02-07,株式会社Ａｊｉｍａｙａ,,株式会社,兵庫県,丹波篠山市,西町３０番地,,28,221,6692342,,,,,,,2025-02-07,1,,,,,アジマヤ,0
1318,5180001165332,新規,0,2025-02-07,2025-02-07,佐藤自動車グループＨＤ株式会社,,株式会社,愛知県,名古屋市瑞穂区,内浜町３番１１号,,23,108,4670853,,,,,,,2025-02-07,1,,,,,サトウジドウシャグループホールディングス,0
1319,5180001165340,新規,0,2025-02-07,2025-02-07,株式会社川崎機工,00137926,株式会社,愛知県,名古屋市中川区,百船町２０番１１号,,23,110,4540801,,,,,,,2025-02-07,1,,,,,カワサキキコウ,0
1320,5180001165357,新規,0,2025-02-07,2025-02-07,すずなり株式会社,,株式会社,愛知県,名古屋市千種区,星が丘山手４０１番地グランドメゾン星が丘山手Ｂ５０５,,23,101,4640808,,,,,,,2025-02-07,1,,,,,スズナリ,0
1323,5180003027968,新規,0,2025-02-07,2025-02-07,合同会社デュファン,,合同会社,愛知県,名古屋市中区,千代田２丁目２０－１エスティメゾン鶴舞１１０６号,,23,106,4600012,,,,,,,2025-02-07,1,,,,,デュファン,0
1334,5240001064503,新規,0,2025-02-07,2025-02-07,株式会社おうちの相談カウンター,,株式会社,広島県,廿日市市,桜尾本町８番１５号１階,,34,213,7380005,,,,,,,2025-02-07,1,,,,,オウチノソウダンカウンター,0
1348,5290001108775,新規,0,2025-02-07,2025-02-07,株式会社Ｑｒｅｅｉｇｈｔ,,株式会社,福岡県,福岡市博多区,美野島２丁目１番３１号フェニックス美野島７階,,40,132,8120017,,,,,,,2025-02-07,1,,,,,クリエイト,0
1349,5290001108874,新規,0,2025-02-07,2025-02-07,株式会社橋口巧機,,株式会社,福岡県,福岡市早良区,四箇６丁目２１番９－４号,,40,137,8111103,,,,,,,2025-02-07,1,,,,,ハシグチコウキ,0
1350,5290001108882,新規,0,2025-02-07,2025-02-07,株式会社ララ,,株式会社,福岡県,福岡市早良区,内野６丁目１２番３０号,,40,137,8111123,,,,,,,2025-02-07,1,,,,,ララ,0
1351,5290001108890,新規,0,2025-02-07,2025-02-07,創洋株式会社,,株式会社,福岡県,福岡市中央区,天神２丁目３－１０天神パインクレスト２０８号室,,40,133,8100001,,,,,,,2025-02-07,1,,,,,ソウヨウ,0
1360,5310001019441,新規,0,2025-02-07,2025-02-07,株式会社福松建設,,株式会社,長崎県,長崎市,小江原５丁目２０番１号,,42,201,8511132,,,,,,,2025-02-07,1,,,,,フクマツケンセツ,0
1365,5320001020935,新規,0,2025-02-07,2025-02-07,株式会社ユーノイアズ,,株式会社,大分県,別府市,末広町１番３号,,44,202,8740938,,,,,,,2025-02-07,1,,,,,ユーノイアズ,0
1369,5350001019388,新規,0,2025-02-07,2025-02-07,株式会社シバタ,,株式会社,宮崎県,延岡市,土々呂町２丁目５７０番地５１,,45,203,8890513,,,,,,,2025-02-07,1,,,,,シバタ,0
1370,5350003004842,新規,0,2025-02-07,2025-02-07,合同会社瑚紬,,合同会社,宮崎県,小林市,堤３６６１番地,,45,205,8860003,,,,,,,2025-02-07,1,,,,,コムギ,0
1379,5390003002347,新規,0,2025-02-07,2025-02-07,合同会社リノベ酒田,,合同会社,山形県,酒田市,亀ケ崎７丁目７番２６号,,06,204,9980842,,,,,,,2025-02-07,1,,,,,リノベサカタ,0
1387,5430001093623,新規,0,2025-02-07,2025-02-07,株式会社ＨＹＫ,,株式会社,北海道,札幌市西区,琴似一条２丁目５番３号,,01,107,0630811,,,,,,,2025-02-07,1,,,,,エイチワイケー,0
1389,5430003017150,新規,0,2025-02-07,2025-02-07,合同会社ダブルサポート,,合同会社,北海道,札幌市中央区,南二条西５丁目３１－１ＲＭＢｌｄ．７０１,,01,101,0600062,,,,,,,2025-02-07,1,,,,,ダブルサポート,0
1390,5430003017258,新規,0,2025-02-07,2025-02-07,合同会社壱工房,,合同会社,北海道,札幌市北区,新川西五条４丁目９番１８号,,01,102,0010935,,,,,,,2025-02-07,1,,,,,イチコウボウ,0
1393,5470001020573,新規,0,2025-02-07,2025-02-07,ＡＳＭＡＴ　ＴＲＡＤＩＮＧ株式会社,,株式会社,香川県,高松市,川部町１８２３番地４,,37,201,7618046,,,,,,,2025-02-07,1,,,,,アスマットトレーディング,0
1400,5500003003432,新規,0,2025-02-07,2025-02-07,合同会社いしづち山麓ファーム,,合同会社,愛媛県,東温市,見奈良１１２５番地,,38,215,7910211,,,,,,,2025-02-07,1,,,,,イシヅチサンロクファーム,0
1404,5700150129142,新規,0,2025-02-07,2025-02-07,ＣＡＲ　ＮＥＸＴ　ＥＮＴＥＲＰＲＩＳＥＳ,,外国会社等,千葉県,山武郡横芝光町,宮川１６１５番地９オフィスＡ,,12,410,2891727,スリランカ民主社会主義共和国、サンタマルトゥ、メインストリート、Ｎｏ．１９７,,,,,,2025-02-07,1,,,,,カーネクストエンタープライズ,0
1410,6010001252113,新規,0,2025-02-07,2025-02-07,株式会社ＲｅＡｌｉｇｎ,,株式会社,東京都,中央区,銀座１丁目１２番４号Ｎ＆ＥＢＬＤ．６Ｆ,,13,102,1040061,,,,,,,2025-02-07,1,,,,,リアライン,0
1411,6010001252170,新規,0,2025-02-07,2025-02-07,Ｐｉｏｎｅｘ　Ｔｅｃｈｎｏｌｏｇｙ株式会社,,株式会社,東京都,千代田区,神田神保町１丁目２８－１ＭＩＲＩＯ神保町１４Ｆ,,13,101,1010051,,,,,,,2025-02-07,1,,,,,パイオネクステクノロジー,0
1415,6010003046307,新規,0,2025-02-07,2025-02-07,合同会社フシギムラ,,合同会社,東京都,千代田区,神田和泉町１番地６－１６ヤマトビル４０５,,13,101,1010024,,,,,,,2025-02-07,1,,,,,フシギムラ,0
1417,6010103002507,新規,0,2025-02-07,2025-02-07,Ａｔｔａｃｋ　ｏｎ　Ｔｉｔａｎ合同会社,,合同会社,東京都,八王子市,東中野１０３１‐１００東山２０ー６,,13,201,1920351,,,,,,,2025-02-07,1,,,,,アタックオンタイタン,0
1420,6010401188023,新規,0,2025-02-07,2025-02-07,食共創パートナーズ株式会社,,株式会社,東京都,港区,赤坂２丁目４番６号,,13,103,1070052,,,,,,,2025-02-07,1,,,,,ショクキョウソウパートナーズ,0
1426,6010705003729,新規,0,2025-02-07,2025-02-07,一般社団法人アリアケ,,その他の設立登記法人,東京都,品川区,上大崎３丁目１番１号目黒セントラルスクエア１５階,,13,109,1410021,,,,,,,2025-02-07,1,,,,,アリアケ,0
1429,6010901056778,新規,0,2025-02-07,2025-02-07,ｃｈｏｊｕ株式会社,,株式会社,東京都,世田谷区,太子堂４丁目１８番１５号マガザン三軒茶屋２－３Ｆ－３,,13,112,1540004,,,,,,,2025-02-07,1,,,,,チョジュ,0
1431,6010903009701,新規,0,2025-02-07,2025-02-07,合同会社サンシャイン,,合同会社,東京都,世田谷区,尾山台３丁目５番５号,,13,112,1580086,,,,,,,2025-02-07,1,,,,,サンシャイン,0
1445,6011001167540,新規,0,2025-02-07,2025-02-07,株式会社鷹ノ目企画,,株式会社,東京都,渋谷区,本町３丁目４５番１３－４０４号ルーツ渋谷本町,,13,113,1510071,,,,,,,2025-02-07,1,,,,,タカノメキカク,0
1446,6011001167656,新規,0,2025-02-07,2025-02-07,株式会社クリエイトキャリア,,株式会社,東京都,渋谷区,渋谷２丁目１９－１５宮益坂ビルディング６０９,,13,113,1500002,,,,,,,2025-02-07,1,,,,,クリエイトキャリア,0
1448,6011003020854,新規,0,2025-02-07,2025-02-07,億コード合同会社,,合同会社,東京都,渋谷区,富ヶ谷１丁目１４番１４号３階,,13,113,1510063,,,,,,,2025-02-07,1,,,,,オクコード,0
1449,6011003020929,新規,0,2025-02-07,2025-02-07,合同会社ｂｉｚｄａｔａ,,合同会社,東京都,渋谷区,道玄坂１丁目１０番８号渋谷道玄坂東急ビル２Ｆ―Ｃ,,13,113,1500043,,,,,,,2025-02-07,1,,,,,ビズデータ,0
1454,6011101110516,新規,0,2025-02-07,2025-02-07,株式会社ＢＡＮＫＥＲ,,株式会社,東京都,新宿区,新宿２丁目１－９＠ＷＯＲＫ・ＳＨＩＮＪＵＫＵＧＹＯＥＮ４階,,13,104,1600022,,,,,,,2025-02-07,1,,,,,バンカー,0
1455,6011101110581,新規,0,2025-02-07,2025-02-07,株式会社ＡＫＴカズン,,株式会社,東京都,新宿区,馬場下町３番地,,13,104,1620045,,,,,,,2025-02-07,1,,,,,エーケーティーカズン,0
1457,6011103015515,新規,0,2025-02-07,2025-02-07,合同会社ＴＨＥ　ＳＨＡＫＹＡ’Ｓ,,合同会社,東京都,新宿区,西新宿３丁目３番１３号西新宿水間ビル２Ｆ,,13,104,1600023,,,,,,,2025-02-07,1,,,,,ザシャカズ,0
1460,6011201026109,新規,0,2025-02-07,2025-02-07,ＦＯＯＤ　ＨＵＴ　ＰＬＵＳ　ＩＮＴＥＲＮＡＴＩＯＮＡＬ株式会社,,株式会社,東京都,中野区,中央３丁目３３番４号,,13,114,1640011,,,,,,,2025-02-07,1,,,,,フードハットプラスインターナショナル,0
1462,6011303005407,新規,0,2025-02-07,2025-02-07,エイチ・エー・コンサルティング合同会社,,合同会社,東京都,杉並区,本天沼３丁目３９番１７号,,13,115,1670031,,,,,,,2025-02-07,1,,,,,エイチエーコンサルティング,0
1471,6011703004124,新規,0,2025-02-07,2025-02-07,Ｃｏｒａｌ　Ｓｅａ合同会社,,合同会社,東京都,江戸川区,松島１丁目３番１２号,,13,123,1320031,,,,,,,2025-02-07,1,,,,,コーラルシー,0
1475,6011801045615,新規,0,2025-02-07,2025-02-07,株式会社ＫＡＳＡＩ,,株式会社,東京都,足立区,加平２丁目５－１１－２０２,,13,121,1210055,,,,,,,2025-02-07,1,,,,,カサイ,0
1482,6020001161172,新規,0,2025-02-07,2025-02-07,株式会社カルミア,,株式会社,神奈川県,横浜市鶴見区,尻手１丁目１番１６－１１２４号,,14,101,2300003,,,,,,,2025-02-07,1,,,,,カルミア,0
1485,6020003027693,新規,0,2025-02-07,2025-02-07,合同会社Ｐｒｉｍｅ　Ｃｏｍｍｉｔ,,合同会社,神奈川県,横浜市緑区,長津田みなみ台５丁目２１番８号,,14,113,2260018,,,,,,,2025-02-07,1,,,,,,0
1486,6020003027743,新規,0,2025-02-07,2025-02-07,合同会社Ａｌｉ,,合同会社,神奈川県,川崎市幸区,戸手２丁目１０番８フラットイスミ３０３,,14,132,2120005,,,,,,,2025-02-07,1,,,,,アリィ,0
1487,6020003027751,新規,0,2025-02-07,2025-02-07,合同会社ｃｅｒｉｓｉｅｒ,,合同会社,神奈川県,横浜市神奈川区,金港町５―１４クアドリフォリオ８階,,14,102,2210056,,,,,,,2025-02-07,1,,,,,スリジエ,0
1490,6021001084413,新規,0,2025-02-07,2025-02-07,株式会社Ｒｕｚｕｍｉｋａ,,株式会社,神奈川県,横須賀市,大滝町２丁目６番地ザ・タワー横須賀中央２３０１,,14,201,2380008,,,,,,,2025-02-07,1,,,,,ルズミカ,0
1492,6021003015564,新規,0,2025-02-07,2025-02-07,合同会社ＭＡＣ,,合同会社,神奈川県,横須賀市,林５丁目１番１４号フォレストメゾン林１０１,,14,201,2380315,,,,,,,2025-02-07,1,,,,,マック,0
1499,6030001164760,新規,0,2025-02-07,2025-02-07,株式会社Ｍａｌｌｏｗ,,株式会社,埼玉県,新座市,畑中１丁目１１番２号,,11,230,3520012,,,,,,,2025-02-07,1,,,,,マロウ,0
1500,6030001164802,新規,0,2025-02-07,2025-02-07,株式会社ＧＲ．ＳＴＥＰ,,株式会社,埼玉県,熊谷市,下川上１１３４番地１,,11,202,3600003,,,,,,,2025-02-07,1,,,,,ジーアールステップ,0
1507,6030003026075,新規,0,2025-02-07,2025-02-07,合同会社えがお,,合同会社,埼玉県,東松山市,六反町１４番地１７メゾンＡ１０１号,,11,212,3550023,,,,,,,2025-02-07,1,,,,,エガオ,0
1508,6030003026083,新規,0,2025-02-07,2025-02-07,Ｂ．Ｖ．Ｃ国際合同会社,,合同会社,埼玉県,鴻巣市,人形２丁目１－６７－２０１号,,11,217,3650037,,,,,,,2025-02-07,1,,,,,ビーヴィーシーコクサイ,0
1516,6040001137303,新規,0,2025-02-07,2025-02-07,株式会社つるさし,,株式会社,千葉県,市川市,大和田３丁目７番１５号,,12,203,2720025,,,,,,,2025-02-07,1,,,,,ツルサシ,0
1521,6050001056147,新規,0,2025-02-07,2025-02-07,株式会社ＢＬＩＳＳ,,株式会社,茨城県,水戸市,見和３丁目５７３番地５,,08,201,3100911,,,,,,,2025-02-07,1,,,,,ブリス,0
1527,6070001042608,新規,0,2025-02-07,2025-02-07,ＫＧＨＤ株式会社,,株式会社,群馬県,甘楽郡甘楽町,大字善慶寺１００番地３,,10,384,3702206,,,,,,,2025-02-07,1,,,,,ケージーエイチディー,0
1533,6080003003383,新規,0,2025-02-07,2025-02-07,合同会社御前商店,,合同会社,静岡県,静岡市葵区,大岩本町７番３０号,,22,101,4200884,,,,,,,2025-02-07,1,,,,,ミサキショウテン,0
1543,6110001039038,新規,0,2025-02-07,2025-02-07,株式会社齋藤工務店,,株式会社,新潟県,燕市,泉新９５番地６,,15,213,9590131,,,,,,,2025-02-07,1,,,,,サイトウコウムテン,0
1544,6110003005657,新規,0,2025-02-07,2025-02-07,合同会社ナイスライスファーム,,合同会社,新潟県,阿賀野市,土橋２２３番地,,15,223,9592063,,,,,,,2025-02-07,1,,,,,ナイスライスファーム,0
1560,6120001272645,新規,0,2025-02-07,2025-02-07,株式会社Ｋ‐Ｐｒｉｍｅ,,株式会社,大阪府,大阪市東成区,中本５丁目２１番２号,,27,115,5370022,,,,,,,2025-02-07,1,,,,,ケープライム,0
1561,6120001272703,新規,0,2025-02-07,2025-02-07,沐北商事株式会社,,株式会社,大阪府,大阪市阿倍野区,西田辺二丁目２番２３号、４Ｄ,,27,119,5450000,,,,,,,2025-02-07,1,,,,,モクホクショウジ,0
1562,6120001272736,新規,0,2025-02-07,2025-02-07,硅谷株式会社,,株式会社,大阪府,大阪市浪速区,敷津西１丁目５番１１号新浪速ビル４階４０４号室,,27,111,5560015,,,,,,,2025-02-07,1,,,,,ケイコク,0
1563,6120001272752,新規,0,2025-02-07,2025-02-07,株式会社Ｅｎｍａｎ,,株式会社,大阪府,大阪市淀川区,宮原１丁目１９番２３号,,27,123,5320003,,,,,,,2025-02-07,1,,,,,エンマン,0
1567,6120005024786,新規,0,2025-02-07,2025-02-07,一般社団法人ココツリー,,その他の設立登記法人,大阪府,大阪市北区,梅田１丁目２番２号大阪駅前第２ビル１２－１２,,27,127,5300001,,,,,,,2025-02-07,1,,,,,ココツリー,0
1570,6120101071014,新規,0,2025-02-07,2025-02-07,株式会社ハウジングホーム,,株式会社,大阪府,堺市堺区,新在家町東４丁３番９号,,27,141,5900964,,,,,,,2025-02-07,1,,,,,ハウジングホーム,0
1571,6120101071030,新規,0,2025-02-07,2025-02-07,株式会社ウェブガイド,,株式会社,大阪府,阪南市,光陽台１丁目１３番５号,,27,232,5990223,,,,,,,2025-02-07,1,,,,,ウェブガイド,0
1572,6120101071039,新規,0,2025-02-07,2025-02-07,株式会社アンダースコア,,株式会社,大阪府,泉佐野市,高松西１丁目２０５７－１５,,27,213,5980016,,,,,,,2025-02-07,1,,,,,アンダースコア,0
1576,6122001038877,新規,0,2025-02-07,2025-02-07,辰巳不動産株式会社,,株式会社,大阪府,東大阪市,足代新町１３番２３－６０３号,,27,227,5770057,,,,,,,2025-02-07,1,,,,,タツミフドウサン,0
1580,6140001137342,新規,0,2025-02-07,2025-02-07,株式会社ＴＡＴＡ,,株式会社,兵庫県,神戸市東灘区,岡本９丁目６－１８－１０３,,28,101,6580072,,,,,,,2025-02-07,1,,,,,タタ,0
1581,6140001137350,新規,0,2025-02-07,2025-02-07,株式会社エスティエンジニアリング,,株式会社,兵庫県,川西市,東多田２丁目２４番２１号,,28,217,6660122,,,,,,,2025-02-07,1,,,,,エスティエンジニアリング,0
1582,6140001137367,新規,0,2025-02-07,2025-02-07,株式会社Ｓｏｌｅｉｌ　ｌｅｖａｎｔ２５,,株式会社,兵庫県,神戸市灘区,山田町３丁目１番４０－３１３号,,28,102,6570064,,,,,,,2025-02-07,1,,,,,ソレイユルヴァンドゥサンク,0
1584,6140003021643,新規,0,2025-02-07,2025-02-07,合同会社ＳＡＳＴＥＲ,,合同会社,兵庫県,芦屋市,西山町２３番１４－２０１号,,28,206,6590083,,,,,,,2025-02-07,1,,,,,サスター,0
1586,6160001026535,新規,0,2025-02-07,2025-02-07,株式会社ミリミリ,,株式会社,滋賀県,守山市,播磨田町１２５７番地５,,25,207,5240012,,,,,,,2025-02-07,1,,,,,ミリミリ,0
1601,6180001165331,新規,0,2025-02-07,2025-02-07,ミヤタ株式会社,,株式会社,愛知県,一宮市,浜町５丁目３番地,,23,203,4910034,,,,,,,2025-02-07,1,,,,,ミヤタ,0
1603,6180003027950,新規,0,2025-02-07,2025-02-07,Ｐａｐｏｎｉ合同会社,,合同会社,愛知県,弥富市,鯏浦町上六６８番地５,,23,235,4980023,,,,,,,2025-02-07,1,,,,,パポニ,0
1604,6180003027975,新規,0,2025-02-07,2025-02-07,Ｈａｖｅｉｔ合同会社,,合同会社,愛知県,名古屋市中村区,名駅３丁目４－１０アルティメイト名駅１ｓｔ２階,,23,105,4500002,,,,,,,2025-02-07,1,,,,,ハビット,0
1606,6180005020945,新規,0,2025-02-07,2025-02-07,一般社団法人いつつぼし,,その他の設立登記法人,愛知県,名古屋市東区,東片端町２３番地,,23,102,4610015,,,,,,,2025-02-07,1,,,,,イツツボシ,0
1608,6180301039499,新規,0,2025-02-07,2025-02-07,株式会社ＭＡＲＵＫＥＩ,,株式会社,愛知県,西尾市,矢曽根町上前田４１番地,,23,213,4450872,,,,,,,2025-02-07,1,,,,,マルケイ,0
1609,6180301039516,新規,0,2025-02-07,2025-02-07,株式会社ｎｅｘｕｓ,,株式会社,愛知県,豊橋市,飯村北３丁目１９番地の７,,23,201,4400834,,,,,,,2025-02-07,1,,,,,ネクサス,0
1613,6190001031986,新規,0,2025-02-07,2025-02-07,ＡＬ不動産株式会社,,株式会社,三重県,四日市市,中川原３丁目７番２４号,,24,202,5100833,,,,,,,2025-02-07,1,,,,,エーエルフドウサン,0
1619,6210001020053,新規,0,2025-02-07,2025-02-07,刀祢塗装株式会社,,株式会社,福井県,越前市,粟田部町第３７号６番地,,18,209,9150242,,,,,,,2025-02-07,1,,,,,トネトソウ,0
1621,6220001026479,新規,0,2025-02-07,2025-02-07,株式会社エイシン,,株式会社,石川県,白山市,新成３丁目２５２番地１,,17,210,9240020,,,,,,,2025-02-07,1,,,,,エイシン,0
1622,6220003003947,新規,0,2025-02-07,2025-02-07,合同会社ＢＩＧ　ＭＯＯＮ,,合同会社,石川県,小松市,長崎町３丁目１０２,,17,203,9230004,,,,,,,2025-02-07,1,,,,,ビッグムーン,0
1623,6230001020737,新規,0,2025-02-07,2025-02-07,株式会社でんき村,,株式会社,富山県,滑川市,四ツ屋２５２番地,,16,206,9360807,,,,,,,2025-02-07,1,,,,,デンキムラ,0
1626,6240001064510,新規,0,2025-02-07,2025-02-07,カジワラヨウスケ建築設計株式会社,,株式会社,広島県,広島市西区,大芝１丁目９番１１大芝コーポ１０１,,34,104,7330001,,,,,,,2025-02-07,1,,,,,カジワラヨウスケケンチクセッケイ,0
1629,6240003007054,新規,0,2025-02-07,2025-02-07,合同会社生きがいトラベル,,合同会社,広島県,尾道市,西土堂町８番１７号,,34,205,7220032,,,,,,,2025-02-07,1,,,,,イキガイトラベル,0
1634,6260001039881,新規,0,2025-02-07,2025-02-07,株式会社磯沢食品,,株式会社,岡山県,備前市,日生町日生２３０４番地,,33,211,7013204,,,,,,,2025-02-07,1,,,,,イソサワショクヒン,0
1642,6290001108865,新規,0,2025-02-07,2025-02-07,株式会社山本レッカーサービス,,株式会社,福岡県,大野城市,大城３丁目２８番２２号,,40,219,8160911,,,,,,,2025-02-07,1,,,,,ヤマモトレッカーサービス,0
1643,6290001108881,新規,0,2025-02-07,2025-02-07,トータル電機サービス株式会社,,株式会社,福岡県,みやま市,瀬高町長田１８３３番地,,40,229,8350007,,,,,,,2025-02-07,1,,,,,トータルデンキサービス,0
1653,6330001032879,新規,0,2025-02-07,2025-02-07,株式会社ハナウタカジツ,,株式会社,熊本県,熊本市北区,植木町轟１７８０番地１,,43,105,8610155,,,,,,,2025-02-07,1,,,,,ハナウタカジツ,0
1658,6350003004841,新規,0,2025-02-07,2025-02-07,合同会社リストジャパン,,合同会社,宮崎県,宮崎市,佐土原町西上那珂５６３０番地,,45,201,8800302,,,,,,,2025-02-07,1,,,,,リストジャパン,0
1665,6360003014674,新規,0,2025-02-07,2025-02-07,合同会社まかちょーけ,,合同会社,沖縄県,中頭郡北中城村,字島袋７０３番地３－１０６,,47,327,9012301,,,,,,,2025-02-07,1,,,,,マカチョーケ,0
1676,6430001093647,新規,0,2025-02-07,2025-02-07,株式会社イノミル,,株式会社,北海道,札幌市厚別区,青葉町７丁目９番１７号,,01,108,0040021,,,,,,,2025-02-07,1,,,,,イノミル,0
1679,6430003017257,新規,0,2025-02-07,2025-02-07,合同会社Ｎｏｒｔｒａｄｅ,,合同会社,北海道,札幌市豊平区,月寒東一条１０丁目２－１－８０２,,01,105,0620051,,,,,,,2025-02-07,1,,,,,ノルトレード,0
1680,6470001020572,新規,0,2025-02-07,2025-02-07,ＹＹ企画株式会社,,株式会社,香川県,丸亀市,塩屋町３丁目１０番４５号,,37,202,7630065,,,,,,,2025-02-07,1,,,,,ワイワイキカク,0
1681,6480001012734,新規,0,2025-02-07,2025-02-07,株式会社ＷＡＱＨＡＰＩ,,株式会社,徳島県,名西郡神山町,神領字西上角１７５番地１神山まるごと高専ガレージ,,36,342,7713310,,,,,,,2025-02-07,1,,,,,ワクハピ,0
1682,6500001026137,新規,0,2025-02-07,2025-02-07,アリアワークス株式会社,,株式会社,愛媛県,松山市,北梅本町２２４５番地,,38,201,7910242,,,,,,,2025-02-07,1,,,,,アリアワークス,0
1684,6500003003431,新規,0,2025-02-07,2025-02-07,合同会社空海の郷,,合同会社,愛媛県,東温市,志津川南４丁目８番地９ＦｉｏｒｅＲｉｃｃｏ１１１号,,38,215,7910206,,,,,,,2025-02-07,1,,,,,クウカイノサト,0
1685,6700150129141,新規,0,2025-02-07,2025-02-07,Ｓ．Ｒ．Ｓ．ＭＯＴＯＲＳ,,外国会社等,千葉県,山武市,木原１４００番地オフィス１,,12,237,2891212,スリランカ民主社会主義共和国、キャンディ、アクラナ、ブルゴハテンナ、Ｎｏ．６６,,,,,,2025-02-07,1,,,,,エスアールエスモータース,0
1693,7010001252095,新規,0,2025-02-07,2025-02-07,株式会社タックスキーパー,,株式会社,東京都,文京区,春日２丁目１９番１２号小石川ウォールズ６階,,13,105,1120003,,,,,,,2025-02-07,1,,,,,タックスキーパー,0
1694,7010001252104,新規,0,2025-02-07,2025-02-07,株式会社凌岳,,株式会社,東京都,中央区,新川２丁目１８番４号八重洲マンション４０１号室,,13,102,1040033,,,,,,,2025-02-07,1,,,,,リョウガク,0
1695,7010001252129,新規,0,2025-02-07,2025-02-07,株式会社Ｑｕａｓａｒ,,株式会社,東京都,中央区,京橋３丁目１－１東京スクエアガーデン１４Ｆ,,13,102,1040031,,,,,,,2025-02-07,1,,,,,クエーサー,0
1696,7010003046306,新規,0,2025-02-07,2025-02-07,合同会社ブリッジマン,,合同会社,東京都,文京区,弥生２丁目１０－１２,,13,105,1130032,,,,,,,2025-02-07,1,,,,,ブリッジマン,0
1697,7010005039514,新規,0,2025-02-07,2025-02-07,一般社団法人日本臨床皮膚科医会,,その他の設立登記法人,東京都,千代田区,富士見２丁目３番２号福山ビル,,13,101,1020071,,,,,,,2025-02-07,1,,,,,ニホンリンショウヒフカイカイ,0
1699,7010103002506,新規,0,2025-02-07,2025-02-07,ＲｅｄＬｏｇｉｃ合同会社,,合同会社,東京都,八王子市,堀之内７２７－３２東山１１－９,,13,201,1920355,,,,,,,2025-02-07,1,,,,,レッドロジック,0
1703,7010401187932,新規,0,2025-02-07,2025-02-07,株式会社ＳＳＣ　Ｊａｐａｎ,,株式会社,東京都,港区,赤坂２丁目８番１４－４０７号,,13,103,1070052,,,,,,,2025-02-07,1,,,,,エスエスシージャパン,0
1704,7010401188014,新規,0,2025-02-07,2025-02-07,株式会社ＴＧＸ　ＧＯＬＦ,,株式会社,東京都,港区,北青山１丁目３番１号アールキューブ青山３階,,13,103,1070061,,,,,,,2025-02-07,1,,,,,ティージーエックスゴルフ,0
1705,7010403034364,新規,0,2025-02-07,2025-02-07,Ａｒｔ　Ｓｐｅｃｉａｌ　Ｓｉｔｕａｔｉｏｎｓ　Ｆｕｎｄ合同会社,,合同会社,東京都,港区,赤坂１丁目１４番５号アークヒルズ・エグゼクティブタワーＳ９０１,,13,103,1070052,,,,,,,2025-02-07,1,,,,,アートスペシャルシチュエーションズファンド,0
1709,7010601066746,新規,0,2025-02-07,2025-02-07,株式会社久米ネイバーサービス,,株式会社,東京都,江東区,潮見２丁目１番２２号,,13,108,1350052,,,,,,,2025-02-07,1,,,,,クメネイバーサービス,0
1713,7010803005279,新規,0,2025-02-07,2025-02-07,合同会社双葉建装,,合同会社,東京都,大田区,西蒲田７丁目７－７メゾン蒲田５０３,,13,111,1440051,,,,,,,2025-02-07,1,,,,,フタバケンソウ,0
1715,7010901056769,新規,0,2025-02-07,2025-02-07,株式会社Ｇｏｌｄ　Ｂｅａｔｓ　Ｆａｃｔｏｒｙ,,株式会社,東京都,世田谷区,野沢３丁目１５番１－３０６号,,13,112,1540003,,,,,,,2025-02-07,1,,,,,ゴールドビーツファクトリー,0
1717,7010903009691,新規,0,2025-02-07,2025-02-07,合同会社ＰＥＲＤＯＮＮＡ,,合同会社,東京都,世田谷区,玉川２丁目２４番２４－２１０号,,13,112,1580094,,,,,,,2025-02-07,1,,,,,ペルドンナ,0
1724,7011001166970,新規,0,2025-02-07,2025-02-07,株式会社ＢＯＪＯＬＡＹ,,株式会社,東京都,渋谷区,渋谷２丁目１９－１５宮益坂ビルディング６０９,,13,113,1500002,,,,,,,2025-02-07,1,,,,,ボジョレー,0
1725,7011001167531,新規,0,2025-02-07,2025-02-07,株式会社ＨＹＺＥ,,株式会社,東京都,渋谷区,道玄坂１丁目１０番８号渋谷道玄坂東急ビル２Ｆ－Ｃ,,13,113,1500043,,,,,,,2025-02-07,1,,,,,ヘイズ,0
1726,7011001167580,新規,0,2025-02-07,2025-02-07,株式会社アドクレスト,,株式会社,東京都,渋谷区,恵比寿４丁目６番１号,,13,113,1500013,,,,,,,2025-02-07,1,,,,,アドクレスト,0
1727,7011001167589,新規,0,2025-02-07,2025-02-07,株式会社サポートオフィス,,株式会社,東京都,渋谷区,桜丘町１５番１４号フジビル４０・７Ｆ,,13,113,1500031,,,,,,,2025-02-07,1,,,,,サポートオフィス,0
1728,7011005010877,新規,0,2025-02-07,2025-02-07,一般社団法人キュリアスモンスター,,その他の設立登記法人,東京都,渋谷区,神宮前６丁目３５番３号,,13,113,1500001,,,,,,,2025-02-07,1,,,,,キュリアスモンスター,0
1734,7011101110548,新規,0,2025-02-07,2025-02-07,株式会社Ｉｓｈｉｚｕ．Ｅ,,株式会社,東京都,新宿区,西新宿３丁目３－１３西新宿水間ビル２Ｆ,,13,104,1600023,,,,,,,2025-02-07,1,,,,,イシズエ,0
1735,7011101110580,新規,0,2025-02-07,2025-02-07,株式会社ＢＲＯＡＤＷＡＹ,,株式会社,東京都,新宿区,歌舞伎町１丁目３－１５ザ・カテリーナビル７ＦＦ室,,13,104,1600021,,,,,,,2025-02-07,1,,,,,ブロードウェイ,0
1736,7011103015497,新規,0,2025-02-07,2025-02-07,合同会社オーシャンリンク,,合同会社,東京都,新宿区,西新宿３丁目５－１２トーカン新宿第２キャステール２０９,,13,104,1600023,,,,,,,2025-02-07,1,,,,,オーシャンリンク,0
1737,7011103015506,新規,0,2025-02-07,2025-02-07,合同会社Ｚｅｒｏ　Ｏｎｅ．,,合同会社,東京都,新宿区,西新宿３丁目３番１３号西新宿水間ビル６階,,13,104,1600023,,,,,,,2025-02-07,1,,,,,ゼロワン,0
1741,7011105011321,新規,0,2025-02-07,2025-02-07,一般社団法人日本健康長寿応用医学会,,その他の設立登記法人,東京都,新宿区,西新宿１丁目４－１１－５２０,,13,104,1600023,,,,,,,2025-02-07,1,,,,,ニホンケンコウチョウジュオウヨウイガクカイ,0
1742,7011303005414,新規,0,2025-02-07,2025-02-07,Ｂｌｏｏｍｉｎｇ　Ｌｏｔｕｓ合同会社,,合同会社,東京都,杉並区,下高井戸２丁目１０番３－１３０９号,,13,115,1680073,,,,,,,2025-02-07,1,,,,,ブルーミングロータス,0
1743,7011501031674,新規,0,2025-02-07,2025-02-07,株式会社栄,,株式会社,東京都,荒川区,南千住８丁目３－２北弐番館６０９,,13,118,1160003,,,,,,,2025-02-07,1,,,,,サカエ,0
1755,7012805003310,新規,0,2025-02-07,2025-02-07,一般社団法人日本美容医療総合学会,,その他の設立登記法人,東京都,立川市,柴崎町３丁目１１番２０号グリーンウッドスキンクリニック立川３階,,13,202,1900023,,,,,,,2025-02-07,1,,,,,ニホンビヨウイリョウソウゴウガッカイ,0
1756,7013105001863,新規,0,2025-02-07,2025-02-07,一般社団法人国際芸術気功と武術の会,,その他の設立登記法人,東京都,青梅市,上町３６２番地の１青梅ガーデンヒルズＰＡＲＴ３－８０１,,13,205,1980081,,,,,,,2025-02-07,1,,,,,コクサイゲイジュツキコウトブジュツノカイ,0
1760,7013301053758,新規,0,2025-02-07,2025-02-07,株式会社デイブルーム,,株式会社,東京都,豊島区,要町１丁目１０番８号Ｄｏｍｕｓ．Ｋ１０３,,13,116,1710043,,,,,,,2025-02-07,1,,,,,デイブルーム,0
1768,7020003027718,新規,0,2025-02-07,2025-02-07,ｍａｄｒｅ合同会社,,合同会社,神奈川県,川崎市麻生区,百合丘２丁目１１－１－１０７,,14,137,2150011,,,,,,,2025-02-07,1,,,,,マードレ,0
1769,7020003027742,新規,0,2025-02-07,2025-02-07,合同会社さらさ７,,合同会社,神奈川県,横浜市港北区,樽町１丁目１０番２２号玉川ハイツ２０３,,14,109,2220001,,,,,,,2025-02-07,1,,,,,サラサナナ,0
1770,7020003027750,新規,0,2025-02-07,2025-02-07,ＮｏｖａＬｅａｐ合同会社,,合同会社,神奈川県,川崎市幸区,鹿島田２丁目２番７－４０３号,,14,132,2120058,,,,,,,2025-02-07,1,,,,,ノバリープ,0
1774,7021001084429,新規,0,2025-02-07,2025-02-07,ＮＥＷ　ＢＥＧＩＮＮＩＮＧ株式会社,,株式会社,神奈川県,藤沢市,藤沢１０６３－１０リバーストーン湘南１０１,,14,205,2510052,,,,,,,2025-02-07,1,,,,,ニュービギニング,0
1775,7021001084437,新規,0,2025-02-07,2025-02-07,Ｌｏｖｅ＆Ｒｕｎ株式会社,,株式会社,神奈川県,藤沢市,羽鳥１丁目１番１０～１０９号,,14,205,2510056,,,,,,,2025-02-07,1,,,,,ラブアンドラン,0
1789,7030001164784,新規,0,2025-02-07,2025-02-07,株式会社大善,,株式会社,埼玉県,春日部市,牛島７５７番地７,,11,214,3440004,,,,,,,2025-02-07,1,,,,,ダイゼン,0
1808,7040005022657,新規,0,2025-02-07,2025-02-07,ＮＰＯ法人ゆうき農園みよし村,,その他の設立登記法人,千葉県,南房総市,千代６２番地,,12,234,2940815,,,,,,,2025-02-07,1,,,,,ユウキノウエンミヨシムラ,0
1809,7050001056146,新規,0,2025-02-07,2025-02-07,株式会社マノーラ・インターナショナル,,株式会社,茨城県,鹿嶋市,宮下５丁目２番地７,,08,222,3140032,,,,,,,2025-02-07,1,,,,,マノーラインターナショナル,0
1813,7080101025304,新規,0,2025-02-07,2025-02-07,アイケー・ホーム株式会社,,株式会社,静岡県,田方郡函南町,肥田４１１番地の１,,22,325,4190125,,,,,,,2025-02-07,1,,,,,アイケーホーム,0
1817,7080403005202,新規,0,2025-02-07,2025-02-07,ａｓｈｉａｔｏ合同会社,,合同会社,静岡県,浜松市中央区,鍛冶町１００－１,,22,138,4300933,,,,,,,2025-02-07,1,,,,,アシアト,0
1820,7100001038262,新規,0,2025-02-07,2025-02-07,株式会社ＡＳＣＥＮＤ　ＣＬＬＥＣＴＩＶＥ,,株式会社,長野県,長野市,篠ノ井布施五明３４３７,,20,201,3888011,,,,,,,2025-02-07,1,,,,,アセンドコレクティブ,0
1831,7120001272652,新規,0,2025-02-07,2025-02-07,株式会社ＣＯ‐ＩＮ,,株式会社,大阪府,大阪市北区,兎我野町８番１２号,,27,127,5300056,,,,,,,2025-02-07,1,,,,,コイン,0
1832,7120001272660,新規,0,2025-02-07,2025-02-07,潤天株式会社,,株式会社,大阪府,大阪市西区,北堀江１丁目１４番２３号１０１,,27,106,5500014,,,,,,,2025-02-07,1,,,,,ジュンテン,0
1833,7120001272702,新規,0,2025-02-07,2025-02-07,株式会社Ｇ．Ｎプロモーション,,株式会社,大阪府,大阪市北区,梅田１丁目１番３号大阪駅前第３ビル２９階,,27,127,5300001,,,,,,,2025-02-07,1,,,,,ジーエヌプロモーション,0
1834,7120001272719,新規,0,2025-02-07,2025-02-07,澄境株式会社,,株式会社,大阪府,大阪市都島区,中野町２丁目５番１３号,,27,102,5340027,,,,,,,2025-02-07,1,,,,,チョウキョウ,0
1835,7120001272727,新規,0,2025-02-07,2025-02-07,東昇国際商事株式会社,,株式会社,大阪府,大阪市淀川区,西宮原１丁目７番１５号ネオハイツ第３新大阪１０１０室,,27,123,5320004,,,,,,,2025-02-07,1,,,,,トウショウコクサイショウジ,0
1841,7120003028540,新規,0,2025-02-07,2025-02-07,合同会社ＲＥＧＩＳＴＡ,,合同会社,大阪府,大阪市中央区,東心斎橋１丁目８番１１号,,27,128,5420083,,,,,,,2025-02-07,1,,,,,レジスタ,0
1842,7120003028573,新規,0,2025-02-07,2025-02-07,合同会社和,,合同会社,大阪府,大阪市生野区,新今里３丁目１番４－８０２号,,27,116,5440001,,,,,,,2025-02-07,1,,,,,ワ,0
1843,7120003028581,新規,0,2025-02-07,2025-02-07,ＳＹＣＬＡ合同会社,,合同会社,大阪府,大阪市天王寺区,生玉前町５－２８－９０１,,27,109,5430072,,,,,,,2025-02-07,1,,,,,シクラ,0
1844,7120103006272,新規,0,2025-02-07,2025-02-07,ＧＵＲＡＮＳ　ＩＮＴＥＲＮＡＴＩＯＮＡＬＳ合同会社,,合同会社,大阪府,泉佐野市,上町２丁目６番４１号,,27,213,5980007,,,,,,,2025-02-07,1,,,,,グランズインターナショナル,0
1849,7122001038876,新規,0,2025-02-07,2025-02-07,株式会社ミキハウステック,,株式会社,大阪府,八尾市,若林町１丁目７６番２号,,27,212,5810038,,,,,,,2025-02-07,1,,,,,ミキハウステック,0
1853,7130001078958,新規,0,2025-02-07,2025-02-07,株式会社パラットル,,株式会社,京都府,京都市上京区,今小路通御前西入紙屋川町８５４番地コーポラス梅香２１号,,26,102,6020000,,,,,,,2025-02-07,1,,,,,パラットル,0
1854,7130001078966,新規,0,2025-02-07,2025-02-07,株式会社三之助,,株式会社,京都府,京都市伏見区,深草山村町１０１９番地,,26,109,6120082,,,,,,,2025-02-07,1,,,,,サンノスケ,0
1860,7140001137317,新規,0,2025-02-07,2025-02-07,株式会社知的好奇心,,株式会社,兵庫県,西宮市,山口町上山口２丁目８－６,,28,204,6511421,,,,,,,2025-02-07,1,,,,,チテキコウキシン,0
1861,7140001137333,新規,0,2025-02-07,2025-02-07,株式会社Ｐａｂｅｌｌ,,株式会社,兵庫県,尼崎市,常光寺２丁目６番５８号,,28,202,6600811,,,,,,,2025-02-07,1,,,,,パベル,0
1862,7140001137366,新規,0,2025-02-07,2025-02-07,六菱株式会社,,株式会社,兵庫県,尼崎市,神田北通４丁目１０３－３,,28,202,6600883,,,,,,,2025-02-07,1,,,,,ロクビシ,0
1866,7140003021642,新規,0,2025-02-07,2025-02-07,銀の雫合同会社,,合同会社,兵庫県,宍粟市,波賀町安賀３４番地３,,28,227,6714241,,,,,,,2025-02-07,1,,,,,ギンノシズク,0
1879,7180003027974,新規,0,2025-02-07,2025-02-07,合同会社ＭＩＮＲＡＫＵ,,合同会社,愛知県,大府市,米田町５丁目１４２番地,,23,223,4740043,,,,,,,2025-02-07,1,,,,,ミンラク,0
1883,7190001031985,新規,0,2025-02-07,2025-02-07,株式会社佐藤空調設備,,株式会社,三重県,津市,豊が丘４丁目３７番５号,,24,201,5142222,,,,,,,2025-02-07,1,,,,,サトウクウチョウセツビ,0
1884,7190001031993,新規,0,2025-02-07,2025-02-07,株式会社ＭＩＫＨＡ　ＣＯＲＰＯＲＡＴＩＯＮ,,株式会社,三重県,桑名市,大字下深谷部３４１８番地,,24,205,5110808,,,,,,,2025-02-07,1,,,,,ミハコーポレーション,0
1885,7200001043418,新規,0,2025-02-07,2025-02-07,つばさ企画株式会社,,株式会社,岐阜県,岐阜市,金宝町１丁目１５番地みゆきビル１Ｆ,,21,201,5008847,,,,,,,2025-02-07,1,,,,,ツバサキカク,0
1888,7210001020052,新規,0,2025-02-07,2025-02-07,株式会社プリントクリエイション,,株式会社,福井県,鯖江市,深江町８番５号,,18,207,9160052,,,,,,,2025-02-07,1,,,,,プリントクリエイション,0
1890,7220001026486,新規,0,2025-02-07,2025-02-07,株式会社リンクスパイア,,株式会社,石川県,金沢市,北町乙７２番地８,,17,201,9200055,,,,,,,2025-02-07,1,,,,,リンクスパイア,0
1892,7230001020736,新規,0,2025-02-07,2025-02-07,みらい不動産株式会社,,株式会社,富山県,富山市,婦中町宮ケ島１１番地１ＷＥＳＴＳＩＤＥ‐Ｂ,,16,201,9392705,,,,,,,2025-02-07,1,,,,,ミライフドウサン,0
1902,7250001020998,新規,0,2025-02-07,2025-02-07,Ｔｈｅ　Ｅａｒｔｈ　Ｆｒｉｅｎｄｌｙ株式会社,,株式会社,山口県,下関市,小月駅前１丁目４番２１号３階,,35,201,7501143,,,,,,,2025-02-07,1,,,,,ジアースフレンドリー,0
1905,7260001039897,新規,0,2025-02-07,2025-02-07,株式会社大国,,株式会社,岡山県,岡山市北区,島田本町２丁目２番９号Ｖｉｅｌｉｂｒｅ２０３号室,,33,101,7000033,,,,,,,2025-02-07,1,,,,,タイコク,0
1907,7260003005055,新規,0,2025-02-07,2025-02-07,合同会社８７ＷＯＲＫＳ,,合同会社,岡山県,赤磐市,山陽２丁目８－７,,33,213,7090827,,,,,,,2025-02-07,1,,,,,ハチナナワークス,0
1911,7280001009353,新規,0,2025-02-07,2025-02-07,株式会社たなべの匠味,,株式会社,島根県,雲南市,吉田町吉田２４０７番地,,32,209,6902801,,,,,,,2025-02-07,1,,,,,タナベノタクミ,0
1917,7290001108848,新規,0,2025-02-07,2025-02-07,ビルドアップ株式会社,,株式会社,福岡県,福岡市中央区,高砂２丁目１０番１３－２０１号グランドメゾン平尾ザ・スタイル,,40,133,8100011,,,,,,,2025-02-07,1,,,,,ビルドアップ,0
1918,7290001108856,新規,0,2025-02-07,2025-02-07,株式会社ＴＯＮＹ,,株式会社,福岡県,福岡市博多区,博多駅前１丁目２３番２号ＰａｒｋＦｒｏｎｔ博多駅前１丁目５Ｆ－Ｂ,,40,132,8120011,,,,,,,2025-02-07,1,,,,,トニー,0
1919,7290001108864,新規,0,2025-02-07,2025-02-07,株式会社ＡＢＵ,,株式会社,福岡県,福津市,福間南１丁目２４番１１号,,40,224,8113212,,,,,,,2025-02-07,1,,,,,アブー,0
1920,7290001108872,新規,0,2025-02-07,2025-02-07,株式会社ＳＯＬＡＲＩＳ,,株式会社,福岡県,福岡市中央区,天神２丁目３番１０号天神パインクレスト３１９号室,,40,133,8100001,,,,,,,2025-02-07,1,,,,,ソラリス,0
1922,7290003016388,新規,0,2025-02-07,2025-02-07,合同会社おいしか屋,,合同会社,福岡県,八女市,立花町上辺春４９１０番地１,,40,210,8340083,,,,,,,2025-02-07,1,,,,,オイシカヤ,0
1933,7360003014673,新規,0,2025-02-07,2025-02-07,合同会社ＴＫ,,合同会社,沖縄県,南城市,大里字大城７００番地メゾンエスペランサ１－Ｄ,,47,215,9011203,,,,,,,2025-02-07,1,,,,,ティーケー,0
1934,7370001052220,新規,0,2025-02-07,2025-02-07,株式会社ＨｉＧｒｅｅｎ,,株式会社,宮城県,仙台市青葉区,北目町２番２２号,,04,101,9800023,,,,,,,2025-02-07,1,,,,,ハイグリーン,0
1946,7430001093646,新規,0,2025-02-07,2025-02-07,トラスト・アンド・ストラテジー株式会社,,株式会社,北海道,札幌市厚別区,厚別北六条４丁目２番５号,,01,108,0040076,,,,,,,2025-02-07,1,,,,,トラストアンドストラテジー,0
1948,7450001014526,新規,0,2025-02-07,2025-02-07,株式会社Ｒｏｏｔｉｘ８,,株式会社,北海道,名寄市,風連町字瑞生３４６４番地,,01,221,0980508,,,,,,,2025-02-07,1,,,,,ルーティックスエイト,0
1951,7480001012741,新規,0,2025-02-07,2025-02-07,とくぎんトモニリンクアップ株式会社,,株式会社,徳島県,徳島市,富田浜１丁目４１番地,,36,201,7700931,,,,,,,2025-02-07,1,,,,,トクギントモニリンクアップ,0
1952,7490001010959,新規,0,2025-02-07,2025-02-07,株式会社斧板車体,,株式会社,高知県,土佐市,宇佐町宇佐２１７０番地１,,39,205,7811161,,,,,,,2025-02-07,1,,,,,オノバンシャタイ,0
1955,7500001026136,新規,0,2025-02-07,2025-02-07,株式会社ＯＨＡＮＡ,,株式会社,愛媛県,西条市,下島山甲２２０番地１５１,,38,206,7930006,,,,,,,2025-02-07,1,,,,,オハナ,0
1956,7700150129140,新規,0,2025-02-07,2025-02-07,Ｙ．Ｍ．ＴＲＡＤＩＮＧ,,外国会社等,千葉県,山武市,木原１４００番地オフィス６,,12,237,2891212,スリランカ民主社会主義共和国、キャンディ、カトゥガストタ、クルネガラロード、Ｎｏ．２４４,,,,,,2025-02-07,1,,,,,ワイエムトレーデイング,0
1964,8010003046338,新規,0,2025-02-07,2025-02-07,合同会社ＳＣ,,合同会社,東京都,中央区,銀座１丁目２２番１１号銀座大竹ビジデンス２Ｆ,,13,102,1040061,,,,,,,2025-02-07,1,,,,,エスシー,0
1965,8010005039505,新規,0,2025-02-07,2025-02-07,一般社団法人こころとからだオンライン診療推進協議会,,その他の設立登記法人,東京都,千代田区,鍛冶町１丁目８番２号スズトミビル７階,,13,101,1010044,,,,,,,2025-02-07,1,,,,,ココロトカラダオンラインシンリョウスイシンキョウギカイ,0
1967,8010005039538,新規,0,2025-02-07,2025-02-07,一般社団法人日本完全固体電池協会,,その他の設立登記法人,東京都,文京区,本郷４丁目２４－８－４階,,13,105,1130033,,,,,,,2025-02-07,1,,,,,ニホンカンゼンコタイデンチキョウカイ,0
1968,8010101016507,新規,0,2025-02-07,2025-02-07,株式会社モア,,株式会社,東京都,八王子市,南大沢５丁目２１番地３２,,13,201,1920364,,,,,,,2025-02-07,1,,,,,モア,0
1975,8010401188046,新規,0,2025-02-07,2025-02-07,ユイブリッジマーケティング株式会社,,株式会社,東京都,港区,新橋４丁目１４番１新橋ＡＵＮＢＬＤＧ４階,,13,103,1050004,,,,,,,2025-02-07,1,,,,,ユイブリッジマーケティング,0
1976,8010401188062,新規,0,2025-02-07,2025-02-07,株式会社ブルー・ドット,,株式会社,東京都,港区,南青山２丁目２番１５号,,13,103,1070062,,,,,,,2025-02-07,1,,,,,ブルードット,0
1977,8010401188120,新規,0,2025-02-07,2025-02-07,株式会社たべるーと,,株式会社,東京都,港区,芝２丁目１３番４号住友不動産芝ビル４号館４階,,13,103,1050014,,,,,,,2025-02-07,1,,,,,タベルート,0
1978,8010401188145,新規,0,2025-02-07,2025-02-07,株式会社Ｌｉｆｔ　Ｆｕｎｃｔｉｏｎ,,株式会社,東京都,港区,南青山３丁目１番３６号南青山丸竹ビル６Ｆ,,13,103,1070062,,,,,,,2025-02-07,1,,,,,リフトファンクション,0
1979,8010403034355,新規,0,2025-02-07,2025-02-07,Ｍａｃａｎマスターリース合同会社,,合同会社,東京都,港区,虎ノ門２丁目６番１号,,13,103,1050001,,,,,,,2025-02-07,1,,,,,マカンマスターリース,0
1984,8010603011369,新規,0,2025-02-07,2025-02-07,八八商事合同会社,,合同会社,東京都,墨田区,京島１丁目８－８Ｂｉｚｃｏｍｆｏｒｔ曳舟７号室,,13,107,1310046,,,,,,,2025-02-07,1,,,,,ハチハチショウジ,0
1985,8010701047190,新規,0,2025-02-07,2025-02-07,株式会社フクミー,,株式会社,東京都,品川区,北品川５丁目５－１５大崎ブライトコア４階,,13,109,1410001,,,,,,,2025-02-07,1,,,,,フクミー,0
1995,8011001167571,新規,0,2025-02-07,2025-02-07,障害者雇用クラウドサテライトオフィス株式会社,,株式会社,東京都,渋谷区,道玄坂１丁目１５番１４号ＳＴ渋谷ビル６階,,13,113,1500043,,,,,,,2025-02-07,1,,,,,ショウガイシャコヨウクラウドサテライトオフィス,0
1996,8011001167588,新規,0,2025-02-07,2025-02-07,株式会社サイフォンズ,,株式会社,東京都,渋谷区,桜丘町１５番１４号フジビル４０・７Ｆ,,13,113,1500031,,,,,,,2025-02-07,1,,,,,サイフォンズ,0
2003,8011101110522,新規,0,2025-02-07,2025-02-07,株式会社Ｍｉｋａｇｅ,,株式会社,東京都,新宿区,西新宿３丁目３番１３号西新宿水間ビル２Ｆ,,13,104,1600023,,,,,,,2025-02-07,1,,,,,ミカゲ,0
2004,8011101110530,新規,0,2025-02-07,2025-02-07,株式会社ＲＩＮＸ,,株式会社,東京都,新宿区,新宿６丁目２２番５号エスティメゾン東新宿４０９号,,13,104,1600022,,,,,,,2025-02-07,1,,,,,リンクス,0
2005,8011101110539,新規,0,2025-02-07,2025-02-07,株式会社ＲＥＬ,,株式会社,東京都,新宿区,西新宿８丁目１番２号,,13,104,1600023,,,,,,,2025-02-07,1,,,,,レル,0
2010,8011305003027,新規,0,2025-02-07,2025-02-07,一般社団法人ＰＥＡＣＥ　ＩＮＣＬＵＳＩＯＮ　ＰＩＥＣＥ,,その他の設立登記法人,東京都,杉並区,西荻北４丁目５番３０号セイフウハウスＩＩ２０２,00137937,13,115,1670042,,,,,,,2025-02-07,1,,,,,ピースインクルージョンピース,0
2011,8011501031681,新規,0,2025-02-07,2025-02-07,Ｇｉｄａ　Ｇｒｏｗｔｈ株式会社,,株式会社,東京都,荒川区,西日暮里１丁目３８番１３－７０１号,,13,118,1160013,,,,,,,2025-02-07,1,,,,,ギダグロース,0
2012,8011503006418,新規,0,2025-02-07,2025-02-07,合同会社ＴＣＬ,,合同会社,東京都,北区,滝野川６丁目８番６－１０１号カスカータ西巣鴨,,13,117,1140023,,,,,,,2025-02-07,1,,,,,ティーシーエル,0
2016,8011703004122,新規,0,2025-02-07,2025-02-07,ＹＵＬＩ合同会社,,合同会社,東京都,江戸川区,西小岩５丁目１３番１３－１０５号,,13,123,1330057,,,,,,,2025-02-07,1,,,,,ユリ,0
2021,8011801045596,新規,0,2025-02-07,2025-02-07,株式会社三陽,,株式会社,東京都,葛飾区,立石７丁目８番１０号,,13,122,1240012,,,,,,,2025-02-07,1,,,,,サンヨウ,0
2024,8012701018700,新規,0,2025-02-07,2025-02-07,株式会社ｐ‐ｄｅｓｉｇｎ,,株式会社,東京都,東村山市,諏訪町１丁目５番地８ブルームステージ３０２,,13,213,1890021,,,,,,,2025-02-07,1,,,,,ピーデザイン,0
2027,8012803003625,新規,0,2025-02-07,2025-02-07,合同会社ニトレム,,合同会社,東京都,日野市,日野本町３丁目７－４,,13,212,1910011,,,,,,,2025-02-07,1,,,,,ニトレム,0
2033,8020001161014,新規,0,2025-02-07,2025-02-07,ＩｍＡｃｔｉｏｎ株式会社,,株式会社,神奈川県,横浜市西区,浅間町１丁目４番３号ウィザードビル４０２,,14,103,2200072,,,,,,,2025-02-07,1,,,,,イマクション,0
2042,8021001084411,新規,0,2025-02-07,2025-02-07,株式会社Ｎｅｃｔｕｓ,,株式会社,神奈川県,藤沢市,鵠沼海岸３丁目１２番３号,,14,205,2510037,,,,,,,2025-02-07,1,,,,,ネクタス,0
2043,8021001084428,新規,0,2025-02-07,2025-02-07,株式会社ハニークリエイト,,株式会社,神奈川県,横須賀市,小川町１９－５富士ビル３階,,14,201,2380004,,,,,,,2025-02-07,1,,,,,ハニークリエイト,0
2044,8021001084436,新規,0,2025-02-07,2025-02-07,株式会社はなぶさ不動産事務所,,株式会社,神奈川県,藤沢市,辻堂３丁目１９番３７号,,14,205,2510047,,,,,,,2025-02-07,1,,,,,ハナブサフドウサンジムショ,0
2047,8021003015562,新規,0,2025-02-07,2025-02-07,合同会社富松商会,,合同会社,神奈川県,藤沢市,村岡東３丁目２９番地の２,,14,205,2510012,,,,,,,2025-02-07,1,,,,,トミマツショウカイ,0
2052,8030001164692,新規,0,2025-02-07,2025-02-07,株式会社Ｐ．Ｄ．サポート,,株式会社,埼玉県,久喜市,久喜中央１丁目１５番７３号－１２１,,11,232,3460003,,,,,,,2025-02-07,1,,,,,ピーデーサポート,0
2053,8030001164783,新規,0,2025-02-07,2025-02-07,株式会社Ａｇｎｉ　Ｍｏｂｉｌｉｔｙ　Ｇｒｏｕｐ,,株式会社,埼玉県,越谷市,大字下間久里９５７番地３－２０４号,,11,222,3430045,,,,,,,2025-02-07,1,,,,,アグニモビリティグループ,0
2054,8030001164791,新規,0,2025-02-07,2025-02-07,株式会社Ｔ．Ｋ．Ｍ,,株式会社,埼玉県,川口市,大字久左衛門新田２０番地エ・テルフオルＡ棟１０５号室,,11,203,3330804,,,,,,,2025-02-07,1,,,,,ティケーエム,0
2055,8030001164809,新規,0,2025-02-07,2025-02-07,株式会社ＢＥＬＬＴＲＥＥＬＯＧＩ,,株式会社,埼玉県,蓮田市,大字閏戸２５８４番地の１,,11,238,3490133,,,,,,,2025-02-07,1,,,,,ベルツリーロジ,0
2065,8040001137284,新規,0,2025-02-07,2025-02-07,山下商運株式会社,,株式会社,千葉県,千葉市中央区,生実町１７６２番地６,,12,101,2600813,,,,,,,2025-02-07,1,,,,,ヤマシタショウウン,0
2066,8040003026774,新規,0,2025-02-07,2025-02-07,モノリス合同会社,,合同会社,千葉県,松戸市,小金２７番地の３ラヴィドール北小金４０６号,,12,207,2700014,,,,,,,2025-02-07,1,,,,,モノリス,0
2067,8040003026816,新規,0,2025-02-07,2025-02-07,合同会社ＭａｎｕＢｒｉｄｇｅ,,合同会社,千葉県,船橋市,習志野台１丁目２５番１２号ルーナブルー北習志野１０１号,,12,204,2740063,,,,,,,2025-02-07,1,,,,,マニュビリッジ,0
2069,8040005022664,新規,0,2025-02-07,2025-02-07,土地家屋調査士法人ＩＴＯ,,その他の設立登記法人,千葉県,千葉市中央区,富士見１丁目１番１号,,12,101,2600015,,,,,,,2025-02-07,1,,,,,アイティーオー,0
2070,8050001056145,新規,0,2025-02-07,2025-02-07,サトーモルティング株式会社,,株式会社,茨城県,石岡市,東光台５丁目１番１４号,,08,205,3150033,,,,,,,2025-02-07,1,,,,,サトーモルティング,0
2076,8080103003249,新規,0,2025-02-07,2025-02-07,ＡＲＲＯＷＳ　ＢＥＡＵＴＹ合同会社,,合同会社,静岡県,御殿場市,萩原７３番地の１,,22,215,4120042,,,,,,,2025-02-07,1,,,,,アローズビューティー,0
2078,8080401027726,新規,0,2025-02-07,2025-02-07,株式会社順進,,株式会社,静岡県,磐田市,水堀１１０番地２,,22,211,4380085,,,,,,,2025-02-07,1,,,,,ジュンシン,0
2079,8080401027734,新規,0,2025-02-07,2025-02-07,ロボットバンクサービス株式会社,,株式会社,静岡県,浜松市中央区,神田町１１９６番地,,22,138,4328047,,,,,,,2025-02-07,1,,,,,ロボットバンクサービス,0
2084,8100001038278,新規,0,2025-02-07,2025-02-07,株式会社アルプス介護センター,,株式会社,長野県,上伊那郡箕輪町,大字中箕輪１４５０番地１,,20,383,3994601,,,,,,,2025-02-07,1,,,,,アルプスカイゴセンター,0
2085,8100001038286,新規,0,2025-02-07,2025-02-07,株式会社ＴＳＥＣ,,株式会社,長野県,長野市,篠ノ井御幣川１２０７番地,,20,201,3888006,,,,,,,2025-02-07,1,,,,,ティーエスイーシー,0
2087,8100003007982,新規,0,2025-02-07,2025-02-07,合同会社ザ・ロフトＮサービス,,合同会社,長野県,長野市,中越２丁目２６番２８号,,20,201,3810044,,,,,,,2025-02-07,1,,,,,ザロフトエヌサービス,0
2090,8110003005655,新規,0,2025-02-07,2025-02-07,合同会社身寄りなし問題研究会にいがた,,合同会社,新潟県,新潟市中央区,関屋田町１丁目２３番地第３８礎アパート１階,,15,103,9518136,,,,,,,2025-02-07,1,,,,,ミヨリナシモンダイケンキュウカイニイガタ,0
2103,8120001272635,新規,0,2025-02-07,2025-02-07,ジーツープラン株式会社,,株式会社,大阪府,大阪市住吉区,苅田２丁目１２番１８－５０３号,,27,120,5580011,,,,,,,2025-02-07,1,,,,,ジーツープラン,0
2104,8120001272643,新規,0,2025-02-07,2025-02-07,辰宇株式会社,,株式会社,大阪府,大阪市生野区,中川３丁目４番１７号２０３室,,27,116,5440005,,,,,,,2025-02-07,1,,,,,シンウ,0
2105,8120001272651,新規,0,2025-02-07,2025-02-07,欽鵬食品株式会社,,株式会社,大阪府,大阪市淀川区,加島４丁目２番２１－２０２号,,27,123,5320031,,,,,,,2025-02-07,1,,,,,キンホウショクヒン,0
2106,8120001272692,新規,0,2025-02-07,2025-02-07,大阪教育産業株式会社,,株式会社,大阪府,大阪市生野区,中川東１丁目５番１７号,,27,116,5440006,,,,,,,2025-02-07,1,,,,,オオサカキョウイクサンギョウ,0
2107,8120001272734,新規,0,2025-02-07,2025-02-07,株式会社ＡＩＴコーポレーション,,株式会社,大阪府,大阪市阿倍野区,阪南町１丁目４８番７－７０３号,,27,119,5450021,,,,,,,2025-02-07,1,,,,,エーアイティーコーポレーション,0
2108,8120001272750,新規,0,2025-02-07,2025-02-07,Ｆｉｒｓｔ　Ｓｅａｓｏｎ株式会社,,株式会社,大阪府,大阪市浪速区,元町３丁目１－３第６辻本ビル２０１,,27,111,5560016,,,,,,,2025-02-07,1,,,,,ファーストシーズン,0
2109,8120001272775,新規,0,2025-02-07,2025-02-07,株式会社ＳＩＣ,,株式会社,大阪府,大阪市北区,梅田１丁目１番３号大阪駅前第３ビル２９階１－１－１号室,,27,127,5300001,,,,,,,2025-02-07,1,,,,,エスアイシー,0
2110,8120001272783,新規,0,2025-02-07,2025-02-07,株式会社ファーストステージディベロップメント,,株式会社,大阪府,大阪市北区,梅田３丁目３番２０号明治安田生命大阪梅田ビル２２階,,27,127,5300001,,,,,,,2025-02-07,1,,,,,ファーストステージディベロップメント,0
2115,8120003028580,新規,0,2025-02-07,2025-02-07,合同会社ＯＲＡＮＧＥ,,合同会社,大阪府,枚方市,藤阪東町４丁目８番７号,,27,210,5730153,,,,,,,2025-02-07,1,,,,,オレンジ,0
2120,8120101071012,新規,0,2025-02-07,2025-02-07,株式会社バイブル,,株式会社,大阪府,堺市南区,豊田８４４－１,,27,145,5900106,,,,,,,2025-02-07,1,,,,,バイブル,0
2121,8120901050405,新規,0,2025-02-07,2025-02-07,株式会社Ａｎｊ,,株式会社,大阪府,茨木市,目垣１丁目８番１０号,,27,211,5670836,,,,,,,2025-02-07,1,,,,,アンジェイ,0
2122,8122001038867,新規,0,2025-02-07,2025-02-07,大阪シール株式会社,,株式会社,大阪府,四條畷市,西中野１丁目１番１１号,,27,229,5750055,,,,,,,2025-02-07,1,,,,,オオサカシール,0
2133,8140003021617,新規,0,2025-02-07,2025-02-07,Ｓ＆Ｍジャパン合同会社,,合同会社,兵庫県,姫路市,城東町毘沙門３１番地ビレッジハウス城東１号棟３０１,,28,201,6700842,,,,,,,2025-02-07,1,,,,,エスアンドエムジャパン,0
2134,8140003021633,新規,0,2025-02-07,2025-02-07,合同会社ヘンマ,,合同会社,兵庫県,神戸市須磨区,飛松町３丁目６－１４－２０１,,28,107,6540012,,,,,,,2025-02-07,1,,,,,ヘンマ,0
2135,8140003021641,新規,0,2025-02-07,2025-02-07,合同会社Ａｄａｐｔ,,合同会社,兵庫県,神戸市中央区,磯辺通１丁目１番１８号カサベラ国際プラザビル７０７,,28,110,6510084,,,,,,,2025-02-07,1,,,,,アダプト,0
2137,8150001027862,新規,0,2025-02-07,2025-02-07,株式会社マムストキー,,株式会社,奈良県,香芝市,真美ヶ丘２丁目１４番３４号,,29,210,6390223,,,,,,,2025-02-07,1,,,,,マムストキー,0
2143,8170001018488,新規,0,2025-02-07,2025-02-07,株式会社Ｉプラス,,株式会社,和歌山県,和歌山市,松島１３８番地５,,30,201,6408304,,,,,,,2025-02-07,1,,,,,アイプラス,0
2151,8180001165354,新規,0,2025-02-07,2025-02-07,株式会社ＰＯＮＺＵ,,株式会社,愛知県,津島市,橘町３丁目６７番地１,,23,208,4960038,,,,,,,2025-02-07,1,,,,,ポンズ,0
2152,8180001165362,新規,0,2025-02-07,2025-02-07,ＦＲＩＥＮＤ　ＴＲＡＤＥ　ＣＯＲＰＯＲＡＴＩＯＮ株式会社,,株式会社,愛知県,愛西市,新右エ門新田町郷東４２番地２,,23,232,4960934,,,,,,,2025-02-07,1,,,,,フレンドトレードコーポレーション,0
2155,8180003027957,新規,0,2025-02-07,2025-02-07,合同会社金空,,合同会社,愛知県,名古屋市千種区,月ケ丘３丁目５番７１号,,23,101,4640043,,,,,,,2025-02-07,1,,,,,キンゾラ,0
2156,8180003027965,新規,0,2025-02-07,2025-02-07,Ｍｉｎｅｓｈａ合同会社,,合同会社,愛知県,名古屋市熱田区,新尾頭３丁目２‐１６パレス第三金山３０３号,,23,109,4560018,,,,,,,2025-02-07,1,,,,,ミネーシャ,0
2157,8180003027973,新規,0,2025-02-07,2025-02-07,合同会社Ｊステップ,,合同会社,愛知県,名古屋市千種区,今池１丁目１５番６号大成ビル２Ｆ,,23,101,4640850,,,,,,,2025-02-07,1,,,,,ジェイステップ,0
2158,8180301039514,新規,0,2025-02-07,2025-02-07,株式会社Ｌｙｎｘｎｅｔ,,株式会社,愛知県,豊橋市,草間町字東山１３２番地,,23,201,4418141,,,,,,,2025-02-07,1,,,,,リンクスネット,0
2159,8190001031984,新規,0,2025-02-07,2025-02-07,株式会社ＡｓＫ　ｍｅ,,株式会社,三重県,四日市市,西新地７番３号,,24,202,5100087,,,,,,,2025-02-07,1,,,,,アスクミー,0
2162,8200001043417,新規,0,2025-02-07,2025-02-07,株式会社ＬＥＡＤ,,株式会社,岐阜県,各務原市,那加日新町４丁目１－２,,21,213,5040945,,,,,,,2025-02-07,1,,,,,リード,0
2171,8260001039896,新規,0,2025-02-07,2025-02-07,株式会社雲商事,,株式会社,岡山県,瀬戸内市,長船町服部６６７番地１長船町服部倉庫１０３,,33,212,7014276,,,,,,,2025-02-07,1,,,,,クモショウジ,0
2173,8280001009352,新規,0,2025-02-07,2025-02-07,株式会社ニキグル,,株式会社,島根県,松江市,比津が丘３丁目９番１７号,,32,201,6900862,,,,,,,2025-02-07,1,,,,,ニキグル,0
2174,8280003001919,新規,0,2025-02-07,2025-02-07,縁ＴＳＵＮＡＧＵ合同会社,,合同会社,島根県,邑智郡邑南町,下田所９００番地,,32,449,6960222,,,,,,,2025-02-07,1,,,,,エンツナグ,0
2178,8290001108855,新規,0,2025-02-07,2025-02-07,株式会社インベストゲート,,株式会社,福岡県,福岡市中央区,天神２丁目１１番１号福岡ＰＡＲＣＯ新館５Ｆ,,40,133,8100001,,,,,,,2025-02-07,1,,,,,インベストゲート,0
2179,8290001108863,新規,0,2025-02-07,2025-02-07,株式会社ロイアンドカンパニー,,株式会社,福岡県,福岡市中央区,薬院４丁目６番３０号,,40,133,8100022,,,,,,,2025-02-07,1,,,,,ロイアンドカンパニー,0
2180,8290001108913,新規,0,2025-02-07,2025-02-07,ＭＡＲＵ株式会社,,株式会社,福岡県,福岡市東区,青葉３丁目４３番７－３号,,40,131,8130025,,,,,,,2025-02-07,1,,,,,マル,0
2188,8320001020932,新規,0,2025-02-07,2025-02-07,株式会社よしもり,,株式会社,大分県,大分市,緑が丘４丁目３番８号,,44,201,8701172,,,,,,,2025-02-07,1,,,,,ヨシモリ,0
2190,8330001032860,新規,0,2025-02-07,2025-02-07,株式会社どぎゃん,,株式会社,熊本県,熊本市南区,八分字町１８７番地１吉見ハイツ１０１,,43,104,8615253,,,,,,,2025-02-07,1,,,,,ドギャン,0
2191,8330005010870,新規,0,2025-02-07,2025-02-07,一般社団法人人吉球磨三日月地域づくり協議会,,その他の設立登記法人,熊本県,人吉市,五日町２６番地５,,43,203,8680035,,,,,,,2025-02-07,1,,,,,ヒトヨシクマミカヅキチイキヅクリキョウギカイ,0
2194,8360003014664,新規,0,2025-02-07,2025-02-07,合同会社リゾートアセッツ沖縄,,合同会社,沖縄県,那覇市,おもろまち４丁目６番１９号ＦＬＥＸおもろまち５０２号,,47,201,9000006,,,,,,,2025-02-07,1,,,,,リゾートアセッツオキナワ,0
2196,8360005007170,新規,0,2025-02-07,2025-02-07,アイシンビジネスサポート協同組合,,その他の設立登記法人,沖縄県,那覇市,古波蔵３丁目２０番１号千代正マンション１０１号,,47,201,9000024,,,,,,,2025-02-07,1,,,,,アイシンビジネスサポート,0
2202,8410001014058,新規,0,2025-02-07,2025-02-07,株式会社五平農園,,株式会社,秋田県,由利本荘市,加賀沢字宮ノ越１１７番地,,05,210,0180841,,,,,,,2025-02-07,1,,,,,ゴヘイノウエン,0
2205,8430001093653,新規,0,2025-02-07,2025-02-07,株式会社なごみ日和,,株式会社,北海道,札幌市中央区,南五条西１５丁目２番３号リズム医大前５０３号室,,01,101,0640805,,,,,,,2025-02-07,1,,,,,ナゴミビヨリ,0
2207,8430003017263,新規,0,2025-02-07,2025-02-07,エヌラプト合同会社,,合同会社,北海道,札幌市南区,真駒内泉町２丁目１番１２－２０５号,,01,106,0050015,,,,,,,2025-02-07,1,,,,,エヌラプト,0
2209,8460103001684,新規,0,2025-02-07,2025-02-07,Ｒ建築合同会社,,合同会社,北海道,帯広市,西十二条北１丁目２－４,,01,207,0800042,,,,,,,2025-02-07,1,,,,,,0
2213,8700150129148,新規,0,2025-02-07,2025-02-07,Ａｄｄｕｃａｔｅ　Ｉｎｃ,,外国会社等,,,,,,,,２５１　Ｌｉｔｔｌｅ　Ｆａｌｌｓ　Ｄｒｉｖｅ，Ｗｉｌｍｉｎｇｔｏｎ，Ｄｅｌａｗａｒｅ，１９８０８，Ｕｎｉｔｅｄ　Ｓｔａｔｅｓ,,,,,,2025-02-07,1,,,,,アデュケイトインク,0
2221,9010001252102,新規,0,2025-02-07,2025-02-07,Ｂ・Ｔ株式会社,,株式会社,東京都,中央区,勝どき６丁目３番１－４９０６号,,13,102,1040054,,,,,,,2025-02-07,1,,,,,ビーティー,0
2222,9010001252192,新規,0,2025-02-07,2025-02-07,株式会社田村屋,,株式会社,東京都,中央区,勝どき５丁目５番１４―２１７号,,13,102,1040054,,,,,,,2025-02-07,1,,,,,タムラヤ,0
2230,9010005039545,新規,0,2025-02-07,2025-02-07,一般社団法人日本メテオ協会,,その他の設立登記法人,東京都,中央区,銀座７丁目１３番６号サガミビル２Ｆ,,13,102,1040061,,,,,,,2025-02-07,1,,,,,ニホンメテオキョウカイ,0
2237,9010401187897,新規,0,2025-02-07,2025-02-07,Ｈｅｌｉｏｖｅｒｓｅ　Ｉｎｎｏｖａｔｉｏｎｓ　Ｊａｐａｎ株式会社,,株式会社,東京都,港区,南青山３丁目１番３６号青山丸竹ビル６Ｆ,,13,103,1070062,,,,,,,2025-02-07,1,,,,,ヘリオバースイノベーションジャパン,0
2238,9010401188045,新規,0,2025-02-07,2025-02-07,株式会社Ｋ＆Ｒパートナーズ,,株式会社,東京都,港区,麻布十番１丁目５番１０号,,13,103,1060045,,,,,,,2025-02-07,1,,,,,ケーアンドアールパートナーズ,0
2239,9010401188053,新規,0,2025-02-07,2025-02-07,株式会社ＡＫＥＡＳＴ,,株式会社,東京都,港区,麻布台３丁目１番６号ＢＬＵＥＢＬＤＧ．ＡＺＡＢＵＤＡＩ３Ｆ,,13,103,1060041,,,,,,,2025-02-07,1,,,,,エイケイイースト,0
2243,9010403034338,新規,0,2025-02-07,2025-02-07,合同会社Ｒａｉ,,合同会社,東京都,港区,新橋５丁目７番７－１５０１号,,13,103,1050004,,,,,,,2025-02-07,1,,,,,ライ,0
2250,9010801035821,新規,0,2025-02-07,2025-02-07,ＮＯＩＢＡＲＡ株式会社,,株式会社,東京都,大田区,西嶺町６番６号,,13,111,1450075,,,,,,,2025-02-07,1,,,,,ノイバラ,0
2257,9010905004730,新規,0,2025-02-07,2025-02-07,特定非営利活動法人ＨＵＭＡＮ　ＩＮＩＴＩＡＴＩＶＥ　ＪＡＰＡＮ,,その他の設立登記法人,東京都,世田谷区,喜多見９丁目１８番２５号パールハイツ森Ａ－１０２,,13,112,1570067,,,,,,,2025-02-07,1,,,,,ヒューマンイニシアティブジャパン,0
2267,9011001167521,新規,0,2025-02-07,2025-02-07,ＦＵＴＡＧＯ株式会社,,株式会社,東京都,渋谷区,渋谷２丁目１９－１５宮益坂ビルディング６０９,,13,113,1500002,,,,,,,2025-02-07,1,,,,,フタゴ,0
2268,9011001167538,新規,0,2025-02-07,2025-02-07,株式会社Ｓｔｙｌｅ,,株式会社,東京都,目黒区,自由が丘２丁目１６番１２号ＲＪ３,,13,110,1520035,,,,,,,2025-02-07,1,,,,,スタイル,0
2269,9011003020901,新規,0,2025-02-07,2025-02-07,合同会社フューチャーデザインクリエイション,,合同会社,東京都,目黒区,碑文谷５丁目２５番地６号サンモア学芸大学マンション２０３号,,13,110,1520003,,,,,,,2025-02-07,1,,,,,フューチャーデザインクリエイション,0
2270,9011101110538,新規,0,2025-02-07,2025-02-07,株式会社ガラム,,株式会社,東京都,新宿区,愛住町２２番７号第三山田ビル９階,,13,104,1600005,,,,,,,2025-02-07,1,,,,,ガラム,0
2271,9011101110579,新規,0,2025-02-07,2025-02-07,株式会社プラス,,株式会社,東京都,新宿区,下落合４丁目２０番１５号目白ロイヤルホームズ１０１,,13,104,1610033,,,,,,,2025-02-07,1,,,,,プラス,0
2277,9011401026789,新規,0,2025-02-07,2025-02-07,株式会社クリエ,,株式会社,東京都,板橋区,板橋４丁目６番１号,,13,119,1730004,,,,,,,2025-02-07,1,,,,,クリエ,0
2283,9011701028048,新規,0,2025-02-07,2025-02-07,株式会社Ａｉｓａｒａ,,株式会社,東京都,江戸川区,江戸川２丁目１０番３２－１０１号エヴァーグリーン瑞江ＩＩ,00137940,13,123,1320013,,,,,,,2025-02-07,1,,,,,アイサラ,0
2291,9012403006952,新規,0,2025-02-07,2025-02-07,ＭＭＴトラスト合同会社,,合同会社,東京都,小金井市,本町５丁目４１番２６号,,13,210,1840004,,,,,,,2025-02-07,1,,,,,エムエムティートラスト,0
2292,9012701018699,新規,0,2025-02-07,2025-02-07,株式会社飛翔,,株式会社,東京都,清瀬市,下宿１丁目１７６番地１ウェルズ清瀬９７Ｆ号,,13,221,2040001,,,,,,,2025-02-07,1,,,,,アスカ,0
2308,9020003027600,新規,0,2025-02-07,2025-02-07,合同会社サカモト,,合同会社,神奈川県,横浜市西区,浅間町１丁目４番３号ウィザードビル４０２,,14,103,2200072,,,,,,,2025-02-07,1,,,,,サカモト,0
2309,9020003027674,新規,0,2025-02-07,2025-02-07,合同会社コイズミハウス,,合同会社,神奈川県,横浜市港北区,日吉本町６丁目４８番１４号,,14,109,2230062,,,,,,,2025-02-07,1,,,,,コイズミハウス,0
2310,9020003027749,新規,0,2025-02-07,2025-02-07,合同会社Ｆｉｎｄ　Ｐｒｏｔｅｉｎ,,合同会社,神奈川県,横浜市港北区,菊名２丁目１０－６,,14,109,2220011,,,,,,,2025-02-07,1,,,,,,0
2311,9021001084385,新規,0,2025-02-07,2025-02-07,栄興商事株式会社,,株式会社,神奈川県,相模原市南区,麻溝台１丁目１－７５３－１,,14,153,2520328,,,,,,,2025-02-07,1,,,,,エイコウショウジ,0
2312,9021001084410,新規,0,2025-02-07,2025-02-07,株式会社ＨＡＣＯＢＵＮＥ,,株式会社,神奈川県,藤沢市,稲荷１丁目９番１ココタウンヒルトップマリーナ４１７,,14,205,2510862,,,,,,,2025-02-07,1,,,,,ハコブネ,0
2313,9021001084427,新規,0,2025-02-07,2025-02-07,株式会社ムラワークス,,株式会社,神奈川県,茅ヶ崎市,南湖３丁目６番２８号,,14,207,2530061,,,,,,,2025-02-07,1,,,,,ムラワークス,0
2314,9021001084435,新規,0,2025-02-07,2025-02-07,株式会社エムズカンパニー,,株式会社,神奈川県,相模原市緑区,橋本３丁目２７番６号Ｓ＆Ｙビル４Ｆ－１５号室,,14,151,2520143,,,,,,,2025-02-07,1,,,,,エムズカンパニー,0
2317,9030001164709,新規,0,2025-02-07,2025-02-07,株式会社南商事,,株式会社,埼玉県,川口市,川口５丁目１１番１６号,,11,203,3320015,,,,,,,2025-02-07,1,,,,,ミナミショウジ,0
2318,9030001164725,新規,0,2025-02-07,2025-02-07,旭日貿易株式会社,,株式会社,埼玉県,川口市,大字安行原６４９番地,,11,203,3340057,,,,,,,2025-02-07,1,,,,,アサヒボウエキ,0
2319,9030001164741,新規,0,2025-02-07,2025-02-07,ＲＥＩ株式会社,,株式会社,埼玉県,さいたま市岩槻区,美園東１丁目１－１－１１０７号室,,11,110,3390028,,,,,,,2025-02-07,1,,,,,リアルエステートインベストメント,0
2320,9030001164758,新規,0,2025-02-07,2025-02-07,株式会社ＴＯＫＵＸＡ,,株式会社,埼玉県,和光市,下新倉４丁目１６番３９号,,11,229,3510111,,,,,,,2025-02-07,1,,,,,トクサ,0
2321,9030001164782,新規,0,2025-02-07,2025-02-07,株式会社ＢＣ,,株式会社,埼玉県,東松山市,あずま町１丁目１２番地１４,,11,212,3550048,,,,,,,2025-02-07,1,,,,,ビーシー,0
2322,9030001164790,新規,0,2025-02-07,2025-02-07,同源商事株式会社,,株式会社,埼玉県,川口市,西青木１丁目１３番１号２Ｆ,,11,203,3320035,,,,,,,2025-02-07,1,,,,,ドウゲンショウジ,0
2331,9030003026023,新規,0,2025-02-07,2025-02-07,ＳＴＥＭ合同会社,,合同会社,埼玉県,所沢市,大字山口１７３９番地の１８,,11,208,3591145,,,,,,,2025-02-07,1,,,,,ステム,0
2332,9030003026056,新規,0,2025-02-07,2025-02-07,合同会社ＳＯＵ,,合同会社,埼玉県,久喜市,久喜北１丁目１１－８－３,,11,232,3460007,,,,,,,2025-02-07,1,,,,,ソウ,0
2333,9030003026072,新規,0,2025-02-07,2025-02-07,ＳＡＫＵＲＡ　ＧＲＯＵＰ合同会社,,合同会社,埼玉県,入間市,豊岡１丁目３番２５号半田ビル３階ＫＩＶオフィス入間Ｊ号室,,11,225,3580003,,,,,,,2025-02-07,1,,,,,サクラグループ,0
2341,9040001137291,新規,0,2025-02-07,2025-02-07,株式会社つぎつむぐ,,株式会社,千葉県,松戸市,三矢小台１丁目２－８近藤スカイハイツ２棟１０２,,12,207,2710087,,,,,,,2025-02-07,1,,,,,ツギツムグ,0
2342,9040001137300,新規,0,2025-02-07,2025-02-07,株式会社フリーランスギルド,,株式会社,千葉県,八千代市,勝田８３１－２１,,12,221,2760024,,,,,,,2025-02-07,1,,,,,フリーランスギルド,0
2343,9040001137309,新規,0,2025-02-07,2025-02-07,株式会社いどやホールディングス,,株式会社,千葉県,白井市,池の上１丁目３３番１４号,,12,232,2701425,,,,,,,2025-02-07,1,,,,,イドヤホールディングス,0
2346,9040003026815,新規,0,2025-02-07,2025-02-07,合同会社ｆｒｅｅ‐ｃｈｏｉｃｅ,,合同会社,千葉県,千葉市若葉区,多部田町５３８－７,,12,104,2650066,,,,,,,2025-02-07,1,,,,,フリーチョイス,0
2347,9050001056144,新規,0,2025-02-07,2025-02-07,株式会社浅野電建,,株式会社,茨城県,東茨城郡城里町,大字石塚２２５６番地の７,,08,310,3114303,,,,,,,2025-02-07,1,,,,,アサノデンケン,0
2356,9080401027733,新規,0,2025-02-07,2025-02-07,株式会社ＳＫＭ,,株式会社,静岡県,浜松市中央区,有玉北町１３１番地の５,,22,138,4313121,,,,,,,2025-02-07,1,,,,,エスケーエム,0
2358,9090001019130,新規,0,2025-02-07,2025-02-07,富士株式会社,,株式会社,山梨県,南都留郡富士河口湖町,船津３１４８番地１４志村店舗Ａ,,19,430,4010301,,,,,,,2025-02-07,1,,,,,フジ,0
2360,9110003005654,新規,0,2025-02-07,2025-02-07,合同会社Ｓｔ．Ｎｉｃｋ,,合同会社,新潟県,新潟市東区,上木戸４丁目１４番２１号７,,15,102,9500891,,,,,,,2025-02-07,1,,,,,セントニック,0
2368,9120001272592,新規,0,2025-02-07,2025-02-07,株式会社Ｃｉｅｌ　Ｚｅｒｏ,,株式会社,大阪府,大阪市北区,芝田２丁目７番１８号,,27,127,5300012,,,,,,,2025-02-07,1,,,,,シエルゼロ,0
2369,9120001272650,新規,0,2025-02-07,2025-02-07,妍選株式会社,,株式会社,大阪府,大阪市東住吉区,公園南矢田１丁目３番１３－１０１号,,27,121,5460024,,,,,,,2025-02-07,1,,,,,ケンセン,0
2370,9120001272717,新規,0,2025-02-07,2025-02-07,株式会社スマートサポート,,株式会社,大阪府,門真市,巣本町８番３－５０３号,,27,223,5710001,,,,,,,2025-02-07,1,,,,,スマートサポート,0
2378,9120101071011,新規,0,2025-02-07,2025-02-07,株式会社優心空調,,株式会社,大阪府,堺市南区,大庭寺２９１番地,,27,145,5900153,,,,,,,2025-02-07,1,,,,,ユウシンクウチョウ,0
2380,9120903005538,新規,0,2025-02-07,2025-02-07,合同会社ＫＴＭ,,合同会社,大阪府,池田市,神田３丁目１４番２１号,,27,204,5630043,,,,,,,2025-02-07,1,,,,,ケーティーエム,0
2381,9122001038858,新規,0,2025-02-07,2025-02-07,株式会社ＳＫリース,,株式会社,大阪府,四條畷市,雁屋北町５番５号,,27,229,5750035,,,,,,,2025-02-07,1,,,,,エスケーリース,0
2393,9130001078972,新規,0,2025-02-07,2025-02-07,株式会社Ｊ‐Ｇａｒｄｅｎ,,株式会社,京都府,宇治市,広野町茶屋裏２番地の４グローバル宇治大久保ＩＩ４０１号,00137930,26,204,6110031,,,,,,,2025-02-07,1,,,,,ジェイガーデン,0
2395,9140001137364,新規,0,2025-02-07,2025-02-07,ＤＯＳＯＦＴＰＲＯ　Ｊａｐａｎ株式会社,,株式会社,兵庫県,神戸市中央区,浪花町５６番地起業プラザひょうご内,,28,110,6500035,,,,,,,2025-02-07,1,,,,,ドーソフトプロジャパン,0
2397,9140003021632,新規,0,2025-02-07,2025-02-07,合同会社Ｈａｎａｍｉｃｈｉ,,合同会社,兵庫県,宝塚市,仁川高丸２丁目１番３号,,28,214,6650063,,,,,,,2025-02-07,1,,,,,ハナミチ,0
2403,9160001026532,新規,0,2025-02-07,2025-02-07,株式会社庭重,,株式会社,滋賀県,野洲市,吉川３８９２番地,,25,210,5202401,,,,,,,2025-02-07,1,,,,,ニワシゲ,0
2411,9180001165329,新規,0,2025-02-07,2025-02-07,株式会社ラピスライン,,株式会社,愛知県,北名古屋市,法成寺蔵化７９番地,,23,234,4810039,,,,,,,2025-02-07,1,,,,,ラピスライン,0
2412,9180001165345,新規,0,2025-02-07,2025-02-07,株式会社Ｌｅｏｗ,,株式会社,愛知県,一宮市,丹陽町五日市場字屋敷１７６番地２,,23,203,4910823,,,,,,,2025-02-07,1,,,,,リオウ,0
2413,9180001165353,新規,0,2025-02-07,2025-02-07,株式会社リヴェレ,,株式会社,愛知県,名古屋市東区,泉３丁目３０番５号,,23,102,4610001,,,,,,,2025-02-07,1,,,,,リヴェレ,0
2422,9180003027972,新規,0,2025-02-07,2025-02-07,合同会社ｓｍｉｆｅ,,合同会社,愛知県,名古屋市瑞穂区,柳ケ枝町３丁目５２－２０１,,23,108,4670825,,,,,,,2025-02-07,1,,,,,スマイフ,0
2423,9180003027980,新規,0,2025-02-07,2025-02-07,合同会社ＡｌｇｏＳｐｈｅｒｅ,,合同会社,愛知県,名古屋市守山区,町南２３番２４号サンビューハイツ２０２号,,23,113,4630066,,,,,,,2025-02-07,1,,,,,アルゴスフィア,0
2426,9180301039513,新規,0,2025-02-07,2025-02-07,株式会社ＴＡＩＲＯ,,株式会社,愛知県,刈谷市,司町１丁目５３番地２バンベール刈谷マスターコート１３０３号,,23,210,4480834,,,,,,,2025-02-07,1,,,,,タイロー,0
2428,9190003004938,新規,0,2025-02-07,2025-02-07,合同会社山給フードサービス,,合同会社,三重県,名張市,梅が丘南１番町１９２番地,,24,208,5180741,,,,,,,2025-02-07,1,,,,,ヤマキュウフードサービス,0
2434,9220001026476,新規,0,2025-02-07,2025-02-07,株式会社カドクラ,,株式会社,石川県,白山市,福正寺町２２７番地１,,17,210,9240813,,,,,,,2025-02-07,1,,,,,カドクラ,0
2442,9240001064499,新規,0,2025-02-07,2025-02-07,株式会社ＳＳＭ,,株式会社,広島県,広島市佐伯区,皆賀３丁目２番２３号,,34,108,7315124,,,,,,,2025-02-07,1,,,,,ススム,0
2445,9280001009351,新規,0,2025-02-07,2025-02-07,株式会社ストラテジーＡＩ,,株式会社,島根県,松江市,末次本町４６松江京店ＲＧＢビル２Ｆ,,32,201,6900843,,,,,,,2025-02-07,1,,,,,ストラテジーエーアイ,0
2451,9290001108846,新規,0,2025-02-07,2025-02-07,株式会社１０ｃｏｕｎｔ,,株式会社,福岡県,糟屋郡粕屋町,花ヶ浦２丁目８番２０号アパートハロ２０１号,,40,349,8112310,,,,,,,2025-02-07,1,,,,,テンカウント,0
2452,9290001108854,新規,0,2025-02-07,2025-02-07,株式会社メントホールディングス,,株式会社,福岡県,筑紫野市,大字古賀４１１番地１,,40,217,8180047,,,,,,,2025-02-07,1,,,,,メントホールディングス,0
2453,9290001108862,新規,0,2025-02-07,2025-02-07,ＤＡＬ株式会社,,株式会社,福岡県,筑紫野市,大字筑紫８１８番地１（Ｓｏｕｔｈｃｏｕｒｔ筑紫２０２号）,,40,217,8180025,,,,,,,2025-02-07,1,,,,,ダル,0
2454,9290001108887,新規,0,2025-02-07,2025-02-07,株式会社Ｆｏｒｔｕｎａ　Ｗｏｒｋｓ,,株式会社,福岡県,福岡市中央区,大名２丁目１番５７号,,40,133,8100041,,,,,,,2025-02-07,1,,,,,フォルトゥーナワークス,0
2458,9290003016378,新規,0,2025-02-07,2025-02-07,Ｕｉ合同会社,,合同会社,福岡県,福岡市南区,井尻１丁目２４番１２,,40,134,8111302,,,,,,,2025-02-07,1,,,,,ユーアイ,0
2460,9300001014076,新規,0,2025-02-07,2025-02-07,ウェルビクリエイト株式会社,,株式会社,佐賀県,神埼郡吉野ヶ里町,立野１２２０－７,,41,327,8420032,,,,,,,2025-02-07,1,,,,,ウェルビクリエイト,0
2469,9360003014671,新規,0,2025-02-07,2025-02-07,合同会社叶産業,,合同会社,沖縄県,国頭郡本部町,字新里６９７番地,,47,308,9050208,,,,,,,2025-02-07,1,,,,,カナイサンギョウ,0
2481,9440001009558,新規,0,2025-02-07,2025-02-07,株式会社Ｃｈｏｒｕｓ,,株式会社,北海道,二海郡八雲町,熊石鳴神町８８番地３,,01,346,0430417,,,,,,,2025-02-07,1,,,,,,0
2482,9460103001683,新規,0,2025-02-07,2025-02-07,合同会社ＮｅｍｕＴｅｃｈ,,合同会社,北海道,広尾郡大樹町,幸町２４番地２０,,01,641,0892154,,,,,,,2025-02-07,1,,,,,ネムテック,0
2483,9490003001979,新規,0,2025-02-07,2025-02-07,アトングローバル合同会社,,合同会社,高知県,高知市,北八反町２８―２,,39,201,7800913,,,,,,,2025-02-07,1,,,,,アトングローバル,0
2485,9700150129139,新規,0,2025-02-07,2025-02-07,Ｍ．Ｓ．ＬＡＮＫＡ　ＥＮＴＥＲＰＲＩＳＥＳ,,外国会社等,千葉県,山武郡横芝光町,宮川１６１５番地９オフィスＣ,,12,410,2891727,スリランカ民主社会主義共和国、マルタムナイ、カルムナイ・ロード、Ｎｏ．１９０,,,,,,2025-02-07,1,,,,,エムエスランカエンタープライズ,0
2486,9700150129147,新規,0,2025-02-07,2025-02-07,ｇｕａｎｇｚｈｏｕｐｅｉｄｉｎｉｗａｎｇｌｕｏｋｅｊｉｙｏｕｘｉａｎｇｏｎｇｓｉ,,外国会社等,,,,,,,,ｊｉａｎｙｅｄａｓｈａ２ｔｉ４ｃｅｎｇｂａｎｇｏｎｇｌｏｕＢ２０３ｓｈｉ　ｄａｌｏｎｇｊｉｅｐａｎｙｕｄａｄａｏｂｅｉ１４４０ｈａｏ　ｐａｎｙｕｑｕ　ｇｕａｎｇｚｈｏｕｓｈｉ　５１１４８８　ＣＮ,,,,,,2025-02-07,1,,,,,グァンジョウペイディニーワンルオカージヨウシェンゴンスー,0
