sequenceNumber,corporateNumber,process,correct,updateDate,changeDate,name,nameImageId,kind,prefectureName,cityName,streetNumber,addressImageId,prefectureCode,cityCode,postCode,addressOutside,addressOutsideImageId,closeDate,closeCause,successorCorporateNumber,changeCause,assignmentDate,latest,enName,enPrefectureName,enCityName,enAddressOutside,furigana,hihyoji
1,1010001025201,登記記録の閉鎖等,0,2025-03-04,2025-02-17,ナカフジマシン株式会社,,株式会社,東京都,千代田区,神田和泉町１番地５号,,13,101,1010024,,,2025-02-17,清算の結了等,,,2015-10-05,1,,,,,ナカフジマシン,0
3,1010001052633,登記記録の閉鎖等,0,2025-03-04,2025-02-28,株式会社虎石,,株式会社,東京都,江東区,豊洲６丁目５番１号,,13,108,1350061,,,2025-02-28,清算の結了等,,,2015-10-05,1,,,,,トライシ,0
9,1010001244379,登記記録の閉鎖等,0,2025-03-04,2025-02-17,株式会社ＬＡＢ　ＳＴＡＣＫＳ,,株式会社,東京都,中央区,日本橋室町１丁目１１番１２号日本橋水野ビル７階,,13,102,1030022,,,2025-02-17,清算の結了等,,,2024-04-26,1,,,,,ラボスタックス,0
20,1010401115808,登記記録の閉鎖等,0,2025-03-04,2025-03-03,株式会社ＨＯＭＥ３６０,,株式会社,神奈川県,鎌倉市,山ノ内１１７２番地５,,14,204,2470062,,,2025-03-03,清算の結了等,,,2015-10-05,1,,,,,,0
49,1010903001976,登記記録の閉鎖等,0,2025-03-04,2025-02-17,ＣＢソーラー合同会社,,合同会社,東京都,千代田区,九段南１丁目５－６りそな九段ビル５Ｆ,,13,101,1020074,,,2025-02-17,清算の結了等,,,2015-10-05,1,,,,,シービーソーラー,0
75,1011701020417,登記記録の閉鎖等,0,2025-03-04,2025-02-25,株式会社江戸万里工業,,株式会社,東京都,江戸川区,江戸川２丁目２８番２１－１４０５号江戸川二丁目アパート２１,,13,123,1320013,,,2025-02-25,清算の結了等,,,2016-12-07,1,,,,,,0
80,1012702012733,登記記録の閉鎖等,0,2025-03-04,2025-02-26,有限会社テストセレクト,,有限会社,東京都,東久留米市,弥生１丁目２番３２号,,13,222,2030034,,,2025-02-26,清算の結了等,,,2015-10-05,1,,,,,テストセレクト,0
99,1020005010578,登記記録の閉鎖等,0,2025-03-04,2025-02-28,一般社団法人社会の課題研究所,,その他の設立登記法人,神奈川県,藤沢市,下土棚１０２６番地の１０,,14,205,2520807,,,2025-02-28,清算の結了等,,,2015-10-05,1,,,,,シャカイノカダイケンキュウショ,0
102,1021002010521,登記記録の閉鎖等,0,2025-03-04,2025-03-03,有限会社香川本庄,,有限会社,神奈川県,茅ヶ崎市,香川５丁目２番８号,,14,207,2530082,,,2025-03-03,清算の結了等,,,2015-10-05,1,,,,,,0
122,1040002027391,登記記録の閉鎖等,0,2025-03-04,2025-02-25,有限会社山崎プラント設計,,有限会社,千葉県,船橋市,二和西６丁目７番,,12,204,2740806,,,2025-02-25,清算の結了等,,,2015-10-05,1,,,,,ヤマザキプラントセッケイ,0
132,1070002011979,登記記録の閉鎖等,0,2025-03-04,2025-02-28,有限会社プライムス,,有限会社,群馬県,高崎市,石原町１８８９番地３,,10,202,3700864,,,2025-02-28,清算の結了等,,,2015-10-05,1,,,,,プライムス,0
135,1070002036448,登記記録の閉鎖等,0,2025-03-04,2025-03-03,有限会社笹川木工製作所,,有限会社,群馬県,吾妻郡中之条町,大字中之条町６番地１,,10,421,3770424,,,2025-03-03,清算の結了等,,,2015-10-05,1,,,,,ササガワモッコウセイサクショ,0
147,1110002005984,登記記録の閉鎖等,0,2025-03-04,2025-02-28,有限会社穂饌土地開発,,有限会社,新潟県,長岡市,本町２丁目４番地８,,15,202,9400076,,,2025-02-28,清算の結了等,,,2015-10-05,1,,,,,ホセントチカイハツ,0
172,1140001026269,登記記録の閉鎖等,0,2025-03-04,2025-02-26,株式会社タケウチ企画,,株式会社,兵庫県,芦屋市,東山町２６番２２号,,28,206,6590091,,,2025-02-26,清算の結了等,,,2015-10-05,1,,,,,タケウチキカク,0
194,1180001097868,登記記録の閉鎖等,0,2025-03-04,2025-02-27,株式会社黒田石油,,株式会社,愛知県,あま市,方領屋敷１７８番地,,23,237,4901101,,,2025-02-27,清算の結了等,,,2015-10-05,1,,,,,クロダセキユ,0
202,1180301012114,登記記録の閉鎖等,0,2025-03-04,2025-02-26,株式会社しみず,,株式会社,愛知県,岡崎市,奥殿町字薬師洞６２番地,,23,202,4442108,,,2025-02-26,清算の結了等,,,2015-10-05,1,,,,,シミズ,0
231,1330002012455,登記記録の閉鎖等,0,2025-03-04,2025-02-26,有限会社末吉電気工事,,有限会社,熊本県,熊本市東区,東野４丁目６番地２,,43,102,8612106,,,2025-02-26,清算の結了等,,,2015-10-05,1,,,,,スエヨシデンキコウジ,0
233,1340002025159,登記記録の閉鎖等,0,2025-03-04,2025-02-25,有限会社河童亭,,有限会社,鹿児島県,鹿屋市,向江町２０番１０号,,46,203,8930006,,,2025-02-25,清算の結了等,,,2015-10-05,1,,,,,カッパテイ,0
244,1420001014666,登記記録の閉鎖等,0,2025-03-04,2025-02-26,株式会社ふぁーすと,,株式会社,青森県,むつ市,大平町１０番１７号,,02,208,0350083,,,2025-02-26,清算の結了等,,,2015-10-05,1,,,,,ファースト,0
247,1430002058950,登記記録の閉鎖等,0,2025-03-04,2025-03-03,有限会社杉山鉄工所,,有限会社,北海道,苫小牧市,新明町５丁目２番７号,,01,213,0530055,,,2025-03-03,清算の結了等,,,2015-10-05,1,,,,,スギヤマテッコウショ,0
291,2010503006417,登記記録の閉鎖等,0,2025-03-04,2025-02-25,合同会社デルタイー,,合同会社,東京都,台東区,上野６丁目８番１９号,,13,106,1100005,,,2025-02-25,清算の結了等,,,2021-10-28,1,,,,,デルタイー,0
315,2011502005814,登記記録の閉鎖等,0,2025-03-04,2025-02-27,有限会社湊設計,,有限会社,神奈川県,鎌倉市,台３丁目１番地の６,,14,204,2470061,,,2025-02-27,清算の結了等,,,2015-10-05,1,,,,,ミナトセッケイ,0
321,2012705000263,登記記録の閉鎖等,0,2025-03-04,2025-02-26,医療法人社団章曜会,,その他の設立登記法人,東京都,西東京市,下保谷４丁目２番１９号,,13,229,2020004,,,2025-02-26,清算の結了等,,,2015-10-05,1,,,,,ショウヨウカイ,0
339,2021002056431,登記記録の閉鎖等,0,2025-03-04,2025-02-28,有限会社ケーワン,,有限会社,神奈川県,小田原市,南鴨宮１丁目１２番１０号,,14,206,2500875,,,2025-02-28,清算の結了等,,,2015-10-05,1,,,,,ケーワン,0
342,2030001048216,登記記録の閉鎖等,0,2025-03-04,2025-02-27,株式会社ピー・エイチ・ワークス,,株式会社,東京都,板橋区,新河岸２丁目９番２４号,,13,119,1750081,,,2025-02-27,合併による解散等,3011701014796,令和７年２月１日東京都中央区新富二丁目１４番４号株式会社トーガシ（3011701014796）に合併し解散,2015-10-05,1,,,,,ピーエイチワークス,0
348,2030003014843,登記記録の閉鎖等,0,2025-03-04,2025-02-21,合同会社マルセル,,合同会社,埼玉県,八潮市,緑町１丁目２番地１,,11,234,3400808,,,2025-02-21,清算の結了等,,,2020-02-19,1,,,,,マルセル,0
358,2040002030262,登記記録の閉鎖等,0,2025-03-04,2025-02-25,有限会社三鈴産業,,有限会社,千葉県,八千代市,大和田新田１０７７番地１６,,12,221,2760046,,,2025-02-25,清算の結了等,,,2015-10-05,1,,,,,ミスズサンギョウ,0
370,2080101003719,登記記録の閉鎖等,0,2025-03-04,2025-02-21,株式会社ベストホーム,,株式会社,静岡県,沼津市,下香貫宮脇３２３番地の３,,22,203,4100822,,,2025-02-21,清算の結了等,,,2015-10-05,1,,,,,ベストホーム,0
373,2080102020713,登記記録の閉鎖等,0,2025-03-04,2025-02-27,有限会社ワコー・トーブ,,有限会社,静岡県,伊東市,荻５７４番地の５３,,22,208,4140053,,,2025-02-27,清算の結了等,,,2015-10-05,1,,,,,,0
374,2080103001786,登記記録の閉鎖等,0,2025-03-04,2025-02-19,合同会社ＣＮ,,合同会社,静岡県,伊東市,八幡野６７１番地の２,,22,208,4130232,,,2025-02-19,清算の結了等,,,2018-01-31,1,,,,,シーエヌ,0
396,2122002014864,登記記録の閉鎖等,0,2025-03-04,2025-03-03,有限会社丸泰産業,,有限会社,大阪府,八尾市,八尾木１丁目２３２番地の６,,27,212,5810027,,,2025-03-03,清算の結了等,,,2015-10-05,1,,,,,マルタイサンギョウ,0
398,2130001051382,登記記録の閉鎖等,0,2025-03-04,2025-03-03,株式会社パールライン,,株式会社,京都府,京都市下京区,新町通五条上る材木町１２８番地１,,26,106,6008440,,,2025-03-03,清算の結了等,,,2015-10-05,1,,,,,パールライン,0
404,2140001036622,登記記録の閉鎖等,0,2025-03-04,2025-02-20,株式会社美都,,株式会社,兵庫県,三木市,口吉川町大島１１３５番地の１,,28,215,6730755,,,2025-02-20,清算の結了等,,,2015-10-05,1,,,,,ミト,0
419,2180001072944,登記記録の閉鎖等,0,2025-03-04,2025-02-27,株式会社ユニーク,,株式会社,愛知県,名古屋市北区,喜惣治１丁目４２５番地の１,,23,103,4620065,,,2025-02-27,清算の結了等,,,2015-10-05,1,,,,,ユニーク,0
421,2180002081110,登記記録の閉鎖等,0,2025-03-04,2025-02-26,有限会社布施金型,,有限会社,愛知県,稲沢市,井之口大坪町１番地の１,,23,220,4928164,,,2025-02-26,清算の結了等,,,2015-10-05,1,,,,,フセカナガタ,0
431,2210002007978,登記記録の閉鎖等,0,2025-03-04,2025-02-27,有限会社遊花里,,有限会社,福井県,坂井市,丸岡町石上第２号５９番地,,18,210,9100317,,,2025-02-27,清算の結了等,,,2015-10-05,1,,,,,ユカリ,0
438,2240002046619,登記記録の閉鎖等,0,2025-03-04,2025-02-28,有限会社市政本店,,有限会社,広島県,府中市,府中町７５５番地,,34,208,7260005,,,2025-02-28,清算の結了等,,,2015-10-05,1,,,,,,0
441,2290001088822,登記記録の閉鎖等,0,2025-03-04,2025-02-19,株式会社ＰＲＩＤＥ　Ｒｕｎ,,株式会社,福岡県,福岡市東区,和白丘２丁目１１番１４号,,40,131,8110213,,,2025-02-19,清算の結了等,,,2020-05-26,1,,,,,プライドラン,0
460,2370003005890,登記記録の閉鎖等,0,2025-03-04,2025-02-27,ＦｒｏＭｅ合同会社,,合同会社,宮城県,仙台市青葉区,国分町１丁目４－９ｅｎｓｐａｃｅ,,04,101,9800803,,,2025-02-27,清算の結了等,,,2022-11-08,1,,,,,フロミー,0
462,2380002006476,登記記録の閉鎖等,0,2025-03-04,2025-02-20,有限会社池田理器,,有限会社,福島県,伊達市,梁川町広瀬町３８番地,,07,213,9600759,,,2025-02-20,清算の結了等,,,2015-10-05,1,,,,,イケダリキ,0
464,2400002000930,登記記録の閉鎖等,0,2025-03-04,2025-02-20,有限会社北浦商店,,有限会社,岩手県,盛岡市,厨川３丁目１０番９号,,03,201,0200124,,,2025-02-20,清算の結了等,,,2015-10-05,1,,,,,キタウラショウテン,0
466,2420002016248,登記記録の閉鎖等,0,2025-03-04,2025-02-28,有限会社オサチヒ,,有限会社,青森県,弘前市,大字蒔苗字独狐森８４番地２,,02,202,0368371,,,2025-02-28,清算の結了等,,,2015-10-05,1,,,,,オサチヒ,0
493,3010002036303,登記記録の閉鎖等,0,2025-03-04,2025-02-14,ジェイアイジーホールディングズ有限会社,,有限会社,東京都,千代田区,紀尾井町１番３号東京ガーデンテラス紀尾井町紀尾井タワー,,13,101,1020094,,,2025-02-14,清算の結了等,,,2015-10-05,1,,,,,ジェイアイジーホールディングズ,0
517,3010801034572,登記記録の閉鎖等,0,2025-03-04,2025-02-18,ＴｅｃｈＳｔｏｒｍ　Ｊａｐａｎ株式会社,,株式会社,東京都,大田区,鵜の木３丁目１２番１２号,,13,111,1460091,,,2025-02-18,清算の結了等,,,2023-12-06,1,,,,,テックストームジャパン,0
535,3011502016918,登記記録の閉鎖等,0,2025-03-04,2025-02-27,有限会社九十九商会,,有限会社,東京都,北区,中里１丁目３番３号,,13,117,1140015,,,2025-02-27,清算の結了等,,,2024-12-10,1,,,,,ツクモショウカイ,0
563,3020002036657,登記記録の閉鎖等,0,2025-03-04,2025-02-17,有限会社和幸工業,,有限会社,神奈川県,横浜市港北区,新吉田町１１２番地,,14,109,2230056,,,2025-02-17,清算の結了等,,,2015-10-05,1,,,,,ワコウコウギョウ,0
564,3020002106030,登記記録の閉鎖等,0,2025-03-04,2025-02-28,サンエナジー株式会社,,株式会社,大阪府,大阪市中央区,北浜２丁目１番１７号,,27,128,5410041,,,2025-02-28,清算の結了等,,,2015-10-05,1,,,,,サンエナジー,0
565,3020003018588,登記記録の閉鎖等,0,2025-03-04,2025-03-03,合同会社Ｋ’ｓケア・プランニング,,合同会社,神奈川県,鎌倉市,岩瀬５９１番地２１,,14,204,2470051,,,2025-03-03,清算の結了等,,,2020-10-06,1,,,,,,0
567,3020005011319,登記記録の閉鎖等,0,2025-03-04,2025-02-17,医療法人社団橋,,その他の設立登記法人,神奈川県,横浜市中区,長者町３丁目７番地５ＹＳ長者町ビル１階,,14,104,2310033,,,2025-02-17,清算の結了等,,,2015-10-05,1,,,,,キョウ,0
586,3040002092863,登記記録の閉鎖等,0,2025-03-04,2025-02-26,有限会社ですく,,有限会社,千葉県,我孫子市,天王台５丁目２番３－２０１号,,12,222,2701143,,,2025-02-26,清算の結了等,,,2015-10-05,1,,,,,デスク,0
598,3060002021779,登記記録の閉鎖等,0,2025-03-04,2025-02-28,有限会社ランドブリーズ,,有限会社,栃木県,鹿沼市,上石川１８９０番地４,,09,205,3220015,,,2025-02-28,清算の結了等,,,2015-10-05,1,,,,,ランドブリーズ,0
607,3080103001785,登記記録の閉鎖等,0,2025-03-04,2025-02-19,合同会社ＣＩ,,合同会社,静岡県,伊東市,八幡野６７１番地の２,,22,208,4130232,,,2025-02-19,清算の結了等,,,2018-01-31,1,,,,,シーアイ,0
620,3120001084102,登記記録の閉鎖等,0,2025-03-04,2025-02-28,立野金属株式会社,,株式会社,大阪府,大阪市中央区,上汐１丁目１番２２号,,27,128,5420064,,,2025-02-28,清算の結了等,,,2015-10-05,1,,,,,タテノキンゾク,0
626,3120003014395,登記記録の閉鎖等,0,2025-03-04,2025-02-26,Ｊ．Ｈ国際貿易合同会社,,合同会社,大阪府,大阪市生野区,勝山北５丁目５－１１,,27,116,5440033,,,2025-02-26,清算の結了等,,,2018-06-14,1,,,,,ジェーエイチコクサイボウエキ,0
641,3140002060901,登記記録の閉鎖等,0,2025-03-04,2025-02-25,アルス制測有限会社,,有限会社,兵庫県,西宮市,田近野町７番３３－２０４号,,28,204,6638001,,,2025-02-25,清算の結了等,,,2015-10-05,1,,,,,アルスセイソク,0
653,3180001030447,登記記録の閉鎖等,0,2025-03-04,2025-02-28,株式会社札幌かに本家,,株式会社,愛知県,名古屋市中村区,名駅南１丁目１７番２０号,,23,105,4500003,,,2025-02-28,合併による解散等,8180001031523,令和７年２月２８日名古屋市中村区名駅南一丁目１７番２０号株式会社札幌かに本家（8180001031523）に合併し解散,2015-10-05,1,,,,,サッポロカニホンケ,0
657,3180001141681,登記記録の閉鎖等,0,2025-03-04,2025-02-25,株式会社ＧＡＴ,,株式会社,愛知県,半田市,白山町５丁目２０７番地の１,,23,205,4750912,,,2025-02-25,清算の結了等,,,2020-06-24,1,,,,,ジーエイティー,0
662,3180302003481,登記記録の閉鎖等,0,2025-03-04,2025-02-27,有限会社松蓮,00074875,有限会社,愛知県,額田郡幸田町,大字上六栗字中切１９番地,,23,501,4440123,,,2025-02-27,清算の結了等,,,2015-10-05,1,,,,,マツレン,0
668,3230003001969,登記記録の閉鎖等,0,2025-03-04,2025-02-28,合同会社クローバー,,合同会社,富山県,富山市,黒崎３１１－４,,16,201,9398214,,,2025-02-28,清算の結了等,,,2023-02-21,1,,,,,クローバー,0
710,3470002006482,登記記録の閉鎖等,0,2025-03-04,2025-02-28,丸一温酒有限会社,,有限会社,香川県,高松市,常磐町１丁目４番地１３,,37,201,7600054,,,2025-02-28,清算の結了等,,,2015-10-05,1,,,,,マルイチオンシュ,0
713,3480005004061,登記記録の閉鎖等,0,2025-03-04,2025-02-26,特定非営利活動法人四国グリーンエージェンシー,,その他の設立登記法人,徳島県,阿波市,市場町大野島字野神４５番地３,,36,206,7711627,,,2025-02-26,清算の結了等,,,2015-10-05,1,,,,,シコクグリーンエージェンシー,0
747,4010602004591,登記記録の閉鎖等,0,2025-03-04,2025-02-28,有限会社二見屋商店,,有限会社,東京都,江東区,亀戸１丁目８番１１号,,13,108,1360071,,,2025-02-28,清算の結了等,,,2015-10-05,1,,,,,フタミヤショウテン,0
748,4010603007288,登記記録の閉鎖等,0,2025-03-04,2025-02-27,ヒマワリ合同会社,,合同会社,東京都,江東区,大島２丁目３０番１４号,,13,108,1360072,,,2025-02-27,清算の結了等,,,2018-06-14,1,,,,,ヒマワリ,0
764,4011101005890,登記記録の閉鎖等,0,2025-03-04,2025-02-25,株式会社グラバー企画,,株式会社,東京都,新宿区,西新宿８丁目３番３２号,,13,104,1600023,,,2025-02-25,清算の結了等,,,2015-10-05,1,,,,,グラバーキカク,0
769,4011105009632,登記記録の閉鎖等,0,2025-03-04,2025-02-26,ＳＩホールディングス一般社団法人,,その他の設立登記法人,東京都,新宿区,四谷２丁目９番地１５東京ユナイテッド綜合事務所内,,13,104,1600004,,,2025-02-26,清算の結了等,,,2020-12-21,1,,,,,エスアイホールディングス,0
779,4011801006098,登記記録の閉鎖等,0,2025-03-04,2025-02-27,株式会社今和商店,,株式会社,東京都,足立区,千住橋戸町５０番地,,13,121,1200038,,,2025-02-27,清算の結了等,,,2015-10-05,1,,,,,イマワショウテン,0
785,4013203000159,登記記録の閉鎖等,0,2025-03-04,2025-02-05,合資会社マートン・コンサルティング・コーポレーシヨン,,合資会社,東京都,目黒区,五本木２丁目１１番１０号,,13,110,1530053,,,2025-02-05,清算の結了等,,,2015-10-05,1,,,,,マートンコンサルティングコーポレーション,0
812,4021005012173,登記記録の閉鎖等,0,2025-03-04,2025-02-25,ＮＰＯ法人ジャパンスポーツコミュニティー,,その他の設立登記法人,神奈川県,逗子市,久木４丁目２１番１６号,,14,208,2490001,,,2025-02-25,清算の結了等,,,2021-04-13,1,,,,,ジャパンスポーツコミュニティー,0
814,4030001135359,登記記録の閉鎖等,0,2025-03-04,2025-03-03,ライブストック・アグリテクノ株式会社,,株式会社,埼玉県,さいたま市浦和区,高砂２丁目１１番１３号,,11,107,3300063,,,2025-03-03,合併による解散等,2030001122565,令和７年３月１日埼玉県さいたま市浦和区高砂二丁目１１番１３号株式会社カスケディア・トレーディング（2030001122565）に合併し解散,2020-03-03,1,,,,,ライブストックアグリテクノ,0
815,4030001140755,登記記録の閉鎖等,0,2025-03-04,2025-02-27,株式会社Ｃサポート,,株式会社,埼玉県,越谷市,相模町５丁目２１９番地,,11,222,3430823,,,2025-02-27,清算の結了等,,,2021-02-17,1,,,,,シーサポート,0
826,4040001066735,登記記録の閉鎖等,0,2025-03-04,2025-02-26,イケダ技研株式会社,,株式会社,茨城県,つくばみらい市,富士見ヶ丘１丁目１４番地７,,08,235,3002417,,,2025-02-26,清算の結了等,,,2015-10-05,1,,,,,イケダギケン,0
829,4040002090817,登記記録の閉鎖等,0,2025-03-04,2025-02-26,有限会社トクダ建築事務所,,有限会社,千葉県,柏市,藤心２丁目７番６号,,12,217,2770034,,,2025-02-26,清算の結了等,,,2015-10-05,1,,,,,トクダケンチクジムショ,0
842,4080103001784,登記記録の閉鎖等,0,2025-03-04,2025-02-19,合同会社ＣＹ,,合同会社,静岡県,伊東市,八幡野６７１番地の２,,22,208,4130232,,,2025-02-19,清算の結了等,,,2018-01-31,1,,,,,シーワイ,0
848,4110002020683,登記記録の閉鎖等,0,2025-03-04,2025-02-27,有限会社太洋フラワー,,有限会社,新潟県,柏崎市,西本町１丁目１０番３３号,,15,205,9450066,,,2025-02-27,清算の結了等,,,2015-10-05,1,,,,,タイヨウフラワー,0
865,4120005011571,登記記録の閉鎖等,0,2025-03-04,2025-02-28,特定非営利活動法人水環境創造機構,,その他の設立登記法人,大阪府,大阪市北区,梅田１丁目１番３－５００大阪駅前第３ビル５階１０号,,27,127,5300001,,,2025-02-28,清算の結了等,,,2015-10-05,1,,,,,ミズカンキョウソウゾウキコウ,0
870,4122002014581,登記記録の閉鎖等,0,2025-03-04,2025-02-28,有限会社平岡地所,,有限会社,大阪府,八尾市,山本町南１丁目８番２４号,,27,212,5810013,,,2025-02-28,清算の結了等,,,2015-10-05,1,,,,,ヒラオカジショ,0
881,4140005005340,登記記録の閉鎖等,0,2025-03-04,2025-03-03,特定非営利活動法人ほっと・はうす,,その他の設立登記法人,兵庫県,神戸市中央区,相生町５丁目１０番２１－１０２号,,28,110,6500025,,,2025-03-03,清算の結了等,,,2015-10-05,1,,,,,ホットハウス,0
892,4180002064369,登記記録の閉鎖等,0,2025-03-04,2025-02-27,有限会社山本鋼業,,有限会社,愛知県,豊明市,新田町錦４番地の７,,23,229,4701113,,,2025-02-27,清算の結了等,,,2015-10-05,1,,,,,ヤマモトコウギョウ,0
905,4200001006930,登記記録の閉鎖等,0,2025-03-04,2025-02-28,株式会社各務原食糧,,株式会社,岐阜県,各務原市,鵜沼東町５丁目６１番地,,21,213,5090126,,,2025-02-28,清算の結了等,,,2015-10-05,1,,,,,カカミガハラショクリョウ,0
906,4200001027019,登記記録の閉鎖等,0,2025-03-04,2025-02-28,株式会社オフィス町田,,株式会社,岐阜県,岐阜市,柳津町丸野２丁目１４番地２,,21,201,5016115,,,2025-02-28,清算の結了等,,,2015-10-05,1,,,,,オフィスマチダ,0
907,4200002004974,登記記録の閉鎖等,0,2025-03-04,2025-02-28,有限会社山十メディカル,,有限会社,岐阜県,岐阜市,領下堂前２８９の１,,21,201,5008241,,,2025-02-28,清算の結了等,,,2015-10-05,1,,,,,ヤマジュウメディカル,0
908,4210001011558,登記記録の閉鎖等,0,2025-03-04,2025-02-28,株式会社かとう商会,,株式会社,福井県,越前市,小松１丁目４番７号,,18,209,9150816,,,2025-02-28,清算の結了等,,,2015-10-05,1,,,,,カトウショウカイ,0
923,4260002027912,登記記録の閉鎖等,0,2025-03-04,2025-02-28,有限会社大家鉄工所,,有限会社,岡山県,津山市,鍛治町４１番地,,33,203,7080077,,,2025-02-28,清算の結了等,,,2015-10-05,1,,,,,オオヤテッコウショ,0
942,4300002001227,登記記録の閉鎖等,0,2025-03-04,2025-02-28,有限会社平野機械,,有限会社,佐賀県,佐賀市,本庄町大字袋２９８番地の８,,41,201,8400023,,,2025-02-28,清算の結了等,,,2015-10-05,1,,,,,ヒラノキカイ,0
954,4340005009057,登記記録の閉鎖等,0,2025-03-04,2025-02-26,特定非営利活動法人鹿児島おさかな倶楽部,,その他の設立登記法人,鹿児島県,鹿児島市,下荒田１丁目３７番１号ラーバン８６　５０１号室,,46,201,8900056,,,2025-02-26,清算の結了等,,,2019-09-11,1,,,,,カゴシマオサカナクラブ,0
967,4430002052703,登記記録の閉鎖等,0,2025-03-04,2025-02-25,有限会社道央タイヤ商会,,有限会社,北海道,滝川市,新町５丁目１７番３６号,,01,225,0730033,,,2025-02-25,清算の結了等,,,2015-10-05,1,,,,,ドウオウタイヤショウカイ,0
968,4450002009602,登記記録の閉鎖等,0,2025-03-04,2025-03-03,株式会社富良野自然農園,,株式会社,北海道,札幌市厚別区,厚別南２丁目２６－１－１０３,,01,108,0040022,,,2025-03-03,清算の結了等,,,2015-10-05,1,,,,,フラノシゼンノウエン,0
978,5010001054188,登記記録の閉鎖等,0,2025-03-04,2025-02-04,株式会社花の木,,株式会社,東京都,目黒区,緑が丘２丁目２０番３号,,13,110,1520034,,,2025-02-04,清算の結了等,,,2015-10-05,1,,,,,ハナノキ,0
982,5010001243212,登記記録の閉鎖等,0,2025-03-04,2025-02-17,株式会社ｏｍａｎ,,株式会社,東京都,中央区,銀座８丁目１８番１２,,13,102,1040061,,,2025-02-17,清算の結了等,,,2024-03-19,1,,,,,オマン,0
997,5010401017026,登記記録の閉鎖等,0,2025-03-04,2025-02-17,株式会社竹中パートナーズ,,株式会社,東京都,千代田区,二番町５番地２５二番町テラス９１１,,13,101,1020084,,,2025-02-17,清算の結了等,,,2015-10-05,1,,,,,タケナカパートナーズ,0
1006,5010801032013,登記記録の閉鎖等,0,2025-03-04,2025-02-26,株式会社ＴＭホールディングス,,株式会社,東京都,大田区,西馬込１丁目３２番１５号共信ビル２０１号室,,13,111,1430026,,,2025-02-26,合併による解散等,1010001247852,令和７年２月１日東京都千代田区神田神保町３－１２－３神保町スリービル８階株式会社ＴＭホールディングス（1010001247852）に合併し解散,2021-06-07,1,,,,,ティーエムホールディングス,0
1040,5012803001920,登記記録の閉鎖等,0,2025-03-04,2025-02-19,合同会社テクニカルネットワーク,,合同会社,東京都,東大和市,高木３丁目４０８番地の５,,13,220,2070005,,,2025-02-19,清算の結了等,,,2018-11-02,1,,,,,,0
1058,5020003008397,登記記録の閉鎖等,0,2025-03-04,2025-02-25,株式会社Ｐｌｅｓｉｓ,,株式会社,東京都,江戸川区,西瑞江４丁目１４－８ＴＳＭビル４階Ｅ,,13,123,1340015,,,2025-02-25,清算の結了等,,,2015-10-05,1,,,,,プレシス,0
1071,5030003015236,登記記録の閉鎖等,0,2025-03-04,2025-02-27,合同会社ソルティック,,合同会社,埼玉県,行田市,大字埼玉５０２４番地１,,11,206,3610025,,,2025-02-27,清算の結了等,,,2020-05-11,1,,,,,ソルティック,0
1084,5040005017287,登記記録の閉鎖等,0,2025-03-04,2025-02-25,特定非営利活動法人アート工房優,,その他の設立登記法人,千葉県,船橋市,藤原６丁目２３番１－５０６号,,12,204,2730047,,,2025-02-25,清算の結了等,,,2015-10-05,1,,,,,アートコウボウユウ,0
1093,5070002030661,登記記録の閉鎖等,0,2025-03-04,2025-02-28,有限会社ひまわり薬品,,有限会社,群馬県,太田市,宝町６４２番地８,,10,205,3730042,,,2025-02-28,清算の結了等,,,2015-10-05,1,,,,,ヒマワリヤクヒン,0
1133,5130005011891,登記記録の閉鎖等,0,2025-03-04,2025-02-28,特定非営利活動法人カタツムリ,,その他の設立登記法人,京都府,舞鶴市,字浜１４９番地の１,,26,202,6250036,,,2025-02-28,清算の結了等,,,2015-10-05,1,,,,,カタツムリ,0
1136,5140001074990,登記記録の閉鎖等,0,2025-03-04,2025-02-26,高徳銘醸株式会社,00040035,株式会社,兵庫県,加東市,下滝野５０５番地,,28,228,6790212,,,2025-02-26,清算の結了等,,,2015-10-05,1,,,,,,0
1149,5160002006479,登記記録の閉鎖等,0,2025-03-04,2025-02-28,有限会社湖北さく泉,,有限会社,滋賀県,長浜市,三ツ矢元町１４番２号,,25,203,5260024,,,2025-02-28,清算の結了等,,,2015-10-05,1,,,,,コホクサクセン,0
1150,5160003000357,登記記録の閉鎖等,0,2025-03-04,2025-02-28,オージーテック合同会社,,合同会社,滋賀県,草津市,野路町３７０番地１３,,25,206,5250055,,,2025-02-28,清算の結了等,,,2015-10-05,1,,,,,オージーテック,0
1152,5180001053256,登記記録の閉鎖等,0,2025-03-04,2025-02-26,積和トータルサポート株式会社,,株式会社,愛知県,名古屋市中区,松原３丁目１３番４３号,,23,106,4600017,,,2025-02-26,合併による解散等,5180001031328,令和７年２月１日名古屋市中村区名駅四丁目２４番１６号積水ハウスシャーメゾンＰＭ中部株式会社（5180001031328）に合併し解散,2015-10-05,1,,,,,セキワトータルサポート,0
1153,5180001114966,登記記録の閉鎖等,0,2025-03-04,2025-02-27,水谷塗装株式会社,,株式会社,愛知県,名古屋市天白区,植田西１丁目１００１番地の４,,23,116,4680058,,,2025-02-27,清算の結了等,,,2015-10-05,1,,,,,ミズタニトソウ,0
1157,5180301024386,登記記録の閉鎖等,0,2025-03-04,2025-02-26,株式会社山一産業,,株式会社,愛知県,新城市,只持字社ノ５０番２,,23,221,4411954,,,2025-02-26,清算の結了等,,,2015-10-05,1,,,,,ヤマイチサンギョウ,0
1161,5200001004371,登記記録の閉鎖等,0,2025-03-04,2025-02-28,日の丸トラベル株式会社,,株式会社,岐阜県,岐阜市,金園町２丁目１１番３,,21,201,5008113,,,2025-02-28,清算の結了等,,,2015-10-05,1,,,,,ヒノマルトラベル,0
1165,5200002005402,登記記録の閉鎖等,0,2025-03-04,2025-02-28,有限会社マスニシ建工,,有限会社,岐阜県,岐阜市,守口町４丁目２４番地,,21,201,5020921,,,2025-02-28,清算の結了等,,,2015-10-05,1,,,,,,0
1171,5200002027099,登記記録の閉鎖等,0,2025-03-04,2025-02-28,有限会社飛騨商会,00077147,有限会社,岐阜県,飛騨市,古川町上気多１２８１番地の４,,21,217,5094212,,,2025-02-28,清算の結了等,,,2015-10-05,1,,,,,ヒダショウカイ,0
1194,5270002009784,登記記録の閉鎖等,0,2025-03-04,2025-02-28,有限会社上井酒類販売店,,有限会社,鳥取県,倉吉市,上井町１丁目６番地の１２,,31,203,6820022,,,2025-02-28,清算の結了等,,,2015-10-05,1,,,,,アゲイシュルイハンバイテン,0
1198,5290001047560,登記記録の閉鎖等,0,2025-03-04,2025-02-20,八女観光株式会社,,株式会社,福岡県,八女市,本町１番地の２１７,,40,210,8340031,,,2025-02-20,清算の結了等,,,2015-10-05,1,,,,,ヤメカンコウ,0
1202,5310001000319,登記記録の閉鎖等,0,2025-03-04,2025-02-28,株式会社お茶の山口園,,株式会社,長崎県,長崎市,文教町８番２号,,42,201,8528131,,,2025-02-28,清算の結了等,,,2015-10-05,1,,,,,オチャノヤマグチエン,0
1205,5320002015488,登記記録の閉鎖等,0,2025-03-04,2025-02-28,三又重機有限会社,,有限会社,大分県,国東市,国東町中田２２５２番地の１,,44,214,8730532,,,2025-02-28,清算の結了等,,,2015-10-05,1,,,,,ミマタジュウキ,0
1220,5390003001992,登記記録の閉鎖等,0,2025-03-04,2025-02-25,合同会社ツナグッド,,合同会社,山形県,山形市,大字長谷堂１１１６－２,,06,201,9902363,,,2025-02-25,清算の結了等,,,2022-09-06,1,,,,,ツナグッド,0
1263,6010403027220,登記記録の閉鎖等,0,2025-03-04,2025-02-07,マニアＬＩＮＥ合同会社,,合同会社,東京都,港区,南青山２丁目２番１５号,,13,103,1070062,,,2025-02-07,清算の結了等,,,2022-03-07,1,,,,,マニアライン,0
1289,6011001111804,登記記録の閉鎖等,0,2025-03-04,2025-02-10,株式会社グリッターライン,,株式会社,東京都,港区,南青山２丁目２番１５号ウィン青山１３０２,,13,103,1070062,,,2025-02-10,清算の結了等,,,2016-07-12,1,,,,,グリッターライン,0
1304,6011201015862,登記記録の閉鎖等,0,2025-03-04,2025-02-28,フルーツクリーム・ジャパン株式会社,,株式会社,東京都,中野区,本町５丁目６番１０号,,13,114,1640012,,,2025-02-28,清算の結了等,,,2015-10-05,1,,,,,フルーツクリームジャパン,0
1306,6011402017633,登記記録の閉鎖等,0,2025-03-04,2025-02-26,有限会社タウン保険事務所,,有限会社,東京都,板橋区,上板橋２丁目４１番５号ＮＴＫビル９５、２０５号,,13,119,1740076,,,2025-02-26,清算の結了等,,,2015-10-05,1,,,,,タウンホケンジムショ,0
1307,6011405001452,登記記録の閉鎖等,0,2025-03-04,2025-02-25,特定非営利活動法人すだち,,その他の設立登記法人,東京都,板橋区,舟渡１丁目５番１３号株式会社ＣＳ内,,13,119,1740041,,,2025-02-25,清算の結了等,,,2015-10-05,1,,,,,スダチ,0
1330,6020001064862,登記記録の閉鎖等,0,2025-03-04,2025-02-14,株式会社ヨシザワ不動産,,株式会社,神奈川県,川崎市多摩区,登戸３４１４番地,,14,135,2140014,,,2025-02-14,合併による解散等,1020001064297,令和７年２月１４日川崎市多摩区登戸３４１４番地株式会社西武（1020001064297）に合併し解散,2015-10-05,1,,,,,ヨシザワフドウサン,0
1359,6030002093100,登記記録の閉鎖等,0,2025-03-04,2025-02-05,有限会社ワールドテック,,有限会社,埼玉県,坂戸市,大字北峰１９１番地１５,,11,239,3500258,,,2025-02-05,清算の結了等,,,2015-10-05,1,,,,,ワールドテック,0
1360,6030002107974,登記記録の閉鎖等,0,2025-03-04,2025-02-27,有限会社ヤマシタシステム造作,,有限会社,埼玉県,川口市,大字新堀字榎戸７１７番１,,11,203,3340061,,,2025-02-27,清算の結了等,,,2015-10-05,1,,,,,,0
1366,6050001027619,登記記録の閉鎖等,0,2025-03-04,2025-02-21,株式会社フラワーショップナガツカ,,株式会社,茨城県,取手市,取手２丁目４番７号,,08,217,3020004,,,2025-02-21,合併による解散等,9050001043919,令和７年２月２１日茨城県取手市岡３２５番地株式会社スミヤビル（9050001043919）に合併し解散,2015-10-05,1,,,,,フラワーショップナガツカ,0
1373,6080001004771,登記記録の閉鎖等,0,2025-03-04,2025-02-27,株式会社前幸商店,,株式会社,静岡県,静岡市葵区,錦町２３番地の１,,22,101,4200015,,,2025-02-27,清算の結了等,,,2015-10-05,1,,,,,マエコウショウテン,0
1418,6160005000065,登記記録の閉鎖等,0,2025-03-04,2025-02-28,一般社団法人滋賀県職員退職者会,,その他の設立登記法人,滋賀県,大津市,京町４丁目１番１号,,25,201,5200044,,,2025-02-28,清算の結了等,,,2015-10-05,1,,,,,シガケンショクインタイショクシャカイ,0
1424,6180002018249,登記記録の閉鎖等,0,2025-03-04,2025-02-28,有限会社下村サッシ,,有限会社,愛知県,名古屋市中川区,荒江町１６番１９号,,23,110,4540032,,,2025-02-28,清算の結了等,,,2015-10-05,1,,,,,シモムラサッシ,0
1426,6180002088820,登記記録の閉鎖等,0,2025-03-04,2025-02-27,有限会社ウイット,,有限会社,愛知県,東海市,高横須賀町５丁目１１９番地,,23,222,4770037,,,2025-02-27,清算の結了等,,,2015-10-05,1,,,,,ウィット,0
1427,6180303004154,登記記録の閉鎖等,0,2025-03-04,2025-02-26,合同会社第一企鵝,,合同会社,愛知県,岡崎市,井田町字１丁目６１番地キングスコート井田４０２,,23,202,4440076,,,2025-02-26,清算の結了等,,,2018-09-14,1,,,,,ダイイチキガ,0
1444,6250001005298,登記記録の閉鎖等,0,2025-03-04,2025-02-27,株式会社関門ミシン,,株式会社,山口県,下関市,上田中町３丁目５番３７号,,35,201,7500009,,,2025-02-27,清算の結了等,,,2015-10-05,1,,,,,カンモンミシン,0
1466,6370002007273,登記記録の閉鎖等,0,2025-03-04,2025-02-27,有限会社グランプリオート,,有限会社,宮城県,仙台市宮城野区,岩切３丁目２４番１８号,,04,102,9830821,,,2025-02-27,清算の結了等,,,2015-10-05,1,,,,,グランプリオート,0
1480,6420001013894,登記記録の閉鎖等,0,2025-03-04,2025-02-28,朝日工業株式会社,,株式会社,青森県,八戸市,高州１丁目３番２０号,,02,203,0391163,,,2025-02-28,清算の結了等,,,2015-10-05,1,,,,,アサヒコウギョウ,0
1496,7010001129582,登記記録の閉鎖等,0,2025-03-04,2025-02-17,株式会社ブレイントラスター,,株式会社,東京都,中央区,東日本橋２丁目２８番４号日本橋ＣＥＴビル２階,,13,102,1030004,,,2025-02-17,清算の結了等,,,2015-10-05,1,,,,,ブレイントラスター,0
1511,7010401103550,登記記録の閉鎖等,0,2025-03-04,2025-02-10,株式会社メディファーマ,,株式会社,東京都,港区,芝５丁目３１番１９号,,13,103,1080014,,,2025-02-10,清算の結了等,,,2015-10-05,1,,,,,メディファーマ,0
1512,7010401138563,登記記録の閉鎖等,0,2025-03-04,2025-02-05,スポーツ・ファシリティ・マネジメント株式会社,,株式会社,東京都,渋谷区,代官山町１０番１５－４０１号,,13,113,1500034,,,2025-02-05,清算の結了等,,,2018-05-24,1,,,,,スポーツファシリティマネジメント,0
1531,7011001156633,登記記録の閉鎖等,0,2025-03-04,2025-02-04,ＳＯ‐ＭＡＮＡＧＥＭＥＮＴ株式会社,,株式会社,東京都,目黒区,下目黒１丁目８番１号アルコタワー７階,,13,110,1530064,,,2025-02-04,合併による解散等,9011001142243,令和７年２月１日東京都目黒区下目黒一丁目８－１アルコタワー７階ＳＯ－ＣＯＮＳＵＬＴ株式会社（9011001142243）に合併し解散,2023-08-30,1,,,,,エスオーマネージメント,0
1541,7011102019061,登記記録の閉鎖等,0,2025-03-04,2025-02-14,有限会社一色ビルサポート,,有限会社,東京都,世田谷区,成城８丁目２３番２１－１０１３号,,13,112,1570066,,,2025-02-14,清算の結了等,,,2015-10-05,1,,,,,イッシキビルサポート,0
1550,7012401019792,登記記録の閉鎖等,0,2025-03-04,2025-03-03,株式会社Ｒｏｚｅｂｏｏｍ,,株式会社,東京都,府中市,多磨町２丁目５４番地の７５,,13,206,1830002,,,2025-03-03,清算の結了等,,,2015-10-05,1,,,,,ロズブーム,0
1565,7021003009474,登記記録の閉鎖等,0,2025-03-04,2025-02-28,合同会社創生企画,,合同会社,神奈川県,三浦郡葉山町,木古庭１６８１番地の５４,,14,301,2400114,,,2025-02-28,清算の結了等,,,2020-06-26,1,,,,,ソウセイキカク,0
1579,7050002029084,登記記録の閉鎖等,0,2025-03-04,2025-02-26,有限会社齋藤電設,,有限会社,茨城県,行方市,玉造甲５４３５番地,,08,233,3113512,,,2025-02-26,清算の結了等,,,2015-10-05,1,,,,,サイトウデンセツ,0
1584,7080101008093,登記記録の閉鎖等,0,2025-03-04,2025-02-28,株式会社伊賀鉄工所,,株式会社,静岡県,富士市,久沢５５３番地,,22,210,4190202,,,2025-02-28,清算の結了等,,,2015-10-05,1,,,,,イガテッコウジョ,0
1599,7120001259170,登記記録の閉鎖等,0,2025-03-04,2025-02-28,株式会社グランストラーダ,,株式会社,大阪府,大阪市東淀川区,上新庄２丁目２０番７号,,27,114,5330006,,,2025-02-28,清算の結了等,,,2023-10-26,1,,,,,グランストラーダ,0
1611,7120102014061,登記記録の閉鎖等,0,2025-03-04,2025-02-26,有限会社きたの,,有限会社,大阪府,松原市,南新町３丁目８番９号,,27,217,5800023,,,2025-02-26,清算の結了等,,,2015-10-05,1,,,,,キタノ,0
1612,7120102015316,登記記録の閉鎖等,0,2025-03-04,2025-02-27,有限会社古城商店,,有限会社,大阪府,大阪狭山市,池尻中１丁目９番１０号,,27,231,5890007,,,2025-02-27,清算の結了等,,,2015-10-05,1,,,,,フルジョウショウテン,0
1613,7120103002131,登記記録の閉鎖等,0,2025-03-04,2025-02-26,合同会社相良村メガソーラー,,合同会社,大阪府,泉佐野市,鶴原１８４７番地１－１０１号,,27,213,5980071,,,2025-02-26,清算の結了等,,,2015-10-05,1,,,,,サガラムラメガソーラー,0
1631,7140005019123,登記記録の閉鎖等,0,2025-03-04,2025-03-03,特定非営利活動法人ＴＡＫＡＲＡＺＵＫＡ都市活性プロジエクト,,その他の設立登記法人,兵庫県,宝塚市,武庫川町２番２号１Ｆ,,28,214,6650844,,,2025-03-03,清算の結了等,,,2015-10-05,1,,,,,タカラヅカトシカッセイプロジェクト,0
1634,7170005005252,登記記録の閉鎖等,0,2025-03-04,2025-02-28,一般財団法人新熊野体験研修協会,,その他の設立登記法人,和歌山県,新宮市,高田１８１０番地,,30,207,6471101,,,2025-02-28,清算の結了等,,,2015-10-05,1,,,,,シンクマノタイケンケンシュウキョウカイ,0
1640,7180003001186,登記記録の閉鎖等,0,2025-03-04,2025-02-26,関谷プレス合資会社,,合資会社,愛知県,名古屋市瑞穂区,浮島町１５番８号,,23,108,4670854,,,2025-02-26,清算の結了等,,,2015-10-05,1,,,,,セキヤプレス,0
1650,7200001013107,登記記録の閉鎖等,0,2025-03-04,2025-02-26,株式会社後藤建材,,株式会社,岐阜県,岐阜市,芥見２丁目１７７番地３,,21,201,5013134,,,2025-02-26,清算の結了等,,,2015-10-05,1,,,,,ゴトウケンザイ,0
1655,7220002012015,登記記録の閉鎖等,0,2025-03-04,2025-02-27,有限会社サワダ,,有限会社,石川県,小松市,四丁町ヘ１番地１,,17,203,9230971,,,2025-02-27,清算の結了等,,,2015-10-05,1,,,,,サワダ,0
1690,7390001009615,登記記録の閉鎖等,0,2025-03-04,2025-02-27,株式会社最上山陽,,株式会社,山形県,尾花沢市,大字延沢１０８１番地の１,,06,212,9994441,,,2025-02-27,清算の結了等,,,2015-10-05,1,,,,,モガミサンヨウ,0
1738,8010801022481,登記記録の閉鎖等,0,2025-03-04,2025-02-21,株式会社ファインズ,,株式会社,東京都,大田区,矢口１丁目３番１号,,13,111,1460093,,,2025-02-21,清算の結了等,,,2015-10-05,1,,,,,ファインズ,0
1760,8011803000657,登記記録の閉鎖等,0,2025-03-04,2025-02-27,合資会社富士製作所,,合資会社,東京都,足立区,小台１丁目６番１０号,,13,121,1200046,,,2025-02-27,清算の結了等,,,2015-10-05,1,,,,,フジセイサクショ,0
1763,8012401017250,登記記録の閉鎖等,0,2025-03-04,2025-02-28,株式会社インベストアイ,,株式会社,東京都,小金井市,本町６丁目９番２号,,13,210,1840004,,,2025-02-28,清算の結了等,,,2015-10-05,1,,,,,インベストアイ,0
1779,8020001124557,登記記録の閉鎖等,0,2025-03-04,2025-02-20,株式会社朝日サクセス,,株式会社,神奈川県,横浜市旭区,中希望が丘１０４番地５,,14,112,2410825,,,2025-02-20,清算の結了等,,,2018-01-16,1,,,,,アサヒサクセス,0
1789,8020003025803,登記記録の閉鎖等,0,2025-03-04,2025-02-18,合同会社ＴｒｉＳｙｎｃ,,合同会社,神奈川県,横浜市西区,北幸２丁目１０番４８号むつみビル３階,,14,103,2200004,,,2025-02-18,清算の結了等,,,2024-03-26,1,,,,,トライシンク,0
1796,8021002061608,登記記録の閉鎖等,0,2025-03-04,2025-03-03,有限会社エスプリ・デキップ,,有限会社,神奈川県,平塚市,桃浜町２１番１６－２号,,14,203,2540815,,,2025-03-03,清算の結了等,,,2015-10-05,1,,,,,エスプリデキップ,0
1837,8070001011734,登記記録の閉鎖等,0,2025-03-04,2025-02-28,小林精密鈑金工業株式会社,,株式会社,群馬県,富岡市,下高尾１２１４番地の１,,10,210,3702311,,,2025-02-28,清算の結了等,,,2015-10-05,1,,,,,コバヤシセイミツバンキンコウギョウ,0
1840,8070002024578,登記記録の閉鎖等,0,2025-03-04,2025-02-28,有限会社藤光電機,,有限会社,群馬県,みどり市,笠懸町阿左美２４６７番地の１,,10,212,3792311,,,2025-02-28,清算の結了等,,,2015-10-05,1,,,,,,0
1845,8090001015816,登記記録の閉鎖等,0,2025-03-04,2025-02-27,早川鉱業株式会社,,株式会社,山梨県,南巨摩郡早川町,早川１５８１番地,,19,364,4092705,,,2025-02-27,清算の結了等,,,2018-11-27,1,,,,,ハヤカワコウギョウ,0
1854,8120001224693,登記記録の閉鎖等,0,2025-03-04,2025-03-03,株式会社ＡＢＣ　Ｇｌａｍｐ＆Ｏｕｔｄｏｏｒｓ,,株式会社,大阪府,大阪市福島区,福島１丁目１番３０号,,27,103,5530003,,,2025-03-03,清算の結了等,,,2019-10-31,1,,,,,エービーシーグランプアンドアウトドアーズ,0
1875,8140001074534,登記記録の閉鎖等,0,2025-03-04,2025-02-26,株式会社フロンテ,,株式会社,兵庫県,西宮市,甲子園町１９番２号,,28,204,6638152,,,2025-02-26,清算の結了等,,,2015-10-05,1,,,,,フロンテ,0
1907,8210002007097,登記記録の閉鎖等,0,2025-03-04,2025-02-28,有限会社坂本会計,,有限会社,福井県,坂井市,三国町緑ケ丘４丁目１９番１８号,,18,210,9130048,,,2025-02-28,清算の結了等,,,2015-10-05,1,,,,,サカモトカイケイ,0
1928,8310002008639,登記記録の閉鎖等,0,2025-03-04,2025-02-28,有限会社浅見造船所,,有限会社,長崎県,長崎市,野母町３５９１番地２,,42,201,8510505,,,2025-02-28,清算の結了等,,,2015-10-05,1,,,,,アサミゾウセンショ,0
1929,8320001016039,登記記録の閉鎖等,0,2025-03-04,2025-03-03,株式会社七星,,株式会社,大分県,大分市,向原東２丁目２番１２号キャトルフィーユ向原Ｑ０１,,44,201,8700904,,,2025-03-03,清算の結了等,,,2017-12-04,1,,,,,ナナホシ,0
1931,8320002012053,登記記録の閉鎖等,0,2025-03-04,2025-02-28,有限会社日新眼鏡光学商会,,有限会社,大分県,別府市,大字北石垣７２７番地の８,,44,202,8740000,,,2025-02-28,清算の結了等,,,2015-10-05,1,,,,,ニッシンガンキョウコウガクショウカイ,0
1933,8330001012169,登記記録の閉鎖等,0,2025-03-04,2025-02-27,株式会社カゼコクリエイティブ,,株式会社,熊本県,荒尾市,金山１９１７番地３,,43,204,8640162,,,2025-02-27,清算の結了等,,,2015-10-05,1,,,,,,0
1993,9010405011715,登記記録の閉鎖等,0,2025-03-04,2025-02-07,特定非営利活動法人国際アーティストネットワーク,,その他の設立登記法人,東京都,港区,赤坂９丁目６番２９号パシフィック乃木坂９０６,,13,103,1070052,,,2025-02-07,清算の結了等,,,2015-10-05,1,,,,,コクサイアーティストネットワーク,0
2001,9010603006590,登記記録の閉鎖等,0,2025-03-04,2025-02-26,テンパーズ合同会社,,合同会社,千葉県,浦安市,弁天３丁目２番５－３号,,12,227,2790026,,,2025-02-26,清算の結了等,,,2017-01-17,1,,,,,テンパーズ,0
2013,9011001162159,登記記録の閉鎖等,0,2025-03-04,2025-02-03,株式会社２ＸＥ７,,株式会社,東京都,渋谷区,恵比寿２丁目２８番１６号,,13,113,1500013,,,2025-02-03,清算の結了等,,,2024-05-21,1,,,,,ツーエックスイーセブン,0
2038,9011502013430,登記記録の閉鎖等,0,2025-03-04,2025-02-26,有限会社シーサーデザイン,,有限会社,東京都,北区,十条仲原２丁目１４番３号２Ｆ,,13,117,1140031,,,2025-02-26,清算の結了等,,,2015-10-05,1,,,,,シーサーデザイン,0
2044,9012401025707,登記記録の閉鎖等,0,2025-03-04,2025-02-27,株式会社ロール,,株式会社,東京都,調布市,布田１丁目２６番地１２ダイアパレス１０７,,13,208,1820024,,,2025-02-27,清算の結了等,,,2015-10-05,1,,,,,ロール,0
2048,9012405003972,登記記録の閉鎖等,0,2025-03-04,2025-02-28,一般社団法人まちづくり府中,,その他の設立登記法人,東京都,府中市,宮西町２丁目８番地の３野口ビル２階,,13,206,1830022,,,2025-02-28,清算の結了等,,,2017-01-05,1,,,,,マチヅクリフチュウ,0
2065,9021001015976,登記記録の閉鎖等,0,2025-03-04,2025-03-03,共立機械製作所株式会社,,株式会社,神奈川県,相模原市中央区,田名２７４５番地４,,14,152,2520244,,,2025-03-03,清算の結了等,,,2015-10-05,1,,,,,,0
2066,9021001057374,登記記録の閉鎖等,0,2025-03-04,2025-03-03,株式会社Ｌｉｅｎ,,株式会社,神奈川県,海老名市,中野２丁目８－１９,,14,215,2430425,,,2025-03-03,清算の結了等,,,2015-10-05,1,,,,,リアン,0
2068,9030001085723,登記記録の閉鎖等,0,2025-03-04,2025-02-10,株式会社エール,,株式会社,東京都,港区,虎ノ門３丁目１８番６号朝日虎ノ門マンション６１４号室,,13,103,1050001,,,2025-02-10,清算の結了等,,,2015-10-05,1,,,,,エール,0
2090,9060001024331,登記記録の閉鎖等,0,2025-03-04,2025-02-28,ＮＡＳＰＯ株式会社,,株式会社,栃木県,那須塩原市,大原間西１丁目１番地１０,,09,213,3293157,,,2025-02-28,清算の結了等,,,2015-10-05,1,,,,,ナスポ,0
2097,9080101009759,登記記録の閉鎖等,0,2025-03-04,2025-02-27,丸産自動車工業株式会社,,株式会社,静岡県,富士市,依田橋町１０番３号,,22,210,4170003,,,2025-02-27,清算の結了等,,,2015-10-05,1,,,,,マルサンジドウシャコウギョウ,0
2099,9080103001788,登記記録の閉鎖等,0,2025-03-04,2025-02-19,合同会社ＣＯ,,合同会社,静岡県,伊東市,八幡野６７１番地の２,,22,208,4130232,,,2025-02-19,清算の結了等,,,2018-01-31,1,,,,,シーオー,0
2105,9080405005264,登記記録の閉鎖等,0,2025-03-04,2025-02-21,磐田市土地開発公社,,その他の設立登記法人,静岡県,磐田市,国府台３番地１,,22,211,4380077,,,2025-02-21,清算の結了等,,,2015-10-05,1,,,,,イワタシ,0
2110,9110003003179,登記記録の閉鎖等,0,2025-03-04,2025-02-28,合同会社アノマリー,,合同会社,新潟県,新潟市中央区,関新２丁目１番７３号ダイカンプラザ遊学館,,15,103,9518141,,,2025-02-28,清算の結了等,,,2015-10-05,1,,,,,アノマリー,0
2122,9120002080342,登記記録の閉鎖等,0,2025-03-04,2025-02-19,有限会社向江工業,,有限会社,大阪府,門真市,東田町９番２８号,,27,223,5710034,,,2025-02-19,清算の結了等,,,2015-10-05,1,,,,,,0
2143,9140001062356,登記記録の閉鎖等,0,2025-03-04,2025-02-27,株式会社浪漫珈琲倶楽部,,株式会社,兵庫県,姫路市,増位新町１丁目８番地の２,,28,201,6700806,,,2025-02-27,清算の結了等,,,2015-10-05,1,,,,,ロマンコーヒークラブ,0
2144,9140001067223,登記記録の閉鎖等,0,2025-03-04,2025-02-27,三立防水株式会社,,株式会社,兵庫県,神戸市中央区,筒井町２丁目３番１７号東宝ハイツＩＩ１０１号室,00039935,28,110,6510071,,,2025-02-27,清算の結了等,,,2015-10-05,1,,,,,サンリツボウスイ,0
2160,9180001001426,登記記録の閉鎖等,0,2025-03-04,2025-02-26,株式会社ライトアップ,,株式会社,愛知県,名古屋市守山区,菱池町１３番４５号,,23,113,4630045,,,2025-02-26,清算の結了等,,,2015-10-05,1,,,,,ライトアップ,0
2170,9200002004103,登記記録の閉鎖等,0,2025-03-04,2025-02-28,有限会社プリンテックス,,有限会社,岐阜県,岐阜市,中西郷４丁目１５６番地,,21,201,5011177,,,2025-02-28,清算の結了等,,,2015-10-05,1,,,,,プリンテックス,0
2189,9260001034847,登記記録の閉鎖等,0,2025-03-04,2025-03-03,クラフトファン株式会社,,株式会社,岡山県,倉敷市,玉島陶３５４６－１,,33,202,7138112,,,2025-03-03,清算の結了等,,,2020-10-26,1,,,,,クラフトファン,0
2190,9260002026901,登記記録の閉鎖等,0,2025-03-04,2025-02-26,八木商事有限会社,,有限会社,岡山県,高梁市,片原町１３番地,,33,209,7160013,,,2025-02-26,清算の結了等,,,2015-10-05,1,,,,,ヤギショウジ,0
2192,9280001003825,登記記録の閉鎖等,0,2025-03-04,2025-02-27,株式会社影山企画,,株式会社,島根県,出雲市,白枝町１１４７番地,,32,203,6930006,,,2025-02-27,清算の結了等,,,2015-10-05,1,,,,,カゲヤマキカク,0
2195,9290001016017,登記記録の閉鎖等,0,2025-03-04,2025-02-19,株式会社ビルハード,,株式会社,福岡県,大野城市,御笠川４丁目２番５号,,40,219,8160912,,,2025-02-19,清算の結了等,,,2015-10-05,1,,,,,ビルハード,0
2196,9290001025926,登記記録の閉鎖等,0,2025-03-04,2025-02-25,株式会社ＫＥＥＰ・ＬＩＦＥ,,株式会社,福岡県,福岡市東区,名島１丁目３０番２－５０１号,,40,131,8130043,,,2025-02-25,清算の結了等,,,2015-10-05,1,,,,,キープライフ,0
2209,9320002012416,登記記録の閉鎖等,0,2025-03-04,2025-02-28,有限会社豊清開発,,有限会社,大分県,別府市,大字鶴見３８４６番地の２,,44,202,8740840,,,2025-02-28,清算の結了等,,,2015-10-05,1,,,,,,0
2210,9330001016276,登記記録の閉鎖等,0,2025-03-04,2025-02-26,オリンピアスポーツ株式会社,,株式会社,熊本県,人吉市,九日町１２番地,,43,203,8680004,,,2025-02-26,清算の結了等,,,2015-10-05,1,,,,,オリンピアスポーツ,0
2222,9400001001080,登記記録の閉鎖等,0,2025-03-04,2025-02-20,株式会社東北ニツタンサービスセンター岩手支店,,株式会社,岩手県,盛岡市,中屋敷町３番２７号,,03,201,0200141,,,2025-02-20,清算の結了等,,,2015-10-05,1,,,,,トウホクニツタンサービスセンターイワテシテン,0
