sequenceNumber,corporateNumber,process,correct,updateDate,changeDate,name,nameImageId,kind,prefectureName,cityName,streetNumber,addressImageId,prefectureCode,cityCode,postCode,addressOutside,addressOutsideImageId,closeDate,closeCause,successorCorporateNumber,changeCause,assignmentDate,latest,enName,enPrefectureName,enCityName,enAddressOutside,furigana,hihyoji
3,1010001222120,登記記録の閉鎖等,0,2023-09-13,2023-09-06,株式会社みんなのアニメ学,,株式会社,東京都,文京区,春日２丁目２－２,,13,105,1120003,,,2023-09-06,清算の結了等,,,2021-10-28,1,,,,,ミンナノアニメガク,0
34,1010902006992,登記記録の閉鎖等,0,2023-09-13,2023-09-07,有限会社城南富士システム,,有限会社,神奈川県,相模原市中央区,小町通１丁目６番１－４０５号,,14,152,2520217,,,2023-09-07,清算の結了等,,,2015-10-05,1,,,,,ジョウナンフジシステム,0
35,1011001048002,登記記録の閉鎖等,0,2023-09-13,2023-09-08,株式会社大光,,株式会社,東京都,渋谷区,道玄坂２丁目１０番７号,,13,113,1500043,,,2023-09-08,清算の結了等,,,2015-10-05,1,,,,,ダイコウ,0
38,1011001093386,登記記録の閉鎖等,0,2023-09-13,2023-09-11,株式会社ｔｅｍ,,株式会社,東京都,目黒区,中町２丁目１番１号,,13,110,1530065,,,2023-09-11,清算の結了等,,,2015-10-05,1,,,,,ティーイーエム,0
44,1011003011156,登記記録の閉鎖等,0,2023-09-13,2023-09-04,合同会社ライズ,,合同会社,神奈川県,小田原市,千代３５－２７,,14,206,2500215,,,2023-09-04,清算の結了等,,,2020-05-13,1,,,,,ライズ,0
47,1011101045766,登記記録の閉鎖等,0,2023-09-13,2023-09-11,株式会社Ｈ・Ｔ　ＣＯＮＳＵＬＴＡＮＴ,,株式会社,東京都,新宿区,北新宿１丁目３５番６－３０２号,,13,104,1690074,,,2023-09-11,清算の結了等,,,2015-10-05,1,,,,,エイチティーコンサルタント,0
48,1011101088311,登記記録の閉鎖等,0,2023-09-13,2023-09-08,株式会社Ｍ　ＰＬＡＣＥ,,株式会社,東京都,新宿区,新宿６丁目１５番４号,,13,104,1600022,,,2023-09-08,清算の結了等,,,2019-07-17,1,,,,,,0
50,1011201004688,登記記録の閉鎖等,0,2023-09-13,2023-09-12,株式会社富士防災,,株式会社,東京都,中野区,野方２丁目５番１１号,,13,114,1650027,,,2023-09-12,清算の結了等,,,2015-10-05,1,,,,,フジボウサイ,0
51,1011402004999,登記記録の閉鎖等,0,2023-09-13,2023-09-11,有限会社スペースプラン,,有限会社,東京都,板橋区,泉町４７番１４号,,13,119,1740055,,,2023-09-11,清算の結了等,,,2015-10-05,1,,,,,スペースプラン,0
53,1011701020053,登記記録の閉鎖等,0,2023-09-13,2023-09-11,株式会社エムテック,,株式会社,東京都,江戸川区,中葛西１丁目６番８号,,13,123,1340083,,,2023-09-11,清算の結了等,,,2016-07-20,1,,,,,エムテック,0
57,1011703001241,登記記録の閉鎖等,0,2023-09-13,2023-09-11,ポテンザ・ネオ合同会社,,合同会社,東京都,江戸川区,東小岩３丁目７番１８号,,13,123,1330052,,,2023-09-11,清算の結了等,,,2015-10-05,1,,,,,ポテンザネオ,0
86,1021003009620,登記記録の閉鎖等,0,2023-09-13,2023-09-06,合同会社ブル,,合同会社,神奈川県,鎌倉市,山ノ内５２０番地,,14,204,2470062,,,2023-09-06,清算の結了等,,,2020-08-13,1,,,,,ブル,0
94,1030002088534,登記記録の閉鎖等,0,2023-09-13,2023-08-18,有限会社ワイズワン,,有限会社,埼玉県,越谷市,東越谷１丁目７番地２２,,11,222,3430023,,,2023-08-18,清算の結了等,,,2015-10-05,1,,,,,ワイズワン,0
122,1100002005069,登記記録の閉鎖等,0,2023-09-13,2023-09-04,有限会社見晴の湯,,有限会社,長野県,長野市,上野１丁目１５６７番地,,20,201,3810085,,,2023-09-04,清算の結了等,,,2015-10-05,1,,,,,ミハルノユ,0
125,1120001177072,登記記録の閉鎖等,0,2023-09-13,2023-09-06,株式会社ジェルシス,,株式会社,大阪府,大阪市港区,夕凪２丁目１５番８号,,27,107,5520004,,,2023-09-06,清算の結了等,,,2015-10-05,1,,,,,ジェルシス,0
155,1140001104875,登記記録の閉鎖等,0,2023-09-13,2023-09-06,株式会社ＭＯＭＯ,,株式会社,兵庫県,神戸市灘区,森後町１丁目５番１１－１００１号,,28,102,6570028,,,2023-09-06,清算の結了等,,,2017-02-01,1,,,,,モモ,0
163,1180001117535,登記記録の閉鎖等,0,2023-09-13,2023-09-08,株式会社アイエスカンパニー,,株式会社,愛知県,名古屋市中区,錦２丁目１６－２４,,23,106,4600003,,,2023-09-08,清算の結了等,,,2015-10-05,1,,,,,アイエスカンパニー,0
167,1180003011959,登記記録の閉鎖等,0,2023-09-13,2023-09-07,株式会社三邦住宅設備,,株式会社,愛知県,一宮市,木曽川町黒田七ノ通り２３４番地,,23,203,4930001,,,2023-09-07,合併による解散等,8200001016876,令和５年９月１日岐阜県安八郡安八町南條７４２番地１株式会社テクノス（8200001016876）に合併し解散,2015-10-05,1,,,,,ミクニジュウタクセツビ,0
181,1200005012242,登記記録の閉鎖等,0,2023-09-13,2023-09-11,特定非営利活動法人四国山を守る会,,その他の設立登記法人,岐阜県,山県市,西深瀬２２３８番地２,,21,215,5012112,,,2023-09-11,清算の結了等,,,2015-10-05,1,,,,,シコクヤマヲマモルカイ,0
184,1220002004769,登記記録の閉鎖等,0,2023-09-13,2023-09-07,有限会社ハローバツテイングセンター,,有限会社,石川県,金沢市,諸江町中丁１７９番地３,,17,201,9200016,,,2023-09-07,清算の結了等,,,2015-10-05,1,,,,,ハローバツテイングセンター,0
185,1230001013084,登記記録の閉鎖等,0,2023-09-13,2023-09-08,株式会社徳松,,株式会社,富山県,射水市,作道２０１番地,,16,211,9340042,,,2023-09-08,清算の結了等,,,2015-10-05,1,,,,,トクマツ,0
192,1280002010869,登記記録の閉鎖等,0,2023-09-13,2023-09-11,有限会社オキ・クリエート,,有限会社,島根県,隠岐郡隠岐の島町,岬町中の津四１０９番地,,32,528,6850021,,,2023-09-11,清算の結了等,,,2015-10-05,1,,,,,オキクリエート,0
198,1290002034090,登記記録の閉鎖等,0,2023-09-13,2023-09-08,有限会社砂留組,,有限会社,福岡県,福津市,小竹１丁目２番３０号,,40,224,8113226,,,2023-09-08,清算の結了等,,,2015-10-05,1,,,,,スナドメグミ,0
199,1290002044874,登記記録の閉鎖等,0,2023-09-13,2023-09-08,有限会社エルティ,,有限会社,福岡県,嘉穂郡桂川町,大字九郎丸５１９番地１,,40,421,8200602,,,2023-09-08,清算の結了等,,,2015-10-05,1,,,,,エルティ,0
203,1310002014940,登記記録の閉鎖等,0,2023-09-13,2023-09-08,有限会社池田土木,,有限会社,長崎県,諫早市,城見町７番７号,,42,204,8540005,,,2023-09-08,清算の結了等,,,2015-10-05,1,,,,,イケダドボク,0
214,1370201003094,登記記録の閉鎖等,0,2023-09-13,2023-09-05,清水建鉄株式会社,,株式会社,宮城県,栗原市,志波姫堀口十文字２３番地の３,,04,213,9895625,,,2023-09-05,清算の結了等,,,2015-10-05,1,,,,,シミズケンテツ,0
216,1370602001309,登記記録の閉鎖等,0,2023-09-13,2023-09-06,テクノ企画有限会社,,有限会社,宮城県,塩竈市,松陽台２丁目１３番１号,,04,203,9850071,,,2023-09-06,清算の結了等,,,2015-10-05,1,,,,,テクノキカク,0
232,1450002004374,登記記録の閉鎖等,0,2023-09-13,2023-09-12,有限会社パワーフーズ,,有限会社,北海道,旭川市,流通団地一条３丁目３４番地の１２,,01,204,0798441,,,2023-09-12,清算の結了等,,,2015-10-05,1,,,,,パワーフーズ,0
233,1460301000115,登記記録の閉鎖等,0,2023-09-13,2023-09-12,大喜木材株式会社,,株式会社,北海道,北見市,北斗町３丁目５番６号,,01,208,0900035,,,2023-09-12,清算の結了等,,,2015-10-05,1,,,,,タイキモクザイ,0
250,2010003033408,登記記録の閉鎖等,0,2023-09-13,2023-09-05,合同会社ＫＨＦ５,,合同会社,東京都,千代田区,内幸町２丁目１番６号,,13,101,1000011,,,2023-09-05,清算の結了等,,,2020-10-30,1,,,,,ケイエイチエフファイブ,0
253,2010005005124,登記記録の閉鎖等,0,2023-09-13,2023-09-08,特定非営利活動法人パブリックリソースセンター,,その他の設立登記法人,東京都,中央区,湊２丁目１６番２５号ライオンズマンション鉄砲洲第３、２０２号,,13,102,1040043,,,2023-09-08,清算の結了等,,,2015-10-05,1,,,,,パブリックリソースセンター,0
274,2010602003926,登記記録の閉鎖等,0,2023-09-13,2023-09-06,有限会社スーパーいとん,,有限会社,東京都,江東区,大島８丁目２５番１６号,,13,108,1360072,,,2023-09-06,清算の結了等,,,2015-10-05,1,,,,,スーパーイトン,0
275,2010602032025,登記記録の閉鎖等,0,2023-09-13,2023-09-07,有限会社ＤＥＣＯＭＩＣＳ,,有限会社,東京都,江東区,北砂１丁目３番４３号,,13,108,1360073,,,2023-09-07,清算の結了等,,,2015-10-05,1,,,,,デコミクス,0
317,2013201005228,登記記録の閉鎖等,0,2023-09-13,2023-09-11,株式会社プラネット,,株式会社,東京都,目黒区,目黒本町４丁目１９番１１号,,13,110,1520002,,,2023-09-11,清算の結了等,,,2015-10-05,1,,,,,プラネット,0
318,2013202003189,登記記録の閉鎖等,0,2023-09-13,2023-09-08,有限会社室内装飾コバヤシ,,有限会社,東京都,目黒区,八雲５丁目１番２１号,,13,110,1520023,,,2023-09-08,清算の結了等,,,2015-10-05,1,,,,,シツナイソウショクコバヤシ,0
340,2030001111436,登記記録の閉鎖等,0,2023-09-13,2023-08-21,駿穂国際貿易株式会社,,株式会社,埼玉県,深谷市,西島字内谷田７番地１,,11,218,3660824,,,2023-08-21,清算の結了等,,,2015-11-18,1,,,,,シュンホコクサイボウエキ,0
361,2050001007657,登記記録の閉鎖等,0,2023-09-13,2023-09-07,株式会社ｅ－サイエンスコミュニケーション,,株式会社,茨城県,ひたちなか市,大字高場２０１３番地１７,,08,221,3120062,,,2023-09-07,清算の結了等,,,2015-10-05,1,,,,,イーサイエンスコミュニケーション,0
374,2080102010516,登記記録の閉鎖等,0,2023-09-13,2023-09-08,有限会社白鳥商事,,有限会社,静岡県,駿東郡清水町,卸団地８１番地,,22,341,4110912,,,2023-09-08,清算の結了等,,,2015-10-05,1,,,,,シラトリショウジ,0
377,2080401026089,登記記録の閉鎖等,0,2023-09-13,2023-09-12,株式会社ニテルー,,株式会社,静岡県,浜松市西区,神ケ谷町８１７１番地,,22,133,4328005,,,2023-09-12,清算の結了等,,,2022-10-06,1,,,,,ニテルー,0
417,2150001008166,登記記録の閉鎖等,0,2023-09-13,2023-09-12,株式会社徳善,,株式会社,奈良県,生駒市,東菜畑１丁目１６５番地１１０,,29,209,6300215,,,2023-09-12,清算の結了等,,,2015-10-05,1,,,,,,0
427,2180001146277,登記記録の閉鎖等,0,2023-09-13,2023-09-07,株式会社ブルーウェーブ,,株式会社,愛知県,名古屋市北区,大曽根４丁目１９番１８号,,23,103,4620825,,,2023-09-07,清算の結了等,,,2021-06-01,1,,,,,ブルーウェーブ,0
435,2190001011934,登記記録の閉鎖等,0,2023-09-13,2023-09-06,株式会社慶,,株式会社,三重県,伊勢市,小俣町明野３１９番地,,24,203,5190501,,,2023-09-06,清算の結了等,,,2015-10-05,1,,,,,,0
454,2290001045071,登記記録の閉鎖等,0,2023-09-13,2023-08-30,株式会社サンヨー建材工業,,株式会社,福岡県,福岡市東区,原田１丁目４３－４３,,40,131,8120063,,,2023-08-30,清算の結了等,,,2015-10-05,1,,,,,サンヨーケンザイコウギョウ,0
456,2290001089250,登記記録の閉鎖等,0,2023-09-13,2023-09-07,株式会社日港エコ,,株式会社,福岡県,古賀市,新原５１８－１,,40,223,8113127,,,2023-09-07,清算の結了等,,,2020-06-24,1,,,,,ニッコウエコ,0
473,2330003005036,登記記録の閉鎖等,0,2023-09-13,2023-09-04,株式会社ｅｅｈｏｍｅ,,株式会社,熊本県,合志市,須屋１９８３番地７,,43,216,8611102,,,2023-09-04,清算の結了等,,,2015-10-05,1,,,,,イイホーム,0
495,2430001065880,登記記録の閉鎖等,0,2023-09-13,2023-09-01,セカイメニュー株式会社,,株式会社,北海道,札幌市中央区,南一条西５丁目３番４号,,01,101,0600061,,,2023-09-01,合併による解散等,1430001032097,令和５年９月１日札幌市中央区南一条東二丁目６番大通バスセンタービル２号館２Ｆ株式会社エスプランニング（1430001032097）に合併し解散,2015-10-05,1,,,,,セカイメニュー,0
498,2430002020463,登記記録の閉鎖等,0,2023-09-13,2023-09-01,有限会社ヤマグチ,,有限会社,北海道,札幌市北区,新琴似七条１６丁目５番２５号,,01,102,0010907,,,2023-09-01,清算の結了等,,,2015-10-05,1,,,,,ヤマグチ,0
502,2460102007762,登記記録の閉鎖等,0,2023-09-13,2023-09-08,有限会社トツプラーン道東研究所,,有限会社,北海道,帯広市,西八条南１５丁目４番地９,,01,207,0800018,,,2023-09-08,清算の結了等,,,2015-10-05,1,,,,,トツプラーンドウトウケンキュウショ,0
503,2490001006045,登記記録の閉鎖等,0,2023-09-13,2023-09-11,丸和林産株式会社,,株式会社,高知県,高知市,知寄町３丁目３０３番地,,39,201,7800806,,,2023-09-11,清算の結了等,,,2015-10-05,1,,,,,マルワリンサン,0
509,3010001039728,登記記録の閉鎖等,0,2023-09-13,2023-09-01,株式会社オンワードクリエイテイブセンター,,株式会社,東京都,千代田区,飯田橋２丁目１０番１０号,,13,101,1020072,,,2023-09-01,合併による解散等,8010601042176,令和５年９月１日東京都千代田区飯田橋二丁目１０番１０号株式会社オンワードコーポレートデザイン（8010601042176）に合併し解散,2015-10-05,1,,,,,オンワードクリエイテイブセンター,0
512,3010001190984,登記記録の閉鎖等,0,2023-09-13,2023-08-30,株式会社モデリング・プロジェクト,,株式会社,千葉県,長生郡一宮町,東浪見字釣新田７２７６番地６,,12,421,2994303,,,2023-08-30,清算の結了等,,,2018-04-12,1,,,,,モデリングプロジェクト,0
513,3010001201023,登記記録の閉鎖等,0,2023-09-13,2023-09-06,株式会社ＴＨＥ　ＧＲＥＡＴ　ＲＶ,,株式会社,東京都,中央区,新川１丁目２８－３３Ｇｌａｎｆｆｉｃｅ茅場町１Ｆ,,13,102,1040033,,,2023-09-06,清算の結了等,,,2019-05-23,1,,,,,ザグレートアールブイ,0
515,3010001212152,登記記録の閉鎖等,0,2023-09-13,2023-09-04,株式会社ワンステップフォワード,,株式会社,東京都,中央区,銀座１丁目３番３号Ｇ１ビル７階,,13,102,1040061,,,2023-09-04,清算の結了等,,,2020-09-08,1,,,,,ワンステップフォワード,0
532,3010501048823,登記記録の閉鎖等,0,2023-09-13,2023-09-05,株式会社ノヘア,,株式会社,東京都,台東区,上野３丁目２番２号,,13,106,1100005,,,2023-09-05,清算の結了等,,,2022-05-11,1,,,,,ノヘア,0
545,3011001137793,登記記録の閉鎖等,0,2023-09-13,2023-08-14,三金工業株式会社,,株式会社,東京都,渋谷区,神南１丁目２０－１１造園会館ビル５階,,13,113,1500041,,,2023-08-14,清算の結了等,,,2021-01-06,1,,,,,サンキンコウギョウ,0
550,3011101036400,登記記録の閉鎖等,0,2023-09-13,2023-09-08,株式会社ＫＪナビゲーションズ,,株式会社,東京都,新宿区,新宿３丁目３番１号,,13,104,1600022,,,2023-09-08,清算の結了等,,,2015-10-05,1,,,,,,0
564,3011601010169,登記記録の閉鎖等,0,2023-09-13,2023-08-18,第一日典株式会社,,株式会社,埼玉県,川越市,的場北１丁目１５番地１２,,11,201,3501102,,,2023-08-18,清算の結了等,,,2015-10-05,1,,,,,ダイイチニッテン,0
567,3011701021982,登記記録の閉鎖等,0,2023-09-13,2023-09-05,株式会社ＣｉｅＬ,,株式会社,茨城県,取手市,取手２丁目７番５号,,08,217,3020004,,,2023-09-05,清算の結了等,,,2018-08-08,1,,,,,シエル,0
568,3011801023276,登記記録の閉鎖等,0,2023-09-13,2023-09-11,株式会社岡田工房,,株式会社,東京都,足立区,大谷田３丁目２０番５－７０２号,,13,121,1200001,,,2023-09-11,清算の結了等,,,2015-10-05,1,,,,,オオタコウボウ,0
571,3011802001891,登記記録の閉鎖等,0,2023-09-13,2023-09-11,有限会社勝山商事,,有限会社,東京都,葛飾区,西水元３丁目３４番１８号,,13,122,1250031,,,2023-09-11,清算の結了等,,,2015-10-05,1,,,,,カツヤマショウジ,0
572,3012302000896,登記記録の閉鎖等,0,2023-09-13,2023-09-11,有限会社エムアンドアイサービス,,有限会社,東京都,町田市,小川１丁目２６番地２６,,13,209,1940003,,,2023-09-11,清算の結了等,,,2015-10-05,1,,,,,エムアンドアイサービス,0
606,3040002028033,登記記録の閉鎖等,0,2023-09-13,2023-08-31,株式会社ＹＫエンヂニアリング,,株式会社,千葉県,船橋市,南三咲３丁目４番４６号,,12,204,2740813,,,2023-08-31,清算の結了等,,,2015-10-05,1,,,,,ワイケイエンヂニアリング,0
614,3060001016326,登記記録の閉鎖等,0,2023-09-13,2023-09-01,興業商事株式会社,,株式会社,栃木県,栃木市,万町６番２号,,09,203,3280015,,,2023-09-01,清算の結了等,,,2015-10-05,1,,,,,コウギョウショウジ,0
627,3100002015108,登記記録の閉鎖等,0,2023-09-13,2023-09-04,有限会社加藤製作所,,有限会社,長野県,上田市,真田町本原７５５番地,,20,203,3862202,,,2023-09-04,清算の結了等,,,2015-10-05,1,,,,,カトウセイサクショ,0
642,3120002034881,登記記録の閉鎖等,0,2023-09-13,2023-09-05,有限会社オーツー,,有限会社,大阪府,大阪市中央区,船場中央３丁目２番８号,,27,128,5410055,,,2023-09-05,清算の結了等,,,2015-10-05,1,,,,,オーツー,0
646,3120901012186,登記記録の閉鎖等,0,2023-09-13,2023-09-08,株式会社館設計,,株式会社,大阪府,高槻市,下田部町１丁目２４番４号,,27,207,5690062,,,2023-09-08,清算の結了等,,,2015-10-05,1,,,,,ヤカタセッケイ,0
647,3120901039097,登記記録の閉鎖等,0,2023-09-13,2023-09-08,株式会社エターナル,,株式会社,大阪府,吹田市,五月が丘北２番１５号,,27,205,5650834,,,2023-09-08,清算の結了等,,,2017-10-23,1,,,,,エターナル,0
651,3130001005577,登記記録の閉鎖等,0,2023-09-13,2023-08-30,株式会社森田設計,,株式会社,京都府,京都市北区,上賀茂桜井町１０５番地,,26,101,6038054,,,2023-08-30,清算の結了等,,,2015-10-05,1,,,,,モリタセッケイ,0
657,3140001042181,登記記録の閉鎖等,0,2023-09-13,2023-09-07,株式会社グリコム,,株式会社,兵庫県,神戸市東灘区,住吉台２５番１１号,,28,101,6580062,,,2023-09-07,清算の結了等,,,2015-10-05,1,,,,,グリコム,0
658,3140001045614,登記記録の閉鎖等,0,2023-09-13,2023-09-07,第一試験学院株式会社,,株式会社,兵庫県,加古川市,加古川町友沢１６４番地の４７,,28,210,6750035,,,2023-09-07,清算の結了等,,,2015-10-05,1,,,,,ダイイチシケンガクイン,0
661,3140001116720,登記記録の閉鎖等,0,2023-09-13,2023-09-05,株式会社ライト商会,,株式会社,兵庫県,西宮市,東山台３丁目３４－８,,28,204,6691133,,,2023-09-05,清算の結了等,,,2020-03-09,1,,,,,ライトショウカイ,0
674,3180001117079,登記記録の閉鎖等,0,2023-09-13,2023-09-08,エムケイサービス株式会社,,株式会社,愛知県,名古屋市守山区,長栄２０番２０号木村ビル２０３号,,23,113,4630062,,,2023-09-08,清算の結了等,,,2015-10-05,1,,,,,エムケイサービス,0
682,3180005003291,登記記録の閉鎖等,0,2023-09-13,2023-09-11,尾頭橋西部商店街振興組合,,その他の設立登記法人,愛知県,名古屋市中川区,尾頭橋３丁目１４番１２号,,23,110,4540012,,,2023-09-11,清算の結了等,,,2015-10-05,1,,,,,オトウバシセイブ,0
683,3180005005528,登記記録の閉鎖等,0,2023-09-13,2023-09-12,特定非営利活動法人フェミニストサポートセンター・東海,,その他の設立登記法人,愛知県,名古屋市東区,葵３丁目２５番２０号,,23,102,4610004,,,2023-09-12,清算の結了等,,,2015-10-05,1,,,,,フェミニストサポートセンタートウカイ,0
687,3200001001585,登記記録の閉鎖等,0,2023-09-13,2023-09-11,株式会社鬼頭被服,,株式会社,岐阜県,岐阜市,村雨町３８番地の２,,21,201,5008312,,,2023-09-11,清算の結了等,,,2015-10-05,1,,,,,キトウヒフク,0
758,4010005027372,登記記録の閉鎖等,0,2023-09-13,2023-09-11,一般財団法人ドンズー留学生支援会,,その他の設立登記法人,東京都,文京区,本駒込２丁目１２番１３号アジア文化会館内,,13,105,1130021,,,2023-09-11,清算の結了等,,,2017-09-01,1,,,,,ドンズーリュウガクセイシエンカイ,0
767,4010501028923,登記記録の閉鎖等,0,2023-09-13,2023-09-11,ＳＥＩＫＯ・ＳＥＲＶＩＣＥ株式会社,,株式会社,東京都,台東区,台東１丁目９番４号,,13,106,1100016,,,2023-09-11,清算の結了等,,,2015-10-05,1,,,,,セイコーサービス,0
772,4010701020647,登記記録の閉鎖等,0,2023-09-13,2023-09-11,株式会社ロッコール,,株式会社,東京都,品川区,上大崎２丁目６番２６－４０３号,,13,109,1410021,,,2023-09-11,清算の結了等,,,2015-10-05,1,,,,,ロッコール,0
777,4010901003377,登記記録の閉鎖等,0,2023-09-13,2023-09-06,株式会社国立出版,,株式会社,東京都,世田谷区,下馬３丁目３０番１８号,,13,112,1540002,,,2023-09-06,清算の結了等,,,2015-10-05,1,,,,,クニタチシュッパン,0
788,4011003016565,登記記録の閉鎖等,0,2023-09-13,2023-09-11,合同会社ｃｏｎｖｅｒｔｅｄ,,合同会社,東京都,渋谷区,神宮前６丁目２３番４号桑野ビル２階,,13,113,1500001,,,2023-09-11,清算の結了等,,,2023-04-05,1,,,,,コンバーテッド,0
829,4030001125863,登記記録の閉鎖等,0,2023-09-13,2023-08-21,株式会社クロスポルト,,株式会社,埼玉県,川越市,砂新田２丁目１１番地１５号,,11,201,3501137,,,2023-08-21,清算の結了等,,,2018-05-28,1,Cross Porto Inc.,Saitama,"2-11-15, Sunashinden, Kawagoe shi",,クロスポルト,0
844,4050001027109,登記記録の閉鎖等,0,2023-09-13,2023-09-06,株式会社村上,,株式会社,茨城県,常陸太田市,小目町７８１番地の６,,08,212,3130033,,,2023-09-06,清算の結了等,,,2015-10-05,1,,,,,ムラカミ,0
902,4140002069693,登記記録の閉鎖等,0,2023-09-13,2023-09-05,魚八水産有限会社,,有限会社,兵庫県,南あわじ市,阿那賀１２８４番地の１,,28,224,6560661,,,2023-09-05,清算の結了等,,,2015-10-05,1,,,,,ウオハチスイサン,0
903,4150001005566,登記記録の閉鎖等,0,2023-09-13,2023-09-11,株式会社イカルガ観光,,株式会社,奈良県,大和郡山市,小泉町１０１１番地,,29,203,6391042,,,2023-09-11,清算の結了等,,,2015-10-05,1,,,,,イカルガカンコウ,0
911,4180002060764,登記記録の閉鎖等,0,2023-09-13,2023-09-05,有限会社スヤマ食品開発,,有限会社,愛知県,名古屋市瑞穂区,関取町１６２番地,,23,108,4670058,,,2023-09-05,清算の結了等,,,2015-10-05,1,,,,,スヤマショクヒンカイハツ,0
919,4220001020698,登記記録の閉鎖等,0,2023-09-13,2023-09-11,アウル株式会社,,株式会社,石川県,金沢市,西念３丁目３２番２８号,,17,201,9200024,,,2023-09-11,清算の結了等,,,2015-12-09,1,,,,,アウル,0
920,4240002017527,登記記録の閉鎖等,0,2023-09-13,2023-09-06,湯来電設有限会社,,有限会社,広島県,広島市安佐北区,亀山南５丁目３８番９号,,34,106,7310232,,,2023-09-06,清算の結了等,,,2015-10-05,1,,,,,,0
928,4260002012402,登記記録の閉鎖等,0,2023-09-13,2023-09-08,有限会社セーフティー・サポート・センター,,有限会社,岡山県,岡山市南区,浦安西町３２番地２,,33,104,7028025,,,2023-09-08,清算の結了等,,,2015-10-05,1,,,,,セーフティーサポートセンター,0
939,4290801010710,登記記録の閉鎖等,0,2023-09-13,2023-09-12,株式会社モム,,株式会社,福岡県,北九州市八幡西区,萩原１丁目１番５５号,,40,109,8060059,,,2023-09-12,清算の結了等,,,2015-10-05,1,,,,,モム,0
966,4420002007831,登記記録の閉鎖等,0,2023-09-13,2023-09-06,有限会社蔦和,,有限会社,青森県,八戸市,大字長苗代字下亀子谷地６番地２,,02,203,0391103,,,2023-09-06,清算の結了等,,,2015-10-05,1,,,,,ツタワ,0
1004,5010501026785,登記記録の閉鎖等,0,2023-09-13,2023-08-21,株式会社ブライシス,,株式会社,埼玉県,越谷市,東越谷３丁目１６番７号,,11,222,3430023,,,2023-08-21,清算の結了等,,,2015-10-05,1,,,,,ブライシス,0
1043,5011802023744,登記記録の閉鎖等,0,2023-09-13,2023-09-11,有限会社アクティブ,,有限会社,東京都,葛飾区,柴又５丁目２７番１０号,,13,122,1250052,,,2023-09-11,清算の結了等,,,2015-10-05,1,,,,,,0
1050,5012701008274,登記記録の閉鎖等,0,2023-09-13,2023-09-12,株式会社オレンジフィッシュ,,株式会社,東京都,西東京市,柳沢３丁目６番地７号,,13,229,2020022,,,2023-09-12,清算の結了等,,,2015-10-05,1,,,,,オレンジフィッシュ,0
1077,5021002024006,登記記録の閉鎖等,0,2023-09-13,2023-09-08,有限会社ベーシックラボ・エーアンドエス,,有限会社,神奈川県,相模原市南区,相模大野２丁目７番１４号,,14,153,2520303,,,2023-09-08,清算の結了等,,,2015-10-05,1,,,,,ベーシックラボエーアンドエス,0
1104,5080002005836,登記記録の閉鎖等,0,2023-09-13,2023-09-11,有限会社メイプロダクツ,,有限会社,静岡県,静岡市葵区,川合３丁目３１番１９号,,22,101,4200923,,,2023-09-11,清算の結了等,,,2015-10-05,1,,,,,メイプロダクツ,0
1105,5080002013987,登記記録の閉鎖等,0,2023-09-13,2023-09-11,有限会社山本印章堂,,有限会社,静岡県,島田市,幸町１番の３,,22,209,4270027,,,2023-09-11,清算の結了等,,,2015-10-05,1,,,,,ヤマモトインショウドウ,0
1162,5180002006948,登記記録の閉鎖等,0,2023-09-13,2023-09-01,有限会社原田鉄工,,有限会社,愛知県,名古屋市港区,正保町４丁目２４番地,,23,111,4550074,,,2023-09-01,合併による解散等,9180001058243,令和５年９月１日名古屋市港区正保町四丁目２４番地株式会社原田プレシジョン（9180001058243）に合併し解散,2015-10-05,1,,,,,ハラダテッコウ,0
1172,5200002016985,登記記録の閉鎖等,0,2023-09-13,2023-09-11,有限会社クリエイティブプラニングネツトワーク,,有限会社,岐阜県,可児市,皐ケ丘２丁目１３番地,,21,214,5090236,,,2023-09-11,清算の結了等,,,2015-10-05,1,,,,,クリエイティブプラニングネツトワーク,0
1174,5220001014872,登記記録の閉鎖等,0,2023-09-13,2023-09-11,株式会社五郎島農園,,株式会社,石川県,河北郡内灘町,字千鳥台２丁目８０番地３,,17,365,9200277,,,2023-09-11,清算の結了等,,,2015-10-05,1,,,,,ゴロウジマノウエン,0
1175,5220002016496,登記記録の閉鎖等,0,2023-09-13,2023-09-08,有限会社アシダ企画,,有限会社,石川県,河北郡津幡町,字舟橋に２４番地１,,17,361,9290328,,,2023-09-08,清算の結了等,,,2015-10-05,1,,,,,アシダキカク,0
1186,5260003004232,登記記録の閉鎖等,0,2023-09-13,2023-09-07,合同会社ブルーベリーファームみつ,,合同会社,岡山県,岡山市北区,御津紙工１１２４,,33,101,7092136,,,2023-09-07,清算の結了等,,,2023-03-10,1,,,,,ブルーベリーファームミツ,0
1204,5360001010627,登記記録の閉鎖等,0,2023-09-13,2023-09-07,株式会社牧瀬ライフアップ研究所,,株式会社,沖縄県,中頭郡中城村,字南上原７５０番地,,47,328,9012424,,,2023-09-07,合併による解散等,5120001161089,令和５年９月１日大阪市中央区今橋一丁目７番１４号株式会社ゴッドプロダクト（5120001161089）に合併し解散,2015-10-05,1,"Makise Lifeup Laboratory Co.,Ltd.",Okinawa,"750, Minamiuehara Nakagusukuson Nakagamigun",,マキセライフアップケンキュウショ,0
1210,5380002003999,登記記録の閉鎖等,0,2023-09-13,2023-09-07,有限会社レックス,,有限会社,福島県,福島市,南矢野目字高田東１番地の１,,07,201,9600112,,,2023-09-07,清算の結了等,,,2015-10-05,1,,,,,レックス,0
1211,5380002021118,登記記録の閉鎖等,0,2023-09-13,2023-09-08,有限会社絹屋,,有限会社,福島県,石川郡玉川村,大字北須釜字小泉２番地,,07,502,9636304,,,2023-09-08,清算の結了等,,,2015-10-05,1,,,,,キヌヤ,0
1226,5460102003420,登記記録の閉鎖等,0,2023-09-13,2023-09-11,有限会社道下商店,,有限会社,北海道,帯広市,大正本町本通２丁目２番地,,01,207,0891241,,,2023-09-11,清算の結了等,,,2015-10-05,1,,,,,ミチシタショウテン,0
1239,6010001205302,登記記録の閉鎖等,0,2023-09-13,2023-08-25,ＤｉＤｉフードジャパン株式会社,,株式会社,東京都,港区,海岸１丁目７番１号,,13,103,1050022,,,2023-08-25,清算の結了等,,,2019-11-13,1,,,,,ディディフードジャパン,0
1260,6010501033434,登記記録の閉鎖等,0,2023-09-13,2023-09-11,株式会社本橋印刷商行,,株式会社,東京都,台東区,竜泉３丁目１１番６号,,13,106,1100012,,,2023-09-11,清算の結了等,,,2015-10-05,1,,,,,,0
1268,6010801003252,登記記録の閉鎖等,0,2023-09-13,2023-09-04,国上精機工業株式会社,,株式会社,神奈川県,横浜市中区,尾上町２丁目２７番地,,14,104,2310015,,,2023-09-04,清算の結了等,,,2015-10-05,1,,,,,クガミセイキコウギョウ,0
1310,6012303001692,登記記録の閉鎖等,0,2023-09-13,2023-09-12,Ｌａｋａｓｗｅｌｌｎｅｓｓ合同会社,,合同会社,東京都,町田市,南大谷１６２７－６１,,13,209,1940031,,,2023-09-12,清算の結了等,,,2022-06-22,1,,,,,ラカスウェルネス,0
1314,6012702004370,登記記録の閉鎖等,0,2023-09-13,2023-09-08,有限会社秀和産業,,有限会社,東京都,西東京市,富士町５丁目６番７号,,13,229,2020014,,,2023-09-08,清算の結了等,,,2015-10-05,1,,,,,シュウワサンギョウ,0
1315,6012802005450,登記記録の閉鎖等,0,2023-09-13,2023-09-06,大場商事有限会社,,有限会社,東京都,東大和市,南街５丁目２番４号,,13,220,2070014,,,2023-09-06,清算の結了等,,,2015-10-05,1,,,,,オオバショウジ,0
1318,6013302011699,登記記録の閉鎖等,0,2023-09-13,2023-09-11,栄明交易有限会社,,有限会社,東京都,東村山市,恩多町１丁目５２番地１,,13,213,1890011,,,2023-09-11,清算の結了等,,,2015-10-05,1,,,,,,0
1319,6013303001988,登記記録の閉鎖等,0,2023-09-13,2023-09-08,合同会社ＫＯＮＤＯ,,合同会社,東京都,豊島区,東池袋２丁目６２番８号ＢＩＧオフィスプラザ池袋１１Ｆ,,13,116,1700013,,,2023-09-08,清算の結了等,,,2015-10-05,1,,,,,コンドウ,0
1356,6050001033105,登記記録の閉鎖等,0,2023-09-13,2023-09-06,株式会社プログレス,,株式会社,茨城県,筑西市,二木成１４０６番地,,08,227,3080841,,,2023-09-06,清算の結了等,,,2015-10-05,1,,,,,プログレス,0
1359,6050002034572,登記記録の閉鎖等,0,2023-09-13,2023-09-05,有限会社小林保険事務所,,有限会社,茨城県,稲敷市,下君山２３番地,,08,229,3000527,,,2023-09-05,清算の結了等,,,2015-10-05,1,,,,,コバヤシホケンジムショ,0
1379,6080402016242,登記記録の閉鎖等,0,2023-09-13,2023-09-11,有限会社マルチ魚正,,有限会社,静岡県,浜松市北区,三ヶ日町三ヶ日３３８番地,,22,135,4311414,,,2023-09-11,清算の結了等,,,2015-10-05,1,,,,,マルチウオマサ,0
1382,6090002014141,登記記録の閉鎖等,0,2023-09-13,2023-09-01,三恵ホーム有限会社,,有限会社,山梨県,北杜市,高根町村山北割１５９５番地の８０,,19,209,4080002,,,2023-09-01,合併による解散等,8090001011352,令和５年９月１日山梨県北杜市高根町東井出２９０番地北伸建設株式会社（8090001011352）に合併し解散,2015-10-05,1,,,,,サンケイホーム,0
1383,6090002014876,登記記録の閉鎖等,0,2023-09-13,2023-08-10,有限会社三栄電設,,有限会社,山梨県,南巨摩郡富士川町,鰍沢１２番地,,19,368,4000601,,,2023-08-10,清算の結了等,,,2015-10-05,1,,,,,サンエイデンセツ,0
1384,6100001005858,登記記録の閉鎖等,0,2023-09-13,2023-09-04,株式会社山屋天平堂,,株式会社,長野県,上高井郡小布施町,大字小布施１３９６番地,,20,541,3810201,,,2023-09-04,清算の結了等,,,2015-10-05,1,,,,,ヤマヤテンペイドウ,0
1390,6120001057393,登記記録の閉鎖等,0,2023-09-13,2023-09-01,株式会社浪速製作所,,株式会社,大阪府,大阪市淀川区,田川２丁目９番７号,,27,123,5320027,,,2023-09-01,合併による解散等,2120001057397,令和５年９月１日大阪市淀川区田川二丁目９番７号浪速鋳機販売株式会社（2120001057397）に合併し解散,2015-10-05,1,,,,,ナニワセイサクジョ,0
1417,6140001017825,登記記録の閉鎖等,0,2023-09-13,2023-09-06,株式会社坂東島建設,,株式会社,兵庫県,神戸市須磨区,白川台４丁目２３番５２号,,28,107,6540103,,,2023-09-06,清算の結了等,,,2015-10-05,1,,,,,バンドウジマケンセツ,0
1434,6180001000091,登記記録の閉鎖等,0,2023-09-13,2023-09-06,株式会社アベニュー,,株式会社,愛知県,名古屋市守山区,西城２丁目１０番６号,,23,113,4630084,,,2023-09-06,清算の結了等,,,2015-10-05,1,,,,,アベニュー,0
1439,6180002073500,登記記録の閉鎖等,0,2023-09-13,2023-09-08,有限会社タキ施工,,有限会社,愛知県,尾張旭市,東栄町２丁目９番地１０,,23,226,4880011,,,2023-09-08,清算の結了等,,,2015-10-05,1,,,,,タキセコウ,0
1445,6190001019635,登記記録の閉鎖等,0,2023-09-13,2023-08-25,株式会社ワイエム,,株式会社,三重県,松阪市,久保町１３１３－１,,24,204,5150044,,,2023-08-25,清算の結了等,,,2015-10-05,1,,,,,ワイエム,0
1450,6210001012075,登記記録の閉鎖等,0,2023-09-13,2023-09-08,株式会社山田書店,,株式会社,福井県,越前市,住吉町９番２３号,,18,209,9150067,,,2023-09-08,清算の結了等,,,2015-10-05,1,,,,,ヤマダショテン,0
1470,6290001026712,登記記録の閉鎖等,0,2023-09-13,2023-09-08,株式会社オフィス・イノセント,,株式会社,福岡県,福岡市博多区,博多駅南５丁目９番２７号,,40,132,8120016,,,2023-09-08,清算の結了等,,,2015-10-05,1,,,,,オフィスイノセント,0
1479,6290005012353,登記記録の閉鎖等,0,2023-09-13,2023-08-28,筑後保健生活協同組合,,その他の設立登記法人,福岡県,大牟田市,高砂町１６番地,,40,202,8360064,,,2023-08-28,清算の結了等,,,2015-10-05,1,,,,,チクゴホケン,0
1493,6330003006955,登記記録の閉鎖等,0,2023-09-13,2023-09-04,合同会社弘和総研,,合同会社,熊本県,熊本市中央区,新屋敷２丁目２４番１２－１１０２号,,43,101,8620975,,,2023-09-04,清算の結了等,,,2017-01-06,1,,,,,コウワソウケン,0
1507,6390002014086,登記記録の閉鎖等,0,2023-09-13,2023-09-07,有限会社てらやま動物病院,,有限会社,山形県,米沢市,金池７丁目３番３号,,06,202,9920012,,,2023-09-07,合併による解散等,7390003002106,令和５年９月１日山形県米沢市金池七丁目３番３号合同会社ＭｏＲＶＥＴ（7390003002106）に合併し解散,2015-10-05,1,,,,,テラヤマドウブツビョウイン,0
1510,6400003000653,登記記録の閉鎖等,0,2023-09-13,2023-09-07,合資会社羽葉屋商店,,合資会社,岩手県,北上市,諏訪町１丁目１番３２号,,03,206,0240034,,,2023-09-07,清算の結了等,,,2015-10-05,1,,,,,ハバヤショウテン,0
1516,6430002044789,登記記録の閉鎖等,0,2023-09-13,2023-09-11,有限会社北広木材,,有限会社,北海道,北広島市,大曲並木２丁目１番地１２,,01,234,0611279,,,2023-09-11,清算の結了等,,,2015-10-05,1,,,,,,0
1535,7010002017877,登記記録の閉鎖等,0,2023-09-13,2023-09-04,有限会社エスオープランニング,,有限会社,東京都,中央区,晴海２丁目３－２－３００５,,13,102,1040053,,,2023-09-04,清算の結了等,,,2015-10-05,1,,,,,エスオープランニング,0
1556,7010502012015,登記記録の閉鎖等,0,2023-09-13,2023-09-08,有限会社ユアーズ,,有限会社,東京都,台東区,浅草橋２丁目２３番４号,,13,106,1110053,,,2023-09-08,清算の結了等,,,2015-10-05,1,,,,,ユアーズ,0
1571,7011001056610,登記記録の閉鎖等,0,2023-09-13,2023-09-11,株式会社デジックス,,株式会社,東京都,渋谷区,広尾５丁目８番１４号,,13,113,1500012,,,2023-09-11,清算の結了等,,,2015-10-05,1,,,,,,0
1574,7011001116694,登記記録の閉鎖等,0,2023-09-13,2023-09-06,株式会社ＣｙｂｅｒＨｕｍａｎ　Ｐｒｏｄｕｃｔｉｏｎｓ,,株式会社,東京都,渋谷区,渋谷２丁目２４番１２号,,13,113,1500002,,,2023-09-06,合併による解散等,1011001128415,令和５年９月１日東京都渋谷区渋谷二丁目２４番１２号株式会社Ｃｙｂｅｒ　ＡＩ　Ｐｒｏｄｕｃｔｉｏｎｓ（1011001128415）に合併し解散,2017-06-06,1,,,,,サイバーヒューマンプロダクション,0
1575,7011001118030,登記記録の閉鎖等,0,2023-09-13,2023-09-11,株式会社ＳＨＯＥＬＡＣＥ,,株式会社,東京都,渋谷区,神泉町１０番１５号Ａｎｎｅｘ神泉２０２,,13,113,1500045,,,2023-09-11,清算の結了等,,,2017-08-30,1,,,,,シューレース,0
1576,7011001123708,登記記録の閉鎖等,0,2023-09-13,2023-09-08,株式会社渋谷フォーラムエイト,,株式会社,東京都,渋谷区,道玄坂２丁目１０番７号,,13,113,1500043,,,2023-09-08,清算の結了等,,,2018-08-14,1,,,,,シブヤフォーラムエイト,0
1581,7011003006290,登記記録の閉鎖等,0,2023-09-13,2023-09-07,合同会社立川管財,,合同会社,東京都,目黒区,平町２丁目１７番５号,,13,110,1520032,,,2023-09-07,清算の結了等,,,2015-10-13,1,,,,,タチカワカンザイ,0
1594,7011801017290,登記記録の閉鎖等,0,2023-09-13,2023-09-11,伊藤運送ＴＳ株式会社,,株式会社,東京都,足立区,扇３丁目１８番２５号,,13,121,1230873,,,2023-09-11,清算の結了等,,,2015-10-05,1,,,,,イトウウンソウティエス,0
1598,7012301011742,登記記録の閉鎖等,0,2023-09-13,2023-09-07,Ｗａｉネクスト株式会社,,株式会社,東京都,町田市,鶴川４丁目４１番地５４,,13,209,1950061,,,2023-09-07,清算の結了等,,,2019-05-10,1,,,,,ワイネクスト,0
1602,7012405004452,登記記録の閉鎖等,0,2023-09-13,2023-09-01,一般社団法人Ｇｌｏｂａｌ　Ｉｎｓｔｉｔｕｔｅ　ｏｆ　Ｇｒｅａｔ　Ｇｉｆｔｅｄ　Ｇｅｎｉｕｓ　ｉｎ　Ｉｎｄｕｓｔｒｙ，Ａｒｔ，Ｍｕｓｉｃ，Ｖｏｌｕｎｔｅｅｒ　ａｎｄ　Ｍｅｄｉｃｉｎｅ．,,その他の設立登記法人,東京都,三鷹市,中原２丁目１９番４３号,,13,204,1810005,,,2023-09-01,清算の結了等,,,2020-04-16,1,,,,,グローバルインステテュートオブグレートギフテッドジーニアスインインダストリーアートミュージックボランティアアンドメディスン,0
1611,7020001111333,登記記録の閉鎖等,0,2023-09-13,2023-09-05,株式会社やまと水産,,株式会社,神奈川県,川崎市中原区,上新城２丁目９－１－３０４,,14,133,2110045,,,2023-09-05,清算の結了等,,,2015-10-05,1,,,,,ヤマトスイサン,0
1618,7021002046709,登記記録の閉鎖等,0,2023-09-13,2023-09-06,日東プレス有限会社,,有限会社,神奈川県,綾瀬市,蓼川３丁目１８番１－１号,,14,218,2521105,,,2023-09-06,清算の結了等,,,2015-10-05,1,,,,,ニットウプレス,0
1621,7030001037049,登記記録の閉鎖等,0,2023-09-13,2023-08-31,株式会社ミクス,,株式会社,千葉県,千葉市花見川区,花見川６番１２棟２１７号,,12,102,2620046,,,2023-08-31,清算の結了等,,,2015-10-05,1,,,,,ミクス,0
1630,7030002073992,登記記録の閉鎖等,0,2023-09-13,2023-08-18,有限会社第一日典,,有限会社,埼玉県,川越市,的場北１丁目１５番地１２,,11,201,3501102,,,2023-08-18,清算の結了等,,,2015-10-05,1,,,,,ダイイチニッテン,0
1639,7040002080567,登記記録の閉鎖等,0,2023-09-13,2023-08-30,有限会社宮崎水道,00020824,有限会社,千葉県,長生郡長南町,岩川３０８番地,,12,427,2970101,,,2023-08-30,清算の結了等,,,2015-10-05,1,,,,,ミヤザキスイドウ,0
1641,7040003010655,登記記録の閉鎖等,0,2023-09-13,2023-08-29,合同会社アウェイク事務所,,合同会社,千葉県,浦安市,北栄４丁目１８－１２－５０２号コスモ浦安シティフォルム,,12,227,2790002,,,2023-08-29,清算の結了等,,,2017-10-02,1,,,,,,0
1648,7050002017080,登記記録の閉鎖等,0,2023-09-13,2023-09-04,有限会社ダイケン理水,,有限会社,茨城県,下妻市,大木６８６番地,,08,210,3040004,,,2023-09-04,清算の結了等,,,2015-10-05,1,,,,,ダイケンリスイ,0
1672,7120001231815,登記記録の閉鎖等,0,2023-09-13,2023-09-06,全通テクノロジー株式会社,,株式会社,東京都,世田谷区,深沢８丁目１２番１９号ハイネス原田２０１－Ｃ室,,13,112,1580081,,,2023-09-06,清算の結了等,,,2020-10-05,1,,,,,ゼンツウテクノロジー,0
1695,7120902012958,登記記録の閉鎖等,0,2023-09-13,2023-09-07,有限会社ユータック,,有限会社,大阪府,堺市西区,浜寺南町１丁９０番地１２,,27,144,5928344,,,2023-09-07,清算の結了等,,,2015-10-05,1,,,,,ユータック,0
1710,7140001017790,登記記録の閉鎖等,0,2023-09-13,2023-09-07,株式会社ニチデン,,株式会社,兵庫県,神戸市須磨区,須磨浦通４丁目８番２号,,28,107,6540055,,,2023-09-07,清算の結了等,,,2015-10-05,1,,,,,ニチデン,0
1712,7140001083065,登記記録の閉鎖等,0,2023-09-13,2023-09-06,株式会社ＮＰコーポレーション,,株式会社,兵庫県,川辺郡猪名川町,白金１丁目９３番地１７,,28,301,6660257,,,2023-09-06,清算の結了等,,,2015-10-05,1,,,,,エヌピーコーポレーション,0
1713,7140001095944,登記記録の閉鎖等,0,2023-09-13,2023-09-01,株式会社谷口企画,,株式会社,兵庫県,宝塚市,中山台２丁目９番４号,,28,214,6650876,,,2023-09-01,合併による解散等,8140001095670,令和５年９月１日兵庫県宝塚市中山台二丁目９番４号株式会社サンクチュアリ（8140001095670）に合併し解散,2015-10-05,1,,,,,タニグチキカク,0
1720,7160002013069,登記記録の閉鎖等,0,2023-09-13,2023-09-11,有限会社ラン・ドリーム,,有限会社,滋賀県,草津市,西大路町６番３９号,,25,206,5250037,,,2023-09-11,清算の結了等,,,2015-10-05,1,,,,,ランドリーム,0
1725,7180001126043,登記記録の閉鎖等,0,2023-09-13,2023-09-05,株式会社ハマノアセットマネジメント,,株式会社,愛知県,名古屋市中区,丸の内３丁目６番２７号,,23,106,4600002,,,2023-09-05,清算の結了等,,,2016-12-27,1,,,,,ハマノアセットマネジメント,0
1726,7180001139045,登記記録の閉鎖等,0,2023-09-13,2023-09-07,株式会社あるこふ,,株式会社,愛知県,名古屋市南区,宝生町３丁目１５番地,,23,112,4570828,,,2023-09-07,合併による解散等,1190001021562,令和５年９月１日三重県桑名市大字江場７１８番地１ＦＪｓｔａｒ株式会社（1190001021562）に合併し解散,2019-11-28,1,,,,,アルコフ,0
1729,7180002087549,登記記録の閉鎖等,0,2023-09-13,2023-09-07,有限会社エル,,有限会社,愛知県,東海市,荒尾町金山２２５番地,,23,222,4760003,,,2023-09-07,清算の結了等,,,2015-10-05,1,,,,,エル,0
1737,7190002009493,登記記録の閉鎖等,0,2023-09-13,2023-09-06,有限会社ハマニ,,有限会社,三重県,伊勢市,村松町２５９番地２,,24,203,5150507,,,2023-09-06,清算の結了等,,,2015-10-05,1,,,,,ハマニ,0
1739,7200003000813,登記記録の閉鎖等,0,2023-09-13,2023-09-11,合同会社ミツワ商店,,合同会社,岐阜県,岐阜市,神田町６丁目１３番地,,21,201,5008833,,,2023-09-11,清算の結了等,,,2015-10-05,1,,,,,ミツワショウテン,0
1749,7260005008972,登記記録の閉鎖等,0,2023-09-13,2023-09-08,一般社団法人岡山県機械金属工業連合会,,その他の設立登記法人,岡山県,岡山市北区,厚生町３丁目１番１５号,,33,101,7000985,,,2023-09-08,清算の結了等,,,2015-10-05,1,,,,,オカヤマケンキカイキンゾクコウギョウレンゴウカイ,0
1800,8010001111548,登記記録の閉鎖等,0,2023-09-13,2023-09-04,株式会社栄広ディスプレイ,,株式会社,東京都,千代田区,内神田１丁目１８番１１号,,13,101,1010047,,,2023-09-04,清算の結了等,,,2015-10-05,1,,,,,エイコウディスプレイ,0
1814,8010005027443,登記記録の閉鎖等,0,2023-09-13,2023-09-08,一般社団法人ＭＬ２,,その他の設立登記法人,東京都,中央区,日本橋１丁目４番１号日本橋一丁目ビルディング,,13,102,1030027,,,2023-09-08,清算の結了等,,,2017-09-12,1,,,,,エムエルツー,0
1816,8010401041849,登記記録の閉鎖等,0,2023-09-13,2023-09-01,株式会社マザー・ミュージックディレクション,,株式会社,東京都,港区,赤坂８丁目５番４０－５１６号,,13,103,1070052,,,2023-09-01,合併による解散等,6010401027932,令和５年８月３１日東京都港区赤坂八丁目５番４０－５１６号株式会社マザーランド（6010401027932）に合併し解散,2015-10-05,1,,,,,マザーミュージックディレクション,0
1833,8010601028613,登記記録の閉鎖等,0,2023-09-13,2023-09-06,株式会社エヌ・エー・ピー,,株式会社,東京都,江東区,平野２丁目１３番３号,,13,108,1350023,,,2023-09-06,清算の結了等,,,2015-10-05,1,,,,,,0
1857,8012701008552,登記記録の閉鎖等,0,2023-09-13,2023-09-11,株式会社丸山住設,,株式会社,東京都,東村山市,青葉町２丁目１０番地２６,,13,213,1890002,,,2023-09-11,清算の結了等,,,2015-10-05,1,,,,,マルヤマジュウセツ,0
1860,8012805000208,登記記録の閉鎖等,0,2023-09-13,2023-09-05,富士見食糧販売企業組合,,その他の設立登記法人,東京都,立川市,富士見町２丁目１１番１９号,,13,202,1900013,,,2023-09-05,清算の結了等,,,2015-10-05,1,,,,,フジミショクリョウハンバイ,0
1867,8020002048029,登記記録の閉鎖等,0,2023-09-13,2023-09-05,有限会社翔栄エスディーアール,,有限会社,神奈川県,横浜市西区,浅間台２３番地の３,,14,103,2200071,,,2023-09-05,清算の結了等,,,2015-10-05,1,,,,,ショウエイエスディーアール,0
1873,8021002043829,登記記録の閉鎖等,0,2023-09-13,2023-09-06,有限会社大運商事,,有限会社,神奈川県,座間市,小松原１丁目２６番２６号,,14,216,2520002,,,2023-09-06,清算の結了等,,,2015-10-05,1,,,,,ダイウンショウジ,0
1888,8040002067118,登記記録の閉鎖等,0,2023-09-13,2023-08-30,高須建設有限会社,,有限会社,千葉県,木更津市,文京３丁目６番１０号,,12,206,2920804,,,2023-08-30,清算の結了等,,,2015-10-05,1,,,,,タカスケンセツ,0
1891,8060001030735,登記記録の閉鎖等,0,2023-09-13,2023-09-01,株式会社ＡＬＢＥＲＯ,,株式会社,栃木県,小山市,西城南３丁目１５番５号清風館１０１,,09,208,3230820,,,2023-09-01,清算の結了等,,,2018-07-17,1,,,,,アルベロ,0
1914,8120001036577,登記記録の閉鎖等,0,2023-09-13,2023-09-05,株式会社ミツワ,,株式会社,大阪府,大阪市福島区,野田１丁目１番８６号,,27,103,5530005,,,2023-09-05,清算の結了等,,,2015-10-05,1,,,,,ミツワ,0
1917,8120001164147,登記記録の閉鎖等,0,2023-09-13,2023-09-06,株式会社エム・リンク,,株式会社,兵庫県,川西市,下加茂１丁目３０番７号,,28,217,6660022,,,2023-09-06,清算の結了等,,,2015-10-05,1,,,,,エムリンク,0
1919,8120001229073,登記記録の閉鎖等,0,2023-09-13,2023-09-05,ＦＡＲＭＡＣＹ　ＢＥＡＵＴＹ　ＪＡＰＡＮ株式会社,,株式会社,兵庫県,神戸市中央区,小野柄通７丁目１番１８号,,28,110,6510088,,,2023-09-05,清算の結了等,,,2020-05-15,1,,,,,ファーマシービューティージャパン,0
1924,8120101053241,登記記録の閉鎖等,0,2023-09-13,2023-09-11,株式会社らいふさぽーと・ミミズク,,株式会社,大阪府,貝塚市,麻生中１１８５番地１,,27,208,5970081,,,2023-09-11,清算の結了等,,,2015-10-05,1,,,,,ライフサポートミミズク,0
1963,8180302017808,登記記録の閉鎖等,0,2023-09-13,2023-09-01,有限会社イワノトランスポート,,有限会社,愛知県,碧南市,浜尾町１丁目３１番地,,23,209,4470055,,,2023-09-01,清算の結了等,,,2015-10-05,1,,,,,イワノトランスポート,0
1966,8200001000913,登記記録の閉鎖等,0,2023-09-13,2023-09-12,オリオン食品株式会社,,株式会社,岐阜県,岐阜市,下西郷３丁目８９番地,,21,201,5011175,,,2023-09-12,清算の結了等,,,2015-10-05,1,,,,,オリオンショクヒン,0
1988,8290001076929,登記記録の閉鎖等,0,2023-09-13,2023-09-01,株式会社フラット機設,,株式会社,福岡県,大野城市,南大利１丁目８番１２号,,40,219,8160956,,,2023-09-01,清算の結了等,,,2017-03-03,1,,,,,,0
1998,8300001010282,登記記録の閉鎖等,0,2023-09-13,2023-08-31,株式会社Ｐａｔｈｏｓ,,株式会社,福岡県,福岡市東区,香椎照葉２丁目１番２－１００５号,,40,131,8130017,,,2023-08-31,清算の結了等,,,2016-03-29,1,,,,,パトス,0
2001,8330003007588,登記記録の閉鎖等,0,2023-09-13,2023-09-01,合同会社森永海産,,合同会社,熊本県,玉名市,大浜町４３８９番地,,43,206,8650055,,,2023-09-01,清算の結了等,,,2018-08-07,1,,,,,モリナガカイサン,0
2009,8350001012217,登記記録の閉鎖等,0,2023-09-13,2023-09-04,株式会社栄琳産業,,株式会社,宮崎県,延岡市,松山町１０７２番地,,45,203,8820062,,,2023-09-04,清算の結了等,,,2015-10-05,1,,,,,エイリンサンギョウ,0
2022,8370501000264,登記記録の閉鎖等,0,2023-09-13,2023-09-05,株式会社神光建設,,株式会社,宮城県,気仙沼市,南郷９番地の５,,04,205,9880043,,,2023-09-05,清算の結了等,,,2015-10-05,1,,,,,シンコウケンセツ,0
2024,8380001029365,登記記録の閉鎖等,0,2023-09-13,2023-09-07,株式会社ＡＯＩ,,株式会社,福島県,いわき市,常磐上湯長谷町山ノ神前３５番地の７,,07,204,9728322,,,2023-09-07,清算の結了等,,,2018-08-13,1,,,,,アオイ,0
2028,8420005006752,登記記録の閉鎖等,0,2023-09-13,2023-09-06,一般財団法人青森県社会奉仕振興会,,その他の設立登記法人,青森県,青森市,蛍沢４丁目６番１２号,,02,201,0300957,,,2023-09-06,清算の結了等,,,2015-10-05,1,,,,,アオモリケンシャカイホウシシンコウカイ,0
2030,8430001079660,登記記録の閉鎖等,0,2023-09-13,2023-09-11,株式会社蒼成,,株式会社,北海道,札幌市南区,藤野五条６丁目２２番３号,,01,106,0612285,,,2023-09-11,清算の結了等,,,2019-08-13,1,,,,,ソウセイ,0
2046,9010001144753,登記記録の閉鎖等,0,2023-09-13,2023-09-06,フォーサイドフィナンシャルサービス株式会社,,株式会社,東京都,中央区,日本橋室町３丁目３番１号,,13,102,1030022,,,2023-09-06,清算の結了等,,,2015-10-05,1,,,,,フォーサイドフィナンシャルサービス,0
2047,9010001180807,登記記録の閉鎖等,0,2023-09-13,2023-09-06,さくら建物株式会社,,株式会社,東京都,中央区,銀座８丁目８番１号,,13,102,1040061,,,2023-09-06,清算の結了等,,,2017-01-18,1,,,,,サクラタテモノ,0
2098,9011501024560,登記記録の閉鎖等,0,2023-09-13,2023-09-11,アネリスタ株式会社,,株式会社,東京都,府中市,住吉町１丁目４４番地の２ＡＫビル４階,,13,206,1830034,,,2023-09-11,清算の結了等,,,2019-03-11,1,,,,,アネリスタ,0
2109,9013201005650,登記記録の閉鎖等,0,2023-09-13,2023-09-11,株式会社ミクニビルド,,株式会社,東京都,目黒区,上目黒５丁目２５番３号,,13,110,1530051,,,2023-09-11,清算の結了等,,,2015-10-05,1,,,,,ミクニビルド,0
2123,9020003022881,登記記録の閉鎖等,0,2023-09-13,2023-09-05,ＶＩＳＩＮＥ合同会社,,合同会社,神奈川県,川崎市高津区,千年１０４５番地ラフィーネＢ１０７,,14,134,2130022,,,2023-09-05,清算の結了等,,,2022-12-12,1,,,,,ビシネ,0
2134,9030001075897,登記記録の閉鎖等,0,2023-09-13,2023-08-21,株式会社タグチ,,株式会社,埼玉県,川口市,並木１丁目２３番２０号,,11,203,3320034,,,2023-08-21,清算の結了等,,,2015-10-05,1,,,,,タグチ,0
2142,9030002117269,登記記録の閉鎖等,0,2023-09-13,2023-08-21,有限会社丸兼造園土木,,有限会社,埼玉県,深谷市,上野台２７８２番地１２,,11,218,3660801,,,2023-08-21,清算の結了等,,,2015-10-05,1,,,,,,0
2147,9030005008449,登記記録の閉鎖等,0,2023-09-13,2023-08-22,医療法人浅田医院,,その他の設立登記法人,埼玉県,川越市,稲荷町１２番地８,,11,201,3501144,,,2023-08-22,清算の結了等,,,2023-06-16,1,,,,,アサダイイン,0
2164,9070001039485,登記記録の閉鎖等,0,2023-09-13,2023-09-11,ロスティ株式会社,,株式会社,群馬県,甘楽郡甘楽町,大字秋畑１４４７番地,,10,384,3702204,,,2023-09-11,清算の結了等,,,2022-07-28,1,,,,,ロスティ,0
2170,9080402014012,登記記録の閉鎖等,0,2023-09-13,2023-09-12,有限会社エフテック,,有限会社,静岡県,浜松市西区,大人見町３２０８番地,,22,133,4311112,,,2023-09-12,清算の結了等,,,2015-10-05,1,,,,,エフテック,0
2178,9120001045890,登記記録の閉鎖等,0,2023-09-13,2023-09-05,株式会社トミーテック,,株式会社,大阪府,大阪市西区,江戸堀２丁目３番１７号,,27,106,5500002,,,2023-09-05,清算の結了等,,,2015-10-05,1,,,,,トミーテック,0
2199,9130005006748,登記記録の閉鎖等,0,2023-09-13,2023-09-01,京都運送事業協同組合,,その他の設立登記法人,京都府,八幡市,川口浜８番地４５,,26,210,6148101,,,2023-09-01,清算の結了等,,,2015-10-05,1,,,,,キョウトウンソウジギョウ,0
2200,9140001046136,登記記録の閉鎖等,0,2023-09-13,2023-09-07,第一出版株式会社,,株式会社,兵庫県,加古川市,加古川町友沢１６４番地の４７,,28,210,6750035,,,2023-09-07,清算の結了等,,,2015-10-05,1,,,,,ダイイチシュッパン,0
2211,9180001121042,登記記録の閉鎖等,0,2023-09-13,2023-09-05,株式会社ＳＴＹＬＥ優ＬＡＢＯ,,株式会社,愛知県,名古屋市北区,池花町２１１番地,,23,103,4620005,,,2023-09-05,清算の結了等,,,2015-11-19,1,,,,,スタイルユウラボ,0
2217,9180002057707,登記記録の閉鎖等,0,2023-09-13,2023-09-07,有限会社ＴＡＭＡ－ｃｏｒｐｏｒａｔｉｏｎ,,有限会社,愛知県,名古屋市中区,伊勢山１丁目１１番７号,,23,106,4600026,,,2023-09-07,清算の結了等,,,2015-10-05,1,,,,,タマコーポレーション,0
2221,9180302028127,登記記録の閉鎖等,0,2023-09-13,2023-09-01,有限会社秋桜,,有限会社,愛知県,新城市,上平井３８０番地,,23,221,4411355,,,2023-09-01,清算の結了等,,,2015-10-05,1,,,,,,0
2235,9240002008562,登記記録の閉鎖等,0,2023-09-13,2023-09-08,有限会社隅の浜不動産,,有限会社,広島県,広島市佐伯区,隅の浜２丁目１０番７号,,34,108,7315145,,,2023-09-08,清算の結了等,,,2015-10-05,1,,,,,スミノハマフドウサン,0
2243,9290001074799,登記記録の閉鎖等,0,2023-09-13,2023-08-31,株式会社寿楽レクリエーション,,株式会社,福岡県,大川市,大字酒見７１３番地２,,40,212,8310016,,,2023-08-31,清算の結了等,,,2016-08-05,1,,,,,ジュラクレクリエーション,0
2259,9340005008376,登記記録の閉鎖等,0,2023-09-13,2023-09-08,一般財団法人槝之浦教育財団,,その他の設立登記法人,鹿児島県,阿久根市,脇本９０２１番地,,46,206,8991131,,,2023-09-08,清算の結了等,,,2015-10-05,1,,,,,カシノウラキョウイクザイダン,0
2265,9350003003535,登記記録の閉鎖等,0,2023-09-13,2023-09-01,合同会社ＮＫＪサポート,,合同会社,宮崎県,日向市,新生町１丁目６５番地,,45,206,8830013,,,2023-09-01,合併による解散等,6350001006427,令和５年９月１日宮崎県日向市新生町一丁目６５番地株式会社中村会計事務所（6350001006427）に合併し解散,2020-03-13,1,,,,,エヌケイジェイサポート,0
2270,9360003007898,登記記録の閉鎖等,0,2023-09-13,2023-09-08,合同会社ＨＯＴＥＬ　ＰＥＳＱＵＥＲＡ,,合同会社,沖縄県,那覇市,若狭２丁目４番１３号,,47,201,9000031,,,2023-09-08,清算の結了等,,,2016-12-05,1,,,,,ホテルペスケーラ,0
