sequenceNumber,corporateNumber,process,correct,updateDate,changeDate,name,nameImageId,kind,prefectureName,cityName,streetNumber,addressImageId,prefectureCode,cityCode,postCode,addressOutside,addressOutsideImageId,closeDate,closeCause,successorCorporateNumber,changeCause,assignmentDate,latest,enName,enPrefectureName,enCityName,enAddressOutside,furigana,hihyoji
8,1010001226955,新規,0,2022-05-31,2022-05-31,株式会社蟹倶楽部,,株式会社,東京都,中央区,築地４丁目１６番２号,,13,102,1040045,,,,,,,2022-05-31,1,,,,,カニクラブ,0
9,1010001226963,新規,0,2022-05-31,2022-05-31,ＢＬＯＯＭ株式会社,,株式会社,東京都,中央区,築地２丁目１番２号秀和築地レジデンス７１０号,,13,102,1040045,,,,,,,2022-05-31,1,,,,,ブルーム,0
10,1010003037756,新規,0,2022-05-31,2022-05-31,合同会社菅,,合同会社,東京都,中央区,日本橋浜町３丁目３番１号,,13,102,1030007,,,,,,,2022-05-31,1,,,,,スガ,0
11,1010003037772,新規,0,2022-05-31,2022-05-31,合同会社システムサービス,,合同会社,東京都,千代田区,飯田橋１丁目８番９号ニューシティハイツ飯田橋７０７,,13,101,1020072,,,,,,,2022-05-31,1,,,,,システムサービス,0
23,1010401167543,新規,0,2022-05-31,2022-05-31,株式会社Ｄａｈｌｉａ,,株式会社,東京都,港区,南麻布５丁目１０－８６０３,,13,103,1060047,,,,,,,2022-05-31,1,,,,,ダリア,0
24,1010401167568,新規,0,2022-05-31,2022-05-31,永安株式会社,,株式会社,東京都,港区,六本木７丁目７－７、８Ｆ,,13,103,1060032,,,,,,,2022-05-31,1,,,,,エイアン,0
25,1010401167601,新規,0,2022-05-31,2022-05-31,ＰＡＥラボ株式会社,,株式会社,東京都,港区,赤坂３丁目２１－１６ＳＫＩ赤坂ビル３Ｆ,,13,103,1070052,,,,,,,2022-05-31,1,,,,,ピーエーイーラボ,0
26,1010401167634,新規,0,2022-05-31,2022-05-31,株式会社ドダイ,,株式会社,東京都,港区,南青山４丁目１８番３－８０４号,,13,103,1070062,,,,,,,2022-05-31,1,,,,,ドダイ,0
28,1010501048890,新規,0,2022-05-31,2022-05-31,天驍環保産業株式会社,,株式会社,東京都,台東区,千束３丁目２１番１２号４０７号室,,13,106,1110031,,,,,,,2022-05-31,1,,,,,テンギョウカンホサンギョウ,0
32,1010601061232,新規,0,2022-05-31,2022-05-31,株式会社ヒンナ,,株式会社,東京都,江東区,東砂１丁目１番１号アルファスシティ大島８１９,,13,108,1360074,,,,,,,2022-05-31,1,,,,,ヒンナ,0
33,1010601061240,新規,0,2022-05-31,2022-05-31,宜成株式会社,,株式会社,東京都,江東区,亀戸３丁目２４番７号,,13,108,1360071,,,,,,,2022-05-31,1,,,,,ギセイ,0
39,1010705003353,新規,0,2022-05-31,2022-05-31,行政書士法人東京国際経営法務事務所,,その他の設立登記法人,東京都,品川区,西五反田５丁目２６番３号スマータス不動前４０９,,13,109,1410031,,,,,,,2022-05-31,1,,,,,トウキョウコクサイケイエイホウムジムショ,0
49,1011001147316,新規,0,2022-05-31,2022-05-31,株式会社ヒュッテ,,株式会社,東京都,渋谷区,円山町５番５号Ｎａｖｉ渋谷Ｖ３階,00126697,13,113,1500044,,,,,,,2022-05-31,1,,,,,,0
50,1011001147828,新規,0,2022-05-31,2022-05-31,株式会社メカパンダ,,株式会社,東京都,渋谷区,猿楽町７番１２号ＣＯＭＦＯＵＲＴＩＳ０７１,,13,113,1500033,,,,,,,2022-05-31,1,,,,,メカパンダ,0
52,1011003014761,新規,0,2022-05-31,2022-05-31,合同会社ＣＧＯドットコム,,合同会社,東京都,渋谷区,神宮前６丁目２３番４号桑野ビル２階,,13,113,1500001,,,,,,,2022-05-31,1,,,,,シージーオードットコム,0
58,1011401024271,新規,0,2022-05-31,2022-05-31,＿茂源株式会社,00126695,株式会社,東京都,板橋区,大山東町３６番１号第二中山荘２２４,,13,119,1730014,,,,,,,2022-05-31,1,,,,,キンモウゲン,0
62,1011501028081,新規,0,2022-05-31,2022-05-31,株式会社ＵＣＫ,,株式会社,東京都,荒川区,町屋６丁目３４番８－１０３号,,13,118,1160001,,,,,,,2022-05-31,1,,,,,ユーシーケー,0
65,1011701025341,新規,0,2022-05-31,2022-05-31,株式会社Ｈａｋｕｔｏ,,株式会社,東京都,江戸川区,中央３丁目２３番１８号,,13,123,1320021,,,,,,,2022-05-31,1,,,,,ハクト,0
72,1013301049167,新規,0,2022-05-31,2022-05-31,株式会社楽清,,株式会社,東京都,豊島区,南大塚１丁目６０番２０号天翔大塚駅前ビルＳ７０３号室,,13,116,1700005,,,,,,,2022-05-31,1,,,,,ラクセイ,0
79,1020001146681,新規,0,2022-05-31,2022-05-31,株式会社Ｒａｍｅｎ,,株式会社,神奈川県,川崎市川崎区,駅前本町１１番地２川崎フロンティアビル４階,,14,131,2100007,,,,,,,2022-05-31,1,,,,,ラーメン,0
84,1021001076076,新規,0,2022-05-31,2022-05-31,株式会社青木廣充事務所,,株式会社,神奈川県,鎌倉市,山ノ内２２１番地５,,14,204,2470062,,,,,,,2022-05-31,1,,,,,アオキヒロミチジムショ,0
85,1021001076084,新規,0,2022-05-31,2022-05-31,株式会社綴,,株式会社,神奈川県,鎌倉市,長谷２丁目１０番３１－１０６号,,14,204,2480016,,,,,,,2022-05-31,1,,,,,ツヅリ,0
86,1021001076092,新規,0,2022-05-31,2022-05-31,株式会社Ａｑｕａ　Ｒｉｎｚｕ,,株式会社,神奈川県,鎌倉市,由比ガ浜１丁目１番３２号サンガーデン鎌倉１０２号室,,14,204,2480014,,,,,,,2022-05-31,1,,,,,アクアリンズ,0
88,1030001148405,新規,0,2022-05-31,2022-05-31,株式会社ＴＴＦ,,株式会社,埼玉県,草加市,遊馬町９９９番地５,,11,221,3400032,,,,,,,2022-05-31,1,,,,,ティーティーエフ,0
89,1030001148421,新規,0,2022-05-31,2022-05-31,株式会社Ｈｅｌｌｏ　Ｗｏｒｌｄ,,株式会社,埼玉県,さいたま市南区,松本３丁目１２番１５－３号,,11,108,3360035,,,,,,,2022-05-31,1,,,,,ハローワールド,0
93,1030003019488,新規,0,2022-05-31,2022-05-31,合同会社ゆうけんどう,,合同会社,埼玉県,朝霞市,岡２丁目９番１５号,,11,227,3510007,,,,,,,2022-05-31,1,,,,,ユウケンドウ,0
95,1030005020840,新規,0,2022-05-31,2022-05-31,一般社団法人日本河南同郷会,,その他の設立登記法人,埼玉県,川口市,大字伊刈１００７－１,,11,203,3330865,,,,,,,2022-05-31,1,,,,,ニホンカナンドウゴウカイ,0
99,1040001123588,新規,0,2022-05-31,2022-05-31,株式会社ＥＬＥＣＩＡ,,株式会社,千葉県,成田市,東町１５５番地３太地ビル２Ｆ,,12,211,2860025,,,,,,,2022-05-31,1,,,,,エレシア,0
100,1040001123621,新規,0,2022-05-31,2022-05-31,株式会社ｖｏｇｕｅ,,株式会社,千葉県,千葉市中央区,栄町２７番１１号栄町狸小路ビル５Ａ,,12,101,2600016,,,,,,,2022-05-31,1,,,,,ヴォーグ,0
107,1040003020123,新規,0,2022-05-31,2022-05-31,合同会社ｈａｕ’ｏｌｉ,,合同会社,千葉県,千葉市緑区,高田町４１０番地３２,,12,105,2660003,,,,,,,2022-05-31,1,,,,,ハウオリ,0
108,1040003020131,新規,0,2022-05-31,2022-05-31,合同会社トモジット,,合同会社,千葉県,市川市,塩焼２丁目２番２号棟１０２８号,,12,203,2720114,,,,,,,2022-05-31,1,,,,,トモジット,0
116,1050005013082,新規,0,2022-05-31,2022-05-31,一般社団法人畑作公社,,その他の設立登記法人,茨城県,下妻市,黒駒１４９番地２,,08,210,3040007,,,,,,,2022-05-31,1,,,,,ハタサクコウシャ,0
125,1090001017595,新規,0,2022-05-31,2022-05-31,株式会社明善,,株式会社,山梨県,甲府市,住吉２丁目３番２３号中沢ビルＡ１０２号室,,19,201,4000851,,,,,,,2022-05-31,1,,,,,メイゼン,0
129,1110001036683,新規,0,2022-05-31,2022-05-31,株式会社２３０ｄｒｅａｍｓ,,株式会社,新潟県,新潟市江南区,城山４丁目９番２８号１,,15,104,9500137,,,,,,,2022-05-31,1,,,,,ツースリーオードリームズ,0
130,1110003004770,新規,0,2022-05-31,2022-05-31,プルシアブルー合同会社,,合同会社,新潟県,長岡市,稽古町１６５０番地,,15,202,9400054,,,,,,,2022-05-31,1,,,,,プルシアブルー,0
131,1110005016814,新規,0,2022-05-31,2022-05-31,一般社団法人Ｊａｐａｎ　Ｆｉｎａｎｃｉａｌ　Ｅｄｕｃａｔｉｏｎ　Ａｃａｄｅｍｙ,,その他の設立登記法人,新潟県,新潟市中央区,米山２丁目６番７号ＷｏｒｋＷｉｔｈ米山４－Ｃ,,15,103,9500916,,,,,,,2022-05-31,1,,,,,ジャパンファイナンシャルエデュケーションアカデミー,0
138,1120001246182,新規,0,2022-05-31,2022-05-31,ＭＴＮ株式会社,,株式会社,大阪府,大阪市天王寺区,東高津町１１番７号,,27,109,5430021,,,,,,,2022-05-31,1,,,,,エムティエヌ,0
139,1120001246199,新規,0,2022-05-31,2022-05-31,Ｅｍｏｃｉｏｎ株式会社,,株式会社,大阪府,大阪市天王寺区,生玉町２番１０号戎フルール谷九６０１号,,27,109,5430071,,,,,,,2022-05-31,1,,,,,エモシオン,0
159,1130001071828,新規,0,2022-05-31,2022-05-31,株式会社佐々木,,株式会社,京都府,京都市東山区,宮川筋５丁目３３３番地,,26,105,6050801,,,,,,,2022-05-31,1,,,,,ササキ,0
160,1130001071860,新規,0,2022-05-31,2022-05-31,株式会社ｅ‐ＰＬＵＭ,,株式会社,京都府,綾部市,梅迫町新町６２番１,,26,203,6230103,,,,,,,2022-05-31,1,,,,,イープラム,0
161,1130001071869,新規,0,2022-05-31,2022-05-31,株式会社ギオンデザイン,,株式会社,京都府,京都市左京区,浄土寺真如町１３９番地６,,26,103,6068414,,,,,,,2022-05-31,1,,,,,ギオンデザイン,0
170,1140001126143,新規,0,2022-05-31,2022-05-31,株式会社あらみたま,,株式会社,兵庫県,神戸市東灘区,御影山手１丁目７番１－２０５号,,28,101,6580065,,,,,,,2022-05-31,1,,,,,アラミタマ,0
171,1140001126151,新規,0,2022-05-31,2022-05-31,株式会社Ｇ　ｌｅａｄ,,株式会社,兵庫県,丹波市,春日町棚原１１６番地,,28,223,6694274,,,,,,,2022-05-31,1,,,,,ジーリード,0
176,1150001025575,新規,0,2022-05-31,2022-05-31,株式会社いろは,,株式会社,奈良県,天理市,石上町７３９番地,,29,204,6320011,,,,,,,2022-05-31,1,,,,,イロハ,0
177,1160001024238,新規,0,2022-05-31,2022-05-31,株式会社しあわせやなぁー,,株式会社,滋賀県,東近江市,宮川町６５７番地１８,,25,213,5291551,,,,,,,2022-05-31,1,,,,,シアワセヤナァー,0
179,1170001017125,新規,0,2022-05-31,2022-05-31,松下左官工業株式会社,,株式会社,和歌山県,和歌山市,園部９５５番地２,,30,201,6408483,,,,,,,2022-05-31,1,,,,,マツシタサカンコウギョウ,0
186,1180001151451,新規,0,2022-05-31,2022-05-31,株式会社ｃ’ｍｏｍ,,株式会社,愛知県,名古屋市中区,丸の内１丁目１４番２４号４０２,,23,106,4600002,,,,,,,2022-05-31,1,,,,,シモン,0
187,1180001151476,新規,0,2022-05-31,2022-05-31,株式会社ＬＩＢＥＲＴＡＤ,,株式会社,愛知県,名古屋市港区,寛政町７丁目２２番地の２,,23,111,4550066,,,,,,,2022-05-31,1,,,,,リベルタ,0
192,1190001029449,新規,0,2022-05-31,2022-05-31,藤石商事株式会社,,株式会社,三重県,四日市市,大字泊村９６６番地フレックス泊１０４,,24,202,5100894,,,,,,,2022-05-31,1,,,,,フジセキショウジ,0
196,1200001040098,新規,0,2022-05-31,2022-05-31,株式会社バースメイ,,株式会社,岐阜県,土岐市,肥田町肥田２０９１番地の１,,21,212,5095115,,,,,,,2022-05-31,1,,,,,バースメイ,0
199,1230001019379,新規,0,2022-05-31,2022-05-31,株式会社まめぼう豆,,株式会社,富山県,中新川郡上市町,大岩３０番地,,16,322,9300463,,,,,,,2022-05-31,1,,,,,マメボウズ,0
213,1290001097700,新規,0,2022-05-31,2022-05-31,株式会社読売センター八女,,株式会社,福岡県,八女市,本村４２５－７－２,,40,210,8340063,,,,,,,2022-05-31,1,,,,,ヨミウリセンターヤメ,0
219,1290801028573,新規,0,2022-05-31,2022-05-31,株式会社松本電機商会,,株式会社,福岡県,北九州市八幡西区,陣山２丁目７番７号,,40,109,8060012,,,,,,,2022-05-31,1,,,,,マツモトデンキショウカイ,0
226,1350001017767,新規,0,2022-05-31,2022-05-31,池田弓具株式会社,,株式会社,宮崎県,宮崎市,青葉町２０番地１,,45,201,8800842,,,,,,,2022-05-31,1,,,,,イケダユミグ,0
227,1350005006072,新規,0,2022-05-31,2022-05-31,一般社団法人のべおか風と土の学校,,その他の設立登記法人,宮崎県,延岡市,上三輪町３４０１－５,,45,203,8820885,,,,,,,2022-05-31,1,,,,,ノベオカカゼトツチノガッコウ,0
237,1370005010485,新規,0,2022-05-31,2022-05-31,一般社団法人ＧＩＦＴ,,その他の設立登記法人,宮城県,東松島市,小松字上前柳２６７番地３,,04,214,9810504,,,,,,,2022-05-31,1,,,,,ギフト,0
238,1380001032846,新規,0,2022-05-31,2022-05-31,株式会社アートポップ,,株式会社,福島県,東白川郡矢祭町,大字東舘字根添１５番地３,,07,482,9635118,,,,,,,2022-05-31,1,,,,,アートポップ,0
239,1380005012588,新規,0,2022-05-31,2022-05-31,一般社団法人李徳全研究会,,その他の設立登記法人,福島県,いわき市,平字胡摩沢１３２番地の１２,,07,204,9708026,,,,,,,2022-05-31,1,,,,,リトクゼンケンキュウカイ,0
240,1400001015897,新規,0,2022-05-31,2022-05-31,株式会社アオバフォレスト,,株式会社,岩手県,遠野市,松崎町白岩２５地割３９番地８,,03,208,0280541,,,,,,,2022-05-31,1,,,,,アオバフォレスト,0
245,1460303000765,新規,0,2022-05-31,2022-05-31,合同会社にこにこいちば七福神,,合同会社,北海道,北見市,若葉１丁目５番４号,,01,208,0900057,,,,,,,2022-05-31,1,,,,,ニコニコイチバシチフクジン,0
247,1480001011749,新規,0,2022-05-31,2022-05-31,株式会社シャラク,,株式会社,徳島県,板野郡上板町,椎本字四宮西３８４番地１,,36,405,7711343,,,,,,,2022-05-31,1,,,,,シャラク,0
258,2010001226921,新規,0,2022-05-31,2022-05-31,ロックウェル株式会社,,株式会社,東京都,千代田区,内幸町１丁目１番１号,,13,101,1000011,,,,,,,2022-05-31,1,,,,,ロックウェル,0
259,2010003037763,新規,0,2022-05-31,2022-05-31,ＩＧＭ‐Ｊａｐｏｎ合同会社,,合同会社,東京都,千代田区,神田紺屋町４６番地風月堂ビル,,13,101,1010035,,,,,,,2022-05-31,1,,,,,イージーエムジャポン,0
261,2010005035071,新規,0,2022-05-31,2022-05-31,大阪ＤＣ一般社団法人,,その他の設立登記法人,東京都,千代田区,丸の内３丁目１番１号東京共同会計事務所内,,13,101,1000005,,,,,,,2022-05-31,1,,,,,オオサカディーシー,0
268,2010401167609,新規,0,2022-05-31,2022-05-31,株式会社ＢｅｌｌａＬｕｎａ,,株式会社,東京都,港区,北青山３丁目６番７号青山パラシオタワー１１階,,13,103,1070061,,,,,,,2022-05-31,1,,,,,ベラルナ,0
269,2010401167625,新規,0,2022-05-31,2022-05-31,株式会社六本木管理五号,,株式会社,東京都,港区,六本木３丁目２番１号,,13,103,1060032,,,,,,,2022-05-31,1,,,,,ロッポンギカンリゴゴウ,0
270,2010401167641,新規,0,2022-05-31,2022-05-31,株式会社Ｊｓｏｌ,,株式会社,東京都,港区,六本木３丁目７番１－１７１０号,,13,103,1060032,,,,,,,2022-05-31,1,,,,,ジェイソル,0
271,2010403027744,新規,0,2022-05-31,2022-05-31,合同会社ＱＵＡＤＳ,,合同会社,東京都,港区,南青山２丁目２番１５号,,13,103,1070062,,,,,,,2022-05-31,1,,,,,クワッズ,0
272,2010403027769,新規,0,2022-05-31,2022-05-31,ＥＳＲ‐ＬＯＧＯＳ　ＲＥＩＴ　ＧＫ１合同会社,,合同会社,東京都,港区,虎ノ門３丁目２２番１０－２０１号,,13,103,1050001,,,,,,,2022-05-31,1,,,,,イーエスアールロゴスリートジーケーワン,0
273,2010403027777,新規,0,2022-05-31,2022-05-31,ＣＥＩＳＩＥＣ合同会社,,合同会社,東京都,港区,南青山１丁目１番１号新青山ビル西館７階,,13,103,1070062,,,,,,,2022-05-31,1,,,,,サイズイク,0
282,2010801033006,新規,0,2022-05-31,2022-05-31,株式会社Ｗｏｒｌｄ　Ｂｒｉｄｇｅ　Ｒｅｓｏｕｒｃｅ,,株式会社,東京都,大田区,西蒲田７丁目４３番９号ザ・シティ蒲田ＩＩ６階,00126696,13,111,1440051,,,,,,,2022-05-31,1,,,,,ワールドブリッジリソース,0
288,2011001147777,新規,0,2022-05-31,2022-05-31,株式会社リベラルラボ,,株式会社,東京都,渋谷区,桜丘町２９番２４号秀和レジデンス桜丘６０２,,13,113,1500031,,,,,,,2022-05-31,1,,,,,リベラルラボ,0
289,2011001147810,新規,0,2022-05-31,2022-05-31,株式会社ｒｅ．ｖａｎ,,株式会社,東京都,渋谷区,千駄ヶ谷４丁目５－１０ＣＯＭＦＯＲＩＡ１００７,,13,113,1510051,,,,,,,2022-05-31,1,,,,,リヴァン,0
290,2011003014744,新規,0,2022-05-31,2022-05-31,合同会社レジデンスファイブ,,合同会社,東京都,目黒区,大岡山１丁目２９番２０号,,13,110,1520033,,,,,,,2022-05-31,1,,,,,レジデンスファイブ,0
291,2011101099027,新規,0,2022-05-31,2022-05-31,株式会社ＭＯＫＯＺＩ,,株式会社,東京都,新宿区,西新宿３丁目６番５－１３０３号,,13,104,1600023,,,,,,,2022-05-31,1,,,,,モコジ,0
293,2011103011807,新規,0,2022-05-31,2022-05-31,合同会社０１,,合同会社,東京都,新宿区,歌舞伎町２丁目９番１５号歌舞伎町ダイヤモンドパレス５０３,,13,104,1600021,,,,,,,2022-05-31,1,,,,,ゼロワン,0
295,2011303004420,新規,0,2022-05-31,2022-05-31,メディライト合同会社,,合同会社,東京都,杉並区,高円寺南３丁目２４番４号,,13,115,1660003,,,,,,,2022-05-31,1,,,,,,0
296,2011403003677,新規,0,2022-05-31,2022-05-31,合同会社アレグリア,,合同会社,東京都,板橋区,大山東町５８番１２－２０３号,,13,119,1730014,,,,,,,2022-05-31,1,,,,,アレグリア,0
307,2020001146672,新規,0,2022-05-31,2022-05-31,株式会社森の素材研究所,,株式会社,神奈川県,横浜市港南区,日野中央３丁目２８番１５号,,14,111,2340053,,,,,,,2022-05-31,1,,,,,モリノソザイケンキュウジョ,0
308,2020001146714,新規,0,2022-05-31,2022-05-31,株式会社一碧,,株式会社,神奈川県,横浜市南区,井土ケ谷上町２０番１４号,,14,105,2320051,,,,,,,2022-05-31,1,,,,,イッセイ,0
319,2021001076083,新規,0,2022-05-31,2022-05-31,ｗａｇｍｉ株式会社,,株式会社,神奈川県,藤沢市,辻堂１丁目８番２６号,,14,205,2510047,,,,,,,2022-05-31,1,,,,,ワグミ,0
325,2030001148379,新規,0,2022-05-31,2022-05-31,ゼネラル株式会社,,株式会社,埼玉県,川口市,芝下２丁目３３番９号芝リバーサイドハイツ２０５号室,,11,203,3330848,,,,,,,2022-05-31,1,,,,,ゼネラル,0
326,2030001148412,新規,0,2022-05-31,2022-05-31,株式会社光フロアー,,株式会社,埼玉県,川口市,大字赤井１４３５番地の６,,11,203,3340073,,,,,,,2022-05-31,1,,,,,ヒカリフロアー,0
332,2030003019487,新規,0,2022-05-31,2022-05-31,合同会社ＨＡＰＰＹ　ＡＰＰＬＥ,,合同会社,埼玉県,草加市,稲荷２丁目３７番３号２０２,,11,221,3400003,,,,,,,2022-05-31,1,,,,,ハッピーアップル,0
333,2030005020880,新規,0,2022-05-31,2022-05-31,一般社団法人犯罪被害者等支援の会,,その他の設立登記法人,埼玉県,狭山市,祇園１５番３０号,,11,215,3501307,,,,,,,2022-05-31,1,,,,,ハンザイヒガイシャトウシエンノカイ,0
340,2040001123579,新規,0,2022-05-31,2022-05-31,尭順商事株式会社,,株式会社,千葉県,我孫子市,寿２丁目１７番４５号,,12,222,2701152,,,,,,,2022-05-31,1,,,,,タカジュンショウジ,0
341,2040001123629,新規,0,2022-05-31,2022-05-31,株式会社ねこのタミ,,株式会社,千葉県,柏市,若柴１７８番地４柏の葉キャンパス１４８街区１Ｅ－２０３,,12,217,2770871,,,,,,,2022-05-31,1,,,,,ネコノタミ,0
342,2040003020106,新規,0,2022-05-31,2022-05-31,合同会社あさひホーム,,合同会社,千葉県,長生郡長生村,一松２３１４番地２,,12,423,2994327,,,,,,,2022-05-31,1,,,,,アサヒホーム,0
360,2090001017594,新規,0,2022-05-31,2022-05-31,株式会社ａｒｃｈｅ,,株式会社,山梨県,南アルプス市,西野１９９９－２５,,19,208,4000213,,,,,,,2022-05-31,1,,,,,アーチ,0
364,2110005016813,新規,0,2022-05-31,2022-05-31,一般社団法人日本公務員金融教育アドバイザー協会,,その他の設立登記法人,新潟県,新潟市中央区,米山２丁目６番７号ＷｏｒｋＷｉｔｈ米山４－Ｃ,,15,103,9500916,,,,,,,2022-05-31,1,,,,,ニホンコウムインキンユウキョウイクアドバイザーキョウカイ,0
373,2120001246223,新規,0,2022-05-31,2022-05-31,株式会社ベル・ツリー,,株式会社,大阪府,大阪市旭区,今市１丁目１８番１１号,,27,117,5350011,,,,,,,2022-05-31,1,,,,,ベルツリー,0
374,2120001246231,新規,0,2022-05-31,2022-05-31,株式会社ＧＯＡＴ,,株式会社,大阪府,大阪市浪速区,日本橋東３丁目１５番１７号日本橋ＹＴビル５０１号室,,27,111,5560006,,,,,,,2022-05-31,1,,,,,ゴート,0
381,2120003021772,新規,0,2022-05-31,2022-05-31,マーキュリー合同会社,,合同会社,大阪府,大阪市都島区,都島北通１丁目１番１４号３０２,,27,102,5340014,,,,,,,2022-05-31,1,,,,,マーキュリー,0
382,2120003021780,新規,0,2022-05-31,2022-05-31,合同会社ゆーちゃんのゆーとぉーりー,,合同会社,大阪府,大阪市福島区,鷺洲５丁目８番２号,,27,103,5530002,,,,,,,2022-05-31,1,,,,,ユーチャンノユートォーリー,0
383,2120003021789,新規,0,2022-05-31,2022-05-31,合同会社ＫＣ,,合同会社,大阪府,守口市,八雲中町１丁目２４－２,,27,209,5700005,,,,,,,2022-05-31,1,,,,,ケーシー,0
387,2120101065639,新規,0,2022-05-31,2022-05-31,株式会社龍進,,株式会社,大阪府,堺市堺区,住吉橋町１丁７番１３号朝日プラザ堺１００１号,,27,141,5900973,,,,,,,2022-05-31,1,,,,,リュウシン,0
392,2120903004166,新規,0,2022-05-31,2022-05-31,合同会社ｈｉ‐ｈａｔ,,合同会社,大阪府,高槻市,高西町１９番３０号,,27,207,5690061,,,,,,,2022-05-31,1,,,,,ハイハット,0
394,2122001035903,新規,0,2022-05-31,2022-05-31,アクトシステム株式会社,,株式会社,大阪府,大東市,三箇５丁目７番２１号,,27,218,5740077,,,,,,,2022-05-31,1,,,,,アクトシステム,0
396,2130001071851,新規,0,2022-05-31,2022-05-31,株式会社大樹,,株式会社,京都府,京都市南区,上鳥羽塔ノ森紫東町４５番地２,,26,107,6010000,,,,,,,2022-05-31,1,,,,,タイジュ,0
402,2140001126142,新規,0,2022-05-31,2022-05-31,株式会社喜希,,株式会社,兵庫県,丹波篠山市,今田町下立杭６０１番地５,,28,221,6692141,,,,,,,2022-05-31,1,,,,,キキ,0
403,2140001126167,新規,0,2022-05-31,2022-05-31,株式会社かあむ,,株式会社,兵庫県,加古川市,加古川町平野３３０番地,,28,210,6750063,,,,,,,2022-05-31,1,,,,,カアム,0
408,2140003017736,新規,0,2022-05-31,2022-05-31,ＫＭ合同会社,,合同会社,兵庫県,明石市,二見町西二見１３２３－５,,28,203,6740094,,,,,,,2022-05-31,1,,,,,ケイエム,0
409,2140005026198,新規,0,2022-05-31,2022-05-31,特定非営利活動法人ライフゴーズオン,,その他の設立登記法人,兵庫県,姫路市,下手野４丁目１２番７－５０３号リバード高岡,,28,201,6700063,,,,,,,2022-05-31,1,,,,,ライフゴーズオン,0
410,2150001025574,新規,0,2022-05-31,2022-05-31,株式会社ＲｅＣｒｅａｔｅ,,株式会社,奈良県,大和高田市,大字今里４２２番地１,,29,202,6350031,,,,,,,2022-05-31,1,,,,,リクリエイト,0
411,2150003002695,新規,0,2022-05-31,2022-05-31,合同会社ファルミクス,,合同会社,奈良県,生駒郡斑鳩町,龍田２丁目３番１０号,00126701,29,344,6360152,,,,,,,2022-05-31,1,,,,,ファルミクス,0
413,2160001024237,新規,0,2022-05-31,2022-05-31,株式会社ニッケイ不動産,,株式会社,滋賀県,近江八幡市,丸の内町２番地４２,,25,204,5230062,,,,,,,2022-05-31,1,,,,,ニッケイフドウサン,0
414,2170001017124,新規,0,2022-05-31,2022-05-31,株式会社和の達,,株式会社,和歌山県,田辺市,新庄町１９３－２,,30,206,6460011,,,,,,,2022-05-31,1,,,,,ワノミチ,0
426,2180001151475,新規,0,2022-05-31,2022-05-31,株式会社Ｍ．Ｇ．Ｋ,,株式会社,愛知県,大府市,大東町３丁目１１７番地,,23,223,4740023,,,,,,,2022-05-31,1,,,,,エムジーケー,0
427,2180001151483,新規,0,2022-05-31,2022-05-31,株式会社りやん,,株式会社,愛知県,海部郡大治町,大字東條字高松２３番地の２,,23,424,4901134,,,,,,,2022-05-31,1,,,,,リヤン,0
433,2190001029448,新規,0,2022-05-31,2022-05-31,株式会社釜田商店,,株式会社,三重県,四日市市,西富田町５４８番地５,,24,202,5108024,,,,,,,2022-05-31,1,,,,,カマダショウテン,0
440,2220001024866,新規,0,2022-05-31,2022-05-31,株式会社ＢＥＡＲ’Ｓ　ＷＯＲＫＳ,,株式会社,石川県,白山市,北安田町１２１６番地１,,17,210,9240024,,,,,,,2022-05-31,1,,,,,ベアーズワークス,0
459,2290001097699,新規,0,2022-05-31,2022-05-31,株式会社サンシン,,株式会社,福岡県,糟屋郡久山町,大字久原２２３１－４,,40,348,8112501,,,,,,,2022-05-31,1,,,,,サンシン,0
462,2290003012565,新規,0,2022-05-31,2022-05-31,合同会社ＢｉｚＣＬＡＳＳＥ,,合同会社,福岡県,福岡市中央区,地行浜２丁目２番４－２１０１号,,40,133,8100065,,,,,,,2022-05-31,1,,,,,ビズクラッセ,0
464,2290803004134,新規,0,2022-05-31,2022-05-31,ソラルワーク合同会社,,合同会社,福岡県,北九州市小倉北区,紺屋町１４番１０－１０２号,,40,106,8020081,,,,,,,2022-05-31,1,,,,,ソラルワーク,0
467,2340001024747,新規,0,2022-05-31,2022-05-31,株式会社ＦＤＨ,,株式会社,鹿児島県,出水市,昭和町１３番１号ＴＴフロント２Ｆ,,46,208,8990202,,,,,,,2022-05-31,1,,,,,エフディエイチ,0
470,2350005006071,新規,0,2022-05-31,2022-05-31,一般社団法人未来支援らしさ,,その他の設立登記法人,宮崎県,延岡市,山下町１丁目３番地２－２０２,,45,203,8820055,,,,,,,2022-05-31,1,,,,,ミライシエンラシサ,0
473,2370001048611,新規,0,2022-05-31,2022-05-31,株式会社ＭＫＳ,,株式会社,宮城県,仙台市宮城野区,中野１丁目４番地の９‐１１２,,04,102,9830013,,,,,,,2022-05-31,1,,,,,エムケーエス,0
474,2370005010484,新規,0,2022-05-31,2022-05-31,一般社団法人ＮＯＵＦＵＫＵ,,その他の設立登記法人,宮城県,仙台市泉区,加茂１丁目１８番地の３３,,04,105,9813122,,,,,,,2022-05-31,1,,,,,ノウフク,0
475,2380001032845,新規,0,2022-05-31,2022-05-31,Ｉ＆Ｆ株式会社,,株式会社,福島県,いわき市,平字旧城跡３１番地の１６,,07,204,9708026,,,,,,,2022-05-31,1,,,,,アイアンドエフ,0
477,2390003001962,新規,0,2022-05-31,2022-05-31,合同会社Ｐ＆Ｓ,,合同会社,山形県,東根市,柏原２丁目２番５５－２号,,06,211,9993770,,,,,,,2022-05-31,1,,,,,ピーアンドエス,0
481,2420003002528,新規,0,2022-05-31,2022-05-31,しゅうたろうＢＲ合同会社,,合同会社,青森県,八戸市,新湊３丁目８番１８号,,02,203,0310811,,,,,,,2022-05-31,1,,,,,シュウタロウビーアール,0
492,2490003001663,新規,0,2022-05-31,2022-05-31,合同会社拓,,合同会社,高知県,高知市,鴨部８５６番地１９,,39,201,7808050,,,,,,,2022-05-31,1,,,,,ヒラク,0
493,2500001024243,新規,0,2022-05-31,2022-05-31,ヒメデンサービス株式会社,,株式会社,愛媛県,松山市,南斎院町４３番地３,,38,201,7918032,,,,,,,2022-05-31,1,,,,,ヒメデンサービス,0
494,2500005008498,新規,0,2022-05-31,2022-05-31,一般社団法人さんかく,,その他の設立登記法人,愛媛県,今治市,常盤町１丁目３番１１号,,38,202,7940015,,,,,,,2022-05-31,1,,,,,サンカク,0
499,3010003037770,新規,0,2022-05-31,2022-05-31,合同会社インフォヤード,,合同会社,東京都,文京区,千駄木４丁目１０番－８－９０１号,,13,105,1130022,,,,,,,2022-05-31,1,,,,,インフォヤード,0
500,3010005035070,新規,0,2022-05-31,2022-05-31,一般社団法人ＫＳ東梅田,,その他の設立登記法人,東京都,千代田区,神田神保町１丁目１１番地さくら綜合事務所内,,13,101,1010051,,,,,,,2022-05-31,1,,,,,ケイエスヒガシウメダ,0
506,3010401167401,新規,0,2022-05-31,2022-05-31,ＴＥＳＥ　Ｊａｐａｎ株式会社,,株式会社,東京都,港区,芝浦２丁目１５番６号,,13,103,1080023,,,,,,,2022-05-31,1,,,,,ティーイーエスイージャパン,0
507,3010401167459,新規,0,2022-05-31,2022-05-31,Ｍ‐ＹＯＵ株式会社,,株式会社,東京都,港区,六本木７丁目２１番２４－６０１号,,13,103,1060032,,,,,,,2022-05-31,1,,,,,エムユー,0
508,3010401167616,新規,0,2022-05-31,2022-05-31,株式会社みろく,,株式会社,東京都,港区,台場２丁目２番２号,,13,103,1350091,,,,,,,2022-05-31,1,,,,,ミロク,0
509,3010401167624,新規,0,2022-05-31,2022-05-31,株式会社六本木管理四号,,株式会社,東京都,港区,六本木３丁目２番１号,,13,103,1060032,,,,,,,2022-05-31,1,,,,,ロッポンギカンリヨンゴウ,0
510,3010401167649,新規,0,2022-05-31,2022-05-31,株式会社Ｍ’ｓ　ａｇｅｎｔ,,株式会社,東京都,港区,芝５丁目２２番６号,,13,103,1080014,,,,,,,2022-05-31,1,,,,,エムズエージェント,0
511,3010403027652,新規,0,2022-05-31,2022-05-31,合同会社エキスポマン・メッセバウ,,合同会社,東京都,港区,芝浦３丁目１０番６号,,13,103,1080023,,,,,,,2022-05-31,1,,,,,エキスポマンメッセバウ,0
512,3010403027768,新規,0,2022-05-31,2022-05-31,合同会社ＴＯＫＩＯ‐ＢＡ福島西郷,,合同会社,東京都,港区,西麻布２丁目２５番３２号,,13,103,1060031,,,,,,,2022-05-31,1,,,,,トキオバフクシマニシゴウ,0
513,3010403027776,新規,0,2022-05-31,2022-05-31,Ｃ‐Ｌａｂ．合同会社,,合同会社,東京都,港区,南青山２丁目２番１５号ＷｉｎＡｏｙａｍａビルＵＣＦ６Ｆ,,13,103,1070062,,,,,,,2022-05-31,1,,,,,クラブ,0
518,3010601061239,新規,0,2022-05-31,2022-05-31,アマレリコ株式会社,,株式会社,東京都,江東区,亀戸３丁目４４番９号,,13,108,1360071,,,,,,,2022-05-31,1,,,,,アマレリコ,0
519,3010601061247,新規,0,2022-05-31,2022-05-31,株式会社清澄白河会計舎,,株式会社,東京都,江東区,白河４丁目１番１７号吹井ビル２０１,,13,108,1350021,,,,,,,2022-05-31,1,,,,,キヨスミシラカワカイケイシャ,0
520,3010701042709,新規,0,2022-05-31,2022-05-31,株式会社ｔａｓｈｕ,,株式会社,東京都,品川区,戸越４丁目６番１５号,,13,109,1420041,,,,,,,2022-05-31,1,,,,,タシュー,0
521,3010801033005,新規,0,2022-05-31,2022-05-31,ＡＦＣアセットマネジメント株式会社,,株式会社,東京都,大田区,羽田空港１丁目６番５号第五綜合ビル,,13,111,1440041,,,,,,,2022-05-31,1,,,,,エーエフシーアセットマネジメント,0
534,3011101099018,新規,0,2022-05-31,2022-05-31,株式会社ナウラ,,株式会社,東京都,新宿区,西新宿５丁目２５番１３号日神パレス西新宿３０８号,,13,104,1600023,,,,,,,2022-05-31,1,,,,,ナウラ,0
535,3011101099026,新規,0,2022-05-31,2022-05-31,セントラル株式会社,,株式会社,東京都,新宿区,百人町１丁目２２番２４号竹ノ秀３Ｆ,,13,104,1690073,,,,,,,2022-05-31,1,,,,,セントラル,0
551,3012703002467,新規,0,2022-05-31,2022-05-31,清絆メモリー合同会社,,合同会社,東京都,清瀬市,下宿２丁目４４１番地９,,13,221,2040001,,,,,,,2022-05-31,1,,,,,セイナメモリー,0
552,3012803002788,新規,0,2022-05-31,2022-05-31,合同会社ＴＭライン,,合同会社,東京都,国分寺市,東恋ヶ窪５丁目２番地２４リーベ２１－２０１,,13,214,1850014,,,,,,,2022-05-31,1,,,,,ティーエムライン,0
560,3020001146705,新規,0,2022-05-31,2022-05-31,株式会社雅心,,株式会社,神奈川県,横浜市青葉区,鉄町１２０１番地８,,14,117,2250025,,,,,,,2022-05-31,1,,,,,ミヤビ,0
562,3020003021848,新規,0,2022-05-31,2022-05-31,合同会社壽サンライズ,,合同会社,神奈川県,横浜市青葉区,あざみ野２丁目２９番地１ブランズシティあざみ野６３１,,14,117,2250011,,,,,,,2022-05-31,1,,,,,コトブキサンライズ,0
563,3020003021856,新規,0,2022-05-31,2022-05-31,合同会社鍵尾,,合同会社,神奈川県,川崎市中原区,中丸子７７８番地９,,14,133,2110012,,,,,,,2022-05-31,1,,,,,キーテイル,0
569,3021003011756,新規,0,2022-05-31,2022-05-31,合同会社ＴＨＴ,,合同会社,神奈川県,小田原市,江之浦１９４番地の３,,14,206,2500025,,,,,,,2022-05-31,1,,,,,ティーエイチティー,0
576,3030001148411,新規,0,2022-05-31,2022-05-31,株式会社ＩＣＨＩ,,株式会社,埼玉県,本庄市,西富田８５０番地１,,11,211,3670035,,,,,,,2022-05-31,1,,,,,イチ,0
577,3030001148428,新規,0,2022-05-31,2022-05-31,株式会社ワンアップ,,株式会社,埼玉県,川口市,柳根町１８番１８号,,11,203,3330864,,,,,,,2022-05-31,1,,,,,ワンアップ,0
579,3030003019494,新規,0,2022-05-31,2022-05-31,Ｄｅｃｏｒｉｎ合同会社,,合同会社,埼玉県,さいたま市西区,西大宮３丁目１５－１５,,11,101,3310078,,,,,,,2022-05-31,1,,,,,デコリン,0
584,3040001123578,新規,0,2022-05-31,2022-05-31,宮崎商事株式会社,00126700,株式会社,千葉県,旭市,萬歳５３５番地,,12,215,2890505,,,,,,,2022-05-31,1,,,,,ミヤザキショウジ,0
589,3050003006581,新規,0,2022-05-31,2022-05-31,合同会社ＴＩＭＥ,,合同会社,茨城県,水戸市,大塚町７６８番地の３,,08,201,3114143,,,,,,,2022-05-31,1,,,,,タイム,0
598,3110001036681,新規,0,2022-05-31,2022-05-31,株式会社ｎａｔｕｒｅ　ｗｏｏｄｓ,,株式会社,新潟県,村上市,高根３４８１番地１,,15,212,9580211,,,,,,,2022-05-31,1,,,,,ネイチャーウッズ,0
599,3110005016812,新規,0,2022-05-31,2022-05-31,一般社団法人スワローＸＦＦ,,その他の設立登記法人,新潟県,燕市,吉田東栄町７番８号,,15,213,9590232,,,,,,,2022-05-31,1,,,,,スワローエックスエフエフ,0
612,3120001246189,新規,0,2022-05-31,2022-05-31,ｏｎｅｃｏｎｃｅｐｔ株式会社,,株式会社,大阪府,大阪市北区,梅田１丁目１１番４号大阪駅前第４ビル２０階,,27,127,5300001,,,,,,,2022-05-31,1,,,,,ワンコンセプト,0
613,3120001246222,新規,0,2022-05-31,2022-05-31,株式会社ＬＩＣＥＮＳＥ　ＪＡＰＡＮ,,株式会社,大阪府,大阪市西区,西本町１丁目８番２号三晃ビル５階,,27,106,5500005,,,,,,,2022-05-31,1,,,,,ライセンスジャパン,0
614,3120001246247,新規,0,2022-05-31,2022-05-31,株式会社ＬＯＧ‐ＳＴＵＤＩＯ,,株式会社,大阪府,大阪市浪速区,戎本町１丁目７番１１号ユーハイツえびす１０１,,27,111,5560013,,,,,,,2022-05-31,1,,,,,ログスタジオ,0
615,3120001246263,新規,0,2022-05-31,2022-05-31,株式会社ジェイアイ,,株式会社,大阪府,大阪市東成区,東今里２丁目１４番２２号,,27,115,5370011,,,,,,,2022-05-31,1,,,,,ジェイアイ,0
617,3120003021788,新規,0,2022-05-31,2022-05-31,ＡＫ合同会社,,合同会社,大阪府,大阪市東成区,大今里西３丁目２番２９－３０３号,,27,115,5370014,,,,,,,2022-05-31,1,,,,,アカ,0
618,3120003021796,新規,0,2022-05-31,2022-05-31,合同会社ディフ,,合同会社,大阪府,大阪市旭区,森小路１丁目１１番２７号,,27,117,5350013,,,,,,,2022-05-31,1,,,,,ディフ,0
624,3120101065638,新規,0,2022-05-31,2022-05-31,株式会社ドコデモ,,株式会社,大阪府,泉佐野市,中町１丁目１番２８号,,27,213,5980013,,,,,,,2022-05-31,1,,,,,ドコデモ,0
625,3120101065646,新規,0,2022-05-31,2022-05-31,株式会社ウエスト,,株式会社,大阪府,堺市北区,奥本町１丁２８１番地,,27,146,5918007,,,,,,,2022-05-31,1,,,,,ウエスト,0
626,3120105009566,新規,0,2022-05-31,2022-05-31,ＮＰＯ法人発達サポート・アイビー,,その他の設立登記法人,大阪府,泉佐野市,羽倉崎３丁目１０番４２号,,27,213,5980046,,,,,,,2022-05-31,1,,,,,ハッタツサポートアイビー,0
629,3122003002347,新規,0,2022-05-31,2022-05-31,合同会社ＡＵＲＵＭ,,合同会社,大阪府,八尾市,亀井町４丁目２番１５号,,27,212,5810065,,,,,,,2022-05-31,1,,,,,オーラム,0
631,3130001071859,新規,0,2022-05-31,2022-05-31,株式会社サードステージ,,株式会社,京都府,京都市左京区,岩倉村松町６８番地１２,,26,103,6060034,,,,,,,2022-05-31,1,,,,,サードステージ,0
632,3130001071867,新規,0,2022-05-31,2022-05-31,株式会社光ホーム,,株式会社,京都府,宇治市,羽戸山１丁目５番地６１,,26,204,6110012,,,,,,,2022-05-31,1,,,,,ヒカリホーム,0
639,3140001126141,新規,0,2022-05-31,2022-05-31,播磨リゾート株式会社,,株式会社,兵庫県,宍粟市,山崎町須賀沢１６１番地,,28,227,6712533,,,,,,,2022-05-31,1,,,,,ハリマリゾート,0
640,3140001126166,新規,0,2022-05-31,2022-05-31,株式会社ＡＲＳｍｉｌｅ,,株式会社,兵庫県,神戸市垂水区,名谷町１９４９番地の１－６１３号,,28,108,6550852,,,,,,,2022-05-31,1,,,,,アルスマイル,0
641,3140001126174,新規,0,2022-05-31,2022-05-31,株式会社エルセンケア,,株式会社,兵庫県,神戸市東灘区,住吉山手２丁目１１－２４,,28,101,6580063,,,,,,,2022-05-31,1,,,,,エルセンケア,0
647,3150001025573,新規,0,2022-05-31,2022-05-31,株式会社ＮａＬｕ　ｃｏｒｐｏｒａｔｉｏｎ,,株式会社,奈良県,北葛城郡広陵町,大字平尾７２３番地１３,,29,426,6350822,,,,,,,2022-05-31,1,,,,,ナルコーポレーション,0
648,3150001025581,新規,0,2022-05-31,2022-05-31,株式会社拓進グループ,,株式会社,奈良県,生駒市,小平尾町３８６番地１第６サンコウヒルズ北館２０５,,29,209,6300226,,,,,,,2022-05-31,1,,,,,タクシングループ,0
649,3150003002694,新規,0,2022-05-31,2022-05-31,Ｎ　ＦＵＴＵＲＥ合同会社,,合同会社,奈良県,奈良市,西大寺本町３番５号ブリリア西大寺ローレルコート７０７号,,29,201,6310816,,,,,,,2022-05-31,1,,,,,エヌフューチャー,0
657,3180001151482,新規,0,2022-05-31,2022-05-31,株式会社グロースＥＳＨ,,株式会社,愛知県,名古屋市北区,上飯田北町２丁目６５番地,,23,103,4620802,,,,,,,2022-05-31,1,,,,,グロースイーエスエイチ,0
658,3180001151490,新規,0,2022-05-31,2022-05-31,株式会社リプソル,,株式会社,愛知県,あま市,古道屋敷２９１番地７,,23,237,4901201,,,,,,,2022-05-31,1,,,,,リプソル,0
659,3180001151499,新規,0,2022-05-31,2022-05-31,株式会社桜マーケット,,株式会社,愛知県,名古屋市瑞穂区,駒場町７丁目１３番,,23,108,4670807,,,,,,,2022-05-31,1,,,,,サクラマーケット,0
660,3180001151508,新規,0,2022-05-31,2022-05-31,株式会社ティーケイ,,株式会社,愛知県,名古屋市中区,栄１丁目２２－２ライオンズ名古屋４０８号,,23,106,4600008,,,,,,,2022-05-31,1,,,,,ティーケイ,0
671,3190001029447,新規,0,2022-05-31,2022-05-31,兼粋興業株式会社,,株式会社,三重県,伊賀市,柘植町８８９３番地の３,,24,216,5191402,,,,,,,2022-05-31,1,,,,,ケンスイコウギョウ,0
687,3290005018700,新規,0,2022-05-31,2022-05-31,一般社団法人九州文化エンターテインメント振興支援協会,,その他の設立登記法人,福岡県,福岡市中央区,天神３丁目１１番２０号天神エフビル２階,,40,133,8100001,,,,,,,2022-05-31,1,,,,,キュウシュウブンカエンターテインメントシンコウシエンキョウカイ,0
688,3290801028571,新規,0,2022-05-31,2022-05-31,株式会社ネクストレード,,株式会社,福岡県,北九州市小倉北区,下到津１丁目７番２１号,,40,106,8030846,,,,,,,2022-05-31,1,,,,,,0
691,3310003004377,新規,0,2022-05-31,2022-05-31,合同会社ａｍａｎｅ,,合同会社,長崎県,東彼杵郡東彼杵町,蔵本郷１６１７番地３,,42,321,8593808,,,,,,,2022-05-31,1,,,,,アマネ,0
698,3350001017765,新規,0,2022-05-31,2022-05-31,株式会社ｍａａ‐ｍａｄｅ,,株式会社,宮崎県,宮崎市,波島１丁目３３番１５号,,45,201,8800826,,,,,,,2022-05-31,1,,,,,マーメイド,0
704,3380001032844,新規,0,2022-05-31,2022-05-31,伊藤興業株式会社,,株式会社,福島県,大沼郡会津美里町,字新町２５６番地３,,07,447,9696115,,,,,,,2022-05-31,1,,,,,イトウコウギョウ,0
706,3390003001961,新規,0,2022-05-31,2022-05-31,合同会社Ｗ＆Ｈ,,合同会社,山形県,西置賜郡飯豊町,大字小白川３３２４番地８１,,06,403,9991113,,,,,,,2022-05-31,1,,,,,ダブリューアンドエイチ,0
707,3400003002941,新規,0,2022-05-31,2022-05-31,合同会社美樹,,合同会社,岩手県,奥州市,水沢字北丑沢１１番地５,,03,215,0230031,,,,,,,2022-05-31,1,,,,,ビジュ,0
712,3430001086752,新規,0,2022-05-31,2022-05-31,株式会社ＳＫＦ,,株式会社,北海道,札幌市中央区,南九条西４丁目３番１号,,01,101,0640809,,,,,,,2022-05-31,1,,,,,エスケーエフ,0
715,3430005014478,新規,0,2022-05-31,2022-05-31,特定非営利活動法人イナンクル,,その他の設立登記法人,北海道,札幌市西区,二十四軒二条４丁目１番２０号,,01,107,0630802,,,,,,,2022-05-31,1,,,,,イナンクル,0
716,3450003002210,新規,0,2022-05-31,2022-05-31,合同会社成桜,,合同会社,北海道,旭川市,春光四条７丁目１番２９号,,01,204,0700874,,,,,,,2022-05-31,1,,,,,セイオウ,0
720,3470003002191,新規,0,2022-05-31,2022-05-31,合同会社ＵＰＧ,,合同会社,香川県,丸亀市,前塩屋町１丁目１０番１３－６号,,37,202,7630064,,,,,,,2022-05-31,1,,,,,ユーピージー,0
723,3480001011747,新規,0,2022-05-31,2022-05-31,株式会社ＫＭＧ,,株式会社,徳島県,徳島市,北前川町４丁目１番地,,36,201,7700806,,,,,,,2022-05-31,1,,,,,ケイエムジー,0
728,3500001024242,新規,0,2022-05-31,2022-05-31,あい喜防災株式会社,,株式会社,愛媛県,伊予郡松前町,大字西高柳２９７番地３Ｍ・Ｙ・Ｍ３０３号室,,38,401,7913132,,,,,,,2022-05-31,1,,,,,アイキボウサイ,0
736,4010001226804,新規,0,2022-05-31,2022-05-31,ｂｏｏｏｓｔ　ｈｅａｌｔｈ株式会社,,株式会社,東京都,中央区,銀座１丁目２２番１１号,,13,102,1040061,,,,,,,2022-05-31,1,,,,,ブーストヘルス,0
737,4010001226944,新規,0,2022-05-31,2022-05-31,Ｈｙｄｅｘ株式会社,,株式会社,東京都,中央区,日本橋小網町１８番１１号,,13,102,1030016,,,,,,,2022-05-31,1,,,,,ハイデックス,0
738,4010001226952,新規,0,2022-05-31,2022-05-31,株式会社ＳＨＵＭＯＮ,,株式会社,東京都,中央区,晴海３丁目１３番２号,,13,102,1040053,,,,,,,2022-05-31,1,,,,,シュウモン,0
757,4010401167664,新規,0,2022-05-31,2022-05-31,ＥＤＩＴＩＯＮＺ株式会社,,株式会社,東京都,港区,元麻布３丁目１２番２２号,,13,103,1060046,,,,,,,2022-05-31,1,,,,,エディションズ,0
758,4010401167672,新規,0,2022-05-31,2022-05-31,株式会社芝浦ファーマシー,,株式会社,東京都,港区,芝浦３丁目１３番１８号ＴＯＨＯビル１階,,13,103,1080023,,,,,,,2022-05-31,1,,,,,シバウラファーマシー,0
765,4010403027734,新規,0,2022-05-31,2022-05-31,合同会社万莉,,合同会社,東京都,港区,三田５丁目８番８－７１１号,,13,103,1080073,,,,,,,2022-05-31,1,,,,,マンリ,0
772,4010701042716,新規,0,2022-05-31,2022-05-31,株式会社ＡＬＩＶＥ,,株式会社,東京都,品川区,中延５丁目１１番２５号,,13,109,1420053,,,,,,,2022-05-31,1,,,,,アライブ,0
773,4010701042724,新規,0,2022-05-31,2022-05-31,株式会社Ａｐｐｏｒｔ,,株式会社,東京都,品川区,小山６丁目１３番１０号,,13,109,1420062,,,,,,,2022-05-31,1,,,,,アポール,0
789,4011001147726,新規,0,2022-05-31,2022-05-31,株式会社シークス,,株式会社,東京都,渋谷区,神宮前６丁目２３番４号桑野ビル２階,,13,113,1500001,,,,,,,2022-05-31,1,,,,,シークス,0
790,4011001147800,新規,0,2022-05-31,2022-05-31,株式会社羽生プロ,,株式会社,東京都,渋谷区,神宮前６丁目２３番４号桑野ビル２階,,13,113,1500001,,,,,,,2022-05-31,1,,,,,ハブプロ,0
791,4011001147825,新規,0,2022-05-31,2022-05-31,株式会社ＵＮＩＩ,,株式会社,東京都,渋谷区,代々木５丁目４２－４－２１６,,13,113,1510053,,,,,,,2022-05-31,1,,,,,ユニイ,0
794,4011003014552,新規,0,2022-05-31,2022-05-31,合同会社Ｒｅｖｏｌｖｅｒ　Ｍａｓｈ,,合同会社,東京都,渋谷区,宇田川町３－７ヒューリック渋谷公園通りビル５Ｆ－３３,,13,113,1500042,,,,,,,2022-05-31,1,,,,,リボルバーマッシュ,0
800,4011303004419,新規,0,2022-05-31,2022-05-31,合同会社シェイプアップ,,合同会社,東京都,杉並区,荻窪５丁目３０番６号福村産業荻窪ビル３Ｆ,,13,115,1670051,,,,,,,2022-05-31,1,,,,,シェイプアップ,0
810,4012801021608,新規,0,2022-05-31,2022-05-31,株式会社ビジョナグループ,,株式会社,東京都,立川市,高松町２丁目３９番２０号,,13,202,1900011,,,,,,,2022-05-31,1,,,,,ビジョナグループ,0
811,4012801021616,新規,0,2022-05-31,2022-05-31,ＷＡＴＴホールディングス株式会社,,株式会社,東京都,武蔵村山市,榎３丁目５５番地３,,13,223,2080022,,,,,,,2022-05-31,1,,,,,ワットホールディングス,0
812,4012803002787,新規,0,2022-05-31,2022-05-31,Ｈａｒｍｏｎｉｏｕｓ　Ｓｋｙ　Ｃｏｎｃｅｐｔ合同会社,,合同会社,東京都,国分寺市,北町１丁目１０番地１９,,13,214,1850001,,,,,,,2022-05-31,1,,,,,ハーモニアススカイコンセプト,0
818,4013301049164,新規,0,2022-05-31,2022-05-31,ループアップジャパン株式会社,,株式会社,東京都,豊島区,南池袋１丁目１６－２０、ぬかりやビル６Ｆ,,13,116,1710022,,,,,,,2022-05-31,1,,,,,ループアップジャパン,0
819,4013301049172,新規,0,2022-05-31,2022-05-31,株式会社ｐｒｏｒｉｓｅ,,株式会社,東京都,豊島区,南池袋１丁目１６番１５号ダイヤゲート池袋５階,,13,116,1710022,,,,,,,2022-05-31,1,,,,,プライズ,0
825,4020001146679,新規,0,2022-05-31,2022-05-31,株式会社Ａｎａｋｏｔ,,株式会社,神奈川県,横浜市保土ケ谷区,西谷１丁目２１番１－２０５号,,14,106,2400054,,,,,,,2022-05-31,1,,,,,アナコット,0
826,4020001146687,新規,0,2022-05-31,2022-05-31,ＰＡＲＭＯＲ株式会社,,株式会社,神奈川県,横浜市西区,浜松町１２－１３日東コーポ西横浜４０５号室,,14,103,2200055,,,,,,,2022-05-31,1,,,,,パーモー,0
830,4020003021839,新規,0,2022-05-31,2022-05-31,ＺＥＲＯ企画設計合同会社,,合同会社,神奈川県,川崎市高津区,新作５丁目１４番１－４０１号クレストフォルム武蔵新城サウステラス,,14,134,2130014,,,,,,,2022-05-31,1,,,,,ゼロキカクセッケイ,0
831,4020003021847,新規,0,2022-05-31,2022-05-31,合同会社ＭＹジェネス,,合同会社,神奈川県,川崎市多摩区,長沢１丁目１６番１０号トーヨービル１階,,14,135,2140035,,,,,,,2022-05-31,1,,,,,マイジェネス,0
842,4021001076081,新規,0,2022-05-31,2022-05-31,株式会社島田会計事務所,,株式会社,神奈川県,足柄下郡箱根町,仙石原１２４６番７０７,,14,382,2500631,,,,,,,2022-05-31,1,,,,,シマダカイケイジムショ,0
847,4021003011755,新規,0,2022-05-31,2022-05-31,合同会社レスピディーザ,,合同会社,神奈川県,横須賀市,久村３７０番地,,14,201,2390834,,,,,,,2022-05-31,1,,,,,レスピディーザ,0
853,4030001148410,新規,0,2022-05-31,2022-05-31,株式会社トモコーポレーション,,株式会社,埼玉県,さいたま市北区,吉野町２丁目２０８番地１２はっぴいえんど１０１,,11,102,3310811,,,,,,,2022-05-31,1,,,,,トモコーポレーション,0
854,4030001148435,新規,0,2022-05-31,2022-05-31,株式会社矢島工務店,,株式会社,埼玉県,新座市,畑中２丁目１４番８号,,11,230,3520012,,,,,,,2022-05-31,1,,,,,ヤジマコウムテン,0
857,4030003019493,新規,0,2022-05-31,2022-05-31,ムーヴ・オン合同会社,,合同会社,埼玉県,川越市,大字的場６１３番地４,,11,201,3501101,,,,,,,2022-05-31,1,,,,,ムーヴオン,0
860,4040001123577,新規,0,2022-05-31,2022-05-31,株式会社木村工務店,,株式会社,千葉県,香取市,小川１３１９番地９３,,12,236,2890423,,,,,,,2022-05-31,1,,,,,キムラコウムテン,0
861,4040001123585,新規,0,2022-05-31,2022-05-31,株式会社Ｋａｎａｙｅｌｌ,,株式会社,千葉県,いすみ市,岬町東中滝４３番地,,12,238,2994621,,,,,,,2022-05-31,1,,,,,カナエル,0
862,4040001123602,新規,0,2022-05-31,2022-05-31,株式会社ＫＵコミュニケーション,,株式会社,千葉県,野田市,みずき４丁目１２番地の６,,12,208,2780027,,,,,,,2022-05-31,1,,,,,ケーユーコミュニケーション,0
863,4040003020129,新規,0,2022-05-31,2022-05-31,Ｔ．Ａ．Ｇ．合同会社,,合同会社,千葉県,白井市,神々廻１８３２番地１３－１Ｆ,,12,232,2701416,,,,,,,2022-05-31,1,,,,,ティーエージー,0
866,4050001051133,新規,0,2022-05-31,2022-05-31,株式会社ナラティブ・エステート,,株式会社,茨城県,ひたちなか市,田中後４０番６,,08,221,3111235,,,,,,,2022-05-31,1,,,,,ナラティブエステート,0
871,4060001034913,新規,0,2022-05-31,2022-05-31,ｊサーベイ株式会社,,株式会社,栃木県,栃木市,平柳町２丁目１２番６号,,09,203,3280012,,,,,,,2022-05-31,1,,,,,ジェイサーベイ,0
872,4060001034921,新規,0,2022-05-31,2022-05-31,ＳＡＧＡＳＵ株式会社,,株式会社,栃木県,宇都宮市,駅前通り１丁目１番１２号２階,,09,201,3210964,,,,,,,2022-05-31,1,,,,,サガス,0
874,4070001039275,新規,0,2022-05-31,2022-05-31,株式会社ランドアーク,,株式会社,群馬県,伊勢崎市,西小保方町４３６番地８,,10,204,3792224,,,,,,,2022-05-31,1,,,,,ランドアーク,0
876,4080005007459,新規,0,2022-05-31,2022-05-31,弁護士法人ＨＯＰＥ法律事務所,,その他の設立登記法人,静岡県,静岡市葵区,伝馬町９番地の７塚本ビル５階Ａ,,22,101,4200858,,,,,,,2022-05-31,1,,,,,ホープホウリツジムショ,0
883,4100001035378,新規,0,2022-05-31,2022-05-31,株式会社マルトミ不動産,,株式会社,長野県,下高井郡山ノ内町,大字平穏２８３１番地１７,,20,561,3810401,,,,,,,2022-05-31,1,,,,,マルトミフドウサン,0
887,4110001036680,新規,0,2022-05-31,2022-05-31,株式会社旭飛,,株式会社,新潟県,長岡市,福住２丁目２番３１－７０２号エイルマンション福住アルファス７０２号室,,15,202,9400034,,,,,,,2022-05-31,1,,,,,アサヒ,0
894,4120001246155,新規,0,2022-05-31,2022-05-31,株式会社ダイヤモンドルーム,,株式会社,大阪府,大阪市中央区,東心斎橋１丁目１４番２０号,,27,128,5420083,,,,,,,2022-05-31,1,,,,,ダイヤモンドルーム,0
899,4120003021787,新規,0,2022-05-31,2022-05-31,ａｑｕａ合同会社,,合同会社,大阪府,大阪市北区,天神橋１丁目１４番８－１１０２号,,27,127,5300041,,,,,,,2022-05-31,1,,,,,アクア,0
900,4120003021795,新規,0,2022-05-31,2022-05-31,合同会社ネクストホーム,,合同会社,大阪府,大阪市淀川区,西中島２丁目４番２号第二高永ハイツ１０３号,,27,123,5320011,,,,,,,2022-05-31,1,,,,,ネクストホーム,0
911,4120901046019,新規,0,2022-05-31,2022-05-31,株式会社ＮＡＴＵＲＡＬ　Ｒ　ＤＥＳＩＧＮ,,株式会社,大阪府,吹田市,山田東４丁目６番１９号,,27,205,5650821,,,,,,,2022-05-31,1,,,,,ナチュラルアールデザイン,0
913,4130003007959,新規,0,2022-05-31,2022-05-31,逸物合同会社,,合同会社,京都府,京都市右京区,太秦川所町７番地６３,,26,108,6168143,,,,,,,2022-05-31,1,,,,,イチモツ,0
919,4140001126173,新規,0,2022-05-31,2022-05-31,株式会社アクティベート,,株式会社,兵庫県,丹波篠山市,杉７４番地１０,,28,221,6692204,,,,,,,2022-05-31,1,,,,,アクティベート,0
923,4140005026188,新規,0,2022-05-31,2022-05-31,一般社団法人日本ウクライナ協会,,その他の設立登記法人,兵庫県,神戸市中央区,北長狭通２丁目１１番２号,,28,110,6500012,,,,,,,2022-05-31,1,,,,,ニホンウクライナキョウカイ,0
930,4160001024235,新規,0,2022-05-31,2022-05-31,株式会社ＭＣＳ,,株式会社,滋賀県,米原市,大鹿５７３番地,,25,214,5210214,,,,,,,2022-05-31,1,,,,,エムシーエス,0
942,4180001151465,新規,0,2022-05-31,2022-05-31,Ｓｗｅｌｌ　Ｈｏｌｄｉｎｇｓ株式会社,,株式会社,愛知県,名古屋市港区,十一屋２丁目４２８番地,,23,111,4550831,,,,,,,2022-05-31,1,,,,,スウェルホールディングス,0
950,4180003023877,新規,0,2022-05-31,2022-05-31,合同会社ナチュラルフードプロダクション高橋,00126693,合同会社,愛知県,日進市,浅田町茶園７３番地３,,23,230,4700124,,,,,,,2022-05-31,1,,,,,ナチュラルフードプロダクションタカハシ,0
951,4190001029446,新規,0,2022-05-31,2022-05-31,株式会社ＬｕｃｋｙＰｕａ,,株式会社,三重県,四日市市,西新地１０番７号,,24,202,5100087,,,,,,,2022-05-31,1,,,,,ラッキープア,0
970,4290001097697,新規,0,2022-05-31,2022-05-31,サインボード株式会社,,株式会社,福岡県,大野城市,中央１丁目３番３７号,,40,219,8160942,,,,,,,2022-05-31,1,,,,,サインボード,0
977,4290801028570,新規,0,2022-05-31,2022-05-31,株式会社ＳＴワークス,,株式会社,福岡県,行橋市,大字前田１５３５番地４,,40,213,8240056,,,,,,,2022-05-31,1,,,,,エスティーワークス,0
982,4320001019094,新規,0,2022-05-31,2022-05-31,株式会社ＬＩＢＥＲＴＥ,,株式会社,大分県,中津市,大字宮夫２４５番地６,,44,203,8710012,,,,,,,2022-05-31,1,,,,,リベルテ,0
984,4340001024753,新規,0,2022-05-31,2022-05-31,株式会社ＦｏｕｒＲｏａｄ,,株式会社,鹿児島県,霧島市,国分重久２５番地７,,46,218,8994301,,,,,,,2022-05-31,1,,,,,フォーロード,0
985,4340003003805,新規,0,2022-05-31,2022-05-31,合同会社ｔｏｔｏｎｏｕ,,合同会社,鹿児島県,鹿児島市,光山２丁目１０番３０号,,46,201,8910151,,,,,,,2022-05-31,1,,,,,トトノウ,0
987,4350001017764,新規,0,2022-05-31,2022-05-31,株式会社ＤＥＡＴＴＡ,,株式会社,宮崎県,延岡市,高千穂通１番地２３,,45,203,8820042,,,,,,,2022-05-31,1,,,,,デアッタ,0
990,4360001030477,新規,0,2022-05-31,2022-05-31,株式会社仁和技研,,株式会社,沖縄県,沖縄市,仲宗根町１６番１４号仲宗根アパート２０１号,,47,211,9040014,,,,,,,2022-05-31,1,,,,,ニワギケン,0
998,4400001015894,新規,0,2022-05-31,2022-05-31,株式会社うえた住設サービス,,株式会社,岩手県,釜石市,唐丹町字花露辺６７番地４,,03,211,0260121,,,,,,,2022-05-31,1,,,,,ウエタジュウセツサービス,0
1000,4410001013195,新規,0,2022-05-31,2022-05-31,株式会社伊藤板金,,株式会社,秋田県,秋田市,新屋沖田町４番７号,,05,201,0101634,,,,,,,2022-05-31,1,,,,,イトウバンキン,0
1001,4410003003665,新規,0,2022-05-31,2022-05-31,合同会社グラウンディング,,合同会社,秋田県,横手市,柳田字大谷地１１６番地５,,05,203,0130054,,,,,,,2022-05-31,1,,,,,グラウンディング,0
1009,4430001086751,新規,0,2022-05-31,2022-05-31,株式会社ファームロード,,株式会社,北海道,札幌市豊平区,西岡四条１４丁目８番１２号,,01,105,0620034,,,,,,,2022-05-31,1,,,,,ファームロード,0
1029,5010001226992,新規,0,2022-05-31,2022-05-31,株式会社シード・フォーサイツ,,株式会社,東京都,文京区,湯島３丁目１９番１１号湯島ファーストビル４階,,13,105,1130034,,,,,,,2022-05-31,1,,,,,シードフォーサイツ,0
1033,5010003037777,新規,0,2022-05-31,2022-05-31,トリニティハーモニー合同会社,,合同会社,東京都,中央区,銀座１丁目２２番１１号銀座大竹ビジデンス２階,,13,102,1040061,,,,,,,2022-05-31,1,,,,,トリニティハーモニー,0
1034,5010003037785,新規,0,2022-05-31,2022-05-31,合同会社ＷＡＲＯＴＯ,,合同会社,東京都,千代田区,内神田２丁目６番２号,,13,101,1010047,,,,,,,2022-05-31,1,,,,,ワロト,0
1040,5010401167572,新規,0,2022-05-31,2022-05-31,ＯＮＥ‐ＯＦＦ株式会社,,株式会社,東京都,港区,西麻布３丁目２１番２０－１００２号,,13,103,1060031,,,,,,,2022-05-31,1,,,,,ワンオフ,0
1041,5010401167589,新規,0,2022-05-31,2022-05-31,株式会社ＦｒｅｅＴｈｅＰｒｏｊｅｃｔ,,株式会社,東京都,港区,芝大門１丁目４－７－１００１,,13,103,1050012,,,,,,,2022-05-31,1,,,,,フリーザプロジェクト,0
1042,5010401167663,新規,0,2022-05-31,2022-05-31,ＨＡＩＲＭＯＮＳＴＥＲＬＡＢ株式会社,,株式会社,東京都,港区,南麻布３丁目２０番１号,,13,103,1060047,,,,,,,2022-05-31,1,,,,,ヘアモンスターラボ,0
1045,5010403027766,新規,0,2022-05-31,2022-05-31,ＳｕｎＴａｔｓ　ＲＥＡＬ　ＥＳＴＡＴＥ合同会社,,合同会社,東京都,港区,六本木３丁目１５－１１,,13,103,1060032,,,,,,,2022-05-31,1,,,,,サンタツリアルエステート,0
1050,5010601061237,新規,0,2022-05-31,2022-05-31,株式会社オフクレイン,,株式会社,東京都,江東区,三好３丁目１０－３,,13,108,1350022,,,,,,,2022-05-31,1,,,,,オフクレイン,0
1051,5010601061245,新規,0,2022-05-31,2022-05-31,株式会社クラウド,,株式会社,東京都,墨田区,立花４丁目８番１１号,,13,107,1310043,,,,,,,2022-05-31,1,,,,,クラウド,0
1053,5010803004183,新規,0,2022-05-31,2022-05-31,合同会社タクト,,合同会社,東京都,大田区,南千束３丁目２番９号,,13,111,1450063,,,,,,,2022-05-31,1,,,,,タクト,0
1060,5011001147733,新規,0,2022-05-31,2022-05-31,株式会社ＢＩＣＨＯ,,株式会社,東京都,渋谷区,松濤１丁目４－９サンエルサビル４０２号室,,13,113,1500046,,,,,,,2022-05-31,1,,,,,ビチョ,0
1061,5011001147774,新規,0,2022-05-31,2022-05-31,株式会社エクサフーズ,,株式会社,東京都,渋谷区,広尾５丁目１９番２号ＰＩＰＥ４０６,,13,113,1500012,,,,,,,2022-05-31,1,,,,,エクサフーズ,0
1062,5011001147799,新規,0,2022-05-31,2022-05-31,株式会社Ｐｈｏｅｎｉｘ,,株式会社,東京都,渋谷区,東３丁目６番２２－３０１号,,13,113,1500011,,,,,,,2022-05-31,1,,,,,フェニックス,0
1063,5011001147816,新規,0,2022-05-31,2022-05-31,デュークス株式会社,,株式会社,東京都,渋谷区,恵比寿西２丁目１１番９号,,13,113,1500021,,,,,,,2022-05-31,1,,,,,デュークス,0
1065,5011003014758,新規,0,2022-05-31,2022-05-31,合同会社プラスユウ,,合同会社,東京都,目黒区,南３丁目１４番１７号,,13,110,1520013,,,,,,,2022-05-31,1,,,,,プラスユウ,0
1070,5011101099016,新規,0,2022-05-31,2022-05-31,株式会社ぽんぽこ,,株式会社,東京都,新宿区,新宿２丁目１２番１３号新宿アントレサロンビル２階,,13,104,1600022,,,,,,,2022-05-31,1,,,,,ポンポコ,0
1074,5011601025990,新規,0,2022-05-31,2022-05-31,ＧＭＧ株式会社,,株式会社,東京都,練馬区,貫井３丁目１１番１５号,,13,120,1760021,,,,,,,2022-05-31,1,,,,,ジーエムジー,0
1081,5012701017077,新規,0,2022-05-31,2022-05-31,株式会社ＮＡＲＡＥ,,株式会社,東京都,西東京市,田無町４丁目１１番７－３０２号,,13,229,1880011,,,,,,,2022-05-31,1,,,,,ナレ,0
1085,5013301049171,新規,0,2022-05-31,2022-05-31,株式会社ソウムトカ,,株式会社,東京都,豊島区,目白３丁目１７番２１－４０１号,,13,116,1710031,,,,,,,2022-05-31,1,,,,,ソウムトカ,0
1091,5020001146678,新規,0,2022-05-31,2022-05-31,株式会社Ｒｅｄｇｅ,,株式会社,神奈川県,川崎市川崎区,殿町３丁目２５番１０号,,14,131,2100821,,,,,,,2022-05-31,1,,,,,レッジ,0
1102,5021001076072,新規,0,2022-05-31,2022-05-31,株式会社ＬＩＢ　ＮＥＸＵＳ,,株式会社,神奈川県,相模原市南区,新戸２０１２番地３,,14,153,2520326,,,,,,,2022-05-31,1,,,,,リブネクサス,0
1103,5021001076089,新規,0,2022-05-31,2022-05-31,ｍｉｎａｃ株式会社,,株式会社,神奈川県,藤沢市,南藤沢７番２号沢滝ビル２階,,14,205,2510055,,,,,,,2022-05-31,1,,,,,ミナック,0
1109,5021003011762,新規,0,2022-05-31,2022-05-31,合同会社かすがい,,合同会社,神奈川県,相模原市南区,上鶴間本町７丁目１３番５５号,,14,153,2520318,,,,,,,2022-05-31,1,,,,,カスガイ,0
1111,5030001148384,新規,0,2022-05-31,2022-05-31,株式会社トーシム,,株式会社,埼玉県,北足立郡伊奈町,大字小室２２８１番地１,,11,301,3620806,,,,,,,2022-05-31,1,,,,,トーシム,0
1112,5030001148434,新規,0,2022-05-31,2022-05-31,ゆりこや株式会社,,株式会社,埼玉県,上尾市,大字瓦葺２７１６番地尾山台団地５－１８－５０３,,11,219,3620022,,,,,,,2022-05-31,1,,,,,ユリコヤ,0
1113,5030003019484,新規,0,2022-05-31,2022-05-31,新陽合同会社,,合同会社,埼玉県,川口市,西青木３丁目３番１３号スカイコート西川口第２、４０３号,,11,203,3320035,,,,,,,2022-05-31,1,,,,,シンヨウ,0
1115,5040001123568,新規,0,2022-05-31,2022-05-31,株式会社アクアカッター,,株式会社,千葉県,千葉市稲毛区,小深町５８２番地２２,,12,103,2630003,,,,,,,2022-05-31,1,,,,,アクアカッター,0
1118,5040005021636,新規,0,2022-05-31,2022-05-31,一般社団法人全国住宅診断促進協会,,その他の設立登記法人,千葉県,市川市,真間５丁目１４番７号,,12,203,2720826,,,,,,,2022-05-31,1,,,,,ゼンコクジュウタクシンダンソクシンキョウカイ,0
1122,5060001034920,新規,0,2022-05-31,2022-05-31,株式会社真成建設,,株式会社,栃木県,小山市,西城南７丁目１番地３,,09,208,3230820,,,,,,,2022-05-31,1,,,,,シンセイケンセツ,0
1132,5090001017591,新規,0,2022-05-31,2022-05-31,株式会社甲斐佐竹,,株式会社,山梨県,甲斐市,西八幡２６２３番地,,19,210,4000117,,,,,,,2022-05-31,1,,,,,カイサタケ,0
1147,5120001246229,新規,0,2022-05-31,2022-05-31,株式会社Ｅ．Ｎ,,株式会社,大阪府,大阪市鶴見区,浜５丁目１番４２号２階,,27,124,5380035,,,,,,,2022-05-31,1,,,,,エン,0
1149,5120003021670,新規,0,2022-05-31,2022-05-31,合同会社きずなグループ蓮,,合同会社,大阪府,大阪市北区,中崎西４丁目３番３２号,,27,127,5300015,,,,,,,2022-05-31,1,,,,,キズナグループレン,0
1150,5120003021786,新規,0,2022-05-31,2022-05-31,ＤＩＥＡＳ合同会社,,合同会社,大阪府,大阪市淀川区,木川東４丁目１６－１１－８０６,,27,123,5320012,,,,,,,2022-05-31,1,,,,,ディアス,0
1154,5120101065652,新規,0,2022-05-31,2022-05-31,株式会社岩下商事,,株式会社,大阪府,泉南郡田尻町,嘉祥寺１０６８番地ＭＴＹ嘉祥寺３号,,27,362,5980091,,,,,,,2022-05-31,1,,,,,イワシタショウジ,0
1159,5130001071849,新規,0,2022-05-31,2022-05-31,株式会社いとしや,,株式会社,京都府,京都市東山区,渋谷通東大路東入三丁目上馬町６０４,,26,105,6050000,,,,,,,2022-05-31,1,,,,,イトシヤ,0
1160,5130001071857,新規,0,2022-05-31,2022-05-31,株式会社Ｗ　Ｃｒｅａｔｅ,,株式会社,京都府,京都市南区,西九条大国町３６番地１ベルドミール洛南４０７,,26,107,6018449,,,,,,,2022-05-31,1,,,,,ダブルクリエイト,0
1171,5140001126148,新規,0,2022-05-31,2022-05-31,株式会社リーヤン,,株式会社,兵庫県,西宮市,鳴尾浜２丁目１番２９号,,28,204,6638142,,,,,,,2022-05-31,1,,,,,リーヤン,0
1173,5140003017725,新規,0,2022-05-31,2022-05-31,Ａｃｔｉｖｅ　Ｐａｒｔｎｅｒｓ合同会社,,合同会社,兵庫県,明石市,田町１丁目１２番２１号,,28,203,6730025,,,,,,,2022-05-31,1,,,,,アクティブパートナーズ,0
1175,5160003002576,新規,0,2022-05-31,2022-05-31,合同会社ＷａＴＡＸ,,合同会社,滋賀県,栗東市,下鈎１６２７番地２,,25,208,5203026,,,,,,,2022-05-31,1,,,,,ワタックス,0
1184,5180001151464,新規,0,2022-05-31,2022-05-31,株式会社鈴・伸商会,,株式会社,愛知県,大府市,東新町２丁目９番地,,23,223,4740073,,,,,,,2022-05-31,1,,,,,スズシンショウカイ,0
1185,5180001151480,新規,0,2022-05-31,2022-05-31,Ｉ　ｄｅａｌ　ｐａｒｔｎｅｒｓ株式会社,,株式会社,愛知県,名古屋市緑区,諸の木３丁目１７１２番地,,23,114,4580817,,,,,,,2022-05-31,1,,,,,アイディールパートナーズ,0
1187,5180005019781,新規,0,2022-05-31,2022-05-31,特定非営利活動法人アワハウス,,その他の設立登記法人,愛知県,名古屋市東区,白壁４丁目４３番地,,23,102,4610011,,,,,,,2022-05-31,1,,,,,アワハウス,0
1190,5190001029445,新規,0,2022-05-31,2022-05-31,株式会社和幸,,株式会社,三重県,伊勢市,大世古３丁目５番１号,,24,203,5160079,,,,,,,2022-05-31,1,,,,,ワノコウ,0
1195,5210005010035,新規,0,2022-05-31,2022-05-31,特定非営利活動法人ＢＲＩＣＯＬＡＢ,,その他の設立登記法人,福井県,福井市,加茂河原４丁目７番１３号ルミナスヒルズＣ２０２,,18,201,9188057,,,,,,,2022-05-31,1,,,,,ブリコラボ,0
1214,5280003001616,新規,0,2022-05-31,2022-05-31,合同会社Ｓ．Ｔ．Ｓ,,合同会社,島根県,出雲市,矢野町７８６番地,,32,203,6930058,,,,,,,2022-05-31,1,,,,,エスティーエス,0
1217,5290001097696,新規,0,2022-05-31,2022-05-31,株式会社Ｓｏｅｌｔｅ,,株式会社,福岡県,大川市,大字小保６６５番地１,,40,212,8310041,,,,,,,2022-05-31,1,,,,,ソエルテ,0
1228,5350001017763,新規,0,2022-05-31,2022-05-31,株式会社横瀬工業,,株式会社,宮崎県,延岡市,大貫町４丁目１３２５－４,,45,203,8820803,,,,,,,2022-05-31,1,,,,,ヨコセコウギョウ,0
1232,5360001030484,新規,0,2022-05-31,2022-05-31,株式会社リンク,,株式会社,沖縄県,島尻郡南風原町,字照屋３８番地ビッグキャッスル３０２,,47,350,9011116,,,,,,,2022-05-31,1,,,,,リンク,0
1234,5380001032850,新規,0,2022-05-31,2022-05-31,株式会社すずきライス,,株式会社,福島県,白河市,板橋上原７７番地１,,07,205,9610016,,,,,,,2022-05-31,1,,,,,スズキライス,0
1237,5400001015893,新規,0,2022-05-31,2022-05-31,岩手資源循環株式会社,,株式会社,岩手県,釜石市,大字平田第３地割８１番地５,,03,211,0260001,,,,,,,2022-05-31,1,,,,,イワテシゲンジュンカン,0
1265,6010001226942,新規,0,2022-05-31,2022-05-31,株式会社アレックスキャピタル・アンド・コンサルティング,,株式会社,東京都,文京区,西片１丁目１３番６号ヴィラロイヤル西片６０６号室,,13,105,1130024,,,,,,,2022-05-31,1,,,,,アレックスキャピタルアンドコンサルティング,0
1266,6010001226959,新規,0,2022-05-31,2022-05-31,株式会社ｋｏｋｏｎ,,株式会社,東京都,中央区,銀座１丁目１２番４号Ｎ＆ＥＢＬＤ．７階,,13,102,1040061,,,,,,,2022-05-31,1,,,,,ココン,0
1267,6010001226991,新規,0,2022-05-31,2022-05-31,株式会社コマド,,株式会社,東京都,中央区,晴海１丁目１番２８号先キャナルハウス５０１号,,13,102,1040053,,,,,,,2022-05-31,1,,,,,コマド,0
1268,6010003037784,新規,0,2022-05-31,2022-05-31,スプリングスペース合同会社,,合同会社,東京都,中央区,銀座１丁目２２番１１号銀座大竹ビジデンス２階,,13,102,1040061,,,,,,,2022-05-31,1,,,,,,0
1275,6010401167605,新規,0,2022-05-31,2022-05-31,株式会社ストレッチワン,,株式会社,東京都,港区,浜松町２丁目２番１５号浜松町ダイヤビル２Ｆ,,13,103,1050013,,,,,,,2022-05-31,1,,,,,ストレッチワン,0
1276,6010401167613,新規,0,2022-05-31,2022-05-31,株式会社ＳＵＩＳＯＦＩＴ,,株式会社,東京都,港区,麻布十番２丁目５番９号,,13,103,1060045,,,,,,,2022-05-31,1,,,,,スイソフィット,0
1277,6010401167638,新規,0,2022-05-31,2022-05-31,株式会社ＩＮＭＡＣＲＯ,,株式会社,東京都,港区,六本木７丁目８番５－４０４号,,13,103,1060032,,,,,,,2022-05-31,1,,,,,インマクロ,0
1278,6010401167646,新規,0,2022-05-31,2022-05-31,株式会社ＭＳ　Ｇｒｏｕｐ,,株式会社,東京都,港区,芝５丁目２２番６号,,13,103,1080014,,,,,,,2022-05-31,1,,,,,エムエスグループ,0
1279,6010401167654,新規,0,2022-05-31,2022-05-31,株式会社ＲＩＮａｎｄ,,株式会社,東京都,港区,北青山３丁目１５番５号,,13,103,1070061,,,,,,,2022-05-31,1,,,,,リンアンド,0
1283,6010403027765,新規,0,2022-05-31,2022-05-31,ｏｆｆ‐ｓｉｄｅ合同会社,,合同会社,東京都,港区,六本木３丁目３－５橋本コーポ３階,,13,103,1060032,,,,,,,2022-05-31,1,,,,,オフサイド,0
1284,6010405021015,新規,0,2022-05-31,2022-05-31,一般社団法人日本下水サーベイランス協会,,その他の設立登記法人,東京都,港区,芝浦１丁目１番１号（株式会社ＮＪＳ本社内）,,13,103,1050023,,,,,,,2022-05-31,1,,,,,ニホンゲスイサーベイランスキョウカイ,0
1289,6010703006262,新規,0,2022-05-31,2022-05-31,Ｇｅｍｅｇｇ合同会社,,合同会社,東京都,品川区,東五反田２丁目２２－１３ルネ高村４０１,,13,109,1410022,,,,,,,2022-05-31,1,,,,,ジェムエッグ,0
1291,6010801033002,新規,0,2022-05-31,2022-05-31,株式会社キュープラスラボ,,株式会社,東京都,大田区,田園調布本町２７番７号,,13,111,1450072,,,,,,,2022-05-31,1,,,,,キュープラスラボ,0
1292,6010803004182,新規,0,2022-05-31,2022-05-31,ＭＥＩＲＵ合同会社,,合同会社,東京都,大田区,久が原５丁目３２番１０号,,13,111,1460085,,,,,,,2022-05-31,1,,,,,メイル,0
1305,6011001147575,新規,0,2022-05-31,2022-05-31,株式会社クラシコサエル,,株式会社,東京都,渋谷区,広尾１丁目７番７号,,13,113,1500012,,,,,,,2022-05-31,1,,,,,クラシコサエル,0
1306,6011001147740,新規,0,2022-05-31,2022-05-31,株式会社ＭＩＮＤ　ＴＲＡＶＥＬ,,株式会社,東京都,目黒区,三田１丁目４－４恵比寿ビュータワー２４０１,,13,110,1530062,,,,,,,2022-05-31,1,,,,,マインドトラベル,0
1307,6011003014749,新規,0,2022-05-31,2022-05-31,合同会社Ｍ＆Ｒ,,合同会社,東京都,渋谷区,渋谷２丁目１９－１５宮益坂ビルディング６０９,,13,113,1500002,,,,,,,2022-05-31,1,,,,,エムアンドアール,0
1308,6011003014765,新規,0,2022-05-31,2022-05-31,ＴＷＥＮＴＹ　ＦＩＶＥ合同会社,,合同会社,東京都,渋谷区,神宮前６丁目２３番４号桑野ビル２階,,13,113,1500001,,,,,,,2022-05-31,1,,,,,トゥエンティファイブ,0
1309,6011101099048,新規,0,2022-05-31,2022-05-31,銘汰株式会社,,株式会社,東京都,新宿区,西新宿３丁目３番１３号西新宿水間ビル６階,,13,104,1600023,,,,,,,2022-05-31,1,,,,,メイタ,0
1315,6011303004417,新規,0,2022-05-31,2022-05-31,ＮＯＳ　Ａｓｓｅｔ　Ｍａｎａｇｅｍｅｎｔ合同会社,,合同会社,東京都,杉並区,阿佐谷北３丁目２２番６号,,13,115,1660001,,,,,,,2022-05-31,1,,,,,エヌオーエスアセットマネジメント,0
1319,6011501028077,新規,0,2022-05-31,2022-05-31,株式会社えんむすび,,株式会社,東京都,北区,田端１丁目１０番３－３０５号リブ・グランデ,,13,117,1140014,,,,,,,2022-05-31,1,,,,,エンムスビ,0
1324,6012801021606,新規,0,2022-05-31,2022-05-31,株式会社瓜田建設,,株式会社,東京都,東大和市,立野４丁目５６１番地の２,,13,220,2070021,,,,,,,2022-05-31,1,,,,,ウリタケンセツ,0
1326,6013301049154,新規,0,2022-05-31,2022-05-31,ＪＣＰＴ株式会社,,株式会社,東京都,豊島区,駒込１丁目３５－３－６０５号室,,13,116,1700003,,,,,,,2022-05-31,1,,,,,ジェイシーピーティー,0
1327,6013303006178,新規,0,2022-05-31,2022-05-31,松山コーポレーション合同会社,,合同会社,東京都,豊島区,南長崎５丁目１－５サンライズマンション東長崎３０６,,13,116,1710052,,,,,,,2022-05-31,1,,,,,マツヤマコーポレーション,0
1334,6020001146669,新規,0,2022-05-31,2022-05-31,株式会社ＨＩＤＡＣＡＭ,,株式会社,神奈川県,川崎市多摩区,登戸１６１３番地サンハイツＫＵＮＩ２０１,,14,135,2140014,,,,,,,2022-05-31,1,,,,,ヒダカム,0
1335,6020001146693,新規,0,2022-05-31,2022-05-31,株式会社ママリボン,,株式会社,神奈川県,川崎市中原区,上小田中１丁目１９番８号,,14,133,2110053,,,,,,,2022-05-31,1,,,,,ママリボン,0
1340,6020003021845,新規,0,2022-05-31,2022-05-31,合同会社ことばもよう,,合同会社,神奈川県,横浜市泉区,中田南１丁目１８番１号,,14,116,2450014,,,,,,,2022-05-31,1,,,,,コトバモヨウ,0
1345,6021001076088,新規,0,2022-05-31,2022-05-31,株式会社Ｇｒａｎｄ‐Ｐｌａｎ,,株式会社,神奈川県,小田原市,南鴨宮１丁目１７番３９号,,14,206,2500875,,,,,,,2022-05-31,1,,,,,グランドプラン,0
1348,6021003011753,新規,0,2022-05-31,2022-05-31,合同会社ＫＡＭＩ,,合同会社,神奈川県,藤沢市,藤沢４丁目１２番２１～１０２号,,14,205,2510052,,,,,,,2022-05-31,1,,,,,カミ,0
1350,6030001148409,新規,0,2022-05-31,2022-05-31,コエレル株式会社,,株式会社,埼玉県,川口市,芝高木１丁目７番４８号,,11,203,3330868,,,,,,,2022-05-31,1,,,,,コエレル,0
1351,6030001148441,新規,0,2022-05-31,2022-05-31,株式会社５ｉｍｐｒｅｓｓ,,株式会社,埼玉県,川越市,小仙波町２丁目３７番地１（フェニックス小仙波Ｃ棟３０５号室）,,11,201,3500036,,,,,,,2022-05-31,1,,,,,ファイブインプレス,0
1356,6030003019500,新規,0,2022-05-31,2022-05-31,アンシン解体合同会社,,合同会社,埼玉県,川口市,領家２丁目８番４号ビラ２８４－３０２号,,11,203,3320004,,,,,,,2022-05-31,1,,,,,アンシンカイタイ,0
1364,6040001123583,新規,0,2022-05-31,2022-05-31,株式会社アイ工房,,株式会社,千葉県,八千代市,島田台８１３番地１６,,12,221,2760004,,,,,,,2022-05-31,1,,,,,アイコウボウ,0
1365,6040001123617,新規,0,2022-05-31,2022-05-31,株式会社ＳＥＬＡ,,株式会社,千葉県,松戸市,西馬橋蔵元町６０番地の１第５伊原ハイツ２０２号,,12,207,2710046,,,,,,,2022-05-31,1,,,,,セラ,0
1366,6040003020127,新規,0,2022-05-31,2022-05-31,合同会社土と心と社会,,合同会社,千葉県,松戸市,常盤平２丁目９番地の６,,12,207,2702261,,,,,,,2022-05-31,1,,,,,ツチトココロトシャカイ,0
1371,6050001051131,新規,0,2022-05-31,2022-05-31,シーズ株式会社,,株式会社,茨城県,つくば市,松代４丁目１３番地４,,08,220,3050035,,,,,,,2022-05-31,1,,,,,シーズ,0
1375,6050003006579,新規,0,2022-05-31,2022-05-31,合同会社心,,合同会社,茨城県,つくばみらい市,豊体７３番地,,08,235,3002347,,,,,,,2022-05-31,1,,,,,ココロ,0
1376,6060001034911,新規,0,2022-05-31,2022-05-31,株式会社ＭＭＤ　ＩＮＴＥＲＮＡＴＩＯＮＡＬ,,株式会社,栃木県,芳賀郡茂木町,大字小井戸１６４番地５,,09,343,3213566,,,,,,,2022-05-31,1,,,,,エムエムデイーインターナショナル,0
1385,6090003002095,新規,0,2022-05-31,2022-05-31,ファーツリー本庄合同会社,,合同会社,山梨県,南都留郡富士河口湖町,河口１５番地１,,19,430,4010304,,,,,,,2022-05-31,1,,,,,ファーツリーホンジョウ,0
1387,6100001035384,新規,0,2022-05-31,2022-05-31,株式会社りき,,株式会社,長野県,北安曇郡白馬村,大字北城３０２０番地９０,,20,485,3999301,,,,,,,2022-05-31,1,,,,,リキ,0
1390,6100003006565,新規,0,2022-05-31,2022-05-31,合同会社Ｈａｎａｙａ和,,合同会社,長野県,塩尻市,大字広丘吉田７２８番地６５,,20,215,3990701,,,,,,,2022-05-31,1,,,,,ハナヤノドカ,0
1394,6110001036679,新規,0,2022-05-31,2022-05-31,株式会社斑尾エステート,,株式会社,新潟県,妙高市,大字樽本丙１１０１番地１９,,15,217,9492223,,,,,,,2022-05-31,1,,,,,マダラオエステート,0
1410,6120001246228,新規,0,2022-05-31,2022-05-31,小春株式会社,,株式会社,大阪府,大阪市浪速区,恵比須東三丁目２番９－３０７号,,27,111,5560000,,,,,,,2022-05-31,1,,,,,コハル,0
1411,6120001246236,新規,0,2022-05-31,2022-05-31,波ノ頂株式会社,,株式会社,大阪府,大阪市西成区,玉出中２丁目９番６号,,27,122,5570044,,,,,,,2022-05-31,1,,,,,ナミノチョウ,0
1412,6120001246269,新規,0,2022-05-31,2022-05-31,株式会社ＥＭＢＬＡ,,株式会社,大阪府,大阪市北区,西天満３丁目１４－６－３０１,,27,127,5300047,,,,,,,2022-05-31,1,,,,,エムブラ,0
1414,6120003021769,新規,0,2022-05-31,2022-05-31,合同会社芳中,,合同会社,大阪府,大阪市中央区,釣鐘町２丁目４番１１号釣鐘町エクセルハイツ４０１,,27,128,5400035,,,,,,,2022-05-31,1,,,,,ヨシナカ,0
1415,6120003021785,新規,0,2022-05-31,2022-05-31,合同会社ＰＢ,,合同会社,大阪府,大阪市城東区,今福西６丁目２番２－１１１３号,,27,118,5360004,,,,,,,2022-05-31,1,,,,,ピービー,0
1416,6120003021793,新規,0,2022-05-31,2022-05-31,合同会社ＫＳＨユナイテッド,,合同会社,大阪府,大阪市北区,野崎町６番８号,,27,127,5300055,,,,,,,2022-05-31,1,,,,,ケイエスエイチユナイテッド,0
1425,6130003007957,新規,0,2022-05-31,2022-05-31,合同会社ＴＡＫＯＲＥＳ,,合同会社,京都府,京都市右京区,梅津北町５０,,26,108,6150911,,,,,,,2022-05-31,1,,,,,タコレス,0
1430,6140001126147,新規,0,2022-05-31,2022-05-31,株式会社園田企画,,株式会社,兵庫県,尼崎市,東園田町９丁目１７番地の１４（４０５号）,,28,202,6610953,,,,,,,2022-05-31,1,,,,,ソノダキカク,0
1435,6150001025579,新規,0,2022-05-31,2022-05-31,株式会社Ｋ３ＡＩＲＳｐｌａｎｔｓ,,株式会社,奈良県,奈良市,法蓮町１６８１番地,,29,201,6308113,,,,,,,2022-05-31,1,,,,,ケースリーエアーズプランツ,0
1438,6160001024233,新規,0,2022-05-31,2022-05-31,株式会社Ｃｌｏｕｄ　Ｎｉｎｅ,,株式会社,滋賀県,草津市,渋川１丁目１番３０－１４１８号,,25,206,5250026,,,,,,,2022-05-31,1,,,,,クラウドナイン,0
1439,6160001024241,新規,0,2022-05-31,2022-05-31,株式会社清七,,株式会社,滋賀県,大津市,一里山１丁目７番７号,,25,201,5202153,,,,,,,2022-05-31,1,,,,,セイシチ,0
1440,6160003002575,新規,0,2022-05-31,2022-05-31,合同会社真央,,合同会社,滋賀県,東近江市,宮川町６５８番地４７,,25,213,5291551,,,,,,,2022-05-31,1,,,,,マサチカ,0
1450,6180001151447,新規,0,2022-05-31,2022-05-31,株式会社エネルギー・環境・経済・国際研究所,,株式会社,愛知県,名古屋市瑞穂区,田辺通５丁目１番地の７,,23,108,4670027,,,,,,,2022-05-31,1,,,,,エネルギーカンキョウケイザイコクサイケンキュウジョ,0
1451,6180001151463,新規,0,2022-05-31,2022-05-31,株式会社ＡＳＯＢＩゴコロ,,株式会社,愛知県,稲沢市,平和町下起東１３５番地２,,23,220,4901323,,,,,,,2022-05-31,1,,,,,アソビゴコロ,0
1452,6180001151471,新規,0,2022-05-31,2022-05-31,株式会社Ｂａｃｃｉ,,株式会社,愛知県,名古屋市中村区,竹橋町６番９号,,23,105,4530016,,,,,,,2022-05-31,1,,,,,バッチ,0
1456,6190001029444,新規,0,2022-05-31,2022-05-31,海惠株式会社,,株式会社,三重県,伊勢市,村松町１３７９番地１,,24,203,5150507,,,,,,,2022-05-31,1,,,,,ミエ,0
1457,6190001029452,新規,0,2022-05-31,2022-05-31,タイヘイホールディングス株式会社,,株式会社,三重県,員弁郡東員町,大字瀬古泉４９４番地,,24,324,5110252,,,,,,,2022-05-31,1,,,,,タイヘイホールディングス,0
1459,6190003003991,新規,0,2022-05-31,2022-05-31,合同会社Ｋａｋａライフ,,合同会社,三重県,鈴鹿市,岸岡町３０８５－２,,24,207,5100226,,,,,,,2022-05-31,1,,,,,カカライフ,0
1467,6240003005628,新規,0,2022-05-31,2022-05-31,合同会社ｙｏｕｍｏａ,,合同会社,広島県,広島市南区,段原南２丁目６番１２－２０１号,,34,103,7320814,,,,,,,2022-05-31,1,,,,,ユーモア,0
1468,6240005015402,新規,0,2022-05-31,2022-05-31,一般財団法人ＳＩＭＯＳＥ奨学基金,,その他の設立登記法人,広島県,広島市西区,商工センター１丁目１番４６号,,34,104,7330833,,,,,,,2022-05-31,1,,,,,シモセショウガクキキン,0
1478,6290001097670,新規,0,2022-05-31,2022-05-31,株式会社リバレーション福岡,,株式会社,福岡県,福岡市中央区,大名１丁目１番３号石井ビル５０５号,,40,133,8100041,,,,,,,2022-05-31,1,,,,,リバレーションフクオカ,0
1479,6290001097679,新規,0,2022-05-31,2022-05-31,九州ネットワーク株式会社,,株式会社,福岡県,福岡市中央区,春吉２丁目１２番１４－３０８号デザインセンタービルＩＩ,00126702,40,133,8100003,,,,,,,2022-05-31,1,,,,,キュウシュウネットワーク,0
1480,6290001097695,新規,0,2022-05-31,2022-05-31,株式会社ＲＥＮＴブリッジ,,株式会社,福岡県,八女市,亀甲１６２番地２１,,40,210,8340065,,,,,,,2022-05-31,1,,,,,レントブリッジ,0
1486,6330003009388,新規,0,2022-05-31,2022-05-31,合同会社ＩＮＡＢＡ,,合同会社,熊本県,合志市,須屋２７３９番地３０号,,43,216,8611102,,,,,,,2022-05-31,1,,,,,イナバ,0
1489,6330005010526,新規,0,2022-05-31,2022-05-31,一般社団法人熊本県南古民家再生協会,,その他の設立登記法人,熊本県,人吉市,九日町８３番地２Ｆ・Ｏｆｆｉｃｅ３,,43,203,8680004,,,,,,,2022-05-31,1,,,,,クマモトケンナンコミンカサイセイキョウカイ,0
1500,6420003002524,新規,0,2022-05-31,2022-05-31,合同会社Ｓｈｅｅｐ＆Ｒａｂｂｉｔ,,合同会社,青森県,むつ市,大字奥内字近川８番地２７,,02,208,0350011,,,,,,,2022-05-31,1,,,,,シープアンドラビット,0
1508,6490001010191,新規,0,2022-05-31,2022-05-31,株式会社まるや,,株式会社,高知県,高知市,桜井町１丁目８番１８号シャーメゾンプルミエ１０１,,39,201,7800821,,,,,,,2022-05-31,1,,,,,マルヤ,0
1516,7010001226140,新規,0,2022-05-31,2022-05-31,株式会社宿道,,株式会社,東京都,中央区,八丁堀３丁目１８番６号ＰＭＯ京橋東４Ｆ,,13,102,1040032,,,,,,,2022-05-31,1,,,,,シュクドウ,0
1517,7010001226941,新規,0,2022-05-31,2022-05-31,株式会社寒青,,株式会社,東京都,中央区,銀座４丁目１３番３号,,13,102,1040061,,,,,,,2022-05-31,1,,,,,カンセイ,0
1518,7010001226974,新規,0,2022-05-31,2022-05-31,明治安田生命第２回劣後ローン流動化株式会社,,株式会社,東京都,千代田区,丸の内３丁目１番１号東京共同会計事務所内,,13,101,1000005,,,,,,,2022-05-31,1,,,,,メイジヤスダセイメイダイニカイレツゴローンリュウドウカ,0
1519,7010001226990,新規,0,2022-05-31,2022-05-31,杜株式会社,,株式会社,東京都,千代田区,飯田橋２丁目１８番１－１２０５号,,13,101,1020072,,,,,,,2022-05-31,1,,,,,モリ,0
1522,7010003037783,新規,0,2022-05-31,2022-05-31,大橋管理合同会社,,合同会社,東京都,中央区,銀座１丁目２２番１１号銀座大竹ビジデンス２階,,13,102,1040061,,,,,,,2022-05-31,1,,,,,オオハシカンリ,0
1536,7010501048893,新規,0,2022-05-31,2022-05-31,Ｎ＆Ｙ株式会社,,株式会社,東京都,台東区,北上野２丁目２５番９号－５０２号室,,13,106,1100014,,,,,,,2022-05-31,1,,,,,エヌアンドワイ,0
1539,7010605004082,新規,0,2022-05-31,2022-05-31,一般社団法人ＭＡＮＡ　Ｊａｐａｎ,,その他の設立登記法人,東京都,江東区,扇橋２丁目７番８号関根マンション３０５,,13,108,1350011,,,,,,,2022-05-31,1,,,,,マナジャパン,0
1541,7010701042721,新規,0,2022-05-31,2022-05-31,ＦＦＦ株式会社,,株式会社,東京都,品川区,東五反田５丁目１６番１５－１０１号,,13,109,1410022,,,,,,,2022-05-31,1,,,,,エフエフエフ,0
1543,7010801033001,新規,0,2022-05-31,2022-05-31,株式会社清水工業所,,株式会社,東京都,大田区,大森中３丁目２５番９号,,13,111,1430014,,,,,,,2022-05-31,1,,,,,シミズコウギョウショ,0
1551,7011101098973,新規,0,2022-05-31,2022-05-31,壺井株式会社,,株式会社,東京都,新宿区,榎町３４－３榎町ビル５Ｆ,,13,104,1620806,,,,,,,2022-05-31,1,,,,,ツボイ,0
1552,7011101099039,新規,0,2022-05-31,2022-05-31,福寿堂株式会社,,株式会社,東京都,新宿区,新宿７丁目２２番３号,,13,104,1600022,,,,,,,2022-05-31,1,,,,,フクジュドウ,0
1555,7011501028076,新規,0,2022-05-31,2022-05-31,株式会社正大生物,,株式会社,東京都,北区,浮間１丁目７－２３兆豊浮間ビル５０２号室,,13,117,1150051,,,,,,,2022-05-31,1,,,,,ショウダイセイブツ,0
1556,7011501028084,新規,0,2022-05-31,2022-05-31,株式会社Ｏ．Ｒｕｕｎ,,株式会社,東京都,北区,王子１丁目１４番１２－３０２号,,13,117,1140002,,,,,,,2022-05-31,1,,,,,オールーン,0
1563,7012801021605,新規,0,2022-05-31,2022-05-31,株式会社カメプラン,,株式会社,東京都,立川市,柏町４丁目４５番地３８,,13,202,1900004,,,,,,,2022-05-31,1,,,,,カメプラン,0
1576,7020001146676,新規,0,2022-05-31,2022-05-31,株式会社フォレスト環境リサーチ,,株式会社,神奈川県,横浜市港北区,新吉田東２丁目３番１－１１０９号,,14,109,2230058,,,,,,,2022-05-31,1,,,,,フォレストカンキョウリサーチ,0
1577,7020001146701,新規,0,2022-05-31,2022-05-31,株式会社ベクトラクシア,,株式会社,神奈川県,川崎市川崎区,駅前本町１１番地２川崎フロンティアビル４階,,14,131,2100007,,,,,,,2022-05-31,1,,,,,ベクトラクシア,0
1578,7020001146718,新規,0,2022-05-31,2022-05-31,株式会社ケイクリーブ,,株式会社,神奈川県,横浜市旭区,東希望が丘１８５番地１１,,14,112,2410826,,,,,,,2022-05-31,1,,,,,ケイクリーブ,0
1582,7020003021811,新規,0,2022-05-31,2022-05-31,ＭＭＣ合同会社,,合同会社,神奈川県,川崎市川崎区,貝塚２丁目５番４号,,14,131,2100014,,,,,,,2022-05-31,1,,,,,エムエムシー,0
1583,7020003021844,新規,0,2022-05-31,2022-05-31,合同会社こすぎＴＲ,,合同会社,神奈川県,川崎市中原区,上丸子八幡町８１７番地５,,14,133,2110001,,,,,,,2022-05-31,1,,,,,コスギティーアール,0
1590,7021003011752,新規,0,2022-05-31,2022-05-31,合同会社玄,,合同会社,神奈川県,鎌倉市,浄明寺６丁目１２番５号,,14,204,2480003,,,,,,,2022-05-31,1,,,,,ゲン,0
1592,7030001148432,新規,0,2022-05-31,2022-05-31,株式会社日本探偵調査センター,,株式会社,埼玉県,新座市,東北２丁目３９番１０号ドゥーセット弐番館６階１８号室,,11,230,3520001,,,,,,,2022-05-31,1,,,,,ニホンタンテイチョウサセンター,0
1595,7030003019474,新規,0,2022-05-31,2022-05-31,Ｇｏｌｄｅｎ　Ｓｔａｒ合同会社,,合同会社,埼玉県,坂戸市,日の出町二丁目１１番１階,,11,239,3500225,,,,,,,2022-05-31,1,,,,,ゴールデンスター,0
1598,7040001123582,新規,0,2022-05-31,2022-05-31,株式会社Ｌｉｇｈｔ　Ｂｒｅａｔｈ,,株式会社,千葉県,船橋市,海神町３丁目２１４番地４パテラ船橋ル・シャトー４０１号,,12,204,2730022,,,,,,,2022-05-31,1,,,,,ライトブレス,0
1599,7040001123624,新規,0,2022-05-31,2022-05-31,株式会社ネクスリープ,,株式会社,千葉県,千葉市若葉区,桜木６丁目１９－３７,,12,104,2640028,,,,,,,2022-05-31,1,,,,,ネクスリープ,0
1605,7060001034919,新規,0,2022-05-31,2022-05-31,匠商会株式会社,,株式会社,栃木県,真岡市,台町１０２番地２７,,09,209,3214306,,,,,,,2022-05-31,1,,,,,タクミショウカイ,0
1612,7080001024967,新規,0,2022-05-31,2022-05-31,アイブライトコンサルティング株式会社,,株式会社,静岡県,静岡市駿河区,みずほ３丁目３番地の８,,22,102,4210115,,,,,,,2022-05-31,1,,,,,アイブライトコンサルティング,0
1635,7120001246160,新規,0,2022-05-31,2022-05-31,株式会社ビュートワン,,株式会社,大阪府,大阪市西淀川区,野里１丁目７番２３－６０１号,,27,113,5550024,,,,,,,2022-05-31,1,,,,,ビュートワン,0
1636,7120001246227,新規,0,2022-05-31,2022-05-31,株式会社一路,,株式会社,大阪府,大阪市住吉区,山之内３丁目１３番３３号アライズ４Ｄ号,,27,120,5580023,,,,,,,2022-05-31,1,,,,,イチロ,0
1637,7120001246235,新規,0,2022-05-31,2022-05-31,ニュープレス株式会社,,株式会社,大阪府,大阪市中央区,平野町２丁目３－７アーバンエース北浜ビル１階,,27,128,5410046,,,,,,,2022-05-31,1,,,,,ニュープレス,0
1638,7120003021792,新規,0,2022-05-31,2022-05-31,合同会社ｓａｎａｐ,,合同会社,大阪府,大阪市東成区,東小橋２丁目１０－２６－２０６,,27,115,5370024,,,,,,,2022-05-31,1,,,,,サナップ,0
1647,7140003017723,新規,0,2022-05-31,2022-05-31,合同会社Ｋａｚ,,合同会社,兵庫県,姫路市,中地７０６番地グローバル姫路中地３０３,,28,201,6700976,,,,,,,2022-05-31,1,,,,,カッツ,0
1649,7150001025578,新規,0,2022-05-31,2022-05-31,株式会社三濱,,株式会社,奈良県,北葛城郡上牧町,米山台２丁目１０番１５号,,29,424,6390213,,,,,,,2022-05-31,1,,,,,ミハマ,0
1651,7160001024240,新規,0,2022-05-31,2022-05-31,株式会社センターロード,,株式会社,滋賀県,大津市,におの浜３丁目４番１２ユニハイム大津におの浜２０５号,,25,201,5200801,,,,,,,2022-05-31,1,,,,,センターロード,0
1662,7180001151479,新規,0,2022-05-31,2022-05-31,株式会社九倉商事,,株式会社,愛知県,名古屋市守山区,野萩町６番４３号,,23,113,4630042,,,,,,,2022-05-31,1,,,,,キュウソウショウジ,0
1663,7180001151495,新規,0,2022-05-31,2022-05-31,株式会社ＢＷＡ,,株式会社,愛知県,名古屋市中村区,則武１丁目１０－６ノリタケ第１ビル７０１号室,,23,105,4530014,,,,,,,2022-05-31,1,,,,,ビーダブリューエー,0
1664,7180001151512,新規,0,2022-05-31,2022-05-31,葵不動産株式会社,,株式会社,愛知県,名古屋市中区,錦３丁目２番２３号錦アクシスビル４階,,23,106,4600003,,,,,,,2022-05-31,1,,,,,アオイフドウサン,0
1672,7190001029443,新規,0,2022-05-31,2022-05-31,株式会社シンエイマテリアル,,株式会社,三重県,多気郡多気町,五桂１５１３番地８,,24,441,5192174,,,,,,,2022-05-31,1,,,,,シンエイマテリアル,0
1673,7190001029451,新規,0,2022-05-31,2022-05-31,株式会社Ｍｏａ,,株式会社,三重県,四日市市,昌栄町１４番１号,,24,202,5100057,,,,,,,2022-05-31,1,,,,,モア,0
1682,7240001059823,新規,0,2022-05-31,2022-05-31,株式会社ファーム・メイト,,株式会社,広島県,山県郡北広島町,新庄８０６番地２,,34,369,7312103,,,,,,,2022-05-31,1,,,,,ファームメイト,0
1683,7240001059831,新規,0,2022-05-31,2022-05-31,因の島バス株式会社,,株式会社,広島県,尾道市,因島土生町２２０１番地,,34,205,7222323,,,,,,,2022-05-31,1,,,,,インノシマバス,0
1688,7260001036886,新規,0,2022-05-31,2022-05-31,株式会社ワイ・アール,,株式会社,岡山県,岡山市中区,今在家３３２番地５,,33,102,7038208,,,,,,,2022-05-31,1,,,,,ワイアール,0
1693,7290001097612,新規,0,2022-05-31,2022-05-31,イークラス・ホールディングス株式会社,,株式会社,福岡県,筑紫野市,美しが丘南６丁目１番９号,,40,217,8180034,,,,,,,2022-05-31,1,,,,,イークラスホールディングス,0
1694,7290001097678,新規,0,2022-05-31,2022-05-31,株式会社オリーブ,,株式会社,福岡県,福岡市南区,桧原７丁目７番６号,,40,134,8111355,,,,,,,2022-05-31,1,,,,,オリーブ,0
1695,7290001097686,新規,0,2022-05-31,2022-05-31,株式会社ウイング,,株式会社,福岡県,糟屋郡須惠町,大字植木６１５番地３,,40,344,8112112,,,,,,,2022-05-31,1,,,,,ウイング,0
1696,7290003012560,新規,0,2022-05-31,2022-05-31,合同会社くぅ,,合同会社,福岡県,糸島市,高田３丁目６番５号,,40,230,8191102,,,,,,,2022-05-31,1,,,,,クゥ,0
1698,7290801028568,新規,0,2022-05-31,2022-05-31,株式会社ＪＵＮ,,株式会社,福岡県,中間市,岩瀬１丁目１９番２２号,,40,215,8090011,,,,,,,2022-05-31,1,,,,,ジュン,0
1702,7310001017864,新規,0,2022-05-31,2022-05-31,Ｓ・Ｉ・Ｄ　Ｌａｕｇｈ　Ｔａｌｅ株式会社,,株式会社,長崎県,佐世保市,重尾町３３０番地１０,,42,202,8593224,,,,,,,2022-05-31,1,,,,,エスアイディーラフテル,0
1703,7330001029775,新規,0,2022-05-31,2022-05-31,株式会社味都,,株式会社,熊本県,熊本市中央区,下通１丁目７番２４号サンスポットマツフジビル１Ｆ,,43,101,8600807,,,,,,,2022-05-31,1,,,,,アジト,0
1705,7330003009387,新規,0,2022-05-31,2022-05-31,合同会社Ｇｒｅａｔ　Ｆｒｅｅｄｏｍ　Ｔｅａｍ,,合同会社,熊本県,合志市,御代志１６６１番地１,,43,216,8611104,,,,,,,2022-05-31,1,,,,,グレートフリーダムチーム,0
1710,7350003004089,新規,0,2022-05-31,2022-05-31,合同会社ａｎｊｅ,,合同会社,宮崎県,宮崎市,佐土原町下田島２０８７９番地２,,45,201,8800211,,,,,,,2022-05-31,1,,,,,アンジュ,0
1717,7370003005713,新規,0,2022-05-31,2022-05-31,合同会社ソフトアシスト,,合同会社,宮城県,仙台市泉区,高森１丁目１番５４,,04,105,9813203,,,,,,,2022-05-31,1,,,,,ソフトアシスト,0
1720,7380001032832,新規,0,2022-05-31,2022-05-31,株式会社２Ｆ,,株式会社,福島県,耶麻郡猪苗代町,大字堅田字入江村前７０４番地３,,07,408,9693132,,,,,,,2022-05-31,1,,,,,ニーエフ,0
1721,7380001032849,新規,0,2022-05-31,2022-05-31,株式会社Ｔ‐ＤＥＮ,,株式会社,福島県,郡山市,緑ケ丘東７丁目１３番地１１,,07,203,9630702,,,,,,,2022-05-31,1,,,,,テーデン,0
1722,7380003005183,新規,0,2022-05-31,2022-05-31,合同会社アクセラ,,合同会社,福島県,双葉郡富岡町,大字仏浜字釜田３１０番地１４,,07,543,9791121,,,,,,,2022-05-31,1,,,,,アクセラ,0
1723,7380005012590,新規,0,2022-05-31,2022-05-31,特定非営利活動法人黒猫すずの家,,その他の設立登記法人,福島県,福島市,黒岩字弥生１２番地の５,,07,201,9608153,,,,,,,2022-05-31,1,,,,,,0
1743,7490001010190,新規,0,2022-05-31,2022-05-31,株式会社ＫＥＮＳＨＯ,,株式会社,高知県,高知市,若松町１７０５番地２,,39,201,7810812,,,,,,,2022-05-31,1,,,,,ケンショウ,0
1748,8010001226924,新規,0,2022-05-31,2022-05-31,エー・アンド・ジェー株式会社,,株式会社,東京都,中央区,銀座１丁目２２番１１号銀座大竹ビジデンス２階,,13,102,1040061,,,,,,,2022-05-31,1,,,,,エーアンドジェー,0
1749,8010001226949,新規,0,2022-05-31,2022-05-31,株式会社天恵不動産,,株式会社,東京都,中央区,日本橋小舟町８番１３号,,13,102,1030024,,,,,,,2022-05-31,1,,,,,テンケイフドウサン,0
1750,8010001226973,新規,0,2022-05-31,2022-05-31,株式会社ＳＥＮＧＡ,,株式会社,東京都,中央区,銀座１丁目８－１７佐々木ビル４Ｆ,,13,102,1040061,,,,,,,2022-05-31,1,,,,,センガ,0
1753,8010103001928,新規,0,2022-05-31,2022-05-31,合同会社イノブレイズ,,合同会社,東京都,八王子市,八日町１０番８－２０５号プレシス八王子レグリオ,,13,201,1920071,,,,,,,2022-05-31,1,,,,,,0
1766,8010401167586,新規,0,2022-05-31,2022-05-31,株式会社ギルギルタウン,,株式会社,東京都,港区,南青山６丁目７番８号１１０１ファーロ南青山,,13,103,1070062,,,,,,,2022-05-31,1,,,,,ギルギルタウン,0
1767,8010401167636,新規,0,2022-05-31,2022-05-31,株式会社きかくのがっこう,,株式会社,東京都,港区,高輪３丁目１９番７－５０１号,,13,103,1080074,,,,,,,2022-05-31,1,,,,,キカクノガッコウ,0
1776,8010601061242,新規,0,2022-05-31,2022-05-31,増建物株式会社,,株式会社,東京都,江東区,森下１丁目１番４号,,13,108,1350004,,,,,,,2022-05-31,1,,,,,マスタテモノ,0
1777,8010605004081,新規,0,2022-05-31,2022-05-31,一般社団法人東京経営サポート協会,,その他の設立登記法人,東京都,江東区,辰巳１丁目６番１７－１００３号,,13,108,1350053,,,,,,,2022-05-31,1,,,,,トウキョウケイエイサポートキョウカイ,0
1778,8010701042712,新規,0,2022-05-31,2022-05-31,株式会社Ｅｖｅｒｙ　Ｓｔｒｅｔｃｈ,,株式会社,東京都,品川区,小山３丁目１５番２－２８０８号,,13,109,1420062,,,,,,,2022-05-31,1,,,,,エブリーストレッチ,0
1782,8010703006260,新規,0,2022-05-31,2022-05-31,ケイロト商事合同会社,,合同会社,東京都,品川区,西五反田７丁目１３－５ＤＫ五反田４Ｆ４２６号室,,13,109,1410031,,,,,,,2022-05-31,1,,,,,ケイロトショウジ,0
1783,8010801033000,新規,0,2022-05-31,2022-05-31,ＳＡＴＯ　ＤＵＣＴ株式会社,,株式会社,東京都,大田区,大森南２丁目４番１７－３０１号,,13,111,1430013,,,,,,,2022-05-31,1,,,,,サトウダクト,0
1795,8011001147788,新規,0,2022-05-31,2022-05-31,Ｄマスタープロダクション株式会社,,株式会社,東京都,目黒区,中町１丁目２１番５－２０１号,,13,110,1530065,,,,,,,2022-05-31,1,,,,,ディーマスタープロダクション,0
1796,8011001147805,新規,0,2022-05-31,2022-05-31,株式会社蜂鳥,,株式会社,東京都,渋谷区,松濤１丁目２８番２号,,13,113,1500046,,,,,,,2022-05-31,1,,,,,ハチドリ,0
1797,8011005009588,新規,0,2022-05-31,2022-05-31,一般社団法人つながる菜園,,その他の設立登記法人,東京都,渋谷区,初台２丁目１５番４号,,13,113,1510061,,,,,,,2022-05-31,1,,,,,ツナガルサイエン,0
1803,8011201023855,新規,0,2022-05-31,2022-05-31,株式会社西貝テクノス,,株式会社,東京都,中野区,中野１丁目７番１号,,13,114,1640001,,,,,,,2022-05-31,1,,,,,ニシカイテクノス,0
1805,8011301027814,新規,0,2022-05-31,2022-05-31,株式会社エスエスケーファミリー,,株式会社,東京都,杉並区,下高井戸３丁目６番３号,,13,115,1680073,,,,,,,2022-05-31,1,,,,,エスエスケーファミリー,0
1812,8011501028083,新規,0,2022-05-31,2022-05-31,株式会社ｓｉｍｏｎｅ,,株式会社,東京都,荒川区,東日暮里５丁目４５番１０号能美ビル３０１,,13,118,1160014,,,,,,,2022-05-31,1,,,,,シモーヌ,0
1814,8011605002455,新規,0,2022-05-31,2022-05-31,一般社団法人日本リジュベケア協会,,その他の設立登記法人,東京都,練馬区,桜台１丁目５番３－９０３号,,13,120,1760002,,,,,,,2022-05-31,1,,,,,ニホンリジュベケアキョウカイ,0
1822,8012701017074,新規,0,2022-05-31,2022-05-31,株式会社ゆりなみ,,株式会社,東京都,東久留米市,氷川台２丁目３７番２８号,,13,222,2030004,,,,,,,2022-05-31,1,,,,,ユリナミ,0
1823,8012801021612,新規,0,2022-05-31,2022-05-31,東鴻株式会社,,株式会社,東京都,武蔵村山市,伊奈平３丁目３６番地の５５,,13,223,2080023,,,,,,,2022-05-31,1,,,,,トウコウ,0
1824,8013101008928,新規,0,2022-05-31,2022-05-31,株式会社ＨＩＴＯＴＯＫＩ,,株式会社,東京都,青梅市,梅郷５丁目９１０番地の１,,13,205,1980063,,,,,,,2022-05-31,1,,,,,ヒトトキ,0
1833,8020003021843,新規,0,2022-05-31,2022-05-31,合同会社Ｈ．Ｎ．Ｙ,,合同会社,神奈川県,横浜市戸塚区,品濃町５５３番地１パークヒルズＭ棟６０７号,,14,110,2440801,,,,,,,2022-05-31,1,,,,,エイチエヌワイ,0
1837,8021001076094,新規,0,2022-05-31,2022-05-31,株式会社ＴＯＹＳ‐ＣＯＬＯＲ,,株式会社,神奈川県,藤沢市,善行坂１丁目１番３２号,,14,205,2510876,,,,,,,2022-05-31,1,,,,,トイズカラー,0
1841,8021003011702,新規,0,2022-05-31,2022-05-31,合同会社ライジング,,合同会社,神奈川県,相模原市中央区,由野台２丁目３３－２２－１０１,,14,152,2520222,,,,,,,2022-05-31,1,,,,,ライジング,0
1848,8030001148407,新規,0,2022-05-31,2022-05-31,拓新工業株式会社,,株式会社,埼玉県,さいたま市西区,大字植田谷本６０３番地１,,11,101,3310053,,,,,,,2022-05-31,1,,,,,タクシンコウギョウ,0
1849,8030001148423,新規,0,2022-05-31,2022-05-31,株式会社ＭＵＭＥＩ,,株式会社,埼玉県,さいたま市見沼区,大字風渡野７５３番地１スーベニア３、１０１号室,,11,104,3370017,,,,,,,2022-05-31,1,,,,,ムメイ,0
1850,8030003019498,新規,0,2022-05-31,2022-05-31,合同会社吾野総合開発,,合同会社,埼玉県,飯能市,大字坂石町分３３１番１号,,11,209,3570213,,,,,,,2022-05-31,1,,,,,アガノソウゴウカイハツ,0
1852,8040001123581,新規,0,2022-05-31,2022-05-31,株式会社ＡＲＴ,,株式会社,千葉県,船橋市,習志野５丁目３番８－４０６号,,12,204,2740071,,,,,,,2022-05-31,1,,,,,エーアールティー,0
1853,8040001123615,新規,0,2022-05-31,2022-05-31,花村架設株式会社,,株式会社,千葉県,銚子市,松本町２丁目９８４番地,,12,202,2880802,,,,,,,2022-05-31,1,,,,,ハナムラカセツ,0
1863,8070001039255,新規,0,2022-05-31,2022-05-31,ＨＫＴ株式会社,,株式会社,群馬県,前橋市,下小出町１丁目２０－５－１Ｆ,,10,201,3710031,,,,,,,2022-05-31,1,,,,,エイチケーティー,0
1867,8080003002805,新規,0,2022-05-31,2022-05-31,合同会社ＲｅＡｍｏｕｒ,,合同会社,静岡県,静岡市葵区,幸町６－１９フェリジータ５０２,,22,101,4200067,,,,,,,2022-05-31,1,,,,,リアムール,0
1869,8080101023307,新規,0,2022-05-31,2022-05-31,佐々木重設株式会社,,株式会社,静岡県,熱海市,伊豆山１１７３番地の４５７,,22,205,4130002,,,,,,,2022-05-31,1,,,,,ササキジュウセツ,0
1877,8110001036685,新規,0,2022-05-31,2022-05-31,株式会社Ｇｅｍｉｎｉｄｓ,,株式会社,新潟県,南魚沼市,美佐島１０４－５０,,15,226,9496608,,,,,,,2022-05-31,1,,,,,ジェミニズ,0
1901,8120001246234,新規,0,2022-05-31,2022-05-31,株式会社Ｍ＆ＢＢ,,株式会社,大阪府,大阪市中央区,玉造１丁目２１番２２－２０１号,,27,128,5400004,,,,,,,2022-05-31,1,,,,,エムアンドビービー,0
1902,8120001246242,新規,0,2022-05-31,2022-05-31,株式会社やま寿,,株式会社,大阪府,大阪市生野区,鶴橋４丁目１番３５号,,27,116,5440031,,,,,,,2022-05-31,1,,,,,ヤマジュ,0
1905,8120003021750,新規,0,2022-05-31,2022-05-31,合同会社ＴＡ,,合同会社,大阪府,大阪市中央区,心斎橋筋１丁目３番２９ミヤプラザ心斎橋ビル２０１号室,,27,128,5420085,,,,,,,2022-05-31,1,,,,,ティーエー,0
1906,8120003021783,新規,0,2022-05-31,2022-05-31,合同会社みちえ,,合同会社,大阪府,大阪市北区,末広町２番２８－２０３号,,27,127,5300053,,,,,,,2022-05-31,1,,,,,ミチエ,0
1913,8122003002350,新規,0,2022-05-31,2022-05-31,Ｓｏｎ　Ｌｉｎｈ合同会社,,合同会社,大阪府,東大阪市,南鴻池町２丁目８番１５号ＴＥＮ－１号室,,27,227,5780961,,,,,,,2022-05-31,1,,,,,ソンリン,0
1920,8140001126153,新規,0,2022-05-31,2022-05-31,創成株式会社,,株式会社,兵庫県,神戸市中央区,琴ノ緒町５丁目７番２０号明花ビル４Ｆ,,28,110,6510094,,,,,,,2022-05-31,1,,,,,ソウセイ,0
1921,8140001126161,新規,0,2022-05-31,2022-05-31,ＳＡＷＡＤＡ株式会社,,株式会社,兵庫県,神戸市兵庫区,水木通６丁目２番７号,,28,105,6520802,,,,,,,2022-05-31,1,,,,,サワダ,0
1926,8160001024231,新規,0,2022-05-31,2022-05-31,久保田電気株式会社,,株式会社,滋賀県,犬上郡多賀町,大字多賀１５５９番地３８,,25,443,5220341,,,,,,,2022-05-31,1,,,,,クボタデンキ,0
1934,8180001151478,新規,0,2022-05-31,2022-05-31,株式会社ＩＭＣ,,株式会社,愛知県,名古屋市熱田区,沢下町２番５号,,23,109,4560006,,,,,,,2022-05-31,1,,,,,アイエムシー,0
1935,8180001151503,新規,0,2022-05-31,2022-05-31,ママレスキュー株式会社,,株式会社,愛知県,丹羽郡大口町,萩島１丁目１１５番地７,,23,361,4800124,,,,,,,2022-05-31,1,,,,,ママレスキュー,0
1940,8180003023873,新規,0,2022-05-31,2022-05-31,合同会社ライズ,,合同会社,愛知県,日進市,南ケ丘３丁目５番地８,,23,230,4700114,,,,,,,2022-05-31,1,,,,,ライズ,0
1946,8180303005340,新規,0,2022-05-31,2022-05-31,合同会社藤守建設,,合同会社,愛知県,豊田市,上野町５丁目８番地４リバーサイド鬼頭３０３,,23,211,4710015,,,,,,,2022-05-31,1,,,,,フジモリケンセツ,0
1962,8220003003292,新規,0,2022-05-31,2022-05-31,黒氏経営合同会社,,合同会社,石川県,金沢市,藤江北４丁目２０７番地,,17,201,9200345,,,,,,,2022-05-31,1,,,,,クロウジケイエイ,0
1980,8290001097669,新規,0,2022-05-31,2022-05-31,株式会社大器,,株式会社,福岡県,久留米市,山川安居野３丁目１２番３９号,,40,203,8390812,,,,,,,2022-05-31,1,,,,,タイキ,0
1984,8290003012568,新規,0,2022-05-31,2022-05-31,ＹＡＭＡパワー合同会社,,合同会社,福岡県,福岡市博多区,井相田２丁目４番１６－５０３号リレポルト博多,,40,132,8120881,,,,,,,2022-05-31,1,,,,,ヤマパワー,0
1994,8330003009386,新規,0,2022-05-31,2022-05-31,合同会社聡建,,合同会社,熊本県,熊本市東区,八反田３丁目７番４１号,,43,102,8618034,,,,,,,2022-05-31,1,,,,,ソウケン,0
2004,8360003011991,新規,0,2022-05-31,2022-05-31,合同会社ＫＯ‐ＮＮＥＣＴ,,合同会社,沖縄県,那覇市,小禄４丁目３―２,,47,201,9010152,,,,,,,2022-05-31,1,,,,,コネクト,0
2005,8360003012049,新規,0,2022-05-31,2022-05-31,合同会社東り前,,合同会社,沖縄県,豊見城市,字翁長１３１番地,,47,212,9010223,,,,,,,2022-05-31,1,,,,,アガリメー,0
2011,8380001032848,新規,0,2022-05-31,2022-05-31,株式会社いまう,,株式会社,福島県,いわき市,平字白銀町２番地の１０,,07,204,9708026,,,,,,,2022-05-31,1,,,,,イマウ,0
2022,8430001086748,新規,0,2022-05-31,2022-05-31,株式会社宮田建装,,株式会社,北海道,札幌市東区,北四十条東１６丁目２番１８号ＳＴハイムＢ－１号,,01,103,0070840,,,,,,,2022-05-31,1,,,,,ミヤタケンソウ,0
2034,9010001226758,新規,0,2022-05-31,2022-05-31,株式会社Ｃａｌｌｉｃｏ,,株式会社,東京都,中央区,銀座１丁目２２番１１号銀座大竹ビジデンス２階,,13,102,1040061,,,,,,,2022-05-31,1,,,,,キャリコ,0
2035,9010001226931,新規,0,2022-05-31,2022-05-31,株式会社コネクタ,,株式会社,東京都,千代田区,丸の内３丁目２番２号丸の内二重橋ビル２階,,13,101,1000005,,,,,,,2022-05-31,1,,,,,コネクタ,0
2036,9010001226948,新規,0,2022-05-31,2022-05-31,株式会社エメルジェンス,,株式会社,東京都,文京区,千駄木１丁目２２番３０号ザヒルハウス６０１,,13,105,1130022,,,,,,,2022-05-31,1,,,,,エメルジェンス,0
2037,9010001226972,新規,0,2022-05-31,2022-05-31,株式会社交通事故調査澁澤事務所,,株式会社,東京都,文京区,小石川４丁目１７番１－２０１号,,13,105,1120002,,,,,,,2022-05-31,1,,,,,コウツウジコチョウサシブサワジムショ,0
2041,9010003037773,新規,0,2022-05-31,2022-05-31,合同会社ＡｔｔＬａｂ．,,合同会社,東京都,中央区,入船３丁目１番５号ＳＫＭ・ＧＩＮＺＡ・ＥＡＳＴビル５階,,13,102,1040042,,,,,,,2022-05-31,1,,,,,アットラボ,0
2042,9010003037781,新規,0,2022-05-31,2022-05-31,シュエット合同会社,,合同会社,東京都,中央区,晴海２丁目３番２－３２１１号,,13,102,1040053,,,,,,,2022-05-31,1,,,,,シュエット,0
2044,9010005035073,新規,0,2022-05-31,2022-05-31,一般社団法人水産物輸出推進協会,,その他の設立登記法人,東京都,中央区,京橋２丁目６番１０号,,13,102,1040031,,,,,,,2022-05-31,1,,,,,スイサンブツユシュツスイシンキョウカイ,0
2045,9010103001927,新規,0,2022-05-31,2022-05-31,合同会社Ｓ＆Ｔパートナーズ,,合同会社,東京都,八王子市,大谷町４１２番地２２,,13,201,1920034,,,,,,,2022-05-31,1,,,,,,0
2052,9010401167544,新規,0,2022-05-31,2022-05-31,株式会社ＡＹコンサルティング,,株式会社,東京都,港区,南青山２丁目２番１５号,,13,103,1070062,,,,,,,2022-05-31,1,,,,,エーワイコンサルティング,0
2053,9010401167635,新規,0,2022-05-31,2022-05-31,株式会社テクノチェーン,,株式会社,東京都,港区,芝大門２丁目１２番５－６０１号,,13,103,1050012,,,,,,,2022-05-31,1,,,,,テクノチェーン,0
2054,9010401167668,新規,0,2022-05-31,2022-05-31,株式会社ＲＣ２,,株式会社,東京都,港区,赤坂９丁目７番７号,,13,103,1070052,,,,,,,2022-05-31,1,,,,,アールシーツー,0
2057,9010403027762,新規,0,2022-05-31,2022-05-31,Ｋｏｊｉｍａ合同会社,,合同会社,東京都,港区,赤坂９丁目１番７－４２３号,,13,103,1070052,,,,,,,2022-05-31,1,,,,,コジマ,0
2058,9010403027770,新規,0,2022-05-31,2022-05-31,Ｓｏｎａｔｕｓ　Ｊａｐａｎ合同会社,,合同会社,東京都,港区,赤坂２丁目１１番７号ＡＴＴ新館１１階Ｍａｚａｒｓ・Ｊａｐａｎ株式会社内,,13,103,1070052,,,,,,,2022-05-31,1,,,,,ソナトゥスジャパン,0
2059,9010403027779,新規,0,2022-05-31,2022-05-31,合同会社Ｅｔｏｉｌｅ　Ｒｏｓｅ,,合同会社,東京都,港区,南青山２丁目２番１５号,,13,103,1070062,,,,,,,2022-05-31,1,,,,,エトワールロゼ,0
2063,9010501048891,新規,0,2022-05-31,2022-05-31,山雨貿易株式会社,,株式会社,東京都,台東区,千束３丁目２１－１２キートスビル４０３号室,,13,106,1110031,,,,,,,2022-05-31,1,,,,,ヤマアメボウエキ,0
2064,9010503006600,新規,0,2022-05-31,2022-05-31,合同会社依田物産,,合同会社,東京都,台東区,浅草２丁目１９番７－６０５号浅草永谷ビル,,13,106,1110032,,,,,,,2022-05-31,1,,,,,ヨダブッサン,0
2066,9010701042703,新規,0,2022-05-31,2022-05-31,株式会社ｄｙｎａｍｉｃｓＳｏｌｕｔｉｏｎｓ,,株式会社,東京都,品川区,西五反田８丁目２番１２号アール五反田７Ａ,,13,109,1410031,,,,,,,2022-05-31,1,,,,,ダイナミクスソリューションズ,0
2067,9010801033008,新規,0,2022-05-31,2022-05-31,株式会社レーヘンボーフ,,株式会社,東京都,大田区,下丸子４丁目２６番３号,,13,111,1460092,,,,,,,2022-05-31,1,,,,,レーヘンボーフ,0
2076,9011003014746,新規,0,2022-05-31,2022-05-31,合同会社カナン,,合同会社,東京都,渋谷区,東３丁目１２番２３号サンネクテール恵比寿３０３号室,,13,113,1500011,,,,,,,2022-05-31,1,,,,,カナン,0
2077,9011101099029,新規,0,2022-05-31,2022-05-31,株式会社Ｆａｎｔａｓｙ　Ｓｐｏｒｔｓ　Ｇａｍｉｎｇ,,株式会社,東京都,新宿区,西新宿６丁目６番３号新宿国際ビルディング新館５階,,13,104,1600023,,,,,,,2022-05-31,1,,,,,ファンタジースポーツゲーミング,0
2078,9011101099037,新規,0,2022-05-31,2022-05-31,株式会社ＴＫＢ,,株式会社,東京都,新宿区,歌舞伎町２丁目１９番１６号２階,,13,104,1600021,,,,,,,2022-05-31,1,,,,,ティーケイビー,0
2079,9011101099045,新規,0,2022-05-31,2022-05-31,株式会社ＦｉＭｉＴ,,株式会社,東京都,新宿区,西新宿３丁目３－１３西新宿水間ビル６Ｆ,,13,104,1600023,,,,,,,2022-05-31,1,,,,,フィミット,0
2081,9011301027813,新規,0,2022-05-31,2022-05-31,株式会社クローバー,,株式会社,東京都,杉並区,堀ノ内２丁目１番３６,,13,115,1660013,,,,,,,2022-05-31,1,,,,,クローバー,0
2086,9011701025342,新規,0,2022-05-31,2022-05-31,株式会社アドウィンク,,株式会社,東京都,江戸川区,清新町１丁目４番１－６０４号,,13,123,1340087,,,,,,,2022-05-31,1,,,,,アドウィンク,0
2105,9020001146600,新規,0,2022-05-31,2022-05-31,株式会社一期一会,,株式会社,神奈川県,横浜市南区,井土ケ谷中町１５７番地,,14,105,2320052,,,,,,,2022-05-31,1,,,,,イチゴイチエ,0
2106,9020001146674,新規,0,2022-05-31,2022-05-31,Ａ・Ｔ　ＪＡＰＡＮ株式会社,,株式会社,神奈川県,横浜市南区,中村町３丁目２０７番地４０,,14,105,2320033,,,,,,,2022-05-31,1,,,,,アイティジャパン,0
2109,9020003021842,新規,0,2022-05-31,2022-05-31,合同会社百暮,,合同会社,神奈川県,川崎市高津区,久地２丁目１０番２０－１,,14,134,2130032,,,,,,,2022-05-31,1,,,,,ヒャククラ,0
2114,9021003011767,新規,0,2022-05-31,2022-05-31,合同会社ウィズダムワン,,合同会社,神奈川県,相模原市中央区,下九沢９８７番地２ウッドコート南橋本４０３号,,14,152,2520254,,,,,,,2022-05-31,1,,,,,ウィズダムワン,0
2120,9030001148397,新規,0,2022-05-31,2022-05-31,株式会社エクシブサプライズ,,株式会社,埼玉県,入間市,向陽台１丁目１－１７駅前プラザ１３－１０３,,11,225,3580001,,,,,,,2022-05-31,1,,,,,エクシブサプライズ,0
2121,9030001148406,新規,0,2022-05-31,2022-05-31,株式会社中村,,株式会社,埼玉県,越谷市,北越谷２丁目７番５号,,11,222,3430026,,,,,,,2022-05-31,1,,,,,ナカムラ,0
2122,9030001148414,新規,0,2022-05-31,2022-05-31,ロジックゲート株式会社,,株式会社,埼玉県,上尾市,大字大谷本郷２９５番地１３,,11,219,3620044,,,,,,,2022-05-31,1,,,,,ロジックゲート,0
2123,9030001148422,新規,0,2022-05-31,2022-05-31,株式会社カネマサ,,株式会社,埼玉県,越谷市,大字大房１１４０番地８,,11,222,3430027,,,,,,,2022-05-31,1,,,,,カネマサ,0
2131,9040001123580,新規,0,2022-05-31,2022-05-31,株式会社Ｔ　ＮＥＸＴ　ＬＩＮＫ,,株式会社,千葉県,松戸市,高塚新田９５番地,,12,207,2702222,,,,,,,2022-05-31,1,,,,,ティネクストリンク,0
2132,9040001123614,新規,0,2022-05-31,2022-05-31,株式会社プライベートアイ,,株式会社,千葉県,千葉市中央区,登戸１丁目１５番３２号キャピタル登戸４階１５号室,,12,101,2600032,,,,,,,2022-05-31,1,,,,,プライベートアイ,0
2133,9040001123630,新規,0,2022-05-31,2022-05-31,株式会社Ｅｖｅｒｇｒｅｅｎ,,株式会社,千葉県,浦安市,高洲３丁目１９－７,,12,227,2790023,,,,,,,2022-05-31,1,,,,,エバーグリーン,0
2135,9040003020108,新規,0,2022-05-31,2022-05-31,合同会社西野興産,,合同会社,千葉県,市原市,ちはら台南６丁目２０番地５,,12,219,2900142,,,,,,,2022-05-31,1,,,,,ニシノコウサン,0
2140,9060001034917,新規,0,2022-05-31,2022-05-31,株式会社ＩＦＩ,,株式会社,栃木県,那須塩原市,井口１１７７番地,,09,213,3292763,,,,,,,2022-05-31,1,,,,,アイエフアイ,0
2142,9060003004091,新規,0,2022-05-31,2022-05-31,合同会社アトリエＬａｒａ,,合同会社,栃木県,塩谷郡塩谷町,大字船生９１３９番地７,,09,384,3292441,,,,,,,2022-05-31,1,,,,,アトリエララ,0
2149,9090003002092,新規,0,2022-05-31,2022-05-31,カリスマ合同会社,,合同会社,山梨県,南アルプス市,上今諏訪５０９番地１,,19,208,4000211,,,,,,,2022-05-31,1,,,,,,0
2151,9100001035381,新規,0,2022-05-31,2022-05-31,株式会社Ｅ’ｓベース,,株式会社,長野県,長野市,若里２丁目１６番８号,,20,201,3800928,,,,,,,2022-05-31,1,,,,,イーズベース,0
2152,9110001036684,新規,0,2022-05-31,2022-05-31,株式会社ＧｕｇｅｎｋａＲｅａｄｙ,,株式会社,新潟県,新潟市西区,内野西が丘２丁目９番８号,,15,107,9502157,,,,,,,2022-05-31,1,,,,,グゲンカレディ,0
2163,9120001246150,新規,0,2022-05-31,2022-05-31,日本創楽株式会社,,株式会社,大阪府,大阪市城東区,中浜１丁目１７－１４センチュリー中浜１Ｃ,,27,118,5360024,,,,,,,2022-05-31,1,,,,,ニホンソウラク,0
2164,9120001246200,新規,0,2022-05-31,2022-05-31,ｇｏｇｏ　ｊａｐａｎ株式会社,,株式会社,大阪府,大阪市住吉区,長居東４丁目１５－２１ビラ長居４０５号室,,27,120,5580004,,,,,,,2022-05-31,1,,,,,ゴーゴージャパン,0
2169,9120101065624,新規,0,2022-05-31,2022-05-31,株式会社ＳｐｉｒｉｔＷｏｒｋｓ,,株式会社,大阪府,松原市,大堀３丁目１４－１８,,27,217,5800006,,,,,,,2022-05-31,1,,,,,スプリットワークス,0
2177,9130003007962,新規,0,2022-05-31,2022-05-31,合同会社アルファ情報サービス,,合同会社,京都府,京都市伏見区,向島二ノ丸町１４１－１８アドリーム伏見向島３０２,,26,109,6128141,,,,,,,2022-05-31,1,,,,,アルファジョウホウサービス,0
2179,9130005016490,新規,0,2022-05-31,2022-05-31,一般社団法人全日本アロマスピリットコール協会,,その他の設立登記法人,京都府,京都市南区,東九条西河辺町２５番地グリーンファイブ４Ｆ,,26,107,6018037,,,,,,,2022-05-31,1,,,,,ゼンニホンアロマスピリットコールキョウカイ,0
2183,9140001126169,新規,0,2022-05-31,2022-05-31,株式会社Ｋ‐ＮＥＸＴ,,株式会社,兵庫県,神戸市須磨区,平田町２丁目１番４号,,28,107,6540021,,,,,,,2022-05-31,1,,,,,ケイネクスト,0
2192,9150001025576,新規,0,2022-05-31,2022-05-31,株式会社Ｓｈｉｎｉｎｇ　ＳＭＩＬＥ,,株式会社,奈良県,生駒市,谷田町１６１５番地,,29,209,6300251,,,,,,,2022-05-31,1,,,,,シャイニングスマイル,0
2194,9160001024230,新規,0,2022-05-31,2022-05-31,ＩＥＧ株式会社,,株式会社,滋賀県,守山市,浮気町３５８番地３,,25,207,5240033,,,,,,,2022-05-31,1,,,,,アイイージー,0
2195,9160001024239,新規,0,2022-05-31,2022-05-31,株式会社ｓｏｌａｋｅ,,株式会社,滋賀県,湖南市,吉永４７４番地,,25,211,5203222,,,,,,,2022-05-31,1,,,,,ソレイク,0
2197,9170003001730,新規,0,2022-05-31,2022-05-31,合同会社小崎管工,00126694,合同会社,和歌山県,和歌山市,木ノ本３５８番地２０,,30,201,6408453,,,,,,,2022-05-31,1,,,,,コサキカンコウ,0
2205,9180001151444,新規,0,2022-05-31,2022-05-31,株式会社アドバンスコーポレーション,,株式会社,愛知県,名古屋市中村区,熊野町３丁目１７番地の２,,23,105,4530814,,,,,,,2022-05-31,1,,,,,アドバンスコーポレーション,0
2206,9180001151477,新規,0,2022-05-31,2022-05-31,株式会社ルシェノン,,株式会社,愛知県,名古屋市中村区,沖田町２８番地１,,23,105,4530825,,,,,,,2022-05-31,1,,,,,ルシェノン,0
2207,9180001151493,新規,0,2022-05-31,2022-05-31,株式会社ＫＵ‐ＴＲＩＳＥ,,株式会社,愛知県,名古屋市中区,栄４丁目８－７第１２オーシャンビル３０１,,23,106,4600008,,,,,,,2022-05-31,1,,,,,ケーユートライズ,0
2216,9200003005579,新規,0,2022-05-31,2022-05-31,ＡＮ　ＢＩＮＨ合同会社,,合同会社,岐阜県,関市,下有知１２１３番地１サンホワイトＭ１０３号,,21,205,5013217,,,,,,,2022-05-31,1,,,,,アンビン,0
2219,9220001024868,新規,0,2022-05-31,2022-05-31,加賀物流株式会社,,株式会社,石川県,金沢市,専光寺町ツ３８番地,,17,201,9200356,,,,,,,2022-05-31,1,,,,,カガブツリュウ,0
2228,9240001059838,新規,0,2022-05-31,2022-05-31,株式会社リベラル,,株式会社,広島県,広島市中区,堺町２丁目４番２４－４０３号,,34,101,7300853,,,,,,,2022-05-31,1,,,,,リベラル,0
2239,9290001097684,新規,0,2022-05-31,2022-05-31,株式会社ＯＮＥ　ＳＴＯＲＹ　ＡＷＡＲＤ,,株式会社,福岡県,福岡市中央区,大濠公園２番８－３０１号,,40,133,8100051,,,,,,,2022-05-31,1,,,,,ワンストーリーアワード,0
2240,9290001097692,新規,0,2022-05-31,2022-05-31,株式会社アジアスタッフ,,株式会社,福岡県,福岡市博多区,三筑１丁目６番１０号ルーコンフォール,,40,132,8120887,,,,,,,2022-05-31,1,,,,,アジアスタッフ,0
2241,9290003012567,新規,0,2022-05-31,2022-05-31,合同会社ＨＧグローバルインダストリーズ,,合同会社,福岡県,柳川市,有明町１６番地１０,,40,207,8320054,,,,,,,2022-05-31,1,,,,,エイチジイグローバルインダストリーズ,0
2247,9300003001849,新規,0,2022-05-31,2022-05-31,ジュンレモン合同会社,,合同会社,佐賀県,佐賀市,中の小路３番３号,,41,201,8400833,,,,,,,2022-05-31,1,,,,,ジュンレモン,0
2256,9350005006073,新規,0,2022-05-31,2022-05-31,一般社団法人日本ペットアロマホームケア協会,,その他の設立登記法人,宮崎県,宮崎市,橘通東４丁目１番４号河北ビル１Ｆ,,45,201,8800805,,,,,,,2022-05-31,1,,,,,ニホンペットアロマホームケアキョウカイ,0
2257,9360001030480,新規,0,2022-05-31,2022-05-31,株式会社Ｈｉｋｅ＆Ｄｉｖｅ,,株式会社,沖縄県,島尻郡座間味村,字座間味３番地,,47,354,9013402,,,,,,,2022-05-31,1,,,,,ハイクアンドダイブ,0
2261,9370003005711,新規,0,2022-05-31,2022-05-31,合同会社ＧＬ,,合同会社,宮城県,仙台市宮城野区,二十人町３０７－４,,04,102,9830862,,,,,,,2022-05-31,1,,,,,ジーエル,0
2262,9380001032830,新規,0,2022-05-31,2022-05-31,株式会社ケアホームしえる,,株式会社,福島県,いわき市,泉町下川字谷地川１番地１,,07,204,9718183,,,,,,,2022-05-31,1,,,,,ケアホームシエル,0
2263,9380001032847,新規,0,2022-05-31,2022-05-31,株式会社小野寺商店,,株式会社,福島県,須賀川市,台１６番地１オーベルジュ須賀川５０２号,,07,207,9620005,,,,,,,2022-05-31,1,,,,,オノデラショウテン,0
2275,9460301005073,新規,0,2022-05-31,2022-05-31,株式会社明創興業,,株式会社,北海道,北見市,緑町３丁目７番１５号,,01,208,0900055,,,,,,,2022-05-31,1,,,,,アソウコウギョウ,0
2276,9462503000199,新規,0,2022-05-31,2022-05-31,合同会社Ｍｅｍｅｎｔｏ,,合同会社,北海道,野付郡別海町,尾岱沼潮見町２８番地の５,,01,691,0861644,,,,,,,2022-05-31,1,,,,,,0
