sequenceNumber,corporateNumber,process,correct,updateDate,changeDate,name,nameImageId,kind,prefectureName,cityName,streetNumber,addressImageId,prefectureCode,cityCode,postCode,addressOutside,addressOutsideImageId,closeDate,closeCause,successorCorporateNumber,changeCause,assignmentDate,latest,enName,enPrefectureName,enCityName,enAddressOutside,furigana,hihyoji
7,1010001225899,新規,0,2022-04-20,2022-04-20,株式会社白金,,株式会社,東京都,中央区,銀座８丁目１２－３ＳＲビル５Ｆ,,13,102,1040061,,,,,,,2022-04-20,1,,,,,シロガネ,0
11,1010003037459,新規,0,2022-04-20,2022-04-20,合同会社ＭＥＴＡＢＡＴＨ,,合同会社,東京都,中央区,銀座１丁目２２番１１号銀座大竹ビジデンス２階,,13,102,1040061,,,,,,,2022-04-20,1,,,,,メタバス,0
12,1010005034842,新規,0,2022-04-20,2022-04-20,一般社団法人ＧｏｖＴｅｃｈ協会,,その他の設立登記法人,東京都,中央区,銀座１丁目２２番１１号大竹ビジデンス２階,,13,102,1040061,,,,,,,2022-04-20,1,,,,,ガブテックキョウカイ,0
23,1010401166842,新規,0,2022-04-20,2022-04-20,株式会社Ｗ　ＡＲＴ,,株式会社,東京都,港区,海岸１丁目４－２２・１０階,,13,103,1050022,,,,,,,2022-04-20,1,,,,,ダブリューアート,0
24,1010403027514,新規,0,2022-04-20,2022-04-20,興隆合同会社,,合同会社,東京都,港区,新橋４丁目２４ー１０アソルティ新橋ビル１Ｆ,,13,103,1050004,,,,,,,2022-04-20,1,,,,,コウリュウ,0
25,1010403027522,新規,0,2022-04-20,2022-04-20,合同会社こころの図書館,,合同会社,東京都,港区,南青山２丁目２番１５号,,13,103,1070062,,,,,,,2022-04-20,1,,,,,ココロノトショカン,0
26,1010403027530,新規,0,2022-04-20,2022-04-20,Ｂｅｌｌａｄａｔｉ合同会社,,合同会社,東京都,港区,北青山３丁目６番７号青山パラシオタワー１１階,,13,103,1070061,,,,,,,2022-04-20,1,,,,,ベラダティ,0
34,1010601061042,新規,0,2022-04-20,2022-04-20,フォーエル株式会社,,株式会社,東京都,江東区,東陽５丁目１５番３号,,13,108,1350016,,,,,,,2022-04-20,1,,,,,フォーエル,0
37,1010603009502,新規,0,2022-04-20,2022-04-20,パロック合同会社,,合同会社,東京都,江東区,有明１丁目２番３５号,,13,108,1350063,,,,,,,2022-04-20,1,,,,,パロック,0
39,1010703006192,新規,0,2022-04-20,2022-04-20,合同会社アレグレット,,合同会社,東京都,品川区,西大井１丁目１番２－１７０６号,,13,109,1400015,,,,,,,2022-04-20,1,,,,,アレグレット,0
42,1010803004138,新規,0,2022-04-20,2022-04-20,Ａｚｕｒｅ　Ｐａｒｔｎｅｒｓ合同会社,,合同会社,東京都,大田区,西蒲田８丁目８番１号ナカムラビル５０１,,13,111,1440051,,,,,,,2022-04-20,1,,,,,アジュールパートナーズ,0
43,1010901050744,新規,0,2022-04-20,2022-04-20,ジャストハウス株式会社,,株式会社,東京都,世田谷区,代田１丁目２８－１０Ｔコープ２０３室,,13,112,1550033,,,,,,,2022-04-20,1,,,,,ジャストハウス,0
50,1011001147002,新規,0,2022-04-20,2022-04-20,株式会社ヒキタテ,,株式会社,東京都,渋谷区,神宮前６丁目２３番４号桑野ビル２階,,13,113,1500001,,,,,,,2022-04-20,1,,,,,ヒキタテ,0
51,1011001147035,新規,0,2022-04-20,2022-04-20,株式会社ベルカント,,株式会社,東京都,渋谷区,松濤１丁目２８番２号,,13,113,1500046,,,,,,,2022-04-20,1,,,,,ベルカント,0
56,1011101098566,新規,0,2022-04-20,2022-04-20,Ｏｎｅ　Ｔｅｎ株式会社,,株式会社,東京都,新宿区,市谷砂土原町２丁目５番地レジディア市ヶ谷ＩＩ１２０１,00126337,13,104,1620842,,,,,,,2022-04-20,1,,,,,ワンテン,0
57,1011101098574,新規,0,2022-04-20,2022-04-20,常磐自然美健株式会社,,株式会社,東京都,新宿区,百人町２丁目１番４５号赤煉瓦２２０,,13,104,1690073,,,,,,,2022-04-20,1,,,,,トキワシゼンビケン,0
64,1011401024180,新規,0,2022-04-20,2022-04-20,株式会社Ｎｅｘｔ　Ｐｌａｙ,,株式会社,東京都,板橋区,徳丸３丁目１１番１４号,,13,119,1750083,,,,,,,2022-04-20,1,,,,,ネクストプレイ,0
65,1011403003629,新規,0,2022-04-20,2022-04-20,合同会社Ｐｏｔｈｏｓ,,合同会社,東京都,板橋区,南常盤台１丁目１１－６レフア南常盤台１０１号室,,13,119,1740072,,,,,,,2022-04-20,1,,,,,ポトス,0
66,1011405002199,新規,0,2022-04-20,2022-04-20,メゾン太陽管理組合法人,,その他の設立登記法人,東京都,板橋区,東坂下２丁目３番６号メゾン太陽管理室,,13,119,1740042,,,,,,,2022-04-20,1,,,,,メゾンタイヨウ,0
73,1011601025904,新規,0,2022-04-20,2022-04-20,ＹＰタテモノ株式会社,,株式会社,東京都,練馬区,南大泉４丁目２６番１０号,,13,120,1780064,,,,,,,2022-04-20,1,,,,,ワイピータテモノ,0
77,1012301012952,新規,0,2022-04-20,2022-04-20,株式会社五月加工,,株式会社,東京都,町田市,真光寺町１０５４番地１４,,13,209,1950051,,,,,,,2022-04-20,1,,,,,サツキカコウ,0
79,1012401039128,新規,0,2022-04-20,2022-04-20,株式会社Ｅｓｓｅｎｃｅ　Ｐｌｕｓ,,株式会社,東京都,府中市,宮西町３丁目８番地の１セザールプラザ府中１２４号,,13,206,1830022,,,,,,,2022-04-20,1,,,,,エッセンスプラス,0
82,1012701017031,新規,0,2022-04-20,2022-04-20,東都プロパティーズ株式会社,,株式会社,東京都,東村山市,久米川町４丁目６番地２０,,13,213,1890003,,,,,,,2022-04-20,1,,,,,トウトプロパティーズ,0
83,1012703002444,新規,0,2022-04-20,2022-04-20,合同会社ＤａｙＯｎｅ,,合同会社,東京都,西東京市,芝久保町２丁目９番１３－３０１号,,13,229,1880014,,,,,,,2022-04-20,1,,,,,デイワン,0
88,1013303006125,新規,0,2022-04-20,2022-04-20,ＧＩＡ　Ｌｕｏｎｇ合同会社,,合同会社,東京都,豊島区,北大塚２丁目９番３－５０２号,,13,116,1700004,,,,,,,2022-04-20,1,,,,,ギアルオン,0
92,1020001146161,新規,0,2022-04-20,2022-04-20,株式会社トリンケット,,株式会社,神奈川県,横浜市都筑区,中川中央１丁目３４番４－１０２,,14,118,2240003,,,,,,,2022-04-20,1,,,,,トリンケット,0
93,1020001146178,新規,0,2022-04-20,2022-04-20,株式会社ＲＯＯＫ＆Ｃｏ．,,株式会社,神奈川県,横浜市西区,浅間町１丁目１２番地３横浜西口スカイハイツ１０３,,14,103,2200072,,,,,,,2022-04-20,1,,,,,ルックアンドコ,0
94,1020001146186,新規,0,2022-04-20,2022-04-20,株式会社ゼロワン,,株式会社,神奈川県,川崎市多摩区,三田１丁目２番地１ＴＮＤｕｏＢ１０３,,14,135,2140034,,,,,,,2022-04-20,1,,,,,ゼロワン,0
97,1021001075747,新規,0,2022-04-20,2022-04-20,株式会社亘建築総合サポート,,株式会社,神奈川県,横須賀市,長井３丁目４０番１３号,,14,201,2380316,,,,,,,2022-04-20,1,,,,,ワタルケンチクソウゴウサポート,0
99,1021003011618,新規,0,2022-04-20,2022-04-20,ＳＴＹＬＥ合同会社,,合同会社,神奈川県,藤沢市,立石１丁目１９番Ｂ～４０１号,,14,205,2510872,,,,,,,2022-04-20,1,,,,,スタイル,0
100,1021005012498,新規,0,2022-04-20,2022-04-20,ＡＲＴ共済協同組合,,その他の設立登記法人,神奈川県,横須賀市,馬堀町１丁目１７番地１２号,,14,201,2390802,,,,,,,2022-04-20,1,,,,,エーアールティーキョウサイ,0
105,1030001147794,新規,0,2022-04-20,2022-04-20,株式会社ヨシ建工業,,株式会社,埼玉県,深谷市,田中２３８０番地３,,11,218,3691108,,,,,,,2022-04-20,1,,,,,ヨシケンコウギョウ,0
106,1030001147828,新規,0,2022-04-20,2022-04-20,ＳＳＩ環境株式会社,,株式会社,埼玉県,三郷市,早稲田４丁目６番地２,,11,237,3410018,,,,,,,2022-04-20,1,,,,,エスエスアイカンキョウ,0
111,1030003019273,新規,0,2022-04-20,2022-04-20,合同会社つなぐコミュニケーション,,合同会社,埼玉県,春日部市,粕壁３丁目１０番１－８０１号,,11,214,3440061,,,,,,,2022-04-20,1,,,,,ツナグコミュニケーション,0
121,1040001123076,新規,0,2022-04-20,2022-04-20,株式会社コードレジン,,株式会社,千葉県,習志野市,新栄１丁目２番１５号,,12,216,2750005,,,,,,,2022-04-20,1,,,,,コードレジン,0
122,1040001123084,新規,0,2022-04-20,2022-04-20,株式会社ベストハウス,,株式会社,千葉県,市川市,南行徳３丁目１番２号,,12,203,2720138,,,,,,,2022-04-20,1,,,,,ベストハウス,0
123,1040001123118,新規,0,2022-04-20,2022-04-20,株式会社Ｂｒａｎｄｉｎｇ　Ｓｗｅｅｔｓ,,株式会社,千葉県,松戸市,二十世紀が丘萩町２７１番地,,12,207,2710086,,,,,,,2022-04-20,1,,,,,ブランディングスイーツ,0
126,1050001050963,新規,0,2022-04-20,2022-04-20,株式会社淘金産業,,株式会社,茨城県,水戸市,加倉井町字豆田２０９８番,,08,201,3114163,,,,,,,2022-04-20,1,,,,,トウキンサンギョウ,0
127,1060001034791,新規,0,2022-04-20,2022-04-20,Ｊ．ファクトリー株式会社,,株式会社,栃木県,宇都宮市,東宿郷４丁目１番１９号ＳＳＳビル４階Ｂ号,,09,201,3210953,,,,,,,2022-04-20,1,,,,,ジェイファクトリー,0
132,1070001039154,新規,0,2022-04-20,2022-04-20,ＡＷＡＮ　Ｊａｐａｎ株式会社,,株式会社,群馬県,佐波郡玉村町,大字飯塚２４４番地３ミレニアムカゴダ２０２,,10,464,3701102,,,,,,,2022-04-20,1,,,,,アワンジャパン,0
136,1090001017538,新規,0,2022-04-20,2022-04-20,株式会社ＪＡＰＡＮ　ＧＥＭ　ＲＥＰＯＲＴ,,株式会社,山梨県,甲府市,住吉３丁目１番２４号ＳＩＮＧＬ２４ＰＡＲＡＤ１１０号,,19,201,4000851,,,,,,,2022-04-20,1,,,,,ジャパンジェムリポート,0
138,1100001035265,新規,0,2022-04-20,2022-04-20,株式会社ウールー,,株式会社,長野県,飯田市,東和町２丁目２７番地１,,20,205,3950086,,,,,,,2022-04-20,1,,,,,ウールー,0
139,1100001035273,新規,0,2022-04-20,2022-04-20,株式会社ステアーズ,,株式会社,長野県,長野市,丹波島３丁目７７０番地７,,20,201,3812246,,,,,,,2022-04-20,1,,,,,ステアーズ,0
141,1100003006512,新規,0,2022-04-20,2022-04-20,合同会社悠太,,合同会社,長野県,長野市,大字桜８５０,,20,201,3800885,,,,,,,2022-04-20,1,,,,,ユウタ,0
158,1120001245283,新規,0,2022-04-20,2022-04-20,株式会社ライドワンズラック,,株式会社,大阪府,大阪市北区,中崎西４丁目３番３２号,,27,127,5300015,,,,,,,2022-04-20,1,,,,,ライドワンズラック,0
159,1120001245325,新規,0,2022-04-20,2022-04-20,株式会社Ｒａｖｅｎ,,株式会社,大阪府,大阪市北区,中津３丁目６番１０号増田マンション３０３号室,,27,127,5310071,,,,,,,2022-04-20,1,,,,,レイブン,0
164,1120003021518,新規,0,2022-04-20,2022-04-20,育和合同会社,,合同会社,大阪府,大阪市中央区,谷町２丁目３番１号第２ターネンビルディング,,27,128,5400012,,,,,,,2022-04-20,1,,,,,イクワ,0
168,1120101065433,新規,0,2022-04-20,2022-04-20,株式会社ダイアグノーズ,,株式会社,大阪府,和泉市,府中町７丁目５番５２－５０１号,,27,219,5940071,,,,,,,2022-04-20,1,,,,,ダイアグノーズ,0
172,1120901045865,新規,0,2022-04-20,2022-04-20,ジャパンクリプトメリアホールディングス株式会社,,株式会社,大阪府,箕面市,稲５丁目８番２９号,,27,220,5620015,,,,,,,2022-04-20,1,,,,,ジャパンクリプトメリアホールディングス,0
174,1120903004118,新規,0,2022-04-20,2022-04-20,合同会社Ｓｋｙ　Ｒｉｓｅ,,合同会社,大阪府,箕面市,白島２丁目２２番５号イラナーク２－１０１号,,27,220,5620012,,,,,,,2022-04-20,1,,,,,スカイライズ,0
177,1130001071596,新規,0,2022-04-20,2022-04-20,株式会社連,,株式会社,京都府,宇治市,伊勢田町南山５１－１６,,26,204,6110043,,,,,,,2022-04-20,1,,,,,レン,0
179,1130003007887,新規,0,2022-04-20,2022-04-20,合同会社たかしん,,合同会社,京都府,城陽市,富野南清水８番地の１１６,,26,207,6100111,,,,,,,2022-04-20,1,,,,,タカシン,0
193,1140001125707,新規,0,2022-04-20,2022-04-20,株式会社ＫＡＷＡＺＯＥ,,株式会社,兵庫県,伊丹市,西台１丁目１番１号伊丹阪急ビル伊丹リータ５Ｆ,,28,207,6640858,,,,,,,2022-04-20,1,,,,,カワゾエ,0
199,1150001025484,新規,0,2022-04-20,2022-04-20,株式会社三共,,株式会社,奈良県,吉野郡十津川村,大字谷垣内２４２番地の１,,29,449,6371552,,,,,,,2022-04-20,1,,,,,サンキョウ,0
201,1160001024139,新規,0,2022-04-20,2022-04-20,株式会社ケアブルーム,,株式会社,滋賀県,近江八幡市,鷹飼町４５７番地２３,,25,204,5230891,,,,,,,2022-04-20,1,,,,,ケアブルーム,0
203,1170001017067,新規,0,2022-04-20,2022-04-20,株式会社佐久間,,株式会社,和歌山県,岩出市,金池４５６－１セジュール貴能地１０６,,30,209,6496256,,,,,,,2022-04-20,1,,,,,サクマ,0
217,1190001029341,新規,0,2022-04-20,2022-04-20,ＢＢ株式会社,,株式会社,三重県,松阪市,下村町８６０番地３,,24,204,5150043,,,,,,,2022-04-20,1,,,,,ビービー,0
224,1230003001839,新規,0,2022-04-20,2022-04-20,合同会社Ｔｒｙ,,合同会社,富山県,高岡市,中田４３６３番地１,,16,202,9391275,,,,,,,2022-04-20,1,,,,,トライ,0
226,1240001059647,新規,0,2022-04-20,2022-04-20,株式会社Ｄｅｅ,,株式会社,広島県,広島市安佐北区,口田南１丁目９番３２－１号,,34,106,7391733,,,,,,,2022-04-20,1,,,,,ディー,0
237,1260005011073,新規,0,2022-04-20,2022-04-20,一般社団法人瀬戸内ウェルビーイングユニバーシティ,,その他の設立登記法人,岡山県,玉野市,玉２丁目２２番１０号,,33,204,7060012,,,,,,,2022-04-20,1,,,,,セトウチウェルビーイングユニバーシティ,0
238,1280003001603,新規,0,2022-04-20,2022-04-20,ＬＩＣＣＡ．Ｍ．Ｙ合同会社,,合同会社,島根県,安来市,荒島町１８２３番地２,,32,206,6920007,,,,,,,2022-04-20,1,,,,,リカエムワイ,0
242,1290001097254,新規,0,2022-04-20,2022-04-20,株式会社大原労働安全コンサルタント,,株式会社,福岡県,久留米市,諏訪野町２６８９－１－３０１,,40,203,8300037,,,,,,,2022-04-20,1,,,,,オオハラロウドウアンゼンコンサルタント,0
243,1290001097262,新規,0,2022-04-20,2022-04-20,株式会社ＫＧ．ＢＬＤ,,株式会社,福岡県,福岡市東区,多の津５丁目３２番３２－３０２号,,40,131,8130034,,,,,,,2022-04-20,1,,,,,ケージービルド,0
244,1290001097287,新規,0,2022-04-20,2022-04-20,株式会社ＬＴＣ,,株式会社,福岡県,福岡市中央区,今泉１丁目１９番１５号,,40,133,8100021,,,,,,,2022-04-20,1,,,,,エルティーシー,0
251,1320001019023,新規,0,2022-04-20,2022-04-20,ＤＭＦコンサルティング株式会社,,株式会社,大分県,別府市,石垣東２丁目６番１４号,,44,202,8740919,,,,,,,2022-04-20,1,,,,,ディーエムエフコンサルティング,0
252,1320005009986,新規,0,2022-04-20,2022-04-20,一般社団法人豊後南画ＳＡＩＫＯ会,,その他の設立登記法人,大分県,竹田市,直入町大字長湯７９８９番地１,,44,208,8780402,,,,,,,2022-04-20,1,,,,,ブンゴナンガサイコウカイ,0
255,1330005010506,新規,0,2022-04-20,2022-04-20,医療法人賢裕光生会,,その他の設立登記法人,熊本県,阿蘇郡西原村,大字小森２８２２番地３,,43,432,8612402,,,,,,,2022-04-20,1,,,,,ケンユウコウセイカイ,0
262,1350005006064,新規,0,2022-04-20,2022-04-20,一般社団法人ハートリンク,,その他の設立登記法人,宮崎県,宮崎市,大字赤江７５番地５,,45,201,8800912,,,,,,,2022-04-20,1,,,,,ハートリンク,0
263,1360001030249,新規,0,2022-04-20,2022-04-20,株式会社ＳＮｍａｎａｇｅｍｅｎｔ,,株式会社,沖縄県,那覇市,おもろまち４丁目１９番３９号グランドテラス新都心１３０６,,47,201,9000006,,,,,,,2022-04-20,1,,,,,,0
268,1370001048471,新規,0,2022-04-20,2022-04-20,株式会社ハーモニー,,株式会社,宮城県,仙台市青葉区,愛子東４丁目１８番２６号,,04,101,9893127,,,,,,,2022-04-20,1,,,,,ハーモニー,0
269,1380001032763,新規,0,2022-04-20,2022-04-20,株式会社フロンティアヤマムラ,,株式会社,福島県,福島市,南矢野目字小泉１１番地の１６,,07,201,9600112,,,,,,,2022-04-20,1,,,,,フロンティアヤマムラ,0
274,1410001013165,新規,0,2022-04-20,2022-04-20,株式会社ＰＮＦＡ,,株式会社,秋田県,横手市,婦気大堤字中田１２６,,05,203,0130063,,,,,,,2022-04-20,1,,,,,ピーエヌエフエー,0
279,1420003002504,新規,0,2022-04-20,2022-04-20,Ａ．Ｃ．Ｅ．合同会社,,合同会社,青森県,つがる市,木造土滝稲葉１２番地１,,02,209,0383278,,,,,,,2022-04-20,1,,,,,エーシーイー,0
291,1490003001648,新規,0,2022-04-20,2022-04-20,エンＳＡＫＩＣＨＩ合同会社,,合同会社,高知県,高知市,はりまや町３丁目１４番１６号,,39,201,7800822,,,,,,,2022-04-20,1,,,,,エンサキチ,0
292,1700150105923,新規,0,2022-04-20,2021-11-24,首振りＤｏｌｌ’ｓ,,その他,東京都,杉並区,大宮１丁目７－１０パークサイド大三３０３,,13,115,1680061,,,,,,,2021-11-24,1,,,,,クビフリドールズ,0
293,1700150108166,新規,0,2022-04-20,2022-04-20,ＷＥＶＥＲＳＥ　ＣＯＭＰＡＮＹ　Ｉｎｃ．,,外国会社等,,,,,,,,韓国ソウル市川江南区テヘラン路１０８ギル４２、２階（デチ洞ＭＤＭＴｏｗｅｒ）,,,,,,2022-04-20,1,,,,,ウエバースカンパニー,0
302,2010001225799,新規,0,2022-04-20,2022-04-20,株式会社備匠,,株式会社,東京都,中央区,日本橋箱崎町１－１－５ハニー箱崎ビル７階,,13,102,1030015,,,,,,,2022-04-20,1,,,,,ビショウ,0
303,2010001225824,新規,0,2022-04-20,2022-04-20,株式会社ユニファイジャパン,,株式会社,東京都,中央区,日本橋２丁目２番３号ＲＩＳＨＥビルＵＣＦ４階,,13,102,1030027,,,,,,,2022-04-20,1,,,,,ユニファイジャパン,0
306,2010003037532,新規,0,2022-04-20,2022-04-20,合同会社ＡＴ‐ａｍｕｓｔａｋ,,合同会社,東京都,中央区,日本橋馬喰町１丁目４番１４－１３０７号,,13,102,1030002,,,,,,,2022-04-20,1,,,,,エーティーアムスタック,0
310,2010101015150,新規,0,2022-04-20,2022-04-20,壱乃谷株式会社,,株式会社,東京都,八王子市,中山５２番地１４,,13,201,1920374,,,,,,,2022-04-20,1,,,,,イチノタニ,0
315,2010401166841,新規,0,2022-04-20,2022-04-20,株式会社Ｗ　Ｐａｙｍｅｎｔ,,株式会社,東京都,港区,海岸１丁目４－２２・１０階,,13,103,1050022,,,,,,,2022-04-20,1,,,,,ダブリューペイメント,0
316,2010401166858,新規,0,2022-04-20,2022-04-20,ルミライズ株式会社,,株式会社,東京都,港区,高輪１丁目１８番３－２０２号,,13,103,1080074,,,,,,,2022-04-20,1,,,,,ルミライズ,0
317,2010401166981,新規,0,2022-04-20,2022-04-20,株式会社ＭｅｔａＬａｂ,,株式会社,東京都,港区,芝浦２丁目１７番９号大友ビル２Ｆ－Ｃ,,13,103,1080023,,,,,,,2022-04-20,1,,,,,メタラボ,0
322,2010405020887,新規,0,2022-04-20,2022-04-20,一般社団法人ＪＡＰＡＮ　ＥＸＣＩＴＩＮＧ　ＥＸＰＯ,,その他の設立登記法人,東京都,港区,海岸１丁目１－１ラ・トゥール汐留４７０８号,,13,103,1050022,,,,,,,2022-04-20,1,,,,,ジャパンエキサイティングエキスポ,0
331,2010601060992,新規,0,2022-04-20,2022-04-20,株式会社ＳＩＮＣＥＲＥ,,株式会社,東京都,墨田区,緑４丁目１３番地２号中山ビル１０２号室,,13,107,1300021,,,,,,,2022-04-20,1,,,,,シンシアー,0
332,2010601061041,新規,0,2022-04-20,2022-04-20,株式会社Ｔｈｕｎｄｅｒ　ｂｏｌｔ,,株式会社,東京都,墨田区,太平４丁目１番１－２８０３号,,13,107,1300012,,,,,,,2022-04-20,1,,,,,サンダーボルト,0
334,2010703006191,新規,0,2022-04-20,2022-04-20,合同会社コーヴコーヒー,,合同会社,東京都,品川区,中延５丁目１３番１５号,,13,109,1420053,,,,,,,2022-04-20,1,,,,,コーヴコーヒー,0
344,2010801032899,新規,0,2022-04-20,2022-04-20,株式会社ｉｎｆｉｎｉｔｙ,,株式会社,東京都,大田区,南雪谷２丁目３番１４号,,13,111,1450066,,,,,,,2022-04-20,1,,,,,インフィニティー,0
346,2010901050727,新規,0,2022-04-20,2022-04-20,株式会社悠Ｇｒｅｅｎ,,株式会社,東京都,世田谷区,奥沢２丁目４０番１１号,,13,112,1580083,,,,,,,2022-04-20,1,,,,,ユウグリーン,0
347,2010901050735,新規,0,2022-04-20,2022-04-20,リープ株式会社,,株式会社,東京都,世田谷区,三宿１丁目１番４－３０２号,,13,112,1540005,,,,,,,2022-04-20,1,,,,,,0
355,2011001147059,新規,0,2022-04-20,2022-04-20,株式会社マインドフルラーニング,,株式会社,東京都,渋谷区,円山町５番５号Ｎａｖｉ渋谷Ｖ３階,00126342,13,113,1500044,,,,,,,2022-04-20,1,,,,,マインドフルラーニング,0
357,2011003014554,新規,0,2022-04-20,2022-04-20,合同会社Ａｍｂｉｖａｌｅｎｔ,,合同会社,東京都,渋谷区,東３丁目２１－３－４０１,,13,113,1500011,,,,,,,2022-04-20,1,,,,,アンビヴァレント,0
362,2011103011682,新規,0,2022-04-20,2022-04-20,達希合同会社,,合同会社,東京都,新宿区,高田馬場４丁目３－７－１０３号,,13,104,1690075,,,,,,,2022-04-20,1,,,,,タツキ,0
364,2011303004387,新規,0,2022-04-20,2022-04-20,合同会社ミチワケ,,合同会社,東京都,杉並区,高円寺北３丁目３２－１５,,13,115,1660002,,,,,,,2022-04-20,1,,,,,ミチワケ,0
375,2012401039110,新規,0,2022-04-20,2022-04-20,株式会社４７ＭＩＮＥ,,株式会社,東京都,調布市,深大寺北町７丁目１６番地２フォレステージュ・シャルム１０８,,13,208,1820011,,,,,,,2022-04-20,1,,,,,ヨンナナマイン,0
376,2012401039119,新規,0,2022-04-20,2022-04-20,株式会社ＩＳＬＡＮＤ　ＤＯＧ,,株式会社,東京都,府中市,若松町４丁目４６番地の８,,13,206,1830005,,,,,,,2022-04-20,1,,,,,アイランドドッグ,0
383,2020001146169,新規,0,2022-04-20,2022-04-20,株式会社アウラテック,,株式会社,神奈川県,横浜市西区,みなとみらい４丁目９番２－Ｃ３０１０号,,14,103,2200012,,,,,,,2022-04-20,1,,,,,アウラテック,0
384,2020001146185,新規,0,2022-04-20,2022-04-20,株式会社ＭＡＨＡＬＯ　ＬＩＮＫ,,株式会社,神奈川県,横浜市神奈川区,台町１１番地２９横浜エム・アイビル６０１,,14,102,2210834,,,,,,,2022-04-20,1,,,,,マハロリンク,0
385,2020001146193,新規,0,2022-04-20,2022-04-20,株式会社ｔａｍａｙｕｉ．ｃｒｅａｔｉｖｅ　ｓｔｕｄｉｏ,,株式会社,神奈川県,横浜市青葉区,千草台２５番地５,,14,117,2270051,,,,,,,2022-04-20,1,,,,,タマユイクリエイティブスタジオ,0
386,2020001146202,新規,0,2022-04-20,2022-04-20,株式会社優和,,株式会社,神奈川県,川崎市宮前区,平５丁目５番１０号,,14,136,2160022,,,,,,,2022-04-20,1,,,,,ユウワ,0
389,2020003021634,新規,0,2022-04-20,2022-04-20,アクアラピタル合同会社,,合同会社,神奈川県,川崎市宮前区,鷺沼４丁目１５番地２ランドシティ鷺沼４０６,,14,136,2160004,,,,,,,2022-04-20,1,,,,,アクアラピタル,0
390,2020003021642,新規,0,2022-04-20,2022-04-20,琥珀プロジェクト合同会社,,合同会社,神奈川県,横浜市港南区,大久保１丁目１４番１１号エルシャルム上大岡Ｂ１,,14,111,2330007,,,,,,,2022-04-20,1,,,,,コハクプロジェクト,0
391,2020003021650,新規,0,2022-04-20,2022-04-20,合同会社ＯＦＦＩＣＥ　ＨＩＮＯ,,合同会社,神奈川県,横浜市港北区,仲手原２丁目１９－４５,,14,109,2220023,,,,,,,2022-04-20,1,,,,,オフィスヒノ,0
394,2021001075746,新規,0,2022-04-20,2022-04-20,株式会社スカイテック,,株式会社,神奈川県,平塚市,西真土１丁目５番２２－１号,,14,203,2540019,,,,,,,2022-04-20,1,,,,,スカイテック,0
395,2021001075762,新規,0,2022-04-20,2022-04-20,創己総業株式会社,,株式会社,神奈川県,相模原市中央区,上溝２０８３番地１３,,14,152,2520243,,,,,,,2022-04-20,1,,,,,ソウキソウギョウ,0
397,2021003011609,新規,0,2022-04-20,2022-04-20,合同会社あらめや,,合同会社,神奈川県,藤沢市,弥勒寺１丁目２３番７号,,14,205,2510016,,,,,,,2022-04-20,1,,,,,アラメヤ,0
400,2030001147793,新規,0,2022-04-20,2022-04-20,株式会社ＮＥＸＴ警備保障,,株式会社,埼玉県,狭山市,大字東三ツ木３４６番地ＹＫハウス２０２,,11,215,3501302,,,,,,,2022-04-20,1,,,,,ネクストケイビホショウ,0
401,2030001147827,新規,0,2022-04-20,2022-04-20,株式会社万安天宜,,株式会社,埼玉県,八潮市,大瀬４丁目８番地１シティテラス八潮６３９,,11,234,3400822,,,,,,,2022-04-20,1,,,,,バンアンテンギ,0
402,2030001147843,新規,0,2022-04-20,2022-04-20,株式会社ＨＳＴ,,株式会社,埼玉県,東松山市,大字新郷３７１－６,,11,212,3550071,,,,,,,2022-04-20,1,,,,,エイチエスティー,0
407,2030003019248,新規,0,2022-04-20,2022-04-20,合同会社ＷＲ貿易,,合同会社,埼玉県,熊谷市,弥藤吾１６０－６三合ビル３０１号室,,11,202,3600203,,,,,,,2022-04-20,1,,,,,ダブリューアールボウエキ,0
417,2050001050979,新規,0,2022-04-20,2022-04-20,株式会社トム建,,株式会社,茨城県,稲敷郡阿見町,大字飯倉１４３９番地２９,,08,443,3000324,,,,,,,2022-04-20,1,,,,,トムケン,0
423,2070001039153,新規,0,2022-04-20,2022-04-20,株式会社大喜組,,株式会社,群馬県,前橋市,小相木町７８４番地５の２,,10,201,3710831,,,,,,,2022-04-20,1,,,,,ダイキグミ,0
426,2080001024889,新規,0,2022-04-20,2022-04-20,株式会社ＤＥＡｉＥ,,株式会社,静岡県,静岡市葵区,二番町１２番地の２,,22,101,4200072,,,,,,,2022-04-20,1,,,,,デアイエ,0
435,2090001017537,新規,0,2022-04-20,2022-04-20,株式会社トザワ建装,,株式会社,山梨県,甲斐市,篠原２６５４番地５,,19,210,4000115,,,,,,,2022-04-20,1,,,,,トザワケンソウ,0
436,2100001035272,新規,0,2022-04-20,2022-04-20,株式会社ＡｒｒｏｗＱｕｅｓｔ,,株式会社,長野県,長野市,大字風間１３６３番地８,,20,201,3810023,,,,,,,2022-04-20,1,,,,,アロウクエスト,0
439,2100003006511,新規,0,2022-04-20,2022-04-20,合同会社Ｓｔｒｏｎｇ　ｂｏｎｄ,,合同会社,長野県,松本市,大字今井６２９８番地１,,20,202,3901131,,,,,,,2022-04-20,1,,,,,ストロングボンド,0
440,2100005012862,新規,0,2022-04-20,2022-04-20,一般社団法人我逢人,,その他の設立登記法人,長野県,中野市,大字立ケ花７２９番地１,,20,211,3830054,,,,,,,2022-04-20,1,,,,,ガホウジン,0
458,2120001245191,新規,0,2022-04-20,2022-04-20,株式会社ＴＲ　ＳＴＹＬＥ,,株式会社,大阪府,枚方市,伊加賀栄町２５番２号,,27,210,5730062,,,,,,,2022-04-20,1,,,,,ティーアールスタイル,0
459,2120001245299,新規,0,2022-04-20,2022-04-20,ニッゴ株式会社,,株式会社,大阪府,大阪市西成区,梅南２丁目２番２６号２０２号室,,27,122,5570033,,,,,,,2022-04-20,1,,,,,ニッゴ,0
460,2120001245316,新規,0,2022-04-20,2022-04-20,ミチル株式会社,,株式会社,大阪府,大阪市浪速区,難波中２丁目１０番７０号なんばパークスタワー１９Ｆ,,27,111,5560011,,,,,,,2022-04-20,1,,,,,ミチル,0
461,2120001245365,新規,0,2022-04-20,2022-04-20,ブルーリバー株式会社,,株式会社,大阪府,大阪市北区,梅田１丁目３番１－２００号２階－５８号,,27,127,5300001,,,,,,,2022-04-20,1,,,,,ブルーリバー,0
466,2120101065432,新規,0,2022-04-20,2022-04-20,株式会社ｋｏｏブランド,,株式会社,大阪府,河内長野市,加賀田３７５番地の１０,,27,216,5860071,,,,,,,2022-04-20,1,,,,,コーブランド,0
469,2120901045864,新規,0,2022-04-20,2022-04-20,株式会社ケイ・サーパス,,株式会社,大阪府,豊中市,服部豊町２丁目２２番１０号,,27,203,5610859,,,,,,,2022-04-20,1,,,,,ケイサーパス,0
475,2122001035779,新規,0,2022-04-20,2022-04-20,株式会社ＤＲＦ,,株式会社,大阪府,東大阪市,横沼町３丁目３番６号ハイフィールド３０１号,,27,227,5770808,,,,,,,2022-04-20,1,,,,,ディーアールエフ,0
478,2130001071554,新規,0,2022-04-20,2022-04-20,株式会社タケダ事務機,,株式会社,京都府,京都市下京区,玉津島町３１６－２川南ビル５Ｆ,,26,106,6008427,,,,,,,2022-04-20,1,,,,,タケダジムキ,0
479,2130001071570,新規,0,2022-04-20,2022-04-20,ジョー工務店株式会社,,株式会社,京都府,京都市右京区,常盤窪町１２番地２,,26,108,6168224,,,,,,,2022-04-20,1,,,,,ジョーコウムテン,0
480,2130001071587,新規,0,2022-04-20,2022-04-20,株式会社ＥＮＣＡＮＴ,,株式会社,京都府,京都市下京区,坊門町８０５番地２,,26,106,6008388,,,,,,,2022-04-20,1,,,,,エンカント,0
481,2130001071604,新規,0,2022-04-20,2022-04-20,株式会社Ｈａ’ｕｐｕ．,,株式会社,京都府,京都市南区,吉祥院西ノ庄西中町１３番地エルシティ西大路２０９号,,26,107,6018303,,,,,,,2022-04-20,1,,,,,ハーウプ,0
482,2130003007886,新規,0,2022-04-20,2022-04-20,合同会社２５Ｆａｒｍ,,合同会社,京都府,京都市西京区,大原野灰方町１２８番地,,26,111,6101132,,,,,,,2022-04-20,1,,,,,ニコファーム,0
490,2140001125697,新規,0,2022-04-20,2022-04-20,株式会社グローバルＪＰ,,株式会社,兵庫県,神戸市中央区,北長狭通５丁目４番７－１００７号,,28,110,6500012,,,,,,,2022-04-20,1,,,,,グローバルジェイピー,0
494,2150001025483,新規,0,2022-04-20,2022-04-20,株式会社Ｃｒｅｉｏｎ,,株式会社,奈良県,大和高田市,大字市場１０４番地１１,,29,202,6350074,,,,,,,2022-04-20,1,,,,,クレイオン,0
497,2170003001712,新規,0,2022-04-20,2022-04-20,合同会社ケアファクトリー,,合同会社,和歌山県,日高郡美浜町,大字吉原１０９４番地の６,,30,381,6440043,,,,,,,2022-04-20,1,,,,,ケアファクトリー,0
505,2180005019743,新規,0,2022-04-20,2022-04-20,特定非営利活動法人学童保育くれよんクラブ,,その他の設立登記法人,愛知県,知多市,八幡字東大平地１６番地の３,,23,224,4780001,,,,,,,2022-04-20,1,,,,,ガクドウホイククレヨンクラブ,0
519,2230001019329,新規,0,2022-04-20,2022-04-20,株式会社ミヤクボ設備,,株式会社,富山県,黒部市,生地２６５番地２,,16,207,9380066,,,,,,,2022-04-20,1,,,,,ミヤクボセツビ,0
529,2260001036775,新規,0,2022-04-20,2022-04-20,株式会社ＭＯＭＯ,,株式会社,岡山県,倉敷市,児島味野１丁目７－１１,,33,202,7110913,,,,,,,2022-04-20,1,,,,,モモ,0
531,2260005011072,新規,0,2022-04-20,2022-04-20,一般社団法人ＣＲＥＤ,,その他の設立登記法人,岡山県,真庭市,久世２２０番地２,,33,214,7193201,,,,,,,2022-04-20,1,,,,,クレド,0
537,2290001097253,新規,0,2022-04-20,2022-04-20,株式会社あすはな,,株式会社,福岡県,福津市,日蒔野６丁目３０番地の２３,,40,224,8113209,,,,,,,2022-04-20,1,,,,,アスハナ,0
538,2290001097261,新規,0,2022-04-20,2022-04-20,株式会社ＯＲＩＧＯ　ＪＡＰＡＮ,,株式会社,福岡県,福岡市博多区,祇園町２－３１フィルパーク博多祇園２Ｆ,,40,132,8120038,,,,,,,2022-04-20,1,,,,,オリゴジャパン,0
540,2290003012417,新規,0,2022-04-20,2022-04-20,合同会社Ｓｐｒｉｎｇ７７,,合同会社,福岡県,大野城市,畑ケ坂１丁目１番２７号カントリーハイム白水１０２号,,40,219,8160982,,,,,,,2022-04-20,1,,,,,スプリングナナ,0
542,2290801028457,新規,0,2022-04-20,2022-04-20,株式会社西日本シビルエンジニアリング,,株式会社,福岡県,北九州市八幡西区,石坂１丁目５番１号,,40,109,8071121,,,,,,,2022-04-20,1,,,,,ニシニホンシビルエンジニアリング,0
551,2340001024664,新規,0,2022-04-20,2022-04-20,株式会社エム．ツー．テック,,株式会社,鹿児島県,霧島市,国分野口町２５番４７－３号,,46,218,8994342,,,,,,,2022-04-20,1,,,,,エムツーテック,0
568,2410001013172,新規,0,2022-04-20,2022-04-20,株式会社ヴェル,,株式会社,秋田県,秋田市,新屋松美町１３番１２号,,05,201,0101604,,,,,,,2022-04-20,1,,,,,ヴェル,0
576,2430001086464,新規,0,2022-04-20,2022-04-20,安達電設株式会社,,株式会社,北海道,札幌市手稲区,富丘一条７丁目１６番１－２０２号,,01,109,0060011,,,,,,,2022-04-20,1,,,,,アダチデンセツ,0
577,2430003013821,新規,0,2022-04-20,2022-04-20,合同会社Ｎｏｒｔｈ　Ｇａｒｄｅｎ,,合同会社,北海道,札幌市東区,伏古五条４丁目４番１０号,,01,103,0070865,,,,,,,2022-04-20,1,,,,,ノースガーデン,0
582,2460001005685,新規,0,2022-04-20,2022-04-20,株式会社大崎工業,00126338,株式会社,北海道,釧路市,東川町９番６号,,01,206,0850056,,,,,,,2022-04-20,1,,,,,オオサキコウギョウ,0
586,2480005006901,新規,0,2022-04-20,2022-04-20,一般社団法人ＴＳＵＲＩＢＩＴＯ,,その他の設立登記法人,徳島県,鳴門市,撫養町木津８２６番地６,,36,202,7720004,,,,,,,2022-04-20,1,,,,,ツリビト,0
588,2500001024160,新規,0,2022-04-20,2022-04-20,株式会社佐藤工業,,株式会社,愛媛県,新居浜市,庄内町５丁目６番２１号,,38,205,7920811,,,,,,,2022-04-20,1,,,,,サトウコウギョウ,0
589,2700150105451,新規,0,2022-04-20,2021-10-21,南大阪ダンスアカデミーフェデレーション,,その他,大阪府,高石市,加茂１丁目１５－１３－５１３　ミナトダンスアカデミー内,,27,225,5920011,,,,,,,2021-10-21,1,,,,,ミナミオオサカダンスアカデミーフエデレーシヨン,0
590,2700150108165,新規,0,2022-04-20,2022-04-20,Ｓａｐｐｈｉｒｅ　Ｐｅｒｆｅｃｔ　Ｃａｐｉｔａｌ,,外国会社等,,,,,,,,Ｖａｎｔｅｒｐｏｏｌ　Ｐｌａｚａ，　２ｎｄ　Ｆｌｏｏｒ，　Ｗｉｃｋｈａｍｓ　Ｃａｙ　Ｉ，　Ｒｏａｄ　Ｔｏｗｎ，　Ｔｏｒｔｏｌａ，　Ｂｒｉｔｉｓｈ　Ｖｉｒｇｉｎ　Ｉｓｌａｎｄｓ,00126321,,,,,2022-04-20,1,,,,,サフアイアパーフエクトキヤピタル,0
597,3010001225798,新規,0,2022-04-20,2022-04-20,ＬＯＣＵＳ株式会社,,株式会社,東京都,中央区,銀座１丁目２２番１１－２Ｆ,,13,102,1040061,,,,,,,2022-04-20,1,,,,,ロクス,0
598,3010001225815,新規,0,2022-04-20,2022-04-20,株式会社Ｘ‐ＢＯＲＤＥＲＳ,,株式会社,東京都,中央区,晴海３丁目１３番２－５００２号,,13,102,1040053,,,,,,,2022-04-20,1,,,,,クロスボーダーズ,0
599,3010001225889,新規,0,2022-04-20,2022-04-20,株式会社ＢＳＰ,,株式会社,東京都,千代田区,六番町６－４ＬＨ番町スクエア５Ｆ,,13,101,1020085,,,,,,,2022-04-20,1,,,,,ビーエスピー,0
600,3010001225922,新規,0,2022-04-20,2022-04-20,株式会社ＤＡＧ,,株式会社,東京都,中央区,銀座１丁目２２番１１号,,13,102,1040061,,,,,,,2022-04-20,1,,,,,ディーエージー,0
601,3010001225996,新規,0,2022-04-20,2022-04-20,ＥＡＲＴＨ株式会社,,株式会社,東京都,千代田区,九段北１丁目９番１３号ミライズレジデンシャル九段１１０１号,,13,101,1020073,,,,,,,2022-04-20,1,,,,,アース,0
603,3010005034898,新規,0,2022-04-20,2022-04-20,一般社団法人女性ホルモンビューティーウェルネス協会,,その他の設立登記法人,東京都,中央区,銀座１丁目２２番１１号銀座大竹ビジデンス２階,,13,102,1040061,,,,,,,2022-04-20,1,,,,,ジョセイホルモンビューティーウェルネスキョウカイ,0
609,3010401166642,新規,0,2022-04-20,2022-04-20,株式会社キャムコム,,株式会社,東京都,港区,浜松町２丁目４番１号,,13,103,1050013,,,,,,,2022-04-20,1,,,,,キャムコム,0
610,3010401166840,新規,0,2022-04-20,2022-04-20,株式会社ＷＥＩＮ　ＳＴＵＤＥＮＴＳ,,株式会社,東京都,港区,海岸１丁目４－２２・１０階,,13,103,1050022,,,,,,,2022-04-20,1,,,,,ウエインスチューデント,0
611,3010401166873,新規,0,2022-04-20,2022-04-20,Ｎｉｈｏｎ　Ｅｐｉｃ　Ｍｅｄｉｃａｌ株式会社,,株式会社,東京都,港区,西新橋１丁目２０番９号ＴＳＲビル３Ｆ,,13,103,1050003,,,,,,,2022-04-20,1,,,,,ニホンエピックメディカル,0
612,3010401166972,新規,0,2022-04-20,2022-04-20,株式会社ＳＩＳＵ,,株式会社,東京都,港区,南麻布１丁目８番１６号,,13,103,1060047,,,,,,,2022-04-20,1,,,,,シス,0
613,3010401166980,新規,0,2022-04-20,2022-04-20,株式会社ＳＯＡＲ,,株式会社,東京都,港区,高輪１丁目４番８－５０７号,,13,103,1080074,,,,,,,2022-04-20,1,,,,,ソア,0
616,3010403027537,新規,0,2022-04-20,2022-04-20,合同会社Ｍｅｔａｂｌｏｃｋ,,合同会社,東京都,港区,芝浦２丁目６番１６号,,13,103,1080023,,,,,,,2022-04-20,1,,,,,メタブロック,0
621,3010703006199,新規,0,2022-04-20,2022-04-20,飯塚市有井太陽光発電合同会社,,合同会社,東京都,品川区,東品川２丁目３番１４号,,13,109,1400002,,,,,,,2022-04-20,1,,,,,イイヅカシアリイタイヨウコウハツデン,0
622,3010705003343,新規,0,2022-04-20,2022-04-20,一般社団法人そらビ,,その他の設立登記法人,東京都,品川区,南品川３丁目４番１号,,13,109,1400004,,,,,,,2022-04-20,1,,,,,ソラビ,0
625,3010801032898,新規,0,2022-04-20,2022-04-20,株式会社エスケーコーポレーション,,株式会社,東京都,大田区,南馬込５丁目３５番１２号,,13,111,1430025,,,,,,,2022-04-20,1,,,,,エスケーコーポレーション,0
626,3010803004144,新規,0,2022-04-20,2022-04-20,レジリエンス合同会社,,合同会社,東京都,大田区,西糀谷４丁目２９番１６－１００３号,,13,111,1440034,,,,,,,2022-04-20,1,,,,,レジリエンス,0
628,3010901050734,新規,0,2022-04-20,2022-04-20,株式会社ｂｒａｎｄｓ,,株式会社,東京都,世田谷区,瀬田５丁目１７番１号三栄パークハウス１Ｆ,,13,112,1580095,,,,,,,2022-04-20,1,,,,,ブランズ,0
636,3011001147041,新規,0,2022-04-20,2022-04-20,株式会社ルミサス,,株式会社,東京都,渋谷区,道玄坂１丁目１２番１号,,13,113,1500043,,,,,,,2022-04-20,1,,,,,ルミサス,0
645,3011101098572,新規,0,2022-04-20,2022-04-20,株式会社ナインエボルブ,,株式会社,東京都,新宿区,新宿１丁目１８－５ネストビル２階,,13,104,1600022,,,,,,,2022-04-20,1,,,,,ナインエボルブ,0
646,3011101098589,新規,0,2022-04-20,2022-04-20,株式会社Ｐｒｏｊｅｃｔ　Ｓｕｐｐｏｒｔ,,株式会社,東京都,新宿区,西新宿３丁目３番１３号西新宿水間ビル６階,,13,104,1600023,,,,,,,2022-04-20,1,,,,,プロジェクトサポート,0
647,3011101098606,新規,0,2022-04-20,2022-04-20,株式会社ベネッセクリエイティブワークス,,株式会社,東京都,新宿区,西新宿２丁目１番１号,,13,104,1600023,,,,,,,2022-04-20,1,,,,,ベネッセクリエイティブワークス,0
651,3011501027949,新規,0,2022-04-20,2022-04-20,アントレッド株式会社,,株式会社,東京都,荒川区,東日暮里２丁目４３番１１号,,13,118,1160014,,,,,,,2022-04-20,1,,,,,アントレッド,0
662,3012401039118,新規,0,2022-04-20,2022-04-20,株式会社Ｋ企画,,株式会社,東京都,三鷹市,下連雀３丁目３４番８－７０２号,,13,204,1810013,,,,,,,2022-04-20,1,,,,,ケイキカク,0
663,3012405004729,新規,0,2022-04-20,2022-04-20,一般社団法人ファミリーミュージカル協会,,その他の設立登記法人,東京都,三鷹市,下連雀７丁目１６－１２,,13,204,1810013,,,,,,,2022-04-20,1,,,,,ファミリーミュージカルキョウカイ,0
666,3012805003108,新規,0,2022-04-20,2022-04-20,特定非営利活動法人日本余暇会,,その他の設立登記法人,東京都,日野市,百草１００２番地の１９,,13,212,1910033,,,,,,,2022-04-20,1,,,,,,0
668,3013301048968,新規,0,2022-04-20,2022-04-20,株式会社ロゴスリー,,株式会社,東京都,豊島区,東池袋１丁目３４番５号いちご東池袋ビル６階,,13,116,1700013,,,,,,,2022-04-20,1,,,,,ロゴスリー,0
675,3020001146168,新規,0,2022-04-20,2022-04-20,江口工業株式会社,,株式会社,神奈川県,横浜市鶴見区,北寺尾２丁目６番１７号アネックス双葉１０２号,,14,101,2300074,,,,,,,2022-04-20,1,,,,,エグチコウギョウ,0
676,3020001146176,新規,0,2022-04-20,2022-04-20,あさひ商会株式会社,,株式会社,神奈川県,横浜市旭区,南本宿町１７１番地４２,,14,112,2410833,,,,,,,2022-04-20,1,,,,,アサヒショウカイ,0
677,3020001146192,新規,0,2022-04-20,2022-04-20,株式会社ＮＲＣ．ｙｏｋｏｈａｍａ,,株式会社,神奈川県,横浜市旭区,本村町６５－４９,,14,112,2410024,,,,,,,2022-04-20,1,,,,,エヌアールシーヨコハマ,0
680,3020003021641,新規,0,2022-04-20,2022-04-20,合同会社世界一,,合同会社,神奈川県,横浜市金沢区,金沢町２１３番地,,14,108,2360015,,,,,,,2022-04-20,1,,,,,セカイイチ,0
681,3020003021658,新規,0,2022-04-20,2022-04-20,ヘルプエバー合同会社,,合同会社,神奈川県,横浜市港北区,大倉山２丁目１番１０号,,14,109,2220037,,,,,,,2022-04-20,1,,,,,ヘルプエバー,0
690,3030001147801,新規,0,2022-04-20,2022-04-20,グレース株式会社,,株式会社,埼玉県,鶴ヶ島市,富士見１丁目１４番３－５０８号コンフォール若葉,,11,241,3502201,,,,,,,2022-04-20,1,,,,,グレース,0
691,3030001147818,新規,0,2022-04-20,2022-04-20,株式会社あやの義肢,,株式会社,埼玉県,白岡市,小久喜５５６番地１,,11,246,3490217,,,,,,,2022-04-20,1,,,,,アヤノギシ,0
692,3030001147826,新規,0,2022-04-20,2022-04-20,株式会社シトラスデザイン,,株式会社,埼玉県,八潮市,大字木曽根７６５番地１,,11,234,3400813,,,,,,,2022-04-20,1,,,,,シトラスデザイン,0
694,3030003019263,新規,0,2022-04-20,2022-04-20,合同会社エトマユ商会,,合同会社,埼玉県,北本市,東間２丁目２５４番地,,11,233,3640007,,,,,,,2022-04-20,1,,,,,エトマユショウカイ,0
698,3040001123082,新規,0,2022-04-20,2022-04-20,株式会社ＷＯＲＬＤ　ＤＩＳＣＯＶＥＲＹ,,株式会社,千葉県,柏市,東２丁目２番４－３０４号,,12,217,2770014,,,,,,,2022-04-20,1,,,,,ワールドディスカバリー,0
699,3040001123099,新規,0,2022-04-20,2022-04-20,株式会社ワイズエクスプレス,,株式会社,千葉県,船橋市,三山２丁目３７番６号,,12,204,2740072,,,,,,,2022-04-20,1,,,,,ワイズエクスプレス,0
712,3060003004048,新規,0,2022-04-20,2022-04-20,合同会社Ｂｉｏｌｕｃｅ,,合同会社,栃木県,宇都宮市,田下町１３０番地１,,09,201,3210343,,,,,,,2022-04-20,1,,,,,ビオルーチェ,0
719,3080001024888,新規,0,2022-04-20,2022-04-20,株式会社アドアンド,,株式会社,静岡県,静岡市駿河区,下川原４丁目２２番２３号,,22,102,4210113,,,,,,,2022-04-20,1,,,,,アドアンド,0
724,3090003002081,新規,0,2022-04-20,2022-04-20,合同会社むすひ,,合同会社,山梨県,北都留郡小菅村,４２９番地,,19,442,4090211,,,,,,,2022-04-20,1,,,,,ムスヒ,0
726,3100001035271,新規,0,2022-04-20,2022-04-20,サクラケアミール株式会社,,株式会社,長野県,千曲市,大字小島３１７１番地５,,20,218,3870013,,,,,,,2022-04-20,1,,,,,サクラケアミール,0
728,3100005012861,新規,0,2022-04-20,2022-04-20,特定非営利活動法人こはく,,その他の設立登記法人,長野県,上田市,浦野２６番地４,,20,203,3861546,,,,,,,2022-04-20,1,,,,,コハク,0
731,3110001036599,新規,0,2022-04-20,2022-04-20,株式会社Ｆ’環境企画,,株式会社,新潟県,燕市,中川６７５番地３,,15,213,9591225,,,,,,,2022-04-20,1,,,,,エフカンキョウキカク,0
741,3120001245298,新規,0,2022-04-20,2022-04-20,株式会社テオリア,,株式会社,大阪府,大阪市中央区,南船場２丁目２番２８号順慶ビル３０１,,27,128,5420081,,,,,,,2022-04-20,1,,,,,テオリア,0
744,3120003021532,新規,0,2022-04-20,2022-04-20,合同会社ｅｌｆ,,合同会社,大阪府,寝屋川市,打上元町１２番５０－１０１号,,27,215,5720858,,,,,,,2022-04-20,1,,,,,エルフ,0
750,3120005022925,新規,0,2022-04-20,2022-04-20,一般社団法人相続解決支援機構,,その他の設立登記法人,大阪府,大阪市北区,天神橋１丁目１９番８号,,27,127,5300041,,,,,,,2022-04-20,1,,,,,ソウゾクカイケツシエンキコウ,0
753,3120101065423,新規,0,2022-04-20,2022-04-20,株式会社Ｔａｋｅ　Ｏｎ,,株式会社,大阪府,堺市堺区,向陵中町２丁１番１１号ファイブビル２階,,27,141,5900024,,,,,,,2022-04-20,1,,,,,テイクオン,0
754,3120101065431,新規,0,2022-04-20,2022-04-20,株式会社坂口造園,,株式会社,大阪府,高石市,羽衣３丁目４番１９号,,27,225,5920002,,,,,,,2022-04-20,1,,,,,サカグチゾウエン,0
755,3120101065448,新規,0,2022-04-20,2022-04-20,川端建設工業株式会社,,株式会社,大阪府,泉南郡熊取町,五月ヶ丘２丁目２番２５号,,27,361,5900445,,,,,,,2022-04-20,1,,,,,カワバタケンセツコウギョウ,0
756,3120103004668,新規,0,2022-04-20,2022-04-20,合同会社大阪栄運送,,合同会社,大阪府,堺市中区,福田８４６－１０２Ｆ,,27,142,5998241,,,,,,,2022-04-20,1,,,,,オオサカサカエウンソウ,0
759,3120901045863,新規,0,2022-04-20,2022-04-20,株式会社ＡＫカンパニー,,株式会社,大阪府,豊中市,本町１丁目１１番３０－１３０２号,,27,203,5600021,,,,,,,2022-04-20,1,,,,,エーケーカンパニー,0
760,3120901045871,新規,0,2022-04-20,2022-04-20,株式会社Ｄ２Ｌａｂｏ,,株式会社,大阪府,池田市,石橋１丁目８番５号,,27,204,5630032,,,,,,,2022-04-20,1,,,,,ディーツーラボ,0
769,3130001071586,新規,0,2022-04-20,2022-04-20,株式会社ＴＩＮＧＡＲＡ,,株式会社,京都府,京都市山科区,椥辻東浦町２１番地１ジオ山科椥辻ノース４０１号,00126351,26,110,6078160,,,,,,,2022-04-20,1,,,,,ティンガーラ,0
770,3130001071594,新規,0,2022-04-20,2022-04-20,株式会社吉企画,,株式会社,京都府,京都市右京区,西院清水町１４０－１４,,26,108,6150052,,,,,,,2022-04-20,1,,,,,ヨシキカク,0
780,3140001125713,新規,0,2022-04-20,2022-04-20,株式会社ＴＯＹＯＣＯＴＯ　ＮＥＸＴ,,株式会社,兵庫県,神崎郡福崎町,八千種４１０４番地３５,,28,443,6792202,,,,,,,2022-04-20,1,,,,,トヨコートネクスト,0
786,3150001025474,新規,0,2022-04-20,2022-04-20,株式会社ヤマト合人社,,株式会社,奈良県,奈良市,大宮町６丁目３番３号,,29,201,6308115,,,,,,,2022-04-20,1,,,,,ヤマトゴウジンシャ,0
787,3150001025482,新規,0,2022-04-20,2022-04-20,株式会社ｉｒｕｇｏ,,株式会社,奈良県,生駒市,生駒台北８６番地,,29,209,6300203,,,,,,,2022-04-20,1,,,,,イルゴ,0
788,3170001017065,新規,0,2022-04-20,2022-04-20,株式会社Ｇｉｖｅｒ,,株式会社,和歌山県,和歌山市,山口西３５５番地２,,30,201,6496317,,,,,,,2022-04-20,1,,,,,ギバー,0
798,3180001150971,新規,0,2022-04-20,2022-04-20,株式会社Ｓｈｏｗ,,株式会社,愛知県,名古屋市中区,栄４丁目４番１８号大善ビル地下１階,,23,106,4600008,,,,,,,2022-04-20,1,,,,,ショウ,0
806,3190001029348,新規,0,2022-04-20,2022-04-20,株式会社三翔,,株式会社,三重県,津市,木造町９３１番地１,,24,201,5141115,,,,,,,2022-04-20,1,,,,,サンショウ,0
812,3200001039989,新規,0,2022-04-20,2022-04-20,株式会社エー・ティー・コーポレーション,,株式会社,岐阜県,大垣市,木戸町３９２番地５,,21,202,5030973,,,,,,,2022-04-20,1,,,,,エーティーコーポレーション,0
813,3200001039997,新規,0,2022-04-20,2022-04-20,株式会社ｏｆｆｉｃｅ零,,株式会社,岐阜県,大垣市,赤坂町８６番地６,,21,202,5032213,,,,,,,2022-04-20,1,,,,,オフィスゼロ,0
815,3230003001837,新規,0,2022-04-20,2022-04-20,合同会社Ａｙｕ夢Ｓｈｏｐホールディングス,,合同会社,富山県,射水市,東太閤山３丁目５３番地,,16,211,9390319,,,,,,,2022-04-20,1,,,,,アユムショップホールディングス,0
816,3240001059645,新規,0,2022-04-20,2022-04-20,株式会社Ｋ’ｓテクノ,,株式会社,広島県,広島市西区,井口４丁目８番１０－２号,,34,104,7330842,,,,,,,2022-04-20,1,,,,,ケーズテクノ,0
817,3240001059653,新規,0,2022-04-20,2022-04-20,３ｒｆ　ｌａｂｏ株式会社,,株式会社,広島県,広島市東区,牛田早稲田３丁目４番１－１１０１号,,34,102,7320062,,,,,,,2022-04-20,1,,,,,スリーアールエフラボ,0
824,3260001036774,新規,0,2022-04-20,2022-04-20,株式会社ボックス,,株式会社,岡山県,岡山市北区,庭瀬９３１番地３コーポモザン１０８（１０８号室）,,33,101,7010153,,,,,,,2022-04-20,1,,,,,ボックス,0
837,3290001097178,新規,0,2022-04-20,2022-04-20,株式会社ＨＡＰＰＹ　ＱＵＥＳＴ,,株式会社,福岡県,福岡市中央区,平尾３丁目１４番２８号,,40,133,8100014,,,,,,,2022-04-20,1,,,,,ハッピークエスト,0
838,3290001097252,新規,0,2022-04-20,2022-04-20,株式会社ＴＳＵＫＵＲＵＴＯ,,株式会社,福岡県,春日市,塚原台１丁目３１番地,,40,218,8160841,,,,,,,2022-04-20,1,,,,,ツクルト,0
839,3290001097277,新規,0,2022-04-20,2022-04-20,株式会社ＬｉｂｅｒａＦｏｒｍ,,株式会社,福岡県,春日市,白水池１丁目１５７番地１ｅｃｒｕ　ｄｅ　ｌｕｘｅ白水大地公園Ｂ－３号,,40,218,8160848,,,,,,,2022-04-20,1,,,,,リベラフォーム,0
840,3290801028456,新規,0,2022-04-20,2022-04-20,株式会社バードファクトリー,,株式会社,福岡県,北九州市八幡西区,萩原３丁目１番１８号,,40,109,8060059,,,,,,,2022-04-20,1,,,,,バードファクトリー,0
841,3290801028464,新規,0,2022-04-20,2022-04-20,ＹＯＣメディカル株式会社,,株式会社,福岡県,行橋市,東泉５丁目１番４号,,40,213,8240035,,,,,,,2022-04-20,1,,,,,ワイオーシーメディカル,0
843,3290805009543,新規,0,2022-04-20,2022-04-20,特定非営利活動法人晄煌会,,その他の設立登記法人,福岡県,中間市,蓮花寺３丁目１－３,,40,215,8090014,,,,,,,2022-04-20,1,,,,,コウコウカイ,0
846,3310003004336,新規,0,2022-04-20,2022-04-20,合同会社ソレヴァンテ,,合同会社,長崎県,長崎市,西出津町３５７番地,,42,201,8512322,,,,,,,2022-04-20,1,,,,,ソレヴァンテ,0
855,3350001017708,新規,0,2022-04-20,2022-04-20,株式会社ＢＬＯＯＭ,,株式会社,宮崎県,宮崎市,大塚町池ノ内１１２３番地４,,45,201,8800951,,,,,,,2022-04-20,1,,,,,ブルーム,0
858,3360001030271,新規,0,2022-04-20,2022-04-20,フォントリップテクノロジージャパン株式会社,,株式会社,沖縄県,那覇市,久米２丁目３－１５ＣＯＩ那覇ビル５階,,47,201,9000033,,,,,,,2022-04-20,1,,,,,フォントリップテクノロジージャパン,0
859,3360001030305,新規,0,2022-04-20,2022-04-20,株式会社池間製氷,,株式会社,沖縄県,中頭郡嘉手納町,字水釜３８８番地２,,47,325,9040204,,,,,,,2022-04-20,1,,,,,イケマセイヒョウ,0
860,3360001030338,新規,0,2022-04-20,2022-04-20,株式会社Ｅ＆Ａ,,株式会社,沖縄県,那覇市,字国場６８６－１,,47,201,9020075,,,,,,,2022-04-20,1,,,,,イーアンドエー,0
866,3370001048486,新規,0,2022-04-20,2022-04-20,株式会社トライデント・ラボ,,株式会社,宮城県,気仙沼市,港町５０６番１２号,,04,205,9880021,,,,,,,2022-04-20,1,,,,,トライデントラボ,0
871,3380001032761,新規,0,2022-04-20,2022-04-20,株式会社義和工業,,株式会社,福島県,福島市,松川町字南下原２５番地の１,,07,201,9601241,,,,,,,2022-04-20,1,,,,,ギワコウギョウ,0
873,3390005008955,新規,0,2022-04-20,2022-04-20,特定非営利活動法人クローバーの会アットやまがた,,その他の設立登記法人,山形県,山形市,南原町１丁目２７番２０号,,06,201,9902413,,,,,,,2022-04-20,1,,,,,クローバーノカイアットヤマガタ,0
878,3410001013171,新規,0,2022-04-20,2022-04-20,株式会社ムネヒロ,,株式会社,秋田県,秋田市,新屋田尻沢西町９番２３号ハウスアローザ１０１号,,05,201,0101645,,,,,,,2022-04-20,1,,,,,ムネヒロ,0
886,3430005014453,新規,0,2022-04-20,2022-04-20,特定非営利活動法人ＴｏｍｏｒｉＢｉ,,その他の設立登記法人,北海道,伊達市,大滝区優徳町６－４ジビエ＆コミュニティカフェ　シカトモ,,01,233,0520317,,,,,,,2022-04-20,1,,,,,トモリビ,0
888,3440001009068,新規,0,2022-04-20,2022-04-20,株式会社アキラ設備,,株式会社,北海道,瀬棚郡今金町,字今金３１８番地３８,,01,370,0494308,,,,,,,2022-04-20,1,,,,,アキラセツビ,0
909,4010001225806,新規,0,2022-04-20,2022-04-20,株式会社ｐｉｐｉｐｉ,,株式会社,東京都,中央区,銀座１丁目２２番１１号２階,,13,102,1040061,,,,,,,2022-04-20,1,,,,,ピィピィピィ,0
910,4010001225814,新規,0,2022-04-20,2022-04-20,株式会社ＸＥＮＯＶＡ,,株式会社,東京都,中央区,銀座６丁目１３番１６号銀座ＷａｌｌビルＵＣＦ５階,,13,102,1040061,,,,,,,2022-04-20,1,,,,,ゼノヴァ,0
911,4010001225888,新規,0,2022-04-20,2022-04-20,セキュレックス株式会社,,株式会社,東京都,千代田区,麹町４丁目５番地１０麹町アネックス３０３,,13,101,1020083,,,,,,,2022-04-20,1,,,,,セキュレックス,0
912,4010001225995,新規,0,2022-04-20,2022-04-20,株式会社ＨＥＰＴＩＮＳＩＧＨＴ,,株式会社,東京都,中央区,東日本橋２丁目２８番５号５０８,,13,102,1030004,,,,,,,2022-04-20,1,,,,,ヘプチンサイト,0
913,4010003037464,新規,0,2022-04-20,2022-04-20,ブルーゴールド合同会社,,合同会社,東京都,中央区,湊２丁目１５番１４号,,13,102,1040043,,,,,,,2022-04-20,1,,,,,ブルーゴールド,0
924,4010401166633,新規,0,2022-04-20,2022-04-20,ＴＲＮシティパートナーズ株式会社,,株式会社,東京都,港区,海岸１丁目２番３号,,13,103,1050022,,,,,,,2022-04-20,1,,,,,ティーアールエヌシティパートナーズ,0
925,4010401166757,新規,0,2022-04-20,2022-04-20,株式会社ＬＩＫＥＹ　ＥＮＴＥＲＴＡＩＮＭＥＮＴ,,株式会社,東京都,港区,六本木７丁目２１番７号,,13,103,1060032,,,,,,,2022-04-20,1,,,,,ライキーエンターテインメント,0
926,4010401166906,新規,0,2022-04-20,2022-04-20,Ｃｏｎｆｉａｎｃｅ株式会社,,株式会社,東京都,港区,南青山２丁目２番１５号,,13,103,1070062,,,,,,,2022-04-20,1,,,,,コンフィアンス,0
927,4010401166939,新規,0,2022-04-20,2022-04-20,株式会社ＳＴＵＭＰ,,株式会社,東京都,港区,南青山６丁目５番４５号,,13,103,1070062,,,,,,,2022-04-20,1,,,,,スタンプ,0
937,4010601061007,新規,0,2022-04-20,2022-04-20,日本旅游指南株式会社,,株式会社,東京都,墨田区,押上１丁目１５番２号,,13,107,1310045,,,,,,,2022-04-20,1,,,,,ニホンリョコウシナン,0
938,4010601061048,新規,0,2022-04-20,2022-04-20,ライブリーシステムズ株式会社,,株式会社,東京都,江東区,海辺１５－５錦糸町住吉オフィス２０６,,13,108,1350012,,,,,,,2022-04-20,1,,,,,ライブリーシステムズ,0
943,4010701042534,新規,0,2022-04-20,2022-04-20,株式会社ジャパンダイニング,,株式会社,東京都,品川区,北品川１丁目１２番１０号ジャコムビル６階,,13,109,1400001,,,,,,,2022-04-20,1,,,,,ジャパンダイニング,0
944,4010701042542,新規,0,2022-04-20,2022-04-20,峻川商事株式会社,,株式会社,東京都,品川区,西五反田７丁目２２番１７号,,13,109,1410031,,,,,,,2022-04-20,1,,,,,シュンカワショウジ,0
945,4010703006198,新規,0,2022-04-20,2022-04-20,盛岡市大ケ生太陽光発電合同会社,,合同会社,東京都,品川区,東品川２丁目３番１４号,,13,109,1400002,,,,,,,2022-04-20,1,,,,,モリオカシオオガユウタイヨウコウハツデン,0
952,4010901050741,新規,0,2022-04-20,2022-04-20,株式会社ｅｖｅｒｔｓ　ｎｉｎｅ,,株式会社,東京都,世田谷区,奥沢１丁目６４番７号バンタジオ１０２,,13,112,1580083,,,,,,,2022-04-20,1,,,,,エバーツナイン,0
956,4011001147049,新規,0,2022-04-20,2022-04-20,株式会社ｍｉｊｉｃａ,,株式会社,東京都,目黒区,下目黒３丁目１５－９ＬａＳｅｍｉｎａ目黒不動２０２号室,,13,110,1530064,,,,,,,2022-04-20,1,,,,,ミヂカ,0
957,4011001147081,新規,0,2022-04-20,2022-04-20,株式会社ワイン・ラ・ターブル,,株式会社,東京都,渋谷区,神泉町７番６号,,13,113,1500045,,,,,,,2022-04-20,1,,,,,ワインラターブル,0
965,4011101098555,新規,0,2022-04-20,2022-04-20,ａｎｙＸ株式会社,,株式会社,東京都,新宿区,西新宿３丁目３－１３,,13,104,1600023,,,,,,,2022-04-20,1,,,,,エニクス,0
966,4011103011672,新規,0,2022-04-20,2022-04-20,合同会社ＲＥＥ,,合同会社,東京都,新宿区,西新宿３丁目３―１３西新宿水間ビル６階,,13,104,1600023,,,,,,,2022-04-20,1,,,,,リー,0
967,4011103011680,新規,0,2022-04-20,2022-04-20,合同会社トマホーク,,合同会社,東京都,新宿区,歌舞伎町２丁目４１番地５号小泉ビル３０２,,13,104,1600021,,,,,,,2022-04-20,1,,,,,トマホーク,0
968,4011103011689,新規,0,2022-04-20,2022-04-20,合同会社ＶａｎｔａｇｅＰｏｉｎｔ,,合同会社,東京都,新宿区,西新宿３丁目７番２６号ハイネスロワイヤル６０５,,13,104,1600023,,,,,,,2022-04-20,1,,,,,バンテージポイント,0
973,4011501027956,新規,0,2022-04-20,2022-04-20,株式会社エンパス,,株式会社,東京都,荒川区,西日暮里２丁目４７番４－９０１号,,13,118,1160013,,,,,,,2022-04-20,1,,,,,エンパス,0
981,4011703003111,新規,0,2022-04-20,2022-04-20,ＲＥＩＦＡ　ＪＡＰＡＮ合同会社,,合同会社,東京都,江戸川区,松江４丁目８番７号松風荘１０１,,13,123,1320025,,,,,,,2022-04-20,1,,,,,リーファジャパン,0
982,4012305002006,新規,0,2022-04-20,2022-04-20,一般社団法人町田山崎育英会,,その他の設立登記法人,東京都,町田市,木曽東２丁目１１番４３－５０３号,,13,209,1940036,,,,,,,2022-04-20,1,,,,,マチダヤマサキイクエイカイ,0
984,4012401039109,新規,0,2022-04-20,2022-04-20,株式会社ねぎデ,,株式会社,東京都,武蔵野市,吉祥寺本町２丁目３３番２－２０５号,,13,203,1800004,,,,,,,2022-04-20,1,,,,,ネギデ,0
993,4013301048991,新規,0,2022-04-20,2022-04-20,株式会社ＢＥ　Ｍｅｓｓｅｎｇｅｒ,,株式会社,東京都,豊島区,東池袋２丁目１番３号,,13,116,1700013,,,,,,,2022-04-20,1,,,,,ビーメッセンジャー,0
997,4020001146167,新規,0,2022-04-20,2022-04-20,ＩＤＲＥＣＯ　Ｊａｐａｎ株式会社,,株式会社,神奈川県,横浜市中区,山下町２番地産業貿易センタービル２階,,14,104,2310023,,,,,,,2022-04-20,1,,,,,イドレコジャパン,0
998,4020001146191,新規,0,2022-04-20,2022-04-20,株式会社ＮＡＮＯＴＥＣ,,株式会社,神奈川県,横浜市中区,初音町２丁目３０番地３,,14,104,2310053,,,,,,,2022-04-20,1,,,,,ナノテック,0
999,4020001146200,新規,0,2022-04-20,2022-04-20,株式会社ＣＨＲＯＭＧＲＡＰＨ,,株式会社,神奈川県,川崎市中原区,上小田中６丁目１４番２３号,,14,133,2110053,,,,,,,2022-04-20,1,,,,,クロムグラフ,0
1008,4021001075752,新規,0,2022-04-20,2022-04-20,株式会社ＲＡＲＥ,,株式会社,神奈川県,相模原市緑区,川尻１７０６番地５,,14,151,2520111,,,,,,,2022-04-20,1,,,,,レア,0
1012,4030001147791,新規,0,2022-04-20,2022-04-20,株式会社ＩＮＧ,,株式会社,埼玉県,東松山市,五領町１２番地８９パークタウン五領第８団地３号棟１０４号室,,11,212,3550031,,,,,,,2022-04-20,1,,,,,イング,0
1013,4030001147817,新規,0,2022-04-20,2022-04-20,株式会社ＫＩＮＧ．Ｇｒｏｕｐ,,株式会社,埼玉県,さいたま市南区,鹿手袋７丁目１４番３４－１号パルコンマックス２０２,,11,108,3360031,,,,,,,2022-04-20,1,,,,,キンググループ,0
1014,4030001147833,新規,0,2022-04-20,2022-04-20,株式会社ファイブイズファーム,,株式会社,埼玉県,行田市,持田３丁目２番１７号,,11,206,3610056,,,,,,,2022-04-20,1,,,,,ファイブイズファーム,0
1016,4030003019246,新規,0,2022-04-20,2022-04-20,合同会社ＡＭＳシューティング・ラボ,,合同会社,埼玉県,所沢市,東狭山ケ丘６丁目２８００番地の１８,,11,208,3591106,,,,,,,2022-04-20,1,,,,,エーエムエスシューティングラボ,0
1017,4030003019254,新規,0,2022-04-20,2022-04-20,合同会社ｂｏｎｏ　ｔｒｕｓｔ,,合同会社,埼玉県,さいたま市南区,曲本３丁目４番１４号,,11,108,3360033,,,,,,,2022-04-20,1,,,,,ボノトラスト,0
1018,4030003019270,新規,0,2022-04-20,2022-04-20,合同会社ＰＨＯＮＥＣＡＢＬＥ製作所,,合同会社,埼玉県,加須市,花崎１丁目３４番地３中山パレスＢ－１－２,,11,210,3470032,,,,,,,2022-04-20,1,,,,,フォンケーブルセイサクショ,0
1021,4040001123049,新規,0,2022-04-20,2022-04-20,株式会社クランツ,,株式会社,千葉県,柏市,小青田３丁目１番地６シャリエ柏たなかステーションヴィラ３１１号,,12,217,2770803,,,,,,,2022-04-20,1,,,,,クランツ,0
1022,4040001123098,新規,0,2022-04-20,2022-04-20,株式会社安藤タイル工業,,株式会社,千葉県,館山市,安東１３３番地１０,,12,205,2940005,,,,,,,2022-04-20,1,,,,,アンドウタイルコウギョウ,0
1023,4040001123115,新規,0,2022-04-20,2022-04-20,株式会社グアムゴルフカンパニー,,株式会社,千葉県,いすみ市,岬町椎木４５７番地４,,12,238,2994501,,,,,,,2022-04-20,1,,,,,グアムゴルフカンパニー,0
1032,4060001034789,新規,0,2022-04-20,2022-04-20,株式会社Ｙ２Ｍ,,株式会社,栃木県,宇都宮市,江野町７番８号堺屋ビル１階,,09,201,3200802,,,,,,,2022-04-20,1,,,,,ワイツーエム,0
1033,4060003004039,新規,0,2022-04-20,2022-04-20,韮桜合同会社,,合同会社,栃木県,栃木市,西方町真名子１２４３―１,,09,203,3220605,,,,,,,2022-04-20,1,,,,,ニラオウ,0
1034,4060003004047,新規,0,2022-04-20,2022-04-20,合同会社ＭＲＹ,,合同会社,栃木県,日光市,下鉢石町９５２－３,,09,206,3211403,,,,,,,2022-04-20,1,,,,,エムアールワイ,0
1044,4090001017535,新規,0,2022-04-20,2022-04-20,フジ龍藤株式会社,,株式会社,山梨県,笛吹市,石和町松本９７０番地１,,19,211,4060021,,,,,,,2022-04-20,1,,,,,フジリュウトウ,0
1045,4100001035270,新規,0,2022-04-20,2022-04-20,株式会社觜梟,,株式会社,長野県,諏訪郡富士見町,立沢１番地４９６,,20,362,3990212,,,,,,,2022-04-20,1,,,,,シズク,0
1064,4120001245396,新規,0,2022-04-20,2022-04-20,株式会社Ｔ’ｓコンサルティング,,株式会社,大阪府,大阪市東住吉区,杭全７丁目８番２５号,,27,121,5460002,,,,,,,2022-04-20,1,,,,,ティーズコンサルティング,0
1066,4120003021498,新規,0,2022-04-20,2022-04-20,合同会社トミテツ,,合同会社,大阪府,大阪市北区,池田町３－２１ぷららてんま２７０７,,27,127,5300033,,,,,,,2022-04-20,1,,,,,トミテツ,0
1068,4120101065422,新規,0,2022-04-20,2022-04-20,株式会社ＤＡＩＳＨＯ,,株式会社,大阪府,堺市堺区,砂道町１丁１２番１７号,,27,141,5900002,,,,,,,2022-04-20,1,,,,,ダイショウ,0
1069,4120101065430,新規,0,2022-04-20,2022-04-20,株式会社たつ,,株式会社,大阪府,岸和田市,小松里町２３０５番地ハイツ小松里４０２号,,27,202,5960821,,,,,,,2022-04-20,1,,,,,タツ,0
1070,4120101065439,新規,0,2022-04-20,2022-04-20,エストラスト株式会社,,株式会社,大阪府,堺市西区,草部７６４番地７,,27,144,5938312,,,,,,,2022-04-20,1,,,,,エストラスト,0
1072,4120103004667,新規,0,2022-04-20,2022-04-20,合同会社エム・ケー,,合同会社,大阪府,泉大津市,助松町２丁目１０番７号,,27,206,5950071,,,,,,,2022-04-20,1,,,,,エムケー,0
1075,4120903004123,新規,0,2022-04-20,2022-04-20,合同会社ベニッシモ,,合同会社,大阪府,吹田市,内本町３丁目３４番２６号,,27,205,5640032,,,,,,,2022-04-20,1,,,,,ベニッシモ,0
1076,4120905006308,新規,0,2022-04-20,2022-04-20,特定非営利活動法人ネスル,,その他の設立登記法人,大阪府,池田市,石橋２丁目１２番１１号,,27,204,5630032,,,,,,,2022-04-20,1,,,,,ネスル,0
1080,4130001071577,新規,0,2022-04-20,2022-04-20,ともサポート株式会社,,株式会社,京都府,京都市下京区,朱雀宝蔵町４４番地協栄ビル２階京都朱雀スタジオ,,26,106,6008846,,,,,,,2022-04-20,1,,,,,トモサポート,0
1081,4130001071585,新規,0,2022-04-20,2022-04-20,株式会社Ｎｅｘｔ　Ａｉｒ,,株式会社,京都府,京都市左京区,北白川東平井町２３番地１グリーンヒル北白川１０３,,26,103,6068244,,,,,,,2022-04-20,1,,,,,ネクストエアー,0
1082,4130001071593,新規,0,2022-04-20,2022-04-20,株式会社Ｉ．Ｓ．Ｐ警備保障,,株式会社,京都府,京都市伏見区,醍醐高畑町２９－３リバービル３０１号室,,26,109,6011375,,,,,,,2022-04-20,1,,,,,アイエスピーケイビホショウ,0
1083,4130001071602,新規,0,2022-04-20,2022-04-20,辻創株式会社,00126350,株式会社,京都府,宇治市,伊勢田町砂田１１０番地の５,,26,204,6110043,,,,,,,2022-04-20,1,,,,,ツジソウ,0
1086,4130003007884,新規,0,2022-04-20,2022-04-20,合同会社ＬＯＣＡＬ　ＨＯＰＥ,,合同会社,京都府,舞鶴市,字堀２７３番地,,26,202,6240812,,,,,,,2022-04-20,1,,,,,ローカルホープ,0
1087,4130003007892,新規,0,2022-04-20,2022-04-20,合同会社日中商会,,合同会社,京都府,京都市山科区,栗栖野打越町８番地３６,,26,110,6078203,,,,,,,2022-04-20,1,,,,,ニッチュウショウカイ,0
1096,4140001125704,新規,0,2022-04-20,2022-04-20,株式会社ＬＯＫＫＩ,,株式会社,兵庫県,神戸市北区,鳴子１丁目５番地の９,,28,109,6511133,,,,,,,2022-04-20,1,,,,,ロッキ,0
1097,4140001125712,新規,0,2022-04-20,2022-04-20,株式会社プロテクト,,株式会社,兵庫県,加古郡播磨町,二子２６９番地５シャトリエＣ号室,,28,382,6750162,,,,,,,2022-04-20,1,,,,,プロテクト,0
1099,4140003017602,新規,0,2022-04-20,2022-04-20,合同会社やさしい里,,合同会社,兵庫県,加古川市,加古川町稲屋３０２番地の９,,28,210,6750034,,,,,,,2022-04-20,1,,,,,ヤサシイサト,0
1101,4150001025481,新規,0,2022-04-20,2022-04-20,株式会社つなぐ・絆,,株式会社,奈良県,奈良市,杏町５８３番地１,,29,201,6308454,,,,,,,2022-04-20,1,,,,,ツナグキズナ,0
1102,4160001024136,新規,0,2022-04-20,2022-04-20,株式会社Ｃ橘,,株式会社,滋賀県,湖南市,石部西１丁目９番１６号,,25,211,5203105,,,,,,,2022-04-20,1,,,,,シータチバナ,0
1104,4170001017064,新規,0,2022-04-20,2022-04-20,森本マーク株式会社,,株式会社,和歌山県,和歌山市,坊主丁８番地,,30,201,6408375,,,,,,,2022-04-20,1,,,,,モリモトマーク,0
1113,4180001150987,新規,0,2022-04-20,2022-04-20,ｅｍｉｅｍｉ株式会社,,株式会社,愛知県,名古屋市千種区,春岡通７丁目５番地,,23,101,4640847,,,,,,,2022-04-20,1,,,,,エミエミ,0
1117,4180003023720,新規,0,2022-04-20,2022-04-20,合同会社ＴＵＧＲＡ,,合同会社,愛知県,北名古屋市,六ツ師宮西１４５番地,,23,234,4810001,,,,,,,2022-04-20,1,,,,,トゥーラ,0
1122,4190001029347,新規,0,2022-04-20,2022-04-20,株式会社Ｋｕｒｏｋｏ,,株式会社,三重県,度会郡玉城町,日向１８３番３号,,24,461,5190405,,,,,,,2022-04-20,1,,,,,クロコ,0
1126,4210001018891,新規,0,2022-04-20,2022-04-20,株式会社脳力開発ｌａｂｏサトリ,,株式会社,福井県,大飯郡高浜町,若宮第４号３５番地２,,18,481,9192227,,,,,,,2022-04-20,1,,,,,ノウリョクカイハツラボサトリ,0
1129,4230001019327,新規,0,2022-04-20,2022-04-20,株式会社Ｅ‐Ｍｏｔｉｏｎ,,株式会社,富山県,高岡市,戸出大清水６５番地,,16,202,9391117,,,,,,,2022-04-20,1,,,,,,0
1137,4260001036773,新規,0,2022-04-20,2022-04-20,ＴＯＮＤＥＲＵ株式会社,,株式会社,岡山県,岡山市北区,南方４丁目８番７号４ＭＣビル２０２,,33,101,7000807,,,,,,,2022-04-20,1,,,,,,0
1146,4290001097268,新規,0,2022-04-20,2022-04-20,株式会社ファストカット,,株式会社,福岡県,福岡市早良区,原７丁目１４番３５号,,40,137,8140022,,,,,,,2022-04-20,1,,,,,ファストカット,0
1148,4290801028455,新規,0,2022-04-20,2022-04-20,株式会社ツネホーム,,株式会社,福岡県,豊前市,大字大西１０２３番地３,,40,214,8280064,,,,,,,2022-04-20,1,,,,,ツネホーム,0
1152,4290803004108,新規,0,2022-04-20,2022-04-20,合同会社元気村,,合同会社,福岡県,京都郡苅田町,大字葛川３６７番地,,40,621,8000338,,,,,,,2022-04-20,1,,,,,ゲンキムラ,0
1153,4310003004335,新規,0,2022-04-20,2022-04-20,スマートシティコンサルティング合同会社,,合同会社,長崎県,長崎市,大手２丁目１－３６　１号,,42,201,8528127,,,,,,,2022-04-20,1,,,,,スマートシティコンサルティング,0
1155,4320003003781,新規,0,2022-04-20,2022-04-20,合同会社ワンエイト,,合同会社,大分県,大分市,大字森６７９－７,,44,201,8700128,,,,,,,2022-04-20,1,,,,,ワンエイト,0
1160,4340001024662,新規,0,2022-04-20,2022-04-20,株式会社たいら,,株式会社,鹿児島県,奄美市,名瀬塩浜町５番２１号,,46,222,8940035,,,,,,,2022-04-20,1,,,,,タイラ,0
1161,4340001024670,新規,0,2022-04-20,2022-04-20,株式会社林業丸亀,,株式会社,鹿児島県,曽於市,末吉町諏訪方８３３７番地１,,46,217,8998604,,,,,,,2022-04-20,1,,,,,リンギョウマルガメ,0
1167,4360001030287,新規,0,2022-04-20,2022-04-20,株式会社サンアール,,株式会社,沖縄県,浦添市,城間３丁目１２番１３号サンコートＮ１０１号,,47,208,9012133,,,,,,,2022-04-20,1,,,,,,0
1168,4360003011954,新規,0,2022-04-20,2022-04-20,アールケイ建装合同会社,,合同会社,沖縄県,浦添市,字経塚６９１番地カサ・デ・ソル１０２,,47,208,9012111,,,,,,,2022-04-20,1,,,,,,0
1169,4370001048469,新規,0,2022-04-20,2022-04-20,みなも株式会社,,株式会社,宮城県,仙台市青葉区,愛子東４丁目２２番３号,,04,101,9893127,,,,,,,2022-04-20,1,,,,,ミナモ,0
1170,4370001048485,新規,0,2022-04-20,2022-04-20,株式会社タクワーク,,株式会社,宮城県,仙台市泉区,向陽台３丁目１８番７号,,04,105,9813102,,,,,,,2022-04-20,1,,,,,タクワーク,0
1178,4400001015861,新規,0,2022-04-20,2022-04-20,株式会社三樹林業,,株式会社,岩手県,胆沢郡金ケ崎町,六原東町５０番地７６,,03,381,0294501,,,,,,,2022-04-20,1,,,,,ミキリンギョウ,0
1180,4410001013170,新規,0,2022-04-20,2022-04-20,株式会社ファームＭ,,株式会社,秋田県,秋田市,下北手松崎字家ノ前７８番地コンフォートＤＥＮ　Ｄ号,,05,201,0100051,,,,,,,2022-04-20,1,,,,,ファームエム,0
1181,4420003002501,新規,0,2022-04-20,2022-04-20,合同会社エイトブリッジ,,合同会社,青森県,北津軽郡鶴田町,大字強巻字押上２２番地,,02,384,0383502,,,,,,,2022-04-20,1,,,,,エイトブリッジ,0
1182,4420005007804,新規,0,2022-04-20,2022-04-20,医療法人東厚会,,その他の設立登記法人,青森県,三沢市,中央町４丁目３番１９号,,02,207,0330001,,,,,,,2022-04-20,1,,,,,トウコウカイ,0
1192,4440001009067,新規,0,2022-04-20,2022-04-20,株式会社山本重機施工,,株式会社,北海道,亀田郡七飯町,大中山４丁目２１番１１号,,01,337,0411121,,,,,,,2022-04-20,1,,,,,ヤマモトジュウキセコウ,0
1195,4500001024159,新規,0,2022-04-20,2022-04-20,株式会社三和計装,,株式会社,愛媛県,新居浜市,八幡１丁目２１番２５号,,38,205,7920871,,,,,,,2022-04-20,1,,,,,サンワケイソウ,0
1197,4700150107710,新規,0,2022-04-20,2022-04-06,にはたづみコンサート実行委員会,,その他,埼玉県,戸田市,上戸田２丁目７－１４－５０３,,11,224,3350022,,,,,,,2022-04-06,1,,,,,ニハタヅミコンサートジツコウイインカイ,0
1198,4700150107801,新規,0,2022-04-20,2022-04-11,栃木県立リハビリテーションセンター職員労働組合,,その他,栃木県,宇都宮市,駒生町３３３７－１,,09,201,3200065,,,,,,,2022-04-11,1,,,,,トチギケンリツリハビリテーシヨンセンターシヨクインロウドウクミアイ,0
1205,5010001225879,新規,0,2022-04-20,2022-04-20,エムワイヘルスケア株式会社,,株式会社,東京都,中央区,佃２丁目１２番１－３０２号,,13,102,1040051,,,,,,,2022-04-20,1,,,,,エムワイヘルスケア,0
1213,5010401166938,新規,0,2022-04-20,2022-04-20,株式会社Ｔｅｒａｓｓ　Ｄｉｇｉｔａｌ　Ｃａｐｉｔａｌ,,株式会社,東京都,港区,虎ノ門１丁目１７番１号虎ノ門ヒルズビジネスタワー,,13,103,1050001,,,,,,,2022-04-20,1,,,,,テラスデジタルキャピタル,0
1214,5010401166979,新規,0,2022-04-20,2022-04-20,株式会社アセッツグロース,,株式会社,東京都,港区,高輪３丁目１０番２号グラスプラス高輪,,13,103,1080074,,,,,,,2022-04-20,1,,,,,アセッツグロース,0
1222,5010701042541,新規,0,2022-04-20,2022-04-20,麦酒百貨店株式会社,,株式会社,東京都,品川区,大崎５丁目８番５号,,13,109,1410032,,,,,,,2022-04-20,1,,,,,バクシュヒャッカテン,0
1223,5010703006197,新規,0,2022-04-20,2022-04-20,合同会社グランエル,,合同会社,東京都,品川区,西大井１丁目１番２－２６０７号,,13,109,1400015,,,,,,,2022-04-20,1,,,,,グランエル,0
1224,5010803004142,新規,0,2022-04-20,2022-04-20,合同会社晴れ企画,,合同会社,東京都,大田区,田園調布５丁目３番１９号,,13,111,1450071,,,,,,,2022-04-20,1,,,,,ハレキカク,0
1226,5010901050724,新規,0,2022-04-20,2022-04-20,福井崇人株式会社,,株式会社,東京都,世田谷区,桜丘３丁目２２番１４号,,13,112,1560054,,,,,,,2022-04-20,1,,,,,フクイタカシ,0
1229,5011001147023,新規,0,2022-04-20,2022-04-20,Ｄ．Ａ．Ｔ．Ｄ株式会社,,株式会社,東京都,渋谷区,広尾５丁目１９番１１号マリオン広尾ビル３階,,13,113,1500012,,,,,,,2022-04-20,1,,,,,ディーエーティーディー,0
1232,5011101098562,新規,0,2022-04-20,2022-04-20,株式会社ｃｌｏｔｈｉｎｇ　ｆｏｒｅｓｔ,,株式会社,東京都,新宿区,新宿１丁目４番１３号,,13,104,1600022,,,,,,,2022-04-20,1,,,,,クロージングフォレスト,0
1233,5011101098579,新規,0,2022-04-20,2022-04-20,株式会社メディケアヘルス,,株式会社,東京都,新宿区,西新宿６丁目１５番１号第２４１５号室,,13,104,1600023,,,,,,,2022-04-20,1,,,,,メディケアヘルス,0
1234,5011101098595,新規,0,2022-04-20,2022-04-20,ＭＩホールディングス株式会社,,株式会社,東京都,新宿区,新宿６丁目２９番３号新宿桑原ビル６階,,13,104,1600022,,,,,,,2022-04-20,1,,,,,エムアイホールディングス,0
1235,5011103011688,新規,0,2022-04-20,2022-04-20,ＫＡＩＣ合同会社,,合同会社,東京都,新宿区,西新宿３丁目３番１３号西新宿水間ビル６階,,13,104,1600023,,,,,,,2022-04-20,1,,,,,ケーエーアイシー,0
1240,5011301027726,新規,0,2022-04-20,2022-04-20,日本ＬＩＧ株式会社,,株式会社,東京都,杉並区,和泉１丁目３３番１８号レキシントンスクエア代田橋５０２号室,,13,115,1680063,,,,,,,2022-04-20,1,,,,,ニホンエルアイジー,0
1242,5011403003633,新規,0,2022-04-20,2022-04-20,Ｄｏｏｌ合同会社,,合同会社,東京都,板橋区,舟渡１丁目１－２２キャッスルヒル浮間舟渡２０４,,13,119,1740041,,,,,,,2022-04-20,1,,,,,ドゥール,0
1247,5012701017028,新規,0,2022-04-20,2022-04-20,ＨＩＴＯｗＡコネクト株式会社,,株式会社,東京都,東村山市,久米川町１丁目５４番地６５,,13,213,1890003,,,,,,,2022-04-20,1,,,,,ヒトワコネクト,0
1248,5012805003114,新規,0,2022-04-20,2022-04-20,一般社団法人武蔵村山市体育協会,,その他の設立登記法人,東京都,武蔵村山市,本町１丁目１９番地の５,,13,223,2080004,,,,,,,2022-04-20,1,,,,,ムサシムラヤマシタイイクキョウカイ,0
1259,5020001146174,新規,0,2022-04-20,2022-04-20,株式会社ウィズメディカ,,株式会社,神奈川県,横浜市青葉区,新石川１丁目９番地３北芝ビル４階,,14,117,2250003,,,,,,,2022-04-20,1,,,,,ウィズメディカ,0
1260,5020001146190,新規,0,2022-04-20,2022-04-20,京誠株式会社,,株式会社,神奈川県,横浜市鶴見区,豊岡町２番２号ツルミフーガ２－４０５号室,,14,101,2300062,,,,,,,2022-04-20,1,,,,,キョウセイ,0
1261,5020001146208,新規,0,2022-04-20,2022-04-20,株式会社新貝経営研究所,,株式会社,神奈川県,川崎市麻生区,向原３丁目１７番８号,,14,137,2150007,,,,,,,2022-04-20,1,,,,,シンガイケイエイケンキュウショ,0
1266,5021001075702,新規,0,2022-04-20,2022-04-20,株式会社ＴＡＴＥＴＯＹＯＫＯ,,株式会社,神奈川県,厚木市,上荻野５６９９,,14,212,2430201,,,,,,,2022-04-20,1,,,,,タテトヨコ,0
1267,5021001075751,新規,0,2022-04-20,2022-04-20,湘南住マイルデザイン株式会社,,株式会社,神奈川県,藤沢市,辻堂太平台２丁目１番５０号,,14,205,2510044,,,,,,,2022-04-20,1,,,,,ショウナンスマイルデザイン,0
1268,5021001075768,新規,0,2022-04-20,2022-04-20,株式会社モガミ,,株式会社,神奈川県,三浦郡葉山町,堀内１３８７番地の１５,,14,301,2400112,,,,,,,2022-04-20,1,,,,,モガミ,0
1280,5030001147683,新規,0,2022-04-20,2022-04-20,株式会社渡辺興業,,株式会社,埼玉県,吉川市,吉川２丁目３０番地４,,11,243,3420055,,,,,,,2022-04-20,1,,,,,ワタナベコウギョウ,0
1281,5030001147790,新規,0,2022-04-20,2022-04-20,株式会社根津電気,,株式会社,埼玉県,川口市,大字安行慈林３００番地の３５,,11,203,3340071,,,,,,,2022-04-20,1,,,,,ネヅデンキ,0
1282,5030001147799,新規,0,2022-04-20,2022-04-20,株式会社一成コーポレーション,,株式会社,埼玉県,川口市,新井町１９番９－３０６号サウスコートエル,,11,203,3320005,,,,,,,2022-04-20,1,,,,,イッセイコーポレーション,0
1283,5030001147816,新規,0,2022-04-20,2022-04-20,Ｓｕｎ　Ｋ株式会社,,株式会社,埼玉県,戸田市,大字上戸田１１１番地の１サンマンション戸田９０６,,11,224,3350022,,,,,,,2022-04-20,1,,,,,サンケイ,0
1284,5030001147824,新規,0,2022-04-20,2022-04-20,株式会社ＥａｒｎｅＳ,,株式会社,埼玉県,ふじみ野市,ふじみ野２丁目１８番１３－４０２号,,11,245,3560050,,,,,,,2022-04-20,1,,,,,アーネス,0
1285,5030001147832,新規,0,2022-04-20,2022-04-20,株式会社Ｙ・Ｋドリーム,,株式会社,埼玉県,三郷市,早稲田２丁目５番１５号清水ビル３Ｆ,,11,237,3410018,,,,,,,2022-04-20,1,,,,,ワイケードリーム,0
1288,5030003019253,新規,0,2022-04-20,2022-04-20,合同会社ＭＳＳ,,合同会社,埼玉県,比企郡川島町,大字下大屋敷２９４番地,,11,346,3500144,,,,,,,2022-04-20,1,,,,,エムエスエス,0
1300,5060001034788,新規,0,2022-04-20,2022-04-20,ヤマゴ株式会社,,株式会社,栃木県,栃木市,片柳町２丁目３番７号,,09,203,3280053,,,,,,,2022-04-20,1,,,,,ヤマゴ,0
1304,5060003004046,新規,0,2022-04-20,2022-04-20,合同会社誠ガレージ,,合同会社,栃木県,宇都宮市,下田原２８６２－７６,,09,201,3210000,,,,,,,2022-04-20,1,,,,,マコトガレージ,0
1308,5080101023227,新規,0,2022-04-20,2022-04-20,株式会社ＭＡｎｅｔｗｏｒｋ,,株式会社,静岡県,沼津市,鳥谷３７０番地の２,,22,203,4100305,,,,,,,2022-04-20,1,,,,,エムエーネットワーク,0
1311,5080401025765,新規,0,2022-04-20,2022-04-20,１０Ｕホールディングス株式会社,,株式会社,静岡県,袋井市,山科３４１５番地の１,,22,216,4370066,,,,,,,2022-04-20,1,,,,,テンウホールディングス,0
1313,5090001017534,新規,0,2022-04-20,2022-04-20,株式会社ワンダームーン,,株式会社,山梨県,笛吹市,境川町石橋２０４１番地,,19,211,4060842,,,,,,,2022-04-20,1,,,,,ワンダームーン,0
1316,5110001036606,新規,0,2022-04-20,2022-04-20,株式会社リサイクル村上,,株式会社,新潟県,村上市,中津原字宮ノ台２２４番地１１,,15,212,9593928,,,,,,,2022-04-20,1,,,,,,0
1331,5120001244926,新規,0,2022-04-20,2022-04-20,ＪｐーＬｉｆｅ株式会社,,株式会社,大阪府,大阪市北区,中之島６丁目１番４５－４０１号,,27,127,5300005,,,,,,,2022-04-20,1,,,,,ジェーピーライフ,0
1332,5120001245313,新規,0,2022-04-20,2022-04-20,株式会社ＥＩＳＨＩＮ,,株式会社,大阪府,大阪市中央区,谷町５丁目２番４－２４０５号,,27,128,5400012,,,,,,,2022-04-20,1,,,,,エイシン,0
1333,5120001245370,新規,0,2022-04-20,2022-04-20,株式会社Ｗｅｌｌｎｅｓｓ　Ｇａｔｅ,,株式会社,大阪府,大阪市東淀川区,東中島１丁目１９番４号ルーシッドスクエア新大阪,,27,114,5330033,,,,,,,2022-04-20,1,,,,,ウェルネスゲート,0
1340,5120101065446,新規,0,2022-04-20,2022-04-20,株式会社ローカルサービス,,株式会社,大阪府,高石市,千代田５丁目１４番３号コーナンハウス,,27,225,5920005,,,,,,,2022-04-20,1,,,,,ローカルサービス,0
1342,5120103004666,新規,0,2022-04-20,2022-04-20,合同会社いざなぎ,,合同会社,大阪府,羽曳野市,伊賀１丁目３番６号,,27,222,5830876,,,,,,,2022-04-20,1,,,,,イザナギ,0
1343,5120901045861,新規,0,2022-04-20,2022-04-20,株式会社Ｎコンサルティング,,株式会社,大阪府,三島郡島本町,水無瀬２丁目８番１－３１３号,,27,301,6180014,,,,,,,2022-04-20,1,,,,,エヌコンサルティング,0
1344,5120901045878,新規,0,2022-04-20,2022-04-20,株式会社共伸,,株式会社,大阪府,吹田市,五月が丘北８番１３号１０３,,27,205,5650834,,,,,,,2022-04-20,1,,,,,キョウシン,0
1352,5130001071584,新規,0,2022-04-20,2022-04-20,株式会社医療情報研究所,,株式会社,京都府,京都市左京区,下鴨本町２０番地７,,26,103,6060862,,,,,,,2022-04-20,1,,,,,イリョウジョウホウケンキュウジョ,0
1353,5130001071592,新規,0,2022-04-20,2022-04-20,株式会社ダイ・コーポレーション,,株式会社,京都府,京都市右京区,花園寺ノ内町２４,,26,108,6168043,,,,,,,2022-04-20,1,,,,,ダイコーポレーション,0
1358,5130003007891,新規,0,2022-04-20,2022-04-20,パシフィックパートナーズ合同会社,,合同会社,京都府,京都市中京区,二条通高倉東入観音町７９番地井筒ハイム２０５,,26,104,6040821,,,,,,,2022-04-20,1,,,,,パシフィックパートナーズ,0
1366,5140001125703,新規,0,2022-04-20,2022-04-20,昌翔株式会社,,株式会社,兵庫県,神戸市中央区,坂口通７丁目２番７－１号,,28,110,6510062,,,,,,,2022-04-20,1,,,,,ショウショウ,0
1367,5140001125711,新規,0,2022-04-20,2022-04-20,ツインズ白石株式会社,,株式会社,兵庫県,神戸市北区,鹿の子台北町６丁目１２番４号,,28,109,6511513,,,,,,,2022-04-20,1,,,,,ツインズシライシ,0
1368,5140003017576,新規,0,2022-04-20,2022-04-20,Ｗａｌｌ　Ｅｓｔａｔｅ合同会社,,合同会社,兵庫県,神戸市中央区,中山手通１丁目２２番６号,,28,110,6500004,,,,,,,2022-04-20,1,,,,,,0
1369,5140003017601,新規,0,2022-04-20,2022-04-20,サンベルソン合同会社,,合同会社,兵庫県,尼崎市,東園田町８丁目８０番地の２０,,28,202,6610953,,,,,,,2022-04-20,1,,,,,サンベルソン,0
1371,5150001025480,新規,0,2022-04-20,2022-04-20,株式会社植田フラワー,,株式会社,奈良県,生駒郡平群町,光ケ丘１丁目１３番５号,,29,342,6360935,,,,,,,2022-04-20,1,,,,,ウエダフラワー,0
1376,5170001017063,新規,0,2022-04-20,2022-04-20,五川株式会社,,株式会社,和歌山県,和歌山市,栄谷９５９番地４３２,,30,201,6408441,,,,,,,2022-04-20,1,,,,,ゴカワ,0
1387,5180303005310,新規,0,2022-04-20,2022-04-20,我流フーズＪＡＰＡＮ合同会社,,合同会社,愛知県,蒲郡市,宝町５－１９宝ビル１Ｆ,,23,214,4430044,,,,,,,2022-04-20,1,,,,,ガリュウフーズジャパン,0
1388,5190001029346,新規,0,2022-04-20,2022-04-20,株式会社イシカワ,,株式会社,三重県,員弁郡東員町,大字山田３０５４番地,,24,324,5110251,,,,,,,2022-04-20,1,,,,,イシカワ,0
1392,5200005013336,新規,0,2022-04-20,2022-04-20,一般社団法人まちのごえん,,その他の設立登記法人,岐阜県,各務原市,各務おがせ町５丁目７５,,21,213,5090104,,,,,,,2022-04-20,1,,,,,マチノゴエン,0
1401,5240001059651,新規,0,2022-04-20,2022-04-20,株式会社ＨＡＰＲＯＴ,,株式会社,広島県,廿日市市,宮島口西２丁目７番１３－５号,,34,213,7390412,,,,,,,2022-04-20,1,,,,,ハプロット,0
1405,5250003003045,新規,0,2022-04-20,2022-04-20,合同会社ＭＳＴパソロジー,,合同会社,山口県,山陽小野田市,共和台７番８号,,35,216,7560011,,,,,,,2022-04-20,1,,,,,エムエスティーパソロジー,0
1411,5290001097250,新規,0,2022-04-20,2022-04-20,株式会社ＭＩＬＡＩＭ,,株式会社,福岡県,福岡市中央区,渡辺通３丁目１１－１０－Ｗ３－５０２号,,40,133,8100004,,,,,,,2022-04-20,1,,,,,ミライム,0
1412,5290001097259,新規,0,2022-04-20,2022-04-20,株式会社フタミセキュリティ,,株式会社,福岡県,福岡市早良区,飯倉７丁目２４番２６号,,40,137,8140161,,,,,,,2022-04-20,1,,,,,フタミセキュリティ,0
1414,5290801028454,新規,0,2022-04-20,2022-04-20,株式会社ｌｅ　ｍｏｎｄｅ,,株式会社,福岡県,北九州市小倉南区,南方５丁目１５番１８号,,40,107,8020976,,,,,,,2022-04-20,1,,,,,ルモンド,0
1415,5290801028462,新規,0,2022-04-20,2022-04-20,株式会社Ｆｉｎｅ,,株式会社,福岡県,北九州市小倉北区,昭和町１３番１３－３０１号,,40,106,8020075,,,,,,,2022-04-20,1,,,,,ファイン,0
1420,5290803004107,新規,0,2022-04-20,2022-04-20,合同会社トバタ,,合同会社,福岡県,北九州市戸畑区,福柳木１丁目１１番３３号,,40,105,8040025,,,,,,,2022-04-20,1,,,,,トバタ,0
1428,5340001024661,新規,0,2022-04-20,2022-04-20,株式会社明豊,,株式会社,鹿児島県,大島郡与論町,大字立長１５８９番地,,46,535,8919302,,,,,,,2022-04-20,1,,,,,メイホウ,0
1432,5360003011945,新規,0,2022-04-20,2022-04-20,合同会社与儀商会,,合同会社,沖縄県,那覇市,字大道１６１番地５,,47,201,9020066,,,,,,,2022-04-20,1,,,,,,0
1436,5370001048484,新規,0,2022-04-20,2022-04-20,株式会社トラストプラン,,株式会社,宮城県,仙台市青葉区,八幡１丁目１０番１７－４０６号,,04,101,9800871,,,,,,,2022-04-20,1,,,,,トラストプラン,0
1458,5430001086429,新規,0,2022-04-20,2022-04-20,株式会社ＴＲＳ,,株式会社,北海道,札幌市北区,新琴似九条３丁目１番２号,,01,102,0010909,,,,,,,2022-04-20,1,,,,,ティーアールエス,0
1459,5430001086461,新規,0,2022-04-20,2022-04-20,マシンテック片澤株式会社,,株式会社,北海道,札幌市中央区,南十九条西９丁目２番１号,,01,101,0640919,,,,,,,2022-04-20,1,,,,,マシンテックカタザワ,0
1460,5430001086486,新規,0,2022-04-20,2022-04-20,株式会社モントキアラ,,株式会社,北海道,札幌市南区,澄川六条４丁目１１番１－４０２号,,01,106,0050006,,,,,,,2022-04-20,1,,,,,モントキアラ,0
1462,5430005014451,新規,0,2022-04-20,2022-04-20,ＮＰＯ法人ＢＲＡＳＳ‐ＡＩＤ,,その他の設立登記法人,北海道,札幌市南区,澄川四条４丁目１０番５号,,01,106,0050004,,,,,,,2022-04-20,1,,,,,ブラスエイド,0
1467,5470001019046,新規,0,2022-04-20,2022-04-20,株式会社ゼロワン,,株式会社,香川県,高松市,木太町１９４６番地１０,,37,201,7600080,,,,,,,2022-04-20,1,,,,,ゼロワン,0
1468,5470003002173,新規,0,2022-04-20,2022-04-20,Ｓｅｌｆ‐ｍａｄｅ　ｆａｃｔｏｒｙ合同会社,,合同会社,香川県,高松市,香西北町５８０番地４,,37,201,7618011,,,,,,,2022-04-20,1,,,,,セルフメイドファクトリー,0
1469,5480001011712,新規,0,2022-04-20,2022-04-20,株式会社ＦＬＯＲＥＮ,,株式会社,徳島県,徳島市,南佐古六番町６番８－９号,,36,201,7700036,,,,,,,2022-04-20,1,,,,,フローレン,0
1471,5500001024158,新規,0,2022-04-20,2022-04-20,株式会社Ｂｌｉｓｓ,,株式会社,愛媛県,今治市,新谷甲７３３番地１,,38,202,7940850,,,,,,,2022-04-20,1,,,,,ブリス,0
1486,6010001225853,新規,0,2022-04-20,2022-04-20,株式会社ＩＭＤ商業企画研究所,,株式会社,東京都,千代田区,九段南１丁目５番６号りそな九段ビル５階ＫＳフロア,,13,101,1020074,,,,,,,2022-04-20,1,,,,,アイエムディショウギョウキカクケンキュウジョ,0
1487,6010001225903,新規,0,2022-04-20,2022-04-20,株式会社シンクウィズ会計事務所,,株式会社,東京都,文京区,西片２丁目１番４－２０１,,13,105,1130024,,,,,,,2022-04-20,1,,,,,シンクウィズカイケイジムショ,0
1488,6010001225936,新規,0,2022-04-20,2022-04-20,株式会社ミニミニＦｏｒ　Ｙｏｕ,,株式会社,東京都,千代田区,丸の内１丁目８番３号,,13,101,1000005,,,,,,,2022-04-20,1,,,,,ミニミニフォーユー,0
1500,6010401166937,新規,0,2022-04-20,2022-04-20,株式会社スコーレ,,株式会社,東京都,港区,南青山２丁目２番１５号,,13,103,1070062,,,,,,,2022-04-20,1,,,,,スコーレ,0
1501,6010401166978,新規,0,2022-04-20,2022-04-20,株式会社ＯＮＥ　ｔｏ　ＯＮＥ　Ｐｒｏｆｅｓｓｉｏｎａｌ,,株式会社,東京都,港区,高輪３丁目１１番８－１１０９号,,13,103,1080074,,,,,,,2022-04-20,1,,,,,ワントゥワンプロフェッショナル,0
1502,6010403027534,新規,0,2022-04-20,2022-04-20,ＣＲＥ海老名開発合同会社,,合同会社,東京都,港区,虎ノ門２丁目１０番１号株式会社シーアールイー内,,13,103,1050001,,,,,,,2022-04-20,1,,,,,シーアールイーエビナカイハツ,0
1505,6010701042540,新規,0,2022-04-20,2022-04-20,株式会社スキルプロジェクト,,株式会社,東京都,品川区,大井１丁目６番３号３階,,13,109,1400014,,,,,,,2022-04-20,1,,,,,スキルプロジェクト,0
1506,6010703006196,新規,0,2022-04-20,2022-04-20,合同会社ＬＡＣＴ,,合同会社,東京都,品川区,北品川１丁目２４番４号ディライトフルーＩＩ３０１,00126340,13,109,1400001,,,,,,,2022-04-20,1,,,,,ラクト,0
1510,6010801032904,新規,0,2022-04-20,2022-04-20,株式会社金具屋,,株式会社,東京都,大田区,矢口１丁目２１番１０号,,13,111,1460093,,,,,,,2022-04-20,1,,,,,カナグヤ,0
1514,6010901050723,新規,0,2022-04-20,2022-04-20,株式会社ｅ‐ｐｌｕｓ,,株式会社,東京都,世田谷区,玉川３丁目２０番２号マノア玉川第３ビル５０１号室,,13,112,1580094,,,,,,,2022-04-20,1,,,,,イープラス,0
1526,6011103011670,新規,0,2022-04-20,2022-04-20,文化ネット合同会社,,合同会社,東京都,新宿区,西新宿３丁目３番１３号西新宿水間ビル６階,,13,104,1600023,,,,,,,2022-04-20,1,,,,,ブンカネット,0
1527,6011201023774,新規,0,2022-04-20,2022-04-20,株式会社Ｗ‐ＰＯＷＥＲＳ,,株式会社,東京都,中野区,中野５丁目６７番７号プラザ中野９０２号室,,13,114,1640001,,,,,,,2022-04-20,1,,,,,ダブルパワーズ,0
1531,6011401024184,新規,0,2022-04-20,2022-04-20,株式会社まるこ村,,株式会社,東京都,板橋区,上板橋２丁目３８番１１号タカマンビル１Ｆ,,13,119,1740076,,,,,,,2022-04-20,1,,,,,マルコムラ,0
1537,6011701025238,新規,0,2022-04-20,2022-04-20,Ｓ．Ｇ株式会社,,株式会社,東京都,江戸川区,南小岩７丁目３０番２号サンハイツ２０１,,13,123,1330056,,,,,,,2022-04-20,1,,,,,エスジー,0
1540,6011703003126,新規,0,2022-04-20,2022-04-20,Ａｎｉｍａ合同会社,,合同会社,東京都,江戸川区,鹿骨１丁目４８－１２ＣｈｅｅｒｆｕｌＡ棟１０３,,13,123,1330073,,,,,,,2022-04-20,1,,,,,アニマ,0
1545,6012801021515,新規,0,2022-04-20,2022-04-20,ＲＩＳ　Ａｃｃｅｌｅｒａｔｉｏｎ株式会社,,株式会社,東京都,日野市,三沢２丁目５５番地の１,,13,212,1910032,,,,,,,2022-04-20,1,,,,,アールアイエスアクセラレーション,0
1556,6020001146165,新規,0,2022-04-20,2022-04-20,株式会社ＫＯＵＲＩ,,株式会社,神奈川県,川崎市川崎区,小田栄１丁目１１番１４号,,14,131,2100843,,,,,,,2022-04-20,1,,,,,コウリ,0
1557,6020001146198,新規,0,2022-04-20,2022-04-20,株式会社花乃恵,,株式会社,神奈川県,横浜市西区,北幸１丁目１１番１号水信ビル７階,,14,103,2200004,,,,,,,2022-04-20,1,,,,,カノエ,0
1559,6020003021647,新規,0,2022-04-20,2022-04-20,ＮＥＯＲＥＣ合同会社,,合同会社,神奈川県,横浜市青葉区,市ケ尾町１１５４番地２市ケ尾プラーザビル７０４,,14,117,2250024,,,,,,,2022-04-20,1,,,,,ネオリック,0
1560,6020005015498,新規,0,2022-04-20,2022-04-20,医療法人社団なでしこ会,,その他の設立登記法人,神奈川県,横浜市都筑区,茅ケ崎中央６番１号サウスウッド３階,,14,118,2240032,,,,,,,2022-04-20,1,,,,,ナデシコカイ,0
1563,6021001075742,新規,0,2022-04-20,2022-04-20,株式会社辰清水産,,株式会社,神奈川県,小田原市,早川２丁目１１番地の１２,,14,206,2500021,,,,,,,2022-04-20,1,,,,,タツキヨスイサン,0
1567,6021003011563,新規,0,2022-04-20,2022-04-20,Ｄａｎｇｌｅ合同会社,,合同会社,神奈川県,座間市,相模が丘１丁目３３－２５ベルハイツ相模が丘２０２,,14,216,2520001,,,,,,,2022-04-20,1,,,,,ダングル,0
1573,6030001147798,新規,0,2022-04-20,2022-04-20,ファクトリースズキ株式会社,,株式会社,埼玉県,川口市,戸塚東２丁目２４番１７号,,11,203,3330802,,,,,,,2022-04-20,1,,,,,ファクトリースズキ,0
1574,6030001147815,新規,0,2022-04-20,2022-04-20,角吉商店株式会社,,株式会社,埼玉県,さいたま市北区,宮原町３丁目２７９番地１３,,11,102,3310812,,,,,,,2022-04-20,1,,,,,カドキチショウテン,0
1577,6030003019252,新規,0,2022-04-20,2022-04-20,合同会社幸,,合同会社,埼玉県,越谷市,谷中町１丁目５１番地１,,11,222,3430856,,,,,,,2022-04-20,1,,,,,サチ,0
1578,6030003019269,新規,0,2022-04-20,2022-04-20,合同会社ＥＭＡＮＩＤＡ,,合同会社,埼玉県,久喜市,栗原１丁目４番地２,,11,232,3460012,,,,,,,2022-04-20,1,,,,,エマニダ,0
1588,6040001123071,新規,0,2022-04-20,2022-04-20,松美装株式会社,,株式会社,千葉県,四街道市,吉岡１７４０番地５５,,12,228,2840032,,,,,,,2022-04-20,1,,,,,マツビソウ,0
1589,6040001123105,新規,0,2022-04-20,2022-04-20,株式会社Ｔａビルドアンドマテリアル,,株式会社,千葉県,千葉市若葉区,小間子町６－１０,,12,104,2650046,,,,,,,2022-04-20,1,,,,,ティーエービルドアンドマテリアル,0
1597,6060001034762,新規,0,2022-04-20,2022-04-20,株式会社グリーンエイジ・イン,,株式会社,栃木県,日光市,安川町１０番９号,,09,206,3211432,,,,,,,2022-04-20,1,,,,,グリーンエイジイン,0
1598,6060001034787,新規,0,2022-04-20,2022-04-20,株式会社ユーミー,,株式会社,栃木県,栃木市,泉町２１番９号,,09,203,3280014,,,,,,,2022-04-20,1,,,,,ユーミー,0
1601,6060003004045,新規,0,2022-04-20,2022-04-20,合同会社ＴＡＫＡＨＩＲＯ,,合同会社,栃木県,真岡市,荒町２丁目１０番６号,,09,209,3214305,,,,,,,2022-04-20,1,,,,,タカヒロ,0
1615,6080001024885,新規,0,2022-04-20,2022-04-20,株式会社ａｔ　Ｓｔｕｄｙ,,株式会社,静岡県,静岡市葵区,吉野町８番１３－２号,,22,101,4200046,,,,,,,2022-04-20,1,,,,,アットスタディ,0
1616,6080001024893,新規,0,2022-04-20,2022-04-20,株式会社ＨＹＰＥＲ　ＴＯＹＳ　ＷＯＲＫＳ,,株式会社,静岡県,静岡市清水区,由比６７番地の１９,,22,103,4213103,,,,,,,2022-04-20,1,,,,,ハイパートイズワークス,0
1622,6080401025764,新規,0,2022-04-20,2022-04-20,株式会社アクセプトライン,,株式会社,静岡県,浜松市東区,薬師町５６０番地の１,,22,132,4350017,,,,,,,2022-04-20,1,,,,,アクセプトライン,0
1624,6090001017533,新規,0,2022-04-20,2022-04-20,株式会社アイエステック,,株式会社,山梨県,都留市,つる３丁目７番１２号,,19,204,4020056,,,,,,,2022-04-20,1,,,,,アイエステック,0
1631,6110001036605,新規,0,2022-04-20,2022-04-20,株式会社スタジオティ,,株式会社,新潟県,新潟市中央区,沼垂東３丁目５－３０、３Ｆ,,15,103,9500075,,,,,,,2022-04-20,1,,,,,,0
1641,6120001245345,新規,0,2022-04-20,2022-04-20,ＧＶＰ　Ｍｅｄｉｃａｌ株式会社,,株式会社,大阪府,大阪市西区,京町堀１丁目３番１号ワイズビスタビル４階,,27,106,5500003,,,,,,,2022-04-20,1,,,,,ジーブイピーメディカル,0
1642,6120001245361,新規,0,2022-04-20,2022-04-20,株式会社Ｈｅｄｇｅｈｏｇ,,株式会社,大阪府,交野市,私部１丁目２６番１０号,,27,230,5760052,,,,,,,2022-04-20,1,,,,,ヘッジホッグ,0
1643,6120003021521,新規,0,2022-04-20,2022-04-20,合同会社こころ,,合同会社,大阪府,大阪市大正区,小林西２丁目２番１２号,,27,108,5510013,,,,,,,2022-04-20,1,,,,,ココロ,0
1648,6120101065445,新規,0,2022-04-20,2022-04-20,株式会社Ｇ‐ＳＴＹＬＥ,,株式会社,大阪府,堺市南区,和田５６３番地２,,27,145,5900152,,,,,,,2022-04-20,1,,,,,ジースタイル,0
1651,6120901045860,新規,0,2022-04-20,2022-04-20,株式会社アシト,,株式会社,大阪府,吹田市,江坂町１丁目２３番１９号,,27,205,5640063,,,,,,,2022-04-20,1,,,,,アシト,0
1652,6120901045869,新規,0,2022-04-20,2022-04-20,株式会社ＨＭＲＹ,,株式会社,大阪府,箕面市,小野原東５丁目１２番１６号,,27,220,5620031,,,,,,,2022-04-20,1,,,,,エイチエムアールワイ,0
1658,6130001071575,新規,0,2022-04-20,2022-04-20,城陽電線販売株式会社,,株式会社,京都府,城陽市,寺田東ノ口１７番地の７２,,26,207,6100121,,,,,,,2022-04-20,1,,,,,ジョウヨウデンセンハンバイ,0
1659,6130001071591,新規,0,2022-04-20,2022-04-20,株式会社卓越,,株式会社,京都府,京都市西京区,桂河田町１６５番地,,26,111,6158017,,,,,,,2022-04-20,1,,,,,タクエツ,0
1661,6130003007874,新規,0,2022-04-20,2022-04-20,ＬａＴｏｂｉ合同会社,,合同会社,京都府,南丹市,八木町八木東所５４,,26,213,6290141,,,,,,,2022-04-20,1,,,,,ラトビ,0
1662,6130003007890,新規,0,2022-04-20,2022-04-20,合同会社ＡＯＵ,,合同会社,京都府,京都市南区,上鳥羽鴨田１８,,26,107,6018131,,,,,,,2022-04-20,1,,,,,エーオーユー,0
1668,6140001125693,新規,0,2022-04-20,2022-04-20,株式会社ＭＡＶＩＥ,,株式会社,兵庫県,小野市,匠台７０番地の９,,28,218,6751322,,,,,,,2022-04-20,1,,,,,マビー,0
1669,6140001125710,新規,0,2022-04-20,2022-04-20,株式会社プロプレ,,株式会社,兵庫県,神戸市中央区,東川崎町１丁目５番９－３５０１号,,28,110,6500044,,,,,,,2022-04-20,1,,,,,プロプレ,0
1670,6140001125719,新規,0,2022-04-20,2022-04-20,株式会社ココアス,,株式会社,兵庫県,加古川市,野口町水足１番地の８,,28,210,6750019,,,,,,,2022-04-20,1,,,,,ココアス,0
1671,6140001125735,新規,0,2022-04-20,2022-04-20,株式会社ＥＳＳ　ＥＸＰＯＲＴ,,株式会社,兵庫県,神戸市中央区,磯上通８丁目１番２９号カサベラビルＣ＆Ｍ４０３号,,28,110,6510086,,,,,,,2022-04-20,1,,,,,イーエスエスエクスポート,0
1675,6160001024134,新規,0,2022-04-20,2022-04-20,株式会社烏丸未来開発,,株式会社,滋賀県,近江八幡市,中小森町７４番地４４,,25,204,5230041,,,,,,,2022-04-20,1,,,,,カラスマミライカイハツ,0
1681,6180001150944,新規,0,2022-04-20,2022-04-20,株式会社といーと,,株式会社,愛知県,長久手市,横道１９０４番地,,23,238,4801118,,,,,,,2022-04-20,1,,,,,トイート,0
1683,6190001029345,新規,0,2022-04-20,2022-04-20,株式会社Ａｌｆａｍ,,株式会社,三重県,四日市市,楠町南五味塚１６０番地４,,24,202,5100104,,,,,,,2022-04-20,1,,,,,アルファム,0
1684,6190003003959,新規,0,2022-04-20,2022-04-20,合同会社Ｔ・Ｋ・Ｇモーターズ,,合同会社,三重県,鈴鹿市,住吉１丁目３１番１３号,,24,207,5130826,,,,,,,2022-04-20,1,,,,,ティーケージーモーターズ,0
1689,6200003005540,新規,0,2022-04-20,2022-04-20,合同会社友建,,合同会社,岐阜県,岐阜市,茜部野瀬２丁目１７番地１クリアネスＮ・Ｂ１０６号室,,21,201,5008283,,,,,,,2022-04-20,1,,,,,ユウケン,0
1701,6230001019333,新規,0,2022-04-20,2022-04-20,海越テクノ株式会社,,株式会社,富山県,氷見市,柳田１３３６番地２,,16,205,9350031,,,,,,,2022-04-20,1,,,,,,0
1707,6240001059634,新規,0,2022-04-20,2022-04-20,株式会社拓海,,株式会社,広島県,福山市,南手城町４丁目２１番４号,,34,207,7210963,,,,,,,2022-04-20,1,,,,,タクミ,0
1714,6270001008497,新規,0,2022-04-20,2022-04-20,株式会社オペラハウス,,株式会社,鳥取県,鳥取市,東町３丁目１８４番地,,31,201,6800011,,,,,,,2022-04-20,1,,,,,オペラハウス,0
1721,6290001097258,新規,0,2022-04-20,2022-04-20,株式会社ブリリオ,,株式会社,福岡県,福岡市南区,筑紫丘１丁目２２番２１号,,40,134,8150036,,,,,,,2022-04-20,1,,,,,ブリリオ,0
1722,6290001097266,新規,0,2022-04-20,2022-04-20,株式会社プロミネント建装,,株式会社,福岡県,福岡市東区,名子２丁目５番５５号,,40,131,8130024,,,,,,,2022-04-20,1,,,,,プロミネントケンソウ,0
1726,6290801028453,新規,0,2022-04-20,2022-04-20,株式会社中築,,株式会社,福岡県,北九州市八幡西区,幸神２丁目３番３４－６０４号,,40,109,8060055,,,,,,,2022-04-20,1,,,,,ナカチク,0
1727,6290801028461,新規,0,2022-04-20,2022-04-20,レガシーメタル株式会社,,株式会社,福岡県,北九州市小倉北区,馬借１丁目１０番２－５０１号,,40,106,8020077,,,,,,,2022-04-20,1,,,,,レガシーメタル,0
1730,6300001012900,新規,0,2022-04-20,2022-04-20,株式会社スタジオザック,,株式会社,佐賀県,小城市,牛津町柿樋瀬７５９番地,00126354,41,208,8490302,,,,,,,2022-04-20,1,,,,,スタジオザック,0
1732,6300003001827,新規,0,2022-04-20,2022-04-20,合同会社ホープＹＳ,,合同会社,佐賀県,佐賀市,川副町大字大詫間７６７番地,,41,201,8402211,,,,,,,2022-04-20,1,,,,,ホープワイエス,0
1745,6360003011944,新規,0,2022-04-20,2022-04-20,合同会社スクワッド,,合同会社,沖縄県,石垣市,浜崎町２丁目４－１６,,47,207,9070013,,,,,,,2022-04-20,1,,,,,スクワッド,0
1748,6370003005664,新規,0,2022-04-20,2022-04-20,合同会社サクライ,,合同会社,宮城県,富谷市,上桜木１丁目４番地１５,,04,216,9813328,,,,,,,2022-04-20,1,,,,,サクライ,0
1769,6430003013826,新規,0,2022-04-20,2022-04-20,合同会社ＤＲＥＡＭ　ＡＣＴＩＯＮ,,合同会社,北海道,札幌市中央区,南十一条西１４丁目２番２９号,,01,101,0640811,,,,,,,2022-04-20,1,,,,,,0
1775,6470001019045,新規,0,2022-04-20,2022-04-20,株式会社太田鉄工所,,株式会社,香川県,高松市,牟礼町原９８２番地１,,37,201,7610123,,,,,,,2022-04-20,1,,,,,オオタテッコウショ,0
1779,6700150107873,新規,0,2022-04-20,2022-04-12,室内楽の泉,,その他,山口県,宇部市,大字際波２６９５－１９,,35,202,7590207,,,,,,,2022-04-12,1,,,,,シツナイガクノイズミ,0
1784,7010001225794,新規,0,2022-04-20,2022-04-20,株式会社Ｚｅｎ‐ｆｌｏｗ,,株式会社,東京都,中央区,日本橋富沢町４－１０,,13,102,1030006,,,,,,,2022-04-20,1,,,,,ゼンフロー,0
1785,7010001225852,新規,0,2022-04-20,2022-04-20,株式会社ＩＭＤ設計,,株式会社,東京都,千代田区,九段南１丁目５番６号りそな九段ビル５階ＫＳフロア,,13,101,1020074,,,,,,,2022-04-20,1,,,,,アイエムディセッケイ,0
1786,7010001225885,新規,0,2022-04-20,2022-04-20,株式会社マリンドライブ,,株式会社,東京都,新島村,字瀬戸山２１クリエイトセンター１Ｆ,,13,363,1000400,,,,,,,2022-04-20,1,,,,,マリンドライブ,0
1787,7010001225902,新規,0,2022-04-20,2022-04-20,株式会社Ｋｉｔ,,株式会社,東京都,中央区,日本橋大伝馬町２－１１イワサキ第二ビル６階,,13,102,1030011,,,,,,,2022-04-20,1,,,,,キット,0
1788,7010001225910,新規,0,2022-04-20,2022-04-20,株式会社伊和商事,,株式会社,東京都,千代田区,神田佐久間町１丁目８番４－７０５号,,13,101,1010025,,,,,,,2022-04-20,1,,,,,イワショウジ,0
1789,7010003037494,新規,0,2022-04-20,2022-04-20,合同会社ＭＨＲ,,合同会社,東京都,千代田区,神田三崎町３丁目６番１号ＢＡＣＨビル５Ｆ,,13,101,1010061,,,,,,,2022-04-20,1,,,,,エムエイチアール,0
1806,7010403027509,新規,0,2022-04-20,2022-04-20,リンキングドッツ合同会社,,合同会社,東京都,港区,西麻布１丁目４番３５号,,13,103,1060031,,,,,,,2022-04-20,1,,,,,リンキングドッツ,0
1812,7010601061045,新規,0,2022-04-20,2022-04-20,株式会社Ｒｅ．ＧＯＡＬ,,株式会社,東京都,江東区,辰巳１丁目５番１５－１０１号,,13,108,1350053,,,,,,,2022-04-20,1,,,,,リゴール,0
1820,7010803004140,新規,0,2022-04-20,2022-04-20,合同会社ＣＨＡＮｇＥＳ,,合同会社,東京都,大田区,山王２丁目１番８号山王アーバンライフ１３号室,,13,111,1430023,,,,,,,2022-04-20,1,,,,,チェンジイズ,0
1821,7010901050730,新規,0,2022-04-20,2022-04-20,株式会社ＡＷ,,株式会社,東京都,世田谷区,野毛２丁目２２番１５号,,13,112,1580092,,,,,,,2022-04-20,1,,,,,エーダブリュー,0
1822,7010901050739,新規,0,2022-04-20,2022-04-20,株式会社ＳＩＸＸ　ＳＥＮＳＥ,,株式会社,東京都,世田谷区,若林２丁目１５番６－２０４　号,,13,112,1540023,,,,,,,2022-04-20,1,,,,,,0
1824,7010903007316,新規,0,2022-04-20,2022-04-20,クオモ・マークス合同会社,,合同会社,東京都,世田谷区,北沢４丁目２７番１２号,,13,112,1550031,,,,,,,2022-04-20,1,,,,,クオモマークス,0
1850,7011103011661,新規,0,2022-04-20,2022-04-20,合同会社ＤｅＦｉ　ＶＡＬＵＥ,,合同会社,東京都,新宿区,西新宿３丁目３番１３号西新宿水間ビル６階,,13,104,1600023,,,,,,,2022-04-20,1,,,,,ディーファイバリュー,0
1852,7011303004382,新規,0,2022-04-20,2022-04-20,合同会社Ｈｅｍｍｉ,,合同会社,東京都,杉並区,上井草２丁目９－１８,,13,115,1670023,,,,,,,2022-04-20,1,,,,,ヘンミ,0
1853,7011303004390,新規,0,2022-04-20,2022-04-20,ＡＩＫＯＮ合同会社,,合同会社,東京都,杉並区,上高井戸１丁目２９番５号ゼルコバ上高井戸５０３,,13,115,1680074,,,,,,,2022-04-20,1,,,,,アイコン,0
1854,7011401024175,新規,0,2022-04-20,2022-04-20,エスプラン株式会社,,株式会社,東京都,板橋区,大谷口上町１３番８－９１０号,,13,119,1730032,,,,,,,2022-04-20,1,,,,,エスプラン,0
1855,7011403003631,新規,0,2022-04-20,2022-04-20,合同会社ＳＹＲ,,合同会社,東京都,板橋区,幸町１－１４アトラス大山９０２号室,,13,119,1730034,,,,,,,2022-04-20,1,,,,,エスワイアール,0
1860,7011801040615,新規,0,2022-04-20,2022-04-20,株式会社ゲームセオリー,,株式会社,東京都,足立区,西新井栄町１丁目１８番１１－１４０９号,,13,121,1230843,,,,,,,2022-04-20,1,,,,,ゲームセオリー,0
1861,7011803005054,新規,0,2022-04-20,2022-04-20,合同会社ＫＡＩＳＯＬ,,合同会社,東京都,足立区,興野１丁目１８－６,,13,121,1230844,,,,,,,2022-04-20,1,,,,,カイソル,0
1863,7012303001659,新規,0,2022-04-20,2022-04-20,Ｋｓｔａｒｐｌｕｓ　Ｊａｐａｎ合同会社,,合同会社,東京都,町田市,玉川学園７丁目４－１７ハイツ梓１０５,,13,209,1940041,,,,,,,2022-04-20,1,,,,,ケースタープラスジャパン,0
1870,7012801021522,新規,0,2022-04-20,2022-04-20,株式会社レフティオ,,株式会社,東京都,国立市,中１丁目５番地の５８,,13,215,1860004,,,,,,,2022-04-20,1,,,,,レフティオ,0
1874,7013301048923,新規,0,2022-04-20,2022-04-20,ｍａｋａｎａ株式会社,,株式会社,東京都,豊島区,西池袋５丁目２１番４－３０２号,,13,116,1710021,,,,,,,2022-04-20,1,,,,,マカナ,0
1875,7013301048972,新規,0,2022-04-20,2022-04-20,株式会社Ｋ．Ｔ．Ｍ,,株式会社,東京都,豊島区,南大塚１丁目６０番２０号,,13,116,1700005,,,,,,,2022-04-20,1,,,,,ケーティエム,0
1885,7020001146164,新規,0,2022-04-20,2022-04-20,株式会社Ｒｕｎｔｅｒｎ,,株式会社,神奈川県,横浜市中区,花咲町１丁目１番地３相模ビル３０１,,14,104,2310063,,,,,,,2022-04-20,1,,,,,ランタン,0
1886,7020001146172,新規,0,2022-04-20,2022-04-20,株式会社あんしん青葉,,株式会社,神奈川県,横浜市青葉区,藤が丘２丁目４番地１,,14,117,2270043,,,,,,,2022-04-20,1,,,,,アンシンアオバ,0
1887,7020001146197,新規,0,2022-04-20,2022-04-20,株式会社さくら,,株式会社,神奈川県,横浜市西区,南浅間町２３－１－７０６号,,14,103,2200074,,,,,,,2022-04-20,1,,,,,サクラ,0
1888,7020003021646,新規,0,2022-04-20,2022-04-20,ヴァン・エ・ヴァン合同会社,,合同会社,神奈川県,川崎市多摩区,南生田１丁目２８番５号,,14,135,2140036,,,,,,,2022-04-20,1,,,,,ヴァンエヴァン,0
1889,7020003021654,新規,0,2022-04-20,2022-04-20,シグナム合同会社,,合同会社,神奈川県,横浜市港南区,大久保２丁目２０－２,,14,111,2330007,,,,,,,2022-04-20,1,,,,,シグナム,0
1904,7030001147797,新規,0,2022-04-20,2022-04-20,株式会社ＭＲＰ,,株式会社,埼玉県,春日部市,粕壁６０２３番地１４,,11,214,3440061,,,,,,,2022-04-20,1,,,,,エムアールピー,0
1905,7030001147806,新規,0,2022-04-20,2022-04-20,株式会社Ｓ　Ａ　ＪＡＰＡＮ,,株式会社,埼玉県,さいたま市岩槻区,大字釣上新田５２５番地１,,11,110,3390025,,,,,,,2022-04-20,1,,,,,エスエージャパン,0
1906,7030001147830,新規,0,2022-04-20,2022-04-20,株式会社小沼商店,,株式会社,埼玉県,深谷市,上野台２７５６番地７,,11,218,3660801,,,,,,,2022-04-20,1,,,,,コヌマショウテン,0
1907,7030001147839,新規,0,2022-04-20,2022-04-20,株式会社エヌネットワークスクラウド,,株式会社,埼玉県,新座市,東北２丁目３９番１０号ドゥーセット弐番館６Ｆ,,11,230,3520001,,,,,,,2022-04-20,1,,,,,エヌネットワークスクラウド,0
1915,7030005020835,新規,0,2022-04-20,2022-04-20,一般社団法人ブリーズドゥース,,その他の設立登記法人,埼玉県,所沢市,若狭３丁目２５６９番地の２８,,11,208,3591151,,,,,,,2022-04-20,1,,,,,ブリーズドゥース,0
1919,7040001122774,新規,0,2022-04-20,2022-04-20,ｎｉｃｏｉｃｈｉｉ株式会社,,株式会社,千葉県,千葉市若葉区,若松町２３６３－４ピーノパストラル２－２０２号室,,12,104,2640021,,,,,,,2022-04-20,1,,,,,ニコイチ,0
1922,7040003019911,新規,0,2022-04-20,2022-04-20,驛城合同会社,,合同会社,千葉県,松戸市,胡録台３６３－７サニー松戸６１０号室,,12,207,2710075,,,,,,,2022-04-20,1,,,,,エクジョウ,0
1927,7060001034786,新規,0,2022-04-20,2022-04-20,株式会社ヱミカ,,株式会社,栃木県,栃木市,大平町富田１６５１,,09,203,3294404,,,,,,,2022-04-20,1,,,,,エミカ,0
1934,7080105006250,新規,0,2022-04-20,2022-04-20,一般社団法人Ｓｅｓｔａ,,その他の設立登記法人,静岡県,富士市,富士岡１２５番地の５,,22,210,4170841,,,,,,,2022-04-20,1,,,,,シエスタ,0
1935,7080401025763,新規,0,2022-04-20,2022-04-20,株式会社あたらしや生薬研究所,,株式会社,静岡県,掛川市,中１３６９番地の１,,22,213,4371405,,,,,,,2022-04-20,1,,,,,アタラシヤショウヤクケンキュウジョ,0
1937,7100003006515,新規,0,2022-04-20,2022-04-20,合同会社伊那谷サラウンド,,合同会社,長野県,下伊那郡松川町,元大島２９９１番地３,,20,402,3993303,,,,,,,2022-04-20,1,,,,,イナダニサラウンド,0
1956,7120001245311,新規,0,2022-04-20,2022-04-20,株式会社純度１００,,株式会社,大阪府,大阪市平野区,平野上町１丁目５番１０号３ＦＡ号室,,27,126,5470045,,,,,,,2022-04-20,1,,,,,ジュンドヒャク,0
1957,7120001245352,新規,0,2022-04-20,2022-04-20,株式会社Ｄｅｎｔａｌ　Ｎｅｘｔ,,株式会社,大阪府,大阪市中央区,本町４丁目４－１０本町セントラルオフィス７階,,27,128,5410053,,,,,,,2022-04-20,1,,,,,デンタルネクスト,0
1958,7120001245360,新規,0,2022-04-20,2022-04-20,竹川谷株式会社,,株式会社,大阪府,大阪市中央区,北久宝寺町４丁目３－８アーバンライフ８０５,,27,128,5410057,,,,,,,2022-04-20,1,,,,,タケカワタニ,0
1962,7120003021504,新規,0,2022-04-20,2022-04-20,にしのや合同会社,,合同会社,大阪府,大阪市天王寺区,小宮町１０番１９号五条ハイツ３０２号,,27,109,5430036,,,,,,,2022-04-20,1,,,,,ニシノヤ,0
1967,7120101065428,新規,0,2022-04-20,2022-04-20,株式会社龍輝,,株式会社,大阪府,堺市堺区,住吉橋町１丁７番１３号朝日プラザ堺１００１号,,27,141,5900973,,,,,,,2022-04-20,1,,,,,リュウキ,0
1968,7120101065436,新規,0,2022-04-20,2022-04-20,株式会社ＦＯＬ　ＣＯＵＮＴＲＹ,,株式会社,大阪府,堺市堺区,東湊町３丁１８３番地１Ｃ棟１階,,27,141,5900829,,,,,,,2022-04-20,1,,,,,,0
1969,7120101065444,新規,0,2022-04-20,2022-04-20,株式会社Ｓｏｕｔｈｅｒｎ　Ｃｒｏｓｓ,,株式会社,大阪府,泉南郡熊取町,若葉１丁目１３番１４号,,27,361,5900433,,,,,,,2022-04-20,1,,,,,サザンクロス,0
1970,7120103004664,新規,0,2022-04-20,2022-04-20,合同会社ひまわり,,合同会社,大阪府,堺市中区,深井北町４６番地５,,27,142,5998271,,,,,,,2022-04-20,1,,,,,ヒマワリ,0
1971,7120901045868,新規,0,2022-04-20,2022-04-20,株式会社幸和テック,,株式会社,大阪府,摂津市,鳥飼上３丁目７番２１号,,27,224,5660062,,,,,,,2022-04-20,1,,,,,コウワテック,0
1974,7130001071582,新規,0,2022-04-20,2022-04-20,株式会社ＩｎｎｏＩＴ,,株式会社,京都府,京都市左京区,山端川岸町２－７,,26,103,6068005,,,,,,,2022-04-20,1,,,,,イノアイティー,0
1975,7130001071590,新規,0,2022-04-20,2022-04-20,株式会社ありがとう,,株式会社,京都府,京都市西京区,大原野上里鳥見町２２番地１,,26,111,6101127,,,,,,,2022-04-20,1,,,,,アリガトウ,0
1976,7130001071599,新規,0,2022-04-20,2022-04-20,株式会社ＲＫ．エレベータ,,株式会社,京都府,向日市,物集女町北ノ口１００－１８５,,26,208,6170001,,,,,,,2022-04-20,1,,,,,アールケーエレベータ,0
1983,7140001125635,新規,0,2022-04-20,2022-04-20,株式会社ＷａｇｅｉＢｏｘ,,株式会社,兵庫県,尼崎市,武庫町２丁目５－６リフォレ１０３号,,28,202,6610044,,,,,,,2022-04-20,1,,,,,ワゲイボックス,0
1984,7140001125692,新規,0,2022-04-20,2022-04-20,株式会社ＭＫＰ,,株式会社,兵庫県,姫路市,野里上野町２丁目８番６５号,,28,201,6700814,,,,,,,2022-04-20,1,,,,,エムケイピー,0
1985,7140001125718,新規,0,2022-04-20,2022-04-20,日本ＭＬＫ株式会社,,株式会社,兵庫県,高砂市,曽根町２８３番地,,28,216,6760082,,,,,,,2022-04-20,1,,,,,ニホンエムエルケイ,0
1998,7180001151041,新規,0,2022-04-20,2022-04-20,シンクホールディングス株式会社,,株式会社,愛知県,名古屋市中村区,則武１丁目１０－６,,23,105,4530014,,,,,,,2022-04-20,1,,,,,シンクホールディングス,0
2005,7200005013334,新規,0,2022-04-20,2022-04-20,ＪＭＣＩＭ一般社団法人,,その他の設立登記法人,岐阜県,瑞浪市,土岐町３９３１番地ゴールデンパーク３階,,21,208,5096101,,,,,,,2022-04-20,1,,,,,ジェイエムシーアイエム,0
2011,7230001019332,新規,0,2022-04-20,2022-04-20,株式会社ウエスト,,株式会社,富山県,魚津市,釈迦堂１丁目８０１番,,16,204,9370067,,,,,,,2022-04-20,1,,,,,ウエスト,0
2013,7230005009222,新規,0,2022-04-20,2022-04-20,医療法人くれよん,,その他の設立登記法人,富山県,富山市,黒崎３７３番地２,,16,201,9398214,,,,,,,2022-04-20,1,,,,,クレヨン,0
2021,7260001036762,新規,0,2022-04-20,2022-04-20,株式会社くりーんぱーとなー,,株式会社,岡山県,倉敷市,西阿知町新田１６番地４,,33,202,7100804,,,,,,,2022-04-20,1,,,,,クリーンパートナー,0
2022,7260001036770,新規,0,2022-04-20,2022-04-20,株式会社プロジェクトマネージャー,,株式会社,岡山県,岡山市北区,表町１丁目９番３５号,,33,101,7000822,,,,,,,2022-04-20,1,,,,,プロジェクトマネージャー,0
2024,7260005011076,新規,0,2022-04-20,2022-04-20,一般社団法人縁人,,その他の設立登記法人,岡山県,美作市,井口７３番地１,,33,215,7012606,,,,,,,2022-04-20,1,,,,,ヨリビト,0
2031,7290001097232,新規,0,2022-04-20,2022-04-20,株式会社ＢＡＹ　ＬＥＡＦ,,株式会社,福岡県,糸島市,篠原西１丁目４－５－１０２,,40,230,8191129,,,,,,,2022-04-20,1,,,,,ベイリーフ,0
2032,7290001097249,新規,0,2022-04-20,2022-04-20,株式会社ＬＩＸＴ,,株式会社,福岡県,久留米市,善導寺町与田７７９番地６,,40,203,8390823,,,,,,,2022-04-20,1,,,,,リクスト,0
2033,7290001097257,新規,0,2022-04-20,2022-04-20,株式会社ホリスティックライブラリー,,株式会社,福岡県,福岡市中央区,大名１丁目２番１１号プロテクトＩＩＩビル３Ｆ,00126353,40,133,8100041,,,,,,,2022-04-20,1,,,,,ホリスティックライブラリー,0
2034,7290001097273,新規,0,2022-04-20,2022-04-20,株式会社Ｎｏｗｂ,,株式会社,福岡県,福岡市中央区,赤坂１丁目１１番１３号１０１大稲ビル５０３号,,40,133,8100042,,,,,,,2022-04-20,1,,,,,ノーブ,0
2036,7290003012395,新規,0,2022-04-20,2022-04-20,合同会社エオス,,合同会社,福岡県,福岡市博多区,博多駅前３丁目２９番１１－２０１号,,40,132,8120011,,,,,,,2022-04-20,1,,,,,エオス,0
2037,7290003012429,新規,0,2022-04-20,2022-04-20,合同会社龍誠,,合同会社,福岡県,福岡市南区,的場２丁目３４番４号,,40,134,8111314,,,,,,,2022-04-20,1,,,,,リュウセイ,0
2039,7290005018655,新規,0,2022-04-20,2022-04-20,医療法人ひとみ矯正歯科医院,,その他の設立登記法人,福岡県,福岡市博多区,博多駅前３丁目７番３５号博多ハイテックビル２０１号,,40,132,8120011,,,,,,,2022-04-20,1,,,,,ヒトミキョウセイシカイイン,0
2040,7290801028460,新規,0,2022-04-20,2022-04-20,株式会社フクシーズ,,株式会社,福岡県,北九州市若松区,大字小竹１９１１番地１,,40,103,8080108,,,,,,,2022-04-20,1,,,,,フクシーズ,0
2046,7300001012899,新規,0,2022-04-20,2022-04-20,株式会社Ｌｉｎｋ　Ｃｒｅａｔｉｖｅ,,株式会社,佐賀県,佐賀市,鍋島町大字八戸３１６５番地,,41,201,8400857,,,,,,,2022-04-20,1,,,,,リンククリエイティブ,0
2068,7400001015867,新規,0,2022-04-20,2022-04-20,株式会社Ｔｈｅ　ＩＴ　Ｌａｂ,,株式会社,岩手県,盛岡市,北飯岡２丁目４番２３号,,03,201,0200857,,,,,,,2022-04-20,1,,,,,ザアイティーラボ,0
2070,7410001013168,新規,0,2022-04-20,2022-04-20,株式会社サイモン・エンターテインメント・プロデュース,,株式会社,秋田県,秋田市,将軍野東３丁目２番９号,,05,201,0110931,,,,,,,2022-04-20,1,,,,,,0
2080,7430003013825,新規,0,2022-04-20,2022-04-20,合同会社クイッチ,,合同会社,北海道,札幌市東区,伏古五条５丁目４番５号プレシャス２００９－Ａ号,,01,103,0070865,,,,,,,2022-04-20,1,,,,,クイッチ,0
2083,7450001013676,新規,0,2022-04-20,2022-04-20,アークフーズ株式会社,,株式会社,北海道,旭川市,豊岡五条３丁目７－３－Ｄ,,01,204,0788235,,,,,,,2022-04-20,1,,,,,アークフーズ,0
2089,7480003001825,新規,0,2022-04-20,2022-04-20,合同会社サケノテ,,合同会社,徳島県,板野郡藍住町,勝瑞字西地５８番地７,,36,403,7711270,,,,,,,2022-04-20,1,,,,,サケノテ,0
2090,7500001024164,新規,0,2022-04-20,2022-04-20,株式会社ゆずりは,,株式会社,愛媛県,松山市,森松町４６５番地３,,38,201,7911113,,,,,,,2022-04-20,1,,,,,ユズリハ,0
2091,7700150108169,新規,0,2022-04-20,2022-04-20,平松区,,その他,三重県,伊賀市,上阿波４２,,24,216,5181412,,,,,,,2022-04-20,1,,,,,ヒラマツク,0
2102,8010001225827,新規,0,2022-04-20,2022-04-20,インフィ株式会社,,株式会社,東京都,中央区,日本橋馬喰町２丁目４番４号ＨＯＲＩビル１Ｆ,,13,102,1030002,,,,,,,2022-04-20,1,,,,,インフィ,0
2106,8010003037493,新規,0,2022-04-20,2022-04-20,ＪＩＧマテリアル合同会社,,合同会社,東京都,中央区,銀座７丁目１３番２１号銀座新六洲ビル２階,,13,102,1040061,,,,,,,2022-04-20,1,,,,,ジェイアイジーマテリアル,0
2107,8010003037519,新規,0,2022-04-20,2022-04-20,デロイトトーマツリップルマーク合同会社,,合同会社,東京都,千代田区,丸の内３丁目２番３号丸の内二重橋ビルディング,,13,101,1000005,,,,,,,2022-04-20,1,,,,,デロイトトーマツリップルマーク,0
2109,8010005034844,新規,0,2022-04-20,2022-04-20,一般社団法人Ｊａｐａｎ　Ｏｎａｏｓｈｉ　Ａｌｌｉａｎｃｅ,,その他の設立登記法人,東京都,中央区,銀座２丁目６番１５号,,13,102,1040061,,,,,,,2022-04-20,1,,,,,ジャパンオナオシアライアンス,0
2115,8010401166902,新規,0,2022-04-20,2022-04-20,株式会社ＹＵＩ　ｃｏｌｌｅｃｔｉｏｎ,,株式会社,東京都,港区,芝３丁目３２番１３号グラスビル３階,,13,103,1050014,,,,,,,2022-04-20,1,,,,,ユイコレクション,0
2117,8010501048728,新規,0,2022-04-20,2022-04-20,株式会社ＡＮＶＥＲＳ,,株式会社,東京都,台東区,上野５丁目５番９号,,13,106,1100005,,,,,,,2022-04-20,1,,,,,アンヴェール,0
2118,8010501048736,新規,0,2022-04-20,2022-04-20,株式会社サクセール,,株式会社,東京都,台東区,竜泉３丁目３４番５号,,13,106,1100012,,,,,,,2022-04-20,1,,,,,サクセール,0
2119,8010701042539,新規,0,2022-04-20,2022-04-20,ＦＳ興産株式会社,,株式会社,東京都,品川区,小山３丁目２６番１号,,13,109,1420062,,,,,,,2022-04-20,1,,,,,エフエスコウサン,0
2122,8010703006194,新規,0,2022-04-20,2022-04-20,合同会社エングレーヴ,,合同会社,東京都,品川区,西大井５丁目９－２,,13,109,1400015,,,,,,,2022-04-20,1,,,,,エングレーヴ,0
2128,8010903007315,新規,0,2022-04-20,2022-04-20,Ｙａｎａｓｅ合同会社,,合同会社,東京都,世田谷区,桜丘２丁目２－５－２０４,,13,112,1560054,,,,,,,2022-04-20,1,,,,,ヤナセ,0
2129,8010903007323,新規,0,2022-04-20,2022-04-20,合同会社エリオント,,合同会社,東京都,世田谷区,桜新町２丁目２１番１３号２０５号,,13,112,1540015,,,,,,,2022-04-20,1,,,,,エリオント,0
2132,8011001147094,新規,0,2022-04-20,2022-04-20,株式会社純豆腐厨房,,株式会社,東京都,渋谷区,恵比寿南３丁目１番１号いちご恵比寿グリーングラス,,13,113,1500022,,,,,,,2022-04-20,1,,,,,スンドゥブチュウボウ,0
2139,8011101098576,新規,0,2022-04-20,2022-04-20,株式会社Ｇｏｄｓｐｅｅｄ,,株式会社,東京都,新宿区,西新宿３丁目５番３－８１５号,,13,104,1600023,,,,,,,2022-04-20,1,,,,,ゴッドスピード,0
2143,8011103011685,新規,0,2022-04-20,2022-04-20,合同会社抜け忍,,合同会社,東京都,新宿区,高田馬場３丁目３番１５号,,13,104,1690075,,,,,,,2022-04-20,1,,,,,ヌケニン,0
2146,8011401024182,新規,0,2022-04-20,2022-04-20,株式会社モアワークス,,株式会社,東京都,板橋区,高島平７丁目２５番１２号,,13,119,1750082,,,,,,,2022-04-20,1,,,,,モアワークス,0
2147,8011501027928,新規,0,2022-04-20,2022-04-20,株式会社ＥＡＲＴＨ,,株式会社,東京都,荒川区,町屋１丁目８番３号,,13,118,1160001,,,,,,,2022-04-20,1,,,,,アース,0
2151,8011803005053,新規,0,2022-04-20,2022-04-20,合同会社Ｈｉｄｅｏｕｔ,,合同会社,東京都,葛飾区,堀切４丁目５８番７号,,13,122,1240006,,,,,,,2022-04-20,1,,,,,ハイドアウト,0
2154,8012401039113,新規,0,2022-04-20,2022-04-20,株式会社ＹＭＨ,,株式会社,東京都,三鷹市,牟礼５丁目４番２７号,,13,204,1810002,,,,,,,2022-04-20,1,,,,,ワイエムエイチ,0
2162,8013301048988,新規,0,2022-04-20,2022-04-20,株式会社レイア,,株式会社,東京都,豊島区,上池袋１丁目１０番５－９０５号,,13,116,1700012,,,,,,,2022-04-20,1,,,,,レイア,0
2168,8020001146080,新規,0,2022-04-20,2022-04-20,株式会社プラスワンディー,,株式会社,神奈川県,横浜市保土ケ谷区,峰沢町２６７番地フォレナ羽沢横浜国大２０１号,,14,106,2400061,,,,,,,2022-04-20,1,,,,,プラスワンディー,0
2169,8020001146163,新規,0,2022-04-20,2022-04-20,株式会社ＧＢＧ,,株式会社,神奈川県,川崎市中原区,木月住吉町６番２２号ネクサス元住吉５０１,,14,133,2110021,,,,,,,2022-04-20,1,,,,,ジービージー,0
2170,8020001146171,新規,0,2022-04-20,2022-04-20,みらいマネージメント株式会社,,株式会社,神奈川県,横浜市緑区,鴨居７丁目１番２５号アクアテックビル３０４,,14,113,2260003,,,,,,,2022-04-20,1,,,,,ミライマネージメント,0
2171,8020001146196,新規,0,2022-04-20,2022-04-20,ＥＮＳＯＵホールディングス株式会社,,株式会社,神奈川県,横浜市神奈川区,鶴屋町３丁目３３番７号横浜ОＳビル６０１,,14,102,2210835,,,,,,,2022-04-20,1,,,,,エンソウホールディングス,0
2172,8020001146205,新規,0,2022-04-20,2022-04-20,株式会社フラムガーデン,,株式会社,神奈川県,川崎市多摩区,中野島１丁目１１番５２号,,14,135,2140012,,,,,,,2022-04-20,1,,,,,フラムガーデン,0
2174,8020003021645,新規,0,2022-04-20,2022-04-20,合同会社ＫｅｕＺｅｓ,,合同会社,神奈川県,横浜市神奈川区,西寺尾３丁目２５番１９－５３２号,,14,102,2210001,,,,,,,2022-04-20,1,,,,,クーゼス,0
2175,8020003021661,新規,0,2022-04-20,2022-04-20,合同会社Ｈａｐｐｙ　Ｓｍｉｌｅ,,合同会社,神奈川県,横浜市旭区,中白根２丁目４７番６号,,14,112,2410004,,,,,,,2022-04-20,1,,,,,ハッピースマイル,0
2181,8021001075740,新規,0,2022-04-20,2022-04-20,株式会社Ｊｏｂ　Ｇｕｉｄｅ,,株式会社,神奈川県,座間市,ひばりが丘４丁目１３番１１号,,14,216,2520003,,,,,,,2022-04-20,1,,,,,ジョブガイド,0
2182,8021001075749,新規,0,2022-04-20,2022-04-20,株式会社ＴＲＩＤＥＮＴ,,株式会社,神奈川県,厚木市,田村町１１番２０号５－Ｂ,,14,212,2430016,,,,,,,2022-04-20,1,,,,,トライデント,0
2195,8030003019250,新規,0,2022-04-20,2022-04-20,ＹＫＳ総業合同会社,,合同会社,埼玉県,本庄市,児玉町上真下７２９番地２,,11,211,3670205,,,,,,,2022-04-20,1,,,,,ワイケイエスソウギョウ,0
2196,8030003019283,新規,0,2022-04-20,2022-04-20,合同会社ＴＮ管理,,合同会社,埼玉県,飯能市,美杉台２丁目１０番地１１,,11,209,3570041,,,,,,,2022-04-20,1,,,,,ティーエヌカンリ,0
2200,8040001122880,新規,0,2022-04-20,2022-04-20,株式会社ＨＡＧＳ,,株式会社,千葉県,浦安市,明海６丁目１番１２－８１５号,,12,227,2790014,,,,,,,2022-04-20,1,,,,,ハグス,0
2201,8040001123086,新規,0,2022-04-20,2022-04-20,株式会社ケイティーフロンティア,,株式会社,千葉県,市川市,市川３丁目２７番１６－４０１号（ライオンズマンション国府台）,,12,203,2720034,,,,,,,2022-04-20,1,,,,,ケイティーフロンティア,0
2202,8040001123094,新規,0,2022-04-20,2022-04-20,株式会社ＭＫ,,株式会社,千葉県,印西市,小林２００４番地５,,12,231,2701318,,,,,,,2022-04-20,1,,,,,エムケイ,0
2210,8060003004035,新規,0,2022-04-20,2022-04-20,ＵＤ　ＴＲＡＤＩＮＧ合同会社,,合同会社,栃木県,栃木市,藤岡町甲２１０４番地３,,09,203,3231105,,,,,,,2022-04-20,1,,,,,ユーディートレーディング,0
2218,8070001039156,新規,0,2022-04-20,2022-04-20,株式会社ＷｉｎＤ,,株式会社,群馬県,伊勢崎市,平井町１２１９番地７,,10,204,3792233,,,,,,,2022-04-20,1,,,,,ウインド,0
2222,8070003004455,新規,0,2022-04-20,2022-04-20,合同会社エムズインベストメント,,合同会社,群馬県,前橋市,昭和町３丁目５番１２号,,10,201,3710034,,,,,,,2022-04-20,1,,,,,エムズインベストメント,0
2228,8100001035267,新規,0,2022-04-20,2022-04-20,葵建設株式会社,,株式会社,長野県,諏訪郡富士見町,落合８６７２番地２,,20,362,3990214,,,,,,,2022-04-20,1,,,,,アオイケンセツ,0
2234,8100003006514,新規,0,2022-04-20,2022-04-20,オフィスＭ合同会社,,合同会社,長野県,諏訪市,大字四賀１９５７番地５,,20,206,3920012,,,,,,,2022-04-20,1,,,,,オフィスエム,0
2243,8120001245252,新規,0,2022-04-20,2022-04-20,株式会社コネクター,,株式会社,大阪府,大阪市北区,東天満２丁目３番７－１７０５号,,27,127,5300044,,,,,,,2022-04-20,1,,,,,コネクター,0
2244,8120001245319,新規,0,2022-04-20,2022-04-20,カルノリレンタカー株式会社,,株式会社,大阪府,大阪市旭区,高殿３丁目４番９号,,27,117,5350031,,,,,,,2022-04-20,1,,,,,カルノリレンタカー,0
2245,8120001245351,新規,0,2022-04-20,2022-04-20,スタート株式会社,,株式会社,大阪府,大阪市天王寺区,悲田院町４－３９朝日プラザ天王寺パサージュ５０４号室,,27,109,5430055,,,,,,,2022-04-20,1,,,,,スタート,0
2246,8120001245368,新規,0,2022-04-20,2022-04-20,株式会社Ｃｏｌｙｚ,,株式会社,大阪府,大阪市生野区,新今里５丁目８番５－５Ｄ,,27,116,5440001,,,,,,,2022-04-20,1,,,,,コリーズ,0
2247,8120005022920,新規,0,2022-04-20,2022-04-20,ＮＰＯ法人日本ウルトラウォーキング協会,,その他の設立登記法人,大阪府,大阪市阿倍野区,西田辺町２丁目６－２１―３２２,,27,119,5450014,,,,,,,2022-04-20,1,,,,,ニホンウルトラウォーキング,0
2253,8120101065427,新規,0,2022-04-20,2022-04-20,株式会社オートデジ,,株式会社,大阪府,泉北郡忠岡町,馬瀬２丁目４番４１号（５号棟）,,27,341,5950804,,,,,,,2022-04-20,1,,,,,オートデジ,0
2254,8120101065451,新規,0,2022-04-20,2022-04-20,エクサ技研開発株式会社,,株式会社,大阪府,堺市堺区,神南辺町１丁１８番地,,27,141,5900984,,,,,,,2022-04-20,1,,,,,エクサギケンカイハツ,0
2255,8120901045867,新規,0,2022-04-20,2022-04-20,株式会社芋ショップとむ,,株式会社,大阪府,豊中市,服部豊町１丁目２番２号,,27,203,5610859,,,,,,,2022-04-20,1,,,,,イモショップトム,0
2264,8130001071598,新規,0,2022-04-20,2022-04-20,株式会社Ｌｙｎｎ’ｓｃｈｏｉｃｅ,,株式会社,京都府,亀岡市,下矢田町垣添２番地１０,,26,206,6210854,,,,,,,2022-04-20,1,,,,,リンズチョイス,0
2266,8130003007889,新規,0,2022-04-20,2022-04-20,合同会社ヒカリノアトリエ,,合同会社,京都府,京都市伏見区,深草直違橋７丁目２６５番地,,26,109,6120889,,,,,,,2022-04-20,1,,,,,ヒカリノアトリエ,0
2270,8140001125725,新規,0,2022-04-20,2022-04-20,株式会社カーシステム神戸,,株式会社,兵庫県,神戸市北区,松宮台２丁目７番地の４,,28,109,6511147,,,,,,,2022-04-20,1,,,,,カーシステムコウベ,0
2271,8150001025478,新規,0,2022-04-20,2022-04-20,株式会社ＫＴＭ,,株式会社,奈良県,奈良市,中山町西３丁目２０２番地の１３,,29,201,6310013,,,,,,,2022-04-20,1,,,,,ケーティーエム,0
2272,8160001024140,新規,0,2022-04-20,2022-04-20,みらいソリューション株式会社,,株式会社,滋賀県,湖南市,石部中央１丁目３番２４号,,25,211,5203106,,,,,,,2022-04-20,1,,,,,ミライソリューション,0
2275,8170001017069,新規,0,2022-04-20,2022-04-20,株式会社ｅｆｆｅｃｔ,,株式会社,和歌山県,橋本市,高野口町名古曽５９５番地の５,,30,203,6497203,,,,,,,2022-04-20,1,,,,,エフェクト,0
2280,8190001029343,新規,0,2022-04-20,2022-04-20,株式会社ＫＩＴ,,株式会社,三重県,津市,庄田町６３５番地２,,24,201,5141255,,,,,,,2022-04-20,1,,,,,ケーアイティ,0
2288,8200003005539,新規,0,2022-04-20,2022-04-20,ＣＭＴ　ｃｏｍｍｉｔ合同会社,,合同会社,岐阜県,大垣市,室本町５丁目２番地１,,21,202,5030911,,,,,,,2022-04-20,1,,,,,シーエムティコミット,0
2295,8230005009221,新規,0,2022-04-20,2022-04-20,医療法人おこじょ会,,その他の設立登記法人,富山県,中新川郡立山町,前沢新町４７２番地,,16,323,9300229,,,,,,,2022-04-20,1,,,,,オコジョカイ,0
2314,8290001097248,新規,0,2022-04-20,2022-04-20,株式会社ライトサービス,,株式会社,福岡県,糸島市,二丈吉井３８１５番地１１９,,40,230,8191641,,,,,,,2022-04-20,1,,,,,ライトサービス,0
2315,8290001097264,新規,0,2022-04-20,2022-04-20,株式会社風和,,株式会社,福岡県,福岡市東区,土井１丁目１８番８－２０２号,,40,131,8130032,,,,,,,2022-04-20,1,,,,,フウワ,0
2318,8290003012403,新規,0,2022-04-20,2022-04-20,合同会社ＨＥＬＮＥＳＳ,,合同会社,福岡県,春日市,須玖南４丁目１１８番地３ｇｒａｎｆｏｒｔｉｎａ春日Ｂ棟２０３号,,40,218,8160863,,,,,,,2022-04-20,1,,,,,ヘルネス,0
2319,8290005018646,新規,0,2022-04-20,2022-04-20,ｂｅｓｔＢＡＬＡＮＣＥ税理士法人,,その他の設立登記法人,福岡県,福岡市中央区,大名２丁目２番５０号,,40,133,8100041,,,,,,,2022-04-20,1,,,,,ベストバランス,0
2324,8300001012898,新規,0,2022-04-20,2022-04-20,株式会社坂田工業,,株式会社,佐賀県,佐賀市,川副町大字南里１９８３番地,,41,201,8402205,,,,,,,2022-04-20,1,,,,,サカタコウギョウ,0
2329,8310005008611,新規,0,2022-04-20,2022-04-20,ＮＰＯ法人発達障がいお悩み預かり所かぎしっぽ,,その他の設立登記法人,長崎県,長崎市,花丘町１３番５号,,42,201,8528153,,,,,,,2022-04-20,1,,,,,ハッタツショウガイオナヤミアズカリショカギシッポ,0
2330,8320005009988,新規,0,2022-04-20,2022-04-20,一般社団法人ＣＨＥＥＴＡＨ,,その他の設立登記法人,大分県,中津市,新博多町１７０９番地,,44,203,8710041,,,,,,,2022-04-20,1,,,,,チーター,0
2339,8360001030291,新規,0,2022-04-20,2022-04-20,ＨＡＲＶＥＳＴ　ＭＯＯＮ株式会社,,株式会社,沖縄県,南城市,玉城字親慶原７３４－２,,47,215,9010608,,,,,,,2022-04-20,1,,,,,ハーベストムーン,0
2340,8370003005662,新規,0,2022-04-20,2022-04-20,合同会社Ｍ＆Ｕ,,合同会社,宮城県,黒川郡大郷町,鶉崎字原４５番地の２０,,04,422,9813524,,,,,,,2022-04-20,1,,,,,エムアンドユー,0
2350,8410001013167,新規,0,2022-04-20,2022-04-20,株式会社Ｇｒａｔｓ,,株式会社,秋田県,秋田市,中通５丁目１番５１号北都ビルディング,,05,201,0100001,,,,,,,2022-04-20,1,,,,,グラッツ,0
2351,8420001017811,新規,0,2022-04-20,2022-04-20,株式会社プルレ・リール,,株式会社,青森県,五所川原市,大字広田字柳沼１１５番地２１,,02,205,0370023,,,,,,,2022-04-20,1,,,,,プルレリール,0
2361,8470001019043,新規,0,2022-04-20,2022-04-20,株式会社ＴＫ‐ＴＥＣＨ,,株式会社,香川県,高松市,林町３７２番地６,,37,201,7610301,,,,,,,2022-04-20,1,,,,,ティーケーテック,0
2365,8480003001824,新規,0,2022-04-20,2022-04-20,リスポーン合同会社,,合同会社,徳島県,徳島市,幸町３丁目１４－２Ｆ,,36,201,7700847,,,,,,,2022-04-20,1,,,,,リスポーン,0
2373,8500001024155,新規,0,2022-04-20,2022-04-20,株式会社オリタ工業,,株式会社,愛媛県,今治市,北日吉町１丁目３番２号,,38,202,7940054,,,,,,,2022-04-20,1,,,,,オリタコウギョウ,0
2374,8700150108168,新規,0,2022-04-20,2022-04-20,ＪＡＣ　Ｎｉｓｅｋｏ　Ｈｏｌｄｉｎｇｓ　Ｌｉｍｉｔｅｄ,,外国会社等,北海道,虻田郡ニセコ町,字ニセコ４３０番４,,01,395,0481511,Ｍａｎｄａｒ　Ｈｏｕｓｅ，　３／Ｆ，　Ｊｏｈｎｓｏｎ’ｓ　Ｇｈｕｔ，　Ｔｏｒｔｏｌａ，　Ｂｒｉｔｉｓｈ　Ｖｉｒｇｉｎ　Ｉｓｌａｎｄｓ,,,,,,2022-04-20,1,,,,,ジエイエーシーニセコホールデイングスリミテツド,0
2379,9010001225792,新規,0,2022-04-20,2022-04-20,株式会社セカンドノオト,,株式会社,東京都,千代田区,二番町１２番地１２Ｂ．Ｄ．Ａ．二番町ビル１階,,13,101,1020084,,,,,,,2022-04-20,1,,,,,セカンドノオト,0
2380,9010001225909,新規,0,2022-04-20,2022-04-20,アンノウン・テクノロジーズ株式会社,,株式会社,東京都,千代田区,九段南１丁目５番６号りそな九段ビル５階,,13,101,1020074,,,,,,,2022-04-20,1,,,,,アンノウンテクノロジーズ,0
2381,9010001225982,新規,0,2022-04-20,2022-04-20,株式会社ＭｅｄｉｃａｌＰａｒｔｎｅｒｓＪａｐａｎ,,株式会社,東京都,中央区,勝どき６丁目３番２－１９１０号,,13,102,1040054,,,,,,,2022-04-20,1,,,,,メディカルパートナーズジャパン,0
2394,9010401166843,新規,0,2022-04-20,2022-04-20,株式会社ＷＥＩＮ　Ａｇｅｎｃｙ,,株式会社,東京都,港区,海岸１丁目４－２２・１０階,,13,103,1050022,,,,,,,2022-04-20,1,,,,,ウエインエージェンシー,0
2395,9010401166934,新規,0,2022-04-20,2022-04-20,株式会社Ｙ,,株式会社,東京都,港区,南青山５丁目１５番９号フラット青山３０６,,13,103,1070062,,,,,,,2022-04-20,1,,,,,ワイ,0
2398,9010403027515,新規,0,2022-04-20,2022-04-20,合同会社光紬,,合同会社,東京都,港区,南青山２丁目２番１５号,,13,103,1070062,,,,,,,2022-04-20,1,,,,,ミツムギ,0
2399,9010403027531,新規,0,2022-04-20,2022-04-20,合同会社ＬＩＧＨＴＳＴＡＲ　ＪＡＰＡＮ,,合同会社,東京都,港区,虎ノ門２丁目３番１７号虎ノ門二丁目タワー１９階,,13,103,1050001,,,,,,,2022-04-20,1,,,,,ライトスタージャパン,0
2405,9010603009503,新規,0,2022-04-20,2022-04-20,合同会社グッドラック,,合同会社,東京都,江東区,東陽１丁目１８－３リブリみやび１１１,,13,108,1350016,,,,,,,2022-04-20,1,,,,,グッドラック,0
2407,9010703006193,新規,0,2022-04-20,2022-04-20,山椿舎合同会社,,合同会社,東京都,品川区,大井６丁目１４番１９号,,13,109,1400014,,,,,,,2022-04-20,1,,,,,ヤマツバキシャ,0
2412,9010901050729,新規,0,2022-04-20,2022-04-20,株式会社ｍｕｉ,,株式会社,東京都,世田谷区,太子堂４丁目２５番５号,,13,112,1540004,,,,,,,2022-04-20,1,,,,,ムイ,0
2413,9010901050745,新規,0,2022-04-20,2022-04-20,株式会社ディーエムイー,,株式会社,東京都,世田谷区,若林５丁目３９－３,,13,112,1540023,,,,,,,2022-04-20,1,,,,,ディーエムイー,0
2417,9011001147060,新規,0,2022-04-20,2022-04-20,株式会社Ａ　Ｃｏｄｅ,,株式会社,東京都,渋谷区,神宮前６丁目２３番４号桑野ビル２階,,13,113,1500001,,,,,,,2022-04-20,1,,,,,エーコード,0
2420,9011003014548,新規,0,2022-04-20,2022-04-20,合同会社ｃｏｎｎｅｃｔ,,合同会社,東京都,渋谷区,神宮前６丁目２３番４号桑野ビル２階,,13,113,1500001,,,,,,,2022-04-20,1,,,,,コネクト,0
2421,9011003014572,新規,0,2022-04-20,2022-04-20,Ｔｏｋｙｏ　Ｇｅｎｄａｉ合同会社,,合同会社,東京都,渋谷区,渋谷２丁目２１番１号渋谷ヒカリエ３３階,,13,113,1500002,,,,,,,2022-04-20,1,,,,,トウキョウゲンダイ,0
2422,9011003014580,新規,0,2022-04-20,2022-04-20,合同会社Ｂｅａｕｔｙ　Ｅｄｇｅ,,合同会社,東京都,渋谷区,神宮前６丁目２３番４号桑野ビル２階,,13,113,1500001,,,,,,,2022-04-20,1,,,,,ビューティーエッジ,0
2424,9011101098451,新規,0,2022-04-20,2022-04-20,株式会社ｐｒｅＡｒｃｈ,,株式会社,東京都,新宿区,神楽坂１丁目３,,13,104,1620825,,,,,,,2022-04-20,1,,,,,プレアーク,0
2425,9011101098567,新規,0,2022-04-20,2022-04-20,株式会社ＦＯＲ　ＲＯＯＴＳ,,株式会社,東京都,新宿区,新宿１丁目３６番２号新宿第七葉山ビル３階,,13,104,1600022,,,,,,,2022-04-20,1,,,,,フォールーツ,0
2426,9011101098575,新規,0,2022-04-20,2022-04-20,株式会社シーズグローバルエージェンシー,,株式会社,東京都,新宿区,西新宿３丁目３番１３号西新宿水間ビル６階,,13,104,1600023,,,,,,,2022-04-20,1,,,,,シーズグローバルエージェンシー,0
2427,9011101098617,新規,0,2022-04-20,2022-04-20,テクノロジー株式会社,,株式会社,東京都,新宿区,百人町２丁目２６番５号マイルドビル４階,,13,104,1690073,,,,,,,2022-04-20,1,,,,,テクノロジー,0
2429,9011303004389,新規,0,2022-04-20,2022-04-20,クボタグループ合同会社,,合同会社,東京都,杉並区,下高井戸２丁目１０番３号,,13,115,1680073,,,,,,,2022-04-20,1,,,,,クボタグループ,0
2430,9011305002820,新規,0,2022-04-20,2022-04-20,一般社団法人ＡａａＳ　Ｂｒｉｄｇｅ,,その他の設立登記法人,東京都,杉並区,天沼２丁目１番３号,,13,115,1670032,,,,,,,2022-04-20,1,,,,,アースブリッジ,0
2431,9011401024181,新規,0,2022-04-20,2022-04-20,株式会社ＩＮＳマネージメント,,株式会社,東京都,板橋区,板橋４丁目３９番８号,,13,119,1730004,,,,,,,2022-04-20,1,,,,,アイエヌエスマネージメント,0
2441,9011801040596,新規,0,2022-04-20,2022-04-20,海棠株式会社,,株式会社,東京都,葛飾区,青戸７丁目２３番１１号,,13,122,1250062,,,,,,,2022-04-20,1,,,,,カイドウ,0
2442,9011803005052,新規,0,2022-04-20,2022-04-20,合同会社コンフォール・ＥＭ,,合同会社,東京都,足立区,綾瀬２丁目１６番１２号,,13,121,1200005,,,,,,,2022-04-20,1,,,,,コンフォールイーエム,0
2443,9012401039112,新規,0,2022-04-20,2022-04-20,株式会社ＡＭＲ,,株式会社,東京都,府中市,小柳町４丁目２７番地の７,,13,206,1830013,,,,,,,2022-04-20,1,,,,,エーエムアール,0
2444,9012403005327,新規,0,2022-04-20,2022-04-20,合同会社ＫＹＫプランニング,,合同会社,東京都,府中市,本宿町３丁目１８番地の３５,,13,206,1830032,,,,,,,2022-04-20,1,,,,,ケイワイケイプランニング,0
2446,9012703002445,新規,0,2022-04-20,2022-04-20,合同会社ＫＬＳ,,合同会社,東京都,東久留米市,下里５丁目１６－９,,13,222,2030043,,,,,,,2022-04-20,1,,,,,,0
2450,9013301048962,新規,0,2022-04-20,2022-04-20,創威株式会社,,株式会社,東京都,豊島区,東池袋３丁目２０番９号,,13,116,1700013,,,,,,,2022-04-20,1,,,,,ソウイ,0
2451,9013301048995,新規,0,2022-04-20,2022-04-20,株式会社トレリア不動産,,株式会社,東京都,豊島区,長崎１丁目２７番２１号,,13,116,1710051,,,,,,,2022-04-20,1,,,,,トレリアフドウサン,0
2456,9020001146162,新規,0,2022-04-20,2022-04-20,株式会社ＳＬＡＰＳ,,株式会社,神奈川県,川崎市多摩区,枡形２丁目８番８号ファミーユアイ１０１,,14,135,2140032,,,,,,,2022-04-20,1,,,,,スラップス,0
2457,9020001146187,新規,0,2022-04-20,2022-04-20,株式会社ＢｒａｎｄＣｏｎｎｅｃｔ,,株式会社,神奈川県,横浜市西区,みなとみらい４丁目４番２号横浜ブルーアベニュー１２階,,14,103,2200012,,,,,,,2022-04-20,1,,,,,ブランドコネクト,0
2458,9020001146204,新規,0,2022-04-20,2022-04-20,株式会社アーバンド・エル・ケーワン,,株式会社,神奈川県,横浜市南区,別所５丁目７番１３号,,14,105,2320064,,,,,,,2022-04-20,1,,,,,アーバンドエルケーワン,0
2462,9020003021561,新規,0,2022-04-20,2022-04-20,合同会社セカンドスタッフ,,合同会社,神奈川県,横浜市中区,桜木町２丁目２港陽ビル４階,,14,104,2310062,,,,,,,2022-04-20,1,,,,,セカンドスタッフ,0
2463,9020003021652,新規,0,2022-04-20,2022-04-20,合同会社Ｍｕｓｅ,,合同会社,神奈川県,川崎市川崎区,貝塚２丁目１番３－７０１号,,14,131,2100014,,,,,,,2022-04-20,1,,,,,ミューズ,0
2468,9021001075764,新規,0,2022-04-20,2022-04-20,株式会社エイトファンズ,,株式会社,神奈川県,厚木市,妻田西１丁目２８番２３号,,14,212,2430815,,,,,,,2022-04-20,1,,,,,エイトファンズ,0
2469,9021003011619,新規,0,2022-04-20,2022-04-20,ＣＲＥＳＣＥＮＴ合同会社,,合同会社,神奈川県,海老名市,中野３丁目１１番１８号,,14,215,2430425,,,,,,,2022-04-20,1,,,,,クレセント,0
2470,9030001147804,新規,0,2022-04-20,2022-04-20,株式会社ハウス・エージェント,,株式会社,埼玉県,川越市,大字鹿飼３９１番地１１,,11,201,3500834,,,,,,,2022-04-20,1,,,,,ハウスエージェント,0
2471,9030001147829,新規,0,2022-04-20,2022-04-20,ＴＡＳＯ株式会社,,株式会社,埼玉県,草加市,吉町５丁目６番１５号グリーンビレッジ弐番館１０１,,11,221,3400017,,,,,,,2022-04-20,1,,,,,タソ,0
2473,9030003019258,新規,0,2022-04-20,2022-04-20,合同会社大木不動産管理,,合同会社,埼玉県,新座市,本多２丁目８番８０号,,11,230,3520022,,,,,,,2022-04-20,1,,,,,オオキフドウサンカンリ,0
2476,9040001123077,新規,0,2022-04-20,2022-04-20,ＯＨＫＡ　ＨＯＬＤＩＮＧＳ株式会社,,株式会社,千葉県,千葉市中央区,寒川町２丁目２０３番地９,,12,101,2600832,,,,,,,2022-04-20,1,,,,,オーカホールディングス,0
2477,9040001123119,新規,0,2022-04-20,2022-04-20,古矢鉄骨工事株式会社,,株式会社,千葉県,流山市,平和台２丁目１３番地１３流山パークハイツ２１０,,12,220,2700157,,,,,,,2022-04-20,1,,,,,フルヤテッコツコウジ,0
2480,9040003019901,新規,0,2022-04-20,2022-04-20,合同会社悠雅,,合同会社,千葉県,千葉市若葉区,東寺山町１０６５番地２,,12,104,2640035,,,,,,,2022-04-20,1,,,,,ユウガ,0
2486,9050001050964,新規,0,2022-04-20,2022-04-20,株式会社レント,,株式会社,茨城県,潮来市,潮来２３３番地１,,08,223,3112424,,,,,,,2022-04-20,1,,,,,レント,0
2487,9050001050980,新規,0,2022-04-20,2022-04-20,株式会社フォックス,,株式会社,茨城県,つくば市,二の宮２丁目１２番地１０,,08,220,3050051,,,,,,,2022-04-20,1,,,,,フォックス,0
2490,9080101023231,新規,0,2022-04-20,2022-04-20,株式会社江藤企画,,株式会社,静岡県,富士市,中里１０８番地の７,,22,210,4170826,,,,,,,2022-04-20,1,,,,,エトウキカク,0
2492,9080401025761,新規,0,2022-04-20,2022-04-20,株式会社ＧＲＥＥＮ　ＣＨＡＲＧＥ,,株式会社,静岡県,浜松市西区,舞阪町舞阪２７０１番地の９舞阪協働センター４階,,22,133,4310211,,,,,,,2022-04-20,1,,,,,グリーンチャージ,0
2494,9080403004524,新規,0,2022-04-20,2022-04-20,合同会社ＦＯＲＴＵＮＡ,,合同会社,静岡県,浜松市浜北区,於呂４３７４番地,,22,136,4340015,,,,,,,2022-04-20,1,,,,,フォルトゥナ,0
2496,9100001035266,新規,0,2022-04-20,2022-04-20,株式会社鹿島槍の天然水,,株式会社,長野県,大町市,平６４２０番地１,,20,212,3980001,,,,,,,2022-04-20,1,,,,,カシマヤリノテンネンスイ,0
2497,9100001035274,新規,0,2022-04-20,2022-04-20,株式会社ハレノヒ,,株式会社,長野県,中野市,大字片塩１３８番地１５,,20,211,3830046,,,,,,,2022-04-20,1,,,,,ハレノヒ,0
2499,9100003006513,新規,0,2022-04-20,2022-04-20,合同会社増吉産業,,合同会社,長野県,長野市,真島町真島１５５３番地１,,20,201,3812204,,,,,,,2022-04-20,1,,,,,マスヨシサンギョウ,0
2503,9110001036602,新規,0,2022-04-20,2022-04-20,株式会社ＲＥＹＳ,,株式会社,新潟県,上越市,寺町３丁目１６－８,,15,222,9430892,,,,,,,2022-04-20,1,,,,,レイズ,0
2512,9120001245301,新規,0,2022-04-20,2022-04-20,株式会社ＬＯＧ　ＴＯＷＮ,,株式会社,大阪府,大阪市北区,梅田２丁目６番１３号,,27,127,5300001,,,,,,,2022-04-20,1,,,,,ログタウン,0
2513,9120001245318,新規,0,2022-04-20,2022-04-20,株式会社Ｒｅｌｉｅｒ,,株式会社,大阪府,大阪市中央区,南船場３丁目１番７号,,27,128,5420081,,,,,,,2022-04-20,1,,,,,ルリエ,0
2514,9120001245342,新規,0,2022-04-20,2022-04-20,株式会社メリックスホールディングス,,株式会社,大阪府,大阪市北区,中崎西２丁目４番１２号梅田センタービル２８階,,27,127,5300015,,,,,,,2022-04-20,1,,,,,メリックスホールディングス,0
2515,9120001245359,新規,0,2022-04-20,2022-04-20,ＳＮＯＷ　ＢＩＲＣＨ株式会社,,株式会社,大阪府,大阪市北区,神山町１番２７号,,27,127,5300026,,,,,,,2022-04-20,1,,,,,スノーバーチ,0
2520,9120003021519,新規,0,2022-04-20,2022-04-20,合同会社Ｃｈｅｒｉｅ,,合同会社,大阪府,大阪市旭区,新森４丁目２３番２３号,,27,117,5350022,,,,,,,2022-04-20,1,,,,,シェリー,0
2522,9120101065434,新規,0,2022-04-20,2022-04-20,株式会社Ｃｒｅａｔｉｏｎ,,株式会社,大阪府,堺市堺区,東雲西町１丁５番１４号,,27,141,5900013,,,,,,,2022-04-20,1,,,,,クリエイション,0
2523,9120901045866,新規,0,2022-04-20,2022-04-20,つなぐリアルティ株式会社,,株式会社,大阪府,箕面市,半町３丁目５番Ｃ－６１０号,,27,220,5620044,,,,,,,2022-04-20,1,,,,,ツナグリアルティ,0
2524,9120901045874,新規,0,2022-04-20,2022-04-20,株式会社ヤハタ,,株式会社,大阪府,高槻市,八幡町１１番３２号,,27,207,5690051,,,,,,,2022-04-20,1,,,,,ヤハタ,0
2531,9130001071580,新規,0,2022-04-20,2022-04-20,株式会社リープ,,株式会社,京都府,亀岡市,馬路町三ツ辻８番地１,00126352,26,206,6210008,,,,,,,2022-04-20,1,,,,,リープ,0
2532,9130001071589,新規,0,2022-04-20,2022-04-20,ファミポ株式会社,,株式会社,京都府,京都市北区,紫野十二坊町２６－７,,26,101,6038303,,,,,,,2022-04-20,1,,,,,ファミポ,0
2533,9130003007888,新規,0,2022-04-20,2022-04-20,合同会社淑美,,合同会社,京都府,京丹後市,大宮町口大野６番地の２,,26,212,6292501,,,,,,,2022-04-20,1,,,,,ヨシミ,0
2541,9140001125690,新規,0,2022-04-20,2022-04-20,ＯＳ開発株式会社,,株式会社,兵庫県,加古郡稲美町,中村１３９９番地２,,28,381,6751122,,,,,,,2022-04-20,1,,,,,オーエスカイハツ,0
2542,9140001125699,新規,0,2022-04-20,2022-04-20,株式会社山岡庭園,,株式会社,兵庫県,加古川市,上荘町薬栗１７６番地の１,,28,210,6751217,,,,,,,2022-04-20,1,,,,,ヤマオカテイエン,0
2543,9140003017597,新規,0,2022-04-20,2022-04-20,合同会社ＳＡＫＵＲＡ　ＰＲＯＪＥＣＴ,,合同会社,兵庫県,明石市,魚住町清水２６７０番地の７,,28,203,6740074,,,,,,,2022-04-20,1,,,,,サクラプロジェクト,0
2550,9150001025460,新規,0,2022-04-20,2022-04-20,株式会社小春日和,,株式会社,奈良県,宇陀市,榛原山辺三４７４番地の１の１,,29,212,6330202,,,,,,,2022-04-20,1,,,,,コハルビヨリ,0
2551,9150001025477,新規,0,2022-04-20,2022-04-20,株式会社ＡＫＡＳＥ,,株式会社,奈良県,大和郡山市,千日町１１番地２,,29,203,6391053,,,,,,,2022-04-20,1,,,,,アカセ,0
2552,9150003002672,新規,0,2022-04-20,2022-04-20,ＰＮＰＣ合同会社,,合同会社,奈良県,大和高田市,礒野東町３番１号辰巳ビル２階,,29,202,6350061,,,,,,,2022-04-20,1,,,,,ピーエヌピーシー,0
2554,9170001017068,新規,0,2022-04-20,2022-04-20,株式会社榎本建築事務所,,株式会社,和歌山県,和歌山市,布施屋３７５番地,,30,201,6496321,,,,,,,2022-04-20,1,,,,,エノモトケンチクジムショ,0
2578,9260003003882,新規,0,2022-04-20,2022-04-20,合同会社ＭＯＲＥ,,合同会社,岡山県,倉敷市,阿知２丁目１８番７号,,33,202,7100055,,,,,,,2022-04-20,1,,,,,モア,0
2579,9260005011074,新規,0,2022-04-20,2022-04-20,医療法人社団明勇会,,その他の設立登記法人,岡山県,津山市,高野本郷１４３７番地１,,33,203,7081125,,,,,,,2022-04-20,1,,,,,シャダンメイユウカイ,0
2588,9290001097271,新規,0,2022-04-20,2022-04-20,株式会社Ｈａｃｈｉ３２１,,株式会社,福岡県,宗像市,鐘崎５４０－２,,40,220,8113512,,,,,,,2022-04-20,1,,,,,ハチサンニーイチ,0
2592,9290003012419,新規,0,2022-04-20,2022-04-20,合同会社ＰＵＫＡ,,合同会社,福岡県,久留米市,天神町６０番地４,,40,203,8300033,,,,,,,2022-04-20,1,,,,,プカ,0
2594,9290005018653,新規,0,2022-04-20,2022-04-20,医療法人エッセンシア,,その他の設立登記法人,福岡県,久留米市,安武町安武本３３０２番７号,,40,203,8300072,,,,,,,2022-04-20,1,,,,,エッセンシア,0
2595,9290801028459,新規,0,2022-04-20,2022-04-20,株式会社工告,,株式会社,福岡県,直方市,大字上新入１６７５－５,,40,204,8220033,,,,,,,2022-04-20,1,,,,,コウコク,0
2598,9320001019024,新規,0,2022-04-20,2022-04-20,株式会社オープン企画,,株式会社,大分県,大分市,碩田町３丁目１番１号ニューガイア大分北２０２号,,44,201,8700048,,,,,,,2022-04-20,1,,,,,オープンキカク,0
2605,9370001048456,新規,0,2022-04-20,2022-04-20,株式会社颯塗装,,株式会社,宮城県,仙台市太白区,向山１丁目３番５０－２０４号,,04,104,9820841,,,,,,,2022-04-20,1,,,,,ハヤテトソウ,0
2606,9370001048480,新規,0,2022-04-20,2022-04-20,株式会社Ａ＆Ｋホールディングス,,株式会社,宮城県,仙台市青葉区,国分町１丁目２番５－１４０２号,,04,101,9800803,,,,,,,2022-04-20,1,,,,,エーアンドケーホールディングス,0
2607,9370003005661,新規,0,2022-04-20,2022-04-20,合同会社マルイチ建装,,合同会社,宮城県,仙台市太白区,秋保町長袋字大原５８番地の８,,04,104,9820243,,,,,,,2022-04-20,1,,,,,マルイチケンソウ,0
2613,9380005012572,新規,0,2022-04-20,2022-04-20,一般社団法人ふくしまリアリ,,その他の設立登記法人,福島県,郡山市,菜根５丁目７－１３,,07,203,9638862,,,,,,,2022-04-20,1,,,,,フクシマリアリ,0
2614,9400001015865,新規,0,2022-04-20,2022-04-20,２ＷＡＹ株式会社,,株式会社,岩手県,盛岡市,上田３丁目１－４,,03,201,0200066,,,,,,,2022-04-20,1,,,,,ツーウェイ,0
2617,9410005006463,新規,0,2022-04-20,2022-04-20,農事組合法人仁井田ファーム,,その他の設立登記法人,秋田県,秋田市,仁井田目長田１丁目９番５８号,,05,201,0101422,,,,,,,2022-04-20,1,,,,,ニイダファーム,0
2623,9420003002505,新規,0,2022-04-20,2022-04-20,合同会社三戸エナジー,,合同会社,青森県,三戸郡三戸町,大字梅内字板沢３４番地,,02,441,0390112,,,,,,,2022-04-20,1,,,,,サンノヘエナジー,0
2628,9430005014456,新規,0,2022-04-20,2022-04-20,ＮＰＯ法人ドリームキッズチャレンジ,,その他の設立登記法人,北海道,札幌市豊平区,豊平四条１０丁目２番２０号Ｌハイム豊平公園３０１,,01,105,0620904,,,,,,,2022-04-20,1,,,,,ドリームキッズチャレンジ,0
2629,9440001009070,新規,0,2022-04-20,2022-04-20,株式会社澤田果樹園,,株式会社,北海道,松前郡福島町,字三岳４９０番地６,,01,332,0491331,,,,,,,2022-04-20,1,,,,,サワダカジュエン,0
2631,9460001005687,新規,0,2022-04-20,2022-04-20,株式会社明宝,,株式会社,北海道,白糠郡白糠町,西庶路東一条南３丁目２番地１,,01,668,0880574,,,,,,,2022-04-20,1,,,,,メイホウ,0
2635,9470001019042,新規,0,2022-04-20,2022-04-20,株式会社サンハート,,株式会社,香川県,高松市,郷東町１１７番地,,37,201,7618031,,,,,,,2022-04-20,1,,,,,サンハート,0
2639,9480003001823,新規,0,2022-04-20,2022-04-20,合同会社彩り,,合同会社,徳島県,徳島市,多家良町上宝８２番地の７,,36,201,7714264,,,,,,,2022-04-20,1,,,,,イロドリ,0
2640,9500001024154,新規,0,2022-04-20,2022-04-20,株式会社マイカ,,株式会社,愛媛県,今治市,波方町樋口甲５４７番地３,00126339,38,202,7992102,,,,,,,2022-04-20,1,,,,,マイカ,0
2641,9500001024162,新規,0,2022-04-20,2022-04-20,株式会社さくら電工,,株式会社,愛媛県,伊予市,灘町１２０番地５,,38,210,7993114,,,,,,,2022-04-20,1,,,,,サクラデンコウ,0
2643,9700150108167,新規,0,2022-04-20,2022-04-20,Ｒａｄｃｏｍ　Ｌｔｄ,,外国会社等,,,,,,,,Ｉｓｒａｅｌ，　Ｔｅｌ　Ａｖｉｖ　６９７１９２０，　Ｒａｏｕｌ　Ｗａｌｌｅｎｂｅｒｇ　ｓｔｒｅｅｔ　２４,,,,,,2022-04-20,1,,,,,ラドコムエルテイーデイー,0
