sequenceNumber,corporateNumber,process,correct,updateDate,changeDate,name,nameImageId,kind,prefectureName,cityName,streetNumber,addressImageId,prefectureCode,cityCode,postCode,addressOutside,addressOutsideImageId,closeDate,closeCause,successorCorporateNumber,changeCause,assignmentDate,latest,enName,enPrefectureName,enCityName,enAddressOutside,furigana,hihyoji
8,1010001256366,新規,0,2025-07-02,2025-07-02,Ｓｔｅｉｎｂａｃｈ＆Ｐａｒｔｎｅｒ株式会社,,株式会社,東京都,中央区,日本橋室町１丁目１１番１２号日本橋水野ビル７階,,13,102,1030022,,,,,,,2025-07-02,1,,,,,シュタインバッハアンドパートナー,0
9,1010001256399,新規,0,2025-07-02,2025-07-02,朝理美学建築投資開発株式会社,,株式会社,東京都,中央区,日本橋人形町２丁目２－３堀口ビル３０２,,13,102,1030013,,,,,,,2025-07-02,1,,,,,アサリビガクケンチクトウシカイハツ,0
10,1010001256515,新規,0,2025-07-02,2025-07-02,株式会社ＪＵＪＩ,,株式会社,東京都,千代田区,富士見１丁目３－１１富士見デュープレックスＢ’ｓ４Ｆ,,13,101,1020071,,,,,,,2025-07-02,1,,,,,ジュウジ,0
20,1010401191254,新規,0,2025-07-02,2025-07-02,株式会社Ｇ９ＤＹＮＥ,,株式会社,東京都,港区,赤坂９丁目７番１号ミッドタウン・タワー４３Ｆ,,13,103,1070052,,,,,,,2025-07-02,1,,,,,グリーナインダイン,0
21,1010401191270,新規,0,2025-07-02,2025-07-02,プラチナストリート株式会社,,株式会社,東京都,港区,白金台５丁目１４番８号,,13,103,1080071,,,,,,,2025-07-02,1,,,,,プラチナストリート,0
22,1010401191502,新規,0,2025-07-02,2025-07-02,株式会社Ｔｒｕｓｔ　Ｅｎｇｉｎｅ,,株式会社,東京都,港区,港南１丁目２番７０号品川シーズンテラス,,13,103,1080075,,,,,,,2025-07-02,1,,,,,トラストエンジン,0
24,1010403035475,新規,0,2025-07-02,2025-07-02,合同会社ＮｏＢｏｒｄｅｒＤＡＯ,,合同会社,東京都,港区,芝２丁目２番１２号５階,,13,103,1050014,,,,,,,2025-07-02,1,,,,,ノーボーダーダオ,0
28,1010405024501,新規,0,2025-07-02,2025-07-02,一般社団法人職場の環境整備,,その他の設立登記法人,東京都,港区,北青山１丁目３－３三橋ビル３階,,13,103,1070061,,,,,,,2025-07-02,1,,,,,ショクバノカンキョウセイビ,0
31,1010501054328,新規,0,2025-07-02,2025-07-02,株式会社Ｃｅｌａｒｉｓ,,株式会社,東京都,台東区,三ノ輪１丁目２８番１６号１Ｆ,,13,106,1100011,,,,,,,2025-07-02,1,,,,,セラリス,0
35,1010801036331,新規,0,2025-07-02,2025-07-02,ネオリンク株式会社,,株式会社,東京都,大田区,南馬込６丁目２５番１６－３０２号,,13,111,1430025,,,,,,,2025-07-02,1,,,,,ネオリンク,0
36,1010805003187,新規,0,2025-07-02,2025-07-02,一般社団法人ウェルヴェスト,,その他の設立登記法人,東京都,大田区,蒲田４丁目７番５号コヌブリーズ蒲田５０１,,13,111,1440052,,,,,,,2025-07-02,1,,,,,ウェルヴェスト,0
39,1010901057665,新規,0,2025-07-02,2025-07-02,株式会社ＫＴ不動産,,株式会社,東京都,世田谷区,上馬１丁目１４番１０号上馬ハイツ４０２,,13,112,1540011,,,,,,,2025-07-02,1,,,,,ケイティーフドウサン,0
40,1010901057673,新規,0,2025-07-02,2025-07-02,株式会社Ｖａｌｓｔｒａ,,株式会社,東京都,世田谷区,上馬５丁目２４番２１号,,13,112,1540011,,,,,,,2025-07-02,1,,,,,ヴァルストラ,0
51,1011101112203,新規,0,2025-07-02,2025-07-02,Ａｎ＆Ｃｈｏｉ　Ｉｎｖｅｓｔｍｅｎｔ株式会社,,株式会社,東京都,新宿区,下宮比町２番２８号,,13,104,1620822,,,,,,,2025-07-02,1,,,,,アンアンドチョイインベストメント,0
53,1011103016055,新規,0,2025-07-02,2025-07-02,Ｓｅｎｄａｉ合同会社,,合同会社,東京都,新宿区,西新宿３丁目３番１３号西新宿水間ビル２Ｆ,,13,104,1600023,,,,,,,2025-07-02,1,,,,,センドアイ,0
54,1011103016063,新規,0,2025-07-02,2025-07-02,合同会社ＳＩＭＢＡ,,合同会社,東京都,新宿区,西新宿３丁目３番１３号西新宿水間ビル２Ｆ,,13,104,1600023,,,,,,,2025-07-02,1,,,,,シンバ,0
55,1011103016071,新規,0,2025-07-02,2025-07-02,Ｐａｙｍｅｎｔ　Ｓｕｐｐｏｒｔ合同会社,,合同会社,東京都,新宿区,西新宿３丁目３番１３号西新宿水間ビル２Ｆ,,13,104,1600023,,,,,,,2025-07-02,1,,,,,ペイメントサポート,0
56,1011301030691,新規,0,2025-07-02,2025-07-02,株式会社パートンココ,,株式会社,東京都,杉並区,久我山３丁目２４番９号ガーデンプレイス久我山３０４,,13,115,1680082,,,,,,,2025-07-02,1,,,,,パートンココ,0
57,1011501032273,新規,0,2025-07-02,2025-07-02,株式会社スリーフォースＳｕｉ総合調査,,株式会社,東京都,荒川区,荒川７丁目２２番６号フロンティア・ワン４Ｆ,,13,118,1160002,,,,,,,2025-07-02,1,,,,,スリーフォーススイソウゴウチョウサ,0
59,1011503006597,新規,0,2025-07-02,2025-07-02,ＸＢＡＮ合同会社,,合同会社,東京都,荒川区,南千住３丁目２７－２浅草ビル５０８,,13,118,1160003,,,,,,,2025-07-02,1,,,,,エックスビアエン,0
66,1011801046386,新規,0,2025-07-02,2025-07-02,株式会社ジェイオー,,株式会社,東京都,葛飾区,東金町５丁目２９番２号,,13,122,1250041,,,,,,,2025-07-02,1,,,,,ジェイオー,0
84,1020003028820,新規,0,2025-07-02,2025-07-02,合同会社ＨＡＲＤＲＯＣＫ　ＶＩＬＬＡＧＥ,,合同会社,神奈川県,川崎市高津区,久末１００番地フォレスト久末Ｆ棟３号室,,14,134,2130026,,,,,,,2025-07-02,1,,,,,ハードロックビレッジ,0
92,1021001085457,新規,0,2025-07-02,2025-07-02,株式会社ＭＥＤＥＬ,,株式会社,神奈川県,逗子市,沼間５丁目１８－３０,,14,208,2490004,,,,,,,2025-07-02,1,,,,,メデル,0
105,1040003027960,新規,0,2025-07-02,2025-07-02,金田興業合同会社,,合同会社,千葉県,市川市,加藤新田２０２番地２０ヴェレーナシティ行徳Ｉ街区７１２,00139766,12,203,2720124,,,,,,,2025-07-02,1,,,,,カネダコウギョウ,0
106,1040003027977,新規,0,2025-07-02,2025-07-02,合同会社ＳＫマネジメント,,合同会社,千葉県,成田市,囲護台１２２８番地１４,,12,211,2860000,,,,,,,2025-07-02,1,,,,,エスケーマネジメント,0
107,1040005022803,新規,0,2025-07-02,2025-07-02,労働者協同組合ＣＴＣ習志野,,その他の設立登記法人,千葉県,習志野市,東習志野６丁目１０番３６号,,12,216,2750001,,,,,,,2025-07-02,1,,,,,シーティーシーナラシノ,0
109,1060001038363,新規,0,2025-07-02,2025-07-02,株式会社岩曽家具センター,,株式会社,栃木県,宇都宮市,下金井町５１３番地１,,09,201,3212114,,,,,,,2025-07-02,1,,,,,イワゾカグセンター,0
110,1070001043081,新規,0,2025-07-02,2025-07-02,一会株式会社,,株式会社,群馬県,太田市,西新町３１番地３０,,10,205,3730847,,,,,,,2025-07-02,1,,,,,イチエ,0
112,1080101025607,新規,0,2025-07-02,2025-07-02,株式会社ＰＯＷＥＲ,,株式会社,静岡県,熱海市,梅花町６－５梅花ビル３Ｆ,,22,205,4130026,,,,,,,2025-07-02,1,,,,,パワー,0
113,1080401028004,新規,0,2025-07-02,2025-07-02,スタッド株式会社,,株式会社,静岡県,浜松市中央区,富塚町３００３番地の３３,,22,138,4328002,,,,,,,2025-07-02,1,,,,,スタッド,0
119,1110001039389,新規,0,2025-07-02,2025-07-02,株式会社小山商店,,株式会社,新潟県,新発田市,真野原外３５５０番地１,,15,206,9570232,,,,,,,2025-07-02,1,,,,,コヤマショウテン,0
121,1110003005802,新規,0,2025-07-02,2025-07-02,合同会社ドリープ,,合同会社,新潟県,糸魚川市,寺島２丁目４番２７号,,15,216,9410066,,,,,,,2025-07-02,1,,,,,ドリープ,0
128,1120001277079,新規,0,2025-07-02,2025-07-02,Ｏｃｔｏ株式会社,,株式会社,大阪府,大阪市住之江区,西加賀屋４丁目５番８号２０２室,,27,125,5590016,,,,,,,2025-07-02,1,,,,,オクト,0
129,1120001277327,新規,0,2025-07-02,2025-07-02,アルテクト株式会社,,株式会社,大阪府,大阪市北区,堂山町１７番５号２階,,27,127,5300027,,,,,,,2025-07-02,1,,,,,アルテクト,0
130,1120001277351,新規,0,2025-07-02,2025-07-02,藤山株式会社,,株式会社,大阪府,大阪市中央区,南船場２丁目１１番９－９０８号,,27,128,5420081,,,,,,,2025-07-02,1,,,,,フジヤマ,0
131,1120001277368,新規,0,2025-07-02,2025-07-02,ＱＵＡＮＳＴＡＲ株式会社,,株式会社,大阪府,大阪市東成区,大今里３丁目１５番６号ＩｍａｚａｔｏＴｏｗｅｒ４０７Ｇ,,27,115,5370012,,,,,,,2025-07-02,1,,,,,クォンスター,0
132,1120001277418,新規,0,2025-07-02,2025-07-02,錦繍麒麟株式会社,00139773,株式会社,大阪府,大阪市西淀川区,柏里２丁目７番２６号ラピース塚本３０１号室,,27,113,5550022,,,,,,,2025-07-02,1,,,,,キンシュウキリン,0
133,1120001277426,新規,0,2025-07-02,2025-07-02,株式会社カスガイオートサービス,,株式会社,大阪府,大阪市鶴見区,諸口１丁目１２番２４号,,27,124,5380051,,,,,,,2025-07-02,1,,,,,カスガイオートサービス,0
134,1120001277491,新規,0,2025-07-02,2025-07-02,Ｋｅｉ‐ＲＥＸ株式会社,,株式会社,大阪府,大阪市北区,曾根崎１丁目３番６‐８０８号,,27,127,5300057,,,,,,,2025-07-02,1,,,,,ケイレックス,0
135,1120005025005,新規,0,2025-07-02,2025-07-02,一般社団法人中小企業集客支援機構,,その他の設立登記法人,大阪府,大阪市都島区,東野田町１丁目１番９号,,27,102,5340024,,,,,,,2025-07-02,1,,,,,チュウショウキギョウシュウキャクシエンキコウ,0
137,1120101071935,新規,0,2025-07-02,2025-07-02,株式会社太一,,株式会社,大阪府,堺市中区,陶器北１０７１－７－１０１,,27,142,5998242,,,,,,,2025-07-02,1,,,,,タイチ,0
139,1120105010022,新規,0,2025-07-02,2025-07-02,一般社団法人ＧＯフェス,,その他の設立登記法人,大阪府,泉大津市,我孫子１５０番地１階,,27,206,5950031,,,,,,,2025-07-02,1,,,,,ゴーフェス,0
152,1140003022043,新規,0,2025-07-02,2025-07-02,合同会社みらい,,合同会社,兵庫県,神戸市兵庫区,水木通１丁目４番１５号グランドール兵庫３０１,,28,105,6520802,,,,,,,2025-07-02,1,,,,,ミライ,0
160,1180001167530,新規,0,2025-07-02,2025-07-02,株式会社ＭＳＡ　Ｃｏｍｐａｎｙ,,株式会社,愛知県,名古屋市名東区,石が根町８７番地,,23,115,4650023,,,,,,,2025-07-02,1,,,,,エムエスエイカンパニー,0
164,1180003028697,新規,0,2025-07-02,2025-07-02,裏巻科技合同会社,,合同会社,愛知県,名古屋市西区,牛島町６番１号名古屋ルーセントタワー４０階,,23,104,4510046,,,,,,,2025-07-02,1,,,,,ウラマキカギ,0
165,1180005021139,新規,0,2025-07-02,2025-07-02,医療法人ＬＩＮＸ,,その他の設立登記法人,愛知県,名古屋市守山区,小幡常燈１８番５号,,23,113,4630047,,,,,,,2025-07-02,1,,,,,リンクス,0
168,1180301039958,新規,0,2025-07-02,2025-07-02,株式会社ラスイチ,,株式会社,愛知県,刈谷市,井ケ谷町戌沼７番地１,,23,210,4480001,,,,,,,2025-07-02,1,,,,,ラスイチ,0
179,1240003007281,新規,0,2025-07-02,2025-07-02,オールイン合同会社,,合同会社,広島県,広島市安佐南区,上安１丁目１８番２０－４０１号,,34,105,7310154,,,,,,,2025-07-02,1,,,,,オールイン,0
181,1260001040316,新規,0,2025-07-02,2025-07-02,株式会社Ｍ．Ｃ,,株式会社,岡山県,岡山市北区,高松稲荷２４４番地,,33,101,7011331,,,,,,,2025-07-02,1,,,,,エムドットシー,0
186,1290801031668,新規,0,2025-07-02,2025-07-02,株式会社ひろよし,,株式会社,福岡県,北九州市小倉南区,下石田２丁目２番２号,,40,107,8020832,,,,,,,2025-07-02,1,,,,,ヒロヨシ,0
187,1290801031676,新規,0,2025-07-02,2025-07-02,Ｃｏｌｏｒ　Ｖａｒｉａｔｉｏｎｓ株式会社,,株式会社,福岡県,北九州市小倉北区,京町３丁目１番１号セントシティ７階,,40,106,8020002,,,,,,,2025-07-02,1,,,,,カラーバリエーション,0
193,1330003011084,新規,0,2025-07-02,2025-07-02,合同会社宮田,,合同会社,熊本県,熊本市北区,麻生田５丁目２７番２７号,,43,105,8618081,,,,,,,2025-07-02,1,,,,,ミヤタ,0
194,1340005009885,新規,0,2025-07-02,2025-07-02,一般社団法人鹿児島ユナイテッドＦＣ喜入応援協議会,,その他の設立登記法人,鹿児島県,鹿児島市,喜入町７０２０番地１,,46,201,8910203,,,,,,,2025-07-02,1,,,,,カゴシマユナイテッドエフシーキイレオウエンキョウギカイ,0
199,1360001035413,新規,0,2025-07-02,2025-07-02,株式会社四季彩かるり,,株式会社,沖縄県,那覇市,小禄１丁目２１番２５号１階,,47,201,9010152,,,,,,,2025-07-02,1,,,,,シキサイカルリ,0
200,1370001052762,新規,0,2025-07-02,2025-07-02,株式会社ｏｖｅｒｌａｐ,,株式会社,宮城県,仙台市太白区,中田２丁目１９番２６号,,04,104,9811104,,,,,,,2025-07-02,1,,,,,オーバーラップ,0
201,1370001052779,新規,0,2025-07-02,2025-07-02,株式会社ＲＳ‐ｔａｐ,,株式会社,宮城県,富谷市,明石台８丁目１８番地１,,04,216,9813332,,,,,,,2025-07-02,1,,,,,アールエスタップ,0
218,1430001094732,新規,0,2025-07-02,2025-07-02,株式会社Ｏｒｉｖｉａ,,株式会社,北海道,札幌市西区,発寒六条９丁目１０番２５号,,01,107,0630826,,,,,,,2025-07-02,1,,,,,オリヴィア,0
219,1430003017815,新規,0,2025-07-02,2025-07-02,合同会社リリーベル,,合同会社,北海道,札幌市豊平区,美園七条１丁目１番１２号－２Ｆ,,01,105,0620007,,,,,,,2025-07-02,1,,,,,リリーベル,0
244,2010003047754,新規,0,2025-07-02,2025-07-02,中弘伝智合同会社,,合同会社,東京都,中央区,銀座１丁目２２番１１号銀座大竹ビジデンス２Ｆ,,13,102,1040061,,,,,,,2025-07-02,1,,,,,チュウコウデンチ,0
245,2010003047812,新規,0,2025-07-02,2025-07-02,東京ＢＴＲ２合同会社,,合同会社,東京都,千代田区,霞が関３丁目２番５号,,13,101,1000013,,,,,,,2025-07-02,1,,,,,トウキョウビーティーアールツー,0
246,2010003047829,新規,0,2025-07-02,2025-07-02,合同会社ＷＡＧＡＴＡＫＩ,,合同会社,東京都,中央区,銀座１丁目２２番１１号銀座大竹ビジデンス２Ｆ,,13,102,1040061,,,,,,,2025-07-02,1,,,,,ワガタキ,0
247,2010003047861,新規,0,2025-07-02,2025-07-02,合同会社博多ホテルオペレーションズ,,合同会社,東京都,中央区,日本橋１丁目４番１号,,13,102,1030027,,,,,,,2025-07-02,1,,,,,ハカタホテルオペレーションズ,0
248,2010003047886,新規,0,2025-07-02,2025-07-02,東京レジＳＲ５合同会社,,合同会社,東京都,千代田区,丸の内１丁目４番１号東京共同会計事務所内,,13,101,1000005,,,,,,,2025-07-02,1,,,,,トウキョウレジエスアールファイブ,0
262,2010405024533,新規,0,2025-07-02,2025-07-02,ＭＦ４ＪＰＮ１０特定目的会社,,その他の設立登記法人,東京都,港区,虎ノ門３丁目２２番１０‐２０１号,,13,103,1050001,,,,,,,2025-07-02,1,,,,,エムエフフォージェイピーエヌテン,0
268,2010801036314,新規,0,2025-07-02,2025-07-02,株式会社Ｐ．Ｍ,,株式会社,東京都,大田区,東海３丁目２番６号,,13,111,1430001,,,,,,,2025-07-02,1,,,,,ピーエム,0
281,2011101112276,新規,0,2025-07-02,2025-07-02,新鮮青果宅配株式会社,,株式会社,東京都,新宿区,北新宿４丁目４番９号伊藤ビル１階,,13,104,1690074,,,,,,,2025-07-02,1,,,,,シンセンセイカタクハイ,0
282,2011103016079,新規,0,2025-07-02,2025-07-02,合同会社ＳＵＩ本舗,,合同会社,東京都,新宿区,新宿６丁目２７－２０－１０６,,13,104,1600022,,,,,,,2025-07-02,1,,,,,スイホンポ,0
283,2011103016095,新規,0,2025-07-02,2025-07-02,合同会社ＲＩＭＰＣＯ,,合同会社,東京都,新宿区,払方町９番地１２イチガヤハライカタフラット１０１,,13,104,1620841,,,,,,,2025-07-02,1,,,,,リプコ,0
285,2011301030699,新規,0,2025-07-02,2025-07-02,ＤＩＮＧＴＡＬＫ株式会社,,株式会社,東京都,杉並区,下高井戸１丁目５番１－２０１号,,13,115,1680073,,,,,,,2025-07-02,1,,,,,,0
288,2011501032280,新規,0,2025-07-02,2025-07-02,ＴＡＩＺＯ　ｐｒｏｄｕｃｔｓ株式会社,,株式会社,東京都,北区,志茂２丁目１７番１０号,,13,117,1150042,,,,,,,2025-07-02,1,,,,,タイゾープロダクツ,0
292,2011601028765,新規,0,2025-07-02,2025-07-02,ＳＯＳＥ　ＴＥＣＨ株式会社,,株式会社,東京都,練馬区,中村２丁目１５－９ライフピアメヌエット２０１号,,13,120,1760024,,,,,,,2025-07-02,1,,,,,ソセテック,0
296,2011701028491,新規,0,2025-07-02,2025-07-02,株式会社潤裕通信,,株式会社,東京都,江戸川区,大杉３丁目２２－１５,,13,123,1320022,,,,,,,2025-07-02,1,,,,,ジュンユウツウシン,0
299,2011801046385,新規,0,2025-07-02,2025-07-02,株式会社ビクトリーラボ,,株式会社,東京都,足立区,東保木間２丁目３番２,,13,121,1210063,,,,,,,2025-07-02,1,,,,,ビクトリーラボ,0
300,2011801046393,新規,0,2025-07-02,2025-07-02,株式会社マツモトテープ,,株式会社,東京都,足立区,保木間４丁目３２番１２号,,13,121,1210064,,,,,,,2025-07-02,1,,,,,マツモトテープ,0
301,2011803006949,新規,0,2025-07-02,2025-07-02,合同会社Ｅｎｉｓｈｉｓｓ８５,,合同会社,東京都,葛飾区,亀有２丁目１５番１６号,,13,122,1250061,,,,,,,2025-07-02,1,,,,,エニシスハチジュウゴ,0
303,2012303002182,新規,0,2025-07-02,2025-07-02,合同会社きのねっこ,,合同会社,東京都,町田市,南つくし野２丁目２９番地３,,13,209,1940002,,,,,,,2025-07-02,1,,,,,キノネッコ,0
306,2012401043293,新規,0,2025-07-02,2025-07-02,株式会社ファインプレイ,,株式会社,東京都,武蔵野市,吉祥寺本町４丁目６番１０号,,13,203,1800004,,,,,,,2025-07-02,1,,,,,ファインプレイ,0
312,2020001163602,新規,0,2025-07-02,2025-07-02,さくらフォトニクス株式会社,,株式会社,神奈川県,横浜市港北区,新横浜２丁目５番１３号加瀬２２６ビル７０１,,14,109,2220033,,,,,,,2025-07-02,1,,,,,サクラフォトニクス,0
316,2021001085563,新規,0,2025-07-02,2025-07-02,ＩＮＴＥＲ株式会社,,株式会社,神奈川県,厚木市,旭町２丁目１２番４号,,14,212,2430014,,,,,,,2025-07-02,1,,,,,インター,0
317,2021001085646,新規,0,2025-07-02,2025-07-02,株式会社バレンティア,,株式会社,神奈川県,小田原市,西大友３１９番地,,14,206,2500212,,,,,,,2025-07-02,1,,,,,バレンティア,0
318,2021001085670,新規,0,2025-07-02,2025-07-02,ＡｒｔＦａｎｄｅｒｓ株式会社,,株式会社,神奈川県,小田原市,栄町４丁目８―１２アシュリーＫ２－１０１号,,14,206,2500011,,,,,,,2025-07-02,1,,,,,アートファンダース,0
322,2021003016236,新規,0,2025-07-02,2025-07-02,小川商店合同会社,,合同会社,神奈川県,茅ヶ崎市,浜之郷４４５番地７,,14,207,2530086,,,,,,,2025-07-02,1,,,,,オガワショウテン,0
327,2030003027102,新規,0,2025-07-02,2025-07-02,リリ合同会社,,合同会社,埼玉県,さいたま市中央区,大字下落合１０５０番地２,,11,105,3380002,,,,,,,2025-07-02,1,,,,,リリ,0
332,2040001139443,新規,0,2025-07-02,2025-07-02,ＧＴ　Ｃｒｕｉｓｅ　Ｔｏｋｙｏ株式会社,,株式会社,千葉県,柏市,戸張１１０３番地,,12,217,2770008,,,,,,,2025-07-02,1,,,,,ジーティークルーズトーキョー,0
335,2050001056885,新規,0,2025-07-02,2025-07-02,株式会社つくバネ,,株式会社,茨城県,つくば市,東平塚４０１－１フォートリスＴ＆Ａ３１２号室,,08,220,3050812,,,,,,,2025-07-02,1,,,,,ツクバネ,0
337,2060001038346,新規,0,2025-07-02,2025-07-02,株式会社ＳＨＯコネクト,,株式会社,栃木県,下都賀郡壬生町,おもちゃのまち４丁目１１番８号,,09,361,3210202,,,,,,,2025-07-02,1,,,,,ショウコネクト,0
339,2060003005625,新規,0,2025-07-02,2025-07-02,ティップ技術センター合同会社,,合同会社,栃木県,宇都宮市,西川田５丁目１番２０号,,09,201,3210152,,,,,,,2025-07-02,1,,,,,ティップギジュツセンター,0
340,2070001043080,新規,0,2025-07-02,2025-07-02,株式会社森とアトリエ,,株式会社,群馬県,桐生市,広沢町４丁目１９７０番地１７７,,10,203,3760013,,,,,,,2025-07-02,1,,,,,モリトアトリエ,0
350,2110001039388,新規,0,2025-07-02,2025-07-02,株式会社ＳＨ企画,,株式会社,新潟県,長岡市,希望が丘１丁目１５番地１,,15,202,9402124,,,,,,,2025-07-02,1,,,,,エスエイチキカク,0
357,2120001277227,新規,0,2025-07-02,2025-07-02,パックジェント株式会社,,株式会社,大阪府,大阪市西成区,萩之茶屋１丁目１４番１３－１０２号,,27,122,5570004,,,,,,,2025-07-02,1,,,,,パックジェント,0
358,2120001277367,新規,0,2025-07-02,2025-07-02,兆宇投資株式会社,,株式会社,大阪府,大阪市城東区,関目５丁目１９番９号関目花博公館６１０Ａ,,27,118,5360008,,,,,,,2025-07-02,1,,,,,チョウウトウシ,0
359,2120001277409,新規,0,2025-07-02,2025-07-02,萌萌株式会社,,株式会社,大阪府,大阪市西成区,松３丁目１１番２２－２０１号,,27,122,5570034,,,,,,,2025-07-02,1,,,,,モエモエ,0
360,2120001277441,新規,0,2025-07-02,2025-07-02,株式会社安井商事,,株式会社,大阪府,大阪市北区,長柄中１丁目４番１２号１０１号室,,27,127,5310062,,,,,,,2025-07-02,1,,,,,ヤスイショウジ,0
361,2120001277532,新規,0,2025-07-02,2025-07-02,株式会社しがぎん事業承継ファンド１号,,株式会社,大阪府,大阪市中央区,北浜１丁目８番１６号大阪証券取引所ビル弁護士法人北浜法律事務所内,,27,128,5410041,,,,,,,2025-07-02,1,,,,,シガギンジギョウショウケイファンドイチゴウ,0
375,2130001080010,新規,0,2025-07-02,2025-07-02,リスカーレリサーチ株式会社,,株式会社,京都府,京都市下京区,中堂寺粟田町９３番地ＫＲＰ４号館,,26,106,6008815,,,,,,,2025-07-02,1,,,,,リスカーレリサーチ,0
381,2140003022249,新規,0,2025-07-02,2025-07-02,合同会社めぐみ,,合同会社,兵庫県,西宮市,甲子園浜田町３番１２号,,28,204,6638167,,,,,,,2025-07-02,1,,,,,メグミ,0
382,2140003022257,新規,0,2025-07-02,2025-07-02,ＳＦＧ合同会社,,合同会社,兵庫県,神戸市中央区,磯辺通１丁目１番２０号ＫＯＷＡビル３階,,28,110,6510084,,,,,,,2025-07-02,1,,,,,エスエフジー,0
383,2150001028230,新規,0,2025-07-02,2025-07-02,生駒Ｕｎｓｕｎｇデータセンター株式会社,,株式会社,奈良県,生駒市,北田原町１７２３番地,,29,209,6300142,,,,,,,2025-07-02,1,,,,,イコマアンサングデータセンター,0
384,2150001028239,新規,0,2025-07-02,2025-07-02,株式会社ヨシケン,,株式会社,奈良県,大和郡山市,高田町１０２―７,,29,203,6391132,,,,,,,2025-07-02,1,,,,,ヨシケン,0
390,2180003028705,新規,0,2025-07-02,2025-07-02,リクロト・イノベーションズ合同会社,,合同会社,愛知県,半田市,勘内町１番地の１,,23,205,4750877,,,,,,,2025-07-02,1,,,,,リクロトイノベーションズ,0
391,2180301039949,新規,0,2025-07-02,2025-07-02,株式会社未来モビリティ,,株式会社,愛知県,豊田市,明和町３丁目１７番地４,,23,211,4710825,,,,,,,2025-07-02,1,,,,,ミライモビリティ,0
394,2180303006633,新規,0,2025-07-02,2025-07-02,合同会社大吉小吉,,合同会社,愛知県,みよし市,根浦町３丁目４番地３１,,23,236,4700217,,,,,,,2025-07-02,1,,,,,,0
397,2220001026788,新規,0,2025-07-02,2025-07-02,株式会社空杣,,株式会社,石川県,鳳珠郡能登町,字宇出津チ字６番地１１,,17,463,9270433,,,,,,,2025-07-02,1,,,,,ソラクマ,0
402,2240001065165,新規,0,2025-07-02,2025-07-02,株式会社ケンショウ,,株式会社,広島県,三次市,十日市西３丁目１６番２４号,,34,209,7280011,,,,,,,2025-07-02,1,,,,,,0
403,2240001065173,新規,0,2025-07-02,2025-07-02,株式会社英山堂,,株式会社,広島県,三次市,十日市南７丁目２－３,,34,209,7280014,,,,,,,2025-07-02,1,,,,,エイザンドウ,0
405,2240003007280,新規,0,2025-07-02,2025-07-02,ＱＯＬサービス合同会社,,合同会社,広島県,広島市南区,皆実町１丁目１３番１６－６号,,34,103,7340007,,,,,,,2025-07-02,1,,,,,キューオーエルサービス,0
409,2260003005241,新規,0,2025-07-02,2025-07-02,合同会社オーク,,合同会社,岡山県,津山市,東一宮５１番地８,,33,203,7080814,,,,,,,2025-07-02,1,,,,,オーク,0
413,2280001009449,新規,0,2025-07-02,2025-07-02,株式会社Ｓ．Ｆｏｕｎｄ,,株式会社,島根県,浜田市,三隅町岡見６１９８番地５,,32,202,6993226,,,,,,,2025-07-02,1,,,,,エスファウンド,0
422,2290801031659,新規,0,2025-07-02,2025-07-02,株式会社拓設備,,株式会社,福岡県,行橋市,南大橋４丁目３番１４号,,40,213,8240032,,,,,,,2025-07-02,1,,,,,ヒラクセツビ,0
423,2290801031675,新規,0,2025-07-02,2025-07-02,株式会社颯起,,株式会社,福岡県,京都郡苅田町,大字与原１０５４,,40,621,8000323,,,,,,,2025-07-02,1,,,,,ソウキ,0
427,2330003011083,新規,0,2025-07-02,2025-07-02,合同会社真誠,,合同会社,熊本県,熊本市東区,長嶺南８丁目２番３８－１０５号,,43,102,8618039,,,,,,,2025-07-02,1,,,,,シンセイ,0
434,2360003015040,新規,0,2025-07-02,2025-07-02,合同会社Ｏ‐ＮＡＺ　ｎｅｘｔ,,合同会社,沖縄県,宮古島市,平良字西里９７２－４,,47,214,9060012,,,,,,,2025-07-02,1,,,,,オーナッツネクスト,0
444,2440001009639,新規,0,2025-07-02,2025-07-02,株式会社宮崎工業,,株式会社,北海道,函館市,中道１丁目１１番３４号,,01,202,0410853,,,,,,,2025-07-02,1,,,,,ミヤザキコウギョウ,0
462,3010001256364,新規,0,2025-07-02,2025-07-02,源耀化学株式会社,,株式会社,東京都,中央区,晴海５丁目６－６－５１０,,13,102,1040053,,,,,,,2025-07-02,1,,,,,ユアンヨウケミカル,0
463,3010001256380,新規,0,2025-07-02,2025-07-02,ＭＩＴＳＵＫＩ株式会社,,株式会社,東京都,中央区,築地７丁目１０番地８号ＳＥＡビル４０３号室,,13,102,1040045,,,,,,,2025-07-02,1,,,,,ミツキ,0
464,3010001256447,新規,0,2025-07-02,2025-07-02,チェフリテクノロジー株式会社,,株式会社,東京都,中央区,銀座３丁目１０番９号ＫＥＣ銀座ビル８階,,13,102,1040061,,,,,,,2025-07-02,1,,,,,チェフリテクノロジー,0
467,3010003047828,新規,0,2025-07-02,2025-07-02,合同会社ＨＦＰ,,合同会社,東京都,千代田区,神田和泉町１番地６－１６ヤマトビル４０５,,13,101,1010024,,,,,,,2025-07-02,1,,,,,エイチエフピー,0
468,3010003047836,新規,0,2025-07-02,2025-07-02,合同会社ゴールド,,合同会社,東京都,千代田区,二番町３番地麹町スクエア株式会社シリウス・アドバイザリー内,,13,101,1020084,,,,,,,2025-07-02,1,,,,,ゴールド,0
469,3010003047885,新規,0,2025-07-02,2025-07-02,東京レジＳＲ４合同会社,,合同会社,東京都,千代田区,丸の内１丁目４番１号東京共同会計事務所内,,13,101,1000005,,,,,,,2025-07-02,1,,,,,トウキョウレジエスアールフォー,0
471,3010005040269,新規,0,2025-07-02,2025-07-02,一般社団法人ゴールド,,その他の設立登記法人,東京都,千代田区,二番町３番地麹町スクエア株式会社シリウス・アドバイザリー内,,13,101,1020084,,,,,,,2025-07-02,1,,,,,ゴールド,0
476,3010401191343,新規,0,2025-07-02,2025-07-02,株式会社Ｓｔａｒｔｕｐ　Ｈ,,株式会社,東京都,港区,虎ノ門５丁目３番２１号,,13,103,1050001,,,,,,,2025-07-02,1,,,,,スタートアップエイチ,0
482,3010405024532,新規,0,2025-07-02,2025-07-02,ＭＦ４ＪＰＮ９特定目的会社,,その他の設立登記法人,東京都,港区,虎ノ門３丁目２２番１０‐２０１号,,13,103,1050001,,,,,,,2025-07-02,1,,,,,エムエフフォージェイピーエヌナイン,0
489,3011001170373,新規,0,2025-07-02,2025-07-02,ＴＫアセットマネジメント株式会社,,株式会社,東京都,渋谷区,道玄坂１丁目１０番８号渋谷道玄坂東急ビル２Ｆ－Ｃ,,13,113,1500043,,,,,,,2025-07-02,1,,,,,ティーケーアセットマネジメント,0
490,3011001170885,新規,0,2025-07-02,2025-07-02,株式会社ＹＯＬｉｆｅｆｉｔ,,株式会社,東京都,渋谷区,恵比寿２丁目４－３,,13,113,1500013,,,,,,,2025-07-02,1,,,,,ワイオーライフフィット,0
491,3011003022036,新規,0,2025-07-02,2025-07-02,スキプロジェクト合同会社,,合同会社,東京都,渋谷区,神宮前６丁目２３番４号桑野ビル２階,,13,113,1500001,,,,,,,2025-07-02,1,,,,,スキプロジェクト,0
493,3011101112291,新規,0,2025-07-02,2025-07-02,株式会社Ｔｅ＆Ｔｅ,,株式会社,東京都,新宿区,西新宿７丁目２２番３１号柏木ＭＵＲＡ５０８,,13,104,1600023,,,,,,,2025-07-02,1,,,,,テトテ,0
495,3011103016061,新規,0,2025-07-02,2025-07-02,デリスネコン・ビネルフタ合同会社,,合同会社,東京都,新宿区,西新宿３丁目２０－２東京オペラシティビル２階,,13,104,1600023,,,,,,,2025-07-02,1,,,,,デリスネコンビネルフタ,0
498,3011301030698,新規,0,2025-07-02,2025-07-02,Ｃｏｎｐａｌｅ株式会社,,株式会社,東京都,杉並区,成田東１丁目１２番１６号,,13,115,1660015,,,,,,,2025-07-02,1,,,,,コンパレ,0
512,3012401043276,新規,0,2025-07-02,2025-07-02,株式会社ＷＡＮＤＥＲＥＲＳ　ＳＴＵＤＩＯＳ,,株式会社,東京都,調布市,西つつじケ丘３丁目２６番７号　アーバンフラッツＭＡ２０３,,13,208,1820006,,,,,,,2025-07-02,1,,,,,ワンダラーズストゥディオス,0
517,3013301054553,新規,0,2025-07-02,2025-07-02,株式会社ＣａｒｒｙＡｇｅ,,株式会社,東京都,豊島区,東池袋２丁目６２番８号ＢＩＧオフィスプラザ池袋１２０６,,13,116,1700013,,,,,,,2025-07-02,1,,,,,キャリッジ,0
524,3020001163634,新規,0,2025-07-02,2025-07-02,からだサポート株式会社,,株式会社,神奈川県,横浜市緑区,十日市場町８１５番地１,,14,113,2260025,,,,,,,2025-07-02,1,,,,,カラダサポート,0
525,3020003028612,新規,0,2025-07-02,2025-07-02,合同会社スマイル,,合同会社,神奈川県,川崎市川崎区,渡田１丁目１－４－２Ｆ,,14,131,2100837,,,,,,,2025-07-02,1,,,,,スマイル,0
530,3021001085645,新規,0,2025-07-02,2025-07-02,株式会社映双,,株式会社,神奈川県,藤沢市,藤沢３４番地の２ライオンズプラザ藤沢１００９号,,14,205,2510052,,,,,,,2025-07-02,1,,,,,エイソウ,0
531,3021001085661,新規,0,2025-07-02,2025-07-02,株式会社スタジオフィル,,株式会社,神奈川県,横須賀市,秋谷１丁目１３番１－１２０３号,,14,201,2400105,,,,,,,2025-07-02,1,,,,,スタジオフィル,0
537,3030001167361,新規,0,2025-07-02,2025-07-02,株式会社ＰＩＮＫＧＯＬＤ,,株式会社,埼玉県,さいたま市見沼区,大字中川３０２番地,,11,104,3370043,,,,,,,2025-07-02,1,,,,,ピンクゴールド,0
538,3030001167378,新規,0,2025-07-02,2025-07-02,株式会社Ｇｌｏｂａｌ　Ｔｒａｄｉｎｇ,,株式会社,埼玉県,さいたま市南区,四谷３丁目４番９号滝沢荘２０２,,11,108,3360032,,,,,,,2025-07-02,1,,,,,グローバルトレーディング,0
539,3030001167403,新規,0,2025-07-02,2025-07-02,株式会社栄心建設,,株式会社,埼玉県,川口市,桜町２丁目２番２３号,,11,203,3340001,,,,,,,2025-07-02,1,,,,,エイシンケンセツ,0
549,3040005022801,新規,0,2025-07-02,2025-07-02,一般社団法人母子訪問看護ステーション,,その他の設立登記法人,千葉県,八千代市,米本１４５０番地１,,12,221,2760015,,,,,,,2025-07-02,1,,,,,ボシホウモンカンゴステーション,0
552,3060001038337,新規,0,2025-07-02,2025-07-02,株式会社オオイワタイムズ,,株式会社,栃木県,さくら市,狹間田１９０２番地,,09,214,3291305,,,,,,,2025-07-02,1,,,,,オオイワタイムズ,0
553,3070001043088,新規,0,2025-07-02,2025-07-02,株式会社雲栖,,株式会社,群馬県,桐生市,新里町山上４３２番地１,,10,203,3760125,,,,,,,2025-07-02,1,,,,,ウンセイ,0
557,3080105006519,新規,0,2025-07-02,2025-07-02,一般社団法人ＤｏＷｉｓｈ　Ｐｒｏｊｅｃｔ,,その他の設立登記法人,静岡県,三島市,徳倉１丁目４－３９,,22,206,4110044,,,,,,,2025-07-02,1,,,,,ドウィッシュプロジェクト,0
560,3090001019367,新規,0,2025-07-02,2025-07-02,株式会社ＳＨＡＲＥ,,株式会社,山梨県,甲府市,里吉町４５５番地３,,19,201,4000823,,,,,,,2025-07-02,1,,,,,シェア,0
563,3110001039387,新規,0,2025-07-02,2025-07-02,株式会社ＫＢポリマー,,株式会社,新潟県,三条市,一ノ門２丁目４番５－４号,,15,204,9550045,,,,,,,2025-07-02,1,,,,,ケービーポリマー,0
566,3110003005800,新規,0,2025-07-02,2025-07-02,合同会社Ｓｙｎｃｈｒｏ　Ｖｉｓｉｏｎ,,合同会社,新潟県,長岡市,与板町与板甲２４５番地,,15,202,9402402,,,,,,,2025-07-02,1,,,,,シンクロヴィジョン,0
569,3120001277325,新規,0,2025-07-02,2025-07-02,株式会社Ｊａｍ,,株式会社,大阪府,門真市,一番町１８番１４－５０６号,,27,223,5710033,,,,,,,2025-07-02,1,,,,,ジャム,0
570,3120001277366,新規,0,2025-07-02,2025-07-02,ｆｌａｇｗａｒｅ株式会社,,株式会社,大阪府,大阪市城東区,関目５丁目１９番９号関目花博公館５１２Ａ,,27,118,5360008,,,,,,,2025-07-02,1,,,,,フラグウェア,0
571,3120001277416,新規,0,2025-07-02,2025-07-02,逍倉筑株式会社,,株式会社,大阪府,大阪市城東区,中央２丁目１４番Ｄ－１８０４号,,27,118,5360005,,,,,,,2025-07-02,1,,,,,ショウソウチク,0
572,3120001277432,新規,0,2025-07-02,2025-07-02,誠和株式会社,,株式会社,大阪府,大阪市西成区,玉出西１丁目１９‐３,,27,122,5570045,,,,,,,2025-07-02,1,,,,,セイワ,0
574,3120003029880,新規,0,2025-07-02,2025-07-02,ＭＤ　ＢＵＳＩＮＥＳＳ合同会社,,合同会社,大阪府,大阪市旭区,大宮３丁目１９－１８－１０１,,27,117,5350002,,,,,,,2025-07-02,1,,,,,エムディービジネス,0
575,3120003029889,新規,0,2025-07-02,2025-07-02,合同会社ＲＩＣＯＲＩＴＡ,,合同会社,大阪府,大阪市西区,立売堀５丁目１番１１－８０５号,,27,106,5500012,,,,,,,2025-07-02,1,,,,,リコリタ,0
577,3120005025003,新規,0,2025-07-02,2025-07-02,一般社団法人バロン,,その他の設立登記法人,大阪府,大阪市東住吉区,公園南矢田３丁目１５番１５号,,27,121,5460024,,,,,,,2025-07-02,1,,,,,バロン,0
584,3122003003238,新規,0,2025-07-02,2025-07-02,合同会社ＳＯＦ,,合同会社,大阪府,大東市,南津の辺町２１－４９,,27,218,5740016,,,,,,,2025-07-02,1,,,,,ソフ,0
600,3180301039948,新規,0,2025-07-02,2025-07-02,株式会社石実ホールディングス,,株式会社,愛知県,碧南市,福清水町１丁目１３番地,,23,209,4470048,,,,,,,2025-07-02,1,,,,,イシジツホールディングス,0
603,3190001032351,新規,0,2025-07-02,2025-07-02,株式会社クラスコーポレーション,,株式会社,三重県,松阪市,嬉野中川新町３丁目２３番地,,24,204,5152325,,,,,,,2025-07-02,1,,,,,クラスコーポレーション,0
608,3220001026770,新規,0,2025-07-02,2025-07-02,株式会社ＳＨＩＮＫＡＩ,,株式会社,石川県,金沢市,粟崎町ワ１２２番地１,,17,201,9200226,,,,,,,2025-07-02,1,,,,,シンカイ,0
609,3230001020979,新規,0,2025-07-02,2025-07-02,Ｐｌｅａｓｅ　Ｐｌｕｓ株式会社,,株式会社,富山県,滑川市,柳原１２番地３３,,16,206,9360023,,,,,,,2025-07-02,1,,,,,プリーズプラス,0
611,3230003002455,新規,0,2025-07-02,2025-07-02,合同会社Ｗｅｌｌ　ｕＰ,,合同会社,富山県,射水市,庄川本町２６番１１号,,16,211,9340003,,,,,,,2025-07-02,1,,,,,ウェルアップ,0
615,3240001065131,新規,0,2025-07-02,2025-07-02,株式会社クラモト,,株式会社,広島県,廿日市市,深江１丁目１番１８号,,34,213,7390421,,,,,,,2025-07-02,1,,,,,クラモト,0
616,3240001065156,新規,0,2025-07-02,2025-07-02,株式会社Ｒｕｄｏｌｆ,,株式会社,広島県,広島市中区,三川町３－２２,,34,101,7300029,,,,,,,2025-07-02,1,,,,,ルドルフ,0
620,3260001040314,新規,0,2025-07-02,2025-07-02,株式会社ｇｒｉｔ,,株式会社,岡山県,岡山市中区,旭東町３丁目６番１４号,,33,102,7038286,,,,,,,2025-07-02,1,,,,,グリット,0
628,3290801031674,新規,0,2025-07-02,2025-07-02,株式会社満,,株式会社,福岡県,北九州市小倉北区,大手町８番３－１８０６号,,40,106,8030814,,,,,,,2025-07-02,1,,,,,ミチ,0
629,3290801031682,新規,0,2025-07-02,2025-07-02,株式会社風景計画研究所,,株式会社,福岡県,北九州市戸畑区,中本町２番１０号,,40,105,8040061,,,,,,,2025-07-02,1,,,,,フウケイケイカクケンキュウショ,0
632,3320005010249,新規,0,2025-07-02,2025-07-02,首藤行政書士法人,,その他の設立登記法人,大分県,大分市,判田台南２丁目４番３号,,44,201,8701109,,,,,,,2025-07-02,1,,,,,シュトウ,0
639,3340001027468,新規,0,2025-07-02,2025-07-02,株式会社源ホールディングス,,株式会社,鹿児島県,日置市,伊集院町郡２０４２番地４０,,46,216,8992504,,,,,,,2025-07-02,1,,,,,ゲンホールディングス,0
641,3340005009883,新規,0,2025-07-02,2025-07-02,特定非営利活動法人岳の子,,その他の設立登記法人,鹿児島県,鹿児島市,西谷山４丁目１５番２８号ボナール西谷山１０１号,,46,201,8910117,,,,,,,2025-07-02,1,,,,,タケノコ,0
655,3430001094739,新規,0,2025-07-02,2025-07-02,株式会社ＣＲ,,株式会社,北海道,札幌市中央区,南五条西８丁目３番地１,,01,101,0640805,,,,,,,2025-07-02,1,,,,,シーアール,0
656,3430003017813,新規,0,2025-07-02,2025-07-02,合同会社グッドハウス,,合同会社,北海道,伊達市,舟岡町３６７番地２２,,01,233,0520014,,,,,,,2025-07-02,1,,,,,グッドハウス,0
662,3480001012877,新規,0,2025-07-02,2025-07-02,株式会社ＥＭＭＡ,,株式会社,徳島県,徳島市,秋田町１丁目３８番地モーメントビル１階,,36,201,7700934,,,,,,,2025-07-02,1,,,,,エマ,0
663,3500001026379,新規,0,2025-07-02,2025-07-02,株式会社ＩＮＣＡＲＮＡＴＩＯＮ　ＯＦ　ＳＵＮ,,株式会社,愛媛県,西条市,神拝甲３５５番地１マルイカトレア６０６号,,38,206,7930041,,,,,,,2025-07-02,1,,,,,インカネーションオブサン,0
672,4010001256339,新規,0,2025-07-02,2025-07-02,株式会社ＡＭＣＲ　ＪＡＰＡＮ,,株式会社,東京都,中央区,銀座６丁目１２番１３号別館２階,,13,102,1040061,,,,,,,2025-07-02,1,,,,,エーエムシーアールジャパン,0
673,4010001256421,新規,0,2025-07-02,2025-07-02,ＳＯＨＯ　ＪＡＰＡＮ株式会社,,株式会社,東京都,中央区,日本橋人形町１丁目５番５号,,13,102,1030013,,,,,,,2025-07-02,1,,,,,ソーホージャパン,0
674,4010001256512,新規,0,2025-07-02,2025-07-02,株式会社アイデプロ,,株式会社,東京都,千代田区,神田須田町１丁目７番８号ＶＯＲＴ秋葉原ＩＶ２Ｆ,,13,101,1010041,,,,,,,2025-07-02,1,,,,,アイデプロ,0
678,4010003047827,新規,0,2025-07-02,2025-07-02,合同会社ＷＳ４,,合同会社,東京都,中央区,京橋２丁目１２番６号ＡＯＪ税理士法人内,,13,102,1040031,,,,,,,2025-07-02,1,,,,,ダブリューエスフォー,0
679,4010003047884,新規,0,2025-07-02,2025-07-02,東京レジＳＲ３合同会社,,合同会社,東京都,千代田区,丸の内１丁目４番１号東京共同会計事務所内,,13,101,1000005,,,,,,,2025-07-02,1,,,,,トウキョウレジエスアールスリー,0
688,4010401191367,新規,0,2025-07-02,2025-07-02,株式会社ＣＲＥＡＴＥ,,株式会社,東京都,港区,南青山１丁目１５番２号ＭＩＮＡＭＩＡＯＹＡＭＡ・ＳＴＵＤＩＯ・ＦＬＡＴ３０３,,13,103,1070062,,,,,,,2025-07-02,1,,,,,クリエイト,0
689,4010401191441,新規,0,2025-07-02,2025-07-02,株式会社シーク,,株式会社,東京都,港区,西新橋１丁目９番５号酔心興栄ビル５Ｆ,,13,103,1050003,,,,,,,2025-07-02,1,,,,,シーク,0
691,4010403035480,新規,0,2025-07-02,2025-07-02,ＥＧ３合同会社,,合同会社,東京都,港区,六本木１丁目６番１号,,13,103,1060032,,,,,,,2025-07-02,1,,,,,イージースリー,0
693,4010405024531,新規,0,2025-07-02,2025-07-02,ＭＦ４ＪＰＮ８特定目的会社,,その他の設立登記法人,東京都,港区,虎ノ門３丁目２２番１０‐２０１号,,13,103,1050001,,,,,,,2025-07-02,1,,,,,エムエフフォージェイピーエヌエイト,0
697,4010505003609,新規,0,2025-07-02,2025-07-02,一般社団法人Ｊａｐａｎｅｓｅ　Ｗａｓｈｉ　Ａｒｔ＆Ｃｕｌｔｕｒｅ　Ｉｎｃｏｒｐｏｒａｔｅｄ,,その他の設立登記法人,東京都,台東区,下谷２丁目１７番１１号,,13,106,1100004,,,,,,,2025-07-02,1,,,,,ジャパニーズワシアートアンドカルチャーインコーポレイティッド,0
717,4011001170430,新規,0,2025-07-02,2025-07-02,株式会社ＷＦＡ,,株式会社,東京都,渋谷区,恵比寿南２丁目４－４,,13,113,1500022,,,,,,,2025-07-02,1,,,,,ダブリューエフエー,0
718,4011001170918,新規,0,2025-07-02,2025-07-02,株式会社ゲン・コーポレーション,,株式会社,東京都,目黒区,目黒本町１丁目１６番１９－１０５号,,13,110,1520002,,,,,,,2025-07-02,1,,,,,ゲンコーポレーション,0
723,4011101112290,新規,0,2025-07-02,2025-07-02,株式会社Ｃｌｏｖｅｒｅｘｐｒｅｓｓ,,株式会社,東京都,新宿区,北新宿２丁目６－２９－７０５,,13,104,1690074,,,,,,,2025-07-02,1,,,,,クローバーエキスプレス,0
724,4011101112349,新規,0,2025-07-02,2025-07-02,株式会社ＡＹ＆Ｋ,,株式会社,東京都,新宿区,荒木町５－６プリムヴェール四谷３０６号室,,13,104,1600007,,,,,,,2025-07-02,1,,,,,エーワイアンドケー,0
726,4011303005615,新規,0,2025-07-02,2025-07-02,合同会社ＳＳコンサルティング,,合同会社,東京都,杉並区,高円寺南３丁目５８－１７プラザＵＳＡビル３０１,,13,115,1660003,,,,,,,2025-07-02,1,,,,,,0
727,4011303005623,新規,0,2025-07-02,2025-07-02,Ｋ　Ｐｒｅｓｔｏ合同会社,,合同会社,東京都,杉並区,堀ノ内３丁目１６番１１号,,13,115,1660013,,,,,,,2025-07-02,1,,,,,ケイプレスト,0
729,4011601028763,新規,0,2025-07-02,2025-07-02,株式会社ヨシ・キューブ,,株式会社,東京都,練馬区,豊玉南３丁目１５番９号,,13,120,1760014,,,,,,,2025-07-02,1,,,,,ヨシキューブ,0
734,4011801046391,新規,0,2025-07-02,2025-07-02,株式会社Ｔｗｏ　ｔｏｐ,,株式会社,東京都,葛飾区,お花茶屋１丁目１４番４号２０１,,13,122,1240003,,,,,,,2025-07-02,1,,,,,ツートップ,0
735,4012301014442,新規,0,2025-07-02,2025-07-02,株式会社ＴＫＪ,,株式会社,東京都,町田市,成瀬６丁目１０番１５‐１００１号,,13,209,1940044,,,,,,,2025-07-02,1,,,,,ティーケージェイ,0
736,4012301014450,新規,0,2025-07-02,2025-07-02,株式会社ＭＮＣＭ,,株式会社,東京都,町田市,大蔵町３００７番地７－２０３号,,13,209,1950062,,,,,,,2025-07-02,1,,,,,エムエヌシーエム,0
741,4012801024073,新規,0,2025-07-02,2025-07-02,ＮＣテクノロジー株式会社,,株式会社,東京都,立川市,一番町６丁目８番地の１立川一番町東４１棟１０２号,,13,202,1900033,,,,,,,2025-07-02,1,,,,,エヌシーテクノロジー,0
743,4013301054536,新規,0,2025-07-02,2025-07-02,同創盛想ＪＡＰＡＮ株式会社,,株式会社,東京都,豊島区,長崎６丁目２８番１６号,,13,116,1710051,,,,,,,2025-07-02,1,,,,,ドウソウセイソウジャパン,0
749,4020003028719,新規,0,2025-07-02,2025-07-02,合同会社米久設備,,合同会社,神奈川県,横浜市戸塚区,舞岡町２９３９－１０２,,14,110,2440813,,,,,,,2025-07-02,1,,,,,ヨネヒサセツビ,0
750,4020003028826,新規,0,2025-07-02,2025-07-02,Ｗｏｒｌｄ　Ｍａｋｅｒ合同会社,,合同会社,神奈川県,川崎市宮前区,犬蔵３丁目１３番９号７１０号室,,14,136,2160011,,,,,,,2025-07-02,1,,,,,ワールドメーカー,0
756,4021001085644,新規,0,2025-07-02,2025-07-02,Ｗｅｌｌｎｅｘ株式会社,,株式会社,神奈川県,藤沢市,辻堂東海岸４丁目９番４号,,14,205,2510045,,,,,,,2025-07-02,1,,,,,ウェルネックス,0
757,4021001085652,新規,0,2025-07-02,2025-07-02,株式会社インスペクション,,株式会社,神奈川県,茅ヶ崎市,赤松町５番４２－２０４号ビレッジコート湘南辻堂,00139774,14,207,2530013,,,,,,,2025-07-02,1,,,,,インスペクション,0
758,4021001085669,新規,0,2025-07-02,2025-07-02,株式会社ベルテクノシステム,,株式会社,神奈川県,藤沢市,遠藤２０２２番地１７,,14,205,2520816,,,,,,,2025-07-02,1,,,,,ベルテクノシステム,0
766,4030001167369,新規,0,2025-07-02,2025-07-02,株式会社つくしピアノ,,株式会社,埼玉県,入間市,大字小谷田１５１８番地１８４,,11,225,3580026,,,,,,,2025-07-02,1,,,,,ツクシピアノ,0
774,4040003027974,新規,0,2025-07-02,2025-07-02,Ｌｕｍｉｅｒｅ　Ｗｏｒｋｓ合同会社,,合同会社,千葉県,千葉市中央区,新宿１丁目５―２９丸新ビル３階,,12,101,2600021,,,,,,,2025-07-02,1,,,,,ルミエールワークス,0
778,4050001056776,新規,0,2025-07-02,2025-07-02,株式会社ＯＧＨ,,株式会社,茨城県,結城市,大字上山川乙２１３番地１,,08,207,3070021,,,,,,,2025-07-02,1,,,,,オージーエイチ,0
779,4050001056842,新規,0,2025-07-02,2025-07-02,株式会社サンハート,,株式会社,茨城県,つくば市,竹園１丁目９番地２デイズタウン３階,,08,220,3050032,,,,,,,2025-07-02,1,,,,,サンハート,0
781,4070001043079,新規,0,2025-07-02,2025-07-02,株式会社ＳＥＥＤ,,株式会社,群馬県,高崎市,吉井町長根１２２７番地１,,10,202,3702127,,,,,,,2025-07-02,1,,,,,シード,0
783,4080101025604,新規,0,2025-07-02,2025-07-02,株式会社ＡＢＢ,,株式会社,静岡県,熱海市,梅園町６番８号,,22,205,4130032,,,,,,,2025-07-02,1,,,,,エービービー,0
798,4120001277299,新規,0,2025-07-02,2025-07-02,峰力株式会社,,株式会社,大阪府,大阪市港区,三先１丁目１２－９倉本ビル２１８号室,,27,107,5520016,,,,,,,2025-07-02,1,,,,,ホウリョク,0
799,4120001277431,新規,0,2025-07-02,2025-07-02,株式会社ＮＦ,,株式会社,大阪府,大阪市浪速区,敷津東２丁目４番２号,,27,111,5560012,,,,,,,2025-07-02,1,,,,,エヌエフ,0
801,4120003029888,新規,0,2025-07-02,2025-07-02,合同会社暁,,合同会社,大阪府,大阪市中央区,谷町６丁目３番９－２０１号,,27,128,5420012,,,,,,,2025-07-02,1,,,,,アカツキ,0
816,4150001028229,新規,0,2025-07-02,2025-07-02,明謙国際貿易株式会社,,株式会社,奈良県,奈良市,法蓮町１３１４番地の１,,29,201,6308113,,,,,,,2025-07-02,1,,,,,ヒロアキコクサイボウエキ,0
825,4180301039947,新規,0,2025-07-02,2025-07-02,株式会社裕建,,株式会社,愛知県,みよし市,三好町土取８７番地３７,,23,236,4700224,,,,,,,2025-07-02,1,,,,,ユウケン,0
826,4180301039955,新規,0,2025-07-02,2025-07-02,株式会社ケーエスジー,,株式会社,愛知県,安城市,堀内町阿原２１,,23,212,4441155,,,,,,,2025-07-02,1,,,,,ケーエスジー,0
828,4190001032350,新規,0,2025-07-02,2025-07-02,株式会社島袋電設,,株式会社,三重県,三重郡菰野町,大字竹成３７１番地６９,,24,341,5101312,,,,,,,2025-07-02,1,,,,,シマブクロデンセツ,0
835,4220003004071,新規,0,2025-07-02,2025-07-02,Ｊ．Ｐｌａｎｎｉｎｇ合同会社,,合同会社,石川県,白山市,明光２丁目１２番地,,17,210,9202152,,,,,,,2025-07-02,1,,,,,ジェイドットプランニング,0
836,4230003002454,新規,0,2025-07-02,2025-07-02,ＩＮＳ合同会社,,合同会社,富山県,富山市,五福３７３４番地３号２Ｆ,,16,201,9300887,,,,,,,2025-07-02,1,,,,,インス,0
840,4250001021215,新規,0,2025-07-02,2025-07-02,株式会社ＢＬＯＯＭ’Ｎ,,株式会社,山口県,山口市,新馬場２番地１,,35,203,7530085,,,,,,,2025-07-02,1,,,,,ブルーム,0
852,4290003017050,新規,0,2025-07-02,2025-07-02,ｂｏｉｌｏｖｅｒ合同会社,,合同会社,福岡県,福岡市中央区,舞鶴１丁目９番３－２１６号,,40,133,8100073,,,,,,,2025-07-02,1,,,,,ボイラバー,0
856,4290801031657,新規,0,2025-07-02,2025-07-02,日生殖産株式会社,,株式会社,福岡県,北九州市小倉北区,上富野４丁目１番２５号,,40,106,8020022,,,,,,,2025-07-02,1,,,,,ニッセイショクサン,0
857,4290801031665,新規,0,2025-07-02,2025-07-02,株式会社リバテック,,株式会社,福岡県,遠賀郡芦屋町,大字芦屋１４５２番地７,,40,381,8070133,,,,,,,2025-07-02,1,,,,,リバテック,0
858,4290801031673,新規,0,2025-07-02,2025-07-02,株式会社リンクカーズ,,株式会社,福岡県,直方市,大字上新入２３１９番地１４,,40,204,8220033,,,,,,,2025-07-02,1,,,,,リンクカーズ,0
864,4330001033350,新規,0,2025-07-02,2025-07-02,ゼブラフォレスト株式会社,,株式会社,熊本県,熊本市東区,長嶺東５丁目２５番２号,,43,102,8618038,,,,,,,2025-07-02,1,,,,,ゼブラフォレスト,0
865,4330003011081,新規,0,2025-07-02,2025-07-02,合同会社トレカ図鑑,,合同会社,熊本県,熊本市西区,二本木２丁目１番３０－３０６号アルファステイツ熊本駅東,,43,103,8600051,,,,,,,2025-07-02,1,,,,,トレカズカン,0
869,4350001019612,新規,0,2025-07-02,2025-07-02,株式会社Ｓｅｎｊｉｎ,,株式会社,宮崎県,延岡市,昭和町２丁目３６番地２Ｆ,,45,203,8820034,,,,,,,2025-07-02,1,,,,,センジン,0
872,4370001052768,新規,0,2025-07-02,2025-07-02,弘盛商事株式会社,,株式会社,宮城県,仙台市太白区,中田２丁目２５番１５号,,04,104,9811104,,,,,,,2025-07-02,1,,,,,コウセイショウジ,0
876,4400003003492,新規,0,2025-07-02,2025-07-02,合同会社ポラメッツァ,,合同会社,岩手県,盛岡市,本宮３丁目１５－４０,,03,201,0200866,,,,,,,2025-07-02,1,,,,,ポラメッツァ,0
881,4420001019191,新規,0,2025-07-02,2025-07-02,株式会社ＣｏＣｏｍａｈａｌｏ,,株式会社,青森県,つがる市,木造赤根１３番地７４メゾン茜Ａ－１号室,,02,209,0383142,,,,,,,2025-07-02,1,,,,,ココマハロ,0
888,4430001094738,新規,0,2025-07-02,2025-07-02,株式会社アヴァリス,,株式会社,北海道,札幌市中央区,南十条西９丁目２番３３－３０２号,,01,101,0640810,,,,,,,2025-07-02,1,,,,,アヴァリス,0
892,4440001009637,新規,0,2025-07-02,2025-07-02,株式会社ＮＩＮＪＡ,,株式会社,北海道,北斗市,追分４丁目１１―８,,01,236,0490101,,,,,,,2025-07-02,1,,,,,ニンジャ,0
909,5010001256370,新規,0,2025-07-02,2025-07-02,ＮＹＣＩ１５ＨＤ株式会社,,株式会社,東京都,中央区,新川１丁目６番１１号,,13,102,1040033,,,,,,,2025-07-02,1,,,,,エヌワイシーアイフィフティーンエイチディー,0
910,5010001256387,新規,0,2025-07-02,2025-07-02,株式会社Ｋａｎｄａ,,株式会社,東京都,千代田区,神田神保町１丁目５４番地第十ビル,,13,101,1010051,,,,,,,2025-07-02,1,,,,,カンダ,0
913,5010003047826,新規,0,2025-07-02,2025-07-02,合同会社ＳｉｅｒｒａＢｌｕｅ,,合同会社,東京都,千代田区,外神田６丁目７番１－３０３号,,13,101,1010021,,,,,,,2025-07-02,1,,,,,シエラブルー,0
914,5010003047842,新規,0,2025-07-02,2025-07-02,合同会社Ｌｕｍｉｎａ,,合同会社,東京都,中央区,日本橋室町１丁目１１番１２号日本橋水野ビル７階,,13,102,1030022,,,,,,,2025-07-02,1,,,,,ルミナ,0
915,5010003047883,新規,0,2025-07-02,2025-07-02,東京レジＳＲ２合同会社,,合同会社,東京都,千代田区,丸の内１丁目４番１号東京共同会計事務所内,,13,101,1000005,,,,,,,2025-07-02,1,,,,,トウキョウレジエスアールツー,0
929,5010401191341,新規,0,2025-07-02,2025-07-02,株式会社ＲＥ’ＴＥＲＡＳＳ’暮らす,,株式会社,東京都,港区,浜松町２丁目２番１５号浜松町ダイヤビル２Ｆ,,13,103,1050013,,,,,,,2025-07-02,1,,,,,リテラスクラス,0
930,5010401191457,新規,0,2025-07-02,2025-07-02,株式会社ウォーカンド,,株式会社,東京都,港区,新橋４丁目１４番１号新橋ＡＵＮＢＬＤＧ．４階,,13,103,1050004,,,,,,,2025-07-02,1,,,,,ウォーカンド,0
935,5010405024489,新規,0,2025-07-02,2025-07-02,一般社団法人住宅ＦＰ協会,,その他の設立登記法人,東京都,港区,海岸１丁目７番１号東京ポートシティ竹芝オフィスタワー８階,,13,103,1050022,,,,,,,2025-07-02,1,,,,,ジュウタクエフピーキョウカイ,0
936,5010501054274,新規,0,2025-07-02,2025-07-02,福地株式会社,,株式会社,東京都,台東区,台東３丁目５番１０号－１０２－２Ｋ号室,,13,106,1100016,,,,,,,2025-07-02,1,,,,,フーチー,0
943,5011001170330,新規,0,2025-07-02,2025-07-02,株式会社メリオル,,株式会社,東京都,渋谷区,神南１丁目１１－４ＦＰＧリンクス神南５階,,13,113,1500041,,,,,,,2025-07-02,1,,,,,メリオル,0
947,5011201026480,新規,0,2025-07-02,2025-07-02,株式会社Ｚｅｒｏｇｒａ　Ｗｏｒｋｓ,,株式会社,東京都,中野区,南台３丁目２２番１－２０１号,,13,114,1640014,,,,,,,2025-07-02,1,,,,,ゼログラワークス,0
948,5011203004749,新規,0,2025-07-02,2025-07-02,合同会社福福コーポレーション,,合同会社,東京都,中野区,本町２丁目３６番３号,,13,114,1640012,,,,,,,2025-07-02,1,,,,,フクフクコーポレーション,0
957,5011601028762,新規,0,2025-07-02,2025-07-02,株式会社マイクローゼット,,株式会社,東京都,練馬区,豊玉南１丁目１１番１０－２０５号,,13,120,1760014,,,,,,,2025-07-02,1,,,,,マイクローゼット,0
962,5011805003462,新規,0,2025-07-02,2025-07-02,一般社団法人国際自立支援介護推進機構,,その他の設立登記法人,東京都,足立区,千住緑町１丁目２１番１－２０１号,,13,121,1200044,,,,,,,2025-07-02,1,,,,,コクサイジリツシエンカイゴスイシンキコウ,0
963,5012303002188,新規,0,2025-07-02,2025-07-02,ｖａｃｉｌａｎｄｏ合同会社,,合同会社,東京都,町田市,玉川学園１丁目１番２５号,,13,209,1940041,,,,,,,2025-07-02,1,,,,,ヴァシランド,0
966,5012701018950,新規,0,2025-07-02,2025-07-02,株式会社Ｐａｍｐａｓ　Ｇｒａｓｓ,,株式会社,東京都,西東京市,柳沢２丁目９番６号,,13,229,2020022,,,,,,,2025-07-02,1,,,,,パンパスグラス,0
980,5020001163590,新規,0,2025-07-02,2025-07-02,株式会社華菓社,,株式会社,神奈川県,横浜市港南区,笹下３丁目１０番３１－７０３号,,14,111,2340052,,,,,,,2025-07-02,1,,,,,カカシャ,0
981,5020001163624,新規,0,2025-07-02,2025-07-02,株式会社ＴＯＪＡ,,株式会社,神奈川県,横浜市中区,長者町５丁目５０番地,,14,104,2310033,,,,,,,2025-07-02,1,,,,,トジャ,0
982,5020001163640,新規,0,2025-07-02,2025-07-02,シン建設株式会社,,株式会社,神奈川県,川崎市幸区,下平間５６番地１,,14,132,2120053,,,,,,,2025-07-02,1,,,,,シンケンセツ,0
989,5021001085635,新規,0,2025-07-02,2025-07-02,株式会社Ｈ‐ＢＬＡＤＥ,,株式会社,神奈川県,藤沢市,辻堂元町３丁目１５番３０号,,14,205,2510043,,,,,,,2025-07-02,1,,,,,エイチブレード,0
990,5021001085668,新規,0,2025-07-02,2025-07-02,株式会社ＭＩＡ　Ｉｎｔｅｒｎａｔｉｏｎａｌ,,株式会社,神奈川県,秦野市,南が丘２丁目２―１８―１０７,,14,211,2570013,,,,,,,2025-07-02,1,,,,,ミアインターナショナル,0
998,5030001167392,新規,0,2025-07-02,2025-07-02,株式会社ＧＲＥＥＮ　ＵＰ　ＴＥＣＨＮＯＬＯＧＩＥＳ,,株式会社,埼玉県,さいたま市北区,別所町５４番地８,,11,102,3310821,,,,,,,2025-07-02,1,,,,,グリーンアップテクロノジーズ,0
1006,5040003027957,新規,0,2025-07-02,2025-07-02,Ｓ　ｃａｒｓ合同会社,,合同会社,千葉県,野田市,堤根１１４番地の９,,12,208,2780021,,,,,,,2025-07-02,1,,,,,エスカー,0
1007,5040003027965,新規,0,2025-07-02,2025-07-02,合同会社Ｈａｎｄｙｍａｎ,,合同会社,千葉県,船橋市,西船４丁目２０番５号,,12,204,2730031,,,,,,,2025-07-02,1,,,,,ハンディーマン,0
1011,5050001056841,新規,0,2025-07-02,2025-07-02,株式会社サンガイア,,株式会社,茨城県,つくば市,竹園１丁目９番地２デイズタウン３階,,08,220,3050032,,,,,,,2025-07-02,1,,,,,サンガイア,0
1012,5050001056858,新規,0,2025-07-02,2025-07-02,Ｈ工業株式会社,,株式会社,茨城県,神栖市,神栖４丁目６－３２マウントリヴァＡ２０３,,08,232,3140143,,,,,,,2025-07-02,1,,,,,,0
1013,5050001056866,新規,0,2025-07-02,2025-07-02,三甲利株式会社,,株式会社,茨城県,ひたちなか市,大字東石川３３７９番地２１６,,08,221,3120052,,,,,,,2025-07-02,1,,,,,,0
1014,5050001056874,新規,0,2025-07-02,2025-07-02,株式会社Ｔｗｏｔｈｒｅｅ,,株式会社,茨城県,つくば市,竹園１丁目６番地１、９Ｆ,,08,220,3050032,,,,,,,2025-07-02,1,,,,,ツースリー,0
1018,5070001043086,新規,0,2025-07-02,2025-07-02,ＣＫ　ｌａｂｏ株式会社,,株式会社,群馬県,前橋市,小相木町２８７番地,,10,201,3710831,,,,,,,2025-07-02,1,,,,,シーケーラボ,0
1020,5080101025603,新規,0,2025-07-02,2025-07-02,興信電気工業株式会社,,株式会社,静岡県,沼津市,花園町２１番地の５福信ビルＩＩＩ３０２,00139767,22,203,4100065,,,,,,,2025-07-02,1,,,,,コウシンデンキコウギョウ,0
1021,5110003005798,新規,0,2025-07-02,2025-07-02,合同会社クオリア,,合同会社,新潟県,三条市,直江町２丁目７番２１－４号パルテールＢ２０１,,15,204,9550832,,,,,,,2025-07-02,1,,,,,クオリア,0
1024,5120001277281,新規,0,2025-07-02,2025-07-02,静遠国際株式会社,,株式会社,大阪府,大阪市生野区,林寺１丁目８番２号Ｂ２０１室,,27,116,5440023,,,,,,,2025-07-02,1,,,,,セイエンコクサイ,0
1025,5120001277307,新規,0,2025-07-02,2025-07-02,株式会社ＳＭＩＬＥ　ＣＵＢＥ,,株式会社,大阪府,大阪市西区,川口３丁目８番２５号,,27,106,5500021,,,,,,,2025-07-02,1,,,,,スマイルキューブ,0
1026,5120001277364,新規,0,2025-07-02,2025-07-02,株式会社勇,,株式会社,大阪府,大阪市生野区,巽北１丁目７番３号３０１号室,00139776,27,116,5440004,,,,,,,2025-07-02,1,,,,,ユウ,0
1027,5120001277372,新規,0,2025-07-02,2025-07-02,株式会社豊茂,,株式会社,大阪府,大阪市西区,靱本町１丁目４番８号,,27,106,5500004,,,,,,,2025-07-02,1,,,,,トヨシゲ,0
1028,5120001277406,新規,0,2025-07-02,2025-07-02,泰和株式会社,,株式会社,大阪府,大阪市港区,磯路２丁目７－１０－２０２号,,27,107,5520003,,,,,,,2025-07-02,1,,,,,タイワ,0
1030,5120005025001,新規,0,2025-07-02,2025-07-02,一般社団法人日本教育開発支援協会,,その他の設立登記法人,大阪府,交野市,星田山手４丁目１１番２３号,,27,230,5760014,,,,,,,2025-07-02,1,,,,,ニホンキョウイクカイハツシエンキョウカイ,0
1032,5120101071989,新規,0,2025-07-02,2025-07-02,株式会社パイオニア・クリンネス,,株式会社,大阪府,岸和田市,小松里町２００８番地,,27,202,5960821,,,,,,,2025-07-02,1,,,,,パイオニアクリンネス,0
1036,5140001139117,新規,0,2025-07-02,2025-07-02,Ｍｉｒａｌｉｓ株式会社,,株式会社,兵庫県,神戸市中央区,浪花町５６起業プラザひょうご内,,28,110,6500035,,,,,,,2025-07-02,1,,,,,ミラリス,0
1038,5140003022279,新規,0,2025-07-02,2025-07-02,ＳＬ　Ｌｕｂｒｉｃａｎｔ合同会社,,合同会社,兵庫県,芦屋市,西蔵町７番８－６号,,28,206,6590026,,,,,,,2025-07-02,1,,,,,エスエルルブリカント,0
1046,5180001167477,新規,0,2025-07-02,2025-07-02,株式会社いっぷく,,株式会社,愛知県,尾張旭市,西大道町前田３８６３番地４,,23,226,4880814,,,,,,,2025-07-02,1,,,,,イップク,0
1047,5180001167502,新規,0,2025-07-02,2025-07-02,株式会社ｎｏｎｋｉｉ,,株式会社,愛知県,一宮市,時之島字日吉浦４５番地,,23,203,4910002,,,,,,,2025-07-02,1,,,,,ノンキー,0
1048,5180001167510,新規,0,2025-07-02,2025-07-02,株式会社ハイパフォーマンスプロジェクト,,株式会社,愛知県,名古屋市緑区,鳴海町字三皿１８番地の４,,23,114,4580801,,,,,,,2025-07-02,1,,,,,ハイパフォーマンスプロジェクト,0
1053,5220003004070,新規,0,2025-07-02,2025-07-02,金沢デザイン研究所合同会社,,合同会社,石川県,金沢市,しじま台２丁目２７番地８,,17,201,9218132,,,,,,,2025-07-02,1,,,,,カナザワデザインケンキュウショ,0
1060,5240001065146,新規,0,2025-07-02,2025-07-02,株式会社８７８７,,株式会社,広島県,東広島市,高屋町造賀３３７８番地,,34,212,7392101,,,,,,,2025-07-02,1,,,,,ハナハナ,0
1061,5240001065154,新規,0,2025-07-02,2025-07-02,株式会社Ｔｏｙｓ,,株式会社,広島県,広島市安芸区,矢野南１丁目５番１２号,,34,107,7360086,,,,,,,2025-07-02,1,,,,,トイズ,0
1067,5260003005239,新規,0,2025-07-02,2025-07-02,合同会社ＷＡＫＡＢＡエドテックラボ,,合同会社,岡山県,岡山市東区,東平島１１９５‐２パルビル２階北,,33,103,7090631,,,,,,,2025-07-02,1,,,,,ワカバエドテックラボ,0
1076,5290001110491,新規,0,2025-07-02,2025-07-02,盈豊株式会社,,株式会社,福岡県,福岡市東区,香住ヶ丘２丁目８番２号１０２－３号室,,40,131,8130003,,,,,,,2025-07-02,1,,,,,エイホウ,0
1080,5290801031680,新規,0,2025-07-02,2025-07-02,株式会社ＮＫテクノ,,株式会社,福岡県,北九州市八幡西区,御開３丁目３番１６－３０１号,,40,109,8070806,,,,,,,2025-07-02,1,,,,,エヌケーテクノ,0
1082,5310003005035,新規,0,2025-07-02,2025-07-02,合同会社Ｐ＆Ｊコネクト,,合同会社,長崎県,長崎市,丸山町１番２８号,,42,201,8500902,,,,,,,2025-07-02,1,,,,,ピーアンドジェーコネクト,0
1083,5330001033341,新規,0,2025-07-02,2025-07-02,株式会社八州観光開発,,株式会社,熊本県,上天草市,松島町合津４７１０番地２,,43,212,8616102,,,,,,,2025-07-02,1,,,,,ヤシマカンコウカイハツ,0
1084,5330003011089,新規,0,2025-07-02,2025-07-02,合同会社ｅｎｊｉ,,合同会社,熊本県,熊本市中央区,保田窪１丁目１―４０,,43,101,8620926,,,,,,,2025-07-02,1,,,,,エンジ,0
1085,5340001027474,新規,0,2025-07-02,2025-07-02,株式会社ＫＷＲカンパニー,,株式会社,鹿児島県,いちき串木野市,湊町３丁目２２１番地,,46,219,8992101,,,,,,,2025-07-02,1,,,,,ケーダブルアールカンパニー,0
1092,5370001052759,新規,0,2025-07-02,2025-07-02,株式会社森の木の子工房,,株式会社,宮城県,柴田郡川崎町,大字川内字朴木山３番地１８,,04,324,9891503,,,,,,,2025-07-02,1,,,,,モリノキノココウボウ,0
1095,5370003007174,新規,0,2025-07-02,2025-07-02,合同会社経理コンパス,,合同会社,宮城県,仙台市太白区,あすと長町４丁目３－１５－１７０１,,04,104,9820007,,,,,,,2025-07-02,1,,,,,ケイリコンパス,0
1101,5410001014201,新規,0,2025-07-02,2025-07-02,株式会社圭仁,,株式会社,秋田県,秋田市,大町３丁目２番３６号,,05,201,0100921,,,,,,,2025-07-02,1,,,,,ケイジン,0
1109,5430001094737,新規,0,2025-07-02,2025-07-02,ザボキッズ株式会社,,株式会社,北海道,札幌市東区,北八条東１６丁目１番５号,,01,103,0650008,,,,,,,2025-07-02,1,,,,,ザボキッズ,0
1110,5430001094745,新規,0,2025-07-02,2025-07-02,株式会社宏宇,,株式会社,北海道,札幌市南区,川沿六条４丁目７番１号,,01,106,0050806,,,,,,,2025-07-02,1,,,,,ヒロタカ,0
1122,5500001026385,新規,0,2025-07-02,2025-07-02,株式会社東永工業,,株式会社,愛媛県,伊予郡砥部町,宮内１８８５番地４１,,38,402,7912120,,,,,,,2025-07-02,1,,,,,トウエイコウギョウ,0
1137,6010001256270,新規,0,2025-07-02,2025-07-02,銀海ロジスティクス株式会社,,株式会社,東京都,中央区,日本橋浜町２丁目１９番９号ＶＣＴビル４階,,13,102,1030007,,,,,,,2025-07-02,1,,,,,ギンカイロジスティクス,0
1138,6010001256428,新規,0,2025-07-02,2025-07-02,光機電技研株式会社,,株式会社,東京都,千代田区,神田佐久間町２丁目１８番地１秋葉原ＳＴＮフロント１０階,,13,101,1010025,,,,,,,2025-07-02,1,,,,,コウキデンギケン,0
1139,6010001256444,新規,0,2025-07-02,2025-07-02,Ｔｈｅ　Ｅｓｔｈｅｒ　Ｊａｐａｎ株式会社,,株式会社,東京都,中央区,日本橋大伝馬町１７番６号７階,,13,102,1030011,,,,,,,2025-07-02,1,,,,,ザエスタージャパン,0
1141,6010003047882,新規,0,2025-07-02,2025-07-02,東京レジＳＲ１合同会社,,合同会社,東京都,千代田区,丸の内１丁目４番１号東京共同会計事務所内,,13,101,1000005,,,,,,,2025-07-02,1,,,,,トウキョウレジエスアールワン,0
1142,6010003047899,新規,0,2025-07-02,2025-07-02,合同会社ＤＬＭＡレジデンス,,合同会社,東京都,千代田区,丸の内１丁目４番１号東京共同会計事務所内,,13,101,1000005,,,,,,,2025-07-02,1,,,,,ディーエルエムエーレジデンス,0
1143,6010101016748,新規,0,2025-07-02,2025-07-02,株式会社ストリックス,,株式会社,東京都,八王子市,川口町２８４２番地１１,,13,201,1930801,,,,,,,2025-07-02,1,,,,,ストリックス,0
1150,6010403035479,新規,0,2025-07-02,2025-07-02,ＥＧ４合同会社,,合同会社,東京都,港区,六本木１丁目６番１号,,13,103,1060032,,,,,,,2025-07-02,1,,,,,イージーフォー,0
1153,6010501054323,新規,0,2025-07-02,2025-07-02,泰信株式会社,,株式会社,東京都,台東区,池之端２丁目９番４－４０１号,,13,106,1100008,,,,,,,2025-07-02,1,,,,,タイシン,0
1154,6010501054331,新規,0,2025-07-02,2025-07-02,復興面王株式会社,,株式会社,東京都,台東区,北上野２丁目２２番７号,,13,106,1100014,,,,,,,2025-07-02,1,,,,,フッコウメンオウ,0
1156,6010601067539,新規,0,2025-07-02,2025-07-02,株式会社絢菜,,株式会社,東京都,墨田区,押上２丁目１３番１号,,13,107,1310045,,,,,,,2025-07-02,1,,,,,アヤナ,0
1158,6010603011651,新規,0,2025-07-02,2025-07-02,ＢＨＬ合同会社,,合同会社,東京都,江東区,新木場３丁目４番７号,,13,108,1360082,,,,,,,2025-07-02,1,,,,,ビーエイチエル,0
1168,6011001170668,新規,0,2025-07-02,2025-07-02,株式会社ａｃｔ　ｗａｙ,,株式会社,東京都,渋谷区,神南１丁目１１－４ＦＰＧリンクス神南５階,,13,113,1500041,,,,,,,2025-07-02,1,,,,,アクトウェイ,0
1170,6011003021877,新規,0,2025-07-02,2025-07-02,合同会社ＳＫＹＬＩＮＥＳ,,合同会社,東京都,渋谷区,本町６丁目６－１－２０５号,,13,113,1510071,,,,,,,2025-07-02,1,,,,,スカイラインズ,0
1178,6011101112173,新規,0,2025-07-02,2025-07-02,株式会社Ａｃｒｏｂａｔ,,株式会社,東京都,新宿区,西新宿６丁目２０番７－２２０９号,,13,104,1600023,,,,,,,2025-07-02,1,,,,,アクロバット,0
1179,6011101112272,新規,0,2025-07-02,2025-07-02,日晟株式会社,,株式会社,東京都,新宿区,新宿２丁目３－１６ライオンズマンション御苑前１００３,,13,104,1600022,,,,,,,2025-07-02,1,,,,,ニッセイ,0
1180,6011101112347,新規,0,2025-07-02,2025-07-02,株式会社ＦＥＬＩＯ,,株式会社,東京都,新宿区,西新宿４丁目２７番４号ホワイトハウス３０５,,13,104,1600023,,,,,,,2025-07-02,1,,,,,フェリオ,0
1182,6011103016050,新規,0,2025-07-02,2025-07-02,鬼頭合同会社,,合同会社,東京都,新宿区,西新宿５丁目９番８号ステイレジデンス西新宿１２０３,,13,104,1600023,,,,,,,2025-07-02,1,,,,,キトウ,0
1183,6011105011479,新規,0,2025-07-02,2025-07-02,一般社団法人道院東京総院,,その他の設立登記法人,東京都,新宿区,新宿５丁目１１番１３号,,13,104,1600022,,,,,,,2025-07-02,1,,,,,ドウイントウキョウソウイン,0
1186,6011203004748,新規,0,2025-07-02,2025-07-02,ＥＩＯＡ合同会社,,合同会社,東京都,中野区,中野４丁目１０番２号中野セントラルパークサウス２階,,13,114,1640001,,,,,,,2025-07-02,1,,,,,エイオア,0
1187,6011303005539,新規,0,2025-07-02,2025-07-02,合同会社ＰＡＤＤＬＥ　ＴＨＲＯＵＧＨ,,合同会社,東京都,杉並区,成田東３丁目１７番３４号,,13,115,1660015,,,,,,,2025-07-02,1,,,,,パドルスルー,0
1198,6012301014449,新規,0,2025-07-02,2025-07-02,株式会社ドライパウダー,,株式会社,東京都,町田市,小山ヶ丘３丁目１４番地３,,13,209,1940215,,,,,,,2025-07-02,1,,,,,ドライパウダー,0
1206,6020003028865,新規,0,2025-07-02,2025-07-02,合同会社らむかな,,合同会社,神奈川県,横浜市泉区,和泉中央南３丁目１番２８―３号,,14,116,2450023,,,,,,,2025-07-02,1,,,,,ラムカナ,0
1207,6021003016232,新規,0,2025-07-02,2025-07-02,合同会社エムカンパニー,,合同会社,神奈川県,綾瀬市,大上１丁目２６番３号,,14,218,2521104,,,,,,,2025-07-02,1,,,,,エムカンパニー,0
1223,6030003026819,新規,0,2025-07-02,2025-07-02,合同会社ＬＵＯ,,合同会社,埼玉県,川口市,栄町１丁目１２番２１－５１２号,,11,203,3320017,,,,,,,2025-07-02,1,,,,,ラ,0
1230,6050001056865,新規,0,2025-07-02,2025-07-02,Ｇｌｏｂａｌ　Ｍｏｖｅｍｅｎｔ　Ｊａｐａｎ株式会社,,株式会社,茨城県,土浦市,真鍋６丁目２２番１２号,,08,203,3000051,,,,,,,2025-07-02,1,,,,,,0
1231,6050001056881,新規,0,2025-07-02,2025-07-02,株式会社スズショウ,,株式会社,茨城県,小美玉市,堅倉１７５８番地,,08,236,3190106,,,,,,,2025-07-02,1,,,,,スズショウ,0
1232,6060001038342,新規,0,2025-07-02,2025-07-02,株式会社コハギ設備,,株式会社,栃木県,那須郡那須町,大字高久甲５１６０番地１０,,09,407,3250001,,,,,,,2025-07-02,1,,,,,コハギセツビ,0
1234,6070003005975,新規,0,2025-07-02,2025-07-02,ＭＯＣ　ＡＮ　ＪＡＰＡＮ合同会社,,合同会社,群馬県,邑楽郡邑楽町,大字赤堀４０３５番地２階－５,,10,525,3700614,,,,,,,2025-07-02,1,,,,,,0
1235,6070003005983,新規,0,2025-07-02,2025-07-02,Ｚ＆Ｙ　ＩＮＴＥＲＮＡＴＩＯＮＡＬ合同会社,,合同会社,群馬県,伊勢崎市,八斗島町１６００番地１,,10,204,3720827,,,,,,,2025-07-02,1,,,,,ゼットアンドワイインターナショナル,0
1237,6080001027005,新規,0,2025-07-02,2025-07-02,株式会社Ｓ‐ＴＥＣ,,株式会社,静岡県,静岡市清水区,長崎新田４２５番地の９,,22,103,4240064,,,,,,,2025-07-02,1,,,,,エステック,0
1240,6080101025602,新規,0,2025-07-02,2025-07-02,株式会社ＡＧジャパンサービス,,株式会社,静岡県,御殿場市,御殿場１７９番地の１,,22,215,4120028,,,,,,,2025-07-02,1,,,,,エージージャパンサービス,0
1242,6090001019364,新規,0,2025-07-02,2025-07-02,Ｄａｉｈｏ　Ｅｍｐｅｒｏｒ株式会社,,株式会社,山梨県,山梨市,小原西７２番地３－３階Ａ,,19,205,4050006,,,,,,,2025-07-02,1,,,,,,0
1246,6100003008256,新規,0,2025-07-02,2025-07-02,モリ管理システム合同会社,,合同会社,長野県,伊那市,西春近２５５０番地１,,20,209,3994431,,,,,,,2025-07-02,1,,,,,モリカンリシステム,0
1247,6110001039384,新規,0,2025-07-02,2025-07-02,株式会社タマの手,,株式会社,新潟県,三条市,曲渕３丁目２１番２８号,,15,204,9550864,,,,,,,2025-07-02,1,,,,,タマノテ,0
1261,6120001277108,新規,0,2025-07-02,2025-07-02,株式会社尭迪,,株式会社,大阪府,大阪市東成区,大今里南６丁目２－１７－３０１号室,,27,115,5370013,,,,,,,2025-07-02,1,,,,,ギョウテキ,0
1262,6120001277339,新規,0,2025-07-02,2025-07-02,ＫＡＺＺ　ＦＩＥＬＤ株式会社,,株式会社,大阪府,大阪市城東区,今福西６丁目１０番６号野球教室ＫＡＺＺ３階,,27,118,5360004,,,,,,,2025-07-02,1,,,,,カズフィールド,0
1263,6120001277363,新規,0,2025-07-02,2025-07-02,りぎゅう株式会社,,株式会社,大阪府,大阪市淀川区,宮原１丁目１７番３３号北沢産業ビル３０９号,,27,123,5320003,,,,,,,2025-07-02,1,,,,,リギュウ,0
1264,6120001277371,新規,0,2025-07-02,2025-07-02,株式会社縁成,,株式会社,大阪府,大阪市中央区,内平野町１丁目２－９グランドメゾン大手前５０１,,27,128,5400037,,,,,,,2025-07-02,1,,,,,エンセイ,0
1265,6120001277388,新規,0,2025-07-02,2025-07-02,株式会社Ｗｅｌｌｍｅｅ,,株式会社,大阪府,大阪市西区,立売堀５丁目１番１１－８０５号,,27,106,5500012,,,,,,,2025-07-02,1,,,,,ウェルミー,0
1270,6120103006538,新規,0,2025-07-02,2025-07-02,華園合同会社,,合同会社,大阪府,河内長野市,喜多町６３２番地の１プチ・グリーン２０５号,,27,216,5860033,,,,,,,2025-07-02,1,,,,,カエン,0
1276,6122001039388,新規,0,2025-07-02,2025-07-02,株式会社Ｌｅ　Ｐｈａｒｅ,,株式会社,大阪府,東大阪市,西鴻池町１丁目１０番２０号,,27,227,5780976,,,,,,,2025-07-02,1,,,,,ルファール,0
1281,6140001139058,新規,0,2025-07-02,2025-07-02,株式会社ネイクローバー,,株式会社,兵庫県,神戸市東灘区,御影山手６丁目３番２３号,,28,101,6580065,,,,,,,2025-07-02,1,,,,,ネイクローバー,0
1282,6140001139066,新規,0,2025-07-02,2025-07-02,株式会社Ｓｈｉｉｃａ,,株式会社,兵庫県,神戸市中央区,下山手通４丁目６番１１号エクセル山手１Ｆ,,28,110,6500011,,,,,,,2025-07-02,1,,,,,シイカ,0
1286,6150001028235,新規,0,2025-07-02,2025-07-02,株式会社今中石油,,株式会社,奈良県,奈良市,荻町１３０番地,,29,201,6320103,,,,,,,2025-07-02,1,,,,,イマナカセキユ,0
1287,6150003003640,新規,0,2025-07-02,2025-07-02,合同会社ＢＣＣ,,合同会社,奈良県,天理市,武蔵町５４０番地,,29,204,6320065,,,,,,,2025-07-02,1,,,,,ビーシーシー,0
1288,6170001018688,新規,0,2025-07-02,2025-07-02,株式会社ＴＯＲＩＴＳＵＧＵ,,株式会社,和歌山県,和歌山市,東蔵前丁４番地ファーストビル２０９号室,,30,201,6408203,,,,,,,2025-07-02,1,,,,,トリツグ,0
1295,6180001167534,新規,0,2025-07-02,2025-07-02,株式会社ＷＥ　ＮＥＥＤ,,株式会社,愛知県,名古屋市西区,名駅２丁目２４番９号,,23,104,4510045,,,,,,,2025-07-02,1,,,,,ウィーニード,0
1300,6190001032349,新規,0,2025-07-02,2025-07-02,株式会社ミハル,,株式会社,三重県,鈴鹿市,岸岡町２７０７－５２,,24,207,5100226,,,,,,,2025-07-02,1,,,,,ミハル,0
1305,6220001026776,新規,0,2025-07-02,2025-07-02,株式会社Ｍ’ｓｙｓｔｅｍ,,株式会社,石川県,かほく市,白尾ホ６３番地,,17,209,9291177,,,,,,,2025-07-02,1,,,,,エムシステム,0
1306,6230001020976,新規,0,2025-07-02,2025-07-02,あらかわ海鮮堂株式会社,,株式会社,富山県,富山市,桜町２丁目２番２２号,,16,201,9300003,,,,,,,2025-07-02,1,,,,,アラカワカイセンドウ,0
1308,6240001065137,新規,0,2025-07-02,2025-07-02,株式会社ハマデン,,株式会社,広島県,広島市東区,牛田東２丁目１６番１５号,,34,102,7320063,,,,,,,2025-07-02,1,,,,,ハマデン,0
1309,6240001065153,新規,0,2025-07-02,2025-07-02,株式会社ＢｕｚｚｗｏｒＫｓ,,株式会社,広島県,広島市中区,橋本町７－２２ＫＵＳＵＭＯＴＯビル２Ｆ,,34,101,7300015,,,,,,,2025-07-02,1,,,,,バズワークス,0
1319,6290001110573,新規,0,2025-07-02,2025-07-02,Ｏｕｒａｎｏｘ　Ｔｅｃｈｎｏｌｏｇｉｅｓ株式会社,,株式会社,福岡県,福岡市中央区,天神２丁目２番１２号Ｔ＆Ｊビルディング７階,,40,133,8100001,,,,,,,2025-07-02,1,,,,,オーラノクステクノロジズ,0
1323,6310003005034,新規,0,2025-07-02,2025-07-02,合同会社満島商店,,合同会社,長崎県,大村市,杭出津１丁目８４０番地３,,42,205,8560828,,,,,,,2025-07-02,1,,,,,ミツシマショウテン,0
1332,6380001035423,新規,0,2025-07-02,2025-07-02,株式会社ふくから,,株式会社,福島県,福島市,北沢又字日行壇３番地の６ドミールしのぶ１０１号,,07,201,9608251,,,,,,,2025-07-02,1,,,,,フクカラ,0
1356,6480001012874,新規,0,2025-07-02,2025-07-02,株式会社姫吉,,株式会社,徳島県,阿南市,見能林町志んじやく３番地１８,,36,204,7740017,,,,,,,2025-07-02,1,,,,,ヒメヨシ,0
1364,7010001256385,新規,0,2025-07-02,2025-07-02,株式会社音羽,,株式会社,東京都,中央区,日本橋２丁目１番３号アーバンネット日本橋二丁目ビル１０階,,13,102,1030027,,,,,,,2025-07-02,1,,,,,オトワ,0
1365,7010001256393,新規,0,2025-07-02,2025-07-02,株式会社ＡＨＳＪ,,株式会社,東京都,中央区,日本橋室町１丁目１１番１２号日本橋水野ビル７階,,13,102,1030022,,,,,,,2025-07-02,1,,,,,エイエイチエスジェイ,0
1366,7010001256419,新規,0,2025-07-02,2025-07-02,Ｊａｐａｎ　Ｔｒｏｎｉｃｓ株式会社,,株式会社,東京都,中央区,日本橋茅場町２丁目５－６日本橋大江戸ビル１０階,,13,102,1030025,,,,,,,2025-07-02,1,,,,,ジャパントロニクス,0
1367,7010001256443,新規,0,2025-07-02,2025-07-02,Ｔｈｅ　Ｄｅｘｔｅｒ　Ｊａｐａｎ株式会社,,株式会社,東京都,中央区,日本橋大伝馬町１７番６号５階,,13,102,1030011,,,,,,,2025-07-02,1,,,,,ザデクスタージャパン,0
1368,7010001256468,新規,0,2025-07-02,2025-07-02,カイシン建設株式会社,,株式会社,東京都,中央区,八丁堀３丁目１８番１１号３階,,13,102,1040032,,,,,,,2025-07-02,1,,,,,カイシンケンセツ,0
1371,7010003047295,新規,0,2025-07-02,2025-07-02,合同会社日本文化伝承會,,合同会社,東京都,文京区,本郷１丁目３５番２８－１２１０号,,13,105,1130033,,,,,,,2025-07-02,1,,,,,ニホンブンカデンショウカイ,0
1372,7010003047808,新規,0,2025-07-02,2025-07-02,ｖｅｈｉｃｌｅ　ｆｉｒｓｔ合同会社,,合同会社,東京都,中央区,勝どき５丁目３－１,,13,102,1040054,,,,,,,2025-07-02,1,,,,,ビークルファースト,0
1373,7010003047832,新規,0,2025-07-02,2025-07-02,合同会社ＴＹ八重洲,,合同会社,東京都,中央区,新川１丁目３番７－５０４号,,13,102,1040033,,,,,,,2025-07-02,1,,,,,テイワイヤエス,0
1375,7010005040307,新規,0,2025-07-02,2025-07-02,一般社団法人ＤＬＭＡレジデンス,,その他の設立登記法人,東京都,千代田区,丸の内１丁目４番１号東京共同会計事務所内,,13,101,1000005,,,,,,,2025-07-02,1,,,,,ディーエルエムエーレジデンス,0
1382,7010401191397,新規,0,2025-07-02,2025-07-02,株式会社ＴＥＲＡＳＳ　Ｆｉｎａｎｃｉａｌ　Ｔｅｃｈｎｏｌｏｇｉｅｓ,,株式会社,東京都,港区,虎ノ門２丁目２番１号,,13,103,1050001,,,,,,,2025-07-02,1,,,,,テラスファイナンシャルテクノロジーズ,0
1385,7010405024512,新規,0,2025-07-02,2025-07-02,一般社団法人Ｕ＆Ｉ,,その他の設立登記法人,東京都,港区,高輪３丁目１６番３号ベルコート高輪１０２号室,,13,103,1080074,,,,,,,2025-07-02,1,,,,,ユーアンドアイ,0
1391,7010701047968,新規,0,2025-07-02,2025-07-02,株式会社ちかお,,株式会社,東京都,品川区,南品川３丁目７番１号小松崎ビル４Ｂ号室,,13,109,1400004,,,,,,,2025-07-02,1,,,,,チカオ,0
1396,7010901057676,新規,0,2025-07-02,2025-07-02,株式会社ＹＡＳＵの家ｓｔｙｌｅ,,株式会社,東京都,世田谷区,中町４丁目２８番６号,,13,112,1580091,,,,,,,2025-07-02,1,,,,,ヤスノイエスタイル,0
1400,7011001170733,新規,0,2025-07-02,2025-07-02,株式会社Ｍａｓａ　Ｈｏｌｄｉｎｇｓ,,株式会社,東京都,渋谷区,広尾１丁目７番２５号,,13,113,1500012,,,,,,,2025-07-02,1,,,,,マサホールディングス,0
1403,7011005011066,新規,0,2025-07-02,2025-07-02,ＦＣＭＴ一般社団法人,,その他の設立登記法人,東京都,渋谷区,神宮前１丁目５番８号,,13,113,1500001,,,,,,,2025-07-02,1,,,,,エフシーエムティ,0
1404,7011101112197,新規,0,2025-07-02,2025-07-02,ａｒｉｓｕｍｉ株式会社,,株式会社,東京都,新宿区,四谷４丁目１０－２７ＰｒｉｎｃｅｓｓＬｉｎｅＥＡＳＴ４０２,,13,104,1600004,,,,,,,2025-07-02,1,,,,,アリスミ,0
1405,7011301030686,新規,0,2025-07-02,2025-07-02,株式会社Ｓｏｔｔｏｎｅ,,株式会社,東京都,杉並区,松庵１丁目１１番１５号,,13,115,1670054,,,,,,,2025-07-02,1,,,,,ソトネ,0
1416,7012801024070,新規,0,2025-07-02,2025-07-02,株式会社ＳＵＰＥＲ　ＯＮＥ　ＳＴＡＲ,,株式会社,東京都,日野市,南平１丁目２６－６メゾン南平Ｃ２０５,,13,212,1910041,,,,,,,2025-07-02,1,,,,,スーパーワンスター,0
1417,7013303007745,新規,0,2025-07-02,2025-07-02,ナカケン合同会社,,合同会社,東京都,豊島区,巣鴨３丁目２５番地３号プランドール４０１,,13,116,1700002,,,,,,,2025-07-02,1,,,,,ナカケン,0
1424,7020001163564,新規,0,2025-07-02,2025-07-02,プレストバンク株式会社,,株式会社,神奈川県,横浜市青葉区,梅が丘２６番地１,,14,117,2270052,,,,,,,2025-07-02,1,,,,,プレストバンク,0
1425,7020001163614,新規,0,2025-07-02,2025-07-02,建設成長支援機構株式会社,,株式会社,神奈川県,川崎市中原区,新丸子東２丁目９２４番１６－３０２,,14,133,2110004,,,,,,,2025-07-02,1,,,,,ケンセツセイチョウシエンキコウ,0
1426,7020001163639,新規,0,2025-07-02,2025-07-02,株式会社ＧｒｅｅｎＢａｓｅ,,株式会社,神奈川県,横浜市神奈川区,六角橋６丁目２９－２５ライオンズマンション２０６,,14,102,2210802,,,,,,,2025-07-02,1,,,,,グリーンベース,0
1427,7020001163746,新規,0,2025-07-02,2025-07-02,アバンギャラクト株式会社,,株式会社,神奈川県,横浜市神奈川区,金港町５‐１４クアドリフォリオ８階,,14,102,2210056,,,,,,,2025-07-02,1,,,,,アバンギャラクト,0
1428,7020003028815,新規,0,2025-07-02,2025-07-02,アグリ・ウェルフェアコネクティング合同会社,,合同会社,神奈川県,横浜市港北区,新横浜２丁目６番２３号,,14,109,2220033,,,,,,,2025-07-02,1,,,,,アグリウェルフェアコネクティング,0
1429,7020003028823,新規,0,2025-07-02,2025-07-02,合同会社鈴成,,合同会社,神奈川県,横浜市港南区,日野５丁目１番７－４０３号,,14,111,2340051,,,,,,,2025-07-02,1,,,,,スズナリ,0
1430,7020003028856,新規,0,2025-07-02,2025-07-02,合同会社Ｃｏｐａｉｎ,,合同会社,神奈川県,横浜市西区,西平沼町４番１―Ｗ１１１６号,,14,103,2200024,,,,,,,2025-07-02,1,,,,,コパン,0
1442,7021003016223,新規,0,2025-07-02,2025-07-02,合同会社イマジオ,,合同会社,神奈川県,鎌倉市,坂ノ下２７番３２号,,14,204,2480021,,,,,,,2025-07-02,1,,,,,イマジオ,0
1448,7030001167366,新規,0,2025-07-02,2025-07-02,フィトー・ヘルス・テック株式会社,,株式会社,埼玉県,川口市,西川口６丁目４－６第二荻島ビル２０２,,11,203,3320021,,,,,,,2025-07-02,1,,,,,フィトーヘルステック,0
1449,7030001167374,新規,0,2025-07-02,2025-07-02,株式会社ＣｌｏｗｎＰｉｔ,,株式会社,埼玉県,さいたま市南区,大字円正寺５００番地７,,11,108,3360043,,,,,,,2025-07-02,1,,,,,クラウンピット,0
1455,7040001139372,新規,0,2025-07-02,2025-07-02,Ｒｉｓｅｎｅｓｔ株式会社,,株式会社,千葉県,柏市,豊町２丁目４番１８－６０３号,,12,217,2770854,,,,,,,2025-07-02,1,,,,,ライズネスト,0
1456,7040001139397,新規,0,2025-07-02,2025-07-02,株式会社菊地興業,,株式会社,千葉県,流山市,古間木２７８番地の１０９,,12,220,2700136,,,,,,,2025-07-02,1,,,,,キクチコウギョウ,0
1457,7040001139455,新規,0,2025-07-02,2025-07-02,株式会社ブルースマイル,,株式会社,千葉県,松戸市,本町４番地５ルーラル二十三番館３０２号室,,12,207,2710091,,,,,,,2025-07-02,1,,,,,ブルースマイル,0
1458,7040003027955,新規,0,2025-07-02,2025-07-02,合同会社Ｏ’ｋｉｄ,,合同会社,千葉県,市川市,曽谷４丁目１２番３１号,,12,203,2720832,,,,,,,2025-07-02,1,,,,,オーキッド,0
1461,7050001056872,新規,0,2025-07-02,2025-07-02,株式会社ハート・ワン,,株式会社,茨城県,ひたちなか市,阿字ケ浦町８３２番地５,,08,221,3111201,,,,,,,2025-07-02,1,,,,,ハートワン,0
1466,7070001043092,新規,0,2025-07-02,2025-07-02,株式会社およよ,,株式会社,群馬県,太田市,牛沢町８６３番地３６,,10,205,3730833,,,,,,,2025-07-02,1,,,,,オヨヨ,0
1468,7070003005982,新規,0,2025-07-02,2025-07-02,合同会社りん,,合同会社,群馬県,前橋市,西片貝町５丁目２５番５号,,10,201,3710013,,,,,,,2025-07-02,1,,,,,リン,0
1486,7120001277172,新規,0,2025-07-02,2025-07-02,ルートディアＨＤ株式会社,,株式会社,大阪府,大阪市北区,梅田１丁目２番２号大阪駅前第２ビル１２－１２,,27,127,5300001,,,,,,,2025-07-02,1,,,,,ルートディアホールディングス,0
1487,7120001277214,新規,0,2025-07-02,2025-07-02,Ｌｕｃｋｙ株式会社,,株式会社,大阪府,大阪市北区,天満４丁目１７－６プレサンス天満６０５号,,27,127,5300043,,,,,,,2025-07-02,1,,,,,ラッキー,0
1488,7120001277305,新規,0,2025-07-02,2025-07-02,株式会社ＣＵＥＦ,,株式会社,大阪府,大阪市福島区,鷺洲３丁目６番１０－２５０２号,,27,103,5530002,,,,,,,2025-07-02,1,,,,,キュエフ,0
1489,7120001277313,新規,0,2025-07-02,2025-07-02,＿隆凱特株式会社,00139765,株式会社,大阪府,大阪市東成区,大今里３丁目１５番６号ＩｍａｚａｔｏＴｏｗｅｒ４０７Ｂ,,27,115,5370012,,,,,,,2025-07-02,1,,,,,ハクリュウガイトク,0
1490,7120001277321,新規,0,2025-07-02,2025-07-02,関西化成株式会社,,株式会社,大阪府,大阪市淀川区,新高４丁目３－１９小林マンション４０１,,27,123,5320033,,,,,,,2025-07-02,1,,,,,カンサイカセイ,0
1491,7120001277362,新規,0,2025-07-02,2025-07-02,株式会社高城建設,,株式会社,大阪府,大阪市福島区,野田６丁目４番１号,,27,103,5530005,,,,,,,2025-07-02,1,,,,,タカシロケンセツ,0
1492,7120001277387,新規,0,2025-07-02,2025-07-02,株式会社ロノサ,,株式会社,大阪府,大阪市西淀川区,出来島２丁目５番１３号,,27,113,5550031,,,,,,,2025-07-02,1,,,,,ロノサ,0
1493,7120001277412,新規,0,2025-07-02,2025-07-02,株式会社エムユーワーク,,株式会社,大阪府,大阪市城東区,東中浜３丁目１９番８号,,27,118,5360023,,,,,,,2025-07-02,1,,,,,エムユーワーク,0
1494,7120001277494,新規,0,2025-07-02,2025-07-02,株式会社きなりと一級建築士事務所,,株式会社,大阪府,大阪市東住吉区,鷹合１丁目１２番３号,,27,121,5460014,,,,,,,2025-07-02,1,,,,,キナリトイッキュウケンチクシジムショ,0
1497,7120101071987,新規,0,2025-07-02,2025-07-02,ＪＰＳ株式会社,,株式会社,大阪府,泉南市,信達大苗代４７６番地の１－１０１号室,,27,228,5900505,,,,,,,2025-07-02,1,,,,,ジェイピーエス,0
1505,7130001080039,新規,0,2025-07-02,2025-07-02,株式会社京都健康経営,,株式会社,京都府,京都市北区,紫竹上梅ノ木町６１－３,,26,101,6038179,,,,,,,2025-07-02,1,,,,,キョウトケンコウケイエイ,0
1506,7130001080063,新規,0,2025-07-02,2025-07-02,株式会社広丸,,株式会社,京都府,京都市中京区,壬生中川町１７番地１７,,26,104,6048863,,,,,,,2025-07-02,1,,,,,ヒロマル,0
1512,7140001139115,新規,0,2025-07-02,2025-07-02,株式会社ＢＩＫＯＴＳＵＳＥＩＤＯ　ＰＡＲＩＳ,,株式会社,兵庫県,姫路市,安田４丁目３９番地,,28,201,6700955,,,,,,,2025-07-02,1,,,,,ビコツセイドウパリ,0
1516,7150001028226,新規,0,2025-07-02,2025-07-02,株式会社ＭＡＲＴ,,株式会社,奈良県,吉野郡大淀町,大字下渕１３１番地の２,,29,442,6380821,,,,,,,2025-07-02,1,,,,,マート,0
1528,7180001167491,新規,0,2025-07-02,2025-07-02,株式会社エフユージー,,株式会社,愛知県,名古屋市東区,泉３丁目２１番２２号,,23,102,4610001,,,,,,,2025-07-02,1,,,,,エフユージー,0
1531,7180003028700,新規,0,2025-07-02,2025-07-02,合同会社しらき,,合同会社,愛知県,名古屋市南区,三条２丁目８番１９号,,23,112,4570866,,,,,,,2025-07-02,1,,,,,シラキ,0
1534,7180301039952,新規,0,2025-07-02,2025-07-02,株式会社Ｍ建設,,株式会社,愛知県,高浜市,清水町１丁目３番地３９,,23,227,4441312,,,,,,,2025-07-02,1,,,,,エムケンセツ,0
1535,7180301039960,新規,0,2025-07-02,2025-07-02,株式会社瀬里奈,,株式会社,愛知県,刈谷市,寿町２丁目２０４番地,,23,210,4480856,,,,,,,2025-07-02,1,,,,,セリナ,0
1537,7190001032348,新規,0,2025-07-02,2025-07-02,Ｌａｌａｒｉｓ株式会社,,株式会社,三重県,度会郡度会町,葛原７７８番地１,,24,470,5162101,,,,,,,2025-07-02,1,,,,,ララリス,0
1543,7220001026775,新規,0,2025-07-02,2025-07-02,Ｒａｒｅ　Ｐｉｘ株式会社,,株式会社,石川県,かほく市,内高松未３０番,,17,209,9291214,,,,,,,2025-07-02,1,,,,,レアピクセル,0
1544,7220001026783,新規,0,2025-07-02,2025-07-02,株式会社フミケン,,株式会社,石川県,金沢市,横川５丁目３６７番地,,17,201,9218163,,,,,,,2025-07-02,1,,,,,フミケン,0
1548,7240001065128,新規,0,2025-07-02,2025-07-02,株式会社ＤＡＩＣＨＩ,,株式会社,広島県,広島市安佐南区,毘沙門台４丁目１８番１７号,,34,105,7310152,,,,,,,2025-07-02,1,,,,,ダイチ,0
1549,7240001065136,新規,0,2025-07-02,2025-07-02,株式会社ライジング,,株式会社,広島県,広島市安佐北区,深川４丁目３１番９－２０２号,,34,106,7391751,,,,,,,2025-07-02,1,,,,,ライジング,0
1550,7240001065169,新規,0,2025-07-02,2025-07-02,株式会社Ｆｏｒ　Ｐｏｓｔｅｒｉｔｙ,,株式会社,広島県,東広島市,八本松西３丁目１５番１５号,,34,212,7390147,,,,,,,2025-07-02,1,,,,,フォーポステリィティ,0
1565,7290001110589,新規,0,2025-07-02,2025-07-02,株式会社シリウスジャパン,,株式会社,福岡県,久留米市,宮ノ陣４丁目４３番１１号,,40,203,8390801,,,,,,,2025-07-02,1,,,,,シリウスジャパン,0
1570,7310003005033,新規,0,2025-07-02,2025-07-02,参謀本部合同会社,,合同会社,長崎県,長崎市,茂木町２１９０－１１,,42,201,8510241,,,,,,,2025-07-02,1,,,,,サンボウホンブ,0
1572,7360001035408,新規,0,2025-07-02,2025-07-02,株式会社フェアリーテール,,株式会社,沖縄県,中頭郡北谷町,字吉原１１９８番地２,,47,326,9040105,,,,,,,2025-07-02,1,,,,,フェアリーテール,0
1574,7370001052749,新規,0,2025-07-02,2025-07-02,株式会社セカンドプラス,,株式会社,宮城県,黒川郡大郷町,味明字原下９番地の１,,04,422,9813513,,,,,,,2025-07-02,1,,,,,セカンドプラス,0
1590,7440003001696,新規,0,2025-07-02,2025-07-02,合同会社くいだおれ太閤,,合同会社,北海道,函館市,元町２１番１０－３０１号,,01,202,0400054,,,,,,,2025-07-02,1,,,,,クイダオレタイコウ,0
1592,7450001014658,新規,0,2025-07-02,2025-07-02,株式会社親林林業,,株式会社,北海道,天塩郡幌延町,一条北２丁目１３番地,,01,520,0983201,,,,,,,2025-07-02,1,,,,,シンリンリンギョウ,0
1593,7460101007726,新規,0,2025-07-02,2025-07-02,株式会社しらかば不動産,,株式会社,北海道,帯広市,西十六条南５丁目１７番２０号,,01,207,0800026,,,,,,,2025-07-02,1,,,,,シラカバフドウサン,0
1595,7470001020778,新規,0,2025-07-02,2025-07-02,チャンコマワークス株式会社,,株式会社,香川県,高松市,屋島東町６６２番地,,37,201,7610111,,,,,,,2025-07-02,1,,,,,,0
1597,7470003002907,新規,0,2025-07-02,2025-07-02,合同会社ＤｒｉｖｅＳｈｉｆｔ,,合同会社,香川県,高松市,木太町１８２５番地７,,37,201,7600080,,,,,,,2025-07-02,1,,,,,ドライブシフト,0
1600,7480001012873,新規,0,2025-07-02,2025-07-02,株式会社立希,,株式会社,徳島県,吉野川市,鴨島町上浦５３２番地,,36,205,7760037,,,,,,,2025-07-02,1,,,,,リツキ,0
1613,8010001256368,新規,0,2025-07-02,2025-07-02,朋達国際株式会社,,株式会社,東京都,中央区,湊１丁目１０番６－６０１号,,13,102,1040043,,,,,,,2025-07-02,1,,,,,ペンタコクサイ,0
1614,8010001256442,新規,0,2025-07-02,2025-07-02,Ｅｓｇ　Ｊａｐａｎ　Ｒｅａｌ　Ｅｓｔａｔｅ株式会社,,株式会社,東京都,中央区,日本橋大伝馬町１７番６号２階,,13,102,1030011,,,,,,,2025-07-02,1,,,,,イーエスジージャパンリアルエステート,0
1615,8010001256459,新規,0,2025-07-02,2025-07-02,ｍ株式会社,,株式会社,東京都,中央区,築地７丁目２番１号ＴＨＥ・ＴＥＲＲＡＣＥ・ＴＳＵＫＩＪＩ６階,,13,102,1040045,,,,,,,2025-07-02,1,,,,,エム,0
1616,8010001256566,新規,0,2025-07-02,2025-07-02,株式会社ＳＥＡＢＲＩＧＨＴ　ＪＡＰＡＮ,,株式会社,東京都,中央区,銀座１丁目１２－１４Ｎ＆ＥＢＬＤ．７階,,13,102,1040061,,,,,,,2025-07-02,1,,,,,シーブライトジャパン,0
1617,8010003047872,新規,0,2025-07-02,2025-07-02,ダイアクロニクス合同会社,,合同会社,東京都,千代田区,神田須田町１丁目７番８号,,13,101,1010041,,,,,,,2025-07-02,1,,,,,ダイアクロニクス,0
1626,8010401191396,新規,0,2025-07-02,2025-07-02,株式会社ハー・ネロス,,株式会社,東京都,港区,南麻布５丁目９番１９号,,13,103,1060047,,,,,,,2025-07-02,1,,,,,ハーネロス,0
1628,8010403035452,新規,0,2025-07-02,2025-07-02,合同会社Ｃｒｅｄｏ,,合同会社,東京都,港区,南青山２丁目２番１５号,,13,103,1070062,,,,,,,2025-07-02,1,,,,,クレド,0
1632,8010501054338,新規,0,2025-07-02,2025-07-02,株式会社ＫＯＭＩＮ,,株式会社,東京都,台東区,根岸２丁目３－５,,13,106,1100003,,,,,,,2025-07-02,1,,,,,コミン,0
1634,8010601067537,新規,0,2025-07-02,2025-07-02,Ｚｃｄｉｇｉｔａｌｓ株式会社,,株式会社,東京都,墨田区,千歳３丁目６番５号２１０室プロス森下,,13,107,1300025,,,,,,,2025-07-02,1,,,,,ゼットシーデジタルズ,0
1635,8010603011658,新規,0,2025-07-02,2025-07-02,合同会社もじとデザイン社,,合同会社,東京都,江東区,青海２丁目５番１０号テレコムセンタービル東棟１４階,,13,108,1350064,,,,,,,2025-07-02,1,,,,,モジトデザインシャ,0
1639,8010801036309,新規,0,2025-07-02,2025-07-02,デービス株式会社,,株式会社,東京都,大田区,南馬込５丁目３０番１２号,,13,111,1430025,,,,,,,2025-07-02,1,,,,,デービス,0
1643,8010901057659,新規,0,2025-07-02,2025-07-02,株式会社Ｄｉｓｈａ　Ｓｃｈｏｏｌｓ　Ｓｅｒｖｉｃｅｓ,,株式会社,東京都,世田谷区,瀬田５丁目２３番１０号,,13,112,1580095,,,,,,,2025-07-02,1,,,,,ディシャスクールズサービス,0
1644,8010903010062,新規,0,2025-07-02,2025-07-02,毬藻企画合同会社,,合同会社,東京都,世田谷区,太子堂４丁目２８番１１号,,13,112,1540004,,,,,,,2025-07-02,1,,,,,マリモキカク,0
1649,8011001170922,新規,0,2025-07-02,2025-07-02,株式会社ＢＲ　Ｐｒｏｄｕｃｔｉｏｎ,,株式会社,東京都,渋谷区,恵比寿１丁目３１番１０号ターレル恵比寿５０２,,13,113,1500013,,,,,,,2025-07-02,1,,,,,ビーアールプロダクション,0
1651,8011003021974,新規,0,2025-07-02,2025-07-02,Ｖｅｏ　Ｔｅｃｈｎｏｌｏｇｉｅｓ　Ｊａｐａｎ合同会社,,合同会社,東京都,目黒区,青葉台３丁目１５番１７号,,13,110,1530042,,,,,,,2025-07-02,1,,,,,ヴェオテクノロジーズジャパン,0
1659,8011503006599,新規,0,2025-07-02,2025-07-02,合同会社手と路,,合同会社,東京都,北区,西が丘１丁目１０番２号,,13,117,1150056,,,,,,,2025-07-02,1,,,,,,0
1666,8013301054540,新規,0,2025-07-02,2025-07-02,株式会社ＩＲＯＲＩ,,株式会社,東京都,豊島区,西池袋３丁目２１番１３－２００９号,,13,116,1710021,,,,,,,2025-07-02,1,,,,,イロリ,0
1674,8020003028839,新規,0,2025-07-02,2025-07-02,合同会社ＨＡＫＵＳＡＩ,,合同会社,神奈川県,横浜市神奈川区,金港町５番地１４クアドリフォリオ８階,,14,102,2210056,,,,,,,2025-07-02,1,,,,,ハクサイ,0
1677,8021001085608,新規,0,2025-07-02,2025-07-02,株式会社Ｃｏｌｏｒｓ,,株式会社,神奈川県,平塚市,夕陽ケ丘１－１６,,14,203,2540806,,,,,,,2025-07-02,1,,,,,カラーズ,0
1678,8021001085640,新規,0,2025-07-02,2025-07-02,株式会社プライムトレード,,株式会社,神奈川県,横須賀市,吉井４丁目３１番３号,,14,201,2390804,,,,,,,2025-07-02,1,,,,,プライムトレード,0
1683,8021003016230,新規,0,2025-07-02,2025-07-02,合同会社このわ,,合同会社,神奈川県,中郡大磯町,西小磯２７１,,14,341,2550005,,,,,,,2025-07-02,1,,,,,コノワ,0
1689,8030001167415,新規,0,2025-07-02,2025-07-02,株式会社ＦＩＲＡＴ　Ｃｏｒｐｏｒａｔｉｏｎ,,株式会社,埼玉県,越谷市,大字西新井３４４番地１,,11,222,3430855,,,,,,,2025-07-02,1,,,,,フィラットコーポレーション,0
1692,8030005022203,新規,0,2025-07-02,2025-07-02,税理士法人ビズアシスト,,その他の設立登記法人,埼玉県,さいたま市北区,土呂町２丁目１７番地２小泉ビル１階,,11,102,3310804,,,,,,,2025-07-02,1,,,,,ビズアシスト,0
1696,8040001139454,新規,0,2025-07-02,2025-07-02,株式会社磊キャピタル,,株式会社,千葉県,船橋市,新高根１丁目１１番８号,,12,204,2740814,,,,,,,2025-07-02,1,,,,,ライキャピタル,0
1699,8040003027962,新規,0,2025-07-02,2025-07-02,ＲＯＳＨＡＡＮ　ＴＲＡＤＩＮＧ合同会社,,合同会社,千葉県,野田市,木間ケ瀬５３５９－１８７,,12,208,2700222,,,,,,,2025-07-02,1,,,,,ロシャーントレーディング,0
1703,8050001056871,新規,0,2025-07-02,2025-07-02,株式会社ＩＴＯ,,株式会社,茨城県,ひたちなか市,大平４丁目１－９,,08,221,3120023,,,,,,,2025-07-02,1,,,,,アイティーオー,0
1706,8050003009357,新規,0,2025-07-02,2025-07-02,合同会社智烽,,合同会社,茨城県,つくば市,谷田部２８３８－３,,08,220,3050861,,,,,,,2025-07-02,1,,,,,チホウ,0
1707,8060001038340,新規,0,2025-07-02,2025-07-02,株式会社Ｗｅｌｌ　ｓｈｉｆｔ,,株式会社,栃木県,那須塩原市,下永田６丁目１２２９番地４５,,09,213,3292712,,,,,,,2025-07-02,1,,,,,ウェルシフト,0
1709,8070001043075,新規,0,2025-07-02,2025-07-02,おかげリゾート株式会社,,株式会社,群馬県,利根郡みなかみ町,入須川８２３番地１,,10,449,3791416,,,,,,,2025-07-02,1,,,,,オカゲリゾート,0
1711,8080001027003,新規,0,2025-07-02,2025-07-02,株式会社Ｆ．Ｉ．Ｐ,,株式会社,静岡県,静岡市葵区,伝馬町９番地の４,,22,101,4200858,,,,,,,2025-07-02,1,,,,,フィップ,0
1713,8080103003364,新規,0,2025-07-02,2025-07-02,ＤＡＮＤＯＸ合同会社,,合同会社,静岡県,伊豆の国市,韮山山木５５２番地の８,,22,225,4102141,,,,,,,2025-07-02,1,,,,,ダンドックス,0
1721,8100003008254,新規,0,2025-07-02,2025-07-02,一期一え合同会社,,合同会社,長野県,長野市,伊勢宮３丁目１９－５,,20,201,3800958,,,,,,,2025-07-02,1,,,,,イチゴイチエ,0
1731,8120001277543,新規,0,2025-07-02,2025-07-02,株式会社ｕｎｉｌｉｂｅｒｔｅ,,株式会社,大阪府,大阪市北区,梅田２丁目２‐２ヒルトンプラザウエストオフィスタワー１９階,,27,127,5300001,,,,,,,2025-07-02,1,,,,,ユニベルテ,0
1732,8120003029934,新規,0,2025-07-02,2025-07-02,ＮＴＮ　ＪＡＰＡＮ合同会社,,合同会社,大阪府,大阪市生野区,新今里３丁目２２番１９号サンハイツ今里５０３号,,27,116,5440001,,,,,,,2025-07-02,1,,,,,エヌティーエヌジャパン,0
1733,8120005024999,新規,0,2025-07-02,2025-07-02,ＳＡＭ税理士法人,,その他の設立登記法人,大阪府,大阪市北区,梅田３丁目２番１２３号,,27,127,5300001,,,,,,,2025-07-02,1,,,,,サム,0
1734,8120103006544,新規,0,2025-07-02,2025-07-02,合同会社ソウル豚家,,合同会社,大阪府,富田林市,久野喜台１丁目２番５号,,27,214,5840074,,,,,,,2025-07-02,1,,,,,ソウルドンガ,0
1744,8140001139106,新規,0,2025-07-02,2025-07-02,センストーン興産株式会社,,株式会社,兵庫県,姫路市,忍町６７番地１ウエリス姫路１５０２,,28,201,6700917,,,,,,,2025-07-02,1,,,,,センストーンコウサン,0
1746,8150001028225,新規,0,2025-07-02,2025-07-02,ＴＨＥ　ＴＨＲＥＥ株式会社,,株式会社,奈良県,橿原市,内膳町１丁目２番１４号,,29,205,6340804,,,,,,,2025-07-02,1,,,,,ザスリー,0
1747,8150001028241,新規,0,2025-07-02,2025-07-02,株式会社Ｇ‐ＳＯＫＥＮ,,株式会社,奈良県,大和郡山市,朝日町３－１２ピアッツァコート大和郡山駅前３０６号,,29,203,6391013,,,,,,,2025-07-02,1,,,,,ジーソウケン,0
1755,8180005021140,新規,0,2025-07-02,2025-07-02,医療法人円和会,,その他の設立登記法人,愛知県,名古屋市港区,幸町２丁目２１番地,,23,111,4550041,,,,,,,2025-07-02,1,,,,,エンワカイ,0
1757,8180301039951,新規,0,2025-07-02,2025-07-02,株式会社野沢基礎,,株式会社,愛知県,豊橋市,多米町字南脇８９番地４２,,23,201,4400021,,,,,,,2025-07-02,1,,,,,ノザワキソ,0
1760,8200003006900,新規,0,2025-07-02,2025-07-02,合同会社ＺＯＯＭＹ,,合同会社,岐阜県,各務原市,鵜沼三ツ池町３丁目１６５番地２,,21,213,5090146,,,,,,,2025-07-02,1,,,,,ズーミィ,0
1761,8220001026774,新規,0,2025-07-02,2025-07-02,株式会社光栄建設,,株式会社,石川県,金沢市,野田２丁目３８１番地２,,17,201,9218107,,,,,,,2025-07-02,1,,,,,コウエイケンセツ,0
1765,8240001065143,新規,0,2025-07-02,2025-07-02,株式会社グレース,,株式会社,広島県,広島市佐伯区,城山１丁目１７番８号,,34,108,7315155,,,,,,,2025-07-02,1,,,,,グレース,0
1766,8240001065151,新規,0,2025-07-02,2025-07-02,株式会社長谷川管工,,株式会社,広島県,広島市東区,上温品４丁目４０番８号,,34,102,7320032,,,,,,,2025-07-02,1,,,,,ハセガワカンコウ,0
1783,8290801031678,新規,0,2025-07-02,2025-07-02,株式会社ＡＮＺＵ,,株式会社,福岡県,北九州市小倉北区,船場町５番１６－４０１号,,40,106,8020007,,,,,,,2025-07-02,1,,,,,アンズ,0
1787,8340001027471,新規,0,2025-07-02,2025-07-02,ＭＫメディカル株式会社,,株式会社,鹿児島県,鹿児島市,田上台２丁目３２番地６,,46,201,8900036,,,,,,,2025-07-02,1,,,,,エムケーメディカル,0
1790,8350003004963,新規,0,2025-07-02,2025-07-02,合同会社ＵＭＩ,,合同会社,宮崎県,宮崎市,大字恒久字野中６２２０番地,,45,201,8800916,,,,,,,2025-07-02,1,,,,,ウミ,0
1799,8370001052780,新規,0,2025-07-02,2025-07-02,Ｔ・Ｋ・Ｍライフ株式会社,,株式会社,宮城県,仙台市若林区,五橋３丁目１番３－２２１１号,,04,103,9840022,,,,,,,2025-07-02,1,,,,,ティーケーエムライフ,0
1800,8380001035413,新規,0,2025-07-02,2025-07-02,株式会社ＴＢＵ,,株式会社,福島県,福島市,上野寺字舘３９番地,,07,201,9608076,,,,,,,2025-07-02,1,,,,,ティービーユー,0
1807,8430001094701,新規,0,2025-07-02,2025-07-02,Ｏ・Ｓ・Ａ株式会社,,株式会社,北海道,札幌市東区,北五十一条東２丁目１番３４号ヤマホ５１２ビル３Ｆ,,01,103,0070851,,,,,,,2025-07-02,1,,,,,オーエスエー,0
1808,8430003017825,新規,0,2025-07-02,2025-07-02,合同会社ｔｏｎａｒｉ,,合同会社,北海道,江別市,元江別８８６番地の９,,01,217,0670032,,,,,,,2025-07-02,1,,,,,トナリ,0
1818,8500001026382,新規,0,2025-07-02,2025-07-02,株式会社ｐｕｐａ‐Ｌｕｖｉａ,,株式会社,愛媛県,松山市,朝生田町３丁目８番２０号,,38,201,7900952,,,,,,,2025-07-02,1,,,,,プーパルビア,0
1828,9010001256367,新規,0,2025-07-02,2025-07-02,天悦株式会社,,株式会社,東京都,文京区,音羽１丁目２３－１２,,13,105,1120013,,,,,,,2025-07-02,1,,,,,テンエツ,0
1829,9010001256391,新規,0,2025-07-02,2025-07-02,株式会社Ｇｒａｖｅｒｓｅ,,株式会社,東京都,中央区,銀座１丁目１２－４Ｎ＆ＥＢＬＤ．７階,,13,102,1040061,,,,,,,2025-07-02,1,,,,,グラバース,0
1830,9010001256400,新規,0,2025-07-02,2025-07-02,東映デジマ株式会社,,株式会社,東京都,中央区,築地１丁目１２番２２号,,13,102,1040045,,,,,,,2025-07-02,1,,,,,トウエイデジマ,0
1831,9010001256441,新規,0,2025-07-02,2025-07-02,Ｔｈｅ　Ｓｔｅｖｅｎ　Ｊａｐａｎ株式会社,,株式会社,東京都,中央区,日本橋大伝馬町１７番６号３階,,13,102,1030011,,,,,,,2025-07-02,1,,,,,ザスティーブンジャパン,0
1832,9010001256466,新規,0,2025-07-02,2025-07-02,株式会社白和堂,,株式会社,東京都,中央区,銀座８丁目１８番３号銀座加藤ビル２階,,13,102,1040061,,,,,,,2025-07-02,1,,,,,ハクワドウ,0
1840,9010401191180,新規,0,2025-07-02,2025-07-02,株式会社Ｒｏｓｓｉ　Ｃａｐｉｔａｌ,,株式会社,東京都,港区,虎ノ門１丁目２３番１号虎ノ門ヒルズ森タワー１８Ｆ,,13,103,1050001,,,,,,,2025-07-02,1,,,,,ロッシキャピタル,0
1841,9010401191346,新規,0,2025-07-02,2025-07-02,株式会社ＢＬＯＣＫＴＡＧ,,株式会社,東京都,港区,北青山１丁目３－３三橋ビル３Ｆ,,13,103,1070061,,,,,,,2025-07-02,1,,,,,ブロックタグ,0
1842,9010401191362,新規,0,2025-07-02,2025-07-02,株式会社ＷｅｒｄｅＸ,,株式会社,東京都,港区,南青山３丁目１番３６号青山丸竹ビル６Ｆ,,13,103,1070062,,,,,,,2025-07-02,1,,,,,ヴェルデックス,0
1843,9010401191370,新規,0,2025-07-02,2025-07-02,株式会社ＭＡＮＡＢＡＳＥ,,株式会社,東京都,港区,白金５丁目７番１３号２Ｆ,,13,103,1080072,,,,,,,2025-07-02,1,,,,,マナベース,0
1844,9010401191395,新規,0,2025-07-02,2025-07-02,グローバルライフ株式会社,,株式会社,東京都,港区,赤坂４丁目１１番２号,,13,103,1070052,,,,,,,2025-07-02,1,,,,,グローバルライフ,0
1847,9010503007895,新規,0,2025-07-02,2025-07-02,Ｏ．Ｎ．Ｅ合同会社,,合同会社,東京都,台東区,台東３丁目５番１０号－１０２－Ｋ号室,,13,106,1100016,,,,,,,2025-07-02,1,,,,,オウエヌイー,0
1848,9010603011649,新規,0,2025-07-02,2025-07-02,合同会社桃天堂,,合同会社,東京都,江東区,永代２丁目３３番３－５０３号,,13,108,1350034,,,,,,,2025-07-02,1,,,,,モモテンドウ,0
1850,9010801036308,新規,0,2025-07-02,2025-07-02,株式会社ＹＯＮＥＤＡ　ｃｏｎｎｅｃｔ,,株式会社,東京都,大田区,羽田１丁目１４番１３号,,13,111,1440043,,,,,,,2025-07-02,1,,,,,ヨネダコネクト,0
1852,9010801036332,新規,0,2025-07-02,2025-07-02,株式会社交通警備専門ガーディアンズ,,株式会社,東京都,大田区,仲六郷２丁目４４番１０号川田荘２０３,,13,111,1440055,,,,,,,2025-07-02,1,,,,,コウツウケイビセンモンガーディアンズ,0
1866,9011001170616,新規,0,2025-07-02,2025-07-02,株式会社ＡＳＡＩＲ,,株式会社,東京都,目黒区,大岡山１丁目２９番１９号,,13,110,1520033,,,,,,,2025-07-02,1,,,,,アスエアー,0
1867,9011001170673,新規,0,2025-07-02,2025-07-02,株式会社Ｐ２Ｃスタジオ,,株式会社,東京都,渋谷区,渋谷３丁目１－９ＹＡＺＡＷＡビル３階,,13,113,1500002,,,,,,,2025-07-02,1,,,,,ピートゥーシースタジオ,0
1868,9011003021726,新規,0,2025-07-02,2025-07-02,合同会社ＫＡＩＫＹＡＫＵ,,合同会社,東京都,渋谷区,桜丘町１３番９号クリエート桜丘センチュリー２１・６０１号室,,13,113,1500031,,,,,,,2025-07-02,1,,,,,カイキャク,0
1869,9011003021908,新規,0,2025-07-02,2025-07-02,合同会社Ｋ＆Ｓ,,合同会社,東京都,渋谷区,神南１丁目１１－４ＦＰＧリンクス神南５階,,13,113,1500041,,,,,,,2025-07-02,1,,,,,ケイアンドエス,0
1873,9011101112311,新規,0,2025-07-02,2025-07-02,株式会社ミレア,,株式会社,東京都,新宿区,歌舞伎町１丁目２番２号,,13,104,1600021,,,,,,,2025-07-02,1,,,,,ミレア,0
1874,9011101112336,新規,0,2025-07-02,2025-07-02,ｆａｒｍｅｒｓ２５株式会社,,株式会社,東京都,新宿区,西新宿３丁目３番１３号西新宿水間ビル６階,,13,104,1600023,,,,,,,2025-07-02,1,,,,,ファーマーズニゴ,0
1875,9011101112352,新規,0,2025-07-02,2025-07-02,ＣＡＲＬＯＨＡ株式会社,,株式会社,東京都,新宿区,百人町２丁目１３番１３号Ｊハウス２１０,,13,104,1690073,,,,,,,2025-07-02,1,,,,,カーロハ,0
1876,9011103016064,新規,0,2025-07-02,2025-07-02,合同会社ラナキラ,,合同会社,東京都,新宿区,西新宿３丁目３番１３号西新宿水間ビル２Ｆ,,13,104,1600023,,,,,,,2025-07-02,1,,,,,ラナキラ,0
1877,9011301030684,新規,0,2025-07-02,2025-07-02,ＢＧＬ株式会社,,株式会社,東京都,杉並区,下高井戸１丁目１６番１６号エクセレントハイム下高井戸１０３号室,,13,115,1680073,,,,,,,2025-07-02,1,,,,,ビージーエル,0
1888,9011801046387,新規,0,2025-07-02,2025-07-02,ＪＤＩ株式会社,,株式会社,東京都,葛飾区,水元２丁目１番１９号アロハビル１Ｆ,,13,122,1250032,,,,,,,2025-07-02,1,,,,,ジェイディアイ,0
1889,9011803006950,新規,0,2025-07-02,2025-07-02,ＳＬＴ合同会社,,合同会社,東京都,足立区,南花畑５丁目５番８－１０６号,,13,121,1210062,,,,,,,2025-07-02,1,,,,,エスエルティー,0
1891,9012801024069,新規,0,2025-07-02,2025-07-02,ＫＭＧ株式会社,,株式会社,東京都,国立市,東３丁目１３－８,,13,215,1860002,,,,,,,2025-07-02,1,,,,,,0
1895,9020001163604,新規,0,2025-07-02,2025-07-02,株式会社タイセイホーム,,株式会社,神奈川県,川崎市中原区,新丸子東３丁目１３０１番地Ｇ２３０２,,14,133,2110004,,,,,,,2025-07-02,1,,,,,タイセイホーム,0
1897,9020003028821,新規,0,2025-07-02,2025-07-02,和樂重合同会社,,合同会社,神奈川県,横浜市西区,北幸２丁目１０番４８号むつみビル３階,,14,103,2200004,,,,,,,2025-07-02,1,,,,,ワラエ,0
1899,9021001085490,新規,0,2025-07-02,2025-07-02,株式会社ＨＡＣＨＩ,,株式会社,神奈川県,横須賀市,二葉１丁目３４番１０号,,14,201,2390814,,,,,,,2025-07-02,1,,,,,ハチ,0
1909,9030001167240,新規,0,2025-07-02,2025-07-02,株式会社ソリッドリンク,,株式会社,埼玉県,越谷市,相模町２丁目２２４－９,,11,222,3430823,,,,,,,2025-07-02,1,,,,,ソリッドリンク,0
1910,9030001167380,新規,0,2025-07-02,2025-07-02,ＩｎｆｌｕＸ株式会社,,株式会社,埼玉県,川口市,西川口１丁目１７－１６グレイス西川口３０２,,11,203,3320021,,,,,,,2025-07-02,1,,,,,インフルエックス,0
1911,9030001167447,新規,0,2025-07-02,2025-07-02,ＬＯＯＰ株式会社,,株式会社,埼玉県,所沢市,緑町３丁目１２番５号煉瓦館１１－１０４,,11,208,3591111,,,,,,,2025-07-02,1,,,,,ループ,0
1915,9030003027120,新規,0,2025-07-02,2025-07-02,千陶合同会社,,合同会社,埼玉県,大里郡寄居町,大字用土２４５８番地９－１０１室,,11,408,3691201,,,,,,,2025-07-02,1,,,,,セントウ,0
1917,9040003027978,新規,0,2025-07-02,2025-07-02,オークリーフ・キャピタル・マネジメント合同会社,,合同会社,千葉県,柏市,柏の葉２丁目１１番地１５,,12,217,2770882,,,,,,,2025-07-02,1,,,,,オークリーフキャピタルマネジメント,0
1926,9050003009414,新規,0,2025-07-02,2025-07-02,５６８ＧＡＲＡＧＥ合同会社,,合同会社,茨城県,守谷市,大柏５６８番地の２,,08,224,3020116,,,,,,,2025-07-02,1,,,,,ゴロクハチガレージ,0
1929,9070001043090,新規,0,2025-07-02,2025-07-02,リヤマ不動産株式会社,,株式会社,群馬県,伊勢崎市,上諏訪町２１１１番地１０新井貸住宅１‐１号室,,10,204,3720021,,,,,,,2025-07-02,1,,,,,リヤマフドウサン,0
1930,9070003005964,新規,0,2025-07-02,2025-07-02,スガイプロジェクト合同会社,,合同会社,群馬県,伊勢崎市,山王町１９５８番地２パークコートプライマルＩ－１０３,00139768,10,204,3720831,,,,,,,2025-07-02,1,,,,,スガイプロジェクト,0
1933,9080003003496,新規,0,2025-07-02,2025-07-02,合同会社Ｓｃｏｎｎｅｃｔ,,合同会社,静岡県,静岡市葵区,昭府２丁目３４－１６－アンジェリカ３０１,,22,101,4200871,,,,,,,2025-07-02,1,,,,,エスコネクト,0
1935,9080103003363,新規,0,2025-07-02,2025-07-02,合同会社ＳＴＥＬＬＡＶＩＴＡ,,合同会社,静岡県,富士市,中野４２９番地の２５,,22,210,4170809,,,,,,,2025-07-02,1,,,,,ステラヴィータ,0
1942,9090005007718,新規,0,2025-07-02,2025-07-02,一般社団法人日本山岳歩道協会,,その他の設立登記法人,山梨県,北杜市,高根町村山北割４２１０番地１４,,19,209,4080002,,,,,,,2025-07-02,1,,,,,ニホンサンガクホドウキョウカイ,0
1945,9100001038723,新規,0,2025-07-02,2025-07-02,株式会社閾,,株式会社,長野県,北佐久郡軽井沢町,大字長倉７７７番地３,,20,321,3890111,,,,,,,2025-07-02,1,,,,,シキイ,0
1947,9110001039381,新規,0,2025-07-02,2025-07-02,株式会社ＤＯＮＢＯＵ,,株式会社,新潟県,南魚沼市,南田中６０８番地１,,15,226,9496362,,,,,,,2025-07-02,1,,,,,ドンボウ,0
1951,9120001277278,新規,0,2025-07-02,2025-07-02,徳天株式会社,,株式会社,大阪府,大阪市住吉区,南住吉１丁目５番９号長居マンション４０１室,,27,120,5580041,,,,,,,2025-07-02,1,,,,,トクテン,0
1952,9120001277311,新規,0,2025-07-02,2025-07-02,株式会社至貴,,株式会社,大阪府,枚方市,津田西町１丁目３番１０号,,27,210,5730126,,,,,,,2025-07-02,1,,,,,シキ,0
1953,9120001277344,新規,0,2025-07-02,2025-07-02,株式会社２３４,,株式会社,大阪府,大阪市中央区,森ノ宮中央２丁目９番２２号,,27,128,5400003,,,,,,,2025-07-02,1,,,,,フミヨ,0
1954,9120001277369,新規,0,2025-07-02,2025-07-02,三合計株式会社,,株式会社,大阪府,大阪市東成区,大今里３丁目１５番６号ＩｍａｚａｔｏＴｏｗｅｒ５０５Ｅ,,27,115,5370012,,,,,,,2025-07-02,1,,,,,サンゴウケイ,0
1955,9120001277393,新規,0,2025-07-02,2025-07-02,偉宝株式会社,,株式会社,大阪府,大阪市北区,長柄中２丁目５番３０号,,27,127,5310062,,,,,,,2025-07-02,1,,,,,イホウ,0
1958,9122003003240,新規,0,2025-07-02,2025-07-02,合同会社グロウス,,合同会社,大阪府,東大阪市,俊徳町４丁目１０－２１,,27,227,5770831,,,,,,,2025-07-02,1,,,,,グロウス,0
1972,9140003022291,新規,0,2025-07-02,2025-07-02,ＴＡＳＫ合同会社,,合同会社,兵庫県,神戸市垂水区,星陵台４丁目３番４５－３０３号,,28,108,6550038,,,,,,,2025-07-02,1,,,,,タスク,0
1973,9150001028232,新規,0,2025-07-02,2025-07-02,株式会社丸栄製菓,,株式会社,奈良県,大和高田市,三和町７－１９,,29,202,6350014,,,,,,,2025-07-02,1,,,,,マルエイセイカ,0
1974,9150001028240,新規,0,2025-07-02,2025-07-02,株式会社池嶋建築事務所,,株式会社,奈良県,生駒市,小明町７０７番地１０,,29,209,6300201,,,,,,,2025-07-02,1,,,,,イケジマケンチクジムショ,0
1976,9170003002233,新規,0,2025-07-02,2025-07-02,合同会社ＡＥＲＯ,,合同会社,和歌山県,橋本市,高野口町名古曽５９８番地の３,,30,203,6497203,,,,,,,2025-07-02,1,,,,,エアロ,0
1980,9180001167481,新規,0,2025-07-02,2025-07-02,ハローサポート株式会社,,株式会社,愛知県,名古屋市西区,市場木町１７４番地の３,,23,104,4520805,,,,,,,2025-07-02,1,,,,,ハローサポート,0
1986,9180301039959,新規,0,2025-07-02,2025-07-02,ナカネホールディングス株式会社,,株式会社,愛知県,岡崎市,八帖北町６番地１６,,23,202,4440924,,,,,,,2025-07-02,1,,,,,ナカネホールディングス,0
1989,9190001032346,新規,0,2025-07-02,2025-07-02,ＥＺＥＮグループ株式会社,,株式会社,三重県,桑名市,多度町古野２０１１番地,,24,205,5110122,,,,,,,2025-07-02,1,,,,,イーゼングループ,0
1991,9220001026773,新規,0,2025-07-02,2025-07-02,株式会社櫻建設,,株式会社,石川県,河北郡内灘町,字鶴ケ丘２丁目６０番地１,,17,365,9200271,,,,,,,2025-07-02,1,,,,,サクラケンセツ,0
1992,9220001026781,新規,0,2025-07-02,2025-07-02,株式会社昭心工業,,株式会社,石川県,白山市,明島町春１７７番地１５,,17,210,9202132,,,,,,,2025-07-02,1,,,,,ショウシンコウギョフ,0
1996,9230005009484,新規,0,2025-07-02,2025-07-02,ＮＰＯ法人Ｏｐｅｎ　Ｃｏｒａｌ　Ｎｅｔｗｏｒｋ,,その他の設立登記法人,富山県,富山市,西新庄９番地１５号,,16,201,9300981,,,,,,,2025-07-02,1,,,,,オープンコーラルネットワーク,0
2003,9240001065159,新規,0,2025-07-02,2025-07-02,株式会社リブレスホーム,,株式会社,広島県,広島市安佐北区,白木町三田１５３０番地,,34,106,7391700,,,,,,,2025-07-02,1,,,,,リブレスホーム,0
2005,9240003007282,新規,0,2025-07-02,2025-07-02,ＭＩＮＯＲＩ２００合同会社,,合同会社,広島県,安芸高田市,高宮町原田２０２８番地４,,34,214,7391805,,,,,,,2025-07-02,1,,,,,ミノリニオウマル,0
2007,9260003005235,新規,0,2025-07-02,2025-07-02,合同会社神輿,,合同会社,岡山県,岡山市北区,田町１丁目９－１７岩崎ビル１階,,33,101,7000825,,,,,,,2025-07-02,1,,,,,シンコウ,0
2009,9280001009450,新規,0,2025-07-02,2025-07-02,株式会社ＫＺＫＥＮ,,株式会社,島根県,安来市,安来町６５番地６,,32,206,6920011,,,,,,,2025-07-02,1,,,,,カズケン,0
2014,9290801031660,新規,0,2025-07-02,2025-07-02,株式会社さいとう技建,,株式会社,福岡県,北九州市八幡西区,白岩町４番８号,,40,109,8071113,,,,,,,2025-07-02,1,,,,,サイトウギケン,0
2015,9290801031669,新規,0,2025-07-02,2025-07-02,株式会社Ｒｏａｓｔｅｒ’ｓ　Ｌａｂｏ,,株式会社,福岡県,行橋市,大字金屋５４４番地３,,40,213,8240004,,,,,,,2025-07-02,1,,,,,ロースターズラボ,0
2016,9290801031677,新規,0,2025-07-02,2025-07-02,株式会社ミライ創造支援室北九州,,株式会社,福岡県,北九州市八幡西区,相生町１４番１５－２０２号,,40,109,8060044,,,,,,,2025-07-02,1,,,,,ミライソウゾウシエンシツキタキュウシュウ,0
2017,9310001019677,新規,0,2025-07-02,2025-07-02,株式会社ＯＺ,,株式会社,長崎県,長崎市,船大工町２番１９号,,42,201,8500904,,,,,,,2025-07-02,1,,,,,オズ,0
2019,9340001027470,新規,0,2025-07-02,2025-07-02,ＴＮＥ株式会社,,株式会社,鹿児島県,熊毛郡中種子町,油久２３４６番地７,,46,501,8913605,,,,,,,2025-07-02,1,,,,,ティーエヌイー,0
2022,9350003004962,新規,0,2025-07-02,2025-07-02,合同会社麻呂スタジオ,,合同会社,宮崎県,都城市,山田町中霧島３４９８番地１１,,45,202,8894602,,,,,,,2025-07-02,1,,,,,マロスタジオ,0
2024,9360001035406,新規,0,2025-07-02,2025-07-02,株式会社ＡＩ．ＬａｎｄＢａｓｅ,,株式会社,沖縄県,国頭郡今帰仁村,字湧川８５２－２,,47,306,9050412,,,,,,,2025-07-02,1,,,,,アイランドベース,0
2026,9370001052714,新規,0,2025-07-02,2025-07-02,株式会社ＳＮＳの右腕,,株式会社,宮城県,仙台市青葉区,中央２丁目１１‐１９仙南ビル４階‐Ａ,,04,101,9800021,,,,,,,2025-07-02,1,,,,,エスエヌエスノミギウデ,0
2036,9420001019195,新規,0,2025-07-02,2025-07-02,株式会社ＭＹＵＴＯ,,株式会社,青森県,青森市,矢作２丁目４番６号,,02,201,0300917,,,,,,,2025-07-02,1,,,,,ミュート,0
2041,9430003017816,新規,0,2025-07-02,2025-07-02,ニセコ自然共生合同会社,,合同会社,北海道,虻田郡倶知安町,字比羅夫１５９－１３,,01,400,0440077,,,,,,,2025-07-02,1,,,,,ニセコシゼンキョウセイ,0
2042,9430003017824,新規,0,2025-07-02,2025-07-02,合同会社ｏｈａｎＡ,,合同会社,北海道,札幌市東区,丘珠町５２４番地９３,,01,103,0070880,,,,,,,2025-07-02,1,,,,,オハナ,0
2046,9440001009632,新規,0,2025-07-02,2025-07-02,株式会社七成,,株式会社,北海道,北斗市,七重浜１丁目８－１,,01,236,0490111,,,,,,,2025-07-02,1,,,,,ナナセイ,0
2050,9462503000232,新規,0,2025-07-02,2025-07-02,合同会社ブロッサムヤード,,合同会社,北海道,標津郡中標津町,東十二条南１０丁目７番地４　ミントハウスＩＩＩ　２０２,00139775,01,692,0861012,,,,,,,2025-07-02,1,,,,,ブロッサムヤード,0
