sequenceNumber,corporateNumber,process,correct,updateDate,changeDate,name,nameImageId,kind,prefectureName,cityName,streetNumber,addressImageId,prefectureCode,cityCode,postCode,addressOutside,addressOutsideImageId,closeDate,closeCause,successorCorporateNumber,changeCause,assignmentDate,latest,enName,enPrefectureName,enCityName,enAddressOutside,furigana,hihyoji
9,1010003037401,新規,0,2022-04-08,2022-04-08,リーディング・エッジ・コンサルティング合同会社,,合同会社,東京都,千代田区,九段南１丁目５番６号りそな九段ビル５Ｆ－ＫＳフロア,,13,101,1020074,,,,,,,2022-04-08,1,,,,,リーディングエッジコンサルティング,0
10,1010003037426,新規,0,2022-04-08,2022-04-08,Ｍｏｔｉｖａｔｅ　Ｍｅ合同会社,,合同会社,東京都,中央区,晴海２丁目３－２－４７１７,,13,102,1040053,,,,,,,2022-04-08,1,,,,,モチベイトミィ,0
19,1010401166660,新規,0,2022-04-08,2022-04-08,株式会社ワールドワン,,株式会社,東京都,港区,六本木７丁目１２番２号,,13,103,1060032,,,,,,,2022-04-08,1,,,,,ワールドワン,0
21,1010403027398,新規,0,2022-04-08,2022-04-08,ＢＯＮ合同会社,,合同会社,東京都,港区,芝１丁目１２番１７号,,13,103,1050014,,,,,,,2022-04-08,1,,,,,ボン,0
22,1010403027464,新規,0,2022-04-08,2022-04-08,Ｄｉｓｃｏｖｅｒｙマスターリース合同会社,,合同会社,東京都,港区,赤坂２丁目１０番５号税理士法人赤坂国際会計事務所内,,13,103,1070052,,,,,,,2022-04-08,1,,,,,ディスカバリーマスターリース,0
27,1010601060928,新規,0,2022-04-08,2022-04-08,株式会社ヨシダ技術研究所,,株式会社,東京都,墨田区,江東橋１丁目３番６号,,13,107,1300022,,,,,,,2022-04-08,1,,,,,ヨシダギジュツケンキュウショ,0
28,1010601060936,新規,0,2022-04-08,2022-04-08,株式会社ＫＯ‐ＹＯＵ,,株式会社,東京都,江東区,北砂１丁目３番４３号,,13,108,1360073,,,,,,,2022-04-08,1,,,,,コウユウ,0
33,1010701042454,新規,0,2022-04-08,2022-04-08,株式会社ｌａｎｄｌｏｒｄ,,株式会社,東京都,品川区,上大崎３丁目１番３０－３３０７号,,13,109,1410021,,,,,,,2022-04-08,1,,,,,ランドロード,0
36,1010801032867,新規,0,2022-04-08,2022-04-08,コロンデザイン株式会社,,株式会社,東京都,大田区,上池台４丁目１１番４号,,13,111,1450064,,,,,,,2022-04-08,1,,,,,コロンデザイン,0
39,1010901050629,新規,0,2022-04-08,2022-04-08,株式会社ＳＭ　ＲＥＣＯＲＤＩＮＧ,,株式会社,東京都,世田谷区,北沢２丁目２７番９号,,13,112,1550031,,,,,,,2022-04-08,1,,,,,エスエムレコーディング,0
40,1010901050661,新規,0,2022-04-08,2022-04-08,株式会社４０４,,株式会社,東京都,世田谷区,中町３丁目６番２０号,,13,112,1580091,,,,,,,2022-04-08,1,,,,,ヨンマルヨン,0
47,1011001146730,新規,0,2022-04-08,2022-04-08,株式会社ＰＬＵＧ,,株式会社,東京都,渋谷区,渋谷２丁目１４番１３号岡崎ビル,,13,113,1500002,,,,,,,2022-04-08,1,,,,,プラグ,0
48,1011001146805,新規,0,2022-04-08,2022-04-08,Ｔｈｅ　Ｗｏｒｋｅｒｓ’Ｇｕｉｌｄ株式会社,,株式会社,東京都,目黒区,中目黒４丁目６番１－７０５号プラウド中目黒,,13,110,1530061,,,,,,,2022-04-08,1,,,,,ザワーカーズギルド,0
50,1011005009529,新規,0,2022-04-08,2022-04-08,一般社団法人スタートアップエコシステム協会,,その他の設立登記法人,東京都,渋谷区,道玄坂１丁目１６番３号渋谷センタープレイス３Ｆ,,13,113,1500043,,,,,,,2022-04-08,1,,,,,スタートアップエコシステムキョウカイ,0
51,1011005009537,新規,0,2022-04-08,2022-04-08,司法書士法人ネクストリーガル,,その他の設立登記法人,東京都,渋谷区,恵比寿西１丁目１２番１４号,,13,113,1500021,,,,,,,2022-04-08,1,,,,,ネクストリーガル,0
54,1011101098483,新規,0,2022-04-08,2022-04-08,株式会社ミツエーフュージョンプロセス,,株式会社,東京都,新宿区,西新宿８丁目１７番１号,,13,104,1600023,,,,,,,2022-04-08,1,,,,,ミツエーフュージョンプロセス,0
58,1011301027705,新規,0,2022-04-08,2022-04-08,株式会社ブルペン,,株式会社,東京都,杉並区,和田３丁目２１番７号ドウエル東高円寺１０２,,13,115,1660012,,,,,,,2022-04-08,1,,,,,ブルペン,0
65,1011601025854,新規,0,2022-04-08,2022-04-08,株式会社夢,,株式会社,東京都,練馬区,中村北４丁目８番２８号,,13,120,1760023,,,,,,,2022-04-08,1,,,,,ムウ,0
66,1011601025862,新規,0,2022-04-08,2022-04-08,株式会社ピクセルスタジオ,,株式会社,東京都,練馬区,東大泉１丁目３２番２号ヨシハヤビル３Ａ,,13,120,1780063,,,,,,,2022-04-08,1,,,,,ピクセルスタジオ,0
70,1011803005035,新規,0,2022-04-08,2022-04-08,合同会社Ｂｅ研,,合同会社,東京都,葛飾区,立石３丁目１１番４号コーポカール１階,,13,122,1240012,,,,,,,2022-04-08,1,,,,,ビーケン,0
74,1012401039045,新規,0,2022-04-08,2022-04-08,株式会社ＱＵＢＥＬＥＹ,,株式会社,東京都,調布市,小島町１丁目５番地１調布スカイマンション６０２,,13,208,1820026,,,,,,,2022-04-08,1,,,,,キュベレイ,0
77,1012405004722,新規,0,2022-04-08,2022-04-08,一般社団法人マリンレスキュー普及協会,,その他の設立登記法人,東京都,多摩市,桜ヶ丘４丁目２９番地の１９,,13,224,2060013,,,,,,,2022-04-08,1,,,,,マリンレスキューフキュウキョウカイ,0
78,1012703002436,新規,0,2022-04-08,2022-04-08,インフィニティ合同会社,,合同会社,東京都,西東京市,柳沢２丁目１７－１３－６０７号,,13,229,2020022,,,,,,,2022-04-08,1,,,,,インフィニティ,0
80,1012805003101,新規,0,2022-04-08,2022-04-08,一般社団法人サスティナビリティ・ＤＸ推進協議会,,その他の設立登記法人,東京都,立川市,柴崎町２丁目５番３号,,13,202,1900023,,,,,,,2022-04-08,1,,,,,サスティナビリティデジタルトランスフォーメーションスイシンキョウギカイ,0
84,1013301048912,新規,0,2022-04-08,2022-04-08,株式会社フルストレート,,株式会社,東京都,豊島区,南大塚２丁目３８番１号,,13,116,1700005,,,,,,,2022-04-08,1,,,,,フルストレート,0
85,1013303006117,新規,0,2022-04-08,2022-04-08,合同会社ＦＧ商会,,合同会社,東京都,豊島区,東池袋４丁目５－１,,13,116,1700013,,,,,,,2022-04-08,1,,,,,エフジーショウカイ,0
91,1020001146013,新規,0,2022-04-08,2022-04-08,ＯｎｅＬｉｆｅ株式会社,,株式会社,神奈川県,横浜市中区,末吉町２丁目２６番地１セードル横浜６０１号室,,14,104,2310055,,,,,,,2022-04-08,1,,,,,ワンライフ,0
92,1020003021544,新規,0,2022-04-08,2022-04-08,ホープアンドピース合同会社,,合同会社,神奈川県,横浜市神奈川区,高島台１７－１７,,14,102,2210833,,,,,,,2022-04-08,1,,,,,ホープアンドピース,0
93,1020003021560,新規,0,2022-04-08,2022-04-08,ＬＦＤ合同会社,,合同会社,神奈川県,横浜市港北区,大豆戸町５１１番地１アールブラン大倉山４１０,,14,109,2220032,,,,,,,2022-04-08,1,,,,,エルエフディー,0
99,1021001075648,新規,0,2022-04-08,2022-04-08,マリンワークス株式会社,,株式会社,神奈川県,逗子市,新宿３丁目４－９,,14,208,2490007,,,,,,,2022-04-08,1,,,,,マリンワークス,0
100,1021001075656,新規,0,2022-04-08,2022-04-08,株式会社ＥＸＴＥＮＤ,,株式会社,神奈川県,相模原市中央区,上溝４４８７番地１,,14,152,2520243,,,,,,,2022-04-08,1,,,,,エクステンド,0
106,1030001147489,新規,0,2022-04-08,2022-04-08,株式会社ＪＤ,,株式会社,埼玉県,大里郡寄居町,大字桜沢９８４番地３,,11,408,3691202,,,,,,,2022-04-08,1,,,,,ジェイディー,0
107,1030001147596,新規,0,2022-04-08,2022-04-08,株式会社ＫＩＺＯ,,株式会社,埼玉県,春日部市,緑町２丁目１４番１３号,,11,214,3440063,,,,,,,2022-04-08,1,,,,,キゾ,0
108,1030001147670,新規,0,2022-04-08,2022-04-08,株式会社ｏｎｅｓｅｌｆ,,株式会社,埼玉県,さいたま市大宮区,桜木町２丁目４４６番地６１７号,,11,103,3300854,,,,,,,2022-04-08,1,,,,,,0
116,1030003019182,新規,0,2022-04-08,2022-04-08,ＡＮＶ合同会社,,合同会社,埼玉県,比企郡鳩山町,大字大豆戸１６２番地１,,11,348,3500324,,,,,,,2022-04-08,1,,,,,アンビー,0
117,1030003019190,新規,0,2022-04-08,2022-04-08,合同会社アンカーマネジメント,,合同会社,埼玉県,さいたま市大宮区,北袋町１丁目１７６－５,,11,103,3300835,,,,,,,2022-04-08,1,,,,,,0
125,1040001122904,新規,0,2022-04-08,2022-04-08,株式会社留畑工業,,株式会社,千葉県,八街市,八街に２６番地７,,12,230,2891103,,,,,,,2022-04-08,1,,,,,トメハタコウギョウ,0
126,1040001122937,新規,0,2022-04-08,2022-04-08,株式会社ビーエッグ,,株式会社,千葉県,銚子市,新生町２丁目９番地１０,,12,202,2880056,,,,,,,2022-04-08,1,,,,,ビーエッグ,0
127,1040001122945,新規,0,2022-04-08,2022-04-08,株式会社榮真,,株式会社,千葉県,印西市,船尾１３０１番地,,12,231,2701345,,,,,,,2022-04-08,1,,,,,エイシン,0
128,1040001122953,新規,0,2022-04-08,2022-04-08,株式会社フロンティアユアセルフ,,株式会社,千葉県,佐倉市,城字杉山４２６番地２,,12,212,2850815,,,,,,,2022-04-08,1,,,,,フロンティアユアセルフ,0
129,1040001122961,新規,0,2022-04-08,2022-04-08,株式会社Ｌｉｂｅｒｔｅ,,株式会社,千葉県,千葉市緑区,あすみが丘３丁目１番地２７,,12,105,2670066,,,,,,,2022-04-08,1,,,,,リベルテ,0
134,1040003019818,新規,0,2022-04-08,2022-04-08,合同会社きろくびと,,合同会社,千葉県,浦安市,堀江２丁目２９番８号ＪＧハイム３０１,,12,227,2790041,,,,,,,2022-04-08,1,,,,,キロクビト,0
135,1040003019842,新規,0,2022-04-08,2022-04-08,ヒカリ合同会社,,合同会社,千葉県,船橋市,田喜野井５丁目２７番２６号,,12,204,2740073,,,,,,,2022-04-08,1,,,,,ヒカリ,0
138,1050003006492,新規,0,2022-04-08,2022-04-08,アオガシ不動産合同会社,,合同会社,茨城県,潮来市,辻２３４番地２,00126210,08,223,3112421,,,,,,,2022-04-08,1,,,,,アオガシフドウサン,0
139,1050005013058,新規,0,2022-04-08,2022-04-08,一般社団法人まちコンテンツ共創協会,,その他の設立登記法人,茨城県,水戸市,笠原町１７５３番地１,,08,201,3100852,,,,,,,2022-04-08,1,,,,,マチコンテンツキョウソウキョウカイ,0
145,1080003002778,新規,0,2022-04-08,2022-04-08,合同会社愛華,,合同会社,静岡県,島田市,東町２１０－１アニマート東町１０６,,22,209,4270011,,,,,,,2022-04-08,1,,,,,アイカ,0
146,1080101023206,新規,0,2022-04-08,2022-04-08,ＮＥＳＣ株式会社,,株式会社,静岡県,沼津市,杉崎町１３番２５号藤和シティーコープ沼津杉崎町３０７号,,22,203,4100033,,,,,,,2022-04-08,1,,,,,エヌイーエスシー,0
152,1090001017521,新規,0,2022-04-08,2022-04-08,株式会社シャインのふるさと万力,,株式会社,山梨県,山梨市,万力１１４７番地,,19,205,4050031,,,,,,,2022-04-08,1,,,,,シャインノフルサトマンリキ,0
159,1110001036568,新規,0,2022-04-08,2022-04-08,株式会社一助工業,,株式会社,新潟県,新潟市西蒲区,巻甲１４５０番地５,,15,108,9530041,,,,,,,2022-04-08,1,,,,,イチスケコウギョウ,0
160,1110001036576,新規,0,2022-04-08,2022-04-08,株式会社メイプルフード,,株式会社,新潟県,三島郡出雲崎町,大字小木３２８番地１３,,15,405,9494332,,,,,,,2022-04-08,1,,,,,メイプルフード,0
164,1110005016780,新規,0,2022-04-08,2022-04-08,一般社団法人新潟県マンション管理士会,,その他の設立登記法人,新潟県,新潟市西区,青山４丁目４番３１号,,15,107,9502002,,,,,,,2022-04-08,1,,,,,ニイガタケンマンションカンリシカイ,0
179,1120001245060,新規,0,2022-04-08,2022-04-08,Ａｒｃｈｉｐｕｂｌｉｃ株式会社,,株式会社,大阪府,大阪市東淀川区,豊里７丁目３０番１２号ライフグレース４０２号室,,27,114,5330013,,,,,,,2022-04-08,1,,,,,アーキパブリック,0
180,1120001245069,新規,0,2022-04-08,2022-04-08,株式会社ライドグループ,,株式会社,大阪府,門真市,岸和田１丁目６番９－２０７号,,27,223,5710002,,,,,,,2022-04-08,1,,,,,ライドグループ,0
181,1120001245093,新規,0,2022-04-08,2022-04-08,株式会社バド,,株式会社,大阪府,大阪市旭区,生江３丁目１１番１３号,,27,117,5350004,,,,,,,2022-04-08,1,,,,,バド,0
182,1120003021393,新規,0,2022-04-08,2022-04-08,ディアホステル合同会社,,合同会社,大阪府,大阪市浪速区,塩草３丁目１番２２号,,27,111,5560024,,,,,,,2022-04-08,1,,,,,ディアホステル,0
183,1120003021427,新規,0,2022-04-08,2022-04-08,ＡＫＩＫＯ合同会社,,合同会社,大阪府,大阪市生野区,巽西２丁目１２番１４号,00126218,27,116,5440012,,,,,,,2022-04-08,1,,,,,アキコ,0
193,1120903004101,新規,0,2022-04-08,2022-04-08,ｏｍｉ合同会社,,合同会社,大阪府,池田市,城南１丁目８番２３号,,27,204,5630025,,,,,,,2022-04-08,1,,,,,オミ,0
196,1130005016424,新規,0,2022-04-08,2022-04-08,一般社団法人ｈＯ,,その他の設立登記法人,京都府,京都市中京区,両替町通姉小路下る柿本町４１２番地,,26,104,6048173,,,,,,,2022-04-08,1,,,,,ホ,0
203,1140001125517,新規,0,2022-04-08,2022-04-08,スリーメディカル株式会社,,株式会社,兵庫県,芦屋市,三条南町７番６号,,28,206,6590086,,,,,,,2022-04-08,1,,,,,スリーメディカル,0
204,1140001125541,新規,0,2022-04-08,2022-04-08,株式会社Ｑｕｏｌｉｓ,,株式会社,兵庫県,芦屋市,船戸町５番２６号,,28,206,6590093,,,,,,,2022-04-08,1,,,,,クオリス,0
205,1140001125582,新規,0,2022-04-08,2022-04-08,株式会社Ｏｎｅ　Ｄｅｓｉｇｎ,,株式会社,兵庫県,明石市,松の内１丁目９－７,,28,203,6730016,,,,,,,2022-04-08,1,,,,,ワンデザイン,0
206,1140003017555,新規,0,2022-04-08,2022-04-08,フューチャープラニング合同会社,,合同会社,兵庫県,神崎郡市川町,小室１７７番地,,28,442,6792331,,,,,,,2022-04-08,1,,,,,フューチャープラニング,0
208,1150001025451,新規,0,2022-04-08,2022-04-08,株式会社鞍本組,,株式会社,奈良県,大和高田市,日之出東本町１番１４号,,29,202,6350023,,,,,,,2022-04-08,1,,,,,クラモトグミ,0
212,1160003002539,新規,0,2022-04-08,2022-04-08,合同会社にしいま産業医事務所,,合同会社,滋賀県,彦根市,西今町１１３１番地１０,,25,202,5220054,,,,,,,2022-04-08,1,,,,,ニシイマサンギョウイジムショ,0
215,1170001017050,新規,0,2022-04-08,2022-04-08,株式会社ご縁家,,株式会社,和歌山県,和歌山市,北野２２９番地１－２０４号,,30,201,6496331,,,,,,,2022-04-08,1,,,,,ゴエンヤ,0
223,1180001150668,新規,0,2022-04-08,2022-04-08,株式会社アケボノエフテック,,株式会社,愛知県,丹羽郡扶桑町,大字柏森字寺裏２７６番地,,23,362,4800103,,,,,,,2022-04-08,1,,,,,アケボノエフテック,0
224,1180001150684,新規,0,2022-04-08,2022-04-08,ガーデンホーム株式会社,,株式会社,愛知県,清須市,西枇杷島町地領１丁目３番地４,,23,233,4520008,,,,,,,2022-04-08,1,,,,,ガーデンホーム,0
225,1180001150701,新規,0,2022-04-08,2022-04-08,株式会社ＣｈｒｏｎｏＳｏｕｒｃｅ,,株式会社,愛知県,春日井市,中央台７丁目１番地１,,23,206,4870011,,,,,,,2022-04-08,1,,,,,クロノソース,0
228,1180005019728,新規,0,2022-04-08,2022-04-08,一般社団法人日本水引クリエイト協会,,その他の設立登記法人,愛知県,名古屋市千種区,菊坂町２丁目１６ＭＡＲＩＹＡハイツ２０２,,23,101,4640836,,,,,,,2022-04-08,1,,,,,ニホンミズヒキクリエイトキョウカイ,0
234,1200005013323,新規,0,2022-04-08,2022-04-08,特定非営利活動法人岐阜県野球協議会,,その他の設立登記法人,岐阜県,岐阜市,錦町２丁目１０番地２－３０３号,,21,201,5008331,,,,,,,2022-04-08,1,,,,,ギフケンヤキュウキョウギカイ,0
242,1240001059564,新規,0,2022-04-08,2022-04-08,株式会社石崎本店,00126201,株式会社,広島県,広島市中区,大手町２丁目７番５号,,34,101,7300051,,,,,,,2022-04-08,1,,,,,イシザキホンテン,0
250,1260001036735,新規,0,2022-04-08,2022-04-08,株式会社Ｗａｎ　ｐｌｕｓ　Ｏｎｅ．Ｈｏｍｅ,,株式会社,岡山県,総社市,久米２７７－７,,33,208,7191104,,,,,,,2022-04-08,1,,,,,ワンプラスワンホーム,0
261,1290001097106,新規,0,2022-04-08,2022-04-08,株式会社ＮｅｘｔＳｉｍｓＪａｐａｎ,,株式会社,福岡県,福岡市博多区,博多駅南６丁目１３番２１号駅南ジェイティビル,,40,132,8120016,,,,,,,2022-04-08,1,,,,,ネクストシムズジャパン,0
263,1290003012343,新規,0,2022-04-08,2022-04-08,イーメイク合同会社,,合同会社,福岡県,三潴郡大木町,大字前牟田５６５番地１,,40,522,8300406,,,,,,,2022-04-08,1,,,,,イーメイク,0
264,1290005018628,新規,0,2022-04-08,2022-04-08,医療法人藍,,その他の設立登記法人,福岡県,福岡市中央区,谷１丁目９番１９号メディカルビル谷ＩＩ３Ｆ,00126198,40,133,8100031,,,,,,,2022-04-08,1,,,,,アイ,0
267,1290801028417,新規,0,2022-04-08,2022-04-08,株式会社リンクデザイン,,株式会社,福岡県,北九州市小倉南区,徳力６丁目１番１０－４０１号,,40,107,8020974,,,,,,,2022-04-08,1,,,,,リンクデザイン,0
280,1330001029624,新規,0,2022-04-08,2022-04-08,株式会社ＡＬＬ　ＨＥＡＲＴＳ,,株式会社,熊本県,宇城市,小川町江頭１５３番地８,,43,213,8690624,,,,,,,2022-04-08,1,,,,,オールハーツ,0
283,1350001017692,新規,0,2022-04-08,2022-04-08,株式会社フェリクスメディカル,,株式会社,宮崎県,宮崎市,大字小松７０１番地３,,45,201,8802112,,,,,,,2022-04-08,1,,,,,フェリクスメディカル,0
284,1360001030190,新規,0,2022-04-08,2022-04-08,株式会社ＫａｏＬｉｅ,,株式会社,沖縄県,名護市,字世冨慶６４９６番地３,,47,209,9050022,,,,,,,2022-04-08,1,,,,,カオリエ,0
290,1370001048414,新規,0,2022-04-08,2022-04-08,株式会社エポックフードデザイン,,株式会社,宮城県,気仙沼市,東八幡前３２０番地４,,04,205,9880811,,,,,,,2022-04-08,1,,,,,エポックフードデザイン,0
308,1420001017801,新規,0,2022-04-08,2022-04-08,株式会社颯龍工業,,株式会社,青森県,上北郡六戸町,小松ケ丘１丁目７７番地１６,,02,405,0330074,,,,,,,2022-04-08,1,,,,,フウリュウコウギョウ,0
310,1420005007798,新規,0,2022-04-08,2022-04-08,弁護士法人さくら総合法律事務所,,その他の設立登記法人,青森県,五所川原市,字東町１７番地５五所川原商工会館４階,,02,205,0370052,,,,,,,2022-04-08,1,,,,,サクラソウゴウホウリツジムショ,0
312,1430001086358,新規,0,2022-04-08,2022-04-08,株式会社喜多楼,,株式会社,北海道,小樽市,稲穂４丁目５番７号,,01,203,0470032,,,,,,,2022-04-08,1,,,,,キタロウ,0
314,1430003013772,新規,0,2022-04-08,2022-04-08,遊びゴコロ合同会社,,合同会社,北海道,苫小牧市,北栄町３丁目１９－１７,,01,213,0591304,,,,,,,2022-04-08,1,,,,,アソビゴコロ,0
315,1430005014430,新規,0,2022-04-08,2022-04-08,あいむ土地家屋調査士法人,,その他の設立登記法人,北海道,札幌市西区,西町南２１丁目２番２１号アルファ西町第２ビル３０１号室,,01,107,0630062,,,,,,,2022-04-08,1,,,,,アイム,0
316,1430005014439,新規,0,2022-04-08,2022-04-08,一般社団法人クレイル,,その他の設立登記法人,北海道,札幌市北区,北二十九条西４丁目２番１号ファミール札幌３３１号,,01,102,0010029,,,,,,,2022-04-08,1,,,,,クレイル,0
321,1470001019025,新規,0,2022-04-08,2022-04-08,株式会社Ｓｕｉ,,株式会社,香川県,高松市,太田下町３０１６番地９ラ・フォート１０３,,37,201,7618073,,,,,,,2022-04-08,1,,,,,スイ,0
324,1480003001814,新規,0,2022-04-08,2022-04-08,合同会社ティアクト,,合同会社,徳島県,徳島市,東大工町３丁目２１番地の１ソワリヴィエール３０５,,36,201,7700905,,,,,,,2022-04-08,1,,,,,ティアクト,0
330,2010001225709,新規,0,2022-04-08,2022-04-08,株式会社オシリス,,株式会社,東京都,中央区,銀座１丁目１５番４号銀座一丁目ビル７Ｆ,,13,102,1040061,,,,,,,2022-04-08,1,,,,,オシリス,0
333,2010005034841,新規,0,2022-04-08,2022-04-08,豊田ロジスティクス一般社団法人,,その他の設立登記法人,東京都,千代田区,内神田２丁目２番６号５階あすな会計事務所内,,13,101,1010047,,,,,,,2022-04-08,1,,,,,トヨタロジスティクス,0
334,2010101015134,新規,0,2022-04-08,2022-04-08,株式会社鳥潟商店,,株式会社,東京都,八王子市,別所１丁目３２番地２－２０１,,13,201,1920363,,,,,,,2022-04-08,1,,,,,トリガタショウテン,0
344,2010401166585,新規,0,2022-04-08,2022-04-08,株式会社ワークデザインテクノロジーズ,,株式会社,東京都,港区,東新橋２丁目１４番１号,,13,103,1050021,,,,,,,2022-04-08,1,,,,,ワークデザインテクノロジーズ,0
345,2010401166619,新規,0,2022-04-08,2022-04-08,株式会社ａｍａｇｉ,,株式会社,東京都,港区,芝２丁目２９番１１号,,13,103,1050014,,,,,,,2022-04-08,1,,,,,アマギ,0
346,2010401166635,新規,0,2022-04-08,2022-04-08,株式会社グリーンテック,,株式会社,東京都,港区,芝５丁目３２番１２号シャーメゾンステージ田町４Ｆ,,13,103,1080014,,,,,,,2022-04-08,1,,,,,グリーンテック,0
349,2010403027463,新規,0,2022-04-08,2022-04-08,Ｄｉｓｃｏｖｅｒｙ７合同会社,,合同会社,東京都,港区,赤坂２丁目１０番５号税理士法人赤坂国際会計事務所内,,13,103,1070052,,,,,,,2022-04-08,1,,,,,ディスカバリーセブン,0
353,2010405020879,新規,0,2022-04-08,2022-04-08,医療法人Ｗｈｉｔｅ　Ｒｏｃｋ,,その他の設立登記法人,東京都,港区,南青山４丁目２番６号南青山４２６ビル２階,,13,103,1070062,,,,,,,2022-04-08,1,,,,,ホワイトロック,0
354,2010501048683,新規,0,2022-04-08,2022-04-08,株式会社１７８,,株式会社,東京都,台東区,上野２丁目１番３号８８ビル,,13,106,1100005,,,,,,,2022-04-08,1,,,,,イチナナハチ,0
362,2010603009468,新規,0,2022-04-08,2022-04-08,合同会社デラソーレ,,合同会社,東京都,江東区,豊洲６丁目２－３１,,13,108,1350061,,,,,,,2022-04-08,1,,,,,デラソーレ,0
363,2010703006183,新規,0,2022-04-08,2022-04-08,合同会社ＹＣＧＯ,,合同会社,東京都,品川区,東五反田２丁目４番２号,,13,109,1410022,,,,,,,2022-04-08,1,,,,,ワイシージーオー,0
364,2010801032874,新規,0,2022-04-08,2022-04-08,株式会社ＳＴＵＤＩＯ　ＢＹＣＯＬＯＲ,,株式会社,東京都,大田区,大森西６丁目１７－１７ＫＯＣＡ－Ｃ２,,13,111,1430015,,,,,,,2022-04-08,1,,,,,スタジオバイカラー,0
366,2010803004120,新規,0,2022-04-08,2022-04-08,合同会社エムズ・システム,,合同会社,東京都,大田区,大森南１丁目１８番２２号,,13,111,1430013,,,,,,,2022-04-08,1,,,,,エムズシステム,0
369,2010901050636,新規,0,2022-04-08,2022-04-08,株式会社Ｔｍａｈｋｓ,,株式会社,東京都,世田谷区,上馬５丁目１番１６号,,13,112,1540011,,,,,,,2022-04-08,1,,,,,ティマークス,0
371,2010903007287,新規,0,2022-04-08,2022-04-08,ＧＴ　ＴＲＡＤＩＮＧ合同会社,,合同会社,東京都,世田谷区,経堂１丁目３０番２号,,13,112,1560052,,,,,,,2022-04-08,1,,,,,ジーティートレーディング,0
372,2010905004299,新規,0,2022-04-08,2022-04-08,一般社団法人日本ジョージア文化交流協会,,その他の設立登記法人,東京都,世田谷区,上北沢１丁目１０番１０号,,13,112,1560057,,,,,,,2022-04-08,1,,,,,ニホンジョージアブンカコウリュウキョウカイ,0
376,2011001146721,新規,0,2022-04-08,2022-04-08,株式会社ＬＤ＆Ｋ　ＨＤ,,株式会社,東京都,渋谷区,宇田川町１８番４号,,13,113,1500042,,,,,,,2022-04-08,1,,,,,エルディーアンドケイホールディングス,0
378,2011003014488,新規,0,2022-04-08,2022-04-08,ＯＷＬ合同会社,,合同会社,東京都,渋谷区,本町１丁目２９番１７号３０２,,13,113,1510071,,,,,,,2022-04-08,1,,,,,アウル,0
379,2011005009528,新規,0,2022-04-08,2022-04-08,一般社団法人Ｇｉｂｂｅｒｉｓｈ‐Ｌａｂ．,,その他の設立登記法人,東京都,目黒区,自由が丘２丁目１８番１１号１Ｆ,,13,110,1520035,,,,,,,2022-04-08,1,,,,,ジブリッシュラボ,0
382,2011101098417,新規,0,2022-04-08,2022-04-08,株式会社ＣＯＮＮＥＣＴ,,株式会社,東京都,新宿区,西新宿６丁目１８番１号,,13,104,1600023,,,,,,,2022-04-08,1,,,,,コネクト,0
383,2011101098425,新規,0,2022-04-08,2022-04-08,株式会社ＳＰＡＣＥＳＨＩＰ,,株式会社,東京都,新宿区,西新宿６丁目１２番１６－６０３号,,13,104,1600023,,,,,,,2022-04-08,1,,,,,スペースシップ,0
384,2011101098458,新規,0,2022-04-08,2022-04-08,株式会社ｗｏｌｆ,,株式会社,東京都,新宿区,西早稲田２丁目１９番８－４０３号,,13,104,1690051,,,,,,,2022-04-08,1,,,,,ウルフ,0
385,2011101098482,新規,0,2022-04-08,2022-04-08,Ｉｎｎｏｌｅｄｇｅ株式会社,,株式会社,東京都,新宿区,西新宿５丁目５番１－２７０７号,,13,104,1600023,,,,,,,2022-04-08,1,,,,,イノレッジ,0
395,2011701025200,新規,0,2022-04-08,2022-04-08,吉泰商事株式会社,,株式会社,東京都,江戸川区,松島３丁目２０番１２号,,13,123,1320031,,,,,,,2022-04-08,1,,,,,ヨシヒロショウジ,0
398,2011801040545,新規,0,2022-04-08,2022-04-08,株式会社Ｗｉｎｔｅｒ　Ｆｌｏｗｅｒ　Ｅｎｔｅｒｔａｉｎｍｅｎｔ,,株式会社,東京都,葛飾区,宝町２丁目２１番６－７０１号,,13,122,1240005,,,,,,,2022-04-08,1,,,,,ウィンターフラワーエンターテインメント,0
406,2012401039036,新規,0,2022-04-08,2022-04-08,株式会社ティー・アイ・イー,,株式会社,東京都,調布市,多摩川７丁目２３番地５７,,13,208,1820025,,,,,,,2022-04-08,1,,,,,ティーアイイー,0
410,2013303006116,新規,0,2022-04-08,2022-04-08,合同会社ＹＭＤＹ,,合同会社,東京都,豊島区,東池袋４丁目５－１,,13,116,1700013,,,,,,,2022-04-08,1,,,,,ワイエムディーワイ,0
420,2020003021543,新規,0,2022-04-08,2022-04-08,ＭＡＲＴＹＮ　ＣＯＮＳＵＬＴＩＮＧ合同会社,,合同会社,神奈川県,横浜市青葉区,千草台３３番地２１,,14,117,2270051,,,,,,,2022-04-08,1,,,,,マーティンコンサルティング,0
421,2020003021568,新規,0,2022-04-08,2022-04-08,デジタルプランニングス合同会社,,合同会社,神奈川県,横浜市南区,高砂町２丁目２５番地５グランコート７０１,,14,105,2320025,,,,,,,2022-04-08,1,,,,,デジタルプランニングス,0
422,2020005015469,新規,0,2022-04-08,2022-04-08,医療法人オーソケア,,その他の設立登記法人,神奈川県,川崎市宮前区,宮崎２丁目９番地３メゾン・ド・バッハ２－Ｂ号室,,14,136,2160033,,,,,,,2022-04-08,1,,,,,オーソケア,0
428,2021001075647,新規,0,2022-04-08,2022-04-08,株式会社ビーコン,,株式会社,神奈川県,相模原市南区,若松１丁目７番１８号,,14,153,2520334,,,,,,,2022-04-08,1,,,,,ビーコン,0
430,2021003011575,新規,0,2022-04-08,2022-04-08,合同会社ジェントシステム,,合同会社,神奈川県,秦野市,下大槻６４９番地の８,,14,211,2570004,,,,,,,2022-04-08,1,,,,,ジェントシステム,0
439,2030001147521,新規,0,2022-04-08,2022-04-08,ＣＲＡＦＴ株式会社,,株式会社,埼玉県,幸手市,大字円藤内６１番地１,,11,240,3400104,,,,,,,2022-04-08,1,,,,,クラフト,0
440,2030001147595,新規,0,2022-04-08,2022-04-08,株式会社バリアルーツ,,株式会社,埼玉県,さいたま市北区,土呂町１丁目３０番地７グランドール１０６号,,11,102,3310804,,,,,,,2022-04-08,1,,,,,バリアルーツ,0
441,2030001147637,新規,0,2022-04-08,2022-04-08,株式会社Ｋ・Ｔ・Ｃ,,株式会社,埼玉県,川口市,大字東本郷１０１７番地シンセリティーＡＯ２０３号,,11,203,3340063,,,,,,,2022-04-08,1,,,,,ケーティーシー,0
444,2030003019140,新規,0,2022-04-08,2022-04-08,合同会社ニッポン旅マガジン,,合同会社,埼玉県,川口市,本町２丁目５番１５ー９１１号メイツ川口,,11,203,3320012,,,,,,,2022-04-08,1,,,,,ニッポンタビマガジン,0
445,2030003019181,新規,0,2022-04-08,2022-04-08,ＡＫＡＮＥ　ＭＵＳＩＣ合同会社,,合同会社,埼玉県,富士見市,鶴馬３丁目１２番１６号,,11,235,3540021,,,,,,,2022-04-08,1,,,,,アカネミュージック,0
448,2040001122853,新規,0,2022-04-08,2022-04-08,株式会社ＩＣＨＩ,,株式会社,千葉県,市川市,鬼高４丁目７番６号,,12,203,2720015,,,,,,,2022-04-08,1,,,,,イチ,0
449,2040001122878,新規,0,2022-04-08,2022-04-08,株式会社ＴＥＭＡ企画,,株式会社,千葉県,市川市,鬼高２丁目２２番１４号,,12,203,2720015,,,,,,,2022-04-08,1,,,,,テマキカク,0
450,2040001122952,新規,0,2022-04-08,2022-04-08,中央セキュリティ未来株式会社,,株式会社,千葉県,船橋市,本郷町４６０番地－１西船橋第三ファミリーマンション５０４号,,12,204,2730033,,,,,,,2022-04-08,1,,,,,チュウオウセキュリティミライ,0
452,2040003019800,新規,0,2022-04-08,2022-04-08,合同会社ｉｎｆｉｎｉｌ,,合同会社,千葉県,柏市,若柴１７８番地４柏の葉キャンパス１４８街区２ショップ＆オフィス棟６Ｆ,,12,217,2770871,,,,,,,2022-04-08,1,,,,,インフィニル,0
453,2040003019841,新規,0,2022-04-08,2022-04-08,ＴＯＫＵＺＯ合同会社,,合同会社,千葉県,野田市,鶴奉３番地渡辺ビル２０２,,12,208,2780003,,,,,,,2022-04-08,1,,,,,トクゾー,0
468,2070001039120,新規,0,2022-04-08,2022-04-08,Ｘｓｔマネジメントコンサルティング株式会社,,株式会社,群馬県,渋川市,白井５３８番地２,,10,208,3770204,,,,,,,2022-04-08,1,,,,,クロストマネジメントコンサルティング,0
469,2070001039137,新規,0,2022-04-08,2022-04-08,株式会社木村電設,,株式会社,群馬県,高崎市,中島町５４６番地１,,10,202,3700023,,,,,,,2022-04-08,1,,,,,キムラデンセツ,0
473,2080001024872,新規,0,2022-04-08,2022-04-08,株式会社福多,,株式会社,静岡県,焼津市,石津港町４１番地の７,,22,212,4250042,,,,,,,2022-04-08,1,,,,,フクダ,0
483,2080401025719,新規,0,2022-04-08,2022-04-08,竹下建材株式会社,,株式会社,静岡県,浜松市天竜区,山東１１５０番地の２,,22,137,4313303,,,,,,,2022-04-08,1,,,,,タケシタケンザイ,0
487,2100001035215,新規,0,2022-04-08,2022-04-08,アルピコホテルズ株式会社,,株式会社,長野県,松本市,本庄１丁目２番１号,,20,202,3900814,,,,,,,2022-04-08,1,,,,,アルピコホテルズ,0
489,2110001036550,新規,0,2022-04-08,2022-04-08,株式会社つり吉川口,,株式会社,新潟県,長岡市,川口和南津９５３番地第１,,15,202,9497511,,,,,,,2022-04-08,1,,,,,ツリキチカワグチ,0
492,2110005016788,新規,0,2022-04-08,2022-04-08,一般社団法人Ｉ　ＬＯＶＥ　ＫＺ,,その他の設立登記法人,新潟県,柏崎市,中央町１番２７号,,15,205,9450064,,,,,,,2022-04-08,1,,,,,アイラブケーゼット,0
505,2120001244870,新規,0,2022-04-08,2022-04-08,リーズ不動産株式会社,,株式会社,大阪府,大阪市中央区,上町１丁目８番３号,,27,128,5400005,,,,,,,2022-04-08,1,,,,,リーズフドウサンカブ,0
506,2120001245068,新規,0,2022-04-08,2022-04-08,株式会社彩華,,株式会社,大阪府,守口市,大日町２丁目６番１１号,,27,209,5700003,,,,,,,2022-04-08,1,,,,,サイカ,0
507,2120001245076,新規,0,2022-04-08,2022-04-08,株式会社ファーストクリーン関西,,株式会社,大阪府,大阪市淀川区,西中島６丁目３番２４号Ｅ４１５,,27,123,5320011,,,,,,,2022-04-08,1,,,,,ファーストクリーンカンサイ,0
508,2120001245084,新規,0,2022-04-08,2022-04-08,株式会社鶏やろう,,株式会社,大阪府,寝屋川市,日新町１７番２６－７０１号,,27,215,5720028,,,,,,,2022-04-08,1,,,,,トリヤロウ,0
509,2120001245092,新規,0,2022-04-08,2022-04-08,株式会社あゆむ企画,,株式会社,大阪府,大阪市北区,梅田１丁目１番３号大阪駅前第３ビル２９階１－１－１号室,,27,127,5300001,,,,,,,2022-04-08,1,,,,,アユムキカク,0
510,2120001245101,新規,0,2022-04-08,2022-04-08,株式会社ＪＯトレード,,株式会社,大阪府,大阪市平野区,喜連西６丁目２－７１アネックス平野１０３,,27,126,5470026,,,,,,,2022-04-08,1,,,,,ジェイオートレード,0
513,2120003021450,新規,0,2022-04-08,2022-04-08,合同会社ＡＭＴ,,合同会社,大阪府,大阪市生野区,新今里３丁目６番１８号,,27,116,5440001,,,,,,,2022-04-08,1,,,,,エーエムティー,0
514,2120005022876,新規,0,2022-04-08,2022-04-08,一般社団法人ラタラボ,,その他の設立登記法人,大阪府,大阪市福島区,野田５丁目８番１７号,,27,103,5530005,,,,,,,2022-04-08,1,,,,,ラタラボ,0
515,2120005022884,新規,0,2022-04-08,2022-04-08,特定非営利活動法人ＴＨＡＮＫＹＯＵ　ＦＵＮＤ,,その他の設立登記法人,大阪府,枚方市,岡本町７番１号,,27,210,5730031,,,,,,,2022-04-08,1,,,,,サンキューファンド,0
522,2120901045815,新規,0,2022-04-08,2022-04-08,日本害虫駆除株式会社,,株式会社,大阪府,高槻市,辻子３丁目６番３１号の３,00126219,27,207,5690036,,,,,,,2022-04-08,1,,,,,ニホンガイチュウクジョ,0
523,2120901045831,新規,0,2022-04-08,2022-04-08,ムッシュ株式会社,,株式会社,大阪府,吹田市,昭和町２２番４－２号,,27,205,5640028,,,,,,,2022-04-08,1,,,,,ムッシュ,0
537,2130001071488,新規,0,2022-04-08,2022-04-08,株式会社エスロック,,株式会社,京都府,宇治市,宇治蛇塚７３番地の２,00126194,26,204,6110021,,,,,,,2022-04-08,1,,,,,エスロック,0
538,2130001071546,新規,0,2022-04-08,2022-04-08,株式会社ジョブスペース,,株式会社,京都府,京都市伏見区,深草飯食山町１－１,,26,109,6120815,,,,,,,2022-04-08,1,,,,,ジョブスペース,0
542,2140001125458,新規,0,2022-04-08,2022-04-08,株式会社真田電気,,株式会社,兵庫県,神戸市西区,秋葉台２丁目１番地の３２４,,28,111,6512224,,,,,,,2022-04-08,1,,,,,サナダデンキ,0
543,2140001125482,新規,0,2022-04-08,2022-04-08,株式会社Ｄｉｌｅｔｔｏ,,株式会社,兵庫県,神戸市西区,南別府２丁目２番地の１３,,28,111,6512116,,,,,,,2022-04-08,1,,,,,ディレット,0
544,2140001125516,新規,0,2022-04-08,2022-04-08,株式会社ブレイブ,,株式会社,兵庫県,神戸市北区,有野町二郎１７９番地の２,,28,109,6511311,,,,,,,2022-04-08,1,,,,,ブレイブ,0
545,2140001125549,新規,0,2022-04-08,2022-04-08,株式会社ハートハンド,,株式会社,兵庫県,加東市,上中６９番地,,28,228,6731464,,,,,,,2022-04-08,1,,,,,ハートハンド,0
547,2140003017546,新規,0,2022-04-08,2022-04-08,合同会社カスヤ,,合同会社,兵庫県,加古川市,平岡町新在家２丁目２６８－５,,28,210,6750101,,,,,,,2022-04-08,1,,,,,カスヤ,0
549,2150003002662,新規,0,2022-04-08,2022-04-08,合同会社ｓａｋｕｒａ,,合同会社,奈良県,香芝市,真美ヶ丘２丁目６番１２号,,29,210,6390223,,,,,,,2022-04-08,1,,,,,サクラ,0
555,2160003002538,新規,0,2022-04-08,2022-04-08,合同会社ＹＯＳＨＩ,,合同会社,滋賀県,草津市,野路町２４１５番地６,,25,206,5250055,,,,,,,2022-04-08,1,,,,,,0
561,2180001150667,新規,0,2022-04-08,2022-04-08,株式会社エムツーサポート,,株式会社,愛知県,名古屋市港区,入船２丁目４番６号,,23,111,4550032,,,,,,,2022-04-08,1,,,,,エムツーサポート,0
562,2180001150700,新規,0,2022-04-08,2022-04-08,Ｈｕｎｅｙ　Ｈｕｎｔ株式会社,,株式会社,愛知県,一宮市,今伊勢町馬寄字舟入１番地１コープ野村Ｂ棟５０７号,,23,203,4910058,,,,,,,2022-04-08,1,,,,,ハニーハント,0
563,2180001150709,新規,0,2022-04-08,2022-04-08,株式会社スマイル本舗,,株式会社,愛知県,名古屋市東区,泉３丁目１７番１０号,,23,102,4610001,,,,,,,2022-04-08,1,,,,,スマイルホンポ,0
564,2180001150758,新規,0,2022-04-08,2022-04-08,株式会社ＦＣＢ,,株式会社,愛知県,名古屋市中区,新栄１丁目１１－１４東泉ニュータウンビル２Ｂ,,23,106,4600007,,,,,,,2022-04-08,1,,,,,エフシービー,0
565,2180001150824,新規,0,2022-04-08,2022-04-08,株式会社Ｎｅｘｔ　ｉｎｎｏｖａｔｉｏｎ,,株式会社,愛知県,名古屋市天白区,大坪２丁目１００４番地,,23,116,4680072,,,,,,,2022-04-08,1,,,,,ネクストイノベーション,0
567,2180003023680,新規,0,2022-04-08,2022-04-08,合同会社リルフィー,,合同会社,愛知県,名古屋市中区,栄４丁目１２番２６号栄ＣＤビル４Ｆ,,23,106,4600008,,,,,,,2022-04-08,1,,,,,リルフィー,0
568,2180003023697,新規,0,2022-04-08,2022-04-08,合同会社ユアサ設備,,合同会社,愛知県,稲沢市,小池３丁目１０番１３号,,23,220,4928144,,,,,,,2022-04-08,1,,,,,ユアサセツビ,0
569,2180003023714,新規,0,2022-04-08,2022-04-08,合同会社スズヒロ,,合同会社,愛知県,名古屋市西区,那古野１丁目３６番９号,,23,104,4510042,,,,,,,2022-04-08,1,,,,,スズヒロ,0
570,2180005019719,新規,0,2022-04-08,2022-04-08,学校法人ＮａＲｉＢｉ学園,,その他の設立登記法人,愛知県,名古屋市中村区,稲葉地本通３丁目３６番地,,23,105,4530057,,,,,,,2022-04-08,1,,,,,ナリビガクエン,0
571,2180005019727,新規,0,2022-04-08,2022-04-08,一般社団法人愛知県老人福祉施設協議会,,その他の設立登記法人,愛知県,長久手市,根嶽１２１６番地,,23,238,4801148,,,,,,,2022-04-08,1,,,,,アイチケンロウジンフクシシセツキョウギカイ,0
573,2190001029282,新規,0,2022-04-08,2022-04-08,真電株式会社,,株式会社,三重県,松阪市,垣鼻町１２１４番地１,,24,204,5150033,,,,,,,2022-04-08,1,,,,,シンデン,0
574,2190001029316,新規,0,2022-04-08,2022-04-08,株式会社ｅｎｉｓｈｉｓ,,株式会社,三重県,四日市市,智積町２４８８番地５,,24,202,5121212,,,,,,,2022-04-08,1,,,,,エニシス,0
585,2220003003257,新規,0,2022-04-08,2022-04-08,合同会社スパイスファクトリー,,合同会社,石川県,金沢市,西田三丁目４番地,,17,201,9200000,,,,,,,2022-04-08,1,,,,,スパイスファクトリー,0
586,2230001019304,新規,0,2022-04-08,2022-04-08,とやまレインボーファーム株式会社,,株式会社,富山県,富山市,堀川町２０６番地５,,16,201,9398072,,,,,,,2022-04-08,1,,,,,トヤマレインボーファーム,0
588,2230005009219,新規,0,2022-04-08,2022-04-08,一般社団法人ＳＭＡＲＴふくしラボ,,その他の設立登記法人,富山県,黒部市,金屋４６４番地の１,,16,207,9380022,,,,,,,2022-04-08,1,,,,,,0
601,2260001036726,新規,0,2022-04-08,2022-04-08,株式会社経営の道標ケルン社,,株式会社,岡山県,岡山市中区,雄町４６２番地１２,,33,102,7038204,,,,,,,2022-04-08,1,,,,,ケイエイノミチシルベケルンシャ,0
603,2280001008673,新規,0,2022-04-08,2022-04-08,萬恒株式会社,,株式会社,島根県,出雲市,斐川町荘原２２５１番地１,,32,203,6990502,,,,,,,2022-04-08,1,,,,,マンコウ,0
615,2290001097006,新規,0,2022-04-08,2022-04-08,株式会社ＤＡＩＫＩＮ　ＰＲＯＪＥＣＴ,,株式会社,福岡県,嘉麻市,牛隈９３４番地７,,40,227,8200301,,,,,,,2022-04-08,1,,,,,ダイキンプロジェクト,0
616,2290001097039,新規,0,2022-04-08,2022-04-08,株式会社インテム,,株式会社,福岡県,大野城市,仲畑４丁目１６番４８号,,40,219,8160921,,,,,,,2022-04-08,1,,,,,インテム,0
617,2290001097055,新規,0,2022-04-08,2022-04-08,ＴＫホールディングス株式会社,,株式会社,福岡県,福岡市南区,野多目２丁目３番２１号,,40,134,8111347,,,,,,,2022-04-08,1,,,,,ティーケーホールディングス,0
625,2290801028416,新規,0,2022-04-08,2022-04-08,株式会社つぎ組,,株式会社,福岡県,田川郡大任町,大字大行事３７４０番地７,,40,608,8240512,,,,,,,2022-04-08,1,,,,,ツギグミ,0
628,2300003001814,新規,0,2022-04-08,2022-04-08,合同会社ちゃいるず,,合同会社,佐賀県,三養基郡基山町,大字宮浦１０４６番地２,,41,341,8410204,,,,,,,2022-04-08,1,,,,,チャイルズ,0
634,2340001024623,新規,0,2022-04-08,2022-04-08,株式会社ＴＳＵＪＩ,,株式会社,鹿児島県,南さつま市,加世田本町５２番地１３,,46,220,8970006,,,,,,,2022-04-08,1,,,,,ツジ,0
635,2350001017691,新規,0,2022-04-08,2022-04-08,株式会社ＰＥＡＲ,,株式会社,宮崎県,都城市,都島町５２番地３中尾住宅Ａ棟,,45,202,8850083,,,,,,,2022-04-08,1,,,,,ペア,0
640,2370003005651,新規,0,2022-04-08,2022-04-08,合同会社ミコ,,合同会社,宮城県,仙台市宮城野区,五輪２丁目９番１４－６０４号,,04,102,9830842,,,,,,,2022-04-08,1,,,,,ミコ,0
652,2380005012562,新規,0,2022-04-08,2022-04-08,一般社団法人かがみいし振興公社,,その他の設立登記法人,福島県,岩瀬郡鏡石町,不時沼３４５番地,,07,342,9690401,,,,,,,2022-04-08,1,,,,,カガミイシシンコウコウシャ,0
653,2400001015855,新規,0,2022-04-08,2022-04-08,株式会社ネクストイノベーション,,株式会社,岩手県,西磐井郡平泉町,平泉字泉屋１１４番地１,,03,402,0294102,,,,,,,2022-04-08,1,,,,,ネクストイノベーション,0
656,2400005008236,新規,0,2022-04-08,2022-04-08,一般社団法人まなクラあそクラ,,その他の設立登記法人,岩手県,岩手郡葛巻町,葛巻第１４地割４番地１下町定住促進住宅,,03,302,0285402,,,,,,,2022-04-08,1,,,,,マナクラアソクラ,0
661,2420003002494,新規,0,2022-04-08,2022-04-08,合同会社上総ボーリング,,合同会社,青森県,三戸郡階上町,大字角柄折字蝙蝠６番地１４,,02,446,0391208,,,,,,,2022-04-08,1,,,,,カズサボーリング,0
665,2430001086373,新規,0,2022-04-08,2022-04-08,株式会社ＫＵＲＯＫＯ,,株式会社,北海道,札幌市厚別区,大谷地東５丁目１７番３号,,01,108,0040041,,,,,,,2022-04-08,1,,,,,クロコ,0
669,2430005014438,新規,0,2022-04-08,2022-04-08,ＮＰＯ法人北海道バレーボールアカデミー,,その他の設立登記法人,北海道,札幌市中央区,南五条西１丁目１番１２号,,01,101,0640805,,,,,,,2022-04-08,1,,,,,ホッカイドウバレーボールアカデミー,0
670,2460003000890,新規,0,2022-04-08,2022-04-08,釧路ブルワリー合同会社,,合同会社,北海道,釧路市,大町１丁目１番１１号ベイサイドビル,,01,206,0850847,,,,,,,2022-04-08,1,,,,,クシロブルワリー,0
673,2470001019024,新規,0,2022-04-08,2022-04-08,株式会社マモルケン,,株式会社,香川県,高松市,松島町２丁目１４番４３号,,37,201,7600068,,,,,,,2022-04-08,1,,,,,マモルケン,0
674,2470001019032,新規,0,2022-04-08,2022-04-08,讃州総業株式会社,,株式会社,香川県,木田郡三木町,大字井上１８８３番地１,,37,341,7610705,,,,,,,2022-04-08,1,,,,,サンシュウソウギョウ,0
675,2470005006431,新規,0,2022-04-08,2022-04-08,一般社団法人三豊市観光交流局,,その他の設立登記法人,香川県,三豊市,詫間町松崎１６４２番地２,,37,208,7691102,,,,,,,2022-04-08,1,,,,,ミトヨシカンコウコウリュウキョク,0
679,2700150005767,新規,0,2022-04-08,2015-10-09,日本介護福祉学会,,その他,東京都,新宿区,山吹町３５８－５国際文献社,,13,104,1620801,,,,,,,2015-10-09,1,,,,,ニホンカイゴフクシガツカイ,0
681,2700150106417,新規,0,2022-04-08,2021-12-27,ＭＯＮＳＴＥＲ’Ｓ　ＳＯＵＬ,,その他,東京都,江戸川区,篠崎町７丁目２４－１０－３１３,,13,123,1330061,,,,,,,2021-12-27,1,,,,,モンスターズソウル,0
682,2700150107729,新規,0,2022-04-08,2022-04-08,ＭＥＬＬＩＶＯＲＡ　ＧＲＯＵＰ　ＰＴＥ．ＬＴＤ．,,外国会社等,,,,,,,,１０　ＡＮＳＯＮ　ＲＯＡＤ　＃３５－１１　ＩＮＴＥＲＮＡＴＩＯＮＡＬ　ＰＬＡＺＡ　ＳＩＮＧＡＰＯＲＥ,,,,,,2022-04-08,1,,,,,メリーヴオラグループプライベートリミテツド,0
683,2700150107737,新規,0,2022-04-08,2022-04-08,加納振興会,,その他,富山県,氷見市,加納１４５６,,16,205,9350063,,,,,,,2022-04-08,1,,,,,カノウシンコウカイ,0
696,3010001225633,新規,0,2022-04-08,2022-04-08,エンピレオ株式会社,,株式会社,東京都,中央区,東日本橋２丁目１番１２号,,13,102,1030004,,,,,,,2022-04-08,1,,,,,エンピレオ,0
697,3010001225658,新規,0,2022-04-08,2022-04-08,株式会社Ｊ‐Ｓｍｉｌｅ,,株式会社,東京都,千代田区,神田神保町１丁目１０番地,,13,101,1010051,,,,,,,2022-04-08,1,,,,,ジェイスマイル,0
698,3010001225674,新規,0,2022-04-08,2022-04-08,株式会社プロシード,,株式会社,東京都,中央区,東日本橋１丁目９番２号,,13,102,1030004,,,,,,,2022-04-08,1,,,,,プロシード,0
699,3010001225716,新規,0,2022-04-08,2022-04-08,株式会社高盛,,株式会社,東京都,中央区,日本橋箱崎町５－１２－１０１,,13,102,1030015,,,,,,,2022-04-08,1,,,,,タカモリ,0
705,3010003037390,新規,0,2022-04-08,2022-04-08,日本保隆合同会社,,合同会社,東京都,中央区,新川１丁目３番１０号旭ビルディング２階別館,,13,102,1040033,,,,,,,2022-04-08,1,,,,,ニホンホリュウ,0
707,3010005034824,新規,0,2022-04-08,2022-04-08,一般社団法人日本ルックスケア医学会,,その他の設立登記法人,東京都,千代田区,霞が関１丁目４番２号大同生命霞が関ビル１８階,,13,101,1000013,,,,,,,2022-04-08,1,,,,,ニホンルックスケアイガクカイ,0
711,3010401166543,新規,0,2022-04-08,2022-04-08,株式会社ｋａｗａｒａ,,株式会社,東京都,港区,北青山２丁目７番２６号メゾン青山５０５号室,,13,103,1070061,,,,,,,2022-04-08,1,,,,,カワラ,0
712,3010401166634,新規,0,2022-04-08,2022-04-08,株式会社博報堂テクノロジーズ,,株式会社,東京都,港区,赤坂５丁目３番１号,,13,103,1070052,,,,,,,2022-04-08,1,,,,,ハクホウドウテクノロジーズ,0
719,3010403027421,新規,0,2022-04-08,2022-04-08,セル合同会社,,合同会社,東京都,港区,浜松町２丁目２番１５号浜松町ダイヤビル２Ｆ,,13,103,1050013,,,,,,,2022-04-08,1,,,,,セル,0
720,3010403027462,新規,0,2022-04-08,2022-04-08,Ｄｉｓｃｏｖｅｒｙ６合同会社,,合同会社,東京都,港区,赤坂２丁目１０番５号税理士法人赤坂国際会計事務所内,,13,103,1070052,,,,,,,2022-04-08,1,,,,,ディスカバリーシックス,0
722,3010501048682,新規,0,2022-04-08,2022-04-08,株式会社ＳＡＳＵＫＥＮＥ,,株式会社,東京都,台東区,谷中３丁目１２番１０号,,13,106,1100001,,,,,,,2022-04-08,1,,,,,サスケネ,0
723,3010601060950,新規,0,2022-04-08,2022-04-08,大幸株式会社,,株式会社,東京都,江東区,青海２丁目７番４号ｔｈｅＳＯＨＯ９１４,,13,108,1350064,,,,,,,2022-04-08,1,,,,,ダイコウ,0
725,3010701042460,新規,0,2022-04-08,2022-04-08,ＧｌｏｂａｌＬｏｇｉｃ　Ｊａｐａｎ株式会社,,株式会社,東京都,品川区,南大井６丁目２７番１８号日立大森第二別館,,13,109,1400013,,,,,,,2022-04-08,1,,,,,グローバルロジックジャパン,0
727,3010801032873,新規,0,2022-04-08,2022-04-08,株式会社ＧＡＯ,,株式会社,東京都,大田区,下丸子１丁目６－８永岡ビル５Ｆ,,13,111,1460092,,,,,,,2022-04-08,1,,,,,ガオ,0
735,3011001146687,新規,0,2022-04-08,2022-04-08,ＨＡＮＺＯＮレンタル株式会社,,株式会社,東京都,渋谷区,東１丁目１番３６キタ・ビルデンステラスフロア,,13,113,1500011,,,,,,,2022-04-08,1,,,,,ハンゾンレンタル,0
736,3011001146729,新規,0,2022-04-08,2022-04-08,株式会社ＧＲＥＥＤ,,株式会社,東京都,渋谷区,渋谷２丁目１４番１３号岡崎ビル,,13,113,1500002,,,,,,,2022-04-08,1,,,,,グリード,0
737,3011001146786,新規,0,2022-04-08,2022-04-08,株式会社ＴＳアセットコンサルティング,,株式会社,東京都,目黒区,東山１丁目６番５－１５０９号,,13,110,1530043,,,,,,,2022-04-08,1,,,,,ティーエスアセットコンサルティング,0
738,3011001146877,新規,0,2022-04-08,2022-04-08,株式会社オーガスタス,,株式会社,東京都,渋谷区,渋谷３丁目８番１２号渋谷第一生命ビルディング３Ｆ,,13,113,1500002,,,,,,,2022-04-08,1,,,,,オーガスタス,0
739,3011003014487,新規,0,2022-04-08,2022-04-08,ＢＵＬＬＳＴＥＰ合同会社,,合同会社,東京都,渋谷区,本町１丁目１２－１０,,13,113,1510071,,,,,,,2022-04-08,1,,,,,ブルステップ,0
742,3011101098424,新規,0,2022-04-08,2022-04-08,株式会社Ｎｅｏ　Ｓｔａｇｅ,,株式会社,東京都,新宿区,西新宿６丁目２０番７－２０１８号,,13,104,1600023,,,,,,,2022-04-08,1,,,,,ネオステージ,0
743,3011101098473,新規,0,2022-04-08,2022-04-08,株式会社ウエスタ,,株式会社,東京都,新宿区,西新宿３丁目３番１３号西新宿水間ビル６階,,13,104,1600023,,,,,,,2022-04-08,1,,,,,ウエスタ,0
744,3011101098481,新規,0,2022-04-08,2022-04-08,株式会社Ｌａ　ｌｉｎｏ,,株式会社,東京都,新宿区,高田馬場１丁目３１番８号高田馬場ダイカンプラザ,,13,104,1690075,,,,,,,2022-04-08,1,,,,,ラリノ,0
754,3011501027924,新規,0,2022-04-08,2022-04-08,株式会社トモエ不動産,,株式会社,東京都,荒川区,荒川７丁目２７番７号,,13,118,1160002,,,,,,,2022-04-08,1,,,,,トモエフドウサン,0
756,3011601025869,新規,0,2022-04-08,2022-04-08,Ｅ‐ＤＯＭ株式会社,,株式会社,東京都,練馬区,上石神井１丁目２８－１４ＡＰ上石神井１０１号,,13,120,1770044,,,,,,,2022-04-08,1,,,,,イドム,0
757,3011701025199,新規,0,2022-04-08,2022-04-08,株式会社テラクリスタパブリッシング,,株式会社,東京都,江戸川区,中央４丁目４－１２,,13,123,1320021,,,,,,,2022-04-08,1,,,,,テラクリスタパブリッシング,0
758,3011703003104,新規,0,2022-04-08,2022-04-08,永田合同会社,,合同会社,東京都,江戸川区,西葛西３丁目１３番１２－８０２号田中第２ビルツイン・コート,,13,123,1340088,,,,,,,2022-04-08,1,,,,,ナガタ,0
760,3011801040544,新規,0,2022-04-08,2022-04-08,株式会社ＰＨＯＴＯＪＡＣＫＡＬ,,株式会社,東京都,葛飾区,新小岩４丁目３１番１１号,,13,122,1240024,,,,,,,2022-04-08,1,,,,,フォトジャッカル,0
761,3011803005033,新規,0,2022-04-08,2022-04-08,合同会社笠原,,合同会社,東京都,葛飾区,東新小岩８丁目２８番１２号,,13,122,1240023,,,,,,,2022-04-08,1,,,,,カサハラ,0
766,3013101008890,新規,0,2022-04-08,2022-04-08,株式会社ＴＫカンパニー,,株式会社,東京都,あきる野市,草花１９０２番地３１,,13,228,1970802,,,,,,,2022-04-08,1,,,,,ティーケーカンパニー,0
772,3013303006115,新規,0,2022-04-08,2022-04-08,偉業合同会社,,合同会社,東京都,豊島区,高田１丁目３６番１８号,,13,116,1710033,,,,,,,2022-04-08,1,,,,,イギョウ,0
782,3020001145970,新規,0,2022-04-08,2022-04-08,株式会社リトルフラミンゴ,,株式会社,神奈川県,横浜市瀬谷区,瀬谷１丁目３０番地１０,,14,114,2460031,,,,,,,2022-04-08,1,,,,,リトルフラミンゴ,0
783,3020001146011,新規,0,2022-04-08,2022-04-08,株式会社リリーフ,,株式会社,神奈川県,横浜市緑区,長津田町３１６９番地１サングレイス長津田弐番館２１１号,,14,113,2260026,,,,,,,2022-04-08,1,,,,,リリーフ,0
784,3020001146028,新規,0,2022-04-08,2022-04-08,株式会社悠心,,株式会社,神奈川県,横浜市都筑区,荏田南５丁目２２番８号,,14,118,2240007,,,,,,,2022-04-08,1,,,,,ユウシン,0
788,3020003021550,新規,0,2022-04-08,2022-04-08,合同会社ライフマネージ,,合同会社,神奈川県,横浜市金沢区,富岡西５丁目３２番５号,,14,108,2360052,,,,,,,2022-04-08,1,,,,,ライフマネージ,0
790,3021003011525,新規,0,2022-04-08,2022-04-08,合同会社Ｓｏｌｉｖｅｘ,,合同会社,神奈川県,厚木市,下川入４３０番地９銀河ハイツ１０４,,14,212,2430206,,,,,,,2022-04-08,1,,,,,ソリベックス,0
791,3021003011574,新規,0,2022-04-08,2022-04-08,合同会社Ｋａｒｉｎｉａｎ企画管理,,合同会社,神奈川県,逗子市,逗子７丁目４番２０号,,14,208,2490006,,,,,,,2022-04-08,1,,,,,カリニアンキカクカンリ,0
803,3030001147594,新規,0,2022-04-08,2022-04-08,高野電気株式会社,00126206,株式会社,埼玉県,富士見市,水谷東１丁目１５番８号,,11,235,3540013,,,,,,,2022-04-08,1,,,,,タカノデンキ,0
804,3030001147636,新規,0,2022-04-08,2022-04-08,株式会社Ｒ・Ｔ・Ｃ,,株式会社,埼玉県,川口市,末広３丁目４番２８－２０１号コスモ２１,,11,203,3320006,,,,,,,2022-04-08,1,,,,,アールティーシー,0
805,3030001147652,新規,0,2022-04-08,2022-04-08,トライズエージェントクリア株式会社,,株式会社,埼玉県,越谷市,南越谷５丁目３番地１８キャピタル南越谷４－Ｃ,,11,222,3430845,,,,,,,2022-04-08,1,,,,,トライズエージェントクリア,0
806,3030001147660,新規,0,2022-04-08,2022-04-08,株式会社ＭＯＴＯＲ　ＢＡＳＥ,,株式会社,埼玉県,上尾市,東町１丁目２番２５号,,11,219,3620031,,,,,,,2022-04-08,1,,,,,モーターベース,0
807,3030001147669,新規,0,2022-04-08,2022-04-08,株式会社ＴＡＧＵＣＨＩ＆ＣＯＭＰＡＮＹ,,株式会社,埼玉県,越谷市,東町５丁目９４番地３,,11,222,3430826,,,,,,,2022-04-08,1,,,,,タグチアンドカンパニー,0
808,3030001147677,新規,0,2022-04-08,2022-04-08,株式会社薬膳の極み,,株式会社,埼玉県,所沢市,くすのき台１丁目１０番地の７肥沼ビル３Ｆ,,11,208,3590037,,,,,,,2022-04-08,1,,,,,ヤクゼンノキワミ,0
810,3030003019189,新規,0,2022-04-08,2022-04-08,合同会社Ｉｍａｓｔａ,,合同会社,埼玉県,川口市,飯塚３丁目１２番５号,,11,203,3320023,,,,,,,2022-04-08,1,,,,,,0
811,3030003019197,新規,0,2022-04-08,2022-04-08,フレンドビズ合同会社,,合同会社,埼玉県,児玉郡美里町,大字関３８９－１,,11,381,3670102,,,,,,,2022-04-08,1,,,,,,0
820,3040001122860,新規,0,2022-04-08,2022-04-08,株式会社ＨＦＣ,,株式会社,千葉県,南房総市,平久里中５９８番地１,,12,234,2992204,,,,,,,2022-04-08,1,,,,,エイチエフシー,0
821,3040001122885,新規,0,2022-04-08,2022-04-08,株式会社サンジョウ測地,,株式会社,千葉県,市川市,大野町４丁目２９６７番地６,,12,203,2720805,,,,,,,2022-04-08,1,,,,,サンジョウソクチ,0
822,3040001122902,新規,0,2022-04-08,2022-04-08,ＳＫＩＮＧ株式会社,,株式会社,千葉県,市川市,八幡３丁目７番２号,,12,203,2720021,,,,,,,2022-04-08,1,,,,,スキング,0
823,3040001122910,新規,0,2022-04-08,2022-04-08,スターコムネットワーク株式会社,,株式会社,千葉県,大網白里市,大網３４６番地,,12,239,2993251,,,,,,,2022-04-08,1,,,,,スターコムネットワーク,0
824,3040001122935,新規,0,2022-04-08,2022-04-08,株式会社ＮＥＸＴ,,株式会社,千葉県,習志野市,東習志野８丁目３１番１８－１０２号,,12,216,2750001,,,,,,,2022-04-08,1,,,,,ネクスト,0
825,3040001122951,新規,0,2022-04-08,2022-04-08,株式会社オフィスもてぎ,,株式会社,千葉県,大網白里市,みやこ野２丁目４番地２パークハウス大網東１番街６１１号,,12,239,2993236,,,,,,,2022-04-08,1,,,,,オフィスモテギ,0
826,3040001122968,新規,0,2022-04-08,2022-04-08,株式会社ＳａｍｅＳｉｄｅ　ｈｏｍｅｙ,,株式会社,千葉県,市川市,行徳駅前２丁目１７－５－５０３,,12,203,2720133,,,,,,,2022-04-08,1,,,,,セイムサイドホーミー,0
830,3040003019799,新規,0,2022-04-08,2022-04-08,合同会社ちのか,,合同会社,千葉県,八千代市,大和田新田９５０番地２ルーチェ緑ヶ丘Ｂ１０５,,12,221,2760046,,,,,,,2022-04-08,1,,,,,チノカ,0
831,3040003019840,新規,0,2022-04-08,2022-04-08,合同会社菜々海,,合同会社,千葉県,市原市,五所１７５９番地４,,12,219,2900066,,,,,,,2022-04-08,1,,,,,ナナミ,0
842,3070001039136,新規,0,2022-04-08,2022-04-08,株式会社草津ハイランド,,株式会社,群馬県,吾妻郡草津町,大字草津４６４番地４４４,,10,426,3771711,,,,,,,2022-04-08,1,,,,,クサツハイランド,0
843,3070001039144,新規,0,2022-04-08,2022-04-08,株式会社彩心,,株式会社,群馬県,邑楽郡邑楽町,大字狸塚１１４７番地１,,10,525,3700613,,,,,,,2022-04-08,1,,,,,サイシン,0
847,3080103002569,新規,0,2022-04-08,2022-04-08,合同会社ちあーず,,合同会社,静岡県,田方郡函南町,柏谷１６番地の３,,22,325,4190112,,,,,,,2022-04-08,1,,,,,チアーズ,0
848,3080401025726,新規,0,2022-04-08,2022-04-08,株式会社勘十,,株式会社,静岡県,浜松市東区,和田町９番地,,22,132,4350016,,,,,,,2022-04-08,1,,,,,カンジュウ,0
850,3090001017511,新規,0,2022-04-08,2022-04-08,株式会社玄武電工,,株式会社,山梨県,中巨摩郡昭和町,河西１６２４番地１,,19,384,4093851,,,,,,,2022-04-08,1,,,,,ゲンブデンコウ,0
852,3090005007475,新規,0,2022-04-08,2022-04-08,一般社団法人フォレストビズ振興機構,,その他の設立登記法人,山梨県,富士吉田市,上吉田５６０５番地,,19,202,4030005,,,,,,,2022-04-08,1,,,,,フォレストビズシンコウキコウ,0
855,3100005012853,新規,0,2022-04-08,2022-04-08,一般社団法人日本生前相続サポートセンター,,その他の設立登記法人,長野県,岡谷市,長地権現町４丁目３番３７号ＣＯＣＯＤＡＫＡＲＡ内,,20,204,3940081,,,,,,,2022-04-08,1,,,,,ニホンセイゼンソウゾクサポートセンター,0
856,3110001036582,新規,0,2022-04-08,2022-04-08,株式会社海田総合ホーム,,株式会社,新潟県,村上市,新町９番７７号,,15,212,9580834,,,,,,,2022-04-08,1,,,,,カイダソウゴウホーム,0
870,3120001245018,新規,0,2022-04-08,2022-04-08,鹿龍建設株式会社,,株式会社,大阪府,大阪市住吉区,山之内１丁目２４番２６号,,27,120,5580023,,,,,,,2022-04-08,1,,,,,カリュウケンセツ,0
871,3120001245042,新規,0,2022-04-08,2022-04-08,株式会社アステップ,,株式会社,大阪府,大阪市中央区,東心斎橋１丁目１５番３２－１００４号,,27,128,5420083,,,,,,,2022-04-08,1,,,,,アステップ,0
872,3120001245109,新規,0,2022-04-08,2022-04-08,株式会社ＳＴＡＹ　ＧＯＬＤ,,株式会社,大阪府,大阪市城東区,今福南２丁目１０番３号,,27,118,5360003,,,,,,,2022-04-08,1,,,,,ステイゴールド,0
877,3120005022900,新規,0,2022-04-08,2022-04-08,一般社団法人Ｒ・ＡＳＫ２,,その他の設立登記法人,大阪府,大阪市中央区,南船場１丁目１３番２０号,,27,128,5420081,,,,,,,2022-04-08,1,,,,,アールエーエスケーツー,0
885,3120901045822,新規,0,2022-04-08,2022-04-08,株式会社プランプラス,,株式会社,大阪府,箕面市,小野原西６丁目１５番８号箕面ヒルズ２０１号,,27,220,5620032,,,,,,,2022-04-08,1,,,,,プランプラス,0
894,3130005016430,新規,0,2022-04-08,2022-04-08,一般社団法人リガーレ,,その他の設立登記法人,京都府,京都市北区,紫野大徳寺町４９番３,,26,101,6038231,,,,,,,2022-04-08,1,,,,,リガーレ,0
902,3150005009382,新規,0,2022-04-08,2022-04-08,特定非営利活動法人かんまきマリッジサポート・赤い糸,,その他の設立登記法人,奈良県,北葛城郡上牧町,大字上牧３３４６番地,,29,424,6390214,,,,,,,2022-04-08,1,,,,,カンマキマリッジサポートアカイイト,0
903,3170001017040,新規,0,2022-04-08,2022-04-08,株式会社酒井設備,,株式会社,和歌山県,和歌山市,和歌浦東２丁目７番３６号,,30,201,6410021,,,,,,,2022-04-08,1,,,,,サカイセツビ,0
911,3180001150708,新規,0,2022-04-08,2022-04-08,株式会社ミライサイネージ,,株式会社,愛知県,名古屋市西区,牛島町６番１号,,23,104,4510046,,,,,,,2022-04-08,1,,,,,ミライサイネージ,0
912,3180001150732,新規,0,2022-04-08,2022-04-08,株式会社エスライン,,株式会社,愛知県,小牧市,大草藤助洞３２２４番地,,23,219,4850802,,,,,,,2022-04-08,1,,,,,エスライン,0
913,3180001150807,新規,0,2022-04-08,2022-04-08,株式会社ＳＫレジャー,,株式会社,愛知県,名古屋市中区,栄１丁目１２番３５号,,23,106,4600008,,,,,,,2022-04-08,1,,,,,エスケーレジャー,0
915,3180003023705,新規,0,2022-04-08,2022-04-08,ファストエコストア合同会社,,合同会社,愛知県,名古屋市名東区,名東本通４丁目４１番地メゾンドエトワール２１１号室,,23,115,4650087,,,,,,,2022-04-08,1,,,,,ファストエコストア,0
916,3180005019692,新規,0,2022-04-08,2022-04-08,ＡＩＪグローバル協同組合,,その他の設立登記法人,愛知県,一宮市,伝法寺２丁目１２番地９,,23,203,4910828,,,,,,,2022-04-08,1,,,,,エーアイジェーグローバル,0
924,3190001029273,新規,0,2022-04-08,2022-04-08,株式会社フジテックス,,株式会社,三重県,鈴鹿市,道伯１丁目１０番２０号,,24,207,5130823,,,,,,,2022-04-08,1,,,,,フジテックス,0
926,3190003003945,新規,0,2022-04-08,2022-04-08,合同会社笑夢,,合同会社,三重県,名張市,東町１８２７番地５マルトマンション４０２号,,24,208,5180711,,,,,,,2022-04-08,1,,,,,エム,0
937,3230001019303,新規,0,2022-04-08,2022-04-08,株式会社秋元電設,,株式会社,富山県,射水市,上条１番地１３,,16,211,9390255,,,,,,,2022-04-08,1,,,,,アキモトデンセツ,0
941,3250001019482,新規,0,2022-04-08,2022-04-08,株式会社フジ興,,株式会社,山口県,岩国市,周東町祖生２７６番地３,,35,208,7420301,,,,,,,2022-04-08,1,,,,,フジコウ,0
942,3250003003039,新規,0,2022-04-08,2022-04-08,合同会社ままっぷカンパニー,,合同会社,山口県,山口市,平井８１６番地１０,,35,203,7530831,,,,,,,2022-04-08,1,,,,,ママップカンパニー,0
960,3290001097013,新規,0,2022-04-08,2022-04-08,大洋開発株式会社,,株式会社,福岡県,福岡市中央区,大名１丁目１１番１９号,,40,133,8100041,,,,,,,2022-04-08,1,,,,,タイヨウカイハツ,0
961,3290001097021,新規,0,2022-04-08,2022-04-08,株式会社ピフェリ,,株式会社,福岡県,みやま市,高田町今福６５３番地１,,40,229,8390214,,,,,,,2022-04-08,1,,,,,ピフェリ,0
962,3290001097104,新規,0,2022-04-08,2022-04-08,株式会社北野,,株式会社,福岡県,久留米市,北野町今山５３４番地１,,40,203,8301122,,,,,,,2022-04-08,1,,,,,キタノ,0
963,3290001097112,新規,0,2022-04-08,2022-04-08,株式会社寺田板金店,,株式会社,福岡県,糟屋郡志免町,志免中央２丁目６番８号,,40,343,8112244,,,,,,,2022-04-08,1,,,,,テラダバンキンテン,0
966,3290003012382,新規,0,2022-04-08,2022-04-08,合同会社ＭＡ,,合同会社,福岡県,福岡市中央区,西中洲６－２７十八親和銀行福岡ビル５階,,40,133,8100002,,,,,,,2022-04-08,1,,,,,エムエー,0
968,3290005018618,新規,0,2022-04-08,2022-04-08,医療法人ＭＣＬ,,その他の設立登記法人,福岡県,那珂川市,道善２丁目６９番,,40,231,8111254,,,,,,,2022-04-08,1,,,,,エムシーエル,0
972,3290801028423,新規,0,2022-04-08,2022-04-08,株式会社ディーヤ・ドリーム,,株式会社,福岡県,遠賀郡岡垣町,東高陽２丁目１番１４号,,40,383,8114225,,,,,,,2022-04-08,1,,,,,ディーヤドリーム,0
976,3300003001813,新規,0,2022-04-08,2022-04-08,合同会社Ｋ＆Ｒ,,合同会社,佐賀県,伊万里市,大坪町丙１５５０番地７,,41,205,8480023,,,,,,,2022-04-08,1,,,,,ケイアンドアール,0
978,3310002020978,新規,0,2022-04-08,2022-04-08,大黒海運有限会社,,有限会社,長崎県,壱岐市,石田町久喜触３９番地,,42,210,8115223,,,,,,,2022-04-08,1,,,,,,0
981,3340001024614,新規,0,2022-04-08,2022-04-08,株式会社進幸産業,,株式会社,鹿児島県,奄美市,名瀬和光町２１番地１０ハイツ吉田ＩＩＩ３０１号,00126193,46,222,8940007,,,,,,,2022-04-08,1,,,,,シンコウサンギョウ,0
982,3340001024639,新規,0,2022-04-08,2022-04-08,Ｚｅｒａ株式会社,,株式会社,鹿児島県,霧島市,隼人町見次６３８番地１,,46,218,8995117,,,,,,,2022-04-08,1,,,,,ゼラ,0
986,3350001017690,新規,0,2022-04-08,2022-04-08,株式会社アクア商事,,株式会社,宮崎県,宮崎市,高岡町花見９０５番地１,,45,201,8802211,,,,,,,2022-04-08,1,,,,,アクアショウジ,0
990,3360003011930,新規,0,2022-04-08,2022-04-08,オトーノマゼロ合同会社,,合同会社,沖縄県,那覇市,久米２丁目８番１号,,47,201,9000033,,,,,,,2022-04-08,1,,,,,オトーノマゼロ,0
1006,3390001016862,新規,0,2022-04-08,2022-04-08,株式会社アジリノ,,株式会社,山形県,米沢市,大字竹井１６５７番地の１,,06,202,9920116,,,,,,,2022-04-08,1,,,,,アジリノ,0
1013,3430001086372,新規,0,2022-04-08,2022-04-08,ＯＳＴＹ自動車工業株式会社,,株式会社,北海道,札幌市手稲区,明日風５丁目１７番３号,,01,109,0060861,,,,,,,2022-04-08,1,,,,,オスティジドウシャコウギョウ,0
1014,3430005014437,新規,0,2022-04-08,2022-04-08,一般社団法人音楽療育研究会,,その他の設立登記法人,北海道,札幌市西区,発寒九条１４丁目５１６番地１８８,,01,107,0630829,,,,,,,2022-04-08,1,,,,,オンガクリョウイクケンキュウカイ,0
1016,3450001013663,新規,0,2022-04-08,2022-04-08,株式会社平成技建,,株式会社,北海道,上川郡東神楽町,ひじり野北一条７丁目８番３号,,01,453,0711521,,,,,,,2022-04-08,1,,,,,,0
1018,3470001019023,新規,0,2022-04-08,2022-04-08,株式会社つなぐコミュニティ,,株式会社,香川県,高松市,東田町１番地３,,37,201,7600058,,,,,,,2022-04-08,1,,,,,ツナグコミュニティ,0
1023,3700150007622,新規,0,2022-04-08,2015-10-09,東京都個人タクシー　協同組合　大田第一支部,,その他,東京都,大田区,大森北３丁目３番１１号メゾン早川１階,,13,111,1430016,,,,,,,2015-10-09,1,,,,,トウキヨウトコジンタクシーキヨウドウクミアイオオタダイイチシブ,0
1024,3700150074811,新規,0,2022-04-08,2016-08-03,日新共栄会,,その他,東京都,千代田区,麹町１丁目６番４号,,13,101,1020083,,,,,,,2016-08-03,1,,,,,ニッシンキョウエイカイ,0
1026,3700150107728,新規,0,2022-04-08,2022-04-08,Ｌｉｎｇｘｉ　Ｉｎｔｅｒａｃｔｉｖｅ　Ｅｎｔｅｒｔａｉｎｍｅｎｔ,,外国会社等,,,,,,,,Ｒｏｏｍ　１９０１，　１９／Ｆ，　Ｌｅｅ　Ｇａｒｄｅｎ　Ｏｎｅ，　３３　Ｈｙｓａｎ　Ａｖｅｎｕｅ，　Ｃａｕｓｅｗａｙ　Ｂａｙ，　Ｈｏｎｇ　Ｋｏｎｇ,,,,,,2022-04-08,1,,,,,リンシーインタラクテイブエンターテインメント,0
1030,4010001225640,新規,0,2022-04-08,2022-04-08,ＨＵＢ株式会社,,株式会社,東京都,中央区,晴海３丁目１３－１－４７０９,,13,102,1040053,,,,,,,2022-04-08,1,,,,,ハブ,0
1031,4010001225673,新規,0,2022-04-08,2022-04-08,エスグリットコンサルティング株式会社,,株式会社,東京都,千代田区,神田富山町７,,13,101,1010043,,,,,,,2022-04-08,1,,,,,エスグリットコンサルティング,0
1045,4010401166658,新規,0,2022-04-08,2022-04-08,ジャパンフィロソフィー株式会社,,株式会社,東京都,港区,高輪２丁目１４番７－１１０３号,,13,103,1080074,,,,,,,2022-04-08,1,,,,,ジャパンフィロソフィー,0
1047,4010403027461,新規,0,2022-04-08,2022-04-08,Ｄｉｓｃｏｖｅｒｙ５合同会社,,合同会社,東京都,港区,赤坂２丁目１０番５号税理士法人赤坂国際会計事務所内,,13,103,1070052,,,,,,,2022-04-08,1,,,,,ディスカバリーファイブ,0
1050,4010405020877,新規,0,2022-04-08,2022-04-08,一般社団法人ｏｖｅ,,その他の設立登記法人,東京都,港区,南青山５丁目５番１１－３０２号,,13,103,1070062,,,,,,,2022-04-08,1,,,,,オーヴ,0
1056,4010601060933,新規,0,2022-04-08,2022-04-08,インクロップ株式会社,,株式会社,東京都,江東区,毛利２丁目９番２０号,,13,108,1350001,,,,,,,2022-04-08,1,,,,,インクロップ,0
1058,4010901050626,新規,0,2022-04-08,2022-04-08,株式会社Ｆｉｖｅ,,株式会社,東京都,世田谷区,宮坂２丁目２６番２１号,,13,112,1560051,,,,,,,2022-04-08,1,,,,,ファイブ,0
1062,4010903007285,新規,0,2022-04-08,2022-04-08,合同会社青のあいだ,,合同会社,東京都,世田谷区,奥沢３丁目１６番２２号,,13,112,1580083,,,,,,,2022-04-08,1,,,,,アオノアイダ,0
1065,4011001146703,新規,0,2022-04-08,2022-04-08,Ｄｉａｍｏｎｄ　Ｊａｐａｎ株式会社,,株式会社,東京都,渋谷区,広尾１丁目１番３９号,,13,113,1500012,,,,,,,2022-04-08,1,,,,,ダイヤモンドジャパン,0
1066,4011001146760,新規,0,2022-04-08,2022-04-08,株式会社サーチライト・エンタテインメント,,株式会社,東京都,目黒区,上目黒５丁目２６番２１号,,13,110,1530051,,,,,,,2022-04-08,1,,,,,サーチライトエンタテインメント,0
1067,4011001146793,新規,0,2022-04-08,2022-04-08,ＴＯＡＬ株式会社,,株式会社,東京都,渋谷区,神宮前６丁目２３番４号桑野ビル２階,,13,113,1500001,,,,,,,2022-04-08,1,,,,,トアル,0
1068,4011001146876,新規,0,2022-04-08,2022-04-08,株式会社オーガスタアトラス,,株式会社,東京都,渋谷区,渋谷３丁目８番１２号渋谷第一生命ビルディング３Ｆ,,13,113,1500002,,,,,,,2022-04-08,1,,,,,オーガスタアトラス,0
1070,4011101098415,新規,0,2022-04-08,2022-04-08,株式会社ランジェ,,株式会社,東京都,新宿区,西新宿１丁目２５－１－４９Ｆ,,13,104,1600023,,,,,,,2022-04-08,1,,,,,ランジェ,0
1071,4011101098456,新規,0,2022-04-08,2022-04-08,日越ゆい株式会社,,株式会社,東京都,新宿区,舟町１番地１３スリーオークスビル６Ｆ,,13,104,1600006,,,,,,,2022-04-08,1,,,,,ニチエツユイ,0
1072,4011103011656,新規,0,2022-04-08,2022-04-08,平良事業企画合同会社,,合同会社,東京都,新宿区,矢来町１０９番地神楽坂ローズビル５階Ａ,,13,104,1620805,,,,,,,2022-04-08,1,,,,,タイラジギョウキカク,0
1074,4011203003792,新規,0,2022-04-08,2022-04-08,合同会社スタジオＰＪＡ,,合同会社,東京都,中野区,新井２丁目１５番６号１０１,,13,114,1650026,,,,,,,2022-04-08,1,,,,,,0
1078,4011403003618,新規,0,2022-04-08,2022-04-08,チエーロ合同会社,,合同会社,東京都,板橋区,西台４丁目４番３－１３０６号,,13,119,1750045,,,,,,,2022-04-08,1,,,,,チエーロ,0
1088,4011603003566,新規,0,2022-04-08,2022-04-08,リテール・エクスペリエンス合同会社,,合同会社,東京都,練馬区,石神井町６丁目１番２５号ａｒｔｉｓｔａ２０６,,13,120,1770041,,,,,,,2022-04-08,1,,,,,リテールエクスペリエンス,0
1090,4011701025198,新規,0,2022-04-08,2022-04-08,ライノテック株式会社,,株式会社,東京都,江戸川区,西葛西３丁目１０番６号,,13,123,1340088,,,,,,,2022-04-08,1,,,,,ライノテック,0
1091,4011801040527,新規,0,2022-04-08,2022-04-08,株式会社高賢興業,00126220,株式会社,東京都,葛飾区,鎌倉１丁目２３番８－２０２号カームハイツ,,13,122,1250053,,,,,,,2022-04-08,1,,,,,タカケンコウギョウ,0
1094,4011803005032,新規,0,2022-04-08,2022-04-08,合同会社アセットラボ,,合同会社,東京都,足立区,綾瀬２丁目４４番３－１０１号,,13,121,1200005,,,,,,,2022-04-08,1,,,,,アセットラボ,0
1104,4013101008881,新規,0,2022-04-08,2022-04-08,株式会社ＯＮＥＡＣＴ,,株式会社,東京都,羽村市,五ノ神４丁目１３番地９山一羽村五ノ神ビル３Ｆ,,13,227,2050011,,,,,,,2022-04-08,1,,,,,ワンアクト,0
1107,4013301048876,新規,0,2022-04-08,2022-04-08,株式会社キューコンテニウム,,株式会社,東京都,豊島区,西巣鴨１丁目８番３－２０６号,,13,116,1700001,,,,,,,2022-04-08,1,,,,,キューコンテニウム,0
1109,4020001145978,新規,0,2022-04-08,2022-04-08,浜田リサイクル株式会社,,株式会社,神奈川県,横浜市戸塚区,俣野町３４４番地,,14,110,2450066,,,,,,,2022-04-08,1,,,,,ハマダリサイクル,0
1111,4020003021558,新規,0,2022-04-08,2022-04-08,Ｏｎｅ　Ａｄｄｉｔｉｖｅ合同会社,,合同会社,神奈川県,横浜市鶴見区,下末吉５丁目９番３７－２号,,14,101,2300012,,,,,,,2022-04-08,1,,,,,ワンアディティブ,0
1112,4020003021574,新規,0,2022-04-08,2022-04-08,マイジーパム合同会社,,合同会社,神奈川県,横浜市西区,平沼１丁目１３番２３号ライオンズマンション平沼第２－５０３,,14,103,2200023,,,,,,,2022-04-08,1,,,,,マイジーパム,0
1113,4020005015467,新規,0,2022-04-08,2022-04-08,一般社団法人あんしん住まいサポートセンター,,その他の設立登記法人,神奈川県,横浜市神奈川区,白楽１５番地２０,,14,102,2210065,,,,,,,2022-04-08,1,,,,,アンシンスマイサポートセンター,0
1114,4020005015475,新規,0,2022-04-08,2022-04-08,医療法人社団つばくろ会,,その他の設立登記法人,神奈川県,横浜市港北区,菊名６丁目１番７号鈴木ビル２階,,14,109,2220011,,,,,,,2022-04-08,1,,,,,ツバクロカイ,0
1126,4030001147668,新規,0,2022-04-08,2022-04-08,株式会社ＷＡＲＲＡＩＣＨ　ＭＯＴＯＲＳ,,株式会社,埼玉県,春日部市,椚８６番地１,,11,214,3440133,,,,,,,2022-04-08,1,,,,,ワライチモータース,0
1131,4030003019196,新規,0,2022-04-08,2022-04-08,関東総合サポート合同会社,,合同会社,埼玉県,川越市,仙波町３丁目２５番地２２,,11,201,3500034,,,,,,,2022-04-08,1,,,,,カントウソウゴウサポート,0
1138,4040001122942,新規,0,2022-04-08,2022-04-08,ジャストフィット株式会社,,株式会社,千葉県,松戸市,新松戸４丁目２５３番地７０６号,,12,207,2700034,,,,,,,2022-04-08,1,,,,,ジャストフィット,0
1139,4040001122950,新規,0,2022-04-08,2022-04-08,株式会社惣アグリサービス,,株式会社,千葉県,香取市,佐原ロ２１１６番地,,12,236,2870001,,,,,,,2022-04-08,1,,,,,ソウアグリサービス,0
1142,4040003019831,新規,0,2022-04-08,2022-04-08,合同会社アート・マハル,,合同会社,千葉県,柏市,ひばりが丘１１番２２号,,12,217,2770088,,,,,,,2022-04-08,1,,,,,アートマハル,0
1145,4050001050928,新規,0,2022-04-08,2022-04-08,株式会社新,,株式会社,茨城県,日立市,河原子町４丁目１１番１１号,,08,202,3160005,,,,,,,2022-04-08,1,,,,,アラタ,0
1146,4050001050936,新規,0,2022-04-08,2022-04-08,ＡＤＳ株式会社,,株式会社,茨城県,笠間市,鯉淵６６５５番地２２,,08,216,3091703,,,,,,,2022-04-08,1,,,,,エーディーエス,0
1156,4070001039119,新規,0,2022-04-08,2022-04-08,株式会社エヌエスアイ,,株式会社,群馬県,伊勢崎市,堤下町７６番地レヨンヴェールＢ２０１,,10,204,3720004,,,,,,,2022-04-08,1,,,,,エヌエスアイ,0
1157,4070001039135,新規,0,2022-04-08,2022-04-08,株式会社Ｌｉｆｍｏｒｅ,,株式会社,群馬県,高崎市,倉渕町権田３１５１番地,,10,202,3703401,,,,,,,2022-04-08,1,,,,,リフモア,0
1158,4070005009976,新規,0,2022-04-08,2022-04-08,社会保険労務士法人みくに労務管理事務所,,その他の設立登記法人,群馬県,前橋市,朝日町３丁目１２番２０号,,10,201,3710014,,,,,,,2022-04-08,1,,,,,ミクニロウムカンリジムショ,0
1164,4080101023203,新規,0,2022-04-08,2022-04-08,株式会社リッチリンクス,,株式会社,静岡県,田方郡函南町,仁田１９３番地の１大塚マンションＡ１０６,,22,325,4190114,,,,,,,2022-04-08,1,,,,,リッチリンクス,0
1165,4080101023211,新規,0,2022-04-08,2022-04-08,株式会社蕪木興業,,株式会社,静岡県,賀茂郡松崎町,宮内３番地の１,,22,305,4103612,,,,,,,2022-04-08,1,,,,,カブラギコウギョウ,0
1166,4080105006245,新規,0,2022-04-08,2022-04-08,医療法人社団喜和会,,その他の設立登記法人,静岡県,三島市,八反畑１３２番地の７,,22,206,4110817,,,,,,,2022-04-08,1,,,,,キワカイ,0
1172,4100001035238,新規,0,2022-04-08,2022-04-08,株式会社ＥＣＯ　ＷＡＲＭ,,株式会社,長野県,伊那市,高遠町小原４０７番地５,,20,209,3960215,,,,,,,2022-04-08,1,,,,,エコウォーム,0
1177,4110001036565,新規,0,2022-04-08,2022-04-08,株式会社えん,,株式会社,新潟県,中魚沼郡津南町,大字上郷寺石乙３４４番地,,15,482,9498126,,,,,,,2022-04-08,1,,,,,エン,0
1178,4110001036573,新規,0,2022-04-08,2022-04-08,株式会社たかなみ,,株式会社,新潟県,糸魚川市,大字小滝１５２９２番地,,15,216,9490462,,,,,,,2022-04-08,1,,,,,タカナミ,0
1192,4120001245025,新規,0,2022-04-08,2022-04-08,株式会社グルーク,,株式会社,大阪府,大阪市天王寺区,大道１丁目４番１－５１０号,,27,109,5430052,,,,,,,2022-04-08,1,,,,,グルーク,0
1193,4120001245066,新規,0,2022-04-08,2022-04-08,株式会社Ｓ．アスリート,,株式会社,大阪府,大阪市東住吉区,住道矢田１丁目２１番１３号,,27,121,5460022,,,,,,,2022-04-08,1,,,,,エスアスリート,0
1194,4120001245090,新規,0,2022-04-08,2022-04-08,株式会社ＬｉｏＨａ,,株式会社,大阪府,枚方市,桜丘町７１番１８－３０２号,,27,210,5730018,,,,,,,2022-04-08,1,,,,,リオハ,0
1195,4120001245099,新規,0,2022-04-08,2022-04-08,株式会社ＥＸＣＲＥＡ,,株式会社,大阪府,枚方市,堂山２丁目８番１号１０１,,27,210,5730007,,,,,,,2022-04-08,1,,,,,エクスクレア,0
1196,4120001245124,新規,0,2022-04-08,2022-04-08,株式会社大幸開発,,株式会社,大阪府,大阪市大正区,北恩加島１丁目１８番１５号－１階,,27,108,5510033,,,,,,,2022-04-08,1,,,,,ダイコウカイハツ,0
1197,4120001245140,新規,0,2022-04-08,2022-04-08,株式会社ハッピーシップ,,株式会社,大阪府,大阪市淀川区,西中島７丁目１番３号チサンマンション第８新大阪４０５号室,,27,123,5320011,,,,,,,2022-04-08,1,,,,,ハッピーシップ,0
1199,4120003021440,新規,0,2022-04-08,2022-04-08,合同会社アンドエム,,合同会社,大阪府,大阪市中央区,本町４丁目６番２５－７０６号Ｓ－ＣＲＥＡ御堂筋本町,,27,128,5410053,,,,,,,2022-04-08,1,,,,,アンドエム,0
1200,4120003021449,新規,0,2022-04-08,2022-04-08,信栄産業合同会社,,合同会社,大阪府,大阪市中央区,瓦町２丁目３番１４号,,27,128,5410048,,,,,,,2022-04-08,1,,,,,シンエイサンギョウ,0
1207,4120103004642,新規,0,2022-04-08,2022-04-08,寛栄合同会社,,合同会社,大阪府,堺市堺区,出島海岸通１丁１１番２０号,,27,141,5900833,,,,,,,2022-04-08,1,,,,,,0
1211,4120901045813,新規,0,2022-04-08,2022-04-08,株式会社ハピネス,,株式会社,大阪府,豊中市,新千里東町１丁目１番２－２９０９号,,27,203,5600082,,,,,,,2022-04-08,1,,,,,ハピネス,0
1213,4122005003615,新規,0,2022-04-08,2022-04-08,社会保険労務士法人かわちの社労士事務所,,その他の設立登記法人,大阪府,東大阪市,長田東２丁目１番３１号プレミール福山ビル３０１,,27,227,5770012,,,,,,,2022-04-08,1,,,,,カワチノシャロウシジムショ,0
1220,4130001071486,新規,0,2022-04-08,2022-04-08,株式会社西邑塗装店,,株式会社,京都府,京都市南区,上鳥羽奈須野町７番地１４,,26,107,6018146,,,,,,,2022-04-08,1,,,,,ニシムラトソウテン,0
1221,4130005016438,新規,0,2022-04-08,2022-04-08,医療法人山清会,,その他の設立登記法人,京都府,京都市中京区,東洞院通四条上る阪東屋町６６７番地１プラスパー河野ビル２階,,26,104,6048143,,,,,,,2022-04-08,1,,,,,ヤマセイカイ,0
1229,4140001125464,新規,0,2022-04-08,2022-04-08,株式会社ＴＴＦ,,株式会社,兵庫県,たつの市,神岡町野部８５７番地１,,28,229,6794111,,,,,,,2022-04-08,1,,,,,ティーティーエフ,0
1230,4140001125480,新規,0,2022-04-08,2022-04-08,Ｒｅ　Ｂｉｒｔｈ株式会社,,株式会社,兵庫県,加古川市,野口町坂元５７９番地,,28,210,6750018,,,,,,,2022-04-08,1,,,,,リバース,0
1231,4140001125497,新規,0,2022-04-08,2022-04-08,株式会社マネイク,,株式会社,兵庫県,伊丹市,中央１丁目５番５号ボントンビル４Ｆ,,28,207,6640851,,,,,,,2022-04-08,1,,,,,マネイク,0
1232,4140001125555,新規,0,2022-04-08,2022-04-08,株式会社ＴＲＡＤＥ,,株式会社,兵庫県,西脇市,和布町８３番地,,28,213,6770053,,,,,,,2022-04-08,1,,,,,トレード,0
1233,4140001125563,新規,0,2022-04-08,2022-04-08,ＹＡＭＡＳＨＩＴＡ株式会社,,株式会社,兵庫県,小野市,桜台１０番地,,28,218,6751351,,,,,,,2022-04-08,1,,,,,ヤマシタ,0
1236,4140005026130,新規,0,2022-04-08,2022-04-08,医療法人社団かわぐち腎泌尿器科・内科クリニック,,その他の設立登記法人,兵庫県,加古郡稲美町,国岡２丁目９番７,,28,381,6751115,,,,,,,2022-04-08,1,,,,,カワグチジンヒニョウキカナイカクリニック,0
1238,4150001025449,新規,0,2022-04-08,2022-04-08,株式会社アクティブ・ウエストジャパン,,株式会社,奈良県,橿原市,葛本町５１１番地の１５,,29,205,6340007,,,,,,,2022-04-08,1,,,,,アクティブウエストジャパン,0
1241,4160001024111,新規,0,2022-04-08,2022-04-08,ＳＥＬＦ　ＴＡＬＫ株式会社,,株式会社,滋賀県,近江八幡市,若宮町５６４番地,,25,204,5230034,,,,,,,2022-04-08,1,,,,,セルフトーク,0
1245,4180001150698,新規,0,2022-04-08,2022-04-08,株式会社グローバルジェービーシー,,株式会社,愛知県,名古屋市中村区,那古野１丁目４７番１号名古屋国際センタービル１５階,,23,105,4500001,,,,,,,2022-04-08,1,,,,,グローバルジェービーシー,0
1246,4180001150731,新規,0,2022-04-08,2022-04-08,株式会社いなせホーム,,株式会社,愛知県,名古屋市中区,栄３丁目２番３号,,23,106,4600008,,,,,,,2022-04-08,1,,,,,イナセホーム,0
1247,4180001150772,新規,0,2022-04-08,2022-04-08,株式会社Ｋａｎｎａｄｅ,,株式会社,愛知県,名古屋市中区,千代田４丁目５番１７号－９０６号,,23,106,4600012,,,,,,,2022-04-08,1,,,,,カンナデ,0
1248,4180001150789,新規,0,2022-04-08,2022-04-08,株式会社セブントラスト,,株式会社,愛知県,名古屋市中川区,南脇町１丁目１番地,,23,110,4540817,,,,,,,2022-04-08,1,,,,,セブントラスト,0
1249,4180003023695,新規,0,2022-04-08,2022-04-08,合同会社アスモト工業,,合同会社,愛知県,小牧市,外堀３丁目１７６番地の１,,23,219,4850039,,,,,,,2022-04-08,1,,,,,アスモトコウギョウ,0
1250,4180005019725,新規,0,2022-04-08,2022-04-08,一般社団法人Ｌｕａｎａ,,その他の設立登記法人,愛知県,知多郡阿久比町,大字植大字前崎５７番地,,23,441,4702216,,,,,,,2022-04-08,1,,,,,ルアナ,0
1251,4190001029272,新規,0,2022-04-08,2022-04-08,吉崎メッシュ株式会社,,株式会社,三重県,四日市市,楠町吉崎４１８番地２６,,24,202,5100102,,,,,,,2022-04-08,1,,,,,ヨシザキメッシュ,0
1252,4190003003944,新規,0,2022-04-08,2022-04-08,ミエラク経営サポート合同会社,,合同会社,三重県,四日市市,大字茂福２２８９番地１,,24,202,5108027,,,,,,,2022-04-08,1,,,,,ミエラクケイエイサポート,0
1258,4200001039955,新規,0,2022-04-08,2022-04-08,グローバルプランニング株式会社,,株式会社,岐阜県,大垣市,今宿６丁目５２－１６ドリーム・コア４２０,,21,202,5030807,,,,,,,2022-04-08,1,,,,,グローバルプランニング,0
1261,4210001018875,新規,0,2022-04-08,2022-04-08,株式会社Ｐｒｏｄｕｃｔ　Ｏｎｅ,,株式会社,福井県,坂井市,丸岡町一本田中第４３号２番地１１,,18,210,9100253,,,,,,,2022-04-08,1,,,,,プロダクトワン,0
1262,4230001019302,新規,0,2022-04-08,2022-04-08,株式会社ホクショウ防災,,株式会社,富山県,富山市,黒瀬２１２番地７,,16,201,9398213,,,,,,,2022-04-08,1,,,,,ホクショウボウサイ,0
1270,4260001036732,新規,0,2022-04-08,2022-04-08,株式会社マルイシ,,株式会社,岡山県,新見市,唐松２９７２番地１,,33,210,7180012,,,,,,,2022-04-08,1,,,,,マルイシ,0
1276,4290001097111,新規,0,2022-04-08,2022-04-08,株式会社パンダフルライフ,,株式会社,福岡県,糟屋郡久山町,大字久原１７８４番地９,,40,348,8112501,,,,,,,2022-04-08,1,,,,,パンダフルライフ,0
1278,4290005018617,新規,0,2022-04-08,2022-04-08,一般社団法人太宰府観光協会,,その他の設立登記法人,福岡県,太宰府市,宰府３丁目２番３号,,40,221,8180117,,,,,,,2022-04-08,1,,,,,ダザイフカンコウキョウカイ,0
1279,4290005018625,新規,0,2022-04-08,2022-04-08,医療法人本和会六本松稲本クリニック,,その他の設立登記法人,福岡県,福岡市中央区,草香江２丁目１番６ＡＴＲＩＡ六本松７階,,40,133,8100045,,,,,,,2022-04-08,1,,,,,ホンワカイロッポンマツイナモトクリニック,0
1283,4290801028406,新規,0,2022-04-08,2022-04-08,クラフトサービス株式会社,,株式会社,福岡県,田川市,大字川宮１２３番地,,40,206,8260042,,,,,,,2022-04-08,1,,,,,クラフトサービス,0
1284,4290801028422,新規,0,2022-04-08,2022-04-08,株式会社ＹＳＹ,,株式会社,福岡県,行橋市,南泉１丁目１２番８号,,40,213,8240036,,,,,,,2022-04-08,1,,,,,ワイエスワイ,0
1285,4290803004099,新規,0,2022-04-08,2022-04-08,合同会社ＢＫ９,,合同会社,福岡県,行橋市,南泉３丁目６１番１１号,,40,213,8240036,,,,,,,2022-04-08,1,,,,,ビーケイナイン,0
1295,4340005009445,新規,0,2022-04-08,2022-04-08,一般社団法人とくのしま社中,,その他の設立登記法人,鹿児島県,大島郡徳之島町,徳和瀬６１５番地１,,46,530,8917111,,,,,,,2022-04-08,1,,,,,トクノシマシャチュウ,0
1317,4410001013146,新規,0,2022-04-08,2022-04-08,株式会社北日本トラスト,,株式会社,秋田県,秋田市,高陽幸町８番１７号,,05,201,0100967,,,,,,,2022-04-08,1,,,,,キタニホントラスト,0
1324,4430001086405,新規,0,2022-04-08,2022-04-08,ＵＳＡＭＩ株式会社,,株式会社,北海道,札幌市中央区,南一条西５丁目８番地愛生館ビル７Ｆ,,01,101,0600061,,,,,,,2022-04-08,1,,,,,ウサミ,0
1333,4450001013662,新規,0,2022-04-08,2022-04-08,株式会社慶和物産,,株式会社,北海道,紋別市,緑町４丁目１１番２０号,,01,219,0940014,,,,,,,2022-04-08,1,,,,,ケイワブッサン,0
1336,4450005004336,新規,0,2022-04-08,2022-04-08,一般社団法人スマイル,,その他の設立登記法人,北海道,留萌市,栄町３丁目１番２８号,,01,212,0770007,,,,,,,2022-04-08,1,,,,,スマイル,0
1337,4460003000889,新規,0,2022-04-08,2022-04-08,合同会社平尾,,合同会社,北海道,釧路市,鶴野東４丁目１９番４号,,01,206,0840923,,,,,,,2022-04-08,1,,,,,ヒラオ,0
1345,4470001019022,新規,0,2022-04-08,2022-04-08,住まいる館株式会社,,株式会社,香川県,丸亀市,金倉町１４３０番地３,,37,202,7630053,,,,,,,2022-04-08,1,,,,,スマイルカン,0
1346,4470001019030,新規,0,2022-04-08,2022-04-08,ＤＡＩＷＡ．Ｓ．Ｐ株式会社,,株式会社,香川県,高松市,室新町２番地５,,37,201,7618062,,,,,,,2022-04-08,1,,,,,ダイワエスピー,0
1347,4470003002166,新規,0,2022-04-08,2022-04-08,合同会社ホワイト,,合同会社,香川県,高松市,木太町２２０６番地１パルムハウス高松８０５号室,,37,201,7600080,,,,,,,2022-04-08,1,,,,,ホワイト,0
1356,4700150107438,新規,0,2022-04-08,2022-03-18,石井春調会,,その他,京都府,京都市上京区,下山里町２４３ベルスーズ西陣６０４,,26,102,6028265,,,,,,,2022-03-18,1,,,,,イシイシユンチヨウカイ,0
1357,4700150107727,新規,0,2022-04-08,2022-04-08,Ｃｒａｎｓｓｅｔａ　Ｉｎｖｅｓｔｍｅｎｔｓ　Ｌｔｄ．,,外国会社等,,,,,,,,リマソル市スパイロウキプリアノウ通り６１番４００３号エスケーハウス,,,,,,2022-04-08,1,,,,,クランセツタインベストメンツリミテツド,0
1366,5010001225607,新規,0,2022-04-08,2022-04-08,ｅミラクル株式会社,,株式会社,東京都,文京区,湯島１丁目１番２号,,13,105,1130034,,,,,,,2022-04-08,1,,,,,イーミラクル,0
1367,5010001225706,新規,0,2022-04-08,2022-04-08,株式会社オルラボ,,株式会社,東京都,文京区,湯島２丁目６番２号ユシマ新和ビル,,13,105,1130034,,,,,,,2022-04-08,1,,,,,オルラボ,0
1369,5010005034839,新規,0,2022-04-08,2022-04-08,ラム２一般社団法人,,その他の設立登記法人,東京都,中央区,日本橋１丁目４番１号日本橋一丁目ビルディング,,13,102,1030027,,,,,,,2022-04-08,1,,,,,ラムニ,0
1375,5010401166640,新規,0,2022-04-08,2022-04-08,Ｎ‐４１ロジスティクス株式会社,,株式会社,東京都,港区,芝５丁目３６番７号三田ベルジュビル２Ｆ,,13,103,1080014,,,,,,,2022-04-08,1,,,,,エヌヨンイチロジスティクス,0
1376,5010401166723,新規,0,2022-04-08,2022-04-08,ＷｅａｌｔｈＣｏｎｎｅｃｔ　Ｊａｐａｎ株式会社,,株式会社,東京都,港区,元麻布３丁目１番６号,,13,103,1060046,,,,,,,2022-04-08,1,,,,,ウェルスコネクトジャパン,0
1377,5010403027411,新規,0,2022-04-08,2022-04-08,合同会社エムファンド,,合同会社,東京都,港区,虎ノ門４丁目３番１号,,13,103,1050001,,,,,,,2022-04-08,1,,,,,エムファンド,0
1378,5010403027460,新規,0,2022-04-08,2022-04-08,Ｄｉｓｃｏｖｅｒｙ４合同会社,,合同会社,東京都,港区,赤坂２丁目１０番５号税理士法人赤坂国際会計事務所内,,13,103,1070052,,,,,,,2022-04-08,1,,,,,ディスカバリーフォー,0
1380,5010405020876,新規,0,2022-04-08,2022-04-08,一般社団法人日本経営者育成協会,,その他の設立登記法人,東京都,港区,浜松町２丁目２番１５号浜松町ダイヤビル２Ｆ,,13,103,1050013,,,,,,,2022-04-08,1,,,,,ニホンケイエイシャイクセイキョウカイ,0
1382,5010501048680,新規,0,2022-04-08,2022-04-08,株式会社ナガト精工,,株式会社,東京都,台東区,上野３丁目２番２号,,13,106,1100005,,,,,,,2022-04-08,1,,,,,ナガトセイコウ,0
1384,5010503006562,新規,0,2022-04-08,2022-04-08,合同会社エントリーカーボン,,合同会社,東京都,台東区,台東１丁目９－４松浦ビル５Ｆ,,13,106,1100016,,,,,,,2022-04-08,1,,,,,エントリーカーボン,0
1389,5010601060940,新規,0,2022-04-08,2022-04-08,ＳＣＳＫ　ＮＥＣデータセンターマネジメント株式会社,,株式会社,東京都,江東区,豊洲３丁目２番２０号,,13,108,1350061,,,,,,,2022-04-08,1,,,,,エスシーエスケイエヌイーシーデータセンターマネジメント,0
1403,5011001146735,新規,0,2022-04-08,2022-04-08,株式会社ＳＡＮＯＳＵＫＥ＆Ｃｏ．,,株式会社,東京都,渋谷区,神宮前６丁目２３番４号桑野ビル２階,,13,113,1500001,,,,,,,2022-04-08,1,,,,,サノスケアンドコー,0
1404,5011001146792,新規,0,2022-04-08,2022-04-08,株式会社Ｍｅｎｔａｌ　ｔｅｃｈ,,株式会社,東京都,目黒区,東山１丁目２１番１号４０４,,13,110,1530043,,,,,,,2022-04-08,1,,,,,メンタルテック,0
1413,5011101098463,新規,0,2022-04-08,2022-04-08,株式会社住活,,株式会社,東京都,新宿区,西新宿３丁目３番１３号西新宿水間ビル６階,,13,104,1600023,,,,,,,2022-04-08,1,,,,,ジュウカツ,0
1415,5011103011655,新規,0,2022-04-08,2022-04-08,合同会社コウゾウ,,合同会社,東京都,新宿区,新宿１丁目３１番７－２０８号,,13,104,1600022,,,,,,,2022-04-08,1,,,,,コウゾウ,0
1417,5011301027692,新規,0,2022-04-08,2022-04-08,ＴＭコーポレーション株式会社,,株式会社,東京都,杉並区,荻窪３丁目１３番１２号,,13,115,1670051,,,,,,,2022-04-08,1,,,,,ティーエムコーポレーション,0
1421,5011601025875,新規,0,2022-04-08,2022-04-08,株式会社エルプラン,,株式会社,東京都,練馬区,氷川台３丁目６番９号エクレラージュ１階,,13,120,1790084,,,,,,,2022-04-08,1,,,,,エルプラン,0
1422,5011605002441,新規,0,2022-04-08,2022-04-08,税理士法人ＳＡＫＵＲＡ,,その他の設立登記法人,東京都,練馬区,桜台４丁目１９－１７,,13,120,1760002,,,,,,,2022-04-08,1,,,,,サクラ,0
1425,5011701025197,新規,0,2022-04-08,2022-04-08,株式会社Ｕｎｉｔｅ　Ｌｉｆｅ,,株式会社,東京都,江戸川区,興宮町２６番１０号,,13,123,1330042,,,,,,,2022-04-08,1,,,,,ユナイトライフ,0
1427,5011801040534,新規,0,2022-04-08,2022-04-08,株式会社あおいエステートグリーン,,株式会社,東京都,足立区,加賀１丁目２１番５号,,13,121,1230861,,,,,,,2022-04-08,1,,,,,アオイエステートグリーン,0
1428,5011801040542,新規,0,2022-04-08,2022-04-08,株式会社ＳＯＩＬ　ＳＨＯＰ,,株式会社,東京都,足立区,関原２丁目１８番８号,,13,121,1230852,,,,,,,2022-04-08,1,,,,,ソイルショップ,0
1436,5012401039041,新規,0,2022-04-08,2022-04-08,ｆｏｒｅＳｉｇｈｔ株式会社,,株式会社,東京都,三鷹市,上連雀９丁目４番８号,,13,204,1810012,,,,,,,2022-04-08,1,,,,,フォアサイト,0
1460,5020001146018,新規,0,2022-04-08,2022-04-08,株式会社イートデザイン,,株式会社,神奈川県,横浜市港北区,新横浜２丁目１５番９号,,14,109,2220033,,,,,,,2022-04-08,1,,,,,イートデザイン,0
1464,5020003021557,新規,0,2022-04-08,2022-04-08,合同会社ヤマアラシ企画,,合同会社,神奈川県,川崎市宮前区,菅生５丁目１番２４－３号,,14,136,2160015,,,,,,,2022-04-08,1,,,,,ヤマアラシキカク,0
1466,5021001075652,新規,0,2022-04-08,2022-04-08,ＴＡＩＳＥＩ株式会社,,株式会社,神奈川県,横須賀市,坂本町６丁目４０番地２右１Ｆ,,14,201,2380043,,,,,,,2022-04-08,1,,,,,タイセイ,0
1467,5021001075660,新規,0,2022-04-08,2022-04-08,株式会社アングループ,,株式会社,神奈川県,藤沢市,渡内４丁目２番１７号,,14,205,2510011,,,,,,,2022-04-08,1,,,,,アングループ,0
1472,5021003011572,新規,0,2022-04-08,2022-04-08,合同会社絆,,合同会社,神奈川県,海老名市,中央２丁目１１番４０号,,14,215,2430432,,,,,,,2022-04-08,1,,,,,キズナ,0
1473,5021005012486,新規,0,2022-04-08,2022-04-08,医療法人社団カマタ歯科診療所,,その他の設立登記法人,神奈川県,鎌倉市,大船２丁目６番２０号ＭＣＨ大船１階,,14,204,2470056,,,,,,,2022-04-08,1,,,,,カマタシカシンリョウジョ,0
1485,5030001147659,新規,0,2022-04-08,2022-04-08,シニエ８コンサル株式会社,,株式会社,埼玉県,蕨市,南町３丁目２２番地１４号４０１号,,11,223,3350003,,,,,,,2022-04-08,1,,,,,シニエエイトコンサル,0
1486,5030001147667,新規,0,2022-04-08,2022-04-08,彩北リターン株式会社,,株式会社,埼玉県,加須市,土手２丁目２番１２号,,11,210,3470056,,,,,,,2022-04-08,1,,,,,サイホクリターン,0
1487,5030001147675,新規,0,2022-04-08,2022-04-08,株式会社プランイン,,株式会社,埼玉県,さいたま市南区,文蔵２丁目１８番１８号ヴィラ浦和２０２,,11,108,3360025,,,,,,,2022-04-08,1,,,,,,0
1488,5030001147691,新規,0,2022-04-08,2022-04-08,株式会社日健設備,,株式会社,埼玉県,日高市,大字旭ケ丘２５９番地１１,,11,242,3501203,,,,,,,2022-04-08,1,,,,,ニチケンセツビ,0
1499,5030003019154,新規,0,2022-04-08,2022-04-08,合同会社琥博,,合同会社,埼玉県,さいたま市大宮区,三橋４丁目５１８番地５,,11,103,3300856,,,,,,,2022-04-08,1,,,,,コハク,0
1500,5030003019187,新規,0,2022-04-08,2022-04-08,合同会社アグレ,,合同会社,埼玉県,所沢市,北原町８６６番地の１７,,11,208,3590004,,,,,,,2022-04-08,1,,,,,アグレ,0
1503,5040001122850,新規,0,2022-04-08,2022-04-08,株式会社ｂｙｄｅｓｉｇｎ,,株式会社,千葉県,市川市,湊新田１丁目７番１８号,,12,203,2720132,,,,,,,2022-04-08,1,,,,,バイデザイン,0
1504,5040001122909,新規,0,2022-04-08,2022-04-08,株式会社小川総業,,株式会社,千葉県,八街市,朝日３２３番地４０,,12,230,2891101,,,,,,,2022-04-08,1,,,,,オガワソウギョウ,0
1509,5040003019847,新規,0,2022-04-08,2022-04-08,合同会社ハンドレッドフォールド,,合同会社,千葉県,船橋市,駿河台１丁目５－２５－３１３,,12,204,2730862,,,,,,,2022-04-08,1,,,,,ハンドレッドフォールド,0
1510,5050003006489,新規,0,2022-04-08,2022-04-08,Ｅｉｋｅｎわーるど合同会社,,合同会社,茨城県,守谷市,松ケ丘１丁目３３番地６,,08,224,3020127,,,,,,,2022-04-08,1,,,,,エイケンワールド,0
1513,5060001034722,新規,0,2022-04-08,2022-04-08,テクノセンター株式会社,,株式会社,栃木県,宇都宮市,徳次郎町２６２０,,09,201,3212116,,,,,,,2022-04-08,1,,,,,テクノセンター,0
1514,5060001034747,新規,0,2022-04-08,2022-04-08,２２２ＣＯＲＰＯＲＡＴＩＯＮ株式会社,,株式会社,栃木県,小山市,粟宮１丁目１１番２６号,,09,208,3290201,,,,,,,2022-04-08,1,,,,,,0
1522,5080101023210,新規,0,2022-04-08,2022-04-08,株式会社ギルフイ,,株式会社,静岡県,裾野市,須山２２５５番地の２７７９,,22,220,4101231,,,,,,,2022-04-08,1,,,,,ギルフイ,0
1524,5080401025716,新規,0,2022-04-08,2022-04-08,和田建設株式会社,,株式会社,静岡県,浜松市天竜区,佐久間町浦川２９６９番地の１,,22,137,4313906,,,,,,,2022-04-08,1,,,,,ワダケンセツ,0
1525,5080401025740,新規,0,2022-04-08,2022-04-08,株式会社イクシュア,,株式会社,静岡県,浜松市浜北区,於呂字西浦１４６０番地２平山ビル２階,,22,136,4340015,,,,,,,2022-04-08,1,,,,,イクシュア,0
1529,5110001036556,新規,0,2022-04-08,2022-04-08,サトウ建装株式会社,,株式会社,新潟県,柏崎市,番神２丁目４番１０号,,15,205,9450853,,,,,,,2022-04-08,1,,,,,サトウケンソウ,0
1530,5110001036572,新規,0,2022-04-08,2022-04-08,株式会社ワールドソリューション,,株式会社,新潟県,新潟市中央区,堀之内南３丁目７番２１号,,15,103,9500982,,,,,,,2022-04-08,1,,,,,ワールドソリューション,0
1531,5110001036580,新規,0,2022-04-08,2022-04-08,ＣＴＦ株式会社,,株式会社,新潟県,新潟市東区,牡丹山５丁目４番１９号,,15,102,9500872,,,,,,,2022-04-08,1,,,,,シーティーエフ,0
1532,5110003004734,新規,0,2022-04-08,2022-04-08,合同会社せいろうケアプランセンター,,合同会社,新潟県,北蒲原郡聖籠町,大字三賀８５４番地１,,15,307,9570122,,,,,,,2022-04-08,1,,,,,セイロウケアプランセンター,0
1547,5120001245073,新規,0,2022-04-08,2022-04-08,株式会社天寿,,株式会社,大阪府,大阪市西区,北堀江１丁目５番９号,,27,106,5500014,,,,,,,2022-04-08,1,,,,,テンジュ,0
1548,5120001245107,新規,0,2022-04-08,2022-04-08,ＯＫＡＤＡフードサービス株式会社,,株式会社,大阪府,大阪市福島区,海老江５丁目５番１６－２０１号,,27,103,5530001,,,,,,,2022-04-08,1,,,,,オカダフードサービス,0
1549,5120001245115,新規,0,2022-04-08,2022-04-08,株式会社ミヤマ,,株式会社,大阪府,寝屋川市,打上元町１４番１２号,,27,215,5720858,,,,,,,2022-04-08,1,,,,,ミヤマ,0
1550,5120001245123,新規,0,2022-04-08,2022-04-08,株式会社ＫＪプロパティ,,株式会社,大阪府,大阪市港区,南市岡３丁目１番１０号,,27,107,5520011,,,,,,,2022-04-08,1,,,,,ケイジェイプロパティ,0
1553,5120003021448,新規,0,2022-04-08,2022-04-08,合同会社Ｒ‐ｓｔｙｌｅ,,合同会社,大阪府,大阪市中央区,高津１丁目１０番１５号１００２号,,27,128,5420072,,,,,,,2022-04-08,1,,,,,アールスタイル,0
1556,5120005022873,新規,0,2022-04-08,2022-04-08,ＺＥＲＯ行政書士法人,,その他の設立登記法人,大阪府,大阪市中央区,内平野町１丁目２番６号ダイアパレス大手前３０４号室,,27,128,5400037,,,,,,,2022-04-08,1,,,,,ゼロ,0
1560,5120901045795,新規,0,2022-04-08,2022-04-08,株式会社アイニック,,株式会社,大阪府,豊中市,熊野町３丁目１５番５号,,27,203,5600014,,,,,,,2022-04-08,1,,,,,アイニック,0
1561,5120901045829,新規,0,2022-04-08,2022-04-08,株式会社モンスター,,株式会社,大阪府,摂津市,一津屋３丁目５番５号,,27,224,5660043,,,,,,,2022-04-08,1,,,,,モンスター,0
1565,5122001035735,新規,0,2022-04-08,2022-04-08,株式会社キャッチアップ,,株式会社,大阪府,東大阪市,西堤本通西１丁目４番１５号,,27,227,5770046,,,,,,,2022-04-08,1,,,,,キャッチアップ,0
1566,5122001035751,新規,0,2022-04-08,2022-04-08,株式会社Ｕｌｙｓｓｅｓ,,株式会社,大阪府,東大阪市,六万寺町２丁目７番３０－１０５号,,27,227,5798061,,,,,,,2022-04-08,1,,,,,ユリシス,0
1567,5122003002312,新規,0,2022-04-08,2022-04-08,合同会社Ｎａｗａｔｅ　Ｔｒａｄｉｎｇ,,合同会社,大阪府,四條畷市,岡山２丁目１６番７号,,27,229,5750002,,,,,,,2022-04-08,1,,,,,ナワテトレーディング,0
1571,5130001071477,新規,0,2022-04-08,2022-04-08,Ａ　Ｃｏｎｎｅｃｔ株式会社,,株式会社,京都府,京都市伏見区,醍醐上山口町３１－２４,,26,109,6011342,,,,,,,2022-04-08,1,,,,,エーコネクト,0
1574,5130005016429,新規,0,2022-04-08,2022-04-08,医療法人康順会,,その他の設立登記法人,京都府,京都市中京区,御池通室町東入龍池町４４８番地２伊と幸ビル３階,,26,104,6048176,,,,,,,2022-04-08,1,,,,,コウジュンカイ,0
1584,5140001125447,新規,0,2022-04-08,2022-04-08,株式会社ｍｏｒｅ,,株式会社,兵庫県,姫路市,東辻井３丁目３番１０号,00126195,28,201,6700084,,,,,,,2022-04-08,1,,,,,モア,0
1585,5140001125463,新規,0,2022-04-08,2022-04-08,株式会社西川左官,,株式会社,兵庫県,姫路市,豊富町御蔭２１６４番地２,,28,201,6792122,,,,,,,2022-04-08,1,,,,,ニシカワサカン,0
1586,5140001125471,新規,0,2022-04-08,2022-04-08,株式会社淡路工舎,,株式会社,兵庫県,洲本市,安乎町平安浦６８１番地,,28,205,6562121,,,,,,,2022-04-08,1,,,,,アワジコウシャ,0
1587,5140001125488,新規,0,2022-04-08,2022-04-08,ＷＷＥ株式会社,,株式会社,兵庫県,尼崎市,武庫之荘２丁目２番２－３０５号,,28,202,6610035,,,,,,,2022-04-08,1,,,,,ダブリューダブリューイー,0
1588,5140001125570,新規,0,2022-04-08,2022-04-08,株式会社向陽,,株式会社,兵庫県,芦屋市,西蔵町１番８号,,28,206,6590026,,,,,,,2022-04-08,1,,,,,コウヨウ,0
1594,5160001024110,新規,0,2022-04-08,2022-04-08,株式会社アイ・プラウド,,株式会社,滋賀県,東近江市,上平木町１６６４番地,,25,213,5270086,,,,,,,2022-04-08,1,,,,,アイプラウド,0
1595,5160003002543,新規,0,2022-04-08,2022-04-08,恵風合同会社,,合同会社,滋賀県,大津市,本宮２丁目４４番８号,,25,201,5200804,,,,,,,2022-04-08,1,,,,,ケイフウ,0
1596,5170001017039,新規,0,2022-04-08,2022-04-08,宝正建工株式会社,,株式会社,和歌山県,和歌山市,和歌浦東２丁目５番１０号,,30,201,6410021,,,,,,,2022-04-08,1,,,,,ホウセイケンコウ,0
1598,5180001150697,新規,0,2022-04-08,2022-04-08,店舗セーフティー株式会社,,株式会社,愛知県,名古屋市中村区,名駅３丁目２６番８号,,23,105,4500002,,,,,,,2022-04-08,1,,,,,テンポセーフティー,0
1599,5180001150722,新規,0,2022-04-08,2022-04-08,株式会社ＴＣＨ,,株式会社,愛知県,日進市,岩崎町新ラ田１２５番地１０,,23,230,4700131,,,,,,,2022-04-08,1,,,,,ティーシーエイチ,0
1600,5180001150730,新規,0,2022-04-08,2022-04-08,株式会社ｅｌｐｉｓ,,株式会社,愛知県,半田市,のぞみが丘２丁目９８番地,,23,205,4750019,,,,,,,2022-04-08,1,,,,,エルピス,0
1601,5180001150739,新規,0,2022-04-08,2022-04-08,株式会社ｆｆｆ　ｆｏｒｔｉｓｓｉｓｓｉｍｏ,,株式会社,愛知県,名古屋市千種区,春岡２丁目２６番１５号,,23,101,4640848,,,,,,,2022-04-08,1,,,,,エフエフエフフォルテッシシモ,0
1602,5180001150747,新規,0,2022-04-08,2022-04-08,株式会社ルーティングフォー,,株式会社,愛知県,名古屋市北区,金城３丁目６番６号メイツ名城公園４０２号,,23,103,4620847,,,,,,,2022-04-08,1,,,,,ルーティングフォー,0
1603,5180001150788,新規,0,2022-04-08,2022-04-08,日章真郷運送株式会社,,株式会社,愛知県,名古屋市中川区,清船町１丁目１番地の６,,23,110,4540832,,,,,,,2022-04-08,1,,,,,ニッショウシンゴウウンソウ,0
1606,5180305009326,新規,0,2022-04-08,2022-04-08,一般社団法人豊田ドローン協会,,その他の設立登記法人,愛知県,豊田市,深田町１丁目１９番地３,,23,211,4710841,,,,,,,2022-04-08,1,,,,,トヨタドローンキョウカイ,0
1607,5190001029288,新規,0,2022-04-08,2022-04-08,株式会社ＬＩＮＫ　ＳＴＹＬＥ,,株式会社,三重県,三重郡菰野町,大字杉谷２２８６番地５０,,24,341,5101326,,,,,,,2022-04-08,1,,,,,リンクスタイル,0
1611,5200001039962,新規,0,2022-04-08,2022-04-08,株式会社ヴェリテ,,株式会社,岐阜県,大垣市,領家町３丁目７１番地１０,,21,202,5030014,,,,,,,2022-04-08,1,,,,,ヴェリテ,0
1615,5210001018882,新規,0,2022-04-08,2022-04-08,株式会社ＧｏｏｄＴｉｍｅ,,株式会社,福井県,鯖江市,本町３丁目３番６－１号,,18,207,9160026,,,,,,,2022-04-08,1,,,,,グッドタイム,0
1618,5220005008648,新規,0,2022-04-08,2022-04-08,一般社団法人野々市市観光物産協会,,その他の設立登記法人,石川県,野々市市,本町２丁目１番２０号,,17,212,9218815,,,,,,,2022-04-08,1,,,,,ノノイチシカンコウブッサンキョウカイ,0
1629,5260005011061,新規,0,2022-04-08,2022-04-08,森未来・美作木材協同組合,,その他の設立登記法人,岡山県,美作市,宮本５０番地１,,33,215,7070415,,,,,,,2022-04-08,1,,,,,モリミライミマサカモクザイ,0
1631,5270005005509,新規,0,2022-04-08,2022-04-08,税理士法人ユア・サポート,,その他の設立登記法人,鳥取県,米子市,義方町１４番５号,,31,202,6830844,,,,,,,2022-04-08,1,,,,,ユアサポート,0
1634,5280003001599,新規,0,2022-04-08,2022-04-08,合同会社アイエムライト,,合同会社,島根県,出雲市,斐川町求院７５９番地２,,32,203,6990614,,,,,,,2022-04-08,1,,,,,アイエムライト,0
1642,5290003012348,新規,0,2022-04-08,2022-04-08,合同会社里山社,,合同会社,福岡県,福岡市中央区,今泉２丁目１番７０号ロマネスク天神第２－４０６号,,40,133,8100021,,,,,,,2022-04-08,1,,,,,サトヤマシャ,0
1643,5290003012356,新規,0,2022-04-08,2022-04-08,合同会社ＯＫＯＭＥ,,合同会社,福岡県,福岡市南区,南大橋１丁目２６番１８号,,40,134,8150034,,,,,,,2022-04-08,1,,,,,オコメ,0
1644,5290003012372,新規,0,2022-04-08,2022-04-08,合同会社ＭＩＣＯ規格,,合同会社,福岡県,大牟田市,西浜田町７番地３,,40,202,8360027,,,,,,,2022-04-08,1,,,,,ミコキカク,0
1645,5290003012380,新規,0,2022-04-08,2022-04-08,オーバーグラウンド合同会社,,合同会社,福岡県,福岡市博多区,美野島１丁目１７番５号２Ｆ,,40,132,8120017,,,,,,,2022-04-08,1,,,,,オーバーグラウンド,0
1652,5290803004098,新規,0,2022-04-08,2022-04-08,Ｇｏｌａｚｏ合同会社,,合同会社,福岡県,行橋市,大字大野井７７７番地６メルヴェール・コンフォルト２０１,,40,213,8240041,,,,,,,2022-04-08,1,,,,,ゴラッソ,0
1654,5300001012876,新規,0,2022-04-08,2022-04-08,株式会社ＮＵＭＢＥＲ　ＥＩＧＨＴ,,株式会社,佐賀県,伊万里市,新天町４６３番地２,,41,205,8480041,,,,,,,2022-04-08,1,,,,,ナンバーエイト,0
1655,5310003004326,新規,0,2022-04-08,2022-04-08,合同会社和み,,合同会社,長崎県,長崎市,若草町１８番１８号,,42,201,8528023,,,,,,,2022-04-08,1,,,,,ナゴミ,0
1656,5320001018995,新規,0,2022-04-08,2022-04-08,株式会社別府グリーンサービス,,株式会社,大分県,別府市,大字鶴見３７９４番地の２９,,44,202,8740840,,,,,,,2022-04-08,1,,,,,ベップグリーンサービス,0
1666,5330003009315,新規,0,2022-04-08,2022-04-08,合同会社スリーパートナーズ,,合同会社,熊本県,熊本市南区,八幡９丁目７番２号,,43,104,8614113,,,,,,,2022-04-08,1,,,,,スリーパートナーズ,0
1669,5340003003754,新規,0,2022-04-08,2022-04-08,合同会社伊佐ファーム,,合同会社,鹿児島県,伊佐市,菱刈前目２１７７番地２,,46,224,8952701,,,,,,,2022-04-08,1,,,,,イサファーム,0
1672,5370005010465,新規,0,2022-04-08,2022-04-08,社会福祉法人涌谷修紅学舎,,その他の設立登記法人,宮城県,遠田郡涌谷町,字追廻町１７番地,,04,501,9870165,,,,,,,2022-04-08,1,,,,,ワクヤシュウコウガクシャ,0
1679,5400005008233,新規,0,2022-04-08,2022-04-08,一般社団法人岩手県ソフトボール協会,,その他の設立登記法人,岩手県,盛岡市,みたけ４丁目１１番５５号,,03,201,0200122,,,,,,,2022-04-08,1,,,,,イワテケンソフトボールキョウカイ,0
1687,5430001086362,新規,0,2022-04-08,2022-04-08,株式会社ｓｈｉＲｏ,,株式会社,北海道,札幌市東区,北三十五条東２２丁目３番２６号,,01,103,0070835,,,,,,,2022-04-08,1,,,,,シロ,0
1691,5430005014435,新規,0,2022-04-08,2022-04-08,一般社団法人新ひだか観光協会,,その他の設立登記法人,北海道,日高郡新ひだか町,静内本町５丁目１番２１号,,01,610,0560016,,,,,,,2022-04-08,1,,,,,シンヒダカカンコウキョウカイ,0
1692,5440001009058,新規,0,2022-04-08,2022-04-08,ノベルティ株式会社,,株式会社,北海道,函館市,石川町１３１番地７９,,01,202,0410802,,,,,,,2022-04-08,1,,,,,ノベルティ,0
1693,5440003001450,新規,0,2022-04-08,2022-04-08,合同会社ひかり,,合同会社,北海道,函館市,湯川町２丁目４３番４号,,01,202,0420932,,,,,,,2022-04-08,1,,,,,ヒカリ,0
1695,5470001019021,新規,0,2022-04-08,2022-04-08,ＡＳＰ株式会社,,株式会社,香川県,高松市,北浜町１１番７－６０４号,,37,201,7600031,,,,,,,2022-04-08,1,,,,,エーエスピー,0
1701,5700150107346,新規,0,2022-04-08,2022-03-10,滋賀県特別支援学校ＰＴＡ連絡協議会,,その他,滋賀県,栗東市,川辺６６４番地,,25,208,5203014,,,,,,,2022-03-10,1,,,,,シガケントクベツシエンガツコウピーテイーエーレンラクキヨウギカイ,0
1702,5700150107726,新規,0,2022-04-08,2022-04-08,ＩＮＴＥＲＶＡＬＬＥ　ＬＩＭＩＴＥＤ,,外国会社等,東京都,台東区,谷中３丁目１８－１０,,13,106,1100001,英国　ＮＧ１６ＥＥ　ノッティンガム　パークロウ３３バットダイワハウス３階,,,,,,2022-04-08,1,,,,,インターバルリミテツド,0
1715,6010001225515,新規,0,2022-04-08,2022-04-08,ショップバック・ジャパン株式会社,,株式会社,東京都,千代田区,霞が関３丁目２番５号霞が関ビルディング１３階狛・小野グローカル法律事務所内,,13,101,1000013,,,,,,,2022-04-08,1,,,,,ショップバックジャパン,0
1716,6010001225622,新規,0,2022-04-08,2022-04-08,株式会社デジタルグロー,,株式会社,東京都,文京区,大塚５丁目７番１２号ＮＫビル新大塚３階,00126202,13,105,1120012,,,,,,,2022-04-08,1,,,,,デジタルグロー,0
1717,6010001225647,新規,0,2022-04-08,2022-04-08,株式会社ＴＴＣ,,株式会社,東京都,中央区,新川２丁目６番１６号,,13,102,1040033,,,,,,,2022-04-08,1,,,,,ティーティーシー,0
1718,6010001225754,新規,0,2022-04-08,2022-04-08,ＴＮＣ株式会社,,株式会社,東京都,中央区,日本橋１丁目１３－１日鉄日本橋ビル３階ＷＡＷ日本橋,,13,102,1030027,,,,,,,2022-04-08,1,,,,,ティエヌシー,0
1724,6010005034821,新規,0,2022-04-08,2022-04-08,一般社団法人国際歴史論戦研究所,,その他の設立登記法人,東京都,文京区,水道２丁目６番３号日本出版協会ビル２０３号,,13,105,1120005,,,,,,,2022-04-08,1,,,,,コクサイレキシロンセンケンキュウジョ,0
1726,6010401166598,新規,0,2022-04-08,2022-04-08,株式会社ＳＰＧホールディングス,,株式会社,東京都,港区,西新橋３丁目１０番３号西新橋ＨＳビル３階,,13,103,1050003,,,,,,,2022-04-08,1,,,,,エスピージーホールディングス,0
1727,6010401166615,新規,0,2022-04-08,2022-04-08,株式会社エンジニアシップ,,株式会社,東京都,港区,南青山２丁目２番１５号,,13,103,1070062,,,,,,,2022-04-08,1,,,,,エンジニアシップ,0
1728,6010401166689,新規,0,2022-04-08,2022-04-08,株式会社タイムストーン,,株式会社,東京都,港区,浜松町２丁目２番１５号浜松町ダイヤビル２Ｆ,,13,103,1050013,,,,,,,2022-04-08,1,,,,,タイムストーン,0
1731,6010405020875,新規,0,2022-04-08,2022-04-08,一般社団法人クリエイターエコノミー協会,,その他の設立登記法人,東京都,港区,北青山３丁目１番２号青山セント・シオンビル４階,,13,103,1070061,,,,,,,2022-04-08,1,,,,,クリエイターエコノミーキョウカイ,0
1732,6010405020909,新規,0,2022-04-08,2022-04-08,一般社団法人ＵＡＦ,,その他の設立登記法人,東京都,港区,虎ノ門３丁目２２番１０－２０１号,,13,103,1050001,,,,,,,2022-04-08,1,,,,,ユーエーエフ,0
1737,6010601060948,新規,0,2022-04-08,2022-04-08,株式会社Ｘｉｂｅｒｌｉｎｃ,,株式会社,東京都,墨田区,横川１丁目１６番３号横川倉庫センターオブガレージ,,13,107,1300003,,,,,,,2022-04-08,1,,,,,ザイバーリンク,0
1740,6010701042458,新規,0,2022-04-08,2022-04-08,ｅＬｉｆｅ株式会社,,株式会社,東京都,品川区,西五反田３丁目１１番６号,,13,109,1410031,,,,,,,2022-04-08,1,,,,,イーライフ,0
1752,6011001146775,新規,0,2022-04-08,2022-04-08,株式会社ＩＫＩＧＡＩ,,株式会社,東京都,渋谷区,千駄ヶ谷１丁目１３番６－８０２号,,13,113,1510051,,,,,,,2022-04-08,1,,,,,イキガイ,0
1753,6011001146783,新規,0,2022-04-08,2022-04-08,ふるさと兄弟株式会社,,株式会社,東京都,渋谷区,神宮前３丁目２７番１４号,,13,113,1500001,,,,,,,2022-04-08,1,,,,,フルサトキョウダイ,0
1754,6011001146800,新規,0,2022-04-08,2022-04-08,ｔｏｋｙｏ　ｆａｒｍｆｏｏｄ株式会社,,株式会社,東京都,目黒区,三田１丁目５番５号ＹＥＢＩＳＦＬＡＴ２階,,13,110,1530062,,,,,,,2022-04-08,1,,,,,トーキョーファームフード,0
1755,6011001146817,新規,0,2022-04-08,2022-04-08,株式会社アンバー,,株式会社,東京都,渋谷区,神宮前６丁目３５番３－４０３号,,13,113,1500001,,,,,,,2022-04-08,1,,,,,アンバー,0
1756,6011003014484,新規,0,2022-04-08,2022-04-08,合同会社ぽわろ,,合同会社,東京都,渋谷区,渋谷２丁目１９番１５－６０９号宮益坂ビルディング,,13,113,1500002,,,,,,,2022-04-08,1,,,,,ポワロ,0
1760,6011101098454,新規,0,2022-04-08,2022-04-08,株式会社トロイデ,,株式会社,東京都,新宿区,四谷３丁目１３番地ＳＥＡＢＩＲＤビル２階,,13,104,1600004,,,,,,,2022-04-08,1,,,,,トロイデ,0
1761,6011101098479,新規,0,2022-04-08,2022-04-08,株式会社ＦＯＲ　ＳＣＥＬＴＡ,,株式会社,東京都,新宿区,西早稲田２丁目６番１号,,13,104,1690051,,,,,,,2022-04-08,1,,,,,フォーシェルタ,0
1770,6011503005132,新規,0,2022-04-08,2022-04-08,ＩＧＭ合同会社,,合同会社,東京都,北区,中里２丁目１６番７号,,13,117,1140015,,,,,,,2022-04-08,1,,,,,アイジーエム,0
1772,6011601025874,新規,0,2022-04-08,2022-04-08,株式会社ＹＪカンパニー,,株式会社,東京都,練馬区,南田中３丁目２５番１４号,,13,120,1770035,,,,,,,2022-04-08,1,,,,,ワイジェーカンパニー,0
1777,6011801040541,新規,0,2022-04-08,2022-04-08,株式会社ウィズ,,株式会社,東京都,足立区,保塚町１８番１号,00126216,13,121,1200000,,,,,,,2022-04-08,1,,,,,ウィズ,0
1779,6012401039049,新規,0,2022-04-08,2022-04-08,株式会社ソフィア,,株式会社,東京都,調布市,布田１丁目２６番地１０,,13,208,1820024,,,,,,,2022-04-08,1,,,,,ソフィア,0
1786,6012805003105,新規,0,2022-04-08,2022-04-08,一般社団法人関東地区砕石協会,,その他の設立登記法人,東京都,立川市,曙町２丁目２６番地１０号,,13,202,1900012,,,,,,,2022-04-08,1,,,,,カントウチクサイセキキョウカイ,0
1792,6013301048899,新規,0,2022-04-08,2022-04-08,カンバンクラウド株式会社,,株式会社,東京都,豊島区,東池袋３丁目１１番９号下総屋ビル６０１号室,,13,116,1700013,,,,,,,2022-04-08,1,,,,,カンバンクラウド,0
1793,6013301048908,新規,0,2022-04-08,2022-04-08,株式会社ＰＩＡＯＭ,,株式会社,東京都,豊島区,池袋本町１丁目２３番４号,,13,116,1700011,,,,,,,2022-04-08,1,,,,,ピアオーム,0
1794,6013301048916,新規,0,2022-04-08,2022-04-08,株式会社イキルカテ,,株式会社,東京都,豊島区,東池袋４丁目２１番１号アウルタワー３０３,,13,116,1700013,,,,,,,2022-04-08,1,,,,,イキルカテ,0
1805,6020001145968,新規,0,2022-04-08,2022-04-08,アークフーズ株式会社,,株式会社,神奈川県,横浜市金沢区,鳥浜町１番地１,,14,108,2360002,,,,,,,2022-04-08,1,,,,,アークフーズ,0
1806,6020001146000,新規,0,2022-04-08,2022-04-08,株式会社小松総業,,株式会社,神奈川県,横浜市鶴見区,佃野町１５番９号,,14,101,2300061,,,,,,,2022-04-08,1,,,,,コマツソウギョウ,0
1810,6020005015465,新規,0,2022-04-08,2022-04-08,一般社団法人大師ＯＮＥ博,,その他の設立登記法人,神奈川県,川崎市川崎区,大師町１５番４号,,14,131,2100816,,,,,,,2022-04-08,1,,,,,ダイシワンパク,0
1811,6020005015473,新規,0,2022-04-08,2022-04-08,協同組合カワサキデンセツ,,その他の設立登記法人,神奈川県,川崎市川崎区,宮本町３番地５,,14,131,2100004,,,,,,,2022-04-08,1,,,,,カワサキデンセツ,0
1813,6021001075651,新規,0,2022-04-08,2022-04-08,ラッシュカンパニー株式会社,,株式会社,神奈川県,藤沢市,辻堂元町１丁目９番７－１０１号,,14,205,2510043,,,,,,,2022-04-08,1,,,,,ラッシュカンパニー,0
1820,6030001147550,新規,0,2022-04-08,2022-04-08,株式会社ＬＯＣＰＨＡＴ,,株式会社,埼玉県,さいたま市北区,奈良町１０８番地６東プラザＢ－５,,11,102,3310822,,,,,,,2022-04-08,1,,,,,ロクファット,0
1821,6030001147575,新規,0,2022-04-08,2022-04-08,株式会社彦代,,株式会社,埼玉県,さいたま市南区,内谷５丁目５番２１号,,11,108,3360034,,,,,,,2022-04-08,1,,,,,ゲンダイ,0
1822,6030001147617,新規,0,2022-04-08,2022-04-08,株式会社インテリアＹＡＭＡ,,株式会社,埼玉県,草加市,金明町１０５７番地３,,11,221,3400052,,,,,,,2022-04-08,1,,,,,インテリアヤマ,0
1823,6030001147666,新規,0,2022-04-08,2022-04-08,スピードネットワーク株式会社,,株式会社,埼玉県,八潮市,大字南川崎８３１番地２サウスヴィラ１０２号,,11,234,3400814,,,,,,,2022-04-08,1,,,,,スピードネットワーク,0
1827,6030003019186,新規,0,2022-04-08,2022-04-08,シンワ合同会社,,合同会社,埼玉県,吉川市,きよみ野４丁目１番地６－１０５,,11,243,3420058,,,,,,,2022-04-08,1,,,,,シンワ,0
1829,6030005020794,新規,0,2022-04-08,2022-04-08,行政書士法人長岡事務所,,その他の設立登記法人,埼玉県,川越市,脇田本町２４番地１８,,11,201,3501123,,,,,,,2022-04-08,1,,,,,ナガオカジムショ,0
1835,6040001122825,新規,0,2022-04-08,2022-04-08,株式会社ｔｒｉｂｅ,,株式会社,千葉県,我孫子市,我孫子１丁目４番５号我孫子ビル２Ｆ,,12,222,2701166,,,,,,,2022-04-08,1,,,,,トライブ,0
1836,6040001122916,新規,0,2022-04-08,2022-04-08,株式会社ヴィクタス,,株式会社,千葉県,木更津市,真里谷１８３０番地４,,12,206,2920201,,,,,,,2022-04-08,1,,,,,ヴィクタス,0
1840,6040003019805,新規,0,2022-04-08,2022-04-08,合同会社アルページュ,,合同会社,千葉県,君津市,西坂田３丁目６番１１号,,12,225,2991145,,,,,,,2022-04-08,1,,,,,アルページュ,0
1841,6040003019854,新規,0,2022-04-08,2022-04-08,合同会社Ｒｅスタジオ,,合同会社,千葉県,松戸市,中和倉１９３番地の７,,12,207,2700025,,,,,,,2022-04-08,1,,,,,アールイースタジオ,0
1846,6050001050918,新規,0,2022-04-08,2022-04-08,風林火山株式会社,,株式会社,茨城県,守谷市,松ケ丘３丁目１７番４号,,08,224,3020127,,,,,,,2022-04-08,1,,,,,フウリンカザン,0
1847,6050001050926,新規,0,2022-04-08,2022-04-08,株式会社ＮＥＸＴ　ＩＮＮＯＶＡＴｉＯＮ,,株式会社,茨城県,潮来市,潮来１０５７番地５,,08,223,3112424,,,,,,,2022-04-08,1,,,,,ネクストイノベーション,0
1851,6050003006488,新規,0,2022-04-08,2022-04-08,合同会社かやの木,,合同会社,茨城県,潮来市,あやめ１丁目９番地４,,08,223,3112425,,,,,,,2022-04-08,1,,,,,カヤノキ,0
1854,6060001034746,新規,0,2022-04-08,2022-04-08,株式会社きづ菜,,株式会社,栃木県,小山市,駅南町６丁目７番１９号,,09,208,3230822,,,,,,,2022-04-08,1,,,,,,0
1855,6060003004020,新規,0,2022-04-08,2022-04-08,５Ｓ　Ｍｏｂｉｌｅ合同会社,,合同会社,栃木県,足利市,鹿島町３８７－１０クレインヒルズマンション３０３,,09,202,3260844,,,,,,,2022-04-08,1,,,,,ファイブエスモバイル,0
1858,6060005009967,新規,0,2022-04-08,2022-04-08,一般社団法人宇都宮観光コンベンション協会,,その他の設立登記法人,栃木県,宇都宮市,中央３丁目１番４号,,09,201,3200806,,,,,,,2022-04-08,1,,,,,ウツノミヤカンコウコンベンションキョウカイ,0
1862,6070001039125,新規,0,2022-04-08,2022-04-08,株式会社ナカデン倶楽部,,株式会社,群馬県,前橋市,駒形町１５０６番地,,10,201,3792122,,,,,,,2022-04-08,1,,,,,ナカデンクラブ,0
1877,6080403004510,新規,0,2022-04-08,2022-04-08,合同会社フカミ,,合同会社,静岡県,袋井市,深見２４１０番地,,22,216,4370051,,,,,,,2022-04-08,1,,,,,フカミ,0
1878,6080405007445,新規,0,2022-04-08,2022-04-08,医療法人社団律和正,,その他の設立登記法人,静岡県,浜松市北区,三方原町２２８番地の４,,22,135,4338105,,,,,,,2022-04-08,1,,,,,リツワショウ,0
1880,6100001035244,新規,0,2022-04-08,2022-04-08,株式会社ＸＡＸＡ,,株式会社,長野県,松本市,村井町北２丁目１３番６５号,,20,202,3990035,,,,,,,2022-04-08,1,,,,,ザザ,0
1881,6100003006499,新規,0,2022-04-08,2022-04-08,合同会社インマイライフプロダクション,,合同会社,長野県,上田市,中央６丁目１５番１号,,20,203,3860012,,,,,,,2022-04-08,1,,,,,インマイライフプロダクション,0
1884,6110003004733,新規,0,2022-04-08,2022-04-08,合同会社樽山,,合同会社,新潟県,南魚沼市,塩沢３７番地,,15,226,9496408,,,,,,,2022-04-08,1,,,,,タルヤマ,0
1894,6120001244891,新規,0,2022-04-08,2022-04-08,ＴＥ株式会社,,株式会社,大阪府,大阪市城東区,中央２丁目１５番２３号,,27,118,5360005,,,,,,,2022-04-08,1,,,,,ティーイー,0
1895,6120001245072,新規,0,2022-04-08,2022-04-08,株式会社ＭＩＺＥＮ,,株式会社,大阪府,大阪市西区,立売堀１丁目１番５号本町ギボービル６階,,27,106,5500012,,,,,,,2022-04-08,1,,,,,ミゼン,0
1896,6120003021447,新規,0,2022-04-08,2022-04-08,合同会社遠瀛,,合同会社,大阪府,大阪市浪速区,元町３丁目９番１－５０５号,,27,111,5560016,,,,,,,2022-04-08,1,,,,,エンエイ,0
1897,6120003021455,新規,0,2022-04-08,2022-04-08,イーシス合同会社,,合同会社,大阪府,大阪市天王寺区,悲田院町１－３８ザ天王寺レジデンス３１２,,27,109,5430055,,,,,,,2022-04-08,1,,,,,イーシス,0
1900,6120101065354,新規,0,2022-04-08,2022-04-08,ＳＨＩＮ株式会社,,株式会社,大阪府,堺市西区,浜寺昭和町２丁２６１番地７,,27,144,5928345,,,,,,,2022-04-08,1,,,,,シン,0
1901,6120103004640,新規,0,2022-04-08,2022-04-08,合同会社花さくら,,合同会社,大阪府,高石市,千代田七丁目１番５３号,,27,225,5920000,,,,,,,2022-04-08,1,,,,,ハナサクラ,0
1912,6130001071468,新規,0,2022-04-08,2022-04-08,株式会社京都カレンシア,,株式会社,京都府,京都市中京区,錦小路通猪熊西入ル七軒町４８６番地ＲＯＳＥビル３Ｆ,,26,104,6040000,,,,,,,2022-04-08,1,,,,,キョウトカレンシア,0
1913,6130001071492,新規,0,2022-04-08,2022-04-08,スター警備株式会社,,株式会社,京都府,京都市南区,東九条西山町２６番地１１－１０１号,,26,107,6018046,,,,,,,2022-04-08,1,,,,,スターケイビ,0
1914,6130001071501,新規,0,2022-04-08,2022-04-08,Ｍ＆Ｔ　Ｈｅａｌｔｈ　Ｃａｒｅ株式会社,,株式会社,京都府,京都市左京区,岩倉南四ノ坪町２５番地２,,26,103,6060033,,,,,,,2022-04-08,1,,,,,エムアンドティーヘルスケア,0
1921,6140001125446,新規,0,2022-04-08,2022-04-08,株式会社リフォームみずとり,,株式会社,兵庫県,神戸市長田区,若松町１１丁目２番９号,,28,106,6530038,,,,,,,2022-04-08,1,,,,,リフォームミズトリ,0
1922,6140001125462,新規,0,2022-04-08,2022-04-08,共栄メンテナンス株式会社,,株式会社,兵庫県,尼崎市,塚口本町２丁目１番１５号アラカサＩＩ４０５号,00126196,28,202,6610001,,,,,,,2022-04-08,1,,,,,キョウエイメンテナンス,0
1923,6140001125529,新規,0,2022-04-08,2022-04-08,株式会社Ｉ．Ｄ．Ｓ,,株式会社,兵庫県,西宮市,西田町１番５号１４－１,,28,204,6620034,,,,,,,2022-04-08,1,,,,,アイディーエス,0
1928,6150001025439,新規,0,2022-04-08,2022-04-08,ＺＥＳＴ株式会社,,株式会社,奈良県,天理市,二階堂北菅田町５８番地,,29,204,6320088,,,,,,,2022-04-08,1,,,,,ゼスト,0
1932,6160003002542,新規,0,2022-04-08,2022-04-08,合同会社スギモト機工,,合同会社,滋賀県,蒲生郡竜王町,大字山之上２３０３番地,,25,384,5202531,,,,,,,2022-04-08,1,,,,,,0
1937,6180001150655,新規,0,2022-04-08,2022-04-08,アスプロ株式会社,,株式会社,愛知県,名古屋市熱田区,千年２丁目１２番８号－２,,23,109,4560054,,,,,,,2022-04-08,1,,,,,アスプロ,0
1938,6180001150746,新規,0,2022-04-08,2022-04-08,株式会社ＫＩＫ,,株式会社,愛知県,清須市,春日中沼５３番地－２Ａ,,23,233,4520962,,,,,,,2022-04-08,1,,,,,ケイアイケイ,0
1939,6180001150787,新規,0,2022-04-08,2022-04-08,株式会社ＳＴＯＲＹ,,株式会社,愛知県,稲沢市,平和町下起中２１番地,,23,220,4901323,,,,,,,2022-04-08,1,,,,,ストーリー,0
1940,6180001150795,新規,0,2022-04-08,2022-04-08,株式会社フィデリティジャパン,,株式会社,愛知県,犬山市,天神町１丁目１３番地１,,23,215,4840073,,,,,,,2022-04-08,1,,,,,フィデリティジャパン,0
1941,6180001150804,新規,0,2022-04-08,2022-04-08,株式会社ＩＫＥＯＨ,,株式会社,愛知県,長久手市,熊田５０１番地,,23,238,4801144,,,,,,,2022-04-08,1,,,,,イケオウ,0
1946,6190001029287,新規,0,2022-04-08,2022-04-08,株式会社ジェクティスタッフ,,株式会社,三重県,四日市市,諏訪町４番５号,,24,202,5100085,,,,,,,2022-04-08,1,,,,,ジェクティスタッフ,0
1950,6200001039937,新規,0,2022-04-08,2022-04-08,株式会社ギフ・コアバランス,,株式会社,岐阜県,岐阜市,則武中１丁目１９番９号,,21,201,5020932,,,,,,,2022-04-08,1,,,,,ギフコアバランス,0
1951,6200001039961,新規,0,2022-04-08,2022-04-08,株式会社ビルド,,株式会社,岐阜県,大垣市,禾森町６丁目１３番地三貴ビル１階西,,21,202,5030852,,,,,,,2022-04-08,1,,,,,ビルド,0
1952,6200005013327,新規,0,2022-04-08,2022-04-08,税理士法人橘会計事務所,,その他の設立登記法人,岐阜県,各務原市,川島小網町２１４２番地２２,,21,213,5016023,,,,,,,2022-04-08,1,,,,,タチバナカイケイジムショ,0
1969,6250001019496,新規,0,2022-04-08,2022-04-08,株式会社Ｂ．Ｐ．Ｓ．,,株式会社,山口県,周南市,大字須々万本郷２１９０番地の１,,35,215,7450122,,,,,,,2022-04-08,1,,,,,ビーピーエス,0
1976,6260001036730,新規,0,2022-04-08,2022-04-08,株式会社翔覇,,株式会社,岡山県,津山市,宮尾１７６番地,,33,203,7094613,,,,,,,2022-04-08,1,,,,,ショウハ,0
1984,6290001097118,新規,0,2022-04-08,2022-04-08,株式会社マルコデザイン,,株式会社,福岡県,筑紫野市,湯町２丁目３番１－９０１号,,40,217,8180058,,,,,,,2022-04-08,1,,,,,マルコデザイン,0
1990,6290005018623,新規,0,2022-04-08,2022-04-08,医療法人杜の宮かなだ歯科医院,,その他の設立登記法人,福岡県,糟屋郡新宮町,杜の宮４丁目５－１１,,40,345,8110122,,,,,,,2022-04-08,1,,,,,モリノミヤカナダシカイイン,0
1992,6290801028437,新規,0,2022-04-08,2022-04-08,株式会社ＲＯＳＥ,,株式会社,福岡県,北九州市小倉南区,沼南町２丁目２番３４号,,40,107,8000205,,,,,,,2022-04-08,1,,,,,ローズ,0
1996,6320001019010,新規,0,2022-04-08,2022-04-08,株式会社龍泉,,株式会社,大分県,玖珠郡玖珠町,大字綾垣７０１番地の３,,44,462,8794402,,,,,,,2022-04-08,1,,,,,リュウセン,0
1999,6330001029636,新規,0,2022-04-08,2022-04-08,株式会社Ｒｅｉ’ｓ　Ｉｓｌａｎｄ,,株式会社,熊本県,熊本市西区,二本木１丁目３－２３－１２０２,,43,103,8600051,,,,,,,2022-04-08,1,,,,,レイズアイランド,0
2002,6330003009314,新規,0,2022-04-08,2022-04-08,Ｇｏｌｄｅｎ　Ｇｏａｌ　Ｅｎｇｌｉｓｈ　Ｃｌｕｂ合同会社,,合同会社,熊本県,合志市,幾久富１９０９番地１１０２,,43,216,8611112,,,,,,,2022-04-08,1,,,,,ゴールデンゴールイングリッシュクラブ,0
2003,6330003009322,新規,0,2022-04-08,2022-04-08,Ｇ．合同会社,,合同会社,熊本県,菊池郡菊陽町,武蔵ヶ丘北１丁目１８番２号,,43,404,8691112,,,,,,,2022-04-08,1,,,,,ジードット,0
2008,6340001024636,新規,0,2022-04-08,2022-04-08,株式会社ＭＫ．ＴＲＹ,,株式会社,鹿児島県,薩摩川内市,中郷１丁目１６番１１－２号,,46,215,8950072,,,,,,,2022-04-08,1,,,,,エムケートライ,0
2016,6360001030211,新規,0,2022-04-08,2022-04-08,株式会社ＲＶＳＳ,,株式会社,沖縄県,沖縄市,字松本９２２番地３の２,,47,211,9042151,,,,,,,2022-04-08,1,,,,,アールヴィエスエス,0
2017,6360001030260,新規,0,2022-04-08,2022-04-08,株式会社ＴＨＩＲＤ,,株式会社,沖縄県,宮古島市,下地字洲鎌４１２番地５,,47,214,9060303,,,,,,,2022-04-08,1,,,,,サード,0
2019,6360003011911,新規,0,2022-04-08,2022-04-08,合同会社Ｃｏｌｉｂｒｉ,,合同会社,沖縄県,豊見城市,字翁長８３２番地４,,47,212,9010223,,,,,,,2022-04-08,1,,,,,コリブリ,0
2024,6370001048418,新規,0,2022-04-08,2022-04-08,株式会社柴田総建,,株式会社,宮城県,仙台市太白区,緑ケ丘２丁目１５番３号,,04,104,9820021,,,,,,,2022-04-08,1,,,,,シバタソウケン,0
2025,6370001048426,新規,0,2022-04-08,2022-04-08,株式会社ＳＴＭスポーツ,,株式会社,宮城県,仙台市宮城野区,中野５丁目６番地の１,,04,102,9830013,,,,,,,2022-04-08,1,,,,,エスティーエムスポーツ,0
2040,6410003003639,新規,0,2022-04-08,2022-04-08,伊藤設備合同会社,,合同会社,秋田県,大仙市,大曲日の出町１丁目１２番１０号,,05,212,0140063,,,,,,,2022-04-08,1,,,,,イトウセツビ,0
2041,6420001017796,新規,0,2022-04-08,2022-04-08,バイオシェル東北株式会社,,株式会社,青森県,青森市,大字石江字江渡１０５番地９１,,02,201,0380003,,,,,,,2022-04-08,1,,,,,バイオシェルトウホク,0
2042,6420003002490,新規,0,2022-04-08,2022-04-08,合同会社イリヤマ森林計画,,合同会社,青森県,上北郡七戸町,字鶴児平９番地１,,02,402,0392567,,,,,,,2022-04-08,1,,,,,イリヤマシンリンケイカク,0
2044,6430001086304,新規,0,2022-04-08,2022-04-08,ＨＯＵＳＥ　ＳＨＵＮ株式会社,,株式会社,北海道,札幌市中央区,南二条東２丁目８－１大都ビル７Ｆ,,01,101,0600052,,,,,,,2022-04-08,1,,,,,ハウスシュン,0
2045,6430001086378,新規,0,2022-04-08,2022-04-08,株式会社鈴木農場,,株式会社,北海道,空知郡奈井江町,字茶志内美唄４１０９番地２,,01,424,0790300,,,,,,,2022-04-08,1,,,,,スズキノウジョウ,0
2046,6430001086386,新規,0,2022-04-08,2022-04-08,丸和川匠株式会社,,株式会社,北海道,札幌市手稲区,西宮の沢一条５丁目３番５号,,01,109,0060001,,,,,,,2022-04-08,1,,,,,マルワカワショウ,0
2047,6430001086394,新規,0,2022-04-08,2022-04-08,株式会社Ｂｅｅｔｒｕｓｔ,,株式会社,北海道,札幌市白石区,菊水上町一条２丁目５２番地５ライラックプレイス１０５号,,01,104,0030811,,,,,,,2022-04-08,1,,,,,ビートラスト,0
2051,6430003013784,新規,0,2022-04-08,2022-04-08,Ｓ‐ｐａｒｔｎｅｒ合同会社,,合同会社,北海道,札幌市中央区,南一条東５丁目１番地１２,,01,101,0600051,,,,,,,2022-04-08,1,,,,,エスパートナー,0
2052,6430005014434,新規,0,2022-04-08,2022-04-08,特定非営利活動法人とれいす,,その他の設立登記法人,北海道,江別市,野幌町６１番地の１８,,01,217,0690813,,,,,,,2022-04-08,1,,,,,トレイス,0
2056,6460105002237,新規,0,2022-04-08,2022-04-08,一般社団法人市民後見人の会Ｓすけっと,,その他の設立登記法人,北海道,上川郡新得町,屈足柏町２丁目４９番地,,01,635,0810161,,,,,,,2022-04-08,1,,,,,シミンコウケンニンノカイエスケット,0
2057,6470001019020,新規,0,2022-04-08,2022-04-08,三共リース株式会社,,株式会社,香川県,高松市,西山崎町６９３番地１,,37,201,7618045,,,,,,,2022-04-08,1,,,,,サンキョウリース,0
2059,6480001011703,新規,0,2022-04-08,2022-04-08,株式会社井内製帽,,株式会社,徳島県,小松島市,日開野町字行地１３番地の１３,,36,203,7730010,,,,,,,2022-04-08,1,,,,,イノウチセイボウ,0
2062,6500001024132,新規,0,2022-04-08,2022-04-08,株式会社入船汽船,,株式会社,愛媛県,今治市,恵美須町２丁目４番地６グランドキャッスル７０１号,,38,202,7940031,,,,,,,2022-04-08,1,,,,,イリフネキセン,0
2065,6700150105605,新規,0,2022-04-08,2021-11-05,深音グループ,,その他,福島県,郡山市,字古川８－５,,07,203,9638823,,,,,,,2021-11-05,1,,,,,ミオングループ,0
2066,6700150107725,新規,0,2022-04-08,2022-04-08,一功營造股斌有限公司,00126192,外国会社等,東京都,品川区,上大崎２丁目１－３ザ・パークハウス白金長者丸５０１号室,,13,109,1410021,台湾高雄市前鎮區二聖一路２８８號１１Ｆー１,,,,,,2022-04-08,1,,,,,イツコウエイゾウコフンユウゲンコウシ,0
2086,7010003037420,新規,0,2022-04-08,2022-04-08,合同会社Ｔｒｕｓｔ,,合同会社,東京都,千代田区,内神田３丁目１３番１０号グリーンビル３階,,13,101,1010047,,,,,,,2022-04-08,1,,,,,トラスト,0
2089,7010005034820,新規,0,2022-04-08,2022-04-08,一般社団法人日本臨床検査振興協議会,,その他の設立登記法人,東京都,中央区,東日本橋２丁目２５番４号サンライズ升和ビル９階,,13,102,1030004,,,,,,,2022-04-08,1,,,,,ニホンリンショウケンサシンコウキョウギカイ,0
2090,7010005034853,新規,0,2022-04-08,2022-04-08,ジェイコアレジ６一般社団法人,,その他の設立登記法人,東京都,千代田区,丸の内３丁目１番１号東京共同会計事務所内,,13,101,1000005,,,,,,,2022-04-08,1,,,,,ジェイコアシックス,0
2106,7010401166589,新規,0,2022-04-08,2022-04-08,グラビス株式会社,,株式会社,東京都,港区,赤坂２丁目２０番５号,,13,103,1070052,,,,,,,2022-04-08,1,,,,,グラビス,0
2107,7010401166655,新規,0,2022-04-08,2022-04-08,株式会社Ｒｅｅｌｕ,,株式会社,東京都,港区,赤坂８丁目４番１４号青山タワープレイス８階,,13,103,1070052,,,,,,,2022-04-08,1,,,,,リール,0
2109,7010403027459,新規,0,2022-04-08,2022-04-08,Ｄｉｓｃｏｖｅｒｙ３合同会社,,合同会社,東京都,港区,赤坂２丁目１０番５号税理士法人赤坂国際会計事務所内,,13,103,1070052,,,,,,,2022-04-08,1,,,,,ディスカバリースリー,0
2112,7010503006560,新規,0,2022-04-08,2022-04-08,合同会社ＧＯＮ,,合同会社,東京都,台東区,東上野１丁目１８－６タカラ第三ビル３階３０１号,,13,106,1100015,,,,,,,2022-04-08,1,,,,,ジーオーエヌ,0
2120,7010601060930,新規,0,2022-04-08,2022-04-08,株式会社ＬＥＢＳＴ,,株式会社,東京都,墨田区,京島３丁目９番２－１２０１号,,13,107,1310046,,,,,,,2022-04-08,1,,,,,レープスト,0
2132,7010903007290,新規,0,2022-04-08,2022-04-08,合同会社芳賀メディカル,,合同会社,東京都,世田谷区,玉川４丁目２０－１２,,13,112,1580094,,,,,,,2022-04-08,1,,,,,ハガメディカル,0
2136,7011001146766,新規,0,2022-04-08,2022-04-08,株式会社ポジティーヴォ,,株式会社,東京都,渋谷区,初台２丁目３１番９号,,13,113,1510061,,,,,,,2022-04-08,1,,,,,ポジティーヴォ,0
2137,7011001146774,新規,0,2022-04-08,2022-04-08,ＮＯＴＴＥＮＧ　ＨＩＬＬ株式会社,,株式会社,東京都,渋谷区,上原１丁目３５番６号水上ビル,,13,113,1510064,,,,,,,2022-04-08,1,,,,,ノッテングヒル,0
2138,7011001146782,新規,0,2022-04-08,2022-04-08,株式会社アール企画,,株式会社,東京都,目黒区,目黒本町３丁目８番９号,,13,110,1520002,,,,,,,2022-04-08,1,,,,,アールキカク,0
2139,7011001146808,新規,0,2022-04-08,2022-04-08,株式会社ＵＮＩＨＥＡＲＴＳ,,株式会社,東京都,渋谷区,神宮前４丁目１８番９号,,13,113,1500001,,,,,,,2022-04-08,1,,,,,ユニハーツ,0
2145,7011101098420,新規,0,2022-04-08,2022-04-08,株式会社ＲＡＩＤ,,株式会社,東京都,新宿区,北新宿２丁目１０番１２号,,13,104,1690074,,,,,,,2022-04-08,1,,,,,レイド,0
2146,7011101098445,新規,0,2022-04-08,2022-04-08,株式会社ＣＩＥＬ,,株式会社,東京都,新宿区,富久町１５番１号富久クロスコンフォートタワー５０１９,,13,104,1620067,,,,,,,2022-04-08,1,,,,,シエル,0
2147,7011101098453,新規,0,2022-04-08,2022-04-08,ＢＤＯコンサルティング株式会社,,株式会社,東京都,新宿区,西新宿２丁目２番１号,,13,104,1600023,,,,,,,2022-04-08,1,,,,,ビーディーオーコンサルティング,0
2151,7011103011653,新規,0,2022-04-08,2022-04-08,合同会社ローハン,,合同会社,東京都,新宿区,河田町３番４９号,,13,104,1620054,,,,,,,2022-04-08,1,,,,,ローハン,0
2180,7011801003142,新規,0,2022-04-08,2022-04-08,東京スワンフーズ株式会社,,株式会社,東京都,葛飾区,白鳥２丁目３番１号,,13,122,1250063,,,,,,,2022-04-08,1,,,,,トウキョウスワンフーズ,0
2181,7011801040524,新規,0,2022-04-08,2022-04-08,株式会社リープ,,株式会社,東京都,足立区,関原３丁目２９番４－１０５号,,13,121,1230852,,,,,,,2022-04-08,1,,,,,リープ,0
2182,7011801040540,新規,0,2022-04-08,2022-04-08,株式会社コスメ印刷,,株式会社,東京都,足立区,佐野２丁目１５番１０号,,13,121,1210053,,,,,,,2022-04-08,1,,,,,コスメインサツ,0
2183,7011801040549,新規,0,2022-04-08,2022-04-08,東京亜路宝株式会社,,株式会社,東京都,足立区,竹の塚１丁目１３－１３小林ビル３０３号室,,13,121,1210813,,,,,,,2022-04-08,1,,,,,トウキョウアロホウ,0
2188,7012305002003,新規,0,2022-04-08,2022-04-08,医療法人社団チャイルドクリニック,,その他の設立登記法人,東京都,町田市,鶴間３丁目３番地１グランベリーパークステーションコート２階,,13,209,1940004,,,,,,,2022-04-08,1,,,,,チャイルドクリニック,0
2191,7012703002439,新規,0,2022-04-08,2022-04-08,Ｌａｎｄ　Ｍｅｎｔ合同会社,,合同会社,東京都,西東京市,富士町４丁目２７番５号,,13,229,2020014,,,,,,,2022-04-08,1,,,,,ランドメント,0
2193,7012805003104,新規,0,2022-04-08,2022-04-08,一般社団法人日本福祉,,その他の設立登記法人,東京都,立川市,高松町２丁目２５番１号,,13,202,1900011,,,,,,,2022-04-08,1,,,,,ニホンフクシ,0
2200,7013301048907,新規,0,2022-04-08,2022-04-08,ＳＳサポート株式会社,,株式会社,東京都,豊島区,東池袋４丁目１４番２号,,13,116,1700013,,,,,,,2022-04-08,1,,,,,エスエスサポート,0
2204,7020001146016,新規,0,2022-04-08,2022-04-08,株式会社薩摩島津,,株式会社,神奈川県,横浜市青葉区,たちばな台２丁目１８番地２５,,14,117,2270046,,,,,,,2022-04-08,1,,,,,サツマシマヅ,0
2208,7020003021563,新規,0,2022-04-08,2022-04-08,合同会社ＴＯＭＯ,,合同会社,神奈川県,横浜市青葉区,美しが丘１丁目１３番地１０吉村ビル１０７号,,14,117,2250002,,,,,,,2022-04-08,1,,,,,トモ,0
2209,7020003021571,新規,0,2022-04-08,2022-04-08,合同会社クラフトコネクション,,合同会社,神奈川県,横浜市南区,吉野町１丁目１番４号プランヴェール吉野町６０１号,,14,105,2320014,,,,,,,2022-04-08,1,,,,,クラフトコネクション,0
2210,7020005015464,新規,0,2022-04-08,2022-04-08,医療法人社団ふかい歯科クリニック,,その他の設立登記法人,神奈川県,横浜市港北区,大倉山３丁目５番２２号高瀬ビル１階,,14,109,2220037,,,,,,,2022-04-08,1,,,,,フカイシカクリニック,0
2211,7020005015472,新規,0,2022-04-08,2022-04-08,ＮＰＯ法人霧が丘ぷらっとほーむ,,その他の設立登記法人,神奈川県,横浜市緑区,霧が丘３丁目５番地１０,,14,113,2260016,,,,,,,2022-04-08,1,,,,,キリガオカプラットホーム,0
2212,7020005015480,新規,0,2022-04-08,2022-04-08,一般社団法人Ｅｃｈｏ　Ｒｏｏｍ,,その他の設立登記法人,神奈川県,横浜市中区,山下町８０番地３横濱ディアタワー１６０２,,14,104,2310023,,,,,,,2022-04-08,1,,,,,エコールーム,0
2217,7021001075634,新規,0,2022-04-08,2022-04-08,株式会社武井コーポレーション,,株式会社,神奈川県,大和市,南林間７丁目１２番３号２Ｆ,,14,213,2420006,,,,,,,2022-04-08,1,,,,,タケイコーポレーション,0
2233,7030001147657,新規,0,2022-04-08,2022-04-08,株式会社中日電設,,株式会社,埼玉県,蓮田市,大字黒浜１２２９番地３,,11,238,3490101,,,,,,,2022-04-08,1,,,,,チュウニチデンセツ,0
2234,7030001147665,新規,0,2022-04-08,2022-04-08,ライム・パフォーマンス株式会社,,株式会社,埼玉県,さいたま市南区,辻３丁目１番２１－７０２号,00126205,11,108,3360026,,,,,,,2022-04-08,1,,,,,ライムパフォーマンス,0
2239,7030003019177,新規,0,2022-04-08,2022-04-08,合同会社Ｔｏｉｋｉ,,合同会社,埼玉県,川越市,志多町１番地１３,,11,201,3500051,,,,,,,2022-04-08,1,,,,,トイキ,0
2240,7030005020802,新規,0,2022-04-08,2022-04-08,国際アシスト協同組合,,その他の設立登記法人,埼玉県,本庄市,１２２３番地１,,11,211,3670000,,,,,,,2022-04-08,1,,,,,コクサイアシスト,0
2244,7040001122766,新規,0,2022-04-08,2022-04-08,株式会社池田総合建設,,株式会社,千葉県,流山市,加４丁目１番地の２９ペガサス東棟１１０号,,12,220,2700176,,,,,,,2022-04-08,1,,,,,イケダソウゴウケンセツ,0
2245,7040001122849,新規,0,2022-04-08,2022-04-08,株式会社ネクストシステムサポート,,株式会社,千葉県,千葉市若葉区,都賀の台４丁目１２番３号,,12,104,2640033,,,,,,,2022-04-08,1,,,,,ネクストシステムサポート,0
2246,7040001122865,新規,0,2022-04-08,2022-04-08,株式会社ＭＳｅｆｆｏｒｔ,,株式会社,千葉県,富里市,御料４９７番地７,,12,233,2860211,,,,,,,2022-04-08,1,,,,,エムエスエフォート,0
2247,7040001122907,新規,0,2022-04-08,2022-04-08,ＫＹ　Ｃｏｍｐａｎｙ株式会社,,株式会社,千葉県,いすみ市,岬町中原５３７番地１,,12,238,2994502,,,,,,,2022-04-08,1,,,,,ケーワイカンパニー,0
2248,7040001122948,新規,0,2022-04-08,2022-04-08,株式会社ＫＩＫ,,株式会社,千葉県,千葉市中央区,富士見２丁目１５番９号,,12,101,2600015,,,,,,,2022-04-08,1,,,,,ケイアイケイ,0
2249,7040003019804,新規,0,2022-04-08,2022-04-08,合同会社ＨＥＡＲＴ,,合同会社,千葉県,千葉市緑区,あすみが丘東５丁目１４番地２９,,12,105,2670067,,,,,,,2022-04-08,1,,,,,ハート,0
2250,7040003019845,新規,0,2022-04-08,2022-04-08,合同会社安齋,,合同会社,千葉県,市川市,宮久保３丁目１番１６号,,12,203,2720822,,,,,,,2022-04-08,1,,,,,アンザイ,0
2252,7050001050917,新規,0,2022-04-08,2022-04-08,株式会社鈴木家,,株式会社,茨城県,日立市,桜川町１丁目２番１２号鈴木ビル２０２号,,08,202,3160002,,,,,,,2022-04-08,1,,,,,スズキケ,0
2253,7050001050925,新規,0,2022-04-08,2022-04-08,株式会社藤物流,,株式会社,茨城県,水戸市,千波町１９８９番地の１,,08,201,3100851,,,,,,,2022-04-08,1,,,,,フジブツリュウ,0
2254,7050001050933,新規,0,2022-04-08,2022-04-08,株式会社キャンドゥーレガロ,,株式会社,茨城県,神栖市,太田５９７番地８３,,08,232,3140254,,,,,,,2022-04-08,1,,,,,キャンドゥーレガロ,0
2266,7060001034745,新規,0,2022-04-08,2022-04-08,株式会社のうらく,,株式会社,栃木県,小山市,駅南町６丁目７番１９号,,09,208,3230822,,,,,,,2022-04-08,1,,,,,,0
2269,7070001039099,新規,0,2022-04-08,2022-04-08,株式会社ＨＩ‐ＴＥＣＨ　ＤＥＮＫＩ,,株式会社,群馬県,高崎市,箕郷町柏木沢１６８０番地１４,,10,202,3703101,,,,,,,2022-04-08,1,,,,,ハイテックデンキ,0
2270,7070001039124,新規,0,2022-04-08,2022-04-08,株式会社ＡＴフィールズ,,株式会社,群馬県,館林市,小桑原町１０５７番地の１４２,,10,207,3740037,,,,,,,2022-04-08,1,,,,,エーティーフィールズ,0
2271,7070001039132,新規,0,2022-04-08,2022-04-08,株式会社ＮＥＷ　ＳＴＡＲ　Ｂｉｇ‐Ｂ,,株式会社,群馬県,邑楽郡大泉町,坂田２丁目１６番１号,,10,524,3700532,,,,,,,2022-04-08,1,,,,,ニュースタービッグビー,0
2274,7070003004448,新規,0,2022-04-08,2022-04-08,合同会社Ｊ‐Ｆａｒｍ,,合同会社,群馬県,高崎市,あら町６５番地,,10,202,3700831,,,,,,,2022-04-08,1,,,,,ジェイファーム,0
2279,7080103002573,新規,0,2022-04-08,2022-04-08,スターパス合同会社,,合同会社,静岡県,熱海市,林ガ丘町２番１６号Ｃ棟２０３号室,,22,205,4130031,,,,,,,2022-04-08,1,,,,,スターパス,0
2281,7080403004518,新規,0,2022-04-08,2022-04-08,ＹＹＭＨ合同会社,,合同会社,静岡県,浜松市北区,三方原町７１番地の１４,,22,135,4338105,,,,,,,2022-04-08,1,,,,,ワイワイエムエイチ,0
2284,7100001035235,新規,0,2022-04-08,2022-04-08,株式会社ＳＴ佐久,,株式会社,長野県,佐久市,安原２７４番地１,,20,217,3850004,,,,,,,2022-04-08,1,,,,,エスティーサク,0
2286,7110001036579,新規,0,2022-04-08,2022-04-08,株式会社テクノス,,株式会社,新潟県,長岡市,中興野１４８－８,,15,202,9540131,,,,,,,2022-04-08,1,,,,,テクノス,0
2288,7110003004732,新規,0,2022-04-08,2022-04-08,＿合同会社,00126199,合同会社,新潟県,新潟市西蒲区,巻甲２６３１番地３,,15,108,9530041,,,,,,,2022-04-08,1,,,,,シン,0
2289,7110005016783,新規,0,2022-04-08,2022-04-08,一般社団法人芸術はズバババーン協議会,,その他の設立登記法人,新潟県,長岡市,谷内２丁目１番２８号ギャラリー白昼堂々,,15,202,9400227,,,,,,,2022-04-08,1,,,,,ゲイジュツハズバババーンキョウギカイ,0
2303,7120001244949,新規,0,2022-04-08,2022-04-08,株式会社大阪ＭＡＸＫＥＬＬＹ,,株式会社,大阪府,大阪市北区,梅田１丁目１２番１７号梅田スクエアビル１０Ｆ,,27,127,5300001,,,,,,,2022-04-08,1,,,,,オオサカマックスケリー,0
2304,7120001245022,新規,0,2022-04-08,2022-04-08,株式会社Ｗ＆Ｈ,,株式会社,大阪府,大阪市浪速区,芦原１丁目１番７号フォレスト難波西１階,,27,111,5560029,,,,,,,2022-04-08,1,,,,,ダブリュアンドエイチ,0
2305,7120001245055,新規,0,2022-04-08,2022-04-08,株式会社ＣＲＥＡＳ,,株式会社,大阪府,大阪市中央区,島之内１丁目２１番２３号,,27,128,5420082,,,,,,,2022-04-08,1,,,,,クレアス,0
2306,7120001245088,新規,0,2022-04-08,2022-04-08,株式会社三浦商会,,株式会社,大阪府,大阪市西淀川区,御幣島６丁目１番２５号,,27,113,5550012,,,,,,,2022-04-08,1,,,,,ミウラショウカイ,0
2307,7120001245096,新規,0,2022-04-08,2022-04-08,アマクマ工房株式会社,,株式会社,大阪府,大阪市平野区,背戸口２丁目１１番２３号,,27,126,5470034,,,,,,,2022-04-08,1,,,,,アマクマコウボウ,0
2308,7120001245105,新規,0,2022-04-08,2022-04-08,株式会社鵬程国際,,株式会社,大阪府,大阪市浪速区,塩草３丁目８－６－３０１,,27,111,5560024,,,,,,,2022-04-08,1,,,,,ホウテイコクサイ,0
2309,7120001245146,新規,0,2022-04-08,2022-04-08,株式会社２９Ｃｏｎｓｅｉｌ,,株式会社,大阪府,大阪市中央区,森ノ宮中央１丁目１４番２号鵲森之宮ビル５階,,27,128,5400003,,,,,,,2022-04-08,1,,,,,トゥエンティナインコンセイユ,0
2311,7120003021421,新規,0,2022-04-08,2022-04-08,ＴＡ　ｓａｎｃｔｕａｒｙ合同会社,,合同会社,大阪府,大阪市淀川区,塚本２丁目２７番５－５０４号,,27,123,5320026,,,,,,,2022-04-08,1,,,,,ティーエーサンクチュアリー,0
2312,7120003021454,新規,0,2022-04-08,2022-04-08,サムライトレード合同会社,,合同会社,大阪府,枚方市,東香里南町５０番１８号,,27,210,5730074,,,,,,,2022-04-08,1,,,,,サムライトレード,0
2313,7120003021462,新規,0,2022-04-08,2022-04-08,合同会社リライド,,合同会社,大阪府,大阪市淀川区,東三国４丁目２１番１１号あかつきマンション３０１号,,27,123,5320002,,,,,,,2022-04-08,1,,,,,リライド,0
2316,7120005022871,新規,0,2022-04-08,2022-04-08,特定非営利活動法人メイカーズクラブ,,その他の設立登記法人,大阪府,寝屋川市,八幡台８番２０号,,27,215,5720014,,,,,,,2022-04-08,1,,,,,メイカーズクラブ,0
2317,7120005022888,新規,0,2022-04-08,2022-04-08,一般社団法人多文化都市デザインセンター,,その他の設立登記法人,大阪府,大阪市住吉区,南住吉３丁目１２番２号,,27,120,5580041,,,,,,,2022-04-08,1,,,,,タブンカトシデザインセンター,0
2325,7120901045827,新規,0,2022-04-08,2022-04-08,リスタート株式会社,,株式会社,大阪府,吹田市,芳野町１４番３３号,,27,205,5640054,,,,,,,2022-04-08,1,,,,,リスタート,0
2332,7130001071459,新規,0,2022-04-08,2022-04-08,株式会社アプリシエイト,,株式会社,京都府,京都市中京区,占出山町３０８番地山忠ビル５Ｆ,,26,104,6048155,,,,,,,2022-04-08,1,,,,,アプリシエイト,0
2333,7130005016427,新規,0,2022-04-08,2022-04-08,京都下鴨税理士法人,,その他の設立登記法人,京都府,京都市左京区,下鴨梁田町１６番地４,,26,103,6060836,,,,,,,2022-04-08,1,,,,,キョウトシモガモ,0
2340,7140001125478,新規,0,2022-04-08,2022-04-08,株式会社安心サポート不動産,,株式会社,兵庫県,西宮市,大畑町３番１７号１階,,28,204,6620836,,,,,,,2022-04-08,1,,,,,アンシンサポートフドウサン,0
2341,7140001125560,新規,0,2022-04-08,2022-04-08,株式会社ユーケーユー,,株式会社,兵庫県,尼崎市,水堂町２丁目３７番１号,,28,202,6610026,,,,,,,2022-04-08,1,,,,,ユーケーユー,0
2345,7140003017533,新規,0,2022-04-08,2022-04-08,合同会社テクニカルシーケンス,,合同会社,兵庫県,明石市,大久保町大窪４３８番地の８,,28,203,6740051,,,,,,,2022-04-08,1,,,,,テクニカルシーケンス,0
2351,7160003002541,新規,0,2022-04-08,2022-04-08,合同会社レインボーローズ,,合同会社,滋賀県,近江八幡市,出町８２２番地２,,25,204,5230892,,,,,,,2022-04-08,1,,,,,レインボーローズ,0
2355,7180001150670,新規,0,2022-04-08,2022-04-08,株式会社ＲＩＭ’Ｓ,,株式会社,愛知県,常滑市,飛香台７丁目１６番地の１０,,23,216,4790868,,,,,,,2022-04-08,1,,,,,リムズ,0
2356,7180001150679,新規,0,2022-04-08,2022-04-08,株式会社トキワ,,株式会社,愛知県,名古屋市千種区,千代が丘５番Ｓ－６０７号,,23,101,4640005,,,,,,,2022-04-08,1,,,,,カブシキガシヤトキワ,0
2357,7180001150687,新規,0,2022-04-08,2022-04-08,株式会社道,,株式会社,愛知県,一宮市,両郷町５丁目１１番地２,,23,203,4910022,,,,,,,2022-04-08,1,,,,,ミチ,0
2358,7180001150704,新規,0,2022-04-08,2022-04-08,シードプラス株式会社,,株式会社,愛知県,東海市,名和町３丁目５６番地,,23,222,4760002,,,,,,,2022-04-08,1,,,,,シードプラス,0
2359,7180001150803,新規,0,2022-04-08,2022-04-08,株式会社宇野友明建築事務所,,株式会社,愛知県,名古屋市東区,橦木町３丁目６８番地,,23,102,4610014,,,,,,,2022-04-08,1,,,,,ウノトモアキケンチクジムショ,0
2361,7180003023684,新規,0,2022-04-08,2022-04-08,ハッピーライク合同会社,,合同会社,愛知県,一宮市,時之島字下垂１９番地１,,23,203,4910002,,,,,,,2022-04-08,1,,,,,ハッピーライク,0
2367,7200001039960,新規,0,2022-04-08,2022-04-08,株式会社ファッションセミナー,,株式会社,岐阜県,岐阜市,常盤町１８番地,,21,201,5008058,,,,,,,2022-04-08,1,,,,,ファッションセミナー,0
2372,7200005013326,新規,0,2022-04-08,2022-04-08,農事組合法人アグリマックス・ワールド,,その他の設立登記法人,岐阜県,安八郡輪之内町,藻池新田５２６４番地の１,,21,382,5030213,,,,,,,2022-04-08,1,,,,,アグリマックスワールド,0
2375,7210001018872,新規,0,2022-04-08,2022-04-08,株式会社Ｓ２,,株式会社,福井県,坂井市,春江町江留上新町３番地ホープテラス１階,,18,210,9190465,,,,,,,2022-04-08,1,,,,,エスツー,0
2389,7250001019487,新規,0,2022-04-08,2022-04-08,株式会社イーストサプライヤー,,株式会社,山口県,下関市,古屋町１丁目１７番１８号,,35,201,7510847,,,,,,,2022-04-08,1,,,,,イーストサプライヤー,0
2390,7250001019495,新規,0,2022-04-08,2022-04-08,株式会社共立コミュニケーション,,株式会社,山口県,下関市,菊川町大字下岡枝２１６番地,,35,201,7500317,,,,,,,2022-04-08,1,,,,,キョウリツコミュニケーション,0
2392,7260001036738,新規,0,2022-04-08,2022-04-08,古市建設株式会社,,株式会社,岡山県,倉敷市,児島小川４丁目３番４０号,,33,202,7110911,,,,,,,2022-04-08,1,,,,,フルイチケンセツ,0
2395,7270001008488,新規,0,2022-04-08,2022-04-08,株式会社吉岡商店,00126208,株式会社,鳥取県,境港市,竹内団地２７８番地７,,31,204,6840046,,,,,,,2022-04-08,1,,,,,ヨシオカショウテン,0
2403,7290001097075,新規,0,2022-04-08,2022-04-08,株式会社Ｎ企画,,株式会社,福岡県,福岡市西区,大字小田１８７６番地１,,40,135,8190203,,,,,,,2022-04-08,1,,,,,エヌキカク,0
2404,7290001097125,新規,0,2022-04-08,2022-04-08,株式会社ＳＯＵＲＣＥ,,株式会社,福岡県,福岡市博多区,上川端町１４番２６号,,40,132,8120026,,,,,,,2022-04-08,1,,,,,ソース,0
2409,7300001012874,新規,0,2022-04-08,2022-04-08,株式会社昭栄建設,,株式会社,佐賀県,神埼郡吉野ヶ里町,吉田２９８５番地５,,41,327,8420031,,,,,,,2022-04-08,1,,,,,ショウエイケンセツ,0
2415,7310003004324,新規,0,2022-04-08,2022-04-08,林商事合同会社,,合同会社,長崎県,佐世保市,相浦町８８３番地３,,42,202,8580918,,,,,,,2022-04-08,1,,,,,ハヤシショウジ,0
2422,7340001024635,新規,0,2022-04-08,2022-04-08,株式会社ＡＭＡＬＯＨＡ,,株式会社,鹿児島県,大島郡龍郷町,赤尾木１３４番地１,,46,527,8940411,,,,,,,2022-04-08,1,,,,,アマロハ,0
2425,7350001017687,新規,0,2022-04-08,2022-04-08,和電工株式会社,,株式会社,宮崎県,延岡市,桜園町２３番地６,,45,203,8820036,,,,,,,2022-04-08,1,,,,,ワデンコウ,0
2429,7360003011935,新規,0,2022-04-08,2022-04-08,合同会社マルタマ,,合同会社,沖縄県,糸満市,字照屋３９７番地,,47,210,9010315,,,,,,,2022-04-08,1,,,,,マルタマ,0
2431,7370001048400,新規,0,2022-04-08,2022-04-08,株式会社トウェルヴ,,株式会社,宮城県,仙台市太白区,太子堂２２番２５号,,04,104,9820013,,,,,,,2022-04-08,1,,,,,トウェルヴ,0
2432,7370001048433,新規,0,2022-04-08,2022-04-08,株式会社Ｅｉｇｈｔ,,株式会社,宮城県,多賀城市,高橋１丁目１０番７号,,04,209,9850853,,,,,,,2022-04-08,1,,,,,エイト,0
2434,7370005010463,新規,0,2022-04-08,2022-04-08,一般社団法人宮城創生ＤＭＯ,,その他の設立登記法人,宮城県,伊具郡丸森町,字町西２２－２,,04,341,9812165,,,,,,,2022-04-08,1,,,,,ミヤギソウセイディーエムオー,0
2443,7410003003638,新規,0,2022-04-08,2022-04-08,合同会社トライズファーム,,合同会社,秋田県,鹿角市,花輪字高沢９３番地,,05,209,0185201,,,,,,,2022-04-08,1,,,,,トライズファーム,0
2454,7430001086369,新規,0,2022-04-08,2022-04-08,株式会社ｓｙｎｔａｘ,,株式会社,北海道,札幌市白石区,東札幌五条１丁目１番１号,,01,104,0030005,,,,,,,2022-04-08,1,,,,,シンタックス,0
2455,7430001086377,新規,0,2022-04-08,2022-04-08,ＯＫＯＮＯＭＩＮＥ株式会社,,株式会社,北海道,札幌市北区,北三十三条西２丁目１番１５号,,01,102,0010033,,,,,,,2022-04-08,1,,,,,オコノミン,0
2456,7430001086427,新規,0,2022-04-08,2022-04-08,株式会社リノエスオフィス,,株式会社,北海道,札幌市豊平区,旭町３丁目２番３０－Ｂ２０３,,01,105,0620911,,,,,,,2022-04-08,1,,,,,リノエスオフィス,0
2457,7430005014433,新規,0,2022-04-08,2022-04-08,医療法人社団みどり会,,その他の設立登記法人,北海道,滝川市,本町２丁目３番２３号,,01,225,0730021,,,,,,,2022-04-08,1,,,,,シャダンミドリカイ,0
2459,7450001013668,新規,0,2022-04-08,2022-04-08,ジャストホーム株式会社,,株式会社,北海道,旭川市,神楽四条１１丁目４番９号,,01,204,0708004,,,,,,,2022-04-08,1,,,,,,0
2460,7450003002198,新規,0,2022-04-08,2022-04-08,Ｆｒｕｉｔ　Ｌａｂｏ合同会社,,合同会社,北海道,増毛郡増毛町,暑寒沢２５６番地,,01,481,0770216,,,,,,,2022-04-08,1,,,,,,0
2465,7480001011702,新規,0,2022-04-08,2022-04-08,アイムファイン株式会社,,株式会社,徳島県,阿波市,吉野町西条字原市１３４番地２,,36,206,7711402,,,,,,,2022-04-08,1,,,,,アイムファイン,0
2468,7700150087917,新規,0,2022-04-08,2018-03-08,大鶴まちづくり協議会　沙羅,,その他,大分県,日田市,大字大肥大肥本町１２１２,,44,204,8771106,,,,,,,2018-03-08,1,,,,,オオツルマチヅクリキヨウギカイサラ,0
2469,7700150105901,新規,0,2022-04-08,2021-11-19,Ｐｅａｃｈｂｏｙｓ,,その他,東京都,多摩市,関戸３丁目２－２２関戸三丁目アパート１－６０３,,13,224,2060011,,,,,,,2021-11-19,1,,,,,ピーチボーイズ,0
2470,7700150107732,新規,0,2022-04-08,2022-04-08,Ｃｙｆｉｒｍａ　Ｉｎｄｉａ　Ｐｒｉｖａｔｅ　Ｌｉｍｉｔｅｄ,,外国会社等,,,,,,,,Ｇｏｏｄｗｏｒｋｓ　Ｃｏ　ｗｏｒｋ，　Ｐｌｏｔ　ｎｏ　７２　ａｎｄ　７３，　３ｒｄ　Ｆｌｏｏｒ，　Ａｋｓｈａｙ　Ｔｅｃｈ　Ｐａｒｋ，　ＥＰＩＰ　Ｚｏｎｅ，　Ｗｈｉｔｅｆｉｅｌｄ　Ｂａｎｇａｌｏｒｅ　Ｂａｎｇａｌｏｒｅ　ＫＡ　５６００６６　ＩＮ,,,,,,2022-04-08,1,,,,,サイフアーマインデイアプライベートリミテツド,0
2479,8010001225661,新規,0,2022-04-08,2022-04-08,Ｐｕｌｍｏｎｘ　Ｊａｐａｎ株式会社,,株式会社,東京都,中央区,八丁堀４丁目４番４号ＱＣＩＣ　Ｃｏｎｓｕｌｔｉｎｇ株式会社,,13,102,1040032,,,,,,,2022-04-08,1,,,,,プルモンクスジャパン,0
2487,8010003037403,新規,0,2022-04-08,2022-04-08,合同会社ＰＬｅＳＴ,,合同会社,東京都,中央区,日本橋堀留町１丁目３－１６,,13,102,1030012,,,,,,,2022-04-08,1,,,,,プレスト,0
2490,8010103001894,新規,0,2022-04-08,2022-04-08,合同会社ニトー,,合同会社,東京都,八王子市,大和田町６丁目１７番１２号シティーリバーＩＩ３０２号室,00126200,13,201,1920045,,,,,,,2022-04-08,1,,,,,ニトー,0
2498,8010401166638,新規,0,2022-04-08,2022-04-08,株式会社Ｎ‐Ｃｏｍｍｕｎｉｃａｔｉｏｎ,,株式会社,東京都,港区,浜松町１丁目２３番９号５Ｆ,,13,103,1050013,,,,,,,2022-04-08,1,,,,,エヌコミュニケーション,0
2499,8010401166654,新規,0,2022-04-08,2022-04-08,株式会社Ｃｒｏｗｎ　Ｂｉｏｓｃｉｅｎｃｅ＆ＭＢＬ,,株式会社,東京都,港区,芝大門２丁目１１番８号,,13,103,1050012,,,,,,,2022-04-08,1,,,,,クラウンバイオサイエンスアンドエムビーエル,0
2500,8010403027458,新規,0,2022-04-08,2022-04-08,Ｄｉｓｃｏｖｅｒｙ２合同会社,,合同会社,東京都,港区,赤坂２丁目１０番５号税理士法人赤坂国際会計事務所内,,13,103,1070052,,,,,,,2022-04-08,1,,,,,ディスカバリーツー,0
2505,8010601060938,新規,0,2022-04-08,2022-04-08,株式会社ｇａｋｕ．ｒｕ,,株式会社,東京都,江東区,北砂５丁目１５番１５号,,13,108,1360073,,,,,,,2022-04-08,1,,,,,ガクル,0
2506,8010601060954,新規,0,2022-04-08,2022-04-08,株式会社ＦＯＲＥＳＴ　Ｕ,,株式会社,東京都,江東区,森下３丁目１５番１号,,13,108,1350004,,,,,,,2022-04-08,1,,,,,フォレストユー,0
2514,8010801032877,新規,0,2022-04-08,2022-04-08,株式会社ベルデュール,,株式会社,東京都,大田区,北千束２丁目２６番８号,,13,111,1450062,,,,,,,2022-04-08,1,,,,,ベルデュール,0
2517,8010901050630,新規,0,2022-04-08,2022-04-08,株式会社ｔｙｎｙ,,株式会社,東京都,世田谷区,奥沢５丁目１番１１号メゾンドジョワ２０２,,13,112,1580083,,,,,,,2022-04-08,1,,,,,タイニイ,0
2518,8010901050655,新規,0,2022-04-08,2022-04-08,ＭａｎｙＢｅｒｒｙ株式会社,,株式会社,東京都,世田谷区,駒沢２丁目９番６号ロータス駒沢１０１,,13,112,1540012,,,,,,,2022-04-08,1,,,,,メニーベリー,0
2520,8010903007281,新規,0,2022-04-08,2022-04-08,Ａｎｅｊｏ合同会社,,合同会社,東京都,世田谷区,瀬田４丁目１５番２１号,,13,112,1580095,,,,,,,2022-04-08,1,,,,,アネホ,0
2522,8011001146757,新規,0,2022-04-08,2022-04-08,株式会社ＭＥＴＥＯＲＡ,,株式会社,東京都,渋谷区,渋谷３丁目２１番１１号,,13,113,1500002,,,,,,,2022-04-08,1,,,,,メテオラ,0
2523,8011001146773,新規,0,2022-04-08,2022-04-08,株式会社みんなのドクター,,株式会社,東京都,渋谷区,桜丘町２６番１号セルリアンタワー４Ｆ,,13,113,1500031,,,,,,,2022-04-08,1,,,,,ミンナノドクター,0
2524,8011001146798,新規,0,2022-04-08,2022-04-08,株式会社ｐｉｅｃｅ,,株式会社,東京都,渋谷区,恵比寿２丁目１６番６号ＦＬＥＧ恵比寿Ｗ７０１,,13,113,1500013,,,,,,,2022-04-08,1,,,,,ピース,0
2526,8011003014490,新規,0,2022-04-08,2022-04-08,つくよみ合同会社,,合同会社,東京都,渋谷区,道玄坂１丁目１０番８号渋谷道玄坂東急ビル２Ｆ―Ｃ,,13,113,1500043,,,,,,,2022-04-08,1,,,,,ツクヨミ,0
2529,8011101098428,新規,0,2022-04-08,2022-04-08,株式会社ウェルネスプラス,,株式会社,東京都,新宿区,新宿２丁目１番１２号,,13,104,1600022,,,,,,,2022-04-08,1,,,,,ウェルネスプラス,0
2530,8011103011652,新規,0,2022-04-08,2022-04-08,合同会社グラフィカ,,合同会社,東京都,新宿区,西新宿３丁目３番１３号西新宿水間ビル６階,,13,104,1600023,,,,,,,2022-04-08,1,,,,,グラフィカ,0
2534,8011401024133,新規,0,2022-04-08,2022-04-08,株式会社Ｔｈｒｏｎｅ,,株式会社,東京都,板橋区,板橋１丁目１７番１号プライムアーバン板橋９０３,,13,119,1730004,,,,,,,2022-04-08,1,,,,,スローン,0
2540,8011601025872,新規,0,2022-04-08,2022-04-08,株式会社Ｌｏｓ　Ｂｏｎｉｔｏ,,株式会社,東京都,練馬区,中村南１丁目７番地８号サンバレー７－３０３,,13,120,1760025,,,,,,,2022-04-08,1,,,,,ロスボニート,0
2542,8011603003562,新規,0,2022-04-08,2022-04-08,合同会社Ｆ‐ＭＩＮＵＳ,,合同会社,東京都,練馬区,大泉町３丁目３８番３号,,13,120,1780062,,,,,,,2022-04-08,1,,,,,エフマイナス,0
2545,8011801040507,新規,0,2022-04-08,2022-04-08,株式会社ライム,,株式会社,東京都,葛飾区,西新小岩１丁目３番４号シティハイツ新小岩２０６号室,,13,122,1240025,,,,,,,2022-04-08,1,,,,,ライム,0
2546,8011801040548,新規,0,2022-04-08,2022-04-08,株式会社Ｃｏｊｉ,,株式会社,東京都,足立区,西伊興１丁目５－１８,,13,121,1210824,,,,,,,2022-04-08,1,,,,,コージ,0
2549,8012401039055,新規,0,2022-04-08,2022-04-08,株式会社リーフェ吉祥寺,,株式会社,東京都,武蔵野市,御殿山１丁目７番１２号井の頭マンション８０５号,,13,203,1800005,,,,,,,2022-04-08,1,,,,,リーフェキチジョウジ,0
2551,8012701017017,新規,0,2022-04-08,2022-04-08,十和サービス株式会社,,株式会社,東京都,小平市,花小金井１丁目３２番１６－３０１号,,13,211,1870002,,,,,,,2022-04-08,1,,,,,トーワサービス,0
2553,8012703002438,新規,0,2022-04-08,2022-04-08,合同会社Ｋ＆Ｅ,,合同会社,東京都,小平市,小川町１丁目１０２４番１７号,,13,211,1870032,,,,,,,2022-04-08,1,,,,,ケーアンドイー,0
2567,8020001145925,新規,0,2022-04-08,2022-04-08,株式会社花火,,株式会社,神奈川県,横浜市神奈川区,西寺尾４丁目３番１号ホームタウンＹ１０１号,,14,102,2210001,,,,,,,2022-04-08,1,,,,,ハナビ,0
2568,8020001146015,新規,0,2022-04-08,2022-04-08,株式会社清常総建,,株式会社,神奈川県,横浜市鶴見区,矢向１丁目１７番４２号,,14,101,2300001,,,,,,,2022-04-08,1,,,,,セイジョウソウケン,0
2569,8020003021554,新規,0,2022-04-08,2022-04-08,アリオーソ合同会社,,合同会社,神奈川県,横浜市都筑区,中川１丁目２番Ｄ－１３０１号,,14,118,2240001,,,,,,,2022-04-08,1,,,,,アリオーソ,0
2570,8020003021562,新規,0,2022-04-08,2022-04-08,ＪＦパートナーズ合同会社,,合同会社,神奈川県,横浜市戸塚区,上倉田町８８４番地１戸塚ハイライズ６２８号,,14,110,2440816,,,,,,,2022-04-08,1,,,,,ジェーエフパートナーズ,0
2575,8021003011545,新規,0,2022-04-08,2022-04-08,合同会社キャドシステム,,合同会社,神奈川県,相模原市中央区,淵野辺４丁目１９番１９号,,14,152,2520206,,,,,,,2022-04-08,1,,,,,キャドシステム,0
2576,8021005012475,新規,0,2022-04-08,2022-04-08,医療法人社団オアシスクリニック,,その他の設立登記法人,神奈川県,茅ヶ崎市,南湖５丁目２０番１０号,,14,207,2530061,,,,,,,2022-04-08,1,,,,,オアシスクリニック,0
2582,8030001147598,新規,0,2022-04-08,2022-04-08,株式会社Ｌｕｘｊｏｕｒ,,株式会社,埼玉県,朝霞市,宮戸４丁目１１番２１－１０２号,,11,227,3510031,,,,,,,2022-04-08,1,,,,,ラグジュール,0
2583,8030001147631,新規,0,2022-04-08,2022-04-08,株式会社ＯＭＵＳＵＢＩ,,株式会社,埼玉県,北葛飾郡松伏町,大字松伏２３４０番地２,,11,465,3430111,,,,,,,2022-04-08,1,,,,,オムスビ,0
2584,8030001147656,新規,0,2022-04-08,2022-04-08,株式会社柳昇建設,00126204,株式会社,埼玉県,比企郡吉見町,大字松崎７０番地１,,11,347,3550162,,,,,,,2022-04-08,1,,,,,リュウショウケンセツ,0
2588,8030003019176,新規,0,2022-04-08,2022-04-08,合同会社フアマーレ,,合同会社,埼玉県,鶴ヶ島市,大字藤金８７３番地２レクセル若葉６０１号,,11,241,3502206,,,,,,,2022-04-08,1,,,,,フアマーレ,0
2589,8030003019184,新規,0,2022-04-08,2022-04-08,ＨＩＭＡＲＩ　ＧＬＯＢＡＬ合同会社,,合同会社,埼玉県,深谷市,大谷２８１６番地２,,11,218,3660814,,,,,,,2022-04-08,1,,,,,ヒマリグローバル,0
2591,8040001122773,新規,0,2022-04-08,2022-04-08,株式会社ＢＩＧＳＭＩＬＥ,,株式会社,千葉県,八千代市,上高野１７３７番地１,,12,221,2760022,,,,,,,2022-04-08,1,,,,,ビッグスマイル,0
2592,8040001122914,新規,0,2022-04-08,2022-04-08,株式会社Ｓｕｎｎｙ　ｂａｓｅ,,株式会社,千葉県,館山市,北条２１９４－６,,12,205,2940045,,,,,,,2022-04-08,1,,,,,サニーベース,0
2593,8040001122955,新規,0,2022-04-08,2022-04-08,ジーエフエヌ株式会社,,株式会社,千葉県,浦安市,高洲３丁目１４番４号,,12,227,2790023,,,,,,,2022-04-08,1,,,,,ジーエフエヌ,0
2594,8040001122971,新規,0,2022-04-08,2022-04-08,株式会社ＫＡＬＩＫＡ,,株式会社,千葉県,八千代市,高津東１丁目３番地１１パールハイツ２０１号,,12,221,2760037,,,,,,,2022-04-08,1,,,,,カリカ,0
2598,8040003019844,新規,0,2022-04-08,2022-04-08,合同会社ニコー,,合同会社,千葉県,柏市,豊住１丁目３番１０号,,12,217,2770071,,,,,,,2022-04-08,1,,,,,ニコー,0
2615,8070005009972,新規,0,2022-04-08,2022-04-08,ヒューマンリンク社会保険労務士法人,,その他の設立登記法人,群馬県,高崎市,下之城町３０１番地２,,10,202,3700854,,,,,,,2022-04-08,1,,,,,ヒューマンリンク,0
2619,8080005007447,新規,0,2022-04-08,2022-04-08,一般社団法人国際指紋学協会,,その他の設立登記法人,静岡県,静岡市葵区,紺屋町８番地の１３Ｂ４０５,,22,101,4200852,,,,,,,2022-04-08,1,,,,,コクサイシモンガクキョウカイ,0
2627,8080405007443,新規,0,2022-04-08,2022-04-08,医療法人社団よつ葉会,,その他の設立登記法人,静岡県,浜松市東区,中郡町８３１番地の２,,22,132,4313111,,,,,,,2022-04-08,1,,,,,ヨツバカイ,0
2631,8100001035234,新規,0,2022-04-08,2022-04-08,株式会社あやもと,,株式会社,長野県,小諸市,荒町２丁目５番３号,,20,208,3840014,,,,,,,2022-04-08,1,,,,,アヤモト,0
2632,8100001035242,新規,0,2022-04-08,2022-04-08,株式会社Ｔｏｒｃｈｅｓ,,株式会社,長野県,上伊那郡辰野町,大字伊那富２２８５番地１,,20,382,3990428,,,,,,,2022-04-08,1,,,,,トーチーズ,0
2634,8100005012849,新規,0,2022-04-08,2022-04-08,特定非営利活動法人木の子,,その他の設立登記法人,長野県,上伊那郡辰野町,大字横川３７２番地,,20,382,3990511,,,,,,,2022-04-08,1,,,,,キノコ,0
2638,8110001036578,新規,0,2022-04-08,2022-04-08,株式会社Ｔｌｉｆｅ,,株式会社,新潟県,長岡市,喜多町２９９１番地,,15,202,9402121,,,,,,,2022-04-08,1,,,,,トライフ,0
2652,8120001244931,新規,0,2022-04-08,2022-04-08,株式会社コトブキツカサ,,株式会社,大阪府,大阪市北区,天神橋３丁目４番１４号,,27,127,5300041,,,,,,,2022-04-08,1,,,,,コトブキツカサ,0
2653,8120001245038,新規,0,2022-04-08,2022-04-08,揚訊ＭＥＴＥＫ株式会社,,株式会社,大阪府,大阪市西淀川区,歌島２丁目７－１５リブ東久１０１号室,,27,113,5550021,,,,,,,2022-04-08,1,,,,,ヨウジンメテック,0
2654,8120001245070,新規,0,2022-04-08,2022-04-08,ｔｏｆｏ　ｒｅａｌ　ｅｓｔａｔｅ株式会社,,株式会社,大阪府,枚方市,西禁野２丁目５番５－１０３号,,27,210,5731192,,,,,,,2022-04-08,1,,,,,トーフォーリアルエステート,0
2655,8120001245079,新規,0,2022-04-08,2022-04-08,株式会社ｐｌｏｇｒａｎｃｅ,,株式会社,大阪府,大阪市北区,梅田１丁目１番３号大阪駅前第３ビル２９階１－１－１,,27,127,5300001,,,,,,,2022-04-08,1,,,,,プログランス,0
2656,8120001245087,新規,0,2022-04-08,2022-04-08,秀よしホールディングス株式会社,,株式会社,大阪府,大阪市中央区,谷町１丁目５番７号ストークビル天満橋７０４,,27,128,5400012,,,,,,,2022-04-08,1,,,,,ヒデヨシホールディングス,0
2657,8120001245095,新規,0,2022-04-08,2022-04-08,ＨｏＬｉｎｋ株式会社,,株式会社,大阪府,大阪市西区,新町４丁目９番８号グランドメゾン西長堀３０２号室,,27,106,5500013,,,,,,,2022-04-08,1,,,,,ホリンク,0
2659,8120003021420,新規,0,2022-04-08,2022-04-08,合同会社ゴモハン,,合同会社,大阪府,大阪市阿倍野区,橋本町２－３０,,27,119,5450031,,,,,,,2022-04-08,1,,,,,ゴモハン,0
2660,8120003021461,新規,0,2022-04-08,2022-04-08,合同会社ジェルメ,,合同会社,大阪府,大阪市淀川区,十八条２丁目５番２号,,27,123,5320001,,,,,,,2022-04-08,1,,,,,ジェルメ,0
2661,8120005022870,新規,0,2022-04-08,2022-04-08,税理士法人南森町会計,,その他の設立登記法人,大阪府,大阪市北区,紅梅町２番１７－５０７号,,27,127,5300038,,,,,,,2022-04-08,1,,,,,ミナミモリマチカイケイ,0
2670,8130001071466,新規,0,2022-04-08,2022-04-08,高豊建設株式会社,00126203,株式会社,京都府,舞鶴市,字行永５３１番地２,,26,202,6250052,,,,,,,2022-04-08,1,,,,,コウホウケンセツ,0
2671,8130001071490,新規,0,2022-04-08,2022-04-08,もみじテック株式会社,,株式会社,京都府,京都市伏見区,常盤町３４番地１,,26,109,6128035,,,,,,,2022-04-08,1,,,,,モミジテック,0
2672,8130001071499,新規,0,2022-04-08,2022-04-08,株式会社也,,株式会社,京都府,京都市伏見区,久我御旅町１１番地３２,,26,109,6128493,,,,,,,2022-04-08,1,,,,,ナリ,0
2673,8130001071508,新規,0,2022-04-08,2022-04-08,三木古美術株式会社,,株式会社,京都府,京都市下京区,風早町５６９番地２０,,26,106,6008475,,,,,,,2022-04-08,1,,,,,ミキコビジュツ,0
2674,8130001071516,新規,0,2022-04-08,2022-04-08,株式会社宇治環境資源,,株式会社,京都府,綴喜郡宇治田原町,大字岩山小字釜井谷２１番地１６,,26,344,6100261,,,,,,,2022-04-08,1,,,,,ウジカンキョウシゲン,0
2676,8130005016426,新規,0,2022-04-08,2022-04-08,一般社団法人京都市地域女性連合会,,その他の設立登記法人,京都府,京都市中京区,御池通御幸町西入亀屋町３７０番地１,,26,104,6040941,,,,,,,2022-04-08,1,,,,,キョウトシチイキジョセイレンゴウカイ,0
2687,8140001125460,新規,0,2022-04-08,2022-04-08,株式会社ＧＡＲＬＩＣ　ＢＲＯＳ,,株式会社,兵庫県,神戸市灘区,篠原北町３丁目７－２８,,28,102,6570068,,,,,,,2022-04-08,1,,,,,ガーリックブロス,0
2689,8140003017540,新規,0,2022-04-08,2022-04-08,ＤｓＤ合同会社,,合同会社,兵庫県,神戸市中央区,琴ノ緒町３丁目３－２１蒲鉾ビル２Ｆ東,,28,110,6510094,,,,,,,2022-04-08,1,,,,,ディエスディ,0
2690,8140005026127,新規,0,2022-04-08,2022-04-08,一般社団法人日本ペットウェルネス協会,,その他の設立登記法人,兵庫県,芦屋市,高浜町３番１－４１２号,,28,206,6590033,,,,,,,2022-04-08,1,,,,,ニホンペットウェルネスキョウカイ,0
2696,8160001024108,新規,0,2022-04-08,2022-04-08,株式会社アップライズ,,株式会社,滋賀県,草津市,木川町８４８番地１アルページュ草津１０３号,,25,206,5250051,,,,,,,2022-04-08,1,,,,,アップライズ,0
2697,8160003002540,新規,0,2022-04-08,2022-04-08,合同会社Ａｖｅｎｉｙ,,合同会社,滋賀県,愛知郡愛荘町,愛知川１７６２番地１,,25,425,5291331,,,,,,,2022-04-08,1,,,,,アベニティ,0
2703,8180001150744,新規,0,2022-04-08,2022-04-08,株式会社ＫＴ総研,,株式会社,愛知県,名古屋市瑞穂区,駒場町７丁目１８番地,,23,108,4670807,,,,,,,2022-04-08,1,,,,,ケーティーソウケン,0
2704,8180001150777,新規,0,2022-04-08,2022-04-08,株式会社ＲＡＩＺＩＮＧ,,株式会社,愛知県,一宮市,森本３丁目２５番地５コンテッサトーレ１Ｂ,,23,203,4910831,,,,,,,2022-04-08,1,,,,,ライジング,0
2705,8180001150802,新規,0,2022-04-08,2022-04-08,株式会社きんぎょ,,株式会社,愛知県,名古屋市昭和区,広瀬町２丁目１０番地の２,,23,107,4660004,,,,,,,2022-04-08,1,,,,,キンギョ,0
2708,8180003023675,新規,0,2022-04-08,2022-04-08,合同会社セイバー,,合同会社,愛知県,犬山市,大字五郎丸字柿崎４８番地１,,23,215,4840066,,,,,,,2022-04-08,1,,,,,セイバー,0
2709,8180005019721,新規,0,2022-04-08,2022-04-08,税理士法人キャンター,,その他の設立登記法人,愛知県,名古屋市中区,丸の内１丁目１７番１９号キリックス丸の内ビル９Ｆ,,23,106,4600002,,,,,,,2022-04-08,1,,,,,キャンター,0
2716,8210005010016,新規,0,2022-04-08,2022-04-08,医療法人育ちのクリニック津田,,その他の設立登記法人,福井県,福井市,江端町第６号４８番地,,18,201,9188016,,,,,,,2022-04-08,1,,,,,ソダチノクリニックツダ,0
2718,8230001019298,新規,0,2022-04-08,2022-04-08,小谷企画株式会社,,株式会社,富山県,南砺市,下出１９１９番地１,,16,210,9391908,,,,,,,2022-04-08,1,,,,,オタニキカク,0
2726,8260001036720,新規,0,2022-04-08,2022-04-08,両備ウェルネス株式会社,,株式会社,岡山県,岡山市北区,下石井２丁目１０番１２号,,33,101,7000907,,,,,,,2022-04-08,1,,,,,リョウビウェルネス,0
2742,8290003012345,新規,0,2022-04-08,2022-04-08,合同会社Ｃ＆Ｃ,,合同会社,福岡県,久留米市,上津町２１２５番地１７０,,40,203,8300052,,,,,,,2022-04-08,1,,,,,シーアンドシー,0
2743,8290003012378,新規,0,2022-04-08,2022-04-08,合同会社ベルスリー,,合同会社,福岡県,福岡市中央区,六本松３丁目１番１１号グランドシャルマン桜坂４０１号,,40,133,8100044,,,,,,,2022-04-08,1,,,,,ベルスリー,0
2746,8290801028419,新規,0,2022-04-08,2022-04-08,Ｇａｒａｇｅ３８株式会社,,株式会社,福岡県,田川市,大字弓削田３１９６番地１,,40,206,8260041,,,,,,,2022-04-08,1,,,,,ガレージサンパチ,0
2749,8310001017814,新規,0,2022-04-08,2022-04-08,株式会社リラ・ホーム企画,,株式会社,長崎県,佐世保市,天満町４番２５号,,42,202,8570043,,,,,,,2022-04-08,1,,,,,リラホームキカク,0
2754,8320001019009,新規,0,2022-04-08,2022-04-08,株式会社石成工業,,株式会社,大分県,佐伯市,春日町４番３４号,,44,205,8760806,,,,,,,2022-04-08,1,,,,,セキセイコウギョウ,0
2755,8330003009320,新規,0,2022-04-08,2022-04-08,合同会社つくし,,合同会社,熊本県,玉名郡南関町,大字関町１４６３,,43,367,8610803,,,,,,,2022-04-08,1,,,,,ツクシ,0
2760,8360001030218,新規,0,2022-04-08,2022-04-08,ローヤルトレーディング株式会社,,株式会社,沖縄県,中頭郡読谷村,字高志保３１７番地４,,47,324,9040323,,,,,,,2022-04-08,1,,,,,ローヤルトレーディング,0
2761,8360001030242,新規,0,2022-04-08,2022-04-08,株式会社榊屋組,00126209,株式会社,沖縄県,中頭郡読谷村,字座喜味６１０番地,,47,324,9040301,,,,,,,2022-04-08,1,,,,,サカキヤグミ,0
2766,8370001048390,新規,0,2022-04-08,2022-04-08,イースメリング株式会社,,株式会社,宮城県,石巻市,大街道南５丁目９番４６号,,04,202,9860856,,,,,,,2022-04-08,1,,,,,イースメリング,0
2767,8370001048432,新規,0,2022-04-08,2022-04-08,株式会社小池工業,,株式会社,宮城県,仙台市太白区,西多賀１丁目３番２５号,,04,104,9820034,,,,,,,2022-04-08,1,,,,,コイケコウギョウ,0
2778,8410001003309,新規,0,2022-04-08,2022-04-08,株式会社伊藤建設,,株式会社,秋田県,秋田市,山王２丁目１０番１２号,,05,201,0100951,,,,,,,2022-04-08,1,,,,,イトウケンセツ,0
2779,8410003003637,新規,0,2022-04-08,2022-04-08,合同会社エリアライフサポート,,合同会社,秋田県,湯沢市,若葉町１０番３号,,05,207,0120869,,,,,,,2022-04-08,1,,,,,エリアライフサポート,0
2780,8420001017794,新規,0,2022-04-08,2022-04-08,株式会社竹内産業,,株式会社,青森県,十和田市,大字三本木字下平１８０番地７,,02,206,0340001,,,,,,,2022-04-08,1,,,,,タケウチサンギョウ,0
2781,8420001017803,新規,0,2022-04-08,2022-04-08,株式会社ＭＫ総建,,株式会社,青森県,弘前市,大字城東中央５丁目４番地１３,,02,202,0368093,,,,,,,2022-04-08,1,,,,,エムケーソウケン,0
2782,8420005007800,新規,0,2022-04-08,2022-04-08,一般社団法人ＫＯＴＡＫＥ　ＳＯＣＩＡＬ　ＡＴＨＬＥＴＥＳ,,その他の設立登記法人,青森県,青森市,大字三内字丸山１７１番地１５,,02,201,0380031,,,,,,,2022-04-08,1,,,,,コタケソーシャルアスリーツ,0
2788,8430001086335,新規,0,2022-04-08,2022-04-08,株式会社クロスワークス,,株式会社,北海道,札幌市北区,麻生町４丁目１２－６ＬＣ麻生館５階,,01,102,0010045,,,,,,,2022-04-08,1,,,,,クロスワークス,0
2789,8430001086368,新規,0,2022-04-08,2022-04-08,上原鉄筋工業株式会社,,株式会社,北海道,札幌市中央区,北二条東７丁目８２番地１３０１号,,01,101,0600032,,,,,,,2022-04-08,1,,,,,ウエハラテッキンコウギョウ,0
2790,8430001086392,新規,0,2022-04-08,2022-04-08,株式会社カナイ,,株式会社,北海道,札幌市豊平区,福住二条３丁目１番１１号,,01,105,0620042,,,,,,,2022-04-08,1,,,,,カナイ,0
2792,8430003013774,新規,0,2022-04-08,2022-04-08,合同会社こども未来研究会,,合同会社,北海道,岩見沢市,七条東１丁目４５番地４,,01,210,0680007,,,,,,,2022-04-08,1,,,,,コドモミライケンキュウカイ,0
2793,8430003013782,新規,0,2022-04-08,2022-04-08,合同会社こんのでんき,,合同会社,北海道,白老郡白老町,東町２丁目１番１０号,,01,578,0590904,,,,,,,2022-04-08,1,,,,,コンノデンキ,0
2794,8430005014440,新規,0,2022-04-08,2022-04-08,ＮＰＯ法人シオリ,,その他の設立登記法人,北海道,石狩市,花畔一条１丁目３８番地,,01,235,0613281,,,,,,,2022-04-08,1,,,,,シオリ,0
2796,8450001013667,新規,0,2022-04-08,2022-04-08,株式会社マリートラスト,,株式会社,北海道,旭川市,永山十条５丁目５番５－３号,,01,204,0798420,,,,,,,2022-04-08,1,,,,,マリートラスト,0
2799,8460103001445,新規,0,2022-04-08,2022-04-08,合同会社晴れ,,合同会社,北海道,帯広市,東二条南１２丁目２－１８,,01,207,0800802,,,,,,,2022-04-08,1,,,,,,0
2801,8480001011701,新規,0,2022-04-08,2022-04-08,株式会社スカイアート,,株式会社,徳島県,小松島市,南小松島町４番３号,,36,203,7730005,,,,,,,2022-04-08,1,,,,,スカイアート,0
2802,8480003001816,新規,0,2022-04-08,2022-04-08,合同会社縁,,合同会社,徳島県,吉野川市,鴨島町鴨島１６５番地３,,36,205,7760010,,,,,,,2022-04-08,1,,,,,エニシ,0
2806,8700150107731,新規,0,2022-04-08,2022-04-08,ＡＢ　Ｖｏｌｖｏ,,外国会社等,,,,,,,,４０５　０８　Ｇｏｔｅｂｏｒｇ　Ｓｗｅｄｅｎ,,,,,,2022-04-08,1,,,,,エービーボルボ,0
2810,9010001225669,新規,0,2022-04-08,2022-04-08,Ｔｅｃｓｔａｎｄａｒｄ株式会社,,株式会社,東京都,中央区,東日本橋３丁目３番４号ダイヤモンドビル東日本橋第３・２０１号,,13,102,1030004,,,,,,,2022-04-08,1,,,,,テックスタンダード,0
2811,9010001225685,新規,0,2022-04-08,2022-04-08,スミセイ・アセット・マネジメント株式会社,,株式会社,東京都,中央区,築地７丁目１８番２４号,,13,102,1040045,,,,,,,2022-04-08,1,,,,,スミセイアセットマネジメント,0
2818,9010005034810,新規,0,2022-04-08,2022-04-08,一般社団法人日本給食経営管理学会,,その他の設立登記法人,東京都,文京区,本郷３丁目３番１１号ＮＣＫビル５Ｆ株式会社コンパス内,,13,105,1130033,,,,,,,2022-04-08,1,,,,,ニホンキュウショクケイエイカンリガッカイ,0
2819,9010005034819,新規,0,2022-04-08,2022-04-08,一般社団法人日本ウッドクラフトマイスター協会,,その他の設立登記法人,東京都,中央区,明石町１１番１５号ミキジ明石町ビル６階木楽舎内,,13,102,1040044,,,,,,,2022-04-08,1,,,,,ニホンウッドクラフトマイスターキョウカイ,0
2827,9010403027424,新規,0,2022-04-08,2022-04-08,合同会社ＵＡＦ,,合同会社,東京都,港区,虎ノ門３丁目２２番１０－２０１号,,13,103,1050001,,,,,,,2022-04-08,1,,,,,ユーエーエフ,0
2828,9010403027457,新規,0,2022-04-08,2022-04-08,Ｄｉｓｃｏｖｅｒｙ１合同会社,,合同会社,東京都,港区,赤坂２丁目１０番５号税理士法人赤坂国際会計事務所内,,13,103,1070052,,,,,,,2022-04-08,1,,,,,ディスカバリーワン,0
2829,9010403027473,新規,0,2022-04-08,2022-04-08,合同会社ＳＡＮＴＯＳ,,合同会社,東京都,港区,白金台１丁目１番１３－５０２号,,13,103,1080071,,,,,,,2022-04-08,1,,,,,サントス,0
2838,9010601060937,新規,0,2022-04-08,2022-04-08,株式会社ＯＢＵ,,株式会社,東京都,江東区,有明３丁目７番１１号有明パークビル２０階,,13,108,1350063,,,,,,,2022-04-08,1,,,,,オービーユー,0
2841,9010603009478,新規,0,2022-04-08,2022-04-08,合同会社Ｈｅａｒｔ　Ｇａｌａ,,合同会社,東京都,江東区,有明１丁目４－１１－２５１３,,13,108,1350063,,,,,,,2022-04-08,1,,,,,ハートガラ,0
2846,9010801032868,新規,0,2022-04-08,2022-04-08,神清産業株式会社,,株式会社,東京都,大田区,久が原３丁目３１番１２号,,13,111,1460085,,,,,,,2022-04-08,1,,,,,シンセイサンギョウ,0
2847,9010801032876,新規,0,2022-04-08,2022-04-08,株式会社エヴァビ,,株式会社,東京都,大田区,西馬込１丁目９番１８号,,13,111,1430026,,,,,,,2022-04-08,1,,,,,エヴァビ,0
2849,9010803004122,新規,0,2022-04-08,2022-04-08,合同会社ともえ会計,,合同会社,東京都,大田区,東雪谷２丁目１９番９号,,13,111,1450065,,,,,,,2022-04-08,1,,,,,トモエカイケイ,0
2850,9010901050613,新規,0,2022-04-08,2022-04-08,株式会社ＡＶＩＡＬＡＥ,,株式会社,東京都,世田谷区,下馬２丁目２１番２７－２１８号,,13,112,1540002,,,,,,,2022-04-08,1,,,,,アヴィアラエ,0
2851,9010901050646,新規,0,2022-04-08,2022-04-08,株式会社Ｍｏｖａｒｉｃｅ　Ｅｎｔｅｒｔａｉｎｍｅｎｔ,,株式会社,東京都,世田谷区,等々力１丁目３０番２号,,13,112,1580082,,,,,,,2022-04-08,1,,,,,モバリスエンターテインメント,0
2852,9010903007289,新規,0,2022-04-08,2022-04-08,ＨＹＧ　ＡＲＣＨＩＴＥＣＴＳ合同会社,,合同会社,東京都,世田谷区,太子堂４丁目２７－４、２階,,13,112,1540004,,,,,,,2022-04-08,1,,,,,ハイジアーキテクツ,0
2856,9011001146640,新規,0,2022-04-08,2022-04-08,株式会社エイリアンズ,,株式会社,東京都,目黒区,自由が丘１丁目１３番１３号ＫＡＷＡＢＥＢＬＤ４Ｆ,,13,110,1520035,,,,,,,2022-04-08,1,,,,,エイリアンズ,0
2857,9011001146772,新規,0,2022-04-08,2022-04-08,株式会社ｂｅｅｒ,,株式会社,東京都,目黒区,五本木３丁目２９番３号ＢＥテラス学芸大学２０４,,13,110,1530053,,,,,,,2022-04-08,1,,,,,ビアー,0
2858,9011001146789,新規,0,2022-04-08,2022-04-08,株式会社ｉｍｍｅｄｉｏ,,株式会社,東京都,渋谷区,円山町２８番１号渋谷道玄坂スカイビル１１Ｆ,,13,113,1500044,,,,,,,2022-04-08,1,,,,,イメディオ,0
2860,9011003014465,新規,0,2022-04-08,2022-04-08,ＧＯＯＤＭＡＮ合同会社,,合同会社,東京都,目黒区,自由が丘３丁目１番１５号メゾン自由が丘３０１,,13,110,1520035,,,,,,,2022-04-08,1,,,,,グッドマン,0
2861,9011003014481,新規,0,2022-04-08,2022-04-08,ａｎｏｔｅ合同会社,,合同会社,東京都,渋谷区,道玄坂１丁目１０番８号渋谷道玄坂東急ビル２Ｆ－Ｃ,,13,113,1500043,,,,,,,2022-04-08,1,,,,,アノテ,0
2862,9011003014498,新規,0,2022-04-08,2022-04-08,合同会社エスポワール,,合同会社,東京都,目黒区,自由が丘１丁目７番１３号,,13,110,1520035,,,,,,,2022-04-08,1,,,,,エスポワール,0
2864,9011005009538,新規,0,2022-04-08,2022-04-08,特定非営利活動法人ＯＮＥＳＨＩＰ,,その他の設立登記法人,東京都,渋谷区,神宮前６丁目２３番４号桑野ビル２階,,13,113,1500001,,,,,,,2022-04-08,1,,,,,ワンシップ,0
2865,9011101098435,新規,0,2022-04-08,2022-04-08,ベエルシェバジャパン株式会社,,株式会社,東京都,新宿区,新宿４丁目３番１５号レイフラット新宿Ｂ棟３Ｆ,,13,104,1600022,,,,,,,2022-04-08,1,,,,,ベエルシェバジャパン,0
2866,9011101098476,新規,0,2022-04-08,2022-04-08,早稲田大学ベンチャーズ株式会社,,株式会社,東京都,新宿区,西早稲田１丁目２２番３号,,13,104,1690051,,,,,,,2022-04-08,1,,,,,ワセダダイガクベンチャーズ,0
2870,9011303004372,新規,0,2022-04-08,2022-04-08,Ｓｅｒａｖｉ‐Ｐすぎなみ合同会社,,合同会社,東京都,杉並区,荻窪１丁目１番３３号,,13,115,1670051,,,,,,,2022-04-08,1,,,,,セラヴィーピィスギナミ,0
2874,9011401024132,新規,0,2022-04-08,2022-04-08,Ｇｒｅａｔ　Ｇｌｏｒｙ株式会社,,株式会社,東京都,板橋区,大山金井町４７番１１号大山サンハイツ７０２号室,,13,119,1730024,,,,,,,2022-04-08,1,,,,,グレートグローリー,0
2876,9011405002183,新規,0,2022-04-08,2022-04-08,一般社団法人日本演奏家支援協会,,その他の設立登記法人,東京都,板橋区,大山西町５６番７号１１０１号室,,13,119,1730033,,,,,,,2022-04-08,1,,,,,ニホンエンソウカシエンキョウカイ,0
2879,9011601025871,新規,0,2022-04-08,2022-04-08,Ａｃｔｖｅｒｓｅ株式会社,,株式会社,東京都,練馬区,田柄３丁目１３番２３号,,13,120,1790073,,,,,,,2022-04-08,1,,,,,アクトバース,0
2883,9011801040530,新規,0,2022-04-08,2022-04-08,ワンズ株式会社,,株式会社,東京都,足立区,西新井６丁目３９番１６号,,13,121,1230841,,,,,,,2022-04-08,1,,,,,ワンズ,0
2884,9011801040547,新規,0,2022-04-08,2022-04-08,株式会社ＦＡＲＩＤＵＮ,,株式会社,東京都,足立区,加平１丁目２１番３号,,13,121,1210055,,,,,,,2022-04-08,1,,,,,ファリドゥン,0
2885,9012301012945,新規,0,2022-04-08,2022-04-08,株式会社よこでん,,株式会社,東京都,町田市,相原町４６７９番地１,,13,209,1940211,,,,,,,2022-04-08,1,,,,,ヨコデン,0
2888,9012401039046,新規,0,2022-04-08,2022-04-08,アンドエヌ株式会社,,株式会社,東京都,調布市,西つつじケ丘３丁目３４番地２,,13,208,1820006,,,,,,,2022-04-08,1,,,,,アンドエヌ,0
2889,9012405004723,新規,0,2022-04-08,2022-04-08,一般社団法人日本学生相談学会,,その他の設立登記法人,東京都,武蔵野市,西久保１丁目１番９－２０３号,,13,203,1800013,,,,,,,2022-04-08,1,,,,,ニホンガクセイソウダンガッカイ,0
2906,9020001145957,新規,0,2022-04-08,2022-04-08,株式会社エバラビジネス・マネジメント,,株式会社,神奈川県,横浜市西区,みなとみらい４丁目４番５号横浜アイマークプレイス,,14,103,2200012,,,,,,,2022-04-08,1,,,,,エバラビジネスマネジメント,0
2907,9020001146006,新規,0,2022-04-08,2022-04-08,株式会社ｎｅｎｌｉｎ,,株式会社,神奈川県,横浜市西区,中央１丁目４３番１２－６０３号シンベルク横濱,,14,103,2200051,,,,,,,2022-04-08,1,,,,,ネンリン,0
2908,9020001146014,新規,0,2022-04-08,2022-04-08,株式会社ＣｏＣｏＲｏ,,株式会社,神奈川県,川崎市高津区,溝口３丁目２番１２－８０３号ＢＬＥＳＳ溝ノ口,,14,134,2130001,,,,,,,2022-04-08,1,,,,,ココロ,0
2910,9020003021553,新規,0,2022-04-08,2022-04-08,ＬｅａｄｉｎＣ合同会社,,合同会社,神奈川県,横浜市神奈川区,栄町５－１横浜クリエーションスクエア１４階,,14,102,2210052,,,,,,,2022-04-08,1,,,,,リーディンク,0
2922,9021001075566,新規,0,2022-04-08,2022-04-08,株式会社三井塗装,,株式会社,神奈川県,藤沢市,遠藤８５７番地の９ｋａｇｅｔｕ湘南１０２,,14,205,2520816,,,,,,,2022-04-08,1,,,,,ミツイトソウ,0
2923,9021001075657,新規,0,2022-04-08,2022-04-08,株式会社Ｌｉｔｍ,,株式会社,神奈川県,藤沢市,辻堂神台２丁目２番１号アイクロス湘南５Ｅ,,14,205,2510041,,,,,,,2022-04-08,1,,,,,リトム,0
2927,9021003011528,新規,0,2022-04-08,2022-04-08,ＡＲＩ合同会社,,合同会社,神奈川県,大和市,下和田２６２－７２－５０６,,14,213,2420015,,,,,,,2022-04-08,1,,,,,アリ,0
2928,9021003011544,新規,0,2022-04-08,2022-04-08,合同会社あまの,,合同会社,神奈川県,相模原市中央区,淵野辺４丁目１９番１９号,,14,152,2520206,,,,,,,2022-04-08,1,,,,,アマノ,0
2935,9030001147580,新規,0,2022-04-08,2022-04-08,株式会社ヴィーナス,,株式会社,埼玉県,秩父郡東秩父村,大字坂本１０５７番地,,11,369,3550372,,,,,,,2022-04-08,1,,,,,ヴィーナス,0
2945,9040001122822,新規,0,2022-04-08,2022-04-08,株式会社ＪＯＹシステム,,株式会社,千葉県,市川市,大野町１丁目３９０番地６,,12,203,2720805,,,,,,,2022-04-08,1,,,,,ジョイシステム,0
2946,9040001122855,新規,0,2022-04-08,2022-04-08,株式会社未来地図,,株式会社,千葉県,鎌ケ谷市,新鎌ケ谷１丁目１０番２７号１Ｆ,,12,224,2730107,,,,,,,2022-04-08,1,,,,,ミライチズ,0
2947,9040001122863,新規,0,2022-04-08,2022-04-08,株式会社渡来工業,,株式会社,千葉県,柏市,豊四季２９４番地２１,,12,217,2770863,,,,,,,2022-04-08,1,,,,,ワタライコウギョウ,0
2948,9040001122946,新規,0,2022-04-08,2022-04-08,ＢＬ００Ｍ　ＲＥＣＯＲＤＳ株式会社,,株式会社,千葉県,市川市,新田４丁目１８番２２号ハイホーム田中２０３号,,12,203,2720035,,,,,,,2022-04-08,1,,,,,ブルームレコーズ,0
2949,9040001122962,新規,0,2022-04-08,2022-04-08,ＭｅｉｓｔｅｒＭ株式会社,,株式会社,千葉県,茂原市,東郷１３７８番地,,12,210,2970017,,,,,,,2022-04-08,1,,,,,マイスターエム,0
2952,9040003019793,新規,0,2022-04-08,2022-04-08,合同会社大沼コーポレーション,,合同会社,千葉県,南房総市,千倉町忽戸３６８番地１,,12,234,2950022,,,,,,,2022-04-08,1,,,,,オオヌマコーポレーション,0
2953,9040003019802,新規,0,2022-04-08,2022-04-08,合同会社ＦＯＦ,,合同会社,千葉県,我孫子市,布佐８２１番地の１,,12,222,2701101,,,,,,,2022-04-08,1,,,,,エフオーエフ,0
2954,9040003019835,新規,0,2022-04-08,2022-04-08,合同会社ＴＯＰ,,合同会社,千葉県,浦安市,富士見２丁目１番８号,,12,227,2790043,,,,,,,2022-04-08,1,,,,,ティーオーピー,0
2955,9040003019843,新規,0,2022-04-08,2022-04-08,合同会社ベリシュア,,合同会社,千葉県,船橋市,八木が谷２丁目４４番６－２号,,12,204,2740802,,,,,,,2022-04-08,1,,,,,ベリシュア,0
2958,9050001050931,新規,0,2022-04-08,2022-04-08,株式会社ラシクアス,,株式会社,茨城県,つくば市,谷田部３４８４番地５,,08,220,3050861,,,,,,,2022-04-08,1,,,,,ラシクアス,0
2960,9050003006485,新規,0,2022-04-08,2022-04-08,合同会社ワイ・テック,,合同会社,茨城県,土浦市,乙戸南２丁目１４番１８号,,08,203,3000845,,,,,,,2022-04-08,1,,,,,ワイテック,0
2970,9080005007446,新規,0,2022-04-08,2022-04-08,ベンガル協同組合,,その他の設立登記法人,静岡県,静岡市駿河区,八幡２丁目８の１９,,22,102,4228076,,,,,,,2022-04-08,1,,,,,ベンガル,0
2973,9080103002571,新規,0,2022-04-08,2022-04-08,合同会社ＣＲＯＴＣＨＥＴ,,合同会社,静岡県,熱海市,伊豆山５７９番地の６０,,22,205,4130002,,,,,,,2022-04-08,1,,,,,クロチェット,0
2979,9080405007442,新規,0,2022-04-08,2022-04-08,医療法人社団田代歯科医院,,その他の設立登記法人,静岡県,浜松市中区,中央２丁目１０番１号,,22,131,4300929,,,,,,,2022-04-08,1,,,,,タシロシカイイン,0
2984,9100001035241,新規,0,2022-04-08,2022-04-08,株式会社Ｂｌｕｅ　Ｏｃｅａｎ,,株式会社,長野県,長野市,広田４９番地１,,20,201,3812213,,,,,,,2022-04-08,1,,,,,ブルーオーシャン,0
2988,9110001036560,新規,0,2022-04-08,2022-04-08,ＤＥＮＫＵ株式会社,,株式会社,新潟県,新潟市南区,大通黄金４丁目１番地２１,,15,106,9501203,,,,,,,2022-04-08,1,,,,,デンクー,0
2989,9110001036569,新規,0,2022-04-08,2022-04-08,株式会社ＥＳＳＳＡＮ,,株式会社,新潟県,新潟市西区,西有明町４番３６号,,15,107,9502071,,,,,,,2022-04-08,1,,,,,エッサン,0
3007,9120001244872,新規,0,2022-04-08,2022-04-08,株式会社Ｃｏ,,株式会社,大阪府,大阪市阿倍野区,松崎町３丁目９番１－２０２号,,27,119,5450053,,,,,,,2022-04-08,1,,,,,シーオー,0
3008,9120001244897,新規,0,2022-04-08,2022-04-08,株式会社イチプロデュース,,株式会社,大阪府,枚方市,香里園桜木町２３番３５号,,27,210,5730088,,,,,,,2022-04-08,1,,,,,イチプロデュース,0
3009,9120001244947,新規,0,2022-04-08,2022-04-08,株式会社ＴＭＲ,,株式会社,大阪府,大阪市浪速区,日本橋５丁目９番１９号,,27,111,5560005,,,,,,,2022-04-08,1,,,,,ティーエムアール,0
3010,9120001245045,新規,0,2022-04-08,2022-04-08,株式会社ルミエールカラー,,株式会社,大阪府,大阪市此花区,西九条３丁目６番１３号,,27,104,5540012,,,,,,,2022-04-08,1,,,,,ルミエールカラー,0
3011,9120001245061,新規,0,2022-04-08,2022-04-08,株式会社ＳＨＥＬＭＯ,,株式会社,大阪府,大阪市東成区,深江北３丁目１０番７号,,27,115,5370001,,,,,,,2022-04-08,1,,,,,シェルモ,0
3012,9120001245078,新規,0,2022-04-08,2022-04-08,株式会社Ｍｏｎｏｃｈｒｏ,,株式会社,大阪府,守口市,南寺方北通２丁目３番１９号,,27,209,5700046,,,,,,,2022-04-08,1,,,,,モノクロ,0
3013,9120001245086,新規,0,2022-04-08,2022-04-08,ぐるぐるｉｎｃ．株式会社,,株式会社,大阪府,大阪市北区,梅田１丁目２番２号大阪駅前第２ビル２階５－６号室,,27,127,5300001,,,,,,,2022-04-08,1,,,,,グルグルインク,0
3014,9120001245128,新規,0,2022-04-08,2022-04-08,株式会社エマーブル,,株式会社,大阪府,大阪市西区,江戸堀２丁目１番１－２８号室,,27,106,5500002,,,,,,,2022-04-08,1,,,,,エマーブル,0
3017,9120003021394,新規,0,2022-04-08,2022-04-08,ＴＨＡＮＨ　ＴＵＡＮ合同会社,,合同会社,大阪府,大阪市大正区,三軒家東１丁目１６－１３－３０２,,27,108,5510002,,,,,,,2022-04-08,1,,,,,タントゥアン,0
3018,9120003021444,新規,0,2022-04-08,2022-04-08,合同会社Ｌｉｎｋ　Ｍａｒｔ,,合同会社,大阪府,大阪市北区,梅田１丁目１－３大阪駅前第３ビル２９階１－１－１号室,,27,127,5300001,,,,,,,2022-04-08,1,,,,,リンクマート,0
3019,9120003021452,新規,0,2022-04-08,2022-04-08,８４ＶＩＥＴＦＯＯＤ合同会社,,合同会社,大阪府,大阪市住吉区,杉本１丁目４番３号ハイムアーキテクト２０２号,,27,120,5580022,,,,,,,2022-04-08,1,,,,,ハチジョウヨンベトフード,0
3025,9120901045800,新規,0,2022-04-08,2022-04-08,株式会社Ｅａｒｔｈ,,株式会社,大阪府,摂津市,千里丘東３丁目８番１５－７０２号,,27,224,5660011,,,,,,,2022-04-08,1,,,,,アース,0
3026,9120901045825,新規,0,2022-04-08,2022-04-08,株式会社ＯＮＥ　ＰＲＯＤＵＣＴＩＯＮ,,株式会社,大阪府,箕面市,坊島１丁目９番１１号,,27,220,5620013,,,,,,,2022-04-08,1,,,,,ワンプロダクション,0
3029,9120905006311,新規,0,2022-04-08,2022-04-08,一般社団法人アカデミックリサーチセンター,,その他の設立登記法人,大阪府,高槻市,松川町２５番５号,,27,207,5690023,,,,,,,2022-04-08,1,,,,,アカデミックリサーチセンター,0
3031,9130001071457,新規,0,2022-04-08,2022-04-08,株式会社エヌ・チーム,,株式会社,京都府,京都市下京区,中堂寺南町１３４番地ＡＳＴＥＭ棟８階,,26,106,6008813,,,,,,,2022-04-08,1,,,,,エヌチーム,0
3032,9130005016433,新規,0,2022-04-08,2022-04-08,一般社団法人ウッドコンソーシアム山城,,その他の設立登記法人,京都府,京田辺市,多々羅前田３４番地１,,26,211,6100321,,,,,,,2022-04-08,1,,,,,ウッドコンソーシアムヤマシロ,0
3041,9140001125518,新規,0,2022-04-08,2022-04-08,八本松工業株式会社,,株式会社,兵庫県,三木市,志染町青山４丁目２番地の１４,,28,215,6730521,,,,,,,2022-04-08,1,,,,,ハチホンマツコウギョウ,0
3042,9140001125559,新規,0,2022-04-08,2022-04-08,株式会社池末組,,株式会社,兵庫県,神戸市灘区,楠丘町６丁目４番４－２０１号,,28,102,6570024,,,,,,,2022-04-08,1,,,,,イケスエグミ,0
3043,9140001125575,新規,0,2022-04-08,2022-04-08,株式会社ＬＩＥＮ,,株式会社,兵庫県,神戸市兵庫区,下沢通４丁目７番２８－６０３号,,28,105,6520047,,,,,,,2022-04-08,1,,,,,リアン,0
3047,9140003017556,新規,0,2022-04-08,2022-04-08,合同会社ｓｔｕｄｉｏ　ＢＥ,,合同会社,兵庫県,姫路市,町坪５８７番地４,,28,201,6700984,,,,,,,2022-04-08,1,,,,,スタジオビーイー,0
3054,9170001017051,新規,0,2022-04-08,2022-04-08,株式会社ヒートラスト,,株式会社,和歌山県,紀の川市,西大井６３－１,,30,208,6496417,,,,,,,2022-04-08,1,,,,,ヒートラスト,0
3056,9170003001706,新規,0,2022-04-08,2022-04-08,合同会社吉村,,合同会社,和歌山県,和歌山市,鷹匠町１丁目４８番地,,30,201,6408135,,,,,,,2022-04-08,1,,,,,ヨシムラ,0
3063,9180001150685,新規,0,2022-04-08,2022-04-08,株式会社ののじ,,株式会社,愛知県,名古屋市熱田区,金山町２丁目１番１０号,,23,109,4560002,,,,,,,2022-04-08,1,,,,,ノノジ,0
3064,9180001150743,新規,0,2022-04-08,2022-04-08,個別指導アクシス株式会社,,株式会社,愛知県,名古屋市天白区,山根町３１５番地の１,,23,116,4680038,,,,,,,2022-04-08,1,,,,,コベツシドウアクシス,0
3065,9180001150768,新規,0,2022-04-08,2022-04-08,セキュア株式会社,,株式会社,愛知県,東海市,加木屋町竹ケ谷１０８番地の２,,23,222,4770032,,,,,,,2022-04-08,1,,,,,セキュア,0
3066,9180001150776,新規,0,2022-04-08,2022-04-08,株式会社Ｉ　Ｏｎｅ,,株式会社,愛知県,名古屋市瑞穂区,田辺通１丁目１番地,,23,108,4670027,,,,,,,2022-04-08,1,,,,,アイワン,0
3067,9180001150801,新規,0,2022-04-08,2022-04-08,株式会社瀧塚,,株式会社,愛知県,知多郡阿久比町,大字植大字西山ノ手１９番地２,,23,441,4702216,,,,,,,2022-04-08,1,,,,,タキヅカ,0
3068,9180001150842,新規,0,2022-04-08,2022-04-08,ＳＩＭ株式会社,,株式会社,愛知県,名古屋市東区,東大曽根町４７番１０号,,23,102,4610022,,,,,,,2022-04-08,1,,,,,シム,0
3069,9180305009322,新規,0,2022-04-08,2022-04-08,一般社団法人のぞみ会,,その他の設立登記法人,愛知県,額田郡幸田町,大字野場字井戸田１７８番地,,23,501,4440128,,,,,,,2022-04-08,1,,,,,ノゾミカイ,0
3070,9190001029268,新規,0,2022-04-08,2022-04-08,株式会社七三郎商会,,株式会社,三重県,四日市市,諏訪栄町１７番３号,,24,202,5100086,,,,,,,2022-04-08,1,,,,,シチサブロウショウカイ,0
3071,9190001029284,新規,0,2022-04-08,2022-04-08,株式会社２ｓｔｅｐ,,株式会社,三重県,四日市市,前田町３０番１８－４１号,,24,202,5100893,,,,,,,2022-04-08,1,,,,,ツーステップ,0
3082,9230001019306,新規,0,2022-04-08,2022-04-08,株式会社クライム,,株式会社,富山県,富山市,石屋３３７番地１,,16,201,9398121,,,,,,,2022-04-08,1,,,,,クライム,0
3083,9230001019314,新規,0,2022-04-08,2022-04-08,株式会社小谷建築,,株式会社,富山県,高岡市,伏木古府２丁目２番４８号,,16,202,9330114,,,,,,,2022-04-08,1,,,,,,0
3092,9260003003874,新規,0,2022-04-08,2022-04-08,合同会社ｍｅ商店,,合同会社,岡山県,岡山市北区,東花尻５９番地１９,,33,101,7010135,,,,,,,2022-04-08,1,,,,,ミーショウテン,0
3095,9280005007475,新規,0,2022-04-08,2022-04-08,一般社団法人島根県中小建設工事業共栄会,,その他の設立登記法人,島根県,大田市,大田町大田イ１６４番地４,,32,205,6940064,,,,,,,2022-04-08,1,,,,,シマネケンチュウショウケンセツコウジギョウキョウエイカイ,0
3103,9290001097115,新規,0,2022-04-08,2022-04-08,九州高木株式会社,,株式会社,福岡県,福岡市早良区,原８丁目３３番８号,,40,137,8140022,,,,,,,2022-04-08,1,,,,,キュウシュウタカキ,0
3104,9290001097131,新規,0,2022-04-08,2022-04-08,海里工業株式会社,,株式会社,福岡県,福岡市南区,大平寺１丁目４０番３５号,,40,134,8111354,,,,,,,2022-04-08,1,,,,,カイリコウギョウ,0
3106,9290003012360,新規,0,2022-04-08,2022-04-08,センチュリークリニック合同会社,,合同会社,福岡県,朝倉市,板屋２番地１,,40,228,8380027,,,,,,,2022-04-08,1,,,,,センチュリークリニック,0
3107,9290003012377,新規,0,2022-04-08,2022-04-08,合同会社ジェントリー,,合同会社,福岡県,福津市,津屋崎３丁目１４番２９号,,40,224,8113304,,,,,,,2022-04-08,1,,,,,ジェントリー,0
3109,9290801028418,新規,0,2022-04-08,2022-04-08,株式会社スイキョー凜,,株式会社,福岡県,直方市,大字感田２６４３番地１１,,40,204,8220001,,,,,,,2022-04-08,1,,,,,スイキョーリン,0
3114,9320001019008,新規,0,2022-04-08,2022-04-08,株式会社Ｄｒａｗｅｒｓ,,株式会社,大分県,大分市,中央町１丁目３番１１号,,44,201,8700035,,,,,,,2022-04-08,1,,,,,ドロアーズ,0
3116,9350003004054,新規,0,2022-04-08,2022-04-08,合同会社ＷＡＹＷＡＹＮＡＮＧＯ,,合同会社,宮崎県,日南市,南郷町中村甲３０８０番地３８,,45,204,8893202,,,,,,,2022-04-08,1,,,,,ワイワイナンゴウ,0
3117,9360001030200,新規,0,2022-04-08,2022-04-08,株式会社宮古島ＥＶ給電機サービス,,株式会社,沖縄県,宮古島市,上野字野原８３－７,,47,214,9060201,,,,,,,2022-04-08,1,,,,,ミヤコジマイーブイキュウデンキサービス,0
3118,9360001030225,新規,0,2022-04-08,2022-04-08,ＣＬＯＵＤ９株式会社,,株式会社,沖縄県,那覇市,天久２丁目３０番２７号,,47,201,9000005,,,,,,,2022-04-08,1,,,,,クラウドナイン,0
3119,9370001048373,新規,0,2022-04-08,2022-04-08,株式会社ブランドパイオニア,,株式会社,宮城県,仙台市青葉区,北山１丁目１番３号朝日ハイツＦ１３,,04,101,9810931,,,,,,,2022-04-08,1,,,,,ブランドパイオニア,0
3120,9370001048415,新規,0,2022-04-08,2022-04-08,株式会社ＹＡＰファーム,,株式会社,宮城県,仙台市若林区,卸町５丁目１番地の７,,04,103,9840015,,,,,,,2022-04-08,1,,,,,ワイエーピーファーム,0
3139,9420001017802,新規,0,2022-04-08,2022-04-08,株式会社興晋技建,,株式会社,青森県,上北郡東北町,大字大浦字山添３３番地,,02,408,0392402,,,,,,,2022-04-08,1,,,,,キョウシンギケン,0
3142,9420005007799,新規,0,2022-04-08,2022-04-08,一般社団法人ＦＣトゥリオーニ,,その他の設立登記法人,青森県,五所川原市,字一ツ谷５０９番地１５,,02,205,0370016,,,,,,,2022-04-08,1,,,,,エフシートゥリオーニ,0
3146,9430001086326,新規,0,2022-04-08,2022-04-08,株式会社真和開工,,株式会社,北海道,美唄市,字美唄１０６６番地４９,,01,215,0720000,,,,,,,2022-04-08,1,,,,,シンワカイコウ,0
3147,9450001013666,新規,0,2022-04-08,2022-04-08,株式会社アルモニア,,株式会社,北海道,上川郡美瑛町,栄町１丁目２－２４,,01,459,0710205,,,,,,,2022-04-08,1,,,,,アルモニア,0
3149,9460103001444,新規,0,2022-04-08,2022-04-08,合同会社荻野興業,,合同会社,北海道,帯広市,西一条南２５丁目３番地２,,01,207,0800011,,,,,,,2022-04-08,1,,,,,オギノコウギョウ,0
3153,9480001011700,新規,0,2022-04-08,2022-04-08,ヘキサアドバンス株式会社,,株式会社,徳島県,板野郡藍住町,勝瑞字西勝地１３７番地１,,36,403,7711270,,,,,,,2022-04-08,1,,,,,ヘキサアドバンス,0
3157,9490005006836,新規,0,2022-04-08,2022-04-08,一般社団法人のぞみ,,その他の設立登記法人,高知県,四万十市,山路３８６番地２,,39,210,7870157,,,,,,,2022-04-08,1,,,,,ノゾミ,0
3163,9700150105602,新規,0,2022-04-08,2021-11-04,ＣａｖｅＧａｒｄｅｎＷｏｒｋｓ,,その他,滋賀県,甲賀市,信楽町上朝宮２４９－１,,25,209,5291841,,,,,,,2021-11-04,1,,,,,ケイヴガーデンワークス,0
3164,9700150106600,新規,0,2022-04-08,2022-01-13,ミュージカル県さが,,その他,佐賀県,鳥栖市,村田町３０７－６８,,41,203,8410072,,,,,,,2022-01-13,1,,,,,ミユージカルケンサガ,0
3165,9700150107524,新規,0,2022-04-08,2022-03-28,ゲキゲキ／劇団『劇団』,,その他,大阪府,大阪市中央区,大手通３丁目１番８号ＣｉｔｙＬｉｆｅエイペックス大手通７０３,,27,128,5400021,,,,,,,2022-03-28,1,,,,,ゲキゲキゲキダンゲキダン,0
3166,9700150107565,新規,0,2022-04-08,2022-03-31,光プロジェクト,,その他,愛知県,刈谷市,小垣江町本郷下３９－１５,,23,210,4480813,,,,,,,2022-03-31,1,,,,,ヒカリプロジエクト,0
3167,9700150107697,新規,0,2022-04-08,2022-04-05,下関港湾協会,,その他,山口県,下関市,東大和町１丁目１０－５０,,35,201,7500066,,,,,,,2022-04-05,1,,,,,シモノセキコウワンキヨウカイ,0
