sequenceNumber,corporateNumber,process,correct,updateDate,changeDate,name,nameImageId,kind,prefectureName,cityName,streetNumber,addressImageId,prefectureCode,cityCode,postCode,addressOutside,addressOutsideImageId,closeDate,closeCause,successorCorporateNumber,changeCause,assignmentDate,latest,enName,enPrefectureName,enCityName,enAddressOutside,furigana,hihyoji
3,1010001179625,登記記録の閉鎖等,0,2024-02-13,2024-02-07,株式会社マスターズ,,株式会社,東京都,千代田区,神田須田町１丁目８番３－１３０３号,,13,101,1010041,,,2024-02-07,清算の結了等,,,2016-11-15,1,,,,,マスターズ,0
5,1010001215859,登記記録の閉鎖等,0,2024-02-13,2024-02-07,ＢＵＫＡＳ株式会社,,株式会社,東京都,千代田区,東神田２丁目６番７号６０８,,13,101,1010031,,,2024-02-07,清算の結了等,,,2021-02-16,1,,,,,ブカス,0
10,1010002022981,登記記録の閉鎖等,0,2024-02-13,2024-02-06,有限会社東染廣田商店,,有限会社,東京都,中央区,日本橋小伝馬町８番１０号,,13,102,1030001,,,2024-02-06,清算の結了等,,,2015-10-05,1,,,,,アズマゾメヒロタショウテン,0
23,1010401103639,登記記録の閉鎖等,0,2024-02-13,2024-02-06,株式会社ＩＮＩＴ,,株式会社,東京都,港区,港南２丁目１５番１号,,13,103,1080075,,,2024-02-06,清算の結了等,,,2015-10-05,1,,,,,イニト,0
28,1010601008605,登記記録の閉鎖等,0,2024-02-13,2024-02-05,東陽通信設備株式会社,,株式会社,東京都,江東区,東陽３丁目２２番１号,,13,108,1350016,,,2024-02-05,清算の結了等,,,2015-10-05,1,,,,,トウヨウツウシンセツビ,0
37,1011001105802,登記記録の閉鎖等,0,2024-02-13,2024-02-06,ＦＦＡＳ株式会社,,株式会社,東京都,千代田区,東神田２丁目８番１１号萬産ビル,,13,101,1010031,,,2024-02-06,合併による解散等,1180001085088,令和６年２月１日愛知県稲沢市駅前三丁目１１番１号ジャパン・イースタン・トレード株式会社（1180001085088）に合併し解散,2015-10-05,1,,,,,エフエフエーエス,0
40,1011001119075,登記記録の閉鎖等,0,2024-02-13,2024-02-08,株式会社ＡＤＡＳＴＲＩＡ　ｅａｔ　Ｃｒｅａｔｉｏｎｓ,,株式会社,東京都,渋谷区,渋谷２丁目２１番１号,,13,113,1500002,,,2024-02-08,清算の結了等,,,2017-11-07,1,,,,,アダストリアイートクリエイションズ,0
43,1011003008367,登記記録の閉鎖等,0,2024-02-13,2024-02-05,合同会社Ｉｌ　Ｃｉｅｌｏ,,合同会社,東京都,目黒区,下目黒３丁目５番１６－３０６号,,13,110,1530064,,,2024-02-05,清算の結了等,,,2017-12-28,1,,,,,イルチェーロ,0
57,1011801012017,登記記録の閉鎖等,0,2024-02-13,2024-02-05,株式会社松井産業,,株式会社,千葉県,野田市,尾崎台４６番地の６,,12,208,2700238,,,2024-02-05,清算の結了等,,,2015-10-05,1,,,,,マツイサンギョウ,0
61,1013301044671,登記記録の閉鎖等,0,2024-02-13,2024-02-01,株式会社アクロビジョンテクノソリューションズ,,株式会社,東京都,豊島区,東池袋１丁目３５番３号池袋センタービル８階,,13,116,1700013,,,2024-02-01,合併による解散等,1013303001489,令和６年２月１日東京都豊島区東池袋１－３５－３池袋センタービル８Ｆ株式会社アクロビジョン（1013303001489）に合併し解散,2019-10-29,1,,,,,アクロビジョンテクノソリューションズ,0
69,1030001119389,登記記録の閉鎖等,0,2024-02-13,2024-02-05,株式会社ＨＹ　ｓｔａｒ,,株式会社,埼玉県,越谷市,瓦曽根２丁目６番３４号,,11,222,3430821,,,2024-02-05,清算の結了等,,,2017-03-28,1,,,,,ハイスター,0
70,1030001124232,登記記録の閉鎖等,0,2024-02-13,2024-01-29,株式会社ＩＶＹ　ＳＰＡＣＥ,,株式会社,埼玉県,川口市,大字里１４６１番地の８,,11,203,3340005,,,2024-01-29,清算の結了等,,,2018-02-09,1,,,,,アイビイスペース,0
90,1040002046045,登記記録の閉鎖等,0,2024-02-13,2024-02-05,有限会社佐藤建材商事,,有限会社,千葉県,松戸市,六高台９丁目７０番地メゾンエクレーレ松戸六高台７０１号,,12,207,2702203,,,2024-02-05,清算の結了等,,,2015-10-05,1,,,,,サトウケンザイショウジ,0
97,1050003002500,登記記録の閉鎖等,0,2024-02-13,2024-02-06,合同会社茨城トラスト,,合同会社,茨城県,日立市,十王町友部３５５４番地の１,,08,202,3191304,,,2024-02-06,清算の結了等,,,2015-10-05,1,,,,,イバラキトラスト,0
108,1110002029447,登記記録の閉鎖等,0,2024-02-13,2024-02-06,有限会社ヤマダコーポレーション,,有限会社,新潟県,長岡市,平島３丁目２３３番地１,,15,202,9401163,,,2024-02-06,合併による解散等,6110002029343,令和６年１月３１日新潟県長岡市平島三丁目２３３番地１株式会社メガネ専科（6110002029343）に合併し解散,2015-10-05,1,,,,,ヤマダコーポレーション,0
132,1140001059327,登記記録の閉鎖等,0,2024-02-13,2024-02-02,株式会社システムワーク,,株式会社,兵庫県,姫路市,南今宿３番１０号,,28,201,6700054,,,2024-02-02,合併による解散等,4140001062567,令和６年２月１日兵庫県姫路市南今宿３番１９号株式会社加藤建築事務所（4140001062567）に合併し解散,2015-10-05,1,,,,,システムワーク,0
154,1180002001960,登記記録の閉鎖等,0,2024-02-13,2024-02-07,有限会社ゴヨーサービス,,有限会社,愛知県,清須市,西田中本城１３３番地,,23,233,4520933,,,2024-02-07,清算の結了等,,,2015-10-05,1,,,,,ゴヨーサービス,0
163,1230001009768,登記記録の閉鎖等,0,2024-02-13,2024-02-05,株式会社エム・ケイ・アイ紙工,,株式会社,富山県,高岡市,蓮花寺７７４番地の１,,16,202,9330802,,,2024-02-05,清算の結了等,,,2015-10-05,1,,,,,エムケイアイシコウ,0
185,1350002017519,登記記録の閉鎖等,0,2024-02-13,2024-02-07,有限会社フローリスト花恋人,,有限会社,宮崎県,串間市,大字西方３５６９番地１,,45,207,8880001,,,2024-02-07,清算の結了等,,,2015-10-05,1,,,,,フローリストカレンド,0
210,2010001119704,登記記録の閉鎖等,0,2024-02-13,2024-02-05,株式会社リタエンタープライズ,,株式会社,東京都,中央区,銀座７丁目１７番５号,,13,102,1040061,,,2024-02-05,清算の結了等,,,2015-10-05,1,,,,,リタエンタープライズ,0
218,2010003028135,登記記録の閉鎖等,0,2024-02-13,2024-02-06,ＴＲＹレジデンス３合同会社,,合同会社,東京都,千代田区,丸の内３丁目１番１号東京共同会計事務所内,,13,101,1000005,,,2024-02-06,清算の結了等,,,2018-08-21,1,,,,,ティーアールワイレジデンススリー,0
256,2011101066191,登記記録の閉鎖等,0,2024-02-13,2024-02-06,エスエルキューアイ・ジャパン株式会社,,株式会社,東京都,新宿区,西新宿７丁目２０番１号,,13,104,1600023,,,2024-02-06,清算の結了等,,,2015-10-05,1,,,,,エスエルキューアイジャパン,0
280,2020001116452,登記記録の閉鎖等,0,2024-02-13,2024-02-08,株式会社コセン,,株式会社,神奈川県,横浜市中区,花咲町１丁目４８番４号１Ｆ,,14,104,2310063,,,2024-02-08,清算の結了等,,,2016-06-03,1,,,,,コセン,0
284,2020002087503,登記記録の閉鎖等,0,2024-02-13,2024-01-19,有限会社村山製作所,,有限会社,神奈川県,川崎市宮前区,馬絹１７８３番地４,,14,136,2160035,,,2024-01-19,登記官による閉鎖,,,2015-10-05,1,,,,,,0
292,2030001076613,登記記録の閉鎖等,0,2024-02-13,2024-02-09,株式会社日営,,株式会社,宮城県,仙台市若林区,清水小路６番地１,,04,103,9840075,,,2024-02-09,清算の結了等,,,2015-10-05,1,,,,,ニチエイ,0
293,2030001144031,登記記録の閉鎖等,0,2024-02-13,2024-02-05,株式会社ヤクシン埼玉千間台営業所,,株式会社,埼玉県,越谷市,千間台東１丁目７番地１３－２Ｆ,,11,222,3430042,,,2024-02-05,清算の結了等,,,2021-08-27,1,,,,,ヤクシンサイタマセンゲンダイエイギョウショ,0
298,2030002110593,登記記録の閉鎖等,0,2024-02-13,2024-02-01,有限会社ジェイ企画,,有限会社,埼玉県,川口市,安行出羽３丁目１０番２号,,11,203,3340052,,,2024-02-01,清算の結了等,,,2015-10-05,1,,,,,ジェイキカク,0
310,2040003007838,登記記録の閉鎖等,0,2024-02-13,2024-02-05,合同会社天流,,合同会社,千葉県,船橋市,宮本３丁目１番１６号,,12,204,2730003,,,2024-02-05,清算の結了等,,,2015-10-23,1,,,,,テンリュウ,0
352,2120102003333,登記記録の閉鎖等,0,2024-02-13,2024-01-18,有限会社南堺ハウジング,,有限会社,大阪府,堺市,日置荘西町６６番地３,,27,201,5998114,,,2024-01-18,登記官による閉鎖,,,2015-10-05,1,,,,,,0
416,2340003000655,登記記録の閉鎖等,0,2024-02-13,2024-02-06,合同会社佳山商店,,合同会社,鹿児島県,薩摩川内市,御陵下町１番４号,,46,215,8950061,,,2024-02-06,清算の結了等,,,2015-10-05,1,,,,,カヤマショウテン,0
446,3010001016669,登記記録の閉鎖等,0,2024-02-13,2024-02-05,株式会社コミュニケーションプランニング,,株式会社,東京都,千代田区,麹町３丁目５番柳田ビル,,13,101,1020083,,,2024-02-05,清算の結了等,,,2015-10-05,1,,,,,コミュニケーションプランニング,0
455,3010001211955,登記記録の閉鎖等,0,2024-02-13,2024-02-06,株式会社Ｓｍａｒｔ　Ｓｔａｂｌｅｓ,,株式会社,東京都,千代田区,岩本町３丁目５－２合人社東京秋葉原ビル５０１号室,,13,101,1010032,,,2024-02-06,清算の結了等,,,2020-09-01,1,,,,,スマートスターブルズ,0
490,3011001090919,登記記録の閉鎖等,0,2024-02-13,2024-02-05,株式会社ステロタイプディー,,株式会社,東京都,渋谷区,初台２丁目５番８号,,13,113,1510061,,,2024-02-05,清算の結了等,,,2015-10-05,1,,,,,ステロタイプディー,0
504,3011401025020,登記記録の閉鎖等,0,2024-02-13,2024-02-08,株式会社Ｅａｇｌｅ　Ｓｔｕｄｉｏ,,株式会社,東京都,板橋区,中板橋２０－３河合ビル３Ｆ,,13,119,1730016,,,2024-02-08,清算の結了等,,,2023-04-11,1,,,,,イーグルスタジオ,0
517,3013202002859,登記記録の閉鎖等,0,2024-02-13,2024-02-05,有限会社佐治,,有限会社,東京都,目黒区,自由が丘３丁目１０番１８号,,13,110,1520035,,,2024-02-05,清算の結了等,,,2015-10-05,1,,,,,サジ,0
519,3020001053728,登記記録の閉鎖等,0,2024-02-13,2024-02-08,株式会社えのきざか,,株式会社,神奈川県,横浜市神奈川区,栄町１３番地１齋藤ビル１Ｆ,,14,102,2210052,,,2024-02-08,清算の結了等,,,2015-10-05,1,,,,,エノキザカ,0
521,3020001076349,登記記録の閉鎖等,0,2024-02-13,2024-02-08,株式会社サンテバイオサイエンス,,株式会社,神奈川県,川崎市高津区,坂戸３丁目２番１号,,14,134,2130012,,,2024-02-08,清算の結了等,,,2015-10-05,1,,,,,サンテバイオサイエンス,0
522,3020001096958,登記記録の閉鎖等,0,2024-02-13,2024-02-06,株式会社ＲＤＴ除染技術研究所,,株式会社,東京都,文京区,湯島３丁目６番１号全国家電会館３Ｆ,,13,105,1130034,,,2024-02-06,清算の結了等,,,2015-10-05,1,,,,,アールディティジョセンギジュツケンキュウジョ,0
529,3021001039980,登記記録の閉鎖等,0,2024-02-13,2024-02-08,株式会社いわさき,,株式会社,神奈川県,横須賀市,久里浜２丁目２４番５号,,14,201,2390831,,,2024-02-08,清算の結了等,,,2015-10-05,1,,,,,イワサキ,0
534,3021002043197,登記記録の閉鎖等,0,2024-02-13,2024-01-19,有限会社植守,,有限会社,神奈川県,座間市,入谷５丁目１９８０番地の１,,14,216,2520024,,,2024-01-19,登記官による閉鎖,,,2015-10-05,1,,,,,,0
535,3021002044740,登記記録の閉鎖等,0,2024-02-13,2024-02-08,有限会社大原商会,,有限会社,神奈川県,海老名市,東柏ケ谷４丁目２０番８号,,14,215,2430401,,,2024-02-08,清算の結了等,,,2015-10-05,1,,,,,オオハラショウカイ,0
563,3080002013915,登記記録の閉鎖等,0,2024-02-13,2024-02-07,有限会社マスオ塗装工業,,有限会社,静岡県,島田市,岸町５７５番地の１,,22,209,4270005,,,2024-02-07,清算の結了等,,,2015-10-05,1,,,,,マスオトソウコウギョウ,0
571,3080402005669,登記記録の閉鎖等,0,2024-02-13,2024-02-09,有限会社中川無線,,有限会社,静岡県,浜松市中央区,龍禅寺町３５７番地,,22,138,4300924,,,2024-02-09,清算の結了等,,,2015-10-05,1,,,,,ナカガワムセン,0
599,3120002022903,登記記録の閉鎖等,0,2024-02-13,2024-02-06,福元有限会社,,有限会社,大阪府,大阪市西区,九条１丁目２０番２３号,,27,106,5500027,,,2024-02-06,清算の結了等,,,2015-10-05,1,,,,,フクゲン,0
600,3120002054905,登記記録の閉鎖等,0,2024-02-13,2024-02-06,有限会社ジムクロウ,,有限会社,大阪府,大阪市中央区,船越町１丁目３番５号マーキュリー愛晃ビル３０５,,27,128,5400036,,,2024-02-06,清算の結了等,,,2015-10-05,1,,,,,ジムクロウ,0
607,3122001006671,登記記録の閉鎖等,0,2024-02-13,2024-01-18,マルヨシ工芸株式会社,,株式会社,大阪府,東大阪市,本庄５７５番地１７,,27,227,5780953,,,2024-01-18,登記官による閉鎖,,,2015-10-05,1,,,,,マルヨシコウゲイ,0
632,3210001017713,登記記録の閉鎖等,0,2024-02-13,2024-02-09,株式会社かがやき,,株式会社,福井県,福井市,大手３丁目１番１３号大手門ビル７階,,18,201,9100005,,,2024-02-09,清算の結了等,,,2019-09-11,1,,,,,カガヤキ,0
635,3230005002008,登記記録の閉鎖等,0,2024-02-13,2024-01-18,財団法人大谷女子高等学校,00079251,その他の設立登記法人,富山県,富山市,磯部町２１７番地,,16,201,9300077,,,2024-01-18,登記官による閉鎖,,,2015-10-05,1,,,,,,0
636,3240001034391,登記記録の閉鎖等,0,2024-02-13,2024-02-09,藤原木工株式会社,,株式会社,広島県,府中市,高木町１２５８番地,,34,208,7260013,,,2024-02-09,清算の結了等,,,2015-10-05,1,,,,,フジワラモッコウ,0
651,3290002015667,登記記録の閉鎖等,0,2024-02-13,2024-02-08,有限会社シテイ・シビル・コンサルタント,,有限会社,福岡県,北九州市小倉北区,下富野４丁目１５番３０号,,40,106,8020023,,,2024-02-08,清算の結了等,,,2015-10-05,1,,,,,シティシビルコンサルタント,0
661,3330005004745,登記記録の閉鎖等,0,2024-02-13,2024-01-19,特定非営利活動法人みらい,,その他の設立登記法人,熊本県,熊本市西区,松尾町上松尾１８番１,,43,103,8615283,,,2024-01-19,登記官による閉鎖,,,2015-10-05,1,,,,,,0
669,3380002007267,登記記録の閉鎖等,0,2024-02-13,2024-02-07,有限会社サン・クレア商会,,有限会社,福島県,福島市,仲間町２番１３号,,07,201,9608105,,,2024-02-07,清算の結了等,,,2015-10-05,1,,,,,サンクレアショウカイ,0
675,3430001031312,登記記録の閉鎖等,0,2024-02-13,2024-02-02,株式会社ウエル,,株式会社,北海道,札幌市豊平区,平岸三条１８丁目５番３７－１３０３号,,01,105,0620933,,,2024-02-02,清算の結了等,,,2015-10-05,1,,,,,ウエル,0
676,3430001045709,登記記録の閉鎖等,0,2024-02-13,2024-02-06,カナエコンサル株式会社,,株式会社,北海道,札幌市豊平区,平岸四条７丁目１番１－９０３号,,01,105,0620934,,,2024-02-06,清算の結了等,,,2015-10-05,1,,,,,カナエコンサル,0
681,3450005004163,登記記録の閉鎖等,0,2024-02-13,2024-01-18,学校法人こひつじ学園,,その他の設立登記法人,北海道,上川郡下川町,字上名寄原野二十三線北３番地,,01,468,0981216,,,2024-01-18,登記官による閉鎖,,,2018-05-21,1,,,,,コヒツジガクエン,0
684,3490002008270,登記記録の閉鎖等,0,2024-02-13,2024-02-02,有限会社カキタニ設備,,有限会社,高知県,四万十市,下田４３２２番地７,,39,210,7870155,,,2024-02-02,清算の結了等,,,2015-10-05,1,,,,,カキタニセツビ,0
786,4030001034387,登記記録の閉鎖等,0,2024-02-13,2024-02-05,株式会社アルーサインパクト,,株式会社,埼玉県,さいたま市中央区,上落合２丁目４番アルーサ北与野ノースピア２－２８０８,,11,105,3380001,,,2024-02-05,清算の結了等,,,2015-10-05,1,,,,,アルーサインパクト,0
792,4030001134303,登記記録の閉鎖等,0,2024-02-13,2024-02-05,株式会社楽,,株式会社,埼玉県,川越市,新宿町１丁目１６番地４,,11,201,3501124,,,2024-02-05,清算の結了等,,,2019-12-17,1,,,,,ラク,0
797,4030002117323,登記記録の閉鎖等,0,2024-02-13,2024-02-06,有限会社モスイチマルニ,,有限会社,埼玉県,深谷市,上野台２４８５番地,,11,218,3660801,,,2024-02-06,清算の結了等,,,2015-10-05,1,,,,,モスイチマルニ,0
803,4040001061273,登記記録の閉鎖等,0,2024-02-13,2024-02-05,岩瀬商事株式会社,,株式会社,千葉県,匝瑳市,川辺６４５１番地,,12,235,2893186,,,2024-02-05,清算の結了等,,,2015-10-05,1,,,,,イワセショウジ,0
813,4040005008964,登記記録の閉鎖等,0,2024-02-13,2024-02-05,一般社団法人こいと,,その他の設立登記法人,千葉県,君津市,根本５３０番地１,,12,225,2921141,,,2024-02-05,清算の結了等,,,2015-10-05,1,,,,,コイト,0
829,4060003001028,登記記録の閉鎖等,0,2024-02-13,2024-02-06,合資会社石井製パン所,,合資会社,栃木県,足利市,小俣町２１５番地１,,09,202,3260141,,,2024-02-06,清算の結了等,,,2015-10-05,1,,,,,イシイセイパンジョ,0
837,4100002009587,登記記録の閉鎖等,0,2024-02-13,2024-02-07,有限会社山利青果,,有限会社,長野県,千曲市,大字稲荷山３４６番地２３,,20,218,3870021,,,2024-02-07,清算の結了等,,,2015-10-05,1,,,,,ヤマトシセイカ,0
840,4110005000138,登記記録の閉鎖等,0,2024-02-13,2024-02-01,一般財団法人新潟県下越婦人会館,,その他の設立登記法人,新潟県,新潟市中央区,礎町通４ノ町２１１３－１３,,15,103,9518055,,,2024-02-01,清算の結了等,,,2015-10-05,1,,,,,ニイガタケンカエツフジンカイカン,0
853,4130001011616,登記記録の閉鎖等,0,2024-02-13,2024-01-24,株式会社プリンテック増田,,株式会社,京都府,京都市南区,上鳥羽馬廻２１番地,,26,107,6018177,,,2024-01-24,登記官による閉鎖,,,2015-10-05,1,,,,,,0
861,4140002021563,登記記録の閉鎖等,0,2024-02-13,2024-02-08,有限会社源治屋フーズ,,有限会社,兵庫県,神戸市垂水区,西舞子８丁目１４番９号,,28,108,6550048,,,2024-02-08,清算の結了等,,,2015-10-05,1,,,,,ゲンジヤフーズ,0
864,4140005003096,登記記録の閉鎖等,0,2024-02-13,2024-02-01,協同組合日本マッチラテラル,,その他の設立登記法人,兵庫県,神戸市中央区,北長狭通５丁目５番１２号,,28,110,6500012,,,2024-02-01,清算の結了等,,,2015-10-05,1,,,,,ニホンマッチラテラル,0
866,4150001012348,登記記録の閉鎖等,0,2024-02-13,2024-01-19,株式会社イング三信,,株式会社,奈良県,大和高田市,大字礒野東３番２号,,29,202,6350093,,,2024-01-19,登記官による閉鎖,,,2015-10-05,1,,,,,,0
886,4250001014367,登記記録の閉鎖等,0,2024-02-13,2024-02-08,株式会社地盤リサーチ,,株式会社,山口県,柳井市,天神１７番２０号,,35,212,7420005,,,2024-02-08,清算の結了等,,,2015-10-05,1,,,,,チバンリサーチ,0
897,4330002008979,登記記録の閉鎖等,0,2024-02-13,2024-02-06,有限会社フクダアート,,有限会社,熊本県,熊本市西区,上熊本２丁目５番３７－３０１号,,43,103,8600079,,,2024-02-06,清算の結了等,,,2015-10-05,1,,,,,フクダアート,0
898,4330002031519,登記記録の閉鎖等,0,2024-02-13,2024-01-19,有限会社有明漁網,,有限会社,熊本県,熊本市西区,松尾町上松尾６４９番地３,,43,103,8615283,,,2024-01-19,登記官による閉鎖,,,2018-06-15,1,,,,,アリアケギョモウ,0
900,4340001021817,登記記録の閉鎖等,0,2024-02-13,2024-02-06,日本美容研究センター株式会社,,株式会社,鹿児島県,鹿屋市,川西町２４９９番地１４,,46,203,8930032,,,2024-02-06,清算の結了等,,,2019-02-20,1,,,,,ニホンビヨウケンキュウセンター,0
924,4410005002062,登記記録の閉鎖等,0,2024-02-13,2024-01-18,社団法人本荘由利スポーツ振興会,,その他の設立登記法人,秋田県,由利本荘市,上横町１７番地,,05,210,0150806,,,2024-01-18,登記官による閉鎖,,,2015-10-05,1,,,,,,0
925,4430001024026,登記記録の閉鎖等,0,2024-02-13,2024-02-05,株式会社コスモハウジング,,株式会社,北海道,札幌市白石区,東札幌三条４丁目３番８号,,01,104,0030003,,,2024-02-05,清算の結了等,,,2015-10-05,1,,,,,コスモハウジング,0
936,4500002000902,登記記録の閉鎖等,0,2024-02-13,2024-02-09,イケダ興産有限会社,,有限会社,愛媛県,松山市,桑原７丁目６番３２号,,38,201,7900911,,,2024-02-09,清算の結了等,,,2015-10-05,1,,,,,,0
944,5010001218370,登記記録の閉鎖等,0,2024-02-13,2024-02-08,株式会社ランアップ,,株式会社,東京都,中央区,東日本橋２丁目２８番４号日本橋ＣＥＴビル２階,,13,102,1030004,,,2024-02-08,合併による解散等,8040001092819,令和６年２月１日東京都港区高輪二丁目１５番３１－１１０４号株式会社リード・イノベーション（8040001092819）に合併し解散,2021-05-26,1,,,,,ランアップ,0
947,5010003022317,登記記録の閉鎖等,0,2024-02-13,2024-02-06,合同会社アンタングル,,合同会社,東京都,文京区,根津１丁目１５番１６号,,13,105,1130031,,,2024-02-06,清算の結了等,,,2015-10-05,1,,,,,アンタングル,0
973,5011001116804,登記記録の閉鎖等,0,2024-02-13,2024-02-08,株式会社夢のアトリエ企画,,株式会社,東京都,渋谷区,東３丁目１１番１５号,,13,113,1500011,,,2024-02-08,清算の結了等,,,2017-06-09,1,,,,,ユメノアトリエキカク,0
995,5013301051053,登記記録の閉鎖等,0,2024-02-13,2024-02-01,株式会社アクロビジョンビジネスコンサルティング,,株式会社,東京都,豊島区,東池袋１丁目３５番３号池袋センタービル８階,,13,116,1700013,,,2024-02-01,合併による解散等,1013303001489,令和６年２月１日東京都豊島区東池袋１－３５－３池袋センタービル８Ｆ株式会社アクロビジョン（1013303001489）に合併し解散,2023-07-14,1,,,,,アクロビジョンビジネスコンサルティング,0
996,5013302019223,登記記録の閉鎖等,0,2024-02-13,2024-02-06,有限会社ＪＬＪ,,有限会社,埼玉県,さいたま市見沼区,島町１５８－３,,11,104,3370006,,,2024-02-06,清算の結了等,,,2015-10-05,1,,,,,ジェイエルジェイ,0
1011,5021001026044,登記記録の閉鎖等,0,2024-02-13,2024-02-06,保田冷菓株式会社,,株式会社,神奈川県,大和市,上和田１７９２番地,,14,213,2420014,,,2024-02-06,清算の結了等,,,2015-10-05,1,,,,,ヤスダレイカ,0
1053,5040003022628,登記記録の閉鎖等,0,2024-02-13,2024-02-05,合同会社ｍｉｎａ　ｃａｒｅ,,合同会社,千葉県,習志野市,大久保２丁目１７番１１号,,12,216,2750011,,,2024-02-05,清算の結了等,,,2023-05-17,1,,,,,ミナケア,0
1057,5050002006606,登記記録の閉鎖等,0,2024-02-13,2024-02-06,有限会社アール・システム,,有限会社,茨城県,那珂市,菅谷４５５２番地２２,,08,226,3110105,,,2024-02-06,清算の結了等,,,2015-10-05,1,,,,,アールシステム,0
1070,5080401012359,登記記録の閉鎖等,0,2024-02-13,2024-02-08,産恵商事株式会社,,株式会社,静岡県,浜松市中央区,頭陀寺町３１２番地の１,,22,138,4300817,,,2024-02-08,清算の結了等,,,2015-10-05,1,,,,,サンケイショウジ,0
1071,5090001000127,登記記録の閉鎖等,0,2024-02-13,2024-02-09,株式会社イイジマガラス・サッシセンター,,株式会社,山梨県,甲府市,徳行１丁目９番３４号,,19,201,4000047,,,2024-02-09,清算の結了等,,,2015-10-05,1,,,,,イイジマガラスサッシセンター,0
1103,5140001113641,登記記録の閉鎖等,0,2024-02-13,2024-02-08,株式会社キンキ警備,,株式会社,兵庫県,尼崎市,塚口本町１丁目２０番２－２０１号,,28,202,6610001,,,2024-02-08,清算の結了等,,,2019-05-16,1,,,,,キンキケイビ,0
1107,5140002032262,登記記録の閉鎖等,0,2024-02-13,2024-02-07,ヒロタヤ産業有限会社,,有限会社,兵庫県,揖保郡太子町,松ケ下１００番地,,28,464,6711574,,,2024-02-07,清算の結了等,,,2015-10-05,1,,,,,ヒロタヤサンギョウ,0
1118,5180001063602,登記記録の閉鎖等,0,2024-02-13,2024-02-06,アクオ株式会社,,株式会社,愛知県,清須市,西枇杷島町古城２丁目３番地２,,23,233,4520001,,,2024-02-06,合併による解散等,5010401010591,令和６年２月１日東京都足立区中央本町一丁目１５番地５号株式会社ＧＫファクトリー（5010401010591）に合併し解散,2015-10-05,1,,,,,アクオ,0
1122,5180002064277,登記記録の閉鎖等,0,2024-02-13,2024-02-06,有限会社豊成,,有限会社,愛知県,豊明市,三崎町三崎７番地の５,,23,229,4701124,,,2024-02-06,清算の結了等,,,2015-10-05,1,,,,,ホウセイ,0
1134,5240005014280,登記記録の閉鎖等,0,2024-02-13,2024-02-05,江田島市建設資材安定供給協同組合,,その他の設立登記法人,広島県,江田島市,能美町高田２１２番地,,34,215,7372303,,,2024-02-05,清算の結了等,,,2016-11-25,1,,,,,エタジマシケンセツシザイアンテイキョウキュウ,0
1142,5290001086798,登記記録の閉鎖等,0,2024-02-13,2024-02-08,株式会社ＯＰＴＩＭＵＭ,,株式会社,福岡県,糟屋郡久山町,大字久原２６２０番地６,,40,348,8112501,,,2024-02-08,清算の結了等,,,2019-10-08,1,,,,,オプティマム,0
1143,5290001096426,登記記録の閉鎖等,0,2024-02-13,2024-02-08,株式会社ハラサポ,,株式会社,福岡県,福岡市西区,石丸４丁目４番１４号ユーハイム福重６０４号,,40,135,8190025,,,2024-02-08,清算の結了等,,,2022-02-18,1,,,,,ハラサポ,0
1159,5370002005047,登記記録の閉鎖等,0,2024-02-13,2024-02-08,有限会社五龍青果,,有限会社,宮城県,仙台市若林区,卸町４丁目７番地の１,,04,103,9840015,,,2024-02-08,清算の結了等,,,2015-10-05,1,,,,,ゴリュウセイカ,0
1162,5380001020517,登記記録の閉鎖等,0,2024-02-13,2024-02-08,株式会社イマイズミ工業,,株式会社,福島県,相馬郡新地町,今泉字鞘前９２番地の３,,07,561,9792705,,,2024-02-08,清算の結了等,,,2015-10-05,1,,,,,イマイズミコウギョウ,0
1170,5430001049724,登記記録の閉鎖等,0,2024-02-13,2024-02-02,株式会社オーリット小川企画,,株式会社,北海道,小樽市,花園３丁目１番１２２号,,01,203,0470024,,,2024-02-02,清算の結了等,,,2015-10-05,1,,,,,オーリットオガワキカク,0
1204,6010401159833,登記記録の閉鎖等,0,2024-02-13,2024-02-05,Ｐａｐｅｒｂｏｙ　Ｌｏｇｉｓｔｉｃｓ株式会社,,株式会社,東京都,港区,愛宕２丁目５－１愛宕グリーンヒルズＭＯＲＩタワー３７階,,13,103,1050002,,,2024-02-05,清算の結了等,,,2021-04-26,1,,,,,ペーパーボーイロジスティックス,0
1242,6011502004705,登記記録の閉鎖等,0,2024-02-13,2024-02-08,有限会社橋本工業,,有限会社,神奈川県,茅ヶ崎市,中海岸２丁目３番５１号,,14,207,2530055,,,2024-02-08,清算の結了等,,,2015-10-05,1,,,,,ハシモトコウギョウ,0
1251,6013301051052,登記記録の閉鎖等,0,2024-02-13,2024-02-01,株式会社アクロビジョンソリューションアーキテクト,,株式会社,東京都,豊島区,東池袋１丁目３５番３号池袋センタービル８階,,13,116,1700013,,,2024-02-01,合併による解散等,1013303001489,令和６年２月１日東京都豊島区東池袋１－３５－３池袋センタービル８Ｆ株式会社アクロビジョン（1013303001489）に合併し解散,2023-07-14,1,,,,,アクロビジョンソリューションアーキテクト,0
1264,6021002043946,登記記録の閉鎖等,0,2024-02-13,2024-01-19,有限会社でんきはうすオーム,,有限会社,神奈川県,座間市,入谷５丁目１６０１番地４,,14,216,2520024,,,2024-01-19,登記官による閉鎖,,,2015-10-05,1,,,,,,0
1275,6030002047576,登記記録の閉鎖等,0,2024-02-13,2024-02-06,有限会社長橋工業所,,有限会社,埼玉県,八潮市,大字大曽根１４３４番地,,11,234,3400834,,,2024-02-06,清算の結了等,,,2015-10-05,1,,,,,ナガハシコウギョウショ,0
1286,6040002035142,登記記録の閉鎖等,0,2024-02-13,2024-02-06,有限会社たついメディカルサービス,,有限会社,千葉県,市川市,下新宿１２番１１号,,12,203,2720102,,,2024-02-06,清算の結了等,,,2015-10-05,1,,,,,タツイメディカルサービス,0
1297,6070001012486,登記記録の閉鎖等,0,2024-02-13,2024-02-07,田畑生コン株式会社,,株式会社,群馬県,藤岡市,小林５３２番地の１,,10,209,3750021,,,2024-02-07,清算の結了等,,,2015-10-05,1,,,,,タバタナマコン,0
1298,6070001040462,登記記録の閉鎖等,0,2024-02-13,2024-02-07,アイタス株式会社,,株式会社,群馬県,太田市,八幡町７番６号,,10,205,3730056,,,2024-02-07,清算の結了等,,,2023-05-23,1,,,,,アイタス,0
1328,6122002005967,登記記録の閉鎖等,0,2024-02-13,2024-02-08,有限会社ビビハウスジャパン,,有限会社,大阪府,東大阪市,西岩田２丁目７番２５－１４３２号,,27,227,5780947,,,2024-02-08,清算の結了等,,,2015-10-05,1,,,,,ビビハウスジャパン,0
1329,6130001001152,登記記録の閉鎖等,0,2024-02-13,2024-02-08,株式会社大興プランニング,,株式会社,京都府,京都市右京区,常盤段ノ上町２番地の８,,26,108,6168226,,,2024-02-08,清算の結了等,,,2015-10-05,1,,,,,ダイコウプランニング,0
1330,6130001043707,登記記録の閉鎖等,0,2024-02-13,2024-02-07,舞鶴商業振興株式会社,,株式会社,京都府,舞鶴市,南浜町２７番地５,,26,202,6250057,,,2024-02-07,清算の結了等,,,2015-10-05,1,,,,,マイヅルショウギョウシンコウ,0
1348,6180301004866,登記記録の閉鎖等,0,2024-02-13,2024-02-06,株式会社愛岐スポーツ,,株式会社,愛知県,豊橋市,草間町字平東１１５番地の１１,,23,201,4418141,,,2024-02-06,清算の結了等,,,2015-10-05,1,,,,,アイギスポーツ,0
1367,6300005003788,登記記録の閉鎖等,0,2024-02-13,2024-02-09,浄土宗大牟田教会所,,その他の設立登記法人,佐賀県,嬉野市,塩田町大字真崎７０７番地１,,41,209,8491421,,,2024-02-09,清算の結了等,,,2015-10-05,1,,,,,ジョウドシュウオオムタキョウカイショ,0
1376,6330002021781,登記記録の閉鎖等,0,2024-02-13,2024-02-09,有限会社さくら,,有限会社,熊本県,荒尾市,一部字桜山２１７３番地２,,43,204,8640021,,,2024-02-09,清算の結了等,,,2015-10-05,1,,,,,サクラ,0
1377,6330003007466,登記記録の閉鎖等,0,2024-02-13,2024-02-06,合同会社楽々,,合同会社,熊本県,荒尾市,荒尾２２００番地９５,,43,204,8640041,,,2024-02-06,清算の結了等,,,2018-04-20,1,,,,,ララ,0
1392,6390001007108,登記記録の閉鎖等,0,2024-02-13,2024-01-29,株式会社Ｐｌａｃｅ庄内,,株式会社,山形県,最上郡戸沢村,大字蔵岡２９０５番地１８,,06,367,9996402,,,2024-01-29,清算の結了等,,,2015-10-05,1,,,,,プレイスショウナイ,0
1394,6400002000200,登記記録の閉鎖等,0,2024-02-13,2024-02-08,有限会社阿部車輌,,有限会社,岩手県,盛岡市,三本柳３地割１０番地３,,03,201,0200831,,,2024-02-08,清算の結了等,,,2015-10-05,1,,,,,アベシャリョウ,0
1395,6410001011726,登記記録の閉鎖等,0,2024-02-13,2024-01-18,秋田土地株式会社,,株式会社,秋田県,秋田市,保戸野本町１番地,,05,201,0100915,,,2024-01-18,登記官による閉鎖,,,2018-01-05,1,,,,,,0
1406,6440001002623,登記記録の閉鎖等,0,2024-02-13,2024-02-07,株式会社レンタリースはこだて,,株式会社,北海道,函館市,大手町３番１５号,,01,202,0400064,,,2024-02-07,清算の結了等,,,2015-10-05,1,,,,,レンタリースハコダテ,0
1408,6470002002669,登記記録の閉鎖等,0,2024-02-13,2024-02-09,有限会社香西魚熊商店,,有限会社,香川県,高松市,花ノ宮町１丁目１２番４２号,,37,201,7618063,,,2024-02-09,清算の結了等,,,2015-10-05,1,,,,,コウザイウオクマショウテン,0
1410,7010001026607,登記記録の閉鎖等,0,2024-02-13,2024-02-05,株式会社ハヤベ,,株式会社,東京都,千代田区,神田須田町１丁目１６番地,,13,101,1010041,,,2024-02-05,清算の結了等,,,2015-10-05,1,,,,,ハヤベ,0
1457,7011103012701,登記記録の閉鎖等,0,2024-02-13,2024-02-08,Ｓｔｒａｗｂｅｒｒｙｎｅｔ　Ｊａｐａｎ合同会社,,合同会社,東京都,新宿区,新宿５丁目１４番１２号２０９号,,13,104,1600022,,,2024-02-08,清算の結了等,,,2023-02-16,1,,,,,ストロベリーネットジャパン,0
1466,7013101004861,登記記録の閉鎖等,0,2024-02-13,2024-02-08,株式会社コムシステム,,株式会社,東京都,あきる野市,伊奈３８３番地４,,13,228,1900142,,,2024-02-08,清算の結了等,,,2015-10-05,1,,,,,コムシステム,0
1467,7013301008431,登記記録の閉鎖等,0,2024-02-13,2024-02-07,東海物産株式会社,,株式会社,東京都,豊島区,西池袋１丁目３５番８号,,13,116,1710021,,,2024-02-07,合併による解散等,7010401007149,令和６年２月１日東京都港区新橋三丁目１８番３号第二富士ビル株式会社魚金（7010401007149）に合併し解散,2015-10-05,1,,,,,トウカイブッサン,0
1480,7021001002828,登記記録の閉鎖等,0,2024-02-13,2024-02-09,株式会社ベイスクリーン,,株式会社,神奈川県,藤沢市,辻堂東海岸１丁目１１番１５号,,14,205,2510045,,,2024-02-09,清算の結了等,,,2015-10-05,1,,,,,ベイスクリーン,0
1482,7021002005425,登記記録の閉鎖等,0,2024-02-13,2024-02-05,有限会社ワタナベフーズ,,有限会社,神奈川県,藤沢市,湘南台５丁目６番地の２１,,14,205,2520804,,,2024-02-05,清算の結了等,,,2015-10-05,1,,,,,,0
1483,7021002050990,登記記録の閉鎖等,0,2024-02-13,2024-02-07,有限会社伊東酒店,,有限会社,神奈川県,小田原市,浜町３丁目１１番２８号,,14,206,2500004,,,2024-02-07,清算の結了等,,,2015-10-05,1,,,,,,0
1489,7030001008297,登記記録の閉鎖等,0,2024-02-13,2024-02-07,ムサシノ機器株式会社,,株式会社,埼玉県,上尾市,大字原市１０７５番地１,,11,219,3620021,,,2024-02-07,合併による解散等,8070001012419,令和６年２月１日群馬県藤岡市白石２６３４番地２株式会社佐藤機工（8070001012419）に合併し解散,2015-10-05,1,,,,,ムサシノキキ,0
1491,7030001109616,登記記録の閉鎖等,0,2024-02-13,2024-02-05,株式会社Ｒｅｂｉｒｔｈ,,株式会社,埼玉県,志木市,中宗岡１丁目１４番３５号,,11,228,3530002,,,2024-02-05,清算の結了等,,,2015-10-05,1,,,,,,0
1531,7070002022590,登記記録の閉鎖等,0,2024-02-13,2024-02-06,有限会社荒川木工,,有限会社,群馬県,桐生市,新里町新川３９４５番地の１３,,10,203,3760121,,,2024-02-06,清算の結了等,,,2015-10-05,1,,,,,アラカワモッコウ,0
1560,7090003000544,登記記録の閉鎖等,0,2024-02-13,2024-02-13,合同会社桜草,,合同会社,山梨県,笛吹市,御坂町成田２５３３番地８,,19,211,4060801,,,2024-02-13,清算の結了等,,,2015-10-05,1,,,,,,0
1577,7122001003632,登記記録の閉鎖等,0,2024-02-13,2024-02-08,株式会社新和デパート,,株式会社,大阪府,東大阪市,岩田町３丁目１０番５号,,27,227,5780941,,,2024-02-08,清算の結了等,,,2015-10-05,1,,,,,シンワデパート,0
1596,7180001009140,登記記録の閉鎖等,0,2024-02-13,2024-02-07,株式会社八幸,,株式会社,愛知県,名古屋市昭和区,白金２丁目６番８号,,23,107,4660058,,,2024-02-07,清算の結了等,,,2015-10-05,1,,,,,ハチコウ,0
1604,7180003020921,登記記録の閉鎖等,0,2024-02-13,2024-02-06,合同会社ＫｏＫｏＲｏ企画,,合同会社,愛知県,一宮市,大赤見字市場東屋敷２８５１番地４,,23,203,4910015,,,2024-02-06,清算の結了等,,,2020-03-06,1,,,,,ココロキカク,0
1612,7230002005331,登記記録の閉鎖等,0,2024-02-13,2024-02-07,有限会社ジオ・クリニカ,,有限会社,富山県,中新川郡上市町,久金新９０番地,,16,322,9300388,,,2024-02-07,清算の結了等,,,2015-10-05,1,,,,,ジオクリニカ,0
1628,7320001009431,登記記録の閉鎖等,0,2024-02-13,2024-02-06,株式会社農業法人元越,,株式会社,大分県,佐伯市,大字木立１４３３番地の１,,44,205,8762121,,,2024-02-06,清算の結了等,,,2015-10-05,1,,,,,ノウギョウホウジンモトゴエ,0
1629,7320001018184,登記記録の閉鎖等,0,2024-02-13,2024-02-07,株式会社ｙａｓｕｒａｇｉｆａｒｍ,,株式会社,大分県,臼杵市,野津町大字野津市２３１０番地の１,,44,206,8750201,,,2024-02-07,清算の結了等,,,2021-02-05,1,,,,,ヤスラギファーム,0
1644,7370002014830,登記記録の閉鎖等,0,2024-02-13,2024-02-09,有限会社国分町ドットコム,,有限会社,宮城県,仙台市青葉区,東勝山３丁目１９番２３号,,04,101,9810923,,,2024-02-09,清算の結了等,,,2015-10-05,1,,,,,コクブンチョウドットコム,0
1651,7420001000594,登記記録の閉鎖等,0,2024-02-13,2024-02-07,株式会社オートショップクラウチ,,株式会社,青森県,青森市,大字大野字玉島２９番地７,,02,201,0300852,,,2024-02-07,清算の結了等,,,2015-10-05,1,,,,,,0
1657,7430001081725,登記記録の閉鎖等,0,2024-02-13,2024-02-05,株式会社ＫＵＲＵＢＵＳＩ,,株式会社,北海道,札幌市西区,二十四軒四条７丁目５番２４号,,01,107,0630804,,,2024-02-05,清算の結了等,,,2020-06-22,1,,,,,クルブシ,0
1662,7430005013369,登記記録の閉鎖等,0,2024-02-13,2024-02-06,一般財団法人北海道日本画作品保存会,,その他の設立登記法人,北海道,夕張郡長沼町,東４線北３番地,,01,428,0691317,,,2024-02-06,清算の結了等,,,2018-04-05,1,,,,,ホッカイドウニホンガサクヒンホゾンカイ,0
1668,7490002010999,登記記録の閉鎖等,0,2024-02-13,2024-02-08,轟林産有限会社,,有限会社,高知県,高岡郡四万十町,大正５５番地,,39,412,7860301,,,2024-02-08,清算の結了等,,,2015-10-05,1,,,,,トドロキリンサン,0
1701,8010702009025,登記記録の閉鎖等,0,2024-02-13,2024-02-08,理科工業有限会社,,有限会社,東京都,品川区,大井４丁目１８番２３号,,13,109,1400014,,,2024-02-08,清算の結了等,,,2015-10-05,1,,,,,リカコウギョウ,0
1731,8013301051158,登記記録の閉鎖等,0,2024-02-13,2024-02-01,株式会社アクロビジョンイノベーションズ,,株式会社,東京都,豊島区,東池袋１丁目３５番３号池袋センタービル８階,,13,116,1700013,,,2024-02-01,合併による解散等,1013303001489,令和６年２月１日東京都豊島区東池袋１－３５－３池袋センタービル８Ｆ株式会社アクロビジョン（1013303001489）に合併し解散,2023-08-04,1,,,,,アクロビジョンイノベーションズ,0
1736,8020002085807,登記記録の閉鎖等,0,2024-02-13,2024-01-19,有限会社ウィーン商事,,有限会社,神奈川県,川崎市宮前区,野川３０５１番地１０４,,14,136,2160001,,,2024-01-19,登記官による閉鎖,,,2015-10-05,1,,,,,,0
1737,8020002087456,登記記録の閉鎖等,0,2024-02-13,2024-01-19,有限会社福智精機製作所,,有限会社,神奈川県,川崎市宮前区,馬絹１２９６番地４,,14,136,2160035,,,2024-01-19,登記官による閉鎖,,,2015-10-05,1,,,,,,0
1739,8021001045446,登記記録の閉鎖等,0,2024-02-13,2024-02-08,株式会社陽光,,株式会社,神奈川県,横須賀市,佐原４丁目２番２１号,,14,201,2390835,,,2024-02-08,清算の結了等,,,2015-10-05,1,,,,,,0
1745,8030001077985,登記記録の閉鎖等,0,2024-02-13,2024-02-05,株式会社介護ぶれーん,,株式会社,埼玉県,川口市,本町１丁目１４番５号,,11,203,3320012,,,2024-02-05,清算の結了等,,,2015-10-05,1,,,,,,0
1748,8030002022305,登記記録の閉鎖等,0,2024-02-13,2024-02-05,有限会社鈴木木工,,有限会社,埼玉県,蓮田市,馬込６丁目２８番地蓮田ビューパレーＡ棟４０４号室,,11,238,3490114,,,2024-02-05,清算の結了等,,,2015-10-05,1,,,,,スズキモッコウ,0
1757,8040002057564,登記記録の閉鎖等,0,2024-02-13,2024-02-06,有限会社田中会計,,有限会社,千葉県,印西市,平賀学園台３丁目１５番１号,,12,231,2701606,,,2024-02-06,清算の結了等,,,2015-10-05,1,,,,,タナカカイケイ,0
1769,8070002033166,登記記録の閉鎖等,0,2024-02-13,2024-02-07,有限会社大月金属製作所,,有限会社,群馬県,邑楽郡板倉町,大字西岡７４６番地,,10,521,3740107,,,2024-02-07,清算の結了等,,,2015-10-05,1,,,,,オオツキキンゾクセイサクジョ,0
1773,8110002004872,登記記録の閉鎖等,0,2024-02-13,2024-02-07,株式会社ＮＮＣ,,株式会社,東京都,千代田区,霞が関３丁目２番５号霞が関ビルディング５Ｆ,,13,101,1000013,,,2024-02-07,清算の結了等,,,2015-10-05,1,,,,,エヌエヌシー,0
1794,8140002063957,登記記録の閉鎖等,0,2024-02-13,2024-02-08,有限会社藤原表具内装店,,有限会社,兵庫県,伊丹市,荒牧５丁目１番３４号,,28,207,6640001,,,2024-02-08,清算の結了等,,,2015-10-05,1,,,,,フジワラヒョウグナイソウテン,0
1799,8180002008231,登記記録の閉鎖等,0,2024-02-13,2024-02-07,有限会社住田技研,,有限会社,愛知県,名古屋市昭和区,車田町１丁目２９番地,,23,107,4660001,,,2024-02-07,清算の結了等,,,2015-10-05,1,,,,,スミタギケン,0
1812,8260001017027,登記記録の閉鎖等,0,2024-02-13,2024-02-07,株式会社ＹＫ工業,,株式会社,岡山県,倉敷市,連島町鶴新田１８９５番地７,,33,202,7128006,,,2024-02-07,清算の結了等,,,2015-10-05,1,,,,,ワイケイコウギョウ,0
1850,8380001028565,登記記録の閉鎖等,0,2024-02-13,2024-02-08,株式会社Ｔｅｃｈｎｏ　ｅｖｏｌｕｔｉｏｎ,,株式会社,福島県,福島市,御山字遠背戸１番地の１,,07,201,9608252,,,2024-02-08,清算の結了等,,,2017-10-13,1,,,,,テクノエボリューション,0
1864,8430002024657,登記記録の閉鎖等,0,2024-02-13,2024-02-05,有限会社丸栄岡本商店,,有限会社,北海道,札幌市白石区,川北一条３丁目４番１０号,,01,104,0030851,,,2024-02-05,清算の結了等,,,2015-10-05,1,,,,,マルエイオカモトショウテン,0
1866,8430003010532,登記記録の閉鎖等,0,2024-02-13,2024-02-05,合同会社ＳＯＵ,,合同会社,北海道,札幌市中央区,南二条西１２丁目３２３番地１８パシフィック札幌第１マンション１１０２号,,01,101,0600062,,,2024-02-05,清算の結了等,,,2019-06-13,1,,,,,ソウ,0
1867,8430003013493,登記記録の閉鎖等,0,2024-02-13,2024-02-02,合同会社セシル,,合同会社,北海道,札幌市中央区,南一条西１丁目１５番地３,,01,101,0600061,,,2024-02-02,清算の結了等,,,2022-01-11,1,,,,,セシル,0
1868,8440001004618,登記記録の閉鎖等,0,2024-02-13,2024-02-07,株式会社函館保険コンシェルジュ,,株式会社,北海道,函館市,大手町３番１５号,,01,202,0400064,,,2024-02-07,清算の結了等,,,2015-10-05,1,,,,,ハコダテホケンコンシェルジュ,0
1874,8470002001611,登記記録の閉鎖等,0,2024-02-13,2024-02-09,有限会社オーヤブ,,有限会社,香川県,高松市,御坊町８番地の６,,37,201,7600044,,,2024-02-09,清算の結了等,,,2015-10-05,1,,,,,オーヤブ,0
1875,8470005006104,登記記録の閉鎖等,0,2024-02-13,2024-01-10,川古第一農事實行組合,,その他の設立登記法人,香川県,丸亀市,土器町,,37,202,,,,2024-01-10,登記官による閉鎖,,,2018-06-28,1,,,,,カワゴダイイチ,1
1878,8490002011740,登記記録の閉鎖等,0,2024-02-13,2024-01-30,有限会社春和堂薬局,,有限会社,高知県,南国市,後免町１丁目５番２４号,,39,204,7830011,,,2024-01-30,清算の結了等,,,2015-10-05,1,,,,,シュンワドウヤッキョク,0
1895,9010501035758,登記記録の閉鎖等,0,2024-02-13,2024-02-06,株式会社ビズライフ,,株式会社,東京都,千代田区,岩本町１丁目８番２号,,13,101,1010032,,,2024-02-06,清算の結了等,,,2015-10-05,1,,,,,ビズライフ,0
1899,9010601056167,登記記録の閉鎖等,0,2024-02-13,2024-01-24,ＳＢＣ株式会社,,株式会社,東京都,江東区,東雲１丁目９番４－１８０７,,13,108,1350062,,,2024-01-24,清算の結了等,,,2019-09-27,1,,,,,エスビーシー,0
1947,9020001120092,登記記録の閉鎖等,0,2024-02-13,2024-02-07,株式会社アレースホールディングス,,株式会社,千葉県,千葉市中央区,中央３丁目３番８号日進センタービル５階,,12,101,2600013,,,2024-02-07,清算の結了等,,,2017-02-23,1,,,,,アレースホールディングス,0
1963,9030001067606,登記記録の閉鎖等,0,2024-02-13,2024-02-06,住まいる管理サービス株式会社,,株式会社,埼玉県,越谷市,東越谷６丁目２６番地９,,11,222,3430023,,,2024-02-06,清算の結了等,,,2015-10-05,1,,,,,スマイルカンリサービス,0
1981,9040002081282,登記記録の閉鎖等,0,2024-02-13,2024-02-05,有限会社タカラ弁当,,有限会社,千葉県,茂原市,東郷１６９６番地,,12,210,2970017,,,2024-02-05,清算の結了等,,,2015-10-05,1,,,,,タカラベントウ,0
1984,9040003011718,登記記録の閉鎖等,0,2024-02-13,2024-02-05,合同会社コムバレー,,合同会社,千葉県,千葉市中央区,中央３丁目１８番３号,,12,101,2600013,,,2024-02-05,清算の結了等,,,2018-05-31,1,,,,,コムバレー,0
1987,9040005002599,登記記録の閉鎖等,0,2024-02-13,2024-02-06,特定非営利活動法人千葉なのはなＳＩＴＡ,,その他の設立登記法人,千葉県,習志野市,大久保４丁目１２番３３－２０７,,12,216,2750011,,,2024-02-06,清算の結了等,,,2015-10-05,1,,,,,チバナノハナサイタ,0
1989,9050001011933,登記記録の閉鎖等,0,2024-02-13,2024-02-08,株式会社宮本工務店,,株式会社,茨城県,石岡市,染谷９７８番地,,08,205,3150007,,,2024-02-08,清算の結了等,,,2015-10-05,1,,,,,,0
2015,9120001080054,登記記録の閉鎖等,0,2024-02-13,2024-02-07,サン機工株式会社,,株式会社,大阪府,大阪市中央区,西心斎橋１丁目１２番５号ローレルビル内,,27,128,5420086,,,2024-02-07,清算の結了等,,,2015-10-05,1,,,,,サンキコウ,0
2017,9120001218133,登記記録の閉鎖等,0,2024-02-13,2024-02-06,吉辰株式会社,,株式会社,大阪府,大阪市中央区,南船場２丁目５－１３－５０２号室,,27,128,5420081,,,2024-02-06,清算の結了等,,,2019-01-04,1,,,,,キッシン,0
2034,9120105006062,登記記録の閉鎖等,0,2024-02-13,2024-01-18,真行寺,,その他の設立登記法人,大阪府,貝塚市,中８４８番地,,27,208,5970003,,,2024-01-18,登記官による閉鎖,,,2015-10-05,1,,,,,,0
2037,9130001026733,登記記録の閉鎖等,0,2024-02-13,2024-02-07,株式会社サイサ,,株式会社,京都府,宇治市,槇島町大川原４番地の７,,26,204,6110041,,,2024-02-07,清算の結了等,,,2015-10-05,1,,,,,,0
2042,9130001049503,登記記録の閉鎖等,0,2024-02-13,2024-02-08,株式会社Ｈ＆Ｋエンタープライズ,,株式会社,京都府,京都市南区,東九条西明田町５９番地２,,26,107,6018045,,,2024-02-08,清算の結了等,,,2015-10-05,1,,,,,エイチアンドケイエンタープライズ,0
2045,9130005006236,登記記録の閉鎖等,0,2024-02-13,2024-02-08,特定非営利活動法人科学技術による環境保全を考える会,,その他の設立登記法人,京都府,京都市下京区,西七条石井町５８番地の１０,,26,106,6008875,,,2024-02-08,清算の結了等,,,2015-10-05,1,,,,,カガクギジュツニヨルカンキョウホゼンヲカンガエルカイ,0
2048,9140002019355,登記記録の閉鎖等,0,2024-02-13,2024-02-02,有限会社エスペランサ企画,,有限会社,兵庫県,神戸市中央区,熊内町５丁目２番３０号,,28,110,6510056,,,2024-02-02,清算の結了等,,,2015-10-05,1,,,,,エスペランサキカク,0
2049,9140002052216,登記記録の閉鎖等,0,2024-02-13,2024-02-09,有限会社ケイエス商事,,有限会社,兵庫県,姫路市,広畑区本町２丁目３番地,,28,201,6711114,,,2024-02-09,清算の結了等,,,2015-10-05,1,,,,,ケイエスショウジ,0
2068,9180302019869,登記記録の閉鎖等,0,2024-02-13,2024-02-06,有限会社エムエーシー,,有限会社,愛知県,知立市,新林町北林１３番地,,23,225,4720017,,,2024-02-06,清算の結了等,,,2015-10-05,1,,,,,エムエーシー,0
2088,9270001005582,登記記録の閉鎖等,0,2024-02-13,2024-02-09,株式会社キャビックネット,,株式会社,鳥取県,鳥取市,天神町４０番地サーパス天神町８０１号,,31,201,6800847,,,2024-02-09,清算の結了等,,,2015-10-05,1,,,,,キャビックネット,0
2096,9310001007797,登記記録の閉鎖等,0,2024-02-13,2024-02-09,バイオファーム株式会社,,株式会社,長崎県,西海市,西彼町中山郷２２９１番地１,,42,212,8513302,,,2024-02-09,清算の結了等,,,2015-10-05,1,,,,,,0
2113,9370301001073,登記記録の閉鎖等,0,2024-02-13,2024-02-08,株式会社福助屋商店,,株式会社,宮城県,石巻市,中央２丁目４番７号,,04,202,9860822,,,2024-02-08,清算の結了等,,,2015-10-05,1,,,,,フクスケヤショウテン,0
2119,9400001014529,登記記録の閉鎖等,0,2024-02-13,2024-02-08,株式会社ＡＣＳ,,株式会社,岩手県,花巻市,桜町２丁目１９３番地,,03,205,0250084,,,2024-02-08,清算の結了等,,,2019-03-12,1,,,,,エーシーエス,0
2129,9470005005609,登記記録の閉鎖等,0,2024-02-13,2024-02-05,一般社団法人ツナグ防災,,その他の設立登記法人,香川県,丸亀市,綾歌町富熊５０２０番地９,,37,202,7612407,,,2024-02-05,清算の結了等,,,2015-10-05,1,,,,,ツナグボウサイ,0
