sequenceNumber,corporateNumber,process,correct,updateDate,changeDate,name,nameImageId,kind,prefectureName,cityName,streetNumber,addressImageId,prefectureCode,cityCode,postCode,addressOutside,addressOutsideImageId,closeDate,closeCause,successorCorporateNumber,changeCause,assignmentDate,latest,enName,enPrefectureName,enCityName,enAddressOutside,furigana,hihyoji
3,1010001165385,登記記録の閉鎖等,0,2023-08-18,2023-07-20,株式会社ｅ‐ｋａｒａｔ,,株式会社,東京都,港区,東新橋１丁目５番２号汐留シティセンター８階,,13,103,1050021,,,2023-07-20,合併による解散等,3010001154106,令和５年７月２０日東京都港区東新橋一丁目５番２号汐留シティセンター８階ブルースカイソーラー株式会社（3010001154106）に合併し解散,2015-10-05,1,,,,,イーカラット,0
11,1010003040231,登記記録の閉鎖等,0,2023-08-18,2023-08-08,ＲＢソーラーチコリ合同会社,,合同会社,東京都,中央区,八丁堀４丁目２番１０号ＡＯＪ税理士法人内,,13,102,1040032,,,2023-08-08,合併による解散等,4010001197756,令和５年８月８日東京都中央区八丁堀四丁目２番１０号ＡＯＪ税理士法人内株式会社はまかぜ地所（4010001197756）に合併し解散,2023-04-10,1,,,,,アールビーソーラーチコリ,0
16,1010005030404,登記記録の閉鎖等,0,2023-08-18,2023-08-15,日光Ｐｌｕｓ１０ホールディング特定目的会社,,その他の設立登記法人,東京都,千代田区,丸の内３丁目１番１号東京共同会計事務所内,,13,101,1000005,,,2023-08-15,清算の結了等,,,2019-07-02,1,,,,,ニッコウプラステンホールディング,0
37,1010902007586,登記記録の閉鎖等,0,2023-08-18,2023-08-14,有限会社シャン,,有限会社,東京都,世田谷区,駒沢２丁目３１番９号,,13,112,1540012,,,2023-08-14,清算の結了等,,,2015-10-05,1,,,,,,0
55,1011201019604,登記記録の閉鎖等,0,2023-08-18,2023-08-17,株式会社ＡＢＪ,,株式会社,東京都,中野区,江古田３丁目４番１４号,,13,114,1650022,,,2023-08-17,清算の結了等,,,2017-01-06,1,,,,,エイビージェイ,0
56,1011301011428,登記記録の閉鎖等,0,2023-08-18,2023-08-08,富士精工業株式会社,,株式会社,東京都,杉並区,上高井戸１丁目４番２－２１０号,,13,115,1680074,,,2023-08-08,清算の結了等,,,2015-10-05,1,,,,,フジセイコウギョウ,0
63,1012401012992,登記記録の閉鎖等,0,2023-08-18,2023-08-16,株式会社星野製作所,,株式会社,東京都,三鷹市,下連雀８丁目７番３号,,13,204,1810013,,,2023-08-16,清算の結了等,,,2015-10-05,1,,,,,ホシノセイサクショ,0
65,1012801016379,登記記録の閉鎖等,0,2023-08-18,2023-08-10,株式会社エンショー,,株式会社,大阪府,箕面市,粟生外院２丁目４番１－２０６,,27,220,5620025,,,2023-08-10,清算の結了等,,,2015-10-05,1,,,,,エンショー,0
75,1020002080186,登記記録の閉鎖等,0,2023-08-18,2023-08-07,有限会社イワムラ企画,,有限会社,神奈川県,川崎市幸区,古市場２丁目９４番地,,14,132,2120052,,,2023-08-07,清算の結了等,,,2015-10-05,1,,,,,イワムラキカク,0
99,1030002076150,登記記録の閉鎖等,0,2023-08-18,2023-07-21,有限会社花園印刷,,有限会社,埼玉県,ふじみ野市,南台２丁目３番２号,,11,245,3560036,,,2023-07-21,清算の結了等,,,2015-10-05,1,,,,,ハナゾノインサツ,0
125,1100002023426,登記記録の閉鎖等,0,2023-08-18,2023-08-10,有限会社大垣製作所,,有限会社,長野県,安曇野市,三郷明盛１１３７番地１７,,20,220,3998101,,,2023-08-10,清算の結了等,,,2015-10-05,1,,,,,オオガキセイサクジョ,0
154,1130001050897,登記記録の閉鎖等,0,2023-08-18,2023-08-16,株式会社西日本不動産情報センター,,株式会社,京都府,京都市伏見区,下鳥羽上三栖町１３５番地２,,26,109,6128248,,,2023-08-16,合併による解散等,4130001056280,令和５年８月１日兵庫県伊丹市寺本三丁目１７番地１株式会社ハウジングプラザ（4130001056280）に合併し解散,2015-10-05,1,,,,,ニシニホンフドウサンジョウホウセンター,0
158,1140002004034,登記記録の閉鎖等,0,2023-08-18,2023-08-10,有限会社神戸聖光堂,,有限会社,兵庫県,尼崎市,武庫之荘５丁目１４番２号,,28,202,6610035,,,2023-08-10,清算の結了等,,,2015-10-05,1,,,,,コウベセイコウドウ,0
163,1150001018513,登記記録の閉鎖等,0,2023-08-18,2023-08-14,アライフ株式会社,,株式会社,奈良県,橿原市,石原田町２９７番地１１,,29,205,6340014,,,2023-08-14,清算の結了等,,,2015-10-05,1,,,,,アライフ,0
181,1190001029440,登記記録の閉鎖等,0,2023-08-18,2023-08-08,株式会社おひさま,,株式会社,三重県,松阪市,中町６丁目９番地サンマンションアトレ松阪駅前９０６,,24,204,5150083,,,2023-08-08,清算の結了等,,,2022-05-26,1,,,,,オヒサマ,0
187,1240003005748,登記記録の閉鎖等,0,2023-08-18,2023-08-16,合同会社好運商事,,合同会社,広島県,福山市,神村町字大日５８５２番１,,34,207,7290112,,,2023-08-16,清算の結了等,,,2022-08-10,1,,,,,コウウンショウジ,0
204,1310005003817,登記記録の閉鎖等,0,2023-08-18,2023-07-25,天理教東浦港分教会,,その他の設立登記法人,長崎県,南松浦郡新上五島町,七目郷８７７番地３,,42,411,8574214,,,2023-07-25,合併による解散等,9310005003818,令和５年７月２５日長崎県南松浦郡新上五島町有川郷７７９番地天理教南松浦分教会（9310005003818）に合併し解散,2015-10-05,1,,,,,テンリキョウヒガシウラコウブンキョカイ,0
205,1310005006761,登記記録の閉鎖等,0,2023-08-18,2023-06-22,伊奈漁業協同組合,,その他の設立登記法人,長崎県,対馬市,上県町伊奈１２７９番地４,,42,209,8171532,,,2023-06-22,合併による解散等,9310005006762,令和５年６月２２日長崎県対馬市上県町鹿見字京ヶ崎１３番３上県町漁業協同組合（9310005006762）に合併し解散,2015-10-05,1,,,,,イナ,0
207,1330003005607,登記記録の閉鎖等,0,2023-08-18,2023-08-09,ホリデイズ熊本株式会社,,株式会社,熊本県,熊本市中央区,新市街３番１３号,,43,101,8600803,,,2023-08-09,合併による解散等,8320003002004,令和５年８月１日大分県由布市湯布院町川上１５０５番６ホリデイズ湯布院株式会社（8320003002004）に合併し解散,2015-10-05,1,,,,,,0
210,1370001014622,登記記録の閉鎖等,0,2023-08-18,2023-08-10,株式会社藤本左官工業,,株式会社,宮城県,仙台市太白区,四郎丸字昭和上１０番地の１２,,04,104,9811101,,,2023-08-10,清算の結了等,,,2015-10-05,1,,,,,フジモトサカンコウギョウ,0
218,1400003001128,登記記録の閉鎖等,0,2023-08-18,2023-08-07,合資会社ディーガーデン,,合資会社,岩手県,二戸市,福岡字橋場２４番地,,03,213,0286101,,,2023-08-07,清算の結了等,,,2015-10-05,1,,,,,ディーガーデン,0
228,1470002004075,登記記録の閉鎖等,0,2023-08-18,2023-08-14,有限会社曽根建設,,有限会社,香川県,高松市,木太町２０１番地,,37,201,7600080,,,2023-08-14,清算の結了等,,,2015-10-05,1,,,,,ソネケンセツ,0
232,2010001096761,登記記録の閉鎖等,0,2023-08-18,2023-08-07,株式会社コアープラン,,株式会社,神奈川県,横浜市鶴見区,馬場４丁目１０番３９号,,14,101,2300076,,,2023-08-07,清算の結了等,,,2015-10-05,1,,,,,コアープラン,0
238,2010002004236,登記記録の閉鎖等,0,2023-08-18,2023-08-08,有限会社東和鉛版所,,有限会社,東京都,文京区,後楽２丁目２１番６号,,13,105,1120004,,,2023-08-08,清算の結了等,,,2015-10-05,1,,,,,トウワエンバンショ,0
247,2010401148071,登記記録の閉鎖等,0,2023-08-18,2023-07-21,麻布商事株式会社,,株式会社,東京都,港区,赤坂２丁目２１番５号ＡＢＣ,,13,103,1070052,,,2023-07-21,清算の結了等,,,2019-09-17,1,,,,,アザブショウジ,0
251,2010403023207,登記記録の閉鎖等,0,2023-08-18,2023-08-07,アジアライフ２合同会社,,合同会社,東京都,港区,虎ノ門３丁目２２番１０－２０１号,,13,103,1050001,,,2023-08-07,清算の結了等,,,2020-07-02,1,,,,,アジアライフツー,0
255,2010601014164,登記記録の閉鎖等,0,2023-08-18,2023-08-15,林田株式会社,,株式会社,東京都,墨田区,文花３丁目２１番１８号,,13,107,1310044,,,2023-08-15,清算の結了等,,,2015-10-05,1,,,,,ハヤシダ,0
272,2011102001255,登記記録の閉鎖等,0,2023-08-18,2023-08-17,有限会社井上美術紙工所,,有限会社,東京都,新宿区,西落合１丁目２１番４号,,13,104,1610031,,,2023-08-17,清算の結了等,,,2015-10-05,1,,,,,イノウエビジュツシコウショ,0
284,2011705001098,登記記録の閉鎖等,0,2023-08-18,2023-07-26,一般社団法人さくらプロジェクト３．１１,,その他の設立登記法人,千葉県,市川市,原木２５２６番３５,,12,203,2720004,,,2023-07-26,清算の結了等,,,2015-10-05,1,,,,,サクラプロジェクトサンテンイチイチ,0
285,2011801000648,登記記録の閉鎖等,0,2023-08-18,2023-08-17,株式会社榎商会,,株式会社,東京都,葛飾区,四つ木４丁目１４番１１号,,13,122,1240011,,,2023-08-17,清算の結了等,,,2015-10-05,1,,,,,エノキショウカイ,0
286,2011801025026,登記記録の閉鎖等,0,2023-08-18,2023-08-17,株式会社向陽,,株式会社,東京都,足立区,古千谷本町１丁目７番１２号,,13,121,1210832,,,2023-08-17,清算の結了等,,,2015-10-05,1,,,,,,0
320,2030001060237,登記記録の閉鎖等,0,2023-08-18,2023-07-24,サンライズ商事株式会社,,株式会社,埼玉県,本庄市,中央１丁目１番９号,,11,211,3670053,,,2023-07-24,清算の結了等,,,2015-10-05,1,,,,,サンライズショウジ,0
325,2030003012005,登記記録の閉鎖等,0,2023-08-18,2023-07-25,リバーセンター合同会社,,合同会社,埼玉県,久喜市,野久喜２８９番地２,,11,232,3460002,,,2023-07-25,清算の結了等,,,2018-06-07,1,,,,,リバーセンター,0
331,2040001085027,登記記録の閉鎖等,0,2023-08-18,2023-07-27,株式会社プラン・ビング,,株式会社,千葉県,柏市,手賀の杜３丁目５番地１４,,12,217,2701447,,,2023-07-27,清算の結了等,,,2015-10-05,1,,,,,プランビング,0
332,2040001088839,登記記録の閉鎖等,0,2023-08-18,2023-08-17,Ｂａｍｂｏｏ　Ｃｏｎｇｒａｔｕｌａｔｉｏｎｓ株式会社,,株式会社,東京都,新宿区,市谷仲之町３番４１号,,13,104,1620064,,,2023-08-17,清算の結了等,,,2015-10-05,1,,,,,バンブーコングラッチュレーションズ,0
334,2040001105841,登記記録の閉鎖等,0,2023-08-18,2023-07-21,ＣＸＲ株式会社,,株式会社,東京都,港区,西新橋３丁目２５番３１号愛宕山ＰＲＥＸ８階,,13,103,1050003,,,2023-07-21,清算の結了等,,,2018-08-20,1,,,,,シーエックスアール,0
350,2080001022983,登記記録の閉鎖等,0,2023-08-18,2023-08-04,Ｇｌｏｂａｌ　Ｅｎｇｉｎｅｅｒｉｎｇ　Ｓｅｒｖｉｃｅ株式会社,,株式会社,愛知県,みよし市,三好丘桜４丁目４番１０号,,23,236,4700204,,,2023-08-04,清算の結了等,,,2019-07-11,1,,,,,グローバルエンジニアリングサービス,0
390,2180301006949,登記記録の閉鎖等,0,2023-08-18,2023-08-04,株式会社藤商会,,株式会社,愛知県,豊橋市,石巻町字仲ノ坪４０番地の７,,23,201,4411112,,,2023-08-04,清算の結了等,,,2015-10-05,1,,,,,フジショウカイ,0
394,2200001013144,登記記録の閉鎖等,0,2023-08-18,2023-08-15,株式会社アンサー,,株式会社,岐阜県,大垣市,北方町１丁目２５１番地の２,,21,202,5030019,,,2023-08-15,清算の結了等,,,2015-10-05,1,,,,,アンサー,0
405,2280002000316,登記記録の閉鎖等,0,2023-08-18,2023-08-16,有限会社宇津崎工務店,00004645,有限会社,島根県,松江市,古志原６丁目２０番２８号,,32,201,6900012,,,2023-08-16,清算の結了等,,,2015-10-05,1,,,,,ウヅサキコウムテン,0
423,2340005001957,登記記録の閉鎖等,0,2023-08-18,2023-08-16,一般社団法人かごしま口腔保健協会,,その他の設立登記法人,鹿児島県,鹿児島市,照国町１３番１５号,,46,201,8920841,,,2023-08-16,清算の結了等,,,2015-10-05,1,,,,,カゴシマコウクウホケンキョウカイ,0
441,2440003001180,登記記録の閉鎖等,0,2023-08-18,2023-08-17,江差農林合同会社,,合同会社,北海道,檜山郡江差町,字鰔川町３７７番地,,01,361,0430012,,,2023-08-17,清算の結了等,,,2017-12-22,1,,,,,エサシノウリン,0
454,3010001214776,登記記録の閉鎖等,0,2023-08-18,2023-08-09,コントレス株式会社,,株式会社,東京都,千代田区,平河町１丁目６番１５号ＵＳビル８０２,,13,101,1020093,,,2023-08-09,清算の結了等,,,2021-01-08,1,,,,,コントレス,0
473,3010405021579,登記記録の閉鎖等,0,2023-08-18,2023-07-24,一般社団法人ユニットケア推進会,,その他の設立登記法人,東京都,港区,西新橋１丁目１８番６号クロスオフィス内幸町３０８,,13,103,1050003,,,2023-07-24,清算の結了等,,,2022-11-22,1,,,,,ユニットケアスイシンカイ,0
477,3010701015169,登記記録の閉鎖等,0,2023-08-18,2023-08-01,株式会社ケー・ビー・アイ・エス,,株式会社,東京都,港区,白金台３丁目２番３４号,,13,103,1080071,,,2023-08-01,合併による解散等,8010701006527,令和５年８月１日東京都港区白金台三丁目２番３４号東京ソフト株式会社（8010701006527）に合併し解散,2015-10-05,1,,,,,ケービーアイエス,0
479,3010802014441,登記記録の閉鎖等,0,2023-08-18,2023-08-10,有限会社明源電気製作所,00052491,有限会社,東京都,大田区,北馬込１丁目３３番５号,,13,111,1430021,,,2023-08-10,清算の結了等,,,2015-10-05,1,,,,,メイゲンデンキセイサクショ,0
504,3012803002805,登記記録の閉鎖等,0,2023-08-18,2023-08-15,合同会社セプテンバー,,合同会社,東京都,東大和市,狭山２丁目８７９番地の７,,13,220,2070003,,,2023-08-15,清算の結了等,,,2022-06-10,1,,,,,セプテンバー,0
505,3013102002819,登記記録の閉鎖等,0,2023-08-18,2023-08-04,有限会社正進製作所,,有限会社,東京都,西多摩郡瑞穂町,大字富士山栗原新田１３０番地４,,13,303,1901204,,,2023-08-04,清算の結了等,,,2015-10-05,1,,,,,ショウシンセイサクショ,0
516,3020003009496,登記記録の閉鎖等,0,2023-08-18,2023-08-07,ユーフォリア合同会社,,合同会社,神奈川県,横浜市青葉区,あざみ野３丁目１４番地１７,,14,117,2250011,,,2023-08-07,清算の結了等,,,2015-10-05,1,,,,,ユーフォリア,0
536,3040001010636,登記記録の閉鎖等,0,2023-08-18,2023-07-27,株式会社ＭＡＮＮＩＳＨ,,株式会社,千葉県,千葉市中央区,富士見１丁目１５番地８号,,12,101,2600015,,,2023-07-27,清算の結了等,,,2015-10-05,1,,,,,,0
547,3040002039848,登記記録の閉鎖等,0,2023-08-18,2023-07-24,有限会社横山,,有限会社,千葉県,市川市,日之出１２番１７－５０２号,,12,203,2720135,,,2023-07-24,清算の結了等,,,2015-10-05,1,,,,,ヨコヤマ,0
554,3050002013901,登記記録の閉鎖等,0,2023-08-18,2023-08-14,有限会社築地亭,,有限会社,茨城県,稲敷郡美浦村,大字興津１３０１番地１０,,08,442,3000425,,,2023-08-14,清算の結了等,,,2015-10-05,1,,,,,,0
565,3100002022491,登記記録の閉鎖等,0,2023-08-18,2023-08-10,有限会社奥原木材工業,,有限会社,長野県,松本市,大字島立２２０９番地の２,,20,202,3900852,,,2023-08-10,清算の結了等,,,2015-10-05,1,,,,,オクハラモクザイコウギョウ,0
567,3100005008133,登記記録の閉鎖等,0,2023-08-18,2023-08-08,医療法人清水歯科,,その他の設立登記法人,長野県,茅野市,玉川４６５０番地１,,20,214,3910011,,,2023-08-08,清算の結了等,,,2015-10-05,1,,,,,シミズシカ,0
590,3130001005602,登記記録の閉鎖等,0,2023-08-18,2023-08-03,山口織物株式会社,,株式会社,京都府,京都市上京区,芦山寺通千本東入北玄蕃町６４番地,,26,102,6028308,,,2023-08-03,清算の結了等,,,2015-10-05,1,,,,,ヤマグチオリモノ,0
594,3130002003381,登記記録の閉鎖等,0,2023-08-18,2023-08-04,有限会社植川デンキ,,有限会社,京都府,京都市北区,紫野泉堂町２３番地,,26,101,6038247,,,2023-08-04,清算の結了等,,,2015-10-05,1,,,,,ウエカワデンキ,0
595,3130002022126,登記記録の閉鎖等,0,2023-08-18,2023-08-04,有限会社前田房製作所,,有限会社,京都府,京都市中京区,寺町通竹屋町上る下御霊前町６５６番地,,26,104,6040995,,,2023-08-04,清算の結了等,,,2015-10-05,1,,,,,マエダフサセイサクショ,0
610,3190002019579,登記記録の閉鎖等,0,2023-08-18,2023-08-10,有限会社太田建築,,有限会社,三重県,四日市市,小浜町２１番地,,24,202,5100865,,,2023-08-10,清算の結了等,,,2015-10-05,1,,,,,オオタケンチク,0
617,3220005002850,登記記録の閉鎖等,0,2023-08-18,2023-08-10,特定非営利活動法人石川県ダートトライアル振興会スリーＲ,,その他の設立登記法人,石川県,白山市,木津町１０６１番地,,17,210,9240821,,,2023-08-10,清算の結了等,,,2015-10-05,1,,,,,イシカワケンダートトライアルシンコウカイスリーアール,0
618,3220005006067,登記記録の閉鎖等,0,2023-08-18,2023-08-10,永宝漁業生産組合,,その他の設立登記法人,石川県,鳳珠郡能登町,字小木３４字１番地５,,17,463,9270553,,,2023-08-10,清算の結了等,,,2015-10-05,1,,,,,エイホウ,0
626,3260001009326,登記記録の閉鎖等,0,2023-08-18,2023-08-14,株式会社エムズ・ユー,,株式会社,岡山県,岡山市北区,内山下１丁目３番９号,,33,101,7000824,,,2023-08-14,合併による解散等,8030001070643,令和５年７月３１日東京都港区赤坂二丁目２１番４号株式会社デルパラ（8030001070643）に合併し解散,2015-10-05,1,,,,,エムズユー,0
627,3260001032410,登記記録の閉鎖等,0,2023-08-18,2023-08-10,株式会社ファーストリサイクル,,株式会社,岡山県,都窪郡早島町,前潟１０００－１,,33,423,7010303,,,2023-08-10,清算の結了等,,,2018-09-14,1,,,,,ファーストリサイクル,0
637,3290005006820,登記記録の閉鎖等,0,2023-08-18,2023-07-18,天理教和春日分教会,,その他の設立登記法人,福岡県,春日市,小倉６丁目１１０番地,,40,218,8160824,,,2023-07-18,合併による解散等,6290005000449,令和５年７月１８日福岡市西区愛宕三丁目１５番８号天理教和博分教会（6290005000449）に合併し解散,2015-10-05,1,,,,,,0
649,3340003004069,登記記録の閉鎖等,0,2023-08-18,2023-08-08,合同会社Ｌａｙｅｒ　Ｃａｋｅ,,合同会社,鹿児島県,鹿児島市,平之町９－９,,46,201,8920848,,,2023-08-08,清算の結了等,,,2023-03-09,1,,,,,レイヤーケーキ,0
652,3360001010091,登記記録の閉鎖等,0,2023-08-18,2023-08-14,株式会社ヒルズあおい,,株式会社,沖縄県,浦添市,仲西１丁目２４番１－９０１号ライオンズマンション仲西,,47,208,9012125,,,2023-08-14,清算の結了等,,,2015-10-05,1,,,,,ヒルズアオイ,0
661,3410001003940,登記記録の閉鎖等,0,2023-08-18,2023-08-08,株式会社ゼネラルプロパティーズ,,株式会社,秋田県,秋田市,将軍野東２丁目１９番７号,,05,201,0110931,,,2023-08-08,清算の結了等,,,2015-10-05,1,,,,,,0
670,3460001005016,登記記録の閉鎖等,0,2023-08-18,2023-08-04,株式会社ウィステリア,,株式会社,愛知県,豊橋市,談合町６３番地,,23,201,4400816,,,2023-08-04,清算の結了等,,,2016-04-06,1,,,,,ウィステリア,0
681,3500001006752,登記記録の閉鎖等,0,2023-08-18,2023-08-17,株式会社コンクリートデザイナー匠,,株式会社,愛媛県,松山市,朝美１丁目５番１２号,,38,201,7918023,,,2023-08-17,清算の結了等,,,2015-10-05,1,,,,,コンクリートデザイナータクミ,0
686,4010001065839,登記記録の閉鎖等,0,2023-08-18,2023-07-21,ＮＮインベストメント・パートナーズ株式会社,,株式会社,東京都,渋谷区,渋谷２丁目２４番１２号渋谷スクランブルスクエア,,13,113,1500002,,,2023-07-21,合併による解散等,8010401009945,令和５年７月１日東京都港区六本木六丁目１０番１号六本木ヒルズ森タワー、ゴールドマン・サックス・アセット・マネジメント株式会社（8010401009945）に合併し解散,2015-10-05,1,,,,,エヌエヌインベストメントパートナーズ,0
692,4010003031830,登記記録の閉鎖等,0,2023-08-18,2023-08-10,合同会社横浜ＢＲ,,合同会社,神奈川県,藤沢市,鵠沼石上２丁目５番１号,,14,205,2510025,,,2023-08-10,清算の結了等,,,2020-03-09,1,,,,,ヨコハマビーアール,0
709,4010405007718,登記記録の閉鎖等,0,2023-08-18,2023-07-19,特定非営利活動法人新社会人養成塾ＢＯＯＳＴＥＲ,,その他の設立登記法人,東京都,港区,北青山３丁目５番地１７号５階ｋｏｋｉｋｕ方,,13,103,1070061,,,2023-07-19,合併による解散等,2010005034817,令和５年７月４日東京都中央区銀座七丁目１０番６号アスク銀座ビル５階特定非営利活動法人２５日会（2010005034817）に合併し解散,2015-10-05,1,,,,,シンシャカイジンヨウセイジュクブースター,0
717,4010901029851,登記記録の閉鎖等,0,2023-08-18,2023-08-10,株式会社タカサクラガーヤ研究所,,株式会社,東京都,中野区,丸山２丁目８番３号,,13,114,1650021,,,2023-08-10,清算の結了等,,,2015-10-05,1,,,,,タカサクラガーヤケンキュウジョ,0
779,4040001035236,登記記録の閉鎖等,0,2023-08-18,2023-07-27,株式会社協和,,株式会社,千葉県,松戸市,上矢切１６７４番地の３,,12,207,2710094,,,2023-07-27,清算の結了等,,,2015-10-05,1,,,,,キョウワ,0
787,4040003008719,登記記録の閉鎖等,0,2023-08-18,2023-07-24,ＧＴＳＲアセットマネジメント合同会社,,合同会社,千葉県,柏市,増尾２丁目１５番５号,,12,217,2770033,,,2023-07-24,清算の結了等,,,2016-06-17,1,,,,,ジーティーエスアールアセットマネジメント,0
793,4050002031407,登記記録の閉鎖等,0,2023-08-18,2023-08-10,有限会社ホンマ,,有限会社,茨城県,日立市,田尻町４丁目２５番１－２号,,08,202,3191416,,,2023-08-10,合併による解散等,8010001191524,令和５年８月１日東京都千代田区丸の内一丁目８番１号株式会社フィールドファーマシー（8010001191524）に合併し解散,2015-10-05,1,,,,,ホンマ,0
801,4100001034306,登記記録の閉鎖等,0,2023-08-18,2023-08-10,オンラインセミナー＆電子書籍株式会社,,株式会社,長野県,茅野市,豊平７６９５番地５３６チェルトの森柳川２－１－２５,,20,214,3910213,,,2023-08-10,清算の結了等,,,2021-06-03,1,,,,,オンラインセミナーアンドデンシショセキ,0
806,4120001052545,登記記録の閉鎖等,0,2023-08-18,2023-08-10,中村商事株式会社,,株式会社,大阪府,大阪市東淀川区,小松１丁目１０番２８号,,27,114,5330004,,,2023-08-10,清算の結了等,,,2015-10-05,1,,,,,ナカムラショウジ,0
824,4120903000700,登記記録の閉鎖等,0,2023-08-18,2023-08-01,合同会社Ｍ・Ｉ企画,,合同会社,大阪府,高槻市,日吉台三番町１８番６号,,27,207,5691022,,,2023-08-01,清算の結了等,,,2015-10-05,1,,,,,エムアイキカク,0
828,4130001055704,登記記録の閉鎖等,0,2023-08-18,2023-08-14,リアルワールドデータ株式会社,,株式会社,京都府,京都市下京区,油小路通木津屋橋下る北不動堂町４８０番地,,26,106,6008233,,,2023-08-14,合併による解散等,6010403010531,令和５年７月３日東京都港区芝大門二丁目５番５号株式会社ＪＭＤＣ（6010403010531）に合併し解散,2015-10-05,1,,,,,リアルワールドデータ,0
835,4150005004762,登記記録の閉鎖等,0,2023-08-18,2023-08-14,奈良県医薬品小売商業組合,,その他の設立登記法人,奈良県,橿原市,久米町９２６番地奈良県薬業会館内,,29,205,6340063,,,2023-08-14,清算の結了等,,,2015-10-05,1,,,,,ナラケンイヤクヒンコウリ,0
845,4190002008234,登記記録の閉鎖等,0,2023-08-18,2023-08-09,有限会社井本工業所,,有限会社,三重県,伊勢市,二見町西１８３番地３１,,24,203,5190607,,,2023-08-09,清算の結了等,,,2015-10-05,1,,,,,イモトコウギョウショ,0
866,4320002012676,登記記録の閉鎖等,0,2023-08-18,2023-08-07,有限会社矢野一級建築士事務所,,有限会社,大分県,別府市,大字鉄輪８７０番地の１２,,44,202,8740000,,,2023-08-07,清算の結了等,,,2015-10-05,1,,,,,,0
877,4340002019199,登記記録の閉鎖等,0,2023-08-18,2023-08-14,有限会社小倉家具店,,有限会社,鹿児島県,西之表市,西町７６番地,,46,213,8913111,,,2023-08-14,清算の結了等,,,2015-10-05,1,,,,,オグラカグテン,0
885,4370202004667,登記記録の閉鎖等,0,2023-08-18,2023-08-10,有限会社阿部ボーリング,,有限会社,宮城県,栗原市,栗駒鳥沢新山前７７番地,,04,213,9895381,,,2023-08-10,清算の結了等,,,2015-10-05,1,,,,,アベボーリング,0
886,4380001006624,登記記録の閉鎖等,0,2023-08-18,2023-08-10,株式会社毎日民報西部販売センター,,株式会社,福島県,郡山市,堤３丁目１９８番地,,07,203,9630205,,,2023-08-10,清算の結了等,,,2015-10-05,1,,,,,マイニチミンポウセイブハンバイセンター,0
891,4390001015285,登記記録の閉鎖等,0,2023-08-18,2023-08-17,Ｋｎｅｗｃｌｅａｒ株式会社,,株式会社,山形県,鶴岡市,荒井京田字荒田２６３番地１９マ・ミゾン・パートＩＩＩＤ号室,00113320,06,203,9970051,,,2023-08-17,清算の結了等,,,2018-05-07,1,,,,,ヌウクリヤ,0
894,4400601000131,登記記録の閉鎖等,0,2023-08-18,2023-08-09,興国設計株式会社,,株式会社,岩手県,奥州市,水沢大手町３丁目５９番地,,03,215,0230053,,,2023-08-09,清算の結了等,,,2015-10-05,1,,,,,コウコクセッケイ,0
895,4410001005143,登記記録の閉鎖等,0,2023-08-18,2023-08-09,和光商事株式会社,,株式会社,秋田県,にかほ市,金浦字十二林３３番地４,,05,214,0180311,,,2023-08-09,清算の結了等,,,2015-10-05,1,,,,,ワコウショウジ,0
908,4470002016010,登記記録の閉鎖等,0,2023-08-18,2023-08-09,有限会社杉村鉄工,,有限会社,香川県,観音寺市,瀬戸町１丁目１番４号,,37,205,7680065,,,2023-08-09,清算の結了等,,,2015-10-05,1,,,,,スギムラテッコウ,0
927,5010005031076,登記記録の閉鎖等,0,2023-08-18,2023-08-15,日光Ｐｌｕｓ１１ホールディング特定目的会社,,その他の設立登記法人,東京都,千代田区,丸の内３丁目１番１号東京共同会計事務所内,,13,101,1000005,,,2023-08-15,清算の結了等,,,2019-11-18,1,,,,,ニッコウプラスイレブンホールディング,0
943,5010902008647,登記記録の閉鎖等,0,2023-08-18,2023-08-14,有限会社設計集団ウーシーゾウ,,有限会社,東京都,世田谷区,深沢２丁目３番１９号,,13,112,1580081,,,2023-08-14,清算の結了等,,,2015-10-05,1,,,,,,0
950,5011101078473,登記記録の閉鎖等,0,2023-08-18,2023-08-08,Ｈ　ｐｏｗｅｒ　ｈｅａｌｔｈ株式会社,,株式会社,東京都,千代田区,麹町６丁目６番地１,,13,101,1020083,,,2023-08-08,清算の結了等,,,2016-10-18,1,,,,,エイチパワーヘルス,0
966,5011702010297,登記記録の閉鎖等,0,2023-08-18,2023-08-15,有限会社ベベコーポレーション,,有限会社,東京都,江戸川区,平井１丁目１１番３号,,13,123,1320035,,,2023-08-15,清算の結了等,,,2015-10-05,1,,,,,ベベコーポレーション,0
979,5020002091774,登記記録の閉鎖等,0,2023-08-18,2023-08-07,有限会社エンゼル,,有限会社,神奈川県,川崎市多摩区,宿河原２丁目３１番４号,,14,135,2140021,,,2023-08-07,清算の結了等,,,2015-10-05,1,,,,,エンゼル,0
983,5020005003693,登記記録の閉鎖等,0,2023-08-18,2023-08-04,神奈川県水産物商業協同組合連合会,,その他の設立登記法人,神奈川県,横浜市神奈川区,山ノ内町一丁目１番地,,14,102,2210000,,,2023-08-04,清算の結了等,,,2015-10-05,1,,,,,カナガワケンスイサンブツショウギョウ,0
986,5021002011136,登記記録の閉鎖等,0,2023-08-18,2023-08-10,佐久建設工業有限会社,,有限会社,神奈川県,茅ヶ崎市,芹沢１４６７番地４,,14,207,2530008,,,2023-08-10,清算の結了等,,,2015-10-05,1,,,,,サクケンセツコウギョウ,0
991,5030001104560,登記記録の閉鎖等,0,2023-08-18,2023-07-21,株式会社ｍｏｂｙ－ｄｉｃｋ,,株式会社,埼玉県,川口市,栄町１丁目１０番１０－４０１号クローネ川口,,11,203,3320017,,,2023-07-21,合併による解散等,8010001149860,令和５年７月２１日埼玉県川口市西川口一丁目１７番地の９ジェム西川口Ｎｏ．５・２０２号室株式会社ＣＩＲＣＵＳ（8010001149860）に合併し解散,2015-10-05,1,,,,,モビーディック,0
998,5030002118923,登記記録の閉鎖等,0,2023-08-18,2023-07-18,有限会社ロワールネオ,,有限会社,埼玉県,行田市,大字南河原７４１番地４,,11,206,3610084,,,2023-07-18,清算の結了等,,,2015-10-05,1,,,,,ロワールネオ,0
1019,5050001034038,登記記録の閉鎖等,0,2023-08-18,2023-08-14,株式会社玉の井,,株式会社,茨城県,日立市,大みか町２丁目２２番１号,,08,202,3191221,,,2023-08-14,清算の結了等,,,2015-10-05,1,,,,,,0
1024,5060005007666,登記記録の閉鎖等,0,2023-08-18,2023-08-04,一般社団法人日本整体師認定協会,,その他の設立登記法人,栃木県,那須塩原市,太夫塚２丁目１９８番地,,09,213,3292735,,,2023-08-04,清算の結了等,,,2015-10-05,1,,,,,ニホンセイタイシニンテイキョウカイ,0
1033,5090001005142,登記記録の閉鎖等,0,2023-08-18,2023-08-01,株式会社ちぼり甲府,,株式会社,山梨県,甲府市,下曽根町３４０２番地３,,19,201,4001508,,,2023-08-01,合併による解散等,5090001011132,令和５年８月１日山梨県甲府市下曽根町３４０２番地３株式会社ちぼりコンフェクショナリー（5090001011132）に合併し解散,2015-10-05,1,,,,,チボリコウフ,0
1040,5100003004537,登記記録の閉鎖等,0,2023-08-18,2023-08-10,合同会社ひかりたがやす,,合同会社,長野県,長野市,大橋南２丁目９－１,,20,201,3812207,,,2023-08-10,清算の結了等,,,2016-11-09,1,,,,,ヒカリタガヤス,0
1061,5120901016367,登記記録の閉鎖等,0,2023-08-18,2023-08-14,株式会社再生,,株式会社,大阪府,高槻市,西面南１丁目８番１０号,,27,207,5690847,,,2023-08-14,清算の結了等,,,2015-10-05,1,,,,,マタキ,0
1135,5340002010834,登記記録の閉鎖等,0,2023-08-18,2023-08-15,有限会社尾田原木工,,有限会社,鹿児島県,鹿児島市,下竜尾町２０番１号,,46,201,8920852,,,2023-08-15,清算の結了等,,,2015-10-05,1,,,,,オダハラモッコウ,0
1167,6010001065738,登記記録の閉鎖等,0,2023-08-18,2023-07-25,株式会社ザイン組織開発研究所,,株式会社,千葉県,船橋市,本町６丁目１５番３号ＣＡＳＡ船橋３０１,,12,204,2730005,,,2023-07-25,清算の結了等,,,2015-10-05,1,,,,,ザインソシキカイハツケンキュジョ,0
1170,6010001216035,登記記録の閉鎖等,0,2023-08-18,2023-08-07,株式会社１４　ｏｎｅ　ｆｏｕｒ,,株式会社,東京都,千代田区,九段南２丁目９番４号,,13,101,1020074,,,2023-08-07,清算の結了等,,,2021-02-22,1,,,,,ワンフォーワンフォー,0
1177,6010401105548,登記記録の閉鎖等,0,2023-08-18,2023-07-24,株式会社ビモクリ,,株式会社,東京都,港区,南青山３丁目１番３号スプライン青山東急ビル６Ｆ,,13,103,1070062,,,2023-07-24,清算の結了等,,,2015-10-05,1,,,,,ビモクリ,0
1188,6010501004328,登記記録の閉鎖等,0,2023-08-18,2023-08-14,株式会社コーラル,,株式会社,東京都,台東区,小島１丁目１番９号,,13,106,1110056,,,2023-08-14,清算の結了等,,,2015-10-05,1,,,,,コーラル,0
1196,6010803003639,登記記録の閉鎖等,0,2023-08-18,2023-08-15,サンストーリー合同会社,,合同会社,東京都,品川区,西五反田８丁目１－２第２平森ビル１階,,13,109,1410031,,,2023-08-15,清算の結了等,,,2021-02-05,1,,,,,サンストーリー,0
1211,6011503003326,登記記録の閉鎖等,0,2023-08-18,2023-08-07,マキタ・エンタープライズ合同会社,,合同会社,東京都,千代田区,大手町１丁目５番１号大手町ファーストスクエアイーストタワー４階,,13,101,1000004,,,2023-08-07,清算の結了等,,,2017-07-13,1,,,,,マキタエンタープライズ,0
1217,6012803002323,登記記録の閉鎖等,0,2023-08-18,2023-08-14,Ａｃｏｒｎ合同会社,,合同会社,東京都,日野市,万願寺３丁目１番地の２,,13,212,1910024,,,2023-08-14,清算の結了等,,,2020-07-30,1,,,,,エイコーン,0
1236,6020001139805,登記記録の閉鎖等,0,2023-08-18,2023-08-04,株式会社テラスクモラス,,株式会社,神奈川県,横浜市港北区,日吉本町５丁目７７番２０－６０６号,,14,109,2230062,,,2023-08-04,清算の結了等,,,2021-02-04,1,,,,,テラスクモラス,0
1260,6030001102968,登記記録の閉鎖等,0,2023-08-18,2023-07-24,株式会社Ｇｏｌｄｅｎ　Ｌｅａｆ‐Ｗｏｒｋｓ,,株式会社,東京都,港区,芝浦３丁目７番６号,,13,103,1080023,,,2023-07-24,清算の結了等,,,2015-10-05,1,,,,,ゴールデンリーフワークス,0
1271,6040001096813,登記記録の閉鎖等,0,2023-08-18,2023-07-26,株式会社澤田管理事務所,,株式会社,千葉県,市川市,市川２丁目１４番１２号,,12,203,2720034,,,2023-07-26,清算の結了等,,,2016-09-05,1,,,,,サワダカンリジムショ,0
1277,6040002026050,登記記録の閉鎖等,0,2023-08-18,2023-07-25,有限会社ヤマダ,,有限会社,千葉県,船橋市,薬円台４丁目１７番１３号,,12,204,2740077,,,2023-07-25,清算の結了等,,,2015-10-05,1,,,,,ヤマダ,0
1284,6060002018525,登記記録の閉鎖等,0,2023-08-18,2023-07-31,有限会社石川魚店,,有限会社,栃木県,芳賀郡芳賀町,大字下高根沢２５３８番地１,,09,345,3213321,,,2023-07-31,清算の結了等,,,2015-10-05,1,,,,,イシカワサカナテン,0
1297,6100001032506,登記記録の閉鎖等,0,2023-08-18,2023-08-10,ＴＥＲＡＳＵホールディングス株式会社,,株式会社,長野県,長野市,大橋南２丁目９番地１,,20,201,3812207,,,2023-08-10,清算の結了等,,,2019-09-17,1,,,,,テラスホールディングス,0
1300,6120001004882,登記記録の閉鎖等,0,2023-08-18,2023-08-09,株式会社遠藤工務店,,株式会社,大阪府,大阪市阿倍野区,三明町２丁目６番１５号,,27,119,5450005,,,2023-08-09,清算の結了等,,,2015-10-05,1,,,,,エンドウコウムテン,0
1301,6120001041983,登記記録の閉鎖等,0,2023-08-18,2023-08-17,大島商事株式会社,,株式会社,大阪府,大阪市西区,阿波座１丁目１２番９号,,27,106,5500011,,,2023-08-17,清算の結了等,,,2015-10-05,1,,,,,オオシマショウジ,0
1313,6120101037923,登記記録の閉鎖等,0,2023-08-18,2023-08-17,株式会社アサヒ,,株式会社,大阪府,貝塚市,畠中２丁目１３６１番６号,,27,208,5970072,,,2023-08-17,清算の結了等,,,2015-10-05,1,,,,,アサヒ,0
1336,6180001105717,登記記録の閉鎖等,0,2023-08-18,2023-08-10,株式会社ＩＮＣＳ　Ｅｎｇｌｉｓｈ　Ｃｏｍｐａｎｙ,,株式会社,愛知県,名古屋市緑区,大高町字亀原３９番地の２,,23,114,4598001,,,2023-08-10,清算の結了等,,,2015-10-05,1,,,,,アイエヌシーエスイングリッシュカンパニー,0
1343,6180305002172,登記記録の閉鎖等,0,2023-08-18,2023-08-04,農事組合法人豊橋バイオ堆肥組合,,その他の設立登記法人,愛知県,豊橋市,南大清水町字元町４６４番地,00075361,23,201,4418132,,,2023-08-04,清算の結了等,,,2015-10-05,1,,,,,トヨハシバイオタイヒクミアイ,0
1368,6320002011321,登記記録の閉鎖等,0,2023-08-18,2023-08-16,有限会社桑野商店,,有限会社,大分県,別府市,石垣西３丁目７番９号,,44,202,8740910,,,2023-08-16,清算の結了等,,,2015-10-05,1,,,,,クワノショウテン,0
1371,6330002000892,登記記録の閉鎖等,0,2023-08-18,2023-08-02,有限会社井上製＿所,00097522,有限会社,熊本県,熊本市南区,護藤町８６１番地１１,,43,104,8614117,,,2023-08-02,清算の結了等,,,2015-10-05,1,,,,,イノウエセイアンショ,0
1399,7010001102507,登記記録の閉鎖等,0,2023-08-18,2023-08-08,株式会社ＮＫシステムズ,,株式会社,東京都,千代田区,東神田２丁目２番１号,,13,101,1010031,,,2023-08-08,清算の結了等,,,2015-10-05,1,,,,,エヌケイシステムズ,0
1405,7010003027529,登記記録の閉鎖等,0,2023-08-18,2023-08-09,サファリ合同会社,,合同会社,東京都,千代田区,丸の内３丁目１番１号東京共同会計事務所内,,13,101,1000005,,,2023-08-09,清算の結了等,,,2018-05-17,1,,,,,サファリ,0
1412,7010401163520,登記記録の閉鎖等,0,2023-08-18,2023-07-21,レグリー株式会社,,株式会社,東京都,港区,南青山３丁目１５－９ＭＩＮＯＷＡ表参道３階,,13,103,1070062,,,2023-07-21,清算の結了等,,,2021-10-29,1,,,,,レグリー,0
1413,7010401166639,登記記録の閉鎖等,0,2023-08-18,2023-07-24,株式会社ＰＥＴＴＥＣＣ　ＪＡＰＡＮ,,株式会社,東京都,港区,北青山３丁目６番７号青山パラシオタワー１１Ｆ,,13,103,1070061,,,2023-07-24,清算の結了等,,,2022-04-07,1,,,,,ペテックジャパン,0
1416,7010405018836,登記記録の閉鎖等,0,2023-08-18,2023-08-07,アジアライフ２特定目的会社,,その他の設立登記法人,東京都,港区,虎ノ門３丁目２２番１０－２０１号,,13,103,1050001,,,2023-08-07,清算の結了等,,,2020-06-17,1,,,,,アジアライフツー,0
1421,7010705000345,登記記録の閉鎖等,0,2023-08-18,2023-08-15,医療法人社団偕老会,,その他の設立登記法人,東京都,品川区,南大井６丁目１７番７号正栄プラザ１階,,13,109,1400013,,,2023-08-15,清算の結了等,,,2015-10-05,1,,,,,カイロウカイ,0
1422,7010801022796,登記記録の閉鎖等,0,2023-08-18,2023-08-09,株式会社永遠楽,,株式会社,東京都,大田区,池上６丁目１０番１２号,,13,111,1460082,,,2023-08-09,清算の結了等,,,2015-10-05,1,,,,,,0
1423,7010901000207,登記記録の閉鎖等,0,2023-08-18,2023-08-14,株式会社アート白瑞,,株式会社,東京都,世田谷区,若林１丁目２番２１号,,13,112,1540023,,,2023-08-14,清算の結了等,,,2015-10-05,1,,,,,アートシミズ,0
1437,7011301020035,登記記録の閉鎖等,0,2023-08-18,2023-08-08,株式会社ソフトカルチャー,,株式会社,東京都,杉並区,荻窪５丁目３０番７号,,13,115,1670051,,,2023-08-08,清算の結了等,,,2015-10-05,1,,,,,ソフトカルチャー,0
1444,7011801001154,登記記録の閉鎖等,0,2023-08-18,2023-08-16,株式会社木原工業所,,株式会社,東京都,葛飾区,立石２丁目２８番３号,,13,122,1240012,,,2023-08-16,清算の結了等,,,2015-10-05,1,,,,,キハラコウギョウショ,0
1468,7030001010237,登記記録の閉鎖等,0,2023-08-18,2023-07-25,アケボノ建装株式会社,,株式会社,埼玉県,さいたま市見沼区,東大宮２丁目２０番１１号,,11,104,3370051,,,2023-07-25,清算の結了等,,,2015-10-05,1,,,,,アケボノケンソウ,0
1469,7030001013280,登記記録の閉鎖等,0,2023-08-18,2023-07-24,株式会社ウイズユー,,株式会社,埼玉県,さいたま市南区,内谷１丁目１１番１５号４０８,,11,108,3360034,,,2023-07-24,清算の結了等,,,2015-10-05,1,,,,,ウイズユー,0
1482,7030005020570,登記記録の閉鎖等,0,2023-08-18,2023-07-24,ＧＳユアサインフラシステムズ労働組合,,その他の設立登記法人,埼玉県,川越市,大字下赤坂大野原６７７番地,,11,201,3501155,,,2023-07-24,清算の結了等,,,2021-10-28,1,,,,,ジーエスユアサインフラシステムズ,0
1483,7040001056246,登記記録の閉鎖等,0,2023-08-18,2023-07-26,株式会社ゆうとく,,株式会社,千葉県,市原市,惣社３丁目１０番地３,,12,219,2900023,,,2023-07-26,清算の結了等,,,2015-10-05,1,,,,,ユウトク,0
1486,7040001110102,登記記録の閉鎖等,0,2023-08-18,2023-07-24,株式会社アイメイ,,株式会社,千葉県,千葉市若葉区,愛生町８４番地,,12,104,2640031,,,2023-07-24,合併による解散等,6040001000774,令和５年７月１１日千葉市若葉区愛生町８４番地株式会社ウッドストック（6040001000774）に合併し解散,2019-07-22,1,,,,,アイメイ,0
1504,7100002023164,登記記録の閉鎖等,0,2023-08-18,2023-08-10,有限会社松伯,,有限会社,長野県,安曇野市,穂高有明７７１３番地２,,20,220,3998301,,,2023-08-10,清算の結了等,,,2015-10-05,1,,,,,ショウハク,0
1506,7110002031744,登記記録の閉鎖等,0,2023-08-18,2023-08-14,有限会社豊正不動産,,有限会社,新潟県,見附市,坂井町２６７６番地,,15,211,9540104,,,2023-08-14,清算の結了等,,,2015-10-05,1,,,,,トヨショウドウサン,0
1507,7120001036867,登記記録の閉鎖等,0,2023-08-18,2023-08-09,株式会社リリ,,株式会社,大阪府,大阪市福島区,吉野２丁目８番３０号,,27,103,5530006,,,2023-08-09,清算の結了等,,,2015-10-05,1,,,,,リリ,0
1529,7120902022453,登記記録の閉鎖等,0,2023-08-18,2023-08-14,有限会社スタジオ・ハウ,,有限会社,大阪府,豊中市,蛍池東町三丁目５番７,,27,203,5600000,,,2023-08-14,清算の結了等,,,2015-10-05,1,,,,,,0
1537,7150005004669,登記記録の閉鎖等,0,2023-08-18,2023-08-14,奈良県医薬品商業協同組合,,その他の設立登記法人,奈良県,橿原市,久米町９２６番地奈良県薬業会館内,,29,205,6340063,,,2023-08-14,清算の結了等,,,2015-10-05,1,,,,,ナラケンイヤクヒンショウギョウ,0
1539,7180002061842,登記記録の閉鎖等,0,2023-08-18,2023-08-16,有限会社コクド興業運輸,,有限会社,愛知県,愛知郡東郷町,大字春木字藤坂２２９番地の５３,,23,302,4700162,,,2023-08-16,清算の結了等,,,2015-10-05,1,,,,,コクドコウギョウウンユ,0
1542,7180005018939,登記記録の閉鎖等,0,2023-08-18,2023-08-16,特定非営利活動法人たがたクラブ,,その他の設立登記法人,愛知県,小牧市,大字久保一色５５８番地６,,23,219,4850003,,,2023-08-16,清算の結了等,,,2020-09-11,1,,,,,タガタクラブ,0
1545,7190002008669,登記記録の閉鎖等,0,2023-08-18,2023-08-09,有限会社久野商会,,有限会社,三重県,伊勢市,中之町２４６番地１０,,24,203,5160034,,,2023-08-09,清算の結了等,,,2015-10-05,1,,,,,クノショウカイ,0
1552,7230005003002,登記記録の閉鎖等,0,2023-08-18,2023-07-18,龍王社,,その他の設立登記法人,富山県,富山市,婦中町上野４７０番地,,16,201,9392627,,,2023-07-18,合併による解散等,3230005000770,令和５年７月１８日富山市呉羽町小竹１８１３番地姉倉比賣神社（3230005000770）に合併し解散,2015-10-05,1,,,,,リュウオウシャ,0
1554,7240002031475,登記記録の閉鎖等,0,2023-08-18,2023-08-15,新栄重機有限会社,,有限会社,広島県,庄原市,高茂町１３８番地の４,,34,210,7296142,,,2023-08-15,清算の結了等,,,2015-10-05,1,,,,,シンエイジュウキ,0
1555,7250001006023,登記記録の閉鎖等,0,2023-08-18,2023-08-09,株式会社中岩商会,,株式会社,山口県,下関市,貴船町３丁目４番５号,,35,201,7510823,,,2023-08-09,清算の結了等,,,2015-10-05,1,,,,,ナカイワショウカイ,0
1561,7260002014305,登記記録の閉鎖等,0,2023-08-18,2023-08-14,有限会社オフィス．Ｋ,,有限会社,岡山県,岡山市北区,撫川２４２番地,,33,101,7010164,,,2023-08-14,清算の結了等,,,2015-10-05,1,,,,,オフィスケイ,0
1585,7340002001724,登記記録の閉鎖等,0,2023-08-18,2023-08-10,有限会社エース教育ゼミナール,,有限会社,鹿児島県,鹿児島市,皇徳寺台１丁目６－１４,,46,201,8910103,,,2023-08-10,清算の結了等,,,2015-10-05,1,,,,,エースキョウイクゼミナール,0
1591,7360002013825,登記記録の閉鎖等,0,2023-08-18,2023-08-14,有限会社鳶石川組,,有限会社,沖縄県,うるま市,石川東山２丁目２５番地の７,,47,213,9041102,,,2023-08-14,清算の結了等,,,2015-10-05,1,,,,,トビイシカワグミ,0
1602,7430002063680,登記記録の閉鎖等,0,2023-08-18,2023-07-27,有限会社高橋新聞販売所,,有限会社,北海道,虻田郡豊浦町,字東雲町８番地１,,01,571,0495411,,,2023-07-27,清算の結了等,,,2015-10-05,1,,,,,タカハシシンブンハンバイショ,0
1613,7500005000483,登記記録の閉鎖等,0,2023-08-18,2023-08-17,真乃道教本部教会,,その他の設立登記法人,愛媛県,松山市,美沢２丁目７番３５号,,38,201,7918022,,,2023-08-17,清算の結了等,,,2015-10-05,1,,,,,マコトノミチキョウホンブキョウカイ,0
1625,8010401054066,登記記録の閉鎖等,0,2023-08-18,2023-07-21,株式会社エージーティ,,株式会社,東京都,港区,虎ノ門４丁目１－１神谷町トラストタワー５階,,13,103,1050001,,,2023-07-21,清算の結了等,,,2015-10-05,1,,,,,エージーティ,0
1651,8011001119556,登記記録の閉鎖等,0,2023-08-18,2023-08-07,株式会社ブルーバンドル,,株式会社,東京都,渋谷区,恵比寿２丁目２８番１０号,,13,113,1500013,,,2023-08-07,清算の結了等,,,2017-12-05,1,,,,,ブルーバンドル,0
1675,8011703002563,登記記録の閉鎖等,0,2023-08-18,2023-08-17,合同会社ＥＣＬＩＰＳＥ,,合同会社,東京都,江戸川区,船堀３丁目３番１号松山ビル４０２,,13,123,1340091,,,2023-08-17,清算の結了等,,,2020-06-09,1,,,,,エクリプス,0
1680,8013402001144,登記記録の閉鎖等,0,2023-08-18,2023-08-16,有限会社ネイチャー,,有限会社,東京都,日野市,大字日野２９７５番地３,,13,212,1910012,,,2023-08-16,清算の結了等,,,2015-10-05,1,,,,,ネイチャー,0
1681,8020001006284,登記記録の閉鎖等,0,2023-08-18,2023-08-04,株式会社シゲル工機,,株式会社,神奈川県,横浜市金沢区,六浦１丁目２１番１０号,,14,108,2360031,,,2023-08-04,合併による解散等,5020001006948,令和５年８月１日横浜市金沢区六浦一丁目２１番１０号株式会社ヨシオカ（5020001006948）に合併し解散,2015-10-05,1,,,,,シゲルコウキ,0
1687,8021001031099,登記記録の閉鎖等,0,2023-08-18,2023-08-10,こだま株式会社,,株式会社,神奈川県,茅ヶ崎市,共恵２丁目３番１７号,,14,207,2530056,,,2023-08-10,清算の結了等,,,2015-10-05,1,,,,,コダマ,0
1697,8030001099864,登記記録の閉鎖等,0,2023-08-18,2023-07-25,株式会社中牧エコクリーン,,株式会社,埼玉県,八潮市,緑町３丁目６番地９,,11,234,3400808,,,2023-07-25,清算の結了等,,,2015-10-05,1,,,,,ナカマキエコクリーン,0
1703,8030002041767,登記記録の閉鎖等,0,2023-08-18,2023-07-25,スリーアイ久保有限会社,,有限会社,埼玉県,羽生市,南７丁目１番１,,11,216,3480053,,,2023-07-25,清算の結了等,,,2015-10-05,1,,,,,スリーアイクボ,0
1717,8040001113319,登記記録の閉鎖等,0,2023-08-18,2023-07-24,株式会社宮崎工業,,株式会社,千葉県,館山市,北条１３５５番地５６,,12,205,2940045,,,2023-07-24,清算の結了等,,,2020-04-14,1,,,,,ミヤザキコウギョウ,0
1722,8040002062341,登記記録の閉鎖等,0,2023-08-18,2023-07-25,有限会社大日製作所,,有限会社,千葉県,四街道市,大日２００２番地９,,12,228,2840001,,,2023-07-25,清算の結了等,,,2015-10-05,1,,,,,ダイニチセイサクショ,0
1731,8060001015629,登記記録の閉鎖等,0,2023-08-18,2023-08-10,株式会社下野メディカル,,株式会社,茨城県,桜川市,本木１５９９番地７,,08,231,3091231,,,2023-08-10,合併による解散等,8010001191524,令和５年８月１日東京都千代田区丸の内一丁目８番１号株式会社フィールドファーマシー（8010001191524）に合併し解散,2015-10-05,1,,,,,シモツケメディカル,0
1775,8150002003193,登記記録の閉鎖等,0,2023-08-18,2023-08-14,有限会社ハーティ　ケア,,有限会社,奈良県,奈良市,三松３丁目４番６号,,29,201,6310074,,,2023-08-14,清算の結了等,,,2015-10-05,1,,,,,ハーティケア,0
1788,8180301010342,登記記録の閉鎖等,0,2023-08-18,2023-08-04,株式会社東和,,株式会社,愛知県,豊川市,諏訪３丁目３０２番地,,23,207,4420068,,,2023-08-04,清算の結了等,,,2015-10-05,1,,,,,トウワ,0
1791,8190001010889,登記記録の閉鎖等,0,2023-08-18,2023-08-09,株式会社シー．ビー．エム,,株式会社,三重県,多気郡多気町,前村１４５７番地の１,,24,441,5192175,,,2023-08-09,清算の結了等,,,2015-10-05,1,,,,,シービーエム,0
1792,8190001028691,登記記録の閉鎖等,0,2023-08-18,2023-08-04,トレス株式会社,,株式会社,三重県,四日市市,西町３番８－２号,,24,202,5100089,,,2023-08-04,清算の結了等,,,2021-09-21,1,,,,,トレス,0
1793,8190002022719,登記記録の閉鎖等,0,2023-08-18,2023-08-09,有限会社若林ビル,,有限会社,三重県,四日市市,浜田町５番３０号,,24,202,5100067,,,2023-08-09,清算の結了等,,,2015-10-05,1,,,,,ワカバヤシビル,0
1801,8260002001640,登記記録の閉鎖等,0,2023-08-18,2023-08-14,有限会社岡山県映画普及センター,,有限会社,岡山県,津山市,津山口２２２番地,,33,203,7080884,,,2023-08-14,清算の結了等,,,2015-10-05,1,,,,,オカヤマケンエイガフキュウセンター,0
1802,8260002013074,登記記録の閉鎖等,0,2023-08-18,2023-08-14,株式会社サンク・ユー,,株式会社,岡山県,岡山市北区,内山下１丁目３番９号,,33,101,7000824,,,2023-08-14,合併による解散等,8030001070643,令和５年７月３１日東京都港区赤坂二丁目２１番４号株式会社デルパラ（8030001070643）に合併し解散,2015-10-05,1,,,,,サンクユー,0
1803,8260002027413,登記記録の閉鎖等,0,2023-08-18,2023-08-15,有限会社グリーンエース,,有限会社,岡山県,新見市,大佐小阪部１４５９番地,,33,210,7193503,,,2023-08-15,清算の結了等,,,2015-10-05,1,,,,,グリーンエース,0
1807,8290001078132,登記記録の閉鎖等,0,2023-08-18,2023-07-31,プロクリ株式会社,,株式会社,福岡県,福岡市博多区,博多駅東１丁目９番１１号,,40,132,8120013,,,2023-07-31,合併による解散等,2290001023639,令和５年７月３１日福岡市博多区博多駅東一丁目９番１１号株式会社花織（2290001023639）に合併し解散,2017-06-08,1,,,,,プロクリ,0
1817,8310005002762,登記記録の閉鎖等,0,2023-08-18,2023-07-25,天理教神矢岳分教会,,その他の設立登記法人,長崎県,佐世保市,矢岳町３番６号,,42,202,8570047,,,2023-07-25,合併による解散等,9310005003818,令和５年７月２５日長崎県南松浦郡新上五島町有川郷７７９番地天理教南松浦分教会（9310005003818）に合併し解散,2015-10-05,1,,,,,テンリキョウカミヤタケブンキョウカイ,0
1835,8460002002057,登記記録の閉鎖等,0,2023-08-18,2023-08-17,東洋車体工業有限会社,,有限会社,北海道,釧路市,星が浦大通４丁目５番１８号,,01,206,0840912,,,2023-08-17,清算の結了等,,,2015-10-05,1,,,,,トウヨウシャタイコウギョウ,0
1850,9010003040389,登記記録の閉鎖等,0,2023-08-18,2023-08-08,ＲＢソーラーフレイム合同会社,,合同会社,東京都,中央区,八丁堀４丁目２番１０号ＡＯＪ税理士法人内,,13,102,1040032,,,2023-08-08,合併による解散等,1120001214321,令和５年８月８日東京都中央区八丁堀四丁目２番１０号ＡＯＪ税理士法人内株式会社あかつき開発（1120001214321）に合併し解散,2023-04-19,1,,,,,アールビーソーラーフレイム,0
1852,9010401094020,登記記録の閉鎖等,0,2023-08-18,2023-07-24,株式会社ヴァーチュ,,株式会社,東京都,港区,北青山２丁目７番１３号プラセオ青山ビル３階,,13,103,1070061,,,2023-07-24,清算の結了等,,,2015-10-05,1,,,,,ヴァーチュ,0
1856,9010401146085,登記記録の閉鎖等,0,2023-08-18,2023-08-08,株式会社ＰＩＴＴＡＳＯＦＴ　ＪＡＰＡＮ,,株式会社,東京都,千代田区,霞が関３丁目２番５号霞が関ビル,,13,101,1000013,,,2023-08-08,清算の結了等,,,2019-06-10,1,,,,,ピッタソフトジャパン,0
1858,9010405017480,登記記録の閉鎖等,0,2023-08-18,2023-07-25,Ｗａｔｅｒｌｏｏ特定目的会社,,その他の設立登記法人,東京都,港区,虎ノ門５丁目１番４号,,13,103,1050001,,,2023-07-25,清算の結了等,,,2019-02-22,1,,,,,ウォータールー,0
1868,9010802003067,登記記録の閉鎖等,0,2023-08-18,2023-08-10,有限会社岡薬局,,有限会社,東京都,大田区,東矢口３丁目１９番８号,,13,111,1460094,,,2023-08-10,清算の結了等,,,2015-10-05,1,,,,,オカヤッキョク,0
1870,9011001062160,登記記録の閉鎖等,0,2023-08-18,2023-07-24,株式会社エスケー,,株式会社,千葉県,八千代市,緑が丘１丁目１番地１,,12,221,2760049,,,2023-07-24,清算の結了等,,,2015-10-05,1,,,,,エスケー,0
1903,9013402006563,登記記録の閉鎖等,0,2023-08-18,2023-08-17,有限会社ハイドラプランニング,,有限会社,東京都,多摩市,永山５丁目１７番地８－１０２,,13,224,2060025,,,2023-08-17,清算の結了等,,,2015-10-05,1,,,,,,0
1909,9020001110812,登記記録の閉鎖等,0,2023-08-18,2023-08-01,株式会社ＳＵＧＡＲ　ＳＰＯＴ,,株式会社,神奈川県,横浜市港南区,日限山４丁目３８番１８号,,14,111,2330015,,,2023-08-01,清算の結了等,,,2015-10-05,1,,,,,シュガースポット,0
1914,9020002086457,登記記録の閉鎖等,0,2023-08-18,2023-08-04,有限会社亀ヶ谷燃料,,有限会社,神奈川県,川崎市宮前区,馬絹６丁目１３番２８号,,14,136,2160035,,,2023-08-04,清算の結了等,,,2015-10-05,1,,,,,カメガヤネンリョウ,0
1915,9020003010291,登記記録の閉鎖等,0,2023-08-18,2023-08-07,ボヌール合同会社,,合同会社,神奈川県,横浜市青葉区,あざみ野３丁目１４番地１７,,14,117,2250011,,,2023-08-07,清算の結了等,,,2015-10-05,1,,,,,ボヌール,0
1930,9021002061747,登記記録の閉鎖等,0,2023-08-18,2023-08-15,有限会社Ｄｏ　Ｃｏｍｐａｎｙ,,有限会社,神奈川県,中郡大磯町,国府本郷４３８番,,14,341,2590111,,,2023-08-15,清算の結了等,,,2015-10-05,1,,,,,ドゥカンパニー,0
1934,9021005006419,登記記録の閉鎖等,0,2023-08-18,2023-08-15,特定非営利活動法人まちづくり研究会,,その他の設立登記法人,神奈川県,足柄上郡山北町,山北５２７番地２,,14,364,2580113,,,2023-08-15,清算の結了等,,,2015-10-05,1,,,,,マチヅクリケンキュウカイ,0
1935,9021005008729,登記記録の閉鎖等,0,2023-08-18,2023-08-15,特定非営利活動法人湘南スポーツコミュニティセンター,,その他の設立登記法人,神奈川県,中郡大磯町,国府本郷４３８番,,14,341,2590111,,,2023-08-15,清算の結了等,,,2015-10-05,1,,,,,ショウナンスポーツコミュニティセンター,0
1963,9050002022186,登記記録の閉鎖等,0,2023-08-18,2023-08-10,有限会社森田建築事務所,,有限会社,茨城県,つくば市,前野１３８４番地の６,,08,220,3003267,,,2023-08-10,清算の結了等,,,2015-10-05,1,,,,,モリタケンチクジムショ,0
1970,9060002034156,登記記録の閉鎖等,0,2023-08-18,2023-08-03,有限会社板橋富士薬品,,有限会社,栃木県,下都賀郡壬生町,大字壬生甲３８７８番地６,,09,361,3210214,,,2023-08-03,清算の結了等,,,2015-10-05,1,,,,,イタバシフジヤクヒン,0
1981,9120001174888,登記記録の閉鎖等,0,2023-08-18,2023-08-16,株式会社ハウジングプラザ,,株式会社,大阪府,堺市北区,百舌鳥赤畑町３丁１６６番地４,,27,146,5918037,,,2023-08-16,合併による解散等,4130001056280,令和５年８月１日兵庫県伊丹市寺本三丁目１７番地１株式会社ハウジングプラザ（4130001056280）に合併し解散,2015-10-05,1,,,,,ハウジングプラザ,0
1989,9120002026080,登記記録の閉鎖等,0,2023-08-18,2023-08-16,有限会社アクシス,,有限会社,大阪府,大阪市淀川区,西中島６丁目２番３号,,27,123,5320011,,,2023-08-16,清算の結了等,,,2015-10-05,1,,,,,アクシス,0
1994,9120105005519,登記記録の閉鎖等,0,2023-08-18,2023-06-28,羽曳ヶ丘ガーデンハウス管理組合法人,,その他の設立登記法人,大阪府,羽曳野市,学園前４丁目１４番１号,,27,222,5830868,,,2023-06-28,清算の結了等,,,2015-10-05,1,,,,,ハビキガオカガーデンハウス,0
1997,9130001009011,登記記録の閉鎖等,0,2023-08-18,2023-08-01,一澤帆布工業株式会社,,株式会社,京都府,京都市東山区,東大路通古門前上る高畑町６０２番地,,26,105,6050000,,,2023-08-01,合併による解散等,4130001026614,令和５年８月１日京都市東山区東大路三条下ル進之町５９０番地株式会社一澤信三郎帆布（4130001026614）に合併し解散,2015-10-05,1,,,,,イチザワハンプコウギョウ,0
2000,9130001052556,登記記録の閉鎖等,0,2023-08-18,2023-07-31,井筒ライフ＆リゾート株式会社,,株式会社,京都府,京都市中京区,木屋町通三条上る上大阪町５３０番地,,26,104,6048001,,,2023-07-31,合併による解散等,4130001020856,令和５年７月３１日京都市中京区木屋町通三条上る上大阪町５３０番地株式会社さきぞう（4130001020856）に合併し解散,2015-10-05,1,,,,,イヅツライフアンドリゾート,0
2023,9190001009765,登記記録の閉鎖等,0,2023-08-18,2023-08-10,株式会社空間工房,,株式会社,三重県,伊賀市,丸柱１４９７番地,,24,216,5181325,,,2023-08-10,清算の結了等,,,2015-10-05,1,,,,,クウカンコウボウ,0
2027,9190002004609,登記記録の閉鎖等,0,2023-08-18,2023-08-09,有限会社カイド産業,,有限会社,三重県,亀山市,阿野田町字下垣戸２９１２番地,,24,210,5190137,,,2023-08-09,清算の結了等,,,2015-10-05,1,,,,,カイドサンギョウ,0
2032,9240001052636,登記記録の閉鎖等,0,2023-08-18,2023-08-16,株式会社カーテンプラザ,,株式会社,広島県,福山市,東深津町３丁目１３番３１号,,34,207,7210974,,,2023-08-16,合併による解散等,2250001020061,令和５年８月１日山口県下関市伊倉新町二丁目２番１１号株式会社リガート（2250001020061）に合併し解散,2018-04-09,1,,,,,カーテンプラザ,0
2033,9240002009560,登記記録の閉鎖等,0,2023-08-18,2023-08-17,有限会社竹岡設備,,有限会社,広島県,広島市安佐北区,可部東６丁目１番２１－３号,,34,106,7310222,,,2023-08-17,清算の結了等,,,2015-10-05,1,,,,,タケオカセツビ,0
2064,9360005001908,登記記録の閉鎖等,0,2023-08-18,2023-08-08,特定非営利活動法人沖縄モーターサイクル普及協会,,その他の設立登記法人,沖縄県,那覇市,真嘉比３丁目１４番７号パークサイドコート４０６,,47,201,9020068,,,2023-08-08,清算の結了等,,,2015-10-05,1,,,,,オキナワモーターサイクルフキュウキョウカイ,0
2067,9400001001089,登記記録の閉鎖等,0,2023-08-18,2023-08-01,東北明治建販株式会社,,株式会社,岩手県,盛岡市,上ノ橋町１番５０号,,03,201,0200887,,,2023-08-01,清算の結了等,,,2015-10-05,1,,,,,トウホクメイジケンパン,0
2070,9400602000150,登記記録の閉鎖等,0,2023-08-18,2023-07-31,有限会社オービー商会,,有限会社,岩手県,奥州市,水沢佐倉河字東沖ノ目１５番地４,,03,215,0230003,,,2023-07-31,清算の結了等,,,2015-10-05,1,,,,,オービーショウカイ,0
2077,9480005000410,登記記録の閉鎖等,0,2023-08-18,2023-08-17,医療法人三木内科循環器クリニック,,その他の設立登記法人,徳島県,徳島市,佐古七番町５番１号,,36,201,7700027,,,2023-08-17,清算の結了等,,,2015-10-05,1,,,,,ミキナイカジュンカンキクリニック,0
