sequenceNumber,corporateNumber,process,correct,updateDate,changeDate,name,nameImageId,kind,prefectureName,cityName,streetNumber,addressImageId,prefectureCode,cityCode,postCode,addressOutside,addressOutsideImageId,closeDate,closeCause,successorCorporateNumber,changeCause,assignmentDate,latest,enName,enPrefectureName,enCityName,enAddressOutside,furigana,hihyoji
8,1010001249997,新規,0,2024-11-22,2024-11-22,ＳＨＯ‐ＪＩＮ　Ｉｎｔｅｒｎａｔｉｏｎａｌ株式会社,,株式会社,東京都,中央区,日本橋２丁目８番１号東京日本橋タワーアネックス３階,,13,102,1030027,,,,,,,2024-11-22,1,,,,,ショウジンインターナショナル,0
9,1010001250121,新規,0,2024-11-22,2024-11-22,株式会社アイテール,,株式会社,東京都,中央区,日本橋小伝馬町１５番１７号ＡＳＫ日本橋ビル５階,,13,102,1030001,,,,,,,2024-11-22,1,,,,,アイテール,0
13,1010003045552,新規,0,2024-11-22,2024-11-22,ニットラブ合同会社,,合同会社,東京都,中央区,東日本橋２丁目１６－１０ヴィップ東日本橋３０４号,,13,102,1030004,,,,,,,2024-11-22,1,,,,,ニットラブ,0
14,1010003045577,新規,0,2024-11-22,2024-11-22,合同会社ホテル天王洲・ＳＰＣ,,合同会社,東京都,中央区,京橋２丁目１２番６号ＡＯＪ税理士法人内,,13,102,1040031,,,,,,,2024-11-22,1,,,,,ホテルテンノウズエスピーシー,0
18,1010005039148,新規,0,2024-11-22,2024-11-22,一般社団法人日中人材育成機構,,その他の設立登記法人,東京都,千代田区,東神田２丁目６－７クラウン高橋ビル２階,,13,101,1010031,,,,,,,2024-11-22,1,,,,,ニッチュウジンザイイクセイキコウ,0
24,1010401186329,新規,0,2024-11-22,2024-11-22,ＤＸＯＮＥ株式会社,,株式会社,東京都,港区,六本木１丁目９番３９号六本木ファーストプラザ１０２５,,13,103,1060032,,,,,,,2024-11-22,1,,,,,ディーエックスワン,0
25,1010401186601,新規,0,2024-11-22,2024-11-22,パトリックロジェジャパン株式会社,,株式会社,東京都,港区,赤坂１丁目１２番３２号アーク森ビル東京国際法律事務所内,,13,103,1070052,,,,,,,2024-11-22,1,,,,,パトリックロジェジャパン,0
27,1010403033801,新規,0,2024-11-22,2024-11-22,Ｒｅｄ　Ｌａｎｔｅｒｎ　Ｄｉｇｉｔａｌ　Ｍｅｄｉａ合同会社,,合同会社,東京都,港区,元麻布３丁目１番６号,,13,103,1060046,,,,,,,2024-11-22,1,,,,,レッドランタンデジタルメディア,0
28,1010403033834,新規,0,2024-11-22,2024-11-22,ＧＶＳＪ３１合同会社,,合同会社,東京都,港区,六本木３丁目１６番２６号,,13,103,1060032,,,,,,,2024-11-22,1,,,,,ジーブイエスジェイサーティワン,0
29,1010403033842,新規,0,2024-11-22,2024-11-22,ＧＶＳＪ３９合同会社,,合同会社,東京都,港区,六本木３丁目１６番２６号,,13,103,1060032,,,,,,,2024-11-22,1,,,,,ジーブイエスジェイサーティナイン,0
30,1010403033867,新規,0,2024-11-22,2024-11-22,ドバイ法人設立センター合同会社,,合同会社,東京都,港区,南青山３丁目１番３６号青山丸竹ビル６Ｆ,,13,103,1070062,,,,,,,2024-11-22,1,,,,,ドバイホウジンセツリツセンター,0
31,1010405023825,新規,0,2024-11-22,2024-11-22,一般社団法人Ｋｒａｔｈｏｎ,,その他の設立登記法人,東京都,港区,虎ノ門３丁目２２番１０－２０１号,,13,103,1050001,,,,,,,2024-11-22,1,,,,,クラトーン,0
38,1010703007447,新規,0,2024-11-22,2024-11-22,合同会社メドライフコンサルティング,,合同会社,東京都,品川区,上大崎２丁目１０番１１号,,13,109,1410021,,,,,,,2024-11-22,1,,,,,メドライフコンサルティング,0
54,1011001166142,新規,0,2024-11-22,2024-11-22,株式会社ウェルネス・デザイン,,株式会社,東京都,渋谷区,代々木２丁目２３番１号ニューステイトメナー１３１５号室,,13,113,1510053,,,,,,,2024-11-22,1,,,,,ウェルネスデザイン,0
56,1011003020396,新規,0,2024-11-22,2024-11-22,ＣＮデザイン合同会社,,合同会社,東京都,渋谷区,道玄坂１丁目１０番８号渋谷道玄坂東急ビル２Ｆ－Ｃ,,13,113,1500043,,,,,,,2024-11-22,1,,,,,シーエヌデザイン,0
59,1011101109694,新規,0,2024-11-22,2024-11-22,ＹｕＦｕｔｕｒｅ株式会社,,株式会社,東京都,新宿区,新宿２丁目１３番１０号,,13,104,1600022,,,,,,,2024-11-22,1,,,,,ユーフューチャー,0
65,1011505002660,新規,0,2024-11-22,2024-11-22,一般社団法人西南政法大学日本校友会,,その他の設立登記法人,東京都,北区,滝野川１丁目６８番７号早稲田ビル３階,,13,117,1140023,,,,,,,2024-11-22,1,,,,,セイナンセイホウダイガクニホンコウユウカイ,0
67,1011701027841,新規,0,2024-11-22,2024-11-22,明達株式会社,,株式会社,東京都,江戸川区,東小岩４丁目１３番１１号,,13,123,1330052,,,,,,,2024-11-22,1,,,,,メイタツ,0
70,1011801045198,新規,0,2024-11-22,2024-11-22,株式会社ｏｔｅｔｅｍｏ,,株式会社,東京都,足立区,千住旭町３８番１号東京電気大学東京千住アネックス０４１３号室,,13,121,1200026,,,,,,,2024-11-22,1,,,,,オテテモ,0
74,1012705002434,新規,0,2024-11-22,2024-11-22,一般社団法人桜保険事務所,,その他の設立登記法人,東京都,西東京市,田無町３丁目２番１７号,,13,229,1880011,,,,,,,2024-11-22,1,,,,,サクラホケンジムショ,0
75,1012803003557,新規,0,2024-11-22,2024-11-22,合同会社ＣＳＭ,,合同会社,東京都,日野市,東豊田１丁目３番地の４６,,13,212,1910052,,,,,,,2024-11-22,1,,,,,シーエスエム,0
76,1013301053409,新規,0,2024-11-22,2024-11-22,株式会社西武不動産プロパティマネジメント,,株式会社,東京都,豊島区,南池袋１丁目１６番１５号,,13,116,1710022,,,,,,,2024-11-22,1,,,,,セイブフドウサンプロパティマネジメント,0
85,1020001160245,新規,0,2024-11-22,2024-11-22,株式会社うみのき,,株式会社,神奈川県,川崎市中原区,木月祗園町１２番１２号,,14,133,2110033,,,,,,,2024-11-22,1,,,,,ウミノキ,0
89,1020003027319,新規,0,2024-11-22,2024-11-22,合同会社ＭＩＣＯＥ,,合同会社,神奈川県,横浜市中区,桜木町１丁目１０１番地１クロスゲート７階,,14,104,2310062,,,,,,,2024-11-22,1,,,,,ミコイー,0
96,1021001083824,新規,0,2024-11-22,2024-11-22,サガミインベストメント株式会社,,株式会社,神奈川県,横須賀市,衣笠町４５番１９号,,14,201,2380025,,,,,,,2024-11-22,1,,,,,サガミインベストメント,0
97,1021001083832,新規,0,2024-11-22,2024-11-22,ルリライト株式会社,,株式会社,神奈川県,藤沢市,羽鳥３丁目２０番５号,,14,205,2510056,,,,,,,2024-11-22,1,,,,,ルリライト,0
107,1040001136276,新規,0,2024-11-22,2024-11-22,Ｐｅａｃｅ・Ａｃｔｉｖｅ綜合事業株式会社,,株式会社,千葉県,佐倉市,表町３丁目３番地５,,12,212,2850811,,,,,,,2024-11-22,1,,,,,ピースアクティブソウゴウジギョウ,0
109,1040003026244,新規,0,2024-11-22,2024-11-22,合同会社Ａｎｃｈｏｒ,,合同会社,千葉県,千葉市中央区,椿森５丁目５番１３－２０７号,,12,101,2600042,,,,,,,2024-11-22,1,,,,,アンカー,0
115,1070003005674,新規,0,2024-11-22,2024-11-22,ワイドベースジャパン合同会社,,合同会社,群馬県,伊勢崎市,昭和町１６４９番地１２レジデンス小林３０１,,10,204,3720014,,,,,,,2024-11-22,1,,,,,ワイドベースジャパン,0
116,1080001026614,新規,0,2024-11-22,2024-11-22,株式会社Ｍｅｇｕｒｉｓ,,株式会社,静岡県,静岡市駿河区,小鹿２丁目３０番２号,,22,102,4228021,,,,,,,2024-11-22,1,,,,,メグリス,0
124,1100003007881,新規,0,2024-11-22,2024-11-22,合同会社Ｃｏｎｖｉｖｉａｌ,,合同会社,長野県,諏訪郡富士見町,富士見７４９０番地１－１０２号室,,20,362,3990211,,,,,,,2024-11-22,1,,,,,コンヴィヴィアル,0
135,1120001270471,新規,0,2024-11-22,2024-11-22,摩耶商事株式会社,,株式会社,大阪府,大阪市西淀川区,中島１丁目３５番１７５－７号,,27,113,5550041,,,,,,,2024-11-22,1,,,,,マヤショウジ,0
136,1120001270488,新規,0,2024-11-22,2024-11-22,株式会社７,,株式会社,大阪府,大阪市北区,天神西町３番１１号,,27,127,5300045,,,,,,,2024-11-22,1,,,,,セブン,0
137,1120001270546,新規,0,2024-11-22,2024-11-22,株式会社ＧＨＯＳＴ,,株式会社,大阪府,大阪市東住吉区,鷹合２丁目３番２７号２階,,27,121,5460014,,,,,,,2024-11-22,1,,,,,ゴースト,0
140,1120003028034,新規,0,2024-11-22,2024-11-22,合同会社ＮＩＮＯ,,合同会社,大阪府,大阪市中央区,南船場３丁目２番２２号おおきに南船場ビル２０５,,27,128,5420081,,,,,,,2024-11-22,1,,,,,ニノ,0
145,1120101070648,新規,0,2024-11-22,2024-11-22,株式会社ＫＡＨＯ,,株式会社,大阪府,堺市南区,三原台２丁７番１号,,27,145,5900111,,,,,,,2024-11-22,1,,,,,カホ,0
149,1120103006154,新規,0,2024-11-22,2024-11-22,合同会社Ｒ,,合同会社,大阪府,泉佐野市,上之郷２０４２番地の１２,,27,213,5980024,,,,,,,2024-11-22,1,,,,,アール,0
151,1120105009931,新規,0,2024-11-22,2024-11-22,一般社団法人日本統合栄養学協会,,その他の設立登記法人,大阪府,大阪狭山市,半田１丁目８－７グランベール１ＦＣ,,27,231,5890011,,,,,,,2024-11-22,1,,,,,ニホントウゴウエイヨウガクキョウカイ,0
152,1120901050072,新規,0,2024-11-22,2024-11-22,株式会社フォレスト,,株式会社,大阪府,茨木市,西福井２丁目８番３９号,,27,211,5670067,,,,,,,2024-11-22,1,,,,,フォレスト,0
153,1120901050080,新規,0,2024-11-22,2024-11-22,株式会社マルケン,,株式会社,大阪府,摂津市,鳥飼本町４丁目１８―８,,27,224,5660052,,,,,,,2024-11-22,1,,,,,マルケン,0
163,1140001136514,新規,0,2024-11-22,2024-11-22,株式会社Ｐｉｔｔｏ,,株式会社,兵庫県,尼崎市,東園田町４丁目１６２－１８,,28,202,6610953,,,,,,,2024-11-22,1,,,,,ピット,0
181,1180001164271,新規,0,2024-11-22,2024-11-22,株式会社ＡＴＯＴＯＲＩ,,株式会社,愛知県,名古屋市北区,中切町１丁目７３番地の１,,23,103,4620051,,,,,,,2024-11-22,1,,,,,アトトリ,0
192,1190001031818,新規,0,2024-11-22,2024-11-22,フロントダイビング株式会社,,株式会社,三重県,四日市市,あかつき台１丁目１番地２５,,24,202,5128046,,,,,,,2024-11-22,1,,,,,フロントダイビング,0
193,1200001043159,新規,0,2024-11-22,2024-11-22,株式会社前田とび組,,株式会社,岐阜県,各務原市,鵜沼山崎町３丁目３３番地,,21,213,5090124,,,,,,,2024-11-22,1,,,,,マエダトビグミ,0
200,1240001064143,新規,0,2024-11-22,2024-11-22,株式会社山翠,,株式会社,広島県,神石郡神石高原町,油木甲２４番地１７,,34,545,7201812,,,,,,,2024-11-22,1,,,,,サンスイ,0
206,1280005007631,新規,0,2024-11-22,2024-11-22,一般社団法人Ｆｅｅｌ　ａｔ　ｈｏｍｅ,,その他の設立登記法人,島根県,松江市,朝酌町１１９９番地,,32,201,6900834,,,,,,,2024-11-22,1,,,,,フィールアットホーム,0
220,1330001032669,新規,0,2024-11-22,2024-11-22,ＳＴＩＬＬ株式会社,,株式会社,熊本県,合志市,幾久富１８３３番地１１８,,43,216,8611112,,,,,,,2024-11-22,1,,,,,スティル,0
223,1330003010656,新規,0,2024-11-22,2024-11-22,合同会社ブラン,,合同会社,熊本県,熊本市中央区,黒髪６丁目２６－３９,,43,101,8600862,,,,,,,2024-11-22,1,,,,,ブラン,0
230,1350003004788,新規,0,2024-11-22,2024-11-22,Ｆｅｅｌｉｎｇ　Ｎｅｔ合同会社,,合同会社,宮崎県,宮崎市,大字内海５８５９,,45,201,8892301,,,,,,,2024-11-22,1,,,,,,0
231,1360001034456,新規,0,2024-11-22,2024-11-22,興和実業株式会社,,株式会社,沖縄県,宜野湾市,大謝名２丁目６番９号,,47,205,9012225,,,,,,,2024-11-22,1,,,,,コウワジツギョウ,0
232,1370003006832,新規,0,2024-11-22,2024-11-22,松陽合同会社,,合同会社,宮城県,仙台市太白区,袋原６丁目４番５号,,04,104,9811102,,,,,,,2024-11-22,1,,,,,ショウヨウ,0
235,1400001016862,新規,0,2024-11-22,2024-11-22,株式会社スパークラー,,株式会社,岩手県,盛岡市,黒石野３丁目２５番８号バルトヒルズＢ－２０５号,,03,201,0200111,,,,,,,2024-11-22,1,,,,,スパークラー,0
236,1420001018931,新規,0,2024-11-22,2024-11-22,株式会社リスタートライフ,,株式会社,青森県,青森市,本町１丁目４番１６号ＴＭビル１Ｆ‐１号,,02,201,0300802,,,,,,,2024-11-22,1,,,,,リスタートライフ,0
245,1430001093131,新規,0,2024-11-22,2024-11-22,株式会社藤乃屋,,株式会社,北海道,札幌市中央区,宮の森二条１６丁目９番４０号,,01,101,0640952,,,,,,,2024-11-22,1,,,,,フジノヤ,0
254,1430003017014,新規,0,2024-11-22,2024-11-22,合同会社ノースグリン,,合同会社,北海道,余市郡赤井川村,字都２２１,,01,409,0460541,,,,,,,2024-11-22,1,,,,,ノースグリン,0
257,1470003002747,新規,0,2024-11-22,2024-11-22,合同会社Ｃ’ｓ　ｗｏｒｋｓ,,合同会社,香川県,高松市,伏石町２１７０番地５,,37,201,7618071,,,,,,,2024-11-22,1,,,,,シーズワークス,0
271,2010001250070,新規,0,2024-11-22,2024-11-22,秘月株式会社,,株式会社,東京都,中央区,銀座１丁目１２番４号Ｎ＆ＥＢＬＤ．７階,,13,102,1040061,,,,,,,2024-11-22,1,,,,,ヒツキ,0
272,2010001250120,新規,0,2024-11-22,2024-11-22,ソゴル株式会社,,株式会社,東京都,中央区,築地３丁目１２番１号多喜川ビル３階,,13,102,1040045,,,,,,,2024-11-22,1,,,,,ソゴル,0
273,2010001250153,新規,0,2024-11-22,2024-11-22,ＭＡＣＥ株式会社,,株式会社,東京都,千代田区,大手町１丁目４番２号,,13,101,1000004,,,,,,,2024-11-22,1,,,,,エムエーシーイー,0
276,2010003045527,新規,0,2024-11-22,2024-11-22,合同会社ＦＡＮ,,合同会社,東京都,中央区,銀座１丁目２２番１１号銀座大竹ビジデンス２Ｆ,,13,102,1040061,,,,,,,2024-11-22,1,,,,,エフエーエヌ,0
277,2010003045576,新規,0,2024-11-22,2024-11-22,合同会社ブラックレーベルＲ,,合同会社,東京都,中央区,日本橋１丁目４番１号日本橋一丁目ビルディング,,13,102,1030027,,,,,,,2024-11-22,1,,,,,ブラックレーベルアール,0
288,2010403033841,新規,0,2024-11-22,2024-11-22,ＧＶＳＪ３８合同会社,,合同会社,東京都,港区,六本木３丁目１６番２６号,,13,103,1060032,,,,,,,2024-11-22,1,,,,,ジーブイエスジェイサーティエイト,0
290,2010405023824,新規,0,2024-11-22,2024-11-22,一般社団法人Ｊｅｂｉ,,その他の設立登記法人,東京都,港区,虎ノ門３丁目２２番１０－２０１号,,13,103,1050001,,,,,,,2024-11-22,1,,,,,チェービー,0
297,2010901056369,新規,0,2024-11-22,2024-11-22,株式会社エーエスアソシエイツ,,株式会社,東京都,世田谷区,野沢１丁目２９－１２,,13,112,1540003,,,,,,,2024-11-22,1,,,,,エーエスアソシエイツ,0
313,2011001165936,新規,0,2024-11-22,2024-11-22,Ｇｒａｃｅ＆Ｃｏ．株式会社,,株式会社,東京都,目黒区,下目黒１丁目１番１４号コノトラビル７Ｆ,,13,110,1530064,,,,,,,2024-11-22,1,,,,,グレイスアンドコー,0
314,2011001165960,新規,0,2024-11-22,2024-11-22,株式会社ＬＩＴＴＥＲＲＡ,,株式会社,東京都,渋谷区,恵比寿３丁目９－２９シェアビア恵比寿２階ＲｅｌｉｃＳＱＵＡＲＥＺＥＲＯ,,13,113,1500013,,,,,,,2024-11-22,1,,,,,リテラ,0
318,2011003020404,新規,0,2024-11-22,2024-11-22,Ｒｅｔｒｅａｔ　Ｃａｒａｖａｎ合同会社,,合同会社,東京都,渋谷区,神宮前６丁目２３番４号桑野ビル２階,,13,113,1500001,,,,,,,2024-11-22,1,,,,,リトリートキャラバン,0
319,2011003020437,新規,0,2024-11-22,2024-11-22,合同会社クエンタ,,合同会社,東京都,渋谷区,神宮前６丁目２３－４桑野ビル２階,,13,113,1500001,,,,,,,2024-11-22,1,,,,,クエンタ,0
326,2011101109693,新規,0,2024-11-22,2024-11-22,Ａｖａｎｔｉｎｇ株式会社,,株式会社,東京都,新宿区,西新宿７丁目１５番１０号井上ビル２Ｆ,,13,104,1600023,,,,,,,2024-11-22,1,,,,,アバンティング,0
328,2011105011235,新規,0,2024-11-22,2024-11-22,一般社団法人ＡＷＰ,,その他の設立登記法人,東京都,新宿区,北新宿３丁目２６－４,,13,104,1690074,,,,,,,2024-11-22,1,,,,,エーダブルピー,0
345,2012703003136,新規,0,2024-11-22,2024-11-22,エムズ合同会社,,合同会社,東京都,東久留米市,下里５丁目１５番４４号,,13,222,2030043,,,,,,,2024-11-22,1,,,,,エムズ,0
346,2012705002433,新規,0,2024-11-22,2024-11-22,一般社団法人医療技術向上協会,,その他の設立登記法人,東京都,小平市,学園東町１丁目３番３５－４０４号,,13,211,1870043,,,,,,,2024-11-22,1,,,,,イリョウギジュツコウジョウキョウカイ,0
347,2012801023589,新規,0,2024-11-22,2024-11-22,株式会社ＭＭＤ,,株式会社,東京都,昭島市,郷地町３丁目１３番１６号,,13,207,1960032,,,,,,,2024-11-22,1,,,,,エムエムディー,0
356,2020001160260,新規,0,2024-11-22,2024-11-22,株式会社オオスミホールディングス,,株式会社,神奈川県,横浜市瀬谷区,五貫目町２０番地１７,,14,114,2460008,,,,,,,2024-11-22,1,,,,,オオスミホールディングス,0
357,2020001160269,新規,0,2024-11-22,2024-11-22,ＴＡＷ株式会社,,株式会社,神奈川県,横浜市中区,石川町４丁目１６０－２,,14,104,2310868,,,,,,,2024-11-22,1,,,,,タウ,0
365,2021003015262,新規,0,2024-11-22,2024-11-22,合同会社Ｇｌｏｗ　Ｐｉｎｅ,,合同会社,神奈川県,茅ヶ崎市,芹沢８００番地１,,14,207,2530008,,,,,,,2024-11-22,1,,,,,グローパイン,0
380,2030003025543,新規,0,2024-11-22,2024-11-22,ＨＵＡＮＧ　ＤＺＵＮＧ合同会社,,合同会社,埼玉県,川口市,柳崎１丁目１３番１号ビレッジハウス柳崎タワー５１８号室,,11,203,3330861,,,,,,,2024-11-22,1,,,,,ホアンズン,0
385,2040001136267,新規,0,2024-11-22,2024-11-22,株式会社ユーズドエステート,,株式会社,千葉県,木更津市,貝渕４丁目２番１４号,,12,206,2920833,,,,,,,2024-11-22,1,,,,,ユーズドエステート,0
386,2040001136275,新規,0,2024-11-22,2024-11-22,株式会社ＳＤプロデュース,,株式会社,千葉県,千葉市中央区,祐光４丁目２番２６－１号,,12,101,2600007,,,,,,,2024-11-22,1,,,,,エスディープロデュース,0
387,2040001136283,新規,0,2024-11-22,2024-11-22,馳峰商事株式会社,,株式会社,千葉県,千葉市中央区,都町２丁目１６番１号中央ビル４階４Ｃ,,12,101,2600001,,,,,,,2024-11-22,1,,,,,チホウショウジ,0
388,2040001136291,新規,0,2024-11-22,2024-11-22,株式会社Ｌｉｖｅｔ,,株式会社,千葉県,松戸市,小金清志町３丁目１８－５,,12,207,2700016,,,,,,,2024-11-22,1,,,,,リベット,0
389,2040003026251,新規,0,2024-11-22,2024-11-22,ＳＥＲＥＮＤＩＰＩＴＹ合同会社,,合同会社,千葉県,松戸市,牧の原１丁目１４０番地の１８,,12,207,2702267,,,,,,,2024-11-22,1,,,,,セレンディピティ,0
393,2050003008827,新規,0,2024-11-22,2024-11-22,合同会社マチノメ,,合同会社,茨城県,笠間市,八雲１丁目１－１４,,08,216,3091736,,,,,,,2024-11-22,1,,,,,マチノメ,0
398,2070001042396,新規,0,2024-11-22,2024-11-22,サンケービルド株式会社,,株式会社,群馬県,安中市,中秋間１７７９番地１０,,10,211,3790103,,,,,,,2024-11-22,1,,,,,サンケービルド,0
401,2080103003205,新規,0,2024-11-22,2024-11-22,合同会社ゆら,,合同会社,静岡県,富士市,伝法５７３番地の２,,22,210,4170061,,,,,,,2024-11-22,1,,,,,ユラ,0
411,2100003007880,新規,0,2024-11-22,2024-11-22,ｌｅａｌｅａ合同会社,,合同会社,長野県,松本市,梓川倭２６８４－６,,20,202,3901701,,,,,,,2024-11-22,1,,,,,レアレア,0
421,2120001270306,新規,0,2024-11-22,2024-11-22,サンエイＰＲＯ株式会社,,株式会社,大阪府,大阪市西区,京町堀２丁目１４－２０－４０８,,27,106,5500003,,,,,,,2024-11-22,1,,,,,サンエイプロ,0
422,2120001270462,新規,0,2024-11-22,2024-11-22,株式会社最強,,株式会社,大阪府,大阪市浪速区,幸町２丁目２番４０－７０５号,,27,111,5560021,,,,,,,2024-11-22,1,,,,,サイキョウ,0
423,2120001270495,新規,0,2024-11-22,2024-11-22,上喜株式会社,,株式会社,大阪府,大阪市中央区,日本橋２丁目２１番１０－３０５号室,,27,128,5420073,,,,,,,2024-11-22,1,,,,,ジョウキ,0
424,2120001270520,新規,0,2024-11-22,2024-11-22,正夢建設株式会社,,株式会社,大阪府,大阪市北区,梅田１丁目１－３大阪駅前第３ビル２９階１－１－１号室,,27,127,5300001,,,,,,,2024-11-22,1,,,,,セイムケンセツ,0
430,2120903005429,新規,0,2024-11-22,2024-11-22,ＭＡＨＡＲ　ＴＲＡＤＩＮＧ合同会社,,合同会社,大阪府,茨木市,駅前４丁目６番３号,,27,211,5670888,,,,,,,2024-11-22,1,,,,,マハルトレーディング,0
431,2122001009246,新規,0,2024-11-22,2024-11-22,阪神興産株式会社,,株式会社,大阪府,東大阪市,小阪３丁目２番２９号,,27,227,5770801,,,,,,,2024-11-22,1,,,,,ハンシンコウサン,0
433,2122001038666,新規,0,2024-11-22,2024-11-22,株式会社萬可楽康投資,,株式会社,大阪府,東大阪市,横小路町４丁目５番３０号２階,,27,227,5798063,,,,,,,2024-11-22,1,,,,,マンカガクコウトウシ,0
440,2140005027279,新規,0,2024-11-22,2024-11-22,一般社団法人関西嚥下研究会,,その他の設立登記法人,兵庫県,神戸市東灘区,御影郡家１丁目３２番１９号,,28,101,6580048,,,,,,,2024-11-22,1,,,,,カンサイエンゲケンキュウカイ,0
441,2150001027703,新規,0,2024-11-22,2024-11-22,株式会社エヴォラーレ,,株式会社,奈良県,奈良市,針町１０５番地の１,,29,201,6320251,,,,,,,2024-11-22,1,,,,,エヴォラーレ,0
450,2180001164262,新規,0,2024-11-22,2024-11-22,ミライ株式会社,,株式会社,愛知県,名古屋市緑区,大高町字二番割１９番地,,23,114,4598001,,,,,,,2024-11-22,1,,,,,ミライ,0
451,2180001164270,新規,0,2024-11-22,2024-11-22,株式会社オクテック,,株式会社,愛知県,名古屋市千種区,東山元町６丁目１７番地,,23,101,4640804,,,,,,,2024-11-22,1,,,,,オクテック,0
462,2180301039247,新規,0,2024-11-22,2024-11-22,豊立ホールディングス株式会社,,株式会社,愛知県,豊橋市,菰口町６丁目３８番地,,23,201,4418011,,,,,,,2024-11-22,1,,,,,ホウリツホールディングス,0
471,2220001026350,新規,0,2024-11-22,2024-11-22,株式会社前昇,,株式会社,石川県,小松市,南浅井町イ９７番地５,,17,203,9230852,,,,,,,2024-11-22,1,,,,,ゼンショウ,0
472,2220003003892,新規,0,2024-11-22,2024-11-22,Ｗｅｌｌｂｅｅ　Ｖｉｓｉｏｎ合同会社,,合同会社,石川県,金沢市,広岡１丁目２‐１４コーワビル８Ｆこども英会話教室ウェルビー,,17,201,9200031,,,,,,,2024-11-22,1,,,,,ウェルビービジョン,0
473,2220005008907,新規,0,2024-11-22,2024-11-22,一般社団法人湊,,その他の設立登記法人,石川県,輪島市,門前町黒島町ロの８１番地,,17,204,9272165,,,,,,,2024-11-22,1,,,,,ミナト,0
486,2270003001685,新規,0,2024-11-22,2024-11-22,合同会社Ｈｏｎｅｓｔ,,合同会社,鳥取県,米子市,上福原７丁目６－４８,,31,202,6830004,,,,,,,2024-11-22,1,,,,,オネスト,0
488,2280003001899,新規,0,2024-11-22,2024-11-22,合同会社Ｐｏｌｉｔｅ,,合同会社,島根県,松江市,玉湯町湯町１６５３番地１レーヴグランドゥールＢ１０４,,32,201,6990202,,,,,,,2024-11-22,1,,,,,ポライト,0
489,2280005007630,新規,0,2024-11-22,2024-11-22,ＮＰＯ法人ボイスプラス,,その他の設立登記法人,島根県,出雲市,東郷町６３８番地３,,32,203,6910065,,,,,,,2024-11-22,1,,,,,,0
491,2290001108043,新規,0,2024-11-22,2024-11-22,株式会社ライフポーターズ,,株式会社,福岡県,糟屋郡須惠町,大字旅石７２番地３７９,,40,344,8112221,,,,,,,2024-11-22,1,,,,,ライフポーターズ,0
498,2310001019329,新規,0,2024-11-22,2024-11-22,株式会社さくら建設工業,,株式会社,長崎県,佐世保市,有福町１６４１番地２,,42,202,8593241,,,,,,,2024-11-22,1,,,,,サクラケンセツコウギョウ,0
500,2330003010655,新規,0,2024-11-22,2024-11-22,合同会社ライト,,合同会社,熊本県,熊本市東区,江津３丁目７番５６号,,43,102,8620942,,,,,,,2024-11-22,1,,,,,ライト,0
503,2340003004672,新規,0,2024-11-22,2024-11-22,合同会社Ｍａｒｉｙａ．プライム,,合同会社,鹿児島県,鹿児島市,西田３丁目２９番１６号,,46,201,8900046,,,,,,,2024-11-22,1,,,,,マリヤドットプライム,0
509,2370001051953,新規,0,2024-11-22,2024-11-22,株式会社オルタナビト,,株式会社,宮城県,仙台市宮城野区,福室２丁目８番１７号福室マンション３１４号,,04,102,9830005,,,,,,,2024-11-22,1,,,,,オルタナビト,0
513,2380001034940,新規,0,2024-11-22,2024-11-22,株式会社あーる,,株式会社,福島県,福島市,渡利字絵馬平３４－２６,,07,201,9608141,,,,,,,2024-11-22,1,,,,,アール,0
517,2410001013998,新規,0,2024-11-22,2024-11-22,株式会社ホアロハ・ディスカバリーラボ,,株式会社,秋田県,秋田市,山王中島町３番９号グレイス山王２０７,,05,201,0100955,,,,,,,2024-11-22,1,,,,,ホアロハディスカバリーラボ,0
524,2430001093130,新規,0,2024-11-22,2024-11-22,株式会社ビューティアバンダンスジャパン,,株式会社,北海道,虻田郡洞爺湖町,洞爺湖温泉１４４番地２,,01,584,0495721,,,,,,,2024-11-22,1,,,,,ビューティアバンダンスジャパン,0
528,2440001009523,新規,0,2024-11-22,2024-11-22,株式会社三橋商店,,株式会社,北海道,函館市,昭和町１番地２７,,01,202,0410823,,,,,,,2024-11-22,1,,,,,ミツハシショウテン,0
533,2500001026009,新規,0,2024-11-22,2024-11-22,装健株式会社,,株式会社,愛媛県,松山市,今在家４丁目６番１５－１号,,38,201,7911106,,,,,,,2024-11-22,1,,,,,ソウケン,0
544,3010001250103,新規,0,2024-11-22,2024-11-22,ＪＰｉＸ３号株式会社,,株式会社,東京都,千代田区,丸の内１丁目９番２号グラントウキョウサウスタワー８階,,13,101,1000005,,,,,,,2024-11-22,1,,,,,ジェイピックスサンゴウ,0
545,3010001250111,新規,0,2024-11-22,2024-11-22,コレカ株式会社,,株式会社,東京都,中央区,日本橋兜町９－５兜町平和ダイヤビル,,13,102,1030026,,,,,,,2024-11-22,1,,,,,コレカ,0
546,3010001250128,新規,0,2024-11-22,2024-11-22,洞爺商事株式会社,,株式会社,東京都,千代田区,有楽町１丁目９番１号日比谷サンケイビル１０階,,13,101,1000006,,,,,,,2024-11-22,1,,,,,トウヤショウジ,0
547,3010001250152,新規,0,2024-11-22,2024-11-22,株式会社アールバイビー,,株式会社,東京都,中央区,銀座１丁目１２－４Ｎ＆ＥＢＬＤ７階,,13,102,1040061,,,,,,,2024-11-22,1,,,,,アールバイビー,0
549,3010003045534,新規,0,2024-11-22,2024-11-22,Ａｄａ東東京２‐１合同会社,,合同会社,東京都,中央区,八重洲２丁目２番１号,,13,102,1040028,,,,,,,2024-11-22,1,,,,,エイダヒガシトウキョウニノイチ,0
550,3010003045559,新規,0,2024-11-22,2024-11-22,合同会社Ｓｔａｒｔ　Ｍｅ,,合同会社,東京都,中央区,銀座１丁目２２番１１号銀座大竹ビジデンス２階,,13,102,1040061,,,,,,,2024-11-22,1,,,,,スタートミー,0
551,3010003045567,新規,0,2024-11-22,2024-11-22,ＹＪＥ合同会社,,合同会社,東京都,中央区,日本橋室町１丁目１１番１２号日本橋水野ビル７階,,13,102,1030022,,,,,,,2024-11-22,1,,,,,ワイジェイイー,0
561,3010401186541,新規,0,2024-11-22,2024-11-22,株式会社常光ホールディングス,,株式会社,東京都,港区,西新橋２丁目８番６号,,13,103,1050003,,,,,,,2024-11-22,1,,,,,ジョウコウホールディングス,0
562,3010401186590,新規,0,2024-11-22,2024-11-22,永好株式会社,,株式会社,東京都,港区,西新橋３丁目１４番５号,,13,103,1050003,,,,,,,2024-11-22,1,,,,,エイコウ,0
563,3010401186616,新規,0,2024-11-22,2024-11-22,株式会社エイチビーカンパニー,,株式会社,東京都,港区,芝１丁目１３番９号伊藤ビル２階Ａ号室,,13,103,1050014,,,,,,,2024-11-22,1,,,,,エイチビーカンパニー,0
566,3010403033840,新規,0,2024-11-22,2024-11-22,ＧＶＳＪ３７合同会社,,合同会社,東京都,港区,六本木３丁目１６番２６号,,13,103,1060032,,,,,,,2024-11-22,1,,,,,ジーブイエスジェイサーティセブン,0
567,3010403033873,新規,0,2024-11-22,2024-11-22,合同会社ＴＳ２,,合同会社,東京都,港区,赤坂２丁目５番８号,,13,103,1070052,,,,,,,2024-11-22,1,,,,,ティーエスツー,0
568,3010405023815,新規,0,2024-11-22,2024-11-22,一般社団法人Ｆｒｏｎｔ　Ｌｏｗ,,その他の設立登記法人,東京都,港区,高輪４丁目１０－３１プリンスレジデンス８３５,,13,103,1080074,,,,,,,2024-11-22,1,,,,,フロントロー,0
571,3010601066320,新規,0,2024-11-22,2024-11-22,ＨＩＫＡＲＩ　ＰＡＴＨ株式会社,,株式会社,東京都,江東区,常盤１丁目１６－６Ｎｉｋｏｍｏｍｏビル３０１室,,13,108,1350006,,,,,,,2024-11-22,1,,,,,ヒカリパス,0
572,3010603011225,新規,0,2024-11-22,2024-11-22,ＫａｎｏＡｓｔｅｒ合同会社,,合同会社,東京都,墨田区,横川３丁目１４番３－６０２号,,13,107,1300003,,,,,,,2024-11-22,1,,,,,カノアスター,0
573,3010603011233,新規,0,2024-11-22,2024-11-22,Ｍｅ＆Ｙｏｕ合同会社,,合同会社,東京都,墨田区,東向島２丁目４１―１７東向島ハウス２号室,,13,107,1310032,,,,,,,2024-11-22,1,,,,,ミーアンドユー,0
594,3011001166009,新規,0,2024-11-22,2024-11-22,株式会社パープルローズ,,株式会社,東京都,渋谷区,笹塚３丁目１９－１４,,13,113,1510073,,,,,,,2024-11-22,1,,,,,パープルローズ,0
599,3011003020287,新規,0,2024-11-22,2024-11-22,合同会社ａｎｄ　ＥＳＳＥＮＣＥ,,合同会社,東京都,渋谷区,神南１丁目２０番１３号３階．ａｎｄｗｏｒｋ渋谷内,,13,113,1500041,,,,,,,2024-11-22,1,,,,,アンドエッセンス,0
600,3011003020436,新規,0,2024-11-22,2024-11-22,アトリエ・フォルミュル合同会社,,合同会社,東京都,渋谷区,渋谷２丁目１９番１５号宮益坂ビルディング６０９,,13,113,1500002,,,,,,,2024-11-22,1,,,,,アトリエフォルミュル,0
601,3011003020477,新規,0,2024-11-22,2024-11-22,合同会社ａｋｉｃｈｉ,,合同会社,東京都,渋谷区,道玄坂１丁目１６番６号二葉ビル８ｂ,,13,113,1500043,,,,,,,2024-11-22,1,,,,,アキチ,0
609,3011101109668,新規,0,2024-11-22,2024-11-22,Ｂ．Ｂ．Ｗｏｒｋｓ株式会社,,株式会社,東京都,新宿区,西新宿３丁目３番１３号西新宿水間ビル２Ｆ,,13,104,1600023,,,,,,,2024-11-22,1,,,,,ビービーワークス,0
610,3011103015212,新規,0,2024-11-22,2024-11-22,合同会社マリーナ,,合同会社,東京都,新宿区,新宿２丁目５番１６号,,13,104,1600022,,,,,,,2024-11-22,1,,,,,マリーナ,0
611,3011201025947,新規,0,2024-11-22,2024-11-22,株式会社ｄｏｌｌｙ,,株式会社,東京都,中野区,本町４丁目６番１５－３０３号,,13,114,1640012,,,,,,,2024-11-22,1,,,,,ドリー,0
615,3011501031397,新規,0,2024-11-22,2024-11-22,株式会社ＹＵＩマーケティング,,株式会社,東京都,北区,神谷２丁目１８番２号サンハイツ東神谷１０１号,,13,117,1150043,,,,,,,2024-11-22,1,,,,,ユイマーケティング,0
616,3011503006307,新規,0,2024-11-22,2024-11-22,合同会社陽向うららか,,合同会社,東京都,荒川区,荒川１丁目１１番７号,,13,118,1160002,,,,,,,2024-11-22,1,,,,,ヒナタウララカ,0
629,3020001160243,新規,0,2024-11-22,2024-11-22,株式会社ＭＩＲＡＩＷＯ,,株式会社,神奈川県,横浜市戸塚区,原宿３丁目２４番１２号,,14,110,2450063,,,,,,,2024-11-22,1,,,,,ミライヲ,0
630,3020001160251,新規,0,2024-11-22,2024-11-22,ＰａｃｉｆｉｃＣａｎｎｏｖａｔｉｏｎＪａｐａｎ株式会社,,株式会社,神奈川県,横浜市中区,伊勢佐木町４丁目１２１－１０,,14,104,2310045,,,,,,,2024-11-22,1,,,,,パシフィックキャノベイションジャパン,0
631,3020001160284,新規,0,2024-11-22,2024-11-22,株式会社Ｌｉｍｉｔｌｅｓｓ,,株式会社,神奈川県,横浜市西区,北幸２丁目１０番４８号むつみビル３階,,14,103,2200004,,,,,,,2024-11-22,1,,,,,リミットレス,0
632,3020001160292,新規,0,2024-11-22,2024-11-22,株式会社フロデノ,,株式会社,神奈川県,横浜市中区,石川町３丁目１０４番地１・６０３,,14,104,2310868,,,,,,,2024-11-22,1,,,,,フロデノ,0
633,3020001160326,新規,0,2024-11-22,2024-11-22,株式会社ｔｒｅＶｏｌａｒｅ,,株式会社,神奈川県,横浜市緑区,いぶき野８―４６,,14,113,2260028,,,,,,,2024-11-22,1,,,,,トレボラーレ,0
639,3020003027325,新規,0,2024-11-22,2024-11-22,合同会社ＱｕｅｓｔＰｌａｎｎｉｎｇ,,合同会社,神奈川県,横浜市青葉区,あざみ野３丁目３３番地１６０,,14,117,2250011,,,,,,,2024-11-22,1,,,,,クエストプランニング,0
652,3030001163591,新規,0,2024-11-22,2024-11-22,ナカデテクノ株式会社,,株式会社,埼玉県,戸田市,笹目５丁目３５番地の１０,,11,224,3350034,,,,,,,2024-11-22,1,,,,,ナカデテクノ,0
663,3040001136142,新規,0,2024-11-22,2024-11-22,カウリ株式会社,,株式会社,千葉県,松戸市,和名ケ谷１０１１―２８,,12,207,2702232,,,,,,,2024-11-22,1,,,,,カウリ,0
664,3040001136233,新規,0,2024-11-22,2024-11-22,株式会社まっとう,,株式会社,千葉県,松戸市,中和倉４１１番地１８－１０３,,12,207,2700025,,,,,,,2024-11-22,1,,,,,マットウ,0
665,3040001136274,新規,0,2024-11-22,2024-11-22,株式会社香Ｃｏ．,,株式会社,千葉県,柏市,南増尾８丁目２番８号,,12,217,2770054,,,,,,,2024-11-22,1,,,,,カオリカンパニー,0
666,3040001136282,新規,0,2024-11-22,2024-11-22,株式会社幸和,,株式会社,千葉県,千葉市緑区,椎名崎町１６番地１,,12,105,2660016,,,,,,,2024-11-22,1,,,,,コウワ,0
669,3040003026242,新規,0,2024-11-22,2024-11-22,合同会社ファーマーズ,,合同会社,千葉県,長生郡白子町,中里４００４番地,,12,424,2994215,,,,,,,2024-11-22,1,,,,,ファーマーズ,0
670,3040003026250,新規,0,2024-11-22,2024-11-22,合同会社ビックオーバー,,合同会社,千葉県,市川市,稲越３丁目１４番８号,,12,203,2720831,,,,,,,2024-11-22,1,,,,,ビックオーバー,0
672,3050001055762,新規,0,2024-11-22,2024-11-22,株式会社ＪＡＨＩＹＡ　ＴＲＡＤＩＮＧ,,株式会社,茨城県,下妻市,下妻丁２６３番地２,,08,210,3040068,,,,,,,2024-11-22,1,,,,,ジャヒヤトレーディング,0
673,3050003008826,新規,0,2024-11-22,2024-11-22,Ａｎｈ　Ｐｈａｔ合同会社,,合同会社,茨城県,筑西市,玉戸１２００番地１７,,08,227,3080847,,,,,,,2024-11-22,1,,,,,アインパット,0
678,3070003005672,新規,0,2024-11-22,2024-11-22,合同会社グリストクリーン,,合同会社,群馬県,館林市,朝日町１０番１６号,,10,207,3740063,,,,,,,2024-11-22,1,,,,,グリストクリーン,0
679,3080001026620,新規,0,2024-11-22,2024-11-22,Ｒｙｕｎｉｃ株式会社,,株式会社,静岡県,島田市,栄町２番の３ソライロビル１階,,22,209,4270028,,,,,,,2024-11-22,1,,,,,リュニック,0
687,3100001038043,新規,0,2024-11-22,2024-11-22,株式会社ＢｕｚｚＷａｙｓ,,株式会社,長野県,長野市,南千歳１丁目８－１ウイステリアビルＢ号,,20,201,3800823,,,,,,,2024-11-22,1,,,,,バズウェイズ,0
698,3120001270494,新規,0,2024-11-22,2024-11-22,株式会社プレジャー,,株式会社,大阪府,大阪市北区,梅田２丁目２番２号ヒルトンプラザウエスト１９階,,27,127,5300001,,,,,,,2024-11-22,1,,,,,プレジャー,0
699,3120001270511,新規,0,2024-11-22,2024-11-22,株式会社リンクオート,,株式会社,大阪府,門真市,月出町２０番１３号,,27,223,5710052,,,,,,,2024-11-22,1,,,,,リンクオート,0
700,3120001270528,新規,0,2024-11-22,2024-11-22,株式会社Ｓｅｌｅｎｅ．,,株式会社,大阪府,大阪市平野区,加美正覚寺１丁目１９番６号,,27,126,5470006,,,,,,,2024-11-22,1,,,,,セレネ,0
701,3120003028016,新規,0,2024-11-22,2024-11-22,Ｓｔａｒ　Ｍｏｂｉｌｅ合同会社,,合同会社,大阪府,大阪市生野区,桃谷５丁目７番３３号グランダム桃谷３０６号室,,27,116,5440034,,,,,,,2024-11-22,1,,,,,スターモバイル,0
702,3120003028032,新規,0,2024-11-22,2024-11-22,合同会社ディーアクトパートナー,,合同会社,大阪府,大阪市淀川区,塚本６丁目４番２８号スプルース・ケイツ３０２号,,27,123,5320026,,,,,,,2024-11-22,1,,,,,ディーアクトパートナー,0
704,3120101070605,新規,0,2024-11-22,2024-11-22,株式会社フジックス大東,,株式会社,大阪府,泉北郡忠岡町,新浜１丁目１番１０号,,27,341,5950814,,,,,,,2024-11-22,1,,,,,フジックスダイトウ,0
710,3130003010022,新規,0,2024-11-22,2024-11-22,ナレッジアート合同会社,,合同会社,京都府,福知山市,三和町中出４６３番地,,26,201,6201432,,,,,,,2024-11-22,1,,,,,ナレッジアート,0
713,3140001136495,新規,0,2024-11-22,2024-11-22,株式会社シシクイタイヤ,,株式会社,兵庫県,神戸市西区,水谷１丁目１２番４号,,28,111,6512121,,,,,,,2024-11-22,1,,,,,シシクイタイヤ,0
714,3140001136520,新規,0,2024-11-22,2024-11-22,株式会社ＫＤＣソリューションズ,,株式会社,兵庫県,加古川市,加古川町河原１９９番地の９,,28,210,6750067,,,,,,,2024-11-22,1,,,,,ケーディーシーソリューソンズ,0
717,3140003021349,新規,0,2024-11-22,2024-11-22,合同会社ＲＥＡＬ　ＮＥＥＤＳ,,合同会社,兵庫県,高砂市,阿弥陀町魚橋１６６０番,,28,216,6760822,,,,,,,2024-11-22,1,,,,,リアルニーズ,0
718,3170001018393,新規,0,2024-11-22,2024-11-22,株式会社釈迦戸,00137118,株式会社,和歌山県,西牟婁郡白浜町,内ノ川５７３番地の１,,30,401,6492322,,,,,,,2024-11-22,1,,,,,シャカト,0
727,3180001164261,新規,0,2024-11-22,2024-11-22,株式会社涼松,,株式会社,愛知県,愛知郡東郷町,大字春木字涼松１８３番地１００,,23,302,4700162,,,,,,,2024-11-22,1,,,,,リョウショウ,0
728,3180001164294,新規,0,2024-11-22,2024-11-22,株式会社スマイルハウス,,株式会社,愛知県,瀬戸市,石田町１４２番地の１,,23,204,4890951,,,,,,,2024-11-22,1,,,,,スマイルハウス,0
729,3180001164303,新規,0,2024-11-22,2024-11-22,株式会社ＱＯＬｄｅｓｉｇｎ,,株式会社,愛知県,名古屋市北区,安井１丁目３０－１２,,23,103,4620023,,,,,,,2024-11-22,1,,,,,キューオーエルデザイン,0
737,3180301039262,新規,0,2024-11-22,2024-11-22,Ｌｉｎｏ株式会社,,株式会社,愛知県,みよし市,三好丘旭４丁目１２番地１,,23,236,4700203,,,,,,,2024-11-22,1,,,,,リノ,0
740,3180303006351,新規,0,2024-11-22,2024-11-22,合同会社ＥＰＯＣＨ４,,合同会社,愛知県,蒲郡市,大塚町端城４０－１,,23,214,4430013,,,,,,,2024-11-22,1,,,,,エポックフォー,0
742,3190001031824,新規,0,2024-11-22,2024-11-22,株式会社シン・マック,,株式会社,三重県,津市,幸町９番１号ＮＴＴコム三重津南ビル,,24,201,5140835,,,,,,,2024-11-22,1,,,,,シンマック,0
749,3220005008906,新規,0,2024-11-22,2024-11-22,一般社団法人ＲａｉｎｂｏｗＦｏｒｅｓｔ金澤,,その他の設立登記法人,石川県,金沢市,材木町１９番２８号,,17,201,9200921,,,,,,,2024-11-22,1,,,,,レインボーフォレストカナザワ,0
753,3240001064158,新規,0,2024-11-22,2024-11-22,カンタービレ株式会社,,株式会社,広島県,広島市西区,井口３丁目１７番３１号,,34,104,7330842,,,,,,,2024-11-22,1,,,,,カンタービレ,0
755,3260001039661,新規,0,2024-11-22,2024-11-22,株式会社エムズプラス,,株式会社,岡山県,倉敷市,連島町鶴新田１８６５－５,,33,202,7128006,,,,,,,2024-11-22,1,,,,,エムズプラス,0
756,3260003004977,新規,0,2024-11-22,2024-11-22,ｙ’ｓリベルタ合同会社,,合同会社,岡山県,真庭郡新庄村,１００３番地１,,33,586,7170201,,,,,,,2024-11-22,1,,,,,ワイズリベルタ,0
757,3270003001684,新規,0,2024-11-22,2024-11-22,合同会社岩波商事,,合同会社,鳥取県,境港市,福定町９６０番地１,,31,204,6840042,,,,,,,2024-11-22,1,,,,,イワナミショウジ,0
761,3290801031055,新規,0,2024-11-22,2024-11-22,株式会社ＬＩＮＫＳ,,株式会社,福岡県,北九州市小倉北区,都１丁目５番５号,,40,106,8030834,,,,,,,2024-11-22,1,,,,,リンクス,0
763,3300001013975,新規,0,2024-11-22,2024-11-22,株式会社Ｆａｒｍ　Ｖａｌｕｅ,,株式会社,佐賀県,三養基郡みやき町,大字江口字西大島７０７９,,41,346,8490112,,,,,,,2024-11-22,1,,,,,ファームバリュー,0
768,3320001020821,新規,0,2024-11-22,2024-11-22,株式会社ＭＩＳＯＲＡ,,株式会社,大分県,大分市,大字津守５００番地,,44,201,8700945,,,,,,,2024-11-22,1,,,,,ミソラ,0
769,3320003004517,新規,0,2024-11-22,2024-11-22,合同会社天領郭,,合同会社,大分県,日田市,豆田町２番２号,,44,204,8770005,,,,,,,2024-11-22,1,,,,,テンリョウカク,0
771,3330001032667,新規,0,2024-11-22,2024-11-22,株式会社日々大吉,,株式会社,熊本県,熊本市北区,清水本町２番１号,,43,105,8618074,,,,,,,2024-11-22,1,,,,,ニチニチダイキチ,0
772,3330001032675,新規,0,2024-11-22,2024-11-22,株式会社昴商事,,株式会社,熊本県,宇土市,境目町４４０番地３,,43,211,8690417,,,,,,,2024-11-22,1,,,,,スバルショウジ,0
775,3330003010654,新規,0,2024-11-22,2024-11-22,Ｄ．Ｈ．企画合同会社,,合同会社,熊本県,熊本市西区,城山半田２丁目１４番２－２号,,43,103,8600064,,,,,,,2024-11-22,1,,,,,ディーエイチキカク,0
784,3390001017803,新規,0,2024-11-22,2024-11-22,株式会社Ｈ．Ｒ．Ｃ,,株式会社,山形県,飽海郡遊佐町,吉出字上平坂１０番地,,06,461,9998302,,,,,,,2024-11-22,1,,,,,エイチアールシー,0
792,3430002059006,新規,0,2024-11-22,2024-11-22,有限会社盛武建設,,有限会社,北海道,苫小牧市,大成町１丁目４番８号,,01,213,0530806,,,,,,,2024-11-22,1,,,,,セイブケンセツ,0
793,3440001009522,新規,0,2024-11-22,2024-11-22,株式会社ｆｕｎｏｖｏ,,株式会社,北海道,函館市,亀田中野町１１６番地２,,01,202,0410803,,,,,,,2024-11-22,1,,,,,ファノボ,0
813,4010003045533,新規,0,2024-11-22,2024-11-22,Ａｄａ東東京２‐２合同会社,,合同会社,東京都,中央区,八重洲２丁目２番１号,,13,102,1040028,,,,,,,2024-11-22,1,,,,,エイダヒガシトウキョウニノニ,0
814,4010003045574,新規,0,2024-11-22,2024-11-22,合同会社まぶたち,,合同会社,東京都,中央区,銀座１丁目２２番１１号銀座大竹ビジデンス２Ｆ,,13,102,1040061,,,,,,,2024-11-22,1,,,,,マブタチ,0
835,4010901056326,新規,0,2024-11-22,2024-11-22,株式会社ヴァーダイト,,株式会社,東京都,世田谷区,喜多見７丁目２７番１９号,,13,112,1570067,,,,,,,2024-11-22,1,,,,,ヴァーダイト,0
836,4010903009513,新規,0,2024-11-22,2024-11-22,合同会社香賢,,合同会社,東京都,世田谷区,玉川１丁目５番８号,,13,112,1580094,,,,,,,2024-11-22,1,,,,,コウケン,0
839,4011001165934,新規,0,2024-11-22,2024-11-22,Ｏｒｇａｎｉｃａ　Ｉｎｔｅｒｎａｔｉｏｎａｌ株式会社,,株式会社,東京都,渋谷区,恵比寿４丁目１１番７号,,13,113,1500013,,,,,,,2024-11-22,1,,,,,オルガニカインターナショナル,0
840,4011001165950,新規,0,2024-11-22,2024-11-22,ＢＸ株式会社,,株式会社,東京都,渋谷区,渋谷２丁目１９番１９号,,13,113,1500002,,,,,,,2024-11-22,1,,,,,,0
841,4011001166040,新規,0,2024-11-22,2024-11-22,かみや株式会社,,株式会社,東京都,目黒区,上目黒５丁目２２‐２‐３０１,,13,110,1530051,,,,,,,2024-11-22,1,,,,,カミヤ,0
842,4011001166065,新規,0,2024-11-22,2024-11-22,株式会社Ｂｒｏｏｏｋ,,株式会社,東京都,渋谷区,桜丘町８番１１号パークアクシス渋谷桜丘サウス６０１,,13,113,1500031,,,,,,,2024-11-22,1,,,,,ブルーク,0
846,4011005010756,新規,0,2024-11-22,2024-11-22,一般社団法人病院デザイン研究所,,その他の設立登記法人,東京都,渋谷区,道玄坂１丁目１０番８号渋谷道玄坂東急ビル２Ｆ－Ｃ,,13,113,1500043,,,,,,,2024-11-22,1,,,,,ビョウインデザインケンキュウジョ,0
851,4011101109691,新規,0,2024-11-22,2024-11-22,株式会社ＢＵＩＬＤＲＩＶＥ　ｆｏｒ　ＤＸ,,株式会社,東京都,新宿区,西新宿３丁目３番１３号,,13,104,1600023,,,,,,,2024-11-22,1,,,,,ビルドライブフォーディーエックス,0
855,4011201025938,新規,0,2024-11-22,2024-11-22,株式会社ひなた,,株式会社,東京都,中野区,東中野５丁目２０番９号レジデンス東中野ガーデン３０６,,13,114,1640003,,,,,,,2024-11-22,1,,,,,ヒナタ,0
856,4011201025946,新規,0,2024-11-22,2024-11-22,株式会社佐藤内装,,株式会社,東京都,中野区,南台２丁目６番７号１階,,13,114,1640014,,,,,,,2024-11-22,1,,,,,サトウナイソウ,0
858,4011301030169,新規,0,2024-11-22,2024-11-22,株式会社ふくなが,,株式会社,東京都,杉並区,梅里２丁目２０番１８号,,13,115,1660011,,,,,,,2024-11-22,1,,,,,フクナガ,0
862,4011501031396,新規,0,2024-11-22,2024-11-22,日尚株式会社,,株式会社,東京都,北区,浮間１丁目１番１４号リムジンビル３５３,,13,117,1150051,,,,,,,2024-11-22,1,,,,,ニチショウ,0
866,4011603004523,新規,0,2024-11-22,2024-11-22,オンユアマーク合同会社,,合同会社,東京都,練馬区,田柄２丁目２９番１６号,,13,120,1790073,,,,,,,2024-11-22,1,,,,,オンユアマーク,0
869,4011701027839,新規,0,2024-11-22,2024-11-22,養樂多株式会社,,株式会社,東京都,江戸川区,西小岩４丁目１１番９号,,13,123,1330057,,,,,,,2024-11-22,1,,,,,ヨウラクタ,0
875,4011803006559,新規,0,2024-11-22,2024-11-22,合同会社グリーン,,合同会社,東京都,足立区,綾瀬５丁目１９番３－４０１号,,13,121,1200005,,,,,,,2024-11-22,1,,,,,グリーン,0
876,4012805003296,新規,0,2024-11-22,2024-11-22,一般社団法人ぶんじ寮じちかい,,その他の設立登記法人,東京都,国分寺市,泉町３丁目３７－３４クルミドコーヒー,,13,214,1850024,,,,,,,2024-11-22,1,,,,,ブンジリョウジチカイ,0
879,4013301053406,新規,0,2024-11-22,2024-11-22,株式会社ＢＯＮＤ,,株式会社,東京都,豊島区,上池袋３丁目３２番４号ユーキーズワン２０２,,13,116,1700012,,,,,,,2024-11-22,1,,,,,ボンド,0
886,4020001160184,新規,0,2024-11-22,2024-11-22,ＡＡ　ｃｒｅａｔｉｖｅ　ｗｏｒｋｓ株式会社,,株式会社,神奈川県,横浜市西区,北幸２丁目１０番４８号むつみビル３階,,14,103,2200004,,,,,,,2024-11-22,1,,,,,エーエークリエイティブワークス,0
887,4020001160291,新規,0,2024-11-22,2024-11-22,株式会社リープロ,,株式会社,神奈川県,横浜市中区,石川町３丁目１０４番地１・６０３,,14,104,2310868,,,,,,,2024-11-22,1,,,,,リープロ,0
890,4020003027308,新規,0,2024-11-22,2024-11-22,合同会社マネードッグ,,合同会社,神奈川県,横浜市神奈川区,金港町５－１４クアドリフォリオ８階,,14,102,2210056,,,,,,,2024-11-22,1,,,,,マネードッグ,0
907,4030003025558,新規,0,2024-11-22,2024-11-22,合同会社栄,,合同会社,埼玉県,さいたま市岩槻区,西原台２丁目３番６０号ＴＹ岩槻１－１０２,,11,110,3390082,,,,,,,2024-11-22,1,,,,,サカエ,0
915,4040001136273,新規,0,2024-11-22,2024-11-22,エンシア株式会社,,株式会社,千葉県,船橋市,本中山３丁目１９番１１号,,12,204,2730035,,,,,,,2024-11-22,1,,,,,エンシア,0
919,4050001055761,新規,0,2024-11-22,2024-11-22,株式会社ＤＲ．ＹＭＧ,,株式会社,茨城県,潮来市,日の出５丁目２３番地１５,,08,223,3112423,,,,,,,2024-11-22,1,,,,,ディーアールドットワイエムシー,0
923,4080101025141,新規,0,2024-11-22,2024-11-22,株式会社大伸,,株式会社,静岡県,熱海市,青葉町２番１号,,22,205,4130041,,,,,,,2024-11-22,1,,,,,タイシン,0
924,4080103003203,新規,0,2024-11-22,2024-11-22,Ｆｕｊｉ　Ｆｏｏｄ合同会社,,合同会社,静岡県,沼津市,本字千本１９１０番地の２３６,,22,203,4100867,,,,,,,2024-11-22,1,,,,,フジフード,0
928,4100001038034,新規,0,2024-11-22,2024-11-22,株式会社Ｒｏｏｍ,,株式会社,長野県,伊那市,長谷非持４０番地１,,20,209,3960401,,,,,,,2024-11-22,1,,,,,ルーム,0
930,4100003007870,新規,0,2024-11-22,2024-11-22,合同会社エフエス・エンタープライズ,,合同会社,長野県,安曇野市,穂高５９８９番地４,,20,220,3998303,,,,,,,2024-11-22,1,,,,,エフエスエンタープライズ,0
931,4100003007879,新規,0,2024-11-22,2024-11-22,合同会社ｐａｒｅｔｔｏ,,合同会社,長野県,長野市,松代町豊栄３２４４－１,,20,201,3811222,,,,,,,2024-11-22,1,,,,,パレット,0
941,4120001270485,新規,0,2024-11-22,2024-11-22,株式会社アール,,株式会社,大阪府,大阪市浪速区,日本橋東１丁目５番４号アリタマンション日本橋３１号室,,27,111,5560006,,,,,,,2024-11-22,1,,,,,アール,0
942,4120001270493,新規,0,2024-11-22,2024-11-22,株式会社リベル,,株式会社,大阪府,大阪市港区,弁天２丁目３番２２号９０４号室,,27,107,5520007,,,,,,,2024-11-22,1,,,,,リベル,0
943,4120001270502,新規,0,2024-11-22,2024-11-22,株式会社ＬＢＣ,,株式会社,大阪府,大阪市中央区,南久宝寺町１丁目５番４号,,27,128,5410058,,,,,,,2024-11-22,1,,,,,エルビーシー,0
944,4120001270510,新規,0,2024-11-22,2024-11-22,株式会社ＳＹＤ物流,,株式会社,大阪府,大阪市中央区,南久宝寺町２丁目１番２－７０１号,,27,128,5410058,,,,,,,2024-11-22,1,,,,,エスワイディーブツリュウ,0
947,4120003028023,新規,0,2024-11-22,2024-11-22,東和合同会社,,合同会社,大阪府,大阪市旭区,中宮５丁目５番１０－４０６号,,27,117,5350003,,,,,,,2024-11-22,1,,,,,トウワ,0
948,4120003028031,新規,0,2024-11-22,2024-11-22,合同会社Ｓｍｉｌｅ　Ｌｉｎｋ,,合同会社,大阪府,大阪市東淀川区,東中島１丁目１７番５号ステュディオ新大阪７４７号室,,27,114,5330033,,,,,,,2024-11-22,1,,,,,スマイルリンク,0
949,4120101070645,新規,0,2024-11-22,2024-11-22,ライアグ・テック株式会社,,株式会社,大阪府,岸和田市,今木町２３１番地の３,,27,202,5960804,,,,,,,2024-11-22,1,,,,,ライアグテック,0
954,4122001038680,新規,0,2024-11-22,2024-11-22,株式会社グッドホップ,,株式会社,大阪府,東大阪市,西石切町２丁目４番１－１３０３号,,27,227,5798013,,,,,,,2024-11-22,1,,,,,グッドホップ,0
960,4130001078408,新規,0,2024-11-22,2024-11-22,株式会社ＡＴＥＬＩＥＲ　ＭＯＭＩ,,株式会社,京都府,京都市中京区,薬師町６４４－１－４０１号,,26,104,6040062,,,,,,,2024-11-22,1,,,,,アトリエモミ,0
961,4130001078416,新規,0,2024-11-22,2024-11-22,株式会社ＳＯＷ,,株式会社,京都府,京都市南区,上鳥羽北村山町２１番地１,,26,107,6018187,,,,,,,2024-11-22,1,,,,,ソウ,0
964,4140001136494,新規,0,2024-11-22,2024-11-22,隼株式会社,,株式会社,兵庫県,西宮市,甲陽園西山町１６番１１号,,28,204,6620017,,,,,,,2024-11-22,1,,,,,ハヤブサ,0
965,4150003003428,新規,0,2024-11-22,2024-11-22,ミティグローバル合同会社,,合同会社,奈良県,高市郡高取町,大字観覚寺１５３１番地,,29,401,6350154,,,,,,,2024-11-22,1,,,,,ミティグローバル,0
966,4160003003336,新規,0,2024-11-22,2024-11-22,ＡＯＩ合同会社,,合同会社,滋賀県,草津市,追分５丁目３番２１号,,25,206,5250047,,,,,,,2024-11-22,1,,,,,エーオーアイ,0
967,4170003002130,新規,0,2024-11-22,2024-11-22,合同会社ＯＲＯ,,合同会社,和歌山県,和歌山市,有本５５１－１０,,30,201,6408390,,,,,,,2024-11-22,1,,,,,オロ,0
975,4180001164260,新規,0,2024-11-22,2024-11-22,中日物流通商株式会社,,株式会社,愛知県,名古屋市港区,本宮新町８６,,23,111,4550065,,,,,,,2024-11-22,1,,,,,チュウニチブツリュウツウショウ,0
976,4180001164285,新規,0,2024-11-22,2024-11-22,株式会社はじめの,,株式会社,愛知県,名古屋市千種区,竹越１丁目１５番１２号ファミリアーレ千種竹越１４０２号,,23,101,4640007,,,,,,,2024-11-22,1,,,,,ハジメノ,0
977,4180001164293,新規,0,2024-11-22,2024-11-22,株式会社ライズ,,株式会社,愛知県,名古屋市中村区,道下町２丁目１０ハーモニーテラス道下町１０１,,23,105,4530046,,,,,,,2024-11-22,1,,,,,ライズ,0
982,4180003027606,新規,0,2024-11-22,2024-11-22,合同会社Ｔｅｄ,,合同会社,愛知県,名古屋市中村区,猪之越町２丁目４番２１号,,23,105,4530038,,,,,,,2024-11-22,1,,,,,テッド,0
985,4180301039261,新規,0,2024-11-22,2024-11-22,安成株式会社,,株式会社,愛知県,安城市,里町１丁目１１番地１８,,23,212,4460001,,,,,,,2024-11-22,1,,,,,アンセイ,0
987,4180303006350,新規,0,2024-11-22,2024-11-22,ＫＵＫヴィレッジ合同会社,,合同会社,愛知県,岡崎市,井ノ口町字楼３１番地葵邸３０１,,23,202,4442133,,,,,,,2024-11-22,1,,,,,ケーユーケーヴィレッジ,0
993,4200001043156,新規,0,2024-11-22,2024-11-22,豊桑ホールディングス株式会社,,株式会社,岐阜県,各務原市,鵜沼三ツ池町６丁目４２９番地,,21,213,5090146,,,,,,,2024-11-22,1,,,,,ホウソウホールディングス,0
1004,4240001064124,新規,0,2024-11-22,2024-11-22,株式会社ＣＡＮ　ｂｅ　ＣＡＲＥＥＲ,,株式会社,広島県,広島市中区,大手町１丁目７番２１号ＴＨＥ＿ＣＵＢＥ＿ＯＴＥＭＡＣＨＩ４０２号室,,34,101,7300051,,,,,,,2024-11-22,1,,,,,キャンビーキャリア,0
1014,4290001108025,新規,0,2024-11-22,2024-11-22,株式会社プロスパード,,株式会社,福岡県,福岡市東区,香椎照葉６丁目２番５１－４０２号,,40,131,8130017,,,,,,,2024-11-22,1,,,,,プロスパード,0
1016,4290801031054,新規,0,2024-11-22,2024-11-22,株式会社Ｒｅｄ・Ｃｌｏｕｄ,,株式会社,福岡県,田川市,大字川宮６番地の１,,40,206,8260042,,,,,,,2024-11-22,1,,,,,レッドクラウド,0
1020,4300001013982,新規,0,2024-11-22,2024-11-22,株式会社ｅｎｆＩＮＩｔｙ,,株式会社,佐賀県,佐賀市,大和町大字久池井１５１５番地２４,,41,201,8400202,,,,,,,2024-11-22,1,,,,,エンフィニティ,0
1030,4330003010653,新規,0,2024-11-22,2024-11-22,合同会社ＬａＬａ,,合同会社,熊本県,熊本市中央区,黒髪４丁目２番４２号,,43,101,8600862,,,,,,,2024-11-22,1,,,,,ララ,0
1056,4430001093129,新規,0,2024-11-22,2024-11-22,Ｄ＆Ｆトラスト株式会社,,株式会社,北海道,札幌市北区,北二十四条西１７丁目１番１号,,01,102,0010024,,,,,,,2024-11-22,1,,,,,ディーアンドエフトラスト,0
1061,4470005006594,新規,0,2024-11-22,2024-11-22,一般財団法人中山芳彦香川イタリア交流財団,,その他の設立登記法人,香川県,高松市,中新町１２番地１,,37,201,7600056,,,,,,,2024-11-22,1,,,,,ナカヤマヨシヒコカガワイタリアコウリュウザイダン,0
1070,5010001250027,新規,0,2024-11-22,2024-11-22,二葉印刷株式会社,,株式会社,東京都,千代田区,神田小川町３丁目１０番地１駿台中根ビル４階,,13,101,1010052,,,,,,,2024-11-22,1,,,,,フタバインサツ,0
1071,5010001250101,新規,0,2024-11-22,2024-11-22,中央海運株式会社,,株式会社,東京都,中央区,日本橋茅場町３丁目６番４－１５０２号,,13,102,1030025,,,,,,,2024-11-22,1,,,,,チュウオウカイウン,0
1083,5010401186440,新規,0,2024-11-22,2024-11-22,株式会社ａＬｉｎｋ,,株式会社,東京都,港区,赤坂４丁目８番１９号赤坂フロントタウン３階,,13,103,1070052,,,,,,,2024-11-22,1,,,,,アルファリンク,0
1084,5010401186614,新規,0,2024-11-22,2024-11-22,株式会社ＴＲＵＳＴＡＩＤＥ,,株式会社,東京都,港区,虎ノ門４丁目１－２８虎ノ門タワーズオフィス１９階,,13,103,1050001,,,,,,,2024-11-22,1,,,,,トラステード,0
1087,5010403033772,新規,0,2024-11-22,2024-11-22,Ｄｉｇｉｔａｌ　Ｌｅａｒｎｉｎｇ　Ｃｅｎｔｅｒ合同会社,,合同会社,東京都,港区,西麻布１丁目４－３６ロジマン西麻布３０１,,13,103,1060031,,,,,,,2024-11-22,1,,,,,デジタルラーニングセンター,0
1088,5010403033839,新規,0,2024-11-22,2024-11-22,ＧＶＳＪ３６合同会社,,合同会社,東京都,港区,六本木３丁目１６番２６号,,13,103,1060032,,,,,,,2024-11-22,1,,,,,ジーブイエスジェイサーティシックス,0
1093,5010501053227,新規,0,2024-11-22,2024-11-22,株式会社ＣＳＣ,,株式会社,東京都,台東区,浅草３丁目９番２号,,13,106,1110032,,,,,,,2024-11-22,1,,,,,シーエスシー,0
1094,5010503007643,新規,0,2024-11-22,2024-11-22,ＴＸソリューション合同会社,,合同会社,東京都,台東区,西浅草３丁目２２－３浅草タワー３０９,,13,106,1110035,,,,,,,2024-11-22,1,,,,,ティエックスソリューション,0
1109,5011003020434,新規,0,2024-11-22,2024-11-22,合同会社Ｔｅｃｈｎｏｔａｍａ,,合同会社,東京都,渋谷区,恵比寿西２丁目８番４号ＥＸ恵比寿西ビル５階,,13,113,1500021,,,,,,,2024-11-22,1,,,,,テクノタマ,0
1111,5011101109617,新規,0,2024-11-22,2024-11-22,ブラックアリ株式会社,,株式会社,東京都,新宿区,新宿１丁目３２番５－３０１号,,13,104,1600022,,,,,,,2024-11-22,1,,,,,ブラックアリ,0
1112,5011101109641,新規,0,2024-11-22,2024-11-22,株式会社Ｅｂｉｓｕ会計,,株式会社,東京都,新宿区,新宿５丁目１４－１２－７０４号,,13,104,1600022,,,,,,,2024-11-22,1,,,,,エビスカイケイ,0
1115,5011301030176,新規,0,2024-11-22,2024-11-22,株式会社ライズ,,株式会社,東京都,杉並区,上荻１丁目１８番３号,,13,115,1670043,,,,,,,2024-11-22,1,,,,,ライズ,0
1122,5011501031395,新規,0,2024-11-22,2024-11-22,株式会社ＬＴＦ,,株式会社,東京都,北区,赤羽台３丁目６番１０－５０１号,,13,117,1150053,,,,,,,2024-11-22,1,,,,,エルティーエフ,0
1123,5011503006305,新規,0,2024-11-22,2024-11-22,＿栄合同会社,00137107,合同会社,東京都,北区,堀船１丁目１５番１０－３１１号ワコー王子マンション,,13,117,1140004,,,,,,,2024-11-22,1,,,,,キンエイ,0
1125,5011601028226,新規,0,2024-11-22,2024-11-22,株式会社薄井工業,,株式会社,東京都,練馬区,錦１丁目２３番６号パルクヴェール１０３,,13,120,1790082,,,,,,,2024-11-22,1,,,,,ウスイコウギョウ,0
1151,5020001160258,新規,0,2024-11-22,2024-11-22,株式会社ＹＢＭ,,株式会社,神奈川県,川崎市川崎区,大島２丁目２番１号岩本ビル２０１,,14,131,2100834,,,,,,,2024-11-22,1,,,,,ワイビーエム,0
1152,5020001160266,新規,0,2024-11-22,2024-11-22,エスケー建設株式会社,,株式会社,神奈川県,横浜市泉区,新橋町２５１番地,,14,116,2450009,,,,,,,2024-11-22,1,,,,,エスケーケンセツ,0
1153,5020001160274,新規,0,2024-11-22,2024-11-22,株式会社バンブーエイト,,株式会社,神奈川県,横浜市神奈川区,大口通７１番地５,,14,102,2210002,,,,,,,2024-11-22,1,,,,,バンブーエイト,0
1168,5040001136198,新規,0,2024-11-22,2024-11-22,株式会社エントワ,,株式会社,千葉県,山武市,成東１７８２番地１,,12,237,2891326,,,,,,,2024-11-22,1,,,,,エントワ,0
1169,5040001136272,新規,0,2024-11-22,2024-11-22,Ｌｉｆｅ　Ｔｏｔａｌ　Ｄｅｓｉｇｎ株式会社,,株式会社,千葉県,柏市,花野井１８７２－７７,,12,217,2770812,,,,,,,2024-11-22,1,,,,,ライフトータルデザイン,0
1170,5040001136289,新規,0,2024-11-22,2024-11-22,株式会社アスピシャスカンパニー,,株式会社,千葉県,船橋市,本町６丁目１８番１９第３山中ビル４０１号室,,12,204,2730005,,,,,,,2024-11-22,1,,,,,アスピシャスカンパニー,0
1176,5040003026232,新規,0,2024-11-22,2024-11-22,合同会社桂政,,合同会社,千葉県,八街市,朝日４２１番地１０ひかりハウス参番館２０２号,,12,230,2891101,,,,,,,2024-11-22,1,,,,,ケイセイ,0
1177,5040003026240,新規,0,2024-11-22,2024-11-22,合同会社桜エンタープライズ,,合同会社,千葉県,八街市,上砂４０６番地５７,,12,230,2891125,,,,,,,2024-11-22,1,,,,,サクラエンタープライズ,0
1178,5040003026249,新規,0,2024-11-22,2024-11-22,合同会社ＳＥＮＴＥＣ,,合同会社,千葉県,千葉市美浜区,中瀬１丁目３番地幕張テクノガーデン,,12,106,2610023,,,,,,,2024-11-22,1,,,,,センテック,0
1181,5050001055760,新規,0,2024-11-22,2024-11-22,ＮＩＲＯ株式会社,,株式会社,茨城県,常総市,蔵持７７４番地１キャリーハイツ１０６,,08,211,3002722,,,,,,,2024-11-22,1,,,,,ニロ,0
1184,5070001042393,新規,0,2024-11-22,2024-11-22,株式会社カネコ,,株式会社,群馬県,桐生市,新里町新川２４８番地８,,10,203,3760121,,,,,,,2024-11-22,1,,,,,カネコ,0
1188,5080003003335,新規,0,2024-11-22,2024-11-22,合同会社ＦＯＢ　ＷＯＲＫＳ,,合同会社,静岡県,静岡市駿河区,東新田２丁目１３番１０号,,22,102,4210112,,,,,,,2024-11-22,1,,,,,エフオービーワークス,0
1189,5080101025140,新規,0,2024-11-22,2024-11-22,フォースリー株式会社,,株式会社,静岡県,富士市,石坂２６２番地の２２,,22,210,4170862,,,,,,,2024-11-22,1,,,,,フォースリー,0
1217,5120001270468,新規,0,2024-11-22,2024-11-22,株式会社夢翔龍,,株式会社,大阪府,大阪市淀川区,西中島４丁目５番１号ＮＬＣ新大阪パワービル４－Ｆ号室,,27,123,5320011,,,,,,,2024-11-22,1,,,,,ユメカケロン,0
1218,5120001270476,新規,0,2024-11-22,2024-11-22,Ｓｏｌａｒｅ株式会社,,株式会社,大阪府,大阪市北区,天満橋３丁目５番３０－５０１号,,27,127,5300042,,,,,,,2024-11-22,1,,,,,ソラーレ,0
1219,5120001270501,新規,0,2024-11-22,2024-11-22,株式会社Ａｍｂｉｔｉｏｎ,,株式会社,大阪府,大阪市中央区,東心斎橋１丁目７番２２号メゾン・デ・ノムラ東心斎橋６０１,,27,128,5420083,,,,,,,2024-11-22,1,,,,,アンビション,0
1220,5120001270518,新規,0,2024-11-22,2024-11-22,株式会社ＭＯＥ,,株式会社,大阪府,大阪市淀川区,西中島５丁目９番５号８Ｆ,,27,123,5320011,,,,,,,2024-11-22,1,,,,,エムオーイー,0
1221,5120001270534,新規,0,2024-11-22,2024-11-22,株式会社シーエス・エフ,,株式会社,大阪府,大阪市阿倍野区,阿倍野筋１丁目１番４３号あべのハルカス３１階,,27,119,5450052,,,,,,,2024-11-22,1,,,,,シーエスエフ,0
1225,5120003027973,新規,0,2024-11-22,2024-11-22,ＢｉｔｓＣｒｅａｔｅ合同会社,,合同会社,大阪府,大阪市中央区,南船場４丁目１０－５－７０２,,27,128,5420081,,,,,,,2024-11-22,1,,,,,ビッツクリエイト,0
1228,5120101070636,新規,0,2024-11-22,2024-11-22,株式会社Ｓｔａｂｌｉｓｈ,,株式会社,大阪府,堺市西区,山田４丁２０７９番地１,,27,144,5938316,,,,,,,2024-11-22,1,,,,,エスタブリッシュ,0
1229,5120101070644,新規,0,2024-11-22,2024-11-22,株式会社Ｃｌｏｖｅｒ,,株式会社,大阪府,河内長野市,上原西町２２－２,,27,216,5860038,,,,,,,2024-11-22,1,,,,,クローバー,0
1236,5130003010020,新規,0,2024-11-22,2024-11-22,合同会社Ｕｎｋｎｏｗｎ　Ｈｉｐｐｏ,,合同会社,京都府,京都市下京区,朱雀宝蔵町４４番地協栄ビル２階京都朱雀スタジオ,,26,106,6008846,,,,,,,2024-11-22,1,,,,,アンノウンヒッポ,0
1238,5140005027276,新規,0,2024-11-22,2024-11-22,一般社団法人Ａｗａｊｉ３６９Ｆａｒｍ,,その他の設立登記法人,兵庫県,洲本市,五色町都志万歳１２,,28,205,6561304,,,,,,,2024-11-22,1,,,,,アワジミロクファーム,0
1258,5180001164268,新規,0,2024-11-22,2024-11-22,株式会社エスコート,,株式会社,愛知県,小牧市,大字文津９３８番地,,23,219,4850827,,,,,,,2024-11-22,1,,,,,エスコート,0
1267,5180301039260,新規,0,2024-11-22,2024-11-22,株式会社ＵＫＷＯＲＫＳ,,株式会社,愛知県,みよし市,三好町天王１８番地２３,,23,236,4700224,,,,,,,2024-11-22,1,,,,,ユーケーワークス,0
1275,5200001043155,新規,0,2024-11-22,2024-11-22,株式会社ミライズ,,株式会社,岐阜県,中津川市,八幡町２番３１号,,21,206,5080043,,,,,,,2024-11-22,1,,,,,ミライズ,0
1276,5200001043163,新規,0,2024-11-22,2024-11-22,株式会社ゆふるＰｒｏｐｅｒｔｙ,,株式会社,岐阜県,安八郡神戸町,大字更屋敷２２２番地の６,,21,381,5032322,,,,,,,2024-11-22,1,,,,,ユフルプロパティ,0
1280,5240001064148,新規,0,2024-11-22,2024-11-22,株式会社美咲工業,,株式会社,広島県,福山市,神辺町字道上２８８８番地１１,,34,207,7202104,,,,,,,2024-11-22,1,,,,,ミサキコウギョウ,0
1281,5240001064156,新規,0,2024-11-22,2024-11-22,株式会社高尾サッシ工業,00137120,株式会社,広島県,広島市佐伯区,五月が丘１丁目２６番３号,,34,108,7315101,,,,,,,2024-11-22,1,,,,,タカオサッシコウギョウ,0
1286,5290801031061,新規,0,2024-11-22,2024-11-22,株式会社レジェンドツー,,株式会社,福岡県,北九州市小倉北区,木町４丁目７番１０号,,40,106,8030851,,,,,,,2024-11-22,1,,,,,レジェンドツー,0
1293,5330001032673,新規,0,2024-11-22,2024-11-22,株式会社Ｃ３,,株式会社,熊本県,熊本市北区,武蔵ケ丘４丁目１６番２８号坂本ビル１階１０１号室,,43,105,8618001,,,,,,,2024-11-22,1,,,,,シースリー,0
1298,5360003014444,新規,0,2024-11-22,2024-11-22,合同会社ＯＫＩｎｏｖａ,,合同会社,沖縄県,うるま市,字兼箇段６７３番地,,47,213,9042241,,,,,,,2024-11-22,1,,,,,オキノバ,0
1299,5360003014477,新規,0,2024-11-22,2024-11-22,合同会社ＵＮＩＴＥ,,合同会社,沖縄県,那覇市,字松川７０３番地,,47,201,9020062,,,,,,,2024-11-22,1,,,,,ユナイト,0
1304,5370001051950,新規,0,2024-11-22,2024-11-22,株式会社Ａｓｓｉｓｔ,,株式会社,宮城県,石巻市,広渕字柏木１８番,,04,202,9871222,,,,,,,2024-11-22,1,,,,,アシスト,0
1305,5370003006837,新規,0,2024-11-22,2024-11-22,合同会社福の巣,,合同会社,宮城県,仙台市泉区,松陵１丁目５番地の２,,04,105,9813108,,,,,,,2024-11-22,1,,,,,フクノス,0
1306,5370005010861,新規,0,2024-11-22,2024-11-22,一般社団法人こっぷ,,その他の設立登記法人,宮城県,仙台市宮城野区,福田町１丁目４－５、Ｋ２オリエントビル２０６,,04,102,9830023,,,,,,,2024-11-22,1,,,,,コップ,0
1314,5410001013995,新規,0,2024-11-22,2024-11-22,株式会社ｆｕｎｆａｍ,,株式会社,秋田県,大館市,東台７丁目３番１２５号,,05,204,0170803,,,,,,,2024-11-22,1,,,,,ファンファム,0
1325,5430003017010,新規,0,2024-11-22,2024-11-22,合同会社肉推し,,合同会社,北海道,江別市,東野幌本町２０－１,,01,217,0690824,,,,,,,2024-11-22,1,,,,,ニクオシ,0
1329,5480001012660,新規,0,2024-11-22,2024-11-22,松下建設工業株式会社,,株式会社,徳島県,徳島市,南昭和町７丁目３４番地の３,,36,201,7700944,,,,,,,2024-11-22,1,,,,,マツシタケンセツコウギョウ,0
1331,5700150127947,新規,0,2024-11-22,2024-11-22,ＡＡＹＥＳＨＡ　ＥＮＴＥＲＰＲＩＳＥＳ,,外国会社等,千葉県,佐倉市,大篠塚２７７番地Ｅ,,12,212,2850806,スリランカ民主社会主義共和国、キャンディ、バトゥゴダ、バムヌポラ、Ｎｏ．１０２／Ａ,,,,,,2024-11-22,1,,,,,アアイエシヤエンタープライズ,0
1345,6010005039151,新規,0,2024-11-22,2024-11-22,一般社団法人プラスチックサーキュラーエコノミー推進協会,,その他の設立登記法人,東京都,中央区,新川２丁目５番２号,,13,102,1040033,,,,,,,2024-11-22,1,,,,,プラスチックサーキュラーエコニミースイシンキョウカイ,0
1355,6010401185532,新規,0,2024-11-22,2024-11-22,中和株式会社,,株式会社,東京都,港区,浜松町１丁目３－２パークコート浜離宮ザ・タワー３４０４号室,,13,103,1050013,,,,,,,2024-11-22,1,,,,,チュウワ,0
1357,6010401186588,新規,0,2024-11-22,2024-11-22,金満株式会社,,株式会社,東京都,港区,六本木３丁目１６番１３－６１４号アンバサダー六本木,,13,103,1060032,,,,,,,2024-11-22,1,,,,,キンマン,0
1358,6010401186621,新規,0,2024-11-22,2024-11-22,株式会社ペイントアウト,,株式会社,東京都,港区,芝５丁目３２番９号ｅｃｓ第５ビル７Ｆ,,13,103,1080014,,,,,,,2024-11-22,1,,,,,ペイントアウト,0
1360,6010403033838,新規,0,2024-11-22,2024-11-22,ＧＶＳＪ３５合同会社,,合同会社,東京都,港区,六本木３丁目１６番２６号,,13,103,1060032,,,,,,,2024-11-22,1,,,,,ジーブイエスジェイサーティファイブ,0
1361,6010403033862,新規,0,2024-11-22,2024-11-22,Ｆｏｒｓｅａ　Ｊａｐａｎ合同会社,,合同会社,東京都,港区,元麻布３丁目１番６号,,13,103,1060046,,,,,,,2024-11-22,1,,,,,フォーシージャパン,0
1368,6010602000341,新規,0,2024-11-22,2024-11-22,有限会社一龍,,有限会社,東京都,江東区,白河３丁目１番１６号,,13,108,1350021,,,,,,,2024-11-22,1,,,,,イチリュウ,0
1371,6010701046847,新規,0,2024-11-22,2024-11-22,ビット・ホールディングス株式会社,,株式会社,東京都,品川区,上大崎３丁目１３番３８号,,13,109,1410021,,,,,,,2024-11-22,1,,,,,ビットホールディングス,0
1375,6010901056365,新規,0,2024-11-22,2024-11-22,株式会社みんにゃあず,,株式会社,東京都,世田谷区,赤堤３丁目９番１５号,,13,112,1560044,,,,,,,2024-11-22,1,,,,,ミンニャアズ,0
1385,6011001166121,新規,0,2024-11-22,2024-11-22,株式会社Ｗａｔｅｒ,,株式会社,東京都,渋谷区,神宮前３丁目２５番１８号ＴＨＥ・ＳＨＡＲＥ２０７,,13,113,1500001,,,,,,,2024-11-22,1,,,,,ワーテル,0
1389,6011003019995,新規,0,2024-11-22,2024-11-22,ＷＡＲＡＫＡＤＯ合同会社,,合同会社,東京都,渋谷区,道玄坂１丁目１０‐８渋谷道玄坂東急ビル２Ｆ‐Ｃ,,13,113,1500043,,,,,,,2024-11-22,1,,,,,ワラカド,0
1390,6011003020425,新規,0,2024-11-22,2024-11-22,合同会社ジル,,合同会社,東京都,渋谷区,道玄坂１丁目１０番８号渋谷道玄坂東急ビル２Ｆ－Ｃ,,13,113,1500043,,,,,,,2024-11-22,1,,,,,ジル,0
1391,6011003020482,新規,0,2024-11-22,2024-11-22,Ｌｉｎｇｕａ　Ｇａｔｅｗａｙ合同会社,,合同会社,東京都,渋谷区,道玄坂１丁目１０番８号渋谷道玄坂東急ビル２Ｆ－Ｃ,,13,113,1500043,,,,,,,2024-11-22,1,,,,,リンガゲートウェイ,0
1398,6011101109475,新規,0,2024-11-22,2024-11-22,テジョンデ・ホールディングス株式会社,,株式会社,東京都,新宿区,大久保１丁目１５番９－３０４号,,13,104,1690072,,,,,,,2024-11-22,1,,,,,テジョンデホールディングス,0
1399,6011101109665,新規,0,2024-11-22,2024-11-22,株式会社ＰｒｏＸ,,株式会社,東京都,新宿区,新宿２丁目９番２２号,,13,104,1600022,,,,,,,2024-11-22,1,,,,,プロックス,0
1401,6011201005789,新規,0,2024-11-22,2024-11-22,和興建設コンサルタント株式会社,,株式会社,東京都,中野区,本町５丁目１７番１３号,,13,114,1640012,,,,,,,2024-11-22,1,,,,,,0
1405,6011301030175,新規,0,2024-11-22,2024-11-22,株式会社木構ソフトウェア,,株式会社,東京都,杉並区,西荻北４丁目１番９－１０５号,,13,115,1670042,,,,,,,2024-11-22,1,,,,,モッコウソフトウェア,0
1416,6011701027837,新規,0,2024-11-22,2024-11-22,沛鋒株式会社,,株式会社,東京都,江戸川区,江戸川６丁目４０番１４－１１６号,,13,123,1340013,,,,,,,2024-11-22,1,,,,,ハイホウ,0
1417,6011801045202,新規,0,2024-11-22,2024-11-22,株式会社Ｂｏｍｕｔｔａ,,株式会社,東京都,足立区,谷中４丁目１５番１４－２０１号,,13,121,1200006,,,,,,,2024-11-22,1,,,,,ボムッタ,0
1422,6012701018578,新規,0,2024-11-22,2024-11-22,株式会社タングス,,株式会社,東京都,西東京市,南町５丁目７番８号サンスクエアオオヤマ１Ｆリップル西東京内,,13,229,1880012,,,,,,,2024-11-22,1,,,,,タングス,0
1423,6012703003132,新規,0,2024-11-22,2024-11-22,テックコネクション合同会社,,合同会社,東京都,西東京市,北町５丁目９番３０号,,13,229,2020003,,,,,,,2024-11-22,1,,,,,テックコネクション,0
1424,6013103001387,新規,0,2024-11-22,2024-11-22,Ｔａｉｗａｎ　ＮＡＣ　ｔｒａｖｅｌ　ｃｏｍｐａｎｙ合同会社,,合同会社,東京都,あきる野市,草花１５６１番地１,,13,228,1970802,,,,,,,2024-11-22,1,,,,,タイワンナックトラベルカンパニー,0
1425,6013301053395,新規,0,2024-11-22,2024-11-22,株式会社地球原基,,株式会社,東京都,豊島区,池袋３丁目２２番５号,,13,116,1710014,,,,,,,2024-11-22,1,,,,,チキュウゲンキ,0
1426,6013301053412,新規,0,2024-11-22,2024-11-22,株式会社グリーンガーデン,,株式会社,東京都,豊島区,北大塚３丁目２７番１１号ダイヤモンドレジデンス北大塚１１０号,,13,116,1700004,,,,,,,2024-11-22,1,,,,,グリーンガーデン,0
1430,6013305003669,新規,0,2024-11-22,2024-11-22,サンシャイン行政書士法人,,その他の設立登記法人,東京都,豊島区,南池袋２丁目４９－７池袋パークビル１階,,13,116,1710022,,,,,,,2024-11-22,1,,,,,サンシャイン,0
1431,6020001160249,新規,0,2024-11-22,2024-11-22,株式会社エスフラッシュ,,株式会社,神奈川県,横浜市旭区,市沢町６８１番地８,,14,112,2410014,,,,,,,2024-11-22,1,,,,,エスフラッシュ,0
1432,6020001160265,新規,0,2024-11-22,2024-11-22,アズマ株式会社,,株式会社,神奈川県,横浜市港北区,日吉２丁目２－５ダンディビル１Ｆ,,14,109,2230061,,,,,,,2024-11-22,1,,,,,アズマ,0
1435,6020003027306,新規,0,2024-11-22,2024-11-22,ＴＨｅ　Ｉｇｎｉｔｅ　Ｇｒｏｕｐ合同会社,,合同会社,神奈川県,横浜市港北区,日吉本町６丁目２１番１４号,,14,109,2230062,,,,,,,2024-11-22,1,,,,,ザイグナイトグループ,0
1438,6021005013228,新規,0,2024-11-22,2024-11-22,一般社団法人全国まちづくり支援委員会,,その他の設立登記法人,神奈川県,相模原市南区,相南４丁目８－３,,14,153,2520312,,,,,,,2024-11-22,1,,,,,ゼンコクマチヅクリシエンイインカイ,0
1444,6030001163589,新規,0,2024-11-22,2024-11-22,株式会社アーク,,株式会社,埼玉県,川越市,大字野田１３０３番地６,,11,201,3501111,,,,,,,2024-11-22,1,,,,,アーク,0
1459,6040001136263,新規,0,2024-11-22,2024-11-22,ＫＫＢ株式会社,,株式会社,千葉県,八千代市,村上１７３９番地４,,12,221,2760028,,,,,,,2024-11-22,1,,,,,ケーケービー,0
1461,6040003026231,新規,0,2024-11-22,2024-11-22,Ｋｉｌｌｉｎｇ　Ｔｉｍｅ合同会社,,合同会社,千葉県,柏市,若柴１番地３８７,,12,217,2770871,,,,,,,2024-11-22,1,,,,,キッリングタイム,0
1466,6050001055743,新規,0,2024-11-22,2024-11-22,ＨＥＷＡＤ　ＴＲＡＤＩＮＧ　ＣＯＭＰＡＮＹ株式会社,,株式会社,茨城県,坂東市,沓掛１３８９－１グリーンハイツ１号棟,,08,228,3060515,,,,,,,2024-11-22,1,,,,,ヘワドトレーディングカンパニー,0
1467,6050001055751,新規,0,2024-11-22,2024-11-22,株式会社リラプＴＶ,,株式会社,茨城県,つくば市,上郷１４６６番地,,08,220,3002645,,,,,,,2024-11-22,1,,,,,リラプティービー,0
1476,6080103003201,新規,0,2024-11-22,2024-11-22,Ｋｂ＆Ｘ合同会社,,合同会社,静岡県,熱海市,網代１１６番地の５,,22,205,4130103,,,,,,,2024-11-22,1,,,,,ケービーアンドエックス,0
1481,6080401027587,新規,0,2024-11-22,2024-11-22,株式会社ＭＩＮＯＲＩ,,株式会社,静岡県,袋井市,山科２８８６番地の２,,22,216,4370066,,,,,,,2024-11-22,1,,,,,ミノリ,0
1494,6120001270401,新規,0,2024-11-22,2024-11-22,ＪＭＣ株式会社,,株式会社,大阪府,大阪市西成区,花園南１丁目６番１０号花園ハイツ３０２号,,27,122,5570015,,,,,,,2024-11-22,1,,,,,ジェーエムシー,0
1495,6120001270467,新規,0,2024-11-22,2024-11-22,楠湾国際株式会社,,株式会社,大阪府,大阪市東住吉区,西今川３丁目３３番２０号－１０２室,,27,121,5460042,,,,,,,2024-11-22,1,,,,,ナンワンコクサイ,0
1496,6120001270475,新規,0,2024-11-22,2024-11-22,美嘉株式会社,,株式会社,大阪府,大阪市天王寺区,伶人町２－３１ＳｔａｒＯｆｆｉｃｅ大阪天王寺北４０９号室,,27,109,5430061,,,,,,,2024-11-22,1,,,,,ミカ,0
1497,6120001270491,新規,0,2024-11-22,2024-11-22,駿高光株式会社,,株式会社,大阪府,大阪市北区,天満橋五丁目２番１６号４Ｆ,,27,127,5300000,,,,,,,2024-11-22,1,,,,,スルタカコウ,0
1498,6120001270500,新規,0,2024-11-22,2024-11-22,株式会社イヤーヘルスラボ,,株式会社,大阪府,大阪市阿倍野区,阿倍野筋４丁目５番７号,,27,119,5450052,,,,,,,2024-11-22,1,,,,,イヤーヘルスラボ,0
1499,6120001270533,新規,0,2024-11-22,2024-11-22,株式会社ＬＩＦＥ　ＲＥＦＯＲＭ,,株式会社,大阪府,大阪市東住吉区,今川４丁目２６番７号,,27,121,5460003,,,,,,,2024-11-22,1,,,,,ライフリフォーム,0
1503,6120003027989,新規,0,2024-11-22,2024-11-22,合同会社ＰＯＢＳ,,合同会社,大阪府,大阪市中央区,南船場３丁目２番２２号おおきに南船場ビル２０５,,27,128,5420081,,,,,,,2024-11-22,1,,,,,ピーオービーエス,0
1506,6120101070569,新規,0,2024-11-22,2024-11-22,株式会社吉田,,株式会社,大阪府,富田林市,本町１８番１９号,,27,214,5840093,,,,,,,2024-11-22,1,,,,,,0
1507,6120101070643,新規,0,2024-11-22,2024-11-22,株式会社Ｇｉｖｅ　ｙｏｕ,,株式会社,大阪府,岸和田市,三田町２７－７,,27,202,5960808,,,,,,,2024-11-22,1,,,,,ギブユウ,0
1508,6120103006158,新規,0,2024-11-22,2024-11-22,合同会社Ｉ．Ｔ．Ｈ,,合同会社,大阪府,羽曳野市,野４３６－１１,,27,222,5830884,,,,,,,2024-11-22,1,,,,,アイティーエイチ,0
1509,6120903005433,新規,0,2024-11-22,2024-11-22,合同会社レバンガンケ,,合同会社,大阪府,高槻市,紺屋町３－１,,27,207,5690804,,,,,,,2024-11-22,1,,,,,レバンガンケ,0
1510,6122001038679,新規,0,2024-11-22,2024-11-22,大由電設株式会社,,株式会社,大阪府,東大阪市,友井１丁目１０番６号パルジール１０１,,27,227,5770816,,,,,,,2024-11-22,1,,,,,ダイユウデンセツ,0
1514,6130001078414,新規,0,2024-11-22,2024-11-22,株式会社エスクラフト,,株式会社,京都府,京都市南区,吉祥院中河原西屋敷町４１番地３,,26,107,6018395,,,,,,,2024-11-22,1,,,,,エスクラフト,0
1524,6140003021346,新規,0,2024-11-22,2024-11-22,合同会社マリネ,,合同会社,兵庫県,神戸市中央区,海岸通４丁目３番１－１２０１号,,28,110,6500024,,,,,,,2024-11-22,1,,,,,マリネ,0
1531,6180001164283,新規,0,2024-11-22,2024-11-22,株式会社ＦＦＦデントクラフト,,株式会社,愛知県,名古屋市東区,古出来２丁目３番１２号,,23,102,4610049,,,,,,,2024-11-22,1,,,,,スリーエフデントクラフト,0
1534,6180003027653,新規,0,2024-11-22,2024-11-22,ディアライドソリューションズ合同会社,,合同会社,愛知県,瀬戸市,中水野町２丁目１７８番,,23,204,4890005,,,,,,,2024-11-22,1,,,,,ディアライドソリューションズ,0
1545,6200001043162,新規,0,2024-11-22,2024-11-22,ＦＴＪ株式会社,,株式会社,岐阜県,岐阜市,雲雀ケ丘３番地３,,21,201,5008378,,,,,,,2024-11-22,1,,,,,エフティジェイ,0
1547,6210003001860,新規,0,2024-11-22,2024-11-22,ＡＫＡＮＥ合同会社,,合同会社,福井県,坂井市,丸岡町一本田第２７号６番地３,,18,210,9100254,,,,,,,2024-11-22,1,,,,,アカネ,0
1553,6250003003597,新規,0,2024-11-22,2024-11-22,合同会社四つ葉事務所,,合同会社,山口県,山口市,吉敷赤田２丁目３番１２号,,35,203,7530817,,,,,,,2024-11-22,1,,,,,ヨツバジムショ,0
1574,6330001032672,新規,0,2024-11-22,2024-11-22,株式会社浅井建設,,株式会社,熊本県,熊本市南区,城南町隈庄７４２番地６,,43,104,8614203,,,,,,,2024-11-22,1,,,,,アサイケンセツ,0
1576,6330003010651,新規,0,2024-11-22,2024-11-22,ＴＳＭＣ合同会社,,合同会社,熊本県,宇土市,本町３丁目２９番地,,43,211,8690431,,,,,,,2024-11-22,1,,,,,ティエスエムシー,0
1584,6360003014476,新規,0,2024-11-22,2024-11-22,合同会社杏重機,,合同会社,沖縄県,糸満市,字喜屋武１６３７番地,,47,210,9010354,,,,,,,2024-11-22,1,,,,,アンジュウキ,0
1585,6360005007131,新規,0,2024-11-22,2024-11-22,一般社団法人キッズベース,,その他の設立登記法人,沖縄県,浦添市,屋富祖２丁目１５番２号,,47,208,9012127,,,,,,,2024-11-22,1,,,,,キッズベース,0
1595,6390003002313,新規,0,2024-11-22,2024-11-22,合同会社Ｋａｎｏｎ,,合同会社,山形県,山形市,蔵王成沢２８９番地１９,,06,201,9902334,,,,,,,2024-11-22,1,,,,,カノン,0
1601,6430003017018,新規,0,2024-11-22,2024-11-22,合同会社白桃商事,,合同会社,北海道,札幌市東区,北二十一条東８丁目４－１２,,01,103,0650021,,,,,,,2024-11-22,1,,,,,ハクトウショウジ,0
1605,6470001020473,新規,0,2024-11-22,2024-11-22,株式会社将栄産業,,株式会社,香川県,丸亀市,川西町北９７７番地１１,,37,202,7630091,,,,,,,2024-11-22,1,,,,,ショウエイサンギョウ,0
1606,6470003002759,新規,0,2024-11-22,2024-11-22,合同会社ムスタファ・ブラザーズ,,合同会社,香川県,東かがわ市,吉田４８９番地３９,,37,207,7692907,,,,,,,2024-11-22,1,,,,,ムスタファブラザーズ,0
1607,6490005006962,新規,0,2024-11-22,2024-11-22,一般社団法人ハピプラ,,その他の設立登記法人,高知県,高知市,神田２１６４番地２１,,39,201,7808040,,,,,,,2024-11-22,1,,,,,,0
1611,6700150127946,新規,0,2024-11-22,2024-11-22,ＷＳＭＰ　ＶＩＩＩ　ＥＥ　ＨＫ　リミテッド,00137071,外国会社等,東京都,港区,虎ノ門２丁目６番１号　虎ノ門ヒルズステーションタワー,,13,103,1050001,中華人民共和国香港特別行政区コーズウェイベイ、３３ハイサンアベニュー、リーガーデンワン１９階１９０１,,,,,,2024-11-22,1,,,,,ダブリユーエスエムピーエイトイーイーエイチケーリミテツド,0
1623,7010001249934,新規,0,2024-11-22,2024-11-22,株式会社Ｃ．Ｏ．Ｗ,,株式会社,東京都,中央区,晴海２丁目３番２,,13,102,1040053,,,,,,,2024-11-22,1,,,,,コウ,0
1625,7010003045522,新規,0,2024-11-22,2024-11-22,合同会社ｓｔｕｄｉｏ　ｗａｄｏｎａ,,合同会社,東京都,千代田区,神田須田町１丁目７番８号ＶＯＲＴ秋葉原ＩＶ２Ｆ,00137103,13,101,1010041,,,,,,,2024-11-22,1,,,,,スタジオワドナ,0
1626,7010003045571,新規,0,2024-11-22,2024-11-22,ＪＲＡＭ合同会社,,合同会社,東京都,千代田区,丸の内１丁目４番１号東京共同会計事務所内,,13,101,1000005,,,,,,,2024-11-22,1,,,,,ジェイアールエイエム,0
1627,7010101016409,新規,0,2024-11-22,2024-11-22,日本三友工業株式会社,,株式会社,東京都,八王子市,堀之内１９２番地３５,,13,201,1920355,,,,,,,2024-11-22,1,,,,,ニホンサンユウコウギョウ,0
1640,7010401186439,新規,0,2024-11-22,2024-11-22,株式会社グランドキリン,,株式会社,東京都,港区,浜松町１丁目３－２－８０４号室,,13,103,1050013,,,,,,,2024-11-22,1,,,,,グランドキリン,0
1641,7010401186587,新規,0,2024-11-22,2024-11-22,株式会社Ｎホールディングス,,株式会社,東京都,港区,虎ノ門１丁目２３番１号ジャフコグループ株式会社内,,13,103,1050001,,,,,,,2024-11-22,1,,,,,エヌホールディングス,0
1642,7010401186595,新規,0,2024-11-22,2024-11-22,株式会社Ｌａ　Ａｌｂａ,,株式会社,東京都,港区,新橋５丁目８番９号山田ビル１Ｆ,,13,103,1050004,,,,,,,2024-11-22,1,,,,,ラアルバ,0
1643,7010401186604,新規,0,2024-11-22,2024-11-22,株式会社ＲＩＴＯＬＩＮＫ,,株式会社,東京都,港区,赤坂２丁目２０番１３－４０２号,,13,103,1070052,,,,,,,2024-11-22,1,,,,,リトリンク,0
1644,7010401186612,新規,0,2024-11-22,2024-11-22,株式会社凛,,株式会社,東京都,港区,六本木３丁目７番１－１４１９号,,13,103,1060032,,,,,,,2024-11-22,1,,,,,リン,0
1645,7010401186629,新規,0,2024-11-22,2024-11-22,ＮＸＴホールディングス株式会社,,株式会社,東京都,港区,六本木１丁目６番１号,,13,103,1060032,,,,,,,2024-11-22,1,,,,,エヌエックスティーホールディングス,0
1650,7010403033837,新規,0,2024-11-22,2024-11-22,ＧＶＳＪ３４合同会社,,合同会社,東京都,港区,六本木３丁目１６番２６号,,13,103,1060032,,,,,,,2024-11-22,1,,,,,ジーブイエスジェイサーティフォー,0
1651,7010403033878,新規,0,2024-11-22,2024-11-22,合同会社Ｍｅｒｉｄｉａｎ,,合同会社,東京都,港区,虎ノ門３丁目２２番１０－２０１号,,13,103,1050001,,,,,,,2024-11-22,1,,,,,メリディアン,0
1653,7010501053191,新規,0,2024-11-22,2024-11-22,日南株式会社,,株式会社,東京都,台東区,竜泉２丁目１１番３号阿川ビル３Ａ,,13,106,1100012,,,,,,,2024-11-22,1,,,,,ニチナン,0
1654,7010505003572,新規,0,2024-11-22,2024-11-22,一般社団法人ＨＣＤ,,その他の設立登記法人,東京都,台東区,柳橋１丁目８番５号ときわビル,,13,106,1110052,,,,,,,2024-11-22,1,,,,,エイチシーディー,0
1656,7010601066300,新規,0,2024-11-22,2024-11-22,株式会社アクセルインベストメント,,株式会社,東京都,江東区,豊洲２丁目５番１号,,13,108,1350061,,,,,,,2024-11-22,1,,,,,アクセルインベストメント,0
1659,7010703007425,新規,0,2024-11-22,2024-11-22,合同会社Ｃｈｅｓｔｎｕｔ　Ｔｉｇｅｒ,,合同会社,東京都,品川区,平塚３丁目６―１、１階奥,,13,109,1420051,,,,,,,2024-11-22,1,,,,,チェストナットタイガー,0
1661,7010801035575,新規,0,2024-11-22,2024-11-22,株式会社ＭＭＭ,,株式会社,東京都,大田区,中馬込３丁目１番３－４０３号,,13,111,1430027,,,,,,,2024-11-22,1,,,,,エムエムエム,0
1662,7010801035583,新規,0,2024-11-22,2024-11-22,株式会社ＣＲＥＷ,,株式会社,東京都,大田区,矢口２丁目１１番２９号Ｙ’ｓ２０１,,13,111,1460093,,,,,,,2024-11-22,1,,,,,クルー,0
1666,7010803005171,新規,0,2024-11-22,2024-11-22,楔合同会社,,合同会社,東京都,大田区,西蒲田７丁目４－３－８０７,,13,111,1440051,,,,,,,2024-11-22,1,,,,,クサビ,0
1674,7011001165948,新規,0,2024-11-22,2024-11-22,株式会社Ｉ‐Ｗｏｒｋ,,株式会社,東京都,渋谷区,渋谷１丁目１５番１５号テラス渋谷美竹,,13,113,1500002,,,,,,,2024-11-22,1,,,,,,0
1678,7011003020481,新規,0,2024-11-22,2024-11-22,合同会社アイメリウス,,合同会社,東京都,渋谷区,恵比寿西１丁目２０番８号コンド恵比寿５０１,,13,113,1500021,,,,,,,2024-11-22,1,,,,,アイメリウス,0
1685,7011103015200,新規,0,2024-11-22,2024-11-22,ＣＳ岐阜垂井ＥＳＳ合同会社,,合同会社,東京都,新宿区,西新宿２丁目１番１号新宿三井ビル４３階,,13,104,1600023,,,,,,,2024-11-22,1,,,,,シーエスギフタルイイーエスエス,0
1686,7011201025935,新規,0,2024-11-22,2024-11-22,株式会社ＴＷＩＣＥ　ＵＰ,,株式会社,東京都,中野区,南台４丁目２７‐１８,,13,114,1640014,,,,,,,2024-11-22,1,,,,,トゥワイスアップ,0
1687,7011201025943,新規,0,2024-11-22,2024-11-22,株式会社ＥＮＴＯＹ,,株式会社,東京都,中野区,上鷺宮３丁目６番２６－１０１号,,13,114,1650031,,,,,,,2024-11-22,1,,,,,エントイ,0
1692,7011501031385,新規,0,2024-11-22,2024-11-22,株式会社ワイフーズ,,株式会社,東京都,荒川区,荒川８丁目１４番７号,,13,118,1160002,,,,,,,2024-11-22,1,,,,,ワイフーズ,0
1693,7011601028224,新規,0,2024-11-22,2024-11-22,酒井設備株式会社,,株式会社,東京都,練馬区,西大泉５丁目１８番１１号,,13,120,1780065,,,,,,,2024-11-22,1,,,,,サカイセツビ,0
1700,7011803006564,新規,0,2024-11-22,2024-11-22,合同会社ルリアン,,合同会社,東京都,足立区,一ツ家３丁目１３番８号コートグランディア一ツ家４０４,,13,121,1210075,,,,,,,2024-11-22,1,,,,,ルリアン,0
1711,7020001160248,新規,0,2024-11-22,2024-11-22,株式会社ベルクレール,,株式会社,神奈川県,川崎市多摩区,宿河原２丁目２６番２２号,,14,135,2140021,,,,,,,2024-11-22,1,,,,,ベルクレール,0
1712,7020001160256,新規,0,2024-11-22,2024-11-22,株式会社橋内庭園設計,,株式会社,神奈川県,横浜市神奈川区,西寺尾３丁目２８番３６号,,14,102,2210001,,,,,,,2024-11-22,1,,,,,ハシウチテイエンセッケイ,0
1713,7020001160272,新規,0,2024-11-22,2024-11-22,あがた通信株式会社,,株式会社,神奈川県,川崎市中原区,丸子通２丁目４５５番地８サニークレスト２０１,,14,133,2110006,,,,,,,2024-11-22,1,,,,,アガタツウシン,0
1714,7020001160347,新規,0,2024-11-22,2024-11-22,グローイング株式会社,,株式会社,神奈川県,横浜市港北区,大倉山２丁目１番１０－２０８号,,14,109,2220037,,,,,,,2024-11-22,1,,,,,グローイング,0
1718,7020003027305,新規,0,2024-11-22,2024-11-22,合同会社ＳＷＡＩＤ,,合同会社,神奈川県,横浜市西区,浅間町１丁目４番３号ウィザードビル４０２,,14,103,2200072,,,,,,,2024-11-22,1,,,,,スウェイド,0
1719,7020003027321,新規,0,2024-11-22,2024-11-22,ブルーヘン合同会社,,合同会社,神奈川県,横浜市西区,北幸２丁目１０番４８号むつみビル３階,,14,103,2200004,,,,,,,2024-11-22,1,,,,,ブルーヘン,0
1722,7021001083819,新規,0,2024-11-22,2024-11-22,株式会社ＲＯＡＤＳＴＥＲ,,株式会社,神奈川県,茅ヶ崎市,新栄町７番５号ＣｈｉｇａｓａｋｉＢｉｚ－ｎａｚ３Ｆ,,14,207,2530044,,,,,,,2024-11-22,1,,,,,ロードスター,0
1723,7021001083827,新規,0,2024-11-22,2024-11-22,ガレージグリーン株式会社,,株式会社,神奈川県,平塚市,横内７６２番地の５,,14,203,2540002,,,,,,,2024-11-22,1,,,,,ガレージグリーン,0
1727,7021003015266,新規,0,2024-11-22,2024-11-22,合同会社ノット,,合同会社,神奈川県,藤沢市,遠藤７３７番地の１５,,14,205,2520816,,,,,,,2024-11-22,1,,,,,ノット,0
1737,7030003025530,新規,0,2024-11-22,2024-11-22,合同会社もみたんカンパニー,,合同会社,埼玉県,川越市,大字鯨井新田１６番地１６アクトタウンＲ１０２,,11,201,3500809,,,,,,,2024-11-22,1,,,,,モミタンカンパニー,0
1739,7040001136270,新規,0,2024-11-22,2024-11-22,株式会社天ぷらたまの会,,株式会社,千葉県,柏市,十余二２７６番地の２０３,,12,217,2770872,,,,,,,2024-11-22,1,,,,,テンプラタマノカイ,0
1740,7040003026239,新規,0,2024-11-22,2024-11-22,合同会社光商業開発,,合同会社,千葉県,我孫子市,泉２番７－５１６号,,12,222,2701142,,,,,,,2024-11-22,1,,,,,ヒカリショウギョウカイハツ,0
1741,7040003026247,新規,0,2024-11-22,2024-11-22,合同会社Ｋｕｒｙｕ,,合同会社,千葉県,船橋市,西船１丁目１９番２２号さくらハイツＢ－２０１号,,12,204,2730031,,,,,,,2024-11-22,1,,,,,クリュウ,0
1747,7050005013523,新規,0,2024-11-22,2024-11-22,一般社団法人幸泉衆,,その他の設立登記法人,茨城県,笠間市,吉岡１５４番地,,08,216,3190203,,,,,,,2024-11-22,1,,,,,コウセンシュウ,0
1748,7060001037673,新規,0,2024-11-22,2024-11-22,創誠工業株式会社,,株式会社,栃木県,さくら市,上阿久津１３番地４,,09,214,3291316,,,,,,,2024-11-22,1,,,,,ソウセイコウギョウ,0
1752,7080001026617,新規,0,2024-11-22,2024-11-22,株式会社ＡＬＰＨＡ,,株式会社,静岡県,静岡市駿河区,石田１丁目１７番２０号ハイコーポＡＣ２－Ａ,,22,102,4228042,,,,,,,2024-11-22,1,,,,,アルファ,0
1773,7120001270326,新規,0,2024-11-22,2024-11-22,美新株式会社,,株式会社,大阪府,大阪市北区,天神橋１丁目７番５号５０３号室,,27,127,5300041,,,,,,,2024-11-22,1,,,,,ミシン,0
1774,7120001270482,新規,0,2024-11-22,2024-11-22,＿鵬株式会社,00137105,株式会社,大阪府,大阪市西成区,萩之茶屋１丁目１２－７,,27,122,5570004,,,,,,,2024-11-22,1,,,,,コンホウ,0
1775,7120001270499,新規,0,2024-11-22,2024-11-22,チュンチュントリカ株式会社,,株式会社,大阪府,大阪市西区,靱本町２丁目５番１７－４０１号,,27,106,5500004,,,,,,,2024-11-22,1,,,,,チュンチュントリカ,0
1776,7120001270516,新規,0,2024-11-22,2024-11-22,わだち物産株式会社,,株式会社,大阪府,大阪市中央区,南本町２丁目４番１６号本町デビスビル７階,,27,128,5410054,,,,,,,2024-11-22,1,,,,,ワダチブッサン,0
1777,7120001270524,新規,0,2024-11-22,2024-11-22,株式会社ＬＩＮＤＡ,,株式会社,大阪府,大阪市港区,波除３丁目９番８号,,27,107,5520001,,,,,,,2024-11-22,1,,,,,リンダ,0
1778,7120001270532,新規,0,2024-11-22,2024-11-22,株式会社ｍｏｃａｍｏｃａ,,株式会社,大阪府,大阪市中央区,南船場３丁目２番２２号,,27,128,5420081,,,,,,,2024-11-22,1,,,,,モカモカ,0
1781,7120003028020,新規,0,2024-11-22,2024-11-22,合同会社ウェルフェアハート,,合同会社,大阪府,大阪市北区,天満２丁目３番５号山本ビル２０２号,,27,127,5300043,,,,,,,2024-11-22,1,,,,,ウェルフェアハート,0
1782,7120103006157,新規,0,2024-11-22,2024-11-22,合同会社ジッコク,,合同会社,大阪府,泉南市,信達市場１１６－１０２,,27,228,5900504,,,,,,,2024-11-22,1,,,,,ジッコク,0
1784,7120901050067,新規,0,2024-11-22,2024-11-22,株式会社日興サービス,,株式会社,大阪府,茨木市,西駅前町１０－１０茨木グランドハイツ４１３号,,27,211,5670032,,,,,,,2024-11-22,1,,,,,ニッコウサービス,0
1785,7120903005432,新規,0,2024-11-22,2024-11-22,合同会社Ｃｏｍｏｓ,,合同会社,大阪府,豊中市,野田町６－１プリムール５０５,,27,203,5610855,,,,,,,2024-11-22,1,,,,,コモズ,0
1786,7122001038678,新規,0,2024-11-22,2024-11-22,オーテック株式会社,,株式会社,大阪府,東大阪市,源氏ケ丘１８番６号,,27,227,5770822,,,,,,,2024-11-22,1,,,,,オーテック,0
1789,7140001136500,新規,0,2024-11-22,2024-11-22,株式会社Ｊ・ｆａｃｔｏｒｙ淡路屋,,株式会社,兵庫県,淡路市,久留麻１７９９番地１１,,28,226,6562311,,,,,,,2024-11-22,1,,,,,ジェイファクトリーアワジヤ,0
1790,7140001136517,新規,0,2024-11-22,2024-11-22,株式会社ＨＩＮＡ,,株式会社,兵庫県,西宮市,上田東町４番１１－４号,,28,204,6638133,,,,,,,2024-11-22,1,,,,,ヒナ,0
1794,7140003021345,新規,0,2024-11-22,2024-11-22,合同会社ＥＧＧ　ＢＲＡＩＮ,,合同会社,兵庫県,神戸市中央区,坂口通５丁目１番４－２０２号,,28,110,6510062,,,,,,,2024-11-22,1,,,,,エッグブレイン,0
1802,7180001164258,新規,0,2024-11-22,2024-11-22,ＷＩＬＬ株式会社,,株式会社,愛知県,名古屋市中村区,名駅３丁目２０番２０号名駅錦ビル６Ｆ,,23,105,4500002,,,,,,,2024-11-22,1,,,,,ウィル,0
1803,7180001164266,新規,0,2024-11-22,2024-11-22,ＭＡＨＭＯＯＤ　ＭＡＬＩＫ　ＴＲＡＤＩＮＧ株式会社,,株式会社,愛知県,名古屋市港区,船頭場５丁目４２８番地,,23,111,4550881,,,,,,,2024-11-22,1,,,,,マハムードマリックトレーディング,0
1804,7180001164308,新規,0,2024-11-22,2024-11-22,錦嘉国際株式会社,,株式会社,愛知県,名古屋市中区,新栄１丁目１２番３２号,,23,106,4600007,,,,,,,2024-11-22,1,,,,,キンカコクサイ,0
1808,7180003027652,新規,0,2024-11-22,2024-11-22,合同会社わっか,,合同会社,愛知県,津島市,薬師町３９番１２号,,23,208,4960844,,,,,,,2024-11-22,1,,,,,ワッカ,0
1816,7190001031820,新規,0,2024-11-22,2024-11-22,株式会社ハナミチ,,株式会社,三重県,員弁郡東員町,大字南大社１２４９番地１,,24,324,5110256,,,,,,,2024-11-22,1,,,,,ハナミチ,0
1823,7200003006595,新規,0,2024-11-22,2024-11-22,合同会社Ｙ’ｓ,,合同会社,岐阜県,岐阜市,則武中３丁目５番２,,21,201,5020932,,,,,,,2024-11-22,1,,,,,ワイズ,0
1825,7220001026354,新規,0,2024-11-22,2024-11-22,株式会社ハニービースポーツ,,株式会社,石川県,金沢市,広岡２丁目１２番６号,,17,201,9200031,,,,,,,2024-11-22,1,,,,,ハニービースポーツ,0
1826,7230001020629,新規,0,2024-11-22,2024-11-22,株式会社セブンフーズ,,株式会社,富山県,富山市,新根塚町２丁目８番２号,,16,201,9398205,,,,,,,2024-11-22,1,,,,,セブンフーズ,0
1832,7240002039642,新規,0,2024-11-22,2024-11-22,有限会社エヌズカンパニー,,有限会社,広島県,福山市,手城町４丁目１０番２８－５号,,34,207,7210966,,,,,,,2024-11-22,1,,,,,エヌズカンパニー,0
1833,7240003006947,新規,0,2024-11-22,2024-11-22,合同会社三太東,,合同会社,広島県,世羅郡世羅町,大字本郷９２番地,,34,462,7221112,,,,,,,2024-11-22,1,,,,,サンタヒガシ,0
1835,7250001020916,新規,0,2024-11-22,2024-11-22,エデュ・プラン株式会社,,株式会社,山口県,周南市,泉原町４番２８号,,35,215,7450833,,,,,,,2024-11-22,1,,,,,エデュプラン,0
1839,7260001039658,新規,0,2024-11-22,2024-11-22,株式会社ルーフライン,,株式会社,岡山県,岡山市南区,豊成３丁目１９番１７号,,33,104,7000942,,,,,,,2024-11-22,1,,,,,ルーフライン,0
1844,7280001009295,新規,0,2024-11-22,2024-11-22,株式会社Ｌｉａｎｇｅ,,株式会社,島根県,松江市,袖師町４番８－８０１号,,32,201,6900049,,,,,,,2024-11-22,1,,,,,リアンジュ,0
1857,7320001020818,新規,0,2024-11-22,2024-11-22,ＵＬホールディングス株式会社,,株式会社,大分県,臼杵市,大字福良１７６６番地の１,,44,206,8750053,,,,,,,2024-11-22,1,,,,,ユーエルホールディングス,0
1861,7330003010650,新規,0,2024-11-22,2024-11-22,合同会社ＣＯＣＯＲＯメディカルサポート,,合同会社,熊本県,熊本市中央区,京町本丁６番４６号京町ヒルズ３０１号室,,43,101,8600081,,,,,,,2024-11-22,1,,,,,ココロメディカルサポート,0
1862,7340001026953,新規,0,2024-11-22,2024-11-22,株式会社ＴＮＳ,,株式会社,鹿児島県,姶良市,西餅田７１番地１７,,46,225,8995431,,,,,,,2024-11-22,1,,,,,ティーエヌエス,0
1868,7360001034450,新規,0,2024-11-22,2024-11-22,株式会社ＲｉｓｅＵＰ,,株式会社,沖縄県,那覇市,辻１丁目１６番９－８０２号サングリーンマンション,00137122,47,201,9000037,,,,,,,2024-11-22,1,,,,,ライズアップ,0
1869,7370001051965,新規,0,2024-11-22,2024-11-22,潜技工業株式会社,,株式会社,宮城県,名取市,下増田字広浦１８４番地の４,,04,207,9811201,,,,,,,2024-11-22,1,,,,,センギコウギョウ,0
1875,7420001018934,新規,0,2024-11-22,2024-11-22,株式会社Ｒ．Ｓ．Ｃ,,株式会社,青森県,青森市,筒井４丁目９－１８,,02,201,0300944,,,,,,,2024-11-22,1,,,,,アールエスシー,0
1883,7430001093126,新規,0,2024-11-22,2024-11-22,株式会社カヴァティーナ,,株式会社,北海道,札幌市西区,琴似一条４丁目２番１４号,,01,107,0630811,,,,,,,2024-11-22,1,,,,,カヴァティーナ,0
1893,7700150127945,新規,0,2024-11-22,2024-11-22,Ｉｍｐｌｕｓ　ＥＵ,,外国会社等,東京都,港区,赤坂２丁目２３番１号アークヒルズフロントタワーＲｏＰ８０６号,,13,103,1070052,フランス共和国７８５２０、リメー、ヴァル通り６,,,,,,2024-11-22,1,,,,,インプラスイーユー,0
1909,8010003045554,新規,0,2024-11-22,2024-11-22,Ｃｈｉｂａｋｉｔａ合同会社,,合同会社,東京都,中央区,京橋２丁目１２番６号ＡＯＪ税理士法人内,,13,102,1040031,,,,,,,2024-11-22,1,,,,,チバキタ,0
1910,8010003045562,新規,0,2024-11-22,2024-11-22,合同会社芳尾,,合同会社,東京都,中央区,築地３丁目７－２第五銀座ウエスト築地ビル１階,,13,102,1040045,,,,,,,2024-11-22,1,,,,,ヨシオ,0
1911,8010003045570,新規,0,2024-11-22,2024-11-22,エス・エー・ケー・ワン・ホールディング合同会社,,合同会社,東京都,千代田区,丸の内１丁目４番１号東京共同会計事務所内,,13,101,1000005,,,,,,,2024-11-22,1,,,,,エスエーケーワンホールディング,0
1914,8010005039158,新規,0,2024-11-22,2024-11-22,一般社団法人Ｗａｃｏｆｕｌ,,その他の設立登記法人,東京都,千代田区,九段南１丁目５番６号りそな九段ビル５Ｆ,,13,101,1020074,,,,,,,2024-11-22,1,,,,,ワコフル,0
1927,8010403033836,新規,0,2024-11-22,2024-11-22,ＧＶＳＪ３３合同会社,,合同会社,東京都,港区,六本木３丁目１６番２６号,,13,103,1060032,,,,,,,2024-11-22,1,,,,,ジーブイエスジェイサーティスリー,0
1928,8010403033877,新規,0,2024-11-22,2024-11-22,合同会社Ｄｏｎａｕ,,合同会社,東京都,港区,虎ノ門３丁目２２番１０－２０１号,,13,103,1050001,,,,,,,2024-11-22,1,,,,,ドナウ,0
1930,8010405023827,新規,0,2024-11-22,2024-11-22,一般社団法人ＴＳＭ１６８,,その他の設立登記法人,東京都,港区,元赤坂１丁目１番７号,,13,103,1070051,,,,,,,2024-11-22,1,,,,,ティーエスエムヒャクロクジュウハチ,0
1933,8010601066308,新規,0,2024-11-22,2024-11-22,株式会社豊洲冷蔵,,株式会社,東京都,江東区,豊洲６丁目６番２号,,13,108,1350061,,,,,,,2024-11-22,1,,,,,トヨスレイゾウ,0
1934,8010601066316,新規,0,2024-11-22,2024-11-22,東京国際貿易株式会社,,株式会社,東京都,墨田区,江東橋４丁目２７－１４楽天地ビル３階錦糸町オフィス４１号室,,13,107,1300022,,,,,,,2024-11-22,1,,,,,トウキョウコクサイボウエキ,0
1947,8011001165922,新規,0,2024-11-22,2024-11-22,株式会社Ｈｅｌｐｆｕｌ,,株式会社,東京都,目黒区,青葉台４丁目４番１２号ＴＨＥ・Ｎ３・３０６,,13,110,1530042,,,,,,,2024-11-22,1,,,,,ヘルプフル,0
1948,8011001165947,新規,0,2024-11-22,2024-11-22,ＩＮＶＥＮ株式会社,,株式会社,東京都,渋谷区,代々木５丁目３６番５－２０３号オープンレジデンシア代々木公園,,13,113,1510053,,,,,,,2024-11-22,1,,,,,インベン,0
1956,8011501031392,新規,0,2024-11-22,2024-11-22,株式会社ＦｅｅｌＳｅｎｓｉｎｇ,,株式会社,東京都,北区,赤羽西２丁目１０－４,,13,117,1150055,,,,,,,2024-11-22,1,,,,,フィールセンシング,0
1958,8011503006302,新規,0,2024-11-22,2024-11-22,ミライシャイン合同会社,,合同会社,東京都,北区,浮間３丁目６番１３－６０５号,,13,117,1150051,,,,,,,2024-11-22,1,,,,,ミライシャイン,0
1959,8011701027843,新規,0,2024-11-22,2024-11-22,株式会社Ｓｏｕｔｈ　Ｗａｖｅ,,株式会社,東京都,江戸川区,南小岩３丁目５－１０水上ビル２０２号室,,13,123,1330056,,,,,,,2024-11-22,1,,,,,サウスウェーブ,0
1972,8012801023575,新規,0,2024-11-22,2024-11-22,株式会社ｍｕｓｕｂｉ　ｗｏｒｋｓ,,株式会社,東京都,東大和市,中央２丁目８３４番地の５,,13,220,2070015,,,,,,,2024-11-22,1,,,,,,0
1981,8020001160247,新規,0,2024-11-22,2024-11-22,株式会社アースサービス,,株式会社,神奈川県,横浜市港北区,樽町３丁目７－５３ナイスベルクール横濱綱島７１０号室,,14,109,2220001,,,,,,,2024-11-22,1,,,,,アースサービス,0
1986,8020003027304,新規,0,2024-11-22,2024-11-22,Ｎ‐Ｍｏｌｄ　Ｄｅｓｉｇｎ合同会社,,合同会社,神奈川県,川崎市多摩区,登戸新町１０９番地５,,14,135,2140013,,,,,,,2024-11-22,1,,,,,エヌモールドデザイン,0
1989,8021001083826,新規,0,2024-11-22,2024-11-22,株式会社テクノゼン,,株式会社,神奈川県,藤沢市,辻堂元町１丁目１１番１～５号,,14,205,2510043,,,,,,,2024-11-22,1,,,,,テクノゼン,0
1990,8021003015224,新規,0,2024-11-22,2024-11-22,合同会社ｏｎｅ　ｓｔｏｐ．,,合同会社,神奈川県,大和市,柳橋５丁目７－２オークスビレッヂＡ１０２,,14,213,2420022,,,,,,,2024-11-22,1,,,,,ワンストップドット,0
1991,8021003015265,新規,0,2024-11-22,2024-11-22,合同会社ハッピーケア,,合同会社,神奈川県,相模原市中央区,氷川町９番１２号,,14,152,2520215,,,,,,,2024-11-22,1,,,,,ハッピーケア,0
1998,8030001163570,新規,0,2024-11-22,2024-11-22,株式会社ＨＩＫＯＮＯ,,株式会社,埼玉県,三郷市,彦野１丁目１０５番地３,,11,237,3410052,,,,,,,2024-11-22,1,,,,,ヒコノ,0
1999,8030001163587,新規,0,2024-11-22,2024-11-22,ＳＴＧ株式会社,,株式会社,埼玉県,さいたま市大宮区,仲町１丁目１０８東通ビル１階,,11,103,3300845,,,,,,,2024-11-22,1,,,,,エスティージー,0
2013,8040001136212,新規,0,2024-11-22,2024-11-22,峰川工業株式会社,,株式会社,千葉県,船橋市,大神保町１３５３－７,,12,204,2740082,,,,,,,2024-11-22,1,,,,,ミネガワコウギョウ,0
2015,8040003026246,新規,0,2024-11-22,2024-11-22,合同会社ｏｈａｎａ,,合同会社,千葉県,船橋市,西船１丁目２１番１６号レジデンスｏｈａｎａ－３０１号,,12,204,2730031,,,,,,,2024-11-22,1,,,,,オハナ,0
2018,8050003008821,新規,0,2024-11-22,2024-11-22,合同会社川村農園,,合同会社,茨城県,稲敷郡河内町,小林町歩４２番地,,08,447,3001334,,,,,,,2024-11-22,1,,,,,カワムラノウエン,0
2026,8090001019016,新規,0,2024-11-22,2024-11-22,株式会社Ｄｅｅｋｏｎｇ,,株式会社,山梨県,笛吹市,石和町中川１５５８番地１,,19,211,4060026,,,,,,,2024-11-22,1,,,,,ディーコング,0
2035,8120001270481,新規,0,2024-11-22,2024-11-22,株式会社ＳＲＣ,,株式会社,大阪府,大阪市西区,北堀江１丁目１番７号四ツ橋日生ビル２０８号,,27,106,5500014,,,,,,,2024-11-22,1,,,,,エスアールシー,0
2036,8120001270498,新規,0,2024-11-22,2024-11-22,株式会社ゴールデンゲームズ,,株式会社,大阪府,大阪市都島区,都島南通１丁目１９番１０－２０１,,27,102,5340023,,,,,,,2024-11-22,1,,,,,ゴールデンゲームズ,0
2039,8120003028011,新規,0,2024-11-22,2024-11-22,合同会社森の宮,,合同会社,大阪府,大阪市東成区,中道２丁目２４番１７号,,27,115,5370025,,,,,,,2024-11-22,1,,,,,モリノミヤ,0
2049,8122003003043,新規,0,2024-11-22,2024-11-22,合同会社金本商事,,合同会社,大阪府,東大阪市,鴻池町２丁目１番６－４０２号,,27,227,5780972,,,,,,,2024-11-22,1,,,,,カネモトショウジ,0
2051,8130001078412,新規,0,2024-11-22,2024-11-22,株式会社メラキ,,株式会社,京都府,京田辺市,興戸塚ノ本３５番地２６,00137119,26,211,6100332,,,,,,,2024-11-22,1,,,,,メラキ,0
2053,8130005017242,新規,0,2024-11-22,2024-11-22,一般社団法人ＩＣＣ　Ｊａｐａｎ,,その他の設立登記法人,京都府,京都市右京区,西院小米町２３番地１,,26,108,6150067,,,,,,,2024-11-22,1,,,,,アイシーシージャパン,0
2059,8140001136499,新規,0,2024-11-22,2024-11-22,株式会社成之藤,,株式会社,兵庫県,芦屋市,涼風町１３番２２号,,28,206,6590036,,,,,,,2024-11-22,1,,,,,ナルノフジ,0
2060,8140001136516,新規,0,2024-11-22,2024-11-22,株式会社レッドブラック,,株式会社,兵庫県,神戸市北区,有野町二郎１００番地の１,,28,109,6511311,,,,,,,2024-11-22,1,,,,,レッドブラック,0
2077,8180001164273,新規,0,2024-11-22,2024-11-22,株式会社モンターニュブル,,株式会社,愛知県,春日井市,八田町７丁目６番地１９,,23,206,4860849,,,,,,,2024-11-22,1,,,,,モンターニュブル,0
2078,8180001164298,新規,0,2024-11-22,2024-11-22,株式会社Ｋ．Ｉ．Ｃ,,株式会社,愛知県,名古屋市守山区,苗代１丁目６番２０号,,23,113,4630046,,,,,,,2024-11-22,1,,,,,ケイアイシー,0
2092,8190005011999,新規,0,2024-11-22,2024-11-22,医療法人ＳＵＮＲＩＳＥあさひクリニック,,その他の設立登記法人,三重県,三重郡朝日町,向陽台２丁目１６番地２,,24,343,5108105,,,,,,,2024-11-22,1,,,,,サンライズアサヒクリニック,0
2095,8230001020628,新規,0,2024-11-22,2024-11-22,ＡＬＩ　ＡＵＴＯ　ＪＡＰＡＮ株式会社,,株式会社,富山県,射水市,小杉白石２６６番地,,16,211,9390304,,,,,,,2024-11-22,1,,,,,アリオートジャパン,0
2100,8250001020907,新規,0,2024-11-22,2024-11-22,株式会社さきちとよ,,株式会社,山口県,岩国市,川下町１丁目１１－２,,35,208,7400023,,,,,,,2024-11-22,1,,,,,サキチトヨ,0
2101,8250001020915,新規,0,2024-11-22,2024-11-22,株式会社ＳＫＹ,,株式会社,山口県,周南市,青山町７番２０号,,35,215,7450842,,,,,,,2024-11-22,1,,,,,スカイ,0
2106,8260001039657,新規,0,2024-11-22,2024-11-22,株式会社スカイ・アイ,,株式会社,岡山県,岡山市南区,豊成３丁目１９番１７号,,33,104,7000942,,,,,,,2024-11-22,1,,,,,スカイアイ,0
2107,8260001039665,新規,0,2024-11-22,2024-11-22,株式会社Ｓｐｅｃｔｒｕｍ,,株式会社,岡山県,岡山市北区,宿本町９番１２－３号,,33,101,7000002,,,,,,,2024-11-22,1,,,,,スペクトラム,0
2117,8290801031059,新規,0,2024-11-22,2024-11-22,生活工舎株式会社,,株式会社,福岡県,遠賀郡遠賀町,大字広渡１５８４番地の５,,40,384,8114302,,,,,,,2024-11-22,1,,,,,セイカツコウシャ,0
2120,8300001013987,新規,0,2024-11-22,2024-11-22,株式会社ＳＵＭＩＤＡ,,株式会社,佐賀県,佐賀市,駅前中央１丁目１１番２０号,,41,201,8400801,,,,,,,2024-11-22,1,,,,,スミダ,0
2125,8320001020817,新規,0,2024-11-22,2024-11-22,株式会社Ｍ・Ｙ,,株式会社,大分県,別府市,大字鶴見４５４７番地の１５,,44,202,8740840,,,,,,,2024-11-22,1,,,,,エムワイ,0
2126,8320003004520,新規,0,2024-11-22,2024-11-22,合同会社クレスト,,合同会社,大分県,大分市,大字荏隈１３１６番地の６,,44,201,8700889,,,,,,,2024-11-22,1,,,,,クレスト,0
2133,8360001034458,新規,0,2024-11-22,2024-11-22,株式会社Ｈａｐｐｙ　Ｏｃｅａｎ,,株式会社,沖縄県,中頭郡北中城村,字喜舎場８番地Ｂ棟,,47,327,9012311,,,,,,,2024-11-22,1,,,,,ハッピーオーシャン,0
2135,8360003014474,新規,0,2024-11-22,2024-11-22,合同会社Ｋ,,合同会社,沖縄県,宜野湾市,真栄原３丁目６－１,,47,205,9012215,,,,,,,2024-11-22,1,,,,,ケイ,0
2145,8390003002311,新規,0,2024-11-22,2024-11-22,合同会社１ｓｔ　ＬＩＮＥ,,合同会社,山形県,山形市,山家町２丁目４番２５号,,06,201,9900063,,,,,,,2024-11-22,1,,,,,ファーストライン,0
2151,8420001018933,新規,0,2024-11-22,2024-11-22,株式会社クリエイテル,,株式会社,青森県,八戸市,南類家２丁目１７番１９号,,02,203,0310004,,,,,,,2024-11-22,1,,,,,クリエイテル,0
2158,8430003017016,新規,0,2024-11-22,2024-11-22,合同会社３ＳＫ,,合同会社,北海道,苫小牧市,末広町３丁目６－１５大東末広ビル６Ｆ　Ｄ,,01,213,0530011,,,,,,,2024-11-22,1,,,,,スリーエスケー,0
2175,9010001250196,新規,0,2024-11-22,2024-11-22,株式会社クオコア,,株式会社,東京都,中央区,晴海５丁目１番９－１２０５号,,13,102,1040053,,,,,,,2024-11-22,1,,,,,クオコア,0
2187,9010401186511,新規,0,2024-11-22,2024-11-22,ＦＰＴスマートクラウドジャパン株式会社,,株式会社,東京都,港区,三田３丁目５番１９号３３階,,13,103,1080073,,,,,,,2024-11-22,1,,,,,エフピーティースマートクラウドジャパン,0
2189,9010403033835,新規,0,2024-11-22,2024-11-22,ＧＶＳＪ３２合同会社,,合同会社,東京都,港区,六本木３丁目１６番２６号,,13,103,1060032,,,,,,,2024-11-22,1,,,,,ジーブイエスジェイサーティトゥー,0
2190,9010403033843,新規,0,2024-11-22,2024-11-22,ＧＶＳＪ４０合同会社,,合同会社,東京都,港区,六本木３丁目１６番２６号,,13,103,1060032,,,,,,,2024-11-22,1,,,,,ジーブイエスジェイフォーティ,0
2191,9010403033884,新規,0,2024-11-22,2024-11-22,合同会社ＴＳＭ１６８,,合同会社,東京都,港区,元赤坂１丁目１番７号,,13,103,1070051,,,,,,,2024-11-22,1,,,,,ティーエスエムヒャクロクジュウハチ,0
2192,9010405023768,新規,0,2024-11-22,2024-11-22,一般社団法人日本カスタマーサクセス協会,,その他の設立登記法人,東京都,港区,東新橋１丁目５番２号,,13,103,1050021,,,,,,,2024-11-22,1,,,,,ニホンカスタマーサクセスキョウカイ,0
2210,9011001165938,新規,0,2024-11-22,2024-11-22,株式会社ノーヴェライフデザイン,,株式会社,東京都,目黒区,下目黒１丁目１番１４号コノトラビル７階,,13,110,1530064,,,,,,,2024-11-22,1,,,,,ノーヴェライフデザイン,0
2211,9011001165954,新規,0,2024-11-22,2024-11-22,株式会社アケホノ,,株式会社,東京都,渋谷区,神南１丁目１１－４ＦＰＧリンクス神南５階,,13,113,1500041,,,,,,,2024-11-22,1,,,,,アケホノ,0
2215,9011003020422,新規,0,2024-11-22,2024-11-22,合同会社Ｂｅａｔｒｉｘ,,合同会社,東京都,目黒区,中目黒４丁目８番８－３０６号,,13,110,1530061,,,,,,,2024-11-22,1,,,,,ベアトリクス,0
2216,9011003020471,新規,0,2024-11-22,2024-11-22,合同会社シンクメトリクス,,合同会社,東京都,渋谷区,道玄坂１丁目１０番８号渋谷道玄坂東急ビル２Ｆ‐Ｃ,,13,113,1500043,,,,,,,2024-11-22,1,,,,,シンクメトリクス,0
2219,9011101109670,新規,0,2024-11-22,2024-11-22,株式会社エクシジション,,株式会社,東京都,新宿区,西新宿３丁目３番１３号西新宿水間ビル６階,,13,104,1600023,,,,,,,2024-11-22,1,,,,,エクシジション,0
2223,9011301030172,新規,0,2024-11-22,2024-11-22,戦略駆動株式会社,,株式会社,東京都,杉並区,浜田山４丁目２０番１２号パークホームズ浜田山四丁目２０９,,13,115,1680065,,,,,,,2024-11-22,1,,,,,センリャククドウ,0
2227,9011603004519,新規,0,2024-11-22,2024-11-22,Ｙ’ｓ　Ｌｅａ合同会社,,合同会社,東京都,練馬区,田柄５丁目１１番１２号メゾンＤＳ３０１号,,13,120,1790073,,,,,,,2024-11-22,1,,,,,ワイズリー,0
2228,9011701027834,新規,0,2024-11-22,2024-11-22,麦其株式会社,,株式会社,東京都,江戸川区,南小岩３丁目１－１４プランドールＭ１２０室,,13,123,1330056,,,,,,,2024-11-22,1,,,,,ムギキ,0
2229,9011701027842,新規,0,2024-11-22,2024-11-22,ＢＩＴＲＯＮＩＣＳ株式会社,,株式会社,東京都,江戸川区,松江２丁目３６番１０号,,13,123,1320025,,,,,,,2024-11-22,1,,,,,ビトロニクズ,0
2232,9011801045199,新規,0,2024-11-22,2024-11-22,株式会社エストレード,,株式会社,東京都,足立区,千住曙町４１番２号,00137106,13,121,1200023,,,,,,,2024-11-22,1,,,,,エストレード,0
2239,9013301053401,新規,0,2024-11-22,2024-11-22,株式会社ＮＯＡ,,株式会社,東京都,豊島区,上池袋４丁目９番８号グランドメゾン上池袋１０４,,13,116,1700012,,,,,,,2024-11-22,1,,,,,ノア,0
2250,9020001160246,新規,0,2024-11-22,2024-11-22,株式会社トーヨー,,株式会社,神奈川県,川崎市多摩区,東生田１丁目１７番２４号,,14,135,2140031,,,,,,,2024-11-22,1,,,,,トーヨー,0
2251,9020001160287,新規,0,2024-11-22,2024-11-22,株式会社アイレクスコミュニティ,,株式会社,神奈川県,横浜市西区,岡野１丁目１３番１１号,,14,103,2200073,,,,,,,2024-11-22,1,,,,,アイレクスコミュニティ,0
2257,9020003027311,新規,0,2024-11-22,2024-11-22,合同会社スマイルコンフォート,,合同会社,神奈川県,横浜市神奈川区,六角橋４丁目２３－８フロール横浜三ツ沢２番館４０７号,,14,102,2210802,,,,,,,2024-11-22,1,,,,,スマイルコンフォート,0
2267,9030001163586,新規,0,2024-11-22,2024-11-22,ＲＰＧ株式会社,,株式会社,埼玉県,さいたま市大宮区,仲町１丁目９４もりくま３ビル２階,,11,103,3300845,,,,,,,2024-11-22,1,,,,,アールピージー,0
2274,9040001136269,新規,0,2024-11-22,2024-11-22,株式会社Ｙａｍａｔｏ,,株式会社,千葉県,木更津市,真舟２丁目１１番２４－Ｂ１０２号,,12,206,2920802,,,,,,,2024-11-22,1,,,,,ヤマト,0
2275,9040001136277,新規,0,2024-11-22,2024-11-22,株式会社ＴＡＫＥ,,株式会社,千葉県,船橋市,旭町２丁目６番１９号,,12,204,2730041,,,,,,,2024-11-22,1,,,,,タケ,0
2279,9040003026229,新規,0,2024-11-22,2024-11-22,ＹＯＵＳＡＦ　ＩＮＴＥＲＮＡＴＩＯＮＡＬ合同会社,,合同会社,千葉県,君津市,人見１０５５番地１４人見シーサイドハイツＢ棟３０８号室,,12,225,2991147,,,,,,,2024-11-22,1,,,,,ユウサフインターナショナル,0
2282,9040005022572,新規,0,2024-11-22,2024-11-22,一般社団法人いきいきライフ協会かしわ,,その他の設立登記法人,千葉県,柏市,あけぼの１丁目８番２０号エイム柏１０７,,12,217,2770841,,,,,,,2024-11-22,1,,,,,イキイキライフキョウカイカシワ,0
2297,9080001026615,新規,0,2024-11-22,2024-11-22,株式会社ＳｕｓｔａｉｎａｂｌｅＢＬＡＮＫ,,株式会社,静岡県,島田市,福用９９番地の１,,22,209,4280002,,,,,,,2024-11-22,1,,,,,サステイナブルブランク,0
2309,9100003007882,新規,0,2024-11-22,2024-11-22,合同会社百生,,合同会社,長野県,南佐久郡北相木村,１１６４－１,,20,307,3841201,,,,,,,2024-11-22,1,,,,,ヒャクセイ,0
2310,9110001038854,新規,0,2024-11-22,2024-11-22,Ｉ＆Ｉ株式会社,,株式会社,新潟県,上越市,名立区田野上１０６８番地,,15,222,9491609,,,,,,,2024-11-22,1,,,,,アイアンドアイ,0
2317,9120001269614,新規,0,2024-11-22,2024-11-22,株式会社レッドウィングテクノロジー,,株式会社,大阪府,大阪市淀川区,西三国１丁目２－４５,,27,123,5320006,,,,,,,2024-11-22,1,,,,,レッドウィングテクノロジー,0
2318,9120001270299,新規,0,2024-11-22,2024-11-22,トータルケア株式会社,,株式会社,大阪府,大阪市淀川区,十八条１丁目１１番１６号,,27,123,5320001,,,,,,,2024-11-22,1,,,,,トータルケア,0
2319,9120001270472,新規,0,2024-11-22,2024-11-22,株式会社ケアフル,,株式会社,大阪府,大阪市北区,曾根崎新地２丁目３番１３号,,27,127,5300002,,,,,,,2024-11-22,1,,,,,ケアフル,0
2320,9120001270480,新規,0,2024-11-22,2024-11-22,株式会社ＦＵＮＴＥＣＨ,,株式会社,大阪府,大阪市北区,堂山町１０番７号,,27,127,5300027,,,,,,,2024-11-22,1,,,,,ファンテック,0
2321,9120001270506,新規,0,2024-11-22,2024-11-22,株式会社ＳＬＩＮＫＳ,,株式会社,大阪府,大阪市中央区,南船場４丁目１０番５号南船場ＳＯＨＯビル７０２,,27,128,5420081,,,,,,,2024-11-22,1,,,,,エスリンクス,0
2322,9120001270539,新規,0,2024-11-22,2024-11-22,Ｌｉａｎａｓ株式会社,,株式会社,大阪府,大阪市城東区,諏訪４丁目８番１６号,,27,118,5360021,,,,,,,2024-11-22,1,,,,,リアナス,0
2325,9120003028010,新規,0,2024-11-22,2024-11-22,合同会社アシストエール,,合同会社,大阪府,大阪市天王寺区,生玉前町５番２５－３０５号,,27,109,5430072,,,,,,,2024-11-22,1,,,,,アシストエール,0
2326,9120003028027,新規,0,2024-11-22,2024-11-22,合同会社センピターナル,,合同会社,大阪府,大阪市淀川区,西中島４丁目５番２７号３Ｆ,,27,123,5320011,,,,,,,2024-11-22,1,,,,,センピターナル,0
2327,9120003028035,新規,0,2024-11-22,2024-11-22,合同会社にしむら,,合同会社,大阪府,大阪市西成区,太子１丁目１５番２８号,,27,122,5570002,,,,,,,2024-11-22,1,,,,,ニシムラ,0
2328,9120005024627,新規,0,2024-11-22,2024-11-22,一般社団法人スキャンツール技術士協議会,,その他の設立登記法人,大阪府,大阪市中央区,今橋１丁目６番２号ＩＮＳビル,,27,128,5410042,,,,,,,2024-11-22,1,,,,,スキャンツールギジュツシキョウギカイ,0
2331,9120101070632,新規,0,2024-11-22,2024-11-22,Ｐｅｎｔａｇｏｎ　Ｌｏｇｉｓｔｉｃｓ株式会社,,株式会社,大阪府,泉佐野市,下瓦屋３６５－１－Ａ,,27,213,5980062,,,,,,,2024-11-22,1,,,,,ペンタゴンロジスティクス,0
2332,9120103006155,新規,0,2024-11-22,2024-11-22,ＱＵＡＮ　ＡＰ合同会社,,合同会社,大阪府,貝塚市,麻生中７５２番地６－２０１号室,,27,208,5970081,,,,,,,2024-11-22,1,,,,,クアンエーピー,0
2339,9120901050057,新規,0,2024-11-22,2024-11-22,株式会社ＹＹＫ,,株式会社,大阪府,箕面市,稲６丁目１０番１５号,,27,220,5620015,,,,,,,2024-11-22,1,,,,,ワイワイケイ,0
2340,9120901050073,新規,0,2024-11-22,2024-11-22,株式会社Ｃ‐ＳＥＥＤ,,株式会社,大阪府,吹田市,長野西１６番４２号,,27,205,5650817,,,,,,,2024-11-22,1,,,,,シード,0
2352,9140001136507,新規,0,2024-11-22,2024-11-22,Ｍａｉｋａｉ株式会社,,株式会社,兵庫県,尼崎市,武庫之荘４丁目３番１４号,,28,202,6610035,,,,,,,2024-11-22,1,,,,,マイカイ,0
2353,9140001136523,新規,0,2024-11-22,2024-11-22,神戸シトラス株式会社,,株式会社,兵庫県,神戸市中央区,栄町通３丁目６番１９号浙江ビル４Ｆ,,28,110,6500023,,,,,,,2024-11-22,1,,,,,コウベシトラス,0
2355,9140003021343,新規,0,2024-11-22,2024-11-22,合同会社ＭＩＮＡＴＯ,,合同会社,兵庫県,三田市,学園８丁目５番地６,,28,219,6691337,,,,,,,2024-11-22,1,,,,,ミナト,0
2358,9140005027280,新規,0,2024-11-22,2024-11-22,創造的職人宿場町福住事業協同組合,,その他の設立登記法人,兵庫県,丹波篠山市,福住３２４－３Ｆ,,28,221,6692513,,,,,,,2024-11-22,1,,,,,ソウゾウテキショクニンシュクバマチフクスミ,0
2361,9150001027663,新規,0,2024-11-22,2024-11-22,株式会社Ｒｏｃｋ＆Ｆｉｅｌｄ,,株式会社,奈良県,桜井市,大字大福２５２番地の３２,,29,206,6330067,,,,,,,2024-11-22,1,,,,,ロックアンドフィールド,0
2370,9180001164248,新規,0,2024-11-22,2024-11-22,株式会社ＫＴＳホールディングス,,株式会社,愛知県,名古屋市中村区,岩上町３３番地,,23,105,4530847,,,,,,,2024-11-22,1,,,,,ケーティエスホールディングス,0
2371,9180001164289,新規,0,2024-11-22,2024-11-22,ＫＡＧＵＬＡ株式会社,,株式会社,愛知県,名古屋市昭和区,御器所３丁目１０番５号,,23,107,4660051,,,,,,,2024-11-22,1,,,,,カグラ,0
2372,9180001164314,新規,0,2024-11-22,2024-11-22,大成建物管理株式会社,,株式会社,愛知県,名古屋市中区,新栄１丁目４９番２８号,,23,106,4600007,,,,,,,2024-11-22,1,,,,,タイセイタテモノカンリ,0
2375,9180003027650,新規,0,2024-11-22,2024-11-22,合同会社ＣＥ,,合同会社,愛知県,大府市,吉田町弥左ェ門脇６４番地の２,,23,223,4740000,,,,,,,2024-11-22,1,,,,,シーイー,0
2376,9180003027659,新規,0,2024-11-22,2024-11-22,クリエイトフロー合同会社,,合同会社,愛知県,名古屋市熱田区,伝馬１丁目２番９号ｗｉｌｌＤｏ伝馬町１００６号,,23,109,4560034,,,,,,,2024-11-22,1,,,,,クリエイトフロー,0
2385,9190001031827,新規,0,2024-11-22,2024-11-22,株式会社ＮＫホールディングス,,株式会社,三重県,桑名市,中央町１丁目９６番地,,24,205,5110068,,,,,,,2024-11-22,1,,,,,エヌケーホールディングス,0
2386,9190005011998,新規,0,2024-11-22,2024-11-22,医療法人三呼会,,その他の設立登記法人,三重県,四日市市,高角町１５６３番地４,,24,202,5120923,,,,,,,2024-11-22,1,,,,,サンコカイ,0
2391,9200003006593,新規,0,2024-11-22,2024-11-22,合同会社ななころびやおき,,合同会社,岐阜県,各務原市,那加門前町４丁目５番地１,,21,213,5040911,,,,,,,2024-11-22,1,,,,,ナナコロビヤオキ,0
2395,9220001026352,新規,0,2024-11-22,2024-11-22,株式会社カリズム,,株式会社,石川県,金沢市,西念１丁目１番２３号,,17,201,9200024,,,,,,,2024-11-22,1,,,,,カリズム,0
2397,9230001020627,新規,0,2024-11-22,2024-11-22,株式会社ＴＡＢＩＫＩ,,株式会社,富山県,富山市,中市１丁目３‐２２,,16,201,9398005,,,,,,,2024-11-22,1,,,,,タビキ,0
2400,9240001064144,新規,0,2024-11-22,2024-11-22,株式会社栄進通商,,株式会社,広島県,東広島市,西条町御薗宇６７３３番地１３,,34,212,7390024,,,,,,,2024-11-22,1,,,,,エイシンツウショウ,0
2417,9290801031058,新規,0,2024-11-22,2024-11-22,株式会社ＨＯＴＡＫＡ,,株式会社,福岡県,北九州市小倉北区,富野台２番６号（２０１号）,,40,106,8020033,,,,,,,2024-11-22,1,,,,,ホタカ,0
2419,9300001013986,新規,0,2024-11-22,2024-11-22,株式会社百武,,株式会社,佐賀県,唐津市,本町１９０９番地１ヒャクビル２階,,41,202,8470047,,,,,,,2024-11-22,1,,,,,ヒャクタケ,0
2422,9370001051963,新規,0,2024-11-22,2024-11-22,ＨａＬＶｉｓｉｏｎ株式会社,,株式会社,宮城県,仙台市青葉区,立町１番２号広瀬通東武ビル５Ｆ,,04,101,9800822,,,,,,,2024-11-22,1,,,,,ハルビジョン,0
2423,9370003006825,新規,0,2024-11-22,2024-11-22,合同会社長岡謙太郎商店,,合同会社,宮城県,仙台市青葉区,支倉町３―２―６０１,,04,101,9800824,,,,,,,2024-11-22,1,,,,,ナガオカケンタロウショウテン,0
2439,9430003017015,新規,0,2024-11-22,2024-11-22,合同会社ランドエステート,,合同会社,北海道,札幌市東区,北二十一条東１５丁目４番１２号,,01,103,0650021,,,,,,,2024-11-22,1,,,,,ランドエステート,0
2445,9500003003370,新規,0,2024-11-22,2024-11-22,合同会社みつ花,,合同会社,愛媛県,松山市,三番町４丁目５番地１４,,38,201,7900003,,,,,,,2024-11-22,1,,,,,ミツハナ,0
