sequenceNumber,corporateNumber,process,correct,updateDate,changeDate,name,nameImageId,kind,prefectureName,cityName,streetNumber,addressImageId,prefectureCode,cityCode,postCode,addressOutside,addressOutsideImageId,closeDate,closeCause,successorCorporateNumber,changeCause,assignmentDate,latest,enName,enPrefectureName,enCityName,enAddressOutside,furigana,hihyoji
10,1010001237408,新規,0,2023-08-14,2023-08-14,Ｌａｄｏｎ株式会社,,株式会社,東京都,中央区,日本橋本町３丁目３－６ワカ末ビル７Ｆ,,13,102,1030023,,,,,,,2023-08-14,1,,,,,ラドン,0
11,1010001237564,新規,0,2023-08-14,2023-08-14,日本直接投資株式会社,,株式会社,東京都,千代田区,神田西福田町２,,13,101,1010037,,,,,,,2023-08-14,1,,,,,ニホンチョクセツトウシ,0
12,1010001237622,新規,0,2023-08-14,2023-08-14,美通日本株式会社,,株式会社,東京都,中央区,日本橋浜町１丁目１０－８ワコー東日本橋マンション２０１室,,13,102,1030007,,,,,,,2023-08-14,1,,,,,ミツウニホン,0
13,1010001237655,新規,0,2023-08-14,2023-08-14,ライフシー・クリエイト株式会社,,株式会社,東京都,中央区,日本橋箱崎町２７番８号奥村ビル７階,,13,102,1030015,,,,,,,2023-08-14,1,,,,,ライフシークリエイト,0
14,1010001237663,新規,0,2023-08-14,2023-08-14,フィールドアシスト株式会社,,株式会社,東京都,中央区,晴海１丁目８番１２号晴海アイランドトリトンスクエアオフィスタワーＺ２３階,,13,102,1040053,,,,,,,2023-08-14,1,,,,,フィールドアシスト,0
16,1010003041337,新規,0,2023-08-14,2023-08-14,合同会社ＩｎｔｅｇｒａｔｉｏｎＬａｂ,,合同会社,東京都,中央区,銀座１丁目１２番４号Ｎ＆Ｅ・ＢＬＤ．７階,,13,102,1040061,,,,,,,2023-08-14,1,,,,,インテグレーションラボ,0
27,1010401176395,新規,0,2023-08-14,2023-08-14,株式会社ＯｎｅＳｐｏｒｔｓ　ＮＥＸＴ,,株式会社,東京都,港区,北青山２丁目１１番３号,,13,103,1070061,,,,,,,2023-08-14,1,,,,,ワンスポーツネクスト,0
28,1010401176404,新規,0,2023-08-14,2023-08-14,株式会社アトラクティブセブン,,株式会社,東京都,港区,芝浦１丁目４番１号,,13,103,1050023,,,,,,,2023-08-14,1,,,,,アトラクティブセブン,0
34,1010403030699,新規,0,2023-08-14,2023-08-14,パシフィコ・エナジー・ストレージ３号合同会社,,合同会社,東京都,港区,六本木３丁目２番１号六本木グランドタワー,,13,103,1060032,,,,,,,2023-08-14,1,,,,,パシフィコエナジーストレージサンゴウ,0
35,1010403030732,新規,0,2023-08-14,2023-08-14,ａｉｒｏｏ合同会社,,合同会社,東京都,港区,南青山３丁目１番３号,,13,103,1070062,,,,,,,2023-08-14,1,,,,,エアルー,0
49,1010901053631,新規,0,2023-08-14,2023-08-14,株式会社ＶＩＲＴＵＡＬ　ＣＲＥＡＴＩＯＮＳ,,株式会社,東京都,世田谷区,代田５丁目３３番１６号カーサノルド１２０１,,13,112,1550033,,,,,,,2023-08-14,1,,,,,バーチャルクリエーション,0
55,1011001156192,新規,0,2023-08-14,2023-08-14,株式会社ふるさとＴｉｃｋｅｔ,,株式会社,東京都,渋谷区,恵比寿４丁目２０番３号恵比寿ガーデンプレイスタワー１８階,,13,113,1500013,,,,,,,2023-08-14,1,,,,,フルサトチケット,0
56,1011001156234,新規,0,2023-08-14,2023-08-14,株式会社ジェネラルプランニング,,株式会社,東京都,渋谷区,道玄坂１丁目１０番８号渋谷道玄坂東急ビル２Ｆ－Ｃ,,13,113,1500043,,,,,,,2023-08-14,1,,,,,ジェネラルプランニング,0
64,1011101103904,新規,0,2023-08-14,2023-08-14,株式会社Ｙ７‐Ｓ‐ＲＥＧＡＬＩＡ,,株式会社,東京都,新宿区,歌舞伎町２丁目２４番７号エコロ新宿第２ビル５０１号室,,13,104,1600021,,,,,,,2023-08-14,1,,,,,ワイセブンエスレガリア,0
65,1011101103961,新規,0,2023-08-14,2023-08-14,株式会社テンアント,,株式会社,東京都,新宿区,西新宿３丁目９番７号,,13,104,1600023,,,,,,,2023-08-14,1,,,,,テンアント,0
68,1011301028918,新規,0,2023-08-14,2023-08-14,株式会社ｅｎｏｎ,,株式会社,東京都,杉並区,阿佐谷南３丁目３１番１２号第一大鷹建設ビル３階,,13,115,1660004,,,,,,,2023-08-14,1,,,,,エノン,0
69,1011401025352,新規,0,2023-08-14,2023-08-14,金田自動車株式会社,,株式会社,東京都,板橋区,板橋２丁目６２番８－２０２号,,13,119,1730004,,,,,,,2023-08-14,1,,,,,カネダジドウシャ,0
70,1011501029641,新規,0,2023-08-14,2023-08-14,震旦株式会社,,株式会社,東京都,荒川区,南千住２丁目１６－９マッスビル３０４号室,,13,118,1160003,,,,,,,2023-08-14,1,,,,,シンダン,0
76,1011801042880,新規,0,2023-08-14,2023-08-14,ＪＨ株式会社,,株式会社,東京都,足立区,小台１丁目６番５号２０５号室,,13,121,1200046,,,,,,,2023-08-14,1,,,,,ジェイエイチ,0
77,1012301013546,新規,0,2023-08-14,2023-08-14,Ｂ．Ｋ．Ｅ．株式会社,,株式会社,東京都,町田市,成瀬６丁目１８番１３号ミノリハイツ３０１,,13,209,1940044,,,,,,,2023-08-14,1,,,,,ビーケーイー,0
79,1012401040878,新規,0,2023-08-14,2023-08-14,株式会社シンワキャスト,,株式会社,東京都,調布市,八雲台１丁目２８番地１,,13,208,1820015,,,,,,,2023-08-14,1,,,,,シンワキャスト,0
80,1012403006126,新規,0,2023-08-14,2023-08-14,ドット・ラインズ合同会社,,合同会社,東京都,武蔵野市,吉祥寺本町４丁目４番２３号,,13,203,1800004,,,,,,,2023-08-14,1,,,,,ドットラインズ,0
87,1013301051189,新規,0,2023-08-14,2023-08-14,株式会社ＨＲ　ＲＥＶＯＬＶＥＲ,,株式会社,東京都,豊島区,東池袋３丁目９番１２号ニットービル９階,,13,116,1700013,,,,,,,2023-08-14,1,,,,,エイチアールリボルバ,0
88,1013301051206,新規,0,2023-08-14,2023-08-14,徳信物産株式会社,,株式会社,東京都,豊島区,池袋２丁目６８番５号,,13,116,1710014,,,,,,,2023-08-14,1,,,,,トクシンブッサン,0
98,1020001152928,新規,0,2023-08-14,2023-08-14,ＨａｒｉＷＥＬＬ株式会社,,株式会社,神奈川県,横浜市青葉区,美しが丘２丁目２１番地３美しが丘レジデンス２階,,14,117,2250002,,,,,,,2023-08-14,1,,,,,ハリウェル,0
99,1020001152944,新規,0,2023-08-14,2023-08-14,株式会社ＦＴＳ,,株式会社,神奈川県,川崎市多摩区,登戸３４６２番地ウエストヴァレー６０１,,14,135,2140014,,,,,,,2023-08-14,1,,,,,エフティーエス,0
100,1020001152969,新規,0,2023-08-14,2023-08-14,株式会社Ｇｉｒｉｓｕｂｉ　Ｅｎｔｅｒｐｒｉｓｅ,,株式会社,神奈川県,横浜市青葉区,市ケ尾町１６３１－３１,,14,117,2250024,,,,,,,2023-08-14,1,,,,,ギリスビエンタープライズ,0
101,1020001152985,新規,0,2023-08-14,2023-08-14,Ｃｌｅａｒ株式会社,,株式会社,神奈川県,横浜市南区,永田東１丁目２５番２０号,,14,105,2320072,,,,,,,2023-08-14,1,,,,,クリアー,0
107,1020003024308,新規,0,2023-08-14,2023-08-14,合同会社持永大河,,合同会社,神奈川県,川崎市多摩区,登戸９０２－１マピエス登戸２０２,,14,135,2140014,,,,,,,2023-08-14,1,,,,,モチナガタイガ,0
108,1020003024365,新規,0,2023-08-14,2023-08-14,ｔｒｉｃｅ‐ａｎｄ合同会社,,合同会社,神奈川県,川崎市中原区,市ノ坪２２３番地４武蔵小杉ビューハイツ１０９,,14,133,2110016,,,,,,,2023-08-14,1,,,,,トライスアンド,0
109,1020003024373,新規,0,2023-08-14,2023-08-14,ワックテック合同会社,,合同会社,神奈川県,横浜市西区,北幸１丁目１１番１号水信ビル７階,,14,103,2200004,,,,,,,2023-08-14,1,,,,,ワックテック,0
112,1021001079847,新規,0,2023-08-14,2023-08-14,株式会社ＦＰプラシスト,,株式会社,神奈川県,海老名市,東柏ケ谷２丁目２０－４３,,14,215,2430401,,,,,,,2023-08-14,1,,,,,エフピープラシスト,0
113,1021001079855,新規,0,2023-08-14,2023-08-14,株式会社ｈａｒｍｏｎｙ,,株式会社,神奈川県,秦野市,尾尻９３１番地の７けやきビル３階,,14,211,2570011,,,,,,,2023-08-14,1,,,,,ハーモニー,0
114,1021001079896,新規,0,2023-08-14,2023-08-14,リサイクルガーデン相模原株式会社,,株式会社,神奈川県,相模原市中央区,緑が丘２丁目４４,,14,152,2520225,,,,,,,2023-08-14,1,,,,,リサイクルガーデンサガミハラ,0
115,1021001079913,新規,0,2023-08-14,2023-08-14,株式会社松井総業,,株式会社,神奈川県,横須賀市,根岸町１丁目９番９－３０１号,,14,201,2390807,,,,,,,2023-08-14,1,,,,,マツイソウギョウ,0
116,1021001079921,新規,0,2023-08-14,2023-08-14,株式会社ＣＥＬＥＳ,,株式会社,神奈川県,横須賀市,平作３丁目２番９号,,14,201,2380032,,,,,,,2023-08-14,1,,,,,セレス,0
119,1021003013432,新規,0,2023-08-14,2023-08-14,アモナチュラル合同会社,,合同会社,神奈川県,相模原市緑区,原宿南２丁目４６番地２,,14,151,2520103,,,,,,,2023-08-14,1,,,,,アモナチュラル,0
120,1021003013440,新規,0,2023-08-14,2023-08-14,Ｌｉｄ　ｄｅｓｉｇｎ合同会社,,合同会社,神奈川県,相模原市南区,当麻１５７４番地,,14,153,2520336,,,,,,,2023-08-14,1,,,,,リドデザイン,0
134,1030001155211,新規,0,2023-08-14,2023-08-14,株式会社Ｓｔｅａｄｙ,,株式会社,埼玉県,草加市,新栄４丁目１０００番地１－１３Ｂ号室,,11,221,3400056,,,,,,,2023-08-14,1,,,,,ステディ,0
135,1030001155244,新規,0,2023-08-14,2023-08-14,株式会社ゾゲ工業,,株式会社,埼玉県,さいたま市岩槻区,本町３丁目１８番１２号コーポカメタニ１０２号室,,11,110,3390057,,,,,,,2023-08-14,1,,,,,ゾゲコウギョウ,0
136,1030001155260,新規,0,2023-08-14,2023-08-14,株式会社七竈,,株式会社,埼玉県,飯能市,美杉台６丁目１番地の１５,,11,209,3570041,,,,,,,2023-08-14,1,,,,,ナナカマド,0
137,1030001155269,新規,0,2023-08-14,2023-08-14,ＳＰＩＣＥ株式会社,,株式会社,埼玉県,行田市,持田５丁目１３番１６号,,11,206,3610056,,,,,,,2023-08-14,1,,,,,スパイス,0
138,1030001155293,新規,0,2023-08-14,2023-08-14,株式会社ＰＡＢＬＯ,,株式会社,埼玉県,戸田市,上戸田２丁目７番７号ドリーミオＭｉｙａｂｉ１Ｆ,,11,224,3350022,,,,,,,2023-08-14,1,,,,,パブロ,0
149,1040001129619,新規,0,2023-08-14,2023-08-14,株式会社Ｗ．ｊｅｅ,,株式会社,千葉県,千葉市美浜区,若葉３丁目１番地１９－２３０３号,,12,106,2610014,,,,,,,2023-08-14,1,,,,,ダブジー,0
154,1040003023084,新規,0,2023-08-14,2023-08-14,合同会社未来創業,,合同会社,千葉県,野田市,山崎梅の台２０番地の８ヒルトップ１０４,,12,208,2780024,,,,,,,2023-08-14,1,,,,,ミライソウギョウ,0
155,1040003023118,新規,0,2023-08-14,2023-08-14,Ａｎｎｈｉｂｉｓｃｕｓ　Ｐｒｅｌｏｖｅｄ合同会社,,合同会社,千葉県,印西市,滝野６丁目１４番２号,,12,231,2702329,,,,,,,2023-08-14,1,,,,,アンヒビスカスプリーラブ,0
157,1050001053280,新規,0,2023-08-14,2023-08-14,株式会社つくばみらいタウン,,株式会社,茨城県,つくばみらい市,下長沼１１８番地１,,08,235,3002454,,,,,,,2023-08-14,1,,,,,ツクバミライタウン,0
158,1050001053297,新規,0,2023-08-14,2023-08-14,株式会社まちの笑顔,,株式会社,茨城県,常陸太田市,金井町１８１２番地の２,,08,212,3130016,,,,,,,2023-08-14,1,,,,,,0
160,1060001036243,新規,0,2023-08-14,2023-08-14,株式会社Ｉｃｈｉｋａ,,株式会社,栃木県,宇都宮市,宝木町２丁目９８４番地１３,,09,201,3200061,,,,,,,2023-08-14,1,,,,,イチカ,0
164,1070001040723,新規,0,2023-08-14,2023-08-14,株式会社フジエスピー,,株式会社,群馬県,佐波郡玉村町,大字上茂木５０５番地１９,,10,464,3701122,,,,,,,2023-08-14,1,,,,,フジエスピー,0
166,1070003005063,新規,0,2023-08-14,2023-08-14,合同会社ＡｓｏＢａｓｅ,,合同会社,群馬県,佐波郡玉村町,大字下新田１０４０－３,,10,464,3701132,,,,,,,2023-08-14,1,,,,,アソベース,0
174,1100001036684,新規,0,2023-08-14,2023-08-14,ミライズ不動産株式会社,,株式会社,長野県,上田市,天神３丁目３番６号,,20,203,3860025,,,,,,,2023-08-14,1,,,,,ミライズフドウサン,0
175,1100003007130,新規,0,2023-08-14,2023-08-14,合同会社３つめの椅子,,合同会社,長野県,諏訪郡富士見町,富士見３４００番地２７美晴ハイツ１０１号,,20,362,3990211,,,,,,,2023-08-14,1,,,,,ミッツメノイス,0
177,1110001037756,新規,0,2023-08-14,2023-08-14,株式会社ＫＩＲＩＳＡＷＡ　ＩＮＤＵＳＴＲＩＡＬ,,株式会社,新潟県,新発田市,中央町３丁目４番１２号,,15,206,9570053,,,,,,,2023-08-14,1,,,,,キリサワインダストリアル,0
178,1110001037772,新規,0,2023-08-14,2023-08-14,株式会社鈴木建築工房,,株式会社,新潟県,新潟市西蒲区,赤鏥１１７６番地,,15,108,9530042,,,,,,,2023-08-14,1,,,,,スズキケンチクコウボウ,0
185,1120001257080,新規,0,2023-08-14,2023-08-14,株式会社パレスキャップレートジャパン,,株式会社,大阪府,大阪市西区,西本町１丁目７番２１号,,27,106,5500005,,,,,,,2023-08-14,1,,,,,パレスキャップレートジャパン,0
186,1120001257114,新規,0,2023-08-14,2023-08-14,株式会社シャンスクリール,,株式会社,大阪府,大阪市西区,新町１丁目６番８号ソラル清賀７０２,,27,106,5500013,,,,,,,2023-08-14,1,,,,,シャンスクリール,0
187,1120001257122,新規,0,2023-08-14,2023-08-14,Ｔ‐ｆｏｒｅｓｔ株式会社,,株式会社,大阪府,大阪市天王寺区,東上町２番１０号,,27,109,5430026,,,,,,,2023-08-14,1,,,,,ティーフォレスト,0
188,1120001257130,新規,0,2023-08-14,2023-08-14,株式会社ＷｉＲｏｏｔｓ,,株式会社,大阪府,大阪市北区,梅田１丁目２番２号大阪駅前第２ビル１２－１２,,27,127,5300001,,,,,,,2023-08-14,1,,,,,ウィルーツ,0
189,1120001257171,新規,0,2023-08-14,2023-08-14,株式会社ＺＥＲＯ　ＯＮＥ　ＰＬＵＳ,,株式会社,大阪府,大阪市西成区,萩之茶屋２丁目６番９号,,27,122,5570004,,,,,,,2023-08-14,1,,,,,ゼロワンプラス,0
190,1120001257213,新規,0,2023-08-14,2023-08-14,織田建設株式会社,,株式会社,大阪府,大阪市東住吉区,杭全８丁目１１番３２号,,27,121,5460002,,,,,,,2023-08-14,1,,,,,オダケンセツ,0
191,1120001257246,新規,0,2023-08-14,2023-08-14,株式会社Ｒｅｒｉｓｅ,,株式会社,大阪府,大阪市東成区,中道４丁目４番２４－１０１号,,27,115,5370025,,,,,,,2023-08-14,1,,,,,リライズ,0
192,1120001257279,新規,0,2023-08-14,2023-08-14,株式会社ライフクリエイト,,株式会社,大阪府,大阪市東成区,東小橋１丁目６番５号,,27,115,5370024,,,,,,,2023-08-14,1,,,,,ライフクリエイト,0
193,1120001257287,新規,0,2023-08-14,2023-08-14,株式会社絆重量,,株式会社,大阪府,大阪市東淀川区,下新庄３丁目８番１７号,,27,114,5330021,,,,,,,2023-08-14,1,,,,,キヅナジュウリョウ,0
197,1120003024669,新規,0,2023-08-14,2023-08-14,合同会社Ｃｒｏｉｓ,,合同会社,大阪府,大阪市平野区,加美北１丁目２４番４号,,27,126,5470001,,,,,,,2023-08-14,1,,,,,クロイス,0
198,1120003024677,新規,0,2023-08-14,2023-08-14,合同会社ｇｌｏｗ　ｕｐ,,合同会社,大阪府,大阪市北区,黒崎町６番１４号１Ｆ,,27,127,5300023,,,,,,,2023-08-14,1,,,,,グロウアップ,0
201,1120005023818,新規,0,2023-08-14,2023-08-14,特定非営利活動法人社会正義研究所,,その他の設立登記法人,大阪府,大阪市西淀川区,大和田３丁目１－２５大和田拓工ビル３階,,27,113,5550032,,,,,,,2023-08-14,1,,,,,シャカイセイギケンキュウショ,0
207,1120103005362,新規,0,2023-08-14,2023-08-14,合同会社スカイ,,合同会社,大阪府,堺市中区,土塔町３３０９番地ジョイフル花水木１０１号,,27,142,5998234,,,,,,,2023-08-14,1,,,,,スカイ,0
208,1120103005379,新規,0,2023-08-14,2023-08-14,ｎｓｈ合同会社,,合同会社,大阪府,堺市中区,辻之７７９番地１,00131509,27,142,5998245,,,,,,,2023-08-14,1,,,,,エヌエスエイチ,0
209,1120103005387,新規,0,2023-08-14,2023-08-14,合同会社ふぐ清,,合同会社,大阪府,堺市堺区,中瓦町２丁１－１６,,27,141,5900077,,,,,,,2023-08-14,1,,,,,フグキヨ,0
213,1120903004778,新規,0,2023-08-14,2023-08-14,合同会社Ｔｉｐ　Ｂａｌｌ,,合同会社,大阪府,高槻市,天神町２丁目１番１２－１４０１号,,27,207,5691117,,,,,,,2023-08-14,1,,,,,チップボール,0
214,1120905006509,新規,0,2023-08-14,2023-08-14,社会保険労務士法人オフィス慈恩,,その他の設立登記法人,大阪府,茨木市,西駅前町４番５２４号,,27,211,5670032,,,,,,,2023-08-14,1,,,,,オフィスジオン,0
216,1122001037223,新規,0,2023-08-14,2023-08-14,株式会社ＯＴＩ,,株式会社,大阪府,東大阪市,長田中３丁目１番１６－３０９号ヴィガ中央長田,,27,227,5770013,,,,,,,2023-08-14,1,,,,,オーティーアイ,0
217,1122001037264,新規,0,2023-08-14,2023-08-14,株式会社ＲＯＵＴＥ,,株式会社,大阪府,東大阪市,布市町３丁目９番４号,,27,227,5798004,,,,,,,2023-08-14,1,,,,,ルート,0
218,1122001037272,新規,0,2023-08-14,2023-08-14,株式会社結,,株式会社,大阪府,東大阪市,渋川町２丁目５番３９号,,27,227,5770836,,,,,,,2023-08-14,1,,,,,ユイ,0
223,1130001074913,新規,0,2023-08-14,2023-08-14,にじいろ保険フィナンシャル株式会社,,株式会社,京都府,木津川市,州見台７丁目７番地９,,26,214,6190216,,,,,,,2023-08-14,1,,,,,ニジイロホケンフィナンシャル,0
234,1140001131184,新規,0,2023-08-14,2023-08-14,株式会社ＣＯＬＯＲＳ,,株式会社,兵庫県,西宮市,越水町４番１１号,,28,204,6620864,,,,,,,2023-08-14,1,,,,,カラーズ,0
235,1140001131192,新規,0,2023-08-14,2023-08-14,株式会社ＳＫＹ設備,,株式会社,兵庫県,神戸市東灘区,御影３丁目２番１１－２４号,,28,101,6580047,,,,,,,2023-08-14,1,,,,,スカイセツビ,0
236,1140001131201,新規,0,2023-08-14,2023-08-14,株式会社レジェンド,,株式会社,兵庫県,加古川市,別府町本町１丁目３１番地の１サーパス別府３０３号,,28,210,6750126,,,,,,,2023-08-14,1,,,,,レジェンド,0
238,1140003019394,新規,0,2023-08-14,2023-08-14,ＴＥＭＩＩ合同会社,,合同会社,兵庫県,神戸市中央区,下山手通２丁目１７番２－４０３号,,28,110,6500011,,,,,,,2023-08-14,1,,,,,テミィ,0
239,1140003019411,新規,0,2023-08-14,2023-08-14,合同会社ｋｏｄｏｍｏｍｅｓｅｎ,,合同会社,兵庫県,伊丹市,平松７丁目６番１－１３１２号,,28,207,6640853,,,,,,,2023-08-14,1,,,,,コドモメセン,0
242,1170001017736,新規,0,2023-08-14,2023-08-14,株式会社金屋ガス協会,,株式会社,和歌山県,有田郡有田川町,大字金屋５３５番地５,,30,366,6430152,,,,,,,2023-08-14,1,,,,,カナヤガスキョウカイ,0
252,1180005020322,新規,0,2023-08-14,2023-08-14,一般社団法人ライフサポート協会,,その他の設立登記法人,愛知県,名古屋市中区,丸の内２丁目１７番４号ＭＩＷＡ第一ビル１００１,,23,106,4600002,,,,,,,2023-08-14,1,,,,,ライフサポートキョウカイ,0
256,1180301037672,新規,0,2023-08-14,2023-08-14,株式会社リカーウエル,,株式会社,愛知県,岡崎市,羽根町字池下５４番地３,,23,202,4440813,,,,,,,2023-08-14,1,,,,,リカーウエル,0
257,1180303005801,新規,0,2023-08-14,2023-08-14,合同会社空間企画,,合同会社,愛知県,豊橋市,曙町字宮前６４番地３,,23,201,4418151,,,,,,,2023-08-14,1,,,,,クウカンキカク,0
258,1190003004409,新規,0,2023-08-14,2023-08-14,ＭＹトレーディング合同会社,,合同会社,三重県,四日市市,鵜の森２丁目１３―１３―１１０２ポレスター鵜の森,,24,202,5100074,,,,,,,2023-08-14,1,,,,,エムワイトレーディング,0
272,1240003006259,新規,0,2023-08-14,2023-08-14,合同会社ＮＪ,,合同会社,広島県,福山市,春日町浦上１５９７番地１５,,34,207,7210902,,,,,,,2023-08-14,1,,,,,エヌジェイ,0
280,1260005011263,新規,0,2023-08-14,2023-08-14,土地家屋調査士法人大地,,その他の設立登記法人,岡山県,倉敷市,幸町９番３３号,,33,202,7100051,,,,,,,2023-08-14,1,,,,,ダイチ,0
282,1290001102625,新規,0,2023-08-14,2023-08-14,株式会社ヒロ建装,,株式会社,福岡県,福岡市博多区,東光寺町１丁目１２番１７号,,40,132,8120896,,,,,,,2023-08-14,1,,,,,ヒロケンソウ,0
283,1290001102658,新規,0,2023-08-14,2023-08-14,Ｆｅａｔｈｅｒ　Ｇｏｌｄ株式会社,,株式会社,福岡県,福岡市中央区,天神１丁目９－１７－１５階,,40,133,8100001,,,,,,,2023-08-14,1,,,,,フェザーゴールド,0
284,1290001102666,新規,0,2023-08-14,2023-08-14,株式会社エイトロック,,株式会社,福岡県,福岡市博多区,祇園町８番２２号,,40,132,8120038,,,,,,,2023-08-14,1,,,,,エイトロック,0
285,1290003014174,新規,0,2023-08-14,2023-08-14,Ｃｕｒｉｏ‐ｃｉｔｙ合同会社,,合同会社,福岡県,福岡市博多区,中呉服町８‐１０Ｓ‐Ｒｅｓｉｄｅｎｃｅ中呉服４０１号室,,40,132,8120035,,,,,,,2023-08-14,1,,,,,キュリオシティ,0
286,1290003014216,新規,0,2023-08-14,2023-08-14,Ｈｅｎｍｉ合同会社,,合同会社,福岡県,福岡市城南区,田島６丁目１－２９,,40,136,8140113,,,,,,,2023-08-14,1,,,,,ヘンミ,0
288,1290801029786,新規,0,2023-08-14,2023-08-14,株式会社アンドニューリー,,株式会社,福岡県,北九州市小倉北区,浅野３丁目１番３号,,40,106,8020001,,,,,,,2023-08-14,1,,,,,アンドニューリー,0
289,1290801029794,新規,0,2023-08-14,2023-08-14,株式会社トリリオン,,株式会社,福岡県,北九州市八幡西区,熊西１丁目８番４１号,,40,109,8060031,,,,,,,2023-08-14,1,,,,,トリリオン,0
291,1290803004473,新規,0,2023-08-14,2023-08-14,合同会社ｓａｍａｓａｍａ,,合同会社,福岡県,豊前市,大字求菩提１８９番地１,,40,214,8280086,,,,,,,2023-08-14,1,,,,,サマサマ,0
295,1310005008700,新規,0,2023-08-14,2023-08-14,一般社団法人有明海をきれいにする会,,その他の設立登記法人,長崎県,南島原市,南有馬町乙２４０７番地１,,42,214,8592412,,,,,,,2023-08-14,1,,,,,アリアケカイヲキレイニスルカイ,0
297,1320001019948,新規,0,2023-08-14,2023-08-14,株式会社ＳＡＭＵＲＡＩ,,株式会社,大分県,大分市,住吉町１丁目４番２２号（後藤ビル１０３）,,44,201,8700032,,,,,,,2023-08-14,1,,,,,サムライ,0
312,1360003013202,新規,0,2023-08-14,2023-08-14,合同会社Ｃｌｅｖｅｒ　Ｇｅｎｅｒａｌ,,合同会社,沖縄県,豊見城市,字上田２４７番地,,47,212,9010243,,,,,,,2023-08-14,1,,,,,クレバージェネラル,0
321,1420001018361,新規,0,2023-08-14,2023-08-14,株式会社ＨＡＰＰＹ　ＳＴＡＮＤＡＲＤ,,株式会社,青森県,青森市,八重田２丁目２番３２号,,02,201,0300912,,,,,,,2023-08-14,1,,,,,ハッピースタンダード,0
325,1430001089716,新規,0,2023-08-14,2023-08-14,株式会社ＬＢＯ,,株式会社,北海道,札幌市西区,西野七条２丁目１番５号,,01,107,0630037,,,,,,,2023-08-14,1,,,,,エルビーオー,0
326,1430001089724,新規,0,2023-08-14,2023-08-14,株式会社ＩＡＺＥ,,株式会社,北海道,札幌市手稲区,星置一条８丁目１９番２号,,01,109,0060851,,,,,,,2023-08-14,1,,,,,イアズ,0
327,1430001089732,新規,0,2023-08-14,2023-08-14,株式会社Ｌｉｌａｓ,,株式会社,北海道,登別市,常盤町４丁目３６番地５,,01,230,0590011,,,,,,,2023-08-14,1,,,,,リラ,0
328,1430001089740,新規,0,2023-08-14,2023-08-14,百足鉄具株式会社,,株式会社,北海道,札幌市東区,北三十六条東１丁目６番８－１０５号,,01,103,0070836,,,,,,,2023-08-14,1,,,,,ムカデテツグ,0
332,1430003015348,新規,0,2023-08-14,2023-08-14,合同会社ＳＡＳＵＫＥ　ＮＥＸＴ,,合同会社,北海道,岩見沢市,幌向南一条１丁目１３番地１,,01,210,0690371,,,,,,,2023-08-14,1,,,,,サスケネクスト,0
337,1470001019751,新規,0,2023-08-14,2023-08-14,株式会社Ｙｏｕ　Ｃｌｅａｎ,,株式会社,香川県,高松市,新田町甲２８３番地１・２０１,,37,201,7610102,,,,,,,2023-08-14,1,,,,,ユークリーン,0
338,1470003002474,新規,0,2023-08-14,2023-08-14,合同会社ＭＴＰ,,合同会社,香川県,高松市,鶴市町７８４番地オレンジハイツ香西南１１０５,,37,201,7618032,,,,,,,2023-08-14,1,,,,,エムティーピー,0
344,1500001025135,新規,0,2023-08-14,2023-08-14,株式会社ＩＺＵＮＡ,,株式会社,愛媛県,松山市,北井門２丁目２８番２１号フォブールラシュレ２０１号,,38,201,7911105,,,,,,,2023-08-14,1,,,,,イズナ,0
345,1700150116697,新規,0,2023-08-14,2023-08-14,速購商務有限公司,,外国会社等,,,,,,,,中国香港湾仔軒尼詩道２５３－２６１号依時商業大厦１９０２室,,,,,,2023-08-14,1,,,,,ソッコウショウムユウゲンコウシ,0
346,1700150117051,新規,0,2023-08-14,2023-08-14,義烏市今韵電子商務有限公司,,外国会社等,,,,,,,,中国浙江省義烏市北苑街道丹陽街１５０号３楼３０２,,,,,,2023-08-14,1,,,,,ギウシコンインデンシショウムユウゲンコウシ,0
347,1700150117068,新規,0,2023-08-14,2023-08-14,武漢慢風科技有限公司,00131081,外国会社等,,,,,,,,中国武漢市東湖新技術開発区光谷三路７７７号Ａ塔楼４層４０１－４９２号,00131082,,,,,2023-08-14,1,,,,,ブカンマンフウカギユウゲンコウシ,0
348,1700150117737,新規,0,2023-08-14,2023-08-14,義烏市昭哲電子商務有限公司,,外国会社等,,,,,,,,中国浙江省義烏市北苑街道丹溪二区４１幢６単元２０４室,,,,,,2023-08-14,1,,,,,ギウシショウテツデンシショウムユウゲンコウシ,0
349,1700150118982,新規,0,2023-08-14,2023-08-14,Ｓｈｅｎｚｈｅｎｓｈｉ　ｙｉｇｅ　ｘｉａｏｍｕｂｉａｏ　ｍａｏｙｉ　ｙｏｕｘｉａｎ　ｇｏｎｇｓｉ,,外国会社等,,,,,,,,１　ｄｏｎｇ　２０１，ｘｉｎａｎｊｉｅｄａｏｄｏｎｇｆａｎｇｍｉｎｇｇｏｎｙｅｃｈｅｎｇ，Ｂａｏａｎｑｕ，Ｓｈｅｎｚｈｅｎ，Ｃｈｉｎａ,,,,,,2023-08-14,1,,,,,シンセンシイッコショウモクヒョウユウゲンコウシ,0
366,2010001237423,新規,0,2023-08-14,2023-08-14,株式会社ＰＲＥＳＥＮＣＥ　ＪＡＰＡＮ,,株式会社,東京都,千代田区,丸の内１丁目１１番１号パシフィックセンチュリープレイス丸の内１３階,,13,101,1000005,,,,,,,2023-08-14,1,,,,,プレセンスジャパン,0
367,2010001237588,新規,0,2023-08-14,2023-08-14,株式会社ｅｓｏｌｅ,,株式会社,東京都,中央区,八重洲２丁目１番１号ＹＡＮＭＡＲＴＯＫＹＯ１２階,,13,102,1040028,,,,,,,2023-08-14,1,,,,,エソル,0
368,2010001237654,新規,0,2023-08-14,2023-08-14,株式会社ユニキャリ,,株式会社,東京都,千代田区,麹町５丁目３番２３号日テレ四谷ビル,,13,101,1020083,,,,,,,2023-08-14,1,,,,,,0
371,2010003041311,新規,0,2023-08-14,2023-08-14,合同会社スクープ,,合同会社,東京都,中央区,銀座１丁目１２番４号,,13,102,1040061,,,,,,,2023-08-14,1,,,,,スクープ,0
372,2010003041377,新規,0,2023-08-14,2023-08-14,合同会社アイテック,,合同会社,東京都,中央区,日本橋久松町９番９号ＦＲＡＭＥ日本橋８階,,13,102,1030005,,,,,,,2023-08-14,1,,,,,アイテック,0
379,2010401176304,新規,0,2023-08-14,2023-08-14,株式会社ラサラス,,株式会社,東京都,港区,北青山１丁目３番１号アールキューブ青山３階,,13,103,1070061,,,,,,,2023-08-14,1,,,,,ラサラス,0
385,2010403030698,新規,0,2023-08-14,2023-08-14,ＥＧ２合同会社,,合同会社,東京都,港区,六本木１丁目６番１号,,13,103,1060032,,,,,,,2023-08-14,1,,,,,イージーツー,0
388,2010501050904,新規,0,2023-08-14,2023-08-14,株式会社ＫＡＰＩＴＡＬ,,株式会社,東京都,台東区,駒形１丁目１－１１,,13,106,1110043,,,,,,,2023-08-14,1,,,,,キャピタル,0
391,2010601063582,新規,0,2023-08-14,2023-08-14,株式会社東京エリアマネジメント,,株式会社,東京都,江東区,東陽３丁目５番１３号,,13,108,1350016,,,,,,,2023-08-14,1,,,,,トウキョウエリアマネジメント,0
395,2010705003526,新規,0,2023-08-14,2023-08-14,一般社団法人女子軟式野球リーグ,,その他の設立登記法人,東京都,品川区,西品川１丁目１番１号住友不動産大崎ガーデンタワー９Ｆトンネル東京,,13,109,1410033,,,,,,,2023-08-14,1,,,,,ジョシナンシキヤキュウリーグ,0
400,2010801034235,新規,0,2023-08-14,2023-08-14,株式会社駿電工,,株式会社,東京都,大田区,西糀谷４丁目１７番９号チェリーハイムＩＩ３０１,00131504,13,111,1440034,,,,,,,2023-08-14,1,,,,,シュンデンコウ,0
402,2010901053597,新規,0,2023-08-14,2023-08-14,株式会社ＴＩＡＭ　Ｐｒｏｄｕｃｔｉｏｎｓ,,株式会社,東京都,世田谷区,松原２丁目１７－３３新光ビル４０１,,13,112,1560043,,,,,,,2023-08-14,1,,,,,ティアムプロダクションズ,0
403,2010901053639,新規,0,2023-08-14,2023-08-14,株式会社ヘリサムコート,,株式会社,東京都,世田谷区,若林２丁目３１番１３－８０１号,,13,112,1540023,,,,,,,2023-08-14,1,,,,,ヘリサムコート,0
404,2010901053647,新規,0,2023-08-14,2023-08-14,株式会社ＲＥＩカンパニー,,株式会社,東京都,世田谷区,奥沢８丁目４番１２号,,13,112,1580083,,,,,,,2023-08-14,1,,,,,レイカンパニー,0
414,2011001156175,新規,0,2023-08-14,2023-08-14,株式会社Ｗｉｎｇａｍｅｓ,,株式会社,東京都,渋谷区,恵比寿４丁目２０番３号恵比寿ガーデンプレイスタワー１８階,,13,113,1500013,,,,,,,2023-08-14,1,,,,,ウィンゲームズ,0
415,2011001156233,新規,0,2023-08-14,2023-08-14,株式会社ＭＩＮＴＣＯＭ,,株式会社,東京都,渋谷区,宇田川町１番１２号,,13,113,1500042,,,,,,,2023-08-14,1,,,,,ミントコム,0
420,2011003017318,新規,0,2023-08-14,2023-08-14,エクシムトレーディングジャパン合同会社,,合同会社,東京都,渋谷区,円山町５番５号Ｎａｖｉ渋谷Ｖ３階,,13,113,1500044,,,,,,,2023-08-14,1,,,,,エクシムトレーディングジャパン,0
424,2011101103894,新規,0,2023-08-14,2023-08-14,株式会社パンチョマティック,,株式会社,東京都,新宿区,住吉町２番１５号萩野ビル４階,,13,104,1620065,,,,,,,2023-08-14,1,,,,,パンチョマティック,0
426,2011103013365,新規,0,2023-08-14,2023-08-14,合同会社ＲＩＲＩ,,合同会社,東京都,新宿区,大久保１丁目８番２号,,13,104,1690072,,,,,,,2023-08-14,1,,,,,リリ,0
427,2011201024842,新規,0,2023-08-14,2023-08-14,住まいるＣｏｏＫ株式会社,,株式会社,東京都,中野区,東中野１丁目４番２号,,13,114,1640003,,,,,,,2023-08-14,1,,,,,スマイルクック,0
431,2011301028917,新規,0,2023-08-14,2023-08-14,株式会社桃花源,,株式会社,東京都,杉並区,桃井１丁目３７番１号,,13,115,1670034,,,,,,,2023-08-14,1,,,,,トカゲン,0
432,2011401025351,新規,0,2023-08-14,2023-08-14,株式会社Ｙａｍａｏｉ　ＦａｒＥ,,株式会社,東京都,板橋区,高島平２丁目２６番６号,,13,119,1750082,,,,,,,2023-08-14,1,,,,,ヤマオイファレ,0
434,2011501029640,新規,0,2023-08-14,2023-08-14,ＣＩＥＬ株式会社,,株式会社,東京都,北区,田端新町３丁目１５番１３号,,13,117,1140012,,,,,,,2023-08-14,1,,,,,シエル,0
435,2011503005714,新規,0,2023-08-14,2023-08-14,ＴＡＫＡＲＡ合同会社,,合同会社,東京都,北区,西ケ原３丁目１０番２－３０２号斉藤ビル,,13,117,1140024,,,,,,,2023-08-14,1,,,,,タカラ,0
438,2011701026520,新規,0,2023-08-14,2023-08-14,株式会社エスピーシー,,株式会社,東京都,江戸川区,小松川３丁目１２番２－１２１０号,,13,123,1320034,,,,,,,2023-08-14,1,,,,,エスピーシー,0
442,2012401040877,新規,0,2023-08-14,2023-08-14,ＮＳコミュニティ株式会社,,株式会社,東京都,多摩市,連光寺５丁目１０番地の４,,13,224,2060021,,,,,,,2023-08-14,1,,,,,エヌエスコミュニティ,0
444,2012801022566,新規,0,2023-08-14,2023-08-14,株式会社ソイルビジョン,,株式会社,東京都,立川市,錦町５丁目９番１９‐１０４号,,13,202,1900022,,,,,,,2023-08-14,1,,,,,ソイルビジョン,0
447,2013301051196,新規,0,2023-08-14,2023-08-14,ａｎｄＬＬＭ株式会社,,株式会社,東京都,豊島区,池袋２丁目１７番８号,,13,116,1710014,,,,,,,2023-08-14,1,,,,,アンドルム,0
451,2020001152919,新規,0,2023-08-14,2023-08-14,株式会社リプロ,,株式会社,神奈川県,横浜市西区,北幸２丁目１０番地２８むつみビル３Ｆ,,14,103,2200004,,,,,,,2023-08-14,1,,,,,リプロ,0
452,2020001152943,新規,0,2023-08-14,2023-08-14,株式会社横浜水槽,,株式会社,神奈川県,横浜市戸塚区,戸塚町３０６４番地２２,,14,110,2440003,,,,,,,2023-08-14,1,,,,,ヨコハマスイソウ,0
453,2020001152992,新規,0,2023-08-14,2023-08-14,Ｄ・Ｃジャパン株式会社,,株式会社,神奈川県,横浜市鶴見区,潮田町１丁目６１番２号,,14,101,2300041,,,,,,,2023-08-14,1,,,,,ディーシージャパン,0
454,2020001153009,新規,0,2023-08-14,2023-08-14,株式会社エンドレスジャーニー,,株式会社,神奈川県,横浜市青葉区,青葉台２丁目３－１,,14,117,2270062,,,,,,,2023-08-14,1,,,,,エンドレスジャーニー,0
460,2021001079870,新規,0,2023-08-14,2023-08-14,株式会社ミナモト設備,,株式会社,神奈川県,相模原市中央区,弥栄２丁目２番１号ディオール栄Ｉ－３０１,00131495,14,152,2520229,,,,,,,2023-08-14,1,,,,,ミナモトセツビ,0
461,2021001079887,新規,0,2023-08-14,2023-08-14,キャアス株式会社,,株式会社,神奈川県,藤沢市,片瀬山１丁目４番９号,,14,205,2510033,,,,,,,2023-08-14,1,,,,,キャアス,0
462,2021001079895,新規,0,2023-08-14,2023-08-14,株式会社２ｕ,,株式会社,神奈川県,相模原市中央区,上溝１９３３番地２１,,14,152,2520243,,,,,,,2023-08-14,1,,,,,ニュー,0
463,2021001079904,新規,0,2023-08-14,2023-08-14,株式会社ＳＥＫＩＤＥＮ,,株式会社,神奈川県,秦野市,弥生町６－１８－７,,14,211,2591311,,,,,,,2023-08-14,1,,,,,セキデン,0
464,2021001079920,新規,0,2023-08-14,2023-08-14,信和電気株式会社,,株式会社,神奈川県,相模原市中央区,富士見３丁目１６番１１－１０９号,,14,152,2520236,,,,,,,2023-08-14,1,,,,,シンワデンキ,0
465,2021003013448,新規,0,2023-08-14,2023-08-14,クレア・ストラテジー合同会社,,合同会社,神奈川県,藤沢市,辻堂東海岸１丁目１番２７号,,14,205,2510045,,,,,,,2023-08-14,1,,,,,クレアストラテジー,0
469,2030001154963,新規,0,2023-08-14,2023-08-14,ライフデザイン株式会社,,株式会社,埼玉県,飯能市,柳町８－９－４Ｆ,,11,209,3570035,,,,,,,2023-08-14,1,,,,,ライフデザイン,0
470,2030001155160,新規,0,2023-08-14,2023-08-14,株式会社ＮＩＦ,,株式会社,埼玉県,さいたま市浦和区,領家２丁目１番１－１０４号,,11,107,3300072,,,,,,,2023-08-14,1,,,,,エヌアイエフ,0
471,2030001155210,新規,0,2023-08-14,2023-08-14,大美楡林株式会社,,株式会社,埼玉県,朝霞市,三原１丁目７－１０スカイピア朝霞台２０１号,,11,227,3510025,,,,,,,2023-08-14,1,,,,,ダイミユリン,0
472,2030001155251,新規,0,2023-08-14,2023-08-14,ＣＳパートナーズ株式会社,,株式会社,埼玉県,越谷市,登戸町２７番２０号,,11,222,3430846,,,,,,,2023-08-14,1,,,,,シーエスパートナーズ,0
473,2030001155417,新規,0,2023-08-14,2023-08-14,株式会社ＫＹコーポレート,,株式会社,埼玉県,朝霞市,根岸台２丁目９番１５号,,11,227,3510005,,,,,,,2023-08-14,1,,,,,ケイワイコーポレート,0
478,2030003022268,新規,0,2023-08-14,2023-08-14,合同会社ＩＮＴ,,合同会社,埼玉県,さいたま市大宮区,天沼町１丁目１７１番地５,,11,103,3300834,,,,,,,2023-08-14,1,,,,,アイエヌティー,0
479,2030003022342,新規,0,2023-08-14,2023-08-14,合同会社ＴＦＫ,,合同会社,埼玉県,さいたま市浦和区,本太２丁目２２番１３号,,11,107,3300052,,,,,,,2023-08-14,1,,,,,ティーエフケー,0
486,2040001129650,新規,0,2023-08-14,2023-08-14,株式会社わえん,,株式会社,千葉県,八千代市,緑が丘１丁目１１０６番地５,,12,221,2760049,,,,,,,2023-08-14,1,,,,,ワエン,0
487,2040001129659,新規,0,2023-08-14,2023-08-14,ＪＰＢ株式会社,,株式会社,千葉県,千葉市緑区,誉田町１丁目７８９番地３,,12,105,2660005,,,,,,,2023-08-14,1,,,,,ジェイピービー,0
488,2040001129667,新規,0,2023-08-14,2023-08-14,株式会社ＺＥＮ,,株式会社,千葉県,長生郡一宮町,一宮１０１３１番地１,,12,421,2994301,,,,,,,2023-08-14,1,,,,,ゼン,0
496,2050001053271,新規,0,2023-08-14,2023-08-14,株式会社スッキリ,,株式会社,茨城県,水戸市,河和田町３８９１番地５９０,,08,201,3114153,,,,,,,2023-08-14,1,,,,,スッキリ,0
497,2050001053296,新規,0,2023-08-14,2023-08-14,株式会社清水エコファーム,,株式会社,茨城県,かすみがうら市,下志筑１７２３番地１,,08,230,3150074,,,,,,,2023-08-14,1,,,,,シミズエコファーム,0
501,2060003004668,新規,0,2023-08-14,2023-08-14,合同会社Ｓｍｉｌｅ　Ｌｉｆｅ,,合同会社,栃木県,宇都宮市,宝木本町１２３１番地１９チャコールグリーンＡ棟,,09,201,3200075,,,,,,,2023-08-14,1,,,,,スマイルライフ,0
502,2060003004684,新規,0,2023-08-14,2023-08-14,Ｇｏｄｗｉｎ　Ｐｅｒｆｏｒｍａｎｃｅ　Ｓｏｌｕｔｉｏｎｓ合同会社,,合同会社,栃木県,大田原市,蛭田１９７４番地,,09,210,3240412,,,,,,,2023-08-14,1,,,,,ゴッドウィンパフォーマンスソリューションズ,0
504,2070001040722,新規,0,2023-08-14,2023-08-14,Ｃｏｓｍｅｃｒａｆｔ株式会社,,株式会社,群馬県,邑楽郡千代田町,大字福島３８８番地の１,,10,523,3700501,,,,,,,2023-08-14,1,,,,,コスメクラフト,0
505,2070001040739,新規,0,2023-08-14,2023-08-14,株式会社小倉,,株式会社,群馬県,伊勢崎市,連取元町２番地３,,10,204,3720818,,,,,,,2023-08-14,1,,,,,オグラ,0
506,2070001040747,新規,0,2023-08-14,2023-08-14,株式会社高崎アール不動産,,株式会社,群馬県,高崎市,三ツ寺町５０番地１,,10,202,3703525,,,,,,,2023-08-14,1,,,,,タカサキアールフドウサン,0
509,2080003003032,新規,0,2023-08-14,2023-08-14,合同会社ＭＡＩＣＨＩホールディングス,,合同会社,静岡県,静岡市駿河区,鎌田３４６番地,,22,102,4210133,,,,,,,2023-08-14,1,,,,,マイチホールディングス,0
515,2100001036683,新規,0,2023-08-14,2023-08-14,昇龍物産株式会社,,株式会社,長野県,北安曇郡白馬村,大字北城１番地１５,,20,485,3999301,,,,,,,2023-08-14,1,,,,,ショウリュウブッサン,0
519,2110003005132,新規,0,2023-08-14,2023-08-14,合同会社フォレスト,,合同会社,新潟県,上越市,大豆１丁目１１番５２号,,15,222,9430802,,,,,,,2023-08-14,1,,,,,フォレスト,0
528,2120001257113,新規,0,2023-08-14,2023-08-14,株式会社ＫＡＮＡＤＥ,,株式会社,大阪府,大阪市中央区,西心斎橋１丁目１３番１８号ＴｈｅＰｌａｃｅ,,27,128,5420086,,,,,,,2023-08-14,1,,,,,カナデ,0
529,2120001257121,新規,0,2023-08-14,2023-08-14,株式会社吉田組,,株式会社,大阪府,大阪市住之江区,粉浜１丁目４番１７－３０５号,,27,125,5590001,,,,,,,2023-08-14,1,,,,,ヨシダグミ,0
530,2120001257179,新規,0,2023-08-14,2023-08-14,株式会社Ｌｉｅｎ,,株式会社,大阪府,大阪市中央区,十二軒町４番２号岸本産業ビル１０３号,,27,128,5400015,,,,,,,2023-08-14,1,,,,,リアン,0
531,2120001257187,新規,0,2023-08-14,2023-08-14,株式会社ＬＵＸＥ,,株式会社,大阪府,大阪市淀川区,東三国４丁目１１－４新大阪明成ビル４０１号,,27,123,5320002,,,,,,,2023-08-14,1,,,,,リュクス,0
532,2120001257229,新規,0,2023-08-14,2023-08-14,株式会社當瀬,,株式会社,大阪府,門真市,岸和田３丁目３０番１９号,,27,223,5710002,,,,,,,2023-08-14,1,,,,,トウセ,0
533,2120001257237,新規,0,2023-08-14,2023-08-14,萬金株式会社,,株式会社,大阪府,大阪市中央区,島之内１丁目４－１４,,27,128,5420082,,,,,,,2023-08-14,1,,,,,マンキン,0
534,2120001257253,新規,0,2023-08-14,2023-08-14,鵬喜株式会社,,株式会社,大阪府,大阪市鶴見区,今津北３丁目３番１３号,,27,124,5380041,,,,,,,2023-08-14,1,,,,,ホウキ,0
535,2120001257261,新規,0,2023-08-14,2023-08-14,ＴＨＥＲＭＡＧＹ　Ｂｒｏｓ．株式会社,,株式会社,大阪府,大阪市天王寺区,大道４丁目１０番１７号,,27,109,5430052,,,,,,,2023-08-14,1,,,,,サーマジイブロス,0
536,2120001257278,新規,0,2023-08-14,2023-08-14,令和傳業株式会社,,株式会社,大阪府,大阪市北区,梅田１丁目２番２号大阪駅前第２ビル１２－１２,,27,127,5300001,,,,,,,2023-08-14,1,,,,,レイワデンギョウ,0
540,2120003024676,新規,0,2023-08-14,2023-08-14,合同会社Ｒｕｔｈ,,合同会社,大阪府,大阪市中央区,粉川町３番１５－４０６号,,27,128,5400018,,,,,,,2023-08-14,1,,,,,ルース,0
547,2120903004777,新規,0,2023-08-14,2023-08-14,合同会社ＹＹａｇｅｎｃｙ,,合同会社,大阪府,豊中市,城山町１丁目８番３－８０６号,,27,203,5610803,,,,,,,2023-08-14,1,,,,,ワイワイエージェンシー,0
548,2122001037263,新規,0,2023-08-14,2023-08-14,株式会社ｔｅｎａｃｉｔｙ,,株式会社,大阪府,八尾市,久宝園１丁目５９番地１,,27,212,5810817,,,,,,,2023-08-14,1,,,,,ティナシティー,0
549,2122001037271,新規,0,2023-08-14,2023-08-14,ハラミ掃業株式会社,,株式会社,大阪府,東大阪市,俊徳町４丁目１０番２１号１０１号,,27,227,5770831,,,,,,,2023-08-14,1,,,,,ハラミソウギョウ,0
554,2130001074920,新規,0,2023-08-14,2023-08-14,ヤマネ・インダストリーズ株式会社,,株式会社,京都府,京都市左京区,下鴨狗子田町３番地２－２０２号,,26,103,6060834,,,,,,,2023-08-14,1,,,,,ヤマネインダストリーズ,0
557,2140001131126,新規,0,2023-08-14,2023-08-14,株式会社Ｔ・ヤマモト,,株式会社,兵庫県,宝塚市,中山桜台４丁目６番４号,,28,214,6650877,,,,,,,2023-08-14,1,,,,,ティヤマモト,0
558,2140001131175,新規,0,2023-08-14,2023-08-14,株式会社功研ジオシステムサービス,,株式会社,兵庫県,神戸市須磨区,関守町２丁目２番１８号,,28,107,6540073,,,,,,,2023-08-14,1,,,,,コウケンジオシステムサービス,0
559,2140001131183,新規,0,2023-08-14,2023-08-14,株式会社Ｌｉｆｅ　ｉｓ　Ａｌｉｖｅ,,株式会社,兵庫県,南あわじ市,松帆古津路１８１,,28,224,6560304,,,,,,,2023-08-14,1,,,,,ライフイズアライブ,0
560,2140001131200,新規,0,2023-08-14,2023-08-14,ニワシマツシタデザイン株式会社,,株式会社,兵庫県,三田市,末２１５８番地２,,28,219,6691303,,,,,,,2023-08-14,1,,,,,ニワシマツシタデザイン,0
561,2140001131258,新規,0,2023-08-14,2023-08-14,株式会社Ｍｙ　ｕｎｉｖｅｒｓｅ,,株式会社,兵庫県,神戸市兵庫区,新開地２丁目４－１０,,28,105,6520811,,,,,,,2023-08-14,1,,,,,マイユニバース,0
565,2140003019419,新規,0,2023-08-14,2023-08-14,合同会社オイタ,,合同会社,兵庫県,姫路市,保城７６７番地１,,28,201,6700804,,,,,,,2023-08-14,1,,,,,オイタ,0
566,2150001026639,新規,0,2023-08-14,2023-08-14,株式会社ＫＹＲ不動産,,株式会社,奈良県,奈良市,都祁白石町１１９２番地の１５７,00131499,29,201,6320221,,,,,,,2023-08-14,1,,,,,ケイワイアールフドウサン,0
570,2170001017735,新規,0,2023-08-14,2023-08-14,株式会社Ｌｉｎｏコミュニケーションズ,,株式会社,和歌山県,和歌山市,園部１２９４番地２０,,30,201,6408483,,,,,,,2023-08-14,1,,,,,リノコミュニケーションズ,0
576,2180001157571,新規,0,2023-08-14,2023-08-14,ＭＩＲＡＩ‐ＮＡＢＩＬＩＴＹ株式会社,,株式会社,愛知県,名古屋市西区,菊井２丁目１９－８エステムプラザ名古屋駅前プライムタワー８０６号,,23,104,4510044,,,,,,,2023-08-14,1,,,,,ミライナビリティ,0
586,2190001030661,新規,0,2023-08-14,2023-08-14,株式会社ＳＫＹ・ＭＪ,,株式会社,三重県,四日市市,生桑町３２８番地,,24,202,5120911,,,,,,,2023-08-14,1,,,,,スカイエムジェイ,0
590,2200005013512,新規,0,2023-08-14,2023-08-14,一般社団法人Ｂ４ＢＣ　ＪＡＰＡＮ,,その他の設立登記法人,岐阜県,高山市,片野町５丁目４５７番地,,21,203,5060824,,,,,,,2023-08-14,1,,,,,ビーフォービーシージャパン,0
593,2220005008774,新規,0,2023-08-14,2023-08-14,一般社団法人日本Ｗｅｂ３．０推進協議会,,その他の設立登記法人,石川県,野々市市,本町２丁目１番２１号,,17,212,9218815,,,,,,,2023-08-14,1,,,,,ニホンウエブスリースイシンキョウギカイ,0
596,2240001061981,新規,0,2023-08-14,2023-08-14,あんしん住宅株式会社,,株式会社,広島県,広島市安佐南区,祇園６丁目２０番１号,,34,105,7310138,,,,,,,2023-08-14,1,,,,,アンシンジュウタク,0
598,2240005015629,新規,0,2023-08-14,2023-08-14,アイ・グローバルサービス行政書士法人,,その他の設立登記法人,広島県,広島市中区,白島九軒町１４－５,,34,101,7300003,,,,,,,2023-08-14,1,,,,,アイグローバルサービス,0
600,2250001020235,新規,0,2023-08-14,2023-08-14,ヘリックスエクステンション株式会社,,株式会社,山口県,宇部市,常盤台２丁目１６－１山口大学工学部内先端研究棟Ａ２０５号室,,35,202,7550097,,,,,,,2023-08-14,1,,,,,ヘリックスエクステンション,0
601,2250003003329,新規,0,2023-08-14,2023-08-14,合同会社ネクスティ,,合同会社,山口県,山口市,木町１番２８号,,35,203,7530095,,,,,,,2023-08-14,1,,,,,ネクスティ,0
609,2290001102517,新規,0,2023-08-14,2023-08-14,株式会社プエンテデザイン,,株式会社,福岡県,福岡市南区,和田４丁目４番１７号,,40,134,8111343,,,,,,,2023-08-14,1,,,,,プエンテデザイン,0
610,2290001102657,新規,0,2023-08-14,2023-08-14,株式会社ｅｓｔ,,株式会社,福岡県,福岡市中央区,天神２丁目２番１２号Ｔ＆Ｊビルディング７Ｆ,,40,133,8100001,,,,,,,2023-08-14,1,,,,,エスト,0
611,2290001102673,新規,0,2023-08-14,2023-08-14,株式会社ｙｍｅｄ,,株式会社,福岡県,福岡市早良区,田村４丁目２６番６号,,40,137,8140175,,,,,,,2023-08-14,1,,,,,ワイエムイーディー,0
612,2290003014231,新規,0,2023-08-14,2023-08-14,合同会社ｎａｎａ・ｍｕｓｕｂｉ,,合同会社,福岡県,福岡市博多区,青木１丁目１２番３１号,,40,132,8120851,,,,,,,2023-08-14,1,,,,,ナナムスビ,0
614,2290801029793,新規,0,2023-08-14,2023-08-14,株式会社環境保全協会,,株式会社,福岡県,北九州市小倉北区,三萩野１丁目９番１３号,,40,106,8020065,,,,,,,2023-08-14,1,,,,,カンキョウホゼンキョウカイ,0
615,2300001013431,新規,0,2023-08-14,2023-08-14,株式会社ユニホーム,,株式会社,佐賀県,佐賀市,若宮１丁目９番１０－１号,,41,201,8490926,,,,,,,2023-08-14,1,,,,,ユニホーム,0
619,2330001031166,新規,0,2023-08-14,2023-08-14,株式会社ＳＫ‐ミュージック,,株式会社,熊本県,熊本市中央区,帯山１丁目２９番４１号,,43,101,8620924,,,,,,,2023-08-14,1,,,,,エスケーミュージック,0
624,2340001025811,新規,0,2023-08-14,2023-08-14,都ボデー株式会社,,株式会社,鹿児島県,薩摩川内市,都町７５８２番地１,,46,215,8950043,,,,,,,2023-08-14,1,,,,,ミヤコボデー,0
625,2340003004210,新規,0,2023-08-14,2023-08-14,合同会社Ａｌｍａ　Ｃｒｅａｔｉｏｎ,,合同会社,鹿児島県,鹿屋市,打馬１丁目８０５１番地９４,,46,203,8930011,,,,,,,2023-08-14,1,,,,,アルマクリエーション,0
628,2350001018475,新規,0,2023-08-14,2023-08-14,株式会社オーキンス,,株式会社,宮崎県,宮崎市,青島５丁目１０番４号,,45,201,8892162,,,,,,,2023-08-14,1,,,,,オーキンス,0
629,2360003013201,新規,0,2023-08-14,2023-08-14,合同会社島Ｆ‐１,,合同会社,沖縄県,沖縄市,胡屋６丁目１３－３０,,47,211,9040021,,,,,,,2023-08-14,1,,,,,シマエフワン,0
630,2370001050261,新規,0,2023-08-14,2023-08-14,株式会社プロモーション東北,,株式会社,宮城県,仙台市青葉区,一番町２丁目６番１号シティハウス一番町中央２Ｆ,,04,101,9800811,,,,,,,2023-08-14,1,,,,,プロモーショントウホク,0
631,2370001050294,新規,0,2023-08-14,2023-08-14,ＭＡＴＥＥＮ　ＩＮＴＥＲＮＡＴＩＯＮＡＬ株式会社,,株式会社,宮城県,仙台市青葉区,山手町９番３２号ＦパレスＩ－１０１号,00131502,04,101,9810967,,,,,,,2023-08-14,1,,,,,マテイーンインターナショナル,0
632,2370001050311,新規,0,2023-08-14,2023-08-14,株式会社マルヒハウス,,株式会社,宮城県,仙台市青葉区,南吉成６丁目３－８－２０２,,04,101,9893204,,,,,,,2023-08-14,1,,,,,マルヒハウス,0
638,2380003005543,新規,0,2023-08-14,2023-08-14,合同会社希望,,合同会社,福島県,白河市,白坂三輪台７２番地３サンハウス三輪台Ａ１０１,,07,205,9610835,,,,,,,2023-08-14,1,,,,,キボウ,0
643,2400003003131,新規,0,2023-08-14,2023-08-14,合同会社Ｂｅｓｔ　Ｌｉｎｋ’ｓ,,合同会社,岩手県,北上市,新穀町１丁目７番４０－４０３号メルベイユ北上２,,03,206,0240092,,,,,,,2023-08-14,1,,,,,,0
649,2420001018360,新規,0,2023-08-14,2023-08-14,ＰｌａｔｉｎａＰｌａｓｍｉｄｓ株式会社,,株式会社,青森県,弘前市,大字早稲田３丁目７番地１４,,02,202,0368087,,,,,,,2023-08-14,1,,,,,プラチナプラスミズ,0
656,2430001089707,新規,0,2023-08-14,2023-08-14,詩の屋株式会社,,株式会社,北海道,札幌市白石区,本郷通７丁目北７番２０号,,01,104,0030025,,,,,,,2023-08-14,1,,,,,ウタノヤ,0
657,2430001089715,新規,0,2023-08-14,2023-08-14,株式会社ライズ,,株式会社,北海道,札幌市南区,定山渓温泉西１丁目２５番地１ノースピア定山渓６０４号,,01,106,0612303,,,,,,,2023-08-14,1,,,,,ライズ,0
658,2430001089756,新規,0,2023-08-14,2023-08-14,株式会社ＯＰＴＩＭＩＺＥ,,株式会社,北海道,札幌市中央区,北一条西３丁目３番地ばらと北一条ビル１０階,,01,101,0600001,,,,,,,2023-08-14,1,,,,,オプティマイズ,0
659,2430003015306,新規,0,2023-08-14,2023-08-14,合同会社ＳｉｒｏＫｕｎｉ,,合同会社,北海道,札幌市豊平区,月寒東四条７丁目３番２２号プリモ月寒３０１号室,,01,105,0620054,,,,,,,2023-08-14,1,,,,,シロクニ,0
660,2430003015339,新規,0,2023-08-14,2023-08-14,Ｉｎｙａｎ合同会社,,合同会社,北海道,札幌市豊平区,美園九条６丁目２番２２号,,01,105,0620009,,,,,,,2023-08-14,1,,,,,インヤン,0
661,2430003015347,新規,0,2023-08-14,2023-08-14,合同会社ＭＧＭ,,合同会社,北海道,虻田郡倶知安町,北二条西１丁目３番地８,,01,400,0440052,,,,,,,2023-08-14,1,,,,,エムジーエム,0
663,2450001014076,新規,0,2023-08-14,2023-08-14,Ｐａｒｋｗｏｏｄ　Ｈｏｔｅｌｓ　Ｆｕｒａｎｏ株式会社,,株式会社,北海道,富良野市,北の峰町１４番３８号,,01,229,0760034,,,,,,,2023-08-14,1,,,,,パークウッドホテルズフラノ,0
665,2500001025118,新規,0,2023-08-14,2023-08-14,株式会社永和テクノス,,株式会社,愛媛県,新居浜市,瀬戸町６番１９号,,38,205,7920821,,,,,,,2023-08-14,1,,,,,エイワテクノス,0
667,2700150116696,新規,0,2023-08-14,2023-08-14,深セン遠貿通達貿易有限公司,,外国会社等,,,,,,,,中国深セン市龍崗区坂田街道黄金山社区５巷１５号１００３室,,,,,,2023-08-14,1,,,,,シンセンエンボウツウタツボウエキユウゲンコウシ,0
668,2700150117050,新規,0,2023-08-14,2023-08-14,義烏市多豪電子商務有限公司,,外国会社等,,,,,,,,中国浙江省義烏市北苑街道柳青二区２３幢５単元５０１室,,,,,,2023-08-14,1,,,,,ギウシタゴウデンシショウムユウゲンコウシ,0
669,2700150117067,新規,0,2023-08-14,2023-08-14,上海亦大網絡科技有限公司,,外国会社等,,,,,,,,中国上海市静安区江場西路１５７７弄１－２号２０８室,,,,,,2023-08-14,1,,,,,シャンハイエキダイモウラクカギユウゲンコウシ,0
670,2700150117364,新規,0,2023-08-14,2023-08-14,義烏市凱鴿電子商務有限公司,,外国会社等,,,,,,,,中国浙江省義烏市北苑街道凌雲八区９０幢１単元４０１室,,,,,,2023-08-14,1,,,,,ギウシカイコウデンシショウムユウゲンコウシ,0
671,2700150117397,新規,0,2023-08-14,2023-08-14,義烏市淘昇電子商務有限公司,,外国会社等,,,,,,,,中国浙江省義烏市北苑街道景三路１１号総合楼６楼６１５室,,,,,,2023-08-14,1,,,,,ギウシトウショウデンシショウムユウゲンコウシ,0
672,2700150117736,新規,0,2023-08-14,2023-08-14,深セン市燕之源貿易有限公司,,外国会社等,,,,,,,,中国深セン市龍華新区民治街道創業花園１７７棟８０１１,,,,,,2023-08-14,1,,,,,シンセンシエンシゲンボウエキユウゲンコウシ,0
685,3010001237587,新規,0,2023-08-14,2023-08-14,株式会社ｋａｔａｒｕ,,株式会社,東京都,千代田区,内神田２丁目２番６号,,13,101,1010047,,,,,,,2023-08-14,1,,,,,カタル,0
686,3010001237629,新規,0,2023-08-14,2023-08-14,株式会社ゼロライズ,,株式会社,東京都,文京区,小石川１丁目１番１号文京ガーデンゲートタワー３階,,13,105,1120002,,,,,,,2023-08-14,1,,,,,ゼロライズ,0
687,3010001237645,新規,0,2023-08-14,2023-08-14,株式会社Ｄｒｅａｔｏ,,株式会社,東京都,中央区,銀座１丁目１２番４号Ｎ＆Ｅ．ＢＬＤ．６Ｆ,,13,102,1040061,,,,,,,2023-08-14,1,,,,,ドリート,0
688,3010001237686,新規,0,2023-08-14,2023-08-14,株式会社日比谷天鴻,,株式会社,東京都,千代田区,神田神保町２丁目４６番地赤石建設ビル３０２,,13,101,1010051,,,,,,,2023-08-14,1,,,,,ヒビヤテンコウ,0
690,3010003041285,新規,0,2023-08-14,2023-08-14,Ｍｉｎａｔｏ＆Ｃｏｍｐａｎｙ合同会社,,合同会社,東京都,文京区,本駒込６丁目１５番１６－６０２号,,13,105,1130021,,,,,,,2023-08-14,1,,,,,ミナトアンドカンパニー,0
691,3010003041335,新規,0,2023-08-14,2023-08-14,ＭｅｓｈＮｏｄｅ合同会社,,合同会社,東京都,千代田区,神田和泉町１番地６－１６－４０５,,13,101,1010024,,,,,,,2023-08-14,1,,,,,メッシュノード,0
692,3010003041376,新規,0,2023-08-14,2023-08-14,合同会社アクセス,,合同会社,東京都,千代田区,永田町２丁目１４番２号山王グランドビル３階,,13,101,1000014,,,,,,,2023-08-14,1,,,,,アクセス,0
695,3010101015769,新規,0,2023-08-14,2023-08-14,株式会社アプローチ,,株式会社,東京都,八王子市,下恩方町２８８番地５,,13,201,1920154,,,,,,,2023-08-14,1,,,,,アプローチ,0
703,3010401176303,新規,0,2023-08-14,2023-08-14,株式会社５００,,株式会社,東京都,港区,南青山６丁目８－２エステラス南青山６０１,,13,103,1070062,,,,,,,2023-08-14,1,,,,,キニエントス,0
704,3010401176393,新規,0,2023-08-14,2023-08-14,Ｍｏｂｉｌｉｔｙ＆Ｍａｉｎｔｅｎａｎｃｅ　Ｊａｐａｎ株式会社,,株式会社,東京都,港区,北青山２丁目５番１号,,13,103,1070061,,,,,,,2023-08-14,1,,,,,モビリティアンドメンテナンスジャパン,0
705,3010401176402,新規,0,2023-08-14,2023-08-14,Ｓｅｖｅｎ　Ｓｔａｒ　Ｐａｒｔｎｅｒｓ株式会社,,株式会社,東京都,港区,六本木１丁目６番１号泉ガーデンタワー１０Ｆ,,13,103,1060032,,,,,,,2023-08-14,1,,,,,セブンスターパートナーズ,0
706,3010401176410,新規,0,2023-08-14,2023-08-14,株式会社シーユーシー・リアルエステート,,株式会社,東京都,港区,芝浦３丁目１番１号,,13,103,1080023,,,,,,,2023-08-14,1,,,,,シーユーシーリアルエステート,0
709,3010403030680,新規,0,2023-08-14,2023-08-14,ＮＥＷ　ＧＡＴＥ合同会社,,合同会社,東京都,港区,南麻布１丁目５番３０－９０１号,,13,103,1060047,,,,,,,2023-08-14,1,,,,,ニューゲート,0
710,3010403030697,新規,0,2023-08-14,2023-08-14,ＥＧ１合同会社,,合同会社,東京都,港区,六本木１丁目６番１号,,13,103,1060032,,,,,,,2023-08-14,1,,,,,イージーワン,0
722,3010805003045,新規,0,2023-08-14,2023-08-14,一般社団法人Ｆｅｇｆｉｓ,,その他の設立登記法人,東京都,大田区,南千束３丁目２０番１１号,,13,111,1450063,,,,,,,2023-08-14,1,,,,,フェグフィス,0
723,3010901053646,新規,0,2023-08-14,2023-08-14,株式会社ＹＯＵカンパニー,,株式会社,東京都,世田谷区,奥沢８丁目４番１２号,,13,112,1580083,,,,,,,2023-08-14,1,,,,,ユーカンパニー,0
730,3011001156182,新規,0,2023-08-14,2023-08-14,ドットシー株式会社,,株式会社,東京都,目黒区,目黒１丁目４番１６号目黒Ｇビル７Ｆ,,13,110,1530063,,,,,,,2023-08-14,1,,,,,ドットシー,0
731,3011001156249,新規,0,2023-08-14,2023-08-14,株式会社きらりプロデュース,,株式会社,東京都,目黒区,目黒本町４丁目３番１３号,,13,110,1520002,,,,,,,2023-08-14,1,,,,,キラリプロデュース,0
737,3011101103968,新規,0,2023-08-14,2023-08-14,信誠株式会社,,株式会社,東京都,新宿区,榎町３４－３榎町ビル７階－２８室,,13,104,1620806,,,,,,,2023-08-14,1,,,,,シンセイ,0
738,3011101104000,新規,0,2023-08-14,2023-08-14,株式会社ＯＧＪ,,株式会社,東京都,新宿区,高田馬場３丁目４６－１５Ｔ－Ｆｌａｔ２０１,,13,104,1690075,,,,,,,2023-08-14,1,,,,,オージージェー,0
739,3011301028924,新規,0,2023-08-14,2023-08-14,株式会社アトリエ・カデンツァ,,株式会社,東京都,杉並区,高円寺南３丁目２３－１７きみとビル２Ｆ,,13,115,1660003,,,,,,,2023-08-14,1,,,,,アトリエカデンツァ,0
740,3011501029648,新規,0,2023-08-14,2023-08-14,常泰有道株式会社,,株式会社,東京都,北区,東田端２丁目９番１７－２１２号,,13,117,1140013,,,,,,,2023-08-14,1,,,,,ジョウタイユウドウ,0
741,3011503005713,新規,0,2023-08-14,2023-08-14,ＳＹＫトラスト合同会社,,合同会社,東京都,北区,王子２丁目２２番５号,,13,117,1140002,,,,,,,2023-08-14,1,,,,,エスワイケートラスト,0
745,3011801042870,新規,0,2023-08-14,2023-08-14,株式会社三井アドバイザリー＆コンサルティング,,株式会社,東京都,足立区,西新井４丁目２０番１１パレステージ西新井みどり公園３１３号室,,13,121,1230841,,,,,,,2023-08-14,1,,,,,ミツイアドバイザリーアンドコンサルティング,0
750,3012805003215,新規,0,2023-08-14,2023-08-14,一般社団法人Ｂ’ｓ　Ｌａｂｏ,,その他の設立登記法人,東京都,国立市,富士見台３丁目３２番地の４－１０１２,,13,215,1860003,,,,,,,2023-08-14,1,,,,,ベースラボ,0
761,3020001152918,新規,0,2023-08-14,2023-08-14,株式会社ＨＫＬ,,株式会社,神奈川県,川崎市川崎区,砂子２丁目６番地８ＹＫ－９ビル３Ｆ,,14,131,2100006,,,,,,,2023-08-14,1,,,,,エイチケーエル,0
762,3020001152959,新規,0,2023-08-14,2023-08-14,株式会社Ｌｅ　Ｌｉｅｎ,,株式会社,神奈川県,横浜市青葉区,市ケ尾町１１５３番地３,,14,117,2250024,,,,,,,2023-08-14,1,,,,,ルリアン,0
763,3020001152975,新規,0,2023-08-14,2023-08-14,株式会社アイエヌイノベーション,,株式会社,神奈川県,横浜市栄区,飯島町２１４４番地クラージュプランタン１０１,,14,115,2440842,,,,,,,2023-08-14,1,,,,,アイエヌイノベーション,0
764,3020001152991,新規,0,2023-08-14,2023-08-14,株式会社Ｈｕｇ‐Ｋｕｍ,,株式会社,神奈川県,横浜市金沢区,片吹３６番４号,,14,108,2360055,,,,,,,2023-08-14,1,,,,,ハグクム,0
765,3020001153008,新規,0,2023-08-14,2023-08-14,Ｂｒｉｇｈｔ　Ｗｏｒｋ　Ｈｕｂ株式会社,,株式会社,神奈川県,横浜市中区,竹之丸１２４番地７,,14,104,2310847,,,,,,,2023-08-14,1,,,,,ブライトワークハブ,0
773,3020003024363,新規,0,2023-08-14,2023-08-14,合同会社アウル,,合同会社,神奈川県,横浜市神奈川区,金港町８番地１ドゥーエ横浜駅前１８０２号,,14,102,2210056,,,,,,,2023-08-14,1,,,,,アウル,0
778,3021001079861,新規,0,2023-08-14,2023-08-14,株式会社ＰＨＢ　ＨＯＭＥ,,株式会社,神奈川県,横須賀市,野比３丁目３６番８－２１１号,,14,201,2390841,,,,,,,2023-08-14,1,,,,,ピーエイチビーホーム,0
779,3021001079878,新規,0,2023-08-14,2023-08-14,株式会社高木設計室,,株式会社,神奈川県,横須賀市,秋谷３丁目４番５号,,14,201,2400105,,,,,,,2023-08-14,1,,,,,タカギセッケイシツ,0
780,3021001079886,新規,0,2023-08-14,2023-08-14,ハートフェルト株式会社,,株式会社,神奈川県,足柄上郡山北町,山北２６３０番地,,14,364,2580113,,,,,,,2023-08-14,1,,,,,ハートフェルト,0
781,3021001079911,新規,0,2023-08-14,2023-08-14,株式会社ＣＯＮＮＥＣＴ　ＦＡＭ,,株式会社,神奈川県,海老名市,社家３丁目２番４５－２０５号,,14,215,2430424,,,,,,,2023-08-14,1,,,,,コネクトファム,0
785,3021003013439,新規,0,2023-08-14,2023-08-14,合同会社ＴＢＪ,,合同会社,神奈川県,相模原市南区,上鶴間６丁目１１番９号,,14,153,2520302,,,,,,,2023-08-14,1,,,,,ティービージェイ,0
794,3030001155234,新規,0,2023-08-14,2023-08-14,株式会社ＢｌｕｅＴｒｅｅ,,株式会社,埼玉県,川口市,末広３丁目６番２６号,,11,203,3320006,,,,,,,2023-08-14,1,,,,,ブルーツリー,0
795,3030001155250,新規,0,2023-08-14,2023-08-14,ＢＲＯＷＮＹＡＲＤ株式会社,,株式会社,埼玉県,さいたま市桜区,大字塚本２５番地９,,11,106,3380816,,,,,,,2023-08-14,1,,,,,ブラウンヤード,0
796,3030001155267,新規,0,2023-08-14,2023-08-14,株式会社新星工業,,株式会社,埼玉県,草加市,青柳５丁目２５番１２号,,11,221,3400002,,,,,,,2023-08-14,1,,,,,シンセイコウギョウ,0
797,3030001155283,新規,0,2023-08-14,2023-08-14,株式会社ワタナベボーリング,,株式会社,埼玉県,羽生市,大字本川俣６９０番地６,,11,216,3480051,,,,,,,2023-08-14,1,,,,,ワタナベボーリング,0
798,3030001155309,新規,0,2023-08-14,2023-08-14,株式会社藤島リフォーム,,株式会社,埼玉県,川口市,南前川２丁目１４番１２号,,11,203,3330846,,,,,,,2023-08-14,1,,,,,フジシマリフォーム,0
799,3030001155325,新規,0,2023-08-14,2023-08-14,株式会社Ｔ＆Ｔ,,株式会社,埼玉県,加須市,花崎４丁目１６番地１０,,11,210,3470032,,,,,,,2023-08-14,1,,,,,ティーアンドティー,0
804,3030003022283,新規,0,2023-08-14,2023-08-14,合同会社エルシャダイ,,合同会社,埼玉県,川口市,南鳩ヶ谷２丁目８番２４号,,11,203,3340013,,,,,,,2023-08-14,1,,,,,エルシャダイ,0
805,3030003022291,新規,0,2023-08-14,2023-08-14,エムラボ合同会社,,合同会社,埼玉県,志木市,上宗岡４丁目２２番１１号,,11,228,3530001,,,,,,,2023-08-14,1,,,,,エムラボ,0
806,3030003022341,新規,0,2023-08-14,2023-08-14,蓮宮合同会社,,合同会社,埼玉県,三郷市,南蓮沼５９０番地２,,11,237,3410028,,,,,,,2023-08-14,1,,,,,ハスミヤ,0
812,3040001129724,新規,0,2023-08-14,2023-08-14,クラウドワークス株式会社,,株式会社,千葉県,船橋市,本町２丁目２６番２５号,,12,204,2730005,,,,,,,2023-08-14,1,,,,,クラウドワークス,0
813,3040003023116,新規,0,2023-08-14,2023-08-14,合同会社ＮＩＳ千葉,,合同会社,千葉県,白井市,七次台１丁目１９－２,,12,232,2701436,,,,,,,2023-08-14,1,,,,,エヌアイエスチバ,0
814,3040003023124,新規,0,2023-08-14,2023-08-14,合同会社ＭＴＩ,,合同会社,千葉県,流山市,おおたかの森南２丁目３８番地の１２,,12,220,2700139,,,,,,,2023-08-14,1,,,,,エムティーアイ,0
818,3050003007712,新規,0,2023-08-14,2023-08-14,合同会社ＳＫＲ,,合同会社,茨城県,土浦市,永国東町４７番２号,,08,203,3000816,,,,,,,2023-08-14,1,,,,,エスケイアール,0
823,3060003004683,新規,0,2023-08-14,2023-08-14,Ｎｅｗ　Ａｒｒｉｖａｌ合同会社,,合同会社,栃木県,宇都宮市,針ケ谷１丁目１５番９号,,09,201,3210137,,,,,,,2023-08-14,1,,,,,ニューアライヴァル,0
827,3070005010159,新規,0,2023-08-14,2023-08-14,一般社団法人今別風力宮本,,その他の設立登記法人,群馬県,前橋市,上泉町１５５４番地３,,10,201,3710007,,,,,,,2023-08-14,1,,,,,,0
834,3080403004851,新規,0,2023-08-14,2023-08-14,合同会社まあべらす．,,合同会社,静岡県,浜松市西区,大平台３丁目３６番３号フォルトーナ１０３,,22,133,4328068,,,,,,,2023-08-14,1,,,,,マアベラス,0
835,3100001036674,新規,0,2023-08-14,2023-08-14,株式会社サン・スタッフ長野,,株式会社,長野県,長野市,稲里町田牧１６０７番地５,,20,201,3812214,,,,,,,2023-08-14,1,,,,,サンスタッフナガノ,0
836,3100001036682,新規,0,2023-08-14,2023-08-14,株式会社ＲｏｏｔＲｏｕｔｅ,,株式会社,長野県,北佐久郡軽井沢町,大字長倉４１０１番地４６,,20,321,3890111,,,,,,,2023-08-14,1,,,,,ルートルート,0
844,3110001037762,新規,0,2023-08-14,2023-08-14,株式会社ウッドワークス,,株式会社,新潟県,南魚沼市,美佐島８１番地９,,15,226,9496608,,,,,,,2023-08-14,1,,,,,ウッドワークス,0
856,3120001257211,新規,0,2023-08-14,2023-08-14,Ｆｉｖｅ‐ｃｏｎｎ株式会社,,株式会社,大阪府,大阪市都島区,御幸町２丁目１－１０,,27,102,5340012,,,,,,,2023-08-14,1,,,,,ファイブコーン,0
857,3120001257228,新規,0,2023-08-14,2023-08-14,スーパーミドル株式会社,,株式会社,大阪府,大阪市淀川区,十三本町１丁目９番４号,,27,123,5320024,,,,,,,2023-08-14,1,,,,,スーパーミドル,0
858,3120001257302,新規,0,2023-08-14,2023-08-14,株式会社アルエント,,株式会社,大阪府,大阪市浪速区,湊町２丁目２番４５号,,27,111,5560017,,,,,,,2023-08-14,1,,,,,アルエント,0
861,3120003024675,新規,0,2023-08-14,2023-08-14,合同会社スローフォワード,,合同会社,大阪府,大阪市平野区,喜連４丁目４番８号エフスタイル喜連１０２,,27,126,5470027,,,,,,,2023-08-14,1,,,,,スローフォワード,0
864,3120005023824,新規,0,2023-08-14,2023-08-14,リブウェイ行政書士法人,,その他の設立登記法人,大阪府,寝屋川市,対馬江東町５番１２号,,27,215,5720064,,,,,,,2023-08-14,1,,,,,リブウェイ,0
868,3120101068070,新規,0,2023-08-14,2023-08-14,株式会社ＡＫ,,株式会社,大阪府,和泉市,唐国町１丁目１０番８２号,,27,219,5941151,,,,,,,2023-08-14,1,,,,,エーケー,0
871,3120901047942,新規,0,2023-08-14,2023-08-14,株式会社もせこ,,株式会社,大阪府,豊中市,服部本町１丁目２番２号,,27,203,5610852,,,,,,,2023-08-14,1,,,,,モセコ,0
872,3122001037262,新規,0,2023-08-14,2023-08-14,Ｂｏｏ　Ｂｏｏ　Ｆａｃｔｏｒｙ株式会社,,株式会社,大阪府,東大阪市,小若江３丁目６番９号,,27,227,5770818,,,,,,,2023-08-14,1,,,,,ブーブーファクトリー,0
875,3130001074928,新規,0,2023-08-14,2023-08-14,株式会社八総,,株式会社,京都府,京都市伏見区,下鳥羽南三町６７,,26,109,6128478,,,,,,,2023-08-14,1,,,,,ハッソウ,0
876,3130001074977,新規,0,2023-08-14,2023-08-14,ファミリア株式会社,,株式会社,京都府,京都市下京区,葛籠屋町５１９,,26,106,6008085,,,,,,,2023-08-14,1,,,,,ファミリア,0
883,3140001131158,新規,0,2023-08-14,2023-08-14,株式会社ＯＬＵＯＬＵ,,株式会社,兵庫県,南あわじ市,中条中筋４４２番地１,,28,224,6560143,,,,,,,2023-08-14,1,,,,,オルオル,0
884,3140001131166,新規,0,2023-08-14,2023-08-14,株式会社橋本ビル,,株式会社,兵庫県,明石市,松の内２丁目６番地の２アルファステイツ西明石駅９０５号,,28,203,6730016,,,,,,,2023-08-14,1,,,,,ハシモトビル,0
885,3140001131174,新規,0,2023-08-14,2023-08-14,株式会社山本設備工業,,株式会社,兵庫県,洲本市,下内膳６６－１,,28,205,6560016,,,,,,,2023-08-14,1,,,,,ヤマモトセツビコウギョウ,0
886,3140001131182,新規,0,2023-08-14,2023-08-14,株式会社セントラル,,株式会社,兵庫県,西脇市,野村町７００番地の８,,28,213,6770054,,,,,,,2023-08-14,1,,,,,セントラル,0
887,3140001131190,新規,0,2023-08-14,2023-08-14,ＭＩＹＡＵＣＨＩ　ＩＮＴＥＲＮＡＴＩＯＮＡＬ　ＴＲＡＤＩＮＧ株式会社,,株式会社,兵庫県,神戸市東灘区,住吉山手８丁目７番３２９号,,28,101,6580063,,,,,,,2023-08-14,1,,,,,ミヤウチインターナショナルトレーディング,0
888,3140001131199,新規,0,2023-08-14,2023-08-14,株式会社ＳＴＡＣＫ,,株式会社,兵庫県,三田市,下井沢６７番地２０,,28,219,6691315,,,,,,,2023-08-14,1,,,,,スタック,0
889,3140001131224,新規,0,2023-08-14,2023-08-14,株式会社苣木工業,,株式会社,兵庫県,姫路市,飾磨区西浜町１丁目１０番地,,28,201,6728086,,,,,,,2023-08-14,1,,,,,スガキコウギョウ,0
890,3140001131240,新規,0,2023-08-14,2023-08-14,株式会社プラスポート計量,,株式会社,兵庫県,神戸市中央区,港島４丁目１番地,,28,110,6500045,,,,,,,2023-08-14,1,,,,,プラスポートケイリョウ,0
901,3170001017734,新規,0,2023-08-14,2023-08-14,株式会社ｉＫＤ,,株式会社,和歌山県,有田郡広川町,大字名島３０９番地,,30,362,6430066,,,,,,,2023-08-14,1,,,,,アイケイディ,0
916,3180001157579,新規,0,2023-08-14,2023-08-14,エーアンドケー株式会社,,株式会社,愛知県,名古屋市名東区,照が丘３５番地の４,,23,115,4650042,,,,,,,2023-08-14,1,,,,,エーアンドケー,0
924,3180003025593,新規,0,2023-08-14,2023-08-14,合同会社スローライフ心,,合同会社,愛知県,日進市,五色園４丁目２００９番地,,23,230,4700105,,,,,,,2023-08-14,1,,,,,スローライフシン,0
925,3180003025602,新規,0,2023-08-14,2023-08-14,合同会社こまふる,,合同会社,愛知県,尾張旭市,東栄町４丁目１１番地１０チサンマンション三郷弐番館６０４号,,23,226,4880011,,,,,,,2023-08-14,1,,,,,コマフル,0
928,3180005020320,新規,0,2023-08-14,2023-08-14,一般社団法人愛翔会,,その他の設立登記法人,愛知県,名古屋市中区,丸の内３丁目７番２６号ＡＣＡビル３階,,23,106,4600002,,,,,,,2023-08-14,1,,,,,アイショウカイ,0
933,3190001030660,新規,0,2023-08-14,2023-08-14,株式会社インテリアおかじま,,株式会社,三重県,四日市市,東日野町７９１番地２３,,24,202,5100942,,,,,,,2023-08-14,1,,,,,インテリアオカジマ,0
939,3240001061980,新規,0,2023-08-14,2023-08-14,Ｈａｍａｏ　Ｗｏｒｌｄ株式会社,,株式会社,広島県,広島市西区,天満町６番８－６０８号,,34,104,7330022,,,,,,,2023-08-14,1,,,,,ハマオワールド,0
940,3240001061989,新規,0,2023-08-14,2023-08-14,株式会社未来,,株式会社,広島県,広島市中区,竹屋町３番２３号グランドポレストーネ竹屋１０１,,34,101,7300048,,,,,,,2023-08-14,1,,,,,ミラクル,0
942,3240003006257,新規,0,2023-08-14,2023-08-14,Ｂ＆Ｔ合同会社,,合同会社,広島県,広島市中区,吉島東２丁目１７番２０－７０６号,,34,101,7300822,,,,,,,2023-08-14,1,,,,,ビーアンドティー,0
943,3250001020234,新規,0,2023-08-14,2023-08-14,株式会社ＢＵＣＨＩ　ＭＡＲＫＥＴ,,株式会社,山口県,下松市,駅南２丁目１２番１２号,,35,207,7440007,,,,,,,2023-08-14,1,,,,,ブチマーケット,0
944,3250001020242,新規,0,2023-08-14,2023-08-14,株式会社兼八,,株式会社,山口県,岩国市,玖珂町９８５番地３,,35,208,7420344,,,,,,,2023-08-14,1,,,,,カネハチ,0
946,3260001038226,新規,0,2023-08-14,2023-08-14,株式会社ＳＡＭＦＯＯＤ　ＩＮＴＥＲＮＡＴＩＯＮＡＬ,,株式会社,岡山県,高梁市,鍜冶町８１番地,,33,209,7160023,,,,,,,2023-08-14,1,,,,,サムフードインターナショナル,0
951,3290001102557,新規,0,2023-08-14,2023-08-14,株式会社アグリ・フード・サービス,,株式会社,福岡県,福岡市中央区,大濠２丁目１３番３８－７０３号,,40,133,8100052,,,,,,,2023-08-14,1,,,,,アグリフードサービス,0
952,3290001102615,新規,0,2023-08-14,2023-08-14,株式会社モトアシスト九州,,株式会社,福岡県,福岡市博多区,月隈３丁目２番３１号,,40,132,8120858,,,,,,,2023-08-14,1,,,,,モトアシストキュウシュウ,0
953,3290001102631,新規,0,2023-08-14,2023-08-14,花羽株式会社,,株式会社,福岡県,久留米市,北野町大城１８３番地,,40,203,8301104,,,,,,,2023-08-14,1,,,,,ケワ,0
954,3290001102656,新規,0,2023-08-14,2023-08-14,株式会社涼華,,株式会社,福岡県,福岡市南区,高宮１丁目２－３３,,40,134,8150083,,,,,,,2023-08-14,1,,,,,スズカ,0
958,3290003014222,新規,0,2023-08-14,2023-08-14,合同会社アクア未来福祉会,,合同会社,福岡県,福岡市東区,馬出３丁目１５番２５－３１１号,,40,131,8120054,,,,,,,2023-08-14,1,,,,,アクアミライフクシカイ,0
971,3330001031116,新規,0,2023-08-14,2023-08-14,株式会社ＳＨＩＭＯＭＵＲＡエンジニアリング,,株式会社,熊本県,熊本市北区,清水亀井町５６番７号,,43,105,8618066,,,,,,,2023-08-14,1,,,,,シモムラエンジニアリング,0
976,3340001025802,新規,0,2023-08-14,2023-08-14,心栄建設株式会社,,株式会社,鹿児島県,姶良郡湧水町,北方１６００番地１,,46,452,8996202,,,,,,,2023-08-14,1,,,,,シンエイケンセツ,0
978,3350001018490,新規,0,2023-08-14,2023-08-14,株式会社山崎鈑金塗装,00131508,株式会社,宮崎県,西諸県郡高原町,大字蒲牟田５２７３番地,,45,361,8894414,,,,,,,2023-08-14,1,,,,,ヤマサキバンキントソウ,0
979,3350001018516,新規,0,2023-08-14,2023-08-14,株式会社Ｍ＆Ｃｏ．,,株式会社,宮崎県,宮崎市,新別府町城元２３８番地１８,,45,201,8800834,,,,,,,2023-08-14,1,,,,,エムアンドコー,0
981,3350003004407,新規,0,2023-08-14,2023-08-14,合同会社ＭＰＲ,,合同会社,宮崎県,宮崎市,天満２丁目４番２６号,,45,201,8800936,,,,,,,2023-08-14,1,,,,,エムピーアール,0
982,3360001032417,新規,0,2023-08-14,2023-08-14,株式会社木壁沖縄,,株式会社,沖縄県,豊見城市,字真玉橋３６６番地,,47,212,9010201,,,,,,,2023-08-14,1,,,,,ウォールオキナワ,0
983,3360003013200,新規,0,2023-08-14,2023-08-14,合同会社Ｐｉｔｈｅｋｏｓ　Ｃｒｅａｔｉｖｅ,,合同会社,沖縄県,名護市,字屋部２－１,,47,209,9050007,,,,,,,2023-08-14,1,,,,,ピテコスクリエイティブ,0
984,3370001050293,新規,0,2023-08-14,2023-08-14,株式会社邦山,,株式会社,宮城県,多賀城市,新田字後３６番地の２,,04,209,9850854,,,,,,,2023-08-14,1,,,,,クニヤマ,0
987,3380001033917,新規,0,2023-08-14,2023-08-14,宮崎農機株式会社,,株式会社,福島県,南相馬市,鹿島区山下字中ノ内５０番地の１,,07,212,9792461,,,,,,,2023-08-14,1,,,,,ミヤザキノウキ,0
995,3430001089739,新規,0,2023-08-14,2023-08-14,株式会社ｃｏｃｏｌｅ,,株式会社,北海道,札幌市南区,澄川五条５丁目１１番２０号,,01,106,0050005,,,,,,,2023-08-14,1,,,,,ココレ,0
996,3430001089755,新規,0,2023-08-14,2023-08-14,株式会社Ｎａｔｕｒａｌ　Ｐａｎｄａ,,株式会社,北海道,札幌市中央区,南五条西１５丁目２－３リズム医大前５０３号室,,01,101,0640805,,,,,,,2023-08-14,1,,,,,ナチュラルパンダ,0
998,3430003015338,新規,0,2023-08-14,2023-08-14,合同会社ｗａｒｍ＆ｃａｌｍ,,合同会社,北海道,夕張郡由仁町,山形５３１番地の２２,,01,427,0691208,,,,,,,2023-08-14,1,,,,,ウォームアンドコーム,0
1004,3700150116695,新規,0,2023-08-14,2023-08-14,超睿電子（深セン）有限公司,,外国会社等,,,,,,,,中国深セン市龍崗区坂田街道黄金山社区４巷３号７０５室,,,,,,2023-08-14,1,,,,,チョウエイデンシシンセンユウゲンコウシ,0
1005,3700150117074,新規,0,2023-08-14,2023-08-14,義烏市浦芸電子商務有限公司,,外国会社等,,,,,,,,中国（浙江）自由貿易試験区義烏市北苑街道景三路１１号総合楼６楼６０８室,,,,,,2023-08-14,1,,,,,ギウシホゲイデンシショウムユウゲンコウシ,0
1006,3700150117396,新規,0,2023-08-14,2023-08-14,義烏市坪背電子商務有限公司,,外国会社等,,,,,,,,中国浙江省義烏市北苑街道景三路１１号３１８室,,,,,,2023-08-14,1,,,,,ギウシヘイハイデンシショウムユウゲンコウシ,0
1007,3700150118989,新規,0,2023-08-14,2023-08-14,南京十牛信息科技有限公司,,外国会社等,,,,,,,,中国南京市鼓楼区中山北路２８１号５１７Ｂ室,,,,,,2023-08-14,1,,,,,ナンキンジュウギュウシンソクカギユウゲンコウシ,0
1020,4010001237586,新規,0,2023-08-14,2023-08-14,株式会社ウェルス・プライベート・バンガード,,株式会社,東京都,中央区,佃２丁目２番８－１４０６号,,13,102,1040051,,,,,,,2023-08-14,1,,,,,ウェルスプライベートバンガード,0
1021,4010001237636,新規,0,2023-08-14,2023-08-14,株式会社エイト開発,,株式会社,東京都,文京区,関口１丁目５番１０号１階,,13,105,1120014,,,,,,,2023-08-14,1,,,,,エイトカイハツ,0
1022,4010001237652,新規,0,2023-08-14,2023-08-14,株式会社ＮＥＸＴ　ＭＡＮＡＧＥＭＥＮＴ,,株式会社,東京都,中央区,勝どき６丁目３番１号ＴＨＥ・ＴＯＫＹＯ・ＴＯＷＥＲＳ・ＳＥＡ・ＴＯＷＥＲ５１０７号,,13,102,1040054,,,,,,,2023-08-14,1,,,,,ネクストマネージメント,0
1023,4010001237669,新規,0,2023-08-14,2023-08-14,株式会社ＭＯＨＥＵ,,株式会社,東京都,中央区,銀座１丁目２２番１１号銀座大竹ビジデンス２Ｆ,,13,102,1040061,,,,,,,2023-08-14,1,,,,,モウ,0
1024,4010001237677,新規,0,2023-08-14,2023-08-14,株式会社七転び八起き,,株式会社,東京都,中央区,銀座１丁目１２番４号Ｎ＆ＥＢＬＤ．６Ｆ,,13,102,1040061,,,,,,,2023-08-14,1,,,,,ナナコロビヤオキ,0
1026,4010003041318,新規,0,2023-08-14,2023-08-14,ＢＣＪ合同会社,,合同会社,東京都,千代田区,六番町６－４ＬＨ番町スクエア５Ｆ,,13,101,1020085,,,,,,,2023-08-14,1,,,,,ビーシージェイ,0
1027,4010003041342,新規,0,2023-08-14,2023-08-14,合同会社エムエスエム,,合同会社,東京都,中央区,日本橋本町４丁目１２番１３号,,13,102,1030023,,,,,,,2023-08-14,1,,,,,エムエスエム,0
1030,4010103002186,新規,0,2023-08-14,2023-08-14,ＬｉＬＡＳ合同会社,,合同会社,東京都,八王子市,上柚木３丁目１２番地９－３０１,,13,201,1920373,,,,,,,2023-08-14,1,,,,,リラ,0
1039,4010401176252,新規,0,2023-08-14,2023-08-14,株式会社Ｒｏｇｅｔ,,株式会社,東京都,港区,六本木２丁目２番４－４０５号,,13,103,1060032,,,,,,,2023-08-14,1,,,,,ロジェ,0
1040,4010401176319,新規,0,2023-08-14,2023-08-14,ＴＲＩＤＥＡＳ株式会社,,株式会社,東京都,港区,南青山３丁目１番３６号青山丸竹ビル６Ｆ,,13,103,1070062,,,,,,,2023-08-14,1,,,,,トレイデイアス,0
1042,4010501050902,新規,0,2023-08-14,2023-08-14,株式会社和装小町,,株式会社,東京都,台東区,雷門２丁目１－１３―１Ｆ,,13,106,1110034,,,,,,,2023-08-14,1,,,,,ワソウコマチ,0
1047,4010703006818,新規,0,2023-08-14,2023-08-14,ジャパンスピリッツフェスティバル合同会社,,合同会社,東京都,品川区,西品川２丁目１７番２号ＲｉｖｅＧａｕｃｈｅ１０２,,13,109,1410033,,,,,,,2023-08-14,1,,,,,ジャパンスピリッツフェスティバル,0
1048,4010803004630,新規,0,2023-08-14,2023-08-14,合同会社ＫＩＴＴＯ,,合同会社,東京都,大田区,山王３丁目３３番１６－２０６号,,13,111,1430023,,,,,,,2023-08-14,1,,,,,キット,0
1049,4010901053637,新規,0,2023-08-14,2023-08-14,株式会社ＴＡＩＹＯ,,株式会社,東京都,世田谷区,若林４丁目１４番２３－４０１号,,13,112,1540023,,,,,,,2023-08-14,1,,,,,タイヨー,0
1054,4011001156231,新規,0,2023-08-14,2023-08-14,株式会社ＯＫＥａｚｅ,,株式会社,東京都,渋谷区,道玄坂１丁目１０番８号渋谷道玄坂東急ビル２Ｆ－Ｃ,,13,113,1500043,,,,,,,2023-08-14,1,,,,,オーケーイーズ,0
1061,4011101103901,新規,0,2023-08-14,2023-08-14,株式会社Ｙ７‐Ｎ,,株式会社,東京都,新宿区,歌舞伎町２丁目２４番７号エコロ新宿第２ビル５０１号室,,13,104,1600021,,,,,,,2023-08-14,1,,,,,ワイセブンエヌ,0
1062,4011101103975,新規,0,2023-08-14,2023-08-14,沐光株式会社,,株式会社,東京都,新宿区,西新宿３丁目３番１３号西新宿水間ビル２階,,13,104,1600023,,,,,,,2023-08-14,1,,,,,モッコウ,0
1064,4011103013347,新規,0,2023-08-14,2023-08-14,Ｌｕｃｋｙ　Ｄｒａｇｏｎ合同会社,,合同会社,東京都,新宿区,大久保２丁目７番５号共栄ビル３０１,,13,104,1690072,,,,,,,2023-08-14,1,,,,,ラッキードラゴン,0
1069,4011403004079,新規,0,2023-08-14,2023-08-14,菊園合同会社,,合同会社,東京都,板橋区,板橋１丁目２７番５－３０２号シャロン板橋,,13,119,1730004,,,,,,,2023-08-14,1,,,,,キクゾノ,0
1072,4011501029647,新規,0,2023-08-14,2023-08-14,エヌカンパニー株式会社,,株式会社,東京都,荒川区,東日暮里４丁目３５番１０－１０１号,,13,118,1160014,,,,,,,2023-08-14,1,,,,,エヌカンパニー,0
1075,4011503005712,新規,0,2023-08-14,2023-08-14,ドゥ・アッシュ・アンド・コー合同会社,,合同会社,東京都,北区,赤羽１丁目７番９号赤羽第一葉山ビル４階,,13,117,1150045,,,,,,,2023-08-14,1,,,,,ドゥアッシュアンドコー,0
1076,4011601027047,新規,0,2023-08-14,2023-08-14,株式会社土本工務店,00131500,株式会社,東京都,練馬区,桜台２丁目４６番１４号,,13,120,1760002,,,,,,,2023-08-14,1,,,,,ツチモトコウムテン,0
1082,4012401040875,新規,0,2023-08-14,2023-08-14,モモ商事株式会社,,株式会社,東京都,調布市,小島町１丁目１８－８市橋ビル４０５,,13,208,1820026,,,,,,,2023-08-14,1,,,,,モモショウジ,0
1084,4012403006123,新規,0,2023-08-14,2023-08-14,合同会社アチィーヴ,,合同会社,東京都,府中市,四谷３丁目７番地の１４,,13,206,1830035,,,,,,,2023-08-14,1,,,,,アチィーヴ,0
1087,4012801022564,新規,0,2023-08-14,2023-08-14,株式会社Ｒ,,株式会社,東京都,国分寺市,並木町２丁目５番地２,,13,214,1850005,,,,,,,2023-08-14,1,,,,,アール,0
1089,4012805003214,新規,0,2023-08-14,2023-08-14,一般社団法人ファイナンシャルアシスト,,その他の設立登記法人,東京都,昭島市,大神町１丁目１６番１号アルカディアＥ１０１号,,13,207,1960013,,,,,,,2023-08-14,1,,,,,ファイナンシャルアシスト,0
1092,4013301051186,新規,0,2023-08-14,2023-08-14,Ｓｉｘ　Ｌｅａｖｅｓ　Ｃｏｎｓｕｌｔｉｎｇ株式会社,,株式会社,東京都,豊島区,池袋本町４丁目４７番１２－１２１２号,,13,116,1700011,,,,,,,2023-08-14,1,,,,,シックスリーブズコンサルティング,0
1093,4013301051203,新規,0,2023-08-14,2023-08-14,株式会社Ｙ＆Ｈ,,株式会社,東京都,豊島区,西池袋３丁目６番１８号,,13,116,1710021,,,,,,,2023-08-14,1,,,,,ワイアンドエイチ,0
1108,4020001152917,新規,0,2023-08-14,2023-08-14,株式会社Ｌｉｎｋ,,株式会社,神奈川県,横浜市鶴見区,東寺尾６丁目２４番２５号サンライズ東寺尾１０５,,14,101,2300077,,,,,,,2023-08-14,1,,,,,リンク,0
1109,4020001152966,新規,0,2023-08-14,2023-08-14,クオンタムリンク株式会社,,株式会社,神奈川県,川崎市麻生区,王禅寺東４丁目５番１号,,14,137,2150018,,,,,,,2023-08-14,1,,,,,クオンタムリンク,0
1110,4020001152999,新規,0,2023-08-14,2023-08-14,株式会社Ｙｓｔｕｄｉｏ＆ＢｅａｕｔｙＳａｌｏｎ,,株式会社,神奈川県,横浜市西区,高島１丁目２－５横濱ゲートタワー３Ｆ,,14,103,2200011,,,,,,,2023-08-14,1,,,,,ワイスタジオアンドビューティーサロン,0
1111,4020001153023,新規,0,2023-08-14,2023-08-14,株式会社カイム,,株式会社,神奈川県,横浜市都筑区,池辺町４４３０井上ビル１Ｆ,,14,118,2240053,,,,,,,2023-08-14,1,,,,,カイム,0
1115,4020003024362,新規,0,2023-08-14,2023-08-14,合同会社Ａｔｅｌｉｅｒ　Ｃｕｄｄｌｙ,,合同会社,神奈川県,横浜市磯子区,中原２丁目１７番２２号,,14,107,2350036,,,,,,,2023-08-14,1,,,,,アトリエカドリー,0
1116,4020003024379,新規,0,2023-08-14,2023-08-14,合同会社ＹＯＳＨｉＭＡＲＵ,,合同会社,神奈川県,横浜市戸塚区,戸塚町２１９９－４３,,14,110,2440003,,,,,,,2023-08-14,1,,,,,ヨシマル,0
1120,4021001079893,新規,0,2023-08-14,2023-08-14,株式会社アシステンツァ・ディクオーレ,,株式会社,神奈川県,平塚市,天沼９番７７－３２３号,,14,203,2540031,,,,,,,2023-08-14,1,,,,,アシステンツァディクオーレ,0
1121,4021001079910,新規,0,2023-08-14,2023-08-14,株式会社Ｅ．Ｍ．Ｃ,,株式会社,神奈川県,茅ヶ崎市,東海岸北４丁目３番６－５号Ｒｉｃｅｒｃａ東海岸２０２,,14,207,2530053,,,,,,,2023-08-14,1,,,,,イーエムシー,0
1125,4021003013446,新規,0,2023-08-14,2023-08-14,アトリエ・トルコ合同会社,,合同会社,神奈川県,鎌倉市,御成町５番地３７,,14,204,2480012,,,,,,,2023-08-14,1,,,,,アトリエトルコ,0
1130,4030001155183,新規,0,2023-08-14,2023-08-14,Ａｙａｎａｍｉ　Ｄｅｆｅｎｓｅ株式会社,,株式会社,埼玉県,蕨市,中央４丁目２－２４－Ｂ,,11,223,3350004,,,,,,,2023-08-14,1,,,,,アヤナミディフェンス,0
1131,4030001155200,新規,0,2023-08-14,2023-08-14,株式会社ＹＡＮＡＢＡＳＥ,,株式会社,埼玉県,さいたま市南区,曲本３丁目５番２１号,,11,108,3360033,,,,,,,2023-08-14,1,,,,,ヤナベース,0
1132,4030001155217,新規,0,2023-08-14,2023-08-14,株式会社工房一心,,株式会社,埼玉県,志木市,本町５丁目２４番２１号ＳＨＩＫＩＳＭ４Ｆ,,11,228,3530004,,,,,,,2023-08-14,1,,,,,コウボウイッシン,0
1133,4030001155225,新規,0,2023-08-14,2023-08-14,株式会社エムケアルジャパン,,株式会社,埼玉県,羽生市,南２丁目２９番３号,,11,216,3480053,,,,,,,2023-08-14,1,,,,,エムケアルジャパン,0
1134,4030001155241,新規,0,2023-08-14,2023-08-14,株式会社ライト,,株式会社,埼玉県,越谷市,大字大房７１４番地２－１０１号室,,11,222,3430027,,,,,,,2023-08-14,1,,,,,ライト,0
1138,4030003022274,新規,0,2023-08-14,2023-08-14,ＴＮＬ合同会社,,合同会社,埼玉県,川口市,並木２丁目３７番１－ライフＫ１０１号,,11,203,3320034,,,,,,,2023-08-14,1,,,,,ティーエヌエル,0
1139,4030003022290,新規,0,2023-08-14,2023-08-14,協友電設合同会社,,合同会社,埼玉県,久喜市,南栗橋１０丁目１１番地５７,,11,232,3491117,,,,,,,2023-08-14,1,,,,,キョウユウデンセツ,0
1143,4040001129657,新規,0,2023-08-14,2023-08-14,株式会社アシスト,,株式会社,千葉県,千葉市中央区,二丁目５－１千葉中央ツインビル２号館７階ＣＨＩＢＡ－ＬＡＢＯ,,12,101,2600000,,,,,,,2023-08-14,1,,,,,アシスト,0
1144,4040001129673,新規,0,2023-08-14,2023-08-14,株式会社ＰＬＵＳ　ＩＣＨＩ　ＤＯ,,株式会社,千葉県,南房総市,富浦町宮本１０９番地１,,12,234,2992413,,,,,,,2023-08-14,1,,,,,プラスイチド,0
1146,4050001053278,新規,0,2023-08-14,2023-08-14,株式会社電政工業,,株式会社,茨城県,神栖市,大野原４丁目２番５１号,,08,232,3140144,,,,,,,2023-08-14,1,,,,,デンセイコウギョウ,0
1148,4050003007703,新規,0,2023-08-14,2023-08-14,ＭＹＣＡ合同会社,,合同会社,茨城県,高萩市,本町３丁目３６番地の１,,08,214,3180033,,,,,,,2023-08-14,1,,,,,マイカ,0
1154,4070005010158,新規,0,2023-08-14,2023-08-14,特定非営利活動法人ブラックスターレーベル,,その他の設立登記法人,群馬県,前橋市,千代田町２丁目１０番２号ｃｏｍｍ,,10,201,3710022,,,,,,,2023-08-14,1,,,,,,0
1160,4080103002873,新規,0,2023-08-14,2023-08-14,マザーラブ合同会社,,合同会社,静岡県,富士宮市,小泉２３９０番地の２１,,22,207,4180022,,,,,,,2023-08-14,1,,,,,マザーラブ,0
1163,4080401026665,新規,0,2023-08-14,2023-08-14,株式会社Ｙリレーションズ,,株式会社,静岡県,浜松市中区,富塚町１８６４番地の１１佐鳴湖パークタウン１０－１０３,,22,131,4328002,,,,,,,2023-08-14,1,,,,,ワイリレーションズ,0
1168,4110001037745,新規,0,2023-08-14,2023-08-14,株式会社３９ｓｔｙｌｅ,,株式会社,新潟県,中魚沼郡津南町,大字下船渡丁１４６０番地３,,15,482,9498201,,,,,,,2023-08-14,1,,,,,サンキュースタイル,0
1169,4110001037761,新規,0,2023-08-14,2023-08-14,株式会社駒形建材,,株式会社,新潟県,佐渡市,羽茂滝平１１５番地１,,15,224,9520501,,,,,,,2023-08-14,1,,,,,コマガタケンザイ,0
1170,4110001037778,新規,0,2023-08-14,2023-08-14,株式会社ＶＡＲＭＯＳ,,株式会社,新潟県,新潟市西区,小針４丁目３４番９号ルシアス２０３号,,15,107,9502022,,,,,,,2023-08-14,1,,,,,ヴァーモス,0
1172,4110005016984,新規,0,2023-08-14,2023-08-14,一般財団法人日本脆弱性骨折ネットワーク,,その他の設立登記法人,新潟県,新潟市北区,木崎７６１番地,,15,101,9503304,,,,,,,2023-08-14,1,,,,,ニホンゼイジャクセイコッセツネットワーク,0
1188,4120001257111,新規,0,2023-08-14,2023-08-14,株式会社和建ｒｅｖｉｖｅ,,株式会社,大阪府,大阪市都島区,高倉町３丁目５番２０号,,27,102,5340011,,,,,,,2023-08-14,1,,,,,ワケンリヴァイブ,0
1189,4120001257136,新規,0,2023-08-14,2023-08-14,株式会社ジャパン電気,,株式会社,大阪府,寝屋川市,太秦東が丘２１番５号,,27,215,5720841,,,,,,,2023-08-14,1,,,,,ジャパンデンキ,0
1190,4120001257160,新規,0,2023-08-14,2023-08-14,株式会社ＵＭＩＢＯ．,,株式会社,大阪府,寝屋川市,緑町１８番１４号,,27,215,5720022,,,,,,,2023-08-14,1,,,,,ウミボ,0
1191,4120001257219,新規,0,2023-08-14,2023-08-14,株式会社オンサイドマネジメント,,株式会社,大阪府,大阪市北区,梅田１丁目１１番４号大阪駅前第４ビル９階９２３－１６７４号,,27,127,5300001,,,,,,,2023-08-14,1,,,,,オンサイドマネジメント,0
1192,4120001257227,新規,0,2023-08-14,2023-08-14,ｉｍｏｎｏ株式会社,,株式会社,大阪府,大阪市西成区,旭２丁目１番２８－４０１号,,27,122,5570032,,,,,,,2023-08-14,1,,,,,イモノ,0
1198,4120003024699,新規,0,2023-08-14,2023-08-14,フライングダッチマン合同会社,,合同会社,大阪府,大阪市中央区,今橋４丁目４番７号,,27,128,5410042,,,,,,,2023-08-14,1,,,,,フライングダッチマン,0
1204,4120103005376,新規,0,2023-08-14,2023-08-14,らいくサポーターズ合同会社,,合同会社,大阪府,貝塚市,橋本６８４番地１棟２０１号,,27,208,5970043,,,,,,,2023-08-14,1,,,,,ライクサポーターズ,0
1211,4130001074902,新規,0,2023-08-14,2023-08-14,ＭＯＣＯ株式会社,,株式会社,京都府,京都市山科区,四ノ宮小金塚８番６７４－２０１,00131496,26,110,6078022,,,,,,,2023-08-14,1,,,,,モコ,0
1212,4130001074943,新規,0,2023-08-14,2023-08-14,株式会社ＫＹＯＴＡＸＥ,,株式会社,京都府,京都市中京区,両替町通三条上る柿本町３９８番地２,,26,104,6048173,,,,,,,2023-08-14,1,,,,,キョウタクス,0
1214,4130005016842,新規,0,2023-08-14,2023-08-14,特定非営利活動法人グレース,,その他の設立登記法人,京都府,京都市伏見区,醍醐多近田町２３－３,,26,109,6011355,,,,,,,2023-08-14,1,,,,,グレース,0
1219,4140001131165,新規,0,2023-08-14,2023-08-14,株式会社ライド,,株式会社,兵庫県,加古川市,尾上町養田１３９８番地の１０,,28,210,6750025,,,,,,,2023-08-14,1,,,,,ライド,0
1220,4140001131173,新規,0,2023-08-14,2023-08-14,株式会社ケイヒルズ,,株式会社,兵庫県,南あわじ市,阿那賀１３３９番地,,28,224,6560661,,,,,,,2023-08-14,1,,,,,ケイヒルズ,0
1221,4140001131215,新規,0,2023-08-14,2023-08-14,株式会社コーヨー・システム,,株式会社,兵庫県,伊丹市,荒牧２丁目４番２２－２号,,28,207,6640001,,,,,,,2023-08-14,1,,,,,コーヨーシステム,0
1222,4140001131223,新規,0,2023-08-14,2023-08-14,株式会社スミール,,株式会社,兵庫県,神戸市東灘区,深江南町１丁目２番４２－１号,,28,101,6580022,,,,,,,2023-08-14,1,,,,,スミール,0
1223,4140001131231,新規,0,2023-08-14,2023-08-14,株式会社ビル・トラスト,,株式会社,兵庫県,神戸市中央区,北長狭通７丁目２４－２０４,,28,110,6500012,,,,,,,2023-08-14,1,,,,,ビルトラスト,0
1224,4140001131264,新規,0,2023-08-14,2023-08-14,株式会社ビー・コンサルティング,,株式会社,兵庫県,明石市,相生町２丁目９番７号３Ｆ,,28,203,6730882,,,,,,,2023-08-14,1,,,,,ビーコンサルティング,0
1226,4140003019425,新規,0,2023-08-14,2023-08-14,合同会社スターライト,,合同会社,兵庫県,神戸市長田区,細田町３丁目１番２０号－２,,28,106,6530835,,,,,,,2023-08-14,1,,,,,スターライト,0
1236,4180003025601,新規,0,2023-08-14,2023-08-14,合同会社素楽,,合同会社,愛知県,日進市,五色園４丁目２０１１番地,,23,230,4700105,,,,,,,2023-08-14,1,,,,,ソラ,0
1238,4180301037678,新規,0,2023-08-14,2023-08-14,株式会社アットプラス,,株式会社,愛知県,豊田市,下市場町８丁目６９番地,,23,211,4710875,,,,,,,2023-08-14,1,,,,,アットプラス,0
1242,4220001025524,新規,0,2023-08-14,2023-08-14,株式会社ホテル金沢,,株式会社,石川県,金沢市,堀川新町１番１号,,17,201,9200849,,,,,,,2023-08-14,1,,,,,ホテルカナザワ,0
1243,4220001025549,新規,0,2023-08-14,2023-08-14,株式会社凜,,株式会社,石川県,七尾市,本府中町ヨ部２４番地５,,17,202,9260021,,,,,,,2023-08-14,1,,,,,リン,0
1244,4220001025565,新規,0,2023-08-14,2023-08-14,株式会社ビジョンインキュベイト,,株式会社,石川県,金沢市,角間町ヌ７番地,,17,201,9201164,,,,,,,2023-08-14,1,,,,,ビジョンインキュベイト,0
1246,4220003003569,新規,0,2023-08-14,2023-08-14,合同会社Ｗｉｔｈパル,,合同会社,石川県,金沢市,長坂２丁目５番２２号,,17,201,9218112,,,,,,,2023-08-14,1,,,,,ウィズパル,0
1254,4250001020233,新規,0,2023-08-14,2023-08-14,株式会社成功,,株式会社,山口県,周南市,御幸通２丁目１４番地,,35,215,7450034,,,,,,,2023-08-14,1,,,,,セイコウ,0
1255,4250001020241,新規,0,2023-08-14,2023-08-14,株式会社ＣＨＥＭＩＣＡＬｓＡＲＴＩＳＴ,,株式会社,山口県,下関市,川中豊町２丁目７番１２号,,35,201,7510853,,,,,,,2023-08-14,1,,,,,ケミカルスアーティスト,0
1264,4290001102548,新規,0,2023-08-14,2023-08-14,株式会社Ｓｕｃｃｅｓｓ　ａｒｔｓ　Ｃｏｎｓｕｌｔｉｎｇ,,株式会社,福岡県,福岡市中央区,渡辺通５丁目１４番７号南天神ビル３階,,40,133,8100004,,,,,,,2023-08-14,1,,,,,サクセスアーツコンサルティング,0
1265,4290001102589,新規,0,2023-08-14,2023-08-14,株式会社エーアンドエー,,株式会社,福岡県,福岡市中央区,天神２丁目２番１２号Ｔ＆Ｊビルディング７Ｆ,,40,133,8100001,,,,,,,2023-08-14,1,,,,,エーアンドエー,0
1266,4290001102647,新規,0,2023-08-14,2023-08-14,株式会社Ｃｈａｌｅｕｒ,,株式会社,福岡県,糟屋郡新宮町,上府北２丁目１５番３０号１Ｆ,,40,345,8110123,,,,,,,2023-08-14,1,,,,,シャルール,0
1267,4290001102655,新規,0,2023-08-14,2023-08-14,株式会社八媛造園,,株式会社,福岡県,福岡市東区,水谷２丁目２番２７号,,40,131,8130041,,,,,,,2023-08-14,1,,,,,ヤヒメゾウエン,0
1268,4290001102663,新規,0,2023-08-14,2023-08-14,株式会社Ｃａｎｂｅ　ｗｏｒｋｓ,,株式会社,福岡県,福岡市博多区,中洲２丁目６番１２号第５ラインビル３階,,40,132,8100801,,,,,,,2023-08-14,1,,,,,キャンビイワークス,0
1269,4290001102671,新規,0,2023-08-14,2023-08-14,株式会社ｍｉｋｕ不動産,,株式会社,福岡県,福岡市博多区,美野島１丁目２３番２０号美野島ビル４０３号,,40,132,8120017,,,,,,,2023-08-14,1,,,,,ミクフドウサン,0
1282,4320001019945,新規,0,2023-08-14,2023-08-14,株式会社ＢＲＩＤＧＥ,,株式会社,大分県,大分市,東原２丁目６番１号,,44,201,8700150,,,,,,,2023-08-14,1,,,,,ブリッジ,0
1283,4330001031115,新規,0,2023-08-14,2023-08-14,株式会社ＨＡＩＲ　ＮＯＡＨ’Ｓ　ＡＲＫ,,株式会社,熊本県,熊本市東区,下江津４丁目１０番１９号,,43,102,8620960,,,,,,,2023-08-14,1,,,,,ヘアーノアーズアーク,0
1284,4330001031131,新規,0,2023-08-14,2023-08-14,株式会社ネコノテソフト,,株式会社,熊本県,熊本市中央区,花畑町１番１４号Ａ＆ＭＨＡＮＡＢＡＴＡ３０１号,,43,101,8600806,,,,,,,2023-08-14,1,,,,,ネコノテソフト,0
1285,4330001031164,新規,0,2023-08-14,2023-08-14,食の種株式会社,,株式会社,熊本県,熊本市南区,島町４丁目４番２９号,,43,104,8614133,,,,,,,2023-08-14,1,,,,,ショクノタネ,0
1289,4330003009927,新規,0,2023-08-14,2023-08-14,合同会社Ｃｒａｚｙ,,合同会社,熊本県,八代市,古閑中町１０８４－２,,43,202,8660898,,,,,,,2023-08-14,1,,,,,,0
1291,4340001025826,新規,0,2023-08-14,2023-08-14,株式会社あまね,,株式会社,鹿児島県,鹿児島市,草牟田町４番地１８,,46,201,8900015,,,,,,,2023-08-14,1,,,,,アマネ,0
1294,4350005006169,新規,0,2023-08-14,2023-08-14,特定非営利活動法人Ｔａｉｌｓ　Ｊａｐａｎ．,,その他の設立登記法人,宮崎県,宮崎市,中村東３丁目３－２,,45,201,8800904,,,,,,,2023-08-14,1,,,,,テイルズジャパン,0
1296,4360003013199,新規,0,2023-08-14,2023-08-14,合同会社ユウコウ,,合同会社,沖縄県,石垣市,字登野城１１４８番地５,,47,207,9070004,,,,,,,2023-08-14,1,,,,,ユウコウ,0
1299,4380003005541,新規,0,2023-08-14,2023-08-14,カヤリバーズ合同会社,,合同会社,福島県,白河市,大信増見字大日向５８番地２,,07,205,9690308,,,,,,,2023-08-14,1,,,,,カヤリバーズ,0
1307,4420001018359,新規,0,2023-08-14,2023-08-14,株式会社美ｂｒｉｌｌｉａｎｇｒｏｗ,,株式会社,青森県,弘前市,大字富士見台１丁目１４番地１２,,02,202,0368143,,,,,,,2023-08-14,1,,,,,ビブリアングロウ,0
1311,4430001089622,新規,0,2023-08-14,2023-08-14,株式会社ＷＯＮＤＥＲ　ＳＯＵＬ,,株式会社,北海道,札幌市中央区,南三条西７丁目３番２号Ｆ－ＤＲＥＳＳ７ＢＬＤ２階,,01,101,0600063,,,,,,,2023-08-14,1,,,,,ワンダーソウル,0
1312,4430001089713,新規,0,2023-08-14,2023-08-14,株式会社Ｔｈｅ　０８ＭＳ　ＪＰ　Ｌｉｍｉｔｅｄ,,株式会社,北海道,夕張郡由仁町,山形５３１番地の２２,,01,427,0691208,,,,,,,2023-08-14,1,,,,,ザゼロハチエムエスジェイピーリミテッド,0
1313,4430001089754,新規,0,2023-08-14,2023-08-14,株式会社ストレージ,,株式会社,北海道,小樽市,若竹町２１－１１,,01,203,0470001,,,,,,,2023-08-14,1,,,,,ストレージ,0
1315,4430003015361,新規,0,2023-08-14,2023-08-14,合同会社Ｏｕｔ　Ｗｏｒｋｓ　Ｚｏｏｔｊ,,合同会社,北海道,岩見沢市,栗沢町美流渡東栄町４‐４,,01,210,0683176,,,,,,,2023-08-14,1,,,,,アウトワークスズートジェイ,0
1320,4460001005816,新規,0,2023-08-14,2023-08-14,株式会社ＢＵＤＤＹ　ＧＲＯＵＰ,,株式会社,北海道,川上郡標茶町,旭３丁目８番４号,,01,664,0882301,,,,,,,2023-08-14,1,,,,,バディーグループ,0
1324,4470001019765,新規,0,2023-08-14,2023-08-14,株式会社ＬＥＡＰ,,株式会社,香川県,木田郡三木町,大字井上３１０２番地１８,,37,341,7610705,,,,,,,2023-08-14,1,,,,,リープ,0
1329,4500001025132,新規,0,2023-08-14,2023-08-14,株式会社ＰＥＣＯ　ｄｅｓｉｇｎ　ａｓｓｏｃｉａｔｅｓ,,株式会社,愛媛県,松山市,小栗２丁目１番４号ａｐａｒｔｍｅｎｔ・ｏｇｕｒｉ１Ｆ,,38,201,7900036,,,,,,,2023-08-14,1,,,,,ペコデザインアソシエイションツ,0
1330,4700150117049,新規,0,2023-08-14,2023-08-14,義烏市捷頓電子商務有限公司,,外国会社等,,,,,,,,中国浙江省義烏市北苑街道秋実路春勝小区５幢２単元３０２,,,,,,2023-08-14,1,,,,,ギウシショウトンデンシショウムユウゲンコウシ,0
1331,4700150117057,新規,0,2023-08-14,2023-08-14,義烏市宸＿電子商務有限公司,00131080,外国会社等,,,,,,,,中国（浙江）自由貿易試験区金華市義烏市北苑街道秋実路１０１号３１３室,,,,,,2023-08-14,1,,,,,ギウシシンゼイデンシショウムユウゲンコウシ,0
1332,4700150117073,新規,0,2023-08-14,2023-08-14,義烏市舒承電子商務有限公司,,外国会社等,,,,,,,,中国浙江省義烏市北苑街道春＿一区１７幢二単元３０３室,00131359,,,,,2023-08-14,1,,,,,ギウシジョショウデンシショウムユウゲンコウシ,0
1333,4700150118550,新規,0,2023-08-14,2023-08-14,南京康伊国際貿易有限公司,,外国会社等,,,,,,,,中国南京市建＿区所街１１６号４０２－５０室,00131367,,,,,2023-08-14,1,,,,,ナンキンコウイコクサイボウエキユウゲンコウシ,0
1334,4700150118988,新規,0,2023-08-14,2023-08-14,ｂｏｙｕｎ（ｇｕａｎｇｚｈｏｕ）ｓｈａｎｇｍａｏｙｏｕｘｉａｎｇｏｎｇｓｉ,,外国会社等,,,,,,,,Ｒｏｏｍ　４０６，Ｎｏ．６３，Ｃｈａｎｇｈｏｎｇ　ｃｈａｎｇｂａｎ　ｍｉｄｄｌｅ　ｓｔｒｅｅｔ，Ｂａｉｙｕｎ　Ｄｉｓｔｒｉｃｔ，Ｇｕａｎｇｚｈｏｕ，Ｇｕａｎｇｄｏｎｇ　Ｐｒｏｖｉｎｃｅ,,,,,,2023-08-14,1,,,,,ボーイングワンジョウシャンマオヨウシエンゴンスー,0
1342,5010001237552,新規,0,2023-08-14,2023-08-14,ＴＢシステム株式会社,,株式会社,東京都,文京区,大塚４丁目４８番５－６１０号,,13,105,1120012,,,,,,,2023-08-14,1,,,,,ティービーシステム,0
1343,5010001237627,新規,0,2023-08-14,2023-08-14,株式会社ＴＩＭＥ　ＬＥＳＳ　ＢＲＥＷ,,株式会社,東京都,中央区,銀座３丁目１１番３号ｌｅａｇｕｅ銀座１Ｆ,,13,102,1040061,,,,,,,2023-08-14,1,,,,,タイムレスブリュー,0
1344,5010001237635,新規,0,2023-08-14,2023-08-14,ＯＮＥ　Ｉｎｎｏｖａｔｏｒｓ株式会社,,株式会社,東京都,中央区,日本橋１丁目４－１,,13,102,1030027,,,,,,,2023-08-14,1,,,,,ワンイノベーターズ,0
1345,5010001237643,新規,0,2023-08-14,2023-08-14,株式会社鴻上久美子,,株式会社,東京都,中央区,八丁堀４丁目１２－２０第一ＳＳビル５Ｅ,,13,102,1040032,,,,,,,2023-08-14,1,,,,,コウガミクミコ,0
1346,5010001237668,新規,0,2023-08-14,2023-08-14,株式会社リアン,,株式会社,東京都,中央区,銀座７丁目１３番６号サガミビル２階,,13,102,1040061,,,,,,,2023-08-14,1,,,,,リアン,0
1347,5010001237684,新規,0,2023-08-14,2023-08-14,Ｒｅａｄｙ　Ｇｒｏｕｐ　Ｊａｐａｎ株式会社,,株式会社,東京都,千代田区,丸の内３丁目２番２号丸の内二重橋ビル２階,,13,101,1000005,,,,,,,2023-08-14,1,,,,,レディグループジャパン,0
1348,5010003041341,新規,0,2023-08-14,2023-08-14,杏仁合同会社,,合同会社,東京都,文京区,本郷１丁目３０番２７－５０８号,,13,105,1130033,,,,,,,2023-08-14,1,,,,,アンニン,0
1349,5010003041366,新規,0,2023-08-14,2023-08-14,合同会社ＷＡＴＯ　ｃｒｅ８,,合同会社,東京都,中央区,銀座１丁目１２－４Ｎ＆ＥＢＬＤ．７階,,13,102,1040061,,,,,,,2023-08-14,1,,,,,ワトクリエイト,0
1351,5010101015775,新規,0,2023-08-14,2023-08-14,株式会社幸成,,株式会社,東京都,八王子市,高尾町１９６１番地,,13,201,1930844,,,,,,,2023-08-14,1,,,,,コウセイ,0
1363,5010401176251,新規,0,2023-08-14,2023-08-14,株式会社ビズコミュニケーションズ,,株式会社,東京都,港区,赤坂８丁目４番１４号青山タワープレイス８階,,13,103,1070052,,,,,,,2023-08-14,1,,,,,ビズコミュニケーションズ,0
1364,5010401176326,新規,0,2023-08-14,2023-08-14,株式会社ＣＨＥＲＩＳＨ,,株式会社,東京都,港区,南青山６丁目５－５５,,13,103,1070062,,,,,,,2023-08-14,1,,,,,チェリッシュ,0
1365,5010401176342,新規,0,2023-08-14,2023-08-14,株式会社ＮａｔｕｒａＬｉｂｅｒ,,株式会社,東京都,港区,港南２丁目１２番２８号品川タワーフェイス１７０９,,13,103,1080075,,,,,,,2023-08-14,1,,,,,ナチュラリベル,0
1366,5010401176409,新規,0,2023-08-14,2023-08-14,株式会社シーユーシー・ファイナンス,,株式会社,東京都,港区,芝浦３丁目１番１号,,13,103,1080023,,,,,,,2023-08-14,1,,,,,シーユーシーファイナンス,0
1372,5010501050892,新規,0,2023-08-14,2023-08-14,青春株式会社,,株式会社,東京都,台東区,松が谷２丁目９番１－２０９号,,13,106,1110036,,,,,,,2023-08-14,1,,,,,セイシュン,0
1373,5010505003434,新規,0,2023-08-14,2023-08-14,一般社団法人日本認定健康食品協会,,その他の設立登記法人,東京都,台東区,上野５丁目５番８号第七協立ビル８階,,13,106,1100005,,,,,,,2023-08-14,1,,,,,ニホンニンテイケンコウショクヒンキョウカイ,0
1380,5010603010308,新規,0,2023-08-14,2023-08-14,合同会社八景,,合同会社,東京都,江東区,有明２丁目１番１－２９０８号,,13,108,1350063,,,,,,,2023-08-14,1,,,,,ハッケイ,0
1383,5010703006817,新規,0,2023-08-14,2023-08-14,合同会社ｕｃｖ,,合同会社,東京都,品川区,西品川１丁目２－１大崎ガーデンレジデンス５２６,,13,109,1410033,,,,,,,2023-08-14,1,,,,,ユーシーブイ,0
1388,5010903008373,新規,0,2023-08-14,2023-08-14,宏昌合同会社,,合同会社,東京都,世田谷区,上北沢５丁目４０－４さくら荘１０３号室,,13,112,1560057,,,,,,,2023-08-14,1,,,,,コウシュウ,0
1389,5010903008381,新規,0,2023-08-14,2023-08-14,合同会社コアム,,合同会社,東京都,世田谷区,梅丘１丁目３１番２号ＪＳビル,,13,112,1540022,,,,,,,2023-08-14,1,,,,,コアム,0
1395,5011001156230,新規,0,2023-08-14,2023-08-14,株式会社ＣＡＲＯＬ,,株式会社,東京都,渋谷区,代々木１丁目３７番１号大善ビル２Ｆ,,13,113,1510053,,,,,,,2023-08-14,1,,,,,キャロル,0
1396,5011001156239,新規,0,2023-08-14,2023-08-14,株式会社バリキャリ女子,,株式会社,東京都,渋谷区,神宮前６丁目１０番９号,,13,113,1500001,,,,,,,2023-08-14,1,,,,,バリキャリジョシ,0
1397,5011003017298,新規,0,2023-08-14,2023-08-14,合同会社Ｊｏｉｎｔ　Ｉｄｅａ,,合同会社,東京都,渋谷区,渋谷２丁目１９番１５号宮益坂ビルディング６０９,,13,113,1500002,,,,,,,2023-08-14,1,,,,,ジョイントアイデア,0
1400,5011101103958,新規,0,2023-08-14,2023-08-14,アイセイバーズジャパン株式会社,,株式会社,東京都,新宿区,西新宿６丁目１０－１日土地西新宿ビル８階,,13,104,1600023,,,,,,,2023-08-14,1,,,,,アイセイバーズジャパン,0
1401,5011103013370,新規,0,2023-08-14,2023-08-14,合同会社Ａｔｔｒｅｖｅｓ,,合同会社,東京都,新宿区,新小川町４－１１－６１４,,13,104,1620814,,,,,,,2023-08-14,1,,,,,アトレーヴ,0
1409,5011301028914,新規,0,2023-08-14,2023-08-14,株式会社ナイア,,株式会社,東京都,杉並区,南荻窪４丁目３５番７号,,13,115,1670052,,,,,,,2023-08-14,1,,,,,ナイア,0
1410,5011305002923,新規,0,2023-08-14,2023-08-14,一般社団法人ピックアンドロール,,その他の設立登記法人,東京都,杉並区,下高井戸１丁目２８番７号,,13,115,1680073,,,,,,,2023-08-14,1,,,,,ピックアンドロール,0
1412,5011401025349,新規,0,2023-08-14,2023-08-14,株式会社和,,株式会社,東京都,板橋区,坂下２丁目３番１－４０１号,,13,119,1740043,,,,,,,2023-08-14,1,,,,,ヤワラ,0
1414,5011501029638,新規,0,2023-08-14,2023-08-14,アンドリンクス株式会社,,株式会社,東京都,荒川区,東日暮里２丁目２０番１６号,,13,118,1160014,,,,,,,2023-08-14,1,,,,,アンドリンクス,0
1415,5011501029646,新規,0,2023-08-14,2023-08-14,株式会社トライブギア,,株式会社,東京都,北区,滝野川７丁目４４番６号,,13,117,1140023,,,,,,,2023-08-14,1,,,,,トライブギア,0
1416,5011503005711,新規,0,2023-08-14,2023-08-14,合同会社ＴＡＹＯ,,合同会社,東京都,北区,赤羽南１丁目２４番８－３０７号デュオヴェール赤羽ＢｌｏｏｍＣｏｕｒｔ,,13,117,1150044,,,,,,,2023-08-14,1,,,,,タヨ,0
1420,5011701026518,新規,0,2023-08-14,2023-08-14,星逢株式会社,,株式会社,東京都,江戸川区,西葛西２丁目１０番５－１１０２号,,13,123,1340088,,,,,,,2023-08-14,1,,,,,ホシアイ,0
1425,5011801042885,新規,0,2023-08-14,2023-08-14,フィールドビフォー株式会社,,株式会社,東京都,足立区,西新井３丁目１０番９号,,13,121,1230841,,,,,,,2023-08-14,1,,,,,フィールドビフォー,0
1430,5012401040874,新規,0,2023-08-14,2023-08-14,株式会社オフィスＯＮＥＷｉｔｈ,,株式会社,東京都,稲城市,若葉台４丁目３３番地ビューコート若葉台５－５０３,,13,225,2060824,,,,,,,2023-08-14,1,,,,,オフィスワンウィズ,0
1433,5012801022555,新規,0,2023-08-14,2023-08-14,株式会社ＴＤＭパートナーズ,,株式会社,東京都,国分寺市,西町２丁目３５番地１６,,13,214,1850035,,,,,,,2023-08-14,1,,,,,ティーディーエムパートナーズ,0
1434,5013303006757,新規,0,2023-08-14,2023-08-14,合同会社Ｎｅｉｇｈｂｏｕｒｓ,,合同会社,東京都,豊島区,駒込６丁目１７－６,,13,116,1700003,,,,,,,2023-08-14,1,,,,,ネイバーズ,0
1446,5020001152916,新規,0,2023-08-14,2023-08-14,株式会社ｃｏｒｔｅ,,株式会社,神奈川県,横浜市南区,永田東２丁目２番１６－４号,,14,105,2320072,,,,,,,2023-08-14,1,,,,,コルテ,0
1447,5020001152932,新規,0,2023-08-14,2023-08-14,株式会社ＢＳササキ,,株式会社,神奈川県,横浜市港北区,樽町２丁目７番２１号リバーサイドマンション綱島３０１号室,,14,109,2220001,,,,,,,2023-08-14,1,,,,,ビーエスササキ,0
1448,5020001153022,新規,0,2023-08-14,2023-08-14,株式会社働き方改革,,株式会社,神奈川県,横浜市保土ケ谷区,岩井町１２２番地の１クイーンハイツ保土ケ谷５０９号,,14,106,2400023,,,,,,,2023-08-14,1,,,,,ハタラキカタカイカク,0
1452,5020003024378,新規,0,2023-08-14,2023-08-14,ハイウイングクリエイト合同会社,,合同会社,神奈川県,横浜市西区,北幸２丁目１０番地２８むつみビル３Ｆ,,14,103,2200004,,,,,,,2023-08-14,1,,,,,ハイウイングクリエイト,0
1457,5021001079868,新規,0,2023-08-14,2023-08-14,株式会社イケデン,,株式会社,神奈川県,茅ヶ崎市,美住町１４－２５,,14,207,2530023,,,,,,,2023-08-14,1,,,,,イケデン,0
1458,5021001079876,新規,0,2023-08-14,2023-08-14,株式会社Ｐｉｃｃｏｒｏ社,,株式会社,神奈川県,三浦郡葉山町,長柄３２６番地の１３,,14,301,2400113,,,,,,,2023-08-14,1,,,,,ピッコロシャ,0
1459,5021001079901,新規,0,2023-08-14,2023-08-14,株式会社鴻興,,株式会社,神奈川県,厚木市,下荻野８２４－５,,14,212,2430203,,,,,,,2023-08-14,1,,,,,コウコウ,0
1470,5030001155208,新規,0,2023-08-14,2023-08-14,株式会社サイディング屋岩村,,株式会社,埼玉県,川口市,領家２丁目２番１号メイプルハイツ２０２号,,11,203,3320004,,,,,,,2023-08-14,1,,,,,サイディングヤイワムラ,0
1471,5030001155216,新規,0,2023-08-14,2023-08-14,株式会社リエゾン,,株式会社,埼玉県,草加市,八幡町１番地６,,11,221,3400006,,,,,,,2023-08-14,1,,,,,リエゾン,0
1472,5030001155232,新規,0,2023-08-14,2023-08-14,株式会社ユーエイアドバンス,,株式会社,埼玉県,越谷市,千間台西１丁目８番地７,,11,222,3430041,,,,,,,2023-08-14,1,,,,,ユーエイアドバンス,0
1473,5030001155249,新規,0,2023-08-14,2023-08-14,株式会社ＷＴＩ,,株式会社,埼玉県,さいたま市西区,西大宮４丁目１９番地１８,,11,101,3310078,,,,,,,2023-08-14,1,,,,,ダブリューティーアイ,0
1474,5030001155265,新規,0,2023-08-14,2023-08-14,株式会社リバテル,,株式会社,埼玉県,日高市,大字高萩６４６番地１,,11,242,3501213,,,,,,,2023-08-14,1,,,,,リバテル,0
1475,5030001155273,新規,0,2023-08-14,2023-08-14,株式会社アメリカンライフアイエス,,株式会社,埼玉県,さいたま市大宮区,櫛引町１丁目６８２番地４,,11,103,3300851,,,,,,,2023-08-14,1,,,,,アメリカンライフアイエス,0
1480,5040001129664,新規,0,2023-08-14,2023-08-14,株式会社ＩＣＣＨＩ,,株式会社,千葉県,柏市,新柏１丁目１２番地１サンパセオ新柏Ｄ－９０２号,,12,217,2770084,,,,,,,2023-08-14,1,,,,,イッチ,0
1483,5050001053269,新規,0,2023-08-14,2023-08-14,大竹工務店株式会社,,株式会社,茨城県,かすみがうら市,深谷３６５９番地７,,08,230,3000134,,,,,,,2023-08-14,1,,,,,オオタケコウムテン,0
1484,5050001053285,新規,0,2023-08-14,2023-08-14,株式会社渡邊建設,,株式会社,茨城県,つくば市,小山２３１５番地,,08,220,3001276,,,,,,,2023-08-14,1,,,,,ワタナベケンセツ,0
1485,5050001053293,新規,0,2023-08-14,2023-08-14,株式会社ＮＫ　ｈｏｍｌｅｓ,,株式会社,茨城県,取手市,東６丁目６１番２４－３０３号,,08,217,3020005,,,,,,,2023-08-14,1,,,,,エヌケーホーミーズ,0
1490,5060003004673,新規,0,2023-08-14,2023-08-14,合同会社ヒラカワ自動車,,合同会社,栃木県,栃木市,西方町金井８４４番地４,,09,203,3220602,,,,,,,2023-08-14,1,,,,,ヒラカワジドウシャ,0
1493,5080001025802,新規,0,2023-08-14,2023-08-14,株式会社ＲＤキャピタル,,株式会社,静岡県,焼津市,本町２丁目１２番８－１０４Ａ,,22,212,4250022,,,,,,,2023-08-14,1,,,,,アールディキャピタル,0
1496,5080103002872,新規,0,2023-08-14,2023-08-14,明月合同会社,,合同会社,静岡県,三島市,松本３５７番地フレグランス杉山Ａー２０２,,22,206,4110822,,,,,,,2023-08-14,1,,,,,メイゲツ,0
1500,5110001037769,新規,0,2023-08-14,2023-08-14,株式会社ピーナッツバター,,株式会社,新潟県,燕市,吉田文京町７－９,,15,213,9590266,,,,,,,2023-08-14,1,,,,,ピーナッツバター,0
1502,5110003005138,新規,0,2023-08-14,2023-08-14,Ｏｉｓｅａｕ　ｂｌｅｕ合同会社,,合同会社,新潟県,燕市,吉田大保町１３番１１号,,15,213,9590242,,,,,,,2023-08-14,1,,,,,オワゾーブルー,0
1509,5120001256822,新規,0,2023-08-14,2023-08-14,株式会社ヤキトリウム,,株式会社,大阪府,大阪市中央区,伏見町３丁目１－１－４３０４,,27,128,5410044,,,,,,,2023-08-14,1,,,,,ヤキトリウム,0
1510,5120001257060,新規,0,2023-08-14,2023-08-14,株式会社三谷電気工事,,株式会社,大阪府,大阪市城東区,東中浜９丁目３番３４－５１２号,,27,118,5360023,,,,,,,2023-08-14,1,,,,,ミタニデンキコウジ,0
1511,5120001257143,新規,0,2023-08-14,2023-08-14,株式会社交野自動車,,株式会社,大阪府,交野市,倉治３丁目２７番８号,,27,230,5760051,,,,,,,2023-08-14,1,,,,,カタノジドウシャ,0
1512,5120001257218,新規,0,2023-08-14,2023-08-14,株式会社ＳＴＡＫＫ,,株式会社,大阪府,大阪市西区,南堀江１丁目１５番９号４階,,27,106,5500015,,,,,,,2023-08-14,1,,,,,スタック,0
1513,5120001257259,新規,0,2023-08-14,2023-08-14,株式会社ペルマ,,株式会社,大阪府,大阪市平野区,長吉長原西２丁目２番１３号,,27,126,5470015,,,,,,,2023-08-14,1,,,,,ペルマ,0
1514,5120001257283,新規,0,2023-08-14,2023-08-14,株式会社エムトラスト,,株式会社,大阪府,大阪市都島区,大東町１丁目８番１３号,,27,102,5340002,,,,,,,2023-08-14,1,,,,,エムトラスト,0
1516,5120003024698,新規,0,2023-08-14,2023-08-14,合同会社ＤＬ,,合同会社,大阪府,大阪市中央区,道頓堀２丁目２番２０号,,27,128,5420071,,,,,,,2023-08-14,1,,,,,ディーエル,0
1518,5120005023806,新規,0,2023-08-14,2023-08-14,監査法人ハルク,,その他の設立登記法人,大阪府,大阪市北区,西天満３丁目５番１０号,,27,127,5300047,,,,,,,2023-08-14,1,,,,,ハルク,0
1522,5120103005383,新規,0,2023-08-14,2023-08-14,合同会社アングルスリー,,合同会社,大阪府,堺市堺区,熊野町西２丁２番１２－６０７号,,27,141,5900947,,,,,,,2023-08-14,1,,,,,アングルスリー,0
1524,5120901047949,新規,0,2023-08-14,2023-08-14,株式会社ＳＮＰ,,株式会社,大阪府,池田市,鉢塚３丁目１４－２０Ａ２２号,,27,204,5630024,,,,,,,2023-08-14,1,,,,,エスエヌピー,0
1531,5130001074876,新規,0,2023-08-14,2023-08-14,株式会社建塗山口,,株式会社,京都府,京都市左京区,岩倉長谷町１２７０番地,,26,103,6060026,,,,,,,2023-08-14,1,,,,,ケントヤマグチ,0
1532,5130001074901,新規,0,2023-08-14,2023-08-14,京都フロンティア株式会社,,株式会社,京都府,京都市下京区,四条通室町東入函谷鉾町１０１番地６階７階アーバンネット四条烏丸ビル,,26,106,6008009,,,,,,,2023-08-14,1,,,,,キョウトフロンティア,0
1533,5130001074975,新規,0,2023-08-14,2023-08-14,株式会社ピカフロール,,株式会社,京都府,京都市中京区,油屋町９４番地,,26,104,6048063,,,,,,,2023-08-14,1,,,,,ピカフロール,0
1535,5130003008898,新規,0,2023-08-14,2023-08-14,合同会社たなか,,合同会社,京都府,京都市西京区,山田中吉見町５－２０,,26,111,6158237,,,,,,,2023-08-14,1,,,,,タナカ,0
1544,5140001131164,新規,0,2023-08-14,2023-08-14,株式会社メタルプロテック,,株式会社,兵庫県,赤穂市,新田１５４３番地２,,28,212,6780255,,,,,,,2023-08-14,1,,,,,メタルプロテック,0
1545,5140001131172,新規,0,2023-08-14,2023-08-14,株式会社Ｇｉｖｅ　ｅｄｇｅ,,株式会社,兵庫県,尼崎市,水堂町４丁目１番３４－３０１号,,28,202,6610026,,,,,,,2023-08-14,1,,,,,ギブエッジ,0
1546,5140001131197,新規,0,2023-08-14,2023-08-14,マータリ株式会社,,株式会社,兵庫県,神戸市須磨区,高倉台５丁目４番１４－２０３号,,28,107,6540081,,,,,,,2023-08-14,1,,,,,マータリ,0
1547,5140001131214,新規,0,2023-08-14,2023-08-14,株式会社ソイ,,株式会社,兵庫県,神戸市中央区,海岸通２丁目２番３号サンエービル５０１号,,28,110,6500024,,,,,,,2023-08-14,1,,,,,ソイ,0
1548,5140001131222,新規,0,2023-08-14,2023-08-14,株式会社ＰＬＵＳ,,株式会社,兵庫県,姫路市,別所町別所５４４番地,,28,201,6710221,,,,,,,2023-08-14,1,,,,,プラス,0
1549,5140001131239,新規,0,2023-08-14,2023-08-14,株式会社藤井産業,,株式会社,兵庫県,神戸市西区,櫨谷町福谷１２２番地,,28,111,6512233,,,,,,,2023-08-14,1,,,,,フジイサンギョウ,0
1550,5140001131263,新規,0,2023-08-14,2023-08-14,吉元工務店株式会社,,株式会社,兵庫県,加東市,中古瀬２９６番地２,,28,228,6731424,,,,,,,2023-08-14,1,,,,,ヨシモトコウムテン,0
1555,5140003019399,新規,0,2023-08-14,2023-08-14,合同会社Ｉ　Ｌａ　ｃｈｉｃ,,合同会社,兵庫県,たつの市,龍野町小宅北５５番地１三木アパート１０３,,28,229,6794128,,,,,,,2023-08-14,1,,,,,アイラシック,0
1558,5170001017732,新規,0,2023-08-14,2023-08-14,株式会社栄シンフォニー,,株式会社,和歌山県,和歌山市,元博労町２６番地,,30,201,6408216,,,,,,,2023-08-14,1,,,,,サカエシンフォニー,0
1571,5180001157602,新規,0,2023-08-14,2023-08-14,株式会社Ｔｉｎｏａ,,株式会社,愛知県,常滑市,井戸田町１丁目１３０番地,,23,216,4790812,,,,,,,2023-08-14,1,,,,,ティノア,0
1572,5180001157619,新規,0,2023-08-14,2023-08-14,株式会社８,,株式会社,愛知県,瀬戸市,松原町１丁目６１番地,,23,204,4890985,,,,,,,2023-08-14,1,,,,,エイト,0
1575,5180003025591,新規,0,2023-08-14,2023-08-14,合同会社アシタユ,,合同会社,愛知県,名古屋市天白区,八事山１１７番地ユアサハイム八事Ｂ棟Ｃ－２０１号,,23,116,4680077,,,,,,,2023-08-14,1,,,,,アシタユ,0
1576,5180003025600,新規,0,2023-08-14,2023-08-14,合同会社バニシング・ポイント,,合同会社,愛知県,小牧市,応時１丁目１９５番地９,,23,219,4850832,,,,,,,2023-08-14,1,,,,,バニシングポイント,0
1578,5180005020319,新規,0,2023-08-14,2023-08-14,一般社団法人ウェルビーＥＡＲＴＨ,,その他の設立登記法人,愛知県,名古屋市名東区,小井堀町１００１番地ユニーブル藤ヶ丘サウスパーク１０３号,,23,115,4650044,,,,,,,2023-08-14,1,,,,,ウェルビーアース,0
1584,5190001030642,新規,0,2023-08-14,2023-08-14,株式会社小林建築,,株式会社,三重県,伊賀市,上野池町１３２１番地の１,,24,216,5180853,,,,,,,2023-08-14,1,,,,,コバヤシケンチク,0
1585,5190001030659,新規,0,2023-08-14,2023-08-14,株式会社クレセントクエタ,,株式会社,三重県,鈴鹿市,東旭が丘２丁目１５番１号アトレ３－７０５,,24,207,5100211,,,,,,,2023-08-14,1,,,,,クレセントクエタ,0
1592,5200003006044,新規,0,2023-08-14,2023-08-14,合同会社木花ｓｅｉｍｅｉ,,合同会社,岐阜県,大垣市,東町２丁目８２番地４,,21,202,5030802,,,,,,,2023-08-14,1,,,,,コノハナセイメイ,0
1598,5240001061954,新規,0,2023-08-14,2023-08-14,株式会社せら動物病院,,株式会社,広島県,世羅郡世羅町,大字西上原４６１番地１,,34,462,7221121,,,,,,,2023-08-14,1,,,,,セラドウブツビョウイン,0
1599,5240001061987,新規,0,2023-08-14,2023-08-14,株式会社輝,,株式会社,広島県,広島市安佐北区,可部南２丁目２番７号,,34,106,7310223,,,,,,,2023-08-14,1,,,,,テル,0
1600,5250001020232,新規,0,2023-08-14,2023-08-14,株式会社カミテ,,株式会社,山口県,柳井市,柳井２１２番地,,35,212,7420021,,,,,,,2023-08-14,1,,,,,カミテ,0
1601,5250001020240,新規,0,2023-08-14,2023-08-14,ＮＭＦホールディングス株式会社,,株式会社,山口県,下関市,大坪本町２６番２号,,35,201,7500051,,,,,,,2023-08-14,1,,,,,エヌエムエフホールディングス,0
1608,5290001102654,新規,0,2023-08-14,2023-08-14,株式会社ツインズ,,株式会社,福岡県,福岡市中央区,清川２丁目１２番４号天神南ハイツ２Ｆ,,40,133,8100005,,,,,,,2023-08-14,1,,,,,ツインズ,0
1609,5290001102670,新規,0,2023-08-14,2023-08-14,株式会社ウェルスノート,,株式会社,福岡県,福岡市中央区,天神２丁目３番１０－７１９号,,40,133,8100001,,,,,,,2023-08-14,1,,,,,ウェルスノート,0
1611,5290003014237,新規,0,2023-08-14,2023-08-14,合同会社あやめ,,合同会社,福岡県,春日市,星見ヶ丘３丁目１３２番地,,40,218,8160849,,,,,,,2023-08-14,1,,,,,アヤメ,0
1614,5290005019102,新規,0,2023-08-14,2023-08-14,一般社団法人Ｌｉｆｅ　Ｓｈｉｎｅｓ,,その他の設立登記法人,福岡県,福岡市中央区,桜坂１丁目６番３３号ネズバン桜坂２０６,,40,133,8100024,,,,,,,2023-08-14,1,,,,,ライフシャインズ,0
1616,5290801029790,新規,0,2023-08-14,2023-08-14,株式会社Ｓｈｉｚｕｋｕ,,株式会社,福岡県,北九州市小倉北区,上富野２丁目１番４４号,,40,106,8020022,,,,,,,2023-08-14,1,,,,,シズク,0
1619,5300001013429,新規,0,2023-08-14,2023-08-14,株式会社頼興社,,株式会社,佐賀県,佐賀市,六座町８番３１号,,41,201,8400845,,,,,,,2023-08-14,1,,,,,ライコウシャ,0
1629,5330003009934,新規,0,2023-08-14,2023-08-14,Ａｌｌ　ａｔ　Ｏｎｃｅ合同会社,,合同会社,熊本県,天草市,有明町大浦４２３６番地,,43,215,8617203,,,,,,,2023-08-14,1,,,,,オールアットワンス,0
1638,5350001018489,新規,0,2023-08-14,2023-08-14,株式会社ＨＡＬＥ　ＮＡＬＵ,,株式会社,宮崎県,日向市,伊勢ケ浜１０８番地,,45,206,8830003,,,,,,,2023-08-14,1,,,,,ハレナル,0
1640,5360001032423,新規,0,2023-08-14,2023-08-14,株式会社Ｊｉｖａ,,株式会社,沖縄県,宜野湾市,真志喜３丁目８番７号,,47,205,9012224,,,,,,,2023-08-14,1,,,,,ジーヴァ,0
1641,5360003013207,新規,0,2023-08-14,2023-08-14,合同会社グリーンマネージメント,,合同会社,沖縄県,豊見城市,字真玉橋１７５番地２レイクサイドかかず６０３,,47,212,9010201,,,,,,,2023-08-14,1,,,,,グリーンマネージメント,0
1643,5370001050300,新規,0,2023-08-14,2023-08-14,ＲＵＭＩ　ＴＲＡＤＩＮＧ株式会社,,株式会社,宮城県,仙台市青葉区,山手町９番３２号ＦパレスＩＩ－２０６号,00131503,04,101,9810967,,,,,,,2023-08-14,1,,,,,ルミトレーディング,0
1644,5370001050309,新規,0,2023-08-14,2023-08-14,株式会社Ｂａｓｋｉｎｇ　Ｃａｔ,,株式会社,宮城県,石巻市,泉町３丁目４番２７－２号,,04,202,9860832,,,,,,,2023-08-14,1,,,,,バスキングキャット,0
1652,5410001013574,新規,0,2023-08-14,2023-08-14,Ｄｉｖｅｎｔｅｒａ株式会社,,株式会社,秋田県,秋田市,中通２丁目２番３２号山二ビル６Ｆ,,05,201,0100001,,,,,,,2023-08-14,1,,,,,ディベンテラ,0
1653,5420001018366,新規,0,2023-08-14,2023-08-14,Ｋ　ＳＰＡＣＥ株式会社,,株式会社,青森県,三戸郡南部町,大字高橋字前平３番地１,,02,445,0390804,,,,,,,2023-08-14,1,,,,,ケイスペース,0
1655,5430001089712,新規,0,2023-08-14,2023-08-14,株式会社オフィスユー,,株式会社,北海道,札幌市中央区,南六条西３丁目６－１６ニュー公楽ビル２Ｆネモちゃんランド内,,01,101,0640806,,,,,,,2023-08-14,1,,,,,オフィスユー,0
1656,5430001089753,新規,0,2023-08-14,2023-08-14,株式会社ＤＡＺＺＬＩＮＧ　ＰＬＵＳ,,株式会社,北海道,小樽市,錦町８番地６,,01,203,0470039,,,,,,,2023-08-14,1,,,,,ダズリングプラス,0
1659,5470001019764,新規,0,2023-08-14,2023-08-14,株式会社ネクスト,,株式会社,香川県,三豊市,詫間町詫間３５０６番地１,,37,208,7691101,,,,,,,2023-08-14,1,,,,,ネクスト,0
1660,5480001012181,新規,0,2023-08-14,2023-08-14,株式会社ブリッジ,,株式会社,徳島県,名西郡神山町,神領字北８５番地３,,36,342,7713311,,,,,,,2023-08-14,1,,,,,ブリッジ,0
1664,5700150116719,新規,0,2023-08-14,2023-08-14,海安斯沃機械設備有限公司,,外国会社等,,,,,,,,中国海安県城東鎮暁星大道８号,,,,,,2023-08-14,1,,,,,カイアンシオクキカイセツビユウゲンコウシ,0
1665,5700150117056,新規,0,2023-08-14,2023-08-14,義烏市眷文電子商務有限公司,,外国会社等,,,,,,,,中国浙江省義烏市北苑街道新後傅村厚富小区６７幢二皐元４０３室,,,,,,2023-08-14,1,,,,,ギウシケンブンデンシショウムユウゲンコウシ,0
1666,5700150118582,新規,0,2023-08-14,2023-08-14,南京小蝌蚪国際貿易有限公司,,外国会社等,,,,,,,,中国南京市江北新区星火路１４号長峰大厦１号実験楼３層３－０２９,00131365,,,,,2023-08-14,1,,,,,ナンキンショウカトコクサイボウエキユウゲンコウシ,0
1667,5700150118987,新規,0,2023-08-14,2023-08-14,ｙｉｎｇｋｏｕｈａｎｘｕａｎｍａｏｙｉｙｏｕｘｉａｎｇｏｎｇｓｉ,,外国会社等,,,,,,,,ｌｉａｏｎｉｎｇｓｈｅｎｇｙｉｎｇｋｏｕｓｈｉｂａｙｕｑｕａｎｑｕｔｉａｎｈｏｎｇｔｉｎｇｙｕａｎｒｅｎｊｉａ３ｌｏｕ－１２２,,,,,,2023-08-14,1,,,,,インコウハンシュエンマオイーヨウシエンゴンスー,0
1674,6010001237592,新規,0,2023-08-14,2023-08-14,ＤＥＫＯＢＯＫＯ　ＶＥＮＴＵＲＥＳ株式会社,,株式会社,東京都,中央区,銀座４丁目１３番８号岩藤ビル５階,,13,102,1040061,,,,,,,2023-08-14,1,,,,,デコボコベンチャーズ,0
1675,6010001237642,新規,0,2023-08-14,2023-08-14,ｐａｒｖｅｎｕ株式会社,,株式会社,東京都,中央区,銀座１丁目１２番４号Ｎ＆ＥＢＬＤ．６Ｆ,,13,102,1040061,,,,,,,2023-08-14,1,,,,,パーベニュー,0
1679,6010003041381,新規,0,2023-08-14,2023-08-14,Ｌ＆Ｐ合同会社,,合同会社,東京都,中央区,銀座１丁目２２番１１号銀座大竹ビジデンス２Ｆ,,13,102,1040061,,,,,,,2023-08-14,1,,,,,エルアンドピー,0
1681,6010005037089,新規,0,2023-08-14,2023-08-14,一般社団法人新エネルギー天狗山,,その他の設立登記法人,東京都,千代田区,霞が関３丁目２番５号霞が関ビルディング３３階,,13,101,1000013,,,,,,,2023-08-14,1,,,,,シンエネルギーテングヤマ,0
1682,6010101015774,新規,0,2023-08-14,2023-08-14,株式会社ＢＬＩＮＫ,,株式会社,東京都,八王子市,長房町１４番地６８－２０２号,,13,201,1930824,,,,,,,2023-08-14,1,,,,,ブリンク,0
1689,6010401176317,新規,0,2023-08-14,2023-08-14,株式会社自遊考房,,株式会社,東京都,港区,北青山１丁目３番１号アールキューブ青山３階,,13,103,1070061,,,,,,,2023-08-14,1,,,,,ジユウコウボウ,0
1690,6010403030579,新規,0,2023-08-14,2023-08-14,合同会社Ｙｏｕｒ　Ｃａｍｐａｎｙ,,合同会社,東京都,港区,芝３丁目２番１１号,,13,103,1050014,,,,,,,2023-08-14,1,,,,,ユアカンパニー,0
1694,6010503007106,新規,0,2023-08-14,2023-08-14,都留バイオマス発電合同会社,,合同会社,東京都,台東区,池之端１丁目２番１８号,,13,106,1100008,,,,,,,2023-08-14,1,,,,,ツルバイオマスハツデン,0
1695,6010701044710,新規,0,2023-08-14,2023-08-14,株式会社優輪,,株式会社,東京都,品川区,西品川１丁目２番１－１８１０号,,13,109,1410033,,,,,,,2023-08-14,1,,,,,ユワ,0
1697,6010901053610,新規,0,2023-08-14,2023-08-14,Ｅｘｓｔａｎ　Ｈｕｍａｎ　Ｒｅｓｏｕｒｃｅ株式会社,,株式会社,東京都,世田谷区,梅丘１丁目２３－５,,13,112,1540022,,,,,,,2023-08-14,1,,,,,イクスタンヒューマンリソース,0
1698,6010901053627,新規,0,2023-08-14,2023-08-14,株式会社ＯＳＢオフィス,,株式会社,東京都,世田谷区,祖師谷１丁目８番１２号,,13,112,1570072,,,,,,,2023-08-14,1,,,,,オーエスビーオフィス,0
1699,6010901053635,新規,0,2023-08-14,2023-08-14,株式会社ＴＩＭＥ,,株式会社,東京都,世田谷区,深沢４丁目４番１４号,,13,112,1580081,,,,,,,2023-08-14,1,,,,,タイム,0
1703,6010903008380,新規,0,2023-08-14,2023-08-14,合同会社亀屋,,合同会社,東京都,世田谷区,北沢２丁目１９番１６号,,13,112,1550031,,,,,,,2023-08-14,1,,,,,カメヤ,0
1706,6011001156155,新規,0,2023-08-14,2023-08-14,株式会社ＬＹＬｅ,,株式会社,東京都,目黒区,目黒本町１丁目１２－１２－３０７,,13,110,1520002,,,,,,,2023-08-14,1,,,,,ライル,0
1707,6011001156196,新規,0,2023-08-14,2023-08-14,サンフラワー株式会社,,株式会社,東京都,渋谷区,代々木１丁目２５番５号ＢＩＺ・Ｓｍａｒｔ代々木,,13,113,1510053,,,,,,,2023-08-14,1,,,,,サンフラワー,0
1708,6011001156329,新規,0,2023-08-14,2023-08-14,株式会社ＬＯＵＬＯＵ　ＡＭＯＲ,,株式会社,東京都,渋谷区,道玄坂１丁目１０番８号渋谷道玄坂東急ビル２Ｆ－Ｃ,,13,113,1500043,,,,,,,2023-08-14,1,,,,,ルルアモル,0
1709,6011003017322,新規,0,2023-08-14,2023-08-14,アテナ・クリエイション合同会社,,合同会社,東京都,目黒区,目黒本町４丁目２３番６号,,13,110,1520002,,,,,,,2023-08-14,1,,,,,アテナクリエイション,0
1710,6011003017330,新規,0,2023-08-14,2023-08-14,合同会社ホンマチ組版,,合同会社,東京都,渋谷区,本町６丁目３４番地８号ＨＡＯ６３４＃４０５,,13,113,1510071,,,,,,,2023-08-14,1,,,,,ホンマチクミハン,0
1712,6011101103981,新規,0,2023-08-14,2023-08-14,株式会社ミライデンタルテクノロジー,,株式会社,東京都,新宿区,歌舞伎町１丁目５番３号,,13,104,1600021,,,,,,,2023-08-14,1,,,,,ミライデンタルテクノロジー,0
1713,6011101103998,新規,0,2023-08-14,2023-08-14,株式会社ＬＩＢＥＲＡ,,株式会社,東京都,新宿区,百人町３丁目１０－１１フラワーコーポ２０２,,13,104,1690073,,,,,,,2023-08-14,1,,,,,リベラ,0
1714,6011301028913,新規,0,2023-08-14,2023-08-14,株式会社ニシダ,,株式会社,東京都,杉並区,天沼２丁目５番２４－２０２号,,13,115,1670032,,,,,,,2023-08-14,1,,,,,ニシダ,0
1725,6011501029637,新規,0,2023-08-14,2023-08-14,株式会社ＰＵＮＣＨ,,株式会社,東京都,北区,中十条１丁目１８番２０号,,13,117,1140032,,,,,,,2023-08-14,1,,,,,パンチ,0
1726,6011501029645,新規,0,2023-08-14,2023-08-14,株式会社Ｃチーム,,株式会社,東京都,北区,昭和町２丁目９番２号,,13,117,1140011,,,,,,,2023-08-14,1,,,,,シーチーム,0
1729,6011603004018,新規,0,2023-08-14,2023-08-14,マイステディ合同会社,,合同会社,東京都,練馬区,東大泉７丁目２２－７,,13,120,1780063,,,,,,,2023-08-14,1,,,,,マイステディ,0
1732,6011701026517,新規,0,2023-08-14,2023-08-14,株式会社河内興業,,株式会社,東京都,江戸川区,春江町３丁目１９番２号,,13,123,1320003,,,,,,,2023-08-14,1,,,,,カワチコウギョウ,0
1743,6012803003156,新規,0,2023-08-14,2023-08-14,合同会社ＢｅｌＭｏｍｅｎｔ,,合同会社,東京都,立川市,曙町３丁目３７番１２号メゾン立川１０５号室,,13,202,1900012,,,,,,,2023-08-14,1,,,,,ベルモメント,0
1745,6013301051192,新規,0,2023-08-14,2023-08-14,株式会社トップ,,株式会社,東京都,豊島区,要町２丁目１２番９－１０１号,,13,116,1710043,,,,,,,2023-08-14,1,,,,,トップ,0
1746,6013301051201,新規,0,2023-08-14,2023-08-14,株式会社エイビス,,株式会社,東京都,豊島区,池袋２丁目５１番８号,,13,116,1710014,,,,,,,2023-08-14,1,,,,,エイビス,0
1755,6020001152989,新規,0,2023-08-14,2023-08-14,株式会社Ｋ‐Ｅｓｐｅｒａｎｚａ,,株式会社,神奈川県,横浜市鶴見区,下末吉５丁目１０番６号,,14,101,2300012,,,,,,,2023-08-14,1,,,,,ケーエスペランサ,0
1756,6020001153021,新規,0,2023-08-14,2023-08-14,株式会社ペンタ,,株式会社,神奈川県,川崎市川崎区,港町５番３－２８２１号,,14,131,2100807,,,,,,,2023-08-14,1,,,,,ペンタ,0
1769,6021001079801,新規,0,2023-08-14,2023-08-14,株式会社ｅｂａｎａｔａＷ,,株式会社,神奈川県,相模原市南区,相模大野３丁目１９番１５号,,14,153,2520303,,,,,,,2023-08-14,1,,,,,エバナトゥ,0
1770,6021001079875,新規,0,2023-08-14,2023-08-14,株式会社ａｒｔｂｌｏｏｍ,,株式会社,神奈川県,秦野市,東田原２００番地の２０２,,14,211,2570028,,,,,,,2023-08-14,1,,,,,アートブルーム,0
1771,6021001079900,新規,0,2023-08-14,2023-08-14,あんしん送迎株式会社,,株式会社,神奈川県,海老名市,柏ケ谷１０８５番地,,14,215,2430402,,,,,,,2023-08-14,1,,,,,アンシンソウゲイ,0
1772,6021001079909,新規,0,2023-08-14,2023-08-14,株式会社ｍａｒｃｏ,,株式会社,神奈川県,藤沢市,鵠沼海岸３丁目３番２１号,,14,205,2510037,,,,,,,2023-08-14,1,,,,,マルコ,0
1773,6021001079917,新規,0,2023-08-14,2023-08-14,株式会社Ｐｒｏｖｉｄｅ　ｗｉｔｈ,,株式会社,神奈川県,厚木市,下依知３丁目１５番１号,,14,212,2430806,,,,,,,2023-08-14,1,,,,,プロバイドウィズ,0
1775,6021003013411,新規,0,2023-08-14,2023-08-14,デジタルレバレッジ合同会社,,合同会社,神奈川県,藤沢市,鵠沼石上２丁目５‐１‐３Ｆ‐Ｃ,,14,205,2510025,,,,,,,2023-08-14,1,,,,,デジタルレバレッジ,0
1776,6021003013436,新規,0,2023-08-14,2023-08-14,合同会社くもねこ社,,合同会社,神奈川県,鎌倉市,御成町１３番３２号,,14,204,2480012,,,,,,,2023-08-14,1,,,,,クモネコシャ,0
1777,6021003013444,新規,0,2023-08-14,2023-08-14,合同会社クロルデン,,合同会社,神奈川県,横須賀市,公郷町１丁目５６番地８,,14,201,2380022,,,,,,,2023-08-14,1,,,,,クロルデン,0
1778,6021003013452,新規,0,2023-08-14,2023-08-14,合同会社Ｌ・Ｍｏａｔ,,合同会社,神奈川県,大和市,下鶴間５２９６－２－１０３,,14,213,2420001,,,,,,,2023-08-14,1,,,,,エルモート,0
1782,6030001155149,新規,0,2023-08-14,2023-08-14,株式会社ＳｐｒｉｎｋｌｅＴｏｋｙｏ,,株式会社,埼玉県,さいたま市大宮区,桜木町２丁目３番地大宮マルイ７階,,11,103,3300854,,,,,,,2023-08-14,1,,,,,スプリンクルトーキョー,0
1783,6030001155207,新規,0,2023-08-14,2023-08-14,ｙａｓｈｉ株式会社,,株式会社,埼玉県,所沢市,松葉町１３番８号新所沢壱番館２０２,,11,208,3590044,,,,,,,2023-08-14,1,,,,,ヤシ,0
1784,6030001155215,新規,0,2023-08-14,2023-08-14,株式会社ＵｒａｋａＴＡ,,株式会社,埼玉県,川口市,坂下町３丁目１３－１３－１０,,11,203,3340003,,,,,,,2023-08-14,1,,,,,ウラカタ,0
1785,6030001155223,新規,0,2023-08-14,2023-08-14,株式会社ＯＶＬ,,株式会社,埼玉県,川口市,三ツ和２丁目２番地の４５,,11,203,3340011,,,,,,,2023-08-14,1,,,,,オーブイエル,0
1786,6030001155280,新規,0,2023-08-14,2023-08-14,株式会社ツツミ,,株式会社,埼玉県,春日部市,米島９６１番地５,,11,214,3440115,,,,,,,2023-08-14,1,,,,,ツツミ,0
1787,6030001155413,新規,0,2023-08-14,2023-08-14,株式会社テン,,株式会社,埼玉県,さいたま市南区,別所５丁目１５番地２,,11,108,3360021,,,,,,,2023-08-14,1,,,,,テン,0
1788,6030001155438,新規,0,2023-08-14,2023-08-14,Ｒｅ．Ｆｉｎｅ株式会社,,株式会社,埼玉県,越谷市,南越谷４丁目５－１,,11,222,3430845,,,,,,,2023-08-14,1,,,,,リファイン,0
1791,6030003022280,新規,0,2023-08-14,2023-08-14,合同会社ＢＡＭＢＯＯ,,合同会社,埼玉県,東松山市,若松町１丁目１番７号アーバンポート東松山１０４,,11,212,3550037,,,,,,,2023-08-14,1,,,,,バンブー,0
1797,6040001129663,新規,0,2023-08-14,2023-08-14,株式会社ＨＣＳ,,株式会社,千葉県,八街市,榎戸２９０番地３,,12,230,2891106,,,,,,,2023-08-14,1,,,,,エイチシーエス,0
1798,6040001129671,新規,0,2023-08-14,2023-08-14,株式会社ＫＡＨＡＮＡ,,株式会社,千葉県,市原市,君塚４丁目７番地３０,,12,219,2900051,,,,,,,2023-08-14,1,,,,,カハナ,0
1805,6050001053276,新規,0,2023-08-14,2023-08-14,株式会社ヘルスサポート元気,,株式会社,茨城県,つくば市,豊里の杜１丁目９番地４,,08,220,3002648,,,,,,,2023-08-14,1,,,,,ヘルスサポートゲンキ,0
1806,6050001053284,新規,0,2023-08-14,2023-08-14,株式会社なごみや,,株式会社,茨城県,常総市,水海道山田町４５８０番地,,08,211,3030031,,,,,,,2023-08-14,1,,,,,ナゴミヤ,0
1807,6050001053301,新規,0,2023-08-14,2023-08-14,株式会社ビクトワール,,株式会社,茨城県,水戸市,緑町２丁目２番１１号,,08,201,3100034,,,,,,,2023-08-14,1,,,,,ビクトワール,0
1810,6050003007701,新規,0,2023-08-14,2023-08-14,合同会社エムアンドテイテクノトレイデイング,,合同会社,茨城県,取手市,西１丁目３３番７号,,08,217,3020025,,,,,,,2023-08-14,1,,,,,エムアンドテイテクノトレイデイング,0
1811,6050003007718,新規,0,2023-08-14,2023-08-14,合同会社ＳＫＳ,,合同会社,茨城県,稲敷郡阿見町,大字阿見４３０３番地２４,,08,443,3000331,,,,,,,2023-08-14,1,,,,,エスケーエス,0
1812,6050003007726,新規,0,2023-08-14,2023-08-14,トライビーン合同会社,,合同会社,茨城県,龍ケ崎市,若柴町８１３番地,,08,208,3010041,,,,,,,2023-08-14,1,,,,,トライビーン,0
1816,6060001036247,新規,0,2023-08-14,2023-08-14,株式会社ひなたＩｎｃ．,,株式会社,栃木県,足利市,福居町２１６４番地１,,09,202,3260338,,,,,,,2023-08-14,1,,,,,ヒナタインク,0
1820,6070001040751,新規,0,2023-08-14,2023-08-14,株式会社Ｌｉｇ　Ｂａｓｅ,,株式会社,群馬県,前橋市,城東町３丁目６番地２前橋ＪＳＷビル２０６号室,,10,201,3710016,,,,,,,2023-08-14,1,,,,,リグベース,0
1823,6080001025801,新規,0,2023-08-14,2023-08-14,株式会社ルチア,,株式会社,静岡県,焼津市,焼津１丁目７番２６号,,22,212,4250026,,,,,,,2023-08-14,1,,,,,ルチア,0
1824,6090001018250,新規,0,2023-08-14,2023-08-14,株式会社Ｊｕｎｏ,,株式会社,山梨県,甲府市,中央２丁目５番２９号,,19,201,4000032,,,,,,,2023-08-14,1,,,,,ジュノ,0
1825,6090001018267,新規,0,2023-08-14,2023-08-14,株式会社ＹＯＬＯＩ,,株式会社,山梨県,笛吹市,石和町中川６５０－３,,19,211,4060026,,,,,,,2023-08-14,1,,,,,ヨロイ,0
1828,6110001037776,新規,0,2023-08-14,2023-08-14,株式会社Ａｉ．ＴＥＣ,,株式会社,新潟県,新潟市東区,江南３丁目４番地３１,,15,102,9500855,,,,,,,2023-08-14,1,,,,,アイテック,0
1837,6120001257159,新規,0,2023-08-14,2023-08-14,株式会社ＳＫＲ,,株式会社,大阪府,大阪市中央区,島之内１丁目７番２３号三和第二ビル３０３,,27,128,5420082,,,,,,,2023-08-14,1,,,,,エスケイアール,0
1838,6120001257225,新規,0,2023-08-14,2023-08-14,株式会社アンディゴ,,株式会社,大阪府,大阪市都島区,都島本通３丁目１７番５号,,27,102,5340021,,,,,,,2023-08-14,1,,,,,アンディゴ,0
1839,6120001257266,新規,0,2023-08-14,2023-08-14,株式会社大原技研工業,,株式会社,大阪府,大阪市旭区,赤川４丁目１７番１３号,,27,117,5350005,,,,,,,2023-08-14,1,,,,,オオハラギケンコウギョウ,0
1846,6120003024672,新規,0,2023-08-14,2023-08-14,Ｗｈｉｔｅ合同会社,,合同会社,大阪府,大阪市西区,新町４丁目１７番２７号２０１,,27,106,5500013,,,,,,,2023-08-14,1,,,,,ホワイト,0
1850,6120101068068,新規,0,2023-08-14,2023-08-14,葉山自動車株式会社,,株式会社,大阪府,羽曳野市,西浦１０９９番地の３,,27,222,5830861,,,,,,,2023-08-14,1,,,,,ハヤマジドウシャ,0
1857,6122001037268,新規,0,2023-08-14,2023-08-14,芝田電気工業株式会社,,株式会社,大阪府,東大阪市,友井５丁目５番４６号,,27,227,5770816,,,,,,,2023-08-14,1,,,,,シバタデンキコウギョウ,0
1862,6130001074917,新規,0,2023-08-14,2023-08-14,株式会社ＶＭＳ,,株式会社,京都府,京都市上京区,今出川通烏丸東入相国寺門前町６３７番地,,26,102,6020898,,,,,,,2023-08-14,1,,,,,ブイエムエス,0
1863,6130001074941,新規,0,2023-08-14,2023-08-14,株式会社ＦＡＳＴ,,株式会社,京都府,木津川市,梅美台２丁目２６番地５,,26,214,6190215,,,,,,,2023-08-14,1,,,,,ファスト,0
1864,6130001074958,新規,0,2023-08-14,2023-08-14,株式会社ｚｉｋｋｅ,,株式会社,京都府,京都市左京区,粟田口鳥居町５３番３号,,26,103,6068436,,,,,,,2023-08-14,1,,,,,ジッケ,0
1865,6130001074999,新規,0,2023-08-14,2023-08-14,株式会社池社,,株式会社,京都府,京都市左京区,粟田口山下町４番地１,,26,103,6068443,,,,,,,2023-08-14,1,,,,,イケシャ,0
1872,6140001131163,新規,0,2023-08-14,2023-08-14,株式会社ｂｅｓｔ　ｓｉｇｎ,,株式会社,兵庫県,尼崎市,小中島３丁目１０番７－６１０号,,28,202,6610972,,,,,,,2023-08-14,1,,,,,ベストサイン,0
1873,6140001131171,新規,0,2023-08-14,2023-08-14,株式会社スレックアール,,株式会社,兵庫県,神戸市東灘区,岡本１丁目１２番１４号,,28,101,6580072,,,,,,,2023-08-14,1,,,,,スレックアール,0
1874,6140001131188,新規,0,2023-08-14,2023-08-14,株式会社橋本通商,,株式会社,兵庫県,丹波篠山市,大沢新１５２－３０１,,28,221,6692211,,,,,,,2023-08-14,1,,,,,ハシモトツウショウ,0
1875,6140001131196,新規,0,2023-08-14,2023-08-14,株式会社軽バンレッカーサービス,,株式会社,兵庫県,尼崎市,長洲西通１丁目１６番１１号,,28,202,6600807,,,,,,,2023-08-14,1,,,,,ケイバンレッカーサービス,0
1876,6140001131221,新規,0,2023-08-14,2023-08-14,株式会社ＮＯＲＩアシスト,,株式会社,兵庫県,神戸市中央区,江戸町８５番１ベイ・ウイング神戸ビル１４階,,28,110,6500033,,,,,,,2023-08-14,1,,,,,ノリアシスト,0
1877,6140001131238,新規,0,2023-08-14,2023-08-14,株式会社Ｋ’ｓファーム,,株式会社,兵庫県,神戸市西区,丸塚１丁目１７番３号,,28,111,6512143,,,,,,,2023-08-14,1,,,,,ケイズファーム,0
1879,6140005026707,新規,0,2023-08-14,2023-08-14,弁護士法人ウィンクルム法律事務所,,その他の設立登記法人,兵庫県,神戸市中央区,御幸通６丁目１番１５号御幸ビル４階,,28,110,6510087,,,,,,,2023-08-14,1,,,,,ウィンクルムホウリツジムショ,0
1887,6180005020318,新規,0,2023-08-14,2023-08-14,一般社団法人ウズベキスタン日本国際経済交流協会,,その他の設立登記法人,愛知県,名古屋市中村区,名駅４丁目６番２３号第三堀内ビル９Ｆ,,23,105,4500002,,,,,,,2023-08-14,1,,,,,ウズベキスタンニホンコクサイケイザイコウリュウキョウカイ,0
1889,6180301037684,新規,0,2023-08-14,2023-08-14,株式会社ｏｎｅ　ｅｉｇｈｔ,,株式会社,愛知県,豊川市,伊奈町慶応２３番地２１８,,23,207,4410105,,,,,,,2023-08-14,1,,,,,ワンエイト,0
1890,6190001030658,新規,0,2023-08-14,2023-08-14,トルタイシーオ株式会社,,株式会社,三重県,鈴鹿市,稲生４丁目１番１号,,24,207,5100205,,,,,,,2023-08-14,1,,,,,トルタイシーオ,0
1901,6240001061961,新規,0,2023-08-14,2023-08-14,株式会社都築会計事務所,,株式会社,広島県,福山市,南蔵王町３丁目５番４２号,,34,207,7210973,,,,,,,2023-08-14,1,,,,,ツヅキカイケイジムショ,0
1910,6280001009016,新規,0,2023-08-14,2023-08-14,株式会社総合防災工業,,株式会社,島根県,雲南市,木次町新市９５番地１,,32,209,6991334,,,,,,,2023-08-14,1,,,,,ソウゴウボウサイコウギョウ,0
1913,6290001102653,新規,0,2023-08-14,2023-08-14,株式会社アルファ,,株式会社,福岡県,福岡市早良区,有田２丁目１４番３２号,,40,137,8140033,,,,,,,2023-08-14,1,,,,,アルファ,0
1920,6290003014236,新規,0,2023-08-14,2023-08-14,合同会社竹森鮮魚店,,合同会社,福岡県,福岡市中央区,春吉１丁目５番９号,,40,133,8100003,,,,,,,2023-08-14,1,,,,,タケモリセンギョテン,0
1928,6320001019951,新規,0,2023-08-14,2023-08-14,株式会社まるは工務店,,株式会社,大分県,大分市,豊町１丁目１番３８号,,44,201,8700042,,,,,,,2023-08-14,1,,,,,マルハコウムテン,0
1931,6340001025790,新規,0,2023-08-14,2023-08-14,株式会社山下畜産,,株式会社,鹿児島県,南九州市,頴娃町郡６２２７番地,,46,223,8910701,,,,,,,2023-08-14,1,,,,,ヤマシタチクサン,0
1932,6350001018513,新規,0,2023-08-14,2023-08-14,株式会社カトー電業,,株式会社,宮崎県,都城市,高城町穂満坊３０２０番地２,,45,202,8851202,,,,,,,2023-08-14,1,,,,,カトーデンギョウ,0
1936,6370001050299,新規,0,2023-08-14,2023-08-14,株式会社Ｎ．Ｄｉｒｅｃｔ,,株式会社,宮城県,仙台市若林区,若林３丁目５番３８号,,04,103,9840826,,,,,,,2023-08-14,1,,,,,エヌディレクト,0
1937,6370003006241,新規,0,2023-08-14,2023-08-14,合同会社真構基設計,,合同会社,宮城県,仙台市泉区,泉中央３丁目１６－８,,04,105,9813133,,,,,,,2023-08-14,1,,,,,シンコウキセッケイ,0
1938,6370005010670,新規,0,2023-08-14,2023-08-14,一般社団法人わとなす,,その他の設立登記法人,宮城県,仙台市太白区,長町６丁目１６番２５号,,04,104,9820011,,,,,,,2023-08-14,1,,,,,ワトナス,0
1941,6380001033906,新規,0,2023-08-14,2023-08-14,株式会社シーダー・アイ,,株式会社,福島県,大沼郡会津美里町,字東川原３３５３番地７,,07,447,9696261,,,,,,,2023-08-14,1,,,,,シーダーアイ,0
1947,6430001089711,新規,0,2023-08-14,2023-08-14,株式会社シークエンス,,株式会社,北海道,札幌市北区,北三十七条西４丁目３番１２号５階,,01,102,0010037,,,,,,,2023-08-14,1,,,,,シークエンス,0
1949,6430003015335,新規,0,2023-08-14,2023-08-14,合同会社Ｓｅｉｓｉｎ工業,,合同会社,北海道,札幌市北区,北二十九条西９丁目２番２３－１０３号,,01,102,0010029,,,,,,,2023-08-14,1,,,,,セイシンコウギョウ,0
1956,6700150116701,新規,0,2023-08-14,2023-08-14,深セン芯諾無線電有限公司,,外国会社等,,,,,,,,中国深セン市宝安区航城街道三囲社区航空路華豊工業園Ｂ棟５０２,,,,,,2023-08-14,1,,,,,シンセンシンダクムセンデンユウゲンコウシ,0
1957,6700150116718,新規,0,2023-08-14,2023-08-14,深セン市宜斯凱科技有限公司,,外国会社等,,,,,,,,中国広東深セン市龍崗区坂田街道五合大道河堪村三巷１４号４０１,,,,,,2023-08-14,1,,,,,シンセンシギシカイカギユウゲンコウシ,0
1958,6700150117071,新規,0,2023-08-14,2023-08-14,義烏市歐友貿易有限公司,,外国会社等,,,,,,,,中国（浙江）自由貿易試験区金華市義烏市北苑街道秋実路１０１号３１９室,,,,,,2023-08-14,1,,,,,ギウシオウユウボウエキユウゲンコウシ,0
1959,6700150117732,新規,0,2023-08-14,2023-08-14,義烏市宇騁電子商務有限公司,,外国会社等,,,,,,,,中国（浙江）自由貿易試験区金華市義烏市北苑街道秋実路７８号６号楼６１１室,,,,,,2023-08-14,1,,,,,ギウシウチョウデンシショウムユウゲンコウシ,0
1960,6700150118549,新規,0,2023-08-14,2023-08-14,寧波天縱網絡科技有限公司,,外国会社等,,,,,,,,中国浙江省寧波市＿州区邱＿鎮百丈東路２４００弄１７号３０８室,00131360,,,,,2023-08-14,1,,,,,ネイハテンジュウモウラクカギユウゲンコウシ,0
1961,6700150118986,新規,0,2023-08-14,2023-08-14,ｙｉｎｇｋｏｕｆａｎｇｓｈｉｘｕａｎｙｕｎｄｉａｎｚｉｋｅｊｉｙｏｕｘｉａｎｇｏｎｇｓｉ,,外国会社等,,,,,,,,ｌｉａｏｎｉｎｇｓｈｅｎｇｙｉｎｇｋｏｕｓｈｉｂａｙｕｑｕａｎｑｕ１３－ｄｏｎｇｃｈｅｎｇｙｉｊｉｎｇ．ｊｉｎｗｅｉｙｕｄｕＡ５１♯ｌｏｕ－１５０１,,,,,,2023-08-14,1,,,,,インコウファンシーシュエンインディエンズーコージーヨウシエンゴンスー,0
1974,7010001237600,新規,0,2023-08-14,2023-08-14,ＹＤＫ　Ａｄｖｉｓｏｒｙ株式会社,,株式会社,東京都,中央区,日本橋室町１丁目１番３号紅花ビル６階,,13,102,1030022,,,,,,,2023-08-14,1,,,,,ワイディーケーアドバイザリー,0
1975,7010001237617,新規,0,2023-08-14,2023-08-14,株式会社１８０,,株式会社,東京都,中央区,銀座１丁目１６－７銀座大栄ビル,,13,102,1040061,,,,,,,2023-08-14,1,,,,,ワンエイティー,0
1976,7010001237625,新規,0,2023-08-14,2023-08-14,Ｒｏｏｍｚ株式会社,,株式会社,東京都,千代田区,岩本町３丁目８－８中和秋葉原ビル,,13,101,1010032,,,,,,,2023-08-14,1,,,,,ルームズ,0
1977,7010001237633,新規,0,2023-08-14,2023-08-14,株式会社Ｍｉｌｉｓ,,株式会社,東京都,中央区,銀座１丁目２２番１１号銀座大竹ビジデンス２Ｆ,,13,102,1040061,,,,,,,2023-08-14,1,,,,,エムイリス,0
1980,7010101015765,新規,0,2023-08-14,2023-08-14,株式会社Ｌｅａｐ　Ｇｒｏｗｔｈ,,株式会社,東京都,八王子市,鹿島９４５番地４８,,13,201,1920353,,,,,,,2023-08-14,1,,,,,リープグロース,0
1990,7010403030677,新規,0,2023-08-14,2023-08-14,ライトアシスト合同会社,,合同会社,東京都,港区,北青山１丁目３番１号アールキューブ青山３階,,13,103,1070061,,,,,,,2023-08-14,1,,,,,ライトアシスト,0
1991,7010403030685,新規,0,2023-08-14,2023-08-14,合同会社４８０１,,合同会社,東京都,港区,芝浦４丁目１０－１キャピタルマークタワー３２１９号室,,13,103,1080023,,,,,,,2023-08-14,1,,,,,ヨンハチゼロイチ,0
1992,7010405022350,新規,0,2023-08-14,2023-08-14,一般社団法人日本月桃協会,,その他の設立登記法人,東京都,港区,南青山７丁目９－２－１０１,,13,103,1070062,,,,,,,2023-08-14,1,,,,,ニホンゲットウキョウカイ,0
1996,7010501050882,新規,0,2023-08-14,2023-08-14,株式会社アール・エピ,,株式会社,東京都,台東区,下谷２丁目２２番６号,,13,106,1100004,,,,,,,2023-08-14,1,,,,,アールエピ,0
1997,7010503007121,新規,0,2023-08-14,2023-08-14,野老合同会社,,合同会社,東京都,台東区,駒形１丁目１番１１－１００１号,,13,106,1110043,,,,,,,2023-08-14,1,,,,,ヤロウ,0
2006,7011001156162,新規,0,2023-08-14,2023-08-14,株式会社Ｙｏｕ‐ｎｉｓｏｎ,,株式会社,東京都,渋谷区,道玄坂１丁目１０番８号渋谷道玄坂東急ビル２Ｆ－Ｃ,,13,113,1500043,,,,,,,2023-08-14,1,,,,,ユーニゾン,0
2007,7011001156294,新規,0,2023-08-14,2023-08-14,株式会社ｔｒｕｃ,,株式会社,東京都,目黒区,青葉台１丁目２７番２号,,13,110,1530042,,,,,,,2023-08-14,1,,,,,トゥルック,0
2008,7011001156328,新規,0,2023-08-14,2023-08-14,株式会社アンドパル,,株式会社,東京都,目黒区,自由が丘２丁目１６番１２号,,13,110,1520035,,,,,,,2023-08-14,1,,,,,アンドパル,0
2009,7011003017321,新規,0,2023-08-14,2023-08-14,合同会社ＣｏＣｒｅＭｉｎｄ,,合同会社,東京都,渋谷区,恵比寿南２丁目３－１０相馬ビル３０４号,,13,113,1500022,,,,,,,2023-08-14,1,,,,,コクリマインド,0
2010,7011003017362,新規,0,2023-08-14,2023-08-14,Ｘ‐ＣＯＮ合同会社,,合同会社,東京都,渋谷区,上原２丁目２８番５号,,13,113,1510064,,,,,,,2023-08-14,1,,,,,エックスコン,0
2011,7011101103782,新規,0,2023-08-14,2023-08-14,株式会社アドバンス,,株式会社,東京都,新宿区,西新宿６丁目１６番７号,,13,104,1600023,,,,,,,2023-08-14,1,,,,,アドバンス,0
2012,7011101103980,新規,0,2023-08-14,2023-08-14,Ｐａｒａｄｉｇｍ　ＡＩ株式会社,,株式会社,東京都,新宿区,高田馬場３丁目１番５号サンパティオ高田馬場３０９号室,,13,104,1690075,,,,,,,2023-08-14,1,,,,,パラダイムエーアイ,0
2013,7011103013360,新規,0,2023-08-14,2023-08-14,合同会社フラットエイト,,合同会社,東京都,新宿区,新宿２丁目１２番１３号新宿アントレサロンビル２階,,13,104,1600022,,,,,,,2023-08-14,1,,,,,フラットエイト,0
2017,7011401025355,新規,0,2023-08-14,2023-08-14,株式会社Ｐｅｎｎａ　Ｓｔｕｄｉｏ,,株式会社,東京都,板橋区,中台３丁目２７番Ｍ－４１２号,,13,119,1740064,,,,,,,2023-08-14,1,,,,,ペンナスタジオ,0
2023,7011803005780,新規,0,2023-08-14,2023-08-14,寿屋コンサルティング合同会社,,合同会社,東京都,足立区,千住旭町１１番７号あかつき５０１号室,,13,121,1200026,,,,,,,2023-08-14,1,,,,,コトブキヤコンサルティング,0
2028,7012401040856,新規,0,2023-08-14,2023-08-14,株式会社クラスタ,,株式会社,東京都,府中市,片町２丁目１５番８号,,13,206,1830021,,,,,,,2023-08-14,1,,,,,クラスタ,0
2036,7013301051191,新規,0,2023-08-14,2023-08-14,株式会社興和,,株式会社,東京都,豊島区,北大塚１丁目２番６号,,13,116,1700004,,,,,,,2023-08-14,1,,,,,コウワ,0
2038,7013303006755,新規,0,2023-08-14,2023-08-14,合同会社ロス,,合同会社,東京都,豊島区,駒込３丁目１番３号,,13,116,1700003,,,,,,,2023-08-14,1,,,,,ロス,0
2043,7020001152930,新規,0,2023-08-14,2023-08-14,株式会社Ｓｕｐｐｏｚａ,,株式会社,神奈川県,横浜市保土ケ谷区,霞台５７－３１,,14,106,2400014,,,,,,,2023-08-14,1,,,,,サポウザ,0
2044,7020001152939,新規,0,2023-08-14,2023-08-14,東横舗道株式会社,,株式会社,神奈川県,横浜市港北区,日吉本町２丁目５７番１６号,,14,109,2230062,,,,,,,2023-08-14,1,,,,,トウヨコホドウ,0
2045,7020001152963,新規,0,2023-08-14,2023-08-14,ＭＥＧＡＬＬ株式会社,,株式会社,神奈川県,横浜市神奈川区,三枚町８９－１エアベス三枚町２０３室,,14,102,2210862,,,,,,,2023-08-14,1,,,,,メガール,0
2049,7020003024351,新規,0,2023-08-14,2023-08-14,高山合同会社,,合同会社,神奈川県,川崎市中原区,下小田中１丁目３２番１６号サクラハイム中原Ａ－１０１,,14,133,2110041,,,,,,,2023-08-14,1,,,,,タカヤマ,0
2050,7020003024376,新規,0,2023-08-14,2023-08-14,ＮＡＭ　ＡＳＩＡ　ＰＡＲＴＮＥＲＳ合同会社,,合同会社,神奈川県,横浜市都筑区,東山田３丁目２３番５－６０２号,,14,118,2240023,,,,,,,2023-08-14,1,,,,,ナムアジアパートナーズ,0
2051,7020003024384,新規,0,2023-08-14,2023-08-14,合同会社ＥｎｔｅｒＸ,,合同会社,神奈川県,横浜市西区,浅間町１丁目４番３号ウィザードビル４０２,,14,103,2200072,,,,,,,2023-08-14,1,,,,,エンターエックス,0
2062,7030001155206,新規,0,2023-08-14,2023-08-14,ＫＴＳホールディングス株式会社,,株式会社,埼玉県,さいたま市北区,宮原町３丁目３０６番地１第２坂本ビル６階,,11,102,3310812,,,,,,,2023-08-14,1,,,,,ケーティーエスホールディングス,0
2063,7030001155247,新規,0,2023-08-14,2023-08-14,株式会社グローバリア,,株式会社,埼玉県,所沢市,小手指町１丁目６番地小手指タワーズディアスカイタワー２２０６,,11,208,3591141,,,,,,,2023-08-14,1,,,,,グローバリア,0
2064,7030001155296,新規,0,2023-08-14,2023-08-14,株式会社うなぎのぼり,,株式会社,埼玉県,和光市,丸山台２丁目２７番２０号,,11,229,3510112,,,,,,,2023-08-14,1,,,,,ウナギノボリ,0
2065,7030001155445,新規,0,2023-08-14,2023-08-14,ＳＨＩＮ株式会社,,株式会社,埼玉県,所沢市,北所沢町２２３０番地の１アンダンテ新所沢１０３,,11,208,3590046,,,,,,,2023-08-14,1,,,,,シン,0
2068,7030003022230,新規,0,2023-08-14,2023-08-14,ＡＫコーポレーション合同会社,,合同会社,埼玉県,入間市,東藤沢６丁目１７番２２号,,11,225,3580012,,,,,,,2023-08-14,1,,,,,エーケーコーポレーション,0
2069,7030003022239,新規,0,2023-08-14,2023-08-14,合同会社ＮｅｘｔＯｎｅ,,合同会社,埼玉県,坂戸市,関間１丁目１２番１１号ＭＯＭＯ６坂戸３１０号室,,11,239,3500215,,,,,,,2023-08-14,1,,,,,ネクストワン,0
2070,7030003022296,新規,0,2023-08-14,2023-08-14,クリハラテクノス合同会社,,合同会社,埼玉県,深谷市,榛沢新田１５７番地７,,11,218,3690221,,,,,,,2023-08-14,1,,,,,クリハラテクノス,0
2071,7030003022379,新規,0,2023-08-14,2023-08-14,合同会社ＤＨＲ,,合同会社,埼玉県,北本市,西高尾２丁目１０５－２グラン・コート北本８０３,,11,233,3640035,,,,,,,2023-08-14,1,,,,,ディーエイチアール,0
2078,7040003023120,新規,0,2023-08-14,2023-08-14,合同会社唯一コーティング,,合同会社,千葉県,松戸市,和名ケ谷８４３番地,,12,207,2702232,,,,,,,2023-08-14,1,,,,,ユイイツコーティング,0
2080,7050001053275,新規,0,2023-08-14,2023-08-14,株式会社えん,,株式会社,茨城県,取手市,ゆめみ野５丁目２６番地１０,,08,217,3020039,,,,,,,2023-08-14,1,,,,,エン,0
2084,7050003007709,新規,0,2023-08-14,2023-08-14,ドリバーフードボーテ合同会社,,合同会社,茨城県,水戸市,渡里町２５３８番地の１,,08,201,3100902,,,,,,,2023-08-14,1,,,,,ドリバーフードボーテ,0
2105,7110003005136,新規,0,2023-08-14,2023-08-14,合同会社ＮＥＸＵＳ,,合同会社,新潟県,新潟市中央区,本町通１番町１７８番地３ＭＡＹ２階,,15,103,9518067,,,,,,,2023-08-14,1,,,,,ネクサス,0
2118,7120001257190,新規,0,2023-08-14,2023-08-14,株式会社ビーキッズ,,株式会社,大阪府,大阪市此花区,高見１丁目７番１５－２１０１号,,27,104,5540001,,,,,,,2023-08-14,1,,,,,ビーキッズ,0
2119,7120001257208,新規,0,2023-08-14,2023-08-14,株式会社元巧,,株式会社,大阪府,大阪市住吉区,長居東３丁目２１番２８－４１０号,,27,120,5580004,,,,,,,2023-08-14,1,,,,,ゲンコウ,0
2120,7120001257224,新規,0,2023-08-14,2023-08-14,株式会社クロスギルド,,株式会社,大阪府,大阪市中央区,本町３丁目２番１５号,,27,128,5410053,,,,,,,2023-08-14,1,,,,,クロスギルド,0
2121,7120001257232,新規,0,2023-08-14,2023-08-14,株式会社アークライズ,,株式会社,大阪府,大阪市港区,弁天２丁目１３番２０－１２０３号,,27,107,5520007,,,,,,,2023-08-14,1,,,,,アークライズ,0
2122,7120001257265,新規,0,2023-08-14,2023-08-14,株式会社ＬｉＢ　Ｅｎｔｅｒｐｒｉｓｅ,,株式会社,大阪府,大阪市中央区,日本橋１丁目１７－１７ピカソ日本一ビル６０４号室,,27,128,5420073,,,,,,,2023-08-14,1,,,,,リブエンタープライズ,0
2123,7120001257273,新規,0,2023-08-14,2023-08-14,株式会社おおがね牧場,,株式会社,大阪府,大阪市西区,新町１丁目２４番８号ノース四ツ橋ビル１０階,,27,106,5500013,,,,,,,2023-08-14,1,,,,,オオガネボクジョウ,0
2125,7120003024614,新規,0,2023-08-14,2023-08-14,合同会社池田教育研究所,,合同会社,大阪府,寝屋川市,東香里園町３‐２１‐１０６,,27,215,5720081,,,,,,,2023-08-14,1,,,,,イケダキョウイクケンキュウジョ,0
2126,7120003024663,新規,0,2023-08-14,2023-08-14,ＴＨＥＯ　ＤＥＳＩＧＮ合同会社,,合同会社,大阪府,大阪市北区,東天満２丁目１０番４１号,,27,127,5300044,,,,,,,2023-08-14,1,,,,,テオデザイン,0
2127,7120003024671,新規,0,2023-08-14,2023-08-14,合同会社ＩＫＳ,,合同会社,大阪府,大阪市東淀川区,瑞光５丁目８番２９－１０７号,,27,114,5330005,,,,,,,2023-08-14,1,,,,,アイケーエス,0
2128,7120003024696,新規,0,2023-08-14,2023-08-14,ＳＯＬＯ　ＬＡＢ合同会社,,合同会社,大阪府,大阪市中央区,本町橋８番３－１３０４号,,27,128,5400029,,,,,,,2023-08-14,1,,,,,ソロラボ,0
2129,7120003024713,新規,0,2023-08-14,2023-08-14,合同会社ＰＡＮＰＵＳＨ,,合同会社,大阪府,大阪市東淀川区,豊新５丁目７－５,,27,114,5330014,,,,,,,2023-08-14,1,,,,,パンプッシュ,0
2137,7120101068050,新規,0,2023-08-14,2023-08-14,株式会社ヒケンフィールド,,株式会社,大阪府,高石市,東羽衣６丁目１番３２号,,27,225,5920003,,,,,,,2023-08-14,1,,,,,ヒケンフィールド,0
2138,7120101068067,新規,0,2023-08-14,2023-08-14,株式会社高城,,株式会社,大阪府,岸和田市,上町３０番２９号,,27,202,5960077,,,,,,,2023-08-14,1,,,,,タカシロ,0
2141,7122001037267,新規,0,2023-08-14,2023-08-14,ＮｅｘｔＡｄｖａｎｃｅ株式会社,,株式会社,大阪府,東大阪市,西石切町５丁目５番４８号,,27,227,5798013,,,,,,,2023-08-14,1,,,,,ネクストアドバンス,0
2144,7130001074973,新規,0,2023-08-14,2023-08-14,日柬みらいビジネス株式会社,,株式会社,京都府,京都市右京区,西院平町２５番地ライフプラザ西大路四条３階,,26,108,6160000,,,,,,,2023-08-14,1,,,,,ニッカンミライビジネス,0
2147,7130003008905,新規,0,2023-08-14,2023-08-14,合同会社緑の地球,,合同会社,京都府,長岡京市,金ケ原原田２８番地１１,,26,209,6170856,,,,,,,2023-08-14,1,,,,,ミドリノチキュウ,0
2149,7130005016831,新規,0,2023-08-14,2023-08-14,一般財団法人日本理容財団,,その他の設立登記法人,京都府,京都市中京区,油小路通六角下る六角油小路町３３４,,26,104,6048245,,,,,,,2023-08-14,1,,,,,ニホンリヨウザイダン,0
2162,7140001131170,新規,0,2023-08-14,2023-08-14,株式会社ベストユニバース,,株式会社,兵庫県,伊丹市,鈴原町９丁目１９９番地,,28,207,6640882,,,,,,,2023-08-14,1,,,,,ベストユニバース,0
2163,7140001131195,新規,0,2023-08-14,2023-08-14,株式会社ｆｏｒｔｕｎａ,,株式会社,兵庫県,尼崎市,長洲西通１丁目１６番１１号,,28,202,6600807,,,,,,,2023-08-14,1,,,,,フォルトゥーナ,0
2164,7140001131212,新規,0,2023-08-14,2023-08-14,エコグリーン株式会社,,株式会社,兵庫県,伊丹市,奥畑２丁目１２５番地,,28,207,6640025,,,,,,,2023-08-14,1,,,,,エコグリーン,0
2165,7140001131261,新規,0,2023-08-14,2023-08-14,株式会社Ｉ’ｍｅ　ｃｌｏｓｅｔ,,株式会社,兵庫県,姫路市,勝原区勝山町１３３番地３７５,,28,201,6711202,,,,,,,2023-08-14,1,,,,,アイミークローゼット,0
2167,7140003019406,新規,0,2023-08-14,2023-08-14,合同会社ＭＴＲ,,合同会社,兵庫県,丹波篠山市,今田町上小野原５６６番地１０,,28,221,6692132,,,,,,,2023-08-14,1,,,,,エムティーアール,0
2168,7140003019414,新規,0,2023-08-14,2023-08-14,合同会社ｅｔｏ,,合同会社,兵庫県,三木市,志染町中自由が丘１丁目５０番地,,28,215,6730552,,,,,,,2023-08-14,1,,,,,エト,0
2171,7170001017739,新規,0,2023-08-14,2023-08-14,株式会社とまハウス,,株式会社,和歌山県,有田郡湯浅町,大字栖原８４８番地,,30,361,6430005,,,,,,,2023-08-14,1,,,,,トマハウス,0
2184,7180001157550,新規,0,2023-08-14,2023-08-14,株式会社ＨａｎｄＹ,,株式会社,愛知県,あま市,七宝町徳実郷８４番地,,23,237,4970016,,,,,,,2023-08-14,1,,,,,ハンディー,0
2189,7180003025615,新規,0,2023-08-14,2023-08-14,合同会社ＲＩＳＥ,,合同会社,愛知県,名古屋市中区,栄１丁目２２番２号,,23,106,4600008,,,,,,,2023-08-14,1,,,,,ライズ,0
2190,7180005020317,新規,0,2023-08-14,2023-08-14,一般社団法人ＣＢＩ,,その他の設立登記法人,愛知県,名古屋市昭和区,石仏町１丁目７５－１,,23,107,4660023,,,,,,,2023-08-14,1,,,,,シービーアイ,0
2192,7180301037667,新規,0,2023-08-14,2023-08-14,三豊住建株式会社,,株式会社,愛知県,豊田市,市木町谷耳太７３番地２,,23,211,4710006,,,,,,,2023-08-14,1,,,,,サンポウジュウケン,0
2193,7180303005804,新規,0,2023-08-14,2023-08-14,合同会社綜稀,,合同会社,愛知県,豊田市,八草町荒山７２３,,23,211,4700356,,,,,,,2023-08-14,1,,,,,ソウキ,0
2201,7210001019417,新規,0,2023-08-14,2023-08-14,株式会社マメタ,,株式会社,福井県,福井市,大村町２７－８,,18,201,9190316,,,,,,,2023-08-14,1,,,,,マメタ,0
2203,7230001019968,新規,0,2023-08-14,2023-08-14,株式会社ＢＥＷＡＬ　ＡＵＴＯ　ＴＲＡＤＩＮＧ,,株式会社,富山県,射水市,作道２１４０番地１グローバル３０２,,16,211,9340042,,,,,,,2023-08-14,1,,,,,ベワルオートトレーディング,0
2206,7240001061985,新規,0,2023-08-14,2023-08-14,株式会社ヘッジホッグ,,株式会社,広島県,広島市安佐南区,長束西４丁目７番２１号,,34,105,7310136,,,,,,,2023-08-14,1,,,,,ヘッジホッグ,0
2214,7250001020230,新規,0,2023-08-14,2023-08-14,株式会社グランドアーク,,株式会社,山口県,宇部市,鵜の島町７番２３号,,35,202,7550062,,,,,,,2023-08-14,1,,,,,グランドアーク,0
2215,7250001020247,新規,0,2023-08-14,2023-08-14,株式会社ＥＲＧＭ,,株式会社,山口県,宇部市,大字善和６８０番地２７,,35,202,7590134,,,,,,,2023-08-14,1,,,,,イーアールジーエム,0
2224,7290001102652,新規,0,2023-08-14,2023-08-14,８ｉｇｈｔ＆Ｂｅｅ株式会社,,株式会社,福岡県,福岡市早良区,田隈２丁目２６番３０号,,40,137,8140174,,,,,,,2023-08-14,1,,,,,エイトアンドビー,0
2225,7290001102660,新規,0,2023-08-14,2023-08-14,株式会社しましま,,株式会社,福岡県,福岡市西区,愛宕南２丁目１番３２－３０５号,,40,135,8190007,,,,,,,2023-08-14,1,,,,,シマシマ,0
2226,7290001102669,新規,0,2023-08-14,2023-08-14,ａｉ　ＰＬＡＮ株式会社,,株式会社,福岡県,福岡市城南区,樋井川６丁目２３番１８号,,40,136,8140153,,,,,,,2023-08-14,1,,,,,アイプラン,0
2227,7290001102677,新規,0,2023-08-14,2023-08-14,株式会社翔,,株式会社,福岡県,大川市,大字向島７００－３,,40,212,8310005,,,,,,,2023-08-14,1,,,,,カケル,0
2235,7290801029797,新規,0,2023-08-14,2023-08-14,ＲＴＳ株式会社,,株式会社,福岡県,北九州市戸畑区,中本町１０番１７－６０７号,,40,105,8040061,,,,,,,2023-08-14,1,,,,,アールティーエス,0
2244,7330001031120,新規,0,2023-08-14,2023-08-14,株式会社ＫＧＴＥＣ,,株式会社,熊本県,阿蘇郡西原村,大字布田８３４番地１５５,,43,432,8612403,,,,,,,2023-08-14,1,,,,,ケイジーテック,0
2249,7340003004206,新規,0,2023-08-14,2023-08-14,合同会社マウンド,,合同会社,鹿児島県,鹿児島市,東千石町２－１８,,46,201,8920842,,,,,,,2023-08-14,1,,,,,マウンド,0
2250,7350001018512,新規,0,2023-08-14,2023-08-14,翼昇建設コンサルティング株式会社,,株式会社,宮崎県,宮崎市,神宮東３丁目２番３２号市原ビル２階,,45,201,8800056,,,,,,,2023-08-14,1,,,,,ヨクショウケンセツコンサルティング,0
2251,7350003004411,新規,0,2023-08-14,2023-08-14,合同会社朝日木材,,合同会社,宮崎県,延岡市,若葉町２丁目２６３３番地１１,,45,203,8820875,,,,,,,2023-08-14,1,,,,,アサヒモクザイ,0
2256,7360001032388,新規,0,2023-08-14,2023-08-14,ＫＵＲＵＮ株式会社,,株式会社,沖縄県,豊見城市,字豊見城４９３番地３センチュリー２１ＩＩ２０３号,00131506,47,212,9010241,,,,,,,2023-08-14,1,,,,,クルン,0
2257,7360001032413,新規,0,2023-08-14,2023-08-14,株式会社グットホーム,,株式会社,沖縄県,名護市,大北１丁目２３番２号,,47,209,9050019,,,,,,,2023-08-14,1,,,,,グットホーム,0
2258,7370001050298,新規,0,2023-08-14,2023-08-14,株式会社ハーツデベロップメント,,株式会社,宮城県,仙台市青葉区,角五郎１丁目１３番２０－７０９号,,04,101,9800874,,,,,,,2023-08-14,1,,,,,ハーツデベロップメント,0
2259,7370003006240,新規,0,2023-08-14,2023-08-14,ユアサポート合同会社,,合同会社,宮城県,白石市,斎川字梶川３８番地,,04,206,9890215,,,,,,,2023-08-14,1,,,,,ユアサポート,0
2268,7440001009304,新規,0,2023-08-14,2023-08-14,株式会社Ｔ＆Ｔ　Ｅｎｇ．,,株式会社,北海道,函館市,富岡町２丁目４番２１号,,01,202,0410811,,,,,,,2023-08-14,1,,,,,ティーアンドティーエンジニア,0
2269,7470001019762,新規,0,2023-08-14,2023-08-14,株式会社てくてく,,株式会社,香川県,高松市,御厩町１２５６番地２,,37,201,7618042,,,,,,,2023-08-14,1,,,,,テクテク,0
2270,7470005006518,新規,0,2023-08-14,2023-08-14,一般社団法人瀬戸内麦推進協議会,,その他の設立登記法人,香川県,坂出市,林田町４２８５番地１５２,,37,203,7620012,,,,,,,2023-08-14,1,,,,,セトウチムギスイシンキョウギカイ,0
2271,7490001010562,新規,0,2023-08-14,2023-08-14,株式会社ＧＲＡＣＥ,,株式会社,高知県,南国市,大＿乙１７９９番地４,00131501,39,204,7830005,,,,,,,2023-08-14,1,,,,,グレース,0
2274,7700150116700,新規,0,2023-08-14,2023-08-14,広州朗詣科技有限公司,,外国会社等,,,,,,,,中国広東省広州市南沙区東涌鎮自編科爾路２号（厰房２）２０１,,,,,,2023-08-14,1,,,,,コウシュウロウゲイカギユウゲンコウシ,0
2275,7700150117070,新規,0,2023-08-14,2023-08-14,義烏市里田電子商務有限公司,,外国会社等,,,,,,,,中国（浙江）自由貿易試験区金華市義烏市北苑街道秋実路１０１号２１１室,,,,,,2023-08-14,1,,,,,ギウシリデンデンシショウムユウゲンコウシ,0
2276,7700150117401,新規,0,2023-08-14,2023-08-14,昆山泰楽達電子材料有限公司,,外国会社等,,,,,,,,中国昆山市玉山鎮城北花園路２０４９号,,,,,,2023-08-14,1,,,,,コンサンタイラクタツデンシザイリョウユウゲンコウシ,0
2277,7700150117731,新規,0,2023-08-14,2023-08-14,義烏市優坤電子商務有限公司,,外国会社等,,,,,,,,中国（浙江）自由貿易試験区金華市義烏市北苑街道秋実路１０１号６楼６０５室,,,,,,2023-08-14,1,,,,,ギウシユウコンデンシショウムユウゲンコウシ,0
2278,7700150118985,新規,0,2023-08-14,2023-08-14,ｙｉｎｇｋｏｕｚｈｏｎｇｚｅｇｕａｎｇｈｕｉｓｈａｎｇｍａｏｙｏｕｘｉａｎｇｏｎｇｓｉ,,外国会社等,,,,,,,,ｌｉａｏｎｉｎｇｓｈｅｎｇｙｉｎｇｋｏｕｓｈｉｂａｙｕｑｕａｎｑｕｋｕｎｌｕｎｄａｊｉｅｚｈｕｏｙｕｅｄａｓｈａ６ｌｏｕ６１１ｓｈｉ,,,,,,2023-08-14,1,,,,,インコウジョンゾーグワンフイシャンマオヨクシエンゴンスー,0
2301,8010001237558,新規,0,2023-08-14,2023-08-14,ｅｕｒｏ　ｐｉｃｏ株式会社,,株式会社,東京都,千代田区,神田和泉町１番地６－１６ヤマトビル４０５,,13,101,1010024,,,,,,,2023-08-14,1,,,,,ユーロピコ,0
2302,8010001237665,新規,0,2023-08-14,2023-08-14,株式会社カザマキカク,,株式会社,東京都,千代田区,丸の内１丁目６番２号新丸の内センタービル,,13,101,1000005,,,,,,,2023-08-14,1,,,,,カザマキカク,0
2304,8010003041371,新規,0,2023-08-14,2023-08-14,合同会社セブンスウォール,,合同会社,東京都,中央区,日本橋室町１丁目１１番１２号日本橋水野ビル７階,,13,102,1030022,,,,,,,2023-08-14,1,,,,,セブンスウォール,0
2307,8010101015772,新規,0,2023-08-14,2023-08-14,株式会社Ｒｅ　ｉＤｅａ,,株式会社,東京都,八王子市,小宮町１０７６－５ジュネス石川１０２号室,,13,201,1920031,,,,,,,2023-08-14,1,,,,,リディア,0
2317,8010401176298,新規,0,2023-08-14,2023-08-14,株式会社ＣＨＡＰＴＩＭ,,株式会社,東京都,港区,六本木７丁目１２－２Ｒ７ビルディングＳＰＡＣＥＳ六本木,,13,103,1060032,,,,,,,2023-08-14,1,,,,,チャプティム,0
2318,8010401176315,新規,0,2023-08-14,2023-08-14,株式会社ＲＬＩＮＧＡ,,株式会社,東京都,港区,麻布十番１－２－７ラフィネ麻布十番７０１号室,,13,103,1050000,,,,,,,2023-08-14,1,,,,,リンガ,0
2319,8010401176364,新規,0,2023-08-14,2023-08-14,株式会社ｋｅｒｍｉｓｔｏｋｙｏ,,株式会社,東京都,港区,白金６丁目２番４号ナザレハイツ西館１０１,,13,103,1080072,,,,,,,2023-08-14,1,,,,,ケルミストウキョウ,0
2320,8010401176439,新規,0,2023-08-14,2023-08-14,ＥＣＯＴＯ株式会社,,株式会社,東京都,港区,西麻布１丁目１５番１６号西麻布ＳＤビル４Ｆ,,13,103,1060031,,,,,,,2023-08-14,1,,,,,エコト,0
2329,8010501050881,新規,0,2023-08-14,2023-08-14,ＴＷロジスティックス株式会社,,株式会社,東京都,台東区,北上野１丁目７番３号３Ｆ,,13,106,1100014,,,,,,,2023-08-14,1,,,,,ティーダブリューロジスティックス,0
2334,8010901053633,新規,0,2023-08-14,2023-08-14,かなでミューピア株式会社,,株式会社,東京都,世田谷区,上北沢３丁目１９番３号,,13,112,1560057,,,,,,,2023-08-14,1,,,,,カナデミューピア,0
2340,8011001156211,新規,0,2023-08-14,2023-08-14,株式会社ファノシー,,株式会社,東京都,目黒区,目黒３丁目３番３１号ヴィンテージヒルズ目黒３０１,,13,110,1530063,,,,,,,2023-08-14,1,,,,,ファノシー,0
2341,8011001156277,新規,0,2023-08-14,2023-08-14,株式会社ＯＮＯＯＮＯ,,株式会社,東京都,渋谷区,恵比寿南２丁目４番１９号,,13,113,1500022,,,,,,,2023-08-14,1,,,,,オノオノ,0
2342,8011001156310,新規,0,2023-08-14,2023-08-14,株式会社ＨＯＳＩＥＬＹ,,株式会社,東京都,目黒区,祐天寺１丁目３１番１２号水晶宮殿転霏微３階,,13,110,1530052,,,,,,,2023-08-14,1,,,,,ホージリー,0
2344,8011003017320,新規,0,2023-08-14,2023-08-14,合同会社カント,,合同会社,東京都,渋谷区,渋谷２丁目１９－１５宮益坂ビルディング６０９,,13,113,1500002,,,,,,,2023-08-14,1,,,,,カント,0
2348,8011101103963,新規,0,2023-08-14,2023-08-14,株式会社ＰＪＰ,,株式会社,東京都,新宿区,高田馬場１丁目１７－１８ＳＴ高田馬場ビル４Ｆ,,13,104,1690075,,,,,,,2023-08-14,1,,,,,ピージェイピー,0
2351,8011103013368,新規,0,2023-08-14,2023-08-14,合同会社サンライズ,,合同会社,東京都,新宿区,西新宿１丁目２５番１号新宿センタービル３４階,,13,104,1600023,,,,,,,2023-08-14,1,,,,,サンライズ,0
2353,8011301028911,新規,0,2023-08-14,2023-08-14,株式会社ＲＵＥ　ＬＥＳＬＩＮＥＳ,,株式会社,東京都,杉並区,西荻北３丁目１３番１４号,,13,115,1670042,,,,,,,2023-08-14,1,,,,,リュレリアン,0
2357,8011403004083,新規,0,2023-08-14,2023-08-14,合同会社サウストレイル,,合同会社,東京都,板橋区,大原町２３番６号中野荘１０１,,13,119,1740061,,,,,,,2023-08-14,1,,,,,サウストレイル,0
2359,8011501029643,新規,0,2023-08-14,2023-08-14,株式会社桜美,,株式会社,東京都,北区,滝野川６丁目３番１２号,,13,117,1140023,,,,,,,2023-08-14,1,,,,,オウビ,0
2362,8011701026498,新規,0,2023-08-14,2023-08-14,ＡＧＵ株式会社,,株式会社,東京都,江戸川区,西葛西７丁目１６番１－１００１号,,13,123,1340088,,,,,,,2023-08-14,1,,,,,エイジーユー,0
2363,8011701026515,新規,0,2023-08-14,2023-08-14,株式会社ＴＡＫＡＹＵＭＥ,,株式会社,東京都,江戸川区,西葛西３丁目８番３５－８０５号,,13,123,1340088,,,,,,,2023-08-14,1,,,,,タカユメ,0
2364,8011703003561,新規,0,2023-08-14,2023-08-14,モリデン合同会社,,合同会社,東京都,江戸川区,東葛西６丁目８番１６－２０１号コーポ近江屋２,,13,123,1340084,,,,,,,2023-08-14,1,,,,,モリデン,0
2371,8012803003154,新規,0,2023-08-14,2023-08-14,合同会社むすび,,合同会社,東京都,立川市,錦町１丁目４番４号サニービル２Ｆ,,13,202,1900022,,,,,,,2023-08-14,1,,,,,ムスビ,0
2373,8013103001253,新規,0,2023-08-14,2023-08-14,合同会社ＭＡＧＯＮＯＴＥ,,合同会社,東京都,福生市,大字熊川２７３番地１３,,13,218,1970003,,,,,,,2023-08-14,1,,,,,マゴノテ,0
2375,8013301051190,新規,0,2023-08-14,2023-08-14,株式会社イグネス,,株式会社,東京都,豊島区,南池袋１丁目２０番１号横田ビル７－Ａ,,13,116,1710022,,,,,,,2023-08-14,1,,,,,イグネス,0
2385,8020001152995,新規,0,2023-08-14,2023-08-14,株式会社ｅＢ,,株式会社,神奈川県,川崎市多摩区,菅３丁目１２番７－１１１号,,14,135,2140001,,,,,,,2023-08-14,1,,,,,イービー,0
2388,8020003024350,新規,0,2023-08-14,2023-08-14,スーパーノヴァ合同会社,,合同会社,神奈川県,横浜市中区,山手町２１番地１－３０１,,14,104,2310862,,,,,,,2023-08-14,1,,,,,スーパーノヴァ,0
2389,8020003024375,新規,0,2023-08-14,2023-08-14,合同会社アミーゴプロダクション,,合同会社,神奈川県,川崎市中原区,今井南町３５番４０号オリオンビル５０１,,14,133,2110064,,,,,,,2023-08-14,1,,,,,アミーゴプロダクション,0
2390,8020003024391,新規,0,2023-08-14,2023-08-14,合同会社山本,,合同会社,神奈川県,川崎市中原区,木月伊勢町５番１７－３０５号伊勢町メゾンたちばな,,14,133,2110032,,,,,,,2023-08-14,1,,,,,ヤマモト,0
2392,8021001079907,新規,0,2023-08-14,2023-08-14,株式会社ふじ技建,,株式会社,神奈川県,厚木市,妻田北４丁目５番２６号,,14,212,2430812,,,,,,,2023-08-14,1,,,,,フジギケン,0
2394,8021003013426,新規,0,2023-08-14,2023-08-14,合同会社ＡＳＨＮＹ,,合同会社,神奈川県,藤沢市,片瀬山３丁目２７番１０号,,14,205,2510033,,,,,,,2023-08-14,1,,,,,アシュニー,0
2395,8021003013442,新規,0,2023-08-14,2023-08-14,ＡＲソフトウェア合同会社,,合同会社,神奈川県,茅ヶ崎市,東海岸北４丁目１２番３７号,,14,207,2530053,,,,,,,2023-08-14,1,,,,,エーアールソフトウェア,0
2400,8030001155254,新規,0,2023-08-14,2023-08-14,株式会社Ｃｅｎｔｒａｌ　ｆｉｅｌｄ,,株式会社,埼玉県,ふじみ野市,上ノ原３丁目１番地１８,,11,245,3560021,,,,,,,2023-08-14,1,,,,,セントラルフィールド,0
2401,8030001155279,新規,0,2023-08-14,2023-08-14,株式会社Ｈ．Ｓ企画,,株式会社,埼玉県,深谷市,天神町６番６号,,11,218,3660027,,,,,,,2023-08-14,1,,,,,エイチエスキカク,0
2402,8030001155304,新規,0,2023-08-14,2023-08-14,株式会社ワイズコーポレーション,,株式会社,埼玉県,越谷市,千間台東３丁目１番地１,,11,222,3430042,,,,,,,2023-08-14,1,,,,,ワイズコーポレーション,0
2407,8040001129661,新規,0,2023-08-14,2023-08-14,株式会社長谷川研磨,,株式会社,千葉県,白井市,堀込１丁目５番６棟２０３号,,12,232,2701424,,,,,,,2023-08-14,1,,,,,ハセガワケンマ,0
2415,8050001053290,新規,0,2023-08-14,2023-08-14,ＷＨＩＴＥ　ＨＯＵＳＥ株式会社,,株式会社,茨城県,北相馬郡利根町,もえぎ野台５丁目６番地１,,08,564,3001606,,,,,,,2023-08-14,1,,,,,ホワイトハウス,0
2418,8050003007724,新規,0,2023-08-14,2023-08-14,ＭＥＮＵＫＡ　ＡＵＴＯ合同会社,,合同会社,茨城県,筑西市,宮後字駒込４９番４６,,08,227,3004503,,,,,,,2023-08-14,1,,,,,メヌカオート,0
2419,8060001036245,新規,0,2023-08-14,2023-08-14,ＫＪ架け橋株式会社,,株式会社,栃木県,河内郡上三川町,大字上三川４９４５－１,,09,301,3290611,,,,,,,2023-08-14,1,,,,,ケージェイカケハシ,0
2420,8060001036253,新規,0,2023-08-14,2023-08-14,メインワークス株式会社,,株式会社,栃木県,宇都宮市,石井町３４１２番地１１,,09,201,3210912,,,,,,,2023-08-14,1,,,,,メインワークス,0
2423,8070001040725,新規,0,2023-08-14,2023-08-14,株式会社ｒｅｉｎｅ,,株式会社,群馬県,館林市,東美園町６番地の６,,10,207,3740031,,,,,,,2023-08-14,1,,,,,レーヌ,0
2425,8080003003027,新規,0,2023-08-14,2023-08-14,Ｂｌｕｅ　Ｂｌｕｅ　Ｂｌｕｅ合同会社,,合同会社,静岡県,静岡市葵区,吉野町４－７,,22,101,4200046,,,,,,,2023-08-14,1,,,,,ブルーブルーブルー,0
2428,8080403004847,新規,0,2023-08-14,2023-08-14,合同会社Ｓｔｒｏ,,合同会社,静岡県,浜松市北区,三ヶ日町三ヶ日８９５―１５,,22,135,4311414,,,,,,,2023-08-14,1,,,,,ストロー,0
2434,8110001037741,新規,0,2023-08-14,2023-08-14,家守株式会社,,株式会社,新潟県,上越市,本町４丁目１番７号ｂｉｂｉｔビル,,15,222,9430832,,,,,,,2023-08-14,1,,,,,ヤモリ,0
2443,8120001257108,新規,0,2023-08-14,2023-08-14,株式会社ｙ’ｓｔｙｌｅ,,株式会社,大阪府,守口市,佐太中町５丁目７番１１号,,27,209,5700002,,,,,,,2023-08-14,1,,,,,ワイスタイル,0
2444,8120001257116,新規,0,2023-08-14,2023-08-14,株式会社ＩＺＡＮＡＧＩ,,株式会社,大阪府,守口市,梶町４丁目５６番４号,,27,209,5700015,,,,,,,2023-08-14,1,,,,,イザナギ,0
2445,8120001257207,新規,0,2023-08-14,2023-08-14,株式会社ＳＢＳマネジメント,,株式会社,大阪府,大阪市中央区,安土町３丁目４番９－１１０２号,,27,128,5410052,,,,,,,2023-08-14,1,,,,,エスビーエスマネジメント,0
2446,8120001257215,新規,0,2023-08-14,2023-08-14,株式会社イーライン,,株式会社,大阪府,門真市,千石東町３７番２４号,,27,223,5710013,,,,,,,2023-08-14,1,,,,,イーライン,0
2447,8120001257223,新規,0,2023-08-14,2023-08-14,ゴマメ株式会社,,株式会社,大阪府,大阪市鶴見区,緑１丁目１０番２号,,27,124,5380054,,,,,,,2023-08-14,1,,,,,ゴマメ,0
2448,8120001257272,新規,0,2023-08-14,2023-08-14,株式会社ＬｕｖｉｓＹｏｕｔｈ,,株式会社,大阪府,大阪市北区,西天満５丁目１６－１５エフワンビル４０７号,,27,127,5300047,,,,,,,2023-08-14,1,,,,,ラヴィスユース,0
2449,8120001257289,新規,0,2023-08-14,2023-08-14,株式会社２ｄａｙｓ,,株式会社,大阪府,大阪市北区,中津１丁目１８番１８号８０１,,27,127,5310071,,,,,,,2023-08-14,1,,,,,ツーデイズ,0
2450,8120001257297,新規,0,2023-08-14,2023-08-14,株式会社テルソ,,株式会社,大阪府,大阪市中央区,松屋町住吉６番８号１Ｆ,,27,128,5400017,,,,,,,2023-08-14,1,,,,,テルソ,0
2452,8120003024670,新規,0,2023-08-14,2023-08-14,合同会社福徳円満,,合同会社,大阪府,大阪市生野区,巽中３丁目２０番３号セレニティ南巽１階１０２号,00131507,27,116,5440013,,,,,,,2023-08-14,1,,,,,フクトクエンマン,0
2456,8120901047938,新規,0,2023-08-14,2023-08-14,株式会社フルテージ,,株式会社,大阪府,箕面市,桜井１丁目１番５号,,27,220,5620043,,,,,,,2023-08-14,1,,,,,フルテージ,0
2457,8122001037266,新規,0,2023-08-14,2023-08-14,株式会社エムシステム,,株式会社,大阪府,東大阪市,友井２丁目１番２６号,,27,227,5770816,,,,,,,2023-08-14,1,,,,,エムシステム,0
2462,8130001074923,新規,0,2023-08-14,2023-08-14,Ｒｏｍａｘ株式会社,,株式会社,京都府,久世郡久御山町,森村東４０５番地１,,26,322,6130024,,,,,,,2023-08-14,1,,,,,ロマックス,0
2463,8130001074956,新規,0,2023-08-14,2023-08-14,ドリームプロジェクトジャパン株式会社,,株式会社,京都府,京都市上京区,七本松通五辻上る老松町１０４６番地２,00131497,26,102,6028318,,,,,,,2023-08-14,1,,,,,ドリームプロジェクトジャパン,0
2467,8140001131161,新規,0,2023-08-14,2023-08-14,株式会社アスリープ,,株式会社,兵庫県,神戸市中央区,磯上通６丁目１番１号磯上公園ビル２階,,28,110,6510086,,,,,,,2023-08-14,1,,,,,アスリープ,0
2468,8140001131178,新規,0,2023-08-14,2023-08-14,株式会社ＷＥＬＬＦＩＥＬＤ,,株式会社,兵庫県,たつの市,神岡町沢田５０５番地,,28,229,6794116,,,,,,,2023-08-14,1,,,,,ウェルフィールド,0
2469,8140001131186,新規,0,2023-08-14,2023-08-14,株式会社ＴＭコンサル,,株式会社,兵庫県,芦屋市,三条町３１番５号,,28,206,6590087,,,,,,,2023-08-14,1,,,,,ティーエムコンサル,0
2470,8140001131194,新規,0,2023-08-14,2023-08-14,株式会社ひらくスタジオ,,株式会社,兵庫県,神戸市中央区,海岸通３丁目１番１号ＫＣＣビル,,28,110,6500024,,,,,,,2023-08-14,1,,,,,ヒラクスタジオ,0
2471,8140001131203,新規,0,2023-08-14,2023-08-14,ｅｎｊｏｉｎｔ株式会社,,株式会社,兵庫県,神戸市垂水区,舞多聞西８丁目１４番２０号,,28,108,6550051,,,,,,,2023-08-14,1,,,,,エンジョイント,0
2472,8140001131228,新規,0,2023-08-14,2023-08-14,株式会社フィルメント英夢,,株式会社,兵庫県,姫路市,飾磨区富士見ケ丘町１５番地１４,,28,201,6728098,,,,,,,2023-08-14,1,,,,,フィルメントエイム,0
2473,8140003019405,新規,0,2023-08-14,2023-08-14,合同会社ａｈａｖａ,,合同会社,兵庫県,西宮市,上甲東園１丁目３番８号カナンハウスＢ－２０１,,28,204,6620813,,,,,,,2023-08-14,1,,,,,アハバ,0
2474,8140005026705,新規,0,2023-08-14,2023-08-14,コート芦屋朝日ケ丘団地管理組合法人,,その他の設立登記法人,兵庫県,芦屋市,朝日ケ丘町１３番２８号,,28,206,6590012,,,,,,,2023-08-14,1,,,,,コートアシヤアサヒガオカダンチ,0
2485,8180001157566,新規,0,2023-08-14,2023-08-14,株式会社ＣＩＥＮ,,株式会社,愛知県,名古屋市東区,泉１丁目４番１６号ローレルアイ泉８０１号,,23,102,4610001,,,,,,,2023-08-14,1,,,,,シエン,0
2486,8180001157632,新規,0,2023-08-14,2023-08-14,Ｓａｎｃｔｕａｒｙ株式会社,,株式会社,愛知県,名古屋市名東区,上菅２丁目１１１２番地ピースキャピタル上菅４０３号,,23,115,4650014,,,,,,,2023-08-14,1,,,,,サンクチュアリ,0
2489,8180003025606,新規,0,2023-08-14,2023-08-14,合同会社ＤＭ,,合同会社,愛知県,名古屋市中区,新栄２丁目４８－１１Ｂ棟９号,,23,106,4600007,,,,,,,2023-08-14,1,,,,,ディーエム,0
2490,8180301037666,新規,0,2023-08-14,2023-08-14,Ｏｎｅ　Ｔｈｏｕｓａｎｄ　Ｏｎｅ株式会社,,株式会社,愛知県,豊橋市,野依台１丁目３２番地の３,,23,201,4418125,,,,,,,2023-08-14,1,,,,,ワンサウザンドワン,0
2491,8180301037699,新規,0,2023-08-14,2023-08-14,株式会社ＢＧＲＥ,,株式会社,愛知県,岡崎市,渡町字大榎５０番地１,,23,202,4440933,,,,,,,2023-08-14,1,,,,,ビーグリー,0
2493,8180303005803,新規,0,2023-08-14,2023-08-14,合同会社マドカ,,合同会社,愛知県,刈谷市,池田町１丁目６５６,,23,210,4480044,,,,,,,2023-08-14,1,,,,,マドカ,0
2496,8200005013515,新規,0,2023-08-14,2023-08-14,医療法人輝,,その他の設立登記法人,岐阜県,関市,下有知字小豆畑１２１２番９,,21,205,5013217,,,,,,,2023-08-14,1,,,,,カガヤキ,0
2497,8210001019424,新規,0,2023-08-14,2023-08-14,キンウェイ材料株式会社,,株式会社,福井県,福井市,新田塚２丁目１５番１５号マインズハイツＢ１０２号,,18,201,9100067,,,,,,,2023-08-14,1,,,,,キンウェイザイリョウ,0
2501,8220003003565,新規,0,2023-08-14,2023-08-14,Ｓｕｎｓ．合同会社,,合同会社,石川県,金沢市,下近江町２６,,17,201,9200904,,,,,,,2023-08-14,1,,,,,サンズ,0
2502,8220005008777,新規,0,2023-08-14,2023-08-14,一般財団法人エムイー財団,,その他の設立登記法人,石川県,白山市,小上町１６番地,,17,210,9240034,,,,,,,2023-08-14,1,,,,,エムイーザイダン,0
2503,8230001019967,新規,0,2023-08-14,2023-08-14,株式会社空と箱,,株式会社,富山県,射水市,放生津町２０番６号,,16,211,9340022,,,,,,,2023-08-14,1,,,,,ソラトハコ,0
2517,8260003004394,新規,0,2023-08-14,2023-08-14,合同会社ＯＣＬＡＢ,,合同会社,岡山県,倉敷市,加須山８３２番地６,,33,202,7100026,,,,,,,2023-08-14,1,,,,,オーシーラボ,0
2522,8280005007567,新規,0,2023-08-14,2023-08-14,一般社団法人まちづくり未来創造プラットフォーム,,その他の設立登記法人,島根県,出雲市,松寄下町１０５１－１,,32,203,6930052,,,,,,,2023-08-14,1,,,,,,0
2527,8290001102643,新規,0,2023-08-14,2023-08-14,株式会社シスリー,,株式会社,福岡県,福岡市中央区,天神２丁目２番１２号Ｔ＆Ｊビルディング７Ｆ,,40,133,8100001,,,,,,,2023-08-14,1,,,,,シスリー,0
2532,8290803004483,新規,0,2023-08-14,2023-08-14,合同会社コレット,,合同会社,福岡県,北九州市小倉南区,津田新町４丁目５－１４トーカンマンション小倉東２０７号室,,40,107,8000227,,,,,,,2023-08-14,1,,,,,コレット,0
2538,8320001019941,新規,0,2023-08-14,2023-08-14,株式会社ＣＡＮＤＥＹ,,株式会社,大分県,大分市,大字葛木１０６９番地,,44,201,8700133,,,,,,,2023-08-14,1,,,,,キャンディ,0
2553,8360003013195,新規,0,2023-08-14,2023-08-14,合同会社クラビネスト,,合同会社,沖縄県,うるま市,字宮里８６８番地６アリビオ１階,,47,213,9042243,,,,,,,2023-08-14,1,,,,,クラビネスト,0
2554,8370001050297,新規,0,2023-08-14,2023-08-14,株式会社グレイス,,株式会社,宮城県,仙台市太白区,東中田２丁目７番３１‐２０８号,,04,104,9811107,,,,,,,2023-08-14,1,,,,,グレイス,0
2557,8380001033920,新規,0,2023-08-14,2023-08-14,株式会社押田企画,,株式会社,福島県,会津若松市,大塚１丁目１番５２号,,07,202,9650014,,,,,,,2023-08-14,1,,,,,オシダキカク,0
2567,8420001018363,新規,0,2023-08-14,2023-08-14,株式会社大塗装,,株式会社,青森県,十和田市,大字三本木字一本木沢３３番地４７,,02,206,0340001,,,,,,,2023-08-14,1,,,,,ダイトソウ,0
2568,8430001089718,新規,0,2023-08-14,2023-08-14,株式会社Ｌａ　ｐｏｉｒｅ,,株式会社,北海道,苫小牧市,のぞみ町２丁目９番２１号,,01,213,0591272,,,,,,,2023-08-14,1,,,,,ラプワール,0
2569,8430001089726,新規,0,2023-08-14,2023-08-14,株式会社彌榮,,株式会社,北海道,北広島市,西の里東４丁目４番地２４,,01,234,0611105,,,,,,,2023-08-14,1,,,,,イヤサカ,0
2570,8430001089759,新規,0,2023-08-14,2023-08-14,株式会社ＥＺＯＶＡＴＩＯＮ,,株式会社,北海道,札幌市中央区,南一条西１６丁目１番地３２３春野ビル３Ｆ,,01,101,0600061,,,,,,,2023-08-14,1,,,,,エゾベーション,0
2571,8430003015358,新規,0,2023-08-14,2023-08-14,合同会社あそびば,,合同会社,北海道,札幌市南区,真駒内柏丘１丁目２‐１７,,01,106,0050022,,,,,,,2023-08-14,1,,,,,アソビバ,0
2578,8500003003082,新規,0,2023-08-14,2023-08-14,ビルドクエスト合同会社,,合同会社,愛媛県,松山市,高岡町５０１番地１４,,38,201,7918036,,,,,,,2023-08-14,1,,,,,ビルドクエスト,0
2579,8700150108283,新規,0,2023-08-14,2022-04-22,牧羊犬,,その他,東京都,板橋区,小豆沢１丁目７－５,,13,119,1740051,,,,,,,2022-04-22,1,,,,,ボクヨウケン,0
2580,8700150116699,新規,0,2023-08-14,2023-08-14,福州弗沃科網絡技術有限公司,,外国会社等,,,,,,,,中国福建省福州保税区総合大楼１５層Ａ区－３１５８（自貿試験区内）,00131335,,,,,2023-08-14,1,,,,,フクシュウフオウカモウラクギジュツユウゲンコウシ,0
2581,8700150116724,新規,0,2023-08-14,2023-08-14,深セン市美瑞特斯科技有限公司,,外国会社等,,,,,,,,中国深セン市龍崗区坂田街道美食街北５巷３号１８０２室,,,,,,2023-08-14,1,,,,,シンセンシメリテスカギユウゲンコウシ,0
2582,8700150117400,新規,0,2023-08-14,2023-08-14,義烏市雅鋭電子商務有限公司,,外国会社等,,,,,,,,中国（浙江）自由貿易試験区義烏市北苑街道秋実路７８号６号楼６０８室,,,,,,2023-08-14,1,,,,,ギウシガエイデンシショウムユウゲンコウシ,0
2583,8700150117730,新規,0,2023-08-14,2023-08-14,義烏市越＿電子商務有限公司,00131079,外国会社等,,,,,,,,中国浙江省義烏市北苑街道丹陽街１５０号３０１室,,,,,,2023-08-14,1,,,,,ギウシエツコンデンシショウムユウゲンコウシ,0
2584,8700150118984,新規,0,2023-08-14,2023-08-14,Ｑｉａｎｈａｉｈｏｎｇｙｉｋｅｊｉｓｈｅｎｚｈｅｎｙｏｕｘｉａｎｇｏｎｇｓｉ,,外国会社等,,,,,,,,ｑｉａｎｈａｉｓｈｅｎｇａｎｇｈｅｚｕｏｑｕ　ｑｉａｎｗａｎｙｉｌｕ１ｈａｏＡｄｏｎｇ２０１ｓｈｉｓｈｅｎｚｈｅｎ　ｇｕａｎｇｄｏｎｇ,,,,,,2023-08-14,1,,,,,チエンハイホンイーコージーシェンジェンヨウシエンゴンスー,0
2595,9010001237342,新規,0,2023-08-14,2023-08-14,中嘉宜徳日本株式会社,00131505,株式会社,東京都,千代田区,神田佐久間町３丁目２８番地星野ビル５０９,,13,101,1010025,,,,,,,2023-08-14,1,,,,,チュウカギトクニホン,0
2596,9010001237540,新規,0,2023-08-14,2023-08-14,株式会社Ｒｅｖｅｒｓｏ,,株式会社,東京都,中央区,日本橋富沢町７番１９－６０３号,,13,102,1030006,,,,,,,2023-08-14,1,,,,,レベルソ,0
2597,9010001237607,新規,0,2023-08-14,2023-08-14,株式会社ＲＥＩＮＥ,,株式会社,東京都,中央区,月島１丁目１０番７号,,13,102,1040052,,,,,,,2023-08-14,1,,,,,レーヌ,0
2598,9010001237664,新規,0,2023-08-14,2023-08-14,株式会社ピュアリティ,,株式会社,東京都,中央区,築地２丁目１番２号プライム築地ビル３階,,13,102,1040045,,,,,,,2023-08-14,1,,,,,ピュアリティ,0
2601,9010003041321,新規,0,2023-08-14,2023-08-14,マルボルドインターナショナル合同会社,,合同会社,東京都,中央区,銀座１丁目１２番４号Ｎ＆Ｅ・ＢＬＤ．６Ｆ,,13,102,1040061,,,,,,,2023-08-14,1,,,,,マルボルドインターナショナル,0
2602,9010003041338,新規,0,2023-08-14,2023-08-14,合同会社ＫＲＦ２,,合同会社,東京都,千代田区,丸の内３丁目１番１号東京共同会計事務所内,,13,101,1000005,,,,,,,2023-08-14,1,,,,,ケイアールエフツー,0
2614,9010401176264,新規,0,2023-08-14,2023-08-14,株式会社ＯＰＥＥＴ,,株式会社,東京都,港区,北青山１丁目３番１号,,13,103,1070061,,,,,,,2023-08-14,1,,,,,オピート,0
2615,9010401176306,新規,0,2023-08-14,2023-08-14,Ｃｕｅｓｔ株式会社,,株式会社,東京都,港区,麻布十番１丁目２番７号ラフィネ麻布十番７０１号室,,13,103,1060045,,,,,,,2023-08-14,1,,,,,クエスト,0
2616,9010401176355,新規,0,2023-08-14,2023-08-14,株式会社Ｌｅｇａｌ　Ｔｉｍｅｓ,,株式会社,東京都,港区,南青山３丁目１番３６号青山丸竹ビル６Ｆ,,13,103,1070062,,,,,,,2023-08-14,1,,,,,リーガルタイムズ,0
2630,9010601063527,新規,0,2023-08-14,2023-08-14,藍米株式会社,,株式会社,東京都,墨田区,横川４丁目１番２０号１Ｆ－Ｆ,,13,107,1300003,,,,,,,2023-08-14,1,,,,,ブルーライス,0
2634,9010801034229,新規,0,2023-08-14,2023-08-14,株式会社サロンゼロ,,株式会社,東京都,大田区,池上３丁目３９番１０号,,13,111,1460082,,,,,,,2023-08-14,1,,,,,サロンゼロ,0
2635,9010801034237,新規,0,2023-08-14,2023-08-14,ＮＥＸＴＣＨＡＮＧＥ株式会社,,株式会社,東京都,大田区,大森六丁目１６番１８号,,13,111,1440000,,,,,,,2023-08-14,1,,,,,ネクストチェンジ,0
2638,9010901053574,新規,0,2023-08-14,2023-08-14,株式会社サンシ,,株式会社,東京都,世田谷区,下馬５丁目３９番７号,,13,112,1540002,,,,,,,2023-08-14,1,,,,,サンシ,0
2639,9010901053590,新規,0,2023-08-14,2023-08-14,株式会社アンスケープ,,株式会社,東京都,世田谷区,成城８丁目４番２１号成城ＣＲＯＣＥ５４９,,13,112,1570066,,,,,,,2023-08-14,1,,,,,アンスケープ,0
2648,9011001156185,新規,0,2023-08-14,2023-08-14,株式会社ノアダンスアカデミー,,株式会社,東京都,目黒区,中根１丁目２番２号,,13,110,1520031,,,,,,,2023-08-14,1,,,,,ノアダンスアカデミー,0
2649,9011003017328,新規,0,2023-08-14,2023-08-14,合同会社Ｆ１,,合同会社,東京都,渋谷区,恵比寿１丁目１５番９号日宝恵比寿ビル４０３,,13,113,1500013,,,,,,,2023-08-14,1,,,,,エフワン,0
2653,9011101103954,新規,0,2023-08-14,2023-08-14,株式会社ＭｉｓｓｋｅｙＨＱ,,株式会社,東京都,新宿区,西新宿３丁目３番１３号西新宿水間ビル６階,,13,104,1600023,,,,,,,2023-08-14,1,,,,,ミスキーエイチキュー,0
2654,9011101103979,新規,0,2023-08-14,2023-08-14,縁ブリッジ株式会社,,株式会社,東京都,新宿区,西五軒町７番２号,,13,104,1620812,,,,,,,2023-08-14,1,,,,,エンブリッジ,0
2655,9011101103995,新規,0,2023-08-14,2023-08-14,株式会社Ｔｒｉｘ,,株式会社,東京都,新宿区,富久町９番１１－１３０６号,,13,104,1620067,,,,,,,2023-08-14,1,,,,,トリックス,0
2657,9011103013301,新規,0,2023-08-14,2023-08-14,金田合同会社,,合同会社,東京都,新宿区,高田馬場４丁目１８－９ハイシティ高田馬場２０１号室,,13,104,1690075,,,,,,,2023-08-14,1,,,,,カネダ,0
2658,9011103013367,新規,0,2023-08-14,2023-08-14,合同会社トラスト,,合同会社,東京都,新宿区,西新宿３丁目７番１号新宿パークタワー１１階,,13,104,1600023,,,,,,,2023-08-14,1,,,,,トラスト,0
2664,9011403004066,新規,0,2023-08-14,2023-08-14,春元合同会社,,合同会社,東京都,板橋区,蓮沼町７０番１４号,,13,119,1740052,,,,,,,2023-08-14,1,,,,,ハルモト,0
2665,9011501029642,新規,0,2023-08-14,2023-08-14,株式会社アルチザン,,株式会社,東京都,北区,田端３丁目１８番１６号,,13,117,1140014,,,,,,,2023-08-14,1,,,,,アルチザン,0
2670,9011701026506,新規,0,2023-08-14,2023-08-14,株式会社リマ,,株式会社,東京都,江戸川区,南小岩８丁目１６番８－１３０１号,,13,123,1330056,,,,,,,2023-08-14,1,,,,,リマ,0
2677,9012703002775,新規,0,2023-08-14,2023-08-14,合同会社ＳＯＷ,,合同会社,東京都,西東京市,向台町６丁目１０番２０号,,13,229,1880013,,,,,,,2023-08-14,1,,,,,ソウ,0
2679,9012801022568,新規,0,2023-08-14,2023-08-14,株式会社ＪＩＹＡ商事,,株式会社,東京都,国分寺市,富士本３丁目１－１７,,13,214,1850031,,,,,,,2023-08-14,1,,,,,ジヤショウジ,0
2692,9020001152838,新規,0,2023-08-14,2023-08-14,横浜不動産株式会社,,株式会社,神奈川県,横浜市青葉区,荏田北１丁目４番地１,,14,117,2250015,,,,,,,2023-08-14,1,,,,,ヨコハマフドウサン,0
2693,9020001152920,新規,0,2023-08-14,2023-08-14,株式会社三重野興業,,株式会社,神奈川県,横浜市泉区,和泉町７４０番地３,,14,116,2450016,,,,,,,2023-08-14,1,,,,,ミエノコウギョウ,0
2694,9020001152978,新規,0,2023-08-14,2023-08-14,ＭＯＤＥＳＴＯ‐Ｒ株式会社,,株式会社,神奈川県,川崎市麻生区,百合丘１丁目２３－１,,14,137,2150011,,,,,,,2023-08-14,1,,,,,モデストーアール,0
2695,9020001152986,新規,0,2023-08-14,2023-08-14,セキグチホールディングス株式会社,,株式会社,神奈川県,川崎市高津区,溝口１丁目１３番１８号,,14,134,2130001,,,,,,,2023-08-14,1,,,,,セキグチホールディングス,0
2696,9020001153010,新規,0,2023-08-14,2023-08-14,株式会社ＪＡＰＡＮ　ＴＲＥＫ,,株式会社,神奈川県,横浜市青葉区,美しが丘５丁目１８－３,,14,117,2250002,,,,,,,2023-08-14,1,,,,,ジャパントレック,0
2700,9020003024358,新規,0,2023-08-14,2023-08-14,合同会社ｈ,,合同会社,神奈川県,川崎市中原区,中丸子１３番地１０ザ・クラッシィタワー２８０７,,14,133,2110012,,,,,,,2023-08-14,1,,,,,アッシュ,0
2705,9021001079872,新規,0,2023-08-14,2023-08-14,株式会社大祥産業,,株式会社,神奈川県,鎌倉市,台３丁目９番地６号,,14,204,2470061,,,,,,,2023-08-14,1,,,,,ダイショウサンギョウ,0
2706,9021001079889,新規,0,2023-08-14,2023-08-14,株式会社やまたん,,株式会社,神奈川県,茅ヶ崎市,共恵１丁目１番５号Ｂ．Ｌ．Ｄ．Ｎａｇａｓｈｉｍａ３０１,,14,207,2530056,,,,,,,2023-08-14,1,,,,,ヤマタン,0
2707,9021001079897,新規,0,2023-08-14,2023-08-14,Ｔｈｒｅｅ　Ｂｅｓｔ株式会社,,株式会社,神奈川県,足柄下郡湯河原町,吉浜３２２－１２,,14,384,2590312,,,,,,,2023-08-14,1,,,,,スリーベスト,0
2708,9021001079906,新規,0,2023-08-14,2023-08-14,ＡＤＡ株式会社,,株式会社,神奈川県,横須賀市,安浦町１丁目５番地コーポ日野２０１,,14,201,2380012,,,,,,,2023-08-14,1,,,,,アダ,0
2712,9021003013433,新規,0,2023-08-14,2023-08-14,合同会社ワンアップ西湘,,合同会社,神奈川県,小田原市,荻窪３３６番地３林角ビル１号室,,14,206,2500042,,,,,,,2023-08-14,1,,,,,ワンアップセイショウ,0
2713,9021003013441,新規,0,2023-08-14,2023-08-14,Ｋｏ‐ｕｎ　Ｔｒａｄｉｎｇ合同会社,,合同会社,神奈川県,厚木市,まつかげ台４７番１３号グランメゾンまつかげ台,,14,212,2430207,,,,,,,2023-08-14,1,,,,,コウウントレーディング,0
2718,9030001155146,新規,0,2023-08-14,2023-08-14,株式会社ＬｅｇｅｎｄＴｉｍｅ,,株式会社,埼玉県,坂戸市,関間１丁目１２番１１号ＭＯＭＯ６坂戸３１０号室,,11,239,3500215,,,,,,,2023-08-14,1,,,,,レジェンドタイム,0
2719,9030001155204,新規,0,2023-08-14,2023-08-14,株式会社ＫＡＲＴＡＬ,,株式会社,埼玉県,川口市,前川３丁目５８番１３号新栄ハイツＢ２０５号,,11,203,3330842,,,,,,,2023-08-14,1,,,,,カータル,0
2720,9030001155220,新規,0,2023-08-14,2023-08-14,株式会社Ｕ‐ｐｌａｔｉｎｕｍ,,株式会社,埼玉県,春日部市,南中曽根２６２番地１２３,,11,214,3440048,,,,,,,2023-08-14,1,,,,,ユープラチナム,0
2721,9030001155253,新規,0,2023-08-14,2023-08-14,株式会社サンプラザ,,株式会社,埼玉県,さいたま市南区,白幡５丁目２番６－１０５号,,11,108,3360022,,,,,,,2023-08-14,1,,,,,サンプラザ,0
2722,9030001155261,新規,0,2023-08-14,2023-08-14,株式会社ＨＫ防水,,株式会社,埼玉県,幸手市,大字下川崎３８５３番地２３,,11,240,3400162,,,,,,,2023-08-14,1,,,,,エイチケーボウスイ,0
2723,9030001155278,新規,0,2023-08-14,2023-08-14,株式会社森エイトホールディングス,,株式会社,埼玉県,越谷市,南越谷１丁目２２番地１,,11,222,3430845,,,,,,,2023-08-14,1,,,,,モリエイトホールディングス,0
2724,9030001155286,新規,0,2023-08-14,2023-08-14,義創冷熱株式会社,,株式会社,埼玉県,上尾市,緑丘２丁目３番７号ビューパレーアマノ２０１,,11,219,3620015,,,,,,,2023-08-14,1,,,,,ギソウレイネツ,0
2725,9030001155311,新規,0,2023-08-14,2023-08-14,株式会社エル,,株式会社,埼玉県,東松山市,大字石橋１６２４番地４,,11,212,3550072,,,,,,,2023-08-14,1,,,,,エル,0
2728,9030003022229,新規,0,2023-08-14,2023-08-14,合同会社ＢＲＩＯ,,合同会社,埼玉県,蕨市,錦町１丁目１１番８号,,11,223,3350005,,,,,,,2023-08-14,1,,,,,ブリオ,0
2729,9030003022261,新規,0,2023-08-14,2023-08-14,ＬａＬａ合同会社,,合同会社,埼玉県,川口市,並木３丁目１５番５号サニービル２Ｆ,,11,203,3320034,,,,,,,2023-08-14,1,,,,,ララ,0
2730,9030003022393,新規,0,2023-08-14,2023-08-14,ＩＭＡＫ合同会社,,合同会社,埼玉県,さいたま市西区,大字指扇３３４５‐２８,,11,101,3310047,,,,,,,2023-08-14,1,,,,,アイエムエイケイ,0
2736,9040001129636,新規,0,2023-08-14,2023-08-14,ＲＳＫ　Ａｓｓｅｔ　Ｇｒｏｕｐ株式会社,,株式会社,千葉県,野田市,吉春１２３７番地,,12,208,2780042,,,,,,,2023-08-14,1,,,,,アールエスケーアセットグループ,0
2737,9040001129660,新規,0,2023-08-14,2023-08-14,株式会社長谷川会計,,株式会社,千葉県,白井市,堀込１丁目５番６棟２０３号,,12,232,2701424,,,,,,,2023-08-14,1,,,,,ハセガワカイケイ,0
2742,9050001053273,新規,0,2023-08-14,2023-08-14,株式会社ＰＲＯＵＤ,,株式会社,茨城県,高萩市,大字島名２３３４番地の６,,08,214,3180023,,,,,,,2023-08-14,1,,,,,プラウド,0
2743,9050001053298,新規,0,2023-08-14,2023-08-14,アイエムテクノス株式会社,,株式会社,茨城県,つくば市,明神３８５番地８,,08,220,3001257,,,,,,,2023-08-14,1,,,,,アイエムテクノス,0
2744,9050001053307,新規,0,2023-08-14,2023-08-14,善ホールディングス株式会社,,株式会社,茨城県,日立市,諏訪町１丁目９番１２号,,08,202,3160001,,,,,,,2023-08-14,1,,,,,ゼンホールディングス,0
2746,9050003007715,新規,0,2023-08-14,2023-08-14,合同会社ｄ．ａ．ｔ,,合同会社,茨城県,神栖市,神栖２丁目３番１５号,,08,232,3140143,,,,,,,2023-08-14,1,,,,,ディーエイティー,0
2747,9050003007723,新規,0,2023-08-14,2023-08-14,ＳＥＮＯＫＩ　ＥＮＧＩＮＥＥＲＩＮＧＳ合同会社,,合同会社,茨城県,坂東市,岩井１１６８番地４,,08,228,3060631,,,,,,,2023-08-14,1,,,,,セノキエンジニアリングス,0
2755,9070001040724,新規,0,2023-08-14,2023-08-14,株式会社ＭＴＯ,,株式会社,群馬県,邑楽郡大泉町,中央２丁目９番８号,,10,524,3700516,,,,,,,2023-08-14,1,,,,,エムティオー,0
2756,9080101024163,新規,0,2023-08-14,2023-08-14,株式会社ＧＯＯＤ　ＳＭＩＬＥ,,株式会社,静岡県,御殿場市,中畑５６１番地の１０,,22,215,4120006,,,,,,,2023-08-14,1,,,,,グッドスマイル,0
2757,9080101024171,新規,0,2023-08-14,2023-08-14,株式会社丸紀,,株式会社,静岡県,御殿場市,中畑１７２１番地の１,,22,215,4120006,,,,,,,2023-08-14,1,,,,,マルキ,0
2760,9100001036677,新規,0,2023-08-14,2023-08-14,株式会社ＹＮアセットマネジメント,,株式会社,長野県,佐久市,野沢３９２番地５,,20,217,3850053,,,,,,,2023-08-14,1,,,,,ワイエヌアセットマネジメント,0
2762,9110001037749,新規,0,2023-08-14,2023-08-14,株式会社精農園,,株式会社,新潟県,新潟市江南区,二本木２丁目４番１号,,15,104,9500207,,,,,,,2023-08-14,1,,,,,セイノウエン,0
2763,9110001037781,新規,0,2023-08-14,2023-08-14,Ｌｏａｄｓｔａｒ株式会社,,株式会社,新潟県,新潟市中央区,八千代１丁目３－２６,,15,103,9500909,,,,,,,2023-08-14,1,,,,,ロードスター,0
2774,9120001257222,新規,0,2023-08-14,2023-08-14,秋和株式会社,,株式会社,大阪府,大阪市中央区,船越町２丁目３番８号天満橋ガーデンハイツ６０８号室,,27,128,5400036,,,,,,,2023-08-14,1,,,,,アキワ,0
2775,9120001257247,新規,0,2023-08-14,2023-08-14,株式会社アレスパートナーズ,,株式会社,大阪府,大阪市旭区,大宮４丁目１５番３０号,,27,117,5350002,,,,,,,2023-08-14,1,,,,,アレスパートナーズ,0
2776,9120003024694,新規,0,2023-08-14,2023-08-14,カラフル合同会社,,合同会社,大阪府,大阪市大正区,千島１丁目３０番１６号,,27,108,5510003,,,,,,,2023-08-14,1,,,,,カラフル,0
2779,9120101068073,新規,0,2023-08-14,2023-08-14,Ａ．Ｇ　ＣＨＲＯＮＯ株式会社,,株式会社,大阪府,堺市西区,上野芝町５丁４番３４－１号,,27,144,5938301,,,,,,,2023-08-14,1,,,,,エージークロノ,0
2781,9120105009750,新規,0,2023-08-14,2023-08-14,一般社団法人歯科デジタルリモート支援協会,,その他の設立登記法人,大阪府,堺市堺区,大町西３丁３番１５号,,27,141,5900959,,,,,,,2023-08-14,1,,,,,シカデジタルリモートシエンキョウカイ,0
2783,9120903004779,新規,0,2023-08-14,2023-08-14,合同会社トランスオーダー,,合同会社,大阪府,高槻市,唐崎中１丁目７番１２号リーベグラス１０２号,,27,207,5690832,,,,,,,2023-08-14,1,,,,,トランスオーダー,0
2788,9130001074930,新規,0,2023-08-14,2023-08-14,株式会社井口工芸,,株式会社,京都府,京都市左京区,上高野畑ケ田町１６番地,,26,103,6060082,,,,,,,2023-08-14,1,,,,,イグチコウゲイ,0
2789,9130001074947,新規,0,2023-08-14,2023-08-14,株式会社ワイケイエフ,,株式会社,京都府,宇治市,木幡平尾６８番地の７,,26,204,6110002,,,,,,,2023-08-14,1,,,,,ワイケイエフ,0
2796,9140001131160,新規,0,2023-08-14,2023-08-14,宝ストライブトゥギャザー株式会社,,株式会社,兵庫県,神戸市中央区,磯上通６丁目１番１号磯上公園ビル２階,,28,110,6510086,,,,,,,2023-08-14,1,,,,,タカラストライブトゥギャザー,0
2797,9140001131202,新規,0,2023-08-14,2023-08-14,株式会社ミヤナガホールディングス,,株式会社,兵庫県,三木市,福井２３９３番地,,28,215,6730433,,,,,,,2023-08-14,1,,,,,ミヤナガホールディングス,0
2798,9140001131210,新規,0,2023-08-14,2023-08-14,コッコレケア株式会社,,株式会社,兵庫県,加古川市,新神野６丁目８番１９号,,28,210,6750008,,,,,,,2023-08-14,1,,,,,,0
2799,9140001131219,新規,0,2023-08-14,2023-08-14,株式会社ソエシア,,株式会社,兵庫県,神戸市北区,東有野台１丁目２４－５,,28,109,6511322,,,,,,,2023-08-14,1,,,,,ソエシア,0
2800,9140001131227,新規,0,2023-08-14,2023-08-14,株式会社ＳＯＮＩＣＬＯＲＥ,,株式会社,兵庫県,芦屋市,呉川町６番２０号,,28,206,6590051,,,,,,,2023-08-14,1,,,,,ソニックロア,0
2803,9140003019395,新規,0,2023-08-14,2023-08-14,合同会社アドバンスド・メディ・サポート,,合同会社,兵庫県,西宮市,苦楽園五番町８番１号,,28,204,6620087,,,,,,,2023-08-14,1,,,,,アドバンスドメディサポート,0
2806,9170001017737,新規,0,2023-08-14,2023-08-14,株式会社山虎農園,,株式会社,和歌山県,海南市,下津町百垣内４４５番地,,30,202,6490156,,,,,,,2023-08-14,1,,,,,ヤマトラノウエン,0
2815,9180001157615,新規,0,2023-08-14,2023-08-14,株式会社１１８７,,株式会社,愛知県,小牧市,城山５丁目８０番地３,,23,219,4850812,,,,,,,2023-08-14,1,,,,,イチイチハチナナ,0
2817,9180005020323,新規,0,2023-08-14,2023-08-14,グリーンベル小幡緑地管理組合法人,,その他の設立登記法人,愛知県,名古屋市守山区,竜泉寺１丁目１１０８番地,,23,113,4630801,,,,,,,2023-08-14,1,,,,,グリーンベルオバタリョクチ,0
2819,9180301037673,新規,0,2023-08-14,2023-08-14,株式会社ｆｒｏｍ　ＢＬＵＥ．,,株式会社,愛知県,豊橋市,神明町４８番地１（１４０４）,,23,201,4400882,,,,,,,2023-08-14,1,,,,,フロムブルー,0
2820,9180301037681,新規,0,2023-08-14,2023-08-14,株式会社キューブグローバル,,株式会社,愛知県,岡崎市,井田町字南２９番地２,,23,202,4440076,,,,,,,2023-08-14,1,,,,,キューブグローバル,0
2821,9180303005802,新規,0,2023-08-14,2023-08-14,合同会社マツイサウンドワークス,,合同会社,愛知県,安城市,里町南井畑１番地９４,,23,212,4460001,,,,,,,2023-08-14,1,,,,,マツイサウンドワークス,0
2830,9220005008776,新規,0,2023-08-14,2023-08-14,一般社団法人たかまるひろば,,その他の設立登記法人,石川県,加賀市,一白町２丁目１１９番地,,17,206,9220403,,,,,,,2023-08-14,1,,,,,タカマルヒロバ,0
2840,9240005015630,新規,0,2023-08-14,2023-08-14,一般社団法人サニーサイドアップ,,その他の設立登記法人,広島県,広島市安佐南区,祇園５丁目１番８－８号,,34,105,7310138,,,,,,,2023-08-14,1,,,,,サニーサイドアップ,0
2846,9250005008848,新規,0,2023-08-14,2023-08-14,特定非営利活動法人ａａｉｉｎｅ,,その他の設立登記法人,山口県,萩市,大字東浜崎町１３７,,35,204,7580024,,,,,,,2023-08-14,1,,,,,アアイイネ,0
2850,9260003004393,新規,0,2023-08-14,2023-08-14,合同会社ＰＵＬＳ・Ｍ,,合同会社,岡山県,岡山市北区,野田屋町２丁目５番３号,,33,101,7000815,,,,,,,2023-08-14,1,,,,,プラスエム,0
2851,9260005011264,新規,0,2023-08-14,2023-08-14,岡山県空き家対策協同組合,,その他の設立登記法人,岡山県,瀬戸内市,邑久町山田庄２００番地１,,33,212,7014246,,,,,,,2023-08-14,1,,,,,オカヤマケンアキヤタイサク,0
2852,9270001008825,新規,0,2023-08-14,2023-08-14,株式会社ＴＵＲＴＬＥＳ,,株式会社,鳥取県,西伯郡伯耆町,大原１０１７番地７１,,31,390,6894102,,,,,,,2023-08-14,1,,,,,タートルズ,0
2853,9290001102527,新規,0,2023-08-14,2023-08-14,株式会社ｓｅｎ,,株式会社,福岡県,福岡市中央区,大名１丁目１２番５７号４Ｆ,,40,133,8100041,,,,,,,2023-08-14,1,,,,,セン,0
2854,9290001102551,新規,0,2023-08-14,2023-08-14,株式会社秀栄工業,,株式会社,福岡県,朝倉市,屋永６８３番地,,40,228,8380031,,,,,,,2023-08-14,1,,,,,シュウエイコウギョウ,0
2855,9290001102626,新規,0,2023-08-14,2023-08-14,株式会社Ｏｎｅ　ｃｏｎｎｅｃｔ,,株式会社,福岡県,福岡市博多区,三筑２丁目１番３２－４０６号アム・シューレ,,40,132,8120887,,,,,,,2023-08-14,1,,,,,ワンコネクト,0
2856,9290001102650,新規,0,2023-08-14,2023-08-14,株式会社エイトエステート,,株式会社,福岡県,福岡市博多区,博多駅前２丁目１２番３号,,40,132,8120011,,,,,,,2023-08-14,1,,,,,エイトエステート,0
2857,9290001102659,新規,0,2023-08-14,2023-08-14,株式会社エルスリー,,株式会社,福岡県,福岡市早良区,百道浜４丁目３１－１０－９０６,,40,137,8140001,,,,,,,2023-08-14,1,,,,,エルスリー,0
2858,9290001102675,新規,0,2023-08-14,2023-08-14,株式会社Ｄａｒｕｍａｄ,,株式会社,福岡県,飯塚市,口原７６６,,40,205,8201114,,,,,,,2023-08-14,1,,,,,ダルマッド,0
2860,9290003014167,新規,0,2023-08-14,2023-08-14,合同会社チームエム,,合同会社,福岡県,福岡市南区,柏原６丁目６１－１５,,40,134,8111353,,,,,,,2023-08-14,1,,,,,チームエム,0
2862,9290801029795,新規,0,2023-08-14,2023-08-14,株式会社グラントハウス,,株式会社,福岡県,北九州市小倉南区,若園２丁目１３番２４－２０１号,,40,107,8020816,,,,,,,2023-08-14,1,,,,,グラントハウス,0
2866,9320001019949,新規,0,2023-08-14,2023-08-14,株式会社千代森建装,,株式会社,大分県,大分市,日岡２丁目４番２３号,,44,201,8700914,,,,,,,2023-08-14,1,,,,,チヨモリケンソウ,0
2871,9330003009930,新規,0,2023-08-14,2023-08-14,合同会社アシュライト,,合同会社,熊本県,合志市,野々島字沖野５６２０番地５,,43,216,8611103,,,,,,,2023-08-14,1,,,,,アシュライト,0
2872,9330003009939,新規,0,2023-08-14,2023-08-14,合同会社そらいろ,,合同会社,熊本県,熊本市中央区,京町本丁６番５２－６１１号プレミスト京町本丁,,43,101,8600081,,,,,,,2023-08-14,1,,,,,ソライロ,0
2876,9350001018493,新規,0,2023-08-14,2023-08-14,株式会社Ａｉｍ　Ｌａｂ,,株式会社,宮崎県,宮崎市,大字小松１０４３番地６,,45,201,8802112,,,,,,,2023-08-14,1,,,,,エイムラボ,0
2877,9350001018502,新規,0,2023-08-14,2023-08-14,株式会社Ｅ‐ＴＥＲ,,株式会社,宮崎県,宮崎市,大字郡司分丙９８２７番地３Ｇ．ＡＰ１棟１０２号,,45,201,8800924,,,,,,,2023-08-14,1,,,,,イーター,0
2884,9360003013186,新規,0,2023-08-14,2023-08-14,合同会社Ｙｏｕ＆Ｍｅ,,合同会社,沖縄県,中頭郡嘉手納町,字屋良８２０番地４,,47,325,9040202,,,,,,,2023-08-14,1,,,,,ユーアンドミー,0
2887,9370005010668,新規,0,2023-08-14,2023-08-14,一般社団法人ツール・ド・東北,,その他の設立登記法人,宮城県,仙台市青葉区,五橋１丁目２番２８号,,04,101,9800022,,,,,,,2023-08-14,1,,,,,ツールドトウホク,0
2892,9380005012738,新規,0,2023-08-14,2023-08-14,一般社団法人共創のまちづくり機構,,その他の設立登記法人,福島県,郡山市,神明町５番３７号Ｄ’クラディア神明１０３号,,07,203,9638013,,,,,,,2023-08-14,1,,,,,キョウソウノマチヅクリ,0
2893,9390001017351,新規,0,2023-08-14,2023-08-14,株式会社リング,,株式会社,山形県,東根市,大字関山１５番地１,,06,211,9993724,,,,,,,2023-08-14,1,,,,,リング,0
2900,9410001013570,新規,0,2023-08-14,2023-08-14,株式会社ちば石材工業,,株式会社,秋田県,湯沢市,関口字上寺沢４１－２,,05,207,0120862,,,,,,,2023-08-14,1,,,,,チバセキザイコウギョウ,0
2902,9420003002769,新規,0,2023-08-14,2023-08-14,合同会社ＰＬＡＴＩＮＡ,,合同会社,青森県,上北郡六戸町,大字犬落瀬字坪毛沢８２番地３,,02,405,0330071,,,,,,,2023-08-14,1,,,,,プラチナ,0
2904,9430001089568,新規,0,2023-08-14,2023-08-14,ＫＡＭＥＲＡＤ株式会社,,株式会社,北海道,札幌市中央区,南五条西１０丁目１０１３番地９ピュア東彩館ＶＩ１０５号,00131498,01,101,0640805,,,,,,,2023-08-14,1,,,,,カメラート,0
2905,9430001089717,新規,0,2023-08-14,2023-08-14,Ｙｓ株式会社,,株式会社,北海道,千歳市,幸福２丁目３番１４号,,01,224,0660082,,,,,,,2023-08-14,1,,,,,ワイズ,0
2906,9430001089733,新規,0,2023-08-14,2023-08-14,株式会社エステック,,株式会社,北海道,札幌市厚別区,厚別北三条５丁目１番２－７１０号,,01,108,0040073,,,,,,,2023-08-14,1,,,,,エステック,0
2907,9430001089741,新規,0,2023-08-14,2023-08-14,株式会社ｂｉｔ　ｇａｒｄｅｎ,,株式会社,北海道,札幌市中央区,南七条西２５丁目７－３－４０３,,01,101,0640807,,,,,,,2023-08-14,1,,,,,ビットガーデン,0
2916,9700150115592,新規,0,2023-08-14,2023-08-14,温州富衛徳商貿有限公司,,外国会社等,,,,,,,,中国浙江省温州市楽清市柳市鎮金絲河行政村,,,,,,2023-08-14,1,,,,,オンシュウフエイトクショウボウユウゲンコウシ,0
2917,9700150117069,新規,0,2023-08-14,2023-08-14,亦大（香港）集団有限公司,,外国会社等,,,,,,,,中国香港九龍観塘鯉魚門道二路新城工商中心５１７室,,,,,,2023-08-14,1,,,,,エキダイホンコンシュウダンユウゲンコウシ,0
2918,9700150118546,新規,0,2023-08-14,2023-08-14,南京網誠科技有限公司,,外国会社等,,,,,,,,中国南京市江寧区麒麟科技創新園天驕路１００号江蘇南京僑夢苑Ａ棟１２楼２０１室,,,,,,2023-08-14,1,,,,,ナンキンモウセイカギユウゲンコウシ,0
2919,9700150118983,新規,0,2023-08-14,2023-08-14,ｓｈｅｎｚｈｅｎ　ｗｅｉｔａｌｉ　ｋｅｊｉ　ｙｏｕｘｉａｎｇｏｎｇｓｉ,,外国会社等,,,,,,,,ｄｉｅｒｇｏｎｇｙｅｑｕ　５６ｈａｏ，ｃｈａｎｇａｎ　ｄａｓｈａ　１１０１　ｓｈａｊｉｎｇｊｉｅｄａｏ，ｈｏｕｔｉｎｇｓｈｅｑｕ　ｓｈｅｎｚｈｅｎ　ｇｕａｎｇｄｏｎｇ,,,,,,2023-08-14,1,,,,,シェンジェンウェイターリーコージーヨウシエンゴンスー,0
