sequenceNumber,corporateNumber,process,correct,updateDate,changeDate,name,nameImageId,kind,prefectureName,cityName,streetNumber,addressImageId,prefectureCode,cityCode,postCode,addressOutside,addressOutsideImageId,closeDate,closeCause,successorCorporateNumber,changeCause,assignmentDate,latest,enName,enPrefectureName,enCityName,enAddressOutside,furigana,hihyoji
7,1010001202048,登記記録の閉鎖等,0,2024-02-07,2024-02-01,株式会社ＧｉＲＡＦＦＥ＆Ｃｏ．ＧＭＴ,,株式会社,東京都,千代田区,神田須田町１丁目１７番地,,13,101,1010041,,,2024-02-01,清算の結了等,,,2019-07-02,1,,,,,ジラフアンドコージーエムティー,0
19,1010101014327,登記記録の閉鎖等,0,2024-02-07,2024-02-02,Ｂ－ＲＩＳＥ株式会社,,株式会社,東京都,八王子市,下柚木１５２４－１レオパレスノア１０１号室,,13,201,1920372,,,2024-02-02,清算の結了等,,,2020-09-03,1,,,,,ベータライズ,0
46,1010601036325,登記記録の閉鎖等,0,2024-02-07,2024-02-02,株式会社たまいちコーポレーション,,株式会社,東京都,江東区,亀戸６丁目５７番２２－３０１号,,13,108,1360071,,,2024-02-02,清算の結了等,,,2015-10-05,1,,,,,,0
52,1010701034526,登記記録の閉鎖等,0,2024-02-07,2024-02-05,アルファ・プラス株式会社,,株式会社,東京都,品川区,東大井１丁目９番２７－５０３号,,13,109,1400011,,,2024-02-05,清算の結了等,,,2017-08-01,1,,,,,アルファプラス,0
56,1010901049407,登記記録の閉鎖等,0,2024-02-07,2024-01-23,ステップパートナーズ株式会社,,株式会社,東京都,世田谷区,代田５丁目１３－８代田フラット１０１,,13,112,1550033,,,2024-01-23,清算の結了等,,,2021-09-08,1,,,,,ステップパートナーズ,0
84,1011301024058,登記記録の閉鎖等,0,2024-02-07,2024-01-31,株式会社Ｍｉｒａｉｅシステムズ,,株式会社,千葉県,市川市,中山１丁目２５番２号岡田貸店舗２階,,12,203,2720813,,,2024-01-31,清算の結了等,,,2018-04-16,1,,,,,ミライエシステムズ,0
91,1011502002416,登記記録の閉鎖等,0,2024-02-07,2024-01-31,有限会社三恵商店,,有限会社,東京都,北区,十条仲原１丁目１番２号,,13,117,1140031,,,2024-01-31,清算の結了等,,,2015-10-05,1,,,,,ミヨシショウテン,0
98,1011801022296,登記記録の閉鎖等,0,2024-02-07,2024-02-05,ＴＭベストハウス株式会社,,株式会社,東京都,葛飾区,鎌倉４丁目３６番３号,,13,122,1250053,,,2024-02-05,清算の結了等,,,2015-10-05,1,,,,,ティエムベストハウス,0
101,1012401004668,登記記録の閉鎖等,0,2024-02-07,2024-02-01,株式会社イー・ダイナックス,,株式会社,東京都,府中市,府中町１丁目１２番地の７,,13,206,1830055,,,2024-02-01,清算の結了等,,,2015-10-05,1,,,,,イーダイナックス,0
120,1020001120281,登記記録の閉鎖等,0,2024-02-07,2024-02-02,株式会社ＩＰ　ｆｉｖｅ,,株式会社,東京都,足立区,舎人５丁目２８番３２号,,13,121,1210831,,,2024-02-02,清算の結了等,,,2017-03-08,1,,,,,アイピーファイブ,0
130,1030001131831,登記記録の閉鎖等,0,2024-02-07,2024-02-01,Ｋ・ＩＮＮＯＶＡＴＩＯＮ株式会社,,株式会社,埼玉県,和光市,白子１丁目２６番２号,,11,229,3510101,,,2024-02-01,清算の結了等,,,2019-07-08,1,,,,,ケイイノベーション,0
134,1030002088253,登記記録の閉鎖等,0,2024-02-07,2024-02-01,有限会社明和建設,,有限会社,埼玉県,越谷市,千間台西５丁目２０番地１８,,11,222,3430041,,,2024-02-01,清算の結了等,,,2015-10-05,1,,,,,メイワケンセツ,0
145,1040001056251,登記記録の閉鎖等,0,2024-02-07,2024-01-31,株式会社猪野建装,,株式会社,千葉県,市原市,潤井戸２９９番地１,,12,219,2900171,,,2024-01-31,清算の結了等,,,2015-10-05,1,,,,,イノケンソウ,0
153,1040003007896,登記記録の閉鎖等,0,2024-02-07,2024-02-01,合同会社ササキヤ,,合同会社,千葉県,野田市,瀬戸９４９番地の５,,12,208,2780012,,,2024-02-01,清算の結了等,,,2015-11-19,1,,,,,ササキヤ,0
162,1080102013478,登記記録の閉鎖等,0,2024-02-07,2024-02-05,有限会社エスパワー,,有限会社,静岡県,富士市,今泉７５２番地の２,,22,210,4170001,,,2024-02-05,清算の結了等,,,2015-10-05,1,,,,,エスパワー,0
195,1130001072207,登記記録の閉鎖等,0,2024-02-07,2024-02-05,株式会社おくとー,,株式会社,京都府,城陽市,寺田高田２０番地の３６,,26,207,6100121,,,2024-02-05,清算の結了等,,,2022-07-25,1,,,,,オクトー,0
206,1140001115336,登記記録の閉鎖等,0,2024-02-07,2024-02-02,ライフ・サポーターズ株式会社,,株式会社,兵庫県,尼崎市,稲葉荘２丁目２番２０号,,28,202,6600064,,,2024-02-02,清算の結了等,,,2019-10-30,1,,,,,ライフサポーターズ,0
230,1180301001075,登記記録の閉鎖等,0,2024-02-07,2024-02-01,柴田鋳造株式会社,,株式会社,愛知県,岡崎市,渡町字大榎５３番地の１,,23,202,4440933,,,2024-02-01,清算の結了等,,,2015-10-05,1,,,,,シバタチュウゾウ,0
235,1180303005462,登記記録の閉鎖等,0,2024-02-07,2024-02-01,プレジールガーデン合同会社,,合同会社,愛知県,豊橋市,新本町８４番地（１００４）,,23,201,4400892,,,2024-02-01,清算の結了等,,,2022-10-06,1,,,,,プレジールガーデン,0
242,1200002017392,登記記録の閉鎖等,0,2024-02-07,2024-02-02,有限会社ライン測量・調査,,有限会社,岐阜県,可児市,東帷子２４４３番地,,21,214,5090256,,,2024-02-02,清算の結了等,,,2015-10-05,1,,,,,ラインソクリョウチョウサ,0
264,1290002047431,登記記録の閉鎖等,0,2024-02-07,2024-02-01,西日本グリーン有限会社,,有限会社,熊本県,熊本市北区,植木町味取３４番地５,,43,105,8610105,,,2024-02-01,合併による解散等,1330001013792,令和６年２月１日熊本県八代市郡築十一番町１２６番地１八代園芸加工株式会社（1330001013792）に合併し解散,2015-10-05,1,,,,,ニシニホングリーン,0
266,1290801029068,登記記録の閉鎖等,0,2024-02-07,2024-02-01,株式会社ｇｌａｄ,,株式会社,福岡県,北九州市八幡西区,浅川日の峯４丁目１４番１０号,,40,109,8070876,,,2024-02-01,清算の結了等,,,2022-11-24,1,,,,,グラッド,0
281,1320001010213,登記記録の閉鎖等,0,2024-02-07,2024-02-02,株式会社鶴見物流,,株式会社,大分県,日田市,大字石井７９３番地７,,44,204,8770061,,,2024-02-02,合併による解散等,7320001006701,令和６年２月１日大分県別府市大字鶴見６７番地の２株式会社鶴見（7320001006701）に合併し解散,2015-10-05,1,,,,,ツルミブツリュウ,0
296,1390001006072,登記記録の閉鎖等,0,2024-02-07,2024-02-05,株式会社池田,,株式会社,山形県,酒田市,一番町１３番２号,,06,204,9980046,,,2024-02-05,清算の結了等,,,2015-10-05,1,,,,,イケダ,0
300,1410003000905,登記記録の閉鎖等,0,2024-02-07,2024-01-31,臨港商事合資会社,,合資会社,秋田県,男鹿市,船川港船川字芦沢２０５番地,00086971,05,206,0100511,,,2024-01-31,清算の結了等,,,2015-10-05,1,,,,,リンコウショウジ,0
321,2010001146145,登記記録の閉鎖等,0,2024-02-07,2024-02-01,株式会社ステム,,株式会社,東京都,千代田区,麹町１丁目７番地,,13,101,1020083,,,2024-02-01,合併による解散等,7010001149969,令和６年２月１日東京都中央区銀座一丁目２２番１－２３０４号株式会社ＳＢＣ（7010001149969）に合併し解散,2015-10-05,1,,,,,ステム,0
322,2010001196446,登記記録の閉鎖等,0,2024-02-07,2024-02-02,株式会社プランタン,,株式会社,東京都,豊島区,東池袋３丁目１５番２号,,13,116,1700013,,,2024-02-02,清算の結了等,,,2018-11-20,1,,,,,プランタン,0
339,2010003033119,登記記録の閉鎖等,0,2024-02-07,2024-02-01,アジュールスカイ・ホールディングス合同会社,,合同会社,東京都,中央区,日本橋３丁目９番１号日本橋三丁目スクエア１１階,,13,102,1030027,,,2024-02-01,清算の結了等,,,2020-09-29,1,,,,,アジュールスカイホールディングス,0
343,2010005012855,登記記録の閉鎖等,0,2024-02-07,2024-02-06,ささしまライブ２４一般社団法人,,その他の設立登記法人,東京都,千代田区,丸の内３丁目１番１号東京共同会計事務所内,,13,101,1000005,,,2024-02-06,清算の結了等,,,2015-10-05,1,,,,,ササシマライブニジュウヨン,0
344,2010005014851,登記記録の閉鎖等,0,2024-02-07,2024-02-01,一般社団法人ジェイ・エス・エル,,その他の設立登記法人,東京都,千代田区,有楽町１丁目７番１号,,13,101,1000006,,,2024-02-01,清算の結了等,,,2015-10-05,1,,,,,ジェイエスエル,0
355,2010601035994,登記記録の閉鎖等,0,2024-02-07,2024-02-02,株式会社ピース・トライブ,,株式会社,東京都,墨田区,向島２丁目７番１１号,,13,107,1310033,,,2024-02-02,清算の結了等,,,2015-10-05,1,,,,,ピーストライブ,0
415,2020003007427,登記記録の閉鎖等,0,2024-02-07,2024-02-02,合同会社ユースフルウエア,,合同会社,神奈川県,横浜市金沢区,町屋町３２番４７号,,14,108,2360022,,,2024-02-02,清算の結了等,,,2015-10-05,1,,,,,ユースフルウエア,0
437,2040001001248,登記記録の閉鎖等,0,2024-02-07,2024-02-01,小河原工業株式会社,,株式会社,千葉県,千葉市中央区,浜野町１１８１番地,,12,101,2600824,,,2024-02-01,清算の結了等,,,2015-10-05,1,,,,,オガワラコウギョウ,0
444,2040002040039,登記記録の閉鎖等,0,2024-02-07,2024-01-31,有限会社昴クリエイション,,有限会社,千葉県,市川市,市川１丁目１９番２０号,,12,203,2720034,,,2024-01-31,清算の結了等,,,2015-10-05,1,,,,,スバルクリエイション,0
455,2070001012028,登記記録の閉鎖等,0,2024-02-07,2024-02-01,株式会社庚申社,,株式会社,群馬県,甘楽郡下仁田町,大字下仁田３３４番地,,10,382,3702601,,,2024-02-01,合併による解散等,6070001012016,令和６年２月１日群馬県甘楽郡下仁田町大字下仁田２８番地株式会社荻野商店（6070001012016）に合併し解散,2015-10-05,1,,,,,コウシンシャ,0
467,2090005007105,登記記録の閉鎖等,0,2024-02-07,2024-02-07,特定非営利活動法人グローバル・チャレンジ・プロジェクト,,その他の設立登記法人,山梨県,甲府市,飯田１丁目３番２２号,,19,201,4000035,,,2024-02-07,清算の結了等,,,2017-07-27,1,,,,,グローバルチャレンジプロジェクト,0
474,2100002036559,登記記録の閉鎖等,0,2024-02-07,2024-02-02,有限会社城甫志,,有限会社,長野県,飯田市,龍江４４７６番地,,20,205,3992221,,,2024-02-02,清算の結了等,,,2015-10-05,1,,,,,ジョウボシ,0
483,2120001146365,登記記録の閉鎖等,0,2024-02-07,2024-02-05,株式会社イング,,株式会社,大阪府,大阪市浪速区,湊町１丁目４番３６号,,27,111,5560017,,,2024-02-05,清算の結了等,,,2015-10-05,1,,,,,イング,0
486,2120001211953,登記記録の閉鎖等,0,2024-02-07,2024-02-01,株式会社感動舎,,株式会社,大阪府,大阪市天王寺区,逢阪２丁目２番４号,00112786,27,109,5430062,,,2024-02-01,合併による解散等,5120101048459,令和６年２月１日大阪市天王寺区逢阪二丁目１番１０号株式会社山榮興産（5120101048459）に合併し解散,2018-03-13,1,,,,,カンドウシャ,0
498,2120901011032,登記記録の閉鎖等,0,2024-02-07,2024-02-06,株式会社サントモ,,株式会社,大阪府,高槻市,土室町２０番５号,,27,207,5691147,,,2024-02-06,清算の結了等,,,2015-10-05,1,,,,,サントモ,0
504,2130001009232,登記記録の閉鎖等,0,2024-02-07,2024-02-02,桑山鉱泉株式会社,,株式会社,京都府,京都市東山区,古門前通大和大路東入元町３６４番地,,26,105,6050089,,,2024-02-02,清算の結了等,,,2015-10-05,1,,,,,クワヤマコウセン,0
525,2140002069456,登記記録の閉鎖等,0,2024-02-07,2024-02-02,有限会社近藤水産,,有限会社,兵庫県,淡路市,育波５３番地の２,,28,226,6561602,,,2024-02-02,清算の結了等,,,2015-10-05,1,,,,,コンドウスイサン,0
550,2180302011576,登記記録の閉鎖等,0,2024-02-07,2024-02-02,有限会社神谷土木試験所,,有限会社,愛知県,豊橋市,忠興３丁目１番地の２０,,23,201,4400004,,,2024-02-02,清算の結了等,,,2015-10-05,1,,,,,カミヤドボクシケンジョ,0
576,2290801011272,登記記録の閉鎖等,0,2024-02-07,2024-02-01,株式会社光陽,,株式会社,福岡県,北九州市八幡西区,浅川台３丁目２０番１１号,,40,109,8070875,,,2024-02-01,合併による解散等,4290801011287,令和６年２月１日福岡県遠賀郡水巻町吉田東一丁目１番１号高松産業株式会社（4290801011287）に合併し解散,2015-10-05,1,,,,,コウヨウ,0
586,2310002004800,登記記録の閉鎖等,0,2024-02-07,2024-02-06,藤本工業有限会社,,有限会社,長崎県,長崎市,エミネント葉山町２３番２６号,,42,201,8528054,,,2024-02-06,清算の結了等,,,2015-10-05,1,,,,,,0
590,2320002018460,登記記録の閉鎖等,0,2024-02-07,2024-02-01,有限会社和宏建設,,有限会社,大分県,豊後大野市,三重町玉田９６１番地１,,44,212,8797153,,,2024-02-01,清算の結了等,,,2015-10-05,1,,,,,,0
609,2430002006173,登記記録の閉鎖等,0,2024-02-07,2024-02-01,有限会社ＫＹＯＷＡ,,有限会社,北海道,札幌市手稲区,西宮の沢二条１丁目６番３３号,,01,109,0060002,,,2024-02-01,清算の結了等,,,2015-10-05,1,,,,,,0
629,3010001182189,登記記録の閉鎖等,0,2024-02-07,2024-01-31,Ｂａｎｇｏ２２Ｊａｐａｎ株式会社,,株式会社,東京都,港区,芝大門１丁目６番１１号Ｂｉｚ－ａｒｋ芝大門４Ｆ,,13,103,1050012,,,2024-01-31,清算の結了等,,,2017-03-16,1,,,,,バンゴニジュウニジャパン,0
637,3010002044784,登記記録の閉鎖等,0,2024-02-07,2024-01-31,有限会社無量,,有限会社,東京都,千代田区,富士見２丁目１２番１６号,,13,101,1020071,,,2024-01-31,清算の結了等,,,2015-10-05,1,,,,,ムリョウ,0
638,3010002053488,登記記録の閉鎖等,0,2024-02-07,2024-02-02,有限会社エス・エル・ロビン,,有限会社,東京都,中央区,日本橋室町２丁目４番３号,,13,102,1030022,,,2024-02-02,清算の結了等,,,2015-10-05,1,,,,,エスエルロビン,0
639,3010002053521,登記記録の閉鎖等,0,2024-02-07,2024-02-02,有限会社エス・エル・アズール,,有限会社,東京都,中央区,日本橋室町２丁目４番３号,,13,102,1030022,,,2024-02-02,清算の結了等,,,2015-10-05,1,,,,,エスエルアズール,0
652,3010401084324,登記記録の閉鎖等,0,2024-02-07,2024-02-01,雅海運株式会社,,株式会社,東京都,港区,新橋５丁目１２番１１号,,13,103,1050004,,,2024-02-01,清算の結了等,,,2015-10-05,1,,,,,ミヤビカイウン,0
659,3010501025467,登記記録の閉鎖等,0,2024-02-07,2024-02-01,株式会社まく象,,株式会社,埼玉県,八潮市,大瀬１丁目８番地１２,,11,234,3400822,,,2024-02-01,清算の結了等,,,2015-10-05,1,,,,,マクゾウ,0
668,3010702014946,登記記録の閉鎖等,0,2024-02-07,2024-01-04,ａｎａｌｏ有限会社,,有限会社,東京都,世田谷区,奥沢５丁目２８番７号スペースジョイビル,,13,112,1580083,,,2024-01-04,合併による解散等,7010701005067,令和６年１月１日東京都世田谷区奥沢五丁目２８番７号スペ－スジョイビル株式会社スペースジョイ（7010701005067）に合併し解散,2015-10-05,1,,,,,アナロ,0
701,3011802012674,登記記録の閉鎖等,0,2024-02-07,2024-02-05,有限会社こだち,,有限会社,東京都,足立区,中央本町４丁目１１番１８号,,13,121,1210011,,,2024-02-05,清算の結了等,,,2015-10-05,1,,,,,コダチ,0
747,3030005017521,登記記録の閉鎖等,0,2024-02-07,2024-02-05,一般社団法人日本ベンチャースポーツ協会,,その他の設立登記法人,東京都,足立区,千住１丁目３４番１０号－３０１,,13,121,1200034,,,2024-02-05,清算の結了等,,,2015-10-05,1,,,,,ニホンベンチャースポーツキョウカイ,0
776,3090001007660,登記記録の閉鎖等,0,2024-02-07,2024-02-01,株式会社エムズジャパン,,株式会社,山梨県,南アルプス市,上今諏訪３４３番地,,19,208,4000211,,,2024-02-01,合併による解散等,2090002007173,令和６年２月１日山梨県南アルプス市上今諏訪３４３番地エムズ物流株式会社（2090002007173）に合併し解散,2015-10-05,1,,,,,,0
782,3100002009282,登記記録の閉鎖等,0,2024-02-07,2024-02-02,有限会社インテリアやまざき,,有限会社,長野県,千曲市,大字新田６１０番地９,,20,218,3870018,,,2024-02-02,清算の結了等,,,2015-10-05,1,,,,,インテリアヤマザキ,0
784,3110001033638,登記記録の閉鎖等,0,2024-02-07,2024-02-06,株式会社Ｐｈｏｅｎｉｘ　Ｅｌｅｍｅｎｔ,,株式会社,新潟県,新潟市東区,豊３丁目３番１９号,,15,102,9500812,,,2024-02-06,清算の結了等,,,2018-11-06,1,,,,,フェニックスエレメント,0
786,3110005011391,登記記録の閉鎖等,0,2024-02-07,2024-01-24,特定非営利活動法人地域循環ネットワーク,,その他の設立登記法人,新潟県,長岡市,東蔵王２丁目１番１０号,,15,202,9400029,,,2024-01-24,清算の結了等,,,2015-10-05,1,,,,,チイキジュンカンネットワーク,0
788,3120001191550,登記記録の閉鎖等,0,2024-02-07,2024-02-01,株式会社ＤＩＳＨ,,株式会社,大阪府,大阪市浪速区,日本橋４丁目１５番１号日本橋朱雀ビル１Ｆ,,27,111,5560005,,,2024-02-01,清算の結了等,,,2015-10-05,1,,,,,ディッシュ,0
797,3120101045788,登記記録の閉鎖等,0,2024-02-07,2024-02-07,株式会社山口商会,,株式会社,大阪府,岸和田市,土生町１３丁目１番１９号,,27,202,5960825,,,2024-02-07,清算の結了等,,,2015-10-05,1,,,,,ヤマグチショウカイ,0
798,3120102027868,登記記録の閉鎖等,0,2024-02-07,2024-02-05,有限会社オレンジ薬局,,有限会社,大阪府,阪南市,黒田５９０番地,,27,232,5990203,,,2024-02-05,清算の結了等,,,2015-10-05,1,,,,,オレンジヤッキョク,0
827,3150001008611,登記記録の閉鎖等,0,2024-02-07,2024-02-06,株式会社オフィスダンケ,,株式会社,奈良県,生駒市,西旭ケ丘１２番２８－３０１号,,29,209,6300261,,,2024-02-06,清算の結了等,,,2015-10-05,1,,,,,オフィスダンケ,0
828,3150001011986,登記記録の閉鎖等,0,2024-02-07,2024-02-05,植田工業株式会社,,株式会社,奈良県,磯城郡三宅町,大字石見５３３番地１,,29,362,6360212,,,2024-02-05,清算の結了等,,,2015-10-05,1,,,,,ウエダコウギョウ,0
831,3160002010557,登記記録の閉鎖等,0,2024-02-07,2024-02-06,有限会社後藤商店,,有限会社,滋賀県,近江八幡市,池田町３丁目１１番地,,25,204,5230877,,,2024-02-06,清算の結了等,,,2015-10-05,1,,,,,ゴトウショウテン,0
832,3160002010994,登記記録の閉鎖等,0,2024-02-07,2024-02-05,有限会社松村百貨,,有限会社,滋賀県,蒲生郡竜王町,大字岩井５８９番地,,25,384,5202522,,,2024-02-05,清算の結了等,,,2015-10-05,1,,,,,マツムラヒャッカ,0
841,3180001081936,登記記録の閉鎖等,0,2024-02-07,2024-01-29,アイネン株式会社,,株式会社,愛知県,一宮市,浅井町小日比野１７０８番地,,23,203,4910104,,,2024-01-29,清算の結了等,,,2015-10-05,1,,,,,アイネン,0
843,3180001140626,登記記録の閉鎖等,0,2024-02-07,2024-02-05,株式会社ケイ,,株式会社,愛知県,名古屋市名東区,一社２丁目１１２番地,,23,115,4650093,,,2024-02-05,清算の結了等,,,2020-04-06,1,,,,,ケイ,0
848,3180002003146,登記記録の閉鎖等,0,2024-02-07,2024-02-02,有限会社丸市,,有限会社,愛知県,名古屋市中区,丸の内１丁目９番２１号,,23,106,4600002,,,2024-02-02,清算の結了等,,,2015-10-05,1,,,,,マルイチ,0
851,3180003025569,登記記録の閉鎖等,0,2024-02-07,2024-02-02,合同会社くらしプラス,,合同会社,愛知県,名古屋市東区,泉１丁目１８番３０号プラウドタワー名古屋久屋大通公園１６０２号,,23,102,4610001,,,2024-02-02,清算の結了等,,,2023-08-04,1,,,,,クラシプラス,0
862,3180302021896,登記記録の閉鎖等,0,2024-02-07,2024-02-05,有限会社クラウン・デンタル・ラボラトリー,,有限会社,愛知県,豊田市,乙部町南沢７４０番地３,,23,211,4700347,,,2024-02-05,清算の結了等,,,2015-10-05,1,,,,,クラウンデンタルラボラトリー,0
866,3190005008579,登記記録の閉鎖等,0,2024-02-07,2024-01-23,医療法人奥山内科,,その他の設立登記法人,三重県,四日市市,平津新町２６０番地の６３２,,24,202,5128043,,,2024-01-23,清算の結了等,,,2015-10-05,1,,,,,オクヤマナイカ,0
876,3240001061262,登記記録の閉鎖等,0,2024-02-07,2024-02-02,株式会社オカモクリエイト,,株式会社,広島県,広島市中区,宝町７番１７号,,34,101,7300044,,,2024-02-02,清算の結了等,,,2023-03-29,1,,,,,オカモクリエイト,0
880,3240002052293,登記記録の閉鎖等,0,2024-02-07,2024-02-02,有限会社三鷹商会,,有限会社,広島県,尾道市,高須町５０５７番地２,,34,205,7290141,,,2024-02-02,清算の結了等,,,2015-10-05,1,,,,,ミタカショウカイ,0
883,3250002017196,登記記録の閉鎖等,0,2024-02-07,2024-02-02,有限会社ゆう,,有限会社,山口県,光市,木園１丁目１９００番の７,,35,210,7430046,,,2024-02-02,清算の結了等,,,2015-10-05,1,,,,,ユウ,0
885,3260002003591,登記記録の閉鎖等,0,2024-02-07,2024-02-02,有限会社興人,,有限会社,岡山県,岡山市南区,妹尾１７８４番地,,33,104,7010205,,,2024-02-02,清算の結了等,,,2015-10-05,1,,,,,コウジン,0
887,3270002001925,登記記録の閉鎖等,0,2024-02-07,2024-02-06,有限会社山下石材店,,有限会社,鳥取県,鳥取市,湖山町東１丁目５１０番地,,31,201,6800942,,,2024-02-06,清算の結了等,,,2015-10-05,1,,,,,ヤマシタセキザイテン,0
931,3450001012236,登記記録の閉鎖等,0,2024-02-07,2024-02-01,中村ホールディングス株式会社,,株式会社,北海道,雨竜郡沼田町,字沼田３５１番地,,01,438,0782222,,,2024-02-01,合併による解散等,9430001049126,令和６年２月１日北海道雨竜郡沼田町字沼田３５１番地日本緑化中村株式会社（9430001049126）に合併し解散,2017-11-20,1,,,,,ナカムラホールディングス,0
937,3500005006815,登記記録の閉鎖等,0,2024-02-07,2024-02-06,企業組合花真珠,,その他の設立登記法人,愛媛県,宇和島市,伊吹町甲９４６番地２,,38,203,7980022,,,2024-02-06,清算の結了等,,,2015-10-05,1,,,,,ハナシンジュ,0
938,3700150043923,登記記録の閉鎖等,0,2024-02-07,2023-10-31,豊田四郷駅周辺土地区画整理組合,,その他,愛知県,豊田市,四郷町与茂田５１０番地Ｔｏｙｏｓｈｏ　Ｒｅｓｉｄｅｎｃｅ３０３号,,23,211,4700373,,,2023-10-31,その他の清算の結了等,,,2015-10-09,1,,,,,トヨタシゴウエキシユウヘントチクカクセイリクミアイ,0
939,3700150106993,登記記録の閉鎖等,0,2024-02-07,2022-12-31,ＴｉｎＰａｎＦａｃｔｏｒｙ,,その他,埼玉県,新座市,大和田２丁目３番７号ブリエ・デュンヌ２０１号,,11,230,3520004,,,2022-12-31,その他の清算の結了等,,,2022-02-08,1,,,,,テインパンフアクトリー,0
965,4010401130515,登記記録の閉鎖等,0,2024-02-07,2024-01-31,株式会社グランダネ,,株式会社,東京都,中央区,晴海１丁目６番２－２０３号,,13,102,1040053,,,2024-01-31,清算の結了等,,,2017-03-30,1,,,,,グランダネ,0
992,4011003012639,登記記録の閉鎖等,0,2024-02-07,2024-01-24,ＦＥＬＩＣＥ合同会社,,合同会社,東京都,渋谷区,恵比寿４丁目２０－３エビスガーデンプレイス１８階,,13,113,1500013,,,2024-01-24,清算の結了等,,,2021-05-06,1,,,,,フェリーチェ,0
1025,4013205001700,登記記録の閉鎖等,0,2024-02-07,2024-01-31,特定非営利活動法人ＥＳＤ協会,,その他の設立登記法人,東京都,港区,六本木７丁目１４番２３号クロスオフィス六本木４階株式会社ウエストワン内,,13,103,1060032,,,2024-01-31,清算の結了等,,,2015-10-05,1,,,,,イーエスディーキョウカイ,0
1039,4020003011749,登記記録の閉鎖等,0,2024-02-07,2024-02-05,合同会社シーオーコンサルティング,,合同会社,神奈川県,川崎市中原区,木月１丁目３２番３号・内田マンション２階,,14,133,2110025,,,2024-02-05,清算の結了等,,,2016-09-05,1,,,,,シーオーコンサルティング,0
1047,4030001086123,登記記録の閉鎖等,0,2024-02-07,2024-02-01,株式会社丸宝,,株式会社,埼玉県,深谷市,小前田１７５６番地７,,11,218,3691246,,,2024-02-01,清算の結了等,,,2015-10-05,1,,,,,マルホウ,0
1056,4040001073228,登記記録の閉鎖等,0,2024-02-07,2024-02-01,株式会社パワーズコーポレーション,,株式会社,千葉県,市川市,北方１丁目１６番６号,,12,203,2720815,,,2024-02-01,清算の結了等,,,2015-10-05,1,,,,,パワーズコーポレーション,0
1058,4040001074498,登記記録の閉鎖等,0,2024-02-07,2024-01-31,株式会社アクティブ・ライフ,,株式会社,千葉県,館山市,正木７８７番地２３,,12,205,2940051,,,2024-01-31,清算の結了等,,,2015-10-05,1,,,,,アクティブライフ,0
1074,4070001006515,登記記録の閉鎖等,0,2024-02-07,2024-02-02,笠原自動車工業株式会社,,株式会社,群馬県,高崎市,上豊岡町５７５番地の２,,10,202,3700871,,,2024-02-02,清算の結了等,,,2015-10-05,1,,,,,カサハラジドウシャコウギョウ,0
1095,4120002079050,登記記録の閉鎖等,0,2024-02-07,2024-02-05,有限会社三益製作所,,有限会社,大阪府,守口市,藤田町３丁目４番９号,,27,209,5700014,,,2024-02-05,清算の結了等,,,2015-10-05,1,,,,,ミマスセイサクショ,0
1097,4120101032471,登記記録の閉鎖等,0,2024-02-07,2024-02-05,株式会社北辰ホーム,,株式会社,大阪府,羽曳野市,誉田５丁目２番８号,,27,222,5830857,,,2024-02-05,清算の結了等,,,2015-10-05,1,,,,,ホクシンホーム,0
1106,4130001007944,登記記録の閉鎖等,0,2024-02-07,2024-02-06,株式会社大城商店,,株式会社,京都府,京都市西京区,川島有栖川町９２番地,,26,111,6158191,,,2024-02-06,清算の結了等,,,2023-11-22,1,,,,,オオシロショウテン,0
1110,4130003007364,登記記録の閉鎖等,0,2024-02-07,2024-02-02,中野不動産ラーニング合同会社,,合同会社,京都府,京都市伏見区,村上町３７６－７０６,,26,109,6128369,,,2024-02-02,清算の結了等,,,2021-07-29,1,,,,,ナカノフドウサンラーニング,0
1128,4180001114819,登記記録の閉鎖等,0,2024-02-07,2024-02-05,株式会社ＣＭサービス,,株式会社,愛知県,名古屋市瑞穂区,土市町１丁目５８番地,,23,108,4670843,,,2024-02-05,清算の結了等,,,2015-10-05,1,,,,,シーエムサービス,0
1136,4180301000033,登記記録の閉鎖等,0,2024-02-07,2024-02-05,株式会社葵丸中不動産,,株式会社,愛知県,岡崎市,百々西町１２番地２８,,23,202,4442117,,,2024-02-05,清算の結了等,,,2015-10-05,1,,,,,アオイマルナカフドウサン,0
1140,4180302012639,登記記録の閉鎖等,0,2024-02-07,2024-02-02,有限会社アンソウエンジニアリング,,有限会社,愛知県,豊川市,蔵子１丁目６番地の５,,23,207,4420842,,,2024-02-02,清算の結了等,,,2015-10-05,1,,,,,アンソウエンジニアリング,0
1156,4240002028210,登記記録の閉鎖等,0,2024-02-07,2024-02-02,有限会社久松,,有限会社,広島県,東広島市,西条中央６丁目２３番１７号,,34,212,7390025,,,2024-02-02,清算の結了等,,,2015-10-05,1,,,,,ヒサマツ,0
1157,4240002034654,登記記録の閉鎖等,0,2024-02-07,2024-02-02,有限会社榎商店,,有限会社,広島県,呉市,音戸町南隠渡１丁目６番８号,,34,202,7371205,,,2024-02-02,清算の結了等,,,2015-10-05,1,,,,,エノキショウテン,0
1160,4250001017345,登記記録の閉鎖等,0,2024-02-07,2024-02-05,株式会社ＦＰ保険チェック,,株式会社,山口県,岩国市,御庄３丁目１２９番地１４,,35,208,7410083,,,2024-02-05,清算の結了等,,,2018-09-27,1,,,,,エフピーホケンチェック,0
1169,4280002000636,登記記録の閉鎖等,0,2024-02-07,2024-02-05,有限会社木村文雄商店,,有限会社,島根県,松江市,雑賀町６３９番地３,,32,201,6900056,,,2024-02-05,清算の結了等,,,2015-10-05,1,,,,,キムラフミオショウテン,0
1180,4290801021278,登記記録の閉鎖等,0,2024-02-07,2024-02-01,株式会社ナカガミ,,株式会社,福岡県,田川市,大字夏吉１２０２番地４,,40,206,8250004,,,2024-02-01,清算の結了等,,,2015-10-05,1,,,,,ナカガミ,0
1192,4360003006434,登記記録の閉鎖等,0,2024-02-07,2024-02-02,合同会社からだ生き活き運動スタジオ,,合同会社,沖縄県,浦添市,屋富祖２丁目４番１６－４０５号,,47,208,9012127,,,2024-02-02,清算の結了等,,,2015-10-05,1,,,,,カラダイキイキウンドウスタジオ,0
1197,4370001043429,登記記録の閉鎖等,0,2024-02-07,2024-02-05,株式会社グラース,,株式会社,宮城県,仙台市宮城野区,出花１丁目１５番地の４,,04,102,9830012,,,2024-02-05,清算の結了等,,,2018-08-14,1,,,,,グラース,0
1203,4380002027850,登記記録の閉鎖等,0,2024-02-07,2024-02-05,有限会社グリーンピース,,有限会社,福島県,いわき市,内郷高坂町高橋９３番地５,,07,204,9738408,,,2024-02-05,清算の結了等,,,2015-10-05,1,,,,,グリーンピース,0
1204,4390001000312,登記記録の閉鎖等,0,2024-02-07,2024-02-05,大倉産業株式会社,,株式会社,山形県,山形市,大字上桜田字荒屋敷１５１番１,,06,201,9902421,,,2024-02-05,清算の結了等,,,2015-10-05,1,,,,,オオクラサンギョウ,0
1215,4490001001820,登記記録の閉鎖等,0,2024-02-07,2024-02-05,ハートアンドハート株式会社,,株式会社,高知県,高知市,中秦泉寺２６番地,,39,201,7800021,,,2024-02-05,清算の結了等,,,2015-10-05,1,,,,,,0
1221,5010001151786,登記記録の閉鎖等,0,2024-02-07,2024-02-02,株式会社エス・エル・オルドビス,,株式会社,東京都,中央区,日本橋室町２丁目４番３号,,13,102,1030022,,,2024-02-02,清算の結了等,,,2015-10-05,1,,,,,エスエルオルドビス,0
1234,5010005020112,登記記録の閉鎖等,0,2024-02-07,2024-02-05,山佐ＣＳＮ２一般社団法人,,その他の設立登記法人,東京都,千代田区,丸の内３丁目１番１号東京共同会計事務所内,,13,101,1000005,,,2024-02-05,清算の結了等,,,2015-10-05,1,,,,,ヤマサシーエスエヌニ,0
1235,5010005020946,登記記録の閉鎖等,0,2024-02-07,2024-02-05,山佐ＤＬＨ６一般社団法人,,その他の設立登記法人,東京都,千代田区,丸の内３丁目１番１号東京共同会計事務所内,,13,101,1000005,,,2024-02-05,清算の結了等,,,2015-10-05,1,,,,,ヤマサディーエルエイチロク,0
1238,5010401057625,登記記録の閉鎖等,0,2024-02-07,2024-01-31,株式会社ＲＥＸＣＡＲＥ,,株式会社,東京都,港区,芝浦３丁目１２番６号ＣＲＯＳＳ芝浦ビル２階,,13,103,1080023,,,2024-01-31,清算の結了等,,,2015-10-05,1,,,,,レックスケア,0
1249,5010403018253,登記記録の閉鎖等,0,2024-02-07,2024-01-30,品川ロケット合同会社,,合同会社,東京都,港区,元赤坂１丁目１番８号赤坂コミュニティビル４階,,13,103,1070051,,,2024-01-30,清算の結了等,,,2018-03-14,1,,,,,シナガワロケット,0
1258,5010602005325,登記記録の閉鎖等,0,2024-02-07,2024-02-02,有限会社ひかり理容院,,有限会社,東京都,江東区,大島３丁目９番１号,,13,108,1360072,,,2024-02-02,清算の結了等,,,2015-10-05,1,,,,,ヒカリリヨウイン,0
1305,5012401010308,登記記録の閉鎖等,0,2024-02-07,2024-01-31,株式会社人財フロンティア,,株式会社,東京都,府中市,宮町１丁目２１番地の２,,13,206,1830023,,,2024-01-31,清算の結了等,,,2015-10-05,1,,,,,ジンザイフロンティア,0
1311,5020001023175,登記記録の閉鎖等,0,2024-02-07,2024-02-02,株式会社三征,,株式会社,神奈川県,横浜市神奈川区,羽沢町８１５番地,,14,102,2210863,,,2024-02-02,清算の結了等,,,2015-10-05,1,,,,,サンセイ,0
1314,5020001120427,登記記録の閉鎖等,0,2024-02-07,2024-02-02,株式会社コリーヌルージュ,,株式会社,神奈川県,横浜市青葉区,あざみ野２丁目９番地１３,,14,117,2250011,,,2024-02-02,清算の結了等,,,2017-03-17,1,,,,,コリーヌルージュ,0
1334,5030001081874,登記記録の閉鎖等,0,2024-02-07,2024-02-02,株式会社バスク・モーゲージ,,株式会社,東京都,足立区,伊興３丁目１５番１８号,,13,121,1210823,,,2024-02-02,清算の結了等,,,2015-10-05,1,,,,,バスクモーゲージ,0
1341,5030005009665,登記記録の閉鎖等,0,2024-02-07,2024-02-01,北本市土地開発公社,,その他の設立登記法人,埼玉県,北本市,本町１丁目１１１番地北本市役所内,,11,233,3640033,,,2024-02-01,清算の結了等,,,2015-10-05,1,,,,,キタモトシ,0
1343,5040001082244,登記記録の閉鎖等,0,2024-02-07,2024-01-31,株式会社ディ・エィ,,株式会社,千葉県,白井市,大山口２丁目４番６棟３０１号,,12,232,2701434,,,2024-01-31,清算の結了等,,,2015-10-05,1,,,,,ディエィ,0
1344,5040001118948,登記記録の閉鎖等,0,2024-02-07,2024-01-30,株式会社むらさき,,株式会社,千葉県,習志野市,奏の杜１丁目３番２１－３０４号,,12,216,2750028,,,2024-01-30,清算の結了等,,,2021-06-16,1,,,,,ムラサキ,0
1348,5040002027124,登記記録の閉鎖等,0,2024-02-07,2024-01-31,有限会社ひらい,,有限会社,千葉県,船橋市,本町２丁目２６番１２号,,12,204,2730005,,,2024-01-31,清算の結了等,,,2015-10-05,1,,,,,ヒライ,0
1349,5040002099790,登記記録の閉鎖等,0,2024-02-07,2024-01-31,有限会社房総エンタープライズ,,有限会社,千葉県,館山市,正木８４４番地の４,,12,205,2940051,,,2024-01-31,清算の結了等,,,2015-10-05,1,,,,,ボウソウエンタープライズ,0
1359,5070001023575,登記記録の閉鎖等,0,2024-02-07,2024-02-01,株式会社北毛,,株式会社,群馬県,利根郡昭和村,大字糸井４番地１,,10,448,3791203,,,2024-02-01,清算の結了等,,,2015-10-05,1,,,,,ホクモウ,0
1377,5100002031986,登記記録の閉鎖等,0,2024-02-07,2024-02-02,有限会社ヤマカ花岡工業所,,有限会社,長野県,岡谷市,大栄町２丁目１１番１７号,,20,204,3940025,,,2024-02-02,清算の結了等,,,2015-10-05,1,,,,,ヤマカハナオカコウギョウショ,0
1385,5120001020906,登記記録の閉鎖等,0,2024-02-07,2024-02-06,株式会社高野,,株式会社,大阪府,大阪市平野区,加美西２丁目５番２５号,,27,126,5470005,,,2024-02-06,清算の結了等,,,2015-10-05,1,,,,,タカノ,0
1389,5120001078721,登記記録の閉鎖等,0,2024-02-07,2024-02-01,株式会社けいしん平野屋,,株式会社,大阪府,大阪市中央区,船場中央２丁目２番５－２２３船場センタービル５号館２Ｆ,,27,128,5410055,,,2024-02-01,清算の結了等,,,2015-10-05,1,,,,,,0
1417,5122001030637,登記記録の閉鎖等,0,2024-02-07,2024-02-06,株式会社ａ－ｐｏｎｔｅ,,株式会社,大阪府,東大阪市,横枕南１番１号,,27,227,5780955,,,2024-02-06,清算の結了等,,,2017-05-26,1,,,,,アポンテ,0
1432,5140001057707,登記記録の閉鎖等,0,2024-02-07,2024-02-05,飯田石油株式会社,,株式会社,兵庫県,姫路市,白国１丁目６番２０号,,28,201,6700808,,,2024-02-05,清算の結了等,,,2015-10-05,1,,,,,イイダセキユ,0
1440,5140002058233,登記記録の閉鎖等,0,2024-02-07,2024-02-01,有限会社ワイエム商事,,有限会社,兵庫県,西宮市,津門仁辺町２番５号,,28,204,6638246,,,2024-02-01,清算の結了等,,,2015-10-05,1,,,,,ワイエムショウジ,0
1448,5180001111294,登記記録の閉鎖等,0,2024-02-07,2024-01-11,株式会社Ｋコーポレーション,,株式会社,愛知県,名古屋市千種区,城山町１丁目１４番地の４,,23,101,4640045,,,2024-01-11,合併による解散等,1013301028550,令和６年１月１日東京都豊島区東池袋四丁目２１番６号株式会社ＫＪホールディングス（1013301028550）に合併し解散,2015-10-05,1,,,,,ケイコーポレーション,0
1456,5180002086627,登記記録の閉鎖等,0,2024-02-07,2024-02-02,有限会社竹之越工営,,有限会社,愛知県,知多郡阿久比町,大字草木字花吹７番地,,23,441,4702211,,,2024-02-02,清算の結了等,,,2015-10-05,1,,,,,タケノコシコウエイ,0
1462,5190002008786,登記記録の閉鎖等,0,2024-02-07,2024-01-31,有限会社佐々木商事,,有限会社,東京都,港区,東新橋１丁目１０番１－１０１４号,,13,103,1050021,,,2024-01-31,清算の結了等,,,2015-10-05,1,,,,,ササキショウジ,0
1468,5230005005743,登記記録の閉鎖等,0,2024-02-07,2024-02-01,特定非営利活動法人アートセッションとなみ野,,その他の設立登記法人,富山県,南砺市,野田１３３０番地３,,16,210,9391842,,,2024-02-01,清算の結了等,,,2015-10-05,1,,,,,アートセッショントナミノ,0
1484,5280005006704,登記記録の閉鎖等,0,2024-02-07,2024-01-29,特定非営利活動法人山陰ＭＯＲＥ,,その他の設立登記法人,島根県,松江市,北堀町８６番地６,,32,201,6900888,,,2024-01-29,清算の結了等,,,2015-10-05,1,,,,,サンインモア,0
1489,5290801028173,登記記録の閉鎖等,0,2024-02-07,2024-02-05,上り藤株式会社,,株式会社,福岡県,遠賀郡遠賀町,田園３丁目１６－２,,40,384,8114343,,,2024-02-05,清算の結了等,,,2022-01-14,1,,,,,ノボリフジ,0
1500,5310002006174,登記記録の閉鎖等,0,2024-02-07,2024-01-29,有限会社ワイズカンパニー,,有限会社,長崎県,長崎市,伊良林２丁目１６番７号,,42,201,8500802,,,2024-01-29,清算の結了等,,,2015-10-05,1,,,,,,0
1521,5440005002604,登記記録の閉鎖等,0,2024-02-07,2024-02-02,特定非営利活動法人松前地域福祉応援隊,,その他の設立登記法人,北海道,松前郡松前町,字朝日４９５番地２,,01,331,0491517,,,2024-02-02,清算の結了等,,,2017-08-17,1,,,,,マツマエチイキフクシオウエンタイ,0
1546,6010001225820,登記記録の閉鎖等,0,2024-02-07,2024-02-01,エリックスギルダン株式会社,,株式会社,東京都,中央区,日本橋２丁目１番１７号丹生ビル２階Ｔｒａｉｌ東京,,13,102,1030027,,,2024-02-01,清算の結了等,,,2022-04-19,1,,,,,エリックスギルダン,0
1552,6010002049558,登記記録の閉鎖等,0,2024-02-07,2024-01-31,有限会社ジャック,,有限会社,東京都,中央区,日本橋１丁目４番１号日本橋一丁目ビルディング,,13,102,1030027,,,2024-01-31,清算の結了等,,,2015-10-05,1,,,,,ジャック,0
1553,6010002053527,登記記録の閉鎖等,0,2024-02-07,2024-02-02,有限会社エス・エル・ゼファー,,有限会社,東京都,中央区,日本橋室町２丁目４番３号,,13,102,1030022,,,2024-02-02,清算の結了等,,,2015-10-05,1,,,,,エスエルゼファー,0
1554,6010003000569,登記記録の閉鎖等,0,2024-02-07,2024-01-31,合名会社ほんま,,合名会社,東京都,港区,元麻布２丁目７番２１－１０１号,,13,103,1060046,,,2024-01-31,清算の結了等,,,2015-10-05,1,,,,,ホンマ,0
1562,6010102004421,登記記録の閉鎖等,0,2024-02-07,2024-02-01,有限会社田村豆腐店,,有限会社,東京都,八王子市,上柚木２８２番地の６,,13,201,1920373,,,2024-02-01,清算の結了等,,,2015-10-05,1,,,,,タムラトウフテン,0
1601,6010901031797,登記記録の閉鎖等,0,2024-02-07,2024-02-01,株式会社Ｍ　Ｔｒａｉｎ,,株式会社,東京都,世田谷区,奥沢２丁目３７番８号,,13,112,1580083,,,2024-02-01,合併による解散等,9010901029772,令和６年２月１日東京都世田谷区奥沢二丁目３７番８号株式会社Ｍ’ｓ　Ｃｏｒｐｏｒａｔｉｏｎ（9010901029772）に合併し解散,2015-10-05,1,,,,,エムトレイン,0
1605,6010902010420,登記記録の閉鎖等,0,2024-02-07,2024-02-01,有限会社東京・ショップ・プランニング,,有限会社,東京都,府中市,分梅町３丁目２６番地の１９,,13,206,1830033,,,2024-02-01,清算の結了等,,,2015-10-05,1,,,,,トウキョウショッププランニング,0
1625,6011301007776,登記記録の閉鎖等,0,2024-02-07,2024-01-31,株式会社江洋,,株式会社,東京都,杉並区,浜田山１丁目１５番３号,,13,115,1680065,,,2024-01-31,清算の結了等,,,2015-10-05,1,,,,,コウヨウ,0
1634,6011801035384,登記記録の閉鎖等,0,2024-02-07,2024-02-05,株式会社山崎屋,00114880,株式会社,東京都,足立区,六月３丁目１３番１０号,,13,121,1210814,,,2024-02-05,清算の結了等,,,2018-11-07,1,,,,,ヤマザキヤ,0
1646,6020001040442,登記記録の閉鎖等,0,2024-02-07,2024-02-02,日本海洋整備株式会社,,株式会社,神奈川県,横浜市西区,みなとみらい４丁目１０番３,,14,103,2200012,,,2024-02-02,清算の結了等,,,2015-10-05,1,,,,,,0
1657,6020002061396,登記記録の閉鎖等,0,2024-02-07,2024-02-05,山口機工有限会社,,有限会社,神奈川県,横浜市南区,白妙町３丁目３４番地,,14,105,2320023,,,2024-02-05,清算の結了等,,,2015-10-05,1,,,,,ヤマグチキコウ,0
1674,6030002117296,登記記録の閉鎖等,0,2024-02-07,2024-02-01,有限会社武蔵野技研,,有限会社,埼玉県,深谷市,人見９７３番地５,,11,218,3660811,,,2024-02-01,清算の結了等,,,2015-10-05,1,,,,,ムサシノギケン,0
1677,6040001083927,登記記録の閉鎖等,0,2024-02-07,2024-01-31,株式会社イーグル,,株式会社,千葉県,市原市,五井１２８２番地２０ＳＡＩＧＡ１０３,,12,219,2900056,,,2024-01-31,清算の結了等,,,2015-10-05,1,,,,,イーグル,0
1701,6080401006005,登記記録の閉鎖等,0,2024-02-07,2024-01-31,株式会社ベルウッドホールディングス,,株式会社,静岡県,湖西市,駅南２丁目３番１１号,,22,221,4310427,,,2024-01-31,清算の結了等,,,2015-10-05,1,,,,,ベルウッドホールディングス,0
1711,6100002026928,登記記録の閉鎖等,0,2024-02-07,2024-01-31,有限会社最上屋酒店,,有限会社,長野県,大町市,大町４３１６番地,,20,212,3980002,,,2024-01-31,清算の結了等,,,2015-10-05,1,,,,,モガミヤサケテン,0
1748,6140001073364,登記記録の閉鎖等,0,2024-02-07,2024-02-01,株式会社エフ,,株式会社,大阪府,大阪市北区,曾根崎２丁目１４番１５号,,27,127,5300057,,,2024-02-01,清算の結了等,,,2015-10-05,1,,,,,エフ,0
1763,6180001104867,登記記録の閉鎖等,0,2024-02-07,2024-02-05,株式会社タスクシー,,株式会社,愛知県,名古屋市守山区,大森１丁目２００９番地,,23,113,4630021,,,2024-02-05,清算の結了等,,,2015-10-05,1,,,,,タスクシー,0
1770,6180003012309,登記記録の閉鎖等,0,2024-02-07,2024-01-31,愛北機料合資会社,,合資会社,愛知県,江南市,赤童子町藤宮１６９番地,,23,217,4838222,,,2024-01-31,清算の結了等,,,2015-10-05,1,,,,,アイホクキリョウ,0
1773,6180302021258,登記記録の閉鎖等,0,2024-02-07,2024-02-02,アンズハウス有限会社,,有限会社,愛知県,豊田市,桜町２丁目６番地,,23,211,4710029,,,2024-02-02,清算の結了等,,,2015-10-05,1,,,,,アンズハウス,0
1776,6190001008720,登記記録の閉鎖等,0,2024-02-07,2024-02-05,株式会社名阪遊園,,株式会社,三重県,伊賀市,緑ケ丘東町１００５番地の１,,24,216,5180833,,,2024-02-05,清算の結了等,,,2015-10-05,1,,,,,メイハンユウエン,0
1796,6270005003791,登記記録の閉鎖等,0,2024-02-07,2024-02-05,医療法人社団悠々,,その他の設立登記法人,鳥取県,米子市,米原９丁目３番１０号,,31,202,6830804,,,2024-02-05,清算の結了等,,,2015-10-05,1,,,,,ユウユウ,0
1815,6350002011244,登記記録の閉鎖等,0,2024-02-07,2024-01-31,有限会社宮崎防災,,有限会社,宮崎県,東臼杵郡門川町,大字庵川２６６６番地の１,,45,421,8890602,,,2024-01-31,清算の結了等,,,2015-10-05,1,,,,,ミヤザキボウサイ,0
1820,6360002012043,登記記録の閉鎖等,0,2024-02-07,2024-02-02,株式会社デビス,,株式会社,沖縄県,沖縄市,中央２丁目１番２号,,47,211,9040004,,,2024-02-02,清算の結了等,,,2015-10-05,1,,,,,デビス,0
1833,6430001023059,登記記録の閉鎖等,0,2024-02-07,2024-02-02,マルカメ自動車工業株式会社,,株式会社,北海道,札幌市白石区,南郷通１丁目南１番１５号,,01,104,0030022,,,2024-02-02,清算の結了等,,,2015-10-05,1,,,,,マルカメジドウシャコウギョウ,0
1834,6430001063328,登記記録の閉鎖等,0,2024-02-07,2024-02-01,株式会社シュークリース,,株式会社,北海道,札幌市豊平区,福住二条１丁目５番５－３１２号,,01,105,0620042,,,2024-02-01,清算の結了等,,,2015-10-05,1,,,,,シュークリース,0
1837,6470001012504,登記記録の閉鎖等,0,2024-02-07,2024-02-02,株式会社うけがわ,,株式会社,香川県,観音寺市,木之郷町８５２番地１,,37,205,7680051,,,2024-02-02,清算の結了等,,,2015-10-05,1,,,,,ウケガワ,0
1839,6700150096571,登記記録の閉鎖等,0,2024-02-07,2023-09-20,宗教団体　釋迦院,,その他,千葉県,千葉市若葉区,若松町２３６４－１０,,12,104,2640021,,,2023-09-20,その他の清算の結了等,,,2019-11-11,1,,,,,シユウキヨウダンタイシヤカイン,0
1841,7010001052446,登記記録の閉鎖等,0,2024-02-07,2024-02-01,株式会社ミディアム,,株式会社,東京都,中央区,日本橋２丁目１番１７号丹生ビル２階,,13,102,1030027,,,2024-02-01,清算の結了等,,,2015-10-05,1,,,,,ミディアム,0
1844,7010001182573,登記記録の閉鎖等,0,2024-02-07,2024-02-02,Ｃａｍｅｏ　Ｇｌｏｂａｌ株式会社,,株式会社,東京都,中央区,八丁堀４丁目４番４号３階,,13,102,1040032,,,2024-02-02,清算の結了等,,,2017-04-06,1,,,,,カメオグローバル,0
1849,7010001224061,登記記録の閉鎖等,0,2024-02-07,2024-02-01,株式会社Ｊ＆Ｃｏｍｐａｎｙ,,株式会社,東京都,文京区,小石川５丁目２８番１４－５０２号,,13,105,1120002,,,2024-02-01,清算の結了等,,,2022-01-24,1,,,,,ジェイアンドカンパニー,0
1860,7010002053484,登記記録の閉鎖等,0,2024-02-07,2024-02-02,有限会社エス・エル・フェニックス,,有限会社,東京都,中央区,日本橋室町２丁目４番３号,,13,102,1030022,,,2024-02-02,清算の結了等,,,2015-10-05,1,,,,,エスエルフェニックス,0
1874,7010405019611,登記記録の閉鎖等,0,2024-02-07,2024-02-05,一般社団法人東北人,,その他の設立登記法人,岩手県,陸前高田市,高田町字下和野１０５番地３,,03,210,0292205,,,2024-02-05,清算の結了等,,,2021-03-19,1,,,,,トウホクジン,0
1884,7010901023587,登記記録の閉鎖等,0,2024-02-07,2024-02-05,株式会社コイケエンタープライズ,,株式会社,東京都,世田谷区,宇奈根２丁目２６番１８号,,13,112,1570068,,,2024-02-05,清算の結了等,,,2015-10-05,1,,,,,コイケエンタープライズ,0
1888,7011001092317,登記記録の閉鎖等,0,2024-02-07,2024-01-31,株式会社Ｉ．Ｐ．Ｎ．ＯＦ　ＴＯＫＹＯ,,株式会社,東京都,渋谷区,神南１丁目１３－８パークアヴェニュー神南４０２,,13,113,1500041,,,2024-01-31,清算の結了等,,,2015-10-05,1,,,,,アイピイエヌオブトウキョウ,0
1904,7011601010792,登記記録の閉鎖等,0,2024-02-07,2024-02-02,株式会社モラビア,,株式会社,東京都,練馬区,貫井５丁目４番１９号,,13,120,1760021,,,2024-02-02,清算の結了等,,,2015-10-05,1,,,,,モラビア,0
1918,7020001018371,登記記録の閉鎖等,0,2024-02-07,2024-02-02,株式会社中川商店,,株式会社,神奈川県,横浜市鶴見区,東寺尾３丁目１５番８号,,14,101,2300077,,,2024-02-02,清算の結了等,,,2015-10-05,1,,,,,ナカガワショウテン,0
1922,7020001136792,登記記録の閉鎖等,0,2024-02-07,2024-02-01,株式会社ミナミ総合商事,,株式会社,神奈川県,川崎市幸区,中幸町２丁目２９番地１７－１０１,,14,132,2120012,,,2024-02-01,清算の結了等,,,2020-07-08,1,,,,,ミナミソウゴウショウジ,0
1931,7020002033568,登記記録の閉鎖等,0,2024-02-07,2024-02-05,有限会社こうらん,,有限会社,神奈川県,横浜市港北区,日吉本町１丁目１７番地２７号,,14,109,2230062,,,2024-02-05,清算の結了等,,,2015-10-05,1,,,,,コウラン,0
1938,7021002010879,登記記録の閉鎖等,0,2024-02-07,2024-01-30,有限会社しげた,,有限会社,神奈川県,茅ヶ崎市,茅ヶ崎１１２４番地,,14,207,2530041,,,2024-01-30,清算の結了等,,,2015-10-05,1,,,,,シゲタ,0
1939,7030001054531,登記記録の閉鎖等,0,2024-02-07,2024-01-31,株式会社キミコマリーノ・コーポレーション,,株式会社,埼玉県,川越市,大字木野目１５８番地９,,11,201,3500016,,,2024-01-31,清算の結了等,,,2015-10-05,1,,,,,キミコマリーノコーポレーション,0
1957,7040001067648,登記記録の閉鎖等,0,2024-02-07,2024-01-31,株式会社バッカイウェブサービス,,株式会社,千葉県,柏市,東中新宿４丁目４番１７－２０３号,,12,217,2770061,,,2024-01-31,清算の結了等,,,2015-10-05,1,,,,,バッカイウェブサービス,0
1964,7040002098964,登記記録の閉鎖等,0,2024-02-07,2024-02-01,有限会社吉憲,,有限会社,千葉県,野田市,宮崎２７３番地の１,,12,208,2780005,,,2024-02-01,清算の結了等,,,2015-10-05,1,,,,,ヨシケン,0
1973,7070001033977,登記記録の閉鎖等,0,2024-02-07,2024-02-01,株式会社白川調査測量事務所,,株式会社,群馬県,高崎市,上小鳥町２７５番地３十勝ハイツ２０２号,,10,202,3700078,,,2024-02-01,清算の結了等,,,2017-09-29,1,,,,,シラカワチョウサソクリョウジムショ,0
1979,7090002009347,登記記録の閉鎖等,0,2024-02-07,2024-02-05,有限会社大月塗装工業,,有限会社,山梨県,大月市,賑岡町畑倉１３０番地,,19,206,4010001,,,2024-02-05,清算の結了等,,,2015-10-05,1,,,,,オオツキトソウコウギョウ,0
1981,7120001073191,登記記録の閉鎖等,0,2024-02-07,2024-02-05,株式会社アイテイオーコンピュータスペース,,株式会社,大阪府,大阪市中央区,農人橋２丁目１番２４－４０３号,,27,128,5400011,,,2024-02-05,清算の結了等,,,2015-10-05,1,,,,,アイテイオーコンピュータスペース,0
1988,7120001214076,登記記録の閉鎖等,0,2024-02-07,2024-02-01,中光電気工業株式会社,,株式会社,大阪府,守口市,菊水通２丁目１７番７号,,27,209,5700032,,,2024-02-01,清算の結了等,,,2018-06-14,1,,,,,チュウコウデンキコウギョウ,0
1996,7122001015628,登記記録の閉鎖等,0,2024-02-07,2024-02-02,株式会社鉄建中村,,株式会社,大阪府,大東市,新田北町５番３０号,,27,218,5740052,,,2024-02-02,清算の結了等,,,2015-10-05,1,,,,,テッケンナカムラ,0
2001,7130001036998,登記記録の閉鎖等,0,2024-02-07,2024-02-05,株式会社老研,,株式会社,京都府,木津川市,加茂町里須原７番地２,,26,214,6191152,,,2024-02-05,清算の結了等,,,2015-10-05,1,,,,,ロウケン,0
2017,7140002036253,登記記録の閉鎖等,0,2024-02-07,2024-02-01,有限会社ともり保険事務所,,有限会社,兵庫県,加古川市,別府町新野辺５７４番地の１９９,,28,210,6750131,,,2024-02-01,清算の結了等,,,2015-10-05,1,,,,,トモリホケンジムショ,0
2023,7150001009853,登記記録の閉鎖等,0,2024-02-07,2024-02-05,榛原運送株式会社,,株式会社,奈良県,宇陀市,榛原萩乃里２０番地,,29,212,6330221,,,2024-02-05,清算の結了等,,,2015-10-05,1,,,,,ハイバラウンソウ,0
2050,7180301035324,登記記録の閉鎖等,0,2024-02-07,2024-02-05,株式会社ＯＴ１,,株式会社,愛知県,刈谷市,野田新町２丁目２０５番地,,23,210,4480862,,,2024-02-05,清算の結了等,,,2021-09-06,1,,,,,オーティーワン,0
2052,7180302027840,登記記録の閉鎖等,0,2024-02-07,2024-01-31,有限会社山宗建設,,有限会社,愛知県,新城市,一鍬田字浦海道５９番地の２,,23,221,4411338,,,2024-01-31,清算の結了等,,,2015-10-05,1,,,,,ヤマソウケンセツ,0
2054,7190002000857,登記記録の閉鎖等,0,2024-02-07,2024-02-05,有限会社第一薬品,,有限会社,三重県,津市,丸之内養正町１８番１８号,,24,201,5140036,,,2024-02-05,清算の結了等,,,2015-10-05,1,,,,,,0
2060,7200002019169,登記記録の閉鎖等,0,2024-02-07,2024-02-06,有限会社丸宮石油店,,有限会社,岐阜県,関市,旭ケ丘１丁目１番１５号,,21,205,5013829,,,2024-02-06,清算の結了等,,,2015-10-05,1,,,,,マルミヤセキユテン,0
2064,7230002000266,登記記録の閉鎖等,0,2024-02-07,2024-02-05,有限会社飯倉工務店,,有限会社,富山県,富山市,海岸通２２７番地,,16,201,9318405,,,2024-02-05,清算の結了等,,,2015-10-05,1,,,,,イイクラコウムテン,0
2074,7260002024064,登記記録の閉鎖等,0,2024-02-07,2024-02-06,有限会社もみじ産業,,有限会社,岡山県,総社市,門田３４２番地の３,,33,208,7191156,,,2024-02-06,清算の結了等,,,2015-10-05,1,,,,,モミジサンギョウ,0
2094,7330001023638,登記記録の閉鎖等,0,2024-02-07,2024-02-01,株式会社ジパング,,株式会社,熊本県,八代市,竹原町２１５４番地１,,43,202,8660826,,,2024-02-01,合併による解散等,3330001014120,令和６年２月１日熊本県八代市竹原町２１５４番地の１株式会社つかさ総合開発（3330001014120）に合併し解散,2017-01-13,1,,,,,ジパング,0
2102,7350002014584,登記記録の閉鎖等,0,2024-02-07,2024-02-01,有限会社ナガトモ,,有限会社,宮崎県,都城市,南鷹尾町３４街区１号,,45,202,8850082,,,2024-02-01,清算の結了等,,,2015-10-05,1,,,,,ナガトモ,0
2114,7420001017779,登記記録の閉鎖等,0,2024-02-07,2024-02-01,株式会社ＡＯＭＯＲＩ　ＭＡＲＫＥＴ,,株式会社,青森県,青森市,古川１丁目１７番２１号スノーランドビル３階,,02,201,0300862,,,2024-02-01,合併による解散等,1420001013073,令和６年２月１日青森市古川一丁目１７番２１号スノーランドビル３階株式会社クロックアップ（1420001013073）に合併し解散,2022-03-30,1,,,,,アオモリマーケット,0
2121,7500002009775,登記記録の閉鎖等,0,2024-02-07,2024-02-05,有限会社フェリックス,,有限会社,愛媛県,松山市,南吉田町１７２６番地１１,,38,201,7918042,,,2024-02-05,清算の結了等,,,2015-10-05,1,,,,,フェリックス,0
2126,8010001203997,登記記録の閉鎖等,0,2024-02-07,2024-02-01,株式会社糖質制限研究所,,株式会社,東京都,千代田区,内神田３丁目２２番５号,,13,101,1010047,,,2024-02-01,合併による解散等,2010001134876,令和６年２月１日東京都中央区銀座八丁目４番２３号株式会社銀座セブン（2010001134876）に合併し解散,2019-09-20,1,,,,,トウシツセイゲンケンキュウショ,0
2138,8010002051181,登記記録の閉鎖等,0,2024-02-07,2024-02-01,有限会社アミューズメント総合研究所,,有限会社,東京都,中央区,日本橋人形町１丁目１２番１１－１３０７号,,13,102,1030013,,,2024-02-01,清算の結了等,,,2015-10-05,1,,,,,アミューズメントソウゴウケンキュウショ,0
2141,8010005015794,登記記録の閉鎖等,0,2024-02-07,2024-01-31,理法監査法人,,その他の設立登記法人,東京都,文京区,本郷２丁目２６番１１号ＫＡＺＥＮ第２ビル６階,,13,105,1130033,,,2024-01-31,清算の結了等,,,2015-10-05,1,,,,,リホウ,0
2146,8010005027971,登記記録の閉鎖等,0,2024-02-07,2024-02-06,一般社団法人仙台ＨＫ開発,,その他の設立登記法人,東京都,千代田区,丸の内３丁目１番１号東京共同会計事務所内,,13,101,1000005,,,2024-02-06,清算の結了等,,,2018-01-16,1,,,,,センダイエイチケーカイハツ,0
2152,8010401101909,登記記録の閉鎖等,0,2024-02-07,2024-01-31,株式会社プライム・インパクト,,株式会社,東京都,港区,南青山１丁目２６番１６号,,13,103,1070062,,,2024-01-31,清算の結了等,,,2015-10-05,1,,,,,プライムインパクト,0
2171,8010602029668,登記記録の閉鎖等,0,2024-02-07,2024-02-02,有限会社ヘブン,,有限会社,東京都,江東区,門前仲町１丁目１２番２号,,13,108,1350048,,,2024-02-02,清算の結了等,,,2015-10-05,1,,,,,ヘブン,0
2178,8010801017267,登記記録の閉鎖等,0,2024-02-07,2024-02-02,株式会社テンショー,,株式会社,東京都,大田区,京浜島２丁目１７番７号,,13,111,1430003,,,2024-02-02,清算の結了等,,,2015-10-05,1,,,,,テンショー,0
2184,8011001134968,登記記録の閉鎖等,0,2024-02-07,2024-01-31,ラグジュアリーフーズジャパン株式会社,,株式会社,東京都,渋谷区,恵比寿１丁目３４番１１－１８０５号グランドヒルズ恵比寿,,13,113,1500013,,,2024-01-31,清算の結了等,,,2020-07-27,1,,,,,ラグジュアリーフーズジャパン,0
2195,8011501003004,登記記録の閉鎖等,0,2024-02-07,2024-01-30,株式会社テングヤ,,株式会社,東京都,北区,十条仲原１丁目３番７号,,13,117,1140031,,,2024-01-30,清算の結了等,,,2015-10-05,1,,,,,テングヤ,0
2201,8011801010740,登記記録の閉鎖等,0,2024-02-07,2024-02-01,株式会社中力,,株式会社,東京都,足立区,加平２丁目４番１０号,,13,121,1210055,,,2024-02-01,清算の結了等,,,2015-10-05,1,,,,,ナカリキ,0
2211,8020001066114,登記記録の閉鎖等,0,2024-02-07,2024-02-05,グランド神奈川オート株式会社,,株式会社,神奈川県,川崎市高津区,下作延１丁目７番２４号,,14,134,2130033,,,2024-02-05,清算の結了等,,,2015-10-05,1,,,,,グランドカナガワオート,0
2229,8020003010219,登記記録の閉鎖等,0,2024-02-07,2024-01-16,合同会社Ｇｏｂｅｌｌ,,合同会社,福岡県,福岡市中央区,白金１丁目２１－１３クレッセント薬院,,40,133,8100012,,,2024-01-16,清算の結了等,,,2015-10-05,1,,,,,ゴーベル,0
2252,8030002113789,登記記録の閉鎖等,0,2024-02-07,2024-02-01,有限会社テレ通信サービス,,有限会社,埼玉県,熊谷市,肥塚５８５番地２２,,11,202,3600015,,,2024-02-01,清算の結了等,,,2015-10-05,1,,,,,テレツウシンサービス,0
2258,8040001054117,登記記録の閉鎖等,0,2024-02-07,2024-01-31,株式会社製造システム技術研究所,,株式会社,千葉県,市原市,深城１１１番地,,12,219,2990123,,,2024-01-31,清算の結了等,,,2015-10-05,1,,,,,セイゾウシステムギジュツケンキュウシジョ,0
2323,8130002018706,登記記録の閉鎖等,0,2024-02-07,2024-02-06,有限会社平安蒸工場,,有限会社,京都府,京都市東山区,三条通北裏白川筋西入石泉院町４０８番地,,26,105,6050021,,,2024-02-06,清算の結了等,,,2015-10-05,1,,,,,ヘイアンムシコウジョウ,0
2352,8180001063450,登記記録の閉鎖等,0,2024-02-07,2024-01-31,クリジュア株式会社,,株式会社,東京都,港区,新橋６丁目４番３号ル・グラシエルＢＬＤＧ７－３Ｆ,,13,103,1050004,,,2024-01-31,清算の結了等,,,2015-10-05,1,,,,,クリジュア,0
2365,8180003017495,登記記録の閉鎖等,0,2024-02-07,2024-01-29,アールピー商事合同会社,,合同会社,愛知県,名古屋市東区,東大曽根町３３番１８号,,23,102,4610022,,,2024-01-29,清算の結了等,,,2016-11-09,1,,,,,アールピーショウジ,0
2379,8190002020334,登記記録の閉鎖等,0,2024-02-07,2024-02-05,有限会社笹川サービス,,有限会社,三重県,四日市市,笹川１丁目２８２番地の１４,,24,202,5100944,,,2024-02-05,清算の結了等,,,2015-10-05,1,,,,,ササガワサービス,0
2401,8260002019856,登記記録の閉鎖等,0,2024-02-07,2024-02-05,東洋設備有限会社,,有限会社,岡山県,倉敷市,中島６０４番地,,33,202,7100803,,,2024-02-05,清算の結了等,,,2015-10-05,1,,,,,トウヨウセツビ,0
2431,8370002016909,登記記録の閉鎖等,0,2024-02-07,2024-02-06,有限会社Ｍｉｅｌ,,有限会社,宮城県,仙台市太白区,泉崎１丁目７番２５号,,04,104,9820031,,,2024-02-06,清算の結了等,,,2015-10-05,1,,,,,ミエル,0
2432,8370005005966,登記記録の閉鎖等,0,2024-02-07,2024-02-01,税理士法人成田会計パートナーズ,,その他の設立登記法人,宮城県,仙台市青葉区,上杉３丁目３番２０－２０１,,04,101,9800011,,,2024-02-01,清算の結了等,,,2015-10-05,1,,,,,,0
2435,8380002023565,登記記録の閉鎖等,0,2024-02-07,2024-02-01,有限会社寿苑,,有限会社,福島県,いわき市,常磐湯本町天王崎２番地の２,,07,204,9728321,,,2024-02-01,清算の結了等,,,2015-10-05,1,,,,,コトブキエン,0
2438,8400002011872,登記記録の閉鎖等,0,2024-02-07,2024-02-02,有限会社山佐運送,,有限会社,岩手県,釜石市,両石町第４地割７４番地１７,,03,211,0260304,,,2024-02-02,清算の結了等,,,2015-10-05,1,,,,,ヤマサウンソウ,0
2446,8460101000597,登記記録の閉鎖等,0,2024-02-07,2024-02-05,三浦電気株式会社,,株式会社,北海道,帯広市,西二十二条南４丁目２２番地１１,,01,207,0802472,,,2024-02-05,清算の結了等,,,2015-10-05,1,,,,,ミウラデンキ,0
2452,8500002004172,登記記録の閉鎖等,0,2024-02-07,2024-02-06,有限会社タカタ,,有限会社,愛媛県,松山市,空港通７丁目８番２３号,,38,201,7910054,,,2024-02-06,清算の結了等,,,2015-10-05,1,,,,,タカタ,0
2462,9010001055703,登記記録の閉鎖等,0,2024-02-07,2024-02-02,扶桑石油株式会社,,株式会社,東京都,大田区,石川町２丁目１０番５－３１２号,,13,111,1450061,,,2024-02-02,清算の結了等,,,2015-10-05,1,,,,,フソウセキユ,0
2465,9010001175633,登記記録の閉鎖等,0,2024-02-07,2024-02-01,クリエイトバリュー株式会社,,株式会社,東京都,中央区,銀座６丁目６番１号,,13,102,1040061,,,2024-02-01,合併による解散等,6010001177459,令和６年２月１日東京都中央区銀座六丁目６番１号トラスティ・パートナーズ株式会社（6010001177459）に合併し解散,2016-05-27,1,,,,,クリエイトバリュー,0
2479,9010003025646,登記記録の閉鎖等,0,2024-02-07,2024-01-31,ひので合同会社,,合同会社,東京都,千代田区,丸の内３丁目１番１号東京共同会計事務所内,,13,101,1000005,,,2024-01-31,清算の結了等,,,2017-07-11,1,,,,,ヒノデ,0
2510,9010701020790,登記記録の閉鎖等,0,2024-02-07,2024-02-02,株式会社ティーシー,,株式会社,東京都,品川区,西五反田８丁目５番１号,,13,109,1410031,,,2024-02-02,清算の結了等,,,2015-10-05,1,,,,,ティーシー,0
2535,9011301004936,登記記録の閉鎖等,0,2024-02-07,2024-01-31,豊多摩倉庫株式会社,,株式会社,東京都,杉並区,荻窪４丁目３０番１０号,,13,115,1670051,,,2024-01-31,清算の結了等,,,2015-10-05,1,,,,,トヨタマソウコ,0
2578,9030003021387,登記記録の閉鎖等,0,2024-02-07,2024-02-02,ヤオコー合同会社,,合同会社,埼玉県,志木市,柏町１丁目２０－１４,,11,228,3530007,,,2024-02-02,清算の結了等,,,2023-03-16,1,,,,,ヤオコー,0
2590,9050001018796,登記記録の閉鎖等,0,2024-02-07,2024-01-29,株式会社モトキコーポレーション,,株式会社,茨城県,古河市,上辺見９７９番地８,,08,204,3060234,,,2024-01-29,清算の結了等,,,2015-10-05,1,,,,,モトキコーポレーション,0
2625,9120102017962,登記記録の閉鎖等,0,2024-02-07,2024-02-05,有限会社川人商店,,有限会社,大阪府,羽曳野市,東阪田１８０番地の１０,,27,222,5830846,,,2024-02-05,清算の結了等,,,2015-10-05,1,,,,,カワヒトショウテン,0
2627,9120901029365,登記記録の閉鎖等,0,2024-02-07,2024-01-31,株式会社Ｂｅ－ｓｏｒａ,,株式会社,東京都,江戸川区,平井７丁目２番２１号,,13,123,1320035,,,2024-01-31,合併による解散等,5011701013474,令和６年１月３１日東京都江戸川区平井七丁目２番２１号サンワローラン株式会社（5011701013474）に合併し解散,2015-10-05,1,,,,,ビソラ,0
2629,9120902007312,登記記録の閉鎖等,0,2024-02-07,2024-02-02,有限会社ハブコーポレーション,,有限会社,大阪府,摂津市,正雀本町２丁目１６番１３号,,27,224,5660024,,,2024-02-02,合併による解散等,8120001135081,令和６年１月３１日大阪市中央区島町一丁目１番３号株式会社Ｃａｓａ（8120001135081）に合併し解散,2015-10-05,1,,,,,ハブコーポレーション,0
2630,9120905003151,登記記録の閉鎖等,0,2024-02-07,2024-02-05,一般財団法人低炭素型まちづくり推進法人,,その他の設立登記法人,大阪府,摂津市,南千里丘５番２５－２０１号,,27,224,5660021,,,2024-02-05,清算の結了等,,,2015-10-05,1,,,,,テイタンソガタマチヅクリスイシンホウジン,0
2646,9140001114735,登記記録の閉鎖等,0,2024-02-07,2024-02-05,株式会社ＲＥＯＷＬ,,株式会社,兵庫県,宝塚市,安倉南４丁目３７番２１号,,28,214,6650823,,,2024-02-05,清算の結了等,,,2019-09-02,1,,,,,リオール,0
2672,9180002045109,登記記録の閉鎖等,0,2024-02-07,2024-02-01,有限会社電気湯,,有限会社,愛知県,名古屋市中区,上前津１丁目８番２号,,23,106,4600013,,,2024-02-01,清算の結了等,,,2015-10-05,1,,,,,デンキユ,0
2682,9200001027971,登記記録の閉鎖等,0,2024-02-07,2024-02-05,株式会社共栄木工,,株式会社,岐阜県,不破郡関ケ原町,大字山中８６６番地,,21,362,5031544,,,2024-02-05,清算の結了等,,,2015-10-05,1,,,,,キョウエイモッコウ,0
2688,9240002030302,登記記録の閉鎖等,0,2024-02-07,2024-02-01,有限会社ヒロビル,,有限会社,広島県,三次市,十日市東６丁目１番１号,,34,209,7280013,,,2024-02-01,清算の結了等,,,2015-10-05,1,,,,,ヒロビル,0
2689,9250003002010,登記記録の閉鎖等,0,2024-02-07,2024-02-05,合同会社浦山プランニング,,合同会社,山口県,山口市,平井１３４８番地９,,35,203,7530831,,,2024-02-05,清算の結了等,,,2017-01-10,1,,,,,ウラヤマプランニング,0
2697,9290001000656,登記記録の閉鎖等,0,2024-02-07,2024-02-05,株式会社アサヒ化工,,株式会社,福岡県,福岡市南区,高木２丁目２５番４号,,40,134,8150004,,,2024-02-05,清算の結了等,,,2015-10-05,1,,,,,アサヒカコウ,0
2725,9370002016791,登記記録の閉鎖等,0,2024-02-07,2024-02-06,有限会社ケーズコーポレーション,,有限会社,宮城県,仙台市泉区,高森７丁目３８番地の７,,04,105,9813203,,,2024-02-06,清算の結了等,,,2015-10-05,1,,,,,ケーズコーポレーション,0
2731,9410002005823,登記記録の閉鎖等,0,2024-02-07,2024-02-01,比内どり食品有限会社,,有限会社,秋田県,南秋田郡井川町,坂本字飛塚２３番地,,05,366,0181523,,,2024-02-01,清算の結了等,,,2015-10-05,1,,,,,,0
2735,9430001053929,登記記録の閉鎖等,0,2024-02-07,2024-02-01,明星建設株式会社,,株式会社,北海道,苫小牧市,ときわ町１丁目５番１９号,,01,213,0591261,,,2024-02-01,清算の結了等,,,2015-10-05,1,,,,,ミョウジョウケンセツ,0
