sequenceNumber,corporateNumber,process,correct,updateDate,changeDate,name,nameImageId,kind,prefectureName,cityName,streetNumber,addressImageId,prefectureCode,cityCode,postCode,addressOutside,addressOutsideImageId,closeDate,closeCause,successorCorporateNumber,changeCause,assignmentDate,latest,enName,enPrefectureName,enCityName,enAddressOutside,furigana,hihyoji
4,1010001256408,新規,0,2025-07-01,2025-07-01,暁不動産株式会社,,株式会社,東京都,文京区,本駒込６丁目９番１１号,,13,105,1130021,,,,,,,2025-07-01,1,,,,,アカツキフドウサン,0
5,1010001256449,新規,0,2025-07-01,2025-07-01,株式会社イズミトータルサービス,,株式会社,東京都,千代田区,岩本町２丁目６番１０号,,13,101,1010032,,,,,,,2025-07-01,1,,,,,イズミトータルサービス,0
24,1010405024526,新規,0,2025-07-01,2025-07-01,ジャパン・カラサワ特定目的会社,,その他の設立登記法人,東京都,港区,虎ノ門３丁目２２番１０－２０１号,,13,103,1050001,,,,,,,2025-07-01,1,,,,,ジャパンカラサワ,0
28,1010601067519,新規,0,2025-07-01,2025-07-01,株式会社ＳＩＪ,,株式会社,東京都,江東区,南砂１丁目１番２－１３０３号,,13,108,1360076,,,,,,,2025-07-01,1,,,,,エスアイジェー,0
29,1010601067535,新規,0,2025-07-01,2025-07-01,株式会社Ｌｉｇｈｔｎｉｎｇ,,株式会社,東京都,江東区,東雲１丁目９－３２－３５１３,,13,108,1350062,,,,,,,2025-07-01,1,,,,,ライトニング,0
33,1010801036315,新規,0,2025-07-01,2025-07-01,ダムダクラウド株式会社,,株式会社,東京都,大田区,羽田空港１丁目１－４ＨＩＣｉｔｙＺｏｎｅＫ２０１,,13,111,1440041,,,,,,,2025-07-01,1,,,,,ダムダクラウド,0
37,1010903010052,新規,0,2025-07-01,2025-07-01,合同会社ＫＡＯＬＡＨ,,合同会社,東京都,世田谷区,太子堂４丁目１８番１５号マガザン三軒茶屋２－３Ｆ－３,,13,112,1540004,,,,,,,2025-07-01,1,,,,,カオラ,0
45,1011001170490,新規,0,2025-07-01,2025-07-01,株式会社ＨＯＢＩＳ,,株式会社,東京都,渋谷区,円山町５番３号ＭＩＥＵＸ渋谷ビル８階,,13,113,1500044,,,,,,,2025-07-01,1,,,,,ホビス,0
46,1011001170631,新規,0,2025-07-01,2025-07-01,株式会社ＺｉｓｈｉＮ,,株式会社,東京都,渋谷区,円山町５番５号Ｎａｖｉ渋谷Ｖ３階,,13,113,1500044,,,,,,,2025-07-01,1,,,,,ジシン,0
52,1011005011055,新規,0,2025-07-01,2025-07-01,一般社団法人Ｃｉｔｙ　Ｇｒｅｅｎ,,その他の設立登記法人,東京都,渋谷区,広尾５丁目２２番１号広尾ＫＡＴＯビル４０１,,13,113,1500012,,,,,,,2025-07-01,1,,,,,シティーグリーン,0
56,1011101112310,新規,0,2025-07-01,2025-07-01,猫界株式会社,,株式会社,東京都,新宿区,歌舞伎町２丁目２５番８号,,13,104,1600021,,,,,,,2025-07-01,1,,,,,ネコサカイ,0
57,1011101112327,新規,0,2025-07-01,2025-07-01,Ｍｉｃａｔｕｓ株式会社,,株式会社,東京都,新宿区,西新宿７丁目１９番２号第一古谷ビル２階,,13,104,1600023,,,,,,,2025-07-01,1,,,,,ミカタス,0
58,1011105011483,新規,0,2025-07-01,2025-07-01,一般社団法人日本海外開発協会,,その他の設立登記法人,東京都,新宿区,西新宿３丁目３番１３号西新宿水間ビル２階,,13,104,1600023,,,,,,,2025-07-01,1,,,,,ニホンカイガイカイハツキョウカイ,0
59,1011301030683,新規,0,2025-07-01,2025-07-01,株式会社Ｐａ’ａｉｍａｚ,,株式会社,東京都,杉並区,高円寺南４丁目７番３－８０３号,,13,115,1660003,,,,,,,2025-07-01,1,,,,,パアメイゼ,0
62,1011401027217,新規,0,2025-07-01,2025-07-01,株式会社希,,株式会社,東京都,板橋区,大山東町３８番８号石塚ビル３０１号室,,13,119,1730014,,,,,,,2025-07-01,1,,,,,ノゾミ,0
64,1011601028766,新規,0,2025-07-01,2025-07-01,宇山興業株式会社,,株式会社,東京都,練馬区,東大泉１丁目１１－２７,,13,120,1780063,,,,,,,2025-07-01,1,,,,,ウヤマコウギョウ,0
68,1011801015589,新規,0,2025-07-01,2025-07-01,株式会社篠崎自動車,,株式会社,東京都,足立区,大谷田５丁目３１番６－２０４号,,13,121,1200001,,,,,,,2025-07-01,1,,,,,シノザキジドウシャ,0
70,1011801046378,新規,0,2025-07-01,2025-07-01,株式会社Ｋｆａｍ,,株式会社,東京都,足立区,西新井１丁目１番１５－１２０２号,,13,121,1230841,,,,,,,2025-07-01,1,,,,,ケイファム,0
77,1012401043286,新規,0,2025-07-01,2025-07-01,ＧＡＭＡＲＪＯＢＡＴ株式会社,,株式会社,東京都,武蔵野市,八幡町３丁目１番２２号,,13,203,1800011,,,,,,,2025-07-01,1,,,,,ガーマルチョバ,0
88,1020001163611,新規,0,2025-07-01,2025-07-01,コアアセットマネジメント株式会社,,株式会社,神奈川県,横浜市中区,本牧原１５番１号ルネサンスシティ本牧２０５,,14,104,2310821,,,,,,,2025-07-01,1,,,,,コアアセットマネジメント,0
92,1021001085606,新規,0,2025-07-01,2025-07-01,森金株式会社,,株式会社,神奈川県,鎌倉市,鎌倉山２丁目２６番８号,,14,204,2480031,,,,,,,2025-07-01,1,,,,,モリカネ,0
93,1021001085622,新規,0,2025-07-01,2025-07-01,サカエ株式会社,,株式会社,神奈川県,海老名市,本郷５７１５番地１,,14,215,2430417,,,,,,,2025-07-01,1,,,,,サカエ,0
99,1030001167371,新規,0,2025-07-01,2025-07-01,株式会社Ｊ．ＨＯＭＥ,,株式会社,埼玉県,さいたま市北区,宮原町４丁目１３９番地２８,,11,102,3310812,,,,,,,2025-07-01,1,,,,,ジェイホーム,0
101,1030003027094,新規,0,2025-07-01,2025-07-01,合同会社ＭＡＮＧＯ　ＭＡＮＧＡ　ＣＲＥＡＴＯＲＳ,,合同会社,埼玉県,幸手市,南３丁目１７－７,,11,240,3400156,,,,,,,2025-07-01,1,,,,,マンゴーマンガクリエイターズ,0
102,1030003027103,新規,0,2025-07-01,2025-07-01,Ｒｅ合同会社,,合同会社,埼玉県,さいたま市桜区,大字神田４２９番地スティーレ与野Ｄ－２０２,,11,106,3380812,,,,,,,2025-07-01,1,,,,,アールイー,0
105,1040001139444,新規,0,2025-07-01,2025-07-01,千銀堂株式会社,,株式会社,千葉県,千葉市中央区,末広１丁目２番６号Ｃ－１２６・３０７号,,12,101,2600843,,,,,,,2025-07-01,1,,,,,センギンドウ,0
106,1040003027936,新規,0,2025-07-01,2025-07-01,Ｌｉｂｅｓｔ　Ｗｏｒｋｓ合同会社,,合同会社,千葉県,船橋市,海神町３丁目１１９番地１６デュオヒルズ船橋１１０３号,,12,204,2730022,,,,,,,2025-07-01,1,,,,,リベストワークス,0
108,1050003009388,新規,0,2025-07-01,2025-07-01,合同会社セカイモータース,,合同会社,茨城県,坂東市,逆井３５３６番地－１０３,,08,228,3060501,,,,,,,2025-07-01,1,,,,,,0
109,1050003009396,新規,0,2025-07-01,2025-07-01,合同会社サポートセンター優理,,合同会社,茨城県,水戸市,双葉台４丁目２４３番地の３３,,08,201,3114145,,,,,,,2025-07-01,1,,,,,,0
114,1060003005626,新規,0,2025-07-01,2025-07-01,Ｃｈｅｎａｂ　Ｍｏｔｅｒｓ合同会社,,合同会社,栃木県,小山市,神鳥谷２丁目１３－２いずみコーポ２０５,,09,208,3230034,,,,,,,2025-07-01,1,,,,,チーナブモーターズ,0
117,1080003003495,新規,0,2025-07-01,2025-07-01,Ｇｕｅｌｌｅ合同会社,,合同会社,静岡県,静岡市駿河区,中田２丁目９番１１－７０８号,,22,102,4228041,,,,,,,2025-07-01,1,,,,,グエル,0
118,1080101025598,新規,0,2025-07-01,2025-07-01,株式会社住まいるパートナー,,株式会社,静岡県,富士市,岩淵５８１番地の１,,22,210,4213305,,,,,,,2025-07-01,1,,,,,スマイルパートナー,0
123,1100001038730,新規,0,2025-07-01,2025-07-01,株式会社ＯＺＯ,,株式会社,長野県,塩尻市,大門三番町１０番２２号,,20,215,3990733,,,,,,,2025-07-01,1,,,,,オゾ,0
126,1100005013366,新規,0,2025-07-01,2025-07-01,一般社団法人日本美容サロン協会,,その他の設立登記法人,長野県,安曇野市,穂高柏原２８７２番地６９,,20,220,3998304,,,,,,,2025-07-01,1,,,,,ニホンビヨウサロンキョウカイ,0
127,1110001039380,新規,0,2025-07-01,2025-07-01,ＫＢＴホールディングス株式会社,,株式会社,新潟県,三条市,新光町１３番２７号,,15,204,9550057,,,,,,,2025-07-01,1,,,,,ケービーティーホールディングス,0
134,1120001277343,新規,0,2025-07-01,2025-07-01,籟＿株式会社,00139754,株式会社,大阪府,大阪市北区,本庄東３丁目３番７号マンション淀３０３Ｃ,,27,127,5310074,,,,,,,2025-07-01,1,,,,,ライカン,0
136,1120003029858,新規,0,2025-07-01,2025-07-01,合同会社Ｓｔｕｄｉｏ　ＴＤ　ＨａｉＳｔｙｌｅ,,合同会社,大阪府,大阪市生野区,鶴橋１丁目４－１６エニシダ鶴橋２０２号,,27,116,5440031,,,,,,,2025-07-01,1,,,,,スチューディオティーディーハイスタイル,0
142,1120901051137,新規,0,2025-07-01,2025-07-01,株式会社コーリング,,株式会社,大阪府,池田市,宇保町５番１６号ラフィーネラフォーレ２０８,,27,204,5630042,,,,,,,2025-07-01,1,,,,,コーリング,0
143,1120901051153,新規,0,2025-07-01,2025-07-01,株式会社ＲＩＳＴＡＬ,,株式会社,大阪府,吹田市,千里山竹園１丁目２６－９,,27,205,5650852,,,,,,,2025-07-01,1,,,,,リスタル,0
144,1130001080003,新規,0,2025-07-01,2025-07-01,株式会社嶋谷組,,株式会社,京都府,京都市西京区,大枝北沓掛町２－１２－１サンシティ桂坂壱番館３０２,,26,111,6100000,,,,,,,2025-07-01,1,,,,,シマタニグミ,0
157,1140001139062,新規,0,2025-07-01,2025-07-01,株式会社早志造園,,株式会社,兵庫県,神戸市中央区,多聞通４丁目１番１５多聞コーポラス２１０号室,,28,110,6500015,,,,,,,2025-07-01,1,,,,,ハヤシゾウエン,0
158,1140001139095,新規,0,2025-07-01,2025-07-01,株式会社ＭＧＲ,,株式会社,兵庫県,神戸市垂水区,福田１丁目１０－１６フレグランス垂水Ｂ１０１,,28,108,6550013,,,,,,,2025-07-01,1,,,,,エムジーアール,0
159,1140001139104,新規,0,2025-07-01,2025-07-01,株式会社生きがい,,株式会社,兵庫県,神戸市灘区,灘南通１丁目３番１２－８０４号,,28,102,6570841,,,,,,,2025-07-01,1,,,,,イキガイ,0
167,1140003022258,新規,0,2025-07-01,2025-07-01,合同会社アプローズ,,合同会社,兵庫県,明石市,魚住町錦が丘３丁目２１番地の１３,,28,203,6740081,,,,,,,2025-07-01,1,,,,,アプローズ,0
169,1150001028223,新規,0,2025-07-01,2025-07-01,株式会社激安青果,,株式会社,奈良県,天理市,櫟本町１６０９番地,,29,204,6320004,,,,,,,2025-07-01,1,,,,,ゲキヤスセイカ,0
181,1190001032345,新規,0,2025-07-01,2025-07-01,ケーエージェイ株式会社,,株式会社,三重県,津市,納所町４３番地３,,24,201,5140051,,,,,,,2025-07-01,1,,,,,ケーエージェイ,0
187,1250003003759,新規,0,2025-07-01,2025-07-01,合同会社ＯＦＺＫラボ,,合同会社,山口県,周南市,大字須々万奥１５１４,,35,215,7450121,,,,,,,2025-07-01,1,,,,,オーエフゼットケーラボ,0
201,1290001110413,新規,0,2025-07-01,2025-07-01,株式会社アンライツ,,株式会社,福岡県,飯塚市,本町１０－２３,,40,205,8200042,,,,,,,2025-07-01,1,,,,,アンライツ,0
202,1290001110553,新規,0,2025-07-01,2025-07-01,トレノキ株式会社,,株式会社,福岡県,福岡市西区,小戸４丁目２８番４４号,,40,135,8190001,,,,,,,2025-07-01,1,,,,,トレノキ,0
205,1300001014240,新規,0,2025-07-01,2025-07-01,株式会社ＭＳはらだ会,,株式会社,佐賀県,鳥栖市,鎗田町２８１番地３,,41,203,8410031,,,,,,,2025-07-01,1,,,,,エムエスハラダカイ,0
207,1310001019668,新規,0,2025-07-01,2025-07-01,株式会社優成卓守,,株式会社,長崎県,佐世保市,大和町１１１０番地１３、１０１号,,42,202,8571165,,,,,,,2025-07-01,1,,,,,ユウセイタクス,0
211,1330001033345,新規,0,2025-07-01,2025-07-01,株式会社ひとこと,,株式会社,熊本県,菊池市,深川５１番地菊池みらいベース内,,43,210,8611304,,,,,,,2025-07-01,1,,,,,ヒトコト,0
224,1430001094740,新規,0,2025-07-01,2025-07-01,本領株式会社,,株式会社,北海道,虻田郡倶知安町,字旭３３－１４,,01,400,0440083,,,,,,,2025-07-01,1,,,,,ホンリョウ,0
233,1500001026380,新規,0,2025-07-01,2025-07-01,株式会社ＤＲＥＡＭ　ＯＮＥ,,株式会社,愛媛県,松山市,二番町３丁目１番地６アルファＣＰＸビル５階,,38,201,7900002,,,,,,,2025-07-01,1,,,,,ドリームワン,0
237,2010001256092,新規,0,2025-07-01,2025-07-01,株式会社Ｌｕｎａｅ　Ｓｔｕｄｉｏ,,株式会社,東京都,中央区,銀座１丁目１２番４号Ｎ＆ＥＢＬＤ．６Ｆ,,13,102,1040061,,,,,,,2025-07-01,1,,,,,ルナエスタジオ,0
238,2010001256233,新規,0,2025-07-01,2025-07-01,１Ｄｓ株式会社,,株式会社,東京都,中央区,勝どき４丁目１３番４号,,13,102,1040054,,,,,,,2025-07-01,1,,,,,ワンディエス,0
239,2010001256398,新規,0,2025-07-01,2025-07-01,株式会社ＴＡＴＳＵＹＡアシスト,,株式会社,東京都,中央区,銀座１丁目１２番４号Ｎ＆ＥＢＬＤ．６Ｆ,,13,102,1040061,,,,,,,2025-07-01,1,,,,,タツヤアシスト,0
240,2010001256407,新規,0,2025-07-01,2025-07-01,Ｌｉｂｅｒａｔｅ株式会社,,株式会社,東京都,中央区,日本橋箱崎町２７番９号,,13,102,1030015,,,,,,,2025-07-01,1,,,,,リベレイト,0
241,2010003047837,新規,0,2025-07-01,2025-07-01,合同会社シルバー,,合同会社,東京都,千代田区,二番町３番地麹町スクエア株式会社シリウス・アドバイザリー内,,13,101,1020084,,,,,,,2025-07-01,1,,,,,シルバー,0
242,2010003047853,新規,0,2025-07-01,2025-07-01,Ｋｏａ　Ｃｏｎｓｕｌｔｉｎｇ合同会社,,合同会社,東京都,中央区,日本橋３丁目７－７日本橋アーバンビルヂング４階,,13,102,1030027,,,,,,,2025-07-01,1,,,,,コアコンサルティング,0
243,2010005040294,新規,0,2025-07-01,2025-07-01,東京レジＳＲ５一般社団法人,,その他の設立登記法人,東京都,千代田区,丸の内１丁目４番１号東京共同会計事務所内,,13,101,1000005,,,,,,,2025-07-01,1,,,,,トウキョウレジエスアールファイブ,0
250,2010401191385,新規,0,2025-07-01,2025-07-01,株式会社ＫＡＣＥＥ,,株式会社,東京都,港区,北青山１丁目３番１号アールキューブ青山３階,,13,103,1070061,,,,,,,2025-07-01,1,,,,,ケイシー,0
258,2010703007768,新規,0,2025-07-01,2025-07-01,ａｓｏｒａ合同会社,,合同会社,東京都,品川区,南品川６丁目８―２８,,13,109,1400004,,,,,,,2025-07-01,1,,,,,アソラ,0
261,2010803005457,新規,0,2025-07-01,2025-07-01,合同会社小林亮,,合同会社,東京都,大田区,山王２丁目８番１８－５０３号,,13,111,1430023,,,,,,,2025-07-01,1,,,,,コバヤシリョウ,0
262,2010903010043,新規,0,2025-07-01,2025-07-01,山一キ合同会社,,合同会社,東京都,世田谷区,深沢７丁目２５番１０号,,13,112,1580081,,,,,,,2025-07-01,1,,,,,ヤマイチキ,0
270,2011001170440,新規,0,2025-07-01,2025-07-01,株式会社Ｍｙｎｔｏ,,株式会社,東京都,渋谷区,道玄坂１丁目１０番８号渋谷道玄坂東急ビル２Ｆ－Ｃ,,13,113,1500043,,,,,,,2025-07-01,1,,,,,ミント,0
271,2011001170861,新規,0,2025-07-01,2025-07-01,株式会社ＭｅｅｔＭｅｅｔＮｏｗ,,株式会社,東京都,渋谷区,道玄坂１丁目１０番８号渋谷道玄坂東急ビル２Ｆ－Ｃ,,13,113,1500043,,,,,,,2025-07-01,1,,,,,ミートミートナウ,0
275,2011101112103,新規,0,2025-07-01,2025-07-01,日本生活検査株式会社,,株式会社,東京都,新宿区,西新宿３丁目３番１３号西新宿水間ビル６階,,13,104,1600023,,,,,,,2025-07-01,1,,,,,ニホンセイカツケンサ,0
276,2011105011482,新規,0,2025-07-01,2025-07-01,特定非営利活動法人トーチの会,,その他の設立登記法人,東京都,新宿区,西新宿３丁目３番１３号西新宿水間ビル６階,,13,104,1600023,,,,,,,2025-07-01,1,,,,,トーチノカイ,0
293,2013301054546,新規,0,2025-07-01,2025-07-01,ＳＡＺＡＲＥ株式会社,,株式会社,東京都,豊島区,東池袋１丁目３４番５号いちご東池袋ビル６階,,13,116,1700013,,,,,,,2025-07-01,1,,,,,サザレ,0
297,2020001163610,新規,0,2025-07-01,2025-07-01,株式会社ＨＲＹ,,株式会社,神奈川県,横浜市緑区,鴨居１丁目１６番１－１１０１号,,14,113,2260003,,,,,,,2025-07-01,1,,,,,エイチアールワイ,0
302,2020003028803,新規,0,2025-07-01,2025-07-01,合同会社正木建設,,合同会社,神奈川県,横浜市西区,北幸２丁目１０番４８号むつみビル３階,,14,103,2200004,,,,,,,2025-07-01,1,,,,,マサキケンセツ,0
303,2020003028836,新規,0,2025-07-01,2025-07-01,合同会社大磯プランニング,,合同会社,神奈川県,横浜市中区,住吉町１丁目１番地第３柳下ビル６０１,,14,104,2310013,,,,,,,2025-07-01,1,,,,,オオイソプランニング,0
306,2021003016211,新規,0,2025-07-01,2025-07-01,ＭＥＣＣＡ　ＴＲＡＤＩＮＧ合同会社,,合同会社,神奈川県,藤沢市,亀井野３１８６番地１,,14,205,2520813,,,,,,,2025-07-01,1,,,,,メッカトレーディング,0
307,2021005013388,新規,0,2025-07-01,2025-07-01,一般社団法人日本汗活協会,,その他の設立登記法人,神奈川県,綾瀬市,深谷上２丁目１１番７号,,14,218,2521108,,,,,,,2025-07-01,1,,,,,ニホンアセカツキョウカイ,0
311,2030001167362,新規,0,2025-07-01,2025-07-01,株式会社Ａ‐Ｚ,,株式会社,埼玉県,三郷市,中央３丁目４１番地１－５０４号,,11,237,3410038,,,,,,,2025-07-01,1,,,,,エーゼット,0
314,2030003027077,新規,0,2025-07-01,2025-07-01,合同会社ＮＫサービス,,合同会社,埼玉県,戸田市,美女木１丁目１７－１４ライオンズマンション武蔵浦和第５－１０３－２号室,,11,224,3350031,,,,,,,2025-07-01,1,,,,,エヌケーサービス,0
315,2030003027093,新規,0,2025-07-01,2025-07-01,Ｆａｉｔｈ　Ｔｅｃｈｎｏｌｏｇｙ合同会社,,合同会社,埼玉県,川口市,芝４丁目２番３－２０１,,11,203,3330866,,,,,,,2025-07-01,1,,,,,フェイステクノロジー,0
323,2040003027951,新規,0,2025-07-01,2025-07-01,合同会社Ｅ８５,,合同会社,千葉県,千葉市稲毛区,緑町１丁目１８番１０号,,12,103,2630023,,,,,,,2025-07-01,1,,,,,イーハコ,0
326,2050003009387,新規,0,2025-07-01,2025-07-01,合同会社ｍ・ｙ・ｐｌａｎ,,合同会社,茨城県,那珂市,平野１８００番地３９０,,08,226,3192104,,,,,,,2025-07-01,1,,,,,,0
329,2070003005979,新規,0,2025-07-01,2025-07-01,合同会社ＯＭＵ,,合同会社,群馬県,前橋市,南町４丁目１５番地１,,10,201,3710805,,,,,,,2025-07-01,1,,,,,オーエムユー,0
330,2080101025606,新規,0,2025-07-01,2025-07-01,株式会社Ｃａｒｅ　Ｓｅｅｄ,,株式会社,静岡県,沼津市,高島町１５－５ぬましんＣＯＭＰＡＳＳ２階,,22,203,4100056,,,,,,,2025-07-01,1,,,,,ケアシード,0
340,2120001277177,新規,0,2025-07-01,2025-07-01,株式会社翠松,,株式会社,大阪府,守口市,菊水通２丁目１１番７号,,27,209,5700032,,,,,,,2025-07-01,1,,,,,スイショウ,0
341,2120001277193,新規,0,2025-07-01,2025-07-01,東綺株式会社,,株式会社,大阪府,大阪市住吉区,杉本１丁目９－１６グランビルドアビコＩＩ－４０１,00139759,27,120,5580022,,,,,,,2025-07-01,1,,,,,トウキ,0
342,2120001277334,新規,0,2025-07-01,2025-07-01,唐信株式会社,,株式会社,大阪府,大阪市生野区,新今里６丁目５番７号２０２号,,27,116,5440001,,,,,,,2025-07-01,1,,,,,トウシン,0
344,2120003029832,新規,0,2025-07-01,2025-07-01,合同会社アイラ・トゥ・コネクト,,合同会社,大阪府,大阪市東住吉区,鷹合２丁目６番６号,,27,121,5460014,,,,,,,2025-07-01,1,,,,,アイラトゥコネクト,0
345,2120005025004,新規,0,2025-07-01,2025-07-01,一般社団法人公共経営への道,,その他の設立登記法人,大阪府,大阪市北区,梅田１丁目１番３号,,27,127,5300001,,,,,,,2025-07-01,1,,,,,コウキョウケイエイヘノミチ,0
351,2120901051144,新規,0,2025-07-01,2025-07-01,株式会社ヨネズテック,,株式会社,大阪府,豊中市,永楽荘４丁目８番１８ー４０５号,,27,203,5600051,,,,,,,2025-07-01,1,,,,,ヨネズテック,0
352,2120903005734,新規,0,2025-07-01,2025-07-01,合同会社Ｄｉａ　Ｆｅｌｉｚ,,合同会社,大阪府,豊中市,服部寿町２丁目３番３号,,27,203,5610857,,,,,,,2025-07-01,1,,,,,ディアフェリス,0
362,2140001139037,新規,0,2025-07-01,2025-07-01,株式会社ＪＡＰＡＮ　Ｒｉｃｅ,,株式会社,兵庫県,明石市,大久保町大窪１５３５番地の７,,28,203,6740051,,,,,,,2025-07-01,1,,,,,ジャパンライス,0
363,2140001139111,新規,0,2025-07-01,2025-07-01,泰和商事株式会社,,株式会社,兵庫県,神戸市中央区,国香通３丁目２番１０号,,28,110,6510066,,,,,,,2025-07-01,1,,,,,タイワショウジ,0
372,2180001167488,新規,0,2025-07-01,2025-07-01,株式会社Ｆｌｅｅｔ　Ｘ,,株式会社,愛知県,名古屋市緑区,大高町字西姥神１０－１５,,23,114,4598001,,,,,,,2025-07-01,1,,,,,フリートエックス,0
375,2180003028688,新規,0,2025-07-01,2025-07-01,ＧＡＮＥＳＨＡ合同会社,,合同会社,愛知県,名古屋市天白区,中平４丁目２０８番地エスパシオンビル１階,,23,116,4680014,,,,,,,2025-07-01,1,,,,,ガネシャ,0
391,2220001026763,新規,0,2025-07-01,2025-07-01,株式会社田岡,,株式会社,石川県,羽咋郡志賀町,高浜町ケの８番地６,,17,384,9250141,,,,,,,2025-07-01,1,,,,,タオカ,0
392,2220001026771,新規,0,2025-07-01,2025-07-01,株式会社Ｍ’ｓ,,株式会社,石川県,鹿島郡中能登町,東馬場ヌ部１９番地,,17,407,9291725,,,,,,,2025-07-01,1,,,,,エムズ,0
393,2220003004065,新規,0,2025-07-01,2025-07-01,インプルーブ合同会社,,合同会社,石川県,金沢市,百坂町イ３８番地１,,17,201,9203131,,,,,,,2025-07-01,1,,,,,インプルーブ,0
404,2290001110560,新規,0,2025-07-01,2025-07-01,ＴＫＳ株式会社,,株式会社,福岡県,福岡市博多区,博多駅東２丁目２番２号,,40,132,8120013,,,,,,,2025-07-01,1,,,,,ティーケーエス,0
405,2290001110577,新規,0,2025-07-01,2025-07-01,Ｍ．アルテミス株式会社,,株式会社,福岡県,福岡市東区,松崎１丁目３２－３０,,40,131,8130035,,,,,,,2025-07-01,1,,,,,エムアルテミス,0
406,2290003017044,新規,0,2025-07-01,2025-07-01,合同会社きのはな,,合同会社,福岡県,三潴郡大木町,大字笹渕１０２９番地２,,40,522,8300401,,,,,,,2025-07-01,1,,,,,キノハナ,0
410,2310001019667,新規,0,2025-07-01,2025-07-01,株式会社フィールライブリーサポート,,株式会社,長崎県,長崎市,大手２丁目１３番３号,,42,201,8528127,,,,,,,2025-07-01,1,,,,,フィールライブリーサポート,0
412,2340001027444,新規,0,2025-07-01,2025-07-01,株式会社Ｋａｎ’Ｎａ,,株式会社,鹿児島県,姶良市,蒲生町上久徳２４５１番地,,46,225,8995302,,,,,,,2025-07-01,1,,,,,カンナ,0
413,2340001027469,新規,0,2025-07-01,2025-07-01,株式会社ＰＳＧ,,株式会社,鹿児島県,鹿児島市,郡元１丁目７番５号,,46,201,8900065,,,,,,,2025-07-01,1,,,,,ピーエスジー,0
428,2430003017814,新規,0,2025-07-01,2025-07-01,合同会社ふぇあ,,合同会社,北海道,札幌市東区,北三十五条東１丁目５番４０－５０１号,,01,103,0070835,,,,,,,2025-07-01,1,,,,,フェア,0
429,2430003017847,新規,0,2025-07-01,2025-07-01,合同会社ａｎｄエニシル,,合同会社,北海道,江別市,野幌美幸町２２番地の７,,01,217,0690804,,,,,,,2025-07-01,1,,,,,アンドエニシル,0
431,2460103001723,新規,0,2025-07-01,2025-07-01,合同会社武川組,,合同会社,北海道,河東郡音更町,緑陽台南区３番地１０２,,01,631,0800318,,,,,,,2025-07-01,1,,,,,タケカワグミ,0
434,2470001020782,新規,0,2025-07-01,2025-07-01,株式会社良品セレクト,,株式会社,香川県,丸亀市,田村町１３２２番地２,,37,202,7630071,,,,,,,2025-07-01,1,,,,,リョウヒンセレクト,0
440,2500005008804,新規,0,2025-07-01,2025-07-01,一般社団法人トモニ療育センター,,その他の設立登記法人,愛媛県,新居浜市,船木甲７４１番地４,,38,205,7920856,,,,,,,2025-07-01,1,,,,,トモニリョウイクセンター,0
441,2700150131290,新規,0,2025-07-01,2025-07-01,長瀬区自治会,,その他,奈良県,吉野郡黒滝村,大字長瀬８３番地の１,,29,444,6380233,,,,,,,2025-07-01,1,,,,,ナガセクジチカイ,0
444,3010001256034,新規,0,2025-07-01,2025-07-01,ＰＣＧＶＩ‐１株式会社,,株式会社,東京都,千代田区,丸の内１丁目９番１号,,13,101,1000005,,,,,,,2025-07-01,1,,,,,ピーシージーシックスワン,0
445,3010001256348,新規,0,2025-07-01,2025-07-01,株式会社フュリンテル,,株式会社,東京都,千代田区,神田三崎町２丁目１０番１１号Ｐｅｇビル５Ｂ－４号室,,13,101,1010061,,,,,,,2025-07-01,1,,,,,フュリンテル,0
448,3010005040293,新規,0,2025-07-01,2025-07-01,東京レジＳＲ４一般社団法人,,その他の設立登記法人,東京都,千代田区,丸の内１丁目４番１号東京共同会計事務所内,,13,101,1000005,,,,,,,2025-07-01,1,,,,,トウキョウレジエスアールフォー,0
456,3010401191368,新規,0,2025-07-01,2025-07-01,ＳＴＣ　ＪＰ株式会社,,株式会社,東京都,港区,南青山３丁目１番３６号青山丸竹ビル６Ｆ,,13,103,1070062,,,,,,,2025-07-01,1,,,,,エスティーシージェイピー,0
457,3010401191384,新規,0,2025-07-01,2025-07-01,株式会社ＩＧ５,,株式会社,東京都,港区,赤坂９丁目７番２号ミッドタウン・イースト４階,,13,103,1070052,,,,,,,2025-07-01,1,,,,,アイジーファイブ,0
463,3010703007742,新規,0,2025-07-01,2025-07-01,ケイコンサル合同会社,,合同会社,東京都,品川区,東品川１丁目１９番２号コンシェリア品川５０６,,13,109,1400002,,,,,,,2025-07-01,1,,,,,ケイコンサル,0
466,3010901011843,新規,0,2025-07-01,2025-07-01,株式会社ミワハウジング,,株式会社,東京都,世田谷区,瀬田３丁目９番１９号,,13,112,1580095,,,,,,,2025-07-01,1,,,,,ミワハウジング,0
483,3011105011481,新規,0,2025-07-01,2025-07-01,特定非営利活動法人結の架け橋,,その他の設立登記法人,東京都,新宿区,西新宿６丁目１５番１号セントラルパークタワーラ・トゥール新宿５０４,,13,104,1600023,,,,,,,2025-07-01,1,,,,,ユイノカケハシ,0
486,3011201026482,新規,0,2025-07-01,2025-07-01,株式会社Ｄ‐ｏｓｓ,,株式会社,東京都,中野区,新井４丁目１２番７号,,13,114,1650026,,,,,,,2025-07-01,1,,,,,ディーオス,0
489,3011601028764,新規,0,2025-07-01,2025-07-01,ＧＮＴ　ＧＲＯＵＰ株式会社,,株式会社,東京都,練馬区,豊玉上２丁目５－７,,13,120,1760011,,,,,,,2025-07-01,1,,,,,ジーエヌティグループ,0
495,3011801046376,新規,0,2025-07-01,2025-07-01,株式会社つなぐ相続不動産,,株式会社,東京都,足立区,竹の塚７丁目７番１４号,,13,121,1210813,,,,,,,2025-07-01,1,,,,,ツナグソウゾクフドウサン,0
496,3011801046384,新規,0,2025-07-01,2025-07-01,株式会社ユノプロパティーズ,,株式会社,東京都,足立区,中川４丁目２４番７号亀有ＭＳビル５階,,13,121,1200002,,,,,,,2025-07-01,1,,,,,ユノプロパティーズ,0
505,3020001163642,新規,0,2025-07-01,2025-07-01,株式会社Ｌｕｃｅｒｎａ,,株式会社,神奈川県,川崎市中原区,小杉町３丁目１－１ドレッセタワー武蔵小杉１６０１,,14,133,2110063,,,,,,,2025-07-01,1,,,,,ルチェルナ,0
508,3020003028835,新規,0,2025-07-01,2025-07-01,合同会社湘南エナジー,,合同会社,神奈川県,横浜市神奈川区,白幡南町３５番１９号マグノリア１０３号,,14,102,2210073,,,,,,,2025-07-01,1,,,,,ショウナンエナジー,0
511,3021001085637,新規,0,2025-07-01,2025-07-01,株式会社インサイト,,株式会社,神奈川県,平塚市,老松町１番１０－２０９号,,14,203,2540033,,,,,,,2025-07-01,1,,,,,インサイト,0
512,3021003016210,新規,0,2025-07-01,2025-07-01,オークワークス合同会社,,合同会社,神奈川県,藤沢市,宮原３２３２番地８,,14,205,2520826,,,,,,,2025-07-01,1,,,,,オークワークス,0
513,3021003016235,新規,0,2025-07-01,2025-07-01,エスオーアセット合同会社,,合同会社,神奈川県,相模原市南区,相模大野６丁目２番１号－２０２,,14,153,2520303,,,,,,,2025-07-01,1,,,,,エスオーアセット,0
522,3030001167337,新規,0,2025-07-01,2025-07-01,ＡＺＴＯＮＥ株式会社,,株式会社,埼玉県,さいたま市緑区,東大門２丁目１３番地３０,,11,109,3360964,,,,,,,2025-07-01,1,,,,,アズトーン,0
524,3030003027101,新規,0,2025-07-01,2025-07-01,ＭＯＯＮ合同会社,,合同会社,埼玉県,志木市,本町５丁目７番５号,,11,228,3530004,,,,,,,2025-07-01,1,,,,,ムーン,0
532,3040003027959,新規,0,2025-07-01,2025-07-01,合同会社Ｋ．Ｔ,,合同会社,千葉県,船橋市,西船４丁目２３番８号第二十河ビル２階２０２号室,,12,204,2730031,,,,,,,2025-07-01,1,,,,,ケーティー,0
533,3070001043071,新規,0,2025-07-01,2025-07-01,ＳＯＦＩＹＡ株式会社,,株式会社,群馬県,館林市,苗木町１８０４番地の３２,,10,207,3740043,,,,,,,2025-07-01,1,,,,,ソフィア,0
536,3080003003493,新規,0,2025-07-01,2025-07-01,合同会社ＪＵＮＥＸ,,合同会社,静岡県,榛原郡吉田町,川尻７７５－２１,,22,424,4210302,,,,,,,2025-07-01,1,,,,,ジュネックス,0
552,3120001277192,新規,0,2025-07-01,2025-07-01,花花株式会社,,株式会社,大阪府,大阪市淀川区,十三本町１丁目１８－７－８０１,,27,123,5320024,,,,,,,2025-07-01,1,,,,,ハナバナ,0
553,3120001277333,新規,0,2025-07-01,2025-07-01,文信株式会社,,株式会社,大阪府,大阪市西区,北堀江２丁目３番１０号４０７号,,27,106,5500014,,,,,,,2025-07-01,1,,,,,ブンシン,0
554,3120001277382,新規,0,2025-07-01,2025-07-01,株式会社大地,,株式会社,大阪府,大阪市中央区,平野町２丁目１番２号沢の鶴ビル７階,,27,128,5410046,,,,,,,2025-07-01,1,,,,,ダイチ,0
557,3120901051119,新規,0,2025-07-01,2025-07-01,株式会社Ｎｏｂｌｅｓ,,株式会社,大阪府,豊中市,上新田２丁目２４番１号,,27,203,5600085,,,,,,,2025-07-01,1,,,,,ノーブルズ,0
558,3120901051135,新規,0,2025-07-01,2025-07-01,Ｍ．Ｄ．Ｌ株式会社,,株式会社,大阪府,豊中市,蛍池北町二丁目３－４７－６－１０１号,,27,203,5600000,,,,,,,2025-07-01,1,,,,,エムディエル,0
559,3120901051143,新規,0,2025-07-01,2025-07-01,株式会社オーラルウェル,,株式会社,大阪府,豊中市,本町３丁目１－２６ティオ阪急豊中内１階,,27,203,5600021,,,,,,,2025-07-01,1,,,,,オーラルウェル,0
567,3130003010583,新規,0,2025-07-01,2025-07-01,パインボトム合同会社,,合同会社,京都府,京都市北区,平野桜木町１２番地８,,26,101,6038364,,,,,,,2025-07-01,1,,,,,パインボトム,0
572,3140001139102,新規,0,2025-07-01,2025-07-01,株式会社ＭＹＦ,,株式会社,兵庫県,尼崎市,西昆陽２丁目１９番４０号,,28,202,6610047,,,,,,,2025-07-01,1,,,,,エムワイエフ,0
583,3180001167512,新規,0,2025-07-01,2025-07-01,株式会社Ａ,,株式会社,愛知県,名古屋市中川区,打出１丁目９４番地,,23,110,4540926,,,,,,,2025-07-01,1,,,,,エー,0
586,3180003028687,新規,0,2025-07-01,2025-07-01,バレサプ合同会社,,合同会社,愛知県,名古屋市中村区,名駅３丁目４－１０アルティメイト名駅１ｓｔ２階,,23,105,4500002,,,,,,,2025-07-01,1,,,,,バレサプ,0
595,3250001021216,新規,0,2025-07-01,2025-07-01,株式会社ハーモニア,,株式会社,山口県,周南市,大字櫛ヶ浜４９９番地の４,,35,215,7450805,,,,,,,2025-07-01,1,,,,,ハーモニア,0
602,3280001009448,新規,0,2025-07-01,2025-07-01,株式会社デジタルツイン総合研究所,,株式会社,島根県,雲南市,加茂町加茂中１１９１番地,,32,209,6991106,,,,,,,2025-07-01,1,,,,,デジタルツインソウゴウケンキュウジョ,0
609,3290001110551,新規,0,2025-07-01,2025-07-01,株式会社ファルリーベ,,株式会社,福岡県,福岡市博多区,光丘町１丁目３番２３－７０３,,40,132,8120874,,,,,,,2025-07-01,1,,,,,ファルリーベ,0
618,3320001021191,新規,0,2025-07-01,2025-07-01,株式会社おおいた健康運動発達支援研究所,,株式会社,大分県,大分市,賀来南１丁目１３番１６号,,44,201,8700849,,,,,,,2025-07-01,1,,,,,オオイタケンコウウンドウハッタツシエンケンキュウショ,0
623,3370001052760,新規,0,2025-07-01,2025-07-01,ＵＭＥ株式会社,,株式会社,宮城県,仙台市太白区,泉崎１丁目２１番５８号,,04,104,9820031,,,,,,,2025-07-01,1,,,,,ユーエムイー,0
630,3400001017082,新規,0,2025-07-01,2025-07-01,緑進建設株式会社,,株式会社,岩手県,盛岡市,小鳥沢１丁目２８番１０号,,03,201,0200104,,,,,,,2025-07-01,1,,,,,リョクシンシンケンセツ,0
647,3460301005302,新規,0,2025-07-01,2025-07-01,株式会社ＫＨ環境ラボ,,株式会社,北海道,北見市,中央三輪２丁目３１６番地４６,,01,208,0900837,,,,,,,2025-07-01,1,,,,,ケイエイチカンキョウラボ,0
650,3470001020781,新規,0,2025-07-01,2025-07-01,株式会社むらかみ商店,,株式会社,香川県,観音寺市,大野原町大野原２８９１番地,,37,205,7691611,,,,,,,2025-07-01,1,,,,,ムラカミショウテン,0
661,4010001256223,新規,0,2025-07-01,2025-07-01,株式会社カクサスバイオ,,株式会社,東京都,中央区,銀座１丁目２２番１１号,,13,102,1040061,,,,,,,2025-07-01,1,,,,,カクサスバイオ,0
662,4010001256256,新規,0,2025-07-01,2025-07-01,株式会社ロビンズ,,株式会社,東京都,千代田区,麹町３丁目５番地４麹町インテリジェントビルＢ－１,,13,101,1020083,,,,,,,2025-07-01,1,,,,,ロビンズ,0
663,4010001256413,新規,0,2025-07-01,2025-07-01,セカンドスマート投資株式会社,,株式会社,東京都,中央区,日本橋室町１丁目１１番１２号日本橋水野ビル７階,,13,102,1030022,,,,,,,2025-07-01,1,,,,,セカンドスマートトウシ,0
665,4010003047835,新規,0,2025-07-01,2025-07-01,合同会社プラチナ,,合同会社,東京都,千代田区,二番町３番地麹町スクエア株式会社シリウス・アドバイザリー内,,13,101,1020084,,,,,,,2025-07-01,1,,,,,プラチナ,0
666,4010003047851,新規,0,2025-07-01,2025-07-01,合同会社ＹＫ電機,,合同会社,東京都,千代田区,外神田５丁目２番５号フロンティア外神田ビル,,13,101,1010021,,,,,,,2025-07-01,1,,,,,ワイケーデンキ,0
667,4010005040292,新規,0,2025-07-01,2025-07-01,東京レジＳＲ３一般社団法人,,その他の設立登記法人,東京都,千代田区,丸の内１丁目４番１号東京共同会計事務所内,,13,101,1000005,,,,,,,2025-07-01,1,,,,,トウキョウレジエスアールスリー,0
670,4010401191383,新規,0,2025-07-01,2025-07-01,株式会社プロシス不動産投資顧問,,株式会社,東京都,港区,三田１丁目４－２８三田国際ビル１３Ｆ,,13,103,1080073,,,,,,,2025-07-01,1,,,,,プロシスフドウサントウシコモン,0
679,4010801036304,新規,0,2025-07-01,2025-07-01,アセットリンク株式会社,,株式会社,東京都,大田区,矢口２丁目１１番７号,,13,111,1460093,,,,,,,2025-07-01,1,,,,,アセットリンク,0
680,4010803005455,新規,0,2025-07-01,2025-07-01,合同会社ｒｅｍａｒｋｅｔｉｎＧ,,合同会社,東京都,大田区,久が原５丁目１４－１メゾン・ド・久が原３０２,,13,111,1460085,,,,,,,2025-07-01,1,,,,,リマーケティング,0
683,4011001170447,新規,0,2025-07-01,2025-07-01,株式会社Ｂｕｓｈ　ｃｌｏｖｅｒ　Ｓｔａｒ,,株式会社,東京都,目黒区,大橋２丁目１２番９号パレスＫＹ－３０２,,13,110,1530044,,,,,,,2025-07-01,1,,,,,ブッシュクローバースター,0
684,4011003021870,新規,0,2025-07-01,2025-07-01,コーザル・ファウンドリ合同会社,,合同会社,東京都,渋谷区,恵比寿南１丁目１番１号ヒューマックス恵比寿ビル８Ｆ,,13,113,1500022,,,,,,,2025-07-01,1,,,,,コーザルファウンドリ,0
686,4011005011060,新規,0,2025-07-01,2025-07-01,一般社団法人アスリート・エンパワーメント,,その他の設立登記法人,東京都,渋谷区,神南１丁目１１番４号ＦＰＧリンクス神南５階,,13,113,1500041,,,,,,,2025-07-01,1,,,,,アスリートエンパワーメント,0
690,4011101112282,新規,0,2025-07-01,2025-07-01,ＬＵＣＫＹ　ＨＯＵＳＩＮＧ株式会社,,株式会社,東京都,新宿区,高田馬場１丁目３１番８号高田馬場ダイカンプラザ１００１号室,,13,104,1690075,,,,,,,2025-07-01,1,,,,,ラッキーハウジング,0
693,4011501032270,新規,0,2025-07-01,2025-07-01,株式会社月下,,株式会社,東京都,荒川区,東日暮里２丁目４８番１３号,,13,118,1160014,,,,,,,2025-07-01,1,,,,,ゲッカ,0
697,4011703004299,新規,0,2025-07-01,2025-07-01,Ｗｅｌｌ‐ｂｅｉｎｇ合同会社,,合同会社,東京都,江戸川区,上一色２丁目１４番８号メゾン清水２０１,,13,123,1330041,,,,,,,2025-07-01,1,,,,,ウェルビーイング,0
700,4011803006947,新規,0,2025-07-01,2025-07-01,合同会社Ｂｏｏｓｔｉｆｙ,,合同会社,東京都,葛飾区,西亀有４丁目２１番２号ＴＣビル４０２,,13,122,1250002,,,,,,,2025-07-01,1,,,,,ブースティファイ,0
702,4012801024065,新規,0,2025-07-01,2025-07-01,株式会社ＯｒｂＲｏｏｋ,,株式会社,東京都,日野市,大坂上４丁目２０番地の１０５,,13,212,1910061,,,,,,,2025-07-01,1,,,,,オアブルック,0
710,4020001163600,新規,0,2025-07-01,2025-07-01,株式会社ｔｅｔｅ,,株式会社,神奈川県,横浜市戸塚区,矢部町１３５―４７名和ビル１Ｆ―Ｂ,,14,110,2440002,,,,,,,2025-07-01,1,,,,,テテ,0
711,4020001163625,新規,0,2025-07-01,2025-07-01,タヅネ建設株式会社,,株式会社,神奈川県,横浜市旭区,今宿西町５７７番地２,,14,112,2410031,,,,,,,2025-07-01,1,,,,,タヅネケンセツ,0
713,4020003028743,新規,0,2025-07-01,2025-07-01,ＡＱＵＡ８合同会社,,合同会社,神奈川県,川崎市幸区,鹿島田２丁目１番２８―５０５号鹿島田セントラルマンション,,14,132,2120058,,,,,,,2025-07-01,1,,,,,アクアエイト,0
714,4020003028834,新規,0,2025-07-01,2025-07-01,合同会社ｐｍｈ．ｉｎｃ,,合同会社,神奈川県,横浜市戸塚区,平戸４丁目１６番５２号－Ｂ１,,14,110,2440802,,,,,,,2025-07-01,1,,,,,ピーエムエイチドットインク,0
716,4021001085636,新規,0,2025-07-01,2025-07-01,株式会社ＴＴ,,株式会社,神奈川県,茅ヶ崎市,赤羽根１３６１番地,,14,207,2530001,,,,,,,2025-07-01,1,,,,,ティーティー,0
724,4030001167360,新規,0,2025-07-01,2025-07-01,株式会社ジェイズ,,株式会社,埼玉県,さいたま市見沼区,春岡１丁目３５番地４,,11,104,3370008,,,,,,,2025-07-01,1,,,,,ジェイズ,0
725,4030001167385,新規,0,2025-07-01,2025-07-01,株式会社テクノリンク,,株式会社,埼玉県,川口市,幸町１丁目３番１－９０２号,,11,203,3320016,,,,,,,2025-07-01,1,,,,,テクノリンク,0
731,4040003027958,新規,0,2025-07-01,2025-07-01,Ｚ＆Ｈ合同会社,,合同会社,千葉県,松戸市,古ケ崎２丁目３２２２番地の６,,12,207,2710068,,,,,,,2025-07-01,1,,,,,ゼットアンドエイチ,0
733,4050001056875,新規,0,2025-07-01,2025-07-01,株式会社スマイル総合設備,,株式会社,茨城県,猿島郡五霞町,大字元栗橋６５番地１,,08,542,3060313,,,,,,,2025-07-01,1,,,,,スマイルソウゴウセツビ,0
737,4050003009385,新規,0,2025-07-01,2025-07-01,和泉ホールディングス合同会社,,合同会社,茨城県,坂東市,逆井２８２９番地４９,,08,228,3060501,,,,,,,2025-07-01,1,,,,,イズミホールディングス,0
753,4110001039386,新規,0,2025-07-01,2025-07-01,株式会社Ｈ＆Ｔ,,株式会社,新潟県,三条市,直江町３丁目２番３９号,,15,204,9550832,,,,,,,2025-07-01,1,,,,,エイチアンドティ,0
754,4110003005799,新規,0,2025-07-01,2025-07-01,ＣＬＯＷＳ合同会社,,合同会社,新潟県,南魚沼市,六日町２８１５番地１,,15,226,9496680,,,,,,,2025-07-01,1,,,,,クロウズ,0
764,4120001277316,新規,0,2025-07-01,2025-07-01,坂本篠一株式会社,,株式会社,大阪府,大阪市西成区,松１丁目６番３号,,27,122,5570034,,,,,,,2025-07-01,1,,,,,サカモトシュウイチ,0
765,4120001277349,新規,0,2025-07-01,2025-07-01,株式会社Ｓ１Ｓグループ,,株式会社,大阪府,門真市,岸和田４丁目７番１４－４Ｂ,,27,223,5710002,,,,,,,2025-07-01,1,,,,,エスワンエスグループ,0
766,4120001277381,新規,0,2025-07-01,2025-07-01,株式会社ＨＩＤＥＮ,,株式会社,大阪府,大阪市生野区,中川４丁目１９番１３号,,27,116,5440005,,,,,,,2025-07-01,1,,,,,ハイデン,0
770,4120103006548,新規,0,2025-07-01,2025-07-01,合同会社ＴＡＳＵＫＩ,,合同会社,大阪府,羽曳野市,高鷲３丁目５番３１号,,27,222,5830882,,,,,,,2025-07-01,1,,,,,タスキ,0
771,4120901051142,新規,0,2025-07-01,2025-07-01,株式会社ノースナイン,,株式会社,大阪府,高槻市,南平台３丁目２５番１９号,,27,207,5691042,,,,,,,2025-07-01,1,,,,,ノースナイン,0
775,4130003010582,新規,0,2025-07-01,2025-07-01,ＧＡＰＡＯ合同会社,,合同会社,京都府,京都市中京区,聚楽廻東町２４－５－１Ｆ,,26,104,6048404,,,,,,,2025-07-01,1,,,,,ガパオ,0
779,4140001139051,新規,0,2025-07-01,2025-07-01,株式会社なかけい,,株式会社,兵庫県,西宮市,日野町４番３８号,,28,204,6638022,,,,,,,2025-07-01,1,,,,,ナカケイ,0
780,4140001139101,新規,0,2025-07-01,2025-07-01,株式会社ＳＨＩＮＫＯ,,株式会社,兵庫県,神戸市長田区,御船通５丁目６番地の９,,28,106,6530832,,,,,,,2025-07-01,1,,,,,シンコウ,0
782,4140003022255,新規,0,2025-07-01,2025-07-01,合同会社ＨＥＲＯＥＳ,,合同会社,兵庫県,丹波市,春日町黒井１０１６番地,,28,223,6694141,,,,,,,2025-07-01,1,,,,,ヒーローズ,0
783,4150003003642,新規,0,2025-07-01,2025-07-01,パインストアハウス合同会社,,合同会社,奈良県,奈良市,西大寺国見町２丁目３－１９,,29,201,6310823,,,,,,,2025-07-01,1,,,,,パインストアハウス,0
787,4180001167379,新規,0,2025-07-01,2025-07-01,株式会社ＧＳ,,株式会社,愛知県,名古屋市中村区,名駅３丁目４－１０アルティメイト名駅１ｓｔ２階,,23,105,4500002,,,,,,,2025-07-01,1,,,,,ジーエス,0
788,4180001167478,新規,0,2025-07-01,2025-07-01,株式会社ＳＴＵＤＹ　ＳＱＵＡＲＥ,,株式会社,愛知県,尾張旭市,東栄町１丁目１６番地１３メゾン森島４０２,,23,226,4880011,,,,,,,2025-07-01,1,,,,,スタディスクエア,0
789,4180001167503,新規,0,2025-07-01,2025-07-01,株式会社ＲＩＣＥＮＥ,,株式会社,愛知県,知多市,にしの台４丁目２３番地の２３,,23,224,4780055,,,,,,,2025-07-01,1,,,,,ライシーン,0
799,4240001065130,新規,0,2025-07-01,2025-07-01,株式会社ＰＡＯ,,株式会社,広島県,広島市南区,東雲本町３丁目７番１号,,34,103,7340023,,,,,,,2025-07-01,1,,,,,パオ,0
800,4240003007279,新規,0,2025-07-01,2025-07-01,アークレジデンス合同会社,,合同会社,広島県,尾道市,西藤町４２６番地５,,34,205,7290142,,,,,,,2025-07-01,1,,,,,アークレジデンス,0
811,4290001110542,新規,0,2025-07-01,2025-07-01,株式会社ＦＭＥ,,株式会社,福岡県,大牟田市,大字歴木１８０７番地９０,,40,202,8370924,,,,,,,2025-07-01,1,,,,,エフエムイー,0
812,4290001110575,新規,0,2025-07-01,2025-07-01,株式会社ｍｅｌ,,株式会社,福岡県,大野城市,上大利２丁目１４番２１号,,40,219,8160955,,,,,,,2025-07-01,1,,,,,メル,0
813,4290003017059,新規,0,2025-07-01,2025-07-01,三江合同会社,,合同会社,福岡県,福岡市東区,馬出２丁目２０－２６プレアール県庁前１０１室,,40,131,8120054,,,,,,,2025-07-01,1,,,,,ミツエ,0
816,4290801031649,新規,0,2025-07-01,2025-07-01,株式会社ＳＧＣ,,株式会社,福岡県,北九州市門司区,柳町３丁目１番１号,,40,101,8000025,,,,,,,2025-07-01,1,,,,,エスジーシー,0
820,4310003005036,新規,0,2025-07-01,2025-07-01,合同会社ながさき為石,,合同会社,長崎県,西彼杵郡時津町,浜田郷５６２番地５,,42,308,8512102,,,,,,,2025-07-01,1,,,,,ナガサキタメシ,0
821,4320005010248,新規,0,2025-07-01,2025-07-01,一般社団法人Ｓｔｅｐ　Ｃｏｍｐａｎｙ,,その他の設立登記法人,大分県,大分市,東春日町１１番１０号コンフォート春日,,44,201,8700037,,,,,,,2025-07-01,1,,,,,ステップカンパニー,0
822,4330001033342,新規,0,2025-07-01,2025-07-01,株式会社ＫＡＷＡＴＯＭＩ　ＪＡＰＡＮ,,株式会社,熊本県,熊本市中央区,新市街７番２０号ヴィレラ辛島５０２号,,43,101,8600803,,,,,,,2025-07-01,1,,,,,カワトミジャパン,0
826,4340005009882,新規,0,2025-07-01,2025-07-01,シャトー鴨池管理組合法人,,その他の設立登記法人,鹿児島県,鹿児島市,鴨池２丁目１１番１３号,,46,201,8900063,,,,,,,2025-07-01,1,,,,,シャトーカモイケ,0
840,4430003017787,新規,0,2025-07-01,2025-07-01,合同会社ＲＡＳＨＥＥＤ　ＴＲＡＤＥＲＳ,,合同会社,北海道,芦別市,北四条西２丁目１５番地５,,01,216,0750004,,,,,,,2025-07-01,1,,,,,ラシードトレーダーズ,0
842,4450001014660,新規,0,2025-07-01,2025-07-01,株式会社Ｉ．ＳＴＯＲＹグループ,,株式会社,北海道,旭川市,緑が丘南一条１丁目１番７号,,01,204,0788811,,,,,,,2025-07-01,1,,,,,アイストーリーグループ,0
843,4450003002688,新規,0,2025-07-01,2025-07-01,合同会社意心帰,,合同会社,北海道,旭川市,旭町二条２丁目９番地の３８８,,01,204,0700832,,,,,,,2025-07-01,1,,,,,イシンキ,0
849,4700150105739,新規,0,2025-07-01,2021-11-12,昭和工業団地協議会,,その他,奈良県,大和郡山市,筒井町８００番地パナソニック株式会社内,,29,203,6391123,,,,,,,2021-11-12,1,,,,,シヨウワコウギヨウダンチキヨウギカイ,0
859,5010001256362,新規,0,2025-07-01,2025-07-01,Ｔ＆Ｋ　Ｎｅｘｕｓ株式会社,,株式会社,東京都,中央区,八丁堀３丁目２６－９ＶＯＲＴ八丁堀２階,,13,102,1040032,,,,,,,2025-07-01,1,,,,,ティーアンドケーネクサス,0
860,5010001256404,新規,0,2025-07-01,2025-07-01,株式会社ＧＬＯＤＥＮ,,株式会社,東京都,中央区,銀座１丁目１９番１４号銀座ＯＮＥビル６階,,13,102,1040061,,,,,,,2025-07-01,1,,,,,グローディン,0
861,5010001256420,新規,0,2025-07-01,2025-07-01,株式会社オーガスタスリー,,株式会社,東京都,中央区,銀座１丁目１２番４号Ｎ＆ＥＢＬＤ,,13,102,1040061,,,,,,,2025-07-01,1,,,,,オーガスタスリー,0
864,5010003047834,新規,0,2025-07-01,2025-07-01,合同会社パール,,合同会社,東京都,千代田区,二番町３番地麹町スクエア株式会社シリウス・アドバイザリー内,,13,101,1020084,,,,,,,2025-07-01,1,,,,,パール,0
865,5010003047850,新規,0,2025-07-01,2025-07-01,ＨＨＨ２合同会社,,合同会社,東京都,中央区,日本橋室町４丁目３番９号,,13,102,1030022,,,,,,,2025-07-01,1,,,,,エイチエイチエイチツー,0
866,5010003047859,新規,0,2025-07-01,2025-07-01,合同会社Ｇａｌａｘｙ,,合同会社,東京都,中央区,銀座１丁目１２番４号Ｎ＆ＥＢＬＤ．６Ｆ,,13,102,1040061,,,,,,,2025-07-01,1,,,,,ギャラクシー,0
867,5010005040291,新規,0,2025-07-01,2025-07-01,東京レジＳＲ２一般社団法人,,その他の設立登記法人,東京都,千代田区,丸の内１丁目４番１号東京共同会計事務所内,,13,101,1000005,,,,,,,2025-07-01,1,,,,,トウキョウレジエスアールツー,0
874,5010401191390,新規,0,2025-07-01,2025-07-01,トランスイグナイト株式会社,,株式会社,東京都,港区,高輪１丁目２７番４１－８０７号,,13,103,1080074,,,,,,,2025-07-01,1,,,,,トランスイグナイト,0
884,5010601067531,新規,0,2025-07-01,2025-07-01,パナソニックＨＶＡＣ＆ＣＣシステムズ株式会社,,株式会社,東京都,墨田区,押上１丁目１番２号,,13,107,1310045,,,,,,,2025-07-01,1,,,,,パナソニックエイチバックアンドシーシーシステムズ,0
891,5011001170371,新規,0,2025-07-01,2025-07-01,株式会社ＡｓｓｅｔＨｕｂ,,株式会社,東京都,渋谷区,円山町６番７号,,13,113,1500044,,,,,,,2025-07-01,1,,,,,アセットハブ,0
892,5011001170495,新規,0,2025-07-01,2025-07-01,株式会社アダムベース,,株式会社,東京都,渋谷区,宇田川町４番７号トウセン宇田川町ビル５Ｆ,,13,113,1500042,,,,,,,2025-07-01,1,,,,,アダムベース,0
897,5011101112273,新規,0,2025-07-01,2025-07-01,新日通株式会社,,株式会社,東京都,新宿区,西早稲田１丁目９番１３－６０３号,,13,104,1690051,,,,,,,2025-07-01,1,,,,,シンニッツウ,0
898,5011101112281,新規,0,2025-07-01,2025-07-01,株式会社ベッセル,,株式会社,東京都,新宿区,歌舞伎町２丁目１５番２－４０１号,,13,104,1600021,,,,,,,2025-07-01,1,,,,,ベッセル,0
899,5011101112315,新規,0,2025-07-01,2025-07-01,株式会社ＫＥＥＬＬ,,株式会社,東京都,新宿区,西新宿３丁目３番１３号西新宿水間ビル６階,,13,104,1600023,,,,,,,2025-07-01,1,,,,,キール,0
900,5011101112323,新規,0,2025-07-01,2025-07-01,株式会社王商事,,株式会社,東京都,新宿区,歌舞伎町１丁目２２番１号６階６０２号室,,13,104,1600021,,,,,,,2025-07-01,1,,,,,オウショウジ,0
901,5011103016068,新規,0,2025-07-01,2025-07-01,合同会社Ａｒｃｈｅ,,合同会社,東京都,新宿区,西新宿３丁目３番１３号西新宿水間ビル６Ｆ,,13,104,1600023,,,,,,,2025-07-01,1,,,,,アルシェ,0
904,5011201026472,新規,0,2025-07-01,2025-07-01,株式会社ＴＥＩＫＥＴＵ,,株式会社,東京都,中野区,本町２丁目５０番２号,,13,114,1640012,,,,,,,2025-07-01,1,,,,,テイケツ,0
910,5011605002656,新規,0,2025-07-01,2025-07-01,特定非営利活動法人Ｍｏｂｉｌｉｔｙ　ｆｏｒ　Ｈｕｍａｎｉｔｙ,,その他の設立登記法人,東京都,練馬区,羽沢３丁目３７番１６－１０３号,,13,120,1760003,,,,,,,2025-07-01,1,,,,,モビリティフォーヒューマニティ,0
913,5011801046374,新規,0,2025-07-01,2025-07-01,株式会社エーメタル,,株式会社,東京都,足立区,鹿浜６丁目１６番１４号,,13,121,1230864,,,,,,,2025-07-01,1,,,,,エーメタル,0
914,5011801046382,新規,0,2025-07-01,2025-07-01,株式会社展示科学研究所,,株式会社,東京都,葛飾区,東新小岩８丁目１５番９号,,13,122,1240023,,,,,,,2025-07-01,1,,,,,テンジカガクケンキュウジョ,0
918,5012405005130,新規,0,2025-07-01,2025-07-01,一般社団法人遊みもざ,,その他の設立登記法人,東京都,府中市,緑町２丁目２０番地の１２,,13,206,1830006,,,,,,,2025-07-01,1,,,,,ユウミモザ,0
923,5020001163632,新規,0,2025-07-01,2025-07-01,バトン・コンサルティング株式会社,,株式会社,神奈川県,横浜市青葉区,つつじが丘５番地１－２０６,,14,117,2270055,,,,,,,2025-07-01,1,,,,,バトンコンサルティング,0
926,5020003028825,新規,0,2025-07-01,2025-07-01,ＴＴＭＵＪＩ合同会社,,合同会社,神奈川県,横浜市港北区,綱島東６丁目１１番３０号,,14,109,2230052,,,,,,,2025-07-01,1,,,,,ティーティームジ,0
928,5020005016902,新規,0,2025-07-01,2025-07-01,一般社団法人ＯＵＴＢＡＣＫプロジェクト,,その他の設立登記法人,神奈川県,横浜市都筑区,中川中央１丁目３番６号ノアヒューテット４０２,,14,118,2240003,,,,,,,2025-07-01,1,,,,,アウトバックプロジェクト,0
933,5021003016217,新規,0,2025-07-01,2025-07-01,あさひ文庫合同会社,,合同会社,神奈川県,藤沢市,朝日町１５番地の２,,14,205,2510054,,,,,,,2025-07-01,1,,,,,,0
934,5021003016233,新規,0,2025-07-01,2025-07-01,合同会社平塚Ｅパワー,,合同会社,神奈川県,平塚市,天沼６番３５－５０２号パークリージェンシー湘南平塚,,14,203,2540031,,,,,,,2025-07-01,1,,,,,ヒラツカイーパワー,0
942,5030001167327,新規,0,2025-07-01,2025-07-01,株式会社ネクサス,,株式会社,埼玉県,加須市,不動岡３丁目４７番地３,,11,210,3470054,,,,,,,2025-07-01,1,,,,,ネクサス,0
943,5030001167351,新規,0,2025-07-01,2025-07-01,ＡＫライフパートナー株式会社,,株式会社,埼玉県,川口市,幸町２丁目７番２６号シミズビル,,11,203,3320016,,,,,,,2025-07-01,1,,,,,エイケイライフパートナー,0
944,5030001167376,新規,0,2025-07-01,2025-07-01,千優メディカルサポート在宅看護株式会社,,株式会社,埼玉県,川口市,朝日２丁目１－３２,,11,203,3320001,,,,,,,2025-07-01,1,,,,,チユウメディカルサポートザイタクカンゴ,0
946,5030003027099,新規,0,2025-07-01,2025-07-01,ＬｉｎＢｏｎｇＣｈｕｎ合同会社,,合同会社,埼玉県,川口市,川口５丁目９番３７号ＭＹＳＴ－Ｆ号室,,11,203,3320015,,,,,,,2025-07-01,1,,,,,リンボンチュン,0
947,5030003027108,新規,0,2025-07-01,2025-07-01,合同会社アポクラフト,,合同会社,埼玉県,越谷市,北越谷１丁目１４－１２－３０２,,11,222,3430026,,,,,,,2025-07-01,1,,,,,アポクラフト,0
952,5040001139234,新規,0,2025-07-01,2025-07-01,株式会社グリーンエステート,,株式会社,千葉県,市原市,五井５９３８番地１,,12,219,2900056,,,,,,,2025-07-01,1,,,,,グリーンエステート,0
953,5040001139416,新規,0,2025-07-01,2025-07-01,株式会社ＥＩＷＡ,,株式会社,千葉県,袖ケ浦市,蔵波台５丁目１６番地３,,12,229,2990245,,,,,,,2025-07-01,1,,,,,エイワ,0
954,5040001139440,新規,0,2025-07-01,2025-07-01,株式会社Ｃ‐Ｃｕｂｅ,,株式会社,千葉県,市川市,湊新田２丁目７番１８号（ＬＵＭＩＮＯＵＳ２０１号）,,12,203,2720132,,,,,,,2025-07-01,1,,,,,シーキューブ,0
957,5050001000741,新規,0,2025-07-01,2025-07-01,株式会社亀印商事,,株式会社,茨城県,水戸市,見川町２１３９番地の５,,08,201,3100913,,,,,,,2025-07-01,1,,,,,カメジルシショウジ,0
959,5050003009392,新規,0,2025-07-01,2025-07-01,合同会社銀宮,,合同会社,茨城県,日立市,旭町１丁目７番地７号,,08,202,3170074,,,,,,,2025-07-01,1,,,,,,0
960,5070001043061,新規,0,2025-07-01,2025-07-01,株式会社ＡＲＥＹＭ,,株式会社,群馬県,桐生市,広沢町５丁目１３８３番地４,,10,203,3760013,,,,,,,2025-07-01,1,,,,,アレイム,0
963,5080003003491,新規,0,2025-07-01,2025-07-01,合同会社ＡＮワークス,,合同会社,静岡県,焼津市,相川２５１６番地,,22,212,4210216,,,,,,,2025-07-01,1,,,,,エーエヌワークス,0
974,5110001039385,新規,0,2025-07-01,2025-07-01,株式会社柏刈産業企画,,株式会社,新潟県,柏崎市,大字中田１８０３番地,,15,205,9450113,,,,,,,2025-07-01,1,,,,,カシカリサンギョウキカク,0
981,5120001277091,新規,0,2025-07-01,2025-07-01,長生嶺株式会社,,株式会社,大阪府,大阪市住之江区,浜口西１丁目１３－１５カトレアビル２０２,,27,125,5590006,,,,,,,2025-07-01,1,,,,,チョウセイレイ,0
982,5120001277125,新規,0,2025-07-01,2025-07-01,盛栄サプライチェーン株式会社,,株式会社,大阪府,大阪市西成区,橘１丁目１１－２８オフィスポート橘３１１号室,,27,122,5570051,,,,,,,2025-07-01,1,,,,,セイエイサプライチェーン,0
983,5120001277265,新規,0,2025-07-01,2025-07-01,株式会社風花,,株式会社,大阪府,大阪市鶴見区,横堤３丁目３番１９－４０１号,,27,124,5380052,,,,,,,2025-07-01,1,,,,,カザハナ,0
984,5120001277298,新規,0,2025-07-01,2025-07-01,株式会社エスリアル,,株式会社,大阪府,枚方市,岡山手町２番５３－３０５号,,27,210,5730034,,,,,,,2025-07-01,1,,,,,エスリアル,0
985,5120001277348,新規,0,2025-07-01,2025-07-01,ＭＬＯＳＡ　ＪＰ株式会社,,株式会社,大阪府,大阪市北区,本庄東３丁目３番７号マンション淀２０３Ｄ,,27,127,5310074,,,,,,,2025-07-01,1,,,,,ムロサジェイピー,0
986,5120001277380,新規,0,2025-07-01,2025-07-01,義澤株式会社,,株式会社,大阪府,大阪市西成区,橘１丁目１１番２８号,,27,122,5570051,,,,,,,2025-07-01,1,,,,,ヨシザワ,0
987,5120001277397,新規,0,2025-07-01,2025-07-01,味達産業株式会社,,株式会社,大阪府,大阪市中央区,南船場１丁目８番１７号,,27,128,5420081,,,,,,,2025-07-01,1,,,,,ミタツサンギョウ,0
992,5120003029846,新規,0,2025-07-01,2025-07-01,ＫＩＴＡ合同会社,,合同会社,大阪府,門真市,舟田町３５－８－２Ｆ,,27,223,5710021,,,,,,,2025-07-01,1,,,,,キタ,0
998,5120101071980,新規,0,2025-07-01,2025-07-01,藤井興産株式会社,,株式会社,大阪府,堺市中区,新家町５４０番地１１,,27,142,5998232,,,,,,,2025-07-01,1,,,,,フジイコウサン,0
1000,5120901051141,新規,0,2025-07-01,2025-07-01,ＷＩＬＬ　ＰＲＩＭＥ株式会社,,株式会社,大阪府,吹田市,山田西３丁目２５番２２号,,27,205,5650824,,,,,,,2025-07-01,1,,,,,ウィルプライム,0
1001,5122001039380,新規,0,2025-07-01,2025-07-01,ＹＹ整理センター株式会社,,株式会社,大阪府,柏原市,本郷１丁目３番７号,,27,221,5820001,,,,,,,2025-07-01,1,,,,,ワイワイセイリセンター,0
1005,5130001079982,新規,0,2025-07-01,2025-07-01,株式会社星屑企画,,株式会社,京都府,京田辺市,大住姫ノ垣内４番地の１,,26,211,6100343,,,,,,,2025-07-01,1,,,,,ホシクズキカク,0
1006,5130003010581,新規,0,2025-07-01,2025-07-01,京都おから工房合同会社,,合同会社,京都府,京都市左京区,下鴨北茶ノ木町２５番地の３,,26,103,6060844,,,,,,,2025-07-01,1,,,,,キョウトオカラコウボウ,0
1016,5140003022254,新規,0,2025-07-01,2025-07-01,合同会社環境総合調査所トライアングル,,合同会社,兵庫県,三木市,緑が丘町中２丁目３番地の３,,28,215,6730532,,,,,,,2025-07-01,1,,,,,カンキョウソウゴウチョウサショトライアングル,0
1036,5220001026769,新規,0,2025-07-01,2025-07-01,株式会社松風舍,,株式会社,石川県,輪島市,門前町道下弐四１３番地２,,17,204,9272164,,,,,,,2025-07-01,1,,,,,ショウフウシャ,0
1056,5290001110525,新規,0,2025-07-01,2025-07-01,株式会社ＮＥＸＳＩＡ,,株式会社,福岡県,嘉麻市,山野２１７４番地１８,,40,227,8200202,,,,,,,2025-07-01,1,,,,,ネクシア,0
1063,5330003011080,新規,0,2025-07-01,2025-07-01,合同会社匡智設備,,合同会社,熊本県,熊本市北区,楡木３丁目２番４９号,,43,105,8618083,,,,,,,2025-07-01,1,,,,,キョウチセツビ,0
1064,5340001027466,新規,0,2025-07-01,2025-07-01,株式会社西建土木工業,,株式会社,鹿児島県,曽於市,末吉町南之郷４３４０番地,,46,217,8998608,,,,,,,2025-07-01,1,,,,,ニシケンドボクコウギョウ,0
1077,5380003006076,新規,0,2025-07-01,2025-07-01,合同会社ＢｌｏｏｍＬｉｎｋ,,合同会社,福島県,郡山市,図景２丁目１１－２８図景ヒルズ４０１,,07,203,9638834,,,,,,,2025-07-01,1,,,,,ブルームリンク,0
1102,6010001256378,新規,0,2025-07-01,2025-07-01,アップルゴリラ株式会社,,株式会社,東京都,中央区,日本橋馬喰町１丁目５番６号９階,,13,102,1030002,,,,,,,2025-07-01,1,,,,,アップルゴリラ,0
1104,6010003047833,新規,0,2025-07-01,2025-07-01,合同会社ダイヤモンド,,合同会社,東京都,千代田区,二番町３番地麹町スクエア株式会社シリウス・アドバイザリー内,,13,101,1020084,,,,,,,2025-07-01,1,,,,,ダイヤモンド,0
1105,6010005040290,新規,0,2025-07-01,2025-07-01,東京レジＳＲ１一般社団法人,,その他の設立登記法人,東京都,千代田区,丸の内１丁目４番１号東京共同会計事務所内,,13,101,1000005,,,,,,,2025-07-01,1,,,,,トウキョウレジエスアールワン,0
1121,6010701047894,新規,0,2025-07-01,2025-07-01,ＬＫＳ株式会社,,株式会社,東京都,品川区,北品川５丁目２０番１号メゾーネ御殿山１０２,,13,109,1410001,,,,,,,2025-07-01,1,,,,,ルクス,0
1125,6010801036319,新規,0,2025-07-01,2025-07-01,株式会社Ｊ１９,,株式会社,東京都,大田区,中央５丁目１１番１８号,,13,111,1430024,,,,,,,2025-07-01,1,,,,,ジェイナインティーン,0
1128,6010905004790,新規,0,2025-07-01,2025-07-01,一般社団法人ＧＸ１２,,その他の設立登記法人,東京都,世田谷区,松原２丁目３２番３２号アークファビラス１階,,13,112,1560043,,,,,,,2025-07-01,1,,,,,ジーエックストゥエルブ,0
1135,6011101112330,新規,0,2025-07-01,2025-07-01,株式会社巨鴨,,株式会社,東京都,新宿区,西新宿３丁目３番１３号西新宿水間ビル２Ｆ,,13,104,1600023,,,,,,,2025-07-01,1,,,,,キョガモ,0
1136,6011101112339,新規,0,2025-07-01,2025-07-01,ＺＭ株式会社,,株式会社,東京都,新宿区,西新宿７丁目７番２８―４０２号,,13,104,1600023,,,,,,,2025-07-01,1,,,,,ジーエム,0
1137,6011303005613,新規,0,2025-07-01,2025-07-01,合同会社ＬＩＦＴＥＸ,,合同会社,東京都,杉並区,方南２丁目２－６－１０１,,13,115,1680062,,,,,,,2025-07-01,1,,,,,リフテック,0
1147,6013303007655,新規,0,2025-07-01,2025-07-01,合同会社ｍａｇｅｎｔａ　ｃｌｏｖｅｒ,,合同会社,東京都,豊島区,高田３丁目６番１０,,13,116,1710033,,,,,,,2025-07-01,1,,,,,マゼンタクローバー,0
1148,6013303007746,新規,0,2025-07-01,2025-07-01,Ａｋａｍｅ合同会社,,合同会社,東京都,豊島区,東池袋２丁目６２番８号ＢＩＧオフィスプラザ池袋１２０６,,13,116,1700013,,,,,,,2025-07-01,1,,,,,アカメ,0
1157,6020003028816,新規,0,2025-07-01,2025-07-01,合同会社ｕｐｓｅｔｔｅｒｓ,,合同会社,神奈川県,横浜市神奈川区,金港町５―１４クアドリフォリオ８階,,14,102,2210056,,,,,,,2025-07-01,1,,,,,アップセッターズ,0
1158,6021001085667,新規,0,2025-07-01,2025-07-01,株式会社ＢＥＣＫ,,株式会社,神奈川県,茅ヶ崎市,東海岸南１丁目２２番３―３１３号,,14,207,2530054,,,,,,,2025-07-01,1,,,,,ベック,0
1159,6021003016166,新規,0,2025-07-01,2025-07-01,ウラカタ合同会社,,合同会社,神奈川県,茅ヶ崎市,鶴が台２番５－２０２号,,14,207,2530003,,,,,,,2025-07-01,1,,,,,ウラカタ,0
1164,6030001167367,新規,0,2025-07-01,2025-07-01,株式会社潤天通商,,株式会社,埼玉県,川口市,並木１丁目１３番３２－６０８号エバーグリーン川口,,11,203,3320034,,,,,,,2025-07-01,1,,,,,ジュンテンツウショウ,0
1165,6030001167375,新規,0,2025-07-01,2025-07-01,株式会社Ｎ設計一級建築士事務所,,株式会社,埼玉県,狭山市,中央２丁目４９－４Ｆ－ｓｔｅｐ狭山中央２０２号室,,11,215,3501308,,,,,,,2025-07-01,1,,,,,エヌセッケイイッキュウケンチクジムショ,0
1171,6040001139043,新規,0,2025-07-01,2025-07-01,株式会社ｉＹａｋｕ　Ｊａｐａｎ,,株式会社,千葉県,流山市,南流山３丁目１０―８ダイヤモンドクレスト南流山１Ｆ,,12,220,2700163,,,,,,,2025-07-01,1,,,,,イヤクジャパン,0
1172,6040001139431,新規,0,2025-07-01,2025-07-01,株式会社どさんこ,,株式会社,千葉県,千葉市中央区,生実町１７６７―５,,12,101,2600813,,,,,,,2025-07-01,1,,,,,ドサンコ,0
1173,6040001139448,新規,0,2025-07-01,2025-07-01,オービットネット株式会社,,株式会社,千葉県,木更津市,東太田４丁目７番５号,,12,206,2920043,,,,,,,2025-07-01,1,,,,,オービットネット,0
1177,6050001056840,新規,0,2025-07-01,2025-07-01,株式会社乃印,,株式会社,茨城県,水戸市,元吉田町１９７１‐１ＴＭビル,,08,201,3100836,,,,,,,2025-07-01,1,,,,,,0
1180,6050003009383,新規,0,2025-07-01,2025-07-01,合同会社イルミナーレ未来,,合同会社,茨城県,つくば市,小茎２１６番地５,,08,220,3001255,,,,,,,2025-07-01,1,,,,,,0
1183,6080101025593,新規,0,2025-07-01,2025-07-01,株式会社Ｍ‐Ｐｌｕｓ,,株式会社,静岡県,駿東郡清水町,徳倉１６０５番地の３５,,22,341,4110917,,,,,,,2025-07-01,1,,,,,エムプラス,0
1196,6120001277090,新規,0,2025-07-01,2025-07-01,青い猫株式会社,,株式会社,大阪府,大阪市住之江区,浜口西１丁目１３－１５カトレアビル２０２,,27,125,5590006,,,,,,,2025-07-01,1,,,,,アオイネコ,0
1197,6120001277289,新規,0,2025-07-01,2025-07-01,惟正綜合株式会社,,株式会社,大阪府,大阪市西成区,橘１丁目１１番２８号,,27,122,5570051,,,,,,,2025-07-01,1,,,,,イイマサソウゴウ,0
1198,6120001277347,新規,0,2025-07-01,2025-07-01,ＲＵＫＭＡ　ＶＩＭＡＮＡ株式会社,,株式会社,大阪府,大阪市北区,本庄東３丁目３番７号マンション淀２０３Ｂ,,27,127,5310074,,,,,,,2025-07-01,1,,,,,ルクマヴィマーナ,0
1199,6120001277355,新規,0,2025-07-01,2025-07-01,株式会社Ａｃｏｎｓｅ,,株式会社,大阪府,大阪市阿倍野区,西田辺町１丁目１番４号末森ビル１Ｆ,,27,119,5450014,,,,,,,2025-07-01,1,,,,,アコンセ,0
1200,6120001277405,新規,0,2025-07-01,2025-07-01,秋華産業株式会社,,株式会社,大阪府,大阪市西成区,岸里東１丁目２２－１－３０２号,,27,122,5570042,,,,,,,2025-07-01,1,,,,,シュウカサンギョウ,0
1201,6120001277413,新規,0,2025-07-01,2025-07-01,Ｑｕａｋｅｒ　Ｃｏａｔｉｎｇ　Ｊａｐａｎ株式会社,,株式会社,大阪府,大阪市住之江区,新北島１丁目４番１５－２０３号,,27,125,5590024,,,,,,,2025-07-01,1,,,,,クエーカーコーティングジャパン,0
1203,6120003029878,新規,0,2025-07-01,2025-07-01,合同会社山椿,,合同会社,大阪府,大阪市中央区,南久宝寺町１丁目７番１１号ラシュレエグゼ本町１４０１号室,,27,128,5410058,,,,,,,2025-07-01,1,,,,,ヤマツバキ,0
1204,6120003029894,新規,0,2025-07-01,2025-07-01,合同会社ＶＣＷｉｎｇｓ,,合同会社,大阪府,大阪市生野区,中川２丁目１６‐３‐２０２,,27,116,5440005,,,,,,,2025-07-01,1,,,,,ヴィーシーウィングス,0
1205,6120101071963,新規,0,2025-07-01,2025-07-01,株式会社栄真建設,,株式会社,大阪府,和泉市,伯太町１丁目１１番１２号,,27,219,5940023,,,,,,,2025-07-01,1,,,,,エイシンケンセツ,0
1206,6120101071988,新規,0,2025-07-01,2025-07-01,株式会社ＪＲＭ,,株式会社,大阪府,南河内郡河南町,大字寺田２１４番地２,,27,382,5850011,,,,,,,2025-07-01,1,,,,,ジェイアールエム,0
1207,6120103006546,新規,0,2025-07-01,2025-07-01,合同会社トゥモロービズ,,合同会社,大阪府,堺市堺区,向陵西町１丁５番２０号,,27,141,5900026,,,,,,,2025-07-01,1,,,,,トゥモロービズ,0
1217,6130001080015,新規,0,2025-07-01,2025-07-01,株式会社ｃｏｃｏｒｏｓｓｏ,,株式会社,京都府,京都市西京区,大枝中山町１番地３２５,,26,111,6101104,,,,,,,2025-07-01,1,,,,,ココロッソ,0
1221,6140001139090,新規,0,2025-07-01,2025-07-01,クラリオンテック株式会社,,株式会社,兵庫県,神戸市東灘区,御影中町１丁目８番７号ブライト御影４０５号,,28,101,6580054,,,,,,,2025-07-01,1,,,,,クラリオンテック,0
1222,6140001139124,新規,0,2025-07-01,2025-07-01,株式会社広田塗装,,株式会社,兵庫県,尼崎市,武庫豊町２丁目７番２３号,,28,202,6610045,,,,,,,2025-07-01,1,,,,,ヒロタトソウ,0
1227,6140003022253,新規,0,2025-07-01,2025-07-01,Ｊ＆Ｈマネジメント合同会社,,合同会社,兵庫県,川辺郡猪名川町,白金３丁目２４番地６５,,28,301,6660257,,,,,,,2025-07-01,1,,,,,ジェイアンドエイチマネジメント,0
1238,6180001167476,新規,0,2025-07-01,2025-07-01,Ａｎｔｗｅｒｐ株式会社,,株式会社,愛知県,知多郡武豊町,字前田３４番地６,,23,447,4702338,,,,,,,2025-07-01,1,,,,,アントワープ,0
1240,6180003028676,新規,0,2025-07-01,2025-07-01,ＭＡＲＵＴＯＹＯ合同会社,,合同会社,愛知県,知多郡南知多町,大字日間賀島字広地２４番地の１,,23,445,4703504,,,,,,,2025-07-01,1,,,,,マルトヨ,0
1241,6180003028684,新規,0,2025-07-01,2025-07-01,エミフル合同会社,,合同会社,愛知県,知多郡武豊町,大字冨貴字郷北２１番地２,,23,447,4702531,,,,,,,2025-07-01,1,,,,,エミフル,0
1245,6220001026768,新規,0,2025-07-01,2025-07-01,株式会社ＡＳＫホールディングス,,株式会社,石川県,金沢市,伏見新町２７８番地,,17,201,9218172,,,,,,,2025-07-01,1,,,,,エーエスケーホールディングス,0
1250,6240001065129,新規,0,2025-07-01,2025-07-01,株式会社ＪＡ‐ＫＥＹ,,株式会社,広島県,広島市中区,大手町２丁目１１番２５号２階,,34,101,7300051,,,,,,,2025-07-01,1,,,,,ジャケェ,0
1256,6260001040311,新規,0,2025-07-01,2025-07-01,株式会社令和運輸,,株式会社,岡山県,岡山市南区,松浜町５番地２３,,33,104,7028038,,,,,,,2025-07-01,1,,,,,レイワウンユ,0
1269,6290001110549,新規,0,2025-07-01,2025-07-01,株式会社電伝電,,株式会社,福岡県,福岡市中央区,舞鶴３丁目８番１号まいづる中央ビル２階,,40,133,8100073,,,,,,,2025-07-01,1,,,,,デンデンデン,0
1270,6290001110557,新規,0,2025-07-01,2025-07-01,株式会社ＦＩＬＩＱＵＥ,,株式会社,福岡県,大野城市,乙金台３丁目４番１６号,,40,219,8160903,,,,,,,2025-07-01,1,,,,,フィリック,0
1277,6330001033340,新規,0,2025-07-01,2025-07-01,株式会社ファーストステージ,,株式会社,熊本県,八代市,新港町２丁目２１番地,,43,202,8660034,,,,,,,2025-07-01,1,,,,,ファーストステージ,0
1284,6370001052758,新規,0,2025-07-01,2025-07-01,株式会社Ｂｒｅａｔｈ,,株式会社,宮城県,仙台市青葉区,中央２丁目１１－１９仙南ビル４階－Ａ,,04,101,9800021,,,,,,,2025-07-01,1,,,,,ブレス,0
1285,6370005010984,新規,0,2025-07-01,2025-07-01,一般社団法人日本養鶏パートナー協会,,その他の設立登記法人,宮城県,仙台市青葉区,中央２丁目１１－１９仙南ビル４階－Ａ,,04,101,9800021,,,,,,,2025-07-01,1,,,,,ニホンヨウケイパートナーキョウカイ,0
1292,6430003017810,新規,0,2025-07-01,2025-07-01,Ｃａｌｍｆｕｌｌ合同会社,,合同会社,北海道,岩見沢市,西川町３８１番地１,,01,210,0680048,,,,,,,2025-07-01,1,,,,,カームフル,0
1293,6430003017819,新規,0,2025-07-01,2025-07-01,合同会社オフィスプエンテ,,合同会社,北海道,札幌市豊平区,美園八条５丁目２番５－１００２号,,01,105,0620008,,,,,,,2025-07-01,1,,,,,オフィスプエンテ,0
1295,6430005015259,新規,0,2025-07-01,2025-07-01,一般社団法人ＪＯＹＴＯＷＯＲＫＳ,,その他の設立登記法人,北海道,札幌市中央区,南二条西５丁目３１－１ＲＭＢｌｄ．７０１,,01,101,0600062,,,,,,,2025-07-01,1,,,,,ジョイトゥワークス,0
1304,6700150054505,新規,0,2025-07-01,2015-10-09,北川キララ,,その他,岡山県,笠岡市,走出４１０２－１,,33,205,7140001,,,,,,,2015-10-09,1,,,,,キタガワキララ,0
1319,7010001256261,新規,0,2025-07-01,2025-07-01,匠選株式会社,,株式会社,東京都,文京区,千石４丁目１４番９号,,13,105,1120011,,,,,,,2025-07-01,1,,,,,ショウセン,0
1320,7010001256369,新規,0,2025-07-01,2025-07-01,リベス株式会社,,株式会社,東京都,千代田区,飯田橋２丁目４番３号,,13,101,1020072,,,,,,,2025-07-01,1,,,,,リベス,0
1321,7010001256377,新規,0,2025-07-01,2025-07-01,麗人プロジェクト株式会社,,株式会社,東京都,中央区,銀座１丁目１２－４Ｎ＆ＥＢＬＤ．６Ｆ,,13,102,1040061,,,,,,,2025-07-01,1,,,,,レイジンプロジェクト,0
1322,7010001256427,新規,0,2025-07-01,2025-07-01,株式会社ムキムキ,,株式会社,東京都,千代田区,神田和泉町１－６－１６ヤマトビル４０５,,13,101,1010024,,,,,,,2025-07-01,1,,,,,ムキムキ,0
1324,7010103002605,新規,0,2025-07-01,2025-07-01,合同会社オースカ,,合同会社,東京都,八王子市,南大沢２丁目１番地６京王南大沢駅改札内,,13,201,1920364,,,,,,,2025-07-01,1,,,,,オースカ,0
1342,7010801036318,新規,0,2025-07-01,2025-07-01,株式会社はやて,,株式会社,東京都,大田区,田園調布２丁目５１番３号,,13,111,1450071,,,,,,,2025-07-01,1,,,,,ハヤテ,0
1352,7011003021851,新規,0,2025-07-01,2025-07-01,合同会社ｃｒｙｓｔａｌ　ｍｉｎｔ,,合同会社,東京都,渋谷区,神泉町１０番１５号アネックス神泉３０１,,13,113,1500045,,,,,,,2025-07-01,1,,,,,クリスタルミント,0
1356,7011103016066,新規,0,2025-07-01,2025-07-01,ワイズ・コンサルティングス合同会社,,合同会社,東京都,新宿区,四谷３丁目１１番地山一ビル,,13,104,1600004,,,,,,,2025-07-01,1,,,,,ワイズコンサルティングス,0
1366,7011803006944,新規,0,2025-07-01,2025-07-01,Ｈｉｎｏａｕｒａ合同会社,,合同会社,東京都,足立区,千住４丁目３０番４号,,13,121,1200034,,,,,,,2025-07-01,1,,,,,ヒノアウラ,0
1371,7012401043297,新規,0,2025-07-01,2025-07-01,株式会社Ｓ・Ｆ・Ｔパートナーズ,,株式会社,東京都,狛江市,猪方３丁目３２番９号メゾンボヌール２０２,,13,219,2010015,,,,,,,2025-07-01,1,,,,,エスエフティーパートナーズ,0
1381,7020001163440,新規,0,2025-07-01,2025-07-01,Ｋｉｎｋｉ株式会社,,株式会社,神奈川県,川崎市川崎区,港町５番３－６２４,,14,131,2100807,,,,,,,2025-07-01,1,,,,,キンキ,0
1382,7020001163606,新規,0,2025-07-01,2025-07-01,ＡＹＳ株式会社,,株式会社,神奈川県,横浜市中区,新山下２丁目１１番２７－５０６号,,14,104,2310801,,,,,,,2025-07-01,1,,,,,エーワイエス,0
1388,7021001085625,新規,0,2025-07-01,2025-07-01,株式会社ＦＴＡＭ,,株式会社,神奈川県,足柄下郡箱根町,湯本６４７番地,,14,382,2500311,,,,,,,2025-07-01,1,,,,,エフティーエイエム,0
1389,7021001085658,新規,0,2025-07-01,2025-07-01,株式会社ＭＰＨＡＳ,,株式会社,神奈川県,足柄下郡箱根町,湯本２１７番地の１,,14,382,2500311,,,,,,,2025-07-01,1,,,,,エムファス,0
1394,7021003016207,新規,0,2025-07-01,2025-07-01,合同会社ビジョンエイト,,合同会社,神奈川県,大和市,中央林間３丁目２６番２６号,,14,213,2420007,,,,,,,2025-07-01,1,,,,,ビジョンエイト,0
1405,7030001167341,新規,0,2025-07-01,2025-07-01,株式会社山根,,株式会社,埼玉県,加須市,柳生１８００番地１,,11,210,3491201,,,,,,,2025-07-01,1,,,,,ヤマネ,0
1406,7030001167358,新規,0,2025-07-01,2025-07-01,株式会社ＷＥＡＶＥ,,株式会社,埼玉県,坂戸市,千代田４丁目７番２４－１０１号,,11,239,3500214,,,,,,,2025-07-01,1,,,,,ウィーブ,0
1408,7030003027097,新規,0,2025-07-01,2025-07-01,Ｐｏｍａｌａ合同会社,,合同会社,埼玉県,川越市,幸町８番地１８,,11,201,3500063,,,,,,,2025-07-01,1,,,,,ポマラ,0
1416,7040003027963,新規,0,2025-07-01,2025-07-01,俊潤合同会社,,合同会社,千葉県,千葉市花見川区,南花園２丁目５番１８－３０４号,,12,102,2620022,,,,,,,2025-07-01,1,,,,,シュンジュン,0
1417,7050003009390,新規,0,2025-07-01,2025-07-01,合同会社Ｃａｒｅ‐Ｓｍａｒｔ,,合同会社,茨城県,東茨城郡茨城町,大字小幡１３１６‐１１６,,08,302,3113157,,,,,,,2025-07-01,1,,,,,,0
1427,7080401027999,新規,0,2025-07-01,2025-07-01,株式会社ＴＬＡＣＱ,,株式会社,静岡県,浜松市中央区,上新屋町２３７番地の６,,22,138,4350053,,,,,,,2025-07-01,1,,,,,ティラシック,0
1431,7110001039375,新規,0,2025-07-01,2025-07-01,株式会社かねこ,,株式会社,新潟県,糸魚川市,大町２丁目４番４６号１０１,,15,216,9410061,,,,,,,2025-07-01,1,,,,,カネコ,0
1432,7110001039383,新規,0,2025-07-01,2025-07-01,株式会社ＥＸＣＥＥＤ,,株式会社,新潟県,新潟市東区,牡丹山１丁目１５番１１号,,15,102,9500872,,,,,,,2025-07-01,1,,,,,イクシード,0
1439,7120001277346,新規,0,2025-07-01,2025-07-01,陽明建設株式会社,,株式会社,大阪府,大阪市中央区,南久宝寺町１丁目６番１５－２０２号室,,27,128,5410058,,,,,,,2025-07-01,1,,,,,ヨウメイケンセツ,0
1444,7120901051148,新規,0,2025-07-01,2025-07-01,株式会社Ｃｏｌｏｒｚ　Ｌｉｎｋ,,株式会社,大阪府,池田市,大和町２番１－２０１号,,27,204,5630054,,,,,,,2025-07-01,1,,,,,カラーズリンク,0
1449,7130001079972,新規,0,2025-07-01,2025-07-01,株式会社井尻興業,,株式会社,京都府,京丹後市,大宮町口大野９５８番地の２,,26,212,6292501,,,,,,,2025-07-01,1,,,,,イジリコウギョウ,0
1450,7130001080006,新規,0,2025-07-01,2025-07-01,株式会社ＳＪＫ　ＴＥＣＨ,,株式会社,京都府,長岡京市,開田３丁目４番９号,,26,209,6170826,,,,,,,2025-07-01,1,,,,,エスジェイケイテック,0
1455,7140001139049,新規,0,2025-07-01,2025-07-01,株式会社ＳＩＲＩＵＳ　ＧＲＯＵＰ,,株式会社,兵庫県,神戸市須磨区,千歳町４丁目３番２６－１０３号,,28,107,6540027,,,,,,,2025-07-01,1,,,,,シリウスグループ,0
1456,7140001139107,新規,0,2025-07-01,2025-07-01,株式会社玉響,,株式会社,兵庫県,伊丹市,伊丹６丁目６番９号,,28,207,6640846,,,,,,,2025-07-01,1,,,,,タマユラ,0
1458,7140003022252,新規,0,2025-07-01,2025-07-01,合同会社Ｋ．Ｊｅｗｅｌｒｙ,,合同会社,兵庫県,神戸市灘区,上河原通３丁目４番１４－４０１号,,28,102,6570055,,,,,,,2025-07-01,1,,,,,ケイジュエリー,0
1465,7180001167467,新規,0,2025-07-01,2025-07-01,株式会社ＴＮＣ,,株式会社,愛知県,名古屋市西区,上名古屋３丁目２５番３５号（第２猪村ビルディング７０１号）,,23,104,4510025,,,,,,,2025-07-01,1,,,,,ティーエヌシー,0
1466,7180001167475,新規,0,2025-07-01,2025-07-01,株式会社ＭＨコンサルティング,,株式会社,愛知県,名古屋市天白区,高島１丁目１３０１番地の１,,23,116,4680022,,,,,,,2025-07-01,1,,,,,エムエイチコンサルティング,0
1469,7180003028675,新規,0,2025-07-01,2025-07-01,サードビュー合同会社,,合同会社,愛知県,清須市,春日神明５２番地,,23,233,4520962,,,,,,,2025-07-01,1,,,,,サードビュー,0
1479,7220003004069,新規,0,2025-07-01,2025-07-01,合同会社小川設備,,合同会社,石川県,野々市市,新庄４丁目９５番地,,17,212,9218824,,,,,,,2025-07-01,1,,,,,オガワセツビ,0
1489,7290001110564,新規,0,2025-07-01,2025-07-01,株式会社ＨＥＬＬＯ,,株式会社,福岡県,福岡市西区,豊浜２丁目１９番９号,,40,135,8190014,,,,,,,2025-07-01,1,,,,,ハロー,0
1492,7290003017023,新規,0,2025-07-01,2025-07-01,合同会社カナエル,,合同会社,福岡県,糟屋郡篠栗町,津波黒１丁目１６番４３号サンパラッツォＩＩ４０３号室,00139757,40,342,8112415,,,,,,,2025-07-01,1,,,,,カナエル,0
1493,7290801031654,新規,0,2025-07-01,2025-07-01,株式会社ＲｅＲａｉｓｅ,,株式会社,福岡県,北九州市若松区,高須東４丁目３番３－１０３号,,40,103,8080144,,,,,,,2025-07-01,1,,,,,リレイズ,0
1496,7320001021188,新規,0,2025-07-01,2025-07-01,株式会社文教ＡＦＭ,,株式会社,大分県,由布市,挾間町古野１２１３番地,,44,213,8795511,,,,,,,2025-07-01,1,,,,,ブンキョウエーエフエム,0
1497,7320003004703,新規,0,2025-07-01,2025-07-01,合同会社ＬＲＧ,,合同会社,大分県,別府市,駅前本町９－２０オフィスＨＯＯＤ,,44,202,8740934,,,,,,,2025-07-01,1,,,,,エルアールジー,0
1499,7330001033331,新規,0,2025-07-01,2025-07-01,株式会社Ｗｅｌｌｔｏｐ　Ｆａｒｍ,,株式会社,熊本県,宇城市,豊野町下郷１３３２番地,,43,213,8614304,,,,,,,2025-07-01,1,,,,,ウェルトップファーム,0
1505,7370001052757,新規,0,2025-07-01,2025-07-01,株式会社ライスフィールド,,株式会社,宮城県,大崎市,岩出山上野目字新天王寺１６番地,,04,215,9896403,,,,,,,2025-07-01,1,,,,,ライスフィールド,0
1506,7370001052765,新規,0,2025-07-01,2025-07-01,株式会社ｈｉｍｏｒｉ,,株式会社,宮城県,仙台市太白区,茂庭台４丁目３－３－２００３,,04,104,9820252,,,,,,,2025-07-01,1,,,,,ヒモリ,0
1507,7370003007172,新規,0,2025-07-01,2025-07-01,合同会社タレントビレッジ,,合同会社,宮城県,仙台市青葉区,中央２丁目１１－１９仙南ビル４階－Ａ,,04,101,9800021,,,,,,,2025-07-01,1,,,,,タレントビレッジ,0
1521,7500001026375,新規,0,2025-07-01,2025-07-01,株式会社ドットクラフト,,株式会社,愛媛県,伊予市,灘町２９４番地,,38,210,7993114,,,,,,,2025-07-01,1,,,,,ドットクラフト,0
1523,7700150115990,新規,0,2025-07-01,2023-05-10,木曽町　日義学童クラブ　くすくす,,その他,長野県,木曽郡木曽町,日義１６２２－１,,20,432,3996101,,,,,,,2023-05-10,1,,,,,キソマチヒヨシガクドウクラブクスクス,0
1541,8010001255758,新規,0,2025-07-01,2025-07-01,マネータックス株式会社,,株式会社,東京都,中央区,日本橋室町１丁目１１番１２号日本橋水野ビル７階,,13,102,1030022,,,,,,,2025-07-01,1,,,,,マネータックス,0
1542,8010001256260,新規,0,2025-07-01,2025-07-01,Ｆｏｒ．Ｕ　Ｉｎｔｅｒｎａｔｉｏｎａｌ　Ｌｏｇｉｓｔｉｃｓ株式会社,,株式会社,東京都,文京区,千石４丁目１４番９号,,13,105,1120011,,,,,,,2025-07-01,1,,,,,フォーユーインターナショナルロジスティクス,0
1545,8010003047848,新規,0,2025-07-01,2025-07-01,合同会社大磯エナジー,,合同会社,東京都,千代田区,外神田５丁目２番５号フロンティア外神田ビル,,13,101,1010021,,,,,,,2025-07-01,1,,,,,オオイソエナジー,0
1546,8010005040256,新規,0,2025-07-01,2025-07-01,一般社団法人電源ドナー協会,,その他の設立登記法人,東京都,中央区,入船１丁目１番２６号,,13,102,1040042,,,,,,,2025-07-01,1,,,,,デンゲンドナー,0
1547,8010005040264,新規,0,2025-07-01,2025-07-01,一般社団法人ＷＳ４,,その他の設立登記法人,東京都,中央区,京橋２丁目１２番６号ＡＯＪ税理士法人内,,13,102,1040031,,,,,,,2025-07-01,1,,,,,ダブリューエスフォー,0
1563,8010801036325,新規,0,2025-07-01,2025-07-01,株式会社ＪＷエンタープライズ,,株式会社,東京都,大田区,南蒲田１丁目６番１４－２０２号,,13,111,1440035,,,,,,,2025-07-01,1,,,,,ジェイダブリューエンタープライズ,0
1564,8010903010054,新規,0,2025-07-01,2025-07-01,合同会社まだある,,合同会社,東京都,世田谷区,東玉川２丁目１８番１４号,,13,112,1580084,,,,,,,2025-07-01,1,,,,,マダアル,0
1565,8010905004789,新規,0,2025-07-01,2025-07-01,一般社団法人日本映像クリエイター協会,,その他の設立登記法人,東京都,世田谷区,宮坂１丁目２１－２０アサヒビル２Ｆ,,13,112,1560051,,,,,,,2025-07-01,1,,,,,ニホンエイゾウクリエイターキョウカイ,0
1568,8011001170294,新規,0,2025-07-01,2025-07-01,Ｂｕｎｚｚ株式会社,,株式会社,東京都,渋谷区,神南１丁目２３‐１０東急渋谷駅前ビルＭＡＧＮＥＴ４ＦＣｅｎｔｒｕｍ,,13,113,1500041,,,,,,,2025-07-01,1,,,,,バンズ,0
1569,8011003022023,新規,0,2025-07-01,2025-07-01,合同会社ｍｏｆｕ．,,合同会社,東京都,渋谷区,恵比寿３丁目２０番４号,,13,113,1500013,,,,,,,2025-07-01,1,,,,,モフ,0
1574,8011101112287,新規,0,2025-07-01,2025-07-01,株式会社ＦＣ　Ａｒｅｎａ,,株式会社,東京都,新宿区,西新宿５丁目１－１,,13,104,1600023,,,,,,,2025-07-01,1,,,,,エフシーアリーナ,0
1575,8011101112312,新規,0,2025-07-01,2025-07-01,株式会社ＳＫｃｏｍ,,株式会社,東京都,新宿区,西新宿５丁目８番１－６０２号第１ともえビル,,13,104,1600023,,,,,,,2025-07-01,1,,,,,エスケーコム,0
1578,8011103016073,新規,0,2025-07-01,2025-07-01,Ｙ＆Ｃ　ｗｅｌｌ合同会社,,合同会社,東京都,新宿区,榎町３４番地３榎町ビル５階－０４室,,13,104,1620806,,,,,,,2025-07-01,1,,,,,ワイアンドシーウェル,0
1583,8011501032267,新規,0,2025-07-01,2025-07-01,日本東京再生医学センター株式会社,,株式会社,東京都,荒川区,南千住３丁目２７－２浅草ビル５０８,,13,118,1160003,,,,,,,2025-07-01,1,,,,,ニホントウキョウサイセイイガクセンター,0
1587,8011601028768,新規,0,2025-07-01,2025-07-01,株式会社Ｔｉｅｒｒａ,,株式会社,東京都,練馬区,大泉町１丁目３番２３号,,13,120,1780062,,,,,,,2025-07-01,1,,,,,ティエラ,0
1589,8011803006935,新規,0,2025-07-01,2025-07-01,合同会社ソダテイル,,合同会社,東京都,足立区,一ツ家４丁目１４－８メンバーズヒル一ツ家Ｆ２,,13,121,1210075,,,,,,,2025-07-01,1,,,,,ソダテイル,0
1593,8013301054549,新規,0,2025-07-01,2025-07-01,ＹＵＷＡ株式会社,,株式会社,東京都,豊島区,西池袋５丁目１９－２０－１０２,,13,116,1710021,,,,,,,2025-07-01,1,,,,,ユワ,0
1604,8020003028822,新規,0,2025-07-01,2025-07-01,アステール合同会社,,合同会社,神奈川県,横浜市中区,常盤町３丁目２４番地サンビル８階,,14,104,2310014,,,,,,,2025-07-01,1,,,,,アステール,0
1605,8020003028830,新規,0,2025-07-01,2025-07-01,ＲＩＮＳ　ＭＥ合同会社,,合同会社,神奈川県,川崎市多摩区,登戸１２６５番地,,14,135,2140014,,,,,,,2025-07-01,1,,,,,リンズミー,0
1606,8021001085624,新規,0,2025-07-01,2025-07-01,株式会社つむぎ,,株式会社,神奈川県,足柄下郡箱根町,強羅１３２２番地の２３,,14,382,2500408,,,,,,,2025-07-01,1,,,,,ツムギ,0
1607,8021001085632,新規,0,2025-07-01,2025-07-01,Ｇ＆Ｄ　ＣＯＮＳＵＬＴＩＮＧ株式会社,,株式会社,神奈川県,相模原市中央区,田名２１４４番地１１－２Ｆ,,14,152,2520244,,,,,,,2025-07-01,1,,,,,ジーアンドディーコンサルティング,0
1616,8030001167357,新規,0,2025-07-01,2025-07-01,株式会社ｃｏｃｏｒａｉ,,株式会社,埼玉県,三郷市,采女１丁目１０６－２,,11,237,3410011,,,,,,,2025-07-01,1,,,,,ココライ,0
1617,8030001167365,新規,0,2025-07-01,2025-07-01,株式会社Ｃｒｙｓｔａｌ　Ｒａｂｂｉｔ,,株式会社,埼玉県,所沢市,大字荒幡６００番地の３,,11,208,3591133,,,,,,,2025-07-01,1,,,,,クリスタルラビット,0
1618,8030001167398,新規,0,2025-07-01,2025-07-01,株式会社エスカンパニー,,株式会社,埼玉県,さいたま市緑区,東浦和３丁目７番地１１ノーブルクレイン２０１,,11,109,3360926,,,,,,,2025-07-01,1,,,,,エスカンパニー,0
1633,8070001043059,新規,0,2025-07-01,2025-07-01,サクラオート株式会社,,株式会社,群馬県,館林市,松原１丁目１５番１９号,,10,207,3740016,,,,,,,2025-07-01,1,,,,,サクラオート,0
1634,8070001043067,新規,0,2025-07-01,2025-07-01,株式会社Ｋ‐ＴＥＣ,,株式会社,群馬県,桐生市,梅田町３丁目９３番地,,10,203,3760601,,,,,,,2025-07-01,1,,,,,ケーテック,0
1635,8070001043091,新規,0,2025-07-01,2025-07-01,株式会社ＧＥＣｏｒｐｏｒａｔｉｏｎ,,株式会社,群馬県,伊勢崎市,下植木町９９９番地,,10,204,3720024,,,,,,,2025-07-01,1,,,,,ジーイーコーポレーション,0
1646,8110001039382,新規,0,2025-07-01,2025-07-01,株式会社きらく,,株式会社,新潟県,見附市,今町１丁目１５番７号,,15,211,9540111,,,,,,,2025-07-01,1,,,,,キラク,0
1653,8120001277196,新規,0,2025-07-01,2025-07-01,赫爾曼株式会社,,株式会社,大阪府,大阪市西成区,萩之茶屋２丁目６－４ニューかめや１６６号室,,27,122,5570004,,,,,,,2025-07-01,1,,,,,ヘルマン,0
1654,8120001277386,新規,0,2025-07-01,2025-07-01,三友スタート株式会社,,株式会社,大阪府,大阪市中央区,北新町１－１千倉ビル１０２号,,27,128,5400023,,,,,,,2025-07-01,1,,,,,サンユウスタート,0
1663,8120901051147,新規,0,2025-07-01,2025-07-01,株式会社ＵＥＮＯ,,株式会社,大阪府,箕面市,百楽荘２丁目５番３５号,,27,220,5620042,,,,,,,2025-07-01,1,,,,,ウエノ,0
1665,8120903005737,新規,0,2025-07-01,2025-07-01,Ｈａｂｉｃａ合同会社,,合同会社,大阪府,豊中市,若竹町２丁目５番５－２０５号,,27,203,5610811,,,,,,,2025-07-01,1,,,,,ハビカ,0
1671,8130001080005,新規,0,2025-07-01,2025-07-01,株式会社ラプラ,,株式会社,京都府,京都市南区,吉祥院清水町５番地２メゾンフェリシア３０１号,,26,107,6018329,,,,,,,2025-07-01,1,,,,,ラプラ,0
1678,8140001139080,新規,0,2025-07-01,2025-07-01,株式会社立夏舎,,株式会社,兵庫県,神戸市中央区,磯上通４丁目１番１４号三宮スカイビル７階,,28,110,6510086,,,,,,,2025-07-01,1,,,,,リッカシャ,0
1679,8140001139089,新規,0,2025-07-01,2025-07-01,株式会社Ｋｉｖａ,,株式会社,兵庫県,神戸市中央区,北長狭通３丁目５－１０ｎｏｒｏｓｉ．ｋｏｂｅ,,28,110,6500012,,,,,,,2025-07-01,1,,,,,キバ,0
1688,8160001026863,新規,0,2025-07-01,2025-07-01,ＦＵＳＩＯＮ　ＨＡＲＭＯＮＹ株式会社,,株式会社,滋賀県,草津市,穴村町５７６番地１,,25,206,5250012,,,,,,,2025-07-01,1,,,,,フュージョンハーモニー,0
1693,8180001167466,新規,0,2025-07-01,2025-07-01,株式会社エシカトラスト,,株式会社,愛知県,名古屋市緑区,森の里１丁目３０２番地,,23,114,4598002,,,,,,,2025-07-01,1,,,,,エシカトラスト,0
1694,8180001167508,新規,0,2025-07-01,2025-07-01,株式会社Ｇｅｎｅｒａｌ,,株式会社,愛知県,知多市,岡田字天神山１７番地の１,,23,224,4780021,,,,,,,2025-07-01,1,,,,,ジェネラル,0
1695,8180003028674,新規,0,2025-07-01,2025-07-01,合同会社ＮＥＸＴ　ＯＮＥ,,合同会社,愛知県,名古屋市中区,新栄２丁目４１番１２号（ＳＰＡＺＩＯＭＥＴＡＬＬＯ７０５号）,,23,106,4600007,,,,,,,2025-07-01,1,,,,,ネクストワン,0
1700,8220001026766,新規,0,2025-07-01,2025-07-01,株式会社宝匠建設,,株式会社,石川県,金沢市,駅西本町１丁目３番２０号近藤ビル２０１,,17,201,9200025,,,,,,,2025-07-01,1,,,,,ホウショウケンセツ,0
1701,8220003004068,新規,0,2025-07-01,2025-07-01,白山ジオライト合同会社,,合同会社,石川県,白山市,幸明町１７８番地３,,17,210,9240817,,,,,,,2025-07-01,1,,,,,ハクサンジオライト,0
1706,8240001065127,新規,0,2025-07-01,2025-07-01,マスターキー・アンド・カンパニー株式会社,,株式会社,広島県,広島市中区,西白島町１９番１－１００１号,,34,101,7300005,,,,,,,2025-07-01,1,,,,,マスターキーアンドカンパニー,0
1707,8260001040276,新規,0,2025-07-01,2025-07-01,株式会社ＲｅＲｅ,,株式会社,岡山県,岡山市北区,本町八丁目１５本町プラザ２階,,33,101,7000901,,,,,,,2025-07-01,1,,,,,リリ,0
1720,8290001110555,新規,0,2025-07-01,2025-07-01,株式会社宝龍水産,,株式会社,福岡県,福岡市中央区,長浜３丁目１１番３号８０６,,40,133,8100072,,,,,,,2025-07-01,1,,,,,ホウリュウスイサン,0
1730,8330005010929,新規,0,2025-07-01,2025-07-01,一般社団法人ねむの木,,その他の設立登記法人,熊本県,八代市,松江町１６３番地１,,43,202,8660883,,,,,,,2025-07-01,1,,,,,ネムノキ,0
1740,8410003004115,新規,0,2025-07-01,2025-07-01,十和田総合研究所合同会社,,合同会社,秋田県,鹿角郡小坂町,小坂字野口１番地,,05,303,0170201,,,,,,,2025-07-01,1,,,,,トワダソウゴウケンキュウジョ,0
1743,8430003017767,新規,0,2025-07-01,2025-07-01,合同会社Ｊ‐ＷＯＲＫＳ,,合同会社,北海道,岩内郡岩内町,字宮園２５５番地８,,01,402,0450012,,,,,,,2025-07-01,1,,,,,ジェイワークス,0
1745,8480001012872,新規,0,2025-07-01,2025-07-01,互栄パートナーズ株式会社,,株式会社,徳島県,阿波市,阿波町医王寺２３４番地１,,36,206,7711705,,,,,,,2025-07-01,1,,,,,ゴエイパートナーズ,0
1749,8700150131293,新規,0,2025-07-01,2025-07-01,ＲＡＪＡＲＡＴＡ　ＴＲＡＤＩＮＧ　ＬＡＮＫＡ　ＭＡＲＫＥＴＩＮＧ　ＰＶＴ　ＬＴＤ,,外国会社等,千葉県,山武市,蓮沼ニ４５６２番地１２,,12,237,2891805,スリランカ民主社会主義共和国、バトゥゴダ、カサワッタ、Ｎｏ．４６４／１Ｄ,,,,,,2025-07-01,1,,,,,ラジヤラタトレーデイングランカマーケテイングプライベートリミテツド,0
1757,9010001256409,新規,0,2025-07-01,2025-07-01,ＨＨＨ３株式会社,,株式会社,東京都,中央区,日本橋室町４丁目３番９号,,13,102,1030022,,,,,,,2025-07-01,1,,,,,エイチエイチエイチスリー,0
1759,9010003047830,新規,0,2025-07-01,2025-07-01,合同会社ｂｉｅｎ,,合同会社,東京都,中央区,銀座４丁目１１番３号ウィンド銀座ビル２階,,13,102,1040061,,,,,,,2025-07-01,1,,,,,ビエン,0
1771,9010405024527,新規,0,2025-07-01,2025-07-01,ピーピーエフエー・ジャパン・トゥエルブ特定目的会社,,その他の設立登記法人,東京都,港区,虎ノ門３丁目２２番１０－２０１号,,13,103,1050001,,,,,,,2025-07-01,1,,,,,ピーピーエフエージャパントゥエルブジャパン,0
1772,9010503007887,新規,0,2025-07-01,2025-07-01,Ｃｌｏｕｄ　ＳＰ１合同会社,,合同会社,東京都,台東区,上野７丁目１１番１０号,,13,106,1100005,,,,,,,2025-07-01,1,,,,,クロードエスピーワン,0
1777,9010801036316,新規,0,2025-07-01,2025-07-01,株式会社目黒ライフプラン研究所,,株式会社,東京都,大田区,仲池上２丁目２１番２－１０１,,13,111,1460081,,,,,,,2025-07-01,1,,,,,,0
1781,9010901057658,新規,0,2025-07-01,2025-07-01,株式会社ワイズシステムズホールディングス,,株式会社,東京都,世田谷区,野沢１丁目３５番１３－１００７号,,13,112,1540003,,,,,,,2025-07-01,1,,,,,ワイズシステムズホールディングス,0
1789,9011003022014,新規,0,2025-07-01,2025-07-01,合同会社ワイオミング,,合同会社,東京都,渋谷区,円山町５番３号ＭＩＥＵＸ渋谷ビル８階,,13,113,1500044,,,,,,,2025-07-01,1,,,,,ワイオミング,0
1795,9011201026469,新規,0,2025-07-01,2025-07-01,Ｔｏｋｉｍｅｋｉ株式会社,,株式会社,東京都,中野区,本町６丁目３５番１４の３０２号室,,13,114,1640012,,,,,,,2025-07-01,1,,,,,トキメキ,0
1796,9011303005610,新規,0,2025-07-01,2025-07-01,Ｃｉｎｎａｍｏｏｎ　Ｓｔｕｄｉｏ合同会社,,合同会社,東京都,杉並区,和田３丁目２－８－１０１,,13,115,1660012,,,,,,,2025-07-01,1,,,,,シナムーンスタジオ,0
1800,9011401027218,新規,0,2025-07-01,2025-07-01,株式会社のぞみアセット,,株式会社,東京都,板橋区,中丸町４３番８号,,13,119,1730026,,,,,,,2025-07-01,1,,,,,ノゾミアセット,0
1809,9011801046370,新規,0,2025-07-01,2025-07-01,株式会社Ｋ,,株式会社,東京都,足立区,千住１丁目２４－６ミルアールセンジュ２階,,13,121,1200034,,,,,,,2025-07-01,1,,,,,ケイ,0
1819,9021003016213,新規,0,2025-07-01,2025-07-01,合同会社Ｃ４,,合同会社,神奈川県,逗子市,逗子７丁目１３番２６号,,14,208,2490006,,,,,,,2025-07-01,1,,,,,シーヨン,0
1824,9030001167348,新規,0,2025-07-01,2025-07-01,株式会社グランドＳ,,株式会社,埼玉県,川口市,末広１丁目３番３１－７階,,11,203,3320006,,,,,,,2025-07-01,1,,,,,グランドエス,0
1825,9030001167397,新規,0,2025-07-01,2025-07-01,株式会社気っ風,,株式会社,埼玉県,越谷市,蒲生東町１８番３０号,,11,222,3430841,,,,,,,2025-07-01,1,,,,,キップ,0
1835,9040001139412,新規,0,2025-07-01,2025-07-01,トライスル株式会社,,株式会社,千葉県,我孫子市,栄２０番７－１号,,12,222,2701141,,,,,,,2025-07-01,1,,,,,トライスル,0
1837,9040003027945,新規,0,2025-07-01,2025-07-01,Ｄ合同会社,,合同会社,千葉県,市川市,市川１丁目１番１－７１２号市川メトロプラザ５,,12,203,2720034,,,,,,,2025-07-01,1,,,,,ディー,0
1841,9050001056846,新規,0,2025-07-01,2025-07-01,株式会社江田運送,,株式会社,茨城県,桜川市,大曽根５１９番地１,,08,231,3091232,,,,,,,2025-07-01,1,,,,,エダウンソウ,0
1842,9050001056862,新規,0,2025-07-01,2025-07-01,レイリーホールディングス株式会社,,株式会社,茨城県,水戸市,白梅１丁目６－２２ハクタビル１０１,,08,201,3100804,,,,,,,2025-07-01,1,,,,,レイリーホールディングス,0
1844,9050003009397,新規,0,2025-07-01,2025-07-01,合同会社Ｙｕｍｅ　Ｒｅａｌｉｚｅ,,合同会社,茨城県,つくばみらい市,西楢戸３９９番地３,,08,235,3002415,,,,,,,2025-07-01,1,,,,,ユメリアライズ,0
1845,9060001038331,新規,0,2025-07-01,2025-07-01,株式会社ゴーリカメーザス,,株式会社,栃木県,栃木市,柳橋町２１番１６号,,09,203,3280051,,,,,,,2025-07-01,1,,,,,ゴーリカメーザス,0
1849,9070001043066,新規,0,2025-07-01,2025-07-01,株式会社Ｃｏｎｎｅｃｔ,,株式会社,群馬県,高崎市,並榎町４１３番地５４,,10,202,3700802,,,,,,,2025-07-01,1,,,,,コネクト,0
1850,9070003005980,新規,0,2025-07-01,2025-07-01,合同会社ＡＳＣ,,合同会社,群馬県,前橋市,鶴光路町２４４番地,,10,201,3792141,,,,,,,2025-07-01,1,,,,,アスク,0
1852,9080101025599,新規,0,2025-07-01,2025-07-01,株式会社マルＴＨＰ,,株式会社,静岡県,富士市,大淵２４１０番地の１,,22,210,4170801,,,,,,,2025-07-01,1,,,,,マルティーエイチピー,0
1857,9080105006521,新規,0,2025-07-01,2025-07-01,一般社団法人天城トレイルワーカーズ,,その他の設立登記法人,静岡県,賀茂郡河津町,峰１０７３番地,,22,302,4130511,,,,,,,2025-07-01,1,,,,,アマギトレイルワーカーズ,0
1865,9100005013367,新規,0,2025-07-01,2025-07-01,一般社団法人発酵バレーＮＡＧＡＮＯ,,その他の設立登記法人,長野県,長野市,若里４丁目１７番１号、国際科学イノベーションセンター５０５号室（国立大学法人信州大学工学部内）,,20,201,3800928,,,,,,,2025-07-01,1,,,,,ハッコウバレーナガノ,0
1867,9110003005794,新規,0,2025-07-01,2025-07-01,合同会社まごころ配達,,合同会社,新潟県,三条市,新光町２３－５－２,,15,204,9550057,,,,,,,2025-07-01,1,,,,,マゴコロハイタツ,0
1872,9120001277195,新規,0,2025-07-01,2025-07-01,信和株式会社,,株式会社,大阪府,大阪市西成区,橘１丁目１１－２８オフィスポート橘４０９号室,,27,122,5570051,,,,,,,2025-07-01,1,,,,,シンワ,0
1873,9120001277385,新規,0,2025-07-01,2025-07-01,株式会社Ｄｅｆｉａｎｃｅ,,株式会社,大阪府,大阪市中央区,東心斎橋１丁目８－２エトワールスユド東心斎橋５０３,,27,128,5420083,,,,,,,2025-07-01,1,,,,,ディファイアンス,0
1874,9120001277435,新規,0,2025-07-01,2025-07-01,株式会社ＴＩＭＥＳ　ＰＡＳＳＩＯＮ,,株式会社,大阪府,大阪市中央区,本町１丁目５番７号,,27,128,5410053,,,,,,,2025-07-01,1,,,,,タイムズパッション,0
1876,9120101072001,新規,0,2025-07-01,2025-07-01,株式会社Ｒｏｉ住宅設備,,株式会社,大阪府,藤井寺市,川北２丁目４番２５号,,27,226,5830001,,,,,,,2025-07-01,1,,,,,ロイジュウタクセツビ,0
1878,9120103006543,新規,0,2025-07-01,2025-07-01,合同会社ＳＡＫＵＲＡ　ＡＮＨ　ＮＨＡＴ,,合同会社,大阪府,富田林市,錦織東１丁目６番５－１０２号,,27,214,5840069,,,,,,,2025-07-01,1,,,,,サクラアインニャット,0
1879,9120105010023,新規,0,2025-07-01,2025-07-01,特定非営利活動法人地域住民みまわりたい,,その他の設立登記法人,大阪府,岸和田市,三田町７４３番地の１,,27,202,5960808,,,,,,,2025-07-01,1,,,,,チイキジュウミンミマワリタイ,0
1880,9120901051146,新規,0,2025-07-01,2025-07-01,株式会社やまつみ,,株式会社,大阪府,豊中市,千里園１丁目２番７の６号,,27,203,5600046,,,,,,,2025-07-01,1,,,,,ヤマツミ,0
1891,9130001080020,新規,0,2025-07-01,2025-07-01,株式会社アス,,株式会社,京都府,宇治市,広野町茶屋裏６－１,,26,204,6110031,,,,,,,2025-07-01,1,,,,,アス,0
1893,9130003010578,新規,0,2025-07-01,2025-07-01,ＺＥＥＳＨＡＬ　ＴＲＡＤＩＮＧ合同会社,,合同会社,京都府,綾部市,位田町赤田５４番地,,26,203,6230221,,,,,,,2025-07-01,1,,,,,ジシャルトレーディング,0
1894,9130003010586,新規,0,2025-07-01,2025-07-01,Ｂａｓｅｄ合同会社,,合同会社,京都府,京都市下京区,二帖敷町６４７番２オンリー烏丸ビル１階・２階Ｓ－３７号室,,26,106,6000000,,,,,,,2025-07-01,1,,,,,ベイスト,0
1900,9140001139096,新規,0,2025-07-01,2025-07-01,株式会社内村酒販,,株式会社,兵庫県,神戸市北区,桜森町１３－２,,28,109,6511214,,,,,,,2025-07-01,1,,,,,ウチムラシュハン,0
1910,9180001167416,新規,0,2025-07-01,2025-07-01,株式会社ホープ,,株式会社,愛知県,小牧市,小牧５丁目４６５番地,,23,219,4850041,,,,,,,2025-07-01,1,,,,,ホープ,0
1916,9200003006899,新規,0,2025-07-01,2025-07-01,ＫＴ　ＡＳＡＨＩ合同会社,,合同会社,岐阜県,大垣市,中川町２丁目１７４,,21,202,5030017,,,,,,,2025-07-01,1,,,,,ケーティーアサヒ,0
1921,9220003004067,新規,0,2025-07-01,2025-07-01,合同会社にじのわ,,合同会社,石川県,金沢市,野町３丁目２０番３４号,,17,201,9218031,,,,,,,2025-07-01,1,,,,,ニジノワ,0
1928,9240001065118,新規,0,2025-07-01,2025-07-01,声株式会社,,株式会社,広島県,広島市佐伯区,美鈴が丘西３丁目５－５,,34,108,7315114,,,,,,,2025-07-01,1,,,,,コエ,0
1931,9270001009229,新規,0,2025-07-01,2025-07-01,株式会社ＰＥＡＣＥ,,株式会社,鳥取県,鳥取市,賀露町西２丁目２０１０番地１,,31,201,6800908,,,,,,,2025-07-01,1,,,,,ピース,0
1935,9290001110587,新規,0,2025-07-01,2025-07-01,株式会社安陪工業,,株式会社,福岡県,久留米市,田主丸町田主丸１２０４番地５４,,40,203,8391233,,,,,,,2025-07-01,1,,,,,アベコウギョウ,0
1938,9290003017038,新規,0,2025-07-01,2025-07-01,合同会社スカイ,,合同会社,福岡県,大牟田市,大字新町３４３番地３増田ビル４０６号,,40,202,8370923,,,,,,,2025-07-01,1,,,,,スカイ,0
1944,9310001019660,新規,0,2025-07-01,2025-07-01,株式会社ディーソルＨＰＰ,,株式会社,長崎県,島原市,有明町大三東戊１３２７番地,,42,203,8591415,,,,,,,2025-07-01,1,,,,,ディーソルエイチピーピー,0
1948,9330001033346,新規,0,2025-07-01,2025-07-01,株式会社ベストダイニング,,株式会社,熊本県,熊本市南区,城南町隈庄２４９番地１Ｍａｊｏｒ城南ＩＩ１０４号,00139758,43,104,8614203,,,,,,,2025-07-01,1,,,,,ベストダイニング,0
1949,9330003011077,新規,0,2025-07-01,2025-07-01,合同会社ＷｉｌｌＢｅｌｌ,,合同会社,熊本県,人吉市,鬼木町１４２３番地１,,43,203,8680021,,,,,,,2025-07-01,1,,,,,ウィルベル,0
1956,9370001052763,新規,0,2025-07-01,2025-07-01,株式会社ＳＫ‐ＴＥＣ,,株式会社,宮城県,宮城郡利府町,しらかし台６丁目２番地７,,04,406,9810134,,,,,,,2025-07-01,1,,,,,エスケーテック,0
1957,9370003007170,新規,0,2025-07-01,2025-07-01,ＡｍｏｒｉａＬｉｎｋ合同会社,,合同会社,宮城県,名取市,愛島台２丁目１２番地の１０,,04,207,9811251,,,,,,,2025-07-01,1,,,,,アモリアリンク,0
1961,9370005010981,新規,0,2025-07-01,2025-07-01,東北行政事務事業協同組合,,その他の設立登記法人,宮城県,石巻市,門脇字青葉西３４番地８,,04,202,9860853,,,,,,,2025-07-01,1,,,,,トウホクギョウセイジムジギョウ,0
1966,9430001094766,新規,0,2025-07-01,2025-07-01,株式会社ＴＫ　Ｃｏｎｓｕｌｔｉｎｇ　Ｗｏｒｋｓ,,株式会社,北海道,札幌市中央区,南六条西２０丁目１‐２２‐１４０１,,01,101,0640806,,,,,,,2025-07-01,1,,,,,ティーケーコンサルティングワークス,0
1973,9500003003544,新規,0,2025-07-01,2025-07-01,ＳＡＵＮｉｉｉＫ合同会社,,合同会社,愛媛県,松山市,一番町１丁目１１番６,,38,201,7900001,,,,,,,2025-07-01,1,,,,,サウニーク,0
1974,9700150131292,新規,0,2025-07-01,2025-07-01,ＣａｐｉｔａＬａｎｄ　Ｈｕｎｄｒｅｄ　Ｖｅｎｔｕｒｅｓ　ＩＩ　Ｐｔｅ．Ｌｔｄ．,,外国会社等,東京都,千代田区,丸の内２丁目２番３号　丸の内仲通りビル６階,,13,101,1000005,シンガポール共和国ロビンソン・ロード１６８、キャピタルタワー＃３０－０１,,,,,,2025-07-01,1,,,,,キヤピタランドハンドレツドベンチヤーズツープライベートリミテッド,0
