sequenceNumber,corporateNumber,process,correct,updateDate,changeDate,name,nameImageId,kind,prefectureName,cityName,streetNumber,addressImageId,prefectureCode,cityCode,postCode,addressOutside,addressOutsideImageId,closeDate,closeCause,successorCorporateNumber,changeCause,assignmentDate,latest,enName,enPrefectureName,enCityName,enAddressOutside,furigana,hihyoji
1,1010001137640,登記記録の閉鎖等,0,2025-03-19,2025-03-12,ＭＩＹ株式会社,,株式会社,東京都,千代田区,丸の内２丁目６番１号,,13,101,1000005,,,2025-03-12,清算の結了等,,,2015-10-05,1,,,,,エムアイワイ,0
26,1010401089721,登記記録の閉鎖等,0,2025-03-19,2025-03-12,株式会社ＲｅＣ　ｃｏｍｐａｎｙ,,株式会社,東京都,世田谷区,梅丘２丁目２０番１７号,,13,112,1540022,,,2025-03-12,清算の結了等,,,2015-10-05,1,,,,,レックカンパニー,0
38,1010501028678,登記記録の閉鎖等,0,2025-03-19,2025-03-07,株式会社共伸クリエイト,,株式会社,東京都,台東区,入谷２丁目１７番２号,,13,106,1100013,,,2025-03-07,清算の結了等,,,2015-10-05,1,,,,,キョウシンクリエイト,0
50,1011001126889,登記記録の閉鎖等,0,2025-03-19,2025-02-17,株式会社ＬＬＨ,,株式会社,東京都,渋谷区,代官山町２０番９号,,13,113,1500034,,,2025-02-17,合併による解散等,4011001127109,令和７年２月１日東京都渋谷区代官山町２０番５号株式会社ロジランド（4011001127109）に合併し解散,2019-03-06,1,,,,,エルエルエイチ,0
74,1020001016067,登記記録の閉鎖等,0,2025-03-19,2025-03-07,株式会社みよし,,株式会社,神奈川県,横浜市西区,南軽井沢１番地の２,,14,103,2200002,,,2025-03-07,清算の結了等,,,2015-10-05,1,,,,,ミヨシ,0
78,1020001119539,登記記録の閉鎖等,0,2025-03-19,2025-03-14,株式会社習文塾,,株式会社,神奈川県,川崎市多摩区,東三田２丁目１４番２３号,,14,135,2140033,,,2025-03-14,清算の結了等,,,2017-01-18,1,,,,,シュウブンジュク,0
80,1020001132500,登記記録の閉鎖等,0,2025-03-19,2025-03-10,株式会社川崎北地域Ｍ＆Ａサポートセンター,,株式会社,神奈川県,川崎市宮前区,けやき平１番１４－４０４号,,14,136,2160023,,,2025-03-10,清算の結了等,,,2019-08-22,1,,,,,カワサキキタチイキエムアンドエーサポートセンター,0
84,1020002088403,登記記録の閉鎖等,0,2025-03-19,2025-03-17,有限会社横浜化成,,有限会社,神奈川県,川崎市宮前区,西野川１丁目１９番８号,,14,136,2160044,,,2025-03-17,清算の結了等,,,2015-10-05,1,,,,,,0
86,1021001000647,登記記録の閉鎖等,0,2025-03-19,2025-03-17,株式会社建築設計老有自,,株式会社,東京都,中野区,南台３丁目３４番１８号,,13,114,1640014,,,2025-03-17,清算の結了等,,,2015-10-05,1,,,,,ケンチクセッケイロウジ,0
91,1030001012429,登記記録の閉鎖等,0,2025-03-19,2025-03-07,学びｉｎｇ株式会社,,株式会社,千葉県,成田市,中台１丁目１番地２グリーンコーポ中台９棟５０２号,,12,211,2860015,,,2025-03-07,清算の結了等,,,2015-10-05,1,,,,,マナビイング,0
94,1030001140295,登記記録の閉鎖等,0,2025-03-19,2025-03-17,株式会社大侑塗装,,株式会社,埼玉県,越谷市,新川町２丁目４４０番地１,,11,222,3430852,,,2025-03-17,清算の結了等,,,2021-01-20,1,,,,,ダイユウトソウ,0
111,1040002057091,登記記録の閉鎖等,0,2025-03-19,2025-03-05,有限会社大木製作所,,有限会社,千葉県,印西市,木下１７４１番地,,12,231,2701326,,,2025-03-05,清算の結了等,,,2015-10-05,1,,,,,オオキセイサクジョ,0
119,1080101018065,登記記録の閉鎖等,0,2025-03-19,2025-03-12,株式会社カドイケデリカセンター,,株式会社,静岡県,沼津市,大岡３１７４番地の１６,,22,203,4100022,,,2025-03-12,清算の結了等,,,2015-10-05,1,,,,,カドイケデリカセンター,0
121,1080103001770,登記記録の閉鎖等,0,2025-03-19,2025-03-11,ヤマニ合同会社,,合同会社,静岡県,賀茂郡東伊豆町,奈良本８６０番地の１,,22,301,4130302,,,2025-03-11,清算の結了等,,,2018-01-12,1,,,,,ヤマニ,0
151,1140001004381,登記記録の閉鎖等,0,2025-03-19,2025-03-13,株式会社日本コミュニティ,,株式会社,兵庫県,神戸市中央区,元町通４丁目４番８号,,28,110,6500022,,,2025-03-13,清算の結了等,,,2015-10-05,1,,,,,ニホンコミュミティ,0
152,1140001006221,登記記録の閉鎖等,0,2025-03-19,2025-03-10,今村商事株式会社,,株式会社,兵庫県,神戸市中央区,元町通５丁目２番１０号,,28,110,6500022,,,2025-03-10,合併による解散等,9140001006222,令和７年３月９日神戸市中央区元町通五丁目２番１０号株式会社今村商店（9140001006222）に合併し解散,2015-10-05,1,,,,,イマムラショウジ,0
166,1180001158059,登記記録の閉鎖等,0,2025-03-19,2025-03-13,株式会社大福,,株式会社,愛知県,名古屋市守山区,瀬古東１丁目９１４番地,,23,113,4630090,,,2025-03-13,清算の結了等,,,2023-09-21,1,,,,,ダイフク,0
177,1180003027567,登記記録の閉鎖等,0,2025-03-19,2025-03-14,合同会社Ｒｅｌｉｆｅ　Ｍｏｂｉｌｉｔｙ,,合同会社,愛知県,名古屋市南区,呼続１丁目３番３号,,23,112,4570014,,,2025-03-14,清算の結了等,,,2024-10-30,1,,,,,リライフモビリティ,0
181,1180301039322,登記記録の閉鎖等,0,2025-03-19,2025-03-12,山内建設株式会社,,株式会社,愛知県,豊田市,日之出町１丁目１５番地１６,,23,211,4710075,,,2025-03-12,清算の結了等,,,2024-12-20,1,,,,,ヤマウチケンセツ,0
184,1200002019182,登記記録の閉鎖等,0,2025-03-19,2025-03-14,有限会社三ツ丸食料品店,,有限会社,岐阜県,関市,旭ケ丘３丁目２番２４号,,21,205,5013829,,,2025-03-14,清算の結了等,,,2015-10-05,1,,,,,ミツマルショクリョウヒンテン,0
191,1230005001176,登記記録の閉鎖等,0,2025-03-19,2025-03-14,西光寺,,その他の設立登記法人,富山県,富山市,追分茶屋４６１番地,,16,201,9300116,,,2025-03-14,清算の結了等,,,2015-10-05,1,,,,,サイコウジ,0
193,1240002007794,登記記録の閉鎖等,0,2025-03-19,2025-03-17,有限会社下迫商店,,有限会社,広島県,広島市中区,千田町１丁目２番１７号,,34,101,7300052,,,2025-03-17,清算の結了等,,,2015-10-05,1,,,,,シモサコショウテン,0
232,1490001008240,登記記録の閉鎖等,0,2025-03-19,2025-03-18,株式会社グラナダ,,株式会社,高知県,安芸市,土居１７００番地３,,39,203,7840042,,,2025-03-18,清算の結了等,,,2016-01-07,1,,,,,グラナダ,0
247,2010003021131,登記記録の閉鎖等,0,2025-03-19,2025-03-05,日光７５コート浅間町合同会社,,合同会社,東京都,千代田区,丸の内１丁目４番１号東京共同会計事務所内,,13,101,1000005,,,2025-03-05,清算の結了等,,,2015-10-05,1,,,,,ニッコウセブンティーファイブコートセンゲンチョウ,0
260,2010402035921,登記記録の閉鎖等,0,2025-03-19,2025-03-10,有限会社フラップひまわり,,有限会社,東京都,荒川区,西日暮里６丁目２２番２５号,,13,118,1160013,,,2025-03-10,清算の結了等,,,2015-10-05,1,,,,,,0
261,2010403024816,登記記録の閉鎖等,0,2025-03-19,2025-02-03,合同会社Ｔｒｉｄｅａｌ,,合同会社,東京都,港区,浜松町２丁目２番１５号浜松町ダイヤビル２Ｆ,,13,103,1050013,,,2025-02-03,清算の結了等,,,2021-03-10,1,,,,,トライディール,0
264,2010505002562,登記記録の閉鎖等,0,2025-03-19,2025-03-07,弁理士法人落合特許事務所,,その他の設立登記法人,東京都,台東区,台東２丁目６番３号ＴＯビル,,13,106,1100016,,,2025-03-07,清算の結了等,,,2015-10-05,1,,,,,オチアイトッキョジムショ,0
281,2011001154468,登記記録の閉鎖等,0,2025-03-19,2025-02-19,株式会社エイジエム,,株式会社,東京都,渋谷区,神南１丁目１０番５号ラ・ヴィスタ渋谷７階,,13,113,1500041,,,2025-02-19,清算の結了等,,,2023-05-18,1,,,,,エイジエム,0
299,2013102005616,登記記録の閉鎖等,0,2025-03-19,2025-02-14,有限会社アイエムエス,,有限会社,東京都,青梅市,東青梅１丁目７番地の１３,,13,205,1980042,,,2025-02-14,清算の結了等,,,2015-10-05,1,,,,,アイエムエス,0
300,2013301051857,登記記録の閉鎖等,0,2025-03-19,2025-03-10,株式会社ＰＬＡＹＧＲＯＵＮＤ,,株式会社,千葉県,八千代市,八千代台東１丁目１４番１号八千代プラザ３Ｆ,,12,221,2760032,,,2025-03-10,清算の結了等,,,2024-01-05,1,,,,,プレイグラウンド,0
302,2020001000458,登記記録の閉鎖等,0,2025-03-19,2025-03-17,和光機器株式会社,,株式会社,神奈川県,横浜市栄区,小山台１丁目１番１４号,,14,115,2470002,,,2025-03-17,清算の結了等,,,2015-10-05,1,,,,,ワコウキキ,0
306,2020001143711,登記記録の閉鎖等,0,2025-03-19,2025-03-10,株式会社都筑不動産,,株式会社,神奈川県,横浜市都筑区,茅ケ崎中央５１番１３号６０２,,14,118,2240032,,,2025-03-10,清算の結了等,,,2021-11-02,1,,,,,ツヅキフドウサン,0
311,2020002021833,登記記録の閉鎖等,0,2025-03-19,2025-03-14,有限会社田巻建設,,有限会社,神奈川県,横浜市旭区,西川島町２２番地の９,,14,112,2410012,,,2025-03-14,清算の結了等,,,2015-10-05,1,,,,,タマキケンセツ,0
328,2040001045030,登記記録の閉鎖等,0,2025-03-19,2025-03-07,株式会社岡崎庭芸,,株式会社,千葉県,成田市,公津の杜３丁目２０番地３,,12,211,2860048,,,2025-03-07,清算の結了等,,,2015-10-05,1,,,,,オカザキテイゲイ,0
359,2120001243526,登記記録の閉鎖等,0,2025-03-19,2025-03-18,株式会社ｆｏｊｅｓ,,株式会社,大阪府,大阪市中央区,心斎橋筋１丁目２番７号鰻谷ビル３－Ｄ,,27,128,5420085,,,2025-03-18,清算の結了等,,,2022-01-31,1,,,,,フォジェス,0
365,2120003012680,登記記録の閉鎖等,0,2025-03-19,2025-03-17,ミズイ商事合同会社,,合同会社,愛知県,名古屋市中区,栄２丁目８番５号オープンレジデンシア名古屋栄７０５号,,23,106,4600008,,,2025-03-17,合併による解散等,8180003020978,令和７年３月１５日名古屋市中区富士見町３番２６号エスポア富士見台２０１サンリッチエステート株式会社（8180003020978）に合併し解散,2017-04-13,1,,,,,ミズイショウジ,0
371,2120901014043,登記記録の閉鎖等,0,2025-03-19,2025-03-14,株式会社ユー・アイ・エス,,株式会社,大阪府,吹田市,垂水町１丁目３７番１７号,,27,205,5640062,,,2025-03-14,合併による解散等,5120001111358,令和７年２月１４日大阪市淀川区東三国二丁目３７番１０号株式会社クリエイティブ・ウェブ（5120001111358）に合併し解散,2015-10-05,1,,,,,ユーアイエス,0
391,2180001058150,登記記録の閉鎖等,0,2025-03-19,2025-03-14,株式会社日本ティーエス,,株式会社,愛知県,名古屋市千種区,今池５丁目１４番４号,,23,101,4640850,,,2025-03-14,清算の結了等,,,2015-10-05,1,,,,,ニホンティーエス,0
392,2180001088560,登記記録の閉鎖等,0,2025-03-19,2025-03-10,株式会社増井新聞店,,株式会社,愛知県,名古屋市緑区,桶狭間森前２１１３番地,,23,114,4580910,,,2025-03-10,清算の結了等,,,2015-10-05,1,,,,,マスイシンブンテン,0
400,2180301035667,登記記録の閉鎖等,0,2025-03-19,2025-03-10,株式会社ベル,,株式会社,愛知県,豊橋市,花田町字石塚８２番地２,,23,201,4400075,,,2025-03-10,清算の結了等,,,2021-11-26,1,,,,,ベル,0
410,2240002012736,登記記録の閉鎖等,0,2025-03-19,2025-03-17,有限会社濱本事務所,,有限会社,広島県,広島市東区,二葉の里１丁目５番１１号,,34,102,7320057,,,2025-03-17,清算の結了等,,,2015-10-05,1,,,,,ハマモトジムショ,0
426,2290802018944,登記記録の閉鎖等,0,2025-03-19,2025-03-18,有限会社くすりの山田,,有限会社,福岡県,北九州市若松区,宮丸１丁目７番３号,,40,103,8080064,,,2025-03-18,清算の結了等,,,2015-10-05,1,,,,,クスリノヤマダ,0
427,2300001005437,登記記録の閉鎖等,0,2025-03-19,2025-03-12,株式会社Ｐ－ＢＲＡＩＮ,,株式会社,佐賀県,佐賀市,材木１丁目２番２８号,,41,201,8400055,,,2025-03-12,清算の結了等,,,2015-10-05,1,,,,,ピーブレイン,0
429,2320001017570,登記記録の閉鎖等,0,2025-03-19,2025-03-17,ｍｉｍｉ株式会社,,株式会社,大分県,豊後高田市,玉津７３０番地,,44,209,8790606,,,2025-03-17,清算の結了等,,,2020-03-10,1,,,,,ミミ,0
433,2340001013510,登記記録の閉鎖等,0,2025-03-19,2025-03-17,株式会社Ｍｅ＆Ｍｉ,,株式会社,鹿児島県,鹿児島市,上荒田町３番１号,,46,201,8900055,,,2025-03-17,清算の結了等,,,2015-10-05,1,,,,,ミーアンドミー,0
435,2340002010250,登記記録の閉鎖等,0,2025-03-19,2025-03-14,有限会社吉元,,有限会社,鹿児島県,鹿児島市,春日町７番１５号,,46,201,8920804,,,2025-03-14,清算の結了等,,,2015-10-05,1,,,,,ヨシモト,0
496,3010903007906,登記記録の閉鎖等,0,2025-03-19,2025-03-14,合同会社コープコム,,合同会社,東京都,世田谷区,成城６丁目１４番２３号,,13,112,1570066,,,2025-03-14,清算の結了等,,,2023-01-13,1,,,,,コープコム,0
516,3011801040908,登記記録の閉鎖等,0,2025-03-19,2025-03-17,クロッツジャパン株式会社,,株式会社,東京都,葛飾区,青戸４丁目１番５号青戸ビル,,13,122,1250062,,,2025-03-17,清算の結了等,,,2022-06-22,1,,,,,クロッツジャパン,0
518,3011802020215,登記記録の閉鎖等,0,2025-03-19,2025-03-17,吉野土地建物有限会社,,有限会社,東京都,足立区,扇１丁目２１番７号,,13,121,1230873,,,2025-03-17,清算の結了等,,,2015-10-05,1,,,,,ヨシノトチタテモノ,0
521,3013301013682,登記記録の閉鎖等,0,2025-03-19,2025-03-10,株式会社アカデミーホール,,株式会社,東京都,荒川区,西日暮里６丁目２２番２５号,,13,118,1160013,,,2025-03-10,清算の結了等,,,2015-10-05,1,,,,,アカデミーホール,0
532,3020001136318,登記記録の閉鎖等,0,2025-03-19,2025-03-10,株式会社Ｒａｙｓｔａｒｔ,,株式会社,神奈川県,川崎市中原区,田尻町２１番１号田尻町ビル１・２階,,14,133,2110014,,,2025-03-10,清算の結了等,,,2020-06-04,1,,,,,レイスタート,0
533,3020001149559,登記記録の閉鎖等,0,2025-03-19,2025-03-14,株式会社ＥＸＩＴストラテジー,,株式会社,神奈川県,横浜市中区,桜木町１丁目１０１番地１クロスゲート７階,,14,104,2310062,,,2025-03-14,清算の結了等,,,2022-12-28,1,,,,,エグジットストラテジー,0
536,3020003021039,登記記録の閉鎖等,0,2025-03-19,2025-03-13,合同会社ＳＴＵＤＩＯ　ＫＥＹ,,合同会社,神奈川県,横浜市青葉区,大場町３８２番地３０グレイスヒルあざみ野Ａ棟１階,,14,117,2250023,,,2025-03-13,清算の結了等,,,2021-12-28,1,,,,,スタジオキー,0
541,3021001067387,登記記録の閉鎖等,0,2025-03-19,2025-03-17,ａｎａｌｏｇｙ株式会社,,株式会社,神奈川県,鎌倉市,小町１丁目３番７号大石ビル２Ｆ,,14,204,2480006,,,2025-03-17,清算の結了等,,,2019-05-29,1,,,,,アナロジー,0
547,3030001047365,登記記録の閉鎖等,0,2025-03-19,2025-03-10,株式会社ＷＩＮ　ａｔ　ＱＵＡＬＩＴＹ,,株式会社,埼玉県,新座市,野火止２丁目６番２５号,,11,230,3520011,,,2025-03-10,清算の結了等,,,2015-10-05,1,,,,,ウィンアットクオリティ,0
559,3040003018834,登記記録の閉鎖等,0,2025-03-19,2025-03-07,合同会社Ｈｙｇｉｅｎｉｃ　Ｌａｂｅｌ,,合同会社,千葉県,柏市,旭町１丁目１０番５号サンシャインヒルズ２０１,,12,217,2770852,,,2025-03-07,清算の結了等,,,2021-11-04,1,,,,,ハイジェニックレーベル,0
563,3050001011749,登記記録の閉鎖等,0,2025-03-19,2025-03-12,長島漬物食品株式会社,,株式会社,茨城県,小美玉市,与沢１０８１番地,,08,236,3113416,,,2025-03-12,清算の結了等,,,2015-10-05,1,,,,,,0
599,3120901036375,登記記録の閉鎖等,0,2025-03-19,2025-03-10,エイチ工業株式会社,,株式会社,大阪府,大阪市北区,梅田２丁目６番２０号パシフィックマークス西梅田４階,,27,127,5300001,,,2025-03-10,合併による解散等,8120901038136,令和７年３月１０日大阪市中央区南船場四丁目１０番５号南船場ＳＯＨＯビル７０２株式会社マルデン（8120901038136）に合併し解散,2016-01-13,1,,,,,エイチコウギョウ,0
625,3160005009357,登記記録の閉鎖等,0,2025-03-19,2025-03-17,特定非営利活動法人まちづくり守山,,その他の設立登記法人,滋賀県,守山市,梅田町２番１号,,25,207,5240037,,,2025-03-17,清算の結了等,,,2015-10-05,1,,,,,マチヅクリモリヤマ,0
631,3180001120041,登記記録の閉鎖等,0,2025-03-19,2025-03-10,株式会社グリーンアイ,,株式会社,愛知県,稲沢市,田代２丁目２１番１２号,,23,220,4928455,,,2025-03-10,清算の結了等,,,2015-10-05,1,,,,,グリーンアイ,0
632,3180001139214,登記記録の閉鎖等,0,2025-03-19,2025-03-11,株式会社ムネズレ,,株式会社,愛知県,刈谷市,東刈谷町１丁目９－６,,23,210,4480807,,,2025-03-11,清算の結了等,,,2019-12-09,1,,,,,ムネズレ,0
633,3180001143059,登記記録の閉鎖等,0,2025-03-19,2025-03-14,ＺＸ株式会社,,株式会社,愛知県,名古屋市東区,東桜２丁目４－１第三コジマビル２階,,23,102,4610005,,,2025-03-14,清算の結了等,,,2020-10-09,1,,,,,ゼクス,0
640,3180003020363,登記記録の閉鎖等,0,2025-03-19,2025-03-13,ＴＥＲＡＳ　ＰＬＡＮＮＩＮＧ合同会社,,合同会社,愛知県,日進市,梅森台４丁目２０番地１ガーデンハウス梅森台１０１,,23,230,4700133,,,2025-03-13,清算の結了等,,,2019-09-18,1,,,,,テラスプランニング,0
643,3200001016303,登記記録の閉鎖等,0,2025-03-19,2025-03-14,株式会社丸富製作所,,株式会社,岐阜県,揖斐郡池田町,田中３５３番地の１,,21,404,5032403,,,2025-03-14,清算の結了等,,,2015-10-05,1,,,,,マルトミセイサクショ,0
644,3200001031450,登記記録の閉鎖等,0,2025-03-19,2025-03-12,株式会社Ｒｏｓｓｏ,,株式会社,愛知県,一宮市,中島通５丁目１１番２,,23,203,4910072,,,2025-03-12,清算の結了等,,,2015-10-05,1,,,,,ロッソ,0
648,3230001001673,登記記録の閉鎖等,0,2025-03-19,2025-03-10,株式会社タマヤ,,株式会社,富山県,中新川郡立山町,道源寺１２４４番地１,,16,323,9300241,,,2025-03-10,清算の結了等,,,2024-06-28,1,,,,,タマヤ,0
649,3230005004334,登記記録の閉鎖等,0,2025-03-19,2025-03-13,廣際寺,00079308,その他の設立登記法人,富山県,滑川市,田中新町１７番地３,,16,206,9360056,,,2025-03-13,清算の結了等,,,2015-10-05,1,,,,,コウサイジ,0
655,3290001103910,登記記録の閉鎖等,0,2025-03-19,2025-03-03,株式会社ＧＭｃａｆｅ,,株式会社,福岡県,福岡市東区,舞松原２丁目１０番７号,,40,131,8130042,,,2025-03-03,合併による解散等,3290001099406,令和７年３月１日福岡市東区舞松原二丁目１０番７号ガードナーホールディングス株式会社（3290001099406）に合併し解散,2023-12-07,1,,,,,ジーエムカフェ,0
686,3380002030533,登記記録の閉鎖等,0,2025-03-19,2025-03-10,有限会社安田造花店,,有限会社,福島県,双葉郡浪江町,大字権現堂字南深町２８番地,,07,547,9791521,,,2025-03-10,清算の結了等,,,2015-10-05,1,,,,,,0
699,3430001029455,登記記録の閉鎖等,0,2025-03-19,2025-03-18,株式会社ビーテック,,株式会社,北海道,札幌市白石区,北郷二条１４丁目４番１－３号,,01,104,0030832,,,2025-03-18,清算の結了等,,,2015-10-05,1,,,,,ビーテック,0
712,3490002002174,登記記録の閉鎖等,0,2025-03-19,2025-03-17,有限会社三幸ハウジング,,有限会社,高知県,高知市,瀬戸西町１丁目２２８番地プラットスクエア５号室,,39,201,7810251,,,2025-03-17,清算の結了等,,,2015-10-05,1,,,,,サンコウハウジング,0
735,4010401080883,登記記録の閉鎖等,0,2025-03-19,2025-02-28,ＩＳＩシステム株式会社,,株式会社,東京都,中央区,銀座７丁目１３番１５号,,13,102,1040061,,,2025-02-28,合併による解散等,6010401068670,令和７年２月２８日東京都中央区銀座七丁目１３番１５号株式会社エフ・アール・エス（6010401068670）に合併し解散,2015-10-05,1,,,,,アイエスアイシステム,0
783,4011301004627,登記記録の閉鎖等,0,2025-03-19,2025-03-13,寺田建装株式会社,,株式会社,東京都,杉並区,高井戸東１丁目１７番１１号,,13,115,1680072,,,2025-03-13,清算の結了等,,,2015-10-05,1,,,,,テラダケンソウ,0
804,4013401006049,登記記録の閉鎖等,0,2025-03-19,2025-03-17,株式会社オールマイティリスクケアサービス,,株式会社,神奈川県,相模原市中央区,田名１６６７番地３グランドール清水第１－１０１,,14,152,2520244,,,2025-03-17,清算の結了等,,,2015-10-05,1,,,,,オールマイティリスクケアサービス,0
808,4020001118059,登記記録の閉鎖等,0,2025-03-19,2025-03-10,株式会社アリアワークス,,株式会社,神奈川県,横浜市都筑区,勝田町１２６２番地,,14,118,2240034,,,2025-03-10,清算の結了等,,,2016-10-12,1,,,,,アリアワークス,0
811,4020001146349,登記記録の閉鎖等,0,2025-03-19,2025-03-11,株式会社ウィステリア,,株式会社,神奈川県,川崎市宮前区,潮見台２番１５号,,14,136,2160013,,,2025-03-11,清算の結了等,,,2022-05-02,1,,,,,ウィステリア,0
813,4020001153337,登記記録の閉鎖等,0,2025-03-19,2025-03-14,株式会社Ｖｉｔａ　ｄｅｓｉｇｎ,,株式会社,神奈川県,横浜市港南区,港南中央通３番３－７０３号,,14,111,2330004,,,2025-03-14,清算の結了等,,,2023-09-06,1,,,,,ヴィータデザイン,0
846,4060002007026,登記記録の閉鎖等,0,2025-03-19,2025-03-13,日生サッシ工業有限会社,,有限会社,栃木県,宇都宮市,砂田町６２６番地１,,09,201,3210113,,,2025-03-13,清算の結了等,,,2015-10-05,1,,,,,ニッセイサッシコウギョウ,0
856,4120001221414,登記記録の閉鎖等,0,2025-03-19,2025-03-17,株式会社ゴールド,,株式会社,大阪府,大阪市東淀川区,豊新３丁目２６番６号,,27,114,5330014,,,2025-03-17,清算の結了等,,,2019-06-04,1,,,,,ゴールド,0
885,4180001101387,登記記録の閉鎖等,0,2025-03-19,2025-03-14,株式会社イクイップアジア,,株式会社,愛知県,名古屋市名東区,社台３丁目７７番地,,23,115,4650092,,,2025-03-14,清算の結了等,,,2015-10-05,1,,,,,イクイップアジア,0
907,4260001022807,登記記録の閉鎖等,0,2025-03-19,2025-03-14,株式会社田中設計,,株式会社,岡山県,真庭市,下市瀬１０７５番地の３,,33,214,7193143,,,2025-03-14,清算の結了等,,,2015-10-05,1,,,,,タナカセッケイ,0
915,4290001097805,登記記録の閉鎖等,0,2025-03-19,2025-03-18,スリーウイングスソフィア株式会社,,株式会社,福岡県,福岡市中央区,警固２丁目１６番６－４０１号フィットけやき,,40,133,8100023,,,2025-03-18,清算の結了等,,,2022-06-03,1,,,,,スリーウイングスソフィア,0
1012,5011801008944,登記記録の閉鎖等,0,2025-03-19,2025-03-10,株式会社スタジオひまわり,,株式会社,東京都,荒川区,西日暮里６丁目２２番２５号,,13,118,1160013,,,2025-03-10,清算の結了等,,,2015-10-05,1,,,,,,0
1014,5011802021054,登記記録の閉鎖等,0,2025-03-19,2025-03-17,有限会社秋田タイル工業所,,有限会社,東京都,足立区,小台１丁目５番３－３０５号,,13,121,1200046,,,2025-03-17,清算の結了等,,,2015-10-05,1,,,,,アキタタイルコウギョウショ,0
1033,5020001070580,登記記録の閉鎖等,0,2025-03-19,2025-03-10,飯豊機工株式会社,,株式会社,神奈川県,川崎市幸区,北加瀬２丁目６番１－２号,,14,132,2120057,,,2025-03-10,清算の結了等,,,2015-10-05,1,,,,,イイデキコウ,0
1035,5020001099463,登記記録の閉鎖等,0,2025-03-19,2025-03-10,株式会社ｎｅｉｔｅｎｇ,,株式会社,神奈川県,横浜市中区,矢口台１６５－１－２０３,,14,104,2310831,,,2025-03-10,清算の結了等,,,2015-10-05,1,,,,,ネイトン,0
1041,5020002022250,登記記録の閉鎖等,0,2025-03-19,2025-03-07,有限会社ヒダカ,,有限会社,神奈川県,横浜市港南区,芹が谷１丁目２７番１１号,,14,111,2330006,,,2025-03-07,清算の結了等,,,2015-10-05,1,,,,,ヒダカ,0
1042,5020002089694,登記記録の閉鎖等,0,2025-03-19,2025-03-11,有限会社千年角屋米店,,有限会社,神奈川県,川崎市高津区,千年６６５番地,,14,134,2130022,,,2025-03-11,清算の結了等,,,2015-10-05,1,,,,,,0
1043,5020002095775,登記記録の閉鎖等,0,2025-03-19,2025-03-12,有限会社碓井木材店,,有限会社,神奈川県,川崎市川崎区,田町１丁目３番１６号,,14,131,2100822,,,2025-03-12,清算の結了等,,,2015-10-05,1,,,,,ウスイモクザイテン,0
1044,5020003004900,登記記録の閉鎖等,0,2025-03-19,2025-03-10,ハッピーレトリーバー合同会社,,合同会社,神奈川県,横浜市都筑区,茅ケ崎東１丁目１番１－１０８号,,14,118,2240033,,,2025-03-10,清算の結了等,,,2015-10-05,1,,,,,ハッピーレトリーバー,0
1046,5020003026969,登記記録の閉鎖等,0,2025-03-19,2025-03-14,Ｎ　ｆｒｉｅｎｄｓ合同会社,,合同会社,神奈川県,川崎市中原区,今井西町１９－１５,,14,133,2110066,,,2025-03-14,清算の結了等,,,2024-10-07,1,,,,,エヌフレンズ,0
1068,5080101004573,登記記録の閉鎖等,0,2025-03-19,2025-03-12,株式会社和興,,株式会社,静岡県,御殿場市,川島田４３９番地の１,,22,215,4120045,,,2025-03-12,清算の結了等,,,2015-10-05,1,,,,,,0
1069,5080101005134,登記記録の閉鎖等,0,2025-03-19,2025-03-12,株式会社Ｕｍｅｈａｒａ,,株式会社,静岡県,伊豆市,修善寺３１２５番地の１１,,22,222,4102416,,,2025-03-12,清算の結了等,,,2015-10-05,1,,,,,,0
1073,5100002003440,登記記録の閉鎖等,0,2025-03-19,2025-03-11,有限会社土肥板金塗装,,有限会社,長野県,長野市,合戦場３丁目２８番地,,20,201,3888008,,,2025-03-11,清算の結了等,,,2015-10-05,1,,,,,ドヒバンキントソウ,0
1089,5120901022464,登記記録の閉鎖等,0,2025-03-19,2025-03-07,株式会社ＰＭコーポレーション,,株式会社,大阪府,池田市,畑２丁目４番３－２０８,,27,204,5630021,,,2025-03-07,清算の結了等,,,2015-10-05,1,,,,,ピーエムコーポレーション,0
1102,5140002009888,登記記録の閉鎖等,0,2025-03-19,2025-03-11,有限会社クリーニング北條屋,,有限会社,兵庫県,神戸市北区,甲栄台１丁目７番１号,,28,109,6511142,,,2025-03-11,清算の結了等,,,2015-10-05,1,,,,,クリーニングホウジョウヤ,0
1121,5180002045748,登記記録の閉鎖等,0,2025-03-19,2025-03-12,有限会社ティーズスクエア,,有限会社,愛知県,名古屋市南区,本星崎町字寺坂７０２番地,,23,112,4570056,,,2025-03-12,清算の結了等,,,2015-10-05,1,,,,,ティーズスクエア,0
1123,5180002084738,登記記録の閉鎖等,0,2025-03-19,2025-03-11,有限会社北川住建,,有限会社,愛知県,大府市,横根町箕手９９番地の１,,23,223,4740011,,,2025-03-11,清算の結了等,,,2015-10-05,1,,,,,キタガワジュウケン,0
1124,5180002090950,登記記録の閉鎖等,0,2025-03-19,2025-03-12,有限会社カジウラソーイング,,有限会社,愛知県,愛西市,勝幡町小玉出１９８０番地,,23,232,4968001,,,2025-03-12,清算の結了等,,,2015-10-05,1,,,,,カジウラソーイング,0
1128,5180301008364,登記記録の閉鎖等,0,2025-03-19,2025-03-10,株式会社ＬＯＮＤＯ,,株式会社,愛知県,豊橋市,二川町字西向山７１番地の４,,23,201,4413154,,,2025-03-10,清算の結了等,,,2015-10-05,1,,,,,ロンド,0
1142,5230001016703,登記記録の閉鎖等,0,2025-03-19,2025-03-14,株式会社柊,,株式会社,富山県,中新川郡立山町,浅生１３５番地,,16,323,9300271,,,2025-03-14,清算の結了等,,,2016-11-04,1,,,,,ヒイラギ,0
1147,5250003000471,登記記録の閉鎖等,0,2025-03-19,2025-03-17,合同会社石綿対策技術委員会,,合同会社,山口県,宇部市,大字妻崎開作２１５番地１,,35,202,7590204,,,2025-03-17,清算の結了等,,,2015-10-05,1,,,,,イシワタタイサクギジュツイインカイ,0
1164,5290803002283,登記記録の閉鎖等,0,2025-03-19,2025-03-17,ＭｕｓｈＲｏｏｍ合同会社,,合同会社,福岡県,北九州市小倉南区,朽網西５丁目４５番６号,,40,107,8000233,,,2025-03-17,清算の結了等,,,2015-10-05,1,,,,,マッシュルーム,0
1167,5310001010251,登記記録の閉鎖等,0,2025-03-19,2025-03-17,生和自動車株式会社,,株式会社,長崎県,壱岐市,芦辺町箱崎中山触２５９２番地２,00116306,42,210,8115463,,,2025-03-17,清算の結了等,,,2015-10-05,1,,,,,セイワジドウシャ,0
1176,5370402000135,登記記録の閉鎖等,0,2025-03-19,2025-03-10,有限会社高橋自動車,,有限会社,宮城県,登米市,登米町日野渡軍場２１番地,,04,212,9870704,,,2025-03-10,清算の結了等,,,2015-10-05,1,,,,,タカハシジドウシャ,0
1178,5380005008013,登記記録の閉鎖等,0,2025-03-19,2025-03-05,会津若松市写真師協同組合,,その他の設立登記法人,福島県,会津若松市,栄町４番４号,,07,202,9650871,,,2025-03-05,清算の結了等,,,2015-10-05,1,,,,,アイズワカマツシシャシンシ,0
1193,5480002009706,登記記録の閉鎖等,0,2025-03-19,2025-03-17,阿讃プラント有限会社,,有限会社,徳島県,阿波市,阿波町早田３７１番地,,36,206,7711702,,,2025-03-17,清算の結了等,,,2015-10-05,1,,,,,,0
1210,6010003036893,登記記録の閉鎖等,0,2025-03-19,2025-03-05,ジェイコアレジ５合同会社８,,合同会社,東京都,千代田区,丸の内１丁目４番１号東京共同会計事務所内,,13,101,1000005,,,2025-03-05,清算の結了等,,,2022-02-02,1,,,,,ジェイコアレジファイブハチ,0
1211,6010003037438,登記記録の閉鎖等,0,2025-03-19,2025-03-05,ジェイコアレジ６合同会社５,,合同会社,東京都,千代田区,丸の内１丁目４番１号東京共同会計事務所内,,13,101,1000005,,,2025-03-05,清算の結了等,,,2022-04-11,1,,,,,ジェイコアレジシックスゴ,0
1232,6011001063723,登記記録の閉鎖等,0,2025-03-19,2025-02-28,株式会社ＳＯＹＭＯＣＨＡ,,株式会社,東京都,渋谷区,渋谷２丁目２番４－４０９,,13,113,1500002,,,2025-02-28,清算の結了等,,,2015-10-05,1,,,,,ソイモカ,0
1246,6011201017768,登記記録の閉鎖等,0,2025-03-19,2025-03-17,株式会社ＧＯＴＯＫＵ,,株式会社,東京都,中野区,中央２丁目２番３５号,,13,114,1640011,,,2025-03-17,清算の結了等,,,2015-10-05,1,,,,,ゴトク,0
1262,6020001059037,登記記録の閉鎖等,0,2025-03-19,2025-03-11,株式会社晋隆,00009648,株式会社,神奈川県,横浜市中区,福富町東通３８番地福井ビル１Ｆ１０７,,14,104,2310044,,,2025-03-11,清算の結了等,,,2015-10-05,1,,,,,シンリュウ,0
1264,6020001104981,登記記録の閉鎖等,0,2025-03-19,2025-03-10,株式会社アズヴィン,,株式会社,神奈川県,川崎市多摩区,菅仙谷２丁目２２番３２号,,14,135,2140006,,,2025-03-10,清算の結了等,,,2015-10-05,1,,,,,アズヴィン,0
1270,6020002063104,登記記録の閉鎖等,0,2025-03-19,2025-03-10,有限会社クリーク,,有限会社,神奈川県,横浜市保土ケ谷区,狩場町１６４番地の３８グリーンヒルズ横浜Ａ棟２１１号,,14,106,2400025,,,2025-03-10,清算の結了等,,,2015-10-05,1,,,,,クリーク,0
1280,6021003014319,登記記録の閉鎖等,0,2025-03-19,2025-03-17,合同会社藍新,,合同会社,神奈川県,平塚市,袖ケ浜１０番４号,,14,203,2540813,,,2025-03-17,清算の結了等,,,2024-03-27,1,,,,,アイシン,0
1294,6040001034756,登記記録の閉鎖等,0,2025-03-19,2025-03-10,旭電設株式会社,,株式会社,千葉県,松戸市,上本郷４１９７番地,,12,207,2710064,,,2025-03-10,清算の結了等,,,2015-10-05,1,,,,,アサヒデンセツ,0
1297,6040001091590,登記記録の閉鎖等,0,2025-03-19,2025-03-10,株式会社Ａ＆Ｅコーポレーション,,株式会社,千葉県,船橋市,宮本７丁目１８番１８号,,12,204,2730003,,,2025-03-10,清算の結了等,,,2015-10-05,1,,,,,,0
1300,6050001022446,登記記録の閉鎖等,0,2025-03-19,2025-03-12,株式会社橋本企画,,株式会社,茨城県,鹿嶋市,大字浜津賀３７１番地６,,08,222,3112203,,,2025-03-12,清算の結了等,,,2015-10-05,1,,,,,ハシモトキカク,0
1304,6080002004837,登記記録の閉鎖等,0,2025-03-19,2025-03-14,有限会社美容室アートケイ,,有限会社,静岡県,静岡市葵区,一番町２１番地の１,,22,101,4200071,,,2025-03-14,清算の結了等,,,2015-10-05,1,,,,,ビヨウシツアートケイ,0
1307,6080101015421,登記記録の閉鎖等,0,2025-03-19,2025-03-12,株式会社ビット,,株式会社,静岡県,三島市,長伏６１４番地の３,,22,206,4110824,,,2025-03-12,清算の結了等,,,2015-10-05,1,,,,,ビット,0
1347,6180001026203,登記記録の閉鎖等,0,2025-03-19,2025-03-13,中部メルテック株式会社,,株式会社,愛知県,名古屋市西区,菊井１丁目１３番２１号,,23,104,4510044,,,2025-03-13,清算の結了等,,,2015-10-05,1,,,,,チュウブメルテック,0
1367,6180302000591,登記記録の閉鎖等,0,2025-03-19,2025-03-13,大倉石材工業有限会社,,有限会社,愛知県,岡崎市,上佐々木町字中切３４番地３,,23,202,4440936,,,2025-03-13,清算の結了等,,,2015-10-05,1,,,,,オオクラセキザイコウギョウ,0
1368,6180302025754,登記記録の閉鎖等,0,2025-03-19,2025-03-12,有限会社Ｊ・Ｃ・Ｃ,,有限会社,愛知県,瀬戸市,上之山町３丁目１７１番地,,23,204,4890964,,,2025-03-12,清算の結了等,,,2015-10-05,1,,,,,ジェイシーシー,0
1374,6210001010707,登記記録の閉鎖等,0,2025-03-19,2025-03-10,株式会社花舎,,株式会社,福井県,敦賀市,莇生野９４号２番地の６,,18,202,9140141,,,2025-03-10,合併による解散等,2210001010487,令和７年３月１日福井県敦賀市莇生野９４号２番地の６株式会社オクダ（2210001010487）に合併し解散,2015-10-05,1,,,,,ハナノヤ,0
1401,6290801009379,登記記録の閉鎖等,0,2025-03-19,2025-03-18,光金属工業株式会社,,株式会社,福岡県,北九州市八幡東区,中央３丁目３番１２号,,40,108,8050019,,,2025-03-18,清算の結了等,,,2015-10-05,1,,,,,ヒカリキンゾクコウギョウ,0
1443,6462501000344,登記記録の閉鎖等,0,2025-03-19,2025-03-17,株式会社ミノルカンパニー,,株式会社,北海道,野付郡別海町,別海１１８番地の２７,,01,691,0860216,,,2025-03-17,清算の結了等,,,2015-10-05,1,,,,,ミノルカンパニー,0
1446,6500001008705,登記記録の閉鎖等,0,2025-03-19,2025-03-11,フジ・ＴＳＵＴＡＹＡ・エンターテイメント株式会社,,株式会社,愛媛県,松山市,宮西１丁目２番１号,,38,201,7900065,,,2025-03-11,合併による解散等,9500001003505,令和７年２月２８日愛媛県松山市宮西一丁目２番１号株式会社フジ（9500001003505）に合併し解散,2015-10-05,1,,,,,フジツタヤエンターテイメント,0
1475,7010403029216,登記記録の閉鎖等,0,2025-03-19,2025-02-18,合同会社ＨＯＯＰ,,合同会社,東京都,港区,南青山２丁目２番１５号,,13,103,1070062,,,2025-02-18,清算の結了等,,,2023-01-16,1,,,,,フープ,0
1477,7010405002006,登記記録の閉鎖等,0,2025-03-19,2025-02-27,協同組合四明商業合作社,,その他の設立登記法人,東京都,港区,麻布台３丁目５番５号,,13,103,1060041,,,2025-02-27,清算の結了等,,,2015-10-05,1,,,,,シメイショウギョウガッサクシャ,0
1478,7010405013853,登記記録の閉鎖等,0,2025-03-19,2025-02-28,ＥＲＪ・ステーブル・インベストメンツ特定目的会社,,その他の設立登記法人,東京都,港区,虎ノ門３丁目２２番１０－２０１号,,13,103,1050001,,,2025-02-28,清算の結了等,,,2015-10-05,1,,,,,イーアールジェーステーブルインベストメンツ,0
1482,7010601010448,登記記録の閉鎖等,0,2025-03-19,2025-03-14,株式会社錦楽,,株式会社,東京都,墨田区,江東橋４丁目２８番４号,,13,107,1300022,,,2025-03-14,清算の結了等,,,2015-10-05,1,,,,,キンラク,0
1515,7020001120607,登記記録の閉鎖等,0,2025-03-19,2025-03-10,株式会社ｎｕｍｂｅｒ３９,,株式会社,神奈川県,横浜市西区,久保町２４番３１号,,14,103,2200061,,,2025-03-10,清算の結了等,,,2017-03-31,1,,,,,,0
1532,7040002101141,登記記録の閉鎖等,0,2025-03-19,2025-03-10,有限会社和開発,,有限会社,千葉県,鴨川市,川代１５５０番地,,12,223,2960015,,,2025-03-10,清算の結了等,,,2015-10-05,1,,,,,ワカイハツ,0
1629,7290802023799,登記記録の閉鎖等,0,2025-03-19,2025-03-17,有限会社アサヒ養蜂場,,有限会社,福岡県,行橋市,行事７丁目２０番９号,,40,213,8240001,,,2025-03-17,清算の結了等,,,2015-10-05,1,,,,,アサヒヨウホウジョウ,0
1684,8010401020051,登記記録の閉鎖等,0,2025-03-19,2025-03-06,トラマコジャパン株式会社,,株式会社,東京都,港区,六本木７丁目１１番２０－３０５号,,13,103,1060032,,,2025-03-06,清算の結了等,,,2015-10-05,1,,,,,トラマコジャパン,0
1706,8011001071591,登記記録の閉鎖等,0,2025-03-19,2025-03-17,株式会社Ｃｏｍｐａｓｓｉｏｎ,,株式会社,東京都,葛飾区,高砂８丁目１５番２号,,13,122,1250054,,,2025-03-17,清算の結了等,,,2015-10-05,1,,,,,コンパッション,0
1739,8013101008580,登記記録の閉鎖等,0,2025-03-19,2025-03-12,株式会社ＶＡＭ,,株式会社,東京都,羽村市,栄町３丁目４番地２,,13,227,2050002,,,2025-03-12,合併による解散等,8011101094807,令和７年３月１日東京都千代田区鍛冶町二丁目７番５号日宝神田イースト４階株式会社ルナ（8011101094807）に合併し解散,2021-03-17,1,,,,,ヴァム,0
1744,8020001090997,登記記録の閉鎖等,0,2025-03-19,2025-03-10,株式会社スマイルコーポレーション,,株式会社,神奈川県,横浜市鶴見区,駒岡１丁目２７番１号,,14,101,2300071,,,2025-03-10,清算の結了等,,,2015-10-05,1,,,,,スマイルコーポレーション,0
1756,8030002033723,登記記録の閉鎖等,0,2025-03-19,2025-03-17,有限会社サヤマ住設,,有限会社,埼玉県,狭山市,柏原３４８４番地の６０,,11,215,3501335,,,2025-03-17,清算の結了等,,,2015-10-05,1,,,,,サヤマジュウセツ,0
1761,8040001052905,登記記録の閉鎖等,0,2025-03-19,2025-03-18,株式会社中川商店,,株式会社,千葉県,木更津市,清見台１丁目１３－２,,12,206,2920045,,,2025-03-18,清算の結了等,,,2015-10-05,1,,,,,ナカガワショウテン,0
1784,8100001031118,登記記録の閉鎖等,0,2025-03-19,2025-03-10,株式会社ノースファーム,,株式会社,長野県,中野市,大字永江２８１３番地５,,20,211,3892104,,,2025-03-10,清算の結了等,,,2018-04-05,1,,,,,ノースファーム,0
1817,8140002035444,登記記録の閉鎖等,0,2025-03-19,2025-03-12,有限会社ウサミ技研,,有限会社,兵庫県,加古川市,加古川町稲屋１０４９番地の８０,,28,210,6750034,,,2025-03-12,清算の結了等,,,2015-10-05,1,,,,,ウサミギケン,0
1831,8180002078118,登記記録の閉鎖等,0,2025-03-19,2025-03-10,有限会社ウセヒロ工業,,有限会社,愛知県,一宮市,蓮池字郷西８０番地の３,,23,203,4940019,,,2025-03-10,清算の結了等,,,2015-10-05,1,,,,,ウセヒロコウギョウ,0
1841,8180305008960,登記記録の閉鎖等,0,2025-03-19,2025-03-12,一般社団法人とねりこ,,その他の設立登記法人,愛知県,岡崎市,羽根町字若宮３０番地１,,23,202,4440813,,,2025-03-12,清算の結了等,,,2019-09-25,1,,,,,トネリコ,0
1849,8250005006621,登記記録の閉鎖等,0,2025-03-19,2025-03-14,アップライト協同組合,,その他の設立登記法人,山口県,岩国市,玖珂町６２２９番地の７,,35,208,7420344,,,2025-03-14,清算の結了等,,,2015-10-05,1,,,,,アップライト,0
1867,8290801027032,登記記録の閉鎖等,0,2025-03-19,2025-03-13,株式会社ウィルエコロジー,,株式会社,福岡県,北九州市戸畑区,中原西２丁目１番１５号,,40,105,8040011,,,2025-03-13,清算の結了等,,,2020-12-17,1,,,,,ウィルエコロジー,0
1870,8300005005972,登記記録の閉鎖等,0,2025-03-19,2025-03-17,一般社団法人伊万里有田会営薬局,,その他の設立登記法人,佐賀県,西松浦郡有田町,二ノ瀬甲８９４番地４,,41,401,8494141,,,2025-03-17,清算の結了等,,,2015-10-05,1,,,,,イマリアリタカイエイヤッキョク,0
1877,8340002024369,登記記録の閉鎖等,0,2025-03-19,2025-03-17,有限会社平成フーズ,,有限会社,鹿児島県,南九州市,知覧町西元４６１７番地２,,46,223,8970306,,,2025-03-17,合併による解散等,2340001003016,令和７年３月１日鹿児島市錦江町１１番５６号株式会社鳥幸（2340001003016）に合併し解散,2015-10-05,1,,,,,ヘイセイフーズ,0
1882,8360001012637,登記記録の閉鎖等,0,2025-03-19,2025-03-18,株式会社福広,,株式会社,沖縄県,国頭郡恩納村,字前兼久５２３番地１１コーラルリゾートヴィラ沖縄恩納６０３号,,47,311,9040414,,,2025-03-18,清算の結了等,,,2015-10-05,1,,,,,フクヒロ,0
1889,8370301001181,登記記録の閉鎖等,0,2025-03-19,2025-03-12,株式会社酉抜商店,,株式会社,宮城県,石巻市,大宮町６番３８号,,04,202,9862132,,,2025-03-12,清算の結了等,,,2015-10-05,1,,,,,トリヌキショウテン,0
1897,8430001080313,登記記録の閉鎖等,0,2025-03-19,2025-03-17,株式会社ＮＯＲＴＨ　ＦＩＥＬＤ　ＪＡＰＡＮ,,株式会社,北海道,虻田郡倶知安町,字樺山１１６番地９,,01,400,0440078,,,2025-03-17,清算の結了等,,,2019-11-22,1,,,,,ノースフィールドジャパン,0
1909,9010001145974,登記記録の閉鎖等,0,2025-03-19,2025-03-12,株式会社トライストーン,,株式会社,東京都,世田谷区,上北沢４丁目３０－１,,13,112,1560057,,,2025-03-12,清算の結了等,,,2015-10-05,1,,,,,トライストーン,0
1913,9010001239644,登記記録の閉鎖等,0,2025-03-19,2025-02-27,株式会社Ｊａｐｏｎｉｓｍｅ,,株式会社,東京都,中央区,勝どき２丁目９－１６勝どきハイデンス７１９７１９号室,,13,102,1040054,,,2025-02-27,清算の結了等,,,2023-10-27,1,,,,,ジャポニスム,0
1914,9010001245254,登記記録の閉鎖等,0,2025-03-19,2025-02-20,三金不動産株式会社,,株式会社,東京都,中央区,日本橋室町２丁目１番１号,,13,102,1030022,,,2025-02-20,清算の結了等,,,2024-06-12,1,,,,,サンキンフドウサン,0
1923,9010003021050,登記記録の閉鎖等,0,2025-03-19,2025-03-05,日光６１ジョイフル三ツ沢合同会社,,合同会社,東京都,千代田区,丸の内１丁目４番１号東京共同会計事務所内,,13,101,1000005,,,2025-03-05,清算の結了等,,,2015-10-05,1,,,,,ニッコウシックスティーワンジョイフルミツザワ,0
1924,9010003021117,登記記録の閉鎖等,0,2025-03-19,2025-03-05,日光１６５アルテ武庫之荘合同会社,,合同会社,東京都,千代田区,丸の内１丁目４番１号東京共同会計事務所内,,13,101,1000005,,,2025-03-05,清算の結了等,,,2015-10-05,1,,,,,ニッコウワンハンドレッドシックスティーファイブアルテムコノソウ,0
1962,9011103013697,登記記録の閉鎖等,0,2025-03-19,2025-03-06,合同会社Ｓｔａｒ　Ｖａｚ,,合同会社,東京都,新宿区,下落合２丁目１番８号三栄ビル４０５,,13,104,1610033,,,2025-03-06,清算の結了等,,,2023-11-02,1,,,,,スターバズ,0
1985,9020001129200,登記記録の閉鎖等,0,2025-03-19,2025-03-17,株式会社健心,,株式会社,神奈川県,横浜市中区,柏葉３６番地７・１Ｆ,,14,104,2310866,,,2025-03-17,清算の結了等,,,2018-12-26,1,,,,,ケンシン,0
1988,9020002077497,登記記録の閉鎖等,0,2025-03-19,2025-03-14,有限会社くるま工房,,有限会社,神奈川県,横浜市旭区,東希望が丘３７番地１,,14,112,2410826,,,2025-03-14,清算の結了等,,,2015-10-05,1,,,,,,0
1990,9020002096976,登記記録の閉鎖等,0,2025-03-19,2025-03-14,有限会社斉藤商店,,有限会社,神奈川県,川崎市川崎区,日ノ出１丁目１４番１８号,,14,131,2100824,,,2025-03-14,清算の結了等,,,2015-10-05,1,,,,,サイトウショウテン,0
1991,9020003010795,登記記録の閉鎖等,0,2025-03-19,2025-03-05,Ａｖａｎｔ　Ｇａｒｄｅ合同会社,,合同会社,神奈川県,横浜市中区,松影町３丁目１０番１６－４１７号,,14,104,2310025,,,2025-03-05,清算の結了等,,,2016-01-13,1,,,,,アバンギャルド,0
1993,9020003021685,登記記録の閉鎖等,0,2025-03-19,2025-03-10,ＸＲｔｏＣ合同会社,,合同会社,神奈川県,川崎市多摩区,菅仙谷２丁目２２番３２号,,14,135,2140006,,,2025-03-10,清算の結了等,,,2022-04-26,1,,,,,エックスアールトゥーシー,0
1997,9021001053118,登記記録の閉鎖等,0,2025-03-19,2025-03-17,株式会社ＳＰＩＣＥ,,株式会社,神奈川県,海老名市,東柏ケ谷２丁目３０番１７号宇田川店舗２階,,14,215,2430401,,,2025-03-17,清算の結了等,,,2015-10-05,1,,,,,スパイス,0
2012,9040001027344,登記記録の閉鎖等,0,2025-03-19,2025-03-10,原木トレーディングサービス株式会社,,株式会社,千葉県,市川市,二俣１丁目１２番１号２０７室,,12,203,2720001,,,2025-03-10,清算の結了等,,,2015-10-05,1,,,,,バラキトレーディングサービス,0
2020,9050001047531,登記記録の閉鎖等,0,2025-03-19,2025-03-10,アズベータ株式会社,,株式会社,茨城県,牛久市,刈谷町３丁目１４４番地の６,,08,219,3001235,,,2025-03-10,清算の結了等,,,2020-05-14,1,,,,,アズベータ,0
2043,9120001241028,登記記録の閉鎖等,0,2025-03-19,2025-03-18,株式会社ａｉｓａｎｃｅ,,株式会社,大阪府,大阪市中央区,心斎橋筋１丁目２番７号鰻谷ビル３－Ｄ,,27,128,5420085,,,2025-03-18,清算の結了等,,,2021-10-26,1,,,,,エゾンス,0
2050,9120002005142,登記記録の閉鎖等,0,2025-03-19,2025-03-17,有限会社井上,,有限会社,大阪府,大阪市東住吉区,南田辺３丁目４番１４号,,27,121,5460033,,,2025-03-17,清算の結了等,,,2015-10-05,1,,,,,イノウエ,0
2082,9150003000486,登記記録の閉鎖等,0,2025-03-19,2025-03-17,合資会社ＷＥＳＴ　ＨＩＬＬ,,合資会社,奈良県,生駒市,中菜畑１丁目３９－２,,29,209,6300263,,,2025-03-17,清算の結了等,,,2015-10-05,1,,,,,ウエストヒル,0
2102,9180302020934,登記記録の閉鎖等,0,2025-03-19,2025-03-11,有限会社ユーアイ,,有限会社,愛知県,碧南市,道場山町５丁目８番地６,,23,209,4470864,,,2025-03-11,清算の結了等,,,2015-10-05,1,,,,,ユーアイ,0
2109,9230003000379,登記記録の閉鎖等,0,2025-03-19,2025-03-14,ウキウキ・ワクワク合資会社,,合資会社,富山県,滑川市,栗山３１２３番,,16,206,9360803,,,2025-03-14,清算の結了等,,,2015-10-05,1,,,,,ウキウキワクワク,0
2137,9340005003757,登記記録の閉鎖等,0,2025-03-19,2025-03-10,農事組合法人武田兄弟農場,,その他の設立登記法人,鹿児島県,いちき串木野市,上名９２１０番地６,,46,219,8960052,,,2025-03-10,清算の結了等,,,2015-10-05,1,,,,,タケダキョウダイノウジョウ,0
2140,9360001013725,登記記録の閉鎖等,0,2025-03-19,2025-03-17,株式会社沖縄ウェルネス,,株式会社,沖縄県,うるま市,字州崎１２番８１号,,47,213,9042234,,,2025-03-17,清算の結了等,,,2015-10-05,1,,,,,オキナワウェルネス,0
2154,9430001050546,登記記録の閉鎖等,0,2025-03-19,2025-03-13,丸安食品株式会社,,株式会社,北海道,小樽市,山田町１番１１８号,,01,203,0470025,,,2025-03-13,清算の結了等,,,2015-10-05,1,,,,,マルヤスショクヒン,0
2160,9430002065072,登記記録の閉鎖等,0,2025-03-19,2025-03-13,有限会社やまや建設,,有限会社,北海道,室蘭市,山手町１丁目１４番地の１４,,01,205,0510012,,,2025-03-13,清算の結了等,,,2015-10-05,1,,,,,ヤマヤケンセツ,0
2162,9470001000852,登記記録の閉鎖等,0,2025-03-19,2025-03-12,岡田鉄工株式会社,,株式会社,香川県,高松市,西植田町１３８番地１５,,37,201,7610445,,,2025-03-12,清算の結了等,,,2015-10-05,1,,,,,オカダテッコウ,0
