sequenceNumber,corporateNumber,process,correct,updateDate,changeDate,name,nameImageId,kind,prefectureName,cityName,streetNumber,addressImageId,prefectureCode,cityCode,postCode,addressOutside,addressOutsideImageId,closeDate,closeCause,successorCorporateNumber,changeCause,assignmentDate,latest,enName,enPrefectureName,enCityName,enAddressOutside,furigana,hihyoji
2,1010001100805,登記記録の閉鎖等,0,2023-09-12,2023-09-08,ホグレル株式会社,,株式会社,東京都,板橋区,大原町３６番１８号,,13,119,1740061,,,2023-09-08,清算の結了等,,,2015-10-05,1,,,,,ホグレル,0
3,1010001110622,登記記録の閉鎖等,0,2023-09-12,2023-09-06,株式会社エムケーカンパニー,,株式会社,東京都,中央区,銀座２丁目１２番３号,,13,102,1040061,,,2023-09-06,清算の結了等,,,2015-10-05,1,,,,,エムケーカンパニー,0
20,1010003039926,登記記録の閉鎖等,0,2023-09-12,2023-09-04,ＪＦ１１淀屋橋合同会社,,合同会社,東京都,千代田区,丸の内３丁目１番１号東京共同会計事務所内,,13,101,1000005,,,2023-09-04,清算の結了等,,,2023-03-03,1,,,,,ジェイエフイレブンヨドヤバシ,0
39,1010403018595,登記記録の閉鎖等,0,2023-09-12,2023-08-23,合同会社スプラウト開発１号,,合同会社,東京都,港区,赤坂６丁目１２番１１号赤坂甲陽ビル７Ｆ,,13,103,1070052,,,2023-08-23,清算の結了等,,,2018-05-16,1,,,,,スプラウトカイハツイチゴウ,0
58,1011003015594,登記記録の閉鎖等,0,2023-09-12,2023-09-08,合同会社ＳＴＣごか町,,合同会社,東京都,目黒区,洗足２丁目１６番１９号,,13,110,1520012,,,2023-09-08,清算の結了等,,,2022-10-26,1,,,,,エスティーシーゴカマチ,0
81,1012402003891,登記記録の閉鎖等,0,2023-09-12,2023-08-29,有限会社テクノエイト,,有限会社,東京都,国分寺市,日吉町２丁目１１番地１１,,13,214,1850032,,,2023-08-29,清算の結了等,,,2015-10-05,1,,,,,テクノエイト,0
84,1013201001310,登記記録の閉鎖等,0,2023-09-12,2023-09-07,株式会社アースエンジニアリング,,株式会社,東京都,目黒区,祐天寺２丁目１５番１７号,,13,110,1530052,,,2023-09-07,清算の結了等,,,2015-10-05,1,,,,,アースエンジニアリング,0
90,1020001124101,登記記録の閉鎖等,0,2023-09-12,2023-09-04,まるひさ商事株式会社,,株式会社,神奈川県,横浜市鶴見区,豊岡町１３番２２号第３タルヤビル２０２号,,14,101,2300062,,,2023-09-04,清算の結了等,,,2017-12-06,1,,,,,マルヒサショウジ,0
98,1021001058743,登記記録の閉鎖等,0,2023-09-12,2023-09-05,株式会社フューチャーファーム・氣,,株式会社,神奈川県,藤沢市,菖蒲沢１５番地,,14,205,2520823,,,2023-09-05,清算の結了等,,,2016-03-09,1,,,,,フューチャーファームキ,0
101,1021002042531,登記記録の閉鎖等,0,2023-09-12,2023-09-07,株式会社サードステージ,,株式会社,神奈川県,大和市,南林間４丁目６番１７号,,14,213,2420006,,,2023-09-07,合併による解散等,2020001007809,令和５年９月１日横浜市青葉区みたけ台５番地１０株式会社日本アメニティライフ協会（2020001007809）に合併し解散,2015-10-05,1,,,,,サードステージ,0
106,1030001085615,登記記録の閉鎖等,0,2023-09-12,2023-08-18,日本ジェル株式会社,,株式会社,埼玉県,行田市,大字持田２１６５番地,,11,206,3610056,,,2023-08-18,清算の結了等,,,2015-10-05,1,,,,,ニホンジェル,0
123,1050001000010,登記記録の閉鎖等,0,2023-09-12,2023-09-01,株式会社安全保険サービス,,株式会社,茨城県,水戸市,姫子１丁目８４６番地の２,,08,201,3114151,,,2023-09-01,合併による解散等,8050001000136,令和５年９月１日茨城県水戸市姫子一丁目８４６番地の２株式会社エス（8050001000136）に合併し解散,2015-10-05,1,,,,,アンゼンホケンサービス,0
145,1110001016330,登記記録の閉鎖等,0,2023-09-12,2023-09-06,星野金型株式会社,,株式会社,新潟県,燕市,小関８１４番地４,,15,213,9591286,,,2023-09-06,清算の結了等,,,2015-10-05,1,,,,,ホシノカナガタ,0
170,1120101061606,登記記録の閉鎖等,0,2023-09-12,2023-09-04,株式会社ＭＮＢ,,株式会社,大阪府,岸和田市,土生町２丁目３０番２２号タチバナビル３Ｆ,,27,202,5960825,,,2023-09-04,合併による解散等,8120101047185,令和５年９月１日大阪府貝塚市加神一丁目１２番地４北川ビル１Ｆ株式会社Ｂｌｕｅ　Ｓｋｙ　ＦＣ（8120101047185）に合併し解散,2020-04-23,1,,,,,エムエヌビー,0
185,1140005013288,登記記録の閉鎖等,0,2023-09-12,2023-09-08,協同組合ボランタリィチェーン互磨の会,,その他の設立登記法人,兵庫県,加古川市,米田町船頭５１４番地の３１,,28,210,6750053,,,2023-09-08,清算の結了等,,,2015-10-05,1,,,,,ボランタリィチェーンゴマノカイ,0
196,1180001072103,登記記録の閉鎖等,0,2023-09-12,2023-09-06,タナベテック株式会社,,株式会社,愛知県,名古屋市瑞穂区,神前町１丁目６８番地の６,,23,108,4670832,,,2023-09-06,清算の結了等,,,2015-10-05,1,,,,,タナベテック,0
197,1180001106835,登記記録の閉鎖等,0,2023-09-12,2023-09-06,株式会社ＹＧプロモーション,,株式会社,愛知県,名古屋市東区,葵１丁目１５番１８号オフィスサンナゴヤ７階,,23,102,4610004,,,2023-09-06,清算の結了等,,,2015-10-05,1,,,,,ワイジープロモーション,0
204,1180003019440,登記記録の閉鎖等,0,2023-09-12,2023-09-05,合同会社ここから,,合同会社,愛知県,名古屋市中区,金山１丁目７番４号,,23,106,4600022,,,2023-09-05,清算の結了等,,,2018-11-16,1,,,,,ココカラ,0
209,1180305005122,登記記録の閉鎖等,0,2023-09-12,2023-09-04,大浜本町商店街振興組合,,その他の設立登記法人,愛知県,碧南市,本郷町３丁目１３番地,,23,209,4470852,,,2023-09-04,清算の結了等,,,2015-10-05,1,,,,,オオハマホンマチ,0
228,1290001083436,登記記録の閉鎖等,0,2023-09-12,2023-08-31,株式会社スペースファクトリー,,株式会社,福岡県,福岡市中央区,天神４丁目６番７号,,40,133,8100001,,,2023-08-31,清算の結了等,,,2018-11-22,1,,,,,スペースファクトリー,0
231,1290801013385,登記記録の閉鎖等,0,2023-09-12,2023-09-11,株式会社こもり,,株式会社,福岡県,北九州市八幡東区,清田２丁目２番２７号,,40,108,8050034,,,2023-09-11,清算の結了等,,,2015-10-05,1,,,,,コモリ,0
252,1370003000455,登記記録の閉鎖等,0,2023-09-12,2023-09-06,合資会社プラッツオオノ,,合資会社,宮城県,仙台市太白区,あすと長町１丁目５番４２－９０２号,,04,104,9820007,,,2023-09-06,清算の結了等,,,2015-10-05,1,,,,,プラッツオオノ,0
254,1400002002688,登記記録の閉鎖等,0,2023-09-12,2023-09-06,有限会社ビユーテイウエスト,,有限会社,岩手県,盛岡市,月が丘１丁目６番１７号,,03,201,0200121,,,2023-09-06,清算の結了等,,,2015-10-05,1,,,,,ビユーテイウエスト,0
255,1410001006078,登記記録の閉鎖等,0,2023-09-12,2023-09-08,東京刺繍株式会社,00086346,株式会社,秋田県,大館市,川口字隼人岱１０８番地３,,05,204,0170878,,,2023-09-08,合併による解散等,9010601011386,令和５年９月１日東京都墨田区緑二丁目１３番２０号株式会社ズーム（9010601011386）に合併し解散,2015-10-05,1,,,,,,0
263,1480001005255,登記記録の閉鎖等,0,2023-09-12,2023-09-11,介護保険システムサービス株式会社,,株式会社,徳島県,板野郡松茂町,中喜来字群恵３９番地１,,36,401,7710212,,,2023-09-11,清算の結了等,,,2015-10-05,1,,,,,カイゴホケンシステムサービス,0
306,2010502022357,登記記録の閉鎖等,0,2023-09-12,2023-08-04,有限会社ＲＵＤＤＹ,,有限会社,東京都,港区,三田１丁目７番１－２２０４号,,13,103,1080073,,,2023-08-04,清算の結了等,,,2015-10-05,1,,,,,ラディー,0
315,2010703005846,登記記録の閉鎖等,0,2023-09-12,2023-09-05,スタジオえんぴつ合同会社,,合同会社,東京都,品川区,西五反田１丁目２６番２号五反田サンハイツ９１１,,13,109,1410031,,,2023-09-05,清算の結了等,,,2021-07-12,1,,,,,スタジオエンピツ,0
331,2011105008322,登記記録の閉鎖等,0,2023-09-12,2023-09-06,一般社団法人カーサ３,,その他の設立登記法人,東京都,新宿区,四谷２丁目９番地１５東京ユナイテッド綜合事務所内,,13,104,1600004,,,2023-09-06,清算の結了等,,,2018-04-26,1,,,,,カーサスリー,0
339,2011301016467,登記記録の閉鎖等,0,2023-09-12,2023-09-05,株式会社Ｃｏｒｐｏｒａｔｅ－Ｓｅｒｖｉｃｅｓ,,株式会社,東京都,杉並区,西荻北２丁目１９番１８号,,13,115,1670042,,,2023-09-05,清算の結了等,,,2015-10-05,1,,,,,,0
341,2011402009898,登記記録の閉鎖等,0,2023-09-12,2023-09-08,有限会社レストランサンイチ,,有限会社,東京都,板橋区,板橋４丁目４番２号,,13,119,1730004,,,2023-09-08,清算の結了等,,,2015-10-05,1,,,,,,0
344,2011501018973,登記記録の閉鎖等,0,2023-09-12,2023-09-07,株式会社タカハシ,,株式会社,東京都,北区,赤羽台４丁目１７番１８－６２１号,,13,117,1150053,,,2023-09-07,合併による解散等,7010001024627,令和５年９月１日東京都千代田区外神田二丁目１４番１０号第２電波ビル株式会社トーテム（7010001024627）に合併し解散,2015-10-05,1,,,,,,0
362,2013101006755,登記記録の閉鎖等,0,2023-09-12,2023-09-06,株式会社アクアグリーン,,株式会社,東京都,西多摩郡瑞穂町,長岡４丁目３７番４号２０５,,13,303,1901232,,,2023-09-06,合併による解散等,2010001205628,令和５年９月１日東京都立川市錦町一丁目７番１８号立川エフビル３階株式会社アクアグリーン（2010001205628）に合併し解散,2015-10-05,1,,,,,アクアグリーン,0
372,2020002026411,登記記録の閉鎖等,0,2023-09-12,2023-09-04,有限会社小宮商店,,有限会社,神奈川県,横浜市神奈川区,旭ケ丘１０番１０号,,14,102,2210814,,,2023-09-04,清算の結了等,,,2015-10-05,1,,,,,コミヤショウテン,0
373,2021001027581,登記記録の閉鎖等,0,2023-09-12,2023-09-04,株式会社藤井建設,,株式会社,神奈川県,綾瀬市,小園１０９３番地,,14,218,2521121,,,2023-09-04,合併による解散等,3021001027580,令和５年９月１日神奈川県綾瀬市小園１０２７番地１株式会社藤井工務店（3021001027580）に合併し解散,2015-10-05,1,,,,,フジイケンセツ,0
377,2021002071323,登記記録の閉鎖等,0,2023-09-12,2023-09-04,有限会社魚磯商店,,有限会社,神奈川県,三浦市,三崎４丁目３番４号,,14,210,2380243,,,2023-09-04,清算の結了等,,,2015-10-05,1,,,,,,0
379,2030001049651,登記記録の閉鎖等,0,2023-09-12,2023-08-18,株式会社白銀建設,,株式会社,埼玉県,新座市,菅沢２丁目３番１４号,,11,230,3520017,,,2023-08-18,清算の結了等,,,2015-10-05,1,,,,,,0
423,2120001103845,登記記録の閉鎖等,0,2023-09-12,2023-09-01,株式会社スリーエムメガネ本舗,,株式会社,大阪府,大阪市天王寺区,城南寺町８番２２号,,27,109,5430017,,,2023-09-01,合併による解散等,4120001023884,令和５年９月１日大阪市天王寺区城南寺町８番２２号株式会社スリーエム（4120001023884）に合併し解散,2015-10-05,1,,,,,スリーエムメガネホンポ,0
433,2120002011007,登記記録の閉鎖等,0,2023-09-12,2023-09-04,株式会社ジーグループ,,株式会社,大阪府,大阪市東住吉区,杭全５丁目１２番１６号,,27,121,5460002,,,2023-09-04,清算の結了等,,,2015-10-05,1,,,,,,0
435,2120005006441,登記記録の閉鎖等,0,2023-09-12,2023-09-05,大阪ゴム履物工業協同組合,,その他の設立登記法人,大阪府,大阪市生野区,巽中１丁目２１番５号（株）イチマツ化学工業内,00117077,27,116,5440013,,,2023-09-05,清算の結了等,,,2015-10-05,1,,,,,オオサカゴムハキモノコウギョウ,0
444,2120902013498,登記記録の閉鎖等,0,2023-09-12,2023-09-04,有限会社アローネット,,有限会社,大阪府,大阪市中央区,内本町２丁目１番１９号,,27,128,5400026,,,2023-09-04,清算の結了等,,,2015-10-05,1,,,,,アローネット,0
446,2122002009906,登記記録の閉鎖等,0,2023-09-12,2023-09-06,有限会社リレイション,,有限会社,大阪府,東大阪市,吉田６丁目２番５８号,,27,227,5780924,,,2023-09-06,清算の結了等,,,2015-10-05,1,,,,,リレイション,0
451,2130002008927,登記記録の閉鎖等,0,2023-09-12,2023-08-31,有限会社ソーエー,,有限会社,京都府,京都市西京区,桂上野東町８９番地,,26,111,6158003,,,2023-08-31,清算の結了等,,,2015-10-05,1,,,,,ソーエー,0
467,2180002038878,登記記録の閉鎖等,0,2023-09-12,2023-09-07,有限会社ミヤタ・エンタープライズ,,有限会社,愛知県,名古屋市瑞穂区,柏木町２丁目３５番地,,23,108,4670044,,,2023-09-07,清算の結了等,,,2015-10-05,1,,,,,ミヤタエンタープライズ,0
468,2180002072522,登記記録の閉鎖等,0,2023-09-12,2023-09-05,有限会社青木電気工事,,有限会社,愛知県,尾張旭市,吉岡町１丁目１１番地の７,,23,226,4880827,,,2023-09-05,清算の結了等,,,2015-10-05,1,,,,,アオキデンキコウジ,0
478,2220001019115,登記記録の閉鎖等,0,2023-09-12,2023-09-11,株式会社日光石販,,株式会社,石川県,金沢市,田島町ウ７８番地１,,17,201,9201103,,,2023-09-11,清算の結了等,,,2015-10-05,1,,,,,ニッコウセキハン,0
484,2240005015083,登記記録の閉鎖等,0,2023-09-12,2023-09-07,一般社団法人３４４,,その他の設立登記法人,広島県,三次市,三次町１１８１番地３,,34,209,7280021,,,2023-09-07,清算の結了等,,,2020-09-11,1,,,,,サンヨンヨン,0
487,2260001021653,登記記録の閉鎖等,0,2023-09-12,2023-09-01,日特粉化株式会社,,株式会社,岡山県,備前市,東片上２３１６番地,,33,211,7050022,,,2023-09-01,合併による解散等,4260001021593,令和５年９月１日岡山県備前市東片上２３１６番地総合粉化株式会社（4260001021593）に合併し解散,2015-10-05,1,,,,,ニットクフンカ,0
491,2280002010265,登記記録の閉鎖等,0,2023-09-12,2023-09-08,有限会社藤井商事,,有限会社,島根県,益田市,乙吉町イ３３５番地１０,,32,204,6980003,,,2023-09-08,清算の結了等,,,2015-10-05,1,,,,,フジイショウジ,0
503,2380002013068,登記記録の閉鎖等,0,2023-09-12,2023-09-06,有限会社ラボ・ウインズ,,有限会社,福島県,郡山市,芳賀２丁目１０番１４号,,07,203,9638813,,,2023-09-06,清算の結了等,,,2015-10-05,1,,,,,ラボウインズ,0
506,2400001012836,登記記録の閉鎖等,0,2023-09-12,2023-07-26,株式会社越田工業,,株式会社,岩手県,下閉伊郡山田町,織笠第２２地割５５番地,,03,482,0281361,,,2023-07-26,清算の結了等,,,2015-10-05,1,,,,,コシタコウギョウ,0
526,2480002008090,登記記録の閉鎖等,0,2023-09-12,2023-09-08,有限会社堀内寝装店,,有限会社,徳島県,小松島市,赤石町９番１０号,,36,203,7730021,,,2023-09-08,清算の結了等,,,2015-10-05,1,,,,,,0
527,2490002000047,登記記録の閉鎖等,0,2023-09-12,2023-09-08,有限会社鯨工房,,有限会社,高知県,高知市,本宮町３８番地１８,,39,201,7800945,,,2023-09-08,清算の結了等,,,2015-10-05,1,,,,,クジラコウボウ,0
529,2500001004105,登記記録の閉鎖等,0,2023-09-12,2023-09-11,株式会社ＯＭＨ,,株式会社,愛媛県,松山市,祓川２丁目１１番７号,,38,201,7918066,,,2023-09-11,清算の結了等,,,2015-10-05,1,,,,,オーエムエイチ,0
542,3010002050997,登記記録の閉鎖等,0,2023-09-12,2023-09-05,有限会社ティーエムアイジャパン,,有限会社,東京都,文京区,根津１丁目２３番９号プレジデントハイツ３０５号,,13,105,1130031,,,2023-09-05,清算の結了等,,,2015-10-05,1,,,,,ティーエムアイジャパン,0
574,3011001151233,登記記録の閉鎖等,0,2023-09-12,2023-09-08,株式会社ビューティバンク,,株式会社,東京都,渋谷区,道玄坂１丁目２－３,,13,113,1500043,,,2023-09-08,合併による解散等,7011601026087,令和５年７月２４日東京都練馬区上石神井一丁目１８番地１１号パークハウス上石神井１０１株式会社全方位（7011601026087）に合併し解散,2022-12-02,1,,,,,ビューティバンク,0
582,3011101087146,登記記録の閉鎖等,0,2023-09-12,2023-09-08,株式会社アイリス,,株式会社,東京都,新宿区,歌舞伎町１丁目１番１５号,,13,104,1600021,,,2023-09-08,清算の結了等,,,2019-03-14,1,,,,,アイリス,0
585,3011103007036,登記記録の閉鎖等,0,2023-09-12,2023-09-01,エース合同会社,,合同会社,東京都,新宿区,西新宿７丁目１７番１４号,,13,104,1600023,,,2023-09-01,清算の結了等,,,2017-05-08,1,,,,,エース,0
596,3011703001289,登記記録の閉鎖等,0,2023-09-12,2023-09-11,合同会社ＬＩＢ,,合同会社,東京都,江戸川区,春江町５丁目２１番地８ピアコート３０１,,13,123,1340003,,,2023-09-11,清算の結了等,,,2015-10-05,1,,,,,,0
604,3012703001015,登記記録の閉鎖等,0,2023-09-12,2023-09-07,エイチエムビジネスサポート合同会社,,合同会社,東京都,小平市,回田町１９５番地の７,,13,211,1870013,,,2023-09-07,清算の結了等,,,2015-10-05,1,,,,,エイチエムビジネスサポート,0
618,3020002085761,登記記録の閉鎖等,0,2023-09-12,2023-09-04,有限会社アズマ商会,,有限会社,神奈川県,川崎市宮前区,西野川１丁目６番１０号,,14,136,2160044,,,2023-09-04,清算の結了等,,,2015-10-05,1,,,,,アズマショウカイ,0
631,3030001003525,登記記録の閉鎖等,0,2023-09-12,2023-08-18,埼工通信設備株式会社,,株式会社,埼玉県,さいたま市北区,東大成町２丁目４４５番地２,,11,102,3310814,,,2023-08-18,清算の結了等,,,2015-10-05,1,,,,,サイコウツウシンセツビ,0
658,3070001026935,登記記録の閉鎖等,0,2023-09-12,2023-09-05,株式会社ブランニューサーヴ,,株式会社,群馬県,前橋市,前箱田町１００番地１－３Ｆ,,10,201,3710835,,,2023-09-05,合併による解散等,4070001004642,令和５年９月１日群馬県前橋市前箱田町１００番１株式会社ブレーンストーミング（4070001004642）に合併し解散,2015-10-05,1,,,,,ブランニューサーヴ,0
675,3110002034726,登記記録の閉鎖等,0,2023-09-12,2023-09-07,有限会社ナカショク,,有限会社,新潟県,佐渡市,橘２５８番地１,,15,224,9521644,,,2023-09-07,清算の結了等,,,2015-10-05,1,,,,,ナカショク,0
676,3120001131572,登記記録の閉鎖等,0,2023-09-12,2023-09-11,株式会社女性と暮らし社,,株式会社,大阪府,大阪市北区,堂島１丁目４番４号,,27,127,5300003,,,2023-09-11,清算の結了等,,,2015-10-05,1,,,,,ジョセイトクラシシャ,0
678,3120001202737,登記記録の閉鎖等,0,2023-09-12,2023-09-04,株式会社ジョルネーロ,,株式会社,大阪府,大阪市生野区,巽中２丁目１番９号,00108827,27,116,5440013,,,2023-09-04,清算の結了等,,,2017-01-04,1,,,,,,0
679,3120001217033,登記記録の閉鎖等,0,2023-09-12,2023-09-07,株式会社ソレアド,,株式会社,大阪府,大阪市北区,大淀南２丁目８番１８号,,27,127,5310075,,,2023-09-07,清算の結了等,,,2018-11-09,1,,,,,ソレアド,0
680,3120001239085,登記記録の閉鎖等,0,2023-09-12,2023-09-06,風和怡安株式会社,,株式会社,大阪府,大阪市西成区,千本南１丁目１７番２１号２０５－Ｄ室,,27,122,5570055,,,2023-09-06,清算の結了等,,,2021-07-21,1,,,,,フウワイアン,0
681,3120001239952,登記記録の閉鎖等,0,2023-09-12,2023-09-08,Ｌｉｇｈｔｈｉｌｌ　Ｇｌｏｂａｌ株式会社,,株式会社,大阪府,大阪市旭区,中宮５丁目６－８リバーパーク中宮２０２,,27,117,5350003,,,2023-09-08,清算の結了等,,,2021-08-27,1,,,,,ライトヒルグローバル,0
709,3140001009156,登記記録の閉鎖等,0,2023-09-12,2023-09-01,大隆貿易株式会社,,株式会社,兵庫県,神戸市中央区,山本通３丁目１６番１号,,28,110,6500003,,,2023-09-01,合併による解散等,9140001007419,令和５年９月１日神戸市中央区山本通三丁目１６番１号建昌不動産株式会社（9140001007419）に合併し解散,2015-10-05,1,,,,,タイリュウボウエキ,0
724,3180001131344,登記記録の閉鎖等,0,2023-09-12,2023-09-06,株式会社なごみ,,株式会社,愛知県,名古屋市瑞穂区,中根町２丁目６１番地,,23,108,4670055,,,2023-09-06,清算の結了等,,,2018-02-28,1,,,,,ナゴミ,0
734,3180003018317,登記記録の閉鎖等,0,2023-09-12,2023-09-04,合同会社おひさま静岡,,合同会社,愛知県,名古屋市中区,千代田２丁目１０番２４号,,23,106,4600012,,,2023-09-04,合併による解散等,6180003016078,令和５年９月１日名古屋市中区千代田三丁目１５番１２号合同会社ＯＴＳ（6180003016078）に合併し解散,2017-10-04,1,,,,,オヒサマシズオカ,0
739,3200005005418,登記記録の閉鎖等,0,2023-09-12,2023-09-07,特定非営利活動法人ぶんかのタネ,,その他の設立登記法人,岐阜県,揖斐郡池田町,六之井１０７１番地,,21,404,5032425,,,2023-09-07,清算の結了等,,,2015-10-05,1,,,,,ブンカノタネ,0
741,3210001016070,登記記録の閉鎖等,0,2023-09-12,2023-09-06,株式会社申,,株式会社,福井県,敦賀市,赤崎４７号６番地の２,,18,202,9140272,,,2023-09-06,清算の結了等,,,2015-10-05,1,,,,,シン,0
755,3290001018290,登記記録の閉鎖等,0,2023-09-12,2023-09-04,株式会社ライターズ,,株式会社,福岡県,福岡市中央区,薬院４丁目１５番１０号,,40,133,8100022,,,2023-09-04,清算の結了等,,,2015-10-05,1,,,,,ライターズ,0
758,3290002035203,登記記録の閉鎖等,0,2023-09-12,2023-08-31,有限会社シミズ工機,,有限会社,福岡県,宗像市,広陵台２丁目７番地の１３,,40,220,8114165,,,2023-08-31,清算の結了等,,,2015-10-05,1,,,,,シミズコウキ,0
779,3410003001868,登記記録の閉鎖等,0,2023-09-12,2023-09-01,合名会社中嶋商事,,合名会社,秋田県,能代市,二ツ井町字海道上１００番地１,,05,202,0183115,,,2023-09-01,合併による解散等,1410001007448,令和５年９月１日秋田県能代市二ツ井町字海道上１００番地１株式会社二ツ井観光タクシー（1410001007448）に合併し解散,2015-10-05,1,,,,,ナカジマショウジ,0
780,3430001006529,登記記録の閉鎖等,0,2023-09-12,2023-09-01,株式会社まつだ,,株式会社,北海道,札幌市中央区,北二条東７丁目８２番地,,01,101,0600032,,,2023-09-01,清算の結了等,,,2015-10-05,1,,,,,マツダ,0
791,3470001010650,登記記録の閉鎖等,0,2023-09-12,2023-09-04,八幡冷食株式会社,,株式会社,香川県,観音寺市,出作町９５９番地１,,37,205,7680011,,,2023-09-04,清算の結了等,,,2015-10-05,1,,,,,ヤハタレイショク,0
794,3480002014781,登記記録の閉鎖等,0,2023-09-12,2023-09-07,有限会社四国グリーン開発,,有限会社,徳島県,美馬市,美馬町字喜入道６０番地,,36,207,7712105,,,2023-09-07,清算の結了等,,,2015-10-05,1,,,,,シコクグリーンカイハツ,0
800,4010001022963,登記記録の閉鎖等,0,2023-09-12,2023-09-01,株式会社ちくまエンタープライズ,,株式会社,東京都,千代田区,九段北１丁目９番５－４１１号,,13,101,1020073,,,2023-09-01,清算の結了等,,,2015-10-05,1,,,,,チクマエンタープライズ,0
807,4010001176818,登記記録の閉鎖等,0,2023-09-12,2023-09-01,フロントディール株式会社,,株式会社,東京都,千代田区,神田三崎町１丁目４番１７号,,13,101,1010061,,,2023-09-01,合併による解散等,3010001176819,令和５年９月１日東京都千代田区神田三崎町一丁目４番１７号株式会社Ｄダイレクションズ（3010001176819）に合併し解散,2016-07-12,1,,,,,フロントディール,0
825,4010401168860,登記記録の閉鎖等,0,2023-09-12,2023-09-11,株式会社ＭＤＣ,,株式会社,東京都,港区,西新橋２丁目８番１８号共立ビル３Ｆ,,13,103,1050003,,,2023-09-11,清算の結了等,,,2022-08-03,1,,,,,エムディーシー,0
827,4010403016150,登記記録の閉鎖等,0,2023-09-12,2023-09-05,ＳＡＭＵＲＡＩ合同会社,,合同会社,東京都,世田谷区,大原１丁目３－６からまつ荘１０３号室,,13,112,1560041,,,2023-09-05,清算の結了等,,,2017-02-22,1,,,,,サムライ,0
829,4010403027916,登記記録の閉鎖等,0,2023-09-12,2023-08-24,レオ合同会社,,合同会社,東京都,港区,虎ノ門３丁目２２番１０－２０１号,,13,103,1050001,,,2023-08-24,清算の結了等,,,2022-06-16,1,,,,,レオ,0
863,4011105008304,登記記録の閉鎖等,0,2023-09-12,2023-09-06,一般社団法人カーサ２,,その他の設立登記法人,東京都,新宿区,四谷２丁目９番地１５東京ユナイテッド綜合事務所内,,13,104,1600004,,,2023-09-06,清算の結了等,,,2018-04-17,1,,,,,カーサツー,0
867,4011401012983,登記記録の閉鎖等,0,2023-09-12,2023-09-08,株式会社エィシー広告,,株式会社,東京都,板橋区,成増２丁目１７番１０号,,13,119,1750094,,,2023-09-08,清算の結了等,,,2015-10-05,1,,,,,エィシーコウコク,0
871,4012301009558,登記記録の閉鎖等,0,2023-09-12,2023-09-07,株式会社森工務店,,株式会社,東京都,町田市,図師町２９６０番地２４,,13,209,1940203,,,2023-09-07,清算の結了等,,,2015-10-05,1,,,,,モリコウムテン,0
887,4020002002393,登記記録の閉鎖等,0,2023-09-12,2023-09-01,有限会社井上製作所,,有限会社,神奈川県,横浜市泉区,和泉町４７５０番地,,14,116,2450016,,,2023-09-01,清算の結了等,,,2023-07-05,1,,,,,イノウエセイサクジョ,0
894,4030001049179,登記記録の閉鎖等,0,2023-09-12,2023-08-21,株式会社ウィルスタッフ,,株式会社,埼玉県,新座市,野火止４丁目１９番６８－５０５号,,11,230,3520011,,,2023-08-21,清算の結了等,,,2015-10-05,1,,,,,ウィルスタッフ,0
901,4030002083912,登記記録の閉鎖等,0,2023-09-12,2023-08-21,有限会社味園,,有限会社,埼玉県,鴻巣市,下忍３９９０番地の１,,11,217,3690113,,,2023-08-21,清算の結了等,,,2015-10-05,1,,,,,ミソノ,0
919,4070002019887,登記記録の閉鎖等,0,2023-09-12,2023-09-06,有限会社メロー,,有限会社,群馬県,伊勢崎市,美茂呂町３３３４番地１,,10,204,3720037,,,2023-09-06,清算の結了等,,,2015-10-05,1,,,,,メロー,0
922,4080102002338,登記記録の閉鎖等,0,2023-09-12,2023-09-06,有限会社ツチヤ住設,,有限会社,静岡県,沼津市,新沢田町１９番１号,,22,203,4100003,,,2023-09-06,清算の結了等,,,2015-10-05,1,,,,,ツチヤジュウセツ,0
923,4080102017451,登記記録の閉鎖等,0,2023-09-12,2023-09-07,有限会社リヴイエラ,,有限会社,静岡県,富士宮市,長貫１４４１番地の５,,22,207,4190315,,,2023-09-07,清算の結了等,,,2015-10-05,1,,,,,リヴィエラ,0
932,4120001111904,登記記録の閉鎖等,0,2023-09-12,2023-08-31,株式会社ミカミ,,株式会社,大阪府,大阪市北区,中津３丁目２８番２１号,,27,127,5310071,,,2023-08-31,清算の結了等,,,2015-10-05,1,,,,,ミカミ,0
935,4120001167533,登記記録の閉鎖等,0,2023-09-12,2023-09-04,株式会社コズミックウエスト,,株式会社,大阪府,大阪市北区,野崎町９－１３梅田扇町通ビル６Ｆ,,27,127,5300055,,,2023-09-04,合併による解散等,7120001132550,令和５年９月１日大阪市北区野崎町９番１３号株式会社コズミックホールディングス（7120001132550）に合併し解散,2015-10-05,1,,,,,コズミックウエスト,0
939,4120001182846,登記記録の閉鎖等,0,2023-09-12,2023-09-04,株式会社コズミックインターナショナル,,株式会社,大阪府,大阪市北区,野崎町９－１３梅田扇町通ビル６Ｆ,,27,127,5300055,,,2023-09-04,合併による解散等,7120001132550,令和５年９月１日大阪市北区野崎町９番１３号株式会社コズミックホールディングス（7120001132550）に合併し解散,2015-10-05,1,,,,,コズミックインターナショナル,0
951,4120002035128,登記記録の閉鎖等,0,2023-09-12,2023-09-04,関西測量有限会社,,有限会社,大阪府,大阪市中央区,南船場１丁目９番２１号,,27,128,5420081,,,2023-09-04,清算の結了等,,,2015-10-05,1,,,,,カンサイソクリョウ,0
958,4120901026210,登記記録の閉鎖等,0,2023-09-12,2023-09-08,和光製罐株式会社,,株式会社,大阪府,東大阪市,若江東町５丁目２番３０号,,27,227,5780935,,,2023-09-08,清算の結了等,,,2015-10-05,1,,,,,ワコウセイカン,0
959,4120901045045,登記記録の閉鎖等,0,2023-09-12,2023-09-11,株式会社Ｓａｍｕｒａｉ　Ｇａｍｉｎｇ,,株式会社,大阪府,高槻市,大塚町３丁目２６番３－８０５号,,27,207,5690034,,,2023-09-11,清算の結了等,,,2021-10-11,1,,,,,サムライゲーミング,0
976,4180001101544,登記記録の閉鎖等,0,2023-09-12,2023-09-04,株式会社アクセスグループ,,株式会社,愛知県,名古屋市中区,栄３丁目１１番３１号グラスシティ栄１２Ｆ,,23,106,4600008,,,2023-09-04,合併による解散等,1180001109838,令和５年９月１日名古屋市中区栄三丁目１１番３１号グラスシティ栄１４階株式会社ＷｅｅＡｒｅ（1180001109838）に合併し解散,2015-10-05,1,,,,,アクセスグループ,0
980,4180001129354,登記記録の閉鎖等,0,2023-09-12,2023-09-05,株式会社アールグラム,,株式会社,愛知県,名古屋市中区,錦１丁目１０番２７号,,23,106,4600003,,,2023-09-05,合併による解散等,9180001046264,令和５年９月１日名古屋市中区錦一丁目１０番２７号株式会社ケイズコーポレーション（9180001046264）に合併し解散,2017-09-07,1,,,,,アールグラム,0
998,4240005002047,登記記録の閉鎖等,0,2023-09-12,2023-09-08,江波商店街振興組合,,その他の設立登記法人,広島県,広島市中区,江波二本松２丁目４番１５号,,34,101,7300834,,,2023-09-08,清算の結了等,,,2015-10-05,1,,,,,エバ,0
1005,4270002007839,登記記録の閉鎖等,0,2023-09-12,2023-09-07,有限会社ツクタニ地建,,有限会社,鳥取県,境港市,渡町１１３８番地,,31,204,6840072,,,2023-09-07,清算の結了等,,,2015-10-05,1,,,,,ツクタニチケン,0
1009,4280002010767,登記記録の閉鎖等,0,2023-09-12,2023-09-08,有限会社広谷農園,,有限会社,島根県,鹿足郡吉賀町,九郎原４８０番地２,,32,505,6995505,,,2023-09-08,清算の結了等,,,2015-10-05,1,,,,,ヒロタニノウエン,0
1042,4400002001290,登記記録の閉鎖等,0,2023-09-12,2023-09-05,三栄土地有限会社,,有限会社,岩手県,盛岡市,月が丘２丁目１６番２８号,,03,201,0200121,,,2023-09-05,清算の結了等,,,2015-10-05,1,,,,,サンエイトチ,0
1047,4430002052637,登記記録の閉鎖等,0,2023-09-12,2023-08-31,有限会社テツクメンテナンス,,有限会社,北海道,歌志内市,字神威１３４番地,00089608,01,227,0730405,,,2023-08-31,清算の結了等,,,2015-10-05,1,,,,,テツクメンテナンス,0
1048,4430005003331,登記記録の閉鎖等,0,2023-09-12,2023-09-04,特定非営利活動法人ヘルシーコミュニケーションネットワーク,,その他の設立登記法人,北海道,札幌市南区,真駒内緑町３丁目４番,,01,106,0050013,,,2023-09-04,清算の結了等,,,2015-10-05,1,,,,,ヘルシーコミュニケーションネットワーク,0
1052,4470002011886,登記記録の閉鎖等,0,2023-09-12,2023-09-07,有限会社田中秀設備設計事務所,,有限会社,香川県,丸亀市,土居町２丁目１８番１５号,,37,202,7630012,,,2023-09-07,清算の結了等,,,2015-10-05,1,,,,,タナカシュウセツビセッケイジムショ,0
1073,5010002039543,登記記録の閉鎖等,0,2023-09-12,2023-08-16,岡崎食品有限会社,,有限会社,千葉県,船橋市,上山町２丁目３４２番地６,,12,204,2730046,,,2023-08-16,清算の結了等,,,2015-10-05,1,,,,,オカザキショクヒン,0
1109,5011001100642,登記記録の閉鎖等,0,2023-09-12,2023-09-08,株式会社ＢＥＳＴＵＲＥ,,株式会社,東京都,新宿区,歌舞伎町２丁目４６番８号日章ビル７Ｆ,,13,104,1600021,,,2023-09-08,清算の結了等,,,2015-10-05,1,,,,,ベスチャー,0
1113,5011001125359,登記記録の閉鎖等,0,2023-09-12,2023-09-01,レイン株式会社,,株式会社,東京都,港区,六本木６丁目１０番１号六本木ヒルズ森タワー１７階,,13,103,1060032,,,2023-09-01,清算の結了等,,,2018-11-27,1,,,,,レイン,0
1126,5011105008303,登記記録の閉鎖等,0,2023-09-12,2023-09-06,一般社団法人カーサ１,,その他の設立登記法人,東京都,新宿区,四谷２丁目９番地１５東京ユナイテッド綜合事務所内,,13,104,1600004,,,2023-09-06,清算の結了等,,,2018-04-17,1,,,,,カーサワン,0
1127,5011105008328,登記記録の閉鎖等,0,2023-09-12,2023-09-06,一般社団法人カーサ４,,その他の設立登記法人,東京都,新宿区,四谷２丁目９番地１５東京ユナイテッド綜合事務所内,,13,104,1600004,,,2023-09-06,清算の結了等,,,2018-05-09,1,,,,,カーサフォー,0
1157,5013302007616,登記記録の閉鎖等,0,2023-09-12,2023-09-06,有限会社新家酒店,,有限会社,東京都,豊島区,雑司が谷２丁目３番２号,,13,116,1710032,,,2023-09-06,清算の結了等,,,2015-10-05,1,,,,,シンヤサケテン,0
1163,5020002028289,登記記録の閉鎖等,0,2023-09-12,2023-09-05,有限会社港船舶工業,,有限会社,神奈川県,横浜市神奈川区,大口仲町１６５番地９,,14,102,2210003,,,2023-09-05,清算の結了等,,,2015-10-05,1,,,,,ミナトセンパクコウギョウ,0
1170,5021002041265,登記記録の閉鎖等,0,2023-09-12,2023-09-05,有限会社白尾商事,,有限会社,神奈川県,大和市,西鶴間７丁目６番８号,,14,213,2420005,,,2023-09-05,清算の結了等,,,2015-10-05,1,,,,,シラオショウジ,0
1172,5030001139160,登記記録の閉鎖等,0,2023-09-12,2023-08-17,株式会社Ｎ・Ｙ・Ｃ,,株式会社,埼玉県,ふじみ野市,上福岡３丁目４番６号,,11,245,3560004,,,2023-08-17,清算の結了等,,,2020-11-10,1,,,,,エヌワイシー,0
1174,5030002045713,登記記録の閉鎖等,0,2023-09-12,2023-08-22,有限会社ホシノペイント,,有限会社,埼玉県,草加市,谷塚町１４８９番地３,,11,221,3400023,,,2023-08-22,清算の結了等,,,2015-10-05,1,,,,,ホシノペイント,0
1184,5040001060225,登記記録の閉鎖等,0,2023-09-12,2023-08-28,株式会社もと,,株式会社,千葉県,茂原市,八幡原７７５番地,,12,210,2970054,,,2023-08-28,清算の結了等,,,2015-10-05,1,,,,,モト,0
1185,5040001085908,登記記録の閉鎖等,0,2023-09-12,2023-08-29,株式会社えがお,,株式会社,千葉県,流山市,鰭ケ崎１５番地１７メゾンＪ２０１,,12,220,2700161,,,2023-08-29,清算の結了等,,,2015-10-05,1,,,,,エガオ,0
1186,5040002054143,登記記録の閉鎖等,0,2023-09-12,2023-08-24,有限会社三ヶ尾不動産,,有限会社,千葉県,流山市,美原４丁目２０５番地,,12,220,2700103,,,2023-08-24,清算の結了等,,,2023-05-01,1,,,,,サンガオフドウサン,0
1218,5110002003472,登記記録の閉鎖等,0,2023-09-12,2023-09-07,有限会社スペースプランニング,,有限会社,新潟県,新潟市西区,松美台６番１号コーポときわ１００号室,,15,107,9502072,,,2023-09-07,清算の結了等,,,2015-10-05,1,,,,,スペースプランニング,0
1219,5110002021276,登記記録の閉鎖等,0,2023-09-12,2023-09-07,有限会社総合防災システム,,有限会社,新潟県,柏崎市,中浜１丁目５番２１号,,15,205,9450852,,,2023-09-07,清算の結了等,,,2015-10-05,1,,,,,ソウゴウボウサイシステム,0
1222,5120001047718,登記記録の閉鎖等,0,2023-09-12,2023-09-01,ミヅノ株式会社,,株式会社,大阪府,大阪市西区,京町堀１丁目６番２３号,,27,106,5500003,,,2023-09-01,清算の結了等,,,2015-10-05,1,,,,,ミヅノ,0
1232,5120002048772,登記記録の閉鎖等,0,2023-09-12,2023-09-05,有限会社モータープラザトーヨー,,有限会社,大阪府,大阪市福島区,海老江６丁目２番１号,,27,103,5530001,,,2023-09-05,清算の結了等,,,2015-10-05,1,,,,,モータープラザトーヨー,0
1246,5140003012271,登記記録の閉鎖等,0,2023-09-12,2023-09-04,合同会社モリカミ,,合同会社,兵庫県,伊丹市,千僧５丁目７８番地７,,28,207,6640898,,,2023-09-04,清算の結了等,,,2017-07-11,1,,,,,モリカミ,0
1260,5180002030782,登記記録の閉鎖等,0,2023-09-12,2023-09-04,有限会社胡蝶,,有限会社,愛知県,名古屋市東区,白壁４丁目８６番地の３,,23,102,4610011,,,2023-09-04,清算の結了等,,,2015-10-05,1,,,,,コチョウ,0
1272,5210001011607,登記記録の閉鎖等,0,2023-09-12,2023-09-08,株式会社コスモタウン,,株式会社,福井県,越前市,南３丁目１番１６号,,18,209,9150825,,,2023-09-08,清算の結了等,,,2015-10-05,1,,,,,コスモタウン,0
1283,5270002007714,登記記録の閉鎖等,0,2023-09-12,2023-09-07,有限会社神戸ベーカリー,,有限会社,鳥取県,境港市,元町１８７９番地,,31,204,6840032,,,2023-09-07,清算の結了等,,,2015-10-05,1,,,,,コウベベーカリー,0
1310,5370201000071,登記記録の閉鎖等,0,2023-09-12,2023-09-01,株式会社折居技研,,株式会社,宮城県,大崎市,古川桜ノ目字新高谷地３４６番地１,,04,215,9896233,,,2023-09-01,合併による解散等,8370001049389,令和５年９月１日仙台市青葉区中央三丁目３番２０号株式会社７７ＰＥ１（8370001049389）に合併し解散,2015-10-05,1,,,,,オリイギケン,0
1316,5430001023084,登記記録の閉鎖等,0,2023-09-12,2023-08-31,株式会社マルセン,,株式会社,北海道,札幌市西区,八軒九条東４丁目３番１９号,,01,107,0630869,,,2023-08-31,清算の結了等,,,2015-10-05,1,,,,,マルセン,0
1322,5450002002465,登記記録の閉鎖等,0,2023-09-12,2023-09-11,有限会社佐藤インテリア工房,,有限会社,北海道,旭川市,春光三条９丁目１５番５号,,01,204,0700873,,,2023-09-11,清算の結了等,,,2015-10-05,1,,,,,サトウインテリアコウボウ,0
1323,5470002016562,登記記録の閉鎖等,0,2023-09-12,2023-09-07,有限会社山階鉄工所,,有限会社,香川県,三豊市,高瀬町佐股甲６９８番地,,37,208,7670021,,,2023-09-07,清算の結了等,,,2015-10-05,1,,,,,ヤマシナテッコウショ,0
1327,5500001017822,登記記録の閉鎖等,0,2023-09-12,2023-09-11,村門金属製作所株式会社,,株式会社,愛媛県,東温市,上村乙３０５番地６,,38,215,7910221,,,2023-09-11,清算の結了等,,,2015-10-05,1,,,,,ムラカドキンゾクセイサクショ,0
1333,6010001116937,登記記録の閉鎖等,0,2023-09-12,2023-09-04,株式会社宮原,,株式会社,東京都,三宅島三宅村,阿古５６８番地２３,,13,381,1001212,,,2023-09-04,清算の結了等,,,2015-10-05,1,,,,,ミヤハラ,0
1342,6010002011682,登記記録の閉鎖等,0,2023-09-12,2023-09-07,有限会社ゼンケン,,有限会社,東京都,千代田区,内神田１丁目１８番１１号東京ロイヤルプラザ６２０,,13,101,1010047,,,2023-09-07,合併による解散等,8020001016390,令和５年９月１日横浜市中区吉田町７２番地サリュートビル５階株式会社ワイズマン（8020001016390）に合併し解散,2015-10-05,1,,,,,ゼンケン,0
1343,6010002013893,登記記録の閉鎖等,0,2023-09-12,2023-09-04,有限会社福岩,,有限会社,東京都,千代田区,岩本町２丁目２番５号,,13,101,1010032,,,2023-09-04,清算の結了等,,,2015-10-05,1,,,,,フクイワ,0
1356,6010402002975,登記記録の閉鎖等,0,2023-09-12,2023-08-23,有限会社おにかけ,,有限会社,東京都,港区,新橋４丁目６番８号,,13,103,1050004,,,2023-08-23,清算の結了等,,,2015-10-05,1,,,,,オニカケ,0
1361,6010502018285,登記記録の閉鎖等,0,2023-09-12,2023-09-04,有限会社エーワン,,有限会社,東京都,千代田区,一番町８番１３－６０４,,13,101,1020082,,,2023-09-04,合併による解散等,3010001069502,令和５年９月１日東京都千代田区一番町８番１３－６０４株式会社アプリオリ（3010001069502）に合併し解散,2015-10-05,1,,,,,エーワン,0
1374,6011001051323,登記記録の閉鎖等,0,2023-09-12,2023-09-04,株式会社アームスサウンドワークス,,株式会社,神奈川県,川崎市高津区,溝口１丁目７番７－１００５号,,14,134,2130001,,,2023-09-04,清算の結了等,,,2015-10-05,1,,,,,アームスサウンドワークス,0
1379,6011001152410,登記記録の閉鎖等,0,2023-09-12,2023-09-07,Ｙａｇｉｓｈ　Ｌａｂ株式会社,,株式会社,東京都,渋谷区,恵比寿西２丁目３番１２号,,13,113,1500021,,,2023-09-07,清算の結了等,,,2023-02-06,1,,,,,ヤギッシュラボ,0
1388,6011103008700,登記記録の閉鎖等,0,2023-09-12,2023-09-11,合同会社Ｋａｌｅａｔｉｑｕｅ,,合同会社,東京都,新宿区,左門町１４番地６１フォルム四谷外苑東１３０８,,13,104,1600017,,,2023-09-11,清算の結了等,,,2019-04-02,1,,,,,カレアティク,0
1403,6012801003694,登記記録の閉鎖等,0,2023-09-12,2023-09-04,村山電気株式会社,,株式会社,東京都,東大和市,南街５丁目９７番１０,,13,220,2070014,,,2023-09-04,清算の結了等,,,2015-10-05,1,,,,,ムラヤマデンキ,0
1410,6013301012186,登記記録の閉鎖等,0,2023-09-12,2023-09-06,株式会社横田商店,,株式会社,東京都,豊島区,北大塚２丁目１２番４号,,13,116,1700004,,,2023-09-06,清算の結了等,,,2015-10-05,1,,,,,ヨコタショウテン,0
1415,6020002034988,登記記録の閉鎖等,0,2023-09-12,2023-09-04,有限会社轟製作所,,有限会社,神奈川県,横浜市都筑区,大熊町３４番地４,,14,118,2240042,,,2023-09-04,清算の結了等,,,2015-10-05,1,,,,,トドロキセイサクショ,0
1416,6020002051546,登記記録の閉鎖等,0,2023-09-12,2023-09-04,有限会社大千商事,,有限会社,神奈川県,横浜市保土ケ谷区,仏向町１２６０－２,,14,106,2400044,,,2023-09-04,清算の結了等,,,2015-10-05,1,,,,,ダイセンショウジ,0
1425,6021002072094,登記記録の閉鎖等,0,2023-09-12,2023-09-04,有限会社ブライトニング,,有限会社,神奈川県,横浜市中区,翁町２丁目８－５第一東里ビル３０２,,14,104,2310028,,,2023-09-04,清算の結了等,,,2015-10-05,1,,,,,ブライトニング,0
1444,6040001109608,登記記録の閉鎖等,0,2023-09-12,2023-08-28,株式会社アイ・エー・ティ,,株式会社,千葉県,千葉市花見川区,朝日ケ丘２丁目２－３－１０２,,12,102,2620019,,,2023-08-28,清算の結了等,,,2019-06-12,1,,,,,アイエーティー,0
1448,6040002014492,登記記録の閉鎖等,0,2023-09-12,2023-08-29,有限会社ツイン企画,,有限会社,千葉県,千葉市中央区,登戸１丁目９番１４－４０６号,,12,101,2600032,,,2023-08-29,清算の結了等,,,2015-10-05,1,,,,,ツインキカク,0
1459,6060002008055,登記記録の閉鎖等,0,2023-09-12,2023-09-01,有限会社平成,,有限会社,栃木県,宇都宮市,豊郷台２丁目６７番地１,,09,201,3200003,,,2023-09-01,合併による解散等,3060001004413,令和５年９月１日栃木県宇都宮市材木町５番３号株式会社明成興産（3060001004413）に合併し解散,2015-10-05,1,,,,,ヘイセイ,0
1461,6070001024457,登記記録の閉鎖等,0,2023-09-12,2023-09-07,株式会社協進,,株式会社,群馬県,伊勢崎市,日乃出町５７５番地２,,10,204,3720022,,,2023-09-07,清算の結了等,,,2015-10-05,1,,,,,キョウシン,0
1498,6120101059934,登記記録の閉鎖等,0,2023-09-12,2023-09-07,株式会社ケーティーエム,,株式会社,大阪府,堺市北区,長曽根町３０２０番地１１,,27,146,5918025,,,2023-09-07,合併による解散等,1120101004960,令和５年９月７日大阪府堺市北区長曽根町３０２０番地１１株式会社菊池鉄工所（1120101004960）に合併し解散,2019-05-27,1,,,,,ケーティーエム,0
1499,6120102019342,登記記録の閉鎖等,0,2023-09-12,2023-09-07,有限会社Ｈａｎｄ　ｉｎ　ｈａｎｄ,,有限会社,大阪府,羽曳野市,誉田３丁目１０番２３号,,27,222,5830857,,,2023-09-07,清算の結了等,,,2015-10-05,1,,,,,ハンドインハンド,0
1508,6130001044341,登記記録の閉鎖等,0,2023-09-12,2023-08-31,株式会社ＷＨＯ　ｗｉｌｌ　ｂｅ　ｔｈｅ　ｎｅｘｔ　ＨＥＲＯ,,株式会社,京都府,京都市伏見区,下鳥羽北三町１１４番地,,26,109,6128476,,,2023-08-31,清算の結了等,,,2015-10-05,1,,,,,フーウィルビーザネクストヒーロー,0
1524,6180001104264,登記記録の閉鎖等,0,2023-09-12,2023-09-01,株式会社パルマルム,,株式会社,愛知県,名古屋市昭和区,広路通２丁目３番地,,23,107,4660854,,,2023-09-01,合併による解散等,5180001149814,令和５年９月１日名古屋市守山区小幡南三丁目３番地の８株式会社Ｄｅｆｉｒｏ（5180001149814）に合併し解散,2015-10-05,1,,,,,パルマルム,0
1526,6180001134393,登記記録の閉鎖等,0,2023-09-12,2023-09-06,株式会社Ａｒｔ好洋,,株式会社,愛知県,一宮市,萩原町串作字御替地１３番地,,23,203,4910376,,,2023-09-06,清算の結了等,,,2018-11-08,1,,,,,アートコウヨウ,0
1530,6180005009451,登記記録の閉鎖等,0,2023-09-12,2023-09-05,特定非営利活動法人エコトピア・リエゾン２１,,その他の設立登記法人,愛知県,犬山市,字東北野２５５番地３７,,23,215,4840868,,,2023-09-05,清算の結了等,,,2015-10-05,1,,,,,エコトピアリエゾンニジュウイチ,0
1544,6210003000730,登記記録の閉鎖等,0,2023-09-12,2023-09-06,合同会社ｄｆｏｒｃｅ,,合同会社,福井県,鯖江市,吉江町第２号１０番地２,,18,207,9160001,,,2023-09-06,清算の結了等,,,2015-10-05,1,,,,,ディーフォース,0
1555,6290003008196,登記記録の閉鎖等,0,2023-09-12,2023-09-11,合同会社Ｇｒａｓｐｅｒ,,合同会社,福岡県,福岡市中央区,赤坂１丁目１０－９ロクバイビル３階,,40,133,8100042,,,2023-09-11,清算の結了等,,,2018-07-12,1,,,,,グラスパー,0
1560,6300002004723,登記記録の閉鎖等,0,2023-09-12,2023-09-08,有限会社古賀製作所,,有限会社,佐賀県,佐賀市,木原３丁目８番２９号,,41,201,8400015,,,2023-09-08,清算の結了等,,,2015-10-05,1,,,,,コガセイサクショ,0
1568,6340001014562,登記記録の閉鎖等,0,2023-09-12,2023-09-08,株式会社山崎電工,00098836,株式会社,鹿児島県,垂水市,本城３８２２番地１,,46,214,8912112,,,2023-09-08,清算の結了等,,,2015-10-05,1,,,,,ヤマサキデンコウ,0
1578,6370001015946,登記記録の閉鎖等,0,2023-09-12,2023-09-01,アグリフーズシステム株式会社,,株式会社,宮城県,仙台市若林区,卸町４丁目３番地の１,,04,103,9840015,,,2023-09-01,合併による解散等,5370001004215,令和５年９月１日仙台市若林区卸町四丁目３番地の１株式会社やま高商店（5370001004215）に合併し解散,2015-10-05,1,,,,,アグリフーズシステム,0
1588,6430002011558,登記記録の閉鎖等,0,2023-09-12,2023-08-31,有限会社大誠興業,,有限会社,北海道,札幌市東区,北五十一条東２丁目１番３４号,,01,103,0070851,,,2023-08-31,清算の結了等,,,2015-10-05,1,,,,,,0
1593,6470005005842,登記記録の閉鎖等,0,2023-09-12,2023-09-06,一般社団法人青い地球の会,,その他の設立登記法人,香川県,東かがわ市,引田７８６番地１,,37,207,7692901,,,2023-09-06,清算の結了等,,,2015-10-05,1,,,,,アオイチキュウノカイ,0
1608,7010001204492,登記記録の閉鎖等,0,2023-09-12,2023-09-06,システムタグ株式会社,,株式会社,東京都,渋谷区,東３丁目２１番３号ヴェルステージ恵比寿２０４号,,13,113,1500011,,,2023-09-06,清算の結了等,,,2019-10-08,1,,,,,システムタグ,0
1624,7010401147473,登記記録の閉鎖等,0,2023-09-12,2023-09-08,株式会社ＳＯＭＡ　Ｊａｐａｎ,,株式会社,東京都,渋谷区,千駄ヶ谷１丁目２８番８号ニュー千駄ヶ谷マンション２０４号,,13,113,1510051,,,2023-09-08,清算の結了等,,,2019-08-16,1,,,,,ソーマジャパン,0
1628,7010405018084,登記記録の閉鎖等,0,2023-09-12,2023-08-23,特定目的会社御堂筋開発,,その他の設立登記法人,東京都,港区,六本木６丁目１０番１号六本木ヒルズ森タワー,,13,103,1060032,,,2023-08-23,清算の結了等,,,2019-09-17,1,,,,,ミドウスジカイハツ,0
1661,7011501007591,登記記録の閉鎖等,0,2023-09-12,2023-09-06,土田鋼板工業株式会社,,株式会社,東京都,荒川区,町屋１丁目９番８号,,13,118,1160001,,,2023-09-06,清算の結了等,,,2015-10-05,1,,,,,ツチダコウハンコウギョウ,0
1668,7011701015568,登記記録の閉鎖等,0,2023-09-12,2023-09-11,株式会社東日,,株式会社,東京都,江戸川区,東松本１丁目９番６－２０６号,,13,123,1330071,,,2023-09-11,清算の結了等,,,2015-10-05,1,,,,,トウニチ,0
1674,7020001047858,登記記録の閉鎖等,0,2023-09-12,2023-09-04,株式会社アールアンドエムカンパニー,,株式会社,神奈川県,横浜市鶴見区,平安町２丁目２８番地１,,14,101,2300031,,,2023-09-04,清算の結了等,,,2015-10-05,1,,,,,アールアンドエムカンパニー,0
1683,7021001001631,登記記録の閉鎖等,0,2023-09-12,2023-09-04,日本住研株式会社,,株式会社,神奈川県,藤沢市,南藤沢８番１２号,,14,205,2510055,,,2023-09-04,清算の結了等,,,2015-10-05,1,,,,,ニホンジュウケン,0
1693,7021005007377,登記記録の閉鎖等,0,2023-09-12,2023-09-05,ＮＰＯ法人大きなおうち,,その他の設立登記法人,神奈川県,中郡大磯町,大磯１７４８番地,,14,341,2550003,,,2023-09-05,清算の結了等,,,2015-10-05,1,,,,,オオキナオウチ,0
1695,7030001070306,登記記録の閉鎖等,0,2023-09-12,2023-08-16,中島商事株式会社,,株式会社,埼玉県,坂戸市,大字横沼２３２番地７,,11,239,3500203,,,2023-08-16,清算の結了等,,,2015-10-05,1,,,,,ナカジマショウジ,0
1704,7040001020318,登記記録の閉鎖等,0,2023-09-12,2023-08-01,株式会社総合企画設計事務所,,株式会社,千葉県,船橋市,習志野１丁目１４番１棟３０１号,,12,204,2740071,,,2023-08-01,清算の結了等,,,2015-10-05,1,,,,,,0
1718,7060002017518,登記記録の閉鎖等,0,2023-09-12,2023-09-01,有限会社中嶋園芸,,有限会社,栃木県,真岡市,上高間木２丁目１７番地６,,09,209,3214337,,,2023-09-01,合併による解散等,8060002017500,令和５年９月１日栃木県真岡市上高間木二丁目１７番地６株式会社中嶋商事（8060002017500）に合併し解散,2015-10-05,1,,,,,ナカジマエンゲイ,0
1726,7070002018399,登記記録の閉鎖等,0,2023-09-12,2023-09-08,有限会社オフィスＡＣＴＯＲ,,有限会社,群馬県,前橋市,六供町２９番地１０,,10,201,3710804,,,2023-09-08,清算の結了等,,,2015-10-05,1,,,,,オフィスアクター,0
1728,7080003001551,登記記録の閉鎖等,0,2023-09-12,2023-09-05,アトリエＡ合同会社,,合同会社,静岡県,藤枝市,瀬古１丁目３番１２号,,22,214,4260082,,,2023-09-05,清算の結了等,,,2015-10-05,1,,,,,アトリエエー,0
1758,7120005019141,登記記録の閉鎖等,0,2023-09-12,2023-09-07,特定非営利活動法人雇用サポートネットワーク,,その他の設立登記法人,大阪府,大阪市東住吉区,南田辺３丁目８番１号プラグレイス南田辺２０１号,,27,121,5460033,,,2023-09-07,清算の結了等,,,2016-12-28,1,,,,,,0
1776,7130002024738,登記記録の閉鎖等,0,2023-09-12,2023-08-28,有限会社ケンコーポレーション,,有限会社,京都府,長岡京市,開田４丁目８番５号,,26,209,6170826,,,2023-08-28,清算の結了等,,,2015-10-05,1,,,,,ケンコーポレーション,0
1791,7180002082590,登記記録の閉鎖等,0,2023-09-12,2023-09-06,有限会社ユタカ設備,,有限会社,愛知県,岩倉市,下本町西沼７０番地の２,,23,228,4820005,,,2023-09-06,清算の結了等,,,2015-10-05,1,,,,,ユタカセツビ,0
1792,7180003005113,登記記録の閉鎖等,0,2023-09-12,2023-09-06,合資会社小林木工所,,合資会社,愛知県,名古屋市中区,千代田３丁目２４番２号,,23,106,4600012,,,2023-09-06,清算の結了等,,,2015-10-05,1,,,,,コバヤシモッコウジョ,0
1802,7200001029722,登記記録の閉鎖等,0,2023-09-12,2023-09-06,株式会社ディーシーエス・フォト,,株式会社,岐阜県,中津川市,茄子川１５１５番地の２６,,21,206,5099132,,,2023-09-06,合併による解散等,1200001024530,令和５年９月１日岐阜県中津川市千旦林１８９株式会社ディーシーエス（1200001024530）に合併し解散,2015-10-05,1,,,,,ディーシーエスフォト,0
1804,7210003000366,登記記録の閉鎖等,0,2023-09-12,2023-09-07,合資会社丸幸金属,,合資会社,福井県,坂井市,三国町山王２丁目９番４２号,,18,210,9130044,,,2023-09-07,清算の結了等,,,2015-10-05,1,,,,,マルコウキンゾク,0
1806,7210003000523,登記記録の閉鎖等,0,2023-09-12,2023-09-05,ＭＮマーケティング合名会社,,合名会社,福井県,大野市,新河原第４号１４番地,,18,205,9120801,,,2023-09-05,清算の結了等,,,2015-10-05,1,,,,,エムエヌマーケティング,0
1820,7290802013412,登記記録の閉鎖等,0,2023-09-12,2023-09-08,有限会社岩崎グループ,00094520,有限会社,福岡県,北九州市八幡西区,青山２丁目１０番６１号,,40,109,8060043,,,2023-09-08,清算の結了等,,,2015-10-05,1,,,,,イワサキグループ,0
1832,7320002006832,登記記録の閉鎖等,0,2023-09-12,2023-09-07,有限会社明和電気工事,,有限会社,大分県,大分市,法勝台２丁目６番３号,,44,201,8700171,,,2023-09-07,清算の結了等,,,2015-10-05,1,,,,,,0
1834,7330001023704,登記記録の閉鎖等,0,2023-09-12,2023-09-01,株式会社栄斗,,株式会社,熊本県,熊本市中央区,下通１丁目１０番３号５Ｆ,,43,101,8600807,,,2023-09-01,合併による解散等,4330001024812,令和５年９月１日熊本市西区花園五丁目２３番４８－１号株式会社希（4330001024812）に合併し解散,2017-02-06,1,,,,,エイト,0
1835,7330002000792,登記記録の閉鎖等,0,2023-09-12,2023-09-01,有限会社一茶園,,有限会社,熊本県,熊本市中央区,南熊本５丁目１０番８号,,43,101,8600812,,,2023-09-01,清算の結了等,,,2015-10-05,1,,,,,イッサエン,0
1837,7340001006501,登記記録の閉鎖等,0,2023-09-12,2023-09-05,株式会社未来生活,,株式会社,鹿児島県,鹿児島市,紫原５丁目１１番１号ヒルサイドＩＩ２０２号,00123464,46,201,8900082,,,2023-09-05,清算の結了等,,,2015-10-05,1,,,,,ミライセイカツ,0
1841,7350002012992,登記記録の閉鎖等,0,2023-09-12,2023-07-13,有限会社高兼工務店,,有限会社,宮崎県,延岡市,北浦町市振５４８番地,,45,203,8890302,,,2023-07-13,清算の結了等,,,2015-10-05,1,,,,,タカカネコウムテン,0
1846,7380002031734,登記記録の閉鎖等,0,2023-09-12,2023-09-06,有限会社ケージャパン,,有限会社,福島県,会津若松市,町北町大字始字深町９２番地１,,07,202,9650052,,,2023-09-06,清算の結了等,,,2015-10-05,1,,,,,ケージャパン,0
1847,7380005011956,登記記録の閉鎖等,0,2023-09-12,2023-09-06,一般社団法人ウィル,,その他の設立登記法人,福島県,相馬市,中村字川沼２４０番地,,07,209,9760042,,,2023-09-06,清算の結了等,,,2017-12-22,1,,,,,ウィル,0
1849,7400002001899,登記記録の閉鎖等,0,2023-09-12,2023-09-07,有限会社タウンデザインクラブ,,有限会社,岩手県,盛岡市,西青山３丁目２２番１４号,,03,201,0200132,,,2023-09-07,清算の結了等,,,2015-10-05,1,,,,,タウンデザインクラブ,0
1855,7430005013311,登記記録の閉鎖等,0,2023-09-12,2023-09-04,北の木工産業協同組合,,その他の設立登記法人,北海道,三笠市,岡山１９４番地,,01,222,0682165,,,2023-09-04,清算の結了等,,,2018-01-29,1,,,,,キタノモッコウサンギョウ,0
1867,8010001173679,登記記録の閉鎖等,0,2023-09-12,2023-09-04,株式会社セーブル,,株式会社,東京都,千代田区,一番町８番１３－６０４,,13,101,1020082,,,2023-09-04,合併による解散等,3010001069502,令和５年９月１日東京都千代田区一番町８番１３－６０４株式会社アプリオリ（3010001069502）に合併し解散,2016-02-18,1,,,,,セーブル,0
1868,8010001220472,登記記録の閉鎖等,0,2023-09-12,2023-09-06,株式会社セカミー,,株式会社,東京都,千代田区,外神田６丁目１１－１４アーツ千代田３３３１Ｓ０１,,13,101,1010021,,,2023-09-06,清算の結了等,,,2021-08-18,1,,,,,セカミー,0
1929,8012802001299,登記記録の閉鎖等,0,2023-09-12,2023-09-05,有限会社園部肉店,,有限会社,東京都,立川市,曙町２丁目２８番１６号,00059191,13,202,1900012,,,2023-09-05,清算の結了等,,,2015-10-05,1,,,,,ソノベニクテン,0
1934,8020001098702,登記記録の閉鎖等,0,2023-09-12,2023-09-04,株式会社クリフ,,株式会社,神奈川県,横浜市都筑区,富士見が丘１４番６号,,14,118,2240051,,,2023-09-04,清算の結了等,,,2015-10-05,1,,,,,クリフ,0
1947,8021002022766,登記記録の閉鎖等,0,2023-09-12,2023-09-05,有限会社トッププロダクト,,有限会社,神奈川県,相模原市中央区,小町通１丁目１２０番地５,,14,152,2520217,,,2023-09-05,清算の結了等,,,2015-10-05,1,,,,,トッププロダクト,0
1949,8021003004045,登記記録の閉鎖等,0,2023-09-12,2023-09-04,エバー創健合同会社,,合同会社,神奈川県,大和市,福田２丁目８番３,,14,213,2420024,,,2023-09-04,清算の結了等,,,2015-10-05,1,,,,,エバーソウケン,0
1954,8030001013759,登記記録の閉鎖等,0,2023-09-12,2023-09-04,株式会社さくらレッスン,,株式会社,東京都,港区,赤坂２丁目１７番７３号,,13,103,1070052,,,2023-09-04,合併による解散等,6010401069248,令和５年９月１日東京都港区赤坂二丁目１７番７３号株式会社ＴＩＯ（6010401069248）に合併し解散,2015-10-05,1,,,,,サクラレッスン,0
1959,8030001143969,登記記録の閉鎖等,0,2023-09-12,2023-08-21,株式会社アクティブイースト,,株式会社,埼玉県,行田市,長野１丁目９番７号,,11,206,3610023,,,2023-08-21,清算の結了等,,,2021-08-26,1,,,,,アクティブイースト,0
1967,8030005001314,登記記録の閉鎖等,0,2023-09-12,2023-08-22,特定非営利活動法人生活介護ネットワーク,,その他の設立登記法人,埼玉県,さいたま市緑区,大字中尾１８１３番地８,,11,109,3360932,,,2023-08-22,清算の結了等,,,2015-10-05,1,,,,,セイカツカイゴネットワーク,0
1982,8080101008027,登記記録の閉鎖等,0,2023-09-12,2023-09-08,株式会社青木機械,,株式会社,静岡県,富士市,本市場新田６０８番地の３,,22,210,4160904,,,2023-09-08,清算の結了等,,,2015-10-05,1,,,,,アオキキカイ,0
1985,8080401001937,登記記録の閉鎖等,0,2023-09-12,2023-09-11,株式会社さくら衣裳,,株式会社,静岡県,浜松市南区,飯田町３３２番地の１,,22,134,4350028,,,2023-09-11,清算の結了等,,,2015-10-05,1,,,,,サクライショウ,0
1986,8080402013790,登記記録の閉鎖等,0,2023-09-12,2023-09-08,有限会社プライム,,有限会社,静岡県,浜松市中区,佐鳴台１丁目６番３号,,22,131,4328021,,,2023-09-08,清算の結了等,,,2015-10-05,1,,,,,プライム,0
1994,8110001010277,登記記録の閉鎖等,0,2023-09-12,2023-09-06,株式会社寝具のいとう,,株式会社,新潟県,新潟市中央区,姥ケ山５丁目１２番１０号,,15,103,9500923,,,2023-09-06,清算の結了等,,,2015-10-05,1,,,,,シングノイトウ,0
1999,8120001122195,登記記録の閉鎖等,0,2023-09-12,2023-09-01,ジョンソンヘルスケア株式会社,,株式会社,大阪府,大阪市中央区,常盤町１丁目３番８号,,27,128,5400028,,,2023-09-01,合併による解散等,2120001039767,令和５年９月１日大阪市中央区農人橋一丁目１番２２号株式会社フジ医療器（2120001039767）に合併し解散,2015-10-05,1,,,,,ジョンソンヘルスケア,0
2001,8120001192833,登記記録の閉鎖等,0,2023-09-12,2023-09-07,株式会社ソレイド,,株式会社,大阪府,大阪市北区,大淀南２丁目８番１８号,,27,127,5310075,,,2023-09-07,清算の結了等,,,2015-10-05,1,,,,,ソレイド,0
2004,8120001238875,登記記録の閉鎖等,0,2023-09-12,2023-09-06,Ｇ．Ｏ．Ｂ．Ｊａｐａｎ株式会社,,株式会社,大阪府,大阪市西成区,千本南１丁目１７番２１号１０２－Ｇ室,,27,122,5570055,,,2023-09-06,清算の結了等,,,2021-07-15,1,,,,,ジーオービージャパン,0
2009,8120002000722,登記記録の閉鎖等,0,2023-09-12,2023-08-31,三ツ輪不動産有限会社,,有限会社,大阪府,大阪市旭区,赤川４丁目８番４３号,,27,117,5350005,,,2023-08-31,清算の結了等,,,2015-10-05,1,,,,,ミツワフドウサン,0
2017,8120105009017,登記記録の閉鎖等,0,2023-09-12,2023-09-04,一般社団法人蕾,,その他の設立登記法人,大阪府,泉大津市,我孫子３７番５,,27,206,5950031,,,2023-09-04,清算の結了等,,,2019-04-11,1,,,,,ツボミ,0
2030,8130002026683,登記記録の閉鎖等,0,2023-09-12,2023-08-31,有限会社ナカガワ,,有限会社,京都府,宇治市,神明石塚２１番地１７,,26,204,6110025,,,2023-08-31,清算の結了等,,,2015-10-05,1,,,,,ナカガワ,0
2031,8130005012648,登記記録の閉鎖等,0,2023-09-12,2023-09-01,特定非営利活動法人ルソレイル,,その他の設立登記法人,京都府,城陽市,市辺上芦原３０番地の３７,,26,207,6100114,,,2023-09-01,清算の結了等,,,2015-10-05,1,,,,,ルソレイル,0
2032,8140001011553,登記記録の閉鎖等,0,2023-09-12,2023-09-05,株式会社ユニオン・データーサービス,,株式会社,兵庫県,神戸市長田区,滝谷町３丁目３番２５号,,28,106,6530881,,,2023-09-05,清算の結了等,,,2015-10-05,1,,,,,ユニオンデーターサービス,0
2045,8140005009024,登記記録の閉鎖等,0,2023-09-12,2023-09-05,特定非営利活動法人たまごママネット,,その他の設立登記法人,兵庫県,丹波篠山市,谷山５９９番地５,,28,221,6692453,,,2023-09-05,清算の結了等,,,2015-10-05,1,,,,,タマゴママネット,0
2053,8180002020863,登記記録の閉鎖等,0,2023-09-12,2023-09-07,有限会社ミヤタアルミ,,有限会社,愛知県,名古屋市中川区,八剱町３丁目５７番地の５,,23,110,4540054,,,2023-09-07,清算の結了等,,,2015-10-05,1,,,,,ミヤタアルミ,0
2055,8180002045935,登記記録の閉鎖等,0,2023-09-12,2023-09-07,有限会社アンダンテ総合企画,,有限会社,愛知県,名古屋市中川区,戸田４丁目１６０５番地の１,,23,110,4540962,,,2023-09-07,清算の結了等,,,2015-10-05,1,,,,,アンダンテソウゴウキカク,0
2058,8180303005324,登記記録の閉鎖等,0,2023-09-12,2023-09-04,合同会社大鐘,,合同会社,愛知県,豊橋市,北島町字北島１４８番地の３,,23,201,4400071,,,2023-09-04,清算の結了等,,,2022-05-10,1,,,,,オオガネ,0
2064,8230001002337,登記記録の閉鎖等,0,2023-09-12,2023-09-08,株式会社中田食品,,株式会社,富山県,富山市,大泉町３丁目３番２０号,,16,201,9398087,,,2023-09-08,清算の結了等,,,2015-10-05,1,,,,,ナカダショクヒン,0
2082,8290002047821,登記記録の閉鎖等,0,2023-09-12,2023-08-31,有限会社西日本新聞エリアセンター羽犬塚,,有限会社,福岡県,筑後市,大字山ノ井３５１番地の６,,40,211,8330031,,,2023-08-31,清算の結了等,,,2015-10-05,1,,,,,ニシニホンシンブンエリアセンターハイヌヅカ,0
2091,8320001011568,登記記録の閉鎖等,0,2023-09-12,2023-09-07,株式会社東大エコサービス,,株式会社,大分県,大分市,仲西町１丁目１０番１５－１０１号,,44,201,8700135,,,2023-09-07,清算の結了等,,,2015-10-05,1,,,,,,0
2094,8340001009321,登記記録の閉鎖等,0,2023-09-12,2023-09-11,株式会社チェスト,,株式会社,鹿児島県,鹿児島市,中央町２２番地１６,,46,201,8900053,,,2023-09-11,清算の結了等,,,2015-10-05,1,,,,,チェスト,0
2123,8450003001752,登記記録の閉鎖等,0,2023-09-12,2023-09-11,エイキリース合同会社,,合同会社,北海道,旭川市,東旭川南一条３丁目２番３号,,01,204,0788261,,,2023-09-11,清算の結了等,,,2018-09-05,1,,,,,エイキリース,0
2171,9010501048990,登記記録の閉鎖等,0,2023-09-12,2023-09-08,日本万泰株式会社,,株式会社,東京都,台東区,上野３丁目１１番５号,,13,106,1100005,,,2023-09-08,清算の結了等,,,2022-06-21,1,,,,,ニホンマンタイ,0
2185,9011001029944,登記記録の閉鎖等,0,2023-09-12,2023-09-06,りらいあコミュニケーションズ株式会社,,株式会社,東京都,渋谷区,代々木２丁目６番５号,,13,113,1510053,,,2023-09-06,合併による解散等,4011101006162,令和５年９月１日東京都新宿区西新宿二丁目３番２号アルティウスリンク株式会社（4011101006162）に合併し解散,2015-10-05,1,,,,,リライアコミュニケーションズ,0
2186,9011001035141,登記記録の閉鎖等,0,2023-09-12,2023-09-08,株式会社デジタルキング,,株式会社,東京都,渋谷区,渋谷２丁目１２番８号,,13,113,1500002,,,2023-09-08,清算の結了等,,,2015-10-05,1,,,,,デジタルキング,0
2207,9011601025649,登記記録の閉鎖等,0,2023-09-12,2023-08-25,株式会社クレセス,,株式会社,東京都,練馬区,大泉学園町７丁目６番２６号,,13,120,1780061,,,2023-08-25,合併による解散等,8011601019305,令和５年８月１日東京都練馬区大泉学園町七丁目６番２６号デリバーサタイル株式会社（8011601019305）に合併し解散,2022-01-05,1,,,,,クレセス,0
2211,9012401018999,登記記録の閉鎖等,0,2023-09-12,2023-09-08,株式会社Ｊ＆パートナーズ,,株式会社,東京都,調布市,小島町３丁目６３番地４,,13,208,1820026,,,2023-09-08,清算の結了等,,,2015-10-05,1,,,,,ジェイアンドパートナーズ,0
2215,9020001136031,登記記録の閉鎖等,0,2023-09-12,2023-09-07,株式会社アネシスリンク,,株式会社,神奈川県,横浜市港北区,新横浜３丁目６番１２号,,14,109,2220033,,,2023-09-07,合併による解散等,4020001054980,令和５年８月１５日東京都渋谷区渋谷三丁目１２番２２号株式会社アネシス（4020001054980）に合併し解散,2020-05-12,1,,,,,アネシスリンク,0
2219,9020002088726,登記記録の閉鎖等,0,2023-09-12,2023-08-30,有限会社研水エンジニアリング,,有限会社,神奈川県,川崎市高津区,久末１２４,,14,134,2130026,,,2023-08-30,清算の結了等,,,2015-10-05,1,,,,,ケンスイエンジニアリング,0
2221,9021001031726,登記記録の閉鎖等,0,2023-09-12,2023-09-05,株式会社ウツミエンジニアリング,,株式会社,神奈川県,相模原市中央区,弥栄２丁目１４番１５号,,14,152,2520229,,,2023-09-05,清算の結了等,,,2015-10-05,1,,,,,ウツミエンジニアリング,0
2234,9030001054505,登記記録の閉鎖等,0,2023-09-12,2023-08-21,株式会社アルファ,,株式会社,埼玉県,川越市,広谷新町２８番地１９,,11,201,3500805,,,2023-08-21,清算の結了等,,,2015-10-05,1,,,,,アルファ,0
2250,9040002009663,登記記録の閉鎖等,0,2023-09-12,2023-08-21,有限会社日高プロダクション,,有限会社,埼玉県,朝霞市,根岸台８丁目７番４４号,,11,227,3510005,,,2023-08-21,清算の結了等,,,2015-10-05,1,,,,,ヒダカプロダクション,0
2254,9040002101908,登記記録の閉鎖等,0,2023-09-12,2023-08-28,有限会社藤典礼,,有限会社,千葉県,いすみ市,大原７７８２番地の１,,12,238,2980004,,,2023-08-28,清算の結了等,,,2015-10-05,1,,,,,フジテンレイ,0
2255,9050001000143,登記記録の閉鎖等,0,2023-09-12,2023-09-01,株式会社ブレーンネット,,株式会社,茨城県,水戸市,姫子１丁目８４６番地の２,,08,201,3114151,,,2023-09-01,合併による解散等,8050001000136,令和５年９月１日茨城県水戸市姫子一丁目８４６番地の２株式会社エス（8050001000136）に合併し解散,2015-10-05,1,,,,,ブレーンネット,0
2262,9070001005850,登記記録の閉鎖等,0,2023-09-12,2023-09-08,株式会社オフィス松村,,株式会社,群馬県,前橋市,六供町２９番地２,,10,201,3710804,,,2023-09-08,清算の結了等,,,2015-10-05,1,,,,,オフィスマツムラ,0
2277,9110001001688,登記記録の閉鎖等,0,2023-09-12,2023-09-08,株式会社キョーヤク,,株式会社,新潟県,新潟市西区,小針３丁目１１番１１号,,15,107,9502022,,,2023-09-08,合併による解散等,3100001013599,令和５年９月１日長野県松本市筑摩二丁目２６番１７号株式会社中部日本医薬（3100001013599）に合併し解散,2015-10-05,1,,,,,キョーヤク,0
2298,9120101047218,登記記録の閉鎖等,0,2023-09-12,2023-09-04,株式会社まなび,,株式会社,大阪府,貝塚市,加神１丁目１２番４号,,27,208,5970071,,,2023-09-04,合併による解散等,8120101047185,令和５年９月１日大阪府貝塚市加神一丁目１２番地４北川ビル１Ｆ株式会社Ｂｌｕｅ　Ｓｋｙ　ＦＣ（8120101047185）に合併し解散,2015-10-05,1,,,,,マナビ,0
2302,9120901026230,登記記録の閉鎖等,0,2023-09-12,2023-09-11,株式会社ワンダーランド,,株式会社,大阪府,豊中市,春日町４丁目４番１１号,,27,203,5600052,,,2023-09-11,清算の結了等,,,2015-10-05,1,,,,,ワンダーランド,0
2326,9180001137195,登記記録の閉鎖等,0,2023-09-12,2023-09-08,株式会社ＡＳＸＥＥＤ,,株式会社,愛知県,名古屋市中村区,則武１丁目１３番９号チサンマンション第３名古屋５０４号室,,23,105,4530014,,,2023-09-08,清算の結了等,,,2019-07-08,1,,,,,アスシード,0
2328,9180001149918,登記記録の閉鎖等,0,2023-09-12,2023-09-06,株式会社Ｃｈｉｌｌ,,株式会社,愛知県,名古屋市中区,錦１丁目１０番１２号－１,,23,106,4600003,,,2023-09-06,清算の結了等,,,2022-02-09,1,,,,,チル,0
2333,9180302010605,登記記録の閉鎖等,0,2023-09-12,2023-08-31,有限会社渡辺建材店,,有限会社,愛知県,豊橋市,駅前大通２丁目５３番地,,23,201,4400888,,,2023-08-31,清算の結了等,,,2015-10-05,1,,,,,ワタナベケンザイテン,0
2346,9260001021639,登記記録の閉鎖等,0,2023-09-12,2023-09-01,東洋粉化株式会社,,株式会社,岡山県,備前市,閑谷８８５番地,,33,211,7050036,,,2023-09-01,合併による解散等,4260001021593,令和５年９月１日岡山県備前市東片上２３１６番地総合粉化株式会社（4260001021593）に合併し解散,2015-10-05,1,,,,,トウヨウフンカ,0
2357,9290802013930,登記記録の閉鎖等,0,2023-09-12,2023-09-11,有限会社草村建設,,有限会社,福岡県,北九州市八幡西区,楠橋上方２丁目３番２６号,,40,109,8071141,,,2023-09-11,清算の結了等,,,2015-10-05,1,,,,,クサムラケンセツ,0
2361,9330001015559,登記記録の閉鎖等,0,2023-09-12,2023-09-01,パールライン株式会社,,株式会社,熊本県,上天草市,大矢野町中９８６１番地６,,43,212,8693603,,,2023-09-01,清算の結了等,,,2015-10-05,1,,,,,パールライン,0
2400,9430001047625,登記記録の閉鎖等,0,2023-09-12,2023-08-31,メディカルクリーンアトリ株式会社,,株式会社,北海道,空知郡南幌町,南１０線西１４番地,,01,423,0690210,,,2023-08-31,清算の結了等,,,2015-10-05,1,,,,,メディカルクリーンアトリ,0
2413,9480002000248,登記記録の閉鎖等,0,2023-09-12,2023-09-11,有限会社アキ一級建築士事務所,00005860,有限会社,徳島県,徳島市,昭和町３丁目１１番地,,36,201,7700942,,,2023-09-11,清算の結了等,,,2015-10-05,1,,,,,アキイッキュウケンチクシジムショ,0
2416,9500001005749,登記記録の閉鎖等,0,2023-09-12,2023-09-06,株式会社坊っちゃん電力,,株式会社,愛媛県,松山市,日の出町７番８号カサグランデ越智４階,,38,201,7900961,,,2023-09-06,合併による解散等,9010001227087,令和５年９月１日東京都千代田区丸の内一丁目６番１号丸の内センタービル２Ｆ株式会社エネワンでんき（9010001227087）に合併し解散,2015-10-05,1,,,,,ボッチャンデンリョク,0
2418,9500002022009,登記記録の閉鎖等,0,2023-09-12,2023-09-11,有限会社伊予ホーム建設,,有限会社,愛媛県,四国中央市,土居町入野５４４番地,,38,213,7990712,,,2023-09-11,清算の結了等,,,2015-10-05,1,,,,,イヨホームケンセツ,0
