sequenceNumber,corporateNumber,process,correct,updateDate,changeDate,name,nameImageId,kind,prefectureName,cityName,streetNumber,addressImageId,prefectureCode,cityCode,postCode,addressOutside,addressOutsideImageId,closeDate,closeCause,successorCorporateNumber,changeCause,assignmentDate,latest,enName,enPrefectureName,enCityName,enAddressOutside,furigana,hihyoji
3,1010001157548,登記記録の閉鎖等,0,2026-02-05,2026-01-13,ＪＰＣ第２９号株式会社,,株式会社,東京都,千代田区,霞が関３丁目２番１号,,13,101,1000013,,,2026-01-13,清算の結了等,,,2015-10-05,1,,,,,ジェイピーシーダイニジュウキュウゴウ,0
5,1010001186002,登記記録の閉鎖等,0,2026-02-05,2026-01-13,ＪＰＡ第５０号株式会社,,株式会社,東京都,千代田区,霞が関３丁目２番１号,,13,101,1000013,,,2026-01-13,清算の結了等,,,2017-09-06,1,,,,,ジェイピーエーダイゴジュウゴウ,0
12,1010401152495,登記記録の閉鎖等,0,2026-02-05,2026-01-26,ＣＳＵＰ株式会社,,株式会社,東京都,豊島区,千川２丁目３４番９－３０５号,,13,116,1710041,,,2026-01-26,清算の結了等,,,2020-04-27,1,,,,,シーサップ,0
19,1010601013828,登記記録の閉鎖等,0,2026-02-05,2026-01-27,株式会社巴潟,,株式会社,東京都,墨田区,両国２丁目１７番６号,,13,107,1300026,,,2026-01-27,清算の結了等,,,2015-10-05,1,,,,,トモエガタ,0
49,1012703001520,登記記録の閉鎖等,0,2026-02-05,2026-01-27,合同会社プリュク,,合同会社,東京都,東久留米市,南町４丁目３番３２号,,13,222,2030031,,,2026-01-27,清算の結了等,,,2017-10-16,1,,,,,プリュク,0
74,1030002056623,登記記録の閉鎖等,0,2026-02-05,2026-01-29,有限会社富永輪業,,有限会社,埼玉県,北足立郡伊奈町,寿２丁目４１６番地,,11,301,3620807,,,2026-01-29,清算の結了等,,,2015-10-05,1,,,,,トミナガリンギョウ,0
87,1050001009258,登記記録の閉鎖等,0,2026-02-05,2026-01-29,株式会社家具の森内,,株式会社,茨城県,土浦市,中央２丁目３番１０号,,08,203,3000043,,,2026-01-29,清算の結了等,,,2015-10-05,1,,,,,カグノモリウチ,0
88,1050001022161,登記記録の閉鎖等,0,2026-02-05,2026-01-29,株式会社吉田建設,,株式会社,茨城県,神栖市,知手２９５０番地９８,,08,232,3140115,,,2026-01-29,清算の結了等,,,2015-10-05,1,,,,,ヨシダケンセツ,0
95,1060002025419,登記記録の閉鎖等,0,2026-02-05,2026-02-04,有限会社精工石材店,,有限会社,栃木県,大田原市,山の手２丁目１３番１４号,,09,210,3240051,,,2026-02-04,清算の結了等,,,2015-10-05,1,,,,,セイコウセキザイテン,0
96,1060002036151,登記記録の閉鎖等,0,2026-02-05,2026-02-03,有限会社古俣建築,,有限会社,栃木県,足利市,里矢場町１００２番地の８,,09,202,3260835,,,2026-02-03,清算の結了等,,,2015-10-05,1,,,,,コマタケンチク,0
100,1080401022915,登記記録の閉鎖等,0,2026-02-05,2026-01-30,株式会社ライフディーセント,,株式会社,静岡県,掛川市,肴町１番地の１７,,22,213,4360078,,,2026-01-30,清算の結了等,,,2018-05-08,1,,,,,ライフディーセント,0
102,1090005004722,登記記録の閉鎖等,0,2026-02-05,2025-12-15,天理教若神子分教会,,その他の設立登記法人,山梨県,北杜市,須玉町穴平２８４番地,,19,209,4080111,,,2025-12-15,合併による解散等,1090005004870,令和７年１２月１５日山梨県北杜市高根町下黒澤２４９７番地天理教北巨摩分教会（1090005004870）に合併し解散,2015-10-05,1,,,,,テンリキョウワカミコブンキョウカイ,0
107,1110002034232,登記記録の閉鎖等,0,2026-02-05,2026-01-23,有限会社ノア商会,,有限会社,新潟県,南魚沼郡湯沢町,大字三国４６９番地１１０,,15,461,9496212,,,2026-01-23,清算の結了等,,,2015-10-05,1,,,,,ノアショウカイ,0
129,1130002029164,登記記録の閉鎖等,0,2026-02-05,2026-02-02,有限会社明星工業,,有限会社,京都府,亀岡市,大井町土田３丁目３１番１３号,,26,206,6210011,,,2026-02-02,清算の結了等,,,2015-10-05,1,,,,,メイセイコウギョウ,0
133,1140001086965,登記記録の閉鎖等,0,2026-02-05,2026-02-02,株式会社ファンテン,,株式会社,兵庫県,明石市,大明石町２丁目２番１８号,,28,203,6730891,,,2026-02-02,清算の結了等,,,2015-10-05,1,,,,,ファンテン,0
135,1140001114908,登記記録の閉鎖等,0,2026-02-05,2026-01-30,舞鶴ファーマシー株式会社,,株式会社,兵庫県,尼崎市,御園町２４番地尼崎第一ビル４０２号,,28,202,6600861,,,2026-01-30,清算の結了等,,,2019-09-17,1,,,,,マイヅルファーマシー,0
146,1170002005054,登記記録の閉鎖等,0,2026-02-05,2026-02-02,有限会社ノーブル,,有限会社,和歌山県,和歌山市,毛見４５０番地の２９,,30,201,6410014,,,2026-02-02,清算の結了等,,,2015-10-05,1,,,,,ノーブル,0
147,1170005003451,登記記録の閉鎖等,0,2026-02-05,2025-12-25,社会福祉法人神愛会,,その他の設立登記法人,和歌山県,西牟婁郡上富田町,岩田２７５４番地の３,,30,404,6492102,,,2025-12-25,合併による解散等,3120005013965,令和７年１２月２４日大阪府門真市桑才町１９番２５号社会福祉法人三養福祉会（3120005013965）に合併し解散,2015-10-05,1,,,,,シンアイカイ,0
149,1180001096077,登記記録の閉鎖等,0,2026-02-05,2026-02-02,株式会社笑門ケア・サービス,,株式会社,愛知県,東海市,富木島町新道才５８番地,,23,222,4760011,,,2026-02-02,合併による解散等,6180001089992,令和８年２月１日名古屋市中区上前津二丁目１３番１９号元気創健株式会社（6180001089992）に合併し解散,2015-10-05,1,,,,,ショウモンケアサービス,0
173,1260001013321,登記記録の閉鎖等,0,2026-02-05,2026-02-02,株式会社コスモエンタープライズ,,株式会社,岡山県,倉敷市,下庄９４８番地の１,,33,202,7010112,,,2026-02-02,清算の結了等,,,2015-10-05,1,,,,,コスモエンタープライズ,0
177,1290001045659,登記記録の閉鎖等,0,2026-02-05,2026-01-28,西田産業株式会社,,株式会社,福岡県,飯塚市,堀池４６番地３,,40,205,8200070,,,2026-01-28,清算の結了等,,,2015-10-05,1,,,,,ニシダサンギョウ,0
178,1290001054998,登記記録の閉鎖等,0,2026-02-05,2025-12-05,株式会社ＲＧＢ,,株式会社,福岡県,古賀市,今の庄３丁目１２番１号,,40,223,8113117,,,2025-12-05,清算の結了等,,,2015-10-05,1,,,,,アールジービー,0
184,1290002034289,登記記録の閉鎖等,0,2026-02-05,2026-01-27,有限会社小松鋼業,,有限会社,福岡県,糟屋郡新宮町,大字立花口３６９番地５,,40,345,8110102,,,2026-01-27,清算の結了等,,,2015-10-05,1,,,,,コマツコウギョウ,0
188,1290801024903,登記記録の閉鎖等,0,2026-02-05,2026-02-02,株式会社ＣＦＣプランニング,,株式会社,福岡県,北九州市八幡西区,青山３丁目１４番２９－１０１号,,40,109,8060043,,,2026-02-02,清算の結了等,,,2018-09-04,1,,,,,シーエフシープランニング,0
199,1350001011927,登記記録の閉鎖等,0,2026-02-05,2026-02-02,株式会社ＤＥＰＯＴ,,株式会社,宮崎県,宮崎市,橘通西１丁目３番２２号,,45,201,8800001,,,2026-02-02,清算の結了等,,,2015-10-05,1,,,,,デポ,0
215,1400002010575,登記記録の閉鎖等,0,2026-02-05,2026-01-27,有限会社菊池塗装店,,有限会社,岩手県,宮古市,山口４丁目１番１号,,03,202,0270063,,,2026-01-27,清算の結了等,,,2015-10-05,1,,,,,キクチトソウテン,0
230,1470002001080,登記記録の閉鎖等,0,2026-02-05,2026-02-02,今井建設有限会社,,有限会社,香川県,高松市,伏石町２０７２番地３,,37,201,7618071,,,2026-02-02,清算の結了等,,,2024-10-30,1,,,,,イマイケンセツ,0
231,1470002005924,登記記録の閉鎖等,0,2026-02-05,2026-02-02,有限会社藤本呉服店,,有限会社,香川県,高松市,円座町１０５６番地３,,37,201,7618044,,,2026-02-02,清算の結了等,,,2015-10-05,1,,,,,フジモトゴフクテン,0
236,1500001021522,登記記録の閉鎖等,0,2026-02-05,2026-02-02,株式会社しまなみ企画,,株式会社,愛媛県,松山市,土居田町２３４番地７,,38,201,7900056,,,2026-02-02,合併による解散等,7500001019759,令和８年２月１日愛媛県今治市旭町三丁目２番地１０株式会社しまなみ地所（7500001019759）に合併し解散,2018-08-14,1,,,,,シマナミキカク,0
241,2010001186538,登記記録の閉鎖等,0,2026-02-05,2026-01-13,ＪＰＡ第９５号株式会社,,株式会社,東京都,千代田区,霞が関３丁目２番１号,,13,101,1000013,,,2026-01-13,清算の結了等,,,2017-09-27,1,,,,,ジェイピーエーダイキュウジュウゴゴウ,0
243,2010001225493,登記記録の閉鎖等,0,2026-02-05,2025-12-10,株式会社ストリートホールディングス,,株式会社,東京都,港区,海岸１丁目２番２０号,,13,103,1050022,,,2025-12-10,合併による解散等,7020001161568,令和７年１２月１日東京都港区海岸一丁目２番２０号株式会社ＮＪＭ２（7020001161568）に合併し解散,2022-03-29,1,,,,,ストリートホールディングス,0
272,2010501025674,登記記録の閉鎖等,0,2026-02-05,2026-01-28,Ｓ－ＤＲＥＡＭ株式会社,,株式会社,東京都,墨田区,業平３丁目１７番９号,,13,107,1300002,,,2026-01-28,清算の結了等,,,2015-10-05,1,,,,,エスドリーム,0
287,2010901001465,登記記録の閉鎖等,0,2026-02-05,2026-02-03,ウイン薬品株式会社,,株式会社,東京都,世田谷区,玉川３丁目１０番８号,,13,112,1580094,,,2026-02-03,清算の結了等,,,2015-10-05,1,,,,,ウインヤクヒン,0
288,2010901015184,登記記録の閉鎖等,0,2026-02-05,2026-02-02,株式会社井上建装,,株式会社,東京都,世田谷区,祖師谷６丁目４番３４号,,13,112,1570072,,,2026-02-02,清算の結了等,,,2015-10-05,1,,,,,イノウエケンソウ,0
303,2011401021004,登記記録の閉鎖等,0,2026-02-05,2026-01-13,株式会社匠塾,,株式会社,東京都,渋谷区,渋谷２丁目１９番１５号宮益坂ビルディング６０９,,13,113,1500002,,,2026-01-13,清算の結了等,,,2018-05-08,1,,,,,タクミジュク,0
304,2011401026647,登記記録の閉鎖等,0,2026-02-05,2026-01-30,思行株式会社,,株式会社,東京都,板橋区,仲宿６３番地７号ＯＥＯｆｆｉｃｅＢｌｄｇ．２１１号,,13,119,1730005,,,2026-01-30,清算の結了等,,,2024-12-12,1,,,,,シギョウ,0
305,2011501031084,登記記録の閉鎖等,0,2026-02-05,2026-02-03,株式会社ＰｉＰｉ清掃,,株式会社,東京都,荒川区,荒川３丁目３８番８号,,13,118,1160002,,,2026-02-03,清算の結了等,,,2024-08-27,1,,,,,ピピセイソウ,0
315,2012401040167,登記記録の閉鎖等,0,2026-02-05,2026-02-02,市場食品工房株式会社,,株式会社,東京都,調布市,多摩川３丁目４１番地３長谷川ビル１０２,,13,208,1820025,,,2026-02-02,清算の結了等,,,2023-02-08,1,,,,,イチバショクヒンコウボウ,0
317,2012402022577,登記記録の閉鎖等,0,2026-02-05,2026-02-02,株式会社ユナイテッドリンクスジャパン,,株式会社,東京都,武蔵野市,吉祥寺本町１丁目２０番１５号,,13,203,1800004,,,2026-02-02,清算の結了等,,,2015-10-05,1,,,,,ユナイテッドリンクスジャパン,0
320,2020001017700,登記記録の閉鎖等,0,2026-02-05,2026-01-30,スキルズ．ストラクト株式会社,,株式会社,神奈川県,横浜市鶴見区,北寺尾７丁目１６番９号,,14,101,2300074,,,2026-01-30,清算の結了等,,,2015-10-05,1,,,,,スキルズストラクト,0
325,2020003001396,登記記録の閉鎖等,0,2026-02-05,2026-01-30,合資会社ムカヰベーカリー,,合資会社,神奈川県,横浜市西区,中央２丁目３５番７号,,14,103,2200051,,,2026-01-30,清算の結了等,,,2015-10-05,1,,,,,ムカイベーカリー,0
349,2060001014124,登記記録の閉鎖等,0,2026-02-05,2026-02-02,株式会社大橋設備,,株式会社,栃木県,小山市,大字粟宮１２１６番地３,,09,208,3290201,,,2026-02-02,清算の結了等,,,2015-10-05,1,,,,,オオハシセツビ,0
351,2060002024106,登記記録の閉鎖等,0,2026-02-05,2026-02-03,株式会社Ｓｗｅｅｔｆｉｓｈ　Ｂｌｕｅｓ,,株式会社,栃木県,那須塩原市,西栄町７番１号,,09,213,3292728,,,2026-02-03,清算の結了等,,,2015-10-05,1,,,,,スウィートフィッシュブルース,0
356,2080102006101,登記記録の閉鎖等,0,2026-02-05,2026-02-02,有限会社アモマ,,有限会社,静岡県,静岡市駿河区,馬渕１丁目８番１号,,22,102,4228063,,,2026-02-02,合併による解散等,9080001002335,令和８年２月１日静岡市駿河区馬渕一丁目８番１号株式会社アクタガワ（9080001002335）に合併し解散,2015-10-05,1,,,,,アモマ,0
358,2080402000745,登記記録の閉鎖等,0,2026-02-05,2026-01-30,有限会社石橋一級建築設計事務所,,有限会社,静岡県,浜松市中央区,三幸町４６８番地,,22,138,4338101,,,2026-01-30,清算の結了等,,,2015-10-05,1,,,,,イシバシイッキュウケンチクセッケイジムショ,0
365,2120001210393,登記記録の閉鎖等,0,2026-02-05,2026-01-29,ＢＹ総合株式会社,,株式会社,神奈川県,横浜市西区,北幸２丁目１０番地２８むつみビル３Ｆ,,14,103,2200004,,,2026-01-29,清算の結了等,,,2017-12-28,1,,,,,バイソウゴウ,0
366,2120001211466,登記記録の閉鎖等,0,2026-02-05,2026-01-30,亮株式会社,,株式会社,大阪府,大阪市北区,与力町６番２６－２０２号,,27,127,5300036,,,2026-01-30,清算の結了等,,,2018-02-19,1,,,,,リョウ,0
377,2120002067404,登記記録の閉鎖等,0,2026-02-05,2026-02-02,有限会社リッツエステート,,有限会社,大阪府,大阪市中央区,瓦町４丁目６番１５号,,27,128,5410048,,,2026-02-02,清算の結了等,,,2015-10-05,1,,,,,リッツエステート,0
382,2120901028555,登記記録の閉鎖等,0,2026-02-05,2026-02-02,株式会社ＡＩＣＡ,,株式会社,大阪府,池田市,宇保町２番１－１０２号,,27,204,5630042,,,2026-02-02,清算の結了等,,,2015-10-05,1,,,,,アイカ,0
393,2140001031953,登記記録の閉鎖等,0,2026-02-05,2026-02-03,株式会社リキ企画,,株式会社,兵庫県,芦屋市,奥池南町４４番３０号,,28,206,6590004,,,2026-02-03,清算の結了等,,,2015-10-05,1,,,,,リキキカク,0
417,2180001046411,登記記録の閉鎖等,0,2026-02-05,2026-02-02,ＺＥＮインターナショナル株式会社,,株式会社,愛知県,名古屋市東区,東桜２丁目１１番４号,,23,102,4610005,,,2026-02-02,清算の結了等,,,2015-10-05,1,,,,,ゼンインターナショナル,0
424,2180005017086,登記記録の閉鎖等,0,2026-02-05,2026-02-03,一般社団法人日本障害児スポーツ振興協会,,その他の設立登記法人,愛知県,名古屋市千種区,汁谷町１４２番地の３,,23,101,4640013,,,2026-02-03,清算の結了等,,,2016-12-27,1,,,,,ニホンショウガイジスポーツシンコウキョウカイ,0
431,2190003003723,登記記録の閉鎖等,0,2026-02-05,2026-02-02,合同会社ＥＮＮ,,合同会社,三重県,伊賀市,ゆめが丘６丁目２３番地の１０ニューソシアＡ１０１号室,,24,216,5180131,,,2026-02-02,清算の結了等,,,2021-07-14,1,,,,,エン,0
435,2200002010149,登記記録の閉鎖等,0,2026-02-05,2026-02-02,有限会社Ｎｏｍｏけん,,有限会社,岐阜県,瑞穂市,本田７１３番地,,21,216,5010236,,,2026-02-02,清算の結了等,,,2015-10-05,1,,,,,,0
436,2210002008885,登記記録の閉鎖等,0,2026-02-05,2026-02-02,有限会社多喜,,有限会社,福井県,福井市,下森田新町１５１３番地,,18,201,9100143,,,2026-02-02,清算の結了等,,,2015-10-05,1,,,,,タキ,0
447,2250005002428,登記記録の閉鎖等,0,2026-02-05,2025-11-07,日本基督教団宇部教会,,その他の設立登記法人,山口県,宇部市,鍋倉町２番２号,,35,202,7550064,,,2025-11-07,合併による解散等,7250005009039,令和７年１１月７日山口県宇部市常盤町一丁目１番９号日本基督教団宇部緑橋教会（3250005002427）と合併して山口県宇部市常盤町一丁目１番９号日本基督教団宇部教会（7250005009039）を設立し解散,2015-10-05,1,,,,,,0
450,2270005004109,登記記録の閉鎖等,0,2026-02-05,2026-02-03,公益財団法人竹歳敏夫奨学育英会,,その他の設立登記法人,鳥取県,東伯郡北栄町,由良宿４２３番地１,,31,372,6892221,,,2026-02-03,清算の結了等,,,2015-10-05,1,,,,,タケトシトシオショウガクイクエイカイ,0
455,2290002035212,登記記録の閉鎖等,0,2026-02-05,2026-01-29,有限会社新海商店,,有限会社,福岡県,宗像市,神湊８８１番地５,,40,220,8113501,,,2026-01-29,清算の結了等,,,2015-10-05,1,,,,,シンカイショウテン,0
472,2340005004712,登記記録の閉鎖等,0,2026-02-05,2026-01-28,医療法人政小児科内科医院,,その他の設立登記法人,鹿児島県,奄美市,名瀬柳町４番４３号,,46,222,8940032,,,2026-01-28,清算の結了等,,,2015-10-05,1,,,,,ツカサショウニカナイカイイン,0
482,2390002010279,登記記録の閉鎖等,0,2026-02-05,2026-02-02,冨樫建設有限会社,,有限会社,山形県,東田川郡三川町,大字押切新田字豊秋１６３番地１,,06,426,9971321,,,2026-02-02,清算の結了等,,,2015-10-05,1,,,,,トガシケンセツ,0
488,2430001059692,登記記録の閉鎖等,0,2026-02-05,2026-02-02,株式会社朝里貿易,,株式会社,北海道,小樽市,朝里川温泉１丁目３０６番地３４　３１１,,01,203,0470154,,,2026-02-02,清算の結了等,,,2015-10-05,1,,,,,アサリボウエキ,0
492,2450001005686,登記記録の閉鎖等,0,2026-02-05,2026-01-30,株式会社高梨コーポレーション,,株式会社,北海道,上川郡上川町,中央町５７８番地,,01,457,0781741,,,2026-01-30,清算の結了等,,,2015-10-05,1,,,,,タカナシコーポレーション,0
498,2500002003948,登記記録の閉鎖等,0,2026-02-05,2026-02-03,有限会社第一車体,,有限会社,愛媛県,松山市,高岡町３７０番地２,,38,201,7918036,,,2026-02-03,清算の結了等,,,2015-10-05,1,,,,,ダイイチシャタイ,0
505,3010001183848,登記記録の閉鎖等,0,2026-02-05,2026-01-13,ＪＰＡ第７６号株式会社,,株式会社,東京都,千代田区,霞が関３丁目２番１号,,13,101,1000013,,,2026-01-13,清算の結了等,,,2017-05-31,1,,,,,ジェイピーエーダイナナジュウロクゴウ,0
506,3010001186537,登記記録の閉鎖等,0,2026-02-05,2026-01-13,ＪＰＡ第９４号株式会社,,株式会社,東京都,千代田区,霞が関３丁目２番１号,,13,101,1000013,,,2026-01-13,清算の結了等,,,2017-09-27,1,,,,,ジェイピーエーダイキュウジュウヨンゴウ,0
521,3010005038817,登記記録の閉鎖等,0,2026-02-05,2026-01-30,一般社団法人日本脱炭素機構,,その他の設立登記法人,東京都,中央区,京橋２丁目１２番６号ＡＯＪ税理士法人内,,13,102,1040031,,,2026-01-30,清算の結了等,,,2024-09-17,1,,,,,ニホンダツタンソキコウ,0
525,3010401173515,登記記録の閉鎖等,0,2026-02-05,2026-01-13,株式会社ｓｔｅｅｌ,,株式会社,東京都,港区,南青山３丁目８番４０号青山センタービル２階,,13,103,1070062,,,2026-01-13,清算の結了等,,,2023-04-10,1,,,,,スティール,0
540,3011001020520,登記記録の閉鎖等,0,2026-02-05,2026-01-13,株式会社フジ企画,,株式会社,東京都,渋谷区,千駄ヶ谷５丁目１番３号,,13,113,1510051,,,2026-01-13,清算の結了等,,,2015-10-05,1,,,,,フジキカク,0
546,3011001109132,登記記録の閉鎖等,0,2026-02-05,2026-01-13,Ｓｍａｒｔ　Ｃｏｎｔｒａｃｔ株式会社,,株式会社,東京都,千代田区,大手町１丁目５番地１大手町ファーストスクエアイーストタワー４Ｆ,,13,101,1000004,,,2026-01-13,清算の結了等,,,2016-01-19,1,,,,,スマートコントラクト,0
553,3011102012656,登記記録の閉鎖等,0,2026-02-05,2026-01-08,有限会社ミルリーフ,,有限会社,東京都,新宿区,四谷４丁目２５番１０号,,13,104,1600004,,,2026-01-08,清算の結了等,,,2015-10-05,1,,,,,ミルリーフ,0
558,3011501028419,登記記録の閉鎖等,0,2026-02-05,2026-01-30,株式会社笑凡フィルム,,株式会社,東京都,板橋区,仲宿６３番地７号ＯＥＯｆｆｉｃｅＢｌｄｇ．４０３号,,13,119,1730005,,,2026-01-30,清算の結了等,,,2022-08-26,1,,,,,シャオファンフィルム,0
579,3020001161290,登記記録の閉鎖等,0,2026-02-05,2026-01-29,原悟株式会社,,株式会社,神奈川県,川崎市川崎区,下並木６８番地１０川崎西ダイカンプラザ１０１,,14,131,2100025,,,2026-01-29,清算の結了等,,,2025-02-12,1,,,,,ゲンゴ,0
603,3040001050351,登記記録の閉鎖等,0,2026-02-05,2026-01-08,株式会社アダモ,,株式会社,千葉県,木更津市,東中央１丁目１番２号,,12,206,2920057,,,2026-01-08,清算の結了等,,,2015-10-05,1,,,,,アダモ,0
619,3080101008543,登記記録の閉鎖等,0,2026-02-05,2026-01-30,株式会社三枝酒店,,株式会社,静岡県,富士市,本町３番１０号,,22,210,4160914,,,2026-01-30,清算の結了等,,,2015-10-05,1,,,,,サエグササケテン,0
630,3100002025115,登記記録の閉鎖等,0,2026-02-05,2026-02-02,有限会社ドラフトフーズ,,有限会社,長野県,塩尻市,大門七番町１１番３号,,20,215,3990738,,,2026-02-02,清算の結了等,,,2015-10-05,1,,,,,ドラフトフーズ,0
631,3110001033679,登記記録の閉鎖等,0,2026-02-05,2026-02-02,新潟グローバル・マネジメント株式会社,,株式会社,新潟県,新潟市東区,豊２丁目６番５２号,,15,102,9500812,,,2026-02-02,清算の結了等,,,2018-12-05,1,,,,,ニイガタグローバルマネジメント,0
633,3110002023687,登記記録の閉鎖等,0,2026-02-05,2026-01-27,有限会社吉崎,,有限会社,新潟県,上越市,稲田２丁目２番４号,,15,222,9430154,,,2026-01-27,清算の結了等,,,2015-10-05,1,,,,,ヨシザキ,0
634,3110002027721,登記記録の閉鎖等,0,2026-02-05,2026-01-30,有限会社三成,,有限会社,新潟県,長岡市,宝１丁目２番１１号,,15,202,9400016,,,2026-01-30,清算の結了等,,,2015-10-05,1,,,,,サンセイ,0
636,3120001028059,登記記録の閉鎖等,0,2026-02-05,2026-02-03,株式会社藤本青果,,株式会社,大阪府,大阪市大正区,平尾３丁目２３番１０号,,27,108,5510012,,,2026-02-03,清算の結了等,,,2015-10-05,1,,,,,フジモトセイカ,0
637,3120001135895,登記記録の閉鎖等,0,2026-02-05,2026-02-02,西日本理財コンサルティング株式会社,,株式会社,京都府,京都市下京区,東洞院通綾小路下る扇酒屋町２８９番地デ・リードビル,,26,106,6008095,,,2026-02-02,合併による解散等,4130001027629,令和８年２月１日京都市下京区東洞院通綾小路下ル扇酒屋町２８９番地株式会社ＪＵＳ（4130001027629）に合併し解散,2015-10-05,1,,,,,ニシニホンリザイコンサルティング,0
642,3120001170570,登記記録の閉鎖等,0,2026-02-05,2025-12-24,株式会社ゴールデンクロス,,株式会社,大阪府,大阪市北区,梅田２丁目５番１３号桜橋第一ビル３０４号,,27,127,5300001,,,2025-12-24,合併による解散等,6120102005359,令和７年１２月１５日大阪府堺市堺区新在家町東一丁１番２８号株式会社Ｍ－ＯＮＥ（6120102005359）に合併し解散,2015-10-05,1,,,,,ゴールデンクロス,0
643,3120001199676,登記記録の閉鎖等,0,2026-02-05,2026-02-03,ＨｕｍｍｉｎｇＬｉｆｅ株式会社,,株式会社,大阪府,大阪市中央区,上汐１丁目４番１０号,,27,128,5420064,,,2026-02-03,清算の結了等,,,2016-07-27,1,,,,,ハミングライフ,0
663,3120903005320,登記記録の閉鎖等,0,2026-02-05,2026-02-02,合同会社Ｖｏｉｃｅ　Ｂｏｘ,,合同会社,大阪府,豊中市,東泉丘４丁目１番５－６０４号,,27,203,5610861,,,2026-02-02,清算の結了等,,,2024-09-06,1,,,,,ボイスボックス,0
678,3140001110748,登記記録の閉鎖等,0,2026-02-05,2026-01-30,スノーブロッサム株式会社,,株式会社,兵庫県,尼崎市,御園町２４番地尼崎第一ビル４０２号,,28,202,6600861,,,2026-01-30,清算の結了等,,,2018-07-20,1,,,,,スノーブロッサム,0
689,3150002009435,登記記録の閉鎖等,0,2026-02-05,2026-02-02,有限会社ヤマトマネキン紹介所,,有限会社,奈良県,香芝市,五位堂３丁目６０２番地の１,,29,210,6390226,,,2026-02-02,清算の結了等,,,2015-10-05,1,,,,,ヤマトマネキンショウカイジョ,0
712,3200001020841,登記記録の閉鎖等,0,2026-02-05,2026-02-02,株式会社東化商会,,株式会社,愛知県,名古屋市名東区,勢子坊１丁目４０３番地ラピュタ１Ｃ号,,23,115,4650055,,,2026-02-02,清算の結了等,,,2015-10-05,1,,,,,トウカショウカイ,0
716,3200002025781,登記記録の閉鎖等,0,2026-02-05,2026-02-02,有限会社飛洲商事,,有限会社,岐阜県,高山市,新宮町１１２番地１０,,21,203,5060035,,,2026-02-02,清算の結了等,,,2015-10-05,1,,,,,ヒシュウショウジ,0
726,3250005002427,登記記録の閉鎖等,0,2026-02-05,2025-11-07,日本基督教団宇部緑橋教会,,その他の設立登記法人,山口県,宇部市,常盤町１丁目１番９号,,35,202,7550031,,,2025-11-07,合併による解散等,7250005009039,令和７年１１月７日山口県宇部市鍋倉町２番２号日本基督教団宇部教会（2250005002428）と合併して山口県宇部市常盤町一丁目１番９号日本基督教団宇部教会（7250005009039）を設立し解散,2015-10-05,1,,,,,,0
731,3290001011023,登記記録の閉鎖等,0,2026-02-05,2026-01-30,理研医療電機株式会社,,株式会社,福岡県,福岡市南区,中尾２丁目１４番６号,,40,134,8111364,,,2026-01-30,清算の結了等,,,2015-10-05,1,,,,,リケンイリョウデンキ,0
737,3290005001631,登記記録の閉鎖等,0,2026-02-05,2026-01-05,医療法人歌友会,,その他の設立登記法人,東京都,渋谷区,初台２丁目１９－１５－２０９,,13,113,1510061,,,2026-01-05,清算の結了等,,,2015-10-05,1,,,,,カユウカイ,0
746,3340005008019,登記記録の閉鎖等,0,2026-02-05,2026-01-28,特定非営利活動法人フットサルアシスト鹿児島,,その他の設立登記法人,鹿児島県,鹿児島市,西陵４丁目７番１８号,,46,201,8900032,,,2026-01-28,清算の結了等,,,2015-10-05,1,,,,,フットサルアシストカゴシマ,0
763,3390001016920,登記記録の閉鎖等,0,2026-02-05,2026-01-30,株式会社ナチュラル・チューニング・ジャパン,,株式会社,山形県,西村山郡西川町,大字綱取３６２番地４,,06,322,9900741,,,2026-01-30,清算の結了等,,,2022-06-03,1,,,,,ナチュラルチューニングジャパン,0
764,3390002007506,登記記録の閉鎖等,0,2026-02-05,2026-02-02,有限会社庄家,,有限会社,山形県,酒田市,上安町２丁目１５番地の６,,06,204,9980011,,,2026-02-02,清算の結了等,,,2015-10-05,1,,,,,ショウヤ,0
766,3400002001928,登記記録の閉鎖等,0,2026-02-05,2026-01-28,有限会社平舘,,有限会社,岩手県,盛岡市,三ツ割４丁目１１番３３号,,03,201,0200011,,,2026-01-28,清算の結了等,,,2015-10-05,1,,,,,タイラダテ,0
775,3430002042011,登記記録の閉鎖等,0,2026-02-05,2026-02-02,有限会社構造計画工房,,有限会社,北海道,札幌市東区,北九条東２丁目２番３号,,01,103,0600909,,,2026-02-02,清算の結了等,,,2015-10-05,1,,,,,コウゾウケイカクコウボウ,0
785,3500003002031,登記記録の閉鎖等,0,2026-02-05,2026-02-04,合同会社ゆやま事務所,,合同会社,愛媛県,松山市,久万ノ台４１４,,38,201,7918016,,,2026-02-04,清算の結了等,,,2017-12-25,1,,,,,ユヤマジムショ,0
790,4010001141524,登記記録の閉鎖等,0,2026-02-05,2026-01-07,アエテ株式会社,,株式会社,東京都,港区,白金台４丁目２－１１,,13,103,1080071,,,2026-01-07,合併による解散等,3010401094018,令和８年１月１日東京都港区白金台４－２－１１株式会社カドー（3010401094018）に合併し解散,2015-10-05,1,,,,,アエテ,0
791,4010001173609,登記記録の閉鎖等,0,2026-02-05,2026-01-13,ＪＰＡ第３３号株式会社,,株式会社,東京都,千代田区,霞が関３丁目２番１号,,13,101,1000013,,,2026-01-13,清算の結了等,,,2016-02-17,1,,,,,ジェイピーエーダイサンジュウサンゴウ,0
792,4010001174846,登記記録の閉鎖等,0,2026-02-05,2026-01-13,ＪＰＡ第３６号株式会社,,株式会社,東京都,千代田区,霞が関３丁目２番１号,,13,101,1000013,,,2026-01-13,清算の結了等,,,2016-04-12,1,,,,,ジェイピーエーダイサンジュウロクゴウ,0
793,4010001183847,登記記録の閉鎖等,0,2026-02-05,2026-01-13,ＪＰＡ第７５号株式会社,,株式会社,東京都,千代田区,霞が関３丁目２番１号,,13,101,1000013,,,2026-01-13,清算の結了等,,,2017-06-01,1,,,,,ジェイピーエーダイナナジュウゴゴウ,0
794,4010001185835,登記記録の閉鎖等,0,2026-02-05,2026-01-13,ＪＰＡ第７７号株式会社,,株式会社,東京都,千代田区,霞が関３丁目２番１号,,13,101,1000013,,,2026-01-13,清算の結了等,,,2017-08-24,1,,,,,ジェイピーエーダイナナジュウナナゴウ,0
795,4010001186528,登記記録の閉鎖等,0,2026-02-05,2026-01-13,ＪＰＡ第８５号株式会社,,株式会社,東京都,千代田区,霞が関３丁目２番１号,,13,101,1000013,,,2026-01-13,清算の結了等,,,2017-09-27,1,,,,,ジェイピーエーダイハチジュウゴゴウ,0
807,4010403028609,登記記録の閉鎖等,0,2026-02-05,2026-01-13,合同会社ｉｎｆｉｎｉｔｙ,,合同会社,東京都,港区,東新橋１丁目１０番１－４０４,,13,103,1050021,,,2026-01-13,合併による解散等,9010001068903,令和８年１月１日東京都港区東新橋一丁目１０番１－４０４号株式会社バールアンドリーブル（9010001068903）に合併し解散,2022-10-05,1,,,,,インフィニティー,0
831,4011001116152,登記記録の閉鎖等,0,2026-02-05,2026-01-14,株式会社ウェリコ,,株式会社,東京都,渋谷区,神宮前６丁目２３番４号,,13,113,1500001,,,2026-01-14,清算の結了等,,,2017-05-01,1,,,,,ウェリコ,0
832,4011001135557,登記記録の閉鎖等,0,2026-02-05,2026-01-13,エルヴソワン株式会社,,株式会社,東京都,渋谷区,道玄坂１丁目２番３号１７階,,13,113,1500043,,,2026-01-13,清算の結了等,,,2020-09-18,1,,,,,エルヴソワン,0
838,4011101103942,登記記録の閉鎖等,0,2026-02-05,2026-01-08,ＡＣＧＢＯＸ株式会社,,株式会社,東京都,新宿区,高田馬場１丁目３１番８高田馬場ダイカンブラザ１００４号,,13,104,1690075,,,2026-01-08,清算の結了等,,,2023-08-08,1,,,,,エイシージーボックス,0
892,4040002086328,登記記録の閉鎖等,0,2026-02-05,2026-01-08,有限会社市原石油,,有限会社,千葉県,山武郡横芝光町,横芝１１７６番地の２,,12,410,2891732,,,2026-01-08,清算の結了等,,,2015-10-05,1,,,,,イチハラセキユ,0
898,4060001018973,登記記録の閉鎖等,0,2026-02-05,2025-12-22,長島商事株式会社,,株式会社,栃木県,足利市,西砂原後町１１４１番地７,,09,202,3260065,,,2025-12-22,合併による解散等,3290001060557,令和７年１１月３０日福岡市博多区博多駅前四丁目１７番１５号株式会社ＰＬＡＮＡ（3290001060557）に合併し解散,2015-10-05,1,,,,,ナガシマショウジ,0
910,4110001033892,登記記録の閉鎖等,0,2026-02-05,2026-01-30,株式会社山本屋商店,,株式会社,新潟県,魚沼市,一日市２９３番地,,15,225,9460062,,,2026-01-30,清算の結了等,,,2019-03-20,1,,,,,ヤマモトヤショウテン,0
927,4120901009693,登記記録の閉鎖等,0,2026-02-05,2026-02-02,太星工業株式会社,,株式会社,大阪府,摂津市,南別府町３番６号,,27,224,5660045,,,2026-02-02,清算の結了等,,,2015-10-05,1,,,,,タイセイコウギョウ,0
932,4122001028392,登記記録の閉鎖等,0,2026-02-05,2026-01-26,株式会社チャレンジアクト,,株式会社,大阪府,東大阪市,昭和町１番６号,,27,227,5798046,,,2026-01-26,清算の結了等,,,2015-10-05,1,,,,,チャレンジアクト,0
943,4130005004863,登記記録の閉鎖等,0,2026-02-05,2026-02-03,特定非営利活動法人関西自警団,,その他の設立登記法人,大阪府,吹田市,千里山竹園１丁目２４番１２号,,27,205,5650852,,,2026-02-03,清算の結了等,,,2015-10-05,1,,,,,カンサイジケイダン,0
965,4160001019301,登記記録の閉鎖等,0,2026-02-05,2026-02-03,株式会社ｂｅｅｇｌｅ,,株式会社,滋賀県,草津市,渋川１丁目３番１１－７０６号,,25,206,5250026,,,2026-02-03,清算の結了等,,,2016-02-17,1,,,,,ビーグル,0
971,4180001060336,登記記録の閉鎖等,0,2026-02-05,2026-02-02,大高鈑金株式会社,,株式会社,愛知県,名古屋市緑区,大高町字天神２１番地,,23,114,4598001,,,2026-02-02,清算の結了等,,,2015-10-05,1,,,,,オオダカバンキン,0
993,4200001007391,登記記録の閉鎖等,0,2026-02-05,2026-02-02,株式会社丹羽藥局,00076503,株式会社,岐阜県,各務原市,那加本町３９番地,,21,213,5040966,,,2026-02-02,清算の結了等,,,2015-10-05,1,,,,,ニワヤッキョク,0
996,4210002012126,登記記録の閉鎖等,0,2026-02-05,2026-02-03,有限会社福井新聞今立北販売店,,有限会社,福井県,越前市,粟田部町１１号１７番の１,,18,209,9150242,,,2026-02-03,清算の結了等,,,2015-10-05,1,,,,,フクイシンブンイマダテキタハンバイテン,0
1020,4290801016352,登記記録の閉鎖等,0,2026-02-05,2026-02-02,株式会社篠原商店,,株式会社,福岡県,田川市,大字奈良１７９３番地,,40,206,8260043,,,2026-02-02,清算の結了等,,,2015-10-05,1,,,,,シノハラショウテン,0
1025,4330001020844,登記記録の閉鎖等,0,2026-02-05,2026-01-30,ナベタカンパニー株式会社,,株式会社,熊本県,上益城郡嘉島町,大字上島２７７４番地,,43,442,8613106,,,2026-01-30,清算の結了等,,,2015-10-05,1,,,,,ナベタカンパニー,0
1035,4360002012185,登記記録の閉鎖等,0,2026-02-05,2026-01-30,有限会社西里設備工業,,有限会社,沖縄県,沖縄市,安慶田２丁目１５番１３号１Ｆ,,47,211,9040012,,,2026-01-30,清算の結了等,,,2015-10-05,1,,,,,ニシザトセツビコウギョウ,0
1041,4370302000277,登記記録の閉鎖等,0,2026-02-05,2026-02-02,有限会社一力物流サービス,,有限会社,宮城県,石巻市,大街道南５丁目７番４８号,,04,202,9860856,,,2026-02-02,清算の結了等,,,2015-10-05,1,,,,,イチリキブツリュウサービス,0
1042,4380001009098,登記記録の閉鎖等,0,2026-02-05,2026-02-02,株式会社ウィズダム,,株式会社,福島県,郡山市,西ノ内２丁目５番２９号,,07,203,9638022,,,2026-02-02,清算の結了等,,,2015-10-05,1,,,,,ウィズダム,0
1049,4420001006850,登記記録の閉鎖等,0,2026-02-05,2025-10-01,若野ホンダ販売株式会社,,株式会社,青森県,八戸市,大字長苗代字上中坪１２番地１,,02,203,0391103,,,2025-10-01,合併による解散等,5420001006577,令和７年１０月１日青森県八戸市城下四丁目２２番２５号株式会社ホンダカーズみちのく（5420001006577）に合併し解散,2015-10-05,1,,,,,ワカノホンダハンバイ,0
1069,5010001186527,登記記録の閉鎖等,0,2026-02-05,2026-01-13,ＪＰＡ第８４号株式会社,,株式会社,東京都,千代田区,霞が関３丁目２番１号,,13,101,1000013,,,2026-01-13,清算の結了等,,,2017-09-27,1,,,,,ジェイピーエーダイハチジュウヨンゴウ,0
1084,5010401107355,登記記録の閉鎖等,0,2026-02-05,2026-01-13,株式会社Ｍａｒｃａｇｅ,,株式会社,東京都,港区,西麻布３丁目２４番１６号,,13,103,1060031,,,2026-01-13,清算の結了等,,,2015-10-05,1,,,,,マーケイジ,0
1086,5010401151543,登記記録の閉鎖等,0,2026-02-05,2026-01-26,株式会社ジザイめっけ,,株式会社,東京都,港区,赤坂１丁目１番１号,,13,103,1070052,,,2026-01-26,清算の結了等,,,2020-03-09,1,,,,,ジザイメッケ,0
1087,5010401152616,登記記録の閉鎖等,0,2026-02-05,2026-01-13,株式会社ＳｈｉｎｋｏＱ,,株式会社,東京都,港区,虎ノ門１丁目２３番１号,,13,103,1050001,,,2026-01-13,合併による解散等,6010401095616,令和８年１月１日東京都港区虎ノ門一丁目２３番２号虎ノ門ヒルズ森タワー２２階京未来株式会社（6010401095616）に合併し解散,2020-05-11,1,,,,,シンコキュウ,0
1185,5060001036875,登記記録の閉鎖等,0,2026-02-05,2026-02-02,株式会社イチカル,,株式会社,栃木県,宇都宮市,雀の宮１丁目６番１号パインハウスＩＩ２０３,00133969,09,201,3210132,,,2026-02-02,清算の結了等,,,2024-03-06,1,,,,,イチカル,0
1187,5060002029283,登記記録の閉鎖等,0,2026-02-05,2026-02-02,有限会社蛇しま,,有限会社,栃木県,小山市,天神町２丁目６番２８号,,09,208,3230032,,,2026-02-02,清算の結了等,,,2015-10-05,1,,,,,ヘビシマ,0
1194,5100001001866,登記記録の閉鎖等,0,2026-02-05,2026-02-02,高野測量設計株式会社,,株式会社,長野県,長野市,大字稲葉１８３２番地,,20,201,3800911,,,2026-02-02,清算の結了等,,,2015-10-05,1,,,,,タカノソクリョウセッケイ,0
1195,5100001011386,登記記録の閉鎖等,0,2026-02-05,2026-02-02,株式会社Ｒ・Ｔ・Ｃ,,株式会社,長野県,上田市,御所２２１番地１１,,20,203,3860033,,,2026-02-02,清算の結了等,,,2015-10-05,1,,,,,アールティーシー,0
1205,5120001144176,登記記録の閉鎖等,0,2026-02-05,2026-02-02,株式会社ＳＡＫＵＲＡ,,株式会社,大阪府,大阪市中央区,南船場４丁目２番１８号佐野屋橋ビル,,27,128,5420081,,,2026-02-02,合併による解散等,9120001089698,令和８年２月１日大阪市中央区南船場四丁目２番１８号佐野屋橋ビル株式会社マックス（9120001089698）に合併し解散,2015-10-05,1,,,,,サクラ,0
1229,5140001042535,登記記録の閉鎖等,0,2026-02-05,2026-02-02,株式会社栄樹園,,株式会社,兵庫県,加古川市,志方町山中８９番地の２,,28,210,6750336,,,2026-02-02,清算の結了等,,,2015-10-05,1,,,,,エイジュエン,0
1234,5140001119556,登記記録の閉鎖等,0,2026-02-05,2026-01-22,株式会社レンクス,,株式会社,兵庫県,川西市,久代１丁目１４番２６号,,28,217,6660024,,,2026-01-22,清算の結了等,,,2020-11-26,1,,,,,レンクス,0
1240,5180001006593,登記記録の閉鎖等,0,2026-02-05,2026-02-02,昭和タクシー株式会社,,株式会社,愛知県,名古屋市港区,川西通４丁目８番地,,23,111,4550073,,,2026-02-02,清算の結了等,,,2015-10-05,1,,,,,ショウワタクシー,0
1295,5360001027811,登記記録の閉鎖等,0,2026-02-05,2026-02-02,株式会社コクド,,株式会社,沖縄県,宜野湾市,我如古１丁目６番３号,,47,205,9012214,,,2026-02-02,清算の結了等,,,2020-10-19,1,,,,,コクド,0
1304,5370001003654,登記記録の閉鎖等,0,2026-02-05,2026-02-02,東研エンジニアリング株式会社,,株式会社,宮城県,仙台市若林区,六丁目字南３２番１先２街区１０画地,,04,103,9840031,,,2026-02-02,合併による解散等,4370001003655,令和８年２月１日仙台市若林区六丁目字南３２番１先２街区１０画地東研工業株式会社（4370001003655）に合併し解散,2015-10-05,1,,,,,トウケンエンジニアリング,0
1305,5370202004245,登記記録の閉鎖等,0,2026-02-05,2026-02-02,有限会社マルワ商運,,有限会社,宮城県,遠田郡涌谷町,涌谷字黄金山１番地５,,04,501,9870121,,,2026-02-02,清算の結了等,,,2015-10-05,1,,,,,マルワショウウン,0
1306,5380001025912,登記記録の閉鎖等,0,2026-02-05,2026-01-30,とうほう証券清算株式会社,,株式会社,福島県,福島市,大町３番２５号,,07,201,9608041,,,2026-01-30,清算の結了等,,,2015-10-05,1,,,,,トウホウショウケンセイサン,0
1319,5500003002913,登記記録の閉鎖等,0,2026-02-05,2025-12-23,リスポーン合同会社,,合同会社,愛媛県,松山市,松末２丁目１５番７号,,38,201,7900915,,,2025-12-23,合併による解散等,6500001026013,令和７年１２月２３日愛媛県松山市松末二丁目１５番７号株式会社アシスト（6500001026013）に合併し解散,2022-10-27,1,,,,,リスポーン,0
1322,6010001082980,登記記録の閉鎖等,0,2026-02-05,2026-01-28,株式会社アローズ,,株式会社,千葉県,千葉市美浜区,中瀬１丁目３番地幕張テクノガーデンＤ棟,,12,106,2610023,,,2026-01-28,合併による解散等,1020001016406,令和７年１２月３１日東京都千代田区神田錦町１－１３大手町宝栄ビル７０１号株式会社ラフトシステム（1020001016406）に合併し解散,2015-10-05,1,,,,,アローズ,0
1342,6010501030761,登記記録の閉鎖等,0,2026-02-05,2026-01-28,Ｓ－ＤＲＥＡＭデザイン株式会社,,株式会社,東京都,墨田区,業平３丁目１７番９号,,13,107,1300002,,,2026-01-28,清算の結了等,,,2015-10-05,1,,,,,エスドリームデザイン,0
1344,6010602009408,登記記録の閉鎖等,0,2026-02-05,2026-01-28,有限会社大友商会,,有限会社,東京都,墨田区,本所４丁目３番８号,,13,107,1300004,,,2026-01-28,清算の結了等,,,2015-10-05,1,,,,,オオトモショウカイ,0
1347,6010605000438,登記記録の閉鎖等,0,2026-02-05,2025-12-19,天理教葛西分教會,,その他の設立登記法人,東京都,墨田区,立花２丁目３０番３号,,13,107,1310043,,,2025-12-19,合併による解散等,6030005005606,令和７年１２月９日埼玉県草加市稲荷二丁目２９番２３号天理教立野堀大教会（6030005005606）に合併し解散,2015-10-05,1,,,,,テンリキョウカサイブンキョウカイ,0
1355,6010901022961,登記記録の閉鎖等,0,2026-02-05,2026-02-03,株式会社エル・アッシュ・オー,,株式会社,東京都,世田谷区,代田４丁目３４番１９号,,13,112,1550033,,,2026-02-03,清算の結了等,,,2015-10-05,1,,,,,エルアッシュオー,0
1360,6011001045317,登記記録の閉鎖等,0,2026-02-05,2026-01-13,サンアドバンステクノロジ株式会社,,株式会社,東京都,渋谷区,代々木２丁目２６番５号,,13,113,1510053,,,2026-01-13,清算の結了等,,,2015-10-05,1,,,,,サンアドバンステクノロジ,0
1363,6011001092251,登記記録の閉鎖等,0,2026-02-05,2026-01-15,Ｓｐｅｃｉａｌ株式会社,,株式会社,東京都,千代田区,平河町１丁目３番６号,,13,101,1020093,,,2026-01-15,清算の結了等,,,2015-10-05,1,,,,,スペシャル,0
1373,6011105007386,登記記録の閉鎖等,0,2026-02-05,2026-01-07,ＯＮＥＡ一般社団法人,,その他の設立登記法人,東京都,新宿区,四谷２丁目９番地１５あると綜合事務所内,,13,104,1600004,,,2026-01-07,清算の結了等,,,2016-08-22,1,,,,,ワンエー,0
1375,6011201004386,登記記録の閉鎖等,0,2026-02-05,2026-01-26,株式会社バードン・ワイヤー,,株式会社,東京都,豊島区,西池袋２丁目３６番１－４０７号,,13,116,1710021,,,2026-01-26,清算の結了等,,,2015-10-05,1,,,,,バードンワイヤー,0
1383,6011801041234,登記記録の閉鎖等,0,2026-02-05,2026-02-03,目黒自動車交通葛飾株式会社,,株式会社,東京都,葛飾区,青戸８丁目４番１３号,,13,122,1250062,,,2026-02-03,合併による解散等,4010601049431,令和７年１２月１日東京都江東区亀戸八丁目４番６号目黒自動車交通株式会社（4010601049431）に合併し解散,2022-09-05,1,,,,,メグロジドウシャコウツウカツシカ,0
1386,6012403005932,登記記録の閉鎖等,0,2026-02-05,2026-02-02,合同会社Ｍ３,,合同会社,東京都,調布市,多摩川３丁目４１番地３長谷川ビル１０２,,13,208,1820025,,,2026-02-02,清算の結了等,,,2023-04-12,1,,,,,エムスリー,0
1394,6020001146850,登記記録の閉鎖等,0,2026-02-05,2026-02-02,株式会社アートファイブ,,株式会社,神奈川県,横浜市港北区,綱島台１５番５号,,14,109,2230054,,,2026-02-02,清算の結了等,,,2022-06-10,1,,,,,アートファイブ,0
1411,6030002010872,登記記録の閉鎖等,0,2026-02-05,2026-01-29,有限会社長谷川機工,,有限会社,埼玉県,さいたま市中央区,上峰２丁目９番２３号,,11,105,3380014,,,2026-01-29,清算の結了等,,,2015-10-05,1,,,,,ハセガワキコウ,0
1431,6040002095574,登記記録の閉鎖等,0,2026-02-05,2026-01-08,有限会社東葛計算センター,00021033,有限会社,千葉県,柏市,柏４丁目５番１０号,,12,217,2770005,,,2026-01-08,清算の結了等,,,2015-10-05,1,,,,,トウカツケイサンセンター,0
1435,6060002040314,登記記録の閉鎖等,0,2026-02-05,2026-02-04,有限会社天木製作所,,有限会社,栃木県,佐野市,伊勢山町１８４９番地２,,09,204,3270817,,,2026-02-04,清算の結了等,,,2015-10-05,1,,,,,アマキセイサクショ,0
1437,6060003005695,登記記録の閉鎖等,0,2026-02-05,2026-02-03,合同会社ＰＯＲ,,合同会社,栃木県,栃木市,大平町蔵井２００３番地２０,,09,203,3294403,,,2026-02-03,清算の結了等,,,2025-08-21,1,,,,,ピーオーアール,0
1438,6060005001767,登記記録の閉鎖等,0,2026-02-05,2026-02-03,医療法人育慈会,,その他の設立登記法人,栃木県,宇都宮市,石井町３１２８番地１１,,09,201,3210912,,,2026-02-03,清算の結了等,,,2015-10-05,1,,,,,イクジカイ,0
1446,6090005004718,登記記録の閉鎖等,0,2026-02-05,2025-12-15,天理教藤井分教会,,その他の設立登記法人,山梨県,韮崎市,穴山町３９５４番地,,19,207,4070263,,,2025-12-15,合併による解散等,1090005004870,令和７年１２月１５日山梨県北杜市高根町下黒沢２４９７番地天理教北巨摩分教会（1090005004870）に合併し解散,2015-10-05,1,,,,,テンリキョウフジイブンキョウカイ,0
1485,6180001137545,登記記録の閉鎖等,0,2026-02-05,2026-02-02,ＭＹＴ株式会社,,株式会社,愛知県,名古屋市瑞穂区,彌富町字月見ケ岡１８番地,,23,108,4670035,,,2026-02-02,清算の結了等,,,2019-08-01,1,,,,,エムワイティー,0
1486,6180001138353,登記記録の閉鎖等,0,2026-02-05,2026-01-30,クラリス株式会社,,株式会社,愛知県,名古屋市名東区,八前２丁目１０１番地,,23,115,4650018,,,2026-01-30,清算の結了等,,,2019-10-03,1,,,,,クラリス,0
1503,6260002024676,登記記録の閉鎖等,0,2026-02-05,2026-02-02,有限会社総合商社,,有限会社,岡山県,倉敷市,日ノ出町１丁目５番３号,,33,202,7100063,,,2026-02-02,清算の結了等,,,2015-10-05,1,,,,,ソウゴウショウシャ,0
1505,6280002002812,登記記録の閉鎖等,0,2026-02-05,2026-02-02,有限会社鎌田工業,,有限会社,島根県,松江市,東出雲町下意東２７６０番地６,,32,201,6990102,,,2026-02-02,清算の結了等,,,2015-10-05,1,,,,,カマダコウギョウ,0
1514,6290802000262,登記記録の閉鎖等,0,2026-02-05,2026-02-03,有限会社あかぎ,,有限会社,福岡県,北九州市小倉北区,今町２丁目６番２号,,40,106,8030862,,,2026-02-03,清算の結了等,,,2015-10-05,1,,,,,アカギ,0
1536,6370001049325,登記記録の閉鎖等,0,2026-02-05,2026-01-21,株式会社勝又ホールディングス,,株式会社,宮城県,仙台市青葉区,大町１丁目４番１号,,04,101,9800804,,,2026-01-21,合併による解散等,4370001006740,令和８年１月１５日仙台市青葉区大町一丁目４番１号株式会社アイショウ（4370001006740）に合併し解散,2022-12-08,1,,,,,カツマタホールディングス,0
1549,6430002053807,登記記録の閉鎖等,0,2026-02-05,2026-01-21,有限会社石原運輸,,有限会社,北海道,小樽市,色内３丁目６番３１号,,01,203,0470031,,,2026-01-21,合併による解散等,5430001050137,令和８年１月１９日北海道小樽市港町８番４号立花運送株式会社（5430001050137）に合併し解散,2015-10-05,1,,,,,イシハラウンユ,0
1561,6500002023785,登記記録の閉鎖等,0,2026-02-05,2026-02-02,有限会社オフィスソルーション,,有限会社,愛媛県,北宇和郡鬼北町,大字奈良１６７３番地１,,38,488,7981351,,,2026-02-02,合併による解散等,1500001015342,令和８年２月１日愛媛県北宇和郡鬼北町大字奈良１６７３番地１オービットサーブ株式会社（1500001015342）に合併し解散,2015-10-05,1,,,,,オフィスソルーション,0
1567,7010001186533,登記記録の閉鎖等,0,2026-02-05,2026-01-13,ＪＰＡ第９０号株式会社,,株式会社,東京都,千代田区,霞が関３丁目２番１号,,13,101,1000013,,,2026-01-13,清算の結了等,,,2017-09-27,1,,,,,ジェイピーエーダイキュウジュウゴウ,0
1576,7010005036288,登記記録の閉鎖等,0,2026-02-05,2026-01-30,一般社団法人アイランドシップ５号,,その他の設立登記法人,東京都,中央区,八丁堀４丁目２番１０号ＡＯＪ税理士法人内,,13,102,1040032,,,2026-01-30,清算の結了等,,,2023-02-28,1,,,,,アイランドシップゴゴウ,0
1578,7010401060899,登記記録の閉鎖等,0,2026-02-05,2025-12-10,株式会社トライステージ,,株式会社,東京都,港区,海岸１丁目２番２０号,,13,103,1050022,,,2025-12-10,合併による解散等,7020001161568,令和７年１２月１日東京都港区海岸一丁目２番２０号株式会社ＮＪＭ２（7020001161568）に合併し解散,2015-10-05,1,,,,,トライステージ,0
1584,7010403033572,登記記録の閉鎖等,0,2026-02-05,2026-01-13,合同会社ＷＡＮＤＦ,,合同会社,東京都,港区,北青山１丁目３番１号アールキューブ青山３階,,13,103,1070061,,,2026-01-13,清算の結了等,,,2024-10-10,1,,,,,ダブリューアンドエフ,0
1609,7010901027142,登記記録の閉鎖等,0,2026-02-05,2026-01-26,株式会社ペアシップ,,株式会社,東京都,大田区,南千束３丁目３３番１号,,13,111,1450063,,,2026-01-26,清算の結了等,,,2015-10-05,1,,,,,ペアシップ,0
1636,7011401005984,登記記録の閉鎖等,0,2026-02-05,2026-01-30,株式会社まるかつ,,株式会社,東京都,板橋区,中台２丁目４１番３号,,13,119,1740064,,,2026-01-30,清算の結了等,,,2015-10-05,1,,,,,マルカツ,0
1663,7030001060323,登記記録の閉鎖等,0,2026-02-05,2026-01-30,株式会社タカサキ印刷,,株式会社,埼玉県,本庄市,小島南１丁目１０番２７号,,11,211,3670062,,,2026-01-30,清算の結了等,,,2015-10-05,1,,,,,タカサキインサツ,0
1671,7030002061403,登記記録の閉鎖等,0,2026-02-05,2026-01-30,有限会社ジグラット,,有限会社,埼玉県,新座市,野火止４丁目１番３０号,,11,230,3520011,,,2026-01-30,清算の結了等,,,2015-10-05,1,,,,,ジグラット,0
1697,7080101025436,登記記録の閉鎖等,0,2026-02-05,2026-02-02,ワイケイ工業株式会社,,株式会社,静岡県,富士市,比奈７６０番地の１,,22,210,4170847,,,2026-02-02,合併による解散等,4080101009870,令和８年１月３１日静岡県富士市富士岡５９５番地の１矢崎紙工株式会社（4080101009870）に合併し解散,2025-04-11,1,,,,,ワイケイコウギョウ,0
1707,7100001018933,登記記録の閉鎖等,0,2026-02-05,2026-02-02,株式会社ユニットワン,,株式会社,長野県,茅野市,本町西９番１７号,,20,214,3910003,,,2026-02-02,清算の結了等,,,2015-10-05,1,,,,,ユニットワン,0
1714,7120001061270,登記記録の閉鎖等,0,2026-02-05,2026-01-30,株式会社栄進堂,,株式会社,大阪府,大阪市北区,本庄東２丁目１３番２１号,,27,127,5310074,,,2026-01-30,清算の結了等,,,2015-10-05,1,,,,,エイシンドウ,0
1720,7120001130117,登記記録の閉鎖等,0,2026-02-05,2026-02-04,ココチ不動産株式会社,,株式会社,奈良県,香芝市,狐井６１３番地,,29,210,6390234,,,2026-02-04,清算の結了等,,,2015-10-05,1,,,,,ココチフドウサン,0
1730,7120002081177,登記記録の閉鎖等,0,2026-02-05,2025-12-15,有限会社阪神サニーチャンバー,,有限会社,大阪府,守口市,南寺方南通３丁目１２番１９号,,27,209,5700044,,,2025-12-15,合併による解散等,5120001020939,令和７年１２月１日大阪市平野区平野南四丁目１番１７号大和寝具ドライ株式会社（5120001020939）に合併し解散,2015-10-05,1,,,,,ハンシンサニーチャンバー,0
1753,7150001011792,登記記録の閉鎖等,0,2026-02-05,2026-02-04,株式会社ロイヤルうねび,,株式会社,奈良県,橿原市,大久保町３４３番地２,,29,205,6340061,,,2026-02-04,清算の結了等,,,2015-10-05,1,,,,,,0
1755,7160001003715,登記記録の閉鎖等,0,2026-02-05,2026-02-02,株式会社疏水亭,,株式会社,滋賀県,大津市,三井寺町７番１８号,,25,201,5200034,,,2026-02-02,清算の結了等,,,2015-10-05,1,,,,,ソスイテイ,0
1758,7180001122629,登記記録の閉鎖等,0,2026-02-05,2026-02-02,株式会社ヒラコム,,株式会社,愛知県,名古屋市緑区,神沢３丁目８１９番地の２,,23,114,4580014,,,2026-02-02,清算の結了等,,,2016-03-28,1,,,,,ヒラコム,0
1769,7180301016489,登記記録の閉鎖等,0,2026-02-05,2026-01-30,株式会社ＫＴ,,株式会社,愛知県,刈谷市,場割町１丁目１番地１,,23,210,4480810,,,2026-01-30,清算の結了等,,,2015-10-05,1,,,,,ケーティー,0
1773,7200001012752,登記記録の閉鎖等,0,2026-02-05,2026-02-02,株式会社ケイアンドエフ,,株式会社,愛知県,名古屋市西区,牛島町６番１号,,23,104,4510046,,,2026-02-02,合併による解散等,9180001054259,令和８年２月１日名古屋市西区牛島町６番１号株式会社アットイン（9180001054259）に合併し解散,2015-10-05,1,,,,,ケイアンドエフ,0
1834,7380001027394,登記記録の閉鎖等,0,2026-02-05,2026-02-03,株式会社グッド・プランニング,,株式会社,福島県,福島市,丸子字中町裏４４番地の１０,,07,201,9600111,,,2026-02-03,清算の結了等,,,2016-10-07,1,,,,,グッドプランニング,0
1841,7420002007102,登記記録の閉鎖等,0,2026-02-05,2026-01-26,有限会社サンクリーン八戸,,有限会社,青森県,八戸市,大字八幡字八幡丁１０番地１３,,02,203,0391105,,,2026-01-26,清算の結了等,,,2015-10-05,1,,,,,サンクリーンハチノヘ,0
1843,7430001079777,登記記録の閉鎖等,0,2026-02-05,2026-01-30,下山商事株式会社,,株式会社,北海道,夕張郡栗山町,中央３丁目２４２番地,,01,429,0691511,,,2026-01-30,清算の結了等,,,2019-09-04,1,,,,,シモヤマショウジ,0
1862,8010001186532,登記記録の閉鎖等,0,2026-02-05,2026-01-13,ＪＰＡ第８９号株式会社,,株式会社,東京都,千代田区,霞が関３丁目２番１号,,13,101,1000013,,,2026-01-13,清算の結了等,,,2017-09-27,1,,,,,ジェイピーエーダイハチジュウキュウゴウ,0
1865,8010001244356,登記記録の閉鎖等,0,2026-02-05,2026-01-16,エムキャップ十三号株式会社,,株式会社,東京都,千代田区,丸の内２丁目７番２号,,13,101,1000005,,,2026-01-16,清算の結了等,,,2024-04-25,1,,,,,エムキャップジュウサンゴウ,0
1894,8010703005948,登記記録の閉鎖等,0,2026-02-05,2026-01-22,合同会社ｙｓ,,合同会社,東京都,大田区,山王３丁目１４－１８－９０２,,13,111,1430023,,,2026-01-22,清算の結了等,,,2021-09-17,1,,,,,ワイズ,0
1895,8010901032975,登記記録の閉鎖等,0,2026-02-05,2026-01-14,株式会社馬里邑,,株式会社,東京都,中央区,日本橋室町４丁目１番１１号,,13,102,1030022,,,2026-01-14,清算の結了等,,,2015-10-05,1,,,,,マリムラ,0
1897,8010902025243,登記記録の閉鎖等,0,2026-02-05,2026-02-03,有限会社タルク・アイティー,,有限会社,東京都,世田谷区,北沢５丁目２６番１２号,,13,112,1550031,,,2026-02-03,清算の結了等,,,2015-10-05,1,,,,,タルクアイティー,0
1899,8011001123533,登記記録の閉鎖等,0,2026-02-05,2026-01-13,株式会社レヴァリー,,株式会社,東京都,渋谷区,恵比寿南１丁目２０番６号,,13,113,1500022,,,2026-01-13,清算の結了等,,,2018-08-02,1,,,,,レヴァリー,0
1913,8011501008663,登記記録の閉鎖等,0,2026-02-05,2026-02-03,株式会社ポインターメディカル,,株式会社,東京都,荒川区,南千住７丁目６番１３号,,13,118,1160003,,,2026-02-03,清算の結了等,,,2015-10-05,1,,,,,ポインターメディカル,0
1917,8013102000215,登記記録の閉鎖等,0,2026-02-05,2026-02-03,有限会社金親電気,,有限会社,東京都,福生市,南田園１丁目３番地２１,,13,218,1970004,,,2026-02-03,清算の結了等,,,2015-10-05,1,,,,,カネオヤデンキ,0
1940,8030001134076,登記記録の閉鎖等,0,2026-02-05,2026-01-30,株式会社ＫＥＦ,,株式会社,埼玉県,さいたま市見沼区,島町１１１５番地１０,,11,104,3370006,,,2026-01-30,清算の結了等,,,2019-12-05,1,,,,,ケーイーエフ,0
1967,8080401023493,登記記録の閉鎖等,0,2026-02-05,2026-02-04,株式会社ＢＥＡＣＨ　ＮＯＲＴＨ,,株式会社,静岡県,浜松市浜名区,平口４５２番地の１,,22,139,4340041,,,2026-02-04,清算の結了等,,,2019-03-05,1,,,,,ビーチノース,0
1970,8110001001895,登記記録の閉鎖等,0,2026-02-05,2026-02-02,株式会社高坂設計事務所,,株式会社,新潟県,新潟市東区,竹尾３丁目４番３０号,,15,102,9500862,,,2026-02-02,清算の結了等,,,2015-10-05,1,,,,,コウサカセッケイジムショ,0
1974,8120001155237,登記記録の閉鎖等,0,2026-02-05,2026-02-02,株式会社インテリア近代工芸,,株式会社,大阪府,守口市,梶町４丁目５７番３号,,27,209,5700015,,,2026-02-02,清算の結了等,,,2015-10-05,1,,,,,インテリアキンダイコウゲイ,0
1977,8120001227325,登記記録の閉鎖等,0,2026-02-05,2026-01-13,株式会社ＩＴＡＤＡＫＩ,,株式会社,東京都,渋谷区,道玄坂１丁目１０番８号渋谷道玄坂東急ビル２Ｆ－Ｃ,,13,113,1500043,,,2026-01-13,清算の結了等,,,2020-02-25,1,,,,,イタダキ,0
1990,8120101066276,登記記録の閉鎖等,0,2026-02-05,2026-01-30,株式会社しばた医療機器,,株式会社,大阪府,松原市,大堀３丁目１１番１２号,,27,217,5800006,,,2026-01-30,清算の結了等,,,2022-09-30,1,,,,,シバタイリョウキキ,0
2006,8140001125725,登記記録の閉鎖等,0,2026-02-05,2025-12-17,株式会社カーシステム神戸,,株式会社,兵庫県,神戸市西区,丸塚２丁目５番４号,00135649,28,111,6512143,,,2025-12-17,合併による解散等,7140001106461,令和７年１２月１５日神戸市垂水区舞多聞西二丁目２番４号株式会社カリメーラ（7140001106461）に合併し解散,2022-04-20,1,,,,,カーシステムコウベ,0
2007,8140001133810,登記記録の閉鎖等,0,2026-02-05,2026-01-30,Ｓ＆Ｈ株式会社,,株式会社,兵庫県,芦屋市,大桝町１番１８号,,28,206,6590066,,,2026-01-30,清算の結了等,,,2024-03-19,1,,,,,エスアンドエイチ,0
2008,8140001134370,登記記録の閉鎖等,0,2026-02-05,2026-02-03,株式会社Ｗａｋｅ　Ｂｏｄｙ　Ｒｅｓｔａｒｔ,,株式会社,兵庫県,西宮市,甲子園七番町２０番１５号,,28,204,6638177,,,2026-02-03,清算の結了等,,,2024-05-14,1,,,,,ウェイクボディリスタート,0
2011,8140002049601,登記記録の閉鎖等,0,2026-02-05,2026-02-02,有限会社チェカチェカ,,有限会社,兵庫県,姫路市,城見台４丁目９番地の１,,28,201,6700803,,,2026-02-02,清算の結了等,,,2015-10-05,1,,,,,チェカチェカ,0
2034,8180302026049,登記記録の閉鎖等,0,2026-02-05,2026-02-02,有限会社赤松技工,,有限会社,愛知県,西尾市,田貫４丁目７２番地,,23,213,4440302,,,2026-02-02,清算の結了等,,,2015-10-05,1,,,,,アカマツギコウ,0
2045,8220002011478,登記記録の閉鎖等,0,2026-02-05,2026-02-02,有限会社サンエツ,,有限会社,石川県,能美市,寺井町ソ１５１番地３,,17,211,9231121,,,2026-02-02,清算の結了等,,,2015-10-05,1,,,,,サンエツ,0
2047,8220005000255,登記記録の閉鎖等,0,2026-02-05,2026-02-02,一般財団法人貴船会,,その他の設立登記法人,石川県,金沢市,有松１丁目４番８号,,17,201,9218161,,,2026-02-02,清算の結了等,,,2015-10-05,1,,,,,キフネカイ,0
2051,8260001015071,登記記録の閉鎖等,0,2026-02-05,2026-02-02,大和エアーカーゴエキスプレス株式会社,,株式会社,岡山県,倉敷市,下庄９４８番地の１,,33,202,7010112,,,2026-02-02,清算の結了等,,,2015-10-05,1,,,,,ヤマトエアーカーゴエキスプレス,0
2073,8320002006567,登記記録の閉鎖等,0,2026-02-05,2026-02-02,有限会社三浦人形店,,有限会社,大分県,大分市,大字三佐７１８番地の２,,44,201,8700108,,,2026-02-02,清算の結了等,,,2015-10-05,1,,,,,ミウラニンギョウテン,0
2091,8360002010788,登記記録の閉鎖等,0,2026-02-05,2026-02-02,有限会社チャーリー,,有限会社,沖縄県,南城市,玉城字親慶原２８番地,,47,215,9010608,,,2026-02-02,清算の結了等,,,2015-10-05,1,,,,,チャーリー,0
2100,8400003002160,登記記録の閉鎖等,0,2026-02-05,2026-01-29,ＰＳＴ合同会社,,合同会社,岩手県,奥州市,水沢東大通り２丁目３番３１号,,03,215,0230828,,,2026-01-29,清算の結了等,,,2017-02-22,1,,,,,,0
2104,8410005006456,登記記録の閉鎖等,0,2026-02-05,2026-01-29,特定非営利活動法人大館学び大学,,その他の設立登記法人,秋田県,大館市,御成町１丁目１２番２７号,,05,204,0170044,,,2026-01-29,清算の結了等,,,2022-03-11,1,,,,,,0
2108,8430005005992,登記記録の閉鎖等,0,2026-02-05,2025-12-22,宗教法人天理教神菊分教会,,その他の設立登記法人,北海道,恵庭市,島松旭町２丁目６番４号,,01,231,0611354,,,2025-12-22,合併による解散等,3430005000503,令和７年１２月２２日札幌市東区北三十六条東二十五丁目３番１２号天理教北養分教会（3430005000503）に合併し解散,2015-10-05,1,,,,,テンリキョウカミギクブンキョウカイ,0
2112,8460301004225,登記記録の閉鎖等,0,2026-02-05,2026-02-02,株式会社ライフプランニングＦＫ,,株式会社,北海道,北見市,南仲町２丁目５番３１号,,01,208,0900812,,,2026-02-02,清算の結了等,,,2015-10-05,1,,,,,ライフプランニングエフケイ,0
2113,8470002017285,登記記録の閉鎖等,0,2026-02-05,2026-02-02,有限会社大十建設,,有限会社,香川県,三豊市,三野町吉津甲２４７０番地１,,37,208,7670033,,,2026-02-02,清算の結了等,,,2015-10-05,1,,,,,ダイジュウケンセツ,0
2114,8480001007690,登記記録の閉鎖等,0,2026-02-05,2026-02-04,株式会社藤原縫製,,株式会社,徳島県,美馬市,美馬町字丈寄１３８番地,,36,207,7712101,,,2026-02-04,清算の結了等,,,2015-10-05,1,,,,,,0
2120,9010001182068,登記記録の閉鎖等,0,2026-02-05,2026-01-13,ＪＰＡ第６３号株式会社,,株式会社,東京都,千代田区,霞が関３丁目２番１号,,13,101,1000013,,,2026-01-13,清算の結了等,,,2017-03-13,1,,,,,ジェイピーエーダイロクジュウサンゴウ,0
2146,9010501004985,登記記録の閉鎖等,0,2026-02-05,2026-01-27,株式会社讚岐,,株式会社,東京都,江東区,塩浜２丁目１番８－２０８号,,13,108,1350043,,,2026-01-27,清算の結了等,,,2015-10-05,1,,,,,サヌキ,0
2151,9010602017093,登記記録の閉鎖等,0,2026-02-05,2026-01-29,有限会社カワイ精工,,有限会社,東京都,江東区,東砂３丁目９番３号,,13,108,1360074,,,2026-01-29,清算の結了等,,,2015-10-05,1,,,,,カワイセイコウ,0
2153,9010602033826,登記記録の閉鎖等,0,2026-02-05,2026-01-28,有限会社ミヤチフードテック,,有限会社,東京都,江東区,東陽６丁目３番２号,,13,108,1350016,,,2026-01-28,清算の結了等,,,2015-10-05,1,,,,,ミヤチフードテック,0
2179,9012302002202,登記記録の閉鎖等,0,2026-02-05,2026-02-04,有限会社山王,,有限会社,東京都,町田市,金井１丁目２３番６号,,13,209,1950072,,,2026-02-04,清算の結了等,,,2015-10-05,1,,,,,サンノウ,0
2181,9012401031878,登記記録の閉鎖等,0,2026-02-05,2026-01-13,株式会社Ｌｕｃｅｎｔｕｒｙ,,株式会社,東京都,港区,六本木７丁目１８番１８号,,13,103,1060032,,,2026-01-13,清算の結了等,,,2016-10-04,1,,,,,ルセンチュリー,0
2198,9021001055485,登記記録の閉鎖等,0,2026-02-05,2026-01-14,株式会社オーシャン,,株式会社,神奈川県,秦野市,柳町１丁目１５番５号,,14,211,2591315,,,2026-01-14,清算の結了等,,,2015-10-05,1,,,,,オーシャン,0
2233,9080402022469,登記記録の閉鎖等,0,2026-02-05,2026-01-30,有限会社富士エイジエンシー,,有限会社,静岡県,周智郡森町,睦実１１２３番地の２,,22,461,4370213,,,2026-01-30,清算の結了等,,,2015-10-05,1,,,,,フジエイジエンシー,0
2242,9120001122434,登記記録の閉鎖等,0,2026-02-05,2026-02-02,株式会社ギヤラリーケイ,,株式会社,大阪府,大阪市中央区,高麗橋４丁目８番５号,,27,128,5410043,,,2026-02-02,合併による解散等,8120001122435,令和８年２月１日大阪市中央区高麗橋四丁目８番５号株式会社ナカガワ（8120001122435）に合併し解散,2015-10-05,1,,,,,ギヤラリーケイ,0
2246,9120001240979,登記記録の閉鎖等,0,2026-02-05,2026-02-03,株式会社富豚,,株式会社,大阪府,大阪市北区,本庄東２丁目２番３５－５０１号,,27,127,5310074,,,2026-02-03,清算の結了等,,,2021-10-06,1,,,,,トミトン,0
2256,9120003015256,登記記録の閉鎖等,0,2026-02-05,2026-02-03,合同会社正栄,,合同会社,大阪府,大阪市中央区,玉造１丁目１番２５－１６０５号,,27,128,5400004,,,2026-02-03,清算の結了等,,,2019-01-30,1,,,,,ショウエイ,0
2263,9130001047647,登記記録の閉鎖等,0,2026-02-05,2026-02-02,諸羽貿易株式会社,,株式会社,京都府,京都市下京区,松原通堺町東入杉屋町２９５番地,,26,106,6008078,,,2026-02-02,清算の結了等,,,2015-10-05,1,,,,,モロハボウエキ,0
2264,9130001058025,登記記録の閉鎖等,0,2026-02-05,2026-02-02,株式会社ＪＵＳ,,株式会社,京都府,京都市下京区,東洞院通綾小路下る扇酒屋町２８９番地,,26,106,6008095,,,2026-02-02,合併による解散等,4130001027629,令和８年２月１日京都市下京区東洞院通綾小路下ル扇酒屋町２８９番地株式会社ＪＵＳ（4130001027629）に合併し解散,2016-08-04,1,,,,,ジェイユーエス,0
2276,9140005001368,登記記録の閉鎖等,0,2026-02-05,2025-12-23,天理教本歓喜分教会,,その他の設立登記法人,兵庫県,神戸市灘区,六甲町３丁目８番６号,,28,102,6570053,,,2025-12-23,合併による解散等,4010605000448,令和７年１２月１５日東京都墨田区本所一丁目１３番１７号天理教東本大教会（4010605000448）に合併し解散,2015-10-05,1,,,,,テンリキョウホンカンキブンキョウカイ,0
2294,9180005013384,登記記録の閉鎖等,0,2026-02-05,2025-12-22,天理教本中村分教会,,その他の設立登記法人,愛知県,愛西市,赤目町下堤畦７２番地の２,,23,232,4968046,,,2025-12-22,合併による解散等,1180005000118,令和７年１２月２２日名古屋市中村区大宮町一丁目６０番地天理教本愛大教会（1180005000118）に合併し解散,2015-10-05,1,,,,,テンリキョウホンナカムラブンキョウカイ,0
2301,9200001025703,登記記録の閉鎖等,0,2026-02-05,2026-02-02,株式会社森ルーフ,,株式会社,岐阜県,高山市,天性寺町１９番地,,21,203,5060832,,,2026-02-02,清算の結了等,,,2015-10-05,1,,,,,モリルーフ,0
2339,9300001004829,登記記録の閉鎖等,0,2026-02-05,2026-02-02,株式会社ナスアグリサービス佐賀,,株式会社,佐賀県,武雄市,若木町大字本部１６９１番地,,41,206,8430152,,,2026-02-02,清算の結了等,,,2015-10-05,1,,,,,ナスアグリサービスサガ,0
2350,9360001001928,登記記録の閉鎖等,0,2026-02-05,2026-01-13,株式会社ホテルサン沖縄,,株式会社,東京都,港区,海岸１丁目１０番３０号,,13,103,1050022,,,2026-01-13,清算の結了等,,,2015-10-05,1,,,,,ホテルサンオキナワ,0
2363,9410001011293,登記記録の閉鎖等,0,2026-02-05,2026-01-28,株式会社倍賞興業,,株式会社,青森県,青森市,大字清水字浜元７５番地２,,02,201,0380052,,,2026-01-28,清算の結了等,,,2016-08-15,1,,,,,バイショウコウギョウ,0
2365,9420001008628,登記記録の閉鎖等,0,2026-02-05,2026-01-26,株式会社吉建工,,株式会社,青森県,五所川原市,金木町中柏木鎧石２７０番地１６,,02,205,0370205,,,2026-01-26,清算の結了等,,,2015-10-05,1,,,,,ヨシケンコウ,0
2366,9420001012209,登記記録の閉鎖等,0,2026-02-05,2026-02-02,株式会社ＴＯＰオート,,株式会社,青森県,十和田市,穂並町１５番５号,,02,206,0340037,,,2026-02-02,清算の結了等,,,2015-10-05,1,,,,,トップオート,0
2367,9420002012091,登記記録の閉鎖等,0,2026-02-05,2026-02-02,有限会社ひら岡,,有限会社,青森県,北津軽郡鶴田町,大字廻堰字東下山１番地１,,02,384,0383542,,,2026-02-02,清算の結了等,,,2015-10-05,1,,,,,ヒラオカ,0
