sequenceNumber,corporateNumber,process,correct,updateDate,changeDate,name,nameImageId,kind,prefectureName,cityName,streetNumber,addressImageId,prefectureCode,cityCode,postCode,addressOutside,addressOutsideImageId,closeDate,closeCause,successorCorporateNumber,changeCause,assignmentDate,latest,enName,enPrefectureName,enCityName,enAddressOutside,furigana,hihyoji
3,1010001127823,登記記録の閉鎖等,0,2023-08-21,2023-08-10,株式会社ゆーすと,,株式会社,東京都,文京区,向丘１丁目６番７号,,13,105,1130023,,,2023-08-10,清算の結了等,,,2015-10-05,1,,,,,ユースト,0
13,1010401042762,登記記録の閉鎖等,0,2023-08-21,2023-07-27,株式会社ティービーアイトラスト,,株式会社,東京都,港区,赤坂２丁目１４番５号,,13,103,1070052,,,2023-07-27,清算の結了等,,,2015-10-05,1,,,,,ティービーアイトラスト,0
14,1010401087659,登記記録の閉鎖等,0,2023-08-21,2023-08-01,株式会社アパニ・ネットワークス・ジャパン,,株式会社,東京都,港区,白金台３丁目２番３４号,,13,103,1080071,,,2023-08-01,合併による解散等,8500001015154,令和５年８月１日東京都港区白金台三丁目２番３４号高原基金株式会社（8500001015154）に合併し解散,2015-10-05,1,,,,,アパニネットワークスジャパン,0
23,1010401155861,登記記録の閉鎖等,0,2023-08-21,2023-07-25,株式会社ＡＰＳＦ－Ｃ２,,株式会社,東京都,港区,虎ノ門４丁目１番２８号虎ノ門タワーズオフィス１７階,,13,103,1050001,,,2023-07-25,清算の結了等,,,2020-10-14,1,,,,,エイピーエスエフシーツー,0
31,1010403024965,登記記録の閉鎖等,0,2023-08-21,2023-07-27,合同会社Ｈｅｒｏ　Ｅｎｇｌｉｓｈ,,合同会社,東京都,港区,南青山２丁目２番１５号ＷｉｎＡｏｙａｍａビルＵＣＦ６階,,13,103,1070062,,,2023-07-27,清算の結了等,,,2021-03-24,1,,,,,ヒーローイングリッシュ,0
37,1010501026913,登記記録の閉鎖等,0,2023-08-21,2023-08-18,株式会社日暮里設計,,株式会社,東京都,台東区,下谷１丁目５番３号,,13,106,1100004,,,2023-08-18,清算の結了等,,,2015-10-05,1,,,,,ニッポリセッケイ,0
68,1011502002283,登記記録の閉鎖等,0,2023-08-21,2023-08-14,有限会社小室工務店,,有限会社,東京都,北区,東十条５丁目１３番８号,,13,117,1140001,,,2023-08-14,清算の結了等,,,2015-10-05,1,,,,,コムロコウムテン,0
76,1013101007507,登記記録の閉鎖等,0,2023-08-21,2023-08-17,株式会社ＷＥＥＤ,,株式会社,東京都,あきる野市,小峰台３６番地２,,13,228,1900153,,,2023-08-17,清算の結了等,,,2017-01-13,1,,,,,ウィード,0
83,1020001076391,登記記録の閉鎖等,0,2023-08-21,2023-08-07,株式会社松本水産,,株式会社,神奈川県,川崎市宮前区,水沢１丁目１番１号,,14,136,2160012,,,2023-08-07,清算の結了等,,,2015-10-05,1,,,,,,0
104,1030002034422,登記記録の閉鎖等,0,2023-08-21,2023-07-25,有限会社萬虎,,有限会社,埼玉県,狭山市,入間川１丁目２１番８号,,11,215,3501305,,,2023-07-25,清算の結了等,,,2015-10-05,1,,,,,,0
113,1040002043579,登記記録の閉鎖等,0,2023-08-21,2023-07-21,有限会社ケイセブン,,有限会社,千葉県,浦安市,入船３丁目７０番Ｃ１－１号,,12,227,2790012,,,2023-07-21,清算の結了等,,,2015-10-05,1,,,,,ケイセブン,0
120,1060002037091,登記記録の閉鎖等,0,2023-08-21,2023-08-07,浜田製綿有限会社,,有限会社,栃木県,足利市,田中町９５８番地２,,09,202,3260822,,,2023-08-07,清算の結了等,,,2015-10-05,1,,,,,ハマダセイメン,0
125,1100005012558,登記記録の閉鎖等,0,2023-08-21,2023-08-09,一般社団法人古民家再生協会長野東北信,,その他の設立登記法人,長野県,長野市,大字穂保２４６番地２号,,20,201,3810003,,,2023-08-09,清算の結了等,,,2020-04-13,1,,,,,コミンカサイセイキョウカイナガノトウホクシン,0
128,1120001053562,登記記録の閉鎖等,0,2023-08-21,2023-08-14,株式会社アシック,,株式会社,大阪府,大阪市淀川区,西中島５丁目８番３号,,27,123,5320011,,,2023-08-14,合併による解散等,6180001016220,令和５年８月１日名古屋市東区代官町３５番１６号株式会社エスワイシステム（6180001016220）に合併し解散,2015-10-05,1,,,,,アシック,0
131,1120001201955,登記記録の閉鎖等,0,2023-08-21,2023-08-14,一株式会社,,株式会社,大阪府,大阪市北区,黒崎町２－６光荘２階,,27,127,5300023,,,2023-08-14,清算の結了等,,,2016-11-16,1,,,,,ハジメ,0
132,1120001231259,登記記録の閉鎖等,0,2023-08-21,2023-08-15,Ｔｅｒｅｎ株式会社,,株式会社,大阪府,大阪市北区,梅田１丁目２番２,,27,127,5300001,,,2023-08-15,清算の結了等,,,2020-08-25,1,,,,,テレン,0
139,1120002046846,登記記録の閉鎖等,0,2023-08-21,2023-08-10,有限会社大阪科学,,有限会社,大阪府,大阪市北区,大淀中２丁目８番２６号,,27,127,5310076,,,2023-08-10,清算の結了等,,,2015-10-05,1,,,,,オオサカカガク,0
146,1120902013367,登記記録の閉鎖等,0,2023-08-21,2023-08-16,有限会社パスティ,,有限会社,大阪府,摂津市,鳥飼野々３丁目３５番１３号,,27,224,5660053,,,2023-08-16,清算の結了等,,,2015-10-05,1,,,,,パスティ,0
147,1122001000288,登記記録の閉鎖等,0,2023-08-21,2023-08-10,株式会社イシガキ運輸,,株式会社,大阪府,東大阪市,加納６丁目７番７号,,27,227,5780901,,,2023-08-10,清算の結了等,,,2015-10-05,1,,,,,イシガキウンユ,0
152,1122002000618,登記記録の閉鎖等,0,2023-08-21,2023-08-10,有限会社ウエノ工業所,,有限会社,大阪府,東大阪市,西堤本通東１丁目３番３８号,,27,227,5770045,,,2023-08-10,清算の結了等,,,2015-10-05,1,,,,,ウエノコウギョウショ,0
160,1140001114511,登記記録の閉鎖等,0,2023-08-21,2023-08-10,株式会社ソルト,,株式会社,兵庫県,神戸市中央区,小野浜町１番４－４０７号,,28,110,6510082,,,2023-08-10,合併による解散等,3140001127560,令和５年８月１日神戸市中央区小野浜町１－４－４０７号室ＡＷＳホールディングス株式会社（3140001127560）に合併し解散,2019-08-07,1,,,,,ソルト,0
164,1140002002888,登記記録の閉鎖等,0,2023-08-21,2023-08-10,有限会社エス・アール・エスデザイン,,有限会社,兵庫県,神戸市灘区,八幡町２丁目２番３号,,28,102,6570051,,,2023-08-10,清算の結了等,,,2015-10-05,1,,,,,エスアールエスデザイン,0
171,1170001014865,登記記録の閉鎖等,0,2023-08-21,2023-08-18,和沁工業株式会社,,株式会社,和歌山県,和歌山市,狐島３７９番地の１１,,30,201,6408412,,,2023-08-18,清算の結了等,,,2017-08-07,1,,,,,,0
184,1180302012798,登記記録の閉鎖等,0,2023-08-21,2023-08-07,有限会社石黒建設,,有限会社,愛知県,豊川市,一宮町豊２４番地,,23,207,4411231,,,2023-08-07,清算の結了等,,,2015-10-05,1,,,,,イシグロケンセツ,0
187,1200001018111,登記記録の閉鎖等,0,2023-08-21,2023-08-17,株式会社エフブランド,,株式会社,岐阜県,可児市,下恵土８６８番地,,21,214,5090203,,,2023-08-17,清算の結了等,,,2015-10-05,1,,,,,エフブランド,0
189,1200002017590,登記記録の閉鎖等,0,2023-08-21,2023-08-17,有限会社ユーデーシー・ジャパン,,有限会社,岐阜県,加茂郡八百津町,八百津８４９５番地の１,,21,505,5050301,,,2023-08-17,清算の結了等,,,2015-10-05,1,,,,,ユーデーシージャパン,0
199,1250002000071,登記記録の閉鎖等,0,2023-08-21,2023-08-09,有限会社アド・カミモト,,有限会社,山口県,山口市,朝田６１２番地２６,,35,203,7530871,,,2023-08-09,清算の結了等,,,2015-10-05,1,,,,,アドカミモト,0
200,1250005003690,登記記録の閉鎖等,0,2023-08-21,2023-07-10,天理教弟子待分教会,00002930,その他の設立登記法人,山口県,下関市,彦島弟子待町２丁目１１番２４号,,35,201,7500076,,,2023-07-10,合併による解散等,7250005003702,令和５年７月１０日山口県下関市彦島江の浦町八丁目２番７号天理教関島分教会（7250005003702）に合併し解散,2015-10-05,1,,,,,,0
238,1400501001042,登記記録の閉鎖等,0,2023-08-21,2023-08-15,株式会社かい,,株式会社,岩手県,一関市,東台１４番地２１,,03,209,0210822,,,2023-08-15,合併による解散等,6013201005793,令和５年８月１日東京都目黒区目黒本町二丁目２２番３号株式会社村上商会（6013201005793）に合併し解散,2015-10-05,1,,,,,カイ,0
240,1420001006011,登記記録の閉鎖等,0,2023-08-21,2023-08-10,株式会社ゼネラルマネジメントサービス,,株式会社,青森県,八戸市,小中野３丁目１７番１５号,,02,203,0310802,,,2023-08-10,清算の結了等,,,2015-10-05,1,,,,,ゼネラルマネジメントサービス,0
241,1420001006779,登記記録の閉鎖等,0,2023-08-21,2023-08-08,株式会社小野寺醸造元,,株式会社,青森県,三戸郡三戸町,大字八日町４６番地,,02,441,0390135,,,2023-08-08,清算の結了等,,,2015-10-05,1,,,,,オノデラジョウゾウモト,0
248,1430002013377,登記記録の閉鎖等,0,2023-08-21,2023-07-27,有限会社寺嶋コーポレーション,,有限会社,北海道,札幌市西区,山の手六条３丁目２番１２号,,01,107,0630006,,,2023-07-27,清算の結了等,,,2015-10-05,1,,,,,テラジマコーポレーション,0
249,1430002016116,登記記録の閉鎖等,0,2023-08-21,2023-08-10,有限会社原製本所,,有限会社,北海道,札幌市東区,北二十一条東１丁目３６５番地,,01,103,0650021,,,2023-08-10,清算の結了等,,,2015-10-05,1,,,,,ハラセイホンショ,0
253,1480001002491,登記記録の閉鎖等,0,2023-08-21,2023-08-10,都運輸株式会社,,株式会社,徳島県,徳島市,津田海岸町２番４０号,,36,201,7708001,,,2023-08-10,清算の結了等,,,2015-10-05,1,,,,,ミヤコウンユ,0
340,2020001012767,登記記録の閉鎖等,0,2023-08-21,2023-08-07,株式会社協友企画,,株式会社,神奈川県,横浜市南区,前里町３丁目８１番地,,14,105,2320004,,,2023-08-07,清算の結了等,,,2015-10-05,1,,,,,キョウユウキカク,0
349,2020002037053,登記記録の閉鎖等,0,2023-08-21,2023-08-07,有限会社伊藤製缶,,有限会社,神奈川県,横浜市鶴見区,下野谷町２丁目６９番地,,14,101,2300047,,,2023-08-07,清算の結了等,,,2015-10-05,1,,,,,イトウセイカン,0
351,2020003010323,登記記録の閉鎖等,0,2023-08-21,2023-08-08,合同会社翔貴,,合同会社,神奈川県,横浜市磯子区,上中里町２９７番地１ライオンズマンション杉田第３－２０３号,,14,107,2350042,,,2023-08-08,清算の結了等,,,2015-10-05,1,,,,,ショウキ,0
363,2021002042794,登記記録の閉鎖等,0,2023-08-21,2023-08-16,有限会社山崎工匠,,有限会社,神奈川県,大和市,上草柳６丁目８番１２号,,14,213,2420029,,,2023-08-16,清算の結了等,,,2015-10-05,1,,,,,ヤマザキコウショウ,0
368,2030001147612,登記記録の閉鎖等,0,2023-08-21,2023-07-26,株式会社Ｓａｎｉｂｅｒ,,株式会社,埼玉県,飯能市,大字赤沢５８７番地１ガーデンパーク飯能５０２号室,,11,209,3570128,,,2023-07-26,清算の結了等,,,2022-04-05,1,,,,,サニバー,0
385,2050002037166,登記記録の閉鎖等,0,2023-08-21,2023-08-16,有限会社マルコーハウジング,,有限会社,茨城県,守谷市,本町２５７番地の５,,08,224,3020109,,,2023-08-16,清算の結了等,,,2015-10-05,1,,,,,マルコーハウジング,0
390,2080001020244,登記記録の閉鎖等,0,2023-08-21,2023-08-18,株式会社Ｅグリーン,,株式会社,静岡県,静岡市清水区,能島５６２番地の１,,22,103,4240063,,,2023-08-18,清算の結了等,,,2015-10-05,1,,,,,イーグリーン,0
433,2140002064787,登記記録の閉鎖等,0,2023-08-21,2023-08-14,有限会社フジ化工,,有限会社,兵庫県,川西市,山下町９番１２号,,28,217,6660106,,,2023-08-14,清算の結了等,,,2015-10-05,1,,,,,フジカコウ,0
435,2150001010262,登記記録の閉鎖等,0,2023-08-21,2023-08-17,あすか野株式会社,,株式会社,奈良県,高市郡明日香村,大字祝戸６番地の１,,29,402,6340121,,,2023-08-17,清算の結了等,,,2015-10-05,1,,,,,アスカノ,0
443,2180301015909,登記記録の閉鎖等,0,2023-08-21,2023-08-07,三河タクシー株式会社,,株式会社,愛知県,高浜市,青木町６丁目６番地１３,,23,227,4441325,,,2023-08-07,清算の結了等,,,2015-10-05,1,,,,,ミカワタクシー,0
444,2180301017260,登記記録の閉鎖等,0,2023-08-21,2023-08-07,株式会社ネクスト・タウン,,株式会社,愛知県,知立市,弘法町弘法山４０番地７,,23,225,4720046,,,2023-08-07,清算の結了等,,,2015-10-05,1,,,,,ネクストタウン,0
452,2190001027195,登記記録の閉鎖等,0,2023-08-21,2023-08-14,ファイブハウス株式会社,,株式会社,三重県,鈴鹿市,住吉１丁目３０番１５号,,24,207,5130826,,,2023-08-14,清算の結了等,,,2020-03-18,1,,,,,ファイブハウス,0
455,2200002019751,登記記録の閉鎖等,0,2023-08-21,2023-08-17,有限会社コモドチェアー,,有限会社,岐阜県,関市,洞戸菅谷４９７番地の１,,21,205,5012814,,,2023-08-17,清算の結了等,,,2015-10-05,1,,,,,コモドチェアー,0
464,2280001002908,登記記録の閉鎖等,0,2023-08-21,2023-08-17,株式会社ＴＮＴコーポレーション,,株式会社,島根県,出雲市,姫原町１７０番地１,,32,203,6930061,,,2023-08-17,清算の結了等,,,2015-10-05,1,,,,,ティエヌティコーポレーション,0
483,2290801009985,登記記録の閉鎖等,0,2023-08-21,2023-08-18,寿砿業株式会社,,株式会社,福岡県,北九州市八幡西区,大字畑５７６番地の３,,40,109,8071124,,,2023-08-18,清算の結了等,,,2015-10-05,1,,,,,コトブキコウギョウ,0
493,2330003008906,登記記録の閉鎖等,0,2023-08-21,2023-08-01,合同会社スリーティー２,,合同会社,熊本県,熊本市中央区,新屋敷３丁目１６番７－１４０１号,,43,101,8620975,,,2023-08-01,合併による解散等,1330003008072,令和５年８月１日熊本市中央区新屋敷三丁目１６番７－１４０１号合同会社スリーティー（1330003008072）に合併し解散,2021-05-27,1,,,,,スリーティーツー,0
514,2440002002709,登記記録の閉鎖等,0,2023-08-21,2023-08-17,有限会社田中時計店,,有限会社,北海道,函館市,千代台町２１番９号,,01,202,0400013,,,2023-08-17,清算の結了等,,,2015-10-05,1,,,,,タナカトケイテン,0
515,2450001011676,登記記録の閉鎖等,0,2023-08-21,2023-07-26,株式会社Ｃｒｙｓｔａｌ　Ｄｒｏｐ,,株式会社,北海道,富良野市,末広町８番１号,,01,229,0760011,,,2023-07-26,合併による解散等,2040001031303,令和５年７月１日千葉県市川市新田五丁目９番２２号株式会社Ｎｅｗ　Ｔｙｐｅ（2040001031303）に合併し解散,2016-04-14,1,,,,,,0
516,2450001011916,登記記録の閉鎖等,0,2023-08-21,2023-08-18,株式会社大雪漁業,,株式会社,北海道,上川郡上川町,字東雲５２７番地の８,,01,457,0781731,,,2023-08-18,清算の結了等,,,2017-01-06,1,,,,,タイセツギョギョウ,0
519,2480002008223,登記記録の閉鎖等,0,2023-08-21,2023-08-18,ユアサ設備工業有限会社,,有限会社,徳島県,小松島市,横須町８番４１号,,36,203,7730006,,,2023-08-18,清算の結了等,,,2015-10-05,1,,,,,ユアサセツビコウギョウ,0
523,2500005001817,登記記録の閉鎖等,0,2023-08-21,2023-08-18,農事組合法人中島青果,,その他の設立登記法人,愛媛県,松山市,中島大浦１６２３番地,,38,201,7914501,,,2023-08-18,清算の結了等,,,2015-10-05,1,,,,,ナカジマセイカ,0
537,3010001202252,登記記録の閉鎖等,0,2023-08-21,2023-08-15,株式会社営業のお守り,,株式会社,東京都,中央区,銀座７丁目１３番６号サガミビル２階,,13,102,1040061,,,2023-08-15,清算の結了等,,,2019-07-08,1,,,,,エイギョウノオマモリ,0
541,3010401084605,登記記録の閉鎖等,0,2023-08-21,2023-07-25,株式会社青山ファイナンス,,株式会社,東京都,港区,新橋５丁目５番３号２階,,13,103,1050004,,,2023-07-25,清算の結了等,,,2015-10-05,1,,,,,アオヤマファイナンス,0
544,3010401093069,登記記録の閉鎖等,0,2023-08-21,2023-07-27,Ａｓｃｅｎｄ　Ｊａｐａｎ株式会社,,株式会社,東京都,港区,虎ノ門２丁目２番５号,,13,103,1050001,,,2023-07-27,清算の結了等,,,2015-10-05,1,,,,,アセンドジャパン,0
549,3010401157195,登記記録の閉鎖等,0,2023-08-21,2023-08-17,株式会社ＭＯＶＥ’Ｓ,,株式会社,東京都,渋谷区,代々木１丁目２５番５号,,13,113,1510053,,,2023-08-17,清算の結了等,,,2020-12-21,1,,,,,,0
573,3010903000209,登記記録の閉鎖等,0,2023-08-21,2023-08-07,合資会社シーエーティー教育パートナーシップ,,合資会社,東京都,世田谷区,赤堤５丁目２９番１４号,,13,112,1560044,,,2023-08-07,清算の結了等,,,2015-10-05,1,,,,,シーエーティーキョウイクパートナーシップ,0
598,3011801026246,登記記録の閉鎖等,0,2023-08-21,2023-08-17,株式会社カレッジ・ウィル,,株式会社,東京都,葛飾区,亀有３丁目２７－２７ラ・カメリア２０１号室,,13,122,1250061,,,2023-08-17,清算の結了等,,,2015-10-05,1,,,,,カレッジウィル,0
609,3013201011290,登記記録の閉鎖等,0,2023-08-21,2023-07-26,コスモブレイン株式会社,,株式会社,東京都,港区,赤坂４丁目１番６号,,13,103,1070052,,,2023-07-26,清算の結了等,,,2015-10-05,1,,,,,コスモブレイン,0
613,3020001099589,登記記録の閉鎖等,0,2023-08-21,2023-08-07,株式会社北杜,,株式会社,神奈川県,横浜市緑区,十日市場町８０２番地２マイキャッスル十日市場５０１号,,14,113,2260025,,,2023-08-07,清算の結了等,,,2015-10-05,1,,,,,ホクト,0
620,3020002000638,登記記録の閉鎖等,0,2023-08-21,2023-08-08,有限会社富建設,,有限会社,神奈川県,横浜市栄区,本郷台５丁目１３番９号,,14,115,2470008,,,2023-08-08,清算の結了等,,,2015-10-05,1,,,,,トミケンセツ,0
621,3020002010059,登記記録の閉鎖等,0,2023-08-21,2023-08-07,有限会社信和,,有限会社,神奈川県,横浜市磯子区,森４丁目１７番２６－１０２号,,14,107,2350023,,,2023-08-07,清算の結了等,,,2015-10-05,1,,,,,シンワ,0
622,3020002044288,登記記録の閉鎖等,0,2023-08-21,2023-08-02,有限会社パドック,,有限会社,神奈川県,横浜市神奈川区,斎藤分町３５番７号,,14,102,2210811,,,2023-08-02,清算の結了等,,,2015-10-05,1,,,,,パドック,0
633,3030002060367,登記記録の閉鎖等,0,2023-08-21,2023-07-26,有限会社三上商店,,有限会社,埼玉県,志木市,本町２丁目４番３９号,,11,228,3530004,,,2023-07-26,清算の結了等,,,2015-10-05,1,,,,,ミカミショウテン,0
634,3030002073658,登記記録の閉鎖等,0,2023-08-21,2023-07-24,有限会社システム設計事務所,,有限会社,埼玉県,川越市,砂新田１丁目５番地３０,,11,201,3501137,,,2023-07-24,清算の結了等,,,2015-10-05,1,,,,,システムセッケイジムショ,0
645,3050002007614,登記記録の閉鎖等,0,2023-08-21,2023-08-08,有限会社ベル・ウッド,,有限会社,東京都,目黒区,鷹番２丁目２１番１４号,,13,110,1520004,,,2023-08-08,清算の結了等,,,2015-10-05,1,,,,,ベルウッド,0
655,3080101019111,登記記録の閉鎖等,0,2023-08-21,2023-08-18,株式会社幸和住研,,株式会社,静岡県,三島市,壱町田８２番地の３５,,22,206,4110025,,,2023-08-18,清算の結了等,,,2016-05-19,1,,,,,コウワジュウケン,0
665,3120001209699,登記記録の閉鎖等,0,2023-08-21,2023-08-09,株式会社ブラモ,,株式会社,大阪府,大阪市北区,梅田２丁目５番８号,,27,127,5300001,,,2023-08-09,清算の結了等,,,2017-11-27,1,,,,,ブラモ,0
678,3120901001164,登記記録の閉鎖等,0,2023-08-21,2023-08-15,株式会社センリ,,株式会社,大阪府,茨木市,藤の里１丁目１１番６号,,27,211,5670054,,,2023-08-15,清算の結了等,,,2015-10-05,1,,,,,センリ,0
687,3140001095667,登記記録の閉鎖等,0,2023-08-21,2023-08-08,株式会社エリオス,,株式会社,兵庫県,加古川市,加古川町木村１１２－４－６０２,,28,210,6750038,,,2023-08-08,清算の結了等,,,2015-10-05,1,,,,,エリオス,0
703,3180003000761,登記記録の閉鎖等,0,2023-08-21,2023-08-17,合資会社祖父江商店,,合資会社,愛知県,名古屋市昭和区,白金１丁目１５番１０号,,23,107,4660058,,,2023-08-17,清算の結了等,,,2015-10-05,1,,,,,ソブエショウテン,0
707,3180302001510,登記記録の閉鎖等,0,2023-08-21,2023-08-07,有限会社ジャパンエンブリオテック,,有限会社,愛知県,岡崎市,江口２丁目３番地２,,23,202,4440843,,,2023-08-07,清算の結了等,,,2015-10-05,1,,,,,ジャパンエンブリオテック,0
712,3200001009777,登記記録の閉鎖等,0,2023-08-21,2023-08-17,株式会社稲垣,,株式会社,岐阜県,瑞穂市,稲里３５２番地１,,21,216,5010224,,,2023-08-17,清算の結了等,,,2015-10-05,1,,,,,イナガキ,0
713,3200002004091,登記記録の閉鎖等,0,2023-08-21,2023-08-18,有限会社古田工務店,,有限会社,岐阜県,岐阜市,栄枝町３番地,,21,201,5008872,,,2023-08-18,清算の結了等,,,2015-10-05,1,,,,,フルタコウムテン,0
722,3240005006222,登記記録の閉鎖等,0,2023-08-21,2023-07-03,社会福祉法人広島順道会,,その他の設立登記法人,広島県,呉市,安浦町内海北１丁目２番４２号,,34,202,7372518,,,2023-07-03,合併による解散等,8240005006192,令和５年７月３日広島県呉市中央五丁目１２番２１号社会福祉法人呉同済義会（8240005006192）に合併し解散,2015-10-05,1,,,,,ヒロシマジュンドウカイ,0
743,3300002000155,登記記録の閉鎖等,0,2023-08-21,2023-08-17,有限会社ウィング,,有限会社,佐賀県,佐賀市,鍋島町大字森田３８７番地９,,41,201,8490936,,,2023-08-17,清算の結了等,,,2015-10-05,1,,,,,ウィング,0
757,3380001029403,登記記録の閉鎖等,0,2023-08-21,2023-08-16,株式会社スマート,,株式会社,福島県,郡山市,菜根４丁目１２番２５号,,07,203,9638862,,,2023-08-16,清算の結了等,,,2018-09-03,1,,,,,スマート,0
762,3430001018318,登記記録の閉鎖等,0,2023-08-21,2023-07-26,株式会社渡辺電機工業所,,株式会社,北海道,札幌市中央区,南十五条西７丁目１番２０号,,01,101,0640915,,,2023-07-26,清算の結了等,,,2015-10-05,1,,,,,ワタナベデンキコウギョウショ,0
764,3430001047300,登記記録の閉鎖等,0,2023-08-21,2023-08-16,伸和機型株式会社,,株式会社,北海道,夕張郡栗山町,字旭台１番地６０,,01,429,0691507,,,2023-08-16,合併による解散等,1180301020348,令和５年８月１日愛知県豊田市前林町上納２６番地株式会社日伸（1180301020348）に合併し解散,2015-10-05,1,,,,,シンワキガタ,0
767,3430002061655,登記記録の閉鎖等,0,2023-08-21,2023-07-25,有限会社道央物産,,有限会社,北海道,日高郡新ひだか町,静内緑町２丁目４６番地の１,,01,610,0560004,,,2023-07-25,清算の結了等,,,2015-10-05,1,,,,,ドウオウブッサン,0
771,3500002023854,登記記録の閉鎖等,0,2023-08-21,2023-08-17,岡崎電機有限会社,,有限会社,愛媛県,南宇和郡愛南町,久家７３５番地,,38,506,7984211,,,2023-08-17,清算の結了等,,,2015-10-05,1,,,,,オカザキデンキ,0
792,4010001187435,登記記録の閉鎖等,0,2023-08-21,2023-07-28,株式会社グローライズ,,株式会社,千葉県,千葉市中央区,弁天１丁目１５番３号リードシー千葉駅前ビルＢ１Ｆ－３８,,12,101,2600045,,,2023-07-28,清算の結了等,,,2017-11-06,1,,,,,グローライズ,0
821,4010403025259,登記記録の閉鎖等,0,2023-08-21,2023-07-25,合同会社ＳＳＡＴ,,合同会社,東京都,港区,南青山２丁目２番１５号,,13,103,1070062,,,2023-07-25,清算の結了等,,,2021-05-10,1,,,,,エスエスエーティー,0
829,4010701035868,登記記録の閉鎖等,0,2023-08-21,2023-08-10,株式会社マガラ,,株式会社,東京都,中央区,晴海１丁目８番５－９０４号晴海アイランドトリトンスクエアアーバンタワー,,13,102,1040053,,,2023-08-10,清算の結了等,,,2018-05-28,1,,,,,マガラ,0
830,4010702002405,登記記録の閉鎖等,0,2023-08-21,2023-08-17,有限会社北浦電工,,有限会社,東京都,品川区,東大井１丁目８番５号プライム東大井５０６号,,13,109,1400011,,,2023-08-17,清算の結了等,,,2015-10-05,1,,,,,キタウラデンコウ,0
836,4011001142545,登記記録の閉鎖等,0,2023-08-21,2023-08-01,株式会社Ｉｎｎｅｒ　Ｓｕｓｔａｉｎａｂｉｌｉｔｙ,,株式会社,東京都,渋谷区,神宮前６丁目２３－４桑野ビル２Ｆ,,13,113,1500001,,,2023-08-01,清算の結了等,,,2021-09-06,1,,,,,インナーサステイナビリティ,0
848,4011401019995,登記記録の閉鎖等,0,2023-08-21,2023-08-14,エドゥカ株式会社,,株式会社,東京都,板橋区,板橋４丁目４８番１０号,,13,119,1730004,,,2023-08-14,清算の結了等,,,2017-01-23,1,,,,,エドゥカ,0
851,4011501008667,登記記録の閉鎖等,0,2023-08-21,2023-08-14,豊友産業株式会社,,株式会社,東京都,荒川区,西日暮里５丁目３番１３号ヴィルヌーブ西日暮里６０１,,13,118,1160013,,,2023-08-14,清算の結了等,,,2015-10-05,1,,,,,ホウユウサンギョウ,0
859,4012701007954,登記記録の閉鎖等,0,2023-08-21,2023-08-16,本州不動産株式会社,,株式会社,東京都,小平市,小川西町４丁目３３番８号,,13,211,1870035,,,2023-08-16,清算の結了等,,,2015-10-05,1,,,,,ホンシュウフドウサン,0
880,4020002078285,登記記録の閉鎖等,0,2023-08-21,2023-08-08,有限会社藤ビル,,有限会社,神奈川県,横浜市西区,北軽井沢１９番地７７,,14,103,2200001,,,2023-08-08,清算の結了等,,,2015-10-05,1,,,,,フジビル,0
881,4020002103217,登記記録の閉鎖等,0,2023-08-21,2023-08-07,有限会社きらら薬局,,有限会社,神奈川県,川崎市高津区,東野川１丁目１７番４号,,14,134,2130029,,,2023-08-07,清算の結了等,,,2015-10-05,1,,,,,,0
894,4030001057883,登記記録の閉鎖等,0,2023-08-21,2023-07-26,株式会社ブレインズ企画,,株式会社,埼玉県,川越市,大字砂新田４１３番地５１,,11,201,3501137,,,2023-07-26,清算の結了等,,,2015-10-05,1,,,,,ブレインズキカク,0
895,4030002046365,登記記録の閉鎖等,0,2023-08-21,2023-07-25,有限会社アートキッチン,,有限会社,埼玉県,八潮市,中央４丁目１番地６,,11,234,3400816,,,2023-07-25,清算の結了等,,,2015-10-05,1,,,,,アートキッチン,0
912,4080002001506,登記記録の閉鎖等,0,2023-08-21,2023-08-18,有限会社カンビ,,有限会社,静岡県,静岡市葵区,安東２丁目３番４号,,22,101,4200882,,,2023-08-18,清算の結了等,,,2015-10-05,1,,,,,カンビ,0
927,4120001177020,登記記録の閉鎖等,0,2023-08-21,2023-08-16,株式会社関西不動産情報センター,,株式会社,大阪府,枚方市,岡東町１４番４４号,,27,210,5730032,,,2023-08-16,合併による解散等,4130001056280,令和５年８月１日兵庫県伊丹市寺本三丁目１７番地１株式会社ハウジングプラザ（4130001056280）に合併し解散,2015-10-05,1,,,,,カンサイフドウサンジョウホウセンター,0
935,4120005019706,登記記録の閉鎖等,0,2023-08-21,2023-08-16,特定非営利活動法人大阪指定管理サポート,,その他の設立登記法人,大阪府,大阪市中央区,玉造１丁目１８番８号,,27,128,5400004,,,2023-08-16,清算の結了等,,,2017-09-12,1,,,,,オオサカシテイカンリサポート,0
945,4130002025904,登記記録の閉鎖等,0,2023-08-21,2023-08-02,有限会社ＦＰゴンズ,,有限会社,京都府,向日市,上植野町中福知１１番地１３,,26,208,6170006,,,2023-08-02,清算の結了等,,,2015-10-05,1,,,,,エフピーゴンズ,0
966,4180001135393,登記記録の閉鎖等,0,2023-08-21,2023-08-17,株式会社徳丸工業,,株式会社,愛知県,愛西市,町方町西大山田３７番地３９,,23,232,4968014,,,2023-08-17,清算の結了等,,,2019-02-06,1,,,,,トクマルコウギョウ,0
971,4180002077585,登記記録の閉鎖等,0,2023-08-21,2023-08-10,有限会社フジギケン,,有限会社,愛知県,一宮市,木曽川町外割田字東郷中９８番地,,23,203,4930007,,,2023-08-10,清算の結了等,,,2015-10-05,1,,,,,フジギケン,0
980,4200001012029,登記記録の閉鎖等,0,2023-08-21,2023-08-18,株式会社ロハス,,株式会社,岐阜県,羽島市,小熊町島新道７６番地１,,21,209,5016253,,,2023-08-18,清算の結了等,,,2015-10-05,1,,,,,ロハス,0
981,4200002005188,登記記録の閉鎖等,0,2023-08-21,2023-08-18,有限会社留仙閣,,有限会社,岐阜県,岐阜市,福光南町１６番１８号,,21,201,5020815,,,2023-08-18,清算の結了等,,,2015-10-05,1,,,,,リュウセンカク,0
983,4230005000588,登記記録の閉鎖等,0,2023-08-21,2023-08-18,協同組合エイ・アイ・ユーグループ,,その他の設立登記法人,富山県,富山市,上飯野４３番地の５,,16,201,9300827,,,2023-08-18,清算の結了等,,,2015-10-05,1,,,,,エイアイユーグループ,0
1011,4390002010946,登記記録の閉鎖等,0,2023-08-21,2023-08-17,有限会社日成電機,,有限会社,山形県,新庄市,金沢１８０５番地,,06,205,9960002,,,2023-08-17,清算の結了等,,,2015-10-05,1,,,,,ニッセイデンキ,0
1012,4410001007577,登記記録の閉鎖等,0,2023-08-21,2023-08-09,株式会社坂本木型,,株式会社,秋田県,能代市,緑町９番２１号,,05,202,0160851,,,2023-08-09,清算の結了等,,,2015-10-05,1,,,,,サカモトキガタ,0
1014,4430001066588,登記記録の閉鎖等,0,2023-08-21,2023-08-14,株式会社アイフェクト,,株式会社,北海道,札幌市中央区,南三条西９丁目９９９－７オギサカ南３条ビル２階,,01,101,0600063,,,2023-08-14,清算の結了等,,,2015-10-05,1,,,,,アイフェクト,0
1017,4440001005842,登記記録の閉鎖等,0,2023-08-21,2023-08-17,株式会社央建,,株式会社,北海道,函館市,吉川町７番２２号,,01,202,0400077,,,2023-08-17,清算の結了等,,,2015-10-05,1,,,,,オウケン,0
1018,4460302003519,登記記録の閉鎖等,0,2023-08-21,2023-08-17,有限会社旭羊繊維工業社,,有限会社,北海道,網走郡美幌町,字青山北２６番地の２,,01,543,0920066,,,2023-08-17,清算の結了等,,,2015-10-05,1,,,,,キョクヨウセンイコウギョウシャ,0
1055,5010401155858,登記記録の閉鎖等,0,2023-08-21,2023-07-25,株式会社ＡＰＳＦ－Ｊ,,株式会社,東京都,港区,虎ノ門４丁目１番２８号虎ノ門タワーズオフィス１７階,,13,103,1050001,,,2023-07-25,清算の結了等,,,2020-10-14,1,,,,,エイピーエスエフジェイ,0
1062,5010403023906,登記記録の閉鎖等,0,2023-08-21,2023-07-26,ビジョン・ストーリー合同会社,,合同会社,東京都,港区,南青山２丁目２番１５号ウィン青山１２１４号,,13,103,1070062,,,2023-07-26,清算の結了等,,,2020-10-15,1,,,,,ビジョンストーリー,0
1089,5011501005374,登記記録の閉鎖等,0,2023-08-21,2023-08-14,株式会社荒川すまいづくりセンター,,株式会社,東京都,荒川区,荒川４丁目２５番８号,,13,118,1160002,,,2023-08-14,清算の結了等,,,2015-10-05,1,,,,,アラカワスマイヅクリセンター,0
1091,5011701012427,登記記録の閉鎖等,0,2023-08-21,2023-08-18,株式会社新生陶業,,株式会社,東京都,江戸川区,一之江８丁目９番８号ベルソレイユ２０３号,,13,123,1320024,,,2023-08-18,清算の結了等,,,2015-10-05,1,,,,,シンセイトウギョウ,0
1109,5020001054897,登記記録の閉鎖等,0,2023-08-21,2023-08-17,株式会社マイスター,,株式会社,神奈川県,相模原市南区,相模台２丁目４番５号,,14,153,2520321,,,2023-08-17,清算の結了等,,,2015-10-05,1,,,,,マイスター,0
1125,5021002026448,登記記録の閉鎖等,0,2023-08-21,2023-08-16,有限会社エヌビー工業,,有限会社,神奈川県,相模原市中央区,上溝２丁目２番２１号,,14,152,2520243,,,2023-08-16,清算の結了等,,,2015-10-05,1,,,,,エヌビーコウギョウ,0
1136,5030005016959,登記記録の閉鎖等,0,2023-08-21,2023-07-26,特定非営利活動法人親子サロンｍａｎｏ＆ｍａｎｏ,,その他の設立登記法人,埼玉県,川口市,大字東内野６１１番地の３２,,11,203,3330821,,,2023-07-26,清算の結了等,,,2015-10-05,1,,,,,オヤコサロンマノマノ,0
1151,5060002012413,登記記録の閉鎖等,0,2023-08-21,2023-08-07,有限会社公企画,,有限会社,栃木県,塩谷郡高根沢町,大字平田２０１１番地３２,,09,386,3291206,,,2023-08-07,清算の結了等,,,2015-10-05,1,,,,,コウキカク,0
1152,5060003001670,登記記録の閉鎖等,0,2023-08-21,2023-08-07,合同会社ＮＡＳＵ　ｎｏ　Ｍａｋｉ　Ｕｄｏｎ,,合同会社,栃木県,大田原市,本町１丁目２７１５番地ビル・ラポール２階,,09,210,3240041,,,2023-08-07,清算の結了等,,,2015-10-05,1,,,,,ナスノマキウドン,0
1158,5080402014511,登記記録の閉鎖等,0,2023-08-21,2023-08-18,有限会社アレンジ,,有限会社,静岡県,浜松市中区,佐鳴台５丁目２７番２７－１０２号,,22,131,4328021,,,2023-08-18,清算の結了等,,,2015-10-05,1,,,,,アレンジ,0
1169,5120001195442,登記記録の閉鎖等,0,2023-08-21,2023-08-16,株式会社近住ホールディングス,,株式会社,大阪府,枚方市,池之宮２丁目２番１５号,,27,210,5730005,,,2023-08-16,合併による解散等,8010001219424,令和５年８月１日東京都中央区日本橋茅場町三丁目２番２号ＥＫＫビル株式会社住まいるプラス１ホールディングス（8010001219424）に合併し解散,2016-01-06,1,,,,,キンジュウホールディングス,0
1172,5120001235966,登記記録の閉鎖等,0,2023-08-21,2023-08-14,潮三海株式会社,,株式会社,大阪府,大阪市西区,本田３丁目２番２号－６０２,,27,106,5500022,,,2023-08-14,清算の結了等,,,2021-03-18,1,,,,,シオサンカイ,0
1178,5120002013256,登記記録の閉鎖等,0,2023-08-21,2023-08-10,有限会社大光会,,有限会社,大阪府,大阪市天王寺区,烏ケ辻１丁目３番２４号,00030538,27,109,5430042,,,2023-08-10,清算の結了等,,,2015-10-05,1,,,,,ダイコウカイ,0
1181,5120101040969,登記記録の閉鎖等,0,2023-08-21,2023-08-18,株式会社ＧＦＦ,,株式会社,大阪府,岸和田市,今木町９０番地の４,,27,202,5960804,,,2023-08-18,清算の結了等,,,2015-10-05,1,,,,,ジーエフエフ,0
1188,5130001049250,登記記録の閉鎖等,0,2023-08-21,2023-08-02,株式会社ジュンテック,,株式会社,京都府,京都市山科区,音羽沢町３４番地１,,26,110,6078077,,,2023-08-02,清算の結了等,,,2015-10-05,1,,,,,ジュンテック,0
1197,5140002049133,登記記録の閉鎖等,0,2023-08-21,2023-08-09,有限会社壽賀商店,,有限会社,兵庫県,姫路市,延末２９５番地,,28,201,6700966,,,2023-08-09,清算の結了等,,,2015-10-05,1,,,,,スガショウテン,0
1214,5180001149624,登記記録の閉鎖等,0,2023-08-21,2023-08-18,名城建設株式会社,,株式会社,愛知県,名古屋市中区,金山１丁目１１番１０号,,23,106,4600022,,,2023-08-18,清算の結了等,,,2022-01-19,1,,,,,メイジョウケンセツ,0
1218,5180002067726,登記記録の閉鎖等,0,2023-08-21,2023-08-17,有限会社ワークスデンタルラボラトリー,,有限会社,愛知県,春日井市,関田町２丁目５７番,,23,206,4860855,,,2023-08-17,清算の結了等,,,2015-10-05,1,,,,,ワークスデンタルラボラトリー,0
1229,5200002017653,登記記録の閉鎖等,0,2023-08-21,2023-08-18,有限会社タッチテクニカルサービス,,有限会社,岐阜県,加茂郡川辺町,上川辺７２８番地の１,,21,503,5090302,,,2023-08-18,清算の結了等,,,2015-10-05,1,,,,,,0
1242,5260002010132,登記記録の閉鎖等,0,2023-08-21,2023-08-18,有限会社森脇工業所,,有限会社,岡山県,岡山市北区,伊福町４丁目７番１号,,33,101,7000013,,,2023-08-18,清算の結了等,,,2015-10-05,1,,,,,モリワキコウギョウショ,0
1252,5290002053673,登記記録の閉鎖等,0,2023-08-21,2023-08-02,有限会社富永塗装,,有限会社,福岡県,大川市,大字津１２番地の１,,40,212,8310035,,,2023-08-02,清算の結了等,,,2015-10-05,1,,,,,トミナガトソウ,0
1274,5430001023233,登記記録の閉鎖等,0,2023-08-21,2023-07-27,株式会社丸賛高橋工務店,,株式会社,北海道,札幌市西区,八軒三条東３丁目４番１３号,,01,107,0630863,,,2023-07-27,清算の結了等,,,2015-10-05,1,,,,,マルサンタカハシコウムテン,0
1287,5500002021518,登記記録の閉鎖等,0,2023-08-21,2023-08-17,有限会社石川測量,,有限会社,愛媛県,四国中央市,金生町下分１２８５番地,,38,213,7990111,,,2023-08-17,清算の結了等,,,2015-10-05,1,,,,,イシカワソクリョウ,0
1308,6010003037719,登記記録の閉鎖等,0,2023-08-21,2023-08-10,合同会社ＩｎＤｉｖｅ,,合同会社,東京都,中央区,銀座１丁目１２－４Ｎ＆Ｅ・ＢＬＤ．７階,,13,102,1040061,,,2023-08-10,清算の結了等,,,2022-05-25,1,,,,,インダイブ,0
1312,6010401107172,登記記録の閉鎖等,0,2023-08-21,2023-07-27,株式会社リバー・フローズ,,株式会社,東京都,港区,北青山２丁目１０６番６青山北町パーク・マンション４０１号,,13,103,1070061,,,2023-07-27,清算の結了等,,,2015-10-05,1,,,,,リバーフローズ,0
1314,6010401154982,登記記録の閉鎖等,0,2023-08-21,2023-07-26,Ａｕｇ３２株式会社,,株式会社,東京都,港区,北青山３丁目６番７号青山パラシオタワー１１階,,13,103,1070061,,,2023-07-26,清算の結了等,,,2020-09-04,1,,,,,オーガ,0
1315,6010401155857,登記記録の閉鎖等,0,2023-08-21,2023-07-25,株式会社ＡＰＳＦ－Ｃ１,,株式会社,東京都,港区,虎ノ門４丁目１番２８号虎ノ門タワーズオフィス１７階,,13,103,1050001,,,2023-07-25,清算の結了等,,,2020-10-14,1,,,,,エイピーエスエフシーワン,0
1326,6010403022411,登記記録の閉鎖等,0,2023-08-21,2023-07-27,合同会社みらいラボ,,合同会社,東京都,港区,北青山２丁目７番２０号猪瀬ビル２階,,13,103,1070061,,,2023-07-27,清算の結了等,,,2020-02-26,1,,,,,ミライラボ,0
1333,6010601001175,登記記録の閉鎖等,0,2023-08-21,2023-08-16,内田ポンプ製造株式会社,,株式会社,東京都,江東区,白河４丁目７番４号,,13,108,1350021,,,2023-08-16,清算の結了等,,,2015-10-05,1,,,,,ウチダポンプセイゾウ,0
1339,6010701021305,登記記録の閉鎖等,0,2023-08-21,2023-08-18,ＶＡＮ情報システム株式会社,,株式会社,東京都,品川区,南大井３丁目３１－１９エイコウ大森ビル７Ｆ,,13,109,1400013,,,2023-08-18,清算の結了等,,,2015-10-05,1,,,,,ベンジョウホウシステム,0
1343,6010901046812,登記記録の閉鎖等,0,2023-08-21,2023-08-17,株式会社コピンコミュニケーションズジャパン,,株式会社,東京都,世田谷区,駒沢２丁目１番３号,,13,112,1540012,,,2023-08-17,合併による解散等,1011001144949,令和５年８月１日東京都渋谷区渋谷２－２４－１２渋谷スクランブルスクエア３７Ｆ株式会社Ｃｏｎｔｅｎｔｓ　Ｌａｂ．Ｂｌｕｅ　ＴＯＫＹＯ（1011001144949）に合併し解散,2020-08-13,1,,,,,コピンコミュニケーションズジャパン,0
1372,6013303006211,登記記録の閉鎖等,0,2023-08-21,2023-08-09,ＴＲＩＣＫＳＴＥＲ合同会社,,合同会社,東京都,豊島区,池袋３丁目３７－６,,13,116,1710014,,,2023-08-09,清算の結了等,,,2022-06-27,1,,,,,トリックスター,0
1382,6020002004842,登記記録の閉鎖等,0,2023-08-21,2023-08-07,ハヤシ工務有限会社,,有限会社,神奈川県,横浜市緑区,長津田２丁目３５番６号,,14,113,2260027,,,2023-08-07,清算の結了等,,,2015-10-05,1,,,,,ハヤシコウム,0
1386,6021001075156,登記記録の閉鎖等,0,2023-08-21,2023-08-16,株式会社箱根アースホテル,,株式会社,神奈川県,足柄下郡箱根町,木賀９７１番地,,14,382,2500402,,,2023-08-16,清算の結了等,,,2022-02-09,1,,,,,ハコネアースホテル,0
1391,6021002041652,登記記録の閉鎖等,0,2023-08-21,2023-08-16,有限会社中華料理林林,,有限会社,神奈川県,大和市,鶴間２丁目１２番１０号,,14,213,2420004,,,2023-08-16,清算の結了等,,,2015-10-05,1,,,,,,0
1394,6030001083077,登記記録の閉鎖等,0,2023-08-21,2023-08-09,株式会社オラクル・ギフト・ジャパン,,株式会社,東京都,渋谷区,千駄ヶ谷２丁目２８番４号,,13,113,1510051,,,2023-08-09,清算の結了等,,,2015-10-05,1,,,,,オラクルギフトジャパン,0
1421,6120001181490,登記記録の閉鎖等,0,2023-08-21,2023-08-16,株式会社Ｄ－Ｆｌａｐｓ,,株式会社,大阪府,大阪市中央区,淡路町３丁目５番１３号創建御堂筋ビル７階,,27,128,5410047,,,2023-08-16,合併による解散等,8010001219424,令和５年８月１日東京都中央区日本橋茅場町三丁目２番２号ＥＫＫビル株式会社住まいるプラス１ホールディングス（8010001219424）に合併し解散,2015-10-05,1,,,,,ディーフラップス,0
1432,6120901013850,登記記録の閉鎖等,0,2023-08-21,2023-08-10,株式会社大久工務店,,株式会社,大阪府,高槻市,大字原１２０３－５,,27,207,5691051,,,2023-08-10,清算の結了等,,,2015-10-05,1,,,,,ダイキュウコウムテン,0
1444,6140002050817,登記記録の閉鎖等,0,2023-08-21,2023-08-09,有限会社ボディーショップ飾磨,,有限会社,兵庫県,姫路市,飾磨区構１丁目８５番地,,28,201,6728071,,,2023-08-09,清算の結了等,,,2015-10-05,1,,,,,,0
1457,6180005011721,登記記録の閉鎖等,0,2023-08-21,2023-08-03,特定非営利活動法人エヌピーオー知多ネット,,その他の設立登記法人,愛知県,知多郡武豊町,字西門２９番地の１,,23,447,4702345,,,2023-08-03,清算の結了等,,,2015-10-05,1,,,,,エヌピーオーチタネット,0
1470,6220001019945,登記記録の閉鎖等,0,2023-08-21,2023-08-17,日本メディカルメンテナンスサービス株式会社,,株式会社,石川県,金沢市,問屋町２丁目５番地,,17,201,9200061,,,2023-08-17,清算の結了等,,,2015-10-05,1,,,,,ニホンメディカルメンテナンスサービス,0
1484,6290801010196,登記記録の閉鎖等,0,2023-08-21,2023-08-18,株式会社大松,,株式会社,福岡県,北九州市八幡西区,大字畑５７６番地の３,,40,109,8071124,,,2023-08-18,清算の結了等,,,2015-10-05,1,,,,,ダイマツ,0
1487,6320005004272,登記記録の閉鎖等,0,2023-08-21,2023-08-14,農事組合法人みらいの里本谷,,その他の設立登記法人,大分県,豊後高田市,田染相原１９８９番地１,,44,209,8790843,,,2023-08-14,清算の結了等,,,2015-10-05,1,,,,,ミライノサトホンタニ,0
1492,6340005003504,登記記録の閉鎖等,0,2023-08-21,2023-07-13,若宮神社,,その他の設立登記法人,鹿児島県,薩摩川内市,樋脇町塔之原４５２５番地,00100164,46,215,8951202,,,2023-07-13,合併による解散等,1340005003483,令和５年７月１３日鹿児島県薩摩川内市樋脇町塔之原５１２１番地一の宮神社（1340005003483）に合併し解散,2015-10-05,1,,,,,ワカミヤジンジャ,0
1495,6370001003760,登記記録の閉鎖等,0,2023-08-21,2023-08-10,株式会社西村商会,,株式会社,宮城県,仙台市若林区,伊在１丁目６番地の６,,04,103,9840038,,,2023-08-10,清算の結了等,,,2015-10-05,1,,,,,ニシムラショウカイ,0
1497,6370001023800,登記記録の閉鎖等,0,2023-08-21,2023-08-10,新伊勢屋株式会社,,株式会社,宮城県,仙台市若林区,六丁の目中町２８番３２号,,04,103,9840012,,,2023-08-10,清算の結了等,,,2015-10-05,1,,,,,シンイセヤ,0
1506,6400001000985,登記記録の閉鎖等,0,2023-08-21,2023-08-10,谷崎木材株式会社,,株式会社,岩手県,盛岡市,津志田中央３丁目２２番４１号,,03,201,0200838,,,2023-08-10,清算の結了等,,,2015-10-05,1,,,,,タニザキモクザイ,0
1510,6430001015741,登記記録の閉鎖等,0,2023-08-21,2023-07-26,株式会社北光社,,株式会社,北海道,札幌市北区,屯田三条４丁目１２番３号,,01,102,0020853,,,2023-07-26,清算の結了等,,,2015-10-05,1,,,,,ホッコウシャ,0
1518,6430002014271,登記記録の閉鎖等,0,2023-08-21,2023-07-25,有限会社ナイス・ワーク,,有限会社,北海道,札幌市東区,北十八条東９丁目３番１号,,01,103,0650018,,,2023-07-25,清算の結了等,,,2015-10-05,1,,,,,ナイスワーク,0
1520,6460301004251,登記記録の閉鎖等,0,2023-08-21,2023-07-26,株式会社黄金砕石,,株式会社,北海道,伊達市,北黄金町１１０番地５７,,01,233,0590272,,,2023-07-26,清算の結了等,,,2015-10-05,1,,,,,コガネサイセキ,0
1544,7010001196185,登記記録の閉鎖等,0,2023-08-21,2023-08-16,株式会社Ｓａｂｕｒａｉ,,株式会社,東京都,江東区,亀戸５丁目６番２１号ＵＩＷ９ＢＬＤＧ４階,,13,108,1360071,,,2023-08-16,清算の結了等,,,2018-11-08,1,,,,,サブライ,0
1553,7010002023306,登記記録の閉鎖等,0,2023-08-21,2023-08-17,有限会社カズアソシエイツ,,有限会社,東京都,中央区,入船３丁目９番１号,,13,102,1040042,,,2023-08-17,合併による解散等,6010002035302,令和５年８月１日東京都品川区東五反田三丁目２０番１０－６０５号株式会社ソフィアアソシエイツ（6010002035302）に合併し解散,2015-10-05,1,,,,,カズアソシエイツ,0
1572,7010403007015,登記記録の閉鎖等,0,2023-08-21,2023-07-26,合同会社ドラガン,,合同会社,東京都,港区,高輪３丁目１６番８－１０６号,,13,103,1080074,,,2023-07-26,清算の結了等,,,2015-10-05,1,,,,,,0
1573,7010403010514,登記記録の閉鎖等,0,2023-08-21,2023-07-24,合同会社ＩＢＩ,,合同会社,東京都,港区,南青山２丁目２番１５号,,13,103,1070062,,,2023-07-24,清算の結了等,,,2015-10-05,1,,,,,アイビーアイ,0
1576,7010502005539,登記記録の閉鎖等,0,2023-08-21,2023-08-18,有限会社下田商店,,有限会社,東京都,台東区,入谷１丁目３番４号,,13,106,1100013,,,2023-08-18,清算の結了等,,,2015-10-05,1,,,,,シモダショウテン,0
1588,7011101085526,登記記録の閉鎖等,0,2023-08-21,2023-08-14,株式会社ＡＭＳＲＹ,,株式会社,沖縄県,那覇市,銘苅３丁目２０番３２－２０３号,,47,201,9000004,,,2023-08-14,清算の結了等,,,2018-09-28,1,,,,,アムスリー,0
1612,7013301035509,登記記録の閉鎖等,0,2023-08-21,2023-07-27,聯邦商業株式会社,,株式会社,東京都,豊島区,駒込３丁目１番３号Ａ－２０８,,13,116,1700003,,,2023-07-27,清算の結了等,,,2015-10-05,1,,,,,レイホウショウギョウ,0
1613,7013301036580,登記記録の閉鎖等,0,2023-08-21,2023-08-18,株式会社Ｇｒｏｏｖｅ,,株式会社,東京都,品川区,西五反田４丁目９番１４号,,13,109,1410031,,,2023-08-18,清算の結了等,,,2015-10-05,1,,,,,グルーブ,0
1616,7020001086212,登記記録の閉鎖等,0,2023-08-21,2023-08-07,株式会社サンクス,,株式会社,神奈川県,川崎市多摩区,堰３丁目１３番９－２０３号,,14,135,2140022,,,2023-08-07,清算の結了等,,,2015-10-05,1,,,,,サンクス,0
1622,7020002072153,登記記録の閉鎖等,0,2023-08-21,2023-08-04,有限会社スイングブロス,,有限会社,神奈川県,横浜市都筑区,中川１丁目２Ｅ－４０３,,14,118,2240001,,,2023-08-04,清算の結了等,,,2015-10-05,1,,,,,スイングブロス,0
1631,7021003003659,登記記録の閉鎖等,0,2023-08-21,2023-08-17,合同会社ケアプランひざしの,,合同会社,神奈川県,茅ヶ崎市,円蔵２５００番地３ＨＯＵＳＥ陽ざし野ＩＩ１０３号室,00014109,14,207,2530084,,,2023-08-17,清算の結了等,,,2015-10-05,1,,,,,,0
1641,7040001039309,登記記録の閉鎖等,0,2023-08-21,2023-07-28,株式会社入江商店,,株式会社,千葉県,松戸市,岩瀬１番地,,12,207,2710076,,,2023-07-28,清算の結了等,,,2015-10-05,1,,,,,,0
1642,7040001070890,登記記録の閉鎖等,0,2023-08-21,2023-07-28,株式会社太進,,株式会社,千葉県,柏市,新柏１丁目１２番地の１,,12,217,2770084,,,2023-07-28,清算の結了等,,,2015-10-05,1,,,,,タイシン,0
1649,7060001004640,登記記録の閉鎖等,0,2023-08-21,2023-08-07,株式会社横山地所,,株式会社,栃木県,宇都宮市,吉野１丁目８番９号,,09,201,3200838,,,2023-08-07,清算の結了等,,,2015-10-05,1,,,,,ヨコヤマジショ,0
1653,7070001006974,登記記録の閉鎖等,0,2023-08-21,2023-08-18,株式会社三晃,,株式会社,群馬県,高崎市,上里見町８５７番地の１,,10,202,3703345,,,2023-08-18,清算の結了等,,,2015-10-05,1,,,,,サンコウ,0
1661,7100002034814,登記記録の閉鎖等,0,2023-08-21,2023-08-15,有限会社城取呉服店,,有限会社,長野県,上伊那郡箕輪町,大字中箕輪１２４５５番地,,20,383,3994601,,,2023-08-15,清算の結了等,,,2015-10-05,1,,,,,シロトリゴフクテン,0
1665,7120001041405,登記記録の閉鎖等,0,2023-08-21,2023-08-16,今井製油株式会社,,株式会社,大阪府,大阪市中央区,南久宝寺町１丁目７番５号,,27,128,5410058,,,2023-08-16,清算の結了等,,,2015-10-05,1,,,,,イマイセイユ,0
1666,7120001147549,登記記録の閉鎖等,0,2023-08-21,2023-08-17,株式会社オキハウジング,,株式会社,大阪府,寝屋川市,木田元宮２丁目７番１号,,27,215,5720822,,,2023-08-17,清算の結了等,,,2015-10-05,1,,,,,オキハウジング,0
1685,7120901028583,登記記録の閉鎖等,0,2023-08-21,2023-08-15,株式会社坂本機電工業,,株式会社,大阪府,豊中市,三和町３丁目８番２１号,,27,203,5610828,,,2023-08-15,清算の結了等,,,2015-10-05,1,,,,,サカモトキデンコウギョウ,0
1703,7180002037000,登記記録の閉鎖等,0,2023-08-21,2023-08-16,有限会社ミツナガエンジニアリング,,有限会社,愛知県,名古屋市名東区,平和が丘１丁目１３５番地,,23,115,4650097,,,2023-08-16,清算の結了等,,,2015-10-05,1,,,,,ミツナガエンジニアリング,0
1719,7260001018876,登記記録の閉鎖等,0,2023-08-21,2023-08-17,三陽木材株式会社,,株式会社,岡山県,高梁市,松山１１８番地,,33,209,7160051,,,2023-08-17,清算の結了等,,,2015-10-05,1,,,,,サンヨウモクザイ,0
1720,7260001035475,登記記録の閉鎖等,0,2023-08-21,2023-08-08,ヴィーブル株式会社,,株式会社,岡山県,岡山市北区,柳町１丁目１４番７号やよいビル３Ｆ,,33,101,7000904,,,2023-08-08,清算の結了等,,,2021-04-27,1,,,,,ヴィーブル,0
1724,7290001017818,登記記録の閉鎖等,0,2023-08-21,2023-08-15,株式会社アースビルド,,株式会社,福岡県,福岡市博多区,吉塚６丁目１０番４６号グレイス吉塚１Ｆ,,40,132,8120041,,,2023-08-15,合併による解散等,8120901019111,令和５年８月１日大阪府吹田市江坂町一丁目２３番４３号株式会社ほっとエコライフ（8120901019111）に合併し解散,2015-10-05,1,,,,,アースビルド,0
1729,7290801009700,登記記録の閉鎖等,0,2023-08-21,2023-08-18,大谷産業運輸株式会社,,株式会社,福岡県,北九州市八幡西区,大字畑５７６番地の３,,40,109,8071124,,,2023-08-18,清算の結了等,,,2015-10-05,1,,,,,オオタニサンギョウウンユ,0
1742,7370001024104,登記記録の閉鎖等,0,2023-08-21,2023-08-16,株式会社Ｐａｒｔｙ　Ｃｏｍｐａｎｙ,,株式会社,宮城県,仙台市青葉区,国分町３丁目９番７号,,04,101,9800803,,,2023-08-16,清算の結了等,,,2015-10-05,1,,,,,パーティーカンパニー,0
1748,7400002001180,登記記録の閉鎖等,0,2023-08-21,2023-08-10,有限会社虹画堂,,有限会社,岩手県,盛岡市,本町通１丁目１６番４号,,03,201,0200015,,,2023-08-10,清算の結了等,,,2015-10-05,1,,,,,コウガドウ,0
1751,7420001011303,登記記録の閉鎖等,0,2023-08-21,2023-07-03,グリーン・ジ・アース株式会社,,株式会社,青森県,上北郡東北町,字塔ノ沢山１番地３１１,,02,408,0392654,,,2023-07-03,合併による解散等,1420001015094,令和５年７月１日青森県上北郡東北町字塔ノ沢山１番地３１１アグリＴＡＳＫＥＬ株式会社（1420001015094）に合併し解散,2015-10-05,1,,,,,グリーンジアース,0
1764,7500002007168,登記記録の閉鎖等,0,2023-08-21,2023-08-17,有限会社邑都計画研究所,,有限会社,愛媛県,伊予郡松前町,大字筒井５６１番地１４,,38,401,7913120,,,2023-08-17,清算の結了等,,,2015-10-05,1,,,,,ユウトケイカクケンキュウショ,0
1766,7700150005498,削除,,2023-08-21,,,,,,,,,,,,,,,,,,,,,,,,,
1776,8010001024337,登記記録の閉鎖等,0,2023-08-21,2023-08-10,東宝観光株式会社,,株式会社,東京都,千代田区,丸の内３丁目７番７号,,13,101,1000005,,,2023-08-10,清算の結了等,,,2015-10-05,1,,,,,トウホウカンコウ,0
1784,8010002047171,登記記録の閉鎖等,0,2023-08-21,2023-08-09,有限会社ファーストリバー,,有限会社,東京都,文京区,湯島２丁目２６番８号エリートイン東京４０２,,13,105,1130034,,,2023-08-09,清算の結了等,,,2015-10-05,1,,,,,ファーストリバー,0
1787,8010005026429,登記記録の閉鎖等,0,2023-08-21,2023-06-30,一般社団法人感動物語コンテスト普及協会,,その他の設立登記法人,東京都,国立市,中１丁目９番地の４,,13,215,1860004,,,2023-06-30,合併による解散等,7012805003211,令和５年６月３０日東京都国立市中一丁目９番地の４一般社団法人感動経営コンサルタント協会（9010005025594）と合併して東京都国立市中一丁目９番地の４一般社団法人人が輝く経営実践会（7012805003211）を設立し解散,2017-02-20,1,,,,,カンドウモノガタリコンテストフキュウキョウカイ,0
1788,8010005028912,登記記録の閉鎖等,0,2023-08-21,2023-07-25,一般社団法人Ｐｒｏｊｅｃｔ　Ｇａｍｏｎ,,その他の設立登記法人,東京都,港区,南青山２丁目２番１５号ウィン青山９４２,,13,103,1070062,,,2023-07-25,清算の結了等,,,2018-08-07,1,,,,,プロジェクトガモン,0
1804,8010405020527,登記記録の閉鎖等,0,2023-08-21,2023-07-25,一般社団法人小顔Ｃｕｏｌ協会,,その他の設立登記法人,東京都,港区,北青山３丁目１１番７号ＡＯビル,,13,103,1070061,,,2023-07-25,清算の結了等,,,2021-12-23,1,,,,,コガオキュオルキョウカイ,0
1820,8011002022115,登記記録の閉鎖等,0,2023-08-21,2023-08-17,有限会社淡研,,有限会社,東京都,渋谷区,代々木１丁目１３番２号,,13,113,1510053,,,2023-08-17,清算の結了等,,,2015-10-05,1,,,,,,0
1821,8011002034960,登記記録の閉鎖等,0,2023-08-21,2023-08-17,有限会社Ｍアンジョウ建築研究所,,有限会社,東京都,渋谷区,桜丘町２６番１号セルリアンタワー１５階,,13,113,1500031,,,2023-08-17,清算の結了等,,,2015-10-05,1,,,,,エムアンジョウケンチクケンキュウジョ,0
1836,8020001104609,登記記録の閉鎖等,0,2023-08-21,2023-08-07,株式会社富田企業財務研究所,,株式会社,神奈川県,川崎市高津区,末長１丁目３９番３１,,14,134,2130013,,,2023-08-07,清算の結了等,,,2015-10-05,1,,,,,トミタキギョウザイムケンキュウジョ,0
1838,8020001122214,登記記録の閉鎖等,0,2023-08-21,2023-08-08,株式会社Ｓｈｏｋａｒａ,,株式会社,神奈川県,横浜市中区,相生町３丁目６１泰生ビル２Ｆ,,14,104,2310012,,,2023-08-08,清算の結了等,,,2017-07-18,1,,,,,ショーカラ,0
1839,8020001123154,登記記録の閉鎖等,0,2023-08-21,2023-08-07,株式会社フクハラ窒素水素発電機,,株式会社,神奈川県,横浜市瀬谷区,阿久和西１丁目１５番地５,,14,114,2460025,,,2023-08-07,清算の結了等,,,2017-09-26,1,,,,,フクハラチッソスイソハツデンキ,0
1853,8021005008069,登記記録の閉鎖等,0,2023-08-21,2023-07-21,宗教法人天理教相鎌分教会,,その他の設立登記法人,神奈川県,逗子市,桜山５丁目９番２０号,,14,208,2490005,,,2023-07-21,合併による解散等,8021005008085,令和５年７月１８日神奈川県横須賀市三春町二丁目３６番地天理教相洋分教会（8021005008085）に合併し解散,2015-10-05,1,,,,,テンリキョウアイカマブンキョウカイ,0
1868,8040001105068,登記記録の閉鎖等,0,2023-08-21,2023-07-28,ＲＤＥファーマコンサルティング株式会社,,株式会社,千葉県,柏市,つくしが丘３丁目１２番８号,,12,217,2770072,,,2023-07-28,清算の結了等,,,2018-06-19,1,,,,,アールディイーファーマコンサルティング,0
1879,8060001018169,登記記録の閉鎖等,0,2023-08-21,2023-08-07,株式会社アシセン,,株式会社,栃木県,足利市,五十部町６７８番地１,,09,202,3260843,,,2023-08-07,清算の結了等,,,2015-10-05,1,,,,,アシセン,0
1887,8080002014941,登記記録の閉鎖等,0,2023-08-21,2023-08-17,有限会社ナナミ,,有限会社,静岡県,牧之原市,鬼女新田８２７番地,,22,226,4210525,,,2023-08-17,清算の結了等,,,2015-10-05,1,,,,,ナナミ,0
1926,8120903004623,登記記録の閉鎖等,0,2023-08-21,2023-08-10,合同会社リーフ調剤薬局,,合同会社,大阪府,吹田市,高野台３丁目２番９号,,27,205,5650861,,,2023-08-10,清算の結了等,,,2023-05-02,1,,,,,リーフチョウザイヤッキョク,0
1934,8130005004422,登記記録の閉鎖等,0,2023-08-21,2023-08-02,社会福祉法人花背栴檀会,,その他の設立登記法人,京都府,京都市左京区,花背別所町１２６９番地２,,26,103,6060000,,,2023-08-02,清算の結了等,,,2015-10-05,1,,,,,ハナセセンダンカイ,0
1950,8160002002392,登記記録の閉鎖等,0,2023-08-21,2023-08-10,有限会社アメニ・テクノ研究所,,有限会社,滋賀県,大津市,北大路３丁目２番６３号,,25,201,5200843,,,2023-08-10,清算の結了等,,,2015-10-05,1,,,,,アメニテクノケンキュウショ,0
1955,8180001106960,登記記録の閉鎖等,0,2023-08-21,2023-08-17,株式会社サポート葵,,株式会社,愛知県,大府市,北崎町大根２番４５,,23,223,4740001,,,2023-08-17,清算の結了等,,,2015-10-05,1,,,,,サポートアオイ,0
1962,8180002054878,登記記録の閉鎖等,0,2023-08-21,2023-08-17,有限会社ミズタニ建硝,,有限会社,愛知県,名古屋市東区,東桜１丁目１４番２号,,23,102,4610005,,,2023-08-17,清算の結了等,,,2015-10-05,1,,,,,ミズタニケンショウ,0
1966,8190001018503,登記記録の閉鎖等,0,2023-08-21,2023-08-16,株式会社アクアイグニスプロパティ,,株式会社,東京都,中央区,京橋１丁目１４番９号,,13,102,1040031,,,2023-08-16,合併による解散等,2190002023961,令和５年７月２９日三重県三重郡菰野町大字菰野４８１１番地２株式会社ｋａｔａｏｋａ（2190002023961）に合併し解散,2015-10-05,1,,,,,アクアイグニスプロパティ,0
1968,8230002012624,登記記録の閉鎖等,0,2023-08-21,2023-08-17,有限会社弥生,,有限会社,富山県,高岡市,米島７８２番地の４,,16,202,9330076,,,2023-08-17,清算の結了等,,,2015-10-05,1,,,,,ヤヨイ,0
1979,8290001096233,登記記録の閉鎖等,0,2023-08-21,2023-08-03,株式会社総合企画３２６,,株式会社,福岡県,福岡市中央区,荒戸２丁目３－３７朝日プラザ西公園１０５,,40,133,8100062,,,2023-08-03,清算の結了等,,,2022-01-26,1,,,,,ソウゴウキカク,0
1988,8290801009699,登記記録の閉鎖等,0,2023-08-21,2023-08-18,大谷石産株式会社,,株式会社,福岡県,北九州市八幡西区,大字畑５７６番地の３,,40,109,8071124,,,2023-08-18,清算の結了等,,,2015-10-05,1,,,,,オオタニセキサン,0
2012,8390001001216,登記記録の閉鎖等,0,2023-08-21,2023-08-17,株式会社月田不動産コンサルタント,,株式会社,山形県,山形市,松山３丁目１０番１１号,,06,201,9902412,,,2023-08-17,清算の結了等,,,2015-10-05,1,,,,,ツキタフドウサンコンサルタント,0
2029,8430002061741,登記記録の閉鎖等,0,2023-08-21,2023-07-26,有限会社原口商店,,有限会社,北海道,日高郡新ひだか町,三石本桐２０２番地,,01,610,0593231,,,2023-07-26,清算の結了等,,,2015-10-05,1,,,,,ハラグチショウテン,0
2041,8480002008085,登記記録の閉鎖等,0,2023-08-21,2023-08-18,富士防水工業有限会社,,有限会社,徳島県,勝浦郡勝浦町,大字沼江字西谷５２番地４,,36,301,7714301,,,2023-08-18,清算の結了等,,,2015-10-05,1,,,,,フジボウスイコウギョウ,0
2072,9010005025594,登記記録の閉鎖等,0,2023-08-21,2023-06-30,一般社団法人感動経営コンサルタント協会,,その他の設立登記法人,東京都,国立市,中１丁目９番地の４,,13,215,1860004,,,2023-06-30,合併による解散等,7012805003211,令和５年６月３０日東京都国立市中一丁目９番地の４一般社団法人感動物語コンテスト普及協会（8010005026429）と合併して東京都国立市中一丁目９番地の４一般社団法人人が輝く経営実践会（7012805003211）を設立し解散,2016-07-27,1,,,,,カンドウケイエイコンサルタントキョウカイ,0
2074,9010401030009,登記記録の閉鎖等,0,2023-08-21,2023-07-27,株式会社山田塗装店,,株式会社,東京都,港区,芝大門１丁目３番５号,,13,103,1050012,,,2023-07-27,清算の結了等,,,2015-10-05,1,,,,,ヤマダトソウテン,0
2108,9011002031809,登記記録の閉鎖等,0,2023-08-21,2023-08-17,有限会社オールドキッズカンパニーグループ,,有限会社,東京都,渋谷区,神宮前６丁目９番１１号,,13,113,1500001,,,2023-08-17,清算の結了等,,,2015-10-05,1,,,,,,0
2114,9011201006231,登記記録の閉鎖等,0,2023-08-21,2023-08-18,日本エーカップ・コーポレーション株式会社,,株式会社,東京都,中野区,中央１丁目２２番７号,,13,114,1640011,,,2023-08-18,清算の結了等,,,2015-10-05,1,,,,,ニホンエーカップコーポレーション,0
2119,9011502004603,登記記録の閉鎖等,0,2023-08-21,2023-08-15,有限会社野倉商店,,有限会社,東京都,北区,滝野川７丁目３３番９号,,13,117,1140023,,,2023-08-15,清算の結了等,,,2015-10-05,1,,,,,ノクラショウテン,0
2148,9020002062508,登記記録の閉鎖等,0,2023-08-21,2023-08-07,有限会社北斗,,有限会社,神奈川県,横浜市港南区,日野８丁目２０番１５－１００１号,,14,111,2340051,,,2023-08-07,清算の結了等,,,2015-10-05,1,,,,,ホクト,0
2171,9070002034196,登記記録の閉鎖等,0,2023-08-21,2023-08-17,有限会社モガ企画,,有限会社,群馬県,館林市,堀工町１６２４番地の６,,10,207,3740033,,,2023-08-17,清算の結了等,,,2015-10-05,1,,,,,モガキカク,0
2172,9080001003564,登記記録の閉鎖等,0,2023-08-21,2023-08-17,帝機工業株式会社,,株式会社,静岡県,静岡市駿河区,富士見台１丁目１６番４号,,22,102,4228026,,,2023-08-17,清算の結了等,,,2015-10-05,1,,,,,テイキコウギョウ,0
2182,9120001191355,登記記録の閉鎖等,0,2023-08-21,2023-08-16,株式会社ピクシス,,株式会社,東京都,世田谷区,新町２丁目７番１号,,13,112,1540014,,,2023-08-16,清算の結了等,,,2015-10-05,1,,,,,ピクシス,0
2189,9120003014431,登記記録の閉鎖等,0,2023-08-21,2023-08-10,合同会社トライア,,合同会社,大阪府,大阪市中央区,南船場４丁目１０番５号南船場ＳＯＨＯビル７０２,,27,128,5420081,,,2023-08-10,清算の結了等,,,2018-06-22,1,,,,,トライア,0
2210,9140001070730,登記記録の閉鎖等,0,2023-08-21,2023-08-10,株式会社ライフサポート,,株式会社,兵庫県,西宮市,上大市１丁目１１番１３号,,28,204,6638003,,,2023-08-10,清算の結了等,,,2015-10-05,1,,,,,ライフサポート,0
2223,9180001113477,登記記録の閉鎖等,0,2023-08-21,2023-08-18,秋田運輸倉庫株式会社,,株式会社,愛知県,名古屋市中村区,平池町４丁目６０番地の１２グローバルゲート１０Ｆ,,23,105,4530872,,,2023-08-18,清算の結了等,,,2015-10-05,1,,,,,アキタウンユソウコ,0
2224,9180001130811,登記記録の閉鎖等,0,2023-08-21,2023-08-17,株式会社ＮＧＰ東海,,株式会社,愛知県,名古屋市中区,丸の内３丁目２３番２８号,,23,106,4600002,,,2023-08-17,清算の結了等,,,2018-01-15,1,,,,,エヌジーピートウカイ,0
2225,9180001143144,登記記録の閉鎖等,0,2023-08-21,2023-08-16,株式会社宇野新聞店,,株式会社,愛知県,名古屋市千種区,仲田２丁目８番１７号,,23,101,4640074,,,2023-08-16,清算の結了等,,,2020-10-12,1,,,,,ウノシンブンテン,0
2228,9180003000418,登記記録の閉鎖等,0,2023-08-21,2023-08-17,合資会社ニュー仲田ビル,,合資会社,愛知県,名古屋市千種区,仲田２丁目１２番５号,,23,101,4640074,,,2023-08-17,清算の結了等,,,2015-10-05,1,,,,,ニューナカタビル,0
2240,9200001023640,登記記録の閉鎖等,0,2023-08-21,2023-08-18,恵那楽器株式会社,,株式会社,岐阜県,恵那市,中野方町２６１８番地,,21,210,5098231,,,2023-08-18,清算の結了等,,,2015-10-05,1,,,,,,0
2243,9220005008108,登記記録の閉鎖等,0,2023-08-21,2023-08-16,特定非営利活動法人あいす,,その他の設立登記法人,石川県,河北郡津幡町,字潟端４１５番地９,,17,361,9290346,,,2023-08-16,清算の結了等,,,2016-09-02,1,,,,,アイス,0
2267,9320005009822,登記記録の閉鎖等,0,2023-08-21,2023-08-17,一般社団法人グリーンエイド,,その他の設立登記法人,大分県,大分市,横尾東町２丁目１番２０号,,44,201,8700130,,,2023-08-17,清算の結了等,,,2020-10-08,1,,,,,グリーンエイド,0
2268,9330001016978,登記記録の閉鎖等,0,2023-08-21,2023-08-02,株式会社グリーン・ベアー,,株式会社,熊本県,宇城市,不知火町高良２１１６番地,,43,213,8690552,,,2023-08-02,清算の結了等,,,2015-10-05,1,,,,,グリーンベアー,0
2305,9480005003850,登記記録の閉鎖等,0,2023-08-21,2023-07-26,山神社,,その他の設立登記法人,徳島県,板野郡板野町,松谷字居内１番地,,36,404,7790112,,,2023-07-26,合併による解散等,2480005003816,令和５年７月２６日徳島県板野郡板野町那東字青木ノ元１２番地青木神社（2480005003816）に合併し解散,2015-10-05,1,,,,,,0
