sequenceNumber,corporateNumber,process,correct,updateDate,changeDate,name,nameImageId,kind,prefectureName,cityName,streetNumber,addressImageId,prefectureCode,cityCode,postCode,addressOutside,addressOutsideImageId,closeDate,closeCause,successorCorporateNumber,changeCause,assignmentDate,latest,enName,enPrefectureName,enCityName,enAddressOutside,furigana,hihyoji
15,1010401183160,新規,0,2024-06-18,2024-06-18,株式会社ＳＩＮＱＲＯ．,,株式会社,東京都,港区,北青山１丁目３番１号アールキューブ青山３階,,13,103,1070061,,,,,,,2024-06-18,1,,,,,シンクロ,0
16,1010401183193,新規,0,2024-06-18,2024-06-18,株式会社三国志,,株式会社,東京都,港区,浜松町２丁目２番１４号,,13,103,1050013,,,,,,,2024-06-18,1,,,,,,0
19,1010403032803,新規,0,2024-06-18,2024-06-18,Ｈａｈｍｍｙ　Ｂｒｏｔｈｅｒｓ合同会社,,合同会社,東京都,港区,南青山３丁目１番３６号青山丸竹ビル６Ｆ,,13,103,1070062,,,,,,,2024-06-18,1,,,,,ハミブラザーズ,0
25,1010701046133,新規,0,2024-06-18,2024-06-18,株式会社クニカ・ハンズ,,株式会社,東京都,品川区,西五反田３丁目４番１０号目黒ＭＡＲＣレジデンスタワー１９０２,,13,109,1410031,,,,,,,2024-06-18,1,,,,,クニカハンズ,0
26,1010701046141,新規,0,2024-06-18,2024-06-18,株式会社Ｍ＆Ａ仲介の窓口,,株式会社,東京都,品川区,上大崎２丁目１３番３０号,,13,109,1410021,,,,,,,2024-06-18,1,,,,,エムアンドエーチュウカイノマドグチ,0
27,1010703007224,新規,0,2024-06-18,2024-06-18,Ｋａｎｅｃｈｕ，Ｊａｐａｎ合同会社,,合同会社,東京都,品川区,西大井１丁目１番２号Ｊタワー西大井イーストタワー２階,,13,109,1400015,,,,,,,2024-06-18,1,,,,,カネチュウジャパン,0
30,1010801035119,新規,0,2024-06-18,2024-06-18,文苑教育株式会社,,株式会社,東京都,大田区,鵜の木１丁目５番２－４０５号,,13,111,1460091,,,,,,,2024-06-18,1,,,,,ブンエンキョウイク,0
42,1011003019380,新規,0,2024-06-18,2024-06-18,合同会社ＳＴＫ,,合同会社,東京都,渋谷区,道玄坂２丁目２１番１０号１階,,13,113,1500043,,,,,,,2024-06-18,1,,,,,エスティーケー,0
55,1011703003873,新規,0,2024-06-18,2024-06-18,合同会社エスティーディー,,合同会社,東京都,江戸川区,南葛西４丁目２１－７－２０５スワームマンション,,13,123,1340085,,,,,,,2024-06-18,1,,,,,,0
58,1011803006289,新規,0,2024-06-18,2024-06-18,Ｂｌｉｓｓｆｕｌ　Ｍｏｒｎｉｎｇ　ｔｏ　ｔｈｅ　ＷＯＲＬＤ合同会社,,合同会社,東京都,葛飾区,立石４丁目６番５号ピア立石３０２号,,13,122,1240012,,,,,,,2024-06-18,1,,,,,ブリスフルモーニングトゥーザワールド,0
64,1013301052699,新規,0,2024-06-18,2024-06-18,株式会社ＦＫ,,株式会社,東京都,豊島区,池袋２丁目４９番１４号,,13,116,1710014,,,,,,,2024-06-18,1,,,,,エフケイ,0
73,1020001157712,新規,0,2024-06-18,2024-06-18,株式会社ＩＲＳ,,株式会社,神奈川県,横浜市港北区,綱島西２丁目１９番１５－３号,,14,109,2230053,,,,,,,2024-06-18,1,,,,,アイアールエス,0
78,1020003026320,新規,0,2024-06-18,2024-06-18,ＴＡＭコンサルティング合同会社,,合同会社,神奈川県,川崎市宮前区,小台１丁目６‐２‐１０７,,14,136,2160007,,,,,,,2024-06-18,1,,,,,タムコンサルティング,0
88,1021003014629,新規,0,2024-06-18,2024-06-18,マニタビ合同会社,,合同会社,神奈川県,逗子市,久木２丁目６番地逗子ハイデンスＣ‐６,,14,208,2490001,,,,,,,2024-06-18,1,,,,,マニタビ,0
92,1030001160970,新規,0,2024-06-18,2024-06-18,株式会社光,,株式会社,埼玉県,加須市,下高柳２００番地１５,,11,210,3470033,,,,,,,2024-06-18,1,,,,,ヒカリ,0
93,1030001160987,新規,0,2024-06-18,2024-06-18,株式会社Ｎｅｘｔｅｃｈ,,株式会社,埼玉県,さいたま市岩槻区,大字長宮６２２－７,,11,110,3390011,,,,,,,2024-06-18,1,,,,,ネクステック,0
96,1030003024521,新規,0,2024-06-18,2024-06-18,中山合同会社,,合同会社,埼玉県,朝霞市,三原１丁目７－１０スカイピア朝霞台２０３室,,11,227,3510025,,,,,,,2024-06-18,1,,,,,,0
98,1040001134040,新規,0,2024-06-18,2024-06-18,ＭＭ市場コンサルティング株式会社,,株式会社,千葉県,東金市,堀之内５２７番地５－２０４,,12,213,2830027,,,,,,,2024-06-18,1,,,,,エムエムシジョウコンサルティング,0
99,1040001134107,新規,0,2024-06-18,2024-06-18,株式会社高品ケアホーム,,株式会社,千葉県,千葉市若葉区,高品町８９０番地２,,12,104,2640024,,,,,,,2024-06-18,1,,,,,タカシナケアホーム,0
102,1040003025196,新規,0,2024-06-18,2024-06-18,合同会社インフィニティ,,合同会社,千葉県,印西市,大森４３２０,,12,231,2701327,,,,,,,2024-06-18,1,,,,,インファニティ,0
105,1050003008464,新規,0,2024-06-18,2024-06-18,合同会社Ｋｃｈｏｉｃｅ,,合同会社,茨城県,鹿嶋市,大字谷原１３６５,,08,222,3140023,,,,,,,2024-06-18,1,,,,,ケーチョイス,0
111,1070001041853,新規,0,2024-06-18,2024-06-18,株式会社桐龍,,株式会社,群馬県,館林市,本町３丁目２番２６号,,10,207,3740024,,,,,,,2024-06-18,1,,,,,キリュウ,0
113,1080001026341,新規,0,2024-06-18,2024-06-18,株式会社ｒｅｃｅｉｖｅ,,株式会社,静岡県,藤枝市,田沼２丁目３番３号,,22,214,4260061,,,,,,,2024-06-18,1,,,,,レシーブ,0
114,1090001018775,新規,0,2024-06-18,2024-06-18,株式会社ＳＩＳ,,株式会社,山梨県,大月市,富浜町宮谷４６７番地,,19,206,4090501,,,,,,,2024-06-18,1,,,,,エスアイエス,0
115,1100001037575,新規,0,2024-06-18,2024-06-18,ペイントップ株式会社,,株式会社,長野県,松本市,浅間温泉１丁目３番３号,,20,202,3900303,,,,,,,2024-06-18,1,,,,,ペイントップ,0
121,1120001265810,新規,0,2024-06-18,2024-06-18,ＡＮＡＭＩホールディングス株式会社,,株式会社,大阪府,大阪市北区,天満３丁目８番１０号,,27,127,5300043,,,,,,,2024-06-18,1,,,,,アナミホールディングス,0
122,1120001265934,新規,0,2024-06-18,2024-06-18,尚田貿易株式会社,,株式会社,大阪府,大阪市住之江区,御崎１丁目１１番１９－１０５,,27,125,5590013,,,,,,,2024-06-18,1,,,,,ナオダボウエキ,0
123,1120001265991,新規,0,2024-06-18,2024-06-18,株式会社ＡＬＰ,,株式会社,大阪府,大阪市北区,長柄中３丁目１２番２０号メゾンイングス３０２号室,,27,127,5310062,,,,,,,2024-06-18,1,,,,,エーエルピー,0
124,1120001266024,新規,0,2024-06-18,2024-06-18,株式会社ＨＡＧＵＲＵＭＡ,,株式会社,大阪府,大阪市西区,新町１丁目２５番１８号５０４,,27,106,5500013,,,,,,,2024-06-18,1,,,,,ハグルマ,0
125,1120003026814,新規,0,2024-06-18,2024-06-18,合同会社Ｃｏｎｎｅｃｔ,,合同会社,大阪府,門真市,末広町３８番地３１号モナリサ７０１,,27,223,5710030,,,,,,,2024-06-18,1,,,,,コネクト,0
133,1120903005223,新規,0,2024-06-18,2024-06-18,千代香合同会社,,合同会社,大阪府,池田市,綾羽１丁目４番１０号,,27,204,5630051,,,,,,,2024-06-18,1,,,,,チヨカ,0
139,1130001077313,新規,0,2024-06-18,2024-06-18,株式会社ＧＯＬＤＲＯＧＥＲ,,株式会社,京都府,京都市中京区,錦小路通御幸町西入鍛冶屋町２１０番地,,26,104,6048052,,,,,,,2024-06-18,1,,,,,ゴールドロジャー,0
146,1140001134815,新規,0,2024-06-18,2024-06-18,ＳＨＩＮＫＯ　ＨＤ株式会社,,株式会社,兵庫県,神戸市中央区,磯辺通２丁目１番１号,,28,110,6510084,,,,,,,2024-06-18,1,,,,,シンコーホールディングス,0
147,1140003020708,新規,0,2024-06-18,2024-06-18,ＴＫＭ合同会社,,合同会社,兵庫県,加古川市,平岡町新在家１７４５番地の３６３,,28,210,6750101,,,,,,,2024-06-18,1,,,,,ティーケーエム,0
148,1140003020724,新規,0,2024-06-18,2024-06-18,合同会社ＫＡＧＯＮＭＡ,,合同会社,兵庫県,川辺郡猪名川町,松尾台２丁目１番地１２Ｅ５０３,,28,301,6660261,,,,,,,2024-06-18,1,,,,,カゴンマ,0
152,1150003003281,新規,0,2024-06-18,2024-06-18,ＴＯＭＯ合同会社,,合同会社,奈良県,北葛城郡王寺町,元町１丁目９番１３号,,29,425,6360013,,,,,,,2024-06-18,1,,,,,トモ,0
160,1180001162011,新規,0,2024-06-18,2024-06-18,株式会社佐幸工業,,株式会社,愛知県,知多郡阿久比町,大字卯坂字北上ノ山３８番地１,,23,441,4702212,,,,,,,2024-06-18,1,,,,,サコウコウギョウ,0
161,1180003026949,新規,0,2024-06-18,2024-06-18,合同会社金山駅弁彩亜,,合同会社,愛知県,名古屋市中区,金山１丁目１１番１０号金山ハイホーム３１１号,,23,106,4600022,,,,,,,2024-06-18,1,,,,,カナヤマエキベンサイア,0
163,1180301038745,新規,0,2024-06-18,2024-06-18,株式会社ＣＰＷ,,株式会社,愛知県,豊田市,保見ケ丘６丁目１番地,,23,211,4700353,,,,,,,2024-06-18,1,,,,,シーピーダブリュー,0
165,1180303006155,新規,0,2024-06-18,2024-06-18,合同会社エクステンド,,合同会社,愛知県,高浜市,神明町１丁目１１番地８セジュール中部公園３０２号室,,23,227,4441305,,,,,,,2024-06-18,1,,,,,エクステンド,0
171,1200001042607,新規,0,2024-06-18,2024-06-18,株式会社ワードプレス,,株式会社,岐阜県,岐阜市,田生越町１番地１ナビシティ新岐阜８０６,,21,201,5008173,,,,,,,2024-06-18,1,,,,,ワードプレス,0
172,1200001042615,新規,0,2024-06-18,2024-06-18,槌谷株式会社,00135220,株式会社,岐阜県,大垣市,俵町３９番地,,21,202,5030876,,,,,,,2024-06-18,1,,,,,ツチヤ,0
206,1400001016680,新規,0,2024-06-18,2024-06-18,株式会社エンカウンターファクトリー,,株式会社,岩手県,奥州市,胆沢小山字岩ケ馬場２８番地１０,,03,215,0230402,,,,,,,2024-06-18,1,,,,,エンカウンターファクトリー,0
234,2010401183168,新規,0,2024-06-18,2024-06-18,株式会社ＭＩＴＯ,,株式会社,東京都,港区,南青山２丁目２番１５号ウィン青山６３０,,13,103,1070062,,,,,,,2024-06-18,1,,,,,ミト,0
235,2010401183184,新規,0,2024-06-18,2024-06-18,株式会社ｓｈｉｐｐｐｏ,,株式会社,東京都,港区,西麻布３丁目２番４１号ルネサンス六本木プレミアムコートＶｉｖａｎｔ２０４,,13,103,1060031,,,,,,,2024-06-18,1,,,,,シッポ,0
243,2010403032810,新規,0,2024-06-18,2024-06-18,Ｐａｌｍ　Ｌｉｎｋ合同会社,,合同会社,東京都,港区,浜松町２丁目２番１５号浜松町ダイヤビル２Ｆ,,13,103,1050013,,,,,,,2024-06-18,1,,,,,パームリンク,0
244,2010403032827,新規,0,2024-06-18,2024-06-18,ＡＥＪ直方蓄電所合同会社,,合同会社,東京都,港区,芝５丁目２９番１９号ＰＭＯ田町ＩＶ８階,00135214,13,103,1080014,,,,,,,2024-06-18,1,,,,,エーイージェーノガタチクデンショ,0
245,2010403032843,新規,0,2024-06-18,2024-06-18,合同会社ＣＰＦフィルムファンド,,合同会社,東京都,港区,元赤坂１丁目１番８号赤坂コミュニティビル４階,,13,103,1070051,,,,,,,2024-06-18,1,,,,,シーピーエフフィルムファンド,0
249,2010601065397,新規,0,2024-06-18,2024-06-18,株式会社Ｂ‐ｃｒｅａｔｅ,,株式会社,東京都,江東区,大島１丁目５番９－７０８号,,13,108,1360072,,,,,,,2024-06-18,1,,,,,ビークリエイト,0
250,2010701045877,新規,0,2024-06-18,2024-06-18,株式会社ＥＮＳＡＫＵ,,株式会社,東京都,品川区,大井５丁目１９－１３,,13,109,1400014,,,,,,,2024-06-18,1,,,,,エンサク,0
263,2011201025551,新規,0,2024-06-18,2024-06-18,青源株式会社,,株式会社,東京都,中野区,江古田４丁目３０番１９―１０３号,,13,114,1650022,,,,,,,2024-06-18,1,,,,,アオゲン,0
278,2011701027394,新規,0,2024-06-18,2024-06-18,Ｔｒｉｏ　ｗｏｒｋｓ株式会社,,株式会社,東京都,江戸川区,江戸川６丁目４０番１４－２０９号,,13,123,1340013,,,,,,,2024-06-18,1,,,,,トリオワークス,0
282,2011801044389,新規,0,2024-06-18,2024-06-18,株式会社野口製作所,,株式会社,東京都,葛飾区,水元３丁目９番１９号,,13,122,1250032,,,,,,,2024-06-18,1,,,,,ノグチセイサクジョ,0
286,2012403006629,新規,0,2024-06-18,2024-06-18,合同会社ＯｎｅＳｔｅｐ,,合同会社,東京都,三鷹市,大沢２丁目１５番１０－２０１,,13,204,1810015,,,,,,,2024-06-18,1,,,,,ワンステップ,0
289,2013301052698,新規,0,2024-06-18,2024-06-18,株式会社ＳＲグループ,,株式会社,東京都,豊島区,巣鴨４丁目２２番４号,,13,116,1700002,,,,,,,2024-06-18,1,,,,,エスアールグループ,0
296,2021001082536,新規,0,2024-06-18,2024-06-18,株式会社コーラスライン,,株式会社,神奈川県,厚木市,旭町１丁目１番４号,,14,212,2430014,,,,,,,2024-06-18,1,,,,,コーラスライン,0
299,2021003014652,新規,0,2024-06-18,2024-06-18,レイトス合同会社,,合同会社,神奈川県,相模原市南区,豊町１５番９－１号,,14,153,2520305,,,,,,,2024-06-18,1,,,,,レイトス,0
303,2030001160978,新規,0,2024-06-18,2024-06-18,株式会社Ａｚ,,株式会社,埼玉県,坂戸市,山田町４番２６号,,11,239,3500224,,,,,,,2024-06-18,1,,,,,アズ,0
304,2030001160986,新規,0,2024-06-18,2024-06-18,ＵＪＴ株式会社,,株式会社,埼玉県,さいたま市緑区,大字大門１４８,,11,109,3360963,,,,,,,2024-06-18,1,,,,,ユージェーティー,0
315,2040003025229,新規,0,2024-06-18,2024-06-18,合同会社プチカナル,,合同会社,千葉県,船橋市,夏見５丁目１０番２８号,,12,204,2730865,,,,,,,2024-06-18,1,,,,,プチカナル,0
327,2090001018774,新規,0,2024-06-18,2024-06-18,産業保健マネジメント株式会社,,株式会社,山梨県,甲府市,丸の内２丁目２番１号ＣＲＯＳＳ５００－１Ｆ,,19,201,4000031,,,,,,,2024-06-18,1,,,,,サンギョウホケンマネジメント,0
329,2100001037566,新規,0,2024-06-18,2024-06-18,株式会社ＢＵＳＩＮＥＳＳ　ＣＯＮＳＵＬＴＩＮＧ　ＧＲＯＵＰ　ＪＡＰＡＮ　ＣＯＲＰＯＲＡＴＩＯＮ,,株式会社,長野県,佐久市,岩村田５００８番地４、Ｂ号室,,20,217,3850022,,,,,,,2024-06-18,1,,,,,ビジネスコンサルティンググループジャパン,0
345,2120001265909,新規,0,2024-06-18,2024-06-18,Ｇｒａｃｅ．Ｘ優雅旭株式会社,,株式会社,大阪府,大阪市住吉区,長居３丁目６番２０号ファッション長居ハイツ２Ｄ,,27,120,5580003,,,,,,,2024-06-18,1,,,,,グレイスエックスユウガアサヒ,0
357,2120903005222,新規,0,2024-06-18,2024-06-18,合同会社ＡＨＪ,,合同会社,大阪府,高槻市,竹の内町３２－１５,,27,207,5690043,,,,,,,2024-06-18,1,,,,,エーエイチジェー,0
358,2120905006615,新規,0,2024-06-18,2024-06-18,一般社団法人ＨＥＡＲＴ‐ＬＡＢＯ．,,その他の設立登記法人,大阪府,吹田市,千里山西６丁目６２番Ｂ－１００７号,,27,205,5650851,,,,,,,2024-06-18,1,,,,,ハートラボ,0
373,2160001026010,新規,0,2024-06-18,2024-06-18,株式会社ｂｌｏｏｍ,,株式会社,滋賀県,草津市,草津２丁目４番４１－５号,,25,206,5250034,,,,,,,2024-06-18,1,,,,,ブルーム,0
376,2180001162019,新規,0,2024-06-18,2024-06-18,株式会社ジェイド,,株式会社,愛知県,名古屋市中川区,八田町１７１９番地,,23,110,4540877,,,,,,,2024-06-18,1,,,,,ジェイド,0
377,2180001162035,新規,0,2024-06-18,2024-06-18,株式会社Ｙｕ＆Ａｉ,,株式会社,愛知県,名古屋市中区,栄１丁目１２番１３号タワー・ザ・ファースト名古屋伏見２４０３号,,23,106,4600008,,,,,,,2024-06-18,1,,,,,ユーアンドアイ,0
378,2180001162043,新規,0,2024-06-18,2024-06-18,株式会社テラス,,株式会社,愛知県,名古屋市西区,新道１丁目１４番９号アーバンウェーブ新道３０１,,23,104,4510043,,,,,,,2024-06-18,1,,,,,テラス,0
381,2180003026964,新規,0,2024-06-18,2024-06-18,Ｒ５０デザイン合同会社,,合同会社,愛知県,瀬戸市,内田町１丁目５０２番地,,23,204,4890902,,,,,,,2024-06-18,1,,,,,アールゴジュウデザイン,0
383,2180301038744,新規,0,2024-06-18,2024-06-18,株式会社高雄,,株式会社,愛知県,刈谷市,一里山町南本山１３９番地１,,23,210,4480002,,,,,,,2024-06-18,1,,,,,タカオ,0
384,2180301038752,新規,0,2024-06-18,2024-06-18,株式会社Ｅｒａ,,株式会社,愛知県,豊橋市,飯村北２丁目２２番地６パークサイド・ウィル（２０２）,,23,201,4400834,,,,,,,2024-06-18,1,,,,,イーラ,0
385,2180303006154,新規,0,2024-06-18,2024-06-18,光工業合同会社,,合同会社,愛知県,西尾市,道光寺町寺内下８番地１,,23,213,4450811,,,,,,,2024-06-18,1,,,,,ヒカリコウギョウ,0
387,2190001031420,新規,0,2024-06-18,2024-06-18,株式会社ベトンテック‐レンタル,,株式会社,三重県,員弁郡東員町,大字中上２９１６番地２,,24,324,5110254,,,,,,,2024-06-18,1,,,,,ベトンテックレンタル,0
390,2200001042614,新規,0,2024-06-18,2024-06-18,株式会社Ｄａｎｎｙ’ｓ,,株式会社,岐阜県,各務原市,那加桐野町２丁目６４番地,,21,213,5040008,,,,,,,2024-06-18,1,,,,,ダニーズ,0
391,2200003006393,新規,0,2024-06-18,2024-06-18,不動産鑑定藤田事務所合同会社,,合同会社,岐阜県,岐阜市,五反田町１０オフィスＫＯ－ＫＥＮ２０３,,21,201,5008328,,,,,,,2024-06-18,1,,,,,フドウサンカンテイフジタジムショ,0
397,2240001063383,新規,0,2024-06-18,2024-06-18,株式会社アールネット,,株式会社,広島県,広島市佐伯区,楽々園６丁目６番２号,,34,108,7315136,,,,,,,2024-06-18,1,,,,,アールネット,0
408,2290003015444,新規,0,2024-06-18,2024-06-18,合同会社あなただけの御用聞き,,合同会社,福岡県,古賀市,天神６丁目２３番１号,,40,223,8113101,,,,,,,2024-06-18,1,,,,,アナタダケノゴヨウキキ,0
409,2290003015460,新規,0,2024-06-18,2024-06-18,合同会社フラワーエクセレント,,合同会社,福岡県,飯塚市,楽市４６１番地２,,40,205,8200074,,,,,,,2024-06-18,1,,,,,フラワーエクセレント,0
413,2310003004808,新規,0,2024-06-18,2024-06-18,合同会社康陽,,合同会社,長崎県,長崎市,中小島２丁目４番２号,,42,201,8500836,,,,,,,2024-06-18,1,,,,,コウヨウ,0
426,2370001051433,新規,0,2024-06-18,2024-06-18,株式会社ＴＯ‐Ｍ,,株式会社,宮城県,岩沼市,玉浦西１丁目４番地の１,,04,211,9892428,,,,,,,2024-06-18,1,,,,,トーエム,0
430,2390001017655,新規,0,2024-06-18,2024-06-18,株式会社井上会計事務所,,株式会社,山形県,山形市,城西町４丁目１３番９号,,06,201,9900832,,,,,,,2024-06-18,1,,,,,イノウエカイケイジムショ,0
436,2430005015007,新規,0,2024-06-18,2024-06-18,特定非営利活動法人絵本屋だっこ,,その他の設立登記法人,北海道,札幌市西区,発寒十一条３丁目１番６９号,,01,107,0630831,,,,,,,2024-06-18,1,,,,,エホンヤダッコ,0
440,2470003002663,新規,0,2024-06-18,2024-06-18,合同会社ムジカーサ,,合同会社,香川県,高松市,多肥上町７４番地１,,37,201,7618076,,,,,,,2024-06-18,1,,,,,ムジカーサ,0
449,2490001010798,新規,0,2024-06-18,2024-06-18,株式会社センス,,株式会社,高知県,高知市,新屋敷２丁目２３番５号,,39,201,7800911,,,,,,,2024-06-18,1,,,,,,0
454,2700150125680,新規,0,2024-06-18,2024-05-30,河津桜まつり実行委員会,,その他,静岡県,賀茂郡河津町,笹原７２－１２,,22,302,4130512,,,,,,,2024-05-30,1,,,,,カワヅサクラマツリジツコウイインカイ,0
455,2700150126019,新規,0,2024-06-18,2024-06-18,國泰世紀産物保險股斌有限公司　東京代表處,00135216,外国会社等,東京都,新宿区,新宿１丁目１番７号コスモ新宿御苑ビル７Ｆ,,13,104,1600022,台湾台北市大安區仁愛路四段２９６號１樓,,,,,,2024-06-18,1,,,,,コクタイセイキサンブツホケンコブンユウゲンコウシトウキヨウダイヒヨウドコロ,0
459,3010001245730,新規,0,2024-06-18,2024-06-18,株式会社空間コンピューティング研究所,,株式会社,東京都,中央区,日本橋兜町１７番２号兜町第６葉山ビル４Ｆ,,13,102,1030026,,,,,,,2024-06-18,1,,,,,クウカンコンピューティングケンキュウジョ,0
466,3010401182607,新規,0,2024-06-18,2024-06-18,株式会社サニックス資源開発グループ,,株式会社,東京都,港区,虎ノ門１丁目２番８号,,13,103,1050001,,,,,,,2024-06-18,1,,,,,サニックスシゲンカイハツグループ,0
467,3010401183200,新規,0,2024-06-18,2024-06-18,株式会社ギルドキャリアパートナーズ,,株式会社,東京都,港区,高輪４丁目２３番６号ハイホーム高輪７０８,,13,103,1080074,,,,,,,2024-06-18,1,,,,,ギルドキャリアパートナーズ,0
468,3010401183209,新規,0,2024-06-18,2024-06-18,ＳＨＯＤＡＩ　ＶＥＮＴＵＲＥＳ株式会社,,株式会社,東京都,港区,白金６丁目１６番２５－５０４号,,13,103,1080072,,,,,,,2024-06-18,1,,,,,ショウダイベンチャーズ,0
471,3010403032826,新規,0,2024-06-18,2024-06-18,ＡＥＪ野津蓄電所合同会社,,合同会社,東京都,港区,芝５丁目２９番１９号ＰＭＯ田町ＩＶ８階,00135213,13,103,1080014,,,,,,,2024-06-18,1,,,,,エーイージェーノズチクデンショ,0
472,3010403032834,新規,0,2024-06-18,2024-06-18,合同会社ビークル,,合同会社,東京都,港区,白金６丁目１２番２５－２０４号,,13,103,1080072,,,,,,,2024-06-18,1,,,,,ビークル,0
475,3010701046148,新規,0,2024-06-18,2024-06-18,萬利株式会社,,株式会社,東京都,品川区,二葉２丁目１０番５号,,13,109,1420043,,,,,,,2024-06-18,1,,,,,マンリ,0
477,3010803004994,新規,0,2024-06-18,2024-06-18,十四月合同会社,,合同会社,東京都,大田区,大森北３丁目２９－１２,,13,111,1430016,,,,,,,2024-06-18,1,,,,,ジュウシガツ,0
478,3010901055485,新規,0,2024-06-18,2024-06-18,株式会社テクオス,,株式会社,東京都,世田谷区,太子堂１丁目１２番２５号,,13,112,1540004,,,,,,,2024-06-18,1,,,,,テクオス,0
479,3010903009167,新規,0,2024-06-18,2024-06-18,合同会社ｈｒ．,,合同会社,東京都,世田谷区,三軒茶屋１丁目３２番１７号ＦＡＣＥ三軒茶屋４Ｆ,,13,112,1540024,,,,,,,2024-06-18,1,,,,,アワー,0
486,3011003019379,新規,0,2024-06-18,2024-06-18,合同会社ＳＢＷ,,合同会社,東京都,目黒区,三田１丁目４番４－２６０３号,,13,110,1530062,,,,,,,2024-06-18,1,,,,,エスビーダブリュー,0
498,3011401026183,新規,0,2024-06-18,2024-06-18,Ｔｒｉ　Ｍａｋｅ株式会社,,株式会社,東京都,板橋区,成増３丁目３７番１号,,13,119,1750094,,,,,,,2024-06-18,1,,,,,トライメイク,0
499,3011401026200,新規,0,2024-06-18,2024-06-18,株式会社ＴＯＰＦＬＡＳＨ,,株式会社,東京都,板橋区,舟渡２丁目１６番３号ＦＴコーポ１０１,,13,119,1740041,,,,,,,2024-06-18,1,,,,,トップフラッシュ,0
500,3011401026209,新規,0,2024-06-18,2024-06-18,株式会社Ｍｏｖｉｎｇ　Ｃｒａｆｔ,,株式会社,東京都,板橋区,成増１丁目２６－５トレジャリィ成増７０２,,13,119,1750094,,,,,,,2024-06-18,1,,,,,ムービングクラフト,0
504,3011601027824,新規,0,2024-06-18,2024-06-18,株式会社ＡＯＥＡＰ,,株式会社,東京都,練馬区,桜台２丁目３１番９号,,13,120,1760002,,,,,,,2024-06-18,1,,,,,アオイープ,0
505,3011601027832,新規,0,2024-06-18,2024-06-18,株式会社Ｗ‐ＵＰ,,株式会社,東京都,練馬区,早宮１丁目１９番１８－１０５号,,13,120,1790085,,,,,,,2024-06-18,1,,,,,ダブルアップ,0
511,3011801044396,新規,0,2024-06-18,2024-06-18,株式会社藤工設備,,株式会社,東京都,足立区,神明３丁目４番１５号リバースター北綾瀬Ａ１０４,,13,121,1210051,,,,,,,2024-06-18,1,,,,,フジコウセツビ,0
513,3011805003373,新規,0,2024-06-18,2024-06-18,行政書士法人ＮＫＣ,,その他の設立登記法人,東京都,足立区,竹の塚５丁目１６番１２号,,13,121,1210813,,,,,,,2024-06-18,1,,,,,エヌケイシイ,0
524,3020001157669,新規,0,2024-06-18,2024-06-18,テーエムエンジニアリング株式会社,,株式会社,神奈川県,川崎市麻生区,南黒川４番２号ネスティングパーク黒川Ｒ－０６,,14,137,2150034,,,,,,,2024-06-18,1,,,,,テーエムエンジニアリング,0
525,3020001157735,新規,0,2024-06-18,2024-06-18,株式会社Ｙ’ｓ　ｓｔｙｌｅ,,株式会社,神奈川県,横浜市港北区,新吉田町５７０９番地９ドリームヒルズ２,,14,109,2230056,,,,,,,2024-06-18,1,,,,,ワイズスタイル,0
528,3021001082519,新規,0,2024-06-18,2024-06-18,株式会社隈元建設,,株式会社,神奈川県,綾瀬市,上土棚中２丁目２番２４号,,14,218,2521113,,,,,,,2024-06-18,1,,,,,クマモトケンセツ,0
529,3021001082527,新規,0,2024-06-18,2024-06-18,ハピ株式会社,,株式会社,神奈川県,鎌倉市,二階堂９２６番‐９号,,14,204,2480002,,,,,,,2024-06-18,1,,,,,ハピ,0
536,3030001160985,新規,0,2024-06-18,2024-06-18,株式会社大拓総建,,株式会社,埼玉県,ふじみ野市,北野１丁目３番２５－２０５号,,11,245,3560007,,,,,,,2024-06-18,1,,,,,ダイタクソウケン,0
544,3040001134121,新規,0,2024-06-18,2024-06-18,金子ファーム株式会社,,株式会社,千葉県,山武郡横芝光町,北清水６０９６番地１,,12,410,2891734,,,,,,,2024-06-18,1,,,,,カネコファーム,0
548,3040003025203,新規,0,2024-06-18,2024-06-18,合同会社Ｍｏｌａ,,合同会社,千葉県,松戸市,千駄堀１４９６番地の５,,12,207,2702252,,,,,,,2024-06-18,1,,,,,モーラ,0
551,3050001054946,新規,0,2024-06-18,2024-06-18,ＫＤＩホールディング株式会社,,株式会社,茨城県,ひたちなか市,大字堀口６８６番地の１４,,08,221,3120034,,,,,,,2024-06-18,1,,,,,ケーディーアイホールディング,0
552,3050001054954,新規,0,2024-06-18,2024-06-18,Ｎｅｗ　Ｂｒｉｄｇｅ株式会社,,株式会社,茨城県,猿島郡境町,２９３番地９,,08,546,3060433,,,,,,,2024-06-18,1,,,,,ニューブリッジ,0
556,3050003008454,新規,0,2024-06-18,2024-06-18,合同会社ＳＰＡＬＬ　ＴＲＡＤＩＮＧ,,合同会社,茨城県,結城市,大字結城１５４１ハイム安井Ｃ棟１０５号室,,08,207,3070001,,,,,,,2024-06-18,1,,,,,スポールトレーディング,0
560,3070003005466,新規,0,2024-06-18,2024-06-18,合同会社ｃａｒｚｏｎｅ,,合同会社,群馬県,太田市,藤久良町２７番地１４吉岡ハイツ１０２号,,10,205,3730035,,,,,,,2024-06-18,1,,,,,カーゾン,0
566,3080101024821,新規,0,2024-06-18,2024-06-18,フィリア株式会社,,株式会社,静岡県,沼津市,大手町４丁目４番１０号ＩＺＵビル２２,,22,203,4100801,,,,,,,2024-06-18,1,,,,,フィリア,0
589,3120001265908,新規,0,2024-06-18,2024-06-18,＿程株式会社,00135218,株式会社,大阪府,大阪市住吉区,長居３丁目６番２０号ファッション長居ハイツ５Ａ,,27,120,5580003,,,,,,,2024-06-18,1,,,,,ヨウテイ,0
590,3120001265981,新規,0,2024-06-18,2024-06-18,ＳｉＲＯＮ　ＪＰ株式会社,,株式会社,大阪府,大阪市東住吉区,北田辺２丁目２番５号,,27,121,5460044,,,,,,,2024-06-18,1,,,,,シロンジェーピー,0
600,3122001038203,新規,0,2024-06-18,2024-06-18,ＩＴＪソリューションズ株式会社,,株式会社,大阪府,八尾市,老原１丁目８９番地の９,,27,212,5810092,,,,,,,2024-06-18,1,,,,,アイティージェイソリューションズ,0
603,3130001077311,新規,0,2024-06-18,2024-06-18,京都唐英学社陶磁文化交流株式会社,,株式会社,京都府,京都市伏見区,深草平田町１８番地５３－２階,,26,109,6120019,,,,,,,2024-06-18,1,,,,,キョウトトウエイガクシャトウジブンカコウリュウ,0
605,3140001134821,新規,0,2024-06-18,2024-06-18,株式会社ＫＫアセット,,株式会社,兵庫県,神戸市兵庫区,中道通７丁目１－７,,28,105,6520801,,,,,,,2024-06-18,1,,,,,ケーケーアセット,0
607,3140002057567,新規,0,2024-06-18,2024-06-18,有限会社ピーマン,,有限会社,兵庫県,西宮市,今津山中町１番１８号,,28,204,6638211,,,,,,,2024-06-18,1,,,,,,0
613,3160003003213,新規,0,2024-06-18,2024-06-18,合同会社茶菓山川,,合同会社,滋賀県,大津市,長等２丁目１０番５号,,25,201,5200046,,,,,,,2024-06-18,1,,,,,サカヤマカワ,0
614,3160005011313,新規,0,2024-06-18,2024-06-18,滋賀県森林組合,,その他の設立登記法人,滋賀県,大津市,大萱４丁目１７番３０号,,25,201,5202144,,,,,,滋賀県大津市瀬田神領町番戸谷４０－１滋賀南部森林組合（4160005002303）と滋賀県甲賀市水口町鹿深３番３９号滋賀中央森林組合（9160005009855）と滋賀県東近江市山上町３５４４番地東近江市永源寺森林組合（9160005006480）と滋賀県犬上郡多賀町大字多賀２４６番地びわこ東部森林組合（5160005004991）と滋賀県米原市市場４３８番地滋賀北部森林組合（8160005004709）と滋賀県長浜市木之本町黒田１０１５番地長浜市伊香森林組合（8160005003454）の合併により設立,2024-06-18,1,,,,,シガケン,0
616,3170005007087,新規,0,2024-06-18,2024-06-18,一般社団法人ＨＡＰＰ‐Ｙ,,その他の設立登記法人,和歌山県,御坊市,熊野１０８９番地１,,30,205,6440033,,,,,,,2024-06-18,1,,,,,ハップワイ,0
619,3180001162018,新規,0,2024-06-18,2024-06-18,株式会社ＰＩＮＥ　ＨＩＬＬ,,株式会社,愛知県,一宮市,今伊勢町宮後字郷東２３番地ニッケガーデンコート花水木Ｄ棟１０１号,,23,203,4910057,,,,,,,2024-06-18,1,,,,,パインヒル,0
620,3180001162050,新規,0,2024-06-18,2024-06-18,株式会社プルス,,株式会社,愛知県,稲沢市,長束町観音寺田５８番地,,23,220,4928167,,,,,,,2024-06-18,1,,,,,プルス,0
621,3180001162059,新規,0,2024-06-18,2024-06-18,ＣＢＣＯＭ株式会社,,株式会社,愛知県,春日井市,八田町２丁目４番地２０,,23,206,4860849,,,,,,,2024-06-18,1,,,,,シービーコム,0
626,3180301038743,新規,0,2024-06-18,2024-06-18,株式会社ｓｏｌｔｅ,,株式会社,愛知県,豊川市,蔵子５丁目９番地５,,23,207,4420842,,,,,,,2024-06-18,1,,,,,ソルテ,0
627,3180301038751,新規,0,2024-06-18,2024-06-18,株式会社アルファ,,株式会社,愛知県,豊橋市,松葉町２丁目３２番地ＬａＬａ松葉ビル３階,,23,201,4400897,,,,,,,2024-06-18,1,,,,,アルファ,0
636,3220001026060,新規,0,2024-06-18,2024-06-18,ＳＵＰＥＲＮＥＴ　ｄｉｇｉｔａｌ株式会社,,株式会社,石川県,金沢市,押野１丁目２１１番地５ＣＲＹＰＴＯ・ＬＡＢ２Ｆ,,17,201,9218056,,,,,,,2024-06-18,1,,,,,スーパーネットデジタル,0
637,3220003003768,新規,0,2024-06-18,2024-06-18,合同会社ｊｏｙｇｒｏｗｔｈ,,合同会社,石川県,輪島市,鳳至町鳳至丁９０番地,,17,204,9280074,,,,,,,2024-06-18,1,,,,,ジョイグロース,0
640,3240001063399,新規,0,2024-06-18,2024-06-18,スワローテイル株式会社,,株式会社,広島県,広島市南区,宇品東２丁目２番１２号,,34,103,7340003,,,,,,,2024-06-18,1,,,,,スワローテイル,0
643,3260001039190,新規,0,2024-06-18,2024-06-18,ＹＭＴ　Ｄｅｓｉｇｎ株式会社,,株式会社,岡山県,岡山市北区,広瀬町３番３号島本ビル５階,,33,101,7000806,,,,,,,2024-06-18,1,,,,,ワイエムティデザイン,0
646,3290001106211,新規,0,2024-06-18,2024-06-18,凱越産業株式会社,,株式会社,福岡県,福岡市東区,香椎台１丁目５番４号,,40,131,8130014,,,,,,,2024-06-18,1,,,,,ガイエツサンギョウ,0
656,3310001019071,新規,0,2024-06-18,2024-06-18,株式会社グラスフィールド,,株式会社,長崎県,諫早市,森山町田尻１９６０番地,,42,204,8540204,,,,,,,2024-06-18,1,,,,,,0
660,3340001026585,新規,0,2024-06-18,2024-06-18,株式会社まんぷくハウス,,株式会社,鹿児島県,鹿児島市,真砂町１１－１サンパティーク鴨池橋１０１,,46,201,8900066,,,,,,,2024-06-18,1,,,,,マンプクハウス,0
663,3360001033836,新規,0,2024-06-18,2024-06-18,株式会社綱まち,,株式会社,沖縄県,島尻郡与那原町,字与那原３１０８番地,,47,348,9011303,,,,,,,2024-06-18,1,,,,,ツナマチ,0
671,3380001034618,新規,0,2024-06-18,2024-06-18,株式会社小松工業,,株式会社,福島県,南相馬市,原町区栄町３丁目１２５番地の１,,07,212,9750003,,,,,,,2024-06-18,1,,,,,コマツコウギョウ,0
678,3430001092057,新規,0,2024-06-18,2024-06-18,株式会社ＬＫ建設,,株式会社,北海道,札幌市中央区,南十条西６丁目４番２０号ＡＲＴＰＡＲＫ１　４０５号室,,01,101,0640810,,,,,,,2024-06-18,1,,,,,エルケーケンセツ,0
680,3430003016468,新規,0,2024-06-18,2024-06-18,合同会社アバンギャルド,,合同会社,北海道,札幌市白石区,北郷四条１２丁目５－１１ホワイトピア本郷２０１,,01,104,0030834,,,,,,,2024-06-18,1,,,,,アバンギャルド,0
688,3470003002662,新規,0,2024-06-18,2024-06-18,川の馬ばいおりん合同会社,,合同会社,香川県,丸亀市,金倉町７７８番地３,,37,202,7630053,,,,,,,2024-06-18,1,,,,,カワノウマバイオリン,0
696,3500001025703,新規,0,2024-06-18,2024-06-18,なるさ株式会社,,株式会社,愛媛県,北宇和郡松野町,大字延野々２１７７番地３,,38,484,7982102,,,,,,,2024-06-18,1,,,,,ナルサ,0
698,3700150126018,新規,0,2024-06-18,2024-06-18,Ｒａｂｂｉｔ　Ｉｎｃ．,,外国会社等,,,,,,,,１７１０－１７１６　１２ＴＨ　ＳＴＲＥＥＴ　ＳＡＮＴＡ　ＭＯＮＩＣＡ，ＣＡ　９０４０４,,,,,,2024-06-18,1,,,,,ラビットインク,0
706,4010401183208,新規,0,2024-06-18,2024-06-18,株式会社ＰＣＣＬ　Ｊａｐａｎ,,株式会社,東京都,港区,北青山２丁目７番２０号猪瀬ビル２Ｆ,,13,103,1070061,,,,,,,2024-06-18,1,,,,,ピーシーシーエルジャパン,0
707,4010401183216,新規,0,2024-06-18,2024-06-18,Ｒｅｆｒａｍｅ　Ｊａｐａｎ株式会社,,株式会社,東京都,港区,西麻布１丁目４番４０号西麻布ＳＨＩＮＯビル４階,,13,103,1060031,,,,,,,2024-06-18,1,,,,,リフレイムジャパン,0
709,4010403032817,新規,0,2024-06-18,2024-06-18,ガゼボ合同会社,,合同会社,東京都,港区,六本木７丁目１５番７号,,13,103,1060032,,,,,,,2024-06-18,1,,,,,ガゼボ,0
711,4010503007487,新規,0,2024-06-18,2024-06-18,合同会社ＮＩＦＴＹＯＮＥ,,合同会社,東京都,台東区,台東１丁目２４番７号ＦＡＲＥ秋葉原ＩＩ２０１,00135219,13,106,1100016,,,,,,,2024-06-18,1,,,,,ニフティワン,0
717,4010901055492,新規,0,2024-06-18,2024-06-18,株式会社ＴＰＤＦ,,株式会社,東京都,世田谷区,北沢４丁目７－１６ｓｋ４７１６－０１,,13,112,1550031,,,,,,,2024-06-18,1,,,,,ティーピーディーエフ,0
719,4010903009158,新規,0,2024-06-18,2024-06-18,合同会社アークスタジオ,,合同会社,東京都,世田谷区,北沢２丁目１４番地１号,,13,112,1550031,,,,,,,2024-06-18,1,,,,,アークスタジオ,0
722,4011001162808,新規,0,2024-06-18,2024-06-18,株式会社ナルシル,,株式会社,東京都,渋谷区,神宮前６丁目２３‐４桑野ビル２Ｆ,,13,113,1500001,,,,,,,2024-06-18,1,,,,,ナルシル,0
732,4011401026199,新規,0,2024-06-18,2024-06-18,株式会社Ｍｉｎｄ　Ｓｙｎｃ,,株式会社,東京都,板橋区,成増４丁目１３番２７号Ｃｅｌｓｕｓ２０２,,13,119,1750094,,,,,,,2024-06-18,1,,,,,マインドシンク,0
737,4011601027823,新規,0,2024-06-18,2024-06-18,鴻源株式会社,,株式会社,東京都,練馬区,北町３丁目２０番６号サンテックビル３０２号室,,13,120,1790081,,,,,,,2024-06-18,1,,,,,コウゲン,0
739,4011701027384,新規,0,2024-06-18,2024-06-18,株式会社ＢａｎｇｌａＢｙｔｅ,,株式会社,東京都,江戸川区,松島２丁目２８－１２,,13,123,1320031,,,,,,,2024-06-18,1,,,,,バングラバイト,0
751,4020001157684,新規,0,2024-06-18,2024-06-18,株式会社ＢＥＬＬＥ　Ｂｒａｎｄ,,株式会社,神奈川県,横浜市中区,北仲通５丁目５７番地２ザ・タワー横浜北仲３８０９号室,,14,104,2310003,,,,,,,2024-06-18,1,,,,,ベルブランド,0
752,4020001157692,新規,0,2024-06-18,2024-06-18,株式会社正銘,,株式会社,神奈川県,横浜市中区,尾上町１丁目６番ＩＣＯＮ関内,,14,104,2310015,,,,,,,2024-06-18,1,,,,,ショウメイ,0
753,4021001082492,新規,0,2024-06-18,2024-06-18,株式会社雅コーポレーション,,株式会社,神奈川県,大和市,深見西２丁目５番３０号,,14,213,2420018,,,,,,,2024-06-18,1,,,,,ミヤビコーポレーション,0
759,4030001160984,新規,0,2024-06-18,2024-06-18,ＴＨＥ　ＲＨＩＮＯ株式会社,,株式会社,埼玉県,川口市,上青木西４丁目２５－２１ファイロリコート２階,,11,203,3330845,,,,,,,2024-06-18,1,,,,,ザライノ,0
762,4030005021737,新規,0,2024-06-18,2024-06-18,一般社団法人とらちゃん本舗,,その他の設立登記法人,埼玉県,さいたま市南区,曲本１丁目１６番１１－２号,,11,108,3360033,,,,,,,2024-06-18,1,,,,,トラチャンホンポ,0
777,4040003025227,新規,0,2024-06-18,2024-06-18,プラスワン合同会社,,合同会社,千葉県,野田市,二ツ塚４６１－３,,12,208,2780016,,,,,,,2024-06-18,1,,,,,プラスワン,0
778,4040005022429,新規,0,2024-06-18,2024-06-18,一般社団法人ＬＥＧＡＬＩＳ,,その他の設立登記法人,千葉県,柏市,光ケ丘２丁目２３番６２号,,12,217,2770065,,,,,,,2024-06-18,1,,,,,レガリス,0
782,4050001054961,新規,0,2024-06-18,2024-06-18,ＡＳＩＦ　ＴＲＡＤＩＮＧ株式会社,,株式会社,茨城県,猿島郡境町,１８０６番地１Ａ－３,,08,546,3060433,,,,,,,2024-06-18,1,,,,,アシフトレーディング,0
791,4070001041875,新規,0,2024-06-18,2024-06-18,ＳＹＭＳ株式会社,,株式会社,群馬県,太田市,本町４３番１５号,,10,205,3730057,,,,,,,2024-06-18,1,,,,,シムス,0
793,4070003005465,新規,0,2024-06-18,2024-06-18,合同会社Ｏｚａ　Ｔｒａｄｉｎｇ,,合同会社,群馬県,太田市,藤久良町２７番地１４吉岡ハイツ１０２号,,10,205,3730035,,,,,,,2024-06-18,1,,,,,オザトレーディング,0
802,4090001018756,新規,0,2024-06-18,2024-06-18,山桜株式会社,,株式会社,山梨県,南都留郡山中湖村,平野２１９７－１０８４,,19,425,4010502,,,,,,,2024-06-18,1,,,,,ヤマサクラ,0
810,4110001038487,新規,0,2024-06-18,2024-06-18,株式会社新潟テクノロジー,,株式会社,新潟県,新潟市西区,青山１丁目２１番１号ＺＥＲＯ、ＡＯＹＡＭＡ２０１号,,15,107,9502002,,,,,,,2024-06-18,1,,,,,ニイガタテクノロジー,0
811,4110001038495,新規,0,2024-06-18,2024-06-18,株式会社ＫＵＳ,,株式会社,新潟県,新潟市北区,松浜８丁目１７番１３号,,15,101,9503126,,,,,,,2024-06-18,1,,,,,ケーユーエス,0
820,4120001265997,新規,0,2024-06-18,2024-06-18,株式会社Ｋｙｅ,,株式会社,大阪府,大阪市中央区,島之内１丁目１２番２１－７０２号,,27,128,5420082,,,,,,,2024-06-18,1,,,,,ケーワイイー,0
821,4120001266021,新規,0,2024-06-18,2024-06-18,株式会社Ｖａｌｅｎｔ,,株式会社,大阪府,大阪市中央区,東心斎橋１丁目７－１６,,27,128,5420083,,,,,,,2024-06-18,1,,,,,ヴァレント,0
822,4120001266038,新規,0,2024-06-18,2024-06-18,株式会社さすてなデジタルコンサルティング,,株式会社,大阪府,大阪市北区,野崎町７番８号梅田パークビル４階,,27,127,5300055,,,,,,,2024-06-18,1,,,,,サステナデジタルコンサルティング,0
829,4120105009870,新規,0,2024-06-18,2024-06-18,一般社団法人ＳＩＴコンサルティング,,その他の設立登記法人,大阪府,堺市中区,深阪２丁９番３６号,,27,142,5998253,,,,,,,2024-06-18,1,,,,,エスアイティコンサルティング,0
833,4120901049327,新規,0,2024-06-18,2024-06-18,株式会社ＦＦＦ,,株式会社,大阪府,茨木市,末広町４番６１１号,,27,211,5670821,,,,,,,2024-06-18,1,,,,,スリーエフ,0
834,4120901049335,新規,0,2024-06-18,2024-06-18,ＦＣＳ株式会社,,株式会社,大阪府,摂津市,千里丘東４丁目２８番７号,,27,224,5660011,,,,,,,2024-06-18,1,,,,,エフシーエス,0
836,4122001038185,新規,0,2024-06-18,2024-06-18,株式会社ディー・エス・ジー,,株式会社,大阪府,八尾市,龍華町１丁目４－２メガシティタワー４１０４,,27,212,5810069,,,,,,,2024-06-18,1,,,,,ディーエスジー,0
837,4122001038193,新規,0,2024-06-18,2024-06-18,株式会社ＨＡＭＡＲ,,株式会社,大阪府,東大阪市,弥生町１９番１７号,,27,227,5798026,,,,,,,2024-06-18,1,,,,,ハマー,0
839,4130001077302,新規,0,2024-06-18,2024-06-18,株式会社Ｆエステート,,株式会社,京都府,八幡市,八幡三本橋１８番地１７４,,26,210,6148093,,,,,,,2024-06-18,1,,,,,エフエステート,0
847,4140001134837,新規,0,2024-06-18,2024-06-18,株式会社ＨＥＰ,,株式会社,兵庫県,姫路市,西延末２７９番地２,,28,201,6700971,,,,,,,2024-06-18,1,,,,,エッチイーピー,0
856,4180001162017,新規,0,2024-06-18,2024-06-18,株式会社Ｒｅｓｏｌｏ,,株式会社,愛知県,名古屋市港区,浜２丁目１番５号大昂ビル８０１号,,23,111,4550036,,,,,,,2024-06-18,1,,,,,リソロ,0
857,4180001162025,新規,0,2024-06-18,2024-06-18,株式会社小坂電気,,株式会社,愛知県,名古屋市瑞穂区,下山町１丁目１９番地の３６,,23,108,4670049,,,,,,,2024-06-18,1,,,,,コサカデンキ,0
861,4180301038742,新規,0,2024-06-18,2024-06-18,株式会社ストラシード,,株式会社,愛知県,刈谷市,一ツ木町４丁目１８番地１１,,23,210,4480003,,,,,,,2024-06-18,1,,,,,ストラシード,0
862,4180301038750,新規,0,2024-06-18,2024-06-18,株式会社大竹業務店,,株式会社,愛知県,西尾市,一色町池田天神西２０番地１,,23,213,4440401,,,,,,,2024-06-18,1,,,,,オオタケギョウムテン,0
877,4240003006727,新規,0,2024-06-18,2024-06-18,Ａ＆Ａ合同会社,,合同会社,広島県,広島市西区,井口１丁目６番１－１１０号,,34,104,7330842,,,,,,,2024-06-18,1,,,,,エーアンドエー,0
886,4290001106152,新規,0,2024-06-18,2024-06-18,株式会社松田,,株式会社,福岡県,大牟田市,中白川町３丁目６８番地,,40,202,8370927,,,,,,,2024-06-18,1,,,,,マツダ,0
887,4290001106202,新規,0,2024-06-18,2024-06-18,ＭＩＭコンサルティング株式会社,,株式会社,福岡県,福岡市東区,箱崎１丁目１１番２４－２０１号大丸コーポ,,40,131,8120053,,,,,,,2024-06-18,1,,,,,エムアイエムコンサルティング,0
888,4290001106210,新規,0,2024-06-18,2024-06-18,株式会社茶わんむし,,株式会社,福岡県,福岡市博多区,東比恵３丁目１９番１０－４０３号,,40,132,8120007,,,,,,,2024-06-18,1,,,,,チャワンムシ,0
892,4290003015459,新規,0,2024-06-18,2024-06-18,合同会社帆夏,,合同会社,福岡県,福岡市南区,柏原６丁目１７番１２号,,40,134,8111353,,,,,,,2024-06-18,1,,,,,ホノカ,0
893,4290801030650,新規,0,2024-06-18,2024-06-18,株式会社三星,,株式会社,福岡県,北九州市小倉北区,三萩野１丁目４番１３号,,40,106,8020065,,,,,,,2024-06-18,1,,,,,サンセイ,0
912,4330003010422,新規,0,2024-06-18,2024-06-18,合同会社球磨ファーム１‐２,,合同会社,熊本県,人吉市,上青井町１８０番地２４,,43,203,8680005,,,,,,,2024-06-18,1,,,,,クマファームワンツー,0
915,4350001019018,新規,0,2024-06-18,2024-06-18,株式会社彩喜工業,,株式会社,宮崎県,宮崎市,月見ケ丘１丁目２６番１号,,45,201,8800926,,,,,,,2024-06-18,1,,,,,サイキコウギョウ,0
920,4370001051423,新規,0,2024-06-18,2024-06-18,株式会社翔栄堂,,株式会社,宮城県,石巻市,大宮町６番３８号,,04,202,9862132,,,,,,,2024-06-18,1,,,,,ショウエイドウ,0
921,4370005010805,新規,0,2024-06-18,2024-06-18,医療法人マサキデンタルオフィス,,その他の設立登記法人,宮城県,仙台市青葉区,中央３丁目７番２５号,,04,101,9800021,,,,,,,2024-06-18,1,,,,,マサキデンタルオフィス,0
927,4380001034600,新規,0,2024-06-18,2024-06-18,株式会社みすずテクノ福島,,株式会社,福島県,双葉郡富岡町,中央２丁目４５番地勢和ビル,,07,543,9791112,,,,,,,2024-06-18,1,,,,,ミスズテクノフクシマ,0
928,4380001034609,新規,0,2024-06-18,2024-06-18,株式会社颯琥,,株式会社,福島県,会津若松市,飯寺北１丁目２番５２号,,07,202,9650848,,,,,,,2024-06-18,1,,,,,フウライ,0
946,4470003002661,新規,0,2024-06-18,2024-06-18,合同会社ヘニングス,,合同会社,香川県,高松市,松島町３丁目１９番１５号,,37,201,7600068,,,,,,,2024-06-18,1,,,,,ヘニングス,0
959,4500001025702,新規,0,2024-06-18,2024-06-18,株式会社夢美叶,,株式会社,愛媛県,松山市,空港通６丁目１９番１６号,,38,201,7910054,,,,,,,2024-06-18,1,,,,,ユメビト,0
964,4700150125753,新規,0,2024-06-18,2024-06-04,日商岩井菫橋ハイツ管理組合,,その他,大阪府,大阪市城東区,関目４丁目１０－３６,,27,118,5360008,,,,,,,2024-06-04,1,,,,,ニツシヨウイワイスミレバシハイツカンリクミアイ,0
965,4700150126017,新規,0,2024-06-18,2024-06-18,ＳｈｅｎｚｈｅｎＢｏｈｕｉＳｈｕｃｈｕａｎｇＩｎｔｅｒｎｅｔＴｅｃｈｎｏｌｏｇｙＣｏ．，Ｌｔｄ．,,外国会社等,,,,,,,,Ｒｍ３２２，Ｎｏ．１１Ｂｕｉｌｄｉｎｇ，Ｆｕｌｏｎｇｔｅ　Ｉｎｄｕｓｔｒｉａｌ　Ｐａｒｋ，Ｈｕａｘｉｎｇ　Ｒｏａｄ，Ｌａｎｇｋｏｕ　Ｃｏｍｍｕｎｉｔｙ，Ｄａｌａｎｇ　Ｓｔｒｅｅｔ，Ｌｏｎｇｈｕａ　Ｄｉｓｔｒｉｃｔ，Ｓｈｅｎｚｈｅｎ　Ｇｕａｎｇｄｏｎｇ　Ｃｈｉｎａ　５１８１０９,,,,,,2024-06-18,1,,,,,シンセンハクエイスイソウゴレンモウインタネットテクノロジーカンパニーリミティッド,0
971,5010001244937,新規,0,2024-06-18,2024-06-18,ｔ．ｓｔｙｌｅ株式会社,,株式会社,東京都,中央区,銀座１丁目２２番１１号大竹ビジデンス２階,,13,102,1040061,,,,,,,2024-06-18,1,,,,,ティースタイル,0
972,5010001245844,新規,0,2024-06-18,2024-06-18,エメラルドガス輸送株式会社,,株式会社,東京都,千代田区,大手町１丁目４番２号,,13,101,1000004,,,,,,,2024-06-18,1,,,,,エメラルドガスユソウ,0
973,5010001245910,新規,0,2024-06-18,2024-06-18,モノリスジャパン株式会社,,株式会社,東京都,中央区,銀座１丁目１２－４Ｎ＆ＥＢＬＤ．７階,,13,102,1040061,,,,,,,2024-06-18,1,,,,,モノリスジャパン,0
979,5010401183074,新規,0,2024-06-18,2024-06-18,株式会社星野,,株式会社,東京都,港区,芝浦４丁目２番２２－２２８号,,13,103,1080023,,,,,,,2024-06-18,1,,,,,ホシノ,0
980,5010401183157,新規,0,2024-06-18,2024-06-18,株式会社退職代行,,株式会社,東京都,港区,北青山１丁目３番１号アールキューブ青山３階,,13,103,1070061,,,,,,,2024-06-18,1,,,,,タイショクダイコウ,0
981,5010401183165,新規,0,2024-06-18,2024-06-18,株式会社ＡＭＩＹ,,株式会社,東京都,港区,南青山４丁目７番１号,,13,103,1070062,,,,,,,2024-06-18,1,,,,,アミー,0
986,5010405023318,新規,0,2024-06-18,2024-06-18,エムケーテン特定目的会社,,その他の設立登記法人,東京都,港区,虎ノ門３丁目２２番１０－２０１号,,13,103,1050001,,,,,,,2024-06-18,1,,,,,エムケーテン,0
989,5010601065394,新規,0,2024-06-18,2024-06-18,株式会社Ｅｆｆ,,株式会社,東京都,江東区,北砂５丁目１９－６コープ野村大島２－３０２,,13,108,1360073,,,,,,,2024-06-18,1,,,,,エフ,0
994,5010901055491,新規,0,2024-06-18,2024-06-18,株式会社ワシワシ東京,,株式会社,東京都,世田谷区,上馬４丁目６－８,,13,112,1540011,,,,,,,2024-06-18,1,,,,,ワシワシトウキョウ,0
1002,5011001162609,新規,0,2024-06-18,2024-06-18,株式会社トランジットホールディングス,,株式会社,東京都,渋谷区,恵比寿４丁目２０番４号,,13,113,1500013,,,,,,,2024-06-18,1,,,,,トランジットホールディングス,0
1007,5011003019393,新規,0,2024-06-18,2024-06-18,ＳＯアドバイザリー合同会社,,合同会社,東京都,渋谷区,渋谷１丁目１９番１８号,,13,113,1500002,,,,,,,2024-06-18,1,,,,,エスオーアドバイザリー,0
1015,5011201025565,新規,0,2024-06-18,2024-06-18,ジーンビジョン株式会社,,株式会社,東京都,中野区,江原町１丁目２２番１６号,,13,114,1650023,,,,,,,2024-06-18,1,,,,,ジーンビジョン,0
1022,5011601027830,新規,0,2024-06-18,2024-06-18,株式会社Ｒｉｍｉｔ,,株式会社,東京都,練馬区,高松５丁目２番２０号,,13,120,1790075,,,,,,,2024-06-18,1,,,,,リミット,0
1023,5011603004357,新規,0,2024-06-18,2024-06-18,合資会社まつえ管理,,合資会社,東京都,練馬区,石神井町４丁目４番１５号,,13,120,1770041,,,,,,,2024-06-18,1,,,,,マツエカンリ,0
1025,5011801044378,新規,0,2024-06-18,2024-06-18,富久トレード株式会社,,株式会社,東京都,葛飾区,新小岩５－２８－２０－１１９号室,,13,122,1240000,,,,,,,2024-06-18,1,,,,,トミヒサトレード,0
1027,5011803006277,新規,0,2024-06-18,2024-06-18,合同会社ｃｈａｎｃｈａｎ　ｍａｒｋｅｔ,,合同会社,東京都,葛飾区,細田４丁目１５番１４号関口荘２０４,,13,122,1240021,,,,,,,2024-06-18,1,,,,,チャンチャンマーケット,0
1030,5012403006618,新規,0,2024-06-18,2024-06-18,合同会社ｅｍｂｒａｃｅ．ｔｋｍ,,合同会社,東京都,多摩市,落合１丁目２番５号,,13,224,2060033,,,,,,,2024-06-18,1,,,,,エンブレイスドットティケイエム,0
1037,5020001157667,新規,0,2024-06-18,2024-06-18,株式会社コンソナンティアピアノス,,株式会社,神奈川県,横浜市戸塚区,名瀬町３７７番地１０,,14,110,2450051,,,,,,,2024-06-18,1,,,,,コンソナンティアピアノス,0
1038,5020001157675,新規,0,2024-06-18,2024-06-18,株式会社ＡＫＡＴＳＵＫＩ,,株式会社,神奈川県,横浜市保土ケ谷区,権太坂２丁目１１番２４号,,14,106,2400026,,,,,,,2024-06-18,1,,,,,アカツキ,0
1040,5020003026325,新規,0,2024-06-18,2024-06-18,ミネルアウル合同会社,,合同会社,神奈川県,川崎市多摩区,長沢１丁目１４番６号,,14,135,2140035,,,,,,,2024-06-18,1,,,,,ミネルアウル,0
1046,5030001160835,新規,0,2024-06-18,2024-06-18,株式会社伊藤工務店,,株式会社,埼玉県,狭山市,入間川１４６３番地の３６,,11,215,3501305,,,,,,,2024-06-18,1,,,,,イトウコウムテン,0
1047,5030001160983,新規,0,2024-06-18,2024-06-18,株式会社ＳＵＩ,,株式会社,埼玉県,鶴ヶ島市,富士見１丁目１８－１５チサンマンション若葉１０７,,11,241,3502201,,,,,,,2024-06-18,1,,,,,スイ,0
1062,5050003008460,新規,0,2024-06-18,2024-06-18,合同会社どん通,,合同会社,茨城県,稲敷郡阿見町,大杉１５９８,,08,443,3000300,,,,,,,2024-06-18,1,,,,,ドンツウ,0
1076,5080401027258,新規,0,2024-06-18,2024-06-18,株式会社ＵＰＣ,,株式会社,静岡県,浜松市中央区,幸５丁目６番２号,,22,138,4338123,,,,,,,2024-06-18,1,,,,,ユーピーシー,0
1078,5100001037563,新規,0,2024-06-18,2024-06-18,株式会社ＺＥＲＯ‐ＯＮＥ,,株式会社,長野県,東御市,海善寺４８７番地１号,,20,219,3890504,,,,,,,2024-06-18,1,,,,,ゼロワン,0
1080,5110001038494,新規,0,2024-06-18,2024-06-18,株式会社キハン,,株式会社,新潟県,長岡市,黒坂４９０番地１,,15,202,9494502,,,,,,,2024-06-18,1,,,,,キハン,0
1096,5120001265971,新規,0,2024-06-18,2024-06-18,株式会社ＴＹＳカンパニー,,株式会社,大阪府,大阪市住吉区,墨江４丁目６番１９号デ・リード住吉公園８０２号,,27,120,5580043,,,,,,,2024-06-18,1,,,,,ティワイエスカンパニー,0
1097,5120001265988,新規,0,2024-06-18,2024-06-18,中億株式会社,,株式会社,大阪府,大阪市浪速区,大国２丁目８番７号,,27,111,5560014,,,,,,,2024-06-18,1,,,,,ナカオク,0
1098,5120003026868,新規,0,2024-06-18,2024-06-18,ＰＡＣＥ合同会社,,合同会社,大阪府,大阪市中央区,松屋町住吉６－２６,,27,128,5400017,,,,,,,2024-06-18,1,,,,,ペース,0
1100,5120101069793,新規,0,2024-06-18,2024-06-18,ＩＭＡＮＯ　ＥＮＴＥＲＰＲＩＳＥ株式会社,,株式会社,大阪府,河内長野市,天野町２３３番地の１,,27,216,5860086,,,,,,,2024-06-18,1,,,,,イマノエンタープライズ,0
1107,5120901049334,新規,0,2024-06-18,2024-06-18,株式会社ココロノラボ,,株式会社,大阪府,吹田市,高野台２丁目９番１９号,,27,205,5650861,,,,,,,2024-06-18,1,,,,,ココロノラボ,0
1108,5122001038201,新規,0,2024-06-18,2024-06-18,株式会社Ａｖａｎｃｅ,,株式会社,大阪府,東大阪市,御厨栄町２丁目９番７号,,27,227,5770036,,,,,,,2024-06-18,1,,,,,アヴァンセ,0
1132,5140003020695,新規,0,2024-06-18,2024-06-18,合同会社志龍,,合同会社,兵庫県,神戸市垂水区,清水が丘３丁目６－３８,,28,108,6550031,,,,,,,2024-06-18,1,,,,,シリュウ,0
1133,5140003020720,新規,0,2024-06-18,2024-06-18,合同会社そよ風,,合同会社,兵庫県,姫路市,安富町関１１５１番地５７４,,28,201,6712416,,,,,,,2024-06-18,1,,,,,ソヨカゼ,0
1137,5170001018193,新規,0,2024-06-18,2024-06-18,株式会社ｍｉｎａｔｏ．ｃｏ,,株式会社,和歌山県,御坊市,塩屋町北塩屋６４７番地１１,,30,205,6440025,,,,,,,2024-06-18,1,,,,,ミナトドットシーオー,0
1148,5180001162049,新規,0,2024-06-18,2024-06-18,株式会社ＦＦＦ,,株式会社,愛知県,名古屋市中川区,東起町４丁目１２番地,,23,110,4540935,,,,,,,2024-06-18,1,,,,,エフエフエフ,0
1155,5180003026953,新規,0,2024-06-18,2024-06-18,ＣＲＯＷ合同会社,,合同会社,愛知県,東海市,荒尾町洞ケ山２３番地の２６（１棟５０９号）,,23,222,4760003,,,,,,,2024-06-18,1,,,,,クロウ,0
1158,5200001042611,新規,0,2024-06-18,2024-06-18,株式会社Ｒａｈ　Ｒａｈ,,株式会社,岐阜県,羽島郡岐南町,八剣北５丁目２１番地,,21,302,5016011,,,,,,,2024-06-18,1,,,,,ラーラー,0
1162,5240001063389,新規,0,2024-06-18,2024-06-18,株式会社キャリド,,株式会社,広島県,福山市,引野町２丁目１９番６号,,34,207,7210942,,,,,,,2024-06-18,1,,,,,キャリド,0
1167,5260001039148,新規,0,2024-06-18,2024-06-18,株式会社メンテナンス・サービス,,株式会社,岡山県,岡山市南区,泉田５丁目３番８号,,33,104,7000944,,,,,,,2024-06-18,1,,,,,メンテナンスサービス,0
1170,5290003015441,新規,0,2024-06-18,2024-06-18,合同会社ＤＲＥＡＭ　ＴＥＲＲＡＣＥ,,合同会社,福岡県,糸島市,浦志１丁目５－１２－５０３,,40,230,8191112,,,,,,,2024-06-18,1,,,,,ドリームテラス,0
1172,5300003002140,新規,0,2024-06-18,2024-06-18,合同会社ＢＲシャルム,,合同会社,佐賀県,佐賀市,朝日町７番１４号,,41,201,8400053,,,,,,,2024-06-18,1,,,,,ビーアールシャルム,0
1178,5330003010421,新規,0,2024-06-18,2024-06-18,合同会社球磨ファーム１‐１,,合同会社,熊本県,人吉市,上青井町１８０番地２４,,43,203,8680005,,,,,,,2024-06-18,1,,,,,クマファームワンワン,0
1180,5350003004669,新規,0,2024-06-18,2024-06-18,合同会社タジマ,,合同会社,宮崎県,都城市,立野町３７７２番地１９メゾン立野１０３号,,45,202,8850035,,,,,,,2024-06-18,1,,,,,タジマ,0
1184,5360001033826,新規,0,2024-06-18,2024-06-18,銀燕航空株式会社,,株式会社,沖縄県,那覇市,字仲井真３７９番１－１０７号レジデンス新垣,,47,201,9020074,,,,,,,2024-06-18,1,,,,,ギンエンコウクウ,0
1196,5410001013855,新規,0,2024-06-18,2024-06-18,株式会社ＹＡＫＵＤＯ,,株式会社,秋田県,秋田市,下浜八田字水無９,,05,201,0101505,,,,,,,2024-06-18,1,,,,,ヤクドウ,0
1206,5430001092055,新規,0,2024-06-18,2024-06-18,株式会社ハピネスコーポレーション,,株式会社,北海道,札幌市西区,八軒五条西９丁目２番１３号,,01,107,0630845,,,,,,,2024-06-18,1,,,,,ハピネスコーポレーション,0
1212,5450003002506,新規,0,2024-06-18,2024-06-18,合同会社若色商店,,合同会社,北海道,上川郡東川町,東町３丁目９番９号,,01,458,0711423,,,,,,,2024-06-18,1,,,,,ワカイロショウテン,0
1215,5480003002148,新規,0,2024-06-18,2024-06-18,合同会社グロリアスＫ,,合同会社,徳島県,美馬市,脇町大字脇町２９５番地３,,36,207,7793610,,,,,,,2024-06-18,1,,,,,グロリアスケイ,0
1223,5500001025701,新規,0,2024-06-18,2024-06-18,株式会社リベラ,,株式会社,愛媛県,今治市,室屋町７丁目２番３３号,,38,202,7940022,,,,,,,2024-06-18,1,,,,,リベラ,0
1226,5700150126016,新規,0,2024-06-18,2024-06-18,ＳＯＵＲＥＸ　ＴＥＣＨＮＯＬＯＧＹ　ＣＯ．，ＬＩＭＩＴＥＤ,,外国会社等,,,,,,,,ＦＬＡＴ／ＲＭ　５，７／Ｆ，ＣＡＲＮＩＶＡＬ　ＣＯＭＭＥＲＣＩＡＬ　ＢＵＩＬＤＩＮＧ，１８　ＪＡＶＡ　ＲＯＡＤ，ＮＯＲＴＨ　ＰＯＩＮＴ　ＨＫ,,,,,,2024-06-18,1,,,,,ソウレックステクノロジーカンパニーリミテッド,0
1233,6010003044079,新規,0,2024-06-18,2024-06-18,Ｖｏｕｓｙ合同会社,,合同会社,東京都,千代田区,紀尾井町３番８号第２紀尾井町ビル３階,,13,101,1020094,,,,,,,2024-06-18,1,,,,,ヴォウシー,0
1251,6010401183123,新規,0,2024-06-18,2024-06-18,株式会社ＳＷ,,株式会社,東京都,港区,芝浦３丁目２番１６号田町イースト９０１,,13,103,1080023,,,,,,,2024-06-18,1,,,,,エスダブリュー,0
1252,6010401183214,新規,0,2024-06-18,2024-06-18,株式会社Ｊｏｉｅ‐ｍａｉｓｏｎ,,株式会社,東京都,港区,南青山５丁目１０番２号,,13,103,1070062,,,,,,,2024-06-18,1,,,,,ジョアメゾン,0
1253,6010401183255,新規,0,2024-06-18,2024-06-18,第一ＮＴインベスト株式会社,,株式会社,東京都,港区,虎ノ門１丁目２３番２－４４０９号,,13,103,1050001,,,,,,,2024-06-18,1,,,,,ダイイチエヌティーインベスト,0
1256,6010403032823,新規,0,2024-06-18,2024-06-18,合同会社みやわき,,合同会社,東京都,港区,三田１丁目３番２８号スカラコート麻布十番１０２号室,,13,103,1080073,,,,,,,2024-06-18,1,,,,,ミヤワキ,0
1257,6010405023317,新規,0,2024-06-18,2024-06-18,エムケーナイン特定目的会社,,その他の設立登記法人,東京都,港区,虎ノ門３丁目２２番１０－２０１号,,13,103,1050001,,,,,,,2024-06-18,1,,,,,エムケーナイン,0
1259,6010501052450,新規,0,2024-06-18,2024-06-18,安翔精機株式会社,,株式会社,東京都,台東区,台東２丁目７番４号桜田ビル６０１,,13,106,1100016,,,,,,,2024-06-18,1,,,,,アンショウセイキ,0
1260,6010505003532,新規,0,2024-06-18,2024-06-18,一般社団法人次世代コモンズ創造機構,,その他の設立登記法人,東京都,台東区,三筋１丁目１１番１３号山瀧帽子（有）３Ｆ,,13,106,1110055,,,,,,,2024-06-18,1,,,,,ジセダイコモンズソウゾウキコウ,0
1261,6010601065385,新規,0,2024-06-18,2024-06-18,３ＴＨＲＥＥＥ株式会社,,株式会社,東京都,江東区,東陽３丁目１４番１号メドー宮下３０２,,13,108,1350016,,,,,,,2024-06-18,1,,,,,スリー,0
1263,6010701046145,新規,0,2024-06-18,2024-06-18,株式会社ｉｎｔｅｌｌｃｔｕａｒｙ,,株式会社,東京都,品川区,大崎１丁目１１番１号,,13,109,1410032,,,,,,,2024-06-18,1,,,,,アンテレクチュアリ,0
1269,6010901055482,新規,0,2024-06-18,2024-06-18,株式会社Ｈｅａｌ　ｓｐａｃｅ,,株式会社,東京都,世田谷区,駒沢２丁目４６番１１号,,13,112,1540012,,,,,,,2024-06-18,1,,,,,ヒールスペース,0
1277,6011001162541,新規,0,2024-06-18,2024-06-18,株式会社Ｉｃｈｉｋａｋｅ,,株式会社,東京都,渋谷区,恵比寿西１丁目１０番１４号ランドコム恵比寿代官山１１０４,,13,113,1500021,,,,,,,2024-06-18,1,,,,,,0
1278,6011001162608,新規,0,2024-06-18,2024-06-18,株式会社トランジットホスピタリティマネジメント,,株式会社,東京都,渋谷区,恵比寿４丁目２０番４号,,13,113,1500013,,,,,,,2024-06-18,1,,,,,トランジットホスピタリティマネジメント,0
1279,6011001162723,新規,0,2024-06-18,2024-06-18,株式会社ＬｉｎＭ,,株式会社,東京都,渋谷区,東京都渋谷区渋谷２―１９―１５宮益坂ビルディング６０９,,13,113,1500000,,,,,,,2024-06-18,1,,,,,リム,0
1290,6011101107751,新規,0,2024-06-18,2024-06-18,株式会社菊瑞膳,,株式会社,東京都,新宿区,山吹町１３０－５ソーラ・デ・吉岡３階３０７号室,,13,104,1620801,,,,,,,2024-06-18,1,,,,,キクズイゼン,0
1291,6011103014500,新規,0,2024-06-18,2024-06-18,合同会社Ｅｄｕｃａｔｉｏｎ　Ｌａｂｏｒａｔｏｒｙ,,合同会社,東京都,新宿区,神楽坂６丁目４４－３,,13,104,1620825,,,,,,,2024-06-18,1,,,,,エドュケーションラボラトリー,0
1293,6011401026206,新規,0,2024-06-18,2024-06-18,株式会社ＲＩＳＥ,,株式会社,東京都,板橋区,高島平８丁目１１番５－５０１号,,13,119,1750082,,,,,,,2024-06-18,1,,,,,ライズ,0
1297,6011503006106,新規,0,2024-06-18,2024-06-18,京華合同会社,,合同会社,東京都,荒川区,荒川３丁目７４－１－１０５,,13,118,1160002,,,,,,,2024-06-18,1,,,,,キョウカ,0
1299,6011603004364,新規,0,2024-06-18,2024-06-18,ＫＴ＆ＥＫＯ合同会社,,合同会社,東京都,練馬区,小竹町１丁目２４－１－１０８,,13,120,1760004,,,,,,,2024-06-18,1,,,,,ケーティーアンドエコ,0
1301,6011705001838,新規,0,2024-06-18,2024-06-18,一般社団法人摩周ＣＣＳ出版,,その他の設立登記法人,東京都,江戸川区,臨海町２丁目２番８－１１０４号,,13,123,1340086,,,,,,,2024-06-18,1,,,,,マシュウシーシーエスシュッパン,0
1304,6011801044393,新規,0,2024-06-18,2024-06-18,マジックテック株式会社,,株式会社,東京都,葛飾区,西新小岩５丁目２８番２０号,,13,122,1240025,,,,,,,2024-06-18,1,,,,,マジックテック,0
1306,6012401042003,新規,0,2024-06-18,2024-06-18,まる徳屋株式会社,00135212,株式会社,東京都,府中市,宮町３丁目１２－８,,13,206,1830023,,,,,,,2024-06-18,1,,,,,マルトクヤ,0
1307,6012701018314,新規,0,2024-06-18,2024-06-18,株式会社健匠,,株式会社,東京都,小平市,小川町１丁目１１１４番地の５,,13,211,1870032,,,,,,,2024-06-18,1,,,,,ケンショウ,0
1311,6013303007184,新規,0,2024-06-18,2024-06-18,合同会社アセットアルファ,,合同会社,東京都,豊島区,北大塚３丁目１８番１８号ルナテラス池袋イースト３０１号,,13,116,1700004,,,,,,,2024-06-18,1,,,,,アセットアルファ,0
1316,6020001157699,新規,0,2024-06-18,2024-06-18,株式会社ＴＥＮ,,株式会社,神奈川県,横浜市都筑区,中川１丁目１８番１２－１０１号,,14,118,2240001,,,,,,,2024-06-18,1,,,,,テン,0
1317,6020001157724,新規,0,2024-06-18,2024-06-18,株式会社ＳＧＫホールディングス,,株式会社,神奈川県,横浜市都筑区,荏田南３丁目１２番８号,,14,118,2240007,,,,,,,2024-06-18,1,,,,,エスジーケーホールディングス,0
1318,6020003026324,新規,0,2024-06-18,2024-06-18,みなとみらいＺＯＯ合同会社,,合同会社,神奈川県,横浜市西区,高島２丁目１１番地２号スカイメナー横浜５１９,,14,103,2200011,,,,,,,2024-06-18,1,,,,,ミナトミライズー,0
1319,6020003026357,新規,0,2024-06-18,2024-06-18,合同会社ＡＢＡＮＴＥ,,合同会社,神奈川県,横浜市中区,常盤町３丁目２２－３徳栄ビル３階,,14,104,2310014,,,,,,,2024-06-18,1,,,,,アバンテ,0
1330,6030001160974,新規,0,2024-06-18,2024-06-18,株式会社ＶＩＴＡ,,株式会社,埼玉県,さいたま市岩槻区,本町２丁目１２番３号,,11,110,3390057,,,,,,,2024-06-18,1,,,,,ビータ,0
1332,6030003024509,新規,0,2024-06-18,2024-06-18,合同会社ＩＮＧ,,合同会社,埼玉県,所沢市,大字山口２８９１番地の２２,,11,208,3591145,,,,,,,2024-06-18,1,,,,,イング,0
1333,6030003024533,新規,0,2024-06-18,2024-06-18,合同会社御陰屋,,合同会社,埼玉県,蓮田市,末広２丁目１－１高山ビル１階,,11,238,3490124,,,,,,,2024-06-18,1,,,,,オカゲヤ,0
1343,6040001134110,新規,0,2024-06-18,2024-06-18,株式会社アグリロジスティクス,,株式会社,千葉県,山武市,松尾町本柏２８８４番地２,,12,237,2891521,,,,,,,2024-06-18,1,,,,,アグリロジスティクス,0
1347,6050003008451,新規,0,2024-06-18,2024-06-18,合同会社来生,,合同会社,茨城県,石岡市,柿岡１３１９－１,,08,205,3150116,,,,,,,2024-06-18,1,,,,,キスギ,0
1360,6080101024827,新規,0,2024-06-18,2024-06-18,株式会社エンタメイジング,,株式会社,静岡県,富士宮市,舞々木町３９７番地,,22,207,4180015,,,,,,,2024-06-18,1,,,,,エンタメイジング,0
1381,6120001265681,新規,0,2024-06-18,2024-06-18,新佳瑞株式会社,,株式会社,大阪府,大阪市生野区,新今里５丁目１５－１７ブランシュＩＩ２階２Ｂ号室,00135211,27,116,5440001,,,,,,,2024-06-18,1,,,,,シンカズイ,0
1382,6120001265896,新規,0,2024-06-18,2024-06-18,株式会社朝宏,,株式会社,大阪府,大阪市大正区,三軒家西１丁目９番１８号三西ハイツ２０２号,,27,108,5510001,,,,,,,2024-06-18,1,,,,,チョウコウ,0
1383,6120001265905,新規,0,2024-06-18,2024-06-18,株式会社ＣＵＴ,,株式会社,大阪府,大阪市中央区,北浜２丁目６番１８号１５階,,27,128,5410041,,,,,,,2024-06-18,1,,,,,シーユーティー,0
1384,6120001265962,新規,0,2024-06-18,2024-06-18,株式会社ＮＴＭ,,株式会社,大阪府,大阪市北区,万歳町３－１６天満病院グループ梅田ビル３０３,,27,127,5300028,,,,,,,2024-06-18,1,,,,,エヌティーエム,0
1395,6120101069801,新規,0,2024-06-18,2024-06-18,株式会社Ｌａｕｇｈｉｎ’ＵＬＫＡ,,株式会社,大阪府,堺市堺区,戎之町東５丁４番３０号,,27,141,5900945,,,,,,,2024-06-18,1,,,,,ラフィンウルカ,0
1398,6120901049300,新規,0,2024-06-18,2024-06-18,ｙａｋｕｍｉ株式会社,,株式会社,大阪府,摂津市,香露園１３番１５号,,27,224,5660034,,,,,,,2024-06-18,1,,,,,ヤクミ,0
1401,6122001038191,新規,0,2024-06-18,2024-06-18,株式会社ＫＡＦＵＣＯＭ,,株式会社,大阪府,大東市,扇町６－１８－２Ｆ,,27,218,5740033,,,,,,,2024-06-18,1,,,,,カフコム,0
1406,6130001077309,新規,0,2024-06-18,2024-06-18,株式会社樂遇,,株式会社,京都府,京都市左京区,聖護院山王町４３番地２,,26,103,6068392,,,,,,,2024-06-18,1,,,,,ラクグウ,0
1411,6140001134851,新規,0,2024-06-18,2024-06-18,株式会社ｎｏｂｏｄｙ,,株式会社,兵庫県,神戸市中央区,海岸通２８番地ＢＥＬＩＳＴＡ神戸旧居留地２３０５号室,,28,110,6500024,,,,,,,2024-06-18,1,,,,,ノーバディ,0
1413,6140003020711,新規,0,2024-06-18,2024-06-18,合同会社集欣,,合同会社,兵庫県,姫路市,安富町長野１５３番地,,28,201,6712421,,,,,,,2024-06-18,1,,,,,シュウキン,0
1418,6170001018192,新規,0,2024-06-18,2024-06-18,株式会社ｋ．ｏｆｆｉｃｅ,,株式会社,和歌山県,岩出市,紀泉台４６８番地,,30,209,6496253,,,,,,,2024-06-18,1,,,,,ケイオフィス,0
1423,6180003026936,新規,0,2024-06-18,2024-06-18,本丸合同会社,,合同会社,愛知県,名古屋市中川区,江松４丁目１４１０,,23,110,4540954,,,,,,,2024-06-18,1,,,,,ホンマル,0
1424,6180003026944,新規,0,2024-06-18,2024-06-18,合同会社桐生,,合同会社,愛知県,名古屋市守山区,大森５丁目３０１５番地シンフォニア大森３０１号,,23,113,4630021,,,,,,,2024-06-18,1,,,,,キリュウ,0
1425,6180003026960,新規,0,2024-06-18,2024-06-18,合同会社ハンドシステム,,合同会社,愛知県,知多市,南巽が丘１丁目２５番地,00135215,23,224,4780013,,,,,,,2024-06-18,1,,,,,ハンドシステム,0
1430,6180305009580,新規,0,2024-06-18,2024-06-18,一般社団法人防災コネクトみかわ,,その他の設立登記法人,愛知県,岡崎市,井内町字桜井２７番地５,,23,202,4440203,,,,,,,2024-06-18,1,,,,,ボウサイコネクトミカワ,0
1434,6190003004718,新規,0,2024-06-18,2024-06-18,合同会社晴風,,合同会社,三重県,津市,丸之内８番地１号,,24,201,5140033,,,,,,,2024-06-18,1,,,,,ハルカゼ,0
1435,6200001042610,新規,0,2024-06-18,2024-06-18,株式会社Ｓ‐ＬＩＮＫ,,株式会社,岐阜県,羽島郡岐南町,平成５丁目４７番地,,21,302,5016013,,,,,,,2024-06-18,1,,,,,エスリンク,0
1441,6220001026058,新規,0,2024-06-18,2024-06-18,ＭＯＤＥＲＮ　ＭＩＮＫＡ株式会社,,株式会社,石川県,金沢市,横山町１０番１０号,,17,201,9200922,,,,,,,2024-06-18,1,,,,,モダンミンカ,0
1445,6240001063396,新規,0,2024-06-18,2024-06-18,株式会社一伸工業,,株式会社,広島県,福山市,水呑町１０４５番地９,,34,207,7200832,,,,,,,2024-06-18,1,,,,,イッシンコウギョウ,0
1451,6260001039188,新規,0,2024-06-18,2024-06-18,株式会社星協電工,,株式会社,岡山県,岡山市南区,泉田４２１番地１０,,33,104,7000944,,,,,,,2024-06-18,1,,,,,セイキョウデンコウ,0
1459,6290801030649,新規,0,2024-06-18,2024-06-18,株式会社ＺＯＥ,,株式会社,福岡県,北九州市八幡西区,穴生２丁目９番６－１１０５号,,40,109,8060049,,,,,,,2024-06-18,1,,,,,ゾエ,0
1461,6300001013799,新規,0,2024-06-18,2024-06-18,株式会社ＢＥＲＩＳＥ,,株式会社,佐賀県,唐津市,鎮西町中野６０７１番地４１,,41,202,8470316,,,,,,,2024-06-18,1,,,,,ビライズ,0
1472,6350001019016,新規,0,2024-06-18,2024-06-18,株式会社デジタルラボたかなべ,,株式会社,宮崎県,児湯郡高鍋町,大字蚊口浦６２５９－１－２１,,45,401,8840004,,,,,,,2024-06-18,1,,,,,デジタルラボタカナベ,0
1476,6360001033825,新規,0,2024-06-18,2024-06-18,拓伸工業株式会社,,株式会社,沖縄県,うるま市,みどり町３丁目１８番９号プラ花３０４,,47,213,9042215,,,,,,,2024-06-18,1,,,,,,0
1477,6370005010803,新規,0,2024-06-18,2024-06-18,医療法人診誠会,,その他の設立登記法人,宮城県,仙台市青葉区,一番町２丁目２番３号－６階,,04,101,9800811,,,,,,,2024-06-18,1,,,,,シンセイカイ,0
1486,6390003002255,新規,0,2024-06-18,2024-06-18,合同会社ＢＯＮＨＥＵＲ,,合同会社,山形県,天童市,交り江５丁目６番８号フレグランスリバティ２０２号,,06,210,9940048,,,,,,,2024-06-18,1,,,,,,0
1487,6420001018761,新規,0,2024-06-18,2024-06-18,株式会社ＬＢＳ,,株式会社,青森県,弘前市,大字城東中央５丁目２番地８メゾンドエトワール３－０Ｃ号,,02,202,0368093,,,,,,,2024-06-18,1,,,,,エルビーエス,0
1494,6460003001002,新規,0,2024-06-18,2024-06-18,合同会社ＳＴ,,合同会社,北海道,釧路市,貝塚１丁目２番２４号,,01,206,0850816,,,,,,,2024-06-18,1,,,,,エスティー,0
1500,6480003002147,新規,0,2024-06-18,2024-06-18,合同会社クラシス,,合同会社,徳島県,徳島市,応神町東貞方字諏訪ノ市３３－１３,,36,201,7711154,,,,,,,2024-06-18,1,,,,,クラシス,0
1516,7010101016202,新規,0,2024-06-18,2024-06-18,ＪＹＲＳ株式会社,,株式会社,東京都,八王子市,鑓水２丁目８４番地５－１０３,,13,201,1920375,,,,,,,2024-06-18,1,,,,,,0
1520,7010401183188,新規,0,2024-06-18,2024-06-18,株式会社ＴＭ,,株式会社,東京都,港区,浜松町２丁目２番１５号浜松町ダイヤビル２Ｆ,,13,103,1050013,,,,,,,2024-06-18,1,,,,,ティーエム,0
1521,7010401183213,新規,0,2024-06-18,2024-06-18,株式会社ＧＩＶＥ,,株式会社,東京都,港区,芝３丁目６－１芝ＮＡビル５階,,13,103,1050014,,,,,,,2024-06-18,1,,,,,ギブ,0
1522,7010401183221,新規,0,2024-06-18,2024-06-18,ＹＮマネジメント株式会社,,株式会社,東京都,港区,赤坂２丁目１４番５号,,13,103,1070052,,,,,,,2024-06-18,1,,,,,ワイエヌマネジメント,0
1525,7010403032847,新規,0,2024-06-18,2024-06-18,合同会社ディライトウェル,,合同会社,東京都,港区,芝４丁目１６番２カテリーナ三田Ｅ１４０３号,,13,103,1080014,,,,,,,2024-06-18,1,,,,,ディライトウェル,0
1527,7010405023316,新規,0,2024-06-18,2024-06-18,エムケーエイト特定目的会社,,その他の設立登記法人,東京都,港区,虎ノ門３丁目２２番１０－２０１号,,13,103,1050001,,,,,,,2024-06-18,1,,,,,エムケーエイト,0
1528,7010501052458,新規,0,2024-06-18,2024-06-18,泉水株式会社,,株式会社,東京都,台東区,清川２丁目１９－８－１Ｆ,,13,106,1110022,,,,,,,2024-06-18,1,,,,,センスイ,0
1529,7010501052474,新規,0,2024-06-18,2024-06-18,株式会社結丸ジャパン,,株式会社,東京都,台東区,竜泉１丁目２６番２－１０１号,,13,106,1100012,,,,,,,2024-06-18,1,,,,,ユイマルジャパン,0
1530,7010601065392,新規,0,2024-06-18,2024-06-18,グッドデイズ株式会社,,株式会社,東京都,江東区,千石１丁目１３番１８－２０３号,,13,108,1350015,,,,,,,2024-06-18,1,,,,,グッドデイズ,0
1531,7010601065401,新規,0,2024-06-18,2024-06-18,株式会社コマーピー,,株式会社,東京都,墨田区,東駒形１丁目１５番２－７０６号,,13,107,1300005,,,,,,,2024-06-18,1,,,,,コマーピー,0
1532,7010603010900,新規,0,2024-06-18,2024-06-18,Ｒｅａｌｙｚ　Ｊａｐａｎ合同会社,,合同会社,東京都,江東区,豊洲５丁目１―１３―３５１３,,13,108,1350061,,,,,,,2024-06-18,1,,,,,リアライズジャパン,0
1534,7010701046144,新規,0,2024-06-18,2024-06-18,株式会社Ｍｉｓｔｙ　Ｒｏｓｅ　Ｓｔｕｄｉｏ,,株式会社,東京都,品川区,上大崎３丁目１番３０号３０３号室,,13,109,1410021,,,,,,,2024-06-18,1,,,,,ミスティローズスタジオ,0
1537,7010801035146,新規,0,2024-06-18,2024-06-18,株式会社ＣｈａｐＴｅａ,,株式会社,東京都,大田区,上池台１丁目７番１６号スマートキューブ長原２０５号,,13,111,1450064,,,,,,,2024-06-18,1,,,,,チャプティー,0
1538,7010801035154,新規,0,2024-06-18,2024-06-18,株式会社ＰＥＡＲ,,株式会社,東京都,大田区,本羽田３丁目１番１３号ＡＲＣＯＢＡＬＥＮＯＨＡＮＥＤＡ５０１,,13,111,1440044,,,,,,,2024-06-18,1,,,,,ペア,0
1539,7010803004990,新規,0,2024-06-18,2024-06-18,ｓｔｅａｄｙ　ｂｒｉｄｇｅ　ｄｅｓｉｇｎｓ　ｌａｂ合同会社,,合同会社,東京都,大田区,西馬込２丁目２１－１－３０３,,13,111,1430026,,,,,,,2024-06-18,1,,,,,ステディブリッジデザインラボ,0
1547,7011001162607,新規,0,2024-06-18,2024-06-18,株式会社トランジットクリエイティブ,,株式会社,東京都,渋谷区,恵比寿４丁目２０番４号,,13,113,1500013,,,,,,,2024-06-18,1,,,,,トランジットクリエイティブ,0
1561,7011601027829,新規,0,2024-06-18,2024-06-18,株式会社ＮＩＮＱ,,株式会社,東京都,練馬区,三原台２丁目１番１号木田ビル１階,,13,120,1770031,,,,,,,2024-06-18,1,,,,,ニンク,0
1562,7011701027183,新規,0,2024-06-18,2024-06-18,株式会社ＩＴＯ,,株式会社,東京都,江戸川区,東小岩３丁目５番２０号グレース１０１,,13,123,1330052,,,,,,,2024-06-18,1,,,,,イトウ,0
1563,7011801044392,新規,0,2024-06-18,2024-06-18,株式会社Ｓｏａｒｓ,,株式会社,東京都,葛飾区,東堀切３丁目２２番６号,,13,122,1240004,,,,,,,2024-06-18,1,,,,,ソアーズ,0
1575,7020003026315,新規,0,2024-06-18,2024-06-18,合同会社ＪＡＰＡＮ　ＬＩＮＫ,,合同会社,神奈川県,横浜市都筑区,茅ケ崎東４丁目４番１０号ガーデンスクエア１０６,,14,118,2240033,,,,,,,2024-06-18,1,,,,,ジャパンリンク,0
1576,7020003026323,新規,0,2024-06-18,2024-06-18,合同会社Ｋａｌｍ　Ｂｅａｃｈ,,合同会社,神奈川県,横浜市西区,北幸２丁目１０番地４８むつみビル３Ｆ,,14,103,2200004,,,,,,,2024-06-18,1,,,,,カームビーチ,0
1589,7030003024524,新規,0,2024-06-18,2024-06-18,合同会社ＤＡＹ１,,合同会社,埼玉県,さいたま市岩槻区,美園東１丁目１番地１－１４０８号室,,11,110,3390028,,,,,,,2024-06-18,1,,,,,デイワン,0
1590,7030005021734,新規,0,2024-06-18,2024-06-18,一般社団法人ウィズライフ,,その他の設立登記法人,埼玉県,川越市,神明町２９番地２,,11,201,3500823,,,,,,,2024-06-18,1,,,,,ウィズライフ,0
1594,7040001134118,新規,0,2024-06-18,2024-06-18,株式会社房総コーポレーション,,株式会社,千葉県,木更津市,矢那３６５５番地,,12,206,2920812,,,,,,,2024-06-18,1,,,,,ボウソウコーポレーション,0
1596,7040003025224,新規,0,2024-06-18,2024-06-18,合同会社ＴＯＳＨＩＭＡＲＵ,,合同会社,千葉県,銚子市,野尻町１８６番地,,12,202,2880863,,,,,,,2024-06-18,1,,,,,,0
1602,7050001054926,新規,0,2024-06-18,2024-06-18,株式会社ＫＡＩＳＨＩＮ,,株式会社,茨城県,北茨城市,大津町字中町１２１番地２４,,08,215,3191702,,,,,,,2024-06-18,1,,,,,カイシン,0
1603,7050001054950,新規,0,2024-06-18,2024-06-18,藤原設備株式会社,,株式会社,茨城県,取手市,取手２丁目７番８－２０２号,,08,217,3020004,,,,,,,2024-06-18,1,,,,,フジワラセツビ,0
1614,7070001041872,新規,0,2024-06-18,2024-06-18,株式会社フクショー,,株式会社,群馬県,太田市,飯田町１０２９番地２（３階）,,10,205,3730851,,,,,,,2024-06-18,1,,,,,フクショー,0
1615,7070001041880,新規,0,2024-06-18,2024-06-18,株式会社ＳＩＮＴＥＲＡＳ,,株式会社,群馬県,前橋市,前箱田町３８７－１ＴＭＯｆｆｉｃｅ×３ｈａｐｐｙ前橋１０８号室,,10,201,3710835,,,,,,,2024-06-18,1,,,,,シンテラス,0
1621,7080101024826,新規,0,2024-06-18,2024-06-18,株式会社豆柴苑,,株式会社,静岡県,裾野市,千福が丘３丁目１４番１６,,22,220,4101115,,,,,,,2024-06-18,1,,,,,マメシバエン,0
1635,7120001265870,新規,0,2024-06-18,2024-06-18,＿麗株式会社,00135221,株式会社,大阪府,大阪市西成区,太子２丁目３番７号,,27,122,5570002,,,,,,,2024-06-18,1,,,,,ルイレイ,0
1636,7120001266027,新規,0,2024-06-18,2024-06-18,株式会社プロロジスジャパン,,株式会社,大阪府,大阪市西成区,千本中１丁目４番１０号,,27,122,5570054,,,,,,,2024-06-18,1,,,,,プロロジスジャパン,0
1637,7120003026833,新規,0,2024-06-18,2024-06-18,合同会社ＬａｉＬｕｃｋ,,合同会社,大阪府,大阪市北区,大淀中２丁目１－２０ライオンズマンション新梅田２０３,,27,127,5310076,,,,,,,2024-06-18,1,,,,,ライラック,0
1638,7120003026858,新規,0,2024-06-18,2024-06-18,ＱｏＬ合同会社,,合同会社,大阪府,大阪市中央区,東心斎橋２丁目５番３号６１０号室,,27,128,5420083,,,,,,,2024-06-18,1,,,,,キューオーエル,0
1649,7130001077316,新規,0,2024-06-18,2024-06-18,株式会社ＡＧＲＩ‐ＰＡＳＳ,,株式会社,京都府,京田辺市,山手南２丁目６番地２,,26,211,6100354,,,,,,,2024-06-18,1,,,,,アグリパス,0
1657,7140001134768,新規,0,2024-06-18,2024-06-18,ＫＲＤ’ｓ株式会社,,株式会社,兵庫県,尼崎市,潮江１丁目６番５－３０１号,,28,202,6610976,,,,,,,2024-06-18,1,,,,,ケルディズ,0
1658,7140001134850,新規,0,2024-06-18,2024-06-18,株式会社アルゴル,,株式会社,兵庫県,神戸市中央区,中山手通１丁目５番８号東門ＩＮＢビルＢ１Ｆ,,28,110,6500004,,,,,,,2024-06-18,1,,,,,アルゴル,0
1659,7140003020719,新規,0,2024-06-18,2024-06-18,エリメンテナンス合同会社,,合同会社,兵庫県,宍粟市,山崎町野々上４１３,,28,227,6712528,,,,,,,2024-06-18,1,,,,,エリメンテナンス,0
1663,7170003002061,新規,0,2024-06-18,2024-06-18,合同会社スガノ,,合同会社,和歌山県,伊都郡かつらぎ町,大字山崎１２９,,30,341,6497131,,,,,,,2024-06-18,1,,,,,スガノ,0
1668,7180001162030,新規,0,2024-06-18,2024-06-18,株式会社ＵＮＩＣＯ,,株式会社,愛知県,名古屋市西区,花の木３丁目２番２１号,,23,104,4510062,,,,,,,2024-06-18,1,,,,,ウニコ,0
1669,7180001162039,新規,0,2024-06-18,2024-06-18,株式会社ＩＮＮＯＶＡＴＥ,,株式会社,愛知県,名古屋市中区,金山１丁目８番１５号三井金山ハイツ４０４号,,23,106,4600022,,,,,,,2024-06-18,1,,,,,イノベイト,0
1670,7180001162063,新規,0,2024-06-18,2024-06-18,株式会社富士,,株式会社,愛知県,名古屋市港区,小碓４丁目６５番地,,23,111,4550801,,,,,,,2024-06-18,1,,,,,フジ,0
1678,7190001031424,新規,0,2024-06-18,2024-06-18,Ｉ．Ｎ．Ｂ　Ａｒｃｈｉｔｅｃｔｓ株式会社,,株式会社,三重県,四日市市,羽津中２丁目２番４号,,24,202,5100002,,,,,,,2024-06-18,1,,,,,アイエヌビーアーキテクツ,0
1696,7260001039187,新規,0,2024-06-18,2024-06-18,秀久舗装株式会社,,株式会社,岡山県,倉敷市,福田町古新田２５３番地８,,33,202,7128046,,,,,,,2024-06-18,1,,,,,ヒデヒサホソウ,0
1704,7300003002139,新規,0,2024-06-18,2024-06-18,合同会社ＳＫファイナンシャル,,合同会社,佐賀県,鳥栖市,轟木町１２７８－９,,41,203,8410061,,,,,,,2024-06-18,1,,,,,,0
1740,7430001092053,新規,0,2024-06-18,2024-06-18,Ｒ＆Ｋホールディングス株式会社,,株式会社,北海道,札幌市清田区,北野四条５丁目５番５号,,01,110,0040864,,,,,,,2024-06-18,1,,,,,アールアンドケーホールディングス,0
1744,7470001020258,新規,0,2024-06-18,2024-06-18,株式会社ＳＳＣ,,株式会社,香川県,高松市,六条町１４１４番地７,,37,201,7610303,,,,,,,2024-06-18,1,,,,,エスエスシー,0
1758,7700150126022,新規,0,2024-06-18,2024-06-18,ＲＩＦＫＡ　ＡＵＴＯ　ＭＯＴＯＲＳ,,外国会社等,千葉県,八街市,八街い３２３番地１,,12,230,2891143,スリランカ民主社会主義共和国カハタガスディギリヤ、モスケ・ロード５０番,,,,,,2024-06-18,1,,,,,リフカオートモータース,0
1768,8010003044044,新規,0,2024-06-18,2024-06-18,合同会社首都圏レジ開発フォープロジェクト,,合同会社,東京都,千代田区,平河町１丁目６番１５号シルスフィア会計事務所内,,13,101,1020093,,,,,,,2024-06-18,1,,,,,シュトケンレジカイハツフォープロジェクト,0
1769,8010003044052,新規,0,2024-06-18,2024-06-18,ハッピーエス合同会社,,合同会社,東京都,中央区,銀座７丁目１３番６号サガミビル２階,,13,102,1040061,,,,,,,2024-06-18,1,,,,,ハッピーエス,0
1778,8010401183146,新規,0,2024-06-18,2024-06-18,加納ブランド株式会社,,株式会社,東京都,港区,白金１丁目２番１,,13,103,1080072,,,,,,,2024-06-18,1,,,,,カノウブランド,0
1779,8010401183195,新規,0,2024-06-18,2024-06-18,ドライバーズラウンジ株式会社,,株式会社,東京都,港区,浜松町２丁目７番１７号イーグル浜松町,,13,103,1050013,,,,,,,2024-06-18,1,,,,,ドライバーズラウンジ,0
1782,8010403032813,新規,0,2024-06-18,2024-06-18,合同会社ＬＩＥＮ,,合同会社,東京都,港区,芝２丁目１６番３号タイガーハウス芝公園４０２,,13,103,1050014,,,,,,,2024-06-18,1,,,,,リアン,0
1783,8010405023307,新規,0,2024-06-18,2024-06-18,一般社団法人相続情報センター,,その他の設立登記法人,東京都,港区,芝３丁目３４番１号芝パークタワー１８０１号室,,13,103,1050014,,,,,,,2024-06-18,1,,,,,ソウゾクジョウホウセンター,0
1784,8010405023315,新規,0,2024-06-18,2024-06-18,エムケーセブン特定目的会社,,その他の設立登記法人,東京都,港区,虎ノ門３丁目２２番１０－２０１号,,13,103,1050001,,,,,,,2024-06-18,1,,,,,エムケーセブン,0
1786,8010503007483,新規,0,2024-06-18,2024-06-18,合同会社ショップケース,,合同会社,東京都,台東区,今戸２丁目２６番１２－４０２号今戸住宅,,13,106,1110024,,,,,,,2024-06-18,1,,,,,ショップケース,0
1788,8010601065391,新規,0,2024-06-18,2024-06-18,鴻磊株式会社,,株式会社,東京都,墨田区,押上１丁目４１番６号,,13,107,1310045,,,,,,,2024-06-18,1,,,,,コウライ,0
1799,8010903009154,新規,0,2024-06-18,2024-06-18,松原産業合同会社,,合同会社,東京都,世田谷区,上北沢５丁目４５番１３号高木ビル３階,,13,112,1560057,,,,,,,2024-06-18,1,,,,,マツバラサンギョウ,0
1805,8011001162606,新規,0,2024-06-18,2024-06-18,株式会社トランジットオペレーションサービス,,株式会社,東京都,渋谷区,恵比寿４丁目２０番４号,,13,113,1500013,,,,,,,2024-06-18,1,,,,,トランジットオペレーションサービス,0
1828,8011701027364,新規,0,2024-06-18,2024-06-18,株式会社Ｒｅｂａｎｄ,,株式会社,東京都,江戸川区,西葛西６丁目２４－１アーバンシティプルミエ２０３,,13,123,1340088,,,,,,,2024-06-18,1,,,,,リバンド,0
1830,8011803006290,新規,0,2024-06-18,2024-06-18,ＭＫＲＧ合同会社,,合同会社,東京都,葛飾区,四つ木５丁目５－１０－３０２,,13,122,1240011,,,,,,,2024-06-18,1,,,,,エムケーアールジー,0
1838,8013301052684,新規,0,2024-06-18,2024-06-18,株式会社Ａｔｅｌｉｅｒ　Ｌｏ‐Ｆｉ,,株式会社,東京都,豊島区,西池袋１丁目１１－１メトロポリタンプラザビル１４Ｆ,,13,116,1710021,,,,,,,2024-06-18,1,,,,,アトリエローファイ,0
1839,8013303007182,新規,0,2024-06-18,2024-06-18,ウェルネスフードジャパン合同会社,,合同会社,東京都,豊島区,雑司が谷１丁目４９番１１－３０４号,,13,116,1710032,,,,,,,2024-06-18,1,,,,,ウェルネスフードジャパン,0
1845,8020001157177,新規,0,2024-06-18,2024-06-18,株式会社未来創建,,株式会社,神奈川県,横浜市南区,堀ノ内町２丁目２１２番地４,,14,105,2320042,,,,,,,2024-06-18,1,,,,,ミライソウケン,0
1846,8020001157689,新規,0,2024-06-18,2024-06-18,株式会社Ｋｉｎｇｆｉｓｈｅｒ,,株式会社,神奈川県,横浜市金沢区,富岡東１丁目３２番１４号,,14,108,2360051,,,,,,,2024-06-18,1,,,,,キングフィッシャー,0
1849,8020003026314,新規,0,2024-06-18,2024-06-18,Ｗｏｒｋ　Ｓｔｙｌｅ　Ｃｒｅａｔｉｏｎ合同会社,,合同会社,神奈川県,横浜市磯子区,岡村８丁目１３番１５号,,14,107,2350021,,,,,,,2024-06-18,1,,,,,ワークスタイルクリエイション,0
1850,8020003026330,新規,0,2024-06-18,2024-06-18,ＬＯＳＫＡ合同会社,,合同会社,神奈川県,横浜市青葉区,さつきが丘３２番地８,,14,117,2270053,,,,,,,2024-06-18,1,,,,,ロスカ,0
1855,8021003014655,新規,0,2024-06-18,2024-06-18,合同会社ＤＩＬＡＮ　ＡＵＴＯ,,合同会社,神奈川県,愛甲郡清川村,煤ヶ谷３０９９番地７,,14,402,2430112,,,,,,,2024-06-18,1,,,,,ディランオート,0
1858,8030001160989,新規,0,2024-06-18,2024-06-18,大田原興業株式会社,,株式会社,埼玉県,川越市,大字久下戸３０８３番地１０,,11,201,3500011,,,,,,,2024-06-18,1,,,,,オオタハラコウギョウ,0
1861,8030003024523,新規,0,2024-06-18,2024-06-18,Ｔｒｕｅ　Ｍａｎ　Ｔｒａｄｅｒｓ合同会社,,合同会社,埼玉県,行田市,門井町１丁目２０－３タチマンション２０５,,11,206,3610044,,,,,,,2024-06-18,1,,,,,トゥルーマントレーダーズ,0
1862,8030005021733,新規,0,2024-06-18,2024-06-18,一般社団法人なごみ,,その他の設立登記法人,埼玉県,さいたま市西区,大字指扇領別所３６６番地８１指扇マンション１階Ａ号室,,11,101,3310073,,,,,,,2024-06-18,1,,,,,ナゴミ,0
1866,8040001133952,新規,0,2024-06-18,2024-06-18,株式会社ＭＡＴＳＵＫＡＷＡ,,株式会社,千葉県,千葉市中央区,汐見ヶ丘町１３－１１ＡＩＭＵＮＩＦＥＲＳＥＢＬＤＧＣＨＩＢＡ３０１室,,12,101,2600000,,,,,,,2024-06-18,1,,,,,マツカワ,0
1870,8050003008466,新規,0,2024-06-18,2024-06-18,合同会社ウィステリア,,合同会社,茨城県,かすみがうら市,中志筑１４５７番地,,08,230,3150075,,,,,,,2024-06-18,1,,,,,ウィステリア,0
1874,8060001037202,新規,0,2024-06-18,2024-06-18,株式会社ＳＵＮＳ,,株式会社,栃木県,日光市,今市１４０９番地１,,09,206,3211261,,,,,,,2024-06-18,1,,,,,サンズ,0
1876,8080001026351,新規,0,2024-06-18,2024-06-18,株式会社ＲｅＨａｂｉｌｉｓ・Ｒａｙ,,株式会社,静岡県,島田市,本通４丁目３番９,,22,209,4270022,,,,,,,2024-06-18,1,,,,,リハビリズレイ,0
1878,8080103003083,新規,0,2024-06-18,2024-06-18,合同会社ソニック,,合同会社,静岡県,富士市,厚原６９番地の１,,22,210,4190201,,,,,,,2024-06-18,1,,,,,ソニック,0
1892,8120001265993,新規,0,2024-06-18,2024-06-18,一成株式会社,,株式会社,大阪府,大阪市中央区,日本橋１丁目３番１７号日本橋エンビィビル３Ａ,,27,128,5420073,,,,,,,2024-06-18,1,,,,,ヒトナリ,0
1893,8120003026849,新規,0,2024-06-18,2024-06-18,合同会社鳳翔企画,,合同会社,大阪府,大阪市浪速区,日本橋５丁目５番２０－３０２号,,27,111,5560005,,,,,,,2024-06-18,1,,,,,ホウショウキカク,0
1902,8122003002912,新規,0,2024-06-18,2024-06-18,合同会社ｋｅｅｐｒｉｃｈ,,合同会社,大阪府,東大阪市,森河内東１丁目３番１９号シャーメゾン高井田１０６号室,,27,227,5770062,,,,,,,2024-06-18,1,,,,,キープリッチ,0
1910,8130001077298,新規,0,2024-06-18,2024-06-18,株式会社牧原板金,,株式会社,京都府,京都市伏見区,桃山町大島３５７番地,,26,109,6128006,,,,,,,2024-06-18,1,,,,,マキハラバンキン,0
1911,8130001077315,新規,0,2024-06-18,2024-06-18,株式会社ＡＳ,,株式会社,京都府,京都市伏見区,深草泓ノ壺町１０－３コーポ清水１０１,,26,109,6128435,,,,,,,2024-06-18,1,,,,,アズ,0
1913,8130003009646,新規,0,2024-06-18,2024-06-18,合同会社ｖｉｅｗ　ｔｈｅ　ｈｏｒｉｚｏｎ,,合同会社,京都府,京都市左京区,下鴨松原町２９－１３ジュエリーハイツ１０１,,26,103,6060804,,,,,,,2024-06-18,1,,,,,ビューザホライズン,0
1917,8150003003283,新規,0,2024-06-18,2024-06-18,ＣＭＡＳ　ＪＡＰＡＮ合同会社,,合同会社,奈良県,生駒郡斑鳩町,稲葉西１丁目１１番１２号,,29,344,6360144,,,,,,,2024-06-18,1,,,,,,0
1921,8180001162013,新規,0,2024-06-18,2024-06-18,株式会社ｉｎＢＡＳＥ,,株式会社,愛知県,海部郡大治町,大字花常字福島５３番地,,23,424,4901136,,,,,,,2024-06-18,1,,,,,インベース,0
1922,8180001162046,新規,0,2024-06-18,2024-06-18,株式会社ＳＯＩ,,株式会社,愛知県,大府市,柊山町２丁目４５５ワイズコンドミニアム２０７号,,23,223,4740053,,,,,,,2024-06-18,1,,,,,エスオーアイ,0
1928,8180301038739,新規,0,2024-06-18,2024-06-18,株式会社ＧＫ,,株式会社,愛知県,蒲郡市,形原町港町１６３番地,,23,214,4430104,,,,,,,2024-06-18,1,,,,,ジーケー,0
1929,8180301038747,新規,0,2024-06-18,2024-06-18,株式会社ＰＵＣＣＩ,,株式会社,愛知県,岡崎市,美合町字沢渡５２番地１,,23,202,4440802,,,,,,,2024-06-18,1,,,,,プッチ,0
1931,8180305009579,新規,0,2024-06-18,2024-06-18,医療法人大山内科クリニック,,その他の設立登記法人,愛知県,豊川市,東曙町３３番地,,23,207,4420011,,,,,,,2024-06-18,1,,,,,オオヤマナイカクリニック,0
1945,8240001063394,新規,0,2024-06-18,2024-06-18,イチハ・ネットワークス株式会社,,株式会社,広島県,広島市中区,吉島西１丁目１７番２１－１０２号,,34,101,7300823,,,,,,,2024-06-18,1,,,,,イチハネットワークス,0
1950,8240003006723,新規,0,2024-06-18,2024-06-18,合同会社Ａｃｅ,,合同会社,広島県,福山市,曙町２丁目２２番１６号パーク曙Ｂ２０２,,34,207,7210952,,,,,,,2024-06-18,1,,,,,エース,0
1952,8250003003521,新規,0,2024-06-18,2024-06-18,合同会社ななほし,,合同会社,山口県,周南市,江の宮町７番２８号,,35,215,7450826,,,,,,,2024-06-18,1,,,,,ナナホシ,0
1955,8260001039186,新規,0,2024-06-18,2024-06-18,かさしんキャピタル株式会社,,株式会社,岡山県,笠岡市,笠岡２３８８番地４０,,33,205,7140081,,,,,,,2024-06-18,1,,,,,カサシンキャピタル,0
1956,8260001039194,新規,0,2024-06-18,2024-06-18,株式会社ティーアールコーポレーション,,株式会社,岡山県,岡山市中区,門田本町３丁目１番４号６０１,,33,102,7038274,,,,,,,2024-06-18,1,,,,,ティーアールコーポレーション,0
1958,8290001106198,新規,0,2024-06-18,2024-06-18,株式会社日本タクミ建設,,株式会社,福岡県,福岡市中央区,黒門３番１９号,,40,133,8100055,,,,,,,2024-06-18,1,,,,,ニホンタクミケンセツ,0
1959,8290001106231,新規,0,2024-06-18,2024-06-18,株式会社Ｒｅｃｏｖｅｒｙ　Ｔｉｍｅ,,株式会社,福岡県,春日市,春日６丁目７番地,,40,218,8160814,,,,,,,2024-06-18,1,,,,,リカバリータイム,0
1965,8320001020544,新規,0,2024-06-18,2024-06-18,ＪＴＣ　ＨＤ株式会社,,株式会社,大分県,別府市,田の湯町１０番１８号サンパーク別府駅前レジデンス６０４,,44,202,8740909,,,,,,,2024-06-18,1,,,,,ジェイティーシーホールディングス,0
1966,8330001032175,新規,0,2024-06-18,2024-06-18,メイ株式会社,,株式会社,熊本県,菊池郡菊陽町,新山１丁目７‐８,,43,404,8691109,,,,,,,2024-06-18,1,,,,,メイ,0
1968,8330003010427,新規,0,2024-06-18,2024-06-18,合同会社Ｂ・Ａ,,合同会社,熊本県,荒尾市,野原９０８番７,,43,204,8640163,,,,,,,2024-06-18,1,,,,,ビーエイ,0
1973,8340001026564,新規,0,2024-06-18,2024-06-18,株式会社西隆鉄工,,株式会社,鹿児島県,奄美市,住用町大字見里３４５番地,,46,222,8941113,,,,,,,2024-06-18,1,,,,,ニシタカテッコウ,0
1976,8340005009747,新規,0,2024-06-18,2024-06-18,一般社団法人鹿児島県トライアスロン協会,,その他の設立登記法人,鹿児島県,鹿児島市,宇宿４丁目１６番６号,,46,201,8900073,,,,,,,2024-06-18,1,,,,,カゴシマケントライアスロンキョウカイ,0
1977,8350003004674,新規,0,2024-06-18,2024-06-18,合同会社ＲＥＤＨＡＷＫ,,合同会社,宮崎県,延岡市,野地町４丁目３５３６番地１スピリットクロキ１０２,,45,203,8820802,,,,,,,2024-06-18,1,,,,,レッドホーク,0
1987,8380001034596,新規,0,2024-06-18,2024-06-18,信夫山・東光グリーン発電株式会社,,株式会社,福島県,福島市,松山町２５番地,,07,201,9608228,,,,,,,2024-06-18,1,,,,,シノブヤマトウコウグリーンハツデン,0
1988,8380001034613,新規,0,2024-06-18,2024-06-18,株式会社Ｂｌｏｏｍ,,株式会社,福島県,いわき市,平字堂根町１番地の１１,,07,204,9708026,,,,,,,2024-06-18,1,,,,,ブルーム,0
1998,8430001092044,新規,0,2024-06-18,2024-06-18,株式会社オフィスＫ,,株式会社,北海道,伊達市,舟岡町６１番地６１,,01,233,0520014,,,,,,,2024-06-18,1,,,,,オフィスケー,0
2004,8470001020257,新規,0,2024-06-18,2024-06-18,株式会社塩佐,,株式会社,香川県,小豆郡小豆島町,苗羽甲１４２２番１号,,37,324,7614421,,,,,,,2024-06-18,1,,,,,シオサ,0
2010,8700150125808,新規,0,2024-06-18,2024-06-07,小垣江自治会,,その他,愛知県,刈谷市,小垣江町清水２５－１４,,23,210,4480813,,,,,,,2024-06-07,1,,,,,オガキエジチカイ,0
2026,9010401182808,新規,0,2024-06-18,2024-06-18,株式会社ＳｉＭｏＭｕ,,株式会社,東京都,港区,西麻布２丁目２３番１６号西麻布オークテラス１０２,,13,103,1060031,,,,,,,2024-06-18,1,,,,,シモムー,0
2027,9010401183129,新規,0,2024-06-18,2024-06-18,株式会社朝,,株式会社,東京都,港区,北青山１丁目３番１号アールキューブ青山３階,,13,103,1070061,,,,,,,2024-06-18,1,,,,,アサ,0
2028,9010401183203,新規,0,2024-06-18,2024-06-18,株式会社はせがわ酒店ホールディングス,,株式会社,東京都,港区,芝２丁目５番７号４階,,13,103,1050014,,,,,,,2024-06-18,1,,,,,ハセガワサケテンホールディングス,0
2033,9010405023314,新規,0,2024-06-18,2024-06-18,エムケーシックス特定目的会社,,その他の設立登記法人,東京都,港区,虎ノ門３丁目２２番１０－２０１号,,13,103,1050001,,,,,,,2024-06-18,1,,,,,エムケーシックス,0
2038,9010703007225,新規,0,2024-06-18,2024-06-18,Ｒａｙ　ｏｆ　ｌｉｇｈｔ合同会社,,合同会社,東京都,品川区,西五反田３丁目１５番６号リードシー目黒不動前,,13,109,1410031,,,,,,,2024-06-18,1,,,,,レイオブライト,0
2045,9010801035152,新規,0,2024-06-18,2024-06-18,株式会社さも,,株式会社,東京都,大田区,矢口１丁目５番１５号マ・メゾンＶ３０１,,13,111,1460093,,,,,,,2024-06-18,1,,,,,サモ,0
2046,9010803004989,新規,0,2024-06-18,2024-06-18,ワントップ合同会社,,合同会社,東京都,大田区,田園調布２丁目６１番１－５０２号,,13,111,1450071,,,,,,,2024-06-18,1,,,,,ワントップ,0
2053,9011001162704,新規,0,2024-06-18,2024-06-18,株式会社開眼,,株式会社,東京都,渋谷区,代官山町１１番７号,,13,113,1500034,,,,,,,2024-06-18,1,,,,,カイゲン,0
2065,9011401026153,新規,0,2024-06-18,2024-06-18,株式会社中信国際,,株式会社,東京都,板橋区,大山東町３２－１８ルイ・ステージ大山３０１,,13,119,1730014,,,,,,,2024-06-18,1,,,,,チュウシンコクサイ,0
2071,9011603004361,新規,0,2024-06-18,2024-06-18,合同会社ＪＡＣＰＯＴＡＵＤＩＯ,,合同会社,東京都,練馬区,高松６丁目１０番９号,,13,120,1790075,,,,,,,2024-06-18,1,,,,,ジャックポットオーディオ,0
2075,9011801044390,新規,0,2024-06-18,2024-06-18,株式会社Ｔ　Ａｒｒｏｗｓ,,株式会社,東京都,足立区,保木間５丁目１９番６号,,13,121,1210064,,,,,,,2024-06-18,1,,,,,スリーアローズ,0
2076,9012401042000,新規,0,2024-06-18,2024-06-18,株式会社ａｃｅｒｏ,,株式会社,東京都,武蔵野市,吉祥寺本町４丁目２２番１５オーパスレジデンス吉祥寺２０６,,13,203,1800004,,,,,,,2024-06-18,1,,,,,アチェロ,0
2077,9012403006614,新規,0,2024-06-18,2024-06-18,合同会社ＭＪＭ　ＴＯＫＹＯ,,合同会社,東京都,小金井市,前原町２丁目１４番２８号,,13,210,1840013,,,,,,,2024-06-18,1,,,,,エムジェイエムトウキョウ,0
2078,9012403006630,新規,0,2024-06-18,2024-06-18,ＤＯＣＨＩ合同会社,,合同会社,東京都,多摩市,貝取２丁目１２‐４‐３０４,,13,224,2060012,,,,,,,2024-06-18,1,,,,,ドウチ,0
2083,9020001157663,新規,0,2024-06-18,2024-06-18,ジャパンフジカイジマシナリー株式会社,,株式会社,神奈川県,横浜市中区,若葉町３丁目４６番の１サンクレイドル横濱伊勢佐木３０４,,14,104,2310056,,,,,,,2024-06-18,1,,,,,ジャパンフジカイジマシナリー,0
2084,9020001157671,新規,0,2024-06-18,2024-06-18,株式会社ＭＤヨコハマ,,株式会社,神奈川県,横浜市中区,末吉町３丁目４５番地,,14,104,2310055,,,,,,,2024-06-18,1,,,,,エムディーヨコハマ,0
2085,9020001157696,新規,0,2024-06-18,2024-06-18,株式会社神奈川総合,,株式会社,神奈川県,横浜市旭区,鶴ケ峰２丁目２７番地２－１階,,14,112,2410022,,,,,,,2024-06-18,1,,,,,カナガワソウゴウ,0
2086,9020001157713,新規,0,2024-06-18,2024-06-18,株式会社ごほうび,,株式会社,神奈川県,横浜市中区,野毛町１丁目３７番地１－２Ｆ,,14,104,2310064,,,,,,,2024-06-18,1,,,,,ゴホウビ,0
2089,9020003026379,新規,0,2024-06-18,2024-06-18,Ｌｏｔｕｓ　Ｂｌｏｓｓｏｍ合同会社,,合同会社,神奈川県,横浜市神奈川区,栄町６番地１ヨコハマポートサイドロア弐番館３０２号,,14,102,2210052,,,,,,,2024-06-18,1,,,,,ロータスブロッサム,0
2090,9020005016460,新規,0,2024-06-18,2024-06-18,一般社団法人落語立川流,,その他の設立登記法人,神奈川県,川崎市宮前区,有馬１丁目２２番１９－５０１号,,14,136,2160003,,,,,,,2024-06-18,1,,,,,ラクゴタテカワリュウ,0
2094,9021003014654,新規,0,2024-06-18,2024-06-18,合同会社ｔａｓｔｏ,,合同会社,神奈川県,横須賀市,二葉２丁目２４番４６号,,14,201,2390814,,,,,,,2024-06-18,1,,,,,タスト,0
2098,9030001160947,新規,0,2024-06-18,2024-06-18,株式会社Ｌｏｐｅ,,株式会社,埼玉県,所沢市,東町１１番１号グラシスタワー１０４,,11,208,3591116,,,,,,,2024-06-18,1,,,,,ロペ,0
2099,9030001160963,新規,0,2024-06-18,2024-06-18,株式会社海空建設,,株式会社,埼玉県,三郷市,中央１丁目３３番地２５しあわせ空間Ｂ,,11,237,3410038,,,,,,,2024-06-18,1,,,,,カイトケンセツ,0
2102,9030003024506,新規,0,2024-06-18,2024-06-18,リンキーズ合同会社,,合同会社,埼玉県,さいたま市浦和区,岸町１丁目１４番１１－３号,,11,107,3300064,,,,,,,2024-06-18,1,,,,,リンキーズ,0
2103,9030003024522,新規,0,2024-06-18,2024-06-18,ＴＨＡＮＩＭＡＩ合同会社,,合同会社,埼玉県,入間郡三芳町,大字藤久保７５－１５,,11,324,3540041,,,,,,,2024-06-18,1,,,,,タニマイ,0
2106,9040001134116,新規,0,2024-06-18,2024-06-18,株式会社イープラン,,株式会社,千葉県,富津市,長崎３２８番地２,,12,226,2991611,,,,,,,2024-06-18,1,,,,,イープラン,0
2107,9040001134124,新規,0,2024-06-18,2024-06-18,ＡＭＥ株式会社,,株式会社,千葉県,市川市,八幡２丁目９－１５ブロッサムフォーラム市川Ｃ－４８,,12,203,2720021,,,,,,,2024-06-18,1,,,,,アメ,0
2110,9040003025230,新規,0,2024-06-18,2024-06-18,合同会社京都メディカルテクノロジー販売,,合同会社,千葉県,野田市,目吹１４７５番地,,12,208,2780001,,,,,,,2024-06-18,1,,,,,キョウトメディカルテクノロジーハンバイ,0
2115,9050003008457,新規,0,2024-06-18,2024-06-18,合同会社シンシアリー,,合同会社,茨城県,日立市,千石町３丁目６番９号,,08,202,3160013,,,,,,,2024-06-18,1,,,,,シンシアリー,0
2118,9070001041879,新規,0,2024-06-18,2024-06-18,パーツデザイン佐藤株式会社,,株式会社,群馬県,高崎市,矢島町７１２番地４,,10,202,3700016,,,,,,,2024-06-18,1,,,,,パーツデザインサトウ,0
2122,9080401027246,新規,0,2024-06-18,2024-06-18,ＩＮＤＥＮファーム株式会社,,株式会社,静岡県,浜松市浜名区,三ヶ日町三ヶ日１０４番の２,,22,139,4311414,,,,,,,2024-06-18,1,,,,,インデンファーム,0
2123,9080403005035,新規,0,2024-06-18,2024-06-18,合同会社ぱるぱる,,合同会社,静岡県,御前崎市,池新田５１６５番地の１,,22,223,4371612,,,,,,,2024-06-18,1,,,,,パルパル,0
2126,9090001018776,新規,0,2024-06-18,2024-06-18,株式会社カクマ工業,,株式会社,山梨県,中巨摩郡昭和町,河西１６０７番地４,,19,384,4093851,,,,,,,2024-06-18,1,,,,,カクマコウギョウ,0
2131,9100001037576,新規,0,2024-06-18,2024-06-18,株式会社ｓｏｉｌ,,株式会社,長野県,諏訪郡原村,５２５２番地１,,20,363,3910100,,,,,,,2024-06-18,1,,,,,ソイル,0
2138,9120001265712,新規,0,2024-06-18,2024-06-18,一商店株式会社,,株式会社,大阪府,大阪市西区,京町堀２丁目７番１６－８０３号,,27,106,5500003,,,,,,,2024-06-18,1,,,,,ハジメショウテン,0
2139,9120001265910,新規,0,2024-06-18,2024-06-18,Ｍ＆Ｋ株式会社,,株式会社,大阪府,大阪市住吉区,遠里小野１丁目４番２６号３０７室,,27,120,5580032,,,,,,,2024-06-18,1,,,,,エムアンドケイ,0
2140,9120001265943,新規,0,2024-06-18,2024-06-18,日本企業サポート株式会社,,株式会社,大阪府,大阪市西区,立売堀２丁目５－４１合田ビル８０５号,,27,106,5500012,,,,,,,2024-06-18,1,,,,,ニホンキギョウサポート,0
2141,9120001265992,新規,0,2024-06-18,2024-06-18,福吉株式会社,,株式会社,大阪府,大阪市中央区,高津１丁目１－４１、２Ｆ,,27,128,5420072,,,,,,,2024-06-18,1,,,,,フクヨシ,0
2143,9120003026856,新規,0,2024-06-18,2024-06-18,合同会社悟,,合同会社,大阪府,大阪市阿倍野区,天王寺町南２丁目２２番１９号ラッキーセンター河堀口２０３号,,27,119,5450002,,,,,,,2024-06-18,1,,,,,サトリ,0
2144,9120003026864,新規,0,2024-06-18,2024-06-18,合同会社ＧＡＲＤＥＮ,,合同会社,大阪府,大阪市北区,本庄西３丁目１３－４ＭＲＭ北梅田２０１,,27,127,5310073,,,,,,,2024-06-18,1,,,,,ガーデン,0
2145,9120003026872,新規,0,2024-06-18,2024-06-18,ＨＳＹ合同会社,,合同会社,大阪府,大阪市中央区,南船場４丁目１０番５号南船場ＳＯＨＯビル７０２,,27,128,5420081,,,,,,,2024-06-18,1,,,,,エッチエスワイ,0
2146,9120005024379,新規,0,2024-06-18,2024-06-18,特定非営利活動法人プレイス,,その他の設立登記法人,大阪府,大阪市東成区,玉津２丁目１７番１８－３０６号,,27,115,5370023,,,,,,,2024-06-18,1,,,,,プレイス,0
2148,9120101069798,新規,0,2024-06-18,2024-06-18,株式会社Ｗｈｉｔｅ　Ｃｒｏｗ,,株式会社,大阪府,泉佐野市,上町１丁目４番１０号,,27,213,5980007,,,,,,,2024-06-18,1,,,,,ホワイトクロウ,0
2158,9122001038197,新規,0,2024-06-18,2024-06-18,株式会社光,,株式会社,大阪府,東大阪市,川田２丁目２６番４号,,27,227,5780905,,,,,,,2024-06-18,1,,,,,ミツ,0
2159,9122003002911,新規,0,2024-06-18,2024-06-18,合同会社Ａｔｅｌｉｅｒ　Ｓ,,合同会社,大阪府,東大阪市,上石切町２丁目１８番３号,,27,227,5798012,,,,,,,2024-06-18,1,,,,,アトリエエス,0
2162,9130001077314,新規,0,2024-06-18,2024-06-18,株式会社アールアイ,,株式会社,京都府,京都市西京区,松室山添町１６番地１０,,26,111,6158296,,,,,,,2024-06-18,1,,,,,アールアイ,0
2165,9130005017118,新規,0,2024-06-18,2024-06-18,一般社団法人ソノリテ,,その他の設立登記法人,京都府,京都市左京区,高野竹屋町３７－３－５０４,,26,103,6068104,,,,,,,2024-06-18,1,,,,,ソノリテ,0
2170,9140001134816,新規,0,2024-06-18,2024-06-18,株式会社Ｉｒｉｓ,,株式会社,兵庫県,神戸市北区,藤原台北町１丁目１番６号パルビル２０２,,28,109,6511301,,,,,,,2024-06-18,1,,,,,アイリス,0
2171,9140001134849,新規,0,2024-06-18,2024-06-18,株式会社デネブ,,株式会社,兵庫県,神戸市中央区,中山手通１丁目１７番６号北野フェニックスビルＢ１Ｆ,,28,110,6500004,,,,,,,2024-06-18,1,,,,,デネブ,0
2173,9140005027116,新規,0,2024-06-18,2024-06-18,一般社団法人Ｌｉｂｅｒｔａｓ,,その他の設立登記法人,兵庫県,丹波市,山南町南中１１５番地４,,28,223,6693146,,,,,,,2024-06-18,1,,,,,リベルタス,0
2179,9180001162045,新規,0,2024-06-18,2024-06-18,くろうとらんど株式会社,,株式会社,愛知県,名古屋市南区,内田橋１丁目６番２号,,23,112,4570862,,,,,,,2024-06-18,1,,,,,クロウトランド,0
2190,9200001042599,新規,0,2024-06-18,2024-06-18,株式会社ＸＩＡｔａｓ,,株式会社,岐阜県,岐阜市,鹿島町１丁目１０番地加藤第二ビル４階,,21,201,5008323,,,,,,,2024-06-18,1,,,,,シアタス,0
2200,9230001020395,新規,0,2024-06-18,2024-06-18,株式会社ＥｎｅｓｏＬ,,株式会社,富山県,高岡市,御旅屋町１０１番地御旅屋セリオ４Ｆ,,16,202,9330029,,,,,,,2024-06-18,1,,,,,エネソル,0
2238,9350003004673,新規,0,2024-06-18,2024-06-18,合同会社ゴールドウィン,,合同会社,宮崎県,宮崎市,下北方町戸林５２５８番地１６,,45,201,8800035,,,,,,,2024-06-18,1,,,,,ゴールドウィン,0
2241,9370001051435,新規,0,2024-06-18,2024-06-18,株式会社ジェクト,,株式会社,宮城県,亘理郡山元町,鷲足字山崎３５－１,,04,362,9892204,,,,,,,2024-06-18,1,,,,,ジェクト,0
2242,9380001034620,新規,0,2024-06-18,2024-06-18,平安享株式会社,,株式会社,福島県,大沼郡昭和村,大字下中津川字二十苅１８７番地１,,07,446,9680103,,,,,,,2024-06-18,1,,,,,ヘイアンキョウ,0
2245,9390001017640,新規,0,2024-06-18,2024-06-18,肇建材株式会社,,株式会社,山形県,鶴岡市,文下字久保田１番地文下館Ｂ,,06,203,9970003,,,,,,,2024-06-18,1,,,,,ハジメケンザイ,0
2246,9390001017657,新規,0,2024-06-18,2024-06-18,株式会社ボンソワールＴＶ,,株式会社,山形県,酒田市,東泉町１丁目１３－１２,,06,204,9980013,,,,,,,2024-06-18,1,,,,,ボンソワールティーヴィー,0
2260,9470003002665,新規,0,2024-06-18,2024-06-18,合同会社Ｙ２ＢＬＥＮＤ　ＬＬＣ,,合同会社,香川県,高松市,東山崎町２７７番地３,,37,201,7610312,,,,,,,2024-06-18,1,,,,,ワイツーブレンドエルエルシー,0
