sequenceNumber,corporateNumber,process,correct,updateDate,changeDate,name,nameImageId,kind,prefectureName,cityName,streetNumber,addressImageId,prefectureCode,cityCode,postCode,addressOutside,addressOutsideImageId,closeDate,closeCause,successorCorporateNumber,changeCause,assignmentDate,latest,enName,enPrefectureName,enCityName,enAddressOutside,furigana,hihyoji
2,1010001225197,新規,0,2022-03-16,2022-03-16,株式会社ＬＩＧＩＴＡＬ,,株式会社,東京都,千代田区,内幸町２丁目１番１号飯野ビルディング９Ｆ,,13,101,1000011,,,,,,,2022-03-16,1,,,,,リジタル,0
3,1010001225255,新規,0,2022-03-16,2022-03-16,株式会社ＰｒｏＦＡＳ,,株式会社,東京都,中央区,京橋３丁目１番１号,,13,102,1040031,,,,,,,2022-03-16,1,,,,,プロファス,0
5,1010003037211,新規,0,2022-03-16,2022-03-16,合同会社Ｒｅｓｉｌｉｅｎｃｅ　ＩＩ,,合同会社,東京都,中央区,銀座１丁目６番１１号土志田ビルディング３Ｆ,,13,102,1040061,,,,,,,2022-03-16,1,,,,,レジリエンスツー,0
6,1010003037244,新規,0,2022-03-16,2022-03-16,ＴＡＳＳＥＬ合同会社,,合同会社,東京都,中央区,銀座１丁目２２番１１号銀座大竹ビジデンス２階,,13,102,1040061,,,,,,,2022-03-16,1,,,,,タッセル,0
7,1010005034743,新規,0,2022-03-16,2022-03-16,一般社団法人国際障害者支援協会,,その他の設立登記法人,東京都,千代田区,丸の内１丁目８番３号,,13,101,1000005,,,,,,,2022-03-16,1,,,,,コクサイショウガイシャシエンキョウカイ,0
9,1010401166149,新規,0,2022-03-16,2022-03-16,チルウィズ株式会社,,株式会社,東京都,港区,南青山１丁目１５番２号越山ビル５階,,13,103,1070062,,,,,,,2022-03-16,1,,,,,チルウィズ,0
10,1010401166181,新規,0,2022-03-16,2022-03-16,Ｓａｎｄ　Ｓｔｏｎｅ株式会社,,株式会社,東京都,港区,赤坂４丁目１０番１９号,,13,103,1070052,,,,,,,2022-03-16,1,,,,,サンドストーン,0
11,1010401166231,新規,0,2022-03-16,2022-03-16,株式会社Ｒｅａｄｉｎｅｓｓｓ,,株式会社,東京都,港区,芝浦３丁目１７番１１号,,13,103,1080023,,,,,,,2022-03-16,1,,,,,レディネス,0
13,1010403027282,新規,0,2022-03-16,2022-03-16,Ｍｉｌｌｅ　Ｇａｇｎｅｒ合同会社,,合同会社,東京都,港区,六本木７丁目７番７号Ｔｒｉ－ＳｅｖｅｎＲｏｐｐｏｎｇｉ８階,,13,103,1060032,,,,,,,2022-03-16,1,,,,,ミルガニエ,0
14,1010405020806,新規,0,2022-03-16,2022-03-16,ＦＳＰ２６一般社団法人,,その他の設立登記法人,東京都,港区,虎ノ門４丁目１番２８号,,13,103,1050001,,,,,,,2022-03-16,1,,,,,エフエスピーニジュウロク,0
29,1010903007230,新規,0,2022-03-16,2022-03-16,のがわパートナーズ合同会社,,合同会社,東京都,世田谷区,奥沢３丁目２２番１５号,,13,112,1580083,,,,,,,2022-03-16,1,,,,,ノガワパートナーズ,0
33,1011001146326,新規,0,2022-03-16,2022-03-16,ａｒｔｉｃａｌ株式会社,,株式会社,東京都,渋谷区,恵比寿２丁目２８番１０号,,13,113,1500013,,,,,,,2022-03-16,1,,,,,アーティカル,0
37,1011205002481,新規,0,2022-03-16,2022-03-16,医療法人社団流美会,,その他の設立登記法人,東京都,中野区,弥生町３丁目９番２０号ＭＯＡしらかわ２階,,13,114,1640013,,,,,,,2022-03-16,1,,,,,リュウビカイ,0
44,1011601025805,新規,0,2022-03-16,2022-03-16,ＡＦＬ　Ｐａｒｔｎｅｒｓ株式会社,,株式会社,東京都,練馬区,錦１丁目３４－１２－２０４,,13,120,1790082,,,,,,,2022-03-16,1,,,,,エイエフエルパートナーズ,0
46,1011801040447,新規,0,2022-03-16,2022-03-16,株式会社アルゴノゥト,,株式会社,東京都,足立区,竹の塚４丁目２番１号ＴＢビル５階,,13,121,1210813,,,,,,,2022-03-16,1,,,,,アルゴノゥト,0
49,1012701016982,新規,0,2022-03-16,2022-03-16,Ｗｉｎｄ　Ｅｎｅｒｇｙ　Ｓｙｓｔｅｍ　ＪＡＰＡＮ株式会社,,株式会社,東京都,東村山市,富士見町１丁目２番地４６ファインシティ武蔵野富士見６１３,,13,213,1890024,,,,,,,2022-03-16,1,,,,,ウィンドエナジーシステムジャパン,0
56,1020001145460,新規,0,2022-03-16,2022-03-16,株式会社リレイブ,,株式会社,神奈川県,横浜市港北区,新羽町１８７１－２４,,14,109,2230057,,,,,,,2022-03-16,1,,,,,リレイブ,0
64,1021001075433,新規,0,2022-03-16,2022-03-16,株式会社ｌｅｇａｍｅ,,株式会社,神奈川県,小田原市,堀之内１１０番地の２ベルデュール３０３号,,14,206,2500853,,,,,,,2022-03-16,1,,,,,レガーメ,0
65,1021001075441,新規,0,2022-03-16,2022-03-16,株式会社ＩｎＢｕｓｉＢｕｌｌ,,株式会社,神奈川県,厚木市,妻田東３丁目１０番地３６－３０３,,14,212,2430813,,,,,,,2022-03-16,1,,,,,インビシブル,0
76,1030001147290,新規,0,2022-03-16,2022-03-16,ハルオ商事株式会社,,株式会社,埼玉県,川口市,金山町１３番７－４０４号ライオンズマンション川口南,,11,203,3320014,,,,,,,2022-03-16,1,,,,,ハルオショウジ,0
85,1040001122581,新規,0,2022-03-16,2022-03-16,株式会社ＳＩＴＯ,,株式会社,千葉県,市原市,不入斗１１８１番地１３,,12,219,2990115,,,,,,,2022-03-16,1,,,,,シトー,0
86,1040001122631,新規,0,2022-03-16,2022-03-16,株式会社鈴木総業,,株式会社,千葉県,千葉市緑区,あすみが丘東５丁目１０－１ローズマリー２０３号,,12,105,2670067,,,,,,,2022-03-16,1,,,,,スズキソウギョウ,0
89,1040003019685,新規,0,2022-03-16,2022-03-16,やわラボ合同会社,,合同会社,千葉県,千葉市若葉区,小倉町７３６番地２０,,12,104,2640007,,,,,,,2022-03-16,1,,,,,ヤワラボ,0
93,1050001050773,新規,0,2022-03-16,2022-03-16,株式会社ＴＯＰ　ＥＮＥＲＧＹ,,株式会社,茨城県,つくば市,西高野８０７番地１３,,08,220,3002613,,,,,,,2022-03-16,1,,,,,トップエナジー,0
105,1080401025686,新規,0,2022-03-16,2022-03-16,株式会社ｓｏｃｉｏ‐ｐｌｕｓ,,株式会社,静岡県,掛川市,二瀬川３番２０号,,22,213,4360042,,,,,,,2022-03-16,1,,,,,ソシオプラス,0
106,1090001017471,新規,0,2022-03-16,2022-03-16,株式会社ＦＴＮ,,株式会社,山梨県,都留市,朝日曽雌４０番地,,19,204,4020015,,,,,,,2022-03-16,1,,,,,エフティーエヌ,0
109,1100001035158,新規,0,2022-03-16,2022-03-16,株式会社ライヴ,,株式会社,長野県,松本市,鎌田１丁目６番１３号ｃａｎａｌ鎌田１０２,,20,202,3900837,,,,,,,2022-03-16,1,,,,,ライヴ,0
112,1110001036510,新規,0,2022-03-16,2022-03-16,株式会社Ｒｏｎｎｅｃｔ,,株式会社,新潟県,新潟市江南区,天野３丁目３２－２０,,15,104,9501134,,,,,,,2022-03-16,1,,,,,ロネクト,0
113,1110003004721,新規,0,2022-03-16,2022-03-16,ヤヘドン合同会社,,合同会社,新潟県,新潟市中央区,天神１丁目１番地プラーカ３,,15,103,9500917,,,,,,,2022-03-16,1,,,,,ヤヘドン,0
131,1120001244483,新規,0,2022-03-16,2022-03-16,株式会社ＢＡＮＤＥ,,株式会社,大阪府,枚方市,杉責谷１丁目５７４番地の２,,27,210,5730116,,,,,,,2022-03-16,1,,,,,バンデ,0
140,1122001035672,新規,0,2022-03-16,2022-03-16,株式会社Ｔｉｅｓ,,株式会社,大阪府,柏原市,平野１丁目１２番８号,,27,221,5820019,,,,,,,2022-03-16,1,,,,,タイズ,0
141,1122001035680,新規,0,2022-03-16,2022-03-16,アイドル株式会社,,株式会社,大阪府,八尾市,刑部４丁目４０７番地の３,,27,212,5810015,,,,,,,2022-03-16,1,,,,,アイドル,0
149,1140001125302,新規,0,2022-03-16,2022-03-16,和勝株式会社,,株式会社,兵庫県,丹波市,青垣町大稗６０１－２,,28,223,6693823,,,,,,,2022-03-16,1,,,,,ワショウ,0
151,1150001025410,新規,0,2022-03-16,2022-03-16,株式会社いろえんぴつ,,株式会社,奈良県,大和郡山市,西岡町６番６号,,29,203,6391014,,,,,,,2022-03-16,1,,,,,イロエンピツ,0
154,1160001024048,新規,0,2022-03-16,2022-03-16,株式会社髪と福祉と着物とで,,株式会社,滋賀県,米原市,春照１９３５番１号,,25,214,5210314,,,,,,,2022-03-16,1,,,,,カミトフクシトキモノトデ,0
161,1180001150379,新規,0,2022-03-16,2022-03-16,華成株式会社,,株式会社,愛知県,一宮市,木曽川町門間字南島海２７,,23,203,4930002,,,,,,,2022-03-16,1,,,,,カセイ,0
162,1180001150412,新規,0,2022-03-16,2022-03-16,株式会社ＪＵＳＴＩＣＥ　ＡＳＩＡ　ＭＡＮＡＧＥＭＥＮＴ　ＳＥＲＶＩＣＥ,,株式会社,愛知県,名古屋市北区,大曽根３丁目１０番７号リニアビル４階,,23,103,4620825,,,,,,,2022-03-16,1,,,,,ジャスティスアジアマネジメントサービス,0
163,1180003023616,新規,0,2022-03-16,2022-03-16,合同会社ことねこみち,,合同会社,愛知県,名古屋市天白区,中平４丁目９０２番地（パークヒルズ中平Ａ棟２０３号）,,23,116,4680014,,,,,,,2022-03-16,1,,,,,コトネコミチ,0
165,1180301036022,新規,0,2022-03-16,2022-03-16,株式会社Ｎ３Ｃ,,株式会社,愛知県,刈谷市,幸町２丁目５番地７,,23,210,4480025,,,,,,,2022-03-16,1,,,,,エヌサンシー,0
169,1200001039850,新規,0,2022-03-16,2022-03-16,株式会社ＪＡＰＡＮ　ＡＵＴＯ,,株式会社,岐阜県,不破郡関ケ原町,大字今須３３７５番地,,21,362,5031543,,,,,,,2022-03-16,1,,,,,ジャパンオート,0
181,1290001096801,新規,0,2022-03-16,2022-03-16,株式会社ナポリタン,,株式会社,福岡県,福岡市早良区,西新２丁目１番３３－３０１号,,40,137,8140002,,,,,,,2022-03-16,1,,,,,ナポリタン,0
182,1290001096818,新規,0,2022-03-16,2022-03-16,株式会社ワイオーセレクト,,株式会社,福岡県,福岡市博多区,住吉５丁目１番３号,,40,132,8120018,,,,,,,2022-03-16,1,,,,,ワイオーセレクト,0
191,1320001018958,新規,0,2022-03-16,2022-03-16,株式会社Ｔ‐１,,株式会社,大分県,大分市,大字三芳２１７２番地の１グランアーバン西の台４０６,,44,201,8700030,,,,,,,2022-03-16,1,,,,,ティーワン,0
192,1330001029541,新規,0,2022-03-16,2022-03-16,株式会社Ｏｆｆｉｃｅ　Ｅ,,株式会社,熊本県,熊本市南区,合志３丁目２番１６号,,43,104,8614111,,,,,,,2022-03-16,1,,,,,オフィスイー,0
193,1340001024574,新規,0,2022-03-16,2022-03-16,株式会社なんでも屋さん,,株式会社,鹿児島県,薩摩川内市,西方町２２３６番地,,46,215,8991801,,,,,,,2022-03-16,1,,,,,ナンデモヤサン,0
194,1350001017635,新規,0,2022-03-16,2022-03-16,株式会社リヴェール,,株式会社,宮崎県,宮崎市,大字恒久５０２６番地５ＭＧコーポ１０１号,,45,201,8800916,,,,,,,2022-03-16,1,,,,,リヴェール,0
199,1370001048323,新規,0,2022-03-16,2022-03-16,株式会社おらい,,株式会社,宮城県,仙台市青葉区,本町１丁目５番２８号カーニープレイス仙台駅前通６０３号室,,04,101,9800014,,,,,,,2022-03-16,1,,,,,オライ,0
204,1400001015815,新規,0,2022-03-16,2022-03-16,株式会社つかさ造林,,株式会社,岩手県,八幡平市,細野４２９番地,,03,214,0287557,,,,,,,2022-03-16,1,,,,,ツカサゾウリン,0
207,1420001017768,新規,0,2022-03-16,2022-03-16,株式会社オボナイ,,株式会社,青森県,弘前市,大字早稲田３丁目１０番８号,,02,202,0368087,,,,,,,2022-03-16,1,,,,,オボナイ,0
214,1430003013715,新規,0,2022-03-16,2022-03-16,合同会社イールデザイン,,合同会社,北海道,札幌市中央区,北五条東２丁目６番地ザ・サッポロレジデンス１８０９号,,01,101,0600035,,,,,,,2022-03-16,1,,,,,イールデザイン,0
216,1430005014414,新規,0,2022-03-16,2022-03-16,医療法人想視会,,その他の設立登記法人,北海道,札幌市中央区,北一条西２３丁目２番１４号ＲＫ円山鳥居前ビル２階,,01,101,0640821,,,,,,,2022-03-16,1,,,,,ソウシカイ,0
219,1480001011682,新規,0,2022-03-16,2022-03-16,株式会社幸崎工務店,00125991,株式会社,徳島県,徳島市,佐古二番町１５番９号,,36,201,7700022,,,,,,,2022-03-16,1,,,,,コウザキコウムテン,0
224,1700150059112,新規,0,2022-03-16,2015-10-09,福岡県体育・スポーツ研修報告会実行委員会,,その他,福岡県,福岡市博多区,東平尾公園２丁目１－４福岡県体育研究所　内,,40,132,8120852,,,,,,,2015-10-09,1,,,,,フクオカケンタイイクスポーツケンシユウホウコクカイジツコウイインカイ,0
225,1700150107416,新規,0,2022-03-16,2022-03-16,ＳＰＩＮ　ＣＡＰＩＴＡＬ　ＭＡＮＡＧＥＭＥＮＴ　ＰＴＥ．ＬＴＤ．,,外国会社等,愛知県,北名古屋市,鹿田１９３５番地,,23,234,4810004,１５　Ｓｃｏｔｔｓ　Ｒｏａｄ，　Ｔｈｏｎｇ　Ｔｅｃｋ　Ｂｕｉｌｄｉｎｇ，　＃０４－０８，　Ｓｉｎｇａｐｏｒｅ　２２８２１８,,,,,,2022-03-16,1,,,,,スピンキヤピタルマネジメントプライベイトリミテツド,0
233,2010001225213,新規,0,2022-03-16,2022-03-16,三益宏達株式会社,,株式会社,東京都,中央区,勝どき５丁目３番１－３１１０号,,13,102,1040054,,,,,,,2022-03-16,1,,,,,サンエキヒロタツ,0
234,2010001225221,新規,0,2022-03-16,2022-03-16,株式会社レガリア,,株式会社,東京都,千代田区,神田須田町２丁目２３番地ＣＯＮＯＥ秋葉原万世橋７０１号,,13,101,1010041,,,,,,,2022-03-16,1,,,,,レガリア,0
235,2010001225254,新規,0,2022-03-16,2022-03-16,プロップマネジメント株式会社,,株式会社,東京都,中央区,京橋３丁目１番１号,,13,102,1040031,,,,,,,2022-03-16,1,,,,,プロップマネジメント,0
236,2010003037210,新規,0,2022-03-16,2022-03-16,合同会社Ｒｅｓｉｌｉｅｎｃｅ　Ｉ,,合同会社,東京都,中央区,銀座１丁目６番１１号土志田ビルディング３Ｆ,,13,102,1040061,,,,,,,2022-03-16,1,,,,,レジリエンスワン,0
237,2010003037219,新規,0,2022-03-16,2022-03-16,合同会社Ｒｅｓｉｌｉｅｎｃｅ　Ｘ,,合同会社,東京都,中央区,銀座１丁目６番１１号土志田ビルディング３Ｆ,,13,102,1040061,,,,,,,2022-03-16,1,,,,,レジリエンステン,0
239,2010401166180,新規,0,2022-03-16,2022-03-16,株式会社イーストサムライ,,株式会社,東京都,港区,六本木１丁目６番１号,,13,103,1060032,,,,,,,2022-03-16,1,,,,,イーストサムライ,0
240,2010401166222,新規,0,2022-03-16,2022-03-16,Ｋ‐ｓｔｙｌｅ株式会社,,株式会社,東京都,港区,南青山２丁目１５番２０－２０４,,13,103,1070062,,,,,,,2022-03-16,1,,,,,ケースタイル,0
241,2010401166230,新規,0,2022-03-16,2022-03-16,株式会社ＴＡＲＡ　ＰＲＥＳＥＮＣＥ,,株式会社,東京都,港区,南青山２丁目２番１５号,,13,103,1070062,,,,,,,2022-03-16,1,,,,,ターラプレゼンス,0
242,2010401166239,新規,0,2022-03-16,2022-03-16,株式会社メタハピ,,株式会社,東京都,港区,三田１丁目７番１号,,13,103,1080073,,,,,,,2022-03-16,1,,,,,メタハピ,0
243,2010403027281,新規,0,2022-03-16,2022-03-16,ブーミー・ジャパン合同会社,,合同会社,東京都,港区,南麻布３丁目１９番２３号オーク南麻布ビル２階,,13,103,1060047,,,,,,,2022-03-16,1,,,,,ブーミージャパン,0
244,2010403027298,新規,0,2022-03-16,2022-03-16,フライングヒル合同会社,,合同会社,東京都,港区,南青山５丁目１７番２号,,13,103,1070062,,,,,,,2022-03-16,1,,,,,フライングヒル,0
246,2010405020805,新規,0,2022-03-16,2022-03-16,ＦＳＰ２５一般社団法人,,その他の設立登記法人,東京都,港区,虎ノ門４丁目１番２８号,,13,103,1050001,,,,,,,2022-03-16,1,,,,,エフエスピーニジュウゴ,0
249,2010501048592,新規,0,2022-03-16,2022-03-16,株式会社ＭＡトラスト,,株式会社,東京都,台東区,上野７丁目３番２号ＧＥ上野駅前ビル８階,,13,106,1100005,,,,,,,2022-03-16,1,,,,,エムエートラスト,0
255,2010603009443,新規,0,2022-03-16,2022-03-16,合同会社ジーテン・ジャパン・フォー,,合同会社,東京都,江東区,亀戸６丁目５６番１５号,,13,108,1360071,,,,,,,2022-03-16,1,,,,,ジーテンジャパンフォー,0
261,2010803004095,新規,0,2022-03-16,2022-03-16,Ｄｏｕｂｌｅ　Ｈ合同会社,,合同会社,東京都,大田区,南馬込４丁目４９番４号,,13,111,1430025,,,,,,,2022-03-16,1,,,,,ダブルエイチ,0
272,2011001146234,新規,0,2022-03-16,2022-03-16,株式会社ＤＲＥＡＭ　ＢＥＥＲ　ＭＡＲＫＥＴＩＮＧ,,株式会社,東京都,渋谷区,神宮前３丁目３５番８号,,13,113,1500001,,,,,,,2022-03-16,1,,,,,ドリームビアマーケティング,0
273,2011001146283,新規,0,2022-03-16,2022-03-16,株式会社創出社,,株式会社,東京都,渋谷区,渋谷２丁目１９番１５号宮益坂ビルディング６０９,,13,113,1500002,,,,,,,2022-03-16,1,,,,,ソウシュツシャ,0
275,2011201023712,新規,0,2022-03-16,2022-03-16,株式会社未来葬儀,,株式会社,東京都,中野区,東中野５丁目２９番１５－５０２号,,13,114,1640003,,,,,,,2022-03-16,1,,,,,ミライソウギ,0
278,2011503005094,新規,0,2022-03-16,2022-03-16,合同会社アスリード,,合同会社,東京都,北区,田端１丁目４番２号１４０２号室,,13,117,1140014,,,,,,,2022-03-16,1,,,,,アスリード,0
279,2011601025804,新規,0,2022-03-16,2022-03-16,ＨＹライフスタイルサポート株式会社,,株式会社,東京都,練馬区,東大泉６丁目５０番７－３０２号,,13,120,1780063,,,,,,,2022-03-16,1,,,,,エイチワイライフスタイルサポート,0
287,2011801040454,新規,0,2022-03-16,2022-03-16,株式会社セラピナ,,株式会社,東京都,葛飾区,青戸７丁目１番２４号,,13,122,1250062,,,,,,,2022-03-16,1,,,,,セラピナ,0
289,2012403005283,新規,0,2022-03-16,2022-03-16,クオリティーライン合同会社,,合同会社,東京都,三鷹市,中原４丁目３４－１７,,13,204,1810005,,,,,,,2022-03-16,1,,,,,クオリティーライン,0
290,2012801021460,新規,0,2022-03-16,2022-03-16,株式会社ルアナ,,株式会社,東京都,日野市,落川１３９７番地の２５,,13,212,1910034,,,,,,,2022-03-16,1,,,,,ルアナ,0
296,2020001145658,新規,0,2022-03-16,2022-03-16,株式会社ＳＴＬＡＸｉＡ,,株式会社,神奈川県,横浜市金沢区,富岡西３丁目１番地１０コートヴィラ富岡１０５,,14,108,2360052,,,,,,,2022-03-16,1,,,,,ストラクシア,0
297,2020001145674,新規,0,2022-03-16,2022-03-16,株式会社和正,,株式会社,神奈川県,横浜市旭区,白根５丁目５６番１４号,,14,112,2410005,,,,,,,2022-03-16,1,,,,,ワショウ,0
299,2020003021469,新規,0,2022-03-16,2022-03-16,合同会社３ｍｍ,,合同会社,神奈川県,横浜市青葉区,すみよし台２４番地１６,,14,117,2270035,,,,,,,2022-03-16,1,,,,,サンミリ,0
301,2021001075440,新規,0,2022-03-16,2022-03-16,株式会社バリアスシダー,,株式会社,神奈川県,厚木市,戸室１丁目２４番２４号,,14,212,2430031,,,,,,,2022-03-16,1,,,,,バリアスシダー,0
303,2021003011492,新規,0,2022-03-16,2022-03-16,合同会社Ｌｅｔ’ｓ　Ｄｉｇ　Ｉｎ,,合同会社,神奈川県,藤沢市,片瀬４丁目３番１号２連棟長屋１０１,,14,205,2510032,,,,,,,2022-03-16,1,,,,,レッツディグイン,0
308,2030003019033,新規,0,2022-03-16,2022-03-16,合同会社ヤスオ,,合同会社,埼玉県,春日部市,梅田本町１丁目２－１６,,11,214,3440053,,,,,,,2022-03-16,1,,,,,ヤスオ,0
312,2040001122572,新規,0,2022-03-16,2022-03-16,株式会社Ｌｏｎｇ　Ｖａｃａｔｉｏｎ,,株式会社,千葉県,印西市,木刈７丁目１番地９,,12,231,2701359,,,,,,,2022-03-16,1,,,,,ロングバケーション,0
317,2050001050780,新規,0,2022-03-16,2022-03-16,株式会社ＢＰカンパニー,,株式会社,茨城県,神栖市,土合本町１丁目８７６２番地８５,,08,232,3140343,,,,,,,2022-03-16,1,,,,,ビーピーカンパニー,0
318,2050001050797,新規,0,2022-03-16,2022-03-16,株式会社三五八七福,,株式会社,茨城県,かすみがうら市,下稲吉３２８２番地,,08,230,3150052,,,,,,,2022-03-16,1,,,,,サンゴハチシチフク,0
323,2060003003983,新規,0,2022-03-16,2022-03-16,鴻翔商事合同会社,,合同会社,栃木県,那須塩原市,若葉町６－８,,09,213,3250047,,,,,,,2022-03-16,1,,,,,コウショウショウジ,0
325,2070001039054,新規,0,2022-03-16,2022-03-16,株式会社山一林業,,株式会社,群馬県,前橋市,古市町１丁目１１番地３,,10,201,3710844,,,,,,,2022-03-16,1,,,,,ヤマイチリンギョウ,0
328,2080101023155,新規,0,2022-03-16,2022-03-16,Ｓ‐ｎｉｎｅ株式会社,,株式会社,静岡県,三島市,大宮町２丁目３番１６号ＢｌｕｅＴｒｅｅ１０１,,22,206,4110035,,,,,,,2022-03-16,1,,,,,エスナイン,0
329,2080105006230,新規,0,2022-03-16,2022-03-16,ＮＰＯ法人ＦＦ　Ｄｏｇ　Ｃｏｎｎｅｃｔ,,その他の設立登記法人,静岡県,富士市,宮島２２５番地の１２,,22,210,4160945,,,,,,,2022-03-16,1,,,,,エフエフドッグコネクト,0
330,2080401025685,新規,0,2022-03-16,2022-03-16,株式会社和,,株式会社,静岡県,磐田市,見付３７４８番地１,,22,211,4380086,,,,,,,2022-03-16,1,,,,,ナゴミ,0
331,2100001035157,新規,0,2022-03-16,2022-03-16,株式会社筒井事務所,,株式会社,長野県,松本市,大字神林７１６番地２,,20,202,3901243,,,,,,,2022-03-16,1,,,,,ツツイジムショ,0
334,2100005012838,新規,0,2022-03-16,2022-03-16,一般社団法人ＭＳＪ,,その他の設立登記法人,長野県,安曇野市,穂高１０６８番地１,,20,220,3998303,,,,,,,2022-03-16,1,,,,,エムエスジェイ,0
353,2120101065226,新規,0,2022-03-16,2022-03-16,Ｋ・ＥＬ　ＳＨＡＤＤＡＩ　ＧＬＯＢＡＬ株式会社,,株式会社,大阪府,岸和田市,内畑町６２１,,27,202,5960105,,,,,,,2022-03-16,1,,,,,ケーエルシャダイグローバル,0
356,2120901045724,新規,0,2022-03-16,2022-03-16,株式会社ＨＡＮＧＲＩＤＧＥ,,株式会社,大阪府,摂津市,正雀本町１丁目２０－２０－９０４,,27,224,5660024,,,,,,,2022-03-16,1,,,,,ハングリッジ,0
357,2120901045732,新規,0,2022-03-16,2022-03-16,株式会社ソトクラフト,,株式会社,大阪府,高槻市,下田部町１丁目２６番１８号,,27,207,5690062,,,,,,,2022-03-16,1,,,,,ソトクラフト,0
358,2122001035671,新規,0,2022-03-16,2022-03-16,株式会社西村製作所,,株式会社,大阪府,東大阪市,西堤学園町１丁目８番１３号,,27,227,5770044,,,,,,,2022-03-16,1,,,,,ニシムラセイサクショ,0
362,2130001071364,新規,0,2022-03-16,2022-03-16,株式会社ＫＪＰ,,株式会社,京都府,京都市北区,衣笠西開キ町２０番地７,,26,101,6038454,,,,,,,2022-03-16,1,,,,,ケイジェイピー,0
369,2140001125227,新規,0,2022-03-16,2022-03-16,ＤＵＹ　ＮＡＭ株式会社,,株式会社,兵庫県,加東市,社１０７７番２－１０１号,,28,228,6731431,,,,,,,2022-03-16,1,,,,,ズィナム,0
370,2140001125276,新規,0,2022-03-16,2022-03-16,株式会社リベルテオフィス,,株式会社,兵庫県,神戸市西区,北別府５丁目２４番８号,,28,111,6512117,,,,,,,2022-03-16,1,,,,,リベルテオフィス,0
371,2140001125301,新規,0,2022-03-16,2022-03-16,株式会社戸嶋商店,,株式会社,兵庫県,西宮市,東山台２丁目１８番地９,,28,204,6691133,,,,,,,2022-03-16,1,,,,,トジマショウテン,0
373,2170001017017,新規,0,2022-03-16,2022-03-16,株式会社エイダイ伸装,,株式会社,和歌山県,和歌山市,和歌浦東２丁目７番３６号,,30,201,6410021,,,,,,,2022-03-16,1,,,,,エイダイシンソウ,0
381,2180001150411,新規,0,2022-03-16,2022-03-16,株式会社エムホームズ,,株式会社,愛知県,北名古屋市,井瀬木高畑１０４番,,23,234,4810014,,,,,,,2022-03-16,1,,,,,エムホームズ,0
384,2180003023607,新規,0,2022-03-16,2022-03-16,快車サービス合同会社,,合同会社,愛知県,名古屋市緑区,大高町字東森前２８ハルサクォーレ２０１,,23,114,4598001,,,,,,,2022-03-16,1,,,,,カイシャサービス,0
385,2180003023623,新規,0,2022-03-16,2022-03-16,合同会社エーアンドアイ,,合同会社,愛知県,名古屋市瑞穂区,日向町５丁目５７番地の２,,23,108,4670047,,,,,,,2022-03-16,1,,,,,エーアンドアイ,0
393,2190001029225,新規,0,2022-03-16,2022-03-16,株式会社アルシエ,,株式会社,三重県,四日市市,諏訪栄町４‐１０アピカビル３Ｆ,,24,202,5100086,,,,,,,2022-03-16,1,,,,,アルシエ,0
398,2210001018844,新規,0,2022-03-16,2022-03-16,株式会社ＭＡＳＲＡＯ,,株式会社,福井県,越前市,村国３丁目２８番地１２コンフォーザ１０１,,18,209,9150084,,,,,,,2022-03-16,1,,,,,マスラオ,0
404,2240005015364,新規,0,2022-03-16,2022-03-16,一般社団法人猫の手,,その他の設立登記法人,広島県,竹原市,吉名町４６６８番地１,,34,203,7250013,,,,,,,2022-03-16,1,,,,,ネコノテ,0
408,2260001036643,新規,0,2022-03-16,2022-03-16,株式会社ｗｏｒｌｄ　ａｄｄｒｅｓｓ,,株式会社,岡山県,真庭市,蒜山上徳山１００２番地,,33,214,7170612,,,,,,,2022-03-16,1,,,,,ワールドアドレス,0
409,2260001036651,新規,0,2022-03-16,2022-03-16,柔光株式会社,,株式会社,岡山県,倉敷市,連島町鶴新田７６０－７,,33,202,7128006,,,,,,,2022-03-16,1,,,,,ジュウコウ,0
416,2290001096809,新規,0,2022-03-16,2022-03-16,株式会社ＭｏｖｉｎｇＦｏｒｃｅ,,株式会社,福岡県,福岡市博多区,東月隈３丁目２４－６,,40,132,8120854,,,,,,,2022-03-16,1,,,,,ムビングフォース,0
417,2290001096817,新規,0,2022-03-16,2022-03-16,株式会社ｉｄｅａｂｏｘ,,株式会社,福岡県,福岡市南区,大楠３丁目１７番１０号第一松田マンション１１号室,,40,134,8150082,,,,,,,2022-03-16,1,,,,,イデアボックス,0
418,2290001096825,新規,0,2022-03-16,2022-03-16,株式会社ＫａＦ,,株式会社,福岡県,福岡市博多区,住吉３丁目１－８０オヌキ新博多ビル１１０４,,40,132,8120018,,,,,,,2022-03-16,1,,,,,カフ,0
439,2400001015814,新規,0,2022-03-16,2022-03-16,株式会社興秀,,株式会社,岩手県,滝沢市,室小路６６４番地７アーバンライフ室小路Ａ２０１号,,03,216,0200634,,,,,,,2022-03-16,1,,,,,コウシュウ,0
440,2430001086233,新規,0,2022-03-16,2022-03-16,株式会社ライト,,株式会社,北海道,札幌市中央区,南三条東２丁目１番地サンシャインビル３１４,,01,101,0600053,,,,,,,2022-03-16,1,,,,,ライト,0
451,2480001011681,新規,0,2022-03-16,2022-03-16,株式会社コネクティングザドッツ,,株式会社,徳島県,徳島市,八万町千鳥６番地６,,36,201,7708075,,,,,,,2022-03-16,1,,,,,コネクティングザドッツ,0
453,2700150035731,新規,0,2022-03-16,2015-10-09,グリーンキャピタル長町ＩＩ管理組合,00104668,その他,宮城県,仙台市太白区,長町５丁目９－１０,,04,104,9820011,,,,,,,2015-10-09,1,,,,,グリーンキヤピタルナガマチニカンリクミアイ,0
454,2700150107241,新規,0,2022-03-16,2022-03-02,ツジモトケンジと愉快な音楽仲間たち,,その他,京都府,宇治市,莵道谷下り８－１０パデシオン宇治三室戸ＩＩＩ番館１０８号,00125811,26,204,6110013,,,,,,,2022-03-02,1,,,,,ツジモトケンジトユカイナオンガクナカマタチ,0
455,2700150107423,新規,0,2022-03-16,2022-03-16,Ｙｏｕｎｇｊｏｙ　Ｔｅｃｈｎｏｌｏｇｙ　Ｌｉｍｉｔｅｄ,,外国会社等,,,,,,,,Ｒｏｏｍ０６．１３Ａ／Ｆ．，　Ｓｏｕｔｈ　Ｔｏｗｅｒ，　Ｗｏｒｌｄ　Ｆｉｎａｎｃｅ　Ｃｅｎｔｒｅ，　Ｈａｒｂｏｕｒ　Ｃｉｔｙ，　１７Ｃａｎｔｏｎ　Ｒｏａｄ,,,,,,2022-03-16,1,,,,,ヤングジヨイテクノロジーリミテツド,0
459,3010001225179,新規,0,2022-03-16,2022-03-16,エムイーワークス株式会社,,株式会社,東京都,中央区,京橋２丁目７番８号６階,,13,102,1040031,,,,,,,2022-03-16,1,,,,,エムイーワークス,0
460,3010001225187,新規,0,2022-03-16,2022-03-16,ザ・ギャップ・パートナーシップ・ジャパン株式会社,,株式会社,東京都,千代田区,平河町１丁目６番１５号ＵＳビル８階,,13,101,1020093,,,,,,,2022-03-16,1,,,,,ザギャップパートナーシップジャパン,0
461,3010001225253,新規,0,2022-03-16,2022-03-16,株式会社サードパーティーセールス,,株式会社,東京都,中央区,京橋３丁目１番１号,,13,102,1040031,,,,,,,2022-03-16,1,,,,,サードパーティーセールス,0
462,3010003037218,新規,0,2022-03-16,2022-03-16,合同会社Ｒｅｓｉｌｉｅｎｃｅ　ＩＸ,,合同会社,東京都,中央区,銀座１丁目６番１１号土志田ビルディング３Ｆ,,13,102,1040061,,,,,,,2022-03-16,1,,,,,レジリエンスナイン,0
465,3010401166205,新規,0,2022-03-16,2022-03-16,株式会社美来,,株式会社,東京都,港区,虎ノ門１丁目１６番６号ＲＡＰＯ－ＴＯビル７階７０４,,13,103,1050001,,,,,,,2022-03-16,1,,,,,ミライ,0
467,3010403027280,新規,0,2022-03-16,2022-03-16,合同会社トレック・ヴィーナス,,合同会社,東京都,港区,赤坂７丁目６番１５号,,13,103,1070052,,,,,,,2022-03-16,1,,,,,トレックヴィーナス,0
468,3010403027289,新規,0,2022-03-16,2022-03-16,合同会社ＨＥＲＯ,,合同会社,東京都,港区,南青山２丁目２番１５号,,13,103,1070062,,,,,,,2022-03-16,1,,,,,ヒーロー,0
469,3010403027297,新規,0,2022-03-16,2022-03-16,Ｔインフラ７号合同会社,,合同会社,東京都,港区,元赤坂１丁目１番７号,,13,103,1070051,,,,,,,2022-03-16,1,,,,,ティーインフラナナゴウ,0
470,3010405020804,新規,0,2022-03-16,2022-03-16,ＦＳＰ２４一般社団法人,,その他の設立登記法人,東京都,港区,虎ノ門４丁目１番２８号,,13,103,1050001,,,,,,,2022-03-16,1,,,,,エフエスピーニジュウヨン,0
472,3010501048591,新規,0,2022-03-16,2022-03-16,株式会社Ｌｉｌｎｏａ,,株式会社,東京都,台東区,台東３丁目４５番６号,,13,106,1100016,,,,,,,2022-03-16,1,,,,,リルノア,0
476,3010701042378,新規,0,2022-03-16,2022-03-16,株式会社ワイエス,,株式会社,東京都,品川区,西五反田８丁目９番１１号,,13,109,1410031,,,,,,,2022-03-16,1,,,,,ワイエス,0
477,3010701042386,新規,0,2022-03-16,2022-03-16,博文株式会社,,株式会社,東京都,品川区,南品川５丁目１６番１７－２１０号,,13,109,1400004,,,,,,,2022-03-16,1,,,,,ハクブン,0
479,3010803004094,新規,0,2022-03-16,2022-03-16,蒲田電算合同会社,,合同会社,東京都,大田区,蒲田５丁目２１番１３号,,13,111,1440052,,,,,,,2022-03-16,1,,,,,カマタデンサン,0
480,3010905004281,新規,0,2022-03-16,2022-03-16,医療法人社団ＲＡＩＴ,,その他の設立登記法人,東京都,世田谷区,喜多見８丁目１５番３５号Ｋ・田中ビル１階,,13,112,1570067,,,,,,,2022-03-16,1,,,,,ライト,0
484,3011101098168,新規,0,2022-03-16,2022-03-16,株式会社クランピーアンドパートナーズ,,株式会社,東京都,新宿区,新宿４丁目３番１５号レイフラット新宿,,13,104,1600022,,,,,,,2022-03-16,1,,,,,クランピーアンドパートナーズ,0
489,3011601025794,新規,0,2022-03-16,2022-03-16,株式会社トモット,,株式会社,東京都,練馬区,石神井台６丁目１１番１９号,,13,120,1770045,,,,,,,2022-03-16,1,,,,,トモット,0
494,3011801040453,新規,0,2022-03-16,2022-03-16,株式会社ユギ,,株式会社,東京都,足立区,青井６丁目２０番１５号９０４,,13,121,1210012,,,,,,,2022-03-16,1,,,,,ユギ,0
495,3011803005009,新規,0,2022-03-16,2022-03-16,合同会社ｔａｍａｋｉｇｒｏｕｐ,,合同会社,東京都,足立区,佐野１丁目４－２,,13,121,1210053,,,,,,,2022-03-16,1,,,,,タマキグループ,0
499,3012803002730,新規,0,2022-03-16,2022-03-16,合同会社スカイ,,合同会社,東京都,国分寺市,東恋ヶ窪３丁目２０番地９,,13,214,1850014,,,,,,,2022-03-16,1,,,,,スカイ,0
504,3020001145649,新規,0,2022-03-16,2022-03-16,かるがもソフトウェア株式会社,,株式会社,神奈川県,川崎市麻生区,金程１丁目２２－９,,14,137,2150006,,,,,,,2022-03-16,1,,,,,カルガモソフトウェア,0
506,3020003021435,新規,0,2022-03-16,2022-03-16,合同会社Ｆｕｔｕｒｅ　Ｆｏｒ　Ｃｈｉｌｄｒｅｎ,,合同会社,神奈川県,川崎市幸区,新塚越１－２サウザンドシティ１－３５１０,,14,132,2120027,,,,,,,2022-03-16,1,,,,,フューチャーフォーチルドレン,0
516,3030001147272,新規,0,2022-03-16,2022-03-16,清照Ｍ’ｓ運輸株式会社,,株式会社,埼玉県,鴻巣市,袋１,,11,217,3690131,,,,,,,2022-03-16,1,,,,,セイショウエムズウンユ,0
524,3030005020756,新規,0,2022-03-16,2022-03-16,国際人材支援事業協同組合,,その他の設立登記法人,埼玉県,さいたま市桜区,大字神田２６２番地,,11,106,3380812,,,,,,,2022-03-16,1,,,,,コクサイジンザイシエン,0
529,3040005021539,新規,0,2022-03-16,2022-03-16,トーヨーマンション１号棟管理組合法人,,その他の設立登記法人,千葉県,市川市,大和田４丁目１番３号,,12,203,2720025,,,,,,,2022-03-16,1,,,,,トーヨーマンションイチゴウトウ,0
533,3050003006433,新規,0,2022-03-16,2022-03-16,合同会社海晴,,合同会社,茨城県,ひたちなか市,大字馬渡３３６１－４,,08,221,3120012,,,,,,,2022-03-16,1,,,,,カイセイ,0
540,3070001039053,新規,0,2022-03-16,2022-03-16,株式会社森田建測,,株式会社,群馬県,前橋市,上細井町８５７番地,,10,201,3710051,,,,,,,2022-03-16,1,,,,,モリタケンソク,0
542,3080001024814,新規,0,2022-03-16,2022-03-16,六大興産株式会社,,株式会社,静岡県,静岡市葵区,牧ケ谷２３８５番地,,22,101,4211221,,,,,,,2022-03-16,1,,,,,ロクダイコウサン,0
564,3120001244432,新規,0,2022-03-16,2022-03-16,株式会社リバーズ,,株式会社,大阪府,大阪市生野区,中川西１丁目７－３５－３０１,,27,116,5440032,,,,,,,2022-03-16,1,,,,,リバーズ,0
570,3120105009533,新規,0,2022-03-16,2022-03-16,一般社団法人脳神経外科支援機構,,その他の設立登記法人,大阪府,堺市堺区,北三国ヶ丘町１丁１番１６号Ｂ－２４,,27,141,5900021,,,,,,,2022-03-16,1,,,,,ノウシンケイゲカシエンキコウ,0
572,3120903004066,新規,0,2022-03-16,2022-03-16,ＨＲコンサル合同会社,,合同会社,大阪府,茨木市,下穂積４丁目１番７号,,27,211,5670041,,,,,,,2022-03-16,1,,,,,エイチアールコンサル,0
577,3130001071363,新規,0,2022-03-16,2022-03-16,株式会社オン,,株式会社,京都府,京都市左京区,修学院大林町１４番地１,,26,103,6068081,,,,,,,2022-03-16,1,,,,,オン,0
583,3140001125283,新規,0,2022-03-16,2022-03-16,株式会社和演,,株式会社,兵庫県,神戸市灘区,篠原中町６丁目２番１３号,,28,102,6570066,,,,,,,2022-03-16,1,,,,,ワエン,0
584,3140001125291,新規,0,2022-03-16,2022-03-16,株式会社ＩＦＡプロデュース,,株式会社,兵庫県,神戸市中央区,下山手通２丁目１３－３建創ビル９Ｆ,,28,110,6500011,,,,,,,2022-03-16,1,,,,,アイエフエープロデュース,0
598,3180001150410,新規,0,2022-03-16,2022-03-16,株式会社リーチング,,株式会社,愛知県,名古屋市中区,栄３丁目２－３名古屋日興證券ビル４階,,23,106,4600008,,,,,,,2022-03-16,1,,,,,リーチング,0
604,3180003023597,新規,0,2022-03-16,2022-03-16,合同会社Ｅ．Ｇ．Ｄ．,,合同会社,愛知県,名古屋市中村区,亀島２丁目１２番７号,,23,105,4530013,,,,,,,2022-03-16,1,,,,,イージーディー,0
605,3180003023606,新規,0,2022-03-16,2022-03-16,合同会社シャクヤク,,合同会社,愛知県,名古屋市中区,栄１丁目１２番６号（秋月ハイツ１００５号）,,23,106,4600008,,,,,,,2022-03-16,1,,,,,シャクヤク,0
609,3180301036029,新規,0,2022-03-16,2022-03-16,株式会社ＮＴＳファクトリー,,株式会社,愛知県,西尾市,国森町不動東３７番地１,,23,213,4440312,,,,,,,2022-03-16,1,,,,,エヌティエスファクトリー,0
611,3190001029224,新規,0,2022-03-16,2022-03-16,株式会社エムミライズ,,株式会社,三重県,亀山市,天神１丁目３７３４番２８,,24,210,5190142,,,,,,,2022-03-16,1,,,,,エムミライズ,0
618,3200001039865,新規,0,2022-03-16,2022-03-16,株式会社ｉｎｔｅｒｉｏｒＣｏｒ,,株式会社,岐阜県,可児市,川合２７９１番地３４１アルシオーネ２０２,,21,214,5090201,,,,,,,2022-03-16,1,,,,,インテリアコア,0
621,3230003001820,新規,0,2022-03-16,2022-03-16,共創富山合同会社,,合同会社,富山県,富山市,堀１２０番地,,16,201,9398057,,,,,,,2022-03-16,1,,,,,キョウソウトヤマ,0
623,3240005015363,新規,0,2022-03-16,2022-03-16,一般社団法人ドライヘッドスパ研究所,,その他の設立登記法人,広島県,広島市中区,幟町２番１９号ライブオーク幟町２０７,,34,101,7300016,,,,,,,2022-03-16,1,,,,,ドライヘッドスパケンキュウジョ,0
635,3290001096824,新規,0,2022-03-16,2022-03-16,ＬＵＣＫＹ株式会社,,株式会社,福岡県,福岡市博多区,千代１丁目３０番２４号ラ・レジダンス・ド・福岡県庁前１３０３号,,40,132,8120044,,,,,,,2022-03-16,1,,,,,ラッキー,0
638,3290003012283,新規,0,2022-03-16,2022-03-16,合同会社Ｈｏｌｏｐｏｎｏ,,合同会社,福岡県,嘉麻市,牛隈２４７０番地１８,,40,227,8200301,,,,,,,2022-03-16,1,,,,,ホロポノ,0
639,3290003012291,新規,0,2022-03-16,2022-03-16,内野総合事務所合同会社,,合同会社,福岡県,久留米市,藤山町１６３４番地２９,,40,203,8300053,,,,,,,2022-03-16,1,,,,,ウチノソウゴウジムショ,0
648,3340001024572,新規,0,2022-03-16,2022-03-16,株式会社菊水,,株式会社,鹿児島県,鹿児島市,平之町１番１７号シェルビル,,46,201,8920848,,,,,,,2022-03-16,1,,,,,キクスイ,0
651,3360001030081,新規,0,2022-03-16,2022-03-16,ココロマネジメント株式会社,,株式会社,沖縄県,那覇市,銘苅２丁目４番４１号グランジュテ２０２,,47,201,9000004,,,,,,,2022-03-16,1,,,,,ココロマネジメント,0
658,3390005008947,新規,0,2022-03-16,2022-03-16,農事組合法人石垣農産,,その他の設立登記法人,山形県,飽海郡遊佐町,宮田字福田１０４番地,,06,461,9998432,,,,,,,2022-03-16,1,,,,,イシガキノウサン,0
663,3430001086216,新規,0,2022-03-16,2022-03-16,株式会社ＣＯＮＩＣＲＡＹＯＮ,,株式会社,北海道,札幌市西区,二十四軒四条３丁目４－３９サムティ琴似４０１,,01,107,0630804,,,,,,,2022-03-16,1,,,,,コニークレヨン,0
667,3440001009051,新規,0,2022-03-16,2022-03-16,株式会社おうかとそう,,株式会社,北海道,北斗市,久根別２丁目１７番７号,,01,236,0490121,,,,,,,2022-03-16,1,,,,,オウカトソウ,0
673,3480001011680,新規,0,2022-03-16,2022-03-16,株式会社ＭＩＤＡＳ　ＨＤ,,株式会社,徳島県,吉野川市,鴨島町鴨島６５２番地の１,,36,205,7760010,,,,,,,2022-03-16,1,,,,,ミダースホールディングス,0
676,3700150107199,新規,0,2022-03-16,2022-02-25,カフェギャラリーときじく,,その他,京都府,京都市下京区,松原通西洞院西入天神前町３３４,,26,106,6008459,,,,,,,2022-02-25,1,,,,,カフエギヤラリートキジク,0
677,3700150107422,新規,0,2022-03-16,2022-03-16,Ｖｉｓｉｏｎａｒｙ　Ｃａｐｉｔａｌ　Ｐａｒｔｎｅｒｓ　Ｃｏ．Ｌｉｍｉｔｅｄ,,外国会社等,,,,,,,,Ｒｏｏｍ　３０１－３０２，　３／Ｆ．，　Ｐｅｔｅｒ　Ｂｌｄｇ，　５８－６２　Ｑｕｅｅｎ’ｓ　Ｒｏａｄ　Ｃｅｎｔｒａｌ，　Ｈｏｎｇ　Ｋｏｎｇ,,,,,,2022-03-16,1,,,,,ビシヨナリーキヤピタルパートナーズカンパニーリミテツド,0
682,4010001225203,新規,0,2022-03-16,2022-03-16,株式会社ＩＭＡＤＡＫＥ,,株式会社,東京都,千代田区,九段南４丁目７番２２号,,13,101,1020074,,,,,,,2022-03-16,1,,,,,イマダケ,0
683,4010001225252,新規,0,2022-03-16,2022-03-16,ＲＴディベロプメント株式会社,,株式会社,東京都,中央区,京橋３丁目１番１号,,13,102,1040031,,,,,,,2022-03-16,1,,,,,アールティーディベロプメント,0
684,4010001225260,新規,0,2022-03-16,2022-03-16,株式会社チーフサポート,,株式会社,東京都,中央区,日本橋堀留町１丁目１０番１号,,13,102,1030012,,,,,,,2022-03-16,1,,,,,チーフサポート,0
686,4010003037217,新規,0,2022-03-16,2022-03-16,合同会社Ｒｅｓｉｌｉｅｎｃｅ　ＶＩＩＩ,,合同会社,東京都,中央区,銀座１丁目６番１１号土志田ビルディング３Ｆ,,13,102,1040061,,,,,,,2022-03-16,1,,,,,レジリエンスエイト,0
687,4010003037282,新規,0,2022-03-16,2022-03-16,合同会社ＣＣＰＣ,,合同会社,東京都,文京区,西片１丁目１５番７－１００３号,,13,105,1130024,,,,,,,2022-03-16,1,,,,,シーシーピーシー,0
689,4010005034732,新規,0,2022-03-16,2022-03-16,ＵＳ・ＥＳＧファンド一般社団法人,,その他の設立登記法人,東京都,千代田区,丸の内３丁目１番１号東京共同会計事務所内,,13,101,1000005,,,,,,,2022-03-16,1,,,,,ユーエスイーエスジーファンド,0
690,4010101015099,新規,0,2022-03-16,2022-03-16,摯友株式会社,,株式会社,東京都,八王子市,小門町１番８－フルセイル小門町３０３号,,13,201,1920054,,,,,,,2022-03-16,1,,,,,シユウ,0
699,4010401166195,新規,0,2022-03-16,2022-03-16,株式会社セキュアエンジニアリング,,株式会社,東京都,港区,南青山２丁目２番１５号,,13,103,1070062,,,,,,,2022-03-16,1,,,,,セキュアエンジニアリング,0
700,4010401166245,新規,0,2022-03-16,2022-03-16,株式会社Ｓａｙｕｒｉｓ,,株式会社,東京都,港区,南青山２丁目２－１５ｗｉｎ青山ビル,,13,103,1070062,,,,,,,2022-03-16,1,,,,,サユリーズ,0
701,4010403027288,新規,0,2022-03-16,2022-03-16,合同会社ＩＰＰＯ,,合同会社,東京都,港区,新橋５丁目２０番３号,,13,103,1050004,,,,,,,2022-03-16,1,,,,,イッポ,0
702,4010403027296,新規,0,2022-03-16,2022-03-16,ジャパンインフラ１８号合同会社,,合同会社,東京都,港区,元赤坂１丁目１番７号,,13,103,1070051,,,,,,,2022-03-16,1,,,,,ジャパンインフラジュウハチゴウ,0
703,4010405020803,新規,0,2022-03-16,2022-03-16,ＦＳＰ６一般社団法人,,その他の設立登記法人,東京都,港区,虎ノ門４丁目１番２８号,,13,103,1050001,,,,,,,2022-03-16,1,,,,,エフエスピーロク,0
707,4010701042385,新規,0,2022-03-16,2022-03-16,株式会社Ｍ．,,株式会社,東京都,品川区,南大井２丁目１２番１０号,,13,109,1400013,,,,,,,2022-03-16,1,,,,,エムドット,0
709,4010705003334,新規,0,2022-03-16,2022-03-16,医療法人社団寳千会,,その他の設立登記法人,東京都,品川区,南大井６丁目１１番１１号シャンポール第３大森１０１号室,,13,109,1400013,,,,,,,2022-03-16,1,,,,,ホウチカイ,0
718,4011001146348,新規,0,2022-03-16,2022-03-16,株式会社カナダグースジャパン,,株式会社,東京都,渋谷区,千駄ヶ谷２丁目１１番１号,,13,113,1510051,,,,,,,2022-03-16,1,,,,,カナダグースジャパン,0
719,4011003014346,新規,0,2022-03-16,2022-03-16,サマンサ合同会社,,合同会社,東京都,目黒区,駒場１丁目２５番２３号ロクタスＥ,,13,110,1530041,,,,,,,2022-03-16,1,,,,,サマンサ,0
720,4011005009492,新規,0,2022-03-16,2022-03-16,医療法人社団芍薬会,,その他の設立登記法人,東京都,渋谷区,恵比寿１丁目９番７号ＩＴＯＸ４階,,13,113,1500013,,,,,,,2022-03-16,1,,,,,シャクヤクカイ,0
723,4011101098092,新規,0,2022-03-16,2022-03-16,ＮＡＮＧＡ　ＳＹＳＴＥＭＳジャパン株式会社,,株式会社,東京都,新宿区,西新宿３丁目３番１３号西新宿水間ビル６階,,13,104,1600023,,,,,,,2022-03-16,1,,,,,ナンガシステムズジャパン,0
724,4011101098150,新規,0,2022-03-16,2022-03-16,Ａｍｂｅｒ　ｌａｂ株式会社,,株式会社,東京都,新宿区,西新宿３丁目２－９新宿ワシントンホテルビル２階,,13,104,1600023,,,,,,,2022-03-16,1,,,,,アンバーラボ,0
736,4011605002434,新規,0,2022-03-16,2022-03-16,医療法人社団口幸会,,その他の設立登記法人,東京都,練馬区,東大泉３丁目３１番１１号１階,,13,120,1780063,,,,,,,2022-03-16,1,,,,,コウサチカイ,0
740,4011801040452,新規,0,2022-03-16,2022-03-16,Ａｌｉｇｎ株式会社,,株式会社,東京都,葛飾区,立石２丁目３７番３号,,13,122,1240012,,,,,,,2022-03-16,1,,,,,アライン,0
743,4012801021459,新規,0,2022-03-16,2022-03-16,株式会社つぎの新,,株式会社,東京都,昭島市,朝日町２丁目４番２２－３０１号,,13,207,1960025,,,,,,,2022-03-16,1,,,,,ツギノアラタ,0
754,4020001145672,新規,0,2022-03-16,2022-03-16,株式会社Ｋハウジング,,株式会社,神奈川県,横浜市港北区,箕輪町３丁目８番１３号,,14,109,2230051,,,,,,,2022-03-16,1,,,,,ケイハウジング,0
756,4020003021442,新規,0,2022-03-16,2022-03-16,合同会社Ｔ＆Ｋ,,合同会社,神奈川県,横浜市緑区,中山１丁目２０番５号志田ビル１０４号,,14,113,2260019,,,,,,,2022-03-16,1,,,,,ティーアンドケー,0
757,4020003021459,新規,0,2022-03-16,2022-03-16,三枝ＭＭ合同会社,,合同会社,神奈川県,横浜市西区,戸部本町４３番４号,,14,103,2200041,,,,,,,2022-03-16,1,,,,,サエグサエムエム,0
767,4030001147263,新規,0,2022-03-16,2022-03-16,株式会社ＦＩＲＳＴＰＬＵＳ,,株式会社,埼玉県,春日部市,増富３５３番地８テイク２０１,,11,214,3440041,,,,,,,2022-03-16,1,,,,,ファーストプラス,0
773,4030003019031,新規,0,2022-03-16,2022-03-16,坂田電設合同会社,,合同会社,埼玉県,久喜市,西大輪１丁目６番地２１,,11,232,3400206,,,,,,,2022-03-16,1,,,,,サカタデンセツ,0
780,4040005021546,新規,0,2022-03-16,2022-03-16,一般社団法人習志野市サッカー協会,,その他の設立登記法人,千葉県,習志野市,袖ケ浦５丁目３番１１号,,12,216,2750021,,,,,,,2022-03-16,1,,,,,ナラシノシサッカーキョウカイ,0
783,4050001050770,新規,0,2022-03-16,2022-03-16,ＡＭＪ　ＣＯＲＰＯＲＡＴＩＯＮ株式会社,,株式会社,茨城県,古河市,仁連１９８４番地２,,08,204,3060125,,,,,,,2022-03-16,1,,,,,エイエムジェイコーポレーション,0
787,4060003003981,新規,0,2022-03-16,2022-03-16,楽花晴合同会社,,合同会社,栃木県,宇都宮市,氷室町６５２番地３,,09,201,3213232,,,,,,,2022-03-16,1,,,,,ラッカセイ,0
788,4070001039052,新規,0,2022-03-16,2022-03-16,株式会社リメイク,,株式会社,群馬県,佐波郡玉村町,大字飯倉４５７番地３,,10,464,3701116,,,,,,,2022-03-16,1,,,,,リメイク,0
789,4080001024813,新規,0,2022-03-16,2022-03-16,ＷＩＺＺ．ＨＤ株式会社,,株式会社,静岡県,静岡市葵区,西草深町６番１０号,,22,101,4200866,,,,,,,2022-03-16,1,,,,,ワイズエイチディー,0
793,4080105006229,新規,0,2022-03-16,2022-03-16,一般社団法人沼津フェンシング協会,,その他の設立登記法人,静岡県,沼津市,市場町２１番１号,,22,203,4100831,,,,,,,2022-03-16,1,,,,,ヌマヅフェンシングキョウカイ,0
794,4090001017477,新規,0,2022-03-16,2022-03-16,株式会社福住,,株式会社,山梨県,山梨市,牧丘町成沢１２４１番地,,19,205,4040011,,,,,,,2022-03-16,1,,,,,,0
808,4120101065224,新規,0,2022-03-16,2022-03-16,Ｔ‐ＲＵＮＳ株式会社,,株式会社,大阪府,堺市西区,菱木３丁２０１７番地１,,27,144,5938315,,,,,,,2022-03-16,1,,,,,ティーランズ,0
809,4120101065232,新規,0,2022-03-16,2022-03-16,株式会社Ｅ‐ａｓｓｅｔ,,株式会社,大阪府,大阪狭山市,東池尻５丁目１４７９番地の１９,,27,231,5890004,,,,,,,2022-03-16,1,,,,,イーアセット,0
810,4120101065240,新規,0,2022-03-16,2022-03-16,リズコーポレイション株式会社,,株式会社,大阪府,堺市西区,浜寺諏訪森町東１丁４３番地２５,,27,144,5928349,,,,,,,2022-03-16,1,,,,,リズコーポレイション,0
818,4130001071305,新規,0,2022-03-16,2022-03-16,株式会社ジオプラウアー京都,,株式会社,京都府,京都市北区,紫竹下緑町１３番地６,,26,101,6038425,,,,,,,2022-03-16,1,,,,,ジオプラウアーキョウト,0
819,4130001071354,新規,0,2022-03-16,2022-03-16,株式会社ヨシトミ,,株式会社,京都府,舞鶴市,字余部下８７６－４,,26,202,6250087,,,,,,,2022-03-16,1,,,,,ヨシトミ,0
827,4140001125282,新規,0,2022-03-16,2022-03-16,株式会社華興産業,,株式会社,兵庫県,三田市,ゆりのき台４丁目２１番地５８,,28,219,6691324,,,,,,,2022-03-16,1,,,,,カキョウサンギョウ,0
828,4140001125290,新規,0,2022-03-16,2022-03-16,株式会社ＥＳＴＡ,,株式会社,兵庫県,西宮市,甲子園浦風町５番２７－２０２号,,28,204,6638165,,,,,,,2022-03-16,1,,,,,エスタ,0
830,4140003017453,新規,0,2022-03-16,2022-03-16,ＢｕｚｚＳｔｙｌｅ合同会社,,合同会社,兵庫県,西宮市,山口町阪神流通センター１丁目５０,,28,204,6511431,,,,,,,2022-03-16,1,,,,,バズスタイル,0
831,4140005026064,新規,0,2022-03-16,2022-03-16,一般社団法人ぼちぼーち,,その他の設立登記法人,兵庫県,尼崎市,田能３丁目２２番１号,,28,202,6610951,,,,,,,2022-03-16,1,,,,,ボチボーチ,0
833,4150001025408,新規,0,2022-03-16,2022-03-16,株式会社Ｔｏｍｏ　Ｒａｉｎｂｏｗ　Ｖｉｌｌａｇｅ,,株式会社,奈良県,北葛城郡広陵町,大字疋相２５５番地１９,,29,426,6350824,,,,,,,2022-03-16,1,,,,,トモレインボービレッジ,0
836,4170001017015,新規,0,2022-03-16,2022-03-16,株式会社Ｓ・Ｋ・Ｙ,,株式会社,和歌山県,和歌山市,向１５５番地３,,30,201,6408431,,,,,,,2022-03-16,1,,,,,エスケーワイ,0
844,4180001150368,新規,0,2022-03-16,2022-03-16,株式会社Ｔ‐Ｍホールディングス,,株式会社,愛知県,名古屋市中村区,椿町１５番５号,,23,105,4530015,,,,,,,2022-03-16,1,,,,,ティーエムホールディングス,0
845,4180001150401,新規,0,2022-03-16,2022-03-16,Ｍ’ｓグループ株式会社,,株式会社,愛知県,名古屋市港区,港栄３丁目２番２８号Ａ－１０７号,,23,111,4550015,,,,,,,2022-03-16,1,,,,,エムズグループ,0
846,4180003023613,新規,0,2022-03-16,2022-03-16,Ｔａｋｅコーポレーション合同会社,,合同会社,愛知県,名古屋市北区,元志賀町１丁目８番地の１,,23,103,4620044,,,,,,,2022-03-16,1,,,,,タケコーポレーション,0
847,4180003023621,新規,0,2022-03-16,2022-03-16,ＨＭＳ合同会社,,合同会社,愛知県,江南市,高屋町大師１４３番地,,23,217,4838047,,,,,,,2022-03-16,1,,,,,エイチエムエス,0
848,4180005019683,新規,0,2022-03-16,2022-03-16,医療法人Ｌ’Ａｎｇｅ,,その他の設立登記法人,愛知県,日進市,岩崎台１丁目１２０８番地,,23,230,4700135,,,,,,,2022-03-16,1,,,,,ランジュ,0
854,4190001029231,新規,0,2022-03-16,2022-03-16,株式会社Ｍｃａｒｅ,,株式会社,三重県,松阪市,山室町２４４番地２,,24,204,5150052,,,,,,,2022-03-16,1,,,,,エムケア,0
859,4200001039864,新規,0,2022-03-16,2022-03-16,ＮｅｏＹ’ｓ株式会社,,株式会社,岐阜県,大垣市,築捨町１丁目３００番地６,,21,202,5030854,,,,,,,2022-03-16,1,,,,,ネオワイズ,0
867,4240005015362,新規,0,2022-03-16,2022-03-16,一般社団法人日本マーケティングデザイン協会,,その他の設立登記法人,広島県,広島市中区,基町１２番５号－７Ｆ,,34,101,7300011,,,,,,,2022-03-16,1,,,,,ニホンマーケティングデザインキョウカイ,0
872,4280005007471,新規,0,2022-03-16,2022-03-16,西ノ島町特定地域づくり事業協同組合,,その他の設立登記法人,島根県,隠岐郡西ノ島町,大字美田６００番地４,,32,526,6840303,,,,,,,2022-03-16,1,,,,,ニシノシマチョウトクテイチイキヅクリ,0
877,4290001096823,新規,0,2022-03-16,2022-03-16,株式会社ルームサポート,,株式会社,福岡県,福岡市博多区,対馬小路６番３－４０３号,,40,132,8120020,,,,,,,2022-03-16,1,,,,,ルームサポート,0
878,4290001096831,新規,0,2022-03-16,2022-03-16,株式会社ＬｉｎｋＴＨ,,株式会社,福岡県,福岡市中央区,天神２丁目３－１０天神パインクレスト内,,40,133,8100001,,,,,,,2022-03-16,1,,,,,リンクス,0
880,4290003012282,新規,0,2022-03-16,2022-03-16,合同会社三ツ葉ほけん,,合同会社,福岡県,久留米市,山川町１３５３番地１２,,40,203,8390817,,,,,,,2022-03-16,1,,,,,ミツハホケン,0
881,4290003012290,新規,0,2022-03-16,2022-03-16,合同会社Ｎ,,合同会社,福岡県,福岡市南区,多賀１丁目８番２６号,,40,134,8150072,,,,,,,2022-03-16,1,,,,,エヌ,0
882,4310001017768,新規,0,2022-03-16,2022-03-16,株式会社スリーエイト,,株式会社,長崎県,長崎市,岩川町８番８号,,42,201,8528106,,,,,,,2022-03-16,1,,,,,スリーエイト,0
885,4320001018963,新規,0,2022-03-16,2022-03-16,ベルマルグループ株式会社,,株式会社,大分県,杵築市,大字守江９２４番地５,,44,210,8730033,,,,,,,2022-03-16,1,,,,,ベルマルグループ,0
891,4340005009429,新規,0,2022-03-16,2022-03-16,一般社団法人西郷隆盛総本家敬天会,,その他の設立登記法人,鹿児島県,鹿児島市,城山町２番３０号二之丸ビル５０３,,46,201,8920853,,,,,,,2022-03-16,1,,,,,サイゴウタカモリソウホンケケイテンカイ,0
892,4350001017640,新規,0,2022-03-16,2022-03-16,株式会社パスポート,,株式会社,宮崎県,宮崎市,恒久４丁目２１番地１６,,45,201,8800913,,,,,,,2022-03-16,1,,,,,パスポート,0
895,4360003011871,新規,0,2022-03-16,2022-03-16,合同会社竜二建材,,合同会社,沖縄県,国頭郡宜野座村,字惣慶１７０７番地３,,47,313,9041303,,,,,,,2022-03-16,1,,,,,リュウジケンザイ,0
896,4370001048329,新規,0,2022-03-16,2022-03-16,株式会社ＮＢＦｓ,,株式会社,宮城県,仙台市宮城野区,宮城野１丁目１５番１２－１０１号,,04,102,9830045,,,,,,,2022-03-16,1,,,,,エヌビーエフエス,0
914,4440001009050,新規,0,2022-03-16,2022-03-16,ファシリティメンテナンス株式会社,,株式会社,北海道,北斗市,追分２丁目２１番１１号,,01,236,0490101,,,,,,,2022-03-16,1,,,,,ファシリティメンテナンス,0
918,4470001019006,新規,0,2022-03-16,2022-03-16,株式会社タテイシテック,,株式会社,香川県,高松市,香南町横井４４２番地４,,37,201,7611404,,,,,,,2022-03-16,1,,,,,タテイシテック,0
919,4480005006890,新規,0,2022-03-16,2022-03-16,一般社団法人ａｎｅｌａｒｉａ,,その他の設立登記法人,徳島県,徳島市,新南福島２丁目５番２２号,,36,201,7700867,,,,,,,2022-03-16,1,,,,,アネラリア,0
920,4700150013999,新規,0,2022-03-16,2015-10-09,鎌倉海岸キリスト教会,,その他,神奈川県,鎌倉市,津西１丁目８－８,,14,204,2480034,,,,,,,2015-10-09,1,,,,,カマクラカイガンキリストキヨウカイ,0
921,4700150105334,新規,0,2022-03-16,2021-10-14,社会民主進歩党,,その他,東京都,千代田区,神田美倉町９神田美倉町ビル２階,,13,101,1010038,,,,,,,2021-10-14,1,,,,,シヤカイミンシユシンポトウ,0
922,4700150107223,新規,0,2022-03-16,2022-03-01,こしきひまわり児童クラブ,,その他,鹿児島県,薩摩川内市,下甑町手打１０１０,,46,215,8961601,,,,,,,2022-03-01,1,,,,,コシキヒマワリジドウクラブ,0
923,4700150107421,新規,0,2022-03-16,2022-03-16,Ｂｉｇ　Ｈｕｇｅ　Ｇａｍｅｓ，Ｉｎｃ．,,外国会社等,,,,,,,,９５１５　ＤＥＥＲＣＯ　ＲＤ．，　ＳＵＩＴＥ３００，　ＴＩＭＯＮＩＵＭ　ＭＤ　２１０９３，　ＵＳＡ,,,,,,2022-03-16,1,,,,,ビツグヒユージゲームズインク,0
927,5010001225177,新規,0,2022-03-16,2022-03-16,株式会社スプレンデンス,,株式会社,東京都,中央区,勝どき６丁目３番２－１４１９号,,13,102,1040054,,,,,,,2022-03-16,1,,,,,スプレンデンス,0
928,5010001225210,新規,0,2022-03-16,2022-03-16,株式会社麹町セントラル,,株式会社,東京都,千代田区,麹町１丁目７番地,,13,101,1020083,,,,,,,2022-03-16,1,,,,,コウジマチセントラル,0
929,5010001225251,新規,0,2022-03-16,2022-03-16,ＧＣプログレス株式会社,,株式会社,東京都,中央区,京橋３丁目１番１号,,13,102,1040031,,,,,,,2022-03-16,1,,,,,ジーシープログレス,0
932,5010003037208,新規,0,2022-03-16,2022-03-16,スペーストラスト山口合同会社,,合同会社,東京都,中央区,銀座１丁目２２－１１銀座大竹ビジデンス２Ｆ,,13,102,1040061,,,,,,,2022-03-16,1,,,,,スペーストラストヤマグチ,0
933,5010003037216,新規,0,2022-03-16,2022-03-16,合同会社Ｒｅｓｉｌｉｅｎｃｅ　ＶＩＩ,,合同会社,東京都,中央区,銀座１丁目６番１１号土志田ビルディング３Ｆ,,13,102,1040061,,,,,,,2022-03-16,1,,,,,レジリエンスセブン,0
934,5010003037249,新規,0,2022-03-16,2022-03-16,ｅｌｅｖｅｂｏｉｓ合同会社,,合同会社,東京都,文京区,小石川１丁目１７番１－Ｂ１８０６号,,13,105,1120002,,,,,,,2022-03-16,1,,,,,エルベボイス,0
935,5010003037257,新規,0,2022-03-16,2022-03-16,合同会社ＨｉＪｏＪｏ．ｃｏｍ５,,合同会社,東京都,千代田区,霞が関３丁目２番５号,,13,101,1000013,,,,,,,2022-03-16,1,,,,,ヒジョージョードットコムファイブ,0
936,5010003037265,新規,0,2022-03-16,2022-03-16,合同会社やまだ猫,,合同会社,東京都,千代田区,三番町１－１７パークサイドアネックス６Ｆ・Ｂ,,13,101,1020075,,,,,,,2022-03-16,1,,,,,ヤマダネコ,0
937,5010101015107,新規,0,2022-03-16,2022-03-16,ＴＥＮＧＵＵ株式会社,,株式会社,東京都,八王子市,小比企町２３９９番地１,,13,201,1930934,,,,,,,2022-03-16,1,,,,,,0
939,5010403027287,新規,0,2022-03-16,2022-03-16,ＳＳＣ合同会社,,合同会社,東京都,港区,白金台３丁目２番４０号ヴィラテラッセ白金台３０６,,13,103,1080071,,,,,,,2022-03-16,1,,,,,エスエスシー,0
940,5010405020802,新規,0,2022-03-16,2022-03-16,ＦＳＰ４一般社団法人,,その他の設立登記法人,東京都,港区,虎ノ門４丁目１番２８号,,13,103,1050001,,,,,,,2022-03-16,1,,,,,エフエスピーヨン,0
949,5010501048565,新規,0,2022-03-16,2022-03-16,株式会社キッズハイク,,株式会社,東京都,台東区,東上野４丁目１３－９ＲＯＵＴＥ８９ＢＬＤＧ．４Ｆ,,13,106,1100015,,,,,,,2022-03-16,1,,,,,キッズハイク,0
952,5010703006156,新規,0,2022-03-16,2022-03-16,合同会社アンナキカク,,合同会社,東京都,品川区,大崎５丁目９番９号シティタワー大崎１５０３,,13,109,1410032,,,,,,,2022-03-16,1,,,,,アンナキカク,0
957,5010901050518,新規,0,2022-03-16,2022-03-16,株式会社ＧｏｇＨ,,株式会社,東京都,世田谷区,上用賀６丁目２２番２号,,13,112,1580098,,,,,,,2022-03-16,1,,,,,ゴッホ,0
969,5012401038968,新規,0,2022-03-16,2022-03-16,Ｂｕｔａｉ　Ｅｎｔｅｒｔａｉｎｍｅｎｔ株式会社,,株式会社,東京都,武蔵野市,吉祥寺本町１丁目２５－１０ＫＳ－２ビル３Ｆ,,13,203,1800004,,,,,,,2022-03-16,1,,,,,ブタイエンターテイメント,0
970,5012703002424,新規,0,2022-03-16,2022-03-16,シエル合同会社,,合同会社,東京都,西東京市,柳沢２丁目１３－１５朝日パリオ西武柳沢４０７,,13,229,2020022,,,,,,,2022-03-16,1,,,,,シエル,0
971,5012705002298,新規,0,2022-03-16,2022-03-16,特定非営利活動法人カモミール,,その他の設立登記法人,東京都,小平市,学園東町２丁目１４番２０号,,13,211,1870043,,,,,,,2022-03-16,1,,,,,カモミール,0
974,5012803002729,新規,0,2022-03-16,2022-03-16,クリアーライト合同会社,,合同会社,東京都,国立市,東１丁目１５－１１－４４８ビル３Ｆ,,13,215,1860002,,,,,,,2022-03-16,1,,,,,クリアーライト,0
975,5013101008864,新規,0,2022-03-16,2022-03-16,株式会社ＰＥＥＲ　ＬＩＮＫ,,株式会社,東京都,羽村市,小作台１丁目２番地２,,13,227,2050001,,,,,,,2022-03-16,1,,,,,ピアリンク,0
980,5020001145663,新規,0,2022-03-16,2022-03-16,株式会社アクロスプラン,,株式会社,神奈川県,川崎市麻生区,東百合丘１丁目３９番２６－３号,,14,137,2150012,,,,,,,2022-03-16,1,,,,,アクロスプラン,0
983,5020003021466,新規,0,2022-03-16,2022-03-16,ヨクト合同会社,,合同会社,神奈川県,横浜市港北区,日吉４丁目１３番２７－３０４号,,14,109,2230061,,,,,,,2022-03-16,1,,,,,ヨクト,0
989,5021001075438,新規,0,2022-03-16,2022-03-16,株式会社ＳＨＯＫＥＮ,,株式会社,神奈川県,相模原市緑区,橋本２丁目９番１６号グリーンウッド１０１号,,14,151,2520143,,,,,,,2022-03-16,1,,,,,ショウケン,0
990,5021001075446,新規,0,2022-03-16,2022-03-16,株式会社相模ビルメンテナンス,,株式会社,神奈川県,小田原市,久野２８３番地の１中山コーポＡ１０１,,14,206,2500055,,,,,,,2022-03-16,1,,,,,サガミビルメンテナンス,0
991,5021003011457,新規,0,2022-03-16,2022-03-16,Ｍｙ　ｎｕｒｓｅ菜っぱ合同会社,,合同会社,神奈川県,相模原市緑区,青山４８１―２,,14,151,2520156,,,,,,,2022-03-16,1,,,,,マイナースナッパ,0
992,5021003011481,新規,0,2022-03-16,2022-03-16,合同会社ＩＮＦＩＮＩＴＹ,,合同会社,神奈川県,海老名市,中央１丁目１６番２８号,,14,215,2430432,,,,,,,2022-03-16,1,,,,,インフィニティ,0
994,5030001147279,新規,0,2022-03-16,2022-03-16,株式会社Ｔｒｕｓｔ,,株式会社,埼玉県,ふじみ野市,東久保１丁目５番６号アムールイースト１０３,,11,245,3560042,,,,,,,2022-03-16,1,,,,,トラスト,0
995,5030001147287,新規,0,2022-03-16,2022-03-16,株式会社シートマーケット,,株式会社,埼玉県,和光市,下新倉２丁目３５番１７号,,11,229,3510111,,,,,,,2022-03-16,1,,,,,シートマーケット,0
1002,5040001122636,新規,0,2022-03-16,2022-03-16,ｒｅａｔ株式会社,,株式会社,千葉県,千葉市若葉区,都賀５丁目７－１３,,12,104,2640025,,,,,,,2022-03-16,1,,,,,リート,0
1003,5040001122644,新規,0,2022-03-16,2022-03-16,株式会社ＫＡＫＵＴＡ,,株式会社,千葉県,松戸市,二十世紀が丘戸山町１３７－４,,12,207,2710082,,,,,,,2022-03-16,1,,,,,カクタ,0
1010,5050001050778,新規,0,2022-03-16,2022-03-16,株式会社ＺｅｒＯ,,株式会社,茨城県,守谷市,立沢２０４７番地の２,,08,224,3020118,,,,,,,2022-03-16,1,,,,,ゼロ,0
1016,5060001034656,新規,0,2022-03-16,2022-03-16,ＡＤＳホールディングス株式会社,,株式会社,栃木県,宇都宮市,東簗瀬１丁目３０番８号,,09,201,3210925,,,,,,,2022-03-16,1,,,,,エーディーエスホールディングス,0
1017,5060001034664,新規,0,2022-03-16,2022-03-16,株式会社ＬＩＮＫ,,株式会社,栃木県,宇都宮市,ゆいの杜５丁目１５番８号ヴィラーチェＨ２０２,,09,201,3213226,,,,,,,2022-03-16,1,,,,,リンク,0
1019,5070001039051,新規,0,2022-03-16,2022-03-16,ＥＣＥ株式会社,,株式会社,群馬県,高崎市,貝沢町９７９番地９,,10,202,3700042,,,,,,,2022-03-16,1,,,,,イーシーイー,0
1020,5070003004425,新規,0,2022-03-16,2022-03-16,ＫＫＴ合同会社,,合同会社,群馬県,前橋市,天川町１２番地７,,10,201,3710802,,,,,,,2022-03-16,1,,,,,ケーケーティー,0
1022,5090001017476,新規,0,2022-03-16,2022-03-16,ロジスケ株式会社,,株式会社,山梨県,南都留郡山中湖村,山中１２１２－１９３ハダモク株式会社気付,,19,425,4010501,,,,,,,2022-03-16,1,,,,,,0
1023,5090003002063,新規,0,2022-03-16,2022-03-16,ＬＥＡＬＥ合同会社,,合同会社,山梨県,甲府市,長松寺町１１番１８号,,19,201,4000067,,,,,,,2022-03-16,1,,,,,,0
1025,5100001035154,新規,0,2022-03-16,2022-03-16,株式会社信州八ヶ岳Ｅａｔ,,株式会社,長野県,茅野市,玉川１１４００番地１０７９,,20,214,3910011,,,,,,,2022-03-16,1,,,,,シンシュウヤツガタケイート,0
1045,5120901045696,新規,0,2022-03-16,2022-03-16,株式会社ｎｅｘｕｓｐｅｓ,,株式会社,大阪府,豊中市,少路１丁目１３－１０－５０１,,27,203,5600004,,,,,,,2022-03-16,1,,,,,ネクサスペース,0
1046,5120903004072,新規,0,2022-03-16,2022-03-16,合同会社Ａｒｉｎｅ,,合同会社,大阪府,高槻市,紺屋町８－２０－１０２,,27,207,5690804,,,,,,,2022-03-16,1,,,,,アリネ,0
1053,5130001071353,新規,0,2022-03-16,2022-03-16,株式会社京日和,,株式会社,京都府,京都市下京区,木屋町通松原下る材木町４３２－１,,26,106,6008016,,,,,,,2022-03-16,1,,,,,キョウヒヨリ,0
1054,5130001071361,新規,0,2022-03-16,2022-03-16,株式会社コネクトリージョン,,株式会社,京都府,京都市西京区,御陵峰ケ堂町２丁目９番地１５,,26,111,6101103,,,,,,,2022-03-16,1,,,,,コネクトリージョン,0
1062,5140005026071,新規,0,2022-03-16,2022-03-16,医療法人社団医水会,,その他の設立登記法人,兵庫県,尼崎市,神崎町７番２３号２階,,28,202,6610964,,,,,,,2022-03-16,1,,,,,イスイカイ,0
1069,5180001150400,新規,0,2022-03-16,2022-03-16,株式会社ＥＲＳ　Ｗｏｒｋｓ,,株式会社,愛知県,名古屋市昭和区,川名本町４丁目５番地の３,,23,107,4660855,,,,,,,2022-03-16,1,,,,,イーアールエスワークス,0
1070,5180001150409,新規,0,2022-03-16,2022-03-16,株式会社ＦＡＯ,,株式会社,愛知県,名古屋市中区,丸の内２丁目１３番１６号丸の内スクエア１０１,,23,106,4600002,,,,,,,2022-03-16,1,,,,,ファオ,0
1071,5180001150417,新規,0,2022-03-16,2022-03-16,ココロオドル株式会社,,株式会社,愛知県,名古屋市守山区,瀬古１丁目５０８番地ウィンザーコートＡ棟２０３号,,23,113,4630068,,,,,,,2022-03-16,1,,,,,ココロオドル,0
1072,5180001150425,新規,0,2022-03-16,2022-03-16,株式会社Ｌｅａｄ　Ｌｉｆｅ,,株式会社,愛知県,名古屋市千種区,田代本通５丁目９ジュネス佐久間３０１フロア,,23,101,4640827,,,,,,,2022-03-16,1,,,,,リードライフ,0
1076,5180003023612,新規,0,2022-03-16,2022-03-16,Ｖ＆Ａ合同会社,,合同会社,愛知県,名古屋市東区,徳川２丁目１０番２２号４Ｃ,,23,102,4610025,,,,,,,2022-03-16,1,,,,,ヴィーアンドエー,0
1077,5180301036027,新規,0,2022-03-16,2022-03-16,株式会社サンズ,,株式会社,愛知県,安城市,三河安城本町１丁目８番地２ピュアビル１Ｆ－Ｂ,,23,212,4460059,,,,,,,2022-03-16,1,,,,,サンズ,0
1079,5190001029230,新規,0,2022-03-16,2022-03-16,株式会社ＣＥＲＥＳ,,株式会社,三重県,津市,八町１丁目２番６号,,24,201,5140041,,,,,,,2022-03-16,1,,,,,ケレス,0
1087,5200003005491,新規,0,2022-03-16,2022-03-16,合同会社いろどりの結,,合同会社,岐阜県,郡上市,大和町島５６１番地,,21,219,5014610,,,,,,,2022-03-16,1,,,,,イロドリノムスビ,0
1091,5240003005554,新規,0,2022-03-16,2022-03-16,合同会社小野,,合同会社,広島県,福山市,本町７番２５号,,34,207,7200056,,,,,,,2022-03-16,1,,,,,オノ,0
1098,5290001096797,新規,0,2022-03-16,2022-03-16,スターリーシアター株式会社,,株式会社,福岡県,福岡市南区,玉川町１８番１２－２０６号,,40,134,8150037,,,,,,,2022-03-16,1,,,,,スターリーシアター,0
1099,5290001096806,新規,0,2022-03-16,2022-03-16,株式会社不動産オトンコンサルティング福岡,,株式会社,福岡県,福岡市西区,今宿西１丁目１５番９号,,40,135,8190169,,,,,,,2022-03-16,1,,,,,フドウサンオトンコンサルティングフクオカ,0
1100,5290001096822,新規,0,2022-03-16,2022-03-16,株式会社ＧＡＳＨＡＮ,,株式会社,福岡県,糸島市,二丈深江２１７２番地１,,40,230,8191601,,,,,,,2022-03-16,1,,,,,ガシャン,0
1101,5290801028339,新規,0,2022-03-16,2022-03-16,株式会社プラネットコーポレーション,,株式会社,福岡県,北九州市小倉北区,香春口１丁目２－１７－１２０１,,40,106,8020084,,,,,,,2022-03-16,1,,,,,プラネットコーポレーション,0
1103,5300001012835,新規,0,2022-03-16,2022-03-16,株式会社江見多久一商店,,株式会社,佐賀県,鳥栖市,弥生が丘１丁目８番地東峰マンション弥生が丘１１１２,,41,203,8410005,,,,,,,2022-03-16,1,,,,,エミタクイチショウテン,0
1110,5370003005624,新規,0,2022-03-16,2022-03-16,合同会社スタジオカノン,,合同会社,宮城県,仙台市宮城野区,宮千代１丁目２番地９,,04,102,9830044,,,,,,,2022-03-16,1,,,,,スタジオカノン,0
1117,5390001016828,新規,0,2022-03-16,2022-03-16,しかまハウス株式会社,,株式会社,山形県,長井市,花作町１番１７－７号,,06,209,9930017,,,,,,,2022-03-16,1,,,,,シカマハウス,0
1123,5430003013711,新規,0,2022-03-16,2022-03-16,合同会社３６９,,合同会社,北海道,札幌市厚別区,厚別中央三条２丁目５番１４号,,01,108,0040053,,,,,,,2022-03-16,1,,,,,ミロク,0
1128,5480001011679,新規,0,2022-03-16,2022-03-16,華宇株式会社,,株式会社,徳島県,名西郡石井町,藍畑字高畑５番,,36,341,7793213,,,,,,,2022-03-16,1,,,,,カウ,0
1132,5700150107239,新規,0,2022-03-16,2022-03-02,Ｇａｔｈｅｒｉｎｇ　Ｒｅｃｏｒｄｓ,,その他,大阪府,門真市,大橋町１３－１４,,27,223,5710077,,,,,,,2022-03-02,1,,,,,ギヤザリングレコーズ,0
1133,5700150107420,新規,0,2022-03-16,2022-03-16,ＳＯＬＡＲ　ＡＳＳＥＴＳ　ＰＴＥ．ＬＴＤ．,,外国会社等,,,,,,,,４１　Ｍｉｄｄｌｅ　Ｒｏａｄ　＃０４－００　Ｂｏｏｎ　Ｓｉｎｇ　Ｂｕｉｌｄｉｎｇ　Ｓｉｎｇａｐｏｒｅ,,,,,,2022-03-16,1,,,,,ソーラーアセツツピーテイーイーエルテイーデイー,0
1141,6010001225250,新規,0,2022-03-16,2022-03-16,株式会社ロードワークス,,株式会社,東京都,中央区,京橋３丁目１番１号,,13,102,1040031,,,,,,,2022-03-16,1,,,,,ロードワークス,0
1143,6010003037215,新規,0,2022-03-16,2022-03-16,合同会社Ｒｅｓｉｌｉｅｎｃｅ　ＶＩ,,合同会社,東京都,中央区,銀座１丁目６番１１号土志田ビルディング３Ｆ,,13,102,1040061,,,,,,,2022-03-16,1,,,,,レジリエンスシックス,0
1144,6010003037256,新規,0,2022-03-16,2022-03-16,合同会社ＹＳＫ２０２２,,合同会社,東京都,千代田区,麹町１丁目６番地９,,13,101,1020083,,,,,,,2022-03-16,1,,,,,ワイエスケーニゼロニニ,0
1153,6010401166210,新規,0,2022-03-16,2022-03-16,株式会社ＦＴＳ,,株式会社,東京都,港区,虎ノ門１丁目１１－９コンシェリア虎ノ門１００４号室,,13,103,1050001,,,,,,,2022-03-16,1,,,,,エフティーエス,0
1154,6010405020801,新規,0,2022-03-16,2022-03-16,ＦＳＰ１一般社団法人,,その他の設立登記法人,東京都,港区,虎ノ門４丁目１番２８号,,13,103,1050001,,,,,,,2022-03-16,1,,,,,エフエスピーイチ,0
1155,6010405020818,新規,0,2022-03-16,2022-03-16,一般財団法人ＧＬＰ財団,,その他の設立登記法人,東京都,港区,東新橋１丁目５番２号汐留シティセンター,,13,103,1050021,,,,,,,2022-03-16,1,,,,,ジーエルピーザイダン,0
1156,6010405020826,新規,0,2022-03-16,2022-03-16,ジャパンインフラホールディングス１８号一般社団法人,,その他の設立登記法人,東京都,港区,元赤坂１丁目１番７号,,13,103,1070051,,,,,,,2022-03-16,1,,,,,ジャパンインフラホールディングスジュウハチゴウ,0
1165,6010703006147,新規,0,2022-03-16,2022-03-16,合同会社Ｌｕｃｅ＆Ｐａｒｔｎｅｒｓ,,合同会社,東京都,品川区,東五反田２丁目１０番１―７０５号,,13,109,1410022,,,,,,,2022-03-16,1,,,,,ルーチェアンドパートナーズ,0
1166,6010703006155,新規,0,2022-03-16,2022-03-16,ナレッジノート合同会社,,合同会社,東京都,品川区,大井３丁目２番１２号,,13,109,1400014,,,,,,,2022-03-16,1,,,,,ナレッジノート,0
1173,6011001146271,新規,0,2022-03-16,2022-03-16,ＷＳ　ＩＮＴＥＲＮＡＴＩＯＮＡＬ株式会社,,株式会社,東京都,目黒区,三田２丁目７番９号プライムアーバン目黒三田１１３号室,,13,110,1530062,,,,,,,2022-03-16,1,,,,,ダブリューエスインターナショナル,0
1174,6011003014336,新規,0,2022-03-16,2022-03-16,合同会社ＫＡＭＩＫＡＺＥ,,合同会社,東京都,目黒区,青葉台１丁目３０－４エクセレンス青葉台４０２,,13,110,1530042,,,,,,,2022-03-16,1,,,,,,0
1175,6011003014360,新規,0,2022-03-16,2022-03-16,プロダクトオブアーツコンサルティング合同会社,,合同会社,東京都,目黒区,大橋１丁目５番１－１８１３号,,13,110,1530044,,,,,,,2022-03-16,1,,,,,プロダクトオブアーツコンサルティング,0
1178,6011101098157,新規,0,2022-03-16,2022-03-16,株式会社土田ファンエステイト,,株式会社,東京都,新宿区,西新宿３丁目５番３号西新宿ダイヤモンドパレス１００６号室,,13,104,1600023,,,,,,,2022-03-16,1,,,,,ツチダファンエステイト,0
1179,6011103011563,新規,0,2022-03-16,2022-03-16,関東ファシリティーズ合同会社,,合同会社,東京都,新宿区,高田馬場１丁目３２番１０号,,13,104,1690075,,,,,,,2022-03-16,1,,,,,カントウファシリティーズ,0
1184,6011701025114,新規,0,2022-03-16,2022-03-16,株式会社住まいと暮らし滝沢,,株式会社,東京都,江戸川区,平井２丁目２４番３号,,13,123,1320035,,,,,,,2022-03-16,1,,,,,スマイトクラシタキザワ,0
1185,6011801040450,新規,0,2022-03-16,2022-03-16,株式会社ＲＥＥＲ　ＪＡＰＡＮ,,株式会社,東京都,足立区,古千谷本町４丁目３番１０号,,13,121,1210832,,,,,,,2022-03-16,1,,,,,リアジャパン,0
1187,6011803005006,新規,0,2022-03-16,2022-03-16,合同会社ナツキ,,合同会社,東京都,足立区,柳原１丁目１７番１０号１階,,13,121,1200022,,,,,,,2022-03-16,1,,,,,ナツキ,0
1192,6013101008863,新規,0,2022-03-16,2022-03-16,株式会社らいおん,,株式会社,東京都,羽村市,緑ヶ丘１丁目１８番地３,,13,227,2050003,,,,,,,2022-03-16,1,,,,,ライオン,0
1201,6020003021449,新規,0,2022-03-16,2022-03-16,合同会社ＳＯＮＤＥＫ,,合同会社,神奈川県,横浜市緑区,中山３丁目１３－１９,,14,113,2260019,,,,,,,2022-03-16,1,,,,,,0
1202,6020003021457,新規,0,2022-03-16,2022-03-16,合同会社ジオフィルド,,合同会社,神奈川県,横浜市西区,北幸１丁目１１番１号水信ビル７階,,14,103,2200004,,,,,,,2022-03-16,1,,,,,ジオフィルド,0
1203,6020003021465,新規,0,2022-03-16,2022-03-16,合同会社ＣｏｚｙＰｌａｎｎｉｎｇ,,合同会社,神奈川県,横浜市西区,みなとみらい２丁目２－１横浜ランドマークプラザ５Ｆ,,14,103,2200012,,,,,,,2022-03-16,1,,,,,コージープランニング,0
1206,6021001075429,新規,0,2022-03-16,2022-03-16,スペース工業株式会社,,株式会社,神奈川県,鎌倉市,材木座１丁目４番１８号,,14,204,2480013,,,,,,,2022-03-16,1,,,,,スペースコウギョウ,0
1207,6021001075437,新規,0,2022-03-16,2022-03-16,株式会社アグライア,,株式会社,神奈川県,相模原市南区,東林間３丁目６番８号アヴェニール東林間２０１,,14,153,2520311,,,,,,,2022-03-16,1,,,,,アグライア,0
1219,6030001147105,新規,0,2022-03-16,2022-03-16,株式会社パナテゥレー,,株式会社,埼玉県,熊谷市,万吉５７２番地１６１,,11,202,3600161,,,,,,,2022-03-16,1,,,,,パナテゥレー,0
1220,6030001147278,新規,0,2022-03-16,2022-03-16,株式会社カラヴィータ,,株式会社,埼玉県,和光市,新倉２丁目９番３８号,,11,229,3510115,,,,,,,2022-03-16,1,,,,,カラヴィータ,0
1221,6030001147286,新規,0,2022-03-16,2022-03-16,株式会社ＡＭＩ,,株式会社,埼玉県,比企郡滑川町,大字羽尾２８２番地,,11,341,3550811,,,,,,,2022-03-16,1,,,,,エーエムアイ,0
1225,6030003019038,新規,0,2022-03-16,2022-03-16,合同会社なかや,,合同会社,埼玉県,さいたま市南区,辻７丁目１２番５－３０８号,,11,108,3360026,,,,,,,2022-03-16,1,,,,,ナカヤ,0
1234,6040003019631,新規,0,2022-03-16,2022-03-16,合同会社セブンシーズ,,合同会社,千葉県,流山市,南流山５丁目５－１Ｋハウス南流山３０３,,12,220,2700163,,,,,,,2022-03-16,1,,,,,セブンシーズ,0
1240,6060001034663,新規,0,2022-03-16,2022-03-16,株式会社ＢＸ,,株式会社,栃木県,佐野市,植野町１８９１番地１朝日ビル１０１,,09,204,3270837,,,,,,,2022-03-16,1,,,,,ビーエックス,0
1244,6070001039050,新規,0,2022-03-16,2022-03-16,株式会社恒明建築設備,,株式会社,群馬県,前橋市,富士見町石井１６７２番地１０,,10,201,3710105,,,,,,,2022-03-16,1,,,,,コウミョウケンチクセツビ,0
1246,6070003004424,新規,0,2022-03-16,2022-03-16,エンリッチカンパニー合同会社,,合同会社,群馬県,藤岡市,立石６２１－２,,10,209,3750002,,,,,,,2022-03-16,1,,,,,エンリッチカンパニー,0
1250,6090001017475,新規,0,2022-03-16,2022-03-16,Ｋロジスティクス株式会社,,株式会社,山梨県,北杜市,長坂町中丸２０７２番地,,19,209,4080036,,,,,,,2022-03-16,1,,,,,ケーロジスティクス,0
1253,6100001035161,新規,0,2022-03-16,2022-03-16,株式会社Ｓｎｏｗ　Ｓａｉｌ,,株式会社,長野県,大町市,平７５９２番地２２,,20,212,3980001,,,,,,,2022-03-16,1,,,,,スノーセイル,0
1255,6100003006458,新規,0,2022-03-16,2022-03-16,合同会社森の企画係,,合同会社,長野県,北佐久郡軽井沢町,大字長倉１６９５番地１,,20,321,3890111,,,,,,,2022-03-16,1,,,,,モリノキカクガカリ,0
1257,6110003004717,新規,0,2022-03-16,2022-03-16,ヒナタビト合同会社,,合同会社,新潟県,新潟市東区,下木戸１丁目７－４ララル１０１,,15,102,9500885,,,,,,,2022-03-16,1,,,,,ヒナタビト,0
1266,6120101065222,新規,0,2022-03-16,2022-03-16,株式会社Ｂｅｉｄｅ．Ｆ,,株式会社,大阪府,堺市東区,日置荘西町２丁３９－１１,,27,143,5998114,,,,,,,2022-03-16,1,,,,,バイデ,0
1267,6120101065230,新規,0,2022-03-16,2022-03-16,株式会社Ｎｉｎｅ,,株式会社,大阪府,羽曳野市,誉田２丁目５番２４号,,27,222,5830857,,,,,,,2022-03-16,1,,,,,ナイン,0
1268,6120101065239,新規,0,2022-03-16,2022-03-16,株式会社ケイウェアハウス,,株式会社,大阪府,大阪狭山市,狭山１丁目２３５６番地２,,27,231,5890005,,,,,,,2022-03-16,1,,,,,ケイウェアハウス,0
1273,6120903004071,新規,0,2022-03-16,2022-03-16,合同会社ぽぽ,,合同会社,大阪府,吹田市,岸部中１丁目２４番３４号,,27,205,5640002,,,,,,,2022-03-16,1,,,,,ポポ,0
1275,6120905006297,新規,0,2022-03-16,2022-03-16,一般社団法人幸朋樹,,その他の設立登記法人,大阪府,茨木市,駅前３丁目６番２号ＢＯＸＦＩＶＥ５階,,27,211,5670888,,,,,,,2022-03-16,1,,,,,コウホウジュ,0
1289,6140001125264,新規,0,2022-03-16,2022-03-16,株式会社ＮＹＭ,,株式会社,兵庫県,西宮市,東山台３丁目３７番地１４,,28,204,6691133,,,,,,,2022-03-16,1,,,,,エヌワイエム,0
1290,6140001125272,新規,0,2022-03-16,2022-03-16,株式会社プライズ,,株式会社,兵庫県,養父市,大屋町中４９１番地,,28,222,6670304,,,,,,,2022-03-16,1,,,,,プライズ,0
1291,6140001125289,新規,0,2022-03-16,2022-03-16,株式会社ｃｏｎｌａｎｄ,,株式会社,兵庫県,神戸市中央区,中町通３丁目１番１６号サンビル５０２,,28,110,6500027,,,,,,,2022-03-16,1,,,,,コンランド,0
1293,6140003017468,新規,0,2022-03-16,2022-03-16,合同会社Ｅｉｎｓ,,合同会社,兵庫県,尼崎市,杭瀬北新町１丁目５番１５－５０５号,,28,202,6600815,,,,,,,2022-03-16,1,,,,,アインス,0
1298,6170001017013,新規,0,2022-03-16,2022-03-16,株式会社ｎｅｉｒｏ,,株式会社,和歌山県,田辺市,秋津町９６番地の７,,30,206,6460005,,,,,,,2022-03-16,1,,,,,ネイロ,0
1307,6180003023594,新規,0,2022-03-16,2022-03-16,ＭＩＲＡＩ　Ｃｏｎｓｕｌｔｉｎｇ合同会社,,合同会社,愛知県,春日井市,旭町３丁目２－３,,23,206,4860929,,,,,,,2022-03-16,1,,,,,ミライコンサルティング,0
1309,6180301036026,新規,0,2022-03-16,2022-03-16,株式会社Ｇ‐ｂｉｔ,,株式会社,愛知県,岡崎市,明大寺町字西郷中３９番地４,,23,202,4440867,,,,,,,2022-03-16,1,,,,,ジービット,0
1314,6200003005490,新規,0,2022-03-16,2022-03-16,合同会社工房楔,,合同会社,岐阜県,羽島市,上中町長間１６８番地,,21,209,5016311,,,,,,,2022-03-16,1,,,,,コウボウセツ,0
1317,6220003003245,新規,0,2022-03-16,2022-03-16,竹と人合同会社,,合同会社,石川県,金沢市,木越町タ１２５番地,,17,201,9200203,,,,,,,2022-03-16,1,,,,,タケトヒト,0
1318,6230001019275,新規,0,2022-03-16,2022-03-16,株式会社Ｋ‐ＬＩＮＥ,,株式会社,富山県,富山市,稲代２９５番地２,,16,201,9392231,,,,,,,2022-03-16,1,,,,,ケーライン,0
1320,6260001036648,新規,0,2022-03-16,2022-03-16,株式会社３０ＬＤＫ,,株式会社,岡山県,岡山市北区,横井上２０３－１ビッグバーンズマンションＡ棟２０７,,33,101,7011145,,,,,,,2022-03-16,1,,,,,サンジュウエルディーケー,0
1322,6260003003844,新規,0,2022-03-16,2022-03-16,合同会社こもれび,,合同会社,岡山県,美作市,尾谷７３９番地,,33,215,7012601,,,,,,,2022-03-16,1,,,,,コモレビ,0
1326,6290001096796,新規,0,2022-03-16,2022-03-16,株式会社ＭａｏＷｏｒｌｄ,,株式会社,福岡県,福岡市中央区,薬院３丁目１６番２６号西鉄薬院ビル５階,,40,133,8100022,,,,,,,2022-03-16,1,,,,,マオワールド,0
1327,6290001096805,新規,0,2022-03-16,2022-03-16,株式会社ｎｅｋｋｏ,,株式会社,福岡県,福岡市中央区,大名２丁目４番３８－９０９号,,40,133,8100041,,,,,,,2022-03-16,1,,,,,ネッコ,0
1328,6290001096813,新規,0,2022-03-16,2022-03-16,株式会社ＹＫＳ,,株式会社,福岡県,福岡市中央区,那の津１丁目３番６号,,40,133,8100071,,,,,,,2022-03-16,1,,,,,ワイケーエス,0
1329,6290001096821,新規,0,2022-03-16,2022-03-16,株式会社ｌａｂｏ,,株式会社,福岡県,福岡市早良区,有田７丁目１９番２９号,,40,137,8140033,,,,,,,2022-03-16,1,,,,,ラボ,0
1334,6290003012280,新規,0,2022-03-16,2022-03-16,合同会社ｉｎｎｏｃｅｎｔ　ｇｒｅｅｎｓ,,合同会社,福岡県,福岡市南区,西長住３丁目６番９号,,40,134,8111361,,,,,,,2022-03-16,1,,,,,イノセントグリーンズ,0
1339,6320001018961,新規,0,2022-03-16,2022-03-16,株式会社Ｂａｎｊｏ,,株式会社,大分県,大分市,要町３番３２－２０１号ＲＪＲプレシア大分駅前ＩＩＩ,00125990,44,201,8700831,,,,,,,2022-03-16,1,,,,,バンジョー,0
1343,6330001029545,新規,0,2022-03-16,2022-03-16,株式会社ＫＮＰ,,株式会社,熊本県,熊本市中央区,中央街１番２９号ＪＡＣＫビル５Ｆ,,43,101,8600802,,,,,,,2022-03-16,1,,,,,ケイエヌピイ,0
1346,6330003009289,新規,0,2022-03-16,2022-03-16,合同会社ｃｏｃｏａ,,合同会社,熊本県,山鹿市,鹿北町芋生３６３４番地,,43,208,8610602,,,,,,,2022-03-16,1,,,,,ココア,0
1348,6340003003737,新規,0,2022-03-16,2022-03-16,合同会社ＮＥＴＳ,,合同会社,鹿児島県,鹿児島市,上之園町２４－１０,,46,201,8900052,,,,,,,2022-03-16,1,,,,,ネッツ,0
1349,6340005009427,新規,0,2022-03-16,2022-03-16,一般社団法人Ｖスポーツ,,その他の設立登記法人,鹿児島県,指宿市,十町２３３４番地,,46,210,8910402,,,,,,,2022-03-16,1,,,,,ブイスポーツ,0
1356,6370003005623,新規,0,2022-03-16,2022-03-16,合同会社ｇｅｎｅｓｉｓ,,合同会社,宮城県,仙台市太白区,あすと長町３丁目１番６５－１３０１号,,04,104,9820007,,,,,,,2022-03-16,1,,,,,ジェネシス,0
1359,6430001086205,新規,0,2022-03-16,2022-03-16,株式会社マルエイフードシステムズ,,株式会社,北海道,札幌市西区,西野十一条９丁目１９番１４号,,01,107,0630041,,,,,,,2022-03-16,1,,,,,マルエイフードシステムズ,0
1360,6430003013702,新規,0,2022-03-16,2022-03-16,合同会社アイコネクト,,合同会社,北海道,札幌市中央区,南十五条西８丁目１番１６号,,01,101,0640915,,,,,,,2022-03-16,1,,,,,アイコネクト,0
1365,6470001019004,新規,0,2022-03-16,2022-03-16,株式会社新星,,株式会社,香川県,丸亀市,郡家町１６２３番地７,,37,202,7630093,,,,,,,2022-03-16,1,,,,,シンセイ,0
1373,6500001024066,新規,0,2022-03-16,2022-03-16,株式会社Ａｋａｒｉ,,株式会社,愛媛県,松山市,北斎院町２０番１号,,38,201,7918031,,,,,,,2022-03-16,1,,,,,アカリ,0
1377,6700150023591,新規,0,2022-03-16,2015-10-09,関西パレット回収連合会,,その他,大阪府,大阪市港区,福崎３丁目１番１８８号,,27,107,5520013,,,,,,,2015-10-09,1,,,,,カンサイパレツトカイシユウレンゴウカイ,0
1379,6700150107428,新規,0,2022-03-16,2022-03-16,Ｓ．Ｋ．Ｚ．ＴＲＡＤＩＮＧ　ＣＯＭＰＡＮＹ　ＰＲＩＶＡＴＥ　ＬＩＭＩＴＥＤ,,外国会社等,神奈川県,藤沢市,大庭１０１７番地,,14,205,2510861,スリランカ民主社会主義共和国、キャンディ地区、アクラナ、マータラ道路、１５０番地,,,,,,2022-03-16,1,,,,,エスケイゼツトトレーデイングカンパニープライベートリミテツド,0
1385,7010001225225,新規,0,2022-03-16,2022-03-16,株式会社インフィニティ,,株式会社,東京都,文京区,小石川２丁目１１番１７号,,13,105,1120002,,,,,,,2022-03-16,1,,,,,インフィニティ,0
1386,7010001225241,新規,0,2022-03-16,2022-03-16,トランシンク株式会社,,株式会社,東京都,中央区,銀座１丁目２２番１１号銀座大竹ビジデンス２階,,13,102,1040061,,,,,,,2022-03-16,1,,,,,トランシンク,0
1390,7010003037214,新規,0,2022-03-16,2022-03-16,合同会社Ｒｅｓｉｌｉｅｎｃｅ　Ｖ,,合同会社,東京都,中央区,銀座１丁目６番１１号土志田ビルディング３Ｆ,,13,102,1040061,,,,,,,2022-03-16,1,,,,,レジリエンスファイブ,0
1391,7010003037255,新規,0,2022-03-16,2022-03-16,合同会社富貴堂,,合同会社,東京都,中央区,日本橋小舟町１４番７号２Ｆ,,13,102,1030024,,,,,,,2022-03-16,1,,,,,フーキドウ,0
1397,7010401166176,新規,0,2022-03-16,2022-03-16,株式会社Ｍ＆Ａカレッジ,,株式会社,東京都,港区,六本木３丁目４－２コープ野村六本木１－３０５号室,,13,103,1060032,,,,,,,2022-03-16,1,,,,,エムアンドエーカレッジ,0
1398,7010401166192,新規,0,2022-03-16,2022-03-16,株式会社ＳＫ,,株式会社,東京都,港区,南青山２丁目２番１５号ＷＩＮ青山５３１,,13,103,1070062,,,,,,,2022-03-16,1,,,,,エスケイ,0
1399,7010401166226,新規,0,2022-03-16,2022-03-16,株式会社ビテック,,株式会社,東京都,港区,西新橋１丁目１８番６号クロスオフィス内幸町８１０号,,13,103,1050003,,,,,,,2022-03-16,1,,,,,ビテック,0
1400,7010401166234,新規,0,2022-03-16,2022-03-16,株式会社ＦｕｎＥａｔ．,,株式会社,東京都,港区,赤坂４丁目８番１９号赤坂フロントタウン３階,,13,103,1070052,,,,,,,2022-03-16,1,,,,,ファンイートドット,0
1402,7010403027285,新規,0,2022-03-16,2022-03-16,合同会社すいと,,合同会社,東京都,港区,南青山２丁目２番１５号,,13,103,1070062,,,,,,,2022-03-16,1,,,,,スイト,0
1403,7010403027293,新規,0,2022-03-16,2022-03-16,Ｓｏｙｏｎｓ合同会社,,合同会社,東京都,港区,赤坂８丁目５－５－５０６,,13,103,1070052,,,,,,,2022-03-16,1,,,,,ソワイヨン,0
1404,7010405020809,新規,0,2022-03-16,2022-03-16,ＦＳＰＢ５一般社団法人,,その他の設立登記法人,東京都,港区,虎ノ門４丁目１番２８号,,13,103,1050001,,,,,,,2022-03-16,1,,,,,エフエスピービーゴ,0
1405,7010405020825,新規,0,2022-03-16,2022-03-16,Ｔインフラホールディングス７号一般社団法人,,その他の設立登記法人,東京都,港区,元赤坂１丁目１番７号,,13,103,1070051,,,,,,,2022-03-16,1,,,,,ティーインフラホールディングスナナゴウ,0
1413,7010803004099,新規,0,2022-03-16,2022-03-16,合同会社ＳＵＮＡＯ,,合同会社,東京都,大田区,仲六郷２丁目４５－９ＡＩＫＡＭＡＴＡ５１８,,13,111,1440055,,,,,,,2022-03-16,1,,,,,スナオ,0
1418,7010905004286,新規,0,2022-03-16,2022-03-16,一般財団法人アルディ・ナ・ウペポ,,その他の設立登記法人,東京都,世田谷区,成城６丁目１６番２５号,,13,112,1570066,,,,,,,2022-03-16,1,,,,,アルディナウペポ,0
1420,7011001146238,新規,0,2022-03-16,2022-03-16,株式会社セカイボックス,,株式会社,東京都,渋谷区,神宮前６丁目２３番４号桑野ビル２階,,13,113,1500001,,,,,,,2022-03-16,1,,,,,セカイボックス,0
1422,7011003014351,新規,0,2022-03-16,2022-03-16,合同会社ハスラー,,合同会社,東京都,目黒区,駒場４丁目１番９－１０７号駒場レジデンス,,13,110,1530041,,,,,,,2022-03-16,1,,,,,ハスラー,0
1430,7011303004341,新規,0,2022-03-16,2022-03-16,合同会社クリエイティブ,,合同会社,東京都,杉並区,下高井戸２丁目１４番１４－２０７号,,13,115,1680073,,,,,,,2022-03-16,1,,,,,クリエイティブ,0
1439,7011803005005,新規,0,2022-03-16,2022-03-16,ＧＲＥＥＮＳＴＡＲＳ合同会社,,合同会社,東京都,足立区,千住河原町２６－１３,,13,121,1200037,,,,,,,2022-03-16,1,,,,,グリーンスターズ,0
1452,7020001145620,新規,0,2022-03-16,2022-03-16,ＹＯＳＨＩ　ＨＯＬＤＩＮＧＳ株式会社,,株式会社,神奈川県,横浜市中区,長者町２丁目５番地１８ピアセントラルビル,,14,104,2310033,,,,,,,2022-03-16,1,,,,,,0
1453,7020001145637,新規,0,2022-03-16,2022-03-16,株式会社ヘヤカリル,,株式会社,神奈川県,横浜市中区,相生町２丁目４２－３,,14,104,2310012,,,,,,,2022-03-16,1,,,,,ヘヤカリル,0
1454,7020001145661,新規,0,2022-03-16,2022-03-16,株式会社ＴｅＬＡ,,株式会社,神奈川県,横浜市戸塚区,川上町８８番地１,,14,110,2440805,,,,,,,2022-03-16,1,,,,,テラ,0
1458,7020003021464,新規,0,2022-03-16,2022-03-16,合同会社エイトクラックス,,合同会社,神奈川県,横浜市金沢区,釜利谷西５丁目２－１８,,14,108,2360046,,,,,,,2022-03-16,1,,,,,エイトクラックス,0
1460,7021001075436,新規,0,2022-03-16,2022-03-16,株式会社五兵衛,,株式会社,神奈川県,藤沢市,辻堂元町３丁目１５番１９号,,14,205,2510043,,,,,,,2022-03-16,1,,,,,ゴヘエ,0
1461,7021001075444,新規,0,2022-03-16,2022-03-16,株式会社アトリエ柚子,,株式会社,神奈川県,三浦郡葉山町,一色５９７番地の１０,,14,301,2400111,,,,,,,2022-03-16,1,,,,,アトリエユズ,0
1462,7021001075460,新規,0,2022-03-16,2022-03-16,株式会社Ｔ’ｚ,,株式会社,神奈川県,伊勢原市,三ノ宮１０５７番地の３,,14,214,2591103,,,,,,,2022-03-16,1,,,,,ティーズ,0
1467,7030001147236,新規,0,2022-03-16,2022-03-16,株式会社ペイントタウン,,株式会社,埼玉県,加須市,陽光台１丁目３００番地１７８パルネット輝１０１号室,,11,210,3491204,,,,,,,2022-03-16,1,,,,,ペイントタウン,0
1468,7030001147269,新規,0,2022-03-16,2022-03-16,株式会社ジャパン厨房サービス,,株式会社,埼玉県,熊谷市,広瀬８４番地４,,11,202,3600833,,,,,,,2022-03-16,1,,,,,ジャパンチュウボウサービス,0
1469,7030001147285,新規,0,2022-03-16,2022-03-16,株式会社Ｗｉｓｔｅｒｉａ　ｌｅａｆ,,株式会社,埼玉県,新座市,栗原３丁目１番３号,,11,230,3520035,,,,,,,2022-03-16,1,,,,,ウィステリアリーフ,0
1471,7030003018897,新規,0,2022-03-16,2022-03-16,合同会社Ｎａｇｅｉａ　ｎａｇｉ,,合同会社,埼玉県,さいたま市浦和区,上木崎６丁目１９番２４－２号,,11,107,3300071,,,,,,,2022-03-16,1,,,,,ナギアナギ,0
1472,7030003019029,新規,0,2022-03-16,2022-03-16,合同会社Ａｄｅｎ,,合同会社,埼玉県,新座市,大和田５丁目２番２３号ゴールドコースト北１０１号室,,11,230,3520004,,,,,,,2022-03-16,1,,,,,アデン,0
1473,7030003019037,新規,0,2022-03-16,2022-03-16,ファーロンズ合同会社,,合同会社,埼玉県,川口市,本町４丁目３－１４小峰第一ビル４階,,11,203,3320012,,,,,,,2022-03-16,1,,,,,ファーロンズ,0
1478,7040001122634,新規,0,2022-03-16,2022-03-16,ＴＲＹ　ａｎｄ　ＭＩＮＤ株式会社,,株式会社,千葉県,安房郡鋸南町,竜島１６５－３４,,12,463,2992118,,,,,,,2022-03-16,1,,,,,トライアンドマインド,0
1483,7050003006438,新規,0,2022-03-16,2022-03-16,合同会社ＳＫ,,合同会社,茨城県,古河市,尾崎２９０３番地９,,08,204,3060101,,,,,,,2022-03-16,1,,,,,エスケイ,0
1484,7060001034662,新規,0,2022-03-16,2022-03-16,株式会社Ｅｍｐｒｅｓｓ　ＤＡＳＨ,,株式会社,栃木県,小山市,城北３丁目２０番地１０,,09,208,3230029,,,,,,,2022-03-16,1,,,,,エンプレスダッシュ,0
1485,7060003003979,新規,0,2022-03-16,2022-03-16,ジュニアビッグ合同会社,,合同会社,栃木県,宇都宮市,西川田南１丁目４３番４号,,09,201,3210155,,,,,,,2022-03-16,1,,,,,ジュニアビッグ,0
1486,7070003004423,新規,0,2022-03-16,2022-03-16,合同会社ＴＭＫＧ,,合同会社,群馬県,藤岡市,中大塚６５３－４,,10,209,3750053,,,,,,,2022-03-16,1,,,,,ティーエムケージー,0
1487,7080001024810,新規,0,2022-03-16,2022-03-16,株式会社朝倉工業,,株式会社,静岡県,静岡市葵区,美川町１１番９号,,22,101,4200875,,,,,,,2022-03-16,1,,,,,アサクラコウギョウ,0
1489,7080101023150,新規,0,2022-03-16,2022-03-16,株式会社Ｒｅ’ｍａｋｅ,,株式会社,静岡県,三島市,長伏６５６番地ルミエールスズキ２０２,,22,206,4110824,,,,,,,2022-03-16,1,,,,,リメイク,0
1493,7090001017474,新規,0,2022-03-16,2022-03-16,株式会社山梨外語学院,,株式会社,山梨県,甲府市,武田４丁目１番２９号,,19,201,4000016,,,,,,,2022-03-16,1,,,,,ヤマナシガイゴガクイン,0
1496,7100001035160,新規,0,2022-03-16,2022-03-16,株式会社Ｐａｌｃｏａｔ,,株式会社,長野県,上伊那郡箕輪町,大字三日町１００４番地,,20,383,3994603,,,,,,,2022-03-16,1,,,,,パルコート,0
1500,7110003004716,新規,0,2022-03-16,2022-03-16,合同会社Ａｓｈｕ　Ｉｎｔｅｒｎａｔｉｏｎａｌ,,合同会社,新潟県,新発田市,下坂町４７８番地６,,15,206,9592478,,,,,,,2022-03-16,1,,,,,アシュインターナショナル,0
1525,7140001125288,新規,0,2022-03-16,2022-03-16,半島チェーン工業株式会社,,株式会社,兵庫県,神戸市中央区,江戸町９８番地１東町・江戸町ビル５階,,28,110,6500033,,,,,,,2022-03-16,1,,,,,バンドチェーンコウギョウ,0
1526,7140001125296,新規,0,2022-03-16,2022-03-16,エムウォーク株式会社,,株式会社,兵庫県,神戸市須磨区,北落合３丁目３０番１８号,,28,107,6540151,,,,,,,2022-03-16,1,,,,,エムウォーク,0
1529,7140003017467,新規,0,2022-03-16,2022-03-16,エムズワールド合同会社,,合同会社,兵庫県,西宮市,上大市５丁目２番２５号,,28,204,6638003,,,,,,,2022-03-16,1,,,,,エムズワールド,0
1532,7150001025405,新規,0,2022-03-16,2022-03-16,Ｎｅｘｔ　Ｉｎｎｏｖａｔｉｏｎ和株式会社,,株式会社,奈良県,生駒郡斑鳩町,法隆寺北２丁目７番３９号,,29,344,6360111,,,,,,,2022-03-16,1,,,,,ネクストイノベーションナゴミ,0
1534,7170001017012,新規,0,2022-03-16,2022-03-16,桑原組株式会社,,株式会社,和歌山県,有田市,宮崎町２９５番地１,,30,204,6490316,,,,,,,2022-03-16,1,,,,,クワハラグミ,0
1542,7180001150407,新規,0,2022-03-16,2022-03-16,株式会社ベジタリ菜,,株式会社,愛知県,津島市,青塚町２丁目２５番地１,,23,208,4960001,,,,,,,2022-03-16,1,,,,,ベジタリナ,0
1549,7180003023627,新規,0,2022-03-16,2022-03-16,クリプトマイナー合同会社,,合同会社,愛知県,日進市,香久山５丁目２０１番地１,,23,230,4700134,,,,,,,2022-03-16,1,,,,,クリプトマイナー,0
1550,7180005019680,新規,0,2022-03-16,2022-03-16,一般社団法人きものスタイルアカデミー,,その他の設立登記法人,愛知県,尾張旭市,長坂町南山２８５９番地２５,,23,226,4880821,,,,,,,2022-03-16,1,,,,,キモノスタイルアカデミー,0
1553,7180301036025,新規,0,2022-03-16,2022-03-16,株式会社Ｔ‐ｅｍｏｔｉｏｎ,,株式会社,愛知県,岡崎市,明大寺町字西郷中３９番地４,,23,202,4440867,,,,,,,2022-03-16,1,,,,,ティーエモーション,0
1563,7240001059468,新規,0,2022-03-16,2022-03-16,株式会社リアン,,株式会社,広島県,福山市,加茂町大字下加茂４００番地１,,34,207,7202412,,,,,,,2022-03-16,1,,,,,リアン,0
1572,7290001096779,新規,0,2022-03-16,2022-03-16,株式会社Ｌｅａｐｈｉｃ,,株式会社,福岡県,福岡市東区,多の津５丁目２３番４号シティベール松元Ｄ２２０号,,40,131,8130034,,,,,,,2022-03-16,1,,,,,リーピック,0
1573,7290001096804,新規,0,2022-03-16,2022-03-16,ｐｌａｆｔｏｗａ株式会社,,株式会社,福岡県,福岡市西区,福重５丁目３番６号１階,,40,135,8190022,,,,,,,2022-03-16,1,,,,,プラフトワ,0
1574,7290001096829,新規,0,2022-03-16,2022-03-16,株式会社ＬｅｏＲａｍｂｌａｓ,,株式会社,福岡県,福岡市中央区,渡辺通３丁目１０番３９－７０６号,,40,133,8100004,,,,,,,2022-03-16,1,,,,,レオランブラス,0
1575,7290001096837,新規,0,2022-03-16,2022-03-16,株式会社ガーデンプランニング,,株式会社,福岡県,久留米市,国分町５１６番地トマトハイツ２０３,,40,203,8390863,,,,,,,2022-03-16,1,,,,,ガーデンプランニング,0
1581,7330001029544,新規,0,2022-03-16,2022-03-16,株式会社エイチ・バイオメディカル,,株式会社,熊本県,熊本市東区,保田窪３丁目１５番７号シティライフ６０３,,43,102,8620926,,,,,,,2022-03-16,1,,,,,エイチバイオメディカル,0
1586,7340005009426,新規,0,2022-03-16,2022-03-16,医療法人Ｋｕｒｏｒｔ,,その他の設立登記法人,鹿児島県,鹿児島市,広木２丁目３８番１５号,,46,201,8900037,,,,,,,2022-03-16,1,,,,,クアオルト,0
1587,7350001017638,新規,0,2022-03-16,2022-03-16,株式会社ＫＺ．企画,,株式会社,宮崎県,宮崎市,月見ケ丘４丁目２８番１４号,,45,201,8800926,,,,,,,2022-03-16,1,,,,,カズキカク,0
1599,7410005006457,新規,0,2022-03-16,2022-03-16,一般社団法人鳥海山・飛島ジオパーク推進協議会,,その他の設立登記法人,秋田県,にかほ市,象潟町字大塩越３６番地１,,05,214,0180121,,,,,,,2022-03-16,1,,,,,チョウカイサントビシマジオパークスイシンキョウギカイ,0
1604,7430001086229,新規,0,2022-03-16,2022-03-16,株式会社ＮＳＢ,,株式会社,北海道,札幌市東区,北二十二条東１８丁目１番１８－２０３号,,01,103,0650022,,,,,,,2022-03-16,1,,,,,エヌエスビー,0
1606,7430003013718,新規,0,2022-03-16,2022-03-16,アーキット合同会社,,合同会社,北海道,札幌市中央区,南一条西１６丁目１番地３２３春野ビル３Ｆ,,01,101,0600061,,,,,,,2022-03-16,1,,,,,アーキット,0
1609,7440005002718,新規,0,2022-03-16,2022-03-16,チームマツダ行政書士法人,,その他の設立登記法人,北海道,函館市,杉並町１３番１２号,,01,202,0400004,,,,,,,2022-03-16,1,,,,,チームマツダ,0
1612,7500001024065,新規,0,2022-03-16,2022-03-16,株式会社Ｈ＆Ｓフォレストコンサルティング,,株式会社,愛媛県,松山市,喜与町１丁目６－２,,38,201,7900802,,,,,,,2022-03-16,1,,,,,エイチアンドエスフォレストコンサルティング,0
1613,7700150107229,新規,0,2022-03-16,2022-03-02,大宜味村ＰＲ実行委員会,,その他,沖縄県,国頭郡大宜味村,字大兼久１５７番地,,47,302,9051305,,,,,,,2022-03-02,1,,,,,オオギミソンピーアールジツコウイインカイ,0
1614,7700150107336,新規,0,2022-03-16,2022-03-09,中国横断自動車道岡山米子線（蒜山ＩＣ～境港間）整備促進期成同盟会,,その他,鳥取県,米子市,加茂町１丁目１,,31,202,6830823,,,,,,,2022-03-09,1,,,,,チユウゴクオウダンジドウシヤドウオカヤマヨナゴセンヒルゼンアイシーカラサカイミナトカンセイビソクシンキセイドウメイカイ,0
1615,7700150107419,新規,0,2022-03-16,2022-03-16,ＧｏＰｒｏ，Ｉｎｃ．,,外国会社等,,,,,,,,３０２５　Ｃｌｅａｒｖｉｅｗ　Ｗａｙ，　Ｓａｎ　Ｍａｔｅｏ，　ＣＡ　９４４０２，　Ｕｎｉｔｅｄ　Ｓｔａｔｅｓ,,,,,,2022-03-16,1,,,,,ゴープロインク,0
1627,8010003037213,新規,0,2022-03-16,2022-03-16,合同会社Ｒｅｓｉｌｉｅｎｃｅ　ＩＶ,,合同会社,東京都,中央区,銀座１丁目６番１１号土志田ビルディング３Ｆ,,13,102,1040061,,,,,,,2022-03-16,1,,,,,レジリエンスフォー,0
1628,8010003037246,新規,0,2022-03-16,2022-03-16,ＫＰロジ合同会社,,合同会社,東京都,千代田区,内幸町１丁目１番１号,,13,101,1000011,,,,,,,2022-03-16,1,,,,,ケーピーロジ,0
1634,8010401166200,新規,0,2022-03-16,2022-03-16,和信コンサルティング株式会社,,株式会社,東京都,港区,南青山２丁目２番１５号ウィン青山９４２,,13,103,1070062,,,,,,,2022-03-16,1,,,,,ワシンコンサルティング,0
1635,8010401166225,新規,0,2022-03-16,2022-03-16,６Ｓｅｎｓｅ．株式会社,,株式会社,東京都,港区,南青山２丁目２番１５号,,13,103,1070062,,,,,,,2022-03-16,1,,,,,シックスセンス,0
1639,8010403027235,新規,0,2022-03-16,2022-03-16,合同会社ＰＲＩＭＵＲＡ,,合同会社,東京都,港区,赤坂２丁目５番８号ヒューリックＪＰ赤坂ビル５１０号,,13,103,1070052,,,,,,,2022-03-16,1,,,,,プリムラ,0
1640,8010403027284,新規,0,2022-03-16,2022-03-16,レイズバリュー合同会社,,合同会社,東京都,港区,海岸１丁目２番３号汐留芝離宮ビルディング２１階,,13,103,1050022,,,,,,,2022-03-16,1,,,,,レイズバリュー,0
1641,8010405020808,新規,0,2022-03-16,2022-03-16,ＦＳＰ４０一般社団法人,,その他の設立登記法人,東京都,港区,虎ノ門４丁目１番２８号,,13,103,1050001,,,,,,,2022-03-16,1,,,,,エフエスピーヨンジュウ,0
1643,8010503006535,新規,0,2022-03-16,2022-03-16,ＭＡＸｉＭｕｍｅｆｆｅｃｔ合同会社,,合同会社,東京都,台東区,千束４丁目４０－１,,13,106,1110031,,,,,,,2022-03-16,1,,,,,マキシマムエフェクト,0
1650,8010803004098,新規,0,2022-03-16,2022-03-16,合同会社ＣＲＡＦＴ,,合同会社,東京都,大田区,南千束１丁目２１番４号マ・メゾン千束１０１,,13,111,1450063,,,,,,,2022-03-16,1,,,,,クラフト,0
1658,8011001146286,新規,0,2022-03-16,2022-03-16,株式会社Ｗａｇｔａｉｌ,,株式会社,東京都,渋谷区,渋谷２丁目１９－１５宮益坂ビルディング６０９,,13,113,1500002,,,,,,,2022-03-16,1,,,,,ワグテイル,0
1659,8011003014350,新規,0,2022-03-16,2022-03-16,合同会社ｂａｃｋ　ｂｏｘ,,合同会社,東京都,目黒区,中央町１丁目３番１７号Ｋ’ｓアパートメント２０５,,13,110,1520001,,,,,,,2022-03-16,1,,,,,バックボックス,0
1670,8011101098155,新規,0,2022-03-16,2022-03-16,株式会社セイワワールド,,株式会社,東京都,新宿区,四谷１丁目１３番地オパスロイヤル３０４号,,13,104,1600004,,,,,,,2022-03-16,1,,,,,セイワワールド,0
1675,8011105010165,新規,0,2022-03-16,2022-03-16,一般社団法人全日本学生レスリング連盟,,その他の設立登記法人,東京都,新宿区,霞ヶ丘４番２号ＪａｐａｎＳｐｏｒｔＯｌｙｍｐｉｃＳｑｕａｒｅ１０階１００４号室,,13,104,1600000,,,,,,,2022-03-16,1,,,,,ゼンニホンガクセイレスリングレンメイ,0
1676,8011203003772,新規,0,2022-03-16,2022-03-16,合同会社ピーチカーチ,,合同会社,東京都,中野区,中央１丁目４番７号,,13,114,1640011,,,,,,,2022-03-16,1,,,,,ピーチカーチ,0
1678,8011501027845,新規,0,2022-03-16,2022-03-16,株式会社ロンホーム,,株式会社,東京都,荒川区,西日暮里５丁目３７番１号,,13,118,1160013,,,,,,,2022-03-16,1,,,,,ロンホーム,0
1683,8011803005004,新規,0,2022-03-16,2022-03-16,合同会社セカンドハウス,,合同会社,東京都,足立区,入谷２丁目２４番１０号ウィーンベルコーポ１０３,,13,121,1210836,,,,,,,2022-03-16,1,,,,,セカンドハウス,0
1684,8012401038973,新規,0,2022-03-16,2022-03-16,ＺＩＴ株式会社,,株式会社,東京都,調布市,小島町１丁目１９番地１,,13,208,1820026,,,,,,,2022-03-16,1,,,,,ズィット,0
1687,8012405004708,新規,0,2022-03-16,2022-03-16,医療法人社団ＫＭＣ,,その他の設立登記法人,東京都,武蔵野市,吉祥寺本町１丁目９番１０号レインボービル２階,,13,203,1800004,,,,,,,2022-03-16,1,,,,,ケーエムシー,0
1688,8012701016984,新規,0,2022-03-16,2022-03-16,株式会社Ｏｅｎａｎｔｈｅ,,株式会社,東京都,東村山市,野口町１丁目１５番地５グランドハイツ野口１Ｆ・ｅｙｅｂｅｅ,,13,213,1890022,,,,,,,2022-03-16,1,,,,,オエナンサ,0
1691,8013101008861,新規,0,2022-03-16,2022-03-16,株式会社ＪＵＳＴ　ＮＯＴＥ,,株式会社,東京都,福生市,加美平１丁目６－１１３Ｆ,,13,218,1970012,,,,,,,2022-03-16,1,,,,,ジャストノート,0
1695,8020001145669,新規,0,2022-03-16,2022-03-16,はじめ住建株式会社,,株式会社,神奈川県,横浜市神奈川区,栗田谷３１番５号,,14,102,2210804,,,,,,,2022-03-16,1,,,,,ハジメジュウケン,0
1705,8021001075427,新規,0,2022-03-16,2022-03-16,みやもと養鶏株式会社,,株式会社,神奈川県,藤沢市,下土棚１６３３番地８,,14,205,2520807,,,,,,,2022-03-16,1,,,,,ミヤモトヨウケイ,0
1706,8021001075435,新規,0,2022-03-16,2022-03-16,バークス株式会社,,株式会社,神奈川県,逗子市,小坪５丁目２３番１－１１２０号,,14,208,2490008,,,,,,,2022-03-16,1,,,,,バークス,0
1707,8021001075443,新規,0,2022-03-16,2022-03-16,株式会社レガーレ,,株式会社,神奈川県,相模原市南区,鵜野森１丁目４０番６号,,14,153,2520301,,,,,,,2022-03-16,1,,,,,レガーレ,0
1715,8030001147276,新規,0,2022-03-16,2022-03-16,ＴＳＭ株式会社,,株式会社,埼玉県,北葛飾郡松伏町,大字築比地１４４０番地２１,,11,465,3430102,,,,,,,2022-03-16,1,,,,,ティーエスエム,0
1716,8030001147284,新規,0,2022-03-16,2022-03-16,ダイヨー株式会社,,株式会社,埼玉県,春日部市,中央１丁目１０－１小関ビル２Ｆ,,11,214,3440067,,,,,,,2022-03-16,1,,,,,ダイヨー,0
1722,8030003019028,新規,0,2022-03-16,2022-03-16,合同会社Ｔｒｙａｎｇｌｅ,,合同会社,埼玉県,久喜市,栗橋北２丁目１１番７号,,11,232,3491101,,,,,,,2022-03-16,1,,,,,トライアングル,0
1723,8030003019036,新規,0,2022-03-16,2022-03-16,合同会社エイト,,合同会社,埼玉県,本庄市,児玉町吉田林８９５番地,,11,211,3670211,,,,,,,2022-03-16,1,,,,,エイト,0
1728,8040003019687,新規,0,2022-03-16,2022-03-16,グランドライン合同会社,,合同会社,千葉県,船橋市,松が丘５丁目４４番１号,,12,204,2740064,,,,,,,2022-03-16,1,,,,,グランドライン,0
1731,8050003006429,新規,0,2022-03-16,2022-03-16,ＡＫＩＴＡＹＡ合同会社,,合同会社,茨城県,常総市,小保川１４７１,,08,211,3002703,,,,,,,2022-03-16,1,,,,,アキタヤ,0
1734,8070003004422,新規,0,2022-03-16,2022-03-16,残月堂合同会社,,合同会社,群馬県,前橋市,南町３丁目５０番地２プラザアン２階Ｃ,,10,201,3710805,,,,,,,2022-03-16,1,,,,,ザンゲツドウ,0
1736,8080103002548,新規,0,2022-03-16,2022-03-16,合同会社ＭＩＲＡＩ．,,合同会社,静岡県,伊東市,吉田７９４‐１６７スターテラスモリタ１０５,,22,208,4140051,,,,,,,2022-03-16,1,,,,,ミライ,0
1738,8080403004491,新規,0,2022-03-16,2022-03-16,ＣｈｅｖｒｏｌｅｔＭｅｎ．合同会社,,合同会社,静岡県,磐田市,川袋９８２番地,,22,211,4380232,,,,,,,2022-03-16,1,,,,,シボレーマン,0
1742,8100001035168,新規,0,2022-03-16,2022-03-16,株式会社ファインズコンサルティング,,株式会社,長野県,上伊那郡箕輪町,大字中箕輪１０８００－１４４,,20,383,3994601,,,,,,,2022-03-16,1,,,,,ファインズコンサルティング,0
1746,8100003006456,新規,0,2022-03-16,2022-03-16,合同会社佐介,,合同会社,長野県,佐久市,長土呂１１８６番地３,,20,217,3850021,,,,,,,2022-03-16,1,,,,,サスケ,0
1769,8120101065220,新規,0,2022-03-16,2022-03-16,株式会社ＫＳＢ,,株式会社,大阪府,阪南市,尾崎町５０８番地の３リアクラットビル,,27,232,5990201,,,,,,,2022-03-16,1,,,,,ケーエスビー,0
1770,8120101065229,新規,0,2022-03-16,2022-03-16,株式会社ＤＯＵＲＡＫＵ,,株式会社,大阪府,堺市東区,菩提町５丁６３番地２,,27,143,5998103,,,,,,,2022-03-16,1,,,,,ドウラク,0
1773,8120901045710,新規,0,2022-03-16,2022-03-16,特定建設・ＴＡＩＳＥＩ株式会社,,株式会社,大阪府,高槻市,番田１丁目１番５号,,27,207,5690044,,,,,,,2022-03-16,1,,,,,トクテイケンセツタイセイ,0
1785,8140001125254,新規,0,2022-03-16,2022-03-16,株式会社アポロ,,株式会社,兵庫県,三木市,志染町中自由が丘２丁目４４０番地,,28,215,6730552,,,,,,,2022-03-16,1,,,,,アポロ,0
1792,8150001025404,新規,0,2022-03-16,2022-03-16,株式会社やまと技研,,株式会社,奈良県,橿原市,土橋町２８８番地の１,,29,205,6340844,,,,,,,2022-03-16,1,,,,,ヤマトギケン,0
1796,8170003001698,新規,0,2022-03-16,2022-03-16,森下建築合同会社,,合同会社,和歌山県,有田市,辻堂９１０番地１,00125984,30,204,6490311,,,,,,,2022-03-16,1,,,,,モリシタケンチク,0
1799,8180001150406,新規,0,2022-03-16,2022-03-16,株式会社こぐみ,,株式会社,愛知県,名古屋市守山区,大字下志段味字穴ケ洞２２７１番地の４７８,,23,113,4630003,,,,,,,2022-03-16,1,,,,,コグミ,0
1804,8200001039860,新規,0,2022-03-16,2022-03-16,株式会社ＦＩＲＳＴ　ＣＬＡＳＳ,,株式会社,岐阜県,羽島市,竹鼻町４６３番地,,21,209,5016241,,,,,,,2022-03-16,1,,,,,ファーストクラス,0
1805,8200003005497,新規,0,2022-03-16,2022-03-16,合同会社大雅,,合同会社,岐阜県,岐阜市,神田町４丁目１６番地プレサンスロジェ岐阜長良橋通り７０７,,21,201,5008833,,,,,,,2022-03-16,1,,,,,タイガ,0
1807,8210001018847,新規,0,2022-03-16,2022-03-16,株式会社村田仮設,,株式会社,福井県,福井市,上中町第７号２３番地１,,18,201,9100826,,,,,,,2022-03-16,1,,,,,ムラタカセツ,0
1820,8250003003018,新規,0,2022-03-16,2022-03-16,合同会社ＳＯＮＴＡＹ,,合同会社,山口県,下関市,長府松小田本町２－８長府松小田本町川島店舗１Ｆ,,35,201,7520933,,,,,,,2022-03-16,1,,,,,ソンタイ,0
1821,8260001036638,新規,0,2022-03-16,2022-03-16,Ｍｙ　Ｌｉｎｅ株式会社,,株式会社,岡山県,倉敷市,五日市１０８９番地４８,,33,202,7100041,,,,,,,2022-03-16,1,,,,,マイライン,0
1823,8260005011050,新規,0,2022-03-16,2022-03-16,一般社団法人ＺＥＮ＆ＭＡＴＳＵ　Ｆａｍｉｌｙ　Ｏｆｆｉｃｅ,,その他の設立登記法人,岡山県,岡山市東区,上道北方６８８番地の１,,33,103,7090625,,,,,,,2022-03-16,1,,,,,ゼンアンドマツファミリーオフィス,0
1827,8290001096811,新規,0,2022-03-16,2022-03-16,株式会社清豊,,株式会社,福岡県,福岡市南区,塩原１丁目２５番７号ルピナス大橋１階,,40,134,8150032,,,,,,,2022-03-16,1,,,,,セイホウ,0
1828,8290001096828,新規,0,2022-03-16,2022-03-16,株式会社Ｒｕｎｉｒｕ,,株式会社,福岡県,福岡市中央区,天神２丁目３－１０天神パインクレスト９２４,,40,133,8100001,,,,,,,2022-03-16,1,,,,,ルニル,0
1830,8290003012279,新規,0,2022-03-16,2022-03-16,合同会社ｐｅｐｐｅｒｍｉｎｔ,,合同会社,福岡県,福岡市早良区,小田部３丁目１７番２３号,,40,137,8140032,,,,,,,2022-03-16,1,,,,,ペパーミント,0
1831,8290003012287,新規,0,2022-03-16,2022-03-16,合同会社ｍａｋｅ　ｓｅｎｃｅ,,合同会社,福岡県,福岡市城南区,堤１丁目２番２０号,,40,136,8140151,,,,,,,2022-03-16,1,,,,,メイクセンス,0
1840,8340001024576,新規,0,2022-03-16,2022-03-16,株式会社クリエージェンシー,,株式会社,鹿児島県,鹿児島市,中町４番７号スペースラボＢ１Ｆ,,46,201,8920827,,,,,,,2022-03-16,1,,,,,クリエージェンシー,0
1841,8340005009425,新規,0,2022-03-16,2022-03-16,特定非営利活動法人鹿児島明志会,,その他の設立登記法人,鹿児島県,鹿児島市,牟礼岡２丁目１４番１０号,,46,201,8911306,,,,,,,2022-03-16,1,,,,,カゴシマメイシカイ,0
1843,8370001048325,新規,0,2022-03-16,2022-03-16,株式会社土ヤ,,株式会社,宮城県,仙台市青葉区,一番町３丁目９番２号プラスビル２階,,04,101,9800811,,,,,,,2022-03-16,1,,,,,ツチヤ,0
1862,8440001009047,新規,0,2022-03-16,2022-03-16,株式会社ヤママル松井漁業,,株式会社,北海道,山越郡長万部町,字大浜８番地１,,01,347,0493511,,,,,,,2022-03-16,1,,,,,ヤママルマツイギョギョウ,0
1866,8460101007163,新規,0,2022-03-16,2022-03-16,エムズワークス株式会社,,株式会社,北海道,帯広市,西二十三条北１丁目９番２４号,,01,207,0802463,,,,,,,2022-03-16,1,,,,,エムズワークス,0
1870,8470005006426,新規,0,2022-03-16,2022-03-16,社会保険労務士法人田中事務所,,その他の設立登記法人,香川県,高松市,番町５丁目１番２４号観光ビルディング３階北側,,37,201,7600017,,,,,,,2022-03-16,1,,,,,タナカジムショ,0
1871,8500001024064,新規,0,2022-03-16,2022-03-16,まるや林業株式会社,,株式会社,愛媛県,松山市,南久米町５６８－２７,,38,201,7900924,,,,,,,2022-03-16,1,,,,,マルヤリンギョウ,0
1872,8700150107418,新規,0,2022-03-16,2022-03-16,Ｇｒａｍｍａｒｌｙ，Ｉｎｃ．,,外国会社等,,,,,,,,１２０９　Ｏｒａｎｇｅ　Ｓｔ，　Ｗｉｌｍｉｎｇｔｏｎ，　Ｎｅｗｃａｓｔｌｅ，　Ｄｅｌａｗａｒｅ　１９８０１　Ｕ．Ｓ．Ａ．,,,,,,2022-03-16,1,,,,,グラマリーインク,0
1878,9010001225198,新規,0,2022-03-16,2022-03-16,Ｓｕｎ　Ｅａｓｔ株式会社,,株式会社,東京都,中央区,新川１丁目３番２１号,,13,102,1040033,,,,,,,2022-03-16,1,,,,,サンイースト,0
1879,9010001225231,新規,0,2022-03-16,2022-03-16,株式会社ミストラル,,株式会社,東京都,文京区,白山５丁目７番４号,,13,105,1120001,,,,,,,2022-03-16,1,,,,,ミストラル,0
1880,9010001225256,新規,0,2022-03-16,2022-03-16,鮨佐瀬株式会社,,株式会社,東京都,千代田区,霞が関３丁目２番５号,,13,101,1000013,,,,,,,2022-03-16,1,,,,,スシサセ,0
1882,9010003037212,新規,0,2022-03-16,2022-03-16,合同会社Ｒｅｓｉｌｉｅｎｃｅ　ＩＩＩ,,合同会社,東京都,中央区,銀座１丁目６番１１号土志田ビルディング３Ｆ,,13,102,1040061,,,,,,,2022-03-16,1,,,,,レジリエンススリー,0
1883,9010003037237,新規,0,2022-03-16,2022-03-16,合同会社Ｕｎｉｍａｔｋａ,,合同会社,東京都,中央区,日本橋箱崎町１番２号ＴＨＥＳＨＯＲＥ日本橋茅場町２Ｆ,,13,102,1030015,,,,,,,2022-03-16,1,,,,,ウニマトカ,0
1884,9010003037245,新規,0,2022-03-16,2022-03-16,合同会社エイトウェル,,合同会社,東京都,中央区,日本橋本町１丁目８番１２－４０３号,,13,102,1030023,,,,,,,2022-03-16,1,,,,,エイトウェル,0
1888,9010005034728,新規,0,2022-03-16,2022-03-16,ＤＳＡ　Ｉ一般社団法人,,その他の設立登記法人,東京都,千代田区,丸の内３丁目１番１号東京共同会計事務所内,,13,101,1000005,,,,,,,2022-03-16,1,,,,,ディーエスエーワン,0
1890,9010401166190,新規,0,2022-03-16,2022-03-16,株式会社Ａｉｇｎｉｔｅ,,株式会社,東京都,港区,南青山２丁目２番１５号ウィン青山９４２,,13,103,1070062,,,,,,,2022-03-16,1,,,,,エイグナイト,0
1891,9010401166199,新規,0,2022-03-16,2022-03-16,ＯｎｅＴｒｕｓｔ株式会社,,株式会社,東京都,港区,赤坂９丁目７番１号ミッドタウンタワー１８階,,13,103,1070052,,,,,,,2022-03-16,1,,,,,ワントラスト,0
1892,9010401166208,新規,0,2022-03-16,2022-03-16,株式会社ＴＯＤＡＹ,,株式会社,東京都,港区,南青山２丁目３－３－８０７,,13,103,1070062,,,,,,,2022-03-16,1,,,,,トゥデイ,0
1893,9010403027291,新規,0,2022-03-16,2022-03-16,おとどけ合同会社,,合同会社,東京都,港区,浜松町２丁目２番１５号浜松町ダイヤビル２Ｆ,,13,103,1050013,,,,,,,2022-03-16,1,,,,,オトドケ,0
1894,9010405020807,新規,0,2022-03-16,2022-03-16,ＦＳＰ２７一般社団法人,,その他の設立登記法人,東京都,港区,虎ノ門４丁目１番２８号,,13,103,1050001,,,,,,,2022-03-16,1,,,,,エフエスピーニジュウナナ,0
1895,9010501048603,新規,0,2022-03-16,2022-03-16,株式会社ＦＡＮＳＳ,,株式会社,東京都,台東区,北上野２丁目２番６号高橋ビル２０１,,13,106,1100014,,,,,,,2022-03-16,1,,,,,ファンズ,0
1896,9010503006534,新規,0,2022-03-16,2022-03-16,合同会社アンレーヴ,,合同会社,東京都,台東区,上野６丁目１番６号御徒町グリーンハイツ１００５号,,13,106,1100005,,,,,,,2022-03-16,1,,,,,アンレーヴ,0
1898,9010703006152,新規,0,2022-03-16,2022-03-16,合同会社アンドウ・ホールディングス,,合同会社,東京都,品川区,東五反田５丁目２０番１,,13,109,1410022,,,,,,,2022-03-16,1,,,,,アンドウホールディングス,0
1903,9010801032810,新規,0,2022-03-16,2022-03-16,株式会社ノックラーン,,株式会社,東京都,大田区,大森本町１丁目５番地１号２Ｆ,,13,111,1430011,,,,,,,2022-03-16,1,,,,,ノックラーン,0
1907,9010901050514,新規,0,2022-03-16,2022-03-16,株式会社ＳＳ,,株式会社,東京都,世田谷区,弦巻３丁目３０番１３号,,13,112,1540016,,,,,,,2022-03-16,1,,,,,エスエス,0
1910,9011001146260,新規,0,2022-03-16,2022-03-16,株式会社一ノ瀬グローバルインサイト,,株式会社,東京都,渋谷区,上原２丁目３３番２号,,13,113,1510064,,,,,,,2022-03-16,1,,,,,イチノセグローバルインサイト,0
1912,9011003014325,新規,0,2022-03-16,2022-03-16,合同会社ｓｐｅｃｉａｌ‐ｎｉｇｈｔ,,合同会社,東京都,渋谷区,神宮前６丁目２３－４桑野ビル２Ｆ,,13,113,1500001,,,,,,,2022-03-16,1,,,,,スペシャルナイト,0
1913,9011005009496,新規,0,2022-03-16,2022-03-16,医療法人社団ＡＺ,,その他の設立登記法人,東京都,渋谷区,笹塚２丁目１番１２号－１階,,13,113,1510073,,,,,,,2022-03-16,1,,,,,エーゼット,0
1918,9011101098170,新規,0,2022-03-16,2022-03-16,株式会社ＦＣチャンネル,,株式会社,東京都,新宿区,西新宿７丁目７番２６号ワコーレ新宿第一ビル,,13,104,1600023,,,,,,,2022-03-16,1,,,,,エフシーチャンネル,0
1924,9011501027844,新規,0,2022-03-16,2022-03-16,株式会社アンバーナイト,,株式会社,東京都,荒川区,西日暮里１丁目２８－５ライフガーデン西日暮里６０１号室,,13,118,1160013,,,,,,,2022-03-16,1,,,,,アンバーナイト,0
1932,9012403005285,新規,0,2022-03-16,2022-03-16,ブライト合同会社,,合同会社,東京都,調布市,上石原３丁目５９番地３９,,13,208,1820035,,,,,,,2022-03-16,1,,,,,ブライト,0
1943,9020001145668,新規,0,2022-03-16,2022-03-16,株式会社オフィスシレンテ,,株式会社,神奈川県,横浜市神奈川区,台町２番地５－１００１号,,14,102,2210834,,,,,,,2022-03-16,1,,,,,オフィスシレンテ,0
1944,9020001145692,新規,0,2022-03-16,2022-03-16,株式会社Ｍｉｃａｄｅａｕ,,株式会社,神奈川県,横浜市港南区,笹下３丁目２３番地３号１０１号室,,14,111,2340052,,,,,,,2022-03-16,1,,,,,ミカド,0
1949,9020003021462,新規,0,2022-03-16,2022-03-16,合同会社Ｂｒａｕｎｅｕｒｏ　ｌａｂｏ,,合同会社,神奈川県,横浜市緑区,長津田町４１９９－１ライオンズマンション長津田第３－８０４,,14,113,2260026,,,,,,,2022-03-16,1,,,,,ブラウニューロラボ,0
1950,9020003021470,新規,0,2022-03-16,2022-03-16,合同会社Ｓｅｎｓｅ　ｏｆ,,合同会社,神奈川県,横浜市都筑区,牛久保西１丁目５番２号,,14,118,2240015,,,,,,,2022-03-16,1,,,,,センスオブ,0
1955,9021001075434,新規,0,2022-03-16,2022-03-16,株式会社Ｓｈａｎｔｉ,,株式会社,神奈川県,茅ヶ崎市,浜竹２丁目３番３３号,,14,207,2530021,,,,,,,2022-03-16,1,,,,,シャンティ,0
1960,9030001147267,新規,0,2022-03-16,2022-03-16,株式会社Ｒ‐ＴＥＣ,,株式会社,埼玉県,北葛飾郡杉戸町,大字杉戸４５３番地９,,11,464,3450036,,,,,,,2022-03-16,1,,,,,アールテック,0
1961,9030001147283,新規,0,2022-03-16,2022-03-16,株式会社山水農園,,株式会社,埼玉県,比企郡川島町,大字出丸本５３番地,,11,346,3500145,,,,,,,2022-03-16,1,,,,,サンスイノウエン,0
1963,9030003019035,新規,0,2022-03-16,2022-03-16,合同会社アグリライフデザイン,,合同会社,埼玉県,所沢市,東狭山ケ丘６丁目７８８番地,,11,208,3591106,,,,,,,2022-03-16,1,,,,,アグリライフデザイン,0
1974,9050003006428,新規,0,2022-03-16,2022-03-16,ニプナモータース合同会社,,合同会社,茨城県,龍ケ崎市,馴馬町４８９番地５エイム１０２号室,,08,208,3010004,,,,,,,2022-03-16,1,,,,,ニプナモータース,0
1977,9060001034660,新規,0,2022-03-16,2022-03-16,株式会社嘉和商事,,株式会社,栃木県,下都賀郡野木町,大字野木字小金橋西１８６９番地,,09,364,3290114,,,,,,,2022-03-16,1,,,,,ヨシワショウジ,0
1985,9100001035159,新規,0,2022-03-16,2022-03-16,株式会社ＴＴＤ,,株式会社,長野県,上伊那郡飯島町,田切６５５－６,,20,384,3993701,,,,,,,2022-03-16,1,,,,,ティーティーディー,0
1987,9100003006463,新規,0,2022-03-16,2022-03-16,合同会社ｉ．ｃｌｏｓｅｔ,,合同会社,長野県,須坂市,亀倉町５８１－３２,,20,207,3820000,,,,,,,2022-03-16,1,,,,,アイクローゼット,0
2003,9120901045726,新規,0,2022-03-16,2022-03-16,株式会社ＩＲＴ,,株式会社,大阪府,箕面市,彩都粟生南６丁目６番２１号,,27,220,5620028,,,,,,,2022-03-16,1,,,,,アイアールティー,0
2004,9120901045734,新規,0,2022-03-16,2022-03-16,株式会社Ｓｉａｍ　Ｆｏｏｄ　Ｃｒｅａｔｅ　Ｊａｐａｎ,,株式会社,大阪府,摂津市,鳥飼本町２丁目２番３２号,,27,224,5660052,,,,,,,2022-03-16,1,,,,,サイアムフードクリエイトジャパン,0
2006,9122001035673,新規,0,2022-03-16,2022-03-16,株式会社和,,株式会社,大阪府,東大阪市,若江本町１丁目３番１３号,,27,227,5780942,,,,,,,2022-03-16,1,,,,,ナゴミ,0
2014,9140001125286,新規,0,2022-03-16,2022-03-16,株式会社ＡＬＥＧＲＡＲ,,株式会社,兵庫県,三田市,相生町３４番１４号,,28,219,6691526,,,,,,,2022-03-16,1,,,,,アレグラル,0
2015,9140001125294,新規,0,2022-03-16,2022-03-16,株式会社パルテール,,株式会社,兵庫県,加古郡稲美町,国岡１丁目１３９番地,,28,381,6751115,,,,,,,2022-03-16,1,,,,,パルテール,0
2016,9140001125303,新規,0,2022-03-16,2022-03-16,株式会社あおのはる,,株式会社,兵庫県,高砂市,中島３丁目７番４９－５号,,28,216,6760001,,,,,,,2022-03-16,1,,,,,アオノハル,0
2021,9150001025403,新規,0,2022-03-16,2022-03-16,株式会社Ｄｒａｇｏｏｎ,,株式会社,奈良県,生駒市,萩原町２６８番地,,29,209,6300234,,,,,,,2022-03-16,1,,,,,ドラグーン,0
2033,9170003001697,新規,0,2022-03-16,2022-03-16,合同会社ＳＩＧＲＯＵＰ２１,,合同会社,和歌山県,和歌山市,中５７３番地１９,,30,201,6408451,,,,,,,2022-03-16,1,,,,,エスアイグループニジュウイチ,0
2042,9180001150413,新規,0,2022-03-16,2022-03-16,株式会社かがやき,,株式会社,愛知県,名古屋市北区,楠１丁目７０９番地の７,,23,103,4620012,,,,,,,2022-03-16,1,,,,,カガヤキ,0
2043,9180001150421,新規,0,2022-03-16,2022-03-16,株式会社Ｄｃｏｌｌｅｃｔｉｏｎ,,株式会社,愛知県,一宮市,木曽川町玉ノ井字新屋敷二ノ切３０番地２,,23,203,4930004,,,,,,,2022-03-16,1,,,,,ディーコレクション,0
2047,9180003023617,新規,0,2022-03-16,2022-03-16,合同会社ミックロード,,合同会社,愛知県,名古屋市緑区,桶狭間清水山１４１６,,23,114,4580921,,,,,,,2022-03-16,1,,,,,ミックロード,0
2048,9180003023625,新規,0,2022-03-16,2022-03-16,合同会社泰弘,,合同会社,愛知県,名古屋市昭和区,円上町１４番１５号,,23,107,4660054,,,,,,,2022-03-16,1,,,,,タイコウ,0
2052,9190001029227,新規,0,2022-03-16,2022-03-16,株式会社ハートミ,,株式会社,三重県,尾鷲市,矢浜１丁目３１番１１号,,24,209,5193671,,,,,,,2022-03-16,1,,,,,ハートミ,0
2057,9210001018846,新規,0,2022-03-16,2022-03-16,株式会社メディカルサービスＮｅｘｔ,,株式会社,福井県,福井市,加茂河原３丁目８番６号,,18,201,9188057,,,,,,,2022-03-16,1,,,,,メディカルサービスネクスト,0
2060,9230001019272,新規,0,2022-03-16,2022-03-16,株式会社Ｍｉｎａｍｏｔｏ　Ｃｏｆｆｅｅ,,株式会社,富山県,富山市,黒瀬北町２丁目６番地３,,16,201,9398216,,,,,,,2022-03-16,1,,,,,ミナモトコーヒー,0
2062,9240001059466,新規,0,2022-03-16,2022-03-16,グローブス株式会社,,株式会社,広島県,尾道市,浦崎町１３６４番地６,,34,205,7200551,,,,,,,2022-03-16,1,,,,,グローブス,0
2063,9240001059474,新規,0,2022-03-16,2022-03-16,株式会社Ａｐｉｓ　Ｏｐｅｒａｒｉｕｓ,,株式会社,広島県,広島市西区,草津南１丁目６番２号,,34,104,7330863,,,,,,,2022-03-16,1,,,,,エイピスオペラリウス,0
2069,9250001019460,新規,0,2022-03-16,2022-03-16,ＫＡＩ株式会社,,株式会社,山口県,下関市,彦島西山町３丁目６番３号,,35,201,7500093,,,,,,,2022-03-16,1,,,,,ケーエーアイ,0
2083,9290001096810,新規,0,2022-03-16,2022-03-16,株式会社モルストック,,株式会社,福岡県,宗像市,徳重２５４番地,,40,220,8114164,,,,,,,2022-03-16,1,,,,,モルストック,0
2084,9290001096835,新規,0,2022-03-16,2022-03-16,Ｔ＆Ｊ株式会社,,株式会社,福岡県,福岡市博多区,博多駅前３丁目７‐３皐月マンション博多１１０３号室,,40,132,8120011,,,,,,,2022-03-16,1,,,,,ティーアンドジェイ,0
2087,9290003012261,新規,0,2022-03-16,2022-03-16,合同会社藤屋,,合同会社,福岡県,宗像市,公園通り３丁目１９番１号,,40,220,8113516,,,,,,,2022-03-16,1,,,,,フジヤ,0
2088,9290003012278,新規,0,2022-03-16,2022-03-16,ＭＵＧＥＮ合同会社,,合同会社,福岡県,福岡市中央区,平尾１丁目１１－６－２１３号,,40,133,8100014,,,,,,,2022-03-16,1,,,,,ムゲン,0
2089,9290005018595,新規,0,2022-03-16,2022-03-16,一般社団法人ジョブレンズ実行委員会,,その他の設立登記法人,福岡県,福岡市中央区,清川２丁目１２番６号,,40,133,8100005,,,,,,,2022-03-16,1,,,,,ジョブレンズジッコウイインカイ,0
2096,9320001018959,新規,0,2022-03-16,2022-03-16,株式会社ジョイホリック,,株式会社,大分県,大分市,ひばりケ丘４丁目２番８号,,44,201,8701115,,,,,,,2022-03-16,1,,,,,ジョイホリック,0
2098,9320003003752,新規,0,2022-03-16,2022-03-16,合同会社花未来,,合同会社,大分県,別府市,幸町４番３３号,,44,202,8740907,,,,,,,2022-03-16,1,,,,,ハナミライ,0
2099,9330001029542,新規,0,2022-03-16,2022-03-16,ＡｓＴＡＮｓ株式会社,,株式会社,熊本県,菊池郡大津町,大字外牧１２７４番地,,43,403,8691215,,,,,,,2022-03-16,1,,,,,アスタンス,0
2101,9340001024567,新規,0,2022-03-16,2022-03-16,株式会社ｅｎｕ．,,株式会社,鹿児島県,大島郡瀬戸内町,大字古仁屋字松江７－１１,,46,525,8941505,,,,,,,2022-03-16,1,,,,,エヌ,0
2102,9340001024575,新規,0,2022-03-16,2022-03-16,株式会社グランディール,,株式会社,鹿児島県,鹿児島市,東千石町８番３号ＳＫビル２Ｆ,,46,201,8920842,,,,,,,2022-03-16,1,,,,,グランディール,0
2106,9350001017636,新規,0,2022-03-16,2022-03-16,株式会社Ｆｏｒｅｓｔ,,株式会社,宮崎県,宮崎市,清武町加納甲１３０１番地１,,45,201,8891605,,,,,,,2022-03-16,1,,,,,フォレスト,0
2108,9360001030126,新規,0,2022-03-16,2022-03-16,株式会社Ｆｒｅｅ　ｓｔｙｌｅ,,株式会社,沖縄県,沖縄市,海邦町３番１６号,,47,211,9042162,,,,,,,2022-03-16,1,,,,,フリースタイル,0
2110,9370001048324,新規,0,2022-03-16,2022-03-16,株式会社レジデンスコネクト,,株式会社,宮城県,仙台市青葉区,花京院１丁目２番１５号,,04,101,9800013,,,,,,,2022-03-16,1,,,,,レジデンスコネクト,0
2111,9370001048332,新規,0,2022-03-16,2022-03-16,株式会社ＰＲＯＧＲＥＳＳ,,株式会社,宮城県,仙台市若林区,大和町３丁目２番３０－１０４号,,04,103,9840042,,,,,,,2022-03-16,1,,,,,プログレス,0
2117,9400001015816,新規,0,2022-03-16,2022-03-16,株式会社コレクト産業,,株式会社,岩手県,花巻市,星が丘１丁目１８番１６号,,03,205,0250065,,,,,,,2022-03-16,1,,,,,コレクトサンギョウ,0
2118,9400003002911,新規,0,2022-03-16,2022-03-16,合同会社ＪＩＺＡＮ,,合同会社,岩手県,盛岡市,向中野字道明７３番地,,03,201,0200851,,,,,,,2022-03-16,1,,,,,ジザン,0
2120,9410003003628,新規,0,2022-03-16,2022-03-16,合同会社ＥＶ　ＷＯＲＬＤ,,合同会社,秋田県,秋田市,広面字昼寝６７番地１,,05,201,0100041,,,,,,,2022-03-16,1,,,,,イーブイワールド,0
2123,9430001086219,新規,0,2022-03-16,2022-03-16,株式会社アンデルセンコープ,,株式会社,北海道,札幌市豊平区,月寒中央通７丁目６番２０号,,01,105,0620020,,,,,,,2022-03-16,1,,,,,アンデルセンコープ,0
2124,9430003013666,新規,0,2022-03-16,2022-03-16,合同会社Ｒｙｃｈ,,合同会社,北海道,札幌市中央区,南五条西３丁目るりビル５階,,01,101,0640805,,,,,,,2022-03-16,1,,,,,リーチ,0
2125,9430003013716,新規,0,2022-03-16,2022-03-16,合同会社ギフト,,合同会社,北海道,札幌市白石区,栄通３丁目３番２７号南栄ビル２Ｆ,,01,104,0030021,,,,,,,2022-03-16,1,,,,,ギフト,0
2128,9450001013641,新規,0,2022-03-16,2022-03-16,株式会社ＫａＮｏｎ,,株式会社,北海道,旭川市,西神楽南二条４丁目２５２番地の３,,01,204,0710172,,,,,,,2022-03-16,1,,,,,カノン,0
2135,9500001024063,新規,0,2022-03-16,2022-03-16,株式会社Ｔａｋｅ　Ｏｎｅ,,株式会社,愛媛県,松山市,北井門４丁目２９番２７号,,38,201,7911105,,,,,,,2022-03-16,1,,,,,テイクワン,0
2138,9700150106947,新規,0,2022-03-16,2022-02-04,上郷町地域づくり推進協議会,,その他,岩手県,遠野市,上郷町板沢１１地割５番地４,,03,208,0280776,,,,,,,2022-02-04,1,,,,,カミゴウチヨウチイキヅクリスイシンキヨウギカイ,0
2139,9700150107326,新規,0,2022-03-16,2022-03-09,上西町自治会,,その他,静岡県,浜松市東区,上西町１９－９,,22,132,4350048,,,,,,,2022-03-09,1,,,,,カミニシチヨウジチカイ,0
2140,9700150107417,新規,0,2022-03-16,2022-03-16,Ｌａｋｓｈａｎ　Ａｕｔｏ　Ｗｏｒｋｓ,,外国会社等,千葉県,八街市,山田台４９４番地５,,12,230,2891124,スリランカ民主社会主義共和国、キャンディ、マダワラ、マダワラバザール、ワッテガマロード、３－２－１－Ａ,,,,,,2022-03-16,1,,,,,ラクシヤンオートワークス,0
