sequenceNumber,corporateNumber,process,correct,updateDate,changeDate,name,nameImageId,kind,prefectureName,cityName,streetNumber,addressImageId,prefectureCode,cityCode,postCode,addressOutside,addressOutsideImageId,closeDate,closeCause,successorCorporateNumber,changeCause,assignmentDate,latest,enName,enPrefectureName,enCityName,enAddressOutside,furigana,hihyoji
2,1010001199714,登記記録の閉鎖等,0,2023-09-29,2023-09-21,株式会社ｅｍｐｈｅａｌ,,株式会社,東京都,千代田区,丸の内３丁目２番２号,,13,101,1000005,,,2023-09-21,清算の結了等,,,2019-04-04,1,,,,,エンフィール,0
13,1010005018044,登記記録の閉鎖等,0,2023-09-29,2023-09-22,一般社団法人首都圏地域医療連携パス協会,,その他の設立登記法人,神奈川県,横浜市旭区,下川井町２２０番１号,,14,112,2410806,,,2023-09-22,清算の結了等,,,2015-10-05,1,,,,,シュトケンチイキイリョウレンケイパスキョウカイ,0
15,1010401075184,登記記録の閉鎖等,0,2023-09-29,2023-09-04,ＴＹＴリゾート株式会社,,株式会社,東京都,港区,西麻布２丁目２５番６号,,13,103,1060031,,,2023-09-04,清算の結了等,,,2015-10-05,1,,,,,ティーワイティーリゾート,0
18,1010401104570,登記記録の閉鎖等,0,2023-09-29,2023-09-25,株式会社ＢＮＧホールディングス,,株式会社,東京都,千代田区,五番町４－５五番町コスモビル３階,,13,101,1020076,,,2023-09-25,合併による解散等,1010401084160,令和５年９月１日東京都千代田区五番町４－５五番町コスモビル３階株式会社ＢＮＧパートナーズ（1010401084160）に合併し解散,2015-10-05,1,,,,,ビーエヌジーホールディングス,0
19,1010401161892,登記記録の閉鎖等,0,2023-09-29,2023-09-11,株式会社Ｇ’ｓ　ｅｎｔｅｒｔａｉｎｍｅｎｔ,,株式会社,東京都,港区,赤坂１丁目３－５赤坂アビタシオン８階８１５,,13,103,1070052,,,2023-09-11,清算の結了等,,,2021-08-06,1,,,,,ジーズエンターテイメント,0
32,1010601056959,登記記録の閉鎖等,0,2023-09-29,2023-09-22,ＩＰＭＡ　ＪＡＰＡＮ株式会社,,株式会社,東京都,墨田区,緑１丁目２２番８号,,13,107,1300021,,,2023-09-22,清算の結了等,,,2020-02-28,1,,,,,イプマジャパン,0
60,1012302008396,登記記録の閉鎖等,0,2023-09-29,2023-09-21,有限会社アルファクラフト,,有限会社,東京都,町田市,広袴２丁目１３番地１１,,13,209,1950056,,,2023-09-21,清算の結了等,,,2015-10-05,1,,,,,アルファクラフト,0
66,1012802002923,登記記録の閉鎖等,0,2023-09-29,2023-09-21,加藤建設有限会社,,有限会社,東京都,昭島市,田中町２丁目１０番１０号,,13,207,1960014,,,2023-09-21,清算の結了等,,,2015-10-05,1,,,,,カトウケンセツ,0
68,1013301025738,登記記録の閉鎖等,0,2023-09-29,2023-09-25,株式会社オークマネージメント,,株式会社,東京都,豊島区,池袋４丁目８番３号,,13,116,1710014,,,2023-09-25,合併による解散等,5013301024769,令和５年９月２５日東京都豊島区上池袋一丁目９番８号株式会社オークハウス（5013301024769）に合併し解散,2015-10-05,1,,,,,オークマネージメント,0
84,1020002105884,登記記録の閉鎖等,0,2023-09-29,2023-09-21,有限会社宗像興業,,有限会社,神奈川県,横浜市都筑区,川向町１０８番地,,14,118,2240044,,,2023-09-21,清算の結了等,,,2015-10-05,1,,,,,ムナカタコウギョウ,0
86,1021001017385,登記記録の閉鎖等,0,2023-09-29,2023-09-20,株式会社ホームリサーチ神奈川,,株式会社,神奈川県,相模原市南区,上鶴間本町９丁目２０番１２号,,14,153,2520318,,,2023-09-20,清算の結了等,,,2015-10-05,1,,,,,ホームリサーチカナガワ,0
87,1021001025165,登記記録の閉鎖等,0,2023-09-29,2023-09-20,京浜産業株式会社,,株式会社,神奈川県,大和市,西鶴間５丁目１番２１号,,14,213,2420005,,,2023-09-20,清算の結了等,,,2015-10-05,1,,,,,ケイヒンサンギョウ,0
90,1021001072109,登記記録の閉鎖等,0,2023-09-29,2023-09-21,ＺＯＮＯ株式会社,,株式会社,神奈川県,秦野市,平沢１５９番地の１,,14,211,2570015,,,2023-09-21,清算の結了等,,,2021-02-15,1,,,,,ゾノ,0
93,1021002056639,登記記録の閉鎖等,0,2023-09-29,2023-09-21,有限会社アドマイア,,有限会社,神奈川県,平塚市,札場町３３番８号,,14,203,2540802,,,2023-09-21,清算の結了等,,,2015-10-05,1,,,,,アドマイア,0
109,1030002051450,登記記録の閉鎖等,0,2023-09-29,2023-09-01,有限会社エムズラボ,,有限会社,埼玉県,八潮市,大字鶴ケ曽根５４８番地１,,11,234,3400802,,,2023-09-01,清算の結了等,,,2015-10-05,1,,,,,エムズラボ,0
112,1030003008210,登記記録の閉鎖等,0,2023-09-29,2023-09-05,合同会社ワンオーワン,,合同会社,埼玉県,さいたま市浦和区,東仲町８番２１－８０１号,,11,107,3300056,,,2023-09-05,清算の結了等,,,2015-12-14,1,,,,,ワンオーワン,0
116,1040001040123,登記記録の閉鎖等,0,2023-09-29,2023-09-13,株式会社ジャパンエステート,,株式会社,千葉県,松戸市,常盤平５丁目２６番地の１３,,12,207,2702261,,,2023-09-13,清算の結了等,,,2015-10-05,1,,,,,ジャパンエステート,0
119,1040002049106,登記記録の閉鎖等,0,2023-09-29,2023-09-13,明幸ラバー化学工業有限会社,,有限会社,千葉県,松戸市,小山４６３番地の１,,12,207,2710093,,,2023-09-13,清算の結了等,,,2015-10-05,1,,,,,メイコウラバーカガクコウギョウ,0
123,1050002015073,登記記録の閉鎖等,0,2023-09-29,2023-09-13,有限会社カドヤ,,有限会社,千葉県,松戸市,東松戸２丁目６番地の１レジディア東松戸５０１号,,12,207,2702225,,,2023-09-13,清算の結了等,,,2015-10-05,1,,,,,カドヤ,0
129,1060002039864,登記記録の閉鎖等,0,2023-09-29,2023-09-22,有限会社高橋商店,,有限会社,栃木県,佐野市,栃本町９５３番地,,09,204,3270312,,,2023-09-22,清算の結了等,,,2015-10-05,1,,,,,タカハシショウテン,0
135,1080002016820,登記記録の閉鎖等,0,2023-09-29,2023-09-26,有限会社弘仁堂薬局,,有限会社,静岡県,焼津市,駅北３丁目４番２４号,,22,212,4250028,,,2023-09-26,清算の結了等,,,2015-10-05,1,,,,,コウジンドウヤッキョク,0
143,1120001176231,登記記録の閉鎖等,0,2023-09-29,2023-08-25,株式会社ＰＡＹ　ＲＯＵＴＥアルファ,,株式会社,大阪府,大阪市北区,堂島１丁目１番２５号,,27,127,5300003,,,2023-08-25,合併による解散等,2120001163393,令和５年８月１日大阪市北区堂島一丁目１番２５号株式会社ＰＡＹ　ＲＯＵＴＥ（2120001163393）に合併し解散,2015-10-05,1,,,,,ペイルートアルファ,0
155,1122002003439,登記記録の閉鎖等,0,2023-09-29,2023-09-28,有限会社なにわ興産,,有限会社,大阪府,東大阪市,中石切町２丁目１番６５,,27,227,5798014,,,2023-09-28,清算の結了等,,,2015-10-05,1,,,,,,0
167,1180001115885,登記記録の閉鎖等,0,2023-09-29,2023-09-21,ハイテクウッド名古屋株式会社,,株式会社,愛知県,名古屋市中区,正木４丁目２番３１号,,23,106,4600024,,,2023-09-21,合併による解散等,8180001037850,令和５年９月２０日名古屋市中区正木四丁目２番３１号タック株式会社（8180001037850）に合併し解散,2015-10-05,1,,,,,ハイテクウッドナゴヤ,0
176,1180301034926,登記記録の閉鎖等,0,2023-09-29,2023-09-20,株式会社ＫＩＷＡＭＩ,,株式会社,愛知県,額田郡幸田町,大字芦谷字幸田１１５番地,,23,501,4440116,,,2023-09-20,清算の結了等,,,2021-05-12,1,,,,,キワミ,0
187,1230003000270,登記記録の閉鎖等,0,2023-09-29,2023-09-28,合同会社カネト,,合同会社,富山県,富山市,横越７８８番地,,16,201,9318412,,,2023-09-28,清算の結了等,,,2015-10-05,1,,,,,カネト,0
191,1240002044747,登記記録の閉鎖等,0,2023-09-29,2023-09-25,有限会社ドリームアプリ,,有限会社,広島県,福山市,松永町４丁目９番１９号,,34,207,7290104,,,2023-09-25,清算の結了等,,,2015-10-05,1,,,,,ドリームアプリ,0
194,1240005011686,登記記録の閉鎖等,0,2023-09-29,2023-09-06,天理教久和喜分教會,00002314,その他の設立登記法人,広島県,三原市,幸崎久和喜７番１３号,,34,204,7292251,,,2023-09-06,合併による解散等,9240005012132,令和５年９月６日広島県三原市幸崎能地四丁目２３番６号天理教佐江崎分教会（9240005012132）に合併し解散,2015-10-05,1,,,,,テンリキョウクワキブンキョウカイ,0
203,1290001081811,登記記録の閉鎖等,0,2023-09-29,2023-09-25,株式会社Ｎｅｌｓｉｔｅ,,株式会社,福岡県,福岡市中央区,大名２丁目４－３０西鉄赤坂ビル９階,,40,133,8100041,,,2023-09-25,合併による解散等,9100002016587,令和５年９月１８日長野県東御市県５３２番地３株式会社田中企画（9100002016587）に合併し解散,2018-06-13,1,,,,,ネルサイト,0
208,1310001012391,登記記録の閉鎖等,0,2023-09-29,2023-09-28,株式会社成功園,,株式会社,長崎県,平戸市,古江町１１５４番地１,,42,207,8595145,,,2023-09-28,清算の結了等,,,2015-10-05,1,,,,,セイコウエン,0
209,1320001017183,登記記録の閉鎖等,0,2023-09-29,2023-09-28,株式会社令和総合コンサルタント,,株式会社,大分県,宇佐市,大字上田７２３番地の８,,44,211,8790453,,,2023-09-28,清算の結了等,,,2019-07-22,1,,,,,,0
224,1370001042425,登記記録の閉鎖等,0,2023-09-29,2023-09-25,株式会社幸曜エステート,,株式会社,宮城県,宮城郡利府町,菅谷台３丁目１番地３,,04,406,9810135,,,2023-09-25,清算の結了等,,,2017-12-15,1,,,,,コウヨウエステート,0
229,1380002032622,登記記録の閉鎖等,0,2023-09-29,2023-09-26,有限会社長嶺成型所,,有限会社,福島県,大沼郡会津美里町,東尾岐字水沢３３６１番地,,07,447,9696232,,,2023-09-26,清算の結了等,,,2015-10-05,1,,,,,ナガミネセイケイショ,0
246,2010002025133,登記記録の閉鎖等,0,2023-09-29,2023-09-25,有限会社丸十フーズ,,有限会社,東京都,中央区,勝どき１丁目８番１号勝どきビュータワーＢ１Ｆ－１０３Ｂ,,13,102,1040054,,,2023-09-25,清算の結了等,,,2015-10-05,1,,,,,マルジュウフーズ,0
257,2010102010357,登記記録の閉鎖等,0,2023-09-29,2023-09-26,有限会社彩プランニング,,有限会社,東京都,八王子市,北野町５１９番地１８,,13,201,1920906,,,2023-09-26,清算の結了等,,,2015-10-05,1,,,,,サイプランニング,0
273,2010601058608,登記記録の閉鎖等,0,2023-09-29,2023-09-25,株式会社令和アナリティクス,,株式会社,東京都,江東区,三好２丁目６番１０号ＴｈｅＦｌｅｍｉｎｇＨｏｕｓｅ２Ｆ,,13,108,1350022,,,2023-09-25,清算の結了等,,,2021-01-07,1,,,,,レイワアナリティクス,0
279,2010801020722,登記記録の閉鎖等,0,2023-09-29,2023-09-27,株式会社和喜,,株式会社,東京都,大田区,南馬込２丁目２７番４号,,13,111,1430025,,,2023-09-27,清算の結了等,,,2015-10-05,1,,,,,ワキ,0
303,2011801020373,登記記録の閉鎖等,0,2023-09-29,2023-09-27,株式会社トランス,,株式会社,東京都,葛飾区,金町４丁目１１番７号,,13,122,1250042,,,2023-09-27,清算の結了等,,,2015-10-05,1,,,,,トランス,0
309,2012402000723,登記記録の閉鎖等,0,2023-09-29,2023-09-27,有限会社叶屋食品,,有限会社,東京都,府中市,宮西町５丁目６番地８,,13,206,1830022,,,2023-09-27,清算の結了等,,,2015-10-05,1,,,,,,0
322,2020001020431,登記記録の閉鎖等,0,2023-09-29,2023-09-21,ジエブ電気株式会社,,株式会社,神奈川県,横浜市港北区,綱島西２丁目７番１８号,,14,109,2230053,,,2023-09-21,清算の結了等,,,2015-10-05,1,,,,,ジエブデンキ,0
324,2020001075871,登記記録の閉鎖等,0,2023-09-29,2023-09-20,株式会社マイブレインズ,,株式会社,東京都,町田市,本町田２０１３番地４－１０２号,,13,209,1940032,,,2023-09-20,清算の結了等,,,2015-10-05,1,,,,,マイブレインズ,0
352,2030005020740,登記記録の閉鎖等,0,2023-09-29,2023-09-05,一般社団法人田端,,その他の設立登記法人,埼玉県,富士見市,針ケ谷１丁目４０番地３,,11,235,3540017,,,2023-09-05,清算の結了等,,,2022-03-14,1,,,,,タバタ,0
364,2040005003620,登記記録の閉鎖等,0,2023-09-29,2023-09-13,特定非営利活動法人オリーブ,,その他の設立登記法人,千葉県,船橋市,前原西６丁目４番３０号柏屋ビル１階,,12,204,2740825,,,2023-09-13,清算の結了等,,,2015-10-05,1,,,,,オリーブ,0
365,2040005018271,登記記録の閉鎖等,0,2023-09-29,2023-09-14,ＮＰＯ法人くるみ,,その他の設立登記法人,千葉県,千葉市美浜区,磯辺１丁目９番１９号,,12,106,2610012,,,2023-09-14,清算の結了等,,,2015-10-05,1,,,,,クルミ,0
372,2060001026747,登記記録の閉鎖等,0,2023-09-29,2023-09-19,株式会社和田,,株式会社,栃木県,大田原市,山の手１丁目１番４号,,09,210,3240051,,,2023-09-19,清算の結了等,,,2015-10-05,1,,,,,ワダ,0
375,2060001030682,登記記録の閉鎖等,0,2023-09-29,2023-09-01,株式会社Ｖａｃｈｅｍｅｎｔ,,株式会社,栃木県,宇都宮市,戸祭４丁目１１番９号,,09,201,3200056,,,2023-09-01,合併による解散等,7060001026081,令和５年９月１日栃木県宇都宮市城南一丁目１番３号パルネット城南１０３株式会社ｇｒａｎｄｉｒ（7060001026081）に合併し解散,2018-06-28,1,,,,,ヴァッシュモン,0
376,2060002014593,登記記録の閉鎖等,0,2023-09-29,2023-09-22,有限会社東商店,,有限会社,栃木県,日光市,小代２９６番地１,,09,206,3211107,,,2023-09-22,清算の結了等,,,2015-10-05,1,,,,,ヒガシショウテン,0
382,2080102008262,登記記録の閉鎖等,0,2023-09-29,2023-09-27,有限会社三楽荘,,有限会社,静岡県,伊豆の国市,長岡７８番地,,22,225,4102211,,,2023-09-27,清算の結了等,,,2015-10-05,1,,,,,,0
383,2080402017426,登記記録の閉鎖等,0,2023-09-29,2023-09-26,有限会社榛村建設,,有限会社,静岡県,掛川市,上垂木２３４７番地,,22,213,4360221,,,2023-09-26,清算の結了等,,,2015-10-05,1,,,,,シンムラケンセツ,0
384,2090001002456,登記記録の閉鎖等,0,2023-09-29,2023-09-27,株式会社米倉ビル,,株式会社,山梨県,甲府市,酒折１丁目８番１０号ドムスヨネクラ１０１号室,,19,201,4000805,,,2023-09-27,清算の結了等,,,2015-10-05,1,,,,,ヨネクラビル,0
386,2100001016586,登記記録の閉鎖等,0,2023-09-29,2023-09-14,株式会社フェバープレース,,株式会社,長野県,松本市,大字島立２０５３番地１,,20,202,3900852,,,2023-09-14,合併による解散等,8100002025119,令和５年９月１日長野県塩尻市大字広丘高出１６６３番地６株式会社フェバープレース（8100002025119）に合併し解散,2015-10-05,1,,,,,フェバープレース,0
395,2120001005884,登記記録の閉鎖等,0,2023-09-29,2023-09-28,寺崎ネルソン株式会社,,株式会社,大阪府,大阪市平野区,加美東６丁目１３番４７号,,27,126,5470002,,,2023-09-28,清算の結了等,,,2015-10-05,1,,,,,テラサキネルソン,0
399,2120001208066,登記記録の閉鎖等,0,2023-09-29,2023-08-25,株式会社ＰＡＹ　ＲＯＵＴＥフィナンシャルグループ,,株式会社,大阪府,大阪市北区,堂島１丁目１番２５号,,27,127,5300003,,,2023-08-25,合併による解散等,2120001163393,令和５年８月１日大阪市北区堂島一丁目１番２５号株式会社ＰＡＹ　ＲＯＵＴＥ（2120001163393）に合併し解散,2017-09-13,1,,,,,ペイルートフィナンシャルグループ,0
412,2120005002275,登記記録の閉鎖等,0,2023-09-29,2023-08-31,金光教東成教会,,その他の設立登記法人,大阪府,大阪市住吉区,墨江３丁目１８番２９号,,27,120,5580043,,,2023-08-31,合併による解散等,5120005002223,令和５年８月３１日大阪市西区立売堀五丁目８番３号金光教大阪教会（5120005002223）に合併し解散,2015-10-05,1,,,,,コンコウキョウヒガシナリキョウカイ,0
414,2120005021465,登記記録の閉鎖等,0,2023-09-29,2023-09-01,弁護士法人堂島,,その他の設立登記法人,大阪府,大阪市中央区,北浜２丁目３番９号入商八木ビル２階,,27,128,5410041,,,2023-09-01,合併による解散等,7120005011908,令和５年９月１日大阪市中央区北浜二丁目３番９号入商八木ビル２階弁護士法人堂島法律事務所（7120005011908）に合併し解散,2020-03-02,1,,,,,ドウジマ,0
432,2150001015922,登記記録の閉鎖等,0,2023-09-29,2023-09-28,宮本鉄工株式会社,,株式会社,奈良県,吉野郡大淀町,大字今木３６番地,,29,442,6380841,,,2023-09-28,清算の結了等,,,2015-10-05,1,,,,,ミヤモトテッコウ,0
433,2160002013899,登記記録の閉鎖等,0,2023-09-29,2023-09-27,有限会社グループテン,,有限会社,滋賀県,守山市,守山３丁目８番７号,,25,207,5240022,,,2023-09-27,清算の結了等,,,2015-10-05,1,,,,,グループテン,0
438,2180001133317,登記記録の閉鎖等,0,2023-09-29,2023-09-25,株式会社エネル,,株式会社,愛知県,一宮市,木曽川町黒田字神明前２７番地,,23,203,4930001,,,2023-09-25,清算の結了等,,,2018-08-08,1,,,,,エネル,0
443,2180002078115,登記記録の閉鎖等,0,2023-09-29,2023-09-25,有限会社魚林,,有限会社,愛知県,一宮市,小信中島字御社来２番地,,23,203,4940007,,,2023-09-25,清算の結了等,,,2015-10-05,1,,,,,ウオリン,0
450,2200001013747,登記記録の閉鎖等,0,2023-09-29,2023-09-26,株式会社スエヒロビル,,株式会社,岐阜県,大垣市,郭町東２丁目１５番地,,21,202,5030886,,,2023-09-26,清算の結了等,,,2015-10-05,1,,,,,スエヒロビル,0
489,2370002014612,登記記録の閉鎖等,0,2023-09-29,2023-09-26,有限会社ライフ・マックス,,有限会社,宮城県,仙台市青葉区,錦町２丁目４番１８号,,04,101,9800012,,,2023-09-26,清算の結了等,,,2015-10-05,1,,,,,,0
493,2380001029998,登記記録の閉鎖等,0,2023-09-29,2023-09-25,ストラトブルーテクノロジー株式会社,,株式会社,福島県,南相馬市,原町区上渋佐字原田４３６番地の１コーポジュネスＣ棟１０２,,07,212,9750034,,,2023-09-25,清算の結了等,,,2019-05-10,1,,,,,ストラトブルーテクノロジー,0
498,2420001006943,登記記録の閉鎖等,0,2023-09-29,2023-09-22,株式会社五戸会館,,株式会社,青森県,三戸郡五戸町,字新町３４番地３,,02,442,0391548,,,2023-09-22,清算の結了等,,,2015-10-05,1,,,,,ゴノヘカイカン,0
503,2450002010842,登記記録の閉鎖等,0,2023-09-29,2023-09-27,有限会社恵比須物産,,有限会社,北海道,稚内市,恵比須１丁目３番４０号,,01,214,0970025,,,2023-09-27,清算の結了等,,,2015-10-05,1,,,,,エビスブッサン,0
506,2500001017800,登記記録の閉鎖等,0,2023-09-29,2023-09-26,株式会社バリューグループ,,株式会社,愛媛県,宇和島市,寄松甲８８３番地４,,38,203,7980084,,,2023-09-26,合併による解散等,8500001017274,令和５年９月２６日愛媛県宇和島市津島町北灘丁１２０７番地２細川真珠株式会社（8500001017274）に合併し解散,2015-10-05,1,,,,,バリューグループ,0
513,3010001120009,登記記録の閉鎖等,0,2023-09-29,2023-09-13,株式会社アウルプラス,,株式会社,千葉県,浦安市,北栄３丁目３１番９－８０２号,,12,227,2790002,,,2023-09-13,清算の結了等,,,2015-10-05,1,,,,,アウルプラス,0
535,3010601017364,登記記録の閉鎖等,0,2023-09-29,2023-09-27,株式会社川島,,株式会社,東京都,品川区,西五反田７丁目２２番１７号,,13,109,1410031,,,2023-09-27,清算の結了等,,,2015-10-05,1,,,,,カワシマ,0
562,3011802007682,登記記録の閉鎖等,0,2023-09-29,2023-09-28,有限会社宮本精工,,有限会社,東京都,葛飾区,西新小岩４丁目２５番２３号,,13,122,1240025,,,2023-09-28,清算の結了等,,,2015-10-05,1,,,,,ミヤモトセイコウ,0
565,3011803004737,登記記録の閉鎖等,0,2023-09-29,2023-09-26,合同会社オカリ,,合同会社,東京都,葛飾区,柴又３丁目１１－１２,,13,122,1250052,,,2023-09-26,清算の結了等,,,2021-08-10,1,,,,,オカリ,0
584,3020002050550,登記記録の閉鎖等,0,2023-09-29,2023-09-21,有限会社佐藤建工,,有限会社,神奈川県,横浜市中区,本郷町２丁目４７番－３－２０８号室,,14,104,2310843,,,2023-09-21,清算の結了等,,,2015-10-05,1,,,,,サトウケンコウ,0
590,3021001013993,登記記録の閉鎖等,0,2023-09-29,2023-09-22,株式会社松井建設,,株式会社,神奈川県,相模原市南区,上鶴間本町５丁目２４番２３号,,14,153,2520318,,,2023-09-22,清算の結了等,,,2015-10-05,1,,,,,,0
592,3021001020032,登記記録の閉鎖等,0,2023-09-29,2023-09-21,大成産業株式会社,,株式会社,神奈川県,厚木市,妻田東３丁目３９番５号,,14,212,2430813,,,2023-09-21,清算の結了等,,,2015-10-05,1,,,,,タイセイサンギョウ,0
597,3021001052926,登記記録の閉鎖等,0,2023-09-29,2023-09-20,株式会社イシモク,,株式会社,神奈川県,足柄上郡松田町,松田惣領１５１６番地,,14,363,2580003,,,2023-09-20,清算の結了等,,,2015-10-05,1,,,,,イシモク,0
605,3021005006449,登記記録の閉鎖等,0,2023-09-29,2023-09-21,医療法人社団加藤小児科医院,,その他の設立登記法人,神奈川県,小田原市,堀之内２１８番地３,,14,206,2500853,,,2023-09-21,清算の結了等,,,2015-10-05,1,,,,,カトウショウニカイイン,0
632,3060001013389,登記記録の閉鎖等,0,2023-09-29,2023-09-21,大和電設株式会社,,株式会社,栃木県,矢板市,沢７７１番地３,,09,211,3292132,,,2023-09-21,清算の結了等,,,2015-10-05,1,,,,,ヤマトデンセツ,0
633,3060001016854,登記記録の閉鎖等,0,2023-09-29,2023-09-08,栃木住宅建設株式会社,,株式会社,栃木県,栃木市,都賀町升塚１１０番地,,09,203,3280114,,,2023-09-08,清算の結了等,,,2022-08-04,1,,,,,トチギジュウタクケンセツ,0
643,3080402017887,登記記録の閉鎖等,0,2023-09-29,2023-09-28,有限会社ネットステイプル,,有限会社,静岡県,掛川市,天王町８８番地の２,,22,213,4360065,,,2023-09-28,清算の結了等,,,2015-10-05,1,,,,,ネットステイプル,0
649,3100003001073,登記記録の閉鎖等,0,2023-09-29,2023-09-19,上田第三木材合資会社,,合資会社,長野県,東御市,加沢２０１番地５,,20,219,3890514,,,2023-09-19,清算の結了等,,,2015-10-05,1,,,,,ウエダダイサンモクザイ,0
666,3120002058988,登記記録の閉鎖等,0,2023-09-29,2023-09-25,有限会社オーバー・ザ・ムーン,,有限会社,兵庫県,加古川市,野口町二屋２６１番地の１,,28,210,6750013,,,2023-09-25,清算の結了等,,,2015-10-05,1,,,,,オーバーザムーン,0
668,3120003022695,登記記録の閉鎖等,0,2023-09-29,2023-09-19,合同会社ｅａｒｔｈ,,合同会社,大阪府,大阪市北区,天満橋１丁目８番１５－１７０９号,,27,127,5300042,,,2023-09-19,清算の結了等,,,2022-10-20,1,,,,,アース,0
674,3120105008163,登記記録の閉鎖等,0,2023-09-29,2023-09-25,医療法人博仁会,,その他の設立登記法人,大阪府,堺市北区,百舌鳥赤畑町３丁２０４番地３,,27,146,5918037,,,2023-09-25,清算の結了等,,,2015-10-05,1,,,,,ハクジンカイ,0
717,3250001010598,登記記録の閉鎖等,0,2023-09-29,2023-09-04,株式会社里,,株式会社,山口県,周南市,大字夏切９５７番地,,35,215,7460102,,,2023-09-04,清算の結了等,,,2015-10-05,1,,,,,,0
720,3260001030521,登記記録の閉鎖等,0,2023-09-29,2023-09-26,株式会社あんしん堂,,株式会社,岡山県,総社市,中央３丁目１４番１１５,,33,208,7191131,,,2023-09-26,清算の結了等,,,2017-03-01,1,,,,,アンシンドウ,0
734,3310005004573,登記記録の閉鎖等,0,2023-09-29,2023-09-21,農事組合法人吾妻しいたけ生産組合,,その他の設立登記法人,長崎県,雲仙市,吾妻町栗林名１２６５番地１,,42,213,8591112,,,2023-09-21,清算の結了等,,,2015-10-05,1,,,,,アズマシイタケセイサンクミアイ,0
735,3320002004410,登記記録の閉鎖等,0,2023-09-29,2023-09-28,有限会社タツミハウス,,有限会社,大分県,大分市,大字上宗方５１９番地の１,,44,201,8701152,,,2023-09-28,清算の結了等,,,2015-10-05,1,,,,,,0
737,3340001000953,登記記録の閉鎖等,0,2023-09-29,2023-09-28,株式会社鹿児島ツーバイフォー,,株式会社,鹿児島県,鹿児島市,中山１丁目１４番２７号,,46,201,8910108,,,2023-09-28,清算の結了等,,,2015-10-05,1,,,,,カゴシマツーバイフォー,0
745,3380001018554,登記記録の閉鎖等,0,2023-09-29,2023-09-25,ひので開発株式会社,,株式会社,福島県,喜多方市,松山町鳥見山字街道西５０１５番地,,07,208,9660901,,,2023-09-25,清算の結了等,,,2015-10-05,1,,,,,ヒノデカイハツ,0
752,3410003003666,登記記録の閉鎖等,0,2023-09-29,2023-09-25,合同会社ショクタク,,合同会社,秋田県,秋田市,牛島西４丁目２３番６号,,05,201,0100063,,,2023-09-25,清算の結了等,,,2022-05-27,1,,,,,ショクタク,0
753,3420001000945,登記記録の閉鎖等,0,2023-09-29,2023-09-07,三愛不動産株式会社,,株式会社,青森県,青森市,大字浜田字豊田９５番地１１シャトレー浜田１Ｆ,,02,201,0300843,,,2023-09-07,合併による解散等,8410001009974,令和５年９月１日秋田県大館市中道一丁目４番１８号株式会社リブエス（8410001009974）に合併し解散,2015-10-05,1,,,,,サンアイフドウサン,0
757,3430003006469,登記記録の閉鎖等,0,2023-09-29,2023-09-04,ＴＭＣ合同会社,,合同会社,北海道,札幌市南区,澄川五条４丁目３番８号,,01,106,0050005,,,2023-09-04,清算の結了等,,,2015-10-05,1,,,,,ティーエムシー,0
769,4010002035287,登記記録の閉鎖等,0,2023-09-29,2023-09-21,株式会社東環,,株式会社,東京都,港区,西新橋３丁目２４番９号,,13,103,1050003,,,2023-09-21,合併による解散等,1010401046458,令和５年９月１日東京都港区西新橋三丁目２４番９号アイレス株式会社（1010401046458）に合併し解散,2015-10-05,1,,,,,トウカン,0
771,4010005021986,登記記録の閉鎖等,0,2023-09-29,2023-09-11,一般社団法人サポートホールディングス１３号,,その他の設立登記法人,東京都,港区,元赤坂１丁目１番７号,,13,103,1070051,,,2023-09-11,清算の結了等,,,2015-10-05,1,,,,,サポートホールディングスジュウサンゴウ,0
772,4010101008391,登記記録の閉鎖等,0,2023-09-29,2023-09-26,丸寿株式会社,,株式会社,東京都,八王子市,小宮町２５５番地,,13,201,1920031,,,2023-09-26,清算の結了等,,,2015-10-05,1,,,,,マルトシ,0
774,4010401112389,登記記録の閉鎖等,0,2023-09-29,2023-09-08,株式会社ジェローム,,株式会社,東京都,港区,南麻布５丁目１番１１号,,13,103,1060047,,,2023-09-08,清算の結了等,,,2015-10-05,1,,,,,ジェローム,0
778,4010401144110,登記記録の閉鎖等,0,2023-09-29,2023-09-07,株式会社ＢＩＺＬＩＦＥ,,株式会社,東京都,港区,西新橋１丁目２番９号,,13,103,1050003,,,2023-09-07,清算の結了等,,,2019-03-05,1,,,,,ビズライフ,0
789,4010801004483,登記記録の閉鎖等,0,2023-09-29,2023-09-19,坂田建設株式会社,,株式会社,東京都,大田区,田園調布２丁目２０番１１号,,13,111,1450071,,,2023-09-19,清算の結了等,,,2023-07-31,1,,,,,,0
808,4011201011260,登記記録の閉鎖等,0,2023-09-29,2023-09-12,株式会社ワード・リンクス,,株式会社,東京都,中野区,本町３丁目３２番２３号,,13,114,1640012,,,2023-09-12,清算の結了等,,,2015-10-05,1,,,,,,0
809,4011201024799,登記記録の閉鎖等,0,2023-09-29,2023-09-21,大島土地株式会社,,株式会社,東京都,中野区,東中野１丁目５１番４、５、７号,,13,114,1640003,,,2023-09-21,清算の結了等,,,2023-08-01,1,,,,,オオシマトチ,0
810,4011305000564,登記記録の閉鎖等,0,2023-09-29,2023-09-25,特定非営利活動法人日本チャリティプレート協会,,その他の設立登記法人,東京都,杉並区,和田１丁目５番１８号,,13,115,1660012,,,2023-09-25,清算の結了等,,,2015-10-05,1,,,,,ニホンチャリティプレートキョウカイ,0
817,4011602009556,登記記録の閉鎖等,0,2023-09-29,2023-09-27,有限会社マルオ食研,,有限会社,東京都,練馬区,石神井台１丁目１５番１１号,,13,120,1770045,,,2023-09-27,清算の結了等,,,2015-10-05,1,,,,,マルオショッケン,0
819,4011802003383,登記記録の閉鎖等,0,2023-09-29,2023-09-27,有限会社銀星堂,,有限会社,東京都,葛飾区,東金町１丁目４５番７号第２丸銀ビル,,13,122,1250041,,,2023-09-27,清算の結了等,,,2015-10-05,1,,,,,ギンセイドウ,0
833,4020002015998,登記記録の閉鎖等,0,2023-09-29,2023-09-21,有限会社今泉解体,,有限会社,神奈川県,横浜市西区,久保町４０番２２号,,14,103,2200061,,,2023-09-21,清算の結了等,,,2015-10-05,1,,,,,イマイズミカイタイ,0
837,4020002091635,登記記録の閉鎖等,0,2023-09-29,2023-09-21,有限会社小野測量事務所,,有限会社,神奈川県,川崎市多摩区,枡形６丁目１８番２－３０１号,,14,135,2140032,,,2023-09-21,清算の結了等,,,2015-10-05,1,,,,,オノソクリョウジムショ,0
840,4021001011030,登記記録の閉鎖等,0,2023-09-29,2023-09-21,株式会社アイジー神奈川,,株式会社,神奈川県,相模原市中央区,田名塩田１丁目２番３号,,14,152,2520245,,,2023-09-21,清算の結了等,,,2015-10-05,1,,,,,アイジーカナガワ,0
851,4030001147809,登記記録の閉鎖等,0,2023-09-29,2023-09-14,株式会社アップエイト,,株式会社,埼玉県,さいたま市北区,日進町１丁目４５０番地１グランドールラシン５０１,,11,102,3310823,,,2023-09-14,清算の結了等,,,2022-04-18,1,,,,,アップエイト,0
868,4050001033742,登記記録の閉鎖等,0,2023-09-29,2023-09-25,株式会社コーヨーホールディング,,株式会社,広島県,広島市中区,八丁堀１番８－３０１号,,34,101,7300013,,,2023-09-25,清算の結了等,,,2015-10-05,1,,,,,コーヨーホールディング,0
883,4080002010597,登記記録の閉鎖等,0,2023-09-29,2023-09-27,有限会社タシロ薬局,,有限会社,静岡県,静岡市清水区,江尻町５番１０号,,22,103,4240818,,,2023-09-27,清算の結了等,,,2015-10-05,1,,,,,タシロヤッキョク,0
889,4100003002392,登記記録の閉鎖等,0,2023-09-29,2023-09-20,合同会社アトリエ虹,,合同会社,長野県,大町市,大町６０９５番地６２,,20,212,3980002,,,2023-09-20,清算の結了等,,,2015-10-05,1,,,,,アトリエニジ,0
913,4120002043329,登記記録の閉鎖等,0,2023-09-29,2023-09-19,有限会社幸保険センター,,有限会社,大阪府,大阪市西区,江戸堀１丁目１８番１１号小谷ビル２階,,27,106,5500002,,,2023-09-19,清算の結了等,,,2015-10-05,1,,,,,サイワイホケンセンター,0
921,4120101024527,登記記録の閉鎖等,0,2023-09-29,2023-09-28,株式会社なかむら,,株式会社,大阪府,堺市北区,金岡町２３９４番地６,,27,146,5918022,,,2023-09-28,清算の結了等,,,2015-10-05,1,,,,,ナカムラ,0
926,4120102026183,登記記録の閉鎖等,0,2023-09-29,2023-09-26,有限会社ナヲヱ電気,,有限会社,大阪府,泉北郡忠岡町,高月北２丁目３番２９号,,27,341,5950801,,,2023-09-26,清算の結了等,,,2015-10-05,1,,,,,ナオエデンキ,0
939,4130002027388,登記記録の閉鎖等,0,2023-09-29,2023-09-14,有限会社テクノマシナリー,,有限会社,京都府,久世郡久御山町,森大内１７５番地１,,26,322,6130024,,,2023-09-14,清算の結了等,,,2015-10-05,1,,,,,テクノマシナリー,0
950,4180001066977,登記記録の閉鎖等,0,2023-09-29,2023-09-25,株式会社平松木材,,株式会社,愛知県,愛知郡東郷町,大字春木字下鏡田４４６番地２８５,,23,302,4700162,,,2023-09-25,清算の結了等,,,2015-10-05,1,,,,,ヒラマツモクザイ,0
964,4190001016411,登記記録の閉鎖等,0,2023-09-29,2023-09-27,三重藤吉工業株式会社,,株式会社,三重県,四日市市,西浜田町３番３号,,24,202,5100073,,,2023-09-27,合併による解散等,8180001032505,令和５年９月２１日名古屋市中村区太閤四丁目２番８号藤吉工業株式会社（8180001032505）に合併し解散,2015-10-05,1,,,,,ミエフジヨシコウギョウ,0
983,4290003004379,登記記録の閉鎖等,0,2023-09-29,2023-09-20,合同会社おーるどまんぱわー,,合同会社,福岡県,大野城市,牛頸３丁目４番１４号,,40,219,8160971,,,2023-09-20,清算の結了等,,,2015-10-05,1,,,,,オールドマンパワー,0
1005,4420001009440,登記記録の閉鎖等,0,2023-09-29,2023-09-22,株式会社弘前保険企画,,株式会社,青森県,弘前市,大字大町１丁目７番地６,,02,202,0368004,,,2023-09-22,清算の結了等,,,2015-10-05,1,,,,,ヒロサキホケンキカク,0
1007,4420002016766,登記記録の閉鎖等,0,2023-09-29,2023-09-22,有限会社竹俊工務店,,有限会社,青森県,十和田市,大字相坂字小林５２番地１,,02,206,0340041,,,2023-09-22,清算の結了等,,,2015-10-05,1,,,,,タケシュンコウムテン,0
1008,4430001052035,登記記録の閉鎖等,0,2023-09-29,2023-09-08,株式会社世和工業,,株式会社,北海道,岩内郡岩内町,字栄２５８番地の１,,01,402,0450011,,,2023-09-08,清算の結了等,,,2015-10-05,1,,,,,セワコウギョウ,0
1018,4470002011218,登記記録の閉鎖等,0,2023-09-29,2023-09-27,有限会社シー・アイ建築設計事務所,,有限会社,香川県,綾歌郡綾川町,畑田７３１番地１３,,37,387,7612101,,,2023-09-27,清算の結了等,,,2015-10-05,1,,,,,シーアイケンチクセッケイジムショ,0
1035,5010405012881,登記記録の閉鎖等,0,2023-09-29,2023-08-15,特定非営利活動法人マチノコト,,その他の設立登記法人,東京都,港区,愛宕１丁目２番２号松崎ビル４階,,13,103,1050002,,,2023-08-15,清算の結了等,,,2015-10-05,1,,,,,マチノコト,0
1043,5010803001998,登記記録の閉鎖等,0,2023-09-29,2023-09-27,合同会社ファン・ハウス,,合同会社,東京都,大田区,仲池上２丁目１０番６－１０３号,,13,111,1460081,,,2023-09-27,清算の結了等,,,2015-12-14,1,,,,,ファンハウス,0
1063,5011102013124,登記記録の閉鎖等,0,2023-09-29,2023-09-27,有限会社山口設計事務所,,有限会社,東京都,新宿区,原町２丁目６９番地,,13,104,1620053,,,2023-09-27,清算の結了等,,,2015-10-05,1,,,,,ヤマグチセッケイジムショ,0
1073,5012405002458,登記記録の閉鎖等,0,2023-09-29,2023-09-19,特定非営利活動法人音訳・朗読の会ブライユ,,その他の設立登記法人,東京都,国立市,東２丁目１１番地の２１,,13,215,1860002,,,2023-09-19,清算の結了等,,,2015-10-05,1,,,,,オンヤクロウドクノカイブライユ,0
1082,5020002016203,登記記録の閉鎖等,0,2023-09-29,2023-09-21,有限会社エムズプロジェクト,,有限会社,神奈川県,横浜市中区,海岸通３丁目１３番地１グランドステージ海岸通り２０４号,,14,104,2310002,,,2023-09-21,清算の結了等,,,2015-10-05,1,,,,,エムズプロジェクト,0
1085,5020005004048,登記記録の閉鎖等,0,2023-09-29,2023-09-20,特定非営利活動法人ウィ二十一ジャパンとつか,,その他の設立登記法人,神奈川県,横浜市戸塚区,矢部町２９１番地,,14,110,2440002,,,2023-09-20,清算の結了等,,,2015-10-05,1,,,,,ウィニジュウイチジャパントツカ,0
1097,5030001056579,登記記録の閉鎖等,0,2023-09-29,2023-08-30,株式会社馬場瓦店,,株式会社,埼玉県,比企郡川島町,大字牛ケ谷戸６５１番地,,11,346,3500127,,,2023-08-30,清算の結了等,,,2015-10-05,1,,,,,,0
1101,5030001098209,登記記録の閉鎖等,0,2023-09-29,2023-09-01,株式会社タニキ,,株式会社,埼玉県,さいたま市浦和区,岸町７丁目６番２４号,,11,107,3300064,,,2023-09-01,清算の結了等,,,2015-10-05,1,,,,,タニキ,0
1116,5040002061024,登記記録の閉鎖等,0,2023-09-29,2023-09-13,総合ファスナー有限会社,,有限会社,千葉県,佐倉市,井野町１５８６番地,,12,212,2850856,,,2023-09-13,清算の結了等,,,2015-10-05,1,,,,,ソウゴウファスナー,0
1125,5060002017131,登記記録の閉鎖等,0,2023-09-29,2023-09-21,有限会社関東光学社,,有限会社,栃木県,真岡市,中８５１番地,,09,209,3214351,,,2023-09-21,清算の結了等,,,2015-10-05,1,,,,,カントウコウガクシャ,0
1128,5080001003758,登記記録の閉鎖等,0,2023-09-29,2023-09-28,ビオ株式会社,,株式会社,静岡県,静岡市駿河区,中田１丁目１３番２４号,,22,102,4228041,,,2023-09-28,清算の結了等,,,2015-10-05,1,,,,,ビオ,0
1132,5080402015278,登記記録の閉鎖等,0,2023-09-29,2023-09-28,有限会社銅正板金,,有限会社,静岡県,浜松市浜北区,貴布祢１０３番地,,22,136,4340038,,,2023-09-28,清算の結了等,,,2015-10-05,1,,,,,ドウショウバンキン,0
1135,5100002024024,登記記録の閉鎖等,0,2023-09-29,2023-09-19,有限会社保尊塗装,,有限会社,長野県,安曇野市,穂高６４３０番地,,20,220,3998303,,,2023-09-19,清算の結了等,,,2015-10-05,1,,,,,ホソントソウ,0
1142,5120001159199,登記記録の閉鎖等,0,2023-09-29,2023-09-19,臼谷電子株式会社,,株式会社,大阪府,門真市,小路町７番２８号,,27,223,5710058,,,2023-09-19,清算の結了等,,,2015-10-05,1,,,,,,0
1148,5120001231354,登記記録の閉鎖等,0,2023-09-29,2023-09-20,株式会社ＡｘＡ,,株式会社,大阪府,大阪市北区,梅田２丁目６－２０パシフィックマークス西梅田４Ｆ,,27,127,5300001,,,2023-09-20,清算の結了等,,,2020-08-28,1,,,,,エックスエー,0
1150,5120001253836,登記記録の閉鎖等,0,2023-09-29,2023-09-21,株式会社エンネクト,,株式会社,大阪府,大阪市中央区,農人橋１丁目４－３１,,27,128,5400011,,,2023-09-21,清算の結了等,,,2023-04-12,1,,,,,エンネクト,0
1188,5160002011537,登記記録の閉鎖等,0,2023-09-29,2023-09-27,有限会社マルワ,,有限会社,滋賀県,高島市,マキノ町知内５８３番地,,25,212,5201814,,,2023-09-27,清算の結了等,,,2015-10-05,1,,,,,マルワ,0
1192,5180001001462,登記記録の閉鎖等,0,2023-09-29,2023-09-25,和田特機株式会社,,株式会社,愛知県,名古屋市中区,錦３丁目４番６号桜通大津第一生命ビルディング,,23,106,4600003,,,2023-09-25,合併による解散等,2230001002235,令和５年９月２１日富山市上本町３番１６号株式会社日本オープンシステムズ（2230001002235）に合併し解散,2015-10-05,1,,,,,ワダトッキ,0
1199,5180002040699,登記記録の閉鎖等,0,2023-09-29,2023-09-25,有限会社田中建設,,有限会社,愛知県,清須市,西枇杷島町砂入１８番地,,23,233,4520016,,,2023-09-25,清算の結了等,,,2015-10-05,1,,,,,タナカケンセツ,0
1205,5190001020164,登記記録の閉鎖等,0,2023-09-29,2023-09-27,株式会社ホープ接骨師会,,株式会社,三重県,四日市市,安島１丁目６番１４号ラ・テラビル,,24,202,5100075,,,2023-09-27,清算の結了等,,,2015-10-05,1,,,,,ホープセッコツシカイ,0
1210,5220005008177,登記記録の閉鎖等,0,2023-09-29,2023-09-15,企業組合ケアフォーラム金沢,,その他の設立登記法人,石川県,金沢市,泉が丘２丁目１番地６,,17,201,9218035,,,2023-09-15,清算の結了等,,,2017-04-12,1,,,,,ケアフォーラムカナザワ,0
1215,5260001015149,登記記録の閉鎖等,0,2023-09-29,2023-09-27,株式会社楽,,株式会社,岡山県,倉敷市,福田町古新田４４７番地,,33,202,7128046,,,2023-09-27,清算の結了等,,,2015-10-05,1,,,,,ラク,0
1257,5400602001425,登記記録の閉鎖等,0,2023-09-29,2023-09-21,有限会社千葉製作所,,有限会社,岩手県,奥州市,前沢字田畠５番地,,03,215,0294208,,,2023-09-21,清算の結了等,,,2015-10-05,1,,,,,チバセイサクショ,0
1261,5440005000608,登記記録の閉鎖等,0,2023-09-29,2023-09-05,天理教砥之川分教会,,その他の設立登記法人,北海道,函館市,杉並町５番４０号,,01,202,0400004,,,2023-09-05,合併による解散等,3430005008182,令和５年８月２４日北海道余市郡余市町沢町五丁目３５番地天理教余澤分教会（3430005008182）に合併し解散,2015-10-05,1,,,,,テンリキョウトノガワブンキョウカイ,0
1262,5460103001480,登記記録の閉鎖等,0,2023-09-29,2023-09-27,ほんべつ農産加工藍合同会社,,合同会社,北海道,中川郡本別町,共栄９番地７,,01,646,0893305,,,2023-09-27,清算の結了等,,,2022-09-08,1,,,,,ホンベツノウサンカコウアイ,0
1264,5470001004171,登記記録の閉鎖等,0,2023-09-29,2023-09-27,株式会社雪印牛乳高松中央販売所,00005054,株式会社,香川県,高松市,栗林町２丁目４番１号,,37,201,7600073,,,2023-09-27,清算の結了等,,,2015-10-05,1,,,,,ユキジルシギュウニュウタカマツチュウオウハンバイショ,0
1270,5500005004544,登記記録の閉鎖等,0,2023-09-29,2023-09-06,天理教東新分教会,,その他の設立登記法人,愛媛県,新居浜市,港町４番９号,,38,205,7920016,,,2023-09-06,合併による解散等,2500005004530,令和５年９月６日愛媛県新居浜市萩生１３６５番地の１天理教愛新分教会（2500005004530）に合併し解散,2015-10-05,1,,,,,テンリキョウトウシンブンキョウカイ,0
1273,6010001213206,登記記録の閉鎖等,0,2023-09-29,2023-09-21,米唐田木株式会社,,株式会社,東京都,中央区,日本橋蛎殻町１丁目３番５号共同ビル２階２３号,,13,102,1030014,,,2023-09-21,清算の結了等,,,2020-10-22,1,,,,,マイトウダキ,0
1312,6011103009871,登記記録の閉鎖等,0,2023-09-29,2023-09-27,合同会社クラシカエール研究所,,合同会社,東京都,新宿区,西早稲田１丁目２２番３号,,13,104,1690051,,,2023-09-27,清算の結了等,,,2020-07-27,1,,,,,クラシカエールケンキュウジョ,0
1320,6011401003667,登記記録の閉鎖等,0,2023-09-29,2023-09-26,株式会社第一美装,,株式会社,東京都,板橋区,向原１丁目１１番１０号,,13,119,1730036,,,2023-09-26,清算の結了等,,,2015-10-05,1,,,,,,0
1325,6011701000496,登記記録の閉鎖等,0,2023-09-29,2023-09-26,株式会社イシカワ,,株式会社,東京都,江戸川区,篠崎町４丁目２番９号,,13,123,1330061,,,2023-09-26,清算の結了等,,,2015-10-05,1,,,,,イシカワ,0
1328,6011702009165,登記記録の閉鎖等,0,2023-09-29,2023-09-25,有限会社長谷川工機,,有限会社,東京都,江戸川区,東小松川４丁目１２番１１号,,13,123,1320033,,,2023-09-25,清算の結了等,,,2015-10-05,1,,,,,ハセガワコウキ,0
1355,6021001029260,登記記録の閉鎖等,0,2023-09-29,2023-09-21,株式会社小野寺工務店,,株式会社,神奈川県,藤沢市,大庭５３３８番地の１,,14,205,2510861,,,2023-09-21,清算の結了等,,,2015-10-05,1,,,,,,0
1384,6040001110565,登記記録の閉鎖等,0,2023-09-29,2023-09-12,株式会社エムティデザイン,,株式会社,千葉県,印西市,草深２４７８番地３２,,12,231,2701337,,,2023-09-12,清算の結了等,,,2019-09-04,1,,,,,エムティデザイン,0
1391,6040005021057,登記記録の閉鎖等,0,2023-09-29,2023-09-12,テイエムエス税理士法人,,その他の設立登記法人,千葉県,山武市,成東２２８２番地,,12,237,2891326,,,2023-09-12,合併による解散等,2040005020475,令和５年９月１２日千葉県東金市東金７２０番地税理士法人蓑・高山会計（2040005020475）に合併し解散,2021-01-13,1,,,,,テイエムエス,0
1398,6060001001837,登記記録の閉鎖等,0,2023-09-29,2023-09-19,株式会社サンセイ,,株式会社,栃木県,宇都宮市,岩本町３９４番地５,,09,201,3210976,,,2023-09-19,清算の結了等,,,2015-10-05,1,,,,,サンセイ,0
1400,6060002000301,登記記録の閉鎖等,0,2023-09-29,2023-09-22,有限会社トーク工業,,有限会社,栃木県,宇都宮市,中岡本町２５６６番地６３,,09,201,3291105,,,2023-09-22,清算の結了等,,,2015-10-05,1,,,,,トークコウギョウ,0
1406,6100001022077,登記記録の閉鎖等,0,2023-09-29,2023-09-19,株式会社山匠,,株式会社,長野県,伊那市,長谷中尾１５０番地３,,20,209,3960404,,,2023-09-19,清算の結了等,,,2015-10-05,1,,,,,ヤマショウ,0
1425,6120005005514,登記記録の閉鎖等,0,2023-09-29,2023-08-31,医療法人華之会,,その他の設立登記法人,大阪府,箕面市,外院２丁目１４番１号,,27,220,5620026,,,2023-08-31,合併による解散等,2120905003439,令和５年８月３１日大阪府箕面市箕面六丁目４番３９号医療法人華之会（2120905003439）に合併し解散,2015-10-05,1,,,,,ハナノカイ,0
1428,6120101036355,登記記録の閉鎖等,0,2023-09-29,2023-09-28,小倉株式会社,,株式会社,大阪府,岸和田市,上野町西４番１号,,27,202,5960048,,,2023-09-28,清算の結了等,,,2015-10-05,1,,,,,オグラ,0
1449,6140002003023,登記記録の閉鎖等,0,2023-09-29,2023-09-25,有限会社きんもくせい,,有限会社,兵庫県,神戸市灘区,楠丘町２丁目５番２０号,,28,102,6570024,,,2023-09-25,清算の結了等,,,2015-10-05,1,,,,,キンモクセイ,0
1464,6180002043536,登記記録の閉鎖等,0,2023-09-29,2023-09-26,有限会社ありさ薬局,,有限会社,愛知県,名古屋市中川区,打出２丁目２０１番地,,23,110,4540926,,,2023-09-26,清算の結了等,,,2015-10-05,1,,,,,アリサヤッキョク,0
1467,6180301032000,登記記録の閉鎖等,0,2023-09-29,2023-09-28,ミュウエンヂニアリング株式会社,,株式会社,愛知県,豊橋市,神野新田町字ヨノ割５０番地,,23,201,4418077,,,2023-09-28,清算の結了等,,,2018-11-05,1,,,,,ミュウエンヂニアリング,0
1471,6190002022134,登記記録の閉鎖等,0,2023-09-29,2023-09-27,有限会社丸八設備サービス,,有限会社,三重県,四日市市,西浦２丁目４番１１号,,24,202,5100071,,,2023-09-27,清算の結了等,,,2015-10-05,1,,,,,マルハチセツビサービス,0
1474,6210001019079,登記記録の閉鎖等,0,2023-09-29,2023-08-04,株式会社うちくる福井,,株式会社,福井県,福井市,大宮５丁目１５番１０号グランディアコート大宮２０２,,18,201,9100016,,,2023-08-04,合併による解散等,3230001016837,令和５年８月１日富山市西野新４７番地株式会社うちくる富山（3230001016837）に合併し解散,2022-09-09,1,,,,,ウチクルフクイ,0
1475,6220002010556,登記記録の閉鎖等,0,2023-09-29,2023-09-25,ケーユーサービス有限会社,,有限会社,石川県,小松市,御館町乙１番地１,,17,203,9230016,,,2023-09-25,清算の結了等,,,2015-10-05,1,,,,,ケーユーサービス,0
1476,6240001051351,登記記録の閉鎖等,0,2023-09-29,2023-09-01,山本ドック株式会社,,株式会社,広島県,呉市,音戸町田原３丁目１番３号,,34,202,7371216,,,2023-09-01,合併による解散等,5240001026817,広島県呉市音戸町田原三丁目１番３号山本造船株式会社（5240001026817）に合併し解散,2017-07-11,1,,,,,ヤマモトドック,0
1479,6240002032508,登記記録の閉鎖等,0,2023-09-29,2023-09-26,有限会社カネナカ,,有限会社,広島県,呉市,本通６丁目５番１４号,,34,202,7370045,,,2023-09-26,清算の結了等,,,2015-10-05,1,,,,,,0
1480,6240003004596,登記記録の閉鎖等,0,2023-09-29,2023-09-26,合同会社ＢＩＧ　ＬＩＮＥ,,合同会社,広島県,竹原市,吉名町４５０２番地１９,,34,203,7250013,,,2023-09-26,清算の結了等,,,2020-03-09,1,,,,,ビッグライン,0
1487,6290002041974,登記記録の閉鎖等,0,2023-09-29,2023-09-19,有限会社キューオン,,有限会社,福岡県,福岡市南区,若久６丁目８番２３号,,40,134,8150042,,,2023-09-19,清算の結了等,,,2015-10-05,1,,,,,キューオン,0
1494,6360001017142,登記記録の閉鎖等,0,2023-09-29,2023-09-06,株式会社Ｏｋｉｔｅｌｌ３６５,,株式会社,沖縄県,那覇市,松山２丁目１番１２号,,47,201,9000032,,,2023-09-06,合併による解散等,8011101060949,令和５年９月１日東京都千代田区丸の内二丁目１番１号明治生命館メディカルインフォマティクス株式会社（8011101060949）に合併し解散,2015-10-05,1,,,,,オキテルサンロクゴ,0
1495,6360001019436,登記記録の閉鎖等,0,2023-09-29,2023-09-05,ゲストハウスイン沖縄株式会社,,株式会社,沖縄県,那覇市,辻１丁目２番１５号,00101382,47,201,9000037,,,2023-09-05,合併による解散等,8010001170197,令和５年８月３１日東京都中央区八丁堀二丁目１０番７号日本瓦斯八丁堀ビルセカイエ株式会社（8010001170197）に合併し解散,2015-10-05,1,,,,,ゲストハウスインオキナワ,0
1499,6370005008921,登記記録の閉鎖等,0,2023-09-29,2023-09-22,一般社団法人千年希望の丘協会,,その他の設立登記法人,宮城県,岩沼市,下野郷字浜１７７番地,,04,211,9892421,,,2023-09-22,清算の結了等,,,2016-01-21,1,,,,,センネンキボウノオカキョウカイ,0
1500,6380001004114,登記記録の閉鎖等,0,2023-09-29,2023-09-26,株式会社プロファス,,株式会社,福島県,福島市,北沢又字川寒下川原１０番地の８,,07,201,9608251,,,2023-09-26,清算の結了等,,,2015-10-05,1,,,,,プロファス,0
1503,6400002011635,登記記録の閉鎖等,0,2023-09-29,2023-09-20,有限会社三陸寺田家,,有限会社,岩手県,釜石市,大平町３丁目１番１５－４１号,,03,211,0260002,,,2023-09-20,清算の結了等,,,2015-10-05,1,,,,,サンリクテラダヤ,0
1514,6500005004535,登記記録の閉鎖等,0,2023-09-29,2023-09-06,天理教金子村分教会,,その他の設立登記法人,愛媛県,新居浜市,新田町１丁目１２番１９号,,38,205,7920003,,,2023-09-06,合併による解散等,2500005004530,令和５年９月６日愛媛県新居浜市萩生１３６５番地の１天理教愛新分教会（2500005004530）に合併し解散,2015-10-05,1,,,,,テンリキョウカネコムラブンキョウカイ,0
1544,7010502003708,登記記録の閉鎖等,0,2023-09-29,2023-09-21,有限会社恵友コーポレーション,,有限会社,東京都,中央区,日本橋本町３丁目１番６号永谷ビル３１７号,,13,102,1030023,,,2023-09-21,清算の結了等,,,2015-10-05,1,,,,,ケイユウコーポレーション,0
1555,7010802008423,登記記録の閉鎖等,0,2023-09-29,2023-09-27,有限会社大清工機,,有限会社,東京都,大田区,南蒲田２丁目２２番１号,,13,111,1440035,,,2023-09-27,清算の結了等,,,2015-10-05,1,,,,,タイセイコウキ,0
1565,7011101008321,登記記録の閉鎖等,0,2023-09-29,2023-09-27,株式会社真栄,,株式会社,東京都,新宿区,山吹町３６２番４,,13,104,1620801,,,2023-09-27,清算の結了等,,,2015-10-05,1,,,,,シンエイ,0
1567,7011101092464,登記記録の閉鎖等,0,2023-09-29,2023-09-27,クロスリンク・マネジメント株式会社,,株式会社,東京都,新宿区,早稲田鶴巻町５２０－１０新宿早稲田レーベル,,13,104,1620041,,,2023-09-27,清算の結了等,,,2020-09-10,1,,,,,クロスリンクマネジメント,0
1584,7012402018100,登記記録の閉鎖等,0,2023-09-29,2023-09-27,有限会社リブラブ,,有限会社,東京都,武蔵野市,吉祥寺南町３丁目４番３－１２２号,,13,203,1800003,,,2023-09-27,清算の結了等,,,2015-10-05,1,,,,,,0
1590,7013402006895,登記記録の閉鎖等,0,2023-09-29,2023-09-20,有限会社宮崎ビルサービス,,有限会社,東京都,日野市,東豊田１丁目１番地の３７,,13,212,1910052,,,2023-09-20,清算の結了等,,,2015-10-05,1,,,,,ミヤザキビルサービス,0
1602,7021001054480,登記記録の閉鎖等,0,2023-09-29,2023-09-22,株式会社フラットワウンド,,株式会社,神奈川県,中郡二宮町,富士見が丘２丁目２番１５号（奥村様方）,,14,342,2590122,,,2023-09-22,清算の結了等,,,2015-10-05,1,,,,,フラットワウンド,0
1606,7021002032799,登記記録の閉鎖等,0,2023-09-29,2023-09-21,有限会社秦米穀店,,有限会社,神奈川県,厚木市,旭町５丁目３２番１号,,14,212,2430014,,,2023-09-21,清算の結了等,,,2015-10-05,1,,,,,ハタベイコクテン,0
1614,7030001045349,登記記録の閉鎖等,0,2023-09-29,2023-09-04,シノザキ工業株式会社,,株式会社,埼玉県,志木市,下宗岡４丁目１１番４０号,,11,228,3530003,,,2023-09-04,清算の結了等,,,2015-10-05,1,,,,,シノザキコウギョウ,0
1615,7030001107082,登記記録の閉鎖等,0,2023-09-29,2023-09-04,株式会社ティンク,,株式会社,埼玉県,本庄市,児玉町児玉１７６９番地２,,11,211,3670212,,,2023-09-04,清算の結了等,,,2015-10-05,1,,,,,ティンク,0
1620,7030002072945,登記記録の閉鎖等,0,2023-09-29,2023-09-05,川南紙業有限会社,,有限会社,埼玉県,川越市,大塚新町５９番地７,,11,201,3501178,,,2023-09-05,清算の結了等,,,2015-10-05,1,,,,,カワナミシギョウ,0
1623,7030003004914,登記記録の閉鎖等,0,2023-09-29,2023-09-19,ビデオグルーオン合同会社,,合同会社,埼玉県,飯能市,美杉台４丁目３５－２,,11,209,3570041,,,2023-09-19,清算の結了等,,,2015-10-05,1,,,,,ビデオグルーオン,0
1625,7030005006297,登記記録の閉鎖等,0,2023-09-29,2023-09-04,上尾サービスシール協同組合,,その他の設立登記法人,埼玉県,上尾市,宮本町９番１９号,,11,219,3620036,,,2023-09-04,清算の結了等,,,2015-10-05,1,,,,,アゲオサービスシール,0
1633,7040002065790,登記記録の閉鎖等,0,2023-09-29,2023-09-13,有限会社鹿悟商会,,有限会社,千葉県,千葉市中央区,長洲１丁目３２番１号鴇田ビル２階,,12,101,2600854,,,2023-09-13,清算の結了等,,,2015-10-05,1,,,,,シカゴショウカイ,0
1677,7140001008823,登記記録の閉鎖等,0,2023-09-29,2023-09-28,セントラルサービス株式会社,,株式会社,兵庫県,神戸市中央区,加納町２丁目９番１２号,,28,110,6500001,,,2023-09-28,清算の結了等,,,2015-10-05,1,,,,,セントラルサービス,0
1683,7140005011088,登記記録の閉鎖等,0,2023-09-29,2023-09-07,天理教和美分教会,,その他の設立登記法人,兵庫県,尼崎市,西本町北通４丁目１１０番地,,28,202,6600863,,,2023-09-07,合併による解散等,1480005005227,令和５年９月４日徳島県美馬市穴吹町穴吹字井口１番地の１天理教美拝分教会（1480005005227）に合併し解散,2015-10-05,1,,,,,,0
1685,7180001073541,登記記録の閉鎖等,0,2023-09-29,2023-09-25,株式会社コスモ建築設計,,株式会社,愛知県,名古屋市西区,野南町９１番地ルーチェ野南１０２,,23,104,4520847,,,2023-09-25,清算の結了等,,,2015-10-05,1,,,,,コスモケンチクセッケイ,0
1691,7180002060927,登記記録の閉鎖等,0,2023-09-29,2023-09-25,有限会社名東商事,,有限会社,愛知県,名古屋市名東区,神丘町２丁目１７番地,,23,115,4650083,,,2023-09-25,清算の結了等,,,2015-10-05,1,,,,,メイトウショウジ,0
1696,7190002015112,登記記録の閉鎖等,0,2023-09-29,2023-09-27,不動林業有限会社,,有限会社,三重県,多気郡多気町,片野８１番地,,24,441,5192203,,,2023-09-27,清算の結了等,,,2015-10-05,1,,,,,フドウリンギョウ,0
1698,7200002020390,登記記録の閉鎖等,0,2023-09-29,2023-09-26,多治見住宅有限会社,,有限会社,岐阜県,多治見市,大畑町大洞３番地１４２,,21,204,5070817,,,2023-09-26,清算の結了等,,,2015-10-05,1,,,,,タジミジュウタク,0
1702,7230001001570,登記記録の閉鎖等,0,2023-09-29,2023-09-27,株式会社滝口,,株式会社,富山県,富山市,赤田７７６番地の５,,16,201,9398064,,,2023-09-27,清算の結了等,,,2015-10-05,1,,,,,タキグチ,0
1706,7240002049567,登記記録の閉鎖等,0,2023-09-29,2023-09-25,有限会社中井電気工事,,有限会社,広島県,竹原市,忠海東町３丁目１５番４号,,34,203,7292317,,,2023-09-25,清算の結了等,,,2015-10-05,1,,,,,ナカイデンキコウジ,0
1711,7270001005015,登記記録の閉鎖等,0,2023-09-29,2023-09-25,株式会社倉吉木材市場,,株式会社,鳥取県,倉吉市,河北町１２５番地,,31,203,6820041,,,2023-09-25,清算の結了等,,,2015-10-05,1,,,,,クラヨシモクザイイチバ,0
1735,7330003009552,登記記録の閉鎖等,0,2023-09-29,2023-09-26,合同会社エブリワン,,合同会社,熊本県,熊本市西区,蓮台寺５丁目３番３号,,43,103,8600055,,,2023-09-26,清算の結了等,,,2022-10-17,1,,,,,エブリワン,0
1736,7340001020592,登記記録の閉鎖等,0,2023-09-29,2023-09-28,株式会社ミライエ,,株式会社,鹿児島県,鹿児島市,中山１丁目１４番２７号２Ｆ,,46,201,8910108,,,2023-09-28,清算の結了等,,,2017-09-05,1,,,,,ミライエ,0
1741,7370003004863,登記記録の閉鎖等,0,2023-09-29,2023-09-28,合同会社ＡＣＥ,,合同会社,宮城県,仙台市宮城野区,銀杏町３１－２０川村ハイツ３０３,,04,102,9830047,,,2023-09-28,清算の結了等,,,2020-07-02,1,,,,,エース,0
1744,7370101002216,登記記録の閉鎖等,0,2023-09-29,2023-09-27,大和総建工業株式会社,,株式会社,宮城県,角田市,横倉字平３番地７レジデンスＩＩ２０１号,00113285,04,208,9811512,,,2023-09-27,清算の結了等,,,2015-10-05,1,,,,,,0
1748,7380002030422,登記記録の閉鎖等,0,2023-09-29,2023-09-25,有限会社福丸産業,,有限会社,福島県,双葉郡双葉町,大字長塚字町東１２３番地,,07,546,9791471,,,2023-09-25,清算の結了等,,,2015-10-05,1,,,,,フクマルサンギョウ,0
1749,7380002034605,登記記録の閉鎖等,0,2023-09-29,2023-09-25,有限会社猪俣工業,,有限会社,福島県,喜多方市,関柴町三津井字稲荷前２０３９番地の２,,07,208,9660017,,,2023-09-25,清算の結了等,,,2015-10-05,1,,,,,イノマタコウギョウ,0
1764,7450002008816,登記記録の閉鎖等,0,2023-09-29,2023-09-27,有限会社システムバイオ,,有限会社,北海道,旭川市,東四条８丁目１番１６号,,01,204,0700024,,,2023-09-27,清算の結了等,,,2015-10-05,1,,,,,システムバイオ,0
1765,7450003001662,登記記録の閉鎖等,0,2023-09-29,2023-09-27,ハルノヒカリ合同会社,,合同会社,北海道,旭川市,春光六条６丁目４番２７号,,01,204,0700876,,,2023-09-27,清算の結了等,,,2017-09-08,1,,,,,ハルノヒカリ,0
1770,8010001167565,登記記録の閉鎖等,0,2023-09-29,2023-09-21,株式会社ＭＳＳシステム建築,,株式会社,東京都,中央区,日本橋大伝馬町５番７号,,13,102,1030011,,,2023-09-21,清算の結了等,,,2015-10-05,1,,,,,エムエスエスシステムケンチク,0
1771,8010001191581,登記記録の閉鎖等,0,2023-09-29,2023-09-21,株式会社ラフィーネプロモーション,,株式会社,東京都,中央区,日本橋茅場町１丁目１２番８号,,13,102,1030025,,,2023-09-21,清算の結了等,,,2018-05-08,1,,,,,ラフィーネプロモーション,0
1798,8010802018438,登記記録の閉鎖等,0,2023-09-29,2023-09-28,有限会社ずばぴたテック,,有限会社,東京都,大田区,石川町１丁目１４番１号,,13,111,1450061,,,2023-09-28,清算の結了等,,,2015-10-05,1,,,,,ズバピタテック,0
1799,8010901045341,登記記録の閉鎖等,0,2023-09-29,2023-09-21,株式会社ＮａｔｕｒａｌＢａｓｋｅｔ,,株式会社,東京都,世田谷区,下馬１丁目３４番１２号ベルビュウ３０６,,13,112,1540002,,,2023-09-21,清算の結了等,,,2019-12-18,1,,,,,ナチュラルバスケット,0
1811,8011101031355,登記記録の閉鎖等,0,2023-09-29,2023-09-27,新橋協同福祉株式会社,,株式会社,東京都,新宿区,新宿２丁目７番２－６０２号,,13,104,1600022,,,2023-09-27,清算の結了等,,,2015-10-05,1,,,,,シンバシキョウドウフクシ,0
1854,8030001066170,登記記録の閉鎖等,0,2023-09-29,2023-09-05,株式会社光恵商事,,株式会社,埼玉県,越谷市,相模町２丁目９０番地,,11,222,3430823,,,2023-09-05,清算の結了等,,,2015-10-05,1,,,,,ミツエショウジ,0
1872,8040002088898,登記記録の閉鎖等,0,2023-09-29,2023-09-14,有限会社インテリアショップタバタ,,有限会社,千葉県,柏市,松ケ崎４１９番１７号,,12,217,2770835,,,2023-09-14,清算の結了等,,,2015-10-05,1,,,,,インテリアショップタバタ,0
1873,8040003020356,登記記録の閉鎖等,0,2023-09-29,2023-09-13,グローバルファイナンス合同会社,,合同会社,千葉県,佐倉市,中志津４丁目５番２号,,12,212,2850843,,,2023-09-13,清算の結了等,,,2022-07-04,1,,,,,グローバルファイナンス,0
1878,8050001041799,登記記録の閉鎖等,0,2023-09-29,2023-09-12,株式会社Ｌａｖｉｅｒｅ,,株式会社,茨城県,土浦市,小松ケ丘町３番３号羽鳥ビル１Ｆ,,08,203,3000826,,,2023-09-12,合併による解散等,7060001026081,令和５年９月１日栃木県宇都宮市城南一丁目１番３号パルネット城南１０３株式会社ｇｒａｎｄｉｒ（7060001026081）に合併し解散,2016-11-18,1,,,,,ラヴィエール,0
1889,8070001022681,登記記録の閉鎖等,0,2023-09-29,2023-09-25,株式会社ポワッソン・ルージュ・ラボ,,株式会社,群馬県,太田市,由良町１３３番地１,,10,205,3730036,,,2023-09-25,清算の結了等,,,2015-10-05,1,,,,,ポワッソンルージュラボ,0
1895,8080405000555,登記記録の閉鎖等,0,2023-09-29,2023-09-28,協同組合浜松流通業務センター,,その他の設立登記法人,静岡県,浜松市中区,東伊場２丁目７番１号,,22,131,4328036,,,2023-09-28,清算の結了等,,,2015-10-05,1,,,,,ハママツリュウツウギョウムセンター,0
1898,8100002021299,登記記録の閉鎖等,0,2023-09-29,2023-09-12,福澤商事有限会社,,有限会社,長野県,松本市,白板２丁目３番２８号,,20,202,3900863,,,2023-09-12,合併による解散等,8100001012828,令和５年９月１日長野県松本市大字今井７２５０番地株式会社エフケーケー（8100001012828）に合併し解散,2015-10-05,1,,,,,フクザワショウジ,0
1932,8130002028234,登記記録の閉鎖等,0,2023-09-29,2023-09-15,ジェイアールピー株式会社,,株式会社,京都府,宇治市,槇島町大川原５２番地の９,,26,204,6110041,,,2023-09-15,清算の結了等,,,2015-10-05,1,,,,,ジェイアールピー,0
1937,8140001002981,登記記録の閉鎖等,0,2023-09-29,2023-09-25,株式会社アップルプラン,,株式会社,兵庫県,神戸市東灘区,御影山手５丁目２番２８－５０８号,,28,101,6580065,,,2023-09-25,清算の結了等,,,2015-10-05,1,,,,,アップルプラン,0
1947,8140003016815,登記記録の閉鎖等,0,2023-09-29,2023-09-13,合同会社Ｗａｌｋｅｒ,,合同会社,兵庫県,三田市,相生町１６番２９－２０６号,,28,219,6691526,,,2023-09-13,清算の結了等,,,2021-10-11,1,,,,,ウォーカー,0
1981,8260001032323,登記記録の閉鎖等,0,2023-09-29,2023-09-21,株式会社やまや,,株式会社,岡山県,岡山市北区,本町６－３０,,33,101,7000901,,,2023-09-21,清算の結了等,,,2018-08-21,1,,,,,ヤマヤ,0
1989,8290002050511,登記記録の閉鎖等,0,2023-09-29,2023-09-13,有限会社原鉄工所,,有限会社,福岡県,久留米市,城島町原中牟田５９７番地の１,,40,203,8300215,,,2023-09-13,清算の結了等,,,2015-10-05,1,,,,,ハラテッコウショ,0
1996,8320003000841,登記記録の閉鎖等,0,2023-09-29,2023-09-28,ホテル三泉閣合同会社,,合同会社,大分県,別府市,北浜３丁目６番２３号,,44,202,8740920,,,2023-09-28,清算の結了等,,,2015-10-05,1,,,,,,0
2000,8350001007844,登記記録の閉鎖等,0,2023-09-29,2023-09-22,イチゲン建設株式会社,,株式会社,宮崎県,都城市,上水流町４３８番地２,,45,202,8851103,,,2023-09-22,清算の結了等,,,2015-10-05,1,,,,,イチゲンケンセツ,0
2014,8410005001300,登記記録の閉鎖等,0,2023-09-29,2023-09-21,特定非営利活動法人子育て・高齢者介護サポートばっけの会,,その他の設立登記法人,秋田県,秋田市,南通亀の町１番２５号,,05,201,0100011,,,2023-09-21,清算の結了等,,,2015-10-05,1,,,,,,0
2020,8430001080131,登記記録の閉鎖等,0,2023-09-29,2023-09-12,パイオニア・ウィンド株式会社,,株式会社,北海道,小樽市,塩谷１丁目１９番３０号,,01,203,0482672,,,2023-09-12,清算の結了等,,,2019-10-30,1,,,,,パイオニアウィンド,0
2021,8430002025993,登記記録の閉鎖等,0,2023-09-29,2023-09-13,有限会社丸藤電気,,有限会社,北海道,札幌市清田区,清田八条３丁目２２番６号,,01,110,0040848,,,2023-09-13,清算の結了等,,,2015-10-05,1,,,,,マルフジデンキ,0
2026,8440005000613,登記記録の閉鎖等,0,2023-09-29,2023-09-05,天理教五稜郭分教会,,その他の設立登記法人,北海道,函館市,柏木町２番６号,,01,202,0420942,,,2023-09-05,合併による解散等,3430005007804,令和５年８月２４日北海道小樽市花園四丁目９番９号天理教小樽港分教会（3430005007804）に合併し解散,2015-10-05,1,,,,,テンリキョウゴリョウカクブンキョウカイ,0
2027,8450001000335,登記記録の閉鎖等,0,2023-09-29,2023-09-20,旭川神居山スキー場株式会社,,株式会社,北海道,旭川市,神居町西丘１１２番地,,01,204,0741181,,,2023-09-20,清算の結了等,,,2023-08-03,1,,,,,,0
2028,8470001011677,登記記録の閉鎖等,0,2023-09-29,2023-09-27,マルサン商事株式会社,,株式会社,香川県,三豊市,豊中町上高野１３１８番地,,37,208,7691504,,,2023-09-27,清算の結了等,,,2015-10-05,1,,,,,マルサンショウジ,0
2030,8470002004606,登記記録の閉鎖等,0,2023-09-29,2023-09-27,有限会社中央牛乳輸送,,有限会社,香川県,高松市,栗林町２丁目４番１号,,37,201,7600073,,,2023-09-27,清算の結了等,,,2015-10-05,1,,,,,チュウオウギュウニュウユソウ,0
2051,9010401138058,登記記録の閉鎖等,0,2023-09-29,2023-09-26,株式会社想,,株式会社,神奈川県,横浜市中区,海岸通４丁目２３,,14,104,2310002,,,2023-09-26,合併による解散等,5011001065381,令和５年９月１６日東京都渋谷区渋谷一丁目１９番５号渋谷美竹ビル５階株式会社リンク（5011001065381）に合併し解散,2018-04-24,1,,,,,ココロ,0
2052,9010401146457,登記記録の閉鎖等,0,2023-09-29,2023-09-27,ことほ株式会社,,株式会社,大阪府,大阪市淀川区,西中島３丁目１８番２１号,,27,123,5320011,,,2023-09-27,清算の結了等,,,2019-06-26,1,,,,,コトホ,0
2057,9010403008713,登記記録の閉鎖等,0,2023-09-29,2023-09-11,株式会社モバ保,,株式会社,東京都,港区,高輪３丁目２５番２２号,,13,103,1080074,,,2023-09-11,清算の結了等,,,2015-10-05,1,,,,,モバホ,0
2065,9010705002711,登記記録の閉鎖等,0,2023-09-29,2023-09-25,一般社団法人風水アロマ認定学会,,その他の設立登記法人,東京都,品川区,北品川５丁目８番１５－８０８号,,13,109,1410001,,,2023-09-25,清算の結了等,,,2017-12-18,1,,,,,フウスイアロマニンテイガッカイ,0
2072,9010903002777,登記記録の閉鎖等,0,2023-09-29,2023-09-22,健康増進ネットサービス合同会社,,合同会社,東京都,世田谷区,代沢２丁目２１番２号,,13,112,1550032,,,2023-09-22,清算の結了等,,,2015-10-05,1,,,,,ケンコウゾウシンネットサービス,0
2083,9011101099648,登記記録の閉鎖等,0,2023-09-29,2023-09-27,株式会社アンダーレイズ,,株式会社,東京都,新宿区,西新宿３丁目３番１３号西新宿水間ビル６階,,13,104,1600023,,,2023-09-27,清算の結了等,,,2022-07-28,1,,,,,アンダーレイズ,0
2089,9011401015271,登記記録の閉鎖等,0,2023-09-29,2023-09-27,株式会社ＴＭＳ,,株式会社,東京都,板橋区,向原１丁目２１番１２号,,13,119,1730036,,,2023-09-27,清算の結了等,,,2015-10-05,1,,,,,ティーエムエス,0
2097,9013301002119,登記記録の閉鎖等,0,2023-09-29,2023-09-21,株式会社オオトモエンジニヤリング,,株式会社,東京都,豊島区,池袋４丁目１２番４号,,13,116,1710014,,,2023-09-21,合併による解散等,7013301002120,令和５年９月２１日東京都豊島区池袋三丁目７１番１１号株式会社オオトモエンジニヤリング（7013301002120）に合併し解散,2015-10-05,1,,,,,オオトモエンジニヤリング,0
2104,9020002022536,登記記録の閉鎖等,0,2023-09-29,2023-09-20,有限会社ミズグチ,,有限会社,神奈川県,横浜市旭区,若葉台４丁目３２番５０３号,,14,112,2410801,,,2023-09-20,清算の結了等,,,2015-10-05,1,,,,,ミズグチ,0
2118,9021003009786,登記記録の閉鎖等,0,2023-09-29,2023-09-21,湘南ケア合同会社,,合同会社,神奈川県,藤沢市,鵠沼松が岡３丁目２４番２１号,00121100,14,205,2510038,,,2023-09-21,清算の結了等,,,2020-10-21,1,,,,,ショウナンケア,0
2129,9030001124167,登記記録の閉鎖等,0,2023-09-29,2023-09-04,株式会社ピーネコーポレーション,,株式会社,埼玉県,入間郡三芳町,大字上富１０３１番地１,,11,324,3540045,,,2023-09-04,合併による解散等,2030001024893,令和５年９月１日埼玉県所沢市東住吉７番８号株式会社ピックルスコーポレーション（2030001024893）に合併し解散,2018-02-07,1,,,,,ピーネコーポレーション,0
2139,9030002117905,登記記録の閉鎖等,0,2023-09-29,2023-09-04,関栄縫製有限会社,,有限会社,埼玉県,行田市,緑町３番３３号,,11,206,3610031,,,2023-09-04,清算の結了等,,,2015-10-05,1,,,,,カンエイホウセイ,0
2150,9040002018193,登記記録の閉鎖等,0,2023-09-29,2023-09-13,有限会社片山設計事務所,,有限会社,千葉県,船橋市,東中山２丁目４番１２－４１３号,,12,204,2730036,,,2023-09-13,清算の結了等,,,2015-10-05,1,,,,,カタヤマセッケイジムショ,0
2161,9060001003434,登記記録の閉鎖等,0,2023-09-29,2023-09-21,株式会社日本クリエート協会,,株式会社,栃木県,宇都宮市,大通り３丁目５番１８号,,09,201,3200811,,,2023-09-21,清算の結了等,,,2015-10-05,1,,,,,ニホンクリエートキョウカイ,0
2162,9060001006429,登記記録の閉鎖等,0,2023-09-29,2023-09-21,株式会社エス・アイ・エイ,,株式会社,栃木県,塩谷郡高根沢町,光陽台２丁目１番地１,,09,386,3291232,,,2023-09-21,清算の結了等,,,2015-10-05,1,,,,,エスアイエイ,0
2170,9080001014586,登記記録の閉鎖等,0,2023-09-29,2023-09-25,株式会社ファインマテリアルズ,,株式会社,静岡県,榛原郡吉田町,神戸２１８８番地の２,,22,424,4210304,,,2023-09-25,清算の結了等,,,2015-10-05,1,,,,,ファインマテリアルズ,0
2178,9120001021784,登記記録の閉鎖等,0,2023-09-29,2023-09-19,株式会社ミズタニアート,,株式会社,大阪府,大阪市平野区,瓜破東２丁目５番５６号,,27,126,5470022,,,2023-09-19,清算の結了等,,,2015-10-05,1,,,,,ミズタニアート,0
2182,9120001217408,登記記録の閉鎖等,0,2023-09-29,2023-09-19,株式会社メルダン,,株式会社,大阪府,枚方市,楠葉並木２丁目２２番１号,,27,210,5731118,,,2023-09-19,清算の結了等,,,2018-11-28,1,,,,,メルダン,0
2198,9120101035239,登記記録の閉鎖等,0,2023-09-29,2023-09-28,株式会社イーリテラシー・ソリューションズ,,株式会社,大阪府,河内長野市,清見台３丁目２番１１号,,27,216,5860043,,,2023-09-28,清算の結了等,,,2015-10-05,1,,,,,イーリテラシーソリューションズ,0
2205,9120902009382,登記記録の閉鎖等,0,2023-09-29,2023-09-22,有限会社青山薬局,,有限会社,大阪府,高槻市,古曽部町２丁目１３番４号,,27,207,5691115,,,2023-09-22,合併による解散等,5290001021111,令和５年９月１日福岡市中央区薬院一丁目１４番５号株式会社アガペ（5290001021111）に合併し解散,2015-10-05,1,,,,,アオヤマヤッキョク,0
2226,9140002034040,登記記録の閉鎖等,0,2023-09-29,2023-09-27,有限会社播磨自動車工業所,,有限会社,兵庫県,赤穂郡上郡町,大持３５７番地の１,,28,481,6781233,,,2023-09-27,清算の結了等,,,2015-10-05,1,,,,,ハリマジドウシャコウギョウショ,0
2232,9180001109450,登記記録の閉鎖等,0,2023-09-29,2023-09-27,株式会社Ｅ＆Ａ,,株式会社,愛知県,江南市,天王町駒野１０６番地１,,23,217,4838114,,,2023-09-27,清算の結了等,,,2015-10-05,1,,,,,イーアンドエー,0
2252,9200002016841,登記記録の閉鎖等,0,2023-09-29,2023-09-26,有限会社イブキ,,有限会社,岐阜県,可児市,清水ケ丘２丁目１３１番地,,21,214,5090248,,,2023-09-26,清算の結了等,,,2015-10-05,1,,,,,,0
2255,9220005004148,登記記録の閉鎖等,0,2023-09-29,2023-09-20,北陸第一ドライ企業組合,,その他の設立登記法人,石川県,加賀市,大聖寺法華坊町３番地９,,17,206,9220033,,,2023-09-20,清算の結了等,,,2015-10-05,1,,,,,ホクリクダイイチドライ,0
2273,9290001034885,登記記録の閉鎖等,0,2023-09-29,2023-09-19,株式会社形成技研,,株式会社,福岡県,福岡市城南区,樋井川７丁目１２番１１号,,40,136,8140153,,,2023-09-19,清算の結了等,,,2015-10-05,1,,,,,ケイセイギケン,0
2279,9290802004459,登記記録の閉鎖等,0,2023-09-29,2023-09-07,有限会社徳祐,00018161,有限会社,埼玉県,さいたま市見沼区,大字中川９２７番１０号,,11,104,3370043,,,2023-09-07,清算の結了等,,,2015-10-05,1,,,,,トクユウ,0
2281,9290805005652,登記記録の閉鎖等,0,2023-09-29,2023-09-25,宮若市土地開発公社,,その他の設立登記法人,福岡県,宮若市,宮田２９番地の１,,40,226,8230011,,,2023-09-25,清算の結了等,,,2015-10-05,1,,,,,ミヤワカシ,0
2284,9340002028187,登記記録の閉鎖等,0,2023-09-29,2023-09-26,有限会社鮫島工務店,,有限会社,鹿児島県,曽於市,財部町下財部１５０５番地３,,46,217,8994103,,,2023-09-26,清算の結了等,,,2015-10-05,1,,,,,サメシマコウムテン,0
2290,9430001042832,登記記録の閉鎖等,0,2023-09-29,2023-09-15,桂隆商事株式会社,,株式会社,北海道,江別市,大麻中町１３番地６,,01,217,0690854,,,2023-09-15,清算の結了等,,,2015-10-05,1,,,,,ケイリュウショウジ,0
2296,9430002039225,登記記録の閉鎖等,0,2023-09-29,2023-09-12,有限会社ノニライフ,,有限会社,北海道,札幌市豊平区,旭町１丁目１番２４－１０６号,,01,105,0620911,,,2023-09-12,清算の結了等,,,2015-10-05,1,,,,,ノニライフ,0
2299,9480005006003,登記記録の閉鎖等,0,2023-09-29,2023-09-27,プラネット事業協同組合,,その他の設立登記法人,徳島県,阿波市,吉野町柿原字小島２０４番３,,36,206,7711401,,,2023-09-27,清算の結了等,,,2015-10-05,1,,,,,プラネット,0
