sequenceNumber,corporateNumber,process,correct,updateDate,changeDate,name,nameImageId,kind,prefectureName,cityName,streetNumber,addressImageId,prefectureCode,cityCode,postCode,addressOutside,addressOutsideImageId,closeDate,closeCause,successorCorporateNumber,changeCause,assignmentDate,latest,enName,enPrefectureName,enCityName,enAddressOutside,furigana,hihyoji
3,1010001250963,新規,0,2024-12-26,2024-12-26,越雪株式会社,,株式会社,東京都,千代田区,丸の内１丁目１１番１号パシフィックセンチュリー１３階,,13,101,1000005,,,,,,,2024-12-26,1,,,,,コシユキ,0
4,1010003045890,新規,0,2024-12-26,2024-12-26,合同会社ｂａｎａｎａ　ｃｏｍｐａｎｙ,,合同会社,東京都,八丈島八丈町,三根４９０６－３,,13,401,1001511,,,,,,,2024-12-26,1,,,,,バナナカンパニー,0
14,1010403034080,新規,0,2024-12-26,2024-12-26,合同会社ＧＥＴＩ　Ｊａｐａｎ,,合同会社,東京都,港区,白金２丁目５番５－４０３号,,13,103,1080072,,,,,,,2024-12-26,1,,,,,ゲティジャパン,0
15,1010405023890,新規,0,2024-12-26,2024-12-26,一般社団法人日本放射線治療品質管理機構,,その他の設立登記法人,東京都,港区,西麻布３丁目１番１７号ＮＩＳＳＨＩＮ・ＢＬＤＧ３Ｆ,,13,103,1060031,,,,,,,2024-12-26,1,,,,,ニホンホウシャセンチリョウヒンシツカンリキコウ,0
22,1010801035705,新規,0,2024-12-26,2024-12-26,株式会社ＧＷＣキャリア,,株式会社,東京都,大田区,南蒲田２丁目４番１４号,,13,111,1440035,,,,,,,2024-12-26,1,,,,,ジーダブリュシーキャリア,0
28,1011003020660,新規,0,2024-12-26,2024-12-26,合同会社コアラキャリア,,合同会社,東京都,渋谷区,神宮前６丁目２３番４号桑野ビル２階,,13,113,1500001,,,,,,,2024-12-26,1,,,,,コアラキャリア,0
33,1011101110074,新規,0,2024-12-26,2024-12-26,株式会社ベイス,,株式会社,東京都,新宿区,新宿５丁目１２－１６正剛ビル４階,,13,104,1600022,,,,,,,2024-12-26,1,,,,,ベイス,0
51,1011701027924,新規,0,2024-12-26,2024-12-26,株式会社ミラージュフローラ,,株式会社,東京都,江戸川区,東小松川３丁目１２番７号,,13,123,1320033,,,,,,,2024-12-26,1,,,,,ミラージュフローラ,0
53,1012401042619,新規,0,2024-12-26,2024-12-26,株式会社ＩＳＫ,,株式会社,東京都,三鷹市,井口２丁目３番７号Ｃ．ＭＡＲＫＥＴ１０１,,13,204,1810011,,,,,,,2024-12-26,1,,,,,アイエスケー,0
65,1020001160666,新規,0,2024-12-26,2024-12-26,株式会社エルマーノ,,株式会社,神奈川県,横浜市中区,伊勢佐木町１丁目３－７玉木屋ビルつけ麺大王,,14,104,2310045,,,,,,,2024-12-26,1,,,,,エルマーノ,0
66,1020001160682,新規,0,2024-12-26,2024-12-26,高石株式会社,,株式会社,神奈川県,横浜市中区,扇町２丁目３番地１エスト・グランディール横濱関内５０５号室,,14,104,2310027,,,,,,,2024-12-26,1,,,,,タカイシ,0
85,1040001136648,新規,0,2024-12-26,2024-12-26,平野建築株式会社,,株式会社,千葉県,四街道市,四街道２丁目１２番３５号,,12,228,2840005,,,,,,,2024-12-26,1,,,,,ヒラノケンチク,0
86,1040001136697,新規,0,2024-12-26,2024-12-26,株式会社ＯＧＵＲＡ・ＨＤ,,株式会社,千葉県,千葉市若葉区,加曽利町１５４６番地１５,,12,104,2640017,,,,,,,2024-12-26,1,,,,,オグラホールディングス,0
87,1040001136714,新規,0,2024-12-26,2024-12-26,株式会社Ｌａ　Ｍａｉｓｏｎ　ｄｕ　ｃａｌｍｅ,,株式会社,千葉県,千葉市美浜区,浜田１丁目３番地コロンブスシティ１２０８号,,12,106,2610025,,,,,,,2024-12-26,1,,,,,ラメゾンデュカルム,0
88,1040001136739,新規,0,2024-12-26,2024-12-26,株式会社ＭＹ　ＦＩＥＬＤ,,株式会社,千葉県,銚子市,三軒町７番地の１８,,12,202,2880045,,,,,,,2024-12-26,1,,,,,マイフィールド,0
89,1040001136771,新規,0,2024-12-26,2024-12-26,株式会社ＯＴＯＧＯＮＯＭ,,株式会社,千葉県,船橋市,海神４丁目６番１号,,12,204,2730021,,,,,,,2024-12-26,1,,,,,オトゴノム,0
101,1050003008902,新規,0,2024-12-26,2024-12-26,ＳＵＮＲＩＳＥ　ＴＲＡＤＩＮＧ合同会社,,合同会社,茨城県,古河市,東山田１６０１番地２の８,,08,204,3060112,,,,,,,2024-12-26,1,,,,,サンライズトレーディング,0
107,1080001026688,新規,0,2024-12-26,2024-12-26,株式会社杉友技建,,株式会社,静岡県,静岡市葵区,建穂１丁目１２番７号,,22,101,4211214,,,,,,,2024-12-26,1,,,,,スギトモギケン,0
109,1080003003363,新規,0,2024-12-26,2024-12-26,合同会社Ｂｅｌｌｆｌｏｗｅｒ,,合同会社,静岡県,静岡市葵区,幸町１７番地の１,,22,101,4200067,,,,,,,2024-12-26,1,,,,,ベルフラワー,0
118,1080401027641,新規,0,2024-12-26,2024-12-26,株式会社将軍,,株式会社,静岡県,掛川市,横須賀３３３番地の１,,22,213,4371301,,,,,,,2024-12-26,1,,,,,ショウグン,0
124,1090001019055,新規,0,2024-12-26,2024-12-26,株式会社ＮＥＸＴ　ＬＥＶＥＬ,,株式会社,山梨県,甲斐市,大下条９５３,,19,210,4000126,,,,,,,2024-12-26,1,,,,,ネクストレベル,0
125,1090003002711,新規,0,2024-12-26,2024-12-26,合同会社Ｆｅａｓｔ,,合同会社,山梨県,甲府市,中央１丁目１２番５号　五光ビル２ｆ,,19,201,4000032,,,,,,,2024-12-26,1,,,,,フィースト,0
140,1120001271346,新規,0,2024-12-26,2024-12-26,夢杉株式会社,,株式会社,大阪府,大阪市旭区,今市１丁目２－５カルム千林４０１号室,,27,117,5350011,,,,,,,2024-12-26,1,,,,,ユメスギ,0
141,1120001271437,新規,0,2024-12-26,2024-12-26,Ｒｅａｌｅｙｅ株式会社,,株式会社,大阪府,大阪市東淀川区,北江口２丁目１０番１８号２０３室,,27,114,5330002,,,,,,,2024-12-26,1,,,,,リアルアイ,0
142,1120001271453,新規,0,2024-12-26,2024-12-26,株式会社ＲＩＳＥ,,株式会社,大阪府,大阪市浪速区,難波中３丁目９番３号南朝日ビル５０９,,27,111,5560011,,,,,,,2024-12-26,1,,,,,ライズ,0
143,1120001271478,新規,0,2024-12-26,2024-12-26,株式会社ビジョンシー,,株式会社,大阪府,大阪市中央区,伏見町４丁目４－９淀屋橋東洋ビル３Ｆ,,27,128,5410044,,,,,,,2024-12-26,1,,,,,ビジョンシー,0
149,1120101070813,新規,0,2024-12-26,2024-12-26,株式会社Ｓｕｍｉｎｏ’ｓ,,株式会社,大阪府,堺市北区,百舌鳥梅北町５丁４５５番地１パルコートなかもず１００５号,,27,146,5918031,,,,,,,2024-12-26,1,,,,,スミノズ,0
150,1120101070821,新規,0,2024-12-26,2024-12-26,株式会社アスハテラス,,株式会社,大阪府,富田林市,津々山台２丁目５番２３－３０１号,,27,214,5840086,,,,,,,2024-12-26,1,,,,,アスハテラス,0
154,1120901050213,新規,0,2024-12-26,2024-12-26,株式会社ソライト,,株式会社,大阪府,豊中市,庄内東町３丁目１番４１－９１０号,,27,203,5610831,,,,,,,2024-12-26,1,,,,,ソライト,0
158,1122001038766,新規,0,2024-12-26,2024-12-26,株式会社桜天,,株式会社,大阪府,東大阪市,菱江１丁目１０番４２－８号,,27,227,5780984,,,,,,,2024-12-26,1,,,,,サテン,0
160,1130001078492,新規,0,2024-12-26,2024-12-26,株式会社ＳｏＪａｐａｎ,,株式会社,京都府,京都市中京区,梅屋町４８５セザール麩屋町１０１,,26,104,6040091,,,,,,,2024-12-26,1,,,,,ソージャパン,0
161,1130001078658,新規,0,2024-12-26,2024-12-26,かはひらこ株式会社,,株式会社,京都府,京都市北区,紫野西藤ノ森町１２番地２１,,26,101,6038224,,,,,,,2024-12-26,1,,,,,カハヒラコ,0
163,1130005017257,新規,0,2024-12-26,2024-12-26,ＣＯＨＥＮ税理士法人,,その他の設立登記法人,京都府,京都市中京区,河原町通二条下る一之船入町５３７番地２０ＦＩＳ御池ビル６０５号,,26,104,6040924,,,,,,,2024-12-26,1,,,,,コヘン,0
165,1140001136737,新規,0,2024-12-26,2024-12-26,株式会社ロク,,株式会社,兵庫県,尼崎市,若王寺１丁目１２番３号,,28,202,6610974,,,,,,,2024-12-26,1,,,,,ロク,0
166,1140001136852,新規,0,2024-12-26,2024-12-26,株式会社こまいぬ,,株式会社,兵庫県,西宮市,久保町１２－３１,,28,204,6620927,,,,,,,2024-12-26,1,,,,,コマイヌ,0
172,1160003003363,新規,0,2024-12-26,2024-12-26,合同会社ＬＯＭＯＲＥ,,合同会社,滋賀県,草津市,笠山１丁目７－３７－４－２Ｆ,,25,206,5250072,,,,,,,2024-12-26,1,,,,,ロモア,0
190,1190001031891,新規,0,2024-12-26,2024-12-26,株式会社クリエステラ,,株式会社,三重県,四日市市,栄町１番１１号,,24,202,5100084,,,,,,,2024-12-26,1,,,,,クリエステラ,0
191,1190001031900,新規,0,2024-12-26,2024-12-26,株式会社伊勢きずな動物病院,,株式会社,三重県,伊勢市,辻久留３丁目１５－１７,00137466,24,203,5160066,,,,,,,2024-12-26,1,,,,,イセキズナドウブツビョウイン,0
193,1200001043282,新規,0,2024-12-26,2024-12-26,株式会社Ｔ’ｚ　Ｇｒｏｕｐ,,株式会社,岐阜県,各務原市,川島小網町２１４６番地８６,,21,213,5016023,,,,,,,2024-12-26,1,,,,,ティーズグループ,0
195,1200003006634,新規,0,2024-12-26,2024-12-26,ＣＡＲ’Ｓ合同会社,,合同会社,岐阜県,岐阜市,須賀３丁目１４番６号,,21,201,5008289,,,,,,,2024-12-26,1,,,,,カーズ,0
204,1260001039746,新規,0,2024-12-26,2024-12-26,株式会社ヒトミー,,株式会社,岡山県,新見市,下熊谷１６９９番地,,33,210,7180002,,,,,,,2024-12-26,1,,,,,ヒトミー,0
208,1260003005011,新規,0,2024-12-26,2024-12-26,鴻島永地合同会社,,合同会社,岡山県,備前市,日生町日生字鴻島２６６６番地４３６,,33,211,7013204,,,,,,,2024-12-26,1,,,,,コウジマエイチ,0
213,1290001108416,新規,0,2024-12-26,2024-12-26,ＪＰＮＥＣＴ株式会社,,株式会社,福岡県,福岡市城南区,友丘１丁目７－１９,,40,136,8140112,,,,,,,2024-12-26,1,,,,,ジェーピーネクト,0
220,1290003016229,新規,0,2024-12-26,2024-12-26,合同会社セラヴィファースト,,合同会社,福岡県,福岡市博多区,石城町７－２－７０５,,40,132,8120032,,,,,,,2024-12-26,1,,,,,セラヴィファースト,0
223,1300001014026,新規,0,2024-12-26,2024-12-26,佐賀はがくれすっぽん株式会社,,株式会社,佐賀県,佐賀市,久保泉町大字下和泉２７０４番地３,,41,201,8490903,,,,,,,2024-12-26,1,,,,,サガハガクレスッポン,0
225,1310001019387,新規,0,2024-12-26,2024-12-26,オプティミズム株式会社,,株式会社,長崎県,佐世保市,天神３丁目１番２５号２Ｆ,,42,202,8571174,,,,,,,2024-12-26,1,,,,,オプティミズム,0
228,1320001020872,新規,0,2024-12-26,2024-12-26,ＫＡＮＥＫＯ株式会社,,株式会社,大分県,大分市,大字松岡２８２６番地１,,44,201,8700125,,,,,,,2024-12-26,1,,,,,カネコ,0
232,1340001027024,新規,0,2024-12-26,2024-12-26,株式会社ＰＯＮＯＴＴＥ,,株式会社,鹿児島県,鹿屋市,串良町上小原３５０３番地１１,,46,203,8931605,,,,,,,2024-12-26,1,,,,,ポノッテ,0
240,1360001034563,新規,0,2024-12-26,2024-12-26,株式会社ＴＨＥ　ＧＲＥＥＮ,,株式会社,沖縄県,那覇市,久米２丁目３番１５号,,47,201,9000033,,,,,,,2024-12-26,1,,,,,ザグリーン,0
243,1360003014547,新規,0,2024-12-26,2024-12-26,合同会社ＬＩＮＫ,,合同会社,沖縄県,中頭郡西原町,上原２丁目３０番地の５,,47,329,9030125,,,,,,,2024-12-26,1,,,,,リンク,0
254,1430001093346,新規,0,2024-12-26,2024-12-26,株式会社柴田,,株式会社,北海道,札幌市白石区,北郷七条７丁目１番１５－２０５号,,01,104,0030837,,,,,,,2024-12-26,1,,,,,シバタ,0
258,1480001012689,新規,0,2024-12-26,2024-12-26,株式会社清水造林,,株式会社,徳島県,名西郡神山町,下分字安吉１０４番地１,,36,342,7713421,,,,,,,2024-12-26,1,,,,,シミズゾウリン,0
260,1490001010931,新規,0,2024-12-26,2024-12-26,株式会社朝倉テクノサポート,,株式会社,高知県,高知市,鴨部２丁目２番４１号,,39,201,7808052,,,,,,,2024-12-26,1,,,,,アサクラテクノサポート,0
264,1700150128437,新規,0,2024-12-26,2024-12-26,ＥＸＰＯ　ＭＯＴＯＲＳ　ＰＶＴ　ＬＴＤ,,外国会社等,千葉県,山武郡横芝光町,木戸６５４７番地３７－Ａ,,12,410,2891726,スリランカ民主社会主義共和国、ポロンナルワ、タンバラ、Ｂｏｐ３１４／９５,,,,,,2024-12-26,1,,,,,エキスポモータースプライベートリミテツド,0
271,2010001250921,新規,0,2024-12-26,2024-12-26,株式会社Ｈ＆Ａインテリジェンス,,株式会社,東京都,千代田区,神田佐久間町３丁目２１番地インターアクトビル３Ｆ,,13,101,1010025,,,,,,,2024-12-26,1,,,,,エイチアンドエーインテリジェンス,0
272,2010001250987,新規,0,2024-12-26,2024-12-26,ランノ株式会社,,株式会社,東京都,文京区,根津２丁目１１－３－４Ｆ,,13,105,1130031,,,,,,,2024-12-26,1,,,,,ランノ,0
273,2010001250995,新規,0,2024-12-26,2024-12-26,株式会社Ｗｉｎｇ,,株式会社,東京都,中央区,銀座１丁目１２番４号Ｎ＆ＥＢＬＤ．６Ｆ,,13,102,1040061,,,,,,,2024-12-26,1,,,,,ウィング,0
274,2010001251036,新規,0,2024-12-26,2024-12-26,株式会社Ｓｏｐｈｉｅ,,株式会社,東京都,中央区,銀座１丁目１２番４号Ｎ＆ＥＢＬＤ．６Ｆ,,13,102,1040061,,,,,,,2024-12-26,1,,,,,ソフィー,0
275,2010001251052,新規,0,2024-12-26,2024-12-26,株式会社ＹＹＡコンサルティング,,株式会社,東京都,千代田区,神田和泉町１番地６－１６ヤマトビル４０５,,13,101,1010024,,,,,,,2024-12-26,1,,,,,ワイワイエイコンサルティング,0
281,2010005039329,新規,0,2024-12-26,2024-12-26,一般社団法人ＲＢ１,,その他の設立登記法人,東京都,千代田区,丸の内１丁目４番１号東京共同会計事務所内,,13,101,1000005,,,,,,,2024-12-26,1,,,,,アールビーワン,0
285,2010103002477,新規,0,2024-12-26,2024-12-26,合同会社ＮＩＫＡ,,合同会社,東京都,八王子市,大楽寺町１１６－２,,13,201,1930816,,,,,,,2024-12-26,1,,,,,ニカ,0
291,2010401187284,新規,0,2024-12-26,2024-12-26,弘歴グループ株式会社,,株式会社,東京都,港区,芝浦３丁目１７番１１号天翔田町ビル７１０,,13,103,1080023,,,,,,,2024-12-26,1,,,,,コウレキグループ,0
295,2010501053403,新規,0,2024-12-26,2024-12-26,一葉株式会社,,株式会社,東京都,台東区,北上野１丁目１１－９ＧＳハイム第５鶯谷１０Ａ室,,13,106,1100014,,,,,,,2024-12-26,1,,,,,カズハ,0
314,2011101110081,新規,0,2024-12-26,2024-12-26,株式会社ＧＧ,,株式会社,東京都,新宿区,西新宿３丁目３番１３号西新宿水間ビル６階,,13,104,1600023,,,,,,,2024-12-26,1,,,,,ジージー,0
318,2011501031522,新規,0,2024-12-26,2024-12-26,正大日本株式会社,,株式会社,東京都,北区,中里１丁目２１番２号中里ビル１Ｆ,,13,117,1140015,,,,,,,2024-12-26,1,,,,,セイダイニホン,0
319,2011601028328,新規,0,2024-12-26,2024-12-26,株式会社ｋｙｕ,,株式会社,東京都,練馬区,関町南２丁目３番２０－５０３号,,13,120,1770053,,,,,,,2024-12-26,1,,,,,キュウ,0
321,2011801045354,新規,0,2024-12-26,2024-12-26,株式会社Ｃ．Ｔ．Ｍ,,株式会社,東京都,足立区,鹿浜６丁目３０番９号,,13,121,1230864,,,,,,,2024-12-26,1,,,,,シーティーエム,0
326,2012801023663,新規,0,2024-12-26,2024-12-26,株式会社ＧＬＵＣＫ　ＨＡＵＳ,,株式会社,東京都,昭島市,大神町４丁目１２番１９号,,13,207,1960013,,,,,,,2024-12-26,1,,,,,グラックハウス,0
334,2020001160673,新規,0,2024-12-26,2024-12-26,株式会社ポエトリー,,株式会社,神奈川県,横浜市青葉区,もえぎ野１７番地１０－２０３,,14,117,2270044,,,,,,,2024-12-26,1,,,,,ポエトリー,0
345,2021003015394,新規,0,2024-12-26,2024-12-26,ネクストワン合同会社,,合同会社,神奈川県,海老名市,さつき町１番地１５－４０４,,14,215,2430421,,,,,,,2024-12-26,1,,,,,ネクストワン,0
355,2030001164129,新規,0,2024-12-26,2024-12-26,株式会社Ｓｈｙ２Ｎ,,株式会社,埼玉県,志木市,幸町３丁目６番５０号,,11,228,3530005,,,,,,,2024-12-26,1,,,,,シャイン,0
356,2030003025725,新規,0,2024-12-26,2024-12-26,合同会社Ｍａｒｔｅｎｓｉｌｖｅｒ,,合同会社,埼玉県,行田市,大字持田９５６番地２,,11,206,3610056,,,,,,,2024-12-26,1,,,,,マーテンシル,0
365,2040003026400,新規,0,2024-12-26,2024-12-26,合同会社大平造園設計,,合同会社,千葉県,市川市,末広２丁目１５番２１号－３０３号（シティーパレス２）,,12,203,2720121,,,,,,,2024-12-26,1,,,,,オオヒラゾウエンセッケイ,0
372,2080101025218,新規,0,2024-12-26,2024-12-26,株式会社沼津テクノロジー,,株式会社,静岡県,沼津市,宮本１７８番地の５７,,22,203,4100301,,,,,,,2024-12-26,1,,,,,ヌマヅテクノロジー,0
379,2080401027616,新規,0,2024-12-26,2024-12-26,株式会社高卒採用バンク,,株式会社,静岡県,浜松市中央区,大蒲町１１７番地の１６,,22,138,4350014,,,,,,,2024-12-26,1,,,,,コウソツサイヨウバンク,0
388,2120001271411,新規,0,2024-12-26,2024-12-26,Ａｒｋ　Ａｄｖｉｓｏｒｙ株式会社,,株式会社,大阪府,大阪市中央区,南本町２丁目３番１２号ＥＤＧＥ本町３Ｆ,,27,128,5410054,,,,,,,2024-12-26,1,,,,,アークアドバイザリー,0
389,2120001271436,新規,0,2024-12-26,2024-12-26,福澤和旺投資株式会社,,株式会社,大阪府,大阪市港区,港晴１丁目１番２６号ベイグランドＦ３０６号,,27,107,5520023,,,,,,,2024-12-26,1,,,,,フクサワワオウトウシ,0
390,2120001271460,新規,0,2024-12-26,2024-12-26,杭西株式会社,,株式会社,大阪府,大阪市住之江区,東加賀屋２丁目６番２２号,,27,125,5590012,,,,,,,2024-12-26,1,,,,,クイニシ,0
391,2120001271469,新規,0,2024-12-26,2024-12-26,株式会社ＫＡＮＳＡＩ　ＧＬＯＢＡＬ,,株式会社,大阪府,大阪市西成区,鶴見橋１丁目１４番１５－５０２号,,27,122,5570031,,,,,,,2024-12-26,1,,,,,カンサイグローバル,0
392,2120001271485,新規,0,2024-12-26,2024-12-26,株式会社リーチングパートナーズ,,株式会社,大阪府,大阪市北区,天満４丁目１４－１９,,27,127,5300043,,,,,,,2024-12-26,1,,,,,リーチングパートナーズ,0
398,2120101070804,新規,0,2024-12-26,2024-12-26,株式会社ＢＩＭＯＮ,,株式会社,大阪府,羽曳野市,羽曳が丘１丁目１２番５号,,27,222,5830864,,,,,,,2024-12-26,1,,,,,ビモン,0
405,2130001078657,新規,0,2024-12-26,2024-12-26,株式会社ＫＹＴ　ｔｅｃｈ,,株式会社,京都府,京田辺市,同志社山手３丁目２－１８３,,26,211,6100315,,,,,,,2024-12-26,1,,,,,ケイワイティテック,0
406,2130005017256,新規,0,2024-12-26,2024-12-26,ＣＯＨＥＮ社会保険労務士法人,,その他の設立登記法人,京都府,京都市中京区,河原町通二条下る一之船入町５３７番地２０ＦＩＳ御池ビル６０４号,,26,104,6040924,,,,,,,2024-12-26,1,,,,,コヘン,0
409,2140001136802,新規,0,2024-12-26,2024-12-26,株式会社Ｈａｒｒｙ’ｓ　Ｍｕｓｉｃ,,株式会社,兵庫県,神戸市北区,藤原台南町５丁目１８番３５号,,28,109,6511303,,,,,,,2024-12-26,1,,,,,ハリーズミュージック,0
410,2140001136843,新規,0,2024-12-26,2024-12-26,株式会社奇点通信,,株式会社,兵庫県,芦屋市,奥池町３０番１７号,,28,206,6590003,,,,,,,2024-12-26,1,,,,,キテンツウシン,0
413,2140003021449,新規,0,2024-12-26,2024-12-26,合同会社エニケア,,合同会社,兵庫県,神戸市垂水区,御霊町３番６号,,28,108,6550024,,,,,,,2024-12-26,1,,,,,エニケア,0
430,2180005020874,新規,0,2024-12-26,2024-12-26,特定非営利活動法人外国人支援交流文化センター,,その他の設立登記法人,愛知県,名古屋市中川区,十一番町７丁目２番地の１県営十一番町住宅１棟１０７号,,23,110,4540056,,,,,,,2024-12-26,1,,,,,ガイコクジンシエンコウリュウブンカセンター,0
434,2200003006633,新規,0,2024-12-26,2024-12-26,Ｍ．Ｋ　ＴＲＡＤＩＮＧ合同会社,,合同会社,岐阜県,美濃加茂市,西町７丁目３１３番地,,21,211,5050046,,,,,,,2024-12-26,1,,,,,エムケイトレーディング,0
436,2200005013702,新規,0,2024-12-26,2024-12-26,一般社団法人リハビリランド,,その他の設立登記法人,岐阜県,岐阜市,鷺山東２丁目５番４１号,,21,201,5020850,,,,,,,2024-12-26,1,,,,,リハビリランド,0
437,2210001020008,新規,0,2024-12-26,2024-12-26,谷水工業株式会社,,株式会社,福井県,福井市,篠尾町第６７号９番地,,18,201,9102148,,,,,,,2024-12-26,1,,,,,タニミズコウギョウ,0
444,2240001064316,新規,0,2024-12-26,2024-12-26,株式会社プラス・コンサルタント,,株式会社,広島県,広島市南区,宇品海岸２丁目１２番２９号,,34,103,7340011,,,,,,,2024-12-26,1,,,,,プラスコンサルタント,0
467,2290003016228,新規,0,2024-12-26,2024-12-26,合同会社Ｓｕｎ,,合同会社,福岡県,福岡市博多区,中洲４丁目７番６号中洲らくてんちビル１階,,40,132,8100801,,,,,,,2024-12-26,1,,,,,サン,0
469,2290803004927,新規,0,2024-12-26,2024-12-26,直方エアコン電気工事合同会社,,合同会社,福岡県,直方市,殿町１６番３６号,,40,204,8220017,,,,,,,2024-12-26,1,,,,,ノオガタエアコンデンキコウジ,0
470,2310001019394,新規,0,2024-12-26,2024-12-26,株式会社ＭｅＯ,,株式会社,長崎県,長崎市,ダイヤランド２丁目４０番１号,,42,201,8500963,,,,,,,2024-12-26,1,,,,,メオ,0
471,2310003004915,新規,0,2024-12-26,2024-12-26,合同会社フェリーチェ,,合同会社,長崎県,長崎市,田中町７９番地６７,,42,201,8510134,,,,,,,2024-12-26,1,,,,,フェリーチェ,0
473,2320003004542,新規,0,2024-12-26,2024-12-26,合同会社イーリ,,合同会社,大分県,大分市,中央町１丁目４番２４号大分セントラルビル２Ｆ,,44,201,8700035,,,,,,,2024-12-26,1,,,,,イーリ,0
474,2350001019325,新規,0,2024-12-26,2024-12-26,ｉＧｅｎ株式会社,,株式会社,宮崎県,宮崎市,大字生目４５２８番地,,45,201,8802103,,,,,,,2024-12-26,1,,,,,アイジェン,0
475,2360001034554,新規,0,2024-12-26,2024-12-26,株式会社ＳＫ　Ｐｌａｎｎｉｎｇ,,株式会社,沖縄県,島尻郡南風原町,字津嘉山１１５１番地５,,47,350,9011117,,,,,,,2024-12-26,1,,,,,エスケイプランニング,0
476,2360001034570,新規,0,2024-12-26,2024-12-26,株式会社ノニんちゅうツアー,,株式会社,沖縄県,宮古島市,平良字西仲宗根１８８番地１サンハイム１０３号,,47,214,9060006,,,,,,,2024-12-26,1,,,,,ノニンチュウツアー,0
477,2360001034587,新規,0,2024-12-26,2024-12-26,株式会社ルミエール,,株式会社,沖縄県,宜野湾市,宇地泊１丁目３番１７号ｔｏＣｏｌｏｒ２０１,,47,205,9012227,,,,,,,2024-12-26,1,,,,,ルミエール,0
479,2370003006864,新規,0,2024-12-26,2024-12-26,合同会社Ｆａｍｉｌｉａｒ,,合同会社,宮城県,仙台市太白区,ひより台４２番１３－１号,,04,104,9820811,,,,,,,2024-12-26,1,,,,,ファミリア,0
489,2430001093345,新規,0,2024-12-26,2024-12-26,ワンキャッスルホールディングス株式会社,,株式会社,北海道,札幌市白石区,本郷通８丁目南３番１号ライオンズマンション本郷通第二２Ｆ,,01,104,0030024,,,,,,,2024-12-26,1,,,,,ワンキャッスルホールディングス,0
493,2430003017112,新規,0,2024-12-26,2024-12-26,ＳＧＳ合同会社,,合同会社,北海道,石狩市,花川南八条２丁目１９２番地,,01,235,0613208,,,,,,,2024-12-26,1,,,,,エスジーエス,0
498,2480001012688,新規,0,2024-12-26,2024-12-26,株式会社宮田クリーン,,株式会社,徳島県,徳島市,北島田町３丁目２９－３,,36,201,7700051,,,,,,,2024-12-26,1,,,,,ミヤタクリーン,0
505,2700150128353,新規,0,2024-12-26,2024-12-23,大崎市地域雇用創造協議会,,その他,宮城県,大崎市,古川七日町１番１号,,04,215,9896153,,,,,,,2024-12-23,1,,,,,オオサキシチイキコヨウソウゾウキヨウギカイ,0
506,2700150128436,新規,0,2024-12-26,2024-12-26,Ｐａｒｋ　Ｓａｆａｒｉ　Ｒｅｓｏｒｔ,,外国会社等,栃木県,佐野市,犬伏新町２０２２－１－１０３,,09,204,3270803,ネパール国、チトワン、ラトナナガル自治体、サウラハ、第６区,,,,,,2024-12-26,1,,,,,パークサフアリリゾート,0
510,3010001251035,新規,0,2024-12-26,2024-12-26,Ａｎｇｅｌ　Ｂｒｉｄｇｅ　Ｕｎｉｃｏｒｎ　Ｆｕｎｄ３号株式会社,,株式会社,東京都,千代田区,永田町２丁目１７番４号笠松千代田ビル１０１号室,,13,101,1000014,,,,,,,2024-12-26,1,,,,,エンジェルブリッジユニコーンファンドサンゴウ,0
517,3010401187283,新規,0,2024-12-26,2024-12-26,株式会社Ｆ‐ＳＡＭＵＲＡＩｈｏｌｄｉｎｇｓ,,株式会社,東京都,港区,浜松町２丁目２番１５号,,13,103,1050013,,,,,,,2024-12-26,1,,,,,エフサムライホールディングス,0
524,3010501053385,新規,0,2024-12-26,2024-12-26,Ｓｕｎｓｈｉｎｅ株式会社,,株式会社,東京都,台東区,上野１丁目１０番８アジア商事上野ビル１Ｆ,,13,106,1100005,,,,,,,2024-12-26,1,,,,,サンシャイン,0
528,3010601066519,新規,0,2024-12-26,2024-12-26,株式会社Ｃｏｍ‐ｉ　Ｔｅｃｈ　Ｊａｐａｎ,,株式会社,東京都,江東区,木場１丁目４番１２号名古路木場ビル５Ｆ,,13,108,1350042,,,,,,,2024-12-26,1,,,,,コミテックジャパン,0
534,3010901056566,新規,0,2024-12-26,2024-12-26,株式会社ＯＢＯ,,株式会社,東京都,世田谷区,松原２丁目４６番５号リューズビル３階,,13,112,1560043,,,,,,,2024-12-26,1,,,,,オボ,0
537,3010903009571,新規,0,2024-12-26,2024-12-26,Ｍａｇｎｉｆｉｃｏ合同会社,,合同会社,東京都,世田谷区,北沢３丁目１７番１号,,13,112,1550031,,,,,,,2024-12-26,1,,,,,マニフィコ,0
542,3011005010807,新規,0,2024-12-26,2024-12-26,一般社団法人メディカル・ヘルス・ケア,,その他の設立登記法人,東京都,渋谷区,道玄坂１丁目１０番８号渋谷道玄坂東急ビル２Ｆ－Ｃ,,13,113,1500043,,,,,,,2024-12-26,1,,,,,メディカルヘルスケア,0
559,3011401026687,新規,0,2024-12-26,2024-12-26,株式会社和合,,株式会社,東京都,板橋区,成増５丁目１６－１３,,13,119,1750094,,,,,,,2024-12-26,1,,,,,ワライ,0
565,3011403004575,新規,0,2024-12-26,2024-12-26,ＡＡＲＵＳＨ　ＴＲＡＤＩＮＧ合同会社,,合同会社,東京都,板橋区,若木２丁目３１番２－１１１号,,13,119,1740065,,,,,,,2024-12-26,1,,,,,アルストレーディング,0
567,3011601028327,新規,0,2024-12-26,2024-12-26,株式会社ｊｉｎ,,株式会社,東京都,練馬区,関町南２丁目３番２０－５０３号,,13,120,1770053,,,,,,,2024-12-26,1,,,,,ジン,0
570,3011605002625,新規,0,2024-12-26,2024-12-26,一般社団法人ギフトグローバルアソシエーション,,その他の設立登記法人,東京都,練馬区,練馬２丁目２２番１７号,,13,120,1760001,,,,,,,2024-12-26,1,,,,,ギフトグローバルアソシエーション,0
576,3011801045353,新規,0,2024-12-26,2024-12-26,島や株式会社,,株式会社,東京都,足立区,千住桜木２丁目１７番１－２１１号,,13,121,1200045,,,,,,,2024-12-26,1,,,,,シマヤ,0
579,3012305002114,新規,0,2024-12-26,2024-12-26,特定非営利活動法人Ｙｕｍｅ　Ｉｚｉｙａ,,その他の設立登記法人,東京都,町田市,能ヶ谷６丁目１６番１０号,,13,209,1950053,,,,,,,2024-12-26,1,,,,,ユメイジーヤ,0
581,3012403006891,新規,0,2024-12-26,2024-12-26,合同会社どまんなか,,合同会社,東京都,小金井市,東町１丁目２－７,,13,210,1840011,,,,,,,2024-12-26,1,,,,,ドマンナカ,0
582,3012701018622,新規,0,2024-12-26,2024-12-26,株式会社ＴＳカンパニー,,株式会社,東京都,西東京市,向台町３丁目７番２号,,13,229,1880013,,,,,,,2024-12-26,1,,,,,ティーエスカンパニー,0
588,3020001160672,新規,0,2024-12-26,2024-12-26,株式会社トゥルーバイパス,,株式会社,神奈川県,横浜市都筑区,北山田７丁目４ララヒルズ３－４０７,,14,118,2240021,,,,,,,2024-12-26,1,,,,,トゥルーバイパス,0
594,3030001164111,新規,0,2024-12-26,2024-12-26,春秋株式会社,,株式会社,埼玉県,ふじみ野市,福岡中央１丁目１番１５号キャッスルマンション上福岡２０３,,11,245,3560031,,,,,,,2024-12-26,1,,,,,ハルアキ,0
598,3030005021993,新規,0,2024-12-26,2024-12-26,特定非営利活動法人奥武蔵国際トレイル協会,,その他の設立登記法人,埼玉県,飯能市,大字中居１番地１町田アパートＧ,,11,209,3570002,,,,,,,2024-12-26,1,,,,,オクムサシコクサイトレイルキョウカイ,0
603,3040001136670,新規,0,2024-12-26,2024-12-26,株式会社ＪＵＮ　Ｌｏｇｉｓｔｉｃｓ,,株式会社,千葉県,船橋市,松が丘５丁目１３番８－１号,,12,204,2740064,,,,,,,2024-12-26,1,,,,,ジュンロジスティクス,0
604,3040001136695,新規,0,2024-12-26,2024-12-26,株式会社そうあ,,株式会社,千葉県,松戸市,新松戸南３丁目１１４番地の７,,12,207,2700035,,,,,,,2024-12-26,1,,,,,ソウア,0
605,3040001136811,新規,0,2024-12-26,2024-12-26,ＡＦＴＥＲ　ＦＩＬＭ　ＰＲＯＤＵＣＴＩＯＮ株式会社,,株式会社,千葉県,柏市,豊四季３４５番地の４０,,12,217,2770863,,,,,,,2024-12-26,1,,,,,アフターフィルムプロダクション,0
611,3050001055928,新規,0,2024-12-26,2024-12-26,ＴＴＳ日本株式会社,,株式会社,茨城県,東茨城郡大洗町,港中央１１番地２－２０１,,08,309,3111305,,,,,,,2024-12-26,1,,,,,ティーティーエスニホン,0
612,3050005013535,新規,0,2024-12-26,2024-12-26,農事組合法人オオツカ,,その他の設立登記法人,茨城県,龍ケ崎市,大塚町２２５９番地,,08,208,3010851,,,,,,,2024-12-26,1,,,,,オオツカ,0
614,3070001042478,新規,0,2024-12-26,2024-12-26,株式会社三栄ホールディングス,,株式会社,群馬県,沼田市,横塚町８９６番地２,,10,206,3780002,,,,,,,2024-12-26,1,,,,,サンエイホールディングス,0
627,3090001019061,新規,0,2024-12-26,2024-12-26,Ｔ＆Ｃカンパニー株式会社,,株式会社,山梨県,南都留郡忍野村,忍草３２３７－１,,19,424,4010511,,,,,,,2024-12-26,1,,,,,ティーアンドシーカンパニー,0
628,3100001038150,新規,0,2024-12-26,2024-12-26,株式会社サクフロレレ,,株式会社,長野県,佐久市,長土呂１０３７番地７,,20,217,3850021,,,,,,,2024-12-26,1,,,,,サクフロレレ,0
630,3110001038950,新規,0,2024-12-26,2024-12-26,株式会社こころざし,,株式会社,新潟県,佐渡市,赤玉３３１番地,,15,224,9520852,,,,,,,2024-12-26,1,,,,,ココロザシ,0
631,3110001038959,新規,0,2024-12-26,2024-12-26,株式会社ギンセカイ,,株式会社,新潟県,南魚沼市,塩沢７００番地２,,15,226,9496408,,,,,,,2024-12-26,1,,,,,ギンセカイ,0
641,3120001271427,新規,0,2024-12-26,2024-12-26,株式会社クローマライフ,,株式会社,大阪府,大阪市北区,曾根崎新地１丁目１３番２２号御堂筋フロントタワー１８階,,27,127,5300002,,,,,,,2024-12-26,1,,,,,クローマライフ,0
642,3120001271443,新規,0,2024-12-26,2024-12-26,株式会社Ｂｌｏｏｍ,,株式会社,大阪府,大阪市住之江区,住之江２丁目９－１９エスポワール１０２,,27,125,5590004,,,,,,,2024-12-26,1,,,,,ブルーム,0
643,3120001271451,新規,0,2024-12-26,2024-12-26,株式会社コタ,,株式会社,大阪府,大阪市北区,野崎町１番３０シティタワー東梅田パークフロント２１１４号室,,27,127,5300055,,,,,,,2024-12-26,1,,,,,コタ,0
644,3120001271501,新規,0,2024-12-26,2024-12-26,株式会社ＭＩＬＬＩＯＮＳ,,株式会社,大阪府,大阪市中央区,西心斎橋２丁目９番３８号,,27,128,5420086,,,,,,,2024-12-26,1,,,,,ミリオンズ,0
653,3120901050203,新規,0,2024-12-26,2024-12-26,ダイカイ・コンサルティング株式会社,,株式会社,大阪府,豊中市,北桜塚２丁目１１番１６号,,27,203,5600022,,,,,,,2024-12-26,1,,,,,ダイカイコンサルティング,0
655,3120903005436,新規,0,2024-12-26,2024-12-26,合同会社トゥルース,,合同会社,大阪府,豊中市,東豊中町５丁目３５－１２－４０５,,27,203,5600003,,,,,,,2024-12-26,1,,,,,トゥルース,0
659,3140001136842,新規,0,2024-12-26,2024-12-26,飛矢ホールディングス株式会社,,株式会社,兵庫県,西宮市,門戸東町１番５－１０７号,,28,204,6620824,,,,,,,2024-12-26,1,,,,,トビヤホールディングス,0
662,3140003021464,新規,0,2024-12-26,2024-12-26,ＴｅｓＱ合同会社,,合同会社,兵庫県,神戸市中央区,磯辺通１丁目１番１８号カサベラ国際プラザビル７０７号室,,28,110,6510084,,,,,,,2024-12-26,1,,,,,テスク,0
671,3180001164658,新規,0,2024-12-26,2024-12-26,株式会社光和,,株式会社,愛知県,名古屋市西区,則武新町３丁目８番１６号,,23,104,4510051,,,,,,,2024-12-26,1,,,,,コウワ,0
675,3180005020873,新規,0,2024-12-26,2024-12-26,福祉ビジネス支援事業協同組合,,その他の設立登記法人,愛知県,名古屋市中区,栄２丁目２番１号,,23,106,4600008,,,,,,,2024-12-26,1,,,,,フクシビジネスシエン,0
680,3200001043272,新規,0,2024-12-26,2024-12-26,美濃瓦株式会社,,株式会社,岐阜県,岐阜市,城田寺２８６１番地,,21,201,5020859,,,,,,,2024-12-26,1,,,,,ミノガワラ,0
681,3210001020007,新規,0,2024-12-26,2024-12-26,株式会社ミラクル,,株式会社,福井県,福井市,足羽３丁目２番２３号,,18,201,9188007,,,,,,,2024-12-26,1,,,,,ミラクル,0
683,3240001064307,新規,0,2024-12-26,2024-12-26,Ｙ．ＯＮＥ　ＷＯＲＫＳ株式会社,,株式会社,広島県,福山市,引野町１丁目１５番２号,,34,207,7210942,,,,,,,2024-12-26,1,,,,,ワイワンワークス,0
688,3260001039736,新規,0,2024-12-26,2024-12-26,株式会社目黒コンチェルト,,株式会社,岡山県,岡山市東区,松新町３３６番地１グレースベリー２０３号,,33,103,7048174,,,,,,,2024-12-26,1,,,,,メグロコンチェルト,0
692,3270001009110,新規,0,2024-12-26,2024-12-26,株式会社ＤＥＴ．ｓＣＯ,,株式会社,鳥取県,境港市,外江町２６２２番地,,31,204,6840071,,,,,,,2024-12-26,1,,,,,デッコウ,0
698,3290001108414,新規,0,2024-12-26,2024-12-26,株式会社みなみ舎,,株式会社,福岡県,朝倉郡筑前町,長者町２１７番地,,40,447,8380204,,,,,,,2024-12-26,1,,,,,ミナミシャ,0
700,3290003016202,新規,0,2024-12-26,2024-12-26,門司港電力合同会社,,合同会社,福岡県,福岡市博多区,博多駅前１丁目２３番２号ＰａｒｋＦｒｏｎｔ博多駅前一丁目５Ｆ－Ｂ,,40,132,8120011,,,,,,,2024-12-26,1,,,,,モジコウデンリョク,0
701,3290003016227,新規,0,2024-12-26,2024-12-26,合同会社Ｅａｒｔｈ,,合同会社,福岡県,福岡市博多区,中洲３丁目５番１０号ジョイパックビル１階,,40,132,8100801,,,,,,,2024-12-26,1,,,,,アース,0
702,3290005019599,新規,0,2024-12-26,2024-12-26,医療法人てらまちキッズクリニック,,その他の設立登記法人,福岡県,福岡市西区,今宿東２丁目２３番１３号,,40,135,8190161,,,,,,,2024-12-26,1,,,,,テラマチキッズクリニック,0
708,3320003004541,新規,0,2024-12-26,2024-12-26,合同会社Ａｒａｔａｎａ　Ｉｎｎｏｖａｔｉｏｎ,,合同会社,大分県,大分市,下郡北３丁目４番１２号サザンブライト３０６号,,44,201,8700952,,,,,,,2024-12-26,1,,,,,,0
710,3330005010859,新規,0,2024-12-26,2024-12-26,一般社団法人栗子さくらねこサポーターズ,,その他の設立登記法人,熊本県,天草市,有明町赤崎３８０番地,,43,215,8617201,,,,,,,2024-12-26,1,,,,,クリコサクラネコサポーターズ,0
712,3360001034578,新規,0,2024-12-26,2024-12-26,株式会社ヤールー,,株式会社,沖縄県,南城市,大里字稲嶺１２３１番地,,47,215,9011204,,,,,,,2024-12-26,1,,,,,ヤールー,0
723,3420001018962,新規,0,2024-12-26,2024-12-26,株式会社ミドリノスズ,,株式会社,青森県,青森市,橋本３丁目７－１２,,02,201,0300823,,,,,,,2024-12-26,1,,,,,ミドリノスズ,0
725,3420005007937,新規,0,2024-12-26,2024-12-26,特定非営利活動法人富士見Ｄ．ＢＲＩＤＧＥ,,その他の設立登記法人,青森県,北津軽郡鶴田町,大字妙堂崎杉本７５,,02,384,0383543,,,,,,,2024-12-26,1,,,,,フジミディーブリッジ,0
731,3430001093352,新規,0,2024-12-26,2024-12-26,ＭＯＫＵＺＡＷＡ株式会社,,株式会社,北海道,小樽市,塩谷４丁目９７番地３０,,01,203,0482672,,,,,,,2024-12-26,1,,,,,モクザワ,0
735,3480001012687,新規,0,2024-12-26,2024-12-26,株式会社ＣＨＦ,,株式会社,徳島県,徳島市,名東町３丁目２７１番地の８,,36,201,7700047,,,,,,,2024-12-26,1,,,,,シーエイチエフ,0
737,3700150128352,新規,0,2024-12-26,2024-12-23,海田町地域公共交通会議,,その他,広島県,安芸郡海田町,南昭和町１４番１７号,,34,304,7360065,,,,,,,2024-12-23,1,,,,,カイタチヨウチイキコウキヨウコウツウカイギ,0
738,3700150128435,新規,0,2024-12-26,2024-12-26,ＳＥＮＣＯ　ＴＲＡＤＩＮＧ　ＰＲＩＶＡＴＥ　ＬＴＤ,,外国会社等,千葉県,香取市,玉造１丁目９－１１－１０１,,12,236,2870041,スリランカ民主社会主義共和国、バッタラムーラ、ペラワッタ、ガンムヌマクタ、ビジタプラ８５２／Ａ,,,,,,2024-12-26,1,,,,,センコトレデイングプライベートエルテイデイ,0
741,4010001250928,新規,0,2024-12-26,2024-12-26,株式会社ＪＯＨ,,株式会社,東京都,千代田区,丸の内１丁目６番１号丸の内センタービルディング４Ｆ,,13,101,1000005,,,,,,,2024-12-26,1,,,,,ジェーオーエイチ,0
752,4010405023921,新規,0,2024-12-26,2024-12-26,域豊一般社団法人,,その他の設立登記法人,東京都,港区,元赤坂１丁目２番７号赤坂Ｋタワー,,13,103,1070051,,,,,,,2024-12-26,1,,,,,イキトヨ,0
759,4010803005224,新規,0,2024-12-26,2024-12-26,合同会社カミナリジャパン,,合同会社,東京都,大田区,山王２丁目２番１５号ダイワンテレコム大森駅前店内,,13,111,1430023,,,,,,,2024-12-26,1,,,,,カミナリジャパン,0
760,4010805003151,新規,0,2024-12-26,2024-12-26,一般社団法人Ｂ‐Ｈｅａｒｔ,,その他の設立登記法人,東京都,大田区,久が原２丁目１９番２３号１０１,,13,111,1460085,,,,,,,2024-12-26,1,,,,,ビーハート,0
770,4011005010806,新規,0,2024-12-26,2024-12-26,一般社団法人日本グルメバーガー協会,,その他の設立登記法人,東京都,渋谷区,神南１丁目１１－４ＦＰＧリンクス神南５階,,13,113,1500041,,,,,,,2024-12-26,1,,,,,ニホングルメバーガーキョウカイ,0
779,4011501031529,新規,0,2024-12-26,2024-12-26,株式会社Ａｓｔｒｏｎｅｒｇｙ　Ｊａｐａｎ　Ｃ,,株式会社,東京都,北区,滝野川１丁目３１番４号Ａｓｔｒｏｎｅｒｇｙ－Ｂｕｉｌｄｉｎｇ１０３,,13,117,1140023,,,,,,,2024-12-26,1,,,,,アストロナジージャパンシー,0
781,4011601028326,新規,0,2024-12-26,2024-12-26,株式会社招猫建築,,株式会社,東京都,練馬区,西大泉３丁目１１番３４号,,13,120,1780065,,,,,,,2024-12-26,1,,,,,ショウビョウケンチク,0
785,4011801045352,新規,0,2024-12-26,2024-12-26,美広株式会社,,株式会社,東京都,葛飾区,新宿６丁目２番１－３３０号シティタワー金町タワー棟,,13,122,1250051,,,,,,,2024-12-26,1,,,,,ミヒロ,0
786,4011801045360,新規,0,2024-12-26,2024-12-26,株式会社３３０,,株式会社,東京都,足立区,伊興１丁目２４番５号菊池ビル２階,,13,121,1210823,,,,,,,2024-12-26,1,,,,,ミサオ,0
788,4012403006890,新規,0,2024-12-26,2024-12-26,合同会社内山,,合同会社,東京都,調布市,西つつじケ丘２丁目５番地４４,,13,208,1820006,,,,,,,2024-12-26,1,,,,,ウチヤマ,0
793,4013301053562,新規,0,2024-12-26,2024-12-26,ＳＭ株式会社,,株式会社,東京都,豊島区,池袋２丁目１６－７－８０３,,13,116,1710014,,,,,,,2024-12-26,1,,,,,エスエム,0
795,4020001160671,新規,0,2024-12-26,2024-12-26,株式会社Ｍｉｓｓｉｏｎ　Ｆｉｒｓｔ,,株式会社,神奈川県,横浜市保土ケ谷区,岩井町１番地７アーバン・Ｉ保土ヶ谷駅ビル５Ｆ,00137461,14,106,2400023,,,,,,,2024-12-26,1,,,,,ミッションファースト,0
800,4020003027480,新規,0,2024-12-26,2024-12-26,ルクステラ合同会社,,合同会社,神奈川県,横浜市旭区,東希望が丘１９４番地３３,,14,112,2410826,,,,,,,2024-12-26,1,,,,,ルクステラ,0
805,4021001084084,新規,0,2024-12-26,2024-12-26,株式会社ＬＯＣＡＺＯＯ,,株式会社,神奈川県,茅ヶ崎市,南湖７丁目１２８６９番地９８,,14,207,2530061,,,,,,,2024-12-26,1,,,,,ロカズー,0
813,4030001164119,新規,0,2024-12-26,2024-12-26,株式会社武蔵国ホールディングス,,株式会社,埼玉県,さいたま市南区,文蔵４丁目２９番１２号,,11,108,3360025,,,,,,,2024-12-26,1,,,,,ムサシノクニホールディングス,0
818,4030003025772,新規,0,2024-12-26,2024-12-26,ＲＯＳＨＡＮ　ＩＮＴＥＲＮＡＴＩＯＮＡＬ合同会社,,合同会社,埼玉県,川口市,本町４丁目１２番１３－２０５号ライオンズマンション川口第２,,11,203,3320012,,,,,,,2024-12-26,1,,,,,ロサンインターナショナル,0
819,4030005021992,新規,0,2024-12-26,2024-12-26,一般社団法人歯科筋筋膜セラピー協会,,その他の設立登記法人,埼玉県,草加市,瀬崎５丁目２８－１４－６１３,,11,221,3400022,,,,,,,2024-12-26,1,,,,,シカキンキンマクセラピーキョウカイ,0
821,4040001136711,新規,0,2024-12-26,2024-12-26,勝トラ輸送株式会社,,株式会社,千葉県,柏市,塚崎９４１番地１,,12,217,2770923,,,,,,,2024-12-26,1,,,,,カツトラユソウ,0
825,4040003026464,新規,0,2024-12-26,2024-12-26,合同会社インフィールド,,合同会社,千葉県,柏市,東上町３番７－３０６号,,12,217,2770011,,,,,,,2024-12-26,1,,,,,インフィールド,0
837,4080001026685,新規,0,2024-12-26,2024-12-26,株式会社ＴＭＡ,,株式会社,静岡県,静岡市葵区,東千代田３丁目９番２３号,,22,101,4200801,,,,,,,2024-12-26,1,,,,,ティーエムエー,0
838,4080005007657,新規,0,2024-12-26,2024-12-26,一般社団法人スモールＥＣＯコネクト協会,,その他の設立登記法人,静岡県,静岡市葵区,千代田３番地の７,,22,101,4200803,,,,,,,2024-12-26,1,,,,,スモールエココネクトキョウカイ,0
844,4080401027647,新規,0,2024-12-26,2024-12-26,株式会社栄光,,株式会社,静岡県,磐田市,下神増９８４番地,,22,211,4380126,,,,,,,2024-12-26,1,,,,,エイコウ,0
852,4120001271418,新規,0,2024-12-26,2024-12-26,株式会社Ｔｅａｍ　Ｄｅｊｉｍａ,,株式会社,大阪府,大阪市北区,西天満１丁目１０－１６ＫＳビル別館２階,,27,127,5300047,,,,,,,2024-12-26,1,,,,,チームデジマ,0
853,4120001271426,新規,0,2024-12-26,2024-12-26,株式会社オートエイ・アイ,,株式会社,大阪府,大阪市淀川区,西中島６丁目５番３号サムティフェイム新大阪Ｉ号館８０９号室,00137459,27,123,5320011,,,,,,,2024-12-26,1,,,,,オートエイアイ,0
854,4120001271450,新規,0,2024-12-26,2024-12-26,ＡＢＭ株式会社,,株式会社,大阪府,大阪市東淀川区,小松１丁目１４番３２号,,27,114,5330004,,,,,,,2024-12-26,1,,,,,エイビーエム,0
855,4120001271483,新規,0,2024-12-26,2024-12-26,リ・スペクト株式会社,,株式会社,大阪府,門真市,小路町７番２５号２Ｆ,,27,223,5710058,,,,,,,2024-12-26,1,,,,,リスペクト,0
856,4120003028254,新規,0,2024-12-26,2024-12-26,合同会社やまもと,,合同会社,大阪府,大阪市平野区,長吉長原西４丁目２番６５号,,27,126,5470015,,,,,,,2024-12-26,1,,,,,ヤマモト,0
872,4140001136817,新規,0,2024-12-26,2024-12-26,株式会社ｍｔパートナーズ,,株式会社,兵庫県,神戸市中央区,北長狭通５丁目２番１９号コフィオ神戸元町５１０,,28,110,6500012,,,,,,,2024-12-26,1,,,,,エムティーパートナーズ,0
873,4140001136841,新規,0,2024-12-26,2024-12-26,株式会社凱峻投資,,株式会社,兵庫県,西宮市,池開町３－２０メイマネジメントビル４０２,,28,204,6638137,,,,,,,2024-12-26,1,,,,,ガイシュントウシ,0
882,4170001018418,新規,0,2024-12-26,2024-12-26,株式会社Ｍｉｅｌ,,株式会社,和歌山県,紀の川市,平野６１番地,,30,208,6496602,,,,,,,2024-12-26,1,,,,,ミエル,0
891,4180001164698,新規,0,2024-12-26,2024-12-26,株式会社シュガーベイビーサラブレッドクラブ,,株式会社,愛知県,名古屋市東区,東桜１丁目９番１９号成田栄ビル２階,,23,102,4610005,,,,,,,2024-12-26,1,,,,,シュガーベイビーサラブレッドクラブ,0
898,4180301039393,新規,0,2024-12-26,2024-12-26,Ｒｅ　ｐｌａｃｅ株式会社,,株式会社,愛知県,碧南市,野田町２３茂吉ビル２Ｆ,,23,209,4470876,,,,,,,2024-12-26,1,,,,,リプレイス,0
899,4180303006383,新規,0,2024-12-26,2024-12-26,合同会社ＴＫ　Ｐｌａｎｎｉｎｇ,,合同会社,愛知県,北設楽郡設楽町,田口字上原１７‐３,,23,561,4412301,,,,,,,2024-12-26,1,,,,,ティーケープランニング,0
903,4200001043271,新規,0,2024-12-26,2024-12-26,株式会社タチバナシステムプロデュース,,株式会社,岐阜県,可児市,下恵土４３４番地６,,21,214,5090203,,,,,,,2024-12-26,1,,,,,タチバナシステムプロデュース,0
906,4210001020006,新規,0,2024-12-26,2024-12-26,株式会社グローリーカンパニー,,株式会社,福井県,福井市,二の宮２丁目３２番４８号ＣＲＯＳＳＦＲＯＮＴ１５０３,,18,201,9100015,,,,,,,2024-12-26,1,,,,,グローリーカンパニー,0
913,4240001064306,新規,0,2024-12-26,2024-12-26,ｍ．ｗｏｒｋ株式会社,,株式会社,広島県,廿日市市,城内１丁目４番２３号,,34,213,7380007,,,,,,,2024-12-26,1,,,,,エムワーク,0
915,4250001020943,新規,0,2024-12-26,2024-12-26,株式会社モンテカーサービス,,株式会社,山口県,山陽小野田市,高栄１丁目３番１５号,,35,216,7560815,,,,,,,2024-12-26,1,,,,,モンテカーサービス,0
919,4260001039743,新規,0,2024-12-26,2024-12-26,株式会社アシスト,,株式会社,岡山県,岡山市南区,箕島１０３８番地,,33,104,7010206,,,,,,,2024-12-26,1,,,,,アシスト,0
925,4290001108339,新規,0,2024-12-26,2024-12-26,株式会社アモーレ中洲不動産,,株式会社,福岡県,福岡市博多区,板付２丁目２－５－２０１,,40,132,8120888,,,,,,,2024-12-26,1,,,,,アモーレナカスフドウサン,0
926,4290001108371,新規,0,2024-12-26,2024-12-26,株式会社Ａｓｃｅｎｓｉｏｎ,,株式会社,福岡県,福岡市東区,香椎照葉６丁目２－５２アイランドシティオーシャン＆フォレストタワーレジデンスＷｅｓｔ２１０７,,40,131,8130017,,,,,,,2024-12-26,1,,,,,アセンション,0
927,4290001108413,新規,0,2024-12-26,2024-12-26,株式会社ＢＥＬＩＥＶＥ,,株式会社,福岡県,福岡市博多区,比恵町１２番１２－５０１号,,40,132,8120014,,,,,,,2024-12-26,1,,,,,ビリーヴ,0
930,4290003016218,新規,0,2024-12-26,2024-12-26,吉恩合同会社,,合同会社,福岡県,福岡市東区,松島５丁目２９番２５号セムビル３３－１０２号室,,40,131,8130062,,,,,,,2024-12-26,1,,,,,キチオン,0
931,4290003016226,新規,0,2024-12-26,2024-12-26,合同会社Ｍｏｏｎ,,合同会社,福岡県,福岡市博多区,中洲２丁目５番１３号第２ラインビル１階,,40,132,8100801,,,,,,,2024-12-26,1,,,,,ムーン,0
932,4290003016234,新規,0,2024-12-26,2024-12-26,エムエム合同会社,,合同会社,福岡県,福岡市南区,野多目６丁目１１番３８号,,40,134,8111347,,,,,,,2024-12-26,1,,,,,エムエム,0
938,4310001019384,新規,0,2024-12-26,2024-12-26,株式会社Ｒｅｃｌａｉｍ．ｔｅｃｈ,,株式会社,長崎県,長崎市,元船町９－１８長崎Ｂｉｚｐｏｒｔ２Ｆ,,42,201,8500035,,,,,,,2024-12-26,1,,,,,リクレイムテック,0
939,4310001019392,新規,0,2024-12-26,2024-12-26,株式会社おだしの王様,,株式会社,長崎県,長崎市,浜町８番２０号きむらやビル２階,,42,201,8500853,,,,,,,2024-12-26,1,,,,,オダシノオウサマ,0
947,4360001034552,新規,0,2024-12-26,2024-12-26,株式会社ＢＩＭ　ＪＡＰＡＮ,,株式会社,沖縄県,那覇市,赤嶺２丁目１１－９エンゼルハイム小禄赤嶺第３－６０１号室,,47,201,9010154,,,,,,,2024-12-26,1,,,,,ビムジャパン,0
948,4360001034577,新規,0,2024-12-26,2024-12-26,株式会社ＭＯＲＮＩＮＧ　ＢＯＷＬＳ　ＣＡＦＥ,,株式会社,沖縄県,中頭郡嘉手納町,字水釜１５５番地１,,47,325,9040204,,,,,,,2024-12-26,1,,,,,モーニングボウルズカフェ,0
958,4430001093351,新規,0,2024-12-26,2024-12-26,ｍ＆ａ株式会社,,株式会社,北海道,札幌市中央区,南五条西１５丁目２番３号５０３,,01,101,0640805,,,,,,,2024-12-26,1,,,,,エムアンドエー,0
960,4430003017102,新規,0,2024-12-26,2024-12-26,合同会社ＵＮＩＶＥＲＳＥ,,合同会社,北海道,札幌市西区,二十四軒四条３丁目３番１２,,01,107,0630804,,,,,,,2024-12-26,1,,,,,ユニバース,0
961,4430003017119,新規,0,2024-12-26,2024-12-26,合同会社ＡｕｔｏＡｒｏ,,合同会社,北海道,札幌市中央区,宮の森二条９丁目２番１７号,,01,101,0640952,,,,,,,2024-12-26,1,,,,,アウトアロ,0
962,4430005015129,新規,0,2024-12-26,2024-12-26,一般社団法人羊蹄山荘オーナーの会,,その他の設立登記法人,北海道,虻田郡ニセコ町,字近藤１４８番１８,,01,395,0481542,,,,,,,2024-12-26,1,,,,,ヨウテイサンソウオーナーノカイ,0
966,4470001020509,新規,0,2024-12-26,2024-12-26,株式会社ｆｏｒＮ,,株式会社,香川県,香川郡直島町,６６６－３,,37,364,7613110,,,,,,,2024-12-26,1,,,,,,0
971,4700150128434,新規,0,2024-12-26,2024-12-26,Ｇｉｆｔｅｄ　Ｅｘｉｓｔｅｎｃｅ　Ｍａｎａｇｅｍｅｎｔ　ＬＬＣ,,外国会社等,東京都,渋谷区,代々木４丁目６２番１６－６０１号,,13,113,1510053,アメリカ合衆国カリフォルニア州ハンティントンビーチ、ブリージーレーン、１８９２７,,,,,,2024-12-26,1,,,,,ギフテツドエグジステンスマネジメントエルエルシー,0
976,5010001251017,新規,0,2024-12-26,2024-12-26,アリストス株式会社,,株式会社,東京都,中央区,新川１丁目３番２１号,,13,102,1040033,,,,,,,2024-12-26,1,,,,,アリストス,0
978,5010005039326,新規,0,2024-12-26,2024-12-26,Ｏｃｔａｖｅ一般社団法人,,その他の設立登記法人,東京都,中央区,日本橋３丁目９番１号日本橋三丁目スクエア１１階,,13,102,1030027,,,,,,,2024-12-26,1,,,,,オクターブ,0
984,5010401187249,新規,0,2024-12-26,2024-12-26,株式会社ＱＴ　ＪＡＰＡＮ,,株式会社,東京都,港区,芝大門１丁目１０－１１芝大門センタービル１０階１００３号,,13,103,1050012,,,,,,,2024-12-26,1,,,,,キューティージャパン,0
993,5010501053375,新規,0,2024-12-26,2024-12-26,ＧＬＯＲＩＯＵＳ　ＳＯＵＬ株式会社,,株式会社,東京都,台東区,台東２丁目２７番３号ＮＳＫビル１０Ｆ,,13,106,1100016,,,,,,,2024-12-26,1,,,,,グロリアスソウル,0
999,5010801035701,新規,0,2024-12-26,2024-12-26,株式会社ラ・コクシネル,,株式会社,東京都,大田区,南久が原２丁目１０番２１号,,13,111,1460084,,,,,,,2024-12-26,1,,,,,ラコクシネル,0
1000,5010803005223,新規,0,2024-12-26,2024-12-26,ライフリンクス合同会社,,合同会社,東京都,大田区,南雪谷５丁目２－１１,,13,111,1450066,,,,,,,2024-12-26,1,,,,,ライフリンクス,0
1011,5011101110079,新規,0,2024-12-26,2024-12-26,株式会社アカウントデザイン,,株式会社,東京都,新宿区,大久保１丁目２－１,,13,104,1690072,,,,,,,2024-12-26,1,,,,,アカウントデザイン,0
1014,5011103015350,新規,0,2024-12-26,2024-12-26,合同会社Ｗｉｎｇｓ,,合同会社,東京都,新宿区,西新宿３丁目３番１３号西新宿水間ビル２Ｆ,,13,104,1600023,,,,,,,2024-12-26,1,,,,,ウィングス,0
1015,5011201026019,新規,0,2024-12-26,2024-12-26,株式会社ＴＥＮ,,株式会社,東京都,中野区,野方５丁目１９番１０号,,13,114,1650027,,,,,,,2024-12-26,1,,,,,テン,0
1017,5011401026685,新規,0,2024-12-26,2024-12-26,株式会社Ｈａｖｅｎ,,株式会社,東京都,板橋区,小茂根１丁目１０番１２－２０２号,,13,119,1730037,,,,,,,2024-12-26,1,,,,,ヘブン,0
1023,5011601028317,新規,0,2024-12-26,2024-12-26,Ｉｎｆｉｎｔｅｃｈ株式会社,,株式会社,東京都,練馬区,関町北２丁目１－６－３０３,,13,120,1770051,,,,,,,2024-12-26,1,,,,,インフィンテック,0
1024,5011601028325,新規,0,2024-12-26,2024-12-26,株式会社フォーリスト,,株式会社,東京都,練馬区,東大泉１丁目３２番８号橋本ビル３Ｆ,,13,120,1780063,,,,,,,2024-12-26,1,,,,,フォーリスト,0
1030,5013303007441,新規,0,2024-12-26,2024-12-26,合同会社アリアパートナーズ,,合同会社,東京都,豊島区,東池袋２丁目５－９加瀬ビル１２２,,13,116,1700013,,,,,,,2024-12-26,1,,,,,アリアパートナーズ,0
1034,5020001160670,新規,0,2024-12-26,2024-12-26,未来会計総合支援センター株式会社,,株式会社,神奈川県,横浜市南区,睦町１丁目２３番４号,,14,105,2320041,,,,,,,2024-12-26,1,,,,,ミライカイケイソウゴウシエンセンター,0
1037,5020005016654,新規,0,2024-12-26,2024-12-26,行政書士法人釆女事務所,,その他の設立登記法人,神奈川県,横浜市都筑区,池辺町３６２０－１４,,14,118,2240053,,,,,,,2024-12-26,1,,,,,ウネメジムショ,0
1038,5021001084083,新規,0,2024-12-26,2024-12-26,拓海株式会社,,株式会社,神奈川県,相模原市南区,相南１丁目２４－９－７０８,,14,153,2520312,,,,,,,2024-12-26,1,,,,,タクミ,0
1052,5030003025771,新規,0,2024-12-26,2024-12-26,まこと合同会社,,合同会社,埼玉県,川口市,大字安行領根岸５４９－１－１Ｆ,,11,203,3330834,,,,,,,2024-12-26,1,,,,,マコト,0
1057,5040001136710,新規,0,2024-12-26,2024-12-26,株式会社Ｍｅｍｍｙ,,株式会社,千葉県,千葉市中央区,末広５丁目４番３号,,12,101,2600843,,,,,,,2024-12-26,1,,,,,メミー,0
1058,5040001136727,新規,0,2024-12-26,2024-12-26,株式会社九十九里ハーベストファーム,,株式会社,千葉県,匝瑳市,野手３７０番地,,12,235,2893181,,,,,,,2024-12-26,1,,,,,クジュウクリハーベストファーム,0
1066,5080001026684,新規,0,2024-12-26,2024-12-26,近江管財株式会社,,株式会社,静岡県,静岡市駿河区,森下町１番２１号,,22,102,4228061,,,,,,,2024-12-26,1,,,,,オウミカンザイ,0
1074,5080401027646,新規,0,2024-12-26,2024-12-26,株式会社義興産,,株式会社,静岡県,浜松市中央区,幸２丁目５２番７号ＮＳビル２Ｆ,,22,138,4338123,,,,,,,2024-12-26,1,,,,,ヨシコウサン,0
1075,5080401027654,新規,0,2024-12-26,2024-12-26,葵ＪＡＰＡＮ株式会社,,株式会社,静岡県,浜松市中央区,元城町１１１番地の３,,22,138,4300946,,,,,,,2024-12-26,1,,,,,アオイジャパン,0
1080,5110001038957,新規,0,2024-12-26,2024-12-26,ｍ‐ｌａｂ株式会社,,株式会社,新潟県,新潟市西区,流通センター２丁目４番地２,,15,107,9502031,,,,,,,2024-12-26,1,,,,,エムラボ,0
1081,5110001038965,新規,0,2024-12-26,2024-12-26,ＣＬＵＮＫ株式会社,,株式会社,新潟県,新潟市東区,山木戸４丁目７番１２号,,15,102,9500871,,,,,,,2024-12-26,1,,,,,クランク,0
1092,5120001271367,新規,0,2024-12-26,2024-12-26,株式会社犬塚工業,,株式会社,大阪府,大阪市住吉区,苅田５丁目１６番３号７０２号室,,27,120,5580011,,,,,,,2024-12-26,1,,,,,イヌヅカコウギョウ,0
1093,5120001271441,新規,0,2024-12-26,2024-12-26,ＳＹＮＯＶＡ株式会社,,株式会社,大阪府,大阪市西区,京町堀１丁目４番９号京町橋八千代ビル３Ｆ,,27,106,5500003,,,,,,,2024-12-26,1,,,,,シノヴァ,0
1094,5120001271474,新規,0,2024-12-26,2024-12-26,三栄株式会社,,株式会社,大阪府,大阪市福島区,鷺洲３丁目１０番１５－４０３号,,27,103,5530002,,,,,,,2024-12-26,1,,,,,サンエイ,0
1098,5120003028220,新規,0,2024-12-26,2024-12-26,合同会社京クラフト,,合同会社,大阪府,枚方市,藤阪東町１丁目６－２Ｆ,,27,210,5730153,,,,,,,2024-12-26,1,,,,,キョウクラフト,0
1099,5120003028229,新規,0,2024-12-26,2024-12-26,ＣＳマリーンサービス合同会社,,合同会社,大阪府,大阪市住吉区,苅田８丁目１１番２０号太平ビル２階２０２号,,27,120,5580011,,,,,,,2024-12-26,1,,,,,シーエスマリーンサービス,0
1100,5120003028245,新規,0,2024-12-26,2024-12-26,合同会社リエイブルメント,,合同会社,大阪府,枚方市,山之上３丁目４番１８号,,27,210,5730047,,,,,,,2024-12-26,1,,,,,リエイブルメント,0
1101,5120003028253,新規,0,2024-12-26,2024-12-26,桜＆アソシエイツ合同会社,,合同会社,大阪府,枚方市,大垣内町２丁目１７番５－４０５号,,27,210,5730027,,,,,,,2024-12-26,1,,,,,サクラアンドアソシエイツ,0
1110,5122003003079,新規,0,2024-12-26,2024-12-26,ａｒｉｓ合同会社,,合同会社,大阪府,東大阪市,日下町７丁目４番１７－３０５,,27,227,5798003,,,,,,,2024-12-26,1,,,,,アリス,0
1114,5130001078621,新規,0,2024-12-26,2024-12-26,株式会社ＪＣＹインターナショナル,,株式会社,京都府,京都市上京区,芝大宮町２３番地１若竹荘１５号室,,26,102,6028438,,,,,,,2024-12-26,1,,,,,ジェイシーワイインターナショナル,0
1115,5130001078646,新規,0,2024-12-26,2024-12-26,ＷＡＺＵＫＡリアルエステート株式会社,,株式会社,京都府,木津川市,山城町上狛東下１６番地２,,26,214,6190204,,,,,,,2024-12-26,1,,,,,ワヅカリアルエステート,0
1116,5130003010094,新規,0,2024-12-26,2024-12-26,合同会社かはづ,,合同会社,京都府,京都市中京区,蛸薬師町２８７ＩＤＯ２Ｆ,,26,104,6040021,,,,,,,2024-12-26,1,,,,,カハヅ,0
1124,5140001136824,新規,0,2024-12-26,2024-12-26,泓賛株式会社,,株式会社,兵庫県,神戸市灘区,中郷町２丁目３番１１号,,28,102,6570032,,,,,,,2024-12-26,1,,,,,オウサン,0
1126,5140003021446,新規,0,2024-12-26,2024-12-26,合同会社アリス,,合同会社,兵庫県,姫路市,本町２２７ザクセン姫路５０２,,28,201,6700012,,,,,,,2024-12-26,1,,,,,アリス,0
1127,5140003021454,新規,0,2024-12-26,2024-12-26,合同会社ハマダグループＳＰＣ２号,,合同会社,兵庫県,姫路市,網干区新在家１２６１番地の１２,,28,201,6711234,,,,,,,2024-12-26,1,,,,,ハマダグループエスピーシーニゴウ,0
1138,5180303006382,新規,0,2024-12-26,2024-12-26,合同会社ＫＥＮＺＯ,,合同会社,愛知県,豊川市,御油町青木前１９番地の５,,23,207,4410211,,,,,,,2024-12-26,1,,,,,ケンゾウ,0
1141,5190003004875,新規,0,2024-12-26,2024-12-26,合同会社ラウンドバック,,合同会社,三重県,伊勢市,船江４丁目１６‐４８,,24,203,5160008,,,,,,,2024-12-26,1,,,,,ラウンドバック,0
1142,5200001043270,新規,0,2024-12-26,2024-12-26,東海緑創株式会社,,株式会社,岐阜県,海津市,海津町札野９１６番地２８,,21,221,5030643,,,,,,,2024-12-26,1,,,,,トウカイリョクソウ,0
1146,5220001026397,新規,0,2024-12-26,2024-12-26,株式会社おっさま,,株式会社,石川県,金沢市,近岡町３７番地３,,17,201,9208217,,,,,,,2024-12-26,1,,,,,オッサマ,0
1168,5290003016217,新規,0,2024-12-26,2024-12-26,千美合同会社,,合同会社,福岡県,福岡市博多区,金の隈１丁目２８番３９－２０５号クローバーマンション空港南,,40,132,8120863,,,,,,,2024-12-26,1,,,,,センビ,0
1169,5290003016225,新規,0,2024-12-26,2024-12-26,合同会社永遠,,合同会社,福岡県,飯塚市,上三緒６４６番地１,,40,205,8200013,,,,,,,2024-12-26,1,,,,,トワ,0
1172,5290801031144,新規,0,2024-12-26,2024-12-26,株式会社ひとＨＡＰＰＹ,,株式会社,福岡県,北九州市八幡西区,木屋瀬１丁目２３番１２号,,40,109,8071261,,,,,,,2024-12-26,1,,,,,ヒトハッピー,0
1182,5360003014543,新規,0,2024-12-26,2024-12-26,合同会社ＭｏＡＴ,,合同会社,沖縄県,那覇市,おもろまち１丁目１番２５－５２２号,,47,201,9000006,,,,,,,2024-12-26,1,,,,,モート,0
1184,5380001035003,新規,0,2024-12-26,2024-12-26,ｓｅｅｄ＆ｂｌｏｏｍ株式会社,,株式会社,福島県,郡山市,緑町２１番１６号,,07,203,9638023,,,,,,,2024-12-26,1,,,,,シードアンドブルーム,0
1190,5430001093350,新規,0,2024-12-26,2024-12-26,株式会社Ｇ‐ｓｕｐｐｏｒｔ,,株式会社,北海道,札幌市北区,新琴似十一条１２丁目１番２号,,01,102,0010911,,,,,,,2024-12-26,1,,,,,ジーサポート,0
1191,5430003017118,新規,0,2024-12-26,2024-12-26,合同会社八士,,合同会社,北海道,空知郡奈井江町,字奈井江町１１７番地１,,01,424,0790300,,,,,,,2024-12-26,1,,,,,ハチシ,0
1192,5460101007645,新規,0,2024-12-26,2024-12-26,株式会社デリカフーズ,,株式会社,北海道,帯広市,東七条南１３丁目２５番地４,,01,207,0800807,,,,,,,2024-12-26,1,,,,,デリカフーズ,0
1200,6010001250918,新規,0,2024-12-26,2024-12-26,株式会社サンシャイン,,株式会社,東京都,千代田区,麹町３丁目２番地９,,13,101,1020083,,,,,,,2024-12-26,1,,,,,サンシャイン,0
1201,6010001250926,新規,0,2024-12-26,2024-12-26,株式会社るぷりん,,株式会社,東京都,中央区,銀座６丁目７番７号浦野ビル２Ｆ,,13,102,1040061,,,,,,,2024-12-26,1,,,,,ルプリン,0
1202,6010001251016,新規,0,2024-12-26,2024-12-26,リヴァンプパワー株式会社,,株式会社,東京都,千代田区,神田東松下町１３番地,,13,101,1010042,,,,,,,2024-12-26,1,,,,,リヴァンプパワー,0
1207,6010401187297,新規,0,2024-12-26,2024-12-26,株式会社カネヒラＨＤ,,株式会社,東京都,港区,元赤坂１丁目１番８号株式会社赤坂国際会計内,,13,103,1070051,,,,,,,2024-12-26,1,,,,,カネヒラホールディングス,0
1213,6010403034068,新規,0,2024-12-26,2024-12-26,合同会社ターン,,合同会社,東京都,港区,赤坂２丁目５番８号ヒューリックＪＰ赤坂ビル３Ｆ－６Ｆ,,13,103,1070052,,,,,,,2024-12-26,1,,,,,ターン,0
1218,6010501053382,新規,0,2024-12-26,2024-12-26,株式会社ＢｙｔｅＢｉｚ,,株式会社,東京都,台東区,上野３丁目５－４戸谷ビル３階,,13,106,1100005,,,,,,,2024-12-26,1,,,,,バイトビズ,0
1219,6010501053399,新規,0,2024-12-26,2024-12-26,株式会社カームパスソルズ,,株式会社,東京都,台東区,上野２丁目１２番１８号,,13,106,1100005,,,,,,,2024-12-26,1,,,,,カームパスソルズ,0
1220,6010503007683,新規,0,2024-12-26,2024-12-26,合同会社アトリエプー,,合同会社,東京都,台東区,上野３丁目１７－２,,13,106,1100005,,,,,,,2024-12-26,1,,,,,アトリエプー,0
1222,6010603011296,新規,0,2024-12-26,2024-12-26,合同会社ａｎｄ　Ｓｔｏｎｅ,,合同会社,東京都,江東区,亀戸６丁目３５番８号ＣＡＳＡＰＩＡＺＺＡ亀戸５０１,,13,108,1360071,,,,,,,2024-12-26,1,,,,,アンドストーン,0
1228,6010801035709,新規,0,2024-12-26,2024-12-26,株式会社光人,,株式会社,東京都,大田区,蒲田５丁目４４番５号,,13,111,1440052,,,,,,,2024-12-26,1,,,,,ヒカリト,0
1233,6010903009593,新規,0,2024-12-26,2024-12-26,合同会社ジョイライフ,,合同会社,東京都,世田谷区,船橋３丁目１７－１２－４２５,,13,112,1560055,,,,,,,2024-12-26,1,,,,,ジョイライフ,0
1238,6011001166658,新規,0,2024-12-26,2024-12-26,株式会社小林,,株式会社,東京都,渋谷区,道玄坂２丁目２６番３号トップルーム道玄坂００１,,13,113,1500043,,,,,,,2024-12-26,1,,,,,コバヤシ,0
1249,6011103015341,新規,0,2024-12-26,2024-12-26,Ｂｒｏｏｋｓ＆Ｒｉｖｅｒｓ合同会社,,合同会社,東京都,新宿区,新宿４丁目４－１７,,13,104,1600022,,,,,,,2024-12-26,1,,,,,ブルックスアンドリバーズ,0
1250,6011105011272,新規,0,2024-12-26,2024-12-26,一般社団法人Ｅａｒｔｈ　Ｅｓｔａｔｅ,,その他の設立登記法人,東京都,新宿区,大久保１丁目４番２０号,,13,104,1690072,,,,,,,2024-12-26,1,,,,,アースエステート,0
1259,6011601028308,新規,0,2024-12-26,2024-12-26,株式会社コネクト,,株式会社,東京都,練馬区,石神井町４丁目１番８号セレス１Ｆ,,13,120,1770041,,,,,,,2024-12-26,1,,,,,コネクト,0
1264,6011801045318,新規,0,2024-12-26,2024-12-26,株式会社Ａｂｒｅ,,株式会社,東京都,葛飾区,四つ木１丁目３３番６号２Ｆ,,13,122,1240011,,,,,,,2024-12-26,1,,,,,アブレ,0
1265,6012401042614,新規,0,2024-12-26,2024-12-26,株式会社ＬＩ,,株式会社,東京都,武蔵野市,吉祥寺本町１丁目１１番３０号,,13,203,1800004,,,,,,,2024-12-26,1,,,,,エルアイ,0
1272,6020001160711,新規,0,2024-12-26,2024-12-26,Ｎｅｘｔｉｎｇ株式会社,,株式会社,神奈川県,横浜市港北区,新横浜２丁目５－１４ＷｉｓｅＮｅｘｔ新横浜３階,,14,109,2220033,,,,,,,2024-12-26,1,,,,,ネクスティング,0
1275,6020003027504,新規,0,2024-12-26,2024-12-26,さくら合同会社,,合同会社,神奈川県,横浜市西区,北幸２丁目１０番４８号むつみビル３階,,14,103,2200004,,,,,,,2024-12-26,1,,,,,サクラ,0
1279,6021001084082,新規,0,2024-12-26,2024-12-26,株式会社Ｒｅｖｅｌ,,株式会社,神奈川県,伊勢原市,石田６８２番,,14,214,2591116,,,,,,,2024-12-26,1,,,,,レベル,0
1280,6021001084090,新規,0,2024-12-26,2024-12-26,株式会社亀石設備,,株式会社,神奈川県,高座郡寒川町,中瀬３３番１６号,,14,321,2530112,,,,,,,2024-12-26,1,,,,,カメイシセツビ,0
1284,6030001164117,新規,0,2024-12-26,2024-12-26,株式会社ＭｄＡ,,株式会社,埼玉県,さいたま市岩槻区,本町３丁目７番３号メガフォレスト１Ｆ,,11,110,3390057,,,,,,,2024-12-26,1,,,,,エムディーエー,0
1295,6040001136726,新規,0,2024-12-26,2024-12-26,株式会社北総不動産,,株式会社,千葉県,香取市,八筋川３０７２番地２,,12,236,2870815,,,,,,,2024-12-26,1,,,,,ホクソウフドウサン,0
1298,6050001055917,新規,0,2024-12-26,2024-12-26,株式会社アイスタッフ,,株式会社,茨城県,坂東市,岩井３５６１番地メゾン岩井２０１,,08,228,3060631,,,,,,,2024-12-26,1,,,,,アイスタッフ,0
1300,6050003008906,新規,0,2024-12-26,2024-12-26,ＮＩＰＰＯＮ　ＴＲＡＤＩＮＧ合同会社,,合同会社,茨城県,龍ケ崎市,佐貫４丁目２３番２－１０３号,,08,208,3010032,,,,,,,2024-12-26,1,,,,,ニッポントレーディング,0
1302,6060001037732,新規,0,2024-12-26,2024-12-26,ＩＺＵＭＩ株式会社,,株式会社,栃木県,芳賀郡茂木町,大字北高岡１８４８番地１９,,09,343,3213622,,,,,,,2024-12-26,1,,,,,イズミ,0
1305,6080001026683,新規,0,2024-12-26,2024-12-26,株式会社エクラ,,株式会社,静岡県,静岡市駿河区,中島２８４４番地の３,,22,102,4228046,,,,,,,2024-12-26,1,,,,,エクラ,0
1306,6080101025222,新規,0,2024-12-26,2024-12-26,株式会社コンフォ岡宮,,株式会社,静岡県,沼津市,岡宮１３３７番地の１,,22,203,4100011,,,,,,,2024-12-26,1,,,,,コンフォオカノミヤ,0
1307,6080103003226,新規,0,2024-12-26,2024-12-26,合同会社和壱,,合同会社,静岡県,沼津市,大諏訪５８５番地の１,,22,203,4100873,,,,,,,2024-12-26,1,,,,,ワイチ,0
1318,6110001038964,新規,0,2024-12-26,2024-12-26,株式会社大野モータース,,株式会社,新潟県,新潟市南区,東笠巻１６０８番地,,15,106,9501405,,,,,,,2024-12-26,1,,,,,オオノモータース,0
1328,6120001271333,新規,0,2024-12-26,2024-12-26,株式会社立的,,株式会社,大阪府,大阪市中央区,瓦屋町３丁目１０番６号１階,,27,128,5420066,,,,,,,2024-12-26,1,,,,,レディー,0
1329,6120001271341,新規,0,2024-12-26,2024-12-26,済善株式会社,,株式会社,大阪府,大阪市大正区,三軒家西３丁目４番１６号中山ビル１０５３,,27,108,5510001,,,,,,,2024-12-26,1,,,,,サイゼン,0
1330,6120001271358,新規,0,2024-12-26,2024-12-26,株式会社ＳＥＣＯＮＤＳ,,株式会社,大阪府,大阪市東住吉区,公園南矢田３丁目１６番２号,,27,121,5460024,,,,,,,2024-12-26,1,,,,,セカンズ,0
1331,6120001271382,新規,0,2024-12-26,2024-12-26,ＭＩＬＫＹＷＡＹ株式会社,,株式会社,大阪府,大阪市生野区,新今里４丁目１０－６－１階,,27,116,5440001,,,,,,,2024-12-26,1,,,,,ミルキーウエー,0
1332,6120001271473,新規,0,2024-12-26,2024-12-26,株式会社こころ,,株式会社,大阪府,大阪市平野区,平野馬場１丁目１３－２４,,27,126,5470048,,,,,,,2024-12-26,1,,,,,ココロ,0
1338,6120003028194,新規,0,2024-12-26,2024-12-26,合同会社もくもくインダストリー,,合同会社,大阪府,大阪市浪速区,敷津西２丁目６番７号紀陽マンション４０５号,,27,111,5560015,,,,,,,2024-12-26,1,,,,,モクモクインダストリー,0
1339,6120003028244,新規,0,2024-12-26,2024-12-26,合同会社ＰＥＧＡＳＯ,,合同会社,大阪府,大阪市天王寺区,石ケ辻町１３番２１号,00137457,27,109,5430031,,,,,,,2024-12-26,1,,,,,ペガソ,0
1341,6120005024670,新規,0,2024-12-26,2024-12-26,一般社団法人トビラ,,その他の設立登記法人,大阪府,大阪市北区,梅田１丁目１－３大阪駅前第３ビル２９階１－１－１号室,,27,127,5300001,,,,,,,2024-12-26,1,,,,,トビラ,0
1352,6140001136848,新規,0,2024-12-26,2024-12-26,株式会社Ｓｐａｒｋ,,株式会社,兵庫県,尼崎市,武庫町４丁目５－１－１１番,,28,202,6610044,,,,,,,2024-12-26,1,,,,,スパーク,0
1353,6140001136864,新規,0,2024-12-26,2024-12-26,株式会社Ｎｏｅｌ,,株式会社,兵庫県,西宮市,丸橋町４番１７－４２２号,,28,204,6620831,,,,,,,2024-12-26,1,,,,,ノエル,0
1356,6140003021453,新規,0,2024-12-26,2024-12-26,合同会社ハマダグループＳＰＣ１号,,合同会社,兵庫県,姫路市,網干区新在家１２６１番地の１２,,28,201,6711234,,,,,,,2024-12-26,1,,,,,ハマダグループエスピーシーイチゴウ,0
1359,6160001026436,新規,0,2024-12-26,2024-12-26,株式会社Ｂｕｄｄｙ,,株式会社,滋賀県,栗東市,川辺５６２番地２イーストピース栗東１０３,,25,208,5203014,,,,,,,2024-12-26,1,,,,,バディー,0
1373,6190003004890,新規,0,2024-12-26,2024-12-26,合同会社音灯,,合同会社,三重県,桑名市,堤原１２番地,,24,205,5110072,,,,,,,2024-12-26,1,,,,,オトア,0
1375,6200001043261,新規,0,2024-12-26,2024-12-26,ＲＥＨＭＡＴ　ＴＲＡＤＩＮＧ株式会社,,株式会社,岐阜県,美濃加茂市,西町６丁目２８番地,,21,211,5050046,,,,,,,2024-12-26,1,,,,,レハマトトレーディング,0
1381,6240001064270,新規,0,2024-12-26,2024-12-26,株式会社ＫＤＢ,,株式会社,広島県,安芸郡海田町,窪町２番１４号,,34,304,7360046,,,,,,,2024-12-26,1,,,,,ケイディビー,0
1382,6240001064295,新規,0,2024-12-26,2024-12-26,ルート警備株式会社,,株式会社,広島県,福山市,東深津町５丁目４番７号,,34,207,7210974,,,,,,,2024-12-26,1,,,,,ルートケイビ,0
1383,6240001064304,新規,0,2024-12-26,2024-12-26,株式会社Ｓｕｃｃｅｓｓ　Ｎｅｘｔ,,株式会社,広島県,広島市中区,宝町５番１０－９０４号,,34,101,7300044,,,,,,,2024-12-26,1,,,,,サクセスネクスト,0
1388,6240003006997,新規,0,2024-12-26,2024-12-26,合同会社ＴＫファミリア,,合同会社,広島県,広島市中区,光南１丁目４番２３－３０４号,,34,101,7300825,,,,,,,2024-12-26,1,,,,,ティーケーファミリア,0
1390,6260001039733,新規,0,2024-12-26,2024-12-26,毛利真吏央株式会社,,株式会社,岡山県,岡山市北区,奉還町１丁目９番１５号,,33,101,7000026,,,,,,,2024-12-26,1,,,,,モウリマリオ,0
1391,6270001009108,新規,0,2024-12-26,2024-12-26,株式会社松堀塗装,,株式会社,鳥取県,鳥取市,叶１丁目１番３号,,31,201,6800874,,,,,,,2024-12-26,1,,,,,マツボリトソウ,0
1398,6290001108386,新規,0,2024-12-26,2024-12-26,エムエーテクノ株式会社,,株式会社,福岡県,糸島市,有田１０１８番地４,,40,230,8191132,,,,,,,2024-12-26,1,,,,,エムエーテクノ,0
1399,6290001108403,新規,0,2024-12-26,2024-12-26,株式会社ＴＥＣＯ,,株式会社,福岡県,福岡市中央区,天神２丁目２番１２号Ｔ＆Ｊビルディング７Ｆ,,40,133,8100001,,,,,,,2024-12-26,1,,,,,テコ,0
1400,6290001108411,新規,0,2024-12-26,2024-12-26,株式会社ＯＳＬ　ＭＯＢＩＬＩＴＹ　ＳＹＳＴＥＭＳ,,株式会社,福岡県,福岡市中央区,那の津２丁目６番４号九州産業東ビル３Ｆ,,40,133,8100071,,,,,,,2024-12-26,1,,,,,オーエスエルモビリティシステムズ,0
1401,6290001108428,新規,0,2024-12-26,2024-12-26,株式会社８１８１,,株式会社,福岡県,福岡市博多区,中洲中島町３番１５－８０８号,,40,132,8100802,,,,,,,2024-12-26,1,,,,,パイパイ,0
1403,6290003016216,新規,0,2024-12-26,2024-12-26,合同会社ユニライズ,,合同会社,福岡県,福岡市中央区,唐人町１丁目４番１３号１Ｆ,,40,133,8100063,,,,,,,2024-12-26,1,,,,,ユニライズ,0
1407,6320003004539,新規,0,2024-12-26,2024-12-26,合同会社ＴｒａｎｓｉｔｉｏｎＷａｖｅ,,合同会社,大分県,別府市,上田の湯町１２番２９号プリマヴェーラ４０１号,,44,202,8740908,,,,,,,2024-12-26,1,,,,,,0
1413,6360001034600,新規,0,2024-12-26,2024-12-26,株式会社ＲＥＧＲＡ　Ｏｋｉｎａｗａ,,株式会社,沖縄県,宜野湾市,赤道２丁目１番１７号Ｇｒａｎｄｅ１０１,,47,205,9012205,,,,,,,2024-12-26,1,,,,,レグラオキナワ,0
1417,6370005010877,新規,0,2024-12-26,2024-12-26,医療法人仙台柳生クリニック,,その他の設立登記法人,宮城県,仙台市太白区,柳生７丁目１６番１,,04,104,9811106,,,,,,,2024-12-26,1,,,,,センダイヤナギウクリニック,0
1429,6430001093358,新規,0,2024-12-26,2024-12-26,株式会社にの商店,,株式会社,北海道,札幌市中央区,南五条西４丁目９番地１バッカスビル４階,,01,101,0640805,,,,,,,2024-12-26,1,,,,,ニノショウテン,0
1430,6430003017109,新規,0,2024-12-26,2024-12-26,合同会社ＬｉｌｉＲ,,合同会社,北海道,札幌市白石区,平和通７丁目北４番２２号,,01,104,0030029,,,,,,,2024-12-26,1,,,,,リリル,0
1432,6460301005266,新規,0,2024-12-26,2024-12-26,株式会社ビューティーオアシス,,株式会社,北海道,北見市,北進町５丁目４番５４号,,01,208,0900052,,,,,,,2024-12-26,1,,,,,ビューティーオアシス,0
1438,6480003002213,新規,0,2024-12-26,2024-12-26,合同会社早苗美,,合同会社,徳島県,鳴門市,撫養町黒崎字磯崎１２３番地３１,,36,202,7720001,,,,,,,2024-12-26,1,,,,,サナミ,0
1443,7010001250917,新規,0,2024-12-26,2024-12-26,ワイズイノベーション株式会社,,株式会社,東京都,中央区,銀座１丁目１２番４号Ｎ＆ＥＢＬＤ．７階,,13,102,1040061,,,,,,,2024-12-26,1,,,,,ワイズイノベーション,0
1445,7010003045877,新規,0,2024-12-26,2024-12-26,合同会社夢元大,,合同会社,東京都,中央区,銀座１丁目１２番４号Ｎ＆Ｅ・ＢＬＤ．６Ｆ,,13,102,1040061,,,,,,,2024-12-26,1,,,,,ムゲンダイ,0
1449,7010101016466,新規,0,2024-12-26,2024-12-26,株式会社ＥＩＫＯ,,株式会社,東京都,八王子市,宇津木町１３８番地１,,13,201,1920024,,,,,,,2024-12-26,1,,,,,エイコ,0
1453,7010401187263,新規,0,2024-12-26,2024-12-26,株式会社雲孫,,株式会社,東京都,港区,南青山５丁目１０番５号青山ハイツ９０４,,13,103,1070062,,,,,,,2024-12-26,1,,,,,ウンソン,0
1454,7010401187296,新規,0,2024-12-26,2024-12-26,ＧＣＪＧ４６株式会社,,株式会社,東京都,港区,元赤坂１丁目１番８号株式会社赤坂国際会計内,,13,103,1070051,,,,,,,2024-12-26,1,,,,,ジーシージェイジーフォーティシックス,0
1455,7010403034067,新規,0,2024-12-26,2024-12-26,ユナイテッドエナジー合同会社,,合同会社,東京都,港区,西新橋２丁目２０番１号４階,,13,103,1050003,,,,,,,2024-12-26,1,,,,,ユナイテッドエナジー,0
1456,7010403034075,新規,0,2024-12-26,2024-12-26,合同会社Ｐｅｄａｌ　Ｐｅｄａｌ,,合同会社,東京都,港区,三田２丁目７番１号,,13,103,1080073,,,,,,,2024-12-26,1,,,,,ペダルペダル,0
1458,7010501053407,新規,0,2024-12-26,2024-12-26,株式会社Ａ‐Ｗｏｒｋｓ,,株式会社,東京都,台東区,池之端４丁目１６番１８－１０２号上野池之端サニーコート,,13,106,1100008,,,,,,,2024-12-26,1,,,,,エイワークス,0
1467,7010901056570,新規,0,2024-12-26,2024-12-26,株式会社若生,,株式会社,東京都,世田谷区,三軒茶屋２丁目５５番９号ロイヤル三軒茶屋１０１,,13,112,1540024,,,,,,,2024-12-26,1,,,,,ワコウ,0
1469,7010903009592,新規,0,2024-12-26,2024-12-26,合同会社眞田コンサルティング,,合同会社,東京都,世田谷区,等々力２丁目３２番１４号２０２,,13,112,1580082,,,,,,,2024-12-26,1,,,,,サナダコンサルティング,0
1474,7011003020663,新規,0,2024-12-26,2024-12-26,合同会社ＡＲＡＴＡ,,合同会社,東京都,目黒区,原町２丁目１３―７,,13,110,1520011,,,,,,,2024-12-26,1,,,,,アラタ,0
1482,7011701027927,新規,0,2024-12-26,2024-12-26,株式会社伝わるコミュニケーション研究所,,株式会社,東京都,江戸川区,北小岩６丁目７番４号,,13,123,1330051,,,,,,,2024-12-26,1,,,,,ツタワルコミュニケーションケンキュウジョ,0
1502,7021001084081,新規,0,2024-12-26,2024-12-26,株式会社エクライズ,,株式会社,神奈川県,横須賀市,武３丁目１４番７号,,14,201,2380313,,,,,,,2024-12-26,1,,,,,エクライズ,0
1512,7030001164132,新規,0,2024-12-26,2024-12-26,株式会社Ｒ・Ｎ,,株式会社,埼玉県,川口市,差間３丁目３１番６号,,11,203,3330816,,,,,,,2024-12-26,1,,,,,アールドットエヌ,0
1526,7040001136709,新規,0,2024-12-26,2024-12-26,旭株式会社,,株式会社,千葉県,山武郡九十九里町,真亀４０００番,,12,403,2830114,,,,,,,2024-12-26,1,,,,,アサヒ,0
1527,7040001136725,新規,0,2024-12-26,2024-12-26,Ｒｅｌｙｏｎ株式会社,,株式会社,千葉県,習志野市,津田沼７丁目３番２６号,,12,216,2750016,,,,,,,2024-12-26,1,,,,,リライオン,0
1533,7050001055932,新規,0,2024-12-26,2024-12-26,株式会社ＬＩＬ,,株式会社,茨城県,つくば市,島名２１７１Ｌｉｅｂｅ万博１０１,,08,220,3002655,,,,,,,2024-12-26,1,,,,,リル,0
1541,7080101025221,新規,0,2024-12-26,2024-12-26,株式会社ＢｕｉｌｄＡｒｃｈｉｔｅｃｔｕｒｅ,,株式会社,静岡県,沼津市,足高３２２番地の３６,,22,203,4100001,,,,,,,2024-12-26,1,,,,,ビルドアーキテクチャ,0
1549,7080401027644,新規,0,2024-12-26,2024-12-26,住まいＬＯＶＥホールディングス株式会社,,株式会社,静岡県,浜松市中央区,丸塚町５４１番地の８,,22,138,4350046,,,,,,,2024-12-26,1,,,,,スマイラブホールディングス,0
1551,7090001019066,新規,0,2024-12-26,2024-12-26,株式会社パラジョブ,,株式会社,山梨県,富士吉田市,新西原１丁目７番１２号新西原ビル３Ｆドットワーク富士吉田,,19,202,4030017,,,,,,,2024-12-26,1,,,,,パラジョブ,0
1554,7110001038963,新規,0,2024-12-26,2024-12-26,ＨＩ工業株式会社,,株式会社,新潟県,新潟市秋葉区,秋葉１丁目４番１２号,,15,105,9560832,,,,,,,2024-12-26,1,,,,,エイチアイコウギョウ,0
1555,7110003005615,新規,0,2024-12-26,2024-12-26,合同会社３１０,,合同会社,新潟県,村上市,塩谷１１８２番地１,,15,212,9593441,,,,,,,2024-12-26,1,,,,,サンイチマル,0
1562,7120001271448,新規,0,2024-12-26,2024-12-26,株式会社フェルメールドゥ,,株式会社,大阪府,大阪市西区,北堀江１丁目２１番１１号２Ａ,,27,106,5500014,,,,,,,2024-12-26,1,,,,,フェルメールドゥ,0
1576,7130003010101,新規,0,2024-12-26,2024-12-26,合同会社Ｎｉｆｅｒｃｈｅ,,合同会社,京都府,京都市下京区,西七条西石ケ坪町６４番地ダイアモンテ七条２０７号,,26,106,6008896,,,,,,,2024-12-26,1,,,,,ニファーシェ,0
1579,7140001136855,新規,0,2024-12-26,2024-12-26,コスミックソースエナジー株式会社,,株式会社,兵庫県,神戸市中央区,港島中町６丁目１４番地ポートピアプラザＣ棟３０６号,,28,110,6500046,,,,,,,2024-12-26,1,,,,,コスミックソースエナジー,0
1581,7140003021452,新規,0,2024-12-26,2024-12-26,合同会社ＫＳ総合,,合同会社,兵庫県,神戸市垂水区,神田町４番３１号,,28,108,6550027,,,,,,,2024-12-26,1,,,,,ケイエスソウゴウ,0
1583,7170001018423,新規,0,2024-12-26,2024-12-26,株式会社オオエ,,株式会社,和歌山県,和歌山市,湊本町１丁目５番地,,30,201,6408222,,,,,,,2024-12-26,1,,,,,オオエ,0
1588,7180001164588,新規,0,2024-12-26,2024-12-26,盛縁株式会社,,株式会社,愛知県,名古屋市中区,栄５丁目５番２０号７０２号室,,23,106,4600008,,,,,,,2024-12-26,1,,,,,セイエン,0
1591,7180003027801,新規,0,2024-12-26,2024-12-26,合同会社ＨＳ　Ｐｈｏｅｎｉｘ,,合同会社,愛知県,小牧市,大字三ツ渕１６９６番地１,,23,219,4850075,,,,,,,2024-12-26,1,,,,,エイチエスフェニックス,0
1599,7200001043269,新規,0,2024-12-26,2024-12-26,株式会社ＥＱスポーツ,,株式会社,岐阜県,岐阜市,茜部新所１丁目２４番地２階,,21,201,5008263,,,,,,,2024-12-26,1,,,,,イーキュースポーツ,0
1612,7240001064303,新規,0,2024-12-26,2024-12-26,株式会社ＫＮＫ,,株式会社,広島県,広島市西区,新庄町２２番１４－１号,,34,104,7330801,,,,,,,2024-12-26,1,,,,,ケイエヌケイ,0
1617,7260003005014,新規,0,2024-12-26,2024-12-26,合同会社Ｆｒｉｅｎｄｓ,,合同会社,岡山県,岡山市北区,西古松３２１－１２１,,33,101,7000927,,,,,,,2024-12-26,1,,,,,フレンズ,0
1618,7270001009107,新規,0,2024-12-26,2024-12-26,株式会社ジョブサポート,,株式会社,鳥取県,鳥取市,吉成南町１丁目２４番２号,,31,201,6800871,,,,,,,2024-12-26,1,,,,,ジョブサポート,0
1625,7290001108385,新規,0,2024-12-26,2024-12-26,ユーアイオート株式会社,,株式会社,福岡県,糟屋郡志免町,大字吉原９９番地７,,40,343,8112208,,,,,,,2024-12-26,1,,,,,ユーアイオート,0
1626,7290001108402,新規,0,2024-12-26,2024-12-26,株式会社トラスプラン,,株式会社,福岡県,福岡市東区,青葉６丁目２４番５号,,40,131,8130025,,,,,,,2024-12-26,1,,,,,トラスプラン,0
1627,7290003016198,新規,0,2024-12-26,2024-12-26,合同会社サムライ,,合同会社,福岡県,大牟田市,大字宮崎２９４１番地２,,40,202,8370903,,,,,,,2024-12-26,1,,,,,サムライ,0
1628,7290003016215,新規,0,2024-12-26,2024-12-26,合同会社ＵＫアセットマネジメント,,合同会社,福岡県,福岡市博多区,住吉４丁目３番２号,,40,132,8120018,,,,,,,2024-12-26,1,,,,,ユーケーアセットマネジメント,0
1631,7290803004930,新規,0,2024-12-26,2024-12-26,合同会社ワイ・エフ,,合同会社,福岡県,北九州市門司区,大里原町１０番２７号,,40,101,8000038,,,,,,,2024-12-26,1,,,,,ワイエフ,0
1637,7330001032754,新規,0,2024-12-26,2024-12-26,株式会社ｔ‐ＺＥＲＯ熊本,,株式会社,熊本県,熊本市中央区,練兵町４３,,43,101,8600017,,,,,,,2024-12-26,1,,,,,ティーゼロクマモト,0
1644,7370001052063,新規,0,2024-12-26,2024-12-26,優珠株式会社,,株式会社,宮城県,宮城郡七ヶ浜町,汐見台３丁目３番地の５１,,04,404,9850821,,,,,,,2024-12-26,1,,,,,ユウジュ,0
1649,7380005012905,新規,0,2024-12-26,2024-12-26,一般社団法人いきいきライフ協会福島北,,その他の設立登記法人,福島県,福島市,森合町１５番１１号,,07,201,9608002,,,,,,,2024-12-26,1,,,,,イキイキライフキョウカイフクシマキタ,0
1650,7390003002329,新規,0,2024-12-26,2024-12-26,合同会社ヘルシー山形,,合同会社,山形県,山形市,鉄砲町３丁目１番４３号,,06,201,9902492,,,,,,,2024-12-26,1,,,,,ヘルシーヤマガタ,0
1652,7420001018959,新規,0,2024-12-26,2024-12-26,株式会社マデェーニ,,株式会社,青森県,弘前市,大字堅田字神田３９８番地２Ｆ,,02,202,0368052,,,,,,,2024-12-26,1,,,,,マデェーニ,0
1655,7430001093349,新規,0,2024-12-26,2024-12-26,株式会社ＧＯＤ　ＢＬＥＳＳ,,株式会社,北海道,札幌市北区,あいの里四条５丁目１０番１０号,,01,102,0028074,,,,,,,2024-12-26,1,,,,,ゴッドブレス,0
1656,7430001093357,新規,0,2024-12-26,2024-12-26,株式会社ＥＳＧＥＹ,,株式会社,北海道,札幌市中央区,北九条西２４丁目１番１０号,,01,101,0600009,,,,,,,2024-12-26,1,,,,,イージー,0
1658,7460003001026,新規,0,2024-12-26,2024-12-26,ファーマー・プロテクト合同会社,,合同会社,北海道,釧路市,武佐３丁目２７番２号,,01,206,0850806,,,,,,,2024-12-26,1,,,,,ファーマープロテクト,0
1660,7470001020506,新規,0,2024-12-26,2024-12-26,三協生コンクリート株式会社,,株式会社,香川県,三豊市,豊中町本山乙６０７番地２４,,37,208,7691505,,,,,,,2024-12-26,1,,,,,サンキョウナマコンクリート,0
1665,7700150128407,新規,0,2024-12-26,2024-12-26,福岡市周船寺駅南土地区画整理組合,,その他,福岡県,福岡市西区,大字飯氏３２２番地,,40,135,8190371,,,,,,,2024-12-26,1,,,,,フクオカシスセンジエキミナミトチクカクセイリクミアイ,0
1670,8010001250924,新規,0,2024-12-26,2024-12-26,和樹株式会社,,株式会社,東京都,千代田区,神田紺屋町２７番地４国際神田ビル５０１,,13,101,1010035,,,,,,,2024-12-26,1,,,,,カズキ,0
1671,8010001250957,新規,0,2024-12-26,2024-12-26,株式会社カレス,,株式会社,東京都,千代田区,神田須田町１丁目８番３号メトロフロント神田９０６号,,13,101,1010041,,,,,,,2024-12-26,1,,,,,カレス,0
1672,8010001251014,新規,0,2024-12-26,2024-12-26,株式会社ワリヤス,,株式会社,東京都,千代田区,九段北１丁目３番地１号,,13,101,1020073,,,,,,,2024-12-26,1,,,,,ワリヤス,0
1674,8010003045892,新規,0,2024-12-26,2024-12-26,二条城前匿名組合合同会社,,合同会社,東京都,千代田区,平河町１丁目６番１５号シルスフィア会計事務所内,,13,101,1020093,,,,,,,2024-12-26,1,,,,,ニジョウジョウマエトクメイクミアイ,0
1675,8010005039331,新規,0,2024-12-26,2024-12-26,一般社団法人ライトハウス１号,,その他の設立登記法人,東京都,千代田区,霞が関３丁目２番５号,,13,101,1000013,,,,,,,2024-12-26,1,,,,,ライトハウスイチゴウ,0
1676,8010101016465,新規,0,2024-12-26,2024-12-26,株式会社Ｔｏｋｙｏ　Ｂａｙ　Ｃａｒ　Ｓｈｏｐ,,株式会社,東京都,八王子市,東浅川町５４８番地１ドエルクラ２０６,,13,201,1930834,,,,,,,2024-12-26,1,,,,,トウキョウベイカーショップ,0
1681,8010401187056,新規,0,2024-12-26,2024-12-26,株式会社ドライバーテクノロジーズ・ホールディングス,,株式会社,東京都,港区,六本木４丁目２番４５号,,13,103,1060032,,,,,,,2024-12-26,1,,,,,ドライバーテクノロジーズホールディングス,0
1682,8010401187262,新規,0,2024-12-26,2024-12-26,株式会社ＰＥＡＫＳ　ＴＯＫＹＯ　ＯＦＦＩＣＥ,,株式会社,東京都,港区,西新橋１丁目２０番１０号西新橋エクセルビル５Ｆ,,13,103,1050003,,,,,,,2024-12-26,1,,,,,ピークストーキョーオフィス,0
1683,8010403034074,新規,0,2024-12-26,2024-12-26,合同会社ＮＥＯＳ,,合同会社,東京都,港区,浜松町２丁目２番１５号浜松町ダイヤビル２Ｆ,,13,103,1050013,,,,,,,2024-12-26,1,,,,,ネオス,0
1688,8010501053397,新規,0,2024-12-26,2024-12-26,株式会社３Ｍａｒｋｅｔｉｎｇ,,株式会社,東京都,台東区,台東１丁目１０番３号,,13,106,1100016,,,,,,,2024-12-26,1,,,,,スリーマーケティング,0
1689,8010501053422,新規,0,2024-12-26,2024-12-26,株式会社刃型工房,,株式会社,東京都,台東区,清川１丁目５番２号,,13,106,1110022,,,,,,,2024-12-26,1,,,,,ハガタコウボウ,0
1690,8010601066514,新規,0,2024-12-26,2024-12-26,株式会社Ｒｅｓｐｅｃｔ,,株式会社,東京都,江東区,亀戸６丁目５８番１３号古谷ビル１階,,13,108,1360071,,,,,,,2024-12-26,1,,,,,リスペクト,0
1691,8010601066522,新規,0,2024-12-26,2024-12-26,夢千株式会社,,株式会社,東京都,墨田区,千歳３丁目６番５－３０４号,,13,107,1300025,,,,,,,2024-12-26,1,,,,,モンセン,0
1707,8011101110010,新規,0,2024-12-26,2024-12-26,株式会社カミ,,株式会社,東京都,新宿区,中落合３丁目２４番８－１０１号,,13,104,1610032,,,,,,,2024-12-26,1,,,,,カミ,0
1708,8011101110076,新規,0,2024-12-26,2024-12-26,株式会社ｙｏｋａ,,株式会社,東京都,新宿区,新宿６丁目７－８エスポワール新宿１０２号室,,13,104,1600022,,,,,,,2024-12-26,1,,,,,ヨカ,0
1714,8011403004579,新規,0,2024-12-26,2024-12-26,ＨＮ　ＩＮＴＥＲＮＡＴＩＯＮＡＬ合同会社,,合同会社,東京都,板橋区,板橋１丁目２９－５吉田ビル４０１,,13,119,1730004,,,,,,,2024-12-26,1,,,,,エイチエヌインターナショナル,0
1718,8011801045324,新規,0,2024-12-26,2024-12-26,株式会社星のコンフォーム,,株式会社,東京都,葛飾区,柴又１丁目４３番６－５０１号ＭＡＣ柴又コート,,13,122,1250052,,,,,,,2024-12-26,1,,,,,ホシノコンフォーム,0
1720,8012401042612,新規,0,2024-12-26,2024-12-26,株式会社ｒｍｒ,,株式会社,東京都,府中市,幸町３丁目１番地の１ヴェラクシスガーデン府中１１２,,13,206,1830054,,,,,,,2024-12-26,1,,,,,アールエムアール,0
1721,8012703003163,新規,0,2024-12-26,2024-12-26,合同会社ＩＨＡＴＯＶハウス,,合同会社,東京都,小平市,上水本町６丁目１１番３５号,,13,211,1870022,,,,,,,2024-12-26,1,,,,,イーハトーブハウス,0
1724,8013303007447,新規,0,2024-12-26,2024-12-26,＿＿合同会社,00137464,合同会社,東京都,豊島区,西池袋２丁目３６番１号８１３室ソフトタウン池袋,,13,116,1710021,,,,,,,2024-12-26,1,,,,,シンミョウ,0
1731,8020001160692,新規,0,2024-12-26,2024-12-26,しろねこグループ株式会社,,株式会社,神奈川県,横浜市保土ケ谷区,仏向町６１０－２,,14,106,2400044,,,,,,,2024-12-26,1,,,,,シロネコグループ,0
1736,8030001164115,新規,0,2024-12-26,2024-12-26,株式会社アサーティブライフ,,株式会社,埼玉県,川口市,北園町２６番１７号,,11,203,3330862,,,,,,,2024-12-26,1,,,,,アサーティブライフ,0
1737,8030001164214,新規,0,2024-12-26,2024-12-26,株式会社おひげのポン,,株式会社,埼玉県,さいたま市北区,本郷町６５１番地サンウィングＷ３０３,,11,102,3310802,,,,,,,2024-12-26,1,,,,,オヒゲノポン,0
1744,8030003025769,新規,0,2024-12-26,2024-12-26,合同会社和,,合同会社,埼玉県,朝霞市,膝折町５丁目６番２号,,11,227,3510014,,,,,,,2024-12-26,1,,,,,ナゴミ,0
1749,8040001136716,新規,0,2024-12-26,2024-12-26,株式会社絆,,株式会社,千葉県,東金市,東金８６２番地８,,12,213,2830802,,,,,,,2024-12-26,1,,,,,キズナ,0
1750,8040001136724,新規,0,2024-12-26,2024-12-26,住まいの発見館不動産株式会社,,株式会社,千葉県,山武市,津辺７６番地,,12,237,2891345,,,,,,,2024-12-26,1,,,,,スマイノハッケンカンフドウサン,0
1757,8050003008904,新規,0,2024-12-26,2024-12-26,合同会社ＲＡＳ自転車,,合同会社,茨城県,古河市,尾崎３５２２－２４,,08,204,3060101,,,,,,,2024-12-26,1,,,,,アールエーエスジテンシャ,0
1760,8060005010279,新規,0,2024-12-26,2024-12-26,一般社団法人Ｄｒ．Ｂｏｄｙ　Ｃｒｅａｔｉｏｎ,,その他の設立登記法人,栃木県,河内郡上三川町,大字上三川５０６７番地１２上三川のいえ,,09,301,3290611,,,,,,,2024-12-26,1,,,,,ドクターボディークリエーション,0
1762,8070001042457,新規,0,2024-12-26,2024-12-26,株式会社ＮｕＮｕＡＩ,,株式会社,群馬県,高崎市,菅谷町１１４番地１,,10,202,3703522,,,,,,,2024-12-26,1,,,,,ヌヌエーアイ,0
1765,8080001026681,新規,0,2024-12-26,2024-12-26,株式会社ルームステージング,,株式会社,静岡県,静岡市駿河区,丸子６６２７番地の３２,,22,102,4210103,,,,,,,2024-12-26,1,,,,,ルームステージング,0
1782,8080401027643,新規,0,2024-12-26,2024-12-26,株式会社リオル,,株式会社,静岡県,浜松市中央区,金折町４５０番地の１,,22,138,4350026,,,,,,,2024-12-26,1,,,,,リオル,0
1783,8080401027651,新規,0,2024-12-26,2024-12-26,株式会社ＭｉｌｄＷｉｌｄＭｉｎｄ,,株式会社,静岡県,浜松市中央区,三方原町１５６３番地の３コーポ・リバティＥ－１０２号室,,22,138,4338105,,,,,,,2024-12-26,1,,,,,マイルドワイルドマインド,0
1786,8090003002705,新規,0,2024-12-26,2024-12-26,ｍｍｄ貿易合同会社,,合同会社,山梨県,韮崎市,旭町上條北割１０４７番地１,,19,207,4070044,,,,,,,2024-12-26,1,,,,,エムエムディーボウエキ,0
1790,8110001038962,新規,0,2024-12-26,2024-12-26,Ｃｏｏｌ　Ａｉｒ株式会社,,株式会社,新潟県,新潟市中央区,下所島１丁目５番１号,,15,103,9500991,,,,,,,2024-12-26,1,,,,,クールエアー,0
1791,8110003005614,新規,0,2024-12-26,2024-12-26,合同会社おこめプロダクション,,合同会社,新潟県,長岡市,関原町２丁目１３６番地,,15,202,9402035,,,,,,,2024-12-26,1,,,,,オコメプロダクション,0
1801,8120001271455,新規,0,2024-12-26,2024-12-26,ＪＡＰＡＮ　ＦＡＭＩＬＹ　ＯＦＦＩＣＥ株式会社,,株式会社,大阪府,大阪市西淀川区,中島１丁目３５－１７１－１０,,27,113,5550041,,,,,,,2024-12-26,1,,,,,ジャパンファミリーオフィス,0
1802,8120001271463,新規,0,2024-12-26,2024-12-26,ＤＸＫ株式会社,,株式会社,大阪府,大阪市中央区,谷町６丁目４－３４－１０５号,,27,128,5420012,,,,,,,2024-12-26,1,,,,,ディエクスケー,0
1814,8130001078668,新規,0,2024-12-26,2024-12-26,株式会社Ｇｒａｃｉａｓ,,株式会社,京都府,宇治市,広野町西裏１２－１ハイライフコーポ西裏ＩＩＢＬＤ３０２,00137465,26,204,6110031,,,,,,,2024-12-26,1,,,,,グラシアス,0
1822,8140001136846,新規,0,2024-12-26,2024-12-26,株式会社イーツーマーケティング,,株式会社,兵庫県,神戸市中央区,磯辺通１丁目１番１８号カサベラ国際プラザビル７０７号室,,28,110,6510084,,,,,,,2024-12-26,1,,,,,イーツーマーケティング,0
1824,8140003021451,新規,0,2024-12-26,2024-12-26,合同会社いっとき,,合同会社,兵庫県,多可郡多可町,加美区寺内２,,28,365,6791211,,,,,,,2024-12-26,1,,,,,イットキ,0
1841,8200001043268,新規,0,2024-12-26,2024-12-26,株式会社Ａ,,株式会社,岐阜県,大垣市,外野２丁目９６番地１,,21,202,5030933,,,,,,,2024-12-26,1,,,,,エース,0
1842,8200003006636,新規,0,2024-12-26,2024-12-26,合同会社ＫＳＰ　ＭＯＴＯＲ　ＪＡＰＡＮ,,合同会社,岐阜県,海津市,海津町札野字二番縄６２６番地２,,21,221,5030643,,,,,,,2024-12-26,1,,,,,ケイエスピーモータージャパン,0
1846,8240003006995,新規,0,2024-12-26,2024-12-26,合同会社らくだ厨房,,合同会社,広島県,廿日市市,宮島口西３丁目１３番６号１０３,,34,213,7390412,,,,,,,2024-12-26,1,,,,,ラクダチュウボウ,0
1849,8260001039723,新規,0,2024-12-26,2024-12-26,マテリアルガード株式会社,,株式会社,岡山県,倉敷市,中島１０６８番地８０,,33,202,7100803,,,,,,,2024-12-26,1,,,,,マテリアルガード,0
1850,8260001039731,新規,0,2024-12-26,2024-12-26,株式会社Ｃａｍｉｎａｒ,,株式会社,岡山県,井原市,西江原町５５９３番地,,33,207,7150006,,,,,,,2024-12-26,1,,,,,カミナール,0
1859,8290001108401,新規,0,2024-12-26,2024-12-26,Ｃｅｎｔｒａｌ　Ｆｉｅｌｄ株式会社,,株式会社,福岡県,福岡市東区,名島５丁目６７番３５－１００３号,,40,131,8130043,,,,,,,2024-12-26,1,,,,,セントラルフィールド,0
1860,8290003016222,新規,0,2024-12-26,2024-12-26,合同会社ｒｉｋｕｚｅｎ,,合同会社,福岡県,糟屋郡粕屋町,酒殿２丁目５番１７号,,40,349,8112303,,,,,,,2024-12-26,1,,,,,リクゼン,0
1861,8290005019594,新規,0,2024-12-26,2024-12-26,医療法人永久会,,その他の設立登記法人,福岡県,久留米市,諏訪野町１７８５番地１,,40,203,8300037,,,,,,,2024-12-26,1,,,,,,0
1863,8300001014028,新規,0,2024-12-26,2024-12-26,株式会社ＫＡＭｉＪＯＹ,,株式会社,佐賀県,三養基郡上峰町,大字坊所字下津毛５７番地１,,41,345,8490123,,,,,,,2024-12-26,1,,,,,カミジョイ,0
1866,8310001019380,新規,0,2024-12-26,2024-12-26,株式会社秘書２４時,,株式会社,長崎県,壱岐市,郷ノ浦町片原触２２７番地６,,42,210,8115136,,,,,,,2024-12-26,1,,,,,ヒショニジュウヨジ,0
1867,8310001019389,新規,0,2024-12-26,2024-12-26,株式会社Ｊ．Ｐ．Ｇ,,株式会社,長崎県,長崎市,西山台２丁目５番１号,,42,201,8528122,,,,,,,2024-12-26,1,,,,,ジェイピージー,0
1872,8360001034581,新規,0,2024-12-26,2024-12-26,心水ワークス株式会社,,株式会社,沖縄県,島尻郡八重瀬町,字玻名城４０番地,,47,362,9010513,,,,,,,2024-12-26,1,,,,,シンスイワークス,0
1874,8360003014540,新規,0,2024-12-26,2024-12-26,合同会社清春,,合同会社,沖縄県,那覇市,古波蔵１丁目７－２７・１－Ｂ,,47,201,9000024,,,,,,,2024-12-26,1,,,,,セイシュン,0
1878,8370003006867,新規,0,2024-12-26,2024-12-26,一徳国際合同会社,,合同会社,宮城県,仙台市青葉区,八幡３丁目８番４号レスタフォーユー,,04,101,9800871,,,,,,,2024-12-26,1,,,,,イットクコクサイ,0
1906,8700150128439,新規,0,2024-12-26,2024-12-26,新金岡Ｃ住宅団地マンション建替組合,,その他,大阪府,堺市北区,新金岡町３丁１番,,27,146,5918021,,,,,,,2024-12-26,1,,,,,シンカナオカシージユウタクダンチマンシヨンタテカエクミアイ,0
1909,9010001250460,新規,0,2024-12-26,2024-12-26,ｄｏｔｐｂ株式会社,,株式会社,東京都,中央区,日本橋兜町５－１兜町第１平和ビル３階,,13,102,1030026,,,,,,,2024-12-26,1,,,,,ドットピービー,0
1910,9010001250931,新規,0,2024-12-26,2024-12-26,株式会社Ｇｒｅｅｎ　Ｂａｔｔｅｒｙ,,株式会社,東京都,中央区,銀座１丁目１４番５号第二五味ビル５階,,13,102,1040061,,,,,,,2024-12-26,1,,,,,グリーンバッテリー,0
1911,9010001250972,新規,0,2024-12-26,2024-12-26,株式会社Ｌｅｖｅｌｉｃ,,株式会社,東京都,千代田区,神田和泉町１番地６－１６ヤマトビル４０５,,13,101,1010024,,,,,,,2024-12-26,1,,,,,レベリック,0
1912,9010001251005,新規,0,2024-12-26,2024-12-26,株式会社ＡＩＴｅｃｈ　Ｃｏ‐Ｌａｂｏ,,株式会社,東京都,中央区,日本橋茅場町２丁目５番２－４０２号,,13,102,1030025,,,,,,,2024-12-26,1,,,,,エイテックコラボ,0
1916,9010101016464,新規,0,2024-12-26,2024-12-26,ココプラン株式会社,,株式会社,東京都,八王子市,緑町３５３番地８２,,13,201,1930932,,,,,,,2024-12-26,1,,,,,ココプラン,0
1921,9010401187261,新規,0,2024-12-26,2024-12-26,株式会社リクセル,,株式会社,東京都,港区,南青山２丁目２番１５号,,13,103,1070062,,,,,,,2024-12-26,1,,,,,リクセル,0
1927,9010403034073,新規,0,2024-12-26,2024-12-26,合同会社ＣｙｂｅｒＴｅｃｈ,,合同会社,東京都,港区,北青山１丁目３番１号アールキューブ青山３階,,13,103,1070061,,,,,,,2024-12-26,1,,,,,サイバーテック,0
1928,9010403034081,新規,0,2024-12-26,2024-12-26,合同会社ファミール,,合同会社,東京都,港区,三田４丁目１８－２０－５１１,,13,103,1080073,,,,,,,2024-12-26,1,,,,,ファミール,0
1934,9010701046951,新規,0,2024-12-26,2024-12-26,株式会社ＡＩ　ＤＯＧ,,株式会社,東京都,品川区,北品川３丁目６番９号Ｕｂｉｚ品川５階,,13,109,1400001,,,,,,,2024-12-26,1,,,,,エーアイドッグ,0
1938,9010903009590,新規,0,2024-12-26,2024-12-26,合同会社Ｔｓ　ＣＡＭＰ,,合同会社,東京都,世田谷区,岡本１丁目８番１０号,,13,112,1570076,,,,,,,2024-12-26,1,,,,,ティーズキャンプ,0
1941,9011001166671,新規,0,2024-12-26,2024-12-26,株式会社ザ・坂口,,株式会社,東京都,渋谷区,道玄坂１丁目１０番８号渋谷道玄坂東急ビル２Ｆ―Ｃ,,13,113,1500043,,,,,,,2024-12-26,1,,,,,ザサカグチ,0
1942,9011001166705,新規,0,2024-12-26,2024-12-26,ＥＮＶＩＳＩＯＮ　ＪＡＰＡＮ株式会社,,株式会社,東京都,渋谷区,渋谷２丁目１６番５号宮益坂プレイス渋谷１２階,,13,113,1500002,,,,,,,2024-12-26,1,,,,,エンビジョンジャパン,0
1944,9011003020686,新規,0,2024-12-26,2024-12-26,合同会社コハク,,合同会社,東京都,渋谷区,千駄ヶ谷１丁目８―１０外苑アビタシオン４０５,,13,113,1510051,,,,,,,2024-12-26,1,,,,,コハク,0
1950,9011103015322,新規,0,2024-12-26,2024-12-26,合同会社ＭｙＲｕｎＧｏ,,合同会社,東京都,新宿区,新宿５丁目１８－２０ルックハイツ新宿８０３,,13,104,1600022,,,,,,,2024-12-26,1,,,,,マイランゴー,0
1951,9011301030255,新規,0,2024-12-26,2024-12-26,株式会社Ｅｃｒｕｅｎｃｅ,,株式会社,東京都,杉並区,下井草３丁目７番１２号,,13,115,1670022,,,,,,,2024-12-26,1,,,,,エクルエンス,0
1954,9011503006367,新規,0,2024-12-26,2024-12-26,合同会社ｂｉｓｑ,,合同会社,東京都,北区,東十条４丁目１０－６グリーンコーポ１０１,,13,117,1140001,,,,,,,2024-12-26,1,,,,,ビスク,0
1959,9011801045356,新規,0,2024-12-26,2024-12-26,株式会社ライト,,株式会社,東京都,足立区,千住３丁目６ツオード千住壱番館８０１号室,,13,121,1200034,,,,,,,2024-12-26,1,,,,,ライト,0
1963,9012405005069,新規,0,2024-12-26,2024-12-26,一般財団法人学校保健・エコヘルス財団,,その他の設立登記法人,東京都,小金井市,貫井北町４丁目１番１号東京学芸大学国際課カンボジア学校保健プロジェクト内,,13,210,1840015,,,,,,,2024-12-26,1,,,,,ガッコウホケンエコヘルスザイダン,0
1970,9020003027501,新規,0,2024-12-26,2024-12-26,合同会社大洋商事,,合同会社,神奈川県,横浜市中区,伊勢佐木町６丁目１４７番地９,,14,104,2310045,,,,,,,2024-12-26,1,,,,,ダイヨウショウジ,0
1973,9021001084088,新規,0,2024-12-26,2024-12-26,Ｔｗｉｓｔｅｄ株式会社,,株式会社,神奈川県,大和市,福田１６８８番地１第２ロイヤルコーポ２０３,,14,213,2420024,,,,,,,2024-12-26,1,,,,,ツイステッド,0
1984,9030003025776,新規,0,2024-12-26,2024-12-26,合同会社かわせみエンジニアリング,,合同会社,埼玉県,さいたま市大宮区,桜木町２丁目３番地７階,,11,103,3300854,,,,,,,2024-12-26,1,,,,,カワセミエンジニアリング,0
1998,9050001055914,新規,0,2024-12-26,2024-12-26,岩井産業株式会社,,株式会社,茨城県,神栖市,大野原中央６丁目６番４号,,08,232,3140128,,,,,,,2024-12-26,1,,,,,イワイサンギョウ,0
2001,9050003008903,新規,0,2024-12-26,2024-12-26,Ａｌ　Ｓｕｂｈａｎ　Ｔｒａｄｉｎｇ合同会社,,合同会社,茨城県,坂東市,逆井３８９４番１,,08,228,3060501,,,,,,,2024-12-26,1,,,,,アルスバントレーディング,0
2003,9080001026680,新規,0,2024-12-26,2024-12-26,ニノミヤ建設株式会社,,株式会社,静岡県,静岡市葵区,常磐町３丁目３番２０号,,22,101,4200034,,,,,,,2024-12-26,1,,,,,ニノミヤケンセツ,0
2014,9080401027650,新規,0,2024-12-26,2024-12-26,アズール株式会社,,株式会社,静岡県,浜松市中央区,下石田町３５番地の４,,22,138,4350006,,,,,,,2024-12-26,1,,,,,アズール,0
2015,9090001019064,新規,0,2024-12-26,2024-12-26,株式会社ＦＡＲＭ　ＢＡＳＥ,,株式会社,山梨県,甲州市,塩山熊野２７４番地,,19,213,4040036,,,,,,,2024-12-26,1,,,,,ファームベース,0
2036,9120001271347,新規,0,2024-12-26,2024-12-26,永寧株式会社,,株式会社,大阪府,大阪市東淀川区,小松１丁目１４－１８ハイツ上新第五小松４０７号室,,27,114,5330004,,,,,,,2024-12-26,1,,,,,エイネイ,0
2037,9120001271454,新規,0,2024-12-26,2024-12-26,ＤＺ株式会社,,株式会社,大阪府,大阪市城東区,鴫野西１丁目１３－７,,27,118,5360014,,,,,,,2024-12-26,1,,,,,ディーゼット,0
2042,9120003028258,新規,0,2024-12-26,2024-12-26,Ｂｏｏｋｗｏｒｍｓ合同会社,,合同会社,大阪府,大阪市住吉区,帝塚山東３丁目５番８号,,27,120,5580054,,,,,,,2024-12-26,1,,,,,ブックワームス,0
2057,9140001136795,新規,0,2024-12-26,2024-12-26,株式会社ＭｕｒｋｉｓＬａｂ,,株式会社,兵庫県,神戸市灘区,高羽町５丁目４－１５,,28,102,6570023,,,,,,,2024-12-26,1,,,,,マーキスラボ,0
2058,9140001136845,新規,0,2024-12-26,2024-12-26,株式会社ＯＬＡＤ,,株式会社,兵庫県,三田市,乙原１８５０番地の１６,,28,219,6691503,,,,,,,2024-12-26,1,,,,,オラド,0
2062,9140003021459,新規,0,2024-12-26,2024-12-26,グローバルスマイル合同会社,,合同会社,兵庫県,姫路市,飾磨区英賀清水町１丁目２２番地アルファステイツ英賀保８０２,,28,201,6728084,,,,,,,2024-12-26,1,,,,,グローバルスマイル,0
2066,9160001026433,新規,0,2024-12-26,2024-12-26,内外美健幸堂株式会社,,株式会社,滋賀県,大津市,南小松６２番地の４,,25,201,5200502,,,,,,,2024-12-26,1,,,,,ナイガイビケンコウドウ,0
2067,9160001026441,新規,0,2024-12-26,2024-12-26,株式会社水上,,株式会社,滋賀県,大津市,尾花川１３番６２号,,25,201,5200031,,,,,,,2024-12-26,1,,,,,ミズカミ,0
2080,9180001164685,新規,0,2024-12-26,2024-12-26,株式会社ＬｉｆｅＣ,,株式会社,愛知県,名古屋市中村区,名駅３丁目４－１０アルティメイト名駅１ｓｔ２階,,23,105,4500002,,,,,,,2024-12-26,1,,,,,ライフシー,0
2081,9180001164693,新規,0,2024-12-26,2024-12-26,ｓ‐ｆｏｒｃｅ株式会社,,株式会社,愛知県,名古屋市中村区,名駅４丁目２４番地５号第２森ビル４０１,,23,105,4500002,,,,,,,2024-12-26,1,,,,,エスフォース,0
2087,9180003027790,新規,0,2024-12-26,2024-12-26,合同会社スマイル,,合同会社,愛知県,大府市,共西町６丁目３０２番地の９,,23,223,4740062,,,,,,,2024-12-26,1,,,,,スマイル,0
2089,9180301039364,新規,0,2024-12-26,2024-12-26,ＨＷＭ株式会社,,株式会社,愛知県,岡崎市,宮地町字郷西３９番地,,23,202,4440202,,,,,,,2024-12-26,1,,,,,ハウム,0
2098,9190003004896,新規,0,2024-12-26,2024-12-26,合同会社２４０グッズラボ,,合同会社,三重県,四日市市,高花平５丁目１番地４,,24,202,5100945,,,,,,,2024-12-26,1,,,,,ニイヨンマルグッズラボ,0
2099,9190005012006,新規,0,2024-12-26,2024-12-26,一般社団法人在三重県ベトナム経営者協会,,その他の設立登記法人,三重県,四日市市,日永西４丁目１１番２６‐５号,,24,202,5100891,,,,,,,2024-12-26,1,,,,,ザイミエケンベトナムケイエイシャキョウカイ,0
2105,9240001064301,新規,0,2024-12-26,2024-12-26,株式会社ゆめ工業,,株式会社,広島県,広島市安佐南区,大町西２丁目１７番１３号,,34,105,7310125,,,,,,,2024-12-26,1,,,,,ユメコウギョウ,0
2111,9260001039730,新規,0,2024-12-26,2024-12-26,うさぎとかめアセット株式会社,,株式会社,岡山県,岡山市中区,住吉町１丁目３１番地１０１,,33,102,7038238,,,,,,,2024-12-26,1,,,,,ウサギトカメアセット,0
2112,9280001009319,新規,0,2024-12-26,2024-12-26,株式会社Ａｍａｃａｒｅ,,株式会社,島根県,隠岐郡海士町,大字海士２８９８番地海士流東１号,,32,525,6840403,,,,,,,2024-12-26,1,,,,,,0
2118,9290003016205,新規,0,2024-12-26,2024-12-26,合同会社Ｆａｒｂｒｏｄｅｒ,,合同会社,福岡県,福岡市博多区,石城町２１番２４号,,40,132,8120032,,,,,,,2024-12-26,1,,,,,ファーブローダー,0
2119,9290003016221,新規,0,2024-12-26,2024-12-26,合同会社デザイン１０００,,合同会社,福岡県,福岡市中央区,天神２丁目２番１２号Ｔ＆Ｊビルディング７Ｆ,,40,133,8100001,,,,,,,2024-12-26,1,,,,,デザインセン,0
2121,9290805009793,新規,0,2024-12-26,2024-12-26,医療法人おの栄三クリニック,,その他の設立登記法人,福岡県,北九州市小倉南区,沼南町１丁目１４番２号,,40,107,8000205,,,,,,,2024-12-26,1,,,,,オノエイゾウクリニック,0
2125,9340001027017,新規,0,2024-12-26,2024-12-26,株式会社アイムギア,,株式会社,鹿児島県,鹿児島市,下福元町９０００番地,,46,201,8910144,,,,,,,2024-12-26,1,,,,,アイムギア,0
2127,9370001052061,新規,0,2024-12-26,2024-12-26,株式会社児島ジーンズ仙台,,株式会社,宮城県,富谷市,富谷大清水下４５番地３,,04,216,9813311,,,,,,,2024-12-26,1,,,,,コジマジーンズセンダイ,0
2128,9370005010874,新規,0,2024-12-26,2024-12-26,特定非営利活動法人口腔外科臨床研究会,,その他の設立登記法人,宮城県,仙台市青葉区,星陵町４番１号,,04,101,9800872,,,,,,,2024-12-26,1,,,,,コウクウゲカリンショウケンキュウカイ,0
2136,9430001093322,新規,0,2024-12-26,2024-12-26,株式会社美心工業,,株式会社,北海道,札幌市清田区,美しが丘三条２丁目６番３４号,,01,110,0040813,,,,,,,2024-12-26,1,,,,,ビシンコウギョウ,0
2142,9500001026043,新規,0,2024-12-26,2024-12-26,株式会社ｆｏｒｅｓｔ,,株式会社,愛媛県,西条市,神拝甲２３５番地２,,38,206,7930041,,,,,,,2024-12-26,1,,,,,フォレスト,0
2143,9700150128339,新規,0,2024-12-26,2024-12-23,富山県地域振興団体協議会,,その他,富山県,富山市,下野９９５－３,,16,201,9300871,,,,,,,2024-12-23,1,,,,,トヤマケンチイキシンコウダンタイキヨウギカイ,0
2144,9700150128438,新規,0,2024-12-26,2024-12-26,ＣＡＲＭＯＲＡ　ＡＵＴＯ　ＬＡＮＫＡ,,外国会社等,千葉県,山武市,木原１４０１番地オフィス３,,12,237,2891212,スリランカ民主社会主義共和国、キャンディ、アクラナ、マタレロード、Ｎｏ．１２０／１,,,,,,2024-12-26,1,,,,,カルモラオートランカ,0
