sequenceNumber,corporateNumber,process,correct,updateDate,changeDate,name,nameImageId,kind,prefectureName,cityName,streetNumber,addressImageId,prefectureCode,cityCode,postCode,addressOutside,addressOutsideImageId,closeDate,closeCause,successorCorporateNumber,changeCause,assignmentDate,latest,enName,enPrefectureName,enCityName,enAddressOutside,furigana,hihyoji
11,1010003049082,新規,0,2025-10-23,2025-10-23,合同会社ｍａｙ,,合同会社,東京都,中央区,日本橋室町１丁目１１番１２号日本橋水野ビル７階,,13,102,1030022,,,,,,,2025-10-23,1,,,,,メイ,0
12,1010003049140,新規,0,2025-10-23,2025-10-23,エウレカテック合同会社,,合同会社,東京都,千代田区,九段南１丁目５番６号りそな九段ビル５階ＫＳフロア,,13,101,1020074,,,,,,,2025-10-23,1,,,,,エウレカテック,0
14,1010005040799,新規,0,2025-10-23,2025-10-23,一般社団法人３６０度フィードバック実践活用研究会,,その他の設立登記法人,東京都,中央区,銀座４丁目１０番１４号,,13,102,1040061,,,,,,,2025-10-23,1,,,,,サンビャクロクジュウドフィードバックジッセンカツヨウケンキュウカイ,0
17,1010401193688,新規,0,2025-10-23,2025-10-23,こころみらい株式会社,,株式会社,東京都,港区,芝浦３丁目１３番１号矢島ビル５０１号,,13,103,1080023,,,,,,,2025-10-23,1,,,,,ココロミライ,0
18,1010401193779,新規,0,2025-10-23,2025-10-23,株式会社フレッジ,,株式会社,東京都,港区,六本木３丁目１６番１２号六本木ＫＳビル５Ｆ,,13,103,1060032,,,,,,,2025-10-23,1,,,,,フレッジ,0
19,1010401193837,新規,0,2025-10-23,2025-10-23,ダブルエープラス株式会社,,株式会社,東京都,港区,麻布十番２丁目２０－７,,13,103,1060045,,,,,,,2025-10-23,1,,,,,ダブルエープラス,0
21,1010403036309,新規,0,2025-10-23,2025-10-23,合同会社Ｈ＆Ａ,,合同会社,東京都,港区,南青山３丁目１番３６号青山丸竹ビル６Ｆ,,13,103,1070062,,,,,,,2025-10-23,1,,,,,エイチアンドエー,0
22,1010403036341,新規,0,2025-10-23,2025-10-23,阿賀新潟土地合同会社,,合同会社,東京都,港区,赤坂２丁目１４番５号,,13,103,1070052,,,,,,,2025-10-23,1,,,,,アガニイガタトチ,0
23,1010503008050,新規,0,2025-10-23,2025-10-23,桜橋貿易サポート合同会社,,合同会社,東京都,台東区,上野１丁目１７番６号広小路ビル８Ｆ－Ｂ,,13,106,1100005,,,,,,,2025-10-23,1,,,,,サクラバシボウエキサポート,0
25,1010601068153,新規,0,2025-10-23,2025-10-23,株式会社Ｇｒｅｅｎ　Ｃｏｎｔｉｎｅｎｔ,,株式会社,東京都,江東区,森下４丁目１５－１０－２階,,13,108,1350004,,,,,,,2025-10-23,1,,,,,グリーンコンチネント,0
26,1010603011870,新規,0,2025-10-23,2025-10-23,合同会社松永ホールディングス,,合同会社,東京都,江東区,豊洲５丁目１番１３－４５２３号,,13,108,1350061,,,,,,,2025-10-23,1,,,,,マツナガホールディングス,0
29,1010901058275,新規,0,2025-10-23,2025-10-23,ギャヴ株式会社,,株式会社,東京都,世田谷区,等々力２丁目２１－２４,,13,112,1580082,,,,,,,2025-10-23,1,,,,,ギャヴ,0
30,1010903010358,新規,0,2025-10-23,2025-10-23,合同会社ＳＨＩＮＷＡＴＯ,,合同会社,東京都,世田谷区,千歳台６丁目９番６号,,13,112,1570071,,,,,,,2025-10-23,1,,,,,シンワト,0
33,1011003022806,新規,0,2025-10-23,2025-10-23,合同会社ＥＳＲ２９,,合同会社,東京都,目黒区,上目黒１丁目２３番１号中目黒アリーナ４０５号室,,13,110,1530051,,,,,,,2025-10-23,1,,,,,トゥエンティナイン,0
40,1011101113580,新規,0,2025-10-23,2025-10-23,株式会社ストレプトカーパス,,株式会社,東京都,新宿区,西新宿３丁目３－１３西新宿水間ビル６階,,13,104,1600023,,,,,,,2025-10-23,1,,,,,ストレプトカーパス,0
41,1011101113589,新規,0,2025-10-23,2025-10-23,Ｐｌｙｗｏｏｄ株式会社,,株式会社,東京都,新宿区,西新宿３丁目９番２号イマス西新宿第一ビル３Ｆ－Ｂ,,13,104,1600023,,,,,,,2025-10-23,1,,,,,プライウッド,0
42,1011101113614,新規,0,2025-10-23,2025-10-23,緑茶国際餐飲管理株式会社,,株式会社,東京都,新宿区,北新宿３丁目１０番１０－７１１号－Ｍ,,13,104,1690074,,,,,,,2025-10-23,1,,,,,リョクチャコクサイサンインカンリ,0
45,1011205002713,新規,0,2025-10-23,2025-10-23,第２江原ハイツ管理組合法人,,その他の設立登記法人,東京都,中野区,江原町２丁目２番地１号第２江原ハイツ２０５号,,13,114,1650023,,,,,,,2025-10-23,1,,,,,ダイニエバラハイツ,0
49,1011301030989,新規,0,2025-10-23,2025-10-23,株式会社ＺＥＮ,,株式会社,東京都,杉並区,下高井戸４丁目２０番１５号,,13,115,1680073,,,,,,,2025-10-23,1,,,,,ゼン,0
54,1011703004434,新規,0,2025-10-23,2025-10-23,福澄合同会社,,合同会社,東京都,江戸川区,谷河内２丁目３番２－４０４号,,13,123,1330002,,,,,,,2025-10-23,1,,,,,フクスミ,0
57,1012401043740,新規,0,2025-10-23,2025-10-23,Ｓｋｙ　Ａｒｔ株式会社,,株式会社,東京都,小金井市,本町６丁目２番２０－１９１２号プラウドタワー武蔵小金井クロス,,13,210,1840004,,,,,,,2025-10-23,1,,,,,スカイアート,0
59,1012403007421,新規,0,2025-10-23,2025-10-23,合同会社クラフテック・アライアンス,,合同会社,東京都,調布市,入間町２丁目２８－１６,,13,208,1820004,,,,,,,2025-10-23,1,,,,,クラフテックアライアンス,0
66,1013101009841,新規,0,2025-10-23,2025-10-23,株式会社ＡＭＨＲ,,株式会社,東京都,青梅市,長淵３丁目１１５番地,,13,205,1980052,,,,,,,2025-10-23,1,,,,,エーエムエイチアール,0
68,1013301055149,新規,0,2025-10-23,2025-10-23,株式会社Ｏｎ,,株式会社,東京都,豊島区,西巣鴨１丁目３番５号正栄ビル１０１号室,,13,116,1700001,,,,,,,2025-10-23,1,,,,,オン,0
69,1013301055181,新規,0,2025-10-23,2025-10-23,株式会社Ｌｕｌｕ　ｂｅａｕｔｙ,,株式会社,東京都,豊島区,目白２丁目２５番４号レジーナ目白１０１号,,13,116,1710031,,,,,,,2025-10-23,1,,,,,ルルビューティー,0
72,1013303007932,新規,0,2025-10-23,2025-10-23,ＳｕｃｃｅｓｓｉｖｅＡＩ合同会社,,合同会社,東京都,豊島区,上池袋２丁目４―２ビブラート３０１,,13,116,1700012,,,,,,,2025-10-23,1,,,,,サクセシブエーアイ,0
74,1020001165459,新規,0,2025-10-23,2025-10-23,株式会社ＫＩＮＧ,,株式会社,神奈川県,横浜市金沢区,福浦１丁目４番地１８,,14,108,2360004,,,,,,,2025-10-23,1,,,,,キング,0
86,1021001086620,新規,0,2025-10-23,2025-10-23,株式会社リベクト,,株式会社,神奈川県,藤沢市,鵠沼桜が岡２丁目１０番１９号,00141233,14,205,2510027,,,,,,,2025-10-23,1,,,,,リベクト,0
88,1021003016716,新規,0,2025-10-23,2025-10-23,リビングプロパティ合同会社,,合同会社,神奈川県,大和市,中央林間６丁目５番４－２０５号,,14,213,2420007,,,,,,,2025-10-23,1,,,,,リビングプロパティ,0
92,1030001169351,新規,0,2025-10-23,2025-10-23,株式会社Ｂ　Ｍａｋｅ２ｎｄ,,株式会社,埼玉県,熊谷市,弥生１丁目３８弥生町ビル３階,,11,202,3600044,,,,,,,2025-10-23,1,,,,,ビーメイクセカンド,0
95,1030005022317,新規,0,2025-10-23,2025-10-23,医療法人大塚医院ファミリークリニック,,その他の設立登記法人,埼玉県,熊谷市,大麻生１３９６番地,,11,202,3600835,,,,,,,2025-10-23,1,,,,,オオツカイインファミリークリニック,0
97,1040001141045,新規,0,2025-10-23,2025-10-23,株式会社エムズ管理,,株式会社,千葉県,袖ケ浦市,長浦駅前２丁目１８番地９,,12,229,2990246,,,,,,,2025-10-23,1,,,,,エムズカンリ,0
98,1040001141053,新規,0,2025-10-23,2025-10-23,株式会社ツルワークス,,株式会社,千葉県,船橋市,高根町６３１番地７３,,12,204,2740817,,,,,,,2025-10-23,1,,,,,ツルワークス,0
99,1040001141061,新規,0,2025-10-23,2025-10-23,株式会社Ｆｒｅｖｉａ,,株式会社,千葉県,松戸市,新松戸１丁目４４１番地流鉄カーサ新松戸３０６号,,12,207,2700034,,,,,,,2025-10-23,1,,,,,フレビア,0
100,1040001141078,新規,0,2025-10-23,2025-10-23,株式会社ＭＯＲＩＧＩＮ,,株式会社,千葉県,千葉市中央区,中央３丁目３番８号日進センタービル５階,,12,101,2600013,,,,,,,2025-10-23,1,,,,,モリジン,0
101,1040003028827,新規,0,2025-10-23,2025-10-23,ワイビーム合同会社,,合同会社,千葉県,茂原市,高師２１６１番地１（レインボーマウンテン１－２０２）,,12,210,2970029,,,,,,,2025-10-23,1,,,,,ワイビーム,0
106,1060003005816,新規,0,2025-10-23,2025-10-23,合同会社ココル,,合同会社,栃木県,佐野市,浅沼町５２５番地の１,,09,204,3270831,,,,,,,2025-10-23,1,,,,,ココル,0
115,1110003005942,新規,0,2025-10-23,2025-10-23,合同会社ＨＵＮＴＥＲ,,合同会社,新潟県,妙高市,大字赤倉１２３番地,,15,217,9492111,,,,,,,2025-10-23,1,,,,,ハンター,0
124,1120001281262,新規,0,2025-10-23,2025-10-23,株式会社Ｆ’ｓ　Ｉｎｎｏｖａｔｉｏｎ,,株式会社,大阪府,大阪市北区,豊崎３丁目１１－１－６０６号,,27,127,5310072,,,,,,,2025-10-23,1,,,,,ファイズイノベーション,0
125,1120001281287,新規,0,2025-10-23,2025-10-23,株式会社アンバー,,株式会社,大阪府,大阪市東淀川区,井高野３丁目３－５３－４０８,,27,114,5330001,,,,,,,2025-10-23,1,,,,,アンバー,0
126,1120001281411,新規,0,2025-10-23,2025-10-23,リンクニッポン株式会社,,株式会社,大阪府,大阪市浪速区,稲荷１丁目７番３１号ＣａｓａＹＮａｎｂａ４０１号,,27,111,5560023,,,,,,,2025-10-23,1,,,,,リンクニッポン,0
128,1120003030972,新規,0,2025-10-23,2025-10-23,合同会社Ｆａｓｔ　Ｌｉｎｋｓ,,合同会社,大阪府,大阪市西淀川区,佃３丁目１８番４号,,27,113,5550001,,,,,,,2025-10-23,1,,,,,ファストリンクス,0
129,1120003031038,新規,0,2025-10-23,2025-10-23,合同会社勝建,,合同会社,大阪府,大阪市中央区,南船場３丁目２番２２号おおきに南船場ビル２０５,,27,128,5420081,,,,,,,2025-10-23,1,,,,,ショウケン,0
130,1120003031054,新規,0,2025-10-23,2025-10-23,合同会社Ｐａｔｉｓｓｅｒｉｅ　ＥＬＥＯＮＯＲＥ,,合同会社,大阪府,寝屋川市,香里新町３番１３号シエンハイツ１階,,27,215,5720085,,,,,,,2025-10-23,1,,,,,パティスリーエレオノール,0
133,1122001039797,新規,0,2025-10-23,2025-10-23,株式会社コンスタンス,,株式会社,大阪府,八尾市,本町２丁目１１番５号,,27,212,5810003,,,,,,,2025-10-23,1,,,,,,0
134,1122003003363,新規,0,2025-10-23,2025-10-23,合同会社裕弘,,合同会社,大阪府,東大阪市,高井田本通２丁目２番３１号,,27,227,5770066,,,,,,,2025-10-23,1,,,,,ユウヒロ,0
138,1130001080853,新規,0,2025-10-23,2025-10-23,株式会社Ｅｌｌｅｎ,,株式会社,京都府,京都市伏見区,深草越後屋敷町４０－１,,26,109,6128431,,,,,,,2025-10-23,1,,,,,エレン,0
141,1140001140482,新規,0,2025-10-23,2025-10-23,株式会社ひとえに,,株式会社,兵庫県,西宮市,芦原町４番１号,00141230,28,204,6620842,,,,,,,2025-10-23,1,,,,,ヒトエニ,0
142,1140001140524,新規,0,2025-10-23,2025-10-23,株式会社エミーユ,,株式会社,兵庫県,西宮市,甲子園高潮町３番３号コロワ甲子園地下１階,,28,204,6638166,,,,,,,2025-10-23,1,,,,,エミーユ,0
143,1140003022745,新規,0,2025-10-23,2025-10-23,合同会社Ａ,,合同会社,兵庫県,尼崎市,御園１丁目８番２－２０１号,,28,202,6610984,,,,,,,2025-10-23,1,,,,,エース,0
144,1140003022761,新規,0,2025-10-23,2025-10-23,合同会社フローメトリクス,,合同会社,兵庫県,淡路市,浦９２２－１メゾン橘５０１,,28,226,6562305,,,,,,,2025-10-23,1,,,,,フローメトリクス,0
148,1160003003636,新規,0,2025-10-23,2025-10-23,ティーワイプラン合同会社,,合同会社,滋賀県,湖南市,北山台２丁目２番地１,,25,211,5203241,,,,,,,2025-10-23,1,,,,,ティーワイプラン,0
157,1180001169139,新規,0,2025-10-23,2025-10-23,株式会社ＡＭＧ,,株式会社,愛知県,名古屋市南区,南陽通６丁目１番地,,23,112,4570856,,,,,,,2025-10-23,1,,,,,エーエムジー,0
162,1180003029191,新規,0,2025-10-23,2025-10-23,合同会社Ｃａｒｄ　Ｖｉｌｌａｇｅ,,合同会社,愛知県,名古屋市中区,栄３丁目１１番５号,,23,106,4600008,,,,,,,2025-10-23,1,,,,,カードヴィレッジ,0
181,1240003007447,新規,0,2025-10-23,2025-10-23,合同会社ＬＵＭＩＥ,,合同会社,広島県,廿日市市,大野３３７７－４夕凪,,34,213,7390488,,,,,,,2025-10-23,1,,,,,リュミエ,0
182,1250001021399,新規,0,2025-10-23,2025-10-23,旭飛産業株式会社,,株式会社,山口県,宇部市,床波２丁目１番１９号,,35,202,7550153,,,,,,,2025-10-23,1,,,,,アサヒサンギョウ,0
187,1260003005382,新規,0,2025-10-23,2025-10-23,合同会社田中商会,,合同会社,岡山県,赤磐市,桜が丘西４丁目１－１４,,33,213,7090802,,,,,,,2025-10-23,1,,,,,タナカショウカイ,0
196,1290001111849,新規,0,2025-10-23,2025-10-23,Ｇｙｐｓｏ　Ｕｎｉｏｎ株式会社,,株式会社,福岡県,糟屋郡久山町,大字久原１８４３番地１８１,,40,348,8112501,,,,,,,2025-10-23,1,,,,,ジプソユニオン,0
202,1290003017565,新規,0,2025-10-23,2025-10-23,合同会社ケアプランここ,,合同会社,福岡県,太宰府市,朱雀３丁目２番２４号,,40,221,8180103,,,,,,,2025-10-23,1,,,,,ケアプランココ,0
207,1330001033675,新規,0,2025-10-23,2025-10-23,ＡＰＥＸ　ＨＰ株式会社,,株式会社,熊本県,菊池郡大津町,大字大津１５１８番地１４,,43,403,8691233,,,,,,,2025-10-23,1,,,,,エイペックスエイチピー,0
217,1340001027726,新規,0,2025-10-23,2025-10-23,ＭＯＢホールディングス株式会社,,株式会社,鹿児島県,姶良市,増田４３０番地１,,46,225,8995403,,,,,,,2025-10-23,1,,,,,モブホールディングス,0
219,1340003004979,新規,0,2025-10-23,2025-10-23,合同会社水蓮,,合同会社,鹿児島県,志布志市,志布志町志布志１９２０－３,,46,221,8997103,,,,,,,2025-10-23,1,,,,,スイレン,0
228,1370001053166,新規,0,2025-10-23,2025-10-23,株式会社サンタ,,株式会社,宮城県,仙台市青葉区,五橋２丁目１０番６－１１０６号,,04,101,9800022,,,,,,,2025-10-23,1,,,,,サンタ,0
234,1380001035659,新規,0,2025-10-23,2025-10-23,株式会社Ｃｕｄｄｌｅ‐ｉ,,株式会社,福島県,福島市,三河南町１番２０号コラッセふくしま６階福島駅西口インキュベートルーム,,07,201,9608053,,,,,,,2025-10-23,1,,,,,カドルアイ,0
238,1410003004170,新規,0,2025-10-23,2025-10-23,合同会社佐藤商事,,合同会社,秋田県,湯沢市,表町４丁目１‐１０第二市川ビル２０１,,05,207,0120827,,,,,,,2025-10-23,1,,,,,,0
241,1430001095499,新規,0,2025-10-23,2025-10-23,株式会社Ｙ　ＮＥＸＴ,,株式会社,北海道,札幌市白石区,東札幌四条１丁目３－２５Ｂｌａｉｓｅ３階,,01,104,0030004,,,,,,,2025-10-23,1,,,,,ワイネクスト,0
242,1430001095516,新規,0,2025-10-23,2025-10-23,株式会社トレーラーハウスサンエイ,,株式会社,北海道,札幌市厚別区,厚別北三条２丁目３－１,,01,108,0040073,,,,,,,2025-10-23,1,,,,,トレーラーハウスサンエイ,0
248,1430003018243,新規,0,2025-10-23,2025-10-23,合同会社イージーゴルフ,,合同会社,北海道,札幌市中央区,南五条西２丁目２,,01,101,0640805,,,,,,,2025-10-23,1,,,,,イージーゴルフ,0
249,1450003002732,新規,0,2025-10-23,2025-10-23,エヴァンス合同会社,,合同会社,北海道,旭川市,旭神三条４丁目７－９,,01,204,0788373,,,,,,,2025-10-23,1,,,,,エヴァンス,0
253,1700150132629,新規,0,2025-10-23,2025-10-23,Ｒ　ＢＲＯＴＨＥＲＳ,,外国会社等,千葉県,八街市,文違３０１－１００５,,12,230,2891104,スリランカ民主社会主義共和国、ポランナルワ、タンバラ、アル、ヒラル、プラ１２１番地,,,,,,2025-10-23,1,,,,,アールブラザース,0
254,1700150132645,新規,0,2025-10-23,2025-10-23,Ｆａｗｊｉ　Ｍｏｔｏｒｓ　Ｅｎｔｅｒｐｒｉｓｅｓ　Ｐｖｔ　Ｌｔｄ,,外国会社等,千葉県,八街市,八街い３２３番地１－２,,12,230,2891143,スリランカ民主社会主義共和国、ホロウポタナ、ガランビトゥヌウェワ、Ｎｏ．１ｔｈレーン,,,,,,2025-10-23,1,,,,,フアウジモータースエンタープライズプライベートリミテツド,0
270,2010005040807,新規,0,2025-10-23,2025-10-23,一般社団法人Ｂｒｉｄｇｅ　ｆｏｒ　Ａｌｌ,,その他の設立登記法人,東京都,千代田区,九段南１丁目５番６号りそな九段ビル５階ＫＳフロア,,13,101,1020074,,,,,,,2025-10-23,1,,,,,ブリッジフォーオール,0
271,2010005040823,新規,0,2025-10-23,2025-10-23,社会保険労務士法人ファースト・マネジメントサービス,,その他の設立登記法人,東京都,千代田区,神田須田町２丁目８番地ＡＳＫビル６階,,13,101,1010041,,,,,,,2025-10-23,1,,,,,ファーストマネジメントサービス,0
279,2010401193605,新規,0,2025-10-23,2025-10-23,株式会社ＨＡＹＭＹＴＨ,,株式会社,東京都,港区,北青山２丁目１２－４,,13,103,1070061,,,,,,,2025-10-23,1,,,,,アイミィス,0
280,2010401193646,新規,0,2025-10-23,2025-10-23,株式会社エスタルファアセット,,株式会社,東京都,港区,北青山１丁目３－３三橋ビル３階,,13,103,1070061,,,,,,,2025-10-23,1,,,,,エスタルファアセット,0
281,2010401193712,新規,0,2025-10-23,2025-10-23,ＡＢＫ　Ｃａｐｉｔａｌ　Ｐａｒｔｎｅｒｓ株式会社,,株式会社,東京都,港区,南青山３丁目１番３６号青山丸竹ビル６階,,13,103,1070062,,,,,,,2025-10-23,1,,,,,エービーケーキャピタルパートナーズ,0
282,2010401193729,新規,0,2025-10-23,2025-10-23,株式会社ユーモク,,株式会社,東京都,港区,北青山１丁目３－３三橋ビル３階,,13,103,1070061,,,,,,,2025-10-23,1,,,,,ユーモク,0
283,2010401193761,新規,0,2025-10-23,2025-10-23,株式会社Ｈｅａｌｅｒ,,株式会社,東京都,港区,南青山１丁目１７－１６ＭＩＲＡＦＥＥＬ４０１,,13,103,1070062,,,,,,,2025-10-23,1,,,,,,0
284,2010401193794,新規,0,2025-10-23,2025-10-23,日本コンサル株式会社,,株式会社,東京都,港区,六本木３丁目７－１－１２１９,,13,103,1060032,,,,,,,2025-10-23,1,,,,,ニッポンコンサル,0
285,2010401193943,新規,0,2025-10-23,2025-10-23,株式会社ＩＧホールディングス,,株式会社,東京都,港区,北青山１丁目３番３号三橋ビル３階,,13,103,1070061,,,,,,,2025-10-23,1,,,,,アイジーホールディングス,0
286,2010401193984,新規,0,2025-10-23,2025-10-23,株式会社ＰｌｎＸ,,株式会社,東京都,港区,南青山３丁目１番３６号青山丸竹ビル６Ｆ,,13,103,1070062,,,,,,,2025-10-23,1,,,,,プランエックス,0
287,2010403036134,新規,0,2025-10-23,2025-10-23,合同会社Ｋｏｍｐｌｉｏｒａ,,合同会社,東京都,港区,北青山１丁目３番１号アールキューブ青山３階,,13,103,1070061,,,,,,,2025-10-23,1,,,,,コンプリオラ,0
289,2010405024905,新規,0,2025-10-23,2025-10-23,一般社団法人中小企業ＡＩ推進協会,,その他の設立登記法人,東京都,港区,新橋６丁目７番２号ＹＡＳＨＩＭＡＢｌｄｇ．６Ｆ,,13,103,1050004,,,,,,,2025-10-23,1,,,,,チュウショウキギョウエーアイスイシンキョウカイ,0
293,2010603011861,新規,0,2025-10-23,2025-10-23,合同会社Ｒｅｎｅｖｅｒ,,合同会社,東京都,墨田区,本所４丁目５番５－３０２号,,13,107,1300004,,,,,,,2025-10-23,1,,,,,リネバー,0
302,2010901058308,新規,0,2025-10-23,2025-10-23,ＰＡＦＭＩＡ株式会社,,株式会社,東京都,世田谷区,経堂１丁目４１番１９号,,13,112,1560052,,,,,,,2025-10-23,1,,,,,パフミア,0
303,2010901058324,新規,0,2025-10-23,2025-10-23,株式会社エイダッシュ,,株式会社,東京都,世田谷区,代田３丁目３７番１３号,,13,112,1550033,,,,,,,2025-10-23,1,,,,,エイダッシュ,0
304,2010903010365,新規,0,2025-10-23,2025-10-23,合同会社美術会館,,合同会社,東京都,世田谷区,北沢４丁目２６番１号,,13,112,1550031,,,,,,,2025-10-23,1,,,,,ビジュツカイカン,0
309,2011001173022,新規,0,2025-10-23,2025-10-23,株式会社ＡＩＤＥＮ　ＬＡＢ　ＪＡＰＡＮ,,株式会社,東京都,渋谷区,神南１丁目１２番１４号渋谷宮田ビル６階,,13,113,1500041,,,,,,,2025-10-23,1,,,,,エイドゥンレッブジャパン,0
310,2011001173063,新規,0,2025-10-23,2025-10-23,株式会社コネクトイノベーション,,株式会社,東京都,渋谷区,渋谷２丁目１９番１９号,,13,113,1500002,,,,,,,2025-10-23,1,,,,,コネクトイノベーション,0
311,2011001173303,新規,0,2025-10-23,2025-10-23,株式会社ＰＥＯＰＬＥ　ＴＡＳＴＥ,,株式会社,東京都,渋谷区,円山町５番５号Ｎａｖｉ渋谷Ｖ３階,,13,113,1500044,,,,,,,2025-10-23,1,,,,,,0
315,2011005011211,新規,0,2025-10-23,2025-10-23,一般社団法人Ｅｘｃｅｌｌｅｎｔ　Ｌｅａｄｅｒｓ,,その他の設立登記法人,東京都,渋谷区,神泉町２１－３渋谷ＹＴビル０２－４階,,13,113,1500045,,,,,,,2025-10-23,1,,,,,エクセレントリーダーズ,0
316,2011101113588,新規,0,2025-10-23,2025-10-23,株式会社とりのえ,,株式会社,東京都,新宿区,上落合２丁目１１番１６号,,13,104,1610034,,,,,,,2025-10-23,1,,,,,トリノエ,0
318,2011103016616,新規,0,2025-10-23,2025-10-23,アイザワ合同会社,,合同会社,東京都,新宿区,西新宿３丁目３番１３号西新宿水間ビル２Ｆ,,13,104,1600023,,,,,,,2025-10-23,1,,,,,アイザワ,0
326,2011501032735,新規,0,2025-10-23,2025-10-23,株式会社Ｄ　ＨＴＯＯ,,株式会社,東京都,荒川区,東尾久１丁目３０番１２－９０４号ダイアパレス田端,,13,118,1160012,,,,,,,2025-10-23,1,,,,,ディートゥー,0
327,2011501032743,新規,0,2025-10-23,2025-10-23,株式会社ＣｈｉｋｕＤａｔａ,,株式会社,東京都,荒川区,南千住３丁目３４番８－８０２号,,13,118,1160003,,,,,,,2025-10-23,1,,,,,チクデータ,0
329,2011601029103,新規,0,2025-10-23,2025-10-23,株式会社Ｓｔｕｄｉｏ２２,,株式会社,東京都,練馬区,光が丘３丁目７番１－１３１０号,,13,120,1790072,,,,,,,2025-10-23,1,,,,,スタジオニジュウニ,0
335,2012401043723,新規,0,2025-10-23,2025-10-23,株式会社嶋本産業,,株式会社,東京都,府中市,清水が丘２丁目５２番地の３９,,13,206,1830015,,,,,,,2025-10-23,1,,,,,シマモトサンギョウ,0
339,2012801024315,新規,0,2025-10-23,2025-10-23,株式会社ＳＴＹＬＥＯＮＥ,,株式会社,東京都,日野市,大字日野４１６番地の７,,13,212,1910012,,,,,,,2025-10-23,1,,,,,スタイルワン,0
343,2013301055172,新規,0,2025-10-23,2025-10-23,株式会社Ｋ８６５,,株式会社,東京都,豊島区,西池袋１丁目４番１０号,,13,116,1710021,,,,,,,2025-10-23,1,,,,,ケーハチロクゴ,0
344,2013301055180,新規,0,2025-10-23,2025-10-23,株式会社サクセス,,株式会社,東京都,豊島区,東池袋２丁目６２番８号ＢＩＧオフィスプラザ池袋１２０６,,13,116,1700013,,,,,,,2025-10-23,1,,,,,サクセス,0
345,2013303007931,新規,0,2025-10-23,2025-10-23,合同会社シフトゥンプロパティ,,合同会社,東京都,豊島区,駒込４丁目９番３８号ブリリア駒込染井６０１号,,13,116,1700003,,,,,,,2025-10-23,1,,,,,シフトゥンプロパティ,0
349,2020001164947,新規,0,2025-10-23,2025-10-23,株式会社ＥＤＯ‐ＡＵＤＩＯ,,株式会社,神奈川県,川崎市高津区,下作延４丁目３－６・２階,,14,134,2130033,,,,,,,2025-10-23,1,,,,,エドオーディオ,0
350,2020001165210,新規,0,2025-10-23,2025-10-23,Ｌａｓｔ　Ｍｉｌｅ　Ｍｅｄｉｃａ株式会社,,株式会社,神奈川県,横浜市戸塚区,戸塚町６００２番地４１ツインズヤマキ２－４０４号,,14,110,2440003,,,,,,,2025-10-23,1,,,,,ラストマイルメディカ,0
352,2020005017011,新規,0,2025-10-23,2025-10-23,一般社団法人Ｖｉｄａ　Ｆｅｌｉｚ,,その他の設立登記法人,神奈川県,横浜市青葉区,奈良４丁目１番地１ルクサージュあおば山の手台Ｂ－１００７号,,14,117,2270038,,,,,,,2025-10-23,1,,,,,ヴィーダフェリース,0
353,2021001086413,新規,0,2025-10-23,2025-10-23,株式会社ＳＫ,,株式会社,神奈川県,相模原市緑区,橋本台１丁目３３番２－２１４号,,14,151,2520132,,,,,,,2025-10-23,1,,,,,エスケー,0
354,2021003016707,新規,0,2025-10-23,2025-10-23,Ｏｂｏｒａ　Ｓｔｒａｔｅｇｙ　Ｃｏｎｓｕｌｔｉｎｇ合同会社,,合同会社,神奈川県,大和市,中央林間西５丁目８－１１,,14,213,2420008,,,,,,,2025-10-23,1,,,,,オオボラストラテジーコンサルティング,0
359,2030001169350,新規,0,2025-10-23,2025-10-23,武井造園土木株式会社,,株式会社,埼玉県,本庄市,小和瀬３０番地,,11,211,3670011,,,,,,,2025-10-23,1,,,,,タケイゾウエンドボク,0
360,2030001169359,新規,0,2025-10-23,2025-10-23,株式会社高野鋼業,,株式会社,埼玉県,上尾市,大字瓦葺１９９５番地１,,11,219,3620022,,,,,,,2025-10-23,1,,,,,タカノコウギョウ,0
363,2030003027894,新規,0,2025-10-23,2025-10-23,合同会社ＯＳＳ　ＴＲＡＤＩＮＧ,,合同会社,埼玉県,羽生市,南６丁目１７番地２９,,11,216,3480053,,,,,,,2025-10-23,1,,,,,オーエスエストレーディング,0
368,2040001141044,新規,0,2025-10-23,2025-10-23,株式会社みらいなコンサルティング,,株式会社,千葉県,船橋市,宮本２丁目３番５号クリオラベルヴィ船橋３０４号,,12,204,2730003,,,,,,,2025-10-23,1,,,,,ミライナコンサルティング,0
369,2040001141052,新規,0,2025-10-23,2025-10-23,株式会社ＷＩＳＥ,,株式会社,千葉県,浦安市,北栄１丁目１２番７号アクイラウラヤスウノ７０７,,12,227,2790002,,,,,,,2025-10-23,1,,,,,ワイズ,0
370,2040001141060,新規,0,2025-10-23,2025-10-23,株式会社創和栄道,,株式会社,千葉県,千葉市美浜区,新港２０２番地辰巳屋ビル１０２,,12,106,2610002,,,,,,,2025-10-23,1,,,,,ソウワエイドウ,0
371,2040001141102,新規,0,2025-10-23,2025-10-23,株式会社ａｎｄｏｗｓ９７,,株式会社,千葉県,我孫子市,青山台４丁目２３－１７,,12,222,2701175,,,,,,,2025-10-23,1,,,,,アンドウズキュウジュウナナ,0
373,2040003028818,新規,0,2025-10-23,2025-10-23,合同会社Ｃｌｉｍｄ,,合同会社,千葉県,木更津市,富士見２丁目２番１４号藤原ビル２階,,12,206,2920831,,,,,,,2025-10-23,1,,,,,クライム,0
374,2040003028826,新規,0,2025-10-23,2025-10-23,合同会社岳泉,,合同会社,千葉県,大網白里市,金谷郷１９７２番地１,,12,239,2993242,,,,,,,2025-10-23,1,,,,,ガクセン,0
380,2070001009437,新規,0,2025-10-23,2025-10-23,株式会社サンエイ,,株式会社,群馬県,高崎市,棟高町１８６８番地,,10,202,3703521,,,,,,,2025-10-23,1,,,,,サンエイ,0
383,2070001043477,新規,0,2025-10-23,2025-10-23,株式会社ＷＥホールディングス,,株式会社,群馬県,高崎市,旭町２６番地２,,10,202,3700052,,,,,,,2025-10-23,1,,,,,,0
387,2080001027231,新規,0,2025-10-23,2025-10-23,株式会社ｔｈｉｃｋ,,株式会社,静岡県,静岡市葵区,両替町２丁目７番地の２８ライブネットレクサス８０２号室,,22,101,4200032,,,,,,,2025-10-23,1,,,,,シック,0
392,2110003005941,新規,0,2025-10-23,2025-10-23,合同会社ニューナガイデンキ,,合同会社,新潟県,新潟市中央区,本町通７番町１１４６番地,,15,103,9518067,,,,,,,2025-10-23,1,,,,,ニューナガイデンキ,0
403,2120001281195,新規,0,2025-10-23,2025-10-23,株式会社Ｐｅｓｃａ,,株式会社,大阪府,大阪市西成区,北開１丁目２番２１号,,27,122,5570021,,,,,,,2025-10-23,1,,,,,ペスカ,0
404,2120001281212,新規,0,2025-10-23,2025-10-23,ＧＢＨ株式会社,,株式会社,大阪府,大阪市東淀川区,菅原３丁目８番９－２０３号,,27,114,5330022,,,,,,,2025-10-23,1,,,,,ジービーエイチ,0
405,2120001281229,新規,0,2025-10-23,2025-10-23,友成株式会社,,株式会社,大阪府,大阪市西成区,聖天下１丁目４番２９号３０３房,,27,122,5570012,,,,,,,2025-10-23,1,,,,,ユウセイ,0
406,2120001281261,新規,0,2025-10-23,2025-10-23,株式会社関西レジャー開発,,株式会社,大阪府,大阪市生野区,巽西２丁目４－１４－６０７,,27,116,5440012,,,,,,,2025-10-23,1,,,,,カンサイレジャーカイハツ,0
407,2120001281278,新規,0,2025-10-23,2025-10-23,ＲｉｎｇＺｅｒｏ株式会社,,株式会社,大阪府,大阪市生野区,鶴橋１丁目１－３３－１００７号室,,27,116,5440031,,,,,,,2025-10-23,1,,,,,リングゼロ,0
408,2120001281286,新規,0,2025-10-23,2025-10-23,株式会社ＲｅＬＩＦＥ,,株式会社,大阪府,大阪市鶴見区,鶴見５丁目２番１３号,,27,124,5380053,,,,,,,2025-10-23,1,,,,,リライフ,0
409,2120001281352,新規,0,2025-10-23,2025-10-23,一勤株式会社,,株式会社,大阪府,大阪市城東区,東中浜９丁目８番２６号１０５室,,27,118,5360023,,,,,,,2025-10-23,1,,,,,イッキン,0
410,2120001281410,新規,0,2025-10-23,2025-10-23,株式会社ミライズ,,株式会社,大阪府,大阪市阿倍野区,阪南町７丁目３番４１号プラネスーペリア２０８号室,,27,119,5450021,,,,,,,2025-10-23,1,,,,,ミライズ,0
415,2120003030996,新規,0,2025-10-23,2025-10-23,合同会社仁友堂,,合同会社,大阪府,大阪市住吉区,東粉浜２丁目１２－１１,,27,120,5580051,,,,,,,2025-10-23,1,,,,,ジンユウドウ,0
416,2120003031086,新規,0,2025-10-23,2025-10-23,鈴木興産合同会社,,合同会社,大阪府,大阪市浪速区,敷津東１丁目６番１２－５０４号,,27,111,5560012,,,,,,,2025-10-23,1,,,,,スズキコウサン,0
429,2120903005908,新規,0,2025-10-23,2025-10-23,合同会社ＣＨＡＲＭＥＢ,,合同会社,大阪府,豊中市,熊野町４丁目３番２２号,,27,203,5600014,,,,,,,2025-10-23,1,,,,,シャルム,0
430,2122001039788,新規,0,2025-10-23,2025-10-23,株式会社ヤオプラ,,株式会社,大阪府,八尾市,太田７丁目３０番地,,27,212,5810037,,,,,,,2025-10-23,1,,,,,ヤオプラ,0
436,2140001140515,新規,0,2025-10-23,2025-10-23,ＯＭＧ　ａｒｔ．株式会社,,株式会社,兵庫県,神戸市中央区,国香通２丁目１－１６井上ビル４０１,,28,110,6510066,,,,,,,2025-10-23,1,,,,,オーエムジーアート,0
437,2140001140523,新規,0,2025-10-23,2025-10-23,尚観商貿株式会社,,株式会社,兵庫県,神戸市中央区,二宮町４丁目８番９号サンモリッツビル３０１号,,28,110,6510093,,,,,,,2025-10-23,1,,,,,ショウカンショウボウ,0
459,2180305009741,新規,0,2025-10-23,2025-10-23,ＮＰＯ法人空き家Ｒｅ活用センター住むトコロ,,その他の設立登記法人,愛知県,安城市,三河安城東町１丁目２０番地７,,23,212,4460057,,,,,,,2025-10-23,1,,,,,,0
472,2240001065685,新規,0,2025-10-23,2025-10-23,医科歯科ＳＥＯコンサルティング株式会社,,株式会社,広島県,福山市,三吉町２丁目１４－８,,34,207,7200031,,,,,,,2025-10-23,1,,,,,イカシカエスイーオーコンサルティング,0
479,2290001111922,新規,0,2025-10-23,2025-10-23,株式会社九州ＧＯＬＤガード,,株式会社,福岡県,久留米市,東合川４丁目９番３０号３階－１,,40,203,8390809,,,,,,,2025-10-23,1,,,,,キュウシュウゴールドガード,0
480,2300003002366,新規,0,2025-10-23,2025-10-23,Ｃｏｍｐａｓｓ　Ｗｏｒｋｓ合同会社,,合同会社,佐賀県,杵島郡江北町,大字佐留志２０２９番地３２,,41,424,8490502,,,,,,,2025-10-23,1,,,,,コンパスワークス,0
484,2320001021358,新規,0,2025-10-23,2025-10-23,株式会社ＭＥＤ８Ｊａｐａｎ,,株式会社,大分県,別府市,大字鶴見４０１４番地の５６,,44,202,8740840,,,,,,,2025-10-23,1,,,,,メドエイトジャパン,0
487,2320003004807,新規,0,2025-10-23,2025-10-23,合同会社菅原,,合同会社,大分県,日田市,大字花月１７９７番地３,,44,204,8770000,,,,,,,2025-10-23,1,,,,,スガハラ,0
495,2350003005050,新規,0,2025-10-23,2025-10-23,合同会社ウィズケア,,合同会社,宮崎県,宮崎市,大字芳士８９４,,45,201,8800123,,,,,,,2025-10-23,1,,,,,ウィズケア,0
502,2420001019301,新規,0,2025-10-23,2025-10-23,株式会社ｓｓ,,株式会社,青森県,弘前市,大字宮園５丁目３４番地１,,02,202,0368063,,,,,,,2025-10-23,1,,,,,エスエス,0
509,2430003018259,新規,0,2025-10-23,2025-10-23,合同会社オイカイワタチ,,合同会社,北海道,千歳市,協和４４３番地の６,,01,224,0691182,,,,,,,2025-10-23,1,,,,,オイカイワタチ,0
519,2490003002059,新規,0,2025-10-23,2025-10-23,合同会社ふるさとバンク,,合同会社,高知県,高知市,横浜２０,,39,201,7810240,,,,,,,2025-10-23,1,,,,,フルサトバンク,0
520,2700150132652,新規,0,2025-10-23,2025-10-23,ＤＯＧＬＯＢＡＬ　ＭＵＬＴＩ　ＧＯＯＤＳ　ＩＭＰＯＲＴＳ＆ＥＸＰＯＲＴ　ＰＶＴ　ＬＩＭＩＴＥＤ,,外国会社等,神奈川県,綾瀬市,吉岡１７３２－２,,14,218,2521124,スリランカ民主社会主義共和国、ＮＯ．３４、２／２、シティホテルマーケット、ダムストリート、コロンボ－１２,,,,,,2025-10-23,1,,,,,ドウグローバルマルチグツズインポートアンドエキスポートプライベツトリミテツド,0
525,3010001259672,新規,0,2025-10-23,2025-10-23,日本生命ゲンコーインターナショナルヘルスグループ株式会社,,株式会社,東京都,文京区,千石４丁目１４番９号,,13,105,1120011,,,,,,,2025-10-23,1,,,,,ニホンセイメイゲンコーインターナショナルヘルスグループ,0
534,3010103002682,新規,0,2025-10-23,2025-10-23,合同会社ハピネス,,合同会社,東京都,八王子市,中野上町４丁目２５番２１号北コーポ１０１号,,13,201,1920041,,,,,,,2025-10-23,1,,,,,ハピネス,0
543,3010401193686,新規,0,2025-10-23,2025-10-23,株式会社つむぎて,,株式会社,東京都,港区,北青山１丁目３－３三橋ビル３階,,13,103,1070061,,,,,,,2025-10-23,1,,,,,ツムギテ,0
544,3010401193728,新規,0,2025-10-23,2025-10-23,オードリー株式会社,,株式会社,東京都,港区,新橋２丁目１３番３号,,13,103,1050004,,,,,,,2025-10-23,1,,,,,オードリー,0
545,3010401193959,新規,0,2025-10-23,2025-10-23,伊隆商事株式会社,,株式会社,東京都,港区,赤坂９丁目２番１４－２０２号,,13,103,1070052,,,,,,,2025-10-23,1,,,,,イリュウショウジ,0
546,3010401193967,新規,0,2025-10-23,2025-10-23,株式会社ＣＯＭＵＰＡＬ,,株式会社,東京都,港区,北青山１丁目３番３号三橋ビル３階,,13,103,1070061,,,,,,,2025-10-23,1,,,,,コムパル,0
547,3010401193983,新規,0,2025-10-23,2025-10-23,株式会社三千年の未来推進機構,,株式会社,東京都,港区,虎ノ門５丁目１３番１号虎ノ門４０ＭＴビル７階,,13,103,1050001,,,,,,,2025-10-23,1,,,,,サンゼンネンノミライスイシンキコウ,0
549,3010403036249,新規,0,2025-10-23,2025-10-23,キイチリゾート合同会社,,合同会社,東京都,港区,六本木６丁目１番４号,,13,103,1060032,,,,,,,2025-10-23,1,,,,,キイチリゾート,0
550,3010403036273,新規,0,2025-10-23,2025-10-23,ＹＰアセットマネジメント合同会社,,合同会社,東京都,港区,南青山１丁目１番１号新青山ビル,,13,103,1070062,,,,,,,2025-10-23,1,,,,,ワイピーアセットマネジメント,0
551,3010403036389,新規,0,2025-10-23,2025-10-23,合同会社Ｆｌｏｗｅｎｃｅ,,合同会社,東京都,港区,北青山１丁目３番１号アールキューブ青山３階,,13,103,1070061,,,,,,,2025-10-23,1,,,,,フロウエンス,0
558,3010601068176,新規,0,2025-10-23,2025-10-23,株式会社Ｓｙｐｎｕｓ,,株式会社,東京都,墨田区,石原１丁目４番６－３０４号,,13,107,1300011,,,,,,,2025-10-23,1,,,,,シプナス,0
566,3010901058323,新規,0,2025-10-23,2025-10-23,Ｂｌｕｅｐｒｉｎｔ　Ｐｅｒｆｏｒｍａｎｃｅ　Ｌａｂ株式会社,,株式会社,東京都,世田谷区,太子堂４丁目１８番１５号マガザン三軒茶屋２－３Ｆ－３,,13,112,1540004,,,,,,,2025-10-23,1,,,,,ブループリントパフォーマンスラボ,0
567,3010903010364,新規,0,2025-10-23,2025-10-23,合同会社ノマです,,合同会社,東京都,世田谷区,北沢３丁目２番１１号,,13,112,1550031,,,,,,,2025-10-23,1,,,,,ノマデス,0
579,3011101113703,新規,0,2025-10-23,2025-10-23,株式会社アルカレッジ,,株式会社,東京都,新宿区,西新宿６丁目５番１号新宿アイランドタワー２階,,13,104,1600023,,,,,,,2025-10-23,1,,,,,アルカレッジ,0
582,3011103016549,新規,0,2025-10-23,2025-10-23,合同会社サイン波商会,,合同会社,東京都,新宿区,新宿１丁目３６－２新宿第七葉山ビル３Ｆ,,13,104,1600022,,,,,,,2025-10-23,1,,,,,サインハショウカイ,0
583,3011401027495,新規,0,2025-10-23,2025-10-23,株式会社大湾,,株式会社,東京都,板橋区,高島平２丁目３３番３号,,13,119,1750082,,,,,,,2025-10-23,1,,,,,ダイワン,0
584,3011405002412,新規,0,2025-10-23,2025-10-23,一般社団法人東京サンライズ教会,,その他の設立登記法人,東京都,板橋区,大山町６番６号,,13,119,1730023,,,,,,,2025-10-23,1,,,,,トウキョウサンライズキョウカイ,0
592,3011801046938,新規,0,2025-10-23,2025-10-23,星雲商事株式会社,,株式会社,東京都,葛飾区,亀有３丁目４番１１－９０４号ＤＩＰＳ亀有駅前,,13,122,1250061,,,,,,,2025-10-23,1,,,,,セイウンショウジ,0
597,3011803007145,新規,0,2025-10-23,2025-10-23,ＰＡＣＩＦＩＣ　ＴＯＫＹＯ合同会社,,合同会社,東京都,足立区,加賀１丁目２２番１４号,,13,121,1230861,,,,,,,2025-10-23,1,,,,,パシフィックトウキョウ,0
601,3012801024314,新規,0,2025-10-23,2025-10-23,株式会社ＤｒｏｎｅＳｉｇｈｔ,,株式会社,東京都,国分寺市,富士本１丁目２７番地１８,,13,214,1850031,,,,,,,2025-10-23,1,,,,,ドローンサイト,0
611,3020001165465,新規,0,2025-10-23,2025-10-23,株式会社フェリアル,,株式会社,神奈川県,横浜市緑区,長津田５丁目１０番１１号,,14,113,2260027,,,,,,,2025-10-23,1,,,,,フェリアル,0
627,3040001140813,新規,0,2025-10-23,2025-10-23,株式会社マネキ・パイプライン,,株式会社,千葉県,柏市,若柴１７８番地４柏の葉キャンパス１４８街区２ショップ＆オフィス棟６Ｆ,,12,217,2770871,,,,,,,2025-10-23,1,,,,,マネキパイプライン,0
628,3040001141043,新規,0,2025-10-23,2025-10-23,Ｍｉｎｅｄｉ株式会社,,株式会社,千葉県,八千代市,上高野１３０４番地４２,,12,221,2760022,,,,,,,2025-10-23,1,,,,,ミネディ,0
629,3040001141084,新規,0,2025-10-23,2025-10-23,株式会社ドットアグリゲーション,,株式会社,千葉県,八千代市,八千代台南１丁目２－１八千代台南一丁目ビル,,12,221,2760033,,,,,,,2025-10-23,1,,,,,ドットアグリゲーション,0
633,3040003028890,新規,0,2025-10-23,2025-10-23,合同会社トリオンモンスター,,合同会社,千葉県,松戸市,二十世紀が丘梨元町３０番地ブランボヌール松戸４０１号,,12,207,2710083,,,,,,,2025-10-23,1,,,,,トリオンモンスター,0
638,3060001038700,新規,0,2025-10-23,2025-10-23,株式会社ＪＯＹＦＵＬ,,株式会社,栃木県,大田原市,中央１丁目１５番１号,,09,210,3240056,,,,,,,2025-10-23,1,,,,,ジョイフル,0
645,3090001019573,新規,0,2025-10-23,2025-10-23,株式会社ＩＭＡＭＯ,,株式会社,山梨県,甲府市,丸の内３丁目３２番２７号１Ｆ,,19,201,4000031,,,,,,,2025-10-23,1,,,,,イマモ,0
654,3110003005940,新規,0,2025-10-23,2025-10-23,合同会社八櫻,,合同会社,新潟県,村上市,飯野桜ケ丘７番１２号,,15,212,9580856,,,,,,,2025-10-23,1,,,,,ヤオウ,0
663,3120001280766,新規,0,2025-10-23,2025-10-23,株式会社ヴァルールコミュニティ,,株式会社,大阪府,大阪市西区,西本町１丁目７番８号,,27,106,5500005,,,,,,,2025-10-23,1,,,,,ヴァルールコミュニティ,0
664,3120001281260,新規,0,2025-10-23,2025-10-23,株式会社ＪＵＪＵ　ＤＨＡＵ＆ＮＥＷＡ　ＫＩＴＣＨＥＮ,,株式会社,大阪府,大阪市住之江区,浜口東２丁目３番１１号,,27,125,5590002,,,,,,,2025-10-23,1,,,,,ズーズーダウアンドネワーキッチン,0
665,3120001281277,新規,0,2025-10-23,2025-10-23,ＣＡＭＰ株式会社,,株式会社,大阪府,大阪市阿倍野区,丸山通１丁目２－４５,,27,119,5450042,,,,,,,2025-10-23,1,,,,,チャンプ,0
666,3120001281368,新規,0,2025-10-23,2025-10-23,株式会社ａｔ．,,株式会社,大阪府,大阪市浪速区,元町１丁目１０番７号プレジオ難波２０９号室,,27,111,5560016,,,,,,,2025-10-23,1,,,,,アット,0
667,3120003030962,新規,0,2025-10-23,2025-10-23,合同会社ビビトキ,,合同会社,大阪府,大阪市東成区,中本３丁目４番２４－１１０２号,,27,115,5370022,,,,,,,2025-10-23,1,,,,,ビビトキ,0
668,3120003030995,新規,0,2025-10-23,2025-10-23,合同会社Ｊ２,,合同会社,大阪府,大阪市都島区,東野田町３丁目１番５号アメニティー京橋６０４号,,27,102,5340024,,,,,,,2025-10-23,1,,,,,ジェイツー,0
670,3120903005923,新規,0,2025-10-23,2025-10-23,合同会社七宝,,合同会社,大阪府,茨木市,島４丁目１５番１０号,,27,211,5670854,,,,,,,2025-10-23,1,,,,,シッポウ,0
673,3122001039754,新規,0,2025-10-23,2025-10-23,株式会社スターチス,,株式会社,大阪府,東大阪市,長田１丁目３番１７号,,27,227,5770015,,,,,,,2025-10-23,1,,,,,スターチス,0
674,3122001039787,新規,0,2025-10-23,2025-10-23,安徳株式会社,,株式会社,大阪府,東大阪市,足代北２丁目２番５号寿ビル３Ｃ,,27,227,5770058,,,,,,,2025-10-23,1,,,,,アントク,0
684,3140001140522,新規,0,2025-10-23,2025-10-23,株式会社Ａｉｚｕ,,株式会社,兵庫県,明石市,大久保町松陰７７５番地の３グリーンフォレストＩＩ２０１号,00141242,28,203,6740053,,,,,,,2025-10-23,1,,,,,アイヅ,0
692,3140003022735,新規,0,2025-10-23,2025-10-23,ＲＩＡＺ　ＴＲＡＤＩＮＧ合同会社,,合同会社,兵庫県,神戸市西区,南別府１丁目６－５ローズハイツ３０６号,,28,111,6512116,,,,,,,2025-10-23,1,,,,,リアズトレーディング,0
693,3140005027674,新規,0,2025-10-23,2025-10-23,特定非営利活動法人ニコニコ,,その他の設立登記法人,兵庫県,神戸市北区,有野町唐櫃字水ナシ４番地１４,,28,109,6511331,,,,,,,2025-10-23,1,,,,,ニコニコ,0
705,3180001169079,新規,0,2025-10-23,2025-10-23,株式会社上野ホールディングス,,株式会社,愛知県,名古屋市名東区,香流１丁目１３１７番地,,23,115,4650005,,,,,,,2025-10-23,1,,,,,ウエノホールディングス,0
706,3180001169252,新規,0,2025-10-23,2025-10-23,株式会社フォーユー,,株式会社,愛知県,春日井市,町田町１丁目２１番地,,23,206,4860936,,,,,,,2025-10-23,1,,,,,フォーユー,0
709,3180301040344,新規,0,2025-10-23,2025-10-23,たはらアグリパークマネジメント株式会社,,株式会社,愛知県,田原市,田原町晩田６３番地の１,,23,231,4413421,,,,,,,2025-10-23,1,,,,,タハラアグリパークマネジメント,0
718,3200001044361,新規,0,2025-10-23,2025-10-23,ミズノミライ工業株式会社,,株式会社,岐阜県,岐阜市,金町６丁目２１岐阜ステーションビル３０４,,21,201,5008842,,,,,,,2025-10-23,1,,,,,ミズノミライコウギョウ,0
721,3220001026985,新規,0,2025-10-23,2025-10-23,ツクヨ情報技工株式会社,,株式会社,石川県,金沢市,此花町５番６号ライフ金沢第１ビル６０１Ａ,,17,201,9200852,,,,,,,2025-10-23,1,,,,,ツクヨジョウホウギコウ,0
724,3240003007453,新規,0,2025-10-23,2025-10-23,オネット合同会社,,合同会社,広島県,広島市佐伯区,五月が丘３丁目２４番３号,,34,108,7315101,,,,,,,2025-10-23,1,,,,,オネット,0
733,3280001009514,新規,0,2025-10-23,2025-10-23,株式会社サンセットセキュリティー,,株式会社,島根県,松江市,学園南１丁目２０番２４号,,32,201,6900826,,,,,,,2025-10-23,1,,,,,サンセットセキュリティー,0
738,3290001111839,新規,0,2025-10-23,2025-10-23,ワンスタイル株式会社,,株式会社,福岡県,福岡市中央区,大名１丁目９番５０－５０１号ネクストオーク大名,,40,133,8100041,,,,,,,2025-10-23,1,,,,,ワンスタイル,0
740,3290003017571,新規,0,2025-10-23,2025-10-23,合同会社愛知メディカル,,合同会社,福岡県,大野城市,若草４丁目３－２３－１０２号,,40,219,8160981,,,,,,,2025-10-23,1,,,,,アイチメディカル,0
754,3360003015337,新規,0,2025-10-23,2025-10-23,合同会社燈,,合同会社,沖縄県,中頭郡北谷町,字港８番地６（２階）,,47,326,9040114,,,,,,,2025-10-23,1,,,,,トモシビ,0
755,3360003015353,新規,0,2025-10-23,2025-10-23,合同会社ＭＯＮＯＬＩＴＨ,,合同会社,沖縄県,沖縄市,諸見里２丁目９番７号モロミザトミリオン２－１,,47,211,9040032,,,,,,,2025-10-23,1,,,,,モノリス,0
767,3430001095514,新規,0,2025-10-23,2025-10-23,株式会社ＹＴＡ,,株式会社,北海道,虻田郡倶知安町,字山田３７番地３６０,,01,400,0440081,,,,,,,2025-10-23,1,,,,,ワイティーエー,0
771,3430003018258,新規,0,2025-10-23,2025-10-23,ＳＫＹＭＯＲＥ合同会社,,合同会社,北海道,札幌市白石区,平和通３丁目南２－１２－１０１,,01,104,0030028,,,,,,,2025-10-23,1,,,,,スカイモア,0
772,3430003018266,新規,0,2025-10-23,2025-10-23,合同会社すしＢＡＲ,,合同会社,北海道,札幌市中央区,南四条西６丁目７－２０,,01,101,0640804,,,,,,,2025-10-23,1,,,,,スシバー,0
782,4010001259589,新規,0,2025-10-23,2025-10-23,株式会社スタンダードラーメン,,株式会社,東京都,千代田区,神田佐久間町２丁目１奥田ビル６Ｆ,,13,101,1010025,,,,,,,2025-10-23,1,,,,,スタンダードラーメン,0
784,4010005040813,新規,0,2025-10-23,2025-10-23,一般社団法人Ｎｏｕｒｉｓｈｉｎｇ　ＭＥＤ　Ｊａｐａｎ,,その他の設立登記法人,東京都,中央区,明石町２番１９号,,13,102,1040044,,,,,,,2025-10-23,1,,,,,ナリシングメドジャパン,0
785,4010101016923,新規,0,2025-10-23,2025-10-23,Ｒｉｎｏｋａメディカルコンサルタント株式会社,,株式会社,東京都,八王子市,子安町４丁目７番１－１０１１号,,13,201,1920904,,,,,,,2025-10-23,1,,,,,リノカメディカルコンサルタント,0
801,4010401193677,新規,0,2025-10-23,2025-10-23,グローバルフードソリューション株式会社,,株式会社,東京都,港区,港南２丁目１６－１イーストワンタワー７Ｆ,,13,103,1080075,,,,,,,2025-10-23,1,,,,,グローバルフードソリューション,0
802,4010401193719,新規,0,2025-10-23,2025-10-23,株式会社ｄｅｆｅｎｄｅｒ,,株式会社,東京都,港区,南青山２丁目２７番２１号,,13,103,1070062,,,,,,,2025-10-23,1,,,,,ディフェンダー,0
803,4010401193727,新規,0,2025-10-23,2025-10-23,株式会社Ｒｅｊｕｖｅｎａｔｉｏｎ　Ｊａｐａｎ,,株式会社,東京都,港区,東麻布１丁目５番１－１００２号,,13,103,1060044,,,,,,,2025-10-23,1,,,,,リジュネーションジャパン,0
804,4010401193909,新規,0,2025-10-23,2025-10-23,株式会社ＪＭＦＣ,,株式会社,東京都,港区,南青山３丁目１番３６号青山丸竹ビル６Ｆ,,13,103,1070062,,,,,,,2025-10-23,1,,,,,ジェイエムエフシー,0
805,4010401193941,新規,0,2025-10-23,2025-10-23,株式会社Ｖｉｔａｎｚａ,,株式会社,東京都,港区,南青山２丁目４番８号Ｌａｐｉｓ青山ＩＩ３０１,00141239,13,103,1070062,,,,,,,2025-10-23,1,,,,,ビタンザ,0
806,4010401193999,新規,0,2025-10-23,2025-10-23,株式会社可楽比,,株式会社,東京都,港区,虎ノ門１丁目１５番１０号,,13,103,1050001,,,,,,,2025-10-23,1,,,,,カラクヒ,0
807,4010401194064,新規,0,2025-10-23,2025-10-23,株式会社東京令和キャピタル,,株式会社,東京都,港区,六本木７丁目１５番７号新六本木ビル８１０,,13,103,1060032,,,,,,,2025-10-23,1,,,,,トウキョウレイワキャピタル,0
808,4010401194072,新規,0,2025-10-23,2025-10-23,株式会社ＪＧ３５,,株式会社,東京都,港区,虎ノ門１丁目３番１号,,13,103,1050001,,,,,,,2025-10-23,1,,,,,ジェイジーサンジュウゴ,0
811,4010403036322,新規,0,2025-10-23,2025-10-23,Ｉｒｕｋａ合同会社,,合同会社,東京都,港区,虎ノ門４丁目３番１号城山トラストタワー３３階,,13,103,1050001,,,,,,,2025-10-23,1,,,,,イルカ,0
814,4010405024812,新規,0,2025-10-23,2025-10-23,一般社団法人ワンロッカー,,その他の設立登記法人,東京都,港区,北青山２丁目７番１３号プラセオ青山ビル３階,,13,103,1070061,,,,,,,2025-10-23,1,,,,,ワンロッカー,0
822,4010703007972,新規,0,2025-10-23,2025-10-23,合同会社ごえもん,,合同会社,東京都,品川区,小山３丁目１４－２－１００３,,13,109,1420062,,,,,,,2025-10-23,1,,,,,ゴエモン,0
827,4010901058289,新規,0,2025-10-23,2025-10-23,株式会社ＣｌｅａｎＲｏｂｏｔｉｃｓ,,株式会社,東京都,世田谷区,代田３丁目１０－３,,13,112,1550033,,,,,,,2025-10-23,1,,,,,クリーンロボティクス,0
840,4011101113628,新規,0,2025-10-23,2025-10-23,ＢＬ‐ＨＴＯＯ株式会社,,株式会社,東京都,新宿区,高田馬場３丁目１８番２－２０７号,,13,104,1690075,,,,,,,2025-10-23,1,,,,,ビエルトゥー,0
841,4011101113660,新規,0,2025-10-23,2025-10-23,株式会社ゆいづむ,,株式会社,東京都,新宿区,高田馬場１丁目３２－１０,,13,104,1690075,,,,,,,2025-10-23,1,,,,,ユイヅム,0
842,4011103016556,新規,0,2025-10-23,2025-10-23,Ｓｅａ‐Ｍｉｎｄ合同会社,,合同会社,東京都,新宿区,歌舞伎町２丁目９番１８号ライオンズプラザ新宿３１４号,,13,104,1600021,,,,,,,2025-10-23,1,,,,,シーマインド,0
844,4011301030986,新規,0,2025-10-23,2025-10-23,永福堂株式会社,,株式会社,東京都,杉並区,永福４丁目２４番１６号,,13,115,1680064,,,,,,,2025-10-23,1,,,,,エイフクドウ,0
849,4011405002411,新規,0,2025-10-23,2025-10-23,ビソー工業労働組合,,その他の設立登記法人,東京都,板橋区,板橋２丁目６４番１３号,,13,119,1730004,,,,,,,2025-10-23,1,,,,,ビソーコウギョウ,0
861,4011801046895,新規,0,2025-10-23,2025-10-23,Ｒｙａｎ’ｓ株式会社,,株式会社,東京都,葛飾区,西新小岩５丁目２８番２０号,,13,122,1240025,,,,,,,2025-10-23,1,,,,,ライアンズ,0
863,4011803007144,新規,0,2025-10-23,2025-10-23,合同会社ＭＲＳ　ＣＯ‐ＯＰＲＡＴＩＯＮ,,合同会社,東京都,葛飾区,高砂３丁目７－５,,13,122,1250054,,,,,,,2025-10-23,1,,,,,エムアールエスコーポレーション,0
867,4013301055179,新規,0,2025-10-23,2025-10-23,株式会社Ｖｉｏｌａｓ,,株式会社,東京都,豊島区,東池袋１丁目３４番５号いちご東池袋ビル６階,,13,116,1700013,,,,,,,2025-10-23,1,,,,,ヴィオラス,0
868,4013301055187,新規,0,2025-10-23,2025-10-23,夜ナ夜ナ工業株式会社,,株式会社,東京都,豊島区,東池袋２丁目６２番８号ＢＩＧオフィスプラザ池袋１２０６,,13,116,1700013,,,,,,,2025-10-23,1,,,,,ヨナヨナコウギョウ,0
869,4013305003778,新規,0,2025-10-23,2025-10-23,一般財団法人日本統合医療支援,,その他の設立登記法人,東京都,豊島区,池袋２丁目５１番８号シルバープラザ池袋１Ｆ,,13,116,1710014,,,,,,,2025-10-23,1,,,,,ニホントウゴウイリョウシエン,0
875,4020001165407,新規,0,2025-10-23,2025-10-23,ＪＡＰＥ株式会社,,株式会社,神奈川県,横浜市西区,北幸２丁目１０番４８号むつみビル３階,,14,103,2200004,,,,,,,2025-10-23,1,,,,,ジェイプ,0
876,4020001165456,新規,0,2025-10-23,2025-10-23,株式会社ｎｏｎ　ｌｅｇａｔｏ,,株式会社,神奈川県,横浜市金沢区,能見台通１１番１６号,,14,108,2360053,,,,,,,2025-10-23,1,,,,,ノンレガート,0
879,4020003029683,新規,0,2025-10-23,2025-10-23,合同会社ヨウザン,,合同会社,神奈川県,横浜市青葉区,あざみ野１丁目７－６ヴィヴァーチェあざみ野２０６,,14,117,2250011,,,,,,,2025-10-23,1,,,,,ヨウザン,0
880,4021001086626,新規,0,2025-10-23,2025-10-23,ＡＵＤＥＮＴＥＳ　Ｃｏｎｓｕｌｔｉｎｇ株式会社,,株式会社,神奈川県,茅ヶ崎市,東海岸南３丁目１番２５号,,14,207,2530054,,,,,,,2025-10-23,1,,,,,オーデンテスコンサルティング,0
893,4030001169324,新規,0,2025-10-23,2025-10-23,株式会社ドライバーのミカタ,,株式会社,埼玉県,川口市,芝高木２丁目１９－２５,,11,203,3330868,,,,,,,2025-10-23,1,,,,,ドライバーノミカタ,0
895,4030003027942,新規,0,2025-10-23,2025-10-23,デルファイ合同会社,,合同会社,埼玉県,富士見市,ふじみ野西３丁目８番地１コスモふじみ野パークフォルム４０９,,11,235,3540035,,,,,,,2025-10-23,1,,,,,デルファイ,0
896,4030005022314,新規,0,2025-10-23,2025-10-23,医療法人健心会,,その他の設立登記法人,埼玉県,さいたま市桜区,中島４丁目５番２５号,,11,106,3380822,,,,,,,2025-10-23,1,,,,,ケンシンカイ,0
900,4040001140762,新規,0,2025-10-23,2025-10-23,株式会社蒼興業,,株式会社,千葉県,千葉市花見川区,千種町３３３番地１千葉北ダイヤモンドマンション４１２号,,12,102,2620012,,,,,,,2025-10-23,1,,,,,アオイコウギョウ,0
901,4040001141050,新規,0,2025-10-23,2025-10-23,株式会社１パーセントレーベル,,株式会社,千葉県,成田市,新町８４９番地２３ウエストＩＩー１０３,00141236,12,211,2860031,,,,,,,2025-10-23,1,,,,,ワンパーセントレーベル,0
902,4040001141059,新規,0,2025-10-23,2025-10-23,株式会社Ｈｕｍａｎ　ＡＩ,,株式会社,千葉県,市川市,菅野１丁目１９－８,,12,203,2720824,,,,,,,2025-10-23,1,,,,,ヒューマンエーアイ,0
903,4040001141067,新規,0,2025-10-23,2025-10-23,株式会社大久保商会,,株式会社,千葉県,野田市,清水１２１番地の１５,,12,208,2780043,,,,,,,2025-10-23,1,,,,,オオクボショウカイ,0
904,4040001141075,新規,0,2025-10-23,2025-10-23,株式会社ＫＧリアルエステート,,株式会社,千葉県,木更津市,中里１丁目９番１３号,,12,206,2920064,,,,,,,2025-10-23,1,,,,,ケイジーリアルエステート,0
907,4040005022908,新規,0,2025-10-23,2025-10-23,医療法人社団ＨＭＣＬ,,その他の設立登記法人,千葉県,松戸市,東松戸３丁目２番地１アルフレンテ３階３０６号,,12,207,2702225,,,,,,,2025-10-23,1,,,,,エイチエムシーエル,0
911,4060001038699,新規,0,2025-10-23,2025-10-23,株式会社裕輝,,株式会社,栃木県,佐野市,高山町１６６７番地,,09,204,3270823,,,,,,,2025-10-23,1,,,,,ユウキ,0
928,4120001280724,新規,0,2025-10-23,2025-10-23,株式会社ＭＲ．ａｃｅ,,株式会社,大阪府,寝屋川市,寝屋１丁目３番１－１０１号,,27,215,5720801,,,,,,,2025-10-23,1,,,,,ミスターエース,0
929,4120001280856,新規,0,2025-10-23,2025-10-23,株式会社ランドマーク難波通天閣,,株式会社,大阪府,大阪市福島区,福島７丁目２０－１８－４３０５,,27,103,5530003,,,,,,,2025-10-23,1,,,,,ランドマークナンバツウテンカク,0
930,4120001280897,新規,0,2025-10-23,2025-10-23,ＹＵＭＥＫ株式会社,,株式会社,大阪府,大阪市旭区,今市１丁目１４番５号,,27,117,5350011,,,,,,,2025-10-23,1,,,,,ユメック,0
931,4120001281037,新規,0,2025-10-23,2025-10-23,株式会社ＴＳＲ,,株式会社,大阪府,大阪市北区,梅田１丁目３番１号大阪駅前第１ビル４Ｆ,,27,127,5300001,,,,,,,2025-10-23,1,,,,,ティーエスアール,0
932,4120001281210,新規,0,2025-10-23,2025-10-23,株式会社ＹＯＧＵＲＴ　ＷＯＲＬＤ　ＪＡＰＡＮ,,株式会社,大阪府,大阪市生野区,桃谷５丁目４番２７号３階,,27,116,5440034,,,,,,,2025-10-23,1,,,,,ヨーグルトワールドジャパン,0
933,4120001281243,新規,0,2025-10-23,2025-10-23,株式会社ＷＡＢＩＳＡＢＩ,,株式会社,大阪府,大阪市北区,梅田１丁目１番３号大阪駅前第３ビル２５階,,27,127,5300001,,,,,,,2025-10-23,1,,,,,ワビサビ,0
934,4120001281284,新規,0,2025-10-23,2025-10-23,株式会社みのか,,株式会社,大阪府,枚方市,伊加賀栄町１４番１２号,,27,210,5730062,,,,,,,2025-10-23,1,,,,,ミノカ,0
935,4120001281326,新規,0,2025-10-23,2025-10-23,株式会社ＭＡＯＭＯ　ＲＥＳＯＲＴ,,株式会社,大阪府,大阪市北区,鶴野町３番９－２８０６号,,27,127,5300014,,,,,,,2025-10-23,1,,,,,マオモリゾート,0
936,4120001281391,新規,0,2025-10-23,2025-10-23,千梓鶴株式会社,,株式会社,大阪府,大阪市東住吉区,湯里６丁目１３－７－１０５,,27,121,5460013,,,,,,,2025-10-23,1,,,,,センシカク,0
937,4120003030978,新規,0,2025-10-23,2025-10-23,ライジングサン合同会社,,合同会社,大阪府,大阪市生野区,林寺２丁目７番２６号,,27,116,5440023,,,,,,,2025-10-23,1,,,,,ライジングサン,0
938,4120003030994,新規,0,2025-10-23,2025-10-23,ＢＴＡ合同会社,,合同会社,大阪府,大阪市西成区,萩之茶屋２丁目６－４ニューかめや２階の７３号室,,27,122,5570004,,,,,,,2025-10-23,1,,,,,ビティーエー,0
939,4120003031043,新規,0,2025-10-23,2025-10-23,合同会社ＡｒｉｅｔｔＡ,,合同会社,大阪府,大阪市北区,曾根崎２丁目１６番１９号メッセージ梅田ビル１階ＯＮｔｈｅＵＭＥＤＡ内,,27,127,5300057,,,,,,,2025-10-23,1,,,,,アリエッタ,0
947,4130001080850,新規,0,2025-10-23,2025-10-23,豊城資産株式会社,,株式会社,京都府,京都市下京区,西木屋町通五条下る南京極町６０－２－Ａ,,26,106,6008117,,,,,,,2025-10-23,1,,,,,トヨジョウシサン,0
949,4130003010871,新規,0,2025-10-23,2025-10-23,丸二合同会社,,合同会社,京都府,京都市右京区,太秦中山町６番地１,,26,108,6168191,,,,,,,2025-10-23,1,,,,,マルニ,0
953,4140001140488,新規,0,2025-10-23,2025-10-23,株式会社ＬＳＤＣ,,株式会社,兵庫県,神戸市東灘区,御影山手５丁目２５番２０号,,28,101,6580065,,,,,,,2025-10-23,1,,,,,エルエスディーシー,0
954,4140001140496,新規,0,2025-10-23,2025-10-23,ユニファイジャパン株式会社,,株式会社,兵庫県,尼崎市,南七松町２丁目１２－２２－２０５,,28,202,6600053,,,,,,,2025-10-23,1,,,,,ユニファイジャパン,0
955,4140003022742,新規,0,2025-10-23,2025-10-23,合同会社Ｎｇ,,合同会社,兵庫県,神戸市中央区,加納町４丁目９番２９号神戸真亜ビル５０４号室,,28,110,6500001,,,,,,,2025-10-23,1,,,,,エヌジー,0
956,4140003022767,新規,0,2025-10-23,2025-10-23,合同会社みんなで行こう,,合同会社,兵庫県,南あわじ市,津井１０４６－３,,28,224,6560341,,,,,,,2025-10-23,1,,,,,ミンナデイコウ,0
969,4180001169136,新規,0,2025-10-23,2025-10-23,株式会社月相,,株式会社,愛知県,名古屋市中区,金山３丁目１５番２０号佐藤マンション７０１号室,,23,106,4600022,,,,,,,2025-10-23,1,,,,,ゲッソウ,0
970,4180001169160,新規,0,2025-10-23,2025-10-23,株式会社石黒興業,,株式会社,愛知県,尾張旭市,井田町３丁目６８番地５６,,23,226,4880024,,,,,,,2025-10-23,1,,,,,イシグロコウギョウ,0
971,4180001169202,新規,0,2025-10-23,2025-10-23,株式会社アーバン企画,,株式会社,愛知県,名古屋市東区,白壁４丁目７９番地の２,,23,102,4610011,,,,,,,2025-10-23,1,,,,,アーバンキカク,0
972,4180001169219,新規,0,2025-10-23,2025-10-23,株式会社Ｒｏｕｔｅ,,株式会社,愛知県,名古屋市東区,砂田橋１丁目１番３－９０７号（サンコート砂田橋）,,23,102,4610045,,,,,,,2025-10-23,1,,,,,ルート,0
977,4180003029271,新規,0,2025-10-23,2025-10-23,合同会社ＴＥＣＭＡＮ,,合同会社,愛知県,愛西市,二子町定納３１１,,23,232,4968038,,,,,,,2025-10-23,1,,,,,テックマン,0
986,4220003004146,新規,0,2025-10-23,2025-10-23,合同会社ＥＮＪＩＮ舎,,合同会社,石川県,かほく市,七窪ハ２０番地８,,17,209,9291122,,,,,,,2025-10-23,1,,,,,エンジンシャ,0
988,4240001065667,新規,0,2025-10-23,2025-10-23,株式会社美間,,株式会社,広島県,広島市西区,都町１１番５号,,34,104,7330023,,,,,,,2025-10-23,1,,,,,ビカン,0
989,4240001065675,新規,0,2025-10-23,2025-10-23,のどか不動さん株式会社,,株式会社,広島県,呉市,中央３丁目８番１６－３０１号,,34,202,7370051,,,,,,,2025-10-23,1,,,,,ノドカフドウサン,0
1022,4340003004992,新規,0,2025-10-23,2025-10-23,ＢＬＵＥ　ＭＯＯＮ合同会社,,合同会社,鹿児島県,いちき串木野市,昭和通２８２－１,,46,219,8960026,,,,,,,2025-10-23,1,,,,,ブルームーン,0
1024,4370001053171,新規,0,2025-10-23,2025-10-23,株式会社三心,,株式会社,宮城県,仙台市泉区,野村字上野下７－２,,04,105,9813124,,,,,,,2025-10-23,1,,,,,サンシン,0
1038,4420001019308,新規,0,2025-10-23,2025-10-23,株式会社ライフデザイン,,株式会社,青森県,三沢市,美野原１丁目１２番地１０号,,02,207,0330033,,,,,,,2025-10-23,1,,,,,ライフデザイン,0
1045,4430001095505,新規,0,2025-10-23,2025-10-23,オープンセサミ北海道株式会社,,株式会社,北海道,札幌市東区,北十四条東７丁目１番３６号マサハルビル２階株式会社フェイバーズクリエイション内,,01,103,0650014,,,,,,,2025-10-23,1,,,,,オープンセサミホッカイドウ,0
1051,4430003018249,新規,0,2025-10-23,2025-10-23,合同会社木々,,合同会社,北海道,札幌市東区,北二十五条東１８丁目２－８,,01,103,0650025,,,,,,,2025-10-23,1,,,,,キギ,0
1052,4430003018257,新規,0,2025-10-23,2025-10-23,合同会社Ｅｌａｎ,,合同会社,北海道,札幌市中央区,南七条西８丁目１０３２番地３,,01,101,0640807,,,,,,,2025-10-23,1,,,,,エラン,0
1058,4490001011191,新規,0,2025-10-23,2025-10-23,株式会社ナツルナヘルラントシャフト,,株式会社,高知県,高知市,朝倉甲５０５番地６,,39,201,7808061,,,,,,,2025-10-23,1,,,,,ナツルナヘルラントシャフト,0
1061,4700150132642,新規,0,2025-10-23,2025-10-23,ＡＺＡ　ＰＲＯＰＥＲＴＩＥＳ　ＰＴＥ．ＬＴＤ．,,外国会社等,,,,,,,,６　ＳＨＥＮＴＯＮ　ＷＡＹ，＃１７－０８，ＯＵＥ　ＤＯＷＮＴＯＷＮ，ＳＩＮＧＡＰＯＲＥ　０６８８０９,,,,,,2025-10-23,1,,,,,アザプロパテイーズプライベートリミテツド,0
1062,4700150132650,新規,0,2025-10-23,2025-10-23,ＨａｎｇｚｈｏｕＦｅａｔｈｅｒＳｔａｒＨｏｍｅｔｅｘ　Ｃｏ．，Ｌｔｄ,,外国会社等,,,,,,,,Ｎｏ．５１８，Ｄｏｎｇｒｕｉ　４ｔｈ　Ｒｏａｄ，Ｘｉｎｔａｎｇ　Ｓｔｒｅｅｔ，Ｘｉａｏｓｈａｎ　Ｄｉｓｔｒｉｃｔ,,,,,,2025-10-23,1,,,,,コウシユウフエザーホームテツクスカンパニーリミテツド,0
1088,5010005040829,新規,0,2025-10-23,2025-10-23,サザンカ０１一般社団法人,,その他の設立登記法人,東京都,千代田区,霞が関３丁目２番５号,,13,101,1000013,,,,,,,2025-10-23,1,,,,,サザンカゼロワン,0
1092,5010401193362,新規,0,2025-10-23,2025-10-23,株式会社ＩＬ,,株式会社,東京都,港区,芝大門２丁目４番５号,,13,103,1050012,,,,,,,2025-10-23,1,,,,,アイエル,0
1093,5010401193701,新規,0,2025-10-23,2025-10-23,グリーンライス株式会社,,株式会社,東京都,港区,赤坂３丁目７番１２号ベストウェスタンホテルフィーノ東京赤坂Ｂ１Ｆ,,13,103,1070052,,,,,,,2025-10-23,1,,,,,グリーンライス,0
1094,5010401193726,新規,0,2025-10-23,2025-10-23,株式会社Ｏｎｔｅｌｌａｓ,,株式会社,東京都,港区,南青山３丁目１番３６号青山丸竹ビル６Ｆ,,13,103,1070062,,,,,,,2025-10-23,1,,,,,オンテラス,0
1095,5010401193965,新規,0,2025-10-23,2025-10-23,株式会社エウレカ,,株式会社,東京都,港区,元麻布１丁目３番１－２２０６号,,13,103,1060046,,,,,,,2025-10-23,1,,,,,エウレカ,0
1096,5010401194039,新規,0,2025-10-23,2025-10-23,アスモビグループ株式会社,,株式会社,東京都,港区,虎ノ門４丁目１番２８号,,13,103,1050001,,,,,,,2025-10-23,1,,,,,アスモビグループ,0
1098,5010403036148,新規,0,2025-10-23,2025-10-23,ストラテジーコンサルティング合同会社,,合同会社,東京都,港区,南青山３丁目１番３６号青山丸竹ビル６Ｆ,,13,103,1070062,,,,,,,2025-10-23,1,,,,,ストラテジーコンサルティング,0
1099,5010403036296,新規,0,2025-10-23,2025-10-23,ＳＩＧＥＮ合同会社,,合同会社,東京都,港区,西麻布１丁目２番１３号デュオ・スカーラ西麻布タワーＣＥＮＴＲＡＬ２０１号室,,13,103,1060031,,,,,,,2025-10-23,1,,,,,サイゲン,0
1102,5010503008047,新規,0,2025-10-23,2025-10-23,ＴＡＩＴＯＵ合同会社,,合同会社,東京都,台東区,台東３丁目４３番６－６０１号,,13,106,1100016,,,,,,,2025-10-23,1,,,,,タイトウ,0
1107,5010903010362,新規,0,2025-10-23,2025-10-23,合同会社こぞりて,,合同会社,東京都,世田谷区,桜新町１丁目１―６メゾンエル桜新町７０３,,13,112,1540015,,,,,,,2025-10-23,1,,,,,コゾリテ,0
1115,5011001173275,新規,0,2025-10-23,2025-10-23,株式会社ＤＵＡＬ　ＭＥＤＩＣＡＬ,,株式会社,東京都,渋谷区,神宮前４丁目７番１号,,13,113,1500001,,,,,,,2025-10-23,1,,,,,デュアルメディカル,0
1119,5011101113569,新規,0,2025-10-23,2025-10-23,東京ブリタニア株式会社,,株式会社,東京都,新宿区,西新宿１丁目２６番２号新宿野村ビル３２階,,13,104,1600023,,,,,,,2025-10-23,1,,,,,トウキョウブリタニア,0
1120,5011101113742,新規,0,2025-10-23,2025-10-23,Ｌｕｎａｓｌａ株式会社,,株式会社,東京都,新宿区,西新宿３丁目３番１３号西新宿水間ビル２Ｆ,,13,104,1600023,,,,,,,2025-10-23,1,,,,,ルナスラ,0
1123,5011301030993,新規,0,2025-10-23,2025-10-23,株式会社エコ・パワーテック,,株式会社,東京都,杉並区,上高井戸１丁目２６番１８号,,13,115,1680074,,,,,,,2025-10-23,1,,,,,エコパワーテック,0
1127,5011403004904,新規,0,2025-10-23,2025-10-23,合同会社リリ物流,,合同会社,東京都,板橋区,志村１丁目１３番１４号ニューライフ志村坂上２０１ブース１０,,13,119,1740056,,,,,,,2025-10-23,1,,,,,リリブツリュウ,0
1134,5012403007418,新規,0,2025-10-23,2025-10-23,合同会社ＩＴＢサービス,,合同会社,東京都,稲城市,平尾３丁目４番地の８,,13,225,2060823,,,,,,,2025-10-23,1,,,,,アイティービーサービス,0
1141,5020001165455,新規,0,2025-10-23,2025-10-23,ジャストアホスピタル株式会社,,株式会社,神奈川県,横浜市神奈川区,金港町５番地１４クアドリフォリオ８階,,14,102,2210056,,,,,,,2025-10-23,1,,,,,ジャストアホスピタル,0
1142,5020001165471,新規,0,2025-10-23,2025-10-23,株式会社Ｓ・ＰＲＯＪＥＣＴ,,株式会社,神奈川県,横浜市中区,常盤町３丁目２２番地３ＴＭ４３ビル３０２,,14,104,2310014,,,,,,,2025-10-23,1,,,,,エスプロジェクト,0
1155,5021001086625,新規,0,2025-10-23,2025-10-23,株式会社Ｖａｎ　Ｈｏｏｄ,,株式会社,神奈川県,相模原市中央区,横山台１丁目２２番５号シティハイムプライムカーサ２０１号室,,14,152,2520241,,,,,,,2025-10-23,1,,,,,ヴァンフッド,0
1156,5021001086641,新規,0,2025-10-23,2025-10-23,株式会社天翔,,株式会社,神奈川県,南足柄市,塚原７４３番地４,,14,217,2500117,,,,,,,2025-10-23,1,,,,,テンショウ,0
1158,5021003016712,新規,0,2025-10-23,2025-10-23,合同会社アミティ,,合同会社,神奈川県,相模原市南区,大野台６丁目１０番２７号,,14,153,2520331,,,,,,,2025-10-23,1,,,,,アミティ,0
1164,5030003027933,新規,0,2025-10-23,2025-10-23,合同会社ＳＡＩＫＩ,,合同会社,埼玉県,川口市,大字木曽呂４７８番地の３７,,11,203,3330831,,,,,,,2025-10-23,1,,,,,サイキ,0
1167,5040001141058,新規,0,2025-10-23,2025-10-23,株式会社ＨＭ,,株式会社,千葉県,印西市,牧の原４丁目１８番地１,,12,231,2701331,,,,,,,2025-10-23,1,,,,,エイチエム,0
1168,5040001141066,新規,0,2025-10-23,2025-10-23,株式会社Ａｃｅ　ｏｎｅ,,株式会社,千葉県,市原市,君塚２丁目９番地６,,12,219,2900051,,,,,,,2025-10-23,1,,,,,エースワン,0
1172,5040003028815,新規,0,2025-10-23,2025-10-23,合同会社ＴＨＥＯ　ＢＬＯＯＭＹ,,合同会社,千葉県,松戸市,大橋１１１５番地の２,,12,207,2702224,,,,,,,2025-10-23,1,,,,,テオブルーミー,0
1173,5040003028823,新規,0,2025-10-23,2025-10-23,合同会社ＬｉｎｋＳｔｒｅａｍ,,合同会社,千葉県,東金市,道庭９８７－６６,,12,213,2830003,,,,,,,2025-10-23,1,,,,,リンクストリーム,0
1182,5070001043482,新規,0,2025-10-23,2025-10-23,株式会社ＳＣＫ,,株式会社,群馬県,高崎市,矢島町７２５番地,,10,202,3700016,,,,,,,2025-10-23,1,,,,,エスシーケイ,0
1185,5070003006165,新規,0,2025-10-23,2025-10-23,合同会社アイビーサポート,,合同会社,群馬県,前橋市,古市町５００番地５,,10,201,3710844,,,,,,,2025-10-23,1,,,,,アイビーサーポート,0
1198,5120001281102,新規,0,2025-10-23,2025-10-23,ＨＡＫＵ　Ｇｌｏｂａｌ株式会社,,株式会社,大阪府,大阪市阿倍野区,天王寺町南２丁目２２番３号ＮＡＧＡＩメゾン天王寺南４０８号室,,27,119,5450002,,,,,,,2025-10-23,1,,,,,ハクグローバル,0
1199,5120001281135,新規,0,2025-10-23,2025-10-23,株式会社天明建装,,株式会社,大阪府,寝屋川市,黒原城内町１０番５号,,27,215,5720050,,,,,,,2025-10-23,1,,,,,テンメイケンソウ,0
1200,5120001281275,新規,0,2025-10-23,2025-10-23,株式会社アイウィーヴ,,株式会社,大阪府,大阪市中央区,南船場１丁目１０番８－８０３号,,27,128,5420081,,,,,,,2025-10-23,1,,,,,アイウィーヴ,0
1201,5120001281291,新規,0,2025-10-23,2025-10-23,株式会社海颯工業,,株式会社,大阪府,大阪市淀川区,西中島５丁目７番地１４号大京ビルマンション６０４号,,27,123,5320011,,,,,,,2025-10-23,1,,,,,ミハヤコウギョウ,0
1202,5120001281399,新規,0,2025-10-23,2025-10-23,株式会社ウイング,,株式会社,大阪府,大阪市東淀川区,東中島１丁目２０番１２号,,27,114,5330033,,,,,,,2025-10-23,1,,,,,ウイング,0
1203,5120003031042,新規,0,2025-10-23,2025-10-23,ドリーム現実合同会社,,合同会社,大阪府,大阪市西成区,松１丁目２番１５号,,27,122,5570034,,,,,,,2025-10-23,1,,,,,ドリームゲンジツ,0
1207,5120005025216,新規,0,2025-10-23,2025-10-23,一般社団法人大阪保険医療推進協議会,,その他の設立登記法人,大阪府,大阪市浪速区,幸町２丁目２－２０清光ビル４階,,27,111,5560021,,,,,,,2025-10-23,1,,,,,オオサカホケンイリョウスイシンキョウギカイ,0
1212,5122003003327,新規,0,2025-10-23,2025-10-23,吉盛合同会社,,合同会社,大阪府,東大阪市,水走１丁目３－４５－２０４室,,27,227,5780921,,,,,,,2025-10-23,1,,,,,キチモリ,0
1215,5130001080866,新規,0,2025-10-23,2025-10-23,株式会社渡辺電工,,株式会社,京都府,向日市,鶏冠井町清水７番地の１,,26,208,6170004,,,,,,,2025-10-23,1,,,,,ワタナベデンコウ,0
1216,5130001080874,新規,0,2025-10-23,2025-10-23,華沁株式会社,,株式会社,京都府,京都市伏見区,深草西浦町１丁目１５番地６,,26,109,6120029,,,,,,,2025-10-23,1,,,,,カシン,0
1217,5130001080882,新規,0,2025-10-23,2025-10-23,ビリーブエステート株式会社,,株式会社,京都府,京都市南区,東九条東札辻町２９番地－７０４号室,00141229,26,107,6018024,,,,,,,2025-10-23,1,,,,,ビリーブエステート,0
1220,5130003010846,新規,0,2025-10-23,2025-10-23,合同会社Ｍａｒｕ　Ｃｒｅａｔｉｖｅ,,合同会社,京都府,京都市下京区,仏光寺通室町東入釘隠町２５５小川京都ビル２１１号室,,26,106,6008423,,,,,,,2025-10-23,1,,,,,マルクリエイティブ,0
1221,5130005017484,新規,0,2025-10-23,2025-10-23,一般社団法人福祉後見センターＭＩＲＡＩ,,その他の設立登記法人,京都府,京都市右京区,西京極北庄境町６１番地７,,26,108,6150802,,,,,,,2025-10-23,1,,,,,フクシコウケンセンターミライ,0
1222,5140001140495,新規,0,2025-10-23,2025-10-23,株式会社クリエイト良紀,,株式会社,兵庫県,神戸市垂水区,名谷町７９３番地,,28,108,6550852,,,,,,,2025-10-23,1,,,,,クリエイトリョウキ,0
1223,5140001140504,新規,0,2025-10-23,2025-10-23,株式会社コアビー,,株式会社,兵庫県,尼崎市,塚口本町１丁目１番６号,,28,202,6610001,,,,,,,2025-10-23,1,,,,,コアビー,0
1224,5140003022758,新規,0,2025-10-23,2025-10-23,合同会社ドモリン,,合同会社,兵庫県,加古川市,加古川町粟津７４９番地の１０,,28,210,6750039,,,,,,,2025-10-23,1,,,,,ドモリン,0
1226,5140005027672,新規,0,2025-10-23,2025-10-23,特定非営利活動法人ＨＯＭＩＥＳこどもの居場所,,その他の設立登記法人,兵庫県,神戸市中央区,下山手通８丁目１１番１２－１０１号,,28,110,6500011,,,,,,,2025-10-23,1,,,,,ホーミーズコドモノイバショ,0
1235,5180001169044,新規,0,2025-10-23,2025-10-23,ＴＡＩＨＥＩ　ＨＤ株式会社,,株式会社,愛知県,知多郡東浦町,大字緒川字三角３９－２,,23,442,4702102,,,,,,,2025-10-23,1,,,,,タイヘイホールディングス,0
1236,5180001169119,新規,0,2025-10-23,2025-10-23,株式会社Ｌａｕｌｅ’ａ,,株式会社,愛知県,名古屋市緑区,平子が丘３３２２番地ルアナヒラ１０１号,,23,114,4580826,,,,,,,2025-10-23,1,,,,,ラウレア,0
1237,5180001169127,新規,0,2025-10-23,2025-10-23,株式会社グリーンライト,,株式会社,愛知県,名古屋市中村区,太閤通４丁目５７番地の２宝マンション名駅太閤通１２０３号,,23,105,4530811,,,,,,,2025-10-23,1,,,,,グリーンライト,0
1238,5180001169176,新規,0,2025-10-23,2025-10-23,アイサンフリート株式会社,,株式会社,愛知県,名古屋市中川区,尾頭橋３丁目６番３９号,,23,110,4540012,,,,,,,2025-10-23,1,,,,,アイサンフリート,0
1239,5180001169192,新規,0,2025-10-23,2025-10-23,株式会社Ｋａｉｒｏｓ　Ｎｅｘｕｓ,,株式会社,愛知県,名古屋市東区,東片端町３３番地の１プレサンスロジェ高岳９０２号,,23,102,4610015,,,,,,,2025-10-23,1,,,,,カイロスネクサス,0
1240,5180001169201,新規,0,2025-10-23,2025-10-23,株式会社今井電設,,株式会社,愛知県,名古屋市南区,観音町１丁目６９番地,,23,112,4570845,,,,,,,2025-10-23,1,,,,,イマイデンセツ,0
1241,5180001169259,新規,0,2025-10-23,2025-10-23,株式会社エム,,株式会社,愛知県,名古屋市港区,木場町９番地の１１シャルマンコーポ木場町１号棟６０５号,,23,111,4550021,,,,,,,2025-10-23,1,,,,,エム,0
1242,5180003029221,新規,0,2025-10-23,2025-10-23,合同会社甦り屋,,合同会社,愛知県,犬山市,上野新町２７２番地１,,23,215,4840078,,,,,,,2025-10-23,1,,,,,ヨミガエリヤ,0
1243,5180301040342,新規,0,2025-10-23,2025-10-23,株式会社ＮＯＥＺ,,株式会社,愛知県,西尾市,上町泡原１６－１,,23,213,4450894,,,,,,,2025-10-23,1,,,,,,0
1246,5200003007117,新規,0,2025-10-23,2025-10-23,合同会社パープルセイル,,合同会社,岐阜県,各務原市,那加石山町１丁目１２０番地１ハイツＦＵＭＩ２０６,,21,213,5040044,,,,,,,2025-10-23,1,,,,,パープルセイル,0
1250,5240001065682,新規,0,2025-10-23,2025-10-23,株式会社シュエンチー,,株式会社,広島県,広島市安佐北区,大林１丁目１４番４２－４号,,34,106,7310201,,,,,,,2025-10-23,1,,,,,シュエンチー,0
1255,5260001040675,新規,0,2025-10-23,2025-10-23,株式会社ＫＡＭＩＫＡＺＥ,,株式会社,岡山県,岡山市北区,平田１６０番地１１９,,33,101,7000952,,,,,,,2025-10-23,1,,,,,カミカゼ,0
1258,5280001009537,新規,0,2025-10-23,2025-10-23,株式会社Ｄｉｇｉｔａｌ　Ｓｏａｒｉｎｇ,,株式会社,島根県,松江市,上東川津町７１４‐１２７,,32,201,6900821,,,,,,,2025-10-23,1,,,,,デジタルソアリング,0
1261,5290001111688,新規,0,2025-10-23,2025-10-23,株式会社ＹＭＴ,,株式会社,福岡県,糟屋郡宇美町,大字井野３２３番地１７,,40,341,8112104,,,,,,,2025-10-23,1,,,,,ワイエムティ,0
1270,5340003004991,新規,0,2025-10-23,2025-10-23,合同会社ケイエスメンテナンス,,合同会社,鹿児島県,霧島市,霧島永水４７２２番地４,,46,218,8994202,,,,,,,2025-10-23,1,,,,,ケイエスメンテナンス,0
1271,5350001019784,新規,0,2025-10-23,2025-10-23,株式会社吉元電気工事,,株式会社,宮崎県,小林市,細野４６６８番地１,,45,205,8860004,,,,,,,2025-10-23,1,,,,,ヨシモトデンキコウジ,0
1275,5370001053170,新規,0,2025-10-23,2025-10-23,ジェーエーエム株式会社,,株式会社,宮城県,名取市,上余田字千刈田７９８－１３,,04,207,9811222,,,,,,,2025-10-23,1,,,,,ジェーエーエム,0
1295,5430001095454,新規,0,2025-10-23,2025-10-23,株式会社ヤマヒロ,,株式会社,北海道,札幌市豊平区,平岸八条１２丁目１－２,,01,105,0620938,,,,,,,2025-10-23,1,,,,,ヤマヒロ,0
1299,5430003018248,新規,0,2025-10-23,2025-10-23,合同会社Ｈ’ｒｃ,,合同会社,北海道,札幌市南区,川沿十条３丁目１１番２２号,,01,106,0050810,,,,,,,2025-10-23,1,,,,,エイチアールシー,0
1300,5430005015342,新規,0,2025-10-23,2025-10-23,特定非営利活動法人ＳＯＵＮＤ　ＦＯＵＮ,,その他の設立登記法人,北海道,札幌市中央区,南二十三条西１５丁目１－１ダイアナ南山鼻ヒルズＢ－４Ｆ,,01,101,0640923,,,,,,,2025-10-23,1,,,,,サウンドファウン,0
1305,5480001012990,新規,0,2025-10-23,2025-10-23,株式会社和泉,,株式会社,徳島県,板野郡藍住町,東中富字敷地傍示５０番地１,,36,403,7711223,,,,,,,2025-10-23,1,,,,,イズミ,0
1317,6010001259067,新規,0,2025-10-23,2025-10-23,ミツワ株式会社,,株式会社,東京都,千代田区,三番町２番地１ザ・パークハウスグラン千鳥ヶ淵８０１号,,13,101,1020075,,,,,,,2025-10-23,1,,,,,ミツワ,0
1318,6010001259562,新規,0,2025-10-23,2025-10-23,Ｓｉｌｉｃｏｎ　Ｃａｔａｌｙｓｔ　Ｊａｐａｎ　Ｃａｐｉｔａｌ株式会社,,株式会社,東京都,中央区,日本橋室町１丁目１１番１２号日本橋水野ビル７階,,13,102,1030022,,,,,,,2025-10-23,1,,,,,シリコンカタリストジャパンキャピタル,0
1319,6010001259653,新規,0,2025-10-23,2025-10-23,ＯＺＯＮＥ株式会社,,株式会社,東京都,千代田区,三番町３０－６日興パレス三番町５０２,,13,101,1020075,,,,,,,2025-10-23,1,,,,,オゾン,0
1322,6010003049136,新規,0,2025-10-23,2025-10-23,浅草２合同会社,,合同会社,東京都,千代田区,神田小川町３丁目２６番８号神田小川町三丁目ビル６階,,13,101,1010052,,,,,,,2025-10-23,1,,,,,アサクサツー,0
1324,6010005040828,新規,0,2025-10-23,2025-10-23,Ｒｅｄ　ＭＬ一般社団法人,,その他の設立登記法人,東京都,千代田区,霞が関３丁目２番５号,,13,101,1000013,,,,,,,2025-10-23,1,,,,,レッドエムエル,0
1335,6010401193700,新規,0,2025-10-23,2025-10-23,シンクロ・ライフキャリア株式会社,,株式会社,東京都,港区,虎ノ門１丁目１６番６号虎ノ門ＲＡＰＯ－ＴＯビルＵＣＦ７０３,,13,103,1050001,,,,,,,2025-10-23,1,,,,,シンクロライフキャリア,0
1336,6010401193857,新規,0,2025-10-23,2025-10-23,株式会社エイトエックス,,株式会社,東京都,港区,港南２丁目１５番１号品川インターシティＡ棟２８階,,13,103,1080075,,,,,,,2025-10-23,1,,,,,エイトエックス,0
1337,6010401193923,新規,0,2025-10-23,2025-10-23,株式会社ＭＹＯＵ,,株式会社,東京都,港区,六本木４丁目８－７－Ｂ１Ｆ,,13,103,1060032,,,,,,,2025-10-23,1,,,,,ミョウ,0
1338,6010401193964,新規,0,2025-10-23,2025-10-23,東洋シップファンド０３号株式会社,,株式会社,東京都,港区,新橋４丁目３０番６号京急中はらビル５Ｆ,,13,103,1050004,,,,,,,2025-10-23,1,,,,,トウヨウシップファンドゼロサンゴウ,0
1339,6010401193972,新規,0,2025-10-23,2025-10-23,匠土地株式会社,,株式会社,東京都,港区,浜松町１丁目２９番６号浜松町セントラルビル２階,,13,103,1050013,,,,,,,2025-10-23,1,,,,,タクミトチ,0
1340,6010401194046,新規,0,2025-10-23,2025-10-23,ｋｎａｄｅ株式会社,,株式会社,東京都,港区,北青山１丁目３―３三橋ビル３階,,13,103,1070061,,,,,,,2025-10-23,1,,,,,カナデ,0
1341,6010401194070,新規,0,2025-10-23,2025-10-23,株式会社Ｕｃａｐｉ,,株式会社,東京都,港区,白金台５丁目８番３号,,13,103,1080071,,,,,,,2025-10-23,1,,,,,ユーキャピ,0
1344,6010403036262,新規,0,2025-10-23,2025-10-23,合同会社食と人,,合同会社,東京都,港区,東麻布１丁目２６番２号１２０２,,13,103,1060044,,,,,,,2025-10-23,1,,,,,,0
1345,6010403036329,新規,0,2025-10-23,2025-10-23,Ｔａｋｅｎａｋａ　Ａｕｔｏｓｐｏｒｔ合同会社,,合同会社,東京都,港区,港南２丁目１５番１号品川インターシティＡ棟２８階,,13,103,1080075,,,,,,,2025-10-23,1,,,,,タケナカオートスポーツ,0
1351,6010701048439,新規,0,2025-10-23,2025-10-23,白雪株式会社,,株式会社,東京都,品川区,北品川５丁目５－１５,,13,109,1410001,,,,,,,2025-10-23,1,,,,,シラユキ,0
1352,6010703007962,新規,0,2025-10-23,2025-10-23,ｓｗｉｐｅ合同会社,,合同会社,東京都,品川区,小山２丁目１７番３０号第三コーポタカバ３０３,,13,109,1420062,,,,,,,2025-10-23,1,,,,,スワイプ,0
1356,6010901058279,新規,0,2025-10-23,2025-10-23,株式会社ＦＡＣＴ,,株式会社,東京都,世田谷区,羽根木２丁目１７番８号,,13,112,1560042,,,,,,,2025-10-23,1,,,,,ファクト,0
1357,6010901058320,新規,0,2025-10-23,2025-10-23,オフィス六・７株式会社,,株式会社,東京都,世田谷区,北沢４丁目９番７号スタジオショーイ２－Ａ,,13,112,1550031,,,,,,,2025-10-23,1,,,,,オフィスロクナナ,0
1359,6011001173217,新規,0,2025-10-23,2025-10-23,ＭＧＡＬ株式会社,,株式会社,東京都,渋谷区,恵比寿西２丁目４番８号ウィンド恵比寿ビル８Ｆ,,13,113,1500021,,,,,,,2025-10-23,1,,,,,エムガル,0
1360,6011001173349,新規,0,2025-10-23,2025-10-23,ベルジャヤ箱根株式会社,,株式会社,東京都,渋谷区,恵比寿西２丁目１７番２０号,,13,113,1500021,,,,,,,2025-10-23,1,,,,,ベルジャヤハコネ,0
1361,6011001173357,新規,0,2025-10-23,2025-10-23,株式会社シラゾン,,株式会社,東京都,渋谷区,恵比寿西２丁目４番８号ウィンド恵比寿ビル８Ｆ,,13,113,1500021,,,,,,,2025-10-23,1,,,,,シラゾン,0
1365,6011101113535,新規,0,2025-10-23,2025-10-23,ＩｎＱｕｕａｔｅｒ株式会社,,株式会社,東京都,新宿区,新宿１丁目２０番１３号花園公園ビル６階,,13,104,1600022,,,,,,,2025-10-23,1,,,,,インクウォーター,0
1366,6011101113576,新規,0,2025-10-23,2025-10-23,株式会社アロマプロジェクト,,株式会社,東京都,新宿区,若葉１丁目１６番１号メゾン四谷見附公園２０２,,13,104,1600011,,,,,,,2025-10-23,1,,,,,アロマプロジェクト,0
1367,6011101113634,新規,0,2025-10-23,2025-10-23,華彩学院株式会社,,株式会社,東京都,新宿区,西新宿１丁目２６－２新宿野村ビル３２階,,13,104,1600023,,,,,,,2025-10-23,1,,,,,カサイガクイン,0
1368,6011101113725,新規,0,2025-10-23,2025-10-23,アーケロン株式会社,,株式会社,東京都,新宿区,神楽坂６丁目８,,13,104,1620825,,,,,,,2025-10-23,1,,,,,アーケロン,0
1370,6011103016546,新規,0,2025-10-23,2025-10-23,合同会社Ｍａｒｉａ’ｎＡ,,合同会社,東京都,新宿区,西新宿７丁目１９－２２新宿ダイカンプラザシティＩ５１０,00141234,13,104,1600023,,,,,,,2025-10-23,1,,,,,マリアナ,0
1372,6011201026744,新規,0,2025-10-23,2025-10-23,株式会社オリノフーズ,,株式会社,東京都,中野区,中央１丁目４２番５号,,13,114,1640011,,,,,,,2025-10-23,1,,,,,オリノフーズ,0
1387,6011803007118,新規,0,2025-10-23,2025-10-23,ＫｕＲｕＭｉ合同会社,,合同会社,東京都,足立区,保木間４丁目１番１０号,,13,121,1210064,,,,,,,2025-10-23,1,,,,,クルミ,0
1388,6011803007134,新規,0,2025-10-23,2025-10-23,合同会社進,,合同会社,東京都,葛飾区,水元２丁目５－１８ペルシティ１０１,,13,122,1250032,,,,,,,2025-10-23,1,,,,,シン,0
1392,6013301055177,新規,0,2025-10-23,2025-10-23,株式会社ＬｕｄｅｎＡｒｔｓ,,株式会社,東京都,豊島区,池袋２丁目６１－８アゼリア青新ビル４０３,,13,116,1710014,,,,,,,2025-10-23,1,,,,,ルーデンアーツ,0
1393,6013301055193,新規,0,2025-10-23,2025-10-23,株式会社ＭＹＮＴＡＩ,,株式会社,東京都,豊島区,東池袋２丁目６２番８号ＢＩＧオフィスプラザ池袋１２０６,,13,116,1700013,,,,,,,2025-10-23,1,,,,,ミンタイ,0
1408,6021001086632,新規,0,2025-10-23,2025-10-23,株式会社天響,,株式会社,神奈川県,相模原市中央区,上溝１５５６番地１,,14,152,2520243,,,,,,,2025-10-23,1,,,,,テンキョウ,0
1409,6021001086640,新規,0,2025-10-23,2025-10-23,株式会社ＣＩＶＥＸＵＳ,,株式会社,神奈川県,小田原市,南町４丁目１－５７－１４０３,,14,206,2500013,,,,,,,2025-10-23,1,,,,,シヴェクサス,0
1418,6030001169033,新規,0,2025-10-23,2025-10-23,Ｈｉｇｈ‐Ａ株式会社,,株式会社,埼玉県,川口市,上青木２丁目１５番５号,,11,203,3330844,,,,,,,2025-10-23,1,,,,,ハイエース,0
1425,6030003027908,新規,0,2025-10-23,2025-10-23,合同会社ＫＲＥＡ,,合同会社,埼玉県,上尾市,二ツ宮８０８番地１サンモールＩＩＡ１０１,00141231,11,219,3620017,,,,,,,2025-10-23,1,,,,,クレア,0
1426,6030003027949,新規,0,2025-10-23,2025-10-23,新栄商事合同会社,,合同会社,埼玉県,川越市,豊田町１丁目８番地３７,,11,201,3501110,,,,,,,2025-10-23,1,,,,,シンエイショウジ,0
1432,6040001141049,新規,0,2025-10-23,2025-10-23,京葉興産株式会社,,株式会社,千葉県,市原市,海保２７１番地,,12,219,2900266,,,,,,,2025-10-23,1,,,,,ケイヨウコウサン,0
1433,6040001141065,新規,0,2025-10-23,2025-10-23,株式会社ネット集客ラボ,,株式会社,千葉県,船橋市,海神町西１丁目１１９３番地１西船橋ファミリーマンション５０８号,,12,204,2730027,,,,,,,2025-10-23,1,,,,,ネットシュウキャクラボ,0
1435,6040003028822,新規,0,2025-10-23,2025-10-23,合同会社テト,,合同会社,千葉県,千葉市稲毛区,園生町１２２３番地１稲毛パークハウスＢ棟６１０号,,12,103,2630051,,,,,,,2025-10-23,1,,,,,テト,0
1450,6100003008438,新規,0,2025-10-23,2025-10-23,合同会社こもれび,,合同会社,長野県,須坂市,大字豊丘３６５番地１５ビレッジハウス豊丘１号棟４０５号室,,20,207,3820921,,,,,,,2025-10-23,1,,,,,コモレビ,0
1452,6110001039665,新規,0,2025-10-23,2025-10-23,ＹＭｓｅｒｖｉｃｅ株式会社,,株式会社,新潟県,新潟市東区,新石山２丁目３番地６,,15,102,9500851,,,,,,,2025-10-23,1,,,,,ワイエムサービス,0
1457,6120001281142,新規,0,2025-10-23,2025-10-23,和楽株式会社,,株式会社,大阪府,大阪市都島区,都島本通３丁目１８番４号２０８－６号室,,27,102,5340021,,,,,,,2025-10-23,1,,,,,ワラク,0
1458,6120001281316,新規,0,2025-10-23,2025-10-23,株式会社８７ＳＯＬＵＴＩＯＮ,,株式会社,大阪府,大阪市北区,西天満６丁目４－８－１００２,,27,127,5300047,,,,,,,2025-10-23,1,,,,,エイティーセブンソリューション,0
1459,6120001281340,新規,0,2025-10-23,2025-10-23,株式会社ＣｏＣｏＲｏｎｙ,,株式会社,大阪府,大阪市淀川区,西中島４丁目５番１号,,27,123,5320011,,,,,,,2025-10-23,1,,,,,ココロニー,0
1460,6120001281365,新規,0,2025-10-23,2025-10-23,株式会社スズキコンサルティング,,株式会社,大阪府,大阪市北区,天神橋２丁目北１番２１号八千代ビル東館,,27,127,5300041,,,,,,,2025-10-23,1,,,,,スズキコンサルティング,0
1461,6120001281398,新規,0,2025-10-23,2025-10-23,株式会社ＡＫＡＲＩ,,株式会社,大阪府,大阪市東淀川区,東中島１丁目２０番１２号,,27,114,5330033,,,,,,,2025-10-23,1,,,,,アカリ,0
1466,6120003031066,新規,0,2025-10-23,2025-10-23,合同会社フレンド・ミー,,合同会社,大阪府,大阪市淀川区,塚本３丁目１３番１６号フェイス本社ビル１階,00141232,27,123,5320026,,,,,,,2025-10-23,1,,,,,フレンドミー,0
1469,6120901051710,新規,0,2025-10-23,2025-10-23,Ｋカンパニー株式会社,,株式会社,大阪府,箕面市,小野原西６丁目１９番１９号,,27,220,5620032,,,,,,,2025-10-23,1,,,,,ケーカンパニー,0
1472,6122001039776,新規,0,2025-10-23,2025-10-23,株式会社Ｖｅｇａ　Ｊｅｗｅｌ,,株式会社,大阪府,柏原市,古町１丁目１１番５号,,27,221,5820008,,,,,,,2025-10-23,1,,,,,ベガジュエル,0
1473,6122001039792,新規,0,2025-10-23,2025-10-23,株式会社エムエス・プラス,,株式会社,大阪府,八尾市,山本町南４丁目１１番４号,,27,212,5810013,,,,,,,2025-10-23,1,,,,,エムエスプラス,0
1475,6130001080873,新規,0,2025-10-23,2025-10-23,株式会社明織,,株式会社,京都府,京都市北区,大北山原谷乾町２２番地の７,,26,101,6038487,,,,,,,2025-10-23,1,,,,,メイショク,0
1477,6130005017491,新規,0,2025-10-23,2025-10-23,行政書士法人烏丸会計事務所,,その他の設立登記法人,京都府,京都市中京区,烏丸通錦小路上る手洗水町６５９番地烏丸中央ビル６階,,26,104,6048152,,,,,,,2025-10-23,1,,,,,カラスマカイケイジムショ,0
1485,6140001140420,新規,0,2025-10-23,2025-10-23,株式会社Ｌ,,株式会社,兵庫県,神戸市東灘区,岡本７丁目２４番１号,,28,101,6580072,,,,,,,2025-10-23,1,,,,,エル,0
1486,6140001140494,新規,0,2025-10-23,2025-10-23,株式会社山本算盤店,,株式会社,兵庫県,小野市,下来住町８８７番地,,28,218,6751344,,,,,,,2025-10-23,1,,,,,ヤマモトソロバンテン,0
1487,6140001140503,新規,0,2025-10-23,2025-10-23,株式会社和栄,,株式会社,兵庫県,姫路市,網干区高田２５７番地,,28,201,6711226,,,,,,,2025-10-23,1,,,,,ワエイ,0
1488,6140001140528,新規,0,2025-10-23,2025-10-23,株式会社西都,,株式会社,兵庫県,尼崎市,塚口町３丁目３６番地の５,,28,202,6610002,,,,,,,2025-10-23,1,,,,,サイト,0
1489,6140003022765,新規,0,2025-10-23,2025-10-23,ラーニクス合同会社,,合同会社,兵庫県,神戸市中央区,磯辺通１丁目１番１８号カサベラ国際プラザビル７０７号室,,28,110,6510084,,,,,,,2025-10-23,1,,,,,ラーニクス,0
1495,6170001018845,新規,0,2025-10-23,2025-10-23,株式会社三喜遊ＬＦ,,株式会社,和歌山県,海草郡紀美野町,大角１８４番地５,,30,304,6401222,,,,,,,2025-10-23,1,,,,,サンキュウエルエフ,0
1511,6180001169183,新規,0,2025-10-23,2025-10-23,株式会社ＩＣ　Ｅｎｔｅｒｔａｉｎｍｅｎｔ,,株式会社,愛知県,名古屋市中区,門前町１番１２号,,23,106,4600018,,,,,,,2025-10-23,1,,,,,アイシーエンターテインメント,0
1512,6180001169209,新規,0,2025-10-23,2025-10-23,Ａｒｔ　Ｏｆ　Ｅｄｇｅ株式会社,,株式会社,愛知県,名古屋市北区,志賀町４丁目５４番地２拓宝ビル,,23,103,4620037,,,,,,,2025-10-23,1,,,,,アートオブエッジ,0
1517,6180003029286,新規,0,2025-10-23,2025-10-23,エリジョン商会合同会社,,合同会社,愛知県,あま市,森山江端４８番地,,23,237,4901223,,,,,,,2025-10-23,1,,,,,エリジョンショウカイ,0
1519,6180303006778,新規,0,2025-10-23,2025-10-23,合同会社Ｍｉｒａｓｅｅｚ,,合同会社,愛知県,豊田市,岩倉町平古３１番地４,,23,211,4442225,,,,,,,2025-10-23,1,,,,,,0
1525,6200001044359,新規,0,2025-10-23,2025-10-23,中日伸和貿易株式会社,,株式会社,岐阜県,各務原市,鵜沼朝日町２丁目７９番地,,21,213,5090145,,,,,,,2025-10-23,1,,,,,チュウニチシンワボウエキ,0
1526,6200001044367,新規,0,2025-10-23,2025-10-23,株式会社Ｋ‐ｓｔｙｌｅ,,株式会社,岐阜県,多治見市,赤坂町４丁目５３番地の４,,21,204,5070057,,,,,,,2025-10-23,1,,,,,ケイスタイル,0
1528,6200003007116,新規,0,2025-10-23,2025-10-23,合同会社ＬＡＢ,,合同会社,岐阜県,岐阜市,上土居１丁目１番５号,,21,201,5020803,,,,,,,2025-10-23,1,,,,,ラボ,0
1531,6220001026990,新規,0,2025-10-23,2025-10-23,コレズ株式会社,,株式会社,石川県,金沢市,広岡３丁目１番１号金沢パークビル８階,,17,201,9200031,,,,,,,2025-10-23,1,,,,,コレズ,0
1542,6260001040674,新規,0,2025-10-23,2025-10-23,株式会社ベルっ娘,,株式会社,岡山県,岡山市東区,北幸田５１１番地７,,33,103,7048134,,,,,,,2025-10-23,1,,,,,ベルッコ,0
1544,6260005011531,新規,0,2025-10-23,2025-10-23,社会福祉法人五聖福祉会,,その他の設立登記法人,岡山県,倉敷市,児島下の町１丁目１番１６号,,33,202,7110906,,,,,,,2025-10-23,1,,,,,ゴセイフクシカイ,0
1547,6290001111695,新規,0,2025-10-23,2025-10-23,株式会社エアライングループ,,株式会社,福岡県,福岡市中央区,白金１丁目１７番３４－１００２号,,40,133,8100012,,,,,,,2025-10-23,1,,,,,エアライングループ,0
1548,6290001111836,新規,0,2025-10-23,2025-10-23,株式会社ＦｉｖｅＫｎｏｔ,,株式会社,福岡県,福岡市博多区,博多駅前３丁目２２番６号ビジネス・ワン博多駅前ビル６Ｆ,,40,132,8120011,,,,,,,2025-10-23,1,,,,,ファイブノット,0
1549,6290001111885,新規,0,2025-10-23,2025-10-23,株式会社Ｓ．Ｐ．Ｈ,,株式会社,福岡県,福岡市博多区,博多駅前１丁目２３番２号ＰａｒｋＦｒｏｎｔ博多駅前１丁目５Ｆ－Ｂ,,40,132,8120011,,,,,,,2025-10-23,1,,,,,エスピーエイチ,0
1550,6290001111893,新規,0,2025-10-23,2025-10-23,株式会社和田モーターサービス,,株式会社,福岡県,福岡市博多区,東那珂２丁目２１番８号,,40,132,8120892,,,,,,,2025-10-23,1,,,,,ワダモーターサービス,0
1555,6300001014392,新規,0,2025-10-23,2025-10-23,株式会社ＮＡＣＳ,,株式会社,佐賀県,佐賀市,巨勢町修理田３３２番地１,,41,201,8400001,,,,,,,2025-10-23,1,,,,,ナックス,0
1559,6320001021404,新規,0,2025-10-23,2025-10-23,株式会社ムーンエステート,,株式会社,大分県,大分市,大字城原１６８５番地の２,,44,201,8700267,,,,,,,2025-10-23,1,,,,,ムーンエステート,0
1570,6360001035945,新規,0,2025-10-23,2025-10-23,株式会社ＢｅｌｌｅＪａｚｅ,,株式会社,沖縄県,那覇市,辻１丁目５番２号,00141241,47,201,9000037,,,,,,,2025-10-23,1,,,,,ベルジェイズ,0
1572,6370003007347,新規,0,2025-10-23,2025-10-23,Ｍｙ　Ｈｏｍｅ合同会社,,合同会社,宮城県,石巻市,門脇字青葉西４３番地３八乙女アパート３号棟,,04,202,9860853,,,,,,,2025-10-23,1,,,,,マイホーム,0
1580,6420001019314,新規,0,2025-10-23,2025-10-23,株式会社とりにくランド,,株式会社,青森県,青森市,松原１丁目５番１６号,,02,201,0300813,,,,,,,2025-10-23,1,,,,,トリニクランド,0
1581,6430001095494,新規,0,2025-10-23,2025-10-23,株式会社Ｃｏｃｏｄａｓ,,株式会社,北海道,札幌市中央区,南二条西２０丁目２－３ロータリー２０ビル３階Ｃ号室,,01,101,0640802,,,,,,,2025-10-23,1,,,,,,0
1587,6470005006659,新規,0,2025-10-23,2025-10-23,一般社団法人小豆島ハイランドパートナーズ協会,,その他の設立登記法人,香川県,小豆郡小豆島町,西村甲１７４１番地,,37,324,7614434,,,,,,,2025-10-23,1,,,,,ショウドシマハイランドパートナーズキョウカイ,0
1591,6700150132649,新規,0,2025-10-23,2025-10-23,ＱＩＡＮ　ＲＯＮＧ　ＴＲＡＤＩＮＧ　ＬＩＭＩＴＥＤ,,外国会社等,,,,,,,,ＦＡＣＴＯＲＹ　ＵＮＩＴ　１３　ＯＮ　８／Ｆ　ＯＦ　ＢＬＯＣＫ　Ａ，ＴＡＫ　ＬＥＥ　ＩＮＤＵＳＴＲＩＡＬ　ＣＥＮＴＲＥ，ＮＯ．８　ＴＳＩＮＧ　ＹＥＵＮＧ　ＣＩＲＣＵＩＴ,,,,,,2025-10-23,1,,,,,チエンロントレーデイングリミテツド,0
1603,7010401193633,新規,0,2025-10-23,2025-10-23,株式会社九善,,株式会社,東京都,港区,芝４丁目７番６号芝ビルディング７０４,,13,103,1080014,,,,,,,2025-10-23,1,,,,,キュウゼン,0
1604,7010401193658,新規,0,2025-10-23,2025-10-23,Ａｌｉｅｎｃｅ株式会社,,株式会社,東京都,港区,六本木４丁目２－１４,,13,103,1060032,,,,,,,2025-10-23,1,,,,,アライアンス,0
1605,7010401193724,新規,0,2025-10-23,2025-10-23,Ｐｌａｙｆｉｎｉｔｙ株式会社,,株式会社,東京都,港区,南麻布２丁目８－２１ＳＮＵＧＭＩＮＡＭＩ－ＡＺＡＢＵ３０９号室,,13,103,1060047,,,,,,,2025-10-23,1,,,,,プレイフィニティ,0
1606,7010401193749,新規,0,2025-10-23,2025-10-23,株式会社ＧｏＴｏ,,株式会社,東京都,港区,芝大門１丁目２－１４Ｈ１Ｏ浜松町１０１８,,13,103,1050012,,,,,,,2025-10-23,1,,,,,ゴートゥー,0
1607,7010401193798,新規,0,2025-10-23,2025-10-23,株式会社ＳＵＤ,,株式会社,東京都,港区,西麻布４丁目１１－２－１４０６,,13,103,1060031,,,,,,,2025-10-23,1,,,,,エスユーディー,0
1608,7010401193807,新規,0,2025-10-23,2025-10-23,株式会社テナシア,,株式会社,東京都,港区,浜松町２丁目２－１５浜松町ダイヤビル２Ｆ,,13,103,1050013,,,,,,,2025-10-23,1,,,,,テナシア,0
1609,7010401193831,新規,0,2025-10-23,2025-10-23,株式会社Ｓｉｎｃｅｒｅｌｙ,,株式会社,東京都,港区,北青山１丁目３－３三橋ビル３階,,13,103,1070061,,,,,,,2025-10-23,1,,,,,シンシアリー,0
1610,7010401193939,新規,0,2025-10-23,2025-10-23,ＴＳ　Ａｓｓｅｔ　Ｍａｎａｇｅｍｅｎｔ株式会社,,株式会社,東京都,港区,北青山１丁目３番３号三橋ビル３階,,13,103,1070061,,,,,,,2025-10-23,1,,,,,ティーエスアセットマネジメント,0
1611,7010401193988,新規,0,2025-10-23,2025-10-23,株式会社ｉＮｃｅＮｅ,,株式会社,東京都,港区,北青山１丁目３番１号アールキューブ青山３階,,13,103,1070061,,,,,,,2025-10-23,1,,,,,インシェーヌ,0
1612,7010401193996,新規,0,2025-10-23,2025-10-23,Ｄａｓｈ　Ｌｉｖｉｎｇ　Ａｓｓｅｔ　Ｍａｎａｇｅｍｅｎｔ株式会社,,株式会社,東京都,港区,西新橋１丁目１番１号日比谷フォートタワー１０階,,13,103,1050003,,,,,,,2025-10-23,1,,,,,ダッシュリビングアセットマネジメント,0
1614,7010403036410,新規,0,2025-10-23,2025-10-23,経営企画コミュニティ合同会社,,合同会社,東京都,港区,浜松町２丁目２番１５号浜松町ダイヤビル２Ｆ,,13,103,1050013,,,,,,,2025-10-23,1,,,,,ケイエイキカクコミュニティ,0
1619,7010501054917,新規,0,2025-10-23,2025-10-23,Ｃｏｌｏｓｓｅｕｍ　Ｊａｐａｎ株式会社,,株式会社,東京都,台東区,上野１丁目１９番１０号上野広小路会館７階,,13,106,1100005,,,,,,,2025-10-23,1,,,,,コロシアムジャパン,0
1625,7010903010369,新規,0,2025-10-23,2025-10-23,合同会社サヴァアレ,,合同会社,東京都,世田谷区,松原６丁目４３番９号ヴィラ松原１０６,,13,112,1560043,,,,,,,2025-10-23,1,,,,,サヴァアレ,0
1631,7011003022809,新規,0,2025-10-23,2025-10-23,合同会社ＹＹＳ,,合同会社,東京都,目黒区,目黒１丁目１番１４号コノトラビル７Ｆ,,13,110,1530063,,,,,,,2025-10-23,1,,,,,ワイワイエス,0
1635,7011101113625,新規,0,2025-10-23,2025-10-23,株式会社Ｔ‐ｃｏｎｎｅｃｔ,,株式会社,東京都,新宿区,西新宿３丁目１－３ＭＩＴＳＵＷＡビル１０階,,13,104,1600023,,,,,,,2025-10-23,1,,,,,ティーコネクト,0
1637,7011103016553,新規,0,2025-10-23,2025-10-23,れないエンターテイメント合同会社,,合同会社,東京都,新宿区,大久保２丁目１番８号,,13,104,1690072,,,,,,,2025-10-23,1,,,,,レナイエンターテイメント,0
1638,7011103016594,新規,0,2025-10-23,2025-10-23,合同会社ケイパートナーズ,,合同会社,東京都,新宿区,高田馬場４丁目１６番１７号,,13,104,1690075,,,,,,,2025-10-23,1,,,,,ケイパートナーズ,0
1641,7011301030991,新規,0,2025-10-23,2025-10-23,株式会社ＡＳＬ,,株式会社,東京都,杉並区,高井戸東２丁目１５番１５号高井戸ユニバース１０３,,13,115,1680072,,,,,,,2025-10-23,1,,,,,アスル,0
1642,7011401027517,新規,0,2025-10-23,2025-10-23,株式会社ＮＥＸＵＳ,,株式会社,東京都,板橋区,大和町２３番４－５０１号,,13,119,1730012,,,,,,,2025-10-23,1,,,,,ネクサス,0
1644,7011603004900,新規,0,2025-10-23,2025-10-23,九森亜合同会社,,合同会社,東京都,練馬区,練馬４丁目２１番１号,,13,120,1760001,,,,,,,2025-10-23,1,,,,,クモリア,0
1645,7011701028875,新規,0,2025-10-23,2025-10-23,株式会社ｕｎｉＦａｓｔ,,株式会社,東京都,江戸川区,平井５丁目３７番１３号稲葉ビル一階,,13,123,1320035,,,,,,,2025-10-23,1,,,,,ユニファスト,0
1648,7011801046959,新規,0,2025-10-23,2025-10-23,株式会社Ａｒｃｎｏｖａ,,株式会社,東京都,葛飾区,白鳥２丁目１８番８－５０１号リリーベルお花茶屋,,13,122,1250063,,,,,,,2025-10-23,1,,,,,アークノヴァ,0
1654,7012403007390,新規,0,2025-10-23,2025-10-23,ＡＹＡＮＡＨ合同会社,,合同会社,東京都,狛江市,和泉本町３丁目１３番２０号,,13,219,2010003,,,,,,,2025-10-23,1,,,,,アヤナ,0
1655,7012403007416,新規,0,2025-10-23,2025-10-23,ブッソールマリンアンドオフショア合同会社,,合同会社,東京都,三鷹市,井の頭１丁目１９番２０号,,13,204,1810001,,,,,,,2025-10-23,1,,,,,ブッソールマリンアンドオフショア,0
1656,7012405005178,新規,0,2025-10-23,2025-10-23,一般社団法人Ｄａｙｂｒｅａｋ,,その他の設立登記法人,東京都,武蔵野市,緑町２丁目４番４－１００３号,,13,203,1800012,,,,,,,2025-10-23,1,,,,,デイブレイク,0
1657,7012703003395,新規,0,2025-10-23,2025-10-23,合同会社ＳＫＹ　Ｏ．Ｃ,,合同会社,東京都,東久留米市,中央町５丁目６番３９号,,13,222,2030054,,,,,,,2025-10-23,1,,,,,スカイオーシー,0
1659,7012801024319,新規,0,2025-10-23,2025-10-23,株式会社グッドリバー,,株式会社,東京都,国分寺市,本多３丁目９番６号,,13,214,1850011,,,,,,,2025-10-23,1,,,,,グッドリバー,0
1662,7013301055176,新規,0,2025-10-23,2025-10-23,ｐｕｒｕｐａ株式会社,,株式会社,東京都,豊島区,東池袋２丁目６２番８号ＢＩＧオフィスプラザ池袋１２０６号,,13,116,1700013,,,,,,,2025-10-23,1,,,,,プルパ,0
1668,7021003016735,新規,0,2025-10-23,2025-10-23,令陽ＳＨＯＰ合同会社,,合同会社,神奈川県,横須賀市,根岸町３丁目４番１９号,,14,201,2390807,,,,,,,2025-10-23,1,,,,,レオショップ,0
1674,7030001169362,新規,0,2025-10-23,2025-10-23,コンステラＨＤ株式会社,,株式会社,埼玉県,朝霞市,朝志ケ丘１丁目５番４０－Ｓ－３０８号,,11,227,3510035,,,,,,,2025-10-23,1,,,,,コンステラエイチディー,0
1679,7030003027808,新規,0,2025-10-23,2025-10-23,合同会社Ｋｏｔｌｅｒｃｏｍ,,合同会社,埼玉県,川口市,大字赤山１２１９番地の３,,11,203,3330825,,,,,,,2025-10-23,1,,,,,コトラーコム,0
1680,7030003027948,新規,0,2025-10-23,2025-10-23,ＫＩＮＡＲＩ　ＨＯＭＥ合同会社,,合同会社,埼玉県,さいたま市中央区,新中里３丁目１９番４－１号,,11,105,3380011,,,,,,,2025-10-23,1,,,,,キナリホーム,0
1687,7040001141080,新規,0,2025-10-23,2025-10-23,株式会社岡林不動産建物,,株式会社,千葉県,山武市,松ヶ谷イ７１２－３５,,12,237,2891303,,,,,,,2025-10-23,1,,,,,オカバヤシフドウサンタテモノ,0
1688,7040003028813,新規,0,2025-10-23,2025-10-23,ギネズアップ合同会社,,合同会社,千葉県,千葉市若葉区,高根町９１５番地１１１,,12,104,2650061,,,,,,,2025-10-23,1,,,,,ギネズアップ,0
1689,7040003028838,新規,0,2025-10-23,2025-10-23,合同会社えいぶ,,合同会社,千葉県,船橋市,本町７丁目９番２１号,,12,204,2730005,,,,,,,2025-10-23,1,,,,,エイブ,0
1700,7100005013410,新規,0,2025-10-23,2025-10-23,一般社団法人学び舎みんなの学校,,その他の設立登記法人,長野県,上水内郡飯綱町,大字古町７３６,,20,590,3891221,,,,,,,2025-10-23,1,,,,,マナビヤミンナノガッコウ,0
1712,7120001281265,新規,0,2025-10-23,2025-10-23,株式会社ＩＲＯ‐医路,,株式会社,大阪府,大阪市北区,梅田３丁目２番１２３号イノゲート大阪９階,,27,127,5300001,,,,,,,2025-10-23,1,,,,,イロ,0
1713,7120001281364,新規,0,2025-10-23,2025-10-23,雲端漫歩科技・日本株式会社,,株式会社,大阪府,大阪市住吉区,山之内１丁目２７番１３－２０２号,,27,120,5580023,,,,,,,2025-10-23,1,,,,,クラウドストライドテクノロジージャパン,0
1714,7120001281389,新規,0,2025-10-23,2025-10-23,株式会社ｔｅｔｅｃｏ,,株式会社,大阪府,大阪市北区,梅田１丁目１番３号大阪駅前第３ビル２９階１－１－１号室,,27,127,5300001,,,,,,,2025-10-23,1,,,,,テテコ,0
1715,7120003030851,新規,0,2025-10-23,2025-10-23,合同会社ａｎｄ　ｐｌｕｓ,,合同会社,大阪府,枚方市,中宮東之町１１－６福田ビル１０６号,,27,210,5731195,,,,,,,2025-10-23,1,,,,,アンドプラス,0
1716,7120003031049,新規,0,2025-10-23,2025-10-23,合同会社ニュー・アドベンチャー,,合同会社,大阪府,大阪市中央区,南船場３丁目２番２２号おおきに南船場ビル２０５,,27,128,5420081,,,,,,,2025-10-23,1,,,,,ニューアドベンチャー,0
1730,7130001080864,新規,0,2025-10-23,2025-10-23,株式会社Ｎ．Ｓ,,株式会社,京都府,京都市南区,吉祥院前田町９番地１セジュールエスポアールＩＩ２０２,00141228,26,107,6018341,,,,,,,2025-10-23,1,,,,,エヌエス,0
1737,7140001140493,新規,0,2025-10-23,2025-10-23,ラザ・トレーディング株式会社,,株式会社,兵庫県,伊丹市,美鈴町５丁目２１番地ジョンメゾン美鈴２０２号,,28,207,6640884,,,,,,,2025-10-23,1,,,,,ラザトレーディング,0
1741,7140003022748,新規,0,2025-10-23,2025-10-23,合同会社ＨＵＸ,,合同会社,兵庫県,明石市,松が丘１丁目２番３－２０２号,,28,203,6730862,,,,,,,2025-10-23,1,,,,,ハックス,0
1742,7140003022780,新規,0,2025-10-23,2025-10-23,合同会社Ｒｅｌａｃｉｏｎ,,合同会社,兵庫県,尼崎市,東難波町５丁目８番２０－１号,,28,202,6600892,,,,,,,2025-10-23,1,,,,,ラシオン,0
1743,7140005027646,新規,0,2025-10-23,2025-10-23,一般社団法人全国高校起業部,,その他の設立登記法人,兵庫県,西宮市,甲子園三保町５番２１－００６号,,28,204,6638163,,,,,,,2025-10-23,1,,,,,ゼンコクコウコウキギョウブ,0
1744,7140005027670,新規,0,2025-10-23,2025-10-23,弁護士法人国津法律事務所,,その他の設立登記法人,兵庫県,川西市,一庫２丁目８番１４号,,28,217,6660153,,,,,,,2025-10-23,1,,,,,クニツホウリツジムショ,0
1746,7160005011458,新規,0,2025-10-23,2025-10-23,一般社団法人みくも墓苑,,その他の設立登記法人,滋賀県,湖南市,三雲６３８番地５,,25,211,5203221,,,,,,,2025-10-23,1,,,,,ミクモボエン,0
1748,7170001018844,新規,0,2025-10-23,2025-10-23,株式会社西川工業,,株式会社,和歌山県,和歌山市,善明寺７５５－５１,,30,201,6408471,,,,,,,2025-10-23,1,,,,,ニシカワコウギョウ,0
1757,7180001169232,新規,0,2025-10-23,2025-10-23,Ｉ．Ｚｅｐｈｙｒ　Ｃｏｎｓｕｌｔｉｎｇ株式会社,,株式会社,愛知県,半田市,旭町５丁目３番地の１レインボー旭町壱番館３１２号,,23,205,4750838,,,,,,,2025-10-23,1,,,,,アイゼファーコンサルティング,0
1758,7180001169249,新規,0,2025-10-23,2025-10-23,株式会社Ｈｉｇｈｓｅｎｓｅ,,株式会社,愛知県,東海市,大田町蟹田１０４５番地,,23,222,4770031,,,,,,,2025-10-23,1,,,,,ハイセンス,0
1763,7180003029236,新規,0,2025-10-23,2025-10-23,合同会社Ｂａｓｈｉｒ　Ｓｏｎｓ　Ｍｏｔｏｒｓ,,合同会社,愛知県,名古屋市港区,小川４丁目１１２番地,,23,111,4550864,,,,,,,2025-10-23,1,,,,,バシルサンズモターズ,0
1772,7240005015995,新規,0,2025-10-23,2025-10-23,一般社団法人終活・相続サポートセンター,,その他の設立登記法人,広島県,広島市東区,光町２丁目１４番１６号３階,,34,102,7320052,,,,,,,2025-10-23,1,,,,,シュウカツソウゾクサポートセンター,0
1775,7250001021402,新規,0,2025-10-23,2025-10-23,株式会社Ｓｅｌｅｃｔ,,株式会社,山口県,山口市,小郡上郷２５６０番地５８２,,35,203,7540001,,,,,,,2025-10-23,1,,,,,セレクト,0
1778,7260001040665,新規,0,2025-10-23,2025-10-23,株式会社トライブジャパン,,株式会社,岡山県,岡山市北区,清輝橋４丁目３番地１６号,,33,101,7000861,,,,,,,2025-10-23,1,,,,,トライブジャパン,0
1779,7260001040673,新規,0,2025-10-23,2025-10-23,株式会社Ｗｈａｔ’ｓ　ｉｍｐｏｒｔａｎｔ　ｎｏｗ,,株式会社,岡山県,玉野市,長尾７５７番地１,,33,204,7060151,,,,,,,2025-10-23,1,,,,,ワッツインポータントナウ,0
1787,7290001111843,新規,0,2025-10-23,2025-10-23,株式会社レイジーナアキラ,,株式会社,福岡県,福岡市南区,井尻４丁目２－４５共栄ビル１階,,40,134,8111302,,,,,,,2025-10-23,1,,,,,レイジーナアキラ,0
1796,7340003004998,新規,0,2025-10-23,2025-10-23,合同会社斎場そお,,合同会社,鹿児島県,曽於市,末吉町新町２丁目１９番地１０号,,46,217,8998603,,,,,,,2025-10-23,1,,,,,サイジョウソオ,0
1799,7350001019782,新規,0,2025-10-23,2025-10-23,ノードレッジ株式会社,,株式会社,宮崎県,宮崎市,橘通東４丁目１番４号,,45,201,8800805,,,,,,,2025-10-23,1,,,,,ノードレッジ,0
1807,7380001035637,新規,0,2025-10-23,2025-10-23,株式会社河東クリーン,,株式会社,福島県,会津若松市,河東町広田字横堀２０８番地,,07,202,9693471,,,,,,,2025-10-23,1,,,,,カワヒガシクリーン,0
1812,7420001019296,新規,0,2025-10-23,2025-10-23,株式会社ＥＧＧ,,株式会社,青森県,青森市,金沢５丁目２番１２号,,02,201,0300853,,,,,,,2025-10-23,1,,,,,イージージー,0
1813,7420001019313,新規,0,2025-10-23,2025-10-23,株式会社ＭＳＥ,,株式会社,青森県,弘前市,大字津賀野字浅田８４９番地３,,02,202,0383874,,,,,,,2025-10-23,1,,,,,エムエスイー,0
1817,7430001095502,新規,0,2025-10-23,2025-10-23,株式会社Ｋｏｔｏｒｉ,,株式会社,北海道,札幌市東区,北十条東６丁目１番１７－５０６号,,01,103,0650010,,,,,,,2025-10-23,1,,,,,コトリ,0
1818,7430001095519,新規,0,2025-10-23,2025-10-23,株式会社Ｏｍａｋａｓｅ　Ｌａｎｄ,,株式会社,北海道,札幌市中央区,南二条西８丁目１１番地１クルーザーバレータワーエス２－４０３号,,01,101,0600062,,,,,,,2025-10-23,1,,,,,オマカセランド,0
1827,7430005015324,新規,0,2025-10-23,2025-10-23,一般社団法人心の色セラピスト協会,,その他の設立登記法人,北海道,札幌市南区,北ノ沢３丁目３番１５号,,01,106,0050832,,,,,,,2025-10-23,1,,,,,ココロノイロセラピストキョウカイ,0
1828,7430005015340,新規,0,2025-10-23,2025-10-23,一般社団法人保護猫のちゃぺちせ,,その他の設立登記法人,北海道,夕張郡栗山町,角田２２番地,,01,429,0691524,,,,,,,2025-10-23,1,,,,,ホゴネコノチャペチセ,0
1831,7480002016155,新規,0,2025-10-23,2025-10-23,有限会社高砂造船所,00141164,有限会社,徳島県,鳴門市,鳴門町土佐泊浦字土佐泊２９５番地,,36,202,7720053,,,,,,,2025-10-23,1,,,,,タカサゴゾウセンショ,0
1832,7490003002062,新規,0,2025-10-23,2025-10-23,合同会社本川橘花興産,,合同会社,高知県,吾川郡いの町,脇ノ山１９－１,,39,386,7812611,,,,,,,2025-10-23,1,,,,,ホンガワキッカコウサン,0
1840,7700150113937,新規,0,2025-10-23,2023-01-25,大阪公立大学校友会,,その他,大阪府,大阪市城東区,森之宮１丁目６－８５　ＵＲ森之宮ビル２階,,27,118,5360025,,,,,,,2023-01-25,1,,,,,オオサカコウリツダイガクコウユウカイ,0
1841,7700150132648,新規,0,2025-10-23,2025-10-23,Ｄｕｏｒｏｒｅ　Ｐｔｙ　Ｌｔｄ,,外国会社等,,,,,,,,Ｓｕｉｔｅ　５，１２０　Ｒｕｓｓｅｌｌ　Ｓｔｒｅｅｔ，ＴＯＯＷＯＯＭＢＡ　ＱＬＤ　４３５０,,,,,,2025-10-23,1,,,,,デユオローレピーテイーワイエルテイーデイー,0
1852,8010003048796,新規,0,2025-10-23,2025-10-23,ＫｉｔｔｙＢｉｔ合同会社,,合同会社,東京都,千代田区,神田錦町３丁目１５番地錦精社神田ビル,,13,101,1010054,,,,,,,2025-10-23,1,,,,,キティビット,0
1860,8010401193780,新規,0,2025-10-23,2025-10-23,株式会社ＮＳＧ,,株式会社,東京都,港区,南青山１丁目３番１－３４０６号室,,13,103,1070062,,,,,,,2025-10-23,1,,,,,エヌエスジー,0
1861,8010401193806,新規,0,2025-10-23,2025-10-23,ＩＣＨＸフィナンシャルテクノロジー株式会社,,株式会社,東京都,港区,六本木６丁目１０番１号六本木ヒルズ森タワー１６階,,13,103,1060032,,,,,,,2025-10-23,1,,,,,アイシーエイチエックスフィナンシャルテクノロジー,0
1862,8010401193921,新規,0,2025-10-23,2025-10-23,ワビ・サビ・インターナショナル株式会社,,株式会社,東京都,港区,東麻布１丁目２３番５号ＰＭＣビル２Ｆ,,13,103,1060044,,,,,,,2025-10-23,1,,,,,ワビサビインターナショナル,0
1863,8010401193946,新規,0,2025-10-23,2025-10-23,Ｊｅｐｐｅｓｅｎ　Ｊａｐａｎ株式会社,,株式会社,東京都,港区,六本木１丁目９番１０号アークヒルズ仙石山森タワー２８階べーカー＆マッケンジー法律事務所（外国法共同事業）内,,13,103,1060032,,,,,,,2025-10-23,1,,,,,ジェプセンジャパン,0
1864,8010401193979,新規,0,2025-10-23,2025-10-23,ＩＤＥＡ　ＡＣＣＥＳＳ　ＭＡＮＡＧＥＭＥＮＴ　ＪＡＰＡＮ株式会社,,株式会社,東京都,港区,芝大門１丁目８番１号ＪＰ－ＢＡＳＥ芝大門５Ｆ,,13,103,1050012,,,,,,,2025-10-23,1,,,,,アイデアアクセスマネジメントジャパン,0
1865,8010401194003,新規,0,2025-10-23,2025-10-23,ソルスティシア株式会社,,株式会社,東京都,港区,六本木６丁目１０番１号,,13,103,1060032,,,,,,,2025-10-23,1,,,,,ソルスティシア,0
1866,8010401194028,新規,0,2025-10-23,2025-10-23,Ｆｉｆｔｙ　Ｏｎｅ　Ｍｅｄｉａ株式会社,,株式会社,東京都,港区,赤坂９丁目７番２号ミッドタウン・イースト４階,,13,103,1070052,,,,,,,2025-10-23,1,,,,,フィフティーワンメディア,0
1867,8010401194110,新規,0,2025-10-23,2025-10-23,Ｌｕｍｉｎｅ　Ａｓｓｅｔ株式会社,,株式会社,東京都,港区,台場１丁目３番２－８０５号,,13,103,1350091,,,,,,,2025-10-23,1,,,,,ルミネアセット,0
1870,8010403036269,新規,0,2025-10-23,2025-10-23,Ｓｔｕｄｉｏ　Ｙｕｓｕｋｅ合同会社,,合同会社,東京都,港区,元麻布２丁目７番２１－１０８号,,13,103,1060046,,,,,,,2025-10-23,1,,,,,スタジオユウスケ,0
1871,8010403036335,新規,0,2025-10-23,2025-10-23,八木不動産合同会社,,合同会社,東京都,港区,虎ノ門２丁目６番１号虎ノ門ヒルズステーションタワー,,13,103,1050001,,,,,,,2025-10-23,1,,,,,ヤギフドウサン,0
1872,8010501054890,新規,0,2025-10-23,2025-10-23,株式会社Ｔａｌｅｓ　Ａｒｃ,,株式会社,東京都,台東区,上野１丁目１７番６号広小路ビル８Ｆ－Ｂ,,13,106,1100005,,,,,,,2025-10-23,1,,,,,テイルズアーク,0
1873,8010501054908,新規,0,2025-10-23,2025-10-23,株式会社クレールシエル,,株式会社,東京都,台東区,松が谷４丁目１番地１１号アルシェ上野松が谷８０１号室,,13,106,1110036,,,,,,,2025-10-23,1,,,,,クレールシエル,0
1874,8010503008044,新規,0,2025-10-23,2025-10-23,マイジン合同会社,,合同会社,東京都,台東区,柳橋１丁目２－１２－５階ＡＢＳ－Ｃ－６号,,13,106,1110052,,,,,,,2025-10-23,1,,,,,マイジン,0
1880,8010903010368,新規,0,2025-10-23,2025-10-23,Ｉｎｏｓｙｓ合同会社,,合同会社,東京都,世田谷区,玉川台２丁目２８番５－５０１号,,13,112,1580096,,,,,,,2025-10-23,1,,,,,イノシス,0
1883,8011003022790,新規,0,2025-10-23,2025-10-23,大きな玉ねぎ思う合同会社,,合同会社,東京都,渋谷区,幡ヶ谷３丁目３９番１２号渋谷ウェストビル１階,,13,113,1510072,,,,,,,2025-10-23,1,,,,,オオキナタマネギオモウ,0
1884,8011101034176,新規,0,2025-10-23,2025-10-23,東海土地建物株式会社,,株式会社,東京都,新宿区,市谷田町２丁目３５番地,,13,104,1620843,,,,,,,2025-10-23,1,,,,,トウカイトチタテモノ,0
1886,8011101113608,新規,0,2025-10-23,2025-10-23,株式会社ステアリックス,,株式会社,東京都,新宿区,西新宿７丁目２０番１－２０４号,,13,104,1600023,,,,,,,2025-10-23,1,,,,,ステアリックス,0
1889,8011301030990,新規,0,2025-10-23,2025-10-23,株式会社ｎｅｒｉｎｏ,,株式会社,東京都,杉並区,天沼３丁目２３番２９号シャトレ天沼２０２,,13,115,1670032,,,,,,,2025-10-23,1,,,,,ネリノ,0
1891,8011401000860,新規,0,2025-10-23,2025-10-23,株式会社エータス・コーポレーション,,株式会社,東京都,板橋区,大谷口上町８７番５号,,13,119,1730032,,,,,,,2025-10-23,1,,,,,,0
1893,8011401027499,新規,0,2025-10-23,2025-10-23,ＩＮＳＰＩＲＡＴＩＯＮ日本株式会社,,株式会社,東京都,板橋区,大山金井町４８番６号,,13,119,1730024,,,,,,,2025-10-23,1,,,,,インスピレーションニホン,0
1897,8011503006748,新規,0,2025-10-23,2025-10-23,合同会社アセンディア・エステーツ,,合同会社,東京都,北区,滝野川４丁目２６番１２－２０１号室,,13,117,1140023,,,,,,,2025-10-23,1,,,,,アセンディアエステーツ,0
1899,8011801046941,新規,0,2025-10-23,2025-10-23,株式会社Ｓａｔｏｎｏｔｅ,,株式会社,東京都,足立区,竹の塚１丁目４０番１５号庄栄ビル５階,00141235,13,121,1210813,,,,,,,2025-10-23,1,,,,,サトノテ,0
1904,8012401043734,新規,0,2025-10-23,2025-10-23,観風株式会社,,株式会社,東京都,三鷹市,新川６丁目６番２４‐８０４号,,13,204,1810004,,,,,,,2025-10-23,1,,,,,カンプウ,0
1906,8012403007415,新規,0,2025-10-23,2025-10-23,合同会社演奏技研,,合同会社,東京都,武蔵野市,吉祥寺北町２丁目１‐１５八幸ビル吉祥寺３０２,,13,203,1800001,,,,,,,2025-10-23,1,,,,,エンソウギケン,0
1915,8020001165080,新規,0,2025-10-23,2025-10-23,ＮＡＫＲＹ株式会社,,株式会社,神奈川県,横浜市港南区,港南中央通５番１７号,,14,111,2330004,,,,,,,2025-10-23,1,,,,,ナクリー,0
1916,8020001165139,新規,0,2025-10-23,2025-10-23,株式会社スターワークスマネージメント,,株式会社,神奈川県,横浜市神奈川区,金港町１番地４,,14,102,2210056,,,,,,,2025-10-23,1,,,,,スターワークスマネージメント,0
1917,8020001165403,新規,0,2025-10-23,2025-10-23,株式会社ＥｎｔｒｅＢｉｚ,,株式会社,神奈川県,横浜市鶴見区,駒岡４丁目２５―６,,14,101,2300071,,,,,,,2025-10-23,1,,,,,アントレビズ,0
1918,8020001165469,新規,0,2025-10-23,2025-10-23,株式会社ＮＳＫ,,株式会社,神奈川県,横浜市栄区,犬山町５４－１５,,14,115,2470026,,,,,,,2025-10-23,1,,,,,エヌエスケー,0
1923,8021001086639,新規,0,2025-10-23,2025-10-23,株式会社國嶋外装,,株式会社,神奈川県,伊勢原市,白根１２４番地の１１ザ・パーシモンＣ棟１０１号,,14,214,2591147,,,,,,,2025-10-23,1,,,,,クニシマガイソウ,0
1929,8021003016734,新規,0,2025-10-23,2025-10-23,合同会社鮫島,,合同会社,神奈川県,茅ヶ崎市,東海岸南６丁目４番３７－Ｂ－１０２号パシフィックガーデン茅ヶ崎,,14,207,2530054,,,,,,,2025-10-23,1,,,,,サメジマ,0
1930,8021005013449,新規,0,2025-10-23,2025-10-23,一般社団法人こどもの育ちねっと楡の丘,,その他の設立登記法人,神奈川県,相模原市緑区,名倉２８２６番地２,,14,151,2520187,,,,,,,2025-10-23,1,,,,,コドモノソダチネットニレノオカ,0
1940,8030001169254,新規,0,2025-10-23,2025-10-23,ギガドリルブレイク株式会社,,株式会社,埼玉県,さいたま市浦和区,駒場１丁目１１番２－１０２号,,11,107,3300051,,,,,,,2025-10-23,1,,,,,ギガドリルブレイク,0
1945,8040001140940,新規,0,2025-10-23,2025-10-23,株式会社横芝光ファーム,,株式会社,千葉県,山武郡横芝光町,尾垂３９４９,,12,410,2891725,,,,,,,2025-10-23,1,,,,,ヨコシバヒカリファーム,0
1946,8040001141055,新規,0,2025-10-23,2025-10-23,ＳＷ株式会社,,株式会社,千葉県,船橋市,坪井東６丁目１１－１９,,12,204,2740060,,,,,,,2025-10-23,1,,,,,エスダブリュー,0
1947,8040001141096,新規,0,2025-10-23,2025-10-23,株式会社ＭＳコーポレーション,,株式会社,千葉県,八千代市,八千代台東１丁目８番７号京美ビル１階Ａ,,12,221,2760032,,,,,,,2025-10-23,1,,,,,エムエスコーポレーション,0
1948,8040001141105,新規,0,2025-10-23,2025-10-23,アトラス株式会社,,株式会社,千葉県,千葉市花見川区,長作台１丁目４番１７号,,12,102,2620047,,,,,,,2025-10-23,1,,,,,アトラス,0
1949,8040003028820,新規,0,2025-10-23,2025-10-23,合同会社Ｓｔｒａｄａ,,合同会社,千葉県,木更津市,高柳１丁目１０,,12,206,2920014,,,,,,,2025-10-23,1,,,,,ストラーダ,0
1950,8040003028837,新規,0,2025-10-23,2025-10-23,合同会社はなのひ,,合同会社,千葉県,我孫子市,湖北台９丁目１番２６号,,12,222,2701132,,,,,,,2025-10-23,1,,,,,ハナノヒ,0
1952,8050001057507,新規,0,2025-10-23,2025-10-23,Ｃｏｃｏｎｅｘ株式会社,,株式会社,茨城県,古河市,中央町３丁目８－１１,,08,204,3060033,,,,,,,2025-10-23,1,,,,,ココネックス,0
1961,8070003006162,新規,0,2025-10-23,2025-10-23,合同会社Ｇ．ＮＥＴ,,合同会社,群馬県,伊勢崎市,堀下町１２６２,,10,204,3792212,,,,,,,2025-10-23,1,,,,,ジーネット,0
1980,8120001281132,新規,0,2025-10-23,2025-10-23,株式会社ソニック,,株式会社,大阪府,大阪市淀川区,西中島４丁目４番２５号フルーレ新大阪１００５号,,27,123,5320011,,,,,,,2025-10-23,1,,,,,ソニック,0
1981,8120001281264,新規,0,2025-10-23,2025-10-23,Ｍｅｄｉａ　Ｌｉｎｋｓ株式会社,,株式会社,大阪府,大阪市浪速区,恵美須西１丁目２番２２－１４０２号,,27,111,5560003,,,,,,,2025-10-23,1,,,,,メディアリンクス,0
1982,8120001281339,新規,0,2025-10-23,2025-10-23,ＯＰＥＮＷＯＯＤ株式会社,,株式会社,大阪府,大阪市住吉区,長居２丁目３番１９号コ－ポコナカ３０２号,,27,120,5580003,,,,,,,2025-10-23,1,,,,,オープンウッド,0
1983,8120001281355,新規,0,2025-10-23,2025-10-23,株式会社さくらんぼ,,株式会社,大阪府,大阪市中央区,島之内１丁目１５番２５－２２０３号,,27,128,5420082,,,,,,,2025-10-23,1,,,,,サクランボ,0
1984,8120001281363,新規,0,2025-10-23,2025-10-23,株式会社蒼陽,,株式会社,大阪府,大阪市北区,梅田２丁目２－２ヒルトンプラザウェストオフィスタワー１９階,,27,127,5300001,,,,,,,2025-10-23,1,,,,,ソウヨウ,0
1988,8120003030925,新規,0,2025-10-23,2025-10-23,合同会社Ｎｅｘｔ　Ｆｉｅｌｄ,,合同会社,大阪府,大阪市北区,梅田１丁目１－３大阪駅前第３ビル２９階１－１－１号室,,27,127,5300001,,,,,,,2025-10-23,1,,,,,ネクストフィールド,0
1989,8120003030999,新規,0,2025-10-23,2025-10-23,合同会社ＡｒｓＡｘｉｏｎ,,合同会社,大阪府,大阪市北区,梅田１丁目２番２号大阪駅前第２ビル１２－１２,,27,127,5300001,,,,,,,2025-10-23,1,,,,,アルスアクシオン,0
1990,8120003031007,新規,0,2025-10-23,2025-10-23,合同会社ＹＫ２,,合同会社,大阪府,大阪市北区,梅田１丁目２番２号大阪駅前第２ビル１２－１２,,27,127,5300001,,,,,,,2025-10-23,1,,,,,ワイケーツー,0
2003,8122001039774,新規,0,2025-10-23,2025-10-23,株式会社三羚理久商事,,株式会社,大阪府,東大阪市,吉原１丁目４番１２号,,27,227,5780904,,,,,,,2025-10-23,1,,,,,サンリョウリクショウジ,0
2010,8140001140443,新規,0,2025-10-23,2025-10-23,ＳＩＳ株式会社,,株式会社,兵庫県,伊丹市,西台１丁目１－１伊丹阪急ビル５Ｆ,,28,207,6640858,,,,,,,2025-10-23,1,,,,,エスアイエス,0
2011,8140001140451,新規,0,2025-10-23,2025-10-23,ＫＯＵＥＩ建設工業株式会社,,株式会社,兵庫県,神戸市中央区,中山手通３丁目１２－６神税ビル３１号,,28,110,6500004,,,,,,,2025-10-23,1,,,,,コウエイケンセツコウギョウ,0
2012,8140001140492,新規,0,2025-10-23,2025-10-23,株式会社あやはべる,,株式会社,兵庫県,姫路市,網干区田井６９番地２０,,28,201,6711221,,,,,,,2025-10-23,1,,,,,アヤハベル,0
2014,8140003022747,新規,0,2025-10-23,2025-10-23,合同会社ＢＬＡＮＣ,,合同会社,兵庫県,明石市,松が丘１丁目２番３－２０２号,,28,203,6730862,,,,,,,2025-10-23,1,,,,,ブランク,0
2039,8220001026989,新規,0,2025-10-23,2025-10-23,井口左官株式会社,,株式会社,石川県,金沢市,北安江４丁目２０番９号,,17,201,9200022,,,,,,,2025-10-23,1,,,,,イグチサカン,0
2044,8250001021401,新規,0,2025-10-23,2025-10-23,オルネ株式会社,,株式会社,山口県,下関市,長府前八幡町１番３１号,,35,201,7520956,,,,,,,2025-10-23,1,,,,,オルネ,0
2047,8260001040672,新規,0,2025-10-23,2025-10-23,株式会社Ｒ．Ｆ．Ｔ,,株式会社,岡山県,岡山市北区,東花尻３５６番地４,,33,101,7010135,,,,,,,2025-10-23,1,,,,,アールエフティ,0
2057,8290001111867,新規,0,2025-10-23,2025-10-23,株式会社あくせる,,株式会社,福岡県,三井郡大刀洗町,大字山隈４３５番地６,,40,503,8301226,,,,,,,2025-10-23,1,,,,,アクセル,0
2061,8290003017591,新規,0,2025-10-23,2025-10-23,合同会社栄フーズ,,合同会社,福岡県,福岡市博多区,東比恵３丁目１８番２－１００４号アーベイン東比恵駅前,,40,132,8120007,,,,,,,2025-10-23,1,,,,,サカエフーズ,0
2066,8320001021402,新規,0,2025-10-23,2025-10-23,株式会社江戸貿易,,株式会社,大分県,竹田市,大字吉田３５２番地２,,44,208,8780035,,,,,,,2025-10-23,1,,,,,エドボウエキ,0
2079,8350001019781,新規,0,2025-10-23,2025-10-23,三共しろありホーム株式会社,,株式会社,宮崎県,宮崎市,村角町宮崎牟田２０番地２１,,45,201,8800837,,,,,,,2025-10-23,1,,,,,サンキョウシロアリホーム,0
2080,8360001035943,新規,0,2025-10-23,2025-10-23,株式会社ＳＯＩＬ沖縄,,株式会社,沖縄県,うるま市,字前原５４７番地１,,47,213,9042235,,,,,,,2025-10-23,1,,,,,ソイルオキナワ,0
2082,8370003007337,新規,0,2025-10-23,2025-10-23,合同会社Ｓ．Ｏ,,合同会社,宮城県,栗原市,築館字下宮野町５１番地,,04,213,9872203,,,,,,,2025-10-23,1,,,,,エスオ,0
2090,8430001095492,新規,0,2025-10-23,2025-10-23,株式会社Ｓｅｅｄｎｅｓｔ,,株式会社,北海道,札幌市中央区,南二条西５丁目３１－１ＲＭＢｌｄ．７０１,,01,101,0600062,,,,,,,2025-10-23,1,,,,,シードネスト,0
2091,8430001095518,新規,0,2025-10-23,2025-10-23,株式会社キタワキ,,株式会社,北海道,札幌市東区,丘珠町７０６番地,,01,103,0070880,,,,,,,2025-10-23,1,,,,,キタワキ,0
2101,8490001011188,新規,0,2025-10-23,2025-10-23,株式会社ＥｎＬｉｇｈｔ,,株式会社,高知県,高知市,潮新町１丁目１７番６号司コーポ１Ｆ,,39,201,7818008,,,,,,,2025-10-23,1,,,,,エンライト,0
2102,8490003002061,新規,0,2025-10-23,2025-10-23,合同会社ＣＲＧ,,合同会社,高知県,高知市,和泉町１２番１４号,,39,201,7800064,,,,,,,2025-10-23,1,,,,,シーアールジー,0
2103,8500005008831,新規,0,2025-10-23,2025-10-23,一般社団法人Ｂｏｎｃｈａｎｃｅ,,その他の設立登記法人,愛媛県,松山市,古川北２丁目９番３７号,,38,201,7900942,,,,,,,2025-10-23,1,,,,,ボンシャンス,0
2104,8700150132647,新規,0,2025-10-23,2025-10-23,Ｂａｎｔｒｙ　Ｈｏｌｄｉｎｇｓ　Ｐｔｙ　Ｌｔｄ,,外国会社等,,,,,,,,オーストラリア連邦、ニューサウスウェールズ州、モスマン、ザ・エスプラネイド７、ユニット５,,,,,,2025-10-23,1,,,,,バントリーホールデイングスピーテイーワイエルテイーデイー,0
2114,9010001259592,新規,0,2025-10-23,2025-10-23,株式会社ｒｅｊｕｋａ,,株式会社,東京都,中央区,銀座１丁目２２番１１号銀座大竹ビジデンス２階,,13,102,1040061,,,,,,,2025-10-23,1,,,,,レジュカ,0
2115,9010001259667,新規,0,2025-10-23,2025-10-23,三和コンサルティング＆パートナーズ株式会社,,株式会社,東京都,千代田区,一番町５番地アトラスビル,,13,101,1020082,,,,,,,2025-10-23,1,,,,,サンワコンサルティングアンドパートナーズ,0
2128,9010401193350,新規,0,2025-10-23,2025-10-23,株式会社ＫＯＶＡ,,株式会社,東京都,港区,南青山３丁目１番３６号青山丸ビル６階,,13,103,1070062,,,,,,,2025-10-23,1,,,,,コーヴァ,0
2129,9010401193689,新規,0,2025-10-23,2025-10-23,株式会社Ｂ．Ａ．Ｂ．Ｉ．,,株式会社,東京都,港区,北青山１丁目３番１号アールキューブ青山３階,,13,103,1070061,,,,,,,2025-10-23,1,,,,,バビ,0
2130,9010401193697,新規,0,2025-10-23,2025-10-23,株式会社地方創生総研,,株式会社,東京都,港区,六本木６丁目１２番４－６１１号,,13,103,1060032,,,,,,,2025-10-23,1,,,,,チホウソウセイソウケン,0
2131,9010401193706,新規,0,2025-10-23,2025-10-23,株式会社ＮＯＶ,,株式会社,東京都,港区,南麻布３丁目２０番１号,,13,103,1060047,,,,,,,2025-10-23,1,,,,,ノブ,0
2132,9010401193739,新規,0,2025-10-23,2025-10-23,株式会社エスワイワイ,,株式会社,東京都,港区,南青山３丁目１番３６号青山丸竹ビル６Ｆ,,13,103,1070062,,,,,,,2025-10-23,1,,,,,エスワイワイ,0
2133,9010401193805,新規,0,2025-10-23,2025-10-23,株式会社メノビル,,株式会社,東京都,港区,南青山２丁目２番１５号,,13,103,1070062,,,,,,,2025-10-23,1,,,,,メノビル,0
2134,9010401193813,新規,0,2025-10-23,2025-10-23,株式会社ｋｏｚｏｋａＡＩ,,株式会社,東京都,港区,六本木６丁目１０番１号六本木ヒルズ森タワー１７階,,13,103,1060032,,,,,,,2025-10-23,1,,,,,コゾカエーアイ,0
2135,9010401193929,新規,0,2025-10-23,2025-10-23,ＳＳＣ　Ｓｐａｃｅ　Ｊａｐａｎ株式会社,,株式会社,東京都,港区,六本木１丁目１０番３号,,13,103,1060032,,,,,,,2025-10-23,1,,,,,エスエスシースペースジャパン,0
2136,9010401194002,新規,0,2025-10-23,2025-10-23,株式会社ミライバリュー,,株式会社,東京都,港区,赤坂１丁目１２番３２号アーク森ビル,,13,103,1070052,,,,,,,2025-10-23,1,,,,,ミライバリュー,0
2137,9010401194027,新規,0,2025-10-23,2025-10-23,株式会社Ｉｎｓｉｇｈｔ　Ｃａｐｉｔａｌ　Ｓｏｌｕｔｉｏｎｓ　Ｊａｐａｎ,,株式会社,東京都,港区,元麻布３丁目１番６号,,13,103,1060046,,,,,,,2025-10-23,1,,,,,インサイトキャピタルソリューションズジャパン,0
2138,9010403036243,新規,0,2025-10-23,2025-10-23,ＷＹＡ合同会社,,合同会社,東京都,港区,南青山３丁目５－２,,13,103,1070062,,,,,,,2025-10-23,1,,,,,ダブリューワイエー,0
2139,9010403036251,新規,0,2025-10-23,2025-10-23,律理コンサルティング合同会社,,合同会社,東京都,港区,赤坂２丁目１７番６５－５０９号,,13,103,1070052,,,,,,,2025-10-23,1,,,,,リリコンサルティング,0
2142,9010501054915,新規,0,2025-10-23,2025-10-23,ＮＪＲホールディングス株式会社,,株式会社,東京都,台東区,上野１丁目１８番９号,,13,106,1100005,,,,,,,2025-10-23,1,,,,,エヌジェイアールホールディングス,0
2145,9010703007976,新規,0,2025-10-23,2025-10-23,合同会社Ｆｌｏｃｋ＆Ｔｉｄｅ,,合同会社,東京都,品川区,二葉４丁目１０番２号,,13,109,1420043,,,,,,,2025-10-23,1,,,,,フロックアンドタイド,0
2148,9010803005558,新規,0,2025-10-23,2025-10-23,合資会社上州屋,,合資会社,東京都,大田区,東六郷２丁目１１番１０号,,13,111,1440046,,,,,,,2025-10-23,1,,,,,,0
2152,9011001173305,新規,0,2025-10-23,2025-10-23,株式会社ＭＯＭＥＮＴＡ,,株式会社,東京都,目黒区,自由が丘１丁目１９番９号,,13,110,1520035,,,,,,,2025-10-23,1,,,,,モメンタ,0
2156,9011103016519,新規,0,2025-10-23,2025-10-23,合同会社Ｌｉｎｑｗｅｌｌ,,合同会社,東京都,新宿区,西新宿３丁目９－２イマス西新宿第一ビル３Ｆ－Ｂ,,13,104,1600023,,,,,,,2025-10-23,1,,,,,リンクウェル,0
2157,9011105011600,新規,0,2025-10-23,2025-10-23,一般社団法人企業Ｘふるさと推進機構,,その他の設立登記法人,東京都,新宿区,新宿４丁目１番６号,,13,104,1600022,,,,,,,2025-10-23,1,,,,,キギョウカケルフルサトスイシンキコウ,0
2165,9011403004909,新規,0,2025-10-23,2025-10-23,合同会社ロジライン,,合同会社,東京都,板橋区,双葉町２１番１４号プリムラ１０１,,13,119,1730011,,,,,,,2025-10-23,1,,,,,ロジライン,0
2173,9011703004435,新規,0,2025-10-23,2025-10-23,合同会社ないあ,,合同会社,東京都,江戸川区,江戸川２丁目３４－３０,,13,123,1320013,,,,,,,2025-10-23,1,,,,,ナイア,0
2178,9012401043733,新規,0,2025-10-23,2025-10-23,ＡＲＣＯＩＲＩＳ　ＬＡＢ株式会社,,株式会社,東京都,府中市,宮西町２丁目８－２松原ビル２Ｆ,,13,206,1830022,,,,,,,2025-10-23,1,,,,,アルコイリスラボ,0
2182,9013301055166,新規,0,2025-10-23,2025-10-23,翔進開発株式会社,,株式会社,東京都,豊島区,北大塚１丁目３番９号,,13,116,1700004,,,,,,,2025-10-23,1,,,,,ショウシンカイハツ,0
2184,9020001165443,新規,0,2025-10-23,2025-10-23,株式会社Ｐｌａｃｅ　Ｍａｋｉｎｇ,,株式会社,神奈川県,川崎市川崎区,浅田３丁目１０番２２号,,14,131,2100847,,,,,,,2025-10-23,1,,,,,プレイスメイキング,0
2186,9020003029670,新規,0,2025-10-23,2025-10-23,合同会社ｆｒｅｅｄｏｍ,,合同会社,神奈川県,川崎市中原区,下小田中２丁目２０番１号イーストテラス１１０,,14,133,2110041,,,,,,,2025-10-23,1,,,,,フリーダム,0
2187,9020003029679,新規,0,2025-10-23,2025-10-23,合同会社ＳｗｅｅｔＦｌａｇ,,合同会社,神奈川県,横浜市西区,浅間町１丁目４番３号ウィザードビル４０２,,14,103,2200072,,,,,,,2025-10-23,1,,,,,スイートフラッグ,0
2189,9021001086638,新規,0,2025-10-23,2025-10-23,株式会社ＤＣＴ．Ｇｌｏｂａｌ,,株式会社,神奈川県,平塚市,中原３丁目１番５３号,,14,203,2540075,,,,,,,2025-10-23,1,,,,,ディーシーティーグローバル,0
2196,9030001169055,新規,0,2025-10-23,2025-10-23,ＫＨサポート株式会社,,株式会社,埼玉県,草加市,新栄１丁目３６番地４２,,11,221,3400056,,,,,,,2025-10-23,1,,,,,ケイエイチサポート,0
2197,9030001169344,新規,0,2025-10-23,2025-10-23,星輝株式会社,,株式会社,埼玉県,さいたま市南区,大字太田窪２１３３番地２８,,11,108,3360015,,,,,,,2025-10-23,1,,,,,セイキ,0
2198,9030001169360,新規,0,2025-10-23,2025-10-23,ＦＭＳＥ株式会社,,株式会社,埼玉県,深谷市,上柴町東５丁目１９番地３,,11,218,3660051,,,,,,,2025-10-23,1,,,,,エフエムエスイー,0
2207,9030003027946,新規,0,2025-10-23,2025-10-23,合同会社ここいま,,合同会社,埼玉県,南埼玉郡宮代町,学園台４丁目１,,11,442,3450826,,,,,,,2025-10-23,1,,,,,ココイマ,0
2210,9030005022318,新規,0,2025-10-23,2025-10-23,医療法人社団ハピネス,,その他の設立登記法人,埼玉県,上尾市,大字小敷谷６２０番地１２,,11,219,3620064,,,,,,,2025-10-23,1,,,,,ハピネス,0
2212,9040001141046,新規,0,2025-10-23,2025-10-23,株式会社絆,,株式会社,千葉県,市川市,原木１丁目６番２２号アフィニス原木５０４号室,,12,203,2720004,,,,,,,2025-10-23,1,,,,,キズナ,0
2213,9040001141062,新規,0,2025-10-23,2025-10-23,Ｔ＆Ａホールディングス株式会社,,株式会社,千葉県,流山市,市野谷４２７番地の６,,12,220,2700137,,,,,,,2025-10-23,1,,,,,ティーアンドエーホールディングス,0
2214,9040001141079,新規,0,2025-10-23,2025-10-23,株式会社プラットフォーム,,株式会社,千葉県,船橋市,東船橋１丁目３６番３号,,12,204,2730002,,,,,,,2025-10-23,1,,,,,プラットフォーム,0
2215,9040001141095,新規,0,2025-10-23,2025-10-23,株式会社マステム,,株式会社,千葉県,市川市,南大野１丁目２－２７,,12,203,2720804,,,,,,,2025-10-23,1,,,,,マステム,0
2216,9040001141104,新規,0,2025-10-23,2025-10-23,株式会社ＥＩＭＥＩ,,株式会社,千葉県,茂原市,千代田町１丁目１０番１号池澤ビル３Ｂ号室,,12,210,2970023,,,,,,,2025-10-23,1,,,,,エイメイ,0
2230,9080401028228,新規,0,2025-10-23,2025-10-23,株式会社杉太郎,,株式会社,静岡県,浜松市中央区,上西町１０１３番地,,22,138,4350048,,,,,,,2025-10-23,1,,,,,スギタロウ,0
2231,9090001019576,新規,0,2025-10-23,2025-10-23,株式会社Ｉｎａｋａｋａｒａ,,株式会社,山梨県,南巨摩郡南部町,本郷９２９０－３３,,19,366,4092217,,,,,,,2025-10-23,1,,,,,イナカカラ,0
2241,9120001281180,新規,0,2025-10-23,2025-10-23,トライジョブ株式会社,,株式会社,大阪府,大阪市北区,西天満４丁目３番４号,,27,127,5300047,,,,,,,2025-10-23,1,,,,,トライジョブ,0
2242,9120001281206,新規,0,2025-10-23,2025-10-23,株式会社Ｕｎｖｖｙ,,株式会社,大阪府,大阪市住吉区,東粉浜３丁目９番２７号,,27,120,5580051,,,,,,,2025-10-23,1,,,,,アンヴィー,0
2243,9120001281239,新規,0,2025-10-23,2025-10-23,株式会社ＧＲＯＷＩＴＨ,,株式会社,大阪府,大阪市中央区,南船場１丁目４－１４ソシオタワー南船場５０２号,,27,128,5420081,,,,,,,2025-10-23,1,,,,,グロウィズ,0
2244,9120001281346,新規,0,2025-10-23,2025-10-23,株式会社Ａｍｙ,,株式会社,大阪府,大阪市北区,豊崎３丁目１６番１６号ブランズタワー梅田Ｎｏｒｔｈ４２０４,,27,127,5310072,,,,,,,2025-10-23,1,,,,,アミー,0
2245,9120001281362,新規,0,2025-10-23,2025-10-23,Ｍａｘ　Ｆｏｒｔｕｎｅ　Ｊａｐａｎ株式会社,,株式会社,大阪府,大阪市西成区,山王２丁目５番１８－１０１号,,27,122,5570001,,,,,,,2025-10-23,1,,,,,マックスフォーチュンジャパン,0
2249,9120003031030,新規,0,2025-10-23,2025-10-23,合同会社ＮＯＢＬＥＳＳ　ＯＢＬＩＧＥ,,合同会社,大阪府,大阪市中央区,南船場３丁目２番２２号おおきに南船場ビル２０５,,27,128,5420081,,,,,,,2025-10-23,1,,,,,ノブレスオブリージュ,0
2253,9120103006808,新規,0,2025-10-23,2025-10-23,合同会社マイティ,,合同会社,大阪府,南河内郡河南町,大字白木１１５６番地１,,27,382,5850014,,,,,,,2025-10-23,1,,,,,マイティ,0
2257,9122001039773,新規,0,2025-10-23,2025-10-23,株式会社ＫＲカンパニー,,株式会社,大阪府,東大阪市,吉原１丁目４番１２号,,27,227,5780904,,,,,,,2025-10-23,1,,,,,ケイアールカンパニー,0
2258,9122003003364,新規,0,2025-10-23,2025-10-23,合同会社ナチュラルブレス,,合同会社,大阪府,東大阪市,岩田町５丁目２番２５号エリタージュディアマー６０２号,,27,227,5780941,,,,,,,2025-10-23,1,,,,,ナチュラルブレス,0
2260,9130001080854,新規,0,2025-10-23,2025-10-23,京都千羽匯通株式会社,,株式会社,京都府,京都市左京区,岩倉南池田町１４０番地１０,,26,103,6060005,,,,,,,2025-10-23,1,,,,,キョウトセンウエツウ,0
2264,9140001140467,新規,0,2025-10-23,2025-10-23,株式会社パトロ,,株式会社,兵庫県,神戸市長田区,川西通５丁目１０１番地１共栄ビル２階東側,,28,106,6530834,,,,,,,2025-10-23,1,,,,,パトロ,0
2265,9140001140491,新規,0,2025-10-23,2025-10-23,株式会社ルミリエ,,株式会社,兵庫県,神戸市東灘区,魚崎北町６丁目１４番２４－１０３号,,28,101,6580082,,,,,,,2025-10-23,1,,,,,ルミリエ,0
2266,9140001140525,新規,0,2025-10-23,2025-10-23,株式会社ＨＡＮＳＡ　ＪＡＰＡＮ　ＣＯＲＰＯＲＡＴＩＯＮ,,株式会社,兵庫県,神戸市中央区,下山手通２丁目１３番３号,,28,110,6500011,,,,,,,2025-10-23,1,,,,,,0
2275,9180001169098,新規,0,2025-10-23,2025-10-23,株式会社ドットニュー,,株式会社,愛知県,半田市,宮本町３丁目２０１－８,,23,205,4750925,,,,,,,2025-10-23,1,,,,,ドットニュー,0
2276,9180001169123,新規,0,2025-10-23,2025-10-23,株式会社イトックスコーポレーション,,株式会社,愛知県,名古屋市北区,長田町２丁目１９番地,,23,103,4620834,,,,,,,2025-10-23,1,,,,,イトックスコーポレーション,0
2277,9180001169214,新規,0,2025-10-23,2025-10-23,株式会社洋々会,,株式会社,愛知県,春日井市,高森台３丁目１０番地３,,23,206,4870032,,,,,,,2025-10-23,1,,,,,ヨウヨウカイ,0
2282,9180303006775,新規,0,2025-10-23,2025-10-23,エイチエフワイ合同会社,,合同会社,愛知県,岡崎市,滝町字外浦１４３,,23,202,4443173,,,,,,,2025-10-23,1,,,,,エイチエフワイ,0
2298,9260003005391,新規,0,2025-10-23,2025-10-23,合同会社Ｇｒａｃｅ　ｗａｙ,,合同会社,岡山県,岡山市南区,郡６６番地７,,33,104,7028011,,,,,,,2025-10-23,1,,,,,グレースウェイ,0
2310,9290001111726,新規,0,2025-10-23,2025-10-23,ＵＴＤホールディングス株式会社,,株式会社,福岡県,大野城市,平野台２丁目１７番２３号,,40,219,8160972,,,,,,,2025-10-23,1,,,,,ユーティーディーホールディングス,0
2311,9290001111965,新規,0,2025-10-23,2025-10-23,雅羽和興株式会社,,株式会社,福岡県,福岡市中央区,天神２丁目９新天町地下ファーボ内,,40,133,8100001,,,,,,,2025-10-23,1,,,,,ガウワコウ,0
2312,9290001111973,新規,0,2025-10-23,2025-10-23,株式会社オールウェイズ,,株式会社,福岡県,福岡市博多区,博多駅前３丁目２８番４号Ｋ．Ｕ．Ｄ博多１階,,40,132,8120011,,,,,,,2025-10-23,1,,,,,オールウェイズ,0
2314,9290003017590,新規,0,2025-10-23,2025-10-23,合同会社ワジュ,,合同会社,福岡県,福岡市城南区,松山２丁目１９－１４,,40,136,8140131,,,,,,,2025-10-23,1,,,,,ワジュ,0
2315,9310003005114,新規,0,2025-10-23,2025-10-23,Ｎｉｈｏｎ　Ｈｏｍｅ　ａｎｄ　Ｃｏｍｍｕｎｉｔｙ合同会社,,合同会社,長崎県,長崎市,滑石５丁目３番２５号,,42,201,8528061,,,,,,,2025-10-23,1,,,,,ニホンホームアンドコミュニティ,0
2316,9320001021401,新規,0,2025-10-23,2025-10-23,株式会社ワイドインテリア,,株式会社,大分県,中津市,大字是則１０３０－１エムグラヴィス３０１,,44,203,8710003,,,,,,,2025-10-23,1,,,,,ワイドインテリア,0
2318,9330003011275,新規,0,2025-10-23,2025-10-23,合同会社Ｓｕｎｒｉｓｅ,,合同会社,熊本県,熊本市南区,城南町舞原１５２番地１１号,,43,104,8614214,,,,,,,2025-10-23,1,,,,,サンライズ,0
2325,9360003015348,新規,0,2025-10-23,2025-10-23,合同会社ネイビーブルー,,合同会社,沖縄県,那覇市,金城３丁目８番２０号２階,,47,201,9010155,,,,,,,2025-10-23,1,,,,,ネイビーブルー,0
2328,9370001053167,新規,0,2025-10-23,2025-10-23,株式会社さくの,,株式会社,宮城県,仙台市青葉区,国分町２丁目５番１６号ミヤビ・プリモ国分町ビル２０２号室,,04,101,9800803,,,,,,,2025-10-23,1,,,,,サクノ,0
2331,9370005011014,新規,0,2025-10-23,2025-10-23,一般社団法人Ｅｎｒｉｃｈｉｎｇ　Ｌｉｆｅ　Ｐａｒｔｎｅｒｓ,,その他の設立登記法人,宮城県,仙台市泉区,高森６丁目８番地の４,,04,105,9813203,,,,,,,2025-10-23,1,,,,,エンリッチングライフパートナーズ,0
2336,9420001019311,新規,0,2025-10-23,2025-10-23,青功技建株式会社,,株式会社,青森県,青森市,大字矢田前字本泉２４番地３１,,02,201,0300936,,,,,,,2025-10-23,1,,,,,セイコウギケン,0
2340,9430001095509,新規,0,2025-10-23,2025-10-23,株式会社リトリーアミューズメント,,株式会社,北海道,札幌市中央区,南四条西３丁目１番地１第３グリーンビル,,01,101,0640804,,,,,,,2025-10-23,1,,,,,リトリーアミューズメント,0
2341,9430001095533,新規,0,2025-10-23,2025-10-23,日本リスクマネージメントサービス株式会社,,株式会社,北海道,札幌市西区,発寒十二条３丁目９番１０号,,01,107,0630832,,,,,,,2025-10-23,1,,,,,ニホンリスクマネージメントサービス,0
2346,9450003002733,新規,0,2025-10-23,2025-10-23,オホーツクワイルドミートＬＡＢ合同会社,,合同会社,北海道,紋別郡西興部村,字上興部４７番地１－２２９号,,01,562,0981421,,,,,,,2025-10-23,1,,,,,オホーツクワイルドミートラボ,0
2348,9500001026596,新規,0,2025-10-23,2025-10-23,株式会社本田住建工業,,株式会社,愛媛県,松山市,南江戸５丁目２番１６号,,38,201,7900062,,,,,,,2025-10-23,1,,,,,ホンダジュウケンコウギョウ,0
2350,9700150132646,新規,0,2025-10-23,2025-10-23,Ｍｉｎｎａ　Ｍｉｎａ　Ｈｏｌｄｉｎｇｓ　Ｌｉｍｉｔｅｄ,,外国会社等,,,,,,,,Ｓｕｉｔｅ　４００２Ａ，４０／Ｆ，Ｔｏｗｅｒ　１，Ｌｉｐｐｏ　Ｃｅｎｔｒｅ　８９　Ｑｕｅｅｎｓｗａｙ，Ａｄｍｉｒａｌｔｙ，Ｈｏｎｇ　Ｋｏｎｇ,,,,,,2025-10-23,1,,,,,ミンナミナホールデイングスリミテツド,0
