sequenceNumber,corporateNumber,process,correct,updateDate,changeDate,name,nameImageId,kind,prefectureName,cityName,streetNumber,addressImageId,prefectureCode,cityCode,postCode,addressOutside,addressOutsideImageId,closeDate,closeCause,successorCorporateNumber,changeCause,assignmentDate,latest,enName,enPrefectureName,enCityName,enAddressOutside,furigana,hihyoji
20,1010003034167,登記記録の閉鎖等,0,2023-12-14,2023-12-08,合同会社Ｒｅ,,合同会社,東京都,千代田区,永田町２丁目１２番４号,,13,101,1000014,,,2023-12-08,清算の結了等,,,2021-02-19,1,,,,,アールイー,0
23,1010005017525,登記記録の閉鎖等,0,2023-12-14,2023-12-11,特定非営利活動法人健康生活まちづくり,,その他の設立登記法人,東京都,千代田区,九段北１丁目１５－２九段坂パークビル１階,,13,101,1020073,,,2023-12-11,清算の結了等,,,2015-10-05,1,,,,,ケンコウセイカツマチヅクリ,0
27,1010401082767,登記記録の閉鎖等,0,2023-12-14,2023-12-13,株式会社生活経済研究所,,株式会社,東京都,中野区,中野３丁目７番４号ハイムイシイ２０１,,13,114,1640001,,,2023-12-13,清算の結了等,,,2015-10-05,1,,,,,セイカツケイザイケンキュウショ,0
36,1010701040359,登記記録の閉鎖等,0,2023-12-14,2023-12-08,スマートバンク株式会社,,株式会社,東京都,港区,港南１丁目９番３６号,,13,103,1080075,,,2023-12-08,清算の結了等,,,2021-01-08,1,,,,,スマートバンク,0
124,1040002095298,登記記録の閉鎖等,0,2023-12-14,2023-12-06,有限会社機能材料科学研究所,,有限会社,千葉県,柏市,大津ケ丘３丁目４２番６,,12,217,2770921,,,2023-12-06,清算の結了等,,,2015-10-05,1,,,,,キノウザイリョウカガクケンキュウショ,0
137,1080002001483,登記記録の閉鎖等,0,2023-12-14,2023-12-08,有限会社金沢工業,,有限会社,静岡県,静岡市葵区,羽鳥５丁目１５番４６号,,22,101,4211215,,,2023-12-08,清算の結了等,,,2015-10-05,1,,,,,カナザワコウギョウ,0
142,1080102013156,登記記録の閉鎖等,0,2023-12-14,2023-12-11,有限会社アイワ精密,,有限会社,静岡県,富士市,天間７６８番地,,22,210,4190205,,,2023-12-11,清算の結了等,,,2015-10-05,1,,,,,アイワセイミツ,0
149,1110002021404,登記記録の閉鎖等,0,2023-12-14,2023-12-11,有限会社石田重機建設,,有限会社,新潟県,村上市,牛屋１３３７番地２,,15,212,9593436,,,2023-12-11,清算の結了等,,,2015-10-05,1,,,,,イシダジュウキケンセツ,0
150,1110002024836,登記記録の閉鎖等,0,2023-12-14,2023-12-11,有限会社海老屋,,有限会社,新潟県,妙高市,栄町３番１号,,15,217,9440044,,,2023-12-11,清算の結了等,,,2015-10-05,1,,,,,エビヤ,0
162,1120002036319,登記記録の閉鎖等,0,2023-12-14,2023-12-12,有限会社春光社,,有限会社,大阪府,大阪市中央区,大手通２丁目４番７号,,27,128,5400021,,,2023-12-12,清算の結了等,,,2015-10-05,1,,,,,シュンコウシャ,0
163,1120002038273,登記記録の閉鎖等,0,2023-12-14,2023-12-08,有限会社ふじ井,,有限会社,大阪府,大阪市中央区,（大阪市南区道頓堀二丁目４番１３号）,,27,128,5390000,,,2023-12-08,清算の結了等,,,2015-10-05,1,,,,,フジイ,1
172,1130001007187,登記記録の閉鎖等,0,2023-12-14,2023-12-11,株式会社富士タイル店,,株式会社,京都府,京都市左京区,田中大久保町５７番地,,26,103,6068236,,,2023-12-11,清算の結了等,,,2015-10-05,1,,,,,フジタイルテン,0
173,1140001076578,登記記録の閉鎖等,0,2023-12-14,2023-12-12,株式会社アンビックス,,株式会社,兵庫県,小野市,中谷町１４１３番地,,28,218,6751304,,,2023-12-12,清算の結了等,,,2015-10-05,1,,,,,アンビックス,0
179,1140002016277,登記記録の閉鎖等,0,2023-12-14,2023-12-11,有限会社森本不動産,,有限会社,兵庫県,神戸市中央区,中山手通１丁目４番１４号,,28,110,6500004,,,2023-12-11,清算の結了等,,,2015-10-05,1,,,,,モリモトフドウサン,0
186,1170001014106,登記記録の閉鎖等,0,2023-12-14,2023-12-08,ジェイ・エクラ株式会社,,株式会社,和歌山県,和歌山市,西浜９２１番地,,30,201,6410036,,,2023-12-08,合併による解散等,9170001001567,令和５年１１月２０日和歌山市西浜９２１番地上起建設株式会社（9170001001567）に合併し解散,2016-01-20,1,,,,,ジェイエクラ,0
196,1180002031454,登記記録の閉鎖等,0,2023-12-14,2023-12-11,有限会社セントラル・ラボ,,有限会社,愛知県,名古屋市中区,上前津１丁目５番５号,,23,106,4600013,,,2023-12-11,清算の結了等,,,2015-10-05,1,,,,,セントラルラボ,0
198,1180003021495,登記記録の閉鎖等,0,2023-12-14,2023-12-08,合同会社オアシスライフ,,合同会社,愛知県,名古屋市南区,本地通７丁目９番地の１,,23,112,4570074,,,2023-12-08,清算の結了等,,,2020-08-12,1,,,,,オアシスライフ,0
204,1200005007151,登記記録の閉鎖等,0,2023-12-14,2023-12-12,協同組合まことエンジニアリング,,その他の設立登記法人,岐阜県,加茂郡富加町,大平賀４８８番地,,21,502,5013307,,,2023-12-12,清算の結了等,,,2015-10-05,1,,,,,マコトエンジニアリング,0
206,1220001024941,登記記録の閉鎖等,0,2023-12-14,2023-12-08,株式会社ピースサイン,,株式会社,石川県,七尾市,泉南台２０２番地,,17,202,9260179,,,2023-12-08,清算の結了等,,,2022-07-05,1,,,,,ピースサイン,0
210,1260002013361,登記記録の閉鎖等,0,2023-12-14,2023-12-12,有限会社流通システム伊達,,有限会社,岡山県,岡山市北区,今保５７１番地の１,,33,101,7010145,,,2023-12-12,清算の結了等,,,2015-10-05,1,,,,,,0
214,1290001001133,登記記録の閉鎖等,0,2023-12-14,2023-12-05,株式会社玉算堂,,株式会社,福岡県,福岡市南区,長丘５丁目２２番１８号,,40,134,8150075,,,2023-12-05,清算の結了等,,,2015-10-05,1,,,,,,0
235,1370002019190,登記記録の閉鎖等,0,2023-12-14,2023-12-11,有限会社アクティブサービス,,有限会社,宮城県,仙台市若林区,南小泉４丁目１０番１－３０１号,,04,103,9840827,,,2023-12-11,清算の結了等,,,2015-10-05,1,,,,,アクティブサービス,0
244,1410001012836,登記記録の閉鎖等,0,2023-12-14,2023-12-08,株式会社メディアリテール,,株式会社,秋田県,由利本荘市,石脇字山ノ神１１番地１２４０,,05,210,0150014,,,2023-12-08,清算の結了等,,,2021-05-17,1,,,,,メディアリテール,0
247,1420001013412,登記記録の閉鎖等,0,2023-12-14,2023-12-11,マザーツリー株式会社,,株式会社,東京都,豊島区,池袋２丁目５５番１２－４０１号,,13,116,1710014,,,2023-12-11,清算の結了等,,,2015-10-05,1,,,,,マザーツリー,0
263,1500001021324,登記記録の閉鎖等,0,2023-12-14,2023-12-11,株式会社横山真珠,,株式会社,愛媛県,宇和島市,下波１１９８番地,,38,203,7980104,,,2023-12-11,清算の結了等,,,2018-04-23,1,,,,,ヨコヤマシンジュ,0
269,2010001030943,登記記録の閉鎖等,0,2023-12-14,2023-12-08,株式会社モロ電商事,,株式会社,東京都,千代田区,神田錦町２丁目７番地,,13,101,1010054,,,2023-12-08,清算の結了等,,,2015-10-05,1,,,,,モロデンショウジ,0
303,2011101058404,登記記録の閉鎖等,0,2023-12-14,2023-12-08,株式会社オシドリ,,株式会社,京都府,京都市上京区,裏門通出水上る白銀町２４５－５,,26,102,6028178,,,2023-12-08,清算の結了等,,,2015-10-05,1,,,,,オシドリ,0
313,2011401016268,登記記録の閉鎖等,0,2023-12-14,2023-12-12,株式会社エスエスピー,,株式会社,東京都,板橋区,高島平１丁目４５番５号,,13,119,1750082,,,2023-12-12,清算の結了等,,,2015-10-05,1,,,,,エスエスピー,0
316,2011402019641,登記記録の閉鎖等,0,2023-12-14,2023-12-11,有限会社エフ・プランニング,,有限会社,神奈川県,小田原市,本町３丁目１１番２２号,,14,206,2500012,,,2023-12-11,清算の結了等,,,2015-10-05,1,,,,,エフプランニング,0
319,2011601010541,登記記録の閉鎖等,0,2023-12-14,2023-12-08,株式会社エービーシーコーポレーション,,株式会社,東京都,豊島区,駒込１丁目３４番２－４０１号,,13,116,1700003,,,2023-12-08,清算の結了等,,,2015-10-05,1,,,,,エービーシーコーポレーション,0
322,2011702007247,登記記録の閉鎖等,0,2023-12-14,2023-12-12,有限会社田川,,有限会社,東京都,江戸川区,大杉５丁目１７番５号,,13,123,1320022,,,2023-12-12,清算の結了等,,,2015-10-05,1,,,,,タガワ,0
324,2011802000028,登記記録の閉鎖等,0,2023-12-14,2023-12-08,有限会社朝日ハウス,,有限会社,東京都,葛飾区,堀切４丁目５７番１３号,,13,122,1240006,,,2023-12-08,清算の結了等,,,2015-10-05,1,,,,,アサヒハウス,0
342,2020002041385,登記記録の閉鎖等,0,2023-12-14,2023-12-07,有限会社いらか総合設計,,有限会社,神奈川県,横浜市中区,元町４丁目１５３番地,,14,104,2310861,,,2023-12-07,清算の結了等,,,2015-10-05,1,,,,,イラカソウゴウセッケイ,0
362,2030001140212,登記記録の閉鎖等,0,2023-12-14,2023-12-06,株式会社ミーナ,,株式会社,埼玉県,所沢市,和ケ原２丁目２１９番地の１,,11,208,3591162,,,2023-12-06,清算の結了等,,,2021-01-14,1,,,,,ミーナ,0
381,2050001039048,登記記録の閉鎖等,0,2023-12-14,2023-12-08,株式会社報国会,,株式会社,茨城県,ひたちなか市,大字東石川３４４４番地７,,08,221,3120052,,,2023-12-08,清算の結了等,,,2015-10-05,1,,,,,ホウコクカイ,0
382,2050002014181,登記記録の閉鎖等,0,2023-12-14,2023-12-08,有限会社神谷商店,,有限会社,茨城県,かすみがうら市,稲吉東６丁目５番２０号,,08,230,3150053,,,2023-12-08,清算の結了等,,,2015-10-05,1,,,,,カミヤショウテン,0
384,2080002006226,登記記録の閉鎖等,0,2023-12-14,2023-12-08,有限会社陽正電設,,有限会社,静岡県,静岡市駿河区,中村町７２番地コーポアプリコット２０１号,,22,102,4228047,,,2023-12-08,清算の結了等,,,2015-10-05,1,,,,,ヨウマサデンセツ,0
385,2080002017090,登記記録の閉鎖等,0,2023-12-14,2023-12-08,有限会社テンセイ,,有限会社,静岡県,藤枝市,横内２２２７番地,,22,214,4260002,,,2023-12-08,清算の結了等,,,2015-10-05,1,,,,,,0
386,2080101007785,登記記録の閉鎖等,0,2023-12-14,2023-12-11,株式会社ＥＣＯＮＡ,,株式会社,静岡県,賀茂郡南伊豆町,湊１６７５番地の１,,22,304,4150152,,,2023-12-11,清算の結了等,,,2015-10-05,1,,,,,エコナ,0
387,2080102011506,登記記録の閉鎖等,0,2023-12-14,2023-12-11,有限会社ベーレ,,有限会社,静岡県,駿東郡長泉町,竹原３１３番地の１５,,22,342,4110944,,,2023-12-11,清算の結了等,,,2015-10-05,1,,,,,ベーレ,0
399,2120001002618,登記記録の閉鎖等,0,2023-12-14,2023-12-08,巳波工業株式会社,,株式会社,大阪府,東大阪市,高井田中２丁目８番２号,,27,227,5770065,,,2023-12-08,清算の結了等,,,2015-10-05,1,,,,,ミワコウギョウ,0
419,2122001027413,登記記録の閉鎖等,0,2023-12-14,2023-12-11,株式会社ウパース,,株式会社,大阪府,東大阪市,吉田８丁目４番５号,,27,227,5780924,,,2023-12-11,清算の結了等,,,2015-10-05,1,,,,,ウパース,0
423,2130001043685,登記記録の閉鎖等,0,2023-12-14,2023-12-11,舞鶴納入食品株式会社,,株式会社,京都府,舞鶴市,字常８４６番地,,26,202,6250072,,,2023-12-11,清算の結了等,,,2015-10-05,1,,,,,マイヅルノウニュウショクヒン,0
437,2180001068595,登記記録の閉鎖等,0,2023-12-14,2023-12-08,ランアップ株式会社,,株式会社,愛知県,長久手市,菖蒲池１６０６番地,,23,238,4801115,,,2023-12-08,清算の結了等,,,2015-10-05,1,,,,,ランアップ,0
440,2180001132335,登記記録の閉鎖等,0,2023-12-14,2023-12-11,株式会社ＮＯＫＯ,,株式会社,愛知県,春日井市,大留町２丁目１７番地１５,,23,206,4870024,,,2023-12-11,清算の結了等,,,2018-05-24,1,,,,,ノコ,0
442,2180001157233,登記記録の閉鎖等,0,2023-12-14,2023-12-11,株式会社Ｓｍｉｌｅ　Ａｔｔｒａｃｔ,,株式会社,愛知県,北名古屋市,熊之庄十二社１３４番地１ファミールＩＩ１０１号,00131240,23,234,4810006,,,2023-12-11,清算の結了等,,,2023-07-21,1,,,,,スマイルアトラクト,0
445,2180003013269,登記記録の閉鎖等,0,2023-12-14,2023-12-08,合資会社八百辰商店,,合資会社,愛知県,東海市,加木屋町御林１６番地,,23,222,4770032,,,2023-12-08,清算の結了等,,,2015-10-05,1,,,,,ヤオタツショウテン,0
450,2190001018013,登記記録の閉鎖等,0,2023-12-14,2023-12-11,株式会社ハラ商運,,株式会社,三重県,三重郡菰野町,大字菰野３０４５番地１,,24,341,5101233,,,2023-12-11,清算の結了等,,,2015-10-05,1,,,,,ハラショウウン,0
458,2240002047526,登記記録の閉鎖等,0,2023-12-14,2023-12-08,有限会社イノウエ企画設計事務所,,有限会社,広島県,福山市,加茂町字中野７００番地の２３４,,34,207,7202418,,,2023-12-08,清算の結了等,,,2015-10-05,1,,,,,イノウエキカクセッケイジムショ,0
464,2260001021513,登記記録の閉鎖等,0,2023-12-14,2023-12-11,片鉄興産株式会社,,株式会社,岡山県,備前市,西片上１８９７番地の５,,33,211,7050021,,,2023-12-11,清算の結了等,,,2015-10-05,1,,,,,カタテツコウサン,0
495,2330002018848,登記記録の閉鎖等,0,2023-12-14,2023-12-11,有限会社佐間野土木,,有限会社,熊本県,山鹿市,中１３５３番地の３,,43,208,8610531,,,2023-12-11,清算の結了等,,,2015-10-05,1,,,,,サマノドボク,0
499,2350001012271,登記記録の閉鎖等,0,2023-12-14,2023-12-06,セイバリーライフ株式会社,,株式会社,宮崎県,宮崎市,橘通西１丁目２番３号エコシティビル１階,,45,201,8800001,,,2023-12-06,清算の結了等,,,2015-10-05,1,,,,,セイバリーライフ,0
504,2370002016914,登記記録の閉鎖等,0,2023-12-14,2023-12-11,有限会社ミキ自工,,有限会社,宮城県,仙台市泉区,市名坂字新道９番地の１,,04,105,9813117,,,2023-12-11,清算の結了等,,,2015-10-05,1,,,,,ミキジコウ,0
519,2430002003856,登記記録の閉鎖等,0,2023-12-14,2023-12-07,有限会社大谷興業,,有限会社,北海道,札幌市東区,北二十七条東２２丁目３番１８号,,01,103,0650027,,,2023-12-07,清算の結了等,,,2015-10-05,1,,,,,オオタニコウギョウ,0
525,2500002014160,登記記録の閉鎖等,0,2023-12-14,2023-12-12,有限会社コスモ技研,,有限会社,愛媛県,西条市,大町８７７番地,,38,206,7930030,,,2023-12-12,清算の結了等,,,2015-10-05,1,,,,,コスモギケン,0
527,3010001014714,登記記録の閉鎖等,0,2023-12-14,2023-12-08,株式会社協永アドプロモーシヨン,,株式会社,東京都,千代田区,六番町１３番５号,,13,101,1020085,,,2023-12-08,清算の結了等,,,2015-10-05,1,,,,,キョウエイアドプロモーション,0
530,3010001035594,登記記録の閉鎖等,0,2023-12-14,2023-12-08,アサヒケミカル株式会社,,株式会社,東京都,中央区,日本橋馬喰町１丁目４番８号,,13,102,1030002,,,2023-12-08,清算の結了等,,,2015-10-05,1,,,,,アサヒケミカル,0
531,3010001037442,登記記録の閉鎖等,0,2023-12-14,2023-12-08,稲村不動産株式会社,,株式会社,東京都,中央区,日本橋茅場町１丁目９番２号,,13,102,1030025,,,2023-12-08,合併による解散等,9010001037437,令和５年１２月８日東京都中央区日本橋茅場町一丁目９番２号稲村建設株式会社（9010001037437）に合併し解散,2015-10-05,1,,,,,イナムラフドウサン,0
544,3010001182197,登記記録の閉鎖等,0,2023-12-14,2023-12-11,株式会社ダイナミクス,,株式会社,京都府,京都市中京区,新町通四条上る小結棚町４２８番地,,26,104,6048223,,,2023-12-11,清算の結了等,,,2017-03-16,1,,,,,ダイナミクス,0
571,3010403023206,登記記録の閉鎖等,0,2023-12-14,2023-12-08,アジアライフ２ホールディングス合同会社,,合同会社,東京都,港区,虎ノ門３丁目２２番１０－２０１号,,13,103,1050001,,,2023-12-08,清算の結了等,,,2020-07-02,1,,,,,アジアライフツーホールディングス,0
576,3010602019938,登記記録の閉鎖等,0,2023-12-14,2023-12-08,有限会社サトル,,有限会社,東京都,台東区,西浅草２丁目１６番４号,,13,106,1110035,,,2023-12-08,合併による解散等,5210001012200,令和５年１２月１日福井県越前市横住町２８号３番地日本化成工業株式会社（5210001012200）に合併し解散,2015-10-05,1,,,,,,0
588,3011001099836,登記記録の閉鎖等,0,2023-12-14,2023-12-13,アルファアーキテクト株式会社,,株式会社,東京都,渋谷区,恵比寿１丁目２０番１８号三富ビル新館９階,,13,113,1500013,,,2023-12-13,清算の結了等,,,2015-10-05,1,,,,,アルファアーキテクト,0
590,3011001120444,登記記録の閉鎖等,0,2023-12-14,2023-12-12,株式会社ピナクル・アセットマネジメント,,株式会社,東京都,目黒区,下目黒４丁目８番１１号,,13,110,1530064,,,2023-12-12,清算の結了等,,,2018-02-01,1,,,,,ピナクルアセットマネジメント,0
591,3011001121491,登記記録の閉鎖等,0,2023-12-14,2023-12-11,クックパッドライブ株式会社,,株式会社,東京都,港区,北青山３丁目１１番７号,,13,103,1070061,,,2023-12-11,合併による解散等,6010401071872,令和５年１２月１日神奈川県横浜市西区みなとみらい三丁目７番１号ＷｅＷｏｒｋオーシャンゲートみなとみらいクックパッド株式会社（6010401071872）に合併し解散,2018-04-05,1,,,,,クックパッドライブ,0
592,3011002027903,登記記録の閉鎖等,0,2023-12-14,2023-12-12,有限会社クルミ保険企画,,有限会社,東京都,目黒区,青葉台３丁目１８番１０－５０３号第一目黒橋ビル,,13,110,1530042,,,2023-12-12,清算の結了等,,,2015-10-05,1,,,,,クルミホケンキカク,0
615,3013201015853,登記記録の閉鎖等,0,2023-12-14,2023-12-11,株式会社さうなし,,株式会社,東京都,渋谷区,広尾５丁目２１番２号,,13,113,1500012,,,2023-12-11,合併による解散等,8010401073462,令和５年１２月１日東京都港区麻布台一丁目３番１号株式会社ＳＨＩＦＴ（8010401073462）に合併し解散,2015-10-05,1,,,,,サウナシ,0
627,3020002073287,登記記録の閉鎖等,0,2023-12-14,2023-12-07,有限会社フェムコアジア,,有限会社,神奈川県,横浜市南区,弘明寺町１４９－１－５０７,,14,105,2320067,,,2023-12-07,清算の結了等,,,2015-10-05,1,,,,,フェムコアジア,0
628,3020002078039,登記記録の閉鎖等,0,2023-12-14,2023-12-08,フィリアコンサルタンツ有限会社,,有限会社,神奈川県,横浜市緑区,小山町６６０番地２７,,14,113,2260023,,,2023-12-08,清算の結了等,,,2015-10-05,1,,,,,フィリアコンサルタンツ,0
629,3020002087824,登記記録の閉鎖等,0,2023-12-14,2023-11-28,有限会社前野製作所,,有限会社,神奈川県,川崎市宮前区,馬絹４丁目１０番２３号,,14,136,2160035,,,2023-11-28,清算の結了等,,,2015-10-05,1,,,,,マエノセイサクジョ,0
659,3030005008561,登記記録の閉鎖等,0,2023-12-14,2023-12-05,医療法人和心会,,その他の設立登記法人,埼玉県,川越市,的場２丁目７番地７,,11,201,3501101,,,2023-12-05,清算の結了等,,,2015-10-05,1,,,,,ワシンカイ,0
668,3040002036507,登記記録の閉鎖等,0,2023-12-14,2023-12-07,有限会社ホクソウ,,有限会社,千葉県,市川市,北国分３丁目１７番１６号,,12,203,2720836,,,2023-12-07,清算の結了等,,,2015-10-05,1,,,,,ホクソウ,0
669,3040002069630,登記記録の閉鎖等,0,2023-12-14,2023-12-07,有限会社植田建設,,有限会社,千葉県,君津市,外箕輪２丁目２５番２８号,,12,225,2991173,,,2023-12-07,清算の結了等,,,2015-10-05,1,,,,,,0
691,3100002015487,登記記録の閉鎖等,0,2023-12-14,2023-12-06,有限会社しなの木温泉,,有限会社,長野県,上田市,住吉８６番地２,,20,203,3860002,,,2023-12-06,清算の結了等,,,2015-10-05,1,,,,,,0
708,3120002034320,登記記録の閉鎖等,0,2023-12-14,2023-12-12,ウイズエステート有限会社,,有限会社,大阪府,大阪市中央区,淡路町１丁目３番２－６０２号,,27,128,5410047,,,2023-12-12,清算の結了等,,,2015-10-05,1,,,,,ウイズエステート,0
713,3120101024841,登記記録の閉鎖等,0,2023-12-14,2023-12-12,株式会社システムアンドサポート,,株式会社,大阪府,堺市中区,深井清水町３５９０番地ＴＫアンバーコート深井３０５号室,,27,142,5998273,,,2023-12-12,清算の結了等,,,2015-10-05,1,,,,,システムアンドサポート,0
716,3120105003701,登記記録の閉鎖等,0,2023-12-14,2023-12-12,アサヒ衛陶労働組合,,その他の設立登記法人,大阪府,大阪市中央区,常盤町１丁目３－８中央大通ＦＮビル１０階アサヒ衛陶株式会社内,,27,128,5400028,,,2023-12-12,清算の結了等,,,2015-10-05,1,,,,,アサヒエイトウ,0
730,3140005020794,登記記録の閉鎖等,0,2023-12-14,2023-12-13,特定非営利活動法人ひょうご住まいと環境,,その他の設立登記法人,兵庫県,養父市,広谷２０６番地１,,28,222,6670101,,,2023-12-13,清算の結了等,,,2015-10-05,1,,,,,ヒョウゴスマイトカンキョウ,0
731,3160002006547,登記記録の閉鎖等,0,2023-12-14,2023-12-12,有限会社サンエー,,有限会社,滋賀県,長浜市,寺師町１４１番地の２,,25,203,5260209,,,2023-12-12,清算の結了等,,,2015-10-05,1,,,,,サンエー,0
758,3190001001273,登記記録の閉鎖等,0,2023-12-14,2023-12-11,株式会社エイエヌエス,,株式会社,三重県,津市,新家町８９９番地６,,24,201,5141116,,,2023-12-11,清算の結了等,,,2015-10-05,1,,,,,エイエヌエス,0
761,3200001019413,登記記録の閉鎖等,0,2023-12-14,2023-12-13,東洋物産株式会社,,株式会社,岐阜県,関市,下之保４９２７番地の２,,21,205,5013521,,,2023-12-13,清算の結了等,,,2015-10-05,1,,,,,トウヨウブッサン,0
772,3250002007131,登記記録の閉鎖等,0,2023-12-14,2023-12-12,有限会社ウッドメイク丸山,,有限会社,山口県,山陽小野田市,大字小野田３９３５番地の１,,35,216,7560817,,,2023-12-12,清算の結了等,,,2015-10-05,1,,,,,ウッドメイクマルヤマ,0
773,3260001018244,登記記録の閉鎖等,0,2023-12-14,2023-12-01,シタキホームサービス株式会社,,株式会社,岡山県,井原市,七日市町８８４番地１,,33,207,7150014,,,2023-12-01,合併による解散等,2260001018237,令和５年１２月１日岡山県井原市西江原町１９３１番地株式会社志多木組（2260001018237）に合併し解散,2015-10-05,1,,,,,シタキホームサービス,0
776,3260002032186,登記記録の閉鎖等,0,2023-12-14,2023-12-12,いなば屋有限会社,,有限会社,岡山県,備前市,香登本１１４７番地,,33,211,7050012,,,2023-12-12,清算の結了等,,,2015-10-05,1,,,,,イナバヤ,0
780,3310005007460,登記記録の閉鎖等,0,2023-12-14,2023-12-12,一般社団法人西海福祉サービス,,その他の設立登記法人,長崎県,西海市,崎戸町蠣浦郷１６４６番地１２,,42,212,8573101,,,2023-12-12,清算の結了等,,,2015-10-05,1,,,,,サイカイフクシサービス,0
791,3370001006213,登記記録の閉鎖等,0,2023-12-14,2023-12-11,株式会社村上紙工所,,株式会社,宮城県,仙台市宮城野区,扇町１丁目３番４号,,04,102,9830034,,,2023-12-11,清算の結了等,,,2015-10-05,1,,,,,ムラカミシコウショ,0
792,3370001046201,登記記録の閉鎖等,0,2023-12-14,2023-12-11,株式会社ゼロネット,,株式会社,宮城県,名取市,田高字原３２５番地の１アムールブリエ１０６号,,04,207,9811221,,,2023-12-11,清算の結了等,,,2020-10-05,1,,,,,,0
799,3380001023629,登記記録の閉鎖等,0,2023-12-14,2023-12-11,株式会社翠希建設,,株式会社,福島県,いわき市,小名浜下神白字三崎１番地,,07,204,9700316,,,2023-12-11,清算の結了等,,,2015-10-05,1,,,,,スイキケンセツ,0
808,3430001077421,登記記録の閉鎖等,0,2023-12-14,2023-12-06,株式会社キーオン,,株式会社,北海道,札幌市中央区,南一条西５丁目７番地愛生舘ビル４階,,01,101,0600061,,,2023-12-06,清算の結了等,,,2018-09-25,1,,,,,キーオン,0
811,3460102000254,登記記録の閉鎖等,0,2023-12-14,2023-12-12,有限会社一元,,有限会社,北海道,帯広市,東一条南１３丁目１２番地１,,01,207,0800801,,,2023-12-12,清算の結了等,,,2015-10-05,1,,,,,イチゲン,0
814,3480002000757,登記記録の閉鎖等,0,2023-12-14,2023-12-12,有限会社太田アカウントリサーチ,,有限会社,徳島県,徳島市,昭和町７丁目２０番地,,36,201,7700942,,,2023-12-12,清算の結了等,,,2015-10-05,1,,,,,オオタアカウントリサーチ,0
815,3480002013494,登記記録の閉鎖等,0,2023-12-14,2023-12-13,有限会社橋本呉服店,,有限会社,徳島県,阿南市,見能林町西石仏１３番地３,,36,204,7740017,,,2023-12-13,清算の結了等,,,2015-10-05,1,,,,,ハシモトゴフクテン,0
818,4010001117111,登記記録の閉鎖等,0,2023-12-14,2023-12-07,株式会社アジア情報通信社,,株式会社,東京都,千代田区,岩本町１丁目２番１号,,13,101,1010032,,,2023-12-07,清算の結了等,,,2015-10-05,1,,,,,アジアジョウホウツウシンシャ,0
830,4010003026806,登記記録の閉鎖等,0,2023-12-14,2023-12-07,合同会社ダブルオーセブン,,合同会社,東京都,中央区,日本橋１丁目４番１号,,13,102,1030027,,,2023-12-07,清算の結了等,,,2018-01-18,1,,,,,ダブルオーセブン,0
863,4011301014171,登記記録の閉鎖等,0,2023-12-14,2023-12-11,株式会社シャドウ,,株式会社,東京都,杉並区,高円寺南３丁目２６番４号,,13,115,1660003,,,2023-12-11,清算の結了等,,,2015-10-05,1,,,,,シャドウ,0
875,4011502008856,登記記録の閉鎖等,0,2023-12-14,2023-12-06,有限会社シークトルース,,有限会社,東京都,荒川区,西日暮里２丁目２６番５号市井ビル２Ｆ,,13,118,1160013,,,2023-12-06,清算の結了等,,,2015-10-05,1,,,,,,0
886,4013102005647,登記記録の閉鎖等,0,2023-12-14,2023-12-11,有限会社アイビジネス,,有限会社,東京都,青梅市,新町３丁目１１番地の７,,13,205,1980024,,,2023-12-11,清算の結了等,,,2015-10-05,1,,,,,アイビジネス,0
895,4020002067643,登記記録の閉鎖等,0,2023-12-14,2023-12-08,有限会社亀井流通研究所,,有限会社,神奈川県,横浜市港北区,箕輪町２丁目１４番１９－３０５号,,14,109,2230051,,,2023-12-08,清算の結了等,,,2015-10-05,1,,,,,カメイリュウツウケンキュウショ,0
909,4030001145358,登記記録の閉鎖等,0,2023-12-14,2023-12-11,Ｔｒｅｅａｄ埼玉株式会社,,株式会社,埼玉県,久喜市,栗原２丁目３番地１２,,11,232,3460012,,,2023-12-11,合併による解散等,5010101013894,令和５年１２月１日東京都八王子市大和田町二丁目５番２４号Ｔｒｅｅａｄ株式会社（5010101013894）に合併し解散,2021-11-17,1,,,,,ツリードサイタマ,0
947,4100002030857,登記記録の閉鎖等,0,2023-12-14,2023-12-07,有限会社アニマ,,有限会社,長野県,岡谷市,神明町２丁目５番１４号,,20,204,3940004,,,2023-12-07,清算の結了等,,,2015-10-05,1,,,,,アニマ,0
951,4110001029263,登記記録の閉鎖等,0,2023-12-14,2023-12-11,株式会社オーシャンダイニング,,株式会社,新潟県,新潟市中央区,女池３丁目５４番１号,,15,103,9500941,,,2023-12-11,清算の結了等,,,2015-10-05,1,,,,,オーシャンダイニング,0
953,4110005015020,登記記録の閉鎖等,0,2023-12-14,2023-12-07,特定非営利活動法人エイジレスリンク新潟,,その他の設立登記法人,新潟県,新潟市中央区,西堀前通６番町８９４番地１西堀６番館１階,,15,103,9518062,,,2023-12-07,清算の結了等,,,2015-10-05,1,,,,,エイジレスリンクニイガタ,0
955,4120001046150,登記記録の閉鎖等,0,2023-12-14,2023-12-11,株式会社ニコー物流,,株式会社,大阪府,大阪市西区,西本町２丁目４番１９－１３０１号,,27,106,5500005,,,2023-12-11,清算の結了等,,,2015-10-05,1,,,,,ニコーブツリュウ,0
961,4120001129822,登記記録の閉鎖等,0,2023-12-14,2023-12-12,ＭＲＳ株式会社,,株式会社,大阪府,大阪市浪速区,元町３丁目１０番９号,,27,111,5560016,,,2023-12-12,清算の結了等,,,2015-10-05,1,,,,,エムアールエス,0
962,4120001149168,登記記録の閉鎖等,0,2023-12-14,2023-12-08,株式会社オリエント商会,,株式会社,大阪府,枚方市,長尾家具町２丁目１２番地の４５,,27,210,5730102,,,2023-12-08,清算の結了等,,,2015-10-05,1,,,,,オリエントショウカイ,0
967,4120001232717,登記記録の閉鎖等,0,2023-12-14,2023-12-11,山月株式会社,,株式会社,東京都,新宿区,西新宿１丁目２０番３号西新宿高木ビル,,13,104,1600023,,,2023-12-11,清算の結了等,,,2020-10-27,1,,,,,ヤマツキ,0
972,4120002066841,登記記録の閉鎖等,0,2023-12-14,2023-12-11,有限会社野田商会,,有限会社,大阪府,大阪市西区,西本町２丁目４番１９－１３０１号,,27,106,5500005,,,2023-12-11,清算の結了等,,,2015-10-05,1,,,,,ノダショウカイ,0
973,4120003010476,登記記録の閉鎖等,0,2023-12-14,2023-12-12,合同会社憩,,合同会社,大阪府,大阪市東住吉区,桑津３丁目２４番５号,,27,121,5460041,,,2023-12-12,清算の結了等,,,2015-10-05,1,,,,,イコイ,0
975,4120005018344,登記記録の閉鎖等,0,2023-12-14,2023-12-08,特定非営利活動法人喜連東第一町会,,その他の設立登記法人,大阪府,大阪市平野区,喜連東２丁目１－１４八坂神社内,,27,126,5470021,,,2023-12-08,清算の結了等,,,2015-12-11,1,,,,,キレヒガシダイイチチョウカイ,0
983,4130001006913,登記記録の閉鎖等,0,2023-12-14,2023-11-28,株式会社ドクターコンサルタント,,株式会社,京都府,京都市左京区,聖護院蓮華蔵町１番地の１,,26,103,6068357,,,2023-11-28,合併による解散等,2130001009307,令和５年１１月１日京都市東山区福稲上高松町６４番地の２サンパルコ株式会社（2130001009307）に合併し解散,2015-10-05,1,,,,,ドクターコンサルタント,0
996,4140002068035,登記記録の閉鎖等,0,2023-12-14,2023-12-06,有限会社ファーベル,,有限会社,兵庫県,宝塚市,栄町２丁目１番１－Ｅ－５０５号,,28,214,6650845,,,2023-12-06,清算の結了等,,,2015-10-05,1,,,,,ファーベル,0
1015,4190002020362,登記記録の閉鎖等,0,2023-12-14,2023-12-12,有限会社サン通商,,有限会社,三重県,四日市市,赤水町３番地の１,,24,202,5121204,,,2023-12-12,清算の結了等,,,2015-10-05,1,,,,,サンツウショウ,0
1019,4220001021011,登記記録の閉鎖等,0,2023-12-14,2023-12-12,株式会社ネオプラーＫ,,株式会社,石川県,金沢市,森戸１丁目１１４番地５金沢森戸三栄ビル１Ｂ,,17,201,9218061,,,2023-12-12,合併による解散等,1120001171083,令和５年１１月３０日大阪市北区西天満三丁目３番７号ライオンズマンション中之島公園北２０５株式会社ネオプラ（1120001171083）に合併し解散,2016-06-01,1,,,,,ネオプラケー,0
1025,4240001031033,登記記録の閉鎖等,0,2023-12-14,2023-10-31,株式会社スズキハウジング,,株式会社,広島県,福山市,丸之内１丁目４番１号,,34,207,7200061,,,2023-10-31,合併による解散等,9240001031029,令和５年１０月３１日広島県福山市丸之内一丁目４番１号株式会社鈴木工務店（9240001031029）に合併し解散,2015-10-05,1,,,,,スズキハウジング,0
1031,4260001000754,登記記録の閉鎖等,0,2023-12-14,2023-12-12,株式会社栄和技研,,株式会社,岡山県,岡山市東区,升田５１７番地３,,33,103,7048163,,,2023-12-12,清算の結了等,,,2015-10-05,1,,,,,エイワギケン,0
1052,4350005001574,登記記録の閉鎖等,0,2023-12-14,2023-12-11,医療法人社団堀川町山下内科呼吸器科医院,,その他の設立登記法人,宮崎県,宮崎市,堀川町１０番地,,45,201,8800873,,,2023-12-11,清算の結了等,,,2015-10-05,1,,,,,ホリカワチョウヤマシタナイカコキュウキカイイン,0
1065,4420001016908,登記記録の閉鎖等,0,2023-12-14,2023-12-08,株式会社ぴっくあっぷ,,株式会社,青森県,弘前市,大字栄町３丁目１番地２,,02,202,0368336,,,2023-12-08,清算の結了等,,,2020-02-27,1,,,,,ピックアップ,0
1092,5010002021014,登記記録の閉鎖等,0,2023-12-14,2023-12-08,有限会社ジィーティーエイ銀座旅行協会,,有限会社,東京都,中央区,銀座４丁目５番１号聖書館ビル,,13,102,1040061,,,2023-12-08,清算の結了等,,,2015-10-05,1,,,,,ジィーティーエイギンザリョコウキョウカイ,0
1113,5010402016274,登記記録の閉鎖等,0,2023-12-14,2023-12-11,有限会社ファーロ,,有限会社,東京都,港区,西麻布１丁目１５番４号,,13,103,1060031,,,2023-12-11,清算の結了等,,,2015-10-05,1,,,,,ファーロ,0
1119,5010705003390,登記記録の閉鎖等,0,2023-12-14,2023-12-07,一般社団法人福岡牧場,,その他の設立登記法人,東京都,品川区,上大崎３丁目１番１号目黒セントラルスクエア１５階,,13,109,1410021,,,2023-12-07,清算の結了等,,,2022-07-22,1,,,,,フクオカボクジョウ,0
1139,5011103011135,登記記録の閉鎖等,0,2023-12-14,2023-12-05,合同会社グランジュール,,合同会社,東京都,杉並区,桃井１丁目１５番１１号１０１号室,,13,115,1670034,,,2023-12-05,清算の結了等,,,2021-11-10,1,,,,,グランジュール,0
1147,5011502000663,登記記録の閉鎖等,0,2023-12-14,2023-12-08,有限会社岩佐商店,,有限会社,東京都,北区,堀船２丁目２４番１７号,,13,117,1140004,,,2023-12-08,清算の結了等,,,2015-10-05,1,,,,,イワサショウテン,0
1171,5021001033164,登記記録の閉鎖等,0,2023-12-14,2023-12-11,株式会社星屋商店,,株式会社,神奈川県,小田原市,南町２丁目２番５７号,,14,206,2500013,,,2023-12-11,清算の結了等,,,2015-10-05,1,,,,,ホシヤショウテン,0
1196,5040001028189,登記記録の閉鎖等,0,2023-12-14,2023-12-07,株式会社大地豊夢,,株式会社,千葉県,鎌ケ谷市,南佐津間８番１号,,12,224,2730133,,,2023-12-07,清算の結了等,,,2015-10-05,1,,,,,ダイチホウム,0
1208,5040002073077,登記記録の閉鎖等,0,2023-12-14,2023-12-07,有限会社ケイヨーフラッシング,,有限会社,千葉県,市原市,椎の木台１丁目３２番地９,,12,219,2990128,,,2023-12-07,清算の結了等,,,2015-10-05,1,,,,,ケイヨーフラッシング,0
1209,5040002076550,登記記録の閉鎖等,0,2023-12-14,2023-12-07,有限会社ジャパンＥＮＧ,,有限会社,千葉県,木更津市,八幡台３丁目１番１３号,,12,206,2920814,,,2023-12-07,清算の結了等,,,2015-10-05,1,,,,,ジャパンエンジ,0
1213,5040005013708,登記記録の閉鎖等,0,2023-12-14,2023-12-07,昭和電工マテリアルズ労働組合,,その他の設立登記法人,千葉県,柏市,末広町７番３号,,12,217,2770842,,,2023-12-07,清算の結了等,,,2015-10-05,1,,,,,ショウワデンコウマテリアルズ,0
1223,5060002028715,登記記録の閉鎖等,0,2023-12-14,2023-12-11,有限会社五月女鉄工所,,有限会社,栃木県,小山市,大字萱橋１２６０番地９８,,09,208,3230804,,,2023-12-11,清算の結了等,,,2015-10-05,1,,,,,ソウトメテッコウショ,0
1232,5080001018335,登記記録の閉鎖等,0,2023-12-14,2023-12-08,株式会社ＴＫプロデュース,,株式会社,静岡県,静岡市清水区,横砂南町３番９号,,22,103,4240035,,,2023-12-08,清算の結了等,,,2015-10-05,1,,,,,,0
1234,5080102001891,登記記録の閉鎖等,0,2023-12-14,2023-12-12,有限会社鈴由商店,,有限会社,静岡県,沼津市,原９３７番地,,22,203,4100312,,,2023-12-12,清算の結了等,,,2015-10-05,1,,,,,スズヨシショウテン,0
1237,5100001033455,登記記録の閉鎖等,0,2023-12-14,2023-12-07,株式会社Ｅｘｔｅｎｄ　Ｐｌｕｓ,,株式会社,長野県,長野市,大字東和田８４２番地ＣＯＲＥＯＦＦＩＣＥ３０１,,20,201,3810038,,,2023-12-07,清算の結了等,,,2020-08-26,1,,,,,エクステンドプラス,0
1261,5120102006977,登記記録の閉鎖等,0,2023-12-14,2023-12-12,有限会社オリジン,,有限会社,大阪府,堺市中区,深井畑山町３９９番地の２,,27,142,5998248,,,2023-12-12,清算の結了等,,,2015-10-05,1,,,,,オリジン,0
1296,5180301033387,登記記録の閉鎖等,0,2023-12-14,2023-12-11,株式会社アルゴナウト,,株式会社,愛知県,名古屋市中区,金山４丁目１番９号マリエビル５０２号,,23,106,4600022,,,2023-12-11,清算の結了等,,,2020-02-05,1,,,,,アルゴナウト,0
1312,5240002015463,登記記録の閉鎖等,0,2023-12-14,2023-12-12,有限会社マザックス,,有限会社,広島県,広島市南区,皆実町４丁目２番１１号,,34,103,7340007,,,2023-12-12,清算の結了等,,,2015-10-05,1,,,,,マザックス,0
1319,5250002014035,登記記録の閉鎖等,0,2023-12-14,2023-12-11,有限会社フタバデンキ,,有限会社,山口県,長門市,西深川２３８６番地４,,35,211,7594102,,,2023-12-11,清算の結了等,,,2015-10-05,1,,,,,フタバデンキ,0
1347,5370002016622,登記記録の閉鎖等,0,2023-12-14,2023-12-11,有限会社リ・ターン設計企画,,有限会社,宮城県,仙台市青葉区,国見ケ丘１丁目２９番地の１５,,04,101,9893201,,,2023-12-11,清算の結了等,,,2015-10-05,1,,,,,リターンセッケイキカク,0
1350,5410002007427,登記記録の閉鎖等,0,2023-12-14,2023-12-07,有限会社五十嵐商店,,有限会社,秋田県,にかほ市,院内字上横根５５番地,,05,214,0180411,,,2023-12-07,清算の結了等,,,2015-10-05,1,,,,,イガラシショウテン,0
1368,6010001175850,登記記録の閉鎖等,0,2023-12-14,2023-12-08,株式会社Ｓ２ｉ,,株式会社,東京都,千代田区,丸の内１丁目８番１号,,13,101,1000005,,,2023-12-08,清算の結了等,,,2016-05-24,1,,,,,エスツーアイ,0
1374,6010003018917,登記記録の閉鎖等,0,2023-12-14,2023-12-06,合同会社高次忠事務所,,合同会社,東京都,文京区,湯島４丁目４番１０号,,13,105,1130034,,,2023-12-06,清算の結了等,,,2015-10-05,1,,,,,タカツギタダシジムショ,0
1375,6010003030228,登記記録の閉鎖等,0,2023-12-14,2023-12-08,合同会社オーキッド,,合同会社,東京都,千代田区,丸の内３丁目１番１号東京共同会計事務所内,,13,101,1000005,,,2023-12-08,清算の結了等,,,2019-07-23,1,,,,,オーキッド,0
1399,6010601052573,登記記録の閉鎖等,0,2023-12-14,2023-12-12,株式会社ヒルクライムスタジオ,,株式会社,東京都,港区,新橋５丁目２７番１号新橋パークプレイスビル２Ｆ,,13,103,1050004,,,2023-12-12,合併による解散等,8050001050379,令和５年１２月１日東京都墨田区石原三丁目２番３号メモリーテックつくば株式会社（8050001050379）に合併し解散,2017-12-05,1,,,,,,0
1424,6011001144341,登記記録の閉鎖等,0,2023-12-14,2023-12-06,株式会社Ｐ．Ｄ．Ｂ,,株式会社,東京都,荒川区,東尾久６丁目３３番４号,,13,118,1160012,,,2023-12-06,清算の結了等,,,2021-12-07,1,,,,,ピーディービー,0
1437,6011201007091,登記記録の閉鎖等,0,2023-12-14,2023-12-12,シグマインターナショナル株式会社,,株式会社,東京都,中野区,中野３丁目４７番１４号シグマビル,,13,114,1640001,,,2023-12-12,清算の結了等,,,2015-10-05,1,,,,,シグマインターナショナル,0
1440,6011402000663,登記記録の閉鎖等,0,2023-12-14,2023-12-08,有限会社アルファ・生田建築設計事務所,,有限会社,東京都,板橋区,富士見町２番５号,,13,119,1740062,,,2023-12-08,清算の結了等,,,2015-10-05,1,,,,,アルファイクタケンチクセッケイジムショ,0
1441,6011502009992,登記記録の閉鎖等,0,2023-12-14,2023-12-11,有限会社桐建工業,,有限会社,東京都,渋谷区,神宮前６丁目２３－４桑野ビル２階,,13,113,1500001,,,2023-12-11,清算の結了等,,,2015-10-05,1,,,,,,0
1450,6012401039874,登記記録の閉鎖等,0,2023-12-14,2023-12-05,株式会社ＹＫ,,株式会社,東京都,三鷹市,新川３丁目５番９号,,13,204,1810004,,,2023-12-05,清算の結了等,,,2022-11-17,1,,,,,ワイケー,0
1452,6012701000734,登記記録の閉鎖等,0,2023-12-14,2023-12-12,株式会社都市総合鑑定事務所,,株式会社,東京都,小平市,花小金井南町２丁目１７番２号,,13,211,1870003,,,2023-12-12,清算の結了等,,,2015-10-05,1,,,,,トシソウゴウカンテイジムショ,0
1460,6012802007174,登記記録の閉鎖等,0,2023-12-14,2023-12-07,有限会社ロバストコンサルティング,,有限会社,東京都,昭島市,美堀町５丁目２０番３－５０１号,,13,207,1960001,,,2023-12-07,清算の結了等,,,2015-10-05,1,,,,,,0
1463,6013302021731,登記記録の閉鎖等,0,2023-12-14,2023-12-08,扶桑システム有限会社,,有限会社,東京都,豊島区,巣鴨１丁目１９番１４号,,13,116,1700002,,,2023-12-08,清算の結了等,,,2015-10-05,1,,,,,フソウシステム,0
1475,6021005008871,登記記録の閉鎖等,0,2023-12-14,2023-12-12,特定非営利活動法人ＦａｃｅＦｉｎｄ,,その他の設立登記法人,神奈川県,鎌倉市,今泉台６丁目１６番１１号,,14,204,2470053,,,2023-12-12,清算の結了等,,,2015-10-05,1,,,,,フェイスファインド,0
1485,6030002056230,登記記録の閉鎖等,0,2023-12-14,2023-12-08,有限会社ワールド,,有限会社,埼玉県,桶川市,末広３丁目１１番１２号,,11,231,3630012,,,2023-12-08,清算の結了等,,,2015-10-05,1,,,,,ワールド,0
1487,6030002121439,登記記録の閉鎖等,0,2023-12-14,2023-12-07,有限会社写真のいのうえ,,有限会社,埼玉県,秩父市,上町３丁目３番２０号,,11,207,3680035,,,2023-12-07,清算の結了等,,,2015-10-05,1,,,,,シャシンノイノウエ,0
1498,6050001017685,登記記録の閉鎖等,0,2023-12-14,2023-12-07,株式会社ティアイサービス,,株式会社,茨城県,つくば市,下広岡４１９番地７７,,08,220,3050042,,,2023-12-07,清算の結了等,,,2015-10-05,1,,,,,ティアイサービス,0
1527,6120005022492,登記記録の閉鎖等,0,2023-12-14,2023-12-13,税理士法人スフィーダ,,その他の設立登記法人,大阪府,大阪市北区,梅田１丁目１２番１７号,,27,127,5300001,,,2023-12-13,清算の結了等,,,2021-09-07,1,,,,,スフィーダ,0
1534,6122002004408,登記記録の閉鎖等,0,2023-12-14,2023-12-11,有限会社稲田ハウジング,,有限会社,大阪府,東大阪市,稲田本町３丁目２１番７号,,27,227,5770007,,,2023-12-11,清算の結了等,,,2015-10-05,1,,,,,イナダハウジング,0
1565,6180003019881,登記記録の閉鎖等,0,2023-12-14,2023-12-12,合同会社人間環境工房,,合同会社,愛知県,春日井市,高森台６丁目１０番地３,,23,206,4870032,,,2023-12-12,清算の結了等,,,2019-04-09,1,,,,,ニンゲンカンキョウコウボウ,0
1572,6190003001459,登記記録の閉鎖等,0,2023-12-14,2023-12-11,合資会社クリスタル総合商事,,合資会社,三重県,いなべ市,大安町石榑下字野間２２５番地１３,,24,214,5110276,,,2023-12-11,清算の結了等,,,2015-10-05,1,,,,,クリスタルソウゴウショウジ,0
1579,6230002010712,登記記録の閉鎖等,0,2023-12-14,2023-12-12,有限会社ウジヒラ,,有限会社,富山県,高岡市,蓮花寺２０４番地５,,16,202,9330802,,,2023-12-12,清算の結了等,,,2015-10-05,1,,,,,ウジヒラ,0
1602,6290003007818,登記記録の閉鎖等,0,2023-12-14,2023-12-05,合同会社福岡渡邊商店,,合同会社,福岡県,太宰府市,都府楼南４丁目２４番６－４０２号,,40,221,8180105,,,2023-12-05,清算の結了等,,,2018-02-08,1,,,,,,0
1608,6320001016627,登記記録の閉鎖等,0,2023-12-14,2023-12-13,株式会社ピッカー,,株式会社,大分県,大分市,中央町２丁目８番３０号,,44,201,8700035,,,2023-12-13,清算の結了等,,,2018-10-02,1,,,,,ピッカー,0
1609,6330002016179,登記記録の閉鎖等,0,2023-12-14,2023-12-07,有限会社佐々木デザイン事務所,,有限会社,熊本県,阿蘇郡西原村,大字布田１２４１番地５,,43,432,8612403,,,2023-12-07,清算の結了等,,,2015-10-05,1,,,,,ササキデザインジムショ,0
1612,6340001024264,登記記録の閉鎖等,0,2023-12-14,2023-12-13,株式会社ミートナチュール,,株式会社,鹿児島県,出水市,上知識町２６８番地,,46,208,8990212,,,2023-12-13,清算の結了等,,,2021-11-12,1,,,,,ミートナチュール,0
1620,6400001006834,登記記録の閉鎖等,0,2023-12-14,2023-12-07,株式会社大沢得次郎商店,,株式会社,岩手県,宮古市,築地２丁目６番１６号,,03,202,0270091,,,2023-12-07,清算の結了等,,,2015-10-05,1,,,,,オオサワトクジロウショウテン,0
1628,6430002042636,登記記録の閉鎖等,0,2023-12-14,2023-12-06,有限会社トーヨー,,有限会社,北海道,札幌市北区,新琴似一条１丁目５番１５号,,01,102,0010901,,,2023-12-06,清算の結了等,,,2015-10-05,1,,,,,トーヨー,0
1634,6500005006399,登記記録の閉鎖等,0,2023-12-14,2023-12-12,南予素材生産業協同組合,,その他の設立登記法人,愛媛県,宇和島市,三間町増田３８９番地,,38,203,7981124,,,2023-12-12,清算の結了等,,,2015-10-05,1,,,,,ナンヨソザイセイサンギョウ,0
1640,7010003031381,登記記録の閉鎖等,0,2023-12-14,2023-12-11,ｉｒｏｒｉ合同会社,,合同会社,東京都,中央区,日本橋２丁目１番１７号丹生ビル２階,,13,102,1030027,,,2023-12-11,清算の結了等,,,2020-01-10,1,,,,,イロリ,0
1647,7010401142631,登記記録の閉鎖等,0,2023-12-14,2023-12-12,アルツァーナジャパン株式会社,,株式会社,大阪府,大阪市中央区,北浜１丁目８番１６号大阪証券取引所ビル北浜法律事務所・外国法共同事業内,,27,128,5410041,,,2023-12-12,清算の結了等,,,2018-12-13,1,,,,,アルツァーナジャパン,0
1649,7010401152424,登記記録の閉鎖等,0,2023-12-14,2023-12-08,オデットウェブコンテンツ株式会社,,株式会社,東京都,港区,三田３丁目４番３号,,13,103,1080073,,,2023-12-08,清算の結了等,,,2020-04-22,1,,,,,オデットウェブコンテンツ,0
1670,7010702004596,登記記録の閉鎖等,0,2023-12-14,2023-12-08,有限会社全日食アサヒヤ,,有限会社,東京都,品川区,大崎２丁目６番１６号,,13,109,1410032,,,2023-12-08,清算の結了等,,,2015-10-05,1,,,,,ゼンニッショクアサヒヤ,0
1673,7010801029115,登記記録の閉鎖等,0,2023-12-14,2023-12-08,アールイープランニング株式会社,,株式会社,千葉県,市川市,相之川４丁目３番１６号,,12,203,2720143,,,2023-12-08,清算の結了等,,,2018-08-24,1,,,,,アールイープランニング,0
1674,7010802006253,登記記録の閉鎖等,0,2023-12-14,2023-12-08,有限会社サダアンドサン,,有限会社,東京都,大田区,田園調布２丁目５７番１号,,13,111,1450071,,,2023-12-08,清算の結了等,,,2015-10-05,1,,,,,サダアンドサン,0
1677,7010902016904,登記記録の閉鎖等,0,2023-12-14,2023-11-20,有限会社和田翻訳室,,有限会社,東京都,世田谷区,桜２丁目１７番８号,,13,112,1560053,,,2023-11-20,清算の結了等,,,2015-10-05,1,,,,,,0
1679,7011001032446,登記記録の閉鎖等,0,2023-12-14,2023-12-11,株式会社日本マーケティング・レポート,,株式会社,東京都,渋谷区,本町５丁目１５番５号,,13,113,1510071,,,2023-12-11,清算の結了等,,,2015-10-05,1,,,,,ニホンマーケティングレポート,0
1708,7012301002493,登記記録の閉鎖等,0,2023-12-14,2023-12-12,株式会社ミッドランド,,株式会社,東京都,町田市,上小山田町２４５６番地,,13,209,1940201,,,2023-12-12,清算の結了等,,,2015-10-05,1,,,,,ミッドランド,0
1710,7012402001543,登記記録の閉鎖等,0,2023-12-14,2023-12-11,有限会社染東,,有限会社,東京都,府中市,白糸台３丁目９番地の２染東ハイツ１０５,,13,206,1830011,,,2023-12-11,清算の結了等,,,2015-10-05,1,,,,,,0
1723,7020002087399,登記記録の閉鎖等,0,2023-12-14,2023-12-08,有限会社富士工業,,有限会社,神奈川県,川崎市宮前区,犬蔵１丁目２４番１２号,,14,136,2160011,,,2023-12-08,清算の結了等,,,2015-10-05,1,,,,,フジコウギョウ,0
1731,7021002040620,登記記録の閉鎖等,0,2023-12-14,2023-12-11,有限会社北山電装,,有限会社,神奈川県,大和市,中央林間西３丁目３番４１号,,14,213,2420008,,,2023-12-11,清算の結了等,,,2015-10-05,1,,,,,キタヤマデンソウ,0
1737,7030001107041,登記記録の閉鎖等,0,2023-12-14,2023-12-07,株式会社ユニバーサルゲームズジャパン,,株式会社,神奈川県,横浜市港北区,綱島台６番７号,,14,109,2230054,,,2023-12-07,清算の結了等,,,2015-10-05,1,,,,,ユニバーサルゲームズジャパン,0
1743,7040001016349,登記記録の閉鎖等,0,2023-12-14,2023-12-07,株式会社シエスタ,,株式会社,千葉県,千葉市花見川区,横戸町１４４８番地１０,,12,102,2620001,,,2023-12-07,清算の結了等,,,2015-10-05,1,,,,,シエスタ,0
1747,7040001092019,登記記録の閉鎖等,0,2023-12-14,2023-12-08,株式会社クリアーテック,,株式会社,千葉県,船橋市,本中山６丁目９番１０号ベルハイツ３０２,,12,204,2730035,,,2023-12-08,清算の結了等,,,2015-10-05,1,,,,,クリアーテック,0
1776,7120001161632,登記記録の閉鎖等,0,2023-12-14,2023-12-01,株式会社リブテック,,株式会社,大阪府,枚方市,南中振３丁目２－７,,27,210,5730094,,,2023-12-01,合併による解散等,4120001152907,令和５年１２月１日大阪府枚方市南中振３－２－７株式会社ニューテック（4120001152907）に合併し解散,2015-10-05,1,,,,,リブテック,0
1788,7120903001539,登記記録の閉鎖等,0,2023-12-14,2023-12-05,島津住宅合同会社,,合同会社,大阪府,池田市,菅原町１１番１８号（３０５）,,27,204,5630055,,,2023-12-05,清算の結了等,,,2015-10-05,1,,,,,シマヅジュウタク,0
1794,7130001046270,登記記録の閉鎖等,0,2023-12-14,2023-12-05,アクシア株式会社,,株式会社,京都府,木津川市,山城町綺田南河原１０１番地３８,,26,214,6190201,,,2023-12-05,清算の結了等,,,2015-10-05,1,,,,,アクシア,0
1809,7140003010926,登記記録の閉鎖等,0,2023-12-14,2023-12-07,合同会社Ｏｋａｍｏｔｏフードネットワーク,,合同会社,兵庫県,神戸市長田区,大橋町５丁目３番１－１６０１,,28,106,6530037,,,2023-12-07,清算の結了等,,,2015-10-05,1,,,,,,0
1811,7150001001397,登記記録の閉鎖等,0,2023-12-14,2023-12-13,株式会社つるまい電器,,株式会社,奈良県,奈良市,宝来２丁目２３番２６号,,29,201,6310845,,,2023-12-13,清算の結了等,,,2015-10-05,1,,,,,ツルマイデンキ,0
1813,7160001010521,登記記録の閉鎖等,0,2023-12-14,2023-12-08,水研工業株式会社,,株式会社,滋賀県,東近江市,湯屋町６７５番地の２,,25,213,5270103,,,2023-12-08,清算の結了等,,,2015-10-05,1,,,,,ミズケンコウギョウ,0
1817,7180001067741,登記記録の閉鎖等,0,2023-12-14,2023-12-08,株式会社クツノ建設,,株式会社,愛知県,日進市,岩崎町大廻間１５４番地,,23,230,4700131,,,2023-12-08,清算の結了等,,,2015-10-05,1,,,,,クツノケンセツ,0
1820,7180001127108,登記記録の閉鎖等,0,2023-12-14,2023-12-08,株式会社ザベリオエステート,,株式会社,愛知県,名古屋市瑞穂区,妙音通３丁目４８番地,,23,108,4670842,,,2023-12-08,清算の結了等,,,2017-03-31,1,,,,,ザベリオエステート,0
1854,7260001010825,登記記録の閉鎖等,0,2023-12-14,2023-12-11,西日本発酵株式会社,,株式会社,岡山県,岡山市北区,大元上町１０番２０号コーポ朝日Ａ２０２,,33,101,7000925,,,2023-12-11,清算の結了等,,,2015-10-05,1,,,,,ニシニホンハッコウ,0
1860,7290001045612,登記記録の閉鎖等,0,2023-12-14,2023-12-06,株式会社スミヤ薬局,,株式会社,福岡県,飯塚市,飯塚１２番９号,,40,205,8200041,,,2023-12-06,清算の結了等,,,2015-10-05,1,,,,,スミヤヤッキョク,0
1869,7310002000200,登記記録の閉鎖等,0,2023-12-14,2023-12-13,有限会社アド・ノック,,有限会社,長崎県,長崎市,江戸町３番１号,,42,201,8500861,,,2023-12-13,清算の結了等,,,2015-10-05,1,,,,,アドノック,0
1881,7360002012752,登記記録の閉鎖等,0,2023-12-14,2023-12-08,有限会社ジオプラン,,有限会社,沖縄県,うるま市,字西原１０４番地１,,47,213,9042204,,,2023-12-08,清算の結了等,,,2015-10-05,1,,,,,,0
1884,7370305000494,登記記録の閉鎖等,0,2023-12-14,2023-12-11,農事組合法人追波草地組合,,その他の設立登記法人,宮城県,石巻市,北上町十三浜字小田１１８番地２３０,,04,202,9860201,,,2023-12-11,清算の結了等,,,2015-10-05,1,,,,,,0
1891,7410002013951,登記記録の閉鎖等,0,2023-12-14,2023-12-08,有限会社ライフスイッチ,,有限会社,秋田県,横手市,婦気大堤字谷地添４０番地２,,05,203,0130063,,,2023-12-08,清算の結了等,,,2015-10-05,1,,,,,ライフスイッチ,0
1902,8010001134895,登記記録の閉鎖等,0,2023-12-14,2023-12-07,ストライカー・メドテック株式会社,,株式会社,東京都,文京区,後楽２丁目６番１号,,13,105,1120004,,,2023-12-07,清算の結了等,,,2015-10-05,1,,,,,ストライカーメドテック,0
1909,8010002010716,登記記録の閉鎖等,0,2023-12-14,2023-12-08,有限会社シグ,,有限会社,東京都,千代田区,飯田橋１丁目９番６－７０１号,,13,101,1020072,,,2023-12-08,清算の結了等,,,2015-10-05,1,,,,,シグ,0
1929,8010405003515,登記記録の閉鎖等,0,2023-12-14,2023-12-07,特定非営利活動法人合意形成マネジメント協会,,その他の設立登記法人,東京都,港区,南青山５丁目１番２５号,,13,103,1070062,,,2023-12-07,清算の結了等,,,2015-10-05,1,,,,,ゴウイケイセイマネジメントキョウカイ,0
1936,8010703000973,登記記録の閉鎖等,0,2023-12-14,2023-12-11,合資会社峯田ビル,,合資会社,東京都,品川区,南大井３丁目２１番１５号,,13,109,1400013,,,2023-12-11,清算の結了等,,,2015-10-05,1,,,,,ミネタビル,0
1937,8010705003388,登記記録の閉鎖等,0,2023-12-14,2023-12-07,一般社団法人伊セ六,,その他の設立登記法人,東京都,品川区,上大崎３丁目１番１号目黒セントラルスクエア１５階,,13,109,1410021,,,2023-12-07,清算の結了等,,,2022-07-20,1,,,,,イセロク,0
1938,8010801003787,登記記録の閉鎖等,0,2023-12-14,2023-12-11,広伸理工株式会社,,株式会社,東京都,大田区,西蒲田２丁目６番１８号,,13,111,1440051,,,2023-12-11,清算の結了等,,,2015-10-05,1,,,,,,0
1940,8010802020311,登記記録の閉鎖等,0,2023-12-14,2023-12-11,有限会社サンクス,,有限会社,東京都,渋谷区,代々木３丁目２６番２号新宿カメヤビル９階,,13,113,1510053,,,2023-12-11,清算の結了等,,,2015-10-05,1,,,,,サンクス,0
1949,8011001065610,登記記録の閉鎖等,0,2023-12-14,2023-12-13,株式会社オフィスまとば,,株式会社,東京都,渋谷区,神宮前２丁目５番６号,,13,113,1500001,,,2023-12-13,清算の結了等,,,2015-10-05,1,,,,,オフィスマトバ,0
1978,8011402001379,登記記録の閉鎖等,0,2023-12-14,2023-12-08,有限会社エイチ・ケイ・トレーディング,,有限会社,東京都,板橋区,上板橋２丁目３９番６号,,13,119,1740076,,,2023-12-08,清算の結了等,,,2015-10-05,1,,,,,エイチケイトレーディング,0
1983,8012401008646,登記記録の閉鎖等,0,2023-12-14,2023-12-08,三鈴工業株式会社,,株式会社,東京都,調布市,佐須町３丁目１５番地９,,13,208,1820016,,,2023-12-08,清算の結了等,,,2015-10-05,1,,,,,ミスズコウギョウ,0
1988,8013201003894,登記記録の閉鎖等,0,2023-12-14,2023-12-11,株式会社ジャパンプロスタッフ,,株式会社,東京都,品川区,西五反田２丁目２７番４号,,13,109,1410031,,,2023-12-11,清算の結了等,,,2015-10-05,1,,,,,ジャパンプロスタッフ,0
1993,8020001058846,登記記録の閉鎖等,0,2023-12-14,2023-12-12,株式会社巡る技,,株式会社,神奈川県,横浜市戸塚区,鳥が丘６１番地９,,14,110,2440001,,,2023-12-12,清算の結了等,,,2015-10-05,1,,,,,メグルワザ,0
2001,8021001037955,登記記録の閉鎖等,0,2023-12-14,2023-12-11,株式会社小林工業所,,株式会社,神奈川県,平塚市,平塚３丁目２１番２号,,14,203,2540052,,,2023-12-11,清算の結了等,,,2015-10-05,1,,,,,コバヤシコウギョウショ,0
2010,8040001063167,登記記録の閉鎖等,0,2023-12-14,2023-12-07,株式会社ヤマカロジスティクス,,株式会社,千葉県,銚子市,明神町２丁目２０６番地,,12,202,2880002,,,2023-12-07,清算の結了等,,,2015-10-05,1,,,,,ヤマカロジスティクス,0
2018,8040002031420,登記記録の閉鎖等,0,2023-12-14,2023-12-06,有限会社ビーイーエム,,有限会社,千葉県,船橋市,二宮１丁目３６番１２号,,12,204,2740823,,,2023-12-06,清算の結了等,,,2015-10-05,1,,,,,ビーイーエム,0
2030,8070002036301,登記記録の閉鎖等,0,2023-12-14,2023-12-12,有限会社観音茶屋,,有限会社,群馬県,吾妻郡東吾妻町,大字植栗９１５番地の４,,10,429,3770805,,,2023-12-12,清算の結了等,,,2015-10-05,1,,,,,カンノンチャヤ,0
2032,8080001015445,登記記録の閉鎖等,0,2023-12-14,2023-12-11,池ノ谷建設工業株式会社,,株式会社,静岡県,焼津市,宗高１２７６番地の１,,22,212,4210205,,,2023-12-11,清算の結了等,,,2015-10-05,1,,,,,イケノヤケンセツコウギョウ,0
2042,8120001227309,登記記録の閉鎖等,0,2023-12-14,2023-12-01,株式会社ピージーエディション,,株式会社,大阪府,大阪市北区,堂島１丁目５番１７号,,27,127,5300003,,,2023-12-01,合併による解散等,9120001202649,令和５年１２月１日大阪市北区堂島一丁目５番１７号株式会社ピージーエディション（9120001202649）に合併し解散,2020-02-21,1,,,,,ピージーエディション,0
2066,8180001033296,登記記録の閉鎖等,0,2023-12-14,2023-12-08,株式会社ユーワールド,,株式会社,愛知県,名古屋市中村区,椿町１番３号,,23,105,4530015,,,2023-12-08,清算の結了等,,,2015-10-05,1,,,,,ユーワールド,0
2067,8180001057246,登記記録の閉鎖等,0,2023-12-14,2023-12-11,株式会社あさい薬局,,株式会社,愛知県,名古屋市緑区,水広１丁目１５１４番地,,23,114,4580848,,,2023-12-11,清算の結了等,,,2015-10-05,1,,,,,アサイヤッキョク,0
2070,8180001136017,登記記録の閉鎖等,0,2023-12-14,2023-11-30,株式会社六兵衛,,株式会社,愛知県,名古屋市中区,平和１丁目２３番６号平和ハイム１階,,23,106,4600021,,,2023-11-30,合併による解散等,7180001114519,令和５年１１月３０日名古屋市中区平和一丁目２３番６号平和ハイム１階株式会社ジョワ（7180001114519）に合併し解散,2019-04-03,1,,,,,ロクベエ,0
2079,8180002021721,登記記録の閉鎖等,0,2023-12-14,2023-12-11,有限会社大勝,,有限会社,愛知県,名古屋市天白区,福池２丁目３１４番地,,23,116,4680049,,,2023-12-11,清算の結了等,,,2015-10-05,1,,,,,ダイカツ,0
2084,8180301018212,登記記録の閉鎖等,0,2023-12-14,2023-12-06,株式会社コーケン,,株式会社,愛知県,豊田市,広田町稲荷山２０番地,,23,211,4730912,,,2023-12-06,清算の結了等,,,2015-10-05,1,,,,,コーケン,0
2090,8240001049311,登記記録の閉鎖等,0,2023-12-14,2023-12-04,株式会社ペパーミントエンゼル,,株式会社,広島県,呉市,中央３丁目２番８－１７０３号,,34,202,7370051,,,2023-12-04,合併による解散等,8240001027572,令和５年１２月１日広島県呉市中央三丁目２番８－１７０３号株式会社ラムセス（8240001027572）に合併し解散,2016-05-11,1,,,,,ペパーミントエンゼル,0
2097,8260005010135,登記記録の閉鎖等,0,2023-12-14,2023-12-13,一般社団法人共感工房アルペジアン,,その他の設立登記法人,岡山県,岡山市北区,伊島町１丁目５番１８号,,33,101,7000016,,,2023-12-13,清算の結了等,,,2016-08-05,1,,,,,キョウカンコウボウアルペジアン,0
2101,8290001088610,登記記録の閉鎖等,0,2023-12-14,2023-12-06,株式会社創明学院,,株式会社,福岡県,福岡市中央区,赤坂１丁目１０番２２号,,40,133,8100042,,,2023-12-06,清算の結了等,,,2020-04-08,1,,,,,ソウメイガクイン,0
2129,8420002003785,登記記録の閉鎖等,0,2023-12-14,2023-12-07,有限会社インペックス,,有限会社,青森県,青森市,幸畑１丁目８番３０号,,02,201,0300943,,,2023-12-07,清算の結了等,,,2015-10-05,1,,,,,,0
2130,8430001055769,登記記録の閉鎖等,0,2023-12-14,2023-12-01,株式会社丸ト青山呉服店,00088782,株式会社,北海道,沙流郡平取町,本町５７番地,,01,602,0550107,,,2023-12-01,清算の結了等,,,2015-10-05,1,,,,,マルトアオヤマゴフクテン,0
2138,8460002000663,登記記録の閉鎖等,0,2023-12-14,2023-12-12,有限会社喜久鮨,,有限会社,北海道,釧路市,末広町４丁目２番地,,01,206,0850014,,,2023-12-12,清算の結了等,,,2015-10-05,1,,,,,キクスシ,0
2142,8500003000864,登記記録の閉鎖等,0,2023-12-14,2023-12-11,合同会社ＰｒｅｐＳｃｈｏｏｌエス・エス,,合同会社,愛媛県,松山市,御幸２丁目８番２号,,38,201,7900824,,,2023-12-11,清算の結了等,,,2015-10-05,1,,,,,プレップスクール,0
2145,9010001067830,登記記録の閉鎖等,0,2023-12-14,2023-12-07,株式会社ソムテック,,株式会社,東京都,中央区,八丁堀２丁目２２番５号,,13,102,1040032,,,2023-12-07,清算の結了等,,,2015-10-05,1,,,,,ソムテック,0
2157,9010102011332,登記記録の閉鎖等,0,2023-12-14,2023-12-05,有限会社ビーズ,,有限会社,東京都,八王子市,南大沢５丁目１６番地２－６０２,,13,201,1920364,,,2023-12-05,清算の結了等,,,2015-10-05,1,,,,,ビーズ,0
2184,9010802015260,登記記録の閉鎖等,0,2023-12-14,2023-12-08,有限会社ユニックアド,,有限会社,東京都,大田区,下丸子２丁目３５番１－３０２号,,13,111,1460092,,,2023-12-08,清算の結了等,,,2015-10-05,1,,,,,ユニックアド,0
2212,9011102014151,登記記録の閉鎖等,0,2023-12-14,2023-12-12,有限会社ルトウール,,有限会社,東京都,新宿区,神楽坂２丁目５番地,,13,104,1620825,,,2023-12-12,清算の結了等,,,2015-10-05,1,,,,,ルトウール,0
2217,9011502009684,登記記録の閉鎖等,0,2023-12-14,2023-12-08,有限会社タチバナ,,有限会社,東京都,荒川区,南千住１丁目３１番７号,,13,118,1160003,,,2023-12-08,清算の結了等,,,2015-10-05,1,,,,,タチバナ,0
2219,9011602003199,登記記録の閉鎖等,0,2023-12-14,2023-12-08,久美工業印刷有限会社,,有限会社,東京都,練馬区,石神井台３丁目１番２０号,,13,120,1770045,,,2023-12-08,清算の結了等,,,2015-10-05,1,,,,,クミコウギョウインサツ,0
2243,9020001104888,登記記録の閉鎖等,0,2023-12-14,2023-12-07,株式会社山縣組,,株式会社,神奈川県,川崎市川崎区,藤崎２丁目１２番１６号,,14,131,2100804,,,2023-12-07,清算の結了等,,,2015-10-05,1,,,,,ヤマガタグミ,0
2260,9030001026792,登記記録の閉鎖等,0,2023-12-14,2023-12-08,ウエッツトレーディング株式会社,,株式会社,埼玉県,入間市,大字新久５８７番地１,,11,225,3580031,,,2023-12-08,清算の結了等,,,2015-10-05,1,,,,,ウエッツトレーディング,0
2276,9050001021610,登記記録の閉鎖等,0,2023-12-14,2023-12-08,株式会社宮本電業社,,株式会社,茨城県,潮来市,潮来１０８６番地の１５,,08,223,3112424,,,2023-12-08,清算の結了等,,,2015-10-05,1,,,,,ミヤモトデンギョウシャ,0
2284,9080001013290,登記記録の閉鎖等,0,2023-12-14,2023-12-08,丸軌木材株式会社,,株式会社,静岡県,島田市,向谷２丁目１４番８号,,22,209,4270039,,,2023-12-08,清算の結了等,,,2015-10-05,1,,,,,マルキモクザイ,0
2296,9110001005788,登記記録の閉鎖等,0,2023-12-14,2023-12-11,株式会社ライオンズガーデン,,株式会社,新潟県,新潟市西区,小針６丁目２１番５号,,15,107,9502022,,,2023-12-11,清算の結了等,,,2015-10-05,1,,,,,ライオンズガーデン,0
2308,9120001244443,登記記録の閉鎖等,0,2023-12-14,2023-12-12,株式会社四畳半,,株式会社,大阪府,大阪市中央区,南船場１丁目６番１０－１００１号,,27,128,5420081,,,2023-12-12,清算の結了等,,,2022-03-14,1,,,,,ヨジョウハン,0
2312,9120002035016,登記記録の閉鎖等,0,2023-12-14,2023-12-12,有限会社カトレヤ写植,,有限会社,大阪府,大阪市中央区,徳井町２丁目２番５号,,27,128,5400025,,,2023-12-12,清算の結了等,,,2015-10-05,1,,,,,カトレヤシャショク,0
2321,9120102018515,登記記録の閉鎖等,0,2023-12-14,2023-12-12,有限会社インテリアワークス,,有限会社,大阪府,藤井寺市,大井４丁目１３番１８号－４０６,,27,226,5830008,,,2023-12-12,清算の結了等,,,2015-10-05,1,,,,,インテリアワークス,0
2343,9160002007110,登記記録の閉鎖等,0,2023-12-14,2023-12-12,有限会社山崎設備,00044630,有限会社,滋賀県,長浜市,八島町８８８番地の２,,25,203,5260252,,,2023-12-12,清算の結了等,,,2015-10-05,1,,,,,ヤマザキセツビ,0
2348,9180001039020,登記記録の閉鎖等,0,2023-12-14,2023-12-08,株式会社名古屋パレス,,株式会社,愛知県,名古屋市昭和区,広路町字南山７７番地２,,23,107,4660834,,,2023-12-08,合併による解散等,7180001039022,令和５年１２月８日名古屋市昭和区広路町字南山７７番地２名古屋パレスＨＤ株式会社（7180001039022）に合併し解散,2015-10-05,1,,,,,ナゴヤパレス,0
2350,9180001132948,登記記録の閉鎖等,0,2023-12-14,2023-12-11,株式会社リヴァーシオン,,株式会社,愛知県,あま市,甚目寺飛殿１８番地２,,23,237,4901111,,,2023-12-11,清算の結了等,,,2018-07-04,1,,,,,リヴァーシオン,0
2355,9180002033534,登記記録の閉鎖等,0,2023-12-14,2023-12-08,有限会社レストランとんま,,有限会社,愛知県,名古屋市中区,大須２丁目２７番３７号,,23,106,4600011,,,2023-12-08,清算の結了等,,,2015-10-05,1,,,,,レストラントンマ,0
2360,9190005011486,登記記録の閉鎖等,0,2023-12-14,2023-12-12,農事組合法人徳田,,その他の設立登記法人,三重県,鈴鹿市,徳田町１００６番地の１徳田ふれあい会館内,,24,207,5100251,,,2023-12-12,清算の結了等,,,2020-09-10,1,,,,,トクダ,0
2368,9230005000765,登記記録の閉鎖等,0,2023-12-14,2023-12-12,富山県コンクリート圧送事業協同組合,,その他の設立登記法人,富山県,富山市,下冨居２丁目１３番８１号,,16,201,9300814,,,2023-12-12,清算の結了等,,,2015-10-05,1,,,,,トヤマケンコンクリートアッソウ,0
2403,9330002025961,登記記録の閉鎖等,0,2023-12-14,2023-12-11,有限会社城下建設,,有限会社,熊本県,八代市,日奈久大坪町３６３９番地,,43,202,8695146,,,2023-12-11,清算の結了等,,,2015-10-05,1,,,,,シロシタケンセツ,0
2414,9380001033052,登記記録の閉鎖等,0,2023-12-14,2023-12-11,株式会社ピーエス,,株式会社,福島県,福島市,東浜町７番３５号,,07,201,9608132,,,2023-12-11,清算の結了等,,,2022-08-16,1,,,,,,0
