sequenceNumber,corporateNumber,process,correct,updateDate,changeDate,name,nameImageId,kind,prefectureName,cityName,streetNumber,addressImageId,prefectureCode,cityCode,postCode,addressOutside,addressOutsideImageId,closeDate,closeCause,successorCorporateNumber,changeCause,assignmentDate,latest,enName,enPrefectureName,enCityName,enAddressOutside,furigana,hihyoji
1,1010001087357,登記記録の閉鎖等,0,2025-09-26,2025-08-25,株式会社ゼクオス,,株式会社,東京都,港区,西新橋３丁目１６番１１号,,13,103,1050003,,,2025-08-25,清算の結了等,,,2015-10-05,1,,,,,ゼクオス,0
8,1010003033846,登記記録の閉鎖等,0,2025-09-26,2025-08-29,ＭＤ－Ｂａｙ合同会社,,合同会社,東京都,千代田区,神田佐久間町１丁目８番４号アルテール秋葉原７０８,,13,101,1010025,,,2025-08-29,清算の結了等,,,2020-12-25,1,,,,,エムディベイ,0
11,1010005037515,登記記録の閉鎖等,0,2025-09-26,2025-09-12,ＥＮＣ一般社団法人,,その他の設立登記法人,東京都,中央区,八丁堀４丁目２番１０号ＡＯＪ税理士法人内,,13,102,1040032,,,2025-09-12,清算の結了等,,,2023-11-14,1,,,,,イーエヌシー,0
12,1010005039016,登記記録の閉鎖等,0,2025-09-26,2025-09-12,一般社団法人ＹＹ,,その他の設立登記法人,東京都,千代田区,丸の内１丁目４番１号東京共同会計事務所内,,13,101,1000005,,,2025-09-12,清算の結了等,,,2024-10-29,1,,,,,ワイワイ,0
16,1010401095612,登記記録の閉鎖等,0,2025-09-26,2025-08-25,ティーエスアイパートナーズ株式会社,,株式会社,東京都,港区,虎ノ門３丁目１０番３号,,13,103,1050001,,,2025-08-25,清算の結了等,,,2015-10-05,1,,,,,ティーエスアイパートナーズ,0
17,1010401132514,登記記録の閉鎖等,0,2025-09-26,2025-09-22,株式会社サヴィーコレクティブ,,株式会社,東京都,千代田区,麹町３丁目５番地４麹町インテリジェントビルＢ－１,,13,101,1020083,,,2025-09-22,合併による解散等,6100001033495,令和７年９月１日長野県北佐久郡軽井沢町大字軽井沢１０１８番地１５ＰｅｒｋＵＰ株式会社（6100001033495）に合併し解散,2017-07-19,1,,,,,サヴィーコレクティブ,0
18,1010401166966,登記記録の閉鎖等,0,2025-09-26,2025-09-12,株式会社ＣｅｌＲｅｊｕ,,株式会社,大阪府,大阪市城東区,中央１丁目１３番１３－２１６号,,27,118,5360005,,,2025-09-12,清算の結了等,,,2022-04-19,1,,,,,セルレージュ,0
25,1010405014717,登記記録の閉鎖等,0,2025-09-26,2025-08-25,一般社団法人セキュアドローン協議会,,その他の設立登記法人,東京都,港区,六本木１丁目９番１０号,,13,103,1060032,,,2025-08-25,清算の結了等,,,2016-04-13,1,,,,,セキュアドローンキョウギカイ,0
46,1011301006535,登記記録の閉鎖等,0,2025-09-26,2025-09-22,株式会社ボンバザール,,株式会社,東京都,杉並区,阿佐谷北５丁目１８番１１号,,13,115,1660001,,,2025-09-22,清算の結了等,,,2015-10-05,1,,,,,ボンバザール,0
48,1011401012400,登記記録の閉鎖等,0,2025-09-26,2025-09-18,株式会社石井桂建築研究所,,株式会社,東京都,板橋区,中台３丁目２７番Ｇ２０７,,13,119,1740064,,,2025-09-18,清算の結了等,,,2015-10-05,1,,,,,イシイカツラケンチクケンキュウショ,0
57,1012701004954,登記記録の閉鎖等,0,2025-09-26,2025-09-19,株式会社セイリングホーム,,株式会社,東京都,清瀬市,上清戸２丁目３番１１号,,13,221,2040013,,,2025-09-19,清算の結了等,,,2015-10-05,1,,,,,,0
60,1012802000101,登記記録の閉鎖等,0,2025-09-26,2025-09-08,有限会社旭綜建,,有限会社,東京都,立川市,栄町４丁目４５番２９号,,13,202,1900003,,,2025-09-08,清算の結了等,,,2015-10-05,1,,,,,アサヒソウケン,0
64,1020001086614,登記記録の閉鎖等,0,2025-09-26,2025-09-05,株式会社シーオーセブン通信,,株式会社,神奈川県,横浜市青葉区,柿の木台２３番地１３８,,14,117,2270048,,,2025-09-05,清算の結了等,,,2015-10-05,1,,,,,シーオーセブンツウシン,0
70,1020002081110,登記記録の閉鎖等,0,2025-09-26,2025-09-05,有限会社清水技研,,有限会社,神奈川県,川崎市幸区,北加瀬１丁目５番１３号,,14,132,2120057,,,2025-09-05,清算の結了等,,,2015-10-05,1,,,,,,0
73,1030001015679,登記記録の閉鎖等,0,2025-09-26,2025-09-19,株式会社イーストンワークス,,株式会社,埼玉県,さいたま市南区,文蔵１丁目１８番９号,,11,108,3360025,,,2025-09-19,合併による解散等,6010001036937,令和７年９月１日東京都千代田区神田司町二丁目１番地株式会社グローセル（6010001036937）に合併し解散,2015-10-05,1,,,,,イーストンワークス,0
98,1060002019668,登記記録の閉鎖等,0,2025-09-26,2025-09-19,有限会社越後屋内山酒店,,有限会社,栃木県,鹿沼市,東末広町１０７５番地３,,09,205,3220039,,,2025-09-19,清算の結了等,,,2015-10-05,1,,,,,エチゴヤウチヤマサケテン,0
104,1080101009171,登記記録の閉鎖等,0,2025-09-26,2025-09-22,トキワ建設株式会社,,株式会社,静岡県,富士市,今泉３丁目１４番８号,,22,210,4170001,,,2025-09-22,清算の結了等,,,2015-10-05,1,,,,,トキワケンセツ,0
112,1110001025876,登記記録の閉鎖等,0,2025-09-26,2025-09-11,フェアリー株式会社,,株式会社,新潟県,長岡市,堀金２丁目１１番２６号,,15,202,9400868,,,2025-09-11,清算の結了等,,,2015-10-05,1,,,,,フェアリー,0
119,1120001156332,登記記録の閉鎖等,0,2025-09-26,2025-09-16,株式会社東洋リフォーム,,株式会社,大阪府,守口市,金田町１丁目２１番２５号,,27,209,5700011,,,2025-09-16,清算の結了等,,,2015-10-05,1,,,,,トウヨウリフォーム,0
120,1120001168229,登記記録の閉鎖等,0,2025-09-26,2025-09-16,株式会社田中運送店,,株式会社,大阪府,大阪市阿倍野区,北畠１丁目１２番５号,,27,119,5450035,,,2025-09-16,清算の結了等,,,2015-10-05,1,,,,,タナカウンソウテン,0
126,1120001245928,登記記録の閉鎖等,0,2025-09-26,2025-09-12,株式会社ミライ,,株式会社,大阪府,大阪市中央区,安堂寺町２丁目６番１１－１５０７号,,27,128,5420061,,,2025-09-12,清算の結了等,,,2022-05-18,1,,,,,ミライ,0
136,1120002041814,登記記録の閉鎖等,0,2025-09-26,2025-09-16,有限会社テクノカンサイ,,有限会社,大阪府,大阪市西区,立売堀６丁目１番１２号,,27,106,5500012,,,2025-09-16,清算の結了等,,,2015-10-05,1,,,,,テクノカンサイ,0
142,1120101035683,登記記録の閉鎖等,0,2025-09-26,2025-09-11,株式会社らいと,,株式会社,大阪府,羽曳野市,東阪田１５９番地の３,,27,222,5830846,,,2025-09-11,清算の結了等,,,2015-10-05,1,,,,,ライト,0
152,1122002012992,登記記録の閉鎖等,0,2025-09-26,2025-09-03,アイテック有限会社,,有限会社,大阪府,八尾市,上尾町６丁目５２番地,,27,212,5810851,,,2025-09-03,清算の結了等,,,2015-10-05,1,,,,,アイテック,0
158,1130002013795,登記記録の閉鎖等,0,2025-09-26,2025-09-22,有限会社コガテック,,有限会社,京都府,京都市伏見区,羽束師鴨川町４７番地の８,,26,109,6128484,,,2025-09-22,清算の結了等,,,2015-10-05,1,,,,,コガテック,0
164,1150002004826,登記記録の閉鎖等,0,2025-09-26,2025-09-24,有限会社イーライフ,,有限会社,奈良県,大和郡山市,城町１８１０番地の４,,29,203,6391051,,,2025-09-24,清算の結了等,,,2015-10-05,1,,,,,イーライフ,0
166,1160002011441,登記記録の閉鎖等,0,2025-09-26,2025-09-18,西村石材有限会社,,有限会社,滋賀県,高島市,新旭町新庄５９１番地の３,,25,212,5201522,,,2025-09-18,清算の結了等,,,2015-10-05,1,,,,,ニシムラセキザイ,0
176,1180302019315,登記記録の閉鎖等,0,2025-09-26,2025-09-09,有限会社カトウエンジニアリング,,有限会社,愛知県,知立市,山町御林１番地２３３,,23,225,4720006,,,2025-09-09,清算の結了等,,,2015-10-05,1,,,,,カトウエンジニアリング,0
180,1220001002815,登記記録の閉鎖等,0,2025-09-26,2025-09-22,株式会社小林薬局,,株式会社,石川県,金沢市,広坂１丁目２番１９号,,17,201,9200962,,,2025-09-22,清算の結了等,,,2015-10-05,1,,,,,コバヤシヤッキョク,0
183,1240001003811,登記記録の閉鎖等,0,2025-09-26,2025-09-18,株式会社三和技術コンサルタント,,株式会社,広島県,広島市佐伯区,観音台２丁目１３番２４号,,34,108,7315157,,,2025-09-18,清算の結了等,,,2015-10-05,1,,,,,サンワギジュツコンサルタント,0
192,1290002044065,登記記録の閉鎖等,0,2025-09-26,2025-09-01,有限会社高良ファーム,00093438,有限会社,福岡県,朝倉市,上浦７５番地の１,,40,228,8380057,,,2025-09-01,清算の結了等,,,2015-10-05,1,,,,,コウラファーム,0
199,1290802010828,登記記録の閉鎖等,0,2025-09-26,2025-09-19,有限会社澤田自動車,,有限会社,福岡県,北九州市戸畑区,浅生３丁目９番２１号,,40,105,8040062,,,2025-09-19,清算の結了等,,,2015-10-05,1,,,,,サワダジドウシャ,0
207,1340001015144,登記記録の閉鎖等,0,2025-09-26,2025-09-22,末吉産業株式会社,,株式会社,鹿児島県,曽於市,末吉町二之方４８６３番地２,,46,217,8998605,,,2025-09-22,清算の結了等,,,2015-10-05,1,,,,,スエヨシサンギョウ,0
211,1350002009078,登記記録の閉鎖等,0,2025-09-26,2025-09-16,有限会社間建設,,有限会社,宮崎県,児湯郡高鍋町,大字上江２９０４番地２,,45,401,8840006,,,2025-09-16,清算の結了等,,,2015-10-05,1,,,,,ハザマケンセツ,0
221,1380002016377,登記記録の閉鎖等,0,2025-09-26,2025-09-12,有限会社丹治プレス工業,,有限会社,福島県,二本松市,米沢字観音堂３５番地５,,07,210,9691402,,,2025-09-12,清算の結了等,,,2015-10-05,1,,,,,タンジプレスコウギョウ,0
234,1430003007543,登記記録の閉鎖等,0,2025-09-26,2025-09-04,合同会社煌,,合同会社,北海道,札幌市清田区,真栄一条２丁目１－６,,01,110,0040831,,,2025-09-04,清算の結了等,,,2016-04-26,1,,,,,キラメキ,0
244,2010001238462,登記記録の閉鎖等,0,2025-09-26,2025-09-02,コーナン産業株式会社,,株式会社,東京都,中央区,東日本橋３丁目３番８号,,13,102,1030004,,,2025-09-02,清算の結了等,,,2023-09-13,1,,,,,コーナンサンギョウ,0
249,2010002015596,登記記録の閉鎖等,0,2025-09-26,2025-08-25,有限会社リゾートアイネ,,有限会社,東京都,港区,西新橋３丁目１６番１１号,,13,103,1050003,,,2025-08-25,清算の結了等,,,2015-10-05,1,,,,,リゾートアイネ,0
251,2010003024183,登記記録の閉鎖等,0,2025-09-26,2025-09-05,ブルーシネマ合同会社,,合同会社,東京都,千代田区,丸の内１丁目４番１号東京共同会計事務所内,,13,101,1000005,,,2025-09-05,清算の結了等,,,2016-09-30,1,,,,,ブルーシネマ,0
257,2010401149144,登記記録の閉鎖等,0,2025-09-26,2025-09-16,株式会社Ｎ．ｅｖｅｒ,,株式会社,東京都,渋谷区,円山町５番１４号パレドール渋谷７０１,,13,113,1500044,,,2025-09-16,清算の結了等,,,2019-11-12,1,,,,,ネバー,0
261,2010403029889,登記記録の閉鎖等,0,2025-09-26,2025-08-25,ＪＲ東日本ローカルスタートアップ合同会社,,合同会社,東京都,港区,高輪２丁目２１番４２号,,13,103,1080074,,,2025-08-25,清算の結了等,,,2023-04-10,1,,,,,ジェイアールヒガシニホンローカルスタートアップ,0
272,2010801035332,登記記録の閉鎖等,0,2025-09-26,2025-09-17,株式会社アート,,株式会社,東京都,品川区,西五反田７丁目１６番３号東京モリスビル第１０,,13,109,1410031,,,2025-09-17,清算の結了等,,,2024-08-16,1,,,,,アート,0
307,2020001122814,登記記録の閉鎖等,0,2025-09-26,2025-09-05,株式会社Ｍ７,,株式会社,神奈川県,川崎市多摩区,菅馬場１丁目２４番１６号,,14,135,2140004,,,2025-09-05,清算の結了等,,,2017-09-01,1,,,,,エムセブン,0
327,2050001031120,登記記録の閉鎖等,0,2025-09-26,2025-09-16,株式会社ライフ,,株式会社,茨城県,取手市,宮和田４００番地６,,08,217,3001514,,,2025-09-16,清算の結了等,,,2015-10-05,1,,,,,ライフ,0
329,2060001005321,登記記録の閉鎖等,0,2025-09-26,2025-09-22,株式会社優塗,,株式会社,栃木県,宇都宮市,城南３丁目１４番１５号,,09,201,3210117,,,2025-09-22,合併による解散等,9040001070377,令和７年８月２７日千葉県柏市根戸１８６４番地４カパルア３０４号宝和塗工株式会社（9040001070377）に合併し解散,2015-10-05,1,,,,,ユウト,0
336,2100002004466,登記記録の閉鎖等,0,2025-09-26,2025-09-22,有限会社プロテック,,有限会社,長野県,長野市,大字徳間７３２番地１５,,20,201,3810041,,,2025-09-22,清算の結了等,,,2015-10-05,1,,,,,プロテック,0
345,2120001227479,登記記録の閉鎖等,0,2025-09-26,2025-08-25,メイキットコープ株式会社,,株式会社,東京都,港区,南青山１丁目１２番３号ＬＩＦＯＲＫＭＩＮＡＭＩＡＯＹＡＭＡ・Ｎ１０２,,13,103,1070062,,,2025-08-25,清算の結了等,,,2020-03-03,1,,,,,メイキットコープ,0
356,2120002010677,登記記録の閉鎖等,0,2025-09-26,2025-09-16,有限会社生野家蓄,,有限会社,大阪府,大阪市平野区,喜連西１丁目１２番６号,,27,126,5470026,,,2025-09-16,清算の結了等,,,2015-10-05,1,,,,,イクノカチク,0
365,2120101068633,登記記録の閉鎖等,0,2025-09-26,2025-09-05,泉北サークル株式会社,,株式会社,大阪府,堺市南区,深阪南２６８６番地,,27,145,5900103,,,2025-09-05,合併による解散等,4120101049730,令和７年９月１日大阪府堺市南区深阪南２６８６番地泉北スクエア株式会社（4120101049730）に合併し解散,2023-12-06,1,,,,,センボクサークル,0
373,2130002017341,登記記録の閉鎖等,0,2025-09-26,2025-09-19,有限会社坊城マンシヨン,,有限会社,京都府,京都市中京区,壬生坊城町３３番４アートセレナ坊城３０３号,,26,104,6048804,,,2025-09-19,清算の結了等,,,2015-10-05,1,,,,,ボウジョウマンシヨン,0
386,2170002004369,登記記録の閉鎖等,0,2025-09-26,2025-09-25,有限会社エムズ企画,,有限会社,和歌山県,和歌山市,堀止西１丁目１番２８号,,30,201,6410045,,,2025-09-25,清算の結了等,,,2015-10-05,1,,,,,エムズキカク,0
390,2180001124349,登記記録の閉鎖等,0,2025-09-26,2025-09-03,株式会社オフィスＨＡＰ,,株式会社,愛知県,名古屋市中区,錦３丁目７－１９錦ＴＫＧビル４Ｆ,,23,106,4600003,,,2025-09-03,清算の結了等,,,2016-08-05,1,,,,,オフィスハップ,0
398,2180301027904,登記記録の閉鎖等,0,2025-09-26,2025-09-11,株式会社Ｙ・カインズ,,株式会社,愛知県,額田郡幸田町,大字芦谷字仲田１４３番地,00074815,23,501,4440116,,,2025-09-11,清算の結了等,,,2015-10-05,1,,,,,ワイカインズ,0
411,2200001039742,登記記録の閉鎖等,0,2025-09-26,2025-09-22,株式会社ＣＡＦ,,株式会社,岐阜県,可児市,中恵土２３３７番地１ファミリーエステートＡ－１,,21,214,5090202,,,2025-09-22,清算の結了等,,,2022-02-15,1,,,,,シーエーエフ,0
415,2210002012656,登記記録の閉鎖等,0,2025-09-26,2025-09-19,有限会社福井新聞武生中央販売店,,有限会社,福井県,越前市,国府１丁目３番１４号,,18,209,9150076,,,2025-09-19,清算の結了等,,,2015-10-05,1,,,,,フクイシンブンタケフチュウオウハンバイテン,0
436,2330002026405,登記記録の閉鎖等,0,2025-09-26,2025-09-12,有限会社三枝工務店,,有限会社,熊本県,八代市,鼠蔵町１６３番地の３,,43,202,8695164,,,2025-09-12,清算の結了等,,,2015-10-05,1,,,,,ミツエダコウムテン,0
441,2360002018944,登記記録の閉鎖等,0,2025-09-26,2025-09-17,有限会社沖縄シーサー本舗,,有限会社,沖縄県,浦添市,勢理客２丁目６番１５号,,47,208,9012122,,,2025-09-17,清算の結了等,,,2015-10-05,1,,,,,オキナワシーサーホンポ,0
446,2370301002400,登記記録の閉鎖等,0,2025-09-26,2025-09-10,佐久間造園株式会社,,株式会社,宮城県,石巻市,蛇田字沖３１番地,,04,202,9860861,,,2025-09-10,清算の結了等,,,2015-10-05,1,,,,,サクマゾウエン,0
454,2420002009433,登記記録の閉鎖等,0,2025-09-26,2025-09-08,有限会社笹山鉄工建設,,有限会社,青森県,三戸郡階上町,大字道仏字横沢山１番地１９３,,02,446,0391201,,,2025-09-08,清算の結了等,,,2015-10-05,1,,,,,ササヤマテッコウケンセツ,0
467,2450002007368,登記記録の閉鎖等,0,2025-09-26,2025-09-22,有限会社能見保険事務所,,有限会社,北海道,旭川市,末広五条８丁目２番１２号,,01,204,0718135,,,2025-09-22,清算の結了等,,,2015-10-05,1,,,,,ノウミホケンジムショ,0
476,3010005030105,登記記録の閉鎖等,0,2025-09-26,2025-09-12,一般社団法人ＳＰＯＲＴＲＡＩＴ,,その他の設立登記法人,東京都,文京区,水道１丁目３番３号,,13,105,1120005,,,2025-09-12,清算の結了等,,,2019-05-08,1,,,,,スポートレイト,0
511,3011101080101,登記記録の閉鎖等,0,2025-09-26,2025-09-16,株式会社エリスタ,,株式会社,東京都,渋谷区,代々木２丁目２８番１２号,,13,113,1510053,,,2025-09-16,清算の結了等,,,2017-04-07,1,,,,,エリスタ,0
516,3011201021038,登記記録の閉鎖等,0,2025-09-26,2025-09-02,ＭＡＲＵ株式会社,,株式会社,東京都,千代田区,丸の内１丁目８番１号丸の内トラストタワーＮ館,,13,101,1000005,,,2025-09-02,合併による解散等,9010001098999,令和７年８月３１日東京都千代田区丸の内一丁目８番１号丸の内トラストタワーＮ館Ａｐａｍａｎ　Ｎｅｔｗｏｒｋ株式会社（9010001098999）に合併し解散,2018-12-11,1,,,,,マル,0
519,3011303001730,登記記録の閉鎖等,0,2025-09-26,2025-09-24,合同会社エー・エー・エー,,合同会社,東京都,杉並区,下井草１丁目２９番１３号,,13,115,1670022,,,2025-09-24,清算の結了等,,,2015-10-05,1,,,,,エーエーエー,0
525,3011401019063,登記記録の閉鎖等,0,2025-09-26,2025-09-02,株式会社東洋アカデミー,,株式会社,千葉県,千葉市中央区,中央１丁目２番１２号,,12,101,2600013,,,2025-09-02,清算の結了等,,,2015-12-02,1,,,,,トウヨウアカデミー,0
530,3011501021951,登記記録の閉鎖等,0,2025-09-26,2025-09-22,株式会社ＲＩＮ　ＴＲＵＳＴ,,株式会社,東京都,北区,堀船３丁目２２番６号,,13,117,1140004,,,2025-09-22,合併による解散等,6010401117782,令和７年８月２５日東京都港区北青山二丁目１２番１６号アールビー・トラスト株式会社（6010401117782）に合併し解散,2016-09-21,1,,,,,,0
537,3011703004184,登記記録の閉鎖等,0,2025-09-26,2025-09-08,無憂合同会社,,合同会社,東京都,江戸川区,西小岩５丁目１３番１３号小出マンション１５９号室,,13,123,1330057,,,2025-09-08,清算の結了等,,,2025-04-08,1,,,,,ムユウ,0
540,3012801020197,登記記録の閉鎖等,0,2025-09-26,2025-09-08,株式会社リファイン,,株式会社,東京都,昭島市,中神町１１５９番地１２,,13,207,1960022,,,2025-09-08,清算の結了等,,,2020-06-15,1,,,,,リファイン,0
543,3013301021479,登記記録の閉鎖等,0,2025-09-26,2025-09-16,株式会社オフィスコア,,株式会社,東京都,豊島区,上池袋３丁目３４番１１－１２０７号,,13,116,1700012,,,2025-09-16,清算の結了等,,,2015-10-05,1,,,,,オフィスコア,0
580,3050002010659,登記記録の閉鎖等,0,2025-09-26,2025-09-12,有限会社佐藤エンジニアリング,,有限会社,茨城県,笠間市,住吉１５７２番地４３,,08,216,3091716,,,2025-09-12,清算の結了等,,,2015-10-05,1,,,,,サトウエンジニアリング,0
595,3120001082881,登記記録の閉鎖等,0,2025-09-26,2025-09-16,株式会社相互企画設計,,株式会社,大阪府,大阪市西区,阿波座２丁目２番１８号,,27,106,5500011,,,2025-09-16,清算の結了等,,,2015-10-05,1,,,,,ソウゴキカクセッケイ,0
610,3120002035260,登記記録の閉鎖等,0,2025-09-26,2025-09-16,有限会社協友企画,,有限会社,大阪府,大阪市中央区,内平野町２丁目４番５号内平野中央ビル,,27,128,5400037,,,2025-09-16,清算の結了等,,,2015-10-05,1,,,,,キョウユウキカク,0
619,3120102018900,登記記録の閉鎖等,0,2025-09-26,2025-09-16,有限会社リバー・ラビット,,有限会社,大阪府,藤井寺市,岡１丁目４番６号,,27,226,5830027,,,2025-09-16,清算の結了等,,,2015-10-05,1,,,,,リバーラビット,0
620,3120102023660,登記記録の閉鎖等,0,2025-09-26,2025-09-10,有限会社島岡鉄工,,有限会社,大阪府,泉佐野市,葵町３丁目６番１７号,,27,213,5980014,,,2025-09-10,清算の結了等,,,2015-10-05,1,,,,,シマオカテッコウ,0
621,3120902021946,登記記録の閉鎖等,0,2025-09-26,2025-09-09,有限会社裕仁恵会,,有限会社,大阪府,豊中市,服部西町４丁目１番２２号,,27,203,5610858,,,2025-09-09,清算の結了等,,,2015-10-05,1,,,,,ユニエカイ,0
625,3130001021632,登記記録の閉鎖等,0,2025-09-26,2025-09-22,株式会社千艸屋,,株式会社,京都府,京都市上京区,衣棚通下長者町下る御霊町７０番地６,,26,102,6028018,,,2025-09-22,清算の結了等,,,2015-10-05,1,,,,,チグサヤ,0
628,3130005016372,登記記録の閉鎖等,0,2025-09-26,2025-09-12,一般社団法人ＴＯＭＯ学習センター,,その他の設立登記法人,京都府,京都市上京区,智恵光院通上長者町下る下山里町２４３番地ベルスーズ西陣２０３号室,,26,102,6028265,,,2025-09-12,清算の結了等,,,2022-01-28,1,,,,,トモガクシュウセンター,0
629,3140001041258,登記記録の閉鎖等,0,2025-09-26,2025-09-19,株式会社はせがわ,,株式会社,兵庫県,丹波市,氷上町成松５９５番地の３,,28,223,6693601,,,2025-09-19,清算の結了等,,,2015-10-05,1,,,,,ハセガワ,0
630,3140001078069,登記記録の閉鎖等,0,2025-09-26,2025-09-18,株式会社入江鉄工所,,株式会社,兵庫県,伊丹市,桑津２丁目１番２－１０３号,,28,207,6640839,,,2025-09-18,清算の結了等,,,2015-10-05,1,,,,,イリエテッコウショ,0
636,3150001019518,登記記録の閉鎖等,0,2025-09-26,2025-09-24,株式会社地域文化伝承研究会,,株式会社,奈良県,奈良市,寺町２６番地の２,,29,201,6308234,,,2025-09-24,清算の結了等,,,2015-10-05,1,,,,,チイキブンカデンショウケンキュウカイ,0
637,3160005009472,登記記録の閉鎖等,0,2025-09-26,2025-09-19,一般社団法人滋賀県住環境ディベロッパー協会,,その他の設立登記法人,滋賀県,大津市,におの浜１丁目１番３号,,25,201,5200801,,,2025-09-19,清算の結了等,,,2015-10-05,1,,,,,シガケンジュウカンキョウディベロッパーキョウカイ,0
640,3180001044802,登記記録の閉鎖等,0,2025-09-26,2025-09-05,株式会社豊利建設,,株式会社,愛知県,名古屋市中川区,中郷３丁目３７８番地,,23,110,4540921,,,2025-09-05,清算の結了等,,,2015-10-05,1,,,,,ホウリケンセツ,0
642,3180001118242,登記記録の閉鎖等,0,2025-09-26,2025-09-01,大丸不動産株式会社,,株式会社,愛知県,海部郡大治町,大字花常字中切１２９６番地１,,23,424,4901136,,,2025-09-01,清算の結了等,,,2015-10-05,1,,,,,ダイマルフドウサン,0
657,3190001027095,登記記録の閉鎖等,0,2025-09-26,2025-09-16,株式会社グレースオート,,株式会社,三重県,伊勢市,中須町７１６番地３,,24,203,5160053,,,2025-09-16,清算の結了等,,,2020-01-31,1,,,,,グレースオート,0
659,3230001006202,登記記録の閉鎖等,0,2025-09-26,2025-09-19,株式会社ＰＦＩ新庄,,株式会社,富山県,富山市,中野新町１丁目２番１０号,,16,201,9398085,,,2025-09-19,清算の結了等,,,2015-10-05,1,,,,,ピーエフアイシンジョウ,0
660,3230001013958,登記記録の閉鎖等,0,2025-09-26,2025-09-19,株式会社空間考房ナカヤマ,,株式会社,富山県,富山市,婦中町下轡田８１番地１,,16,201,9392716,,,2025-09-19,清算の結了等,,,2015-10-05,1,,,,,クウカンコウボウナカヤマ,0
665,3260005008984,登記記録の閉鎖等,0,2025-09-26,2025-09-24,一般財団法人倉敷市開発公社,,その他の設立登記法人,岡山県,倉敷市,西中新田６４０番地,,33,202,7100833,,,2025-09-24,清算の結了等,,,2015-10-05,1,,,,,クラシキシカイハツコウシャ,0
666,3290001003193,登記記録の閉鎖等,0,2025-09-26,2025-09-01,株式会社サンユー・フーズ,,株式会社,福岡県,福岡市東区,松香台２丁目３番１号,,40,131,8130004,,,2025-09-01,合併による解散等,6290001002969,令和７年９月１日福岡市東区松香台一丁目２７番１０号株式会社九産大サービスセンター（6290001002969）に合併し解散,2015-10-05,1,,,,,サンユーフーズ,0
671,3290805000130,登記記録の閉鎖等,0,2025-09-26,2025-09-18,善光教会,,その他の設立登記法人,福岡県,北九州市小倉北区,砂津砂原２６２番地の２,,40,106,8020000,,,2025-09-18,清算の結了等,,,2015-10-05,1,,,,,ゼンコウキョウカイ,0
677,3340001017007,登記記録の閉鎖等,0,2025-09-26,2025-09-17,株式会社明幸不動産,,株式会社,鹿児島県,鹿児島市,紫原２丁目４５番１８号,,46,201,8900082,,,2025-09-17,清算の結了等,,,2015-10-05,1,,,,,メイコウフドウサン,0
691,3402705000347,登記記録の閉鎖等,0,2025-09-26,2025-09-12,特定非営利活動法人センター１２３,,その他の設立登記法人,岩手県,大船渡市,大船渡町字笹崎１３番地１０,,03,203,0220002,,,2025-09-12,清算の結了等,,,2015-10-05,1,,,,,センターワンツースリー,0
695,3430001083469,登記記録の閉鎖等,0,2025-09-26,2025-09-16,株式会社ｓｅｃｏｎｄ,,株式会社,北海道,札幌市豊平区,福住三条８丁目１４番１０号,,01,105,0620043,,,2025-09-16,清算の結了等,,,2021-02-26,1,,,,,セコンド,0
705,3500002021081,登記記録の閉鎖等,0,2025-09-26,2025-09-22,児山米穀有限会社,,有限会社,愛媛県,四国中央市,三島中央５丁目３番４０号,,38,213,7990405,,,2025-09-22,清算の結了等,,,2015-10-05,1,,,,,,0
711,4010002014811,登記記録の閉鎖等,0,2025-09-26,2025-08-25,有限会社水戸アイネ,,有限会社,東京都,港区,西新橋３丁目１６番１１号,,13,103,1050003,,,2025-08-25,清算の結了等,,,2015-10-05,1,,,,,ミトアイネ,0
731,4010405023913,登記記録の閉鎖等,0,2025-09-26,2025-08-25,一般社団法人国際平和発展戦略研究所,,その他の設立登記法人,東京都,港区,港南４丁目６番８－３９０３号,,13,103,1080075,,,2025-08-25,清算の結了等,,,2024-12-18,1,,,,,コクサイヘイワハッテンセンリャクケンキュウジョ,0
741,4010901036575,登記記録の閉鎖等,0,2025-09-26,2025-09-05,株式会社Ｔ’ｓ　ａｇｅｎｃｙ,,株式会社,神奈川県,横浜市神奈川区,金港町５番地１４クアドリフォリオ８階,,14,102,2210056,,,2025-09-05,清算の結了等,,,2015-10-05,1,,,,,ティーズエージェンシー,0
750,4011001121821,登記記録の閉鎖等,0,2025-09-26,2025-09-24,ウィザーライフサイエンス株式会社,,株式会社,京都府,京都市左京区,一乗寺西水干町１７番地,,26,103,6068171,,,2025-09-24,清算の結了等,,,2018-04-24,1,,,,,ウィザーライフサイエンス,0
760,4011102023231,登記記録の閉鎖等,0,2025-09-26,2025-09-05,有限会社Ａ‐ｔｅａｍ　ｃｏｒｐｏｒａｔｉｏｎ,,有限会社,東京都,練馬区,大泉学園町６丁目１９番４３号,,13,120,1780061,,,2025-09-05,清算の結了等,,,2015-10-05,1,,,,,エーチームコーポレーション,0
761,4011103013644,登記記録の閉鎖等,0,2025-09-26,2025-08-22,合同会社ＫＮＹ,,合同会社,東京都,新宿区,北新宿１丁目２７番１５号Ａｒｔｅ柏木２０２,,13,104,1690074,,,2025-08-22,清算の結了等,,,2023-10-23,1,,,,,ケーエヌワイ,0
762,4011201021037,登記記録の閉鎖等,0,2025-09-26,2025-09-02,Ｍｉ　ＬＩＦＥ株式会社,,株式会社,東京都,千代田区,丸の内１丁目８番１号丸の内トラストタワーＮ館,,13,101,1000005,,,2025-09-02,合併による解散等,9010001098999,令和７年８月３１日東京都千代田区丸の内一丁目８番１号丸の内トラストタワーＮ館Ａｐａｍａｎ　Ｎｅｔｗｏｒｋ株式会社（9010001098999）に合併し解散,2018-12-11,1,,,,,ミライフ,0
785,4013302015768,登記記録の閉鎖等,0,2025-09-26,2025-09-08,有限会社コルマミー,,有限会社,東京都,豊島区,南大塚２丁目１７番１６号,,13,116,1700005,,,2025-09-08,清算の結了等,,,2015-10-05,1,,,,,コルマミー,0
793,4020002020412,登記記録の閉鎖等,0,2025-09-26,2025-09-04,有限会社愛知屋加納商店,,有限会社,神奈川県,横浜市旭区,上白根１丁目１番１号,,14,112,2410002,,,2025-09-04,清算の結了等,,,2015-10-05,1,,,,,アイチヤカノウショウテン,0
818,4060001036018,登記記録の閉鎖等,0,2025-09-26,2025-09-18,株式会社ＫＧ高等学院,,株式会社,栃木県,小山市,駅東通り１丁目５番９号増田ビル３Ｆ,,09,208,3230022,,,2025-09-18,清算の結了等,,,2023-05-23,1,,,,,ケージーコウトウガクイン,0
829,4080405006886,登記記録の閉鎖等,0,2025-09-26,2025-09-18,特定非営利活動法人遠州縞プロジェクト,,その他の設立登記法人,静岡県,浜松市中央区,中島３丁目２４番５０号,,22,138,4300856,,,2025-09-18,清算の結了等,,,2016-08-12,1,,,,,エンシュウジマプロジェクト,0
835,4120001098729,登記記録の閉鎖等,0,2025-09-26,2025-09-17,ジェイズ・ソリューション株式会社,,株式会社,大阪府,大阪市淀川区,西中島５丁目５番１５号,,27,123,5320011,,,2025-09-17,合併による解散等,9010001164479,令和７年８月１日東京都中央区新川一丁目１６番３号セグエグループ株式会社（9010001164479）に合併し解散,2015-10-05,1,,,,,ジェイズソリューション,0
839,4120001160397,登記記録の閉鎖等,0,2025-09-26,2025-09-16,株式会社ＯＫＥ,,株式会社,大阪府,守口市,西郷通２丁目３番２号,,27,209,5700034,,,2025-09-16,清算の結了等,,,2015-10-05,1,,,,,オーケイイー,0
841,4120001193026,登記記録の閉鎖等,0,2025-09-26,2025-09-16,株式会社ＭＡＫＥ　ＴＥＥＳ,,株式会社,大阪府,大阪市北区,芝田２丁目８－１１共栄ビル３階,,27,127,5300012,,,2025-09-16,清算の結了等,,,2015-10-05,1,,,,,メイクティーズ,0
869,4130001078192,登記記録の閉鎖等,0,2025-09-26,2025-09-18,株式会社折晋,,株式会社,京都府,舞鶴市,字安岡中山９０３－４,,26,202,6250021,,,2025-09-18,清算の結了等,,,2024-10-23,1,,,,,オリシン,0
876,4140002061279,登記記録の閉鎖等,0,2025-09-26,2025-09-12,有限会社マックスフリー商事,,有限会社,兵庫県,加東市,木梨８９６番地１,,28,228,6731461,,,2025-09-12,清算の結了等,,,2015-10-05,1,,,,,マックスフリーショウジ,0
878,4140005023879,登記記録の閉鎖等,0,2025-09-26,2025-09-19,一般社団法人瑛賛会,,その他の設立登記法人,兵庫県,姫路市,大津区天満５９３－３,,28,201,6711143,,,2025-09-19,清算の結了等,,,2017-12-18,1,,,,,エイサンカイ,0
882,4170002011297,登記記録の閉鎖等,0,2025-09-26,2025-09-25,有限会社浜口印刷,,有限会社,和歌山県,新宮市,南檜杖１５７番地の１,,30,207,6470054,,,2025-09-25,清算の結了等,,,2015-10-05,1,,,,,ハマグチインサツ,0
902,4230002005895,登記記録の閉鎖等,0,2025-09-26,2025-09-22,有限会社堀田設備,,有限会社,富山県,中新川郡上市町,広野２６１番地,,16,322,9300412,,,2025-09-22,清算の結了等,,,2015-10-05,1,,,,,ホリタセツビ,0
905,4240002045494,登記記録の閉鎖等,0,2025-09-26,2025-09-18,有限会社橘高軸箱,00001584,有限会社,広島県,福山市,新市町大字常１９０番地,,34,207,7293107,,,2025-09-18,清算の結了等,,,2015-10-05,1,,,,,キッタカジクバコ,0
910,4250003002361,登記記録の閉鎖等,0,2025-09-26,2025-09-22,合同会社ヨミライン,,合同会社,山口県,下関市,武久町１丁目３９番５号,,35,201,7510833,,,2025-09-22,清算の結了等,,,2018-12-10,1,,,,,,0
914,4290001087855,登記記録の閉鎖等,0,2025-09-26,2025-08-13,株式会社センツ福岡,,株式会社,福岡県,福岡市東区,水谷２丁目５５番１号,,40,131,8130041,,,2025-08-13,清算の結了等,,,2020-01-27,1,,,,,センツフクオカ,0
919,4290802017226,登記記録の閉鎖等,0,2025-09-26,2025-09-18,有限会社山本米穀,,有限会社,福岡県,遠賀郡水巻町,下二西３丁目６番３５号,,40,382,8070052,,,2025-09-18,清算の結了等,,,2015-10-05,1,,,,,ヤマモトベイコク,0
925,4330003007443,登記記録の閉鎖等,0,2025-09-26,2025-09-12,合同会社ＳＧ,,合同会社,熊本県,宇土市,善道寺町７８番地１,,43,211,8690418,,,2025-09-12,清算の結了等,,,2018-04-02,1,,,,,エスジー,0
927,4340001019737,登記記録の閉鎖等,0,2025-09-26,2025-09-18,株式会社ＨＡＲＵ　ＨＡＲＵ,,株式会社,鹿児島県,鹿屋市,串良町細山田５１０９番地１５,,46,203,8931601,,,2025-09-18,清算の結了等,,,2016-10-19,1,,,,,ハルハル,0
936,4370001020733,登記記録の閉鎖等,0,2025-09-26,2025-09-10,株式会社ギブ・アンド・ギブ,,株式会社,宮城県,仙台市若林区,東七番丁１番地,,04,103,9840074,,,2025-09-10,清算の結了等,,,2015-10-05,1,,,,,ギブアンドギブ,0
938,4370401000038,登記記録の閉鎖等,0,2025-09-26,2025-09-10,佐々辰建設株式会社,,株式会社,宮城県,登米市,豊里町二ツ屋２４６番地,,04,212,9870375,,,2025-09-10,清算の結了等,,,2015-10-05,1,,,,,ササタツケンセツ,0
939,4370605000321,登記記録の閉鎖等,0,2025-09-26,2025-09-10,医療法人社団関クリニック,,その他の設立登記法人,宮城県,多賀城市,高崎３丁目２６番３５号,,04,209,9850862,,,2025-09-10,清算の結了等,,,2015-10-05,1,,,,,シャダンセキクリニック,0
957,4460101007043,登記記録の閉鎖等,0,2025-09-26,2025-09-22,株式会社Ｙ’ｓ,,株式会社,北海道,河西郡芽室町,本通２丁目１０番地１,,01,637,0820030,,,2025-09-22,清算の結了等,,,2021-08-05,1,,,,,ワイズ,0
961,4480002009995,登記記録の閉鎖等,0,2025-09-26,2025-09-19,有限会社電建搬,,有限会社,徳島県,阿波市,土成町秋月字伊月５０番地１,,36,206,7711501,,,2025-09-19,清算の結了等,,,2015-10-05,1,,,,,デンケンパン,0
963,4500001009804,登記記録の閉鎖等,0,2025-09-26,2025-09-22,株式会社挙栄,,株式会社,愛媛県,新居浜市,多喜浜３丁目１４番４１号,,38,205,7920893,,,2025-09-22,清算の結了等,,,2015-10-05,1,,,,,キョウエイ,0
964,4500001024373,登記記録の閉鎖等,0,2025-09-26,2025-09-19,株式会社ＡＬＢ,,株式会社,愛媛県,新居浜市,庄内町１丁目５番２８号,,38,205,7920811,,,2025-09-19,清算の結了等,,,2022-08-04,1,,,,,エーエルビー,0
966,5010001141531,登記記録の閉鎖等,0,2025-09-26,2025-08-25,株式会社アイネシステム,,株式会社,東京都,港区,西新橋３丁目１６番１１号,,13,103,1050003,,,2025-08-25,清算の結了等,,,2015-10-05,1,,,,,アイネシステム,0
977,5010005014733,登記記録の閉鎖等,0,2025-09-26,2025-09-16,特定非営利活動法人農商工連携サポートセンター,,その他の設立登記法人,埼玉県,比企郡ときがわ町,大字玉川字唐沢２４１６大塚農園内,,11,349,3550342,,,2025-09-16,清算の結了等,,,2015-10-05,1,,,,,ノウショウコウレンケイサポートセンター,0
978,5010005036273,登記記録の閉鎖等,0,2025-09-26,2025-09-10,Ｐｌａｔｉｎｕｍ　Ｈｏｕｓｅ特定目的会社,,その他の設立登記法人,東京都,千代田区,霞が関３丁目２番５号,,13,101,1000013,,,2025-09-10,清算の結了等,,,2023-02-22,1,,,,,プラチナムハウス,0
992,5010603007411,登記記録の閉鎖等,0,2025-09-26,2025-09-17,ソーシャリングラボ合同会社,,合同会社,東京都,江東区,青海２丁目５番１０号テレコムセンタービル東棟１４階,,13,108,1350064,,,2025-09-17,清算の結了等,,,2018-08-27,1,,,,,ソーシャリングラボ,0
1004,5011002020971,登記記録の閉鎖等,0,2025-09-26,2025-09-01,メディカル・ラボ有限会社,,有限会社,東京都,中央区,日本橋人形町１丁目１２番１１号,,13,102,1030013,,,2025-09-01,清算の結了等,,,2015-10-05,1,,,,,メディカルラボ,0
1010,5011302015630,登記記録の閉鎖等,0,2025-09-26,2025-09-22,有限会社ハウジングプラザネオ,,有限会社,東京都,杉並区,高円寺北３丁目２２番１８号パル高円寺,,13,115,1660002,,,2025-09-22,清算の結了等,,,2015-10-05,1,,,,,ハウジングプラザネオ,0
1018,5011603001107,登記記録の閉鎖等,0,2025-09-26,2025-09-10,合同会社クリエイト,,合同会社,東京都,練馬区,貫井３丁目１番９号,,13,120,1760021,,,2025-09-10,清算の結了等,,,2015-10-05,1,,,,,クリエイト,0
1025,5011702006064,登記記録の閉鎖等,0,2025-09-26,2025-09-12,有限会社鈴木鉄工所,,有限会社,東京都,江戸川区,松江１丁目２０番１３号,,13,123,1320025,,,2025-09-12,清算の結了等,,,2015-10-05,1,,,,,スズキテッコウジョ,0
1026,5011703003861,登記記録の閉鎖等,0,2025-09-26,2025-09-12,新昇合同会社,,合同会社,東京都,江戸川区,春江町２丁目３１－１５,,13,123,1320003,,,2025-09-12,清算の結了等,,,2024-06-10,1,,,,,シンショウ,0
1031,5012701008027,登記記録の閉鎖等,0,2025-09-26,2025-09-22,株式会社アール・エイチ・ワン,,株式会社,東京都,小平市,小川町１丁目２９９番地の６,,13,211,1870032,,,2025-09-22,清算の結了等,,,2015-10-05,1,,,,,,0
1042,5020003014998,登記記録の閉鎖等,0,2025-09-26,2025-09-05,Ａｃｈａｔｅｓ　Ｐｏｗｅｒ合同会社,,合同会社,神奈川県,横浜市港北区,新横浜３丁目７番１８号,,14,109,2220033,,,2025-09-05,清算の結了等,,,2018-10-05,1,,,,,アチャテスパワー,0
1051,5021005012263,登記記録の閉鎖等,0,2025-09-26,2025-09-08,ファーストクラスさがみ野第２管理組合法人,,その他の設立登記法人,神奈川県,海老名市,東柏ケ谷２丁目３０番１０号,,14,215,2430401,,,2025-09-08,清算の結了等,,,2021-07-29,1,,,,,,0
1053,5030001065316,登記記録の閉鎖等,0,2025-09-26,2025-09-12,株式会社キューベック,,株式会社,埼玉県,北葛飾郡松伏町,大字築比地５６１番地の６,,11,465,3430102,,,2025-09-12,清算の結了等,,,2015-10-05,1,,,,,キューベック,0
1074,5050001032850,登記記録の閉鎖等,0,2025-09-26,2025-09-16,株式会社川輝商事,,株式会社,茨城県,筑西市,舟生１０１８番地５５,,08,227,3080111,,,2025-09-16,清算の結了等,,,2015-10-05,1,,,,,カワテルショウジ,0
1080,5070001038441,登記記録の閉鎖等,0,2025-09-26,2025-09-09,株式会社アビリティー,,株式会社,群馬県,太田市,浜町５２番５７角丸ビル２階,,10,205,3730853,,,2025-09-09,清算の結了等,,,2021-09-16,1,,,,,アビリティー,0
1098,5120001197249,登記記録の閉鎖等,0,2025-09-26,2025-09-17,株式会社ＭＡＭＢＯ,,株式会社,大阪府,大阪市天王寺区,石ケ辻町９番３－６０１号,,27,109,5430031,,,2025-09-17,清算の結了等,,,2016-04-01,1,,,,,マンボ,0
1117,5120003010211,登記記録の閉鎖等,0,2025-09-26,2025-09-22,合同会社育才,,合同会社,大阪府,大阪市平野区,喜連５丁目２番３８号,,27,126,5470027,,,2025-09-22,合併による解散等,9120001277542,令和７年９月２０日大阪市平野区喜連五丁目２番３８号大阪みなみ株式会社（9120001277542）に合併し解散,2015-10-05,1,,,,,イクサイ,0
1126,5120102000146,登記記録の閉鎖等,0,2025-09-26,2025-09-09,有限会社シーエスジェム,,有限会社,大阪府,高石市,加茂１丁目１８番１９号,,27,225,5920011,,,2025-09-09,清算の結了等,,,2015-10-05,1,,,,,シーエスジェム,0
1128,5120105004656,登記記録の閉鎖等,0,2025-09-26,2025-09-22,在日本北米バプテスト綜合宣教団,,その他の設立登記法人,大阪府,大阪狭山市,金剛２丁目４番８号,,27,231,5890006,,,2025-09-22,清算の結了等,,,2015-10-05,1,,,,,ザイニホンホクベイバプテストソウゴウセンキョウダン,0
1140,5140001008271,登記記録の閉鎖等,0,2025-09-26,2025-09-19,株式会社信貴開発,,株式会社,兵庫県,神戸市中央区,海岸通１丁目２番９号田村ビル内,,28,110,6500024,,,2025-09-19,清算の結了等,,,2015-10-05,1,,,,,シギカイハツ,0
1141,5140001030630,登記記録の閉鎖等,0,2025-09-26,2025-09-24,株式会社アイ・エフ・エム,,株式会社,兵庫県,神戸市西区,竹の台６丁目５番地３－１０８号,,28,111,6512274,,,2025-09-24,清算の結了等,,,2015-10-05,1,,,,,アイエフエム,0
1146,5140002049554,登記記録の閉鎖等,0,2025-09-26,2025-09-18,有限会社田中機型製作所,,有限会社,兵庫県,姫路市,飾磨区英賀甲１９５９番地の３,,28,201,6728078,,,2025-09-18,清算の結了等,,,2015-10-05,1,,,,,タナカキガタセイサクショ,0
1153,5150002002108,登記記録の閉鎖等,0,2025-09-26,2025-09-24,有限会社大和商事,,有限会社,奈良県,大和郡山市,美濃庄町４３６番地,,29,203,6391103,,,2025-09-24,清算の結了等,,,2015-10-05,1,,,,,ヤマトショウジ,0
1173,5180005007381,登記記録の閉鎖等,0,2025-09-26,2025-09-22,特定非営利活動法人サンコムネット,,その他の設立登記法人,愛知県,日進市,蟹甲町中島２７７番地１,,23,230,4700122,,,2025-09-22,清算の結了等,,,2015-10-05,1,,,,,サンコムネット,0
1176,5180302019501,登記記録の閉鎖等,0,2025-09-26,2025-09-10,有限会社知立計算センター,,有限会社,愛知県,知立市,広見４丁目３６番地,,23,225,4720044,,,2025-09-10,清算の結了等,,,2015-10-05,1,,,,,チリュウケイサンセンター,0
1186,5240001014391,登記記録の閉鎖等,0,2025-09-26,2025-09-22,株式会社リックス,,株式会社,広島県,広島市南区,向洋中町４番４号,,34,103,7340061,,,2025-09-22,清算の結了等,,,2015-10-05,1,,,,,リックス,0
1191,5250002010463,登記記録の閉鎖等,0,2025-09-26,2025-09-22,有限会社はたなか,,有限会社,山口県,下関市,彦島西山町１丁目５番６号,,35,201,7500093,,,2025-09-22,清算の結了等,,,2015-10-05,1,,,,,ハタナカ,0
1207,5300001009914,登記記録の閉鎖等,0,2025-09-26,2025-09-24,株式会社ヒフミトレード,,株式会社,佐賀県,佐賀市,鍋島町大字蛎久１５５０番地１,,41,201,8490931,,,2025-09-24,清算の結了等,,,2015-10-05,1,,,,,ヒフミトレード,0
1214,5340002015478,登記記録の閉鎖等,0,2025-09-26,2025-09-16,有限会社姶良電気水道工業,,有限会社,鹿児島県,姶良市,西餅田１１６２番地７,00099275,46,225,8995431,,,2025-09-16,清算の結了等,,,2015-10-05,1,,,,,アイラデンキスイドウコウギョウ,0
1225,5370001010337,登記記録の閉鎖等,0,2025-09-26,2025-09-11,株式会社松坂屋,,株式会社,宮城県,仙台市泉区,鶴が丘４丁目２２番地の８,,04,105,9813109,,,2025-09-11,清算の結了等,,,2015-10-05,1,,,,,マツザカヤ,0
1227,5370002015871,登記記録の閉鎖等,0,2025-09-26,2025-09-08,有限会社成幸クレーン,,有限会社,宮城県,宮城郡七ヶ浜町,汐見台南１丁目２０番地の１３,,04,404,9850822,,,2025-09-08,清算の結了等,,,2015-10-05,1,,,,,セイコウクレーン,0
1230,5380005002255,登記記録の閉鎖等,0,2025-09-26,2025-09-11,ＮＰＯ法人夢ネットワーク,,その他の設立登記法人,福島県,伊達市,保原町上保原字細田入１０番地の１,,07,213,9600684,,,2025-09-11,清算の結了等,,,2015-10-05,1,,,,,ユメネットワーク,0
1232,5400001009219,登記記録の閉鎖等,0,2025-09-26,2025-09-11,株式会社ユートピア生出,,株式会社,岩手県,盛岡市,下田字仲平５９番地１３１,,03,201,0284134,,,2025-09-11,清算の結了等,,,2015-10-05,1,,,,,,0
1236,5470002019227,登記記録の閉鎖等,0,2025-09-26,2025-09-24,有限会社ともえ,,有限会社,香川県,小豆郡小豆島町,安田甲１４３番地６,,37,324,7614411,,,2025-09-24,清算の結了等,,,2015-10-05,1,,,,,トモエ,0
1248,6010002010445,登記記録の閉鎖等,0,2025-09-26,2025-08-25,有限会社相模湖アイネ,,有限会社,東京都,港区,西新橋３丁目１６番１１号,,13,103,1050003,,,2025-08-25,清算の結了等,,,2015-10-05,1,,,,,,0
1266,6010901011262,登記記録の閉鎖等,0,2025-09-26,2025-09-24,株式会社毎日食品,,株式会社,東京都,世田谷区,千歳台３丁目１９番１５－５０４号,,13,112,1570071,,,2025-09-24,清算の結了等,,,2015-10-05,1,,,,,マイニチショクヒン,0
1269,6011001010766,登記記録の閉鎖等,0,2025-09-26,2025-08-28,昭光産業株式会社,,株式会社,東京都,渋谷区,本町１丁目４０番５号,,13,113,1510071,,,2025-08-28,清算の結了等,,,2015-10-05,1,,,,,ショウコウサンギョウ,0
1292,6013201004143,登記記録の閉鎖等,0,2025-09-26,2025-08-25,遠山総業株式会社,,株式会社,東京都,目黒区,東が丘１丁目２５番１９号,,13,110,1520021,,,2025-08-25,清算の結了等,,,2015-10-05,1,,,,,トオヤマソウギョウ,0
1295,6020001075546,登記記録の閉鎖等,0,2025-09-26,2025-09-05,マイクロ・ダイヤモンド株式会社,,株式会社,神奈川県,横浜市中区,港町２丁目９番地,,14,104,2310017,,,2025-09-05,清算の結了等,,,2015-10-05,1,,,,,マイクロダイヤモンド,0
1310,6030001101788,登記記録の閉鎖等,0,2025-09-26,2025-09-12,株式会社ワークスター,,株式会社,埼玉県,所沢市,大字松郷６３番地の１パークハイツ６０４,,11,208,3590027,,,2025-09-12,清算の結了等,,,2015-10-05,1,,,,,ワークスター,0
1327,6040002072334,登記記録の閉鎖等,0,2025-09-26,2025-09-05,有限会社一條建設工業,,有限会社,千葉県,市原市,千種７丁目２番地１８,,12,219,2990109,,,2025-09-05,清算の結了等,,,2015-10-05,1,,,,,イチジョウケンセツコウギョウ,0
1333,6050003005226,登記記録の閉鎖等,0,2025-09-26,2025-09-16,合同会社ＨＯＷＥＶＥＲ,,合同会社,茨城県,つくば市,上広岡３４７番地２,,08,220,3050041,,,2025-09-16,清算の結了等,,,2020-06-12,1,,,,,ハウエバー,0
1346,6080402002127,登記記録の閉鎖等,0,2025-09-26,2025-09-19,カネ仙織物有限会社,,有限会社,静岡県,浜松市中央区,市野町２４５番地の１,,22,138,4350051,,,2025-09-19,清算の結了等,,,2015-10-05,1,,,,,,0
1347,6110001017274,登記記録の閉鎖等,0,2025-09-26,2025-09-11,株式会社桑與商店,,株式会社,新潟県,柏崎市,比角１丁目６番９号,,15,205,9450047,,,2025-09-11,清算の結了等,,,2015-10-05,1,,,,,クワヨショウテン,0
1350,6110002032990,登記記録の閉鎖等,0,2025-09-26,2025-09-11,有限会社精美堂印刷所,,有限会社,新潟県,南魚沼市,六日町４５４番地３,,15,226,9496680,,,2025-09-11,清算の結了等,,,2015-10-05,1,,,,,セイビドウインサツジョ,0
1352,6120001089346,登記記録の閉鎖等,0,2025-09-26,2025-09-19,株式会社ＣＣＧ　ＨＯＬＤＩＮＧＳ,,株式会社,大阪府,大阪市中央区,南本町１丁目８番１４号,,27,128,5410054,,,2025-09-19,合併による解散等,5010001252592,令和７年９月１日東京都千代田区大手町一丁目７番２号株式会社ＣＣＧ　ＨＯＬＤＩＮＧＳ（5010001252592）に合併し解散,2015-10-05,1,,,,,シーシージーホールディングス,0
1353,6120001172985,登記記録の閉鎖等,0,2025-09-26,2025-09-16,株式会社Ａｃｃｅｓｓ　Ｌｉｎｋ,,株式会社,大阪府,大阪市東住吉区,湯里３丁目２番３号,,27,121,5460013,,,2025-09-16,清算の結了等,,,2015-10-05,1,,,,,アクセスリンク,0
1356,6120001218763,登記記録の閉鎖等,0,2025-09-26,2025-09-18,株式会社ヒューマン本舗,,株式会社,大阪府,枚方市,宮之下町７番２２号,,27,210,5730046,,,2025-09-18,合併による解散等,2010001107980,令和７年９月１日東京都千代田区神田須田町一丁目２４番地４株式会社コロンブスマン（2010001107980）に合併し解散,2019-02-12,1,,,,,ヒューマンホンポ,0
1390,6160001015042,登記記録の閉鎖等,0,2025-09-26,2025-09-18,リーベン株式会社,,株式会社,滋賀県,草津市,平井５丁目１番２１号,,25,206,5250023,,,2025-09-18,清算の結了等,,,2015-10-05,1,,,,,リーベン,0
1391,6160001017724,登記記録の閉鎖等,0,2025-09-26,2025-09-18,株式会社ＢＵＤＤＹＳＵＰＰＯＲＴ,,株式会社,三重県,伊賀市,下友生３４１３番地,,24,216,5180817,,,2025-09-18,清算の結了等,,,2015-10-05,1,,,,,バディサポート,0
1396,6180001116400,登記記録の閉鎖等,0,2025-09-26,2025-09-05,株式会社サンフラワー,,株式会社,愛知県,一宮市,北小渕字大日１４３番地,,23,203,4910013,,,2025-09-05,清算の結了等,,,2015-10-05,1,,,,,サンフラワー,0
1408,6190002006756,登記記録の閉鎖等,0,2025-09-26,2025-09-18,有限会社東陽モータース,,有限会社,三重県,鈴鹿市,若松西５丁目３８番１６号,,24,207,5100222,,,2025-09-18,清算の結了等,,,2015-10-05,1,,,,,トウヨウモータース,0
1413,6210002013378,登記記録の閉鎖等,0,2025-09-26,2025-09-24,有限会社北陸鉱泉,,有限会社,福井県,鯖江市,糺町第１９号１番地の４,,18,207,9160004,,,2025-09-24,清算の結了等,,,2015-10-05,1,,,,,ホクリクコウセン,0
1431,6290003016728,登記記録の閉鎖等,0,2025-09-26,2025-09-01,合同会社野田電気,,合同会社,福岡県,糟屋郡粕屋町,酒殿２丁目１１番７号,,40,349,8112303,,,2025-09-01,合併による解散等,7290001042691,令和７年９月１日福岡県春日市春日十丁目２０番１株式会社カスガデンキ（7290001042691）に合併し解散,2025-04-21,1,,,,,ノダデンキ,0
1435,6310002015694,登記記録の閉鎖等,0,2025-09-26,2025-09-25,有限会社湯江住建工業,,有限会社,長崎県,諫早市,貝津町７５８番地１,,42,204,8540063,,,2025-09-25,清算の結了等,,,2015-10-05,1,,,,,ユエジュウケンコウギョウ,0
1445,6350001007549,登記記録の閉鎖等,0,2025-09-26,2025-09-18,株式会社伝,,株式会社,宮崎県,西臼杵郡高千穂町,大字押方９５４番地,,45,441,8821102,,,2025-09-18,清算の結了等,,,2015-10-05,1,,,,,デン,0
1457,6410002003664,登記記録の閉鎖等,0,2025-09-26,2025-09-25,有限会社武藤清掃サービス,,有限会社,秋田県,秋田市,上北手百崎字境田１４３番地,,05,201,0101407,,,2025-09-25,清算の結了等,,,2015-10-05,1,,,,,ムトウセイソウサービス,0
1458,6410002005925,登記記録の閉鎖等,0,2025-09-26,2025-09-25,有限会社安田商事,,有限会社,秋田県,南秋田郡八郎潟町,字中田６０番地２７,,05,363,0181614,,,2025-09-25,清算の結了等,,,2015-10-05,1,,,,,ヤスダショウジ,0
1461,6430001059607,登記記録の閉鎖等,0,2025-09-26,2025-09-12,株式会社ＭＩＮＥ,,株式会社,北海道,虻田郡倶知安町,北一条西１丁目１１番地,,01,400,0440051,,,2025-09-12,清算の結了等,,,2015-10-05,1,,,,,,0
1478,7010401025035,登記記録の閉鎖等,0,2025-09-26,2025-08-27,株式会社ビーゼットジャパン,,株式会社,東京都,目黒区,柿の木坂１丁目１４番１号,,13,110,1520022,,,2025-08-27,清算の結了等,,,2015-10-05,1,,,,,ビーゼットジャパン,0
1485,7010402033879,登記記録の閉鎖等,0,2025-09-26,2025-08-26,孫コーポレーション合同会社,,合同会社,東京都,港区,海岸１丁目１６番１号ニューピア竹芝サウスタワー６階,,13,103,1050022,,,2025-08-26,合併による解散等,8010403005777,令和７年８月２６日東京都港区海岸一丁目１６番１号ニューピア竹芝サウスタワー６階孫アセットマネージメント合同会社（8010403005777）に合併し解散,2015-10-05,1,,,,,ソンコーポレーション,0
1486,7010403019563,登記記録の閉鎖等,0,2025-09-26,2025-08-27,アーサー・アンド・カンパニー合同会社,,合同会社,千葉県,長生郡一宮町,東浪見７３０４番地６,,12,421,2994303,,,2025-08-27,清算の結了等,,,2018-10-29,1,,,,,アーサーアンドカンパニー,0
1487,7010403033390,登記記録の閉鎖等,0,2025-09-26,2025-08-26,笛吹蓄電所合同会社,,合同会社,東京都,港区,元赤坂１丁目１番８号赤坂コミュニティビル４階,,13,103,1070051,,,2025-08-26,清算の結了等,,,2024-09-06,1,,,,,フエフキチクデンジョ,0
1504,7011301003139,登記記録の閉鎖等,0,2025-09-26,2025-09-24,株式会社四季のきものおおにし,,株式会社,東京都,杉並区,高井戸東１丁目８番３号,,13,115,1680072,,,2025-09-24,清算の結了等,,,2015-10-05,1,,,,,シキノキモノオオニシ,0
1507,7011305001287,登記記録の閉鎖等,0,2025-09-26,2025-09-25,特定非営利活動法人日中企業交流協会,,その他の設立登記法人,東京都,杉並区,阿佐谷北４丁目２２番７号,,13,115,1660001,,,2025-09-25,清算の結了等,,,2015-10-05,1,,,,,ニッチュウキギョウコウリュウキョウカイ,0
1521,7012802006159,登記記録の閉鎖等,0,2025-09-26,2025-09-08,有限会社富士商店,,有限会社,東京都,東大和市,清原１丁目１２００番地１３,,13,220,2070011,,,2025-09-08,清算の結了等,,,2015-10-05,1,,,,,フジショウテン,0
1552,7040005011461,登記記録の閉鎖等,0,2025-09-26,2025-09-05,医療法人社団秋齊会,,その他の設立登記法人,千葉県,長生郡一宮町,東浪見１６２７番地２,,12,421,2994303,,,2025-09-05,清算の結了等,,,2015-10-05,1,,,,,シュウサイカイ,0
1560,7070001022716,登記記録の閉鎖等,0,2025-09-26,2025-09-19,株式会社ＫＵＲＯＤＡ,,株式会社,栃木県,足利市,今福町２５２番地１エンパレスＶ１７、２０２号,00125800,09,202,3260842,,,2025-09-19,清算の結了等,,,2015-10-05,1,,,,,クロダ,0
1563,7080101012376,登記記録の閉鎖等,0,2025-09-26,2025-09-22,小谷石材株式会社,,株式会社,静岡県,富士宮市,西山８３２番地,,22,207,4190313,,,2025-09-22,清算の結了等,,,2015-10-05,1,,,,,コタニセキザイ,0
1570,7100002004073,登記記録の閉鎖等,0,2025-09-26,2025-09-22,有限会社橋本自動車,,有限会社,長野県,長野市,大字石渡３５番地１,,20,201,3810015,,,2025-09-22,清算の結了等,,,2015-10-05,1,,,,,ハシモトジドウシャ,0
1572,7120001052699,登記記録の閉鎖等,0,2025-09-26,2025-09-22,株式会社ハーモニック,,株式会社,大阪府,大阪市東淀川区,西淡路３丁目１５番４６号,,27,114,5330031,,,2025-09-22,合併による解散等,9120001053266,令和７年９月２１日大阪市東淀川区西淡路三丁目１５番４６号和田精密歯研株式会社（9120001053266）に合併し解散,2015-10-05,1,,,,,ハーモニック,0
1575,7120001221106,登記記録の閉鎖等,0,2025-09-26,2025-09-11,株式会社ブレイヴ,,株式会社,大阪府,大阪市都島区,片町２丁目２番４０号京橋大発ビル５０５,,27,102,5340025,,,2025-09-11,清算の結了等,,,2019-05-20,1,,,,,ブレイヴ,0
1597,7120101046031,登記記録の閉鎖等,0,2025-09-26,2025-09-18,北川反毛株式会社,,株式会社,大阪府,泉佐野市,中町３丁目５番４０号,,27,213,5980013,,,2025-09-18,清算の結了等,,,2015-10-05,1,,,,,キタガワハンモウ,0
1610,7130001072176,登記記録の閉鎖等,0,2025-09-26,2025-09-22,株式会社にほん,,株式会社,京都府,京都市下京区,玉津島町２９４,,26,106,6008427,,,2025-09-22,清算の結了等,,,2022-07-12,1,,,,,ニホン,0
1619,7150001010316,登記記録の閉鎖等,0,2025-09-26,2025-09-24,株式会社上田工務店,,株式会社,奈良県,橿原市,新賀町２１０番地５,,29,205,6340006,,,2025-09-24,清算の結了等,,,2015-10-05,1,,,,,ウエダコウムテン,0
1620,7160001021378,登記記録の閉鎖等,0,2025-09-26,2025-09-17,株式会社Ｍ・Ａ・Ｌ,,株式会社,滋賀県,彦根市,野良田町３４０番地８（４０６号）,,25,202,5211124,,,2025-09-17,清算の結了等,,,2019-01-09,1,,,,,エムエーエル,0
1623,7160005009849,登記記録の閉鎖等,0,2025-09-26,2025-09-18,特定非営利活動法人もの忘れカフェの仲間たち,,その他の設立登記法人,滋賀県,守山市,梅田町２番１号,,25,207,5240037,,,2025-09-18,清算の結了等,,,2015-10-05,1,,,,,モノワスレカフェノナカマタチ,0
1634,7180002088349,登記記録の閉鎖等,0,2025-09-26,2025-09-22,有限会社トーカイマテル,,有限会社,愛知県,知多市,つつじが丘２丁目１番地,,23,224,4780054,,,2025-09-22,清算の結了等,,,2015-10-05,1,,,,,トーカイマテル,0
1638,7190001027430,登記記録の閉鎖等,0,2025-09-26,2025-09-18,株式会社ＢＵＤＤＹ　ＦＯＯＤＳ,,株式会社,三重県,伊賀市,服部町２９３番地１,,24,216,5180007,,,2025-09-18,清算の結了等,,,2020-06-09,1,,,,,バディフーズ,0
1641,7220001012098,登記記録の閉鎖等,0,2025-09-26,2025-09-22,株式会社下坂石材,,株式会社,石川県,小松市,那谷町れ７番地,,17,203,9230336,,,2025-09-22,清算の結了等,,,2015-10-05,1,,,,,シモサカセキザイ,0
1660,7290001048227,登記記録の閉鎖等,0,2025-09-26,2025-09-05,株式会社光技術研究所,,株式会社,福岡県,福岡市中央区,桜坂２丁目１０番３０号,,40,133,8100024,,,2025-09-05,清算の結了等,,,2015-10-05,1,,,,,ヒカリギジュツケンキュウショ,0
1665,7290001076327,登記記録の閉鎖等,0,2025-09-26,2025-09-01,株式会社ＳＡＬＯＮ　ＭＥＤＩＡ,,株式会社,福岡県,福岡市博多区,下川端町３番１号博多リバレインモール１階,,40,132,8120027,,,2025-09-01,合併による解散等,6290001032735,令和７年８月３１日福岡市中央区輝国一丁目１１－２３株式会社Ｆ’ｓ　ＰＬＡＮＮＩＮＧ（6290001032735）に合併し解散,2017-01-12,1,,,,,サロンメディア,0
1668,7310001015918,登記記録の閉鎖等,0,2025-09-26,2025-09-24,株式会社ａｌｌ　ｙｏｕｒ　ａｂｉｌｉｔｙ,,株式会社,長崎県,雲仙市,小浜町北本町７１３番地１,,42,213,8540514,,,2025-09-24,清算の結了等,,,2019-01-21,1,,,,,オールユアアビリティ,0
1675,7340001015650,登記記録の閉鎖等,0,2025-09-26,2025-09-19,株式会社ジェイ・エフフードプランニング,,株式会社,鹿児島県,鹿児島市,荒田１丁目６０番１６号,,46,201,8900054,,,2025-09-19,清算の結了等,,,2015-10-05,1,,,,,ジェイエフフードプランニング,0
1678,7340005008023,登記記録の閉鎖等,0,2025-09-26,2025-09-18,特定非営利活動法人がんばろう高山,,その他の設立登記法人,鹿児島県,日置市,東市来町養母１５８１９番地４,,46,216,8992311,,,2025-09-18,清算の結了等,,,2015-10-05,1,,,,,ガンバロウタカヤマ,0
1694,7430001061578,登記記録の閉鎖等,0,2025-09-26,2025-09-05,株式会社大栄テクノサービス,,株式会社,北海道,札幌市北区,屯田七条６丁目１番１１号第５ふじハイツ２号,,01,102,0020857,,,2025-09-05,清算の結了等,,,2015-10-05,1,,,,,ダイエイテクノサービス,0
1698,7480002010257,登記記録の閉鎖等,0,2025-09-26,2025-09-24,有限会社アイコール,,有限会社,徳島県,鳴門市,撫養町南浜字馬目木１２１番地６,,36,202,7720003,,,2025-09-24,清算の結了等,,,2015-10-05,1,,,,,アイコール,0
1725,8010902007480,登記記録の閉鎖等,0,2025-09-26,2025-09-22,有限会社シモイケ,,有限会社,東京都,世田谷区,代田２丁目２３番１１号,,13,112,1550033,,,2025-09-22,清算の結了等,,,2015-10-05,1,,,,,シモイケ,0
1730,8011005006115,登記記録の閉鎖等,0,2025-09-26,2025-09-12,一般社団法人令和の会,,その他の設立登記法人,東京都,千代田区,五番町１２番地７,,13,101,1020076,,,2025-09-12,清算の結了等,,,2015-10-05,1,,,,,レイワノカイ,0
1734,8011301014011,登記記録の閉鎖等,0,2025-09-26,2025-09-24,株式会社東京エレフアクス,,株式会社,東京都,杉並区,善福寺３丁目２０番１５号,,13,115,1670041,,,2025-09-24,清算の結了等,,,2015-10-05,1,,,,,トウキョウエレフアクス,0
1753,8012805000273,登記記録の閉鎖等,0,2025-09-26,2025-09-08,三多摩綜合食品卸売市場協同組合,,その他の設立登記法人,東京都,昭島市,武蔵野３丁目５番１号,,13,207,1960021,,,2025-09-08,清算の結了等,,,2015-10-05,1,,,,,サンタマソウゴウショクヒンオロシウリイチバ,0
1762,8020001153622,登記記録の閉鎖等,0,2025-09-26,2025-09-05,狭隅コーポレーション株式会社,,株式会社,神奈川県,川崎市川崎区,東田町１１番地１エンゼル川崎グランディア９０５,,14,131,2100005,,,2025-09-05,清算の結了等,,,2023-09-26,1,,,,,サクマコーポレーション,0
1784,8050001033342,登記記録の閉鎖等,0,2025-09-26,2025-09-16,株式会社シンスジャパン,,株式会社,茨城県,かすみがうら市,下稲吉２６０７番地８Ｂ－１００７,,08,230,3150052,,,2025-09-16,清算の結了等,,,2015-10-05,1,,,,,シンスジャパン,0
1785,8050001040553,登記記録の閉鎖等,0,2025-09-26,2025-09-12,富栄物流株式会社,,株式会社,茨城県,坂東市,逆井２８３３番地１６２,,08,228,3060501,,,2025-09-12,清算の結了等,,,2016-02-26,1,,,,,トミエイブツリュウ,0
1786,8050002018862,登記記録の閉鎖等,0,2025-09-26,2025-09-11,有限会社東武興業,,有限会社,茨城県,坂東市,逆井２５４２番地の１,,08,228,3060501,,,2025-09-11,清算の結了等,,,2015-10-05,1,,,,,トウブコウギョウ,0
1793,8070002030345,登記記録の閉鎖等,0,2025-09-26,2025-09-18,有限会社内城建設,,有限会社,群馬県,邑楽郡大泉町,富士２丁目１７番２１号,,10,524,3700522,,,2025-09-18,清算の結了等,,,2015-10-05,1,,,,,ナイジョウケンセツ,0
1803,8120001156945,登記記録の閉鎖等,0,2025-09-26,2025-09-02,株式会社吉田製作所,,株式会社,大阪府,大東市,新田中町２番１０号,,27,218,5740056,,,2025-09-02,清算の結了等,,,2015-10-05,1,,,,,ヨシダセイサクショ,0
1822,8120101008138,登記記録の閉鎖等,0,2025-09-26,2025-09-16,イズミ薬品株式会社,,株式会社,大阪府,高石市,取石３丁目１５番４６号,,27,225,5920013,,,2025-09-16,清算の結了等,,,2015-10-05,1,,,,,イズミヤクヒン,0
1823,8120101037005,登記記録の閉鎖等,0,2025-09-26,2025-09-09,泰進綱業株式会社,,株式会社,大阪府,岸和田市,池尻町１２６番地,,27,202,5960813,,,2025-09-09,清算の結了等,,,2015-10-05,1,,,,,タイシンコウギョウ,0
1834,8122001031995,登記記録の閉鎖等,0,2025-09-26,2025-09-05,朝日商会株式会社,,株式会社,大阪府,東大阪市,菱屋西４丁目８番３１号,,27,227,5770807,,,2025-09-05,清算の結了等,,,2018-10-05,1,,,,,アサヒショウカイ,0
1842,8130005016839,登記記録の閉鎖等,0,2025-09-26,2025-09-19,一般社団法人日本プロパティ,,その他の設立登記法人,京都府,京都市中京区,御池通高倉西入ル高宮町２１９番地サニーフォレストビル４階,,26,104,6040000,,,2025-09-19,清算の結了等,,,2023-07-24,1,,,,,ニホンプロパティ,0
1843,8140002036632,登記記録の閉鎖等,0,2025-09-26,2025-09-22,有限会社ミナミハウジング,,有限会社,兵庫県,加古川市,別府町新野辺北町４丁目１１番地,,28,210,6750121,,,2025-09-22,清算の結了等,,,2015-10-05,1,,,,,,0
1848,8180002024633,登記記録の閉鎖等,0,2025-09-26,2025-09-01,松岡印刷有限会社,,有限会社,愛知県,名古屋市西区,長先町１８２番地,,23,104,4520838,,,2025-09-01,清算の結了等,,,2015-10-05,1,,,,,マツオカインサツ,0
1858,8210001019861,登記記録の閉鎖等,0,2025-09-26,2025-09-22,株式会社ジェイワークス,,株式会社,福井県,敦賀市,舞崎町２丁目１８番６号ＬＩＯＮ舞崎２０２,,18,202,9140053,,,2025-09-22,清算の結了等,,,2024-08-05,1,,,,,ジェイワークス,0
1865,8270002002662,登記記録の閉鎖等,0,2025-09-26,2025-09-25,有限会社エスアイエス鳥取,,有限会社,鳥取県,鳥取市,田園町３丁目２０１番地,,31,201,6800803,,,2025-09-25,清算の結了等,,,2015-10-05,1,,,,,エスアイエストットリ,0
1874,8290802018336,登記記録の閉鎖等,0,2025-09-26,2025-09-16,有限会社辰巳介護サービス,,有限会社,福岡県,北九州市八幡西区,馬場山緑２番２５号,,40,109,8071133,,,2025-09-16,清算の結了等,,,2015-10-05,1,,,,,タツミカイゴサービス,0
1879,8310001015347,登記記録の閉鎖等,0,2025-09-26,2025-09-24,株式会社みなみしまばら,,株式会社,長崎県,南島原市,南有馬町乙８５７番地,,42,214,8592412,,,2025-09-24,清算の結了等,,,2018-01-17,1,,,,,,0
1889,8380001003816,登記記録の閉鎖等,0,2025-09-26,2025-09-11,株式会社鎌田興業,,株式会社,福島県,福島市,笹谷字向原９番地の６,,07,201,9600241,,,2025-09-11,清算の結了等,,,2015-10-05,1,,,,,カマタコウギョウ,0
1893,8402705000359,登記記録の閉鎖等,0,2025-09-26,2025-09-10,一般社団法人生命環境産業振興協議会,,その他の設立登記法人,岩手県,陸前高田市,竹駒町字相川７４番地１,,03,210,0292203,,,2025-09-10,清算の結了等,,,2015-10-05,1,,,,,セイメイカンキョウサンギョウシンコウキョウギカイ,0
1895,8420002002127,登記記録の閉鎖等,0,2025-09-26,2025-09-16,有限会社成田メデイカルサービス,,有限会社,青森県,青森市,大字油川字大浜５７番地２,,02,201,0380059,,,2025-09-16,清算の結了等,,,2015-10-05,1,,,,,ナリタメデイカルサービス,0
1896,8430001002390,登記記録の閉鎖等,0,2025-09-26,2025-09-05,株式会社エスシー,,株式会社,北海道,札幌市西区,発寒十一条１丁目９番３０－１１０９号,,01,107,0630831,,,2025-09-05,清算の結了等,,,2015-10-05,1,,,,,エスシー,0
1901,8430001085403,登記記録の閉鎖等,0,2025-09-26,2025-09-16,大水工業株式会社,,株式会社,北海道,札幌市白石区,栄通７丁目７番２７号,,01,104,0030021,,,2025-09-16,清算の結了等,,,2021-11-16,1,,,,,オオミズコウギョウ,0
1906,8470002013094,登記記録の閉鎖等,0,2025-09-26,2025-09-24,丸正商事有限会社,,有限会社,香川県,善通寺市,善通寺町８８２番地１７,,37,204,7650004,,,2025-09-24,清算の結了等,,,2015-10-05,1,,,,,マルショウショウジ,0
1934,9010501004119,登記記録の閉鎖等,0,2025-09-26,2025-09-05,株式会社蔵持科学器械製作所,,株式会社,東京都,台東区,池之端２丁目３番４号,,13,106,1100008,,,2025-09-05,清算の結了等,,,2015-10-05,1,,,,,クラモチカガクキカイセイサクショ,0
1962,9011601011649,登記記録の閉鎖等,0,2025-09-26,2025-09-11,株式会社キックシステム,,株式会社,東京都,練馬区,桜台４丁目８番７号,,13,120,1760002,,,2025-09-11,清算の結了等,,,2015-10-05,1,,,,,キックシステム,0
1964,9011602006540,登記記録の閉鎖等,0,2025-09-26,2025-09-09,有限会社タマキ,,有限会社,東京都,練馬区,高松３丁目２４番８号,,13,120,1790075,,,2025-09-09,清算の結了等,,,2015-10-05,1,,,,,タマキ,0
1973,9012401017984,登記記録の閉鎖等,0,2025-09-26,2025-09-16,株式会社東京ブックサポート,,株式会社,東京都,調布市,国領町６丁目１０番地７,,13,208,1820022,,,2025-09-16,清算の結了等,,,2015-10-05,1,,,,,トウキョウブックサポート,0
1977,9013201005626,登記記録の閉鎖等,0,2025-09-26,2025-08-28,株式会社丸良組,,株式会社,東京都,目黒区,青葉台３丁目１６番１０号,,13,110,1530042,,,2025-08-28,清算の結了等,,,2015-10-05,1,,,,,マルヨシクミ,0
2003,9040001034828,登記記録の閉鎖等,0,2025-09-26,2025-09-01,株式会社インザイパックセンター,,株式会社,千葉県,松戸市,八ケ崎２丁目３９番地９,,12,207,2700023,,,2025-09-01,合併による解散等,1040001034827,令和７年９月１日千葉県松戸市八ケ崎二丁目３９番地３株式会社インザイベジフル（1040001034827）に合併し解散,2015-10-05,1,,,,,インザイパックセンター,0
2007,9040005020361,登記記録の閉鎖等,0,2025-09-26,2025-09-01,特定非営利活動法人ＭＡＤＥＩＲＡＧＲＯＵＰ,,その他の設立登記法人,千葉県,柏市,ひばりが丘３－１７田中ビル１階,,12,217,2770088,,,2025-09-01,清算の結了等,,,2019-04-09,1,,,,,マデイラグループ,0
2025,9100001029953,登記記録の閉鎖等,0,2025-09-26,2025-09-24,株式会社ハウル福祉社,,株式会社,長野県,安曇野市,豊科高家１０７１番地５９,,20,220,3998204,,,2025-09-24,清算の結了等,,,2017-01-31,1,,,,,ハウルフクシシャ,0
2028,9110001038672,登記記録の閉鎖等,0,2025-09-26,2025-09-10,株式会社Ｎ．ｎｏｒ,,株式会社,新潟県,長岡市,大手通２丁目２－６,,15,202,9400062,,,2025-09-10,清算の結了等,,,2024-08-29,1,,,,,エヌノア,0
2051,9120101064519,登記記録の閉鎖等,0,2025-09-26,2025-09-16,株式会社Ｐｌｕｍ,,株式会社,大阪府,松原市,田井城２丁目３番１－３１７号,,27,217,5800044,,,2025-09-16,清算の結了等,,,2021-10-22,1,,,,,プラム,0
2056,9120901046732,登記記録の閉鎖等,0,2025-09-26,2025-09-08,ビルドエナジー株式会社,,株式会社,大阪府,摂津市,東一津屋７番１８号Ｃ,,27,224,5660074,,,2025-09-08,清算の結了等,,,2022-11-11,1,,,,,ビルドエナジー,0
2062,9122001029551,登記記録の閉鎖等,0,2025-09-26,2025-09-22,株式会社ＳＭＬ,,株式会社,兵庫県,神戸市中央区,中島通３丁目４番３４号,,28,110,6510052,,,2025-09-22,清算の結了等,,,2016-04-27,1,,,,,エスエムエル,0
2065,9130001039314,登記記録の閉鎖等,0,2025-09-26,2025-09-22,リリーフプラス株式会社,,株式会社,京都府,八幡市,岩田六ノ坪５９番１３,,26,210,6148263,,,2025-09-22,清算の結了等,,,2015-10-05,1,,,,,リリーフプラス,0
2067,9130001075375,登記記録の閉鎖等,0,2025-09-26,2025-09-19,株式会社日本プロパティ開発,,株式会社,京都府,京都市中京区,御池通高倉西入ル高宮町２１９番地サニーフォレストビル４階,,26,104,6040000,,,2025-09-19,清算の結了等,,,2023-10-06,1,,,,,ニホンプロパティカイハツ,0
2072,9140001009852,登記記録の閉鎖等,0,2025-09-26,2025-09-22,株式会社南備商会,,株式会社,兵庫県,神戸市中央区,小野柄通５丁目１番１３号甲南シャトー三宮８０３,,28,110,6510088,,,2025-09-22,清算の結了等,,,2015-10-05,1,,,,,ナンビショウカイ,0
2073,9140001032904,登記記録の閉鎖等,0,2025-09-26,2025-09-16,株式会社アトラスワールド,,株式会社,京都府,京都市左京区,高野泉町１１番地５４,,26,103,6068111,,,2025-09-16,清算の結了等,,,2015-10-05,1,,,,,アトラスワールド,0
2088,9180003008725,登記記録の閉鎖等,0,2025-09-26,2025-09-05,合同会社マウス・マウス,,合同会社,愛知県,西春日井郡豊山町,大字青山字高添１３６番地,,23,342,4800201,,,2025-09-05,清算の結了等,,,2015-10-05,1,,,,,マウスマウス,0
2090,9180005018689,登記記録の閉鎖等,0,2025-09-26,2025-09-24,サン事業協同組合,,その他の設立登記法人,愛知県,名古屋市中村区,名駅２丁目３６番１０号,,23,105,4500002,,,2025-09-24,清算の結了等,,,2020-02-25,1,,,,,サンジギョウ,0
2099,9190002000302,登記記録の閉鎖等,0,2025-09-26,2025-09-17,有限会社岡林翠洸園本舗,00075810,有限会社,三重県,津市,東丸之内２６番１３号,,24,201,5140028,,,2025-09-17,清算の結了等,,,2015-10-05,1,,,,,オカバヤシスイコウエンホンポ,0
2125,9290003015644,登記記録の閉鎖等,0,2025-09-26,2025-08-28,合同会社くう,,合同会社,福岡県,福岡市早良区,早良６丁目２０番１０号,,40,137,8111122,,,2025-08-28,清算の結了等,,,2024-08-20,1,,,,,クウ,0
2147,9380001020018,登記記録の閉鎖等,0,2025-09-26,2025-09-11,ブレイス株式会社,,株式会社,福島県,郡山市,笹川２丁目１番地の４,,07,203,9630108,,,2025-09-11,清算の結了等,,,2015-10-05,1,,,,,ブレイス,0
2149,9400003002614,登記記録の閉鎖等,0,2025-09-26,2025-09-10,合同会社東亜工業,,合同会社,岩手県,盛岡市,住吉町１２番３号,,03,201,0200882,,,2025-09-10,清算の結了等,,,2020-06-04,1,,,,,トウアコウギョウ,0
2154,9430001056353,登記記録の閉鎖等,0,2025-09-26,2025-09-12,株式会社ローヤル,,株式会社,北海道,伊達市,末永町３３番地３,,01,233,0520021,,,2025-09-12,清算の結了等,,,2015-10-05,1,,,,,ローヤル,0
