sequenceNumber,corporateNumber,process,correct,updateDate,changeDate,name,nameImageId,kind,prefectureName,cityName,streetNumber,addressImageId,prefectureCode,cityCode,postCode,addressOutside,addressOutsideImageId,closeDate,closeCause,successorCorporateNumber,changeCause,assignmentDate,latest,enName,enPrefectureName,enCityName,enAddressOutside,furigana,hihyoji
9,1010001262711,新規,0,2026-02-16,2026-02-16,株式会社Ｍｅｄｉ‐Ｉｎｋ,,株式会社,東京都,千代田区,六番町二丁目１９番ＰＭＯ市ヶ谷５階,,13,101,1020085,,,,,,,2026-02-16,1,,,,,メディインク,0
10,1010001262851,新規,0,2026-02-16,2026-02-16,株式会社ＪＰ　Ｃｏｄｅ　Ｃａｍｐｕｓ,,株式会社,東京都,文京区,千駄木３丁目３６番８－５０２号,,13,105,1130022,,,,,,,2026-02-16,1,,,,,ジェイピーコードキャンパス,0
15,1010003050362,新規,0,2026-02-16,2026-02-16,イデアライド合同会社,,合同会社,東京都,中央区,銀座１丁目２２－１１銀座大竹ビジデンス２Ｆ,,13,102,1040061,,,,,,,2026-02-16,1,,,,,イデアライド,0
16,1010005041401,新規,0,2026-02-16,2026-02-16,一般社団法人浅草ホテルＰＪ,,その他の設立登記法人,東京都,千代田区,霞が関３丁目２番５号,,13,101,1000013,,,,,,,2026-02-16,1,,,,,アサクサホテルピージェイ,0
25,1010401196451,新規,0,2026-02-16,2026-02-16,株式会社ｍｏｖ　ｖｅｒｓｅ,,株式会社,東京都,港区,海岸３丁目９番１０号Ｌｏｏｐ－Ｍ１１０４,,13,103,1080022,,,,,,,2026-02-16,1,,,,,モブバース,0
26,1010401196484,新規,0,2026-02-16,2026-02-16,株式会社ティーダ,,株式会社,東京都,港区,南麻布２丁目２番２７－２０１号,,13,103,1060047,,,,,,,2026-02-16,1,,,,,ティーダ,0
27,1010401196526,新規,0,2026-02-16,2026-02-16,株式会社Ｔｒｕｎｋ,,株式会社,東京都,港区,西麻布１丁目１２－８メインステージ西麻布ＩＩ３０１,00142581,13,103,1060031,,,,,,,2026-02-16,1,,,,,トランク,0
28,1010401196583,新規,0,2026-02-16,2026-02-16,株式会社ＮＳＳＫ‐Ｏ２,,株式会社,東京都,港区,愛宕２丁目５番１号愛宕グリーンヒルズＭＯＲＩタワー,,13,103,1050002,,,,,,,2026-02-16,1,,,,,エヌエスエスケーオーツー,0
29,1010401196600,新規,0,2026-02-16,2026-02-16,ＰａｔｈＡｈｅａｄ株式会社,,株式会社,東京都,港区,三田３丁目５番２７号住友不動産東京三田サウスタワー,,13,103,1080073,,,,,,,2026-02-16,1,,,,,パスアヘッド,0
32,1010403037281,新規,0,2026-02-16,2026-02-16,合同会社アイピー創研,,合同会社,東京都,港区,芝４丁目１０番５号６階,,13,103,1080014,,,,,,,2026-02-16,1,,,,,アイピーソウケン,0
35,1010405025375,新規,0,2026-02-16,2026-02-16,一般社団法人シンカ,,その他の設立登記法人,東京都,港区,元赤坂１丁目１番７－１２０９号株式会社赤坂国際会計内,,13,103,1070051,,,,,,,2026-02-16,1,,,,,シンカ,0
39,1010501055458,新規,0,2026-02-16,2026-02-16,株式会社ＨＡＬＯ,,株式会社,東京都,台東区,小島１丁目１６番９－３０２号ライオンズマンション御徒町第５,,13,106,1110056,,,,,,,2026-02-16,1,,,,,ハロ,0
41,1010701049029,新規,0,2026-02-16,2026-02-16,イントラＡＩ株式会社,,株式会社,東京都,品川区,旗の台３丁目１５－１ツバセスＰＡＲＴ９・２０６号室,,13,109,1420064,,,,,,,2026-02-16,1,,,,,イントラエーアイ,0
43,1010703008131,新規,0,2026-02-16,2026-02-16,合同会社ＬＩＶＥＳＴＯＮＥ,,合同会社,東京都,品川区,西大井２丁目１０－３Ｊ．ＧＲＡＮＣｏｕｒｔ品川西大井ＷＥＳＴ２２４号,,13,109,1400015,,,,,,,2026-02-16,1,,,,,リブストーン,0
59,1011001175424,新規,0,2026-02-16,2026-02-16,株式会社ＪａｐａＮ　ＣａｐｉｔａＬ,,株式会社,東京都,目黒区,東山３丁目１６番地１７－４０６号室,,13,110,1530043,,,,,,,2026-02-16,1,,,,,ジャパンキャピタル,0
60,1011001175440,新規,0,2026-02-16,2026-02-16,株式会社ＳＣＡＲＬＥＴ,,株式会社,東京都,渋谷区,恵比寿西２丁目８番４号ＥＸ恵比寿西ビル５Ｆ,,13,113,1500021,,,,,,,2026-02-16,1,,,,,スカーレット,0
61,1011001175481,新規,0,2026-02-16,2026-02-16,株式会社Ｅｘｔｅｒｙ,,株式会社,東京都,渋谷区,道玄坂１丁目１６番６号二葉ビル８ｂ,,13,113,1500043,,,,,,,2026-02-16,1,,,,,エクステリー,0
63,1011003023548,新規,0,2026-02-16,2026-02-16,合同会社ＭｏｏｎＬａｎｃｅ,,合同会社,東京都,渋谷区,神南１丁目１１－４ＦＰＧリンクス神南５階,,13,113,1500041,,,,,,,2026-02-16,1,,,,,ムーンランス,0
71,1011501033098,新規,0,2026-02-16,2026-02-16,株式会社ＹＭ　Ｄｉｇｉｔａｌ　Ｏｒｔｈｏ　Ｌａｂ,,株式会社,東京都,北区,滝野川６丁目６３番３号３０１,,13,117,1140023,,,,,,,2026-02-16,1,,,,,ワイエムデジタルオルソラボ,0
76,1011603005012,新規,0,2026-02-16,2026-02-16,合同会社縁八,,合同会社,東京都,練馬区,東大泉４丁目１８番２６号,,13,120,1780063,,,,,,,2026-02-16,1,,,,,エンヤ,0
78,1011703004533,新規,0,2026-02-16,2026-02-16,Ｇｒａｎｃｉａ　Ａｓｓｅｔ合同会社,,合同会社,東京都,江戸川区,西葛西２丁目１番１８号,,13,123,1340088,,,,,,,2026-02-16,1,,,,,グランシアアセット,0
80,1012401044136,新規,0,2026-02-16,2026-02-16,株式会社ＰＲｄｏｏｒ,,株式会社,東京都,三鷹市,下連雀３丁目２２－５ＹＫソナンビル４０１号室,,13,204,1810013,,,,,,,2026-02-16,1,,,,,ピーアールドア,0
91,1020001167067,新規,0,2026-02-16,2026-02-16,株式会社ＬＯＮＧＥＶＩＴＹ　ＣＯＮＣＩＥＲＧＥ,,株式会社,神奈川県,横浜市中区,石川町１丁目１番地カーサ元町４０３,,14,104,2310868,,,,,,,2026-02-16,1,,,,,ロンジェビティコンシェルジュ,0
92,1020001167100,新規,0,2026-02-16,2026-02-16,ＡＮＥＬＡＮＩ　ＪＡＰＡＮ株式会社,,株式会社,神奈川県,横浜市中区,扇町２丁目３番地１,,14,104,2310027,,,,,,,2026-02-16,1,,,,,アネラニジャパン,0
93,1020003030347,新規,0,2026-02-16,2026-02-16,合同会社はせべ,,合同会社,神奈川県,横浜市港南区,笹下３丁目１７番４１号,,14,111,2340052,,,,,,,2026-02-16,1,,,,,ハセベ,0
94,1020003030413,新規,0,2026-02-16,2026-02-16,Ｙｏａｋｅ合同会社,,合同会社,神奈川県,横浜市磯子区,東町６番１３―７１２号,,14,107,2350005,,,,,,,2026-02-16,1,,,,,ヨアケ,0
96,1021001087528,新規,0,2026-02-16,2026-02-16,株式会社ＯＮＥ　ＤＥＳＩＧＮ　ＯＦＦＩＣＥ,,株式会社,神奈川県,逗子市,久木２丁目４番８号,,14,208,2490001,,,,,,,2026-02-16,1,,,,,ワンデザインオフィス,0
97,1021003017144,新規,0,2026-02-16,2026-02-16,合同会社Ｋａｉ,,合同会社,神奈川県,藤沢市,円行２丁目９番地の８,,14,205,2520805,,,,,,,2026-02-16,1,,,,,カイ,0
98,1021003017177,新規,0,2026-02-16,2026-02-16,土田裕康合同会社,,合同会社,神奈川県,藤沢市,辻堂東海岸２丁目１０番１４号,,14,205,2510045,,,,,,,2026-02-16,1,,,,,ツチダヒロヤス,0
100,1030001171043,新規,0,2026-02-16,2026-02-16,株式会社グロースストーリー,,株式会社,埼玉県,新座市,北野２丁目６番１８号,,11,230,3520003,,,,,,,2026-02-16,1,,,,,グロースストーリー,0
128,1090001019732,新規,0,2026-02-16,2026-02-16,株式会社Ｗｏｗ　Ｔｈｉｎｇｓ,,株式会社,山梨県,南都留郡富士河口湖町,小立１１０５番地１,,19,430,4010302,,,,,,,2026-02-16,1,,,,,ワオシングス,0
131,1120001284166,新規,0,2026-02-16,2026-02-16,墨地株式会社,,株式会社,大阪府,大阪市西淀川区,柏里３丁目１２番２２－２０４号,,27,113,5550022,,,,,,,2026-02-16,1,,,,,スミチ,0
132,1120001284190,新規,0,2026-02-16,2026-02-16,トップエンドテクノロジー株式会社,,株式会社,大阪府,大阪市淀川区,十三東１丁目１７番１９－５Ｂ号室,,27,123,5320023,,,,,,,2026-02-16,1,,,,,トップエンドテクノロジー,0
134,1120003031896,新規,0,2026-02-16,2026-02-16,合同会社セニョール,,合同会社,大阪府,大阪市平野区,喜連西５丁目４番３６号サニーコーポ喜連５０５,,27,126,5470026,,,,,,,2026-02-16,1,,,,,セニョール,0
135,1120003031905,新規,0,2026-02-16,2026-02-16,合同会社Ｃｉｒｃｌｅ,,合同会社,大阪府,大阪市西区,西本町２丁目１－２７,,27,106,5500005,,,,,,,2026-02-16,1,,,,,サークル,0
136,1120003031913,新規,0,2026-02-16,2026-02-16,駿彦合同会社,,合同会社,大阪府,大阪市旭区,大宮１丁目１５番２１号４０３号室,,27,117,5350002,,,,,,,2026-02-16,1,,,,,シュンゲン,0
140,1120901052143,新規,0,2026-02-16,2026-02-16,株式会社モーレア,,株式会社,大阪府,高槻市,芝生町３丁目３５－７,,27,207,5690823,,,,,,,2026-02-16,1,,,,,モーレア,0
143,1122001040152,新規,0,2026-02-16,2026-02-16,株式会社ゆとすカンパニー,,株式会社,大阪府,四條畷市,岡山２丁目１番５３号エミネンスムラカワ１０２号,,27,229,5750002,,,,,,,2026-02-16,1,,,,,ユトスカンパニー,0
145,1130001081612,新規,0,2026-02-16,2026-02-16,株式会社ＮＯＶＩＡ,,株式会社,京都府,京都市左京区,一乗寺里ノ西町６０番地１１,,26,103,6068115,,,,,,,2026-02-16,1,,,,,ノーヴィア,0
160,1140005027800,新規,0,2026-02-16,2026-02-16,一般社団法人７２１基督教会,,その他の設立登記法人,兵庫県,芦屋市,陽光町８番２０－５０７号,,28,206,6590034,,,,,,,2026-02-16,1,,,,,ナナニイチキリストキョウカイ,0
168,1180001170658,新規,0,2026-02-16,2026-02-16,株式会社ミレニアｌｉｓｍ,,株式会社,愛知県,名古屋市天白区,元八事５丁目１２７番地,,23,116,4680066,,,,,,,2026-02-16,1,,,,,ミレニアリズム,0
171,1180301040701,新規,0,2026-02-16,2026-02-16,株式会社ＡＫＡＲＩ　ＪＡＰＡＮ,,株式会社,愛知県,岡崎市,矢作町字末広７３番地１２,,23,202,4440943,,,,,,,2026-02-16,1,,,,,アカリジャパン,0
172,1190005012120,新規,0,2026-02-16,2026-02-16,一般社団法人長慶精舎,,その他の設立登記法人,三重県,名張市,蔵持町里２５６５番地,,24,208,5180753,,,,,,,2026-02-16,1,,,,,チョウケイショウジャ,0
178,1240003007604,新規,0,2026-02-16,2026-02-16,合同会社Ｍ＆Ｐａｒｔｎｅｒ,,合同会社,広島県,広島市東区,中山南１丁目２１番１６号,,34,102,7320024,,,,,,,2026-02-16,1,,,,,ミーアンドパートナー,0
192,1290001113110,新規,0,2026-02-16,2026-02-16,株式会社尚景園,,株式会社,福岡県,福岡市西区,横浜１丁目７番４号－１０３,,40,135,8190166,,,,,,,2026-02-16,1,,,,,ショウケイエン,0
194,1290005020006,新規,0,2026-02-16,2026-02-16,一般社団法人ＳＨ,,その他の設立登記法人,福岡県,福岡市中央区,天神２丁目２番１２号Ｔ＆Ｊビルディング７Ｆ,,40,133,8100001,,,,,,,2026-02-16,1,,,,,エスエイチ,0
199,1320001021581,新規,0,2026-02-16,2026-02-16,ＯＮＥ　ＪＤＭ株式会社,,株式会社,大分県,大分市,千代町１丁目１番５号１階,,44,201,8700033,,,,,,,2026-02-16,1,,,,,ワンジェイディエム,0
205,1370003007475,新規,0,2026-02-16,2026-02-16,合同会社ハレル,,合同会社,宮城県,気仙沼市,田中前４丁目５番地２６,,04,205,9880053,,,,,,,2026-02-16,1,,,,,ハレル,0
211,1410001014386,新規,0,2026-02-16,2026-02-16,株式会社マリンショップ丸勇,,株式会社,秋田県,能代市,落合字上悪土１９０番地,,05,202,0160014,,,,,,,2026-02-16,1,,,,,,0
220,1470003003076,新規,0,2026-02-16,2026-02-16,合同会社ＨＯＲＩＺＯＮ,,合同会社,香川県,高松市,番町３丁目２０番１７号,,37,201,7600017,,,,,,,2026-02-16,1,,,,,ホライゾン,0
223,1700150134468,新規,0,2026-02-16,2026-02-16,ＦＣＯ　ＭＡ　ＳＵＰ　ＧＰ　ＩＩＩ　ＬＬＣ,,外国会社等,,,,,,,,１２０９オレンジストリート、ウィルミントン、デラウェア州、１９８０１、Ｕ．Ｓ．Ａ,,,,,,2026-02-16,1,,,,,エフシーオーエムエーエスユーピージーピースリーエルエルシー,0
231,2010001262462,新規,0,2026-02-16,2026-02-16,株式会社ＲＨ,,株式会社,東京都,千代田区,内神田２丁目９－９神田ビル４－８号,,13,101,1010047,,,,,,,2026-02-16,1,,,,,アールエイチ,0
232,2010001262677,新規,0,2026-02-16,2026-02-16,ＴＯＮＯＭＩ株式会社,,株式会社,東京都,中央区,新川１丁目１６－７,,13,102,1040033,,,,,,,2026-02-16,1,,,,,,0
233,2010001262784,新規,0,2026-02-16,2026-02-16,Ｇ＆ＲＩＳＥ　ＦＲＯＮＴＩＥＲ株式会社,,株式会社,東京都,千代田区,神田佐久間町１丁目８番地４アルテール秋葉原７０８,,13,101,1010025,,,,,,,2026-02-16,1,,,,,ジーアンドライズフロンティア,0
234,2010001262792,新規,0,2026-02-16,2026-02-16,株式会社ペンタコン研究所,,株式会社,東京都,中央区,日本橋茅場町２丁目１７番６号,,13,102,1030025,,,,,,,2026-02-16,1,,,,,ペンタコンケンキュウショ,0
235,2010001262801,新規,0,2026-02-16,2026-02-16,ＳＹＪ株式会社,,株式会社,東京都,中央区,銀座８丁目５番４号,,13,102,1040061,,,,,,,2026-02-16,1,,,,,エスワイジェイ,0
236,2010001262867,新規,0,2026-02-16,2026-02-16,株式会社第一想起,,株式会社,東京都,千代田区,富士見２丁目６番９号雄山閣ビル,,13,101,1020071,,,,,,,2026-02-16,1,,,,,ダイイチソウキ,0
244,2010003050196,新規,0,2026-02-16,2026-02-16,合同会社ＡＸＩＳ　ＣＯＲＥ　ＳＴＵＤＩＯ,,合同会社,東京都,中央区,銀座１丁目１２－４Ｎ＆ＥＢＬＤ．７階,,13,102,1040061,,,,,,,2026-02-16,1,,,,,アクシスコアスタジオ,0
245,2010003050254,新規,0,2026-02-16,2026-02-16,合同会社ホコラ,,合同会社,東京都,文京区,西片１丁目１０－１４,,13,105,1130024,,,,,,,2026-02-16,1,,,,,ホコラ,0
246,2010003050337,新規,0,2026-02-16,2026-02-16,合同会社グリーンジャケット,,合同会社,東京都,中央区,日本橋蛎殻町１丁目２２番１－７０４号,,13,102,1030014,,,,,,,2026-02-16,1,,,,,グリーンジャケット,0
247,2010003050378,新規,0,2026-02-16,2026-02-16,ｂｒａｎｃｈｅｓ　ｈａｒｍｏｎｙ合同会社,,合同会社,東京都,中央区,八重洲２丁目１番１号ＹＡＮＭＡＲＴＯＫＹＯ１２階,,13,102,1040028,,,,,,,2026-02-16,1,,,,,ブランチィズハーモニィ,0
252,2010101017089,新規,0,2026-02-16,2026-02-16,株式会社山地,,株式会社,東京都,八王子市,北野台３丁目１５番４号,,13,201,1920913,,,,,,,2026-02-16,1,,,,,ヤマジ,0
254,2010401196392,新規,0,2026-02-16,2026-02-16,株式会社ことのは,,株式会社,東京都,港区,虎ノ門１丁目１５番１０号名和ビル４階,,13,103,1050001,,,,,,,2026-02-16,1,,,,,コトノハ,0
255,2010401196467,新規,0,2026-02-16,2026-02-16,株式会社芸蔵,,株式会社,東京都,港区,六本木３丁目１６番１２号六本木ＫＳビル５Ｆ,,13,103,1060032,,,,,,,2026-02-16,1,,,,,ゲイゾウ,0
256,2010401196483,新規,0,2026-02-16,2026-02-16,レジオス株式会社,,株式会社,東京都,港区,芝浦３丁目１０番６号,,13,103,1080023,,,,,,,2026-02-16,1,,,,,レジオス,0
257,2010401196500,新規,0,2026-02-16,2026-02-16,株式会社ビジョン・ホールディングス,,株式会社,東京都,港区,六本木６丁目１０番１号六本木ヒルズ森タワー３９階,,13,103,1060032,,,,,,,2026-02-16,1,,,,,ビジョンホールディングス,0
258,2010401196541,新規,0,2026-02-16,2026-02-16,株式会社ＫＪＭＴアセット,,株式会社,東京都,港区,元麻布１丁目３番１号,,13,103,1060046,,,,,,,2026-02-16,1,,,,,ケイジェイエムティアセット,0
259,2010401196582,新規,0,2026-02-16,2026-02-16,株式会社ＮＳＳＫ‐Ｏ１,,株式会社,東京都,港区,愛宕２丁目５番１号愛宕グリーンヒルズＭＯＲＩタワー,,13,103,1050002,,,,,,,2026-02-16,1,,,,,エヌエスエスケーオーワン,0
260,2010403037272,新規,0,2026-02-16,2026-02-16,ジー・エイ・ワン・レジデンス・フィフティーン合同会社３,,合同会社,東京都,港区,虎ノ門５丁目１番４号,,13,103,1050001,,,,,,,2026-02-16,1,,,,,ジーエイワンレジデンスフィフティーンサン,0
262,2010603012059,新規,0,2026-02-16,2026-02-16,合同会社Ｔａｇ,,合同会社,東京都,江東区,新砂３丁目１０番８号,,13,108,1360075,,,,,,,2026-02-16,1,,,,,タッグ,0
270,2011001175497,新規,0,2026-02-16,2026-02-16,株式会社チケテン,,株式会社,東京都,渋谷区,恵比寿西２丁目４番８号ウィンド恵比寿ビル８Ｆ,,13,113,1500021,,,,,,,2026-02-16,1,,,,,チケテン,0
271,2011001175563,新規,0,2026-02-16,2026-02-16,西ソフト株式会社,,株式会社,東京都,渋谷区,神宮前６丁目２３番４号桑野ビル２階,,13,113,1500001,,,,,,,2026-02-16,1,,,,,ニシソフト,0
273,2011003023514,新規,0,2026-02-16,2026-02-16,合同会社モサノハ,,合同会社,東京都,渋谷区,道玄坂１丁目１０番８号渋谷道玄坂東急ビル２Ｆ－Ｃ,,13,113,1500043,,,,,,,2026-02-16,1,,,,,モサノハ,0
274,2011003023547,新規,0,2026-02-16,2026-02-16,合同会社ＮＥＸＴ　ＥＤＧＥ,,合同会社,東京都,渋谷区,本町３丁目８番７号ソシエ１０５,,13,113,1510071,,,,,,,2026-02-16,1,,,,,ネクストエッジ,0
278,2011103017003,新規,0,2026-02-16,2026-02-16,合同会社アリクラ,,合同会社,東京都,新宿区,四谷１丁目１１番地,,13,104,1600004,,,,,,,2026-02-16,1,,,,,アリクラ,0
279,2011103017069,新規,0,2026-02-16,2026-02-16,合同会社Ｓｈｉｍａｌｌ,,合同会社,東京都,新宿区,西新宿３丁目３番１３号西新宿水間ビル２Ｆ,,13,104,1600023,,,,,,,2026-02-16,1,,,,,シモール,0
286,2011401027777,新規,0,2026-02-16,2026-02-16,株式会社ＡＢＵ　ＪＡＰＡＮ,,株式会社,東京都,板橋区,徳丸６丁目４７番８号,,13,119,1750083,,,,,,,2026-02-16,1,,,,,エービーユージャパン,0
287,2011403005038,新規,0,2026-02-16,2026-02-16,合同会社アサーティブ,,合同会社,東京都,板橋区,高島平３丁目１０－１４－４０４,,13,119,1750082,,,,,,,2026-02-16,1,,,,,アサーティブ,0
290,2011603005011,新規,0,2026-02-16,2026-02-16,合同会社Ｊｚ,,合同会社,東京都,練馬区,練馬１丁目２０番８号日建練馬ビル２Ｆ,,13,120,1760001,,,,,,,2026-02-16,1,,,,,ジェイズ,0
300,2012701019324,新規,0,2026-02-16,2026-02-16,エンライトエステート株式会社,,株式会社,東京都,小平市,学園西町２丁目１２番３１－５号,,13,211,1870045,,,,,,,2026-02-16,1,,,,,エンライトエステート,0
304,2020001167017,新規,0,2026-02-16,2026-02-16,株式会社Ｓａｎｅｉｇｈｔ,,株式会社,神奈川県,横浜市鶴見区,鶴見中央１丁目３１番２２－１７０２号,,14,101,2300051,,,,,,,2026-02-16,1,,,,,サンエイト,0
305,2020001167116,新規,0,2026-02-16,2026-02-16,株式会社ＫＳニュートリワークス,,株式会社,神奈川県,横浜市都筑区,中川中央１丁目３０番１号プレミアヨコハマ,,14,118,2240003,,,,,,,2026-02-16,1,,,,,ケーエスニュートリワークス,0
307,2020003030346,新規,0,2026-02-16,2026-02-16,合同会社ヴァガボン,,合同会社,神奈川県,横浜市中区,千代崎町２丁目３１番地,,14,104,2310864,,,,,,,2026-02-16,1,,,,,ヴァガボン,0
313,2021003017168,新規,0,2026-02-16,2026-02-16,合同会社ＬＡＧＯ,,合同会社,神奈川県,逗子市,逗子５丁目１―２０鳥一ビル２Ｆ,,14,208,2490006,,,,,,,2026-02-16,1,,,,,ラゴ,0
319,2030001171026,新規,0,2026-02-16,2026-02-16,株式会社かずと,,株式会社,埼玉県,久喜市,久喜東１丁目１０番２１号ＺＥＲＯＩＣＨＩ・ＷＯＲＫＳ・２０６,,11,232,3460016,,,,,,,2026-02-16,1,,,,,カズト,0
321,2030003028653,新規,0,2026-02-16,2026-02-16,Ｄ３’Ｓ合同会社,,合同会社,埼玉県,さいたま市見沼区,大字大谷１９４１番地１０,,11,104,3370014,,,,,,,2026-02-16,1,,,,,ディースリーズ,0
327,2040001142496,新規,0,2026-02-16,2026-02-16,株式会社Ｇｌｏｂｕｚｚ,,株式会社,千葉県,八千代市,緑が丘２丁目２４番地１０,,12,221,2760049,,,,,,,2026-02-16,1,,,,,グローバズ,0
332,2040005023024,新規,0,2026-02-16,2026-02-16,特定非営利活動法人国際救急医療研究会,,その他の設立登記法人,千葉県,浦安市,海楽２丁目３０番１６号,,12,227,2790003,,,,,,,2026-02-16,1,,,,,コクサイキュウキュウイリョウケンキュウカイ,0
336,2070001043832,新規,0,2026-02-16,2026-02-16,株式会社ココアシステムズ,,株式会社,群馬県,伊勢崎市,韮塚町１１８２番地１,,10,204,3720813,,,,,,,2026-02-16,1,,,,,ココアシステムズ,0
354,2120001284140,新規,0,2026-02-16,2026-02-16,堀田物資株式会社,,株式会社,大阪府,大阪市東住吉区,照ケ丘矢田１丁目８－１３－７１２,,27,121,5460021,,,,,,,2026-02-16,1,,,,,ホッタブッシ,0
355,2120001284181,新規,0,2026-02-16,2026-02-16,株式会社幸,,株式会社,大阪府,大阪市住吉区,万代東３丁目２番１５号,,27,120,5580056,,,,,,,2026-02-16,1,,,,,ミユキ,0
356,2120001284248,新規,0,2026-02-16,2026-02-16,株式会社ベルーフ,,株式会社,大阪府,大阪市北区,角田町８番１号大阪梅田ツインタワーズ・ノース１９階,,27,127,5300017,,,,,,,2026-02-16,1,,,,,ベルーフ,0
358,2120003031929,新規,0,2026-02-16,2026-02-16,ｓｏｌｖ．合同会社,,合同会社,大阪府,大阪市東成区,東小橋１丁目１１番３４－１２０７号,,27,115,5370024,,,,,,,2026-02-16,1,,,,,ソルヴ,0
360,2120901052225,新規,0,2026-02-16,2026-02-16,株式会社ロードサービス求人２４ＲＯＡＤ,,株式会社,大阪府,豊中市,庄内宝町２丁目５－２１,,27,203,5610836,,,,,,,2026-02-16,1,,,,,ロードサービスキュウジンニジュウヨンロード,0
376,2150003003842,新規,0,2026-02-16,2026-02-16,合同会社ｂｒｉｇｈｔ　ｈｕｍａｎ,,合同会社,奈良県,北葛城郡王寺町,王寺２丁目７－２０王寺アルファビル１０２,,29,425,6360002,,,,,,,2026-02-16,1,,,,,ブライトヒューマン,0
387,2180001170723,新規,0,2026-02-16,2026-02-16,株式会社ＯＶＡＬＲＩＭ,,株式会社,愛知県,津島市,東柳原町１丁目４６番地,,23,208,4960045,,,,,,,2026-02-16,1,,,,,オーバルリム,0
389,2180003029736,新規,0,2026-02-16,2026-02-16,合同会社セイリング名古屋,,合同会社,愛知県,名古屋市昭和区,広路通４丁目６番地サンマンションアトレ御器所９０４,,23,107,4660854,,,,,,,2026-02-16,1,,,,,セイリングナゴヤ,0
393,2200001044718,新規,0,2026-02-16,2026-02-16,株式会社Ｋ‐ＷＯＲＫ,,株式会社,岐阜県,瑞穂市,野田新田４１５８番地２０,,21,216,5010232,,,,,,,2026-02-16,1,,,,,ケイワーク,0
394,2200003007227,新規,0,2026-02-16,2026-02-16,ＳＫＹサービス合同会社,,合同会社,岐阜県,多治見市,虎渓山町６丁目４５番地の６,,21,204,5070014,,,,,,,2026-02-16,1,,,,,スカイサービス,0
396,2230001021301,新規,0,2026-02-16,2026-02-16,株式会社Ｆ‐ｃｌａｓｓ保険,,株式会社,富山県,富山市,小中３８２番地,,16,201,9398183,,,,,,,2026-02-16,1,,,,,エフクラスホケン,0
404,2260003005514,新規,0,2026-02-16,2026-02-16,合同会社凛空,,合同会社,岡山県,倉敷市,西阿知町西原７３３番地５７,,33,202,7100806,,,,,,,2026-02-16,1,,,,,リンク,0
405,2270003001842,新規,0,2026-02-16,2026-02-16,Ｔｈｅ　ＳｕｎＳｈｉｎｅ合同会社,,合同会社,鳥取県,米子市,中島１丁目６番２７号,,31,202,6830005,,,,,,,2026-02-16,1,,,,,ザサンシャイン,0
414,2290001113142,新規,0,2026-02-16,2026-02-16,株式会社ＳＯＺＯ,,株式会社,福岡県,八女郡広川町,大字吉常３７番地１,,40,544,8340104,,,,,,,2026-02-16,1,,,,,ソウゾウ,0
417,2290003018026,新規,0,2026-02-16,2026-02-16,合同会社ＳＫＪ,,合同会社,福岡県,福岡市博多区,博多駅南１丁目２－１５事務機ビル３階西田事務所内,,40,132,8120016,,,,,,,2026-02-16,1,,,,,,0
424,2310001019964,新規,0,2026-02-16,2026-02-16,株式会社ＳＯＬＡＲＥＥ,,株式会社,長崎県,長崎市,愛宕１丁目２１番１－５１２号,,42,201,8500822,,,,,,,2026-02-16,1,,,,,ソラリー,0
426,2350001019944,新規,0,2026-02-16,2026-02-16,株式会社ＶＩＲＴＡ,,株式会社,宮崎県,宮崎市,橘通西３丁目１０番３２号８階,,45,201,8800001,,,,,,,2026-02-16,1,,,,,ヴィルタ,0
428,2360003015610,新規,0,2026-02-16,2026-02-16,合同会社誠丸,,合同会社,沖縄県,宜野湾市,真栄原１丁目２番３２号渡名喜アパートＢ－１,,47,205,9012215,,,,,,,2026-02-16,1,,,,,マコトマル,0
431,2370001053479,新規,0,2026-02-16,2026-02-16,第一ビルホールディングス株式会社,,株式会社,宮城県,仙台市青葉区,中央１丁目２番３号,,04,101,9800021,,,,,,,2026-02-16,1,,,,,ダイイチビルホールディングス,0
433,2380001035880,新規,0,2026-02-16,2026-02-16,Ｌｉｎｏ　Ｃｒｅａｔｅ株式会社,,株式会社,福島県,いわき市,平原高野字高原３７番地の３,,07,204,9700111,,,,,,,2026-02-16,1,,,,,リノクリエイト,0
434,2380003006252,新規,0,2026-02-16,2026-02-16,合同会社ＭｏｎｏＶｉｅ,,合同会社,福島県,二本松市,油井字八軒町１４６番地２,,07,210,9691404,,,,,,,2026-02-16,1,,,,,モノヴィー,0
435,2380003006260,新規,0,2026-02-16,2026-02-16,合同会社大楽,,合同会社,福島県,いわき市,中岡町５丁目１２番地の５大楽方,,07,204,9748251,,,,,,,2026-02-16,1,,,,,ダイラク,0
437,2390003002498,新規,0,2026-02-16,2026-02-16,合同会社みんなぁーの,,合同会社,山形県,山形市,深町１丁目４番３１－２１２サンライズコーポ２号,,06,201,9902462,,,,,,,2026-02-16,1,,,,,,0
440,2430001096249,新規,0,2026-02-16,2026-02-16,ＤＭプランニングソリューションズ株式会社,,株式会社,北海道,札幌市中央区,南二条西５丁目３１番地１ＲＭＢｌｄ．７０１,,01,101,0600062,,,,,,,2026-02-16,1,,,,,ディーエムプランニングソリューションズ,0
446,2460103001789,新規,0,2026-02-16,2026-02-16,合同会社凪,,合同会社,北海道,広尾郡広尾町,東一条１２丁目６番地の１,,01,642,0892601,,,,,,,2026-02-16,1,,,,,ナギ,0
450,2700150134467,新規,0,2026-02-16,2026-02-16,ＦＣＯ　ＭＡ　ＭＩ　ＩＩ　ＧＰ　ＬＬＣ,,外国会社等,,,,,,,,１２０９オレンジストリート、ウィルミントン、デラウェア州、１９８０１、Ｕ．Ｓ．Ａ,,,,,,2026-02-16,1,,,,,エフシーオーエムエーエムアイツージーピーエルエルシー,0
451,2700150134475,新規,0,2026-02-16,2026-02-16,Ｇ．Ｍｕｔｈｕｍａｌａ　Ｍｏｔｏｒ　Ｓｔｏｒｅｓ　Ｃｏｌｏｍｂｏ,,外国会社等,千葉県,印西市,浦部２６２９番地,,12,231,2701367,スリランカ民主社会主義共和国コロンボ１３地区ジョージ、Ｒ．デ、シルバ、マワサ、Ｎｏ：３９６,,,,,,2026-02-16,1,,,,,ジームトウマラモーターストアーズコロンボ,0
461,3010001262338,新規,0,2026-02-16,2026-02-16,株式会社Ｊａｐａｎ　Ｔｒａｄｉｎｇ　Ｃａｒｄ　Ｆｕｎｄ,,株式会社,東京都,中央区,日本橋大伝馬町１３－７日本橋大富ビル２Ｆ,,13,102,1030011,,,,,,,2026-02-16,1,,,,,ジャパントレーディングカードファンド,0
462,3010001262668,新規,0,2026-02-16,2026-02-16,株式会社次世代予防医学研究所,,株式会社,東京都,中央区,日本橋２丁目１－３アーバンネット日本橋二丁目ビル１０階,,13,102,1030027,,,,,,,2026-02-16,1,,,,,ジセダイヨボウイガクケンキュウショ,0
463,3010001262734,新規,0,2026-02-16,2026-02-16,ＪＰＦＣ第１号株式会社,,株式会社,東京都,千代田区,霞が関３丁目２番１号,,13,101,1000013,,,,,,,2026-02-16,1,,,,,ジェイピーエフシーダイイチゴウ,0
464,3010001262833,新規,0,2026-02-16,2026-02-16,株式会社ＡＩ日本橋,,株式会社,東京都,中央区,日本橋兜町１７番１号日本橋ロイヤルプラザ７０６,,13,102,1030026,,,,,,,2026-02-16,1,,,,,エーアイニホンバシ,0
468,3010003050328,新規,0,2026-02-16,2026-02-16,合同会社ＭＥＸ蓄電ＰＪ１,,合同会社,東京都,千代田区,神田神保町２丁目４８番地３５１０ビル２０２ＤＸデザイン会計事務所内,,13,101,1010051,,,,,,,2026-02-16,1,,,,,メックスチクデンピージェーワン,0
469,3010003050352,新規,0,2026-02-16,2026-02-16,合同会社Ｄｒ．ＰＣ　ＮＥＴ,,合同会社,東京都,千代田区,神田神保町２丁目１０－３１ＩＷビル１Ｆ,,13,101,1010051,,,,,,,2026-02-16,1,,,,,ドクターピーシーネット,0
470,3010003050360,新規,0,2026-02-16,2026-02-16,合同会社Ｆｉｇ,,合同会社,東京都,千代田区,内神田２丁目１０－７－７０２,,13,101,1010047,,,,,,,2026-02-16,1,,,,,フィグ,0
471,3010003050385,新規,0,2026-02-16,2026-02-16,合同会社アシストＨＲ,,合同会社,東京都,中央区,銀座１丁目１２番地４号,,13,102,1040061,,,,,,,2026-02-16,1,,,,,アシストエイチアール,0
472,3010101017088,新規,0,2026-02-16,2026-02-16,株式会社髪Ｌａｂｏ,,株式会社,東京都,八王子市,小宮町１１３６番地６４,,13,201,1920031,,,,,,,2026-02-16,1,,,,,カミラボ,0
473,3010103002757,新規,0,2026-02-16,2026-02-16,合同会社ケアプランりりあん,,合同会社,東京都,八王子市,並木町７－３,,13,201,1930831,,,,,,,2026-02-16,1,,,,,ケアプランリリアン,0
477,3010401196425,新規,0,2026-02-16,2026-02-16,Ｐｈｏｅｂｅ　Ｐｈｉｌｏ株式会社,,株式会社,東京都,港区,海岸１丁目２番２０号汐留ビルディング３階ＣＳＣ気付,,13,103,1050022,,,,,,,2026-02-16,1,,,,,フィービーファイロ,0
478,3010401196441,新規,0,2026-02-16,2026-02-16,株式会社ｄｙｎａｍｉｃ,,株式会社,東京都,港区,北青山１丁目３番１号アールキューブ青山３階,,13,103,1070061,,,,,,,2026-02-16,1,,,,,ダイナミック,0
479,3010401196524,新規,0,2026-02-16,2026-02-16,株式会社セイアパートナーズ,,株式会社,東京都,港区,赤坂３丁目１番２号ＢＩＺＣＯＲＥ赤坂見附１０Ｆ,,13,103,1070052,,,,,,,2026-02-16,1,,,,,セイアパートナーズ,0
480,3010401196581,新規,0,2026-02-16,2026-02-16,株式会社ＮＳＳＫ‐Ｎ２,,株式会社,東京都,港区,愛宕２丁目５番１号愛宕グリーンヒルズＭＯＲＩタワー,,13,103,1050002,,,,,,,2026-02-16,1,,,,,エヌエスエスケーエヌツー,0
481,3010403037271,新規,0,2026-02-16,2026-02-16,ジー・エイ・ワン・レジデンス・フィフティーン合同会社２,,合同会社,東京都,港区,虎ノ門５丁目１番４号,,13,103,1050001,,,,,,,2026-02-16,1,,,,,ジーエイワンレジデンスフィフティーンニ,0
487,3010405025340,新規,0,2026-02-16,2026-02-16,ジー・エイ・ワン・レジデンス・フィフティーン一般社団法人,,その他の設立登記法人,東京都,港区,虎ノ門５丁目１番４号,,13,103,1050001,,,,,,,2026-02-16,1,,,,,ジーエイワンレジデンスフィフティーン,0
488,3010503008180,新規,0,2026-02-16,2026-02-16,シグマ合同会社,,合同会社,東京都,台東区,三ノ輪１丁目２８番７－４０１号グローベルザ・ステーション三ノ輪,,13,106,1100011,,,,,,,2026-02-16,1,,,,,シグマ,0
501,3011001175397,新規,0,2026-02-16,2026-02-16,株式会社一之志会,,株式会社,東京都,目黒区,自由が丘１丁目１７番２２号,,13,110,1520035,,,,,,,2026-02-16,1,,,,,イチノシカイ,0
502,3011001175414,新規,0,2026-02-16,2026-02-16,ＦＯＵＲＳＩＳ　Ｂｕｉｌｄｉｎｇ　Ｍａｎａｇｅｍｅｎｔ株式会社,,株式会社,東京都,渋谷区,千駄ヶ谷５丁目１３－９－３０５,,13,113,1510051,,,,,,,2026-02-16,1,,,,,フォアシスビルディングマネジメント,0
503,3011003023546,新規,0,2026-02-16,2026-02-16,Ｗｈａｔｎｏｔ　Ｊａｐａｎ合同会社,,合同会社,東京都,渋谷区,宇田川町３番５号ＳｐａｒｋＳＨＩＢＵＹＡ７階,,13,113,1500042,,,,,,,2026-02-16,1,,,,,ワットノットジャパン,0
504,3011101114750,新規,0,2026-02-16,2026-02-16,株式会社Ｐｒｏｖｅｒｉｃ,,株式会社,東京都,新宿区,西新宿３丁目３番１３号西新宿水間ビル２Ｆ,,13,104,1600023,,,,,,,2026-02-16,1,,,,,プロヴェリック,0
505,3011101114759,新規,0,2026-02-16,2026-02-16,ハハ創新株式会社,,株式会社,東京都,新宿区,百人町２丁目１３番１３号Ｊハウス２１８,,13,104,1690073,,,,,,,2026-02-16,1,,,,,ハハソウシン,0
507,3011105011721,新規,0,2026-02-16,2026-02-16,一般社団法人子どもの発達支援を考えるＳＴの会,,その他の設立登記法人,東京都,新宿区,西新宿３丁目３番１３号西新宿水間ビル６階,,13,104,1600023,,,,,,,2026-02-16,1,,,,,コドモノハッタツシエンヲカンガエルエスティーノカイ,0
508,3011203004949,新規,0,2026-02-16,2026-02-16,ソリファン合同会社,,合同会社,東京都,中野区,上高田３丁目３２番７号メゾンプルミエール１０２,,13,114,1640002,,,,,,,2026-02-16,1,,,,,ソリファン,0
510,3011701029191,新規,0,2026-02-16,2026-02-16,同和コーポレーション株式会社,,株式会社,東京都,江戸川区,東小岩５丁目３７－１１－２０３,,13,123,1330052,,,,,,,2026-02-16,1,,,,,ドウワコーポレーション,0
512,3012401044118,新規,0,2026-02-16,2026-02-16,株式会社ｕｎｏｍｉ,,株式会社,東京都,多摩市,中沢２丁目３番地１ライオンズマンション３０２号,,13,224,2060036,,,,,,,2026-02-16,1,,,,,ウノミ,0
513,3012401044142,新規,0,2026-02-16,2026-02-16,株式会社Ｌｕｍｉｅｒｅ,,株式会社,東京都,府中市,宮西町５丁目１番地の２レ・フレール３０３,,13,206,1830022,,,,,,,2026-02-16,1,,,,,ルミエール,0
514,3012403007618,新規,0,2026-02-16,2026-02-16,合同会社エグレット,,合同会社,東京都,三鷹市,中原３丁目１１番７号,,13,204,1810005,,,,,,,2026-02-16,1,,,,,エグレット,0
515,3012701019323,新規,0,2026-02-16,2026-02-16,東久留米ベース株式会社,,株式会社,東京都,東久留米市,金山町１丁目１２番１５号,,13,222,2030003,,,,,,,2026-02-16,1,,,,,ヒガシクルメベース,0
523,3020001167115,新規,0,2026-02-16,2026-02-16,キントウ自動車株式会社,,株式会社,神奈川県,横浜市西区,北幸１丁目１１番１号水信ビル７階,,14,103,2200004,,,,,,,2026-02-16,1,,,,,キントウジドウシャ,0
524,3020001167148,新規,0,2026-02-16,2026-02-16,株式会社常松マネジメント,,株式会社,神奈川県,横浜市青葉区,美しが丘３丁目６９番地３,,14,117,2250002,,,,,,,2026-02-16,1,,,,,ツネマツマネジメント,0
527,3020003030411,新規,0,2026-02-16,2026-02-16,ＧＢＣ合同会社,,合同会社,神奈川県,横浜市西区,北幸２丁目１０番４８号,,14,103,2200004,,,,,,,2026-02-16,1,,,,,ジービーシー,0
528,3021003017134,新規,0,2026-02-16,2026-02-16,合同会社Ｆ．Ｆ．Ｋ,,合同会社,神奈川県,相模原市緑区,西橋本３丁目５番４号さがみハイツ１０１,,14,151,2520131,,,,,,,2026-02-16,1,,,,,エフエフケー,0
535,3030001171009,新規,0,2026-02-16,2026-02-16,株式会社サンハレア,,株式会社,埼玉県,越谷市,千間台東２丁目１８番地３,,11,222,3430042,,,,,,,2026-02-16,1,,,,,サンハレア,0
536,3030003028644,新規,0,2026-02-16,2026-02-16,合同会社ＲＴサービス,,合同会社,埼玉県,狭山市,狭山台４丁目２７番地２,,11,215,3501304,,,,,,,2026-02-16,1,,,,,アールティーサービス,0
537,3030005022414,新規,0,2026-02-16,2026-02-16,一般社団法人ソラネさいたま,,その他の設立登記法人,埼玉県,さいたま市桜区,町谷３丁目２４番１７号,,11,106,3380836,,,,,,,2026-02-16,1,,,,,ソラネサイタマ,0
542,3040001142512,新規,0,2026-02-16,2026-02-16,株式会社ＴＥＲＡＤＡＮＣＥ,,株式会社,千葉県,流山市,おおたかの森南１丁目１８７番地の６３,,12,220,2700139,,,,,,,2026-02-16,1,,,,,テラダンス,0
544,3040003029410,新規,0,2026-02-16,2026-02-16,合同会社藤村,,合同会社,千葉県,市川市,本北方１丁目１４番１１号,,12,203,2720816,,,,,,,2026-02-16,1,,,,,フジムラ,0
545,3040003029468,新規,0,2026-02-16,2026-02-16,合同会社マルダイ,,合同会社,千葉県,市原市,ちはら台南６丁目１１－１０,,12,219,2900142,,,,,,,2026-02-16,1,,,,,マルダイ,0
548,3050001057981,新規,0,2026-02-16,2026-02-16,浩松工業株式会社,,株式会社,茨城県,土浦市,神立町３４３１－１５,,08,203,3000013,,,,,,,2026-02-16,1,,,,,ヒロマツコウギョウ,0
552,3050003009931,新規,0,2026-02-16,2026-02-16,合同会社ライフコッド,,合同会社,茨城県,小美玉市,幡谷３６１―１,,08,236,3113424,,,,,,,2026-02-16,1,,,,,ライフコッド,0
564,3100003008614,新規,0,2026-02-16,2026-02-16,合同会社ＳＫＹＬＯＧＩＣ,,合同会社,長野県,飯田市,座光寺２１９３番地７１,,20,205,3950001,,,,,,,2026-02-16,1,,,,,スカイロジック,0
571,3120001284073,新規,0,2026-02-16,2026-02-16,株式会社エスリー,,株式会社,大阪府,大阪市浪速区,湊町２丁目２番５号,,27,111,5560017,,,,,,,2026-02-16,1,,,,,エスリー,0
572,3120001284098,新規,0,2026-02-16,2026-02-16,株式会社Ｙ’ｓ,,株式会社,大阪府,枚方市,山之上５丁目１４番２２号,,27,210,5730047,,,,,,,2026-02-16,1,,,,,ワイズ,0
573,3120001284115,新規,0,2026-02-16,2026-02-16,ロリー・ジャパン株式会社,,株式会社,大阪府,大阪市中央区,船場中央１丁目３番２－１０１号大阪デザインセンター内,,27,128,5410055,,,,,,,2026-02-16,1,,,,,ロリージャパン,0
574,3120001284164,新規,0,2026-02-16,2026-02-16,株式会社メルベリ,,株式会社,大阪府,大阪市淀川区,東三国２丁目３０－１竹田東三国マンション４Ｅ,,27,123,5320002,,,,,,,2026-02-16,1,,,,,メルベリ,0
575,3120001284172,新規,0,2026-02-16,2026-02-16,株式会社Ｐｒｏｃｙｏｎ,,株式会社,大阪府,大阪市中央区,北浜３丁目５番２２号オリックス淀屋橋ビル３階３０２号,,27,128,5410041,,,,,,,2026-02-16,1,,,,,プロキオン,0
576,3120001284189,新規,0,2026-02-16,2026-02-16,株式会社ＫＳ‐ＷＯＲＫＳ,,株式会社,大阪府,枚方市,牧野本町２丁目６番２０号,,27,210,5731144,,,,,,,2026-02-16,1,,,,,ケーズワークス,0
582,3120103006953,新規,0,2026-02-16,2026-02-16,合同会社パワーリンクス,,合同会社,大阪府,貝塚市,加神１丁目２４番４６号,,27,208,5970071,,,,,,,2026-02-16,1,,,,,パワーリンクス,0
584,3120903006079,新規,0,2026-02-16,2026-02-16,合同会社ＷＲ,,合同会社,大阪府,高槻市,今城町２１番４号の１,,27,207,5691135,,,,,,,2026-02-16,1,,,,,ダブルアール,0
585,3120903006087,新規,0,2026-02-16,2026-02-16,アーツ・プロパティ合同会社,,合同会社,大阪府,吹田市,垂水町３丁目７番１８号,,27,205,5640062,,,,,,,2026-02-16,1,,,,,アーツプロパティ,0
586,3122001040175,新規,0,2026-02-16,2026-02-16,株式会社ｗｅａｖｅ,,株式会社,大阪府,八尾市,山賀町４丁目２５番２,,27,212,5810812,,,,,,,2026-02-16,1,,,,,ウィーブ,0
588,3130001081619,新規,0,2026-02-16,2026-02-16,株式会社トップカクタス,,株式会社,京都府,八幡市,美濃山幸水２６番地６,,26,210,6148279,,,,,,,2026-02-16,1,,,,,トップカクタス,0
589,3130003011160,新規,0,2026-02-16,2026-02-16,合同会社ＣＬＡＳＳ‐ｉ,,合同会社,京都府,綾部市,東山町稗田３１番地３,,26,203,6291262,,,,,,,2026-02-16,1,,,,,クラスアイ,0
590,3130003011169,新規,0,2026-02-16,2026-02-16,合同会社Ｈｉ＆Ｄｒａｆｔ,,合同会社,京都府,京都市下京区,真町９０番地７,,26,106,6008001,,,,,,,2026-02-16,1,,,,,ハイアンドドラフト,0
599,3140003023196,新規,0,2026-02-16,2026-02-16,Ｎｅｘｉａ合同会社,,合同会社,兵庫県,川西市,小花１丁目９－１森本ビル２Ｆ,,28,217,6660015,,,,,,,2026-02-16,1,,,,,ネクシア,0
606,3180001170672,新規,0,2026-02-16,2026-02-16,株式会社ＫＢ工業,,株式会社,愛知県,津島市,高台寺町字江西５番地,,23,208,4960015,,,,,,,2026-02-16,1,,,,,ケービーコウギョウ,0
609,3180003029776,新規,0,2026-02-16,2026-02-16,合同会社ＭＩＺＵＨＯＬＡＮＤ,,合同会社,愛知県,一宮市,丹陽町五日市場字屋敷１１３番地１,,23,203,4910823,,,,,,,2026-02-16,1,,,,,ミズホランド,0
610,3180003029792,新規,0,2026-02-16,2026-02-16,合同会社つなぐ,,合同会社,愛知県,あま市,甚目寺稲荷１１２番地２,,23,237,4901111,,,,,,,2026-02-16,1,,,,,ツナグ,0
613,3180301040699,新規,0,2026-02-16,2026-02-16,株式会社ユゲマネジメント,,株式会社,愛知県,豊田市,豊栄町５丁目２５３番地,,23,211,4701201,,,,,,,2026-02-16,1,,,,,ユゲマネジメント,0
614,3180303006896,新規,0,2026-02-16,2026-02-16,合同会社Ｓｋｙ　Ｓｙｓｔｅｍｓ,,合同会社,愛知県,安城市,古井町大久後２９番地８,,23,212,4460025,,,,,,,2026-02-16,1,,,,,スカイシステムズ,0
617,3190003005347,新規,0,2026-02-16,2026-02-16,合同会社ＭＵＳＵＢＩ,,合同会社,三重県,伊勢市,神久４丁目１１番２３－７号,,24,203,5160017,,,,,,,2026-02-16,1,,,,,ムスビ,0
622,3220001027174,新規,0,2026-02-16,2026-02-16,株式会社クラフトン,,株式会社,石川県,金沢市,間明町２丁目５５番地,,17,201,9218005,,,,,,,2026-02-16,1,,,,,クラフトン,0
626,3260001040990,新規,0,2026-02-16,2026-02-16,株式会社ｍａｍａｎｅ,,株式会社,岡山県,岡山市南区,福田６６番地１０,,33,104,7028021,,,,,,,2026-02-16,1,,,,,ママネ,0
627,3260003005513,新規,0,2026-02-16,2026-02-16,合同会社Ｒｅエナジー,,合同会社,岡山県,玉野市,奥玉１丁目１４番１３号,,33,204,7060013,,,,,,,2026-02-16,1,,,,,リエナジー,0
631,3290001113109,新規,0,2026-02-16,2026-02-16,にじいろサポート株式会社,,株式会社,福岡県,春日市,春日原東町４丁目６８ロイヤルプラザ８８－Ｃ１,,40,218,8160801,,,,,,,2026-02-16,1,,,,,ニジイロサポート,0
632,3290001113125,新規,0,2026-02-16,2026-02-16,株式会社Ａｉｒ　Ｇｒｏｗ,,株式会社,福岡県,福岡市早良区,田村１丁目５番８－２０３号,,40,137,8140175,,,,,,,2026-02-16,1,,,,,エアーグロウ,0
633,3290001113141,新規,0,2026-02-16,2026-02-16,株式会社８８グループ,,株式会社,福岡県,福岡市博多区,美野島１丁目５番１－１１０１号,,40,132,8120017,,,,,,,2026-02-16,1,,,,,ハチハチグループ,0
634,3290001113158,新規,0,2026-02-16,2026-02-16,くらしｘＤｅｓｉｇｎ株式会社,,株式会社,福岡県,太宰府市,観世音寺６丁目１番３３号,,40,221,8180101,,,,,,,2026-02-16,1,,,,,クラシデザイン,0
635,3290003018058,新規,0,2026-02-16,2026-02-16,合同会社ＳＥＩＷＡＥＸＰＲＥＳＳ,,合同会社,福岡県,福岡市中央区,天神４丁目６番２８号いちご天神ノースビル７階,,40,133,8100001,,,,,,,2026-02-16,1,,,,,,0
639,3330001033987,新規,0,2026-02-16,2026-02-16,天草中央生コン株式会社,,株式会社,熊本県,天草市,楠浦町８０番地の４,,43,215,8630044,,,,,,,2026-02-16,1,,,,,アマクサチュウオウナマコン,0
640,3330003011438,新規,0,2026-02-16,2026-02-16,合同会社７８７,,合同会社,熊本県,熊本市南区,護藤町１５１７番地５,,43,104,8614117,,,,,,,2026-02-16,1,,,,,ナナハチナナ,0
644,3350001019943,新規,0,2026-02-16,2026-02-16,株式会社菅養鶏,,株式会社,宮崎県,小林市,堤１８８７番地４,,45,205,8860003,,,,,,,2026-02-16,1,,,,,スガヨウケイ,0
646,3370001053478,新規,0,2026-02-16,2026-02-16,ユナイテッドパートナーズ株式会社,,株式会社,宮城県,多賀城市,町前２丁目２番５号,,04,209,9850845,,,,,,,2026-02-16,1,,,,,ユナイテッドパートナーズ,0
647,3370005011077,新規,0,2026-02-16,2026-02-16,一般社団法人森の美術館,,その他の設立登記法人,宮城県,柴田郡川崎町,大字前川字松葉森山１番地１９７,,04,324,9891501,,,,,,,2026-02-16,1,,,,,モリノビジュツカン,0
650,3380003006251,新規,0,2026-02-16,2026-02-16,合同会社Ｔ．ｆａｍ,,合同会社,福島県,いわき市,泉滝尻１丁目２３番地の１,,07,204,9718189,,,,,,,2026-02-16,1,,,,,ティーファム,0
653,3390003002497,新規,0,2026-02-16,2026-02-16,合同会社スリーエス,,合同会社,山形県,山形市,嶋南１丁目１０番２６号,,06,201,9900886,,,,,,,2026-02-16,1,,,,,スリーエス,0
658,3410001014392,新規,0,2026-02-16,2026-02-16,株式会社ネクスティアズ,,株式会社,秋田県,秋田市,寺内字三千刈６９－１,,05,201,0110901,,,,,,,2026-02-16,1,,,,,ネクスティアズ,0
660,3420005008002,新規,0,2026-02-16,2026-02-16,一般社団法人ひろさき地域活性研究室,,その他の設立登記法人,青森県,弘前市,大字稔町２０番地７,,02,202,0368231,,,,,,,2026-02-16,1,,,,,ヒロサキチイキカッセイケンキュウシツ,0
663,3430001096256,新規,0,2026-02-16,2026-02-16,株式会社桜華,,株式会社,北海道,札幌市白石区,東札幌二条４丁目４番６－２０１号,,01,104,0030002,,,,,,,2026-02-16,1,,,,,オウカ,0
665,3430003018596,新規,0,2026-02-16,2026-02-16,丸昌本間不動産合同会社,,合同会社,北海道,白老郡白老町,字北吉原６６８－１６７,,01,578,0590923,,,,,,,2026-02-16,1,,,,,マルマサホンマフドウサン,0
672,3490003002099,新規,0,2026-02-16,2026-02-16,合同会社ゆえる,,合同会社,高知県,南国市,立田１２８８番地１,,39,204,7830091,,,,,,,2026-02-16,1,,,,,ユエル,0
677,3700150134458,新規,0,2026-02-16,2026-02-16,上福万自治会,,その他,鳥取県,米子市,福万６３３番地５,,31,202,6893523,,,,,,,2026-02-16,1,,,,,カミフクマンジチカイ,0
678,3700150134466,新規,0,2026-02-16,2026-02-16,ＦＣＯ　Ｆｕｎｄ　Ｖ　ＭＡ－Ｃ　ＧＰ　ＬＬＣ,,外国会社等,,,,,,,,１２０９オレンジストリート、ウィルミントン、デラウェア州、１９８０１、Ｕ．Ｓ．Ａ,,,,,,2026-02-16,1,,,,,エフシーオーフアンドブイエムエーシージーピーエルエルシー,0
688,4010001262345,新規,0,2026-02-16,2026-02-16,株式会社ヌクモリクリエイティブ,,株式会社,東京都,千代田区,神田須田町１丁目７番８号ＶＯＲＴ秋葉原ＩＶ２Ｆ,00142573,13,101,1010041,,,,,,,2026-02-16,1,,,,,ヌクモリクリエイティブ,0
689,4010001262584,新規,0,2026-02-16,2026-02-16,ＦＲＥＥＤＯＭ　ＧＲＯＵＰ株式会社,,株式会社,東京都,中央区,日本橋富沢町１１番１２号,,13,102,1030006,,,,,,,2026-02-16,1,,,,,フリーダムグループ,0
690,4010001262642,新規,0,2026-02-16,2026-02-16,株式会社ひらり,,株式会社,東京都,千代田区,二番町１番地２・番町ハイム９０４号室,,13,101,1020084,,,,,,,2026-02-16,1,,,,,ヒラリ,0
691,4010001262790,新規,0,2026-02-16,2026-02-16,株式会社Ｈｏｓｈｉｎａｒｉ,,株式会社,東京都,中央区,銀座１丁目１２番４号Ｎ＆ＥＢＬＤ．６Ｆ,,13,102,1040061,,,,,,,2026-02-16,1,,,,,ホシナリ,0
692,4010001262832,新規,0,2026-02-16,2026-02-16,風花メディカルマネジメント株式会社,,株式会社,東京都,文京区,関口２丁目４番２４－５０１号,,13,105,1120014,,,,,,,2026-02-16,1,,,,,フウカメディカルマネジメント,0
693,4010001262907,新規,0,2026-02-16,2026-02-16,ＨａｒｍｏｎｙＪａｐａｎ株式会社,,株式会社,東京都,中央区,東日本橋３丁目６番１８号ハニー堀留ビル２Ｆ,,13,102,1030004,,,,,,,2026-02-16,1,,,,,ハーモニジャパン,0
700,4010003050293,新規,0,2026-02-16,2026-02-16,合同会社ブライト,,合同会社,東京都,中央区,銀座１丁目１２番４号Ｎ＆ＥＢＬＤ．６Ｆ,,13,102,1040061,,,,,,,2026-02-16,1,,,,,ブライト,0
701,4010003050376,新規,0,2026-02-16,2026-02-16,合同会社鳳凰トリニティ,,合同会社,東京都,千代田区,六番町１５番地２,,13,101,1020085,,,,,,,2026-02-16,1,,,,,ホウオウトリニティ,0
705,4010401196449,新規,0,2026-02-16,2026-02-16,株式会社Ｒｏｓｅｍｉ,,株式会社,東京都,港区,南青山２丁目２番１５－１１１６号,,13,103,1070062,,,,,,,2026-02-16,1,,,,,ローズミー,0
706,4010401196523,新規,0,2026-02-16,2026-02-16,株式会社ＯＴＯＨＯＧＩ,,株式会社,東京都,港区,芝大門１丁目２番１４号,,13,103,1050012,,,,,,,2026-02-16,1,,,,,オトホギ,0
707,4010401196556,新規,0,2026-02-16,2026-02-16,株式会社ＬＹＢ,,株式会社,東京都,港区,西麻布４丁目１１番３－１０８号フロイント麻布,,13,103,1060031,,,,,,,2026-02-16,1,,,,,エルワイビ,0
709,4010403037270,新規,0,2026-02-16,2026-02-16,ジー・エイ・ワン・レジデンス・フィフティーン合同会社１,,合同会社,東京都,港区,虎ノ門５丁目１番４号,,13,103,1050001,,,,,,,2026-02-16,1,,,,,ジーエイワンレジデンスフィフティーンイチ,0
710,4010403037279,新規,0,2026-02-16,2026-02-16,合同会社ＬｅＶｉｅ　Ｌａｂ,,合同会社,東京都,港区,南青山３丁目１番３６号青山丸竹ビル６階,,13,103,1070062,,,,,,,2026-02-16,1,,,,,レヴィラボ,0
717,4010501055455,新規,0,2026-02-16,2026-02-16,株式会社ｂｏｔｔｏｍｌｅｓｓ‐Ｔ,,株式会社,東京都,台東区,浅草橋１丁目３０番１２号玉木ビル５Ｆ,,13,106,1110053,,,,,,,2026-02-16,1,,,,,ボトムレスティー,0
718,4010505003682,新規,0,2026-02-16,2026-02-16,一般社団法人若葉会,,その他の設立登記法人,東京都,台東区,台東４丁目３２番１号,,13,106,1100016,,,,,,,2026-02-16,1,,,,,ワカバカイ,0
725,4010701049042,新規,0,2026-02-16,2026-02-16,株式会社Ｔｉｍａｈ,,株式会社,東京都,品川区,東品川４丁目９－２４秀和東品川レジデンス,,13,109,1400002,,,,,,,2026-02-16,1,,,,,ティマ,0
727,4010703008129,新規,0,2026-02-16,2026-02-16,Ｔｒａｎｑｕｉｌｌｏ合同会社,,合同会社,東京都,品川区,二葉１丁目１５番１３号,,13,109,1420043,,,,,,,2026-02-16,1,,,,,トランクイロ,0
729,4010801037054,新規,0,2026-02-16,2026-02-16,株式会社淡間,,株式会社,東京都,大田区,大森北５丁目８番１０－５０８号,,13,111,1430016,,,,,,,2026-02-16,1,,,,,アワイ,0
732,4010901058966,新規,0,2026-02-16,2026-02-16,株式会社ＮＩＨＯＮＧＡ,,株式会社,東京都,世田谷区,岡本３丁目１５番１４号,,13,112,1570076,,,,,,,2026-02-16,1,,,,,ニホンガ,0
735,4011001175454,新規,0,2026-02-16,2026-02-16,株式会社ＥＮＪＩＮ,,株式会社,東京都,目黒区,青葉台２丁目１２－１２,,13,110,1530042,,,,,,,2026-02-16,1,,,,,エンジン,0
736,4011001175487,新規,0,2026-02-16,2026-02-16,株式会社ＫＯｎｃｉｅｒｇｅ,,株式会社,東京都,渋谷区,円山町５番３号ＭＩＥＵＸ渋谷ビル８階,,13,113,1500044,,,,,,,2026-02-16,1,,,,,コンシェルジュ,0
738,4011003023512,新規,0,2026-02-16,2026-02-16,Ｂｏｎｎｅ　ｃｈａｎｃｅ合同会社,,合同会社,東京都,渋谷区,恵比寿西２丁目４番８号ウィンド恵比寿ビル８Ｆ,,13,113,1500021,,,,,,,2026-02-16,1,,,,,ボンシャンス,0
739,4011003023545,新規,0,2026-02-16,2026-02-16,合同会社マイキャビン,,合同会社,東京都,目黒区,目黒１丁目１４－３,,13,110,1530063,,,,,,,2026-02-16,1,,,,,マイキャビン,0
753,4011801047431,新規,0,2026-02-16,2026-02-16,株式会社ＶＡＬ　ＬＯＧＩＳＴＩＣＳ,,株式会社,東京都,葛飾区,鎌倉３丁目３９番１６号,,13,122,1250053,,,,,,,2026-02-16,1,,,,,バルロジスティクス,0
760,4012703003472,新規,0,2026-02-16,2026-02-16,合同会社Ｋ　ＬＵＸＥ　ＶＩＬＬＡ,,合同会社,東京都,東村山市,栄町１丁目１２番地１,,13,213,1890013,,,,,,,2026-02-16,1,,,,,ケイリュクスヴィラ,0
773,4020001167089,新規,0,2026-02-16,2026-02-16,株式会社ＰａｃｉｆｉｃＣｏｄｅ,,株式会社,神奈川県,横浜市西区,浅間町１丁目４番３号ウィザードビル４０２,,14,103,2200072,,,,,,,2026-02-16,1,,,,,パシフィックコード,0
774,4020001167106,新規,0,2026-02-16,2026-02-16,株式会社ＢＲＹＺ,,株式会社,神奈川県,川崎市川崎区,大師河原２丁目２番２－１１３号,,14,131,2100811,,,,,,,2026-02-16,1,,,,,ブライズ,0
775,4020001167114,新規,0,2026-02-16,2026-02-16,株式会社ほっこりズム,,株式会社,神奈川県,川崎市宮前区,宮前平１丁目１番地８ミルフィーユ宮前平２０１,,14,136,2160006,,,,,,,2026-02-16,1,,,,,ホッコリズム,0
780,4021001087517,新規,0,2026-02-16,2026-02-16,株式会社天領設備,,株式会社,神奈川県,横須賀市,衣笠町１３番３号,,14,201,2380025,,,,,,,2026-02-16,1,,,,,テンリョウセツビ,0
781,4021001087525,新規,0,2026-02-16,2026-02-16,株式会社ノクター,,株式会社,神奈川県,藤沢市,鵠沼松が岡４丁目１１番１７号,00142579,14,205,2510038,,,,,,,2026-02-16,1,,,,,ノクター,0
782,4021001087533,新規,0,2026-02-16,2026-02-16,株式会社ＥＮＴＲＵＳＴ,,株式会社,神奈川県,茅ヶ崎市,東海岸南１丁目１５番３６号－１０３,,14,207,2530054,,,,,,,2026-02-16,1,,,,,エントラスト,0
783,4021003017158,新規,0,2026-02-16,2026-02-16,大和印刷合同会社,,合同会社,神奈川県,大和市,大和東３丁目１番１８号,,14,213,2420017,,,,,,,2026-02-16,1,,,,,ヤマトインサツ,0
791,4040001141950,新規,0,2026-02-16,2026-02-16,泉立方株式会社,,株式会社,千葉県,我孫子市,布佐３２７５－１１,,12,222,2701101,,,,,,,2026-02-16,1,,,,,センリッポウ,0
792,4040001142494,新規,0,2026-02-16,2026-02-16,ＩＩＤＡグローバル株式会社,,株式会社,千葉県,成田市,本城１６４－２,,12,211,2860114,,,,,,,2026-02-16,1,,,,,イイダグローバル,0
796,4040003029475,新規,0,2026-02-16,2026-02-16,合同会社ＣｏｒｅＳｃｒｉｐｔ,,合同会社,千葉県,市原市,五井１２９５番地２グレース五井Ａ１０１,,12,219,2900056,,,,,,,2026-02-16,1,,,,,コアスクリプト,0
799,4050001057980,新規,0,2026-02-16,2026-02-16,株式会社ＴｒｉＬｉｎｋ,,株式会社,茨城県,結城郡八千代町,大字新井５５３番地,,08,521,3003519,,,,,,,2026-02-16,1,,,,,トライリンク,0
809,4100001039338,新規,0,2026-02-16,2026-02-16,株式会社Ｇｒａｖｉｔｙ,,株式会社,長野県,上田市,保野２４８番地２,,20,203,3861321,,,,,,,2026-02-16,1,,,,,グラヴィティ,0
818,4120001284031,新規,0,2026-02-16,2026-02-16,ＪＰマネージメント株式会社,,株式会社,大阪府,大阪市西成区,太子１丁目８番３号,,27,122,5570002,,,,,,,2026-02-16,1,,,,,ジェイピーマネージメント,0
819,4120001284147,新規,0,2026-02-16,2026-02-16,株式会社レスポンスファースト,,株式会社,大阪府,大阪市北区,本庄西２丁目１５番９号,,27,127,5310073,,,,,,,2026-02-16,1,,,,,レスポンスファースト,0
820,4120001284155,新規,0,2026-02-16,2026-02-16,Ｒｅ　Ｄｅｓｉｇｎ株式会社,,株式会社,大阪府,大阪市中央区,城見２丁目１番６１号ツイン２１ＭＩＤタワー３５階,,27,128,5400001,,,,,,,2026-02-16,1,,,,,リデザイン,0
833,4130001081618,新規,0,2026-02-16,2026-02-16,株式会社オオジ電工,,株式会社,京都府,京都市伏見区,横大路富ノ森町７０番地１４,,26,109,6128257,,,,,,,2026-02-16,1,,,,,オオジデンコウ,0
836,4130003011151,新規,0,2026-02-16,2026-02-16,合同会社ぎをん福志,,合同会社,京都府,京都市東山区,祇園町南側５７０番地１２０,,26,105,6050074,,,,,,,2026-02-16,1,,,,,ギヲンフクシ,0
840,4140001141569,新規,0,2026-02-16,2026-02-16,神姫興和アークライズ株式会社,,株式会社,兵庫県,加古川市,平岡町土山７５３番地の１３,,28,210,6750104,,,,,,,2026-02-16,1,,,,,シンキコウワアークライズ,0
849,4180001170688,新規,0,2026-02-16,2026-02-16,株式会社泰斗,,株式会社,愛知県,東海市,加木屋町冬至池４番地５２６,,23,222,4770032,,,,,,,2026-02-16,1,,,,,タイト,0
850,4180003029775,新規,0,2026-02-16,2026-02-16,岡尾コンサルティング合同会社,,合同会社,愛知県,名古屋市中村区,名駅４丁目２４番５号第２森ビル４０１,,23,105,4500002,,,,,,,2026-02-16,1,,,,,オカオコンサルティング,0
869,4290001113124,新規,0,2026-02-16,2026-02-16,株式会社一紗,,株式会社,福岡県,筑後市,大字上北島７４番地１,,40,211,8330033,,,,,,,2026-02-16,1,,,,,イッサ,0
870,4290001113132,新規,0,2026-02-16,2026-02-16,武田企画株式会社,,株式会社,福岡県,福岡市城南区,別府団地１番５０２号,,40,136,8140106,,,,,,,2026-02-16,1,,,,,タケダキカク,0
871,4290001113181,新規,0,2026-02-16,2026-02-16,しばイヌベーション株式会社,,株式会社,福岡県,福岡市中央区,天神２丁目２番１２号Ｔ＆Ｊビルディング７Ｆ,,40,133,8100001,,,,,,,2026-02-16,1,,,,,,0
874,4290003018073,新規,0,2026-02-16,2026-02-16,合同会社つばきの輪,,合同会社,福岡県,福岡市早良区,原２丁目１３番５６－１３０３号,,40,137,8140022,,,,,,,2026-02-16,1,,,,,ツバキノワ,0
882,4340003005099,新規,0,2026-02-16,2026-02-16,合同会社サーキュラーコミュニティ,,合同会社,鹿児島県,薩摩川内市,五代町８０６４番地４,,46,215,8950066,,,,,,,2026-02-16,1,,,,,サーキュラーコミュニティ,0
886,4370001053477,新規,0,2026-02-16,2026-02-16,株式会社ワイズフードエンターテイメント,,株式会社,宮城県,仙台市青葉区,東勝山３丁目７番３５号ライオンズマンション東勝山７０６,,04,101,9810923,,,,,,,2026-02-16,1,,,,,ワイズフードエンターテイメント,0
908,4470001021093,新規,0,2026-02-16,2026-02-16,島島島株式会社,,株式会社,香川県,小豆郡土庄町,甲５１６５番地２１６,,37,322,7614101,,,,,,,2026-02-16,1,,,,,トトト,0
913,4700150134457,新規,0,2026-02-16,2026-02-16,ＭＡＸＴＲＹ　ＴＲＡＤＩＮＧ　ＰＶＴ．ＬＴＤ,,外国会社等,千葉県,長生郡長生村,小泉１３１４番地４０,,12,423,2994347,スリランカ民主社会主義共和国、キャンディ、カトゥガストタ、マディゲ、ウダタラウィンナ、１４番地,,,,,,2026-02-16,1,,,,,マツクストライトレーデイングプライベートリミテツド,0
914,4700150134465,新規,0,2026-02-16,2026-02-16,ＦＣＯ　ＭＡ　Ｖ　ＧＰ　ＬＬＣ,,外国会社等,,,,,,,,１２０９オレンジストリート、ウィルミントン、デラウェア州、１９８０１、Ｕ．Ｓ．Ａ,,,,,,2026-02-16,1,,,,,エフシーオーエムエーブイジーピーエルエルシー,0
915,4700150134473,新規,0,2026-02-16,2026-02-16,幸田荻谷土地区画整理組合,,その他,愛知県,額田郡幸田町,大字菱池字元林１番地１,,23,501,4440113,,,,,,,2026-02-16,1,,,,,コウタオギヤトチクカクセイリクミアイ,0
923,5010001262699,新規,0,2026-02-16,2026-02-16,株式会社Ｃｌａｃｅ,,株式会社,東京都,中央区,銀座１丁目２２番１１号銀座大竹ビジデンス２Ｆ,,13,102,1040061,,,,,,,2026-02-16,1,,,,,クレイス,0
924,5010001262798,新規,0,2026-02-16,2026-02-16,ＳＡＣ株式会社,,株式会社,東京都,中央区,銀座１丁目１２－４Ｎ＆ＥＢＬＤ．７階,,13,102,1040061,,,,,,,2026-02-16,1,,,,,エスエーシー,0
925,5010001262848,新規,0,2026-02-16,2026-02-16,株式会社ＲＥＸ,,株式会社,東京都,千代田区,丸の内１丁目９番２号－グラントウキョウサウスタワー１１階,,13,101,1000005,,,,,,,2026-02-16,1,,,,,レックス,0
926,5010001262856,新規,0,2026-02-16,2026-02-16,株式会社ずうこむ,,株式会社,東京都,文京区,本郷５丁目１番１１号ＫＩＩＨＯＵＳＥ２０２,,13,105,1130033,,,,,,,2026-02-16,1,,,,,ズウコム,0
927,5010001262897,新規,0,2026-02-16,2026-02-16,株式会社ＪＦＷ,,株式会社,東京都,中央区,銀座１丁目１２番４号Ｎ＆ＥＢＬＤ．６Ｆ,,13,102,1040061,,,,,,,2026-02-16,1,,,,,ジェイエフダブリュー,0
928,5010003050383,新規,0,2026-02-16,2026-02-16,ｒａｒａｒａ’ｓｔｕｄｉｏ合同会社,,合同会社,東京都,中央区,日本橋人形町２丁目１４番１３号タカオビル３階,,13,102,1030013,,,,,,,2026-02-16,1,,,,,ラララスタジオ,0
929,5010003050391,新規,0,2026-02-16,2026-02-16,合同会社Ｈａｒａｄａｎｃｅ　Ｊａｐａｎ,,合同会社,東京都,中央区,銀座１丁目１２番４号Ｎ＆Ｅ・ＢＬＤ７階,,13,102,1040061,,,,,,,2026-02-16,1,,,,,ハラダンスジャパン,0
936,5010401196489,新規,0,2026-02-16,2026-02-16,ＴＭＤＮ株式会社,,株式会社,東京都,港区,赤坂９丁目７番１号東京ミッドタウン・タワー,,13,103,1070052,,,,,,,2026-02-16,1,,,,,ティーエムディーエヌ,0
937,5010401196522,新規,0,2026-02-16,2026-02-16,株式会社Ｐｒｉｍｅ　Ｅｎｖｉｓｉｏｎ,,株式会社,東京都,港区,南青山３丁目１番３６号青山丸竹ビル６Ｆ,,13,103,1070062,,,,,,,2026-02-16,1,,,,,プライムエンビジョン,0
938,5010401196571,新規,0,2026-02-16,2026-02-16,株式会社ＭＥＤＩＡＴＯＲＳ,,株式会社,東京都,港区,西麻布１丁目４番３１号アルト第一ビル２０１,,13,103,1060031,,,,,,,2026-02-16,1,,,,,メディエイターズ,0
945,5010403037336,新規,0,2026-02-16,2026-02-16,合同会社シンカ,,合同会社,東京都,港区,元赤坂１丁目１番７－１２０９号株式会社赤坂国際会計内,,13,103,1070051,,,,,,,2026-02-16,1,,,,,シンカ,0
949,5010405025339,新規,0,2026-02-16,2026-02-16,ジー・エイ・ワン・レジデンス・フィフティーン・ホールディング一般社団法人,,その他の設立登記法人,東京都,港区,虎ノ門５丁目１番４号,,13,103,1050001,,,,,,,2026-02-16,1,,,,,ジーエイワンレジデンスフィフティーンホールディング,0
951,5010501055446,新規,0,2026-02-16,2026-02-16,ＧＷ物流株式会社,,株式会社,東京都,台東区,東上野２丁目２番１号品田ビル３階,,13,106,1100015,,,,,,,2026-02-16,1,,,,,ジーダブリューブツリュウ,0
958,5010803005693,新規,0,2026-02-16,2026-02-16,合同会社Ｈ‐ｂａｓｅ,,合同会社,東京都,大田区,上池台２丁目１８番１２号,,13,111,1450064,,,,,,,2026-02-16,1,,,,,アッシュベース,0
968,5010903010627,新規,0,2026-02-16,2026-02-16,合同会社吉成早都子,,合同会社,東京都,世田谷区,弦巻５丁目１番３３号２０１,,13,112,1540016,,,,,,,2026-02-16,1,,,,,ヨシナリサトコ,0
973,5011001175296,新規,0,2026-02-16,2026-02-16,株式会社ＹＯＺＨＡＮ　Ｗｏｒｋｓ,,株式会社,東京都,渋谷区,広尾１丁目２番地１号ヒカリビル４階,,13,113,1500012,,,,,,,2026-02-16,1,,,,,ヨウザンワークス,0
974,5011001175354,新規,0,2026-02-16,2026-02-16,株式会社天雪,,株式会社,東京都,目黒区,青葉台１丁目２２番１０号クレヴィア中目黒９０１,,13,110,1530042,,,,,,,2026-02-16,1,,,,,テンセツ,0
975,5011001175445,新規,0,2026-02-16,2026-02-16,ＷｉｔｈＰａｗＬｉｆｅ株式会社,,株式会社,東京都,渋谷区,神宮前６丁目２３－４桑野ビル２階,,13,113,1500001,,,,,,,2026-02-16,1,,,,,ウィズパウライフ,0
976,5011001175486,新規,0,2026-02-16,2026-02-16,株式会社ＮｅｘｔＴｅｃｈ,,株式会社,東京都,渋谷区,道玄坂１丁目１０番８号渋谷道玄坂東急ビル２Ｆ－Ｃ,,13,113,1500043,,,,,,,2026-02-16,1,,,,,ネクストテック,0
978,5011003023528,新規,0,2026-02-16,2026-02-16,合同会社ＰｏｗｅｒＣｈａｔ,,合同会社,東京都,渋谷区,円山町５番５号Ｎａｖｉ渋谷Ｖ３階,,13,113,1500044,,,,,,,2026-02-16,1,,,,,パワーチャット,0
979,5011003023536,新規,0,2026-02-16,2026-02-16,合同会社ＭＯＬＭＯＣＯ,,合同会社,東京都,渋谷区,円山町５番３号ＭＩＥＵＸ渋谷ビル８階,,13,113,1500044,,,,,,,2026-02-16,1,,,,,モルモコ,0
980,5011005011365,新規,0,2026-02-16,2026-02-16,一般社団法人日本小学生バレーボール連盟,,その他の設立登記法人,東京都,渋谷区,富ヶ谷１丁目８番３号,,13,113,1510063,,,,,,,2026-02-16,1,,,,,ニホンショウガクセイバレーボールレンメイ,0
991,5011203004947,新規,0,2026-02-16,2026-02-16,合同会社民俗建築研究所,,合同会社,東京都,中野区,弥生町４丁目２９番８号アトラップレーブ１０２,,13,114,1640013,,,,,,,2026-02-16,1,,,,,ミンゾクケンチクケンキュウジョ,0
996,5012403007616,新規,0,2026-02-16,2026-02-16,合同会社ＭｅＬａｂ,,合同会社,東京都,狛江市,東和泉３丁目１４番４号メゾンカナール２０２,,13,219,2010014,,,,,,,2026-02-16,1,,,,,ミーラボ,0
999,5012701019321,新規,0,2026-02-16,2026-02-16,株式会社Ｄａｉｙｕ電気,,株式会社,東京都,小平市,小川町１丁目９９０番地の３,,13,211,1870032,,,,,,,2026-02-16,1,,,,,ダイユーデンキ,0
1001,5012801024535,新規,0,2026-02-16,2026-02-16,ＲＹＵ‐Ｓ株式会社,,株式会社,東京都,昭島市,朝日町２丁目４番１９－３０２号,,13,207,1960025,,,,,,,2026-02-16,1,,,,,リューズ,0
1012,5020001167138,新規,0,2026-02-16,2026-02-16,ＧｏＩＮＧＲＥＥＮ株式会社,,株式会社,神奈川県,川崎市高津区,坂戸３丁目２番１号かながわサイエンスパーク西棟２階,,14,134,2130012,,,,,,,2026-02-16,1,,,,,ゴーイングリーン,0
1013,5020001167146,新規,0,2026-02-16,2026-02-16,株式会社ランス,,株式会社,神奈川県,横浜市保土ケ谷区,岩井町４７６番地８えるまやＢ１,,14,106,2400023,,,,,,,2026-02-16,1,,,,,ランス,0
1016,5020003030302,新規,0,2026-02-16,2026-02-16,ＧＯＯＤＰＡＧＥ合同会社,,合同会社,神奈川県,横浜市神奈川区,金港町５－１４クアドリフォリオ８階,,14,102,2210056,,,,,,,2026-02-16,1,,,,,グッドページ,0
1017,5020003030376,新規,0,2026-02-16,2026-02-16,エムビーコンサル合同会社,,合同会社,神奈川県,横浜市保土ケ谷区,権太坂３丁目５番４１号,,14,106,2400026,,,,,,,2026-02-16,1,,,,,エムビーコンサル,0
1018,5020003030401,新規,0,2026-02-16,2026-02-16,合同会社ＴＲ,,合同会社,神奈川県,横浜市西区,北幸２丁目１０番地４８号むつみビル３階,,14,103,2200004,,,,,,,2026-02-16,1,,,,,ティーアール,0
1020,5021001087524,新規,0,2026-02-16,2026-02-16,ねこのて株式会社,,株式会社,神奈川県,小田原市,荻窪４６３番地の３アーバンシティ小田原荻窪７０３号室,,14,206,2500042,,,,,,,2026-02-16,1,,,,,ネコノテ,0
1021,5021001087532,新規,0,2026-02-16,2026-02-16,株式会社エスシープランニング,,株式会社,神奈川県,小田原市,南鴨宮３丁目１１番１０号,,14,206,2500875,,,,,,,2026-02-16,1,,,,,エスシープランニング,0
1025,5030001171031,新規,0,2026-02-16,2026-02-16,株式会社Ｂｒｙｅｘ,,株式会社,埼玉県,さいたま市南区,辻４丁目２０番１９－２号,00142576,11,108,3360026,,,,,,,2026-02-16,1,,,,,ブライエックス,0
1034,5040001142411,新規,0,2026-02-16,2026-02-16,ＭＧホールディングス株式会社,,株式会社,千葉県,千葉市緑区,土気町２９８番地９,,12,105,2670061,,,,,,,2026-02-16,1,,,,,エムジーホールディングス,0
1035,5040001142527,新規,0,2026-02-16,2026-02-16,株式会社ヤリタビル,,株式会社,千葉県,千葉市中央区,長洲２丁目８番２号,,12,101,2600854,,,,,,,2026-02-16,1,,,,,ヤリタビル,0
1040,5040003029499,新規,0,2026-02-16,2026-02-16,合同会社縁紡,,合同会社,千葉県,松戸市,胡録台１６９番地の１コーポ初美Ｆ棟２６号,,12,207,2710075,,,,,,,2026-02-16,1,,,,,エニツムグ,0
1057,5070001043838,新規,0,2026-02-16,2026-02-16,地域共創リンク株式会社,,株式会社,群馬県,前橋市,住吉町１丁目１３番２４号,,10,201,3710021,,,,,,,2026-02-16,1,,,,,チイキキョウソウリンク,0
1069,5080101026089,新規,0,2026-02-16,2026-02-16,株式会社Ｆｌｏｗ,,株式会社,静岡県,沼津市,大岡２８２２番地の６,,22,203,4100022,,,,,,,2026-02-16,1,,,,,フロー,0
1074,5100001039337,新規,0,2026-02-16,2026-02-16,ジェラソーレ株式会社,,株式会社,長野県,松本市,大字中山５７５８番地１,,20,202,3900823,,,,,,,2026-02-16,1,,,,,ジェラソーレ,0
1077,5100005013445,新規,0,2026-02-16,2026-02-16,一般社団法人プロチュア,,その他の設立登記法人,長野県,駒ヶ根市,赤須東１番３５号,,20,210,3994105,,,,,,,2026-02-16,1,,,,,プロチュア,0
1086,5120001284113,新規,0,2026-02-16,2026-02-16,夢双グループ株式会社,,株式会社,大阪府,大阪市此花区,酉島３丁目１５番３９号,,27,104,5540051,,,,,,,2026-02-16,1,,,,,ムソウグループ,0
1087,5120001284138,新規,0,2026-02-16,2026-02-16,株式会社アミューズジャパン,,株式会社,大阪府,大阪市生野区,新今里５丁目４番１３号,,27,116,5440001,,,,,,,2026-02-16,1,,,,,アミューズジャパン,0
1088,5120001284187,新規,0,2026-02-16,2026-02-16,株式会社ときと,,株式会社,大阪府,大阪市浪速区,下寺３丁目６番１４号,,27,111,5560001,,,,,,,2026-02-16,1,,,,,トキト,0
1089,5120001284253,新規,0,2026-02-16,2026-02-16,株式会社ＴＨＥ　Ｃ,,株式会社,大阪府,大阪市西区,北堀江１丁目１番２４号,,27,106,5500014,,,,,,,2026-02-16,1,,,,,ザシー,0
1092,5122001040165,新規,0,2026-02-16,2026-02-16,株式会社ポケット,,株式会社,大阪府,八尾市,南太子堂５丁目３番１６号ソレイユ太子１０１号,,27,212,5810056,,,,,,,2026-02-16,1,,,,,ポケット,0
1108,5170001018986,新規,0,2026-02-16,2026-02-16,株式会社大進商事,,株式会社,和歌山県,和歌山市,梅原６３８番地４６,,30,201,6408452,,,,,,,2026-02-16,1,,,,,タイシンショウジ,0
1120,5180001170638,新規,0,2026-02-16,2026-02-16,株式会社麦空,,株式会社,愛知県,丹羽郡扶桑町,大字柏森字天神３０１－１ラ・プルミエール２０３,,23,362,4800103,,,,,,,2026-02-16,1,,,,,ムギゾラ,0
1121,5180001170670,新規,0,2026-02-16,2026-02-16,株式会社志灯,,株式会社,愛知県,瀬戸市,西山町２丁目３０番地,,23,204,4890987,,,,,,,2026-02-16,1,,,,,シトウ,0
1124,5180003029766,新規,0,2026-02-16,2026-02-16,合同会社グローヴィア,,合同会社,愛知県,名古屋市中区,大須３丁目５番１号大須鈴木ビル８０２号,,23,106,4600011,,,,,,,2026-02-16,1,,,,,グローヴィア,0
1128,5180301040697,新規,0,2026-02-16,2026-02-16,株式会社リバイス,,株式会社,愛知県,刈谷市,板倉町１丁目６番地２,,23,210,4480801,,,,,,,2026-02-16,1,,,,,リバイス,0
1135,5230005009521,新規,0,2026-02-16,2026-02-16,農事組合法人櫛田東部,,その他の設立登記法人,富山県,射水市,荒町１７２番地,,16,211,9390412,,,,,,,2026-02-16,1,,,,,クシダトウブ,0
1138,5240001066169,新規,0,2026-02-16,2026-02-16,株式会社ＹＣ５１５,,株式会社,広島県,広島市中区,三川町９番１６号,,34,101,7300029,,,,,,,2026-02-16,1,,,,,ワイシーゴーイチゴー,0
1139,5240001066177,新規,0,2026-02-16,2026-02-16,株式会社ＨＡＮＡ,,株式会社,広島県,広島市中区,三川町８番１９－１１０６号,,34,101,7300029,,,,,,,2026-02-16,1,,,,,ハナ,0
1141,5240003007600,新規,0,2026-02-16,2026-02-16,合同会社ＰＥＴＳＹＭ,,合同会社,広島県,広島市安佐北区,可部南１丁目２２－３５－４,,34,106,7310223,,,,,,,2026-02-16,1,,,,,ペットシム,0
1143,5250003003904,新規,0,2026-02-16,2026-02-16,合同会社ＯＲＤＡＬＩＦＥ,,合同会社,山口県,熊毛郡田布施町,中央南１２番地３,,35,343,7421517,,,,,,,2026-02-16,1,,,,,オルダライフ,0
1146,5280001009578,新規,0,2026-02-16,2026-02-16,シーナリーオービット株式会社,,株式会社,島根県,邑智郡邑南町,矢上４６０５番地,,32,449,6960103,,,,,,,2026-02-16,1,,,,,シーナリーオービット,0
1148,5290001113180,新規,0,2026-02-16,2026-02-16,株式会社フクルート,,株式会社,福岡県,福岡市博多区,博多駅前１丁目２３－２ＰａｒｋＦｒｏｎｔ１丁目５Ｆ－Ｂ,,40,132,8120011,,,,,,,2026-02-16,1,,,,,フクルート,0
1156,5290003018056,新規,0,2026-02-16,2026-02-16,合同会社ＭＮ　ＷＯＲＫ,,合同会社,福岡県,福津市,津屋崎４丁目８番３号,,40,224,8113304,,,,,,,2026-02-16,1,,,,,エムエヌワーク,0
1158,5290005020002,新規,0,2026-02-16,2026-02-16,医療法人みとま歯科,,その他の設立登記法人,福岡県,福岡市東区,三苫６丁目１３－３,,40,131,8110201,,,,,,,2026-02-16,1,,,,,ミトマシカ,0
1174,5380001035878,新規,0,2026-02-16,2026-02-16,株式会社ハタカラ,,株式会社,福島県,大沼郡会津美里町,雀林字川原１４３５番,,07,447,9696274,,,,,,,2026-02-16,1,,,,,ハタカラ,0
1184,5440005002810,新規,0,2026-02-16,2026-02-16,一般社団法人せたな開発機構,,その他の設立登記法人,北海道,久遠郡せたな町,瀬棚区三本杉１６０番地,,01,371,0494821,,,,,,,2026-02-16,1,,,,,セタナカイハツキコウ,0
1188,5500001026757,新規,0,2026-02-16,2026-02-16,株式会社新居浜葬儀社,,株式会社,愛媛県,新居浜市,桜木町１番４２号,,38,205,7920865,,,,,,,2026-02-16,1,,,,,ニイハマソウギシャ,0
1190,5700150134464,新規,0,2026-02-16,2026-02-16,ＦＣＯ　Ｆｕｎｄ　Ｖ　ＧＰ　ＬＬＣ,,外国会社等,,,,,,,,１２０９オレンジストリート、ウィルミントン、デラウェア州、１９８０１、Ｕ．Ｓ．Ａ,,,,,,2026-02-16,1,,,,,エフシーオーフアンドブイジーピーエルエルシー,0
1201,6010001262566,新規,0,2026-02-16,2026-02-16,株式会社ＤｅｅｐＴｅｃｈＣａｒｅｅｒ,,株式会社,東京都,中央区,月島１丁目１５番７号パシフィックマークス月島６階（ＢＩＺｃｏｍｆｏｒｔ月島）,,13,102,1040052,,,,,,,2026-02-16,1,,,,,ディープテックキャリア,0
1202,6010001262616,新規,0,2026-02-16,2026-02-16,Ｅｍｉｎｇ株式会社,,株式会社,東京都,中央区,銀座１丁目１２番４号Ｎ＆ＥＢＬＤ．６Ｆ,,13,102,1040061,,,,,,,2026-02-16,1,,,,,エミング,0
1203,6010001262657,新規,0,2026-02-16,2026-02-16,Ｕ‐Ｆａｃｔｏｒホールディングス株式会社,,株式会社,東京都,千代田区,麹町６丁目４－６ＴＳ麹町ビル５０３号室,,13,101,1020083,,,,,,,2026-02-16,1,,,,,ユーファクターホールディングス,0
1204,6010001262698,新規,0,2026-02-16,2026-02-16,株式会社Ｔｒａｎｓｉｔｉｏｎ,,株式会社,東京都,中央区,日本橋２丁目１６－４ｒｅｍｉｘ日本橋６階,,13,102,1030027,,,,,,,2026-02-16,1,,,,,トランジション,0
1205,6010001262748,新規,0,2026-02-16,2026-02-16,ＨＭＳ株式会社,,株式会社,東京都,千代田区,岩本町２丁目１３－１旭恒千代田ビル,,13,101,1010032,,,,,,,2026-02-16,1,,,,,エイチエムエス,0
1206,6010001262789,新規,0,2026-02-16,2026-02-16,株式会社ＳＴＡＴＩＥＬ,,株式会社,東京都,千代田区,神田須田町１丁目７番８号ＶＯＲＴ秋葉原ＩＶ２Ｆ,00142574,13,101,1010041,,,,,,,2026-02-16,1,,,,,スタティエル,0
1207,6010001262822,新規,0,2026-02-16,2026-02-16,株式会社まじん,,株式会社,東京都,中央区,晴海５丁目３番４－７２１号,,13,102,1040053,,,,,,,2026-02-16,1,,,,,マジン,0
1208,6010001262830,新規,0,2026-02-16,2026-02-16,ＮＯＴ　Ａ　ＴＲＡＶＥＬ株式会社,,株式会社,東京都,千代田区,六番町６番地６プレミスト六番町６０１号,,13,101,1020085,,,,,,,2026-02-16,1,,,,,ノットアトラベル,0
1209,6010001262863,新規,0,2026-02-16,2026-02-16,株式会社おみやげカンパニーＨＤ,,株式会社,東京都,千代田区,九段北３丁目２番４号,,13,101,1020073,,,,,,,2026-02-16,1,,,,,オミヤゲカンパニーホールディングス,0
1216,6010003050358,新規,0,2026-02-16,2026-02-16,合同会社ＯＫＩ,,合同会社,東京都,千代田区,神田須田町１丁目７番８号ＶＯＲＴ秋葉原ＩＶ２Ｆ,00142575,13,101,1010041,,,,,,,2026-02-16,1,,,,,オーケーアイ,0
1217,6010003050366,新規,0,2026-02-16,2026-02-16,Ｋｉｎｎｅｋｏ　Ｗｏｒｋｓ合同会社,,合同会社,東京都,中央区,銀座１丁目１２－４Ｎ＆ＥＢＬＤ．６Ｆ,,13,102,1040061,,,,,,,2026-02-16,1,,,,,キンネコワークス,0
1218,6010003050399,新規,0,2026-02-16,2026-02-16,Ｔａｓａｉ　Ｔｅｃｈｎｏｌｏｇｉｅｓ合同会社,,合同会社,東京都,中央区,日本橋室町１丁目１１－１２日本橋水野ビル７階,,13,102,1030022,,,,,,,2026-02-16,1,,,,,タサイテクノロジーズ,0
1220,6010103002762,新規,0,2026-02-16,2026-02-16,合同会社福田技巧,,合同会社,東京都,八王子市,中野上町３丁目２５番５１号,,13,201,1920041,,,,,,,2026-02-16,1,,,,,フクダギコウ,0
1224,6010401196455,新規,0,2026-02-16,2026-02-16,株式会社Ｔｅａｒｉｃｅ,,株式会社,東京都,港区,南青山１丁目１１番３０号,,13,103,1070062,,,,,,,2026-02-16,1,,,,,テイアリス,0
1225,6010401196471,新規,0,2026-02-16,2026-02-16,株式会社三浜商事,,株式会社,東京都,港区,南麻布１丁目６番４号,,13,103,1060047,,,,,,,2026-02-16,1,,,,,ミツハマショウジ,0
1226,6010401196488,新規,0,2026-02-16,2026-02-16,株式会社Ｄｉｇｉｔｒａｎ　Ｊａｐａｎ,,株式会社,東京都,港区,六本木４丁目５－７スタジオＤ４階３０１号室,,13,103,1060032,,,,,,,2026-02-16,1,,,,,デジトランジャパン,0
1232,6010405025346,新規,0,2026-02-16,2026-02-16,大阪・ＪＤ・ホテル・インベストメンツ特定目的会社,,その他の設立登記法人,東京都,港区,虎ノ門３丁目２２番１０－２０１号,,13,103,1050001,,,,,,,2026-02-16,1,,,,,オオサカジェイディーホテルインベストメンツ,0
1247,6010901058956,新規,0,2026-02-16,2026-02-16,株式会社Ｓコンサルティング,,株式会社,東京都,世田谷区,東玉川１丁目５番１１号,,13,112,1580084,,,,,,,2026-02-16,1,,,,,エスコンサルティング,0
1248,6010901058972,新規,0,2026-02-16,2026-02-16,株式会社トキョンチュ,,株式会社,東京都,世田谷区,代田１丁目４７番１３号,,13,112,1550033,,,,,,,2026-02-16,1,,,,,トキョンチュ,0
1253,6011001175056,新規,0,2026-02-16,2026-02-16,株式会社エフティー,,株式会社,東京都,渋谷区,代官山町１－１ＧＲＡＶＡ代官山１階,,13,113,1500034,,,,,,,2026-02-16,1,,,,,エフティー,0
1256,6011003023650,新規,0,2026-02-16,2026-02-16,Ｌｕｎａｉｒｏ合同会社,,合同会社,東京都,渋谷区,神宮前６丁目２３番４号桑野ビル２階,,13,113,1500001,,,,,,,2026-02-16,1,,,,,ルナイロ,0
1262,6011101114748,新規,0,2026-02-16,2026-02-16,株式会社ＯＮＤＡ,,株式会社,東京都,新宿区,西新宿３丁目３番１３号西新宿水間ビル２Ｆ,,13,104,1600023,,,,,,,2026-02-16,1,,,,,オンダ,0
1263,6011101115003,新規,0,2026-02-16,2026-02-16,Ｖｉｘｉｓ株式会社,,株式会社,東京都,新宿区,西新宿６丁目１２－４コイトビル２０１,,13,104,1600023,,,,,,,2026-02-16,1,,,,,ヴィクシス,0
1265,6011103017081,新規,0,2026-02-16,2026-02-16,ソーラージオ合同会社,,合同会社,東京都,新宿区,富久町８番２６号東京ユナイテッド綜合事務所内,,13,104,1620067,,,,,,,2026-02-16,1,,,,,ソーラージオ,0
1268,6011701029197,新規,0,2026-02-16,2026-02-16,ＮＥＳＴＯＲＹ株式会社,,株式会社,東京都,江戸川区,松島４丁目１１―１１,,13,123,1320031,,,,,,,2026-02-16,1,,,,,ネストリー,0
1272,6012403007615,新規,0,2026-02-16,2026-02-16,合同会社Ｌａｃｙ,,合同会社,東京都,狛江市,中和泉３丁目３１－９,,13,219,2010012,,,,,,,2026-02-16,1,,,,,レイシー,0
1281,6020001017275,新規,0,2026-02-16,2026-02-16,コクサイ総業株式会社,,株式会社,神奈川県,横浜市鶴見区,梶山２丁目２８番２８号,,14,101,2300072,,,,,,,2026-02-16,1,,,,,コクサイソウギョウ,0
1282,6020001167038,新規,0,2026-02-16,2026-02-16,株式会社Ｔ＆Ｓ,,株式会社,神奈川県,横浜市青葉区,荏子田２丁目２３番地２２,,14,117,2250005,,,,,,,2026-02-16,1,,,,,ティーアンドエス,0
1283,6020001167079,新規,0,2026-02-16,2026-02-16,株式会社ＫＤＭ,,株式会社,神奈川県,横浜市神奈川区,沢渡２１番地,,14,102,2210844,,,,,,,2026-02-16,1,,,,,ケーディーエム,0
1285,6020003030292,新規,0,2026-02-16,2026-02-16,合同会社ネクストステップ,,合同会社,神奈川県,横浜市港北区,新吉田東３丁目２５－１－１０２,,14,109,2230058,,,,,,,2026-02-16,1,,,,,ネクストステップ,0
1286,6020003030342,新規,0,2026-02-16,2026-02-16,合同会社ソレイユ,,合同会社,神奈川県,横浜市西区,浅間町１丁目４番地３ウィザードビル４０２,,14,103,2200072,,,,,,,2026-02-16,1,,,,,ソレイユ,0
1287,6020003030383,新規,0,2026-02-16,2026-02-16,上組日吉原蓄電事業合同会社,,合同会社,神奈川県,横浜市中区,北仲通３丁目３１番地,,14,104,2310003,,,,,,,2026-02-16,1,,,,,カミグミヒヨシバルチクデンジギョウ,0
1289,6021001087597,新規,0,2026-02-16,2026-02-16,ＩＺＵＭＩＹＡ　ＧＲＯＵＰ　ＨＤ株式会社,,株式会社,神奈川県,小田原市,飯泉７３６番地の１,,14,206,2500863,,,,,,,2026-02-16,1,,,,,イズミヤグループホールディングス,0
1293,6021003017164,新規,0,2026-02-16,2026-02-16,合同会社けんぴろ,,合同会社,神奈川県,藤沢市,遠藤７３２番地の１７,,14,205,2520816,,,,,,,2026-02-16,1,,,,,ケンピロ,0
1296,6030001171039,新規,0,2026-02-16,2026-02-16,株式会社ワン’Ｓ,,株式会社,埼玉県,熊谷市,船木台１丁目１０番地４,,11,202,3690108,,,,,,,2026-02-16,1,,,,,ワンズ,0
1303,6040001142526,新規,0,2026-02-16,2026-02-16,株式会社Ｃｉｓｕｉ,,株式会社,千葉県,市川市,大野町３丁目１７６１番地１（ディオラシス３０４号）,,12,203,2720805,,,,,,,2026-02-16,1,,,,,シスイ,0
1315,6070001043820,新規,0,2026-02-16,2026-02-16,光山テクノロジー株式会社,,株式会社,群馬県,渋川市,吹屋１９４番地１,,10,208,3770203,,,,,,,2026-02-16,1,,,,,コウザンテクノロジー,0
1318,6080401028445,新規,0,2026-02-16,2026-02-16,株式会社リング,,株式会社,静岡県,浜松市中央区,佐藤１丁目１７番５号,,22,138,4300807,,,,,,,2026-02-16,1,,,,,リング,0
1329,6120001283997,新規,0,2026-02-16,2026-02-16,株式会社クローバー,,株式会社,大阪府,大阪市北区,梅田１丁目２番２号大阪駅前第２ビル１２－１２,,27,127,5300001,,,,,,,2026-02-16,1,,,,,クローバー,0
1330,6120001284145,新規,0,2026-02-16,2026-02-16,アオネプラス株式会社,,株式会社,大阪府,大阪市北区,西天満２丁目１０－２幸田ビル５階,,27,127,5300047,,,,,,,2026-02-16,1,,,,,アオネプラス,0
1331,6120001284153,新規,0,2026-02-16,2026-02-16,株式会社匠パートナーズ,,株式会社,大阪府,大阪市都島区,片町１丁目５‐６サンクタス大阪城１４０１,,27,102,5340025,,,,,,,2026-02-16,1,,,,,タクミパートナーズ,0
1332,6120001284161,新規,0,2026-02-16,2026-02-16,株式会社ウィスクア日本,,株式会社,大阪府,大阪市中央区,内平野町２丁目２番７大阪文化会館５０５室,,27,128,5400037,,,,,,,2026-02-16,1,,,,,ウィスクアニホン,0
1335,6120003031883,新規,0,2026-02-16,2026-02-16,合同会社ジョブぴた,,合同会社,大阪府,大阪市西区,北堀江１丁目－１７－１０ＣＲＥＯＫＩＴＡＨＯＲＩＥ１００１,,27,106,5500014,,,,,,,2026-02-16,1,,,,,ジョブピタ,0
1336,6120003031900,新規,0,2026-02-16,2026-02-16,オヤスミアートホテル合同会社,,合同会社,大阪府,大阪市中央区,道頓堀１丁目東７－７ＯｙａｓｕｍｉＡｒｔＨｏｔｅｌ,,27,128,5420071,,,,,,,2026-02-16,1,,,,,オヤスミアートホテル,0
1349,6122001040148,新規,0,2026-02-16,2026-02-16,株式会社ＳＹｓｔｕｄｉｏ,,株式会社,大阪府,東大阪市,中石切町１丁目１番３５号,,27,227,5798014,,,,,,,2026-02-16,1,,,,,エスワイスタジオ,0
1357,6130003011158,新規,0,2026-02-16,2026-02-16,Ｂｏｎｄｌｙ合同会社,,合同会社,京都府,京都市下京区,七条通油小路東入大黒町２２７番地第２キョートビル４０２,,26,106,6008223,,,,,,,2026-02-16,1,,,,,ボンドリー,0
1378,6180001170661,新規,0,2026-02-16,2026-02-16,キタムラホールディングス株式会社,,株式会社,愛知県,名古屋市天白区,野並１丁目１００番地,,23,116,4680045,,,,,,,2026-02-16,1,,,,,キタムラホールディングス,0
1379,6180001170678,新規,0,2026-02-16,2026-02-16,株式会社ＷＯＲＬＤ　ＡＴＩＶＯ,,株式会社,愛知県,名古屋市北区,下飯田町４丁目７１番地,,23,103,4620865,,,,,,,2026-02-16,1,,,,,ワールドアチーボ,0
1384,6180305009770,新規,0,2026-02-16,2026-02-16,特定非営利活動法人防災サポートみかわ,,その他の設立登記法人,愛知県,岡崎市,美合町字生田１９番地２,,23,202,4440804,,,,,,,2026-02-16,1,,,,,ボウサイサポートミカワ,0
1385,6190001032902,新規,0,2026-02-16,2026-02-16,ヒシキデンキ株式会社,,株式会社,三重県,いなべ市,員弁町北金井１８５８番地２,,24,214,5110223,,,,,,,2026-02-16,1,,,,,ヒシキデンキ,0
1387,6200003007231,新規,0,2026-02-16,2026-02-16,合同会社ツチヤ諧調研究所,,合同会社,岐阜県,可児市,緑ケ丘２丁目６４番地の１,,21,214,5090231,,,,,,,2026-02-16,1,,,,,ツチヤカイチョウケンキュウジョ,0
1395,6240005016045,新規,0,2026-02-16,2026-02-16,一般社団法人よりどころ,,その他の設立登記法人,広島県,尾道市,向島町１３９１番地１５,,34,205,7220073,,,,,,,2026-02-16,1,,,,,ヨリドコロ,0
1399,6270003001839,新規,0,2026-02-16,2026-02-16,合同会社ＨＹＴ,,合同会社,鳥取県,倉吉市,上井３１６－１１,,31,203,6820021,,,,,,,2026-02-16,1,,,,,エイチワイティー,0
1400,6280001009585,新規,0,2026-02-16,2026-02-16,株式会社Ｙ’ｓ　ｄｅｓｉｇｎ　ｗｏｒｋｓ,,株式会社,島根県,江津市,嘉久志町イ８９９番地６６洋心館２号棟Ｂ号室,,32,207,6950016,,,,,,,2026-02-16,1,,,,,ワイズデザインワークス,0
1407,6290001113130,新規,0,2026-02-16,2026-02-16,彩咲ＨＯＴＥＬ株式会社,,株式会社,福岡県,福岡市早良区,百道３丁目１６番１０号ラ・リーサ百道２０２号,,40,137,8140006,,,,,,,2026-02-16,1,,,,,アヤサキホテル,0
1408,6290003017998,新規,0,2026-02-16,2026-02-16,Ｕｎｉｑｕｅ　Ｂｕｎｎｙ合同会社,,合同会社,福岡県,糸島市,加布里２丁目１１番７号,,40,230,8191124,,,,,,,2026-02-16,1,,,,,ユニークバニー,0
1413,6290801032249,新規,0,2026-02-16,2026-02-16,アドトレジャーズ株式会社,,株式会社,福岡県,北九州市小倉北区,馬借２丁目１番２２－３０２号,,40,106,8020077,,,,,,,2026-02-16,1,,,,,アドトレジャーズ,0
1415,6300003002420,新規,0,2026-02-16,2026-02-16,合同会社ＭＡＨＯＲＯＢＡ,,合同会社,佐賀県,佐賀市,大和町久留間４９９８,,41,201,8490000,,,,,,,2026-02-16,1,,,,,マホロバ,0
1416,6310001019969,新規,0,2026-02-16,2026-02-16,株式会社Ｓ・Ｂジョイント,,株式会社,長崎県,諫早市,多良見町市布１５３０番地,,42,204,8590403,,,,,,,2026-02-16,1,,,,,エスビージョイント,0
1423,6350003005138,新規,0,2026-02-16,2026-02-16,合同会社八幡然,,合同会社,宮崎県,串間市,大字本城５１５１番地,,45,207,8880008,,,,,,,2026-02-16,1,,,,,ハチマンゼン,0
1429,6370001053475,新規,0,2026-02-16,2026-02-16,株式会社勝又資産管理,,株式会社,宮城県,仙台市太白区,八木山本町１丁目１７番地の５,,04,104,9820801,,,,,,,2026-02-16,1,,,,,カツマタシサンカンリ,0
1432,6380001035877,新規,0,2026-02-16,2026-02-16,ＴＡＬＬ　ＴＲＥＥ株式会社,,株式会社,福島県,本宮市,高木字駒込１３番地,,07,214,9691101,,,,,,,2026-02-16,1,,,,,トールツリー,0
1433,6390005009158,新規,0,2026-02-16,2026-02-16,特定非営利活動法人山形ストリートダンス協会,,その他の設立登記法人,山形県,山形市,あこや町２丁目２番１１号,,06,201,9900025,,,,,,,2026-02-16,1,,,,,ヤマガタストリートダンスキョウカイ,0
1441,6430005015408,新規,0,2026-02-16,2026-02-16,エクセルシオール札幌東２管理組合法人,,その他の設立登記法人,北海道,札幌市白石区,東札幌四条３丁目１番３３号,,01,104,0030004,,,,,,,2026-02-16,1,,,,,エクセルシオールサッポロヒガシツー,0
1443,6450001014857,新規,0,2026-02-16,2026-02-16,株式会社グレイン・フィール,,株式会社,北海道,上川郡美瑛町,字大村村山,,01,459,0710218,,,,,,,2026-02-16,1,,,,,グレインフィール,0
1445,6700150134463,新規,0,2026-02-16,2026-02-16,ＦＣＯ　ＢＴ　ＧＰ　ＬＬＣ,,外国会社等,,,,,,,,１２０９オレンジストリート、ウィルミントン、デラウェア州、１９８０１、Ｕ．Ｓ．Ａ,,,,,,2026-02-16,1,,,,,エフシーオービーテイージーピーエルエルシー,0
1446,6700150134471,新規,0,2026-02-16,2026-02-16,黒沢町内会,,その他,秋田県,秋田市,太平黒沢字払川２３番地,,05,201,0101105,,,,,,,2026-02-16,1,,,,,クロサワチヨウナイカイ,0
1454,7010001262524,新規,0,2026-02-16,2026-02-16,株式会社Ｄ‐ＳＡＩＴ,,株式会社,東京都,千代田区,九段南３丁目８番９－３０２号,,13,101,1020074,,,,,,,2026-02-16,1,,,,,ディサイト,0
1455,7010001262656,新規,0,2026-02-16,2026-02-16,Ｕ‐Ｄｒｅａｍｅｒｓ株式会社,,株式会社,東京都,千代田区,六番町７－１１ＥＳＣＡＬＩＥＲ六番町１Ｆ,,13,101,1020085,,,,,,,2026-02-16,1,,,,,ユードリーマーズ,0
1456,7010001262813,新規,0,2026-02-16,2026-02-16,株式会社ＨＴＡ,,株式会社,東京都,文京区,本郷５丁目８－３－４０９,,13,105,1130033,,,,,,,2026-02-16,1,,,,,エイチティーエー,0
1457,7010001262821,新規,0,2026-02-16,2026-02-16,株式会社トライフォース,,株式会社,東京都,中央区,銀座１丁目１２番４号Ｎ＆ＥＢＬＤ．６Ｆ,,13,102,1040061,,,,,,,2026-02-16,1,,,,,トライフォース,0
1458,7010001262870,新規,0,2026-02-16,2026-02-16,ツナガル明日株式会社,,株式会社,東京都,中央区,日本橋小伝馬町１４番６号６階,,13,102,1030001,,,,,,,2026-02-16,1,,,,,ツナガルアス,0
1469,7010003050349,新規,0,2026-02-16,2026-02-16,合同会社田中商店,,合同会社,東京都,中央区,銀座７丁目１５番８号タウンハイツ銀座４０６,,13,102,1040061,,,,,,,2026-02-16,1,,,,,タナカショウテン,0
1477,7010401196347,新規,0,2026-02-16,2026-02-16,株式会社ポリチェック,,株式会社,東京都,港区,浜松町２丁目１０番６号ＰＭＯ浜松町ＩＩＩ６階,00142577,13,103,1050013,,,,,,,2026-02-16,1,,,,,ポリチェック,0
1478,7010401196446,新規,0,2026-02-16,2026-02-16,株式会社Ｖｉｒｔｕｅ,,株式会社,東京都,港区,元麻布１丁目３番１－２１０３号,,13,103,1060046,,,,,,,2026-02-16,1,,,,,ヴァーチュー,0
1479,7010401196470,新規,0,2026-02-16,2026-02-16,ＨｅａｒｔＱＯＬ　Ｉｎｓｔｉｔｕｔｅ株式会社,,株式会社,東京都,港区,南青山５丁目１２番３号小田急南青山マンション６０１号,,13,103,1070062,,,,,,,2026-02-16,1,,,,,ハートキューオーエルインスティチュート,0
1480,7010401196495,新規,0,2026-02-16,2026-02-16,フォンティス・パートナーズ株式会社,,株式会社,東京都,港区,六本木３丁目１６番１２号六本木ＫＳビル５Ｆ,,13,103,1060032,,,,,,,2026-02-16,1,,,,,フォンティスパートナーズ,0
1481,7010401196578,新規,0,2026-02-16,2026-02-16,ルミナライズ株式会社,,株式会社,東京都,港区,北青山１丁目３番１号アールキューブ青山３階,,13,103,1070061,,,,,,,2026-02-16,1,,,,,ルミナライズ,0
1486,7010403037292,新規,0,2026-02-16,2026-02-16,合同会社とき,,合同会社,東京都,港区,虎ノ門１丁目２３番１号,,13,103,1050001,,,,,,,2026-02-16,1,,,,,トキ,0
1487,7010405025295,新規,0,2026-02-16,2026-02-16,一般社団法人インドパシフィックフューチャーアソシエーション,,その他の設立登記法人,東京都,港区,虎ノ門１丁目１７－１虎ノ門ヒルズビジネスタワー１５階,,13,103,1050001,,,,,,,2026-02-16,1,,,,,インドパシフィックフューチャーアソシエーション,0
1489,7010501055452,新規,0,2026-02-16,2026-02-16,バスドーム株式会社,,株式会社,東京都,台東区,駒形２丁目１－６,,13,106,1110043,,,,,,,2026-02-16,1,,,,,バスドーム,0
1501,7011001175402,新規,0,2026-02-16,2026-02-16,株式会社ＮＷ神宮前,,株式会社,東京都,渋谷区,神宮前５丁目４１番５号,,13,113,1500001,,,,,,,2026-02-16,1,,,,,エヌダブルジングウマエ,0
1502,7011001175419,新規,0,2026-02-16,2026-02-16,株式会社ＡＲＣＥＬＦ,,株式会社,東京都,渋谷区,上原１丁目３５－９ＹＹビル代々木上原第一（旧佐野ビル）２階,,13,113,1510064,,,,,,,2026-02-16,1,,,,,アークエルフ,0
1503,7011001175435,新規,0,2026-02-16,2026-02-16,株式会社ＭＵＲＡＮＡＯ,,株式会社,東京都,渋谷区,恵比寿南３丁目４番２号,,13,113,1500022,,,,,,,2026-02-16,1,,,,,ムラナオ,0
1505,7011003023534,新規,0,2026-02-16,2026-02-16,ステラ・カーム合同会社,,合同会社,東京都,目黒区,目黒本町２丁目１４番５－５０４号コスモリード目黒学芸大学イースト,,13,110,1520002,,,,,,,2026-02-16,1,,,,,ステラカーム,0
1506,7011003023542,新規,0,2026-02-16,2026-02-16,合同会社イグレック,,合同会社,東京都,目黒区,下目黒２丁目９番２－４２６号,,13,110,1530064,,,,,,,2026-02-16,1,,,,,イグレック,0
1507,7011003023658,新規,0,2026-02-16,2026-02-16,合同会社ＳＣホールディングス,,合同会社,東京都,渋谷区,道玄坂１丁目１０番８号渋谷道玄坂東急ビル２Ｆ－Ｃ,,13,113,1500043,,,,,,,2026-02-16,1,,,,,エスシーホールディングス,0
1509,7011101114755,新規,0,2026-02-16,2026-02-16,Ｂｌａｕ株式会社,,株式会社,東京都,新宿区,西新宿３丁目３番１３号西新宿水間ビル２Ｆ,,13,104,1600023,,,,,,,2026-02-16,1,,,,,ブラウ,0
1510,7011101115002,新規,0,2026-02-16,2026-02-16,ＬＥＯＲＩＳＥ株式会社,,株式会社,東京都,新宿区,西新宿６丁目１２－４コイトビル２０１,,13,104,1600023,,,,,,,2026-02-16,1,,,,,レオライズ,0
1526,7012403007614,新規,0,2026-02-16,2026-02-16,合同会社ピスタル,,合同会社,東京都,調布市,調布ケ丘１丁目１―３、Ｅ１１５,,13,208,1820021,,,,,,,2026-02-16,1,,,,,ピスタル,0
1534,7020001167128,新規,0,2026-02-16,2026-02-16,ＳＨＡＨＪＡＬＡＬ　ＧＬＯＢＡＬ株式会社,,株式会社,神奈川県,横浜市港北区,新横浜２丁目６番地２３金子第２ビル６階,,14,109,2220033,,,,,,,2026-02-16,1,,,,,シャージャラルグローバル,0
1535,7020001167144,新規,0,2026-02-16,2026-02-16,株式会社ワイエスエフ,,株式会社,神奈川県,横浜市中区,本牧ふ頭３番地ＵＳＳ内,,14,104,2310811,,,,,,,2026-02-16,1,,,,,ワイエスエフ,0
1538,7020003030201,新規,0,2026-02-16,2026-02-16,合同会社Ｆｅｒｍｅｎｔ　Ｊｏｕｒｎｅｙ　ＨＡＫＫＯ,,合同会社,神奈川県,横浜市神奈川区,金港町５－１４クアドリフォリオ８階,,14,102,2210056,,,,,,,2026-02-16,1,,,,,ファーメントジャーニーハッコー,0
1539,7020003030408,新規,0,2026-02-16,2026-02-16,ＮＯＡＳ合同会社,,合同会社,神奈川県,横浜市中区,翁町２丁目８―５関内エメラルドビル３０２,,14,104,2310028,,,,,,,2026-02-16,1,,,,,ノアス,0
1541,7021001087530,新規,0,2026-02-16,2026-02-16,株式会社オオヌキライフユアーズ,,株式会社,神奈川県,厚木市,まつかげ台５４番１３号,,14,212,2430207,,,,,,,2026-02-16,1,,,,,オオヌキライフユアーズ,0
1545,7021003017155,新規,0,2026-02-16,2026-02-16,リノジャパン合同会社,,合同会社,神奈川県,大和市,下鶴間２０４６ヴィラさつき台１０１,,14,213,2420001,,,,,,,2026-02-16,1,,,,,リノジャパン,0
1555,7040001142500,新規,0,2026-02-16,2026-02-16,株式会社隆装業,,株式会社,千葉県,市原市,南岩崎６５４番地５０,,12,219,2900244,,,,,,,2026-02-16,1,,,,,リュウソウギョウ,0
1584,7120001284144,新規,0,2026-02-16,2026-02-16,マアルプラス株式会社,,株式会社,大阪府,大阪市北区,西天満２丁目１０－２幸田ビル５階,,27,127,5300047,,,,,,,2026-02-16,1,,,,,マアルプラス,0
1585,7120001284169,新規,0,2026-02-16,2026-02-16,新日本共創パートナーズ株式会社,,株式会社,大阪府,大阪市北区,梅田１丁目１－３大阪駅前第３ビル２９階１－１－１号室,,27,127,5300001,,,,,,,2026-02-16,1,,,,,シンニホンキョウソウパートナーズ,0
1586,7120001284177,新規,0,2026-02-16,2026-02-16,株式会社灯火,,株式会社,大阪府,大阪市中央区,南船場４丁目５番３号,,27,128,5420081,,,,,,,2026-02-16,1,,,,,トウカ,0
1587,7120001284193,新規,0,2026-02-16,2026-02-16,日盛島株式会社,,株式会社,大阪府,大阪市港区,田中２丁目１番２３号,,27,107,5520005,,,,,,,2026-02-16,1,,,,,ニッセイトウ,0
1591,7120003031899,新規,0,2026-02-16,2026-02-16,オヤスミマンガホテル合同会社,,合同会社,大阪府,大阪市西成区,花園北２丁目１１－２８ＯＹＡＳＵＭＩＭａｎｇａＨｏｔｅｌ,,27,122,5570016,,,,,,,2026-02-16,1,,,,,オヤスミマンガホテル,0
1592,7120003031908,新規,0,2026-02-16,2026-02-16,合同会社コンシェルジュ,,合同会社,大阪府,大阪市北区,梅田１丁目１番３号大阪駅前第３ビル１１階２号室,,27,127,5300001,,,,,,,2026-02-16,1,,,,,コンシェルジュ,0
1593,7120005025412,新規,0,2026-02-16,2026-02-16,一般社団法人光育会,,その他の設立登記法人,大阪府,大阪市旭区,今市１丁目１１－２３,,27,117,5350011,,,,,,,2026-02-16,1,,,,,コウイクカイ,0
1600,7122001040163,新規,0,2026-02-16,2026-02-16,株式会社ＯＭＯＮＡＳ,,株式会社,大阪府,東大阪市,稲田上町１丁目３－２５渋谷ビルＣ棟１階,,27,227,5770002,,,,,,,2026-02-16,1,,,,,オモナス,0
1603,7130001081607,新規,0,2026-02-16,2026-02-16,株式会社クレアステック,,株式会社,京都府,木津川市,梅美台５丁目２５番地１８,,26,214,6190215,,,,,,,2026-02-16,1,,,,,クレアステック,0
1606,7130003011165,新規,0,2026-02-16,2026-02-16,合同会社シクス,,合同会社,京都府,京都市下京区,七条通油小路東入大黒町２２７番地第２キョートビル４０２,,26,106,6008223,,,,,,,2026-02-16,1,,,,,シクス,0
1617,7180001170702,新規,0,2026-02-16,2026-02-16,株式会社ＳＫバロン,,株式会社,愛知県,小牧市,古雅１丁目３番地,,23,219,4850814,,,,,,,2026-02-16,1,,,,,エスケーバロン,0
1620,7180003029772,新規,0,2026-02-16,2026-02-16,ＯＴＡＦＵＫＵ合同会社,,合同会社,愛知県,名古屋市昭和区,山花町８４番地の１,,23,107,4660807,,,,,,,2026-02-16,1,,,,,オタフク,0
1621,7180003029780,新規,0,2026-02-16,2026-02-16,Ｋ’ｓ内装合同会社,,合同会社,愛知県,名古屋市中川区,服部４丁目１０６番地の２,,23,110,4540976,,,,,,,2026-02-16,1,,,,,ケーズナイソウ,0
1625,7180301040695,新規,0,2026-02-16,2026-02-16,株式会社ｆｒａｕｍ,,株式会社,愛知県,豊川市,諏訪３丁目１４８番地リブラＩＩ２Ｆ,00142580,23,207,4420068,,,,,,,2026-02-16,1,,,,,フラウム,0
1626,7200001044721,新規,0,2026-02-16,2026-02-16,株式会社ＩＤＣ,,株式会社,岐阜県,岐阜市,近島５丁目３番２０号アミューズコート３１４,,21,201,5020908,,,,,,,2026-02-16,1,,,,,アイディーシー,0
1634,7240001066175,新規,0,2026-02-16,2026-02-16,株式会社ＧＯＡＴ,,株式会社,広島県,三次市,畠敷町１３３２番地６,,34,209,7280006,,,,,,,2026-02-16,1,,,,,ゴート,0
1639,7260001040987,新規,0,2026-02-16,2026-02-16,株式会社ＭＫアクアサービス,,株式会社,岡山県,岡山市中区,江並２５２番地４,,33,102,7028004,,,,,,,2026-02-16,1,,,,,エムケーアクアサービス,0
1647,7290001113138,新規,0,2026-02-16,2026-02-16,大成株式会社,,株式会社,福岡県,福岡市博多区,美野島３丁目５番２０号,,40,132,8120017,,,,,,,2026-02-16,1,,,,,タイセイ,0
1648,7310001019968,新規,0,2026-02-16,2026-02-16,株式会社Ｐｒｉｍｅ,,株式会社,長崎県,北松浦郡佐々町,古川免２８２番地,,42,391,8570314,,,,,,,2026-02-16,1,,,,,プライム,0
1654,7340003005096,新規,0,2026-02-16,2026-02-16,合同会社燈,,合同会社,鹿児島県,鹿児島市,鴨池１丁目１０番４,,46,201,8900063,,,,,,,2026-02-16,1,,,,,アカリ,0
1657,7360001036380,新規,0,2026-02-16,2026-02-16,株式会社三光沖縄,,株式会社,沖縄県,那覇市,久米２丁目３番１５号,,47,201,9000033,,,,,,,2026-02-16,1,,,,,サンコウオキナワ,0
1658,7370001053482,新規,0,2026-02-16,2026-02-16,ショウヘイ株式会社,,株式会社,宮城県,栗原市,築館宮野中央１丁目１６－１,,04,213,9872205,,,,,,,2026-02-16,1,,,,,ショウヘイ,0
1661,7400001017327,新規,0,2026-02-16,2026-02-16,株式会社ＩＧＡＴＴＡ,,株式会社,岩手県,遠野市,宮守町下宮守２８地割１０番地４,,03,208,0280304,,,,,,,2026-02-16,1,,,,,イガッタ,0
1670,7440001009758,新規,0,2026-02-16,2026-02-16,株式会社フィレンジ,,株式会社,北海道,北斗市,久根別２丁目１番９号,,01,236,0490121,,,,,,,2026-02-16,1,,,,,フィレンジ,0
1680,7700150134462,新規,0,2026-02-16,2026-02-16,ＨＩＧＲＡＭ　ＩＮＴＥＲＮＡＴＩＯＮＡＬ　ＴＲＡＤＩＮＧ　ＬＩＭＩＴＥＤ,,外国会社等,,,,,,,,ＲＯＯＭ　１５０３－０９　１５／Ｆ　ＣＡＵＳＥＷＡＹ　ＢＡＹ　ＣＥＮＴＲＥ　１５－２３　ＳＵＧＡＲ　ＳＴＲＥＥＴ　ＣＡＵＳＥＷＡＹ　ＢＡＹ　ＨＫ,,,,,,2026-02-16,1,,,,,ハイグラムインターナシヨナルトレーデイングリミテツド,0
1681,7700150134470,新規,0,2026-02-16,2026-02-16,Ｓｃｒｅａｍｉｎｇ　Ｆｒｏｇ　Ｌｉｍｉｔｅｄ,,外国会社等,,,,,,,,Ｃｅｎｔｕｒｙ　Ｈｏｕｓｅ，Ｗａｒｇｒａｖｅ　Ｒｏａｄ，Ｈｅｎｌｅｙ－Ｏｎ－Ｔｈａｍｅｓ，Ｏｘｆｏｒｄｓｈｉｒｅ，Ｅｎｇｌａｎｄ，ＲＧ９　２ＬＴ,,,,,,2026-02-16,1,,,,,スクリーミングフロツグリミテツド,0
1700,8010001262515,新規,0,2026-02-16,2026-02-16,セリーナ株式会社,,株式会社,東京都,中央区,銀座１丁目１２番４号Ｎ＆ＥＢＬＤ．６Ｆ,,13,102,1040061,,,,,,,2026-02-16,1,,,,,セリーナ,0
1701,8010001262705,新規,0,2026-02-16,2026-02-16,株式会社Ｅｃｏｙａ,,株式会社,東京都,中央区,築地６丁目４番５号シティスクエア築地８０２,,13,102,1040045,,,,,,,2026-02-16,1,,,,,エコヤ,0
1702,8010001262713,新規,0,2026-02-16,2026-02-16,株式会社ＭＡＮＡＶＩ,,株式会社,東京都,中央区,銀座１丁目２２番１１号銀座大竹ビジデンス２Ｆ,,13,102,1040061,,,,,,,2026-02-16,1,,,,,マナビ,0
1703,8010001262911,新規,0,2026-02-16,2026-02-16,ＳＮＹａｒｄ株式会社,,株式会社,東京都,中央区,銀座１丁目１２番４号Ｎ＆ＥＢＬＤ．６Ｆ,,13,102,1040061,,,,,,,2026-02-16,1,,,,,エスエヌヤード,0
1704,8010001262936,新規,0,2026-02-16,2026-02-16,プーロンジャパン株式会社,,株式会社,東京都,中央区,銀座１丁目１２番４号Ｎ＆ＥＢＬＤ．７階,,13,102,1040061,,,,,,,2026-02-16,1,,,,,プーロンジャパン,0
1705,8010003050307,新規,0,2026-02-16,2026-02-16,Ｕ‐Ｄｒｅａｍｅｒｓパートナーズ合同会社,,合同会社,東京都,千代田区,六番町７－１１ＥＳＣＡＬＩＥＲ六番町１Ｆ,,13,101,1020085,,,,,,,2026-02-16,1,,,,,ユードリーマーズパートナーズ,0
1706,8010003050331,新規,0,2026-02-16,2026-02-16,合同会社京都八条ホテルアセット,,合同会社,東京都,千代田区,丸の内２丁目１番１号,,13,101,1000005,,,,,,,2026-02-16,1,,,,,キョウトハチジョウホテルアセット,0
1711,8010101017075,新規,0,2026-02-16,2026-02-16,株式会社コスギトラスト,,株式会社,東京都,八王子市,小比企町２７９０番地,,13,201,1930934,,,,,,,2026-02-16,1,,,,,コスギトラスト,0
1718,8010401196453,新規,0,2026-02-16,2026-02-16,株式会社Ｍａｉｓｏｎ　ＴＲＡＮＣＥＮＤ,,株式会社,東京都,港区,港南２丁目１６番２号太陽生命品川ビル２８Ｆ,,13,103,1080075,,,,,,,2026-02-16,1,,,,,メゾントランセンド,0
1719,8010401196461,新規,0,2026-02-16,2026-02-16,Ｗｅｂｅｔｔｅｒ株式会社,,株式会社,東京都,港区,芝浦４丁目１３番２３号,,13,103,1080023,,,,,,,2026-02-16,1,,,,,ウィベター,0
1720,8010401196478,新規,0,2026-02-16,2026-02-16,株式会社Ｊ・Ｍ,,株式会社,東京都,港区,六本木３丁目１６番１２号六本木ＫＳビル５Ｆ,,13,103,1060032,,,,,,,2026-02-16,1,,,,,ジェイム,0
1729,8010701049030,新規,0,2026-02-16,2026-02-16,株式会社フェアー,,株式会社,東京都,品川区,上大崎２丁目１４番５号クリスタルタワー６階,,13,109,1410021,,,,,,,2026-02-16,1,,,,,フェアー,0
1734,8011001175426,新規,0,2026-02-16,2026-02-16,旅でる株式会社,,株式会社,東京都,渋谷区,円山町５番５号Ｎａｖｉ渋谷Ｖ３階,,13,113,1500044,,,,,,,2026-02-16,1,,,,,タビデル,0
1738,8011003023533,新規,0,2026-02-16,2026-02-16,合同会社ロンヘイシ,,合同会社,東京都,渋谷区,神南１丁目１１－４ＦＰＧリンクス神南５階,,13,113,1500041,,,,,,,2026-02-16,1,,,,,ロンヘイシ,0
1739,8011003023541,新規,0,2026-02-16,2026-02-16,合同会社ＨＩＬＯＳ,,合同会社,東京都,渋谷区,広尾１丁目２番地１号ヒカリビル４階,,13,113,1500012,,,,,,,2026-02-16,1,,,,,イロス,0
1741,8011101114754,新規,0,2026-02-16,2026-02-16,コネクティア・コンサルティング株式会社,,株式会社,東京都,新宿区,新宿５丁目１４番１２号,,13,104,1600022,,,,,,,2026-02-16,1,,,,,コネクティアコンサルティング,0
1742,8011101114911,新規,0,2026-02-16,2026-02-16,株式会社ウォーターアイランド,,株式会社,東京都,新宿区,歌舞伎町２丁目１１番２号,,13,104,1600021,,,,,,,2026-02-16,1,,,,,ウォーターアイランド,0
1749,8011103017096,新規,0,2026-02-16,2026-02-16,合同会社アークノード,,合同会社,東京都,新宿区,西新宿３丁目３番１３号西新宿水間ビル２Ｆ,,13,104,1600023,,,,,,,2026-02-16,1,,,,,アークノード,0
1751,8011201026965,新規,0,2026-02-16,2026-02-16,ＳＥＥＬＤ　ＣＯＮＣＩＥＲＧＥ株式会社,,株式会社,東京都,中野区,中野４丁目１０番２号,,13,114,1640001,,,,,,,2026-02-16,1,,,,,シールドコンシェルジュ,0
1753,8011301031246,新規,0,2026-02-16,2026-02-16,株式会社ＥＡＳＥ,,株式会社,東京都,杉並区,天沼３丁目６番３４号,,13,115,1670032,,,,,,,2026-02-16,1,,,,,イース,0
1758,8011803007248,新規,0,2026-02-16,2026-02-16,ＮＯＶＵＳ合同会社,,合同会社,東京都,足立区,古千谷本町２丁目１４－８,,13,121,1210832,,,,,,,2026-02-16,1,,,,,ノウバス,0
1759,8011803007330,新規,0,2026-02-16,2026-02-16,合同会社相羊堂,,合同会社,東京都,葛飾区,東新小岩７丁目２７－１６－３０２,,13,122,1240023,,,,,,,2026-02-16,1,,,,,ショウヨウドウ,0
1766,8012803004004,新規,0,2026-02-16,2026-02-16,Ｉｇｎｉｓ　Ｃｏｒｅ合同会社,,合同会社,東京都,昭島市,代官山２丁目５－１プレミスト昭島モリパークレジデンス２２５号,,13,207,1960005,,,,,,,2026-02-16,1,,,,,イグニスコア,0
1773,8020001167127,新規,0,2026-02-16,2026-02-16,ＹＬＳ株式会社,,株式会社,神奈川県,横浜市鶴見区,市場富士見町１番１０号月田ビル３０５,,14,101,2300026,,,,,,,2026-02-16,1,,,,,ワイエルエス,0
1774,8020001167135,新規,0,2026-02-16,2026-02-16,株式会社はねる,,株式会社,神奈川県,横浜市西区,浜松町１４番４５号Ｃａｎａｒｏｓ横浜８０１,,14,103,2200055,,,,,,,2026-02-16,1,,,,,ハネル,0
1777,8021001087488,新規,0,2026-02-16,2026-02-16,株式会社Ｖ‐ＬＡＳＴ,,株式会社,神奈川県,茅ヶ崎市,緑が浜１０番７－３号,,14,207,2530034,,,,,,,2026-02-16,1,,,,,ブイラスト,0
1782,8030001170996,新規,0,2026-02-16,2026-02-16,株式会社ＺＥＮＩＴＨ,,株式会社,埼玉県,戸田市,上戸田４丁目１４番１４コスモ戸田パークスケア３０３号室,,11,224,3350022,,,,,,,2026-02-16,1,,,,,ゼニス,0
1783,8030001171012,新規,0,2026-02-16,2026-02-16,ナイス株式会社,,株式会社,埼玉県,川口市,大字新堀３１２番地１,,11,203,3340061,,,,,,,2026-02-16,1,,,,,ナイス,0
1785,8030003028664,新規,0,2026-02-16,2026-02-16,ＴｒｅｅＴｒｅｅ合同会社,,合同会社,埼玉県,川口市,戸塚１丁目１３ー２９ー３０７ライオンズ東川口グレーステラス,,11,203,3330811,,,,,,,2026-02-16,1,,,,,ツリーツリー,0
1796,8050001057936,新規,0,2026-02-16,2026-02-16,株式会社ＢｅｌｌＬｉｎｋｓ,,株式会社,茨城県,鹿嶋市,大字小山１１５９番地６,,08,222,3112222,,,,,,,2026-02-16,1,,,,,ベルリンクス,0
1797,8050001057977,新規,0,2026-02-16,2026-02-16,株式会社ＳＫＴ,,株式会社,茨城県,日立市,千石町３丁目１９番３５号,,08,202,3160013,,,,,,,2026-02-16,1,,,,,エスケーティー,0
1801,8070001043835,新規,0,2026-02-16,2026-02-16,株式会社櫻井通商,,株式会社,群馬県,前橋市,南町３丁目５０番地２プラザアン２階Ｄ－６１,,10,201,3710805,,,,,,,2026-02-16,1,,,,,サクライツウショウ,0
1802,8070003006303,新規,0,2026-02-16,2026-02-16,合同会社ＮＥＸＴ　ＬＩＮＫＳ,,合同会社,群馬県,前橋市,南町２丁目７２－１ＴハイツＡ１０１,,10,201,3710805,,,,,,,2026-02-16,1,,,,,ネクストリンクス,0
1806,8080101026086,新規,0,2026-02-16,2026-02-16,株式会社セブン・カラーズ,,株式会社,静岡県,田方郡函南町,間宮６８１番地の１ＧＯＬＤ・ＳＴＡＲ・ＢＬＤＧ１０１,,22,325,4190123,,,,,,,2026-02-16,1,,,,,セブンカラーズ,0
1817,8120001284102,新規,0,2026-02-16,2026-02-16,ＫＭＴコンサルティング株式会社,,株式会社,大阪府,大阪市北区,豊崎１丁目１１－１９アスティオン梅田アネックス北棟１０２号室,,27,127,5310072,,,,,,,2026-02-16,1,,,,,ケーエムティーコンサルティング,0
1818,8120001284151,新規,0,2026-02-16,2026-02-16,株式会社アンプラント,,株式会社,大阪府,大阪市西淀川区,出来島１丁目１０番４号,,27,113,5550031,,,,,,,2026-02-16,1,,,,,アンプラント,0
1819,8120001284176,新規,0,2026-02-16,2026-02-16,株式会社ルミナス,,株式会社,大阪府,大阪市東住吉区,鷹合２丁目３番２２号,,27,121,5460014,,,,,,,2026-02-16,1,,,,,ルミナス,0
1820,8120001284184,新規,0,2026-02-16,2026-02-16,株式会社関西ラボ,,株式会社,大阪府,寝屋川市,八坂町１５番３号平田商事ビル３Ｆ,,27,215,5720838,,,,,,,2026-02-16,1,,,,,カンサイラボ,0
1821,8120001284218,新規,0,2026-02-16,2026-02-16,株式会社ＢＲＩＤＧＥ　ＧＲＯＵＰ,,株式会社,大阪府,大阪市港区,築港４丁目３番１０号ＪＪｇａｒａｇｅＳ０８,,27,107,5520021,,,,,,,2026-02-16,1,,,,,ブリッジグループ,0
1837,8140001141739,新規,0,2026-02-16,2026-02-16,株式会社ＫＩ企画,,株式会社,兵庫県,明石市,大久保町大窪３４５番地の１４,,28,203,6740051,,,,,,,2026-02-16,1,,,,,ケーアイキカク,0
1838,8140001141747,新規,0,2026-02-16,2026-02-16,株式会社ＲｅＢｏｕｎｄ,,株式会社,兵庫県,神戸市中央区,加納町２丁目１０－２ＭＡＲＩＮＡ北野２０３,,28,110,6500001,,,,,,,2026-02-16,1,,,,,リバウンド,0
1841,8140005027793,新規,0,2026-02-16,2026-02-16,一般社団法人大人と子供のクラブ活動支援団体,,その他の設立登記法人,兵庫県,神戸市中央区,磯辺通１丁目１番１８号カサベラ国際プラザビル７０７号室,,28,110,6510084,,,,,,,2026-02-16,1,,,,,,0
1843,8160005011481,新規,0,2026-02-16,2026-02-16,一般社団法人滋賀県５００歳野球連盟,,その他の設立登記法人,滋賀県,大津市,皇子が丘２丁目１０番２７号西大津ＩＳビル２階エアーズ税理士法人内,,25,201,5200025,,,,,,,2026-02-16,1,,,,,シガケンゴヒャクサイヤキュウレンメイ,0
1850,8180001170676,新規,0,2026-02-16,2026-02-16,コアサービス株式会社,,株式会社,愛知県,春日井市,松新町１丁目２３番地エクセレント勝川２Ｂ,,23,206,4860931,,,,,,,2026-02-16,1,,,,,コアサービス,0
1851,8180003029755,新規,0,2026-02-16,2026-02-16,合同会社Ｈｅａｒｔｈ・Ｂａｓｅ,,合同会社,愛知県,小牧市,大字本庄３１５６,,23,219,4850821,,,,,,,2026-02-16,1,,,,,ハースベース,0
1854,8180301040694,新規,0,2026-02-16,2026-02-16,いろんないろ株式会社,,株式会社,愛知県,豊川市,新豊町２丁目１２６番地１,,23,207,4420012,,,,,,,2026-02-16,1,,,,,イロンナイロ,0
1859,8210003002007,新規,0,2026-02-16,2026-02-16,稲津地区土地区画整理事業合同会社,,合同会社,福井県,福井市,照手２丁目６番１６号,,18,201,9100024,,,,,,,2026-02-16,1,,,,,イナヅチクトチクカクセイリジギョウ,0
1869,8260001040986,新規,0,2026-02-16,2026-02-16,株式会社Ｆｉｒｓｔ,,株式会社,岡山県,倉敷市,福井３０６番地２３,,33,202,7100844,,,,,,,2026-02-16,1,,,,,ファースト,0
1873,8260003005509,新規,0,2026-02-16,2026-02-16,合同会社リングサポート,,合同会社,岡山県,倉敷市,大島１３３番地４１,,33,202,7100047,,,,,,,2026-02-16,1,,,,,リングサポート,0
1877,8290001113112,新規,0,2026-02-16,2026-02-16,株式会社未来創資,,株式会社,福岡県,福岡市中央区,高砂２丁目１番４号オーキッドプレイス天神南４０４号室,,40,133,8100011,,,,,,,2026-02-16,1,,,,,ミライソウシ,0
1880,8290003018037,新規,0,2026-02-16,2026-02-16,モノフォリオ合同会社,,合同会社,福岡県,福岡市博多区,博多駅南５丁目１８－１２,,40,132,8120016,,,,,,,2026-02-16,1,,,,,モノフォリオ,0
1892,8400001017318,新規,0,2026-02-16,2026-02-16,株式会社ＳＴＡＹ　ａｔ　ＨＯＭＥ,,株式会社,岩手県,九戸郡洋野町,種市第２３地割２７番地９１,,03,507,0287914,,,,,,,2026-02-16,1,,,,,ステイアットホーム,0
1893,8400003003646,新規,0,2026-02-16,2026-02-16,合同会社Ｐｏｌｏｒｉａｓ,,合同会社,岩手県,盛岡市,永井２０地割３３番地３たんぽぽ２号館２０１号,,03,201,0200834,,,,,,,2026-02-16,1,,,,,ポロリアス,0
1897,8440001009757,新規,0,2026-02-16,2026-02-16,株式会社ネクサス,,株式会社,北海道,亀田郡七飯町,大川１丁目６番２６号,,01,337,0411122,,,,,,,2026-02-16,1,,,,,ネクサス,0
1901,8480005007126,新規,0,2026-02-16,2026-02-16,特定非営利活動法人みらスポＢＡＳＥ,,その他の設立登記法人,徳島県,三好郡東みよし町,足代１８６７番地５,,36,489,7712502,,,,,,,2026-02-16,1,,,,,ミラスポベース,0
1906,8700150134461,新規,0,2026-02-16,2026-02-16,ＰＴＴ　Ｐｌｃ．,,外国会社等,,,,,,,,５５５　Ｖｉｂｈａｖａｄｉ　Ｒａｎｇｓｉｔ　Ｒｄ．，Ｃｈａｔｕｃｈａｋ，Ｂａｎｇｋｏｋ，Ｔｈａｉｌａｎｄ　１０９００,,,,,,2026-02-16,1,,,,,ピーテイーテイーピーエルシー,0
1919,9010001262233,新規,0,2026-02-16,2026-02-16,アビオレス株式会社,,株式会社,東京都,中央区,日本橋室町３丁目２－１日本橋室町三井タワー７階（三井不動産ライフサイエンスビル）,,13,102,1030022,,,,,,,2026-02-16,1,,,,,アビオレス,0
1920,9010001262712,新規,0,2026-02-16,2026-02-16,ＯＲＶＥＲ株式会社,,株式会社,東京都,中央区,銀座１丁目１２番４号Ｎ＆ＥＢＬＤ．６Ｆ,,13,102,1040061,,,,,,,2026-02-16,1,,,,,,0
1921,9010001262836,新規,0,2026-02-16,2026-02-16,株式会社アビリカＲ＆Ｄ,,株式会社,東京都,千代田区,神田美倉町１２番地２,,13,101,1010038,,,,,,,2026-02-16,1,,,,,アビリカアールアンドディー,0
1922,9010001262844,新規,0,2026-02-16,2026-02-16,株式会社ベストグリップ,,株式会社,東京都,千代田区,神田佐久間町２丁目１８番地１秋葉原ＳＴＮフロント１０階,,13,101,1010025,,,,,,,2026-02-16,1,,,,,ベストグリップ,0
1923,9010001262860,新規,0,2026-02-16,2026-02-16,株式会社ＮＥＸＥＬＩＡ,,株式会社,東京都,千代田区,神田神保町３丁目１１番６号神保町ビル１０階,,13,101,1010051,,,,,,,2026-02-16,1,,,,,ネクセリア,0
1924,9010001262885,新規,0,2026-02-16,2026-02-16,株式会社ＪＭ　Ｃｏｍｐａｎｙ,,株式会社,東京都,千代田区,麹町２丁目２番２２号（Ｃ／ＯＪｏｏ－ｒｅａｌｅｓｔａｔｅ－ｏｆｆｉｃｅ）,,13,101,1020083,,,,,,,2026-02-16,1,,,,,ジェイエムカンパニー,0
1927,9010005041385,新規,0,2026-02-16,2026-02-16,一般社団法人Ｓｏｇａ,,その他の設立登記法人,東京都,中央区,新川１丁目１７番１８号,,13,102,1040033,,,,,,,2026-02-16,1,,,,,ソガ,0
1934,9010401196345,新規,0,2026-02-16,2026-02-16,株式会社Ｌｉｌｙ　Ａｒｉｓｅ,,株式会社,東京都,港区,六本木４丁目８番１２号ＭＩＹＡＳＨＩＴＡビル２階,,13,103,1060032,,,,,,,2026-02-16,1,,,,,リリーアライズ,0
1935,9010401196436,新規,0,2026-02-16,2026-02-16,Ｑｕａｎｔｉｌｕｍｅ株式会社,,株式会社,東京都,港区,芝５丁目３６番４号札の辻スクエア９階,,13,103,1080014,,,,,,,2026-02-16,1,,,,,クアンティルーム,0
1936,9010401196444,新規,0,2026-02-16,2026-02-16,株式会社ＦＡＩＴＨ,,株式会社,東京都,港区,虎ノ門１丁目１２番１号虎ノ門第一法規ビル７階,,13,103,1050001,,,,,,,2026-02-16,1,,,,,フェイス,0
1937,9010401196460,新規,0,2026-02-16,2026-02-16,株式会社ベリーベストシニア,,株式会社,東京都,港区,六本木１丁目８番７号ＭＦＰＲ六本木麻布台ビル１１階,,13,103,1060032,,,,,,,2026-02-16,1,,,,,ベリーベストシニア,0
1942,9010403037274,新規,0,2026-02-16,2026-02-16,合同会社ＳｈｉｎＴｒｕｓｔＷｏｒｋｓ,,合同会社,東京都,港区,芝大門２丁目２－１ＡＣＮ芝大門ビルディング６０３,,13,103,1050012,,,,,,,2026-02-16,1,,,,,シントラストワークス,0
1943,9010403037282,新規,0,2026-02-16,2026-02-16,合同会社ＬＯＣＯＫ　Ｅｄｕｔａｉｎｍｅｎｔ,,合同会社,東京都,港区,三田１丁目４番５５号三田ガーデンヒルズサウスヒル１階,,13,103,1080073,,,,,,,2026-02-16,1,,,,,ロコックエデュテイメント,0
1944,9010403037332,新規,0,2026-02-16,2026-02-16,合同会社Ｒｅｂｏｒｎ　Ｂａｓｅ　Ｌｉｎｋ,,合同会社,東京都,港区,北青山１丁目３番１号アールキューブ青山３階,,13,103,1070061,,,,,,,2026-02-16,1,,,,,リボーンベースリンク,0
1945,9010403037340,新規,0,2026-02-16,2026-02-16,ピナイプレミアム合同会社,,合同会社,東京都,港区,浜松町２丁目２番１５号浜松町ダイヤビル２Ｆ,,13,103,1050013,,,,,,,2026-02-16,1,,,,,ピナイプレミアム,0
1948,9010405025285,新規,0,2026-02-16,2026-02-16,クレア国際行政書士法人,,その他の設立登記法人,東京都,港区,芝１丁目１２番７号芝一丁目ビル７階,,13,103,1050014,,,,,,,2026-02-16,1,,,,,クレアコクサイ,0
1949,9010405025376,新規,0,2026-02-16,2026-02-16,一般社団法人クサナギノミコト,,その他の設立登記法人,東京都,港区,虎ノ門３丁目２２番１０－２０１号,,13,103,1050001,,,,,,,2026-02-16,1,,,,,クサナギノミコト,0
1964,9011001175284,新規,0,2026-02-16,2026-02-16,株式会社インテリビジョン・ジャパン,,株式会社,東京都,目黒区,八雲４丁目１番８号,,13,110,1520023,,,,,,,2026-02-16,1,,,,,インテリビジョンジャパン,0
1965,9011001175292,新規,0,2026-02-16,2026-02-16,株式会社コアブロッサム,,株式会社,東京都,渋谷区,道玄坂１丁目１０番８号渋谷道玄坂東急ビル２Ｆ－Ｃ,,13,113,1500043,,,,,,,2026-02-16,1,,,,,コアブロッサム,0
1966,9011003023656,新規,0,2026-02-16,2026-02-16,合同会社ＲＩＳＥ,,合同会社,東京都,目黒区,下目黒１丁目１番１４号コノトラビル７Ｆ,,13,110,1530064,,,,,,,2026-02-16,1,,,,,ライズ,0
1968,9011101114753,新規,0,2026-02-16,2026-02-16,株式会社オルディア,,株式会社,東京都,新宿区,西新宿６丁目５番１号新宿アイランドタワー２階,,13,104,1600023,,,,,,,2026-02-16,1,,,,,オルディア,0
1969,9011101114919,新規,0,2026-02-16,2026-02-16,株式会社白金インベスト,,株式会社,東京都,新宿区,四谷３丁目１３－１０ル・シェルブル１０５号室,,13,104,1600004,,,,,,,2026-02-16,1,,,,,シロカネインベスト,0
1973,9011301031253,新規,0,2026-02-16,2026-02-16,Ｍｏｓｓｅｒ株式会社,,株式会社,東京都,杉並区,堀ノ内２丁目４－１１,,13,115,1660013,,,,,,,2026-02-16,1,,,,,モッサー,0
1974,9011303005858,新規,0,2026-02-16,2026-02-16,合同会社ＩＫＡＲＩ　ＳＯＦＴＷＡＲＥ,,合同会社,東京都,杉並区,和泉２丁目２１番３６－４０２号ＫＥＮＺＯハイツ,,13,115,1680063,,,,,,,2026-02-16,1,,,,,イカリソフトウェア,0
1979,9011703004526,新規,0,2026-02-16,2026-02-16,Ｎｏｉｒｖｅｌ　Ｇｌｏｂａｌ合同会社,,合同会社,東京都,江戸川区,北葛西４丁目１４番１７－４０２号北葛西パークホームズ,,13,123,1340081,,,,,,,2026-02-16,1,,,,,ノワールベルグローバル,0
1984,9012401044145,新規,0,2026-02-16,2026-02-16,株式会社ＡＴＨＩＰＡＴＡＩ,,株式会社,東京都,調布市,緑ケ丘２丁目４１番地５８,,13,208,1820001,,,,,,,2026-02-16,1,,,,,アティパタイ,0
1990,9020001167092,新規,0,2026-02-16,2026-02-16,株式会社ノブリージュ,,株式会社,神奈川県,横浜市神奈川区,白楽１５番地３,,14,102,2210065,,,,,,,2026-02-16,1,,,,,ノブリージュ,0
1993,9020003030323,新規,0,2026-02-16,2026-02-16,合同会社ＨＥＮＭＩ,,合同会社,神奈川県,横浜市都筑区,佐江戸町１７２２－６－４０２,,14,118,2240054,,,,,,,2026-02-16,1,,,,,ヘンミ,0
1996,9021003017129,新規,0,2026-02-16,2026-02-16,合同会社カンファー,,合同会社,神奈川県,綾瀬市,寺尾本町３丁目１３番２５号,,14,218,2521133,,,,,,,2026-02-16,1,,,,,カンファー,0
2002,9030001170995,新規,0,2026-02-16,2026-02-16,株式会社ライフプラン,,株式会社,埼玉県,北本市,宮内６丁目１８１番地１,,11,233,3640002,,,,,,,2026-02-16,1,,,,,ライフプラン,0
2003,9030001171052,新規,0,2026-02-16,2026-02-16,株式会社ＳＡＫＡ,,株式会社,埼玉県,さいたま市南区,内谷４丁目１２番６号ＫｉａＯｒａ２０３号,,11,108,3360034,,,,,,,2026-02-16,1,,,,,エスエーケーエー,0
2005,9030005022409,新規,0,2026-02-16,2026-02-16,一般社団法人山名国際パートナーズ,,その他の設立登記法人,埼玉県,川口市,桜町２丁目１０番２号,,11,203,3340001,,,,,,,2026-02-16,1,,,,,ヤマナコクサイパートナーズ,0
2011,9040003029413,新規,0,2026-02-16,2026-02-16,合同会社ライフプラス,,合同会社,千葉県,香取市,富田４２２番地,,12,236,2890303,,,,,,,2026-02-16,1,,,,,ライフプラス,0
2017,9060003005957,新規,0,2026-02-16,2026-02-16,ＣＨＡＷＡＬＡ合同会社,,合同会社,栃木県,小山市,駅南町５丁目１５番１号小峰アパート５号,,09,208,3230822,,,,,,,2026-02-16,1,,,,,チャワラ,0
2022,9080003003653,新規,0,2026-02-16,2026-02-16,ヴァスパミナーニヤ合同会社,,合同会社,静岡県,静岡市清水区,鳥坂１１８８番地の５,,22,103,4240067,,,,,,,2026-02-16,1,,,,,ヴァスパミナーニヤ,0
2025,9080101026085,新規,0,2026-02-16,2026-02-16,株式会社ヨシエイホールディングス,,株式会社,静岡県,富士市,伝法２８８３番地の２,,22,210,4170061,,,,,,,2026-02-16,1,,,,,ヨシエイホールディングス,0
2026,9080105006570,新規,0,2026-02-16,2026-02-16,一般社団法人コーディアス・コーポレーティブ,,その他の設立登記法人,静岡県,沼津市,西沢田７２４番地の１,,22,203,4100007,,,,,,,2026-02-16,1,,,,,,0
2028,9080403005448,新規,0,2026-02-16,2026-02-16,合同会社エステートげん,,合同会社,静岡県,浜松市中央区,富塚町３３０番地の４,,22,138,4328002,,,,,,,2026-02-16,1,,,,,エステートゲン,0
2039,9120001284084,新規,0,2026-02-16,2026-02-16,株式会社ＭＨＤ,,株式会社,大阪府,大阪市西淀川区,中島２丁目１３番９６号,,27,113,5550041,,,,,,,2026-02-16,1,,,,,エムエイチディ,0
2040,9120001284150,新規,0,2026-02-16,2026-02-16,株式会社ＡＸＩＳ,,株式会社,大阪府,大阪市東成区,深江北２丁目１番３号東陽ビル,,27,115,5370001,,,,,,,2026-02-16,1,,,,,アクシス,0
2041,9120001284217,新規,0,2026-02-16,2026-02-16,株式会社ＣＩＴＱ,,株式会社,大阪府,大阪市西区,江戸堀１丁目２３番１９号グランビルド江戸堀８０５号,,27,106,5500002,,,,,,,2026-02-16,1,,,,,シティック,0
2042,9120003031930,新規,0,2026-02-16,2026-02-16,合同会社マナブ,,合同会社,大阪府,大阪市中央区,東高麗橋４番３号ＴＫＧ．ＢＬＤ,,27,128,5400039,,,,,,,2026-02-16,1,,,,,マナブ,0
2043,9120003031947,新規,0,2026-02-16,2026-02-16,合同会社フィフス,,合同会社,大阪府,大阪市中央区,南船場３丁目２番２２号おおきに南船場ビル２０５,,27,128,5420081,,,,,,,2026-02-16,1,,,,,フィフス,0
2049,9130001081613,新規,0,2026-02-16,2026-02-16,森山マネジメント株式会社,,株式会社,京都府,福知山市,字上小田１５８３,,26,201,6200000,,,,,,,2026-02-16,1,,,,,モリヤママネジメント,0
2050,9130001081621,新規,0,2026-02-16,2026-02-16,株式会社赤木造園,,株式会社,京都府,京都市南区,吉祥院内河原町３番地２サクシード吉祥院５０４号,,26,107,6018392,,,,,,,2026-02-16,1,,,,,アカギゾウエン,0
2058,9140005027801,新規,0,2026-02-16,2026-02-16,特定非営利活動法人兵庫県防災福祉ネットワーク,,その他の設立登記法人,兵庫県,神戸市兵庫区,今出在家町２丁目１番１６号ヌーベルフルーブ７０１号,,28,105,6520853,,,,,,,2026-02-16,1,,,,,ヒョウゴケンボウサイフクシネットワーク,0
2061,9160001027415,新規,0,2026-02-16,2026-02-16,株式会社ＭＣ　ｏｆｆｉｃｅ　Ｔｓｕｇｕ,,株式会社,滋賀県,栗東市,手原３丁目１０番３－９０３号フォレスタ手原,,25,208,5203047,,,,,,,2026-02-16,1,,,,,エムシーオフィスツグ,0
2063,9170001001492,新規,0,2026-02-16,2026-02-16,株式会社忍自動車,,株式会社,和歌山県,和歌山市,岩橋７４５番地の３,,30,201,6408301,,,,,,,2026-02-16,1,,,,,シノブジドウシャ,0
2070,9180003029770,新規,0,2026-02-16,2026-02-16,合同会社ｔｈｅ　ｃｏｌｌｅｃｔｉｏｎ　Ｋ,,合同会社,愛知県,名古屋市千種区,星が丘元町１２－２１－Ｅ８０２,,23,101,4640802,,,,,,,2026-02-16,1,,,,,ザコレクションケイ,0
2079,9200003007229,新規,0,2026-02-16,2026-02-16,八葉工業合同会社,,合同会社,岐阜県,岐阜市,萱場南３丁目３番７号,,21,201,5020936,,,,,,,2026-02-16,1,,,,,ヤツハコウギョウ,0
2096,9290001113078,新規,0,2026-02-16,2026-02-16,ＲｏｃｋＲｉｓｅ　Ｃａｐｉｔａｌ株式会社,,株式会社,福岡県,福岡市博多区,那珂６丁目２１番１６号,,40,132,8120893,,,,,,,2026-02-16,1,,,,,ロックライズキャピタル,0
2097,9290001113128,新規,0,2026-02-16,2026-02-16,株式会社ＮＯＢＩＸ,,株式会社,福岡県,福岡市中央区,天神２丁目２番１２号Ｔ＆Ｊビルディング７Ｆ,,40,133,8100001,,,,,,,2026-02-16,1,,,,,ノビックス,0
2098,9290001113144,新規,0,2026-02-16,2026-02-16,ＺｅｎＬａｎｄｓｃａｐｅ株式会社,,株式会社,福岡県,福岡市東区,香椎照葉７丁目１３番３１号,,40,131,8130017,,,,,,,2026-02-16,1,,,,,ゼンランドスケイプ,0
2103,9290003018036,新規,0,2026-02-16,2026-02-16,合同会社ｈｕｍａｎｉｔｉｅ,,合同会社,福岡県,福岡市中央区,天神４丁目６－２８いちご天神ノースビル７階,,40,133,8100001,,,,,,,2026-02-16,1,,,,,ヒューマニティ,0
2104,9290003018052,新規,0,2026-02-16,2026-02-16,合同会社Ｔｒａｄｅ　Ａｇｅｎｃｙ,,合同会社,福岡県,福岡市中央区,天神４丁目６番２８号いちご天神ノースビル７階,,40,133,8100001,,,,,,,2026-02-16,1,,,,,トレードエージェンシー,0
2107,9300001014514,新規,0,2026-02-16,2026-02-16,株式会社ＭＧ,,株式会社,佐賀県,佐賀市,中央本町７番１７号２Ｆ,,41,201,8400825,,,,,,,2026-02-16,1,,,,,エムジー,0
2114,9360005007368,新規,0,2026-02-16,2026-02-16,行政書士法人ＮＣＰ沖縄,,その他の設立登記法人,沖縄県,沖縄市,桃原４丁目２０番６号,,47,211,9042164,,,,,,,2026-02-16,1,,,,,エヌシーピーオキナワ,0
2117,9370001053480,新規,0,2026-02-16,2026-02-16,株式会社Ｅｉｊｕ,,株式会社,宮城県,大崎市,鳴子温泉字星沼１９番地２４,,04,215,9896832,,,,,,,2026-02-16,1,,,,,エイジュ,0
2124,9400001017325,新規,0,2026-02-16,2026-02-16,株式会社奥州総合保険事務所,,株式会社,岩手県,奥州市,水沢字大畑小路６８番地,,03,215,0230802,,,,,,,2026-02-16,1,,,,,オウシュウソウゴウホケンジムショ,0
2130,9430001096250,新規,0,2026-02-16,2026-02-16,株式会社澤田農産,,株式会社,北海道,勇払郡厚真町,字共和５３番地,,01,581,0591743,,,,,,,2026-02-16,1,,,,,サワダノウサン,0
2134,9430003018582,新規,0,2026-02-16,2026-02-16,合同会社心温,,合同会社,北海道,札幌市清田区,里塚三条３丁目２２番１１号,,01,110,0040803,,,,,,,2026-02-16,1,,,,,ココロア,0
2139,9700150134460,新規,0,2026-02-16,2026-02-16,ＯＫＩＴＨＡ　ＥＮＧＩＮＥＥＲＩＮＧ（ＰＶＴ）ＬＴＤ,,外国会社等,愛知県,岩倉市,中野町御山寺４－８,,23,228,4820046,８０３／１，Ｈｅｎｄｉｙａｇａｌａ，Ｓａｎｄａｌａｎｋａｗａ,,,,,,2026-02-16,1,,,,,オキタエンジニアリングプライベートリミテツド,0
2140,9700150134469,新規,0,2026-02-16,2026-02-16,Ｈｙｂｒｉｄ　ＧＰ　Ｈｏｉｄｉｎｇｓ　ＬＬＣ,,外国会社等,,,,,,,,１２０９オレンジストリート、ウィルミントン、デラウェア州、１９８０１、Ｕ．Ｓ．Ａ,,,,,,2026-02-16,1,,,,,ハイブリツドジーピーホールデイングスエルエルシー,0
