sequenceNumber,corporateNumber,process,correct,updateDate,changeDate,name,nameImageId,kind,prefectureName,cityName,streetNumber,addressImageId,prefectureCode,cityCode,postCode,addressOutside,addressOutsideImageId,closeDate,closeCause,successorCorporateNumber,changeCause,assignmentDate,latest,enName,enPrefectureName,enCityName,enAddressOutside,furigana,hihyoji
15,1010401110164,登記記録の閉鎖等,0,2024-06-03,2024-05-16,日之出コンサルティング株式会社,,株式会社,東京都,港区,南青山２丁目２番１５号,,13,103,1070062,,,2024-05-16,清算の結了等,,,2015-10-05,1,,,,,ヒノデコンサルティング,0
24,1010405019105,登記記録の閉鎖等,0,2024-06-03,2024-05-17,楓一般社団法人,,その他の設立登記法人,東京都,港区,西新橋１丁目１番１号ＥＰコンサルティングサービス内,,13,103,1050003,,,2024-05-17,清算の結了等,,,2020-09-14,1,,,,,カエデ,0
40,1011401018257,登記記録の閉鎖等,0,2024-06-03,2024-05-27,エヌワイ株式会社,,株式会社,東京都,板橋区,氷川町２５番９－５０４号,,13,119,1730013,,,2024-05-27,清算の結了等,,,2015-10-05,1,,,,,エヌワイ,0
42,1011501011888,登記記録の閉鎖等,0,2024-06-03,2024-05-29,株式会社創設,,株式会社,東京都,荒川区,西尾久５丁目１６番１号,,13,118,1160011,,,2024-05-29,清算の結了等,,,2015-10-05,1,,,,,ソウセツ,0
73,1021001048579,登記記録の閉鎖等,0,2024-06-03,2024-05-30,株式会社サガミハラ,,株式会社,神奈川県,相模原市南区,麻溝台１丁目２番１９号,,14,153,2520328,,,2024-05-30,清算の結了等,,,2015-10-05,1,,,,,サガミハラ,0
74,1021002044585,登記記録の閉鎖等,0,2024-06-03,2024-05-31,有限会社石塚商事,,有限会社,神奈川県,海老名市,今里２丁目１２番１号,,14,215,2430423,,,2024-05-31,清算の結了等,,,2015-10-05,1,,,,,,0
110,1080101003876,登記記録の閉鎖等,0,2024-06-03,2024-05-30,株式会社アルケミカ,,株式会社,静岡県,裾野市,千福が丘３丁目８番１０,,22,220,4101115,,,2024-05-30,清算の結了等,,,2015-10-05,1,,,,,アルケミカ,0
111,1080101004692,登記記録の閉鎖等,0,2024-06-03,2024-05-23,青木建材株式会社,,株式会社,静岡県,伊豆市,土肥１１３８番地の１０,,22,222,4103302,,,2024-05-23,清算の結了等,,,2015-10-05,1,,,,,アオキケンザイ,0
132,1120101059501,登記記録の閉鎖等,0,2024-06-03,2024-05-29,株式会社アトリエメイクアップ,,株式会社,大阪府,堺市西区,鳳東町３丁２９１番地ホワイトハイツ１Ｆ,,27,144,5938324,,,2024-05-29,清算の結了等,,,2019-03-04,1,,,,,アトリエメイクアップ,0
148,1140005007463,登記記録の閉鎖等,0,2024-06-03,2024-05-27,宍粟市環境事業協同組合,,その他の設立登記法人,兵庫県,宍粟市,山崎町須賀澤９５８番地１,,28,227,6712500,,,2024-05-27,清算の結了等,,,2015-10-05,1,,,,,シソウシカンキョウ,0
152,1150001006666,登記記録の閉鎖等,0,2024-06-03,2024-05-30,株式会社日本ユニテック,,株式会社,奈良県,山辺郡山添村,大字切幡１３４３番地の１,,29,322,6302234,,,2024-05-30,清算の結了等,,,2015-10-05,1,,,,,ニホンユニテック,0
167,1190002015654,登記記録の閉鎖等,0,2024-06-03,2024-05-31,有限会社三重マツザキ,,有限会社,三重県,松阪市,西肥留町１９６番地１,,24,204,5152106,,,2024-05-31,清算の結了等,,,2015-10-05,1,,,,,ミエマツザキ,0
181,1240002032405,登記記録の閉鎖等,0,2024-06-03,2024-05-30,有限会社梶田乳業,,有限会社,広島県,呉市,光町１０番１５号,,34,202,7370831,,,2024-05-30,清算の結了等,,,2015-10-05,1,,,,,カジタニュウギョウ,0
191,1290001065021,登記記録の閉鎖等,0,2024-06-03,2024-05-10,株式会社サスガトレーディングイノベーション,,株式会社,福岡県,福岡市中央区,天神５丁目９番２－８０２号,,40,133,8100001,,,2024-05-10,清算の結了等,,,2015-10-05,1,,,,,サスガトレーディングイノベーション,0
193,1290002035238,登記記録の閉鎖等,0,2024-06-03,2024-05-01,有限会社セイソン,,有限会社,福岡県,宗像市,田熊２丁目６番２３号,,40,220,8113431,,,2024-05-01,清算の結了等,,,2015-10-05,1,,,,,セイソン,0
194,1290002043224,登記記録の閉鎖等,0,2024-06-03,2024-04-30,日新工業有限会社,,有限会社,福岡県,太宰府市,大字北谷字夕内１１２５番２,,40,221,8180114,,,2024-04-30,合併による解散等,1290001040643,令和６年４月３０日福岡県太宰府市大字北谷字夕内１１２５番２九州バイオカーボン株式会社（1290001040643）に合併し解散,2015-10-05,1,,,,,ニッシンコウギョウ,0
207,1340001006168,登記記録の閉鎖等,0,2024-06-03,2024-05-30,株式会社ルーラ,,株式会社,鹿児島県,鹿児島市,下伊敷１丁目６番７号,,46,201,8900005,,,2024-05-30,合併による解散等,3340001002735,令和６年５月２６日鹿児島市下伊敷一丁目１０番２号株式会社玉里（3340001002735）に合併し解散,2015-10-05,1,,,,,ルーラ,0
213,1360003012105,登記記録の閉鎖等,0,2024-06-03,2024-05-30,合同会社Ｖｏｙｎｉｃｈ　ｗｒｉｔｉｎｇ,,合同会社,沖縄県,糸満市,潮崎町３丁目８番地の４,,47,210,9010364,,,2024-05-30,清算の結了等,,,2022-06-23,1,,,,,ヴォイニッチライティング,0
229,1490002001723,登記記録の閉鎖等,0,2024-06-03,2024-05-29,有限会社近藤羊かん店,,有限会社,高知県,高知市,弘化台１２番１２号,,39,201,7800811,,,2024-05-29,清算の結了等,,,2015-10-05,1,,,,,コンドウヨウカンテン,0
234,1500005005711,登記記録の閉鎖等,0,2024-06-03,2024-05-28,医療法人野村デンタル医院,,その他の設立登記法人,愛媛県,四国中央市,川之江町２９７３番地の１,,38,213,7990101,,,2024-05-28,清算の結了等,,,2015-10-05,1,,,,,ノムラデンタルイイン,0
248,2010003024357,登記記録の閉鎖等,0,2024-06-03,2024-05-22,Ｕｐｗｉｎｄ２１合同会社,,合同会社,東京都,中央区,日本橋２丁目１番１７号丹生ビル２階,,13,102,1030027,,,2024-05-22,清算の結了等,,,2016-11-09,1,,,,,アップウィンドニジュウイチ,0
250,2010101007742,登記記録の閉鎖等,0,2024-06-03,2024-05-30,株式会社三雅,,株式会社,東京都,八王子市,暁町２丁目２９番２号,,13,201,1920043,,,2024-05-30,合併による解散等,9010102001457,令和６年５月３０日東京都八王子市暁町二丁目２９番２号株式会社大野商事（9010102001457）に合併し解散,2015-10-05,1,,,,,サンガ,0
253,2010401145283,登記記録の閉鎖等,0,2024-06-03,2024-05-20,株式会社ジャパン・スピリット,,株式会社,東京都,港区,虎ノ門３丁目１０－５－６Ｆ,,13,103,1050001,,,2024-05-20,清算の結了等,,,2019-04-26,1,,,,,ジャパンスピリット,0
261,2010501050978,登記記録の閉鎖等,0,2024-06-03,2024-05-30,ＭＡＸ株式会社,,株式会社,東京都,台東区,根岸１丁目１番２４号,,13,106,1100003,,,2024-05-30,清算の結了等,,,2023-09-04,1,,,,,マックス,0
284,2011501008215,登記記録の閉鎖等,0,2024-06-03,2024-05-28,株式会社ニユートーキヨー,,株式会社,東京都,荒川区,西日暮里２丁目１９番４号,,13,118,1160013,,,2024-05-28,合併による解散等,9011101021982,令和６年５月２３日東京都新宿区西新宿一丁目３番３号ニュートーキョー・ヨドバシ商事株式会社（9011101021982）に合併し解散,2015-10-05,1,,,,,ニユートーキヨー,0
298,2013302004673,登記記録の閉鎖等,0,2024-06-03,2024-05-24,有限会社システムクラフト,,有限会社,東京都,豊島区,北大塚１丁目２０番７号末広ビル４０２,00066918,13,116,1700004,,,2024-05-24,清算の結了等,,,2015-10-05,1,,,,,システムクラフト,0
299,2013303005670,登記記録の閉鎖等,0,2024-06-03,2024-05-24,Ｂａｙｅｓｉａｎ合同会社,,合同会社,東京都,武蔵野市,吉祥寺南町１丁目６－１５－１１３号室,,13,203,1800003,,,2024-05-24,清算の結了等,,,2021-05-13,1,,,,,ベイジアン,0
307,2020002043547,登記記録の閉鎖等,0,2024-06-03,2024-05-27,有限会社太栄堂,,有限会社,神奈川県,横浜市中区,弥生町５丁目４８番地７－６０１号,,14,104,2310058,,,2024-05-27,清算の結了等,,,2015-10-05,1,,,,,タイエイドウ,0
310,2020002045931,登記記録の閉鎖等,0,2024-06-03,2024-05-28,有限会社ヨコハマ花や,,有限会社,神奈川県,横浜市中区,弁天通３丁目４１番地,,14,104,2310007,,,2024-05-28,清算の結了等,,,2015-10-05,1,,,,,ヨコハマハナヤ,0
315,2021002020701,登記記録の閉鎖等,0,2024-06-03,2024-05-31,有限会社佐藤商会,,有限会社,神奈川県,相模原市南区,大野台１丁目９番３号,,14,153,2520331,,,2024-05-31,清算の結了等,,,2015-10-05,1,,,,,サトウショウカイ,0
317,2030001007799,登記記録の閉鎖等,0,2024-06-03,2024-05-30,マチダ電機株式会社,,株式会社,埼玉県,さいたま市南区,太田窪２丁目１８番２０号,,11,108,3360015,,,2024-05-30,清算の結了等,,,2015-10-05,1,,,,,マチダデンキ,0
323,2030002101097,登記記録の閉鎖等,0,2024-06-03,2024-05-28,有限会社大久保電機,,有限会社,埼玉県,川口市,東領家３丁目２１番２３号,,11,203,3320003,,,2024-05-28,清算の結了等,,,2015-10-05,1,,,,,オオクボデンキ,0
335,2050001028315,登記記録の閉鎖等,0,2024-06-03,2024-05-28,松本工業株式会社,,株式会社,茨城県,つくばみらい市,板橋２５３６番地,,08,235,3002307,,,2024-05-28,清算の結了等,,,2015-10-05,1,,,,,マツモトコウギョウ,0
341,2060002015492,登記記録の閉鎖等,0,2024-06-03,2024-05-29,有限会社リカーズやまこし,,有限会社,栃木県,日光市,木和田島１５２６番地１２２,,09,206,3212345,,,2024-05-29,清算の結了等,,,2015-10-05,1,,,,,リカーズヤマコシ,0
345,2070001000040,登記記録の閉鎖等,0,2024-06-03,2024-05-31,株式会社愛鳥園,,株式会社,群馬県,前橋市,日吉町１丁目１番４号,,10,201,3710017,,,2024-05-31,清算の結了等,,,2015-10-05,1,,,,,アイチョウエン,0
352,2090002011209,登記記録の閉鎖等,0,2024-06-03,2024-05-29,有限会社廣和,00068922,有限会社,山梨県,甲州市,塩山上粟生野１８０９番地５,,19,213,4040031,,,2024-05-29,清算の結了等,,,2015-10-05,1,,,,,,0
357,2110001029661,登記記録の閉鎖等,0,2024-06-03,2024-05-30,株式会社ビームスハウス,,株式会社,新潟県,新潟市中央区,南笹口１丁目９番２１号エスカイヤ笹口１Ｆ,,15,103,9500912,,,2024-05-30,清算の結了等,,,2015-10-05,1,,,,,ビームスハウス,0
373,2120101005818,登記記録の閉鎖等,0,2024-06-03,2024-05-28,株式会社パリ,,株式会社,大阪府,堺市堺区,北瓦町１丁２番１６号,,27,141,5900076,,,2024-05-28,清算の結了等,,,2015-10-05,1,,,,,パリ,0
384,2160001001772,登記記録の閉鎖等,0,2024-06-03,2024-05-31,株式会社ベルン,,株式会社,滋賀県,大津市,本堅田４丁目１１番１０号,,25,201,5200242,,,2024-05-31,清算の結了等,,,2015-10-05,1,,,,,ベルン,0
385,2160001004387,登記記録の閉鎖等,0,2024-06-03,2024-05-31,アークーセン株式会社,,株式会社,滋賀県,大津市,石山寺３丁目３番２４号,,25,201,5200861,,,2024-05-31,清算の結了等,,,2015-10-05,1,,,,,アークーセン,0
403,2200002028026,登記記録の閉鎖等,0,2024-06-03,2024-05-28,山の香り有限会社,,有限会社,岐阜県,郡上市,高鷲町大鷲１６８５番地の３,,21,219,5015303,,,2024-05-28,清算の結了等,,,2015-10-05,1,,,,,ヤマノカオリ,0
406,2220001010718,登記記録の閉鎖等,0,2024-06-03,2024-05-31,株式会社共栄モータース,,株式会社,石川県,金沢市,中村町２４番２２号,,17,201,9218022,,,2024-05-31,清算の結了等,,,2015-10-05,1,,,,,キョウエイモータース,0
408,2220002004512,登記記録の閉鎖等,0,2024-06-03,2024-05-28,有限会社ネスト,,有限会社,石川県,金沢市,池田町三番丁４７番地１,,17,201,9200985,,,2024-05-28,清算の結了等,,,2015-10-05,1,,,,,ネスト,0
409,2220002013686,登記記録の閉鎖等,0,2024-06-03,2024-05-30,有限会社チャンス,,有限会社,石川県,七尾市,舟尾町ら部１１６番地,,17,202,9292102,,,2024-05-30,合併による解散等,4220002015425,令和６年５月１５日石川県七尾市舟尾町ら部１１６番地株式会社アクト・ジャパン（4220002015425）に合併し解散,2015-10-05,1,,,,,チャンス,0
411,2230002006994,登記記録の閉鎖等,0,2024-06-03,2024-05-31,有限会社北日本新聞山室西部販売店,,有限会社,富山県,富山市,大泉１４６６番地１６,,16,201,9398058,,,2024-05-31,清算の結了等,,,2015-10-05,1,,,,,キタニホンシンブンヤマムロセイブハンバイテン,0
415,2260001023419,登記記録の閉鎖等,0,2024-06-03,2024-05-28,株式会社なぎた保険事務所,,株式会社,岡山県,総社市,井手１１８１番地１３,,33,208,7191125,,,2024-05-28,清算の結了等,,,2015-10-05,1,,,,,ナギタホケンジムショ,0
424,2330001012785,登記記録の閉鎖等,0,2024-06-03,2024-05-30,株式会社清水陸運,,株式会社,熊本県,下益城郡美里町,佐俣１０９６番地,,43,348,8614412,,,2024-05-30,清算の結了等,,,2015-10-05,1,,,,,シミズリクウン,0
438,2390002008430,登記記録の閉鎖等,0,2024-06-03,2024-05-27,有限会社ワタナベ工務店,,有限会社,山形県,酒田市,土渕字新田町４３番地の１,,06,204,9996839,,,2024-05-27,清算の結了等,,,2015-10-05,1,,,,,ワタナベコウムテン,0
444,2480001000494,登記記録の閉鎖等,0,2024-06-03,2024-05-31,株式会社北島ピーシー加工センター,,株式会社,徳島県,徳島市,昭和町８丁目２７番地,,36,201,7700942,,,2024-05-31,清算の結了等,,,2015-10-05,1,,,,,キタジマピーシーカコウセンター,0
453,3010001039067,登記記録の閉鎖等,0,2024-06-03,2024-05-22,大吉水産株式会社,,株式会社,東京都,中央区,築地４丁目７番５号,,13,102,1040045,,,2024-05-22,清算の結了等,,,2015-10-05,1,,,,,ダイキチスイサン,0
463,3010101000936,登記記録の閉鎖等,0,2024-06-03,2024-05-30,北島音楽出版株式会社,,株式会社,東京都,八王子市,暁町２丁目２９番２号,,13,201,1920043,,,2024-05-30,合併による解散等,9010102001457,令和６年５月３０日東京都八王子市暁町二丁目２９番２号株式会社大野商事（9010102001457）に合併し解散,2015-10-05,1,,,,,キタジマオンガクシュッパン,0
468,3010401134517,登記記録の閉鎖等,0,2024-06-03,2024-05-22,株式会社ＰａｔｅｎｔＳｉｇｈｔ　Ｊａｐａｎ,,株式会社,東京都,中央区,八重洲２丁目２番１号,,13,102,1040028,,,2024-05-22,清算の結了等,,,2017-10-24,1,,,,,パテントサイトジャパン,0
471,3010401152329,登記記録の閉鎖等,0,2024-06-03,2024-05-20,リカプト株式会社,,株式会社,東京都,港区,新橋６丁目４番３号ル・グラシエルＢＬＤＧ．７・４階４２３号室,,13,103,1050004,,,2024-05-20,清算の結了等,,,2020-04-14,1,,,,,リカプト,0
485,3010901012701,登記記録の閉鎖等,0,2024-06-03,2024-05-30,株式会社ラティナインターナショナルコーポレーション,,株式会社,東京都,世田谷区,羽根木１丁目３０番８号,,13,112,1560042,,,2024-05-30,合併による解散等,7010001037100,令和６年４月３０日東京都中央区湊二丁目６番４号株式会社ラティナ・フォルティス（7010001037100）に合併し解散,2015-10-05,1,,,,,ラティナインターナショナルコーポレーション,0
487,3010901049710,登記記録の閉鎖等,0,2024-06-03,2024-05-30,株式会社クリエイティブアイ,,株式会社,東京都,世田谷区,羽根木１丁目３０番８号,,13,112,1560042,,,2024-05-30,合併による解散等,7010001037100,令和６年４月３０日東京都中央区湊二丁目６番４号株式会社ラティナ・フォルティス（7010001037100）に合併し解散,2021-11-01,1,,,,,クリエイティブアイ,0
505,3011405001538,登記記録の閉鎖等,0,2024-06-03,2024-05-27,一般社団法人俊羽会,,その他の設立登記法人,東京都,板橋区,西台４丁目４番１１号キャッスル西台,,13,119,1750045,,,2024-05-27,清算の結了等,,,2015-10-05,1,,,,,,0
508,3011601014698,登記記録の閉鎖等,0,2024-06-03,2024-05-29,株式会社エヌケイエス,,株式会社,東京都,練馬区,早宮３丁目８番２０号,,13,120,1790085,,,2024-05-29,清算の結了等,,,2015-10-05,1,,,,,エヌケイエス,0
525,3030001015388,登記記録の閉鎖等,0,2024-06-03,2024-05-30,株式会社ヴィクトリー,,株式会社,埼玉県,さいたま市南区,四谷１丁目５番６号,,11,108,3360032,,,2024-05-30,清算の結了等,,,2015-10-05,1,,,,,ヴィクトリー,0
537,3030002073600,登記記録の閉鎖等,0,2024-06-03,2024-05-29,有限会社シー・エス・ピー,,有限会社,埼玉県,川越市,大字古市場３５番地,,11,201,3500014,,,2024-05-29,清算の結了等,,,2015-10-05,1,,,,,シーエスピー,0
541,3040001009554,登記記録の閉鎖等,0,2024-06-03,2024-05-24,株式会社エクセレント,,株式会社,東京都,大田区,南久が原２丁目８番２０－２０５号,,13,111,1460084,,,2024-05-24,清算の結了等,,,2015-10-05,1,,,,,エクセレント,0
553,3070001002399,登記記録の閉鎖等,0,2024-06-03,2024-05-31,株式会社日本健康指導協会,,株式会社,群馬県,前橋市,紅雲町１丁目２１番５号,,10,201,3710025,,,2024-05-31,清算の結了等,,,2015-10-05,1,,,,,ニホンケンコウシドウキョウカイ,0
554,3080002006489,登記記録の閉鎖等,0,2024-06-03,2024-05-29,有限会社良和工業,,有限会社,静岡県,静岡市駿河区,南安倍３丁目２５番３号,,22,102,4228054,,,2024-05-29,清算の結了等,,,2015-10-05,1,,,,,リョウワコウギョウ,0
565,3100005012143,登記記録の閉鎖等,0,2024-06-03,2024-05-23,一般社団法人信州伊那宙,,その他の設立登記法人,長野県,伊那市,手良野口１５９７番地,,20,209,3960003,,,2024-05-23,清算の結了等,,,2017-10-24,1,,,,,シンシュウイナソラ,0
567,3120001013424,登記記録の閉鎖等,0,2024-06-03,2024-05-31,平井化学株式会社,,株式会社,大阪府,大阪市東成区,東中本１丁目４番１０号,,27,115,5370021,,,2024-05-31,清算の結了等,,,2015-10-05,1,,,,,ヒライカガク,0
568,3120001140879,登記記録の閉鎖等,0,2024-06-03,2024-05-31,株式会社Ｋ＆Ｄみらい教育研究社,,株式会社,大阪府,大阪市天王寺区,上汐３丁目１番６号イオ上本町ビル５０１号,,27,109,5430002,,,2024-05-31,清算の結了等,,,2015-10-05,1,,,,,ケーアンドディーミライキョウイクケンキュウシャ,0
569,3120001183077,登記記録の閉鎖等,0,2024-06-03,2024-05-30,株式会社ヒューマンライフ,,株式会社,京都府,京都市下京区,烏丸通五条下る大坂町３８２番地１,,26,106,6008177,,,2024-05-30,清算の結了等,,,2015-10-05,1,,,,,ヒューマンライフ,0
577,3120002060069,登記記録の閉鎖等,0,2024-06-03,2024-05-31,有限会社読売センター淀川,,有限会社,大阪府,大阪市淀川区,田川２丁目５番１５号,,27,123,5320027,,,2024-05-31,清算の結了等,,,2015-10-05,1,,,,,ヨミウリセンターヨドガワ,0
589,3122001000757,登記記録の閉鎖等,0,2024-06-03,2024-05-31,上田國鉄工株式会社,,株式会社,大阪府,東大阪市,西堤本通西１丁目２９番４号,,27,227,5770046,,,2024-05-31,清算の結了等,,,2015-10-05,1,,,,,ウエダクニテッコウ,0
623,3180301015107,登記記録の閉鎖等,0,2024-06-03,2024-05-27,株式会社小笠原建設,,株式会社,愛知県,碧南市,中後町１丁目３５番地,,23,209,4470042,,,2024-05-27,清算の結了等,,,2015-10-05,1,,,,,オガサワラケンセツ,0
637,3240001036181,登記記録の閉鎖等,0,2024-06-03,2024-03-21,株式会社エス・エイ,,株式会社,広島県,安芸郡熊野町,城之堀９丁目６番１号,,34,307,7314215,,,2024-03-21,清算の結了等,,,2015-10-05,1,,,,,エスエイ,0
640,3250003000374,登記記録の閉鎖等,0,2024-06-03,2024-05-30,合資会社秋山軽天工業,,合資会社,山口県,山陽小野田市,大字郡２７０７番地２,,35,216,7570002,,,2024-05-30,清算の結了等,,,2015-10-05,1,,,,,アキヤマケイテンコウギョウ,0
649,3290001101674,登記記録の閉鎖等,0,2024-06-03,2024-05-10,ＭａｒｉｎｅＡｃｔｉｖｉｔｙＦｕｋｕｏｋａ株式会社,,株式会社,福岡県,福津市,津屋崎７丁目９番１５号,,40,224,8113304,,,2024-05-10,清算の結了等,,,2023-05-29,1,,,,,マリンアクティビティフクオカ,0
690,3430002035386,登記記録の閉鎖等,0,2024-06-03,2024-05-28,有限会社ケイズカンパニー,,有限会社,北海道,札幌市東区,丘珠町５８３番地４,,01,103,0070880,,,2024-05-28,清算の結了等,,,2015-10-05,1,,,,,ケイズカンパニー,0
694,3480002001375,登記記録の閉鎖等,0,2024-06-03,2024-05-30,有限会社興永商事,,有限会社,徳島県,徳島市,八万町下福万１６０番地７,,36,201,7708074,,,2024-05-30,清算の結了等,,,2015-10-05,1,,,,,コウエイショウジ,0
731,4010403023733,登記記録の閉鎖等,0,2024-06-03,2024-05-17,楓合同会社,,合同会社,東京都,港区,西新橋１丁目１番１号ＥＰコンサルティングサービス内,,13,103,1050003,,,2024-05-17,清算の結了等,,,2020-09-14,1,,,,,カエデ,0
734,4010405018830,登記記録の閉鎖等,0,2024-06-03,2024-05-17,一般社団法人Ｎａｐｌｅｓ,,その他の設立登記法人,東京都,港区,虎ノ門５丁目１番４号,,13,103,1050001,,,2024-05-17,清算の結了等,,,2020-06-15,1,,,,,ナポリ,0
736,4010601034202,登記記録の閉鎖等,0,2024-06-03,2024-05-30,株式会社ソラック・コーポレーション,,株式会社,埼玉県,さいたま市大宮区,天沼町２丁目８７７番地２,,11,103,3300834,,,2024-05-30,清算の結了等,,,2015-10-05,1,,,,,ソラックコーポレーション,0
742,4010802006090,登記記録の閉鎖等,0,2024-06-03,2024-05-24,有限会社桜ハイム,,有限会社,東京都,大田区,山王４丁目３０番１２号,,13,111,1430023,,,2024-05-24,清算の結了等,,,2015-10-05,1,,,,,サクラハイム,0
756,4011202005971,登記記録の閉鎖等,0,2024-06-03,2024-05-27,有限会社村山板金店,,有限会社,東京都,中野区,丸山２丁目２３番１４号,,13,114,1650021,,,2024-05-27,清算の結了等,,,2015-10-05,1,,,,,ムラヤマバンキンテン,0
775,4020001090605,登記記録の閉鎖等,0,2024-06-03,2024-05-24,株式会社令和測量,,株式会社,神奈川県,川崎市中原区,木月３丁目３２番１１号,,14,133,2110025,,,2024-05-24,合併による解散等,8020001080783,令和６年５月１５日神奈川県川崎市高津区二子六丁目１４番１０号株式会社カワコン（8020001080783）に合併し解散,2015-10-05,1,,,,,レイワソクリョウ,0
807,4080101011827,登記記録の閉鎖等,0,2024-06-03,2024-05-31,株式会社松浦建設,,株式会社,静岡県,富士宮市,富士見ケ丘２４１番地,,22,207,4180014,,,2024-05-31,清算の結了等,,,2015-10-05,1,,,,,マツウラケンセツ,0
829,4120101055217,登記記録の閉鎖等,0,2024-06-03,2024-05-24,株式会社Ｅｖｅｒ　Ｇｒｅｅｎ,,株式会社,大阪府,堺市北区,大豆塚町１丁２８番地２,,27,146,5918042,,,2024-05-24,清算の結了等,,,2016-08-09,1,,,,,エバーグリーン,0
835,4130001006021,登記記録の閉鎖等,0,2024-06-03,2024-05-31,株式会社エナール,,株式会社,京都府,京都市左京区,一乗寺宮ノ東町１８番地,,26,103,6068116,,,2024-05-31,清算の結了等,,,2015-10-05,1,,,,,エナール,0
853,4180001158080,登記記録の閉鎖等,0,2024-06-03,2024-05-29,株式会社河頭,,株式会社,愛知県,名古屋市西区,見寄町１７３番地第二中沼ビル２０１,,23,104,4520839,,,2024-05-29,清算の結了等,,,2023-09-20,1,,,,,カワズ,0
874,4260002015198,登記記録の閉鎖等,0,2024-06-03,2024-05-27,有限会社ほししま葬祭,,有限会社,岡山県,岡山市南区,迫川８４番地４,,33,104,7091211,,,2024-05-27,清算の結了等,,,2015-10-05,1,,,,,ホシシマソウサイ,0
875,4280001006758,登記記録の閉鎖等,0,2024-06-03,2024-05-30,株式会社ミッドウッド,,株式会社,島根県,出雲市,高岡町５１１番地１,,32,203,6930066,,,2024-05-30,清算の結了等,,,2015-10-05,1,,,,,ミッドウッド,0
898,4330002005002,登記記録の閉鎖等,0,2024-06-03,2024-05-31,有限会社七幸,,有限会社,熊本県,熊本市中央区,下通１丁目８番２４号,,43,101,8600807,,,2024-05-31,清算の結了等,,,2015-10-05,1,,,,,シチコウ,0
906,4370002007358,登記記録の閉鎖等,0,2024-06-03,2024-05-28,有限会社興和商会,,有限会社,宮城県,仙台市青葉区,小田原８丁目６番２号,,04,101,9800003,,,2024-05-28,清算の結了等,,,2015-10-05,1,,,,,コウワショウカイ,0
937,5010401098628,登記記録の閉鎖等,0,2024-06-03,2024-05-20,株式会社イプシロン・グループ,,株式会社,東京都,港区,新橋６丁目５番４－２１９号,,13,103,1050004,,,2024-05-20,清算の結了等,,,2015-10-05,1,,,,,イプシロングループ,0
945,5010405014192,登記記録の閉鎖等,0,2024-06-03,2024-05-17,一般社団法人ＷＡＤＡＴＳＵＭＩ,,その他の設立登記法人,福岡県,福岡市中央区,大名２丁目４番２２号,,40,133,8100041,,,2024-05-17,清算の結了等,,,2015-10-05,1,,,,,ワダツミ,0
963,5011101000932,登記記録の閉鎖等,0,2024-06-03,2024-05-27,株式会社アドセラ,,株式会社,東京都,板橋区,熊野町２７番１号,,13,119,1730025,,,2024-05-27,清算の結了等,,,2015-10-05,1,,,,,アドセラ,0
967,5011301018411,登記記録の閉鎖等,0,2024-06-03,2024-05-27,株式会社ＭＡＣ　ＩＮＤＵＳＴＲＩＥＳ,,株式会社,東京都,板橋区,赤塚６丁目２７番１１号,,13,119,1750092,,,2024-05-27,清算の結了等,,,2015-10-05,1,,,,,マックインダストリーズ,0
985,5020001043280,登記記録の閉鎖等,0,2024-06-03,2024-05-29,株式会社シグエンタープライズ,,株式会社,神奈川県,横浜市保土ケ谷区,権太坂１丁目３７番１８号,,14,106,2400026,,,2024-05-29,清算の結了等,,,2015-10-05,1,,,,,シグエンタープライズ,0
1030,5070001015977,登記記録の閉鎖等,0,2024-06-03,2024-05-30,株式会社寿工業,,株式会社,群馬県,みどり市,大間々町大間々１１番地１,,10,212,3760101,,,2024-05-30,清算の結了等,,,2015-10-05,1,,,,,コトブキコウギョウ,0
1033,5080405007413,登記記録の閉鎖等,0,2024-06-03,2024-05-31,一般社団法人日本優良住宅促進会,,その他の設立登記法人,静岡県,浜松市中央区,富塚町３８７７番地の３０１,,22,138,4328002,,,2024-05-31,清算の結了等,,,2022-01-06,1,,,,,ニホンユウリョウジュウタクソクシンカイ,0
1038,5100002025402,登記記録の閉鎖等,0,2024-06-03,2024-05-27,有限会社安田製麺,00069627,有限会社,長野県,塩尻市,大門八番町３番１０号,,20,215,3990737,,,2024-05-27,清算の結了等,,,2015-10-05,1,,,,,ヤスダセイメン,0
1051,5120001214524,登記記録の閉鎖等,0,2024-06-03,2024-05-31,株式会社ＵＴＯＧＡＲＩＡ,,株式会社,兵庫県,神戸市東灘区,御影中町１丁目７番２１号,,28,101,6580054,,,2024-05-31,清算の結了等,,,2018-07-10,1,,,,,ウトガリア,0
1071,5140001018444,登記記録の閉鎖等,0,2024-06-03,2024-05-20,株式会社ジエム,,株式会社,東京都,渋谷区,代官山町１７番１－１５０３号,,13,113,1500034,,,2024-05-20,清算の結了等,,,2015-10-05,1,,,,,ジェム,0
1081,5170002006841,登記記録の閉鎖等,0,2024-06-03,2024-05-30,有限会社モリヤ,,有限会社,和歌山県,海草郡紀美野町,蓑津呂８１番地,,30,304,6401204,,,2024-05-30,清算の結了等,,,2015-10-05,1,,,,,モリヤ,0
1089,5180301009957,登記記録の閉鎖等,0,2024-06-03,2024-05-27,株式会社大栄工業,,株式会社,愛知県,豊川市,蔵子６丁目１番地１,,23,207,4420842,,,2024-05-27,清算の結了等,,,2015-10-05,1,,,,,ダイエイコウギョウ,0
1095,5200001037446,登記記録の閉鎖等,0,2024-06-03,2024-05-29,株式会社ファミリーエステート,,株式会社,岐阜県,可児市,瀬田４３０番１,,21,214,5090213,,,2024-05-29,合併による解散等,3200001038082,令和６年４月１日岐阜県可児市瀬田４３０番１株式会社ＣｅｎｔＬｉｎｋホールディングス（3200001038082）に合併し解散,2020-05-20,1,,,,,ファミリーエステート,0
1113,5290001052775,登記記録の閉鎖等,0,2024-06-03,2024-05-27,株式会社菊次商店,,株式会社,福岡県,柳川市,三橋町五拾町３２２番地,,40,207,8320812,,,2024-05-27,清算の結了等,,,2015-10-05,1,,,,,キクツギショウテン,0
1115,5290001082038,登記記録の閉鎖等,0,2024-06-03,2024-05-09,田中藍アグリ株式会社,,株式会社,福岡県,久留米市,瀬下町９３番地,,40,203,8300025,,,2024-05-09,清算の結了等,,,2018-07-19,1,,,,,タナカアイアグリ,0
1117,5290002031027,登記記録の閉鎖等,0,2024-06-03,2024-05-09,株式会社ＪＩＮ,,株式会社,福岡県,福岡市西区,福重３丁目１４番５０号,,40,135,8190022,,,2024-05-09,清算の結了等,,,2015-10-05,1,,,,,ジン,0
1132,5400002007725,登記記録の閉鎖等,0,2024-06-03,2024-05-22,有限会社山本造林社,,有限会社,岩手県,八幡平市,舘市８１番地,,03,214,0287623,,,2024-05-22,清算の結了等,,,2015-10-05,1,,,,,ヤマモトゾウリンシャ,0
1144,5460301003782,登記記録の閉鎖等,0,2024-06-03,2024-05-31,株式会社はるか,,株式会社,北海道,北見市,東陵町６１番地１０,,01,208,0900061,,,2024-05-31,清算の結了等,,,2015-10-05,1,,,,,,0
1172,6010401162556,登記記録の閉鎖等,0,2024-06-03,2024-05-29,ＡＭＧ株式会社,,株式会社,沖縄県,中頭郡中城村,字南上原１１１２番地１オーシャンビュー松山ＩＩＢ１Ｆ,00125590,47,328,9012424,,,2024-05-29,清算の結了等,,,2021-09-06,1,,,,,エーエムジー,0
1176,6010402028946,登記記録の閉鎖等,0,2024-06-03,2024-05-20,Ａ．Ｌ．Ｃ．Ａｔｌａｎｔｉｓ有限会社,,有限会社,東京都,港区,東麻布２丁目２２番５号ＡｚａｂｕＥａｓｔＣｏｕｒｔ１階,,13,103,1060044,,,2024-05-20,清算の結了等,,,2015-10-05,1,,,,,エーエルシーアトランティス,0
1179,6010405021147,登記記録の閉鎖等,0,2024-06-03,2024-05-20,一般社団法人実験芸術研究機構,,その他の設立登記法人,東京都,港区,南麻布４丁目１１－１７インペリアル南麻布４１９,,13,103,1060047,,,2024-05-20,清算の結了等,,,2022-07-14,1,,,,,ジッケンゲイジュツケンキュウキコウ,0
1193,6011001131488,登記記録の閉鎖等,0,2024-06-03,2024-05-17,株式会社ｉｓｓｈｉｎ,,株式会社,東京都,渋谷区,上原１丁目３８番６号,,13,113,1510064,,,2024-05-17,清算の結了等,,,2019-12-23,1,,,,,イッシン,0
1195,6011003008916,登記記録の閉鎖等,0,2024-06-03,2024-05-30,合同会社ＦＦＫＴ,,合同会社,東京都,世田谷区,中町５丁目９－１,,13,112,1580091,,,2024-05-30,清算の結了等,,,2018-06-26,1,,,,,エフエフケーティ,0
1205,6012301009300,登記記録の閉鎖等,0,2024-06-03,2024-05-27,株式会社アイ・サービス,,株式会社,東京都,町田市,真光寺１丁目３３番地４０,,13,209,1950057,,,2024-05-27,清算の結了等,,,2015-10-05,1,,,,,,0
1223,6013302012945,登記記録の閉鎖等,0,2024-06-03,2024-05-24,有限会社やまかみ産業,,有限会社,東京都,豊島区,高松１丁目２番２号,,13,116,1710042,,,2024-05-24,清算の結了等,,,2015-10-05,1,,,,,ヤマカミサンギョウ,0
1224,6020001036011,登記記録の閉鎖等,0,2024-06-03,2024-05-30,パルテック株式会社,,株式会社,神奈川県,逗子市,桜山６丁目１３７６番地の８,,14,208,2490005,,,2024-05-30,清算の結了等,,,2015-10-05,1,,,,,パルテック,0
1231,6020002055638,登記記録の閉鎖等,0,2024-06-03,2024-05-23,有限会社エクスビジョン,,有限会社,神奈川県,横浜市港北区,師岡町３４３番地,,14,109,2220002,,,2024-05-23,清算の結了等,,,2015-10-05,1,,,,,エクスビジョン,0
1238,6030001072195,登記記録の閉鎖等,0,2024-06-03,2024-05-30,株式会社ヴィンテージ・ヴァリュー,,株式会社,埼玉県,東松山市,大字石橋１６８５番地７,,11,212,3550072,,,2024-05-30,清算の結了等,,,2015-10-05,1,,,,,ヴィンテージヴァリュー,0
1244,6030002122684,登記記録の閉鎖等,0,2024-06-03,2024-05-28,有限会社みらい商事,,有限会社,埼玉県,秩父市,大畑町１５番２７号,,11,207,3680011,,,2024-05-28,清算の結了等,,,2015-10-05,1,,,,,ミライショウジ,0
1258,6080002016221,登記記録の閉鎖等,0,2024-06-03,2024-05-28,有限会社藤商事,,有限会社,静岡県,焼津市,小土８０５番地の８,,22,212,4250086,,,2024-05-28,清算の結了等,,,2015-10-05,1,,,,,フジショウジ,0
1266,6100001013480,登記記録の閉鎖等,0,2024-06-03,2024-05-22,株式会社タイラ運輸,,株式会社,長野県,松本市,大字和田１６４６番地,,20,202,3901242,,,2024-05-22,清算の結了等,,,2015-10-05,1,,,,,タイラウンユ,0
1284,6120101054844,登記記録の閉鎖等,0,2024-06-03,2024-05-29,株式会社Ｔ－Ｓｕｐｐｏｒｔ,,株式会社,大阪府,富田林市,大字伏見堂２０６番地３,,27,214,5840055,,,2024-05-29,清算の結了等,,,2016-05-31,1,,,,,,0
1289,6130001053474,登記記録の閉鎖等,0,2024-06-03,2024-05-30,株式会社瑞翔,,株式会社,京都府,船井郡京丹波町,蒲生蒲生野３１８番地５,,26,407,6220214,,,2024-05-30,清算の結了等,,,2015-10-05,1,,,,,ズイショウ,0
1309,6180002015766,登記記録の閉鎖等,0,2024-06-03,2024-05-29,有限会社クイックワン,,有限会社,愛知県,名古屋市東区,徳川１丁目１６番１７号,,23,102,4610025,,,2024-05-29,清算の結了等,,,2015-10-05,1,,,,,クイックワン,0
1320,6180302021200,登記記録の閉鎖等,0,2024-06-03,2024-05-30,有限会社愛豊住建,,有限会社,愛知県,豊田市,井上町１丁目２６番地３,,23,211,4700372,,,2024-05-30,清算の結了等,,,2015-10-05,1,,,,,アイホウジュウケン,0
1325,6200002001334,登記記録の閉鎖等,0,2024-06-03,2024-05-31,有限会社アティスト,,有限会社,岐阜県,岐阜市,美島町４丁目２５番地,,21,201,5020903,,,2024-05-31,清算の結了等,,,2015-10-05,1,,,,,アティスト,0
1336,6290003010111,登記記録の閉鎖等,0,2024-06-03,2024-05-10,ブルーステラ合同会社,,合同会社,福岡県,福岡市東区,馬出６丁目１５番３４号,,40,131,8120054,,,2024-05-10,清算の結了等,,,2020-06-24,1,,,,,ブルーステラ,0
1341,6290801014726,登記記録の閉鎖等,0,2024-06-03,2024-05-28,株式会社彩粋苑,,株式会社,福岡県,直方市,大字知古１４５６番地１,,40,204,8220022,,,2024-05-28,清算の結了等,,,2015-10-05,1,,,,,サイスイエン,0
1344,6320001010365,登記記録の閉鎖等,0,2024-06-03,2024-05-30,株式会社明治会館,,株式会社,大分県,玖珠郡玖珠町,大字塚脇１８１番地の１,,44,462,8794413,,,2024-05-30,清算の結了等,,,2015-10-05,1,,,,,メイジカイカン,0
1395,7010702015032,登記記録の閉鎖等,0,2024-06-03,2024-05-28,有限会社ヴォガ,,有限会社,愛知県,名古屋市中区,富士見町８番８号,,23,106,4600014,,,2024-05-28,清算の結了等,,,2015-10-05,1,,,,,ヴォガ,0
1397,7010901000272,登記記録の閉鎖等,0,2024-06-03,2024-05-30,株式会社アリーバエンタテインメント,,株式会社,東京都,世田谷区,羽根木１丁目３０番８号,,13,112,1560042,,,2024-05-30,合併による解散等,7010001037100,令和６年４月３０日東京都中央区湊二丁目６番４号株式会社ラティナ・フォルティス（7010001037100）に合併し解散,2015-10-05,1,,,,,アリーバエンタテインメント,0
1398,7010901011451,登記記録の閉鎖等,0,2024-06-03,2024-05-30,株式会社丸泉漆器店,,株式会社,東京都,世田谷区,等々力７丁目２１番１１号,,13,112,1580082,,,2024-05-30,清算の結了等,,,2015-10-05,1,,,,,マルセンシッキテン,0
1404,7011001119144,登記記録の閉鎖等,0,2024-06-03,2024-05-29,株式会社ミクロフ,,株式会社,東京都,渋谷区,笹塚１丁目５９番９－２０５号,,13,113,1510073,,,2024-05-29,合併による解散等,8050003005892,令和６年５月２４日茨城県筑西市乙１０２２番地アルホット合同会社（8050003005892）に合併し解散,2017-11-09,1,,,,,,0
1419,7013105001707,登記記録の閉鎖等,0,2024-06-03,2024-05-30,特定非営利活動法人国際生活支援センター,,その他の設立登記法人,東京都,福生市,加美平１丁目１９番地８秋山ハイツ２０２号室,,13,218,1970012,,,2024-05-30,清算の結了等,,,2018-06-05,1,,,,,コクサイセイカツシエンセンター,0
1423,7020001078754,登記記録の閉鎖等,0,2024-06-03,2024-05-29,株式会社和居２０２０,,株式会社,東京都,町田市,森野１丁目３６番２号セレステ町田１階,,13,209,1940022,,,2024-05-29,清算の結了等,,,2015-10-05,1,,,,,ワイニーマルニーマル,0
1435,7021002043854,登記記録の閉鎖等,0,2024-06-03,2024-05-31,有限会社大勇化成,,有限会社,神奈川県,相模原市中央区,田名２２７５番地,,14,152,2520244,,,2024-05-31,清算の結了等,,,2015-10-05,1,,,,,,0
1446,7030002043698,登記記録の閉鎖等,0,2024-06-03,2024-05-30,有限会社カーショップワタナベ,,有限会社,埼玉県,草加市,遊馬町６５２番地２,,11,221,3400032,,,2024-05-30,清算の結了等,,,2015-10-05,1,,,,,カーショップワタナベ,0
1467,7080101008267,登記記録の閉鎖等,0,2024-06-03,2024-05-31,株式会社大富産業,,株式会社,静岡県,富士市,中野１０１２番地の３,,22,210,4170809,,,2024-05-31,清算の結了等,,,2015-10-05,1,,,,,,0
1473,7090002014272,登記記録の閉鎖等,0,2024-06-03,2024-05-29,有限会社北高技研,,有限会社,山梨県,北杜市,高根町村山東割１５１１番地１,,19,209,4080019,,,2024-05-29,清算の結了等,,,2015-10-05,1,,,,,,0
1475,7110001032272,登記記録の閉鎖等,0,2024-06-03,2024-05-30,株式会社センターフィールド,,株式会社,新潟県,新潟市東区,空港西２丁目１５番４７号,,15,102,9500036,,,2024-05-30,清算の結了等,,,2017-04-06,1,,,,,センターフィールド,0
1485,7120005014002,登記記録の閉鎖等,0,2024-06-03,2024-05-30,医療法人嶋田医院,,その他の設立登記法人,大阪府,門真市,常称寺町２０番４号,,27,223,5710063,,,2024-05-30,清算の結了等,,,2015-10-05,1,,,,,シマダイイン,0
1493,7120102003312,登記記録の閉鎖等,0,2024-06-03,2024-05-27,有限会社ナカイ,,有限会社,大阪府,堺市東区,高松１７６番地,,27,143,5998121,,,2024-05-27,清算の結了等,,,2015-10-05,1,,,,,ナカイ,0
1498,7122001013722,登記記録の閉鎖等,0,2024-06-03,2024-05-28,株式会社鈴木,,株式会社,大阪府,東大阪市,川田２丁目９番１６号,,27,227,5780905,,,2024-05-28,清算の結了等,,,2015-10-05,1,,,,,スズキ,0
1499,7122001028299,登記記録の閉鎖等,0,2024-06-03,2024-05-30,株式会社ＲＥＰＡＩＲ,,株式会社,大阪府,大阪市東成区,玉津１丁目１０番３５号,,27,115,5370023,,,2024-05-30,清算の結了等,,,2015-10-05,1,,,,,リペア,0
1501,7130001011588,登記記録の閉鎖等,0,2024-06-03,2024-05-29,株式会社ケイジー,,株式会社,京都府,京都市南区,上鳥羽南島田町７２番地,,26,107,6018183,,,2024-05-29,清算の結了等,,,2015-10-05,1,,,,,ケイジー,0
1502,7130001020408,登記記録の閉鎖等,0,2024-06-03,2024-05-30,株式会社きっかわ,,株式会社,京都府,京都市中京区,壬生天池町２２番地,,26,104,6048874,,,2024-05-30,清算の結了等,,,2015-10-05,1,,,,,キッカワ,0
1530,7190003003710,登記記録の閉鎖等,0,2024-06-03,2024-05-30,Ｍ’ｓ－ｉｎｆｉｎｉｔｙ合同会社,,合同会社,三重県,四日市市,石塚町１９番３０号－２１０,,24,202,5100828,,,2024-05-30,清算の結了等,,,2021-06-28,1,,,,,エムズインフィニティ,0
1538,7230002000522,登記記録の閉鎖等,0,2024-06-03,2024-05-31,有限会社エヌエヌフードサービス,,有限会社,富山県,魚津市,吉島２丁目４番２５号,,16,204,9370041,,,2024-05-31,清算の結了等,,,2015-10-05,1,,,,,エヌエヌフードサービス,0
1539,7240001003640,登記記録の閉鎖等,0,2024-06-03,2024-05-29,株式会社コスモス二十一,,株式会社,広島県,広島市中区,東白島町７番１７号,,34,101,7300004,,,2024-05-29,清算の結了等,,,2015-10-05,1,,,,,コスモスニジュウイチ,0
1552,7290003005713,登記記録の閉鎖等,0,2024-06-03,2024-05-09,ＮＡＣＯＳ合同会社,,合同会社,福岡県,福岡市博多区,東公園２‐３２松田屋ビル１号室,,40,132,8120045,,,2024-05-09,清算の結了等,,,2015-10-05,1,,,,,ナコス,0
1606,8010401137589,登記記録の閉鎖等,0,2024-06-03,2024-05-30,株式会社こうち外商ＳＮ,,株式会社,高知県,高知市,中秦泉寺３０９番地２１,,39,201,7800021,,,2024-05-30,清算の結了等,,,2018-04-06,1,,,,,コウチガイショウエスエヌ,0
1612,8010405020205,登記記録の閉鎖等,0,2024-06-03,2024-05-22,ＤＳ　Ｎｉｓｈｉｓｈｉｎｊｕｋｕ一般社団法人,,その他の設立登記法人,東京都,港区,虎ノ門５丁目１番４号,,13,103,1050001,,,2024-05-22,清算の結了等,,,2021-09-08,1,,,,,ディーエスニシシンジュク,0
1618,8010601055277,登記記録の閉鎖等,0,2024-06-03,2024-05-24,株式会社ＧＭ‐ＮｅＸＴ,,株式会社,東京都,豊島区,南池袋１丁目１１番１９－１０１３号,,13,116,1710022,,,2024-05-24,清算の結了等,,,2019-04-03,1,,,,,ジーエムネクスト,0
1643,8012403004024,登記記録の閉鎖等,0,2024-06-03,2024-05-27,合同会社ゲタ・プロダクション,,合同会社,東京都,調布市,布田１丁目４３－２グレースメゾン谷中Ｎ棟２０４,,13,208,1820024,,,2024-05-27,清算の結了等,,,2019-09-17,1,,,,,ゲタプロダクション,0
1671,8030001059471,登記記録の閉鎖等,0,2024-06-03,2024-05-17,よにん株式会社,,株式会社,東京都,港区,南青山２丁目２番１５号,,13,103,1070062,,,2024-05-17,清算の結了等,,,2015-10-05,1,,,,,ヨニン,0
1682,8050002004771,登記記録の閉鎖等,0,2024-06-03,2024-05-30,有限会社ミサキエンジニアリング,,有限会社,茨城県,水戸市,元石川町２５２３番地,,08,201,3100843,,,2024-05-30,清算の結了等,,,2015-10-05,1,,,,,ミサキエンジニアリング,0
1683,8050002029942,登記記録の閉鎖等,0,2024-06-03,2024-05-30,有限会社ヤグチインテリア工業,,有限会社,茨城県,鉾田市,烟田１４６９番地,,08,234,3111515,,,2024-05-30,清算の結了等,,,2015-10-05,1,,,,,ヤグチインテリアコウギョウ,0
1685,8050005006971,登記記録の閉鎖等,0,2024-06-03,2024-05-22,おらが村事業協同組合,,その他の設立登記法人,茨城県,神栖市,波崎１９８番地１,,08,232,3140408,,,2024-05-22,清算の結了等,,,2015-10-05,1,,,,,オラガムラ,0
1705,8120001191166,登記記録の閉鎖等,0,2024-06-03,2024-05-31,株式会社ふうふう亭,,株式会社,大阪府,大阪市住吉区,苅田７丁目３番１０号,,27,120,5580011,,,2024-05-31,合併による解散等,5120001032364,令和６年５月３１日大阪市住吉区苅田七丁目３番１０号岡山フードサービス株式会社（5120001032364）に合併し解散,2015-10-05,1,,,,,フウフウテイ,0
1755,8200002009037,登記記録の閉鎖等,0,2024-06-03,2024-05-30,有限会社エルモードかがみ,,有限会社,岐阜県,岐阜市,問屋町３丁目３番地,,21,201,5008845,,,2024-05-30,清算の結了等,,,2015-10-05,1,,,,,エルモードカガミ,0
1756,8200003004747,登記記録の閉鎖等,0,2024-06-03,2024-05-28,合同会社アイシーサービス,,合同会社,岐阜県,各務原市,テクノプラザ２丁目３６番地,,21,213,5090109,,,2024-05-28,清算の結了等,,,2020-03-23,1,,,,,アイシーサービス,0
1758,8220001012502,登記記録の閉鎖等,0,2024-06-03,2024-05-29,株式会社メイコウ電気北陸,,株式会社,石川県,小松市,木場町カ８１番地,,17,203,9230311,,,2024-05-29,清算の結了等,,,2015-10-05,1,,,,,メイコウデンキホクリク,0
1763,8240002001221,登記記録の閉鎖等,0,2024-06-03,2024-05-31,有限会社石橋工務,,有限会社,広島県,広島市安佐北区,亀山６丁目１６番４号,,34,106,7310231,,,2024-05-31,清算の結了等,,,2015-10-05,1,,,,,,0
1771,8290002008971,登記記録の閉鎖等,0,2024-06-03,2024-05-09,有限会社ＭＮＢ工事,,有限会社,福岡県,福岡市早良区,小田部１丁目１２番１１号,,40,137,8140032,,,2024-05-09,清算の結了等,,,2015-10-05,1,,,,,エムエヌビーコウジ,0
1791,8410002000494,登記記録の閉鎖等,0,2024-06-03,2024-05-29,有限会社秋田板金工業,,有限会社,秋田県,秋田市,飯島西袋３丁目８番１０号,,05,201,0110948,,,2024-05-29,清算の結了等,,,2015-10-05,1,,,,,アキタバンキンコウギョウ,0
1806,8460301001164,登記記録の閉鎖等,0,2024-06-03,2024-05-31,株式会社リトルパル,,株式会社,北海道,北見市,光西町１８１番地１,,01,208,0900835,,,2024-05-31,清算の結了等,,,2015-10-05,1,,,,,リトルパル,0
1813,8480002006139,登記記録の閉鎖等,0,2024-06-03,2024-05-30,有限会社栄華商事,,有限会社,徳島県,徳島市,八万町下福万１６０番地の８,,36,201,7708074,,,2024-05-30,清算の結了等,,,2015-10-05,1,,,,,エイカショウジ,0
1833,9010401170671,登記記録の閉鎖等,0,2024-06-03,2024-05-17,株式会社セレニティ,,株式会社,東京都,港区,北青山１丁目２番３号,,13,103,1070061,,,2024-05-17,清算の結了等,,,2022-11-02,1,,,,,セレニティ,0
1841,9010501010364,登記記録の閉鎖等,0,2024-06-03,2024-05-30,株式会社丹羽,,株式会社,東京都,台東区,元浅草３丁目１５番１３号,,13,106,1110041,,,2024-05-30,清算の結了等,,,2015-10-05,1,,,,,ニワ,0
1860,9011203004035,登記記録の閉鎖等,0,2024-06-03,2024-05-17,合同会社Ｂａｒｕｔａｎ,,合同会社,東京都,中野区,本町１丁目１１－１－４０７,,13,114,1640012,,,2024-05-17,清算の結了等,,,2023-03-30,1,,,,,バルタン,0
1863,9011401011816,登記記録の閉鎖等,0,2024-06-03,2024-05-27,株式会社オフィスイシザキ,,株式会社,東京都,板橋区,赤塚６丁目４番１１号,,13,119,1750092,,,2024-05-27,清算の結了等,,,2015-10-05,1,,,,,オフィスイシザキ,0
1866,9011701008842,登記記録の閉鎖等,0,2024-06-03,2024-05-29,ワールド産業株式会社,,株式会社,東京都,江戸川区,松本２丁目３０番１０号,,13,123,1330043,,,2024-05-29,清算の結了等,,,2015-10-05,1,,,,,ワールドサンギョウ,0
1919,9070001029172,登記記録の閉鎖等,0,2024-06-03,2024-05-27,株式会社トーセツ,,株式会社,群馬県,太田市,藪塚町１５４８番地３６,,10,205,3792301,,,2024-05-27,清算の結了等,,,2015-10-05,1,,,,,トーセツ,0
1920,9080102017281,登記記録の閉鎖等,0,2024-06-03,2024-05-31,有限会社マルサ食品,,有限会社,静岡県,富士宮市,猪之頭２０３番地の１,,22,207,4180108,,,2024-05-31,清算の結了等,,,2015-10-05,1,,,,,,0
1925,9110001010771,登記記録の閉鎖等,0,2024-06-03,2024-05-30,株式会社内野電器,,株式会社,新潟県,新潟市西区,善久４５９番地８１,,15,107,9501102,,,2024-05-30,清算の結了等,,,2015-10-05,1,,,,,ウチノデンキ,0
1930,9120001047383,登記記録の閉鎖等,0,2024-06-03,2024-05-30,本四土地開発株式会社,,株式会社,大阪府,大阪市北区,堂島１丁目２番２３号,,27,127,5300003,,,2024-05-30,清算の結了等,,,2015-10-05,1,,,,,ホンシトチカイハツ,0
1932,9120001102403,登記記録の閉鎖等,0,2024-06-03,2024-05-30,株式会社トップスピードエージェンシー,,株式会社,大阪府,大阪市北区,太融寺町８番８号,,27,127,5300051,,,2024-05-30,清算の結了等,,,2015-10-05,1,,,,,トップスピードエージェンシー,0
1954,9140005010047,登記記録の閉鎖等,0,2024-06-03,2024-05-22,特定非営利活動法人ディスカバーいなみ,,その他の設立登記法人,兵庫県,加古郡稲美町,国安３丁目１１１番地,,28,381,6751114,,,2024-05-22,清算の結了等,,,2015-10-05,1,,,,,ディスカバーイナミ,0
1956,9140005019427,登記記録の閉鎖等,0,2024-06-03,2024-05-30,特定非営利活動法人生活ネットワーク寿樹,,その他の設立登記法人,兵庫県,洲本市,五色町鮎原西３番地３,,28,205,6561313,,,2024-05-30,清算の結了等,,,2015-10-05,1,,,,,セイカツネットワークジュジュ,0
1964,9180001134250,登記記録の閉鎖等,0,2024-06-03,2024-05-20,株式会社ＵＮＩＴＥＤ　ＤＩＮＩＮＧ,,株式会社,東京都,港区,六本木５丁目１６－５インペリアル六本木１号館１００８,,13,103,1060032,,,2024-05-20,清算の結了等,,,2018-10-30,1,,,,,ユナイテッドダイニング,0
1965,9180001142237,登記記録の閉鎖等,0,2024-06-03,2024-05-28,株式会社ゲオリテール,,株式会社,愛知県,名古屋市中区,富士見町８番８号,,23,106,4600014,,,2024-05-28,清算の結了等,,,2020-08-06,1,,,,,ゲオリテール,0
1982,9240001011922,登記記録の閉鎖等,0,2024-06-03,2024-05-31,株式会社山岸レントゲン,,株式会社,広島県,広島市中区,千田町３丁目５番８号,,34,101,7300052,,,2024-05-31,清算の結了等,,,2015-10-05,1,,,,,ヤマギシレントゲン,0
1984,9240001054021,登記記録の閉鎖等,0,2024-06-03,2024-05-29,株式会社トキグローバル,,株式会社,広島県,三原市,本町２丁目４番１号,,34,204,7230062,,,2024-05-29,清算の結了等,,,2019-03-06,1,,,,,トキグローバル,0
2023,9380003000777,登記記録の閉鎖等,0,2024-06-03,2024-05-27,合同会社社会福祉サービス研究所,,合同会社,福島県,西白河郡西郷村,大字小田倉字上上野原１２３番地１,,07,461,9618061,,,2024-05-27,清算の結了等,,,2015-10-05,1,,,,,シャカイフクシサービスケンキュウジョ,0
2027,9430001060603,登記記録の閉鎖等,0,2024-06-03,2024-05-31,株式会社リケ,,株式会社,北海道,札幌市白石区,北郷八条４丁目５番２３号,,01,104,0030838,,,2024-05-31,清算の結了等,,,2015-10-05,1,,,,,リケ,0
2034,9460001003708,登記記録の閉鎖等,0,2024-06-03,2024-05-30,株式会社Ｃｏｍ’ｓ,,株式会社,北海道,釧路市,鳥取北４丁目６番２０号,,01,206,0840907,,,2024-05-30,清算の結了等,,,2015-10-05,1,,,,,コムズ,0
