sequenceNumber,corporateNumber,process,correct,updateDate,changeDate,name,nameImageId,kind,prefectureName,cityName,streetNumber,addressImageId,prefectureCode,cityCode,postCode,addressOutside,addressOutsideImageId,closeDate,closeCause,successorCorporateNumber,changeCause,assignmentDate,latest,enName,enPrefectureName,enCityName,enAddressOutside,furigana,hihyoji
45,1010701035094,登記記録の閉鎖等,0,2022-05-24,2022-05-18,株式会社ラムネプロジェクト,,株式会社,東京都,品川区,上大崎１丁目１１番４号,,13,109,1410021,,,2022-05-18,合併による解散等,1010701016664,令和４年５月１日東京都品川区上大崎一丁目１１番４号株式会社エイチ・ダブリュ・プロジェクト（1010701016664）に合併し解散,2017-12-13,1,,,,,ラムネプロジェクト,0
58,1011202007657,登記記録の閉鎖等,0,2022-05-24,2022-05-16,有限会社田丸デザイン事務所,,有限会社,東京都,中野区,弥生町１丁目１５番４号ＴＡＭＡＲＵＨＯＵＳＥ２０１,,13,114,1640013,,,2022-05-16,清算の結了等,,,2015-10-05,1,,,,,タマルデザインジムショ,0
112,1030001087685,登記記録の閉鎖等,0,2022-05-24,2022-05-17,株式会社ＳＯＬ,,株式会社,埼玉県,熊谷市,箱田４丁目１番７号,,11,202,3600014,,,2022-05-17,清算の結了等,,,2015-10-05,1,,,,,ソル,0
120,1030002082776,登記記録の閉鎖等,0,2022-05-24,2022-05-19,有限会社竹村農機,,有限会社,埼玉県,鴻巣市,箕田４００５番地の３,,11,217,3650062,,,2022-05-19,清算の結了等,,,2015-10-05,1,,,,,タケムラノウキ,0
173,1120101034900,登記記録の閉鎖等,0,2022-05-24,2022-05-23,株式会社海山御坊,,株式会社,大阪府,羽曳野市,桃山台４丁目３０番１号,,27,222,5830873,,,2022-05-23,清算の結了等,,,2015-10-05,1,,,,,ミヤマゴボウ,0
177,1120105005633,登記記録の閉鎖等,0,2022-05-24,2022-04-14,社会福祉法人慈恵園福祉会,,その他の設立登記法人,大阪府,河内長野市,あかしあ台２丁目６番１５号,,27,216,5860095,,,2022-04-14,合併による解散等,8140005003514,令和４年４月１１日大阪府吹田市岸部南一丁目４番２４号社会福祉法人恩徳福祉会（8140005003514）に合併し解散,2015-10-05,1,,,,,ジケイエンフクシカイ,0
196,1140002049277,登記記録の閉鎖等,0,2022-05-24,2022-05-02,有限会社創経産業,,有限会社,兵庫県,姫路市,東延末３丁目１番地,,28,201,6700965,,,2022-05-02,合併による解散等,3140002049473,令和４年５月１日兵庫県姫路市東延末三丁目１番地株式会社寿宝興業（3140002049473）に合併し解散,2015-10-05,1,,,,,ソウケイサンギョウ,0
209,1180001110606,登記記録の閉鎖等,0,2022-05-24,2022-05-19,株式会社キートス,,株式会社,愛知県,名古屋市南区,鶴里町１丁目２８番地の３,,23,112,4570021,,,2022-05-19,清算の結了等,,,2015-10-05,1,,,,,キートス,0
215,1180005002493,登記記録の閉鎖等,0,2022-05-24,2022-04-19,医療法人順正会,,その他の設立登記法人,愛知県,名古屋市昭和区,阿由知通１丁目７番地,,23,107,4660027,,,2022-04-19,合併による解散等,1010005004837,令和４年４月１日千葉県柏市小青田一丁目３番地１２医療法人社団葵会（1010005004837）に合併し解散,2015-10-05,1,,,,,ジュンセイカイ,0
223,1240001011178,登記記録の閉鎖等,0,2022-05-24,2022-05-20,丸善工業株式会社,,株式会社,広島県,広島市西区,古江西町２６番８３号,,34,104,7330874,,,2022-05-20,清算の結了等,,,2015-10-05,1,,,,,マルゼンコウギョウ,0
224,1240001029468,登記記録の閉鎖等,0,2022-05-24,2022-05-20,株式会社神邊もりい,,株式会社,広島県,福山市,神辺町大字川北５１８番地の４,,34,207,7202123,,,2022-05-20,清算の結了等,,,2015-10-05,1,,,,,カンナベモリイ,0
257,1340002012454,登記記録の閉鎖等,0,2022-05-24,2022-05-23,有限会社ＩＭ開発,,有限会社,鹿児島県,鹿児島市,和田１丁目２６番２号,,46,201,8910143,,,2022-05-23,清算の結了等,,,2015-10-05,1,,,,,アイエムカイハツ,0
276,1400001008538,登記記録の閉鎖等,0,2022-05-24,2022-05-19,株式会社ＡＮＮＵＩ,,株式会社,岩手県,盛岡市,内丸１６番３７－３０８号,,03,201,0200023,,,2022-05-19,清算の結了等,,,2015-10-05,1,,,,,アニュイ,0
277,1400502001173,登記記録の閉鎖等,0,2022-05-24,2022-05-20,有限会社誠和,,有限会社,岩手県,一関市,狐禅寺字田谷下４７番地,,03,209,0290131,,,2022-05-20,清算の結了等,,,2015-10-05,1,,,,,セイワ,0
295,1440001000838,登記記録の閉鎖等,0,2022-05-24,2022-05-16,株式会社クロサキ薬局,,株式会社,北海道,函館市,末広町８番５号,,01,202,0400053,,,2022-05-16,清算の結了等,,,2015-10-05,1,,,,,クロサキヤッキョク,0
320,2010002024903,登記記録の閉鎖等,0,2022-05-24,2022-04-28,有限会社ほんりゅう,,有限会社,東京都,千代田区,二番町１２番１,,13,101,1020084,,,2022-04-28,清算の結了等,,,2015-10-05,1,,,,,ホンリュウ,0
349,2011001073412,登記記録の閉鎖等,0,2022-05-24,2022-04-13,株式会社ライズウィル,,株式会社,東京都,中央区,日本橋人形町２丁目１５番１号,,13,102,1030013,,,2022-04-13,合併による解散等,6012801016960,令和４年４月１日東京都中野区本町三丁目３１番１１号株式会社オーボックス（6012801016960）に合併し解散,2015-10-05,1,,,,,ライズウィル,0
383,2013301037749,登記記録の閉鎖等,0,2022-05-24,2022-05-19,麗梅株式会社,,株式会社,東京都,荒川区,東尾久２丁目２番９号三祥ビル２１３,,13,118,1160012,,,2022-05-19,清算の結了等,,,2015-10-14,1,,,,,レイメイ,0
386,2013401000904,登記記録の閉鎖等,0,2022-05-24,2022-05-18,株式会社イノウエ,,株式会社,東京都,多摩市,関戸１丁目１１番地７,,13,224,2060011,,,2022-05-18,清算の結了等,,,2015-10-05,1,,,,,イノウエ,0
405,2030001135724,登記記録の閉鎖等,0,2022-05-24,2022-05-19,株式会社ＬｕｃｋＴｉｏｎ,,株式会社,埼玉県,さいたま市大宮区,桜木町２丁目３番地大宮マルイ７階,,11,103,3300854,,,2022-05-19,清算の結了等,,,2020-03-25,1,,,,,ラックション,0
418,2040002076330,登記記録の閉鎖等,0,2022-05-24,2022-05-19,有限会社ライズ,,有限会社,千葉県,市原市,五井４７２０番地１,,12,219,2900056,,,2022-05-19,清算の結了等,,,2015-10-05,1,,,,,ライズ,0
427,2070002033007,登記記録の閉鎖等,0,2022-05-24,2022-05-18,有限会社阿當,,有限会社,群馬県,館林市,小桑原町９７７番地,,10,207,3740037,,,2022-05-18,清算の結了等,,,2015-10-05,1,,,,,アトウ,0
430,2080001009353,登記記録の閉鎖等,0,2022-05-24,2022-05-20,八幡水産株式会社,,株式会社,静岡県,静岡市清水区,袖師町１９７４番地の８,,22,103,4240037,,,2022-05-20,清算の結了等,,,2015-10-05,1,,,,,ヤハタスイサン,0
431,2080002000063,登記記録の閉鎖等,0,2022-05-24,2022-05-20,有限会社青島ステンレス工業,,有限会社,静岡県,静岡市駿河区,富士見台１丁目１７番２３号,,22,102,4228026,,,2022-05-20,清算の結了等,,,2015-10-05,1,,,,,アオシマステンレスコウギョウ,0
434,2100001014029,登記記録の閉鎖等,0,2022-05-24,2022-05-06,株式会社ＨＯ管財,,株式会社,東京都,港区,虎ノ門１丁目１番２８号東洋不動産虎ノ門ビル２階,,13,103,1050001,,,2022-05-06,清算の結了等,,,2015-10-05,1,,,,,,0
466,2120101042159,登記記録の閉鎖等,0,2022-05-24,2022-05-19,和泉産業株式会社,,株式会社,大阪府,泉大津市,曽根町３丁目８番１４号,,27,206,5950011,,,2022-05-19,清算の結了等,,,2015-10-05,1,,,,,イズミサンギョウ,0
484,2140001066140,登記記録の閉鎖等,0,2022-05-24,2022-05-02,株式会社創盛,,株式会社,兵庫県,姫路市,東延末３丁目１番地,,28,201,6700965,,,2022-05-02,合併による解散等,3140002049473,令和４年５月１日兵庫県姫路市東延末三丁目１番地株式会社寿宝興業（3140002049473）に合併し解散,2015-10-05,1,,,,,ソウセイ,0
487,2140001115624,登記記録の閉鎖等,0,2022-05-24,2022-05-23,株式会社日本リーディング,,株式会社,兵庫県,神戸市中央区,栄町通２丁目４番７号ＮＲビル５０１,,28,110,6500023,,,2022-05-23,清算の結了等,,,2019-11-28,1,,,,,ニホンリーディング,0
491,2140002029749,登記記録の閉鎖等,0,2022-05-24,2022-05-12,有限会社丸榮商店,,有限会社,兵庫県,明石市,二見町東二見１９３７番地,,28,203,6740092,,,2022-05-12,清算の結了等,,,2015-10-05,1,,,,,,0
511,2200002012153,登記記録の閉鎖等,0,2022-05-24,2022-05-23,有限会社グローバル・アンド・グローリー,,有限会社,岐阜県,羽島市,新生町１丁目１８番地,,21,209,5016206,,,2022-05-23,清算の結了等,,,2015-10-05,1,,,,,グローバルアンドグローリー,0
519,2240001022232,登記記録の閉鎖等,0,2022-05-24,2022-05-23,成豊工業株式会社,,株式会社,広島県,広島市西区,井口５丁目１３番１９号,,34,104,7330842,,,2022-05-23,清算の結了等,,,2015-10-05,1,,,,,セイホウコウギョウ,0
528,2270001003931,登記記録の閉鎖等,0,2022-05-24,2022-05-19,株式会社丸綜,,株式会社,鳥取県,米子市,淀江町佐陀１２８４番地１,,31,202,6893425,,,2022-05-19,清算の結了等,,,2015-10-05,1,,,,,,0
558,2310001007085,登記記録の閉鎖等,0,2022-05-24,2022-05-17,株式会社ＬＯＧＫＩＴ,,株式会社,長崎県,佐世保市,矢岳町１番１号,,42,202,8570047,,,2022-05-17,清算の結了等,,,2015-10-05,1,,,,,ログキット,0
565,2330002012768,登記記録の閉鎖等,0,2022-05-24,2022-05-20,有限会社バニラ,,有限会社,熊本県,熊本市中央区,大江５丁目２－１５－１６０４号,,43,101,8620971,,,2022-05-20,清算の結了等,,,2015-10-05,1,,,,,バニラ,0
593,2430001061896,登記記録の閉鎖等,0,2022-05-24,2022-05-19,Ｎ．エスポワール株式会社,,株式会社,北海道,札幌市豊平区,月寒東一条７丁目５－１５クロップビル２Ｆ,,01,105,0620051,,,2022-05-19,清算の結了等,,,2015-10-05,1,,,,,,0
594,2430002013269,登記記録の閉鎖等,0,2022-05-24,2022-05-16,有限会社鉄構管理,,有限会社,北海道,札幌市中央区,北四条東１丁目３番１－２３０５号,,01,101,0600034,,,2022-05-16,清算の結了等,,,2015-10-05,1,,,,,テッコウカンリ,0
596,2430005013704,登記記録の閉鎖等,0,2022-05-24,2022-05-02,特定非営利活動法人女性家族介護者支援の会アミイ,,その他の設立登記法人,北海道,札幌市西区,平和二条４丁目３番２６号,,01,107,0630022,,,2022-05-02,清算の結了等,,,2019-06-11,1,,,,,ジョセイカゾクカイゴシャシエンノカイアミイ,0
600,2460102006252,登記記録の閉鎖等,0,2022-05-24,2022-05-19,有限会社星工務店,,有限会社,北海道,足寄郡足寄町,郊南１丁目１９番地の８,,01,647,0893727,,,2022-05-19,清算の結了等,,,2015-10-05,1,,,,,ホシコウムテン,0
604,2490002003594,登記記録の閉鎖等,0,2022-05-24,2022-05-20,東新ボイラ工業株式会社,,株式会社,高知県,高知市,仁井田１５８０番地,,39,201,7810112,,,2022-05-20,清算の結了等,,,2015-10-05,1,,,,,トウシンボイラコウギョウ,0
611,3010001066540,登記記録の閉鎖等,0,2022-05-24,2022-05-09,株式会社インメル,,株式会社,東京都,千代田区,九段南４丁目８番１３号,,13,101,1020074,,,2022-05-09,合併による解散等,1010001066542,令和４年５月８日東京都千代田区九段南四丁目８番１３号日中ソフト株式会社（1010001066542）に合併し解散,2015-10-05,1,,,,,インメル,0
633,3010403009469,登記記録の閉鎖等,0,2022-05-24,2022-05-06,ボヌール，日本フランスコンサルティング合同会社,,合同会社,東京都,港区,南青山２丁目２番地１５号,,13,103,1070062,,,2022-05-06,清算の結了等,,,2015-10-05,1,,,,,ボヌールニホンフランスコンサルティング,0
645,3010801001374,登記記録の閉鎖等,0,2022-05-24,2022-05-18,英晃電装株式会社,,株式会社,東京都,大田区,東蒲田１丁目１８番９号,,13,111,1440031,,,2022-05-18,清算の結了等,,,2015-10-05,1,,,,,エイコウデンソウ,0
660,3011001126350,登記記録の閉鎖等,0,2022-05-24,2022-05-19,株式会社はぁーとメンタルケア,,株式会社,東京都,目黒区,中目黒３丁目５番１号中目黒プレアタワー５階,,13,110,1530061,,,2022-05-19,清算の結了等,,,2019-01-30,1,,,,,ハァートメンタルケア,0
671,3011101089340,登記記録の閉鎖等,0,2022-05-24,2022-05-06,Ｓａｔｏｓｈｉ　Ｈａｓｈ株式会社,,株式会社,東京都,中央区,日本橋２丁目１番１７号丹生ビル２階,,13,102,1030027,,,2022-05-06,清算の結了等,,,2019-10-28,1,,,,,サトシハッシュ,0
742,3070001021077,登記記録の閉鎖等,0,2022-05-24,2022-05-18,マイ・エナジー株式会社,,株式会社,群馬県,邑楽郡大泉町,北小泉４丁目１１番５号,,10,524,3700511,,,2022-05-18,清算の結了等,,,2015-10-05,1,,,,,マイエナジー,0
769,3120003014379,登記記録の閉鎖等,0,2022-05-24,2022-05-19,合同会社テックコネクト,,合同会社,大阪府,大阪市西区,江戸堀２丁目１番１号江戸堀センタービルＢ１Ｆ,,27,106,5500002,,,2022-05-19,合併による解散等,6010001082956,令和４年５月１日東京都千代田区内幸町二丁目２番３号株式会社ユニメディア（6010001082956）に合併し解散,2018-06-08,1,,,,,,0
783,3130005000649,登記記録の閉鎖等,0,2022-05-24,2022-04-14,天理教馬町分教会,,その他の設立登記法人,京都府,京都市山科区,西野今屋敷町１６番地の２,,26,110,6078341,,,2022-04-14,合併による解散等,9120905003267,令和４年４月１１日大阪府池田市東山町１０８１番地１天理教池田大教會（9120905003267）に合併し解散,2015-10-05,1,,,,,テンリキョウウママチブンキョウカイ,0
784,3140001011252,登記記録の閉鎖等,0,2022-05-24,2022-05-19,株式会社村田,,株式会社,兵庫県,神戸市中央区,元町通２丁目８番６号,,28,110,6500022,,,2022-05-19,清算の結了等,,,2015-10-05,1,,,,,ムラタ,0
790,3140002053855,登記記録の閉鎖等,0,2022-05-24,2022-05-02,有限会社日経,,有限会社,兵庫県,姫路市,網干区興浜１４７９番地の１,,28,201,6711241,,,2022-05-02,合併による解散等,3140002049473,令和４年５月１日兵庫県姫路市東延末三丁目１番地株式会社寿宝興業（3140002049473）に合併し解散,2015-10-05,1,,,,,ニッケイ,0
814,3220002007191,登記記録の閉鎖等,0,2022-05-24,2022-05-20,有限会社環境カラーマネージメント,,有限会社,石川県,白山市,小柳町ホ１３８番地の乙,,17,210,9202103,,,2022-05-20,清算の結了等,,,2015-10-05,1,,,,,カンキョウカラーマネージメント,0
817,3220005000301,登記記録の閉鎖等,0,2022-05-24,2022-04-18,五味島神社,,その他の設立登記法人,石川県,白山市,五味島２号４４番地１７,,17,210,9202337,,,2022-04-18,合併による解散等,6220005000380,令和４年４月１８日石川県白山市三宮町ニ１０５番地１白山比＿神社（6220005000380）に合併し解散,2015-10-05,1,,,,,ゴミシマジンジャ,0
821,3230005001100,登記記録の閉鎖等,0,2022-05-24,2022-05-17,安養寺,,その他の設立登記法人,富山県,富山市,西長江１３８番地,,16,201,,,,2022-05-17,清算の結了等,,,2015-10-05,1,,,,,,1
826,3240002006167,登記記録の閉鎖等,0,2022-05-24,2022-04-22,有限会社呉服とも広,,有限会社,広島県,広島市中区,幟町１２番１０号,,34,101,7300016,,,2022-04-22,清算の結了等,,,2015-10-05,1,,,,,ゴフクトモヒロ,0
828,3240005000456,登記記録の閉鎖等,0,2022-05-24,2022-04-12,天満神社,,その他の設立登記法人,広島県,広島市中区,中島町６番１号,,34,101,7300811,,,2022-04-12,合併による解散等,8240005000369,令和４年４月１２日広島市中区本川町三丁目３番２号空鞘稲生神社（8240005000369）に合併し解散,2015-10-05,1,,,,,テンマジンジャ,0
830,3240005012154,登記記録の閉鎖等,0,2022-05-24,2022-04-15,天理教沼田郷分教会,,その他の設立登記法人,広島県,三原市,本郷北４丁目１０番５号,,34,204,7290418,,,2022-04-15,合併による解散等,3240005011800,令和４年４月１５日広島県三原市西宮一丁目２８番１号天理教三原分教会（3240005011800）に合併し解散,2015-10-05,1,,,,,テンリキョウヌタゴウブンキョウカイ,0
837,3260005000628,登記記録の閉鎖等,0,2022-05-24,2022-04-22,天理教香備分教会,,その他の設立登記法人,岡山県,岡山市東区,西大寺射越１８番地３,,33,103,7048121,,,2022-04-22,合併による解散等,8470005004999,令和４年４月１４日香川県小豆郡小豆島町神懸通甲９１２番地２天理教小豆分教会（8470005004999）に合併し解散,2015-10-05,1,,,,,テンリキョウコウビブンキョウカイ,0
885,3410001001556,登記記録の閉鎖等,0,2022-05-24,2022-05-18,株式会社第一会館,,株式会社,秋田県,秋田市,大町５丁目４番２８号,,05,201,0100921,,,2022-05-18,清算の結了等,,,2015-10-05,1,,,,,,0
910,3450005002687,登記記録の閉鎖等,0,2022-05-24,2022-04-21,天理教新吉野分教会,,その他の設立登記法人,北海道,士別市,北町９６番地の１５,,01,220,0950051,,,2022-04-21,合併による解散等,6460305000296,令和４年４月１９日北海道北見市美山町西二丁目５８番地５０天理教仁頃分教会（6460305000296）に合併し解散,2015-10-05,1,,,,,テンリキョウシンヨシノブンキョウカイ,0
918,4010001142316,登記記録の閉鎖等,0,2022-05-24,2022-05-02,株式会社Ｏｆｆｉｃｅ　ｂｅｂｅ,,株式会社,東京都,港区,赤坂４丁目１３番５号,,13,103,1070052,,,2022-05-02,清算の結了等,,,2015-10-05,1,,,,,オフィスベベ,0
921,4010001172536,登記記録の閉鎖等,0,2022-05-24,2022-05-06,ＦＰプランニング株式会社,,株式会社,東京都,千代田区,九段南１丁目５番６号りそな九段ビル５階,,13,101,1020074,,,2022-05-06,清算の結了等,,,2016-01-04,1,,,,,エフピープランニング,0
971,4011001128998,登記記録の閉鎖等,0,2022-05-24,2022-05-20,エステートパートナーズ恵比寿株式会社,,株式会社,東京都,渋谷区,恵比寿４丁目２０－３恵比寿ガーデンプレイスタワー１８階,,13,113,1500013,,,2022-05-20,清算の結了等,,,2019-07-12,1,,,,,エステートパートナーズエビス,0
1014,4020002043974,登記記録の閉鎖等,0,2022-05-24,2022-05-18,東邦企業有限会社,,有限会社,神奈川県,横浜市中区,本牧三之谷９番１４号,,14,104,2310824,,,2022-05-18,清算の結了等,,,2015-10-05,1,,,,,トウホウキギョウ,0
1031,4030002116358,登記記録の閉鎖等,0,2022-05-24,2022-05-16,有限会社阿部製作所,,有限会社,埼玉県,深谷市,緑ケ丘１４番１３号,,11,218,3660054,,,2022-05-16,清算の結了等,,,2015-10-05,1,,,,,アベセイサクショ,0
1040,4040002079298,登記記録の閉鎖等,0,2022-05-24,2022-05-18,有限会社浅野建材,,有限会社,千葉県,山武市,松尾町木刀５７２番地,,12,237,2891531,,,2022-05-18,清算の結了等,,,2015-10-05,1,,,,,アサノケンザイ,0
1043,4050002023899,登記記録の閉鎖等,0,2022-05-24,2022-05-19,有限会社古河浴場,,有限会社,茨城県,古河市,東１丁目１１番３号,,08,204,3060011,,,2022-05-19,清算の結了等,,,2015-10-05,1,,,,,コガヨクジョウ,0
1048,4060002009022,登記記録の閉鎖等,0,2022-05-24,2022-05-19,有限会社森定支店,,有限会社,栃木県,宇都宮市,雀の宮６丁目３番５４号,,09,201,3210132,,,2022-05-19,清算の結了等,,,2015-10-05,1,,,,,モリサダシテン,0
1058,4080002013468,登記記録の閉鎖等,0,2022-05-24,2022-05-19,有限会社エステック,,有限会社,静岡県,島田市,野田１２５０番地の１５,,22,209,4270007,,,2022-05-19,清算の結了等,,,2015-10-05,1,,,,,エステック,0
1060,4080101004847,登記記録の閉鎖等,0,2022-05-24,2022-05-20,株式会社ＴＯＳＥＩ,,株式会社,静岡県,伊豆の国市,中島字日之前２４４番地,,22,225,4102324,,,2022-05-20,清算の結了等,,,2015-10-05,1,,,,,トーセイ,0
1078,4120001174760,登記記録の閉鎖等,0,2022-05-24,2022-05-23,株式会社ビジョンカンパニー,,株式会社,大阪府,大阪市西区,北堀江１丁目１番２４号,,27,106,5500014,,,2022-05-23,清算の結了等,,,2015-10-05,1,,,,,ビジョンカンパニー,0
1089,4120002017844,登記記録の閉鎖等,0,2022-05-24,2022-05-20,有限会社デザインスタジオルート,,有限会社,大阪府,大阪市住吉区,苅田９丁目１４番２８号,,27,120,5580011,,,2022-05-20,清算の結了等,,,2015-10-05,1,,,,,デザインスタジオルート,0
1095,4120105005135,登記記録の閉鎖等,0,2022-05-24,2022-04-19,天理教明十九分教会,,その他の設立登記法人,大阪府,羽曳野市,向野１丁目１番９号,,27,222,5830883,,,2022-04-19,合併による解散等,6120005000523,令和４年４月１１日大阪市中央区龍造寺町８番１１号天理教明城大教会（6120005000523）に合併し解散,2015-10-05,1,,,,,テンリキョウメイジュウクブンキョウカイ,0
1099,4122001000797,登記記録の閉鎖等,0,2022-05-24,2022-05-17,エスアール建設株式会社,,株式会社,大阪府,東大阪市,岩田町１丁目２番７号,,27,227,5780941,,,2022-05-17,清算の結了等,,,2015-10-05,1,,,,,エスアールケンセツ,0
1107,4140001065347,登記記録の閉鎖等,0,2022-05-24,2022-05-02,株式会社ランドマーク,,株式会社,兵庫県,姫路市,東延末３丁目１番地１,,28,201,6700965,,,2022-05-02,合併による解散等,3140002049473,令和４年５月１日兵庫県姫路市東延末三丁目１番地株式会社寿宝興業（3140002049473）に合併し解散,2015-10-05,1,,,,,ランドマーク,0
1113,4140002006457,登記記録の閉鎖等,0,2022-05-24,2022-05-20,有限会社パル,,有限会社,兵庫県,神戸市垂水区,向陽２丁目５番１０号,,28,108,6550012,,,2022-05-20,清算の結了等,,,2015-10-05,1,,,,,パル,0
1120,4180001112302,登記記録の閉鎖等,0,2022-05-24,2022-05-18,株式会社デジタルラボ,,株式会社,愛知県,名古屋市東区,東桜１丁目１０番９号,,23,102,4610005,,,2022-05-18,清算の結了等,,,2015-10-05,1,,,,,デジタルラボ,0
1122,4180002087205,登記記録の閉鎖等,0,2022-05-24,2022-05-19,有限会社ゴムの柴田,,有限会社,愛知県,半田市,出口町２丁目２１６番地の２,,23,205,4750903,,,2022-05-19,清算の結了等,,,2015-10-05,1,,,,,ゴムノシバタ,0
1127,4180302020204,登記記録の閉鎖等,0,2022-05-24,2022-05-16,有限会社ファミリア給食センター,,有限会社,愛知県,碧南市,二本木町２丁目２２番地,,23,209,4470029,,,2022-05-16,清算の結了等,,,2015-10-05,1,,,,,ファミリアキュウショクセンター,0
1146,4260001028622,登記記録の閉鎖等,0,2022-05-24,2022-05-20,株式会社Ｉｇｕ－ｉｇｕ,,株式会社,岡山県,岡山市中区,浜３丁目８番３０－５１０号,,33,102,7038256,,,2022-05-20,清算の結了等,,,2015-10-05,1,,,,,イグイグ,0
1149,4290001053535,登記記録の閉鎖等,0,2022-05-24,2022-05-20,株式会社永善塗料産業,,株式会社,福岡県,大川市,大字榎津３０２番地の４,,40,212,8310004,,,2022-05-20,清算の結了等,,,2015-10-05,1,,,,,エイゼントリョウサンギョウ,0
1154,4290002014164,登記記録の閉鎖等,0,2022-05-24,2022-05-20,板屋ステンレス工業有限会社,,有限会社,福岡県,福岡市博多区,半道橋２丁目１４番２９号,,40,132,8120897,,,2022-05-20,清算の結了等,,,2015-10-05,1,,,,,,0
1158,4290005001424,登記記録の閉鎖等,0,2022-05-24,2022-04-01,社会福祉法人福岡県社会福祉センター,,その他の設立登記法人,福岡県,福岡市中央区,六本松１丁目２番１９号,,40,133,8100044,,,2022-04-01,合併による解散等,3290005003537,令和４年４月１日福岡市城南区別府五丁目７番１号社会福祉法人ジーエヌ福祉会（3290005003537）に合併し解散,2015-10-05,1,,,,,フクオカケンシャカイフクシセンター,0
1161,4290802010899,登記記録の閉鎖等,0,2022-05-24,2022-05-23,株式会社タマヤサンローズ,,株式会社,福岡県,北九州市小倉北区,浅野２丁目１４番２号リーガロイヤルホテル小倉１階,,40,106,8020001,,,2022-05-23,清算の結了等,,,2015-10-05,1,,,,,タマヤサンローズ,0
1168,4350002015131,登記記録の閉鎖等,0,2022-05-24,2022-05-20,有限会社康宮自動車修理工場,,有限会社,宮崎県,都城市,年見町８街区１７号,,45,202,8850017,,,2022-05-20,清算の結了等,,,2015-10-05,1,,,,,ヤスミヤジドウシャシュウリコウジョウ,0
1173,4370002015922,登記記録の閉鎖等,0,2022-05-24,2022-05-19,有限会社ウィンザー,,有限会社,宮城県,仙台市宮城野区,元寺小路３０５番地の１２,,04,102,9830865,,,2022-05-19,清算の結了等,,,2015-10-05,1,,,,,ウィンザー,0
1194,4460301002232,登記記録の閉鎖等,0,2022-05-24,2022-05-10,株式会社レストハウス摩周,,株式会社,北海道,網走郡美幌町,字新町１丁目３番地１,,01,543,0920015,,,2022-05-10,清算の結了等,,,2015-10-05,1,,,,,レストハウスマシュウ,0
1212,5010003029543,登記記録の閉鎖等,0,2022-05-24,2022-05-02,ヴォルタネットワークスジャパン合同会社,,合同会社,東京都,渋谷区,道玄坂１丁目１０番５号,,13,113,1500043,,,2022-05-02,清算の結了等,,,2019-03-27,1,,,,,ヴォルタネットワークスジャパン,0
1225,5010401150025,登記記録の閉鎖等,0,2022-05-24,2022-05-18,株式会社みなみ,,株式会社,東京都,大田区,蒲田３丁目１９番４号,,13,111,1440052,,,2022-05-18,清算の結了等,,,2019-12-24,1,,,,,ミナミ,0
1236,5010603004771,登記記録の閉鎖等,0,2022-05-24,2022-05-19,合同会社フリーダムトレーディング,,合同会社,千葉県,千葉市中央区,神明町２０５番地１マックスタワーレジデンス２００８号,,12,101,2600022,,,2022-05-19,清算の結了等,,,2015-10-05,1,,,,,フリーダムトレーディング,0
1254,5011201010617,登記記録の閉鎖等,0,2022-05-24,2022-05-16,株式会社おくずみ工務店,,株式会社,東京都,中野区,丸山２丁目６番３号,,13,114,1650021,,,2022-05-16,清算の結了等,,,2015-10-05,1,,,,,オクズミコウムテン,0
1291,5020002022671,登記記録の閉鎖等,0,2022-05-24,2022-05-18,有限会社八百藤,,有限会社,神奈川県,横浜市旭区,万騎が原１３６番地,,14,112,2410836,,,2022-05-18,清算の結了等,,,2015-10-05,1,,,,,ヤオフジ,0
1326,5070001013601,登記記録の閉鎖等,0,2022-05-24,2022-05-19,株式会社豊受,,株式会社,群馬県,伊勢崎市,馬見塚町２５４番地,,10,204,3720842,,,2022-05-19,清算の結了等,,,2015-10-05,1,,,,,,0
1336,5080005001287,登記記録の閉鎖等,0,2022-05-24,2022-04-19,医療法人社団西奈会,,その他の設立登記法人,神奈川県,小田原市,曽比字前河原１３５０番地,,14,206,2500851,,,2022-04-19,合併による解散等,1010005004837,令和４年４月１日千葉県柏市小青田一丁目３番地１２医療法人社団葵会（1010005004837）に合併し解散,2015-10-05,1,,,,,ニシナカイ,0
1343,5110001025674,登記記録の閉鎖等,0,2022-05-24,2022-05-20,株式会社ミック,,株式会社,新潟県,長岡市,琴平３丁目５番５９号,,15,202,9400038,,,2022-05-20,清算の結了等,,,2015-10-05,1,,,,,ミック,0
1348,5110005008262,登記記録の閉鎖等,0,2022-05-24,2022-05-19,安傳寺,,その他の設立登記法人,新潟県,上越市,寺町３丁目１２番３１号,,15,222,9430892,,,2022-05-19,清算の結了等,,,2015-10-05,1,,,,,アンデンジ,0
1404,5220001006011,登記記録の閉鎖等,0,2022-05-24,2022-05-19,北越エンゼル株式会社,,株式会社,石川県,金沢市,荒屋１丁目１０５,,17,201,9203124,,,2022-05-19,合併による解散等,8430001033584,令和４年５月１日札幌市白石区本通十六丁目北１２番１号丸彦ビル２階エンゼル＆アイ株式会社（8430001033584）に合併し解散,2015-10-05,1,,,,,,0
1409,5240001008690,登記記録の閉鎖等,0,2022-05-24,2022-05-23,ネオ新栄電設株式会社,,株式会社,広島県,広島市西区,南観音１丁目２番２９号,,34,104,7330035,,,2022-05-23,清算の結了等,,,2015-10-05,1,,,,,ネオシンエイデンセツ,0
1416,5260005000626,登記記録の閉鎖等,0,2022-05-24,2022-04-22,天理教岡一分教会,,その他の設立登記法人,岡山県,岡山市北区,二日市町７番地,,33,101,7000843,,,2022-04-22,合併による解散等,8470005004999,令和４年４月１４日香川県小豆郡小豆島町神懸通甲９１２番地２天理教小豆分教会（8470005004999）に合併し解散,2015-10-05,1,,,,,テンリキョウオカイチブンキョウカイ,0
1460,5430001037043,登記記録の閉鎖等,0,2022-05-24,2022-05-16,システムワーク株式会社,,株式会社,北海道,札幌市白石区,北郷四条１２丁目６番３３号,,01,104,0030834,,,2022-05-16,清算の結了等,,,2015-10-05,1,,,,,システムワーク,0
1467,5430003009791,登記記録の閉鎖等,0,2022-05-24,2022-05-19,株式会社ｏｍｏｉｙａｒｉ,,株式会社,北海道,札幌市白石区,菊水九条３丁目５番１９号－３１１,,01,104,0030809,,,2022-05-19,清算の結了等,,,2018-10-17,1,,,,,,0
1540,6011401020209,登記記録の閉鎖等,0,2022-05-24,2022-05-13,株式会社ｓｉｌｖｅｒｌａｋｅ,,株式会社,東京都,中野区,東中野１丁目１番２号プライマリービル４階,,13,114,1640003,,,2022-05-13,清算の結了等,,,2017-04-21,1,,,,,シルバーレイク,0
1544,6011503004142,登記記録の閉鎖等,0,2022-05-24,2022-05-19,オーズテック合同会社,,合同会社,東京都,荒川区,西日暮里４丁目１番２０号西日暮里エーシービル３０３,,13,118,1160013,,,2022-05-19,清算の結了等,,,2019-10-10,1,,,,,オーズテック,0
1556,6012302000010,登記記録の閉鎖等,0,2022-05-24,2022-05-18,有限会社吉田塗装,,有限会社,東京都,町田市,相原町４２７１番地,,13,209,1940211,,,2022-05-18,清算の結了等,,,2015-10-05,1,,,,,ヨシダトソウ,0
1563,6013201003459,登記記録の閉鎖等,0,2022-05-24,2022-05-02,竹石建設株式会社,,株式会社,東京都,目黒区,洗足１丁目８番１１号,,13,110,1520012,,,2022-05-02,清算の結了等,,,2015-10-05,1,,,,,タケイシケンセツ,0
1595,6040001106927,登記記録の閉鎖等,0,2022-05-24,2022-04-18,株式会社ロケットエンピツ,,株式会社,東京都,世田谷区,池尻３丁目１９番１号ＩＯビル２階,00120708,13,112,1540001,,,2022-04-18,合併による解散等,1180001134373,令和４年４月１日東京都世田谷区池尻三丁目１９番１号ＩＯビル２階株式会社ドラゴンエンピツ（1180001134373）に合併し解散,2018-11-16,1,,,,,ロケットエンピツ,0
1596,6040001115069,登記記録の閉鎖等,0,2022-05-24,2022-05-13,レジェンド株式会社,,株式会社,千葉県,千葉市花見川区,幕張町２丁目３０１６番地６,,12,102,2620032,,,2022-05-13,清算の結了等,,,2020-09-11,1,,,,,レジェンド,0
1621,6080401020872,登記記録の閉鎖等,0,2022-05-24,2022-05-19,株式会社心の匠,,株式会社,静岡県,浜松市東区,中野町２２８０番地,,22,132,4350004,,,2022-05-19,清算の結了等,,,2015-10-05,1,,,,,ココロノタクミ,0
1626,6110001032133,登記記録の閉鎖等,0,2022-05-24,2022-05-09,株式会社シャンハイ,,株式会社,新潟県,新発田市,中央町３丁目９番１３号,,15,206,9570053,,,2022-05-09,清算の結了等,,,2017-02-06,1,,,,,シャンハイ,0
1631,6120001197801,登記記録の閉鎖等,0,2022-05-24,2022-04-01,アリナミン製薬株式会社,,株式会社,東京都,千代田区,丸の内１丁目８番２号,,13,101,1000005,,,2022-04-01,合併による解散等,7010001211357,令和４年４月１日東京都千代田区丸の内三丁目１番１号東京共同会計事務所内アリナミン製薬株式会社（7010001211357）に合併し解散,2016-04-25,1,,,,,アリナミンセイヤク,0
1648,6122002014290,登記記録の閉鎖等,0,2022-05-24,2022-05-20,有限会社辻良,00034875,有限会社,大阪府,八尾市,北木の本５丁目９１番地,,27,212,5810041,,,2022-05-20,清算の結了等,,,2015-10-05,1,,,,,ツジリョウ,0
1657,6130005009365,登記記録の閉鎖等,0,2022-05-24,2022-04-12,特定非営利活動法人リンデン福祉会,,その他の設立登記法人,京都府,京都市北区,紫野東野町２０番３号,,26,101,6038232,,,2022-04-12,合併による解散等,1130005006697,令和４年４月１２日京都市西京区川島滑樋町４１番地３特定非営利活動法人せいらん福祉会（1130005006697）に合併し解散,2015-10-05,1,,,,,リンデンフクシカイ,0
1667,6140002034555,登記記録の閉鎖等,0,2022-05-24,2022-05-18,有限会社高見縫製,00040933,有限会社,兵庫県,丹波市,市島町上竹田１８１１番地の１,,28,223,6694341,,,2022-05-18,清算の結了等,,,2015-10-05,1,,,,,タカミホウセイ,0
1669,6140002051220,登記記録の閉鎖等,0,2022-05-24,2022-05-02,有限会社明伸商事,,有限会社,兵庫県,姫路市,広畑区高浜町２丁目２番地,,28,201,6711153,,,2022-05-02,合併による解散等,3140002049473,令和４年５月１日兵庫県姫路市東延末三丁目１番地株式会社寿宝興業（3140002049473）に合併し解散,2015-10-05,1,,,,,メイシンショウジ,0
1672,6150005000470,登記記録の閉鎖等,0,2022-05-24,2022-04-08,天理教大崎町分教会,,その他の設立登記法人,奈良県,奈良市,北野山町３１７番地２,,29,201,6301234,,,2022-04-08,合併による解散等,1150005003239,令和４年４月８日奈良県天理市小路町２８１番地の１天理教山邊分教会（1150005003239）に合併し解散,2015-10-05,1,,,,,テンリキョウオオサキマチブンキョウカイ,0
1723,6340001001362,登記記録の閉鎖等,0,2022-05-24,2022-04-18,株式会社協和産業,,株式会社,鹿児島県,鹿児島市,南栄４丁目１６番地,,46,201,8910122,,,2022-04-18,合併による解散等,9010401074443,令和４年４月１日東京都渋谷区代々木一丁目３７番２号全国酪農飼料株式会社（9010401074443）に合併し解散,2015-10-05,1,,,,,,0
1724,6350001007581,登記記録の閉鎖等,0,2022-05-24,2022-05-20,株式会社東光,,株式会社,宮崎県,宮崎市,高岡町五町２７３７番地,,45,201,8802322,,,2022-05-20,清算の結了等,,,2015-10-05,1,,,,,トウコウ,0
1743,6430002022729,登記記録の閉鎖等,0,2022-05-24,2022-05-17,有限会社サンシンテック,,有限会社,北海道,札幌市西区,西町南１３丁目１番３０号ライオンズマンション西町１１３号,,01,107,0630062,,,2022-05-17,清算の結了等,,,2015-10-05,1,,,,,サンシンテック,0
1769,7010001190717,登記記録の閉鎖等,0,2022-05-24,2022-05-06,ＢｉｏＡＲＣ株式会社,,株式会社,東京都,中央区,日本橋堀留町１丁目９番１０号,,13,102,1030012,,,2022-05-06,清算の結了等,,,2018-04-04,1,,,,,バイオアーク,0
1785,7010401162786,登記記録の閉鎖等,0,2022-05-24,2022-04-28,株式会社ＩＤＲホールディングス,,株式会社,東京都,港区,北青山２丁目１０番２８号,,13,103,1070061,,,2022-04-28,合併による解散等,4010401162756,令和４年４月２８日東京都港区北青山二丁目１０番２８号ＩＤＲ　Ｈｏｌｄｉｎｇｓ株式会社（4010401162756）に合併し解散,2021-09-21,1,,,,,アイディーアール,0
1794,7010601015307,登記記録の閉鎖等,0,2022-05-24,2022-05-17,株式会社細谷工芸,,株式会社,東京都,墨田区,亀沢４丁目１６番５号,,13,107,1300014,,,2022-05-17,清算の結了等,,,2015-10-05,1,,,,,ホソヤコウゲイ,0
1801,7011001105318,登記記録の閉鎖等,0,2022-05-24,2022-05-20,株式会社エープラス,,株式会社,東京都,渋谷区,道玄坂１丁目１５番３号,,13,113,1500043,,,2022-05-20,清算の結了等,,,2015-10-05,1,,,,,,0
1818,7013202005791,登記記録の閉鎖等,0,2022-05-24,2022-05-06,有限会社芳明荘,,有限会社,東京都,目黒区,中根１丁目１６番１９号,,13,110,1520031,,,2022-05-06,清算の結了等,,,2015-10-05,1,,,,,ホウメイソウ,0
1821,7013301045136,登記記録の閉鎖等,0,2022-05-24,2022-05-18,株式会社アクト,,株式会社,東京都,豊島区,東池袋１丁目２１番１１号,,13,116,1700013,,,2022-05-18,清算の結了等,,,2020-01-29,1,,,,,アクト,0
1827,7020001098975,登記記録の閉鎖等,0,2022-05-24,2022-05-17,オンタナ旅行株式会社,,株式会社,神奈川県,横浜市青葉区,あかね台１丁目２８番地２０,,14,117,2270066,,,2022-05-17,清算の結了等,,,2015-10-05,1,,,,,オンタナリョコウ,0
1834,7021001030507,登記記録の閉鎖等,0,2022-05-24,2022-05-19,株式会社オプティコン,,株式会社,神奈川県,大和市,つきみ野７丁目１７番３７号,,14,213,2420002,,,2022-05-19,清算の結了等,,,2015-10-05,1,,,,,オプティコン,0
1941,7180001131349,登記記録の閉鎖等,0,2022-05-24,2022-05-18,株式会社ＣＤＮ,,株式会社,愛知県,名古屋市東区,代官町３４番１２号ＪＢビル７階南,,23,102,4610002,,,2022-05-18,清算の結了等,,,2018-02-26,1,,,,,シーディエヌ,0
1961,7210002010589,登記記録の閉鎖等,0,2022-05-24,2022-05-20,有限会社日高電気工業,,有限会社,福井県,敦賀市,野神１５号９番地の１５,,18,202,9140121,,,2022-05-20,清算の結了等,,,2015-10-05,1,,,,,ヒダカデンキコウギョウ,0
1967,7240005010014,登記記録の閉鎖等,0,2022-05-24,2022-04-01,社会福祉法人紅葉会,,その他の設立登記法人,広島県,福山市,港町２丁目１２番１号,,34,207,7210964,,,2022-04-01,合併による解散等,1240005009301,令和４年４月１日広島県神石郡神石高原町小畠１５１０番地１社会福祉法人紅輝会（1240005009301）に合併し解散,2015-10-05,1,,,,,コウヨウカイ,0
1968,7240005012150,登記記録の閉鎖等,0,2022-05-24,2022-04-15,天理教廣関分教会,,その他の設立登記法人,広島県,三原市,糸崎４丁目９番２８号,,34,204,7290324,,,2022-04-15,合併による解散等,3240005011800,令和４年４月１５日広島県三原市西宮一丁目２８番１号天理教三原分教会（3240005011800）に合併し解散,2015-10-05,1,,,,,,0
1978,7260005000665,登記記録の閉鎖等,0,2022-05-24,2022-04-21,天理教備前大元分教会,,その他の設立登記法人,岡山県,岡山市北区,野田１丁目８番１９号,,33,101,7000971,,,2022-04-21,合併による解散等,7470005004331,令和４年４月１３日香川県さぬき市造田野間田６４６番地天理教東讃分教会（7470005004331）に合併し解散,2015-10-05,1,,,,,テンリキョウビゼンオオモトブンキョウカイ,0
1980,7270005000730,登記記録の閉鎖等,0,2022-05-24,2022-04-12,天理教明二十三分教会,,その他の設立登記法人,鳥取県,鳥取市,生山１０番地１７,,31,201,6891103,,,2022-04-12,合併による解散等,6120005000523,令和４年４月５日大阪市中央区龍造寺町８番１１号天理教明城大教会（6120005000523）に合併し解散,2015-10-05,1,,,,,,0
1996,7320002019198,登記記録の閉鎖等,0,2022-05-24,2022-05-20,有限会社大日青果卸売市場,,有限会社,大分県,日田市,大字十二町６７１番地の１,,44,204,8770000,,,2022-05-20,清算の結了等,,,2015-10-05,1,,,,,ダイニチセイカオロシウリイチバ,0
2018,7430002057253,登記記録の閉鎖等,0,2022-05-24,2022-05-16,有限会社山岸重機,,有限会社,北海道,虻田郡倶知安町,北七条東６丁目１番地３３,,01,400,0440007,,,2022-05-16,清算の結了等,,,2015-10-05,1,,,,,ヤマギシジュウキ,0
2022,7470001003361,登記記録の閉鎖等,0,2022-05-24,2022-05-20,株式会社橋建工,,株式会社,香川県,高松市,田村町３８３番地２,,37,201,7618057,,,2022-05-20,清算の結了等,,,2015-10-05,1,,,,,ハシケンコウ,0
2033,8010001054763,登記記録の閉鎖等,0,2022-05-24,2022-05-06,株式会社春美,,株式会社,東京都,中央区,日本橋久松町５番１４－６０１号,,13,102,1030005,,,2022-05-06,清算の結了等,,,2015-10-05,1,,,,,ハルミ,0
2034,8010001139028,登記記録の閉鎖等,0,2022-05-24,2022-05-09,株式会社廣江建硝,,株式会社,東京都,文京区,根津２丁目３６番１３号,,13,105,1130031,,,2022-05-09,清算の結了等,,,2015-10-05,1,,,,,ヒロエケンショウ,0
2038,8010001153466,登記記録の閉鎖等,0,2022-05-24,2022-05-02,アイピーアールキャピタル株式会社,,株式会社,東京都,港区,元赤坂１丁目１番８号株式会社赤坂国際会計内,,13,103,1070051,,,2022-05-02,清算の結了等,,,2015-10-05,1,,,,,アイピーアールキャピタル,0
2048,8010005029638,登記記録の閉鎖等,0,2022-05-24,2022-05-20,ＡＣ１７一般社団法人,,その他の設立登記法人,東京都,中央区,銀座１丁目６番１１号土志田ビルディング３Ｆ,,13,102,1040061,,,2022-05-20,清算の結了等,,,2019-01-25,1,,,,,エーシーセブンティーン,0
2049,8010401002454,登記記録の閉鎖等,0,2022-05-24,2022-05-06,株式会社イーエムプランニング,,株式会社,東京都,中央区,日本橋小舟町３番１１号,,13,102,1030024,,,2022-05-06,清算の結了等,,,2015-10-05,1,,,,,イーエムプランニング,0
2095,8011402003342,登記記録の閉鎖等,0,2022-05-24,2022-05-20,有限会社コンクリート技術企画,,有限会社,東京都,板橋区,高島平７丁目１１番１号,,13,119,1750082,,,2022-05-20,清算の結了等,,,2015-10-05,1,,,,,コンクリートギジュツキカク,0
2114,8012802005606,登記記録の閉鎖等,0,2022-05-24,2022-05-20,有限会社弘和エンジニアリング,,有限会社,東京都,東大和市,清水６丁目１１７０番地,,13,220,2070004,,,2022-05-20,清算の結了等,,,2015-10-05,1,,,,,コウワエンジニアリング,0
2116,8013301046018,登記記録の閉鎖等,0,2022-05-24,2022-05-18,株式会社ウイング,,株式会社,東京都,豊島区,東池袋１丁目２１番１１号,,13,116,1700013,,,2022-05-18,清算の結了等,,,2020-08-05,1,,,,,ウイング,0
2117,8013301046389,登記記録の閉鎖等,0,2022-05-24,2022-05-18,株式会社プラス,,株式会社,東京都,豊島区,東池袋１丁目２１番１１号,,13,116,1700013,,,2022-05-18,清算の結了等,,,2020-10-21,1,,,,,プラス,0
2122,8020001140884,登記記録の閉鎖等,0,2022-05-24,2022-05-18,株式会社テックゲートウェイ,,株式会社,神奈川県,横浜市西区,高島２丁目１１番２号スカイメナー横浜５１９,,14,103,2200011,,,2022-05-18,清算の結了等,,,2021-04-13,1,,,,,テックゲートウエイ,0
2156,8030005006899,登記記録の閉鎖等,0,2022-05-24,2022-05-18,医療法人社団龍優会,,その他の設立登記法人,埼玉県,新座市,新座１丁目９番地８号１階,,11,230,3520006,,,2022-05-18,清算の結了等,,,2015-10-05,1,,,,,リュウユウカイ,0
2157,8030005016386,登記記録の閉鎖等,0,2022-05-24,2022-05-18,特定非営利活動法人希望,,その他の設立登記法人,埼玉県,所沢市,御幸町３番１２－３０２号エクセルシオール所沢,,11,208,3591115,,,2022-05-18,清算の結了等,,,2015-10-05,1,,,,,キボウ,0
2167,8040001106181,登記記録の閉鎖等,0,2022-05-24,2022-05-18,千葉エネルギーランド株式会社,,株式会社,千葉県,匝瑳市,東小笹２４３０番地１,,12,235,2892121,,,2022-05-18,清算の結了等,,,2018-09-25,1,,,,,チバエネルギーランド,0
2172,8040003012980,登記記録の閉鎖等,0,2022-05-24,2022-05-19,東葛コンサルティングサービス合同会社,00115882,合同会社,千葉県,松戸市,小金原７丁目３９番の３,,12,207,2700021,,,2022-05-19,清算の結了等,,,2019-02-28,1,,,,,トウカツコンサルティングサービス,0
2214,8130002011735,登記記録の閉鎖等,0,2022-05-24,2022-05-23,株式会社エコビジョン,,株式会社,大阪府,大阪市西区,北堀江１丁目１番２４号,,27,106,5500014,,,2022-05-23,清算の結了等,,,2015-10-05,1,,,,,エコビジョン,0
2221,8140002009596,登記記録の閉鎖等,0,2022-05-24,2022-05-20,有限会社アツミ,,有限会社,兵庫県,神戸市北区,筑紫が丘１丁目１５番地の１６,,28,109,6511212,,,2022-05-20,清算の結了等,,,2015-10-05,1,,,,,アツミ,0
2238,8180001138797,登記記録の閉鎖等,0,2022-05-24,2022-05-19,誠信ＬＯＧＩＳＴＩＣＳ株式会社,,株式会社,愛知県,名古屋市中区,錦３丁目２３番１８号ニューサカエビル,,23,106,4600003,,,2022-05-19,清算の結了等,,,2019-11-11,1,,,,,セイシンロジスティックス,0
2245,8180003000740,登記記録の閉鎖等,0,2022-05-24,2022-05-20,合資会社春光堂,,合資会社,愛知県,名古屋市昭和区,塩付通１丁目２４番地,,23,107,4660022,,,2022-05-20,清算の結了等,,,2015-10-05,1,,,,,シュンコウドウ,0
2246,8180003007711,登記記録の閉鎖等,0,2022-05-24,2022-05-18,合名会社東洋堂,,合名会社,愛知県,名古屋市中区,栄５丁目１８番９号,,23,106,4600008,,,2022-05-18,清算の結了等,,,2015-10-05,1,,,,,トウヨウドウ,0
2253,8190002003041,登記記録の閉鎖等,0,2022-05-24,2022-05-20,有限会社新成石油,,有限会社,三重県,津市,白山町藤２３７番地１,,24,201,5153131,,,2022-05-20,清算の結了等,,,2015-10-05,1,,,,,シンセイセキユ,0
2263,8240002050516,登記記録の閉鎖等,0,2022-05-24,2022-05-20,広洋電波有限会社,,有限会社,広島県,尾道市,高須町５６９１番地の２,,34,205,7290141,,,2022-05-20,清算の結了等,,,2015-10-05,1,,,,,コウヨウデンパ,0
2310,8410005005086,登記記録の閉鎖等,0,2022-05-24,2022-05-17,宗教法人沖掵神社,,その他の設立登記法人,秋田県,横手市,平鹿町下鍋倉字外沢見２３番地,,05,203,0130103,,,2022-05-17,清算の結了等,,,2015-10-05,1,,,,,オキノハバジンジャ,0
2329,8480002008977,登記記録の閉鎖等,0,2022-05-24,2022-05-20,岡電設工業有限会社,,有限会社,徳島県,吉野川市,鴨島町飯尾５５０番地１４５,,36,205,7760033,,,2022-05-20,清算の結了等,,,2015-10-05,1,,,,,,0
2350,9010401164095,登記記録の閉鎖等,0,2022-05-24,2022-05-02,株式会社センチュリオン合併準備１号,,株式会社,東京都,港区,芝公園２丁目１０番１号住友不動産芝園ビル４階,,13,103,1050011,,,2022-05-02,合併による解散等,3011001058610,令和４年５月１日東京都港区芝公園二丁目１０番１号住友不動産芝園ビル４階株式会社センチュリオン（3011001058610）に合併し解散,2021-11-30,1,,,,,センチュリオンガッペイジュンビイチゴウ,0
2353,9010402015058,登記記録の閉鎖等,0,2022-05-24,2022-05-02,有限会社恵利研,,有限会社,東京都,港区,高輪３丁目１４番２６－６０３号,,13,103,1080074,,,2022-05-02,清算の結了等,,,2015-10-05,1,,,,,エリケン,0
2373,9010801006756,登記記録の閉鎖等,0,2022-05-24,2022-05-18,株式会社タイバン,,株式会社,東京都,大田区,東六郷２丁目４番１５号,,13,111,1440046,,,2022-05-18,清算の結了等,,,2015-10-05,1,,,,,タイバン,0
2385,9011001063695,登記記録の閉鎖等,0,2022-05-24,2022-05-09,株式会社パシィフィックエステート,,株式会社,東京都,千代田区,三番町９番地６三番町パークテラス桜苑３０９,,13,101,1020075,,,2022-05-09,清算の結了等,,,2015-10-05,1,,,,,パシィフィックエステート,0
2389,9011001134232,登記記録の閉鎖等,0,2022-05-24,2022-05-16,株式会社ｇｄｎ,,株式会社,東京都,渋谷区,恵比寿１丁目１５番９号シルク恵比寿４０３,,13,113,1500013,,,2022-05-16,合併による解散等,9290001082380,令和４年３月３１日福岡市中央区大名二丁目６番１１号ＦｕｋｕｏｋａＧｒｏｗｔｈＮｅｘｔアークエルテクノロジーズ株式会社（9290001082380）に合併し解散,2020-06-19,1,,,,,ジーディーエヌ,0
2397,9011102030058,登記記録の閉鎖等,0,2022-05-24,2022-05-20,有限会社エイミス,,有限会社,東京都,目黒区,目黒本町３丁目２番１６号,,13,110,1520002,,,2022-05-20,清算の結了等,,,2015-10-05,1,,,,,,0
2405,9011501002426,登記記録の閉鎖等,0,2022-05-24,2022-05-19,株式会社関工務店,,株式会社,東京都,北区,東十条１丁目１８番１号,,13,117,1140001,,,2022-05-19,清算の結了等,,,2015-10-05,1,,,,,セキコウムテン,0
2415,9012401034451,登記記録の閉鎖等,0,2022-05-24,2022-05-17,株式会社いちじく,,株式会社,東京都,府中市,本町２丁目２４－７,,13,206,1830027,,,2022-05-17,清算の結了等,,,2018-09-18,1,,,,,イチジク,0
2456,9040002061284,登記記録の閉鎖等,0,2022-05-24,2022-05-19,有限会社中徳産業,,有限会社,千葉県,佐倉市,太田１４５３番地の１,,12,212,2850808,,,2022-05-19,清算の結了等,,,2015-10-05,1,,,,,ナカトクサンギョウ,0
2457,9040002091389,登記記録の閉鎖等,0,2022-05-24,2022-05-17,有限会社藤紀電設,,有限会社,千葉県,柏市,松ケ崎１０９０番地の５,,12,217,2770835,,,2022-05-17,清算の結了等,,,2015-10-05,1,,,,,フジキデンセツ,0
2462,9050001031584,登記記録の閉鎖等,0,2022-05-24,2022-04-12,株式会社ジャバス,,株式会社,茨城県,筑西市,みどり町２丁目８番１９,,08,227,3080042,,,2022-04-12,合併による解散等,3450001006188,令和４年４月１日北海道旭川市工業団地一条三丁目１番３７号日本ハム北海道ファクトリー株式会社（3450001006188）に合併し解散,2015-10-05,1,,,,,ジャバス,0
2469,9060001020066,登記記録の閉鎖等,0,2022-05-24,2022-05-18,株式会社リナセント,,株式会社,栃木県,足利市,八幡町１丁目２２番地２６,,09,202,3260824,,,2022-05-18,清算の結了等,,,2015-10-05,1,,,,,リナセント,0
2470,9060002014026,登記記録の閉鎖等,0,2022-05-24,2022-05-18,有限会社大和機械製作所,,有限会社,栃木県,那須烏山市,月次９番地１,,09,215,3210503,,,2022-05-18,清算の結了等,,,2015-10-05,1,,,,,オオワキカイセイサクジョ,0
2472,9060005000122,登記記録の閉鎖等,0,2022-05-24,2022-04-22,天理教玉一分教会,,その他の設立登記法人,群馬県,佐波郡玉村町,大字下之宮字中前５９８番地２,,10,464,3701112,,,2022-04-22,合併による解散等,9060005000130,令和４年４月１１日栃木県宇都宮市鐺山町東原２０２２番地天理教更立分教会（9060005000130）に合併し解散,2015-10-05,1,,,,,,0
2476,9060005006763,登記記録の閉鎖等,0,2022-05-24,2022-05-18,特定非営利活動法人ＪＩＣ－食カンボジア子ども支援の会,,その他の設立登記法人,栃木県,足利市,大橋町２丁目１８１０番地,,09,202,3260051,,,2022-05-18,清算の結了等,,,2015-10-05,1,,,,,ジェイアイシーイチジキカンボジアコドモシエンノカイ,0
2483,9080001022985,登記記録の閉鎖等,0,2022-05-24,2022-04-18,株式会社友創,,株式会社,愛知県,名古屋市港区,七反野１丁目１８１６番地,,23,111,4550884,,,2022-04-18,合併による解散等,2190001019432,令和４年４月１日三重県員弁郡東員町笹尾西二丁目４０番７株式会社フロンティア（2190001019432）に合併し解散,2019-07-11,1,,,,,ユウソウ,0
2489,9080103002209,登記記録の閉鎖等,0,2022-05-24,2022-05-19,Ｔｏｋｙｏ　Ｆｕｔｕｒｅ　Ｔｅｃｈｎｏｌｏｇｙ合同会社,,合同会社,東京都,新宿区,払方町１番地３,,13,104,1620841,,,2022-05-19,清算の結了等,,,2020-09-07,1,,,,,トウキョウフューチャーテクノロジー,0
2548,9180005018994,登記記録の閉鎖等,0,2022-05-24,2022-05-19,特定非営利活動法人ＴＵＮＡＧＵ,,その他の設立登記法人,愛知県,名古屋市中区,丸の内２丁目１７番１３号ＮＫ丸の内ビル２Ｆ,,23,106,4600002,,,2022-05-19,清算の結了等,,,2020-10-22,1,,,,,ツナグ,0
2561,9240005011836,登記記録の閉鎖等,0,2022-05-24,2022-04-15,天理教和田浦分教会,,その他の設立登記法人,広島県,三原市,和田２丁目９番１８号,,34,204,7230041,,,2022-04-15,合併による解散等,3240005011800,令和４年４月１５日広島県三原市西宮一丁目２８番１号天理教三原分教会（3240005011800）に合併し解散,2015-10-05,1,,,,,テンリキョウワダウラブンキョウカイ,0
2570,9290001071136,登記記録の閉鎖等,0,2022-05-24,2022-05-19,株式会社シンメトリー九州,,株式会社,福岡県,福岡市中央区,天神２丁目３番１０号天神パインクレスト３２１号室,,40,133,8100001,,,2022-05-19,清算の結了等,,,2015-10-05,1,,,,,シンメトリーキュウシュウ,0
2592,9350002016018,登記記録の閉鎖等,0,2022-05-24,2022-05-19,農業法人有限会社エイコー,,有限会社,宮崎県,都城市,高城町石山４０９６番地,,45,202,8851205,,,2022-05-19,清算の結了等,,,2015-10-05,1,,,,,ノウギョウホウジンエイコー,0
2597,9360001025332,登記記録の閉鎖等,0,2022-05-24,2022-05-11,株式会社沖心エンタープライズ,,株式会社,沖縄県,那覇市,久米２丁目３番１５号ＯＣＩ那覇ビル５階,,47,201,9000033,,,2022-05-11,清算の結了等,,,2019-03-05,1,,,,,オキシンエンタープライズ,0
2604,9370002011446,登記記録の閉鎖等,0,2022-05-24,2022-05-20,有限会社庄子八百屋,,有限会社,宮城県,仙台市青葉区,八幡４丁目２番７号,,04,101,9800871,,,2022-05-20,清算の結了等,,,2015-10-05,1,,,,,ショウジヤオヤ,0
2613,9430001047410,登記記録の閉鎖等,0,2022-05-24,2022-05-13,道央鉄工株式会社,,株式会社,北海道,夕張郡栗山町,字湯地７１番地,,01,429,0691508,,,2022-05-13,清算の結了等,,,2015-10-05,1,,,,,ドウオウテッコウ,0
2616,9430001065833,登記記録の閉鎖等,0,2022-05-24,2022-04-01,株式会社アクアケア,,株式会社,北海道,札幌市西区,八軒十条東４丁目２番１８号アクア八軒東ビル２階,,01,107,0630870,,,2022-04-01,合併による解散等,1430001046238,令和４年４月１日札幌市西区八軒十条東四丁目２番１８号アクア八軒東ビル株式会社アクア（1430001046238）に合併し解散,2015-10-05,1,,,,,アクアケア,0
