sequenceNumber,corporateNumber,process,correct,updateDate,changeDate,name,nameImageId,kind,prefectureName,cityName,streetNumber,addressImageId,prefectureCode,cityCode,postCode,addressOutside,addressOutsideImageId,closeDate,closeCause,successorCorporateNumber,changeCause,assignmentDate,latest,enName,enPrefectureName,enCityName,enAddressOutside,furigana,hihyoji
4,1010001248784,新規,0,2024-10-08,2024-10-08,株式会社マンモスエコロジー,,株式会社,東京都,中央区,築地２丁目８番１号築地永谷タウンプラザ７０３号室,,13,102,1040045,,,,,,,2024-10-08,1,,,,,マンモスエコロジー,0
5,1010001248792,新規,0,2024-10-08,2024-10-08,Ｍｏｌｅｃｕｌａｒ　Ｃａｔａｌｙｓｔ　Ｄｅｓｉｇｎ株式会社,,株式会社,東京都,文京区,本郷６丁目２５番１４号,,13,105,1130033,,,,,,,2024-10-08,1,,,,,モレキュラーキャタリストデザイン,0
6,1010001248826,新規,0,2024-10-08,2024-10-08,Ｊｅｗｅｌ株式会社,,株式会社,東京都,中央区,銀座６丁目１３－１６ヒューリック銀座ウォールビル７階,,13,102,1040061,,,,,,,2024-10-08,1,,,,,ジュエル,0
7,1010001248859,新規,0,2024-10-08,2024-10-08,光翼新能源株式会社,,株式会社,東京都,千代田区,九段北１丁目６番６号,,13,101,1020073,,,,,,,2024-10-08,1,,,,,コウヨクシンノウゲン,0
8,1010001248925,新規,0,2024-10-08,2024-10-08,華宏株式会社,,株式会社,東京都,中央区,日本橋本石町３丁目２番６号,,13,102,1030021,,,,,,,2024-10-08,1,,,,,ファホン,0
9,1010003045073,新規,0,2024-10-08,2024-10-08,合同会社執行,,合同会社,東京都,中央区,日本橋室町１丁目１１番１２号日本橋水野ビル７階,,13,102,1030022,,,,,,,2024-10-08,1,,,,,シギョウ,0
10,1010003045123,新規,0,2024-10-08,2024-10-08,ＭＦＫナビ合同会社,,合同会社,東京都,中央区,銀座１丁目１２番４号Ｎ＆Ｅ・ＢＬＤ．６Ｆ,,13,102,1040061,,,,,,,2024-10-08,1,,,,,エムエフケイナビ,0
16,1010401185454,新規,0,2024-10-08,2024-10-08,ＡＭＡＮＥＫＵ商事株式会社,,株式会社,東京都,港区,芝浦２丁目１４－１９,,13,103,1080023,,,,,,,2024-10-08,1,,,,,アマネクショウジ,0
17,1010401185520,新規,0,2024-10-08,2024-10-08,株式会社アミューズコミュニケーションデザイン,,株式会社,東京都,港区,南青山５丁目４番３１号,,13,103,1070062,,,,,,,2024-10-08,1,,,,,アミューズコミュニケーションデザイン,0
18,1010401185636,新規,0,2024-10-08,2024-10-08,富春株式会社,,株式会社,東京都,港区,麻布十番１丁目２番７－１００３号,,13,103,1060045,,,,,,,2024-10-08,1,,,,,フシュン,0
23,1010501052983,新規,0,2024-10-08,2024-10-08,嘉業株式会社,,株式会社,東京都,台東区,浅草橋５丁目１８番９号,,13,106,1110053,,,,,,,2024-10-08,1,,,,,カギョウ,0
29,1010603011128,新規,0,2024-10-08,2024-10-08,合同会社ＯＳコンサルネット,,合同会社,東京都,江東区,大島３丁目８番７－８０３号,,13,108,1360072,,,,,,,2024-10-08,1,,,,,オーエスコンサルネット,0
30,1010603011136,新規,0,2024-10-08,2024-10-08,ＮｏｒＡｂｉ合同会社,,合同会社,東京都,墨田区,亀沢１丁目８番１３号,,13,107,1300014,,,,,,,2024-10-08,1,,,,,ノラビ,0
32,1010701046645,新規,0,2024-10-08,2024-10-08,株式会社Ｈ＆Ｔ　ｐａｒｔｎｅｒｓ,,株式会社,東京都,品川区,上大崎３丁目１番３０－２５０７号,,13,109,1410021,,,,,,,2024-10-08,1,,,,,エイチアンドティーパートナーズ,0
33,1010701046653,新規,0,2024-10-08,2024-10-08,マルタ株式会社,,株式会社,東京都,品川区,大崎３丁目６番２１号ニュー大崎マンション３１３,,13,109,1410032,,,,,,,2024-10-08,1,,,,,マルタ,0
44,1010901056080,新規,0,2024-10-08,2024-10-08,株式会社ＫＯＴＯ,,株式会社,東京都,世田谷区,北沢１丁目４１番５－２０４号,,13,112,1550031,,,,,,,2024-10-08,1,,,,,コト,0
45,1010901056089,新規,0,2024-10-08,2024-10-08,株式会社ｓｕｍｉｋａ,,株式会社,東京都,世田谷区,上馬５丁目２０番１５－４０６号,,13,112,1540011,,,,,,,2024-10-08,1,,,,,スミカ,0
56,1011003020108,新規,0,2024-10-08,2024-10-08,合同会社ＹＧＬＯＷ,,合同会社,東京都,渋谷区,神宮前６丁目１９番１４号神宮前ハッピービル９階,,13,113,1500001,,,,,,,2024-10-08,1,,,,,ワイグロウ,0
61,1011103015016,新規,0,2024-10-08,2024-10-08,Ｂａｌｔｉｍｏｒｅ　Ａｉｒｃｏｉｌ　Ｊａｐａｎ合同会社,,合同会社,東京都,新宿区,西新宿１丁目４番１１号全研プラザビル７階ＳＰＡＣＥＳ新宿内,,13,104,1600023,,,,,,,2024-10-08,1,,,,,ボルチモアエアコイルジャパン,0
62,1011105011186,新規,0,2024-10-08,2024-10-08,一般社団法人コア・ファイブ,,その他の設立登記法人,東京都,新宿区,西新宿８丁目５番１号,,13,104,1600023,,,,,,,2024-10-08,1,,,,,コアファイブ,0
67,1011305003009,新規,0,2024-10-08,2024-10-08,一般社団法人あなたとアフリカをつなぐ応援団シェ・アダマ,,その他の設立登記法人,東京都,杉並区,浜田山２丁目２４番３号エレガンス浜田山１０１,,13,115,1680065,,,,,,,2024-10-08,1,,,,,アナタトアフリカヲツナグオウエンダンシェアダマ,0
78,1011703003989,新規,0,2024-10-08,2024-10-08,ａＧｏｏｄ合同会社,,合同会社,東京都,江戸川区,北葛西４丁目１９番３号デルフィＤ・Ｎ１０３,,13,123,1340081,,,,,,,2024-10-08,1,,,,,アグッド,0
79,1011801044877,新規,0,2024-10-08,2024-10-08,森彩株式会社,,株式会社,東京都,葛飾区,堀切６丁目２０番７号,,13,122,1240006,,,,,,,2024-10-08,1,,,,,モリサイ,0
84,1012401042354,新規,0,2024-10-08,2024-10-08,株式会社Ｇｒｏｗｔｈ,,株式会社,東京都,小金井市,本町５丁目４番６号,,13,210,1840004,,,,,,,2024-10-08,1,,,,,グロース,0
88,1013301053193,新規,0,2024-10-08,2024-10-08,株式会社結ルーム,,株式会社,東京都,豊島区,東池袋１丁目４２番１４号、２８山京ビル７階、ハローオフィス池袋８号室,,13,116,1700013,,,,,,,2024-10-08,1,,,,,ユイルーム,0
96,1020001159386,新規,0,2024-10-08,2024-10-08,牟須比株式会社,,株式会社,神奈川県,横浜市港北区,師岡町２７９－８７セントポーリア大倉山２０２,,14,109,2220002,,,,,,,2024-10-08,1,,,,,ムスビ,0
97,1020001159485,新規,0,2024-10-08,2024-10-08,スプリングポート株式会社,,株式会社,神奈川県,横浜市瀬谷区,東野１２０番地１,,14,114,2460012,,,,,,,2024-10-08,1,,,,,スプリングポート,0
98,1020001159493,新規,0,2024-10-08,2024-10-08,株式会社サンズメンテナンス,,株式会社,神奈川県,川崎市宮前区,初山１丁目１２番５９号,,14,136,2160026,,,,,,,2024-10-08,1,,,,,サンズメンテナンス,0
99,1020001159519,新規,0,2024-10-08,2024-10-08,株式会社ＨＡＲＭＯＮＩＸ,,株式会社,神奈川県,横浜市港北区,新吉田東３丁目１７番１２号イシモリテクニックス株式会社内３階,,14,109,2230058,,,,,,,2024-10-08,1,,,,,ハーモニックス,0
103,1020003027005,新規,0,2024-10-08,2024-10-08,エフハリスト合同会社,,合同会社,神奈川県,横浜市青葉区,青葉台２丁目３４番地９青葉台コートテラス６１８号,,14,117,2270062,,,,,,,2024-10-08,1,,,,,エフハリスト,0
104,1020003027013,新規,0,2024-10-08,2024-10-08,合同会社インテリア千野,,合同会社,神奈川県,川崎市宮前区,犬蔵３丁目１番４１－３０１号,,14,136,2160011,,,,,,,2024-10-08,1,,,,,インテリアチノ,0
107,1021001083444,新規,0,2024-10-08,2024-10-08,みちむら株式会社,,株式会社,神奈川県,三浦郡葉山町,堀内１２５０番地の２１,,14,301,2400112,,,,,,,2024-10-08,1,,,,,ミチムラ,0
123,1030001162694,新規,0,2024-10-08,2024-10-08,株式会社ＳＫ,,株式会社,埼玉県,三郷市,中央２丁目２６番地３リヴァルーテ３０２,,11,237,3410038,,,,,,,2024-10-08,1,,,,,エスケー,0
124,1030001162703,新規,0,2024-10-08,2024-10-08,株式会社しんや,,株式会社,埼玉県,朝霞市,浜崎４丁目１０番６６号,,11,227,3510033,,,,,,,2024-10-08,1,,,,,シンヤ,0
125,1030001162728,新規,0,2024-10-08,2024-10-08,株式会社三谷漁具,,株式会社,埼玉県,鴻巣市,人形２丁目１番７３号,,11,217,3650037,,,,,,,2024-10-08,1,,,,,ミタニギョグ,0
126,1030001162736,新規,0,2024-10-08,2024-10-08,株式会社ＴＡＧＡＷＡ,,株式会社,埼玉県,川越市,大字石田本郷６９６番地,,11,201,3500835,,,,,,,2024-10-08,1,,,,,タガワ,0
127,1030001162752,新規,0,2024-10-08,2024-10-08,エス・ケイ・シー株式会社,,株式会社,埼玉県,深谷市,下手計２５５番地１,,11,218,3660002,,,,,,,2024-10-08,1,,,,,エスケイシー,0
128,1030001162769,新規,0,2024-10-08,2024-10-08,株式会社トトナ通信,,株式会社,埼玉県,さいたま市見沼区,大字大谷１３７番地１２,,11,104,3370014,,,,,,,2024-10-08,1,,,,,トトナツウシン,0
129,1030001162785,新規,0,2024-10-08,2024-10-08,株式会社セールスギフト,,株式会社,埼玉県,越谷市,東越谷８丁目１３番地７エクセルハイムＢ１０２号,,11,222,3430023,,,,,,,2024-10-08,1,,,,,セールスギフト,0
130,1030001162793,新規,0,2024-10-08,2024-10-08,株式会社しゃもじ堂,,株式会社,埼玉県,さいたま市見沼区,深作２丁目２番地７,,11,104,3370003,,,,,,,2024-10-08,1,,,,,シャモジドウ,0
131,1030001162802,新規,0,2024-10-08,2024-10-08,株式会社ユウシ,,株式会社,埼玉県,さいたま市北区,土呂町２丁目７２番地１０ラフィーネオジマ４０８,,11,102,3310804,,,,,,,2024-10-08,1,,,,,ユウシ,0
132,1030001162810,新規,0,2024-10-08,2024-10-08,Ｆｏｒｅｓｔ　Ｅｙｅ株式会社,,株式会社,埼玉県,ふじみ野市,苗間１丁目１０番２０－５０１号,,11,245,3560052,,,,,,,2024-10-08,1,,,,,フォレストアイ,0
133,1030001162819,新規,0,2024-10-08,2024-10-08,株式会社翔舞建設,,株式会社,埼玉県,川口市,大字安行原１０８３番地の２０,,11,203,3340057,,,,,,,2024-10-08,1,,,,,ショウブケンセツ,0
134,1030001162835,新規,0,2024-10-08,2024-10-08,株式会社こころアーク,,株式会社,埼玉県,川越市,大字小室２９番地１１,,11,201,3501106,,,,,,,2024-10-08,1,,,,,ココロアーク,0
135,1030001162843,新規,0,2024-10-08,2024-10-08,株式会社エリー,,株式会社,埼玉県,春日部市,増田新田３８１－１,,11,214,3440025,,,,,,,2024-10-08,1,,,,,エリー,0
136,1030001162868,新規,0,2024-10-08,2024-10-08,株式会社Ｓｅｄｉｃｉ,,株式会社,埼玉県,さいたま市南区,大谷場２丁目２番３５号,,11,108,3360016,,,,,,,2024-10-08,1,,,,,セーディッチ,0
141,1030003025247,新規,0,2024-10-08,2024-10-08,まろくるエステート合同会社,,合同会社,埼玉県,志木市,下宗岡４丁目２９番３０号,,11,228,3530003,,,,,,,2024-10-08,1,,,,,マロクルエステート,0
142,1030003025255,新規,0,2024-10-08,2024-10-08,合同会社トラスト,,合同会社,埼玉県,川口市,西川口１丁目１０番１９号,,11,203,3320021,,,,,,,2024-10-08,1,,,,,トラスト,0
143,1030003025263,新規,0,2024-10-08,2024-10-08,Ｆｌａｉｒ合同会社,,合同会社,埼玉県,比企郡吉見町,大字久保田１００９番地１,,11,347,3550137,,,,,,,2024-10-08,1,,,,,フレア,0
149,1040001135740,新規,0,2024-10-08,2024-10-08,株式会社ＣＬＡ,,株式会社,千葉県,松戸市,松戸新田５９５番地４５号,,12,207,2702241,,,,,,,2024-10-08,1,,,,,シーエルエー,0
152,1040003025948,新規,0,2024-10-08,2024-10-08,Ｃｏｍ　Ｄｅｓｉｇｎ合同会社,,合同会社,千葉県,鎌ケ谷市,鎌ケ谷９丁目１３番５５号,,12,224,2730105,,,,,,,2024-10-08,1,,,,,コムデザイン,0
153,1040003025956,新規,0,2024-10-08,2024-10-08,ヒルヴィレッジ合同会社,,合同会社,千葉県,館山市,神余４５６１－６２,,12,205,2940023,,,,,,,2024-10-08,1,,,,,ヒルヴィレッジ,0
159,1050001055418,新規,0,2024-10-08,2024-10-08,自閉症の家株式会社,,株式会社,茨城県,つくば市,研究学園４丁目３３－１７０,,08,220,3050817,,,,,,,2024-10-08,1,,,,,ジヘイショウノイエ,0
167,1070001042232,新規,0,2024-10-08,2024-10-08,株式会社福嶋工業,,株式会社,群馬県,富岡市,神農原１０６３番地１,,10,210,3702455,,,,,,,2024-10-08,1,,,,,フクシマコウギョウ,0
169,1070005010318,新規,0,2024-10-08,2024-10-08,税理士法人大泉中央会計,,その他の設立登記法人,群馬県,邑楽郡大泉町,西小泉１丁目１２番１４号,,10,524,3700517,,,,,,,2024-10-08,1,,,,,オオイズミチュウオウカイケイ,0
173,1080101025045,新規,0,2024-10-08,2024-10-08,佐藤シグナルテレ株式会社,,株式会社,静岡県,伊東市,荻２８２番地の１０,,22,208,4140053,,,,,,,2024-10-08,1,,,,,サトウシグナルテレ,0
174,1080405007680,新規,0,2024-10-08,2024-10-08,医療法人社団ＣＲＡＮＥ,,その他の設立登記法人,静岡県,浜松市中央区,三島町６３２番地の１,,22,138,4300853,,,,,,,2024-10-08,1,,,,,クレーン,0
176,1100001037906,新規,0,2024-10-08,2024-10-08,株式会社一輝,,株式会社,長野県,上田市,住吉１０２９番地,,20,203,3860002,,,,,,,2024-10-08,1,,,,,イツキ,0
177,1100001037914,新規,0,2024-10-08,2024-10-08,株式会社ｋｎｏｔ,,株式会社,長野県,長野市,大字稲葉７０９番地３ＹＡビル３０１号,,20,201,3800911,,,,,,,2024-10-08,1,,,,,ノット,0
179,1100003007799,新規,0,2024-10-08,2024-10-08,Ｍｅｄｉａ　ｆｉｌｍ合同会社,,合同会社,長野県,下高井郡山ノ内町,大字平穏９９９－３,,20,561,3810401,,,,,,,2024-10-08,1,,,,,メディアフィルム,0
180,1100005013234,新規,0,2024-10-08,2024-10-08,医療法人いいだの森歯科こども歯科クリニック,,その他の設立登記法人,長野県,飯田市,鼎切石４０７９番地１,,20,205,3950807,,,,,,,2024-10-08,1,,,,,イイダノモリシカコドモシカクリニック,0
195,1120001268953,新規,0,2024-10-08,2024-10-08,ラージャ株式会社,,株式会社,大阪府,大阪市中央区,高津３丁目１４番１１－１９０３号,,27,128,5420072,,,,,,,2024-10-08,1,,,,,ラージャ,0
196,1120001269019,新規,0,2024-10-08,2024-10-08,株式会社森川,,株式会社,大阪府,大阪市中央区,西心斎橋２丁目１２番２２朝日プラザ心斎橋３１４号,,27,128,5420086,,,,,,,2024-10-08,1,,,,,モリカワ,0
197,1120001269101,新規,0,2024-10-08,2024-10-08,Ｉ‐ｖｅｒｓｅ株式会社,,株式会社,大阪府,大阪市西区,南堀江２丁目４番８－４０３号,,27,106,5500015,,,,,,,2024-10-08,1,,,,,アイバース,0
198,1120001269134,新規,0,2024-10-08,2024-10-08,株式会社ｓ．ｆ,,株式会社,大阪府,大阪市北区,天満１丁目５番７号シエリアタワー２９０１号,,27,127,5300043,,,,,,,2024-10-08,1,,,,,スフ,0
199,1120001269183,新規,0,2024-10-08,2024-10-08,株式会社ＳＣＣ,,株式会社,大阪府,大阪市平野区,瓜破東８丁目３番６号,,27,126,5470022,,,,,,,2024-10-08,1,,,,,エスシーシー,0
204,1120003027630,新規,0,2024-10-08,2024-10-08,合同会社Ｙｏｒｉｍａｄｏ,,合同会社,大阪府,大阪市阿倍野区,北畠３丁目５番北畠第一住宅２号棟３０４号,,27,119,5450035,,,,,,,2024-10-08,1,,,,,ヨリマド,0
205,1120003027696,新規,0,2024-10-08,2024-10-08,合同会社ヴェークプラス,,合同会社,大阪府,大阪市都島区,善源寺町１丁目９番１５号,,27,102,5340015,,,,,,,2024-10-08,1,,,,,ヴェークプラス,0
212,1120903005363,新規,0,2024-10-08,2024-10-08,ｎｉｊｉｉｒｏ合同会社,,合同会社,大阪府,吹田市,春日１丁目１６－１－１００２,,27,205,5650853,,,,,,,2024-10-08,1,,,,,ニジイロ,0
215,1130001078047,新規,0,2024-10-08,2024-10-08,ＭＯＲＥ　ＬＩＦＥ株式会社,,株式会社,京都府,京都市伏見区,淀樋爪町１９０番地５号室,,26,109,6130901,,,,,,,2024-10-08,1,,,,,モアライフ,0
216,1130001078096,新規,0,2024-10-08,2024-10-08,株式会社清里,,株式会社,京都府,京都市左京区,岡崎徳成町２７－１５,,26,103,6068351,,,,,,,2024-10-08,1,,,,,キヨサト,0
223,1140001136010,新規,0,2024-10-08,2024-10-08,株式会社ＷＥＢＡＶＥＮＵＥ,,株式会社,兵庫県,神戸市長田区,高取山町２丁目１６番１３－３０３号,,28,106,6530856,,,,,,,2024-10-08,1,,,,,ウェブアベニュー,0
224,1140001136035,新規,0,2024-10-08,2024-10-08,株式会社Ｒａｙ　Ｃｏｎｓｕｌｔｉｎｇ,,株式会社,兵庫県,姫路市,安田２丁目７５番地西浦ビル３階３号室,,28,201,6700955,,,,,,,2024-10-08,1,,,,,レイコンサルティング,0
233,1180001163637,新規,0,2024-10-08,2024-10-08,株式会社ＭＮ,,株式会社,愛知県,名古屋市中区,栄１丁目２２番２号,,23,106,4600008,,,,,,,2024-10-08,1,,,,,エムエヌ,0
234,1180005020792,新規,0,2024-10-08,2024-10-08,医療法人東雲会,,その他の設立登記法人,愛知県,名古屋市中川区,中野本町２丁目４４番地,,23,110,4540047,,,,,,,2024-10-08,1,,,,,シノノメカイ,0
239,1180303006279,新規,0,2024-10-08,2024-10-08,ウグイス合同会社,,合同会社,愛知県,北設楽郡東栄町,大字本郷字大森１番地,,23,562,4490214,,,,,,,2024-10-08,1,,,,,ウグイス,0
242,1190001031702,新規,0,2024-10-08,2024-10-08,株式会社小塩農美,,株式会社,三重県,松阪市,茅原町２６３５番地,,24,204,5151202,,,,,,,2024-10-08,1,,,,,コシオノウミ,0
253,1240001063896,新規,0,2024-10-08,2024-10-08,株式会社ミルブレイ,,株式会社,広島県,東広島市,西条下見５丁目６番３号,,34,212,7390047,,,,,,,2024-10-08,1,,,,,ミルブレイ,0
255,1240005015844,新規,0,2024-10-08,2024-10-08,一般社団法人日本レジリエンス,,その他の設立登記法人,広島県,廿日市市,佐方本町１番１号,,34,213,7380003,,,,,,,2024-10-08,1,,,,,ニッポンレジリエンス,0
261,1290003015882,新規,0,2024-10-08,2024-10-08,合同会社ＳＨＵＮ,,合同会社,福岡県,福岡市東区,名島２丁目２１番７号,,40,131,8130043,,,,,,,2024-10-08,1,,,,,シュン,0
264,1310001019247,新規,0,2024-10-08,2024-10-08,株式会社Ｌｅｋｋｅｒ,,株式会社,長崎県,長崎市,田上３丁目４番３号,,42,201,8510251,,,,,,,2024-10-08,1,,,,,レッケル,0
266,1320001020749,新規,0,2024-10-08,2024-10-08,フロスビータ株式会社,,株式会社,大分県,由布市,湯布院町川南８３１番地２,,44,213,8795103,,,,,,,2024-10-08,1,,,,,フロスビータ,0
272,1350001019219,新規,0,2024-10-08,2024-10-08,株式会社太清創建,,株式会社,宮崎県,宮崎市,大字跡江９０６番地,,45,201,8802101,,,,,,,2024-10-08,1,,,,,タイセイソウケン,0
276,1360001034282,新規,0,2024-10-08,2024-10-08,株式会社うみそらみどりとまち,,株式会社,沖縄県,宮古島市,平良字下里８１２番地,,47,214,9060013,,,,,,,2024-10-08,1,,,,,ウミソラミドリトマチ,0
278,1360003014373,新規,0,2024-10-08,2024-10-08,Ｗａホーム合同会社,,合同会社,沖縄県,那覇市,三原１丁目２６番４０－１０１号室,,47,201,9020063,,,,,,,2024-10-08,1,,,,,ワホーム,0
282,1380005012869,新規,0,2024-10-08,2024-10-08,土地家屋調査士法人ダブルコード,,その他の設立登記法人,福島県,郡山市,朝日３丁目４番１４号,,07,203,9638024,,,,,,,2024-10-08,1,,,,,ダブルコード,0
289,1430001092835,新規,0,2024-10-08,2024-10-08,株式会社ウッドワークス,,株式会社,北海道,札幌市中央区,南二十二条西９丁目２番１６－１０６号,,01,101,0640922,,,,,,,2024-10-08,1,,,,,ウッドワークス,0
290,1430001092843,新規,0,2024-10-08,2024-10-08,株式会社ＣＭＣ,,株式会社,北海道,札幌市中央区,大通西４丁目６番地１,,01,101,0600042,,,,,,,2024-10-08,1,,,,,シーエムシー,0
293,1460001005942,新規,0,2024-10-08,2024-10-08,株式会社Ｚグループホールディングス,,株式会社,北海道,釧路市,鶴ケ岱１丁目１１番１０１５号,,01,206,0850821,,,,,,,2024-10-08,1,,,,,ゼットグループホールディングス,0
294,1460103001658,新規,0,2024-10-08,2024-10-08,合同会社エルフォ,,合同会社,北海道,帯広市,東四条南５丁目３番地２,,01,207,0800804,,,,,,,2024-10-08,1,,,,,エルフォ,0
295,1470001020404,新規,0,2024-10-08,2024-10-08,Ｒｅｇｉｏｎ　Ｇｒｏｗｔｈ　Ｐａｒｔｎｅｒｓ株式会社,,株式会社,香川県,高松市,郷東町７８９－５スタジオソニック３０５,,37,201,7618031,,,,,,,2024-10-08,1,,,,,リージョングロースパートナーズ,0
297,1480001012615,新規,0,2024-10-08,2024-10-08,株式会社フォレスト・コマーズ,,株式会社,徳島県,徳島市,川内町加賀須野４１３番地１,,36,201,7710130,,,,,,,2024-10-08,1,,,,,フォレストコマーズ,0
298,1490003001937,新規,0,2024-10-08,2024-10-08,合同会社みらいかがやき理数塾,,合同会社,高知県,香南市,野市町大谷４５番地８,,39,211,7815233,,,,,,,2024-10-08,1,,,,,ミライカガヤキリスウジュク,0
301,1700150127447,新規,0,2024-10-08,2024-10-08,Ｈａｎｇｚｈｏｕ　Ｄｅａｏ　Ｉｎｔｅｒｎｅｔ　Ｔｅｃｈｎｏｌｏｇｙ　Ｃｏ．，Ｌｔｄ．,,外国会社等,,,,,,,,Ｒｏｏｍ　Ａ　０９５０，Ｂｕｉｌｄｉｎｇ　１８，Ｎｏ．８　Ｄｏｎｇｍｉｎｇｓｈａｎ　Ｒｏａｄ，Ｌｉａｎｇｚｈｕ　Ｓｔｒｅｅｔ，Ｙｕｈａｎｇ　Ｄｉｓｔｒｉｃｔ，Ｈａｎｇｚｈｏｕ　Ｃｉｔｙ，Ｚｈｅｊｉａｎｇ　Ｐｒｏｖｉｎｃｅ，３１１１００　ＣＮ,,,,,,2024-10-08,1,,,,,ハンゾウディアオインターネットテクノロジーカンパニーリミテッド,0
307,2010001248791,新規,0,2024-10-08,2024-10-08,株式会社未来知図,,株式会社,東京都,文京区,本郷６丁目２６番１号,,13,105,1130033,,,,,,,2024-10-08,1,,,,,ミライチズ,0
308,2010001248800,新規,0,2024-10-08,2024-10-08,株式会社ＲＡＫＵＨ,,株式会社,東京都,中央区,銀座１丁目２２－１１銀座大竹ビジデンス２Ｆ,,13,102,1040061,,,,,,,2024-10-08,1,,,,,ラクー,0
309,2010001248809,新規,0,2024-10-08,2024-10-08,ＡＵＣ．ＨＤ株式会社,,株式会社,東京都,千代田区,九段北１丁目１１－４井門九段下ビル７階,,13,101,1020073,,,,,,,2024-10-08,1,,,,,オークホールディングス,0
310,2010001248825,新規,0,2024-10-08,2024-10-08,Ｙｅｌｌ株式会社,,株式会社,東京都,中央区,銀座７丁目１３番２０号銀座ＴＨビル９階,,13,102,1040061,,,,,,,2024-10-08,1,,,,,エール,0
311,2010001248916,新規,0,2024-10-08,2024-10-08,株式会社マウンテン,,株式会社,東京都,千代田区,丸の内１丁目５番１号,,13,101,1000005,,,,,,,2024-10-08,1,,,,,マウンテン,0
315,2010003045023,新規,0,2024-10-08,2024-10-08,合同会社ＺＥＯＭ,,合同会社,東京都,中央区,日本橋茅場町２丁目１６番１１号坂本ビル４０３,,13,102,1030025,,,,,,,2024-10-08,1,,,,,ゼオン,0
316,2010003045080,新規,0,2024-10-08,2024-10-08,ディスカバリー合同会社,,合同会社,東京都,中央区,日本橋１丁目４番１号,,13,102,1030027,,,,,,,2024-10-08,1,,,,,ディスカバリー,0
317,2010003045155,新規,0,2024-10-08,2024-10-08,合同会社ＭＬコンサルティング,,合同会社,東京都,中央区,日本橋兜町１７番２号兜町第六葉山ビル４階４０７,,13,102,1030026,,,,,,,2024-10-08,1,,,,,エムエルコンサルティング,0
324,2010005038909,新規,0,2024-10-08,2024-10-08,ブロス税理士法人,,その他の設立登記法人,東京都,中央区,月島３丁目４番５－３０８号,,13,102,1040052,,,,,,,2024-10-08,1,,,,,ブロス,0
330,2010401185313,新規,0,2024-10-08,2024-10-08,Ｓｕｐｅｒ　Ｇｉｒｌ　Ｐｏｗｅｒ株式会社,,株式会社,東京都,港区,六本木４丁目３番１１号,,13,103,1060032,,,,,,,2024-10-08,1,,,,,スーパーガールパワー,0
331,2010401185544,新規,0,2024-10-08,2024-10-08,ジャイナミクス株式会社,,株式会社,東京都,港区,港南２丁目１５番３号,,13,103,1080075,,,,,,,2024-10-08,1,,,,,ジャイナミクス,0
332,2010401185602,新規,0,2024-10-08,2024-10-08,サスライ株式会社,,株式会社,東京都,港区,北青山１丁目３番１号アールキューブ青山３階,,13,103,1070061,,,,,,,2024-10-08,1,,,,,サスライ,0
341,2010701046652,新規,0,2024-10-08,2024-10-08,株式会社鍵屋・水道,,株式会社,東京都,品川区,平塚２丁目６番１３号スバルビル６Ｆ,,13,109,1420051,,,,,,,2024-10-08,1,,,,,カギヤスイドウ,0
345,2010801035456,新規,0,2024-10-08,2024-10-08,あわいマテリアルズ株式会社,,株式会社,東京都,大田区,新蒲田１丁目２２番１６－３０６号,,13,111,1440054,,,,,,,2024-10-08,1,,,,,アワイマテリアルズ,0
347,2010903009399,新規,0,2024-10-08,2024-10-08,レオブランドル・プログレサス合同会社,,合同会社,東京都,世田谷区,玉川４丁目３番１０－１０６号,,13,112,1580094,,,,,,,2024-10-08,1,,,,,レオブランドルプログレサス,0
348,2010905004679,新規,0,2024-10-08,2024-10-08,一般社団法人スポーツクライミング推進委員会,,その他の設立登記法人,東京都,世田谷区,代沢２丁目３４番４号,,13,112,1550032,,,,,,,2024-10-08,1,,,,,スポーツクライミングスイシンイインカイ,0
350,2011001164979,新規,0,2024-10-08,2024-10-08,夢醒出山株式会社,,株式会社,東京都,渋谷区,恵比寿２丁目２４番６－２０１号,,13,113,1500013,,,,,,,2024-10-08,1,,,,,ムセイデサン,0
351,2011001165069,新規,0,2024-10-08,2024-10-08,株式会社Ｉｔ　Ｓｅｎｓｅ,,株式会社,東京都,渋谷区,恵比寿４丁目２０番４号恵比寿ガーデンプレイスグラススクエア内,,13,113,1500013,,,,,,,2024-10-08,1,,,,,イットセンス,0
352,2011001165102,新規,0,2024-10-08,2024-10-08,株式会社アデスター,,株式会社,東京都,渋谷区,道玄坂１丁目１０番８号渋谷道玄坂東急ビル２Ｆ‐Ｃ,,13,113,1500043,,,,,,,2024-10-08,1,,,,,アデスター,0
353,2011001165192,新規,0,2024-10-08,2024-10-08,ＡｎｙＧｒａｂ株式会社,,株式会社,東京都,渋谷区,桜丘町２３番１７号シティコート桜丘４０８,,13,113,1500031,,,,,,,2024-10-08,1,,,,,エニーグラブ,0
354,2011003020156,新規,0,2024-10-08,2024-10-08,ＳＭＡＬＬ　ＲＡＣＫ合同会社,,合同会社,東京都,渋谷区,渋谷２丁目１９‐１５宮益坂ビルディング６０９,,13,113,1500002,,,,,,,2024-10-08,1,,,,,スモールラック,0
356,2011101109009,新規,0,2024-10-08,2024-10-08,株式会社あしたのガイド,,株式会社,東京都,新宿区,西落合２丁目１９番９－４０５号,,13,104,1610031,,,,,,,2024-10-08,1,,,,,アシタノガイド,0
357,2011101109025,新規,0,2024-10-08,2024-10-08,株式会社ツムグ,,株式会社,東京都,新宿区,西新宿６丁目１２番１６号,,13,104,1600023,,,,,,,2024-10-08,1,,,,,ツムグ,0
358,2011105011177,新規,0,2024-10-08,2024-10-08,一般社団法人いきいきライフ協会新宿,,その他の設立登記法人,東京都,新宿区,四谷三栄町１５番４号第一原嶋ビル４０２号室,,13,104,1600008,,,,,,,2024-10-08,1,,,,,イキイキライフキョウカイシンジュク,0
361,2011301030039,新規,0,2024-10-08,2024-10-08,イノベーティブ・モビリティ・コンサルティング株式会社,,株式会社,東京都,杉並区,高井戸東１丁目３１番４－３２２号パークシティ浜田山Ｃ棟,,13,115,1680072,,,,,,,2024-10-08,1,,,,,イノベーティブモビリティコンサルティング,0
363,2011305003008,新規,0,2024-10-08,2024-10-08,一般社団法人外国人支援推進協議会,,その他の設立登記法人,東京都,杉並区,高円寺南２丁目５３番４号,,13,115,1660003,,,,,,,2024-10-08,1,,,,,ガイコクジンシエンスイシンキョウギカイ,0
365,2011601028105,新規,0,2024-10-08,2024-10-08,元の源商事株式会社,,株式会社,東京都,練馬区,錦１丁目２５－２５,,13,120,1790082,,,,,,,2024-10-08,1,,,,,モトノゲンショウジ,0
373,2011801044942,新規,0,2024-10-08,2024-10-08,株式会社加寿不動産,,株式会社,東京都,足立区,千住旭町１３番８号,,13,121,1200026,,,,,,,2024-10-08,1,,,,,カジュフドウサン,0
374,2011803006486,新規,0,2024-10-08,2024-10-08,合同会社Ｗｉｌｌｏｗ　Ｂｒｉｄｇｅ,,合同会社,東京都,足立区,西伊興３丁目６番２６号,,13,121,1210824,,,,,,,2024-10-08,1,,,,,ウィローブリッジ,0
376,2012301014106,新規,0,2024-10-08,2024-10-08,株式会社ＬＹＬ,,株式会社,東京都,町田市,森野２丁目１３番４号,,13,209,1940022,,,,,,,2024-10-08,1,,,,,リル,0
385,2013301053184,新規,0,2024-10-08,2024-10-08,株式会社ｃｕｅｐｌｕｓ,,株式会社,東京都,豊島区,南池袋２丁目１９番１号,,13,116,1710022,,,,,,,2024-10-08,1,,,,,キュープラス,0
386,2013305003648,新規,0,2024-10-08,2024-10-08,関東警備業協同組合,,その他の設立登記法人,東京都,豊島区,巣鴨１丁目１７番１号,,13,116,1700002,,,,,,,2024-10-08,1,,,,,カントウケイビギョウ,0
392,2020001159410,新規,0,2024-10-08,2024-10-08,株式会社ＦＯＲ　ＭＥ,,株式会社,神奈川県,横浜市西区,北幸１丁目１１－１水信ビル７階,,14,103,2200004,,,,,,,2024-10-08,1,,,,,フォーミー,0
403,2020003026988,新規,0,2024-10-08,2024-10-08,合同会社ＭｅｄＥＮ,,合同会社,神奈川県,横浜市旭区,さちが丘２５－６２,,14,112,2410822,,,,,,,2024-10-08,1,,,,,メデン,0
404,2020003027012,新規,0,2024-10-08,2024-10-08,合同会社Ｒ２Ｍ,,合同会社,神奈川県,川崎市麻生区,万福寺１丁目１２番２１－１００３号,,14,137,2150004,,,,,,,2024-10-08,1,,,,,アールツーエム,0
409,2021001083369,新規,0,2024-10-08,2024-10-08,ゼロ・エネルギー革新技術株式会社,,株式会社,神奈川県,秦野市,南矢名２２２３番地の４東海ビル１０７Ｂ,,14,211,2570003,,,,,,,2024-10-08,1,,,,,ゼロエネルギーカクシンギジュツ,0
410,2021001083419,新規,0,2024-10-08,2024-10-08,株式会社オーセンティック,,株式会社,神奈川県,中郡大磯町,高麗１丁目２番３６号,,14,341,2550001,,,,,,,2024-10-08,1,,,,,オーセンティック,0
414,2021003015080,新規,0,2024-10-08,2024-10-08,合同会社西田工業,,合同会社,神奈川県,鎌倉市,岩瀬１丁目１番３－６０１号,,14,204,2470051,,,,,,,2024-10-08,1,,,,,ニシダコウギョウ,0
419,2030001162735,新規,0,2024-10-08,2024-10-08,株式会社サイトウ,,株式会社,埼玉県,富士見市,榎町２４番地富士見ニューライフ５１６,,11,235,3540016,,,,,,,2024-10-08,1,,,,,サイトウ,0
420,2030001162743,新規,0,2024-10-08,2024-10-08,株式会社ジーテック,,株式会社,埼玉県,越谷市,越ヶ谷３丁目３－１６－２階,,11,222,3430813,,,,,,,2024-10-08,1,,,,,ジーテック,0
421,2030001162776,新規,0,2024-10-08,2024-10-08,ヤマイル株式会社,,株式会社,埼玉県,さいたま市岩槻区,美園東１丁目１番地１－１３１６号室,,11,110,3390028,,,,,,,2024-10-08,1,,,,,ヤマイル,0
422,2030001162784,新規,0,2024-10-08,2024-10-08,株式会社Ｅｎｂｒｉｇｈｔ,,株式会社,埼玉県,白岡市,白岡１０６４番地１５,,11,246,3490218,,,,,,,2024-10-08,1,,,,,エンブライト,0
423,2030001162792,新規,0,2024-10-08,2024-10-08,株式会社ＭＫ　ｆａｃｔｏｒｙ,,株式会社,埼玉県,川口市,大字安行吉蔵４８５番地,,11,203,3340053,,,,,,,2024-10-08,1,,,,,エムケーファクトリー,0
424,2030001162801,新規,0,2024-10-08,2024-10-08,株式会社サンタホーム,,株式会社,埼玉県,所沢市,小手指町３丁目１７番地小手指ハイツＮ－２１１,,11,208,3591141,,,,,,,2024-10-08,1,,,,,サンタホーム,0
425,2030001162834,新規,0,2024-10-08,2024-10-08,株式会社ステージア,,株式会社,埼玉県,さいたま市大宮区,仲町３丁目１７番地１仲三大鉄ビル３Ｆ,,11,103,3300845,,,,,,,2024-10-08,1,,,,,ステージア,0
426,2030001162842,新規,0,2024-10-08,2024-10-08,株式会社みんと,,株式会社,埼玉県,春日部市,谷原２丁目１１－２８,,11,214,3440065,,,,,,,2024-10-08,1,,,,,ミント,0
427,2030001162850,新規,0,2024-10-08,2024-10-08,株式会社ソウゴベース,,株式会社,埼玉県,熊谷市,弥生２丁目１０－２０６（８０３号室）,,11,202,3600044,,,,,,,2024-10-08,1,,,,,ソウゴベース,0
428,2030001162859,新規,0,2024-10-08,2024-10-08,ドミライ商事株式会社,,株式会社,埼玉県,さいたま市西区,大字宝来１７６１番地－２号棟４０５号,,11,101,3310074,,,,,,,2024-10-08,1,,,,,ドミライショウジ,0
432,2030003025221,新規,0,2024-10-08,2024-10-08,合同会社Ｔｒｕｓｔ　Ｏｎｅ,,合同会社,埼玉県,川越市,大字古谷本郷１６４６番地３,,11,201,3500002,,,,,,,2024-10-08,1,,,,,トラストワン,0
433,2030003025246,新規,0,2024-10-08,2024-10-08,合同会社ティーエム工業,,合同会社,埼玉県,ふじみ野市,鶴ケ舞２丁目５番１２－２０５号,,11,245,3560041,,,,,,,2024-10-08,1,,,,,ティーエムコウギョウ,0
434,2030003025270,新規,0,2024-10-08,2024-10-08,合同会社ＫＩＺＵＮＡ,,合同会社,埼玉県,草加市,谷塚町４３８番地３フィルクローバ谷塚１０４号,,11,221,3400023,,,,,,,2024-10-08,1,,,,,キズナ,0
435,2030005021870,新規,0,2024-10-08,2024-10-08,ＮＰＯ法人ＯＮＥ　ＭＯＶＥＭＥＮＴ,,その他の設立登記法人,埼玉県,さいたま市北区,日進町１丁目７－２ファンシーマンション２０１号室,,11,102,3310823,,,,,,,2024-10-08,1,,,,,ワンムーブメント,0
437,2040001135640,新規,0,2024-10-08,2024-10-08,株式会社ニーヤ,,株式会社,千葉県,山武郡芝山町,大里１７３７番地,,12,409,2891603,,,,,,,2024-10-08,1,,,,,ニーヤ,0
438,2040001135681,新規,0,2024-10-08,2024-10-08,株式会社青山,,株式会社,千葉県,香取市,竹之内５２７番地２,,12,236,2890405,,,,,,,2024-10-08,1,,,,,アオヤマ,0
443,2040003025930,新規,0,2024-10-08,2024-10-08,合同会社トップワン,,合同会社,千葉県,市川市,中国分５丁目２２番１３号,,12,203,2720835,,,,,,,2024-10-08,1,,,,,トップワン,0
444,2040003025955,新規,0,2024-10-08,2024-10-08,合同会社エスエス企画,,合同会社,千葉県,千葉市緑区,おゆみ野南３丁目３０番地サンクレイドルおゆみ野ステーションウィズ３１０号,,12,105,2660033,,,,,,,2024-10-08,1,,,,,,0
446,2050001055490,新規,0,2024-10-08,2024-10-08,空気を汚さないリサイクル資源パワー株式会社,,株式会社,茨城県,水戸市,東前３丁目２３４番地,,08,201,3111136,,,,,,,2024-10-08,1,,,,,クウキヲヨゴサナイリサイクルシゲンパワー,0
460,2100001037905,新規,0,2024-10-08,2024-10-08,株式会社ニシザワ創建,,株式会社,長野県,千曲市,大字戸倉２１４４番地１,,20,218,3890804,,,,,,,2024-10-08,1,,,,,ニシザワソウケン,0
462,2100005013233,新規,0,2024-10-08,2024-10-08,一般財団法人角藤奨学財団,,その他の設立登記法人,長野県,長野市,南屋島５１５番地,,20,201,3810000,,,,,,,2024-10-08,1,,,,,カクトウショウガクザイダン,0
463,2110001038745,新規,0,2024-10-08,2024-10-08,日本海アセットマネジメント株式会社,,株式会社,新潟県,新潟市中央区,竜が島１丁目７番１４号,,15,103,9500072,,,,,,,2024-10-08,1,,,,,ニホンカイアセットマネジメント,0
470,2120001269083,新規,0,2024-10-08,2024-10-08,株式会社Ｒ　ＡＣＴＩＶＯ,,株式会社,大阪府,大阪市北区,大深町３－４０－８０５,,27,127,5300011,,,,,,,2024-10-08,1,,,,,アールアクティーボ,0
471,2120001269133,新規,0,2024-10-08,2024-10-08,ＣＯＳＨＵＢ株式会社,,株式会社,大阪府,大阪市中央区,北久宝寺町１丁目５－６堺筋本町アーバンライフ３１３号室,,27,128,5410057,,,,,,,2024-10-08,1,,,,,コスハブ,0
472,2120001269182,新規,0,2024-10-08,2024-10-08,株式会社大阪プロテック,,株式会社,大阪府,守口市,東町２丁目１６番５号,,27,209,5700013,,,,,,,2024-10-08,1,,,,,オオサカプロテック,0
477,2120003027670,新規,0,2024-10-08,2024-10-08,ＳＹＮＴＯＰＩＡ　ＲＥＡＬＴＹ合同会社,,合同会社,大阪府,大阪市中央区,島之内２丁目２番１６号１０１,,27,128,5420082,,,,,,,2024-10-08,1,,,,,シントピアリアルティ,0
479,2120901049873,新規,0,2024-10-08,2024-10-08,株式会社ＭｉＫａｔａ　ＳＷＩＴＣＨ,,株式会社,大阪府,豊中市,少路２丁目３－２４－８０６,,27,203,5600004,,,,,,,2024-10-08,1,,,,,ミカタスイッチ,0
480,2120903005370,新規,0,2024-10-08,2024-10-08,合同会社Ｋｉｎｏｖａ,,合同会社,大阪府,吹田市,藤が丘町２６－１,,27,205,5640081,,,,,,,2024-10-08,1,,,,,キノバ,0
481,2120905006648,新規,0,2024-10-08,2024-10-08,一般社団法人ＯＨＡＹＯＵ,,その他の設立登記法人,大阪府,箕面市,森町北２丁目２番４号,,27,220,5630256,,,,,,,2024-10-08,1,,,,,オハヨウ,0
483,2130001078070,新規,0,2024-10-08,2024-10-08,株式会社Ｐａｔｈｆｉｎｄｅｒ,,株式会社,京都府,京都市下京区,七条通油小路東入大黒町２２７番地第２キョートビル４０２,,26,106,6008223,,,,,,,2024-10-08,1,,,,,パスファインダー,0
484,2130001078087,新規,0,2024-10-08,2024-10-08,株式会社大慶,,株式会社,京都府,京都市東山区,今熊野南日吉町１１４番地１５,,26,105,6050953,,,,,,,2024-10-08,1,,,,,ダイケイ,0
487,2130003009890,新規,0,2024-10-08,2024-10-08,合同会社ｎｅｗ　ｄｕｈ　ｃｏｆｆｅｅ,,合同会社,京都府,京都市下京区,大黒町２２７番地第２キョートビル４０２,,26,106,6008043,,,,,,,2024-10-08,1,,,,,ニューダーコーヒー,0
488,2130003009916,新規,0,2024-10-08,2024-10-08,合同会社かなで,,合同会社,京都府,京都市南区,西九条針小路町９番地１,,26,107,6018422,,,,,,,2024-10-08,1,,,,,カナデ,0
489,2130003009924,新規,0,2024-10-08,2024-10-08,合同会社シャーリーズ,,合同会社,京都府,京都市左京区,岡崎徳成町７番地７,,26,103,6068351,,,,,,,2024-10-08,1,,,,,シャーリーズ,0
496,2140001136026,新規,0,2024-10-08,2024-10-08,蓮華株式会社,,株式会社,兵庫県,西宮市,愛宕山４番２６号,,28,204,6620871,,,,,,,2024-10-08,1,,,,,レンゲ,0
497,2140001136042,新規,0,2024-10-08,2024-10-08,株式会社車の磨き屋さん,,株式会社,兵庫県,神戸市西区,天王山３－７,,28,111,6512123,,,,,,,2024-10-08,1,,,,,クルマノミガキヤサン,0
500,2160003003305,新規,0,2024-10-08,2024-10-08,合同会社ＥＳ,,合同会社,滋賀県,長浜市,内保町２５２７－２,,25,203,5260244,,,,,,,2024-10-08,1,,,,,エス,0
506,2180001163495,新規,0,2024-10-08,2024-10-08,株式会社Ｇｒｉｔ,,株式会社,愛知県,名古屋市西区,中小田井３丁目４６番地,,23,104,4520822,,,,,,,2024-10-08,1,,,,,グリット,0
507,2180001163537,新規,0,2024-10-08,2024-10-08,株式会社ＢＬＥＳＳ,,株式会社,愛知県,名古屋市守山区,桜坂２丁目９１４番地,,23,113,4630018,,,,,,,2024-10-08,1,,,,,ブレス,0
508,2180001163578,新規,0,2024-10-08,2024-10-08,株式会社ＬＯＨＡＳシンセイ,,株式会社,愛知県,愛西市,川端町長田池７３番地２,,23,232,4960000,,,,,,,2024-10-08,1,,,,,ロハスシンセイ,0
509,2180001163636,新規,0,2024-10-08,2024-10-08,Ｎ＆Ｎ株式会社,,株式会社,愛知県,名古屋市中区,栄１丁目２２番２号,,23,106,4600008,,,,,,,2024-10-08,1,,,,,エヌアンドエヌ,0
515,2200001043018,新規,0,2024-10-08,2024-10-08,株式会社ミハマ商事,,株式会社,岐阜県,安八郡輪之内町,南波２３番地,,21,382,5030231,,,,,,,2024-10-08,1,,,,,ミハマショウジ,0
516,2200003006526,新規,0,2024-10-08,2024-10-08,合同会社いまみらい,,合同会社,岐阜県,大垣市,万石３丁目２５番地ＫＵＷＡＨＯＵＳＥ１０３,,21,202,5030812,,,,,,,2024-10-08,1,,,,,イマミライ,0
518,2210001019941,新規,0,2024-10-08,2024-10-08,株式会社ライジング,,株式会社,福井県,敦賀市,中央町１丁目１５番２８号ホロムアビルＢ,,18,202,9140811,,,,,,,2024-10-08,1,,,,,ライジング,0
522,2220001026243,新規,0,2024-10-08,2024-10-08,雅設備工業株式会社,,株式会社,石川県,河北郡津幡町,字清水ニ３０６番地３,,17,361,9290326,,,,,,,2024-10-08,1,,,,,ミヤビセツビコウギョウ,0
523,2220003003851,新規,0,2024-10-08,2024-10-08,三八日合同会社,,合同会社,石川県,金沢市,中川除町５０番地,,17,201,9200975,,,,,,,2024-10-08,1,,,,,ミヤビ,0
524,2230001020550,新規,0,2024-10-08,2024-10-08,株式会社ＡＵＬＤＥＮ,,株式会社,富山県,富山市,新富町２丁目５番１７号ＳＳビル２階,,16,201,9300002,,,,,,,2024-10-08,1,,,,,オールデン,0
526,2240001063912,新規,0,2024-10-08,2024-10-08,モナコ株式会社,,株式会社,広島県,広島市佐伯区,石内北２丁目２０番１２号,,34,108,7315109,,,,,,,2024-10-08,1,,,,,モナコ,0
537,2290001107482,新規,0,2024-10-08,2024-10-08,株式会社誠進,,株式会社,福岡県,久留米市,御井町１９９８番地６プライマリー久留米大前１０２号,,40,203,8390851,,,,,,,2024-10-08,1,,,,,セイシン,0
538,2290003015873,新規,0,2024-10-08,2024-10-08,合同会社Ｒｅ‐Ｒａｉｓｅ,,合同会社,福岡県,古賀市,千鳥３丁目２番１４－１０３号,,40,223,8113113,,,,,,,2024-10-08,1,,,,,リーレイズ,0
539,2290003015881,新規,0,2024-10-08,2024-10-08,合同会社ＢｉｇＦｉｅｌｄ,,合同会社,福岡県,福岡市南区,大楠１丁目１３番１９－１－２０３号,,40,134,8150082,,,,,,,2024-10-08,1,,,,,ビッグフィールド,0
542,2290801030933,新規,0,2024-10-08,2024-10-08,株式会社ＴＲＩＰＯＤ,,株式会社,福岡県,北九州市八幡西区,鷹見台４丁目１‐１５‐２,,40,109,8070853,,,,,,,2024-10-08,1,,,,,トライポッド,0
543,2290801030941,新規,0,2024-10-08,2024-10-08,株式会社アネックス,,株式会社,福岡県,北九州市小倉南区,朽網東１丁目１６番２号（Ｂ－３）,,40,107,8000232,,,,,,,2024-10-08,1,,,,,アネックス,0
552,2320003004484,新規,0,2024-10-08,2024-10-08,合同会社ＴＫＣ,,合同会社,大分県,別府市,大字鶴見４５４８番地の１４３９,,44,202,8740840,,,,,,,2024-10-08,1,,,,,ティーケーシー,0
554,2340001026842,新規,0,2024-10-08,2024-10-08,ＭＩＴＡ株式会社,,株式会社,鹿児島県,鹿児島市,新屋敷町２２番１４号－２Ｆ,,46,201,8920838,,,,,,,2024-10-08,1,,,,,ミタ,0
560,2350001019218,新規,0,2024-10-08,2024-10-08,株式会社伊勢舌,,株式会社,宮崎県,宮崎市,太田３丁目５番２３号,,45,201,8800903,,,,,,,2024-10-08,1,,,,,イセタン,0
564,2360003014356,新規,0,2024-10-08,2024-10-08,合同会社ＢｂｂＯＫＩＮＡＷＡ,,合同会社,沖縄県,沖縄市,諸見里３丁目９番１４号３０１,,47,211,9040032,,,,,,,2024-10-08,1,,,,,ビービービーオキナワ,0
565,2370001051805,新規,0,2024-10-08,2024-10-08,株式会社Ｂｅ・Ｃｕｂｅ,,株式会社,宮城県,仙台市青葉区,折立１丁目３番２６号,,04,101,9820261,,,,,,,2024-10-08,1,,,,,ビーキューブ,0
566,2370003006773,新規,0,2024-10-08,2024-10-08,合同会社ＮＩＡ,,合同会社,宮城県,仙台市若林区,土樋８４ガーラアネックス１０２号,,04,103,9840065,,,,,,,2024-10-08,1,,,,,ニア,0
571,2380005012868,新規,0,2024-10-08,2024-10-08,農事組合法人白河稲わら組合,,その他の設立登記法人,福島県,白河市,舟田１０７番地,,07,205,9610013,,,,,,,2024-10-08,1,,,,,シラカワイナワラクミアイ,0
572,2390001017762,新規,0,2024-10-08,2024-10-08,株式会社ネクスト,,株式会社,山形県,山形市,南館１丁目６番１５号,,06,201,9902461,,,,,,,2024-10-08,1,,,,,ネクスト,0
573,2390005009087,新規,0,2024-10-08,2024-10-08,一般社団法人防災防火サポート・プラスワン,,その他の設立登記法人,山形県,東根市,温泉町３丁目２番４６号,,06,211,9993702,,,,,,,2024-10-08,1,,,,,,0
580,2430003016865,新規,0,2024-10-08,2024-10-08,合同会社ノースライフ,,合同会社,北海道,札幌市南区,簾舞四条３丁目１１番２０号,,01,106,0612264,,,,,,,2024-10-08,1,,,,,ノースライフ,0
585,2700150127446,新規,0,2024-10-08,2024-10-08,ＯＵ　ＦＵ　ＨＯＬＤＩＮＧ　ＣＯ．，ＬＩＭＩＴＥＤ,,外国会社等,,,,,,,,香港新界屯門区建泰路６号恒威工業中心１８５号,,,,,,2024-10-08,1,,,,,オウフーホルディングコーリミティッド,0
586,2700150127454,新規,0,2024-10-08,2024-10-08,宇津江自治会,,その他,愛知県,田原市,宇津江町ドウ亀８番地,,23,231,4413601,,,,,,,2024-10-08,1,,,,,ウヅエジチカイ,0
588,3010001248477,新規,0,2024-10-08,2024-10-08,株式会社ＸＡ,,株式会社,東京都,千代田区,内神田１丁目１６番２号２Ｆ,,13,101,1010047,,,,,,,2024-10-08,1,,,,,エックスエイ,0
589,3010001248808,新規,0,2024-10-08,2024-10-08,プロトラス株式会社,,株式会社,東京都,千代田区,神田美倉町１０番地,,13,101,1010038,,,,,,,2024-10-08,1,,,,,プロトラス,0
590,3010001248865,新規,0,2024-10-08,2024-10-08,モーティブ・ソフトウェア・ソリューションズ・ジャパン株式会社,,株式会社,東京都,千代田区,有楽町１丁目１番２号日比谷三井タワー１２階,,13,101,1000006,,,,,,,2024-10-08,1,,,,,モーティブソフトウェアソリューションズジャパン,0
591,3010001248873,新規,0,2024-10-08,2024-10-08,株式会社Ｆｅｅｌ　Ｇｏｏｄ,,株式会社,東京都,中央区,銀座５丁目１２番５号,,13,102,1040061,,,,,,,2024-10-08,1,,,,,フィールグッド,0
592,3010003045014,新規,0,2024-10-08,2024-10-08,ランライドジャパン合同会社,,合同会社,東京都,中央区,日本橋室町１丁目１１番１２号日本橋水野ビル７階,,13,102,1030022,,,,,,,2024-10-08,1,,,,,ランライドジャパン,0
593,3010003045039,新規,0,2024-10-08,2024-10-08,バウハウス合同会社３,,合同会社,東京都,千代田区,霞が関３丁目２番５号,,13,101,1000013,,,,,,,2024-10-08,1,,,,,バウハウススリー,0
594,3010003045105,新規,0,2024-10-08,2024-10-08,温度デザイン合同会社,,合同会社,東京都,中央区,日本橋箱崎町２８番１－１０１号,,13,102,1030015,,,,,,,2024-10-08,1,,,,,オンドデザイン,0
595,3010003045121,新規,0,2024-10-08,2024-10-08,合同会社アゴラトレード,,合同会社,東京都,中央区,銀座１丁目１２番４号Ｎ＆ＥＢＬＤ．６Ｆ,,13,102,1040061,,,,,,,2024-10-08,1,,,,,アゴラトレード,0
596,3010003045154,新規,0,2024-10-08,2024-10-08,合同会社ヤマキ商事,,合同会社,東京都,中央区,銀座７丁目１３番６号サガミビル２階,,13,102,1040061,,,,,,,2024-10-08,1,,,,,ヤマキショウジ,0
603,3010401185510,新規,0,2024-10-08,2024-10-08,株式会社データ・ウィン,,株式会社,東京都,港区,南青山１丁目１番１号新青山ビル東館７階,,13,103,1070062,,,,,,,2024-10-08,1,,,,,データウィン,0
604,3010401185519,新規,0,2024-10-08,2024-10-08,株式会社アミューズクリエイティブスタジオ,,株式会社,東京都,港区,南青山５丁目４番３１号,,13,103,1070062,,,,,,,2024-10-08,1,,,,,アミューズクリエイティブスタジオ,0
605,3010401185618,新規,0,2024-10-08,2024-10-08,株式会社Ｒｅｃｒｕｉｔ　Ｉｎｎｏｖａｔｉｏｎ,,株式会社,東京都,港区,新橋４丁目３１番３号,,13,103,1050004,,,,,,,2024-10-08,1,,,,,リクルートイノベーション,0
618,3010601066015,新規,0,2024-10-08,2024-10-08,祐和株式会社,,株式会社,東京都,江東区,有明２丁目１番２－１１１１号,,13,108,1350063,,,,,,,2024-10-08,1,,,,,ユウワ,0
625,3010705003681,新規,0,2024-10-08,2024-10-08,一般社団法人テレビＣＭ考査センター,,その他の設立登記法人,東京都,品川区,東品川１丁目３番３号,,13,109,1400002,,,,,,,2024-10-08,1,,,,,テレビシーエムコウサセンター,0
629,3010803005126,新規,0,2024-10-08,2024-10-08,ＢＰＩ合同会社,,合同会社,東京都,大田区,南馬込２丁目２５番１１号ファミネス天神山１０６,,13,111,1430025,,,,,,,2024-10-08,1,,,,,ビーピーアイ,0
634,3010901056079,新規,0,2024-10-08,2024-10-08,株式会社あ,,株式会社,東京都,世田谷区,三軒茶屋１丁目４１番１５号,,13,112,1540024,,,,,,,2024-10-08,1,,,,,ア,0
635,3010901056087,新規,0,2024-10-08,2024-10-08,ＡＬＴＥＲＩ株式会社,,株式会社,東京都,世田谷区,梅丘３丁目５番８号,,13,112,1540022,,,,,,,2024-10-08,1,,,,,アルテリ,0
636,3010903009398,新規,0,2024-10-08,2024-10-08,合同会社ＡＫＩ,,合同会社,東京都,世田谷区,下馬５丁目３番１４号,,13,112,1540002,,,,,,,2024-10-08,1,,,,,アキ,0
644,3011001165092,新規,0,2024-10-08,2024-10-08,株式会社ａｎｅａ　ｐｅｔｓ,,株式会社,東京都,渋谷区,恵比寿４丁目１２番１３号,,13,113,1500013,,,,,,,2024-10-08,1,,,,,アネアペッツ,0
647,3011101109008,新規,0,2024-10-08,2024-10-08,株式会社Ｓ＆Ｓ,,株式会社,東京都,新宿区,西新宿３丁目３番１３号西新宿水間ビル６階,,13,104,1600023,,,,,,,2024-10-08,1,,,,,エスアンドエス,0
648,3011103015006,新規,0,2024-10-08,2024-10-08,ｍｏｍｏ合同会社,,合同会社,東京都,新宿区,百人町３丁目２６番１―１０１号,,13,104,1690073,,,,,,,2024-10-08,1,,,,,モモ,0
658,3012301014105,新規,0,2024-10-08,2024-10-08,アリスト株式会社,,株式会社,東京都,町田市,上小山田町３９３番地８,,13,209,1940201,,,,,,,2024-10-08,1,,,,,アリスト,0
661,3012803003522,新規,0,2024-10-08,2024-10-08,合同会社鈴木工業,,合同会社,東京都,立川市,高松町２丁目３２番１３号,,13,202,1900011,,,,,,,2024-10-08,1,,,,,スズキコウギョウ,0
670,3020001159509,新規,0,2024-10-08,2024-10-08,芸通商事株式会社,,株式会社,神奈川県,横浜市神奈川区,三ツ沢中町１０番８号ライオンズマンションヨコハマ三ツ沢１０４,,14,102,2210851,,,,,,,2024-10-08,1,,,,,ゲイツウショウジ,0
671,3020001159533,新規,0,2024-10-08,2024-10-08,Ｒｅｓｏｌｕｔｉｏｎ株式会社,,株式会社,神奈川県,横浜市港北区,新横浜１丁目２５番５号プラーズ新横浜７階,,14,109,2220033,,,,,,,2024-10-08,1,,,,,リソリューション,0
672,3020001159541,新規,0,2024-10-08,2024-10-08,吉通株式会社,,株式会社,神奈川県,横浜市南区,通町３丁目５０番２マインドベリタ横浜壱番館３０５号,,14,105,2320056,,,,,,,2024-10-08,1,,,,,ヨシツウ,0
684,3021001083368,新規,0,2024-10-08,2024-10-08,若缺株式会社,,株式会社,神奈川県,秦野市,南矢名２２２３番地の４東海ビル１０９Ａ,,14,211,2570003,,,,,,,2024-10-08,1,,,,,ニャクケツ,0
690,3030001162742,新規,0,2024-10-08,2024-10-08,株式会社所沢ゼロファーム,,株式会社,埼玉県,所沢市,北野３丁目２１番地の２１,,11,208,3591152,,,,,,,2024-10-08,1,,,,,トコロザワゼロファーム,0
691,3030001162750,新規,0,2024-10-08,2024-10-08,株式会社Ｘ２Ｙ２Ｊａｐａｎ,,株式会社,埼玉県,越谷市,赤山本町４番地１ヨネビル５階,,11,222,3430808,,,,,,,2024-10-08,1,,,,,エックスツーワイツージャパン,0
692,3030001162775,新規,0,2024-10-08,2024-10-08,株式会社Ｌｉｇｈｔ　Ｗｅｌｄｉｎｇ,,株式会社,埼玉県,入間市,大字南峯３２５番地５,,11,225,3580046,,,,,,,2024-10-08,1,,,,,ライトウェルディング,0
693,3030001162791,新規,0,2024-10-08,2024-10-08,ドーンスター株式会社,,株式会社,埼玉県,川口市,飯塚２丁目５番２２－２０８号,,11,203,3320023,,,,,,,2024-10-08,1,,,,,ドーンスター,0
694,3030001162809,新規,0,2024-10-08,2024-10-08,株式会社吉田工務店,,株式会社,埼玉県,八潮市,大字伊勢野２３６番地レヴィ－ル八潮１１０６号,,11,234,3400821,,,,,,,2024-10-08,1,,,,,ヨシダコウムテン,0
695,3030001162825,新規,0,2024-10-08,2024-10-08,ＭｉｌａＩＥエステート株式会社,,株式会社,埼玉県,上尾市,東町２丁目１０番１５号,,11,219,3620031,,,,,,,2024-10-08,1,,,,,ミライエエステート,0
696,3030001162841,新規,0,2024-10-08,2024-10-08,株式会社建匠,,株式会社,埼玉県,新座市,新堀１丁目１３番３１－２７号,,11,230,3520032,,,,,,,2024-10-08,1,,,,,ケンショウ,0
701,3030003025212,新規,0,2024-10-08,2024-10-08,ＴＡＨＡ　ＭＯＴＯＲＳ合同会社,,合同会社,埼玉県,ふじみ野市,上福岡５丁目５番２３号レジデンスみやび２０２号室,,11,245,3560004,,,,,,,2024-10-08,1,,,,,タハモーターズ,0
702,3030003025245,新規,0,2024-10-08,2024-10-08,合同会社ＡＰＸ,,合同会社,埼玉県,越谷市,南越谷３丁目１５番６号,,11,222,3430845,,,,,,,2024-10-08,1,,,,,エーピーエックス,0
703,3030003025253,新規,0,2024-10-08,2024-10-08,ＳＴ販売合同会社,,合同会社,埼玉県,蕨市,南町２丁目１２番１１号－２０８,,11,223,3350003,,,,,,,2024-10-08,1,,,,,エスティハンバイ,0
713,3040003025946,新規,0,2024-10-08,2024-10-08,大喜合同会社,,合同会社,千葉県,松戸市,北松戸３丁目１番地４,,12,207,2710063,,,,,,,2024-10-08,1,,,,,オオキ,0
714,3040003025954,新規,0,2024-10-08,2024-10-08,ＭＵＫＨＴＡＲ　ＴＲＡＤＩＮＧ合同会社,,合同会社,千葉県,印西市,小林９６１番地,,12,231,2701318,,,,,,,2024-10-08,1,,,,,モクタールトレーディング,0
723,3070001042255,新規,0,2024-10-08,2024-10-08,株式会社ＶＥＧＡ,,株式会社,群馬県,太田市,上小林町２０２番地１,,10,205,3730024,,,,,,,2024-10-08,1,,,,,ベガ,0
726,3080003003304,新規,0,2024-10-08,2024-10-08,合同会社ＫＩＣＡ,,合同会社,静岡県,静岡市清水区,富士見町４番１３号,,22,103,4240941,,,,,,,2024-10-08,1,,,,,キカ,0
733,3080405007679,新規,0,2024-10-08,2024-10-08,医療法人社団Ｋｕｒｏｄａ　Ｍｅｄｉｃａｌ,,その他の設立登記法人,静岡県,浜松市中央区,鴨江１丁目３３番２号１階,,22,138,4328023,,,,,,,2024-10-08,1,,,,,クロダメディカル,0
736,3100001037904,新規,0,2024-10-08,2024-10-08,ｋｕｚｙ株式会社,,株式会社,長野県,小諸市,相生町３丁目１番８号,,20,208,3840025,,,,,,,2024-10-08,1,,,,,クージー,0
739,3110001038744,新規,0,2024-10-08,2024-10-08,ＳＨＩＮ‐ＯＮホールディングス株式会社,,株式会社,新潟県,新潟市西区,流通１丁目１番地,,15,107,9501125,,,,,,,2024-10-08,1,,,,,シンオンホールディングス,0
753,3120001268927,新規,0,2024-10-08,2024-10-08,株式会社Ｚ‐ａｌｐｈａ,,株式会社,大阪府,大阪市淀川区,西中島１丁目９番２０号新中島ビル１Ｆ,,27,123,5320011,,,,,,,2024-10-08,1,,,,,ゼットアルファ,0
754,3120001269074,新規,0,2024-10-08,2024-10-08,株式会社ティーエスシー,,株式会社,大阪府,門真市,三ツ島５丁目２番１４号,,27,223,5710015,,,,,,,2024-10-08,1,,,,,ティーエスシー,0
755,3120001269099,新規,0,2024-10-08,2024-10-08,大川株式会社,,株式会社,大阪府,大阪市生野区,新今里３丁目５番１８号ＳＥＩＫＡビル５０２号室,,27,116,5440001,,,,,,,2024-10-08,1,,,,,オオカワ,0
756,3120001269140,新規,0,2024-10-08,2024-10-08,株式会社Ｍａｒｒｉａｇｅ　Ｍａｔｃｈｉｎｇ,,株式会社,大阪府,大阪市北区,梅田１丁目１３番１号大阪梅田ツインタワーズ・サウス１５Ｆ,,27,127,5300001,,,,,,,2024-10-08,1,,,,,マリッジマッチング,0
757,3120001269165,新規,0,2024-10-08,2024-10-08,愛趣商貿株式会社,,株式会社,大阪府,大阪市福島区,鷺洲５丁目１２番２－６２８号,,27,103,5530002,,,,,,,2024-10-08,1,,,,,アイシュショウボウ,0
758,3120001269181,新規,0,2024-10-08,2024-10-08,株式会社Ｙ＆Ｍ,,株式会社,大阪府,門真市,幸福町１番４５号,,27,223,5710066,,,,,,,2024-10-08,1,,,,,ワイアンドエム,0
767,3120901049848,新規,0,2024-10-08,2024-10-08,株式会社ミライズ,,株式会社,大阪府,吹田市,五月が丘北１番１５号,,27,205,5650834,,,,,,,2024-10-08,1,,,,,ミライズ,0
768,3120901049872,新規,0,2024-10-08,2024-10-08,株式会社スタードリーム,,株式会社,大阪府,高槻市,日吉台七番町２０番１１号,,27,207,5691022,,,,,,,2024-10-08,1,,,,,スタードリーム,0
771,3122001038517,新規,0,2024-10-08,2024-10-08,株式会社ＧＯ．ＲＥＦＯＲＭ,,株式会社,大阪府,東大阪市,新庄東２番１８号,,27,227,5780951,,,,,,,2024-10-08,1,,,,,ゴーリフォーム,0
776,3130001078094,新規,0,2024-10-08,2024-10-08,株式会社Ｓｕｐｒｏｌｅ,,株式会社,京都府,京都市左京区,岩倉長谷町１７７９番地,,26,103,6060026,,,,,,,2024-10-08,1,,,,,スプロール,0
777,3130003009907,新規,0,2024-10-08,2024-10-08,合同会社ＫＦクリアリーズン,,合同会社,京都府,京都市右京区,西院久田町９７番地,,26,108,6150064,,,,,,,2024-10-08,1,,,,,ケイエフクリアリーズン,0
780,3130005017197,新規,0,2024-10-08,2024-10-08,一般社団法人安寧社会共創イニシアチブ,,その他の設立登記法人,京都府,京都市左京区,吉田下阿達町４６番地２９イノベーションハブ京都内,,26,103,6068304,,,,,,,2024-10-08,1,,,,,アンネイシャカイキョウソウイニシアチブ,0
781,3130005017206,新規,0,2024-10-08,2024-10-08,医療法人実楓,,その他の設立登記法人,京都府,八幡市,欽明台中央５５番６,,26,210,6148295,,,,,,,2024-10-08,1,,,,,ミフウ,0
785,3140001135984,新規,0,2024-10-08,2024-10-08,ＭａｓｓｉｏＴＮ株式会社,,株式会社,兵庫県,姫路市,白浜町寺家２丁目１４７番地２,,28,201,6728012,,,,,,,2024-10-08,1,,,,,マッシオティーエヌ,0
786,3140001136041,新規,0,2024-10-08,2024-10-08,株式会社タケショー,,株式会社,兵庫県,尼崎市,武庫之荘東１丁目９番２０号,,28,202,6610032,,,,,,,2024-10-08,1,,,,,タケショー,0
800,3180001163536,新規,0,2024-10-08,2024-10-08,うさマートジャパンサービス株式会社,,株式会社,愛知県,名古屋市中村区,名駅南１丁目１５番２１号,,23,105,4500003,,,,,,,2024-10-08,1,,,,,ウサマートジャパンサービス,0
801,3180001163577,新規,0,2024-10-08,2024-10-08,株式会社三和コーポレーション,,株式会社,愛知県,名古屋市東区,泉１丁目１２番２５号２００６,,23,102,4610001,,,,,,,2024-10-08,1,,,,,サンワコーポレーション,0
817,3220005008889,新規,0,2024-10-08,2024-10-08,特定非営利活動法人金木犀,,その他の設立登記法人,石川県,金沢市,北塚町西４４６番地,,17,201,9200367,,,,,,,2024-10-08,1,,,,,キンモクセイ,0
835,3290001107507,新規,0,2024-10-08,2024-10-08,株式会社シャンドラ,,株式会社,福岡県,大川市,大字榎津１１１番地１３第二東光ビル２階Ｂ・Ｃ号室,,40,212,8310004,,,,,,,2024-10-08,1,,,,,シャンドラ,0
839,3290003015880,新規,0,2024-10-08,2024-10-08,エライト合同会社,,合同会社,福岡県,筑紫野市,大字武藏５－５－１,,40,217,8180052,,,,,,,2024-10-08,1,,,,,エライト,0
840,3290005019500,新規,0,2024-10-08,2024-10-08,特定非営利活動法人ひさやまもん,,その他の設立登記法人,福岡県,糟屋郡久山町,大字山田１６６７番地１２,,40,348,8112502,,,,,,,2024-10-08,1,,,,,ヒサヤマモン,0
841,3290801030940,新規,0,2024-10-08,2024-10-08,株式会社カナコ,,株式会社,福岡県,北九州市小倉南区,朽網東１丁目１６番２号（日豊スカイハイツＩＩＢ－２）,00136565,40,107,8000232,,,,,,,2024-10-08,1,,,,,カナコ,0
850,3340001026825,新規,0,2024-10-08,2024-10-08,株式会社赤尾商事,,株式会社,鹿児島県,鹿児島市,東千石町７番１０号,,46,201,8920842,,,,,,,2024-10-08,1,,,,,アカオショウジ,0
852,3350001019225,新規,0,2024-10-08,2024-10-08,株式会社伊吹電気,,株式会社,宮崎県,宮崎市,阿波岐原町宮神３１４８番地３,,45,201,8800835,,,,,,,2024-10-08,1,,,,,イブキデンキ,0
858,3360003014371,新規,0,2024-10-08,2024-10-08,合同会社あんしん不動産,,合同会社,沖縄県,うるま市,みどり町１丁目１番９号,,47,213,9042215,,,,,,,2024-10-08,1,,,,,アンシンフドウサン,0
861,3370001051779,新規,0,2024-10-08,2024-10-08,栄和工業株式会社,,株式会社,宮城県,仙台市若林区,卸町１丁目６番地の１０,,04,103,9840015,,,,,,,2024-10-08,1,,,,,エイワコウギョウ,0
862,3370001051795,新規,0,2024-10-08,2024-10-08,株式会社アマノ,,株式会社,宮城県,仙台市宮城野区,出花３丁目２４番地の１,,04,102,9830012,,,,,,,2024-10-08,1,,,,,アマノ,0
872,3410001013948,新規,0,2024-10-08,2024-10-08,株式会社ＯＭＧホールディングス,,株式会社,秋田県,秋田市,楢山登町１２番６０－１号,,05,201,0100021,,,,,,,2024-10-08,1,,,,,オーエムジーホールディングス,0
876,3460101007614,新規,0,2024-10-08,2024-10-08,インテグット株式会社,,株式会社,北海道,帯広市,西二条南７丁目１７番地２,,01,207,0800012,,,,,,,2024-10-08,1,,,,,インテグット,0
878,3460305002023,新規,0,2024-10-08,2024-10-08,一般社団法人Ａ型就労支援施設マリーゴールド,,その他の設立登記法人,北海道,北見市,西富町２丁目６番１０号,,01,208,0900831,,,,,,,2024-10-08,1,,,,,エーガタシュウロウシエンシセツマリーゴールド,0
882,3700150127445,新規,0,2024-10-08,2024-10-08,Ｑｉｎｇｄａｏｆａｔｅｋｅｊｉｙｏｕｘｉａｎｇｏｎｇｓｉ,,外国会社等,,,,,,,,ｓｈａｎｄｏｎｇｓｈｅｎｇｑｉｎｇｄａｏｓｈｉｌｉｃａｎｇｑｕｑｉｎｇｓｈａｎｌｕ７００ｈａｏｊｉｎｈａｉｎｉｕｎｅｎｇｙｕａｎｈｕａｎｊｉｎｇｃｈａｎｙｅｙｕａｎＢｚｕｏ１７２６,,,,,,2024-10-08,1,,,,,チンダオファーターコージーヨウシエンゴンスー,0
896,4010001248815,新規,0,2024-10-08,2024-10-08,株式会社ＢＨガーデン,,株式会社,東京都,中央区,日本橋浜町１丁目８番１２－１００１号,,13,102,1030007,,,,,,,2024-10-08,1,,,,,ビーエイチガーデン,0
897,4010001248848,新規,0,2024-10-08,2024-10-08,Ｃｒｅａｂｅａｕｔｙ株式会社,,株式会社,東京都,中央区,日本橋１丁目２番１０号,,13,102,1030027,,,,,,,2024-10-08,1,,,,,クレアビューティ,0
898,4010003045038,新規,0,2024-10-08,2024-10-08,バウハウス合同会社２,,合同会社,東京都,千代田区,霞が関３丁目２番５号,,13,101,1000013,,,,,,,2024-10-08,1,,,,,バウハウスツー,0
899,4010003045112,新規,0,2024-10-08,2024-10-08,ＨｏＧパートナーズ合同会社,,合同会社,東京都,文京区,湯島２丁目２２－１３シティハウス文京湯島１００４,,13,105,1130034,,,,,,,2024-10-08,1,,,,,エイチオージーパートナーズ,0
901,4010103002426,新規,0,2024-10-08,2024-10-08,合同会社みのり,,合同会社,東京都,八王子市,長房町１４３４番地４,,13,201,1930824,,,,,,,2024-10-08,1,,,,,ミノリ,0
907,4010401185501,新規,0,2024-10-08,2024-10-08,株式会社ＬＡＺＷＥＬＬ,,株式会社,東京都,港区,南青山３丁目５番２号南青山第一韮沢ビル３Ｆ,,13,103,1070062,,,,,,,2024-10-08,1,,,,,ラズウェル,0
911,4010403033476,新規,0,2024-10-08,2024-10-08,合同会社ＴＪ,,合同会社,東京都,港区,赤坂１丁目１番１７号,,13,103,1070052,,,,,,,2024-10-08,1,,,,,ティージェー,0
912,4010403033542,新規,0,2024-10-08,2024-10-08,Ｉ　ｙｕ　ｉｎｋ合同会社,,合同会社,東京都,港区,南青山２丁目２番１５号ウィン青山９４２,,13,103,1070062,,,,,,,2024-10-08,1,,,,,,0
918,4010601066055,新規,0,2024-10-08,2024-10-08,株式会社福岡電力システム,,株式会社,東京都,江東区,潮見１丁目２８番８－７０３号,,13,108,1350052,,,,,,,2024-10-08,1,,,,,フクオカデンリョクシステム,0
935,4010901056078,新規,0,2024-10-08,2024-10-08,株式会社ＣＥ,,株式会社,東京都,世田谷区,太子堂１丁目１２番２７－１００５号,,13,112,1540004,,,,,,,2024-10-08,1,,,,,シーイー,0
936,4011001165083,新規,0,2024-10-08,2024-10-08,ハナサク株式会社,,株式会社,東京都,渋谷区,恵比寿１丁目２３－１７ディアナコート恵比寿３０４,,13,113,1500013,,,,,,,2024-10-08,1,,,,,ハナサク,0
943,4011101108999,新規,0,2024-10-08,2024-10-08,株式会社本郷エステート,,株式会社,東京都,新宿区,西新宿１丁目２５番１号新宿センタービル３１Ｆ,,13,104,1600023,,,,,,,2024-10-08,1,,,,,ホンゴウエステート,0
944,4011101109007,新規,0,2024-10-08,2024-10-08,日本リスキリング支援株式会社,,株式会社,東京都,新宿区,四谷４丁目１０番１２号四谷ｓｆｉｄａｂａｓｅ１Ｆ,,13,104,1600004,,,,,,,2024-10-08,1,,,,,ニホンリスキリングシエン,0
945,4011101109015,新規,0,2024-10-08,2024-10-08,株式会社ティアソス,,株式会社,東京都,新宿区,西新宿３丁目３番１３号西新宿水間ビル６階,,13,104,1600023,,,,,,,2024-10-08,1,,,,,ティアソス,0
946,4011101109031,新規,0,2024-10-08,2024-10-08,株式会社Ｅｎａｂｌｅ,,株式会社,東京都,新宿区,西新宿６丁目１２番７号,,13,104,1600023,,,,,,,2024-10-08,1,,,,,エナブル,0
947,4011101109048,新規,0,2024-10-08,2024-10-08,株式会社ニャモフィー,,株式会社,東京都,新宿区,払方町３番地１フォーチュンコート市ヶ谷４０４,,13,104,1620841,,,,,,,2024-10-08,1,,,,,ニャモフィー,0
948,4011101109056,新規,0,2024-10-08,2024-10-08,株式会社ライコマ,,株式会社,東京都,新宿区,百人町１丁目１５－２９,,13,104,1690073,,,,,,,2024-10-08,1,,,,,ライコマ,0
950,4011103015013,新規,0,2024-10-08,2024-10-08,ＮＡＮＡＩＲＯ合同会社,,合同会社,東京都,新宿区,大久保２丁目２番１１号ペリエ東新宿４０４号,,13,104,1690072,,,,,,,2024-10-08,1,,,,,ナナイロ,0
951,4011105011175,新規,0,2024-10-08,2024-10-08,弁護士法人東京笠井法律総合事務所,,その他の設立登記法人,東京都,新宿区,左門町１３番地１四谷弁護士ビル２０２号,,13,104,1600017,,,,,,,2024-10-08,1,,,,,トウキョウカサイホウリツソウゴウジムショ,0
952,4011201025830,新規,0,2024-10-08,2024-10-08,株式会社春蓮夏,,株式会社,東京都,中野区,東中野２丁目８‐１サンライトハイツ２、２０１,,13,114,1640003,,,,,,,2024-10-08,1,,,,,シュンレンカ,0
961,4011603004473,新規,0,2024-10-08,2024-10-08,合同会社ファインセブン,,合同会社,東京都,練馬区,西大泉４丁目６番９号,,13,120,1780065,,,,,,,2024-10-08,1,,,,,ファインセブン,0
962,4011701027665,新規,0,2024-10-08,2024-10-08,九田株式会社,,株式会社,東京都,江戸川区,平井５丁目４５番５号渡辺ハイツ１０１,,13,123,1320035,,,,,,,2024-10-08,1,,,,,クダ,0
963,4011703003986,新規,0,2024-10-08,2024-10-08,合同会社シッパジー,,合同会社,東京都,江戸川区,谷河内２丁目４番６－３０２号メゾンエスユー,,13,123,1330002,,,,,,,2024-10-08,1,,,,,シッパジー,0
966,4011801044949,新規,0,2024-10-08,2024-10-08,株式会社いやさか,,株式会社,東京都,足立区,伊興本町１丁目２番２号,,13,121,1210807,,,,,,,2024-10-08,1,,,,,イヤサカ,0
967,4011801044957,新規,0,2024-10-08,2024-10-08,ＦＲＥＧＡＴＡ株式会社,,株式会社,東京都,葛飾区,亀有３丁目９－７東久ハイツ７０１,,13,122,1250061,,,,,,,2024-10-08,1,,,,,フレガタ,0
969,4011803006492,新規,0,2024-10-08,2024-10-08,合同会社リフトエッジ,,合同会社,東京都,葛飾区,青戸８丁目３－１９,,13,122,1250062,,,,,,,2024-10-08,1,,,,,リフトエッジ,0
980,4020001159292,新規,0,2024-10-08,2024-10-08,株式会社草行,,株式会社,神奈川県,横浜市青葉区,あざみ野３丁目９番地４,,14,117,2250011,,,,,,,2024-10-08,1,,,,,ソウコウ,0
981,4020001159433,新規,0,2024-10-08,2024-10-08,株式会社盛栄,,株式会社,神奈川県,横浜市保土ケ谷区,川辺町２番地２パイロットハウス星川Ａ－６０２号,,14,106,2400001,,,,,,,2024-10-08,1,,,,,セイエイ,0
982,4020001159490,新規,0,2024-10-08,2024-10-08,株式会社晴伸,,株式会社,神奈川県,横浜市南区,中里４丁目１番１６号クロノス弘明寺西２０４,,14,105,2320063,,,,,,,2024-10-08,1,,,,,セイシン,0
983,4020001159524,新規,0,2024-10-08,2024-10-08,株式会社内田不動産サービス,,株式会社,神奈川県,川崎市中原区,下小田中１丁目１８番２１号,,14,133,2110041,,,,,,,2024-10-08,1,,,,,ウチダフドウサンサービス,0
985,4020003026994,新規,0,2024-10-08,2024-10-08,合同会社ハリバートン,,合同会社,神奈川県,横浜市西区,西戸部町１丁目６２－６,,14,103,2200046,,,,,,,2024-10-08,1,,,,,ハリバートン,0
986,4020003027035,新規,0,2024-10-08,2024-10-08,東京都海の森バッテリー事業合同会社,,合同会社,神奈川県,横浜市中区,北仲通３丁目３１番地,,14,104,2310003,,,,,,,2024-10-08,1,,,,,トウキョウトウミノモリバッテリージギョウ,0
1002,4030001162733,新規,0,2024-10-08,2024-10-08,ピーキー株式会社,,株式会社,埼玉県,熊谷市,月見町１丁目４２番地,,11,202,3600825,,,,,,,2024-10-08,1,,,,,ピーキー,0
1003,4030001162741,新規,0,2024-10-08,2024-10-08,株式会社なないちご,,株式会社,埼玉県,富士見市,関沢２丁目２５番５－４０３号,,11,235,3540025,,,,,,,2024-10-08,1,,,,,ナナイチゴ,0
1004,4030001162758,新規,0,2024-10-08,2024-10-08,株式会社ＮＨＣ,,株式会社,埼玉県,久喜市,久喜中央２丁目９番４１号ＴＫビル２Ｆ,,11,232,3460003,,,,,,,2024-10-08,1,,,,,エヌエイチシー,0
1005,4030001162766,新規,0,2024-10-08,2024-10-08,ＭＫライン株式会社,,株式会社,埼玉県,さいたま市見沼区,東大宮６丁目５２番地１３－２Ｆ,,11,104,3370051,,,,,,,2024-10-08,1,,,,,エムケーライン,0
1006,4030001162774,新規,0,2024-10-08,2024-10-08,株式会社ＩＢＵＫＩ,,株式会社,埼玉県,北葛飾郡杉戸町,大字堤根２５２７番地,,11,464,3450024,,,,,,,2024-10-08,1,,,,,イブキ,0
1007,4030001162782,新規,0,2024-10-08,2024-10-08,株式会社うるたす,,株式会社,埼玉県,さいたま市大宮区,桜木町２丁目３番地大宮マルイ７階,,11,103,3300854,,,,,,,2024-10-08,1,,,,,ウルタス,0
1008,4030001162790,新規,0,2024-10-08,2024-10-08,株式会社ベコー,,株式会社,埼玉県,さいたま市見沼区,春岡１丁目１０番地３３,,11,104,3370008,,,,,,,2024-10-08,1,,,,,ベコー,0
1009,4030001162799,新規,0,2024-10-08,2024-10-08,ミツハナホールディングス株式会社,,株式会社,埼玉県,入間市,向陽台１丁目１番地１７駅前プラザ１５－４０４,,11,225,3580001,,,,,,,2024-10-08,1,,,,,ミツハナホールディングス,0
1010,4030001162808,新規,0,2024-10-08,2024-10-08,株式会社ミヤマ,,株式会社,埼玉県,ふじみ野市,亀久保字大野原１６７０番地７４,,11,245,3560051,,,,,,,2024-10-08,1,,,,,ミヤマ,0
1011,4030001162816,新規,0,2024-10-08,2024-10-08,株式会社ＡＳＴＥＬ,,株式会社,埼玉県,さいたま市見沼区,深作２丁目４番２６号,,11,104,3370003,,,,,,,2024-10-08,1,,,,,アステル,0
1012,4030001162840,新規,0,2024-10-08,2024-10-08,株式会社１０,,株式会社,埼玉県,蓮田市,西新宿２丁目７７番地１,,11,238,3490141,,,,,,,2024-10-08,1,,,,,ジュウ,0
1018,4030003025252,新規,0,2024-10-08,2024-10-08,合同会社フェルーナ,,合同会社,埼玉県,上尾市,本町１丁目１０番５号グリーンハウス１Ｆ,,11,219,3620014,,,,,,,2024-10-08,1,,,,,フェルーナ,0
1019,4030003025269,新規,0,2024-10-08,2024-10-08,合同会社あおいサービス,,合同会社,埼玉県,さいたま市大宮区,桜木町２丁目３番地大宮マルイ７階,,11,103,3300854,,,,,,,2024-10-08,1,,,,,アオイサービス,0
1020,4030003025277,新規,0,2024-10-08,2024-10-08,敬天合同会社,,合同会社,埼玉県,新座市,新座１丁目３番２号,,11,230,3520006,,,,,,,2024-10-08,1,,,,,ケイテン,0
1024,4040001135597,新規,0,2024-10-08,2024-10-08,株式会社信和工業,,株式会社,千葉県,八街市,榎戸６９４番地１１,,12,230,2891106,,,,,,,2024-10-08,1,,,,,シンワコウギョウ,0
1025,4040001135688,新規,0,2024-10-08,2024-10-08,Ｂｕｓｉｔｏｏｌ　Ｌａｂｏ株式会社,,株式会社,千葉県,八千代市,大和田新田９４３番地２７,,12,221,2760046,,,,,,,2024-10-08,1,,,,,ビジツールラボ,0
1026,4040001135746,新規,0,2024-10-08,2024-10-08,日本有機農業株式会社,,株式会社,千葉県,千葉市中央区,道場南１丁目１９番１４号,,12,101,2600005,,,,,,,2024-10-08,1,,,,,ニホンユウキノウギョウ,0
1029,4040003025945,新規,0,2024-10-08,2024-10-08,合同会社チームシープ,,合同会社,千葉県,千葉市花見川区,幕張町３丁目１５２３番地６,,12,102,2620032,,,,,,,2024-10-08,1,,,,,チームシープ,0
1037,4080001026537,新規,0,2024-10-08,2024-10-08,株式会社わらや,,株式会社,静岡県,焼津市,駅北３丁目２１－１０,,22,212,4250028,,,,,,,2024-10-08,1,,,,,ワラヤ,0
1038,4080101025050,新規,0,2024-10-08,2024-10-08,株式会社スターリンク,,株式会社,静岡県,富士市,川成島３４７番地の１,,22,210,4160939,,,,,,,2024-10-08,1,,,,,スターリンク,0
1041,4080405007678,新規,0,2024-10-08,2024-10-08,医療法人社団ＫＴｅｙｅ,,その他の設立登記法人,静岡県,浜松市中央区,鴨江１丁目３３番２号２階,,22,138,4328023,,,,,,,2024-10-08,1,,,,,ケーティーアイ,0
1044,4100003007805,新規,0,2024-10-08,2024-10-08,ディヴァイングレース合同会社,,合同会社,長野県,北安曇郡白馬村,大字北城３４７６,,20,485,3999301,,,,,,,2024-10-08,1,,,,,ディヴァイングレース,0
1046,4100005013231,新規,0,2024-10-08,2024-10-08,一般社団法人ＡＩＮＯＡ,,その他の設立登記法人,長野県,木曽郡木曽町,開田高原末川２１８０番地,,20,432,3970301,,,,,,,2024-10-08,1,,,,,アイノア,0
1048,4110001038727,新規,0,2024-10-08,2024-10-08,株式会社大翔龍,,株式会社,新潟県,新潟市中央区,天神２丁目１番地３,,15,103,9500917,,,,,,,2024-10-08,1,,,,,ダイショウリュウ,0
1058,4120001269098,新規,0,2024-10-08,2024-10-08,株式会社瀬尾建設工業,,株式会社,大阪府,寝屋川市,出雲町１８番１－５０６号,,27,215,5720821,,,,,,,2024-10-08,1,,,,,セオケンセツコウギョウ,0
1059,4120001269131,新規,0,2024-10-08,2024-10-08,株式会社ヨシテック,,株式会社,大阪府,大阪市此花区,朝日２丁目１８番８号３Ｆ－６５９,,27,104,5540011,,,,,,,2024-10-08,1,,,,,ヨシテック,0
1060,4120001269148,新規,0,2024-10-08,2024-10-08,株式会社山勢,,株式会社,大阪府,大阪市阿倍野区,三明町２丁目１１番２９号ラシーヌ三明町４０５,,27,119,5450005,,,,,,,2024-10-08,1,,,,,ヤマセ,0
1061,4120001269164,新規,0,2024-10-08,2024-10-08,大谷不動産管理株式会社,,株式会社,大阪府,大阪市大正区,三軒家東４丁目５－１５大五ビル１階,,27,108,5510002,,,,,,,2024-10-08,1,,,,,オオタニフドウサンカンリ,0
1062,4120001269180,新規,0,2024-10-08,2024-10-08,株式会社トレヤ,,株式会社,大阪府,大阪市大正区,平尾２丁目９番１０号,,27,108,5510012,,,,,,,2024-10-08,1,,,,,トレヤ,0
1063,4120001269189,新規,0,2024-10-08,2024-10-08,株式会社Ｅｓｆｏｒｃｏ,,株式会社,大阪府,大阪市中央区,備後町２丁目４－６森田ビルディング５０３,,27,128,5410051,,,,,,,2024-10-08,1,,,,,エスフォルソ,0
1066,4120003027685,新規,0,2024-10-08,2024-10-08,合同会社ＳＥＩ,,合同会社,大阪府,大阪市平野区,加美南３丁目１番２号,,27,126,5470003,,,,,,,2024-10-08,1,,,,,セイ,0
1067,4120003027702,新規,0,2024-10-08,2024-10-08,合同会社オリエンタル人材開発,,合同会社,大阪府,大阪市東淀川区,東中島１丁目１７番５－３３４号,,27,114,5330033,,,,,,,2024-10-08,1,,,,,オリエンタルジンザイカイハツ,0
1073,4122001038516,新規,0,2024-10-08,2024-10-08,株式会社Ｌｕｐｉｎｕｓ,,株式会社,大阪府,東大阪市,岩田町４丁目１３－２５ルミエール若江岩田３０４,,27,227,5780941,,,,,,,2024-10-08,1,,,,,ルピナス,0
1077,4130003009906,新規,0,2024-10-08,2024-10-08,合同会社ｎｔａｐｏ,,合同会社,京都府,京都市伏見区,醍醐大畑町１７３番地,,26,109,6011303,,,,,,,2024-10-08,1,,,,,ンタポ,0
1089,4140001135975,新規,0,2024-10-08,2024-10-08,株式会社トラストサービス,,株式会社,兵庫県,尼崎市,田能４丁目１７番５０－１１４号,,28,202,6610951,,,,,,,2024-10-08,1,,,,,トラストサービス,0
1090,4140001135983,新規,0,2024-10-08,2024-10-08,株式会社ＡＫＲ建設,,株式会社,兵庫県,尼崎市,南武庫之荘７丁目６番１０－２０２号,,28,202,6610033,,,,,,,2024-10-08,1,,,,,エーケーアールケンセツ,0
1091,4140001136016,新規,0,2024-10-08,2024-10-08,株式会社ｂｅ　ｍｕｓｔ,,株式会社,兵庫県,姫路市,八代本町１丁目１０番２３号,,28,201,6700874,,,,,,,2024-10-08,1,,,,,ビーマスト,0
1092,4140001136032,新規,0,2024-10-08,2024-10-08,株式会社Ｄｉｍｅｎｓｉｏｎ,,株式会社,兵庫県,芦屋市,呉川町１３番３－１０１号,,28,206,6590051,,,,,,,2024-10-08,1,,,,,ディメンション,0
1093,4140001136040,新規,0,2024-10-08,2024-10-08,ＨＡＮＴＯＫＵホールディングス株式会社,,株式会社,兵庫県,伊丹市,瑞原１丁目２８番地,,28,207,6640005,,,,,,,2024-10-08,1,,,,,ハントクホールディングス,0
1094,4140001136049,新規,0,2024-10-08,2024-10-08,株式会社ＣＨＡＴ　ＨＯＵＳＥ,,株式会社,兵庫県,芦屋市,呉川町１１番１９号,,28,206,6590051,,,,,,,2024-10-08,1,,,,,チャットハウス,0
1099,4140005027228,新規,0,2024-10-08,2024-10-08,イトーピア甲陽園管理組合法人,,その他の設立登記法人,兵庫県,西宮市,上ケ原山田町１番８号,,28,204,6620886,,,,,,,2024-10-08,1,,,,,イトーピアコウヨウエン,0
1100,4150001027585,新規,0,2024-10-08,2024-10-08,ゆうふく株式会社,,株式会社,奈良県,奈良市,紀寺町６６３番地の２寳珠寺,,29,201,6308306,,,,,,,2024-10-08,1,,,,,ユウフク,0
1103,4180001163436,新規,0,2024-10-08,2024-10-08,株式会社Ｌｉｂｃｏｍ,,株式会社,愛知県,名古屋市昭和区,紅梅町２丁目１９番地１,,23,107,4660031,,,,,,,2024-10-08,1,,,,,リブコム,0
1104,4180001163568,新規,0,2024-10-08,2024-10-08,星新興業株式会社,,株式会社,愛知県,海部郡大治町,大字三本木字屋形１８８番地１,,23,424,4901142,,,,,,,2024-10-08,1,,,,,セイシンコウギョウ,0
1106,4180003027440,新規,0,2024-10-08,2024-10-08,合同会社Ｓｏｒａ,,合同会社,愛知県,名古屋市緑区,太子３丁目５２番地の１,,23,114,4580823,,,,,,,2024-10-08,1,,,,,ソラ,0
1113,4190001031708,新規,0,2024-10-08,2024-10-08,ＳＴＥＰ株式会社,,株式会社,三重県,四日市市,新正５丁目２番２０号カームウェーブ１Ｃ,,24,202,5100064,,,,,,,2024-10-08,1,,,,,ステップ,0
1120,4220001026233,新規,0,2024-10-08,2024-10-08,株式会社イーパワー,,株式会社,石川県,金沢市,笠舞本町１丁目６番６０号,,17,201,9200947,,,,,,,2024-10-08,1,,,,,イーパワー,0
1121,4220001026241,新規,0,2024-10-08,2024-10-08,株式会社ハウルエステート,,株式会社,石川県,金沢市,玉鉾４丁目１２３番地１,,17,201,9218002,,,,,,,2024-10-08,1,,,,,ハウルエステート,0
1123,4240001063910,新規,0,2024-10-08,2024-10-08,Ｖａｎｎｉ株式会社,,株式会社,広島県,広島市安佐南区,伴南１丁目５－３０－１４－１１０２,,34,105,7313168,,,,,,,2024-10-08,1,,,,,バンニ,0
1132,4290001107489,新規,0,2024-10-08,2024-10-08,株式会社Ｌｅａｆｕｉ,,株式会社,福岡県,福岡市中央区,天神２丁目２番１２号Ｔ＆Ｊビルディング７Ｆ,,40,133,8100001,,,,,,,2024-10-08,1,,,,,リーフイ,0
1133,4290001107506,新規,0,2024-10-08,2024-10-08,クルール株式会社,,株式会社,福岡県,福岡市中央区,草香江１丁目７－３４,,40,133,8100045,,,,,,,2024-10-08,1,,,,,クルール,0
1134,4290001107514,新規,0,2024-10-08,2024-10-08,藤谷不動産株式会社,,株式会社,福岡県,福岡市博多区,博多駅前４丁目１３番２７号グランドハイツ博多５０２,,40,132,8120011,,,,,,,2024-10-08,1,,,,,フジタニフドウサン,0
1142,4320001020746,新規,0,2024-10-08,2024-10-08,株式会社ＯＰＥＮ　ＵＰ,,株式会社,大分県,別府市,朝見１丁目１８番１３号,,44,202,8740812,,,,,,,2024-10-08,1,,,,,オープンアップ,0
1143,4320001020754,新規,0,2024-10-08,2024-10-08,株式会社ハマホーム,,株式会社,大分県,大分市,王子西町８番２１号植木セメントビル１０５号,,44,201,8700008,,,,,,,2024-10-08,1,,,,,ハマホーム,0
1148,4350001019224,新規,0,2024-10-08,2024-10-08,株式会社鰹屋丸洋水産,,株式会社,宮崎県,宮崎市,吾妻町９番地コアマンション橘公園リバーステージ１００５号,,45,201,8800864,,,,,,,2024-10-08,1,,,,,カツオヤマルヨウスイサン,0
1154,4370001051803,新規,0,2024-10-08,2024-10-08,株式会社カクイチ,,株式会社,宮城県,牡鹿郡女川町,大原３番地の１,,04,581,9862266,,,,,,,2024-10-08,1,,,,,カクイチ,0
1158,4380001034831,新規,0,2024-10-08,2024-10-08,大鈴建設株式会社,,株式会社,福島県,会津若松市,湯川町１番５８号プリンスビル２－Ｆ,,07,202,9650863,,,,,,,2024-10-08,1,,,,,タイリンケンセツ,0
1159,4380005012874,新規,0,2024-10-08,2024-10-08,医療法人すけがわクリニック,,その他の設立登記法人,福島県,いわき市,植田町根小屋３０９番地の３,,07,204,9748261,,,,,,,2024-10-08,1,,,,,スケガワクリニック,0
1160,4380005012882,新規,0,2024-10-08,2024-10-08,さめがわ未来デザイン協同組合,,その他の設立登記法人,福島県,東白川郡鮫川村,大字赤坂中野字伏木田３２番地,,07,484,9638401,,,,,,,2024-10-08,1,,,,,サメガワミライデザイン,0
1168,4430003016847,新規,0,2024-10-08,2024-10-08,合同会社ＴＨＤ建築,,合同会社,北海道,札幌市西区,琴似一条６丁目２番１－４０５号,,01,107,0630811,,,,,,,2024-10-08,1,,,,,ティーエイチディーケンチク,0
1172,4450005004427,新規,0,2024-10-08,2024-10-08,一般社団法人ＫＣ,,その他の設立登記法人,北海道,旭川市,緑町２０丁目３０６７－１株式会社協和コンサルタント３Ｆ,,01,204,0700823,,,,,,,2024-10-08,1,,,,,ケーシー,0
1178,5010001248797,新規,0,2024-10-08,2024-10-08,株式会社Ｓ＆Ｐ　ＳＴＵＤＩＯ,,株式会社,東京都,千代田区,麹町１丁目６番３号クレール麹町４０２,,13,101,1020083,,,,,,,2024-10-08,1,,,,,エスアンドピースタジオ,0
1179,5010001248871,新規,0,2024-10-08,2024-10-08,ＭＹＭドネーション株式会社,,株式会社,東京都,中央区,銀座３丁目５番１２号,,13,102,1040061,,,,,,,2024-10-08,1,,,,,エムワイエムドネーション,0
1181,5010003045037,新規,0,2024-10-08,2024-10-08,バウハウス合同会社１,,合同会社,東京都,千代田区,霞が関３丁目２番５号,,13,101,1000013,,,,,,,2024-10-08,1,,,,,バウハウスワン,0
1182,5010003045078,新規,0,2024-10-08,2024-10-08,良宝合同会社,,合同会社,東京都,中央区,晴海２丁目２番４２－４６１３号,,13,102,1040053,,,,,,,2024-10-08,1,,,,,リョウホウ,0
1183,5010003045144,新規,0,2024-10-08,2024-10-08,ＧＦＣ　Ｈｏｌｄｉｎｇ合同会社,,合同会社,東京都,千代田区,大手町２丁目６番４号,,13,101,1000004,,,,,,,2024-10-08,1,,,,,ジーエフシーホールディング,0
1184,5010003045152,新規,0,2024-10-08,2024-10-08,合同会社オリーブケア,,合同会社,東京都,文京区,千石３丁目３７－４,,13,105,1120011,,,,,,,2024-10-08,1,,,,,オリーブケア,0
1185,5010003045160,新規,0,2024-10-08,2024-10-08,アシスト合同会社,,合同会社,東京都,千代田区,外神田３丁目６番４号,,13,101,1010021,,,,,,,2024-10-08,1,,,,,アシスト,0
1190,5010401185517,新規,0,2024-10-08,2024-10-08,株式会社ＫＮ,,株式会社,東京都,港区,元赤坂１丁目２－７赤坂Ｋタワー４階,,13,103,1070051,,,,,,,2024-10-08,1,,,,,ケーエヌ,0
1191,5010401185533,新規,0,2024-10-08,2024-10-08,株式会社グルーレンス,,株式会社,東京都,港区,南青山３丁目１番３６号青山丸竹ビル６Ｆ,,13,103,1070062,,,,,,,2024-10-08,1,,,,,グルーレンス,0
1195,5010601066038,新規,0,2024-10-08,2024-10-08,森久株式会社,,株式会社,東京都,墨田区,立花５丁目５０番２８－５０９号,,13,107,1310043,,,,,,,2024-10-08,1,,,,,モリナガ,0
1196,5010603011132,新規,0,2024-10-08,2024-10-08,Ｙ’ｓ企画合同会社,,合同会社,東京都,江東区,豊洲５丁目１番１３－３２２７号,,13,108,1350061,,,,,,,2024-10-08,1,,,,,ワイズキカク,0
1197,5010701046617,新規,0,2024-10-08,2024-10-08,株式会社学研Ｌｉｎｋ,,株式会社,東京都,品川区,西五反田２丁目１１番８号,,13,109,1410031,,,,,,,2024-10-08,1,,,,,ガッケンリンク,0
1198,5010703007377,新規,0,2024-10-08,2024-10-08,合同会社スキルマネジメント,,合同会社,東京都,品川区,小山台１丁目３０番３－２０５号,,13,109,1420061,,,,,,,2024-10-08,1,,,,,スキルマネジメント,0
1202,5010901056077,新規,0,2024-10-08,2024-10-08,株式会社旦,,株式会社,東京都,世田谷区,成城３丁目４番３－３０１号,,13,112,1570066,,,,,,,2024-10-08,1,,,,,アケガタ,0
1206,5011101108957,新規,0,2024-10-08,2024-10-08,株式会社Ｏ　Ｏ　ＰＡＲＴＳ,,株式会社,東京都,新宿区,新宿６丁目２７番４５号６階,,13,104,1600022,,,,,,,2024-10-08,1,,,,,オーパーツ,0
1207,5011101108998,新規,0,2024-10-08,2024-10-08,株式会社ＭｕｓｉＬｉｆｅ,,株式会社,東京都,新宿区,高田馬場１丁目２８番７号,,13,104,1690075,,,,,,,2024-10-08,1,,,,,ミュジライフ,0
1208,5011101109006,新規,0,2024-10-08,2024-10-08,ディレクターズ株式会社,,株式会社,東京都,新宿区,新宿２丁目１２番１３号新宿アントレサロンビル２階,,13,104,1600022,,,,,,,2024-10-08,1,,,,,ディレクターズ,0
1209,5011101109022,新規,0,2024-10-08,2024-10-08,株式会社生殖医療,,株式会社,東京都,新宿区,新宿１丁目３６番２号新宿第七葉山ビル６階,,13,104,1600022,,,,,,,2024-10-08,1,,,,,セイショクイリョウ,0
1222,5011601028102,新規,0,2024-10-08,2024-10-08,産地ストーリーズ株式会社,,株式会社,東京都,練馬区,練馬１丁目２０番８号日建練馬ビル２Ｆ,,13,120,1760001,,,,,,,2024-10-08,1,,,,,サンチストーリーズ,0
1224,5011701027689,新規,0,2024-10-08,2024-10-08,株式会社ＳＡＬＥＳ　ＰＡＲＴＮＥＲＳ,,株式会社,東京都,江戸川区,松江７丁目２７－１６,,13,123,1320025,,,,,,,2024-10-08,1,,,,,セールスパートナーズ,0
1225,5011701027697,新規,0,2024-10-08,2024-10-08,Ａ　ＰＯＷＥＲ株式会社,,株式会社,東京都,江戸川区,瑞江２丁目５番３号２Ｆ－０６,,13,123,1320011,,,,,,,2024-10-08,1,,,,,エーパワー,0
1226,5011801044948,新規,0,2024-10-08,2024-10-08,株式会社ジャネイチ,,株式会社,東京都,葛飾区,東新小岩２丁目１２番３－１００３号,,13,122,1240023,,,,,,,2024-10-08,1,,,,,ジャネイチ,0
1227,5011801044956,新規,0,2024-10-08,2024-10-08,澪梛建築株式会社,,株式会社,東京都,足立区,佐野１丁目３番１２号,,13,121,1210053,,,,,,,2024-10-08,1,,,,,ミオナケンチク,0
1233,5012705002430,新規,0,2024-10-08,2024-10-08,特定非営利活動法人生物アレルゲン研究センター,,その他の設立登記法人,東京都,小平市,上水本町２丁目１４番６号,,13,211,1870022,,,,,,,2024-10-08,1,,,,,セイブツアレルゲンケンキュウセンター,0
1234,5012801023479,新規,0,2024-10-08,2024-10-08,株式会社Ｂａｎ　Ｄｅｓｉｇｎ　Ｓｔｕｄｉｏ,,株式会社,東京都,国立市,富士見台１丁目１２‐７佐藤ビル,,13,215,1860003,,,,,,,2024-10-08,1,,,,,バンデザインスタジオ,0
1237,5013301053165,新規,0,2024-10-08,2024-10-08,和信未来株式会社,,株式会社,東京都,豊島区,東池袋４丁目３８番７号,,13,116,1700013,,,,,,,2024-10-08,1,,,,,ワシンミライ,0
1240,5020001159390,新規,0,2024-10-08,2024-10-08,ｍａｍｅｃｏ株式会社,,株式会社,神奈川県,横浜市緑区,長津田みなみ台１丁目６番地１２,,14,113,2260018,,,,,,,2024-10-08,1,,,,,マメコ,0
1241,5020001159408,新規,0,2024-10-08,2024-10-08,カリーヌ株式会社,,株式会社,神奈川県,横浜市西区,北幸２丁目１０－２８むつみビル３Ｆ,,14,103,2200004,,,,,,,2024-10-08,1,,,,,カリーヌ,0
1244,5020003026993,新規,0,2024-10-08,2024-10-08,合同会社望自動車,,合同会社,神奈川県,横浜市神奈川区,松ケ丘８２－１７,,14,102,2210843,,,,,,,2024-10-08,1,,,,,ノゾミジドウシャ,0
1245,5020003027026,新規,0,2024-10-08,2024-10-08,合同会社リモートセンシング研究所,,合同会社,神奈川県,川崎市宮前区,犬蔵１丁目２８番６号,,14,136,2160011,,,,,,,2024-10-08,1,,,,,リモートセンシングケンキュウショ,0
1249,5021003015078,新規,0,2024-10-08,2024-10-08,合同会社ヒューマンインテリジェンス総合研究所,,合同会社,神奈川県,逗子市,久木３丁目１２番２２号,,14,208,2490001,,,,,,,2024-10-08,1,,,,,ヒューマンインテリジェンスソウゴウケンキュウショ,0
1254,5030001162708,新規,0,2024-10-08,2024-10-08,株式会社ｓｉｍｕｎｉｉ,,株式会社,埼玉県,戸田市,大字上戸田２１番地２戸田スカイハイツ１０１号室,,11,224,3350022,,,,,,,2024-10-08,1,,,,,シムニー,0
1255,5030001162732,新規,0,2024-10-08,2024-10-08,株式会社Ｍｅｄｉｃａｌ　Ｌｉｎｅ,,株式会社,埼玉県,さいたま市緑区,大字大門２９３１番地１６,,11,109,3360963,,,,,,,2024-10-08,1,,,,,メディカルライン,0
1256,5030001162749,新規,0,2024-10-08,2024-10-08,株式会社はなまるガレージ,,株式会社,埼玉県,東松山市,箭弓町１丁目１８番１３号,,11,212,3550028,,,,,,,2024-10-08,1,,,,,ハナマルガレージ,0
1257,5030001162757,新規,0,2024-10-08,2024-10-08,株式会社ＥＰＡ,,株式会社,埼玉県,さいたま市大宮区,桜木町１丁目１９５－１大宮ソラミチＫＯＺ４階,,11,103,3300854,,,,,,,2024-10-08,1,,,,,イーピーエー,0
1258,5030001162773,新規,0,2024-10-08,2024-10-08,株式会社トマト,,株式会社,埼玉県,さいたま市大宮区,桜木町２丁目３番地大宮マルイ７階,,11,103,3300854,,,,,,,2024-10-08,1,,,,,トマト,0
1259,5030001162781,新規,0,2024-10-08,2024-10-08,株式会社ＤＣＦ　ＩＮＡ,,株式会社,埼玉県,北足立郡伊奈町,中央１丁目２７０番地,,11,301,3620809,,,,,,,2024-10-08,1,,,,,ディーシーエフイナ,0
1260,5030001162815,新規,0,2024-10-08,2024-10-08,株式会社シャイニングワン,,株式会社,埼玉県,和光市,本町２７番２１号,,11,229,3510114,,,,,,,2024-10-08,1,,,,,シャイニングワン,0
1261,5030001162856,新規,0,2024-10-08,2024-10-08,Ｉｎｔｅｒ　Ｗｉｌｌ株式会社,,株式会社,埼玉県,富士見市,水谷東２丁目２３番３号,,11,235,3540013,,,,,,,2024-10-08,1,,,,,インターウィル,0
1264,5030003025227,新規,0,2024-10-08,2024-10-08,合同会社ＵＮＡＵＩＮ,,合同会社,埼玉県,川口市,芝４丁目４番３号ハイツ咲２－Ａ,,11,203,3330866,,,,,,,2024-10-08,1,,,,,アンオーイン,0
1265,5030003025268,新規,0,2024-10-08,2024-10-08,ＹＳＭ合同会社,,合同会社,埼玉県,蓮田市,大字黒浜１０６３番地１,,11,238,3490101,,,,,,,2024-10-08,1,,,,,ワイエスエム,0
1267,5040001135605,新規,0,2024-10-08,2024-10-08,株式会社ダイワ,,株式会社,千葉県,流山市,西初石４丁目３７０番地の９２,,12,220,2700121,,,,,,,2024-10-08,1,,,,,ダイワ,0
1268,5040001135745,新規,0,2024-10-08,2024-10-08,株式会社グッドキャリッジ,,株式会社,千葉県,市川市,妙典５丁目１３番３３号Ａ＆Ｙビル３Ｆ,,12,203,2720111,,,,,,,2024-10-08,1,,,,,グッドキャリッジ,0
1269,5040003025795,新規,0,2024-10-08,2024-10-08,ＮＨＡＴ　ＡＮ合同会社,,合同会社,千葉県,旭市,ロの３７６番地８－１階,,12,215,2892516,,,,,,,2024-10-08,1,,,,,ニャットアン,0
1270,5040005022527,新規,0,2024-10-08,2024-10-08,医療法人社団咲笑会,,その他の設立登記法人,千葉県,東金市,八坂台３丁目１番地７,,12,213,2830801,,,,,,,2024-10-08,1,,,,,サクラカイ,0
1276,5060003005275,新規,0,2024-10-08,2024-10-08,Ｔｏｋｙｏ　Ｌｅｇａｌ　ａｄｖｉｓｏｒｙ　ｓｅｒｖｉｃｅ合同会社,,合同会社,栃木県,小山市,城東４丁目９番１３号アンビション城東２０１号室,,09,208,3230807,,,,,,,2024-10-08,1,,,,,トーキョーリーガルアドバイザリーサービス,0
1281,5080001026528,新規,0,2024-10-08,2024-10-08,株式会社おひさまエステート,,株式会社,静岡県,静岡市駿河区,泉町４番３８号,,22,102,4228066,,,,,,,2024-10-08,1,,,,,オヒサマエステート,0
1282,5080003003302,新規,0,2024-10-08,2024-10-08,テイクス合同会社,,合同会社,静岡県,島田市,島５０８番地の１,,22,209,4280007,,,,,,,2024-10-08,1,,,,,テイクス,0
1287,5080401027497,新規,0,2024-10-08,2024-10-08,すみよし第２企画開発株式会社,,株式会社,静岡県,浜松市中央区,住吉１丁目１７番１６号,,22,138,4300906,,,,,,,2024-10-08,1,,,,,スミヨシダイニキカクカイハツ,0
1288,5080405007677,新規,0,2024-10-08,2024-10-08,医療法人社団研鑽会,,その他の設立登記法人,静岡県,磐田市,上岡田７７６番地７Ａ,,22,211,4380045,,,,,,,2024-10-08,1,,,,,ケンサンカイ,0
1290,5100001037893,新規,0,2024-10-08,2024-10-08,ＭＩＭＩＭＯＭＯ株式会社,,株式会社,長野県,北安曇郡白馬村,大字神城２７７２１－３３６,,20,485,3999211,,,,,,,2024-10-08,1,,,,,ミミモモ,0
1291,5100001037910,新規,0,2024-10-08,2024-10-08,Ｈ・Ａ・Ｔ工業株式会社,,株式会社,長野県,諏訪郡下諏訪町,社９８番地１０,,20,361,3930000,,,,,,,2024-10-08,1,,,,,エイチエーティーコウギョウ,0
1292,5100001037919,新規,0,2024-10-08,2024-10-08,株式会社やまなみ,,株式会社,長野県,長野市,神明１,,20,201,3888020,,,,,,,2024-10-08,1,,,,,ヤマナミ,0
1293,5100005013230,新規,0,2024-10-08,2024-10-08,アスター税理士法人,,その他の設立登記法人,長野県,長野市,吉田２丁目７番２１号,,20,201,3810043,,,,,,,2024-10-08,1,,,,,アスター,0
1305,5120001269106,新規,0,2024-10-08,2024-10-08,株式会社国際グリーン,,株式会社,大阪府,大阪市生野区,新今里３丁目２０番８号,,27,116,5440001,,,,,,,2024-10-08,1,,,,,コクサイグリーン,0
1306,5120001269114,新規,0,2024-10-08,2024-10-08,エウゼーングループ株式会社,,株式会社,大阪府,大阪市浪速区,元町１丁目１１番８号ＳＡＫＩＭＯＴＯ．ＢＬＤＧ５０１号室,,27,111,5560016,,,,,,,2024-10-08,1,,,,,エウゼーングループ,0
1307,5120001269130,新規,0,2024-10-08,2024-10-08,株式会社ブリッジ,,株式会社,大阪府,大阪市住吉区,長居西２丁目１０番４３号,,27,120,5580002,,,,,,,2024-10-08,1,,,,,ブリッジ,0
1308,5120001269171,新規,0,2024-10-08,2024-10-08,鈴木企画株式会社,,株式会社,大阪府,大阪市中央区,道修町３丁目２番５号,,27,128,5410045,,,,,,,2024-10-08,1,,,,,スズキキカク,0
1309,5120001269213,新規,0,2024-10-08,2024-10-08,ＮｅｘＥｒａ　ＬｕｍｉｎａＥｄｇｅ　Ｓｏｌｕｔｉｏｎｓ株式会社,,株式会社,大阪府,大阪市中央区,北久宝寺町２丁目２番１３－５０１号,,27,128,5410057,,,,,,,2024-10-08,1,,,,,ネクスエラルミナエッジソリューション,0
1321,5120901049870,新規,0,2024-10-08,2024-10-08,株式会社理廣商事,,株式会社,大阪府,豊中市,浜１丁目２３番２７の２号,,27,203,5610817,,,,,,,2024-10-08,1,,,,,リコウショウジ,0
1322,5120903005368,新規,0,2024-10-08,2024-10-08,合同会社ゴルドー,,合同会社,大阪府,豊中市,服部西町３丁目１１－３３,,27,203,5610858,,,,,,,2024-10-08,1,,,,,ゴルドー,0
1334,5130001078076,新規,0,2024-10-08,2024-10-08,株式会社ｉｉ‐ｍａ,,株式会社,京都府,京都市下京区,立売西町６６番地京都証券ビル４０５,,26,106,6008007,,,,,,,2024-10-08,1,,,,,アイアイエムエー,0
1335,5130003009913,新規,0,2024-10-08,2024-10-08,合同会社猩猩,,合同会社,京都府,京都市左京区,浄土寺真如町１６２番地６真如堂アビタシオン,,26,103,6068414,,,,,,,2024-10-08,1,,,,,ショウジョウ,0
1336,5130005017204,新規,0,2024-10-08,2024-10-08,医療法人誠祥会,,その他の設立登記法人,京都府,京都市東山区,本町１丁目５２番地,,26,105,6050981,,,,,,,2024-10-08,1,,,,,セイショウカイ,0
1350,5160003003302,新規,0,2024-10-08,2024-10-08,合同会社ワラエルカ,,合同会社,滋賀県,草津市,野路東５丁目３番５号,,25,206,5250058,,,,,,,2024-10-08,1,,,,,ワラエルカ,0
1352,5160005011352,新規,0,2024-10-08,2024-10-08,医療法人宗喜会,,その他の設立登記法人,滋賀県,大津市,におの浜３丁目５番１３号クリニックステーション大津におの浜２階,,25,201,5200801,,,,,,,2024-10-08,1,,,,,シュウキカイ,0
1353,5180001163526,新規,0,2024-10-08,2024-10-08,株式会社ＨＯＮＥＳＴ　ｋ,,株式会社,愛知県,大府市,横根町羽根山２４２番地サープラスＫ１０６号,,23,223,4740011,,,,,,,2024-10-08,1,,,,,オネストケー,0
1354,5180001163550,新規,0,2024-10-08,2024-10-08,株式会社スクアス,,株式会社,愛知県,春日井市,東野町２丁目９番地９,,23,206,4860817,,,,,,,2024-10-08,1,,,,,スクアス,0
1356,5180005020797,新規,0,2024-10-08,2024-10-08,一般社団法人いけばな心月,,その他の設立登記法人,愛知県,日進市,浅田町上納１番地２４,,23,230,4700124,,,,,,,2024-10-08,1,,,,,イケバナシンゲツ,0
1362,5190001031707,新規,0,2024-10-08,2024-10-08,ＫＯＳＡ株式会社,,株式会社,三重県,四日市市,西新地５番２号１階,,24,202,5100087,,,,,,,2024-10-08,1,,,,,コサ,0
1365,5200001043015,新規,0,2024-10-08,2024-10-08,株式会社シーデンシー,,株式会社,岐阜県,土岐市,泉仲森町２丁目１番地,,21,212,5095106,,,,,,,2024-10-08,1,,,,,シーデンシー,0
1370,5220003003849,新規,0,2024-10-08,2024-10-08,合同会社日章リース,,合同会社,石川県,能美郡川北町,字田子島い７番地,,17,324,9231271,,,,,,,2024-10-08,1,,,,,ニッショウリース,0
1373,5230003002313,新規,0,2024-10-08,2024-10-08,合同会社ＢＩＧ　ＷＯＲＤＳ,,合同会社,富山県,富山市,向新庄１２９０‐１８,,16,201,9300916,,,,,,,2024-10-08,1,,,,,ビッグワーズ,0
1378,5240001063884,新規,0,2024-10-08,2024-10-08,株式会社ドローン・サービス,,株式会社,広島県,世羅郡世羅町,大字西上原１８９０番地,,34,462,7221121,,,,,,,2024-10-08,1,,,,,ドローンサービス,0
1379,5240003006890,新規,0,2024-10-08,2024-10-08,合同会社リベルタ,,合同会社,広島県,廿日市市,大野１６４１番地７,,34,213,7390488,,,,,,,2024-10-08,1,,,,,リベルタ,0
1384,5280001009272,新規,0,2024-10-08,2024-10-08,株式会社ペイントコート,,株式会社,島根県,松江市,学園２丁目１８番１５号,,32,201,6900825,,,,,,,2024-10-08,1,,,,,,0
1386,5290001107505,新規,0,2024-10-08,2024-10-08,株式会社メイクハッピー,,株式会社,福岡県,福岡市中央区,六本松４丁目４番８－９０２号,,40,133,8100044,,,,,,,2024-10-08,1,,,,,メイクハッピー,0
1387,5290003015920,新規,0,2024-10-08,2024-10-08,合同会社ＴＡＢＩＬＵＶＡ,,合同会社,福岡県,福岡市早良区,城西２丁目５―２３―１０３,,40,137,8140003,,,,,,,2024-10-08,1,,,,,タビルバ,0
1390,5290805009772,新規,0,2024-10-08,2024-10-08,一般社団法人オーエヌトラスト,,その他の設立登記法人,福岡県,北九州市小倉北区,西港町１２番地１,,40,106,8030801,,,,,,,2024-10-08,1,,,,,オーエヌトラスト,0
1392,5300001013924,新規,0,2024-10-08,2024-10-08,株式会社ライフアクセス,,株式会社,佐賀県,杵島郡江北町,大字下小田９８５番地２,,41,424,8490505,,,,,,,2024-10-08,1,,,,,ライフアクセス,0
1393,5310001019251,新規,0,2024-10-08,2024-10-08,彩り内装株式会社,,株式会社,長崎県,佐世保市,上原町３７７番地,,42,202,8593202,,,,,,,2024-10-08,1,,,,,イロドリナイソウ,0
1396,5330001032525,新規,0,2024-10-08,2024-10-08,魚三八株式会社,,株式会社,熊本県,熊本市南区,川口町９０５番地１,,43,104,8614123,,,,,,,2024-10-08,1,,,,,サカナサンパチ,0
1397,5330003010586,新規,0,2024-10-08,2024-10-08,合同会社ショウ,,合同会社,熊本県,熊本市中央区,本荘４丁目９番１１号１０８,,43,101,8600811,,,,,,,2024-10-08,1,,,,,ショウ,0
1402,5340003004620,新規,0,2024-10-08,2024-10-08,合同会社ＨＫＢパートナーズ,,合同会社,鹿児島県,霧島市,国分野口東５番１８号セジュール野口２０５,,46,218,8994341,,,,,,,2024-10-08,1,,,,,エイチケイビイパートナーズ,0
1404,5350001019215,新規,0,2024-10-08,2024-10-08,株式会社ＣＲＥＡＴＥ,,株式会社,宮崎県,延岡市,大貫町６丁目１８６０番地２,,45,203,8820803,,,,,,,2024-10-08,1,,,,,クリエイト,0
1412,5360005007108,新規,0,2024-10-08,2024-10-08,医療法人かえで,,その他の設立登記法人,沖縄県,中頭郡西原町,字小那覇２６６番１メディカルプラザにしはらハート４Ｆ,,47,329,9030103,,,,,,,2024-10-08,1,,,,,カエデ,0
1417,5370001051777,新規,0,2024-10-08,2024-10-08,株式会社大塚,,株式会社,宮城県,岩沼市,玉浦西３丁目７番地の９,,04,211,9892428,,,,,,,2024-10-08,1,,,,,オオツカ,0
1418,5370001051785,新規,0,2024-10-08,2024-10-08,株式会社陸翔,,株式会社,宮城県,仙台市泉区,南中山２丁目３３番地の９セジュールＩ－２０２,00136567,04,105,9813213,,,,,,,2024-10-08,1,,,,,リクト,0
1425,5420001018886,新規,0,2024-10-08,2024-10-08,株式会社幸運丸水産,,株式会社,青森県,八戸市,大字鮫町字石仏沢５７番地３,,02,203,0310841,,,,,,,2024-10-08,1,,,,,コウウンマルスイサン,0
1438,5450005004426,新規,0,2024-10-08,2024-10-08,一般社団法人上川ランプワークス,,その他の設立登記法人,北海道,上川郡上川町,新町１２０番地,,01,457,0781762,,,,,,,2024-10-08,1,,,,,カミカワランプワークス,0
1440,5470003002727,新規,0,2024-10-08,2024-10-08,合同会社勇者,,合同会社,香川県,高松市,朝日新町１４番１５号,,37,201,7600064,,,,,,,2024-10-08,1,,,,,ユウシャ,0
1441,5470005006585,新規,0,2024-10-08,2024-10-08,税理士法人ＡＣＥ,,その他の設立登記法人,香川県,高松市,木太町５０５０番地１７,,37,201,7600080,,,,,,,2024-10-08,1,,,,,エース,0
1443,5500001025924,新規,0,2024-10-08,2024-10-08,株式会社和來,,株式会社,愛媛県,四国中央市,中之庄町７６３番７,,38,213,7990422,,,,,,,2024-10-08,1,,,,,ワク,0
1454,6010001248747,新規,0,2024-10-08,2024-10-08,株式会社トドロカセ,,株式会社,東京都,千代田区,神田駿河台２丁目１１番地７,,13,101,1010062,,,,,,,2024-10-08,1,,,,,トドロカセ,0
1455,6010001248870,新規,0,2024-10-08,2024-10-08,ＡＭＴドネーション株式会社,,株式会社,東京都,文京区,白山２丁目２３番７号,,13,105,1120001,,,,,,,2024-10-08,1,,,,,エーエムティードネーション,0
1456,6010001248879,新規,0,2024-10-08,2024-10-08,ＣＡＬＭＥ株式会社,,株式会社,東京都,中央区,銀座８丁目１８番１６号銀座Ｊ８ビル１０Ｆ,,13,102,1040061,,,,,,,2024-10-08,1,,,,,カルム,0
1457,6010001248895,新規,0,2024-10-08,2024-10-08,ＧＦＣ　Ｊａｐａｎ株式会社,,株式会社,東京都,千代田区,大手町２丁目６番４号,,13,101,1000004,,,,,,,2024-10-08,1,,,,,ジーエフシージャパン,0
1458,6010001248920,新規,0,2024-10-08,2024-10-08,株式会社鈴家,,株式会社,東京都,中央区,銀座１丁目１２－４Ｎ＆ＥＢＬＤ．６Ｆ,,13,102,1040061,,,,,,,2024-10-08,1,,,,,スズヤ,0
1462,6010005038913,新規,0,2024-10-08,2024-10-08,一般社団法人日本健康経営専門医機構,,その他の設立登記法人,東京都,中央区,日本橋本町２丁目３－１１日本橋ライフサイエンスビルディング,,13,102,1030023,,,,,,,2024-10-08,1,,,,,ニホンケンコウケイエイセンモンイキコウ,0
1472,6010405023589,新規,0,2024-10-08,2024-10-08,ＳＭＡＳＨ国際監査法人,,その他の設立登記法人,東京都,港区,高輪３丁目２３番１７号品川センタービルディング８０９号室,,13,103,1080074,,,,,,,2024-10-08,1,,,,,スマッシュコクサイ,0
1481,6010601066037,新規,0,2024-10-08,2024-10-08,株式会社ＭｅｄｉＡｒｔｓ,,株式会社,東京都,江東区,東雲１丁目９番１７－９１５号,,13,108,1350062,,,,,,,2024-10-08,1,,,,,メディアーツ,0
1483,6010701046632,新規,0,2024-10-08,2024-10-08,株式会社ｍｕｆａｓａ,,株式会社,東京都,品川区,大崎３丁目１番５号ルミネ五反田第２・２０２号室,,13,109,1410032,,,,,,,2024-10-08,1,,,,,ムファサ,0
1485,6010703007368,新規,0,2024-10-08,2024-10-08,ユーツー合同会社,,合同会社,東京都,品川区,大井５丁目１２－１－７０６,,13,109,1400014,,,,,,,2024-10-08,1,,,,,ユーツー,0
1487,6010801035452,新規,0,2024-10-08,2024-10-08,株式会社ＵＬＵＬＵ,,株式会社,東京都,大田区,新蒲田３丁目２８番８号,,13,111,1440054,,,,,,,2024-10-08,1,,,,,ウルル,0
1494,6011001165098,新規,0,2024-10-08,2024-10-08,株式会社もなか,,株式会社,東京都,渋谷区,代々木３丁目１３番１号,,13,113,1510053,,,,,,,2024-10-08,1,,,,,モナカ,0
1497,6011101108980,新規,0,2024-10-08,2024-10-08,株式会社Ｓａｋｕｔｔｏ,,株式会社,東京都,新宿区,新宿１丁目３６－２新宿第七葉山ビル３Ｆ,,13,104,1600022,,,,,,,2024-10-08,1,,,,,サクット,0
1498,6011101109005,新規,0,2024-10-08,2024-10-08,寿ホールディングス株式会社,,株式会社,東京都,新宿区,新宿１丁目８番１号大橋御苑駅ビル,,13,104,1600022,,,,,,,2024-10-08,1,,,,,コトブキホールディングス,0
1500,6011103015011,新規,0,2024-10-08,2024-10-08,合同会社ＯＭＡＧＥ　ＪＡＰＡＮ,,合同会社,東京都,新宿区,西新宿３丁目３番１３号西新宿水間ビル２Ｆ,,13,104,1600023,,,,,,,2024-10-08,1,,,,,オマージュジャパン,0
1501,6011105011181,新規,0,2024-10-08,2024-10-08,一般社団法人日本視機能看護学会,,その他の設立登記法人,東京都,新宿区,市谷田町３丁目８番１号,,13,104,1620843,,,,,,,2024-10-08,1,,,,,ニホンシキノウカンゴガッカイ,0
1504,6011401026478,新規,0,2024-10-08,2024-10-08,株式会社ＭＡＫＩＯ,,株式会社,東京都,板橋区,小茂根３丁目１２番４号,,13,119,1730037,,,,,,,2024-10-08,1,,,,,マキオ,0
1505,6011403004523,新規,0,2024-10-08,2024-10-08,合同会社社ＡｐＲｉｃｏＴ,,合同会社,東京都,板橋区,中板橋２７番１６号俵木店舗２階,,13,119,1730016,,,,,,,2024-10-08,1,,,,,アプリコット,0
1510,6011601028101,新規,0,2024-10-08,2024-10-08,株式会社テトラセーリング,,株式会社,東京都,練馬区,旭町１丁目３１番３号,,13,120,1790071,,,,,,,2024-10-08,1,,,,,テトラセーリング,0
1512,6011603004471,新規,0,2024-10-08,2024-10-08,合同会社事務さとう,,合同会社,東京都,練馬区,田柄４丁目４６番１８号,,13,120,1790073,,,,,,,2024-10-08,1,,,,,ジムサトウ,0
1513,6011701027696,新規,0,2024-10-08,2024-10-08,株式会社ＢＬＥＳＴ,,株式会社,東京都,江戸川区,江戸川６丁目３１－４０,,13,123,1340013,,,,,,,2024-10-08,1,,,,,ブレスト,0
1515,6011703003984,新規,0,2024-10-08,2024-10-08,Ｋ　ＮＥＸＴ合同会社,,合同会社,東京都,江戸川区,北葛西５丁目１７番１－１００３号,,13,123,1340081,,,,,,,2024-10-08,1,,,,,ケーネクスト,0
1519,6011801044947,新規,0,2024-10-08,2024-10-08,株式会社タイプエム,,株式会社,東京都,足立区,六月２丁目７番８号,,13,121,1210814,,,,,,,2024-10-08,1,,,,,タイプエム,0
1520,6011801044955,新規,0,2024-10-08,2024-10-08,株式会社Ｄ‐Ｆｅｌｉｃｅ,,株式会社,東京都,葛飾区,東金町１丁目３－１にのみやビル２階,,13,122,1250041,,,,,,,2024-10-08,1,,,,,ディーフェリーチェ,0
1521,6011803006490,新規,0,2024-10-08,2024-10-08,アマユコット合同会社,,合同会社,東京都,葛飾区,東金町１丁目４５番１２号ＡＳビル０１号室,,13,122,1250041,,,,,,,2024-10-08,1,,,,,アマユコット,0
1522,6012701018479,新規,0,2024-10-08,2024-10-08,株式会社ＯＫＧ,,株式会社,東京都,西東京市,芝久保町５丁目１０番１７号,,13,229,1880014,,,,,,,2024-10-08,1,,,,,オーケージー,0
1526,6012801023494,新規,0,2024-10-08,2024-10-08,株式会社日本食品遺伝科学,,株式会社,東京都,国分寺市,西元町２丁目１６番１８号,,13,214,1850023,,,,,,,2024-10-08,1,,,,,ニホンショクヒンイデンカガク,0
1534,6020001159415,新規,0,2024-10-08,2024-10-08,株式会社エコ大伸,,株式会社,神奈川県,横浜市南区,大橋町１丁目１０番地,,14,105,2320054,,,,,,,2024-10-08,1,,,,,エコダイシン,0
1535,6020001159431,新規,0,2024-10-08,2024-10-08,Ｂｒｏｔｔ　Ｊａｐａｎ＆Ｍａｒｋｅｔｉｎｇ株式会社,,株式会社,神奈川県,川崎市幸区,新塚越１番地２サウザンドシティ１－３００４,,14,132,2120027,,,,,,,2024-10-08,1,,,,,ブロットジャパンアンドマーケティング,0
1540,6021001083431,新規,0,2024-10-08,2024-10-08,株式会社さざな三浦,,株式会社,神奈川県,三浦市,南下浦町上宮田６３３番地,,14,210,2380101,,,,,,,2024-10-08,1,,,,,サザナミウラ,0
1546,6030001162657,新規,0,2024-10-08,2024-10-08,微芯源実業株式会社,,株式会社,埼玉県,所沢市,小手指元町１丁目６番３５号,,11,208,3591147,,,,,,,2024-10-08,1,,,,,ビシンゲンジツギョウ,0
1547,6030001162731,新規,0,2024-10-08,2024-10-08,株式会社空家・住まい問題研究所,,株式会社,埼玉県,越谷市,東越谷１丁目５－９,,11,222,3430023,,,,,,,2024-10-08,1,,,,,アキヤスマイモンダイケンキュウジョ,0
1548,6030001162748,新規,0,2024-10-08,2024-10-08,ＲＥＡ株式会社,,株式会社,埼玉県,行田市,大字埼玉１３５８,,11,206,3610025,,,,,,,2024-10-08,1,,,,,アールイーエー,0
1549,6030001162756,新規,0,2024-10-08,2024-10-08,株式会社スリーアップ,,株式会社,埼玉県,大里郡寄居町,大字富田２９１０番地４６,,11,408,3691216,,,,,,,2024-10-08,1,,,,,スリーアップ,0
1550,6030001162772,新規,0,2024-10-08,2024-10-08,株式会社アズテックサポート,,株式会社,埼玉県,川口市,大字西立野１０７６番地の２,,11,203,3330813,,,,,,,2024-10-08,1,,,,,アズテックサポート,0
1551,6030001162806,新規,0,2024-10-08,2024-10-08,株式会社Ｉｎｏｃｅｎｃｉａ,,株式会社,埼玉県,蕨市,南町４丁目５番２号エスポワールわらび弐番館２０２号,,11,223,3350003,,,,,,,2024-10-08,1,,,,,イノセンシア,0
1552,6030001162814,新規,0,2024-10-08,2024-10-08,株式会社ＪＳＤ,,株式会社,埼玉県,草加市,高砂２丁目１７番１２号カルム草加参番館１１０４号,,11,221,3400015,,,,,,,2024-10-08,1,,,,,ジェイエスディー,0
1553,6030001162822,新規,0,2024-10-08,2024-10-08,株式会社エンパワメント,,株式会社,埼玉県,川越市,神明町１６番地１,,11,201,3500823,,,,,,,2024-10-08,1,,,,,エンパワメント,0
1554,6030001162830,新規,0,2024-10-08,2024-10-08,株式会社Ｎ．Ａ．Ｋ,,株式会社,埼玉県,朝霞市,幸町２丁目１８番５１号,,11,227,3510015,,,,,,,2024-10-08,1,,,,,エヌエーケー,0
1555,6030001162863,新規,0,2024-10-08,2024-10-08,株式会社田本,,株式会社,埼玉県,越谷市,東越谷７丁目５１－７メゾントロワ３０２,,11,222,3430023,,,,,,,2024-10-08,1,,,,,タモト,0
1559,6030003025250,新規,0,2024-10-08,2024-10-08,住建設備合同会社,,合同会社,埼玉県,川口市,幸町２丁目１３番１２号リブリ・プレシア１０５号,,11,203,3320016,,,,,,,2024-10-08,1,,,,,ジュウケンセツビ,0
1564,6040001135728,新規,0,2024-10-08,2024-10-08,株式会社ブライト,,株式会社,千葉県,佐倉市,新臼井田２８番１７号,,12,212,2850862,,,,,,,2024-10-08,1,,,,,ブライト,0
1566,6040003025927,新規,0,2024-10-08,2024-10-08,合同会社クウカンソウサ,,合同会社,千葉県,柏市,桜台１５番１８－５０８号,,12,217,2770012,,,,,,,2024-10-08,1,,,,,クウカンソウサ,0
1583,6080001026535,新規,0,2024-10-08,2024-10-08,ＦＡＣ株式会社,,株式会社,静岡県,静岡市清水区,鳥坂５８２,,22,103,4240067,,,,,,,2024-10-08,1,,,,,,0
1584,6080003003301,新規,0,2024-10-08,2024-10-08,合同会社ネオストーム,,合同会社,静岡県,静岡市葵区,瀬名２丁目２７番３８号コーラルシェル３０２号,,22,101,4200911,,,,,,,2024-10-08,1,,,,,ネオストーム,0
1585,6080005007647,新規,0,2024-10-08,2024-10-08,医療法人社団陽咲の会,,その他の設立登記法人,静岡県,藤枝市,瀬戸新屋２４４番地の１０,,22,214,4260075,,,,,,,2024-10-08,1,,,,,ヒサキノカイ,0
1590,6080405007676,新規,0,2024-10-08,2024-10-08,医療法人社団ＧＥＮＥＲＡＬ,,その他の設立登記法人,静岡県,袋井市,浅羽１６００番地の１,,22,216,4371101,,,,,,,2024-10-08,1,,,,,ジェネラル,0
1596,6110001038741,新規,0,2024-10-08,2024-10-08,株式会社河善,,株式会社,新潟県,新潟市中央区,愛宕１丁目４番地１２,,15,103,9500944,,,,,,,2024-10-08,1,,,,,カワゼン,0
1606,6120001269014,新規,0,2024-10-08,2024-10-08,Ｍ＆Ｙ国際貿易株式会社,,株式会社,大阪府,大阪市天王寺区,烏ケ辻１丁目３番１５号リーガル天王寺烏ケ辻５０５号,,27,109,5430042,,,,,,,2024-10-08,1,,,,,エムアンドワイコクサイボウエキ,0
1607,6120001269121,新規,0,2024-10-08,2024-10-08,株式会社近畿陸送,,株式会社,大阪府,大阪市住之江区,新北島３丁目１番３１号,,27,125,5590024,,,,,,,2024-10-08,1,,,,,キンキリクソウ,0
1608,6120001269146,新規,0,2024-10-08,2024-10-08,株式会社Ｅｓｐｅｒａｎｚａ,,株式会社,大阪府,大阪市北区,堂島浜２丁目１－１３日宝堂島浜ビル３Ｆ,,27,127,5300004,,,,,,,2024-10-08,1,,,,,エスペランサ,0
1609,6120001269195,新規,0,2024-10-08,2024-10-08,科森国際貿易株式会社,,株式会社,大阪府,大阪市城東区,野江３丁目２７－７野江１番館３０１号,,27,118,5360006,,,,,,,2024-10-08,1,,,,,カシンコクサイボウエキ,0
1610,6120001269245,新規,0,2024-10-08,2024-10-08,株式会社薙刀,,株式会社,大阪府,大阪市西成区,天下茶屋２丁目６－４,,27,122,5570014,,,,,,,2024-10-08,1,,,,,ナギナタ,0
1616,6120003027667,新規,0,2024-10-08,2024-10-08,合同会社ＢＢＧ．ｓｔｏｒｅ,,合同会社,大阪府,大阪市西区,江戸堀３丁目７番１４号日宝江戸堀西ビル４階４Ｆ１号室,,27,106,5500002,,,,,,,2024-10-08,1,,,,,ビービージードットストア,0
1617,6120003027700,新規,0,2024-10-08,2024-10-08,ＧＯＺＯＯＭ合同会社,,合同会社,大阪府,大阪市住之江区,北島２丁目４番４－１００６号,,27,125,5590014,,,,,,,2024-10-08,1,,,,,ゴーズム,0
1624,6120901049861,新規,0,2024-10-08,2024-10-08,株式会社エムシーツー,,株式会社,大阪府,箕面市,牧落５丁目１８番２０号,,27,220,5620004,,,,,,,2024-10-08,1,,,,,エムシーツー,0
1626,6120903005367,新規,0,2024-10-08,2024-10-08,合同会社アイエヌイー,,合同会社,大阪府,豊中市,南桜塚３丁目１番２号,,27,203,5610882,,,,,,,2024-10-08,1,,,,,アイエヌイー,0
1638,6130003009912,新規,0,2024-10-08,2024-10-08,合同会社ＮＯ　ＬＩＭＩＴ,,合同会社,京都府,京都市中京区,河原町通三条下る二丁目東入北車屋町２７１番地３アセンドビル２階,,26,104,6040000,,,,,,,2024-10-08,1,,,,,ノーリミット,0
1639,6130005017203,新規,0,2024-10-08,2024-10-08,一般社団法人日生会,,その他の設立登記法人,京都府,京都市山科区,安朱南屋敷町３５番地,,26,110,6078011,,,,,,,2024-10-08,1,,,,,ニッセイカイ,0
1653,6140001136047,新規,0,2024-10-08,2024-10-08,株式会社みらいキャリアラボ,,株式会社,兵庫県,加古川市,加古川町大野３７１番地の５,,28,210,6750061,,,,,,,2024-10-08,1,,,,,ミライキャリアラボ,0
1663,6180001163517,新規,0,2024-10-08,2024-10-08,株式会社ＲｅＱＵＥＳＴ,,株式会社,愛知県,小牧市,大字北外山７８３番地１,,23,219,4850023,,,,,,,2024-10-08,1,,,,,リクエスト,0
1664,6180001163541,新規,0,2024-10-08,2024-10-08,株式会社エッグバスケット,,株式会社,愛知県,名古屋市中川区,太平通７丁目４番Ｓｅｒｅｎｉｔｙ５階５０２号室,,23,110,4540838,,,,,,,2024-10-08,1,,,,,エッグバスケット,0
1665,6180001163558,新規,0,2024-10-08,2024-10-08,お耳天国株式会社,,株式会社,愛知県,名古屋市中区,栄３丁目３番３０号茶ばしらビル,,23,106,4600008,,,,,,,2024-10-08,1,,,,,オミミテンゴク,0
1666,6180001163599,新規,0,2024-10-08,2024-10-08,Ａｎｙｏｎｅ　Ｃａｒ株式会社,,株式会社,愛知県,豊明市,沓掛町切山台１３番地１,,23,229,4701101,,,,,,,2024-10-08,1,,,,,エニワンカー,0
1668,6180003027430,新規,0,2024-10-08,2024-10-08,ＡＺＳＯ合同会社,,合同会社,愛知県,名古屋市中村区,名駅３丁目４―１０アルティメイト名駅１ｓｔ２階,,23,105,4500002,,,,,,,2024-10-08,1,,,,,エーゼットエスオー,0
1669,6180005020796,新規,0,2024-10-08,2024-10-08,ひさや税理士法人,,その他の設立登記法人,愛知県,名古屋市東区,東桜１丁目３番７号,,23,102,4610005,,,,,,,2024-10-08,1,,,,,ヒサヤ,0
1675,6190001031706,新規,0,2024-10-08,2024-10-08,株式会社ＮＡＬＵ,,株式会社,三重県,四日市市,青葉町８００‐２４７,,24,202,5100839,,,,,,,2024-10-08,1,,,,,ナル,0
1682,6220003003848,新規,0,2024-10-08,2024-10-08,エクレール合同会社,,合同会社,石川県,加賀市,山代温泉北部２丁目１３２番地,,17,206,9220243,,,,,,,2024-10-08,1,,,,,エクレール,0
1686,6250003003572,新規,0,2024-10-08,2024-10-08,合同会社松の樹,,合同会社,山口県,周南市,辻町６番３３号,00136558,35,215,7450001,,,,,,,2024-10-08,1,,,,,マツノキ,0
1692,6290001107413,新規,0,2024-10-08,2024-10-08,株式会社ライズワン,,株式会社,福岡県,福岡市博多区,博多駅南３丁目１０番２－５０３号,,40,132,8120016,,,,,,,2024-10-08,1,,,,,ライズワン,0
1696,6290801030938,新規,0,2024-10-08,2024-10-08,株式会社三徳食品,,株式会社,福岡県,遠賀郡水巻町,二東１丁目１１番１号,,40,382,8070054,,,,,,,2024-10-08,1,,,,,サントクショクヒン,0
1699,6310001019259,新規,0,2024-10-08,2024-10-08,イワミ水産株式会社,,株式会社,長崎県,平戸市,野子町２９４４番地,,42,207,8595535,,,,,,,2024-10-08,1,,,,,イワミスイサン,0
1701,6320001020752,新規,0,2024-10-08,2024-10-08,株式会社ライフライン,,株式会社,大分県,大分市,山津町２丁目２－１８,,44,201,8700136,,,,,,,2024-10-08,1,,,,,ライフライン,0
1703,6320005010188,新規,0,2024-10-08,2024-10-08,九州油脂事業協同組合,,その他の設立登記法人,大分県,大分市,大字宮河内字新田２４１４番地,,44,201,8700276,,,,,,,2024-10-08,1,,,,,キュウシュウユシジギョウ,0
1713,6340003004628,新規,0,2024-10-08,2024-10-08,合同会社新生,,合同会社,鹿児島県,南さつま市,金峰町池辺３１１４番地１,,46,220,8993405,,,,,,,2024-10-08,1,,,,,シンセイ,0
1717,6360003014328,新規,0,2024-10-08,2024-10-08,合同会社Ｋ‐ｅｌｅｃｔ,,合同会社,沖縄県,石垣市,字新川２２８５－４,,47,207,9070024,,,,,,,2024-10-08,1,,,,,ケイエレクト,0
1718,6370001051776,新規,0,2024-10-08,2024-10-08,株式会社ＴＡＮＮＯ,,株式会社,宮城県,富谷市,太子堂１丁目１番２４号,,04,216,9813303,,,,,,,2024-10-08,1,,,,,タンノ,0
1719,6370001051792,新規,0,2024-10-08,2024-10-08,株式会社大場コントラクター,,株式会社,宮城県,大崎市,田尻沼部字峯崎８番地,,04,215,9894308,,,,,,,2024-10-08,1,,,,,オオバコントラクター,0
1720,6380001034838,新規,0,2024-10-08,2024-10-08,株式会社設樂農産,,株式会社,福島県,須賀川市,山寺町１２８番地,,07,207,9620062,,,,,,,2024-10-08,1,,,,,シダラノウサン,0
1721,6380005012872,新規,0,2024-10-08,2024-10-08,医療法人颯結会,,その他の設立登記法人,福島県,いわき市,平字旧城跡１８番地,,07,204,9708026,,,,,,,2024-10-08,1,,,,,ソウユウカイ,0
1722,6390001017767,新規,0,2024-10-08,2024-10-08,おおかわ電器株式会社,,株式会社,山形県,東田川郡三川町,大字横山字大正３３番５号,,06,426,9971301,,,,,,,2024-10-08,1,,,,,オオカワデンキ,0
1730,6410003003993,新規,0,2024-10-08,2024-10-08,合同会社ｇｅｇｅｚｏｋｕ,,合同会社,秋田県,秋田市,手形山崎町９番２９号,,05,201,0100854,,,,,,,2024-10-08,1,,,,,ゲゲゾク,0
1735,6430001092839,新規,0,2024-10-08,2024-10-08,株式会社啓人会,,株式会社,北海道,札幌市中央区,南五条西１５丁目２－３リズム医大前５０３号室,,01,101,0640805,,,,,,,2024-10-08,1,,,,,ケイジンカイ,0
1739,6430003016861,新規,0,2024-10-08,2024-10-08,合同会社一倉牧場,,合同会社,北海道,浦河郡浦河町,字野深３９９番地の５８,,01,607,0593454,,,,,,,2024-10-08,1,,,,,イチクラボクジョウ,0
1747,6480001012610,新規,0,2024-10-08,2024-10-08,株式会社ＳＥＴＴＥＮＣＥ,,株式会社,徳島県,名西郡石井町,石井字内谷３２番地６,,36,341,7793236,,,,,,,2024-10-08,1,,,,,セッテンス,0
1749,6500001025923,新規,0,2024-10-08,2024-10-08,株式会社ＦＯＲＪ,,株式会社,愛媛県,大洲市,長浜町拓海３番地９,,38,207,7993413,,,,,,,2024-10-08,1,,,,,フォージュ,0
1751,6700150127178,新規,0,2024-10-08,2024-09-19,黒潮町認定農業者連絡協議会,,その他,高知県,幡多郡黒潮町,入野５８９３,,39,428,7891931,,,,,,,2024-09-19,1,,,,,クロシオチヨウニンテイノウギヨウシヤレンラクキヨウギカイ,0
1758,7010001248449,新規,0,2024-10-08,2024-10-08,ＧＸ＆Ｃｏｍｐａｎｙ株式会社,,株式会社,東京都,中央区,銀座１丁目１２－４Ｎ＆ＥＢＬＤ．７階,,13,102,1040061,,,,,,,2024-10-08,1,,,,,ジーエックスアンドカンパニー,0
1759,7010001248746,新規,0,2024-10-08,2024-10-08,Ｐｅａｋ　ｔｉｍｅ株式会社,,株式会社,東京都,千代田区,九段南３丁目７番８号ゴンドラビル４階,,13,101,1020074,,,,,,,2024-10-08,1,,,,,ピークタイム,0
1760,7010001248886,新規,0,2024-10-08,2024-10-08,ＲＥＳＥＡＲＣＨ　ＲＥＣＬＡＭＡＴＩＯＮ株式会社,,株式会社,東京都,千代田区,有楽町２丁目１０－１東京交通会館６Ｆ,,13,101,1000006,,,,,,,2024-10-08,1,,,,,リサーチリクラメーション,0
1761,7010003045142,新規,0,2024-10-08,2024-10-08,シオヅケＨＤ合同会社,,合同会社,東京都,中央区,銀座１丁目１２番４号－６,,13,102,1040061,,,,,,,2024-10-08,1,,,,,シオヅケホールディングス,0
1762,7010003045175,新規,0,2024-10-08,2024-10-08,島牧ウインド合同会社,,合同会社,東京都,千代田区,永田町２丁目１１番１号山王パークタワー２１階,,13,101,1000014,,,,,,,2024-10-08,1,,,,,シママキウインド,0
1763,7010101016342,新規,0,2024-10-08,2024-10-08,浩悦貿易株式会社,,株式会社,東京都,八王子市,寺町４３－９,,13,201,1920073,,,,,,,2024-10-08,1,,,,,コウエツボウエキ,0
1767,7010401185424,新規,0,2024-10-08,2024-10-08,株式会社Ｌｕｃａｓ＆Ｓ　Ｊａｐａｎ,,株式会社,東京都,港区,芝大門２丁目２－１、６Ｆ,,13,103,1050012,,,,,,,2024-10-08,1,,,,,ルカスエンジャパン,0
1768,7010401185498,新規,0,2024-10-08,2024-10-08,和コーポレーション株式会社,,株式会社,東京都,港区,高輪３丁目２１番７号レガロ高輪５０１,,13,103,1080074,,,,,,,2024-10-08,1,,,,,カズコーポレーション,0
1769,7010401185507,新規,0,2024-10-08,2024-10-08,株式会社リバティストーリーズ,,株式会社,東京都,港区,西新橋１丁目１７番１１号,,13,103,1050003,,,,,,,2024-10-08,1,,,,,リバティストーリーズ,0
1770,7010401185531,新規,0,2024-10-08,2024-10-08,株式会社ＪＪｋｎｏｔ,,株式会社,東京都,港区,白金２丁目１－６クーカイ・テラス白金高輪７０２号室,,13,103,1080072,,,,,,,2024-10-08,1,,,,,ジェイジェイノット,0
1771,7010401185548,新規,0,2024-10-08,2024-10-08,ＭＩＴｌａｂｏ株式会社,,株式会社,東京都,港区,南青山３丁目１番３６号青山丸竹ビル６Ｆ,,13,103,1070062,,,,,,,2024-10-08,1,,,,,エムアイティラボ,0
1785,7010603011130,新規,0,2024-10-08,2024-10-08,合同会社ルクマロン,,合同会社,東京都,江東区,亀戸６丁目５６番１７号,,13,108,1360071,,,,,,,2024-10-08,1,,,,,ルクマロン,0
1788,7010701046656,新規,0,2024-10-08,2024-10-08,株式会社サンロクゴ,,株式会社,東京都,品川区,上大崎３丁目３番９号３１１号室,,13,109,1410021,,,,,,,2024-10-08,1,,,,,サンロクゴ,0
1789,7010801035451,新規,0,2024-10-08,2024-10-08,株式会社Ｒ‐ｐｌｕｓｉｃ,,株式会社,東京都,大田区,池上６丁目１９－１０,,13,111,1460082,,,,,,,2024-10-08,1,,,,,アールプラシック,0
1798,7011001164982,新規,0,2024-10-08,2024-10-08,ＡＲＫＧ株式会社,,株式会社,東京都,渋谷区,神泉町９番１２号ＣａｓａｄｅＣｉｅｌｏ１階,,13,113,1500045,,,,,,,2024-10-08,1,,,,,エーアールケージー,0
1799,7011001165023,新規,0,2024-10-08,2024-10-08,株式会社ゆあそび,,株式会社,東京都,渋谷区,神宮前６丁目３１番２１号,,13,113,1500001,,,,,,,2024-10-08,1,,,,,ユアソビ,0
1800,7011001165048,新規,0,2024-10-08,2024-10-08,ＵＭＧ　Ｊａｐａｎ株式会社,,株式会社,東京都,渋谷区,広尾１丁目１番３６号６０２,,13,113,1500012,,,,,,,2024-10-08,1,,,,,ユーエムジージャパン,0
1802,7011003020127,新規,0,2024-10-08,2024-10-08,合同会社ＫＵＵＫＵＵ,,合同会社,東京都,目黒区,下目黒１丁目１番１４号コノトラビル７Ｆ,,13,110,1530064,,,,,,,2024-10-08,1,,,,,,0
1803,7011005010695,新規,0,2024-10-08,2024-10-08,一般社団法人Ｈａｃｈｉ,,その他の設立登記法人,東京都,渋谷区,富ヶ谷１丁目５３番５号ＩＲ代々木地下１階,,13,113,1510063,,,,,,,2024-10-08,1,,,,,ハチ,0
1808,7011101108996,新規,0,2024-10-08,2024-10-08,株式会社Ｋｏｒｔｈ,,株式会社,東京都,新宿区,新宿１丁目３６番２号新宿第七葉山ビル３Ｆ,,13,104,1600022,,,,,,,2024-10-08,1,,,,,コース,0
1809,7011101109029,新規,0,2024-10-08,2024-10-08,松三金株式会社,,株式会社,東京都,新宿区,新宿１丁目２４番７－６１９号,,13,104,1600022,,,,,,,2024-10-08,1,,,,,マツサンキン,0
1815,7011501031204,新規,0,2024-10-08,2024-10-08,Ｌｉｇｈｔｗｅｉｇｈｔ　Ｉｎｔｅｒｎａｔｉｏｎａｌ株式会社,,株式会社,東京都,荒川区,町屋３丁目１－１３－４Ｃ,,13,118,1160001,,,,,,,2024-10-08,1,,,,,ライトウェイトインタナショナル,0
1823,7011603004470,新規,0,2024-10-08,2024-10-08,合同会社ＳＹＳ,,合同会社,東京都,練馬区,北町３丁目３番２３－３０４号,,13,120,1790081,,,,,,,2024-10-08,1,,,,,エスワイエス,0
1828,7011801044921,新規,0,2024-10-08,2024-10-08,百分百株式会社,,株式会社,東京都,足立区,江北２丁目１３－１１－１階,,13,121,1230872,,,,,,,2024-10-08,1,,,,,ヒャクプンヒャク,0
1829,7011801044946,新規,0,2024-10-08,2024-10-08,株式会社カナム不動産,,株式会社,東京都,足立区,東伊興３丁目２２番４３号２０３号室,,13,121,1210801,,,,,,,2024-10-08,1,,,,,カナムフドウサン,0
1830,7011801044954,新規,0,2024-10-08,2024-10-08,株式会社ＭＥＬＩＡ　ＬＯＡ,,株式会社,東京都,葛飾区,水元４丁目１７番１９号,,13,122,1250032,,,,,,,2024-10-08,1,,,,,メリアロア,0
1835,7012801023493,新規,0,2024-10-08,2024-10-08,株式会社Ａｑｕａｃｕｌｔｕｒｅ　Ｆｉｓｈ　ａｎｄ　Ｆｏｏｄ,,株式会社,東京都,武蔵村山市,伊奈平２丁目５７－２,,13,223,2080023,,,,,,,2024-10-08,1,,,,,アクアカルチャーフィッシュアンドフード,0
1847,7020001159496,新規,0,2024-10-08,2024-10-08,株式会社Ｍｉｎｄｓ　Ｏａｒ,,株式会社,神奈川県,横浜市金沢区,瀬戸２２番２号,,14,108,2360027,,,,,,,2024-10-08,1,,,,,マインズオール,0
1852,7020003027024,新規,0,2024-10-08,2024-10-08,合同会社ＭＴＭ,,合同会社,神奈川県,横浜市中区,かもめ町５９番地,,14,104,2310813,,,,,,,2024-10-08,1,,,,,,0
1857,7021001083397,新規,0,2024-10-08,2024-10-08,株式会社ここもり,,株式会社,神奈川県,大和市,中央３丁目１番５－２号,,14,213,2420021,,,,,,,2024-10-08,1,,,,,ココモリ,0
1863,7030001162697,新規,0,2024-10-08,2024-10-08,株式会社Ｈａｒｂｉｒｄ　Ｂｉｉｉｔｏｉｒｏ,,株式会社,埼玉県,加須市,上崎５４５番地５,,11,210,3470125,,,,,,,2024-10-08,1,,,,,ハーバードビトイロ,0
1864,7030001162706,新規,0,2024-10-08,2024-10-08,株式会社新和エステート,,株式会社,埼玉県,新座市,馬場１丁目５５９７番地１５,,11,230,3520016,,,,,,,2024-10-08,1,,,,,シンワエステート,0
1865,7030001162747,新規,0,2024-10-08,2024-10-08,みらいソリューション株式会社,,株式会社,埼玉県,さいたま市南区,根岸１丁目６番１２号３．ＳＥＰＩＡ・１Ｂ,,11,108,3360024,,,,,,,2024-10-08,1,,,,,ミライソリューション,0
1866,7030001162771,新規,0,2024-10-08,2024-10-08,株式会社ＣＭＮ,,株式会社,埼玉県,和光市,新倉２丁目９番６４号,,11,229,3510115,,,,,,,2024-10-08,1,,,,,シーエムエヌ,0
1867,7030001162788,新規,0,2024-10-08,2024-10-08,株式会社ＪＯＩＮＵＳ,,株式会社,埼玉県,川越市,大字山田１６２１－３モンドビル２Ｆ,,11,201,3500822,,,,,,,2024-10-08,1,,,,,ジョイナス,0
1868,7030001162796,新規,0,2024-10-08,2024-10-08,株式会社Ｍ＆Ａはなまる,,株式会社,埼玉県,東松山市,神明町２丁目２番２３号,,11,212,3550021,,,,,,,2024-10-08,1,,,,,エムアンドエーハナマル,0
1869,7030001162805,新規,0,2024-10-08,2024-10-08,株式会社ＢＭ　ＳＹＯＫＨＡＩ,,株式会社,埼玉県,熊谷市,冑山１１２－１,,11,202,3690104,,,,,,,2024-10-08,1,,,,,ビエムショウカイ,0
1870,7030001162813,新規,0,2024-10-08,2024-10-08,株式会社ライフクラフト,,株式会社,埼玉県,さいたま市大宮区,天沼町１丁目２７７番地３,,11,103,3300834,,,,,,,2024-10-08,1,,,,,ライフクラフト,0
1871,7030001162838,新規,0,2024-10-08,2024-10-08,ホーショートランス株式会社,,株式会社,埼玉県,川口市,安行出羽５丁目７番１７号グランメール１０１号,,11,203,3340052,,,,,,,2024-10-08,1,,,,,ホーショートランス,0
1872,7030001162862,新規,0,2024-10-08,2024-10-08,株式会社Ｂｅ　ｌｉｆｅ　ｏｎｅ,,株式会社,埼玉県,八潮市,緑町５丁目１４番地２１,,11,234,3400808,,,,,,,2024-10-08,1,,,,,ビーライフワン,0
1881,7030003025258,新規,0,2024-10-08,2024-10-08,ＴＯＫＵＺＯエンタープライズ合同会社,,合同会社,埼玉県,越谷市,赤山本町４番地１ヨネビルディング６Ｆ,,11,222,3430808,,,,,,,2024-10-08,1,,,,,トクゾーエンタープライズ,0
1882,7030003025282,新規,0,2024-10-08,2024-10-08,Ｋｉａａｎ合同会社,,合同会社,埼玉県,川口市,芝塚原２丁目２２番１３号メゾントリノ２０３,,11,203,3330856,,,,,,,2024-10-08,1,,,,,キーアン,0
1883,7030003025290,新規,0,2024-10-08,2024-10-08,合同会社ネクストワークプラス,,合同会社,埼玉県,朝霞市,宮戸４丁目１２番－７５－５０４号,,11,227,3510031,,,,,,,2024-10-08,1,,,,,ネクストワークプラス,0
1888,7040001135611,新規,0,2024-10-08,2024-10-08,株式会社ｓｔｒｏｎｇｅｒ,,株式会社,千葉県,茂原市,三ケ谷１０３番地,,12,210,2970042,,,,,,,2024-10-08,1,,,,,ストロンガー,0
1889,7040001135727,新規,0,2024-10-08,2024-10-08,株式会社祐テクノス,,株式会社,千葉県,市原市,門前２丁目３５３番地,,12,219,2900016,,,,,,,2024-10-08,1,,,,,ユウテクノス,0
1890,7040001135743,新規,0,2024-10-08,2024-10-08,クラフトライト株式会社,,株式会社,千葉県,八街市,文違３０１番地２７３９,,12,230,2891104,,,,,,,2024-10-08,1,,,,,クラフトライト,0
1892,7040005022525,新規,0,2024-10-08,2024-10-08,医療法人社団心春会,,その他の設立登記法人,千葉県,船橋市,東船橋４丁目３０番２号クラヤビル２階,,12,204,2730002,,,,,,,2024-10-08,1,,,,,コハルカイ,0
1904,7080001026534,新規,0,2024-10-08,2024-10-08,株式会社ウィルサニット,,株式会社,静岡県,静岡市葵区,羽鳥１丁目１８番４７－２号,,22,101,4211215,,,,,,,2024-10-08,1,,,,,ウィルサニット,0
1910,7080405007675,新規,0,2024-10-08,2024-10-08,ＮＰＯ法人ビブレリブレ,,その他の設立登記法人,静岡県,浜松市中央区,板屋町１０２番地の１５,,22,138,4300928,,,,,,,2024-10-08,1,,,,,ビブレリブレ,0
1914,7100001037917,新規,0,2024-10-08,2024-10-08,株式会社きずな,,株式会社,長野県,佐久市,岩村田４４３番地,,20,217,3850022,,,,,,,2024-10-08,1,,,,,キズナ,0
1915,7100005013229,新規,0,2024-10-08,2024-10-08,一般社団法人Ｋカレッジ,,その他の設立登記法人,長野県,北佐久郡軽井沢町,大字長倉２５９１番地４,,20,321,3890111,,,,,,,2024-10-08,1,,,,,ケイカレッジ,0
1930,7120001269120,新規,0,2024-10-08,2024-10-08,株式会社ｂｏｎｄ,,株式会社,大阪府,大阪市中央区,西心斎橋２丁目１０－２４－４０２号,,27,128,5420086,,,,,,,2024-10-08,1,,,,,ボンド,0
1931,7120001269186,新規,0,2024-10-08,2024-10-08,株式会社日乃出工業,,株式会社,大阪府,大阪市淀川区,十三元今里２丁目４番１５号ヨーコービル２０２号,,27,123,5320028,,,,,,,2024-10-08,1,,,,,ヒノデコウギョウ,0
1936,7120901049852,新規,0,2024-10-08,2024-10-08,ミライ株式会社,,株式会社,大阪府,吹田市,広芝町４番３４号江坂第一ビル６Ｆ－３７号室,,27,205,5640052,,,,,,,2024-10-08,1,,,,,ミライ,0
1937,7120901049860,新規,0,2024-10-08,2024-10-08,株式会社日本経営インベストメント,,株式会社,大阪府,豊中市,寺内２丁目１３番３号,,27,203,5610872,,,,,,,2024-10-08,1,,,,,ニホンケイエイインベストメント,0
1941,7130001078090,新規,0,2024-10-08,2024-10-08,Ｋｙｏｔｏ　Ｉｎｔｅｒｎａｔｉｏｎａｌ　Ｌａｎｇｕａｇｅ　Ａｃａｄｅｍｙ株式会社,,株式会社,京都府,京都市上京区,上塔之段町４９２番地４,,26,102,6020000,,,,,,,2024-10-08,1,,,,,キョウトインターナショナルランゲージアカデミー,0
1942,7130001078099,新規,0,2024-10-08,2024-10-08,ｃｉｅｌ　ｂｌｅｕ株式会社,,株式会社,京都府,京都市中京区,東洞院通竹屋町上る三本木町４６１番地４,,26,104,6040871,,,,,,,2024-10-08,1,,,,,シエルブルー,0
1943,7130001078116,新規,0,2024-10-08,2024-10-08,株式会社カイゼン,,株式会社,京都府,京都市中京区,烏丸通六角下る七観音町６２９番地１,,26,104,6048162,,,,,,,2024-10-08,1,,,,,カイゼン,0
1952,7140001135907,新規,0,2024-10-08,2024-10-08,株式会社田島工務店,,株式会社,兵庫県,明石市,西明石西町２丁目８番１０号サーパス西明石１０４号,,28,203,6730049,,,,,,,2024-10-08,1,,,,,タジマコウムテン,0
1953,7140001135948,新規,0,2024-10-08,2024-10-08,アリピン株式会社,,株式会社,兵庫県,神戸市中央区,磯辺通１丁目１番１８号カサベラ国際プラザビル７０７号室,,28,110,6510084,,,,,,,2024-10-08,1,,,,,アリピン,0
1957,7140003021147,新規,0,2024-10-08,2024-10-08,日和合同会社,,合同会社,兵庫県,西脇市,大垣内８３番地の２,,28,213,6770038,,,,,,,2024-10-08,1,,,,,ヒヨリ,0
1958,7140003021163,新規,0,2024-10-08,2024-10-08,ＡＬＩＶＥ　ＪＡＰＡＮ合同会社,,合同会社,兵庫県,三木市,福井３丁目１６番１０号,,28,215,6730433,,,,,,,2024-10-08,1,,,,,アライブジャパン,0
1959,7140005027225,新規,0,2024-10-08,2024-10-08,一般社団法人ＡＬＴジム高橋道場,00136556,その他の設立登記法人,兵庫県,西宮市,浜甲子園３丁目３番１６号２Ｆ,,28,204,6638154,,,,,,,2024-10-08,1,,,,,アルトジムタカハシドウジョウ,0
1965,7160005011350,新規,0,2024-10-08,2024-10-08,滋賀びわ湖漁業協同組合,,その他の設立登記法人,滋賀県,大津市,におの浜４丁目４番２３号,,25,201,5200801,,,,,,堅田漁業協同組合（2160005000399）、大津漁業協同組合（5160005000396）、湖南漁業協同組合（9160005000401）、瀬田町漁業協同組合（5160005000405）、山田漁業協同組合（8160005008429）、志那漁業協同組合（9160005008428）、玉津小津漁業協同組合（7160005008867）、中主漁業協同組合（6160005008868）、近江八幡漁業協同組合（6160005006830）、彦根市松原漁業協同組合（7160005004858）、広野漁業協同組合（5160005004868）、長浜漁業協同組合（5160005003250）、南浜漁業協同組合（4160005003251）、海津漁業協同組合（1160005007528）、浜分漁業協同組合（6160005007531）と三和漁業協同組合（1160005007536）の合併により設立,2024-10-08,1,,,,,シガビワコ,0
1967,7180001163367,新規,0,2024-10-08,2024-10-08,プロパティクス株式会社,,株式会社,愛知県,名古屋市南区,大同町４丁目１番地１２,,23,112,4570811,,,,,,,2024-10-08,1,,,,,プロパティクス,0
1976,7190001031705,新規,0,2024-10-08,2024-10-08,株式会社ＬＥＡ,,株式会社,三重県,津市,青葉台２丁目２１番地５,,24,201,5141139,,,,,,,2024-10-08,1,,,,,レア,0
1983,7220001026239,新規,0,2024-10-08,2024-10-08,株式会社ＧＥＮＧＯＲＯ,,株式会社,石川県,金沢市,八日市４丁目３５１番地,,17,201,9218064,,,,,,,2024-10-08,1,,,,,ゲンゴロー,0
1984,7220001026247,新規,0,2024-10-08,2024-10-08,ふどーさんのおとーさん株式会社,,株式会社,石川県,野々市市,御経塚１丁目２０１番地,,17,212,9218801,,,,,,,2024-10-08,1,,,,,フドーサンノオトーサン,0
1985,7220001026255,新規,0,2024-10-08,2024-10-08,株式会社エーストラスト,,株式会社,石川県,金沢市,粟崎町を６番地１１,,17,201,9200226,,,,,,,2024-10-08,1,,,,,エーストラスト,0
1986,7220003003847,新規,0,2024-10-08,2024-10-08,ＢＥＬＬＥ合同会社,,合同会社,石川県,小松市,瀬領町カ１２８番地,,17,203,9230183,,,,,,,2024-10-08,1,,,,,ベル,0
1987,7230001020554,新規,0,2024-10-08,2024-10-08,Ｊａｐａｎ　ＧＣＣ　Ａｕｔｏ　Ｔｒａｄｉｎｇ株式会社,,株式会社,富山県,富山市,草島２８７番地４７,,16,201,9302201,,,,,,,2024-10-08,1,,,,,ジャパンジーシーシオートトレィディング,0
1988,7230005009412,新規,0,2024-10-08,2024-10-08,行政書士法人トマック,,その他の設立登記法人,富山県,高岡市,野村１３５７番地２,,16,202,9330014,,,,,,,2024-10-08,1,,,,,トマック,0
1992,7240001063916,新規,0,2024-10-08,2024-10-08,株式会社ＣｏｃＢａｎ,,株式会社,広島県,広島市中区,大手町１丁目１－２０相生橋ビル７階Ａ号室,,34,101,7300051,,,,,,,2024-10-08,1,,,,,コクバン,0
1993,7240003006889,新規,0,2024-10-08,2024-10-08,Ｗ　ＯＮＥ合同会社,,合同会社,広島県,大竹市,東栄１丁目６番１の２０４号県営東栄住宅１棟,,34,211,7390601,,,,,,,2024-10-08,1,,,,,ダブリューワン,0
2006,7290003015877,新規,0,2024-10-08,2024-10-08,和真合同会社,,合同会社,福岡県,宗像市,須恵３丁目１１番２４－２０６号,,40,220,8113405,,,,,,,2024-10-08,1,,,,,ワシン,0
2012,7300001013922,新規,0,2024-10-08,2024-10-08,株式会社心電気,,株式会社,佐賀県,伊万里市,立花町２１８１番地６８,,41,205,8480027,,,,,,,2024-10-08,1,,,,,シンデンキ,0
2014,7320001020751,新規,0,2024-10-08,2024-10-08,株式会社大成工業,,株式会社,大分県,国東市,安岐町大添６６４番地１,,44,214,8730223,,,,,,,2024-10-08,1,,,,,タイセイコウギョウ,0
2018,7330001032515,新規,0,2024-10-08,2024-10-08,株式会社ビリーヴイン,,株式会社,熊本県,菊池郡大津町,美咲野３丁目２９番２２号,,43,403,8691237,,,,,,,2024-10-08,1,,,,,ビリーヴイン,0
2032,7370003006777,新規,0,2024-10-08,2024-10-08,合同会社Ｓ．Ｄ．Ｗ．Ｓ,,合同会社,宮城県,仙台市青葉区,上杉４丁目６番３１号上杉フラッツ２０２,,04,101,9800011,,,,,,,2024-10-08,1,,,,,エスディーダブリューエス,0
2035,7380001034829,新規,0,2024-10-08,2024-10-08,株式会社根本安治酒店,,株式会社,福島県,伊達市,保原町所沢字堀ノ内３６番地１,,07,213,9600681,,,,,,,2024-10-08,1,,,,,ネモトヤスジサケテン,0
2048,7450001014427,新規,0,2024-10-08,2024-10-08,株式会社ＤＩＡＲＹ,,株式会社,北海道,旭川市,大町二条３丁目５番９号ＭＫ５２５　１０５号室,,01,204,0700842,,,,,,,2024-10-08,1,,,,,ダイアリー,0
2055,7700150127268,新規,0,2024-10-08,2024-09-20,自動車用軽合金製ホイール試験協議会,,その他,東京都,北区,豊島７丁目２６－２８一般財団法人日本車両検査協会内,,13,117,1140003,,,,,,,2024-09-20,1,,,,,ジドウシヤヨウケイゴウキンセイホイールシケンキヨウギカイ,0
2056,7700150127441,新規,0,2024-10-08,2024-10-08,Ｓｕｎｓｅｔ　Ｐｅａｋ　Ｌｉｍｉｔｅｄ,,外国会社等,,,,,,,,８５　Ｈａｍ　Ｔｉｎ　Ｋａｕ　Ｔｓｕｅｎ　Ｐｕｉ　Ｏ　Ｌａｎｔａｕ　Ｉｓｌａｎｄ　Ｈｏｎｇ　Ｋｏｎｇ,,,,,,2024-10-08,1,,,,,サンセツトピークリミテツド,0
2062,8010001248794,新規,0,2024-10-08,2024-10-08,株式会社やまもとくんエナジー,,株式会社,東京都,千代田区,大手町１丁目６番１号大手町ビル,,13,101,1000004,,,,,,,2024-10-08,1,,,,,ヤマモトクンエナジー,0
2063,8010001248828,新規,0,2024-10-08,2024-10-08,Ｊａｐａｎ　Ｇｏ　Ｒｏｕｎｄ株式会社,,株式会社,東京都,中央区,銀座５丁目１１番１２号,,13,102,1040061,,,,,,,2024-10-08,1,,,,,ジャパンゴーランド,0
2064,8010001248852,新規,0,2024-10-08,2024-10-08,株式会社新星商事,,株式会社,東京都,中央区,勝どき２丁目１３番６号,,13,102,1040054,,,,,,,2024-10-08,1,,,,,シンセイショウジ,0
2065,8010001248869,新規,0,2024-10-08,2024-10-08,ＴＨＫドネーション株式会社,,株式会社,東京都,中央区,銀座３丁目５番１２号,,13,102,1040061,,,,,,,2024-10-08,1,,,,,ティーエイチケードネーション,0
2066,8010001248885,新規,0,2024-10-08,2024-10-08,ボレロＡＳ株式会社,,株式会社,東京都,千代田区,麹町４丁目５－２０リージャス麹町センター,,13,101,1020083,,,,,,,2024-10-08,1,,,,,ボレロエーエス,0
2067,8010001248893,新規,0,2024-10-08,2024-10-08,ＣＣＨ７ｆ株式会社,,株式会社,東京都,千代田区,一番町２番地,,13,101,1020082,,,,,,,2024-10-08,1,,,,,シーシーエイチセブンエフ,0
2068,8010001248927,新規,0,2024-10-08,2024-10-08,株式会社かしまデザインファクトリー,,株式会社,東京都,千代田区,神田岩本町４番地８,,13,101,1010033,,,,,,,2024-10-08,1,,,,,カシマデザインファクトリー,0
2080,8010401185506,新規,0,2024-10-08,2024-10-08,ＢＳ　Ｃｏｄｅ株式会社,,株式会社,東京都,港区,赤坂５丁目２番３３号,,13,103,1070052,,,,,,,2024-10-08,1,,,,,ビーエスコード,0
2081,8010401185522,新規,0,2024-10-08,2024-10-08,株式会社アミューズスポーツエージェンシー,,株式会社,東京都,港区,南青山５丁目４番３１号,,13,103,1070062,,,,,,,2024-10-08,1,,,,,アミューズスポーツエージェンシー,0
2082,8010401185563,新規,0,2024-10-08,2024-10-08,株式会社Ｌａｎｄ　Ｋｅｙ,,株式会社,東京都,港区,赤坂７丁目５番１０－２０３号,,13,103,1070052,,,,,,,2024-10-08,1,,,,,ランドキー,0
2083,8010401185588,新規,0,2024-10-08,2024-10-08,株式会社Ｓｈｉｋｉ,,株式会社,東京都,港区,赤坂７丁目６－１１－６０４,,13,103,1070052,,,,,,,2024-10-08,1,,,,,シキ,0
2087,8010405023579,新規,0,2024-10-08,2024-10-08,一般社団法人日本アジア先端技術企業協会,,その他の設立登記法人,東京都,港区,愛宕１丁目１番１－１７０１号,,13,103,1050002,,,,,,,2024-10-08,1,,,,,ニホンアジアセンタンギジュツキギョウキョウカイ,0
2088,8010405023661,新規,0,2024-10-08,2024-10-08,一般社団法人ＳＴ梅田,,その他の設立登記法人,東京都,港区,西新橋１丁目２番９号メンターキャピタル税理士法人内,,13,103,1050003,,,,,,,2024-10-08,1,,,,,エスティーウメダ,0
2090,8010501052993,新規,0,2024-10-08,2024-10-08,株式会社銀倶楽部,,株式会社,東京都,台東区,東上野２丁目５番１３号,,13,106,1100015,,,,,,,2024-10-08,1,,,,,ギンクラブ,0
2091,8010601065986,新規,0,2024-10-08,2024-10-08,株式会社ＲＹＺＥＯＮＥ,,株式会社,東京都,江東区,有明１丁目４番２０－３２０４号,,13,108,1350063,,,,,,,2024-10-08,1,,,,,ライズワン,0
2095,8010705003685,新規,0,2024-10-08,2024-10-08,一般社団法人才能発掘社,,その他の設立登記法人,東京都,品川区,東品川４丁目１２番８号品川シーサイドイーストタワー１５Ｆ,,13,109,1400002,,,,,,,2024-10-08,1,,,,,サイノウハックツシャ,0
2096,8010801035442,新規,0,2024-10-08,2024-10-08,株式会社ＴＢＭ,,株式会社,東京都,大田区,西馬込２丁目３０番４号,,13,111,1430026,,,,,,,2024-10-08,1,,,,,ティービーエム,0
2097,8010801035459,新規,0,2024-10-08,2024-10-08,株式会社ＫＹカンパニー,,株式会社,東京都,大田区,蒲田４丁目１８番１２号クオーレイナバ７０１,,13,111,1440052,,,,,,,2024-10-08,1,,,,,ケイワイカンパニー,0
2098,8010803005113,新規,0,2024-10-08,2024-10-08,あおぞら輸送合同会社,,合同会社,東京都,大田区,南六郷１丁目１８番６－３０１号,,13,111,1440045,,,,,,,2024-10-08,1,,,,,アオゾラユソウ,0
2104,8011001164940,新規,0,2024-10-08,2024-10-08,ＤｅｅｐＳｋｙ株式会社,,株式会社,東京都,目黒区,八雲３丁目８番１０号,,13,110,1520023,,,,,,,2024-10-08,1,,,,,ディープスカイ,0
2105,8011001165055,新規,0,2024-10-08,2024-10-08,宮崎書道事務所株式会社,00136552,株式会社,東京都,渋谷区,代々木２丁目２４番７号代々木グリーンハイム１０６,,13,113,1510053,,,,,,,2024-10-08,1,,,,,ミヤザキショドウジムショ,0
2106,8011001165096,新規,0,2024-10-08,2024-10-08,レジェンド・マーケティング＆コンサルティング株式会社,,株式会社,東京都,渋谷区,渋谷１丁目７番７号住友不動産青山通ビル,,13,113,1500002,,,,,,,2024-10-08,1,,,,,レジェンドマーケティングアンドコンサルティング,0
2107,8011003020142,新規,0,2024-10-08,2024-10-08,アマダコーポレーション合同会社,,合同会社,東京都,渋谷区,神宮前３丁目１５番２４号,,13,113,1500001,,,,,,,2024-10-08,1,,,,,アマダコーポレーション,0
2110,8011101108938,新規,0,2024-10-08,2024-10-08,株式会社アンリミテッド,,株式会社,東京都,新宿区,新宿６丁目２０番８‐５０２号,,13,104,1600022,,,,,,,2024-10-08,1,,,,,アンリミテッド,0
2111,8011101108979,新規,0,2024-10-08,2024-10-08,株式会社Ｑｕｐｉｄｏ,,株式会社,東京都,新宿区,西新宿３丁目７番１号新宿パークタワーＮ棟３０Ｆ,,13,104,1600023,,,,,,,2024-10-08,1,,,,,クピド,0
2112,8011101108995,新規,0,2024-10-08,2024-10-08,株式会社Ｌｕｍｉ‐Ｌｕｎａ,,株式会社,東京都,新宿区,新宿６丁目２９番１１号新宿イーストクロスタワー１０Ｆ,,13,104,1600022,,,,,,,2024-10-08,1,,,,,ルミルナ,0
2115,8011103015018,新規,0,2024-10-08,2024-10-08,合同会社読解力工場,,合同会社,東京都,新宿区,西新宿３丁目３番１３号西新宿水間ビル２Ｆ,,13,104,1600023,,,,,,,2024-10-08,1,,,,,ドッカイリョクコウジョウ,0
2116,8011201025843,新規,0,2024-10-08,2024-10-08,日和株式会社,,株式会社,東京都,中野区,弥生町１丁目３６－１２,,13,114,1640013,,,,,,,2024-10-08,1,,,,,ヒワ,0
2131,8011601028108,新規,0,2024-10-08,2024-10-08,株式会社Ｐ２Ｃ,,株式会社,東京都,練馬区,上石神井３丁目２８番１７号,,13,120,1770044,,,,,,,2024-10-08,1,,,,,ピーツーシー,0
2132,8011801044945,新規,0,2024-10-08,2024-10-08,株式会社Ｇｏｖｅｎｉ,,株式会社,東京都,足立区,西綾瀬２丁目１２番１６－２０１号,,13,121,1200014,,,,,,,2024-10-08,1,,,,,ゴーベニ,0
2133,8011801044953,新規,0,2024-10-08,2024-10-08,株式会社ＨＡＳＥＣＩＡＬ,,株式会社,東京都,足立区,西新井本町２丁目２２番６－３０５号,,13,121,1230845,,,,,,,2024-10-08,1,,,,,ハセシャル,0
2135,8012701018485,新規,0,2024-10-08,2024-10-08,ＤＣＳ株式会社,,株式会社,東京都,清瀬市,元町２丁目６番１６号,,13,221,2040021,,,,,,,2024-10-08,1,,,,,ディーシーエス,0
2136,8012703003106,新規,0,2024-10-08,2024-10-08,合同会社あかつき,,合同会社,東京都,西東京市,下保谷３丁目１７番２１号,,13,229,2020004,,,,,,,2024-10-08,1,,,,,アカツキ,0
2138,8013301053170,新規,0,2024-10-08,2024-10-08,株式会社ＣＡＳＡ,,株式会社,東京都,豊島区,池袋２丁目３６－１・ＩＮＦＩＮＩＴＹＩＫＥＢＵＫＵＲＯ６Ｆ,,13,116,1710014,,,,,,,2024-10-08,1,,,,,カサ,0
2139,8013301053187,新規,0,2024-10-08,2024-10-08,明治株式会社,,株式会社,東京都,豊島区,池袋２丁目４５番１号,,13,116,1710014,,,,,,,2024-10-08,1,,,,,メイジ,0
2140,8013305003650,新規,0,2024-10-08,2024-10-08,税理士法人ヒイラギ,,その他の設立登記法人,東京都,豊島区,池袋１丁目８番７号サン池袋Ｉ４０２号室,00136569,13,116,1700014,,,,,,,2024-10-08,1,,,,,ヒイラギ,0
2142,8020001159355,新規,0,2024-10-08,2024-10-08,株式会社エアダス,,株式会社,神奈川県,横浜市西区,北幸２丁目１０番４８号,,14,103,2200004,,,,,,,2024-10-08,1,,,,,エアダス,0
2143,8020001159479,新規,0,2024-10-08,2024-10-08,株式会社トリュフファクトリー,,株式会社,神奈川県,横浜市中区,池袋５８番地３,,14,104,2310834,,,,,,,2024-10-08,1,,,,,トリュフファクトリー,0
2144,8020001159487,新規,0,2024-10-08,2024-10-08,株式会社キューワイディー,,株式会社,神奈川県,横浜市西区,浅間町１丁目４番地３ウィザードビル４０２,,14,103,2200072,,,,,,,2024-10-08,1,,,,,キューワイディー,0
2145,8020001159495,新規,0,2024-10-08,2024-10-08,株式会社ｍｅｌｌ　ｃｏｒｐ．,,株式会社,神奈川県,横浜市中区,尾上町５丁目７３番地,,14,104,2310015,,,,,,,2024-10-08,1,,,,,メルコーポ,0
2146,8020001159512,新規,0,2024-10-08,2024-10-08,株式会社ＳＮＯＷ,,株式会社,神奈川県,川崎市川崎区,京町２丁目４番１９－１号,,14,131,2100848,,,,,,,2024-10-08,1,,,,,スノウ,0
2148,8020003026941,新規,0,2024-10-08,2024-10-08,合同会社Ｃｌｏｖｅｒ４６８,,合同会社,神奈川県,横浜市都筑区,高山１９番１－４０１号,,14,118,2240065,,,,,,,2024-10-08,1,,,,,クローバーヨンロクハチ,0
2149,8020003026982,新規,0,2024-10-08,2024-10-08,ＩＮＣ合同会社,,合同会社,神奈川県,横浜市中区,山下町９２番地２第１０Ｚ西村ビル８０２号室,,14,104,2310023,,,,,,,2024-10-08,1,,,,,インク,0
2154,8021001083438,新規,0,2024-10-08,2024-10-08,株式会社夢・未来クリエイション,,株式会社,神奈川県,座間市,入谷西２丁目４１番１５号,,14,216,2520029,,,,,,,2024-10-08,1,,,,,ユメミライクリエイション,0
2171,8030001162696,新規,0,2024-10-08,2024-10-08,株式会社ＨＬ不動産,,株式会社,埼玉県,ふじみ野市,西２丁目１２番地９,,11,245,3560005,,,,,,,2024-10-08,1,,,,,エイチエルフドウサン,0
2172,8030001162721,新規,0,2024-10-08,2024-10-08,株式会社ＺＥＬＫＯＶＡ　ＳＰＯＲＴＳ　ＭＡＮＡＧＥＭＥＮＴ,,株式会社,埼玉県,三郷市,半田９７３－１－２０２,,11,237,3410012,,,,,,,2024-10-08,1,,,,,ゼルコバスポーツマネジメント,0
2173,8030001162738,新規,0,2024-10-08,2024-10-08,株式会社ＴＭステージ,,株式会社,埼玉県,さいたま市南区,沼影２丁目１２番１－５０２号,,11,108,3360027,,,,,,,2024-10-08,1,,,,,ティーエムステージ,0
2174,8030001162754,新規,0,2024-10-08,2024-10-08,株式会社ＫＥＩＹＯ不動産,,株式会社,埼玉県,川口市,東川口２丁目１番３号,,11,203,3330801,,,,,,,2024-10-08,1,,,,,ケイヨーフドウサン,0
2175,8030001162770,新規,0,2024-10-08,2024-10-08,株式会社ＤＥＭＰＳＥＹ’Ｓ,,株式会社,埼玉県,ふじみ野市,ふじみ野２丁目１８番３１号,,11,245,3560050,,,,,,,2024-10-08,1,,,,,デンプシーズ,0
2176,8030001162779,新規,0,2024-10-08,2024-10-08,信一システムテクノロジー株式会社,,株式会社,埼玉県,川口市,仲町４番２５－３０３号コスモ川口ガーデンスクエア,,11,203,3320022,,,,,,,2024-10-08,1,,,,,シンイチシステムテクノロジー,0
2177,8030001162804,新規,0,2024-10-08,2024-10-08,株式会社Ｂａｚ,,株式会社,埼玉県,さいたま市浦和区,北浦和４丁目１番１４号,,11,107,3300074,,,,,,,2024-10-08,1,,,,,バズ,0
2178,8030001162837,新規,0,2024-10-08,2024-10-08,ＢＲＩＮＤＩＬＬＥ株式会社,,株式会社,埼玉県,白岡市,白岡東１１番９ウエルズ白岡１０１,,11,246,3490219,,,,,,,2024-10-08,1,,,,,ブランディーユ,0
2179,8030001162894,新規,0,2024-10-08,2024-10-08,株式会社明光ホーム,,株式会社,埼玉県,草加市,氷川町２１４０番地５,,11,221,3400034,,,,,,,2024-10-08,1,,,,,メイコウホーム,0
2184,8030003025224,新規,0,2024-10-08,2024-10-08,アジア合同会社,,合同会社,埼玉県,加須市,花崎１丁目２０番地６,,11,210,3470032,,,,,,,2024-10-08,1,,,,,アジア,0
2185,8030003025240,新規,0,2024-10-08,2024-10-08,Ｉｎｓｉｇｈｔ　Ｐａｒｔｎｅｒｓ合同会社,,合同会社,埼玉県,草加市,中根２丁目１１－４０サンハイツ１０５,,11,221,3400005,,,,,,,2024-10-08,1,,,,,インサイトパートナーズ,0
2186,8030003025249,新規,0,2024-10-08,2024-10-08,Ｓｏｕｌ　Ｐｏｗｅｒ　Ｃｏｎｓｕｌｔｉｎｇ合同会社,,合同会社,埼玉県,志木市,本町６丁目８番１１号,,11,228,3530004,,,,,,,2024-10-08,1,,,,,ソウルパワーコンサルティング,0
2187,8030003025257,新規,0,2024-10-08,2024-10-08,ＳＴＡＲＭＳ合同会社,,合同会社,埼玉県,鶴ヶ島市,松ヶ丘３丁目２７番７号,,11,241,3502205,,,,,,,2024-10-08,1,,,,,スタームス,0
2188,8030003025273,新規,0,2024-10-08,2024-10-08,合同会社彩西企画,,合同会社,埼玉県,さいたま市西区,大字指扇領別所２３０番地１,,11,101,3310073,,,,,,,2024-10-08,1,,,,,サイセイキカク,0
2189,8030003025281,新規,0,2024-10-08,2024-10-08,合同会社Ｙ’ｓＬＩＮＥ,,合同会社,埼玉県,越谷市,蒲生３丁目８番３号,,11,222,3430838,,,,,,,2024-10-08,1,,,,,ワイズライン,0
2190,8030005021873,新規,0,2024-10-08,2024-10-08,一般社団法人俊英会,,その他の設立登記法人,埼玉県,さいたま市大宮区,宮町１丁目６７番地あづまビル７階,,11,103,3300802,,,,,,,2024-10-08,1,,,,,シュンエイカイ,0
2193,8040001135619,新規,0,2024-10-08,2024-10-08,株式会社Ｈ＆Ａ,,株式会社,千葉県,千葉市花見川区,幕張本郷７丁目１１番１５号オーベル幕張本郷６０４号,,12,102,2620033,,,,,,,2024-10-08,1,,,,,,0
2194,8040001135742,新規,0,2024-10-08,2024-10-08,株式会社リベルトホーム,,株式会社,千葉県,流山市,大字東深井８６０番地の４１,,12,220,2700101,,,,,,,2024-10-08,1,,,,,リベルトホーム,0
2197,8040003025941,新規,0,2024-10-08,2024-10-08,合同会社龍空,,合同会社,千葉県,船橋市,田喜野井１丁目４４番３号,,12,204,2740073,,,,,,,2024-10-08,1,,,,,リュウク,0
2198,8040003025958,新規,0,2024-10-08,2024-10-08,合同会社あやとまる,,合同会社,千葉県,東金市,油井１５１－５８,,12,213,2830804,,,,,,,2024-10-08,1,,,,,アヤトマル,0
2205,8050001055477,新規,0,2024-10-08,2024-10-08,イーエムシースカイ株式会社,,株式会社,茨城県,水戸市,根本１丁目２１４－１,,08,201,3100067,,,,,,,2024-10-08,1,,,,,,0
2209,8050003008714,新規,0,2024-10-08,2024-10-08,合同会社富田,,合同会社,茨城県,下妻市,大園木字根宮１９１番地１,,08,210,3040801,,,,,,,2024-10-08,1,,,,,トミタ,0
2214,8070001042226,新規,0,2024-10-08,2024-10-08,ＦＢＫホールディングス株式会社,,株式会社,群馬県,太田市,脇屋町９９７番地１４,,10,205,3730031,,,,,,,2024-10-08,1,,,,,エフビーケーホールディングス,0
2215,8070001042234,新規,0,2024-10-08,2024-10-08,勲工業株式会社,,株式会社,群馬県,みどり市,大間々町大間々３１番地１３,,10,212,3760101,,,,,,,2024-10-08,1,,,,,イサオコウギョウ,0
2221,8090003002663,新規,0,2024-10-08,2024-10-08,合同会社山吹,,合同会社,山梨県,都留市,大野２８４４番地１２２,,19,204,4020023,,,,,,,2024-10-08,1,,,,,ヤマブキ,0
2223,8100005013228,新規,0,2024-10-08,2024-10-08,渚社会保険労務士法人,,その他の設立登記法人,長野県,塩尻市,大字宗賀２８５３番地,,20,215,3996461,,,,,,,2024-10-08,1,,,,,ナギサ,0
2241,8120001269004,新規,0,2024-10-08,2024-10-08,ＪｏｕｒｎｅｙＨａｌｌ東京株式会社,,株式会社,大阪府,大阪市淀川区,東三国５丁目８－６,,27,123,5320002,,,,,,,2024-10-08,1,,,,,ジャーニーホールトウキョウ,0
2242,8120001269144,新規,0,2024-10-08,2024-10-08,ＪＯＹ株式会社,,株式会社,大阪府,寝屋川市,大利町３１－３－１０５,,27,215,5720048,,,,,,,2024-10-08,1,,,,,ジョイ,0
2243,8120001269152,新規,0,2024-10-08,2024-10-08,涵旅国際株式会社,,株式会社,大阪府,大阪市西成区,梅南１丁目８番２９号,,27,122,5570033,,,,,,,2024-10-08,1,,,,,カンリョコクサイ,0
2244,8120001269169,新規,0,2024-10-08,2024-10-08,株式会社ＢＢ,,株式会社,大阪府,大阪市浪速区,恵美須西１丁目４番１３－８０２号,,27,111,5560003,,,,,,,2024-10-08,1,,,,,ビービー,0
2245,8120001269185,新規,0,2024-10-08,2024-10-08,株式会社ＰＡＲＴ　ＯＦ,,株式会社,大阪府,大阪市中央区,島之内２丁目１５番１６－７０６号,,27,128,5420082,,,,,,,2024-10-08,1,,,,,パートオブ,0
2247,8120003027681,新規,0,2024-10-08,2024-10-08,合同会社ＳｅａＢｌｏｏｍ,,合同会社,大阪府,大阪市東淀川区,東中島５丁目１８－２０ＴＯＡビル２Ｆ,,27,114,5330033,,,,,,,2024-10-08,1,,,,,シーブルーム,0
2253,8120103006081,新規,0,2024-10-08,2024-10-08,合同会社ＦＧＹ,,合同会社,大阪府,岸和田市,岸の丘町１丁目３０番１７号,,27,202,5960817,,,,,,,2024-10-08,1,,,,,エフジーワイ,0
2257,8120901049851,新規,0,2024-10-08,2024-10-08,株式会社ライナック,,株式会社,大阪府,高槻市,高槻町７番２８号,,27,207,5690803,,,,,,,2024-10-08,1,,,,,ライナック,0
2261,8130003009910,新規,0,2024-10-08,2024-10-08,合同会社ミヤモト,,合同会社,京都府,宇治市,広野町西裏６４番地の３Ｓ．ＣＯＫＵＢＯＩＩ３１０号,00136557,26,204,6110031,,,,,,,2024-10-08,1,,,,,ミヤモト,0
2265,8140001136037,新規,0,2024-10-08,2024-10-08,株式会社ＵＣ＆Ｏ,,株式会社,兵庫県,西宮市,津門大箇町９番３－３０６号,,28,204,6638243,,,,,,,2024-10-08,1,,,,,ユーシーアンドオー,0
2280,8200005013671,新規,0,2024-10-08,2024-10-08,税理士法人長野屋敷会計,,その他の設立登記法人,岐阜県,中津川市,中津川３０６１番地の３,,21,206,5080001,,,,,,,2024-10-08,1,,,,,ナガノヤシキカイケイ,0
2281,8210001019928,新規,0,2024-10-08,2024-10-08,株式会社三田村,,株式会社,福井県,越前市,神明町４番８号,,18,209,9150066,,,,,,,2024-10-08,1,,,,,ミタムラ,0
2283,8220001026238,新規,0,2024-10-08,2024-10-08,株式会社幸援,,株式会社,石川県,七尾市,和倉町２部１番地３０第６コーポみほ７８号,,17,202,9260175,,,,,,,2024-10-08,1,,,,,コウエン,0
2284,8220001026254,新規,0,2024-10-08,2024-10-08,ウィンズスタイル株式会社,,株式会社,石川県,河北郡津幡町,字横浜ほ４３番地３,,17,361,9290341,,,,,,,2024-10-08,1,,,,,ウィンズスタイル,0
2292,8240001063915,新規,0,2024-10-08,2024-10-08,株式会社共映,,株式会社,広島県,広島市南区,仁保１丁目１番４９－３０１号,,34,103,7340026,,,,,,,2024-10-08,1,,,,,キョウエイ,0
2296,8240003006888,新規,0,2024-10-08,2024-10-08,合同会社マヘアラニゲート,,合同会社,広島県,広島市南区,大須賀町１６番７－３０１号,,34,103,7320821,,,,,,,2024-10-08,1,,,,,マヘアラニゲート,0
2297,8250001020840,新規,0,2024-10-08,2024-10-08,株式会社Ｆｏｒｗａｒｄ,,株式会社,山口県,宇部市,中央町３丁目１番３号,,35,202,7550045,,,,,,,2024-10-08,1,,,,,フォワード,0
2298,8250003003570,新規,0,2024-10-08,2024-10-08,合同会社イズミ興業,,合同会社,山口県,山陽小野田市,大字小野田３１５１番地１－１０５号,,35,216,7560817,,,,,,,2024-10-08,1,,,,,イズミコウギョウ,0
2303,8260001039509,新規,0,2024-10-08,2024-10-08,株式会社オーバルスポーツ,,株式会社,岡山県,岡山市中区,円山１２５番地の１,,33,102,7038271,,,,,,,2024-10-08,1,,,,,オーバルスポーツ,0
2305,8260003004915,新規,0,2024-10-08,2024-10-08,合同会社ＮＳＡ,,合同会社,岡山県,岡山市北区,津高台３丁目２０４４番地８,,33,101,7011151,,,,,,,2024-10-08,1,,,,,エヌエスエー,0
2310,8290801030928,新規,0,2024-10-08,2024-10-08,株式会社ファイン,,株式会社,福岡県,北九州市八幡西区,本城３丁目４番１号,,40,109,8070801,,,,,,,2024-10-08,1,,,,,ファイン,0
2316,8310001019257,新規,0,2024-10-08,2024-10-08,株式会社Ｇｏｏ　Ｇｏｏｄ,,株式会社,長崎県,諫早市,永昌町９番５号,,42,204,8540072,,,,,,,2024-10-08,1,,,,,グーグッド,0
2317,8310003004876,新規,0,2024-10-08,2024-10-08,合同会社九州オフィス,,合同会社,長崎県,佐世保市,南風崎町１７３番地６,,42,202,8593236,,,,,,,2024-10-08,1,,,,,キュウシュウオフィス,0
2319,8330001032514,新規,0,2024-10-08,2024-10-08,謙建株式会社,,株式会社,熊本県,熊本市中央区,坪井１丁目５番７－７０４号室,,43,101,8600863,,,,,,,2024-10-08,1,,,,,ケンケン,0
2324,8350001019212,新規,0,2024-10-08,2024-10-08,株式会社お菓子の昭栄堂ホールディングス,,株式会社,宮崎県,都城市,甲斐元町１街区２８号,,45,202,8850074,,,,,,,2024-10-08,1,,,,,オカシノショウエイドウホールディングス,0
2332,8370001051782,新規,0,2024-10-08,2024-10-08,株式会社遠藤魚店,,株式会社,宮城県,仙台市泉区,館１丁目１７番地の１３,,04,105,9813214,,,,,,,2024-10-08,1,,,,,エンドウギョテン,0
2333,8370003006776,新規,0,2024-10-08,2024-10-08,合同会社一源,,合同会社,宮城県,登米市,中田町石森字糠塚１５４番地,,04,212,9870601,,,,,,,2024-10-08,1,,,,,イチゲン,0
2354,8700150127457,新規,0,2024-10-08,2024-10-08,石塚町町内会,,その他,新潟県,妙高市,石塚町１丁目１２番２１号,,15,217,9440011,,,,,,,2024-10-08,1,,,,,イシヅカチヨウチヨウナイカイ,0
2363,9010001248802,新規,0,2024-10-08,2024-10-08,株式会社ＧＡＶＩＡＬ,,株式会社,東京都,千代田区,神田和泉町１番地６－１６ヤマトビル４０５,,13,101,1010024,,,,,,,2024-10-08,1,,,,,ガヴィアル,0
2364,9010001248892,新規,0,2024-10-08,2024-10-08,株式会社Ｌａｆｆｉｎｅ　Ｃｕｂｉｃ,,株式会社,東京都,千代田区,神田佐久間町３丁目３２番地東興ビル３階,,13,101,1010025,,,,,,,2024-10-08,1,,,,,ラフィーネキュービック,0
2368,9010003045099,新規,0,2024-10-08,2024-10-08,合同会社Ｌｕｐｉｎｕｓ　ｍａｍ＆ｂａｂｙ．,,合同会社,東京都,文京区,小石川１丁目２４番４－２０３号,,13,105,1120002,,,,,,,2024-10-08,1,,,,,ルピナスマムアンドベビー,0
2371,9010005038910,新規,0,2024-10-08,2024-10-08,フォレスト社会保険労務士法人,,その他の設立登記法人,東京都,千代田区,鍛冶町１丁目１０番６号ＢＩＺＳＭＡＲＴ神田,,13,101,1010044,,,,,,,2024-10-08,1,,,,,フォレスト,0
2380,9010401185513,新規,0,2024-10-08,2024-10-08,株式会社ＤｅｅｐＴｅＬＬ,,株式会社,東京都,港区,北青山１丁目３番１号アールキューブ青山３階,,13,103,1070061,,,,,,,2024-10-08,1,,,,,ディープテル,0
2381,9010401185521,新規,0,2024-10-08,2024-10-08,ＳｅｅｎＴｈｉｓ　Ｊａｐａｎ株式会社,,株式会社,東京都,港区,麻布十番２丁目２０番７号,,13,103,1060045,,,,,,,2024-10-08,1,,,,,シーンディスジャパン,0
2382,9010401185570,新規,0,2024-10-08,2024-10-08,株式会社沖縄ホールディングス,,株式会社,東京都,港区,芝大門１丁目１０番１１号芝大門センタービル１０Ｆ,,13,103,1050012,,,,,,,2024-10-08,1,,,,,,0
2387,9010405023578,新規,0,2024-10-08,2024-10-08,弁護士法人鷲鷹,,その他の設立登記法人,東京都,港区,虎ノ門１丁目１番２１号新虎ノ門実業会館４階,,13,103,1050001,,,,,,,2024-10-08,1,,,,,ワシタカ,0
2394,9010603011129,新規,0,2024-10-08,2024-10-08,おやつジャパン合同会社,,合同会社,東京都,江東区,千田２１番５号リバティハイツ１階,,13,108,1350013,,,,,,,2024-10-08,1,,,,,オヤツジャパン,0
2408,9011003020174,新規,0,2024-10-08,2024-10-08,合同会社ＮｅＸＴ,,合同会社,東京都,渋谷区,道玄坂１丁目１６‐６二葉ビル８ｂ,,13,113,1500043,,,,,,,2024-10-08,1,,,,,ネクスト,0
2413,9011101109002,新規,0,2024-10-08,2024-10-08,株式会社Ｍｏｒｇｅｎ　Ｌｅｔｈｅ,,株式会社,東京都,新宿区,西新宿５丁目８番２号惠徳ビル１０階,,13,104,1600023,,,,,,,2024-10-08,1,,,,,モルゲンレーテ,0
2414,9011101109010,新規,0,2024-10-08,2024-10-08,株式会社エベレスト,,株式会社,東京都,新宿区,市谷甲良町２番１４－１３０６号,,13,104,1620856,,,,,,,2024-10-08,1,,,,,エベレスト,0
2415,9011101109019,新規,0,2024-10-08,2024-10-08,株式会社ＢＡＳＹＯ,,株式会社,東京都,新宿区,西早稲田１丁目２２番３号,,13,104,1690051,,,,,,,2024-10-08,1,,,,,バショ,0
2416,9011103015009,新規,0,2024-10-08,2024-10-08,合同会社Ｌａｎｄｉｎｇ,,合同会社,東京都,新宿区,四谷坂町６番２０－７０１号,,13,104,1600002,,,,,,,2024-10-08,1,,,,,ランディング,0
2418,9011203004497,新規,0,2024-10-08,2024-10-08,ＫＴＲ合同会社,,合同会社,東京都,中野区,中野３丁目２３番１４号２０６,,13,114,1640001,,,,,,,2024-10-08,1,,,,,ケーティーアール,0
2422,9011401026483,新規,0,2024-10-08,2024-10-08,株式会社ハッピーシェフ,,株式会社,東京都,板橋区,高島平５丁目８番１５号,,13,119,1750082,,,,,,,2024-10-08,1,,,,,ハッピーシェフ,0
2428,9011701027693,新規,0,2024-10-08,2024-10-08,株式会社オリーブ,,株式会社,東京都,江戸川区,松江１丁目９番１０－１００１号,,13,123,1320025,,,,,,,2024-10-08,1,,,,,オリーブ,0
2433,9011801044928,新規,0,2024-10-08,2024-10-08,新亀屋商事株式会社,,株式会社,東京都,葛飾区,東堀切３丁目２１番７号,,13,122,1240004,,,,,,,2024-10-08,1,,,,,シンカメヤショウジ,0
2434,9011801044936,新規,0,2024-10-08,2024-10-08,株式会社ＢＫ２,,株式会社,東京都,葛飾区,青戸３丁目３７－１５京成青戸ビル３Ｆ,,13,122,1250062,,,,,,,2024-10-08,1,,,,,ビーケーツー,0
2435,9011801044952,新規,0,2024-10-08,2024-10-08,株式会社ＢＩＳＫ,,株式会社,東京都,葛飾区,新宿３丁目５番１－２０５号アデニウムザ・オアシスガーデン,,13,122,1250051,,,,,,,2024-10-08,1,,,,,ビスク,0
2440,9012401042355,新規,0,2024-10-08,2024-10-08,株式会社藤エンジニアリング,,株式会社,東京都,調布市,飛田給２丁目４０番地２２,,13,208,1820036,,,,,,,2024-10-08,1,,,,,フジエンジニアリング,0
2447,9020001159338,新規,0,2024-10-08,2024-10-08,株式会社ＣＶ　Ａｓｓｅｔ,,株式会社,神奈川県,川崎市多摩区,中野島３丁目２７番３４‐２１０号,,14,135,2140012,,,,,,,2024-10-08,1,,,,,シーブイアセット,0
2448,9020001159429,新規,0,2024-10-08,2024-10-08,株式会社ジーンアセット,,株式会社,神奈川県,川崎市中原区,下沼部１９２０－８,,14,133,2110011,,,,,,,2024-10-08,1,,,,,ジーンアセット,0
2449,9020001159560,新規,0,2024-10-08,2024-10-08,株式会社ヤジマ,,株式会社,神奈川県,横浜市中区,北仲通５丁目５７番地２ザ・タワー横浜北仲４３０２号,,14,104,2310003,,,,,,,2024-10-08,1,,,,,ヤジマ,0
2451,9020003026965,新規,0,2024-10-08,2024-10-08,合同会社ＳＴＥＬＬＡ,,合同会社,神奈川県,川崎市多摩区,西生田５丁目２０番６号ジュネス１０３,,14,135,2140037,,,,,,,2024-10-08,1,,,,,ステラ,0
2452,9020003026981,新規,0,2024-10-08,2024-10-08,合同会社Ｅｍｉｎａｌ,,合同会社,神奈川県,横浜市港北区,日吉本町２丁目５番３号,,14,109,2230062,,,,,,,2024-10-08,1,,,,,エミナル,0
2453,9020003027006,新規,0,2024-10-08,2024-10-08,合同会社ソーシャル・セーフティネット,,合同会社,神奈川県,横浜市磯子区,中原４丁目２３－９,,14,107,2350036,,,,,,,2024-10-08,1,,,,,ソーシャルセーフティネット,0
2457,9021001083387,新規,0,2024-10-08,2024-10-08,株式会社ＴＡＳＴＥ　ＭＯＴＩＯＮ,,株式会社,神奈川県,足柄上郡中井町,井ノ口２４３４番地９,,14,361,2590151,,,,,,,2024-10-08,1,,,,,テイストモーション,0
2461,9021003015058,新規,0,2024-10-08,2024-10-08,合同会社ＭＹ‐ＯＢＳＥＳＳＩＯＮＳ,,合同会社,神奈川県,逗子市,久木８丁目２３－３,,14,208,2490001,,,,,,,2024-10-08,1,,,,,マイオブセッションズ,0
2472,9030001162679,新規,0,2024-10-08,2024-10-08,Ｇｏａｌ　Ｓｅｅｋｅｒ株式会社,,株式会社,埼玉県,川口市,川口２丁目１３番９－４号,,11,203,3320015,,,,,,,2024-10-08,1,,,,,ゴールシーカー,0
2473,9030001162704,新規,0,2024-10-08,2024-10-08,株式会社島崎園,00136551,株式会社,埼玉県,所沢市,所沢新町２４６４番地,,11,208,3590006,,,,,,,2024-10-08,1,,,,,シマザキエン,0
2474,9030001162753,新規,0,2024-10-08,2024-10-08,株式会社オールアール,,株式会社,埼玉県,所沢市,大字山口５０４４番地の１－３９－３－１０７,,11,208,3591145,,,,,,,2024-10-08,1,,,,,オールアール,0
2475,9030001162778,新規,0,2024-10-08,2024-10-08,株式会社アンネームドメモリー,,株式会社,埼玉県,草加市,弁天５丁目１３番９号,,11,221,3400004,,,,,,,2024-10-08,1,,,,,アンネームドメモリー,0
2476,9030001162786,新規,0,2024-10-08,2024-10-08,株式会社山崎建築設計一級建築士事務所,00136555,株式会社,埼玉県,熊谷市,本石１丁目８１番地マルテンビル２０１Ａ,,11,202,3600815,,,,,,,2024-10-08,1,,,,,ヤマザキケンチクセッケイイッキュウケンチクシジムショ,0
2477,9030001162794,新規,0,2024-10-08,2024-10-08,アート・ワイズ株式会社,,株式会社,埼玉県,日高市,大字高萩５８９番地３,,11,242,3501213,,,,,,,2024-10-08,1,,,,,アートワイズ,0
2478,9030001162803,新規,0,2024-10-08,2024-10-08,ヤジマ工業株式会社,,株式会社,埼玉県,川口市,上青木西４丁目２番２１号フラワーコーポＡ,,11,203,3330845,,,,,,,2024-10-08,1,,,,,ヤジマコウギョウ,0
2479,9030001162811,新規,0,2024-10-08,2024-10-08,株式会社Ｉｎｃ．Ｕ．Ｖ,,株式会社,埼玉県,越谷市,大字南荻島３２５６番地９,,11,222,3430804,,,,,,,2024-10-08,1,,,,,インクユーブイ,0
2480,9030001162836,新規,0,2024-10-08,2024-10-08,晨暁株式会社,,株式会社,埼玉県,越谷市,レイクタウン９丁目５０番地３,,11,222,3430828,,,,,,,2024-10-08,1,,,,,シンギョウ,0
2481,9030001162844,新規,0,2024-10-08,2024-10-08,株式会社宮崎工業,00136554,株式会社,埼玉県,日高市,横手１丁目５番地８,,11,242,3501257,,,,,,,2024-10-08,1,,,,,ミヤザキコウギョウ,0
2482,9030001162852,新規,0,2024-10-08,2024-10-08,株式会社ＡＢＡＤ,,株式会社,埼玉県,さいたま市岩槻区,大字横根１３１３,,11,110,3390036,,,,,,,2024-10-08,1,,,,,アバド,0
2483,9030003025207,新規,0,2024-10-08,2024-10-08,合同会社ルミエール,,合同会社,埼玉県,所沢市,小手指町１丁目１１番地の２５水野ビル２階,,11,208,3591141,,,,,,,2024-10-08,1,,,,,ルミエール,0
2484,9030003025248,新規,0,2024-10-08,2024-10-08,伊野商事合同会社,,合同会社,埼玉県,草加市,神明１丁目１番３－３０３号,,11,221,3400012,,,,,,,2024-10-08,1,,,,,イノショウジ,0
2487,9030005021872,新規,0,2024-10-08,2024-10-08,一般社団法人理研未来革新アライアンス,,その他の設立登記法人,埼玉県,和光市,広沢２番１号,,11,229,3510106,,,,,,,2024-10-08,1,,,,,リケンミライカクシンアライランス,0
2488,9040001135717,新規,0,2024-10-08,2024-10-08,株式会社俊商事,,株式会社,千葉県,松戸市,馬橋字南竜房３０３５番地１４－１Ｆ,,12,207,2710051,,,,,,,2024-10-08,1,,,,,トシショウジ,0
2492,9050003008713,新規,0,2024-10-08,2024-10-08,合同会社桃園,,合同会社,茨城県,下妻市,大園木字根宮１９１番地１,,08,210,3040801,,,,,,,2024-10-08,1,,,,,トウエン,0
2497,9070001042217,新規,0,2024-10-08,2024-10-08,株式会社ＦＯＲＣＥ　ＵＰ,,株式会社,群馬県,太田市,飯塚町８０５番地１セリーンハイムＢ－１０３号,,10,205,3730817,,,,,,,2024-10-08,1,,,,,フォースアップ,0
2498,9070001042241,新規,0,2024-10-08,2024-10-08,株式会社マイホームプラン,,株式会社,群馬県,北群馬郡吉岡町,大字大久保７７６番地１１,,10,345,3703602,,,,,,,2024-10-08,1,,,,,マイホームプラン,0
2501,9070003005601,新規,0,2024-10-08,2024-10-08,こてつ不動産合同会社,,合同会社,群馬県,太田市,新井町５７０－１２,,10,205,3730852,,,,,,,2024-10-08,1,,,,,コテツフドウサン,0
2503,9080003003298,新規,0,2024-10-08,2024-10-08,合同会社みらいりす,,合同会社,静岡県,藤枝市,藤岡２丁目２０番９－２号,,22,214,4260006,,,,,,,2024-10-08,1,,,,,ミライリス,0
2506,9080401027493,新規,0,2024-10-08,2024-10-08,株式会社蓮華,,株式会社,静岡県,浜松市中央区,飯田町６７７番地,,22,138,4350028,,,,,,,2024-10-08,1,,,,,レンゲ,0
2510,9100001037898,新規,0,2024-10-08,2024-10-08,株式会社ＧＡＬＧＯ,,株式会社,長野県,須坂市,臥竜２丁目１６番１４号,,20,207,3820028,,,,,,,2024-10-08,1,,,,,ガルゴ,0
2511,9100001037907,新規,0,2024-10-08,2024-10-08,治部坂企画株式会社,,株式会社,長野県,下伊那郡阿智村,浪合１１９２番地８７３,,20,407,3950501,,,,,,,2024-10-08,1,,,,,ジブザカキカク,0
2512,9100005013235,新規,0,2024-10-08,2024-10-08,医療法人ＳＫＣ,,その他の設立登記法人,長野県,長野市,稲田２丁目２８番１７号,,20,201,3810042,,,,,,,2024-10-08,1,,,,,エスケーシー,0
2527,9120001268847,新規,0,2024-10-08,2024-10-08,株式会社ｉＢＬＯＯＭ,,株式会社,大阪府,大阪市都島区,都島北通２丁目２２番２－４０２号,,27,102,5340014,,,,,,,2024-10-08,1,,,,,アイブルーム,0
2528,9120001269060,新規,0,2024-10-08,2024-10-08,株式会社ＧＭＡ,,株式会社,大阪府,大阪市西区,北堀江１丁目２番６－１５０５号,,27,106,5500014,,,,,,,2024-10-08,1,,,,,ジーエムエー,0
2529,9120001269085,新規,0,2024-10-08,2024-10-08,株式会社ハッピーデンキ,,株式会社,大阪府,守口市,東郷通２丁目７番１０号,,27,209,5700041,,,,,,,2024-10-08,1,,,,,ハッピーデンキ,0
2530,9120001269119,新規,0,2024-10-08,2024-10-08,株式会社ＢＢ,,株式会社,大阪府,大阪市西区,千代崎２丁目２０番１５号,,27,106,5500023,,,,,,,2024-10-08,1,,,,,ビービー,0
2531,9120001269135,新規,0,2024-10-08,2024-10-08,株式会社縁,,株式会社,大阪府,大阪市中央区,瓦町４丁目３番２号本町ＵＭビル３階,,27,128,5410048,,,,,,,2024-10-08,1,,,,,エン,0
2532,9120001269168,新規,0,2024-10-08,2024-10-08,株式会社ＵＮＵＳ,,株式会社,大阪府,大阪市中央区,南船場１丁目１６番２３－１０１号,,27,128,5420081,,,,,,,2024-10-08,1,,,,,ウーヌス,0
2533,9120001269184,新規,0,2024-10-08,2024-10-08,株式会社アングルアップ,,株式会社,大阪府,大阪市浪速区,桜川２丁目７番２－１００７号,,27,111,5560022,,,,,,,2024-10-08,1,,,,,アングルアップ,0
2534,9120003027532,新規,0,2024-10-08,2024-10-08,合同会社ｍｅｌｌｏｗ,,合同会社,大阪府,大阪市北区,兎我野町２番５号フォンテーヌ東梅田１００１号室,,27,127,5300056,,,,,,,2024-10-08,1,,,,,メロウ,0
2535,9120003027697,新規,0,2024-10-08,2024-10-08,合同会社秘密基地,,合同会社,大阪府,大阪市中央区,難波千日前６－７ツジビル４Ｆ,,27,128,5420075,,,,,,,2024-10-08,1,,,,,ヒミツキチ,0
2537,9120005024560,新規,0,2024-10-08,2024-10-08,弁護士法人駒本法律事務所,,その他の設立登記法人,大阪府,大阪市北区,西天満４丁目３番１８号ＭＦ西天満ビル９階,,27,127,5300047,,,,,,,2024-10-08,1,,,,,コマモトホウリツジムショ,0
2538,9120005024569,新規,0,2024-10-08,2024-10-08,一般社団法人グローバル教育・医療センター,,その他の設立登記法人,大阪府,大阪市中央区,道修町３丁目３番３号アサヒ軽金属ビル８Ｆ,,27,128,5410045,,,,,,,2024-10-08,1,,,,,グローバルキョウイクイリョウセンター,0
2542,9120901049850,新規,0,2024-10-08,2024-10-08,株式会社ＮＷハーツ,,株式会社,大阪府,摂津市,鳥飼上４丁目７番４６号,,27,224,5660062,,,,,,,2024-10-08,1,,,,,エヌダブルハーツ,0
2543,9120901049859,新規,0,2024-10-08,2024-10-08,株式会社きのせ,,株式会社,大阪府,高槻市,北園町２番３－４０１号,,27,207,5690802,,,,,,,2024-10-08,1,,,,,キノセ,0
2544,9130001078048,新規,0,2024-10-08,2024-10-08,クマモト株式会社,,株式会社,京都府,京都市北区,上賀茂菖蒲園町７９番地１１,,26,101,6038064,,,,,,,2024-10-08,1,,,,,クマモト,0
2546,9130005017191,新規,0,2024-10-08,2024-10-08,一般社団法人京都公共政策研究所,,その他の設立登記法人,京都府,京都市東山区,下河原通八坂鳥居前下る上弁天町４３５番地３,,26,105,6050822,,,,,,,2024-10-08,1,,,,,キョウトコウキョウセイサクケンキュウショ,0
2554,9140001136011,新規,0,2024-10-08,2024-10-08,株式会社ＩＮＡ工業,,株式会社,兵庫県,丹波市,氷上町石生１８６７番地５,,28,223,6693464,,,,,,,2024-10-08,1,,,,,イナコウギョウ,0
2561,9140005027207,新規,0,2024-10-08,2024-10-08,ＮＰＯ法人但馬アーツコモンズ,,その他の設立登記法人,兵庫県,豊岡市,日高町江原７２番地,,28,209,6695301,,,,,,,2024-10-08,1,,,,,エヌピーオーホウジンタジマアーツコモンズ,0
2569,9180001163571,新規,0,2024-10-08,2024-10-08,ＤＸＡ株式会社,,株式会社,愛知県,名古屋市西区,牛島町６番１号名古屋ルーセントタワー４０階,,23,104,4510046,,,,,,,2024-10-08,1,,,,,ディーエックスエー,0
2584,9210001019935,新規,0,2024-10-08,2024-10-08,株式会社ベン・ホームズ,,株式会社,福井県,越前市,片屋町第６２号１番地の１４,,18,209,9150893,,,,,,,2024-10-08,1,,,,,ベンホームズ,0
2604,9290001107435,新規,0,2024-10-08,2024-10-08,株式会社桜,,株式会社,福岡県,小郡市,あすみ１丁目６４番地３,,40,216,8380109,,,,,,,2024-10-08,1,,,,,サクラ,0
2605,9290001107550,新規,0,2024-10-08,2024-10-08,株式会社オーガクルーリンク,,株式会社,福岡県,福岡市博多区,博多駅前３丁目４番２５号アクロスキューブ博多駅前６０７号,,40,132,8120011,,,,,,,2024-10-08,1,,,,,オーガクルーリンク,0
2609,9290003015933,新規,0,2024-10-08,2024-10-08,合同会社ＩＤＧ,,合同会社,福岡県,福岡市博多区,博多駅前１丁目２３番２号ＰａｒｋＦｒｏｎｔ博多駅前１丁目５Ｆ－Ｂ,,40,132,8120011,,,,,,,2024-10-08,1,,,,,,0
2611,9290801030919,新規,0,2024-10-08,2024-10-08,株式会社ＹＡＭＡＳＨＩＴＡ,,株式会社,福岡県,田川市,新町４９９４番地１１,,40,206,8250016,,,,,,,2024-10-08,1,,,,,ヤマシタ,0
2615,9310001019248,新規,0,2024-10-08,2024-10-08,株式会社佐世保クラフト,,株式会社,長崎県,佐世保市,沖新町２番７号,,42,202,8571171,,,,,,,2024-10-08,1,,,,,サセボクラフト,0
2624,9360003014341,新規,0,2024-10-08,2024-10-08,合同会社Ｓｐｒｅａｄ虹,,合同会社,沖縄県,うるま市,喜仲４丁目５番２０号－２Ｆ,,47,213,9042236,,,,,,,2024-10-08,1,,,,,スプレッドコウ,0
2626,9370001051781,新規,0,2024-10-08,2024-10-08,小松カンパニー株式会社,,株式会社,宮城県,仙台市宮城野区,二十人町３０８－４ミライズレジデンシャル仙台ＩＩ９０５号,00136566,04,102,9830862,,,,,,,2024-10-08,1,,,,,コマツカンパニー,0
2627,9370001051807,新規,0,2024-10-08,2024-10-08,株式会社ｃｏｎｎｅｃｔＡ,,株式会社,宮城県,遠田郡美里町,中埣字上戸３３番地２,,04,505,9870024,,,,,,,2024-10-08,1,,,,,コネクトエー,0
2633,9380001034819,新規,0,2024-10-08,2024-10-08,株式会社ＳｏｒａＨａｎａ不動産,,株式会社,福島県,福島市,入江町１４番１３号七福人ビル２０２,,07,201,9608117,,,,,,,2024-10-08,1,,,,,ソラハナフドウサン,0
2634,9380001034827,新規,0,2024-10-08,2024-10-08,株式会社田村電工,,株式会社,福島県,郡山市,富久山町福原字沼下１６番地の１２,,07,203,9638061,,,,,,,2024-10-08,1,,,,,ムラタデンコウ,0
2635,9380001034835,新規,0,2024-10-08,2024-10-08,株式会社大関新聞店,,株式会社,福島県,二本松市,小浜字鳥居町１番地,,07,210,9640313,,,,,,,2024-10-08,1,,,,,オオゼキシンブンテン,0
2639,9380005012878,新規,0,2024-10-08,2024-10-08,医療法人健歯会,,その他の設立登記法人,福島県,郡山市,喜久田町堀之内字畑田１９番地の８,,07,203,9630541,,,,,,,2024-10-08,1,,,,,ケンシカイ,0
2659,9490001010882,新規,0,2024-10-08,2024-10-08,株式会社アグリｕ,,株式会社,高知県,須崎市,下分乙３４番地,,39,206,7850023,,,,,,,2024-10-08,1,,,,,アグリユー,0
2661,9700150127448,新規,0,2024-10-08,2024-10-08,Ｖｏｙａｇｅ　Ｌｉｎｅ　Ｔｅｃｈｎｏｌｏｇｙ（Ｓｈｅｎｚｈｅｎ）Ｃｏ．，Ｌｔｄ,,外国会社等,,,,,,,,ｌｏｎｇｈｕａｑｕ　ｍｉｎｚｈｉｊｉｅｄａｏ　ｈｏｎｇｓｈａｎｓｈｅｑｕ　ｌｏｎｇｇｕａｎｇｊｉｕｚｕａｎ　ｂｅｉｂｉｎｇｑｉ　Ｃ　ｚｕｏ　ｙｉｄａｎｙｕａｎ２８３２　ｓｈｅｎｚｈｅｎ　ＣＮ　５１８１１０,,,,,,2024-10-08,1,,,,,ボヤッジラインテクノロジーシンセンカンパニーリミテッド,0
