sequenceNumber,corporateNumber,process,correct,updateDate,changeDate,name,nameImageId,kind,prefectureName,cityName,streetNumber,addressImageId,prefectureCode,cityCode,postCode,addressOutside,addressOutsideImageId,closeDate,closeCause,successorCorporateNumber,changeCause,assignmentDate,latest,enName,enPrefectureName,enCityName,enAddressOutside,furigana,hihyoji
10,1010001229727,新規,0,2022-09-29,2022-09-29,株式会社グリーン,,株式会社,東京都,中央区,日本橋３丁目２番１４号,,13,102,1030027,,,,,,,2022-09-29,1,,,,,グリーン,0
11,1010001229792,新規,0,2022-09-29,2022-09-29,株式会社インターテック,,株式会社,東京都,千代田区,飯田橋２丁目１番２号,,13,101,1020072,,,,,,,2022-09-29,1,,,,,インターテック,0
15,1010401029909,新規,0,2022-09-29,2022-09-29,株式会社山田栄一商店,,株式会社,東京都,港区,海岸３丁目１８番２６号,,13,103,1080022,,,,,,,2022-09-29,1,,,,,,0
20,1010403028586,新規,0,2022-09-29,2022-09-29,合同会社Ｃｏｍｅｔ,,合同会社,東京都,港区,元赤坂１丁目１番８号赤坂コミュニティビル４階,,13,103,1070051,,,,,,,2022-09-29,1,,,,,コメット,0
21,1010405021424,新規,0,2022-09-29,2022-09-29,一般社団法人Ｆ６Ｈｏｌｄｉｎｇｓ,,その他の設立登記法人,東京都,港区,虎ノ門５丁目１番４号,,13,103,1050001,,,,,,,2022-09-29,1,,,,,エフシックスホールディングス,0
45,1011101100323,新規,0,2022-09-29,2022-09-29,モノリス株式会社,,株式会社,東京都,新宿区,西新宿３丁目３番１３号西新宿水間ビル６階,,13,104,1600023,,,,,,,2022-09-29,1,,,,,モノリス,0
46,1011101100331,新規,0,2022-09-29,2022-09-29,株式会社サンガク,,株式会社,東京都,新宿区,西落合３丁目４番８号,,13,104,1610031,,,,,,,2022-09-29,1,,,,,サンガク,0
47,1011201024125,新規,0,2022-09-29,2022-09-29,株式会社ＹＫＫＴ,,株式会社,東京都,中野区,江原町１丁目８－７,,13,114,1650023,,,,,,,2022-09-29,1,,,,,ワイケーケーティー,0
52,1011701025647,新規,0,2022-09-29,2022-09-29,株式会社セコンド・ラボ,,株式会社,東京都,江戸川区,東葛西５丁目９－１３シャトレーＩＩＩ４０２,00127951,13,123,1340084,,,,,,,2022-09-29,1,,,,,セコンドラボ,0
54,1011803005282,新規,0,2022-09-29,2022-09-29,合同会社ＵＮＩ,,合同会社,東京都,足立区,千住５丁目２７－１ＣＡＳＡＲ２０３,,13,121,1200034,,,,,,,2022-09-29,1,,,,,ユニ,0
69,1020001148331,新規,0,2022-09-29,2022-09-29,株式会社まり工房,,株式会社,神奈川県,川崎市幸区,南加瀬５丁目１６番１８－３号,,14,132,2120055,,,,,,,2022-09-29,1,,,,,マリコウボウ,0
77,1021001077066,新規,0,2022-09-29,2022-09-29,株式会社Ｆｌｙｉｎｇ　Ｒｕｂｙ,,株式会社,神奈川県,平塚市,片岡３５６番地４,,14,203,2591213,,,,,,,2022-09-29,1,,,,,フライングルビー,0
88,1030001150294,新規,0,2022-09-29,2022-09-29,株式会社ＳＥＩＩ,,株式会社,埼玉県,さいたま市浦和区,岸町１丁目４番２３－１１号,,11,107,3300064,,,,,,,2022-09-29,1,,,,,セイイ,0
98,1030003020272,新規,0,2022-09-29,2022-09-29,合同会社Ｆｉｏｃｃｏ,,合同会社,埼玉県,熊谷市,拾六間２６０－１,,11,202,3600846,,,,,,,2022-09-29,1,,,,,フィオッコ,0
99,1030003020280,新規,0,2022-09-29,2022-09-29,ＢＥＳＴ商事合同会社,,合同会社,埼玉県,川口市,元郷５丁目１０番２３－３０８号,,11,203,3320011,,,,,,,2022-09-29,1,,,,,ベストショウジ,0
109,1040001125171,新規,0,2022-09-29,2022-09-29,ＡＴＯＺデザイン株式会社,,株式会社,千葉県,我孫子市,天王台５丁目５番３－７０６号,,12,222,2701143,,,,,,,2022-09-29,1,,,,,アトズデザイン,0
113,1040003020916,新規,0,2022-09-29,2022-09-29,ＳＨＩＲＯＩＬＡＮＫＡ　ＩＮＴＥＲＮＡＴＩＯＮＡＬ合同会社,,合同会社,千葉県,印西市,高西新田字外原１４４－１,,12,231,2701365,,,,,,,2022-09-29,1,,,,,シロイランカインターナショナル,0
114,1050003006880,新規,0,2022-09-29,2022-09-29,合同会社ＴＲＥＮＤ　ＩＮＦＥＣＴＩＯＮ,,合同会社,茨城県,土浦市,港町１丁目４番２２号ハーバープラザ土浦５Ｆ,,08,203,3000034,,,,,,,2022-09-29,1,,,,,トレンドインフェクション,0
115,1060005010013,新規,0,2022-09-29,2022-09-29,一般社団法人こすもすシニアサポート,,その他の設立登記法人,栃木県,栃木市,大平町牛久３１番地１,,09,203,3294401,,,,,,,2022-09-29,1,,,,,コスモスシニアサポート,0
119,1070001039674,新規,0,2022-09-29,2022-09-29,株式会社防災テクニカルサービス,,株式会社,群馬県,邑楽郡明和町,中谷３８５番地４,,10,522,3700713,,,,,,,2022-09-29,1,,,,,ボウサイテクニカルサービス,0
124,1080001025211,新規,0,2022-09-29,2022-09-29,静岡ＳＤＧｓ株式会社,,株式会社,静岡県,静岡市葵区,御幸町３番地の２１ペガサート６階,,22,101,4200857,,,,,,,2022-09-29,1,,,,,シズオカエスディージーズ,0
126,1080401026057,新規,0,2022-09-29,2022-09-29,株式会社Ｍｅｄｉ　Ｌｉｎｋｓ,,株式会社,静岡県,浜松市浜北区,於呂３０５２番地の２シャイニング１０３,,22,136,4340015,,,,,,,2022-09-29,1,,,,,メディリンクス,0
127,1090001017793,新規,0,2022-09-29,2022-09-29,池谷建築株式会社,,株式会社,山梨県,南都留郡富士河口湖町,小立３８４８番地,,19,430,4010302,,,,,,,2022-09-29,1,,,,,イケヤケンチク,0
136,1110001036989,新規,0,2022-09-29,2022-09-29,株式会社ケアラボ,,株式会社,新潟県,新潟市中央区,南長潟１番２号,,15,103,9500931,,,,,,,2022-09-29,1,,,,,ケアラボ,0
145,1120001249103,新規,0,2022-09-29,2022-09-29,ケーズモーター株式会社,,株式会社,大阪府,大阪市住之江区,新北島７丁目１番５８号,,27,125,5590024,,,,,,,2022-09-29,1,,,,,ケーズモーター,0
148,1120003022557,新規,0,2022-09-29,2022-09-29,ＳＡＩＭＵＴ合同会社,,合同会社,大阪府,枚方市,宮之阪３丁目６番２８号,,27,210,5730022,,,,,,,2022-09-29,1,,,,,サイムット,0
149,1120003022565,新規,0,2022-09-29,2022-09-29,合同会社Ｍｏｏｎ,,合同会社,大阪府,大阪市淀川区,西中島４丁目７番３号,,27,123,5320011,,,,,,,2022-09-29,1,,,,,ムーン,0
150,1120101066266,新規,0,2022-09-29,2022-09-29,福楽徳サービス株式会社,,株式会社,大阪府,岸和田市,積川町１０２０番地４,,27,202,5960104,,,,,,,2022-09-29,1,,,,,フラットサービス,0
163,1130003008191,新規,0,2022-09-29,2022-09-29,合同会社あやらぼ,,合同会社,京都府,綾部市,青野町東馬場下２１番地の１７,,26,203,6230011,,,,,,,2022-09-29,1,,,,,アヤラボ,0
168,1140001127455,新規,0,2022-09-29,2022-09-29,株式会社シリコンウェルネス,,株式会社,兵庫県,宍粟市,山崎町加生２４４番地,,28,227,6712570,,,,,,,2022-09-29,1,,,,,シリコンウェルネス,0
188,1180003024300,新規,0,2022-09-29,2022-09-29,合同会社ＡＩラボ,,合同会社,愛知県,江南市,尾崎町上田９５番地,,23,217,4838161,,,,,,,2022-09-29,1,,,,,エーアイラボ,0
190,1190001029787,新規,0,2022-09-29,2022-09-29,風設工房株式会社,,株式会社,三重県,伊勢市,下野町６５４番地２６７,,24,203,5160003,,,,,,,2022-09-29,1,,,,,フウセツコウボウ,0
193,1200003005685,新規,0,2022-09-29,2022-09-29,西濃不動産鑑定合同会社,,合同会社,岐阜県,大垣市,今宿６丁目５２番地１６ドリームコア３０９,,21,202,5030807,,,,,,,2022-09-29,1,,,,,セイノウフドウサンカンテイ,0
196,1240001060407,新規,0,2022-09-29,2022-09-29,株式会社ＦＵ,,株式会社,広島県,広島市西区,南観音２丁目８番３３号,,34,104,7330035,,,,,,,2022-09-29,1,,,,,エフユー,0
197,1240003005822,新規,0,2022-09-29,2022-09-29,ＮＳＰ合同会社,,合同会社,広島県,広島市南区,宇品東６丁目１番６２－５０４号,,34,103,7340003,,,,,,,2022-09-29,1,,,,,エヌエスピー,0
199,1260001037270,新規,0,2022-09-29,2022-09-29,株式会社ＳｉｉｎｅｓＮｏｂｌｅ,,株式会社,岡山県,岡山市東区,西大寺新１４番地の３,,33,103,7048127,,,,,,,2022-09-29,1,,,,,シーネスノーブル,0
208,1290001099003,新規,0,2022-09-29,2022-09-29,株式会社オリオン筐体,,株式会社,福岡県,福岡市博多区,寿町２丁目６番３号アミティエ南福岡３０３号,,40,132,8120884,,,,,,,2022-09-29,1,,,,,オリオンキョウタイ,0
213,1290801028912,新規,0,2022-09-29,2022-09-29,株式会社ＡＳＷＥＬＬ,,株式会社,福岡県,北九州市小倉北区,浅野２丁目１８番１５号ＭＯビル５０５号室,,40,106,8020001,,,,,,,2022-09-29,1,,,,,アスウェル,0
217,1310001018042,新規,0,2022-09-29,2022-09-29,株式会社オンザアース,,株式会社,長崎県,対馬市,美津島町大船越６８６番地,,42,209,8170323,,,,,,,2022-09-29,1,,,,,オンザアース,0
218,1310005008634,新規,0,2022-09-29,2022-09-29,医療法人四葉,,その他の設立登記法人,長崎県,島原市,上新丁１丁目４１５８番地１,,42,203,8550067,,,,,,,2022-09-29,1,,,,,ヨツバ,0
220,1330001030136,新規,0,2022-09-29,2022-09-29,株式会社金剛,,株式会社,熊本県,熊本市中央区,国府３丁目１３番１９号サンパーク国府Ｃ棟２０２号室,,43,101,8620949,,,,,,,2022-09-29,1,,,,,コンゴウ,0
224,1340001025060,新規,0,2022-09-29,2022-09-29,株式会社大久保電装,,株式会社,鹿児島県,指宿市,西方４３８７番地,,46,210,8910311,,,,,,,2022-09-29,1,,,,,オオクボデンソウ,0
238,1430001087554,新規,0,2022-09-29,2022-09-29,ＫＭＫ株式会社,,株式会社,北海道,札幌市北区,新琴似七条１丁目３番３５号,,01,102,0010907,,,,,,,2022-09-29,1,,,,,ケイエムケイ,0
239,1450003002253,新規,0,2022-09-29,2022-09-29,合同会社秋田商事,,合同会社,北海道,旭川市,東六条３丁目２番５号,,01,204,0700026,,,,,,,2022-09-29,1,,,,,アキタショウジ,0
241,1480001011864,新規,0,2022-09-29,2022-09-29,株式会社コロンブス,,株式会社,徳島県,徳島市,上八万町西山１８２１番地,,36,201,7708041,,,,,,,2022-09-29,1,,,,,コロンブス,0
245,1500001024491,新規,0,2022-09-29,2022-09-29,株式会社Ｏｎｅ　ｓｔｅｐ,,株式会社,愛媛県,松山市,余戸西６丁目１２番１９号,,38,201,7900046,,,,,,,2022-09-29,1,,,,,,0
246,1700150111070,新規,0,2022-09-29,2022-08-08,宿の日花火ｉｎ湯郷実行委員会,,その他,岡山県,美作市,湯郷３２３－２,,33,215,7070062,,,,,,,2022-08-08,1,,,,,ヤドノヒハナビインユノゴウジツコウイインカイ,0
252,2010001229767,新規,0,2022-09-29,2022-09-29,株式会社ＦＵＲＡＩ,,株式会社,東京都,千代田区,九段南１丁目５番６号りそな九段ビル５階ＫＳフロア,,13,101,1020074,,,,,,,2022-09-29,1,,,,,フウライ,0
255,2010003038753,新規,0,2022-09-29,2022-09-29,合同会社ミュイット,,合同会社,東京都,中央区,日本橋浜町１丁目３番６号,,13,102,1030007,,,,,,,2022-09-29,1,,,,,ミュイット,0
263,2010403028585,新規,0,2022-09-29,2022-09-29,合同会社Ｓａｔｅｌｌｉｔｅ,,合同会社,東京都,港区,元赤坂１丁目１番８号赤坂コミュニティビル４階,,13,103,1070051,,,,,,,2022-09-29,1,,,,,サテライト,0
272,2010601061900,新規,0,2022-09-29,2022-09-29,株式会社ＷＩＮＥＨＥＲＢ,,株式会社,東京都,江東区,豊洲５丁目１番１３－１１２１号,,13,108,1350061,,,,,,,2022-09-29,1,,,,,ワインハーブ,0
275,2010701043261,新規,0,2022-09-29,2022-09-29,株式会社コスタエンタープライズ,,株式会社,東京都,品川区,東中延１丁目９番９号キャストアンカー１階,,13,109,1420052,,,,,,,2022-09-29,1,,,,,コスタエンタープライズ,0
281,2010903007667,新規,0,2022-09-29,2022-09-29,ＪＸＤ合同会社,,合同会社,東京都,世田谷区,砧７丁目８－１０グラスガーデン３０２,,13,112,1570073,,,,,,,2022-09-29,1,,,,,ジェイエックスディー,0
286,2011103012210,新規,0,2022-09-29,2022-09-29,リベンジャー合同会社,,合同会社,東京都,新宿区,西新宿３丁目３番１３号西新宿水間ビル６Ｆ,,13,104,1600023,,,,,,,2022-09-29,1,,,,,リベンジャー,0
288,2011501028502,新規,0,2022-09-29,2022-09-29,サムコアエレクトロニクス株式会社,,株式会社,東京都,荒川区,西日暮里５丁目２９番３－４０３号,,13,118,1160013,,,,,,,2022-09-29,1,,,,,サムコアエレクトロニクス,0
291,2011701025654,新規,0,2022-09-29,2022-09-29,株式会社ＰＲ不動産,,株式会社,東京都,江戸川区,平井６丁目５番１５号大熊ビル４０３,,13,123,1320035,,,,,,,2022-09-29,1,,,,,ピーアールフドウサン,0
295,2012703002542,新規,0,2022-09-29,2022-09-29,合同会社Ｉｒｙｏ,,合同会社,東京都,西東京市,田無町４丁目９番６号リスボンパレス２０２号室,,13,229,1880011,,,,,,,2022-09-29,1,,,,,イリョウ,0
296,2012803002896,新規,0,2022-09-29,2022-09-29,合同会社ＯＮＥＳ,,合同会社,東京都,国分寺市,西恋ヶ窪３丁目５番地４,,13,214,1850013,,,,,,,2022-09-29,1,,,,,ワンズ,0
302,2020003022467,新規,0,2022-09-29,2022-09-29,合同会社エムズ,,合同会社,神奈川県,横浜市都筑区,牛久保西４丁目１０番３号ミレーニア中川Ｄ１,,14,118,2240015,,,,,,,2022-09-29,1,,,,,エムズ,0
317,2030001150252,新規,0,2022-09-29,2022-09-29,株式会社ｆｕｔｕｒｅ,,株式会社,埼玉県,さいたま市大宮区,下町２丁目７３番地コンフォートマンション下町７２９,,11,103,3300844,,,,,,,2022-09-29,1,,,,,ヒューチャー,0
318,2030001150260,新規,0,2022-09-29,2022-09-29,株式会社ケンタロウ,,株式会社,埼玉県,さいたま市桜区,桜田２丁目２４番３号,,11,106,3380833,,,,,,,2022-09-29,1,,,,,ケンタロウ,0
322,2030003020263,新規,0,2022-09-29,2022-09-29,堀川瓦工業合同会社,,合同会社,埼玉県,志木市,中宗岡１丁目４番３３号,,11,228,3530002,,,,,,,2022-09-29,1,,,,,ホリカワカワラコウギョウ,0
323,2030003020271,新規,0,2022-09-29,2022-09-29,合同会社ティーエムアール,,合同会社,埼玉県,ふじみ野市,市沢３丁目５番８－１００３号,,11,245,3560057,,,,,,,2022-09-29,1,,,,,ティーエムアール,0
324,2030003020288,新規,0,2022-09-29,2022-09-29,オフィスＫＭ合同会社,,合同会社,埼玉県,川口市,本町４丁目１３番３－４０４号デュオプラザ川口壱番館,,11,203,3320012,,,,,,,2022-09-29,1,,,,,オフィスケイエム,0
328,2040001125195,新規,0,2022-09-29,2022-09-29,株式会社わんたいむ,,株式会社,千葉県,印西市,木下南２丁目１１番地１０,,12,231,2701328,,,,,,,2022-09-29,1,,,,,ワンタイム,0
329,2040001125212,新規,0,2022-09-29,2022-09-29,株式会社ＶＥＮＵＳ・土偶,,株式会社,千葉県,千葉市中央区,都町５丁目３６番２５号,,12,101,2600001,,,,,,,2022-09-29,1,,,,,ヴィーナスドグウ,0
333,2040003020915,新規,0,2022-09-29,2022-09-29,野村ビジネスプランニング合同会社,,合同会社,千葉県,浦安市,明海２丁目２番１－２０３号クオン新浦安Ａ棟,,12,227,2790014,,,,,,,2022-09-29,1,,,,,ノムラビジネスプランニング,0
335,2050003006871,新規,0,2022-09-29,2022-09-29,合同会社ｔｈｅＣ,,合同会社,茨城県,那珂市,菅谷４４０４－７那珂市商工会２Ｆ,,08,226,3110105,,,,,,,2022-09-29,1,,,,,ザシー,0
336,2060001035293,新規,0,2022-09-29,2022-09-29,株式会社梶市,,株式会社,栃木県,佐野市,富士町３５３番地,,09,204,3270801,,,,,,,2022-09-29,1,,,,,カジイチ,0
339,2070001039673,新規,0,2022-09-29,2022-09-29,株式会社エルサロン,,株式会社,群馬県,高崎市,高関町１１２番地２,,10,202,3700043,,,,,,,2022-09-29,1,,,,,エルサロン,0
344,2080001025210,新規,0,2022-09-29,2022-09-29,株式会社プリズム,,株式会社,静岡県,静岡市葵区,南沼上２丁目７番３号,,22,101,4200905,,,,,,,2022-09-29,1,,,,,プリズム,0
345,2080101023543,新規,0,2022-09-29,2022-09-29,ＵＳＵＩ　Ｇｒｅｅｎ　Ｔｅｃｈ株式会社,,株式会社,静岡県,駿東郡小山町,須走１２４番地の７,,22,344,4101431,,,,,,,2022-09-29,1,,,,,ウスイグリーンテック,0
346,2080103002660,新規,0,2022-09-29,2022-09-29,ＳＡＭＡＤＩ　ＩＮＴＥＲＮＡＴＩＯＮＡＬ合同会社,,合同会社,静岡県,沼津市,原２６０８番地の１６,,22,203,4100312,,,,,,,2022-09-29,1,,,,,サマディインターナショナル,0
347,2080401026056,新規,0,2022-09-29,2022-09-29,株式会社エルテックサービス,,株式会社,静岡県,浜松市中区,中島３丁目１９‐２０,,22,131,4300856,,,,,,,2022-09-29,1,,,,,エルテックサービス,0
352,2120001248830,新規,0,2022-09-29,2022-09-29,株式会社ＭＰＩ,,株式会社,大阪府,大阪市中央区,南船場２丁目１１番９－２０９号,,27,128,5420081,,,,,,,2022-09-29,1,,,,,エムピーアイ,0
353,2120001248979,新規,0,2022-09-29,2022-09-29,ＴＥＲＡＳ株式会社,,株式会社,大阪府,大阪市浪速区,大国１丁目１０番２１号,,27,111,5560014,,,,,,,2022-09-29,1,,,,,テラス,0
354,2120001249093,新規,0,2022-09-29,2022-09-29,株式会社ＡＯＴＡＫＩＦＵＳＯ,,株式会社,大阪府,大阪市天王寺区,上本町７丁目２番１０－１４０１号,,27,109,5430001,,,,,,,2022-09-29,1,,,,,アオタキフソウ,0
355,2120001249135,新規,0,2022-09-29,2022-09-29,ｄｒｅａｍａＸ株式会社,,株式会社,大阪府,大阪市生野区,巽北１丁目２１番２９号生野ハイツ２１０号室,,27,116,5440004,,,,,,,2022-09-29,1,,,,,ドリーマックス,0
356,2120003022556,新規,0,2022-09-29,2022-09-29,合同会社ｓｗａｇ．ｃ,,合同会社,大阪府,大阪市北区,中之島６丁目１番３８－１４０４号,,27,127,5300005,,,,,,,2022-09-29,1,,,,,スワッグシー,0
364,2130001072668,新規,0,2022-09-29,2022-09-29,株式会社心和,,株式会社,京都府,京都市山科区,大宅古海道町３０番地３エスパース大宅１０２号室,,26,110,6078177,,,,,,,2022-09-29,1,,,,,シンワ,0
365,2130001072684,新規,0,2022-09-29,2022-09-29,株式会社Ｓｕｒｇｉｃａｌ　Ｉｍｐｌａｎｔ　Ｉｎｓｔｉｔｕｔｅ,,株式会社,京都府,乙訓郡大山崎町,字円明寺小字西法寺３９番地６,,26,303,6180091,,,,,,,2022-09-29,1,,,,,,0
374,2140001127470,新規,0,2022-09-29,2022-09-29,株式会社ラビット,,株式会社,兵庫県,神戸市中央区,元町通２丁目４番１３号サンアポロビル５階,,28,110,6500022,,,,,,,2022-09-29,1,,,,,ラビット,0
375,2140001127479,新規,0,2022-09-29,2022-09-29,源商事株式会社,,株式会社,兵庫県,神戸市中央区,山本通５丁目３番６号,,28,110,6500003,,,,,,,2022-09-29,1,,,,,ミナモトショウジ,0
376,2140001127487,新規,0,2022-09-29,2022-09-29,株式会社正栄,,株式会社,兵庫県,美方郡香美町,香住区相谷１０８番地,,28,585,6696404,,,,,,,2022-09-29,1,,,,,ショウエイ,0
379,2140003018156,新規,0,2022-09-29,2022-09-29,Ａ．Ｙｖｉｓｉｏｎ合同会社,,合同会社,兵庫県,宝塚市,千種２丁目７番７号,,28,214,6650072,,,,,,,2022-09-29,1,,,,,エーワイビジョン,0
380,2140003018172,新規,0,2022-09-29,2022-09-29,合同会社陽光テック,,合同会社,兵庫県,尼崎市,南清水１番２８号,,28,202,6610985,,,,,,,2022-09-29,1,,,,,ヨウコウテック,0
384,2160001024526,新規,0,2022-09-29,2022-09-29,株式会社ＧＭＭ,,株式会社,滋賀県,大津市,瀬田大江町１３番地の１６,,25,201,5202123,,,,,,,2022-09-29,1,,,,,ジーエムエム,0
391,2180301036665,新規,0,2022-09-29,2022-09-29,ライフシフト株式会社,,株式会社,愛知県,安城市,横山町寺下７１番地１１,,23,212,4460045,,,,,,,2022-09-29,1,,,,,ライフシフト,0
392,2180303005453,新規,0,2022-09-29,2022-09-29,Ｆ．Ｃ．ＦＲＵＯＲ合同会社,,合同会社,愛知県,岡崎市,竜美南４丁目１番地５サンシティ内藤Ａ－２０２,,23,202,4440874,,,,,,,2022-09-29,1,,,,,エフシーフルオール,0
393,2190003004093,新規,0,2022-09-29,2022-09-29,合同会社マルイシ経営,,合同会社,三重県,桑名市,大字上野２２８番地１,,24,205,5110825,,,,,,,2022-09-29,1,,,,,マルイシケイエイ,0
396,2200001040485,新規,0,2022-09-29,2022-09-29,株式会社ＴＩＡＲＡＹ,,株式会社,岐阜県,岐阜市,下土居３丁目１番８号,,21,201,5020858,,,,,,,2022-09-29,1,,,,,ティアレイ,0
404,2240003005821,新規,0,2022-09-29,2022-09-29,合同会社Ｙｅｌｌｏｗ　Ｇｒｅｅｎ　Ｂｅａｎｓ,,合同会社,広島県,広島市南区,皆実町４丁目１５番１９－２号,,34,103,7340007,,,,,,,2022-09-29,1,,,,,イエローグリーンビーンズ,0
408,2260003004045,新規,0,2022-09-29,2022-09-29,合同会社サンサンイチ,,合同会社,岡山県,岡山市南区,福富中２丁目６番１６号,,33,104,7028032,,,,,,,2022-09-29,1,,,,,サンサンイチ,0
410,2270001008633,新規,0,2022-09-29,2022-09-29,株式会社坂原新聞舗,,株式会社,鳥取県,鳥取市,青谷町青谷３０８９番地,,31,201,6890501,,,,,,,2022-09-29,1,,,,,サカハラシンブンホ,0
415,2290001099010,新規,0,2022-09-29,2022-09-29,株式会社ＦＯＢ,,株式会社,福岡県,福岡市博多区,博多駅前３丁目７－３,,40,132,8120011,,,,,,,2022-09-29,1,,,,,エフオービー,0
417,2290003012994,新規,0,2022-09-29,2022-09-29,ＫＩＴ合同会社,,合同会社,福岡県,福岡市南区,大橋２丁目２５番１０,,40,134,8150033,,,,,,,2022-09-29,1,,,,,ケイアイティー,0
420,2300001013076,新規,0,2022-09-29,2022-09-29,株式会社ＤＫＣ,,株式会社,佐賀県,佐賀市,久保泉町大字下和泉１９４５番地３,,41,201,8490903,,,,,,,2022-09-29,1,,,,,ディーケーシー,0
422,2310001006665,新規,0,2022-09-29,2022-09-29,相浦食糧産業倉庫株式会社,,株式会社,長崎県,佐世保市,相浦町１３８番地,,42,202,8580918,,,,,,,2022-09-29,1,,,,,アイノウラショクリョウサンギョウソウコ,0
423,2310001018041,新規,0,2022-09-29,2022-09-29,株式会社対馬プロジェクト,,株式会社,長崎県,対馬市,美津島町大船越６８６番地,,42,209,8170323,,,,,,,2022-09-29,1,,,,,ツシマプロジェクト,0
424,2320003003916,新規,0,2022-09-29,2022-09-29,合同会社Ｖｉｎａ　Ｇｏｌｄ,,合同会社,大分県,臼杵市,野津町大字野津市１６４－１,,44,206,8750201,,,,,,,2022-09-29,1,,,,,ヴィナゴールド,0
425,2330001030143,新規,0,2022-09-29,2022-09-29,株式会社神ノ興業,,株式会社,熊本県,合志市,合生６０番地１４,,43,216,8611101,,,,,,,2022-09-29,1,,,,,カミノコウギョウ,0
431,2360001030990,新規,0,2022-09-29,2022-09-29,株式会社Ｒｉ‐ｔｓｕ‐ｋｏ,,株式会社,沖縄県,宜野湾市,嘉数２丁目１番２３号,,47,205,9012226,,,,,,,2022-09-29,1,,,,,リツコ,0
441,2430001087545,新規,0,2022-09-29,2022-09-29,株式会社緑之木,,株式会社,北海道,虻田郡洞爺湖町,洞爺町２９３－１,,01,584,0495802,,,,,,,2022-09-29,1,,,,,ミドリノキ,0
443,2430003014316,新規,0,2022-09-29,2022-09-29,合同会社雪紅葉,,合同会社,北海道,札幌市中央区,北十三条西１５丁目２番２０号,,01,101,0600013,,,,,,,2022-09-29,1,,,,,ユキモミジ,0
444,2440003001486,新規,0,2022-09-29,2022-09-29,合同会社プレジャー,,合同会社,北海道,函館市,鍛治１丁目２５番２９号,,01,202,0410852,,,,,,,2022-09-29,1,,,,,プレジャー,0
448,2500001024482,新規,0,2022-09-29,2022-09-29,株式会社大西総合保険事務所,,株式会社,愛媛県,松山市,宮西１丁目１番１号,,38,201,7900065,,,,,,,2022-09-29,1,,,,,オオニシソウゴウホケンジムショ,0
449,2500001024490,新規,0,2022-09-29,2022-09-29,株式会社レジリエンス,,株式会社,愛媛県,松山市,千舟町５丁目３番地１７市駅駅前ビル４Ｆ,,38,201,7900011,,,,,,,2022-09-29,1,,,,,レジリエンス,0
450,3000020018309,新規,0,2022-09-29,2022-09-29,上川中部福祉事務組合,,地方公共団体,北海道,上川郡当麻町,四条西３丁目３番２号,,01,454,0781304,,,,,,,2022-09-29,1,,,,,カミカワチュウブフクシジムクミアイ,0
458,3010001229766,新規,0,2022-09-29,2022-09-29,株式会社木下沢威事務所,,株式会社,東京都,中央区,京橋２丁目２番１号京橋エドグラン２６階,,13,102,1040031,,,,,,,2022-09-29,1,,,,,キノシタタクイジムショ,0
459,3010001229832,新規,0,2022-09-29,2022-09-29,株式会社アクラス,,株式会社,東京都,中央区,日本橋箱崎町３７番８－１００２号,,13,102,1030015,,,,,,,2022-09-29,1,,,,,アクラス,0
468,3010401169918,新規,0,2022-09-29,2022-09-29,立高食品株式会社,,株式会社,東京都,港区,南青山４丁目１７番１３号１０４室,,13,103,1070062,,,,,,,2022-09-29,1,,,,,リガオフーズ,0
469,3010401170017,新規,0,2022-09-29,2022-09-29,株式会社ウェルフォート,,株式会社,東京都,港区,南麻布１丁目８番１６－１５０６号,,13,103,1060047,,,,,,,2022-09-29,1,,,,,ウェルフォート,0
470,3010403028584,新規,0,2022-09-29,2022-09-29,合同会社Ｐｌａｎｅｔ,,合同会社,東京都,港区,元赤坂１丁目１番８号赤坂コミュニティビル４階,,13,103,1070051,,,,,,,2022-09-29,1,,,,,プラネット,0
471,3010405021430,新規,0,2022-09-29,2022-09-29,一般社団法人Ｅｃｈｏ　Ｈｏｌｄｉｎｇｓ,,その他の設立登記法人,東京都,港区,虎ノ門５丁目１番４号,,13,103,1050001,,,,,,,2022-09-29,1,,,,,エコーホールディングス,0
475,3010601061908,新規,0,2022-09-29,2022-09-29,クラウドティーチャー株式会社,,株式会社,東京都,墨田区,亀沢４丁目１６番１３号,,13,107,1300014,,,,,,,2022-09-29,1,,,,,クラウドティーチャー,0
480,3010903007666,新規,0,2022-09-29,2022-09-29,メリオラ合同会社,,合同会社,東京都,世田谷区,上馬１丁目１番７－１１６号,,13,112,1540011,,,,,,,2022-09-29,1,,,,,メリオラ,0
487,3011101100305,新規,0,2022-09-29,2022-09-29,いつき不動産株式会社,,株式会社,東京都,新宿区,高田馬場１丁目３１－１６,,13,104,1690075,,,,,,,2022-09-29,1,,,,,イツキフドウサン,0
489,3011105010426,新規,0,2022-09-29,2022-09-29,一般社団法人小林久隆先生の前立腺がん光免疫療法研究支援会,,その他の設立登記法人,東京都,新宿区,西新宿３丁目２番８号,,13,104,1600023,,,,,,,2022-09-29,1,,,,,コバヤシヒサタカセンセイノゼンリツセンガンヒカリメンエキリョウホウケンキュウシエンカイ,0
490,3011201024131,新規,0,2022-09-29,2022-09-29,株式会社３３３,,株式会社,東京都,中野区,東中野５丁目１番１－３００４号,,13,114,1640003,,,,,,,2022-09-29,1,,,,,トリプルスリー,0
495,3011503005300,新規,0,2022-09-29,2022-09-29,ＥＢＣ　Ｊａｐａｎ合同会社,,合同会社,東京都,荒川区,東日暮里３丁目４２番８－１２０２号,,13,118,1160014,,,,,,,2022-09-29,1,,,,,イービーシージャパン,0
506,3013301049719,新規,0,2022-09-29,2022-09-29,株式会社ＤｅｅｐＳｉｄｅ,,株式会社,東京都,豊島区,東池袋１丁目４３番１０号,,13,116,1700013,,,,,,,2022-09-29,1,,,,,ディープサイド,0
513,3020001148321,新規,0,2022-09-29,2022-09-29,株式会社新共創未来,,株式会社,神奈川県,川崎市幸区,南幸町２丁目５５番地,,14,132,2120016,,,,,,,2022-09-29,1,,,,,シンキョウソウミライ,0
514,3020003022466,新規,0,2022-09-29,2022-09-29,合同会社ｃｏｍａｃｈｉ,,合同会社,神奈川県,横浜市西区,霞ケ丘８８,,14,103,2200035,,,,,,,2022-09-29,1,,,,,コマチ,0
522,3021003012184,新規,0,2022-09-29,2022-09-29,合同会社ＰＡＺ,,合同会社,神奈川県,大和市,代官２丁目１０番地７,,14,213,2420025,,,,,,,2022-09-29,1,,,,,パス,0
523,3021003012192,新規,0,2022-09-29,2022-09-29,合同会社プロテクション,,合同会社,神奈川県,相模原市中央区,小山３丁目２９番９号ビューティフルデイズ小山３０１号,,14,152,2520205,,,,,,,2022-09-29,1,,,,,プロテクション,0
535,3030003020279,新規,0,2022-09-29,2022-09-29,合同会社ｔｏｋｏｒｏ,,合同会社,埼玉県,所沢市,西狭山ケ丘２丁目２１１９番地の２７,,11,208,3591163,,,,,,,2022-09-29,1,,,,,トコロ,0
536,3030003020287,新規,0,2022-09-29,2022-09-29,アルムナイ合同会社,,合同会社,埼玉県,比企郡吉見町,東野５丁目２５－１６,,11,347,3550110,,,,,,,2022-09-29,1,,,,,アルムナイ,0
542,3040001125194,新規,0,2022-09-29,2022-09-29,株式会社東部重工業ホールディングス,,株式会社,千葉県,浦安市,北栄４丁目１２番２０号,,12,227,2790002,,,,,,,2022-09-29,1,,,,,トウブジュウコウギョウホールディングス,0
543,3040001125203,新規,0,2022-09-29,2022-09-29,株式会社トラストワン,,株式会社,千葉県,松戸市,栄町８丁目６１５番地の９,,12,207,2710062,,,,,,,2022-09-29,1,,,,,トラストワン,0
547,3050003006887,新規,0,2022-09-29,2022-09-29,ｎ．そらまめ合同会社,,合同会社,茨城県,龍ケ崎市,松ケ丘１丁目１５番地５,,08,208,3010853,,,,,,,2022-09-29,1,,,,,エヌドットソラマメ,0
551,3070001039680,新規,0,2022-09-29,2022-09-29,ジェイズエフェクト株式会社,,株式会社,群馬県,富岡市,妙義町上高田１０７０番地１,,10,210,3702411,,,,,,,2022-09-29,1,,,,,ジェイズエフェクト,0
557,3090001017783,新規,0,2022-09-29,2022-09-29,富士天鵬株式会社,,株式会社,山梨県,南都留郡山中湖村,平野５０６－２９６,,19,425,4010502,,,,,,,2022-09-29,1,,,,,フジテンホウ,0
558,3090005007517,新規,0,2022-09-29,2022-09-29,弁護士法人ＦｏｒＰＥＡＣＥ法律事務所,,その他の設立登記法人,山梨県,甲府市,丸の内１丁目１６番１０号トラストワンビル１９、３－Ｂ,,19,201,4000031,,,,,,,2022-09-29,1,,,,,フォーピースホウリツジムショ,0
570,3120001249068,新規,0,2022-09-29,2022-09-29,普瑞達貿易株式会社,,株式会社,大阪府,大阪市中央区,島之内２丁目５番１５号メロンハウス３０２号室,,27,128,5420082,,,,,,,2022-09-29,1,,,,,ブリーダーボウエキ,0
571,3120001249101,新規,0,2022-09-29,2022-09-29,アボカド株式会社,,株式会社,大阪府,大阪市平野区,加美北３丁目８番２６号１階,,27,126,5470001,,,,,,,2022-09-29,1,,,,,アボカド,0
572,3120001249126,新規,0,2022-09-29,2022-09-29,株式会社コネクションフォワード,,株式会社,大阪府,大阪市都島区,善源寺町２丁目２番２－４０２号,,27,102,5340015,,,,,,,2022-09-29,1,,,,,コネクションフォワード,0
573,3120001249134,新規,0,2022-09-29,2022-09-29,ＦＧ株式会社,,株式会社,大阪府,大阪市北区,西天満６丁目２番３号４１３室,,27,127,5300047,,,,,,,2022-09-29,1,,,,,エフジー,0
580,3120003022571,新規,0,2022-09-29,2022-09-29,旭日明合同会社,,合同会社,大阪府,大阪市西区,九条３丁目１９番３０号,,27,106,5500027,,,,,,,2022-09-29,1,,,,,キョクジツメイ,0
583,3120005023205,新規,0,2022-09-29,2022-09-29,パナソニックハウジングソリューションズ労働組合,,その他の設立登記法人,大阪府,門真市,大字門真１０４８番地パナソニックハウジングソリューションズ株式会社本社内,,27,223,5710050,,,,,,,2022-09-29,1,,,,,パナソニックハウジングソリューションズ,0
593,3130003008207,新規,0,2022-09-29,2022-09-29,合同会社りゅうコーポレーション,,合同会社,京都府,京都市中京区,聚楽廻松下町１－３３,,26,104,6048401,,,,,,,2022-09-29,1,,,,,リュウコーポレーション,0
599,3140001127486,新規,0,2022-09-29,2022-09-29,株式会社協栄会,,株式会社,兵庫県,加古郡播磨町,西野添４丁目１２番２０号,,28,382,6750160,,,,,,,2022-09-29,1,,,,,キョウエイカイ,0
603,3140003018171,新規,0,2022-09-29,2022-09-29,Ｍ金融合同会社,,合同会社,兵庫県,神戸市中央区,八幡通４丁目２番９号フラワーロードビル５０２号室,,28,110,6510085,,,,,,,2022-09-29,1,,,,,エムキンユウ,0
606,3150001025838,新規,0,2022-09-29,2022-09-29,株式会社はびりす,,株式会社,奈良県,吉野郡大淀町,大字桧垣本１０１０番地の２７０,,29,442,6380812,,,,,,,2022-09-29,1,,,,,ハビリス,0
608,3160005011123,新規,0,2022-09-29,2022-09-29,医療法人むらた歯科クリニック,,その他の設立登記法人,滋賀県,大津市,春日町２番１号ＣＯＣＯＬＡＳ大津２０５号,,25,201,5200055,,,,,,,2022-09-29,1,,,,,ムラタシカクリニック,0
624,3180003024298,新規,0,2022-09-29,2022-09-29,ジルマ合同会社,,合同会社,愛知県,名古屋市中川区,八田町１９０１番地カルティア八田ＳＦ１３０１号室,,23,110,4540877,,,,,,,2022-09-29,1,,,,,ジルマ,0
628,3180301036664,新規,0,2022-09-29,2022-09-29,メディカルビズ株式会社,,株式会社,愛知県,刈谷市,松栄町１丁目１１番１号カタヤマビル３Ｆ－Ｂ,,23,210,4480806,,,,,,,2022-09-29,1,,,,,メディカルビズ,0
629,3190001029785,新規,0,2022-09-29,2022-09-29,株式会社Ａｎｎｉｖｅｒｓａｒｙ,,株式会社,三重県,津市,一身田５８６－２,,24,201,5140000,,,,,,,2022-09-29,1,,,,,アニバーサリー,0
638,3230001019534,新規,0,2022-09-29,2022-09-29,株式会社Ｌ’ＥＡＵ,,株式会社,富山県,富山市,山室荒屋１５番地２６７,,16,201,9398022,,,,,,,2022-09-29,1,,,,,ロー,0
641,3240001060405,新規,0,2022-09-29,2022-09-29,株式会社ＷＯＲＫ　ＲＡＧＥ,,株式会社,広島県,広島市東区,中山南１丁目２７番２号,,34,102,7320024,,,,,,,2022-09-29,1,,,,,ワークレイジ,0
642,3250001019771,新規,0,2022-09-29,2022-09-29,株式会社ＫＡＩ物産,,株式会社,山口県,宇部市,開６丁目３番３号,,35,202,7550096,,,,,,,2022-09-29,1,,,,,カイブッサン,0
648,3290003012993,新規,0,2022-09-29,2022-09-29,ＴＤ合同会社,,合同会社,福岡県,福岡市博多区,須崎町９番１０,,40,132,8120028,,,,,,,2022-09-29,1,,,,,ティーディー,0
650,3300001013075,新規,0,2022-09-29,2022-09-29,朝日ホールディングス株式会社,,株式会社,佐賀県,佐賀市,大和町大字梅野２８０番地,,41,201,8400203,,,,,,,2022-09-29,1,,,,,アサヒホールディングス,0
651,3310001018040,新規,0,2022-09-29,2022-09-29,株式会社ＧＥＮＫＩ．Ｓ,,株式会社,長崎県,長崎市,油屋町２番２号,,42,201,8500832,,,,,,,2022-09-29,1,,,,,ゲンキサポート,0
660,3340001025059,新規,0,2022-09-29,2022-09-29,株式会社鶴添組,,株式会社,鹿児島県,鹿屋市,川西町３７１３番地７,,46,203,8930032,,,,,,,2022-09-29,1,,,,,ツルゾエグミ,0
664,3370001049088,新規,0,2022-09-29,2022-09-29,株式会社Ｕ‐ＩＴ,,株式会社,宮城県,仙台市青葉区,中央２丁目２－３０日興ビル３Ｆ・４Ｆ,,04,101,9800021,,,,,,,2022-09-29,1,,,,,ユーアイティ,0
680,3470003002258,新規,0,2022-09-29,2022-09-29,合同会社東神エナジー,,合同会社,香川県,さぬき市,鴨庄８８８番地６,,37,206,7692102,,,,,,,2022-09-29,1,,,,,トウシンエナジー,0
685,3500003002898,新規,0,2022-09-29,2022-09-29,田中建板合同会社,,合同会社,愛媛県,松山市,堀江町甲１３７３番地２１,,38,201,7992651,,,,,,,2022-09-29,1,,,,,タナカケンバン,0
691,4010001229815,新規,0,2022-09-29,2022-09-29,株式会社ＢＬＡＣＫ　ＳＷＡＮ,,株式会社,東京都,中央区,佃２丁目１３番５号,,13,102,1040051,,,,,,,2022-09-29,1,,,,,,0
695,4010003038751,新規,0,2022-09-29,2022-09-29,Ｋａｎａｄｅ合同会社,,合同会社,東京都,中央区,日本橋兜町５番１号兜町第１平和ビル７階レコルテ内,,13,102,1030026,,,,,,,2022-09-29,1,,,,,カナデ,0
701,4010401169900,新規,0,2022-09-29,2022-09-29,アスツー東京株式会社,,株式会社,東京都,港区,南青山２丁目１５番５号ＦＡＲＯ青山２０３,,13,103,1070062,,,,,,,2022-09-29,1,,,,,アスツートウキョウ,0
702,4010401169958,新規,0,2022-09-29,2022-09-29,Ｐａｒｋ　Ｓｑｕａｒｅ　Ｃａｐｉｔａｌ　Ｊａｐａｎ株式会社,,株式会社,東京都,港区,麻布台３丁目４番２３号麻布台Ｎハウス３階,,13,103,1060041,,,,,,,2022-09-29,1,,,,,パークスクエアキャピタルジャパン,0
708,4010403028583,新規,0,2022-09-29,2022-09-29,合同会社Ｓｏｌａｒ,,合同会社,東京都,港区,元赤坂１丁目１番８号赤坂コミュニティビル４階,,13,103,1070051,,,,,,,2022-09-29,1,,,,,ソーラー,0
712,4010405021413,新規,0,2022-09-29,2022-09-29,一般社団法人ＧＴＣＩ　Ａｓｓｏｃｉａｔｉｏｎ,,その他の設立登記法人,東京都,港区,南青山６丁目１番６号パレス青山４０５,,13,103,1070062,,,,,,,2022-09-29,1,,,,,ジーティーシーアイアソシエーション,0
716,4010501049424,新規,0,2022-09-29,2022-09-29,ＳＰソリューション株式会社,,株式会社,東京都,台東区,上野３丁目１６番２号,,13,106,1100005,,,,,,,2022-09-29,1,,,,,,0
717,4010505003344,新規,0,2022-09-29,2022-09-29,一般社団法人東京ダイヤモンドエクスチェンジ,,その他の設立登記法人,東京都,台東区,東上野１丁目２６番２号,,13,106,1100015,,,,,,,2022-09-29,1,,,,,トウキョウダイヤモンドエクスチェンジ,0
725,4011001149706,新規,0,2022-09-29,2022-09-29,株式会社Ｒｅ,,株式会社,東京都,渋谷区,渋谷２丁目１９－１５宮益坂ビルディング６０９,,13,113,1500002,,,,,,,2022-09-29,1,,,,,アールイー,0
729,4011201024122,新規,0,2022-09-29,2022-09-29,株式会社フォアド,,株式会社,東京都,中野区,東中野２丁目２８番２号,,13,114,1640003,,,,,,,2022-09-29,1,,,,,フォアド,0
730,4011201024130,新規,0,2022-09-29,2022-09-29,株式会社ＲＳＩＮ,,株式会社,東京都,中野区,本町３丁目２３番１０号オープンレジデンシア中野坂上コート１０３号室,,13,114,1640012,,,,,,,2022-09-29,1,,,,,アールエスイン,0
732,4011401024558,新規,0,2022-09-29,2022-09-29,株式会社チオ,,株式会社,東京都,板橋区,高島平１丁目８２番９号１Ｆ,,13,119,1750082,,,,,,,2022-09-29,1,,,,,チオ,0
737,4011403003782,新規,0,2022-09-29,2022-09-29,ＢＩＮＩＴＡ合同会社,,合同会社,東京都,板橋区,栄町３２番５－６１６号,,13,119,1730015,,,,,,,2022-09-29,1,,,,,ビニタ,0
738,4011501028509,新規,0,2022-09-29,2022-09-29,株式会社ハヤックス,,株式会社,東京都,荒川区,荒川５丁目２９番１－２０３号,,13,118,1160002,,,,,,,2022-09-29,1,,,,,ハヤックス,0
740,4011503005282,新規,0,2022-09-29,2022-09-29,合同会社ポンポコ,,合同会社,東京都,北区,赤羽南２丁目１６番２号,,13,117,1150044,,,,,,,2022-09-29,1,,,,,ポンポコ,0
741,4011503005299,新規,0,2022-09-29,2022-09-29,ＩＮＦＩＮＩＸ　ＧＬＯＢＡＬ　ＪＰ合同会社,,合同会社,東京都,北区,中十条１丁目２４番６号コ－ポ英２－１０１号,,13,117,1140032,,,,,,,2022-09-29,1,,,,,インフィニックスグローバルジェーピー,0
747,4012301013139,新規,0,2022-09-29,2022-09-29,株式会社ＦＬＯＲＴＵＳ,,株式会社,東京都,町田市,常盤町３７５８桜美林大学町田キャンパス太平館ＢＴ７０９,,13,209,1940213,,,,,,,2022-09-29,1,,,,,,0
753,4012801021863,新規,0,2022-09-29,2022-09-29,株式会社寿商会レジデンス,,株式会社,東京都,国分寺市,本町２丁目２３番７号ネクストビル２０１,,13,214,1850012,,,,,,,2022-09-29,1,,,,,コトブキショウカイレジデンス,0
760,4013303006304,新規,0,2022-09-29,2022-09-29,合同会社ＳｔｏＺ,,合同会社,東京都,豊島区,高田１丁目３６ステラ目白台２０５号,,13,116,1710033,,,,,,,2022-09-29,1,,,,,エストゥゼット,0
770,4020001148320,新規,0,2022-09-29,2022-09-29,株式会社マルマサ,,株式会社,神奈川県,横浜市港北区,日吉６丁目６番２９号,,14,109,2230061,,,,,,,2022-09-29,1,,,,,マルマサ,0
774,4021001077096,新規,0,2022-09-29,2022-09-29,株式会社ヒットオン,,株式会社,神奈川県,大和市,大和南２丁目７番３２号,,14,213,2420016,,,,,,,2022-09-29,1,,,,,ヒットオン,0
779,4030001150250,新規,0,2022-09-29,2022-09-29,株式会社クオーレ,,株式会社,埼玉県,さいたま市南区,内谷４丁目１３番１７号,,11,108,3360034,,,,,,,2022-09-29,1,,,,,クオーレ,0
786,4030003020286,新規,0,2022-09-29,2022-09-29,合同会社カクタ,,合同会社,埼玉県,春日部市,藤塚１９５－１０,,11,214,3440011,,,,,,,2022-09-29,1,,,,,カクタ,0
796,4070001039671,新規,0,2022-09-29,2022-09-29,株式会社アクタス,,株式会社,群馬県,館林市,緑町１丁目３－１,,10,207,3740025,,,,,,,2022-09-29,1,,,,,アクタス,0
820,4120001249067,新規,0,2022-09-29,2022-09-29,株式会社ロンド・ベル,,株式会社,大阪府,大阪市北区,梅田１丁目１番３号大阪駅前第３ビル２９階１－１－１号室,,27,127,5300001,,,,,,,2022-09-29,1,,,,,ロンドベル,0
821,4120001249125,新規,0,2022-09-29,2022-09-29,Ｔ＆Ｄ株式会社,,株式会社,大阪府,大阪市東成区,深江北３丁目４番２１号エクラ深江橋８０８Ａ,,27,115,5370001,,,,,,,2022-09-29,1,,,,,ティーアンドディー,0
829,4122001036263,新規,0,2022-09-29,2022-09-29,株式会社関西ＬＥ　ＭＯＴＯＲ,,株式会社,大阪府,八尾市,太田新町８丁目２６２番地,,27,212,5810039,,,,,,,2022-09-29,1,,,,,カンサイレーモーター,0
832,4130001072690,新規,0,2022-09-29,2022-09-29,ブリック株式会社,,株式会社,京都府,宇治市,槇島町目川１６７番地の６,,26,204,6110041,,,,,,,2022-09-29,1,,,,,ブリック,0
835,4130003008189,新規,0,2022-09-29,2022-09-29,合同会社Ｃｏｕｎｔ　ｏｎ,,合同会社,京都府,京都市左京区,岩倉中河原町３６サウスリッシュ岩倉１０６,,26,103,6060018,,,,,,,2022-09-29,1,,,,,カウントオン,0
843,4140001127485,新規,0,2022-09-29,2022-09-29,株式会社ＫＭＴ　Ｔｒａｄｉｎｇ,,株式会社,兵庫県,神戸市西区,神出町小束野４１番地の８,,28,111,6512304,,,,,,,2022-09-29,1,,,,,ケーエムティートレーディング,0
844,4140001127493,新規,0,2022-09-29,2022-09-29,株式会社竹コーポレーション,,株式会社,兵庫県,西宮市,山口町金仙寺３丁目２番２０号,,28,204,6511422,,,,,,,2022-09-29,1,,,,,タケコーポレーション,0
849,4140003018154,新規,0,2022-09-29,2022-09-29,合同会社Ｂｉｊｏｕ,,合同会社,兵庫県,明石市,南貴崎町２番１号エスポワール貴崎３０６号,,28,203,6730035,,,,,,,2022-09-29,1,,,,,ビジュー,0
850,4140003018170,新規,0,2022-09-29,2022-09-29,合同会社パリダ商会,,合同会社,兵庫県,神戸市西区,井吹台北町２丁目１９番地の１、８３３号,,28,111,6512244,,,,,,,2022-09-29,1,,,,,パリダショウカイ,0
853,4150001025829,新規,0,2022-09-29,2022-09-29,株式会社ＭＥ　ｓｔｙｌｅ,,株式会社,奈良県,磯城郡田原本町,大字藥王寺６３番地２,,29,363,6360341,,,,,,,2022-09-29,1,,,,,エムイースタイル,0
856,4170001017295,新規,0,2022-09-29,2022-09-29,株式会社Ｆａｒｍｅｒ’ｓ　Ｍａｎａｇｅｒ,,株式会社,和歌山県,有田市,宮原町滝１４３－２,,30,204,6490437,,,,,,,2022-09-29,1,,,,,ファーマーズマネージャー,0
866,4180305009392,新規,0,2022-09-29,2022-09-29,司法書士法人かわすみ事務所,,その他の設立登記法人,愛知県,豊橋市,向山町字伝馬５番地１,,23,201,4400864,,,,,,,2022-09-29,1,,,,,カワスミジムショ,0
867,4190001029784,新規,0,2022-09-29,2022-09-29,上啓国際株式会社,,株式会社,三重県,津市,河芸町東千里２６７番地１ヴァリーヴィレッジ２０５,,24,201,5100303,,,,,,,2022-09-29,1,,,,,ジョウケイコクサイ,0
871,4200001040475,新規,0,2022-09-29,2022-09-29,ＳＡＵＲＩ　ＬＡＮＫＡ株式会社,,株式会社,岐阜県,恵那市,山岡町久保原字町名平１７４１番１,,21,210,5097601,,,,,,,2022-09-29,1,,,,,サウリランカ,0
874,4200003005682,新規,0,2022-09-29,2022-09-29,合同会社もいら,,合同会社,岐阜県,岐阜市,岩田西１丁目７５１番地４,,21,201,5013156,,,,,,,2022-09-29,1,,,,,モイラ,0
879,4230001019533,新規,0,2022-09-29,2022-09-29,ＲｅＦａｒｍ　Ｌａｂ株式会社,,株式会社,富山県,小矢部市,北一２５,,16,209,9320844,,,,,,,2022-09-29,1,,,,,リファームラボ,0
885,4240001060412,新規,0,2022-09-29,2022-09-29,株式会社ｏｔｔｏ,,株式会社,広島県,広島市南区,宇品東７丁目５番７号,,34,103,7340003,,,,,,,2022-09-29,1,,,,,オット,0
895,4290801028918,新規,0,2022-09-29,2022-09-29,株式会社ＹＫ建装,,株式会社,福岡県,中間市,通谷２丁目５番３９号,,40,215,8090018,,,,,,,2022-09-29,1,,,,,ワイケイケンソウ,0
897,4300001013074,新規,0,2022-09-29,2022-09-29,株式会社ｔｂｃ,,株式会社,佐賀県,佐賀市,金立町大字千布２１１２番地１,,41,201,8490905,,,,,,,2022-09-29,1,,,,,ティービーシー,0
904,4330001030133,新規,0,2022-09-29,2022-09-29,株式会社マイクロファーム和王,,株式会社,熊本県,球磨郡多良木町,大字奥野１１４番地,,43,505,8680504,,,,,,,2022-09-29,1,,,,,マイクロファームワオウ,0
906,4330003009530,新規,0,2022-09-29,2022-09-29,合同会社ＢＬＩＳＳ　ＬＡＢ,,合同会社,熊本県,熊本市中央区,水前寺３丁目３５番２０号グランパーク水前寺ＩＩ９０１,00127959,43,101,8620950,,,,,,,2022-09-29,1,,,,,ブリスラボ,0
908,4340001025058,新規,0,2022-09-29,2022-09-29,株式会社臣工業,,株式会社,鹿児島県,鹿児島市,西田３丁目８番２１号ルナージュ２０１号,,46,201,8900046,,,,,,,2022-09-29,1,,,,,ジンコウギョウ,0
926,4430003014297,新規,0,2022-09-29,2022-09-29,合同会社Ａｓｏｎｉｗａ,,合同会社,北海道,札幌市東区,中沼四条２丁目４番１－１０１号,,01,103,0070004,,,,,,,2022-09-29,1,,,,,アソニワ,0
928,4430005014568,新規,0,2022-09-29,2022-09-29,特定非営利活動法人愛犬本舗,,その他の設立登記法人,北海道,札幌市白石区,川下２７２７番地１７,,01,104,0030869,,,,,,,2022-09-29,1,,,,,アイケンホンポ,0
930,4470005006470,新規,0,2022-09-29,2022-09-29,一般社団法人おん,,その他の設立登記法人,香川県,仲多度郡まんのう町,炭所東５３４番地１２８,,37,406,7660016,,,,,,,2022-09-29,1,,,,,オン,0
931,4500001024489,新規,0,2022-09-29,2022-09-29,株式会社有友電工,,株式会社,愛媛県,今治市,土橋町１丁目８番２７号,,38,202,7940815,,,,,,,2022-09-29,1,,,,,アリトモデンコウ,0
934,4700150012290,新規,0,2022-09-29,2015-10-09,東京地方税理士会横浜中央支部,,その他,神奈川県,横浜市西区,花咲町４丁目１０６,,14,103,2200022,,,,,,,2015-10-09,1,,,,,トウキヨウチホウゼイリシカイヨコハマチユウオウシブ,0
935,4700150045984,新規,0,2022-09-29,2015-10-09,袋井市文化協会グループ,,その他,静岡県,袋井市,上山梨４丁目３番地の７袋井市月見の里学遊館内,,22,216,4370125,,,,,,,2015-10-09,1,,,,,フクロイシブンカキヨウカイグループ,0
936,4700150109269,新規,0,2022-09-29,2022-06-07,アルプス音楽団,,その他,千葉県,市川市,原木３丁目１３－９－６１１,,12,203,2720004,,,,,,,2022-06-07,1,,,,,アルプスオンガクダン,0
937,4700150111646,新規,0,2022-09-29,2022-09-07,ムジクス　キワダ,,その他,東京都,墨田区,八広６丁目５２－１５－３０７,,13,107,1310041,,,,,,,2022-09-07,1,,,,,ムジクスキワダ,0
938,4700150111976,新規,0,2022-09-29,2022-09-29,亡高橋美加相続財産法人,,その他,埼玉県,川口市,南鳩ヶ谷７丁目１９－９,,11,203,3340013,,,,,,,2022-09-29,1,,,,,ナキタカハシミカソウゾクザイサンホウジン,0
943,5010001229673,新規,0,2022-09-29,2022-09-29,モートジャパン株式会社,,株式会社,東京都,中央区,明石町１番３号明石町ツインクロス５１０,,13,102,1040044,,,,,,,2022-09-29,1,,,,,モートジャパン,0
944,5010001229707,新規,0,2022-09-29,2022-09-29,株式会社オンフリーク,,株式会社,東京都,中央区,銀座４丁目８番１１号善隣ビル５階,,13,102,1040061,,,,,,,2022-09-29,1,,,,,オンフリーク,0
945,5010001229789,新規,0,2022-09-29,2022-09-29,株式会社カトマンズ,,株式会社,東京都,千代田区,神田紺屋町４７番地,,13,101,1010035,,,,,,,2022-09-29,1,,,,,カトマンズ,0
950,5010003038742,新規,0,2022-09-29,2022-09-29,合同会社メロディー,,合同会社,東京都,千代田区,富士見２丁目１０番３－１５０３号,,13,101,1020071,,,,,,,2022-09-29,1,,,,,メロディー,0
951,5010003038759,新規,0,2022-09-29,2022-09-29,富士合同会社,,合同会社,東京都,中央区,銀座７丁目１３番６号２階,,13,102,1040061,,,,,,,2022-09-29,1,,,,,フジ,0
962,5010403028491,新規,0,2022-09-29,2022-09-29,合同会社香川経営研究,,合同会社,東京都,港区,浜松町２丁目２番１５号浜松町ダイヤビル２Ｆ,,13,103,1050013,,,,,,,2022-09-29,1,,,,,カガワケイエイケンキュウ,0
968,5010601061906,新規,0,2022-09-29,2022-09-29,株式会社Ｉ．Ｔ．Ｋ．,,株式会社,東京都,墨田区,立川２丁目１０番５号,,13,107,1300023,,,,,,,2022-09-29,1,,,,,アイティケイ,0
969,5010603009746,新規,0,2022-09-29,2022-09-29,合同会社ＫＡＭＩＬＬＡ,,合同会社,東京都,江東区,亀戸２丁目１番２１－２０１号,,13,108,1360071,,,,,,,2022-09-29,1,,,,,カミーラ,0
977,5011001149993,新規,0,2022-09-29,2022-09-29,株式会社シェリー・アーツ,,株式会社,東京都,目黒区,目黒本町２丁目１１番１５号,,13,110,1520002,,,,,,,2022-09-29,1,,,,,シェリーアーツ,0
984,5011105010424,新規,0,2022-09-29,2022-09-29,一般社団法人ＭＤＳ連絡会,,その他の設立登記法人,東京都,新宿区,馬場下町４２番地,,13,104,1620045,,,,,,,2022-09-29,1,,,,,エムディーエスレンラクカイ,0
988,5011501028490,新規,0,2022-09-29,2022-09-29,株式会社ＴＨＩＮＧＹＡＮ　ＣＯＲＮＥＲ,,株式会社,東京都,荒川区,南千住５丁目９番６－１０２号,,13,118,1160003,,,,,,,2022-09-29,1,,,,,ティンジャンコーナー,0
989,5011501028508,新規,0,2022-09-29,2022-09-29,Ｇｌｏｂａｌ　Ｂｅａｕｔｙ　Ｔｅｃｈｎｏｌｏｇｙ株式会社,,株式会社,東京都,荒川区,南千住３丁目２７－２浅草ビル,,13,118,1160003,,,,,,,2022-09-29,1,,,,,グローバルビューティーテクノロジー,0
990,5011503005298,新規,0,2022-09-29,2022-09-29,ＦＴＫ合同会社,,合同会社,東京都,北区,神谷２丁目１３－１１,,13,117,1150043,,,,,,,2022-09-29,1,,,,,エフティーケー,0
993,5012303001727,新規,0,2022-09-29,2022-09-29,きりん合同会社,,合同会社,東京都,町田市,原町田３丁目３番２７－９０８号,,13,209,1940013,,,,,,,2022-09-29,1,,,,,キリン,0
996,5012701017267,新規,0,2022-09-29,2022-09-29,リタシード株式会社,,株式会社,東京都,小平市,花小金井４丁目１０番２９－２０４号,,13,211,1870002,,,,,,,2022-09-29,1,,,,,リタシード,0
1009,5020003022472,新規,0,2022-09-29,2022-09-29,合同会社ＨＡＰＰＹ　ＳＷＩＮＧ,,合同会社,神奈川県,川崎市多摩区,宿河原２丁目３１番１１号セキセイハイツ１０５,,14,135,2140021,,,,,,,2022-09-29,1,,,,,ハッピースイング,0
1013,5021003012190,新規,0,2022-09-29,2022-09-29,合同会社ｎｅｔｔ,,合同会社,神奈川県,相模原市緑区,大島２８７１番,,14,151,2520135,,,,,,,2022-09-29,1,,,,,ネット,0
1014,5021003012199,新規,0,2022-09-29,2022-09-29,合同会社キッズすまいる＆Ａ,,合同会社,神奈川県,横須賀市,森崎３丁目６番４号,,14,201,2380023,,,,,,,2022-09-29,1,,,,,キッズスマイルアンドエー,0
1022,5030003020277,新規,0,2022-09-29,2022-09-29,合同会社エクイティ,,合同会社,埼玉県,さいたま市大宮区,桜木町１丁目２６６－３番地,,11,103,3300854,,,,,,,2022-09-29,1,,,,,エクイティ,0
1029,5040001125201,新規,0,2022-09-29,2022-09-29,株式会社ｓｕｍｉｓａｔ,,株式会社,千葉県,八千代市,緑が丘西４丁目５番地１,,12,221,2760040,,,,,,,2022-09-29,1,,,,,スミサ,0
1034,5040003020887,新規,0,2022-09-29,2022-09-29,合同会社伝康,,合同会社,千葉県,八千代市,大和田新田４５１番地３１,,12,221,2760046,,,,,,,2022-09-29,1,,,,,デンコウ,0
1038,5060001035299,新規,0,2022-09-29,2022-09-29,株式会社るみなす,,株式会社,栃木県,小山市,大字羽川３７０番地１６,,09,208,3230012,,,,,,,2022-09-29,1,,,,,ルミナス,0
1041,5070001039679,新規,0,2022-09-29,2022-09-29,ＦＵＳＩＯＮ株式会社,,株式会社,群馬県,前橋市,敷島町２５９番地４,,10,201,3710036,,,,,,,2022-09-29,1,,,,,フュージョン,0
1043,5070003004631,新規,0,2022-09-29,2022-09-29,合同会社ＳＡＮＩＲＯ　ＥＮＴＥＲＰＲＩＳＥＳ,,合同会社,群馬県,みどり市,大間々町桐原９９５番地１,,10,212,3760102,,,,,,,2022-09-29,1,,,,,サニロエンタープライセス,0
1044,5080001025208,新規,0,2022-09-29,2022-09-29,株式会社ｔｏＲｉｐｐｌｅ,,株式会社,静岡県,静岡市葵区,伝馬町９番地の４,,22,101,4200858,,,,,,,2022-09-29,1,,,,,トリプル,0
1047,5080101023540,新規,0,2022-09-29,2022-09-29,株式会社ツナグデザイン,,株式会社,静岡県,駿東郡長泉町,中土狩７３９番地の４,,22,342,4110942,,,,,,,2022-09-29,1,,,,,ツナグデザイン,0
1048,5080103002658,新規,0,2022-09-29,2022-09-29,合同会社ふじの紀,,合同会社,静岡県,三島市,青木３３２番地の２２,,22,206,4110811,,,,,,,2022-09-29,1,,,,,フジノキ,0
1072,5120001249099,新規,0,2022-09-29,2022-09-29,株式会社ジュリ,,株式会社,大阪府,大阪市生野区,小路東４丁目１５番２１号,,27,116,5440003,,,,,,,2022-09-29,1,,,,,ジュリ,0
1073,5120001249149,新規,0,2022-09-29,2022-09-29,ＨＳ株式会社,,株式会社,大阪府,大阪市西成区,橘２丁目７番９号,,27,122,5570051,,,,,,,2022-09-29,1,,,,,エイチエス,0
1081,5130001072681,新規,0,2022-09-29,2022-09-29,株式会社いとしのホーム,,株式会社,京都府,京都市右京区,嵯峨柳田町１８番地タウン嵐山ＩＩＩ２０１号室,00127955,26,108,6168363,,,,,,,2022-09-29,1,,,,,イトシノホーム,0
1086,5140001127492,新規,0,2022-09-29,2022-09-29,株式会社ＫＡＰＥＲＡ,,株式会社,兵庫県,芦屋市,業平町６番３４－１０９号,,28,206,6590068,,,,,,,2022-09-29,1,,,,,カペラ,0
1090,5160003002683,新規,0,2022-09-29,2022-09-29,ＰＭＢヴィトエム合同会社,,合同会社,滋賀県,野洲市,南櫻１７６８番地,,25,210,5202322,,,,,,,2022-09-29,1,,,,,ピーエムビーヴィトエム,0
1091,5160005011121,新規,0,2022-09-29,2022-09-29,特定非営利活動法人えび寿,,その他の設立登記法人,滋賀県,米原市,上多良９４５番地,,25,214,5210002,,,,,,,2022-09-29,1,,,,,エビス,0
1100,5180301036662,新規,0,2022-09-29,2022-09-29,株式会社ａｃｃｏｎ,,株式会社,愛知県,豊橋市,西岩田２丁目１０番地１１,,23,201,4400831,,,,,,,2022-09-29,1,,,,,アッコン,0
1102,5190001029791,新規,0,2022-09-29,2022-09-29,株式会社ＱＵＡＲＩＳ,,株式会社,三重県,津市,大門１８番１１号ＡＫＡＴＳＵＫＩビル１－８号室,,24,201,5140027,,,,,,,2022-09-29,1,,,,,クオリス,0
1106,5200001040474,新規,0,2022-09-29,2022-09-29,株式会社ＡＧＫ,,株式会社,岐阜県,山県市,東深瀬８５２番地,,21,215,5012104,,,,,,,2022-09-29,1,,,,,エージーケイ,0
1121,5240003005819,新規,0,2022-09-29,2022-09-29,合名会社Ｍ＆Ｋ,,合名会社,広島県,東広島市,高屋町稲木２９１番地６９,,34,212,7392106,,,,,,,2022-09-29,1,,,,,エムアンドケイ,0
1127,5260001037267,新規,0,2022-09-29,2022-09-29,株式会社ＴＮＡ,,株式会社,岡山県,総社市,井手５７９番地５,,33,208,7191125,,,,,,,2022-09-29,1,,,,,ティーエヌエー,0
1135,5290003012967,新規,0,2022-09-29,2022-09-29,合同会社ｓｐｒｉｎｇｃｈｅｒｒｙ,,合同会社,福岡県,糟屋郡粕屋町,阿恵４５０番地１コーポマロニエＣ１０４,,40,349,8112300,,,,,,,2022-09-29,1,,,,,スプリングチェリー,0
1136,5290003012983,新規,0,2022-09-29,2022-09-29,合同会社ＮＧＯＣ　ＤＩＥＰ,,合同会社,福岡県,福岡市南区,大楠３丁目２番１８－４０３号メゾン・ド・ファシル,,40,134,8150082,,,,,,,2022-09-29,1,,,,,ゴックジェップ,0
1137,5290003012991,新規,0,2022-09-29,2022-09-29,合同会社コトブキ,,合同会社,福岡県,福岡市東区,千早４丁目１１番２０－６０７号プライムアーバン千早,,40,131,8130044,,,,,,,2022-09-29,1,,,,,コトブキ,0
1142,5310001018039,新規,0,2022-09-29,2022-09-29,株式会社水脈,,株式会社,長崎県,島原市,有明町湯江甲２６３番地,,42,203,8591401,,,,,,,2022-09-29,1,,,,,ミオ,0
1143,5310001018047,新規,0,2022-09-29,2022-09-29,株式会社ｈａｎｄｏｎ,,株式会社,長崎県,佐世保市,湊町２番８号石井ビル２階,,42,202,8570055,,,,,,,2022-09-29,1,,,,,ハンドン,0
1147,5340001025057,新規,0,2022-09-29,2022-09-29,中村工建株式会社,,株式会社,鹿児島県,鹿児島市,東谷山７丁目８番５号,,46,201,8910113,,,,,,,2022-09-29,1,,,,,ナカムラコウケン,0
1150,5360001031004,新規,0,2022-09-29,2022-09-29,株式会社とれらんちゅ,,株式会社,沖縄県,那覇市,高良３丁目３番１９号,,47,201,9010145,,,,,,,2022-09-29,1,,,,,トレランチュ,0
1162,5410003003706,新規,0,2022-09-29,2022-09-29,合同会社Ｔｈｕｎｄｅｒｓ,,合同会社,秋田県,秋田市,東通１丁目３番２３号山善ビル２－１,,05,201,0100003,,,,,,,2022-09-29,1,,,,,サンダース,0
1172,5430001087542,新規,0,2022-09-29,2022-09-29,札幌骨材販売株式会社,,株式会社,北海道,札幌市清田区,里塚緑ケ丘６丁目２３番６号,,01,110,0040805,,,,,,,2022-09-29,1,,,,,サッポロコツザイハンバイ,0
1173,5430003014313,新規,0,2022-09-29,2022-09-29,Ｋ．Ｂ．Ｐ合同会社,,合同会社,北海道,札幌市中央区,南一条西１６丁目１番地３２３春野ビル３Ｆ,,01,101,0600061,,,,,,,2022-09-29,1,,,,,ケービーピー,0
1177,5700150109219,新規,0,2022-09-29,2022-06-07,ものがたりグループ☆ポランの会,,その他,東京都,中野区,新井２丁目６－３セーナ中野５０３号,,13,114,1650026,,,,,,,2022-06-07,1,,,,,モノガタリグループポランノカイ,0
1178,5700150111711,新規,0,2022-09-29,2022-09-16,平取乳牛検定組合,,その他,北海道,沙流郡平取町,本町４０－１,,01,602,0550107,,,,,,,2022-09-16,1,,,,,ビラトリニユウギユウケンテイクミアイ,0
1188,6010001229714,新規,0,2022-09-29,2022-09-29,光宗ホールディングス株式会社,,株式会社,東京都,千代田区,内神田１丁目６番１０号,,13,101,1010047,,,,,,,2022-09-29,1,,,,,ミツムネホールディングス,0
1189,6010001229788,新規,0,2022-09-29,2022-09-29,ＳＩホールディングス株式会社,,株式会社,東京都,千代田区,丸の内１丁目９番１号,,13,101,1000005,,,,,,,2022-09-29,1,,,,,エスアイホールディングス,0
1190,6010001229813,新規,0,2022-09-29,2022-09-29,株式会社ｃｏｃｏｒｅｅｒ,,株式会社,東京都,中央区,新富１丁目１５－１４相互新富ビル５０７,,13,102,1040041,,,,,,,2022-09-29,1,,,,,ココリア,0
1193,6010005035596,新規,0,2022-09-29,2022-09-29,一般財団法人カルチャー・コミュニティ・ネットワーク財団,,その他の設立登記法人,東京都,千代田区,永田町２丁目１１番１号山王パークタワー３階,,13,101,1000014,,,,,,,2022-09-29,1,,,,,カルチャーコミュニティネットワークザイダン,0
1198,6010401169881,新規,0,2022-09-29,2022-09-29,株式会社Ａｃｔｉｖａｔｉｏｎ　Ｒｅｓｅａｒｃｈ　Ｌａｂ,,株式会社,東京都,港区,南青山３丁目１番３６号青山丸竹ビル６階,,13,103,1070062,,,,,,,2022-09-29,1,,,,,アクティベーションリサーチラボ,0
1199,6010403028516,新規,0,2022-09-29,2022-09-29,合同会社ｍｉｚｕ,,合同会社,東京都,港区,芝浦４丁目２番２２－１３０２号,,13,103,1080023,,,,,,,2022-09-29,1,,,,,ミズ,0
1200,6010403028565,新規,0,2022-09-29,2022-09-29,加美宮崎風力合同会社,,合同会社,東京都,港区,虎ノ門２丁目１０番４号オークラプレステージタワー,,13,103,1050001,,,,,,,2022-09-29,1,,,,,カミミヤザキフウリョク,0
1201,6010405021436,新規,0,2022-09-29,2022-09-29,柘榴一般社団法人,,その他の設立登記法人,東京都,港区,西新橋１丁目１番１号ＥＰコンサルティングサービス内,,13,103,1050003,,,,,,,2022-09-29,1,,,,,ザクロ,0
1206,6010703006394,新規,0,2022-09-29,2022-09-29,合同会社ＩＡＢ,,合同会社,東京都,品川区,東五反田３丁目２番１２号ウイングヒルズ高輪台２０８,,13,109,1410022,,,,,,,2022-09-29,1,,,,,アイエービー,0
1219,6011001149992,新規,0,2022-09-29,2022-09-29,ｍａｇｏ文化伝媒株式会社,,株式会社,東京都,渋谷区,恵比寿１丁目２３番１５－９０１号,,13,113,1500013,,,,,,,2022-09-29,1,,,,,マゴブンカデンバイ,0
1222,6011101100327,新規,0,2022-09-29,2022-09-29,株式会社万林,,株式会社,東京都,新宿区,箪笥町３番地,,13,104,1620833,,,,,,,2022-09-29,1,,,,,バンリン,0
1223,6011201024120,新規,0,2022-09-29,2022-09-29,株式会社オフィス開幕,,株式会社,東京都,中野区,上高田４丁目１７番１－８１４号,,13,114,1640002,,,,,,,2022-09-29,1,,,,,オフィスカイマク,0
1224,6011201024129,新規,0,2022-09-29,2022-09-29,イマジン株式会社,,株式会社,東京都,中野区,中野５丁目４３番１０号リバティヒルズ中野４０１,,13,114,1640001,,,,,,,2022-09-29,1,,,,,イマジン,0
1225,6011303004532,新規,0,2022-09-29,2022-09-29,Ｄｉｇｉｔａｌ　Ｔｒｕｓｔ合同会社,,合同会社,東京都,杉並区,天沼３丁目１８番３号グリーンパーク荻窪３０１,,13,115,1670032,,,,,,,2022-09-29,1,,,,,デジタルトラスト,0
1231,6011501028507,新規,0,2022-09-29,2022-09-29,宮古集株式会社,,株式会社,東京都,荒川区,南千住３丁目２７－２浅草ビル５０８号室,,13,118,1160003,,,,,,,2022-09-29,1,,,,,ミヤコシュウ,0
1232,6011503005297,新規,0,2022-09-29,2022-09-29,合同会社ＣＲＥＡＭ,,合同会社,東京都,北区,赤羽１丁目３６番１０号サンヨー本社ビル４階,,13,117,1150045,,,,,,,2022-09-29,1,,,,,クリーム,0
1234,6012303001726,新規,0,2022-09-29,2022-09-29,合同会社ハイ・ブリッジ,,合同会社,東京都,町田市,金井７丁目３番３２号,,13,209,1950072,,,,,,,2022-09-29,1,,,,,ハイブリッジ,0
1237,6012403005602,新規,0,2022-09-29,2022-09-29,合同会社スマートライフ,,合同会社,東京都,武蔵野市,関前３丁目４番１９号,,13,203,1800014,,,,,,,2022-09-29,1,,,,,スマートライフ,0
1248,6020001148343,新規,0,2022-09-29,2022-09-29,株式会社ｗａｋｅＵＰ,,株式会社,神奈川県,横浜市神奈川区,青木町７番地６広洋フォルム８０２号室,,14,102,2210057,,,,,,,2022-09-29,1,,,,,ウェイクアップ,0
1250,6020003022471,新規,0,2022-09-29,2022-09-29,ＧｏＳｕｎ合同会社,,合同会社,神奈川県,横浜市港南区,日野南６丁目３０番７号スカイコート横浜港南台Ｂ１０１,,14,111,2340055,,,,,,,2022-09-29,1,,,,,ゴーサン,0
1261,6030001150257,新規,0,2022-09-29,2022-09-29,株式会社ツヨシ,,株式会社,埼玉県,川口市,並木２丁目１４－１－８０１号クリオ西川口参番館,,11,203,3320034,,,,,,,2022-09-29,1,,,,,ツヨシ,0
1262,6030001150281,新規,0,2022-09-29,2022-09-29,株式会社吉運商事,,株式会社,埼玉県,春日部市,豊町２丁目１１番２２号,,11,214,3440066,,,,,,,2022-09-29,1,,,,,キチウンショウジ,0
1279,6050001051726,新規,0,2022-09-29,2022-09-29,ＳＵＬＴＡＮ　ＴＲＡＤＩＮＧ株式会社,,株式会社,茨城県,常陸大宮市,下檜沢字房ノ内３５１３番,,08,225,3192512,,,,,,,2022-09-29,1,,,,,サルタントレーディング,0
1285,6070001039678,新規,0,2022-09-29,2022-09-29,株式会社高橋企画,,株式会社,群馬県,前橋市,六供町１２０５番地１,,10,201,3710804,,,,,,,2022-09-29,1,,,,,タカハシキカク,0
1286,6070001039694,新規,0,2022-09-29,2022-09-29,株式会社レイバーサービス,,株式会社,群馬県,桐生市,広沢町４丁目１９８４番地１７,,10,203,3760013,,,,,,,2022-09-29,1,,,,,レイバーサービス,0
1288,6080001025198,新規,0,2022-09-29,2022-09-29,清水商事株式会社,,株式会社,静岡県,静岡市清水区,折戸１丁目９番３号,,22,103,4240902,,,,,,,2022-09-29,1,,,,,シミズショウジ,0
1291,6080401026060,新規,0,2022-09-29,2022-09-29,株式会社Ｄｅｐａｒｔｕｒｅ,,株式会社,静岡県,浜松市中区,城北２丁目２８番１４号,,22,131,4328011,,,,,,,2022-09-29,1,,,,,ディパーチャー,0
1293,6110001036984,新規,0,2022-09-29,2022-09-29,えちてんリニューアブルエナジー株式会社,,株式会社,新潟県,新潟市秋葉区,新津４５１６番地,,15,105,9560031,,,,,,,2022-09-29,1,,,,,エチテンリニューアブルエナジー,0
1294,6110001036992,新規,0,2022-09-29,2022-09-29,株式会社Ｌｉｖｏｎ舎,,株式会社,新潟県,新潟市中央区,窪田町１丁目４７番地,,15,103,9518008,,,,,,,2022-09-29,1,,,,,リボンシャ,0
1302,6120001248901,新規,0,2022-09-29,2022-09-29,株式会社リーフ,,株式会社,大阪府,大阪市都島区,片町２丁目９番３３号毎日ビル１Ｂ,,27,102,5340025,,,,,,,2022-09-29,1,,,,,リーフ,0
1303,6120001249107,新規,0,2022-09-29,2022-09-29,すきま産業株式会社,,株式会社,大阪府,大阪市淀川区,西中島５丁目７番２５－１００４号,,27,123,5320011,,,,,,,2022-09-29,1,,,,,スキマサンギョウ,0
1304,6120001249115,新規,0,2022-09-29,2022-09-29,希工業株式会社,,株式会社,大阪府,大阪市天王寺区,生玉町２番２４号,,27,109,5430071,,,,,,,2022-09-29,1,,,,,ノゾミコウギョウ,0
1305,6120001249123,新規,0,2022-09-29,2022-09-29,石上システム株式会社,,株式会社,大阪府,大阪市北区,曾根崎新地１丁目１番１７号,,27,127,5300002,,,,,,,2022-09-29,1,,,,,イシガミシステム,0
1310,6130001072706,新規,0,2022-09-29,2022-09-29,株式会社ＢＥＥ２１,,株式会社,京都府,京都市右京区,北嵯峨名古曽町３４番地,,26,108,6168405,,,,,,,2022-09-29,1,,,,,ビートゥエンティーワン,0
1317,6140001127450,新規,0,2022-09-29,2022-09-29,ＴＡＴＵＭＩ株式会社,,株式会社,兵庫県,姫路市,飾東町佐良和１９５番地１４,,28,201,6710217,,,,,,,2022-09-29,1,,,,,タツミ,0
1318,6140001127467,新規,0,2022-09-29,2022-09-29,株式会社プラットフォーム,,株式会社,兵庫県,宝塚市,鹿塩２丁目１番４－１０１号,,28,214,6650054,,,,,,,2022-09-29,1,,,,,プラットフォーム,0
1325,6150001025835,新規,0,2022-09-29,2022-09-29,奈良ＦＴ株式会社,,株式会社,奈良県,香芝市,西真美３丁目５番１号,,29,210,6390222,,,,,,,2022-09-29,1,,,,,ナラエフティー,0
1327,6160001024530,新規,0,2022-09-29,2022-09-29,安土不動産株式会社,,株式会社,滋賀県,近江八幡市,北之庄町１３４５番地７,,25,204,5230806,,,,,,,2022-09-29,1,,,,,アヅチフドウサン,0
1328,6170001017293,新規,0,2022-09-29,2022-09-29,株式会社和歌山トラックメンテナンス,,株式会社,和歌山県,和歌山市,園部１１７６番地５,,30,201,6408483,,,,,,,2022-09-29,1,,,,,ワカヤマトラックメンテナンス,0
1334,6180301036661,新規,0,2022-09-29,2022-09-29,株式会社一二三エンジニアリング,,株式会社,愛知県,岡崎市,明大寺町字大圦１５番地１,,23,202,4440865,,,,,,,2022-09-29,1,,,,,ヒフミエンジニアリング,0
1336,6190001029782,新規,0,2022-09-29,2022-09-29,ＫＩＭ・ＪＡＰＡＮホールディングス株式会社,,株式会社,三重県,四日市市,生桑町３２８番地,,24,202,5120911,,,,,,,2022-09-29,1,,,,,ケイアイエムジャパンホールディングス,0
1339,6200001040449,新規,0,2022-09-29,2022-09-29,加藤ＴＭホールディングス株式会社,,株式会社,岐阜県,揖斐郡池田町,沓井権現１２５８番地の２,,21,404,5032401,,,,,,,2022-09-29,1,,,,,カトウティーエムホールディングス,0
1340,6200001040473,新規,0,2022-09-29,2022-09-29,株式会社ローカル,,株式会社,岐阜県,関市,植野５１７番地１,,21,205,5013951,,,,,,,2022-09-29,1,,,,,ローカル,0
1341,6200001040481,新規,0,2022-09-29,2022-09-29,トイレス工業株式会社,,株式会社,岐阜県,羽島郡岐南町,上印食３丁目４９番地,,21,302,5016001,,,,,,,2022-09-29,1,,,,,トイレスコウギョウ,0
1347,6250003003151,新規,0,2022-09-29,2022-09-29,合同会社あさひ,,合同会社,山口県,下関市,長府中土居北町１２番２２－１号,,35,201,7520963,,,,,,,2022-09-29,1,,,,,アサヒ,0
1349,6280001008785,新規,0,2022-09-29,2022-09-29,株式会社ワタケン,,株式会社,島根県,松江市,上乃木４丁目５番２６号,,32,201,6900015,,,,,,,2022-09-29,1,,,,,ワタケン,0
1354,6290001098999,新規,0,2022-09-29,2022-09-29,株式会社ＷＥＳＴ　ＢＡＳＥ,,株式会社,福岡県,福岡市博多区,吉塚４丁目５－２８,,40,132,8120041,,,,,,,2022-09-29,1,,,,,ウエストベース,0
1355,6290001099007,新規,0,2022-09-29,2022-09-29,株式会社ＬＩＢ,,株式会社,福岡県,福岡市早良区,次郎丸３丁目１８番１５号,,40,137,8140165,,,,,,,2022-09-29,1,,,,,エルアイビー,0
1356,6290001099015,新規,0,2022-09-29,2022-09-29,株式会社孝設,,株式会社,福岡県,古賀市,薦野１９３７番地１４,,40,223,8113122,,,,,,,2022-09-29,1,,,,,コウセツ,0
1358,6290005018813,新規,0,2022-09-29,2022-09-29,六本松南社会保険労務士法人,,その他の設立登記法人,福岡県,福岡市博多区,堅粕３丁目８番１号９棟３０６,,40,132,8120043,,,,,,,2022-09-29,1,,,,,ロッポンマツミナミ,0
1360,6290801028916,新規,0,2022-09-29,2022-09-29,株式会社八幡損調サービス,,株式会社,福岡県,北九州市小倉北区,井堀２丁目７番１０－６０５号,,40,106,8030835,,,,,,,2022-09-29,1,,,,,ヤハタソンチョウサービス,0
1361,6310001018046,新規,0,2022-09-29,2022-09-29,株式会社ｄｋプランニング,,株式会社,長崎県,西彼杵郡時津町,浦郷３０１番地１６中村ビル２Ｆ,,42,308,8512105,,,,,,,2022-09-29,1,,,,,ディーケイプランニング,0
1375,6430001087541,新規,0,2022-09-29,2022-09-29,株式会社北海道グラウンドワークス,,株式会社,北海道,札幌市南区,川沿三条２丁目２番５号,,01,106,0050803,,,,,,,2022-09-29,1,,,,,ホッカイドウグラウンドワークス,0
1376,6430003014312,新規,0,2022-09-29,2022-09-29,合同会社苫小牧商店,,合同会社,北海道,苫小牧市,音羽町１丁目９番１８号メゾン音羽３０３号室,,01,213,0530044,,,,,,,2022-09-29,1,,,,,トマコマイショウテン,0
1378,6440005002735,新規,0,2022-09-29,2022-09-29,医療法人社団みさわ歯科口腔外科クリニック,,その他の設立登記法人,北海道,函館市,桔梗町五丁目１４番１号,,01,202,0410801,,,,,,,2022-09-29,1,,,,,ミサワシカコウクウゲカクリニック,0
1379,6450001013801,新規,0,2022-09-29,2022-09-29,株式会社タカトシホーム,,株式会社,北海道,旭川市,大町二条１０丁目１７３番地の４６,,01,204,0700842,,,,,,,2022-09-29,1,,,,,タカトシホーム,0
1381,6470005006469,新規,0,2022-09-29,2022-09-29,一般社団法人ウスミシュカ,,その他の設立登記法人,香川県,高松市,牟礼町牟礼２２４６番地,,37,201,7610121,,,,,,,2022-09-29,1,,,,,ウスミシュカ,0
1382,6700150109507,新規,0,2022-09-29,2022-06-13,華宝會,,その他,東京都,西東京市,保谷町３丁目２０－２,,13,229,2020015,,,,,,,2022-06-13,1,,,,,カホウカイ,0
1383,6700150111512,新規,0,2022-09-29,2022-09-29,天津聖泰納国際貿易有限公司,,外国会社等,,,,,,,,中国天津市浜海高新区浜海科技園風光大道１２号総合楼２０３室,,,,,,2022-09-29,1,,,,,テンシンセイタイノウコクサイボウエキユウゲンコウシ,0
1384,7010001229795,新規,0,2022-09-29,2022-09-29,株式会社エッジファーストジャパン,,株式会社,東京都,中央区,日本橋浜町１丁目１１番３号ヴィップ日本橋浜町８Ｆ,,13,102,1030007,,,,,,,2022-09-29,1,,,,,エッジファーストジャパン,0
1398,7010401169947,新規,0,2022-09-29,2022-09-29,株式会社クリニック．ｃｏｍ,,株式会社,東京都,港区,虎ノ門４丁目３番１号,,13,103,1050001,,,,,,,2022-09-29,1,,,,,クリニックドットコム,0
1399,7010405021435,新規,0,2022-09-29,2022-09-29,山吹一般社団法人,,その他の設立登記法人,東京都,港区,西新橋１丁目１番１号ＥＰコンサルティングサービス内,,13,103,1050003,,,,,,,2022-09-29,1,,,,,ヤマブキ,0
1400,7010601061912,新規,0,2022-09-29,2022-09-29,Ｆｉｒｅ　Ｌａｂｏ株式会社,,株式会社,東京都,江東区,新大橋２丁目１５番３号飯田ビル４０２号室,,13,108,1350007,,,,,,,2022-09-29,1,,,,,ファイヤーラボ,0
1416,7011001149942,新規,0,2022-09-29,2022-09-29,株式会社ロアナ,,株式会社,東京都,渋谷区,松濤１丁目２８－２ワークコート渋谷松濤Ａ１８７,,13,113,1500046,,,,,,,2022-09-29,1,,,,,ロアナ,0
1418,7011005009762,新規,0,2022-09-29,2022-09-29,一般社団法人桜友会,,その他の設立登記法人,東京都,目黒区,東が丘１丁目１８番１８号,,13,110,1520021,,,,,,,2022-09-29,1,,,,,オウユウカイ,0
1427,7011103012214,新規,0,2022-09-29,2022-09-29,合同会社ホワイト,,合同会社,東京都,新宿区,西新宿８丁目１３番１号,,13,104,1600023,,,,,,,2022-09-29,1,,,,,ホワイト,0
1432,7011501028506,新規,0,2022-09-29,2022-09-29,株式会社エコバリ,,株式会社,東京都,北区,志茂３丁目４１番２号,,13,117,1150042,,,,,,,2022-09-29,1,,,,,エコバリ,0
1433,7011501028514,新規,0,2022-09-29,2022-09-29,株式会社経営芸術総合研究所,,株式会社,東京都,荒川区,荒川６丁目７番４号ＡＫビル２０４号室,,13,118,1160002,,,,,,,2022-09-29,1,,,,,ケイエイゲイジュツソウゴウケンキュウジョ,0
1440,7012303001725,新規,0,2022-09-29,2022-09-29,合同会社ワイエス,,合同会社,東京都,町田市,本町田１７８６番地４１,,13,209,1940032,,,,,,,2022-09-29,1,,,,,ワイエス,0
1442,7012401039683,新規,0,2022-09-29,2022-09-29,株式会社ＷＥＧＲＯ,,株式会社,東京都,三鷹市,牟礼１丁目４番１－１０６号,,13,204,1810002,,,,,,,2022-09-29,1,,,,,ウィグロ,0
1455,7020005015670,新規,0,2022-09-29,2022-09-29,特定非営利活動法人ライフキャリアの扉,,その他の設立登記法人,神奈川県,横浜市神奈川区,鶴屋町２丁目２１番地８第１安田ビル６階,,14,102,2210835,,,,,,,2022-09-29,1,,,,,,0
1459,7021005012625,新規,0,2022-09-29,2022-09-29,一般社団法人地域医療構想研究所,,その他の設立登記法人,神奈川県,相模原市緑区,大島字下沖原１７５２番地,,14,151,2520135,,,,,,,2022-09-29,1,,,,,チイキイリョウコウソウケンキュウジョ,0
1468,7030001150248,新規,0,2022-09-29,2022-09-29,ｌａｂｒｅ株式会社,,株式会社,埼玉県,さいたま市浦和区,上木崎１丁目２番１号フロントシティ与野１０１号,,11,107,3300071,,,,,,,2022-09-29,1,,,,,ラブレ,0
1469,7030001150256,新規,0,2022-09-29,2022-09-29,株式会社ＭＡＭＯ,,株式会社,埼玉県,川口市,戸塚東２丁目１番１１号フラワーハイムローズ２０５号,,11,203,3330802,,,,,,,2022-09-29,1,,,,,マモ,0
1473,7030003020283,新規,0,2022-09-29,2022-09-29,オンライン講師養成スクール合同会社,,合同会社,埼玉県,日高市,大字北平沢１６７４番地,,11,242,3501242,,,,,,,2022-09-29,1,,,,,オンラインコウシヨウセイスクール,0
1476,7050003006883,新規,0,2022-09-29,2022-09-29,ＴＩＹＯＳＨＩ　ＩＮＴＥＲＮＡＴＩＯＮＡＬ合同会社,,合同会社,茨城県,下妻市,高道祖４２２１番地５３,,08,210,3040031,,,,,,,2022-09-29,1,,,,,ティヨシインターナショナル,0
1477,7070001039677,新規,0,2022-09-29,2022-09-29,株式会社ライフライン３６５,,株式会社,群馬県,みどり市,大間々町大間々１３７５番地,,10,212,3760101,,,,,,,2022-09-29,1,,,,,ライフラインサンロクゴ,0
1479,7080001025206,新規,0,2022-09-29,2022-09-29,白須設備株式会社,,株式会社,静岡県,藤枝市,兵太夫２００番地の３,,22,214,4260042,,,,,,,2022-09-29,1,,,,,シラスセツビ,0
1482,7080101023539,新規,0,2022-09-29,2022-09-29,コモエスタ株式会社,,株式会社,静岡県,沼津市,大手町４丁目１番２０号,,22,203,4100801,,,,,,,2022-09-29,1,,,,,コモエスタ,0
1485,7090003002169,新規,0,2022-09-29,2022-09-29,合同会社ＭＧ山梨,,合同会社,山梨県,山梨市,下石森６３９番地の５,,19,205,4050015,,,,,,,2022-09-29,1,,,,,エムジーヤマナシ,0
1487,7100001035730,新規,0,2022-09-29,2022-09-29,株式会社ＭｅｄＳｃｉＳｐｏｒｔＬａｂ,,株式会社,長野県,松本市,本庄２丁目３－１２山田ビル３０１号,,20,202,3900814,,,,,,,2022-09-29,1,,,,,メッドサイスポートラボ,0
1502,7120001249097,新規,0,2022-09-29,2022-09-29,ＭＡＣ株式会社,,株式会社,大阪府,大阪市平野区,加美北１丁目１６番２－３０１室,,27,126,5470001,,,,,,,2022-09-29,1,,,,,マック,0
1503,7120001249147,新規,0,2022-09-29,2022-09-29,ノアエンタープライズ株式会社,,株式会社,大阪府,大阪市東成区,東小橋１丁目８番２３号,,27,115,5370024,,,,,,,2022-09-29,1,,,,,ノアエンタープライズ,0
1504,7120003022551,新規,0,2022-09-29,2022-09-29,ファーストリポート合同会社,,合同会社,大阪府,大阪市北区,梅田１丁目１番３号大阪駅前第３ビル２９階１－１－１号室,,27,127,5300001,,,,,,,2022-09-29,1,,,,,ファーストリポート,0
1518,7140001127516,新規,0,2022-09-29,2022-09-29,春一株式会社,,株式会社,兵庫県,神戸市西区,玉津町今津１６１番地の１０,,28,111,6512128,,,,,,,2022-09-29,1,,,,,ハルイチ,0
1522,7140005026326,新規,0,2022-09-29,2022-09-29,一般社団法人ｉ‐ｃｏｉ,,その他の設立登記法人,兵庫県,川西市,小花１丁目８番１号,,28,217,6660015,,,,,,,2022-09-29,1,,,,,イコイ,0
1525,7150001025834,新規,0,2022-09-29,2022-09-29,株式会社グリーン不動産,,株式会社,奈良県,生駒市,東松ケ丘７番１－１０１号,,29,209,6300244,,,,,,,2022-09-29,1,,,,,グリーンフドウサン,0
1537,7180005019945,新規,0,2022-09-29,2022-09-29,一般社団法人ＥＳＣＯＬＡＥＭＡＮＵＥＬ,,その他の設立登記法人,愛知県,半田市,一ノ草町２０２－５,,23,205,4750061,,,,,,,2022-09-29,1,,,,,エスコラエマヌエル,0
1538,7180301036660,新規,0,2022-09-29,2022-09-29,株式会社豊栄,,株式会社,愛知県,豊田市,豊栄町１０丁目２０３番地１,,23,211,4701201,,,,,,,2022-09-29,1,,,,,ホウエイ,0
1548,7200005013391,新規,0,2022-09-29,2022-09-29,一般社団法人西和良まちづくり協議会,,その他の設立登記法人,岐阜県,郡上市,八幡町美山２５２５番地,,21,219,5014452,,,,,,,2022-09-29,1,,,,,ニシワラマチヅクリキョウギカイ,0
1554,7240001060418,新規,0,2022-09-29,2022-09-29,株式会社ＧＩＦＴ,,株式会社,広島県,広島市中区,鉄砲町８－１５八重洲ビル８Ｆ,,34,101,7300017,,,,,,,2022-09-29,1,,,,,ギフト,0
1560,7280001008784,新規,0,2022-09-29,2022-09-29,株式会社リアース,,株式会社,島根県,松江市,富士見町１番地７,,32,201,6900026,,,,,,,2022-09-29,1,,,,,リアース,0
1569,7290001098998,新規,0,2022-09-29,2022-09-29,株式会社ＮＴＳ,,株式会社,福岡県,福岡市東区,馬出２丁目３番３６号,,40,131,8120054,,,,,,,2022-09-29,1,,,,,エヌティーエス,0
1573,7290801028915,新規,0,2022-09-29,2022-09-29,株式会社エヌ・エステートソリューションズ,,株式会社,福岡県,北九州市小倉北区,緑ケ丘２丁目８番２２－３０１号,,40,106,8030827,,,,,,,2022-09-29,1,,,,,エヌエステートソリューションズ,0
1582,7360001030994,新規,0,2022-09-29,2022-09-29,Ｌｉｎｋｓ　Ｍａｎａｇｅｍｅｎｔ株式会社,,株式会社,沖縄県,宜野湾市,野嵩２丁目２－１ＲａｆｆｉｎｅＮｕｄａｋｉ２０４,,47,205,9012203,,,,,,,2022-09-29,1,,,,,リンクマネジメント,0
1589,7430001087557,新規,0,2022-09-29,2022-09-29,株式会社ＮｕＮｕＫａ,,株式会社,北海道,札幌市東区,東雁来八条４丁目５番８号,,01,103,0070828,,,,,,,2022-09-29,1,,,,,ヌヌカ,0
1591,7450001013800,新規,0,2022-09-29,2022-09-29,株式会社ベリーワークジャパン,,株式会社,北海道,旭川市,曙北三条７丁目３番１０号,,01,204,0700073,,,,,,,2022-09-29,1,,,,,ベリーワークジャパン,0
1592,7500001024486,新規,0,2022-09-29,2022-09-29,株式会社シトラスアンドブルー,,株式会社,愛媛県,松山市,道後湯月町２番３６号,,38,201,7900837,,,,,,,2022-09-29,1,,,,,シトラスアンドブルー,0
1598,8010001229794,新規,0,2022-09-29,2022-09-29,株式会社ティーアセット,,株式会社,東京都,千代田区,神田和泉町一丁目７番５号,,13,101,1010024,,,,,,,2022-09-29,1,,,,,ティーアセット,0
1600,8010003038764,新規,0,2022-09-29,2022-09-29,合同会社ＮＥＦＯＴ,,合同会社,東京都,中央区,銀座１丁目１２番４号Ｎ＆ＥＢＬＤ．６Ｆ,,13,102,1040061,,,,,,,2022-09-29,1,,,,,ネフォット,0
1607,8010403028571,新規,0,2022-09-29,2022-09-29,合同会社Ｅｃｈｏ,,合同会社,東京都,港区,虎ノ門５丁目１番４号,,13,103,1050001,,,,,,,2022-09-29,1,,,,,エコー,0
1608,8010405021434,新規,0,2022-09-29,2022-09-29,柴一般社団法人,,その他の設立登記法人,東京都,港区,西新橋１丁目１番１号ＥＰコンサルティングサービス内,,13,103,1050003,,,,,,,2022-09-29,1,,,,,シバ,0
1615,8010601061894,新規,0,2022-09-29,2022-09-29,来福国際株式会社,,株式会社,東京都,江東区,亀戸６丁目８－３豊川ビル２０６号室,,13,108,1360071,,,,,,,2022-09-29,1,,,,,ライフクコクサイ,0
1638,8011501028463,新規,0,2022-09-29,2022-09-29,株式会社ＡＭＡＬ　ＴＲＡＤＩＮＧ　ＣＯＲＰＯＲＡＴＩＯＮ,,株式会社,東京都,荒川区,東日暮里６丁目２６番３号第一藤井荘２０３号室,,13,118,1160014,,,,,,,2022-09-29,1,,,,,アマールトレイディングコーポレイション,0
1639,8011501028496,新規,0,2022-09-29,2022-09-29,雪松株式会社,,株式会社,東京都,荒川区,南千住３丁目２７－２浅草ビルＫ号室,,13,118,1160003,,,,,,,2022-09-29,1,,,,,ユキマツ,0
1643,8011701025649,新規,0,2022-09-29,2022-09-29,株式会社Ｏｎｅ　Ｓｔｅｐ,,株式会社,東京都,江戸川区,北葛西１丁目３－３６北葛西ハイツ２－２０８号室,,13,123,1340081,,,,,,,2022-09-29,1,,,,,ワンステップ,0
1646,8011803005276,新規,0,2022-09-29,2022-09-29,合同会社大臣,,合同会社,東京都,足立区,大谷田１丁目２５番７号,,13,121,1200001,,,,,,,2022-09-29,1,,,,,オミ,0
1647,8011803005284,新規,0,2022-09-29,2022-09-29,合同会社Ｅｓｐｅｒａｎｚａ,,合同会社,東京都,足立区,千住５丁目２７－１ＣＡＳＡＲ北千住２０３,,13,121,1200034,,,,,,,2022-09-29,1,,,,,エスペランサ,0
1648,8012305002027,新規,0,2022-09-29,2022-09-29,医療法人社団晃順会,,その他の設立登記法人,東京都,町田市,成瀬３丁目１番１３号,,13,209,1940044,,,,,,,2022-09-29,1,,,,,コウジュンカイ,0
1651,8012701017272,新規,0,2022-09-29,2022-09-29,株式会社パル,,株式会社,東京都,東久留米市,前沢５丁目９番３号,,13,222,2030032,,,,,,,2022-09-29,1,,,,,パル,0
1657,8013301049722,新規,0,2022-09-29,2022-09-29,株式会社Ｃｌｏｕｄ３,,株式会社,東京都,豊島区,西池袋１丁目４番１０号,,13,116,1710021,,,,,,,2022-09-29,1,,,,,クラウドスリー,0
1675,8030001150271,新規,0,2022-09-29,2022-09-29,株式会社福元技術士事務所,,株式会社,埼玉県,川口市,上青木１丁目１８番１－６１８号,,11,203,3330844,,,,,,,2022-09-29,1,,,,,フクモトギジュツシジムショ,0
1690,8040003020901,新規,0,2022-09-29,2022-09-29,合同会社グラース,,合同会社,千葉県,長生郡白子町,牛込３８７５番地,,12,424,2994202,,,,,,,2022-09-29,1,,,,,グラース,0
1691,8040003020934,新規,0,2022-09-29,2022-09-29,合同会社メルエステート,,合同会社,千葉県,松戸市,岩瀬６０８―１９,,12,207,2710076,,,,,,,2022-09-29,1,,,,,メルエステート,0
1693,8050001051724,新規,0,2022-09-29,2022-09-29,株式会社ケアル,,株式会社,茨城県,守谷市,立沢６８７番地の１,,08,224,3020118,,,,,,,2022-09-29,1,,,,,ケアル,0
1697,8050003006882,新規,0,2022-09-29,2022-09-29,合同会社Ｈ．Ｍ　Ｅｎｔｅｒｐｒｉｓｅｓ,,合同会社,茨城県,稲敷郡阿見町,大字島津１８８３番地１６,,08,443,3000311,,,,,,,2022-09-29,1,,,,,エイチエムエンタープライゼズ,0
1700,8080001025205,新規,0,2022-09-29,2022-09-29,株式会社ＶＩＸ,,株式会社,静岡県,静岡市清水区,西久保１丁目７番２０号,,22,103,4240038,,,,,,,2022-09-29,1,,,,,ヴィックス,0
1705,8080401026059,新規,0,2022-09-29,2022-09-29,株式会社鳶吉川,,株式会社,静岡県,磐田市,掛塚２９３３番地３,,22,211,4380234,,,,,,,2022-09-29,1,,,,,トビヨシカワ,0
1706,8090001017795,新規,0,2022-09-29,2022-09-29,株式会社ＴＥＭＰＯ,,株式会社,山梨県,北杜市,大泉町西井出字和田９１７７バックハウスインノ内,,19,209,4091501,,,,,,,2022-09-29,1,,,,,テンポ,0
1724,8120001249212,新規,0,2022-09-29,2022-09-29,株式会社ｓｏｒｔｅ,,株式会社,大阪府,大阪市中央区,南船場１丁目３番１５号,,27,128,5420081,,,,,,,2022-09-29,1,,,,,ソルテ,0
1729,8130001072679,新規,0,2022-09-29,2022-09-29,株式会社ＴＤＣ,,株式会社,京都府,京都市下京区,西七条掛越町６番地１７,,26,106,6008881,,,,,,,2022-09-29,1,,,,,ティーディーシー,0
1734,8140003018175,新規,0,2022-09-29,2022-09-29,ＢＲＩＸ　ＴＲＡＤＩＮＧ合同会社,,合同会社,兵庫県,神戸市中央区,元町通３丁目３－５,,28,110,6500022,,,,,,,2022-09-29,1,,,,,ブリックストレーディング,0
1752,8180001153111,新規,0,2022-09-29,2022-09-29,株式会社フラットホーム,,株式会社,愛知県,春日井市,中切町２丁目２番地７クレールシェノワ２０３号,,23,206,4860925,,,,,,,2022-09-29,1,,,,,フラットホーム,0
1753,8180001153152,新規,0,2022-09-29,2022-09-29,株式会社モトーレン道南,,株式会社,愛知県,名古屋市中区,錦３丁目１０番３２号,,23,106,4600003,,,,,,,2022-09-29,1,,,,,モトーレンドウナン,0
1763,8180303005456,新規,0,2022-09-29,2022-09-29,合同会社ＹＡＭＡＴＯ,,合同会社,愛知県,刈谷市,東新町３丁目３１５番地,,23,210,4480031,,,,,,,2022-09-29,1,,,,,ヤマト,0
1766,8190001029780,新規,0,2022-09-29,2022-09-29,株式会社ＣＯ,,株式会社,三重県,四日市市,鵜の森１丁目４－１３Ｔ’ｓＳｑｕａｒｅ２０２,,24,202,5100074,,,,,,,2022-09-29,1,,,,,コー,0
1769,8200001040488,新規,0,2022-09-29,2022-09-29,株式会社やまだ住設,,株式会社,岐阜県,山県市,伊佐美１０８１番地,,21,215,5012102,,,,,,,2022-09-29,1,,,,,ヤマダジュウセツ,0
1773,8230003001915,新規,0,2022-09-29,2022-09-29,合同会社ＧＲＥＥＮ不動産,,合同会社,富山県,富山市,西田地方町３丁目８番１号,,16,201,9398202,,,,,,,2022-09-29,1,,,,,グリーンフドウサン,0
1774,8240001060417,新規,0,2022-09-29,2022-09-29,エムジェイテック株式会社,,株式会社,広島県,三原市,糸崎３丁目１４番５８号,,34,204,7290324,,,,,,,2022-09-29,1,,,,,エムジェイテック,0
1779,8260001037264,新規,0,2022-09-29,2022-09-29,株式会社サニー,,株式会社,岡山県,瀬戸内市,長船町服部２０５番地４,,33,212,7014276,,,,,,,2022-09-29,1,,,,,サニー,0
1780,8260001037272,新規,0,2022-09-29,2022-09-29,株式会社ＨＦＧメディア,,株式会社,岡山県,倉敷市,玉島道越８１５番地５,,33,202,7138114,,,,,,,2022-09-29,1,,,,,エイチエフジーメディア,0
1788,8290001099005,新規,0,2022-09-29,2022-09-29,株式会社菅商店,,株式会社,福岡県,福岡市南区,井尻４丁目７番４－２０３号ＡｌｉｃＳｔｙｌｅ井尻ＩＩクロッシィ,00127958,40,134,8111302,,,,,,,2022-09-29,1,,,,,カンショウテン,0
1790,8290003012997,新規,0,2022-09-29,2022-09-29,Ａｉ　ｌａｎｄｌｏｒｄ合同会社,,合同会社,福岡県,福岡市中央区,輝国２丁目８番２０号,,40,133,8100032,,,,,,,2022-09-29,1,,,,,アイランドロード,0
1792,8290801028914,新規,0,2022-09-29,2022-09-29,株式会社一二三,,株式会社,福岡県,中間市,中尾１丁目１０番３０号,,40,215,8090032,,,,,,,2022-09-29,1,,,,,ヒフミ,0
1795,8310001018044,新規,0,2022-09-29,2022-09-29,ＢＯＬＴ株式会社,,株式会社,長崎県,西彼杵郡長与町,高田郷８１２番地,,42,307,8512127,,,,,,,2022-09-29,1,,,,,ボルト,0
1798,8330001030138,新規,0,2022-09-29,2022-09-29,株式会社原口製作所,,株式会社,熊本県,山鹿市,鹿本町庄１４１８番地１,,43,208,8610301,,,,,,,2022-09-29,1,,,,,ハラグチセイサクショ,0
1813,8430003014319,新規,0,2022-09-29,2022-09-29,ティージャパン合同会社,,合同会社,北海道,札幌市白石区,北郷一条３丁目４番１１号,,01,104,0030831,,,,,,,2022-09-29,1,,,,,ティージャパン,0
1818,8480001011866,新規,0,2022-09-29,2022-09-29,株式会社Ａｉ建築工房,,株式会社,徳島県,徳島市,川内町竹須賀９９番地の１,,36,201,7710141,,,,,,,2022-09-29,1,,,,,アイケンチクコウボウ,0
1819,8500001024485,新規,0,2022-09-29,2022-09-29,株式会社Ｓ．Ｔ．Ｍ,,株式会社,愛媛県,東温市,松瀬川甲５９２番地２２,,38,215,7910314,,,,,,,2022-09-29,1,,,,,エスティーエム,0
1821,9010001003100,新規,0,2022-09-29,2022-09-29,株式会社サンセン,,株式会社,東京都,文京区,後楽１丁目１番５号,,13,105,1120004,,,,,,,2022-09-29,1,,,,,サンセン,0
1826,9010001229678,新規,0,2022-09-29,2022-09-29,株式会社ｌｉｎｋ,,株式会社,東京都,中央区,佃２丁目２２番６号,,13,102,1040051,,,,,,,2022-09-29,1,,,,,リンク,0
1827,9010001229793,新規,0,2022-09-29,2022-09-29,株式会社ＣＡＴＩＯＮ,,株式会社,東京都,千代田区,神田須田町２丁目６番地１坂下ビル５Ｆ,,13,101,1010041,,,,,,,2022-09-29,1,,,,,カチオン,0
1828,9010001229810,新規,0,2022-09-29,2022-09-29,ＣＦＪａｐａｎ株式会社,,株式会社,東京都,中央区,八重洲１丁目８番１７号,,13,102,1030028,,,,,,,2022-09-29,1,,,,,シーエフジャパン,0
1829,9010001229835,新規,0,2022-09-29,2022-09-29,株式会社サンドプラス,,株式会社,東京都,中央区,銀座７丁目１３番６号サガミビル２階,,13,102,1040061,,,,,,,2022-09-29,1,,,,,サンドプラス,0
1839,9010403028546,新規,0,2022-09-29,2022-09-29,下藤商事合同会社,,合同会社,東京都,港区,南青山３丁目１番３６号青山丸竹ビル６階,,13,103,1070062,,,,,,,2022-09-29,1,,,,,シモフジショウジ,0
1841,9010405021433,新規,0,2022-09-29,2022-09-29,菫一般社団法人,,その他の設立登記法人,東京都,港区,西新橋１丁目１番１号ＥＰコンサルティングサービス内,,13,103,1050003,,,,,,,2022-09-29,1,,,,,スミレ,0
1854,9010901051710,新規,0,2022-09-29,2022-09-29,株式会社なないろコーポレーション,,株式会社,東京都,世田谷区,上北沢４丁目１７－１４ルピナス上北沢１０２,,13,112,1560057,,,,,,,2022-09-29,1,,,,,ナナイロコーポレーション,0
1857,9011001149932,新規,0,2022-09-29,2022-09-29,株式会社Ｌｕｍｉｎｅｕｘ,,株式会社,東京都,渋谷区,道玄坂１丁目１０番８号渋谷道玄坂東急ビル２Ｆ－Ｃ,,13,113,1500043,,,,,,,2022-09-29,1,,,,,ルミナス,0
1858,9011001149981,新規,0,2022-09-29,2022-09-29,株式会社アイコス,,株式会社,東京都,渋谷区,神宮前６丁目２３番４号桑野ビル２Ｆ,,13,113,1500001,,,,,,,2022-09-29,1,,,,,アイコス,0
1859,9011101100316,新規,0,2022-09-29,2022-09-29,ＡＩＰ株式会社,,株式会社,東京都,新宿区,山吹町１３０番１６号エスポワール２１ビル４階,,13,104,1620801,,,,,,,2022-09-29,1,,,,,エイアイピー,0
1865,9011501028504,新規,0,2022-09-29,2022-09-29,株式会社ＣＹＲＳ,,株式会社,東京都,北区,東田端１丁目１２番３号,,13,117,1140013,,,,,,,2022-09-29,1,,,,,シリウス,0
1866,9011505002496,新規,0,2022-09-29,2022-09-29,一般社団法人ＳＲＨＲ　ｐｈａｒｍａｃｙ　ＰＲＯｊｅｃｔ,,その他の設立登記法人,東京都,荒川区,荒川５丁目１１番１８号,,13,118,1160002,,,,,,,2022-09-29,1,,,,,エスアールエイチアールファーマシープロジェクト,0
1869,9011701025648,新規,0,2022-09-29,2022-09-29,株式会社ユリカイインターナショナル,,株式会社,東京都,江戸川区,鹿骨２丁目２４番１６号,,13,123,1330073,,,,,,,2022-09-29,1,,,,,ユリカイインターナショナル,0
1872,9011803005283,新規,0,2022-09-29,2022-09-29,合同会社ＭＡＮＡ,,合同会社,東京都,足立区,千住５丁目２７－１ＣＡＳＡＲ２０３,,13,121,1200034,,,,,,,2022-09-29,1,,,,,マナ,0
1874,9012301013142,新規,0,2022-09-29,2022-09-29,関東ウェルディング株式会社,,株式会社,東京都,町田市,広袴２丁目１７番地１５ラックスハイム鶴川Ｉ３０６,00127953,13,209,1950056,,,,,,,2022-09-29,1,,,,,カントウウェルディング,0
1875,9012701017271,新規,0,2022-09-29,2022-09-29,株式会社バイオオイル,,株式会社,東京都,西東京市,向台町２丁目１３番３４号,,13,229,1880013,,,,,,,2022-09-29,1,,,,,バイオオイル,0
1881,9020001148340,新規,0,2022-09-29,2022-09-29,株式会社アシスト,,株式会社,神奈川県,横浜市神奈川区,片倉２丁目６９番１５－３０２号,,14,102,2210865,,,,,,,2022-09-29,1,,,,,アシスト,0
1885,9020003022469,新規,0,2022-09-29,2022-09-29,合同会社ツーアール,,合同会社,神奈川県,横浜市港北区,大豆戸町６７番地３藤和シティホームズ大倉山弐番館４０３号,,14,109,2220032,,,,,,,2022-09-29,1,,,,,ツーアール,0
1892,9021001077075,新規,0,2022-09-29,2022-09-29,株式会社植達,,株式会社,神奈川県,鎌倉市,雪ノ下１丁目１２番１３号,,14,204,2480005,,,,,,,2022-09-29,1,,,,,ウエタツ,0
1894,9021003012187,新規,0,2022-09-29,2022-09-29,イトウベース合同会社,,合同会社,神奈川県,茅ヶ崎市,中海岸４丁目１２９８６番地５２サザンビーチヒルズ７Ｆ,,14,207,2530055,,,,,,,2022-09-29,1,,,,,イトウベース,0
1903,9030001150196,新規,0,2022-09-29,2022-09-29,株式会社東京住宅技建,,株式会社,埼玉県,富士見市,水谷東２丁目１番３号,,11,235,3540013,,,,,,,2022-09-29,1,,,,,トウキョウジュウタクギケン,0
1904,9030001150262,新規,0,2022-09-29,2022-09-29,Ｌｉｌｙ株式会社,,株式会社,埼玉県,さいたま市岩槻区,美園東３丁目７番地３７,,11,110,3390028,,,,,,,2022-09-29,1,,,,,リリー,0
1919,9040003020917,新規,0,2022-09-29,2022-09-29,ＤＡＩＢＡ　ＭＯＴＯＲＳ合同会社,,合同会社,千葉県,山武市,松尾町借毛本郷２２９９番地３,,12,237,2891537,,,,,,,2022-09-29,1,,,,,ダイバモータース,0
1920,9060003004249,新規,0,2022-09-29,2022-09-29,ＡＤ　ＪＡＰＡＮ合同会社,,合同会社,栃木県,宇都宮市,雀宮町３３０－６シャトーオオツカ１０３,,09,201,3210121,,,,,,,2022-09-29,1,,,,,エイディージャパン,0
1921,9070001039683,新規,0,2022-09-29,2022-09-29,石関プレシジョン株式会社,,株式会社,群馬県,高崎市,箕郷町矢原２１７６番地１,,10,202,3703107,,,,,,,2022-09-29,1,,,,,イシゼキプレシジョン,0
1924,9080001025204,新規,0,2022-09-29,2022-09-29,株式会社Ｆａｉｔｈ,,株式会社,静岡県,静岡市駿河区,八幡４丁目１番４号,,22,102,4228076,,,,,,,2022-09-29,1,,,,,フェイス,0
1925,9080001025212,新規,0,2022-09-29,2022-09-29,丸八運送株式会社,,株式会社,静岡県,藤枝市,清里１丁目１１番地の６,,22,214,4260223,,,,,,,2022-09-29,1,,,,,マルハチウンソウ,0
1932,9080401026058,新規,0,2022-09-29,2022-09-29,Ｅｓｐａｎｉａ　ｒｏｕｘ株式会社,,株式会社,静岡県,浜松市中区,幸３丁目５番１７号,,22,131,4338123,,,,,,,2022-09-29,1,,,,,エスパニアルー,0
1936,9100001035729,新規,0,2022-09-29,2022-09-29,高井建築工業株式会社,00127952,株式会社,長野県,上高井郡高山村,大字高井３４０５番地５,,20,543,3820800,,,,,,,2022-09-29,1,,,,,タカイケンチクコウギョウ,0
1944,9110001036981,新規,0,2022-09-29,2022-09-29,株式会社レカラン,,株式会社,新潟県,長岡市,千秋２丁目２７８８番地１千秋が原ビル２階,,15,202,9402108,,,,,,,2022-09-29,1,,,,,レカラン,0
1962,9120001249120,新規,0,2022-09-29,2022-09-29,株式会社ＳＯＲＡ,,株式会社,大阪府,門真市,北岸和田３丁目１４番２３－４号,,27,223,5710007,,,,,,,2022-09-29,1,,,,,ソラ,0
1972,9130001072686,新規,0,2022-09-29,2022-09-29,ＪＡＰＡＮ　ＰＯＩＮＴ株式会社,,株式会社,京都府,京都市右京区,西院西三蔵町１５－２アソシエ２０２,,26,108,6150027,,,,,,,2022-09-29,1,,,,,ジャパンポイント,0
1973,9130003008192,新規,0,2022-09-29,2022-09-29,合同会社ハスのにわ,,合同会社,京都府,京都市伏見区,深草中ノ島町１３－１府営住宅墨染団地１－２０６,,26,109,6120049,,,,,,,2022-09-29,1,,,,,ハスノニワ,0
1976,9140001127489,新規,0,2022-09-29,2022-09-29,ＲＩＭＯＮＤ　ＪＡＰＡＮ株式会社,,株式会社,兵庫県,神戸市中央区,北野町３丁目６番２号１Ｆ,,28,110,6500002,,,,,,,2022-09-29,1,,,,,リモンドジャパン,0
1977,9140003018174,新規,0,2022-09-29,2022-09-29,三木菱商事合同会社,,合同会社,兵庫県,神戸市中央区,多聞通２丁目２番１６号,,28,110,6500015,,,,,,,2022-09-29,1,,,,,ミキビシショウジ,0
1994,9180003024301,新規,0,2022-09-29,2022-09-29,合同会社アポロン,,合同会社,愛知県,江南市,尾崎町上田９５番地,,23,217,4838161,,,,,,,2022-09-29,1,,,,,アポロン,0
1995,9180301036659,新規,0,2022-09-29,2022-09-29,株式会社Ｙ’ｓ　Ｇａｒａｇｅ,,株式会社,愛知県,みよし市,打越町新池浦１０１番地７,,23,236,4700213,,,,,,,2022-09-29,1,,,,,ワイズガレージ,0
1996,9180301036667,新規,0,2022-09-29,2022-09-29,株式会社Ｏｆｆｉｃｉａｌ　Ｈ．Ｄ．Ｗ,,株式会社,愛知県,豊田市,山之手１０丁目１１番地１,,23,211,4710833,,,,,,,2022-09-29,1,,,,,オフィシャルエイチディーダブリュー,0
1997,9180305009396,新規,0,2022-09-29,2022-09-29,一般社団法人愛知登山道整備協会,,その他の設立登記法人,愛知県,北設楽郡東栄町,大字振草字古戸瓢島１６番地,,23,562,4490213,,,,,,,2022-09-29,1,,,,,アイチトザンセイビキョウカイ,0
1998,9190003004095,新規,0,2022-09-29,2022-09-29,合同会社ＨＡ　ＭＹ,,合同会社,三重県,桑名市,大字福島９５４番地３,,24,205,5110002,,,,,,,2022-09-29,1,,,,,ハーミー,0
1999,9190005011742,新規,0,2022-09-29,2022-09-29,一般社団法人善知農園,,その他の設立登記法人,三重県,四日市市,貝家町１６２番地４,,24,202,5100956,,,,,,,2022-09-29,1,,,,,ヨシトモノウエン,0
2001,9200001040470,新規,0,2022-09-29,2022-09-29,株式会社松原,,株式会社,岐阜県,多治見市,希望ケ丘１丁目２２５番地,,21,204,5070008,,,,,,,2022-09-29,1,,,,,マツバラ,0
2002,9200001040487,新規,0,2022-09-29,2022-09-29,株式会社アイビス,,株式会社,岐阜県,郡上市,大和町牧３６７番地,,21,219,5014608,,,,,,,2022-09-29,1,,,,,アイビス,0
2003,9200003005686,新規,0,2022-09-29,2022-09-29,合同会社重電工,,合同会社,岐阜県,岐阜市,下西郷８２１番地１１,,21,201,5011175,,,,,,,2022-09-29,1,,,,,シゲデンコウ,0
2004,9210001019101,新規,0,2022-09-29,2022-09-29,株式会社英色彩,,株式会社,福井県,福井市,町屋２丁目８番３２号,,18,201,9100002,,,,,,,2022-09-29,1,,,,,ヒデシキサイ,0
2010,9230001019537,新規,0,2022-09-29,2022-09-29,株式会社Ｋ‐ＬＩＮＥ,,株式会社,富山県,富山市,稲代２９５－２,,16,201,9392231,,,,,,,2022-09-29,1,,,,,ケーライン,0
2016,9240003005823,新規,0,2022-09-29,2022-09-29,合同会社ｍｎｇｔ,,合同会社,広島県,広島市中区,大手町３丁目１０番２７－３０１号,,34,101,7300051,,,,,,,2022-09-29,1,,,,,エムエヌジーティー,0
2019,9240005015449,新規,0,2022-09-29,2022-09-29,社会保険労務士法人ＣＵＢＥ,,その他の設立登記法人,広島県,広島市中区,立町２番１号,,34,101,7300032,,,,,,,2022-09-29,1,,,,,キューブ,0
2023,9250003003149,新規,0,2022-09-29,2022-09-29,合同会社双田産業,,合同会社,山口県,山陽小野田市,大字埴生字川上１０８２９番８,,35,216,7570012,,,,,,,2022-09-29,1,,,,,ソウダサンギョウ,0
2027,9260003004047,新規,0,2022-09-29,2022-09-29,合同会社Ｏ‐ｂｒａｎｃｈ,,合同会社,岡山県,岡山市北区,中山下１丁目７番１６号,,33,101,7000821,,,,,,,2022-09-29,1,,,,,オーブランチ,0
2034,9290003012996,新規,0,2022-09-29,2022-09-29,ＭＴＡ合同会社,,合同会社,福岡県,福岡市博多区,堅粕３丁目１８番１３,,40,132,8120043,,,,,,,2022-09-29,1,,,,,エムティーエイ,0
2036,9290801028913,新規,0,2022-09-29,2022-09-29,株式会社いのはんプロダクツ,,株式会社,福岡県,北九州市門司区,吉志７丁目１０番１８号,,40,101,8000114,,,,,,,2022-09-29,1,,,,,イノハンプロダクツ,0
2037,9290801028921,新規,0,2022-09-29,2022-09-29,みのり不動産株式会社,,株式会社,福岡県,北九州市八幡東区,枝光本町７番１８－１０５号,,40,108,8050008,,,,,,,2022-09-29,1,,,,,ミノリフドウサン,0
2041,9310003004454,新規,0,2022-09-29,2022-09-29,合同会社ＭＨＮ９７,,合同会社,長崎県,長崎市,浜町１１番１２号,,42,201,8500853,,,,,,,2022-09-29,1,,,,,エムエイチエヌキュウナナ,0
2043,9330001030137,新規,0,2022-09-29,2022-09-29,株式会社田尻不動産プランニング,00127954,株式会社,熊本県,熊本市東区,江津１丁目４番１８－１号,,43,102,8620942,,,,,,,2022-09-29,1,,,,,タジリフドウサンプランニング,0
2049,9340001025061,新規,0,2022-09-29,2022-09-29,発酵食Ｌａｂ株式会社,,株式会社,鹿児島県,いちき串木野市,旭町７６－１,,46,219,8960015,,,,,,,2022-09-29,1,,,,,ハッコウショクラボ,0
2062,9400005008270,新規,0,2022-09-29,2022-09-29,特定非営利活動法人ウェルビーイング,,その他の設立登記法人,岩手県,宮古市,舘合町１番４４号,,03,202,0270077,,,,,,,2022-09-29,1,,,,,ウェルビーイング,0
2065,9420001018016,新規,0,2022-09-29,2022-09-29,株式会社ファースト・グループ,,株式会社,青森県,八戸市,新井田西３丁目６－８ウエルズ２１Ｄ号,,02,203,0310816,,,,,,,2022-09-29,1,,,,,ファーストグループ,0
2066,9430001087539,新規,0,2022-09-29,2022-09-29,北海道コンフェクトグループ株式会社,,株式会社,北海道,札幌市中央区,北二条西１０丁目２番地７,,01,101,0600002,,,,,,,2022-09-29,1,,,,,ホッカイドウコンフェクトグループ,0
2069,9430003014318,新規,0,2022-09-29,2022-09-29,合同会社ＩＴ大家さん,,合同会社,北海道,室蘭市,中島町４丁目３番１９号,,01,205,0500074,,,,,,,2022-09-29,1,,,,,アイティオオヤサン,0
2075,9500005008525,新規,0,2022-09-29,2022-09-29,農事組合法人やすで,,その他の設立登記法人,愛媛県,西条市,新町１１４番地５,,38,206,7991331,,,,,,,2022-09-29,1,,,,,,0
