sequenceNumber,corporateNumber,process,correct,updateDate,changeDate,name,nameImageId,kind,prefectureName,cityName,streetNumber,addressImageId,prefectureCode,cityCode,postCode,addressOutside,addressOutsideImageId,closeDate,closeCause,successorCorporateNumber,changeCause,assignmentDate,latest,enName,enPrefectureName,enCityName,enAddressOutside,furigana,hihyoji
9,1010001239107,新規,0,2023-10-11,2023-10-11,株式会社おりおり,,株式会社,東京都,中央区,銀座１丁目２２番１１号銀座大竹ビジデンス２Ｆ,,13,102,1040061,,,,,,,2023-10-11,1,,,,,オリオリ,0
23,1010401177550,新規,0,2023-10-11,2023-10-11,モーニングスター・ジャパン株式会社,,株式会社,東京都,港区,新橋１丁目１番１号,,13,103,1050004,,,,,,,2023-10-11,1,,,,,モーニングスタージャパン,0
24,1010401177583,新規,0,2023-10-11,2023-10-11,ＨＯＲＩＪＵＫＵホスピタリティ株式会社,,株式会社,東京都,港区,六本木４丁目６番３号ＨＯＲＩＪＵＫＵ・ＰＬＡＣＥ・ＴＨＥ・ＴＯＫＹＯ,,13,103,1060032,,,,,,,2023-10-11,1,,,,,ホリジュクホスピタリティ,0
25,1010401177633,新規,0,2023-10-11,2023-10-11,株式会社トレポータル,,株式会社,東京都,港区,南青山３丁目１番３６号青山丸竹ビル６Ｆ,,13,103,1070062,,,,,,,2023-10-11,1,,,,,トレポータル,0
26,1010401177666,新規,0,2023-10-11,2023-10-11,株式会社ＳＫＩ,,株式会社,東京都,港区,芝５丁目２７－３ＭＢＣＢ－１５９,,13,103,1080014,,,,,,,2023-10-11,1,,,,,エスケーアイ,0
33,1010403031103,新規,0,2023-10-11,2023-10-11,合同会社トレック・サターン,,合同会社,東京都,港区,赤坂７丁目６番１５号,,13,103,1070052,,,,,,,2023-10-11,1,,,,,トレックサターン,0
34,1010403031136,新規,0,2023-10-11,2023-10-11,ＣＩＣ　Ｊａｐａｎ　Ｉｎｎｏｖａｔｉｏｎ　Ｓｅｒｖｉｃｅｓ合同会社,,合同会社,東京都,港区,虎ノ門１丁目１７番１号虎ノ門ヒルズビジネスタワー１５階,,13,103,1050001,,,,,,,2023-10-11,1,,,,,シーアイシージャパンイノベーションサービス,0
35,1010405022570,新規,0,2023-10-11,2023-10-11,ＪＭインダス一般社団法人,,その他の設立登記法人,東京都,港区,六本木１丁目９番１０号アークヒルズ仙石山森タワー４０階,,13,103,1060032,,,,,,,2023-10-11,1,,,,,ジェイエムインダス,0
43,1010701044954,新規,0,2023-10-11,2023-10-11,Ｄ　Ｔｈｒｅｅ株式会社,,株式会社,東京都,品川区,西五反田８丁目９番１１－１１０３号,,13,109,1410031,,,,,,,2023-10-11,1,,,,,ディースリー,0
44,1010701044962,新規,0,2023-10-11,2023-10-11,株式会社阿部事務所,,株式会社,東京都,品川区,中延４丁目１５番６号,,13,109,1420053,,,,,,,2023-10-11,1,,,,,アベジムショ,0
45,1010703006903,新規,0,2023-10-11,2023-10-11,Ｂｒｉｒｅｅｒ合同会社,,合同会社,東京都,品川区,西五反田３丁目７番６号,,13,109,1410031,,,,,,,2023-10-11,1,,,,,ブリリア,0
49,1010803004708,新規,0,2023-10-11,2023-10-11,合同会社ミカミ,,合同会社,東京都,大田区,西蒲田２丁目９番４号,,13,111,1440051,,,,,,,2023-10-11,1,,,,,ミカミ,0
61,1011001157397,新規,0,2023-10-11,2023-10-11,鎌倉情報技術株式会社,,株式会社,東京都,渋谷区,道玄坂１丁目１６－６二葉ビル８ｂ,,13,113,1500043,,,,,,,2023-10-11,1,,,,,カマクラジョウホウギジュツ,0
62,1011001157455,新規,0,2023-10-11,2023-10-11,ＩＢＥジャパン株式会社,,株式会社,東京都,渋谷区,恵比寿４丁目２０番３号恵比寿ガーデンプレイスタワー１８階,,13,113,1500013,,,,,,,2023-10-11,1,,,,,アイビーイージャパン,0
63,1011001157513,新規,0,2023-10-11,2023-10-11,未来建物サポート株式会社,,株式会社,東京都,目黒区,大岡山１丁目３１番３７－２０７号ヒルサイドコート,,13,110,1520033,,,,,,,2023-10-11,1,,,,,ミライタテモノサポート,0
65,1011101104695,新規,0,2023-10-11,2023-10-11,株式会社Ｄｏｒｙ,,株式会社,東京都,新宿区,西新宿４丁目１０番７号,,13,104,1600023,,,,,,,2023-10-11,1,,,,,ドリー,0
66,1011103013589,新規,0,2023-10-11,2023-10-11,合同会社蓮華,,合同会社,東京都,新宿区,若松町１６－６パセオ東新宿２０３,,13,104,1620056,,,,,,,2023-10-11,1,,,,,レンゲ,0
72,1011701026653,新規,0,2023-10-11,2023-10-11,株式会社新翔,,株式会社,東京都,江戸川区,南篠崎町２丁目３７番１７号,,13,123,1330065,,,,,,,2023-10-11,1,,,,,シンショウ,0
73,1011703003618,新規,0,2023-10-11,2023-10-11,宏縁合同会社,,合同会社,東京都,江戸川区,西瑞江４丁目２１－１あけぼの荘１階３号室,,13,123,1340015,,,,,,,2023-10-11,1,,,,,コウエン,0
83,1012403006225,新規,0,2023-10-11,2023-10-11,合同会社ケンクリエイト,,合同会社,東京都,府中市,若松町２丁目１８番地の１,,13,206,1830005,,,,,,,2023-10-11,1,,,,,ケンクリエイト,0
88,1012801022682,新規,0,2023-10-11,2023-10-11,株式会社大和住建,,株式会社,東京都,武蔵村山市,中原４丁目２番地３,,13,223,2080035,,,,,,,2023-10-11,1,,,,,ヤマトジュウケン,0
92,1013101009263,新規,0,2023-10-11,2023-10-11,株式会社つくり家・工務店,,株式会社,東京都,あきる野市,草花３７７３番地２,,13,228,1970802,,,,,,,2023-10-11,1,,,,,ツクリヤコウムテン,0
105,1020001153835,新規,0,2023-10-11,2023-10-11,半東Ｄ株式会社,,株式会社,神奈川県,横浜市青葉区,美しが丘１丁目１３番地１０吉村ビル１０７号,,14,117,2250002,,,,,,,2023-10-11,1,,,,,ハントウディー,0
106,1020001153876,新規,0,2023-10-11,2023-10-11,株式会社ＥＰＩＬＥＧＯ,,株式会社,神奈川県,横浜市金沢区,釜利谷東３丁目４２番地４４号,,14,108,2360042,,,,,,,2023-10-11,1,,,,,エピレゴ,0
117,1021003013663,新規,0,2023-10-11,2023-10-11,合同会社イワサキ,,合同会社,神奈川県,相模原市南区,松が枝町７番４号,,14,153,2520313,,,,,,,2023-10-11,1,,,,,イワサキ,0
121,1030001156473,新規,0,2023-10-11,2023-10-11,Ｎ‐ｆｅｌｌｏｗ株式会社,,株式会社,埼玉県,東松山市,大字野田１１１７番地１,,11,212,3550007,,,,,,,2023-10-11,1,,,,,エヌフェロー,0
122,1030001156597,新規,0,2023-10-11,2023-10-11,株式会社つなつく,,株式会社,埼玉県,上尾市,柏座４丁目２番２３号エクセル柏座３０１,,11,219,3620075,,,,,,,2023-10-11,1,,,,,ツナツク,0
130,1030003022731,新規,0,2023-10-11,2023-10-11,合同会社ＤＩＡ美容,,合同会社,埼玉県,春日部市,中央７丁目１番地１ピュアルＩ－１Ｆ－Ａ号,00132203,11,214,3440067,,,,,,,2023-10-11,1,,,,,ダイアビヨウ,0
131,1030003022756,新規,0,2023-10-11,2023-10-11,合同会社ＲＳジャパン,,合同会社,埼玉県,春日部市,備後東３丁目２０番１－３０５号,,11,214,3440032,,,,,,,2023-10-11,1,,,,,アールエスジャパン,0
139,1040003023506,新規,0,2023-10-11,2023-10-11,Ｊコンサルティング合同会社,,合同会社,千葉県,柏市,東台本町３－８,,12,217,2770013,,,,,,,2023-10-11,1,,,,,ジェイコンサルティング,0
141,1050003007838,新規,0,2023-10-11,2023-10-11,合同会社ＯＮＥ,,合同会社,茨城県,つくば市,下広岡１０５５番地１１,,08,220,3050042,,,,,,,2023-10-11,1,,,,,ワン,0
148,1070001040946,新規,0,2023-10-11,2023-10-11,石井電子株式会社,,株式会社,群馬県,太田市,新田木崎町１４３２番地,,10,205,3700321,,,,,,,2023-10-11,1,,,,,イシイデンシ,0
150,1080005007577,新規,0,2023-10-11,2023-10-11,一般社団法人相良しらす鰻採捕組合,,その他の設立登記法人,静岡県,牧之原市,須々木２８７番地６４,,22,226,4210524,,,,,,,2023-10-11,1,,,,,サガラシラスウナギサイホクミアイ,0
152,1080401026783,新規,0,2023-10-11,2023-10-11,株式会社浜松バイオパワー,,株式会社,静岡県,浜松市西区,坪井町３４６５番地の１２,,22,133,4310202,,,,,,,2023-10-11,1,,,,,ハママツバイオパワー,0
153,1080405007581,新規,0,2023-10-11,2023-10-11,医療法人社団ダンケ,,その他の設立登記法人,静岡県,浜松市南区,法枝町２２４番地の１,,22,134,4328053,,,,,,,2023-10-11,1,,,,,ダンケ,0
154,1090001018370,新規,0,2023-10-11,2023-10-11,株式会社ＴＭサービス,,株式会社,山梨県,上野原市,鶴島１８０１番地,,19,212,4090114,,,,,,,2023-10-11,1,,,,,ティーエムサービス,0
168,1120001258673,新規,0,2023-10-11,2023-10-11,株式会社ヤマサカホライズン,,株式会社,大阪府,大阪市東住吉区,山坂５丁目１５番１２号,,27,121,5460035,,,,,,,2023-10-11,1,,,,,ヤマサカホライズン,0
176,1120005023933,新規,0,2023-10-11,2023-10-11,一般社団法人佑翠堂,,その他の設立登記法人,大阪府,枚方市,香里ケ丘８丁目３０番地の３７,,27,210,5730084,,,,,,,2023-10-11,1,,,,,ユウスイドウ,0
180,1120103005478,新規,0,2023-10-11,2023-10-11,Ａ．Ｈ　Ａｇｅｎｔ合同会社,,合同会社,大阪府,堺市堺区,北三国ヶ丘町８丁４番１４号,,27,141,5900021,,,,,,,2023-10-11,1,,,,,エーエイチエージェント,0
184,1122001037446,新規,0,2023-10-11,2023-10-11,株式会社ＵＭＥＳＡＫＩ,,株式会社,大阪府,東大阪市,瓜生堂２丁目２１番２３号,,27,227,5780946,,,,,,,2023-10-11,1,,,,,ウメサキ,0
185,1122003002687,新規,0,2023-10-11,2023-10-11,合同会社ＮＬＳ,,合同会社,大阪府,東大阪市,柏田本町５－９,,27,227,5770834,,,,,,,2023-10-11,1,,,,,エヌエルエス,0
190,1130001075374,新規,0,2023-10-11,2023-10-11,株式会社京都山本フーズ,,株式会社,京都府,亀岡市,保津町上火無６６番地２,,26,206,6210005,,,,,,,2023-10-11,1,,,,,キョウトヤマモトフーズ,0
191,1130001075408,新規,0,2023-10-11,2023-10-11,晶工業株式会社,,株式会社,京都府,宇治市,木幡南山５番地の１７,,26,204,6110002,,,,,,,2023-10-11,1,,,,,アキコウギョウ,0
194,1130003009033,新規,0,2023-10-11,2023-10-11,合同会社Ｈｕｍａｎ　Ｎｅｔ,,合同会社,京都府,京都市山科区,大塚壇ノ浦１９番地４０,00132210,26,110,6070000,,,,,,,2023-10-11,1,,,,,ヒューマンネット,0
201,1140001131928,新規,0,2023-10-11,2023-10-11,株式会社ブイヨン,,株式会社,兵庫県,芦屋市,翠ケ丘町１９番２－２０１号,,28,206,6590014,,,,,,,2023-10-11,1,,,,,ブイヨン,0
203,1140003019650,新規,0,2023-10-11,2023-10-11,合同会社ＭＡＳＨ,,合同会社,兵庫県,神戸市灘区,曾和町２丁目２－１３,,28,102,6570063,,,,,,,2023-10-11,1,,,,,マッシュ,0
205,1150001026788,新規,0,2023-10-11,2023-10-11,株式会社和光商事,,株式会社,奈良県,奈良市,中町４９９３番地,,29,201,6310052,,,,,,,2023-10-11,1,,,,,ワコウショウジ,0
206,1150003003091,新規,0,2023-10-11,2023-10-11,合同会社ケアＮｅｘＴ,,合同会社,奈良県,北葛城郡広陵町,大字笠３３２番地１１,,29,426,6350821,,,,,,,2023-10-11,1,,,,,ケアネクスト,0
217,1180001158356,新規,0,2023-10-11,2023-10-11,株式会社Ｓｍａｒｔ　ｕｐ,,株式会社,愛知県,名古屋市東区,泉１丁目１１番６号ミソカビル２Ｆ,,23,102,4610001,,,,,,,2023-10-11,1,,,,,スマートアップ,0
218,1180001158406,新規,0,2023-10-11,2023-10-11,株式会社帝国プロモーション,,株式会社,愛知県,名古屋市中村区,豊国通３丁目１７番地,,23,105,4530834,,,,,,,2023-10-11,1,,,,,テイコクプロモーション,0
219,1180001158422,新規,0,2023-10-11,2023-10-11,株式会社ＬＵＭＩＥＲＥ,,株式会社,愛知県,名古屋市中川区,野田１丁目１８１番地,,23,110,4540912,,,,,,,2023-10-11,1,,,,,ルミエール,0
220,1180001158439,新規,0,2023-10-11,2023-10-11,株式会社フォレストサイド,,株式会社,愛知県,長久手市,蟹原４０４第３レオン光園４－Ｆ,,23,238,4801142,,,,,,,2023-10-11,1,,,,,フォレストサイド,0
232,1190001030794,新規,0,2023-10-11,2023-10-11,株式会社結城建設,,株式会社,三重県,鈴鹿市,若松中２丁目２番５号,,24,207,5100224,,,,,,,2023-10-11,1,,,,,ユウキケンセツ,0
237,1200001041798,新規,0,2023-10-11,2023-10-11,ビュー株式会社,,株式会社,岐阜県,羽島市,福寿町平方４丁目４５番地１,,21,209,5016257,,,,,,,2023-10-11,1,,,,,ビュー,0
239,1210001019488,新規,0,2023-10-11,2023-10-11,Ｋａｋｕｔａｎｉ　Ｈｏｌｄｉｎｇｓ株式会社,,株式会社,福井県,あわら市,矢地第２号２８番地,,18,208,9190603,,,,,,,2023-10-11,1,,,,,カクタニホールディングス,0
240,1210005010113,新規,0,2023-10-11,2023-10-11,社会保険労務士法人青垣労務管理事務所,,その他の設立登記法人,福井県,福井市,日之出４丁目３番１８号,,18,201,9100859,,,,,,,2023-10-11,1,,,,,アオガキロウムカンリジムショ,0
261,1290001103342,新規,0,2023-10-11,2023-10-11,株式会社ＳＨＩＭＯＫＡＷＡ流通サービス,,株式会社,福岡県,久留米市,山本町豊田５７０番地,,40,203,8390827,,,,,,,2023-10-11,1,,,,,シモカワリュウツウサービス,0
263,1290003014471,新規,0,2023-10-11,2023-10-11,合同会社ＦＵＳＥ,,合同会社,福岡県,福岡市博多区,美野島２丁目１４番１５－１０１号ＰｉｃｏＬａＭａｉｓｏｎＨＡＫＡＴＡ,,40,132,8120017,,,,,,,2023-10-11,1,,,,,ヒューズ,0
267,1310001018653,新規,0,2023-10-11,2023-10-11,株式会社ハヤシダ装建,,株式会社,長崎県,島原市,親和町丁２６３３番地１,,42,203,8550863,,,,,,,2023-10-11,1,,,,,,0
274,1340001025969,新規,0,2023-10-11,2023-10-11,株式会社つむぎ,,株式会社,鹿児島県,姶良市,加治木町朝日町４７番地１,,46,225,8995213,,,,,,,2023-10-11,1,,,,,ツムギ,0
280,1370001050485,新規,0,2023-10-11,2023-10-11,株式会社カーイング,,株式会社,宮城県,柴田郡大河原町,字高砂町２番６,,04,321,9891202,,,,,,,2023-10-11,1,,,,,カーイング,0
291,1400005008360,新規,0,2023-10-11,2023-10-11,一般社団法人ゼロジャパンプロジェクト,,その他の設立登記法人,岩手県,滝沢市,鵜飼臨安１０２番地ペットの里内,,03,216,0200682,,,,,,,2023-10-11,1,,,,,ゼロジャパンプロジェクト,0
299,1430001090137,新規,0,2023-10-11,2023-10-11,株式会社綱輝,,株式会社,北海道,札幌市西区,西野五条６丁目３－１０,,01,107,0630035,,,,,,,2023-10-11,1,,,,,,0
300,1430001090161,新規,0,2023-10-11,2023-10-11,株式会社Ｌｅｐｌａｎ,,株式会社,北海道,札幌市厚別区,厚別中央四条４丁目３番８－１０２号,,01,108,0040054,,,,,,,2023-10-11,1,,,,,ルプラン,0
301,1430003015505,新規,0,2023-10-11,2023-10-11,北海道珈琲加工合同会社,,合同会社,北海道,札幌市手稲区,曙二条３丁目２番４６号,,01,109,0060832,,,,,,,2023-10-11,1,,,,,ホッカイドウコーヒーカコウ,0
302,1470001019842,新規,0,2023-10-11,2023-10-11,株式会社Ｌｅｔｔｅｒ,,株式会社,香川県,高松市,木太町５１１２番地７アルファスマートレインボー通り東５０５,,37,201,7600080,,,,,,,2023-10-11,1,,,,,レター,0
310,1500001025234,新規,0,2023-10-11,2023-10-11,越智工業株式会社,,株式会社,愛媛県,今治市,中堀１丁目１番２号,,38,202,7992115,,,,,,,2023-10-11,1,,,,,オチコウギョウ,0
313,1700150121177,新規,0,2023-10-11,2023-10-11,ＩＴ　ＭＡＸ　ＴＥＣＨＮＯＬＯＧＹ,,外国会社等,茨城県,神栖市,日川１６９９番地２７ビジネスオフィス１３号,,08,232,3140114,スリランカ民主社会主義共和国、ベリアッタ、パンギリワッタ、２９－５,,,,,,2023-10-11,1,,,,,アイテイマツクステクノロジー,0
329,2010001239015,新規,0,2023-10-11,2023-10-11,株式会社パロマ・リームホールディングス,,株式会社,東京都,千代田区,丸の内１丁目８番３号丸の内トラストタワー本館７階,,13,101,1000005,,,,,,,2023-10-11,1,,,,,パロマリームホールディングス,0
330,2010001239139,新規,0,2023-10-11,2023-10-11,日本易行時代株式会社,,株式会社,東京都,千代田区,紀尾井町４番１号新紀尾井町ビル１階,,13,101,1020094,,,,,,,2023-10-11,1,,,,,ニホンイコウジダイ,0
331,2010001239163,新規,0,2023-10-11,2023-10-11,銘科貿易株式会社,,株式会社,東京都,千代田区,神田平河町１番地第３東ビル５ＦイーオフィスＡＫＩＢＡ２番館６３号室,,13,101,1010027,,,,,,,2023-10-11,1,,,,,メイカボウエキ,0
332,2010001239188,新規,0,2023-10-11,2023-10-11,株式会社ｅｇｇｓｉｄｅ,,株式会社,東京都,中央区,銀座１丁目２番４号サクセス銀座ファーストビル９階悟空ＳＰＡ内,,13,102,1040061,,,,,,,2023-10-11,1,,,,,エッグサイド,0
353,2010401177665,新規,0,2023-10-11,2023-10-11,Ｍｉｇｎｏｎｎｅ　Ｌｏｎｄｏｎ株式会社,,株式会社,東京都,港区,南青山２丁目２６番３５号８Ｆ,,13,103,1070062,,,,,,,2023-10-11,1,,,,,ミニヨンロンドン,0
354,2010401177698,新規,0,2023-10-11,2023-10-11,株式会社シートエフ,,株式会社,東京都,港区,虎ノ門４丁目１番１０－３Ｆ,,13,103,1050001,,,,,,,2023-10-11,1,,,,,シートエフ,0
356,2010403031119,新規,0,2023-10-11,2023-10-11,合同会社スフルマーシュ,,合同会社,東京都,港区,北青山１丁目３番１号アールキューブ青山３階,,13,103,1070061,,,,,,,2023-10-11,1,,,,,スフルマーシュ,0
357,2010403031127,新規,0,2023-10-11,2023-10-11,ＪＭインダス７合同会社,,合同会社,東京都,港区,六本木１丁目９番１０号アークヒルズ仙石山森タワー４０階,,13,103,1060032,,,,,,,2023-10-11,1,,,,,ジェイエムインダスセブン,0
358,2010501051175,新規,0,2023-10-11,2023-10-11,立方コンサルティング株式会社,,株式会社,東京都,台東区,上野３丁目１１番５号,,13,106,1100005,,,,,,,2023-10-11,1,,,,,リッポウコンサルティング,0
365,2010801034409,新規,0,2023-10-11,2023-10-11,株式会社トータル,,株式会社,東京都,大田区,北糀谷１丁目１８番１４号,,13,111,1440032,,,,,,,2023-10-11,1,,,,,トータル,0
385,2011001157396,新規,0,2023-10-11,2023-10-11,株式会社ｍｅｍ,,株式会社,東京都,渋谷区,道玄坂１丁目１０番８号,,13,113,1500043,,,,,,,2023-10-11,1,,,,,メム,0
387,2011003017689,新規,0,2023-10-11,2023-10-11,合同会社１０４エンターテインメント,,合同会社,東京都,渋谷区,神宮前６丁目２３番４号桑野ビル２階,,13,113,1500001,,,,,,,2023-10-11,1,,,,,テンフォーエンターテインメント,0
396,2011301029072,新規,0,2023-10-11,2023-10-11,株式会社ｓｕｈａ,,株式会社,東京都,杉並区,阿佐谷南１丁目２７―２,,13,115,1660004,,,,,,,2023-10-11,1,,,,,スーハー,0
405,2012401041099,新規,0,2023-10-11,2023-10-11,田所エステート株式会社,,株式会社,東京都,調布市,入間町２丁目２８番地１８－６１４号,,13,208,1820004,,,,,,,2023-10-11,1,,,,,タドコロエステート,0
423,2020001153875,新規,0,2023-10-11,2023-10-11,株式会社信商事,,株式会社,神奈川県,横浜市南区,中島町１丁目１１番２号,,14,105,2320055,,,,,,,2023-10-11,1,,,,,マコトショウジ,0
443,2021003013662,新規,0,2023-10-11,2023-10-11,オフィス福山司合同会社,,合同会社,神奈川県,三浦郡葉山町,堀内１０３１番地の８,,14,301,2400112,,,,,,,2023-10-11,1,,,,,オフィスフクヤマツカサ,0
453,2030001156266,新規,0,2023-10-11,2023-10-11,株式会社エックスユニオン,,株式会社,埼玉県,さいたま市大宮区,桜木町２丁目３番地大宮マルイ７階,,11,103,3300854,,,,,,,2023-10-11,1,,,,,エックスユニオン,0
454,2030001156415,新規,0,2023-10-11,2023-10-11,株式会社キャベッジマム,,株式会社,埼玉県,朝霞市,幸町１丁目１２番９号,,11,227,3510015,,,,,,,2023-10-11,1,,,,,キャベッジマム,0
455,2030001156530,新規,0,2023-10-11,2023-10-11,株式会社工藤工業,,株式会社,埼玉県,さいたま市北区,吉野町１丁目３５２番地２オーベル大宮宮原２０８号室,,11,102,3310811,,,,,,,2023-10-11,1,,,,,クドウコウギョウ,0
456,2030001156563,新規,0,2023-10-11,2023-10-11,株式会社ＢＥＥＣＯＮ,,株式会社,埼玉県,熊谷市,押切２１５３番地９,,11,202,3600111,,,,,,,2023-10-11,1,,,,,ビーコン,0
466,2030003022763,新規,0,2023-10-11,2023-10-11,ＴＤ　ｃｏｒｐｏｒａｔｉｏｎ合同会社,,合同会社,埼玉県,戸田市,上戸田４丁目６番４号,,11,224,3350022,,,,,,,2023-10-11,1,,,,,ティーディーコーポレーション,0
476,2040001130385,新規,0,2023-10-11,2023-10-11,Ｖｉｎｔａｇｅ　Ｔｅｃｈｎｏｌｏｇｙ株式会社,,株式会社,千葉県,四街道市,四街道３丁目３番２７号,,12,228,2840005,,,,,,,2023-10-11,1,,,,,ヴィンテージテクノロジー,0
477,2040001130402,新規,0,2023-10-11,2023-10-11,株式会社アンアレット,,株式会社,千葉県,市原市,鶴舞１０２５番地の５,,12,219,2900512,,,,,,,2023-10-11,1,,,,,アンアレット,0
478,2040001130443,新規,0,2023-10-11,2023-10-11,Ｍ＆Ｄ株式会社,,株式会社,千葉県,松戸市,大谷口３８３－２０エクセレントシティ新松戸グラン２２２号室,,12,207,2700005,,,,,,,2023-10-11,1,,,,,エムアンドディー,0
480,2040005022141,新規,0,2023-10-11,2023-10-11,太平事業協同組合,,その他の設立登記法人,千葉県,市原市,五所１７１５,,12,219,2900066,,,,,,,2023-10-11,1,,,,,タイヘイ,0
481,2050001053610,新規,0,2023-10-11,2023-10-11,株式会社エス企画,,株式会社,茨城県,日立市,東多賀町２丁目７番１０号,,08,202,3160004,,,,,,,2023-10-11,1,,,,,エスキカク,0
486,2060003004759,新規,0,2023-10-11,2023-10-11,合同会社ＣＥＹＬＯＬＩＯＮ,,合同会社,栃木県,足利市,丸山町６８８番地７ブリーゼ足利Ａ号室,,09,202,3260057,,,,,,,2023-10-11,1,,,,,セイロリオン,0
490,2080005007576,新規,0,2023-10-11,2023-10-11,ＮＰＯ法人子どもとメディア静岡,,その他の設立登記法人,静岡県,静岡市葵区,大岩２丁目４９番１３－３０２号,,22,101,4200886,,,,,,,2023-10-11,1,,,,,コドモトメディアシズオカ,0
491,2080101024260,新規,0,2023-10-11,2023-10-11,株式会社シアナグループ,,株式会社,静岡県,沼津市,大岡９００番地の３,,22,203,4100022,,,,,,,2023-10-11,1,,,,,シアナグループ,0
493,2080103002900,新規,0,2023-10-11,2023-10-11,合同会社ペットメモリアルパーク函南,,合同会社,静岡県,田方郡函南町,平井１７５３番地の２３３,,22,325,4190107,,,,,,,2023-10-11,1,,,,,ペットメモリアルパークカンナミ,0
494,2080401026782,新規,0,2023-10-11,2023-10-11,リンクロジ株式会社,,株式会社,静岡県,浜松市東区,白鳥町２４５番地,,22,132,4350002,,,,,,,2023-10-11,1,,,,,リンクロジ,0
504,2110001037912,新規,0,2023-10-11,2023-10-11,共栄新潟株式会社,,株式会社,新潟県,新潟市東区,海老ケ瀬新町３番７号,,15,102,9500808,,,,,,,2023-10-11,1,,,,,キョウエイニイガタ,0
511,2120001258648,新規,0,2023-10-11,2023-10-11,ホットライン株式会社,,株式会社,大阪府,大阪市浪速区,恵美須西３丁目１６番３９－５０３号,,27,111,5560003,,,,,,,2023-10-11,1,,,,,ホットライン,0
512,2120005023924,新規,0,2023-10-11,2023-10-11,一般社団法人難治性疾患医学会,,その他の設立登記法人,大阪府,大阪市阿倍野区,松崎町３丁目１０番６号ルネグラン阿倍野松崎町１１０２号,,27,119,5450053,,,,,,,2023-10-11,1,,,,,ナンジセイシッカンイガクカイ,0
513,2120005023932,新規,0,2023-10-11,2023-10-11,弁護士法人進陽法律事務所,,その他の設立登記法人,大阪府,大阪市北区,西天満４丁目７番１号北ビル１号館３０５号,,27,127,5300047,,,,,,,2023-10-11,1,,,,,シンヨウホウリツジムショ,0
514,2120901048140,新規,0,2023-10-11,2023-10-11,株式会社ＳＴｏｎｅ,,株式会社,大阪府,箕面市,瀬川１丁目７番５２号,,27,220,5620045,,,,,,,2023-10-11,1,,,,,エスティーワン,0
532,2150003003090,新規,0,2023-10-11,2023-10-11,トラッシュ合同会社,,合同会社,奈良県,北葛城郡広陵町,大字安部１４９８番地３１,,29,426,6350825,,,,,,,2023-10-11,1,,,,,トラッシュ,0
538,2160001025400,新規,0,2023-10-11,2023-10-11,株式会社でたらめ,,株式会社,滋賀県,東近江市,上山町４２２番地,,25,213,5270142,,,,,,,2023-10-11,1,,,,,デタラメ,0
547,2180001158256,新規,0,2023-10-11,2023-10-11,株式会社藤グループ,,株式会社,愛知県,名古屋市東区,東片端町３５第二加藤ビル１階,,23,102,4610015,,,,,,,2023-10-11,1,,,,,フジグループ,0
550,2180003025826,新規,0,2023-10-11,2023-10-11,合同会社Ｗｏｏｄ　Ｂｅｌｌ,,合同会社,愛知県,春日井市,大手町４丁目９番地１８,,23,206,4860807,,,,,,,2023-10-11,1,,,,,ウッドベル,0
551,2180003025834,新規,0,2023-10-11,2023-10-11,アイメディック合同会社,,合同会社,愛知県,名古屋市緑区,万場山２丁目２０６番１－４０４号,,23,114,4580043,,,,,,,2023-10-11,1,,,,,アイメディック,0
552,2180005020387,新規,0,2023-10-11,2023-10-11,一般社団法人名西福祉会,,その他の設立登記法人,愛知県,名古屋市西区,八筋町１１６番地の１,,23,104,4520815,,,,,,,2023-10-11,1,,,,,メイセイフクシカイ,0
558,2200001041806,新規,0,2023-10-11,2023-10-11,株式会社彩絆商店,,株式会社,岐阜県,多治見市,虎渓山町２丁目１番地の１（１０街区２－６）,,21,204,5070014,,,,,,,2023-10-11,1,,,,,サイキショウテン,0
572,2260001038391,新規,0,2023-10-11,2023-10-11,株式会社Ｐｏｗｅｒ,,株式会社,岡山県,岡山市東区,金岡西町１１７８番地６,,33,103,7048193,,,,,,,2023-10-11,1,,,,,パワー,0
577,2280005007572,新規,0,2023-10-11,2023-10-11,一般社団法人リーガルサポート雲南,,その他の設立登記法人,島根県,雲南市,三刀屋町三刀屋３２４番地,,32,209,6902404,,,,,,,2023-10-11,1,,,,,リーガルサポートウンナン,0
579,2290001103333,新規,0,2023-10-11,2023-10-11,株式会社ｈａｒｕ,,株式会社,福岡県,福岡市博多区,美野島３丁目１９番１６号泰陽ビル３０１,,40,132,8120017,,,,,,,2023-10-11,1,,,,,ハル,0
581,2290003014462,新規,0,2023-10-11,2023-10-11,合同会社ＣｈｉｋｕＦｕｌｌ,,合同会社,福岡県,福岡市中央区,平尾３丁目１２－１５－６０１,,40,133,8100014,,,,,,,2023-10-11,1,,,,,チクフル,0
582,2290003014470,新規,0,2023-10-11,2023-10-11,合同会社ＩＣＨ,,合同会社,福岡県,福岡市博多区,博多駅前３丁目４番３１－９０２号エンクレスト博多駅前ＩＩＩ,00132199,40,132,8120011,,,,,,,2023-10-11,1,,,,,アイシーエイチ,0
584,2290801029934,新規,0,2023-10-11,2023-10-11,株式会社リエート,,株式会社,福岡県,北九州市八幡東区,西本町２丁目２番１－１６０２号,,40,108,8050061,,,,,,,2023-10-11,1,,,,,リエート,0
593,2320003004195,新規,0,2023-10-11,2023-10-11,さわやか不動産合同会社,,合同会社,大分県,大分市,新春日町２丁目２番７号,,44,201,8700818,,,,,,,2023-10-11,1,,,,,サワヤカフドウサン,0
599,2340001025968,新規,0,2023-10-11,2023-10-11,株式会社ＳＨＩＮＯＢＵ,,株式会社,鹿児島県,薩摩川内市,高城町４３２７番地３,,46,215,8950211,,,,,,,2023-10-11,1,,,,,シノブ,0
600,2340001025976,新規,0,2023-10-11,2023-10-11,十全株式会社,,株式会社,鹿児島県,鹿児島市,加治屋町３番７号,,46,201,8920846,,,,,,,2023-10-11,1,,,,,ジュウゼン,0
615,2380001034049,新規,0,2023-10-11,2023-10-11,安養寺果実販売株式会社,,株式会社,福島県,福島市,大笹生字山神２６番地,,07,201,9600251,,,,,,,2023-10-11,1,,,,,アンヨウジカジツハンバイ,0
625,2420001018435,新規,0,2023-10-11,2023-10-11,株式会社ＳａｋａＺｕｋｉ,,株式会社,青森県,八戸市,旭ケ丘３丁目１番地５２,,02,203,0310824,,,,,,,2023-10-11,1,,,,,サカズキ,0
626,2420001018443,新規,0,2023-10-11,2023-10-11,株式会社七福神,,株式会社,青森県,北津軽郡鶴田町,大字鶴田字相原１３０番地２,,02,384,0383503,,,,,,,2023-10-11,1,,,,,シチフクジン,0
633,2430001090111,新規,0,2023-10-11,2023-10-11,株式会社Ｒｅｖｅｌ,,株式会社,北海道,石狩市,花川北七条３丁目３４番地,,01,235,0613217,,,,,,,2023-10-11,1,,,,,ルヴェル,0
634,2430003015504,新規,0,2023-10-11,2023-10-11,ＵＳＩ合同会社,,合同会社,北海道,札幌市中央区,南九条西１５丁目２番５号,,01,101,0640809,,,,,,,2023-10-11,1,,,,,ユーエスアイ,0
635,2430003015512,新規,0,2023-10-11,2023-10-11,ｂａｌｌｓ　ｄｅｅｐ　ｉｎ　ｐｏｗｄｅｒ合同会社,,合同会社,北海道,虻田郡倶知安町,南四条西２丁目２番地５８,,01,400,0440034,,,,,,,2023-10-11,1,,,,,ボールズディープインパウダー,0
638,2470001019841,新規,0,2023-10-11,2023-10-11,株式会社新鋭鋼業,,株式会社,香川県,さぬき市,寒川町石田東甲４７２番地９,,37,206,7692321,,,,,,,2023-10-11,1,,,,,シンエイコウギョウ,0
641,2480001012250,新規,0,2023-10-11,2023-10-11,株式会社ＨＥＸ,,株式会社,徳島県,徳島市,南前川町３丁目１番地６,,36,201,7700808,,,,,,,2023-10-11,1,,,,,ヘックス,0
648,2700150121176,新規,0,2023-10-11,2023-10-11,ＤＡＩＭＵ　ＨＯＮＧ　ＫＯＮＧ　ＣＯ．，ＬＩＭＩＴＥＤ,,外国会社等,埼玉県,さいたま市浦和区,常盤１丁目３番９号ロイヤルプラザ常盤１０１,,11,107,3300061,中華人民共和国香港特別行政区九龍尖沙咀麼地道６１号２階２５号室,,,,,,2023-10-11,1,,,,,ダイムホンコン,0
658,3010001239105,新規,0,2023-10-11,2023-10-11,株式会社エネアグリ,,株式会社,東京都,中央区,日本橋人形町２丁目２２番４号,,13,102,1030013,,,,,,,2023-10-11,1,,,,,エネアグリ,0
659,3010001239138,新規,0,2023-10-11,2023-10-11,株式会社ｎｕｔｓ,,株式会社,東京都,中央区,築地２丁目１０番２号ＪＰＢＡＳＥ３階,,13,102,1040045,,,,,,,2023-10-11,1,,,,,ナッツ,0
660,3010001239162,新規,0,2023-10-11,2023-10-11,銀座吉田ホールディングス株式会社,,株式会社,東京都,中央区,築地３丁目１番２号,,13,102,1040045,,,,,,,2023-10-11,1,,,,,ギンザヨシダホールディングス,0
663,3010101015843,新規,0,2023-10-11,2023-10-11,株式会社ｏｒ　ｇｌｏｂｅ,,株式会社,東京都,八王子市,明神町４丁目１４番１号,,13,201,1920046,,,,,,,2023-10-11,1,,,,,オアグローブ,0
680,3010401177656,新規,0,2023-10-11,2023-10-11,株式会社ディメンショナル,,株式会社,東京都,港区,西新橋３丁目１６－１１,,13,103,1050003,,,,,,,2023-10-11,1,,,,,ディメンショナル,0
681,3010401177706,新規,0,2023-10-11,2023-10-11,株式会社ロジプロ,,株式会社,東京都,港区,海岸３丁目２０番２０号,,13,103,1080022,,,,,,,2023-10-11,1,,,,,ロジプロ,0
687,3010403031084,新規,0,2023-10-11,2023-10-11,合同会社ティーアール・トゥウェルブ,,合同会社,東京都,港区,赤坂２丁目１０番５号税理士法人赤坂国際会計事務所内,,13,103,1070052,,,,,,,2023-10-11,1,,,,,ティーアールトゥウェルブ,0
688,3010403031101,新規,0,2023-10-11,2023-10-11,合同会社すずはな,,合同会社,東京都,港区,赤坂１丁目３番５号,,13,103,1070052,,,,,,,2023-10-11,1,,,,,スズハナ,0
689,3010403031118,新規,0,2023-10-11,2023-10-11,合同会社Ｍａｋａｒｉｏｓ,,合同会社,東京都,港区,浜松町２丁目２番１５号浜松町ダイヤビル２Ｆ,,13,103,1050013,,,,,,,2023-10-11,1,,,,,マカリオス,0
690,3010403031126,新規,0,2023-10-11,2023-10-11,ＪＭインダス６合同会社,,合同会社,東京都,港区,六本木１丁目９番１０号アークヒルズ仙石山森タワー４０階,,13,103,1060032,,,,,,,2023-10-11,1,,,,,ジェイエムインダスシックス,0
693,3010503007174,新規,0,2023-10-11,2023-10-11,合同会社ミカリア,,合同会社,東京都,台東区,台東２丁目２７番３－５０２号　スカイビュー秋葉原,,13,106,1100016,,,,,,,2023-10-11,1,,,,,ミカリア,0
694,3010503007182,新規,0,2023-10-11,2023-10-11,合同会社ＭＹ,,合同会社,東京都,台東区,浅草５丁目６－１０－２０１,,13,106,1110032,,,,,,,2023-10-11,1,,,,,エムワイ,0
696,3010601063929,新規,0,2023-10-11,2023-10-11,株式会社スクールブレイン,,株式会社,東京都,墨田区,緑３丁目１０番８－９０４号レクセルマンション錦糸町,,13,107,1300021,,,,,,,2023-10-11,1,,,,,スクールブレイン,0
698,3010701044960,新規,0,2023-10-11,2023-10-11,株式会社リバティム,,株式会社,東京都,品川区,平塚１丁目７番４号野崎店舗１０１,,13,109,1420051,,,,,,,2023-10-11,1,,,,,リバティム,0
710,3011001157387,新規,0,2023-10-11,2023-10-11,株式会社ＭＡＴＯＵ,,株式会社,東京都,渋谷区,神宮前３丁目１８番４２号ル・シヤージュ神宮前４０１,,13,113,1500001,,,,,,,2023-10-11,1,,,,,マトウ,0
711,3011001157453,新規,0,2023-10-11,2023-10-11,株式会社ファスペラ,,株式会社,東京都,目黒区,下目黒１丁目１番１４号,,13,110,1530064,,,,,,,2023-10-11,1,,,,,ファスペラ,0
712,3011001157461,新規,0,2023-10-11,2023-10-11,株式会社畷,,株式会社,東京都,渋谷区,道玄坂１丁目１０番８号渋谷道玄坂東急ビル２Ｆ－Ｃ,,13,113,1500043,,,,,,,2023-10-11,1,,,,,ナワテ,0
717,3011201024965,新規,0,2023-10-11,2023-10-11,株式会社幸和トラスト,,株式会社,東京都,中野区,新井１丁目１２番８号,,13,114,1650026,,,,,,,2023-10-11,1,,,,,コウワトラスト,0
718,3011301029063,新規,0,2023-10-11,2023-10-11,ＴＫＹコンサルティング株式会社,,株式会社,東京都,杉並区,荻窪３丁目２０番１３号,,13,115,1670051,,,,,,,2023-10-11,1,,,,,ティーケーワイコンサルティング,0
719,3011401025516,新規,0,2023-10-11,2023-10-11,株式会社ミロワール,,株式会社,東京都,板橋区,蓮根２丁目１９番２９号,,13,119,1740046,,,,,,,2023-10-11,1,,,,,ミロワール,0
722,3011501029846,新規,0,2023-10-11,2023-10-11,ＤＳテック株式会社,,株式会社,東京都,荒川区,東日暮里６丁目１６番１６号,,13,118,1160014,,,,,,,2023-10-11,1,,,,,ディーエステック,0
728,3011803005883,新規,0,2023-10-11,2023-10-11,合同会社才用,,合同会社,東京都,葛飾区,東立石３丁目２２―１６,,13,122,1240013,,,,,,,2023-10-11,1,,,,,サイヨウ,0
729,3012401041098,新規,0,2023-10-11,2023-10-11,株式会社ＡＢＵＲＩＭＡＮ,,株式会社,東京都,調布市,布田１丁目２０番地２ロンブス調布店舗Ｃ,,13,208,1820024,,,,,,,2023-10-11,1,,,,,アブリマン,0
730,3012403006207,新規,0,2023-10-11,2023-10-11,合同会社デイズ,,合同会社,東京都,府中市,若松町２丁目６番地の１プリマベーラＣ棟１０１,,13,206,1830005,,,,,,,2023-10-11,1,,,,,デイズ,0
731,3012403006223,新規,0,2023-10-11,2023-10-11,合同会社ＡＧＵＳＡ　Ｉｎｖｅｓｔｍｅｎｔ,,合同会社,東京都,調布市,多摩川７丁目８番地２－１００２号室,,13,208,1820025,,,,,,,2023-10-11,1,,,,,,0
747,3020003024735,新規,0,2023-10-11,2023-10-11,合同会社Ａ企画,,合同会社,神奈川県,川崎市中原区,中丸子１３番地７リエトコート武蔵小杉イーストタワー３８０２号,,14,133,2110012,,,,,,,2023-10-11,1,,,,,エーキカク,0
752,3021001080398,新規,0,2023-10-11,2023-10-11,株式会社Ｂｅｌｌ　Ｔｒｅｅ　ｆｉｒｍ,,株式会社,神奈川県,海老名市,下今泉１丁目８番３５号,,14,215,2430435,,,,,,,2023-10-11,1,,,,,ベルツリーファーム,0
761,3030001156562,新規,0,2023-10-11,2023-10-11,株式会社正翔工務店,,株式会社,埼玉県,八潮市,大瀬１丁目５番地２スウィートコート八潮ＩＩＩ２０１号,00132208,11,234,3400822,,,,,,,2023-10-11,1,,,,,セイショウコウムテン,0
762,3030001156570,新規,0,2023-10-11,2023-10-11,株式会社ｉｋｕｓｔａｎ．,,株式会社,埼玉県,八潮市,大瀬４丁目１６番地４－２０３,,11,234,3400822,,,,,,,2023-10-11,1,,,,,イクスタン,0
763,3030001156629,新規,0,2023-10-11,2023-10-11,株式会社京和,,株式会社,埼玉県,川口市,幸町２丁目１０番２－３０１号,,11,203,3320016,,,,,,,2023-10-11,1,,,,,,0
764,3030003022580,新規,0,2023-10-11,2023-10-11,龍興商事合同会社,,合同会社,埼玉県,入間郡三芳町,大字竹間沢４５０－１７－２０２,,11,324,3540043,,,,,,,2023-10-11,1,,,,,リュウコウショウジ,0
765,3030003022713,新規,0,2023-10-11,2023-10-11,Ｗｈｉｔｅ　Ｏａｋ　Ｃａｐｉｔａｌ合同会社,,合同会社,埼玉県,川口市,金山町１２番１－２４０４号サウスゲートタワー川口,,11,203,3320014,,,,,,,2023-10-11,1,,,,,ホワイトオークキャピタル,0
772,3040001130434,新規,0,2023-10-11,2023-10-11,株式会社Ｂｅｓｔミライ,,株式会社,千葉県,市川市,南行徳４丁目８番６号,,12,203,2720138,,,,,,,2023-10-11,1,,,,,ベストミライ,0
778,3050001053584,新規,0,2023-10-11,2023-10-11,株式会社エルネスト,,株式会社,茨城県,猿島郡境町,大字西泉田１２４０番地６０,,08,546,3060431,,,,,,,2023-10-11,1,,,,,エルネスト,0
779,3050001053592,新規,0,2023-10-11,2023-10-11,株式会社Ｔｒａｄｉｔｉｏｎａｌ　Ｓｐｉｒｉｔ,,株式会社,茨城県,水戸市,城南２丁目５番１９号黄門ビル３Ｆ,,08,201,3100803,,,,,,,2023-10-11,1,,,,,トラディショナルスピリット,0
782,3060003004758,新規,0,2023-10-11,2023-10-11,Ｃｈｉｃｋ　Ｃａｍｐ合同会社,,合同会社,栃木県,宇都宮市,新町１丁目３番１号,,09,201,3200831,,,,,,,2023-10-11,1,,,,,チックキャップ,0
790,3080001025903,新規,0,2023-10-11,2023-10-11,株式会社Ｉｒｏ‐Ｄｏｒｉプラス,,株式会社,静岡県,島田市,御請２６０番地の１,,22,209,4270013,,,,,,,2023-10-11,1,,,,,イロドリプラス,0
791,3080001025911,新規,0,2023-10-11,2023-10-11,株式会社ハピネス,,株式会社,静岡県,島田市,井口３７１番地,,22,209,4270104,,,,,,,2023-10-11,1,,,,,ハピネス,0
797,3080401026781,新規,0,2023-10-11,2023-10-11,株式会社カロフ,,株式会社,静岡県,浜松市中区,中島３丁目４番１２号,,22,131,4300856,,,,,,,2023-10-11,1,,,,,カロフ,0
801,3100003007211,新規,0,2023-10-11,2023-10-11,ＦＯＲＥＳＴ合同会社,,合同会社,長野県,長野市,大字南長野西後町１５８３番地１,,20,201,3800845,,,,,,,2023-10-11,1,,,,,フォレスト,0
811,3120001258259,新規,0,2023-10-11,2023-10-11,言知株式会社,,株式会社,大阪府,大阪市阿倍野区,阿倍野元町１４－５－２０３号室,,27,119,5450034,,,,,,,2023-10-11,1,,,,,ゲンチ,0
812,3120001258738,新規,0,2023-10-11,2023-10-11,株式会社ＥＣＲＭ．ＪＰ,,株式会社,大阪府,大阪市北区,梅田１丁目２番２号大阪駅前第２ビル１２－１２,,27,127,5300001,,,,,,,2023-10-11,1,,,,,イーシーアールエムドットジェイピー,0
815,3120005023923,新規,0,2023-10-11,2023-10-11,特定技能ビザ申請行政書士法人,,その他の設立登記法人,大阪府,大阪市北区,東天満１丁目６番８号ラシーヌ東天満４０１号室,,27,127,5300044,,,,,,,2023-10-11,1,,,,,,0
822,3122001037452,新規,0,2023-10-11,2023-10-11,株式会社ハーモニアオアシス,,株式会社,大阪府,八尾市,八尾木３丁目１０５番地,,27,212,5810027,,,,,,,2023-10-11,1,,,,,ハーモニアオアシス,0
827,3130001075380,新規,0,2023-10-11,2023-10-11,デジベント株式会社,,株式会社,京都府,京都市下京区,朱雀宝蔵町４４番地,,26,106,6008846,,,,,,,2023-10-11,1,,,,,デジベント,0
832,3140001131926,新規,0,2023-10-11,2023-10-11,株式会社Ｇｒａｃｉａｓ,,株式会社,兵庫県,尼崎市,東園田町２丁目９７番地の３,,28,202,6610953,,,,,,,2023-10-11,1,,,,,,0
837,3140003019665,新規,0,2023-10-11,2023-10-11,合同会社ケッシュウ,,合同会社,兵庫県,神戸市中央区,伊藤町１１０番地２,,28,110,6500032,,,,,,,2023-10-11,1,,,,,ケッシュウ,0
839,3140005026759,新規,0,2023-10-11,2023-10-11,一般社団法人未来と希望,,その他の設立登記法人,兵庫県,豊岡市,出石町川原字川原１１１,,28,209,6680231,,,,,,,2023-10-11,1,,,,,ミライトキボウ,0
841,3160001025382,新規,0,2023-10-11,2023-10-11,株式会社オーテック,,株式会社,滋賀県,愛知郡愛荘町,畑田１１番地,,25,425,5291323,,,,,,,2023-10-11,1,,,,,オーテック,0
842,3160001025416,新規,0,2023-10-11,2023-10-11,ＤｏＤｏｄｏ株式会社,,株式会社,滋賀県,米原市,下多良１丁目１６４番地１,,25,214,5210016,,,,,,,2023-10-11,1,,,,,ドゥドゥドゥ,0
844,3170001017825,新規,0,2023-10-11,2023-10-11,株式会社うさぎ,,株式会社,和歌山県,東牟婁郡那智勝浦町,大字朝日４丁目１０５番地,,30,421,6495332,,,,,,,2023-10-11,1,,,,,ウサギ,0
859,3180001158156,新規,0,2023-10-11,2023-10-11,株式会社フィデスモール,,株式会社,愛知県,名古屋市中区,大須４丁目１３－２８－１５０４号,,23,106,4600011,,,,,,,2023-10-11,1,,,,,フィデスモール,0
860,3180001158346,新規,0,2023-10-11,2023-10-11,株式会社酒井鋼器塗装,,株式会社,愛知県,名古屋市緑区,野末町９０７番地,,23,114,4580915,,,,,,,2023-10-11,1,,,,,サカイコウキトソウ,0
861,3180001158370,新規,0,2023-10-11,2023-10-11,株式会社ラックアップ,,株式会社,愛知県,名古屋市名東区,猪子石３丁目２０１番地,,23,115,4650021,,,,,,,2023-10-11,1,,,,,ラックアップ,0
862,3180001158387,新規,0,2023-10-11,2023-10-11,株式会社昂和高圧,,株式会社,愛知県,一宮市,古見町１７番地１,,23,203,4910084,,,,,,,2023-10-11,1,,,,,コウワコウアツ,0
863,3180001158395,新規,0,2023-10-11,2023-10-11,株式会社Ｍａｎａｖｉｌｌ,,株式会社,愛知県,名古屋市西区,香呑町３丁目１２０番地の２,,23,104,4510015,,,,,,,2023-10-11,1,,,,,マナビル,0
866,3180003025841,新規,0,2023-10-11,2023-10-11,Ｈｕｓｋｙ合同会社,,合同会社,愛知県,小牧市,桃ケ丘１丁目３８－４３,,23,219,4850813,,,,,,,2023-10-11,1,,,,,ハスキー,0
876,3200001041796,新規,0,2023-10-11,2023-10-11,株式会社ＨＡＲＵ,,株式会社,岐阜県,大垣市,鶴見町２７０番地Ａ－１０１,,21,202,5030805,,,,,,,2023-10-11,1,,,,,ハル,0
877,3210001019503,新規,0,2023-10-11,2023-10-11,株式会社ふくいキャピタルパートナーズ,,株式会社,福井県,福井市,順化１丁目１番１号,,18,201,9100023,,,,,,,2023-10-11,1,,,,,フクイキャピタルパートナーズ,0
882,3230005009341,新規,0,2023-10-11,2023-10-11,農事組合法人Ａｇｒｉ　ｎｅｗ　Ｗｉｎｄｓ,,その他の設立登記法人,富山県,南砺市,細野２５６番地,,16,210,9391805,,,,,,,2023-10-11,1,,,,,アグリニューウインズ,0
885,3260001038382,新規,0,2023-10-11,2023-10-11,株式会社ＢＬＵＥ　ＲＥＴＲＯ,,株式会社,岡山県,岡山市北区,青江４丁目２２－３６,,33,101,7000941,,,,,,,2023-10-11,1,,,,,ブルーレトロ,0
888,3270001008855,新規,0,2023-10-11,2023-10-11,株式会社１１ｏｒ１５,,株式会社,鳥取県,境港市,清水町６７３番地４,,31,204,6840001,,,,,,,2023-10-11,1,,,,,イレブンオアフィフティーン,0
894,3290001103282,新規,0,2023-10-11,2023-10-11,株式会社ＷＫＰｊａｐａｎ,,株式会社,福岡県,福岡市東区,箱崎３丁目３番２８号ＬａＦａｓｅＥｓｔｉｌｌｏ箱崎駅前７０３,,40,131,8120053,,,,,,,2023-10-11,1,,,,,ダブリュウケェピィジャパン,0
895,3290001103340,新規,0,2023-10-11,2023-10-11,株式会社ＮＥＸＴＮＥＴ,,株式会社,福岡県,福岡市博多区,麦野１丁目２８番３６号,,40,132,8120882,,,,,,,2023-10-11,1,,,,,ネクストネット,0
905,3310001018651,新規,0,2023-10-11,2023-10-11,株式会社ＲＹＯＴＥＣ,,株式会社,長崎県,西彼杵郡長与町,岡郷１８番地,,42,307,8512121,,,,,,,2023-10-11,1,,,,,リョーテック,0
909,3320001020061,新規,0,2023-10-11,2023-10-11,株式会社ミライ・プロジェクション,,株式会社,大分県,別府市,石垣西７丁目１１番１７号,,44,202,8740910,,,,,,,2023-10-11,1,,,,,ミライプロジェクション,0
911,3330003010019,新規,0,2023-10-11,2023-10-11,合同会社福壱,,合同会社,熊本県,上益城郡嘉島町,大字鯰２８３３番地３,,43,442,8613101,,,,,,,2023-10-11,1,,,,,フクイチ,0
914,3340001025975,新規,0,2023-10-11,2023-10-11,ｉＣＵＲＥＸ株式会社,,株式会社,鹿児島県,鹿児島市,名山町９番１５号,,46,201,8920821,,,,,,,2023-10-11,1,,,,,アイキュレックス,0
920,3360001032656,新規,0,2023-10-11,2023-10-11,株式会社沖興防災,,株式会社,沖縄県,沖縄市,宮里４丁目１７番３号,,47,211,9042165,,,,,,,2023-10-11,1,,,,,オキコウボウサイ,0
923,3360005006912,新規,0,2023-10-11,2023-10-11,一般社団法人字宜野湾郷友会,,その他の設立登記法人,沖縄県,宜野湾市,宜野湾２丁目１３番５号,,47,205,9012211,,,,,,,2023-10-11,1,,,,,アザギノワンキョウユウカイ,0
924,3370001050500,新規,0,2023-10-11,2023-10-11,株式会社オーシャンネットワーク,,株式会社,宮城県,仙台市宮城野区,原町５丁目５番１２号,,04,102,9830841,,,,,,,2023-10-11,1,,,,,オーシャンネットワーク,0
937,3430001090127,新規,0,2023-10-11,2023-10-11,株式会社高翔架設,,株式会社,北海道,札幌市東区,北二十一条東１８丁目１番２８－１０２号,,01,103,0650021,,,,,,,2023-10-11,1,,,,,タカショウカセツ,0
938,3430001090143,新規,0,2023-10-11,2023-10-11,株式会社中西米穀,,株式会社,北海道,岩見沢市,栗沢町上幌２６１９番地,,01,210,0680112,,,,,,,2023-10-11,1,,,,,ナカニシベイコク,0
941,3430005014800,新規,0,2023-10-11,2023-10-11,一般財団法人さっぽろ寺山修司資料館,,その他の設立登記法人,北海道,札幌市西区,山の手七条６丁目４番２５号,,01,107,0630007,,,,,,,2023-10-11,1,,,,,サッポロテラヤマシュウジシリョウカン,0
944,3470001019840,新規,0,2023-10-11,2023-10-11,株式会社新やまびこ開発,,株式会社,香川県,高松市,天神前１０番５号,,37,201,7600018,,,,,,,2023-10-11,1,,,,,シンヤマビコカイハツ,0
947,3490001010608,新規,0,2023-10-11,2023-10-11,株式会社四国テクノロジー工業,,株式会社,高知県,高知市,朝倉西町１丁目８番２号,,39,201,7808077,,,,,,,2023-10-11,1,,,,,シコクテクノロジーコウギョウ,0
950,3500003003120,新規,0,2023-10-11,2023-10-11,合同会社ツナグ,,合同会社,愛媛県,松山市,森松町３８番地１,,38,201,7911113,,,,,,,2023-10-11,1,,,,,,0
952,3700150121175,新規,0,2023-10-11,2023-10-11,ＰＲ　Ｅｎｔｅｒｐｒｉｓｅｓ,,外国会社等,静岡県,沼津市,市場町４－２２野田マンション２１号室,,22,203,4100831,ネパール、ナワルパラシ郡、カワソティ市、バッルダガッタ・スッタ・イースト、バッルダガッタ・スッタ・イースト、フィルム・ホールチョーク、０８区,,,,,,2023-10-11,1,,,,,ピーアールエンタープライゼス,0
963,4010001238997,新規,0,2023-10-11,2023-10-11,株式会社ＨＰＳ,,株式会社,東京都,千代田区,西神田３丁目８番３号千代田ファーストハイツ１５２０,,13,101,1010065,,,,,,,2023-10-11,1,,,,,エイチピーエス,0
964,4010001239038,新規,0,2023-10-11,2023-10-11,グルメアクションサービス株式会社,,株式会社,東京都,千代田区,神田須田町２丁目２５番地ＧＹＢ秋葉原４１４,,13,101,1010041,,,,,,,2023-10-11,1,,,,,グルメアクションサービス,0
965,4010001239120,新規,0,2023-10-11,2023-10-11,株式会社Ｈａｓｈｅｄ,,株式会社,東京都,千代田区,神田佐久町一丁目１６－１大橋ビル５０３,,13,101,1000000,,,,,,,2023-10-11,1,,,,,ハッシュド,0
970,4010005037347,新規,0,2023-10-11,2023-10-11,一般社団法人がん安心サポート研究会,,その他の設立登記法人,東京都,中央区,日本橋３丁目３番１１号第１中央ビル４階,,13,102,1030027,,,,,,,2023-10-11,1,,,,,ガンアンシンサポートケンキュウカイ,0
983,4010401177721,新規,0,2023-10-11,2023-10-11,榑沼工業株式会社,,株式会社,東京都,港区,浜松町２丁目２番１５号浜松町ダイヤビル２Ｆ,,13,103,1050013,,,,,,,2023-10-11,1,,,,,クレヌマコウギョウ,0
984,4010401177738,新規,0,2023-10-11,2023-10-11,ＬＳ‐Ａｖｉａｔｉｏｎ第５９号株式会社,,株式会社,東京都,港区,六本木１丁目６番１号,,13,103,1060032,,,,,,,2023-10-11,1,,,,,エルエスアビエーションダイゴジュウキュウゴウ,0
988,4010403031125,新規,0,2023-10-11,2023-10-11,ＪＭインダス５合同会社,,合同会社,東京都,港区,六本木１丁目９番１０号アークヒルズ仙石山森タワー４０階,,13,103,1060032,,,,,,,2023-10-11,1,,,,,ジェイエムインダスファイブ,0
990,4010501051157,新規,0,2023-10-11,2023-10-11,株式会社ナウアデイズ,,株式会社,東京都,台東区,雷門１丁目６番５号１３０５号室,,13,106,1110034,,,,,,,2023-10-11,1,,,,,ナウアデイズ,0
991,4010503007181,新規,0,2023-10-11,2023-10-11,合同会社千草屋,,合同会社,東京都,台東区,浅草５丁目６０番３号,,13,106,1110032,,,,,,,2023-10-11,1,,,,,チグサヤ,0
997,4010701044951,新規,0,2023-10-11,2023-10-11,株式会社リビル,,株式会社,東京都,品川区,西五反田８丁目５－１－５０１,,13,109,1410031,,,,,,,2023-10-11,1,,,,,リビル,0
1009,4011101104668,新規,0,2023-10-11,2023-10-11,株式会社Ｓａｒａ’ｓ　ｓｔｙｌｅ,,株式会社,東京都,新宿区,早稲田鶴巻町５７０番地１０,,13,104,1620041,,,,,,,2023-10-11,1,,,,,サラズスタイル,0
1010,4011101104692,新規,0,2023-10-11,2023-10-11,株式会社ＺＡＹＯＮ,,株式会社,東京都,新宿区,西新宿７丁目９番地１５号ダイカンプラザビジネス清田ビル１００３,,13,104,1600023,,,,,,,2023-10-11,1,,,,,ザヨン,0
1011,4011101104701,新規,0,2023-10-11,2023-10-11,ＶＩＳＴＡ不動産株式会社,,株式会社,東京都,新宿区,原町３丁目１５番地１,,13,104,1620053,,,,,,,2023-10-11,1,,,,,ビスタフドウサン,0
1012,4011103013594,新規,0,2023-10-11,2023-10-11,立川商事合同会社,,合同会社,東京都,新宿区,住吉町４－１－２２２,,13,104,1620065,,,,,,,2023-10-11,1,,,,,タチカワショウジ,0
1015,4011201024964,新規,0,2023-10-11,2023-10-11,株式会社オールグロース,,株式会社,東京都,中野区,中野４丁目１０番２号２階,,13,114,1640001,,,,,,,2023-10-11,1,,,,,オールグロース,0
1023,4011603004085,新規,0,2023-10-11,2023-10-11,合同会社いーふぁむ,,合同会社,東京都,練馬区,豊玉中１丁目１８番６号コリビングハウス新江古田２０２,,13,120,1760013,,,,,,,2023-10-11,1,,,,,イーファム,0
1025,4013105001833,新規,0,2023-10-11,2023-10-11,一般社団法人きのした,,その他の設立登記法人,東京都,青梅市,木野下１丁目４０２－１,,13,205,1980013,,,,,,,2023-10-11,1,,,,,,0
1042,4020005016143,新規,0,2023-10-11,2023-10-11,ＲＢＧ協同組合,,その他の設立登記法人,神奈川県,横浜市中区,長者町３丁目８番１３号ＫＴ関内プラザ３０１,,14,104,2310033,,,,,,,2023-10-11,1,,,,,アールビージー,0
1043,4021001080397,新規,0,2023-10-11,2023-10-11,株式会社八広,,株式会社,神奈川県,海老名市,下今泉４丁目２番１４－７０１号,,14,215,2430435,,,,,,,2023-10-11,1,,,,,ハチヒロ,0
1050,4030001156545,新規,0,2023-10-11,2023-10-11,株式会社ＴＲＵＳＴエンターテインメント,,株式会社,埼玉県,さいたま市西区,大字指扇２６３７番地１鈴栄ビル２Ｆ,,11,101,3310047,,,,,,,2023-10-11,1,,,,,トラストエンターテインメント,0
1051,4030001156561,新規,0,2023-10-11,2023-10-11,株式会社ウェルカムロック,,株式会社,埼玉県,蕨市,塚越５丁目３５番２号１０３号,,11,223,3350002,,,,,,,2023-10-11,1,,,,,ウェルカムロック,0
1052,4030001156636,新規,0,2023-10-11,2023-10-11,株式会社オートサービスコヤマ,,株式会社,埼玉県,さいたま市桜区,中島３丁目１３番１９号,,11,106,3380822,,,,,,,2023-10-11,1,,,,,オートサービスコヤマ,0
1064,4040001130383,新規,0,2023-10-11,2023-10-11,株式会社江戸川学園,,株式会社,千葉県,流山市,駒木４７４,,12,220,2700132,,,,,,,2023-10-11,1,,,,,エドガワガクエン,0
1081,4080001025910,新規,0,2023-10-11,2023-10-11,株式会社アットビート,,株式会社,静岡県,静岡市葵区,吉野町４番７号,,22,101,4200046,,,,,,,2023-10-11,1,,,,,アットビート,0
1084,4080401026780,新規,0,2023-10-11,2023-10-11,株式会社テンタン,,株式会社,静岡県,浜松市中区,鴨江町９６番地の７・７１０号,,22,131,4328024,,,,,,,2023-10-11,1,,,,,テンタン,0
1091,4110001037902,新規,0,2023-10-11,2023-10-11,株式会社焚人,,株式会社,新潟県,三条市,森町１４５６番地,,15,204,9550116,,,,,,,2023-10-11,1,,,,,タクト,0
1098,4120001258308,新規,0,2023-10-11,2023-10-11,Ａｓｉａｎ　Ｂｅｓｔｗａｙ株式会社,,株式会社,大阪府,大阪市阿倍野区,阿倍野元町１４－５－７１１号室,,27,119,5450034,,,,,,,2023-10-11,1,,,,,アジアンベストウェイ,0
1099,4120001258555,新規,0,2023-10-11,2023-10-11,スマートシステム株式会社,,株式会社,大阪府,大阪市北区,豊崎３丁目２０番９号,,27,127,5310072,,,,,,,2023-10-11,1,,,,,スマートシステム,0
1100,4120001258638,新規,0,2023-10-11,2023-10-11,株式会社大興,,株式会社,大阪府,大阪市生野区,鶴橋１丁目１０番１号,,27,116,5440031,,,,,,,2023-10-11,1,,,,,タイコウ,0
1101,4120001258654,新規,0,2023-10-11,2023-10-11,株式会社新和工業,,株式会社,大阪府,門真市,下馬伏町２０番１７号,,27,223,5710009,,,,,,,2023-10-11,1,,,,,シンワコウギョウ,0
1102,4120001258720,新規,0,2023-10-11,2023-10-11,株式会社Ｇｏｏｄ　ｏｎｅ,,株式会社,大阪府,大阪市住之江区,新北島７丁目４番６８号,,27,125,5590024,,,,,,,2023-10-11,1,,,,,グッドワン,0
1107,4120003025061,新規,0,2023-10-11,2023-10-11,ＭＭＵ合同会社,,合同会社,大阪府,大阪市北区,曾根崎新地１丁目５番２０号大川ビルＢ１階Ｂ号室,,27,127,5300002,,,,,,,2023-10-11,1,,,,,エムエムエユー,0
1109,4120901048139,新規,0,2023-10-11,2023-10-11,コヤマ興産株式会社,,株式会社,大阪府,箕面市,小野原西２丁目１０番１３号,,27,220,5620032,,,,,,,2023-10-11,1,,,,,コヤマコウサン,0
1110,4122003002692,新規,0,2023-10-11,2023-10-11,合同会社ふーぷ,,合同会社,大阪府,四條畷市,雁屋南町２７番２０号,,27,229,5750036,,,,,,,2023-10-11,1,,,,,フープ,0
1121,4130005016891,新規,0,2023-10-11,2023-10-11,特定非営利活動法人きょうと藤の木セカンドハウス,,その他の設立登記法人,京都府,京都市伏見区,向島丸町３６－２５,,26,109,6128131,,,,,,,2023-10-11,1,,,,,キョウトフジノキセカンドハウス,0
1126,4140001131925,新規,0,2023-10-11,2023-10-11,柳川工業株式会社,,株式会社,兵庫県,尼崎市,稲葉元町１丁目２番３号,,28,202,6600055,,,,,,,2023-10-11,1,,,,,ヤナガワコウギョウ,0
1136,4150001026785,新規,0,2023-10-11,2023-10-11,株式会社ライズワークス,,株式会社,奈良県,奈良市,学園大和町２丁目３０,,29,201,6310041,,,,,,,2023-10-11,1,,,,,ライズワークス,0
1137,4150003003089,新規,0,2023-10-11,2023-10-11,アットカルチャー合同会社,,合同会社,奈良県,奈良市,白毫寺町３７６番地の１７,,29,201,6308302,,,,,,,2023-10-11,1,,,,,アットカルチャー,0
1139,4160001025407,新規,0,2023-10-11,2023-10-11,株式会社徳久,,株式会社,滋賀県,大津市,大萱６丁目１４番３７号,,25,201,5202144,,,,,,,2023-10-11,1,,,,,トクヒサ,0
1140,4170001017824,新規,0,2023-10-11,2023-10-11,Ｏｈａｎａ株式会社,,株式会社,和歌山県,東牟婁郡太地町,大字太地２９０６番地の７,,30,422,6495171,,,,,,,2023-10-11,1,,,,,オハナ,0
1147,4180001158345,新規,0,2023-10-11,2023-10-11,株式会社Ｔ１,,株式会社,愛知県,名古屋市守山区,大森八龍２丁目１５０１番地の１,,23,113,4630028,,,,,,,2023-10-11,1,,,,,ティーワン,0
1148,4180001158378,新規,0,2023-10-11,2023-10-11,株式会社アール・デコ,,株式会社,愛知県,一宮市,多加木４丁目２８番１８号,,23,203,4910837,,,,,,,2023-10-11,1,,,,,アールデコ,0
1149,4180001158444,新規,0,2023-10-11,2023-10-11,株式会社Ａｐｐｒｏａｃｈ,,株式会社,愛知県,津島市,中野町３番地５ニューコーポ津島Ａ棟２０２号,,23,208,4960836,,,,,,,2023-10-11,1,,,,,アプローチ,0
1155,4180003025816,新規,0,2023-10-11,2023-10-11,合同会社ＮＫネクスト,,合同会社,愛知県,東海市,加木屋町松之内１２番地の６,,23,222,4770032,,,,,,,2023-10-11,1,,,,,エヌケーネクスト,0
1156,4180003025832,新規,0,2023-10-11,2023-10-11,合同会社Ｒｅｓｔａｒｔ,,合同会社,愛知県,名古屋市千種区,松軒１丁目３番１２アルバグランデ千種２０１号,,23,101,4640084,,,,,,,2023-10-11,1,,,,,リスタート,0
1158,4180301037901,新規,0,2023-10-11,2023-10-11,株式会社ｏｎｅｄａｌｅ,,株式会社,愛知県,西尾市,徳次町九伝１６番地１,,23,213,4450072,,,,,,,2023-10-11,1,,,,,ワンデイル,0
1160,4190001030783,新規,0,2023-10-11,2023-10-11,株式会社Ｎｉｃｈｅ　Ｔｏｐ,,株式会社,三重県,名張市,桔梗が丘５番町三街区３３番地,,24,208,5180625,,,,,,,2023-10-11,1,,,,,ニッチトップ,0
1179,4260001038381,新規,0,2023-10-11,2023-10-11,株式会社ＭＩＴＵＫＩ,,株式会社,岡山県,岡山市南区,南輝２丁目２８－２８－Ａ２０１,,33,104,7028023,,,,,,,2023-10-11,1,,,,,ミツキ,0
1182,4270001008854,新規,0,2023-10-11,2023-10-11,株式会社Ｇｒｏｗｔｈ,,株式会社,鳥取県,西伯郡伯耆町,上野７６０番地１２９,,31,390,6894212,,,,,,,2023-10-11,1,,,,,グロース,0
1184,4290001103331,新規,0,2023-10-11,2023-10-11,株式会社ｃｈａｎｇｅ,,株式会社,福岡県,福岡市早良区,野芥８丁目３８番１３号,,40,137,8140171,,,,,,,2023-10-11,1,,,,,チェンジ,0
1185,4290001103348,新規,0,2023-10-11,2023-10-11,株式会社トレルーク,,株式会社,福岡県,福岡市西区,姪の浜４丁目２２番１８号,,40,135,8190002,,,,,,,2023-10-11,1,,,,,トレルーク,0
1186,4290003014469,新規,0,2023-10-11,2023-10-11,合同会社ＵＮＳＵＮＧ,,合同会社,福岡県,福岡市博多区,博多駅前４丁目１６番２２－１２０８号ステイシス博多駅前,,40,132,8120011,,,,,,,2023-10-11,1,,,,,アンサング,0
1188,4310001018626,新規,0,2023-10-11,2023-10-11,株式会社トマト企画室,,株式会社,長崎県,佐世保市,赤崎町２７３番地４,,42,202,8570064,,,,,,,2023-10-11,1,,,,,トマトキカク,0
1189,4310001018650,新規,0,2023-10-11,2023-10-11,株式会社４Ｌｉｆｅ,,株式会社,長崎県,佐世保市,広田１丁目２３番地５３号,,42,202,8593223,,,,,,,2023-10-11,1,,,,,フォーライフ,0
1190,4320001020060,新規,0,2023-10-11,2023-10-11,イコールプラス株式会社,,株式会社,大分県,別府市,亀川東町２７番２２号,,44,202,8740022,,,,,,,2023-10-11,1,,,,,イコールプラス,0
1193,4320003004202,新規,0,2023-10-11,2023-10-11,合同会社ＩＳリペア空調,,合同会社,大分県,大分市,三佐２丁目５番２４号,,44,201,8700108,,,,,,,2023-10-11,1,,,,,アイエスリペアクウチョウ,0
1195,4340001025958,新規,0,2023-10-11,2023-10-11,株式会社稔,,株式会社,鹿児島県,霧島市,隼人町内５０４番地１,,46,218,8995116,,,,,,,2023-10-11,1,,,,,ジン,0
1196,4340001025966,新規,0,2023-10-11,2023-10-11,永幸興業株式会社,,株式会社,鹿児島県,霧島市,国分湊８７３番地７,,46,218,8994315,,,,,,,2023-10-11,1,,,,,エイコウコウギョウ,0
1197,4340001025974,新規,0,2023-10-11,2023-10-11,株式会社ジェネレート,,株式会社,鹿児島県,姶良市,東餅田１７７９番地３,,46,225,8995421,,,,,,,2023-10-11,1,,,,,ジェネレート,0
1202,4340003004282,新規,0,2023-10-11,2023-10-11,合同会社Ｎアーキテクト,,合同会社,鹿児島県,日置市,伊集院町麦生田７２７番地１９９,,46,216,8992513,,,,,,,2023-10-11,1,,,,,エヌアーキテクト,0
1207,4360003013348,新規,0,2023-10-11,2023-10-11,合同会社ＲＥＥＦＳＩＧＮＳ,,合同会社,沖縄県,宜野湾市,大山６丁目２６－１０－３０１,,47,205,9012223,,,,,,,2023-10-11,1,,,,,リーフサインズ,0
1209,4370001050499,新規,0,2023-10-11,2023-10-11,株式会社ライフステージ,,株式会社,宮城県,仙台市青葉区,一番町４丁目５番１６号,,04,101,9800811,,,,,,,2023-10-11,1,,,,,ライフステージ,0
1215,4420003002807,新規,0,2023-10-11,2023-10-11,合同会社ＡＺサービス,,合同会社,青森県,弘前市,大字野田２丁目６番地３２清明荘０６号,,02,202,0368045,,,,,,,2023-10-11,1,,,,,エーゼットサービス,0
1220,4430001090142,新規,0,2023-10-11,2023-10-11,株式会社Ｃｕｔｅ　Ａｎｇｅｌｓ,,株式会社,北海道,石狩郡当別町,字茂平沢２０３番地５１,,01,303,0610202,,,,,,,2023-10-11,1,,,,,キュートエンジェルズ,0
1221,4430001090167,新規,0,2023-10-11,2023-10-11,株式会社明光,,株式会社,北海道,札幌市豊平区,美園一条６丁目１番１１号,,01,105,0620001,,,,,,,2023-10-11,1,,,,,メイコウ,0
1222,4430003015502,新規,0,2023-10-11,2023-10-11,合同会社札幌白蓮社,,合同会社,北海道,札幌市北区,北三十三条西１１丁目５番１号,,01,102,0010033,,,,,,,2023-10-11,1,,,,,サッポロハクレンシャ,0
1223,4460103001564,新規,0,2023-10-11,2023-10-11,合同会社星花,,合同会社,北海道,帯広市,西二十二条南４丁目１８番地１２,,01,207,0802472,,,,,,,2023-10-11,1,,,,,セイカ,0
1233,4700150121182,新規,0,2023-10-11,2023-10-11,ＯＴＳＵ　ＴＲＡＤＩＮＧ　ＰＶＴ　ＬＴＤ,,外国会社等,千葉県,印旛郡酒々井町,馬橋６６９番地８サンタマール１０２,,12,322,2850914,スリランカ民主社会主義共和国、キャンディ、セメタリーロード、サードライン、１２,,,,,,2023-10-11,1,,,,,オーツトレーデイングプライベートリミテツド,0
1240,5010001239160,新規,0,2023-10-11,2023-10-11,ｒｉｃｅ株式会社,,株式会社,東京都,中央区,銀座１丁目２２番１１号銀座大竹ビジデンス２Ｆ,,13,102,1040061,,,,,,,2023-10-11,1,,,,,ライス,0
1243,5010003041853,新規,0,2023-10-11,2023-10-11,合同会社クリーンエナジー太陽光発電,,合同会社,東京都,千代田区,大手町１丁目１番１号大手町パークビルディング７階,,13,101,1000004,,,,,,,2023-10-11,1,,,,,クリーンエナジータイヨウコウハツデン,0
1244,5010003041903,新規,0,2023-10-11,2023-10-11,仙台太白再生可能エネルギー合同会社,,合同会社,東京都,千代田区,丸の内１丁目８番２号鉄鋼ビルディング４階,,13,101,1000005,,,,,,,2023-10-11,1,,,,,センダイタイハクサイセイカノウエネルギー,0
1255,5010401177662,新規,0,2023-10-11,2023-10-11,株式会社Ｆｒｅｙｉａ,,株式会社,東京都,港区,六本木５丁目２－４朝日生命六本木ビル６Ｆ,,13,103,1060032,,,,,,,2023-10-11,1,,,,,フレイヤ,0
1256,5010401177737,新規,0,2023-10-11,2023-10-11,ＬＳ‐Ａｖｉａｔｉｏｎ第６０号株式会社,,株式会社,東京都,港区,六本木１丁目６番１号,,13,103,1060032,,,,,,,2023-10-11,1,,,,,エルエスアビエーションダイロクジュウゴウ,0
1260,5010403031108,新規,0,2023-10-11,2023-10-11,合同会社Ｐａｌｅｔｔｅ,,合同会社,東京都,港区,芝浦４丁目２１番１―４００５,,13,103,1080023,,,,,,,2023-10-11,1,,,,,パレット,0
1261,5010403031124,新規,0,2023-10-11,2023-10-11,ＪＭインダス４合同会社,,合同会社,東京都,港区,六本木１丁目９番１０号アークヒルズ仙石山森タワー４０階,,13,103,1060032,,,,,,,2023-10-11,1,,,,,ジェイエムインダスフォー,0
1263,5010501051164,新規,0,2023-10-11,2023-10-11,ひかり株式会社,,株式会社,東京都,台東区,竜泉３丁目３２番９号,,13,106,1100012,,,,,,,2023-10-11,1,,,,,ヒカリ,0
1264,5010501051172,新規,0,2023-10-11,2023-10-11,株式会社ファインダー,,株式会社,東京都,台東区,上野７丁目３－９アルベルゴ上野６１３室,,13,106,1100005,,,,,,,2023-10-11,1,,,,,,0
1272,5010701044967,新規,0,2023-10-11,2023-10-11,株式会社トライスピード,,株式会社,東京都,品川区,北品川５丁目３－１－１３２１,,13,109,1410001,,,,,,,2023-10-11,1,,,,,トライスピード,0
1274,5010801034397,新規,0,2023-10-11,2023-10-11,Ｍ＆Ｍトーホー株式会社,,株式会社,東京都,大田区,山王３丁目４１番７号,,13,111,1430023,,,,,,,2023-10-11,1,,,,,エムアンドエムトーホー,0
1290,5011003017678,新規,0,2023-10-11,2023-10-11,コンシス合同会社,,合同会社,東京都,渋谷区,富ヶ谷１丁目１４番１４号スタンフォードアネックスビル３Ｆ,,13,113,1510063,,,,,,,2023-10-11,1,,,,,コンシス,0
1296,5011103013593,新規,0,2023-10-11,2023-10-11,ウエハラ合同会社,,合同会社,東京都,新宿区,河田町７番５号,,13,104,1620054,,,,,,,2023-10-11,1,,,,,ウエハラ,0
1303,5011201024971,新規,0,2023-10-11,2023-10-11,株式会社ＦＩＴＳ,,株式会社,東京都,中野区,野方５丁目１７番７号,,13,114,1650027,,,,,,,2023-10-11,1,,,,,フィッツ,0
1306,5011403004136,新規,0,2023-10-11,2023-10-11,合同会社テイスティ,,合同会社,東京都,板橋区,南常盤台１丁目１１番６号レフア南常盤台１０１号室,,13,119,1740072,,,,,,,2023-10-11,1,,,,,テイスティ,0
1307,5011501029860,新規,0,2023-10-11,2023-10-11,株式会社ＯＯＯ,,株式会社,東京都,北区,岸町１丁目１－９福島第２ビル２０１号室,,13,117,1140021,,,,,,,2023-10-11,1,,,,,オーズ,0
1316,5011701026641,新規,0,2023-10-11,2023-10-11,山本商事株式会社,,株式会社,東京都,江戸川区,西小岩２丁目２０番６号グローリア初穂小岩３０１号室,,13,123,1330057,,,,,,,2023-10-11,1,,,,,ヤマモトショウジ,0
1325,5012401041096,新規,0,2023-10-11,2023-10-11,株式会社四角形,,株式会社,東京都,小金井市,緑町３丁目２番２２号,,13,210,1840003,,,,,,,2023-10-11,1,,,,,シカクケイ,0
1333,5013301051441,新規,0,2023-10-11,2023-10-11,栄泰目白不動産株式会社,,株式会社,東京都,豊島区,池袋２丁目６６－２小林ビル２階,,13,116,1710014,,,,,,,2023-10-11,1,,,,,エイタイメジロフドウサン,0
1339,5020001153856,新規,0,2023-10-11,2023-10-11,株式会社ｇｒｏｗ　ｕｐ,,株式会社,神奈川県,横浜市西区,浜松町１４番１２－７０５号,,14,103,2200055,,,,,,,2023-10-11,1,,,,,グロウアップ,0
1346,5021001080454,新規,0,2023-10-11,2023-10-11,Ｋ＆Ｆ株式会社,,株式会社,神奈川県,藤沢市,遠藤７４４番地の１６,,14,205,2520816,,,,,,,2023-10-11,1,,,,,ケーアンドエフ,0
1360,5030001156478,新規,0,2023-10-11,2023-10-11,株式会社アミュレライズ,,株式会社,埼玉県,春日部市,小渕４８６番地１－９０６,,11,214,3440007,,,,,,,2023-10-11,1,,,,,アミュレライズ,0
1361,5030001156503,新規,0,2023-10-11,2023-10-11,ＴＫコンサルティング株式会社,,株式会社,埼玉県,さいたま市浦和区,高砂３丁目１０番４号八千代ビル５階５０４号室,,11,107,3300063,,,,,,,2023-10-11,1,,,,,ティーケーコンサルティング,0
1362,5030001156619,新規,0,2023-10-11,2023-10-11,株式会社ベレト,,株式会社,埼玉県,さいたま市見沼区,東大宮６丁目３１－３６－２０１号室,,11,104,3370051,,,,,,,2023-10-11,1,,,,,ベレト,0
1366,5030003022752,新規,0,2023-10-11,2023-10-11,ＤＵＣ　ＴＵＡＮ合同会社,,合同会社,埼玉県,坂戸市,南町３４番７号ＫＩＶオフィス南町Ｂ号室,,11,239,3500233,,,,,,,2023-10-11,1,,,,,ドゥックトゥアン,0
1370,5040001130416,新規,0,2023-10-11,2023-10-11,株式会社創遠社,,株式会社,千葉県,千葉市中央区,新宿１丁目３－１４スカイコート千葉２０３号室,,12,101,2600021,,,,,,,2023-10-11,1,,,,,ソウエンシャ,0
1371,5040001130440,新規,0,2023-10-11,2023-10-11,鍛造技術開発株式会社,,株式会社,千葉県,佐倉市,城２４９－７３,,12,212,2850815,,,,,,,2023-10-11,1,,,,,タンゾウギジュツカイハツ,0
1375,5050003007842,新規,0,2023-10-11,2023-10-11,葡萄色エステイト合同会社,,合同会社,茨城県,行方市,両宿７１３番地３,,08,233,3111721,,,,,,,2023-10-11,1,,,,,エビイロエステイト,0
1383,5070001040950,新規,0,2023-10-11,2023-10-11,ヤマクロ株式会社,,株式会社,群馬県,前橋市,上泉町９８４番地,,10,201,3710007,,,,,,,2023-10-11,1,,,,,ヤマクロ,0
1387,5080105006368,新規,0,2023-10-11,2023-10-11,医療法人社団大仁耳鼻咽喉科,,その他の設立登記法人,静岡県,伊豆の国市,田京２７０番地の５,,22,225,4102315,,,,,,,2023-10-11,1,,,,,オオヒトジビインコウカ,0
1392,5100001036862,新規,0,2023-10-11,2023-10-11,株式会社令和,,株式会社,長野県,中野市,大字岩船１９番地１０,,20,211,3830041,,,,,,,2023-10-11,1,,,,,レイワ,0
1397,5100005013073,新規,0,2023-10-11,2023-10-11,長野県労働金庫労働組合,,その他の設立登記法人,長野県,長野市,県町５２３番地長野県労働金庫内,,20,201,3810000,,,,,,,2023-10-11,1,,,,,ナガノケン,0
1398,5110003005170,新規,0,2023-10-11,2023-10-11,合同会社Ｉｎｓｔａｎｔ　Ｓｔｕｄｉｏ,,合同会社,新潟県,新潟市東区,新石山２丁目３－１０－１０２,,15,102,9500851,,,,,,,2023-10-11,1,,,,,インスタントスタジオ,0
1409,5120001258422,新規,0,2023-10-11,2023-10-11,株式会社ＲＯＧＩ,,株式会社,大阪府,大阪市北区,梅田１丁目１番３号大阪駅前第３ビル２９階１－１－１号室,,27,127,5300001,,,,,,,2023-10-11,1,,,,,ロギ,0
1410,5120001258538,新規,0,2023-10-11,2023-10-11,華全株式会社,,株式会社,大阪府,大阪市天王寺区,勝山１丁目１番２９－７０２号,,27,109,5430043,,,,,,,2023-10-11,1,,,,,カゼン,0
1411,5120001258645,新規,0,2023-10-11,2023-10-11,マツダツール株式会社,,株式会社,大阪府,守口市,小春町８番２２号,,27,209,5700061,,,,,,,2023-10-11,1,,,,,マツダツール,0
1412,5120001258678,新規,0,2023-10-11,2023-10-11,株式会社ライオンエステート,,株式会社,大阪府,大阪市生野区,中川１丁目５番６号,,27,116,5440005,,,,,,,2023-10-11,1,,,,,ライオンエステート,0
1413,5120001258711,新規,0,2023-10-11,2023-10-11,株式会社ＰＨＩＬＯ＆ＣＯ．,,株式会社,大阪府,大阪市福島区,福島４丁目１番７７号,,27,103,5530003,,,,,,,2023-10-11,1,,,,,フィロアンドカンパニー,0
1414,5120001258736,新規,0,2023-10-11,2023-10-11,株式会社タクトコマース,,株式会社,大阪府,大阪市北区,梅田１丁目１－３大阪駅前第３ビル２９階１－１－１号室,,27,127,5300001,,,,,,,2023-10-11,1,,,,,タクトコマース,0
1415,5120001258744,新規,0,2023-10-11,2023-10-11,クロス・エル株式会社,,株式会社,大阪府,大阪市浪速区,桜川１丁目２－６－ＺｅｎＩＩ５０１,00132202,27,111,5560022,,,,,,,2023-10-11,1,,,,,クロスエル,0
1423,5122001037434,新規,0,2023-10-11,2023-10-11,株式会社ハンタイ,,株式会社,大阪府,東大阪市,新庄２丁目２１番２５号,,27,227,5780963,,,,,,,2023-10-11,1,,,,,ハンタイ,0
1424,5122001037459,新規,0,2023-10-11,2023-10-11,株式会社大輝設備工業,,株式会社,大阪府,八尾市,黒谷２丁目１６４番地の９,,27,212,5810873,,,,,,,2023-10-11,1,,,,,オオキセツビコウギョウ,0
1427,5122003002650,新規,0,2023-10-11,2023-10-11,Ｐｈｅｍｏｔｒｏｎ　Ｓｙｓｔｅｍｓ合同会社,,合同会社,大阪府,東大阪市,長栄寺２番１２号Ｔｓｕｎａｇａｒｕビル５階,,27,227,5770055,,,,,,,2023-10-11,1,,,,,フェモトロンシステムス,0
1442,5150001026784,新規,0,2023-10-11,2023-10-11,株式会社松本自動車,,株式会社,奈良県,宇陀市,大宇陀春日３２２番地の１,,29,212,6332114,,,,,,,2023-10-11,1,,,,,マツモトジドウシャ,0
1450,5170005007044,新規,0,2023-10-11,2023-10-11,一般社団法人日本技能調理士協会和歌山県本部,,その他の設立登記法人,和歌山県,西牟婁郡白浜町,３３６９－２３銀座ビル３２２号室,,30,401,6492211,,,,,,,2023-10-11,1,,,,,ニホンギノウチョウリシキョウカイワカヤマケンホンブ,0
1458,5180001158360,新規,0,2023-10-11,2023-10-11,株式会社アイエムスタジオ,,株式会社,愛知県,名古屋市中村区,名駅４丁目２４番５号第２森ビル４０１,,23,105,4500002,,,,,,,2023-10-11,1,,,,,アイエムスタジオ,0
1459,5180001158410,新規,0,2023-10-11,2023-10-11,株式会社葉純,,株式会社,愛知県,名古屋市北区,西味鋺４丁目３１５番地,,23,103,4620016,,,,,,,2023-10-11,1,,,,,ハズミ,0
1474,5200003006102,新規,0,2023-10-11,2023-10-11,合同会社Ａｓｓｉｓｔ,,合同会社,岐阜県,岐阜市,則武東２丁目２番２－５０１号（栗本ハイツ）,,21,201,5020929,,,,,,,2023-10-11,1,,,,,アシスト,0
1486,5240001062250,新規,0,2023-10-11,2023-10-11,サン急便株式会社,,株式会社,広島県,尾道市,吉和町４６５１番地３,,34,205,7220008,,,,,,,2023-10-11,1,,,,,サンキュウビン,0
1500,5260003004463,新規,0,2023-10-11,2023-10-11,合同会社Ｒｉｖｅｒ,,合同会社,岡山県,岡山市北区,表町２丁目２番８号１Ｆ,,33,101,7000822,,,,,,,2023-10-11,1,,,,,リバー,0
1508,5290001103272,新規,0,2023-10-11,2023-10-11,株式会社スターマイナー,,株式会社,福岡県,福岡市中央区,天神４丁目６－２８,,40,133,8100001,,,,,,,2023-10-11,1,,,,,スターマイナー,0
1509,5290001103280,新規,0,2023-10-11,2023-10-11,株式会社真島組,,株式会社,福岡県,糸島市,潤３丁目２９番１－２０１号,,40,230,8191105,,,,,,,2023-10-11,1,,,,,マシマグミ,0
1510,5290001103306,新規,0,2023-10-11,2023-10-11,株式会社Ｍ．ＭＡＲＫＳ,,株式会社,福岡県,古賀市,薦野１３８５番地１,,40,223,8113122,,,,,,,2023-10-11,1,,,,,エムマークス,0
1511,5290001103322,新規,0,2023-10-11,2023-10-11,Ｃ‐ｔｈｒｅｅ株式会社,,株式会社,福岡県,福岡市博多区,銀天町２丁目９番１号,,40,132,8120879,,,,,,,2023-10-11,1,,,,,シースリー,0
1512,5290001103339,新規,0,2023-10-11,2023-10-11,株式会社スヤマコーポレーション,,株式会社,福岡県,太宰府市,通古賀５丁目１６番３０号,,40,221,8180104,,,,,,,2023-10-11,1,,,,,スヤマコーポレーション,0
1513,5290003014443,新規,0,2023-10-11,2023-10-11,桜カンパニー合同会社,,合同会社,福岡県,福岡市南区,鶴田１丁目１５番３号,,40,134,8111352,,,,,,,2023-10-11,1,,,,,サクラカンパニー,0
1517,5300001013494,新規,0,2023-10-11,2023-10-11,株式会社Ｙ’ｓ　Ａｉｒ　Ｃｒｅａｔｅ,,株式会社,佐賀県,小城市,芦刈町道免１４７番地１,00132201,41,208,8490316,,,,,,,2023-10-11,1,,,,,ワイズエアークリエイト,0
1520,5310003004656,新規,0,2023-10-11,2023-10-11,合同会社ケイデザイン,,合同会社,長崎県,五島市,幸町７番地１０,,42,211,8530004,,,,,,,2023-10-11,1,,,,,ケイデザイン,0
1525,5340001025957,新規,0,2023-10-11,2023-10-11,株式会社松本商会,,株式会社,鹿児島県,出水市,野田町下名９７２番地１,,46,208,8990502,,,,,,,2023-10-11,1,,,,,マツモトショウカイ,0
1529,5340003004281,新規,0,2023-10-11,2023-10-11,合同会社康亮,,合同会社,鹿児島県,指宿市,湯の浜３丁目８番１６号,,46,210,8910406,,,,,,,2023-10-11,1,,,,,コウリョウ,0
1530,5340005009667,新規,0,2023-10-11,2023-10-11,鹿児島マイナーグループ協同組合,,その他の設立登記法人,鹿児島県,姶良市,加治木町小山田５９２８番地１,,46,225,8995203,,,,,,,2023-10-11,1,,,,,カゴシママイナーグループ,0
1537,5370001050465,新規,0,2023-10-11,2023-10-11,株式会社Ｒｙｕ,,株式会社,宮城県,仙台市青葉区,国分町２丁目１２番１９号第三協立ビル３階６号,,04,101,9800803,,,,,,,2023-10-11,1,,,,,リュウ,0
1555,5430001090117,新規,0,2023-10-11,2023-10-11,石狩自工株式会社,,株式会社,北海道,石狩市,樽川４５４番１００,,01,235,0613251,,,,,,,2023-10-11,1,,,,,イシカリジコウ,0
1556,5430001090125,新規,0,2023-10-11,2023-10-11,株式会社Ｈｏｕｓｅ　ｍｉｓｓｉｏｎ,,株式会社,北海道,札幌市北区,屯田七条８丁目１－２８,,01,102,0020857,,,,,,,2023-10-11,1,,,,,ハウスミッション,0
1562,5460101007447,新規,0,2023-10-11,2023-10-11,株式会社ＱＵＡＲＩＳ,,株式会社,北海道,帯広市,西十三条北８丁目３番地６,,01,207,0800043,,,,,,,2023-10-11,1,,,,,クオリス,0
1564,5470001019839,新規,0,2023-10-11,2023-10-11,株式会社ハートリズム,,株式会社,香川県,高松市,円座町２２６４番地２,,37,201,7618044,,,,,,,2023-10-11,1,,,,,ハートリズム,0
1566,5700150121181,新規,0,2023-10-11,2023-10-11,ＮＥＷ　ＫＡＮＤＹ　ＡＵＴＯ　ＴＲＡＤＥＲＳ　ＰＲＩＶＡＴＥ　ＬＩＭＩＴＥＤ,,外国会社等,千葉県,印西市,瀬戸１５７２番地,,12,231,2701614,スリランカ民主社会主義共和国、ギニガツヘナ、コロンボ通り、クルンドゥゴラジャンション、スラーニ,,,,,,2023-10-11,1,,,,,ニユキヤンデイオートトレデラスプライベツトリミテツド,0
1582,6010001239052,新規,0,2023-10-11,2023-10-11,株式会社ｗｉｌｌ,,株式会社,東京都,中央区,日本橋人形町３丁目７番１３号,,13,102,1030013,,,,,,,2023-10-11,1,,,,,ウィル,0
1583,6010001239060,新規,0,2023-10-11,2023-10-11,ペットオハナ株式会社,,株式会社,東京都,千代田区,神田須田町２丁目３番１号ＮＢＦ神田須田町ビル７階,,13,101,1010041,,,,,,,2023-10-11,1,,,,,ペットオハナ,0
1584,6010001239119,新規,0,2023-10-11,2023-10-11,株式会社シェルード,,株式会社,東京都,千代田区,神田和泉町１番地６－１６ヤマトビル４０５,,13,101,1010024,,,,,,,2023-10-11,1,,,,,シェルード,0
1586,6010003041836,新規,0,2023-10-11,2023-10-11,合同会社ＢＬＡＩＳＥ,,合同会社,東京都,千代田区,神田松永町１７番地５相沢ビルＢ１Ｆ,,13,101,1010023,,,,,,,2023-10-11,1,,,,,ブレイズ,0
1587,6010003041902,新規,0,2023-10-11,2023-10-11,仙台太白太陽光発電所合同会社,,合同会社,東京都,千代田区,丸の内１丁目８番２号鉄鋼ビルディング４階,,13,101,1000005,,,,,,,2023-10-11,1,,,,,センダイタイハクタイヨウコウハツデンショ,0
1589,6010005037345,新規,0,2023-10-11,2023-10-11,一般財団法人リシャールミルジャパン財団,,その他の設立登記法人,東京都,千代田区,霞が関３丁目２番１号,,13,101,1000013,,,,,,,2023-10-11,1,,,,,リシャールミルジャパンザイダン,0
1596,6010401177637,新規,0,2023-10-11,2023-10-11,株式会社サンダイ,,株式会社,東京都,港区,新橋４丁目１３番８号原ビル３階,,13,103,1050004,,,,,,,2023-10-11,1,,,,,サンダイ,0
1597,6010401177703,新規,0,2023-10-11,2023-10-11,Ｓ＆Ｓ株式会社,,株式会社,東京都,港区,南麻布１丁目１１番５号５０３,,13,103,1060047,,,,,,,2023-10-11,1,,,,,エスアンドエス,0
1598,6010401177744,新規,0,2023-10-11,2023-10-11,株式会社ＡＡＣＪマラリア・コンソーシアム,,株式会社,東京都,港区,南青山２丁目２番２号,,13,103,1070062,,,,,,,2023-10-11,1,,,,,エーエーシージェイマラリアコンソーシアム,0
1602,6010403031107,新規,0,2023-10-11,2023-10-11,合同会社ガリレオ企画,,合同会社,東京都,港区,赤坂６丁目１０番４５号－２１１号,,13,103,1070052,,,,,,,2023-10-11,1,,,,,ガリレオキカク,0
1603,6010403031123,新規,0,2023-10-11,2023-10-11,ＪＭインダス３合同会社,,合同会社,東京都,港区,六本木１丁目９番１０号アークヒルズ仙石山森タワー４０階,,13,103,1060032,,,,,,,2023-10-11,1,,,,,ジェイエムインダススリー,0
1609,6010501051171,新規,0,2023-10-11,2023-10-11,星縁株式会社,,株式会社,東京都,台東区,東上野６丁目２５番８号,,13,106,1100015,,,,,,,2023-10-11,1,,,,,セイエン,0
1616,6010703006907,新規,0,2023-10-11,2023-10-11,合同会社アシーク,,合同会社,東京都,品川区,上大崎４丁目５番２６－２－４０２号,,13,109,1410021,,,,,,,2023-10-11,1,,,,,アシーク,0
1617,6010705003547,新規,0,2023-10-11,2023-10-11,医療法人社団景祥会,,その他の設立登記法人,東京都,品川区,西五反田２丁目１番２２号１階,,13,109,1410031,,,,,,,2023-10-11,1,,,,,ケイショウカイ,0
1619,6010801034413,新規,0,2023-10-11,2023-10-11,ＲＮＭ株式会社,,株式会社,東京都,大田区,西六郷４丁目１３番４－３１５号ディアレイシャス東京サウスパレス,,13,111,1440056,,,,,,,2023-10-11,1,,,,,アールエヌエム,0
1630,6011001157384,新規,0,2023-10-11,2023-10-11,株式会社藤崎キョーコデザイン事務所,,株式会社,東京都,渋谷区,東１丁目１４番４－２０５号,,13,113,1500011,,,,,,,2023-10-11,1,,,,,フジサキキョーコデザインジムショ,0
1631,6011001157442,新規,0,2023-10-11,2023-10-11,株式会社Ｌｉｅｎ,,株式会社,東京都,渋谷区,東１丁目１３番４号ＭＡＴ常盤松４０１,,13,113,1500011,,,,,,,2023-10-11,1,,,,,リアン,0
1633,6011003017693,新規,0,2023-10-11,2023-10-11,合同会社Ｒｏｎｄ,,合同会社,東京都,渋谷区,本町５丁目２６－１４,,13,113,1510071,,,,,,,2023-10-11,1,,,,,ロン,0
1634,6011003017710,新規,0,2023-10-11,2023-10-11,合同会社ＲＳＭ,,合同会社,東京都,目黒区,青葉台１丁目２７―１２ｆ．ｓｔｕｄｉｏ６０１,,13,110,1530042,,,,,,,2023-10-11,1,,,,,アールエスエム,0
1641,6011103013592,新規,0,2023-10-11,2023-10-11,合同会社ＡＣＥ,,合同会社,東京都,新宿区,西新宿３丁目３番１３号,,13,104,1600023,,,,,,,2023-10-11,1,,,,,エース,0
1644,6011201024962,新規,0,2023-10-11,2023-10-11,株式会社ｘａｌｉｂｒｅ,,株式会社,東京都,中野区,新井１丁目１６－１４ＣＩＣＡＤＡＮＡＫＡＮＯ２０３,,13,114,1650026,,,,,,,2023-10-11,1,,,,,ザリブレ,0
1645,6011203004194,新規,0,2023-10-11,2023-10-11,合同会社ぐん,,合同会社,東京都,中野区,東中野３丁目８番５号遠田ビルＢ１,,13,114,1640003,,,,,,,2023-10-11,1,,,,,グン,0
1653,6011601027177,新規,0,2023-10-11,2023-10-11,株式会社ｐｏｌｉｔｅ　ｃａｓｕａｌｌｙ,,株式会社,東京都,練馬区,桜台６丁目１７番２０号タウンハウス桜台３０３,,13,120,1760002,,,,,,,2023-10-11,1,,,,,ポライトカジュアリィ,0
1654,6011603004083,新規,0,2023-10-11,2023-10-11,合同会社ＴＦオメガ,,合同会社,東京都,練馬区,氷川台４丁目４７番１８号,,13,120,1790084,,,,,,,2023-10-11,1,,,,,ティーエフオメガ,0
1657,6011801043156,新規,0,2023-10-11,2023-10-11,株式会社Ｊｏｂ　Ｈｕｎｔ,,株式会社,東京都,足立区,綾瀬２丁目２４番８日興パレス綾瀬３０６号室,,13,121,1200005,,,,,,,2023-10-11,1,,,,,ジョブハント,0
1658,6011801043164,新規,0,2023-10-11,2023-10-11,株式会社陽,,株式会社,東京都,足立区,新田３丁目２０－１－３０３,,13,121,1230865,,,,,,,2023-10-11,1,,,,,ハル,0
1663,6012401041070,新規,0,2023-10-11,2023-10-11,東雲ランドサーベイ株式会社,,株式会社,東京都,三鷹市,下連雀２丁目２８番１５号,,13,204,1810013,,,,,,,2023-10-11,1,,,,,シノノメランドラーベイ,0
1664,6012401041095,新規,0,2023-10-11,2023-10-11,株式会社秋元商事,,株式会社,東京都,府中市,新町１丁目４３番地の６メゾンパステル１階,,13,206,1830052,,,,,,,2023-10-11,1,,,,,アキモトショウジ,0
1665,6012403006212,新規,0,2023-10-11,2023-10-11,合同会社構想,,合同会社,東京都,狛江市,猪方２丁目１１番１５号,,13,219,2010015,,,,,,,2023-10-11,1,,,,,コウソウ,0
1667,6012803003206,新規,0,2023-10-11,2023-10-11,合同会社ＭＩＫ,,合同会社,東京都,国分寺市,東恋ヶ窪４丁目１７番地６,,13,214,1850014,,,,,,,2023-10-11,1,,,,,エムアイケイ,0
1677,6020001153772,新規,0,2023-10-11,2023-10-11,株式会社エクシオン,,株式会社,神奈川県,横浜市南区,永田北２丁目５４番１８号第二上星谷ハイツ２０１号,,14,105,2320071,,,,,,,2023-10-11,1,,,,,エクシオン,0
1678,6020003024732,新規,0,2023-10-11,2023-10-11,ＢＩＭＯＣＨＡＮ合同会社,,合同会社,神奈川県,川崎市川崎区,南町１５番地３太平ビルＡ棟３０５,,14,131,2100015,,,,,,,2023-10-11,1,,,,,ビモチャン,0
1686,6021001080412,新規,0,2023-10-11,2023-10-11,株式会社西村工業,,株式会社,神奈川県,横須賀市,津久井１丁目１６番２８号,,14,201,2390843,,,,,,,2023-10-11,1,,,,,ニシムラコウギョウ,0
1695,6030001156444,新規,0,2023-10-11,2023-10-11,株式会社ＤＡ　ｇｌｏｂａｌ,,株式会社,埼玉県,春日部市,大衾２４２番地１１,,11,214,3440116,,,,,,,2023-10-11,1,,,,,ディーエーグローバル,0
1696,6030001156477,新規,0,2023-10-11,2023-10-11,株式会社電源舎,,株式会社,埼玉県,川口市,西川口４丁目１番１２号,,11,203,3320021,,,,,,,2023-10-11,1,,,,,デンゲンシャ,0
1697,6030001156551,新規,0,2023-10-11,2023-10-11,興明株式会社,,株式会社,埼玉県,戸田市,上戸田５丁目１０番１７－９０２号,,11,224,3350022,,,,,,,2023-10-11,1,,,,,コウメイ,0
1698,6030001156642,新規,0,2023-10-11,2023-10-11,株式会社Ｆｏｒｋｓ,,株式会社,埼玉県,さいたま市中央区,鈴谷７丁目６番３－６０２号,,11,105,3380013,,,,,,,2023-10-11,1,,,,,フォークス,0
1709,6030003022578,新規,0,2023-10-11,2023-10-11,合同会社鈴や,,合同会社,埼玉県,川口市,上青木６丁目７番２号,,11,203,3330844,,,,,,,2023-10-11,1,,,,,スズヤ,0
1715,6040001130398,新規,0,2023-10-11,2023-10-11,株式会社ティスリー,,株式会社,千葉県,船橋市,本郷町４２１番地２－２０２号,,12,204,2730033,,,,,,,2023-10-11,1,,,,,ティスリー,0
1721,6040003023385,新規,0,2023-10-11,2023-10-11,合同会社ラッキー,,合同会社,千葉県,千葉市中央区,新宿２丁目１０番５号ＣｉｅｌＢｌｅｕ千葉中央２０４号,,12,101,2600021,,,,,,,2023-10-11,1,,,,,ラッキー,0
1722,6040003023468,新規,0,2023-10-11,2023-10-11,アール合同会社,,合同会社,千葉県,木更津市,桜井新町２丁目２－１,,12,206,2920823,,,,,,,2023-10-11,1,,,,,アール,0
1725,6050003007841,新規,0,2023-10-11,2023-10-11,合同会社エムアンドエイシステム,,合同会社,茨城県,那珂郡東海村,村松北２丁目７番４７号,,08,341,3191108,,,,,,,2023-10-11,1,,,,,エムアンドエイシステム,0
1733,6060005010140,新規,0,2023-10-11,2023-10-11,医療法人社団敬爾会,,その他の設立登記法人,栃木県,宇都宮市,平松本町１１２５番地６,,09,201,3210932,,,,,,,2023-10-11,1,,,,,ケイジカイ,0
1737,6070005010180,新規,0,2023-10-11,2023-10-11,一般社団法人群馬Ｒｉｖｅｒ　Ｒｅｓｃｕｅ,,その他の設立登記法人,群馬県,みどり市,大間々町上神梅２７５番地１,,10,212,3760104,,,,,,,2023-10-11,1,,,,,グンマリバーレスキュー,0
1739,6090001018366,新規,0,2023-10-11,2023-10-11,富士山リゾート株式会社,,株式会社,山梨県,富士吉田市,新倉２８２４番地１,,19,202,4030011,,,,,,,2023-10-11,1,,,,,フジサンリゾート,0
1747,6110003005178,新規,0,2023-10-11,2023-10-11,合同会社スモールマウンテン,,合同会社,新潟県,南魚沼市,六日町２３４１番地１カーサブリーゼ２０４号,,15,226,9496680,,,,,,,2023-10-11,1,,,,,スモールマウンテン,0
1756,6120001258215,新規,0,2023-10-11,2023-10-11,佑安株式会社,,株式会社,大阪府,大阪市阿倍野区,阿倍野元町１４－５、６０９号室,,27,119,5450034,,,,,,,2023-10-11,1,,,,,ユウアン,0
1757,6120001258652,新規,0,2023-10-11,2023-10-11,株式会社ＲＡＴ,,株式会社,大阪府,大阪市中央区,平野町２丁目３番７号アーバンエース北浜ビル１ＦＳＹＮＴＨ,,27,128,5410046,,,,,,,2023-10-11,1,,,,,アールエーティー,0
1762,6120005023929,新規,0,2023-10-11,2023-10-11,一般社団法人ソーシャルインパクト,,その他の設立登記法人,大阪府,大阪市北区,中之島５丁目３番６８号ウエストウイング３１１号室,,27,127,5300005,,,,,,,2023-10-11,1,,,,,ソーシャルインパクト,0
1767,6130001075378,新規,0,2023-10-11,2023-10-11,スカイワン株式会社,,株式会社,京都府,京都市下京区,松原通室町東入玉津島町２９４番地コモンルーム四条烏丸５０５号室,,26,106,6008427,,,,,,,2023-10-11,1,,,,,スカイワン,0
1768,6130001075452,新規,0,2023-10-11,2023-10-11,株式会社Ｋ．王道,,株式会社,京都府,相楽郡精華町,精華台１丁目６番地１,,26,366,6190238,,,,,,,2023-10-11,1,,,,,ケーワンド,0
1780,6140003019646,新規,0,2023-10-11,2023-10-11,合同会社ＩＣＤ,,合同会社,兵庫県,西宮市,苦楽園二番町１６番２２－２号,,28,204,6620082,,,,,,,2023-10-11,1,,,,,アイシーディー,0
1782,6140005026764,新規,0,2023-10-11,2023-10-11,一般社団法人星空プロジェクト・そら,,その他の設立登記法人,兵庫県,洲本市,五色町鳥飼浦２５９９番地１６０,,28,205,6561344,,,,,,,2023-10-11,1,,,,,ホシゾラプロジェクトソラ,0
1783,6150001026742,新規,0,2023-10-11,2023-10-11,株式会社ソメイヨシノ,,株式会社,奈良県,吉野郡吉野町,大字平尾２６１番地１,,29,441,6393103,,,,,,,2023-10-11,1,,,,,ソメイヨシノ,0
1784,6150001026767,新規,0,2023-10-11,2023-10-11,株式会社リスタ総合建築,,株式会社,奈良県,磯城郡田原本町,大字保津９７番地の２,,29,363,6360303,,,,,,,2023-10-11,1,,,,,リスタソウゴウケンチク,0
1785,6150003003070,新規,0,2023-10-11,2023-10-11,Ａｎｙｔｈｉｎｇ　Ｉｓ　Ｐｏｓｓｉｂｌｅ合同会社,,合同会社,奈良県,奈良市,三条桧町２４－４,,29,201,6308124,,,,,,,2023-10-11,1,,,,,エニシングイズポッシブル,0
1786,6160001025405,新規,0,2023-10-11,2023-10-11,株式会社メディカルテクノフューチャー,,株式会社,滋賀県,大津市,野郷原１丁目１３番４号,,25,201,5202133,,,,,,,2023-10-11,1,,,,,メディカルテクノフューチャー,0
1788,6160003003004,新規,0,2023-10-11,2023-10-11,合同会社ＫＡＫＩＭＡＲＵ,,合同会社,滋賀県,愛知郡愛荘町,川久保９２－５,,25,425,5291312,,,,,,,2023-10-11,1,,,,,カキマル,0
1791,6170003001931,新規,0,2023-10-11,2023-10-11,合同会社たなべえ,,合同会社,和歌山県,田辺市,南新万２４番２３号,,30,206,6460013,,,,,,,2023-10-11,1,,,,,タナベエ,0
1799,6180001158392,新規,0,2023-10-11,2023-10-11,株式会社青木建設,,株式会社,愛知県,名古屋市中区,栄５丁目２６番３９号,,23,106,4600008,,,,,,,2023-10-11,1,,,,,アオキケンセツ,0
1804,6180301037890,新規,0,2023-10-11,2023-10-11,株式会社ガジレ,,株式会社,愛知県,豊橋市,神野新田町字ミノ割２番地３,,23,201,4418077,,,,,,,2023-10-11,1,,,,,ガジレ,0
1812,6200001041802,新規,0,2023-10-11,2023-10-11,銀河要商事株式会社,,株式会社,岐阜県,下呂市,萩原町野上５９０番地１４,,21,220,5092507,,,,,,,2023-10-11,1,,,,,ギンガカナメショウジ,0
1827,6240001062258,新規,0,2023-10-11,2023-10-11,コニメンテ株式会社,,株式会社,広島県,広島市西区,高須４丁目１０番２‐２０１号,,34,104,7330871,,,,,,,2023-10-11,1,,,,,コニメンテ,0
1828,6240003006361,新規,0,2023-10-11,2023-10-11,合同会社ＳＵＰＥＲ　ＫＡＷＡＩＩ,,合同会社,広島県,広島市中区,大手町１丁目１－２０相生橋ビル７階Ａ号室,,34,101,7300051,,,,,,,2023-10-11,1,,,,,スーパーカワイイ,0
1830,6250001020339,新規,0,2023-10-11,2023-10-11,株式会社Ｋ．Ｏ．ＴＲＡＤＩＮＧ,,株式会社,山口県,下関市,横野町３丁目３番７号,,35,201,7596604,,,,,,,2023-10-11,1,,,,,ケーオートレーディング,0
1831,6260001038388,新規,0,2023-10-11,2023-10-11,株式会社誠意未来研究所,,株式会社,岡山県,岡山市南区,豊成３丁目９番２８号,,33,104,7000942,,,,,,,2023-10-11,1,,,,,セイイミライケンキュウショ,0
1832,6260003004462,新規,0,2023-10-11,2023-10-11,合同会社ＧＡＳＳＡＫＵＹＡ,,合同会社,岡山県,和気郡和気町,田原上１０５０番地４,,33,346,7090463,,,,,,,2023-10-11,1,,,,,ガッサクヤ,0
1839,6280001009049,新規,0,2023-10-11,2023-10-11,一縁株式会社,,株式会社,島根県,松江市,東本町１丁目１３ヒトミビル２Ｆ,,32,201,6900842,,,,,,,2023-10-11,1,,,,,イチエン,0
1842,6290003014450,新規,0,2023-10-11,2023-10-11,合同会社テシゴト,,合同会社,福岡県,朝倉郡東峰村,大字小石原９６２番地１,,40,448,8381601,,,,,,,2023-10-11,1,,,,,テシゴト,0
1850,6310001018657,新規,0,2023-10-11,2023-10-11,株式会社最寿,,株式会社,長崎県,長崎市,銅座町１２番６号向井ビル２Ｆ,,42,201,8500841,,,,,,,2023-10-11,1,,,,,サイジュ,0
1852,6320001020050,新規,0,2023-10-11,2023-10-11,株式会社ショーエイ農産,,株式会社,大分県,国東市,国見町櫛来３４６８番地,,44,214,8721406,,,,,,,2023-10-11,1,,,,,ショーエイノウサン,0
1853,6320003004200,新規,0,2023-10-11,2023-10-11,合同会社明生制作,,合同会社,大分県,別府市,大字鶴見４５４８番地の１０１４,,44,202,8740840,,,,,,,2023-10-11,1,,,,,アキオセイサク,0
1857,6340001025964,新規,0,2023-10-11,2023-10-11,鹿児島サンフーズ株式会社,,株式会社,鹿児島県,薩摩川内市,入来町副田字内木場５８３０番地２５,,46,215,8951401,,,,,,,2023-10-11,1,,,,,カゴシマサンフーズ,0
1858,6340001025972,新規,0,2023-10-11,2023-10-11,株式会社ＡＯＩ,,株式会社,鹿児島県,志布志市,有明町野神１５３５番地,,46,221,8997512,,,,,,,2023-10-11,1,,,,,アオイ,0
1859,6350001018604,新規,0,2023-10-11,2023-10-11,株式会社草源,,株式会社,宮崎県,宮崎市,大字有田２４１６番地１,,45,201,8802102,,,,,,,2023-10-11,1,,,,,ソウゲン,0
1861,6380005012757,新規,0,2023-10-11,2023-10-11,須賀川クリーンダスト事業協同組合,,その他の設立登記法人,福島県,須賀川市,滑川字十貫内１１番地,,07,207,9620403,,,,,,,2023-10-11,1,,,,,スカガワクリーンダスト,0
1869,6430001090132,新規,0,2023-10-11,2023-10-11,株式会社栄瑠,,株式会社,北海道,札幌市中央区,南二条西８丁目３－１大光ビル２階さっぽろＲオフィス大通Ｄ室,,01,101,0600062,,,,,,,2023-10-11,1,,,,,サカエル,0
1871,6450001014106,新規,0,2023-10-11,2023-10-11,株式会社ＰＴＨ　ＧＲＯＵＰ,,株式会社,北海道,深川市,あけぼの町２１１０番地３,,01,228,0740031,,,,,,,2023-10-11,1,,,,,ピーティーエイチグループ,0
1873,6460101007446,新規,0,2023-10-11,2023-10-11,北熱工業株式会社,,株式会社,北海道,帯広市,西七条南１３丁目１２番地５,,01,207,0800017,,,,,,,2023-10-11,1,,,,,ホクネツコウギョウ,0
1877,6470003002503,新規,0,2023-10-11,2023-10-11,Ｋａｙｏｕ合同会社,,合同会社,香川県,仲多度郡琴平町,３８９番地４,,37,403,7660001,,,,,,,2023-10-11,1,,,,,カヨウ,0
1879,6480001012247,新規,0,2023-10-11,2023-10-11,株式会社にし阿波アグリ,,株式会社,徳島県,三好郡東みよし町,足代８９０番地３,,36,489,7712502,,,,,,,2023-10-11,1,,,,,ニシアワアグリ,0
1881,6490001010605,新規,0,2023-10-11,2023-10-11,株式会社ＡＬＰＲＥＳＳＯ,,株式会社,高知県,須崎市,大間西町１２番８号,,39,206,7850033,,,,,,,2023-10-11,1,,,,,アルプレッソ,0
1885,6700150121180,新規,0,2023-10-11,2023-10-11,ＳＡＤＵＮ　ＭＯＴＯＲＳ　ＴＲＡＤＥＲＳ,,外国会社等,茨城県,神栖市,日川１６９９番地２７ビジネスオフィス４号,,08,232,3140114,スリランカ民主社会主義共和国、タンブッテガマ、ラジャンガナヤロード、カルンデガマ、３７,,,,,,2023-10-11,1,,,,,サドウンモーターストレーダーズ,0
1894,7010001239051,新規,0,2023-10-11,2023-10-11,株式会社ａｕｉｒｏ,,株式会社,東京都,中央区,銀座１丁目１２番４号Ｎ＆ＥＢＬＤ．６Ｆ,,13,102,1040061,,,,,,,2023-10-11,1,,,,,アウイロ,0
1895,7010001239118,新規,0,2023-10-11,2023-10-11,株式会社フォルテナ,,株式会社,東京都,中央区,日本橋人形町１丁目１番２２号７階,,13,102,1030013,,,,,,,2023-10-11,1,,,,,フォルテナ,0
1896,7010001239183,新規,0,2023-10-11,2023-10-11,株式会社テクニカル工房,,株式会社,東京都,千代田区,九段南４丁目６番９号３Ｆ,,13,101,1020074,,,,,,,2023-10-11,1,,,,,テクニカルコウボウ,0
1907,7010401177553,新規,0,2023-10-11,2023-10-11,株式会社ＬＩＮＥＡイノベーション,,株式会社,東京都,港区,六本木６丁目１０－１六本木ヒルズ森タワー１５Ｆ,,13,103,1060032,,,,,,,2023-10-11,1,,,,,リニアイノベーション,0
1908,7010401177669,新規,0,2023-10-11,2023-10-11,株式会社ＩＮＡ,,株式会社,東京都,港区,赤坂３丁目１３番１２号,,13,103,1070052,,,,,,,2023-10-11,1,,,,,アイエヌエー,0
1909,7010401177685,新規,0,2023-10-11,2023-10-11,嘉澤株式会社,,株式会社,東京都,港区,高輪１丁目３－２－１２０８号,,13,103,1080074,,,,,,,2023-10-11,1,,,,,ヨシザワ,0
1910,7010401177710,新規,0,2023-10-11,2023-10-11,株式会社ネクストサービス,,株式会社,東京都,港区,高輪４丁目２３番６号ハイホーム高輪７０８,,13,103,1080074,,,,,,,2023-10-11,1,,,,,ネクストサービス,0
1911,7010401177727,新規,0,2023-10-11,2023-10-11,サイバーパンクジャパン株式会社,,株式会社,東京都,港区,芝４丁目６番４号ヒロソフィー三田ビル,,13,103,1080014,,,,,,,2023-10-11,1,,,,,サイバーパンクジャパン,0
1913,7010403031122,新規,0,2023-10-11,2023-10-11,ＪＭインダス２合同会社,,合同会社,東京都,港区,六本木１丁目９番１０号アークヒルズ仙石山森タワー４０階,,13,103,1060032,,,,,,,2023-10-11,1,,,,,ジェイエムインダスツー,0
1917,7010501051179,新規,0,2023-10-11,2023-10-11,映像Ｊａｐａｎ株式会社,,株式会社,東京都,台東区,浅草５丁目７２番８－１００３号,,13,106,1110032,,,,,,,2023-10-11,1,,,,,エイゾウジャパン,0
1920,7010503007179,新規,0,2023-10-11,2023-10-11,合同会社Ｇ‐Ｓｏｕｔｈ,,合同会社,東京都,台東区,柳橋１丁目９－９グランパセオ浅草橋４０２号室,,13,106,1110052,,,,,,,2023-10-11,1,,,,,ジーサウス,0
1928,7010803004710,新規,0,2023-10-11,2023-10-11,合同会社ツバサ,,合同会社,東京都,大田区,西蒲田４丁目１番１３－１０２号,,13,111,1440051,,,,,,,2023-10-11,1,,,,,ツバサ,0
1936,7011001157466,新規,0,2023-10-11,2023-10-11,株式会社セルテック,,株式会社,東京都,渋谷区,道玄坂１丁目１０番８号,,13,113,1500043,,,,,,,2023-10-11,1,,,,,セルテック,0
1937,7011003017684,新規,0,2023-10-11,2023-10-11,ＳｃｉｅｎｔｉｆｉｃＳｕｒｖｅｙ合同会社,,合同会社,東京都,渋谷区,宇田川町１番１２号,,13,113,1500042,,,,,,,2023-10-11,1,,,,,サイエンティフィックサーベイ,0
1941,7011101104640,新規,0,2023-10-11,2023-10-11,株式会社Ｗｉｌｌａｔｅ,,株式会社,東京都,新宿区,西新宿３丁目３番１３号西新宿水間ビル６階,,13,104,1600023,,,,,,,2023-10-11,1,,,,,ウィルエイト,0
1954,7011601027168,新規,0,2023-10-11,2023-10-11,整えーる株式会社,,株式会社,東京都,練馬区,高野台２丁目２７番１６－９０２号,,13,120,1770033,,,,,,,2023-10-11,1,,,,,トトノエール,0
1955,7011603004082,新規,0,2023-10-11,2023-10-11,合同会社ＴＦデルタ,,合同会社,東京都,練馬区,氷川台４丁目４７番１８号,,13,120,1790084,,,,,,,2023-10-11,1,,,,,ティーエフデルタ,0
1959,7011801043155,新規,0,2023-10-11,2023-10-11,匠人設計株式会社,,株式会社,東京都,葛飾区,青戸７丁目２３番１１号,,13,122,1250062,,,,,,,2023-10-11,1,,,,,ショウジンセッケイ,0
1961,7012401041086,新規,0,2023-10-11,2023-10-11,Ｎ．Ｋ株式会社,,株式会社,東京都,多摩市,愛宕４丁目２１番地の１－１０７号,,13,224,2060041,,,,,,,2023-10-11,1,,,,,エヌケー,0
1962,7012401041094,新規,0,2023-10-11,2023-10-11,株式会社Ｍａｙ　Ｗｉｎｇｓ,,株式会社,東京都,多摩市,落合１丁目１８番地６藤原ビル１階,,13,224,2060033,,,,,,,2023-10-11,1,,,,,メイウイングス,0
1978,7020005016140,新規,0,2023-10-11,2023-10-11,一般社団法人ペンギンクルー,,その他の設立登記法人,神奈川県,横浜市西区,北幸２丁目１０番地４８むつみビル３階,,14,103,2200004,,,,,,,2023-10-11,1,,,,,ペンギンクルー,0
1982,7021001080428,新規,0,2023-10-11,2023-10-11,株式会社フラーウム,,株式会社,神奈川県,鎌倉市,津西２丁目５番２０号,,14,204,2480034,,,,,,,2023-10-11,1,,,,,フラーウム,0
1990,7021005012906,新規,0,2023-10-11,2023-10-11,社会福祉法人ひばり会,,その他の設立登記法人,神奈川県,座間市,ひばりが丘２丁目７３７番地２４,,14,216,2520003,,,,,,,2023-10-11,1,,,,,ヒバリカイ,0
1998,7030001156443,新規,0,2023-10-11,2023-10-11,株式会社Ｄｅｓｉｇｎ‐Ｈｏｍｅ,,株式会社,埼玉県,日高市,大字田波目７９番地９,,11,242,3501201,,,,,,,2023-10-11,1,,,,,デザインホーム,0
1999,7030001156542,新規,0,2023-10-11,2023-10-11,株式会社Ｗｏｒｋｅｒ　Ｂｅｅ,,株式会社,埼玉県,白岡市,太田新井１３４７番地１,,11,246,3490225,,,,,,,2023-10-11,1,,,,,ワーカービー,0
2000,7030001156559,新規,0,2023-10-11,2023-10-11,株式会社大谷,,株式会社,埼玉県,越谷市,大字南荻島２４１５番地３,,11,222,3430804,,,,,,,2023-10-11,1,,,,,オオタニ,0
2001,7030001156583,新規,0,2023-10-11,2023-10-11,株式会社ＡＫアセット,,株式会社,埼玉県,春日部市,本田町２丁目２５３番地１ワンルームハイツ本田町２０１,,11,214,3440016,,,,,,,2023-10-11,1,,,,,エーケーアセット,0
2006,7030003022767,新規,0,2023-10-11,2023-10-11,合同会社メラショー,,合同会社,埼玉県,川口市,本町３丁目１０番１５号,,11,203,3320012,,,,,,,2023-10-11,1,,,,,メラショー,0
2010,7040001130397,新規,0,2023-10-11,2023-10-11,株式会社協栄,,株式会社,千葉県,我孫子市,布佐３０６０番地１２蘇理ビル２階,,12,222,2701101,,,,,,,2023-10-11,1,,,,,キョウエイ,0
2011,7040001130430,新規,0,2023-10-11,2023-10-11,株式会社中山郡,,株式会社,千葉県,流山市,前ケ崎６０,,12,220,2700144,,,,,,,2023-10-11,1,,,,,ナカヤマグン,0
2012,7040001130439,新規,0,2023-10-11,2023-10-11,ユウキ株式会社,,株式会社,千葉県,松戸市,六実５丁目２３－１７,,12,207,2702204,,,,,,,2023-10-11,1,,,,,ユウキ,0
2017,7040003023426,新規,0,2023-10-11,2023-10-11,合同会社あおいろ,,合同会社,千葉県,流山市,鰭ケ崎４番９号流山スカイハイツ２０１号,,12,220,2700161,,,,,,,2023-10-11,1,,,,,アオイロ,0
2018,7040003023500,新規,0,2023-10-11,2023-10-11,合同会社Ｓ‐ｐｌａｎｎｉｎｇ,,合同会社,千葉県,千葉市緑区,誉田町２丁目２０番３８４‐１０２号,,12,105,2660005,,,,,,,2023-10-11,1,,,,,エスプランイング,0
2019,7040003023509,新規,0,2023-10-11,2023-10-11,合同会社ＭＪテック,,合同会社,千葉県,柏市,南逆井４丁目１０番２５号,,12,217,2770043,,,,,,,2023-10-11,1,,,,,エムジェイテック,0
2023,7050001053589,新規,0,2023-10-11,2023-10-11,株式会社タミヤ,,株式会社,茨城県,下妻市,若柳乙１６５番地２,,08,210,3040012,,,,,,,2023-10-11,1,,,,,タミヤ,0
2026,7050003007840,新規,0,2023-10-11,2023-10-11,合同会社ＳＫ　ＢＡＳＥ,,合同会社,茨城県,水戸市,河和田町４５３７－２,,08,201,3114153,,,,,,,2023-10-11,1,,,,,エスケイベース,0
2028,7070001040957,新規,0,2023-10-11,2023-10-11,株式会社ｍ．ａ．ｐ,,株式会社,群馬県,高崎市,倉賀野町２７２１番地,,10,202,3701201,,,,,,,2023-10-11,1,,,,,エムエーピー,0
2030,7070003005124,新規,0,2023-10-11,2023-10-11,ＥＣＳ　ＣＯＮＳＵＬＴ合同会社,,合同会社,群馬県,館林市,緑町２丁目２３－１,,10,207,3740025,,,,,,,2023-10-11,1,,,,,,0
2034,7080003003069,新規,0,2023-10-11,2023-10-11,合同会社アイコーポレーション,,合同会社,静岡県,静岡市葵区,常磐町１丁目４番地の４,,22,101,4200034,,,,,,,2023-10-11,1,,,,,アイコーポレーション,0
2040,7080101024264,新規,0,2023-10-11,2023-10-11,株式会社Ｔｏｐ　Ｐｏｌｉｓｈ,,株式会社,静岡県,熱海市,伊豆山１１７３番地の６２８七尾ビューテラス２０２,,22,205,4130002,,,,,,,2023-10-11,1,,,,,トップポリッシュ,0
2052,7080401026786,新規,0,2023-10-11,2023-10-11,株式会社ＺｅｍｂＲＥＭ,,株式会社,静岡県,磐田市,加茂３７３番地５,,22,211,4380804,,,,,,,2023-10-11,1,,,,,ゼンブレム,0
2059,7120001033724,新規,0,2023-10-11,2023-10-11,株式会社万善,,株式会社,大阪府,大阪市住吉区,杉本１丁目３番１３号,,27,120,5580022,,,,,,,2023-10-11,1,,,,,マンゼン,0
2067,7120001258560,新規,0,2023-10-11,2023-10-11,株式会社ペガサス,,株式会社,大阪府,大阪市浪速区,敷津西１丁目５番１１号新浪速ビル４階,,27,111,5560015,,,,,,,2023-10-11,1,,,,,ペガサス,0
2068,7120001258676,新規,0,2023-10-11,2023-10-11,株式会社ダイソープロダクツ関西,,株式会社,大阪府,大阪市中央区,南船場３丁目１０番３号,,27,128,5420081,,,,,,,2023-10-11,1,,,,,ダイソープロダクツカンサイ,0
2069,7120001258684,新規,0,2023-10-11,2023-10-11,株式会社ＦＤＥＰＴ,,株式会社,大阪府,大阪市平野区,長吉長原４丁目１５番２６号Ｄ,,27,126,5470016,,,,,,,2023-10-11,1,,,,,エフデプト,0
2070,7120001258692,新規,0,2023-10-11,2023-10-11,株式会社ドラセン,,株式会社,大阪府,大阪市中央区,日本橋１丁目１７番１７号ピカソ日本一ビル６０４号室,,27,128,5420073,,,,,,,2023-10-11,1,,,,,ドラセン,0
2071,7120001258718,新規,0,2023-10-11,2023-10-11,株式会社ＲＡＩＳＥＲ,,株式会社,大阪府,大阪市中央区,南本町１丁目５－６スミヤビル２０３,,27,128,5410054,,,,,,,2023-10-11,1,,,,,ライザー,0
2072,7120003025067,新規,0,2023-10-11,2023-10-11,合同会社科学電房,,合同会社,大阪府,大阪市北区,梅田１丁目１‐３大阪駅前第３ビル２９階１‐１‐１号室,,27,127,5300001,,,,,,,2023-10-11,1,,,,,カガクデンボウ,0
2078,7120901048144,新規,0,2023-10-11,2023-10-11,株式会社ＲＡＦ,,株式会社,大阪府,池田市,畑４丁目１７番１３号,,27,204,5630021,,,,,,,2023-10-11,1,,,,,アールエーエフ,0
2081,7122003002681,新規,0,2023-10-11,2023-10-11,合同会社リスタ,,合同会社,大阪府,東大阪市,友井４丁目９番２６号,,27,227,5770816,,,,,,,2023-10-11,1,,,,,リスタ,0
2088,7130005016906,新規,0,2023-10-11,2023-10-11,医療法人エムスカイ,,その他の設立登記法人,京都府,京都市左京区,岩倉南河原町１５１番地１,,26,103,6060019,,,,,,,2023-10-11,1,,,,,エムスカイ,0
2097,7140003019661,新規,0,2023-10-11,2023-10-11,合同会社インベストリード,,合同会社,兵庫県,姫路市,東延末１丁目４９番地,,28,201,6700965,,,,,,,2023-10-11,1,,,,,インベストリード,0
2098,7150005009511,新規,0,2023-10-11,2023-10-11,一般社団法人奈良県アスレティックトレーナー協会,,その他の設立登記法人,奈良県,葛城市,疋田６７６番地１,,29,211,6392101,,,,,,,2023-10-11,1,,,,,ナラケンアスレティックトレーナーキョウカイ,0
2111,7180001158243,新規,0,2023-10-11,2023-10-11,ＳＡＮ　ＫＥＮ　ＫＯＧＹＯ株式会社,,株式会社,愛知県,知多郡美浜町,大字豊丘字浜６０番地,,23,446,4702414,,,,,,,2023-10-11,1,,,,,サンケンコウギョウ,0
2112,7180001158359,新規,0,2023-10-11,2023-10-11,株式会社Ｌｉｎｏ’ａ,,株式会社,愛知県,北名古屋市,能田旭１１番地５,,23,234,4810003,,,,,,,2023-10-11,1,,,,,リノア,0
2113,7180001158383,新規,0,2023-10-11,2023-10-11,中日リーディング株式会社,,株式会社,愛知県,名古屋市天白区,向が丘２丁目１３１０番地,,23,116,4680012,,,,,,,2023-10-11,1,,,,,チュウニチリーディング,0
2114,7180001158433,新規,0,2023-10-11,2023-10-11,株式会社ＴＭＧＴ,,株式会社,愛知県,春日井市,勝川町６丁目１４０番地,,23,206,4860945,,,,,,,2023-10-11,1,,,,,ティーエムジーティー,0
2118,7180303005861,新規,0,2023-10-11,2023-10-11,合同会社Ｋ＆Ｒ,,合同会社,愛知県,豊田市,高橋町１丁目４９番地,,23,211,4710019,,,,,,,2023-10-11,1,,,,,ケイアンドアール,0
2133,7210001019499,新規,0,2023-10-11,2023-10-11,株式会社グローバルフラワーガーデン,,株式会社,福井県,福井市,高柳１丁目７１０番地,,18,201,9100837,,,,,,,2023-10-11,1,,,,,グローバルフラワーガーデン,0
2135,7210003001711,新規,0,2023-10-11,2023-10-11,合同会社ガヨウシ,,合同会社,福井県,越前市,大虫本町第３０号９番地の７,,18,209,9150884,,,,,,,2023-10-11,1,,,,,ガヨウシ,0
2146,7260003004461,新規,0,2023-10-11,2023-10-11,合同会社才翔,,合同会社,岡山県,岡山市中区,平井１１１７番地１５,,33,102,7038282,,,,,,,2023-10-11,1,,,,,サイショウ,0
2152,7290001103262,新規,0,2023-10-11,2023-10-11,株式会社エムトラスト,,株式会社,福岡県,福岡市城南区,別府４丁目１２番８－７０１号,,40,136,8140104,,,,,,,2023-10-11,1,,,,,エムトラスト,0
2153,7290001103320,新規,0,2023-10-11,2023-10-11,株式会社ＳＨＩＢＡＨＡＲＡ,,株式会社,福岡県,那珂川市,片縄４丁目４７番地１－２０３号,,40,231,8111201,,,,,,,2023-10-11,1,,,,,シバハラ,0
2154,7290001103345,新規,0,2023-10-11,2023-10-11,株式会社ｉａｍｅ,,株式会社,福岡県,福岡市中央区,天神１丁目１－１アクロス福岡１Ｆ,,40,133,8100001,,,,,,,2023-10-11,1,,,,,アイエイム,0
2155,7290001103361,新規,0,2023-10-11,2023-10-11,盛源株式会社,,株式会社,福岡県,筑後市,大字熊野１８２２番地１,,40,211,8330055,,,,,,,2023-10-11,1,,,,,セイゲン,0
2157,7290003014466,新規,0,2023-10-11,2023-10-11,合同会社Ｈｏｌｏｐｏｎｏ,,合同会社,福岡県,糟屋郡宇美町,神武原１丁目５番１４号,,40,341,8112129,,,,,,,2023-10-11,1,,,,,ホロポノ,0
2164,7290801029946,新規,0,2023-10-11,2023-10-11,株式会社セイシン,,株式会社,福岡県,北九州市八幡西区,御開４丁目３番４１号（２０５）,,40,109,8070806,,,,,,,2023-10-11,1,,,,,セイシン,0
2165,7300001013492,新規,0,2023-10-11,2023-10-11,株式会社安藤建設,,株式会社,佐賀県,神埼郡吉野ヶ里町,石動９４７番地,,41,327,8420102,,,,,,,2023-10-11,1,,,,,アンドウケンセツ,0
2168,7300003002031,新規,0,2023-10-11,2023-10-11,合同会社ＭＭコンサルティング,,合同会社,佐賀県,佐賀市,大財１丁目８番４０号,,41,201,8400811,,,,,,,2023-10-11,1,,,,,エムエムコンサルティング,0
2176,7320001020066,新規,0,2023-10-11,2023-10-11,株式会社ＤＥＮＴＥＣ,,株式会社,大分県,豊後大野市,三重町赤嶺３１８５番地１,,44,212,8797111,,,,,,,2023-10-11,1,,,,,デンテック,0
2179,7330001031351,新規,0,2023-10-11,2023-10-11,株式会社インプレスト,,株式会社,熊本県,菊池郡菊陽町,大字辛川４４８番地,,43,404,8691107,,,,,,,2023-10-11,1,,,,,インプレスト,0
2186,7360001032660,新規,0,2023-10-11,2023-10-11,株式会社未来の箱,,株式会社,沖縄県,那覇市,首里末吉町４丁目６番地６,,47,201,9030801,,,,,,,2023-10-11,1,,,,,ミライノハコ,0
2192,7380001034036,新規,0,2023-10-11,2023-10-11,株式会社タイキエンジニア,,株式会社,福島県,喜多方市,山都町字上ノ山平４３００番地１７,,07,208,9694152,,,,,,,2023-10-11,1,,,,,タイキエンジニア,0
2194,7390003002147,新規,0,2023-10-11,2023-10-11,合同会社ＣＨＵＮ,,合同会社,山形県,山形市,七日町１丁目２番３６号ＣＲＯＳＳ七日町２０１号室,,06,201,9900042,,,,,,,2023-10-11,1,,,,,チュン,0
2205,7430001090107,新規,0,2023-10-11,2023-10-11,株式会社ｓｔｕｄｉｏ　ＣＨＯＫＩ,,株式会社,北海道,札幌市中央区,南二十二条西７丁目１番１４－４０３号,,01,101,0640922,,,,,,,2023-10-11,1,,,,,スタジオチョキ,0
2217,7500001025237,新規,0,2023-10-11,2023-10-11,株式会社ＢＬＵＥ　ＷＡＸ　ＷＩＮＥＲＹ,,株式会社,愛媛県,松山市,大街道１丁目４番地１９,,38,201,7900004,,,,,,,2023-10-11,1,,,,,ブルーワックスワイナリー,0
2232,8010001239125,新規,0,2023-10-11,2023-10-11,ＢＡＮＭＡ株式会社,,株式会社,東京都,千代田区,東神田１丁目７－２弥助第三ビル４階,,13,101,1010031,,,,,,,2023-10-11,1,,,,,バンマ,0
2235,8010003041875,新規,0,2023-10-11,2023-10-11,合同会社小豆島安田プロジェクト,,合同会社,東京都,中央区,日本橋１丁目４番１号,,13,102,1030027,,,,,,,2023-10-11,1,,,,,ショウドシマヤスダプロジェクト,0
2240,8010401177544,新規,0,2023-10-11,2023-10-11,株式会社４ｒｍｓ,,株式会社,東京都,港区,北青山１丁目４番５号ＶＯＲＴ青山一丁目Ｄｕａｌ’ｓ１１０１号室,,13,103,1070061,,,,,,,2023-10-11,1,,,,,アームズ,0
2241,8010401177726,新規,0,2023-10-11,2023-10-11,Ｗｉｎｌａｎｄ　Ｔｏｋｙｏ株式会社,,株式会社,東京都,港区,南麻布２丁目２番３号,,13,103,1060047,,,,,,,2023-10-11,1,,,,,ウィンランドトウキョウ,0
2242,8010403031096,新規,0,2023-10-11,2023-10-11,ＵＫ合同会社,,合同会社,東京都,港区,高輪３丁目５－２０－１３０２,,13,103,1080074,,,,,,,2023-10-11,1,,,,,ユーケー,0
2243,8010403031121,新規,0,2023-10-11,2023-10-11,ＪＭインダス１合同会社,,合同会社,東京都,港区,六本木１丁目９番１０号アークヒルズ仙石山森タワー４０階,,13,103,1060032,,,,,,,2023-10-11,1,,,,,ジェイエムインダスワン,0
2244,8010403031146,新規,0,2023-10-11,2023-10-11,合同会社おなかのなか,,合同会社,東京都,港区,浜松町２丁目２番１５号浜松町ダイヤビル２Ｆ,,13,103,1050013,,,,,,,2023-10-11,1,,,,,オナカノナカ,0
2245,8010501051145,新規,0,2023-10-11,2023-10-11,ＢＬＵＥ株式会社,,株式会社,東京都,台東区,寿３丁目９番３号丸大ビル２Ｆ－０７,,13,106,1110042,,,,,,,2023-10-11,1,,,,,ブルー,0
2246,8010501051178,新規,0,2023-10-11,2023-10-11,株式会社ビッグスペース,,株式会社,東京都,台東区,鳥越２丁目１３番１３号,,13,106,1110054,,,,,,,2023-10-11,1,,,,,ビッグスペース,0
2251,8010703006905,新規,0,2023-10-11,2023-10-11,合同会社アスターマネジメント,,合同会社,東京都,品川区,西五反田８丁目２－１２アール五反田７Ａ,,13,109,1410031,,,,,,,2023-10-11,1,,,,,アスターマネジメント,0
2254,8010801034411,新規,0,2023-10-11,2023-10-11,株式会社Ｖｏｄｅ,,株式会社,東京都,大田区,中央８丁目１１番５号,,13,111,1430024,,,,,,,2023-10-11,1,,,,,ヴォード,0
2263,8011001157457,新規,0,2023-10-11,2023-10-11,株式会社Ｇ．Ｔ,,株式会社,東京都,渋谷区,恵比寿４丁目９番７－３０２号,,13,113,1500013,,,,,,,2023-10-11,1,,,,,ジーティー,0
2264,8011001157465,新規,0,2023-10-11,2023-10-11,株式会社砂と音,,株式会社,東京都,渋谷区,千駄ヶ谷４丁目２７番１３－４０７号,,13,113,1510051,,,,,,,2023-10-11,1,,,,,スナトオト,0
2268,8011003017709,新規,0,2023-10-11,2023-10-11,合同会社もちたる,,合同会社,東京都,渋谷区,神宮前６丁目２３番４号桑野ビル２階,,13,113,1500001,,,,,,,2023-10-11,1,,,,,モチタル,0
2277,8011101104689,新規,0,2023-10-11,2023-10-11,株式会社ＳＴＵＤＩＯ　ＳＧ,,株式会社,東京都,新宿区,西新宿３丁目３番１３号西新宿水間ビル６階,,13,104,1600023,,,,,,,2023-10-11,1,,,,,スタジオエスジー,0
2278,8011103013590,新規,0,2023-10-11,2023-10-11,ＭＴＢ合同会社,,合同会社,東京都,新宿区,西新宿３丁目３番１３号西新宿水間ビル６階,,13,104,1600023,,,,,,,2023-10-11,1,,,,,エムティービー,0
2279,8011201024969,新規,0,2023-10-11,2023-10-11,株式会社ＹＣ‐ＳＡＴ,,株式会社,東京都,中野区,沼袋３丁目１５番１号,,13,114,1650025,,,,,,,2023-10-11,1,,,,,ワイシーサット,0
2283,8011501029858,新規,0,2023-10-11,2023-10-11,株式会社グローバルサービス,,株式会社,東京都,荒川区,西日暮里１丁目２８番１１－３０２号,,13,118,1160013,,,,,,,2023-10-11,1,,,,,グローバルサービス,0
2289,8011603004081,新規,0,2023-10-11,2023-10-11,合同会社ＴＦシグマ,,合同会社,東京都,練馬区,氷川台４丁目４７番１８号,,13,120,1790084,,,,,,,2023-10-11,1,,,,,ティーエフシグマ,0
2290,8011701026622,新規,0,2023-10-11,2023-10-11,株式会社ケイオン,,株式会社,東京都,江戸川区,南小岩７丁目３２番４号,,13,123,1330056,,,,,,,2023-10-11,1,,,,,ケイオン,0
2296,8011803005879,新規,0,2023-10-11,2023-10-11,さくら商事合同会社,,合同会社,東京都,葛飾区,高砂２丁目１８番６号さくらパーク３０１,,13,122,1250054,,,,,,,2023-10-11,1,,,,,サクラショウジ,0
2299,8012801022684,新規,0,2023-10-11,2023-10-11,株式会社英心エンジニアリング,,株式会社,東京都,東大和市,芋窪６丁目１３２０番地１,,13,220,2070033,,,,,,,2023-10-11,1,,,,,エイシンエンジニアリング,0
2316,8020003024730,新規,0,2023-10-11,2023-10-11,合同会社りりくる,,合同会社,神奈川県,横浜市港北区,新吉田町４７番地２,,14,109,2230056,,,,,,,2023-10-11,1,,,,,リリクル,0
2321,8021001080385,新規,0,2023-10-11,2023-10-11,ＣＥＲ　Ｃｌｅａｎ　Ｕｐ株式会社,,株式会社,神奈川県,藤沢市,善行１丁目３番４号,,14,205,2510871,,,,,,,2023-10-11,1,,,,,シーイーアールクリーンアップ,0
2324,8021003013649,新規,0,2023-10-11,2023-10-11,Ｋ‐Ｐａｒｔｎｅｒ合同会社,,合同会社,神奈川県,逗子市,久木３丁目１２番２８号,,14,208,2490001,,,,,,,2023-10-11,1,,,,,ケーパートナーシップ,0
2337,8030001156541,新規,0,2023-10-11,2023-10-11,株式会社Ｒ６Ｂ　ＳＵＰＰＯＲＴ,,株式会社,埼玉県,さいたま市大宮区,上小町１２２０番地３,,11,103,3300855,,,,,,,2023-10-11,1,,,,,アールシックスビーサポート,0
2338,8030001156616,新規,0,2023-10-11,2023-10-11,株式会社ゼノ,,株式会社,埼玉県,蓮田市,大字閏戸１９５番地２,,11,238,3490133,,,,,,,2023-10-11,1,,,,,ゼノ,0
2343,8030005021411,新規,0,2023-10-11,2023-10-11,一般社団法人うさぎとひとの幸せを支える会,,その他の設立登記法人,埼玉県,ふじみ野市,上福岡６丁目３番１１号,,11,245,3560004,,,,,,,2023-10-11,1,,,,,ウサギトヒトノシアワセヲササエルカイ,0
2354,8040001130405,新規,0,2023-10-11,2023-10-11,株式会社ＣｌｅａｎＭａｉｎｔｅｎａｎｃｅ,,株式会社,千葉県,船橋市,東船橋５丁目２３番２１号セブンストーンビル５０１号室,,12,204,2730002,,,,,,,2023-10-11,1,,,,,クリーンメンテナンス,0
2357,8040003023524,新規,0,2023-10-11,2023-10-11,合同会社ＭＯＣＣＡ,,合同会社,千葉県,流山市,おおたかの森南２丁目２０－２０,,12,220,2700139,,,,,,,2023-10-11,1,,,,,モッカ,0
2360,8050001053605,新規,0,2023-10-11,2023-10-11,株式会社五色,,株式会社,茨城県,神栖市,土合東２丁目３番３号,,08,232,3140344,,,,,,,2023-10-11,1,,,,,ゴシキ,0
2365,8060001036410,新規,0,2023-10-11,2023-10-11,株式会社コマーズ,,株式会社,栃木県,小山市,大字大本５２３番地,,09,208,3230009,,,,,,,2023-10-11,1,,,,,コマーズ,0
2367,8060003004753,新規,0,2023-10-11,2023-10-11,合同会社Ｗｅｂデザインつとむん,,合同会社,栃木県,芳賀郡益子町,大字七井１８５３,,09,342,3214106,,,,,,,2023-10-11,1,,,,,,0
2370,8070001040948,新規,0,2023-10-11,2023-10-11,金井ファーム株式会社,,株式会社,群馬県,伊勢崎市,粕川町１６０１－６,,10,204,3720023,,,,,,,2023-10-11,1,,,,,,0
2373,8080401026777,新規,0,2023-10-11,2023-10-11,クレッシェンドアソシエイツ株式会社,,株式会社,静岡県,浜松市西区,大平台１丁目２５番４号,,22,133,4328068,,,,,,,2023-10-11,1,,,,,クレッシェンドアソシエイツ,0
2374,8090001018356,新規,0,2023-10-11,2023-10-11,株式会社オフィスワン,,株式会社,山梨県,笛吹市,石和町川中島１８８番地,,19,211,4060024,,,,,,,2023-10-11,1,,,,,オフィスワン,0
2375,8090001018364,新規,0,2023-10-11,2023-10-11,株式会社守屋,,株式会社,山梨県,甲府市,池田３丁目５番３３号,,19,201,4000062,,,,,,,2023-10-11,1,,,,,モリヤ,0
2380,8110001037907,新規,0,2023-10-11,2023-10-11,ａｎｄ　ＳＵＮ株式会社,,株式会社,新潟県,新潟市西蒲区,巻甲４７７４番地１,,15,108,9530041,,,,,,,2023-10-11,1,,,,,アンドサン,0
2394,8120001258139,新規,0,2023-10-11,2023-10-11,淮北株式会社,,株式会社,大阪府,大阪市阿倍野区,阿倍野元町１４－５－５１３号室,,27,119,5450034,,,,,,,2023-10-11,1,,,,,ワイホク,0
2395,8120001258568,新規,0,2023-10-11,2023-10-11,株式会社センビウエスト,,株式会社,大阪府,大阪市旭区,中宮５丁目１１－１５キタオビル３号館１Ｆ,,27,117,5350003,,,,,,,2023-10-11,1,,,,,センビウエスト,0
2396,8120001258626,新規,0,2023-10-11,2023-10-11,株式会社Ｄ＆Ｗ,,株式会社,大阪府,大阪市西成区,千本南１丁目３番２号タイホウスクエア４０１号,,27,122,5570055,,,,,,,2023-10-11,1,,,,,ディーアンドダブリュー,0
2404,8120005023935,新規,0,2023-10-11,2023-10-11,一般財団法人甲南アセット小林記念財団,,その他の設立登記法人,大阪府,大阪市北区,中之島４丁目２番２８号甲南アセット中之島ビル８０８号室,,27,127,5300005,,,,,,,2023-10-11,1,,,,,コウナンアセットコバヤシキネンザイダン,0
2409,8120901048143,新規,0,2023-10-11,2023-10-11,株式会社プラスサム,,株式会社,大阪府,豊中市,上新田１丁目２８５番３号,,27,203,5600085,,,,,,,2023-10-11,1,,,,,プラスサム,0
2411,8120903004862,新規,0,2023-10-11,2023-10-11,合同会社ライズ,,合同会社,大阪府,高槻市,宮田町３丁目１２番１号,,27,207,5691142,,,,,,,2023-10-11,1,,,,,ライズ,0
2417,8130001075401,新規,0,2023-10-11,2023-10-11,株式会社八善,,株式会社,京都府,京都市下京区,七条御所ノ内本町６７,,26,106,6008863,,,,,,,2023-10-11,1,,,,,ハチゼン,0
2418,8130001075467,新規,0,2023-10-11,2023-10-11,Ｆｉｎａｎｃｅ　Ｃｌａｎ株式会社,,株式会社,京都府,京都市下京区,烏丸通仏光寺下る大政所町６８０番地１第八長谷ビル３Ｆ,,26,106,6008413,,,,,,,2023-10-11,1,,,,,ファイナンスクラン,0
2429,8140001131921,新規,0,2023-10-11,2023-10-11,株式会社Ｒｅ,,株式会社,兵庫県,尼崎市,武庫の里２丁目２０番９号,,28,202,6610041,,,,,,,2023-10-11,1,,,,,,0
2431,8160001025403,新規,0,2023-10-11,2023-10-11,株式会社ＥＣＯ,,株式会社,滋賀県,長浜市,列見町２００番地１（３２１号室）,,25,203,5260062,,,,,,,2023-10-11,1,,,,,エコ,0
2433,8170001017829,新規,0,2023-10-11,2023-10-11,株式会社勇興業,,株式会社,和歌山県,有田市,港町８４３番地,,30,204,6490305,,,,,,,2023-10-11,1,,,,,ユウコウギョウ,0
2443,8180001158317,新規,0,2023-10-11,2023-10-11,ＬＳＴ株式会社,,株式会社,愛知県,半田市,青山１丁目９番１５号,,23,205,4750836,,,,,,,2023-10-11,1,,,,,エルエスティー,0
2444,8180001158358,新規,0,2023-10-11,2023-10-11,株式会社Ｓｏｉｌ,,株式会社,愛知県,名古屋市中川区,豊成町１豊成団地４号棟９２４号,,23,110,4540803,,,,,,,2023-10-11,1,,,,,ソイル,0
2445,8180001158416,新規,0,2023-10-11,2023-10-11,株式会社Ｏｈａｎａ,,株式会社,愛知県,名古屋市北区,浪打町２丁目６０番地の１,,23,103,4620041,,,,,,,2023-10-11,1,,,,,オハナ,0
2451,8180301037880,新規,0,2023-10-11,2023-10-11,Ｆ‐ｓｔｙｌｅ株式会社,,株式会社,愛知県,豊田市,美里６丁目３番地１６,,23,211,4710805,,,,,,,2023-10-11,1,,,,,エフスタイル,0
2452,8180301037906,新規,0,2023-10-11,2023-10-11,株式会社アルカナ研究所,,株式会社,愛知県,岡崎市,蓑川町１丁目１６番１５号,,23,202,4443525,,,,,,,2023-10-11,1,,,,,,0
2454,8190001030796,新規,0,2023-10-11,2023-10-11,株式会社ｍａ．ｓｔｙｌｅ,,株式会社,三重県,鳥羽市,堅子町１３４番地,,24,211,5170035,,,,,,,2023-10-11,1,,,,,エムエースタイル,0
2456,8200001041791,新規,0,2023-10-11,2023-10-11,株式会社ＲＭＩ,,株式会社,岐阜県,羽島市,福寿町本郷１７３２番地８,,21,209,5016254,,,,,,,2023-10-11,1,,,,,アールエムアイ,0
2457,8200001041809,新規,0,2023-10-11,2023-10-11,株式会社ＫＥＮＴＯ,,株式会社,岐阜県,岐阜市,加納本石町３丁目７番地テイクオフビル３,,21,201,5008466,,,,,,,2023-10-11,1,,,,,ケント,0
2466,8240001062248,新規,0,2023-10-11,2023-10-11,株式会社Ｒｙｎｏａｈ,,株式会社,広島県,福山市,神辺町字徳田７１５番地１,,34,207,7202126,,,,,,,2023-10-11,1,,,,,リノア,0
2473,8280003001778,新規,0,2023-10-11,2023-10-11,Ｂｅｒｎａｒｄ‐ｌ’ｅｒｍｉｔｅ合同会社,,合同会社,島根県,松江市,北田町４１番地,,32,201,6900883,,,,,,,2023-10-11,1,,,,,ベルナールレルミット,0
2476,8290001103303,新規,0,2023-10-11,2023-10-11,株式会社夜鳥,,株式会社,福岡県,福岡市中央区,大名１丁目１２番３６号,,40,133,8100041,,,,,,,2023-10-11,1,,,,,ヨルドリ,0
2477,8290001103344,新規,0,2023-10-11,2023-10-11,株式会社零,,株式会社,福岡県,福岡市南区,筑紫丘１丁目１２番１－４１５号,,40,134,8150036,,,,,,,2023-10-11,1,,,,,ゼロ,0
2478,8290001103352,新規,0,2023-10-11,2023-10-11,新光株式会社,,株式会社,福岡県,福岡市南区,弥永１丁目１１番１２号,,40,134,8111323,,,,,,,2023-10-11,1,,,,,シンコウ,0
2483,8290803004517,新規,0,2023-10-11,2023-10-11,グリーンエレファント合同会社,,合同会社,福岡県,行橋市,西宮市４丁目３３番７号,,40,213,8240031,,,,,,,2023-10-11,1,,,,,グリーンエレファント,0
2484,8290805009679,新規,0,2023-10-11,2023-10-11,一般社団法人伊方営農組合,,その他の設立登記法人,福岡県,田川郡福智町,伊方３３００番地１,,40,610,8221211,,,,,,,2023-10-11,1,,,,,イカタエイノウクミアイ,0
2488,8310001018655,新規,0,2023-10-11,2023-10-11,株式会社玉野社中,,株式会社,長崎県,長崎市,鳴滝２丁目７番５２号Ｓ２,,42,201,8500011,,,,,,,2023-10-11,1,,,,,タマノシャチュウ,0
2494,8340003004279,新規,0,2023-10-11,2023-10-11,ＹＥＳエージェンシー合同会社,,合同会社,鹿児島県,出水市,福ノ江町１００５番地,,46,208,8990133,,,,,,,2023-10-11,1,,,,,イエスエージェンシー,0
2497,8370001050487,新規,0,2023-10-11,2023-10-11,株式会社佐藤自動車サービス,,株式会社,宮城県,仙台市宮城野区,田子西２丁目１番地の８,,04,102,9830026,,,,,,,2023-10-11,1,,,,,サトウジドウシャサービス,0
2499,8380001034043,新規,0,2023-10-11,2023-10-11,株式会社Ｔ＆Ｔ,,株式会社,福島県,白河市,表郷金山字百目木５６番地,,07,205,9610416,,,,,,,2023-10-11,1,,,,,ティーアンドティー,0
2509,8430001090089,新規,0,2023-10-11,2023-10-11,株式会社将や,,株式会社,北海道,札幌市中央区,南八条西８丁目５２０番地１ハピネス８・８－１０３号,,01,101,0640808,,,,,,,2023-10-11,1,,,,,,0
2510,8430003015507,新規,0,2023-10-11,2023-10-11,合同会社Ｂｅｎｒｉｙａ,,合同会社,北海道,札幌市東区,北丘珠三条１丁目２番７号,,01,103,0070883,,,,,,,2023-10-11,1,,,,,ベンリヤ,0
2513,8470001019844,新規,0,2023-10-11,2023-10-11,株式会社リバティス,,株式会社,香川県,高松市,中野町２９番５号高松プラザビル３階、４階,,37,201,7600008,,,,,,,2023-10-11,1,,,,,リバティス,0
2515,8490001010603,新規,0,2023-10-11,2023-10-11,株式会社高知海月,,株式会社,高知県,高知市,農人町５番２９号,,39,201,7800825,,,,,,,2023-10-11,1,,,,,コウチカイゲツ,0
2521,8700150121179,新規,0,2023-10-11,2023-10-11,Ｓ．Ｎ．Ｓ．ＡＵＴＯ　ＭＯＴＯＲＳ,,外国会社等,茨城県,神栖市,日川１６９９番地２７ビジネスオフィス１５号,,08,232,3140114,スリランカ民主社会主義共和国、アヌラダプラ、タンバラ、リファイプラ、Ｂ．Ｂ．Ｐ．３１４、１０－１,,,,,,2023-10-11,1,,,,,エスエヌエスオートモータース,0
2537,9010001238778,新規,0,2023-10-11,2023-10-11,株式会社Ａｍｖｉｓｉｏｎ,,株式会社,東京都,千代田区,麹町６丁目６－２、５階,,13,101,1020083,,,,,,,2023-10-11,1,,,,,アンビジョン,0
2538,9010001239116,新規,0,2023-10-11,2023-10-11,株式会社ステビング,,株式会社,東京都,中央区,銀座１丁目１２番４号Ｎ＆ＥＢＬＤ．６Ｆ,,13,102,1040061,,,,,,,2023-10-11,1,,,,,ステビング,0
2539,9010001239173,新規,0,2023-10-11,2023-10-11,株式会社インフラニア,,株式会社,東京都,中央区,銀座７丁目１３－６サガミビル２階,,13,102,1040061,,,,,,,2023-10-11,1,,,,,インフラニア,0
2541,9010003041825,新規,0,2023-10-11,2023-10-11,エン・フュージョン合同会社,,合同会社,東京都,文京区,根津２丁目２０番５号３０５号,,13,105,1130031,,,,,,,2023-10-11,1,,,,,エンフュージョン,0
2542,9010003041874,新規,0,2023-10-11,2023-10-11,ＵＬマネジメント合同会社,,合同会社,東京都,千代田区,内神田２丁目５番６号亀田ビル９階,,13,101,1010047,,,,,,,2023-10-11,1,,,,,ユーエルマネジメント,0
2543,9010003041908,新規,0,2023-10-11,2023-10-11,合同会社あなたのミカタ,,合同会社,東京都,中央区,銀座１丁目１２－４－６Ｆ,,13,102,1040061,,,,,,,2023-10-11,1,,,,,アナタノミカタ,0
2569,9010703006904,新規,0,2023-10-11,2023-10-11,ニューサウス合同会社,,合同会社,東京都,品川区,上大崎３丁目１番１号目黒セントラルスクエア１５階,,13,109,1410021,,,,,,,2023-10-11,1,,,,,ニューサウス,0
2571,9010801034410,新規,0,2023-10-11,2023-10-11,株式会社オーケー,,株式会社,東京都,大田区,矢口３丁目１番１５号,,13,111,1460093,,,,,,,2023-10-11,1,,,,,オーケー,0
2584,9011001157464,新規,0,2023-10-11,2023-10-11,ＳａｓｉａＧｒｏｕｐ株式会社,,株式会社,東京都,渋谷区,渋谷２丁目１９－１５宮益坂ビルディング６０９,,13,113,1500002,,,,,,,2023-10-11,1,,,,,サシアグループ,0
2585,9011003017690,新規,0,2023-10-11,2023-10-11,ＣＲＯＷＳ　ＥＮＴ．合同会社,,合同会社,東京都,目黒区,八雲５丁目１７番６－４０６号,,13,110,1520023,,,,,,,2023-10-11,1,,,,,クロウズエント,0
2589,9011201024968,新規,0,2023-10-11,2023-10-11,株式会社スタイルアカウンティング,,株式会社,東京都,中野区,新井２丁目３０番１号,,13,114,1650026,,,,,,,2023-10-11,1,,,,,スタイルアカウンティング,0
2592,9011401025493,新規,0,2023-10-11,2023-10-11,友騰株式会社,,株式会社,東京都,板橋区,中台１丁目５５番１０号,,13,119,1740064,,,,,,,2023-10-11,1,,,,,ユウトウ,0
2597,9011601027174,新規,0,2023-10-11,2023-10-11,株式会社オフィス中村,,株式会社,東京都,練馬区,桜台３丁目１８番４－８０２号,,13,120,1760002,,,,,,,2023-10-11,1,,,,,オフィスナカムラ,0
2599,9011605002545,新規,0,2023-10-11,2023-10-11,一般社団法人アニマルウェルフェア・コーポレート・パートナーズ・ジャパン,,その他の設立登記法人,東京都,練馬区,練馬１丁目２０番８号日建練馬ビル２Ｆ,,13,120,1760001,,,,,,,2023-10-11,1,,,,,アニマルウェルフェアコーポレートパートナーズジャパン,0
2601,9011803005878,新規,0,2023-10-11,2023-10-11,Ｔ＆Ｙ　Ａｃｃｏｕｎｔｉｎｇパートナーズ合同会社,,合同会社,東京都,葛飾区,西水元１丁目１０番６号,,13,122,1250031,,,,,,,2023-10-11,1,,,,,ティーアンドワイアカウンティングパートナーズ,0
2603,9012401041084,新規,0,2023-10-11,2023-10-11,株式会社スナジープラン,,株式会社,東京都,三鷹市,中原２丁目７番１４号,,13,204,1810005,,,,,,,2023-10-11,1,,,,,スナジープラン,0
2606,9012801022659,新規,0,2023-10-11,2023-10-11,株式会社リブロプラス,,株式会社,東京都,立川市,曙町２丁目４２番１号,,13,202,1900012,,,,,,,2023-10-11,1,,,,,リブロプラス,0
2607,9013103001269,新規,0,2023-10-11,2023-10-11,モカレ合同会社,,合同会社,東京都,福生市,大字福生８７５番地３ライオンズマンション福生第２－８０５号室,,13,218,1970011,,,,,,,2023-10-11,1,,,,,モカレ,0
2608,9013303006828,新規,0,2023-10-11,2023-10-11,合同会社三洋商会,,合同会社,東京都,豊島区,池袋３丁目３４番７号,,13,116,1710014,,,,,,,2023-10-11,1,,,,,サンヨウショウカイ,0
2630,9030001156598,新規,0,2023-10-11,2023-10-11,株式会社ＸＴＥＬＲＡ,,株式会社,埼玉県,川口市,大字東内野２２５番地の１７,,11,203,3330821,,,,,,,2023-10-11,1,,,,,エクステラ,0
2650,9050001053587,新規,0,2023-10-11,2023-10-11,株式会社美華月,,株式会社,茨城県,桜川市,真壁町酒寄１８９６番地,,08,231,3004413,,,,,,,2023-10-11,1,,,,,ミカヅキ,0
2651,9050001053612,新規,0,2023-10-11,2023-10-11,ＢＡＲＵＧＺＡＩ　ＭＯＴＯＲＳ株式会社,,株式会社,茨城県,猿島郡境町,大字伏木１５４５番地１,,08,546,3060416,,,,,,,2023-10-11,1,,,,,バルグザイモーターズ,0
2653,9060001036418,新規,0,2023-10-11,2023-10-11,株式会社中村養蜂園,,株式会社,栃木県,那須塩原市,西三島１丁目１３８番地１１,,09,213,3292756,,,,,,,2023-10-11,1,,,,,ナカムラヨウホウエン,0
2657,9070001040955,新規,0,2023-10-11,2023-10-11,株式会社Ｇｒｏｗｔｈ　Ｒｉｎｇｓ,,株式会社,群馬県,高崎市,上並榎町２５６番地３,,10,202,3700801,,,,,,,2023-10-11,1,,,,,グロウスリングス,0
2663,9070003005130,新規,0,2023-10-11,2023-10-11,合同会社Ｒｅｄ‐Ｇａｍｍａ,,合同会社,群馬県,桐生市,広沢町４丁目２１４６番地,,10,203,3760013,,,,,,,2023-10-11,1,,,,,レッドガンマ,0
2664,9080001025906,新規,0,2023-10-11,2023-10-11,東雲テック工業株式会社,,株式会社,静岡県,牧之原市,仁田６０８番地３,,22,226,4210413,,,,,,,2023-10-11,1,,,,,シノノメテックコウギョウ,0
2669,9080401026776,新規,0,2023-10-11,2023-10-11,Ｆｕｎ　ｕｐ株式会社,,株式会社,静岡県,掛川市,大渕８８４２番地の１ロイヤルハウス３Ｆ,,22,213,4371302,,,,,,,2023-10-11,1,,,,,ファンアップ,0
2670,9080401026784,新規,0,2023-10-11,2023-10-11,カペラ株式会社,,株式会社,静岡県,浜松市中区,中央２丁目６番５号,,22,131,4300929,,,,,,,2023-10-11,1,,,,,カペラ,0
2677,9110001037906,新規,0,2023-10-11,2023-10-11,株式会社ｂｌａｎｃ,,株式会社,新潟県,上越市,本町３丁目２番２１号,,15,222,9430832,,,,,,,2023-10-11,1,,,,,ブラン,0
2686,9120001258591,新規,0,2023-10-11,2023-10-11,中和商事株式会社,,株式会社,大阪府,大阪市生野区,中川東１丁目８番９号,,27,116,5440006,,,,,,,2023-10-11,1,,,,,チュウワショウジ,0
2687,9120001258699,新規,0,2023-10-11,2023-10-11,Ｄｍｅｔ　Ｃｏｎｓｕｌｔｉｎｇ株式会社,,株式会社,大阪府,大阪市淀川区,西中島５丁目１－４モジュール新大阪８階,,27,123,5320011,,,,,,,2023-10-11,1,,,,,ディーメットコンサルティング,0
2694,9120005023934,新規,0,2023-10-11,2023-10-11,一般財団法人鶴見奨学研究助成財団,,その他の設立登記法人,大阪府,大阪市鶴見区,鶴見４丁目１６番４０号,,27,124,5380053,,,,,,,2023-10-11,1,,,,,ツルミショウガクケンキュウジョセイザイダン,0
2710,9130001075383,新規,0,2023-10-11,2023-10-11,株式会社エダマミー,,株式会社,京都府,京都市中京区,三条通寺町東入石橋町２１番地２,,26,104,6048036,,,,,,,2023-10-11,1,,,,,エダマミー,0
2711,9130001075417,新規,0,2023-10-11,2023-10-11,ＫＲＴ株式会社,,株式会社,京都府,京都市伏見区,横大路貴船４１番地４杜喜１０３,,26,109,6128297,,,,,,,2023-10-11,1,,,,,ケイアールティー,0
2727,9140001131920,新規,0,2023-10-11,2023-10-11,株式会社サマル,,株式会社,兵庫県,芦屋市,翠ケ丘町４番１９号,,28,206,6590014,,,,,,,2023-10-11,1,,,,,,0
2732,9150001026789,新規,0,2023-10-11,2023-10-11,株式会社ＦＡＲＭＥＮＴＲＹ,,株式会社,奈良県,橿原市,五井町１９７－５,,29,205,6340832,,,,,,,2023-10-11,1,,,,,ファーメンタリー,0
2734,9160001025402,新規,0,2023-10-11,2023-10-11,株式会社Ｋトラスト,,株式会社,滋賀県,大津市,松が丘４丁目１番６号,,25,201,5202102,,,,,,,2023-10-11,1,,,,,ケートラスト,0
2735,9160001025410,新規,0,2023-10-11,2023-10-11,株式会社木構造パートナーズ,,株式会社,滋賀県,大津市,中央２丁目４番１１号,,25,201,5200043,,,,,,,2023-10-11,1,,,,,モクコウゾウパートナーズ,0
2746,9180001158365,新規,0,2023-10-11,2023-10-11,株式会社ＩＯＯＬＩＦＥ,,株式会社,愛知県,名古屋市中区,大井町４番２１号大井ビル１階,,23,106,4600015,,,,,,,2023-10-11,1,,,,,アイオーオーライフ,0
2747,9180001158398,新規,0,2023-10-11,2023-10-11,株式会社研創舎,,株式会社,愛知県,大府市,中央町７丁目３５８番地サンライトビル１Ｆ,,23,223,4740025,,,,,,,2023-10-11,1,,,,,ケンソウシャ,0
2748,9180001158415,新規,0,2023-10-11,2023-10-11,Ｚ‐ＳＯＦＴ株式会社,,株式会社,愛知県,名古屋市中村区,名駅３丁目２８番１２号大名古屋ビルヂング１１階,,23,105,4500002,,,,,,,2023-10-11,1,,,,,ゼットソフト,0
2753,9180003025745,新規,0,2023-10-11,2023-10-11,合同会社犬の手サービス,,合同会社,愛知県,春日井市,気噴町１丁目２１番地６,,23,206,4870014,,,,,,,2023-10-11,1,,,,,イヌノテサービス,0
2756,9180301037888,新規,0,2023-10-11,2023-10-11,株式会社ＷＩＳＥ　ＣＨＯＩＣＥ,,株式会社,愛知県,豊橋市,小島町字西縄口２１６番地７,,23,201,4413122,,,,,,,2023-10-11,1,,,,,ワイズチョイス,0
2759,9190001030795,新規,0,2023-10-11,2023-10-11,株式会社ＣＲＯＷ,,株式会社,三重県,津市,香良洲町１４７５番地２７Ｋ－Ｓｍａｒｔ香良洲Ｂ棟６号室,,24,201,5140315,,,,,,,2023-10-11,1,,,,,クロー,0
2763,9200001041799,新規,0,2023-10-11,2023-10-11,トライウィン株式会社,,株式会社,岐阜県,恵那市,明智町１２２９番地１,,21,210,5097731,,,,,,,2023-10-11,1,,,,,トライウィン,0
2771,9240003006359,新規,0,2023-10-11,2023-10-11,Ｓｔａｉｒｃｅｎｔ合同会社,,合同会社,広島県,福山市,加茂町下加茂４５８番地４,,34,207,7210000,,,,,,,2023-10-11,1,,,,,ステアセント,0
2786,9340001025978,新規,0,2023-10-11,2023-10-11,株式会社Ｍ４２１０,,株式会社,鹿児島県,鹿児島市,中山町５２０３番地１,,46,201,8910105,,,,,,,2023-10-11,1,,,,,エムヨンニイチゼロ,0
2790,9340003004278,新規,0,2023-10-11,2023-10-11,合同会社リード,,合同会社,鹿児島県,鹿児島市,小松原２丁目５番１３号森田小松原館２０１号,,46,201,8910114,,,,,,,2023-10-11,1,,,,,リード,0
2794,9360001032659,新規,0,2023-10-11,2023-10-11,株式会社シーア,,株式会社,沖縄県,島尻郡南風原町,字本部４２１番地１０、Ｂ－８,,47,350,9011112,,,,,,,2023-10-11,1,,,,,シーア,0
2807,9430001090162,新規,0,2023-10-11,2023-10-11,株式会社食宝,,株式会社,北海道,札幌市中央区,南四条西８丁目２番地サンプラーザ札幌６０９号,,01,101,0640804,,,,,,,2023-10-11,1,,,,,ショクホウ,0
2820,9430003015514,新規,0,2023-10-11,2023-10-11,合同会社あんと,,合同会社,北海道,札幌市清田区,北野一条２丁目８番３３号,,01,110,0040861,,,,,,,2023-10-11,1,,,,,アント,0
2824,9470001019843,新規,0,2023-10-11,2023-10-11,株式会社佐々木建設,,株式会社,香川県,高松市,新田町甲２５１９番地１,,37,201,7610102,,,,,,,2023-10-11,1,,,,,ササキケンセツ,0
2826,9480001012252,新規,0,2023-10-11,2023-10-11,株式会社慎乃,,株式会社,徳島県,徳島市,津田海岸町２番５７,,36,201,7708001,,,,,,,2023-10-11,1,,,,,シンノ,0
2830,9500001025235,新規,0,2023-10-11,2023-10-11,株式会社司電機,,株式会社,愛媛県,四国中央市,妻鳥町２８７７番地１７,,38,213,7990113,,,,,,,2023-10-11,1,,,,,ツカサデンキ,0
2834,9700150121178,新規,0,2023-10-11,2023-10-11,Ｐｒｅｇａｓｕｓ　Ｅｎｔｅｒｐｒｉｓｅｓ　Ｐｒｉｖａｔｅ　Ｌｉｍｉｔｅｄ,,外国会社等,東京都,新宿区,新宿７丁目５－２ダニエルハウス２０２,,13,104,1600022,ネパール国、バグマティ州、カトマンズ郡、トカ自治体０７区,,,,,,2023-10-11,1,,,,,プレガサスエンタープライズプライベートリミテツド,0
