sequenceNumber,corporateNumber,process,correct,updateDate,changeDate,name,nameImageId,kind,prefectureName,cityName,streetNumber,addressImageId,prefectureCode,cityCode,postCode,addressOutside,addressOutsideImageId,closeDate,closeCause,successorCorporateNumber,changeCause,assignmentDate,latest,enName,enPrefectureName,enCityName,enAddressOutside,furigana,hihyoji
11,1010001232441,新規,0,2023-01-25,2023-01-25,株式会社ＳＴＯＣＫ１２２,,株式会社,東京都,千代田区,永田町２丁目１２番４号,,13,101,1000014,,,,,,,2023-01-25,1,,,,,ストックヒャクニジュウニ,0
12,1010001232482,新規,0,2023-01-25,2023-01-25,東洋電子株式会社,,株式会社,東京都,千代田区,紀尾井町４番１号ニューオータニ・ガーデンタワー１０階,,13,101,1020094,,,,,,,2023-01-25,1,,,,,トウヨウデンシ,0
13,1010003039612,新規,0,2023-01-25,2023-01-25,合同会社Ｎｅ‐ｏＮ,,合同会社,東京都,中央区,銀座１丁目１２番４号Ｎ＆Ｅ、ＢＬＤ．６Ｆ,,13,102,1040061,,,,,,,2023-01-25,1,,,,,ネオン,0
14,1010003039653,新規,0,2023-01-25,2023-01-25,大賀合同会社,,合同会社,東京都,千代田区,神田須田町２丁目８番２０号パレ・ドール神田７０３,,13,101,1010041,,,,,,,2023-01-25,1,,,,,ダイガ,0
15,1010003039678,新規,0,2023-01-25,2023-01-25,合同会社新単,,合同会社,東京都,千代田区,神田和泉町１番地６の１６ヤマトビル４０５,,13,101,1010024,,,,,,,2023-01-25,1,,,,,シンタン,0
27,1010401172064,新規,0,2023-01-25,2023-01-25,株式会社Ａｉｍａｌ,,株式会社,東京都,港区,海岸３丁目６－３２－８０５,,13,103,1080022,,,,,,,2023-01-25,1,,,,,アイマル,0
28,1010401172072,新規,0,2023-01-25,2023-01-25,株式会社Ｂｒｏｍｉｃ　Ｊａｐａｎ,,株式会社,東京都,港区,虎ノ門４丁目３番１号城山トラストタワー９階東京赤坂法律事務所内,,13,103,1050001,,,,,,,2023-01-25,1,,,,,ブロミックジャパン,0
29,1010401172080,新規,0,2023-01-25,2023-01-25,株式会社ＰＩＴＡＲＩ,,株式会社,東京都,港区,南青山３丁目１番３６号青山丸竹ビル６Ｆ,,13,103,1070062,,,,,,,2023-01-25,1,,,,,ピタリ,0
30,1010401172097,新規,0,2023-01-25,2023-01-25,株式会社ｋａｙａｎｇ,,株式会社,東京都,港区,赤坂３丁目７番１１号レジーア赤坂ビル４階,,13,103,1070052,,,,,,,2023-01-25,1,,,,,カヤン,0
37,1010701043758,新規,0,2023-01-25,2023-01-25,株式会社Ｓｐｏｎｄ,,株式会社,東京都,品川区,大井４丁目２番４－６０１号,,13,109,1400014,,,,,,,2023-01-25,1,,,,,スポンド,0
38,1010701043766,新規,0,2023-01-25,2023-01-25,株式会社ｃｕｐｃａｐ,,株式会社,東京都,品川区,東五反田２丁目５番１１－４０１号,,13,109,1410022,,,,,,,2023-01-25,1,,,,,カップキャップ,0
40,1010703006556,新規,0,2023-01-25,2023-01-25,合同会社ＬＳブレイン,,合同会社,東京都,品川区,東五反田２丁目９番１－１２０２号,,13,109,1410022,,,,,,,2023-01-25,1,,,,,エルエスブレイン,0
41,1010705003469,新規,0,2023-01-25,2023-01-25,特定非営利活動法人プランＢ,,その他の設立登記法人,東京都,品川区,東中延１丁目２番３－３０２号,,13,109,1420052,,,,,,,2023-01-25,1,,,,,プランビー,0
43,1010801033626,新規,0,2023-01-25,2023-01-25,株式会社ボヌール,,株式会社,東京都,大田区,西馬込１丁目１７番４号,,13,111,1430026,,,,,,,2023-01-25,1,,,,,ボヌール,0
46,1010903007924,新規,0,2023-01-25,2023-01-25,合同会社東京ＧＭＡＲＣＨ,,合同会社,東京都,世田谷区,桜２丁目１８－４ツインパレス経堂１１３,,13,112,1560053,,,,,,,2023-01-25,1,,,,,トウキョウジーマーチ,0
52,1011001152092,新規,0,2023-01-25,2023-01-25,ＺＥＥＮ株式会社,,株式会社,東京都,渋谷区,道玄坂１丁目１０番８号渋谷道玄坂東急ビル２Ｆ－Ｃ,,13,113,1500043,,,,,,,2023-01-25,1,,,,,ジーン,0
53,1011001152118,新規,0,2023-01-25,2023-01-25,株式会社ＭＵＲＡＳＡＫＩ,,株式会社,東京都,渋谷区,恵比寿西１丁目３４番１５－１００３号,,13,113,1500021,,,,,,,2023-01-25,1,,,,,ムラサキ,0
54,1011001152175,新規,0,2023-01-25,2023-01-25,オリオンスターロボティクス株式会社,,株式会社,東京都,渋谷区,恵比寿１丁目２３番１５号ルモンド恵比寿９０１,,13,113,1500013,,,,,,,2023-01-25,1,,,,,オリオンスターロボティクス,0
55,1011003016171,新規,0,2023-01-25,2023-01-25,合同会社ＥＭＡ,,合同会社,東京都,目黒区,中目黒５丁目２８番１８－４０１号,,13,110,1530061,,,,,,,2023-01-25,1,,,,,イーエムエー,0
57,1011005009917,新規,0,2023-01-25,2023-01-25,一般財団法人Ｓｏｉｌ,,その他の設立登記法人,東京都,渋谷区,恵比寿１丁目２１番１８－５０１号,,13,113,1500013,,,,,,,2023-01-25,1,,,,,ソイル,0
69,1011101101528,新規,0,2023-01-25,2023-01-25,株式会社スタジオインディ,,株式会社,東京都,新宿区,新宿３丁目２２番１１号,,13,104,1600022,,,,,,,2023-01-25,1,,,,,スタジオインディ,0
82,1011203003993,新規,0,2023-01-25,2023-01-25,ジェイデベロップ合同会社,,合同会社,東京都,中野区,大和町３丁目１６番８号,,13,114,1650034,,,,,,,2023-01-25,1,,,,,ジェイデベロップ,0
85,1011501028825,新規,0,2023-01-25,2023-01-25,株式会社コミットラスト,,株式会社,東京都,荒川区,荒川５丁目２７番３－１０１号グランパパス,,13,118,1160002,,,,,,,2023-01-25,1,,,,,コミットラスト,0
86,1011501028899,新規,0,2023-01-25,2023-01-25,リボーン株式会社,,株式会社,東京都,北区,岩淵町２２番３１－１０６号ニックハイム赤羽,,13,117,1150041,,,,,,,2023-01-25,1,,,,,リボーン,0
101,1013301050240,新規,0,2023-01-25,2023-01-25,株式会社ロコス,,株式会社,東京都,豊島区,池袋２丁目５０－８－３０１,,13,116,1710014,,,,,,,2023-01-25,1,,,,,ロコス,0
149,1020003023169,新規,0,2023-01-25,2023-01-25,合同会社ＨＣ　Ｓｔｙｌｅ,,合同会社,神奈川県,横浜市西区,久保町１３－２１－３０１号,,14,103,2200061,,,,,,,2023-01-25,1,,,,,エイチシースタイル,0
154,1021001078031,新規,0,2023-01-25,2023-01-25,株式会社はるかな,,株式会社,神奈川県,横須賀市,長沢１丁目４０番７号,,14,201,2390842,,,,,,,2023-01-25,1,,,,,ハルカナ,0
155,1021001078056,新規,0,2023-01-25,2023-01-25,こぶちエンジニアリングソリューションズ株式会社,,株式会社,神奈川県,相模原市南区,古淵６丁目１５番１９号,,14,153,2520344,,,,,,,2023-01-25,1,,,,,コブチエンジニアリングソリューションズ,0
165,1030001152084,新規,0,2023-01-25,2023-01-25,株式会社プライド,,株式会社,埼玉県,春日部市,谷原３丁目２番地１,,11,214,3440065,,,,,,,2023-01-25,1,,,,,プライド,0
166,1030001152092,新規,0,2023-01-25,2023-01-25,Ｒ・Ｅ・ＳＵＰＰＯＲＴ株式会社,,株式会社,埼玉県,北足立郡伊奈町,西小針１丁目３４番地,,11,301,3620811,,,,,,,2023-01-25,1,,,,,アールイーサポート,0
170,1030003021007,新規,0,2023-01-25,2023-01-25,合同会社ＫＲＮ,,合同会社,埼玉県,川口市,本町４丁目１２－１６ＬｉｌｌｙＬａＡｌｄｉｓ４０１,,11,203,3320012,,,,,,,2023-01-25,1,,,,,ケーアールエヌ,0
171,1030003021023,新規,0,2023-01-25,2023-01-25,合同会社ｕｎｉｂｕｓ,,合同会社,埼玉県,ふじみ野市,丸山９番２号,,11,245,3560035,,,,,,,2023-01-25,1,,,,,ユニバス,0
172,1030005021120,新規,0,2023-01-25,2023-01-25,一般社団法人宏歯会,,その他の設立登記法人,埼玉県,川越市,大字的場２８３９番地２８（グランキューブ１０１号室）,,11,201,3501101,,,,,,,2023-01-25,1,,,,,コウシカイ,0
176,1040001126772,新規,0,2023-01-25,2023-01-25,ＩＬＡＮＤＡＲＡ　ＩＮＴＥＲＮＡＴＩＯＮＡＬ株式会社,,株式会社,千葉県,八街市,富山１３１４番地１１,,12,230,2891141,,,,,,,2023-01-25,1,,,,,イランダラインターナショナル,0
177,1040001126780,新規,0,2023-01-25,2023-01-25,株式会社みやま,,株式会社,千葉県,千葉市美浜区,幸町１丁目１９番１２号,,12,106,2610001,,,,,,,2023-01-25,1,,,,,ミヤマ,0
179,1040003021765,新規,0,2023-01-25,2023-01-25,合同会社湯浅工業,,合同会社,千葉県,柏市,逆井５丁目７番２６号アルカディアＩ－２０２号,00129201,12,217,2770042,,,,,,,2023-01-25,1,,,,,ユアサコウギョウ,0
180,1040003021773,新規,0,2023-01-25,2023-01-25,宮内事務代行サービス合同会社,,合同会社,千葉県,成田市,本城３２番地６１,,12,211,2860114,,,,,,,2023-01-25,1,,,,,ミヤウチジムダイコウサービス,0
188,1060003004388,新規,0,2023-01-25,2023-01-25,合同会社アキ,,合同会社,栃木県,足利市,丸山町６８８番地７号ブリーゼ足利３０５号室,,09,202,3260057,,,,,,,2023-01-25,1,,,,,アキ,0
215,1080101023759,新規,0,2023-01-25,2023-01-25,株式会社Ｄ．ｐｌｕｓ,,株式会社,静岡県,駿東郡長泉町,本宿５５６番地の１４,,22,342,4110945,,,,,,,2023-01-25,1,,,,,ディプラス,0
217,1100001036081,新規,0,2023-01-25,2023-01-25,株式会社Ｒｅ‐ｂｅｌｌ,,株式会社,長野県,上伊那郡箕輪町,大字中箕輪３７３０番地１０３８,,20,383,3994601,,,,,,,2023-01-25,1,,,,,リベル,0
218,1100003006859,新規,0,2023-01-25,2023-01-25,合同会社エクセル,,合同会社,長野県,北佐久郡軽井沢町,大字長倉２３２８番地４３,,20,321,3890111,,,,,,,2023-01-25,1,,,,,エクセル,0
232,1120001252008,新規,0,2023-01-25,2023-01-25,株式会社Ｊ＆Ｂ,,株式会社,大阪府,寝屋川市,黒原新町９番１３－７１２号,,27,215,5720059,,,,,,,2023-01-25,1,,,,,ジェイアンドビー,0
233,1120001252032,新規,0,2023-01-25,2023-01-25,株式会社ギフトＣ,,株式会社,大阪府,大阪市中央区,上汐１丁目４番１０－４０４号,,27,128,5420064,,,,,,,2023-01-25,1,,,,,ギフトシー,0
240,1120105009675,新規,0,2023-01-25,2023-01-25,医療法人亮和会,,その他の設立登記法人,大阪府,堺市西区,鳳中町５丁１７８番地３,,27,144,5938327,,,,,,,2023-01-25,1,,,,,リョウワカイ,0
241,1120901047036,新規,0,2023-01-25,2023-01-25,株式会社Ｒｅｗａｒｄｉｎｇ,,株式会社,大阪府,吹田市,広芝町１０番８号江坂董友ビル,,27,205,5640052,,,,,,,2023-01-25,1,,,,,リワーディング,0
242,1122001036613,新規,0,2023-01-25,2023-01-25,日成徳栄興株式会社,,株式会社,大阪府,八尾市,郡川２丁目９３,,27,212,5810872,,,,,,,2023-01-25,1,,,,,ニッセイドクエイコウ,0
253,1140001128858,新規,0,2023-01-25,2023-01-25,株式会社後藤建設,,株式会社,兵庫県,尼崎市,東難波町３丁目５－１８－２０５,,28,202,6600892,,,,,,,2023-01-25,1,,,,,ゴトウケンセツ,0
257,1140003018636,新規,0,2023-01-25,2023-01-25,合同会社ＩＣＤＴ,,合同会社,兵庫県,西宮市,苦楽園二番町１６番２２－２号,,28,204,6620082,,,,,,,2023-01-25,1,,,,,アイシーディーティー,0
262,1150001026128,新規,0,2023-01-25,2023-01-25,株式会社Ｂｌｏｏｍｉｎｇ,,株式会社,奈良県,大和郡山市,城見町４番３１号,,29,203,6391012,,,,,,,2023-01-25,1,,,,,ブルーミング,0
264,1160001024790,新規,0,2023-01-25,2023-01-25,株式会社Ｌｉｚ,,株式会社,滋賀県,犬上郡多賀町,大字多賀５９１番地,,25,443,5220341,,,,,,,2023-01-25,1,,,,,リズ,0
268,1180001154660,新規,0,2023-01-25,2023-01-25,株式会社ＡＴＧＬＡＲＯ,,株式会社,愛知県,名古屋市中区,大須３丁目３０－６０、ＯＳＵ３０１ビル５階１号室,,23,106,4600011,,,,,,,2023-01-25,1,,,,,アットグラーロ,0
269,1180001154669,新規,0,2023-01-25,2023-01-25,アルテアラボ株式会社,,株式会社,愛知県,名古屋市天白区,野並２丁目２８２番モナティス野並３０１,,23,116,4680045,,,,,,,2023-01-25,1,,,,,アルテアラボ,0
270,1180001154677,新規,0,2023-01-25,2023-01-25,株式会社九年会,,株式会社,愛知県,名古屋市港区,東茶屋２丁目７７番地の２,,23,111,4550851,,,,,,,2023-01-25,1,,,,,キュウネンカイ,0
276,1190001030118,新規,0,2023-01-25,2023-01-25,まつお工務店株式会社,,株式会社,三重県,松阪市,久保町１８８９番地４,,24,204,5150044,,,,,,,2023-01-25,1,,,,,マツオコウムテン,0
278,1200001040890,新規,0,2023-01-25,2023-01-25,株式会社Ｂａｌ,,株式会社,岐阜県,各務原市,蘇原興亜町１丁目７番地,,21,213,5040814,,,,,,,2023-01-25,1,,,,,バル,0
279,1210001019216,新規,0,2023-01-25,2023-01-25,株式会社ｎａｎｏｋａ,,株式会社,福井県,敦賀市,松島町２丁目８番３５号新水戸マンション１０１,,18,202,9140801,,,,,,,2023-01-25,1,,,,,ナノカ,0
283,1240003005987,新規,0,2023-01-25,2023-01-25,合同会社シェアタイム,,合同会社,広島県,広島市安佐南区,古市３丁目１３番１３－１０４号,,34,105,7310123,,,,,,,2023-01-25,1,,,,,シェアタイム,0
291,1290001100323,新規,0,2023-01-25,2023-01-25,株式会社遊食ふぁーむ,,株式会社,福岡県,糸島市,二丈吉井２３６３番地,,40,230,8191641,,,,,,,2023-01-25,1,,,,,ユウショクファーム,0
295,1330001030524,新規,0,2023-01-25,2023-01-25,株式会社成城,,株式会社,熊本県,熊本市東区,戸島１丁目１３番５号,,43,102,8618041,,,,,,,2023-01-25,1,,,,,セイジョウ,0
297,1340001025317,新規,0,2023-01-25,2023-01-25,株式会社ｔｗｅｌｖｅ,,株式会社,鹿児島県,姶良市,加治木町反土１８６７－５,,46,225,8995231,,,,,,,2023-01-25,1,,,,,,0
299,1350001018146,新規,0,2023-01-25,2023-01-25,株式会社高妻保険事務所,,株式会社,宮崎県,北諸県郡三股町,大字樺山１８８８番地１８,,45,341,8891901,,,,,,,2023-01-25,1,,,,,コウヅマホケンジムショ,0
308,1360001031486,新規,0,2023-01-25,2023-01-25,株式会社Ｄａｙｌｉｇｈｔ　Ｏｋｉｎａｗａ,,株式会社,沖縄県,島尻郡八重瀬町,字上田原１番地２,,47,362,9010412,,,,,,,2023-01-25,1,,,,,デイライトオキナワ,0
327,1380001033423,新規,0,2023-01-25,2023-01-25,株式会社Ｏ’ｓ　Ｄｅｔａｉｌｉｎｇ,,株式会社,福島県,本宮市,岩根字輪ヶ渕７番地,,07,214,9691106,,,,,,,2023-01-25,1,,,,,オーズディテイリング,0
331,1390003002037,新規,0,2023-01-25,2023-01-25,ターナリーシステムズ合同会社,,合同会社,山形県,米沢市,太田町２丁目１番３５－７号,,06,202,9920035,,,,,,,2023-01-25,1,,,,,ターナリーシステムズ,0
339,1430001088247,新規,0,2023-01-25,2023-01-25,株式会社ハピロード,,株式会社,北海道,札幌市南区,藤野三条５丁目１番２３号,,01,106,0612283,,,,,,,2023-01-25,1,,,,,ハピロード,0
348,1480001011988,新規,0,2023-01-25,2023-01-25,株式会社大松建設,,株式会社,徳島県,徳島市,西須賀町下中須５６番地の７,,36,201,7708024,,,,,,,2023-01-25,1,,,,,オオマツケンセツ,0
360,1490001010386,新規,0,2023-01-25,2023-01-25,株式会社アース・イノベーションコンサルタント,,株式会社,高知県,高知市,堺町１４番４号チャレンジ７０ビル３０１,,39,201,7800834,,,,,,,2023-01-25,1,,,,,,0
365,1700150113942,新規,0,2023-01-25,2023-01-25,Ｌｉｈａｎｇ　Ｔｅｃｈｎｏｌｏｇｙ　Ｃｏ．，Ｌｉｍｉｔｅｄ,,外国会社等,,,,,,,,ＲＯＯＭ　８，１１／Ｆ，ＷＡＮＧ　ＦＡＩ　ＩＮＤＵＳＴＲＩＡＬ　ＢＵＩＬＤＩＮＧ，２９　ＬＵＫ　ＨＯＰ　ＳＴＲＥＥＴ　ＳＡＮ　ＰＯ　ＫＯＮＧ，ＫＯＷＬＯＯＮ，ＨＯＮＧ　ＫＯＮＧ,,,,,,2023-01-25,1,,,,,リツコウカギ,0
366,1700150113950,新規,0,2023-01-25,2023-01-25,Ｆ．Ｒ．ＡＵＴＯ　ＭＯＴＯＲＳ　ＰＶＴ　ＬＴＤ,,外国会社等,千葉県,東金市,三ケ尻５－４－１,,12,213,2830832,スリランカ民主社会主義共和国、アヌラダハプラ、ノチッチヤガマ、カンドゥウェラ、Ｎｏ．６１,,,,,,2023-01-25,1,,,,,エフアールオートモータースプライベートリミテツド,0
376,2010001232424,新規,0,2023-01-25,2023-01-25,株式会社Ｔｒｅａｓｕｒｅ　Ｂｏｘｉｎｇ　Ｐｒｏｍｏｔｉｏｎ,,株式会社,東京都,中央区,勝どき３丁目６番１０－５０７号,,13,102,1040054,,,,,,,2023-01-25,1,,,,,トレジャーボクシングプロモーション,0
377,2010001232440,新規,0,2023-01-25,2023-01-25,株式会社ＳＴＯＣＫ１２１,,株式会社,東京都,千代田区,永田町２丁目１２番４号,,13,101,1000014,,,,,,,2023-01-25,1,,,,,ストックヒャクニジュウイチ,0
378,2010001232481,新規,0,2023-01-25,2023-01-25,株式会社建設工事研究所,,株式会社,東京都,中央区,東日本橋２丁目２８番４号日本橋ＣＥＴビル２階,,13,102,1030004,,,,,,,2023-01-25,1,,,,,ケンセツコウジケンキュウジョ,0
388,2010401172022,新規,0,2023-01-25,2023-01-25,ＳＨＩＦＴ株式会社,,株式会社,東京都,港区,南青山５丁目８番１０号,,13,103,1070062,,,,,,,2023-01-25,1,,,,,シフト,0
389,2010401172055,新規,0,2023-01-25,2023-01-25,エア・ウォーター東日本マネジメント株式会社,,株式会社,東京都,港区,虎ノ門３丁目１８番１９号,,13,103,1050001,,,,,,,2023-01-25,1,,,,,エアウオーターヒガシニホンマネジメント,0
390,2010401172063,新規,0,2023-01-25,2023-01-25,株式会社Ｓｒｏｒｅ,,株式会社,東京都,港区,海岸３丁目６－３２－８０５,,13,103,1080022,,,,,,,2023-01-25,1,,,,,スロア,0
391,2010401172088,新規,0,2023-01-25,2023-01-25,株式会社８ｂｉｔＮｅｗｓ,,株式会社,東京都,港区,赤坂８丁目９－５－５０７,,13,103,1070052,,,,,,,2023-01-25,1,,,,,エイトビットニュース,0
392,2010401172105,新規,0,2023-01-25,2023-01-25,株式会社ＧＡＲＣＩＡ　ＭＡＲＱＵＥＺ,,株式会社,東京都,港区,芝浦４丁目１６番２３号,,13,103,1080023,,,,,,,2023-01-25,1,,,,,ガルシアマルケス,0
395,2010403029369,新規,0,2023-01-25,2023-01-25,合同会社Ｃｏｒｏｎａｔｉｏｎ,,合同会社,東京都,港区,虎ノ門３丁目２２番１０－２０１号,,13,103,1050001,,,,,,,2023-01-25,1,,,,,コロネーション,0
408,2010701043765,新規,0,2023-01-25,2023-01-25,株式会社オートコムＨＤ,,株式会社,東京都,品川区,東五反田２丁目３番１号,,13,109,1410022,,,,,,,2023-01-25,1,,,,,オートコムホールディングス,0
414,2010901052368,新規,0,2023-01-25,2023-01-25,株式会社スタジオデブリ,,株式会社,東京都,世田谷区,北沢２丁目３７番２号すぽっと３７．３０２,,13,112,1550031,,,,,,,2023-01-25,1,,,,,スタジオデブリ,0
415,2010901052384,新規,0,2023-01-25,2023-01-25,株式会社松本組,,株式会社,東京都,世田谷区,世田谷４丁目１４番５号,,13,112,1540017,,,,,,,2023-01-25,1,,,,,マツモトグミ,0
432,2011101101626,新規,0,2023-01-25,2023-01-25,ＴＥＴＲＡ　ＣＨＯＲＤ株式会社,,株式会社,東京都,新宿区,北新宿２丁目２番１４号,,13,104,1690074,,,,,,,2023-01-25,1,,,,,テトラコード,0
440,2011103012631,新規,0,2023-01-25,2023-01-25,合同会社ＥＮＰＩＴＵ,,合同会社,東京都,新宿区,西新宿３丁目３番１３号西新宿水間ビル２Ｆ,,13,104,1600023,,,,,,,2023-01-25,1,,,,,エンピツ,0
441,2011203003992,新規,0,2023-01-25,2023-01-25,合同会社ｉ２,,合同会社,東京都,中野区,中央１丁目２８番６－２０８号,,13,114,1640011,,,,,,,2023-01-25,1,,,,,アイツー,0
451,2011801041832,新規,0,2023-01-25,2023-01-25,株式会社ＮＥＭ,,株式会社,東京都,葛飾区,青戸７丁目１０－９,,13,122,1250062,,,,,,,2023-01-25,1,,,,,ネム,0
452,2011805003242,新規,0,2023-01-25,2023-01-25,一般社団法人日本ＭＢＡ連盟,,その他の設立登記法人,東京都,足立区,新田３丁目３５番２０－６０９号,,13,121,1230865,,,,,,,2023-01-25,1,,,,,ニホンエムビーエーレンメイ,0
456,2013101009106,新規,0,2023-01-25,2023-01-25,株式会社サーティー精密,,株式会社,東京都,青梅市,今寺３丁目３８５番地１ガレージの杜Ａ号室,,13,205,1980021,,,,,,,2023-01-25,1,,,,,サーティーセイミツ,0
505,2020003023168,新規,0,2023-01-25,2023-01-25,Ｍｏｖｅ合同会社,,合同会社,神奈川県,川崎市川崎区,駅前本町１１番地２川崎フロンティアビル４階,,14,131,2100007,,,,,,,2023-01-25,1,,,,,ムーブ,0
508,2020005015824,新規,0,2023-01-25,2023-01-25,一般社団法人てとてと,,その他の設立登記法人,神奈川県,川崎市麻生区,多摩美２丁目１３－１０,,14,137,2150002,,,,,,,2023-01-25,1,,,,,テトテト,0
511,2021001078047,新規,0,2023-01-25,2023-01-25,株式会社具志建設,,株式会社,神奈川県,高座郡寒川町,大曲４丁目１０番７号グランメゾン湘南Ｂ１０２,,14,321,2530113,,,,,,,2023-01-25,1,,,,,グシケンセツ,0
522,2030001152083,新規,0,2023-01-25,2023-01-25,株式会社アルヴィン,,株式会社,埼玉県,さいたま市岩槻区,東岩槻２丁目２番地３３吉岡グリーンハイツ３０７,,11,110,3390005,,,,,,,2023-01-25,1,,,,,アルヴィン,0
525,2030003021039,新規,0,2023-01-25,2023-01-25,合同会社ＤＲＥＡＭＣＡＳＴＪＡＰＡＮ,,合同会社,埼玉県,深谷市,西島町１丁目１－１９ネオハイツ深谷８１１号室,,11,218,3660824,,,,,,,2023-01-25,1,,,,,ドリームキャストジャパン,0
531,2040001126763,新規,0,2023-01-25,2023-01-25,振興農業株式会社,,株式会社,千葉県,八街市,山田台１２０２番地,,12,230,2891124,,,,,,,2023-01-25,1,,,,,シンコウノウギョウ,0
535,2040003021723,新規,0,2023-01-25,2023-01-25,Ｐａｃｅ　Ｇａｌｌｅｒｙ　Ｊａｐａｎ合同会社,,合同会社,千葉県,船橋市,前原西７丁目１４番２６－５号,,12,204,2740825,,,,,,,2023-01-25,1,,,,,ペースギャラリージャパン,0
536,2040003021764,新規,0,2023-01-25,2023-01-25,ＭＪ　Ｍａｒｋｅｔｉｎｇ合同会社,,合同会社,千葉県,山武市,上横地３１７８番地,,12,237,2891313,,,,,,,2023-01-25,1,,,,,エムジェイマーケティング,0
537,2040003021772,新規,0,2023-01-25,2023-01-25,スタックトラスト合同会社,,合同会社,千葉県,松戸市,五香６丁目３３－６,,12,207,2702213,,,,,,,2023-01-25,1,,,,,スタックトラスト,0
538,2040005021886,新規,0,2023-01-25,2023-01-25,一般社団法人ＳＯＣＩＡＬ　ＧＯＯＤ　ＥＮＴＥＲＴＡＩＮＭＥＮＴ,,その他の設立登記法人,千葉県,流山市,市野谷１２０番地の３１,,12,220,2700137,,,,,,,2023-01-25,1,,,,,ソーシャルグッドエンターテイメント,0
540,2050003007176,新規,0,2023-01-25,2023-01-25,合同会社ペールクロッカス,,合同会社,茨城県,つくば市,高見原１丁目１番地１７９ランドスケープＢ棟２０２,,08,220,3001252,,,,,,,2023-01-25,1,,,,,ペールクロッカス,0
552,2070001040061,新規,0,2023-01-25,2023-01-25,ディーセントトレーディングインターナショナル株式会社,,株式会社,群馬県,前橋市,朝日町３丁目１５番９号,,10,201,3710014,,,,,,,2023-01-25,1,,,,,ディーセントトレーディングインターナショナル,0
567,2080101023758,新規,0,2023-01-25,2023-01-25,株式会社ＴＥ　ＴＯ　ＴＥ,,株式会社,静岡県,沼津市,大岡１７１９番地１－３１３,,22,203,4100022,,,,,,,2023-01-25,1,,,,,テトテ,0
576,2100001036080,新規,0,2023-01-25,2023-01-25,株式会社Ｆｏｒ　Ｌｉｆｅ,,株式会社,長野県,長野市,大字鶴賀上千歳町１３５２番地５カサイライフビル２階,,20,201,3800821,,,,,,,2023-01-25,1,,,,,フォーライフ,0
593,2120001251958,新規,0,2023-01-25,2023-01-25,株式会社ジョブカーズホールディングス,,株式会社,大阪府,枚方市,茄子作２丁目３３番２５号,,27,210,5730071,,,,,,,2023-01-25,1,,,,,ジョブカーズホールディングス,0
599,2120003023182,新規,0,2023-01-25,2023-01-25,合同会社ＧＲＯＷ　ＵＰ,,合同会社,大阪府,大阪市北区,長柄西１丁目３－５４－１５１２,,27,127,5310061,,,,,,,2023-01-25,1,,,,,グローアップ,0
600,2120003023315,新規,0,2023-01-25,2023-01-25,合同会社目黒,,合同会社,大阪府,大阪市西区,立売堀１丁目１４番４－８０３号,,27,106,5500012,,,,,,,2023-01-25,1,,,,,メグロ,0
601,2120003023323,新規,0,2023-01-25,2023-01-25,合同会社池田,,合同会社,大阪府,大阪市港区,南市岡１丁目４番４０号,,27,107,5520011,,,,,,,2023-01-25,1,,,,,イケダ,0
604,2120101066876,新規,0,2023-01-25,2023-01-25,株式会社ＯＨＡＮＡ,,株式会社,大阪府,岸和田市,地蔵浜町１１番地,,27,202,5960015,,,,,,,2023-01-25,1,,,,,オハナ,0
610,2120901047043,新規,0,2023-01-25,2023-01-25,ＩＳベース株式会社,,株式会社,大阪府,高槻市,竹の内町４４－３,,27,207,5690043,,,,,,,2023-01-25,1,,,,,アイエスベース,0
611,2120903004471,新規,0,2023-01-25,2023-01-25,合同会社エーウェブ,,合同会社,大阪府,豊中市,豊南町東３丁目３番１１号,,27,203,5610814,,,,,,,2023-01-25,1,,,,,エーウェブ,0
613,2120905006409,新規,0,2023-01-25,2023-01-25,医療法人朋悠会,,その他の設立登記法人,大阪府,豊中市,蛍池西町三丁目５５５番地大阪国際空港ターミナルビル中央１階,,27,203,5600000,,,,,,,2023-01-25,1,,,,,ホウユウカイ,0
615,2130001073550,新規,0,2023-01-25,2023-01-25,半山株式会社,,株式会社,京都府,京都市左京区,一乗寺東杉ノ宮町４２東杉ノ宮ハイツ３０２号室,,26,103,6068113,,,,,,,2023-01-25,1,,,,,ハンヤマ,0
616,2130001073559,新規,0,2023-01-25,2023-01-25,株式会社のんのん,,株式会社,京都府,宇治市,木幡南端５３番地の２６,,26,204,6110002,,,,,,,2023-01-25,1,,,,,ノンノン,0
621,2140001128873,新規,0,2023-01-25,2023-01-25,株式会社Ｗｅｌｌｂｅ,,株式会社,兵庫県,神戸市北区,有馬町１０３０,,28,109,6511401,,,,,,,2023-01-25,1,,,,,ウェルビー,0
623,2140003018635,新規,0,2023-01-25,2023-01-25,合同会社ミャンマーナンバーワン,,合同会社,兵庫県,神戸市中央区,伊藤町１１０－２神戸ポートビル旧居留地８Ｆ－１７,,28,110,6500032,,,,,,,2023-01-25,1,,,,,ミャンマーナンバーワン,0
624,2140003018643,新規,0,2023-01-25,2023-01-25,合同会社えがお,,合同会社,兵庫県,宝塚市,小浜５丁目８番１２－２,,28,214,6650827,,,,,,,2023-01-25,1,,,,,エガオ,0
630,2180001154668,新規,0,2023-01-25,2023-01-25,フジヨシホールディングス株式会社,,株式会社,愛知県,名古屋市中村区,太閤４丁目２番８号,,23,105,4530801,,,,,,,2023-01-25,1,,,,,フジヨシホールディングス,0
640,2190001030117,新規,0,2023-01-25,2023-01-25,株式会社Ｍｙフィールド,,株式会社,三重県,津市,榊原町５０７９,,24,201,5141251,,,,,,,2023-01-25,1,,,,,マイフィールド,0
645,2240003005986,新規,0,2023-01-25,2023-01-25,未来サポート合同会社,,合同会社,広島県,広島市南区,旭２丁目１５番３０号,,34,103,7340036,,,,,,,2023-01-25,1,,,,,ミライサポート,0
647,2260001037600,新規,0,2023-01-25,2023-01-25,株式会社赤木農園,,株式会社,岡山県,岡山市北区,辛川市場６６８番地,,33,101,7011214,,,,,,,2023-01-25,1,,,,,アカギノウエン,0
653,2290001100280,新規,0,2023-01-25,2023-01-25,株式会社シアーズホームバース,,株式会社,福岡県,大野城市,大城２丁目２３番３０号,,40,219,8160911,,,,,,,2023-01-25,1,,,,,シアーズホームバース,0
654,2290001100289,新規,0,2023-01-25,2023-01-25,株式会社ＮＥＸＴ．Ｃ,,株式会社,福岡県,福岡市中央区,今川１丁目２１番１０－５０３号,,40,133,8100054,,,,,,,2023-01-25,1,,,,,ネクストシー,0
655,2290001100322,新規,0,2023-01-25,2023-01-25,株式会社ＳＵＭＩＣＡ,,株式会社,福岡県,福岡市早良区,藤崎１丁目１４番１４号,,40,137,8140013,,,,,,,2023-01-25,1,,,,,スミカ,0
656,2290001100339,新規,0,2023-01-25,2023-01-25,株式会社ＡＣＴ,,株式会社,福岡県,福岡市早良区,重留４丁目２番６３－２０１号,,40,137,8111101,,,,,,,2023-01-25,1,,,,,アクト,0
659,2290003013448,新規,0,2023-01-25,2023-01-25,こころ合同会社,,合同会社,福岡県,宗像市,城西ヶ丘４丁目２４番１２号,,40,220,8113404,,,,,,,2023-01-25,1,,,,,ココロ,0
660,2290003013456,新規,0,2023-01-25,2023-01-25,ＮＶＴ合同会社,,合同会社,福岡県,福岡市中央区,清川２丁目１－２６－８０５ＭＡＲＵＧＥＮ３９,,40,133,8100005,,,,,,,2023-01-25,1,,,,,エヌブイティー,0
671,2330003009689,新規,0,2023-01-25,2023-01-25,合同会社ＶＡＮＩＬＬＡ　ＳＴＹＬＥ,,合同会社,熊本県,熊本市中央区,中央街６番３１号,,43,101,8600802,,,,,,,2023-01-25,1,,,,,バニラスタイル,0
672,2340003004029,新規,0,2023-01-25,2023-01-25,合同会社シスルナベース,,合同会社,鹿児島県,鹿屋市,上野町５０９２－１,,46,203,8930056,,,,,,,2023-01-25,1,,,,,シスルナベース,0
705,2380001033422,新規,0,2023-01-25,2023-01-25,株式会社ＷＯＲＬＤ　ＹＯＵＲ,,株式会社,福島県,福島市,泉字長滝前５番地の６安斎アパート１Ｆ,,07,201,9608253,,,,,,,2023-01-25,1,,,,,ワールドユア,0
710,2390001017151,新規,0,2023-01-25,2023-01-25,株式会社ユナイティング,,株式会社,山形県,山形市,若宮４丁目５番１４号,,06,201,9902453,,,,,,,2023-01-25,1,,,,,ユナイティング,0
712,2400003003016,新規,0,2023-01-25,2023-01-25,合同会社バイビクト,,合同会社,岩手県,八幡平市,田頭第３７地割１３０番地４号,,03,214,0287112,,,,,,,2023-01-25,1,,,,,バイビクト,0
713,2420003002651,新規,0,2023-01-25,2023-01-25,合同会社ＹｏＡｓｏｖｉｖａ,,合同会社,青森県,弘前市,大字中野１丁目９番地１４号,,02,202,0368155,,,,,,,2023-01-25,1,,,,,ヨアソビバ,0
717,2430001088287,新規,0,2023-01-25,2023-01-25,ＮＥＸＴ　ＩＮＮＯＶＡＴＩＯＮ株式会社,,株式会社,北海道,札幌市北区,新琴似町７９２番地３７,,01,102,0010915,,,,,,,2023-01-25,1,,,,,ネクストイノベイション,0
744,2500001024739,新規,0,2023-01-25,2023-01-25,株式会社都マネジメント,,株式会社,愛媛県,松山市,立花２丁目４番２５号,,38,201,7900966,,,,,,,2023-01-25,1,,,,,ミヤコマネジメント,0
745,2700150113941,新規,0,2023-01-25,2023-01-25,Ｓｈｅｎｚｈｅｎｓｈｉ　Ｋｅｆｅｉ　ｋｅｊｉｙｏｕｘｉａｎ,,外国会社等,,,,,,,,４１８，Ｆｌｏｏｒ　４　Ｂｕｉｌｄｉｎｇ　２，Ｂａｉｍｅｎｑｉａｎ　Ｉｎｄｕｓｔｒｉａｌ　Ｐａｒｋ　Ｎｏ．２１５　Ｂｕｓｈａ　Ｒｏａｄ，Ｎａｎｗａｎ　Ｓｔｒｅｅｔ，Ｌｏｎｇｇａｎｇ，ＣＮ,,,,,,2023-01-25,1,,,,,シンセンシカヒカギ,0
758,3010001232464,新規,0,2023-01-25,2023-01-25,ＣＨＣ　Ｊａｐａｎ株式会社,,株式会社,東京都,千代田区,丸の内２丁目１番１号明治安田生命ビル２１階,,13,101,1000005,,,,,,,2023-01-25,1,,,,,シーエイチシージャパン,0
759,3010001232480,新規,0,2023-01-25,2023-01-25,株式会社ＫＭＹ,,株式会社,東京都,千代田区,神田淡路町１丁目９－５,,13,101,1010063,,,,,,,2023-01-25,1,,,,,ケーエムワイ,0
764,3010003039684,新規,0,2023-01-25,2023-01-25,合同会社けいつか,,合同会社,東京都,中央区,銀座１丁目１２番４号Ｎ＆ＥＢＬＤ．６Ｆ,,13,102,1040061,,,,,,,2023-01-25,1,,,,,ケイツカ,0
769,3010401171717,新規,0,2023-01-25,2023-01-25,株式会社ＦｅｅｄＦｏｗａｒｄ,,株式会社,東京都,港区,六本木５丁目１６番５０号六本木デュープレックスエムズ４１３,,13,103,1060032,,,,,,,2023-01-25,1,,,,,フィードフォワード,0
770,3010401172054,新規,0,2023-01-25,2023-01-25,株式会社ラーニング,,株式会社,東京都,港区,赤坂８丁目５番５－１０３号,,13,103,1070052,,,,,,,2023-01-25,1,,,,,ラーニング,0
774,3010403029368,新規,0,2023-01-25,2023-01-25,合同会社Ｍｉｇｏｌｉ,,合同会社,東京都,港区,虎ノ門３丁目２２番１０－２０１号,,13,103,1050001,,,,,,,2023-01-25,1,,,,,ミゴリ,0
775,3010503006853,新規,0,2023-01-25,2023-01-25,ＭＫアシスト合同会社,,合同会社,東京都,台東区,入谷１丁目３２番７号３１０,,13,106,1100013,,,,,,,2023-01-25,1,,,,,エムケーアシスト,0
776,3010701043764,新規,0,2023-01-25,2023-01-25,株式会社チェンジ,,株式会社,東京都,品川区,東五反田５丁目２４番９号,,13,109,1410022,,,,,,,2023-01-25,1,,,,,チェンジ,0
777,3010901052409,新規,0,2023-01-25,2023-01-25,株式会社ａ‐ｂｒｉｄｇｅ,,株式会社,東京都,世田谷区,三軒茶屋２丁目１４－１２三元ビルＲＦ,,13,112,1540024,,,,,,,2023-01-25,1,,,,,エーブリッジ,0
779,3010903007930,新規,0,2023-01-25,2023-01-25,合同会社夢贈,,合同会社,東京都,世田谷区,太子堂１丁目１２番３０号,,13,112,1540004,,,,,,,2023-01-25,1,,,,,ムソウ,0
780,3010905004422,新規,0,2023-01-25,2023-01-25,特定非営利活動法人障害者支援センターミッケ,,その他の設立登記法人,東京都,世田谷区,南烏山６丁目３３番２５号ダイホープラザ千歳烏山Ａ３０３,,13,112,1570062,,,,,,,2023-01-25,1,,,,,ショウガイシャシエンセンターミッケ,0
784,3011001152198,新規,0,2023-01-25,2023-01-25,Ｐａｒａｇｏｎ　Ａｒｔ株式会社,,株式会社,東京都,渋谷区,恵比寿南１丁目２０番６号第２１荒井ビル４Ｆ,,13,113,1500022,,,,,,,2023-01-25,1,,,,,パラゴンアート,0
785,3011001152223,新規,0,2023-01-25,2023-01-25,株式会社Ａｎｏｔｈｅｒ　Ｓｋｙ　ＪＡＰＡＮ,,株式会社,東京都,渋谷区,神宮前６丁目２３番４号桑野ビル２階,,13,113,1500001,,,,,,,2023-01-25,1,,,,,アナザースカイジャパン,0
786,3011003016046,新規,0,2023-01-25,2023-01-25,合同会社リンネ,,合同会社,東京都,渋谷区,神宮前６丁目２３番４号桑野ビル２階,,13,113,1500001,,,,,,,2023-01-25,1,,,,,リンネ,0
787,3011003016145,新規,0,2023-01-25,2023-01-25,ＰＬＡＩＮＣＯＤＥ合同会社,,合同会社,東京都,渋谷区,道玄坂１丁目１０－８渋谷道玄坂東急ビル２Ｆ－Ｃ,,13,113,1500043,,,,,,,2023-01-25,1,,,,,プレーンコード,0
798,3011103012614,新規,0,2023-01-25,2023-01-25,ＸＥＮＯ合同会社,,合同会社,東京都,新宿区,歌舞伎町２丁目４２番３号林ビル２Ｆ,,13,104,1600021,,,,,,,2023-01-25,1,,,,,ゼノ,0
808,3011505002527,新規,0,2023-01-25,2023-01-25,ヒューマンポート司法書士法人,,その他の設立登記法人,東京都,北区,赤羽２丁目６２番３号,,13,117,1150045,,,,,,,2023-01-25,1,,,,,ヒューマンポート,0
810,3011601026529,新規,0,2023-01-25,2023-01-25,株式会社ＬＲＭ,,株式会社,東京都,練馬区,氷川台４丁目４８番１９号,,13,120,1790084,,,,,,,2023-01-25,1,,,,,エルアールエム,0
811,3011701025950,新規,0,2023-01-25,2023-01-25,Ｋ２ｃｏｍｐａｎｙ株式会社,,株式会社,東京都,江戸川区,瑞江２丁目５番３号グレイス瑞江２Ｆ,,13,123,1320011,,,,,,,2023-01-25,1,,,,,ケーツーカンパニー,0
814,3011703003368,新規,0,2023-01-25,2023-01-25,合同会社フルタイムズ,,合同会社,東京都,江戸川区,春江町３丁目１３番９号,,13,123,1320003,,,,,,,2023-01-25,1,,,,,フルタイムズ,0
817,3011803005479,新規,0,2023-01-25,2023-01-25,合同会社メタルキング,,合同会社,東京都,足立区,南花畑２丁目３６番５号,,13,121,1210062,,,,,,,2023-01-25,1,,,,,メタルキング,0
843,3020001149947,新規,0,2023-01-25,2023-01-25,ＧＴＣ‐Ｄｅｓｉｇｎ株式会社,,株式会社,神奈川県,横浜市神奈川区,新浦島町１丁目１番３２号ニューステージ横浜ビル１６階,,14,102,2210031,,,,,,,2023-01-25,1,,,,,ジーティーシーデザイン,0
844,3020001149971,新規,0,2023-01-25,2023-01-25,株式会社はまいろ,,株式会社,神奈川県,横浜市中区,尾上町１丁目６番地,,14,104,2310015,,,,,,,2023-01-25,1,,,,,ハマイロ,0
862,3020003023167,新規,0,2023-01-25,2023-01-25,ＨＭ川崎千年第一合同会社,,合同会社,神奈川県,川崎市高津区,千年字伊勢山台４１４番地１０,,14,134,2130022,,,,,,,2023-01-25,1,,,,,エイチエムカワサキチトセダイイチ,0
877,3030001151893,新規,0,2023-01-25,2023-01-25,株式会社ほとけ,,株式会社,埼玉県,飯能市,大字双柳９９０番地４,,11,209,3570021,,,,,,,2023-01-25,1,,,,,ホトケ,0
878,3030001152082,新規,0,2023-01-25,2023-01-25,株式会社Ｂｅ　Ｂｌｕｅ　Ｄａｉｓｙ,,株式会社,埼玉県,さいたま市大宮区,桜木町２丁目３番地大宮マルイ７階,,11,103,3300854,,,,,,,2023-01-25,1,,,,,ビーブルーデイジー,0
884,3030003020989,新規,0,2023-01-25,2023-01-25,合同会社リープ,,合同会社,埼玉県,志木市,柏町３丁目９－５７シュロス志木１０５,,11,228,3530007,,,,,,,2023-01-25,1,,,,,リープ,0
885,3030003021021,新規,0,2023-01-25,2023-01-25,合同会社ライーブ,,合同会社,埼玉県,八潮市,大字南川崎８４１モアクラージュ１０３,,11,234,3400814,,,,,,,2023-01-25,1,,,,,ライーブ,0
889,3040001126746,新規,0,2023-01-25,2023-01-25,Ｐｌａｎｅｙｅ株式会社,,株式会社,千葉県,松戸市,松戸８２６番地の６,,12,207,2710092,,,,,,,2023-01-25,1,,,,,プランアイ,0
891,3040003021763,新規,0,2023-01-25,2023-01-25,悠蘭合同会社,,合同会社,千葉県,市川市,国分４丁目５－１５,,12,203,2720834,,,,,,,2023-01-25,1,,,,,ユラン,0
892,3040005021869,新規,0,2023-01-25,2023-01-25,特定非営利活動法人Ｈｅａｌｔｈ　Ｅｑｕｉｔｙ　Ｒｅｓｅａｒｃｈ　Ｉｎｓｔｉｔｕｔｅ,,その他の設立登記法人,千葉県,我孫子市,根戸３４４番地の２１６,,12,222,2701168,,,,,,,2023-01-25,1,,,,,ヘルスエクイティリサーチインスティテュート,0
896,3050003007134,新規,0,2023-01-25,2023-01-25,Ｄｕｎｇ　Ｄｕｎｇ合同会社,,合同会社,茨城県,筑西市,女方１５０番地５シルビアンハイツＢ－１０１,,08,227,3080854,,,,,,,2023-01-25,1,,,,,ズンズン,0
897,3050003007175,新規,0,2023-01-25,2023-01-25,合同会社ケアサポート裕,,合同会社,茨城県,坂東市,沓掛１４９８番地２,,08,228,3060515,,,,,,,2023-01-25,1,,,,,ケアサポートユタカ,0
929,3080405007522,新規,0,2023-01-25,2023-01-25,特定非営利活動法人プラット庄内,,その他の設立登記法人,静岡県,浜松市西区,舘山寺町２５６６番地の３,,22,133,4311209,,,,,,,2023-01-25,1,,,,,プラットショウナイ,0
945,3120001251973,新規,0,2023-01-25,2023-01-25,日本九峰貿易株式会社,,株式会社,大阪府,大阪市西区,江之子島１丁目６番８－２０１号,,27,106,5500006,,,,,,,2023-01-25,1,,,,,ニホンキュウホウボウエキ,0
948,3120003023314,新規,0,2023-01-25,2023-01-25,合同会社ＷＡＴＴ,,合同会社,大阪府,大阪市北区,梅田２丁目５番１３号桜橋第一ビル３０４号,,27,127,5300001,,,,,,,2023-01-25,1,,,,,ワット,0
949,3120003023322,新規,0,2023-01-25,2023-01-25,Ｄ　Ｌｏｗ合同会社,,合同会社,大阪府,大阪市生野区,新今里３丁目８番１号ラ・フォンテ今里８０２号,,27,116,5440001,,,,,,,2023-01-25,1,,,,,ディロー,0
951,3120101066875,新規,0,2023-01-25,2023-01-25,泰和株式会社,,株式会社,大阪府,阪南市,自然田７３９番地の４,,27,232,5990212,,,,,,,2023-01-25,1,,,,,タイワ,0
952,3120103005047,新規,0,2023-01-25,2023-01-25,Ｅｎｃｈａｎｔ合同会社,,合同会社,大阪府,藤井寺市,春日丘１丁目１－２８,,27,226,5830026,,,,,,,2023-01-25,1,,,,,エンチャント,0
953,3120105009673,新規,0,2023-01-25,2023-01-25,医療法人ＢＭＧＯ,,その他の設立登記法人,大阪府,堺市北区,新金岡町５丁１番１号フレスポしんかな３階,,27,146,5918021,,,,,,,2023-01-25,1,,,,,ビーエムジーオー,0
956,3120903004470,新規,0,2023-01-25,2023-01-25,合同会社オルカ,,合同会社,大阪府,池田市,石橋２丁目４番５号,,27,204,5630032,,,,,,,2023-01-25,1,,,,,オルカ,0
958,3130001073475,新規,0,2023-01-25,2023-01-25,株式会社ＦＵＮＥ,,株式会社,京都府,京都市上京区,亀屋町６０,,26,102,6028284,,,,,,,2023-01-25,1,,,,,フネ,0
961,3130003008479,新規,0,2023-01-25,2023-01-25,合同会社Ｒａｉａ　Ｃｒｅａｔｅ,,合同会社,京都府,京都市伏見区,深草西伊達町８７－９２,,26,109,6120876,,,,,,,2023-01-25,1,,,,,ライアクリエイト,0
967,3140001128872,新規,0,2023-01-25,2023-01-25,株式会社ｒｏｃｃｃ,,株式会社,兵庫県,神戸市中央区,下山手通５丁目７－７サンゼン山手ハイツ３１６号,,28,110,6500011,,,,,,,2023-01-25,1,,,,,アールオーシーシーシー,0
968,3140001128880,新規,0,2023-01-25,2023-01-25,株式会社フォレスト,,株式会社,兵庫県,神戸市東灘区,甲南町４丁目５－３－４０２,,28,101,6580084,,,,,,,2023-01-25,1,,,,,フォレスト,0
973,3140003018634,新規,0,2023-01-25,2023-01-25,合同会社Ｍｏｍｅｎｔ,,合同会社,兵庫県,神戸市中央区,山本通２丁目２番２号,,28,110,6500003,,,,,,,2023-01-25,1,,,,,モーメント,0
976,3160005011156,新規,0,2023-01-25,2023-01-25,パナソニックエアコン・コールドチェーンユニオン,,その他の設立登記法人,滋賀県,草津市,野路東２丁目３－１－１,,25,206,5250058,,,,,,,2023-01-25,1,,,,,パナソニックエアコンコールドチェーンユニオン,0
980,3180001154659,新規,0,2023-01-25,2023-01-25,株式会社パスポール,,株式会社,愛知県,名古屋市中村区,名駅５丁目２２番２号－８０３号,,23,105,4500002,,,,,,,2023-01-25,1,,,,,パスポール,0
981,3180003024736,新規,0,2023-01-25,2023-01-25,合同会社ＢＥＬＬＡ,,合同会社,愛知県,名古屋市中区,栄５丁目２１－１４第五東殖ハイツ２階,,23,106,4600008,,,,,,,2023-01-25,1,,,,,ベラ,0
985,3190001030124,新規,0,2023-01-25,2023-01-25,株式会社ＹＡＭＡＭＯＴＯ　ＪＡＹＡ,,株式会社,三重県,度会郡南伊勢町,田曽浦３６３７番地,,24,472,5160222,,,,,,,2023-01-25,1,,,,,ヤマモトジャヤ,0
987,3200003005816,新規,0,2023-01-25,2023-01-25,賀金合同会社,,合同会社,岐阜県,大垣市,綾野１丁目２７１６番地８,,21,202,5030984,,,,,,,2023-01-25,1,,,,,ホウキン,0
993,3240001060999,新規,0,2023-01-25,2023-01-25,株式会社ツぐハぐ,,株式会社,広島県,竹原市,西野町２０６１番地１,,34,203,7250002,,,,,,,2023-01-25,1,,,,,ツグハグ,0
1005,3260003004168,新規,0,2023-01-25,2023-01-25,合同会社フジ総合研究所,,合同会社,岡山県,岡山市南区,福富西３丁目１番８号益田興産ビル１０１,,33,104,7028031,,,,,,,2023-01-25,1,,,,,フジソウゴウケンキュウショ,0
1006,3280001008870,新規,0,2023-01-25,2023-01-25,株式会社ＯｃｅａｎｓＣｒｅａｔｉｖｅ,,株式会社,島根県,安来市,南十神町１４番地４,,32,206,6920022,,,,,,,2023-01-25,1,,,,,オーシャンズクリエイティブ,0
1021,3290003013447,新規,0,2023-01-25,2023-01-25,合同会社創生企画,,合同会社,福岡県,宗像市,自由ヶ丘６丁目３１－２,,40,220,8114163,,,,,,,2023-01-25,1,,,,,ソウセイキカク,0
1022,3290003013455,新規,0,2023-01-25,2023-01-25,ＵＤ合同会社,,合同会社,福岡県,福岡市博多区,美野島１丁目２５番３３－１０２号,,40,132,8120017,,,,,,,2023-01-25,1,,,,,ユーディー,0
1027,3330003009688,新規,0,2023-01-25,2023-01-25,合同会社菊地コンサル,,合同会社,熊本県,熊本市中央区,本荘４丁目７番２３号ライズ熊大病院前ＩＩ－１１０１,00129202,43,101,8600811,,,,,,,2023-01-25,1,,,,,キクチコンサル,0
1049,3380003005369,新規,0,2023-01-25,2023-01-25,合同会社ＩＮＡＭＯＴＯ,,合同会社,福島県,南相馬市,鹿島区山下字中ノ内１５５,,07,212,9792461,,,,,,,2023-01-25,1,,,,,イナモト,0
1052,3390001017150,新規,0,2023-01-25,2023-01-25,株式会社ＴＨＯＵＳＡＮＤ　ＪＡＭ,,株式会社,山形県,山形市,みはらしの丘１丁目４４番地８,,06,201,9902317,,,,,,,2023-01-25,1,,,,,サウザンドジャム,0
1056,3430001088278,新規,0,2023-01-25,2023-01-25,株式会社サンステージ,,株式会社,北海道,札幌市中央区,南四条西２丁目１０番地南４西２ビル４Ｆ,,01,101,0640804,,,,,,,2023-01-25,1,,,,,サンステージ,0
1060,3430003014678,新規,0,2023-01-25,2023-01-25,合同会社Ｆ‐ＨＯＵＳＥ,,合同会社,北海道,札幌市中央区,南十条西１４丁目１番１０－２０３号,,01,101,0640810,,,,,,,2023-01-25,1,,,,,エフハウス,0
1071,3500001024738,新規,0,2023-01-25,2023-01-25,株式会社翼,,株式会社,愛媛県,松山市,三杉町８番１２号,,38,201,7918065,,,,,,,2023-01-25,1,,,,,ツバサ,0
1073,3700150113932,新規,0,2023-01-25,2023-01-25,ＦＩＳ　Ｃａｐｉｔａｌ　Ｍａｒｋｅｔｓ　ＵＳ　ＬＬＣ,,外国会社等,,,,,,,,６０１　ＲｉｖｅｒｓｉｄｅＡｖｅｎｕｅ，Ｊａｃｋｓｏｎｖｉｌｌｅ，ＦＬ，３２２０４,,,,,,2023-01-25,1,,,,,エフアイエスキヤピタルマーケツツユーエスエルエルシー,0
1081,4010001232439,新規,0,2023-01-25,2023-01-25,株式会社ＳＴＯＣＫ１２０,,株式会社,東京都,千代田区,永田町２丁目１２番４号,,13,101,1000014,,,,,,,2023-01-25,1,,,,,ストックヒャクニジュウ,0
1082,4010001232471,新規,0,2023-01-25,2023-01-25,ＢＯＴＴＯＯＯ株式会社,,株式会社,東京都,文京区,西片１丁目１５番１２－１１０３号,,13,105,1130024,,,,,,,2023-01-25,1,,,,,ボットー,0
1083,4010001232488,新規,0,2023-01-25,2023-01-25,株式会社建設エイド,,株式会社,東京都,中央区,日本橋２丁目１番３号アーバンネット日本橋二丁目ビル１０階,,13,102,1030027,,,,,,,2023-01-25,1,,,,,ケンセツエイド,0
1089,4010005036167,新規,0,2023-01-25,2023-01-25,大正デベロップメント特定目的会社,,その他の設立登記法人,東京都,中央区,日本橋１丁目４番１号日本橋一丁目ビルディング,,13,102,1030027,,,,,,,2023-01-25,1,,,,,タイショウデベロップメント,0
1094,4010403029235,新規,0,2023-01-25,2023-01-25,合同会社ミクルンスタジオ,,合同会社,東京都,港区,南青山２丁目２番１５号,,13,103,1070062,,,,,,,2023-01-25,1,,,,,ミクルンスタジオ,0
1095,4010403029359,新規,0,2023-01-25,2023-01-25,日本田源嘉惠合同会社,,合同会社,東京都,港区,赤坂２丁目２０番６号赤坂川瀬ビル４０１室,,13,103,1070052,,,,,,,2023-01-25,1,,,,,ニホンタゲンカエ,0
1097,4010501049911,新規,0,2023-01-25,2023-01-25,株式会社Ａｃｈｉｅｖｅ　Ｔｒａｎｓ,,株式会社,東京都,台東区,台東４丁目１－９ｉ．ｓ．ｉビル７階,,13,106,1100016,,,,,,,2023-01-25,1,,,,,アチーヴトランス,0
1099,4010503006860,新規,0,2023-01-25,2023-01-25,合同会社ティッカー,,合同会社,東京都,台東区,浅草７丁目４番１３号,,13,106,1110032,,,,,,,2023-01-25,1,,,,,ティッカー,0
1107,4010901052382,新規,0,2023-01-25,2023-01-25,株式会社ｃｌｕｅ,,株式会社,東京都,世田谷区,世田谷３丁目１番１８号,,13,112,1540017,,,,,,,2023-01-25,1,,,,,クルー,0
1116,4011001152206,新規,0,2023-01-25,2023-01-25,株式会社Ｗｅｂライタープロ,,株式会社,東京都,目黒区,駒場１丁目２１番６号渋谷松見坂パークサイドヒルズ,,13,110,1530041,,,,,,,2023-01-25,1,,,,,ウェブライタープロ,0
1117,4011001152214,新規,0,2023-01-25,2023-01-25,株式会社トロワ,,株式会社,東京都,目黒区,上目黒３丁目９番５号プラージュメグロ３０１,,13,110,1530051,,,,,,,2023-01-25,1,,,,,トロワ,0
1118,4011001152247,新規,0,2023-01-25,2023-01-25,株式会社ＥｂｕＡｃｔｉｏｎ,,株式会社,東京都,渋谷区,神宮前６丁目２３－４桑野ビル２Ｆ,,13,113,1500001,,,,,,,2023-01-25,1,,,,,イブアクション,0
1120,4011003016128,新規,0,2023-01-25,2023-01-25,合同会社ＡＣＣＥＬ　ＡＲＴＳ,,合同会社,東京都,渋谷区,道玄坂１丁目１０番８号渋谷道玄坂東急ビル２Ｆ－Ｃ,,13,113,1500043,,,,,,,2023-01-25,1,,,,,アクセルアーツ,0
1121,4011003016169,新規,0,2023-01-25,2023-01-25,合同会社マルニツタ,,合同会社,東京都,渋谷区,代々木４丁目２８番８号村田ビルＢ１,,13,113,1510053,,,,,,,2023-01-25,1,,,,,マルニツタ,0
1147,4011603003806,新規,0,2023-01-25,2023-01-25,合同会社松本屋,,合同会社,東京都,練馬区,大泉学園町１丁目１９番４２号,,13,120,1780061,,,,,,,2023-01-25,1,,,,,マツモトヤ,0
1148,4011605002491,新規,0,2023-01-25,2023-01-25,一般社団法人Ｔ・Ｆインベストメント,,その他の設立登記法人,東京都,練馬区,氷川台４丁目４７番１８号,,13,120,1790084,,,,,,,2023-01-25,1,,,,,ティエフインベストメント,0
1156,4012403005793,新規,0,2023-01-25,2023-01-25,合同会社ＩＷＡＭＯＴＯ　ＰＲＯＤＵＣＴＩＯＮＳ,,合同会社,東京都,調布市,染地３丁目１番地６８,,13,208,1820023,,,,,,,2023-01-25,1,,,,,イワモトプロダクションズ,0
1160,4012801022102,新規,0,2023-01-25,2023-01-25,株式会社ツバキ,,株式会社,東京都,武蔵村山市,三ツ藤２丁目４１番地の１６,,13,223,2080021,,,,,,,2023-01-25,1,,,,,ツバキ,0
1179,4020001149921,新規,0,2023-01-25,2023-01-25,株式会社ＫＲコンサルティング,,株式会社,神奈川県,川崎市中原区,上小田中３丁目２９－２－７７０,,14,133,2110053,,,,,,,2023-01-25,1,,,,,ケーアールコンサルティング,0
1180,4020001149970,新規,0,2023-01-25,2023-01-25,ＡＫＭコンサルティング株式会社,,株式会社,神奈川県,横浜市神奈川区,栄町１０番地３５,,14,102,2210052,,,,,,,2023-01-25,1,,,,,エーケーエムコンサルティング,0
1201,4020003023166,新規,0,2023-01-25,2023-01-25,ＨＭ川崎千年第二合同会社,,合同会社,神奈川県,川崎市高津区,千年字伊勢山台４１４番地６,,14,134,2130022,,,,,,,2023-01-25,1,,,,,エイチエムカワサキチトセダイニ,0
1202,4020003023174,新規,0,2023-01-25,2023-01-25,ジープレスト合同会社,,合同会社,神奈川県,横浜市都筑区,東山田１丁目１３－１９－１０１,,14,118,2240023,,,,,,,2023-01-25,1,,,,,ジープレスト,0
1203,4020003023182,新規,0,2023-01-25,2023-01-25,合同会社アクト,,合同会社,神奈川県,横浜市港北区,日吉本町５丁目５９番２７号デニスコート西棟２０５,,14,109,2230062,,,,,,,2023-01-25,1,,,,,アクト,0
1218,4030001152065,新規,0,2023-01-25,2023-01-25,Ｒ．ＰＲＯＣＥＳＳ株式会社,,株式会社,埼玉県,久喜市,栗原３丁目２番地３,,11,232,3460012,,,,,,,2023-01-25,1,,,,,アールプロセス,0
1236,4040001126778,新規,0,2023-01-25,2023-01-25,株式会社Ａｎｃｅ‐Ｂ,,株式会社,千葉県,野田市,山崎２１１６番地の３,,12,208,2780022,,,,,,,2023-01-25,1,,,,,アンシブ,0
1237,4040001126786,新規,0,2023-01-25,2023-01-25,ＡＬＣ　ＵＮＩＴＥ株式会社,,株式会社,千葉県,千葉市美浜区,幸町２丁目６番１－１１１０号,,12,106,2610001,,,,,,,2023-01-25,1,,,,,エーエルシーユナイト,0
1240,4040003021762,新規,0,2023-01-25,2023-01-25,合同会社ＮＯＷ,,合同会社,千葉県,船橋市,大穴南１丁目８番１－４０２号,,12,204,2740067,,,,,,,2023-01-25,1,,,,,ナウ,0
1241,4040003021770,新規,0,2023-01-25,2023-01-25,ＡＤＮＥＸＴ合同会社,,合同会社,千葉県,八千代市,八千代台北１５丁目１５番１０号１Ｆ,,12,221,2760031,,,,,,,2023-01-25,1,,,,,アドネクスト,0
1242,4050001052288,新規,0,2023-01-25,2023-01-25,株式会社Ｒｅｖｏ,,株式会社,茨城県,つくば市,上横場１２１０番地３,,08,220,3050854,,,,,,,2023-01-25,1,,,,,レボ,0
1243,4050001052296,新規,0,2023-01-25,2023-01-25,株式会社Ａｎｏｔｈｅｒ　Ｏｐｔｉｏｎ,,株式会社,茨城県,つくば市,竹園１丁目８－２－９１０,,08,220,3050032,,,,,,,2023-01-25,1,,,,,アナザーオプション,0
1248,4060001035647,新規,0,2023-01-25,2023-01-25,ＳＥＸＹ　ＦＩＳＨ株式会社,,株式会社,栃木県,栃木市,西方町本城４６８番地４,,09,203,3220606,,,,,,,2023-01-25,1,,,,,セクシーフィッシュ,0
1261,4070003004797,新規,0,2023-01-25,2023-01-25,合同会社西澤商事,,合同会社,群馬県,伊勢崎市,境７８２－２,,10,204,3700124,,,,,,,2023-01-25,1,,,,,ニシザワショウジ,0
1267,4080401026277,新規,0,2023-01-25,2023-01-25,日本製造請負株式会社,,株式会社,静岡県,浜松市東区,植松町１４７８番地の１３,,22,132,4300803,,,,,,,2023-01-25,1,,,,,ニホンセイゾウウケオイ,0
1285,4120001251972,新規,0,2023-01-25,2023-01-25,Ｆｉｒｓｔ　Ｔｉｍｅ　Ｔｒａｄｉｎｇ株式会社,,株式会社,大阪府,大阪市東淀川区,西淡路１丁目１番９－６２１号,,27,114,5330031,,,,,,,2023-01-25,1,,,,,ファーストタイムトレーディング,0
1286,4120001252005,新規,0,2023-01-25,2023-01-25,Ｏｋｔａ　Ｅｎｔｅｒｐｒｉｓｅ株式会社,,株式会社,大阪府,大阪市中央区,日本橋２丁目１８番１９号セントラル日本橋２０２号室,,27,128,5420073,,,,,,,2023-01-25,1,,,,,オクタエンタープライズ,0
1292,4120003023305,新規,0,2023-01-25,2023-01-25,合同会社ＯＮＥ　ＴＨＩＮＧ,,合同会社,大阪府,大阪市浪速区,下寺２丁目６番１９号ヴィラ松井５Ｅ号室,,27,111,5560001,,,,,,,2023-01-25,1,,,,,ワンシング,0
1295,4120101066882,新規,0,2023-01-25,2023-01-25,株式会社ＢＯＮ　Ｂｏｎｎ　Ｌｉｎｅ,,株式会社,大阪府,岸和田市,流木町２５０番地,,27,202,5960835,,,,,,,2023-01-25,1,,,,,ボンボンライン,0
1296,4120105009672,新規,0,2023-01-25,2023-01-25,医療法人雄暖会,,その他の設立登記法人,大阪府,泉北郡忠岡町,忠岡東１丁目４０番２８号ＬａＭＯＤＥＲＮＩＴＥ医療テナント１０１号室,,27,341,5950805,,,,,,,2023-01-25,1,,,,,ユウダンカイ,0
1300,4122001036619,新規,0,2023-01-25,2023-01-25,株式会社メディカルパッセ,,株式会社,大阪府,柏原市,国分本町７丁目１０番１０号,,27,221,5820021,,,,,,,2023-01-25,1,,,,,メディカルパッセ,0
1303,4130001073532,新規,0,2023-01-25,2023-01-25,株式会社ＨａｔａＩｒｏ,,株式会社,京都府,京都市下京区,東塩小路町６１４番地新京都センタービル５階,,26,106,6000000,,,,,,,2023-01-25,1,,,,,ハタイロ,0
1304,4130003008478,新規,0,2023-01-25,2023-01-25,合同会社藤忠フロンティア,,合同会社,京都府,相楽郡精華町,光台１丁目７けいはんなプラザラボ棟１１Ｆ,,26,366,6190237,,,,,,,2023-01-25,1,,,,,フジチュウフロンティア,0
1306,4140001128855,新規,0,2023-01-25,2023-01-25,アサヒプリテック分割準備株式会社,,株式会社,兵庫県,神戸市東灘区,魚崎浜町２１番地,,28,101,6580024,,,,,,,2023-01-25,1,,,,,アサヒプリテックブンカツジュンビ,0
1311,4160003002783,新規,0,2023-01-25,2023-01-25,合同会社Ｓｅｉ　Ｓａｎ　Ｓｅｉ,,合同会社,滋賀県,湖南市,夏見１－７,,25,211,5203223,,,,,,,2023-01-25,1,,,,,セイサンセイ,0
1314,4180001154666,新規,0,2023-01-25,2023-01-25,丹下運送株式会社,,株式会社,愛知県,名古屋市港区,藤前４丁目８０１番地,,23,111,4550855,,,,,,,2023-01-25,1,,,,,タンゲウンソウ,0
1315,4180001154674,新規,0,2023-01-25,2023-01-25,株式会社すまいるベリーズ,,株式会社,愛知県,長久手市,郷前９３番地,,23,238,4801304,,,,,,,2023-01-25,1,,,,,スマイルベリーズ,0
1316,4180001154682,新規,0,2023-01-25,2023-01-25,株式会社ＲＨＥ,,株式会社,愛知県,名古屋市中区,錦１丁目１７番１３号名興ビルディング２ＦＢ６号室,,23,106,4600003,,,,,,,2023-01-25,1,,,,,アールエイチイー,0
1321,4190001030115,新規,0,2023-01-25,2023-01-25,株式会社光楽流,,株式会社,三重県,伊勢市,岩渕１丁目４１３番地の４４,,24,203,5160037,,,,,,,2023-01-25,1,,,,,ミラクル,0
1322,4190001030123,新規,0,2023-01-25,2023-01-25,株式会社井谷運輸,,株式会社,三重県,名張市,鴻之台１番町３０番地,,24,208,5180701,,,,,,,2023-01-25,1,,,,,イタニウンユ,0
1327,4200003005815,新規,0,2023-01-25,2023-01-25,合同会社Ｇ‐ＴＯＰ,,合同会社,岐阜県,本巣郡北方町,小柳２丁目３３,,21,421,5010434,,,,,,,2023-01-25,1,,,,,ジートップ,0
1333,4240001060998,新規,0,2023-01-25,2023-01-25,Ｎアセットマネジメント株式会社,,株式会社,広島県,広島市安佐南区,東原１丁目９番３８号,,34,105,7310112,,,,,,,2023-01-25,1,,,,,エヌアセットマネジメント,0
1343,4260001037598,新規,0,2023-01-25,2023-01-25,株式会社Ａｒｔｉｓａｎ,,株式会社,岡山県,岡山市北区,下石井１丁目１番１７号,,33,101,7000907,,,,,,,2023-01-25,1,,,,,アーティザン,0
1345,4260005011186,新規,0,2023-01-25,2023-01-25,一般社団法人岡山ドッグレスキュー協会,,その他の設立登記法人,岡山県,岡山市東区,益野町４７８番地５,,33,103,7048175,,,,,,,2023-01-25,1,,,,,オカヤマドッグレスキューキョウカイ,0
1355,4290003013454,新規,0,2023-01-25,2023-01-25,合同会社エースライト,,合同会社,福岡県,宗像市,自由ヶ丘南１丁目１９－１８,,40,220,8114156,,,,,,,2023-01-25,1,,,,,エースライト,0
1359,4290803004314,新規,0,2023-01-25,2023-01-25,ＮＧＯＣ　ＢＡＮＧ合同会社,,合同会社,福岡県,北九州市八幡西区,小嶺台１丁目１２‐２ピアチューレ園２０７号,,40,109,8070082,,,,,,,2023-01-25,1,,,,,ゴックバン,0
1360,4300003001928,新規,0,2023-01-25,2023-01-25,合同会社ボルドー,,合同会社,佐賀県,鳥栖市,秋葉町３丁目８番地１東峰マンション鳥栖９０７,,41,203,8410036,,,,,,,2023-01-25,1,,,,,ボルドー,0
1366,4330003009687,新規,0,2023-01-25,2023-01-25,合同会社Ｆｉｎｅ,,合同会社,熊本県,熊本市中央区,本荘３丁目７－１４グリーンウッドビル２階,,43,101,8600811,,,,,,,2023-01-25,1,,,,,ファイン,0
1367,4340001025314,新規,0,2023-01-25,2023-01-25,さくらエコシステム株式会社,,株式会社,鹿児島県,出水市,今釜町４４７番地,,46,208,8990137,,,,,,,2023-01-25,1,,,,,サクラエコシステム,0
1400,4420005007837,新規,0,2023-01-25,2023-01-25,無限責任大畑負債整理組合,,その他の設立登記法人,青森県,つがる市,,,02,209,0383100,,,,,,,2023-01-25,1,,,,,オオハタ,0
1401,4430001002849,新規,0,2023-01-25,2023-01-25,大麻駅前開発株式会社,,株式会社,北海道,札幌市中央区,南一条西８丁目６番地２,,01,101,0600061,,,,,,,2023-01-25,1,,,,,オオアサエキマエカイハツ,0
1405,4430001088285,新規,0,2023-01-25,2023-01-25,Ｂｏｄｙ　Ｃｏｎｔｒｏｌ　Ｓｔｕｄｉｏ株式会社,,株式会社,北海道,札幌市北区,あいの里一条４丁目２０－２,,01,102,0028071,,,,,,,2023-01-25,1,,,,,ボディコントロールスタジオ,0
1417,4500001024737,新規,0,2023-01-25,2023-01-25,プレミア株式会社,,株式会社,愛媛県,四国中央市,川之江町２０２６－７,,38,213,7990101,,,,,,,2023-01-25,1,,,,,プレミア,0
1436,5010001232438,新規,0,2023-01-25,2023-01-25,株式会社ＳＴＯＣＫ１１９,,株式会社,東京都,千代田区,永田町２丁目１２番４号,,13,101,1000014,,,,,,,2023-01-25,1,,,,,ストックヒャクジュウキュウ,0
1439,5010003039682,新規,0,2023-01-25,2023-01-25,合同会社Ｃａｒｎｉｖａｌ　Ｊａｐａｎ,,合同会社,東京都,中央区,銀座６丁目２－６銀座ウエストビル６階,,13,102,1040061,,,,,,,2023-01-25,1,,,,,カーニバルジャパン,0
1441,5010005036166,新規,0,2023-01-25,2023-01-25,一般社団法人うまさきせつこのボディコントロール協会,,その他の設立登記法人,東京都,中央区,銀座７丁目１３番６号サガミビル２階,,13,102,1040061,,,,,,,2023-01-25,1,,,,,ウマサキセツコノボディコントロールキョウカイ,0
1449,5010401172052,新規,0,2023-01-25,2023-01-25,株式会社ＬＡＩＲ,,株式会社,東京都,港区,六本木１丁目９番３５－２００４号,,13,103,1060032,,,,,,,2023-01-25,1,,,,,ライヤー,0
1458,5010603009960,新規,0,2023-01-25,2023-01-25,ＨＡＳＥ　Ｃｏｎｓｕｌｔｉｎｇ合同会社,,合同会社,東京都,江東区,潮見２丁目９－１６－２０６,,13,108,1350052,,,,,,,2023-01-25,1,,,,,ハセコンサルティング,0
1460,5010701043762,新規,0,2023-01-25,2023-01-25,株式会社エスエヌジー,,株式会社,東京都,品川区,北品川５丁目１３番１０号,,13,109,1410001,,,,,,,2023-01-25,1,,,,,エスエヌジー,0
1470,5010901052381,新規,0,2023-01-25,2023-01-25,株式会社ＫＡＺＺ．ｐｒｏ,,株式会社,東京都,世田谷区,松原３丁目３９番１６－１２０７号,,13,112,1560043,,,,,,,2023-01-25,1,,,,,カズドットプロ,0
1471,5010903007912,新規,0,2023-01-25,2023-01-25,合同会社Ｇｌｏｂａｌ　Ｓｅｎｓｅ,,合同会社,東京都,世田谷区,給田３丁目２０番８号,,13,112,1570064,,,,,,,2023-01-25,1,,,,,グローバルセンス,0
1472,5010903007920,新規,0,2023-01-25,2023-01-25,ＦＩＲＥ　ＬＩＦＥ合同会社,,合同会社,東京都,世田谷区,下馬５丁目２１－２,,13,112,1540002,,,,,,,2023-01-25,1,,,,,ファイヤーライフ,0
1481,5011001152031,新規,0,2023-01-25,2023-01-25,株式会社ＩＭＯ,,株式会社,東京都,渋谷区,東２丁目９－６エスコートノヴェル広尾１１３,,13,113,1500011,,,,,,,2023-01-25,1,,,,,アイモ,0
1482,5011001152097,新規,0,2023-01-25,2023-01-25,株式会社イチドキリ,,株式会社,東京都,渋谷区,円山町５番５号Ｎａｖｉ渋谷Ｖ３階,,13,113,1500044,,,,,,,2023-01-25,1,,,,,イチドキリ,0
1488,5011003016127,新規,0,2023-01-25,2023-01-25,Ｉｒｏｎ　Ｖｅｒｔｅｘ　Ｊａｐａｎ合同会社,,合同会社,東京都,渋谷区,桜丘町３０－４,,13,113,1500031,,,,,,,2023-01-25,1,,,,,アイアンヴァーテックスジャパン,0
1489,5011003016143,新規,0,2023-01-25,2023-01-25,ｐｒｉｍｅ合同会社,,合同会社,東京都,目黒区,碑文谷１丁目１７―１１,,13,110,1520003,,,,,,,2023-01-25,1,,,,,プライム,0
1512,5011103012538,新規,0,2023-01-25,2023-01-25,Ｗｅｂｉｓｔａ合同会社,,合同会社,東京都,新宿区,西新宿３丁目３番１３号西新宿水間ビル６階,,13,104,1600023,,,,,,,2023-01-25,1,,,,,ウェビスタ,0
1519,5011601026519,新規,0,2023-01-25,2023-01-25,株式会社せせらぎ,,株式会社,東京都,練馬区,豊玉北５丁目３２番９号,,13,120,1760012,,,,,,,2023-01-25,1,,,,,セセラギ,0
1520,5011601026527,新規,0,2023-01-25,2023-01-25,ＧＩＡ株式会社,,株式会社,東京都,練馬区,練馬１丁目７番５－２０２号,,13,120,1760001,,,,,,,2023-01-25,1,,,,,ジイアイエイ,0
1521,5011601026535,新規,0,2023-01-25,2023-01-25,明雅株式会社,,株式会社,東京都,練馬区,高野台５丁目３９－４,,13,120,1770033,,,,,,,2023-01-25,1,,,,,アスカ,0
1524,5011803005477,新規,0,2023-01-25,2023-01-25,祥和合同会社,,合同会社,東京都,足立区,千住緑町２丁目２７番７－１０４号,,13,121,1200044,,,,,,,2023-01-25,1,,,,,ショウワ,0
1526,5012401040107,新規,0,2023-01-25,2023-01-25,株式会社ＡＩＤ,,株式会社,東京都,稲城市,若葉台４丁目３８－１０,,13,225,2060824,,,,,,,2023-01-25,1,,,,,エーアイディー,0
1527,5012403005792,新規,0,2023-01-25,2023-01-25,合同会社まきばオフィス,,合同会社,東京都,調布市,西つつじケ丘３丁目３７－１４鹿嶋屋ビル７０２,,13,208,1820006,,,,,,,2023-01-25,1,,,,,マキバオフィス,0
1528,5012405004826,新規,0,2023-01-25,2023-01-25,特定非営利活動法人フードバンクみたか,,その他の設立登記法人,東京都,三鷹市,下連雀８丁目６番１－１０３号,,13,204,1810013,,,,,,,2023-01-25,1,,,,,フードバンクミタカ,0
1567,5020003023173,新規,0,2023-01-25,2023-01-25,合同会社ＤＲＫＨ,,合同会社,神奈川県,横浜市港北区,綱島東４丁目１番１４－３１６号,,14,109,2230052,,,,,,,2023-01-25,1,,,,,ディーアールケーエイチ,0
1571,5021003012612,新規,0,2023-01-25,2023-01-25,ジャンクル合同会社,,合同会社,神奈川県,藤沢市,鵠沼海岸５丁目４番２７号３,,14,205,2510037,,,,,,,2023-01-25,1,,,,,ジャンクル,0
1574,5030001152089,新規,0,2023-01-25,2023-01-25,株式会社富士水道,,株式会社,埼玉県,深谷市,稲荷町１丁目１６番１８号,,11,218,3660026,,,,,,,2023-01-25,1,,,,,フジスイドウ,0
1575,5030001152097,新規,0,2023-01-25,2023-01-25,株式会社美里牧場,,株式会社,埼玉県,児玉郡美里町,大字北十条２２２番地,,11,381,3670107,,,,,,,2023-01-25,1,,,,,ミサトボクジョウ,0
1583,5030002125267,新規,0,2023-01-25,2023-01-25,有限会社中島ドライ工場,,有限会社,埼玉県,川越市,田町５番地６,,11,201,3501113,,,,,,,2023-01-25,1,,,,,,0
1585,5030005021117,新規,0,2023-01-25,2023-01-25,医療法人社団博翔和会,,その他の設立登記法人,埼玉県,桶川市,寿１丁目１１番１７号,,11,231,3630016,,,,,,,2023-01-25,1,,,,,ハクトワカイ,0
1588,5040001126760,新規,0,2023-01-25,2023-01-25,株式会社ｆｉｖｅｓｔａｒｃｒｅａｔｅ,,株式会社,千葉県,千葉市中央区,矢作町８２３番地１７,,12,101,2600851,,,,,,,2023-01-25,1,,,,,ファイブスタークリエイト,0
1589,5040001126777,新規,0,2023-01-25,2023-01-25,株式会社ＥｘｔｅｒｉｏｒＨａｒａｄａ,,株式会社,千葉県,野田市,木間ケ瀬５９８５番地４,,12,208,2700222,,,,,,,2023-01-25,1,,,,,エクステリアハラダ,0
1593,5040003021761,新規,0,2023-01-25,2023-01-25,合同会社ピンキー,,合同会社,千葉県,長生郡長生村,一松丁８０５番地,,12,423,2994324,,,,,,,2023-01-25,1,,,,,ピンキー,0
1598,5050003007173,新規,0,2023-01-25,2023-01-25,合同会社Ｃｈａｎｎａ　Ｅｎｔｅｒｐｒｉｓｅｓ,,合同会社,茨城県,古河市,尾崎３９２１番地２,,08,204,3060101,,,,,,,2023-01-25,1,,,,,チャンナエンタープライゼズ,0
1600,5060001035646,新規,0,2023-01-25,2023-01-25,ＢＲＩＤＧＥ　ＪＣ日本株式会社,,株式会社,栃木県,小山市,天神町１丁目１０番１２号パークマンション天神３０５号,,09,208,3230032,,,,,,,2023-01-25,1,,,,,ブリッジジェイシーニホン,0
1605,5060003004384,新規,0,2023-01-25,2023-01-25,ＴＥＴＯＴＥ合同会社,,合同会社,栃木県,宇都宮市,御幸町１８９番地３３プランドール道下Ａ１０１号室,,09,201,3210984,,,,,,,2023-01-25,1,,,,,テトテ,0
1606,5060003004392,新規,0,2023-01-25,2023-01-25,合同会社Ｓｔｅｐ　ｕｐ,,合同会社,栃木県,那須郡那須町,大字寺子丙１４５９番地,,09,407,3293222,,,,,,,2023-01-25,1,,,,,ステップアップ,0
1624,5070003004796,新規,0,2023-01-25,2023-01-25,ＳＡＮＡＴＡＮ　ＴＲＡＤＩＮＧ合同会社,,合同会社,群馬県,太田市,岩瀬川町５５５番地４ハーモニー岩瀬川１０５号,,10,205,3730841,,,,,,,2023-01-25,1,,,,,サナタントレーディング,0
1628,5070005010074,新規,0,2023-01-25,2023-01-25,一般社団法人Ｔｅａｍ　ＥＡＳＴ　ＷＩＮＤ,,その他の設立登記法人,群馬県,利根郡みなかみ町,鹿野沢６３７番地町営住宅Ｍ－３０２,,10,449,3791611,,,,,,,2023-01-25,1,,,,,,0
1630,5100001036078,新規,0,2023-01-25,2023-01-25,株式会社オンフ,,株式会社,長野県,諏訪市,元町８番１１号,,20,206,3920006,,,,,,,2023-01-25,1,,,,,オンフ,0
1645,5120001252004,新規,0,2023-01-25,2023-01-25,ＱＭＯ　ＤＥＳＩＧＮ株式会社,,株式会社,大阪府,大阪市都島区,都島北通１丁目１６－２,,27,102,5340014,,,,,,,2023-01-25,1,,,,,キューモデザイン,0
1646,5120001252020,新規,0,2023-01-25,2023-01-25,株式会社ＴＥＮ,,株式会社,大阪府,大阪市北区,梅田１丁目１番３大阪駅前第３ビル２９階１－１－１号室,,27,127,5300001,,,,,,,2023-01-25,1,,,,,テン,0
1647,5120005023418,新規,0,2023-01-25,2023-01-25,医療法人にじそら,,その他の設立登記法人,大阪府,大阪市北区,紅梅町２番２号カザリーノＩＩ３階,00129204,27,127,5300038,,,,,,,2023-01-25,1,,,,,ニジソラ,0
1653,5130001073556,新規,0,2023-01-25,2023-01-25,株式会社ＯＳプランニング,,株式会社,京都府,八幡市,内里宮ノ前１４番地,,26,210,6148241,,,,,,,2023-01-25,1,,,,,オーエスプランニング,0
1662,5180001154681,新規,0,2023-01-25,2023-01-25,令和商事株式会社,,株式会社,愛知県,名古屋市西区,新道１丁目１２番２３号,,23,104,4510043,,,,,,,2023-01-25,1,,,,,レイワショウジ,0
1665,5180005020087,新規,0,2023-01-25,2023-01-25,一般社団法人日本資格検定協会,,その他の設立登記法人,愛知県,名古屋市天白区,植田山４丁目４０４番地の２,,23,116,4680001,,,,,,,2023-01-25,1,,,,,ニホンシカクケンテイキョウカイ,0
1673,5190001030122,新規,0,2023-01-25,2023-01-25,株式会社食べる,,株式会社,三重県,三重郡菰野町,大字宿野８８５番地１,,24,341,5101232,,,,,,,2023-01-25,1,,,,,タベル,0
1675,5190003004207,新規,0,2023-01-25,2023-01-25,合同会社アビリティパートナーズ,,合同会社,三重県,四日市市,河原田町３４３番地４,,24,202,5100874,,,,,,,2023-01-25,1,,,,,アビリティパートナーズ,0
1681,5240001061005,新規,0,2023-01-25,2023-01-25,株式会社ユウコーポレーション,,株式会社,広島県,広島市西区,草津新町２丁目２９番２６号,,34,104,7330834,,,,,,,2023-01-25,1,,,,,ユウコーポレーション,0
1684,5260001037606,新規,0,2023-01-25,2023-01-25,株式会社フードモール,,株式会社,岡山県,和気郡和気町,藤野１５４４番地,,33,346,7090412,,,,,,,2023-01-25,1,,,,,フードモール,0
1689,5290001100328,新規,0,2023-01-25,2023-01-25,株式会社アーバンプラス,,株式会社,福岡県,福岡市博多区,東比恵２丁目１７番２３号,,40,132,8120007,,,,,,,2023-01-25,1,,,,,アーバンプラス,0
1690,5290003013453,新規,0,2023-01-25,2023-01-25,合同会社ＯＮＥ　ＣＯＤＥ,,合同会社,福岡県,福岡市博多区,博多駅前２丁目１９番１７号トーカン博多第５ビル３１２号室,,40,132,8120011,,,,,,,2023-01-25,1,,,,,ワンコード,0
1696,5330001030529,新規,0,2023-01-25,2023-01-25,株式会社Ｇマスタ,,株式会社,熊本県,熊本市東区,東本町２０番１－３０３号ライオンズマンション健軍東桜通り,,43,102,8620902,,,,,,,2023-01-25,1,,,,,ジーマスタ,0
1698,5340003004026,新規,0,2023-01-25,2023-01-25,合同会社大山工業,,合同会社,鹿児島県,出水市,大野原町３５９番地,,46,208,8990216,,,,,,,2023-01-25,1,,,,,オオヤマコウギョウ,0
1719,5390001017149,新規,0,2023-01-25,2023-01-25,新企画株式会社,,株式会社,山形県,東根市,温泉町１丁目８番１号,,06,211,9993702,,,,,,,2023-01-25,1,,,,,シンキカク,0
1722,5390003002041,新規,0,2023-01-25,2023-01-25,合同会社エムグレイス,,合同会社,山形県,鶴岡市,斎藤川原字林俣２１,,06,203,9970804,,,,,,,2023-01-25,1,,,,,エムグレイス,0
1723,5400001016140,新規,0,2023-01-25,2023-01-25,株式会社安成,,株式会社,岩手県,岩手郡雫石町,上町南２７番地４,,03,301,0200530,,,,,,,2023-01-25,1,,,,,アンセイ,0
1724,5400003003021,新規,0,2023-01-25,2023-01-25,合同会社ＳＳＹ,,合同会社,岩手県,奥州市,胆沢小山字龍ケ馬場３番地１,,03,215,0230402,,,,,,,2023-01-25,1,,,,,エスエスワイ,0
1736,5440003001509,新規,0,2023-01-25,2023-01-25,合同会社ａｔｔｒａｉｔ,,合同会社,北海道,函館市,八幡町２１番１号,,01,202,0400083,,,,,,,2023-01-25,1,,,,,アトレ,0
1746,5500001024736,新規,0,2023-01-25,2023-01-25,株式会社ｔ．ｋ．ｃ,,株式会社,愛媛県,松山市,枝松１丁目７番７号,,38,201,7900962,,,,,,,2023-01-25,1,,,,,ティーケーシー,0
1751,6010001232437,新規,0,2023-01-25,2023-01-25,株式会社ＳＴＯＣＫ１１８,,株式会社,東京都,千代田区,永田町２丁目１２番４号,,13,101,1000014,,,,,,,2023-01-25,1,,,,,ストックヒャクジュウハチ,0
1752,6010001232478,新規,0,2023-01-25,2023-01-25,株式会社Ｄｉｖｅｒｓｉｔｙ　Ｓｔｕｄｙ,,株式会社,東京都,千代田区,神田駿河台１丁目７番地,,13,101,1010062,,,,,,,2023-01-25,1,,,,,ダイバーシティスタディ,0
1753,6010001232494,新規,0,2023-01-25,2023-01-25,クレセンティア株式会社,,株式会社,東京都,千代田区,丸の内１丁目８－３丸の内トラストタワー本館２０階,,13,101,1000005,,,,,,,2023-01-25,1,,,,,クレセンティア,0
1754,6010003039665,新規,0,2023-01-25,2023-01-25,合同会社健,,合同会社,東京都,千代田区,神田小川町１丁目８番３号,,13,101,1010052,,,,,,,2023-01-25,1,,,,,ケン,0
1756,6010005036149,新規,0,2023-01-25,2023-01-25,都立病院機構労働組合,,その他の設立登記法人,東京都,文京区,本郷３丁目２４番６号,,13,105,1130033,,,,,,,2023-01-25,1,,,,,,0
1763,6010401172051,新規,0,2023-01-25,2023-01-25,ＡＺリバルタ株式会社,,株式会社,東京都,港区,高輪２丁目１５番２４号ＡＳＰ高輪ビル１Ｆ,,13,103,1080074,,,,,,,2023-01-25,1,,,,,アゼットリバルタ,0
1764,6010401172068,新規,0,2023-01-25,2023-01-25,株式会社ＴＩＴＬＥマネジメント,,株式会社,東京都,港区,三田４丁目１番４号,,13,103,1080073,,,,,,,2023-01-25,1,,,,,タイトルマネジメント,0
1766,6010403029332,新規,0,2023-01-25,2023-01-25,合同会社Ｏｒｉｏｎ　Ｉｎｄｉａ　Ｆｕｎｄ１,,合同会社,東京都,港区,南青山２丁目２番１５号ウィン青山９４２,,13,103,1070062,,,,,,,2023-01-25,1,,,,,オリオンインディアファンドイチ,0
1767,6010403029381,新規,0,2023-01-25,2023-01-25,ＧＣＲ合同会社,,合同会社,東京都,港区,六本木３丁目２番１号,,13,103,1060032,,,,,,,2023-01-25,1,,,,,ジーシーアール,0
1790,6011001152088,新規,0,2023-01-25,2023-01-25,株式会社Ｐａｎｅｎｋａ,,株式会社,東京都,渋谷区,道玄坂１丁目１０番８号渋谷道玄坂東急ビル２Ｆ－Ｃ,,13,113,1500043,,,,,,,2023-01-25,1,,,,,パネンカ,0
1791,6011001152154,新規,0,2023-01-25,2023-01-25,Ｍ２Ｈ２Ｓ株式会社,,株式会社,東京都,渋谷区,大山町１８番２３号３０１,,13,113,1510065,,,,,,,2023-01-25,1,,,,,エムツーエイチツーエス,0
1792,6011001152204,新規,0,2023-01-25,2023-01-25,株式会社エム・オー・プラネット,,株式会社,東京都,渋谷区,神南１丁目６番１４号,,13,113,1500041,,,,,,,2023-01-25,1,,,,,エムオープラネット,0
1793,6011001152229,新規,0,2023-01-25,2023-01-25,株式会社イーコール,,株式会社,東京都,渋谷区,広尾１丁目３番１２－５０２号,,13,113,1500012,,,,,,,2023-01-25,1,,,,,イーコール,0
1794,6011003016142,新規,0,2023-01-25,2023-01-25,デルタマネジメントアドバイザリー合同会社,,合同会社,東京都,渋谷区,道玄坂１丁目１０番８号渋谷道玄坂東急ビル２Ｆ－Ｃ,,13,113,1500043,,,,,,,2023-01-25,1,,,,,デルタマネジメントアドバイザリー,0
1795,6011003016175,新規,0,2023-01-25,2023-01-25,合同会社ＹＹ,,合同会社,東京都,渋谷区,元代々木町１０番７号代々木五月ビル３０１,,13,113,1510062,,,,,,,2023-01-25,1,,,,,ワイワイ,0
1811,6011103012636,新規,0,2023-01-25,2023-01-25,合同会社ＴＲＰ,,合同会社,東京都,新宿区,新宿２丁目４番９号４階,,13,104,1600022,,,,,,,2023-01-25,1,,,,,ティーアールピー,0
1816,6011201024376,新規,0,2023-01-25,2023-01-25,ＭｉＱｒｅｗ株式会社,,株式会社,東京都,中野区,野方１丁目４０番６－７０１号,,13,114,1650027,,,,,,,2023-01-25,1,,,,,ミクルー,0
1823,6011703003373,新規,0,2023-01-25,2023-01-25,ＭＳＰ合同会社,,合同会社,東京都,江戸川区,西一之江２丁目３０番２３号,,13,123,1320023,,,,,,,2023-01-25,1,,,,,エムエスピー,0
1826,6011801041804,新規,0,2023-01-25,2023-01-25,株式会社ＡｒｔＳｔｏｒｋ,,株式会社,東京都,足立区,保木間１丁目２０番７－２０２号,,13,121,1210064,,,,,,,2023-01-25,1,,,,,アートストーク,0
1863,6020001149886,新規,0,2023-01-25,2023-01-25,株式会社ＢＩＧ　ＴＨＡＮＫＳ,,株式会社,神奈川県,横浜市港北区,新吉田東１丁目５番７号コーエイハイツＩＩ１０１,00129207,14,109,2230058,,,,,,,2023-01-25,1,,,,,ビッグサンクス,0
1864,6020001149952,新規,0,2023-01-25,2023-01-25,株式会社ディーエム工業,,株式会社,神奈川県,横浜市旭区,白根７丁目８番６号,,14,112,2410005,,,,,,,2023-01-25,1,,,,,ディーエムコウギョウ,0
1865,6020001149960,新規,0,2023-01-25,2023-01-25,株式会社ｍｏｌ,,株式会社,神奈川県,川崎市宮前区,東有馬２丁目３２番５２号,,14,136,2160002,,,,,,,2023-01-25,1,,,,,モル,0
1866,6020001149969,新規,0,2023-01-25,2023-01-25,Ｓｏｉｃｈｉ株式会社,,株式会社,神奈川県,横浜市青葉区,荏田北２丁目１８－３５,,14,117,2250015,,,,,,,2023-01-25,1,,,,,ソイチ,0
1867,6020001149985,新規,0,2023-01-25,2023-01-25,リプラスジャパン株式会社,,株式会社,神奈川県,横浜市中区,桜木町１丁目１０１番地１クロスゲート７階,,14,104,2310062,,,,,,,2023-01-25,1,,,,,リプラスジャパン,0
1886,6021001078051,新規,0,2023-01-25,2023-01-25,株式会社ＫＬＢファイナンス＆レンタル,,株式会社,神奈川県,厚木市,下川入１３４０－３,,14,212,2430206,,,,,,,2023-01-25,1,,,,,ケーエルビーファイナンスアンドレンタル,0
1887,6021003012660,新規,0,2023-01-25,2023-01-25,Ｔａｋａｒａ合同会社,,合同会社,神奈川県,相模原市中央区,田名４６６１番地２７,,14,152,2520244,,,,,,,2023-01-25,1,,,,,タカラ,0
1892,6030001152055,新規,0,2023-01-25,2023-01-25,株式会社ＡＧトラスト,,株式会社,埼玉県,上尾市,谷津２丁目１番３４号日和ビル１階,,11,219,3620042,,,,,,,2023-01-25,1,,,,,エージートラスト,0
1893,6030001152088,新規,0,2023-01-25,2023-01-25,株式会社ＢＡＢＡ　ＩＮＴＥＲＮＡＴＩＯＮＡＬ,,株式会社,埼玉県,羽生市,大字上岩瀬２４－２,,11,216,3480044,,,,,,,2023-01-25,1,,,,,ババトレーディング,0
1897,6030003021010,新規,0,2023-01-25,2023-01-25,Ｉｒｉｓ合同会社,,合同会社,埼玉県,さいたま市見沼区,大字東宮下７５５番地メゾン・ド・ジェルメ２０３,,11,104,3370012,,,,,,,2023-01-25,1,,,,,アイリス,0
1898,6030003021019,新規,0,2023-01-25,2023-01-25,合同会社ミネルヴァラボ,,合同会社,埼玉県,朝霞市,西原２丁目３－１７,,11,227,3510034,,,,,,,2023-01-25,1,,,,,ミネルヴァラボ,0
1899,6030003021027,新規,0,2023-01-25,2023-01-25,合同会社ＡＫＡＩＳＨＩ　ｏｆｆｉｃｅ,,合同会社,埼玉県,上尾市,東町２丁目６番１３－２８号,,11,219,3620031,,,,,,,2023-01-25,1,,,,,アカイシオフィス,0
1905,6040001126776,新規,0,2023-01-25,2023-01-25,株式会社ＲＡＮＤＯＭ,,株式会社,千葉県,東金市,二之袋１１１２番地３,,12,213,2830052,,,,,,,2023-01-25,1,,,,,ランドム,0
1906,6040001126784,新規,0,2023-01-25,2023-01-25,タワーコーポレーション株式会社,,株式会社,千葉県,八千代市,村上南５丁目９番地１６グリュック２０５,,12,221,2760029,,,,,,,2023-01-25,1,,,,,タワーコーポレーション,0
1907,6040001126792,新規,0,2023-01-25,2023-01-25,株式会社ＳａＶｏ,,株式会社,千葉県,市川市,新田４丁目８番地２４,,12,203,2720035,,,,,,,2023-01-25,1,,,,,サボ,0
1911,6040003021769,新規,0,2023-01-25,2023-01-25,合同会社ＫＨ企画,,合同会社,千葉県,浦安市,入船６丁目４番３０５号,,12,227,2790012,,,,,,,2023-01-25,1,,,,,ケイエイチキカク,0
1916,6050003007172,新規,0,2023-01-25,2023-01-25,合同会社Ｓｕｇａ　Ｉｎｔｅｒｎａｔｉｏｎａｌ,,合同会社,茨城県,つくば市,台町３丁目６番地１５,,08,220,3050868,,,,,,,2023-01-25,1,,,,,スガインターナショナル,0
1923,6060001035645,新規,0,2023-01-25,2023-01-25,株式会社武井,,株式会社,栃木県,足利市,稲岡町８３６番地,,09,202,3294212,,,,,,,2023-01-25,1,,,,,タケイ,0
1946,6080103002731,新規,0,2023-01-25,2023-01-25,合同会社Ａｒ‐ａｔｅ　Ｗｏｒｋｓ,,合同会社,静岡県,三島市,芝本町５番３４号ＫＡＷＡＴＡＢＬＤ．芝本町７０７,,22,206,4110857,,,,,,,2023-01-25,1,,,,,アルエイトワークス,0
1950,6090001017946,新規,0,2023-01-25,2023-01-25,株式会社不動産ラボ,,株式会社,山梨県,中巨摩郡昭和町,上河東１３０２－１０－Ｂ,,19,384,4093862,,,,,,,2023-01-25,1,,,,,,0
1955,6110001037256,新規,0,2023-01-25,2023-01-25,株式会社Ｒｅ．ＷｏｒｋＳｈｏｐ,,株式会社,新潟県,新潟市南区,高井東１丁目１２番１２号,,15,106,9501236,,,,,,,2023-01-25,1,,,,,リワークショップ,0
1970,6120103005044,新規,0,2023-01-25,2023-01-25,合同会社ＳＫ　ＳＰＯＲＴＳ　ＬＡＢ,,合同会社,大阪府,和泉市,はつが野４丁目１６番１３号,,27,219,5941106,,,,,,,2023-01-25,1,,,,,エスケースポーツラボ,0
1977,6130001073563,新規,0,2023-01-25,2023-01-25,株式会社田中工務店,,株式会社,京都府,京都市伏見区,羽束師菱川町１５３番地,,26,109,6128487,,,,,,,2023-01-25,1,,,,,タナカコウムテン,0
1983,6170001017450,新規,0,2023-01-25,2023-01-25,株式会社ジーエイト,,株式会社,和歌山県,田辺市,上の山２丁目２０番１６号,,30,206,6460061,,,,,,,2023-01-25,1,,,,,ジーエイト,0
1985,6180001154697,新規,0,2023-01-25,2023-01-25,アジトゴーゴー株式会社,,株式会社,愛知県,名古屋市昭和区,長戸町６丁目１番地の３７,,23,107,4660848,,,,,,,2023-01-25,1,,,,,アジトゴーゴー,0
1989,6180005020086,新規,0,2023-01-25,2023-01-25,特定非営利活動法人新栄千早おせっかいおばちゃん,,その他の設立登記法人,愛知県,名古屋市中区,新栄２丁目３６番６号,,23,106,4600007,,,,,,,2023-01-25,1,,,,,シンサカエチハヤオセッカイオバチャン,0
1991,6190001030121,新規,0,2023-01-25,2023-01-25,株式会社クラシア不動産,,株式会社,三重県,津市,柳山津興３２９４番地６,,24,201,5140803,,,,,,,2023-01-25,1,,,,,クラシアフドウサン,0
1992,6190003004206,新規,0,2023-01-25,2023-01-25,合同会社ＭＡＲＵＤＯＴ,,合同会社,三重県,鳥羽市,鳥羽１丁目２―１２ｔｏＢＡｓｈａｒｅ１階,,24,211,5170011,,,,,,,2023-01-25,1,,,,,マルドット,0
1995,6200003005813,新規,0,2023-01-25,2023-01-25,合同会社Ｋａｆｕｕ,,合同会社,岐阜県,岐阜市,本郷町２丁目１４番１,,21,201,5008302,,,,,,,2023-01-25,1,,,,,カフー,0
1996,6220001025233,新規,0,2023-01-25,2023-01-25,株式会社加賀製陶所,,株式会社,石川県,能美市,湯谷町チ５番地,,17,211,9231104,,,,,,,2023-01-25,1,,,,,カガセイトウショ,0
2013,6270001008720,新規,0,2023-01-25,2023-01-25,株式会社Ｌｉｆｅ　Ｔｉｍｅ,,株式会社,鳥取県,鳥取市,青葉町３丁目１５０番地１,,31,201,6800802,,,,,,,2023-01-25,1,,,,,ライフタイム,0
2024,6290003013452,新規,0,2023-01-25,2023-01-25,合同会社カネコ,,合同会社,福岡県,久留米市,荘島町８－５久留米駅前スカイマンション６１０号室,,40,203,8300042,,,,,,,2023-01-25,1,,,,,カネコ,0
2025,6290005018929,新規,0,2023-01-25,2023-01-25,医療法人内記会,,その他の設立登記法人,福岡県,久留米市,東町３０番５,,40,203,8300032,,,,,,,2023-01-25,1,,,,,ナイキカイ,0
2027,6320003004002,新規,0,2023-01-25,2023-01-25,合同会社ＹＡＭＡＳＡＫＩ工務店,,合同会社,大分県,別府市,上人仲町１３番４号,,44,202,8740034,,,,,,,2023-01-25,1,,,,,ヤマサキコウムテン,0
2029,6330003009685,新規,0,2023-01-25,2023-01-25,合同会社太陽商事,,合同会社,熊本県,阿蘇郡小国町,大字下城６５４番地,,43,424,8692503,,,,,,,2023-01-25,1,,,,,タイヨウショウジ,0
2054,6390001017148,新規,0,2023-01-25,2023-01-25,株式会社Ｒ３ＰＬＡＮＮＩＮＧ,,株式会社,山形県,米沢市,万世町桑山４１７９番地の１,,06,202,9921123,,,,,,,2023-01-25,1,,,,,アールスリープランニング,0
2066,6470003002338,新規,0,2023-01-25,2023-01-25,合同会社ファミリエール,,合同会社,香川県,高松市,塩江町安原下第３号５２１番地３,,37,201,7611503,,,,,,,2023-01-25,1,,,,,ファミリエール,0
2069,6480001011991,新規,0,2023-01-25,2023-01-25,株式会社ディー・ワイ・シー,,株式会社,徳島県,板野郡松茂町,広島字南川向３５番地４７,,36,401,7710220,,,,,,,2023-01-25,1,,,,,ディーワイシー,0
2080,6700150113946,新規,0,2023-01-25,2023-01-25,缶詰技術研究会,,その他,東京都,千代田区,丸の内２丁目７番２号ＪＰタワー８階,,13,101,1000005,,,,,,,2023-01-25,1,,,,,カンヅメギジュツケンキュウカイ,0
2081,6700150113954,新規,0,2023-01-25,2023-01-25,ＴＯＵＣＨＢＥＡＵＴＹ　ＢＥＡＵＴＹ＆ＨＥＡＬＴＨ（ＳＨＥＮＺＨＥＮ）ＣＯ．，ＬＴＤ,,外国会社等,,,,,,,,２９／Ｆ，Ｂｌｏｃｋ　Ｂ，Ｔｉｌｅｙ　Ｃｅｎｔｒａｌ　Ｂｕｓｉｎｅｓｓ　Ｐｌａｚａ，Ｈａｉｄｅ　３ｒｄ　Ｒｏｏｄ　Ｈａｉｚｈｕ　Ｃｏｍｍｕｎｉｔｙ，Ｙｕｅｈａｉ　Ｓｔｒｅｅｔ，Ｎａｎｓｈａｎ　Ｄｉｓｔｒｉｃｔ　Ｓｈｅｎｚｈｅｎ　Ｇｕａｎｇｄｏｎｇ　Ｐｒｏｖｉｎｃｅ　Ｃｈｉｎａ,,,,,,2023-01-25,1,,,,,タッチビューティービューティーアンドヘルスシンセンカンパニーリミテッド,0
2103,7010001232411,新規,0,2023-01-25,2023-01-25,株式会社ＫＨＩＮＥ＆ＮＷＥ,,株式会社,東京都,文京区,大塚４丁目５１－４上山ビル２階,,13,105,1120012,,,,,,,2023-01-25,1,,,,,カインアンドヌウェ,0
2104,7010001232436,新規,0,2023-01-25,2023-01-25,株式会社ＳＴＯＣＫ１１７,,株式会社,東京都,千代田区,永田町２丁目１２番４号,,13,101,1000014,,,,,,,2023-01-25,1,,,,,ストックヒャクジュウナナ,0
2105,7010001232452,新規,0,2023-01-25,2023-01-25,アサヒメタルファイン株式会社,,株式会社,東京都,千代田区,丸の内１丁目７番１２号,,13,101,1000005,,,,,,,2023-01-25,1,,,,,アサヒメタルファイン,0
2106,7010001232469,新規,0,2023-01-25,2023-01-25,東京ホールディングス株式会社,,株式会社,東京都,千代田区,神田練塀町６７番地,,13,101,1010022,,,,,,,2023-01-25,1,,,,,トウキョウホールディングス,0
2107,7010001232493,新規,0,2023-01-25,2023-01-25,株式会社Ｍｅｄｅｒｕ,,株式会社,東京都,中央区,銀座１丁目２２番１１号銀座大竹ビジデンス２階,,13,102,1040061,,,,,,,2023-01-25,1,,,,,メデル,0
2108,7010001232502,新規,0,2023-01-25,2023-01-25,Ｗａｒｍ株式会社,,株式会社,東京都,中央区,日本橋１丁目１３番１号日鉄日本橋ビル３階ＷＡＷ日本橋,,13,102,1030027,,,,,,,2023-01-25,1,,,,,ウォーム,0
2114,7010003039656,新規,0,2023-01-25,2023-01-25,フロックス合同会社,,合同会社,東京都,千代田区,丸の内３丁目１番１号東京共同会計事務所内,,13,101,1000005,,,,,,,2023-01-25,1,,,,,フロックス,0
2122,7010401172018,新規,0,2023-01-25,2023-01-25,株式会社ｍｅｌｔ,,株式会社,東京都,港区,六本木７丁目４番１号研音ビル,,13,103,1060032,,,,,,,2023-01-25,1,,,,,メルト,0
2126,7010503006858,新規,0,2023-01-25,2023-01-25,合同会社久保ＧＲ,,合同会社,東京都,台東区,東浅草１丁目４番６号３０２号レトワール藤屋,,13,106,1110025,,,,,,,2023-01-25,1,,,,,クボグループ,0
2127,7010605004165,新規,0,2023-01-25,2023-01-25,一般社団法人錦糸町モスク,,その他の設立登記法人,東京都,墨田区,江東橋４丁目２０番１号第２かつらぎビル２０１,,13,107,1300022,,,,,,,2023-01-25,1,,,,,キンシチョウモスク,0
2129,7010701043769,新規,0,2023-01-25,2023-01-25,株式会社ＲｅｓＷｉｚ,,株式会社,東京都,品川区,小山３丁目１４番２－２８０８号,,13,109,1420062,,,,,,,2023-01-25,1,,,,,レスウィズ,0
2133,7011003016174,新規,0,2023-01-25,2023-01-25,合同会社ＨＯＷ　ＴＯ,,合同会社,東京都,目黒区,鷹番２丁目１３番６－５０１号,,13,110,1520004,,,,,,,2023-01-25,1,,,,,ハウトゥー,0
2154,7011301028409,新規,0,2023-01-25,2023-01-25,株式会社Ｃｒａｄｌｅ,,株式会社,東京都,杉並区,久我山２丁目１０番２８号,,13,115,1680082,,,,,,,2023-01-25,1,,,,,クレイドル,0
2155,7011801041828,新規,0,2023-01-25,2023-01-25,株式会社小山不動産,,株式会社,東京都,足立区,六月３丁目１５番１１号,,13,121,1210814,,,,,,,2023-01-25,1,,,,,コヤマフドウサン,0
2159,7012701017447,新規,0,2023-01-25,2023-01-25,株式会社プロパース,,株式会社,東京都,小平市,学園東町２９－９３,,13,211,1870043,,,,,,,2023-01-25,1,,,,,プロパース,0
2163,7013303006474,新規,0,2023-01-25,2023-01-25,合同会社Ａ　ＰＲＯＭＯＴＩＯＮ,,合同会社,東京都,豊島区,池袋２丁目５番２号徳永ビル４Ｆ,,13,116,1710014,,,,,,,2023-01-25,1,,,,,エープロモーション,0
2180,7020001149976,新規,0,2023-01-25,2023-01-25,株式会社ティーエイチ,,株式会社,神奈川県,川崎市中原区,小杉御殿町２丁目１６６番地８－７０２,,14,133,2110068,,,,,,,2023-01-25,1,,,,,ティーエイチ,0
2181,7020001149984,新規,0,2023-01-25,2023-01-25,株式会社ＡＤＷＯＷ,,株式会社,神奈川県,横浜市磯子区,原町８番３９－１０１号,,14,107,2350008,,,,,,,2023-01-25,1,,,,,アドワオ,0
2200,7020003023171,新規,0,2023-01-25,2023-01-25,エクスペリメント合同会社,,合同会社,神奈川県,横浜市都筑区,牛久保東１丁目３２番１０号３０１号,,14,118,2240014,,,,,,,2023-01-25,1,,,,,エクスペリメント,0
2208,7021001077993,新規,0,2023-01-25,2023-01-25,株式会社ＭＪＤ,,株式会社,神奈川県,海老名市,上郷３丁目７－６－２０２,,14,215,2430434,,,,,,,2023-01-25,1,,,,,エムジェイディ,0
2209,7021001078042,新規,0,2023-01-25,2023-01-25,株式会社スマピタラ,,株式会社,神奈川県,小田原市,浜町３丁目９番７－４０１号ナイスアーバン小田原西湘,,14,206,2500004,,,,,,,2023-01-25,1,,,,,スマピタラ,0
2219,7030001151717,新規,0,2023-01-25,2023-01-25,ＰＥＡＲＬ株式会社,,株式会社,埼玉県,さいたま市大宮区,高鼻町１丁目１１４番１号,,11,103,3300803,,,,,,,2023-01-25,1,,,,,パール,0
2220,7030001152087,新規,0,2023-01-25,2023-01-25,株式会社カエデ商会,,株式会社,埼玉県,さいたま市中央区,新中里４丁目６番７号,,11,105,3380011,,,,,,,2023-01-25,1,,,,,カエデショウカイ,0
2221,7030001152095,新規,0,2023-01-25,2023-01-25,株式会社Ｗｉｔｈ,,株式会社,埼玉県,所沢市,大字久米３８２番地の１,,11,208,3591131,,,,,,,2023-01-25,1,,,,,ウィズ,0
2222,7030001152120,新規,0,2023-01-25,2023-01-25,株式会社ＨＳ,,株式会社,埼玉県,熊谷市,大原３丁目１番１７号,,11,202,3600812,,,,,,,2023-01-25,1,,,,,エイチエス,0
2226,7030003021018,新規,0,2023-01-25,2023-01-25,合同会社ウェディングプランナー,,合同会社,埼玉県,新座市,畑中２丁目１４番２６－６号,,11,230,3520012,,,,,,,2023-01-25,1,,,,,ウェディングプランナー,0
2227,7030005021123,新規,0,2023-01-25,2023-01-25,特定非営利活動法人スコップ,,その他の設立登記法人,埼玉県,越谷市,宮本町３丁目９３番地９,,11,222,3430806,,,,,,,2023-01-25,1,,,,,スコップ,0
2233,7040001126759,新規,0,2023-01-25,2023-01-25,株式会社小林トレーラー陸送,,株式会社,千葉県,野田市,野田６３６番地の３ロイヤルステージ野田Ｉ－６０７号室,00129208,12,208,2780037,,,,,,,2023-01-25,1,,,,,コバヤシトレーラーリクソウ,0
2234,7040001126775,新規,0,2023-01-25,2023-01-25,株式会社カイダン,,株式会社,千葉県,千葉市中央区,中央２丁目５－１千葉中央ツインビル２号館７Ｆ、ＣＨＩＢＡ－ＬＡＢＯ,,12,101,2600013,,,,,,,2023-01-25,1,,,,,カイダン,0
2237,7040005021881,新規,0,2023-01-25,2023-01-25,一般社団法人美礼,,その他の設立登記法人,千葉県,船橋市,二和東６丁目３番８号,,12,204,2740805,,,,,,,2023-01-25,1,,,,,ミライ,0
2241,7050001052285,新規,0,2023-01-25,2023-01-25,株式会社みかどや,,株式会社,茨城県,稲敷市,上馬渡４８０番地,,08,229,3000643,,,,,,,2023-01-25,1,,,,,ミカドヤ,0
2245,7060001035644,新規,0,2023-01-25,2023-01-25,株式会社ＣＬＤ,,株式会社,栃木県,足利市,大前町７６７番地６,,09,202,3260845,,,,,,,2023-01-25,1,,,,,シーエルディ,0
2259,7070001040065,新規,0,2023-01-25,2023-01-25,株式会社シナジーフロンティア,,株式会社,群馬県,前橋市,荒子町１１８９－３,,10,201,3792106,,,,,,,2023-01-25,1,,,,,シナジーフロンティア,0
2277,7080103002730,新規,0,2023-01-25,2023-01-25,プレシャスグループ合同会社,,合同会社,静岡県,三島市,富士ビレッジ５７番１号,,22,206,4110028,,,,,,,2023-01-25,1,,,,,プレシャスグループ,0
2279,7080401026274,新規,0,2023-01-25,2023-01-25,ソフトテックＷｅｓｔ株式会社,,株式会社,静岡県,浜松市西区,篠原町９４５６番地,,22,133,4310201,,,,,,,2023-01-25,1,,,,,ソフトテックウェスト,0
2284,7110001037255,新規,0,2023-01-25,2023-01-25,株式会社Ｐｕｒｅ　ＵＰ,,株式会社,新潟県,三条市,本町２丁目６番２０号中央ビル２Ｆ,,15,204,9550071,,,,,,,2023-01-25,1,,,,,ピュアアップ,0
2294,7120001251961,新規,0,2023-01-25,2023-01-25,喜楽株式会社,,株式会社,大阪府,大阪市城東区,今福南４丁目６番５９号１Ｆ－Ｂ号室,,27,118,5360003,,,,,,,2023-01-25,1,,,,,キラク,0
2295,7120001251986,新規,0,2023-01-25,2023-01-25,株式会社ＲＥＡＬ　ＮＥＥＤＳ,,株式会社,大阪府,大阪市北区,天神橋４丁目１２－４天満シミズビル２、３、４階,,27,127,5300041,,,,,,,2023-01-25,1,,,,,リアルニーズ,0
2296,7120001252002,新規,0,2023-01-25,2023-01-25,株式会社ＫＩＫＹＯＹＡ,,株式会社,大阪府,大阪市西区,北堀江１丁目２０番１５号長堀佐野ビル７階,,27,106,5500014,,,,,,,2023-01-25,1,,,,,キキョウヤ,0
2297,7120001252019,新規,0,2023-01-25,2023-01-25,株式会社和電工業,,株式会社,大阪府,大阪市福島区,鷺洲１丁目６番４号,,27,103,5530002,,,,,,,2023-01-25,1,,,,,ワデンコウギョウ,0
2304,7120003023327,新規,0,2023-01-25,2023-01-25,合同会社ワイ,,合同会社,大阪府,大阪市天王寺区,小橋町９番１３－２０１号,,27,109,5430028,,,,,,,2023-01-25,1,,,,,ワイ,0
2315,7122001036624,新規,0,2023-01-25,2023-01-25,久道株式会社,,株式会社,大阪府,東大阪市,永和１丁目５番１号大洋ハイツ永和２０６号,,27,227,5770809,,,,,,,2023-01-25,1,,,,,クドウ,0
2324,7140003018630,新規,0,2023-01-25,2023-01-25,合同会社ｈａｒｅｒｕｙｏｎｅ,,合同会社,兵庫県,神戸市東灘区,向洋町中７丁目２番地の１、９番館９０１号,,28,101,6580032,,,,,,,2023-01-25,1,,,,,ハレルヨネ,0
2325,7140003018639,新規,0,2023-01-25,2023-01-25,Ｍｔ．ＲＡＫＵ合同会社,,合同会社,兵庫県,姫路市,南駅前町８７Ｌｉｍｋｓビル６階,,28,201,6700962,,,,,,,2023-01-25,1,,,,,エムトラック,0
2335,7180001154655,新規,0,2023-01-25,2023-01-25,エム・アリ・トレーディング株式会社,,株式会社,愛知県,名古屋市港区,小碓２丁目２６２番地,,23,111,4550801,,,,,,,2023-01-25,1,,,,,エムアリトレーディング,0
2336,7180001154705,新規,0,2023-01-25,2023-01-25,株式会社ｍｅｄｉｅｉｔｏ,,株式会社,愛知県,名古屋市東区,葵２丁目８番２０号,,23,102,4610004,,,,,,,2023-01-25,1,,,,,メディエイト,0
2345,7180003024716,新規,0,2023-01-25,2023-01-25,合同会社よりそい,,合同会社,愛知県,稲沢市,祖父江町島本上縄１０３０番地２８,,23,220,4950023,,,,,,,2023-01-25,1,,,,,ヨリソイ,0
2353,7190001030120,新規,0,2023-01-25,2023-01-25,株式会社コトブキ,,株式会社,三重県,四日市市,水沢町２９６７番地,,24,202,5121105,,,,,,,2023-01-25,1,,,,,コトブキ,0
2354,7190005011785,新規,0,2023-01-25,2023-01-25,一般社団法人絆,,その他の設立登記法人,三重県,亀山市,阿野田町１０６１番地９６,,24,210,5190137,,,,,,,2023-01-25,1,,,,,キズナ,0
2357,7220001025240,新規,0,2023-01-25,2023-01-25,株式会社ＧＬＥＡＮ　ＰＩＥＣＥ,,株式会社,石川県,野々市市,御経塚１丁目３０７番地,,17,212,9218801,,,,,,,2023-01-25,1,,,,,グリーンピース,0
2358,7230001019687,新規,0,2023-01-25,2023-01-25,株式会社宍戸企画,,株式会社,富山県,富山市,長附４２８番地１０,,16,201,9392255,,,,,,,2023-01-25,1,,,,,シシドキカク,0
2359,7240001061003,新規,0,2023-01-25,2023-01-25,インタードリブン株式会社,,株式会社,広島県,福山市,西町１丁目１－１ｉｔｉ　ＳＥＴＯＵＣＨＩ　１Ｆ　ｔｏｖｉｏ内,,34,207,7200067,,,,,,,2023-01-25,1,,,,,インタードリブン,0
2360,7240005015509,新規,0,2023-01-25,2023-01-25,一般社団法人ｃｏｍｏｒｅｂｉ,,その他の設立登記法人,広島県,尾道市,因島中庄町５８５番地３－２０２,,34,205,7222211,,,,,,,2023-01-25,1,,,,,コモレビ,0
2369,7260001037604,新規,0,2023-01-25,2023-01-25,クラモクホールディングス株式会社,,株式会社,岡山県,倉敷市,中島１０００番地１,,33,202,7100803,,,,,,,2023-01-25,1,,,,,クラモクホールディングス,0
2377,7290001100326,新規,0,2023-01-25,2023-01-25,株式会社ＳＵＮＮＹＢＬＵＥ,,株式会社,福岡県,福岡市南区,高宮４丁目１５番１０号,,40,134,8150083,,,,,,,2023-01-25,1,,,,,サニーブルー,0
2381,7290003013419,新規,0,2023-01-25,2023-01-25,合同会社エル,,合同会社,福岡県,福岡市早良区,荒江２丁目８番１号,,40,137,8140021,,,,,,,2023-01-25,1,,,,,エル,0
2382,7290801029236,新規,0,2023-01-25,2023-01-25,株式会社１０セキュリティ,,株式会社,福岡県,北九州市小倉北区,井堀１丁目２６番１６号‐３０１号,,40,106,8030835,,,,,,,2023-01-25,1,,,,,テンセキュリティ,0
2385,7320001019538,新規,0,2023-01-25,2023-01-25,株式会社イージスワン,,株式会社,大分県,大分市,上野丘１丁目４番３７号,,44,201,8700835,,,,,,,2023-01-25,1,,,,,イージスワン,0
2390,7350001018149,新規,0,2023-01-25,2023-01-25,株式会社ｅｆｆｅｃｔｒｙ,,株式会社,宮崎県,宮崎市,淀川３丁目５番２６号,,45,201,8800907,,,,,,,2023-01-25,1,,,,,エフェクトライ,0
2396,7360001006838,新規,0,2023-01-25,2023-01-25,石川電気工事株式会社,,株式会社,沖縄県,那覇市,若狭１丁目３番１号５０１号室,,47,201,9000031,,,,,,,2023-01-25,1,,,,,イシカワデンキコウジ,0
2418,7400001016139,新規,0,2023-01-25,2023-01-25,株式会社田中屋,,株式会社,岩手県,盛岡市,西青山３丁目１番１４号,,03,201,0200132,,,,,,,2023-01-25,1,,,,,タナカヤ,0
2436,7480001011990,新規,0,2023-01-25,2023-01-25,株式会社エス・ワイ・シー,,株式会社,徳島県,板野郡松茂町,広島字北川向ニノ越２６番地１,,36,401,7710220,,,,,,,2023-01-25,1,,,,,エスワイシー,0
2447,7700150113945,新規,0,2023-01-25,2023-01-25,Ｘ－ＬＥＧＥＮＤ　Ｅｎｔｅｒｔａｉｎｍｅｎｔ　Ｃｏ．，Ｌｔｄ．,,外国会社等,,,,,,,,７Ｆ，Ｎｏ．２８８，Ｓｅｃ．６，Ｃｉｖｉｃ　Ｂｌｖｄ．，Ｘｉｎｙｉ　Ｄｉｓｔ．，Ｔａｉｐｅｉ　Ｃｉｔｙ　１１０，Ｔａｉｗａｎ（Ｒ．Ｏ．Ｃ．）,,,,,,2023-01-25,1,,,,,エツクスレジエンドエンターテインメントシーオーリミテツド,0
2464,8010001232435,新規,0,2023-01-25,2023-01-25,株式会社ＳＴＯＣＫ１１６,,株式会社,東京都,千代田区,永田町２丁目１２番４号,,13,101,1000014,,,,,,,2023-01-25,1,,,,,ストックヒャクジュウロク,0
2465,8010001232451,新規,0,2023-01-25,2023-01-25,株式会社有頂天,,株式会社,東京都,千代田区,神田神保町１丁目４２番８号エスペランサ神田神保町１Ｆ,,13,101,1010051,,,,,,,2023-01-25,1,,,,,ウチョウテン,0
2466,8010001232476,新規,0,2023-01-25,2023-01-25,株式会社プリンセスリズ,,株式会社,東京都,中央区,銀座１丁目１２番４号Ｎ＆ＥＢＬＤ．６Ｆ,,13,102,1040061,,,,,,,2023-01-25,1,,,,,プリンセスリズ,0
2467,8010001232484,新規,0,2023-01-25,2023-01-25,株式会社おとなの英語予備校,,株式会社,東京都,中央区,日本橋本石町４丁目３番８号第１８ＳＹビル５階,,13,102,1030021,,,,,,,2023-01-25,1,,,,,オトナノエイゴヨビコウ,0
2469,8010003039630,新規,0,2023-01-25,2023-01-25,合同会社ウェルネスラボ,,合同会社,東京都,文京区,本郷６丁目１０番１２－６０１号,,13,105,1130033,,,,,,,2023-01-25,1,,,,,ウェルネスラボ,0
2470,8010003039639,新規,0,2023-01-25,2023-01-25,合同会社フジオート,,合同会社,東京都,中央区,銀座１丁目１２番４号Ｎ＆ＥＢＬＤ．６Ｆ,,13,102,1040061,,,,,,,2023-01-25,1,,,,,フジオート,0
2471,8010003039671,新規,0,2023-01-25,2023-01-25,Ｏｂｔｏｎ　Ｊａｐａｎ　ＳＰＶ１合同会社,,合同会社,東京都,千代田区,内神田２丁目２番６号５階あすな会計事務所内,,13,101,1010047,,,,,,,2023-01-25,1,,,,,オブトンジャパンエスピーブイワン,0
2482,8010401172074,新規,0,2023-01-25,2023-01-25,株式会社デュラハン,,株式会社,東京都,港区,南青山２丁目２番１５号,,13,103,1070062,,,,,,,2023-01-25,1,,,,,デュラハン,0
2483,8010401172099,新規,0,2023-01-25,2023-01-25,北海道地域医療連携推進株式会社,,株式会社,東京都,港区,三田２丁目１４番７－６０２号ローレル三田,,13,103,1080073,,,,,,,2023-01-25,1,,,,,ホッカイドウチイキイリョウレンケイスイシン,0
2488,8010403029371,新規,0,2023-01-25,2023-01-25,変容学習研究所合同会社,,合同会社,東京都,港区,南青山３丁目１番３６号青山丸竹ビル６階,,13,103,1070062,,,,,,,2023-01-25,1,,,,,ヘンヨウガクシュウケンキュウジョ,0
2489,8010405021764,新規,0,2023-01-25,2023-01-25,一般社団法人Ｃｏｒｏｎａｔｉｏｎ,,その他の設立登記法人,東京都,港区,虎ノ門３丁目２２番１０－２０１号,,13,103,1050001,,,,,,,2023-01-25,1,,,,,コロネーション,0
2494,8010703006533,新規,0,2023-01-25,2023-01-25,合同会社ジーラビーコーポレーション,,合同会社,東京都,品川区,戸越１丁目２１番１４－２０１号,,13,109,1420041,,,,,,,2023-01-25,1,,,,,ジーラビーコーポレーション,0
2497,8010903007918,新規,0,2023-01-25,2023-01-25,合同会社大志会,,合同会社,東京都,世田谷区,祖師谷６丁目１５番３３号,,13,112,1570072,,,,,,,2023-01-25,1,,,,,,0
2500,8011003016124,新規,0,2023-01-25,2023-01-25,合同会社ｎｏｒｉｍ,,合同会社,東京都,渋谷区,神宮前６丁目２３－４桑野ビル２Ｆ,,13,113,1500001,,,,,,,2023-01-25,1,,,,,ノリム,0
2501,8011003016149,新規,0,2023-01-25,2023-01-25,合同会社モズ,,合同会社,東京都,渋谷区,代々木５丁目５０番８号Ｎ１０１,,13,113,1510053,,,,,,,2023-01-25,1,,,,,モズ,0
2502,8011003016173,新規,0,2023-01-25,2023-01-25,合同会社８ＯＮ,,合同会社,東京都,渋谷区,東３丁目２４番１１－３０３号ユニコーンバリーエビス,,13,113,1500011,,,,,,,2023-01-25,1,,,,,エイトオン,0
2514,8011103012634,新規,0,2023-01-25,2023-01-25,合同会社太田プロモーション,,合同会社,東京都,新宿区,北新宿１丁目３５番４－１２０４号,,13,104,1690074,,,,,,,2023-01-25,1,,,,,オオタプロモーション,0
2525,8011501028884,新規,0,2023-01-25,2023-01-25,新宿ワールド株式会社,,株式会社,東京都,北区,志茂１丁目３５番３号オハラコーポ３０１,,13,117,1150042,,,,,,,2023-01-25,1,,,,,シンジュクワールド,0
2526,8011601026532,新規,0,2023-01-25,2023-01-25,株式会社ＴＡＫＥ３,,株式会社,東京都,練馬区,大泉学園町７丁目９番１２号,,13,120,1780061,,,,,,,2023-01-25,1,,,,,テイクスリー,0
2527,8011701025970,新規,0,2023-01-25,2023-01-25,株式会社平和ホールディングス,,株式会社,東京都,江戸川区,谷河内２丁目１３番１２号,,13,123,1330002,,,,,,,2023-01-25,1,,,,,ヘイワホールディングス,0
2542,8013303006473,新規,0,2023-01-25,2023-01-25,合同会社日本ＧＳＲ科学技術,,合同会社,東京都,豊島区,高松２丁目３２番５号,,13,116,1710042,,,,,,,2023-01-25,1,,,,,ニホンジーエスアールカガクギジュツ,0
2558,8020001149926,新規,0,2023-01-25,2023-01-25,株式会社ＲｅＬｉｆｅ,,株式会社,神奈川県,横浜市神奈川区,入江１丁目２４番８－４０７号,,14,102,2210014,,,,,,,2023-01-25,1,,,,,リライフ,0
2559,8020001149967,新規,0,2023-01-25,2023-01-25,おりがみ株式会社,,株式会社,神奈川県,横浜市戸塚区,上倉田町２１４１－１プライズ・ヒル３０２４,,14,110,2440816,,,,,,,2023-01-25,1,,,,,オリガミ,0
2560,8020001149975,新規,0,2023-01-25,2023-01-25,株式会社ＩｎｔｅｒＦａｃｅ,,株式会社,神奈川県,横浜市瀬谷区,宮沢４丁目１０番地４,,14,114,2460038,,,,,,,2023-01-25,1,,,,,インターフェイス,0
2580,8020003023146,新規,0,2023-01-25,2023-01-25,合同会社Ｍ．Ｓクラフト,,合同会社,神奈川県,横浜市泉区,和泉中央北６丁目２９－２２,,14,116,2450024,,,,,,,2023-01-25,1,,,,,エムズクラフト,0
2581,8020003023179,新規,0,2023-01-25,2023-01-25,合同会社キンキッド・テイル,,合同会社,神奈川県,横浜市港北区,日吉本町５丁目７７－２０,,14,109,2230062,,,,,,,2023-01-25,1,,,,,キンキッドテイル,0
2587,8021001078041,新規,0,2023-01-25,2023-01-25,株式会社ＳＡＵＮＡ　ＸＸ,,株式会社,神奈川県,綾瀬市,小園９２３－１,,14,218,2521121,,,,,,,2023-01-25,1,,,,,サウナエックス,0
2594,8030001152037,新規,0,2023-01-25,2023-01-25,株式会社ＳｅｒｖｅｒＳ,,株式会社,埼玉県,三郷市,新和１丁目４２８番地,,11,237,3410034,,,,,,,2023-01-25,1,,,,,サーバーズ,0
2595,8030001152078,新規,0,2023-01-25,2023-01-25,株式会社インフォビデオ,,株式会社,埼玉県,さいたま市北区,本郷町３７５番地１,,11,102,3310802,,,,,,,2023-01-25,1,,,,,インフォビデオ,0
2596,8030001152086,新規,0,2023-01-25,2023-01-25,株式会社メリーベル,,株式会社,埼玉県,鴻巣市,加美２丁目１０番３５号,,11,217,3650078,,,,,,,2023-01-25,1,,,,,メリーベル,0
2597,8030003021017,新規,0,2023-01-25,2023-01-25,合同会社ＦＵＪＩ　ＷＯＲＫ,,合同会社,埼玉県,本庄市,小島６丁目３番１３号,,11,211,3670061,,,,,,,2023-01-25,1,,,,,フジワーク,0
2607,8040001126774,新規,0,2023-01-25,2023-01-25,ＦＡＩＳＡＬ株式会社,,株式会社,千葉県,八街市,八街い１７６番地５７マンションＳＡＢＡ１０８号室,,12,230,2891143,,,,,,,2023-01-25,1,,,,,ファイサル,0
2608,8040001126808,新規,0,2023-01-25,2023-01-25,株式会社スズトモ,,株式会社,千葉県,佐倉市,小竹１０２１番地１,,12,212,2850853,,,,,,,2023-01-25,1,,,,,スズトモ,0
2610,8040003021775,新規,0,2023-01-25,2023-01-25,ヤマトシステムサービス合同会社,,合同会社,千葉県,八千代市,八千代台北１４丁目３番－１１号,,12,221,2760031,,,,,,,2023-01-25,1,,,,,ヤマトシステムサービス,0
2616,8060001035643,新規,0,2023-01-25,2023-01-25,株式会社ｒａｍｏ,,株式会社,栃木県,足利市,東砂原後町１０４８番地２,,09,202,3260064,,,,,,,2023-01-25,1,,,,,ラーモ,0
2641,8070003004793,新規,0,2023-01-25,2023-01-25,合同会社森田ゴルフアカデミー,,合同会社,群馬県,伊勢崎市,赤堀今井町２丁目１０６７番地１０ＬｕａｎａレジデンスＡ１０５,,10,204,3792215,,,,,,,2023-01-25,1,,,,,モリタゴルフアカデミー,0
2651,8080401026273,新規,0,2023-01-25,2023-01-25,株式会社松浦機械販売,,株式会社,静岡県,磐田市,宮之一色７２５番地１,,22,211,4380816,,,,,,,2023-01-25,1,,,,,マツウラキカイハンバイ,0
2656,8100003006860,新規,0,2023-01-25,2023-01-25,合同会社ＳＲＩ　ＩＮＴＥＲＮＡＴＩＯＮＡＬ,,合同会社,長野県,飯田市,浜井町３６１８番地１西村アパート１０１号,,20,205,3950022,,,,,,,2023-01-25,1,,,,,スリインターナショナル,0
2660,8110001037254,新規,0,2023-01-25,2023-01-25,ＡＭ株式会社,,株式会社,新潟県,新潟市中央区,鳥屋野南３丁目１番２１号,,15,103,9500950,,,,,,,2023-01-25,1,,,,,エーエム,0
2665,8120001251936,新規,0,2023-01-25,2023-01-25,鯤洲株式会社,,株式会社,大阪府,大阪市東淀川区,小松３丁目１５番１７－１０６号,,27,114,5330004,,,,,,,2023-01-25,1,,,,,コンシュウ,0
2666,8120001251969,新規,0,2023-01-25,2023-01-25,株式会社オールケア寝屋川,,株式会社,大阪府,寝屋川市,宇谷町１番２１号,,27,215,5720856,,,,,,,2023-01-25,1,,,,,オールケアネヤガワ,0
2667,8120001252018,新規,0,2023-01-25,2023-01-25,株式会社ｍｅｅｔｓ,,株式会社,大阪府,大阪市北区,万歳町４番１２号浪速ビル東館８階,,27,127,5300028,,,,,,,2023-01-25,1,,,,,ミーツ,0
2670,8120003023235,新規,0,2023-01-25,2023-01-25,合同会社Ｃ＆Ｓ,,合同会社,大阪府,大阪市北区,中津６丁目６番３号ＮＯＲＴＨＶＩＬＬＡＧＥ５０２,,27,127,5310071,,,,,,,2023-01-25,1,,,,,シーアンドエス,0
2673,8120905006411,新規,0,2023-01-25,2023-01-25,医療法人さくら通り循環器消化器内科,,その他の設立登記法人,大阪府,箕面市,桜ケ丘３丁目９番１９号桜ヶ丘クリニックビル３階,,27,220,5620046,,,,,,,2023-01-25,1,,,,,サクラドオリジュンカンキショウカキナイカ,0
2677,8130001073553,新規,0,2023-01-25,2023-01-25,ＳＯＯＮ株式会社,,株式会社,京都府,京都市伏見区,深草小久保町１２８番地,,26,109,6128437,,,,,,,2023-01-25,1,,,,,スーン,0
2678,8130001073561,新規,0,2023-01-25,2023-01-25,セキグチエンジニアリング株式会社,,株式会社,京都府,京都市北区,西賀茂蟹ケ坂町１１０番地１,,26,101,6038805,,,,,,,2023-01-25,1,,,,,セキグチエンジニアリング,0
2684,8140001128802,新規,0,2023-01-25,2023-01-25,株式会社ＦＵＫＵｋｕｒｕ,,株式会社,兵庫県,明石市,藤江９６８－４５,,28,203,6730044,,,,,,,2023-01-25,1,,,,,フククル,0
2685,8140001128851,新規,0,2023-01-25,2023-01-25,神雪エンジニアリング株式会社,,株式会社,兵庫県,神戸市兵庫区,雪御所町１６番１２号,,28,105,6520031,,,,,,,2023-01-25,1,,,,,シンセツエンジニアリング,0
2686,8140001128876,新規,0,2023-01-25,2023-01-25,株式会社ヒロエンヂニアリング,,株式会社,兵庫県,神戸市西区,伊川谷町潤和１７８８番地の２０,,28,111,6512124,,,,,,,2023-01-25,1,,,,,ヒロエンヂニアリング,0
2700,8180003024748,新規,0,2023-01-25,2023-01-25,合同会社Ｕｎｉｃｏ,,合同会社,愛知県,清須市,助七２丁目１１４－２クイーンリバーベル２０２号室,,23,233,4520903,,,,,,,2023-01-25,1,,,,,ユニコ,0
2701,8180005020084,新規,0,2023-01-25,2023-01-25,つむぎ税理士法人,,その他の設立登記法人,愛知県,名古屋市昭和区,広路町字石坂８０番地の３３メゾン八事３０７号,,23,107,4660834,,,,,,,2023-01-25,1,,,,,ツムギ,0
2704,8200001040884,新規,0,2023-01-25,2023-01-25,株式会社ＯＮＡ不動産販売,,株式会社,岐阜県,岐阜市,上土居１丁目５番２号,,21,201,5020803,,,,,,,2023-01-25,1,,,,,オウエヌエイフドウサンハンバイ,0
2716,8240001061002,新規,0,2023-01-25,2023-01-25,株式会社ＭＰＭ,,株式会社,広島県,呉市,三条１丁目１３番１９号,,34,202,7370821,,,,,,,2023-01-25,1,,,,,エムピーエム,0
2721,8240005015508,新規,0,2023-01-25,2023-01-25,一般社団法人ＴＯＩＮ　ＲＵＧＢＹ　ＣＬＵＢ,,その他の設立登記法人,広島県,広島市中区,十日市町１丁目５番２０号広島倉本ビル３０２号室,,34,101,7300805,,,,,,,2023-01-25,1,,,,,トウインラグビークラブ,0
2723,8270001008719,新規,0,2023-01-25,2023-01-25,株式会社茅原クレセ,,株式会社,鳥取県,東伯郡湯梨浜町,大字原４９７番地,,31,370,6890606,,,,,,,2023-01-25,1,,,,,カヤハラクレセ,0
2735,8290003013450,新規,0,2023-01-25,2023-01-25,合同会社ＭＥＲＩＳＥ,,合同会社,福岡県,福岡市博多区,博多駅南４丁目１９番１５号,,40,132,8120016,,,,,,,2023-01-25,1,,,,,ミライズ,0
2736,8300001013203,新規,0,2023-01-25,2023-01-25,株式会社Ｐｉｐｓ,,株式会社,佐賀県,佐賀市,若宮３丁目１－７７,,41,201,8490926,,,,,,,2023-01-25,1,,,,,ピプス,0
2741,8350001018148,新規,0,2023-01-25,2023-01-25,株式会社ＫＥＹ・ＬＩＮＥ,,株式会社,宮崎県,宮崎市,月見ケ丘７丁目１０番１５号,,45,201,8800926,,,,,,,2023-01-25,1,,,,,キーライン,0
2765,8400001016138,新規,0,2023-01-25,2023-01-25,株式会社カモシカ,,株式会社,岩手県,滝沢市,巣子１５２番地４０９ＩＰＵ第２イノベーションセンター,,03,216,0200611,,,,,,,2023-01-25,1,,,,,カモシカ,0
2782,8490003001732,新規,0,2023-01-25,2023-01-25,合同会社つむぎ,,合同会社,高知県,高知市,長浜１６２０番地１第二英光マンション１階,,39,201,7810270,,,,,,,2023-01-25,1,,,,,ツムギ,0
2784,8700150113936,新規,0,2023-01-25,2023-01-25,ソルトリックステクノロジーズプライベートリミテッド,,外国会社等,愛知県,弥富市,荷之上町焼田新田５３９番地３５,,23,235,4980011,パキスタン国、カイバル・パクトゥンクワ州、ペシャワール市、ハヤタバード区、フェーズ４、三丁目、３８号,,,,,,2023-01-25,1,,,,,ソルトリツクステクノロジーズプライベートリミテツド,0
2785,8700150113952,新規,0,2023-01-25,2023-01-25,Ｔｏｙｏ　Ｎｅｔｚ　Ｌａｎｋａ　Ｐｒｉｖａｔｅ　Ｌｉｍｉｔｅｄ,,外国会社等,千葉県,山武郡九十九里町,西野８４７－１Ａ,,12,403,2830116,スリランカ民主社会主義共和国カンディ、アクラナ、マタレ通３４８－３,,,,,,2023-01-25,1,,,,,トーヨーネツツランカプライベートリミテツド,0
2793,9010001232426,新規,0,2023-01-25,2023-01-25,ＰｒｏｃｕｂｅＩｎｖｅｓｔｍｅｎｔ株式会社,,株式会社,東京都,中央区,京橋２丁目７番８号,,13,102,1040031,,,,,,,2023-01-25,1,,,,,プロキューブインベストメント,0
2794,9010001232434,新規,0,2023-01-25,2023-01-25,株式会社ＳＴＯＣＫ１１５,,株式会社,東京都,千代田区,永田町２丁目１２番４号,,13,101,1000014,,,,,,,2023-01-25,1,,,,,ストックヒャクジュウゴ,0
2795,9010001232459,新規,0,2023-01-25,2023-01-25,ＷＯＷ株式会社,,株式会社,東京都,文京区,本郷１丁目７番１０号,,13,105,1130033,,,,,,,2023-01-25,1,,,,,ワオ,0
2796,9010001232483,新規,0,2023-01-25,2023-01-25,株式会社ヒューマントレンド研究所,,株式会社,東京都,千代田区,麹町４丁目３番地４宮ビル４階－Ｂ,,13,101,1020083,,,,,,,2023-01-25,1,,,,,ヒューマントレンドケンキュウショ,0
2799,9010003039670,新規,0,2023-01-25,2023-01-25,ＲＡＷ　ＦＯＵＮＤＡＴＩＯＮ合同会社,,合同会社,東京都,中央区,銀座１丁目１２番４号Ｎ＆Ｅ・ＢＬＤ．６Ｆ,,13,102,1040061,,,,,,,2023-01-25,1,,,,,ロウファウンデーション,0
2800,9010003039679,新規,0,2023-01-25,2023-01-25,ＬＥＭＯＮ合同会社,,合同会社,東京都,中央区,月島４丁目２番１７－６０７号,,13,102,1040052,,,,,,,2023-01-25,1,,,,,レモン,0
2806,9010401172065,新規,0,2023-01-25,2023-01-25,ＤＣＹホールディングス株式会社,,株式会社,東京都,港区,浜松町１丁目１２－５,,13,103,1050013,,,,,,,2023-01-25,1,,,,,ディーシーワイホールディングス,0
2809,9010403029362,新規,0,2023-01-25,2023-01-25,ＪＰ　ＰＯＲＴ合同会社,,合同会社,東京都,港区,赤坂４丁目８番１９号赤坂フロントタウン３階赤坂アントレサロン,,13,103,1070052,,,,,,,2023-01-25,1,,,,,ジェイピーポート,0
2810,9010403029370,新規,0,2023-01-25,2023-01-25,ザ・サクシード合同会社,,合同会社,東京都,港区,三田１丁目６番３－２５０４号,,13,103,1080073,,,,,,,2023-01-25,1,,,,,ザサクシード,0
2811,9010405021763,新規,0,2023-01-25,2023-01-25,一般社団法人Ｍｉｇｏｌｉ,,その他の設立登記法人,東京都,港区,虎ノ門３丁目２２番１０－２０１号,,13,103,1050001,,,,,,,2023-01-25,1,,,,,ミゴリ,0
2819,9010501049907,新規,0,2023-01-25,2023-01-25,株式会社アイスイノベーション,,株式会社,東京都,台東区,松が谷４丁目２７番２号,,13,106,1110036,,,,,,,2023-01-25,1,,,,,アイスイノベーション,0
2823,9010703006557,新規,0,2023-01-25,2023-01-25,合同会社電雲邊縁計算研究所,,合同会社,東京都,品川区,西五反田２丁目１９－１２五反田井門ビル,,13,109,1410031,,,,,,,2023-01-25,1,,,,,デンウンヘンエンケイサンケンキュウジョ,0
2837,9011001152085,新規,0,2023-01-25,2023-01-25,スワン＆ライオンダイニング株式会社,,株式会社,東京都,目黒区,中目黒５丁目８番５号,,13,110,1530061,,,,,,,2023-01-25,1,,,,,スワンアンドライオンダイニング,0
2840,9011003016081,新規,0,2023-01-25,2023-01-25,合同会社Ｙ＆Ｓ,,合同会社,東京都,渋谷区,代々木５丁目３５番８－２０２号,,13,113,1510053,,,,,,,2023-01-25,1,,,,,ワイアンドエス,0
2851,9011101101586,新規,0,2023-01-25,2023-01-25,Ｂａｒｂｅｒ　Ｈｏｕｓｅ　Ｌａｖｉｅ株式会社,,株式会社,東京都,新宿区,舟町１番地１３スリーオークスビル１階,,13,104,1600006,,,,,,,2023-01-25,1,,,,,バーバーハウスラヴィ,0
2852,9011101101628,新規,0,2023-01-25,2023-01-25,株式会社Ｚｕｓｔ,,株式会社,東京都,新宿区,西新宿３丁目３－１３西新宿水間ビル６階,,13,104,1600023,,,,,,,2023-01-25,1,,,,,ジャスト,0
2861,9011501028900,新規,0,2023-01-25,2023-01-25,株式会社川森,,株式会社,東京都,北区,田端新町１丁目７－１４ビズフィールド西日暮里３０８号,,13,117,1140012,,,,,,,2023-01-25,1,,,,,カワモリ,0
2870,9012703002627,新規,0,2023-01-25,2023-01-25,合同会社みな神,,合同会社,東京都,東村山市,恩多町１丁目４１番地２６,,13,213,1890011,,,,,,,2023-01-25,1,,,,,ミナカミ,0
2874,9013301050241,新規,0,2023-01-25,2023-01-25,歩堂株式会社,,株式会社,東京都,豊島区,東池袋１丁目３１－１３ライオンズマンション東池袋第３－０５０４,,13,116,1700013,,,,,,,2023-01-25,1,,,,,アユミドウ,0
2907,9020001149958,新規,0,2023-01-25,2023-01-25,株式会社ラキノア,,株式会社,神奈川県,横浜市港北区,新吉田町２４３,,14,109,2230056,,,,,,,2023-01-25,1,,,,,ラキノア,0
2908,9020001149966,新規,0,2023-01-25,2023-01-25,株式会社ペンタプランニング,,株式会社,神奈川県,横浜市磯子区,下町９番１号,,14,107,2350004,,,,,,,2023-01-25,1,,,,,ペンタプランニング,0
2909,9020001149974,新規,0,2023-01-25,2023-01-25,株式会社ｏｎｅ’ｓ　ｔｈｉｎｇ,,株式会社,神奈川県,横浜市金沢区,釜利谷西６丁目３６番５号,,14,108,2360046,,,,,,,2023-01-25,1,,,,,ワンズシング,0
2933,9020003023161,新規,0,2023-01-25,2023-01-25,合同会社ＤＡＤＳＯＮ,,合同会社,神奈川県,横浜市磯子区,岡村６丁目３番７号,,14,107,2350021,,,,,,,2023-01-25,1,,,,,ダッドサン,0
2936,9021001078016,新規,0,2023-01-25,2023-01-25,株式会社Ｊ．Ｉ．ＬＥＡＨＹ．ｃｏ,,株式会社,神奈川県,横須賀市,汐入町２丁目５２番地宮下ハウス,,14,201,2380042,,,,,,,2023-01-25,1,,,,,ジェイアイリーヒ,0
2944,9030001151954,新規,0,2023-01-25,2023-01-25,Ｘ‐ＭＡＴＥＲＩＡＬ株式会社,,株式会社,埼玉県,桶川市,大字川田谷５７４５番地の１,,11,231,3630027,,,,,,,2023-01-25,1,,,,,エックスマテリアル,0
2945,9030001152077,新規,0,2023-01-25,2023-01-25,栄慧株式会社,,株式会社,埼玉県,ふじみ野市,上野台１丁目４番１－５２２号,,11,245,3560017,,,,,,,2023-01-25,1,,,,,サカエ,0
2946,9030001152085,新規,0,2023-01-25,2023-01-25,株式会社新井くんちの農園,,株式会社,埼玉県,深谷市,櫛引７０番地４,,11,218,3660815,,,,,,,2023-01-25,1,,,,,アライクンチノノウエン,0
2947,9030001152102,新規,0,2023-01-25,2023-01-25,アストロ建設株式会社,,株式会社,埼玉県,さいたま市岩槻区,南平野４丁目１２番地７,,11,110,3390051,,,,,,,2023-01-25,1,,,,,アストロケンセツ,0
2952,9030003021024,新規,0,2023-01-25,2023-01-25,啓航商事合同会社,,合同会社,埼玉県,川口市,西川口４丁目１３番２５号,,11,203,3320021,,,,,,,2023-01-25,1,,,,,ケイコウショウジ,0
2953,9030005021121,新規,0,2023-01-25,2023-01-25,労働者協同組合ワーカーズコープＳｉｉ,,その他の設立登記法人,埼玉県,草加市,西町５６３番地５,,11,221,3400035,,,,,,,2023-01-25,1,,,,,ワーカーズコープシイ,0
2956,9040001126765,新規,0,2023-01-25,2023-01-25,株式会社ＭＡＮＪＩＮ,,株式会社,千葉県,習志野市,実籾６丁目１１番８号,,12,216,2750002,,,,,,,2023-01-25,1,,,,,マンジン,0
2957,9040001126773,新規,0,2023-01-25,2023-01-25,株式会社ヤマダ酒販,,株式会社,千葉県,市原市,光風台４丁目２７４番地,,12,219,2900255,,,,,,,2023-01-25,1,,,,,ヤマダシュハン,0
2958,9040001126781,新規,0,2023-01-25,2023-01-25,株式会社ＡＲＡＴＡ,,株式会社,千葉県,千葉市中央区,大巌寺町３３８番地,,12,101,2600812,,,,,,,2023-01-25,1,,,,,アラタ,0
2961,9040003021642,新規,0,2023-01-25,2023-01-25,合同会社辰三郎,,合同会社,千葉県,千葉市若葉区,千城台北１丁目２８番１１号,,12,104,2640005,,,,,,,2023-01-25,1,,,,,タツサブロウ,0
2963,9040003021758,新規,0,2023-01-25,2023-01-25,合同会社Ａ‐ｐｌａｎ,,合同会社,千葉県,松戸市,高塚新田１１５番地の３１,,12,207,2702222,,,,,,,2023-01-25,1,,,,,エープラン,0
2964,9040003021766,新規,0,2023-01-25,2023-01-25,合同会社Ｕ,,合同会社,千葉県,松戸市,八ケ崎３丁目７３番地の１２,,12,207,2700023,,,,,,,2023-01-25,1,,,,,ユー,0
2965,9040003021774,新規,0,2023-01-25,2023-01-25,ＲＭプレミアムモータース合同会社,,合同会社,千葉県,山武市,横田８４番地１０,,12,237,2891226,,,,,,,2023-01-25,1,,,,,アールエムプレミアムモータース,0
3016,9120001251943,新規,0,2023-01-25,2023-01-25,ＹＣ株式会社,,株式会社,大阪府,大阪市中央区,瓦屋町２丁目１２番７－２０１号,,27,128,5420066,,,,,,,2023-01-25,1,,,,,ワイシー,0
3017,9120001251951,新規,0,2023-01-25,2023-01-25,株式会社伊藤,,株式会社,大阪府,大阪市港区,築港３丁目３番１－１１３３号,,27,107,5520021,,,,,,,2023-01-25,1,,,,,イトウ,0
3018,9120001252000,新規,0,2023-01-25,2023-01-25,株式会社ヒロ空調,,株式会社,大阪府,枚方市,田口山３丁目２９番２３号,,27,210,5730001,,,,,,,2023-01-25,1,,,,,ヒロクウチョウ,0
3019,9120001252009,新規,0,2023-01-25,2023-01-25,株式会社Ｅｓｐｅｒａｎｚａ,,株式会社,大阪府,大阪市天王寺区,生玉寺町３－３２谷九夕陽丘ビル２階,,27,109,5430073,,,,,,,2023-01-25,1,,,,,エスペランサ,0
3023,9120003023325,新規,0,2023-01-25,2023-01-25,ソラマメ合同会社,,合同会社,大阪府,大阪市北区,梅田１丁目１－３大阪駅前第３ビル２９階１－１－１号室,,27,127,5300001,,,,,,,2023-01-25,1,,,,,ソラマメ,0
3024,9120003023333,新規,0,2023-01-25,2023-01-25,合同会社大野工業,,合同会社,大阪府,交野市,幾野３丁目４番１６号,,27,230,5760054,,,,,,,2023-01-25,1,,,,,オオノコウギョウ,0
3025,9120005023422,新規,0,2023-01-25,2023-01-25,医療法人くにしげレディースクリニック,,その他の設立登記法人,大阪府,大阪市西成区,天下茶屋３丁目１８番１６号グランドメゾン１階,,27,122,5570014,,,,,,,2023-01-25,1,,,,,クニシゲレディースクリニック,0
3030,9130001073560,新規,0,2023-01-25,2023-01-25,スギノエイチ株式会社,,株式会社,京都府,京都市下京区,中堂寺南町１３４番地,,26,106,6008813,,,,,,,2023-01-25,1,,,,,スギノエイチ,0
3035,9140001128867,新規,0,2023-01-25,2023-01-25,株式会社Ｋアセットプランニング,,株式会社,兵庫県,神戸市垂水区,塩屋町３丁目３番４号,,28,108,6550872,,,,,,,2023-01-25,1,,,,,ケーアセットプランニング,0
3041,9140003018595,新規,0,2023-01-25,2023-01-25,合同会社匠人比撒列,,合同会社,兵庫県,神戸市兵庫区,新開地２丁目６番７号,,28,105,6520811,,,,,,,2023-01-25,1,,,,,ショウジンヒサレ,0
3043,9150001026129,新規,0,2023-01-25,2023-01-25,株式会社みやび設計,,株式会社,奈良県,北葛城郡河合町,泉台３丁目２３－１３,,29,427,6360091,,,,,,,2023-01-25,1,,,,,ミヤビセッケイ,0
3053,9180001154686,新規,0,2023-01-25,2023-01-25,モリコウ株式会社,,株式会社,愛知県,一宮市,多加木４丁目３０番４６号,,23,203,4910837,,,,,,,2023-01-25,1,,,,,モリコウ,0
3059,9190001030119,新規,0,2023-01-25,2023-01-25,Ｆメンテナンス株式会社,,株式会社,三重県,鈴鹿市,若松東２丁目２３番１４号,,24,207,5100225,,,,,,,2023-01-25,1,,,,,エフメンテナンス,0
3071,9240001061001,新規,0,2023-01-25,2023-01-25,インスマート株式会社,,株式会社,広島県,呉市,広白岳１丁目２番２号,,34,202,7370144,,,,,,,2023-01-25,1,,,,,インスマート,0
3082,9290001100324,新規,0,2023-01-25,2023-01-25,ＪＲ九州ホテルマネジメント株式会社,,株式会社,福岡県,福岡市博多区,博多駅前３丁目２５番２１号,,40,132,8120011,,,,,,,2023-01-25,1,,,,,ジェイアールキュウシュウホテルマネジメント,0
3083,9290001100332,新規,0,2023-01-25,2023-01-25,Ｌｉｏインベストメント株式会社,,株式会社,福岡県,福岡市城南区,鳥飼４丁目１番３８－１号,,40,136,8140103,,,,,,,2023-01-25,1,,,,,リオインベストメント,0
3090,9310001018233,新規,0,2023-01-25,2023-01-25,株式会社湯浅空調,,株式会社,長崎県,佐世保市,下船越町５２５番地,,42,202,8571232,,,,,,,2023-01-25,1,,,,,ユアサクウチョウ,0
3093,9320001019536,新規,0,2023-01-25,2023-01-25,みらいのかたち株式会社,,株式会社,大分県,大分市,舞鶴町１丁目２番１７－２０１号,,44,201,8700044,,,,,,,2023-01-25,1,,,,,ミライノカタチ,0
3094,9330003009690,新規,0,2023-01-25,2023-01-25,合同会社シチケン,,合同会社,熊本県,菊池市,七城町清水４番地９,,43,210,8611341,,,,,,,2023-01-25,1,,,,,シチケン,0
3095,9340003004030,新規,0,2023-01-25,2023-01-25,合同会社薩摩藩ドットコム,,合同会社,鹿児島県,鹿児島市,伊敷台４丁目２７－８,,46,201,8900007,,,,,,,2023-01-25,1,,,,,サツマハンドットコム,0
3096,9350001018147,新規,0,2023-01-25,2023-01-25,株式会社やまさき,,株式会社,宮崎県,宮崎市,清武町新町２丁目８－１０,,45,201,8891611,,,,,,,2023-01-25,1,,,,,ヤマサキ,0
3107,9370001049512,新規,0,2023-01-25,2023-01-25,株式会社カタヅケヤ,,株式会社,宮城県,仙台市泉区,館１丁目１５番地の１１,,04,105,9813214,,,,,,,2023-01-25,1,,,,,カタヅケヤ,0
3118,9420003002653,新規,0,2023-01-25,2023-01-25,合同会社山口技興,,合同会社,青森県,八戸市,大字市川町字稲荷後３８番地２,,02,203,0392241,,,,,,,2023-01-25,1,,,,,ヤマグチギコウ,0
3121,9430003014664,新規,0,2023-01-25,2023-01-25,合同会社フォータス,,合同会社,北海道,札幌市手稲区,星置一条１丁目４番２１号,,01,109,0060851,,,,,,,2023-01-25,1,,,,,フォータス,0
3124,9470003002335,新規,0,2023-01-25,2023-01-25,合同会社Ｂｕｇｓ　Ｗｏｒｋｅｒｓ,,合同会社,香川県,高松市,木太町３７０５番地５,,37,201,7600080,,,,,,,2023-01-25,1,,,,,バグズワーカース,0
3128,9480001011989,新規,0,2023-01-25,2023-01-25,株式会社ＵＺＵ　ＡＲＴＳ,,株式会社,徳島県,鳴門市,撫養町立岩字七枚１１３番地３,,36,202,7720017,,,,,,,2023-01-25,1,,,,,ウズアーツ,0
3139,9500001024740,新規,0,2023-01-25,2023-01-25,株式会社ｃａｒ　ａｃｅ,,株式会社,愛媛県,松山市,久万ノ台１２７番地１,,38,201,7918016,,,,,,,2023-01-25,1,,,,,カーエース,0
3141,9700150113943,新規,0,2023-01-25,2023-01-25,Ｓｈｅｎｚｈｅｎ　Ｈｕｉｊｉａ　Ｔｅｃｈｎｏｌｏｇｉｅｓ,,外国会社等,,,,,,,,４Ｆ－０３，Ｂｌｏｃｋ　２，Ｎｏ．２１５　Ｂａｉｍｅｎｑｉａｎ　Ｉｎｄｕｓｔｒｉａｌ　Ｐａｒｋ　Ｂｕｓｈａ　Ｒｏａｄ，Ｎａｎｗａｎ　Ｓｔｒｅｅｔ，Ｌｏｎｇｇａｎｇ　Ｄｉｓｔｒｉｃｔ，ＣＮ,,,,,,2023-01-25,1,,,,,シンセンシリカカギ,0
3142,9700150113951,新規,0,2023-01-25,2023-01-25,ＮＩＰＰＯＮ　ＬＥＡＤ　ＰＶＴ　ＬＴＤ,,外国会社等,千葉県,東金市,三ケ尻５－４,,12,213,2830832,スリランカ民主社会主義共和国、マヒヤンガナ、パディヤタラワロード、ニューマーケットコンプレックス、Ｎｏ．０９,,,,,,2023-01-25,1,,,,,ニツポンリードプライベートリミテツド,0
