sequenceNumber,corporateNumber,process,correct,updateDate,changeDate,name,nameImageId,kind,prefectureName,cityName,streetNumber,addressImageId,prefectureCode,cityCode,postCode,addressOutside,addressOutsideImageId,closeDate,closeCause,successorCorporateNumber,changeCause,assignmentDate,latest,enName,enPrefectureName,enCityName,enAddressOutside,furigana,hihyoji
17,1010001237275,新規,0,2023-08-02,2023-08-02,株式会社Ｌｉｃｅｓｓ,,株式会社,東京都,中央区,日本橋室町１丁目１１番１２号日本橋水野ビル７階,,13,102,1030022,,,,,,,2023-08-02,1,,,,,リセス,0
18,1010001237390,新規,0,2023-08-02,2023-08-02,株式会社インプレシオ,,株式会社,東京都,千代田区,三番町５番地１０シエルトーレ三番町１００３号,,13,101,1020075,,,,,,,2023-08-02,1,,,,,インプレシオ,0
29,1010401176024,新規,0,2023-08-02,2023-08-02,三源商事株式会社,,株式会社,東京都,港区,虎ノ門５丁目３－１虎ノ門４０ＭＴビル７階,,13,103,1050001,,,,,,,2023-08-02,1,,,,,サンゲンショウジ,0
30,1010401176057,新規,0,2023-08-02,2023-08-02,株式会社スムージースタジオ,,株式会社,東京都,港区,南麻布４丁目１３番１０号コスモリード南麻布レジデンス３０３,,13,103,1060047,,,,,,,2023-08-02,1,,,,,スムージースタジオ,0
31,1010401176065,新規,0,2023-08-02,2023-08-02,ＢＴＶ　ＪＡＰＡＮ株式会社,,株式会社,東京都,港区,元麻布３丁目１番６号,,13,103,1060046,,,,,,,2023-08-02,1,,,,,ビーティーヴィージャパン,0
33,1010403030617,新規,0,2023-08-02,2023-08-02,チュラワン合同会社,,合同会社,東京都,港区,赤坂１丁目１２番３２号アーク森ビル２２階,,13,103,1070052,,,,,,,2023-08-02,1,,,,,チュラワン,0
46,1010801034203,新規,0,2023-08-02,2023-08-02,株式会社キッチングッズ,,株式会社,東京都,大田区,多摩川１丁目１７番１４号,,13,111,1460095,,,,,,,2023-08-02,1,,,,,キッチングッズ,0
49,1010901053524,新規,0,2023-08-02,2023-08-02,株式会社ヒガシスパイス,,株式会社,東京都,世田谷区,上馬２丁目３２－８,,13,112,1540011,,,,,,,2023-08-02,1,,,,,ヒガシスパイス,0
55,1011001155871,新規,0,2023-08-02,2023-08-02,ＡＬＩＣＥ　ＰＬＡＮＮＩＮＧ株式会社,,株式会社,東京都,渋谷区,道玄坂１丁目１０番８号渋谷道玄坂東急ビル２Ｆ－Ｃ,,13,113,1500043,,,,,,,2023-08-02,1,,,,,アリスプランニング,0
56,1011001155995,新規,0,2023-08-02,2023-08-02,株式会社ストラーユ,,株式会社,東京都,渋谷区,円山町５番５号Ｎａｖｉ渋谷Ｖ３階,,13,113,1500044,,,,,,,2023-08-02,1,,,,,ストラーユ,0
59,1011103013325,新規,0,2023-08-02,2023-08-02,ＮＯＡ　ｓｔｙｌｅパートナーズ合同会社,,合同会社,東京都,新宿区,西新宿８丁目１９番２号西新宿ＴＫビル４階,,13,104,1600023,,,,,,,2023-08-02,1,,,,,ノアスタイルパートナーズ,0
62,1011401025336,新規,0,2023-08-02,2023-08-02,株式会社大山ＢＡＳＥ,,株式会社,東京都,板橋区,幸町１６－１３,,13,119,1730034,,,,,,,2023-08-02,1,,,,,オオヤマベース,0
63,1011501029567,新規,0,2023-08-02,2023-08-02,株式会社邦金,,株式会社,東京都,荒川区,東尾久１丁目２７番２号,,13,118,1160012,,,,,,,2023-08-02,1,,,,,ホウキン,0
64,1011501029591,新規,0,2023-08-02,2023-08-02,株式会社ラキスト,,株式会社,東京都,北区,豊島２丁目９番６－４０１号グラントゥルース王子,,13,117,1140003,,,,,,,2023-08-02,1,,,,,ラキスト,0
65,1011503005698,新規,0,2023-08-02,2023-08-02,合同会社ＷＷ,,合同会社,東京都,荒川区,西尾久８丁目１２番９号,,13,118,1160011,,,,,,,2023-08-02,1,,,,,ダブリューダブリュー,0
66,1011601027017,新規,0,2023-08-02,2023-08-02,株式会社ビーブリッジ,,株式会社,東京都,練馬区,旭町１丁目７番４号,,13,120,1790071,,,,,,,2023-08-02,1,,,,,ビーブリッジ,0
71,1011803005761,新規,0,2023-08-02,2023-08-02,ＴＫ合同会社,,合同会社,東京都,葛飾区,堀切５丁目９番３グランデール秋山２０３,,13,122,1240006,,,,,,,2023-08-02,1,,,,,ティーケイ,0
94,1021001079772,新規,0,2023-08-02,2023-08-02,株式会社湘南アシスト管理,,株式会社,神奈川県,藤沢市,白旗２丁目１６番８号,,14,205,2510051,,,,,,,2023-08-02,1,,,,,ショウナンアシストカンリ,0
97,1021003013366,新規,0,2023-08-02,2023-08-02,合同会社エスコート,,合同会社,神奈川県,藤沢市,藤沢４８４－１藤沢アンバービル４階,,14,205,2510052,,,,,,,2023-08-02,1,,,,,エスコート,0
103,1030001154915,新規,0,2023-08-02,2023-08-02,株式会社スマイルホーム,,株式会社,埼玉県,春日部市,南１丁目１４番地２８号,,11,214,3440064,,,,,,,2023-08-02,1,,,,,スマイルホーム,0
110,1040001129429,新規,0,2023-08-02,2023-08-02,吉量商事株式会社,,株式会社,千葉県,船橋市,湊町２丁目１番１９号ルミエール船橋１０５－Ｃ,,12,204,2730011,,,,,,,2023-08-02,1,,,,,キチリョウショウジ,0
111,1040001129461,新規,0,2023-08-02,2023-08-02,株式会社フライフラッグ,,株式会社,千葉県,千葉市花見川区,花園１丁目１９番１１号田村ビル２０１号,,12,102,2620025,,,,,,,2023-08-02,1,,,,,フライフラッグ,0
117,1050001053215,新規,0,2023-08-02,2023-08-02,ＴＯＫＹＯ　ＳＡＫＥ　ＯＦ　ＶＡＬＵＥ株式会社,,株式会社,茨城県,日立市,森山町２丁目１－４２（３Ｆ）,,08,202,3160025,,,,,,,2023-08-02,1,,,,,トウキョウサケオブバリュー,0
118,1050001053223,新規,0,2023-08-02,2023-08-02,株式会社リエートコーポレーション,,株式会社,茨城県,つくば市,二の宮３丁目７番地２キャサＩ棟１０１号,00131368,08,220,3050051,,,,,,,2023-08-02,1,,,,,リエートコーポレーション,0
119,1050001053231,新規,0,2023-08-02,2023-08-02,株式会社ＫＳＫ,,株式会社,茨城県,つくば市,榎戸８０７番地２２,,08,220,3050853,,,,,,,2023-08-02,1,,,,,ケイエスケイ,0
122,1060005010120,新規,0,2023-08-02,2023-08-02,特定非営利活動法人チームネクスト,,その他の設立登記法人,栃木県,宇都宮市,富士見が丘１丁目２０番３号,,09,201,3200011,,,,,,,2023-08-02,1,,,,,チームネクスト,0
125,1080001025764,新規,0,2023-08-02,2023-08-02,貫薗工業株式会社,,株式会社,静岡県,静岡市葵区,神明町４５番地の１,,22,101,4200009,,,,,,,2023-08-02,1,,,,,ヌキゾノコウギョウ,0
126,1080001025772,新規,0,2023-08-02,2023-08-02,株式会社平田建設工業,,株式会社,静岡県,静岡市清水区,三保１７７２番地の２,,22,103,4240901,,,,,,,2023-08-02,1,,,,,ヒラタケンセツコウギョウ,0
140,1120001256925,新規,0,2023-08-02,2023-08-02,株式会社フスレン,,株式会社,大阪府,大阪市西成区,鶴見橋１丁目４番２４号ＧａｒｄｅｎＭａｎｓｉｏｎ３０１,,27,122,5570031,,,,,,,2023-08-02,1,,,,,フスレン,0
143,1120003024603,新規,0,2023-08-02,2023-08-02,ＮＡＮＡ＆Ｔ合同会社,,合同会社,大阪府,大阪市淀川区,十三元今里２丁目２番５号,,27,123,5320028,,,,,,,2023-08-02,1,,,,,ナナアンドティー,0
147,1120101067966,新規,0,2023-08-02,2023-08-02,株式会社アドック,,株式会社,大阪府,泉北郡忠岡町,忠岡中１丁目６番１０号,,27,341,5950812,,,,,,,2023-08-02,1,,,,,アドック,0
149,1120103005354,新規,0,2023-08-02,2023-08-02,ビジクリ・パートナーズ合同会社,,合同会社,大阪府,大阪狭山市,狭山２丁目１０５０－２０３,,27,231,5890005,,,,,,,2023-08-02,1,,,,,ビジクリパートナーズ,0
154,1122003002638,新規,0,2023-08-02,2023-08-02,ＩＴＴＥＦＡＱ　ＥＮＴＥＲＰＲＩＳＥＳ合同会社,,合同会社,大阪府,東大阪市,衣摺１丁目８－２０リバティーライフ２１１号,,27,227,5770827,,,,,,,2023-08-02,1,,,,,イテファクエンタープライズ,0
155,1130001074839,新規,0,2023-08-02,2023-08-02,株式会社あやべ,,株式会社,京都府,京都市右京区,太秦一ノ井町１７番地８,,26,108,6168107,,,,,,,2023-08-02,1,,,,,アヤベ,0
167,1180001157341,新規,0,2023-08-02,2023-08-02,株式会社ルイテック,,株式会社,愛知県,知多郡阿久比町,大字草木字新田前３２番地１３,,23,441,4702211,,,,,,,2023-08-02,1,,,,,ルイテック,0
168,1180001157366,新規,0,2023-08-02,2023-08-02,株式会社Ｊａｐａｎ　Ｕｚ　Ｔｒａｄｅ　Ｈｏｕｓｅ,,株式会社,愛知県,名古屋市東区,東片端町２３番地東片端サンコービル５階,,23,102,4610015,,,,,,,2023-08-02,1,,,,,ジャパンウズトレードハウス,0
169,1180001157390,新規,0,2023-08-02,2023-08-02,株式会社ＴＮ建総,,株式会社,愛知県,あま市,花長茶木島２１番地３,,23,237,4901204,,,,,,,2023-08-02,1,,,,,ティーエヌケンソウ,0
170,1180001157399,新規,0,2023-08-02,2023-08-02,株式会社オフィスヒビノ,,株式会社,愛知県,春日井市,石尾台５丁目９番地１３,,23,206,4870006,,,,,,,2023-08-02,1,,,,,オフィスヒビノ,0
177,1180003025538,新規,0,2023-08-02,2023-08-02,合同会社Ｂｒｉｇｈｔｌｙ,,合同会社,愛知県,尾張旭市,旭ケ丘町旭ケ丘５６２４番地１,,23,226,4880083,,,,,,,2023-08-02,1,,,,,ブライトリー,0
178,1180003025546,新規,0,2023-08-02,2023-08-02,良か余花合同会社,,合同会社,愛知県,豊明市,新田町錦１１番地３３,,23,229,4701113,,,,,,,2023-08-02,1,,,,,ヨカヨカ,0
181,1190001030621,新規,0,2023-08-02,2023-08-02,株式会社Ｓ‐ｒａｙ,,株式会社,三重県,桑名市,長島町大倉１７番地１７,,24,205,5111112,,,,,,,2023-08-02,1,,,,,エスレイ,0
189,1240001061909,新規,0,2023-08-02,2023-08-02,トラスト株式会社,,株式会社,広島県,福山市,山手町６丁目１９－２８,,34,207,7200092,,,,,,,2023-08-02,1,,,,,,0
193,1250003003321,新規,0,2023-08-02,2023-08-02,関門ＬＩＫＥ合同会社,,合同会社,山口県,下関市,生野町２丁目２９番８号,,35,201,7510832,,,,,,,2023-08-02,1,,,,,カンモンライク,0
194,1250005008847,新規,0,2023-08-02,2023-08-02,中小企業連携協同組合Ｓｈｉｎｇａｒｉ,,その他の設立登記法人,山口県,下関市,竹崎町４丁目４番１０号大丸下関店７階ＪＯＩＮ０８３株式会社リージョナルマネジメント内,,35,201,7500025,,,,,,,2023-08-02,1,,,,,チュウショウキギョウレンケイシンガリ,0
195,1260001038153,新規,0,2023-08-02,2023-08-02,株式会社アライド,,株式会社,岡山県,岡山市北区,清輝橋１丁目７番２６号１４５ビル,,33,101,7000861,,,,,,,2023-08-02,1,,,,,アライド,0
196,1260003004368,新規,0,2023-08-02,2023-08-02,合同会社暎開,,合同会社,岡山県,小田郡矢掛町,東川面１５９０,,33,461,7141223,,,,,,,2023-08-02,1,,,,,エイカイ,0
199,1290001102468,新規,0,2023-08-02,2023-08-02,スターズコネクト株式会社,,株式会社,福岡県,福岡市東区,香住ヶ丘６丁目３７番１２－６号,,40,131,8130003,,,,,,,2023-08-02,1,,,,,スターズコネクト,0
200,1290001102484,新規,0,2023-08-02,2023-08-02,Ａｎｃｈｏｒ株式会社,,株式会社,福岡県,福岡市中央区,天神４丁目６－２８天神ファーストビル７階,,40,133,8100001,,,,,,,2023-08-02,1,,,,,アンカー,0
201,1290001102492,新規,0,2023-08-02,2023-08-02,株式会社ノア,,株式会社,福岡県,福岡市西区,愛宕４丁目１番２３－２０１号,,40,135,8190015,,,,,,,2023-08-02,1,,,,,ノア,0
223,1370001050238,新規,0,2023-08-02,2023-08-02,クレセント株式会社,,株式会社,宮城県,仙台市太白区,鈎取１丁目１番１号,,04,104,9820804,,,,,,,2023-08-02,1,,,,,クレセント,0
233,1430001089609,新規,0,2023-08-02,2023-08-02,株式会社さいとう,,株式会社,北海道,苫小牧市,澄川町７丁目１２番８号,,01,213,0591271,,,,,,,2023-08-02,1,,,,,サイトウ,0
238,1430005014744,新規,0,2023-08-02,2023-08-02,光昌寺,,その他の設立登記法人,北海道,小樽市,望洋台２丁目３１番１６号,,01,203,0470155,,,,,,,2023-08-02,1,,,,,コウショウジ,0
239,1430005014752,新規,0,2023-08-02,2023-08-02,行政書士法人明正法務,,その他の設立登記法人,北海道,札幌市中央区,北五条西２４丁目３番１号,,01,101,0600005,,,,,,,2023-08-02,1,,,,,メイセイホウム,0
242,1490001010551,新規,0,2023-08-02,2023-08-02,株式会社ＫＭコーポレーション,,株式会社,高知県,高知市,仁井田１６１７番地１９,,39,201,7810112,,,,,,,2023-08-02,1,,,,,ケーエムコーポレーション,0
247,1500001025093,新規,0,2023-08-02,2023-08-02,栗原装飾株式会社,,株式会社,愛媛県,松山市,別府町７７２番地８,,38,201,7918056,,,,,,,2023-08-02,1,,,,,クリハラソウショク,0
248,1700150118719,新規,0,2023-08-02,2023-08-02,Ｓｈｅｎｚｈｅｎ　Ｑｕａｎｈｅ　Ｔｅｃｈｎｏｌｏｇｙ　Ｃｏ．，ｌｔｄ,,外国会社等,,,,,,,,ｂａｏａｎｑｕｘｉｘｉａｎｇｊｉｅｄａｏ　ｑｉａｎｊｉｎｅｒｌｕｔａｏｙｕａｎｊｕ１１ｑｕ２ｄｏｎｇ２ｄａｎｙｕａｎ１４Ｂ　Ｓｈｅｎｚｈｅｎ　Ｇｕａｎｇｄｏｎｇ　ＣＮ,,,,,,2023-08-02,1,,,,,シンセンツェンヘテクノロジーカンパニーリミテッド,0
253,2010001237349,新規,0,2023-08-02,2023-08-02,株式会社Ｓ,,株式会社,東京都,千代田区,神田鍛冶町３丁目７－２１－２０２,,13,101,1010045,,,,,,,2023-08-02,1,,,,,エス,0
268,2010401176031,新規,0,2023-08-02,2023-08-02,株式会社アンドスマイルラボ,,株式会社,東京都,港区,赤坂２丁目１０番１６号赤坂スクエアビル５階,,13,103,1070052,,,,,,,2023-08-02,1,,,,,アンドスマイルラボ,0
269,2010401176072,新規,0,2023-08-02,2023-08-02,Ｃ‐ｚｅｒｏ株式会社,,株式会社,東京都,港区,西新橋１丁目１８番１１号ル・グラシエルＢＬＤＧ．１６－９階,,13,103,1050003,,,,,,,2023-08-02,1,,,,,シーゼロ,0
270,2010401176114,新規,0,2023-08-02,2023-08-02,ＪＩＣＣ‐０３株式会社,,株式会社,東京都,港区,虎ノ門１丁目３番１号,,13,103,1050001,,,,,,,2023-08-02,1,,,,,ジェイアイシーシーゼロサン,0
272,2010403030582,新規,0,2023-08-02,2023-08-02,合同会社Ｓ＆Ｒ,,合同会社,東京都,港区,赤坂２丁目６番１５－８０５号,,13,103,1070052,,,,,,,2023-08-02,1,,,,,エスアール,0
273,2010403030590,新規,0,2023-08-02,2023-08-02,合同会社Ｒｉｓｅｒｅ,,合同会社,東京都,港区,南麻布３丁目２１番１４－７１３号,,13,103,1060047,,,,,,,2023-08-02,1,,,,,リセレ,0
282,2010603010277,新規,0,2023-08-02,2023-08-02,Ｔｕｔｔｉ合同会社,,合同会社,東京都,墨田区,千歳１丁目６－６ミライア両国森下７０１,,13,107,1300025,,,,,,,2023-08-02,1,,,,,トゥッティ,0
292,2010903008351,新規,0,2023-08-02,2023-08-02,エンスージアズム合同会社,,合同会社,東京都,世田谷区,若林２丁目３３番７号若林ハウス４０２,,13,112,1540023,,,,,,,2023-08-02,1,,,,,エンスージアズム,0
302,2011001155978,新規,0,2023-08-02,2023-08-02,株式会社ラクラボ,,株式会社,東京都,渋谷区,幡ヶ谷１丁目１番１号幡ヶ谷プラザビル２階,,13,113,1510072,,,,,,,2023-08-02,1,,,,,ラクラボ,0
303,2011001156043,新規,0,2023-08-02,2023-08-02,株式会社エンポーリオ,,株式会社,東京都,渋谷区,神宮前６丁目２３番４号桑野ビル２階,,13,113,1500001,,,,,,,2023-08-02,1,,,,,エンポーリオ,0
308,2011101103853,新規,0,2023-08-02,2023-08-02,リフォームアズ株式会社,,株式会社,東京都,新宿区,西新宿３丁目３番１３号西新宿水間ビル２Ｆ,,13,104,1600023,,,,,,,2023-08-02,1,,,,,リフォームアズ,0
313,2011501029599,新規,0,2023-08-02,2023-08-02,株式会社ＺＴＲＥＡＤ,,株式会社,東京都,荒川区,南千住４丁目９番２－９１５号,,13,118,1160003,,,,,,,2023-08-02,1,,,,,ズィトレッド,0
316,2011601027016,新規,0,2023-08-02,2023-08-02,東成株式会社,,株式会社,東京都,練馬区,関町北５丁目６番７号関町マンション３０２Ａ,,13,120,1770051,,,,,,,2023-08-02,1,,,,,トウセイ,0
322,2011801042797,新規,0,2023-08-02,2023-08-02,株式会社ｃｏｃｏｐａｒｉ,,株式会社,東京都,葛飾区,奥戸９丁目２番１２号,,13,122,1240022,,,,,,,2023-08-02,1,,,,,ココパリ,0
323,2011803005760,新規,0,2023-08-02,2023-08-02,ファミリアジャパン合同会社,,合同会社,東京都,足立区,新田３丁目３６ハートアイランド新田一番街３‐１６０１,,13,121,1230865,,,,,,,2023-08-02,1,,,,,ファミリアジャパン,0
324,2011803005769,新規,0,2023-08-02,2023-08-02,Ｂｉ‐ＨＯＮＥＳＴ合同会社,,合同会社,東京都,葛飾区,東四つ木２丁目１２番２２号,,13,122,1240014,,,,,,,2023-08-02,1,,,,,ビーオネスト,0
326,2012803003143,新規,0,2023-08-02,2023-08-02,合同会社ＵＲＢＡＮ　ＰＡＴＣＨ,,合同会社,東京都,立川市,錦町５丁目７－１５プレシス立川２０８,,13,202,1900022,,,,,,,2023-08-02,1,,,,,アーバンパッチ,0
330,2020001152621,新規,0,2023-08-02,2023-08-02,株式会社日本ブリッジ,,株式会社,神奈川県,横浜市中区,桜木町１丁目１０１番地１クロスゲート７階,,14,104,2310062,,,,,,,2023-08-02,1,,,,,ニホンブリッジ,0
341,2021001079722,新規,0,2023-08-02,2023-08-02,株式会社エメラルド,,株式会社,神奈川県,海老名市,河原口１丁目２６番１－１３０４号ファーストリンクレジデンス,,14,215,2430433,,,,,,,2023-08-02,1,,,,,エメラルド,0
342,2021001079755,新規,0,2023-08-02,2023-08-02,シーケートレーディング株式会社,,株式会社,神奈川県,鎌倉市,御成町６番１２号,,14,204,2480012,,,,,,,2023-08-02,1,,,,,シーケートレーディング,0
353,2030001154930,新規,0,2023-08-02,2023-08-02,株式会社ＷＫ基工,,株式会社,埼玉県,三郷市,早稲田５丁目５番地２６ライオンズマンション三郷第５－４０１号,,11,237,3410018,,,,,,,2023-08-02,1,,,,,ダブリューケーキコウ,0
360,2040001129411,新規,0,2023-08-02,2023-08-02,株式会社ＹＵＭＯ,,株式会社,千葉県,松戸市,小金原９丁目５番地の１３,,12,207,2700021,,,,,,,2023-08-02,1,,,,,ユーモ,0
364,2040003023042,新規,0,2023-08-02,2023-08-02,３ＳＩＳＴＥＲ’Ｓ合同会社,,合同会社,千葉県,市川市,新田４丁目１６番１号ハイム市川２０１号室,,12,203,2720035,,,,,,,2023-08-02,1,,,,,スリーシスターズ,0
372,2050001053214,新規,0,2023-08-02,2023-08-02,株式会社平良工業,,株式会社,茨城県,神栖市,神栖４丁目１１番６号,,08,232,3140143,,,,,,,2023-08-02,1,,,,,タイラコウギョウ,0
373,2050001053222,新規,0,2023-08-02,2023-08-02,株式会社谷田川電設,,株式会社,茨城県,鉾田市,樅山５７６番地１４４,,08,234,3111426,,,,,,,2023-08-02,1,,,,,ヤタガワデンセツ,0
374,2050001053230,新規,0,2023-08-02,2023-08-02,株式会社中村牧場,,株式会社,茨城県,水戸市,鯉淵町５６８３番地の３,,08,201,3190323,,,,,,,2023-08-02,1,,,,,ナカムラボクジョウ,0
382,2070001040689,新規,0,2023-08-02,2023-08-02,たかさき新電力株式会社,,株式会社,群馬県,高崎市,問屋町２丁目７番地８高崎商工会議所ビル,,10,202,3700006,,,,,,,2023-08-02,1,,,,,タカサキシンデンリョク,0
383,2070003005046,新規,0,2023-08-02,2023-08-02,合同会社ａｒａｔａ,,合同会社,群馬県,前橋市,上大島町４３７番地２,,10,201,3792153,,,,,,,2023-08-02,1,,,,,アラタ,0
387,2080103002859,新規,0,2023-08-02,2023-08-02,合同会社サンクフルネス,,合同会社,静岡県,伊東市,湯川３丁目１番２号,,22,208,4140002,,,,,,,2023-08-02,1,,,,,サンクフルネス,0
388,2080105006354,新規,0,2023-08-02,2023-08-02,税理士法人みらいタックス,,その他の設立登記法人,静岡県,富士市,依田橋町５番５号,,22,210,4170003,,,,,,,2023-08-02,1,,,,,ミライタックス,0
404,2120001256759,新規,0,2023-08-02,2023-08-02,ＩＲＪ株式会社,,株式会社,大阪府,大阪市東成区,大今里西３丁目１１番３‐１００３号,,27,115,5370014,,,,,,,2023-08-02,1,,,,,アイアールジェイ,0
405,2120001256874,新規,0,2023-08-02,2023-08-02,株式会社ａｎｅｕ,,株式会社,大阪府,大阪市中央区,心斎橋筋２丁目２－１３宝山心斎橋ビル３０１,,27,128,5420085,,,,,,,2023-08-02,1,,,,,アヌエ,0
409,2120101067981,新規,0,2023-08-02,2023-08-02,株式会社森廣,00131371,株式会社,大阪府,堺市美原区,小平尾７９５番地１,,27,147,5870021,,,,,,,2023-08-02,1,,,,,モリヒロ,0
422,2130001074862,新規,0,2023-08-02,2023-08-02,株式会社マキマシンツール販売,,株式会社,京都府,長岡京市,奥海印寺北垣外１０番地ジラソーレ１０２,,26,209,6170853,,,,,,,2023-08-02,1,,,,,マキマシンツールハンバイ,0
433,2140001131043,新規,0,2023-08-02,2023-08-02,株式会社Ｈｅｒｏｅｓ　ｎｅｘｔ,,株式会社,兵庫県,明石市,林崎町２丁目５番７号,,28,203,6730033,,,,,,,2023-08-02,1,,,,,ヒーローズネクスト,0
434,2140001131051,新規,0,2023-08-02,2023-08-02,株式会社水津,,株式会社,兵庫県,伊丹市,寺本５丁目３７番地１サンハイム村上２０１号,,28,207,6640026,,,,,,,2023-08-02,1,,,,,スイヅ,0
436,2140003019369,新規,0,2023-08-02,2023-08-02,２Ｌ合同会社,,合同会社,兵庫県,神戸市中央区,中町通３丁目１番１６号５０２,,28,110,6500027,,,,,,,2023-08-02,1,,,,,ツウル,0
448,2180001157365,新規,0,2023-08-02,2023-08-02,ＧＥＮＥＺ株式会社,,株式会社,愛知県,名古屋市中区,栄４丁目９番１０号,,23,106,4600008,,,,,,,2023-08-02,1,,,,,ジーンズ,0
449,2180001157373,新規,0,2023-08-02,2023-08-02,株式会社はるひメディカルホールディングス,,株式会社,愛知県,北名古屋市,熊之庄古井７１番地２,,23,234,4810006,,,,,,,2023-08-02,1,,,,,ハルヒメディカルホールディングス,0
457,2190001030620,新規,0,2023-08-02,2023-08-02,株式会社鈴浩企画,,株式会社,三重県,鈴鹿市,安塚町８５０番地,,24,207,5130818,,,,,,,2023-08-02,1,,,,,スズヒロキカク,0
464,2240001061882,新規,0,2023-08-02,2023-08-02,株式会社道しるべ,,株式会社,広島県,三原市,宗郷３丁目９番４１号,,34,204,7230044,,,,,,,2023-08-02,1,,,,,ミチシルベ,0
472,2250001020219,新規,0,2023-08-02,2023-08-02,株式会社Ｏｔｔｉ,,株式会社,山口県,山口市,名田島１９５,,35,203,7540892,,,,,,,2023-08-02,1,,,,,オッティ,0
476,2290001102434,新規,0,2023-08-02,2023-08-02,株式会社ナチュラルリソース,,株式会社,福岡県,朝倉市,菩提寺５７７番地２,,40,228,8380061,,,,,,,2023-08-02,1,,,,,ナチュラルリソース,0
479,2290003014181,新規,0,2023-08-02,2023-08-02,Ｔｏｋｉｔｏ．ｉｎｔ合同会社,,合同会社,福岡県,福岡市南区,塩原３丁目２２番１７－４０３号,,40,134,8150032,,,,,,,2023-08-02,1,,,,,トキトウ,0
488,2290805009668,新規,0,2023-08-02,2023-08-02,ＮＰＯ法人サイエンスエデュケイドジャパン,,その他の設立登記法人,福岡県,北九州市戸畑区,新池１丁目８番１５－２１０号,,40,105,8040082,,,,,,,2023-08-02,1,,,,,サイエンスエデュケイドジャパン,0
492,2330003009920,新規,0,2023-08-02,2023-08-02,合同会社Ｓ＆Ｓ,,合同会社,熊本県,熊本市中央区,横手３丁目２２番１７号,,43,101,8600046,,,,,,,2023-08-02,1,,,,,エスアンドエス,0
493,2340001025761,新規,0,2023-08-02,2023-08-02,株式会社ＭＴＦ,,株式会社,鹿児島県,鹿児島市,東千石町１番２６号フォリス観光ビル天文館７階,,46,201,8920842,,,,,,,2023-08-02,1,,,,,エムティエフ,0
500,2360003013168,新規,0,2023-08-02,2023-08-02,合同会社Ｓｅｒａ,,合同会社,沖縄県,うるま市,与那城平安座５０５番地－１０３,,47,213,9042426,,,,,,,2023-08-02,1,,,,,セラ,0
515,2400003003123,新規,0,2023-08-02,2023-08-02,合同会社アリトレーディング,,合同会社,岩手県,奥州市,衣川九輪堂５番地１,,03,215,0294424,,,,,,,2023-08-02,1,,,,,アリトレーディング,0
522,2430003015297,新規,0,2023-08-02,2023-08-02,合同会社装建,,合同会社,北海道,滝川市,中島町５丁目６番１号,,01,225,0730035,,,,,,,2023-08-02,1,,,,,ソウケン,0
524,2430005014751,新規,0,2023-08-02,2023-08-02,弁護士法人佐々木法律事務所,,その他の設立登記法人,北海道,札幌市中央区,北四条西４丁目１番地７ＭＭＳ札幌駅前ビル３階,,01,101,0600004,,,,,,,2023-08-02,1,,,,,ササキホウリツジムショ,0
525,2460003000957,新規,0,2023-08-02,2023-08-02,合同会社ＯＮＥ,,合同会社,北海道,釧路市,柳町１３‐１,,01,206,0850037,,,,,,,2023-08-02,1,,,,,ワン,0
529,2500001025092,新規,0,2023-08-02,2023-08-02,株式会社ＫＭ,,株式会社,愛媛県,松山市,津吉町５０７番地,,38,201,7911122,,,,,,,2023-08-02,1,,,,,ケイエム,0
533,2700150118718,新規,0,2023-08-02,2023-08-02,Ｓｈｅｎｚｈｅｎｓｈｉ　Ｘｉｎｙａｏｈｕｏ　Ｍａｏｙｉ　Ｙｏｕｘｉａｎ　Ｇｏｎｇｓｉ,,外国会社等,,,,,,,,Ｌｕｏｈｕｑｕ　Ｎａｎｈｕｊｉｅｄａｏ　Ｈｏｎｇｇｕｉｌｕ　Ｆｅｎｇｇｅｍ　ｉｎｇｙｕａｎ　Ａ　ｄｏｎｇ　１３Ｅ　ＳＨＥＮＺＨＥＮ　ＧＵＡＮＧＤＯＮＧ　ＣＮ,,,,,,2023-08-02,1,,,,,シンセンシシンヤオホウオマオイユウゲンコウシ,0
551,3010005037018,新規,0,2023-08-02,2023-08-02,Ｍ＆Ｃ　Ｓａｋｕｒａ特定目的会社,,その他の設立登記法人,東京都,中央区,銀座１丁目６番１１号土志田ビルディング３Ｆ,,13,102,1040061,,,,,,,2023-08-02,1,,,,,エムアンドシーサクラ,0
565,3010401175908,新規,0,2023-08-02,2023-08-02,株式会社プロモーション,,株式会社,東京都,港区,南青山３丁目１８番１１号ヴァンセットビル３Ｆ,,13,103,1070062,,,,,,,2023-08-02,1,,,,,プロモーション,0
566,3010401176088,新規,0,2023-08-02,2023-08-02,株式会社セルズテック,,株式会社,東京都,港区,六本木２丁目２番６号福吉町ビル６Ｆ,,13,103,1060032,,,,,,,2023-08-02,1,,,,,セルズテック,0
568,3010403030598,新規,0,2023-08-02,2023-08-02,ＡＭＢプロパティ合同会社,,合同会社,東京都,港区,北青山２丁目１２番３７－３０１号,,13,103,1070061,,,,,,,2023-08-02,1,,,,,エービーエムプロパティ,0
569,3010403030623,新規,0,2023-08-02,2023-08-02,胡桃オペレーションズ合同会社,,合同会社,東京都,港区,西新橋１丁目１番１号ＥＰコンサルティングサービス内,,13,103,1050003,,,,,,,2023-08-02,1,,,,,クルミオペレーションズ,0
574,3010701044647,新規,0,2023-08-02,2023-08-02,株式会社介護ＤＸ,,株式会社,東京都,品川区,西五反田２丁目１８番２号,,13,109,1410031,,,,,,,2023-08-02,1,,,,,カイゴディーエックス,0
589,3011001155977,新規,0,2023-08-02,2023-08-02,株式会社ＬＩＦＥＲＩＰＧ,,株式会社,東京都,渋谷区,幡ヶ谷１丁目５－１エヴァーグリーン２０３,,13,113,1510072,,,,,,,2023-08-02,1,,,,,ライフリップジー,0
590,3011001156042,新規,0,2023-08-02,2023-08-02,株式会社ＴｅｃｈＳｅｅｋｅｒ,,株式会社,東京都,渋谷区,神泉町１０番１５号,,13,113,1500045,,,,,,,2023-08-02,1,,,,,テックシーカー,0
592,3011003017283,新規,0,2023-08-02,2023-08-02,ＦＲＵＥ合同会社,,合同会社,東京都,渋谷区,神宮前６丁目２９番４号原宿ｋｏｍｉｙａビル６階,,13,113,1500001,,,,,,,2023-08-02,1,,,,,フルー,0
603,3011103013323,新規,0,2023-08-02,2023-08-02,合同会社カイロス,,合同会社,東京都,新宿区,四谷４丁目６番１－４０９号,,13,104,1600004,,,,,,,2023-08-02,1,,,,,カイロス,0
612,3011801042813,新規,0,2023-08-02,2023-08-02,株式会社モトバムレーシング,,株式会社,東京都,足立区,梅田５丁目５番３号,,13,121,1230851,,,,,,,2023-08-02,1,,,,,モトバムレーシング,0
613,3011801042821,新規,0,2023-08-02,2023-08-02,株式会社フェアリーズカントリー,,株式会社,東京都,足立区,千住１丁目４番１号東京芸術センター１０階,,13,121,1200034,,,,,,,2023-08-02,1,,,,,フェアリーズカントリー,0
615,3012403006090,新規,0,2023-08-02,2023-08-02,Ｄ４Ｆ合同会社,,合同会社,東京都,武蔵野市,境南町１丁目２８番１３号,,13,203,1800023,,,,,,,2023-08-02,1,,,,,ディーフォーエフ,0
619,3013303006734,新規,0,2023-08-02,2023-08-02,合同会社ＩＤサービス,,合同会社,東京都,豊島区,南池袋１丁目９番１８号,,13,116,1710022,,,,,,,2023-08-02,1,,,,,アイディーサービス,0
629,3021003013372,新規,0,2023-08-02,2023-08-02,明るい家計画合同会社,,合同会社,神奈川県,平塚市,豊田小嶺５３０番の１ローズガーデンＡ２０１,,14,203,2540083,,,,,,,2023-08-02,1,,,,,アカルイイエケイカク,0
630,3021005012868,新規,0,2023-08-02,2023-08-02,特定非営利活動法人綾瀬バラ会,,その他の設立登記法人,神奈川県,綾瀬市,吉岡３３５１番地,,14,218,2521124,,,,,,,2023-08-02,1,,,,,アヤセバラカイ,0
637,3030001154905,新規,0,2023-08-02,2023-08-02,Ｘ‐ＬＩＮＥ株式会社,,株式会社,埼玉県,越谷市,大間野町４丁目３２５番地６,,11,222,3430844,,,,,,,2023-08-02,1,,,,,エックスライン,0
638,3030001155242,新規,0,2023-08-02,2023-08-02,ピクシス・アドバイザーズ株式会社,,株式会社,埼玉県,東松山市,大字毛塚３６３番,,11,212,3550064,,,,,,,2023-08-02,1,,,,,ピクシスアドバイザーズ,0
649,3040001129410,新規,0,2023-08-02,2023-08-02,株式会社Ｍｉｇａｗａｒｉ,,株式会社,千葉県,松戸市,小金原９丁目５番地の１３,,12,207,2700021,,,,,,,2023-08-02,1,,,,,ミガワリ,0
650,3040001129468,新規,0,2023-08-02,2023-08-02,株式会社ＴＫサービス,,株式会社,千葉県,千葉市中央区,松ケ丘町４０－５フラワーヒルズ一番館３０２,,12,101,2600807,,,,,,,2023-08-02,1,,,,,ティーケーサービス,0
658,3050003007687,新規,0,2023-08-02,2023-08-02,合同会社牛頭,,合同会社,茨城県,つくば市,城山１４番地１１,,08,220,3001251,,,,,,,2023-08-02,1,,,,,ゴズ,0
659,3060001036200,新規,0,2023-08-02,2023-08-02,プラントマイスター株式会社,,株式会社,栃木県,小山市,東間々田２丁目１８番４号アーバンハイツ１０７号室,,09,208,3290206,,,,,,,2023-08-02,1,,,,,プラントマイスター,0
660,3060001036209,新規,0,2023-08-02,2023-08-02,株式会社Ｔ＆Ｃ　ＡＵＴＯ　ＰＡＲＴＳ,,株式会社,栃木県,下都賀郡壬生町,大字壬生乙１８５９番地１,,09,361,3210215,,,,,,,2023-08-02,1,,,,,ティーアンドシーオートパーツ,0
661,3060001036217,新規,0,2023-08-02,2023-08-02,良心工業株式会社,,株式会社,栃木県,宇都宮市,下小倉町４３６７番地５,,09,201,3210403,,,,,,,2023-08-02,1,,,,,リョウシンコウギョウ,0
668,3080103002866,新規,0,2023-08-02,2023-08-02,合同会社アイソムズジャパン,,合同会社,静岡県,田方郡函南町,平井１７５３‐１４４７,,22,325,4190107,,,,,,,2023-08-02,1,,,,,アイソムズジャパン,0
670,3080401026633,新規,0,2023-08-02,2023-08-02,株式会社ＴＭＴ,,株式会社,静岡県,磐田市,松之木島１８３３番地,,22,211,4380125,,,,,,,2023-08-02,1,,,,,ティーエムティー,0
671,3080401026641,新規,0,2023-08-02,2023-08-02,株式会社アドフレンド,,株式会社,静岡県,浜松市中区,高丘北４丁目８－３,,22,131,4338119,,,,,,,2023-08-02,1,,,,,アドフレンド,0
688,3120003024551,新規,0,2023-08-02,2023-08-02,卓越合同会社,,合同会社,大阪府,大阪市西区,九条南２丁目１６番１３号２０２室,,27,106,5500025,,,,,,,2023-08-02,1,,,,,タクエツ,0
689,3120003024592,新規,0,2023-08-02,2023-08-02,合同会社Ｒｅｇａｌｏ,,合同会社,大阪府,大阪市福島区,吉野４丁目９番２０－１５０６号,,27,103,5530006,,,,,,,2023-08-02,1,,,,,レガロ,0
690,3120003024618,新規,0,2023-08-02,2023-08-02,合同会社Ｔワークス,,合同会社,大阪府,大阪市中央区,谷町７丁目１－３９,,27,128,5420012,,,,,,,2023-08-02,1,,,,,ティーワークス,0
693,3120005023790,新規,0,2023-08-02,2023-08-02,一般社団法人船場倶楽部,,その他の設立登記法人,大阪府,大阪市中央区,伏見町２丁目２番３号伏見ビル１階,,27,128,5410044,,,,,,,2023-08-02,1,,,,,センバクラブ,0
695,3120101067972,新規,0,2023-08-02,2023-08-02,株式会社ＮＹＮ,,株式会社,大阪府,堺市中区,土塔町１３７－３,,27,142,5998234,,,,,,,2023-08-02,1,,,,,エヌワイエヌ,0
696,3120101067980,新規,0,2023-08-02,2023-08-02,株式会社Ｍｏｔｏ　Ｒｈｉｓｍ,,株式会社,大阪府,羽曳野市,野８０,,27,222,5830884,,,,,,,2023-08-02,1,,,,,モトリズム,0
701,3130003008883,新規,0,2023-08-02,2023-08-02,合同会社くくのち,,合同会社,京都府,木津川市,木津宮ノ内７７番地４,,26,214,6190214,,,,,,,2023-08-02,1,,,,,ククノチ,0
704,3140001130985,新規,0,2023-08-02,2023-08-02,株式会社ＮＫプラントテクノ,,株式会社,兵庫県,朝来市,和田山町枚田１１４４番地９、２Ｆ,,28,225,6695261,,,,,,,2023-08-02,1,,,,,エヌケープラントテクノ,0
705,3140001131050,新規,0,2023-08-02,2023-08-02,株式会社前川,,株式会社,兵庫県,神戸市中央区,海岸通６丁目１番１３－６０７号,,28,110,6500024,,,,,,,2023-08-02,1,,,,,マエカワ,0
707,3140003019368,新規,0,2023-08-02,2023-08-02,ビッグスマイル合同会社,,合同会社,兵庫県,尼崎市,三反田町２丁目１１番１５号,,28,202,6610024,,,,,,,2023-08-02,1,,,,,ビッグスマイル,0
715,3180001157372,新規,0,2023-08-02,2023-08-02,株式会社みのり,,株式会社,愛知県,北名古屋市,熊之庄山の前１５２番地,,23,234,4810006,,,,,,,2023-08-02,1,,,,,ミノリ,0
716,3180001157397,新規,0,2023-08-02,2023-08-02,市川経営ラボ株式会社,,株式会社,愛知県,名古屋市名東区,亀の井１丁目１７５番地,,23,115,4650094,,,,,,,2023-08-02,1,,,,,イチカワケイエイラボ,0
721,3180003025494,新規,0,2023-08-02,2023-08-02,ウェルリンク合同会社,,合同会社,愛知県,海部郡大治町,大字西條字壱町田４７－１ラスカラ４０１,,23,424,4901144,,,,,,,2023-08-02,1,,,,,ウェルリンク,0
722,3180003025536,新規,0,2023-08-02,2023-08-02,合同会社ＯＮＥ,,合同会社,愛知県,名古屋市中村区,名駅３丁目４番１０号アルティメイト名駅１ｓｔ２階,,23,105,4500002,,,,,,,2023-08-02,1,,,,,ワン,0
723,3180003025552,新規,0,2023-08-02,2023-08-02,合同会社Ｌｏｔｕｓ,,合同会社,愛知県,名古屋市千種区,東山元町４丁目６４番地（グリーンライフ東山３０１号）,,23,101,4640804,,,,,,,2023-08-02,1,,,,,ロータス,0
724,3180003025560,新規,0,2023-08-02,2023-08-02,合同会社ジー・アイ,,合同会社,愛知県,名古屋市中区,栄５丁目１２番３２号,,23,106,4600008,,,,,,,2023-08-02,1,,,,,ジーアイ,0
734,3200001041557,新規,0,2023-08-02,2023-08-02,ＨＯＴＢ株式会社,,株式会社,岐阜県,岐阜市,岩崎１丁目５番４号,,21,201,5020005,,,,,,,2023-08-02,1,,,,,ホットビー,0
748,3260001038168,新規,0,2023-08-02,2023-08-02,株式会社ルヴェニール,,株式会社,岡山県,岡山市北区,辰巳７番地の１０９エスコパークヒルズ問屋町１００４号,,33,101,7000976,,,,,,,2023-08-02,1,,,,,ルヴェニール,0
756,3290001102409,新規,0,2023-08-02,2023-08-02,株式会社ｍｏｒｇｅｎ　ｐｏｎｔｅホールディングス,,株式会社,福岡県,福岡市中央区,大名１丁目７番３号,,40,133,8100041,,,,,,,2023-08-02,1,,,,,モルゲンポンテホールディングス,0
759,3290801029743,新規,0,2023-08-02,2023-08-02,株式会社未来産業,,株式会社,福岡県,田川郡川崎町,大字田原１２８番地３７,,40,605,8270004,,,,,,,2023-08-02,1,,,,,ミライサンギョウ,0
764,3320001019913,新規,0,2023-08-02,2023-08-02,株式会社Ｋ．９４５,,株式会社,大分県,宇佐市,大字川部９４５番地,,44,211,8790452,,,,,,,2023-08-02,1,,,,,ケードットキュウヨンゴ,0
767,3340001025760,新規,0,2023-08-02,2023-08-02,株式会社ダイワボデー,,株式会社,鹿児島県,霧島市,溝辺町崎森２７２６番地５,,46,218,8996405,,,,,,,2023-08-02,1,,,,,ダイワボデー,0
768,3340003004192,新規,0,2023-08-02,2023-08-02,合同会社サンシャイン梶原,,合同会社,鹿児島県,志布志市,志布志町志布志９３４番地５,,46,221,8997103,,,,,,,2023-08-02,1,,,,,サンシャインカジハラ,0
774,3370001050236,新規,0,2023-08-02,2023-08-02,株式会社Ｔ＆Ｔ,,株式会社,宮城県,仙台市青葉区,向田３番３号,,04,101,9893215,,,,,,,2023-08-02,1,,,,,ティーアンドティー,0
779,3380003005526,新規,0,2023-08-02,2023-08-02,合同会社てとて,,合同会社,福島県,西白河郡西郷村,大字熊倉字東高山１番地２２７,,07,461,9618091,,,,,,,2023-08-02,1,,,,,テトテ,0
781,3390001017332,新規,0,2023-08-02,2023-08-02,株式会社ＩＴＯＫＥＮ,,株式会社,山形県,山形市,大字漆山４１０９番地２,,06,201,9902161,,,,,,,2023-08-02,1,,,,,イトケン,0
788,3420003002766,新規,0,2023-08-02,2023-08-02,トレーフル合同会社,,合同会社,青森県,三戸郡田子町,大字田子字小沼１３番地１,,02,443,0390201,,,,,,,2023-08-02,1,,,,,トレーフル,0
789,3430001089623,新規,0,2023-08-02,2023-08-02,パンプキンハウス株式会社,,株式会社,北海道,室蘭市,山手町１丁目１３番地５,,01,205,0510012,,,,,,,2023-08-02,1,,,,,パンプキンハウス,0
790,3430001089631,新規,0,2023-08-02,2023-08-02,株式会社ＷＥＶ,,株式会社,北海道,札幌市北区,北三十一条西７丁目５番１０号２階,,01,102,0010031,,,,,,,2023-08-02,1,,,,,ウェブ,0
791,3430003015296,新規,0,2023-08-02,2023-08-02,合同会社ＳＥＡＬｓ,,合同会社,北海道,札幌市北区,新琴似九条１５丁目１０－１２カーサエテルナ２０２号,,01,102,0010909,,,,,,,2023-08-02,1,,,,,シールズ,0
792,3430003015305,新規,0,2023-08-02,2023-08-02,合同会社ゆうき,,合同会社,北海道,札幌市手稲区,曙二条５丁目１４番１０号,00131376,01,109,0060832,,,,,,,2023-08-02,1,,,,,ユウキ,0
800,3480001012159,新規,0,2023-08-02,2023-08-02,株式会社角地水産,00131377,株式会社,徳島県,海部郡美波町,阿部字西谷２２４番地,,36,387,7792106,,,,,,,2023-08-02,1,,,,,スミジスイサン,0
804,3500001025100,新規,0,2023-08-02,2023-08-02,株式会社ありびお,,株式会社,愛媛県,松山市,三津３丁目４番６０号,,38,201,7918061,,,,,,,2023-08-02,1,,,,,アリビオ,0
806,3500003003070,新規,0,2023-08-02,2023-08-02,合同会社ＭＡＲＫ,,合同会社,愛媛県,伊予郡松前町,大字北川原９２２番地３,,38,401,7913131,,,,,,,2023-08-02,1,,,,,マーク,0
809,3700150118717,新規,0,2023-08-02,2023-08-02,ｈｕｎａｎ　ｄａｏｚｈｅｎｇ　ｄｉａｎｚｉｓｈａｎｇｗｕ　ｙｏｕｘｉａｎｇｏｎｇｓｉ,,外国会社等,,,,,,,,ｓｈｉｇｕｑｕｃｈｕａｎｓｈａｎｌｕ３２１ｈａｏｘｉｈｕｇｕａｎｇｃｈａｎｇ２００５ｓｈｉ　ｈｅｎｇｙａｎｇｓｈｉ　ｈｕｎａｎｓｈｅｎｇ　ＣＮ,,,,,,2023-08-02,1,,,,,フナンダオヂェンデンシショウムユウゲンコウシ,0
815,4010003041235,新規,0,2023-08-02,2023-08-02,Ａｃｔｉｏｎ合同会社,,合同会社,東京都,中央区,日本橋兜町１７番１号日本橋ロイヤルプラザ７０６,,13,102,1030026,,,,,,,2023-08-02,1,,,,,アクション,0
821,4010401176046,新規,0,2023-08-02,2023-08-02,株式会社ニュータイムズテック,,株式会社,東京都,港区,芝大門１丁目１０番１１号芝大門センタービル１０Ｆ,,13,103,1050012,,,,,,,2023-08-02,1,,,,,ニュータイムズテック,0
822,4010401176054,新規,0,2023-08-02,2023-08-02,株式会社Ｃｌｉｍｂｅｒｓ,,株式会社,東京都,港区,芝公園１丁目２番１０号ロジマン芝公園１０１,,13,103,1050011,,,,,,,2023-08-02,1,,,,,クライマーズ,0
823,4010401176062,新規,0,2023-08-02,2023-08-02,株式会社ナナイロ・エンタープライズ,,株式会社,東京都,港区,北青山１丁目３番１号アールキューブ青山３階,,13,103,1070061,,,,,,,2023-08-02,1,,,,,ナナイロエンタープライズ,0
826,4010501050737,新規,0,2023-08-02,2023-08-02,Ｎｅｘｕｓ　ＡＩ株式会社,,株式会社,東京都,台東区,駒形２丁目７番４号駒形ビル１階,,13,106,1110043,,,,,,,2023-08-02,1,,,,,ネクサスエーアイ,0
829,4010601063523,新規,0,2023-08-02,2023-08-02,易貿国際日本株式会社,,株式会社,東京都,江東区,木場５丁目１番５号メイプルハイム木場Ｂ１１４室,,13,108,1350042,,,,,,,2023-08-02,1,,,,,エキボウコクサイニホン,0
839,4010801034200,新規,0,2023-08-02,2023-08-02,株式会社トリニア,,株式会社,東京都,大田区,山王２丁目５番６号,,13,111,1430023,,,,,,,2023-08-02,1,,,,,トリニア,0
843,4011001156009,新規,0,2023-08-02,2023-08-02,株式会社Ａｋａｓｈｉｃ　Ｒｅｃｏｒｄｓ５８,,株式会社,東京都,渋谷区,代官山町８番９号,,13,113,1500034,,,,,,,2023-08-02,1,,,,,アカシックレコードゴジュウハチ,0
844,4011001156041,新規,0,2023-08-02,2023-08-02,株式会社ＬＯＯＰＺ　ＳＱＵＡＤ　ｄｅｓｉｇｎ,,株式会社,東京都,渋谷区,神宮前３丁目１４番１７号神宮苑１０２,,13,113,1500001,,,,,,,2023-08-02,1,,,,,ループススクワッドデザイン,0
845,4011001156090,新規,0,2023-08-02,2023-08-02,株式会社ワンダースタッフ,,株式会社,東京都,渋谷区,恵比寿南１丁目１３番１号,,13,113,1500022,,,,,,,2023-08-02,1,,,,,ワンダースタッフ,0
847,4011003017290,新規,0,2023-08-02,2023-08-02,合同会社ＹＩＩＴ,,合同会社,東京都,渋谷区,道玄坂１丁目１０番８号渋谷道玄坂東急ビル２Ｆ－Ｃ,,13,113,1500043,,,,,,,2023-08-02,1,,,,,イート,0
853,4011403004070,新規,0,2023-08-02,2023-08-02,合同会社ｓｎａｌｌ　ｖａｒｌｄ,,合同会社,東京都,板橋区,熊野町５番７－７０１号,,13,119,1730025,,,,,,,2023-08-02,1,,,,,スネイルヴァールド,0
855,4011601027014,新規,0,2023-08-02,2023-08-02,株式会社陸一,,株式会社,東京都,練馬区,立野町３０番６号母力吉祥寺北２０５,,13,120,1770054,,,,,,,2023-08-02,1,,,,,リクイチ,0
863,4012401040801,新規,0,2023-08-02,2023-08-02,紀乃電社株式会社,,株式会社,東京都,狛江市,駒井町１丁目３６番１４号,,13,219,2010016,,,,,,,2023-08-02,1,,,,,キノデンシャ,0
868,4013301051104,新規,0,2023-08-02,2023-08-02,ＲＯＢＵＳＴＵＳ株式会社,,株式会社,東京都,豊島区,巣鴨１丁目１７番３号２０４室,,13,116,1700002,,,,,,,2023-08-02,1,,,,,ロブストス,0
874,4020001152710,新規,0,2023-08-02,2023-08-02,株式会社エンマージ,,株式会社,神奈川県,横浜市青葉区,荏田西３丁目１４－８,,14,117,2250014,,,,,,,2023-08-02,1,,,,,エンマージ,0
878,4020003024271,新規,0,2023-08-02,2023-08-02,Ｊａｐａｎ　Ｎａｕｔｉｃａｌ　Ｔｗｉｌｉｇｈｔ合同会社,,合同会社,神奈川県,横浜市中区,桜木町１丁目１０１番地１－７階,,14,104,2310062,,,,,,,2023-08-02,1,,,,,ジャパンノーティカルトワイライト,0
884,4021001079729,新規,0,2023-08-02,2023-08-02,株式会社梅田電気工事,,株式会社,神奈川県,藤沢市,長後６０７番地,,14,205,2520801,,,,,,,2023-08-02,1,,,,,ウメダデンキコウジ,0
885,4021001079753,新規,0,2023-08-02,2023-08-02,株式会社エムプランニング,,株式会社,神奈川県,小田原市,本町２丁目３番３４号,,14,206,2500012,,,,,,,2023-08-02,1,,,,,エムプランニング,0
909,4050001053229,新規,0,2023-08-02,2023-08-02,祐颯Ｈ．Ｄ．Ｓ株式会社,,株式会社,茨城県,古河市,上片田６５８番地,,08,204,3060128,,,,,,,2023-08-02,1,,,,,チハヤエイチディエス,0
911,4060001036216,新規,0,2023-08-02,2023-08-02,株式会社ＡＢＥ　ＨＯＬＩＣ,,株式会社,栃木県,宇都宮市,下荒針町３４０９番地,,09,201,3210346,,,,,,,2023-08-02,1,,,,,アベホリック,0
912,4060001036224,新規,0,2023-08-02,2023-08-02,株式会社コシネル,,株式会社,栃木県,宇都宮市,上大曽町４８９番地５,,09,201,3200013,,,,,,,2023-08-02,1,,,,,コシネル,0
915,4070001040687,新規,0,2023-08-02,2023-08-02,株式会社ＫＨＲ,,株式会社,群馬県,伊勢崎市,国定町１丁目４８番地１,,10,204,3792221,,,,,,,2023-08-02,1,,,,,ケーエイチアール,0
916,4070001040695,新規,0,2023-08-02,2023-08-02,株式会社一八,,株式会社,群馬県,甘楽郡甘楽町,大字白倉５９１番地１２,,10,384,3702213,,,,,,,2023-08-02,1,,,,,イチハ,0
917,4070001040704,新規,0,2023-08-02,2023-08-02,株式会社玄冬,,株式会社,群馬県,利根郡みなかみ町,川上１２２番地３,,10,449,3791616,,,,,,,2023-08-02,1,,,,,ゲントウ,0
924,4080003003022,新規,0,2023-08-02,2023-08-02,合同会社のぞみ,,合同会社,静岡県,静岡市駿河区,丸子６丁目６番６号４番－１,,22,102,4210103,,,,,,,2023-08-02,1,,,,,ノゾミ,0
929,4080401026640,新規,0,2023-08-02,2023-08-02,株式会社モントレゾール,,株式会社,静岡県,浜松市西区,志都呂１丁目１２番１９号,,22,133,4328069,,,,,,,2023-08-02,1,,,,,モントレゾール,0
935,4090003002361,新規,0,2023-08-02,2023-08-02,合同会社尚友興業,,合同会社,山梨県,甲府市,宮原町４１番地２,,19,201,4000058,,,,,,,2023-08-02,1,,,,,ショウユウコウギョウ,0
938,4100001036632,新規,0,2023-08-02,2023-08-02,真聖技建株式会社,,株式会社,長野県,岡谷市,川岸東１丁目８番３６号,,20,204,3940045,,,,,,,2023-08-02,1,,,,,シンセイギケン,0
939,4100001036640,新規,0,2023-08-02,2023-08-02,株式会社ＣＯＮ,,株式会社,長野県,松本市,中条１３番８号,,20,202,3900816,,,,,,,2023-08-02,1,,,,,シーオーエヌ,0
943,4110005016976,新規,0,2023-08-02,2023-08-02,特定非営利活動法人上越スポーツラボＤＥＷ,,その他の設立登記法人,新潟県,上越市,寺町３丁目８番３２号,,15,222,9430892,,,,,,,2023-08-02,1,,,,,ジョウエツスポーツラボデュウ,0
954,4120003024567,新規,0,2023-08-02,2023-08-02,合同会社ＩＫ,,合同会社,大阪府,大阪市西区,江之子島２丁目１番３７－８１２号,,27,106,5500006,,,,,,,2023-08-02,1,,,,,アイケー,0
965,4130001074828,新規,0,2023-08-02,2023-08-02,星蘊株式会社,,株式会社,京都府,京都市下京区,中堂寺北町３３番地４７－２０１号,,26,106,6008812,,,,,,,2023-08-02,1,,,,,セイウン,0
970,4140001130984,新規,0,2023-08-02,2023-08-02,株式会社ＮＫグループ,,株式会社,兵庫県,朝来市,和田山町枚田１１４４番地９,,28,225,6695261,,,,,,,2023-08-02,1,,,,,エヌケーグループ,0
974,4150001026587,新規,0,2023-08-02,2023-08-02,株式会社リリオンテ,,株式会社,奈良県,奈良市,学園大和町４丁目２１２,,29,201,6310041,,,,,,,2023-08-02,1,,,,,リリオンテ,0
975,4170001017709,新規,0,2023-08-02,2023-08-02,株式会社フューチャー・カルティベーション,,株式会社,和歌山県,和歌山市,島２６番地６,,30,201,6496314,,,,,,,2023-08-02,1,,,,,フューチャーカルティベーション,0
978,4180001157330,新規,0,2023-08-02,2023-08-02,ケイセイ機械工具株式会社,,株式会社,愛知県,名古屋市緑区,滝ノ水４丁目２１０５番地,,23,114,4580021,,,,,,,2023-08-02,1,,,,,ケイセイキカイコウグ,0
979,4180001157371,新規,0,2023-08-02,2023-08-02,７２８株式会社,,株式会社,愛知県,名古屋市中区,富士見町６番５号シティオ上前津１１０１号,,23,106,4600014,,,,,,,2023-08-02,1,,,,,セブントゥーエイト,0
980,4180001157388,新規,0,2023-08-02,2023-08-02,株式会社ひととじゅう,,株式会社,愛知県,小牧市,大字間々原新田９７８番地,,23,219,4850016,,,,,,,2023-08-02,1,,,,,ヒトトジュウ,0
987,4180003025551,新規,0,2023-08-02,2023-08-02,合同会社おぐり,,合同会社,愛知県,名古屋市北区,城東町４丁目８２番地,,23,103,4620831,,,,,,,2023-08-02,1,,,,,オグリ,0
991,4190001030619,新規,0,2023-08-02,2023-08-02,株式会社城南,,株式会社,三重県,桑名市,大字江場四丁目３７０番地５,,24,205,5110836,,,,,,,2023-08-02,1,,,,,ジョウナン,0
996,4200003006037,新規,0,2023-08-02,2023-08-02,合同会社ボアブ,,合同会社,岐阜県,岐阜市,芋島２丁目１１番２０号,,21,201,5008234,,,,,,,2023-08-02,1,,,,,ボアブ,0
1007,4240001061889,新規,0,2023-08-02,2023-08-02,株式会社２８ｓｔｙｌｅ,,株式会社,広島県,広島市西区,三篠町３丁目１６－２５藤井ビル３０１,,34,104,7330003,,,,,,,2023-08-02,1,,,,,ニハチスタイル,0
1012,4250003003319,新規,0,2023-08-02,2023-08-02,合同会社Ｅｓ．９,,合同会社,山口県,下関市,三河町３番１２号フォルトゥーナ１０１号,,35,201,7510821,,,,,,,2023-08-02,1,,,,,エスナイン,0
1016,4260001038167,新規,0,2023-08-02,2023-08-02,株式会社プラス,,株式会社,岡山県,岡山市北区,伊島町２丁目１２番３４号,,33,101,7000016,,,,,,,2023-08-02,1,,,,,プラス,0
1020,4290001102440,新規,0,2023-08-02,2023-08-02,株式会社ｌｉｆｉｘ,,株式会社,福岡県,筑紫野市,紫７丁目９番１３－Ｆ２０２号,,40,217,8180061,,,,,,,2023-08-02,1,,,,,リフィックス,0
1028,4290801029742,新規,0,2023-08-02,2023-08-02,株式会社ビーケアフル,,株式会社,福岡県,北九州市小倉北区,日明４丁目６番３０－５０９,,40,106,8030831,,,,,,,2023-08-02,1,,,,,ビーケアフル,0
1039,4320001019912,新規,0,2023-08-02,2023-08-02,株式会社中津からあげ総本家もり山,,株式会社,大分県,中津市,大字大新田４２３番地１,,44,203,8710001,,,,,,,2023-08-02,1,,,,,ナカツカラアゲソウホンケモリヤマ,0
1040,4320003004136,新規,0,2023-08-02,2023-08-02,合同会社ヴォーグテラス,,合同会社,大分県,大分市,にじが丘３丁目８番地の２,,44,201,8700874,,,,,,,2023-08-02,1,,,,,ヴォーグテラス,0
1041,4340001025768,新規,0,2023-08-02,2023-08-02,株式会社今福技建,,株式会社,鹿児島県,霧島市,隼人町内山田３丁目２２番１１号,,46,218,8995106,,,,,,,2023-08-02,1,,,,,イマフクギケン,0
1050,4370001050227,新規,0,2023-08-02,2023-08-02,株式会社るび,,株式会社,宮城県,仙台市青葉区,花京院１丁目４番２５号,,04,101,9800013,,,,,,,2023-08-02,1,,,,,ルビ,0
1052,4370005010664,新規,0,2023-08-02,2023-08-02,特定非営利活動法人あしたのカーシェア,,その他の設立登記法人,宮城県,石巻市,駅前北通り１丁目５番２３号,,04,202,9860813,,,,,,,2023-08-02,1,,,,,アシタノカーシェア,0
1068,4400001016331,新規,0,2023-08-02,2023-08-02,株式会社ひとてまケア盛岡,,株式会社,岩手県,盛岡市,門１丁目２０番１５号,,03,201,0200823,,,,,,,2023-08-02,1,,,,,ヒトテマケアモリオカ,0
1073,4430001089606,新規,0,2023-08-02,2023-08-02,オシノ企画株式会社,,株式会社,北海道,札幌市東区,北十四条東８丁目２番５号,,01,103,0650014,,,,,,,2023-08-02,1,,,,,オシノキカク,0
1074,4430001089614,新規,0,2023-08-02,2023-08-02,株式会社佐々木暖房設備,,株式会社,北海道,石狩郡当別町,太美町２０９４番地９６,,01,303,0613776,,,,,,,2023-08-02,1,,,,,ササキダンボウセツビ,0
1075,4430001089639,新規,0,2023-08-02,2023-08-02,株式会社菜和総合研究所,,株式会社,北海道,石狩市,樽川八条１丁目２２６番地,,01,235,0613258,,,,,,,2023-08-02,1,,,,,サワソウゴウケンキュウショ,0
1078,4430003015295,新規,0,2023-08-02,2023-08-02,合同会社Ｍａｋｉｎｇ　Ｖｉｌｌ,,合同会社,北海道,札幌市白石区,本通５丁目北２－１６,,01,104,0030027,,,,,,,2023-08-02,1,,,,,メイキングビル,0
1079,4440001009298,新規,0,2023-08-02,2023-08-02,株式会社興和,,株式会社,北海道,二海郡八雲町,東雲町２４番地９８,,01,346,0493105,,,,,,,2023-08-02,1,,,,,コウワ,0
1082,4480001012158,新規,0,2023-08-02,2023-08-02,デライトワーク株式会社,,株式会社,徳島県,徳島市,北矢三町４丁目８０番地１４,,36,201,7700006,,,,,,,2023-08-02,1,,,,,デライトワーク,0
1083,4490001010549,新規,0,2023-08-02,2023-08-02,株式会社みんぷろ,,株式会社,高知県,高知市,針木東町２７番２８号,,39,201,7808086,,,,,,,2023-08-02,1,,,,,ミンプロ,0
1088,4700150118716,新規,0,2023-08-02,2023-08-02,Ｍｏｍａｘ　Ｔｅｃｈｎｏｌｏｇｙ　（ｓｈｅｎｚｈｅｎ）　Ｌｔｄ，,,外国会社等,,,,,,,,Ｒｏｏｍ　７０９，Ｆｕｃｈｕｎ　Ｄｏｎｇｆａｎｇ　Ｂｕｉｌｄｉｎｇ，Ｘｉａｎｇｌｉｎ　Ｒｏａｄ　Ｆｕｔｉａｎ　Ｄｉｓｔｒｉｃｔ　Ｓｈｅｎｚｈｅｎ　Ｇｕａｎｇｄｏｎｇ,,,,,,2023-08-02,1,,,,,モマクステクナロジーシェンゼェンリシテッド,0
1089,4700150118724,新規,0,2023-08-02,2023-08-02,Ｓｈｅｎｚｈｅｎ　Ｌｅａｄｉｎｇ　Ｆｉｓｈ　Ｔｅｃｈｎｏｌｏｇｙ　Ｃｏ．，Ｌｔｄ,,外国会社等,,,,,,,,Ａ－Ｄ　ａｘｉｓ　ａｎｄ　７－１４　７Ｄ０３，７ｔｈ　ｆｌｏｏｒ，Ｂｕｉｌｄｉｎｇ　４，Ｓａｉｇｅ　Ｓｃｉｅｎｃｅ　ａｎｄ　Ｔｅｃｈｎｏｌｏｇｙ　Ｐａｒｋ，Ｎｏ．１２０　Ｚｈｅｎｘｉｎｇ　Ｒｏａｄ，Ｌｉｃｕｎ　Ｃｏｍｍｕｎｉｔｙ，Ｈｕａｑｉａｎｇ　Ｎｏｒｔｈ　Ｓｔｒｅｅｔ，Ｆｕｔｉａｎ　Ｄｉｓｔｒｉｃｔ，Ｓｈｅｎｚｈｅｎ,,,,,,2023-08-02,1,,,,,シェンゼェンリーディングフィッシュテクナロジー,0
1102,5010005036950,新規,0,2023-08-02,2023-08-02,一般社団法人ｋＩｒａｂｏｓｈＩ,,その他の設立登記法人,東京都,中央区,銀座６丁目６番１号銀座風月堂ビル５Ｆ,,13,102,1040061,,,,,,,2023-08-02,1,,,,,キラボシ,0
1110,5010401176029,新規,0,2023-08-02,2023-08-02,トラストパートナー株式会社,,株式会社,東京都,港区,新橋５丁目１２番１１号,,13,103,1050004,,,,,,,2023-08-02,1,,,,,トラストパートナー,0
1112,5010403030588,新規,0,2023-08-02,2023-08-02,ＡＬＭ合同会社,,合同会社,東京都,港区,六本木７丁目５番１１－６０９号,,13,103,1060032,,,,,,,2023-08-02,1,,,,,エィエルエム,0
1113,5010403030596,新規,0,2023-08-02,2023-08-02,ＩＲＥ柏崎太陽光発電所合同会社,,合同会社,東京都,港区,新橋６丁目１７番２１号住友不動産御成門駅前ビル１０階,,13,103,1050004,,,,,,,2023-08-02,1,,,,,アイアールイーカシワザキタイヨウコウハツデンショ,0
1114,5010501050827,新規,0,2023-08-02,2023-08-02,Ｋｅｎ・ｃｉｔｙ株式会社,,株式会社,東京都,台東区,台東３丁目１１－１０－２０１,,13,106,1100016,,,,,,,2023-08-02,1,,,,,ケンシティ,0
1120,5010701044645,新規,0,2023-08-02,2023-08-02,株式会社オフィス・ハイウェイ,,株式会社,東京都,品川区,上大崎３丁目１３番１号,,13,109,1410021,,,,,,,2023-08-02,1,,,,,オフィスハイウェイ,0
1121,5010701044661,新規,0,2023-08-02,2023-08-02,株式会社Ｅｘｕｌｔ,,株式会社,東京都,品川区,東五反田１丁目１９－４レオ五反田辻ビル８０３,,13,109,1410022,,,,,,,2023-08-02,1,,,,,エグザルト,0
1133,5011001155926,新規,0,2023-08-02,2023-08-02,株式会社ＤｅｅｐＴｒｕｅＴｒｕｓｔ,,株式会社,東京都,渋谷区,渋谷２丁目１９－１５宮益坂ビルディング６０９,,13,113,1500002,,,,,,,2023-08-02,1,,,,,ディープトゥルートラスト,0
1134,5011001156008,新規,0,2023-08-02,2023-08-02,株式会社イランコッペ,,株式会社,東京都,渋谷区,渋谷２丁目１９－１５宮益坂ビルディング６０９,,13,113,1500002,,,,,,,2023-08-02,1,,,,,イランコッペ,0
1144,5011501029596,新規,0,2023-08-02,2023-08-02,Ｎｏｚｏｍｉ　Ｔｒａｄｉｎｇ＆Ｃｏｍｍｅｒｃｉａｌ株式会社,,株式会社,東京都,荒川区,西日暮里６丁目５６番６号ＮＦ西日暮里ビル２０１,,13,118,1160013,,,,,,,2023-08-02,1,,,,,ノゾミトレーディングアンドコマーシャル,0
1145,5011601027013,新規,0,2023-08-02,2023-08-02,株式会社陸唐,,株式会社,東京都,練馬区,立野町３０番６号母力吉祥寺北２０５,,13,120,1770054,,,,,,,2023-08-02,1,,,,,リクイチ,0
1146,5011701026484,新規,0,2023-08-02,2023-08-02,株式会社東洋商店,,株式会社,東京都,江戸川区,中葛西２丁目２番２号,,13,123,1340083,,,,,,,2023-08-02,1,,,,,トウヨウショウテン,0
1153,5013101009219,新規,0,2023-08-02,2023-08-02,株式会社スザキ,,株式会社,東京都,青梅市,成木５丁目１３０７番地,,13,205,1980001,,,,,,,2023-08-02,1,,,,,スザキ,0
1155,5013301051144,新規,0,2023-08-02,2023-08-02,シンセリティファイナンシャルアドバイザリー株式会社,,株式会社,東京都,豊島区,東池袋３丁目２０番９号,,13,116,1700013,,,,,,,2023-08-02,1,,,,,シンセリティファイナンシャルアドバイザリー,0
1164,5021001079744,新規,0,2023-08-02,2023-08-02,ｅｎｊｏｙ　ｓｍｉｌｅ　Ｃｏ．株式会社,,株式会社,神奈川県,厚木市,緑ケ丘５丁目１３番３７号,,14,212,2430041,,,,,,,2023-08-02,1,,,,,エンジョイスマイルカンパニー,0
1165,5021001079760,新規,0,2023-08-02,2023-08-02,グローバルフード・ジャパン株式会社,,株式会社,神奈川県,鎌倉市,常盤９３７番地１９６,,14,204,2480022,,,,,,,2023-08-02,1,,,,,グローバルフードジャパン,0
1183,5040001129409,新規,0,2023-08-02,2023-08-02,株式会社ＡＭＩＴＯ,,株式会社,千葉県,松戸市,小金原９丁目５番地の１３,,12,207,2700021,,,,,,,2023-08-02,1,,,,,アミト,0
1184,5040001129458,新規,0,2023-08-02,2023-08-02,株式会社ガーベラコーポレーション,,株式会社,千葉県,市川市,須和田１丁目２９番１２号,,12,203,2720825,,,,,,,2023-08-02,1,,,,,ガーベラコーポレーション,0
1186,5040003022933,新規,0,2023-08-02,2023-08-02,ユリ投資設計合同会社,,合同会社,千葉県,千葉市中央区,都町１丁目４５番１４号,,12,101,2600001,,,,,,,2023-08-02,1,,,,,ユリトウシセッケイ,0
1187,5040003023023,新規,0,2023-08-02,2023-08-02,ＳＡＫＵＲＡ　ＦＩＮＴＥＣＨ合同会社,,合同会社,千葉県,千葉市中央区,富士見２丁目７－９富士見ビル６０９号,,12,101,2600015,,,,,,,2023-08-02,1,,,,,サクラフィンテック,0
1188,5040003023056,新規,0,2023-08-02,2023-08-02,合同会社ライデンシャフトリヒ,,合同会社,千葉県,印西市,船尾１番地１０,,12,231,2701345,,,,,,,2023-08-02,1,,,,,ライデンシャフトリヒ,0
1193,5050003007685,新規,0,2023-08-02,2023-08-02,合同会社ころころ,,合同会社,茨城県,守谷市,本町１５４－４プライマリー１０１,,08,224,3020109,,,,,,,2023-08-02,1,,,,,コロコロ,0
1198,5070001040694,新規,0,2023-08-02,2023-08-02,文心社株式会社,,株式会社,群馬県,前橋市,南町１丁目１１－１０－２０２号室,,10,201,3710805,,,,,,,2023-08-02,1,,,,,ブンシンシャ,0
1199,5070001040703,新規,0,2023-08-02,2023-08-02,株式会社Ｏｖｅｒ　Ｄｒｉｖｅ,,株式会社,群馬県,高崎市,箕郷町富岡１４４１番地１,,10,202,3703115,,,,,,,2023-08-02,1,,,,,オーバードライブ,0
1207,5080401026631,新規,0,2023-08-02,2023-08-02,株式会社ＭｉＲａｉＺｕ,,株式会社,静岡県,浜松市南区,卸本町１９番地,,22,134,4328055,,,,,,,2023-08-02,1,,,,,ミライズ,0
1213,5100003007127,新規,0,2023-08-02,2023-08-02,合同会社コケモモ,,合同会社,長野県,北安曇郡白馬村,大字北城３０２０番地１３７８,,20,485,3999301,,,,,,,2023-08-02,1,,,,,コケモモ,0
1221,5120001256855,新規,0,2023-08-02,2023-08-02,Ｃｌｏｕｄ　Ｌｉｎｋ　Ｇｒｏｕｐ株式会社,,株式会社,大阪府,大阪市中央区,南本町２丁目２番９号辰野南本町ビル５Ｆ,,27,128,5410054,,,,,,,2023-08-02,1,,,,,クラウドリンクグループ,0
1222,5120001256888,新規,0,2023-08-02,2023-08-02,株式会社メディカル総研,,株式会社,大阪府,大阪市浪速区,難波中３丁目９番１号,,27,111,5560011,,,,,,,2023-08-02,1,,,,,メディカルソウケン,0
1223,5120001256913,新規,0,2023-08-02,2023-08-02,武庫ノ台ゴルフ株式会社,,株式会社,大阪府,大阪市中央区,南船場４丁目１１番１２号,,27,128,5420081,,,,,,,2023-08-02,1,,,,,ムコノダイゴルフ,0
1232,5120101067979,新規,0,2023-08-02,2023-08-02,株式会社深清商店,,株式会社,大阪府,堺市堺区,出島町１丁２番５号,,27,141,5900834,,,,,,,2023-08-02,1,,,,,フカセイショウテン,0
1241,5130001074819,新規,0,2023-08-02,2023-08-02,中敏半導体株式会社,,株式会社,京都府,京都市伏見区,桃山町因幡３１番地３１,,26,109,6128007,,,,,,,2023-08-02,1,,,,,チュウビンハンドウタイ,0
1250,5140003019358,新規,0,2023-08-02,2023-08-02,アイスリーエス合同会社,,合同会社,兵庫県,神戸市兵庫区,福原町８番１９号,,28,105,6520036,,,,,,,2023-08-02,1,,,,,アイスリーエス,0
1253,5150001026586,新規,0,2023-08-02,2023-08-02,株式会社ＴＥＮＰＥＡＫ,,株式会社,奈良県,北葛城郡上牧町,葛城台３丁目１２番２２号,,29,424,6390215,,,,,,,2023-08-02,1,,,,,テンピーク,0
1254,5160001025224,新規,0,2023-08-02,2023-08-02,株式会社そめや,,株式会社,滋賀県,大津市,月輪２丁目９番１７号,,25,201,5202152,,,,,,,2023-08-02,1,,,,,ソメヤ,0
1266,5180001157230,新規,0,2023-08-02,2023-08-02,聖安明哲株式会社,,株式会社,愛知県,名古屋市東区,東桜２丁目３－７東カン名古屋キャステール５３８号室,,23,102,4610005,,,,,,,2023-08-02,1,,,,,セイアンメイテツ,0
1267,5180001157370,新規,0,2023-08-02,2023-08-02,株式会社瀬戸ポップ,,株式会社,愛知県,瀬戸市,掛下町１丁目５０番地の７,,23,204,4890966,,,,,,,2023-08-02,1,,,,,セトポップ,0
1273,5190003004396,新規,0,2023-08-02,2023-08-02,ＫＡＭＡＤＯ合同会社,,合同会社,三重県,鈴鹿市,国府町４９２２番地の２１８,,24,207,5130836,,,,,,,2023-08-02,1,,,,,カマド,0
1276,5200003006036,新規,0,2023-08-02,2023-08-02,合同会社Ｄｕｋｅ,,合同会社,岐阜県,関市,山田１１４８番地１６,,21,205,5013944,,,,,,,2023-08-02,1,,,,,デューク,0
1279,5210005010101,新規,0,2023-08-02,2023-08-02,特定非営利活動法人とても敦賀すきすき,,その他の設立登記法人,福井県,敦賀市,赤崎３８号２５番地の１,,18,202,9140272,,,,,,,2023-08-02,1,,,,,トテモツルガスキスキ,0
1280,5220001025531,新規,0,2023-08-02,2023-08-02,株式会社アークライズ,,株式会社,石川県,小松市,中町２８番地,,17,203,9230917,,,,,,,2023-08-02,1,,,,,アークライズ,0
1291,5250003003318,新規,0,2023-08-02,2023-08-02,合同会社ゼロトゥワン,,合同会社,山口県,宇部市,大字小串７４－３キャメロットビル３００号室,,35,202,7550067,,,,,,,2023-08-02,1,,,,,ゼロトゥワン,0
1292,5260001038158,新規,0,2023-08-02,2023-08-02,株式会社さかうえ設備,,株式会社,岡山県,倉敷市,黒崎３０－６,,33,202,7100014,,,,,,,2023-08-02,1,,,,,サカウエセツビ,0
1293,5260001038166,新規,0,2023-08-02,2023-08-02,ＬＥＤ’Ｓ中国株式会社,,株式会社,岡山県,倉敷市,粒江１６２６番地１,,33,202,7100034,,,,,,,2023-08-02,1,,,,,レッヅチュウゴク,0
1303,5290001102480,新規,0,2023-08-02,2023-08-02,株式会社松英興業,,株式会社,福岡県,飯塚市,横田２７３番地２,,40,205,8200044,,,,,,,2023-08-02,1,,,,,マツエイコウギョウ,0
1304,5290003014154,新規,0,2023-08-02,2023-08-02,合同会社アイビス,,合同会社,福岡県,福岡市中央区,天神２丁目２番１２号Ｔ＆Ｊビルディング７Ｆ,,40,133,8100001,,,,,,,2023-08-02,1,,,,,アイビス,0
1316,5340003004190,新規,0,2023-08-02,2023-08-02,合同会社ＷＡＱＷＯＲＫＳ,,合同会社,鹿児島県,薩摩川内市,宮里町１３２２番地１０,,46,215,8950056,,,,,,,2023-08-02,1,,,,,ワックワークス,0
1319,5370003006226,新規,0,2023-08-02,2023-08-02,合同会社ＷＡＤＡＣＨＩ,,合同会社,宮城県,仙台市青葉区,片平１丁目４－２３－８０３,,04,101,9800812,,,,,,,2023-08-02,1,,,,,ワダチ,0
1323,5380001033881,新規,0,2023-08-02,2023-08-02,株式会社ＳＨＩＮＷＡ　Ｓｕｐｐｌｙ,,株式会社,福島県,いわき市,平中山字下ノ内１６番地の１,,07,204,9708031,,,,,,,2023-08-02,1,,,,,シンワサプライ,0
1332,5420003002764,新規,0,2023-08-02,2023-08-02,Ｓｅａ’ｔｓ　Ｄｒｉｌｌｉｎｇ合同会社,,合同会社,青森県,むつ市,横迎町１丁目１８番４０号,,02,208,0350033,,,,,,,2023-08-02,1,,,,,シーティズドリリング,0
1336,5430001089539,新規,0,2023-08-02,2023-08-02,株式会社ノースステップ,,株式会社,北海道,札幌市中央区,南二条東２丁目１６番地,,01,101,0600052,,,,,,,2023-08-02,1,,,,,ノースステップ,0
1337,5430001089596,新規,0,2023-08-02,2023-08-02,株式会社クライム工業,,株式会社,北海道,札幌市白石区,平和通１５丁目北１６番１１号パールハイツ２０１号,,01,104,0030029,,,,,,,2023-08-02,1,,,,,クライムコウギョウ,0
1338,5430001089613,新規,0,2023-08-02,2023-08-02,株式会社樹李パーツ,,株式会社,北海道,札幌市厚別区,厚別西五条４丁目５番１１号,,01,108,0040065,,,,,,,2023-08-02,1,,,,,ジュリパーツ,0
1339,5430001089621,新規,0,2023-08-02,2023-08-02,株式会社北海道インサイト,,株式会社,北海道,札幌市中央区,南一条西１０丁目４番地１５６大通ホワイトビル,,01,101,0600061,,,,,,,2023-08-02,1,,,,,ホッカイドウインサイト,0
1352,5500001025098,新規,0,2023-08-02,2023-08-02,ＳＨＩＮ株式会社,,株式会社,愛媛県,松山市,永木町１丁目２番地１３富士ハイツ２０２号,,38,201,7900866,,,,,,,2023-08-02,1,,,,,シン,0
1356,5500003003069,新規,0,2023-08-02,2023-08-02,ＦＹＧ合同会社,,合同会社,愛媛県,松山市,土居田町７８４番地オックスフォード・サーカス土居田ＩＩ５０５号室,00131375,38,201,7900056,,,,,,,2023-08-02,1,,,,,エフワイジー,0
1358,5700150118723,新規,0,2023-08-02,2023-08-02,Ｓｈａｎ　Ｘｉ　Ｆａｎ　Ｈｕｉ　Ｄｉａｎ　Ｚｉ　Ｋｅ　Ｊｉ　Ｙｏｕ　Ｘｉａｎ　Ｇｏｎｇ　Ｓｉ,,外国会社等,,,,,,,,Ｐｉｎｇ　Ｙａｎｇ　Ｌｕ　Ｘｉ　Ｙｉ　Ｘｉａｎｇ　６　Ｈａｏ　１　Ｚｈｕａｎｇ　１５　Ｈａｏ　Ｍｅｎ　Ｍｉａｎ　Ｆａｎｇ　Ｔａｉ　Ｙｕａｎ　Ｓｈｉ　Ｘｉａｏ　Ｄｉａｎ　Ｑｕ　Ｓｈａｎ　Ｘｉ　Ｓｈｅｎｇ,,,,,,2023-08-02,1,,,,,シャンシファンフイデンシケジユウゲンコウシ,0
1368,6010005037023,新規,0,2023-08-02,2023-08-02,一般社団法人日本東京先端医学研究所,,その他の設立登記法人,東京都,中央区,銀座３丁目１４－１３第一厚生館５Ｆ,,13,102,1040061,,,,,,,2023-08-02,1,,,,,ニホントウキョウセンタンイガクケンキュウジョ,0
1369,6010401176044,新規,0,2023-08-02,2023-08-02,株式会社ＬＯＵＶＲＥＤＯ　ｅａｓｔ,,株式会社,東京都,港区,白金台５丁目１８番９号ＶＯＲＴ白金台,,13,103,1080071,,,,,,,2023-08-02,1,,,,,ルーヴルドーイースト,0
1370,6010401176077,新規,0,2023-08-02,2023-08-02,株式会社ノーマーク,,株式会社,東京都,港区,芝大門２丁目４番５号芝ダイヤハイツ９０８,,13,103,1050012,,,,,,,2023-08-02,1,,,,,ノーマーク,0
1371,6010403030562,新規,0,2023-08-02,2023-08-02,合同会社Ｔｏｗａ,,合同会社,東京都,港区,南青山２丁目２番１５号ウィン青山９４２,,13,103,1070062,,,,,,,2023-08-02,1,,,,,トワ,0
1377,6010605004224,新規,0,2023-08-02,2023-08-02,一般社団法人ａｓａｃｏｄａｓ,,その他の設立登記法人,東京都,江東区,古石場２丁目４番８号,,13,108,1350045,,,,,,,2023-08-02,1,,,,,アサコダス,0
1391,6011001155925,新規,0,2023-08-02,2023-08-02,ＵＺＵ株式会社,,株式会社,東京都,目黒区,中央町１丁目１４番９号,,13,110,1520001,,,,,,,2023-08-02,1,,,,,ウズ,0
1393,6011003017272,新規,0,2023-08-02,2023-08-02,合同会社ＢＫＩＴ,,合同会社,東京都,渋谷区,道玄坂１丁目２１番１号,,13,113,1500043,,,,,,,2023-08-02,1,,,,,ビーキット,0
1402,6011103013287,新規,0,2023-08-02,2023-08-02,合同会社メディアＫ,,合同会社,東京都,新宿区,新宿６丁目２－４－５３１,,13,104,1600022,,,,,,,2023-08-02,1,,,,,メディアケイ,0
1403,6011103013329,新規,0,2023-08-02,2023-08-02,合同会社みぎうえ,,合同会社,東京都,新宿区,西新宿３丁目３番１３号西新宿水間ビル２Ｆ,,13,104,1600023,,,,,,,2023-08-02,1,,,,,ミギウエ,0
1404,6011203004137,新規,0,2023-08-02,2023-08-02,コウセイ・エスティー合同会社,,合同会社,東京都,中野区,弥生町４丁目７番１６号,,13,114,1640013,,,,,,,2023-08-02,1,,,,,コウセイエスティー,0
1407,6011401025331,新規,0,2023-08-02,2023-08-02,株式会社グレートワン,,株式会社,東京都,板橋区,上板橋１丁目２４番５号ベイ２１・３０１,,13,119,1740076,,,,,,,2023-08-02,1,,,,,グレートワン,0
1408,6011501029595,新規,0,2023-08-02,2023-08-02,ＴＥＳｍａｒｔ株式会社,,株式会社,東京都,荒川区,南千住８丁目８番１－１８１０号,,13,118,1160003,,,,,,,2023-08-02,1,,,,,テスマート,0
1409,6011503005685,新規,0,2023-08-02,2023-08-02,ユニラボドット合同会社,,合同会社,東京都,北区,赤羽台３丁目１３番１０号ハウスカメリア２０５号,,13,117,1150053,,,,,,,2023-08-02,1,,,,,ユニラボドット,0
1410,6011503005702,新規,0,2023-08-02,2023-08-02,可欣商貿合同会社,,合同会社,東京都,北区,王子本町１丁目２２番１号ＫＳＧビル１０６号,,13,117,1140022,,,,,,,2023-08-02,1,,,,,カキンショウボウ,0
1417,6011801042810,新規,0,2023-08-02,2023-08-02,株式会社至楽メディア,,株式会社,東京都,葛飾区,亀有５丁目２１番６号１０１号室,,13,122,1250061,,,,,,,2023-08-02,1,,,,,シガクメディア,0
1423,6012401040808,新規,0,2023-08-02,2023-08-02,Ｓ．Ｔ企画株式会社,,株式会社,東京都,小金井市,梶野町５丁目３番２５－５１２号,,13,210,1840002,,,,,,,2023-08-02,1,,,,,エスティーキカク,0
1434,6020001152709,新規,0,2023-08-02,2023-08-02,レインボー福祉株式会社,,株式会社,神奈川県,横浜市中区,本牧大里町１６番１２号,,14,104,2310823,,,,,,,2023-08-02,1,,,,,レインボーフクシ,0
1447,6021001079751,新規,0,2023-08-02,2023-08-02,Ｇｒｏｗｔｈ　Ｐａｒｔｎｅｒｓ株式会社,,株式会社,神奈川県,相模原市中央区,淵野辺３丁目９番１７－５３０号,,14,152,2520206,,,,,,,2023-08-02,1,,,,,グロースパートナーズ,0
1449,6021003013378,新規,0,2023-08-02,2023-08-02,合同会社ＲｏｏｓｅＶｅｌｔ,,合同会社,神奈川県,小田原市,栄町１丁目５番２８号オーキッドヴィラツー１０２号,,14,206,2500011,,,,,,,2023-08-02,1,,,,,ルーズヴェルト,0
1450,6030001154951,新規,0,2023-08-02,2023-08-02,株式会社ベスト不動産,,株式会社,埼玉県,深谷市,新井３６６－５,,11,218,3660016,,,,,,,2023-08-02,1,,,,,ベストフドウサン,0
1451,6030001155025,新規,0,2023-08-02,2023-08-02,株式会社アサン,,株式会社,埼玉県,川口市,大字榛松８０３,,11,203,3340062,,,,,,,2023-08-02,1,,,,,アサン,0
1455,6030003022157,新規,0,2023-08-02,2023-08-02,合同会社まんぷく商事,,合同会社,埼玉県,熊谷市,中西２丁目６番５号,,11,202,3600013,,,,,,,2023-08-02,1,,,,,マンプクショウジ,0
1463,6040001129457,新規,0,2023-08-02,2023-08-02,株式会社ハイサウンドラボ,,株式会社,千葉県,柏市,松ケ崎４６０番地１８,,12,217,2770835,,,,,,,2023-08-02,1,,,,,ハイサウンドラボ,0
1468,6040003023022,新規,0,2023-08-02,2023-08-02,ＭＡＥＭＯＮＡ合同会社,,合同会社,千葉県,習志野市,藤崎１丁目１５－４１,,12,216,2750017,,,,,,,2023-08-02,1,,,,,マエモナ,0
1471,6050001053227,新規,0,2023-08-02,2023-08-02,株式会社フィールクリエイト,,株式会社,茨城県,稲敷郡阿見町,岡崎２丁目７番地１４,,08,443,3000335,,,,,,,2023-08-02,1,,,,,フィールクリエイト,0
1479,6080103002863,新規,0,2023-08-02,2023-08-02,合同会社住想工房,,合同会社,静岡県,富士市,厚原９２９,,22,210,4190201,,,,,,,2023-08-02,1,,,,,ジュウソウコウボウ,0
1480,6080401026630,新規,0,2023-08-02,2023-08-02,株式会社山崎建築,,株式会社,静岡県,掛川市,倉真５６０番地の１,,22,213,4360341,,,,,,,2023-08-02,1,,,,,ヤマザキケンチク,0
1481,6080401026639,新規,0,2023-08-02,2023-08-02,株式会社インテックリサーチ,,株式会社,静岡県,浜松市中区,蜆塚２丁目１７番２４－５号アーリースチューベン１０１,,22,131,4328018,,,,,,,2023-08-02,1,,,,,インテックリサーチ,0
1494,6120001256870,新規,0,2023-08-02,2023-08-02,澤安株式会社,,株式会社,大阪府,大阪市西成区,山王２丁目１３－２２,,27,122,5570001,,,,,,,2023-08-02,1,,,,,サワヤス,0
1495,6120001256920,新規,0,2023-08-02,2023-08-02,株式会社Ｙｕｐｈｏ,,株式会社,大阪府,大阪市北区,梅田１丁目２番２号大阪駅前第２ビル１２－１２,,27,127,5300001,,,,,,,2023-08-02,1,,,,,ユウホ,0
1500,6120003024615,新規,0,2023-08-02,2023-08-02,合同会社ＬＩＮＫＥＲＮＥＣＴ,,合同会社,大阪府,大阪市生野区,小路２丁目１番９号,,27,116,5440002,,,,,,,2023-08-02,1,,,,,リンカネクト,0
1501,6120005023796,新規,0,2023-08-02,2023-08-02,一般社団法人佳輝会,,その他の設立登記法人,大阪府,大阪市中央区,南船場３丁目９番３号,,27,128,5420081,,,,,,,2023-08-02,1,,,,,ケイキカイ,0
1503,6120101067961,新規,0,2023-08-02,2023-08-02,株式会社七音社,,株式会社,大阪府,堺市南区,城山台４丁３番１号,,27,145,5900137,,,,,,,2023-08-02,1,,,,,ナナオンシャ,0
1504,6120103005358,新規,0,2023-08-02,2023-08-02,合同会社ａｎｄａｎｄ,,合同会社,大阪府,松原市,立部１丁目１３４－２６,,27,217,5800012,,,,,,,2023-08-02,1,,,,,アンドアンド,0
1505,6120105009745,新規,0,2023-08-02,2023-08-02,一般社団法人日本統合医療支援創生機構,,その他の設立登記法人,大阪府,泉大津市,板原町１丁目１１番１１号,,27,206,5950033,,,,,,,2023-08-02,1,,,,,ニッポントウゴウイリョウシエンソウセイキコウ,0
1507,6120901047865,新規,0,2023-08-02,2023-08-02,株式会社ＪＩＲＯＹＯＮ,,株式会社,大阪府,箕面市,半町２丁目１１番５号,,27,220,5620044,,,,,,,2023-08-02,1,,,,,ジロヨン,0
1513,6130001074818,新規,0,2023-08-02,2023-08-02,株式会社翔希,,株式会社,京都府,八幡市,八幡軸２０番地の１３,,26,210,6148073,,,,,,,2023-08-02,1,,,,,ショウキ,0
1514,6130001074834,新規,0,2023-08-02,2023-08-02,ＴＫコーポレーション株式会社,,株式会社,京都府,京都市中京区,堀川通四条上る錦堀川町６３３番地リソシエ四条クロスコート３０７号,,26,104,6048235,,,,,,,2023-08-02,1,,,,,ティーケーコーポレーション,0
1515,6130001074867,新規,0,2023-08-02,2023-08-02,株式会社岡田設備工業,,株式会社,京都府,京都市西京区,松尾鈴川町９０番地の１８,,26,111,6158216,,,,,,,2023-08-02,1,,,,,オカダセツビコウギョウ,0
1517,6130003008889,新規,0,2023-08-02,2023-08-02,合同会社ＭＡＯコンサルティング,,合同会社,京都府,京都市下京区,仏光寺通烏丸東入上柳町３３１番地タカノハスクエア３２６,,26,106,6008099,,,,,,,2023-08-02,1,,,,,マオコンサルティング,0
1527,6140001131056,新規,0,2023-08-02,2023-08-02,株式会社天心山豊岡ファーム,,株式会社,兵庫県,豊岡市,加陽字川田１８００番地,,28,209,6680841,,,,,,,2023-08-02,1,,,,,テンシンザントヨオカファーム,0
1534,6140003019365,新規,0,2023-08-02,2023-08-02,合同会社ｍｏｏｎｓｈｏｔ,,合同会社,兵庫県,川辺郡猪名川町,若葉１丁目４０番地８,,28,301,6660251,,,,,,,2023-08-02,1,,,,,ムーンショット,0
1541,6180001157378,新規,0,2023-08-02,2023-08-02,株式会社ＳｕｎＲｉｓｅ,,株式会社,愛知県,名古屋市中村区,則武２丁目１４番１１号名駅富士ビル３Ｆ,,23,105,4530014,,,,,,,2023-08-02,1,,,,,サンライズ,0
1542,6180001157403,新規,0,2023-08-02,2023-08-02,株式会社アリエス,,株式会社,愛知県,日進市,北新町八幡西１７番地２,,23,230,4700103,,,,,,,2023-08-02,1,,,,,アリエス,0
1552,6180305009498,新規,0,2023-08-02,2023-08-02,一般社団法人フリースクール西尾ＬｉｅＮ,,その他の設立登記法人,愛知県,西尾市,伊藤町伊藤東５６番地１,,23,213,4450806,,,,,,,2023-08-02,1,,,,,フリースクールニシオリアン,0
1554,6200001041554,新規,0,2023-08-02,2023-08-02,株式会社ＦＵＫＵＴＡ　ＴＩＲＥ,,株式会社,岐阜県,関市,肥田瀬２７２２番地１,,21,205,5013911,,,,,,,2023-08-02,1,,,,,フクタタイヤ,0
1563,6240001061887,新規,0,2023-08-02,2023-08-02,株式会社ＣＰ,,株式会社,広島県,広島市安佐北区,深川３丁目２５番１３号,,34,106,7391751,,,,,,,2023-08-02,1,,,,,シーピー,0
1570,6290001102455,新規,0,2023-08-02,2023-08-02,株式会社輝,,株式会社,福岡県,太宰府市,国分３丁目２０番１８号,,40,221,8180132,,,,,,,2023-08-02,1,,,,,カガヤキ,0
1571,6290001102496,新規,0,2023-08-02,2023-08-02,株式会社ＨＯＭＡＲＥ,,株式会社,福岡県,福岡市博多区,諸岡１丁目２５番５１号,,40,132,8120894,,,,,,,2023-08-02,1,,,,,ホマレ,0
1573,6290801029740,新規,0,2023-08-02,2023-08-02,田村ホールディングス株式会社,,株式会社,福岡県,京都郡苅田町,大字苅田字大磯１１０５番地の５,,40,621,8000365,,,,,,,2023-08-02,1,,,,,タムラホールディングス,0
1574,6290801029749,新規,0,2023-08-02,2023-08-02,株式会社須崎電気工事,00131370,株式会社,福岡県,北九州市小倉南区,高野２丁目４番１８号,,40,107,8030275,,,,,,,2023-08-02,1,,,,,スザキデンキコウジ,0
1578,6300001013403,新規,0,2023-08-02,2023-08-02,株式会社坂井ガレージ,,株式会社,佐賀県,小城市,芦刈町芦溝８４４番地１,00131369,41,208,8490311,,,,,,,2023-08-02,1,,,,,サカイガレージ,0
1583,6320003004134,新規,0,2023-08-02,2023-08-02,合同会社中山企画,,合同会社,大分県,別府市,石垣西４丁目１番２９号,,44,202,8740910,,,,,,,2023-08-02,1,,,,,ナカヤマキカク,0
1584,6330001031071,新規,0,2023-08-02,2023-08-02,ｕｚａｒｉｏ株式会社,,株式会社,熊本県,菊池郡大津町,美咲野１丁目１３番４号,,43,403,8691237,,,,,,,2023-08-02,1,,,,,ウザリオ,0
1585,6330001031096,新規,0,2023-08-02,2023-08-02,毎日がエブリデイ株式会社,,株式会社,熊本県,熊本市中央区,帯山１丁目２４－２５オビハウスＢ２,,43,101,8620924,,,,,,,2023-08-02,1,,,,,マイニチガエブリデイ,0
1589,6340001025758,新規,0,2023-08-02,2023-08-02,株式会社ＮＴコネクト,,株式会社,鹿児島県,鹿児島市,山田町２５７番地６ブリリアントステップ２０２号室,,46,201,8910104,,,,,,,2023-08-02,1,,,,,エヌティーコネクト,0
1592,6370001050233,新規,0,2023-08-02,2023-08-02,ＡＬＰＨＡ　ＰＬＡＮ株式会社,,株式会社,宮城県,大崎市,古川堤根字上屋敷１９番地１,,04,215,9896207,,,,,,,2023-08-02,1,,,,,アルファプラン,0
1593,6370001050241,新規,0,2023-08-02,2023-08-02,株式会社ＴＫコムレイド,,株式会社,宮城県,仙台市若林区,大和町５丁目１０番１８－１３０８号,,04,103,9840042,,,,,,,2023-08-02,1,,,,,テーケーコムレイド,0
1598,6380001033880,新規,0,2023-08-02,2023-08-02,株式会社ＮＥＸＴ,,株式会社,福島県,本宮市,本宮字石塚１８番地１７,,07,214,9691139,,,,,,,2023-08-02,1,,,,,ネクスト,0
1601,6390001017338,新規,0,2023-08-02,2023-08-02,株式会社ゆう,,株式会社,山形県,天童市,久野本３丁目９番１８号,,06,210,9940012,,,,,,,2023-08-02,1,,,,,ユウ,0
1610,6430001089620,新規,0,2023-08-02,2023-08-02,株式会社ＣＯＬＰＯＮＴ,,株式会社,北海道,札幌市清田区,美しが丘三条６丁目１０番２－７０５号,,01,110,0040813,,,,,,,2023-08-02,1,,,,,コルポン,0
1611,6430003015285,新規,0,2023-08-02,2023-08-02,トラストガード合同会社,,合同会社,北海道,札幌市中央区,北五条西１１丁目１５番４－２０３号,,01,101,0600005,,,,,,,2023-08-02,1,,,,,トラストガード,0
1612,6430003015310,新規,0,2023-08-02,2023-08-02,合同会社ＢＬＩＳＩＭＥ,,合同会社,北海道,札幌市白石区,菊水三条１丁目４番３号レジデンスＪＤ４０１号,,01,104,0030803,,,,,,,2023-08-02,1,,,,,ブリシム,0
1621,6500001025089,新規,0,2023-08-02,2023-08-02,株式会社大工家,,株式会社,愛媛県,西条市,下島山甲１２２９番地３,,38,206,7930006,,,,,,,2023-08-02,1,,,,,ダイクヤ,0
1623,6700150118722,新規,0,2023-08-02,2023-08-02,ｄｏｎｇｇｕａｎｓｈｉ　ｄｕｗｅｉ　ｊｉｇｕａｎｇｙｉｑｉ　ｙｏｕｘｉａｎｇｏｎｇｓｉ,,外国会社等,,,,,,,,４　ＦＬＯＯＲ　ＮＯ．８，ＬＡＮＥ　２，ＣＵＩＨＥ　ＲＯＡＤ，ＢＡＩＤＩ　ＣＯＭＭＵＮＩＴＹ，ＺＨＡＮＧＭＵＴＯＵ　ＴＯＷＮ，ＤＯＮＧＧＵＡＮ，ＧＵＡＮＧＤＯＮＧ，ＰＲＣ,,,,,,2023-08-02,1,,,,,ドングアンシドウェイジグアンイチユウゲンコウシ,0
1640,7010003041249,新規,0,2023-08-02,2023-08-02,合同会社ＮＫＣＳ,,合同会社,東京都,千代田区,神田司町２丁目１５山正ビル３Ｆ日本ＰＲＯ研究会内,,13,101,1010048,,,,,,,2023-08-02,1,,,,,エヌケーシーエス,0
1647,7010401176043,新規,0,2023-08-02,2023-08-02,株式会社彩世,,株式会社,東京都,港区,六本木４丁目５番１１号４階,,13,103,1060032,,,,,,,2023-08-02,1,,,,,アヤセ,0
1648,7010401176068,新規,0,2023-08-02,2023-08-02,株式会社ｕｎｉｏｎ,,株式会社,東京都,港区,六本木６丁目１番３号２Ｆ,,13,103,1060032,,,,,,,2023-08-02,1,,,,,ユニオン,0
1651,7010403030603,新規,0,2023-08-02,2023-08-02,合同会社アテーナ,,合同会社,東京都,港区,赤坂７丁目４番１５号,,13,103,1070052,,,,,,,2023-08-02,1,,,,,アテーナ,0
1654,7010501050833,新規,0,2023-08-02,2023-08-02,雲芯株式会社,,株式会社,東京都,台東区,上野３丁目１６－２－９１１号室,,13,106,1100005,,,,,,,2023-08-02,1,,,,,ウンシン,0
1659,7010701044643,新規,0,2023-08-02,2023-08-02,株式会社ツーアイフーズ,,株式会社,東京都,品川区,東品川３丁目２２番２０－９０８号,,13,109,1400002,,,,,,,2023-08-02,1,,,,,ツーアイフーズ,0
1665,7010901053519,新規,0,2023-08-02,2023-08-02,大禾興株式会社,,株式会社,東京都,世田谷区,池尻２丁目９番１３号,,13,112,1540001,,,,,,,2023-08-02,1,,,,,ダイカコウ,0
1666,7010901053535,新規,0,2023-08-02,2023-08-02,株式会社ユーラボ,,株式会社,東京都,世田谷区,松原３丁目３０－１０双葉屋ビル２階,,13,112,1560043,,,,,,,2023-08-02,1,,,,,ユーラボ,0
1670,7011001155965,新規,0,2023-08-02,2023-08-02,Ｃｈａｙａ株式会社,,株式会社,東京都,渋谷区,松濤１丁目４－８ＥＡＳＴ１Ｆ,,13,113,1500046,,,,,,,2023-08-02,1,,,,,チャヤ,0
1673,7011101103840,新規,0,2023-08-02,2023-08-02,株式会社ＹＢＢ,,株式会社,東京都,新宿区,原町１丁目１番地１ＲＭ１３０２,,13,104,1620053,,,,,,,2023-08-02,1,,,,,ワイビービー,0
1681,7011501029594,新規,0,2023-08-02,2023-08-02,洲際宝童株式会社,,株式会社,東京都,荒川区,南千住３丁目２７－２浅草ビル５０８,,13,118,1160003,,,,,,,2023-08-02,1,,,,,シュウサイホウド,0
1682,7011503005701,新規,0,2023-08-02,2023-08-02,合同会社アセットガーデン,,合同会社,東京都,荒川区,南千住８丁目４番５号１１６室,,13,118,1160003,,,,,,,2023-08-02,1,,,,,アセットガーデン,0
1684,7011701026474,新規,0,2023-08-02,2023-08-02,株式会社鯉城,,株式会社,東京都,江戸川区,西葛西５丁目１１番１１号司ビル３階,,13,123,1340088,,,,,,,2023-08-02,1,,,,,リジョウ,0
1690,7012403006095,新規,0,2023-08-02,2023-08-02,ａｂｅｎｄ合同会社,,合同会社,東京都,小金井市,前原町２丁目２４番４号,,13,210,1840013,,,,,,,2023-08-02,1,,,,,アーベント,0
1699,7013301051084,新規,0,2023-08-02,2023-08-02,株式会社ＲＥＣｏｎｏｓ,,株式会社,東京都,豊島区,南大塚１丁目４番２号プラート宮坂３１０号,,13,116,1700005,,,,,,,2023-08-02,1,,,,,レコノス,0
1704,7020001152708,新規,0,2023-08-02,2023-08-02,株式会社ホーピル,,株式会社,神奈川県,川崎市麻生区,上麻生３丁目２２番１１－３０５号,,14,137,2150021,,,,,,,2023-08-02,1,,,,,ホーピル,0
1705,7020001152724,新規,0,2023-08-02,2023-08-02,株式会社ミライ・エ,,株式会社,神奈川県,川崎市中原区,小杉町３丁目６００番,,14,133,2110063,,,,,,,2023-08-02,1,,,,,ミライエ,0
1720,7030003022148,新規,0,2023-08-02,2023-08-02,合同会社鋭金,,合同会社,埼玉県,川口市,緑町３番１１号,,11,203,3320027,,,,,,,2023-08-02,1,,,,,エイキン,0
1733,7050001053218,新規,0,2023-08-02,2023-08-02,株式会社裕総業,,株式会社,茨城県,土浦市,上高津新町２番３４号Ａ－１０２,,08,203,3000819,,,,,,,2023-08-02,1,,,,,ヒロソウギョウ,0
1742,7070001040692,新規,0,2023-08-02,2023-08-02,城新株式会社,,株式会社,群馬県,前橋市,上佐鳥町１６番地,,10,201,3710816,,,,,,,2023-08-02,1,,,,,ジョウシン,0
1747,7080101024140,新規,0,2023-08-02,2023-08-02,Ｋｉｄ株式会社,,株式会社,静岡県,熱海市,下多賀４９１,,22,205,4130102,,,,,,,2023-08-02,1,,,,,キッド,0
1748,7080101024149,新規,0,2023-08-02,2023-08-02,株式会社朝日商事,,株式会社,静岡県,沼津市,足高１７４番地の４,,22,203,4100001,,,,,,,2023-08-02,1,,,,,アサヒショウジ,0
1749,7080401026638,新規,0,2023-08-02,2023-08-02,株式会社千把農園,,株式会社,静岡県,菊川市,下平川１２５１番地の１（六瀬２号）,,22,224,4371514,,,,,,,2023-08-02,1,,,,,センバノウエン,0
1750,7090003002359,新規,0,2023-08-02,2023-08-02,ＮＨ合同会社,,合同会社,山梨県,甲府市,大里町４１３７番地３－５１号,,19,201,4000053,,,,,,,2023-08-02,1,,,,,エヌエイチ,0
1767,7120001256853,新規,0,2023-08-02,2023-08-02,ＫＤＵ　Ｆｒｏｎｔｉｅｒ　Ｐａｒｔｎｅｒｓ株式会社,,株式会社,大阪府,大阪市中央区,久太郎町２丁目５番３０号,,27,128,5410056,,,,,,,2023-08-02,1,,,,,ケーディーユーフロンティアパートナーズ,0
1768,7120001256911,新規,0,2023-08-02,2023-08-02,株式会社テックアイズ,,株式会社,大阪府,大阪市天王寺区,味原町１４－４レザックセントラルビル５０８,,27,109,5430023,,,,,,,2023-08-02,1,,,,,テックアイズ,0
1769,7120001256936,新規,0,2023-08-02,2023-08-02,株式会社マシンツール,,株式会社,大阪府,大阪市城東区,東中浜２丁目１３番２８号,,27,118,5360023,,,,,,,2023-08-02,1,,,,,マシンツール,0
1776,7120103005349,新規,0,2023-08-02,2023-08-02,合同会社ａｒｏｍａ,,合同会社,大阪府,堺市北区,金岡町５３６－２４,,27,146,5918022,,,,,,,2023-08-02,1,,,,,アロマ,0
1779,7120901047864,新規,0,2023-08-02,2023-08-02,ＡＣＴＬ株式会社,,株式会社,大阪府,茨木市,中津町１番２号,,27,211,5670824,,,,,,,2023-08-02,1,,,,,アクトル,0
1782,7130001074833,新規,0,2023-08-02,2023-08-02,株式会社バレック,,株式会社,京都府,京丹後市,丹後町間人２０１７番地,,26,212,6270201,,,,,,,2023-08-02,1,,,,,バレック,0
1787,7140003019372,新規,0,2023-08-02,2023-08-02,合同会社リンカーズ,,合同会社,兵庫県,芦屋市,大桝町７番２号芦屋ファイブ４０１号,,28,206,6590066,,,,,,,2023-08-02,1,,,,,リンカーズ,0
1792,7170003001906,新規,0,2023-08-02,2023-08-02,合同会社アロンジー,,合同会社,和歌山県,和歌山市,狐島２９５－２１,,30,201,6408412,,,,,,,2023-08-02,1,,,,,アロンジー,0
1798,7180001157377,新規,0,2023-08-02,2023-08-02,株式会社Ｊｓｍｉｌｅ,,株式会社,愛知県,北名古屋市,中之郷天神４８Ｂ室,,23,234,4810045,,,,,,,2023-08-02,1,,,,,ジェイスマイル,0
1817,7220001025513,新規,0,2023-08-02,2023-08-02,株式会社天雅商事,,株式会社,石川県,七尾市,国分町シ‐６‐１,,17,202,9260821,,,,,,,2023-08-02,1,,,,,テンガショウジ,0
1818,7220001025521,新規,0,2023-08-02,2023-08-02,株式会社クラスコプロパティ,,株式会社,石川県,金沢市,諸江町上丁３０７番地３,,17,201,9200015,,,,,,,2023-08-02,1,,,,,クラスコプロパティ,0
1819,7230001019935,新規,0,2023-08-02,2023-08-02,株式会社Ａｃｘｉ,,株式会社,富山県,射水市,三ケ７７９－３,,16,211,9390341,,,,,,,2023-08-02,1,,,,,アクシィ,0
1825,7240001061894,新規,0,2023-08-02,2023-08-02,株式会社クレインパートナーズ,,株式会社,広島県,広島市佐伯区,三宅２丁目１番１号,,34,108,7315143,,,,,,,2023-08-02,1,,,,,クレインパートナーズ,0
1829,7250003003316,新規,0,2023-08-02,2023-08-02,合同会社ゆいまーる,,合同会社,山口県,下松市,大手町２丁目５－１－２０１,,35,207,7440015,,,,,,,2023-08-02,1,,,,,ユイマール,0
1830,7250003003324,新規,0,2023-08-02,2023-08-02,Ｂｅｙｏｎｄ合同会社,,合同会社,山口県,周南市,城ケ丘４丁目１０番２７号,,35,215,7450807,,,,,,,2023-08-02,1,,,,,ビヨンド,0
1834,7260003004379,新規,0,2023-08-02,2023-08-02,合同会社フラッグス,,合同会社,岡山県,倉敷市,児島駅前４丁目５９番地１ナイカイ駅南コーポ１０１,,33,202,7110921,,,,,,,2023-08-02,1,,,,,フラッグス,0
1835,7270001008819,新規,0,2023-08-02,2023-08-02,株式会社ＭＹＫ,,株式会社,鳥取県,鳥取市,桂見６６５番地２８,,31,201,6801417,,,,,,,2023-08-02,1,,,,,エムワイケー,0
1842,7290001102446,新規,0,2023-08-02,2023-08-02,エポックホールディングス株式会社,,株式会社,福岡県,福岡市西区,今宿駅前１丁目１５番１８号,,40,135,8190168,,,,,,,2023-08-02,1,,,,,エポックホールディングス,0
1843,7290001102454,新規,0,2023-08-02,2023-08-02,株式会社リスクキャディ,,株式会社,福岡県,福岡市東区,高美台１丁目１３番３号,,40,131,8110215,,,,,,,2023-08-02,1,,,,,リスクキャディ,0
1846,7290003014185,新規,0,2023-08-02,2023-08-02,合同会社いろどり,,合同会社,福岡県,福岡市博多区,博多駅前２丁目１９番１７号,,40,132,8120011,,,,,,,2023-08-02,1,,,,,イロドリ,0
1850,7290801029748,新規,0,2023-08-02,2023-08-02,株式会社ブライト,,株式会社,福岡県,北九州市小倉北区,船場町７番１７号,,40,106,8020007,,,,,,,2023-08-02,1,,,,,ブライト,0
1854,7310001018532,新規,0,2023-08-02,2023-08-02,アールグレイマネージメント株式会社,,株式会社,長崎県,長崎市,坂本３丁目４番１０号,,42,201,8528102,,,,,,,2023-08-02,1,,,,,アールグレイマネージメント,0
1855,7310003004613,新規,0,2023-08-02,2023-08-02,合同会社Ｇ‐Ｊａｄｅ,,合同会社,長崎県,大村市,西三城町１６番地,,42,205,8560825,,,,,,,2023-08-02,1,,,,,ジージェイド,0
1858,7330001031104,新規,0,2023-08-02,2023-08-02,株式会社ＦＭＣ,,株式会社,熊本県,熊本市中央区,花畑町１２番１－６０１号,,43,101,8600806,,,,,,,2023-08-02,1,,,,,エフエムシー,0
1859,7330003009916,新規,0,2023-08-02,2023-08-02,合同会社インフィールド,,合同会社,熊本県,熊本市南区,海路口町１８２７番地１,,43,104,8614124,,,,,,,2023-08-02,1,,,,,インフィールド,0
1861,7350003004403,新規,0,2023-08-02,2023-08-02,合同会社ＨＵＡＫＡ’Ｉ,,合同会社,宮崎県,宮崎市,大字恒久６１７３－８７,,45,201,8800916,,,,,,,2023-08-02,1,,,,,フアカイ,0
1863,7360001032363,新規,0,2023-08-02,2023-08-02,株式会社うちなーレンタル,,株式会社,沖縄県,中頭郡西原町,字棚原８２番地１エルパレス１０３号室,,47,329,9030126,,,,,,,2023-08-02,1,,,,,ウチナーレンタル,0
1864,7370001050232,新規,0,2023-08-02,2023-08-02,ハイブリッジＦＰオフィス株式会社,,株式会社,宮城県,仙台市泉区,泉中央２丁目１２番地の９リバース第二ビル２Ｆ,,04,105,9813133,,,,,,,2023-08-02,1,,,,,ハイブリッジエフピーオフィス,0
1866,7370005010661,新規,0,2023-08-02,2023-08-02,一般社団法人個人事業主サポート協会,,その他の設立登記法人,宮城県,遠田郡美里町,字叔廼前２４番地１,,04,505,9870053,,,,,,,2023-08-02,1,,,,,コジンジギョウヌシサポートキョウカイ,0
1870,7380005012731,新規,0,2023-08-02,2023-08-02,税理士法人信和会計社,,その他の設立登記法人,福島県,福島市,新町５番９号,,07,201,9608036,,,,,,,2023-08-02,1,,,,,シンワカイケイシャ,0
1873,7390001017337,新規,0,2023-08-02,2023-08-02,株式会社野川清流米,,株式会社,山形県,長井市,九野本７５３番地１,,06,209,9930041,,,,,,,2023-08-02,1,,,,,ノガワセイリュウマイ,0
1877,7420003002762,新規,0,2023-08-02,2023-08-02,青森西津軽洋上風力発電合同会社,,合同会社,青森県,西津軽郡鰺ヶ沢町,大字舞戸町字下富田４番地２１,,02,321,0382761,,,,,,,2023-08-02,1,,,,,アオモリニシツガルヨウジョウフウリョクハツデン,0
1880,7430001089636,新規,0,2023-08-02,2023-08-02,株式会社ＳＥＲＡ,,株式会社,北海道,札幌市南区,簾舞三条２丁目１５番１号,,01,106,0612263,,,,,,,2023-08-02,1,,,,,セラ,0
1881,7430001089644,新規,0,2023-08-02,2023-08-02,株式会社川口設備,,株式会社,北海道,札幌市厚別区,厚別東四条６丁目４番１１号,,01,108,0040004,,,,,,,2023-08-02,1,,,,,カワグチセツビ,0
1888,7460001005813,新規,0,2023-08-02,2023-08-02,株式会社Ｇｒｉｆｆｉｎ　Ｏｆｆｉｃｅ,,株式会社,北海道,釧路市,昭和中央２丁目１５番１４号,,01,206,0840910,,,,,,,2023-08-02,1,,,,,グリフィンオフィス,0
1894,7480001012163,新規,0,2023-08-02,2023-08-02,株式会社トマト,,株式会社,徳島県,徳島市,南沖洲３丁目９番３５,,36,201,7700874,,,,,,,2023-08-02,1,,,,,トマト,0
1895,7490001010546,新規,0,2023-08-02,2023-08-02,株式会社タカテック,,株式会社,高知県,南国市,緑ケ丘２丁目２９２１番地,,39,204,7830086,,,,,,,2023-08-02,1,,,,,タカテック,0
1899,7700150118721,新規,0,2023-08-02,2023-08-02,ＳＨＥＮＺＨＥＮ　ＳＨＩ　ＤＡＨＡＯ　ＫＥＪＩ　ＹＯＵＸＩＡＮ　ＧＯＮＧＳＩ,,外国会社等,,,,,,,,Ｂｌｏｃｋ　Ｂ　５０３，ＶａｎｋｅＩＶ　Ｆｅｉ　Ｙｉ　ｊｕｎ　Ｐａｒｋ，Ｓｈａｊｉｎｇ　Ｃｏｍｍｕｎｉｔｙ　Ｓｈａｊｉｎｇ　Ｓｔｒｅｅｔ，Ｂａｏａｎ　Ｄｉｓｔｒｉｃｔ　Ｓｈｅｎｚｈｅｎ　Ｇｕａｎｇｄｏｎｇ　ＣＮ,00131274,,,,,2023-08-02,1,,,,,シンセンシダハオケジユウゲンコウシ,0
1911,8010001237319,新規,0,2023-08-02,2023-08-02,株式会社常翔,,株式会社,東京都,文京区,小石川１丁目８番６号１２０３号室,,13,105,1120002,,,,,,,2023-08-02,1,,,,,ジョウショウ,0
1918,8010005037021,新規,0,2023-08-02,2023-08-02,一般社団法人ＪＳ経済振興基金,,その他の設立登記法人,東京都,千代田区,神田駿河台２丁目３番地１３,,13,101,1010062,,,,,,,2023-08-02,1,,,,,ジェイエスケイザイシンコウキキン,0
1921,8010401176042,新規,0,2023-08-02,2023-08-02,Ｐａｏｎ株式会社,,株式会社,東京都,港区,南青山６丁目７番５－４０１号,,13,103,1070062,,,,,,,2023-08-02,1,,,,,パオン,0
1922,8010401176100,新規,0,2023-08-02,2023-08-02,Ｙｏ株式会社,,株式会社,東京都,港区,南青山４丁目１７番１７号,,13,103,1070062,,,,,,,2023-08-02,1,,,,,ヨ,0
1923,8010403030569,新規,0,2023-08-02,2023-08-02,エムケイケイ合同会社,,合同会社,東京都,港区,浜松町２丁目２番１５号浜松町ダイヤビル２Ｆ,,13,103,1050013,,,,,,,2023-08-02,1,,,,,エムケイケイ,0
1924,8010403030585,新規,0,2023-08-02,2023-08-02,ＨＴＮ合同会社,,合同会社,東京都,港区,北青山２丁目１２番８－５０８号,,13,103,1070061,,,,,,,2023-08-02,1,,,,,エイチティーエヌ,0
1925,8010403030593,新規,0,2023-08-02,2023-08-02,合同会社ワユーリ鍼灸院,,合同会社,東京都,港区,南青山６丁目１２番１４号ハウス青山２０３,,13,103,1070062,,,,,,,2023-08-02,1,,,,,ワユーリシンキュウイン,0
1928,8010501050840,新規,0,2023-08-02,2023-08-02,株式会社ロッコー,,株式会社,東京都,台東区,入谷２丁目３５番１号,,13,106,1100013,,,,,,,2023-08-02,1,,,,,ロッコー,0
1929,8010503007104,新規,0,2023-08-02,2023-08-02,合同会社チェンジ,,合同会社,東京都,台東区,千束４丁目１７番７号,,13,106,1110031,,,,,,,2023-08-02,1,,,,,チェンジ,0
1938,8010703006797,新規,0,2023-08-02,2023-08-02,サイセイベンチャーズ合同会社,,合同会社,東京都,品川区,東五反田５丁目２２番３３号,,13,109,1410022,,,,,,,2023-08-02,1,,,,,サイセイベンチャーズ,0
1940,8010801034213,新規,0,2023-08-02,2023-08-02,株式会社ＣＲＯＣＯ　ＤＥＳＩＧＮ,,株式会社,東京都,大田区,中央７丁目６番１７号阿部方２０２,,13,111,1430024,,,,,,,2023-08-02,1,,,,,クロコデザイン,0
1950,8011001156013,新規,0,2023-08-02,2023-08-02,株式会社７ｓ’ＳＴＹＬＥ,,株式会社,東京都,渋谷区,本町３丁目３０番３号シントミ渋谷本町Ａ棟,,13,113,1510071,,,,,,,2023-08-02,1,,,,,セブンズスタイル,0
1957,8011101103815,新規,0,2023-08-02,2023-08-02,株式会社Ｆｒｅｙ,,株式会社,東京都,新宿区,富久町１５番１－４４１６号,,13,104,1620067,,,,,,,2023-08-02,1,,,,,フレイ,0
1958,8011101103864,新規,0,2023-08-02,2023-08-02,株式会社ロザーナ,,株式会社,東京都,新宿区,西新宿３丁目３番１３号西新宿水間ビル６階,,13,104,1600023,,,,,,,2023-08-02,1,,,,,ロザーナ,0
1960,8011301028903,新規,0,2023-08-02,2023-08-02,株式会社Ｅｎｅｉ,,株式会社,東京都,杉並区,阿佐谷北１丁目４１番１８号,,13,115,1660001,,,,,,,2023-08-02,1,,,,,エンエイ,0
1971,8012703002768,新規,0,2023-08-02,2023-08-02,合同会社ホラス,,合同会社,東京都,小平市,花小金井２丁目２９番１８号,,13,211,1870002,,,,,,,2023-08-02,1,,,,,ホラス,0
1973,8013301051133,新規,0,2023-08-02,2023-08-02,株式会社ＨＧＬ,,株式会社,東京都,豊島区,東池袋１丁目３５－９サンストーリー東池袋１００２号室,,13,116,1700013,,,,,,,2023-08-02,1,,,,,ハイゴール,0
1990,8021001079766,新規,0,2023-08-02,2023-08-02,株式会社ＢＨＧ,,株式会社,神奈川県,平塚市,紅谷町４－６,,14,203,2540043,,,,,,,2023-08-02,1,,,,,ビーエイチジー,0
1995,8030001154941,新規,0,2023-08-02,2023-08-02,株式会社ＥＮＸＩＡ,,株式会社,埼玉県,新座市,東北１丁目１１番１５号,,11,230,3520001,,,,,,,2023-08-02,1,,,,,エンシア,0
1997,8030005021337,新規,0,2023-08-02,2023-08-02,一般社団法人イシバシ,,その他の設立登記法人,埼玉県,さいたま市桜区,大字上大久保５００番地１,,11,106,3380824,,,,,,,2023-08-02,1,,,,,イシバシ,0
2003,8040003023029,新規,0,2023-08-02,2023-08-02,ＳｃａｌｅＭｏｄｅｌ　Ｊａｐａｎ合同会社,,合同会社,千葉県,流山市,大字鰭ケ崎１４７０番地の９－１０１号室,,12,220,2700161,,,,,,,2023-08-02,1,,,,,スケールモデルジャパン,0
2009,8050001053225,新規,0,2023-08-02,2023-08-02,株式会社ＯＺ,,株式会社,茨城県,つくばみらい市,紫峰ヶ丘３丁目３２番地６,,08,235,3002359,,,,,,,2023-08-02,1,,,,,オズ,0
2014,8070001040700,新規,0,2023-08-02,2023-08-02,株式会社中村電気管理事務所,,株式会社,群馬県,沼田市,石墨町１９２０番地６,,10,206,3780077,,,,,,,2023-08-02,1,,,,,ナカムラデンキカンリジムショ,0
2015,8070003005049,新規,0,2023-08-02,2023-08-02,合同会社ｂｅｒｕｍｉ先導,,合同会社,群馬県,太田市,東本町３８番２６－１０６号,,10,205,3730026,,,,,,,2023-08-02,1,,,,,ベルミセンドウ,0
2018,8080001025766,新規,0,2023-08-02,2023-08-02,株式会社ハシバ,,株式会社,静岡県,静岡市清水区,蒲原４丁目２１番８号,,22,103,4213203,,,,,,,2023-08-02,1,,,,,ハシバ,0
2022,8080101024148,新規,0,2023-08-02,2023-08-02,株式会社ＡＳＣＵ,,株式会社,静岡県,伊豆の国市,長岡４１８番地の１２,,22,225,4102211,,,,,,,2023-08-02,1,,,,,エーエスシーユー,0
2023,8080103002861,新規,0,2023-08-02,2023-08-02,ＥＰＩＣ　ＬＩＦＥ合同会社,,合同会社,静岡県,富士宮市,長貫１３４３番地の３５,,22,207,4190315,,,,,,,2023-08-02,1,,,,,エピックライフ,0
2029,8100003007124,新規,0,2023-08-02,2023-08-02,ＳＡＮＡ合同会社,,合同会社,長野県,飯田市,三日市場１１９４番地１,,20,205,3950155,,,,,,,2023-08-02,1,,,,,サナ,0
2031,8110001037717,新規,0,2023-08-02,2023-08-02,信江美装株式会社,,株式会社,新潟県,長岡市,笹崎１丁目５番地３２,,15,202,9400833,,,,,,,2023-08-02,1,,,,,シンコウビソウ,0
2041,8120001256902,新規,0,2023-08-02,2023-08-02,日本イングレサ株式会社,,株式会社,大阪府,大阪市住吉区,長居東４丁目１５番２０号１０６号室,,27,120,5580004,,,,,,,2023-08-02,1,,,,,ニホンイングレサ,0
2042,8120001256919,新規,0,2023-08-02,2023-08-02,株式会社ＩＦＰ,,株式会社,大阪府,枚方市,上野２丁目９番４６－５０３号,,27,210,5731175,,,,,,,2023-08-02,1,,,,,アイエフピー,0
2043,8120001256927,新規,0,2023-08-02,2023-08-02,和光株式会社,,株式会社,大阪府,大阪市中央区,平野町１丁目６－８メロディハイム平野町５０８号室,,27,128,5410046,,,,,,,2023-08-02,1,,,,,ワコウ,0
2046,8120003024613,新規,0,2023-08-02,2023-08-02,ＬＩＧ合同会社,,合同会社,大阪府,大阪市中央区,南船場１丁目１６－１２エステムコート心斎橋アルテール５０４,,27,128,5420081,,,,,,,2023-08-02,1,,,,,リグ,0
2048,8120005023786,新規,0,2023-08-02,2023-08-02,一般社団法人心斎橋ＤＤデンタルクリニック,,その他の設立登記法人,大阪府,大阪市中央区,心斎橋筋１丁目１０番１２号トレスビル７階,,27,128,5420085,,,,,,,2023-08-02,1,,,,,シンサイバシディーディーデンタルクリニック,0
2055,8120903004763,新規,0,2023-08-02,2023-08-02,兼丸商店合同会社,,合同会社,大阪府,吹田市,長野東１５番１５－５０７号,,27,205,5650816,,,,,,,2023-08-02,1,,,,,カネマルショウテン,0
2056,8120905006502,新規,0,2023-08-02,2023-08-02,一般社団法人チームやさしい日本語,,その他の設立登記法人,大阪府,吹田市,垂水町３丁目２６番２５－９０１号,,27,205,5640062,,,,,,,2023-08-02,1,,,,,チームヤサシイニホンゴ,0
2061,8130003008887,新規,0,2023-08-02,2023-08-02,合同会社アネススノー・プランニング,,合同会社,京都府,京都市中京区,河原町通二条上る清水町３４１番地１１グランクール河原町二条２１５号,,26,104,6040911,,,,,,,2023-08-02,1,,,,,アネススノープランニング,0
2070,8140003019371,新規,0,2023-08-02,2023-08-02,合同会社ｌｏｎｇｅｖｉｔｙ,,合同会社,兵庫県,姫路市,広畑区小坂１４６番地３,,28,201,6711156,,,,,,,2023-08-02,1,,,,,ロンジェビティー,0
2074,8170001017713,新規,0,2023-08-02,2023-08-02,株式会社ビッグフォレスト,,株式会社,和歌山県,和歌山市,吉礼５４７番地１０,,30,201,6400351,,,,,,,2023-08-02,1,,,,,ビッグフォレスト,0
2081,8180001157351,新規,0,2023-08-02,2023-08-02,株式会社エンコード,,株式会社,愛知県,名古屋市中区,栄５丁目２６番３９号ＧＳ栄ビル３Ｆ,,23,106,4600008,,,,,,,2023-08-02,1,,,,,エンコード,0
2084,8180003025548,新規,0,2023-08-02,2023-08-02,強盛グループ合同会社,,合同会社,愛知県,名古屋市緑区,森の里１丁目９４番地（森の里荘１棟９１１号）,,23,114,4598002,,,,,,,2023-08-02,1,,,,,キョウセイグループ,0
2091,8200001041544,新規,0,2023-08-02,2023-08-02,飛騨高山電力株式会社,,株式会社,岐阜県,高山市,西町７１番地,,21,203,5060022,,,,,,,2023-08-02,1,,,,,ヒダタカヤマデンリョク,0
2092,8200001041560,新規,0,2023-08-02,2023-08-02,株式会社優稀鉄筋興業,,株式会社,岐阜県,羽島郡岐南町,伏屋８丁目１２６番地サウスヴィラＡ棟２０１号室,,21,302,5016006,,,,,,,2023-08-02,1,,,,,ユウキテッキンコウギョウ,0
2105,8240001061902,新規,0,2023-08-02,2023-08-02,広島ロボテクノ株式会社,,株式会社,広島県,広島市南区,向洋大原町１５番１１号,,34,103,7340063,,,,,,,2023-08-02,1,,,,,,0
2107,8240003006244,新規,0,2023-08-02,2023-08-02,合同会社Ｓｍａｒｔ　Ｎ　Ｃｒｅａｔｅ,,合同会社,広島県,東広島市,西条町下見１０４８２番地１０エグゼ１４０－２号棟２０８号,,34,212,7390044,,,,,,,2023-08-02,1,,,,,スマートエヌクリエイト,0
2109,8250001020213,新規,0,2023-08-02,2023-08-02,株式会社秋川くらしファーム,,株式会社,山口県,山口市,白石１丁目１４番６号,,35,203,7530070,,,,,,,2023-08-02,1,,,,,アキカワクラシファーム,0
2110,8250003003323,新規,0,2023-08-02,2023-08-02,合同会社Ｋ’ｚ　Ｌａｂ,,合同会社,山口県,下関市,熊野西町１７番３５号,,35,201,7510851,,,,,,,2023-08-02,1,,,,,ケーズラボ,0
2113,8260003004353,新規,0,2023-08-02,2023-08-02,ＹｏＭＡ合同会社,,合同会社,岡山県,備前市,伊部１６１１番地１,,33,211,7050001,,,,,,,2023-08-02,1,,,,,ヨーマー,0
2114,8260003004378,新規,0,2023-08-02,2023-08-02,合同会社ペールノエル,,合同会社,岡山県,岡山市北区,富田町２丁目１２番１２号藤原ビル東棟,,33,101,7000816,,,,,,,2023-08-02,1,,,,,ペールノエル,0
2115,8280003001753,新規,0,2023-08-02,2023-08-02,合同会社ＯＫＩＫＡＮハウス,,合同会社,島根県,隠岐郡隠岐の島町,下西８１１番地６,,32,528,6850017,,,,,,,2023-08-02,1,,,,,オキカンハウス,0
2118,8290001102420,新規,0,2023-08-02,2023-08-02,株式会社Ｋプランニング,,株式会社,福岡県,福岡市中央区,大宮１丁目３番２２号イング大宮２０１,,40,133,8100013,,,,,,,2023-08-02,1,,,,,ケイプランニング,0
2119,8290001102453,新規,0,2023-08-02,2023-08-02,株式会社トラストライオンコンサルタンツ,,株式会社,福岡県,福岡市東区,奈多１丁目２０番１４号,,40,131,8110204,,,,,,,2023-08-02,1,,,,,トラストライオンコンサルタンツ,0
2122,8300001013401,新規,0,2023-08-02,2023-08-02,株式会社ＯＫＡＮＯ,,株式会社,佐賀県,唐津市,元石町１１３番地２,,41,202,8470064,,,,,,,2023-08-02,1,,,,,オカノ,0
2125,8320005010095,新規,0,2023-08-02,2023-08-02,農事組合法人杉河内営農組合慈恩,,その他の設立登記法人,大分県,日田市,天瀬町赤岩１３９０番地１,,44,204,8794202,,,,,,,2023-08-02,1,,,,,スギカワウチエイノウクミアイジオン,0
2126,8330001031094,新規,0,2023-08-02,2023-08-02,株式会社ＥＲ　ＬＡＢＯ,,株式会社,熊本県,菊池郡菊陽町,大字津久礼２５０９番地５,,43,404,8691101,,,,,,,2023-08-02,1,,,,,イーアールラボ,0
2129,8330005010680,新規,0,2023-08-02,2023-08-02,一般社団法人コンパス・ラボ,,その他の設立登記法人,熊本県,上益城郡山都町,芦屋田２１６番地,,43,447,8613541,,,,,,,2023-08-02,1,,,,,コンパスラボ,0
2130,8340001025756,新規,0,2023-08-02,2023-08-02,種子島コンサルタント株式会社,,株式会社,鹿児島県,熊毛郡中種子町,野間４２３２番地４　２号室,,46,501,8913604,,,,,,,2023-08-02,1,,,,,タネガシマコンサルタント,0
2135,8370001050223,新規,0,2023-08-02,2023-08-02,株式会社榮歩,,株式会社,宮城県,仙台市青葉区,中央２丁目２番３０号日興ビル,,04,101,9800021,,,,,,,2023-08-02,1,,,,,エイブ,0
2144,8390001017336,新規,0,2023-08-02,2023-08-02,上原自動車株式会社,,株式会社,山形県,寒河江市,大字寒河江字上原８２番地１,,06,206,9910041,,,,,,,2023-08-02,1,,,,,ウエハラジドウシャ,0
2149,8430001089593,新規,0,2023-08-02,2023-08-02,株式会社札幌山鼻長尾工業,,株式会社,北海道,札幌市中央区,南五条東３丁目１０番地１クラシックハイム９０１号,,01,101,0600055,,,,,,,2023-08-02,1,,,,,サッポロヤマハナナガオコウギョウ,0
2150,8430001089602,新規,0,2023-08-02,2023-08-02,株式会社北海道骨材産業,,株式会社,北海道,札幌市清田区,里塚緑ケ丘６丁目２３番６号,,01,110,0040805,,,,,,,2023-08-02,1,,,,,ホッカイドウコツザイサンギョウ,0
2151,8430001089627,新規,0,2023-08-02,2023-08-02,株式会社ＡＺＬ,,株式会社,北海道,札幌市中央区,北十二条西１５丁目５番１号,,01,101,0600012,,,,,,,2023-08-02,1,,,,,アズール,0
2152,8430001089643,新規,0,2023-08-02,2023-08-02,株式会社モータウン,,株式会社,北海道,札幌市白石区,東米里２１９２番地８６,,01,104,0030876,,,,,,,2023-08-02,1,,,,,モータウン,0
2155,8430003015283,新規,0,2023-08-02,2023-08-02,ＨＯＮＧ　ＰＨＵＣ合同会社,,合同会社,北海道,札幌市中央区,南九条西１１丁目３番２０号マクセル山鼻３０１号,,01,101,0640809,,,,,,,2023-08-02,1,,,,,ホンフック,0
2162,8480001012162,新規,0,2023-08-02,2023-08-02,株式会社サンズプレイス,,株式会社,徳島県,鳴門市,鳴門町高島字竹島２１２番地３,,36,202,7720051,,,,,,,2023-08-02,1,,,,,サンズプレイス,0
2168,8500001025095,新規,0,2023-08-02,2023-08-02,株式会社ひかり内装,,株式会社,愛媛県,松山市,和泉北１丁目１番１３号Ｅａｒｔｈ　Ｉｚｕｍｉ１０３号,,38,201,7900038,,,,,,,2023-08-02,1,,,,,ヒカリナイソウ,0
2171,8700150118720,新規,0,2023-08-02,2023-08-02,ｄｏｎｇｇｕａｎｓｈｉ　ｍｉｎｙｉｘｉｎｇｄｉａｎｚｉ　ｙｏｕｘｉａｎｇｏｎｇｓｉ,,外国会社等,,,,,,,,ｇｕａｎｇｄｏｎｇｓｈｅｎｇｄｏｎｇｇｕａｎｓｈｉｔａｎｇｘｉａｚｈｅｎｈｏｎｇｙｅｂｅｉｌｕ９９ｈａｏｚｈｉｙｉ４ｄｏｎｇ３０２ｓｈｉ,,,,,,2023-08-02,1,,,,,ドングァンシミンイシンデンシユウゲンコウシ,0
2185,9010401176066,新規,0,2023-08-02,2023-08-02,ＥＺＹＲＥＭＩＴ　ＷＯＲＬＤＷＩＤＥ株式会社,,株式会社,東京都,港区,元麻布３丁目１番６号,,13,103,1060046,,,,,,,2023-08-02,1,,,,,イージーレミットワールドワイド,0
2187,9010403030592,新規,0,2023-08-02,2023-08-02,キャボット・スペシャルティ・ケミカルズ・インク合同会社,,合同会社,東京都,港区,芝大門２丁目５番５号,,13,103,1050012,,,,,,,2023-08-02,1,,,,,キャボットスペシャルティケミカルズインク,0
2198,9010701044617,新規,0,2023-08-02,2023-08-02,株式会社トレオ,,株式会社,東京都,品川区,西五反田２丁目３４番１号ＫＫビル１階,,13,109,1410031,,,,,,,2023-08-02,1,,,,,トレオ,0
2210,9011003017278,新規,0,2023-08-02,2023-08-02,ＳｙｓｔｅｍＢｅｒｒｙ合同会社,,合同会社,東京都,渋谷区,道玄坂１丁目１６－６二葉ビル８ｂ,,13,113,1500043,,,,,,,2023-08-02,1,,,,,システムベリー,0
2215,9011101103822,新規,0,2023-08-02,2023-08-02,ＰＲＯ‐ＡＣＴＩＯＮ株式会社,,株式会社,東京都,新宿区,大久保３丁目８番３号,,13,104,1690072,,,,,,,2023-08-02,1,,,,,プロアクション,0
2216,9011201024811,新規,0,2023-08-02,2023-08-02,東京映像制作センター株式会社,,株式会社,東京都,中野区,上高田１丁目２番３４号,,13,114,1640002,,,,,,,2023-08-02,1,,,,,トウキョウエイゾウセイサクセンター,0
2219,9011301028902,新規,0,2023-08-02,2023-08-02,株式会社マネーパートナー,,株式会社,東京都,杉並区,天沼３丁目３０番４０号フヨウハウス２０７,,13,115,1670032,,,,,,,2023-08-02,1,,,,,マネーパートナー,0
2224,9011501029601,新規,0,2023-08-02,2023-08-02,正和株式会社,,株式会社,東京都,荒川区,東日暮里６丁目４番８号,,13,118,1160014,,,,,,,2023-08-02,1,,,,,セイワ,0
2225,9011503005699,新規,0,2023-08-02,2023-08-02,合同会社ＬＩＮＫＳ,,合同会社,東京都,荒川区,西日暮里６丁目１６番１３－１０２号,,13,118,1160013,,,,,,,2023-08-02,1,,,,,リンクス,0
2227,9011801042808,新規,0,2023-08-02,2023-08-02,株式会社ＴＨ,,株式会社,東京都,足立区,南花畑５丁目７番１０－１０１号,,13,121,1210062,,,,,,,2023-08-02,1,,,,,ティーエイチ,0
2228,9011801042832,新規,0,2023-08-02,2023-08-02,株式会社ａｒｃｏ,,株式会社,東京都,足立区,千住橋戸町４１番地ガーデンハウスＫ３号室,,13,121,1200038,,,,,,,2023-08-02,1,,,,,アルコ,0
2237,9012801022527,新規,0,2023-08-02,2023-08-02,株式会社眞知田設計,,株式会社,東京都,昭島市,緑町５丁目１１番２３号,,13,207,1960004,,,,,,,2023-08-02,1,,,,,マチダセッケイ,0
2238,9012801022535,新規,0,2023-08-02,2023-08-02,株式会社Ａｉｔｅｃ　Ｂｉｚ　Ｃｏｎｓｕｌｔｉｎｇ,,株式会社,東京都,立川市,西砂町１丁目２－２７ソルヴィエントメイツ８０４,,13,202,1900034,,,,,,,2023-08-02,1,,,,,アイテックビズコンサルティング,0
2239,9012801022543,新規,0,2023-08-02,2023-08-02,株式会社ｆｏｕｆｏｕ,,株式会社,東京都,国立市,東１丁目１６番地１７・５階,,13,215,1860002,,,,,,,2023-08-02,1,,,,,フーフー,0
2255,9020001152730,新規,0,2023-08-02,2023-08-02,テオ株式会社,,株式会社,神奈川県,横浜市西区,戸部町３丁目８３番地１大塚ビル３０３,,14,103,2200042,,,,,,,2023-08-02,1,,,,,テオ,0
2265,9021001079765,新規,0,2023-08-02,2023-08-02,株式会社オーリム,,株式会社,神奈川県,小田原市,田島１６６－１２,,14,206,2560811,,,,,,,2023-08-02,1,,,,,オーリム,0
2273,9030003022154,新規,0,2023-08-02,2023-08-02,合同会社ＭＳＣ,,合同会社,埼玉県,川越市,霞ケ関東１丁目１４番地９,,11,201,3501103,,,,,,,2023-08-02,1,,,,,エムエスシィ,0
2276,9040001129454,新規,0,2023-08-02,2023-08-02,株式会社大栄,,株式会社,千葉県,木更津市,金田東１丁目２番地７,,12,206,2920009,,,,,,,2023-08-02,1,,,,,ダイエイ,0
2280,9040003022839,新規,0,2023-08-02,2023-08-02,新紅合同会社,,合同会社,千葉県,船橋市,西船６丁目６－３６,,12,204,2730031,,,,,,,2023-08-02,1,,,,,シンコウ,0
2287,9050005013307,新規,0,2023-08-02,2023-08-02,一般社団法人ときわ健診協会,,その他の設立登記法人,茨城県,牛久市,中央５丁目１３番地１９,,08,219,3001234,,,,,,,2023-08-02,1,,,,,トキワケンシンキョウカイ,0
2291,9060001036203,新規,0,2023-08-02,2023-08-02,木村プレス株式会社,,株式会社,栃木県,足利市,五十部町９７０番地,,09,202,3260843,,,,,,,2023-08-02,1,,,,,キムラプレス,0
2296,9070001040690,新規,0,2023-08-02,2023-08-02,リズム翔栄株式会社,,株式会社,群馬県,伊勢崎市,三和町２７１８番地３,,10,204,3720011,,,,,,,2023-08-02,1,,,,,リズムショウエイ,0
2297,9070001040699,新規,0,2023-08-02,2023-08-02,株式会社高橋建材,,株式会社,群馬県,高崎市,福島町７６２番地１,,10,202,3703523,,,,,,,2023-08-02,1,,,,,タカハシケンザイ,0
2300,9070005010153,新規,0,2023-08-02,2023-08-02,医療法人歯友会,,その他の設立登記法人,群馬県,桐生市,川内町３丁目３３１番地９,,10,203,3760041,,,,,,,2023-08-02,1,,,,,シユウカイ,0
2302,9080001025765,新規,0,2023-08-02,2023-08-02,株式会社ルビコン・ワークス,,株式会社,静岡県,静岡市清水区,茂野島３２０番地の１,,22,103,4240405,,,,,,,2023-08-02,1,,,,,ルビコンワークス,0
2306,9080101024147,新規,0,2023-08-02,2023-08-02,株式会社御殿川,,株式会社,静岡県,三島市,梅名４７７番地の８,,22,206,4110816,,,,,,,2023-08-02,1,,,,,ゴテンガワ,0
2308,9080103002860,新規,0,2023-08-02,2023-08-02,合同会社興栄警備,,合同会社,静岡県,沼津市,高島本町１４番２３号サンハイムワタナベ１０２号,,22,203,4100055,,,,,,,2023-08-02,1,,,,,コウエイケイビ,0
2309,9080401026636,新規,0,2023-08-02,2023-08-02,株式会社ＭＡＹＢ３,,株式会社,静岡県,浜松市南区,楊子町１０９０番地の９,,22,134,4300855,,,,,,,2023-08-02,1,,,,,メイビースリー,0
2316,9100001036628,新規,0,2023-08-02,2023-08-02,つたや農場株式会社,,株式会社,長野県,須坂市,大字小山５２９番地７,,20,207,3820000,,,,,,,2023-08-02,1,,,,,ツタヤノウジョウ,0
2337,9120001256918,新規,0,2023-08-02,2023-08-02,青美株式会社,,株式会社,大阪府,大阪市中央区,島之内１丁目１１番２９号,,27,128,5420082,,,,,,,2023-08-02,1,,,,,セイビ,0
2339,9120003024620,新規,0,2023-08-02,2023-08-02,合同会社Ｂｌｕｅ　Ｒｏｓｅ,,合同会社,大阪府,大阪市西成区,南開２丁目１－１３,,27,122,5570023,,,,,,,2023-08-02,1,,,,,ブルーローズ,0
2340,9120003024629,新規,0,2023-08-02,2023-08-02,合同会社Ｋ２,,合同会社,大阪府,大阪市平野区,背戸口１丁目１番１号,,27,126,5470034,,,,,,,2023-08-02,1,,,,,ケーツー,0
2341,9120005023793,新規,0,2023-08-02,2023-08-02,税理士法人井内会計事務所,,その他の設立登記法人,大阪府,大阪市淀川区,十三本町２丁目３番８号,,27,123,5320024,,,,,,,2023-08-02,1,,,,,イウチカイケイジムショ,0
2344,9120103005355,新規,0,2023-08-02,2023-08-02,合同会社ｕａｉ,,合同会社,大阪府,堺市堺区,戎島町２丁３０番地,,27,141,5900985,,,,,,,2023-08-02,1,,,,,ウアイ,0
2346,9120901047862,新規,0,2023-08-02,2023-08-02,インドネシアホスピタリティコネクションズ株式会社,,株式会社,大阪府,箕面市,萱野４丁目３番１０号,,27,220,5620014,,,,,,,2023-08-02,1,,,,,インドネシアホスピタリティコネクションズ,0
2349,9130001074889,新規,0,2023-08-02,2023-08-02,株式会社オフィス池本,,株式会社,京都府,京都市中京区,油小路通四条上る藤本町５５５番地３ＦＵＳＥ四条６０１,,26,104,6048233,,,,,,,2023-08-02,1,,,,,オフィスイケモト,0
2360,9140003019370,新規,0,2023-08-02,2023-08-02,ＮＫ‐ｎｅｘｔ合同会社,,合同会社,兵庫県,小野市,本町３３４番地の２,,28,218,6751372,,,,,,,2023-08-02,1,,,,,エヌケイネクスト,0
2364,9160001025229,新規,0,2023-08-02,2023-08-02,株式会社１００年スマイル,,株式会社,滋賀県,大津市,皇子が丘３丁目３番２３号,,25,201,5200025,,,,,,,2023-08-02,1,,,,,ヒャクネンスマイル,0
2375,9180001157318,新規,0,2023-08-02,2023-08-02,中日システムズ株式会社,,株式会社,愛知県,名古屋市熱田区,幡野町１８番１１号,,23,109,4560077,,,,,,,2023-08-02,1,,,,,チュウニチシステムズ,0
2377,9180001157400,新規,0,2023-08-02,2023-08-02,株式会社ＨＬＦ,,株式会社,愛知県,名古屋市中川区,供米田１丁目１１１１番地,,23,110,4540984,,,,,,,2023-08-02,1,,,,,エイチエルエフ,0
2378,9180003025514,新規,0,2023-08-02,2023-08-02,合同会社ＴＲＩＰＬＥ　Ｍ,,合同会社,愛知県,津島市,愛宕町４丁目１８番地１ミリアン愛宕リーフタウン１０１号,,23,208,4960036,,,,,,,2023-08-02,1,,,,,トリプルエム,0
2391,9240001061884,新規,0,2023-08-02,2023-08-02,株式会社ＧＴ‐Ｓ,,株式会社,広島県,広島市東区,光町２丁目４番２５－１０１号,,34,102,7320052,,,,,,,2023-08-02,1,,,,,ジーティーエス,0
2393,9250003003322,新規,0,2023-08-02,2023-08-02,合同会社Ｓ‐ＫＯＴＯ　ＪＡＰＡＮ,,合同会社,山口県,長門市,深川湯本１３２３番地１,,35,211,7594103,,,,,,,2023-08-02,1,,,,,エスコートジャパン,0
2403,9260001038162,新規,0,2023-08-02,2023-08-02,株式会社香登屋,,株式会社,岡山県,備前市,香登本８９３番地,,33,211,7050012,,,,,,,2023-08-02,1,,,,,カガトヤ,0
2404,9260001038170,新規,0,2023-08-02,2023-08-02,株式会社Ｂｒｉｎｇ　Ｊｏｙ,,株式会社,岡山県,岡山市北区,牟佐１４６１番地１,,33,101,7012141,,,,,,,2023-08-02,1,,,,,ブリングジョイ,0
2406,9260003004377,新規,0,2023-08-02,2023-08-02,ワイズコンサルティングサービシズ合同会社,,合同会社,岡山県,浅口市,鴨方町鴨方１１０５番地１１,,33,216,7190243,,,,,,,2023-08-02,1,,,,,ワイズコンサルティングサービシズ,0
2408,9280003001752,新規,0,2023-08-02,2023-08-02,合同会社ｓｔａｒ,,合同会社,島根県,出雲市,斐川町富村９６５番地１,,32,203,6990621,,,,,,,2023-08-02,1,,,,,スター,0
2410,9290001102254,新規,0,2023-08-02,2023-08-02,株式会社ＡＢＥＮＧＥＲＳ,,株式会社,福岡県,福岡市早良区,重留１丁目１－３１－１０３,,40,137,8111101,,,,,,,2023-08-02,1,,,,,アベンジャーズ,0
2411,9290001102460,新規,0,2023-08-02,2023-08-02,株式会社Ｍ’ｓ　ＧＲＯＵＰ,,株式会社,福岡県,福岡市博多区,住吉２丁目４番７－７０２号,,40,132,8120018,,,,,,,2023-08-02,1,,,,,エムズグループ,0
2421,9310001018539,新規,0,2023-08-02,2023-08-02,株式会社ネクスト地所,,株式会社,長崎県,長崎市,橋口町７番７号,,42,201,8528114,,,,,,,2023-08-02,1,,,,,ネクストジジョ,0
2422,9330003009914,新規,0,2023-08-02,2023-08-02,エムＴｈｒｅｅ合同会社,,合同会社,熊本県,熊本市北区,飛田１丁目３番１４８号,,43,105,8615514,,,,,,,2023-08-02,1,,,,,エムスリー,0
2426,9360001032353,新規,0,2023-08-02,2023-08-02,株式会社Ｉ＆Ｉ,,株式会社,沖縄県,国頭郡恩納村,字安富祖４９番地,,47,311,9040402,,,,,,,2023-08-02,1,,,,,アヤナイ,0
2427,9370001050214,新規,0,2023-08-02,2023-08-02,Ｍ　Ｓ　Ｆ　ＴＲＡＤＩＮＧ株式会社,,株式会社,宮城県,仙台市太白区,八木山松波町２番２１号アカデミックハイツ２０６号室,,04,104,9820836,,,,,,,2023-08-02,1,,,,,エムエスエフトレーディング,0
2443,9430001089618,新規,0,2023-08-02,2023-08-02,ｒ‐ｈ．ｐマネジメント株式会社,,株式会社,北海道,札幌市中央区,南一条西１１丁目３２７番地６ワンズ南一条ビル３階,,01,101,0600061,,,,,,,2023-08-02,1,,,,,アールエイチピーマネジメント,0
2444,9430001089626,新規,0,2023-08-02,2023-08-02,株式会社ＡＵＮ,,株式会社,北海道,虻田郡ニセコ町,字中央通１４２番地５,,01,395,0481512,,,,,,,2023-08-02,1,,,,,アウン,0
2449,9450003002361,新規,0,2023-08-02,2023-08-02,合同会社マルハチ青田商店,,合同会社,北海道,上川郡美瑛町,本町１丁目４番５号,,01,459,0710208,,,,,,,2023-08-02,1,,,,,マルハチアオタシヨウテン,0
2450,9460103001543,新規,0,2023-08-02,2023-08-02,合同会社ライトワーク,,合同会社,北海道,帯広市,東五条南１０丁目１１番地５,,01,207,0800805,,,,,,,2023-08-02,1,,,,,ライトワーク,0
2452,9480001012161,新規,0,2023-08-02,2023-08-02,株式会社ａｍｉｄｅｘ,,株式会社,徳島県,徳島市,富田橋３丁目２０番地,,36,201,7700937,,,,,,,2023-08-02,1,,,,,アミデックス,0
2453,9490001010552,新規,0,2023-08-02,2023-08-02,株式会社オネスト,,株式会社,高知県,南国市,岡豊町小蓮１１０５番地１,,39,204,7830043,,,,,,,2023-08-02,1,,,,,オネスト,0
2455,9500001025094,新規,0,2023-08-02,2023-08-02,上城建設株式会社,,株式会社,愛媛県,大洲市,柚木２６８番地,,38,207,7950011,,,,,,,2023-08-02,1,,,,,ウエシロケンセツ,0
