sequenceNumber,corporateNumber,process,correct,updateDate,changeDate,name,nameImageId,kind,prefectureName,cityName,streetNumber,addressImageId,prefectureCode,cityCode,postCode,addressOutside,addressOutsideImageId,closeDate,closeCause,successorCorporateNumber,changeCause,assignmentDate,latest,enName,enPrefectureName,enCityName,enAddressOutside,furigana,hihyoji
12,1010005033670,新規,0,2021-07-26,2021-07-26,一般社団法人宇宙・地球・生命研究所,,その他の設立登記法人,東京都,中央区,日本橋小伝馬町１３番４号共同ビル６階,,13,102,1030001,,,,,,,2021-07-26,1,,,,,ウチュウチキュウセイメイケンキュウショ,0
46,1011001141772,新規,0,2021-07-26,2021-07-26,株式会社プラスワン東京,,株式会社,東京都,渋谷区,恵比寿南２丁目３番３－７０９号,,13,113,1500022,,,,,,,2021-07-26,1,,,,,プラスワントウキョウ,0
47,1011001141830,新規,0,2021-07-26,2021-07-26,株式会社キミテラス,,株式会社,東京都,目黒区,八雲３丁目７番３号,,13,110,1520023,,,,,,,2021-07-26,1,,,,,キミテラス,0
48,1011001141905,新規,0,2021-07-26,2021-07-26,ＧａａＳ株式会社,,株式会社,東京都,渋谷区,神宮前６丁目２３番１７号,,13,113,1500001,,,,,,,2021-07-26,1,,,,,ガース,0
51,1011003013103,新規,0,2021-07-26,2021-07-26,ライフデザイン合同会社,,合同会社,東京都,渋谷区,神宮前１丁目１番５号,,13,113,1500001,,,,,,,2021-07-26,1,,,,,ライフデザイン,0
54,1011303004108,新規,0,2021-07-26,2021-07-26,合同会社Ｔ．Ｈ．Ｂ,,合同会社,東京都,杉並区,荻窪３丁目１－２グリーンステイト荻窪Ｃ１０２,,13,115,1670051,,,,,,,2021-07-26,1,,,,,ティーエイチビー,0
63,1011603003354,新規,0,2021-07-26,2021-07-26,ボダピク合同会社,,合同会社,東京都,練馬区,石神井町８丁目２１－１３－２２,,13,120,1770041,,,,,,,2021-07-26,1,,,,,ボダピク,0
70,1012703002270,新規,0,2021-07-26,2021-07-26,合同会社アルバ,,合同会社,東京都,清瀬市,竹丘３丁目１８－２３,,13,221,2040023,,,,,,,2021-07-26,1,,,,,アルバ,0
71,1012801020967,新規,0,2021-07-26,2021-07-26,Ｆ・Ｔ・ホーム株式会社,,株式会社,東京都,昭島市,拝島町３丁目５番６号,,13,207,1960002,,,,,,,2021-07-26,1,,,,,エフティーホーム,0
74,1013301047757,新規,0,2021-07-26,2021-07-26,株式会社Ｐａｒａｄｉｓｏ,,株式会社,東京都,豊島区,要町１丁目９番３号ヨシカワビル２０１,,13,116,1710043,,,,,,,2021-07-26,1,,,,,パラディソ,0
85,1020001142334,新規,0,2021-07-26,2021-07-26,株式会社寿々喜屋,,株式会社,神奈川県,横浜市中区,新山下２丁目８番ベイサイド新山下Ｂ－１－３,,14,104,2310801,,,,,,,2021-07-26,1,,,,,スズキヤ,0
87,1020003020232,新規,0,2021-07-26,2021-07-26,ミック合同会社,,合同会社,神奈川県,横浜市青葉区,美しが丘１丁目１３番地１０吉村ビル１０７号,,14,117,2250002,,,,,,,2021-07-26,1,,,,,ミック,0
90,1020005015148,新規,0,2021-07-26,2021-07-26,一般社団法人寿地区振興会,,その他の設立登記法人,神奈川県,横浜市中区,松影町３丁目１０番地１５,,14,104,2310025,,,,,,,2021-07-26,1,,,,,コトブキチクシンコウカイ,0
93,1021001073478,新規,0,2021-07-26,2021-07-26,ドット・ライン株式会社,,株式会社,神奈川県,鎌倉市,七里ガ浜東４丁目１４番３号１０２,,14,204,2480025,,,,,,,2021-07-26,1,,,,,ドットライン,0
94,1021001073486,新規,0,2021-07-26,2021-07-26,株式会社エムアイロジ,,株式会社,神奈川県,海老名市,中央１丁目１６番３１号,,14,215,2430432,,,,,,,2021-07-26,1,,,,,エムアイロジ,0
96,1021003010710,新規,0,2021-07-26,2021-07-26,Ｃｏｎｎｅｃｔｉｏｎ合同会社,,合同会社,神奈川県,座間市,相模が丘５丁目４番１８－２０１号,,14,216,2520001,,,,,,,2021-07-26,1,,,,,コネクション,0
122,1040001119479,新規,0,2021-07-26,2021-07-26,クリエイトホーム株式会社,,株式会社,千葉県,我孫子市,白山２丁目５番２１号メゾン松丸１０６,,12,222,2701154,,,,,,,2021-07-26,1,,,,,クリエイトホーム,0
123,1040001119487,新規,0,2021-07-26,2021-07-26,メープル・キー・アンド・サン株式会社,,株式会社,千葉県,松戸市,八ケ崎１丁目１２番地の２ルチルⅠ、２０１号,00123725,12,207,2700023,,,,,,,2021-07-26,1,,,,,メープルキーアンドサン,0
133,1050001049576,新規,0,2021-07-26,2021-07-26,株式会社リファインゼロ,,株式会社,茨城県,取手市,吉田３番地２,,08,217,3020007,,,,,,,2021-07-26,1,,,,,リファインゼロ,0
164,1120001239211,新規,0,2021-07-26,2021-07-26,株式会社エフ,,株式会社,大阪府,大阪市西成区,玉出中２丁目９番６号,,27,122,5570044,,,,,,,2021-07-26,1,,,,,エフ,0
165,1120001239260,新規,0,2021-07-26,2021-07-26,株式会社ガニェ,,株式会社,大阪府,大阪市淀川区,西中島５丁目７番１９号,,27,123,5320011,,,,,,,2021-07-26,1,,,,,ガニェ,0
167,1120003019875,新規,0,2021-07-26,2021-07-26,ヘルスケア・プリンシプルズ合同会社,,合同会社,大阪府,大阪市西区,靱本町１丁目１９番１６－５０６号,,27,106,5500004,,,,,,,2021-07-26,1,,,,,ヘルスケアプリンシプルズ,0
168,1120003019883,新規,0,2021-07-26,2021-07-26,合同会社大和介護サービス,,合同会社,大阪府,大阪市鶴見区,茨田大宮４丁目２２番１８号,,27,124,5380031,,,,,,,2021-07-26,1,,,,,ヤマトカイゴサービス,0
172,1120101064022,新規,0,2021-07-26,2021-07-26,株式会社ＡＷＥＳＯＭＥ,,株式会社,大阪府,泉大津市,二田町２丁目１２番３２号,,27,206,5950015,,,,,,,2021-07-26,1,,,,,オーサム,0
179,1120905006203,新規,0,2021-07-26,2021-07-26,一般社団法人クリスチャンコモンズ,,その他の設立登記法人,大阪府,茨木市,双葉町１０－１茨木東阪急ビル４階,,27,211,5670829,,,,,,,2021-07-26,1,,,,,クリスチャンコモンズ,0
195,1140001122381,新規,0,2021-07-26,2021-07-26,株式会社マルシンテクノ,,株式会社,兵庫県,伊丹市,森本１丁目５３－５,,28,207,6640842,,,,,,,2021-07-26,1,,,,,マルシンテクノ,0
196,1140001122407,新規,0,2021-07-26,2021-07-26,Ｒｉｎ株式会社,,株式会社,兵庫県,神戸市中央区,大日通４丁目１－２１－１Ｆ,,28,110,6510064,,,,,,,2021-07-26,1,,,,,リン,0
202,1140003016532,新規,0,2021-07-26,2021-07-26,合同会社Ｈａｐｐｙ　ｐｌａｃｅカラフル,,合同会社,兵庫県,加古川市,平岡町高畑８０１番地の１５,,28,210,6750103,,,,,,,2021-07-26,1,,,,,ハッピープレイスカラフル,0
203,1140003016549,新規,0,2021-07-26,2021-07-26,合同会社Ｔｈｉｎｋ　ｏｕｔｓｉｄｅ　ｔｈｅ　Ｂｏｘ,,合同会社,兵庫県,神戸市中央区,磯上通８丁目１番２９号カサベラビルＣ＆Ｍ４０３,,28,110,6510086,,,,,,,2021-07-26,1,,,,,シンクアウトサイドザボックス,0
205,1150003002432,新規,0,2021-07-26,2021-07-26,合同会社アスモ・ケアマネジメント,,合同会社,奈良県,香芝市,北今市６丁目４２６番地２,,29,210,6390242,,,,,,,2021-07-26,1,,,,,アスモケアマネジメント,0
206,1150005009310,新規,0,2021-07-26,2021-07-26,弁護士法人ナラハ,,その他の設立登記法人,奈良県,奈良市,西大寺栄町３番２７号泉谷ビル１階,,29,201,6310822,,,,,,,2021-07-26,1,,,,,ナラハ,0
210,1170001016688,新規,0,2021-07-26,2021-07-26,株式会社ヤマタ,,株式会社,和歌山県,有田郡湯浅町,大字田１１４４番地,,30,361,6430006,,,,,,,2021-07-26,1,,,,,ヤマタ,0
211,1170003001606,新規,0,2021-07-26,2021-07-26,合同会社シエスタ,,合同会社,和歌山県,新宮市,浮島１番２８号中本ビル２－１,,30,207,6470014,,,,,,,2021-07-26,1,,,,,シエスタ,0
219,1180001147045,新規,0,2021-07-26,2021-07-26,新川株式会社,,株式会社,愛知県,名古屋市名東区,貴船２丁目３０５番地アーバン貴船２０１号,,23,115,4650058,,,,,,,2021-07-26,1,,,,,シンカワ,0
220,1180001147053,新規,0,2021-07-26,2021-07-26,フォース株式会社,,株式会社,愛知県,名古屋市中川区,戸田４丁目１７０８番地の２,,23,110,4540962,,,,,,,2021-07-26,1,,,,,フォース,0
221,1180001147061,新規,0,2021-07-26,2021-07-26,株式会社フジライフ,,株式会社,愛知県,半田市,有楽町７丁目１番地の５,,23,205,4750837,,,,,,,2021-07-26,1,,,,,フジライフ,0
222,1180001147078,新規,0,2021-07-26,2021-07-26,株式会社ｃｏｎｆｉｄｅｎｃｅ,,株式会社,愛知県,名古屋市東区,葵１丁目１４番２０号エスティメゾン葵４０６号,,23,102,4610004,,,,,,,2021-07-26,1,,,,,コンフィデンス,0
226,1180003022774,新規,0,2021-07-26,2021-07-26,合同会社ａｌｌｉｕｍ,,合同会社,愛知県,犬山市,大字羽黒字外山野４１－５,,23,215,4840894,,,,,,,2021-07-26,1,,,,,アリウム,0
228,1180301035197,新規,0,2021-07-26,2021-07-26,株式会社オーシャンワークス,,株式会社,愛知県,西尾市,寺部町笠外１８６番地３５,,23,213,4440702,,,,,,,2021-07-26,1,,,,,オーシャンワークス,0
234,1200001038927,新規,0,2021-07-26,2021-07-26,大進株式会社,,株式会社,岐阜県,岐阜市,須賀４丁目４番８号,,21,201,5008289,,,,,,,2021-07-26,1,,,,,ダイシン,0
238,1220001024314,新規,0,2021-07-26,2021-07-26,株式会社ベニーズ,,株式会社,石川県,金沢市,新保本２丁目４３１番地,,17,201,9218062,,,,,,,2021-07-26,1,,,,,ベニーズ,0
248,1260001035786,新規,0,2021-07-26,2021-07-26,株式会社ＮＥＥＤ,,株式会社,岡山県,岡山市北区,野田４丁目１６番２６号アヴァンセ３０２,,33,101,7000971,,,,,,,2021-07-26,1,,,,,ニード,0
249,1260001035794,新規,0,2021-07-26,2021-07-26,株式会社Ｌｉ－ｅｎ,,株式会社,岡山県,岡山市北区,牟佐１３６３番地１１,,33,101,7012141,,,,,,,2021-07-26,1,,,,,リーン,0
266,1340001023956,新規,0,2021-07-26,2021-07-26,ＴＥＲＲＡ総防株式会社,,株式会社,鹿児島県,鹿児島市,春山町１２７６番地９,,46,201,8992704,,,,,,,2021-07-26,1,,,,,テラソウボウ,0
267,1340003003502,新規,0,2021-07-26,2021-07-26,合同会社ＭＡＫＩ,,合同会社,鹿児島県,鹿児島市,中央町２４番地４－２Ｆ,,46,201,8900053,,,,,,,2021-07-26,1,,,,,マキ,0
274,1370005010320,新規,0,2021-07-26,2021-07-26,一般社団法人あんしん・すまい・くらし支援機構,,その他の設立登記法人,宮城県,仙台市青葉区,大町２丁目８番２５号,,04,101,9800804,,,,,,,2021-07-26,1,,,,,アンシンスマイクラシシエンキコウ,0
285,1390001016542,新規,0,2021-07-26,2021-07-26,株式会社ｍｏｒｉ　ｔｒｕｓｔ,,株式会社,山形県,西村山郡河北町,谷地所岡３丁目１番地の６,,06,321,9993513,,,,,,,2021-07-26,1,,,,,モリトラスト,0
302,1450001013418,新規,0,2021-07-26,2021-07-26,株式会社ＡＫ・トレーディング,,株式会社,北海道,旭川市,神楽岡十四条５丁目２番６号,,01,204,0788324,,,,,,,2021-07-26,1,,,,,エーケートレーディング,0
307,1480001011435,新規,0,2021-07-26,2021-07-26,大塚きのこファーム株式会社,,株式会社,徳島県,板野郡板野町,黒谷字東原３３番地５,,36,404,7790113,,,,,,,2021-07-26,1,,,,,オオツカキノコファーム,0
310,1490001009940,新規,0,2021-07-26,2021-07-26,株式会社スタジオエイトカラーズ,,株式会社,高知県,高知市,帯屋町２丁目２番１４号ＯＫＡＭＵＲＡ帯屋町ビル４階,,39,201,7800841,,,,,,,2021-07-26,1,,,,,スタジオエイトカラーズ,0
328,2010003035362,新規,0,2021-07-26,2021-07-26,合同会社クレイン,,合同会社,東京都,千代田区,神田神保町１丁目４４番地１ルジェンテ千代田神保町５０２号,,13,101,1010051,,,,,,,2021-07-26,1,,,,,クレイン,0
346,2010701041281,新規,0,2021-07-26,2021-07-26,株式会社外交研究会,,株式会社,東京都,品川区,上大崎４丁目３番１４号フラワーヒル目黒４０３号室,,13,109,1410021,,,,,,,2021-07-26,1,,,,,ガイコウケンキュウカイ,0
354,2011001141887,新規,0,2021-07-26,2021-07-26,日本アートアセットマネジメント株式会社,,株式会社,東京都,渋谷区,大山町３８番１８号,,13,113,1510065,,,,,,,2021-07-26,1,,,,,,0
355,2011001141929,新規,0,2021-07-26,2021-07-26,株式会社ＮＧＴＧ０７,,株式会社,東京都,渋谷区,渋谷１丁目３－１８ビラ・モデルナＡ４０２,,13,113,1500002,,,,,,,2021-07-26,1,,,,,エヌジーティージーゼロナナ,0
356,2011003013102,新規,0,2021-07-26,2021-07-26,合同会社ＡＤＮｉＱＵＡ,,合同会社,東京都,渋谷区,神宮前６丁目２３－４桑野ビル２Ｆ,,13,113,1500001,,,,,,,2021-07-26,1,,,,,アドニカ,0
365,2011303004107,新規,0,2021-07-26,2021-07-26,合同会社周由堂,,合同会社,東京都,杉並区,井草１丁目４２番１８号,,13,115,1670021,,,,,,,2021-07-26,1,,,,,シュウユウドウ,0
366,2011305002760,新規,0,2021-07-26,2021-07-26,一般社団法人エス・プレイス,,その他の設立登記法人,東京都,杉並区,天沼２丁目８番１５号,,13,115,1670032,,,,,,,2021-07-26,1,,,,,,0
370,2011401023553,新規,0,2021-07-26,2021-07-26,明株式会社,,株式会社,東京都,板橋区,熊野町１８番１０号山崎ビル３Ｆ,,13,119,1730025,,,,,,,2021-07-26,1,,,,,ミン,0
395,2020001142333,新規,0,2021-07-26,2021-07-26,株式会社Ｏ．Ｇ．Ａ,,株式会社,神奈川県,川崎市高津区,溝口１丁目２２－１吉田ビル３０３,,14,134,2130001,,,,,,,2021-07-26,1,,,,,オージーエー,0
405,2021001073469,新規,0,2021-07-26,2021-07-26,株式会社Ｃｏｍｐａｓｓｉｏｎ,,株式会社,神奈川県,厚木市,酒井２５６７－６,,14,212,2430022,,,,,,,2021-07-26,1,,,,,コンパッション,0
406,2021001073502,新規,0,2021-07-26,2021-07-26,株式会社ひかり薬局,,株式会社,神奈川県,茅ヶ崎市,みずき４丁目１８番２号,,14,207,2530088,,,,,,,2021-07-26,1,,,,,ヒカリヤッキョク,0
423,2030003017623,新規,0,2021-07-26,2021-07-26,Ｔｙ－Ｋａｍ合同会社,,合同会社,埼玉県,三郷市,戸ケ崎３１９７番地１,,11,237,3410044,,,,,,,2021-07-26,1,,,,,ティーカム,0
430,2040001119445,新規,0,2021-07-26,2021-07-26,株式会社ＨＢＫ,,株式会社,千葉県,市川市,大野町２丁目１１２番地,,12,203,2720805,,,,,,,2021-07-26,1,,,,,エイチビーケイ,0
449,2080103002388,新規,0,2021-07-26,2021-07-26,合同会社Ａｌｂｕｍ,,合同会社,静岡県,富士宮市,泉町２９０,,22,207,4180043,,,,,,,2021-07-26,1,,,,,アルブム,0
450,2090003001910,新規,0,2021-07-26,2021-07-26,ＴＥＮＥＴ合同会社,,合同会社,山梨県,甲府市,貢川１丁目７－１９コーポ江上Ｂ－２,,19,201,4000065,,,,,,,2021-07-26,1,,,,,テネット,0
462,2120001239193,新規,0,2021-07-26,2021-07-26,ワクワク株式会社,,株式会社,大阪府,大阪市北区,梅田１丁目１番３号大阪駅前第３ビル２３０７,,27,127,5300001,,,,,,,2021-07-26,1,,,,,ワクワク,0
463,2120001239219,新規,0,2021-07-26,2021-07-26,株式会社ＲｉｓｅＯｒｂｉｔ,,株式会社,大阪府,大阪市東淀川区,菅原７丁目６番８－４０２号,,27,114,5330022,,,,,,,2021-07-26,1,,,,,ライズオービット,0
464,2120001239243,新規,0,2021-07-26,2021-07-26,株式会社ＷＩＮＥ　ＴＥＣＨＮＯＲＯＧＩＡ,,株式会社,大阪府,大阪市城東区,中浜１丁目１７番１２号,,27,118,5360024,,,,,,,2021-07-26,1,,,,,ワインテクノロジア,0
465,2120001239276,新規,0,2021-07-26,2021-07-26,株式会社ＳＡＬＥＳ　ＳＱＵＡＲＥ,,株式会社,大阪府,大阪市中央区,備後町３丁目４番１号備後町山口玄ビル９階,,27,128,5410051,,,,,,,2021-07-26,1,,,,,セールススクエア,0
480,2120101064021,新規,0,2021-07-26,2021-07-26,株式会社アーチ,,株式会社,大阪府,岸和田市,土生町９丁目１１番９号,,27,202,5960825,,,,,,,2021-07-26,1,,,,,アーチ,0
482,2120103004264,新規,0,2021-07-26,2021-07-26,合同会社セーフプランナー,,合同会社,大阪府,藤井寺市,青山１丁目３番４１号,,27,226,5830015,,,,,,,2021-07-26,1,,,,,セーフプランナー,0
493,2120905006210,新規,0,2021-07-26,2021-07-26,医療法人和クリニック,,その他の設立登記法人,大阪府,豊中市,少路１丁目７番１６号３Ｂ,,27,203,5600004,,,,,,,2021-07-26,1,,,,,ナゴミクリニック,0
494,2130001069763,新規,0,2021-07-26,2021-07-26,株式会社藤井工務店,,株式会社,京都府,京都市南区,久世中久町６９７－２,,26,107,6018207,,,,,,,2021-07-26,1,,,,,フジイコウムテン,0
501,2140001122406,新規,0,2021-07-26,2021-07-26,順峰国際株式会社,,株式会社,兵庫県,神戸市中央区,楠町６丁目１０番１２号,,28,110,6500017,,,,,,,2021-07-26,1,,,,,ジュンホウコクサイ,0
512,2160001023494,新規,0,2021-07-26,2021-07-26,株式会社Ｍａｔｓ,,株式会社,滋賀県,長浜市,大宮町４番３ー１４０３号,,25,203,5260054,,,,,,,2021-07-26,1,,,,,マッツ,0
514,2170001016687,新規,0,2021-07-26,2021-07-26,ＭＭＤ株式会社,,株式会社,和歌山県,和歌山市,紀三井寺８５５番地６０,,30,201,6410012,,,,,,,2021-07-26,1,,,,,エムエムディー,0
521,2180001147044,新規,0,2021-07-26,2021-07-26,株式会社Ｌｉｎｏ,,株式会社,愛知県,知多郡東浦町,大字森岡字中町５２番地の８,,23,442,4702101,,,,,,,2021-07-26,1,,,,,リノ,0
522,2180001147085,新規,0,2021-07-26,2021-07-26,杉和不動産株式会社,,株式会社,愛知県,名古屋市南区,駈上２丁目１－２４近藤ビル２Ｆ,,23,112,4570007,,,,,,,2021-07-26,1,,,,,スギワフドウサン,0
523,2180001147093,新規,0,2021-07-26,2021-07-26,株式会社マロン,,株式会社,愛知県,半田市,前崎東町６４番地,,23,205,4750863,,,,,,,2021-07-26,1,,,,,マロン,0
527,2180003022773,新規,0,2021-07-26,2021-07-26,アルク合同会社,,合同会社,愛知県,稲沢市,六角堂東町４丁目３番地５,,23,220,4928172,,,,,,,2021-07-26,1,,,,,アルク,0
530,2180303005065,新規,0,2021-07-26,2021-07-26,合同会社アセットラボ,,合同会社,愛知県,豊橋市,羽根井町１３４番地１（６０１）,,23,201,4418025,,,,,,,2021-07-26,1,,,,,アセットラボ,0
537,2220001024313,新規,0,2021-07-26,2021-07-26,中能登ライフプラン株式会社,,株式会社,石川県,鹿島郡中能登町,井田ヲ部１番地１,,17,407,9291721,,,,,,,2021-07-26,1,,,,,ナカノトライフプラン,0
547,2240001058301,新規,0,2021-07-26,2021-07-26,株式会社ＬＡＴＥＳＴ,,株式会社,広島県,福山市,東桜町１番１号ｉｎｅｓＦＵＫＵＹＡＭＡ２階,,34,207,7200065,,,,,,,2021-07-26,1,,,,,レイテスト,0
548,2240001058318,新規,0,2021-07-26,2021-07-26,ＭＭＧ株式会社,,株式会社,広島県,広島市中区,西平塚町４番６－７０５号,,34,101,7300024,,,,,,,2021-07-26,1,,,,,エムエムジー,0
559,2290001093979,新規,0,2021-07-26,2021-07-26,株式会社太陽,,株式会社,福岡県,福岡市南区,的場１丁目１８番３号,,40,134,8111314,,,,,,,2021-07-26,1,,,,,タイヨウ,0
560,2290001094003,新規,0,2021-07-26,2021-07-26,株式会社Ｋ＆Ａ,,株式会社,福岡県,福岡市城南区,樋井川２丁目２２番１８号,,40,136,8140153,,,,,,,2021-07-26,1,,,,,ケイアンドエー,0
570,2340003003501,新規,0,2021-07-26,2021-07-26,合同会社ベルグ,,合同会社,鹿児島県,鹿児島市,田上７丁目２４番１０号,,46,201,8900034,,,,,,,2021-07-26,1,,,,,ベルグ,0
572,2350001017213,新規,0,2021-07-26,2021-07-26,株式会社秀栄型枠,,株式会社,宮崎県,児湯郡都農町,大字川北３９５９番地,,45,406,8891201,,,,,,,2021-07-26,1,,,,,シュウエイカタワク,0
573,2350003003896,新規,0,2021-07-26,2021-07-26,合同会社カウンティライン,,合同会社,宮崎県,宮崎市,学園木花台南３丁目８番地１,,45,201,8892153,,,,,,,2021-07-26,1,,,,,カウンティライン,0
588,2400001015533,新規,0,2021-07-26,2021-07-26,株式会社Ａｃｅ,,株式会社,岩手県,盛岡市,東仙北２丁目６番２６号,,03,201,0200862,,,,,,,2021-07-26,1,,,,,エース,0
592,2430003012963,新規,0,2021-07-26,2021-07-26,合同会社ｃｌｅａｒ,,合同会社,北海道,岩見沢市,ふじ町二条１丁目２番２８号,,01,210,0680832,,,,,,,2021-07-26,1,,,,,クレア,0
603,2700150104164,新規,0,2021-07-26,2021-07-26,ＡＳＨＩＫ　ＥＮＴＥＲＰＲＩＳＥＳ,,外国会社等,千葉県,八街市,八街い１３９－１５－３,,12,230,2891143,スリランカ民主社会主義共和国、Ｎｏ．４９クルクッタラ、カドゥガンナーワ、キャンディ,,,,,,2021-07-26,1,,,,,アシクエンタープライス,0
609,3010003035361,新規,0,2021-07-26,2021-07-26,合同会社Ａｔｔｒａｃｔ,,合同会社,東京都,中央区,銀座１丁目２２番１１号,,13,102,1040061,,,,,,,2021-07-26,1,,,,,アトラクト,0
610,3010003035386,新規,0,2021-07-26,2021-07-26,合同会社Ａｍａｍｏ,,合同会社,東京都,中央区,勝どき６丁目３番２－５１１１号,,13,102,1040054,,,,,,,2021-07-26,1,,,,,アマモ,0
611,3010003035403,新規,0,2021-07-26,2021-07-26,合同会社北陸開発,,合同会社,東京都,中央区,晴海３丁目１３番１号,,13,102,1040053,,,,,,,2021-07-26,1,,,,,ホクリクカイハツ,0
615,3010101014779,新規,0,2021-07-26,2021-07-26,盟生総研株式会社,,株式会社,東京都,八王子市,小比企町５３６番地５コンフォール２０２号,,13,201,1930934,,,,,,,2021-07-26,1,,,,,メイセイソウケン,0
635,3010703005861,新規,0,2021-07-26,2021-07-26,合同会社なないろ,,合同会社,東京都,品川区,大井７丁目４番２号,,13,109,1400014,,,,,,,2021-07-26,1,,,,,ナナイロ,0
636,3010801032155,新規,0,2021-07-26,2021-07-26,株式会社アミ,,株式会社,東京都,大田区,久が原１丁目１６番１５号,,13,111,1460085,,,,,,,2021-07-26,1,,,,,アミ,0
638,3010803003823,新規,0,2021-07-26,2021-07-26,合同会社サンタバケーション,,合同会社,東京都,大田区,田園調布４丁目２８番９号,,13,111,1450071,,,,,,,2021-07-26,1,,,,,サンタバケーション,0
642,3011001141837,新規,0,2021-07-26,2021-07-26,株式会社Ｕ－ＭＡＮＤＹ,,株式会社,東京都,目黒区,三田１丁目５番１３号,,13,110,1530062,,,,,,,2021-07-26,1,,,,,ウメンディー,0
643,3011001141894,新規,0,2021-07-26,2021-07-26,株式会社高木ビル,00123727,株式会社,東京都,目黒区,中央町１丁目２番３号,,13,110,1520001,,,,,,,2021-07-26,1,,,,,タカギビル,0
644,3011001141928,新規,0,2021-07-26,2021-07-26,株式会社ＮＧＴＧ０６,,株式会社,東京都,渋谷区,渋谷１丁目３－１８ビラ・モデルナＡ４０２,,13,113,1500002,,,,,,,2021-07-26,1,,,,,エヌジーティージーゼロロク,0
645,3011003013118,新規,0,2021-07-26,2021-07-26,合同会社ＢＬＵＥ　ＳＴＹＬＵＳ,,合同会社,東京都,渋谷区,神宮前６丁目２３番４号桑野ビル２Ｆ,,13,113,1500001,,,,,,,2021-07-26,1,,,,,ブルースタイラス,0
665,3011601025274,新規,0,2021-07-26,2021-07-26,株式会社関東企画,,株式会社,東京都,練馬区,高松４丁目８番８号,,13,120,1790075,,,,,,,2021-07-26,1,,,,,カントウキカク,0
668,3011701024572,新規,0,2021-07-26,2021-07-26,株式会社カトウカンパニーズ,,株式会社,東京都,江戸川区,船堀１丁目１番２６－２０９号,,13,123,1340091,,,,,,,2021-07-26,1,,,,,カトウカンパニー,0
672,3012703002269,新規,0,2021-07-26,2021-07-26,フィール合同会社,,合同会社,東京都,西東京市,柳沢５丁目２番３２－３１８号,,13,229,2020022,,,,,,,2021-07-26,1,,,,,フィール,0
686,3020001142340,新規,0,2021-07-26,2021-07-26,株式会社Ｂ９．ｒｅｆｏｒｍ,,株式会社,神奈川県,横浜市鶴見区,元宮１丁目９－３９,,14,101,2300004,,,,,,,2021-07-26,1,,,,,ビーナインリフォーム,0
698,3021001073435,新規,0,2021-07-26,2021-07-26,株式会社ビッグレイス,,株式会社,神奈川県,逗子市,小坪１丁目１３番１号,,14,208,2490008,,,,,,,2021-07-26,1,,,,,ビッグレイス,0
699,3021001073468,新規,0,2021-07-26,2021-07-26,株式会社ＧＬＡＮＫＥＲ,,株式会社,神奈川県,海老名市,中央１丁目１６番３１号Ａ＆ＮＩビル１階,,14,215,2430432,,,,,,,2021-07-26,1,,,,,グランカー,0
700,3021001073492,新規,0,2021-07-26,2021-07-26,株式会社Ｙ’ｓコーポレーション,,株式会社,神奈川県,相模原市中央区,星が丘２丁目３番２０号,,14,152,2520238,,,,,,,2021-07-26,1,,,,,ワイズコーポレーション,0
701,3021001073526,新規,0,2021-07-26,2021-07-26,サンライズコーポレーション株式会社,,株式会社,神奈川県,大和市,下鶴間３０６９番地３,,14,213,2420001,,,,,,,2021-07-26,1,,,,,サンライズコーポレーション,0
704,3021003010700,新規,0,2021-07-26,2021-07-26,合同会社ビィ・ショウ,,合同会社,神奈川県,相模原市南区,松が枝町１８－１オフィス松が枝,,14,153,2520313,,,,,,,2021-07-26,1,,,,,ビィショウ,0
705,3021003010709,新規,0,2021-07-26,2021-07-26,キャトル合同会社,,合同会社,神奈川県,小田原市,中町２丁目５番３５号メゾン仲庫３０２,,14,206,2500005,,,,,,,2021-07-26,1,,,,,キャトル,0
722,3040001119452,新規,0,2021-07-26,2021-07-26,株式会社ＳＫワークス,,株式会社,千葉県,千葉市稲毛区,長沼町３６１番地４９,,12,103,2630005,,,,,,,2021-07-26,1,,,,,エスケーワークス,0
723,3040001119469,新規,0,2021-07-26,2021-07-26,Ｏｗｌｓ　Ｃａｐｉｔａｌ株式会社,,株式会社,千葉県,木更津市,桜町１丁目２番５号,,12,206,2920821,,,,,,,2021-07-26,1,,,,,オウルズキャピタル,0
724,3040001119493,新規,0,2021-07-26,2021-07-26,株式会社ＳＣＲＡＴＣＨ　ＭＡＮＩＡ,,株式会社,千葉県,浦安市,当代島１丁目１６番地４階,,12,227,2790001,,,,,,,2021-07-26,1,,,,,スクラッチマニア,0
739,3080001024343,新規,0,2021-07-26,2021-07-26,株式会社Ａｑｕａ,,株式会社,静岡県,藤枝市,上藪田７５番地の６,,22,214,4260202,,,,,,,2021-07-26,1,,,,,アクア,0
741,3080101022668,新規,0,2021-07-26,2021-07-26,株式会社つよ氣,,株式会社,静岡県,田方郡函南町,桑原１３０８番地の２２２,,22,325,4190101,,,,,,,2021-07-26,1,,,,,ツヨキ,0
744,3080401025214,新規,0,2021-07-26,2021-07-26,株式会社マテリアル,,株式会社,静岡県,浜松市中区,和合町２２０番地の１５１２,,22,131,4338125,,,,,,,2021-07-26,1,,,,,マテリアル,0
746,3100001034463,新規,0,2021-07-26,2021-07-26,株式会社金沢片町ホテルマネジメント,,株式会社,長野県,北佐久郡軽井沢町,大字長倉２１４８番地,,20,321,3890111,,,,,,,2021-07-26,1,,,,,カナザワカタマチホテルマネジメント,0
747,3100001034471,新規,0,2021-07-26,2021-07-26,株式会社ＡＤＭＡＣ,,株式会社,長野県,千曲市,大字内川１１２０番地１,,20,218,3890802,,,,,,,2021-07-26,1,,,,,アドマック,0
764,3120001239226,新規,0,2021-07-26,2021-07-26,株式会社ライフ・スタイル,,株式会社,大阪府,大阪市東住吉区,湯里１丁目５番１３号,,27,121,5460013,,,,,,,2021-07-26,1,,,,,ライフスタイル,0
765,3120001239242,新規,0,2021-07-26,2021-07-26,株式会社おもち７１９,,株式会社,大阪府,大阪市西成区,花園北１丁目６番２４号,,27,122,5570016,,,,,,,2021-07-26,1,,,,,オモチナナイチキュウ,0
766,3120005022396,新規,0,2021-07-26,2021-07-26,医療法人晴愛会,,その他の設立登記法人,大阪府,大阪市中央区,南船場４丁目４番１０号,,27,128,5420081,,,,,,,2021-07-26,1,,,,,セイアイカイ,0
768,3120101064029,新規,0,2021-07-26,2021-07-26,Ｗｅａｌｔｈ　Ｕｎｉｏｎ株式会社,,株式会社,大阪府,泉佐野市,中町１丁目６番１４号,,27,213,5980013,,,,,,,2021-07-26,1,,,,,ウェルスユニオン,0
775,3140001122363,新規,0,2021-07-26,2021-07-26,株式会社宮本工業,,株式会社,兵庫県,高砂市,緑丘２丁目１２番５－２号,,28,216,6760019,,,,,,,2021-07-26,1,,,,,ミヤモトコウギョウ,0
776,3140001122396,新規,0,2021-07-26,2021-07-26,株式会社デイズ,,株式会社,兵庫県,宝塚市,弥生町６番１号,,28,214,6650826,,,,,,,2021-07-26,1,,,,,デイズ,0
778,3140003016555,新規,0,2021-07-26,2021-07-26,合同会社からふるパウダー,,合同会社,兵庫県,美方郡香美町,香住区下浜９４３番地,,28,585,6696564,,,,,,,2021-07-26,1,,,,,カラフルパウダー,0
779,3140005025752,新規,0,2021-07-26,2021-07-26,一般社団法人森のようちえんすまっこのもり,,その他の設立登記法人,兵庫県,神戸市須磨区,板宿町３丁目１番３３－１号,,28,107,6540009,,,,,,,2021-07-26,1,,,,,モリノヨウチエンスマッコノモリ,0
783,3150005009309,新規,0,2021-07-26,2021-07-26,特定非営利活動法人おおいわ結の里,,その他の設立登記法人,奈良県,吉野郡大淀町,大字大岩６８８番地,,29,442,6380842,,,,,,,2021-07-26,1,,,,,オオイワユイノサト,0
786,3160001023493,新規,0,2021-07-26,2021-07-26,七軒国際機工株式会社,,株式会社,滋賀県,米原市,大野木１８４５番地,,25,214,5210244,,,,,,,2021-07-26,1,,,,,シチケンコクサイキコウ,0
798,3180001147010,新規,0,2021-07-26,2021-07-26,株式会社ＴＳエステート,,株式会社,愛知県,名古屋市中区,大須３丁目３１番２２号３Ｂ,,23,106,4600011,,,,,,,2021-07-26,1,,,,,ティーエスエステート,0
799,3180001147043,新規,0,2021-07-26,2021-07-26,株式会社和気アイ愛,,株式会社,愛知県,東海市,大田町下前田１０番地,,23,222,4770031,,,,,,,2021-07-26,1,,,,,ワキアイアイ,0
800,3180001147051,新規,0,2021-07-26,2021-07-26,株式会社山中空調設備,,株式会社,愛知県,瀬戸市,ききょう台２丁目２８番地,,23,204,4890908,,,,,,,2021-07-26,1,,,,,ヤマナカクウチョウセツビ,0
805,3180003022772,新規,0,2021-07-26,2021-07-26,エアー着グルミ協会合同会社,,合同会社,愛知県,名古屋市中区,新栄３丁目１番５号,,23,106,4600007,,,,,,,2021-07-26,1,,,,,エアーキグルミキョウカイ,0
807,3180301035195,新規,0,2021-07-26,2021-07-26,株式会社尾崎看塗店,,株式会社,愛知県,蒲郡市,形原町中小山７番地３,,23,214,4430104,,,,,,,2021-07-26,1,,,,,オザキカントテン,0
812,3220001024312,新規,0,2021-07-26,2021-07-26,ＥＹＥＳ　ｉＱ株式会社,,株式会社,石川県,金沢市,森山１丁目２番１号２０９,,17,201,9200843,,,,,,,2021-07-26,1,,,,,アイズアイキュー,0
814,3220003003090,新規,0,2021-07-26,2021-07-26,合同会社加賀ゲストハウス,,合同会社,石川県,金沢市,玉鉾１丁目１５５番地,,17,201,9218002,,,,,,,2021-07-26,1,,,,,カガゲストハウス,0
817,3230003001705,新規,0,2021-07-26,2021-07-26,合同会社パン工房ラ・メール,,合同会社,富山県,富山市,長江８６０番地５４,,16,201,9300974,,,,,,,2021-07-26,1,,,,,パンコウボウラメール,0
820,3240001058309,新規,0,2021-07-26,2021-07-26,株式会社大之木ファーム,,株式会社,広島県,廿日市市,浅原２３６番地１,,34,213,7380223,,,,,,,2021-07-26,1,,,,,オオノキファーム,0
830,3290001093986,新規,0,2021-07-26,2021-07-26,株式会社管理サービス,,株式会社,福岡県,糟屋郡宇美町,宇美中央１丁目１０番１０号,,40,341,8112128,,,,,,,2021-07-26,1,,,,,カンリサービス,0
836,3310003004121,新規,0,2021-07-26,2021-07-26,Ｍａｍｙプレゼンテーション合同会社,,合同会社,長崎県,長崎市,多以良町５１０番地中尾ビル２０３,,42,201,8512213,,,,,,,2021-07-26,1,,,,,マミープレゼンテーション,0
841,3330001028830,新規,0,2021-07-26,2021-07-26,株式会社十方加工,,株式会社,熊本県,菊池市,村田１２９番地,,43,210,8611317,,,,,,,2021-07-26,1,,,,,トウホウカコウ,0
849,3370005010319,新規,0,2021-07-26,2021-07-26,特定非営利活動法人まち感動クリエイティブ,,その他の設立登記法人,宮城県,仙台市青葉区,北山１丁目５番２２号,,04,101,9810931,,,,,,,2021-07-26,1,,,,,マチカンドウクリエイティブ,0
866,3420001017527,新規,0,2021-07-26,2021-07-26,株式会社Ｐ・ツリー,,株式会社,青森県,八戸市,湊高台３丁目５番３号,,02,203,0310823,,,,,,,2021-07-26,1,,,,,ピーツリー,0
867,3420003002353,新規,0,2021-07-26,2021-07-26,合同会社荒谷建設,,合同会社,青森県,三戸郡南部町,大字下名久井字山道１５番地１,,02,445,0390502,,,,,,,2021-07-26,1,,,,,アラヤケンセツ,0
874,3500001023582,新規,0,2021-07-26,2021-07-26,株式会社ＷＥＳＴ　ＰＯＩＮＴ,,株式会社,愛媛県,西予市,宇和町伊賀上２７３０番地,,38,214,7970014,,,,,,,2021-07-26,1,,,,,ウエストポイント,0
889,4010001219865,新規,0,2021-07-26,2021-07-26,セルガ株式会社,,株式会社,東京都,千代田区,丸の内１丁目８－３丸の内トラストタワー本館２０階,,13,101,1000005,,,,,,,2021-07-26,1,,,,,セルガ,0
890,4010001219873,新規,0,2021-07-26,2021-07-26,株式会社ＴＡＴＡＭＩ．ｌａｂ,,株式会社,東京都,千代田区,神田佐久間町１丁目８番４号アルテール秋葉原７０８,,13,101,1010025,,,,,,,2021-07-26,1,,,,,タタミラボ,0
891,4010003035385,新規,0,2021-07-26,2021-07-26,合同会社Ｌｅａｆ,,合同会社,東京都,中央区,月島２丁目２０番１０号,,13,102,1040052,,,,,,,2021-07-26,1,,,,,リーフ,0
892,4010005033593,新規,0,2021-07-26,2021-07-26,一般社団法人日本華商經貿聯合會,,その他の設立登記法人,東京都,中央区,京橋１丁目６番１３号金葉ビル９階,,13,102,1040031,,,,,,,2021-07-26,1,,,,,ニホンカショウケイボウレンゴウカイ,0
900,4010401161626,新規,0,2021-07-26,2021-07-26,株式会社プロビズ,,株式会社,東京都,港区,虎ノ門４丁目１番２８号虎ノ門タワーズオフィス,,13,103,1050001,,,,,,,2021-07-26,1,,,,,プロビズ,0
903,4010403025779,新規,0,2021-07-26,2021-07-26,しげの合同会社,,合同会社,東京都,港区,南麻布２丁目１０番３－１０１号,,13,103,1060047,,,,,,,2021-07-26,1,,,,,シゲノ,0
910,4010501047601,新規,0,2021-07-26,2021-07-26,株式会社冨士屋,,株式会社,東京都,台東区,浅草１丁目２２番１１号,,13,106,1110032,,,,,,,2021-07-26,1,,,,,フジヤ,0
918,4010703005860,新規,0,2021-07-26,2021-07-26,わくわくゲームズ合同会社,,合同会社,東京都,品川区,西五反田１丁目１３－７マルキビル５０３,,13,109,1410031,,,,,,,2021-07-26,1,,,,,ワクワクゲームズ,0
920,4010801032154,新規,0,2021-07-26,2021-07-26,株式会社ウィルアンドワークス,,株式会社,東京都,大田区,鵜の木２丁目４８番１７号,,13,111,1460091,,,,,,,2021-07-26,1,,,,,ウィルアンドワークス,0
927,4011001141778,新規,0,2021-07-26,2021-07-26,株式会社ＢＯＯＭＢＯＸ,,株式会社,東京都,渋谷区,神宮前３丁目１３－１８ヴェールコート表参道２０６,,13,113,1500001,,,,,,,2021-07-26,1,,,,,ブームボックス,0
928,4011001141803,新規,0,2021-07-26,2021-07-26,株式会社エスワイディ,,株式会社,東京都,渋谷区,広尾５丁目１４番２号,,13,113,1500012,,,,,,,2021-07-26,1,,,,,エスワイディ,0
929,4011001141877,新規,0,2021-07-26,2021-07-26,ブルーグラフィー株式会社,,株式会社,東京都,目黒区,下目黒２丁目２３番２８－７０１号トゥールロワイヤルエルモア目黒,,13,110,1530064,,,,,,,2021-07-26,1,,,,,ブルーグラフィー,0
930,4011001141927,新規,0,2021-07-26,2021-07-26,株式会社ＮＧＴＧ０５,,株式会社,東京都,渋谷区,渋谷１丁目３－１８ビラ・モデルナＡ４０２,,13,113,1500002,,,,,,,2021-07-26,1,,,,,エヌジーティージーゼロゴ,0
935,4011005009146,新規,0,2021-07-26,2021-07-26,税理士法人田中會計事務所,,その他の設立登記法人,東京都,渋谷区,神南１丁目１０番５号,,13,113,1500041,,,,,,,2021-07-26,1,,,,,タナカカイケイジムショ,0
937,4011303004105,新規,0,2021-07-26,2021-07-26,合同会社イチキューゴ,,合同会社,東京都,杉並区,阿佐谷南３丁目４７番２１－２０５号ホソノマンション,,13,115,1660004,,,,,,,2021-07-26,1,,,,,イチキューゴ,0
942,4011601025273,新規,0,2021-07-26,2021-07-26,タルト株式会社,,株式会社,東京都,練馬区,北町２丁目１９番１１－５０１号,,13,120,1790081,,,,,,,2021-07-26,1,,,,,タルト,0
943,4011601025281,新規,0,2021-07-26,2021-07-26,ロウクワット株式会社,,株式会社,東京都,練馬区,大泉町４丁目４４番２号,,13,120,1780062,,,,,,,2021-07-26,1,,,,,ロウクワット,0
946,4011803004711,新規,0,2021-07-26,2021-07-26,合同会社Ｇ＆Ｔ,,合同会社,東京都,足立区,舎人５丁目１４番１７号ＣｏｍｆｏｒｔＴｅｒｒａｃｅＡ棟２０２,,13,121,1210831,,,,,,,2021-07-26,1,,,,,ジーアンドティー,0
947,4012303001562,新規,0,2021-07-26,2021-07-26,合同会社Ａｓ　Ｌａｂ,,合同会社,東京都,町田市,成瀬台２丁目２２番地３,,13,209,1940043,,,,,,,2021-07-26,1,,,,,アズラボ,0
955,4012801020972,新規,0,2021-07-26,2021-07-26,株式会社ＬＡ　Ｖｉｄａ,,株式会社,東京都,昭島市,昭和町２丁目２番１６号サンロードビル３０３,,13,207,1960015,,,,,,,2021-07-26,1,,,,,ラヴィーダ,0
969,4020001142331,新規,0,2021-07-26,2021-07-26,株式会社スリーアールコネクト,,株式会社,神奈川県,横浜市鶴見区,寺谷１丁目４－６,,14,101,2300015,,,,,,,2021-07-26,1,,,,,スリーアールコネクト,0
970,4020001142348,新規,0,2021-07-26,2021-07-26,株式会社グラフィー,,株式会社,神奈川県,横浜市都筑区,仲町台１丁目７番１８号ビュロー仲町台３０３,,14,118,2240041,,,,,,,2021-07-26,1,,,,,グラフィー,0
971,4020001142356,新規,0,2021-07-26,2021-07-26,株式会社シマバル,,株式会社,神奈川県,川崎市多摩区,登戸２５１９番地小林コーポ１０２,,14,135,2140014,,,,,,,2021-07-26,1,,,,,シマバル,0
976,4021001073483,新規,0,2021-07-26,2021-07-26,株式会社金井酒造店,,株式会社,神奈川県,秦野市,堀山下１８２番地１,,14,211,2591304,,,,,,,2021-07-26,1,,,,,カネイシュゾウテン,0
977,4021003010716,新規,0,2021-07-26,2021-07-26,合同会社ＯＨＡＮＡ,,合同会社,神奈川県,横須賀市,追浜東町２丁目３番地１,,14,201,2370063,,,,,,,2021-07-26,1,,,,,オハナ,0
992,4030003017670,新規,0,2021-07-26,2021-07-26,合同会社きずな,,合同会社,埼玉県,さいたま市浦和区,本太４丁目１５番５号,,11,107,3300052,,,,,,,2021-07-26,1,,,,,キズナ,0
1009,4080001024342,新規,0,2021-07-26,2021-07-26,株式会社森田不動産,,株式会社,静岡県,静岡市葵区,新富町１丁目２３番地の１１,,22,101,4200061,,,,,,,2021-07-26,1,,,,,モリタフドウサン,0
1011,4080403004330,新規,0,2021-07-26,2021-07-26,合同会社エコファーム,,合同会社,静岡県,浜松市東区,上新屋町２３７番地の６,,22,132,4350053,,,,,,,2021-07-26,1,,,,,エコファーム,0
1012,4090001017114,新規,0,2021-07-26,2021-07-26,南プス内田製麺株式会社,,株式会社,山梨県,南アルプス市,浅原５７番地,,19,208,4000333,,,,,,,2021-07-26,1,,,,,ナンプスウチダセイメン,0
1014,4100001034462,新規,0,2021-07-26,2021-07-26,株式会社アグリかなだ,,株式会社,長野県,下伊那郡売木村,１番地３５６,,20,412,3991601,,,,,,,2021-07-26,1,,,,,アグリカナダ,0
1024,4120001239258,新規,0,2021-07-26,2021-07-26,株式会社Ｆｉｒｓｔ　Ｍｅｄｉｃａｌ,,株式会社,大阪府,大阪市都島区,内代町３丁目２番７号,,27,102,5340013,,,,,,,2021-07-26,1,,,,,ファーストメディカル,0
1028,4120003019889,新規,0,2021-07-26,2021-07-26,合同会社オールリンクＤジャパン,,合同会社,大阪府,大阪市西区,九条南２丁目１５番２２－２０２号,,27,106,5500025,,,,,,,2021-07-26,1,,,,,オールリンクディジャパン,0
1037,4120101064028,新規,0,2021-07-26,2021-07-26,株式会社野村エクステリア,,株式会社,大阪府,泉南郡熊取町,青葉台１丁目９番１４号,,27,361,5900407,,,,,,,2021-07-26,1,,,,,ノムラエクステリア,0
1043,4120901044666,新規,0,2021-07-26,2021-07-26,株式会社アイリステック,,株式会社,大阪府,吹田市,豊津町１番１８号,,27,205,5640051,,,,,,,2021-07-26,1,,,,,アイリステック,0
1044,4120901044682,新規,0,2021-07-26,2021-07-26,ＲＪホーム株式会社,,株式会社,大阪府,高槻市,大冠町１丁目１４番３１号,,27,207,5690031,,,,,,,2021-07-26,1,,,,,アールジェイホーム,0
1048,4120905006209,新規,0,2021-07-26,2021-07-26,一般社団法人春陽会,,その他の設立登記法人,大阪府,吹田市,西御旅町７－５３,,27,205,5640034,,,,,,,2021-07-26,1,,,,,シュンヨウカイ,0
1051,4130001069753,新規,0,2021-07-26,2021-07-26,株式会社ＲＥＵＮＩＴＥ,,株式会社,京都府,京都市左京区,一乗寺花ノ木町１３番地１－１Ｆ,,26,103,6068151,,,,,,,2021-07-26,1,,,,,レユナイト,0
1053,4130005016231,新規,0,2021-07-26,2021-07-26,医療法人こやま歯科医院,,その他の設立登記法人,京都府,京都市山科区,東野北井ノ上町２番地２,,26,110,6078141,,,,,,,2021-07-26,1,,,,,コヤマシカイイン,0
1060,4140001122429,新規,0,2021-07-26,2021-07-26,株式会社桃寧トレーディングカンパニー,,株式会社,兵庫県,神戸市中央区,北長狭通３丁目１番１２号,,28,110,6500012,,,,,,,2021-07-26,1,,,,,モネトレーディングカンパニー,0
1064,4140003016538,新規,0,2021-07-26,2021-07-26,合同会社タカラコネクト,,合同会社,兵庫県,宝塚市,小林４丁目７番７６－４０１号,,28,214,6650034,,,,,,,2021-07-26,1,,,,,タカラコネクト,0
1068,4150003002438,新規,0,2021-07-26,2021-07-26,Ｐｅｅ　Ｋａ　Ｂｏｏ合同会社,,合同会社,奈良県,大和高田市,片塩町６－１８,,29,202,6350085,,,,,,,2021-07-26,1,,,,,ピーカーブー,0
1073,4170003001603,新規,0,2021-07-26,2021-07-26,ＴＥＣＨ　ＭＯＢＩＬ合同会社,,合同会社,和歌山県,田辺市,中万呂３４番地の３・３０５,,30,206,6460003,,,,,,,2021-07-26,1,,,,,テックモービル,0
1085,4180001147042,新規,0,2021-07-26,2021-07-26,株式会社Ｄｉｏｎｅ,,株式会社,愛知県,一宮市,森本３丁目２２番２３号,,23,203,4910831,,,,,,,2021-07-26,1,,,,,ディオネ,0
1086,4180001147050,新規,0,2021-07-26,2021-07-26,株式会社まるな,,株式会社,愛知県,名古屋市東区,徳川２丁目１０番２０号,,23,102,4610025,,,,,,,2021-07-26,1,,,,,マルナ,0
1087,4180001147083,新規,0,2021-07-26,2021-07-26,株式会社グローアップ,,株式会社,愛知県,名古屋市北区,中切町１丁目５０番地,,23,103,4620051,,,,,,,2021-07-26,1,,,,,グローアップ,0
1091,4180003022763,新規,0,2021-07-26,2021-07-26,合同会社ｄａｉ－ｊｙｏｂｕ,,合同会社,愛知県,名古屋市中村区,名楽町１丁目１９番地の１（アーバンレガロⅢ１０３号）,00123726,23,105,4530024,,,,,,,2021-07-26,1,,,,,ダイジョウブ,0
1092,4180003022771,新規,0,2021-07-26,2021-07-26,合同会社ＲＥｗｏｒｋ,,合同会社,愛知県,名古屋市中村区,名駅５丁目３３番２１号アクアタウン納屋橋３２０９号,,23,105,4500002,,,,,,,2021-07-26,1,,,,,リワーク,0
1107,4200001038932,新規,0,2021-07-26,2021-07-26,株式会社インテリア友,,株式会社,岐阜県,岐阜市,粟野台３０７番地２８６,,21,201,5020007,,,,,,,2021-07-26,1,,,,,インテリアトモ,0
1113,4220001024311,新規,0,2021-07-26,2021-07-26,株式会社菅松堂,,株式会社,石川県,加賀市,梶井町ヲ７７番地１,,17,206,9220305,,,,,,,2021-07-26,1,,,,,スゲマツドウ,0
1118,4240001058299,新規,0,2021-07-26,2021-07-26,株式会社Ｕ．Ｓ．Ｂ,,株式会社,広島県,尾道市,因島中庄町４３３８番地１,,34,205,7222211,,,,,,,2021-07-26,1,,,,,ユーエスビー,0
1119,4240001058316,新規,0,2021-07-26,2021-07-26,株式会社ＭＫウイングパートナーズ,,株式会社,広島県,福山市,西深津町２丁目１４番１２号,,34,207,7210975,,,,,,,2021-07-26,1,,,,,エムケーウイングパートナーズ,0
1123,4260001035791,新規,0,2021-07-26,2021-07-26,ＮＳＯロジスティクスサービス株式会社,,株式会社,岡山県,岡山市北区,西長瀬１２０３番地６,,33,101,7000965,,,,,,,2021-07-26,1,,,,,エヌエスオーロジスティクスサービス,0
1132,4290001093985,新規,0,2021-07-26,2021-07-26,株式会社やまだや,,株式会社,福岡県,糟屋郡粕屋町,仲原２丁目４番１２号,,40,349,8112304,,,,,,,2021-07-26,1,,,,,ヤマダヤ,0
1138,4310003004120,新規,0,2021-07-26,2021-07-26,合同会社ＯｌｉＯｌｉ,,合同会社,長崎県,長崎市,京泊２丁目１番４－２０２号,,42,201,8512211,,,,,,,2021-07-26,1,,,,,オリオリ,0
1145,4340001023961,新規,0,2021-07-26,2021-07-26,株式会社ｌｏｏｔ,,株式会社,鹿児島県,鹿児島市,荒田２丁目７５－９－３０１,,46,201,8900054,,,,,,,2021-07-26,1,,,,,ルート,0
1146,4340003003499,新規,0,2021-07-26,2021-07-26,合同会社コンフォール,,合同会社,鹿児島県,鹿児島市,鴨池２丁目２２－２９－６０１号,,46,201,8900063,,,,,,,2021-07-26,1,,,,,コンフォール,0
1151,4360003011302,新規,0,2021-07-26,2021-07-26,合同会社Ｅ．Ｚ．Ｇ,,合同会社,沖縄県,那覇市,おもろまち４丁目６番２４号２Ｆ,,47,201,9000006,,,,,,,2021-07-26,1,,,,,イーゼットジー,0
1171,4430003012961,新規,0,2021-07-26,2021-07-26,合同会社ＪＰＳＲ,,合同会社,北海道,札幌市北区,新川西五条４丁目７－２,,01,102,0010935,,,,,,,2021-07-26,1,,,,,ジェーピーエスアール,0
1187,5010001219872,新規,0,2021-07-26,2021-07-26,ナナイロ経営コンサルティング株式会社,,株式会社,東京都,中央区,銀座１丁目２２番１１号銀座大竹ビジデンス２階,,13,102,1040061,,,,,,,2021-07-26,1,,,,,ナナイロケイエイコンサルティング,0
1188,5010005033667,新規,0,2021-07-26,2021-07-26,特定非営利活動法人Ｍｅｄｉｃａｌ　Ａｘｉｓ　Ｊａｐａｎ,,その他の設立登記法人,東京都,千代田区,内神田２丁目５番３号児谷ビル５階,,13,101,1010047,,,,,,,2021-07-26,1,,,,,メディカルアクシスジャパン,0
1189,5010103001740,新規,0,2021-07-26,2021-07-26,合同会社太陽テクノ,,合同会社,東京都,八王子市,上柚木６２４番地,,13,201,1920373,,,,,,,2021-07-26,1,,,,,,0
1197,5010405020001,新規,0,2021-07-26,2021-07-26,一般社団法人ファンズ保全協会,,その他の設立登記法人,東京都,港区,西麻布３丁目２番地１号,,13,103,1060031,,,,,,,2021-07-26,1,,,,,ファンズホゼンキョウカイ,0
1205,5010701041287,新規,0,2021-07-26,2021-07-26,アクロスホールディングス株式会社,,株式会社,東京都,品川区,西五反田１丁目１番８号ＮＭＦ五反田駅前ビル,,13,109,1410031,,,,,,,2021-07-26,1,,,,,アクロスホールディングス,0
1206,5010701041295,新規,0,2021-07-26,2021-07-26,ベルシティコンサルティング株式会社,,株式会社,東京都,品川区,東大井２丁目２０番１号,,13,109,1400011,,,,,,,2021-07-26,1,,,,,ベルシティコンサルティング,0
1211,5010905004172,新規,0,2021-07-26,2021-07-26,特定非営利活動法人インクルージョンインクルージョン,,その他の設立登記法人,東京都,世田谷区,尾山台３丁目２４番４号尾山台館２階２０３号室,,13,112,1580086,,,,,,,2021-07-26,1,,,,,インクルージョンインクルージョン,0
1215,5011001141752,新規,0,2021-07-26,2021-07-26,株式会社丙菩,,株式会社,東京都,目黒区,目黒３丁目３番２６号,,13,110,1530063,,,,,,,2021-07-26,1,,,,,ヘイヴ,0
1216,5011001141868,新規,0,2021-07-26,2021-07-26,株式会社Ｐｉｇ　Ｉ,,株式会社,東京都,渋谷区,渋谷１丁目１２番２号,,13,113,1500002,,,,,,,2021-07-26,1,,,,,ピッグアイ,0
1226,5011201023131,新規,0,2021-07-26,2021-07-26,株式会社シーズアッププロパティ,,株式会社,東京都,中野区,丸山２丁目２３－１５,,13,114,1650021,,,,,,,2021-07-26,1,,,,,シーズアッププロパティ,0
1228,5011303004104,新規,0,2021-07-26,2021-07-26,森商事合同会社,,合同会社,東京都,杉並区,高円寺南１丁目３０番６号,,13,115,1660003,,,,,,,2021-07-26,1,,,,,モリショウジ,0
1234,5011503004845,新規,0,2021-07-26,2021-07-26,王子通信合同会社,,合同会社,東京都,北区,王子４丁目７番３号,,13,117,1140002,,,,,,,2021-07-26,1,,,,,オウジツウシン,0
1243,5011801039493,新規,0,2021-07-26,2021-07-26,株式会社フローレンス,,株式会社,東京都,足立区,竹の塚３丁目１６－１１,,13,121,1210813,,,,,,,2021-07-26,1,,,,,フローレンス,0
1248,5012401038126,新規,0,2021-07-26,2021-07-26,株式会社ホース,,株式会社,東京都,調布市,調布ケ丘４丁目１１番地１４ＥｌＢｌａｎｃｏ１０３,,13,208,1820021,,,,,,,2021-07-26,1,,,,,ホース,0
1252,5012801020971,新規,0,2021-07-26,2021-07-26,ＲＹＯＫＥＮ株式会社,,株式会社,東京都,日野市,三沢５丁目１４－１８,,13,212,1910032,,,,,,,2021-07-26,1,,,,,リョウケン,0
1262,5020001142289,新規,0,2021-07-26,2021-07-26,ＴＳＤホールディングス株式会社,,株式会社,神奈川県,川崎市中原区,丸子通２丁目４４７番地,,14,133,2110006,,,,,,,2021-07-26,1,,,,,ティーエスディーホールディングス,0
1264,5020003020229,新規,0,2021-07-26,2021-07-26,ＰＸＮ合同会社,,合同会社,神奈川県,横浜市神奈川区,栄町２２番地１７パークサイド横浜３０２号,,14,102,2210052,,,,,,,2021-07-26,1,,,,,ピーエックスエヌ,0
1267,5021001073441,新規,0,2021-07-26,2021-07-26,ＲＥＩ株式会社,,株式会社,神奈川県,平塚市,御殿１丁目２番２３－４０４号藤和シティコープ平塚御殿,,14,203,2540061,,,,,,,2021-07-26,1,,,,,レイ,0
1268,5021001073466,新規,0,2021-07-26,2021-07-26,株式会社アイリー設備,,株式会社,神奈川県,相模原市中央区,上溝３１６８番地１フレマリール本郷Ｃ－１０２,,14,152,2520243,,,,,,,2021-07-26,1,,,,,アイリーセツビ,0
1269,5021001073482,新規,0,2021-07-26,2021-07-26,株式会社ラフターズ,,株式会社,神奈川県,横須賀市,船越町６丁目４９番地１６,,14,201,2370076,,,,,,,2021-07-26,1,,,,,ラフターズ,0
1270,5021001073508,新規,0,2021-07-26,2021-07-26,株式会社シンワ管理,,株式会社,神奈川県,茅ヶ崎市,矢畑２６５番地１,,14,207,2530085,,,,,,,2021-07-26,1,,,,,シンワカンリ,0
1272,5021003010723,新規,0,2021-07-26,2021-07-26,合同会社Ｋ．Ｔ．サービス,,合同会社,神奈川県,相模原市中央区,田名７２３２－１,,14,152,2520244,,,,,,,2021-07-26,1,,,,,,0
1277,5030001143435,新規,0,2021-07-26,2021-07-26,株式会社ファイブベル,,株式会社,埼玉県,羽生市,南羽生１丁目３５番６,,11,216,3480071,,,,,,,2021-07-26,1,,,,,ファイブベル,0
1278,5030001143476,新規,0,2021-07-26,2021-07-26,株式会社愛和総業,,株式会社,埼玉県,さいたま市南区,南浦和３丁目１６番４号,,11,108,3360017,,,,,,,2021-07-26,1,,,,,アイワソウギョウ,0
1290,5040001119475,新規,0,2021-07-26,2021-07-26,サンパティー株式会社,,株式会社,千葉県,千葉市花見川区,武石町２丁目６３５番地１７,,12,102,2620031,,,,,,,2021-07-26,1,,,,,サンパティー,0
1294,5040003018205,新規,0,2021-07-26,2021-07-26,合同会社令和医療介護サービス,,合同会社,千葉県,松戸市,五香南３丁目１９番地の１７,,12,207,2702212,,,,,,,2021-07-26,1,,,,,レイワイリョウカイゴサービス,0
1306,5080101022674,新規,0,2021-07-26,2021-07-26,株式会社ｐｌｕｓＮ,,株式会社,静岡県,沼津市,大岡７７３番地の４,,22,203,4100022,,,,,,,2021-07-26,1,,,,,プラスエヌ,0
1340,5120001239216,新規,0,2021-07-26,2021-07-26,ＴＷＩＣＥ株式会社,,株式会社,大阪府,大阪市中央区,北久宝寺町４丁目４番２号,,27,128,5410057,,,,,,,2021-07-26,1,,,,,トゥワイス,0
1341,5120001239257,新規,0,2021-07-26,2021-07-26,株式会社マザリアル,,株式会社,大阪府,大阪市中央区,日本橋２丁目１番２２上野ビル地下１階,,27,128,5420073,,,,,,,2021-07-26,1,,,,,マザリアル,0
1342,5120003019896,新規,0,2021-07-26,2021-07-26,あん合同会社,,合同会社,大阪府,大阪市此花区,伝法３丁目５番４号,,27,104,5540002,,,,,,,2021-07-26,1,,,,,アン,0
1343,5120005022403,新規,0,2021-07-26,2021-07-26,つなぐわ国際法務行政書士法人,,その他の設立登記法人,大阪府,大阪市東淀川区,大道南３丁目７番１２－３０３号,,27,114,5330012,,,,,,,2021-07-26,1,,,,,ツナグワコクサイホウム,0
1368,5140001122394,新規,0,2021-07-26,2021-07-26,株式会社ＥＳＴＡＴＥ　ＡＰＰＬＥ,,株式会社,兵庫県,伊丹市,梅ノ木４丁目２番５号,,28,207,6640856,,,,,,,2021-07-26,1,,,,,エステートアップル,0
1369,5140001122452,新規,0,2021-07-26,2021-07-26,株式会社Ａｐｐｓ,,株式会社,兵庫県,神戸市東灘区,住吉台３５番２号,,28,101,6580062,,,,,,,2021-07-26,1,,,,,アップス,0
1380,5180001147058,新規,0,2021-07-26,2021-07-26,株式会社ＲＩＣＣＡ　ＲＯＫＫＡ,,株式会社,愛知県,小牧市,小松寺２丁目１１９番地,,23,219,4850828,,,,,,,2021-07-26,1,,,,,リッカロッカ,0
1381,5180001147066,新規,0,2021-07-26,2021-07-26,株式会社エーシープラス,,株式会社,愛知県,名古屋市天白区,植田南２丁目１１１番地ＨＰ植田南ビル２Ｆ２０－Ｃ,,23,116,4680053,,,,,,,2021-07-26,1,,,,,エーシープラス,0
1382,5180001147082,新規,0,2021-07-26,2021-07-26,株式会社ＫＳＨ工業,,株式会社,愛知県,大府市,長根町５丁目１６番地の１,,23,223,4740021,,,,,,,2021-07-26,1,,,,,ケーエスエイチコウギョウ,0
1383,5180001147099,新規,0,2021-07-26,2021-07-26,株式会社歩翔,,株式会社,愛知県,春日井市,中央通２丁目１１７番地,,23,206,4860825,,,,,,,2021-07-26,1,,,,,アユト,0
1387,5180003022770,新規,0,2021-07-26,2021-07-26,合同会社タルカス,,合同会社,愛知県,名古屋市西区,花の木１丁目３番１４号,,23,104,4510062,,,,,,,2021-07-26,1,,,,,タルカス,0
1407,5260001035790,新規,0,2021-07-26,2021-07-26,ＴＯＭＯ　ｎｉ　ＨＯＭＥ株式会社,,株式会社,岡山県,岡山市南区,南輝１丁目８番１２号,,33,104,7028023,,,,,,,2021-07-26,1,,,,,トモニホーム,0
1409,5260005010939,新規,0,2021-07-26,2021-07-26,一般社団法人籠や,,その他の設立登記法人,岡山県,岡山市北区,今５丁目５番１６号,,33,101,7000975,,,,,,,2021-07-26,1,,,,,カゴヤ,0
1419,5290001094000,新規,0,2021-07-26,2021-07-26,株式会社モコ,,株式会社,福岡県,福岡市早良区,小田部３丁目２番２０号,,40,137,8140032,,,,,,,2021-07-26,1,,,,,モコ,0
1429,5290801027662,新規,0,2021-07-26,2021-07-26,株式会社ＩＣ,,株式会社,福岡県,北九州市小倉北区,若富士町２－１－４０５,,40,106,8020063,,,,,,,2021-07-26,1,,,,,アイシー,0
1436,5330001028829,新規,0,2021-07-26,2021-07-26,株式会社徹建,,株式会社,熊本県,合志市,御代志２０９１番地３２６,,43,216,8611104,,,,,,,2021-07-26,1,,,,,テッケン,0
1439,5340003003498,新規,0,2021-07-26,2021-07-26,合同会社せいゆう,,合同会社,鹿児島県,姶良市,加治木町木田２４７３番地４,,46,225,8995241,,,,,,,2021-07-26,1,,,,,セイユウ,0
1448,5380005012460,新規,0,2021-07-26,2021-07-26,司法書士法人おおたま法務事務所,,その他の設立登記法人,福島県,安達郡大玉村,玉井字的場８６番地１メープルハイム的場Ｃ号室,,07,322,9691302,,,,,,,2021-07-26,1,,,,,シホウショシホウジンオオタマホウムジムショ,0
1482,6010005033666,新規,0,2021-07-26,2021-07-26,一般財団法人国際ケアメイク財団,,その他の設立登記法人,東京都,千代田区,飯田橋３丁目１１番１９号ウメビル３Ｆ,,13,101,1020072,,,,,,,2021-07-26,1,,,,,コクサイケアメイクザイダン,0
1487,6010401161698,新規,0,2021-07-26,2021-07-26,株式会社ＢＯＯ,,株式会社,東京都,港区,西麻布４丁目８番２９－２０３号,,13,103,1060031,,,,,,,2021-07-26,1,,,,,ブー,0
1490,6010501047590,新規,0,2021-07-26,2021-07-26,ＬＩＧＳＡ株式会社,,株式会社,東京都,台東区,東上野１丁目８番５－５０１号,,13,106,1100015,,,,,,,2021-07-26,1,,,,,リグサ,0
1496,6010703005859,新規,0,2021-07-26,2021-07-26,合同会社大橋管理,,合同会社,東京都,品川区,平塚３丁目１２番３号,,13,109,1420051,,,,,,,2021-07-26,1,,,,,オオハシカンリ,0
1497,6010803003820,新規,0,2021-07-26,2021-07-26,正道行合同会社,,合同会社,東京都,大田区,東蒲田１丁目１２番１０号,,13,111,1440031,,,,,,,2021-07-26,1,,,,,セイドウユク,0
1504,6011001141891,新規,0,2021-07-26,2021-07-26,株式会社ＳＯ　ＧＯＯＤ　ＡＮＤ　ＨＡＰＰＹ,,株式会社,東京都,目黒区,中目黒３丁目６番２号,,13,110,1530061,,,,,,,2021-07-26,1,,,,,ソーグッドアンドハッピー,0
1506,6011003013073,新規,0,2021-07-26,2021-07-26,ＡＷＡＹ合同会社,,合同会社,東京都,目黒区,青葉台４丁目６－１７－１４０５号松見坂武蔵野マンション,,13,110,1530042,,,,,,,2021-07-26,1,,,,,アウェイ,0
1507,6011003013115,新規,0,2021-07-26,2021-07-26,Ｓｉｃｕｔ　Ｅｓｔ合同会社,,合同会社,東京都,渋谷区,東４丁目６番２３－７０７号,,13,113,1500011,,,,,,,2021-07-26,1,,,,,セクティエスト,0
1516,6011503004844,新規,0,2021-07-26,2021-07-26,合同会社エステート陸月,,合同会社,東京都,荒川区,西尾久２丁目１３番２２号,,13,118,1160011,,,,,,,2021-07-26,1,,,,,エステートリツキ,0
1526,6012801020970,新規,0,2021-07-26,2021-07-26,株式会社ＫＴＯＫＴＯ,,株式会社,東京都,日野市,新町１丁目１７番地の１９,,13,212,1910002,,,,,,,2021-07-26,1,,,,,ケトケト,0
1528,6013301047760,新規,0,2021-07-26,2021-07-26,株式会社デジワークス,,株式会社,東京都,豊島区,池袋本町２丁目１２番２号,,13,116,1700011,,,,,,,2021-07-26,1,,,,,デジワークス,0
1534,6020001142296,新規,0,2021-07-26,2021-07-26,株式会社箭中設備,,株式会社,神奈川県,横浜市戸塚区,汲沢町２８７番地１６,,14,110,2450062,,,,,,,2021-07-26,1,,,,,ヤナカセツビ,0
1542,6020003020228,新規,0,2021-07-26,2021-07-26,合同会社アンデオール,,合同会社,神奈川県,横浜市戸塚区,川上町２３４番地１ザ・パークハウス東戸塚６０４号,,14,110,2440805,,,,,,,2021-07-26,1,,,,,アンデオール,0
1549,6021001073432,新規,0,2021-07-26,2021-07-26,株式会社ひだまりアシスト,,株式会社,神奈川県,平塚市,北金目２丁目７番２７号,,14,203,2591207,,,,,,,2021-07-26,1,,,,,ヒダマリアシスト,0
1550,6021001073465,新規,0,2021-07-26,2021-07-26,敬工業株式会社,,株式会社,神奈川県,相模原市中央区,田名８５８３番地２２,,14,152,2520244,,,,,,,2021-07-26,1,,,,,ケイコウギョウ,0
1551,6021001073473,新規,0,2021-07-26,2021-07-26,ワールドケイ株式会社,,株式会社,神奈川県,大和市,大和東３丁目８番５号,,14,213,2420017,,,,,,,2021-07-26,1,,,,,ワールドケイ,0
1552,6021001073481,新規,0,2021-07-26,2021-07-26,株式会社ＡＩＰ,,株式会社,神奈川県,相模原市南区,古淵４丁目４１－８,,14,153,2520344,,,,,,,2021-07-26,1,,,,,アップ,0
1553,6021001073523,新規,0,2021-07-26,2021-07-26,株式会社ＳＧＳ　Ｃｏｎｓｕｌｔｉｎｇ,,株式会社,神奈川県,茅ヶ崎市,東海岸南２丁目７－２５,,14,207,2530054,,,,,,,2021-07-26,1,,,,,エスジーエスコンサルティング,0
1555,6021003010722,新規,0,2021-07-26,2021-07-26,合同会社ついすみ,,合同会社,神奈川県,愛甲郡愛川町,中津３０５－１０,,14,401,2430303,,,,,,,2021-07-26,1,,,,,ツイスミ,0
1561,6030001143475,新規,0,2021-07-26,2021-07-26,ＭＡＳＴビルド株式会社,,株式会社,埼玉県,さいたま市西区,大字宝来１５１９番地２,,11,101,3310074,,,,,,,2021-07-26,1,,,,,マストビルド,0
1563,6030003017669,新規,0,2021-07-26,2021-07-26,合同会社ＫＡＣＣＯ,,合同会社,埼玉県,さいたま市南区,松本１丁目２６番２０－１３０１号,,11,108,3360035,,,,,,,2021-07-26,1,,,,,,0
1566,6040001119466,新規,0,2021-07-26,2021-07-26,株式会社原田薬局,,株式会社,千葉県,山武郡芝山町,小池２４７３番地,,12,409,2891624,,,,,,,2021-07-26,1,,,,,ハラダヤッキョク,0
1567,6040001119490,新規,0,2021-07-26,2021-07-26,株式会社志,,株式会社,千葉県,船橋市,金杉１丁目２番１０号,,12,204,2730853,,,,,,,2021-07-26,1,,,,,ココロザシ,0
1568,6040001119499,新規,0,2021-07-26,2021-07-26,ＲＡＮＤＩＤＵ　ＩＮＴＥＲＮＡＴＩＯＮＡＬ株式会社,,株式会社,千葉県,富里市,御料９８８番地３葉山ハイツ第２－１０１,,12,233,2860211,,,,,,,2021-07-26,1,,,,,ランディデュインターナショナル,0
1590,6080101022665,新規,0,2021-07-26,2021-07-26,株式会社木村氷室,,株式会社,静岡県,熱海市,中央町２番１０号,,22,205,4130015,,,,,,,2021-07-26,1,,,,,キムラヒョウシツ,0
1605,6120001239132,新規,0,2021-07-26,2021-07-26,株式会社ユイクト,,株式会社,大阪府,大阪市住吉区,沢之町１丁目５番２１－１００１号,,27,120,5580031,,,,,,,2021-07-26,1,,,,,ユイクト,0
1606,6120001239248,新規,0,2021-07-26,2021-07-26,衡緯株式会社,,株式会社,大阪府,大阪市淀川区,西三国１丁目１１－２－１０１号室,,27,123,5320006,,,,,,,2021-07-26,1,,,,,コウイ,0
1607,6120001239264,新規,0,2021-07-26,2021-07-26,株式会社亀商,,株式会社,大阪府,寝屋川市,上神田１丁目３７番２４号（２０１号）,,27,215,5720052,,,,,,,2021-07-26,1,,,,,カメショウ,0
1609,6120003019887,新規,0,2021-07-26,2021-07-26,合同会社ＧＩＴＯＫＵ,,合同会社,大阪府,大阪市中央区,東心斎橋２丁目１番１９号磯部ビル４０５,,27,128,5420083,,,,,,,2021-07-26,1,,,,,ギトク,0
1620,6120901044664,新規,0,2021-07-26,2021-07-26,ＳＲＤ株式会社,,株式会社,大阪府,豊中市,原田元町２丁目３番１２号,,27,203,5610808,,,,,,,2021-07-26,1,,,,,エスアールディー,0
1643,6140001122385,新規,0,2021-07-26,2021-07-26,株式会社竹内屋不動産,,株式会社,兵庫県,神戸市中央区,海岸通６丁目１番１３－３４０２号,,28,110,6500024,,,,,,,2021-07-26,1,,,,,タケウチヤフドウサン,0
1644,6140001122410,新規,0,2021-07-26,2021-07-26,藤田設備工業株式会社,,株式会社,兵庫県,姫路市,夢前町護持２０６番地４２,,28,201,6712136,,,,,,,2021-07-26,1,,,,,フジタセツビコウギョウ,0
1648,6140003016544,新規,0,2021-07-26,2021-07-26,合同会社ＫＭＹ,,合同会社,兵庫県,神戸市北区,大原２丁目１０番地の７,,28,109,6511222,,,,,,,2021-07-26,1,,,,,ケイエムワイ,0
1650,6150001024812,新規,0,2021-07-26,2021-07-26,株式会社まほろばツーリズム研究所,,株式会社,奈良県,橿原市,内膳町４丁目４番８号,,29,205,6340804,,,,,,,2021-07-26,1,,,,,マホロバツーリズムケンキュウショ,0
1652,6160001023490,新規,0,2021-07-26,2021-07-26,株式会社Ｒｅ,,株式会社,滋賀県,長浜市,東野町１８４番地３,,25,203,5260224,,,,,,,2021-07-26,1,,,,,アールイー,0
1654,6170001016691,新規,0,2021-07-26,2021-07-26,株式会社ＴＳＹＩＷＡＩ不動産管理,,株式会社,和歌山県,和歌山市,友田町３丁目４０番地５,,30,201,6408342,,,,,,,2021-07-26,1,,,,,ティーエスワイイワイフドウサンカンリ,0
1658,6170005006920,新規,0,2021-07-26,2021-07-26,一般財団法人湊組グループ記念財団,,その他の設立登記法人,和歌山県,和歌山市,湊２丁目１２番２４号,,30,201,6408404,,,,,,,2021-07-26,1,,,,,ミナトグミグループキネンザイダン,0
1663,6180001147057,新規,0,2021-07-26,2021-07-26,株式会社ＫＳ工業,,株式会社,愛知県,一宮市,北方町北方字下本郷一２７番地１,,23,203,4938001,,,,,,,2021-07-26,1,,,,,ケイエスコウギョウ,0
1664,6180001147098,新規,0,2021-07-26,2021-07-26,株式会社ｃｒｏｓｓ,,株式会社,愛知県,名古屋市中区,錦３丁目１４番４号シャインα錦ビル４０７号,,23,106,4600003,,,,,,,2021-07-26,1,,,,,クロス,0
1665,6180001147107,新規,0,2021-07-26,2021-07-26,株式会社Ｋ－ｚｅａｌ,,株式会社,愛知県,名古屋市熱田区,波寄町２２番３号グランドメゾン金山３Ｅ,,23,109,4560003,,,,,,,2021-07-26,1,,,,,ケイジールー,0
1666,6180003022737,新規,0,2021-07-26,2021-07-26,合同会社上井,,合同会社,愛知県,丹羽郡大口町,河北２丁目３９７番地７,,23,361,4800121,,,,,,,2021-07-26,1,,,,,カミイ,0
1668,6180301035192,新規,0,2021-07-26,2021-07-26,株式会社御伽衆,,株式会社,愛知県,安城市,堀内町阿原４番地,,23,212,4441155,,,,,,,2021-07-26,1,,,,,オトギ,0
1687,6290001093901,新規,0,2021-07-26,2021-07-26,株式会社ＢＲＩｓｔ,,株式会社,福岡県,福岡市西区,姪の浜４丁目２３番１０号４Ｆ,,40,135,8190002,,,,,,,2021-07-26,1,,,,,ブリスト,0
1688,6290001093918,新規,0,2021-07-26,2021-07-26,株式会社柴田実業,,株式会社,福岡県,久留米市,西町１３７３番地５,,40,203,8300038,,,,,,,2021-07-26,1,,,,,シバタジツギョウ,0
1689,6290001093983,新規,0,2021-07-26,2021-07-26,株式会社シセイエンタープライズ,,株式会社,福岡県,糟屋郡新宮町,大字三代７３８番地１,,40,345,8110111,,,,,,,2021-07-26,1,,,,,シセイエンタープライズ,0
1705,6310003004119,新規,0,2021-07-26,2021-07-26,清鈴清流合同会社,,合同会社,長崎県,長崎市,小江町２４１９番地,,42,201,8511133,,,,,,,2021-07-26,1,,,,,セイリンセイリュウ,0
1709,6330001028828,新規,0,2021-07-26,2021-07-26,ラッドビルズ株式会社,,株式会社,熊本県,熊本市南区,田井島３丁目８番１号,,43,104,8620965,,,,,,,2021-07-26,1,,,,,ラッドビルズ,0
1710,6330001028836,新規,0,2021-07-26,2021-07-26,ＫＤサービスイノベーション株式会社,,株式会社,熊本県,熊本市西区,田崎３丁目１番７６号,,43,103,8600053,,,,,,,2021-07-26,1,,,,,ケーディーサービスイノベーション,0
1712,6330003008984,新規,0,2021-07-26,2021-07-26,合同会社ＰＫ６３,,合同会社,熊本県,熊本市中央区,下通１丁目１０番８号８Ｆ,,43,101,8600807,,,,,,,2021-07-26,1,,,,,ピーケーロクサン,0
1716,6340003003497,新規,0,2021-07-26,2021-07-26,合同会社トライデント,,合同会社,鹿児島県,鹿屋市,川西町４３００番地１,,46,203,8930032,,,,,,,2021-07-26,1,,,,,トライデント,0
1719,6350001017218,新規,0,2021-07-26,2021-07-26,株式会社ＨＩＤＡＫＡ,,株式会社,宮崎県,東臼杵郡門川町,大字加草２４１４番地１,,45,421,8890603,,,,,,,2021-07-26,1,,,,,ヒダカ,0
1722,6360003011300,新規,0,2021-07-26,2021-07-26,合同会社ＨＯＮＯＲＤ,,合同会社,沖縄県,那覇市,山下町２８番３３号東洋館３０３号,,47,201,9000027,,,,,,,2021-07-26,1,,,,,アナード,0
1749,6490005006789,新規,0,2021-07-26,2021-07-26,特定非営利活動法人あおいとり,,その他の設立登記法人,高知県,高知市,長浜６５５７番地２１７,,39,201,7810270,,,,,,,2021-07-26,1,,,,,,0
1759,7010001219854,新規,0,2021-07-26,2021-07-26,株式会社ファクターイン,,株式会社,東京都,千代田区,九段南１丁目５番６号りそな九段ビル５ＦＫＳフロア,,13,101,1020074,,,,,,,2021-07-26,1,,,,,ファクターイン,0
1779,7010405020040,新規,0,2021-07-26,2021-07-26,一宮木曽川ＰＪ特定目的会社,,その他の設立登記法人,東京都,港区,六本木１丁目６番１号泉ガーデンタワー,,13,103,1060032,,,,,,,2021-07-26,1,,,,,イチノミヤキソガワ,0
1781,7010501047598,新規,0,2021-07-26,2021-07-26,日本ＹＵＫＩ株式会社,,株式会社,東京都,台東区,北上野２丁目３１番８号北上野永谷コーポラス２０１号室,,13,106,1100014,,,,,,,2021-07-26,1,,,,,ニホンユキ,0
1789,7010701041277,新規,0,2021-07-26,2021-07-26,株式会社ＮａＤＥ,,株式会社,東京都,品川区,上大崎１丁目９番１４号,,13,109,1410021,,,,,,,2021-07-26,1,,,,,ネイド,0
1790,7010701041285,新規,0,2021-07-26,2021-07-26,株式会社イースト＆アイ,,株式会社,東京都,品川区,上大崎２丁目１０番３４－１－７０５号,,13,109,1410021,,,,,,,2021-07-26,1,,,,,イーストアンドアイ,0
1791,7010703005858,新規,0,2021-07-26,2021-07-26,リシェア合同会社,,合同会社,東京都,品川区,東五反田２丁目８番８号ＦＬＥＺＩＯ五反田ビル３Ｆ,,13,109,1410022,,,,,,,2021-07-26,1,,,,,リシェア,0
1792,7010803003828,新規,0,2021-07-26,2021-07-26,合同会社コスメ・グランビューＫＴ,,合同会社,東京都,大田区,北千束３丁目２８番１号パークホームズ大岡山ラビィアンコート２０５,,13,111,1450062,,,,,,,2021-07-26,1,,,,,コスメグランビューケーティー,0
1798,7011001141882,新規,0,2021-07-26,2021-07-26,株式会社ソルコンサルティング,,株式会社,東京都,渋谷区,道玄坂１丁目１５番３号プリメーラ渋谷９１３,,13,113,1500043,,,,,,,2021-07-26,1,,,,,ソルコンサルティング,0
1799,7011001141899,新規,0,2021-07-26,2021-07-26,株式会社Ｓｅｓｓｕｅ,,株式会社,東京都,渋谷区,代官山町９番１０号,,13,113,1500034,,,,,,,2021-07-26,1,,,,,セッシュー,0
1800,7011001141908,新規,0,2021-07-26,2021-07-26,株式会社ＥＭＯＧＬＡＤ,,株式会社,東京都,目黒区,碑文谷２丁目９番１５－３１３号,,13,110,1520003,,,,,,,2021-07-26,1,,,,,エモグラッド,0
1802,7011003013080,新規,0,2021-07-26,2021-07-26,合同会社鈴木事務所,,合同会社,東京都,渋谷区,恵比寿１丁目８番６号,,13,113,1500013,,,,,,,2021-07-26,1,,,,,スズキジムショ,0
1803,7011003013106,新規,0,2021-07-26,2021-07-26,合同会社東京多摩総合会計事務所,,合同会社,東京都,渋谷区,代々木２丁目２７番１６号ハイシティ代々木３０６,,13,113,1510053,,,,,,,2021-07-26,1,,,,,トウキョウタマソウゴウカイケイジムショ,0
1816,7011503004843,新規,0,2021-07-26,2021-07-26,ｃｏｍｆｙ合同会社,,合同会社,東京都,北区,志茂１丁目１５番１０号,,13,117,1150042,,,,,,,2021-07-26,1,,,,,コンフィー,0
1819,7011603003357,新規,0,2021-07-26,2021-07-26,永盛合同会社,,合同会社,東京都,練馬区,東大泉５丁目１９－１６,,13,120,1780063,,,,,,,2021-07-26,1,,,,,エイセイ,0
1826,7011801039491,新規,0,2021-07-26,2021-07-26,ペインターズハイ株式会社,,株式会社,東京都,足立区,島根４丁目２３番３号,,13,121,1210815,,,,,,,2021-07-26,1,,,,,ペインターズハイ,0
1827,7011805003089,新規,0,2021-07-26,2021-07-26,特定非営利活動法人大地,,その他の設立登記法人,東京都,葛飾区,柴又３丁目１１番１１号,,13,122,1250052,,,,,,,2021-07-26,1,,,,,ダイチ,0
1828,7012303001568,新規,0,2021-07-26,2021-07-26,合同会社成人病予防研究会,,合同会社,東京都,町田市,金井ヶ丘２丁目３－２０,,13,209,1950076,,,,,,,2021-07-26,1,,,,,セイジンビョウヨボウケンキュウカイ,0
1836,7013303005757,新規,0,2021-07-26,2021-07-26,合同会社旭アークテック,,合同会社,東京都,豊島区,北大塚２丁目１７番４号,,13,116,1700004,,,,,,,2021-07-26,1,,,,,アサヒアークテック,0
1837,7020001142337,新規,0,2021-07-26,2021-07-26,富森株式会社,,株式会社,神奈川県,横浜市神奈川区,反町４丁目３７番地１－１２０５号,,14,102,2210825,,,,,,,2021-07-26,1,,,,,トミモリ,0
1838,7020003020227,新規,0,2021-07-26,2021-07-26,合同会社ブークレ,,合同会社,神奈川県,横浜市磯子区,東町１５－３１－３０５,,14,107,2350005,,,,,,,2021-07-26,1,,,,,ブークレ,0
1841,7021001073381,新規,0,2021-07-26,2021-07-26,株式会社澤田興業,,株式会社,神奈川県,相模原市緑区,大島７１８番地１,,14,151,2520135,,,,,,,2021-07-26,1,,,,,サワダコウギョウ,0
1842,7021001073456,新規,0,2021-07-26,2021-07-26,株式会社Ｄ．Ｃ．Ｔ．,,株式会社,神奈川県,平塚市,袖ケ浜１６番４０号,,14,203,2540813,,,,,,,2021-07-26,1,,,,,ディーシーティー,0
1843,7021001073472,新規,0,2021-07-26,2021-07-26,株式会社グラナダ,,株式会社,神奈川県,座間市,栗原中央１丁目３５番３０号,,14,216,2520014,,,,,,,2021-07-26,1,,,,,グラナダ,0
1851,7030001143490,新規,0,2021-07-26,2021-07-26,株式会社ＳＯＰＨＩＡ,,株式会社,埼玉県,北足立郡伊奈町,内宿台２丁目２０１番地３,,11,301,3620812,,,,,,,2021-07-26,1,,,,,ソフィア,0
1866,7050001049579,新規,0,2021-07-26,2021-07-26,株式会社割烹旅館霞ヶ浦,,株式会社,茨城県,潮来市,永山４８番地１,,08,223,3112437,,,,,,,2021-07-26,1,,,,,カッポウリョカンカスミガウラ,0
1897,7120003019886,新規,0,2021-07-26,2021-07-26,ちょう合同会社,,合同会社,大阪府,大阪市平野区,長吉長原１丁目９番３６号,,27,126,5470016,,,,,,,2021-07-26,1,,,,,チョウ,0
1898,7120003019894,新規,0,2021-07-26,2021-07-26,合同会社みやこ,,合同会社,大阪府,大阪市住之江区,中加賀屋３丁目１１番１４号,,27,125,5590017,,,,,,,2021-07-26,1,,,,,ミヤコ,0
1907,7120901044663,新規,0,2021-07-26,2021-07-26,株式会社ＤＷ総研,,株式会社,大阪府,茨木市,舟木町５番１４号ＹＮビル５階,,27,211,5670828,,,,,,,2021-07-26,1,,,,,,0
1926,7140001122384,新規,0,2021-07-26,2021-07-26,株式会社ＫＩＣＯ,,株式会社,兵庫県,加古川市,加古川町篠原町２１番８号,,28,210,6750065,,,,,,,2021-07-26,1,,,,,キコ,0
1927,7140001122392,新規,0,2021-07-26,2021-07-26,ＰＭビジネスソリュ－ションズ株式会社,,株式会社,兵庫県,尼崎市,塚口町５丁目２１番地の１,,28,202,6610002,,,,,,,2021-07-26,1,,,,,ピーエムビジネスソリューションズ,0
1943,7180001147048,新規,0,2021-07-26,2021-07-26,株式会社ＪＡＰＡＮ　ＣＡＲＺ,,株式会社,愛知県,一宮市,向山町１丁目３６番２号,,23,203,4910869,,,,,,,2021-07-26,1,,,,,ジャパンカーズ,0
1944,7180001147089,新規,0,2021-07-26,2021-07-26,株式会社さつき,,株式会社,愛知県,名古屋市中村区,上米野一丁目２７番地２,,23,105,4530000,,,,,,,2021-07-26,1,,,,,サツキ,0
1945,7180001147106,新規,0,2021-07-26,2021-07-26,株式会社兼松,,株式会社,愛知県,西春日井郡豊山町,大字豊場字冨士７２番地１２,,23,342,4800202,,,,,,,2021-07-26,1,,,,,カネマツ,0
1947,7180003022769,新規,0,2021-07-26,2021-07-26,合同会社ＮａｇｏｙａＭＧＡ,,合同会社,愛知県,清須市,朝日貝塚５番地,,23,233,4520932,,,,,,,2021-07-26,1,,,,,ナゴヤエムジーエー,0
1951,7200001038921,新規,0,2021-07-26,2021-07-26,株式会社スモフォレ,,株式会社,岐阜県,揖斐郡池田町,般若畑２５２番地,,21,404,5032407,,,,,,,2021-07-26,1,,,,,スモフォレ,0
1956,7230001018912,新規,0,2021-07-26,2021-07-26,株式会社金和源,,株式会社,富山県,富山市,粟島町１丁目２番５０－２０２号,,16,201,9318314,,,,,,,2021-07-26,1,,,,,ジンフユエン,0
1964,7240001058321,新規,0,2021-07-26,2021-07-26,株式会社ＨＰＴホールディングス,,株式会社,広島県,広島市東区,曙２丁目８番１０号ファビュラス曙,,34,102,7320045,,,,,,,2021-07-26,1,,,,,エイチピーティーホールディングス,0
1970,7260003003637,新規,0,2021-07-26,2021-07-26,アイビーＨＲ合同会社,,合同会社,岡山県,岡山市北区,柳町２丁目４番２３号,,33,101,7000904,,,,,,,2021-07-26,1,,,,,アイビーエイチアール,0
1977,7290005018291,新規,0,2021-07-26,2021-07-26,あんくる行政書士法人,,その他の設立登記法人,福岡県,福岡市博多区,博多駅前３丁目２５番２４号八百治ビル２階,,40,132,8120011,,,,,,,2021-07-26,1,,,,,アンクル,0
1979,7310003004118,新規,0,2021-07-26,2021-07-26,ラクシュミー合同会社,,合同会社,長崎県,長崎市,泉２丁目２５－２２,,42,201,8528151,,,,,,,2021-07-26,1,,,,,ラクシュミー,0
1982,7330001028802,新規,0,2021-07-26,2021-07-26,株式会社光輝,,株式会社,熊本県,熊本市北区,武蔵ケ丘１丁目１５番１７号ムサシ一番館Ｅ号室,,43,105,8618001,,,,,,,2021-07-26,1,,,,,ミツキ,0
2020,7420003002358,新規,0,2021-07-26,2021-07-26,合同会社Ｐｒｏｓｐｅｒａｒ,,合同会社,青森県,八戸市,根城７丁目１５番５号,,02,203,0391166,,,,,,,2021-07-26,1,,,,,プロスペラール,0
2026,7430001084653,新規,0,2021-07-26,2021-07-26,株式会社リエート,,株式会社,北海道,札幌市中央区,南三条西８丁目２番１号ＳＡＫＵＲＡ－Ｓ３,,01,101,0600063,,,,,,,2021-07-26,1,,,,,リエート,0
2030,7450001013420,新規,0,2021-07-26,2021-07-26,株式会社杜谷組,,株式会社,北海道,旭川市,神楽岡八条５丁目４番１１号,,01,204,0788318,,,,,,,2021-07-26,1,,,,,モリヤグミ,0
2033,7480003001692,新規,0,2021-07-26,2021-07-26,ｗｙｗｙ合同会社,,合同会社,徳島県,徳島市,南島田町２丁目５８番地の３オレス南島田Ｂ棟,,36,201,7700053,,,,,,,2021-07-26,1,,,,,,0
2037,7500001023579,新規,0,2021-07-26,2021-07-26,進成鉄工株式会社,,株式会社,愛媛県,松山市,南白水３丁目１７番地５,,38,201,7910114,,,,,,,2021-07-26,1,,,,,シンセイテッコウ,0
2044,8010001219795,新規,0,2021-07-26,2021-07-26,ＤＮホールディングス株式会社,,株式会社,東京都,千代田区,神田練堀町３００番地,,13,101,1000000,,,,,,,2021-07-26,1,,,,,ディーエヌホールディングス,0
2046,8010005033607,新規,0,2021-07-26,2021-07-26,一般社団法人福高会,,その他の設立登記法人,東京都,中央区,銀座５丁目９番１６号ＧＩＮＺＡ－Ａ５・６階,,13,102,1040061,,,,,,,2021-07-26,1,,,,,フクコウカイ,0
2068,8010701041284,新規,0,2021-07-26,2021-07-26,株式会社ポタジェガーデン販売,,株式会社,東京都,品川区,八潮５丁目１０番５５－７０９号,,13,109,1400003,,,,,,,2021-07-26,1,,,,,ポタジェガーデンハンバイ,0
2069,8010801032150,新規,0,2021-07-26,2021-07-26,香陽株式会社,,株式会社,東京都,大田区,田園調布３丁目３５番１６号,,13,111,1450071,,,,,,,2021-07-26,1,,,,,コウヨウ,0
2079,8011001141972,新規,0,2021-07-26,2021-07-26,株式会社ａｂｏｖｅｕ,,株式会社,東京都,渋谷区,神宮前６丁目１９番１５号,,13,113,1500001,,,,,,,2021-07-26,1,,,,,アバーヴ,0
2080,8011003013055,新規,0,2021-07-26,2021-07-26,合同会社Ｄｅｃｏ－アライジング,,合同会社,東京都,目黒区,下目黒３丁目４番３号クライム・アミィ５０２号室,,13,110,1530064,,,,,,,2021-07-26,1,,,,,デコアライジング,0
2081,8011003013096,新規,0,2021-07-26,2021-07-26,合同会社チェントペルチェント,,合同会社,東京都,目黒区,自由が丘３丁目１番１９－２０４号プラウド自由が丘,,13,110,1520035,,,,,,,2021-07-26,1,,,,,チェントペルチェント,0
2082,8011003013113,新規,0,2021-07-26,2021-07-26,ＫＳＫ合同会社,,合同会社,東京都,目黒区,南３丁目１１番１６号,,13,110,1520013,,,,,,,2021-07-26,1,,,,,ケーエスケー,0
2087,8011301027062,新規,0,2021-07-26,2021-07-26,株式会社Ｃｅｄａｒｓ－Ｈｉｇｈ,,株式会社,東京都,杉並区,成田西１丁目１６番２９号,,13,115,1660016,,,,,,,2021-07-26,1,,,,,,0
2090,8011601025278,新規,0,2021-07-26,2021-07-26,株式会社結城靖高事務所,,株式会社,東京都,練馬区,豊玉南３丁目２９番１１－２０８号,,13,120,1760014,,,,,,,2021-07-26,1,,,,,ユウキヤスタカジムショ,0
2095,8011803004716,新規,0,2021-07-26,2021-07-26,合同会社ＭＯＧＧＹ,,合同会社,東京都,足立区,保木間５丁目２２番２５号,,13,121,1210064,,,,,,,2021-07-26,1,,,,,モギー,0
2097,8012703002272,新規,0,2021-07-26,2021-07-26,合同会社Ｌｉｌｙ,,合同会社,東京都,清瀬市,中里２丁目６３２－１９,,13,221,2040003,,,,,,,2021-07-26,1,,,,,リリィ,0
2106,8013301047742,新規,0,2021-07-26,2021-07-26,株式会社双神,,株式会社,東京都,豊島区,南大塚１丁目２３－１１三和コート２０１,,13,116,1700005,,,,,,,2021-07-26,1,,,,,,0
2110,8020003020226,新規,0,2021-07-26,2021-07-26,合同会社ＷＡＴＡＲＩＴＲＩＰ　ＹＯＬＯ,,合同会社,神奈川県,横浜市戸塚区,俣野町１４０３ドリームハイツ１７－５０２,,14,110,2450066,,,,,,,2021-07-26,1,,,,,ワタリトリップヨーロー,0
2115,8020005015141,新規,0,2021-07-26,2021-07-26,特定非営利活動法人こもれび福祉の会,,その他の設立登記法人,神奈川県,横浜市都筑区,大丸１６グランノア港北の丘１１番館２０４号室,,14,118,2240061,,,,,,,2021-07-26,1,,,,,コモレビフクシノカイ,0
2116,8021001073389,新規,0,2021-07-26,2021-07-26,ていてい株式会社,,株式会社,神奈川県,厚木市,下川入４５－１,,14,212,2430206,,,,,,,2021-07-26,1,,,,,テイテイ,0
2117,8021001073447,新規,0,2021-07-26,2021-07-26,トス株式会社,,株式会社,神奈川県,相模原市南区,相模大野７丁目１８番９号,,14,153,2520303,,,,,,,2021-07-26,1,,,,,トス,0
2118,8021001073471,新規,0,2021-07-26,2021-07-26,株式会社Ｃａｎａｍａｒ,,株式会社,神奈川県,茅ヶ崎市,東海岸南１丁目４番７号,,14,207,2530054,,,,,,,2021-07-26,1,,,,,カナマール,0
2119,8021001073496,新規,0,2021-07-26,2021-07-26,グライドチル株式会社,,株式会社,神奈川県,茅ヶ崎市,東海岸南６丁目２番１３号,,14,207,2530054,,,,,,,2021-07-26,1,,,,,グライドチル,0
2120,8021001073521,新規,0,2021-07-26,2021-07-26,株式会社Ｔｏｍｍｙｙ＆Ｃｏ．,,株式会社,神奈川県,茅ヶ崎市,浜須賀７番４９－１号,,14,207,2530035,,,,,,,2021-07-26,1,,,,,トミーアンドコー,0
2122,8021003010704,新規,0,2021-07-26,2021-07-26,合同会社ＦＲＡＧＭＥＮＴ,,合同会社,神奈川県,厚木市,中町２丁目４番１４号,,14,212,2430018,,,,,,,2021-07-26,1,,,,,フラグメント,0
2123,8021003010712,新規,0,2021-07-26,2021-07-26,合同会社ａｓｉａ,,合同会社,神奈川県,大和市,中央林間２丁目１６番１５－２１４号,,14,213,2420007,,,,,,,2021-07-26,1,,,,,アジア,0
2125,8021005012252,新規,0,2021-07-26,2021-07-26,一般社団法人まるっとＷＡＫＫＡ,,その他の設立登記法人,神奈川県,逗子市,逗子４丁目７番１５号,,14,208,2490006,,,,,,,2021-07-26,1,,,,,マルットワッカ,0
2133,8030001143399,新規,0,2021-07-26,2021-07-26,いろんなＣ株式会社,,株式会社,埼玉県,加須市,大門町１４番３１号,,11,210,3470068,,,,,,,2021-07-26,1,,,,,イロンナシー,0
2134,8030001143465,新規,0,2021-07-26,2021-07-26,株式会社ＬｉｆｅＢａｎｋＤｅｓｉｇｎ,,株式会社,埼玉県,川口市,前川４丁目４９番１２号１Ｆ,,11,203,3330842,,,,,,,2021-07-26,1,,,,,ライフバンクデザイン,0
2135,8030001143507,新規,0,2021-07-26,2021-07-26,Ｂｅｌｌｅｚｅｌｌ株式会社,,株式会社,埼玉県,久喜市,菖蒲町菖蒲２８２番地２,,11,232,3460106,,,,,,,2021-07-26,1,,,,,ベルゼル,0
2139,8030005020454,新規,0,2021-07-26,2021-07-26,特定非営利活動法人上尾明るい社会づくり運動,,その他の設立登記法人,埼玉県,北足立郡伊奈町,大字小室３１８６番地１,,11,301,3620806,,,,,,,2021-07-26,1,,,,,アゲオアカルイシャカイヅクリウンドウ,0
2141,8040001119497,新規,0,2021-07-26,2021-07-26,株式会社ＧＬＯＢＡＬ　ＡＰＥＸ,,株式会社,千葉県,習志野市,本大久保２丁目１１番２７号,,12,216,2750012,,,,,,,2021-07-26,1,,,,,グローバルエイペックス,0
2149,8070001038298,新規,0,2021-07-26,2021-07-26,ジャイロ電設株式会社,,株式会社,群馬県,前橋市,上泉町３４５０番地,,10,201,3710007,,,,,,,2021-07-26,1,,,,,ジャイロデンセツ,0
2151,8070003004182,新規,0,2021-07-26,2021-07-26,合同会社ＡＫＳ,,合同会社,群馬県,前橋市,南町２丁目２３番地７,,10,201,3710805,,,,,,,2021-07-26,1,,,,,エーケーエス,0
2152,8070005009881,新規,0,2021-07-26,2021-07-26,一般社団法人あいケアネット,,その他の設立登記法人,群馬県,渋川市,石原３０番地１,,10,208,3770007,,,,,,,2021-07-26,1,,,,,アイケアネット,0
2157,8080101022671,新規,0,2021-07-26,2021-07-26,株式会社檜垣設備,,株式会社,静岡県,富士市,今泉３１３２番地の１,,22,210,4170001,,,,,,,2021-07-26,1,,,,,ヒガキセツビ,0
2159,8080403004335,新規,0,2021-07-26,2021-07-26,合同会社ロンポワン,,合同会社,静岡県,湖西市,新居町新居１２６１,,22,221,4310302,,,,,,,2021-07-26,1,,,,,ロンポワン,0
2160,8090001017110,新規,0,2021-07-26,2021-07-26,株式会社廻運問屋,,株式会社,山梨県,笛吹市,石和町河内２３５番地１,,19,211,4060043,,,,,,,2021-07-26,1,,,,,カブシキカイシャカイウンドンヤ,0
2185,8120001239205,新規,0,2021-07-26,2021-07-26,株式会社杉本梁江堂,,株式会社,大阪府,大阪市北区,芝田１丁目１番３号阪急三番街南館１館,,27,127,5300012,,,,,,,2021-07-26,1,,,,,スギモトリョウコウドウ,0
2186,8120001239238,新規,0,2021-07-26,2021-07-26,高木トラスト株式会社,00123722,株式会社,大阪府,大阪市中央区,安堂寺町１丁目３－８,,27,128,5420061,,,,,,,2021-07-26,1,,,,,タカギトラスト,0
2187,8120001239254,新規,0,2021-07-26,2021-07-26,株式会社ＢＫＨ,,株式会社,大阪府,大阪市生野区,巽北１丁目２１－２９生野ハイツ２１０,,27,116,5440004,,,,,,,2021-07-26,1,,,,,ビーケーエイチ,0
2190,8120003019877,新規,0,2021-07-26,2021-07-26,合同会社ＣＲＯＳＳ　ＰＲＯＭＯＴＩＯＮ,,合同会社,大阪府,大阪市北区,野崎町６番８号トレックノース梅田ビル７０５,,27,127,5300055,,,,,,,2021-07-26,1,,,,,クロスプロモーション,0
2191,8120005022409,新規,0,2021-07-26,2021-07-26,特定非営利活動法人Ｐｉｅｃｅ　ｏｆ　Ｓｙｒｉａ,,その他の設立登記法人,大阪府,大阪市北区,西天満５丁目４－１３ユリスト西天満６０２号（タエラグラフィックス内）,,27,127,5300047,,,,,,,2021-07-26,1,,,,,ピースオブシリア,0
2194,8120101064024,新規,0,2021-07-26,2021-07-26,株式会社セントラル技建,,株式会社,大阪府,和泉市,池上町４丁目１９番１８号,,27,219,5940083,,,,,,,2021-07-26,1,,,,,セントラルギケン,0
2203,8120905006205,新規,0,2021-07-26,2021-07-26,医療法人アメミヲヤ,,その他の設立登記法人,大阪府,吹田市,豊津町９番４４号ハートランド江坂３０２号室,,27,205,5640051,,,,,,,2021-07-26,1,,,,,アメミヲヤ,0
2230,8140001122433,新規,0,2021-07-26,2021-07-26,ユナイト株式会社,,株式会社,兵庫県,神戸市中央区,二宮町４丁目２１番１７号,,28,110,6510093,,,,,,,2021-07-26,1,,,,,ユナイト,0
2235,8150003002434,新規,0,2021-07-26,2021-07-26,合同会社リード,,合同会社,奈良県,天理市,前栽町１３５－２メゾン前栽Ⅰ１０１号,00123732,29,204,6320094,,,,,,,2021-07-26,1,,,,,リード,0
2242,8180001147047,新規,0,2021-07-26,2021-07-26,株式会社ＩＤＥＡ　ＳＯＵＲＣＥ,,株式会社,愛知県,名古屋市東区,泉１丁目２番１７号,,23,102,4610001,,,,,,,2021-07-26,1,,,,,アイデアソース,0
2243,8180001147063,新規,0,2021-07-26,2021-07-26,株式会社Ｍ＆Ｓ,,株式会社,愛知県,名古屋市昭和区,南山町２番地の５,,23,107,4660835,,,,,,,2021-07-26,1,,,,,エムアンドエス,0
2244,8180001147088,新規,0,2021-07-26,2021-07-26,株式会社高瀬金型ＨＤ,,株式会社,愛知県,稲沢市,西島１丁目１３８番地,,23,220,4928328,,,,,,,2021-07-26,1,,,,,タカセカナガタエイチディー,0
2246,8180003022776,新規,0,2021-07-26,2021-07-26,ｗａｃｃｏｒｏｃｋ合同会社,,合同会社,愛知県,名古屋市守山区,西川原町５５番地の１,,23,113,4630089,,,,,,,2021-07-26,1,,,,,ワッコロック,0
2247,8180005019374,新規,0,2021-07-26,2021-07-26,一般社団法人医療的ケアＰＰＳ．ｌａｂ,,その他の設立登記法人,愛知県,名古屋市瑞穂区,白砂町５丁目６９番地の１,,23,108,4670056,,,,,,,2021-07-26,1,,,,,イリョウテキケアパパスラボ,0
2256,8200001038929,新規,0,2021-07-26,2021-07-26,株式会社ＬｕｃｋｙＳｔａｒ,,株式会社,岐阜県,各務原市,鵜沼各務原町７丁目１２５番地,,21,213,5090141,,,,,,,2021-07-26,1,,,,,ラッキースター,0
2261,8230005009155,新規,0,2021-07-26,2021-07-26,一般社団法人相談支援事業所エール,,その他の設立登記法人,富山県,滑川市,常盤町１８１番地１７滑川ショッピングセンターエール２階,,16,206,9360027,,,,,,,2021-07-26,1,,,,,ソウダンシエンジギョウショエール,0
2271,8240003005205,新規,0,2021-07-26,2021-07-26,合同会社る・それいゆ,,合同会社,広島県,尾道市,御調町津蟹４６３番地１,,34,205,7221562,,,,,,,2021-07-26,1,,,,,ルソレイユ,0
2273,8260001035788,新規,0,2021-07-26,2021-07-26,ＲＩＭＳＡ株式会社,,株式会社,岡山県,総社市,西坂台１７９番地,,33,208,7191165,,,,,,,2021-07-26,1,,,,,リムサ,0
2274,8260003003636,新規,0,2021-07-26,2021-07-26,合同会社２０３,,合同会社,岡山県,岡山市北区,問屋町１１－１０６－２０３,,33,101,7000977,,,,,,,2021-07-26,1,,,,,ニイマルサン,0
2278,8290005018290,新規,0,2021-07-26,2021-07-26,一般社団法人過疎地活性化協会,,その他の設立登記法人,福岡県,福岡市南区,和田３丁目１番９号－１０１,,40,134,8111343,,,,,,,2021-07-26,1,,,,,カソチカッセイカキョウカイ,0
2280,8330001028826,新規,0,2021-07-26,2021-07-26,株式会社クロスシード,,株式会社,熊本県,熊本市西区,花園１丁目１番２４号,,43,103,8600072,,,,,,,2021-07-26,1,,,,,クロスシード,0
2282,8340003003495,新規,0,2021-07-26,2021-07-26,合資会社我妻商事,,合資会社,鹿児島県,鹿児島市,西千石町１７番２８号,,46,201,8920847,,,,,,,2021-07-26,1,,,,,ワガツマショウジ,0
2284,8360001029078,新規,0,2021-07-26,2021-07-26,株式会社風神愛,,株式会社,沖縄県,中頭郡読谷村,字大木３５８番地４,,47,324,9040316,,,,,,,2021-07-26,1,,,,,カジィーカミカナサン,0
2285,8360001029094,新規,0,2021-07-26,2021-07-26,株式会社ＯＡＦ,,株式会社,沖縄県,糸満市,西崎町３丁目１５７番地メゾンひとし１０２号,,47,210,9010306,,,,,,,2021-07-26,1,,,,,オエエフ,0
2286,8360001029128,新規,0,2021-07-26,2021-07-26,株式会社ＩＨＡＳＯＮ’Ｓ,,株式会社,沖縄県,中頭郡西原町,字与那城２５０番地の６,,47,329,9030111,,,,,,,2021-07-26,1,,,,,イハサンズ,0
2287,8360003011281,新規,0,2021-07-26,2021-07-26,合同会社ＲＩＴＡ,,合同会社,沖縄県,宮古島市,平良字下里１５４９番地６アヴァンティＳ６０４号室,,47,214,9060013,,,,,,,2021-07-26,1,,,,,,0
2317,8430001084628,新規,0,2021-07-26,2021-07-26,株式会社協栄ホールディングス,,株式会社,北海道,札幌市東区,北丘珠四条４丁目１番１５号,,01,103,0070884,,,,,,,2021-07-26,1,,,,,キョウエイホールディングス,0
2323,8460301005000,新規,0,2021-07-26,2021-07-26,株式会社ふぁー夢ところ,,株式会社,北海道,北見市,常呂町字常呂６０８番地,,01,208,0930210,,,,,,,2021-07-26,1,,,,,ファームトコロ,0
2330,8480001011437,新規,0,2021-07-26,2021-07-26,株式会社福三,,株式会社,徳島県,徳島市,飯谷町大ノ上１番地１,,36,201,7714265,,,,,,,2021-07-26,1,,,,,フクミ,0
2347,9010001219869,新規,0,2021-07-26,2021-07-26,ＭＡＲＣＹ株式会社,,株式会社,東京都,中央区,勝どき６丁目５番１６号,,13,102,1040054,,,,,,,2021-07-26,1,,,,,マーシー,0
2351,9010003035389,新規,0,2021-07-26,2021-07-26,合同会社Ｊ・クリエイト,,合同会社,東京都,千代田区,外神田２丁目１６－２,,13,101,1010021,,,,,,,2021-07-26,1,,,,,ジェイクリエイト,0
2353,9010005033671,新規,0,2021-07-26,2021-07-26,行政書士法人鳳凰,,その他の設立登記法人,東京都,千代田区,九段北４丁目１番５号,,13,101,1020073,,,,,,,2021-07-26,1,,,,,フンフォアン,0
2373,9010701041283,新規,0,2021-07-26,2021-07-26,株式会社Ｓｈａｋｅ,,株式会社,東京都,品川区,西五反田５丁目１番１号東急ドエルアルス目黒不動前３０２,,13,109,1410031,,,,,,,2021-07-26,1,,,,,シェイク,0
2387,9011001141641,新規,0,2021-07-26,2021-07-26,株式会社ＣＯＮＴＥＸＴ　ＳＯＵＮＤ,,株式会社,東京都,渋谷区,代官山町８番７号,,13,113,1500034,,,,,,,2021-07-26,1,,,,,コンテクストサウンド,0
2388,9011001141897,新規,0,2021-07-26,2021-07-26,パシフィックリゾーツグループ株式会社,,株式会社,東京都,渋谷区,神宮前６丁目２８番９号６Ｆ,,13,113,1500001,,,,,,,2021-07-26,1,,,,,パシフィックリゾーツグループ,0
2389,9011001141930,新規,0,2021-07-26,2021-07-26,株式会社ＮＧＴＧ０８,,株式会社,東京都,渋谷区,渋谷１丁目３－１８ビラ・モデルナＡ４０２,,13,113,1500002,,,,,,,2021-07-26,1,,,,,エヌジーティージーゼロハチ,0
2394,9011003013054,新規,0,2021-07-26,2021-07-26,Ｓｏｌａｃｅ合同会社,,合同会社,東京都,渋谷区,恵比寿２丁目４番４号ベルフラッツ恵比寿２０１,,13,113,1500013,,,,,,,2021-07-26,1,,,,,ソラス,0
2403,9011301027061,新規,0,2021-07-26,2021-07-26,株式会社アクセル,,株式会社,東京都,杉並区,西荻南３丁目１７番４号,,13,115,1670053,,,,,,,2021-07-26,1,,,,,アクセル,0
2404,9011303004109,新規,0,2021-07-26,2021-07-26,合同会社Ｔ＆Ｈ　ＣＯＭＰＡＮＹ,,合同会社,東京都,杉並区,上荻１丁目１５番８号,,13,115,1670043,,,,,,,2021-07-26,1,,,,,ティーアンドエイチカンパニー,0
2406,9011401023555,新規,0,2021-07-26,2021-07-26,株式会社アルトポンテ,,株式会社,東京都,板橋区,蓮根３丁目１４番２５－８０６号,,13,119,1740046,,,,,,,2021-07-26,1,,,,,アルトポンテ,0
2413,9011701024526,新規,0,2021-07-26,2021-07-26,株式会社コンシダー,,株式会社,東京都,江戸川区,西葛西２丁目２２番２６－４０１号,,13,123,1340088,,,,,,,2021-07-26,1,,,,,カブシキガイシャコンシダー,0
2416,9011803004715,新規,0,2021-07-26,2021-07-26,ＳＫ運輸合同会社,,合同会社,東京都,葛飾区,小菅１丁目３３番１８号,,13,122,1240001,,,,,,,2021-07-26,1,,,,,エスケーウンユ,0
2425,9013301047758,新規,0,2021-07-26,2021-07-26,株式会社Ｂｌｏｏｍ,,株式会社,東京都,豊島区,東池袋２丁目６３番１号東池袋パレス１００９号室,,13,116,1700013,,,,,,,2021-07-26,1,,,,,ブルーム,0
2429,9020001142319,新規,0,2021-07-26,2021-07-26,エコトライ株式会社,,株式会社,神奈川県,横浜市西区,みなとみらい３丁目７－１,,14,103,2200012,,,,,,,2021-07-26,1,,,,,エコトライ,0
2430,9020001142327,新規,0,2021-07-26,2021-07-26,株式会社Ｓａｅ＆Ｃｏ．,,株式会社,神奈川県,横浜市神奈川区,旭ケ丘９番１８号,,14,102,2210814,,,,,,,2021-07-26,1,,,,,サエコ,0
2431,9020001142335,新規,0,2021-07-26,2021-07-26,株式会社フリーホーム,,株式会社,神奈川県,横浜市保土ケ谷区,狩場町２９２番地１ヒルテラス横浜・保土ケ谷弐番館４０２号,,14,106,2400025,,,,,,,2021-07-26,1,,,,,フリーホーム,0
2433,9020003020200,新規,0,2021-07-26,2021-07-26,ＳＫＹＥ　ＰＡＲＴＮＥＲＳ　ＪＡＰＡＮ合同会社,,合同会社,神奈川県,川崎市宮前区,鷺沼４丁目１０番地２,,14,136,2160004,,,,,,,2021-07-26,1,,,,,スカイパートナーズジャパン,0
2434,9020003020233,新規,0,2021-07-26,2021-07-26,合同会社ミズシマ,,合同会社,神奈川県,横浜市中区,立野５７－１３,,14,104,2310845,,,,,,,2021-07-26,1,,,,,ミズシマ,0
2436,9020005015140,新規,0,2021-07-26,2021-07-26,社会保険労務士法人総務人事サポートセンター,,その他の設立登記法人,神奈川県,横浜市神奈川区,栄町５番地１,,14,102,2210052,,,,,,,2021-07-26,1,,,,,,0
2437,9021001073454,新規,0,2021-07-26,2021-07-26,リタブラザーズ株式会社,,株式会社,神奈川県,三浦郡葉山町,下山口１１２０番地の２,,14,301,2400116,,,,,,,2021-07-26,1,,,,,リタブラザーズ,0
2438,9021001073479,新規,0,2021-07-26,2021-07-26,株式会社Ｌ・デーライト,,株式会社,神奈川県,相模原市緑区,若柳１５２３番２１号,,14,151,2520175,,,,,,,2021-07-26,1,,,,,エルデーライト,0
2459,9060001033927,新規,0,2021-07-26,2021-07-26,株式会社Ｗ８,,株式会社,栃木県,宇都宮市,長岡町４７６番地３,,09,201,3200004,,,,,,,2021-07-26,1,,,,,ダブルエイト,0
2463,9080003002614,新規,0,2021-07-26,2021-07-26,合同会社アミュール,,合同会社,静岡県,焼津市,石津中町２１－８,,22,212,4250043,,,,,,,2021-07-26,1,,,,,アミュール,0
2473,9080403004334,新規,0,2021-07-26,2021-07-26,セレンゲティ合同会社,,合同会社,静岡県,浜松市中区,松城町２１４番地の２２セントラルヒルズ松城１０１,,22,131,4300947,,,,,,,2021-07-26,1,,,,,セレンゲティ,0
2475,9100001034466,新規,0,2021-07-26,2021-07-26,Ｒｅ．ｃｏｍ株式会社,,株式会社,長野県,長野市,三輪８丁目２７番３号１Ｆ２Ｆ３Ｆ,,20,201,3800803,,,,,,,2021-07-26,1,,,,,リードットコム,0
2494,9120001239261,新規,0,2021-07-26,2021-07-26,株式会社Ｆｕｌｌ　Ｆｕｌｌ,,株式会社,大阪府,大阪市北区,梅田１丁目１１番４－１０００,,27,127,5300001,,,,,,,2021-07-26,1,,,,,フルフル,0
2500,9120003019892,新規,0,2021-07-26,2021-07-26,フォーユー合同会社,,合同会社,大阪府,大阪市住之江区,安立１丁目５－２タイムス安立７０２号,,27,125,5590003,,,,,,,2021-07-26,1,,,,,フォーユー,0
2510,9120901044678,新規,0,2021-07-26,2021-07-26,協和システムデザイン株式会社,,株式会社,大阪府,豊中市,上野東１丁目１番５５－１０１号,,27,203,5600013,,,,,,,2021-07-26,1,,,,,キョウワシステムデザイン,0
2525,9140001122399,新規,0,2021-07-26,2021-07-26,山下重機株式会社,,株式会社,兵庫県,宝塚市,山本中３丁目１０番２５号,,28,214,6650883,,,,,,,2021-07-26,1,,,,,ヤマシタジュウキ,0
2526,9140001122408,新規,0,2021-07-26,2021-07-26,株式会社ミグマ,,株式会社,兵庫県,芦屋市,公光町四丁目２８番Ｃ６,,28,206,6590065,,,,,,,2021-07-26,1,,,,,ミグマ,0
2530,9150003002433,新規,0,2021-07-26,2021-07-26,合同会社愛司,,合同会社,奈良県,奈良市,三条本町７番２０－６０１号,,29,201,6308122,,,,,,,2021-07-26,1,,,,,イトシ,0
2539,9170003001607,新規,0,2021-07-26,2021-07-26,合同会社ホープ,,合同会社,和歌山県,和歌山市,本脇３６５番地,,30,201,6400113,,,,,,,2021-07-26,1,,,,,ホープ,0
2550,9180001147062,新規,0,2021-07-26,2021-07-26,株式会社フィナンシャルプラス,,株式会社,愛知県,名古屋市南区,呼続元町１０番６５号,,23,112,4570011,,,,,,,2021-07-26,1,,,,,フィナンシャルプラス,0
2551,9180001147087,新規,0,2021-07-26,2021-07-26,株式会社エムズ企画,,株式会社,愛知県,あま市,森７丁目２４番地３,,23,237,4901107,,,,,,,2021-07-26,1,,,,,エムズキカク,0
2554,9180003022775,新規,0,2021-07-26,2021-07-26,ＴＳＵＢＡＳＡ合同会社,,合同会社,愛知県,北名古屋市,弥勒寺東３丁目１９０プチホワイトＢ,,23,234,4810031,,,,,,,2021-07-26,1,,,,,ツバサ,0
2564,9200005013225,新規,0,2021-07-26,2021-07-26,税理士法人プロシード,,その他の設立登記法人,岐阜県,岐阜市,鹿島町１丁目１９番地,,21,201,5008323,,,,,,,2021-07-26,1,,,,,プロシード,0
2566,9220003003077,新規,0,2021-07-26,2021-07-26,合同会社Ｓｈｉｎｅ,,合同会社,石川県,野々市市,押越１丁目１７２－２,,17,212,9218803,,,,,,,2021-07-26,1,,,,,シャイン,0
2572,9240001058311,新規,0,2021-07-26,2021-07-26,株式会社ＣａｔａｌｙＳｔａｒ,,株式会社,広島県,安芸郡海田町,昭和中町１番９－６０５号,,34,304,7360064,,,,,,,2021-07-26,1,,,,,カタリスター,0
2579,9260003003635,新規,0,2021-07-26,2021-07-26,せとうち恒産合同会社,,合同会社,岡山県,岡山市北区,天神町１０番１６号,,33,101,7000814,,,,,,,2021-07-26,1,,,,,セトウチコウサン,0
2584,9290001093997,新規,0,2021-07-26,2021-07-26,株式会社コウシン,,株式会社,福岡県,糟屋郡宇美町,明神坂３丁目２番３４号,,40,341,8112122,,,,,,,2021-07-26,1,,,,,コウシン,0
2595,9330001028833,新規,0,2021-07-26,2021-07-26,ありた不動産株式会社,,株式会社,熊本県,熊本市南区,御幸笛田７丁目７番９５号,,43,104,8614172,,,,,,,2021-07-26,1,,,,,アリタフドウサン,0
2600,9340003003494,新規,0,2021-07-26,2021-07-26,合資会社なでしこ殖産,,合資会社,鹿児島県,鹿児島市,西千石町１７番２８号,,46,201,8920847,,,,,,,2021-07-26,1,,,,,ナデシコショクサン,0
2602,9370001047359,新規,0,2021-07-26,2021-07-26,株式会社ｗｉｌｌｏｗ　ｃｏｎｓｕｌｔｉｎｇ,,株式会社,宮城県,仙台市泉区,八乙女中央５丁目１７番１号リヴィエル八乙女３０２,,04,105,9813135,,,,,,,2021-07-26,1,,,,,ウィローコンサルティング,0
2606,9380001032054,新規,0,2021-07-26,2021-07-26,株式会社大原カンパニー,,株式会社,福島県,会津若松市,住吉町６番２８号,,07,202,9650855,,,,,,,2021-07-26,1,,,,,オオハラカンパニー,0
2614,9410001012903,新規,0,2021-07-26,2021-07-26,秋田美人フォワード株式会社,,株式会社,秋田県,秋田市,泉北３丁目４－２０,,05,201,0100916,,,,,,,2021-07-26,1,,,,,アキタビジンフォワード,0
2621,9450001013419,新規,0,2021-07-26,2021-07-26,株式会社ｈａｐ,,株式会社,北海道,旭川市,忠和一条２丁目１番１１号,,01,204,0708041,,,,,,,2021-07-26,1,,,,,エイチエーピー,0
2623,9480001011436,新規,0,2021-07-26,2021-07-26,株式会社圓藤,,株式会社,徳島県,徳島市,北田宮１丁目４番２１号,,36,201,7700003,,,,,,,2021-07-26,1,,,,,エンドウ,0
2626,9500001023577,新規,0,2021-07-26,2021-07-26,株式会社Ｅ３,,株式会社,愛媛県,松山市,中村２丁目１番３号,,38,201,7900964,,,,,,,2021-07-26,1,,,,,イースリー,0
