sequenceNumber,corporateNumber,process,correct,updateDate,changeDate,name,nameImageId,kind,prefectureName,cityName,streetNumber,addressImageId,prefectureCode,cityCode,postCode,addressOutside,addressOutsideImageId,closeDate,closeCause,successorCorporateNumber,changeCause,assignmentDate,latest,enName,enPrefectureName,enCityName,enAddressOutside,furigana,hihyoji
4,1010001060727,登記記録の閉鎖等,0,2025-02-04,2025-02-03,六郷ニツト工業株式会社,,株式会社,神奈川県,藤沢市,鵠沼松が岡３丁目８番２０号,,14,205,2510038,,,2025-02-03,清算の結了等,,,2015-10-05,1,,,,,ロクゴウニツトコウギョウ,0
19,1010405007167,登記記録の閉鎖等,0,2025-02-04,2025-01-09,特定非営利活動法人日本危機管理センター,,その他の設立登記法人,東京都,港区,浜松町２丁目２番１５号ダイヤビル２Ｆ,,13,103,1050013,,,2025-01-09,清算の結了等,,,2015-10-05,1,,,,,ニホンキキカンリセンター,0
26,1010605004071,登記記録の閉鎖等,0,2025-02-04,2025-01-08,ジャパン・タテヤマ特定目的会社,,その他の設立登記法人,東京都,港区,虎ノ門３丁目２２番１０－２０１号,,13,103,1050001,,,2025-01-08,清算の結了等,,,2022-04-27,1,,,,,ジャパンタテヤマ,0
29,1010701041613,登記記録の閉鎖等,0,2025-02-04,2025-01-10,株式会社ジモカー,,株式会社,東京都,品川区,西五反田１丁目２番１０号,,13,109,1410031,,,2025-01-10,清算の結了等,,,2021-10-12,1,,,,,ジモカー,0
32,1010801032693,登記記録の閉鎖等,0,2025-02-04,2025-01-31,株式会社ゼロイチマーケティングサービス,,株式会社,東京都,大田区,鵜の木２丁目１３－１２,,13,111,1460091,,,2025-01-31,合併による解散等,1011001095721,令和６年１１月１日神奈川県川崎市中原区木月二丁目５番１２号株式会社ＧＥＮＴＥ（1011001095721）に合併し解散,2022-02-01,1,,,,,ゼロイチマーケティングサービス,0
47,1011001143884,登記記録の閉鎖等,0,2025-02-04,2025-01-08,株式会社トライブ企画,,株式会社,東京都,目黒区,上目黒１丁目２６番１－２４０３号,,13,110,1530051,,,2025-01-08,清算の結了等,,,2021-11-08,1,,,,,トライブキカク,0
72,1020001129918,登記記録の閉鎖等,0,2025-02-04,2025-01-31,パワーオーク株式会社,,株式会社,神奈川県,相模原市南区,東林間１丁目１７－１６,,14,153,2520311,,,2025-01-31,清算の結了等,,,2019-02-14,1,,,,,パワーオーク,0
77,1020003001496,登記記録の閉鎖等,0,2025-02-04,2025-01-17,ライオン，ダンボール合名会社,,合名会社,神奈川県,横浜市保土ケ谷区,神戸町１０６番地,,14,106,2400005,,,2025-01-17,清算の結了等,,,2015-10-05,1,,,,,ライオンダンボール,0
83,1021002033274,登記記録の閉鎖等,0,2025-02-04,2025-02-03,有限会社マルヨシ総業,,有限会社,神奈川県,厚木市,妻田東１丁目１５番１４号,,14,212,2430813,,,2025-02-03,清算の結了等,,,2015-10-05,1,,,,,マルヨシソウギョウ,0
92,1040001002511,登記記録の閉鎖等,0,2025-02-04,2025-01-31,三栄写植株式会社,,株式会社,千葉県,千葉市若葉区,桜木町５３３番地５０,,12,104,2640022,,,2025-01-31,登記官による閉鎖,,,2015-10-05,1,,,,,,0
93,1040001004598,登記記録の閉鎖等,0,2025-02-04,2025-01-31,株式会社千葉県教育機器教材センター,00018788,株式会社,千葉県,千葉市若葉区,桜木町２８４番地の１０８,,12,104,2640022,,,2025-01-31,登記官による閉鎖,,,2015-10-05,1,,,,,,0
95,1040001026072,登記記録の閉鎖等,0,2025-02-04,2025-01-31,株式会社国東建工,,株式会社,千葉県,市川市,稲越町２４５番地,,12,203,2720831,,,2025-01-31,登記官による閉鎖,,,2015-10-05,1,,,,,,0
96,1040001026436,登記記録の閉鎖等,0,2025-02-04,2025-01-31,株式会社シーバー商会,,株式会社,千葉県,市川市,稲越町４８７番地３３,,12,203,2720831,,,2025-01-31,登記官による閉鎖,,,2015-10-05,1,,,,,,0
97,1040001042714,登記記録の閉鎖等,0,2025-02-04,2025-01-29,株式会社イマナカ,,株式会社,千葉県,成田市,飯田町１５０番地,,12,211,2860041,,,2025-01-29,清算の結了等,,,2015-10-05,1,,,,,イマナカ,0
116,1070002026639,登記記録の閉鎖等,0,2025-02-04,2025-01-31,有限会社長岡木材,,有限会社,群馬県,渋川市,赤城町三原田５７２番地の１,,10,208,3791126,,,2025-01-31,清算の結了等,,,2015-10-05,1,,,,,ナガオカモクザイ,0
120,1080401000251,登記記録の閉鎖等,0,2025-02-04,2025-01-29,株式会社アド・ハート,,株式会社,静岡県,浜松市中央区,市野町１６９８番地,,22,138,4350051,,,2025-01-29,清算の結了等,,,2015-10-05,1,,,,,アドハート,0
129,1120001191767,登記記録の閉鎖等,0,2025-02-04,2025-01-30,株式会社エムジェイシステム,,株式会社,大阪府,大阪市大正区,平尾５丁目１４番６号,,27,108,5510012,,,2025-01-30,清算の結了等,,,2015-10-05,1,,,,,エムジェイシステム,0
131,1120001203357,登記記録の閉鎖等,0,2025-02-04,2025-01-24,株式会社肥後橋事務センター,,株式会社,大阪府,大阪市西区,江戸堀１丁目２番１１号大同生命南館７０１号,,27,106,5500002,,,2025-01-24,清算の結了等,,,2017-02-01,1,,,,,ヒゴバシジムセンター,0
132,1120001207408,登記記録の閉鎖等,0,2025-02-04,2025-01-31,トーヨーダイヤモンド株式会社,,株式会社,大阪府,大阪市住之江区,西加賀屋１丁目２番５６－１０２２号,,27,125,5590016,,,2025-01-31,清算の結了等,,,2017-09-19,1,,,,,トーヨーダイヤモンド,0
141,1120101006370,登記記録の閉鎖等,0,2025-02-04,2025-01-23,株式会社ベルウッド,,株式会社,大阪府,堺市北区,蔵前町１５７０番地の３ベル・アーバニティ北花田３０３号,,27,146,5918004,,,2025-01-23,登記官による閉鎖,,,2015-10-05,1,,,,,,0
142,1120101058445,登記記録の閉鎖等,0,2025-02-04,2025-01-29,株式会社アグリハウス技研,,株式会社,大阪府,岸和田市,磯上町４丁目１番１６号,,27,202,5960001,,,2025-01-29,清算の結了等,,,2018-07-11,1,,,,,アグリハウスギケン,0
143,1120101058536,登記記録の閉鎖等,0,2025-02-04,2025-01-31,ハリコットプティ株式会社,,株式会社,大阪府,堺市南区,庭代台３丁９番７０号,,27,145,5900133,,,2025-01-31,清算の結了等,,,2018-07-20,1,,,,,ハリコットプティ,0
146,1120901020678,登記記録の閉鎖等,0,2025-02-04,2025-01-27,大東運輸株式会社,,株式会社,大阪府,箕面市,粟生外院４丁目２２番３号,,27,220,5620025,,,2025-01-27,清算の結了等,,,2015-10-05,1,,,,,ダイトウウンユ,0
147,1120901035247,登記記録の閉鎖等,0,2025-02-04,2025-01-27,株式会社ＭＡＭ,,株式会社,大阪府,茨木市,美穂ケ丘１３番１５２８号,,27,211,5670047,,,2025-01-27,清算の結了等,,,2015-10-05,1,,,,,マム,0
156,1130001000431,登記記録の閉鎖等,0,2025-02-04,2025-02-03,株式会社オレンジ観光,,株式会社,京都府,京都市右京区,嵯峨二尊院門前北中院町１１番地,,26,108,6168428,,,2025-02-03,清算の結了等,,,2015-10-05,1,,,,,オレンジカンコウ,0
164,1140001049476,登記記録の閉鎖等,0,2025-02-04,2025-01-30,株式会社鮮魚三洋,,株式会社,兵庫県,尼崎市,富松町４丁目９番２２号,,28,202,6610003,,,2025-01-30,清算の結了等,,,2015-10-05,1,,,,,センギョサンヨウ,0
168,1140001127281,登記記録の閉鎖等,0,2025-02-04,2025-01-28,株式会社ビクトリー,,株式会社,兵庫県,洲本市,下内膳９４５番地２－２０３号,,28,205,6560016,,,2025-01-28,清算の結了等,,,2022-09-09,1,,,,,ビクトリー,0
180,1180001065866,登記記録の閉鎖等,0,2025-02-04,2025-01-28,株式会社ウォールリノベーション,,株式会社,愛知県,名古屋市天白区,元八事３丁目６２番地,,23,116,4680066,,,2025-01-28,清算の結了等,,,2015-10-05,1,,,,,ウォールリノベーション,0
182,1180001106653,登記記録の閉鎖等,0,2025-02-04,2025-01-29,株式会社Ｂ－ｃａｎ,,株式会社,愛知県,名古屋市中区,大須１丁目３３番１３号,,23,106,4600011,,,2025-01-29,清算の結了等,,,2015-10-05,1,,,,,ビーキャン,0
184,1180001129927,登記記録の閉鎖等,0,2025-02-04,2025-01-28,株式会社ビーオン,,株式会社,愛知県,北名古屋市,九之坪梅田９８番地,,23,234,4810041,,,2025-01-28,清算の結了等,,,2017-10-27,1,,,,,ビーオン,0
185,1180001149413,登記記録の閉鎖等,0,2025-02-04,2025-01-29,株式会社Ｔ’ｓ　ＰＬＡＣＥ,,株式会社,愛知県,名古屋市瑞穂区,神前町１丁目３３番地の３,,23,108,4670832,,,2025-01-29,清算の結了等,,,2022-01-06,1,,,,,ティーズプレイス,0
190,1180002052649,登記記録の閉鎖等,0,2025-02-04,2025-01-30,有限会社スペースライフ,,有限会社,愛知県,名古屋市昭和区,前山町１丁目２番地,,23,107,4660821,,,2025-01-30,清算の結了等,,,2015-10-05,1,,,,,スペースライフ,0
191,1180002070709,登記記録の閉鎖等,0,2025-02-04,2025-01-29,有限会社サンナカ工業,,有限会社,愛知県,小牧市,大字小牧２３７３番地,,23,219,4850041,,,2025-01-29,清算の結了等,,,2015-10-05,1,,,,,サンナカコウギョウ,0
197,1180005017723,登記記録の閉鎖等,0,2025-02-04,2025-01-30,特定非営利活動法人横井庄一記念館を護る会,,その他の設立登記法人,愛知県,津島市,越津町字柳之内８４番地,,23,208,4960022,,,2025-01-30,清算の結了等,,,2018-03-23,1,,,,,ヨコイショウイチキネンカンヲマモルカイ,0
200,1180301036856,登記記録の閉鎖等,0,2025-02-04,2025-01-30,ＣＨＩＭＥ株式会社,,株式会社,愛知県,岡崎市,大和町字荒田１１番地６,,23,202,4440931,,,2025-01-30,清算の結了等,,,2022-11-30,1,,,,,チャイム,0
218,1250002005450,登記記録の閉鎖等,0,2025-02-04,2025-01-31,有限会社原田ブロツク工業所,,有限会社,山口県,宇部市,芝中町１番１５号,,35,202,7550017,,,2025-01-31,清算の結了等,,,2015-10-05,1,,,,,ハラダブロツクコウギョウショ,0
222,1280001007354,登記記録の閉鎖等,0,2025-02-04,2025-02-03,エムプラス株式会社,,株式会社,島根県,松江市,東出雲町出雲郷７７４番地,,32,201,6990108,,,2025-02-03,清算の結了等,,,2016-12-02,1,,,,,エムプラス,0
234,1290005007960,登記記録の閉鎖等,0,2025-02-04,2025-01-20,桑野生産森林組合,,その他の設立登記法人,福岡県,嘉麻市,桑野１７３６番地,,40,227,8200313,,,2025-01-20,清算の結了等,,,2015-10-05,1,,,,,クワノ,0
239,1310003003422,登記記録の閉鎖等,0,2025-02-04,2025-02-03,合同会社吉村工業,,合同会社,長崎県,東彼杵郡川棚町,中組郷１４０２番地６,,42,322,8593614,,,2025-02-03,清算の結了等,,,2018-01-24,1,,,,,ヨシムラコウギョウ,0
243,1330001014221,登記記録の閉鎖等,0,2025-02-04,2025-01-24,株式会社和田庄熊本商店,,株式会社,熊本県,葦北郡芦北町,大字花岡１６６３番地１,,43,482,8695442,,,2025-01-24,清算の結了等,,,2015-10-05,1,,,,,ワダショウクマモトショウテン,0
248,1330003010598,登記記録の閉鎖等,0,2025-02-04,2025-01-30,合同会社八芳園パートナーズ,,合同会社,熊本県,玉名市,立願寺６２７番地,,43,206,8650061,,,2025-01-30,合併による解散等,9330002021143,令和７年１月３０日熊本県玉名市立願寺６２７番地株式会社八芳園（9330002021143）に合併し解散,2024-10-18,1,,,,,ハッポウエンパートナーズ,0
259,1380001004382,登記記録の閉鎖等,0,2025-02-04,2025-01-21,アクアシステム株式会社,,株式会社,福島県,郡山市,大槻町字辰巳田４４番地の２,,07,203,9630201,,,2025-01-21,登記官による閉鎖,,,2015-10-05,1,,,,,,0
260,1380002020528,登記記録の閉鎖等,0,2025-02-04,2025-01-21,有限会社角田鋼建工業所,,有限会社,福島県,岩瀬郡鏡石町,大字鏡田字岡ノ内３９７番地,,07,342,9690401,,,2025-01-21,登記官による閉鎖,,,2015-10-05,1,,,,,,0
263,1410002011449,登記記録の閉鎖等,0,2025-02-04,2025-01-30,有限会社佐藤印刷所,,有限会社,秋田県,大仙市,大曲丸の内町３番３４号,,05,212,0140026,,,2025-01-30,清算の結了等,,,2015-10-05,1,,,,,,0
264,1430001011332,登記記録の閉鎖等,0,2025-02-04,2025-01-29,株式会社東京信販,,株式会社,北海道,札幌市中央区,南一条西５丁目８番地愛生舘ビル,,01,101,0600061,,,2025-01-29,清算の結了等,,,2018-01-26,1,,,,,トウキョウシンパン,0
265,1430001011729,登記記録の閉鎖等,0,2025-02-04,2025-01-29,株式会社東和リース,,株式会社,北海道,札幌市中央区,南一条西５丁目８番地愛生舘ビル,,01,101,0600061,,,2025-01-29,清算の結了等,,,2024-11-11,1,,,,,,0
285,2010001178163,登記記録の閉鎖等,0,2025-02-04,2025-01-31,富士山グリーンファーム株式会社,,株式会社,静岡県,富士市,島田町２丁目１７５番地,,22,210,4170033,,,2025-01-31,清算の結了等,,,2016-09-06,1,,,,,,0
286,2010001205355,登記記録の閉鎖等,0,2025-02-04,2025-01-22,株式会社土壌再生研究所,,株式会社,東京都,中央区,日本橋兜町３番５号,,13,102,1030026,,,2025-01-22,清算の結了等,,,2019-11-22,1,,,,,ドジョウサイセイケンキュウジョ,0
299,2010401083698,登記記録の閉鎖等,0,2025-02-04,2025-01-08,株式会社グローバルインパクト,,株式会社,東京都,港区,西新橋１丁目２番９号日比谷セントラルビル１４階,,13,103,1050003,,,2025-01-08,清算の結了等,,,2015-10-05,1,,,,,グローバルインパクト,0
302,2010401141919,登記記録の閉鎖等,0,2025-02-04,2025-01-08,株式会社ＤＯグループ,,株式会社,東京都,港区,白金台４丁目１５番５号,,13,103,1080071,,,2025-01-08,清算の結了等,,,2018-11-08,1,,,,,ディーオーグループ,0
306,2010401162634,登記記録の閉鎖等,0,2025-02-04,2025-01-08,ＳＬＭ　Ｓｏｌｕｔｉｏｎｓ　Ｊａｐａｎ株式会社,,株式会社,東京都,港区,六本木３丁目６番９号小見山公認会計士事務所内,,13,103,1060032,,,2025-01-08,清算の結了等,,,2021-09-13,1,,,,,エスエルエムソリューションズジャパン,0
307,2010401164936,登記記録の閉鎖等,0,2025-02-04,2025-01-08,株式会社ＧＢＡ　Ｇｌｏｂａｌ　ＢＰＯ　Ａｌｌｉａｎｃｅ,,株式会社,東京都,港区,西麻布１丁目８番１２号,,13,103,1060031,,,2025-01-08,合併による解散等,2010401046234,令和６年１２月３０日東京都港区西麻布一丁目８番１２号マスターピース・グループ株式会社（2010401046234）に合併し解散,2022-01-17,1,,,,,ジービーエーグローバルビーピーオーアライアンス,0
315,2010605003923,登記記録の閉鎖等,0,2025-02-04,2025-01-08,ピーピーエフエー・ジャパン・セブン特定目的会社,,その他の設立登記法人,東京都,港区,虎ノ門３丁目２２番１０－２０１号,,13,103,1050001,,,2025-01-08,清算の結了等,,,2021-02-15,1,,,,,ピーピーエフエージャパンセブン,0
353,2020001028020,登記記録の閉鎖等,0,2025-02-04,2025-01-29,株式会社ジェイズ,,株式会社,東京都,江戸川区,北小岩７丁目１７番１５号,,13,123,1330051,,,2025-01-29,清算の結了等,,,2015-10-05,1,,,,,ジェイズ,0
361,2021001043959,登記記録の閉鎖等,0,2025-02-04,2025-02-03,大和産業株式会社,,株式会社,神奈川県,横須賀市,岩戸１丁目１４番１号,,14,201,2390844,,,2025-02-03,清算の結了等,,,2015-10-05,1,,,,,ダイワサンギョウ,0
363,2021002038990,登記記録の閉鎖等,0,2025-02-04,2025-01-31,有限会社飯田企画,,有限会社,神奈川県,秦野市,並木町４番５号,,14,211,2591317,,,2025-01-31,清算の結了等,,,2015-10-05,1,,,,,イイダキカク,0
376,2040001000679,登記記録の閉鎖等,0,2025-02-04,2025-01-31,株式会社井之輪電商,,株式会社,千葉県,千葉市若葉区,桜木町２３０番地の４５,,12,104,2640022,,,2025-01-31,登記官による閉鎖,,,2015-10-05,1,,,,,,0
377,2040001029280,登記記録の閉鎖等,0,2025-02-04,2025-01-31,株式会社ウエイコ,,株式会社,千葉県,浦安市,明海６番地夢海の街２－１１０５号,,12,227,2790014,,,2025-01-31,登記官による閉鎖,,,2015-10-05,1,,,,,,0
397,2120001142026,登記記録の閉鎖等,0,2025-02-04,2025-01-29,ＤＡＹ０１ＪＡＰＡＮ株式会社,,株式会社,大阪府,大阪市都島区,友渕町１丁目５番１－９１２号,,27,102,5340016,,,2025-01-29,清算の結了等,,,2015-10-05,1,,,,,,0
400,2120001175851,登記記録の閉鎖等,0,2025-02-04,2025-01-29,株式会社プラスアルファー,,株式会社,大阪府,枚方市,長尾家具町５丁目１２番１１号,,27,210,5730102,,,2025-01-29,清算の結了等,,,2015-10-05,1,,,,,プラスアルファー,0
421,2120101007203,登記記録の閉鎖等,0,2025-02-04,2025-01-23,南野鉄工株式会社,,株式会社,大阪府,堺市北区,船堂町１８６番地,,27,146,5918003,,,2025-01-23,登記官による閉鎖,,,2015-10-05,1,,,,,,0
422,2120101038330,登記記録の閉鎖等,0,2025-02-04,2025-01-23,株式会社中山薬局,,株式会社,大阪府,貝塚市,近木９６７番地,,27,208,5970001,,,2025-01-23,登記官による閉鎖,,,2015-10-05,1,,,,,,0
423,2120101038545,登記記録の閉鎖等,0,2025-02-04,2025-01-23,ワカヤ電機株式会社,,株式会社,大阪府,貝塚市,中９００番地の１,,27,208,5970003,,,2025-01-23,登記官による閉鎖,,,2015-10-05,1,,,,,,0
431,2130001054690,登記記録の閉鎖等,0,2025-02-04,2025-01-31,株式会社びわこ互助センター,,株式会社,滋賀県,近江八幡市,西庄町１２１６番地１,,25,204,5230816,,,2025-01-31,清算の結了等,,,2015-10-05,1,,,,,ビワコゴジョセンター,0
439,2140001056703,登記記録の閉鎖等,0,2025-02-04,2025-01-28,谷川ナイロン工業株式会社,,株式会社,兵庫県,美方郡新温泉町,福富１７７番地,,28,586,6696732,,,2025-01-28,清算の結了等,,,2015-10-05,1,,,,,タニガワナイロンコウギョウ,0
451,2160002001615,登記記録の閉鎖等,0,2025-02-04,2025-01-31,有限会社不老園,,有限会社,滋賀県,大津市,南郷５丁目１２番１１号,,25,201,5200865,,,2025-01-31,清算の結了等,,,2015-10-05,1,,,,,フロウエン,0
453,2180001101471,登記記録の閉鎖等,0,2025-02-04,2025-01-28,株式会社マダムアリス,,株式会社,愛知県,名古屋市緑区,鳴海町字有松裏３番地１,,23,114,4580824,,,2025-01-28,清算の結了等,,,2015-10-05,1,,,,,マダムアリス,0
456,2180001126246,登記記録の閉鎖等,0,2025-02-04,2025-01-30,株式会社ＴＹＳ,,株式会社,愛知県,春日井市,六軒屋町西１丁目１番地７,,23,206,4860839,,,2025-01-30,清算の結了等,,,2017-01-17,1,,,,,ティーワイエス,0
468,2190002009481,登記記録の閉鎖等,0,2025-02-04,2025-02-03,株式会社バーナル,,株式会社,三重県,伊勢市,小俣町湯田９６４番地１,,24,203,5190506,,,2025-02-03,合併による解散等,7190001006797,令和７年２月１日三重県伊勢市小俣町湯田９６４番地１株式会社高橋建築（7190001006797）に合併し解散,2015-10-05,1,,,,,バーナル,0
471,2200002019917,登記記録の閉鎖等,0,2025-02-04,2025-01-31,有限会社新井建設,,有限会社,岐阜県,多治見市,白山町３丁目１２番地の１,,21,204,5070038,,,2025-01-31,清算の結了等,,,2015-10-05,1,,,,,アライケンセツ,0
502,2320001009782,登記記録の閉鎖等,0,2025-02-04,2025-02-03,株式会社大野ストックマンサービス,,株式会社,大分県,豊後大野市,三重町小坂３８６９番地５,,44,212,8797104,,,2025-02-03,清算の結了等,,,2015-10-05,1,,,,,,0
506,2330001014880,登記記録の閉鎖等,0,2025-02-04,2025-01-27,株式会社山岡商事,,株式会社,熊本県,熊本市東区,健軍４丁目５－３,,43,102,8620911,,,2025-01-27,清算の結了等,,,2015-10-05,1,,,,,ヤマオカショウジ,0
513,2370001022789,登記記録の閉鎖等,0,2025-02-04,2025-01-29,サンシン空調株式会社,,株式会社,宮城県,仙台市宮城野区,中野字北上６０番地の５,,04,102,9830013,,,2025-01-29,清算の結了等,,,2015-10-05,1,,,,,,0
515,2370002017945,登記記録の閉鎖等,0,2025-02-04,2025-01-28,有限会社ノルディコ,,有限会社,宮城県,仙台市青葉区,中山４丁目２２番１８－４０９号,,04,101,9810952,,,2025-01-28,清算の結了等,,,2015-10-05,1,,,,,ノルディコ,0
517,2370301000461,登記記録の閉鎖等,0,2025-02-04,2025-01-22,株式会社ケイティ,,株式会社,宮城県,石巻市,鹿妻１丁目７番地の２,,04,202,9860000,,,2025-01-22,登記官による閉鎖,,,2015-10-05,1,,,,,,1
518,2370301000866,登記記録の閉鎖等,0,2025-02-04,2025-01-22,株式会社中央交通,,株式会社,宮城県,石巻市,門脇字三軒屋１番地７,,04,202,9860853,,,2025-01-22,登記官による閉鎖,,,2015-10-05,1,,,,,,0
520,2380001006072,登記記録の閉鎖等,0,2025-02-04,2025-01-21,中野建設株式会社,,株式会社,福島県,郡山市,大槻町字谷地６６番地,,07,203,9630201,,,2025-01-21,登記官による閉鎖,,,2015-10-05,1,,,,,,0
521,2380001011502,登記記録の閉鎖等,0,2025-02-04,2025-01-21,株式会社ピー・デー・デー・シー,,株式会社,福島県,岩瀬郡鏡石町,大字鏡田字牛池１８２番地,,07,342,9690401,,,2025-01-21,登記官による閉鎖,,,2015-10-05,1,,,,,,0
539,3010001222886,登記記録の閉鎖等,0,2025-02-04,2025-01-23,ＳＹ興産株式会社,,株式会社,東京都,千代田区,永田町２丁目１２番４号,,13,101,1000014,,,2025-01-23,清算の結了等,,,2021-12-01,1,,,,,エスワイコウサン,0
563,3010403009601,登記記録の閉鎖等,0,2025-02-04,2025-01-29,Ｃｏｎｃｅｎｔｒｉｘ　ＳＲＥＶ　Ｊａｐａｎ合同会社,,合同会社,神奈川県,横浜市西区,みなとみらい３丁目６番３号ＭＭパークビル１１階,,14,103,2200012,,,2025-01-29,合併による解散等,5360001002194,令和６年１２月１日東京都江東区亀戸一丁目５番７号日本コンセントリクス株式会社（5360001002194）に合併し解散,2015-10-05,1,,,,,コンセントリクスエスレヴジャパン,0
569,3010605003179,登記記録の閉鎖等,0,2025-02-04,2025-01-08,ジーナイン江戸川橋特定目的会社,,その他の設立登記法人,東京都,港区,虎ノ門３丁目２２番１０－２０１号,,13,103,1050001,,,2025-01-08,清算の結了等,,,2015-12-25,1,,,,,ジーナインエドガワバシ,0
573,3010802008872,登記記録の閉鎖等,0,2025-02-04,2025-01-23,有限会社高林建材商店,,有限会社,東京都,大田区,大森北３丁目４番５号,,13,111,1430016,,,2025-01-23,合併による解散等,2010801023989,令和７年１月２３日東京都大田区大森北三丁目４番５号平安通商株式会社（2010801023989）に合併し解散,2015-10-05,1,,,,,,0
602,3011405001926,登記記録の閉鎖等,0,2025-02-04,2025-01-22,特定非営利活動法人ゆずり葉,,その他の設立登記法人,東京都,板橋区,高島平８丁目４番８号,,13,119,1750082,,,2025-01-22,清算の結了等,,,2017-09-08,1,,,,,ユズリハ,0
608,3012301011911,登記記録の閉鎖等,0,2025-02-04,2025-01-31,フーズラボサガミ株式会社,,株式会社,東京都,町田市,原町田３丁目７番２号,,13,209,1940013,,,2025-01-31,清算の結了等,,,2019-11-14,1,,,,,フーズラボサガミ,0
614,3012405001206,登記記録の閉鎖等,0,2025-02-04,2025-01-22,特定非営利活動法人日本沈下修正協会,,その他の設立登記法人,東京都,千代田区,六番町１番地,,13,101,1020085,,,2025-01-22,清算の結了等,,,2015-10-05,1,,,,,ニホンチンカシュウセイキョウカイ,0
616,3013101000014,登記記録の閉鎖等,0,2025-02-04,2025-02-03,株式会社アン・インターナショナル,,株式会社,東京都,西多摩郡瑞穂町,大字長岡長谷部１９１番地,,13,303,1901231,,,2025-02-03,清算の結了等,,,2015-10-05,1,,,,,アンインターナショナル,0
622,3020001089037,登記記録の閉鎖等,0,2025-02-04,2025-01-23,湘南エージェンシー株式会社,,株式会社,東京都,台東区,台東３丁目４３－１０－５０４,,13,106,1100016,,,2025-01-23,清算の結了等,,,2015-10-05,1,,,,,ショウナンエージェンシー,0
630,3021005012760,登記記録の閉鎖等,0,2025-02-04,2025-01-31,一般社団法人ＡＭＩセンター,,その他の設立登記法人,神奈川県,平塚市,桃浜町１８番２８－２号,,14,203,2540815,,,2025-01-31,清算の結了等,,,2023-03-20,1,,,,,エーエムアイセンター,0
631,3030001020116,登記記録の閉鎖等,0,2025-02-04,2025-01-31,株式会社オガタ,,株式会社,埼玉県,戸田市,大字新曽１５０３番地,,11,224,3350021,,,2025-01-31,清算の結了等,,,2015-10-05,1,,,,,オガタ,0
634,3030002120988,登記記録の閉鎖等,0,2025-02-04,2025-01-31,有限会社サンライズ,,有限会社,埼玉県,日高市,大字下大谷沢７２番地２,,11,242,3501221,,,2025-01-31,清算の結了等,,,2015-10-05,1,,,,,サンライズ,0
637,3040001026574,登記記録の閉鎖等,0,2025-02-04,2025-01-28,株式会社杉田設備工業所,,株式会社,千葉県,市川市,広尾２丁目７番２号,,12,203,2720146,,,2025-01-28,清算の結了等,,,2015-10-05,1,,,,,スギタセツビコウギョウショ,0
642,3040002033594,登記記録の閉鎖等,0,2025-02-04,2025-01-28,有限会社行徳屋,,有限会社,千葉県,市川市,鬼越２丁目５番８号,,12,203,2720022,,,2025-01-28,清算の結了等,,,2015-10-05,1,,,,,ギョウトクヤ,0
649,3060001006269,登記記録の閉鎖等,0,2025-02-04,2025-01-29,株式会社公正社,,株式会社,栃木県,宇都宮市,本町１３番１０号,,09,201,3200033,,,2025-01-29,清算の結了等,,,2015-10-05,1,,,,,コウセイシャ,0
655,3080102010630,登記記録の閉鎖等,0,2025-02-04,2025-01-31,有限会社鈴和製作所,,有限会社,静岡県,駿東郡清水町,徳倉２３４３番地,,22,341,4110917,,,2025-01-31,清算の結了等,,,2015-10-05,1,,,,,スズワセイサクショ,0
666,3090005001040,登記記録の閉鎖等,0,2025-02-04,2025-01-29,熊野神社,,その他の設立登記法人,山梨県,甲斐市,獅子平４８５番地,,19,210,4001116,,,2025-01-29,清算の結了等,,,2015-10-05,1,,,,,クマノジンジャ,0
682,3120002054723,登記記録の閉鎖等,0,2025-02-04,2025-01-30,有限会社ビノテーク,,有限会社,大阪府,大阪市中央区,船場中央３丁目２番８－２１３号,,27,128,5410055,,,2025-01-30,清算の結了等,,,2015-10-05,1,,,,,ビノテーク,0
686,3120102013892,登記記録の閉鎖等,0,2025-02-04,2025-01-29,有限会社天美印材店,,有限会社,大阪府,松原市,天美北６丁目３４０番地の１４,,27,217,5800031,,,2025-01-29,清算の結了等,,,2015-10-05,1,,,,,アマミインザイテン,0
697,3130005009830,登記記録の閉鎖等,0,2025-02-04,2025-01-27,特定非営利活動法人いーね・ふれ愛,,その他の設立登記法人,京都府,与謝郡伊根町,字平田７７番地,,26,463,6260423,,,2025-01-27,清算の結了等,,,2015-10-05,1,,,,,イーネフレアイ,0
710,3160001003248,登記記録の閉鎖等,0,2025-02-04,2025-01-31,ガイア滋賀株式会社,,株式会社,滋賀県,草津市,馬場町２０７番地４６,,25,206,5250043,,,2025-01-31,清算の結了等,,,2015-10-05,1,,,,,ガイアシガ,0
714,3180001067349,登記記録の閉鎖等,0,2025-02-04,2025-01-29,株式会社大幸電機,,株式会社,愛知県,愛知郡東郷町,大字諸輪字後山７５番地１,,23,302,4700151,,,2025-01-29,清算の結了等,,,2015-10-05,1,,,,,ダイコウデンキ,0
721,3180001159237,登記記録の閉鎖等,0,2025-02-04,2025-01-24,株式会社Ｋ‐ＵＰ,,株式会社,愛知県,常滑市,森西町２丁目４６番地,,23,216,4790845,,,2025-01-24,清算の結了等,,,2023-12-08,1,,,,,ケーアップ,0
722,3180002020273,登記記録の閉鎖等,0,2025-02-04,2025-01-27,有限会社近藤設計,,有限会社,愛知県,名古屋市守山区,小幡北１１６０番地,,23,113,4630008,,,2025-01-27,清算の結了等,,,2015-10-05,1,,,,,コンドウセッケイ,0
728,3180301007021,登記記録の閉鎖等,0,2025-02-04,2025-01-30,株式会社奉仕堂印刷,,株式会社,愛知県,豊橋市,神野新田町字ロノ割５７番地１,,23,201,4418077,,,2025-01-30,清算の結了等,,,2015-10-05,1,,,,,ホウシドウインサツ,0
730,3180302018447,登記記録の閉鎖等,0,2025-02-04,2025-01-23,有限会社寿し和,,有限会社,愛知県,刈谷市,井ケ谷町久伝原２７番地１,,23,210,4480001,,,2025-01-23,清算の結了等,,,2015-10-05,1,,,,,スシカズ,0
732,3200001008572,登記記録の閉鎖等,0,2025-02-04,2025-01-27,株式会社新隆,,株式会社,愛知県,小牧市,中央１丁目４１６番地,,23,219,4850029,,,2025-01-27,清算の結了等,,,2015-10-05,1,,,,,シンリュウ,0
744,3270005003522,登記記録の閉鎖等,0,2025-02-04,2025-01-31,医療法人健和会,,その他の設立登記法人,鳥取県,西伯郡大山町,塩津３１２番地,,31,386,6893122,,,2025-01-31,清算の結了等,,,2015-10-05,1,,,,,ケンワカイ,0
764,3330005002030,登記記録の閉鎖等,0,2025-02-04,2025-01-27,熊本個人タクシー一期会協同組合,,その他の設立登記法人,熊本県,熊本市中央区,神水２丁目１０番７号,,43,101,8620954,,,2025-01-27,清算の結了等,,,2015-10-05,1,,,,,クマモトコジンタクシーイチゴカイ,0
768,3370001002410,登記記録の閉鎖等,0,2025-02-04,2025-01-22,株式会社仙台観光サービス,,株式会社,宮城県,仙台市太白区,大野田字竹松９番地の１,,04,104,9820014,,,2025-01-22,登記官による閉鎖,,,2015-10-05,1,,,,,,0
771,3380002014362,登記記録の閉鎖等,0,2025-02-04,2025-01-24,有限会社モールド設計畠山,,有限会社,福島県,郡山市,富田町字北向７９番地の３,,07,203,9638041,,,2025-01-24,清算の結了等,,,2015-10-05,1,,,,,モールドセッケイハタケヤマ,0
772,3380002023529,登記記録の閉鎖等,0,2025-02-04,2025-01-29,有限会社興和鉄工所,,有限会社,福島県,いわき市,小川町柴原字水貫７１番地７４,,07,204,9793111,,,2025-01-29,清算の結了等,,,2015-10-05,1,,,,,コウワテッコウジョ,0
773,3400001004808,登記記録の閉鎖等,0,2025-02-04,2025-01-24,株式会社やちだもや,,株式会社,岩手県,盛岡市,手代森２１地割２６番地,,03,201,0200401,,,2025-01-24,清算の結了等,,,2015-10-05,1,,,,,ヤチダモヤ,0
777,3430001053224,登記記録の閉鎖等,0,2025-02-04,2025-01-31,樽前開発株式会社,00049513,株式会社,東京都,中央区,銀座５丁目１２番１３号,,13,102,1040061,,,2025-01-31,合併による解散等,6011501005480,令和７年１月２４日東京都荒川区南千住五丁目２０番１１号伊藤工事株式会社（6011501005480）に合併し解散,2015-10-05,1,,,,,タルマエカイハツ,0
787,3430005005535,登記記録の閉鎖等,0,2025-02-04,2025-01-31,特定非営利活動法人ＪＢ協会,,その他の設立登記法人,北海道,北広島市,朝日町５丁目５番地１８,,01,234,0611123,,,2025-01-31,清算の結了等,,,2015-10-05,1,,,,,ジーバキョウカイ,0
789,3460102005699,登記記録の閉鎖等,0,2025-02-04,2025-01-31,有限会社北嶋商店,,有限会社,北海道,河東郡士幌町,字士幌西２線１６０番地,,01,632,0801219,,,2025-01-31,清算の結了等,,,2015-10-05,1,,,,,キタジマショウテン,0
792,3490002009236,登記記録の閉鎖等,0,2025-02-04,2025-01-31,大月ハイヤー有限会社,,有限会社,高知県,幡多郡大月町,大字弘見２０８８番地１,,39,424,7880302,,,2025-01-31,清算の結了等,,,2015-10-05,1,,,,,,0
794,3500002004821,登記記録の閉鎖等,0,2025-02-04,2025-02-03,有限会社富田商店,,有限会社,愛媛県,松山市,三番町８丁目２３５番地,,38,201,7900003,,,2025-02-03,清算の結了等,,,2015-10-05,1,,,,,トミタショウテン,0
807,4010003015841,登記記録の閉鎖等,0,2025-02-04,2025-01-24,合同会社ＢＲ１,,合同会社,東京都,千代田区,霞が関３丁目２番５号,,13,101,1000013,,,2025-01-24,清算の結了等,,,2015-10-05,1,,,,,ビーアールワン,0
825,4010605003913,登記記録の閉鎖等,0,2025-02-04,2025-01-08,ジーテン・ジャパン・ツー特定目的会社,,その他の設立登記法人,東京都,港区,虎ノ門３丁目２２番１０－２０１号,,13,103,1050001,,,2025-01-08,清算の結了等,,,2021-01-20,1,,,,,ジーテンジャパンツー,0
826,4010605004011,登記記録の閉鎖等,0,2025-02-04,2025-01-08,ジーテン・ジャパン・フォー特定目的会社,,その他の設立登記法人,東京都,港区,虎ノ門３丁目２２番１０－２０１号,,13,103,1050001,,,2025-01-08,清算の結了等,,,2021-10-29,1,,,,,ジーテンジャパンフォー,0
847,4011005003066,登記記録の閉鎖等,0,2025-02-04,2025-01-06,医療法人社団甲和会,,その他の設立登記法人,東京都,渋谷区,渋谷３丁目１１番２号渋谷パインビル１階,,13,113,1500002,,,2025-01-06,清算の結了等,,,2015-10-05,1,,,,,コウワカイ,0
849,4011101018884,登記記録の閉鎖等,0,2025-02-04,2025-01-23,株式会社プラスワン・ルネ国際研究所,,株式会社,東京都,新宿区,新宿２丁目２番１０－４０７号,,13,104,1600022,,,2025-01-23,清算の結了等,,,2015-10-05,1,,,,,プラスワンルネコクサイケンキュウジョ,0
859,4011102012589,登記記録の閉鎖等,0,2025-02-04,2025-01-23,有限会社三好計画事務所,,有限会社,東京都,新宿区,下宮比町２番２８号,,13,104,1620822,,,2025-01-23,清算の結了等,,,2015-10-05,1,,,,,ミヨシケイカクジムショ,0
861,4011103011400,登記記録の閉鎖等,0,2025-02-04,2024-12-25,ｈａｐｐｙ　ｈｏｕｒ合同会社,,合同会社,東京都,新宿区,若松町９番１４－１１０３号,,13,104,1620056,,,2024-12-25,清算の結了等,,,2022-01-28,1,,,,,ハッピーアワー,0
862,4011103011549,登記記録の閉鎖等,0,2025-02-04,2025-01-23,合同会社御真人,,合同会社,東京都,新宿区,高田馬場３丁目１番地３東栄ビル４Ｆ,,13,104,1690075,,,2025-01-23,清算の結了等,,,2022-03-09,1,,,,,ウマンチュ,0
874,4013101009095,登記記録の閉鎖等,0,2025-02-04,2025-01-31,瑞穂マシナリー株式会社,,株式会社,東京都,西多摩郡瑞穂町,大字長岡長谷部中平３７２番地２１,,13,303,1901231,,,2025-01-31,清算の結了等,,,2023-01-11,1,,,,,ミズホマシナリー,0
894,4040001029171,登記記録の閉鎖等,0,2025-02-04,2025-01-31,アイ・エム・テック株式会社,,株式会社,千葉県,浦安市,明海６番地１－１７０３,,12,227,2790014,,,2025-01-31,登記官による閉鎖,,,2015-10-05,1,,,,,,0
900,4040002013835,登記記録の閉鎖等,0,2025-02-04,2025-01-28,有限会社菊地組,,有限会社,千葉県,千葉市若葉区,源町５４９番地８,,12,104,2640037,,,2025-01-28,清算の結了等,,,2015-10-05,1,,,,,キクチグミ,0
903,4050002004024,登記記録の閉鎖等,0,2025-02-04,2025-01-28,有限会社竹の内商事,,有限会社,茨城県,水戸市,内原町１１９７番地,,08,201,3190315,,,2025-01-28,清算の結了等,,,2015-10-05,1,,,,,タケノウチショウジ,0
911,4080001017404,登記記録の閉鎖等,0,2025-02-04,2025-01-31,株式会社向田工業所,,株式会社,静岡県,藤枝市,岡部町岡部１８２６番１,,22,214,4211121,,,2025-01-31,清算の結了等,,,2015-10-05,1,,,,,ムカイダコウギョウショ,0
920,4100002037712,登記記録の閉鎖等,0,2025-02-04,2025-01-29,有限会社トリプルエー,,有限会社,長野県,飯田市,伝馬町１丁目４２番地,,20,205,3950016,,,2025-01-29,清算の結了等,,,2015-10-05,1,,,,,トリプルエー,0
941,4120101007515,登記記録の閉鎖等,0,2025-02-04,2025-01-23,マクシィエンジニアリング株式会社,,株式会社,大阪府,堺市北区,蔵前町１４９７番地の７９,,27,146,5918004,,,2025-01-23,登記官による閉鎖,,,2015-10-05,1,,,,,,0
951,4130001026713,登記記録の閉鎖等,0,2025-02-04,2025-01-31,株式会社コピーマートシステムズ,,株式会社,京都府,京都市下京区,中堂寺粟田町９３番地京都リサーチパークサイエンスセンタービル４号館,,26,106,6008815,,,2025-01-31,清算の結了等,,,2015-10-05,1,,,,,コピーマートシステムズ,0
954,4130001062700,登記記録の閉鎖等,0,2025-02-04,2025-02-03,ＢＩＧＡＮ株式会社,,株式会社,京都府,京都市下京区,朱雀宝蔵町４４番地協栄ビル２階京都朱雀スタジオ,,26,106,6008846,,,2025-02-03,清算の結了等,,,2018-08-06,1,,,,,,0
962,4140001033741,登記記録の閉鎖等,0,2025-02-04,2025-01-31,株式会社トクイク,,株式会社,大阪府,大阪市中央区,内平野町１丁目３番６号,,27,128,5400037,,,2025-01-31,清算の結了等,,,2015-10-05,1,,,,,トクイク,0
963,4140001041760,登記記録の閉鎖等,0,2025-02-04,2025-01-29,株式会社タニグチ,,株式会社,兵庫県,丹波篠山市,今田町下立杭５８９番地１,,28,221,6692141,,,2025-01-29,清算の結了等,,,2015-10-05,1,,,,,タニグチ,0
968,4170001003568,登記記録の閉鎖等,0,2025-02-04,2025-02-03,株式会社ルーム建築設計,,株式会社,和歌山県,和歌山市,上野２９１番地の３,,30,201,6496316,,,2025-02-03,清算の結了等,,,2015-10-05,1,,,,,ルームケンチクセッケイ,0
979,4190001017616,登記記録の閉鎖等,0,2025-02-04,2025-02-03,株式会社イーエスサービス,,株式会社,三重県,四日市市,高見台２丁目７番地の６,,24,202,5121301,,,2025-02-03,清算の結了等,,,2015-10-05,1,,,,,イーエスサービス,0
981,4190003002517,登記記録の閉鎖等,0,2025-02-04,2025-01-31,合同会社きらら,,合同会社,三重県,熊野市,井戸町５９４番地の４,,24,212,5194324,,,2025-01-31,清算の結了等,,,2016-05-23,1,,,,,キララ,0
984,4190005009782,登記記録の閉鎖等,0,2025-02-04,2025-01-31,特定非営利活動法人おとのわ,,その他の設立登記法人,三重県,四日市市,安島２丁目３番地３２,,24,202,5100075,,,2025-01-31,清算の結了等,,,2015-10-05,1,,,,,オトノワ,0
988,4220001016077,登記記録の閉鎖等,0,2025-02-04,2025-01-27,中田建設株式会社,,株式会社,石川県,羽咋市,大川町ク３７番地,,17,207,9250015,,,2025-01-27,清算の結了等,,,2015-10-05,1,,,,,ナカタケンセツ,0
992,4240002034877,登記記録の閉鎖等,0,2025-02-04,2025-01-31,ササキシェル有限会社,,有限会社,広島県,呉市,倉橋町１５０１３番地,,34,202,7371377,,,2025-01-31,清算の結了等,,,2015-10-05,1,,,,,,0
1007,4290002020179,登記記録の閉鎖等,0,2025-02-04,2025-01-16,有限会社今井製作所,,有限会社,福岡県,福岡市博多区,吉塚４丁目９番３４号,,40,132,8120041,,,2025-01-16,清算の結了等,,,2015-10-05,1,,,,,イマイセイサクショ,0
1009,4290003002060,登記記録の閉鎖等,0,2025-02-04,2025-01-16,合資会社武井薬局,,合資会社,福岡県,朝倉市,甘木１７４５番地,,40,228,8380068,,,2025-01-16,清算の結了等,,,2015-10-05,1,,,,,タケイヤッキョク,0
1020,4320005007830,登記記録の閉鎖等,0,2025-02-04,2025-01-30,中津市日の出町商店街振興組合,,その他の設立登記法人,大分県,中津市,大字島田３６３番地の２６,,44,203,8710033,,,2025-01-30,清算の結了等,,,2015-10-05,1,,,,,ナカツシヒノデマチ,0
1034,4370001001510,登記記録の閉鎖等,0,2025-02-04,2025-01-22,イーグル電気工事株式会社,,株式会社,宮城県,仙台市太白区,中田町字新田２３番地の１,,04,104,9811103,,,2025-01-22,登記官による閉鎖,,,2015-10-05,1,,,,,,0
1035,4370001005734,登記記録の閉鎖等,0,2025-02-04,2025-01-22,東海企業株式会社,,株式会社,宮城県,仙台市宮城野区,中野字高柳１８番１,,04,102,9830013,,,2025-01-22,登記官による閉鎖,,,2015-10-05,1,,,,,,0
1036,4370001011872,登記記録の閉鎖等,0,2025-02-04,2025-01-22,トップコーポレーション株式会社,,株式会社,宮城県,仙台市泉区,上谷刈字長左衛門下１１番地の１,,04,105,9813121,,,2025-01-22,登記官による閉鎖,,,2015-10-05,1,,,,,,0
1038,4370001021293,登記記録の閉鎖等,0,2025-02-04,2025-01-29,ＴＡＣ株式会社,,株式会社,宮城県,仙台市泉区,松陵４丁目３８番地の５,,04,105,9813108,,,2025-01-29,清算の結了等,,,2015-10-05,1,,,,,,0
1041,4370301000732,登記記録の閉鎖等,0,2025-02-04,2025-01-22,株式会社翔エンタープライズ,,株式会社,宮城県,石巻市,湊字上野８番地,,04,202,9860011,,,2025-01-22,登記官による閉鎖,,,2015-10-05,1,,,,,,0
1042,4370305000786,登記記録の閉鎖等,0,2025-02-04,2025-01-29,特定非営利活動法人石巻フィルムコミッション,,その他の設立登記法人,宮城県,石巻市,開成１番地２０,,04,202,9860032,,,2025-01-29,清算の結了等,,,2015-10-05,1,,,,,イシノマキフィルムコミッション,0
1043,4380001004999,登記記録の閉鎖等,0,2025-02-04,2025-01-21,株式会社グリーンワールド,,株式会社,福島県,郡山市,富田町字諏訪前３３番地の１,,07,203,9638041,,,2025-01-21,登記官による閉鎖,,,2015-10-05,1,,,,,,0
1044,4380001011467,登記記録の閉鎖等,0,2025-02-04,2025-01-21,菊島温泉株式会社,,株式会社,福島県,岩瀬郡鏡石町,大字久来石字南町４７０番地１,,07,342,9690403,,,2025-01-21,登記官による閉鎖,,,2015-10-05,1,,,,,,0
1045,4380001011500,登記記録の閉鎖等,0,2025-02-04,2025-01-21,株式会社ニコー医療東北,,株式会社,福島県,岩瀬郡鏡石町,大字笠石字東町１８４番地,,07,342,9690404,,,2025-01-21,登記官による閉鎖,,,2015-10-05,1,,,,,,0
1070,5010001050765,登記記録の閉鎖等,0,2025-02-04,2025-01-10,株式会社デーコム,,株式会社,東京都,中央区,銀座６丁目１７番１号,,13,102,1040061,,,2025-01-10,合併による解散等,7010001146074,令和７年１月１日東京都千代田区丸の内一丁目８番３号株式会社アウトソーシングテクノロジー（7010001146074）に合併し解散,2015-10-05,1,,,,,デーコム,0
1072,5010001159193,登記記録の閉鎖等,0,2025-02-04,2025-01-22,株式会社コードフラグメント,,株式会社,東京都,千代田区,丸の内１丁目１１番１号,,13,101,1000005,,,2025-01-22,清算の結了等,,,2015-10-05,1,,,,,コードフラグメント,0
1073,5010001160886,登記記録の閉鎖等,0,2025-02-04,2025-01-16,株式会社Ｔｒｉｐ．ｃｏｍ　Ｊａｐａｎ,,株式会社,東京都,千代田区,大手町２丁目６番４号ＴＯＫＹＯＴＯＲＣＨ常盤橋タワー２４Ｆ,,13,101,1000004,,,2025-01-16,合併による解散等,9120001202987,令和７年１月１日東京都千代田区大手町二丁目６番４号ＴＯＫＹＯＴＯＲＣＨ常盤橋タワー２４Ｆ株式会社Ｔｒｉｐ．ｃｏｍ　Ｉｎｔｅｒｎａｔｉｏｎａｌ　Ｔｒａｖｅｌ　Ｊａｐａｎ（9120001202987）に合併し解散,2015-10-05,1,,,,,トリップドットコムジャパン,0
1076,5010001242008,登記記録の閉鎖等,0,2025-02-04,2025-01-22,麗耳科技株式会社,,株式会社,東京都,文京区,千石４丁目１４番９号１階アルファ内,,13,105,1120011,,,2025-01-22,清算の結了等,,,2024-02-06,1,,,,,イアーファンテクノロジー,0
1084,5010401123880,登記記録の閉鎖等,0,2025-02-04,2025-01-10,株式会社スマートロボティクス,,株式会社,東京都,千代田区,東神田２丁目４番６号,,13,101,1010031,,,2025-01-10,合併による解散等,7010001146074,令和７年１月１日東京都千代田区丸の内一丁目８番３号株式会社アウトソーシングテクノロジー（7010001146074）に合併し解散,2016-03-23,1,,,,,スマートロボティクス,0
1111,5011002004537,登記記録の閉鎖等,0,2025-02-04,2025-01-15,有限会社雅子ミュージックエンタープライズ,,有限会社,福岡県,福岡市中央区,平尾浄水町４番７－４０４号,,40,133,8100029,,,2025-01-15,清算の結了等,,,2015-10-05,1,,,,,マサコミュージックエンタープライズ,0
1122,5011103010483,登記記録の閉鎖等,0,2025-02-04,2025-01-28,ＥＲＧ　Ｊａｐａｎ合同会社,,合同会社,東京都,新宿区,西新宿１丁目２６番２号,,13,104,1600023,,,2025-01-28,清算の結了等,,,2021-03-22,1,,,,,イーアールジージャーパン,0
1123,5011103013684,登記記録の閉鎖等,0,2025-02-04,2025-01-24,Ｍブリッジ合同会社,,合同会社,東京都,新宿区,四谷２丁目９番地１５東京ユナイテッド綜合事務所内,,13,104,1600004,,,2025-01-24,清算の結了等,,,2023-11-06,1,,,,,エムブリッジ,0
1135,5011801005470,登記記録の閉鎖等,0,2025-02-04,2025-01-24,アークインターナショナル株式会社,,株式会社,東京都,足立区,東伊興町３８番地の１３,,13,121,1210805,,,2025-01-24,登記官による閉鎖,,,2015-10-05,1,,,,,,0
1148,5020001047298,登記記録の閉鎖等,0,2025-02-04,2025-01-16,株式会社アイ・コミューズ,,株式会社,神奈川県,横浜市緑区,白山２丁目９番１７号,,14,113,2260006,,,2025-01-16,清算の結了等,,,2015-10-05,1,,,,,アイコミューズ,0
1172,5040001005510,登記記録の閉鎖等,0,2025-02-04,2025-01-31,株式会社トモ設計,,株式会社,千葉県,千葉市若葉区,桜木町６６０番地７,,12,104,2640022,,,2025-01-31,登記官による閉鎖,,,2015-10-05,1,,,,,,0
1173,5040001007366,登記記録の閉鎖等,0,2025-02-04,2025-01-31,都設備工業株式会社,,株式会社,千葉県,千葉市中央区,蘇我町１丁目４３８番地,,12,101,2600822,,,2025-01-31,登記官による閉鎖,,,2015-10-05,1,,,,,,0
1176,5040001085081,登記記録の閉鎖等,0,2025-02-04,2025-01-06,ｍｏｎｏｃｌａ株式会社,,株式会社,東京都,渋谷区,渋谷３丁目１０番１９号渋谷ＭＪ－ＩＩビル６階,00116262,13,113,1500002,,,2025-01-06,合併による解散等,4011003009569,令和６年１２月３１日東京都渋谷区渋谷三丁目１０番１９号渋谷ＭＪ－ＩＩビル６階Ｍａｎｄａｒｉｎ　Ｏｒａｎｇｅ合同会社（4011003009569）に合併し解散,2015-10-05,1,,,,,モノクラ,0
1184,5050001031530,登記記録の閉鎖等,0,2025-02-04,2025-01-28,株式会社田口事務所,,株式会社,茨城県,筑西市,下野殿７４９番地,,08,227,3080844,,,2025-01-28,清算の結了等,,,2015-10-05,1,,,,,,0
1187,5050002001821,登記記録の閉鎖等,0,2025-02-04,2025-01-27,有限会社ステージライン,,有限会社,茨城県,水戸市,東赤塚２２４番地の１６,,08,201,3114142,,,2025-01-27,清算の結了等,,,2015-10-05,1,,,,,ステージライン,0
1191,5090001003179,登記記録の閉鎖等,0,2025-02-04,2025-01-30,株式会社ハーティークリーニング,,株式会社,山梨県,中巨摩郡昭和町,清水新居１４４番地の１,,19,384,4093867,,,2025-01-30,清算の結了等,,,2015-10-05,1,,,,,ハーティークリーニング,0
1193,5100001015949,登記記録の閉鎖等,0,2025-02-04,2025-01-27,株式会社ウィズケーズ,,株式会社,長野県,松本市,大字和田２２３７番地８,,20,202,3901242,,,2025-01-27,清算の結了等,,,2015-10-05,1,,,,,ウィズケーズ,0
1198,5120001080009,登記記録の閉鎖等,0,2025-02-04,2025-01-30,サンアルファー株式会社,,株式会社,大阪府,大阪市中央区,淡路町１丁目６番９号堺筋サテライトビル,,27,128,5410047,,,2025-01-30,清算の結了等,,,2015-10-05,1,,,,,,0
1202,5120001197372,登記記録の閉鎖等,0,2025-02-04,2025-01-29,株式会社エルズセレクト,,株式会社,大阪府,大阪市中央区,上本町西５丁目３番９号,,27,128,5420062,,,2025-01-29,清算の結了等,,,2016-04-15,1,,,,,エルズセレクト,0
1207,5120001257829,登記記録の閉鎖等,0,2025-02-04,2025-01-30,ＩＷＡＫＩ‐ＴＥＣＨ株式会社,,株式会社,大阪府,枚方市,楠葉並木２丁目３０番１０－３０８号,,27,210,5731118,,,2025-01-30,清算の結了等,,,2023-09-07,1,,,,,イワキテック,0
1223,5120905005069,登記記録の閉鎖等,0,2025-02-04,2025-01-22,ＮＰＯ法人中高年のわくわく向上委員会,,その他の設立登記法人,大阪府,吹田市,山田西３丁目５２番Ｂ－９０６号,,27,205,5650824,,,2025-01-22,清算の結了等,,,2015-10-05,1,,,,,チュウコウネンノワクワクコウジョウイインカイ,0
1244,5180001107251,登記記録の閉鎖等,0,2025-02-04,2025-01-29,株式会社メディカルネットワーク,,株式会社,愛知県,東海市,名和町馬坂１１番地４,,23,222,4760002,,,2025-01-29,清算の結了等,,,2015-10-05,1,,,,,メディカルネットワーク,0
1248,5180001156471,登記記録の閉鎖等,0,2025-02-04,2025-01-29,株式会社りくとそら,,株式会社,愛知県,名古屋市中村区,中村本町２丁目２４番地の１,,23,105,4530828,,,2025-01-29,清算の結了等,,,2023-05-26,1,,,,,リクトソラ,0
1251,5180001164441,登記記録の閉鎖等,0,2025-02-04,2025-01-31,愛和土地株式会社,,株式会社,愛知県,名古屋市中区,錦２丁目１２番２４号,,23,106,4600003,,,2025-01-31,清算の結了等,,,2024-12-09,1,,,,,アイワトチ,0
1254,5180002088136,登記記録の閉鎖等,0,2025-02-04,2025-01-29,有限会社若松屋酒店,,有限会社,愛知県,東海市,名和町一番割上８番地の１,,23,222,4760002,,,2025-01-29,清算の結了等,,,2015-10-05,1,,,,,ワカマツヤサケテン,0
1284,5290003001111,登記記録の閉鎖等,0,2025-02-04,2025-01-17,ディスティラリー合同会社,,合同会社,福岡県,福岡市南区,玉川町３－２５－８０５,,40,134,8150037,,,2025-01-17,清算の結了等,,,2015-10-05,1,,,,,ディスティラリー,0
1294,5340002008507,登記記録の閉鎖等,0,2025-02-04,2025-02-03,有限会社プランニング・オフイス,,有限会社,鹿児島県,鹿児島市,三和町２３番１号,,46,201,8900071,,,2025-02-03,清算の結了等,,,2015-10-05,1,,,,,プランニングオフイス,0
1297,5370001002490,登記記録の閉鎖等,0,2025-02-04,2025-01-22,株式会社日本ハーブテクノ,,株式会社,宮城県,仙台市太白区,大野田字袋東４６番地の１２,,04,104,9820014,,,2025-01-22,登記官による閉鎖,,,2015-10-05,1,,,,,,0
1305,5390001011234,登記記録の閉鎖等,0,2025-02-04,2025-01-30,オンリーワン株式会社,,株式会社,山形県,西置賜郡白鷹町,大字鮎貝３２５８番地,,06,402,9920771,,,2025-01-30,清算の結了等,,,2015-10-05,1,,,,,オンリーワン,0
1310,5430001005149,登記記録の閉鎖等,0,2025-02-04,2025-02-03,株式会社クライメックス,,株式会社,北海道,札幌市中央区,南三条西８丁目７番地,,01,101,0600063,,,2025-02-03,清算の結了等,,,2015-10-05,1,,,,,クライメックス,0
1324,5470003001794,登記記録の閉鎖等,0,2025-02-04,2025-01-31,合同会社吉村工業,,合同会社,香川県,丸亀市,山北町３８０番地２,,37,202,7630072,,,2025-01-31,清算の結了等,,,2020-07-03,1,,,,,ヨシムラコウギョウ,0
1353,6011001012556,登記記録の閉鎖等,0,2025-02-04,2025-01-24,株式会社セフテイ,,株式会社,東京都,目黒区,碑文谷３丁目１９番８号ＮＣビル７階,,13,110,1520003,,,2025-01-24,清算の結了等,,,2015-10-05,1,,,,,セフテイ,0
1355,6011001112918,登記記録の閉鎖等,0,2025-02-04,2025-01-08,株式会社Ａｉｎｅｒ,,株式会社,東京都,港区,南青山５丁目４－５１シャトー青山第一５０１号,,13,103,1070062,,,2025-01-08,清算の結了等,,,2016-09-29,1,,,,,エイナー,0
1361,6011002011755,登記記録の閉鎖等,0,2025-02-04,2025-01-08,有限会社まつや薬局,,有限会社,東京都,渋谷区,千駄ヶ谷１丁目１３番９号,,13,113,1510051,,,2025-01-08,清算の結了等,,,2015-10-05,1,,,,,マツヤヤッキョク,0
1388,6021001050712,登記記録の閉鎖等,0,2025-02-04,2025-02-03,株式会社新陽建設,,株式会社,神奈川県,横須賀市,佐島の丘２丁目８番２２号,,14,201,2400108,,,2025-02-03,清算の結了等,,,2015-10-05,1,,,,,シンヨウケンセツ,0
1403,6030002026142,登記記録の閉鎖等,0,2025-02-04,2025-01-31,有限会社銅定金子金物店,,有限会社,埼玉県,蕨市,中央４丁目１１番１９号,,11,223,3350004,,,2025-01-31,清算の結了等,,,2015-10-05,1,,,,,ドウサダカネコカナモノテン,0
1414,6040002099724,登記記録の閉鎖等,0,2025-02-04,2025-01-27,有限会社半沢エンジニアリング,,有限会社,千葉県,館山市,那古１２６４番地の５,,12,205,2940055,,,2025-01-27,清算の結了等,,,2015-10-05,1,,,,,ハンザワエンジニアリング,0
1434,6120001221379,登記記録の閉鎖等,0,2025-02-04,2025-01-30,株式会社章榮水産,,株式会社,大阪府,枚方市,宗谷２丁目１５番２２号,,27,210,5730113,,,2025-01-30,清算の結了等,,,2019-06-05,1,,,,,ショウエイスイサン,0
1449,6120101004436,登記記録の閉鎖等,0,2025-02-04,2025-01-23,株式会社テイク,,株式会社,大阪府,堺市北区,船堂町２０４番５号,,27,146,5918003,,,2025-01-23,登記官による閉鎖,,,2015-10-05,1,,,,,,0
1451,6120102005020,登記記録の閉鎖等,0,2025-02-04,2025-01-30,有限会社ユニコ,,有限会社,大阪府,堺市堺区,櫛屋町東３丁１番２３号,00032758,27,141,5900944,,,2025-01-30,清算の結了等,,,2015-10-05,1,,,,,ユニコ,0
1454,6120905001380,登記記録の閉鎖等,0,2025-02-04,2025-01-24,千里北センター専門店協同組合,,その他の設立登記法人,大阪府,吹田市,古江台４丁目２番２５－２０１,,27,205,5650874,,,2025-01-24,清算の結了等,,,2015-10-05,1,,,,,センリキタセンターセンモンテン,0
1455,6122001028283,登記記録の閉鎖等,0,2025-02-04,2025-01-27,ケイアイ産業株式会社,,株式会社,大阪府,東大阪市,善根寺町２丁目５番１２号,,27,227,5798001,,,2025-01-27,清算の結了等,,,2015-10-05,1,,,,,ケイアイサンギョウ,0
1457,6130001000971,登記記録の閉鎖等,0,2025-02-04,2025-02-03,株式会社ジュテーム,,株式会社,京都府,京都市右京区,嵯峨北堀町２７番地３,,26,108,6168367,,,2025-02-03,清算の結了等,,,2015-10-05,1,,,,,ジュテーム,0
1466,6140001021380,登記記録の閉鎖等,0,2025-02-04,2025-01-14,株式会社ナッツ環境デザインネットワーク,,株式会社,兵庫県,神戸市東灘区,御影中町３丁目２番４号,,28,101,6580054,,,2025-01-14,清算の結了等,,,2015-10-05,1,,,,,ナッツカンキョウデザインネットワーク,0
1467,6140001095251,登記記録の閉鎖等,0,2025-02-04,2025-01-29,株式会社ピース,,株式会社,兵庫県,神戸市中央区,港島中町３丁目１番地ポートアイランド住宅４７号棟１４０６号室,,28,110,6500046,,,2025-01-29,清算の結了等,,,2015-10-05,1,,,,,ピース,0
1478,6180001039493,登記記録の閉鎖等,0,2025-02-04,2025-01-24,株式会社西田米穀店,,株式会社,愛知県,名古屋市中区,正木３丁目１２番８号,,23,106,4600024,,,2025-01-24,清算の結了等,,,2015-10-05,1,,,,,ニシダベイコクテン,0
1479,6180001132612,登記記録の閉鎖等,0,2025-02-04,2025-01-28,株式会社田島蓮園,,株式会社,愛知県,愛西市,小茂井町池渕３７番地,,23,232,4960944,,,2025-01-28,清算の結了等,,,2018-06-11,1,,,,,タジマハスエン,0
1485,6180002061694,登記記録の閉鎖等,0,2025-02-04,2025-01-28,有限会社浅田塗装,,有限会社,愛知県,日進市,浅田平子１丁目２８３番地,,23,230,4700128,,,2025-01-28,清算の結了等,,,2015-10-05,1,,,,,アサダトソウ,0
1487,6180303005177,登記記録の閉鎖等,0,2025-02-04,2025-01-31,ＳａａＳＥＯ合同会社,,合同会社,愛知県,岡崎市,真伝２丁目７番地１,,23,202,4443175,,,2025-01-31,清算の結了等,,,2021-12-24,1,,,,,サーエスイーオー,0
1491,6200001024567,登記記録の閉鎖等,0,2025-02-04,2025-01-31,株式会社ＧＥＮＩＵＳ　ＰＡＲＴＹ,,株式会社,大阪府,大阪市中央区,内平野町１丁目３番６号,,27,128,5400037,,,2025-01-31,清算の結了等,,,2015-10-05,1,,,,,ジーニアスパーティー,0
1503,6250002014034,登記記録の閉鎖等,0,2025-02-04,2025-01-31,有限会社福永メディカル・サービス,,有限会社,山口県,長門市,日置中２４９０番地,,35,211,7594402,,,2025-01-31,清算の結了等,,,2015-10-05,1,,,,,フクナガメディカルサービス,0
1506,6260002028776,登記記録の閉鎖等,0,2025-02-04,2025-01-31,有限会社田端建設,,有限会社,岡山県,津山市,加茂町公郷３０９番地,,33,203,7093921,,,2025-01-31,清算の結了等,,,2015-10-05,1,,,,,タバタケンセツ,0
1508,6270001003465,登記記録の閉鎖等,0,2025-02-04,2025-01-30,ニチラスワークス株式会社,,株式会社,鳥取県,米子市,富益町５３番地２,,31,202,6830103,,,2025-01-30,清算の結了等,,,2015-10-05,1,,,,,ニチラスワークス,0
1527,6370001002333,登記記録の閉鎖等,0,2025-02-04,2025-01-22,株式会社吉田ウインド商会,,株式会社,宮城県,仙台市太白区,中田町字中首長１０６番地の７,,04,104,9811103,,,2025-01-22,登記官による閉鎖,,,2015-10-05,1,,,,,,0
1528,6370001004668,登記記録の閉鎖等,0,2025-02-04,2025-01-22,伊藤・田村商工株式会社,,株式会社,宮城県,仙台市太白区,袋原字南中江５番地の１２,,04,104,9811102,,,2025-01-22,登記官による閉鎖,,,2015-10-05,1,,,,,,0
1532,6370002007158,登記記録の閉鎖等,0,2025-02-04,2025-01-22,有限会社キクタ物産,,有限会社,宮城県,仙台市宮城野区,中野字葦畔１８２番地,,04,102,9830013,,,2025-01-22,登記官による閉鎖,,,2015-10-05,1,,,,,,0
1538,6370302001281,登記記録の閉鎖等,0,2025-02-04,2025-01-23,有限会社シセイ,,有限会社,宮城県,牡鹿郡女川町,鷲神浜字堀切２１番地３８,,04,581,9862243,,,2025-01-23,合併による解散等,2370301002846,令和７年１月２３日宮城県牡鹿郡女川町鷲神浜字堀切２１番地３８株式会社丸傳（2370301002846）に合併し解散,2015-10-05,1,,,,,シセイ,0
1539,6370302003286,登記記録の閉鎖等,0,2025-02-04,2025-01-28,有限会社マルテ,,有限会社,宮城県,石巻市,中里３丁目４番３８号,,04,202,9860815,,,2025-01-28,清算の結了等,,,2015-10-05,1,,,,,マルテ,0
1541,6380002029135,登記記録の閉鎖等,0,2025-02-04,2025-01-31,有限会社モントクレス,,有限会社,宮城県,仙台市青葉区,土樋１丁目１０番６－２０３号,,04,101,9800065,,,2025-01-31,清算の結了等,,,2015-10-05,1,,,,,モントクレス,0
1545,6460101004773,登記記録の閉鎖等,0,2025-02-04,2025-01-31,株式会社ウィズライフ,,株式会社,北海道,河東郡音更町,木野西通１５丁目１番地１３,,01,631,0800302,,,2025-01-31,清算の結了等,,,2015-10-05,1,,,,,ウィズライフ,0
1555,7010001215481,登記記録の閉鎖等,0,2025-02-04,2025-01-22,株式会社どこでもライブ,,株式会社,東京都,中央区,新川１丁目３番３号,,13,102,1040033,,,2025-01-22,清算の結了等,,,2021-02-01,1,,,,,ドコデモライブ,0
1556,7010001225489,登記記録の閉鎖等,0,2025-02-04,2024-12-26,Ｒａｉｓｅｏｎｅ株式会社,,株式会社,東京都,千代田区,神田佐久間町１丁目８番４号アルテール秋葉原７０８,,13,101,1010025,,,2024-12-26,清算の結了等,,,2022-03-25,1,,,,,レイズワン,0
1575,7010601063116,登記記録の閉鎖等,0,2025-02-04,2025-01-31,株式会社ｅｒａｂｌｅ,,株式会社,東京都,墨田区,菊川３丁目２１番１１号レジデンス須賀菊川３０４号室,,13,107,1300024,,,2025-01-31,清算の結了等,,,2023-05-17,1,,,,,エラブル,0
1578,7010605003794,登記記録の閉鎖等,0,2025-02-04,2025-01-08,ジーナイン・ジャパン・セブン特定目的会社,,その他の設立登記法人,東京都,港区,虎ノ門３丁目２２番１０－２０１号,,13,103,1050001,,,2025-01-08,清算の結了等,,,2020-02-17,1,,,,,ジーナインジャパンセブン,0
1579,7010801030196,登記記録の閉鎖等,0,2025-02-04,2025-01-24,株式会社エスティーム,,株式会社,東京都,大田区,大森北４丁目７－１５メルシィ城南,,13,111,1430016,,,2025-01-24,清算の結了等,,,2019-09-12,1,,,,,エスティーム,0
1608,7012402011996,登記記録の閉鎖等,0,2025-02-04,2025-02-03,有限会社ナイス商事,,有限会社,東京都,調布市,上石原２丁目２３番地２１,,13,208,1820035,,,2025-02-03,清算の結了等,,,2015-10-05,1,,,,,ナイスショウジ,0
1611,7013102000397,登記記録の閉鎖等,0,2025-02-04,2025-01-31,有限会社シダ電子,,有限会社,東京都,福生市,南田園３丁目１８番地１５エスパシオ１Ｆ,,13,218,1970004,,,2025-01-31,清算の結了等,,,2015-10-05,1,,,,,シダデンシ,0
1612,7013401002061,登記記録の閉鎖等,0,2025-02-04,2025-01-24,羽高集機株式会社,,株式会社,東京都,稲城市,平尾１２４８番地,,13,225,2060823,,,2025-01-24,登記官による閉鎖,,,2015-10-05,1,,,,,,0
1631,7030005020158,登記記録の閉鎖等,0,2025-02-04,2025-01-30,一般社団法人不動産問題解決相談室,,その他の設立登記法人,埼玉県,さいたま市西区,大字指扇１５２６番地１,,11,101,3310047,,,2025-01-30,清算の結了等,,,2020-11-18,1,,,,,フドウサンモンダイカイケツソウダンシツ,0
1637,7050001008832,登記記録の閉鎖等,0,2025-02-04,2025-01-31,リアル株式会社,,株式会社,大阪府,大阪市中央区,内平野町１丁目３番６号,,27,128,5400037,,,2025-01-31,清算の結了等,,,2015-10-05,1,,,,,リアル,0
1652,7100002005195,登記記録の閉鎖等,0,2025-02-04,2025-01-24,有限会社村井製本所,,有限会社,長野県,長野市,大字長野桜枝町８６５番地,,20,201,3800862,,,2025-01-24,清算の結了等,,,2015-10-05,1,,,,,ムライセイホンジョ,0
1653,7110001036100,登記記録の閉鎖等,0,2025-02-04,2025-01-31,株式会社ＵＲＵＭＡ建築設計事務所,,株式会社,新潟県,上越市,春日野２丁目３番８号,,15,222,9430803,,,2025-01-31,清算の結了等,,,2021-10-12,1,,,,,ウルマケンチクセッケイジムショ,0
1672,7120101001787,登記記録の閉鎖等,0,2025-02-04,2025-01-23,北野石油株式会社,,株式会社,大阪府,堺市北区,蔵前町１２２７番地の１,,27,146,5918004,,,2025-01-23,登記官による閉鎖,,,2015-10-05,1,,,,,,0
1677,7120901006119,登記記録の閉鎖等,0,2025-02-04,2025-01-24,木下運送株式会社,,株式会社,大阪府,吹田市,南吹田５丁目２０番７号,,27,205,5640043,,,2025-01-24,清算の結了等,,,2015-10-05,1,,,,,キノシタウンソウ,0
1682,7122001018184,登記記録の閉鎖等,0,2025-02-04,2025-01-27,河内屋商事株式会社,,株式会社,大阪府,八尾市,松山町１丁目４番２６号,,27,212,5810088,,,2025-01-27,清算の結了等,,,2015-10-05,1,,,,,カワチヤショウジ,0
1687,7130002009251,登記記録の閉鎖等,0,2025-02-04,2025-01-31,有限会社ふじはら,,有限会社,京都府,京都市西京区,樫原井戸１７番地６,,26,111,6158133,,,2025-01-31,清算の結了等,,,2015-10-05,1,,,,,フジワラ,0
1688,7140001068875,登記記録の閉鎖等,0,2025-02-04,2025-01-29,株式会社三省設計事務所,,株式会社,兵庫県,西宮市,大谷町１１番６号,,28,204,6620054,,,2025-01-29,清算の結了等,,,2015-10-05,1,,,,,サンセイセッケイジムショ,0
1723,7240002039642,登記記録の閉鎖等,0,2025-02-04,2025-01-30,有限会社エヌズカンパニー,,有限会社,広島県,福山市,手城町４丁目１０番２８－５号,,34,207,7210966,,,2025-01-30,清算の結了等,,,2024-11-22,1,,,,,エヌズカンパニー,0
1725,7240002047959,登記記録の閉鎖等,0,2025-02-04,2025-02-03,有限会社キャリーサービス,,有限会社,広島県,安芸郡坂町,北新地４丁目４番８号,,34,309,7314311,,,2025-02-03,清算の結了等,,,2015-10-05,1,,,,,キャリーサービス,0
1734,7280002008742,登記記録の閉鎖等,0,2025-02-04,2025-02-03,有限会社横敏商事,,有限会社,島根県,浜田市,殿町１３番地１,,32,202,6970027,,,2025-02-03,清算の結了等,,,2015-10-05,1,,,,,ヨコトシショウジ,0
1755,7310002001925,登記記録の閉鎖等,0,2025-02-04,2025-02-03,有限会社サンエス,,有限会社,長崎県,長崎市,高城台１丁目１９番２６号,,42,201,8510137,,,2025-02-03,清算の結了等,,,2015-10-05,1,,,,,サンエス,0
1763,7330003008752,登記記録の閉鎖等,0,2025-02-04,2025-01-29,合同会社プライムエンターテイメント,,合同会社,熊本県,熊本市中央区,中央街７番２号ギンザスカイビル５Ｆ,,43,101,8600802,,,2025-01-29,清算の結了等,,,2021-02-04,1,,,,,プライムエンターテイメント,0
1771,7350002004560,登記記録の閉鎖等,0,2025-02-04,2025-01-31,有限会社三法産業,,有限会社,宮崎県,宮崎市,和知川原１丁目２４番地,,45,201,8800023,,,2025-01-31,清算の結了等,,,2015-10-05,1,,,,,ミノリサンギョウ,0
1774,7370001043789,登記記録の閉鎖等,0,2025-02-04,2025-01-30,ＯＡＣサービス株式会社,,株式会社,宮城県,宮城郡利府町,菅谷台１丁目２２番地８,,04,406,9810135,,,2025-01-30,清算の結了等,,,2018-12-05,1,,,,,オーエーシーサービス,0
1777,7370301000688,登記記録の閉鎖等,0,2025-02-04,2025-01-22,杉田建設株式会社,,株式会社,宮城県,石巻市,門脇字築山２６番地の２０,,04,202,9860853,,,2025-01-22,登記官による閉鎖,,,2015-10-05,1,,,,,,0
1778,7380001006489,登記記録の閉鎖等,0,2025-02-04,2025-01-21,福島三和空圧株式会社,,株式会社,福島県,郡山市,富久山町八山田字寺向１３番地１,,07,203,9638051,,,2025-01-21,登記官による閉鎖,,,2015-10-05,1,,,,,,0
1779,7380001007041,登記記録の閉鎖等,0,2025-02-04,2025-01-21,東匠建設株式会社,,株式会社,福島県,郡山市,富田町字天神南１番地１４,,07,203,9638041,,,2025-01-21,登記官による閉鎖,,,2015-10-05,1,,,,,,0
1781,7380001017916,登記記録の閉鎖等,0,2025-02-04,2025-01-21,株式会社弥島電設,,株式会社,福島県,会津若松市,門田町大字飯寺字村東１００１番地７８,,07,202,9650846,,,2025-01-21,登記官による閉鎖,,,2015-10-05,1,,,,,,0
1786,7410001002047,登記記録の閉鎖等,0,2025-02-04,2025-01-30,株式会社新田商店,,株式会社,秋田県,秋田市,泉字金ノ町７３番地,,05,201,0100816,,,2025-01-30,登記官による閉鎖,,,2015-10-05,1,,,,,,0
1815,8010401085672,登記記録の閉鎖等,0,2025-02-04,2025-01-08,株式会社ル・コルボオ・エ・フィス,,株式会社,東京都,港区,芝浦３丁目１２番３号,,13,103,1080023,,,2025-01-08,清算の結了等,,,2015-10-05,1,,,,,,0
1816,8010401118911,登記記録の閉鎖等,0,2025-02-04,2025-01-09,ＴＲＩＰＬＥ　ＷＩＮ　ＳＴＲＡＴＥＧＩＥＳ株式会社,,株式会社,東京都,港区,虎ノ門４丁目１番１号,,13,103,1050001,,,2025-01-09,合併による解散等,3010401068418,令和７年１月１日東京都港区虎ノ門四丁目１番１号ＩＮＣＬＵＳＩＶＥ株式会社（3010401068418）に合併し解散,2015-10-05,1,,,,,トリプルウィンストラテジーズ,0
1826,8010605003711,登記記録の閉鎖等,0,2025-02-04,2025-01-08,ジーナイン・ジャパン・エイト特定目的会社,,その他の設立登記法人,東京都,港区,虎ノ門３丁目２２番１０－２０１号,,13,103,1050001,,,2025-01-08,清算の結了等,,,2019-06-18,1,,,,,ジーナインジャパンエイト,0
1836,8011001136725,登記記録の閉鎖等,0,2025-02-04,2025-01-29,株式会社くいしんぼう,,株式会社,東京都,新宿区,西早稲田２丁目５番１３号ＨＪ・ＰＬＡＣＥ・ＮＩＳＨＩＷＡＳＥＤＡ２０３－１号室,,13,104,1690051,,,2025-01-29,合併による解散等,8160001022318,令和７年１月２１日東京都港区六本木三丁目４－２コープ野村六本木１－３０５号室株式会社ブレイン（8160001022318）に合併し解散,2020-11-05,1,,,,,クイシンボウ,0
1849,8011401001603,登記記録の閉鎖等,0,2025-02-04,2025-01-28,共栄ランチグループ株式会社,,株式会社,東京都,板橋区,高島平９丁目３番１１号,,13,119,1750082,,,2025-01-28,清算の結了等,,,2015-10-05,1,,,,,キョウエイランチグループ,0
1889,8030001017388,登記記録の閉鎖等,0,2025-02-04,2025-01-31,株式会社モガミ,,株式会社,埼玉県,さいたま市見沼区,春岡２丁目３７番地１８,,11,104,3370008,,,2025-01-31,清算の結了等,,,2015-10-05,1,,,,,モガミ,0
1890,8030001055636,登記記録の閉鎖等,0,2025-02-04,2025-01-27,みすゞ機械工業株式会社,,株式会社,東京都,板橋区,坂下１丁目２５番１６号,,13,119,1740043,,,2025-01-27,清算の結了等,,,2015-10-05,1,,,,,ミスズキカイコウギョウ,0
1900,8040001000236,登記記録の閉鎖等,0,2025-02-04,2025-01-31,株式会社アクター,,株式会社,千葉県,千葉市若葉区,桜木町２７１番地の１,,12,104,2640022,,,2025-01-31,登記官による閉鎖,,,2015-10-05,1,,,,,,0
1901,8040001029184,登記記録の閉鎖等,0,2025-02-04,2025-01-31,アートベストホーム株式会社,,株式会社,千葉県,浦安市,高洲２７番地２５５,,12,227,2790023,,,2025-01-31,登記官による閉鎖,,,2015-10-05,1,,,,,,0
1902,8040001029374,登記記録の閉鎖等,0,2025-02-04,2025-01-31,オガワ冷食株式会社,,株式会社,千葉県,浦安市,高洲２８番地の４４,,12,227,2790023,,,2025-01-31,登記官による閉鎖,,,2015-10-05,1,,,,,,0
1913,8050003006429,登記記録の閉鎖等,0,2025-02-04,2025-01-27,ＡＫＩＴＡＹＡ合同会社,,合同会社,茨城県,常総市,小保川１４７１,,08,211,3002703,,,2025-01-27,清算の結了等,,,2022-03-16,1,,,,,アキタヤ,0
1914,8070001005067,登記記録の閉鎖等,0,2025-02-04,2025-01-31,株式会社ラ・パラディソ,,株式会社,群馬県,前橋市,箱田町５６５番地の１,,10,201,3710837,,,2025-01-31,清算の結了等,,,2015-10-05,1,,,,,ラパラディソ,0
1923,8090002000107,登記記録の閉鎖等,0,2025-02-04,2025-01-30,有限会社アクター・プロ,,有限会社,山梨県,甲府市,池田１丁目１０番１７号,,19,201,4000062,,,2025-01-30,清算の結了等,,,2015-10-05,1,,,,,アクタープロ,0
1931,8120001190226,登記記録の閉鎖等,0,2025-02-04,2025-01-21,株式会社日商,,株式会社,東京都,台東区,台東１丁目１２番２号,,13,106,1100016,,,2025-01-21,清算の結了等,,,2015-10-05,1,,,,,ニッショウ,0
1935,8120001228546,登記記録の閉鎖等,0,2025-02-04,2025-01-31,株式会社ハッピーベトナム,,株式会社,大阪府,大阪市中央区,淡路町１丁目３番２号紀陽オリエントビル５０１号室,,27,128,5410047,,,2025-01-31,清算の結了等,,,2020-04-13,1,,,,,ハッピーベトナム,0
1948,8120002012305,登記記録の閉鎖等,0,2025-02-04,2025-01-31,有限会社ヨシオカ,,有限会社,大阪府,大阪市平野区,加美北８丁目５番２０号,,27,126,5470001,,,2025-01-31,清算の結了等,,,2015-10-05,1,,,,,ヨシオカ,0
1953,8120101042038,登記記録の閉鎖等,0,2025-02-04,2025-01-23,吉川生コンクリート株式会社,00032503,株式会社,大阪府,和泉市,箕形町１８１番地の１,,27,219,5940042,,,2025-01-23,登記官による閉鎖,,,2015-10-05,1,,,,,,0
1965,8140001031295,登記記録の閉鎖等,0,2025-02-04,2025-01-30,セイフティテック株式会社,,株式会社,兵庫県,神戸市中央区,浜辺通５丁目１番１４号,,28,110,6510083,,,2025-01-30,清算の結了等,,,2015-10-05,1,,,,,セイフティテック,0
1982,8180001108313,登記記録の閉鎖等,0,2025-02-04,2025-01-29,株式会社エスポワール,,株式会社,愛知県,名古屋市中川区,草平町２丁目７番地の１,,23,110,4540868,,,2025-01-29,清算の結了等,,,2015-10-05,1,,,,,エスポワール,0
1986,8180002077367,登記記録の閉鎖等,0,2025-02-04,2025-01-27,有限会社ヒラバヤシ商事,,有限会社,愛知県,一宮市,萩原町戸苅字本郷屋敷３３１番地の４,,23,203,4910375,,,2025-01-27,清算の結了等,,,2015-10-05,1,,,,,ヒラバヤシショウジ,0
1988,8180302022766,登記記録の閉鎖等,0,2025-02-04,2025-01-29,有限会社デスクサイド・ハラダヤ,,有限会社,愛知県,みよし市,三好町湯ノ前３番地の６,,23,236,4700224,,,2025-01-29,清算の結了等,,,2015-10-05,1,,,,,デスクサイドハラダヤ,0
2001,8260001020071,登記記録の閉鎖等,0,2025-02-04,2025-01-30,株式会社奈義森林建築センター,,株式会社,岡山県,勝田郡奈義町,豊沢３０３番地,,33,623,7081323,,,2025-01-30,清算の結了等,,,2015-10-05,1,,,,,ナギシンリンケンチクセンター,0
2009,8270003000780,登記記録の閉鎖等,0,2025-02-04,2025-01-31,ＴｕｒｎＬｅａｎ合同会社,,合同会社,鳥取県,米子市,富益町４２１０番地１,,31,202,6830103,,,2025-01-31,清算の結了等,,,2015-10-05,1,,,,,ターンリーン,0
2027,8290801013065,登記記録の閉鎖等,0,2025-02-04,2025-01-27,株式会社メディカルアシスト,,株式会社,福岡県,北九州市八幡西区,京良城町１０番２２－３０３号,,40,109,8060061,,,2025-01-27,清算の結了等,,,2015-10-05,1,,,,,メディカルアシスト,0
2031,8320002018249,登記記録の閉鎖等,0,2025-02-04,2025-02-03,有限会社大野ファーム,,有限会社,大分県,豊後大野市,三重町小坂２９４５番地,,44,212,8797104,,,2025-02-03,清算の結了等,,,2015-10-05,1,,,,,オオノファーム,0
2036,8370001005210,登記記録の閉鎖等,0,2025-02-04,2025-01-22,株式会社新光運輸,,株式会社,宮城県,仙台市宮城野区,蒲生字竹ノ内１９４番地,,04,102,9830002,,,2025-01-22,登記官による閉鎖,,,2015-10-05,1,,,,,,0
2039,8370301000002,登記記録の閉鎖等,0,2025-02-04,2024-12-26,株式会社相生丸,,株式会社,宮城県,石巻市,湊町１丁目５番１号,,04,202,9860025,,,2024-12-26,清算の結了等,,,2015-10-05,1,,,,,アイセイマル,0
2040,8370802000087,登記記録の閉鎖等,0,2025-02-04,2025-01-27,有限会社伊藤工務店,,有限会社,宮城県,名取市,下余田字飯塚２番地,,04,207,9811223,,,2025-01-27,清算の結了等,,,2015-10-05,1,,,,,イトウコウムテン,0
2043,8380001011455,登記記録の閉鎖等,0,2025-02-04,2025-01-21,株式会社いわせ,,株式会社,福島県,岩瀬郡鏡石町,大字鏡田字桜町２２５番地,,07,342,9690401,,,2025-01-21,登記官による閉鎖,,,2015-10-05,1,,,,,,0
2044,8380001011513,登記記録の閉鎖等,0,2025-02-04,2025-01-21,株式会社雅,,株式会社,福島県,岩瀬郡鏡石町,大字笠石字東町４６４番地,,07,342,9690404,,,2025-01-21,登記官による閉鎖,,,2015-10-05,1,,,,,,0
2060,8470001019844,登記記録の閉鎖等,0,2025-02-04,2025-02-03,株式会社リバティス,,株式会社,香川県,高松市,中野町２９番５号高松プラザビル３階、４階,,37,201,7600008,,,2025-02-03,清算の結了等,,,2023-10-11,1,,,,,リバティス,0
2097,9010601035419,登記記録の閉鎖等,0,2025-02-04,2025-01-22,ＭＡトラスト株式会社,,株式会社,東京都,千代田区,内神田１丁目１１番５号カーサ内神田９０１,,13,101,1010047,,,2025-01-22,清算の結了等,,,2015-10-05,1,,,,,エムエートラスト,0
2103,9010801025780,登記記録の閉鎖等,0,2025-02-04,2025-01-24,株式会社フォーチューン,,株式会社,東京都,大田区,南六郷１丁目２４番９号,,13,111,1440045,,,2025-01-24,清算の結了等,,,2015-10-05,1,,,,,,0
2106,9011001131683,登記記録の閉鎖等,0,2025-02-04,2025-01-06,ダイタンマルシェ株式会社,,株式会社,東京都,渋谷区,代々木１丁目３６番１号オダカビル３階,,13,113,1510053,,,2025-01-06,合併による解散等,2011001125089,令和７年１月１日東京都渋谷区代々木一丁目３６番１号オダカビル３階ダイタン食品株式会社（2011001125089）に合併し解散,2020-01-09,1,,,,,ダイタンマルシェ,0
2114,9011102029884,登記記録の閉鎖等,0,2025-02-04,2025-01-22,有限会社マーケティング・ネットワーク,,有限会社,東京都,千代田区,二番町５番地２麹町駅プラザ９０１,,13,101,1020084,,,2025-01-22,清算の結了等,,,2015-10-05,1,,,,,マーケティングネットワーク,0
2115,9011301002345,登記記録の閉鎖等,0,2025-02-04,2025-01-31,恒新商事株式会社,,株式会社,東京都,杉並区,荻窪４丁目３１番１１－３０３号,,13,115,1670051,,,2025-01-31,清算の結了等,,,2015-10-05,1,,,,,コウシンショウジ,0
2121,9011801035943,登記記録の閉鎖等,0,2025-02-04,2025-01-29,株式会社ノースフィッシュ,,株式会社,東京都,足立区,千住橋戸町９６番地,,13,121,1200038,,,2025-01-29,清算の結了等,,,2019-04-04,1,,,,,ノースフィッシュ,0
2132,9020001065081,登記記録の閉鎖等,0,2025-02-04,2025-01-17,オークテクノス株式会社,,株式会社,神奈川県,川崎市麻生区,白山５丁目１番３－３０８号,,14,137,2150014,,,2025-01-17,清算の結了等,,,2015-10-05,1,,,,,オークテクノス,0
2134,9020001154495,登記記録の閉鎖等,0,2025-02-04,2025-01-17,株式会社ＥＳＳＥＮＣＥ,,株式会社,神奈川県,横浜市港北区,大曽根台１０番６－２２号,,14,109,2220004,,,2025-01-17,清算の結了等,,,2023-11-17,1,,,,,エッセンス,0
2147,9021002029406,登記記録の閉鎖等,0,2025-02-04,2025-01-31,有限会社ミロクロ,,有限会社,神奈川県,相模原市緑区,寸沢嵐５４８番地１１,,14,151,2520176,,,2025-01-31,清算の結了等,,,2015-10-05,1,,,,,ミロクロ,0
2148,9021002061152,登記記録の閉鎖等,0,2025-02-04,2025-01-31,有限会社フランシスゴルフ,,有限会社,神奈川県,平塚市,四之宮３丁目８の１第一高橋ビル１Ｆ,,14,203,2540014,,,2025-01-31,清算の結了等,,,2015-10-05,1,,,,,フランシスゴルフ,0
2155,9030002093477,登記記録の閉鎖等,0,2025-02-04,2025-01-30,有限会社ディスカス,,有限会社,埼玉県,鶴ヶ島市,大字上広谷１８番地９,,11,241,3502203,,,2025-01-30,清算の結了等,,,2015-10-05,1,,,,,ディスカス,0
2156,9030002103896,登記記録の閉鎖等,0,2025-02-04,2025-01-31,有限会社瑞光,,有限会社,埼玉県,川口市,大字赤井１２４６番地の７,,11,203,3340073,,,2025-01-31,清算の結了等,,,2015-10-05,1,,,,,ズイコウ,0
2159,9040001002611,登記記録の閉鎖等,0,2025-02-04,2025-01-31,株式会社サンキ興産,,株式会社,千葉県,千葉市中央区,弁天町１９番地１,,12,101,2600043,,,2025-01-31,登記官による閉鎖,,,2015-10-05,1,,,,,,0
2160,9040001005250,登記記録の閉鎖等,0,2025-02-04,2025-01-31,東西企業株式会社,,株式会社,千葉県,千葉市若葉区,桜木町３６１番地の１,,12,104,2640022,,,2025-01-31,登記官による閉鎖,,,2015-10-05,1,,,,,,0
2161,9040001014326,登記記録の閉鎖等,0,2025-02-04,2025-01-31,エステート竹谷株式会社,,株式会社,千葉県,習志野市,実籾町３丁目９３５番地１１,,12,216,2750000,,,2025-01-31,登記官による閉鎖,,,2015-10-05,1,,,,,,0
2162,9040001029613,登記記録の閉鎖等,0,2025-02-04,2025-01-31,株式会社ジャパンベイークラフト,,株式会社,千葉県,浦安市,高洲２７番地２５５,,12,227,2790023,,,2025-01-31,登記官による閉鎖,,,2015-10-05,1,,,,,,0
2163,9040001029737,登記記録の閉鎖等,0,2025-02-04,2025-01-31,株式会社田口プロダクション,,株式会社,千葉県,浦安市,明海１３番地望海の街８－２０８号,,12,227,2790014,,,2025-01-31,登記官による閉鎖,,,2015-10-05,1,,,,,,0
2164,9040001074188,登記記録の閉鎖等,0,2025-02-04,2025-01-27,白井工業株式会社,,株式会社,千葉県,鴨川市,前原２３番地,,12,223,2960002,,,2025-01-27,清算の結了等,,,2015-10-05,1,,,,,シライコウギョウ,0
2168,9040005004562,登記記録の閉鎖等,0,2025-02-04,2025-01-31,特定非営利活動法人情報エヌピーオーちば,,その他の設立登記法人,千葉県,浦安市,明海６番地夢海の街９－２０１号,,12,227,2790014,,,2025-01-31,登記官による閉鎖,,,2015-10-05,1,,,,,,0
2170,9050001025818,登記記録の閉鎖等,0,2025-02-04,2025-01-29,株式会社オグラ,,株式会社,茨城県,北相馬郡利根町,大字布川５４９０番地の３,,08,564,3001622,,,2025-01-29,清算の結了等,,,2015-10-05,1,,,,,オグラ,0
2181,9080402016644,登記記録の閉鎖等,0,2025-02-04,2025-01-29,有限会社竹島屋金物店,,有限会社,静岡県,浜松市天竜区,水窪町奥領家２５８１番地,,22,140,4314101,,,2025-01-29,清算の結了等,,,2015-10-05,1,,,,,タケシマヤカナモノテン,0
2184,9100002022073,登記記録の閉鎖等,0,2025-02-04,2025-01-29,有限会社陽光,,有限会社,長野県,松本市,大字笹賀３００７番地１,,20,202,3990033,,,2025-01-29,清算の結了等,,,2015-10-05,1,,,,,ヨウコウ,0
2193,9120002071655,登記記録の閉鎖等,0,2025-02-04,2025-01-30,田中製材有限会社,,有限会社,大阪府,交野市,私市４丁目４５番６号,,27,230,5760033,,,2025-01-30,清算の結了等,,,2015-10-05,1,,,,,タナカセイザイ,0
2197,9120101045221,登記記録の閉鎖等,0,2025-02-04,2025-01-29,株式会社スギヨシ,,株式会社,大阪府,岸和田市,磯上町５丁目２３番３２号,,27,202,5960001,,,2025-01-29,清算の結了等,,,2015-10-05,1,,,,,スギヨシ,0
2204,9120901035289,登記記録の閉鎖等,0,2025-02-04,2025-01-24,株式会社平松工務店,,株式会社,大阪府,摂津市,鳥飼中２丁目５番１０号,,27,224,5660064,,,2025-01-24,清算の結了等,,,2015-10-05,1,,,,,,0
2228,9180001055422,登記記録の閉鎖等,0,2025-02-04,2025-01-24,株式会社ＰＭＪ,,株式会社,愛知県,名古屋市守山区,元郷２丁目１１８番地,,23,113,4630025,,,2025-01-24,清算の結了等,,,2015-10-05,1,,,,,ピーエムジェー,0
2229,9180001092069,登記記録の閉鎖等,0,2025-02-04,2025-01-29,株式会社ミタカ土地,,株式会社,愛知県,常滑市,字社辺１８番地の８,,23,216,4790042,,,2025-01-29,清算の結了等,,,2024-12-20,1,,,,,ミタカトチ,0
2231,9180001117949,登記記録の閉鎖等,0,2025-02-04,2025-01-20,株式会社バーチャルメカニクス,,株式会社,愛知県,名古屋市中村区,則武２丁目１４－１１,,23,105,4530014,,,2025-01-20,清算の結了等,,,2015-10-05,1,,,,,バーチャルメカニクス,0
2240,9180002072029,登記記録の閉鎖等,0,2025-02-04,2025-01-30,東海制御有限会社,,有限会社,愛知県,瀬戸市,五位塚町３４番地の２１,,23,204,4890031,,,2025-01-30,清算の結了等,,,2015-10-05,1,,,,,トウカイセイギョ,0
2261,9290001071581,登記記録の閉鎖等,0,2025-02-04,2025-01-17,株式会社シーベル,,株式会社,福岡県,春日市,春日原東町４丁目４９番地３０１号,,40,218,8160801,,,2025-01-17,清算の結了等,,,2015-10-05,1,,,,,,0
2272,9330001014420,登記記録の閉鎖等,0,2025-02-04,2025-01-22,株式会社マック,,株式会社,熊本県,水俣市,南福寺９９４番地１０,,43,205,8670023,,,2025-01-22,清算の結了等,,,2024-04-02,1,,,,,マック,0
2279,9360001025844,登記記録の閉鎖等,0,2025-02-04,2025-02-03,順成株式会社,,株式会社,沖縄県,那覇市,泉崎１丁目１９番３号ライオンズマンション泉崎６０２,,47,201,9000021,,,2025-02-03,清算の結了等,,,2019-06-20,1,,,,,ジュンセイ,0
2283,9370001001695,登記記録の閉鎖等,0,2025-02-04,2025-01-22,株式会社構造デザイン,,株式会社,宮城県,仙台市太白区,大野田字北屋敷２８番地の８チサンマンション富沢東６０４,,04,104,9820014,,,2025-01-22,登記官による閉鎖,,,2015-10-05,1,,,,,,0
2285,9370001011579,登記記録の閉鎖等,0,2025-02-04,2025-01-30,株式会社東北ジーワイ,,株式会社,宮城県,仙台市宮城野区,扇町７丁目５番２０号,,04,102,9830034,,,2025-01-30,合併による解散等,1010401022566,令和７年１月１日東京都港区六本木一丁目４番５号アークヒルズサウスタワー７階日本グッドイヤー株式会社（1010401022566）に合併し解散,2015-10-05,1,,,,,トウホクジーワイ,0
2295,9430001021357,登記記録の閉鎖等,0,2025-02-04,2025-01-30,株式会社藤牧商事,,株式会社,北海道,札幌市中央区,南三条西４丁目１番地,,01,101,0600063,,,2025-01-30,清算の結了等,,,2015-10-05,1,,,,,フジマキショウジ,0
