sequenceNumber,corporateNumber,process,correct,updateDate,changeDate,name,nameImageId,kind,prefectureName,cityName,streetNumber,addressImageId,prefectureCode,cityCode,postCode,addressOutside,addressOutsideImageId,closeDate,closeCause,successorCorporateNumber,changeCause,assignmentDate,latest,enName,enPrefectureName,enCityName,enAddressOutside,furigana,hihyoji
1,1010001001210,登記記録の閉鎖等,0,2021-10-01,2021-09-24,エトワール株式会社,,株式会社,東京都,文京区,千駄木２丁目４２番１号,,13,105,1130022,,,2021-09-24,清算の結了等,,,2015-10-05,1,,,,,エトワール,0
17,1010101000194,登記記録の閉鎖等,0,2021-10-01,2021-09-24,株式会社ア・デ設計,,株式会社,徳島県,阿波市,市場町大野島字王子前９－１,,36,206,7711627,,,2021-09-24,清算の結了等,,,2015-10-05,1,,,,,アデセッケイ,0
76,1013201014238,登記記録の閉鎖等,0,2021-10-01,2021-09-13,株式会社陽光,,株式会社,東京都,目黒区,上目黒４丁目２６番１４号,,13,110,1530051,,,2021-09-13,清算の結了等,,,2015-10-05,1,,,,,ヨウコウ,0
77,1013301035365,登記記録の閉鎖等,0,2021-10-01,2021-09-17,株式会社シー・ライン,,株式会社,埼玉県,朝霞市,宮戸２丁目１番５０－１１号,,11,227,3510031,,,2021-09-17,清算の結了等,,,2015-10-05,1,,,,,シーライン,0
93,1021001040759,登記記録の閉鎖等,0,2021-10-01,2021-09-29,株式会社鶴若防災,,株式会社,神奈川県,横須賀市,岩戸４丁目２２番８号,,14,201,2390844,,,2021-09-29,清算の結了等,,,2015-10-05,1,,,,,ツルワカボウサイ,0
97,1021002001545,登記記録の閉鎖等,0,2021-10-01,2021-09-28,有限会社草山材木店,,有限会社,神奈川県,藤沢市,下土棚５１１番地,,14,205,2520807,,,2021-09-28,清算の結了等,,,2015-10-05,1,,,,,クサヤマザイモクテン,0
146,1120001016081,登記記録の閉鎖等,0,2021-10-01,2021-09-24,株式会社扶桑装美サークル,,株式会社,大阪府,大阪市城東区,成育５丁目１２番２７号,,27,118,5360007,,,2021-09-24,清算の結了等,,,2015-10-05,1,,,,,フソウソウビサークル,0
155,1120002024190,登記記録の閉鎖等,0,2021-10-01,2021-09-27,有限会社パナシヨツプ,,有限会社,大阪府,大阪市西淀川区,千舟２丁目３番３７号,,27,113,5550013,,,2021-09-27,清算の結了等,,,2015-10-05,1,,,,,パナシヨツプ,0
166,1120902008326,登記記録の閉鎖等,0,2021-10-01,2021-09-30,有限会社エムジートラベル,,有限会社,大阪府,摂津市,千里丘東４丁目１９番２１号,,27,224,5660011,,,2021-09-30,清算の結了等,,,2015-10-05,1,,,,,エムジートラベル,0
177,1140001048081,登記記録の閉鎖等,0,2021-10-01,2021-09-27,株式会社岡崎建装,,株式会社,兵庫県,尼崎市,西難波町３丁目２番１４号,,28,202,6600893,,,2021-09-27,清算の結了等,,,2015-10-05,1,,,,,オカザキケンソウ,0
178,1140001057009,登記記録の閉鎖等,0,2021-10-01,2021-09-28,株式会社大正プログレス,,株式会社,兵庫県,神戸市兵庫区,永沢町４丁目５番４号,,28,105,6520816,,,2021-09-28,清算の結了等,,,2015-10-05,1,,,,,タイショウプログレス,0
210,1230001012929,登記記録の閉鎖等,0,2021-10-01,2021-09-28,アロ交易株式会社,,株式会社,富山県,富山市,桜谷みどり町１丁目３５番地,,16,201,9300898,,,2021-09-28,清算の結了等,,,2015-10-05,1,,,,,アロコウエキ,0
227,1290801009516,登記記録の閉鎖等,0,2021-10-01,2021-09-21,株式会社ラテスコ,,株式会社,福岡県,北九州市八幡東区,中央２丁目１０番１号アタカビル内,,40,108,8050019,,,2021-09-21,清算の結了等,,,2015-10-05,1,,,,,ラテスコ,0
238,1320001009627,登記記録の閉鎖等,0,2021-10-01,2021-09-22,株式会社みつば観光,,株式会社,大分県,豊後大野市,三重町赤嶺１９２７番地１,,44,212,8797111,,,2021-09-22,清算の結了等,,,2015-10-05,1,,,,,ミツバカンコウ,0
268,1410001009709,登記記録の閉鎖等,0,2021-10-01,2021-09-29,第一木工株式会社,00086445,株式会社,秋田県,能代市,河戸川字上長沼布３５番地,,05,202,0160171,,,2021-09-29,清算の結了等,,,2015-10-05,1,,,,,ダイイチモッコウ,0
275,1480002005931,登記記録の閉鎖等,0,2021-10-01,2021-09-24,有限会社花井建設,,有限会社,徳島県,名西郡神山町,阿野字橘谷９１番地,,36,342,7713201,,,2021-09-24,清算の結了等,,,2015-10-05,1,,,,,ハナイケンセツ,0
284,2010001198830,登記記録の閉鎖等,0,2021-10-01,2021-09-28,ＮＥＷＰＯＲＴ　ＧＬＯＢＡＬ　ＧＲＯＵＰ　ＪＡＰＡＮ株式会社,,株式会社,東京都,千代田区,神田錦町３丁目１１番８号,,13,101,1010054,,,2021-09-28,清算の結了等,,,2019-03-04,1,,,,,ニューポートグローバルグループジャパン,0
311,2010601016111,登記記録の閉鎖等,0,2021-10-01,2021-09-16,モタイ工業株式会社,,株式会社,東京都,墨田区,東向島６丁目５０番８号,,13,107,1310032,,,2021-09-16,清算の結了等,,,2015-10-05,1,,,,,モタイコウギョウ,0
314,2010701021985,登記記録の閉鎖等,0,2021-10-01,2021-09-29,株式会社メディカル秀潤社,,株式会社,東京都,品川区,西五反田２丁目１１番８号,,13,109,1410031,,,2021-09-29,清算の結了等,,,2015-10-05,1,,,,,メディカルシュウジュンシャ,0
318,2011001060195,登記記録の閉鎖等,0,2021-10-01,2021-09-16,株式会社イーアンプロパティ,,株式会社,東京都,昭島市,中神町１４００－１３,,13,207,1960022,,,2021-09-16,清算の結了等,,,2015-10-05,1,,,,,イーアンプロパティ,0
343,2011702004483,登記記録の閉鎖等,0,2021-10-01,2021-09-22,有限会社三和縮絨起毛,,有限会社,東京都,江戸川区,東小岩２丁目２０番１７号,,13,123,1330052,,,2021-09-22,清算の結了等,,,2015-10-05,1,,,,,サンワシュクジュウキモウ,0
362,2021001046243,登記記録の閉鎖等,0,2021-10-01,2021-09-28,株式会社Ａ－ＮＥＴ,,株式会社,神奈川県,愛甲郡愛川町,中津１１９９番地の３,,14,401,2430303,,,2021-09-28,清算の結了等,,,2015-10-05,1,,,,,エーネット,0
396,2040003012672,登記記録の閉鎖等,0,2021-10-01,2021-09-22,合同会社流山卓球コミュニティセンター,,合同会社,千葉県,流山市,南流山２丁目９番地の６,,12,220,2700163,,,2021-09-22,清算の結了等,,,2019-01-09,1,,,,,ナガレヤマタッキュウコミュニティセンター,0
412,2080102000145,登記記録の閉鎖等,0,2021-10-01,2021-09-27,有限会社旭,,有限会社,静岡県,沼津市,松長字改正１０７１番地の５,,22,203,4100874,,,2021-09-27,清算の結了等,,,2015-10-05,1,,,,,アサヒ,0
415,2080403002699,登記記録の閉鎖等,0,2021-10-01,2021-09-29,合同会社瀧義,,合同会社,静岡県,浜松市西区,入野町８９６９番地の８,,22,133,4328061,,,2021-09-29,清算の結了等,,,2015-10-05,1,,,,,タキヨシ,0
457,2140001030047,登記記録の閉鎖等,0,2021-10-01,2021-09-28,株式会社まんてん在宅ケア研究所,,株式会社,兵庫県,神戸市長田区,細田町６丁目１番２４号,,28,106,6530835,,,2021-09-28,清算の結了等,,,2015-10-05,1,,,,,マンテンザイタクケアケンキュウショ,0
462,2140001077732,登記記録の閉鎖等,0,2021-10-01,2021-09-28,朋和株式会社,,株式会社,兵庫県,明石市,大久保町谷八木１２５０番地,,28,203,6740062,,,2021-09-28,清算の結了等,,,2015-10-05,1,,,,,ホウワ,0
467,2140005018963,登記記録の閉鎖等,0,2021-10-01,2021-09-30,特定非営利活動法人関西アロマセラピスト・フォーラム,,その他の設立登記法人,兵庫県,宝塚市,川面３丁目２３番１２号,,28,214,6650842,,,2021-09-30,清算の結了等,,,2015-10-05,1,,,,,カンサイアロマセラピストフォーラム,0
472,2180001078173,登記記録の閉鎖等,0,2021-10-01,2021-09-29,株式会社鹿島物産,,株式会社,愛知県,春日井市,中央通１丁目５４番地ラ・ヴァンス春日井駅前１５０２号,,23,206,4860825,,,2021-09-29,清算の結了等,,,2015-10-05,1,,,,,カシマブッサン,0
492,2180003021560,登記記録の閉鎖等,0,2021-10-01,2021-09-28,合同会社神田ＦＰ事務所,,合同会社,愛知県,日進市,岩崎台１丁目６０１番地ユニーブル日進の丘１０３,,23,230,4700135,,,2021-09-28,清算の結了等,,,2020-09-09,1,,,,,カンダエフピージムショ,0
507,2240001004767,登記記録の閉鎖等,0,2021-10-01,2021-09-29,柴原ビル株式会社,,株式会社,広島県,広島市西区,観音町３番１７号,,34,104,7330031,,,2021-09-29,清算の結了等,,,2015-10-05,1,,,,,シバハラビル,0
538,2320005008129,登記記録の閉鎖等,0,2021-10-01,2021-09-29,特定非営利活動法人大分県医療情報通信ネットワーク,,その他の設立登記法人,大分県,由布市,挾間町医大ヶ丘１丁目１番地大分大学医学部附属病院医療情報部,,44,213,8795503,,,2021-09-29,清算の結了等,,,2015-10-05,1,,,,,オオイタイリョウジョウホウツウシンネットワーク,0
564,2380001013738,登記記録の閉鎖等,0,2021-10-01,2021-09-28,株式会社フクダ商会,,株式会社,福島県,いわき市,山田町毛内２７番地の６,,07,204,9748241,,,2021-09-28,清算の結了等,,,2015-10-05,1,,,,,フクダショウカイ,0
566,2380002024684,登記記録の閉鎖等,0,2021-10-01,2021-09-27,有限会社高田,00083927,有限会社,福島県,いわき市,湘南台１丁目４番地の１７,,07,204,9718152,,,2021-09-27,清算の結了等,,,2015-10-05,1,,,,,タカダ,0
567,2380002030906,登記記録の閉鎖等,0,2021-10-01,2021-09-28,有限会社会津の殿様本舖,,有限会社,福島県,会津若松市,日新町１４番９号,,07,202,9650861,,,2021-09-28,清算の結了等,,,2015-10-05,1,,,,,アイヅノトノサマホンポ,0
570,2420002012429,登記記録の閉鎖等,0,2021-10-01,2021-09-28,有限会社神建具店,,有限会社,青森県,つがる市,木造桜川６番地１８,,02,209,0383159,,,2021-09-28,清算の結了等,,,2015-10-05,1,,,,,ジンタテグテン,0
579,2430005011823,登記記録の閉鎖等,0,2021-10-01,2021-09-22,特定非営利活動法人ＥＲプロジェクト協会,,その他の設立登記法人,北海道,札幌市北区,新川三条１４丁目９番２０号,,01,102,0010923,,,2021-09-22,清算の結了等,,,2015-10-05,1,,,,,イーアールプロジェクトキョウカイ,0
583,2460401001227,登記記録の閉鎖等,0,2021-10-01,2021-09-22,銀洋水産株式会社,,株式会社,北海道,根室市,昭和町２丁目５１番地,,01,223,0870022,,,2021-09-22,清算の結了等,,,2021-06-07,1,,,,,,0
590,2500001014491,登記記録の閉鎖等,0,2021-10-01,2021-09-29,三島森林株式会社,,株式会社,愛媛県,四国中央市,具定町４６５番地５,,38,213,7990423,,,2021-09-29,清算の結了等,,,2015-10-05,1,,,,,ミシマシンリン,0
593,2500002018450,登記記録の閉鎖等,0,2021-10-01,2021-09-30,四国メデイカル・サービス有限会社,,有限会社,愛媛県,今治市,松本町３丁目１番地２,,38,202,7940041,,,2021-09-30,清算の結了等,,,2015-10-05,1,,,,,シコクメデイカルサービス,0
596,3010001165243,登記記録の閉鎖等,0,2021-10-01,2021-09-24,株式会社ＶＵＬＰＥＳ,,株式会社,東京都,中央区,銀座６丁目１３－１６銀座ＷａｌｌビルＵＣＦ５０１,,13,102,1040061,,,2021-09-24,清算の結了等,,,2015-10-05,1,,,,,ブルペス,0
606,3010101013946,登記記録の閉鎖等,0,2021-10-01,2021-09-28,株式会社ＶＨＳ,,株式会社,東京都,八王子市,片倉町５６１番地１１７,,13,201,1920914,,,2021-09-28,清算の結了等,,,2019-11-12,1,,,,,ブイエッチエス,0
617,3010403023734,登記記録の閉鎖等,0,2021-10-01,2021-09-16,合同会社篠栗開発,,合同会社,東京都,港区,西新橋２丁目１１番８号,,13,103,1050003,,,2021-09-16,清算の結了等,,,2020-09-17,1,,,,,ササグリカイハツ,0
627,3010801007413,登記記録の閉鎖等,0,2021-10-01,2021-09-22,株式会社ティー・アイ・シー,,株式会社,東京都,大田区,大森北２丁目９番１４号,,13,111,1430016,,,2021-09-22,清算の結了等,,,2015-10-05,1,,,,,ティーアイシー,0
645,3011105006820,登記記録の閉鎖等,0,2021-10-01,2021-09-24,一般社団法人全国駐車場防犯協会,,その他の設立登記法人,東京都,新宿区,西五軒町６番５号,,13,104,1620812,,,2021-09-24,清算の結了等,,,2015-10-05,1,,,,,ゼンコクチュウシャジョウボウハンキョウカイ,0
662,3012403003699,登記記録の閉鎖等,0,2021-10-01,2021-09-21,ｔｏｒｏｒｉｄｅｓｉｇｎ合同会社,,合同会社,東京都,府中市,南町４丁目１４番３号レジデンス佐伯２０１,,13,206,1830026,,,2021-09-21,清算の結了等,,,2018-12-11,1,,,,,トロリデザイン,0
670,3013301042137,登記記録の閉鎖等,0,2021-10-01,2021-09-24,株式会社ロル,,株式会社,東京都,台東区,浅草橋５丁目７番６号,,13,106,1110053,,,2021-09-24,清算の結了等,,,2018-04-18,1,,,,,ロル,0
672,3020001012353,登記記録の閉鎖等,0,2021-10-01,2021-09-28,株式会社ワンズ,,株式会社,神奈川県,横浜市青葉区,しらとり台６０番地４４,,14,117,2270054,,,2021-09-28,清算の結了等,,,2015-10-05,1,,,,,ワンズ,0
684,3020002105908,登記記録の閉鎖等,0,2021-10-01,2021-09-27,有限会社リバーサイド・ミュージック,,有限会社,神奈川県,川崎市高津区,久本２丁目４番地１６号１００３,,14,134,2130011,,,2021-09-27,清算の結了等,,,2015-10-05,1,,,,,リバーサイドミュージック,0
685,3020003012665,登記記録の閉鎖等,0,2021-10-01,2021-07-26,合同会社ストリートビート,,合同会社,神奈川県,横浜市港北区,鳥山町６１５番地２シャルム新横浜１０５,,14,109,2220035,,,2021-07-26,清算の結了等,,,2017-04-26,1,,,,,ストリートビート,0
687,3021001010223,登記記録の閉鎖等,0,2021-10-01,2021-09-28,日本輸出入代行株式会社,,株式会社,神奈川県,鎌倉市,七里ガ浜東２丁目１１番１３号,,14,204,2480025,,,2021-09-28,清算の結了等,,,2015-10-05,1,,,,,ニホンユシュツニュウダイコウ,0
701,3030001095439,登記記録の閉鎖等,0,2021-10-01,2021-09-21,株式会社夢現,,株式会社,埼玉県,南埼玉郡宮代町,中央３丁目２番地２３,,11,442,3450821,,,2021-09-21,清算の結了等,,,2015-10-05,1,,,,,ムゲン,0
718,3040001088243,登記記録の閉鎖等,0,2021-10-01,2021-09-21,株式会社オーク香取ファーム,,株式会社,千葉県,香取市,新里１０２０番地,,12,236,2890424,,,2021-09-21,清算の結了等,,,2015-10-05,1,,,,,オークカトリファーム,0
723,3040002044204,登記記録の閉鎖等,0,2021-10-01,2021-09-24,飯島石材工業有限会社,,有限会社,千葉県,松戸市,松戸新田４８４番地の８,,12,207,2702241,,,2021-09-24,清算の結了等,,,2015-10-05,1,,,,,イイジマセキザイコウギョウ,0
729,3040002089190,登記記録の閉鎖等,0,2021-10-01,2021-09-21,有限会社オオワダ,,有限会社,千葉県,柏市,花野井６８０番地の３,,12,217,2770812,,,2021-09-21,清算の結了等,,,2015-10-05,1,,,,,オオワダ,0
766,3120002074928,登記記録の閉鎖等,0,2021-10-01,2021-09-14,有限会社野村電気工業,,有限会社,大阪府,枚方市,朝日丘町１０番１０号,,27,210,5730026,,,2021-09-14,清算の結了等,,,2015-10-05,1,,,,,,0
772,3120101035194,登記記録の閉鎖等,0,2021-10-01,2021-09-28,株式会社朝永電気,,株式会社,大阪府,羽曳野市,島泉７丁目６番１８号,,27,222,5830881,,,2021-09-28,清算の結了等,,,2015-10-05,1,,,,,トモナガデンキ,0
778,3122005000836,登記記録の閉鎖等,0,2021-10-01,2021-09-15,妙建寺,,その他の設立登記法人,大阪府,東大阪市,森河内５３８番地,,27,227,,,,2021-09-15,清算の結了等,,,2015-10-05,1,,,,,ミョウケンジ,1
789,3140003010632,登記記録の閉鎖等,0,2021-10-01,2021-09-27,農場物語合同会社,,合同会社,兵庫県,養父市,上野１０６０番地３,,28,222,6670131,,,2021-09-27,清算の結了等,,,2015-10-05,1,,,,,ノウジョウモノガタリ,0
815,3190002008813,登記記録の閉鎖等,0,2021-10-01,2021-09-30,有限会社三協開発,,有限会社,三重県,伊勢市,川端町２４５番地３,,24,203,5160052,,,2021-09-30,清算の結了等,,,2015-10-05,1,,,,,サンキョウカイハツ,0
818,3210001014636,登記記録の閉鎖等,0,2021-10-01,2021-09-29,Ａ＆Ｓ株式会社,,株式会社,福井県,吉田郡永平寺町,松岡兼定島第１４号３６番地７,,18,322,9101142,,,2021-09-29,清算の結了等,,,2015-10-05,1,,,,,エーアンドエス,0
822,3220005008476,登記記録の閉鎖等,0,2021-10-01,2021-09-28,一般社団法人みらいＤＡＩＴＯＫＵ,,その他の設立登記法人,石川県,金沢市,松村町ヌ４４番地,,17,201,9200347,,,2021-09-28,清算の結了等,,,2020-07-27,1,,,,,ミライダイトク,0
832,3260005002673,登記記録の閉鎖等,0,2021-10-01,2021-10-01,特定非営利活動法人岡山地酒応援団,,その他の設立登記法人,岡山県,岡山市北区,中山下２丁目５番５５号東中山下住宅５０６,,33,101,7000821,,,2021-10-01,清算の結了等,,,2015-10-05,1,,,,,オカヤマジザケオウエンダン,0
841,3290002043180,登記記録の閉鎖等,0,2021-10-01,2021-09-13,有限会社オートデザイン,,有限会社,福岡県,春日市,大谷４丁目３４番地１,,40,218,8160831,,,2021-09-13,清算の結了等,,,2015-10-05,1,,,,,オートデザイン,0
846,3290802018539,登記記録の閉鎖等,0,2021-10-01,2021-09-21,有限会社三友建設,,有限会社,福岡県,北九州市八幡東区,春の町５丁目１２番５号,,40,108,8050050,,,2021-09-21,清算の結了等,,,2015-10-05,1,,,,,サンユウケンセツ,0
851,3330001008444,登記記録の閉鎖等,0,2021-10-01,2021-09-28,熊本桜町再開発株式会社,,株式会社,熊本県,熊本市中央区,花畑町４番３号,,43,101,8600806,,,2021-09-28,清算の結了等,,,2015-10-05,1,,,,,クマモトサクラマチサイカイハツ,0
868,3370302000856,登記記録の閉鎖等,0,2021-10-01,2021-09-17,有限会社グループフローラ,,有限会社,宮城県,東松島市,矢本字河戸３４２番地２,,04,214,9810503,,,2021-09-17,清算の結了等,,,2015-10-05,1,,,,,グループフローラ,0
873,3380005002240,登記記録の閉鎖等,0,2021-10-01,2021-09-27,福島県ブランド材生産協同組合,,その他の設立登記法人,福島県,福島市,中町５番１８号,,07,201,9608043,,,2021-09-27,清算の結了等,,,2015-10-05,1,,,,,フクシマケンブランドザイセイサン,0
884,3410001002579,登記記録の閉鎖等,0,2021-10-01,2021-09-24,ヤマタニ国際興業株式会社,,株式会社,秋田県,秋田市,外旭川八柳１丁目１８番１０号,,05,201,0100803,,,2021-09-24,清算の結了等,,,2015-10-05,1,,,,,ヤマタニコクサイコウギョウ,0
887,3430001057282,登記記録の閉鎖等,0,2021-10-01,2021-09-30,株式会社小杉建材,,株式会社,北海道,登別市,緑町１丁目１５番地１,,01,230,0590024,,,2021-09-30,清算の結了等,,,2015-10-05,1,,,,,,0
893,3450001007161,登記記録の閉鎖等,0,2021-10-01,2021-09-30,株式会社ＣｈｒｉｓｔｍａｓＲｏｓｅ,,株式会社,北海道,上川郡鷹栖町,北野東五条３丁目５番８号,,01,452,0711225,,,2021-09-30,清算の結了等,,,2015-10-05,1,,,,,,0
898,3480002008206,登記記録の閉鎖等,0,2021-10-01,2021-09-24,山田産業有限会社,,有限会社,徳島県,勝浦郡上勝町,大字傍示字堂久保１１６番地,,36,302,7714504,,,2021-09-24,清算の結了等,,,2015-10-05,1,,,,,ヤマダサンギョウ,0
902,3490002003478,登記記録の閉鎖等,0,2021-10-01,2021-09-29,有限会社テライ工業,,有限会社,高知県,高知市,潮見台２丁目１１１０番地,,39,201,7815108,,,2021-09-29,清算の結了等,,,2015-10-05,1,,,,,テライコウギョウ,0
905,3500002004375,登記記録の閉鎖等,0,2021-10-01,2021-09-30,有限会社千種建設,,有限会社,愛媛県,松山市,高岡町７４７番地２,,38,201,7918036,,,2021-09-30,清算の結了等,,,2015-10-05,1,,,,,チグサケンセツ,0
940,4010405014490,登記記録の閉鎖等,0,2021-10-01,2021-09-27,一般社団法人国際取引業務検定協会,,その他の設立登記法人,東京都,千代田区,大手町２丁目６番２号,,13,101,1000004,,,2021-09-27,清算の結了等,,,2016-01-25,1,,,,,コクサイトリヒキギョウムケンテイキョウカイ,0
950,4010902004234,登記記録の閉鎖等,0,2021-10-01,2021-09-28,有限会社鎌滝商店,,有限会社,東京都,世田谷区,上北沢５丁目２７番１号,,13,112,1560057,,,2021-09-28,清算の結了等,,,2015-10-05,1,,,,,カマタキショウテン,0
969,4011501003321,登記記録の閉鎖等,0,2021-10-01,2021-09-28,特芸株式会社,,株式会社,東京都,北区,上中里２丁目２１番１０号,,13,117,1140016,,,2021-09-28,清算の結了等,,,2015-10-05,1,,,,,トクゲイ,0
976,4012403004267,登記記録の閉鎖等,0,2021-10-01,2021-09-21,ＥＬＥＶＥＮ　ＰＩＸＥＬ合同会社,,合同会社,東京都,三鷹市,下連雀３丁目３８番１４－７０１号,,13,204,1810013,,,2021-09-21,清算の結了等,,,2020-03-11,1,,,,,イレブンピクセル,0
977,4012701004679,登記記録の閉鎖等,0,2021-10-01,2021-09-30,株式会社ノア・システムズ,,株式会社,東京都,小平市,小川西町４丁目６番１２号,,13,211,1870035,,,2021-09-30,清算の結了等,,,2015-10-05,1,,,,,ノアシステムズ,0
981,4020001012088,登記記録の閉鎖等,0,2021-10-01,2021-09-28,丸友設備工業株式会社,,株式会社,神奈川県,横浜市青葉区,美しが丘５丁目３２番２２号,,14,117,2250002,,,2021-09-28,清算の結了等,,,2015-10-05,1,,,,,マルトモセツビコウギョウ,0
1002,4021002035532,登記記録の閉鎖等,0,2021-10-01,2021-09-29,有限会社丸山酒店,,有限会社,神奈川県,伊勢原市,西富岡７２９番地,,14,214,2591111,,,2021-09-29,清算の結了等,,,2015-10-05,1,,,,,マルヤマサケテン,0
1005,4030001028579,登記記録の閉鎖等,0,2021-10-01,2021-09-17,株式会社シブヤ美術,,株式会社,埼玉県,所沢市,大字荒幡８７５－８,,11,208,3591133,,,2021-09-17,清算の結了等,,,2015-10-05,1,,,,,シブヤビジュツ,0
1007,4030001140243,登記記録の閉鎖等,0,2021-10-01,2021-09-17,株式会社ＰＧ警備保障,,株式会社,埼玉県,富士見市,関沢１丁目３－５,,11,235,3540025,,,2021-09-17,清算の結了等,,,2021-01-21,1,,,,,ピージーケイビホショウ,0
1012,4030002121333,登記記録の閉鎖等,0,2021-10-01,2021-09-17,有限会社コイケ,,有限会社,埼玉県,秩父市,山田１８５５番地の２,,11,207,3680004,,,2021-09-17,清算の結了等,,,2015-10-05,1,,,,,コイケ,0
1026,4040002053162,登記記録の閉鎖等,0,2021-10-01,2021-09-22,山田ビル有限会社,,有限会社,千葉県,松戸市,稔台１丁目３１番地の７,,12,207,2702231,,,2021-09-22,清算の結了等,,,2015-10-05,1,,,,,ヤマダビル,0
1032,4050002023965,登記記録の閉鎖等,0,2021-10-01,2021-09-24,有限会社三協工業,,有限会社,茨城県,古河市,中田４４３番地,,08,204,3060053,,,2021-09-24,清算の結了等,,,2015-10-05,1,,,,,サンキョウコウギョウ,0
1049,4110002018827,登記記録の閉鎖等,0,2021-10-01,2021-09-27,有限会社朝日食品,,有限会社,新潟県,燕市,小高５０５番地,,15,213,9591241,,,2021-09-27,清算の結了等,,,2015-10-05,1,,,,,アサヒショクヒン,0
1061,4120001178150,登記記録の閉鎖等,0,2021-10-01,2021-09-27,株式会社エスエーアイ,,株式会社,大阪府,大阪市西区,北堀江２丁目９番１－９０３号,,27,106,5500014,,,2021-09-27,清算の結了等,,,2015-10-05,1,,,,,エスエーアイ,0
1065,4120001214590,登記記録の閉鎖等,0,2021-10-01,2021-09-21,株式会社Ｐｒｏｆｉ,,株式会社,千葉県,柏市,花野井１５３５番地３７,,12,217,2770812,,,2021-09-21,清算の結了等,,,2018-07-10,1,,,,,プロフィ,0
1068,4120002034212,登記記録の閉鎖等,0,2021-10-01,2021-09-28,イーブン有限会社,,有限会社,大阪府,大阪市北区,天満４丁目１番２号,,27,127,5300043,,,2021-09-28,清算の結了等,,,2015-10-05,1,,,,,イーブン,0
1071,4120002064481,登記記録の閉鎖等,0,2021-10-01,2021-09-28,有限会社橘川企画,,有限会社,大阪府,大阪市住之江区,西加賀屋１丁目２番５６－８１０号,,27,125,5590016,,,2021-09-28,清算の結了等,,,2015-10-05,1,,,,,キツカワキカク,0
1073,4120101021482,登記記録の閉鎖等,0,2021-10-01,2021-09-28,株式会社コアーズ,,株式会社,大阪府,堺市東区,北野田５１４番地５,,27,143,5998123,,,2021-09-28,清算の結了等,,,2015-10-05,1,,,,,コアーズ,0
1079,4120901016161,登記記録の閉鎖等,0,2021-10-01,2021-09-30,株式会社芝新聞舗,,株式会社,大阪府,摂津市,三島３丁目２番４５号,,27,224,5660022,,,2021-09-30,清算の結了等,,,2015-10-05,1,,,,,シバシンブンホ,0
1103,4180001096982,登記記録の閉鎖等,0,2021-10-01,2021-09-28,株式会社鈴木プロパン,,株式会社,愛知県,弥富市,鯏浦町上六６６番地１,,23,235,4980023,,,2021-09-28,清算の結了等,,,2015-10-05,1,,,,,スズキプロパン,0
1122,4180301025410,登記記録の閉鎖等,0,2021-10-01,2021-09-28,株式会社オルソカンパニー,,株式会社,愛知県,岡崎市,井田町字稲場１１番地４,,23,202,4440076,,,2021-09-28,合併による解散等,3180301012269,令和３年９月２８日愛知県岡崎市井田町字稲場１１番地４株式会社レガーメ（3180301012269）に合併し解散,2015-10-05,1,,,,,オルソカンパニー,0
1179,4500001009291,登記記録の閉鎖等,0,2021-10-01,2021-09-29,瀬戸設計監理株式会社,,株式会社,愛媛県,西条市,北条１６３０番地２,,38,206,7991354,,,2021-09-29,清算の結了等,,,2015-10-05,1,,,,,セトセッケイカンリ,0
1217,5010801011256,登記記録の閉鎖等,0,2021-10-01,2021-09-27,株式会社マリーン・ベスト,,株式会社,静岡県,伊東市,赤沢１番地の２,,22,208,4130233,,,2021-09-27,清算の結了等,,,2015-10-05,1,,,,,マリーンベスト,0
1218,5010801012072,登記記録の閉鎖等,0,2021-10-01,2021-09-22,株式会社山岸家具製作所,,株式会社,東京都,大田区,中央２丁目２１番２３号,,13,111,1430024,,,2021-09-22,清算の結了等,,,2015-10-05,1,,,,,ヤマギシカグセイサクシヨ,0
1235,5011101070802,登記記録の閉鎖等,0,2021-10-01,2021-09-28,イナズマスタジオ株式会社,,株式会社,神奈川県,川崎市多摩区,登戸新町３９番地２,,14,135,2140013,,,2021-09-28,清算の結了等,,,2015-10-05,1,,,,,イナズマスタジオ,0
1250,5012701004133,登記記録の閉鎖等,0,2021-10-01,2021-09-30,大寿技建株式会社,,株式会社,東京都,清瀬市,竹丘２丁目３番２４号,,13,221,2040023,,,2021-09-30,清算の結了等,,,2015-10-05,1,,,,,ダイジュギケン,0
1289,5030002090726,登記記録の閉鎖等,0,2021-10-01,2021-09-17,飛鳥交通吉川株式会社,,株式会社,埼玉県,吉川市,中島１丁目３２４番地１,,11,243,3420031,,,2021-09-17,合併による解散等,8011101060718,令和３年９月１日東京都新宿区新宿六丁目２７番４８号飛鳥ＢＧ株式会社（8011101060718）に合併し解散,2015-10-05,1,,,,,アスカコウツウヨシカワ,0
1295,5040002029913,登記記録の閉鎖等,0,2021-10-01,2021-09-24,有限会社バグース,,有限会社,千葉県,八千代市,萱田町１１１１番地の６,,12,221,2760044,,,2021-09-24,清算の結了等,,,2015-10-05,1,,,,,バグース,0
1296,5040002030177,登記記録の閉鎖等,0,2021-10-01,2021-09-22,有限会社ボディーショップ村上,,有限会社,千葉県,八千代市,村上１５９２番地１,,12,221,2760028,,,2021-09-22,清算の結了等,,,2015-10-05,1,,,,,ボディーショップムラカミ,0
1300,5050002036999,登記記録の閉鎖等,0,2021-10-01,2021-09-24,有限会社ジィー,,有限会社,茨城県,守谷市,松ケ丘７丁目１７番８,,08,224,3020127,,,2021-09-24,清算の結了等,,,2015-10-05,1,,,,,ジィー,0
1301,5050002044291,登記記録の閉鎖等,0,2021-10-01,2021-09-24,旭印刷有限会社,,有限会社,茨城県,結城市,大字結城３０１番地の１,,08,207,3070001,,,2021-09-24,清算の結了等,,,2015-10-05,1,,,,,アサヒインサツ,0
1315,5100001005462,登記記録の閉鎖等,0,2021-10-01,2021-09-28,伊藤商事株式会社,,株式会社,長野県,須坂市,大字須坂１４０３番地の２,,20,207,3820000,,,2021-09-28,清算の結了等,,,2015-10-05,1,,,,,イトウショウジ,0
1322,5110002008728,登記記録の閉鎖等,0,2021-10-01,2021-09-27,有限会社ハロー＆ハロー,,有限会社,新潟県,新潟市西区,浦山４丁目１４番２３号,,15,107,9502001,,,2021-09-27,清算の結了等,,,2015-10-05,1,,,,,ハローアンドハロー,0
1328,5120001128096,登記記録の閉鎖等,0,2021-10-01,2021-09-28,株式会社ダイニング・ラボ,,株式会社,大阪府,大阪市生野区,巽北３丁目１４番２４号フロムエヌズ北巽３０１号,00109110,27,116,5440004,,,2021-09-28,清算の結了等,,,2015-10-05,1,,,,,ダイニングラボ,0
1346,5140001066121,登記記録の閉鎖等,0,2021-10-01,2021-09-27,株式会社スイートガーデン・ホームズ,,株式会社,兵庫県,姫路市,西中島４１９番４,,28,201,6700805,,,2021-09-27,清算の結了等,,,2015-10-05,1,,,,,スイートガーデンホームズ,0
1354,5150002002495,登記記録の閉鎖等,0,2021-10-01,2021-09-29,有限会社ラ・ポーズ,,有限会社,奈良県,奈良市,芝辻町２丁目１１番６号,00043316,29,201,6308114,,,2021-09-29,清算の結了等,,,2015-10-05,1,,,,,ラポーズ,0
1355,5150002005060,登記記録の閉鎖等,0,2021-10-01,2021-09-29,有限会社立石,,有限会社,奈良県,大和郡山市,南郡山町１９２番地,,29,203,6391007,,,2021-09-29,清算の結了等,,,2015-10-05,1,,,,,タテイシ,0
1358,5180001025338,登記記録の閉鎖等,0,2021-10-01,2021-09-28,光栄ニット株式会社,,株式会社,愛知県,名古屋市西区,万代町２丁目４９番地,,23,104,4510074,,,2021-09-28,清算の結了等,,,2015-10-05,1,,,,,コウエイニット,0
1371,5180002065176,登記記録の閉鎖等,0,2021-10-01,2021-09-28,有限会社稲垣ベンダーサービス,,有限会社,愛知県,春日井市,大留町６丁目１６番地１０,,23,206,4870024,,,2021-09-28,清算の結了等,,,2015-10-05,1,,,,,イナガキベンダーサービス,0
1372,5180002079928,登記記録の閉鎖等,0,2021-10-01,2021-09-28,有限会社Ｉ．Ｔ．コーポレーション,,有限会社,愛知県,北名古屋市,九之坪市場８番地,,23,234,4810041,,,2021-09-28,清算の結了等,,,2015-10-05,1,,,,,アイティーコーポレーション,0
1380,5180301030327,登記記録の閉鎖等,0,2021-10-01,2021-09-30,東海興業株式会社,,株式会社,愛知県,西尾市,一色町対米洲田２７番地１,,23,213,4440406,,,2021-09-30,清算の結了等,,,2017-05-08,1,,,,,トウカイコウギョウ,0
1385,5190005005707,登記記録の閉鎖等,0,2021-10-01,2021-09-30,伊賀地区医薬分業推進事業協同組合,,その他の設立登記法人,三重県,伊賀市,四十九町８３１番地の４,,24,216,5180823,,,2021-09-30,清算の結了等,,,2015-10-05,1,,,,,イガチクイヤクブンギョウスイシン,0
1387,5200002006103,登記記録の閉鎖等,0,2021-10-01,2021-09-29,有限会社オーシャンズコーポレーション,,有限会社,岐阜県,岐阜市,茜部本郷２丁目８番地１,,21,201,5008262,,,2021-09-29,清算の結了等,,,2015-10-05,1,,,,,オーシャンズコーポレーション,0
1402,5260001004696,登記記録の閉鎖等,0,2021-10-01,2021-09-30,東備建材株式会社,,株式会社,岡山県,岡山市東区,西大寺南２丁目８番１０号,,33,103,7048117,,,2021-09-30,清算の結了等,,,2015-10-05,1,,,,,トウビケンザイ,0
1418,5290801013638,登記記録の閉鎖等,0,2021-10-01,2021-09-28,株式会社西日本・グランド・チキン,,株式会社,福岡県,遠賀郡岡垣町,東高陽１丁目２番１９号,,40,383,8114225,,,2021-09-28,清算の結了等,,,2015-10-05,1,,,,,ニシニホングランドチキン,0
1441,5370802000148,登記記録の閉鎖等,0,2021-10-01,2021-09-02,有限会社大友鉄工所,,有限会社,宮城県,名取市,閖上２丁目７番２６号,,04,207,9811213,,,2021-09-02,清算の結了等,,,2015-10-05,1,,,,,オオトモテッコウショ,0
1455,5420001014316,登記記録の閉鎖等,0,2021-10-01,2021-09-27,大和工業株式会社,,株式会社,青森県,八戸市,大字白銀町字白浜道１０番地１,,02,203,0310822,,,2021-09-27,清算の結了等,,,2015-10-05,1,,,,,ダイワコウギョウ,0
1462,5430002043874,登記記録の閉鎖等,0,2021-10-01,2021-09-22,ミキテクノ有限会社,,有限会社,北海道,石狩市,花川北六条４丁目１５８番地,,01,235,0613216,,,2021-09-22,清算の結了等,,,2015-10-05,1,,,,,ミキテクノ,0
1474,5490003001058,登記記録の閉鎖等,0,2021-10-01,2021-09-30,ｓｅｖｅｎ合同会社,,合同会社,高知県,南国市,大埇乙１８４０番地,00106905,39,204,7830005,,,2021-09-30,清算の結了等,,,2016-06-06,1,,,,,セブン,0
1488,6010003029360,登記記録の閉鎖等,0,2021-10-01,2021-09-24,ＤＨＦ仙台札幌合同会社,,合同会社,東京都,千代田区,飯田橋４丁目７番１号結和税理士法人内,,13,101,1020072,,,2021-09-24,清算の結了等,,,2019-02-27,1,,,,,ディーエイチエフセンダイサッポロ,0
1508,6010902025071,登記記録の閉鎖等,0,2021-10-01,2021-09-28,有限会社キッチン・ア・ラモード,,有限会社,東京都,世田谷区,上北沢１丁目５番６号,,13,112,1560057,,,2021-09-28,清算の結了等,,,2015-10-05,1,,,,,キッチンアラモード,0
1521,6011302008583,登記記録の閉鎖等,0,2021-10-01,2021-09-24,有限会社マキ建材工業,,有限会社,東京都,杉並区,今川３丁目３番１９号,,13,115,1670035,,,2021-09-24,清算の結了等,,,2015-10-05,1,,,,,マキケンザイコウギョウ,0
1536,6011802014321,登記記録の閉鎖等,0,2021-10-01,2021-09-29,有限会社菅エンジニアリング,,有限会社,東京都,足立区,千住緑町３丁目１９番１３号,,13,121,1200044,,,2021-09-29,清算の結了等,,,2015-10-05,1,,,,,スガエンジニアリング,0
1537,6011805000970,登記記録の閉鎖等,0,2021-10-01,2021-09-29,東京都足立区自動車整備事業協同組合,,その他の設立登記法人,東京都,足立区,保木間５丁目３３番４号,,13,121,1210064,,,2021-09-29,清算の結了等,,,2015-10-05,1,,,,,トウキョウトアダチクジドウシャセイビジギョウ,0
1541,6013101006487,登記記録の閉鎖等,0,2021-10-01,2021-09-29,株式会社エコ窓,,株式会社,東京都,西多摩郡日の出町,大字大久野８２６１番地１１,,13,305,1900181,,,2021-09-29,清算の結了等,,,2015-10-05,1,,,,,エコマド,0
1596,6050001046123,登記記録の閉鎖等,0,2021-10-01,2021-09-24,株式会社ＲＡＦＩ　ＴＲＡＤＩＮＧ,,株式会社,茨城県,筑西市,女方４８５番地,,08,227,3080854,,,2021-09-24,清算の結了等,,,2019-06-12,1,,,,,ラフィトレーディング,0
1605,6080005003027,登記記録の閉鎖等,0,2021-10-01,2021-09-29,三保造船所事業協同組合,,その他の設立登記法人,静岡県,静岡市清水区,三保３７９７番地三保造船所内,,22,103,4240901,,,2021-09-29,清算の結了等,,,2015-10-05,1,,,,,ミホゾウセンジョ,0
1619,6110003002687,登記記録の閉鎖等,0,2021-10-01,2021-09-24,合同会社ＬＩＥＮ,,合同会社,新潟県,阿賀野市,下一分１２９７番地,,15,223,9591912,,,2021-09-24,清算の結了等,,,2015-10-05,1,,,,,リアン,0
1620,6110005003700,登記記録の閉鎖等,0,2021-10-01,2021-09-27,農事組合法人笹神柿生産組合,,その他の設立登記法人,新潟県,阿賀野市,次郎丸３９３番地,,15,223,9591943,,,2021-09-27,清算の結了等,,,2015-10-05,1,,,,,ササカミカキセイサンクミアイ,0
1655,6122002005216,登記記録の閉鎖等,0,2021-10-01,2021-09-30,有限会社ワールド物流,,有限会社,大阪府,東大阪市,島之内２丁目９番３５号,,27,227,5780981,,,2021-09-30,清算の結了等,,,2015-10-05,1,,,,,ワールドブツリュウ,0
1663,6140001098601,登記記録の閉鎖等,0,2021-10-01,2021-09-27,株式会社Ｐ＆Ｐ研究所,,株式会社,兵庫県,神戸市兵庫区,和田宮通３丁目２番３９号,,28,105,6520863,,,2021-09-27,清算の結了等,,,2015-10-05,1,,,,,ピーアンドピーケンキュウショ,0
1675,6170001005496,登記記録の閉鎖等,0,2021-10-01,2021-09-28,株式会社シャンボール,,株式会社,和歌山県,海南市,名高２５８番地,,30,202,6420032,,,2021-09-28,清算の結了等,,,2015-10-05,1,,,,,シャンボール,0
1685,6180002087483,登記記録の閉鎖等,0,2021-10-01,2021-09-28,アイダ産業有限会社,,有限会社,愛知県,東海市,名和町南玄蕃８番地の１,,23,222,4760002,,,2021-09-28,清算の結了等,,,2015-10-05,1,,,,,アイダサンギョウ,0
1689,6180301027396,登記記録の閉鎖等,0,2021-10-01,2021-09-29,はぴねす株式会社,,株式会社,愛知県,豊橋市,東小田原町８番地,,23,201,4400886,,,2021-09-29,清算の結了等,,,2015-10-05,1,,,,,ハピネス,0
1699,6210002001812,登記記録の閉鎖等,0,2021-10-01,2021-09-28,有限会社春峰堂,,有限会社,福井県,福井市,花月２丁目８番９号,,18,201,9100022,,,2021-09-28,清算の結了等,,,2015-10-05,1,,,,,シュンポウドウ,0
1700,6210005009497,登記記録の閉鎖等,0,2021-10-01,2021-09-28,一般社団法人坂井市観光連盟,,その他の設立登記法人,福井県,坂井市,三国町北本町２丁目１番２０号,,18,210,9130046,,,2021-09-28,清算の結了等,,,2015-10-05,1,,,,,サカイシカンコウレンメイ,0
1710,6250002016963,登記記録の閉鎖等,0,2021-10-01,2021-09-28,有限会社佐伯商店,,有限会社,山口県,光市,上島田４丁目９番１７号,,35,210,7430065,,,2021-09-28,清算の結了等,,,2015-10-05,1,,,,,サエキショウテン,0
1718,6290001027207,登記記録の閉鎖等,0,2021-10-01,2021-09-10,株式会社プロボ,,株式会社,福岡県,福岡市中央区,春吉１丁目８番６－５０３号,,40,133,8100003,,,2021-09-10,清算の結了等,,,2015-10-05,1,,,,,プロボ,0
1732,6290802015574,登記記録の閉鎖等,0,2021-10-01,2021-09-24,有限会社山本製作所,,有限会社,福岡県,北九州市八幡西区,真名子１丁目１７番２１号,,40,109,8071144,,,2021-09-24,清算の結了等,,,2015-10-05,1,,,,,ヤマモトセイサクショ,0
1764,6370205000091,登記記録の閉鎖等,0,2021-10-01,2021-09-22,医療法人社団横山医院,,その他の設立登記法人,宮城県,遠田郡美里町,関根字道明４３番地,,04,505,9870006,,,2021-09-22,清算の結了等,,,2015-10-05,1,,,,,ヨコヤマイイン,0
1779,6460302000514,登記記録の閉鎖等,0,2021-10-01,2021-09-29,有限会社北見通信特機,,有限会社,北海道,北見市,無加川町４００番地の１７,,01,208,0900825,,,2021-09-29,清算の結了等,,,2015-10-05,1,,,,,キタミツウシントッキ,0
1801,7010001203486,登記記録の閉鎖等,0,2021-10-01,2021-09-27,大空工業株式会社,,株式会社,東京都,千代田区,六番町５番地５,,13,101,1020085,,,2021-09-27,清算の結了等,,,2019-09-02,1,,,,,オオゾラコウギョウ,0
1813,7010005030092,登記記録の閉鎖等,0,2021-10-01,2021-09-27,一般社団法人フォーチュン,,その他の設立登記法人,東京都,千代田区,五番町１２番地６五番町マンションＢ１Ｆ,,13,101,1020076,,,2021-09-27,清算の結了等,,,2019-04-25,1,,,,,フォーチュン,0
1815,7010401062706,登記記録の閉鎖等,0,2021-10-01,2021-09-29,株式会社ＧＬコネクト,,株式会社,東京都,港区,北青山２丁目５番１号伊藤忠ビル,,13,103,1070061,,,2021-09-29,清算の結了等,,,2015-10-05,1,,,,,ジーエルコネクト,0
1820,7010401147192,登記記録の閉鎖等,0,2021-10-01,2021-09-17,株式会社テックコミュニケーションラボ,,株式会社,東京都,港区,新橋５丁目１３番８号,,13,103,1050004,,,2021-09-17,清算の結了等,,,2019-08-01,1,,,,,テックコミュニケーションラボ,0
1859,7013401000800,登記記録の閉鎖等,0,2021-10-01,2021-09-16,株式会社ヨコヤマ通商,,株式会社,東京都,日野市,旭が丘１丁目７番地の３４,,13,212,1910065,,,2021-09-16,清算の結了等,,,2015-10-05,1,,,,,,0
1871,7021001033518,登記記録の閉鎖等,0,2021-10-01,2021-09-29,株式会社田代,,株式会社,神奈川県,小田原市,浜町３丁目６番１３号,,14,206,2500004,,,2021-09-29,清算の結了等,,,2015-10-05,1,,,,,,0
1882,7030001101705,登記記録の閉鎖等,0,2021-10-01,2021-09-17,株式会社興陽,,株式会社,埼玉県,越谷市,大成町２丁目１２２番地,,11,222,3430825,,,2021-09-17,清算の結了等,,,2015-10-05,1,,,,,コウヨウ,0
1911,7060002031196,登記記録の閉鎖等,0,2021-10-01,2021-09-28,有限会社舘野装飾,,有限会社,栃木県,小山市,大字雨ケ谷７７２番地１５,,09,208,3230826,,,2021-09-28,清算の結了等,,,2015-10-05,1,,,,,タテノソウショク,0
1915,7070002006370,登記記録の閉鎖等,0,2021-10-01,2021-09-24,有限会社江村建築,,有限会社,群馬県,前橋市,富士見町米野２６９番地の４,,10,201,3710111,,,2021-09-24,清算の結了等,,,2015-10-05,1,,,,,エムラケンチク,0
1921,7090002003341,登記記録の閉鎖等,0,2021-10-01,2021-09-27,有限会社ユアシセイドウみかど,,有限会社,山梨県,甲府市,塩部４丁目１４番３号,,19,201,4000026,,,2021-09-27,清算の結了等,,,2015-10-05,1,,,,,ユアシセイドウミカド,0
1926,7110001033675,登記記録の閉鎖等,0,2021-10-01,2021-09-24,株式会社アザイド,,株式会社,新潟県,新潟市東区,石山１丁目１番３０号,,15,102,9500852,,,2021-09-24,清算の結了等,,,2018-12-05,1,,,,,アザイド,0
1929,7120001097554,登記記録の閉鎖等,0,2021-10-01,2021-09-27,関西テック株式会社,,株式会社,大阪府,大阪市淀川区,田川３丁目５番７０号,,27,123,5320027,,,2021-09-27,清算の結了等,,,2015-10-05,1,,,,,カンサイテック,0
1936,7120002005508,登記記録の閉鎖等,0,2021-10-01,2021-09-24,有限会社けんしん,,有限会社,大阪府,大阪市東住吉区,南田辺１丁目９番１９号,,27,121,5460033,,,2021-09-24,清算の結了等,,,2015-10-05,1,,,,,ケンシン,0
1956,7140001099103,登記記録の閉鎖等,0,2021-10-01,2021-09-27,株式会社鶴長精工,,株式会社,兵庫県,加西市,玉野町字飯盛野１１５６－１２４,,28,220,6790107,,,2021-09-27,清算の結了等,,,2015-10-05,1,,,,,ツルナガセイコウ,0
1978,7180002063228,登記記録の閉鎖等,0,2021-10-01,2021-09-28,有限会社東郷商会,,有限会社,愛知県,愛知郡東郷町,大字和合字芦廻間１０１番地,00073279,23,302,4700153,,,2021-09-28,清算の結了等,,,2015-10-05,1,,,,,トウゴウショウカイ,0
1996,7250002019610,登記記録の閉鎖等,0,2021-10-01,2021-09-28,有限会社宇田メディカルソフト,,有限会社,山口県,柳井市,伊保庄５２００番地の１３,,35,212,7421352,,,2021-09-28,清算の結了等,,,2015-10-05,1,,,,,ウダメディカルソフト,0
2015,7290802015846,登記記録の閉鎖等,0,2021-10-01,2021-09-17,有限会社なかお,,有限会社,福岡県,北九州市八幡東区,平野１丁目３番７号,,40,108,8050062,,,2021-09-17,清算の結了等,,,2015-10-05,1,,,,,ナカオ,0
2020,7300005006575,登記記録の閉鎖等,0,2021-10-01,2021-09-28,一般社団法人西古賀,,その他の設立登記法人,佐賀県,鳥栖市,秋葉町１丁目９７５番地１,,41,203,8410036,,,2021-09-28,清算の結了等,,,2016-08-17,1,,,,,ニシコガ,0
2035,7380002010515,登記記録の閉鎖等,0,2021-10-01,2021-09-27,有限会社貴吉,,有限会社,福島県,郡山市,安積町日出山４丁目９１番地,,07,203,9630101,,,2021-09-27,清算の結了等,,,2015-10-05,1,,,,,タカヨシ,0
2084,8010005031081,登記記録の閉鎖等,0,2021-10-01,2021-09-27,南港プロパティー特定目的会社,,その他の設立登記法人,東京都,千代田区,丸の内１丁目１１番１号,,13,101,1000005,,,2021-09-27,清算の結了等,,,2019-11-19,1,,,,,ナンコウプロパティー,0
2115,8011002011563,登記記録の閉鎖等,0,2021-10-01,2021-09-13,有限会社桝仙商事,,有限会社,東京都,渋谷区,恵比寿４丁目１１番９号,,13,113,1500013,,,2021-09-13,清算の結了等,,,2015-10-05,1,,,,,マスセンショウジ,0
2116,8011002032865,登記記録の閉鎖等,0,2021-10-01,2021-09-13,有限会社ジョイント・チャイナ,,有限会社,東京都,渋谷区,代々木１丁目５５番１４号,,13,113,1510053,,,2021-09-13,清算の結了等,,,2015-10-05,1,,,,,ジョイントチャイナ,0
2139,8011802019013,登記記録の閉鎖等,0,2021-10-01,2021-09-30,有限会社丸安竹屋,,有限会社,東京都,足立区,梅田１丁目１０番４号,,13,121,1230851,,,2021-09-30,清算の結了等,,,2015-10-05,1,,,,,マルヤスタケヤ,0
2165,8030002054315,登記記録の閉鎖等,0,2021-10-01,2021-09-21,有限会社種屋,,有限会社,埼玉県,上尾市,仲町１丁目６番６号,,11,219,3620035,,,2021-09-21,清算の結了等,,,2015-10-05,1,,,,,タネヤ,0
2169,8030002115216,登記記録の閉鎖等,0,2021-10-01,2021-09-17,リダッシュホームクリエイト有限会社,,有限会社,埼玉県,熊谷市,大原１丁目１５番２３号,,11,202,3600812,,,2021-09-17,清算の結了等,,,2015-10-05,1,,,,,リダッシュホームクリエイト,0
2172,8030003005110,登記記録の閉鎖等,0,2021-10-01,2021-09-17,合同会社ナーガラージャキイ,,合同会社,埼玉県,ふじみ野市,上福岡１丁目１１番１２号フィオーレ６０１,,11,245,3560004,,,2021-09-17,清算の結了等,,,2015-10-05,1,,,,,ナーガラジャキイー,0
2173,8030005017871,登記記録の閉鎖等,0,2021-10-01,2021-09-03,イトーピア春日部マンション管理組合法人,,その他の設立登記法人,埼玉県,春日部市,中央１丁目４９番地２,,11,214,3440067,,,2021-09-03,清算の結了等,,,2016-04-12,1,,,,,イトーピアカスカベマンション,0
2200,8090005002166,登記記録の閉鎖等,0,2021-10-01,2021-09-10,特定非営利活動法人かがり火,,その他の設立登記法人,山梨県,南アルプス市,小笠原４７８番地４,,19,208,4000306,,,2021-09-10,清算の結了等,,,2015-10-05,1,,,,,カガリビ,0
2257,8150001005884,登記記録の閉鎖等,0,2021-10-01,2021-09-30,西部環境開発株式会社,,株式会社,奈良県,大和郡山市,田中町８６７番地,,29,203,6391028,,,2021-09-30,清算の結了等,,,2015-10-05,1,,,,,セイブカンキョウカイハツ,0
2258,8150001019694,登記記録の閉鎖等,0,2021-10-01,2021-09-30,株式会社章宝,,株式会社,奈良県,橿原市,内膳町１丁目２－３１,,29,205,6340804,,,2021-09-30,清算の結了等,,,2015-10-05,1,,,,,,0
2287,8230001008887,登記記録の閉鎖等,0,2021-10-01,2021-09-29,株式会社井口自工,,株式会社,富山県,南砺市,宮後１８４番地の３,,16,210,9391879,,,2021-09-29,清算の結了等,,,2015-10-05,1,,,,,イノクチジコウ,0
2312,8330002001055,登記記録の閉鎖等,0,2021-10-01,2021-09-28,有限会社魚住内装,,有限会社,熊本県,熊本市西区,池田１丁目１番７７－２０５号,,43,103,8600082,,,2021-09-28,清算の結了等,,,2015-10-05,1,,,,,ウオズミナイソウ,0
2321,8360005001941,登記記録の閉鎖等,0,2021-10-01,2021-09-27,特定非営利活動法人文化経済フォーラム,,その他の設立登記法人,沖縄県,中頭郡西原町,字翁長４５４番地の１７坂田ハイツＡ－３５,,47,329,9030117,,,2021-09-27,清算の結了等,,,2015-10-05,1,,,,,ブンカケイザイフォーラム,0
2324,8370501000553,登記記録の閉鎖等,0,2021-10-01,2021-09-21,株式会社川村商店,,株式会社,宮城県,本吉郡南三陸町,志津川字平磯２６番地３,,04,606,9860716,,,2021-09-21,清算の結了等,,,2015-10-05,1,,,,,カワムラショウテン,0
2326,8370803000136,登記記録の閉鎖等,0,2021-10-01,2021-09-14,合同会社泉谷船具店,,合同会社,宮城県,名取市,閖上２丁目４番７号,,04,207,9811213,,,2021-09-14,清算の結了等,,,2015-10-05,1,,,,,イズミヤフナグテン,0
2339,8450002002719,登記記録の閉鎖等,0,2021-10-01,2021-09-30,有限会社室内装飾はせがわ,,有限会社,北海道,旭川市,末広東二条５丁目４番２１号,,01,204,0718122,,,2021-09-30,清算の結了等,,,2015-10-05,1,,,,,シツナイソウショクハセガワ,0
2342,8480005003612,登記記録の閉鎖等,0,2021-10-01,2021-09-15,医療法人鶴岡内科社団,,その他の設立登記法人,徳島県,板野郡藍住町,東中富字龍池傍示５４番地３,,36,403,7711220,,,2021-09-15,清算の結了等,,,2015-10-05,1,,,,,ツルオカナイカシャダン,0
2348,8500003001697,登記記録の閉鎖等,0,2021-10-01,2021-09-27,合同会社オフィス・オランジェ,,合同会社,愛媛県,宇和島市,宇和津町３丁目２番２９号,,38,203,7980043,,,2021-09-27,清算の結了等,,,2015-10-05,1,,,,,オフィスオランジェ,0
2351,9010001015649,登記記録の閉鎖等,0,2021-10-01,2021-09-29,株式会社ケーアンドテーインターナショナル,,株式会社,東京都,中央区,日本橋中洲１１番１４－９０４号,,13,102,1030008,,,2021-09-29,清算の結了等,,,2015-10-05,1,,,,,ケーアンドテーインターナショナル,0
2360,9010003026628,登記記録の閉鎖等,0,2021-10-01,2021-09-28,合同会社ハピフルール,,合同会社,東京都,千代田区,六番町６番地１パレロワイヤル六番町７１０,,13,101,1020085,,,2021-09-28,清算の結了等,,,2017-12-19,1,,,,,ハピフルール,0
2387,9010501038942,登記記録の閉鎖等,0,2021-10-01,2021-09-27,株式会社ケイ綜合企画,,株式会社,千葉県,千葉市花見川区,南花園２丁目３－５第７花園ビル２０２,,12,102,2620022,,,2021-09-27,清算の結了等,,,2015-12-24,1,,,,,ケイソウゴウキカク,0
2399,9010901044524,登記記録の閉鎖等,0,2021-10-01,2021-09-28,株式会社ｄｅｆｒｏ－ｓｔａｒ,,株式会社,東京都,世田谷区,三宿１丁目６番１４号,,13,112,1540005,,,2021-09-28,清算の結了等,,,2019-07-12,1,,,,,デフロスター,0
2444,9020002013782,登記記録の閉鎖等,0,2021-10-01,2021-09-21,有限会社オーテック・ラボ,,有限会社,埼玉県,草加市,青柳５丁目２８番１３号,,11,221,3400002,,,2021-09-21,清算の結了等,,,2015-10-05,1,,,,,オーテックラボ,0
2454,9021005002574,登記記録の閉鎖等,0,2021-10-01,2021-09-28,相模原市設計協同組合,,その他の設立登記法人,神奈川県,相模原市中央区,中央１丁目９番１２号,,14,152,2520239,,,2021-09-28,清算の結了等,,,2015-10-05,1,,,,,サガミハラシセッケイ,0
2469,9030003014853,登記記録の閉鎖等,0,2021-10-01,2021-09-16,合同会社ＮＡＺＣＡ,,合同会社,東京都,港区,六本木３丁目１４－１２六本木三丁目ビル５０６,,13,103,1060032,,,2021-09-16,清算の結了等,,,2020-02-19,1,,,,,ナスカ,0
2478,9040002014531,登記記録の閉鎖等,0,2021-10-01,2021-09-21,有限会社ヤマタ,,有限会社,千葉県,千葉市花見川区,幕張町４丁目５５０番地,,12,102,2620032,,,2021-09-21,清算の結了等,,,2015-10-05,1,,,,,ヤマタ,0
2514,9120903002733,登記記録の閉鎖等,0,2021-10-01,2021-09-29,合同会社ここ茶ろん,,合同会社,大阪府,箕面市,西小路３丁目１２番６号,,27,220,5620003,,,2021-09-29,清算の結了等,,,2019-02-13,1,,,,,ココサロン,0
2526,9140001083848,登記記録の閉鎖等,0,2021-10-01,2021-09-24,株式会社ヒムカ,,株式会社,兵庫県,川西市,久代１丁目２５番２４号,,28,217,6660024,,,2021-09-24,清算の結了等,,,2015-10-05,1,,,,,ヒムカ,0
2536,9150001021105,登記記録の閉鎖等,0,2021-10-01,2021-09-29,株式会社どすこいプロモーションズ,,株式会社,奈良県,北葛城郡広陵町,馬見南１丁目１番９１号,,29,426,6350833,,,2021-09-29,清算の結了等,,,2016-11-16,1,,,,,ドスコイプロモーションズ,0
2539,9150002003300,登記記録の閉鎖等,0,2021-10-01,2021-09-29,有限会社ＭＵＳＣＡＲＩ,,有限会社,奈良県,奈良市,芝辻町２丁目１１番６号,00043322,29,201,6308114,,,2021-09-29,清算の結了等,,,2015-10-05,1,,,,,ムスカリ,0
2540,9160001001980,登記記録の閉鎖等,0,2021-10-01,2021-09-30,株式会社やちの商店,,株式会社,滋賀県,大津市,末広町４番１号,,25,201,5200056,,,2021-09-30,清算の結了等,,,2015-10-05,1,,,,,ヤチノショウテン,0
2541,9170001005576,登記記録の閉鎖等,0,2021-10-01,2021-09-28,株式会社石戸商店,,株式会社,和歌山県,海南市,船尾７０４番地の８２,,30,202,6420001,,,2021-09-28,清算の結了等,,,2015-10-05,1,,,,,イシドショウテン,0
2545,9180001059134,登記記録の閉鎖等,0,2021-10-01,2021-09-29,株式会社セイワコーポレーション,,株式会社,愛知県,春日井市,町田町２丁目８１番地,,23,206,4860936,,,2021-09-29,清算の結了等,,,2015-10-05,1,,,,,セイワコーポレーション,0
2546,9180001067293,登記記録の閉鎖等,0,2021-10-01,2021-09-29,株式会社和合,,株式会社,愛知県,みよし市,莇生町水洗４７番地,,23,236,4700206,,,2021-09-29,清算の結了等,,,2015-10-05,1,,,,,ワゴウ,0
2563,9220001006049,登記記録の閉鎖等,0,2021-10-01,2021-09-29,北辰地所株式会社,,株式会社,石川県,金沢市,四十万町北イ７４番地,,17,201,9218133,,,2021-09-29,清算の結了等,,,2015-10-05,1,,,,,ホクシンジショ,0
2593,9340002017181,登記記録の閉鎖等,0,2021-10-01,2021-09-27,有限会社百合組,,有限会社,鹿児島県,薩摩川内市,矢倉町４６２７番地,,46,215,8950036,,,2021-09-27,清算の結了等,,,2015-10-05,1,,,,,ユリグミ,0
2604,9370001046996,登記記録の閉鎖等,0,2021-10-01,2021-09-17,株式会社ＦＩＮＡＬＬＹ,,株式会社,宮城県,仙台市青葉区,熊ケ根字檀の原二番３４番地の３,,04,101,9893432,,,2021-09-17,清算の結了等,,,2021-04-19,1,,,,,ファイナリー,0
2605,9370002016445,登記記録の閉鎖等,0,2021-10-01,2021-09-21,有限会社ビジネスサポート仙台,,有限会社,宮城県,仙台市宮城野区,鶴ケ谷東３丁目８番１号,,04,102,9830826,,,2021-09-21,清算の結了等,,,2015-10-05,1,,,,,ビジネスサポートセンダイ,0
2618,9430001018543,登記記録の閉鎖等,0,2021-10-01,2021-09-22,株式会社隆文堂,,株式会社,北海道,札幌市中央区,北一条西１９丁目２番地８,,01,101,0600001,,,2021-09-22,清算の結了等,,,2015-10-05,1,,,,,リュウブンドウ,0
2626,9430002054645,登記記録の閉鎖等,0,2021-10-01,2021-09-24,空知石炭興業有限会社,,有限会社,北海道,小樽市,色内２丁目９番７号,,01,203,0470031,,,2021-09-24,清算の結了等,,,2015-10-05,1,,,,,ソラチセキタンコウギョウ,0
2634,9450002002569,登記記録の閉鎖等,0,2021-10-01,2021-09-30,有限会社サンリツ,,有限会社,北海道,旭川市,永山十条８丁目５番１４号,,01,204,0798420,,,2021-09-30,清算の結了等,,,2015-10-05,1,,,,,サンリツ,0
