sequenceNumber,corporateNumber,process,correct,updateDate,changeDate,name,nameImageId,kind,prefectureName,cityName,streetNumber,addressImageId,prefectureCode,cityCode,postCode,addressOutside,addressOutsideImageId,closeDate,closeCause,successorCorporateNumber,changeCause,assignmentDate,latest,enName,enPrefectureName,enCityName,enAddressOutside,furigana,hihyoji
7,1010001245113,新規,0,2024-05-27,2024-05-27,智歳株式会社,,株式会社,東京都,千代田区,丸の内１丁目６番２号新丸の内センタービル２１階,,13,101,1000005,,,,,,,2024-05-27,1,,,,,チトセ,0
8,1010001245146,新規,0,2024-05-27,2024-05-27,株式会社ＡＩベストパートナーズ,,株式会社,東京都,文京区,本郷６丁目２５番１４号,,13,105,1130033,,,,,,,2024-05-27,1,,,,,エーアイベストパートナーズ,0
9,1010001245162,新規,0,2024-05-27,2024-05-27,ティーエルシーカンパニュラ株式会社,,株式会社,東京都,千代田区,神田練塀町３番地,,13,101,1010022,,,,,,,2024-05-27,1,,,,,ティーエルシーカンパニュラ,0
10,1010001245170,新規,0,2024-05-27,2024-05-27,ティーエルシーカポック株式会社,,株式会社,東京都,千代田区,神田練塀町３番地,,13,101,1010022,,,,,,,2024-05-27,1,,,,,ティーエルシーカポック,0
13,1010003043829,新規,0,2024-05-27,2024-05-27,グリコ合同会社,,合同会社,東京都,千代田区,霞が関３丁目２番１号,,13,101,1000013,,,,,,,2024-05-27,1,,,,,グリコ,0
21,1010401182674,新規,0,2024-05-27,2024-05-27,株式会社ＮＥＸＴＬＥＶＥＬ,,株式会社,東京都,港区,高輪２丁目１６－５２パラシオン高輪５０３,,13,103,1080074,,,,,,,2024-05-27,1,,,,,ネクストレベル,0
22,1010401182749,新規,0,2024-05-27,2024-05-27,株式会社Ｓｕｎｋｅｔ　Ｊａｐａｎ,,株式会社,東京都,港区,港南２丁目１６番２号太陽生命品川ビル２８階,,13,103,1080075,,,,,,,2024-05-27,1,,,,,サンケットジャパン,0
25,1010403032695,新規,0,2024-05-27,2024-05-27,合同会社Ｃｈａｎｔ,,合同会社,東京都,港区,虎ノ門１丁目１番１８号ヒューリック虎ノ門ビル９階Ｌ＆Ｐ司法書士法人内,,13,103,1050001,,,,,,,2024-05-27,1,,,,,チャント,0
36,1010801035085,新規,0,2024-05-27,2024-05-27,ＳＫ　ｔｒａｄｉｎｇ株式会社,,株式会社,東京都,大田区,南六郷３丁目３番２３－２０１号,,13,111,1440045,,,,,,,2024-05-27,1,,,,,エスケートレーディング,0
43,1011001162109,新規,0,2024-05-27,2024-05-27,株式会社こめだわら,,株式会社,東京都,渋谷区,道玄坂１丁目１０番８号渋谷道玄坂東急ビル２Ｆ－Ｃ,,13,113,1500043,,,,,,,2024-05-27,1,,,,,コメダワラ,0
44,1011001162174,新規,0,2024-05-27,2024-05-27,株式会社マキシム・ド・マキマキ,,株式会社,東京都,渋谷区,渋谷２丁目８－１０,,13,113,1500002,,,,,,,2024-05-27,1,,,,,マキシムドマキマキ,0
45,1011001162249,新規,0,2024-05-27,2024-05-27,株式会社ＡＫ,,株式会社,東京都,渋谷区,渋谷２丁目１９－１５宮益坂ビルディング６０９,,13,113,1500002,,,,,,,2024-05-27,1,,,,,エーケー,0
47,1011003019240,新規,0,2024-05-27,2024-05-27,合同会社亜未,,合同会社,東京都,渋谷区,恵比寿西２丁目８番４号,,13,113,1500021,,,,,,,2024-05-27,1,,,,,アミ,0
48,1011003019257,新規,0,2024-05-27,2024-05-27,合同会社ＥＭＤＭ,,合同会社,東京都,渋谷区,神南１丁目１１番３号,,13,113,1500041,,,,,,,2024-05-27,1,,,,,イーエムディーエム,0
50,1011101107418,新規,0,2024-05-27,2024-05-27,株式会社ｙｏｕ＆ｍｙ,,株式会社,東京都,新宿区,大京町２番地４,,13,104,1600015,,,,,,,2024-05-27,1,,,,,ユーアンドマイ,0
51,1011101107459,新規,0,2024-05-27,2024-05-27,株式会社ＳＡＩ,,株式会社,東京都,新宿区,四谷三栄町９番５号坊ビル３階,,13,104,1600008,,,,,,,2024-05-27,1,,,,,エスエイアイ,0
60,1011401026045,新規,0,2024-05-27,2024-05-27,株式会社星川商事,,株式会社,東京都,板橋区,高島平８丁目１５番１０－５１１,,13,119,1750082,,,,,,,2024-05-27,1,,,,,ホシカワショウジ,0
64,1011701027321,新規,0,2024-05-27,2024-05-27,ミツマルホーム株式会社,,株式会社,東京都,江戸川区,宇喜田町１４６１番地３,,13,123,1340082,,,,,,,2024-05-27,1,,,,,ミツマルホーム,0
65,1011703003816,新規,0,2024-05-27,2024-05-27,佳合商事合同会社,,合同会社,東京都,江戸川区,南葛西５丁目５－１８アイリーヴァ４０１,,13,123,1340085,,,,,,,2024-05-27,1,,,,,カゴウショウジ,0
66,1011703003832,新規,0,2024-05-27,2024-05-27,合同会社ＴＦ,,合同会社,東京都,江戸川区,中葛西６丁目３番１０－２０８号,,13,123,1340083,,,,,,,2024-05-27,1,,,,,ティーエフ,0
72,1012801023193,新規,0,2024-05-27,2024-05-27,株式会社百年企業ホールディングス,,株式会社,東京都,立川市,柴崎町２丁目３番２号２Ｆ,,13,202,1900023,,,,,,,2024-05-27,1,,,,,ヒャクネンキギョウホールディングス,0
78,1020001157415,新規,0,2024-05-27,2024-05-27,株式会社Ｉｓ,,株式会社,神奈川県,横浜市緑区,青砥町１７２番地３８,,14,113,2260022,,,,,,,2024-05-27,1,,,,,イズ,0
79,1020001157423,新規,0,2024-05-27,2024-05-27,横浜ＣＡＲＲＩＥＲ株式会社,,株式会社,神奈川県,横浜市緑区,中山３丁目２１番Ａ－４０２号,,14,113,2260019,,,,,,,2024-05-27,1,,,,,ヨコハマキャリア,0
82,1020003026213,新規,0,2024-05-27,2024-05-27,ＮｏｔｅＴｒａｉｌ合同会社,,合同会社,神奈川県,横浜市西区,浅間町１丁目４番３号ウィザードビル４０２,,14,103,2200072,,,,,,,2024-05-27,1,,,,,ノートトレイル,0
83,1020003026221,新規,0,2024-05-27,2024-05-27,ｍａｎａｇｅｍｅｎｔ　ｏｆｆｉｃｅ　Ｓ合同会社,,合同会社,神奈川県,横浜市戸塚区,原宿４丁目７番８号,,14,110,2450063,,,,,,,2024-05-27,1,,,,,マネジメントオフィスエス,0
88,1030001160533,新規,0,2024-05-27,2024-05-27,株式会社ＲＵＲＵプロダクト,,株式会社,埼玉県,川口市,大字石神２３８番地の１４,,11,203,3330823,,,,,,,2024-05-27,1,,,,,ルルプロダクト,0
89,1030001160558,新規,0,2024-05-27,2024-05-27,オーロライノベーション株式会社,,株式会社,埼玉県,川口市,西川口１丁目１６番６－２０１号,,11,203,3320021,,,,,,,2024-05-27,1,,,,,オーロライノベーション,0
90,1030001160574,新規,0,2024-05-27,2024-05-27,株式会社勇星,,株式会社,埼玉県,川口市,榛松３丁目４４番７号,,11,203,3340062,,,,,,,2024-05-27,1,,,,,ユウセイ,0
91,1030001160582,新規,0,2024-05-27,2024-05-27,株式会社ＫＩＮＧ工業,,株式会社,埼玉県,川口市,大字木曽呂３７２番地グリーンコーポＡ２０２,,11,203,3330831,,,,,,,2024-05-27,1,,,,,キングコウギョウ,0
94,1030003024380,新規,0,2024-05-27,2024-05-27,合同会社マルモータース,,合同会社,埼玉県,鴻巣市,鎌塚２丁目１２番２９号,,11,217,3690112,,,,,,,2024-05-27,1,,,,,マルモータース,0
103,1060003005089,新規,0,2024-05-27,2024-05-27,合同会社ＦＡＴＩＭＡ　ＴＲＡＤＩＮＧ,,合同会社,栃木県,小山市,大字乙女１３４７番地１７,,09,208,3290214,,,,,,,2024-05-27,1,,,,,ファティマトレーディング,0
107,1070001041787,新規,0,2024-05-27,2024-05-27,株式会社ＺＥＮファーム,,株式会社,群馬県,沼田市,久屋原４９番地１２,,10,206,3780000,,,,,,,2024-05-27,1,,,,,ゼンファーム,0
110,1080001026317,新規,0,2024-05-27,2024-05-27,株式会社樹,,株式会社,静岡県,藤枝市,志太２丁目１６番５号,,22,214,4260071,,,,,,,2024-05-27,1,,,,,イツキ,0
126,1120001265265,新規,0,2024-05-27,2024-05-27,イソップ株式会社,,株式会社,大阪府,大阪市西区,靱本町３丁目９番９号奥内第２ビル４０８室,,27,106,5500004,,,,,,,2024-05-27,1,,,,,イソップ,0
127,1120001265273,新規,0,2024-05-27,2024-05-27,華匯株式会社,,株式会社,大阪府,大阪市中央区,谷町６丁目４－３４ＪＰアパートメント大阪谷町３０３室,,27,128,5420012,,,,,,,2024-05-27,1,,,,,カカイ,0
128,1120001265307,新規,0,2024-05-27,2024-05-27,株式会社Ｂｒｅｅｄ,,株式会社,大阪府,大阪市住吉区,長居２丁目１０番３－２０３号,,27,120,5580003,,,,,,,2024-05-27,1,,,,,ブリード,0
129,1120001265323,新規,0,2024-05-27,2024-05-27,株式会社永純,,株式会社,大阪府,大阪市東淀川区,柴島３丁目９番２４号,,27,114,5330024,,,,,,,2024-05-27,1,,,,,エイジュン,0
137,1120101069649,新規,0,2024-05-27,2024-05-27,天興株式会社,,株式会社,大阪府,岸和田市,松風町１３番５８号春木ｗｏｒｋｓｐａｃｅ２０２号室,,27,202,5960021,,,,,,,2024-05-27,1,,,,,テンコウ,0
138,1120901049222,新規,0,2024-05-27,2024-05-27,株式会社さ・いこう,,株式会社,大阪府,高槻市,高西町２２番１２号,,27,207,5690061,,,,,,,2024-05-27,1,,,,,サイコウ,0
143,1140001134534,新規,0,2024-05-27,2024-05-27,株式会社神長,,株式会社,兵庫県,神戸市長田区,長田天神町６丁目４番１１号,,28,106,6530882,,,,,,,2024-05-27,1,,,,,カミナガ,0
146,1140003020617,新規,0,2024-05-27,2024-05-27,合同会社ＣＨ　Ｃｅｙｌｏｎ,,合同会社,兵庫県,神戸市東灘区,魚崎南町３丁目１７番２６号,,28,101,6580025,,,,,,,2024-05-27,1,,,,,シーエッチセイロン,0
154,1180003026833,新規,0,2024-05-27,2024-05-27,合同会社ｉ‐ｔｅａｍｓメディカルサポート,,合同会社,愛知県,名古屋市中川区,島井町２１３番地の３,,23,110,4540974,,,,,,,2024-05-27,1,,,,,アイチームスメディカルサポート,0
163,1220001026021,新規,0,2024-05-27,2024-05-27,株式会社あゆみ,,株式会社,石川県,金沢市,諸江町下丁２２１‐１コーポ野崎１０２号,,17,201,9200017,,,,,,,2024-05-27,1,,,,,アユミ,0
168,1240001063277,新規,0,2024-05-27,2024-05-27,株式会社山建,,株式会社,広島県,広島市安佐南区,山本新町５丁目２５番１７号,,34,105,7310139,,,,,,,2024-05-27,1,,,,,ヤマケン,0
172,1260005011362,新規,0,2024-05-27,2024-05-27,一般社団法人熊代,,その他の設立登記法人,岡山県,岡山市北区,花尻あかね町３番地１０７,,33,101,7010133,,,,,,,2024-05-27,1,,,,,クマシロ,0
177,1290001105859,新規,0,2024-05-27,2024-05-27,株式会社Ｒｉｖｅｒｓｌｅａ,,株式会社,福岡県,糸島市,井田５１３番地７,,40,230,8191562,,,,,,,2024-05-27,1,,,,,リバズリー,0
178,1290001105925,新規,0,2024-05-27,2024-05-27,株式会社Ｒ,,株式会社,福岡県,糸島市,泊１９８－４,,40,230,8191111,,,,,,,2024-05-27,1,,,,,アール,0
179,1290001105933,新規,0,2024-05-27,2024-05-27,株式会社ＦＩＲＳＴ　ＳＴＥＰ,,株式会社,福岡県,福津市,若木台４丁目８－７,,40,224,8113221,,,,,,,2024-05-27,1,,,,,ファーストステップ,0
184,1290003015346,新規,0,2024-05-27,2024-05-27,アシスト合同会社,,合同会社,福岡県,福岡市博多区,博多駅南６丁目１２番９－１号テラスハウス・ひかり２０３号,,40,132,8120016,,,,,,,2024-05-27,1,,,,,アシスト,0
200,1330003010391,新規,0,2024-05-27,2024-05-27,合同会社リトマス,,合同会社,熊本県,熊本市南区,良町１丁目１番３７‐２号,,43,104,8620969,,,,,,,2024-05-27,1,,,,,リトマス,0
205,1360003013994,新規,0,2024-05-27,2024-05-27,ｍｅｉｒｉｎ合同会社,,合同会社,沖縄県,糸満市,字武富２８２－Ｇケイズマンション１０１,,47,210,9010311,,,,,,,2024-05-27,1,,,,,メイリン,0
206,1360003014010,新規,0,2024-05-27,2024-05-27,合同会社新與産業,,合同会社,沖縄県,中頭郡西原町,字幸地４９７番地,,47,329,9030116,,,,,,,2024-05-27,1,,,,,シンヨサンギョウ,0
221,1430001091886,新規,0,2024-05-27,2024-05-27,株式会社れおなび,,株式会社,北海道,札幌市北区,新川西二条５丁目１番１７号,,01,102,0010932,,,,,,,2024-05-27,1,,,,,レオナビ,0
231,1700150118504,新規,0,2024-05-27,2024-05-27,ｓｈｅｎｚｈｅｎｓｈｕｎｌａｉｐｒｉｎｔｉｎｇＣｏ．，Ｌｔｄ．,,外国会社等,,,,,,,,ｇｕａｎｇｍｉｎｇｘｉｎｑｕｍａｔｉａｎｊｉｅｄａｏｘｉｎｚｈｕａｎｇｓｈｅｑｕｘｉｎｗｅｉｌｕ４９ｈａｏｒｕｉｌｉｔｏｎｇｇｏｎｇｙｅｙｕａｎＢｄｏｎｇ３ｌｏｕｓｈｅｎｚｈｅｎｓｈｉｇｕａｎｇｄｏｎｇｓｈｅｎｇ５１８０００ＣＮ,,,,,,2024-05-27,1,,,,,シェンジェンシシュンライプリンティングカンパニーリミテッド,0
232,1700150120716,新規,0,2024-05-27,2024-05-27,Ｇｕａｎｇｚｈｏｕｆｅｉｌｅｇｕｏｊｉｍａｏｙｉｙｏｕｘｉａｎｇｏｎｇｓｉ,,外国会社等,,,,,,,,Ｎａｎｓｈａｑｕ，Ｆｅｎｇｚｅｄｏｎｇｌｕ　１０６ｈａｏ（ｚｉ　ｂｉａｎ　１ｈａｏ　ｌｏｕ）Ｘ１３０１－Ｅ８２７６（ｊｉ　ｑｕｎ　ｚｈｕ　ｃｅ）（ＪＭ）Ｇｕａｎｇｚｈｏｕ　Ｇｕａｎｇｄｏｎｇ,,,,,,2024-05-27,1,,,,,グワンジョウフェイロァグオジマオイヨウシエンゴンス,0
233,1700150125590,新規,0,2024-05-27,2024-05-27,Ｎｉｎｇｂｏ　Ｓｅａｇｏ　Ｅｌｅｃｔｒｉｃ　Ｃｏ．，Ｌｔｄ,,外国会社等,,,,,,,,ｊｉａｎｇｈｕｌｕ２３９　Ｎｉｎｇｂｏ　ｚｈｅｊｉａｎｇ,,,,,,2024-05-27,1,,,,,ニーンボーサイジアディエンチイヨウシエンゴーンスー,0
246,2010001245095,新規,0,2024-05-27,2024-05-27,株式会社Ｏｆｆｉｃｅ　ＹＴ,,株式会社,東京都,千代田区,平河町１丁目６番１５号ＵＳビル８Ｆ,,13,101,1020093,,,,,,,2024-05-27,1,,,,,オフィスワイティ,0
247,2010001245112,新規,0,2024-05-27,2024-05-27,株式会社熙橋スマートソリューションズ,,株式会社,東京都,千代田区,神田三崎町２丁目１０番１１号Ｐｅｇビル２Ａ－２,,13,101,1010061,,,,,,,2024-05-27,1,,,,,ヒロハシスマートソリューションズ,0
248,2010001245161,新規,0,2024-05-27,2024-05-27,ティーエルシーゼラニウム株式会社,,株式会社,東京都,千代田区,神田練塀町３番地,,13,101,1010022,,,,,,,2024-05-27,1,,,,,ティーエルシーゼラニウム,0
249,2010001245178,新規,0,2024-05-27,2024-05-27,株式会社根本杏林堂研究所,,株式会社,東京都,文京区,本郷２丁目２７番２０号,,13,105,1130033,,,,,,,2024-05-27,1,,,,,ネモトキョウリンドウケンキュウジョ,0
250,2010001245203,新規,0,2024-05-27,2024-05-27,サカタブランドソリューションズ株式会社,,株式会社,東京都,文京区,後楽１丁目４番２５号,,13,105,1120004,,,,,,,2024-05-27,1,,,,,サカタブランドソリューションズ,0
251,2010003043844,新規,0,2024-05-27,2024-05-27,シタデル・ジャパン・サービシーズ合同会社,,合同会社,東京都,千代田区,丸の内３丁目２番３号丸の内二重橋ビル１８階,,13,101,1000005,,,,,,,2024-05-27,1,,,,,シタデルジャパンサービシーズ,0
252,2010005038339,新規,0,2024-05-27,2024-05-27,一般社団法人発寒ホールディングス,,その他の設立登記法人,東京都,千代田区,内幸町２丁目１番６号,,13,101,1000011,,,,,,,2024-05-27,1,,,,,ハッサムホールディングス,0
258,2010403032694,新規,0,2024-05-27,2024-05-27,合同会社Ｌｏｏｋｏｕｔ,,合同会社,東京都,港区,虎ノ門１丁目１番１８号ヒューリック虎ノ門ビル９階Ｌ＆Ｐ司法書士法人内,,13,103,1050001,,,,,,,2024-05-27,1,,,,,ルックアウト,0
262,2010501052330,新規,0,2024-05-27,2024-05-27,ＰＤＸジャパン株式会社,,株式会社,東京都,台東区,上野１丁目１０番地８,,13,106,1100005,,,,,,,2024-05-27,1,,,,,ピーディーエックスジャパン,0
264,2010503007456,新規,0,2024-05-27,2024-05-27,ＴＫＳ　Ｐｌａｎｎｉｎｇ合同会社,,合同会社,東京都,台東区,浅草３丁目２２－１１日神パレステージ浅草６０３,,13,106,1110032,,,,,,,2024-05-27,1,,,,,ティーケーエスプランニング,0
270,2010803004962,新規,0,2024-05-27,2024-05-27,合同会社ＢＯＡ　ＶＩＳＴＡ,,合同会社,東京都,大田区,南馬込４丁目１３番１０号,,13,111,1430025,,,,,,,2024-05-27,1,,,,,ボアビスタ,0
274,2010901055346,新規,0,2024-05-27,2024-05-27,株式会社ＫＡＫＫＯ,,株式会社,東京都,世田谷区,代沢５丁目３２－１０ラパシオン下北沢２Ｄ,,13,112,1550032,,,,,,,2024-05-27,1,,,,,カッコ,0
276,2010903009093,新規,0,2024-05-27,2024-05-27,Ｈ＆Ｙジャパン合同会社,,合同会社,東京都,世田谷区,南烏山２丁目２８番７号リーガランド烏山４０４,,13,112,1570062,,,,,,,2024-05-27,1,,,,,エイチアンドワイジャパン,0
284,2011001162231,新規,0,2024-05-27,2024-05-27,株式会社Ｊ‐Ｓｈｉｎｅ,,株式会社,東京都,目黒区,平町１丁目１７番１号,,13,110,1520032,,,,,,,2024-05-27,1,,,,,ジェイシャイン,0
285,2011001162256,新規,0,2024-05-27,2024-05-27,株式会社ＴＨＥ　ＳＴＲＥＡＫ,,株式会社,東京都,渋谷区,桜丘町１８番４号二宮ビル１ＦｂｉｌｌａｇｅＳＨＩＢＵＹＡ１０３,,13,113,1500031,,,,,,,2024-05-27,1,,,,,ザストリーク,0
289,2011005010527,新規,0,2024-05-27,2024-05-27,一般社団法人Ｍ‐ＢＩＣ,,その他の設立登記法人,東京都,目黒区,駒場４丁目６番１号東京大学生産技術研究所Ｃｗ５０１,,13,110,1530041,,,,,,,2024-05-27,1,,,,,エムビック,0
291,2011301029691,新規,0,2024-05-27,2024-05-27,株式会社Ｆｏｏｄ　ａｎｄ　Ｌｉｆｅ,,株式会社,東京都,杉並区,高円寺南２丁目５３－４－３０４,,13,115,1660003,,,,,,,2024-05-27,1,,,,,,0
297,2011701027312,新規,0,2024-05-27,2024-05-27,株式会社ＢＯＮＤ　ＥＦＦＥＣＴ,,株式会社,東京都,江戸川区,興宮町２８－１８,,13,123,1330042,,,,,,,2024-05-27,1,,,,,ボンドエフェクト,0
299,2011703003831,新規,0,2024-05-27,2024-05-27,ワイズコーポレーション合同会社,,合同会社,東京都,江戸川区,南葛西７丁目１－７なぎさニュータウン７号棟１０６号室,,13,123,1340085,,,,,,,2024-05-27,1,,,,,ワイズコーポレーション,0
302,2012701018276,新規,0,2024-05-27,2024-05-27,株式会社建木,,株式会社,東京都,東久留米市,下里２丁目７番３９号,,13,222,2030043,,,,,,,2024-05-27,1,,,,,タツキ,0
304,2012803003408,新規,0,2024-05-27,2024-05-27,合同会社アヴァンセ,,合同会社,東京都,日野市,豊田４丁目３５番地の６,,13,212,1910053,,,,,,,2024-05-27,1,,,,,アヴァンセ,0
309,2013301052574,新規,0,2024-05-27,2024-05-27,株式会社イーリングプロダクション,,株式会社,東京都,豊島区,池袋４丁目１１番１２号,,13,116,1710014,,,,,,,2024-05-27,1,,,,,イーリングプロダクション,0
310,2013301052590,新規,0,2024-05-27,2024-05-27,株式会社コンテンツコレクション,,株式会社,東京都,豊島区,南池袋１丁目７番１６号ワコーレ目白マンション３１３号,,13,116,1710022,,,,,,,2024-05-27,1,,,,,コンテンツコレクション,0
320,2020001157380,新規,0,2024-05-27,2024-05-27,株式会社ファミリア,,株式会社,神奈川県,川崎市川崎区,追分町１３番５号フローラハイツ２０１,,14,131,2100835,,,,,,,2024-05-27,1,,,,,ファミリア,0
321,2020001157414,新規,0,2024-05-27,2024-05-27,株式会社田口商店,,株式会社,神奈川県,横浜市中区,黄金町１丁目６番地,,14,104,2310054,,,,,,,2024-05-27,1,,,,,タグチショウテン,0
322,2020001157439,新規,0,2024-05-27,2024-05-27,株式会社ｐｅａｆｏｗｌ,,株式会社,神奈川県,横浜市磯子区,東町１５－３２モンビル横浜根岸４０６,,14,107,2350005,,,,,,,2024-05-27,1,,,,,ピーファウル,0
323,2020001157447,新規,0,2024-05-27,2024-05-27,吉澤エステート株式会社,,株式会社,神奈川県,横浜市鶴見区,向井町１丁目５９番地の２,,14,101,2300037,,,,,,,2024-05-27,1,,,,,ヨシザワエステート,0
327,2020005016434,新規,0,2024-05-27,2024-05-27,一般社団法人ＡＩＮＯＷＡギフト教育ラボ,,その他の設立登記法人,神奈川県,横浜市西区,北幸２丁目１０番４８号むつみビル３階,,14,103,2200004,,,,,,,2024-05-27,1,,,,,アイノワギフトキョウイクラボ,0
333,2021001082239,新規,0,2024-05-27,2024-05-27,株式会社ＣＲＥＴＩＳ．,,株式会社,神奈川県,小田原市,延清２１４番地の２,,14,206,2500218,,,,,,,2024-05-27,1,,,,,クレティス,0
335,2021005013116,新規,0,2024-05-27,2024-05-27,一般社団法人こども食堂プロジェクトａｔやまと,,その他の設立登記法人,神奈川県,大和市,鶴間１丁目２１－１９真壁ビル３階,,14,213,2420004,,,,,,,2024-05-27,1,,,,,コドモショクドウプロジェクトアットヤマト,0
343,2030001160540,新規,0,2024-05-27,2024-05-27,川越警備保障株式会社,,株式会社,埼玉県,川越市,田町３番地８（１階Ｂ）,,11,201,3501113,,,,,,,2024-05-27,1,,,,,カワゴエケイビホショウ,0
344,2030001160557,新規,0,2024-05-27,2024-05-27,株式会社道楽,,株式会社,埼玉県,さいたま市西区,大字植田谷本１３７番地１加茂川団地１０－２０４,,11,101,3310053,,,,,,,2024-05-27,1,,,,,ミチラク,0
349,2030003024371,新規,0,2024-05-27,2024-05-27,ＡＮＪＵ合同会社,,合同会社,埼玉県,春日部市,栄町１丁目２１５番地１号棟,,11,214,3440058,,,,,,,2024-05-27,1,,,,,アンジュ,0
355,2040001133735,新規,0,2024-05-27,2024-05-27,株式会社ＴｈｒｅｅＷａｙ,,株式会社,千葉県,山武郡横芝光町,北清水５２２１,,12,410,2891734,,,,,,,2024-05-27,1,,,,,スリーウェイ,0
356,2040005022406,新規,0,2024-05-27,2024-05-27,一般社団法人日本テックコミュニティファシリテーター協会,,その他の設立登記法人,千葉県,流山市,野々下３丁目９６４番地の５,,12,220,2700135,,,,,,,2024-05-27,1,,,,,ニホンテックコミュニティファシリテーターキョウカイ,0
358,2050001054807,新規,0,2024-05-27,2024-05-27,株式会社Ｒ,,株式会社,茨城県,古河市,磯部１６１５番地１,,08,204,3060225,,,,,,,2024-05-27,1,,,,,アール,0
359,2050001054823,新規,0,2024-05-27,2024-05-27,エービーシーグリーン株式会社,,株式会社,茨城県,北茨城市,磯原町木皿１１００番地,,08,215,3191545,,,,,,,2024-05-27,1,,,,,エービーシーグリーン,0
360,2050001054831,新規,0,2024-05-27,2024-05-27,株式会社イロヲマトウ,,株式会社,茨城県,取手市,台宿１丁目１０番２２－２０３号,,08,217,3020013,,,,,,,2024-05-27,1,,,,,イロヲマトウ,0
362,2060003005088,新規,0,2024-05-27,2024-05-27,ＡＰＥＸ　ＴＲＡＤＩＮＧ合同会社,,合同会社,栃木県,栃木市,岩舟町新里１３０３番地１、４４号室,,09,203,3294316,,,,,,,2024-05-27,1,,,,,アペックストレーディング,0
364,2070001041786,新規,0,2024-05-27,2024-05-27,株式会社尚泉,,株式会社,群馬県,高崎市,中泉町６２９番地８,,10,202,3703524,,,,,,,2024-05-27,1,,,,,ショウセン,0
366,2070003005434,新規,0,2024-05-27,2024-05-27,ＲＯＹ　Ｇ　ＢＩＶ合同会社,,合同会社,群馬県,太田市,尾島町４７２－１ハイブービルＩＩ１０２,00134910,10,205,3700401,,,,,,,2024-05-27,1,,,,,ロイジービヴ,0
381,2120001265339,新規,0,2024-05-27,2024-05-27,株式会社ＳＢＭ,,株式会社,大阪府,大阪市東淀川区,豊里４丁目３番２６号リーフデパレスＩＩＩ番館２０５号,00134920,27,114,5330013,,,,,,,2024-05-27,1,,,,,エスビーエム,0
386,2120003026549,新規,0,2024-05-27,2024-05-27,合同会社ＨＯＬＹ,,合同会社,大阪府,大阪市西区,北堀江３丁目４番１５号５０３,,27,106,5500014,,,,,,,2024-05-27,1,,,,,ホーリー,0
394,2120901049205,新規,0,2024-05-27,2024-05-27,ウェイン商会株式会社,,株式会社,大阪府,吹田市,佐竹台１丁目５番１０－８０７号,,27,205,5650855,,,,,,,2024-05-27,1,,,,,ウェインショウカイ,0
395,2120901049213,新規,0,2024-05-27,2024-05-27,株式会社Ｈａｎａ＆Ｃｏ．,,株式会社,大阪府,豊中市,新千里東町３丁目７番１６－２０５号,,27,203,5600082,,,,,,,2024-05-27,1,,,,,ハナアンドコー,0
399,2130001077130,新規,0,2024-05-27,2024-05-27,株式会社なんくる,,株式会社,京都府,京都市山科区,竹鼻竹ノ街道５６エクセレント山科３０１,,26,110,6070000,,,,,,,2024-05-27,1,,,,,ナンクル,0
404,2140001134558,新規,0,2024-05-27,2024-05-27,株式会社ＷＥＢ　ＷＯＲＫＳ,,株式会社,兵庫県,西宮市,門戸岡田町９番１０－４号,,28,204,6620826,,,,,,,2024-05-27,1,,,,,ウェブワークス,0
409,2180001161648,新規,0,2024-05-27,2024-05-27,株式会社ネオジョブ,,株式会社,愛知県,名古屋市中区,千代田３丁目２４番１７号アステリ鶴舞トゥリア８０３号,,23,106,4600012,,,,,,,2024-05-27,1,,,,,ネオジョブ,0
410,2180001161697,新規,0,2024-05-27,2024-05-27,桑名金属工業準備株式会社,,株式会社,愛知県,名古屋市中区,栄２丁目４番１８号,,23,106,4600008,,,,,,,2024-05-27,1,,,,,クワナキンゾクコウギョウジュンビ,0
426,2240001063235,新規,0,2024-05-27,2024-05-27,奥田産業株式会社,,株式会社,広島県,三次市,吉舎町吉舎１４０番地の１,,34,209,7294211,,,,,,,2024-05-27,1,,,,,オクダサンギョウ,0
427,2240001063276,新規,0,2024-05-27,2024-05-27,株式会社常夏組,,株式会社,広島県,福山市,西町１丁目１番１号エフピコＲｉＭ１階コワーキングスペースｔｏｖｉｏ内,,34,207,7200067,,,,,,,2024-05-27,1,,,,,トコナツグミ,0
429,2250001020664,新規,0,2024-05-27,2024-05-27,ティーフーズ株式会社,,株式会社,山口県,山口市,朝田６２７番地１８,,35,203,7530871,,,,,,,2024-05-27,1,,,,,ティーフーズ,0
430,2260001039092,新規,0,2024-05-27,2024-05-27,東亜興発株式会社,,株式会社,岡山県,倉敷市,茶屋町１４６４番地の３,,33,202,7101101,,,,,,,2024-05-27,1,,,,,トウアコウハツ,0
437,2290001105585,新規,0,2024-05-27,2024-05-27,ＭＡＳＴＥＲＰＬＡＮ株式会社,,株式会社,福岡県,福岡市中央区,薬院３丁目１６番２６号西鉄薬院ビル５階,,40,133,8100022,,,,,,,2024-05-27,1,,,,,マスタープラン,0
438,2290001105890,新規,0,2024-05-27,2024-05-27,株式会社Ｖａｌｏｒ,,株式会社,福岡県,福岡市博多区,中洲２丁目３番１号中洲Ｆビル８階,,40,132,8100801,,,,,,,2024-05-27,1,,,,,ヴァロー,0
439,2290001105908,新規,0,2024-05-27,2024-05-27,株式会社ＰＬＵＧ,,株式会社,福岡県,福岡市中央区,大名１丁目８番４２－３１１号,,40,133,8100041,,,,,,,2024-05-27,1,,,,,プラグ,0
440,2290001105924,新規,0,2024-05-27,2024-05-27,株式会社ＣＩＲＣＬＥＳ,,株式会社,福岡県,福岡市西区,愛宕浜２丁目３番９－２３０３号,,40,135,8190013,,,,,,,2024-05-27,1,,,,,サークルズ,0
441,2290001105932,新規,0,2024-05-27,2024-05-27,にじいろシステム株式会社,,株式会社,福岡県,福岡市西区,石丸１丁目１２番８－４１２号姪浜Ｋ－１ホームズ,,40,135,8190025,,,,,,,2024-05-27,1,,,,,ニジイロシステム,0
448,2320003004377,新規,0,2024-05-27,2024-05-27,合同会社大山工業,,合同会社,大分県,別府市,大字鶴見１９７８番地の７,,44,202,8740840,,,,,,,2024-05-27,1,,,,,オオヤマコウギョウ,0
454,2330003010390,新規,0,2024-05-27,2024-05-27,合同会社Ｔ＆Ａ企画,,合同会社,熊本県,熊本市中央区,渡鹿５丁目１３番１１号,,43,101,8620970,,,,,,,2024-05-27,1,,,,,ティーアンドエーキカク,0
458,2340005009736,新規,0,2024-05-27,2024-05-27,一般社団法人食の未来・鹿児島,,その他の設立登記法人,鹿児島県,鹿児島市,西陵３丁目２０番１４号,,46,201,8900032,,,,,,,2024-05-27,1,,,,,ショクノミライカゴシマ,0
461,2360001033721,新規,0,2024-05-27,2024-05-27,株式会社おがわら,,株式会社,沖縄県,那覇市,久米２丁目１５番１０号１－Ｃ,,47,201,9000033,,,,,,,2024-05-27,1,,,,,オガワラ,0
464,2370003006625,新規,0,2024-05-27,2024-05-27,合同会社万和来,,合同会社,宮城県,仙台市泉区,寺岡４丁目１３番２０,,04,105,9813204,,,,,,,2024-05-27,1,,,,,ワンヘライ,0
480,2420005007905,新規,0,2024-05-27,2024-05-27,一般社団法人青森県キッチンカー協会,,その他の設立登記法人,青森県,弘前市,大字野田２丁目５番地１０,,02,202,0368045,,,,,,,2024-05-27,1,,,,,アオモリケンキッチンカーキョウカイ,0
482,2430001091877,新規,0,2024-05-27,2024-05-27,株式会社パイディア,,株式会社,北海道,札幌市北区,百合が原５丁目１０番１０号,,01,102,0028081,,,,,,,2024-05-27,1,,,,,パイディア,0
483,2430001091885,新規,0,2024-05-27,2024-05-27,株式会社Ｍｒ．,,株式会社,北海道,札幌市中央区,南六条西６丁目７番地２,,01,101,0640806,,,,,,,2024-05-27,1,,,,,ミスター,0
489,2470001020221,新規,0,2024-05-27,2024-05-27,株式会社Ｓｐｅａｒｈｅａｄ　Ｇｒｏｕｐ,,株式会社,香川県,木田郡三木町,大字鹿庭１７４４番地１,,37,341,7610821,,,,,,,2024-05-27,1,,,,,スピアヘッドグループ,0
493,2480003002134,新規,0,2024-05-27,2024-05-27,合同会社Ｒｉｎｏ‐Ｈａｋｕ,,合同会社,徳島県,阿南市,津乃峰町西分１３７,,36,204,7740021,,,,,,,2024-05-27,1,,,,,リノハク,0
515,3010001245144,新規,0,2024-05-27,2024-05-27,株式会社千,,株式会社,東京都,中央区,八重洲１丁目４番４号,,13,102,1030028,,,,,,,2024-05-27,1,,,,,セン,0
516,3010001245160,新規,0,2024-05-27,2024-05-27,ティーエルシーネモフィラ株式会社,,株式会社,東京都,千代田区,神田練塀町３番地,,13,101,1010022,,,,,,,2024-05-27,1,,,,,ティーエルシーネモフィラ,0
517,3010001245169,新規,0,2024-05-27,2024-05-27,ティーエルシーポトス株式会社,,株式会社,東京都,千代田区,神田練塀町３番地,,13,101,1010022,,,,,,,2024-05-27,1,,,,,ティーエルシーポトス,0
521,3010003043810,新規,0,2024-05-27,2024-05-27,ブリッジＴＫ合同会社,,合同会社,東京都,千代田区,九段南３丁目７番７号成和綜合会計事務所内,,13,101,1020074,,,,,,,2024-05-27,1,,,,,ブリッジティーケー,0
522,3010005038338,新規,0,2024-05-27,2024-05-27,一般社団法人恩田原ホールディングス,,その他の設立登記法人,東京都,千代田区,内幸町２丁目１番６号,,13,101,1000011,,,,,,,2024-05-27,1,,,,,オンダバラホールディングス,0
524,3010103002360,新規,0,2024-05-27,2024-05-27,ダヴィンチ・コーポレーション合同会社,,合同会社,東京都,八王子市,東中野２００４番地１－６０１号,,13,201,1920351,,,,,,,2024-05-27,1,,,,,ダヴィンチコーポレーション,0
530,3010401182697,新規,0,2024-05-27,2024-05-27,株式会社日本進学教育研究所,,株式会社,東京都,港区,北青山１丁目３番１号アールキューブ青山３階,,13,103,1070061,,,,,,,2024-05-27,1,,,,,ニホンシンガクキョウイクケンキュウジョ,0
536,3010405023278,新規,0,2024-05-27,2024-05-27,一般社団法人Ｙａｇｉ,,その他の設立登記法人,東京都,港区,虎ノ門１丁目１番１８号ヒューリック虎ノ門ビル９階Ｌ＆Ｐ司法書士法人内,,13,103,1050001,,,,,,,2024-05-27,1,,,,,ヤギ,0
538,3010501052338,新規,0,2024-05-27,2024-05-27,日本芸心一意国際教育株式会社,,株式会社,東京都,台東区,台東２丁目２７番３号ＮＳＫビル１０Ｆ,,13,106,1100016,,,,,,,2024-05-27,1,,,,,ニホンゲイシンイチイコクサイキョウイク,0
542,3010601065264,新規,0,2024-05-27,2024-05-27,株式会社ＰＡＴＩＥＮＴ,,株式会社,東京都,江東区,豊洲３丁目４番２－１９０７号,,13,108,1350061,,,,,,,2024-05-27,1,,,,,ペイシェント,0
545,3010703007197,新規,0,2024-05-27,2024-05-27,合同会社ＫＩＴＩＺＩＴＵ,,合同会社,東京都,品川区,西五反田１丁目２６番２号五反田サンハイツ９１１,,13,109,1410031,,,,,,,2024-05-27,1,,,,,キチジツ,0
546,3010901055287,新規,0,2024-05-27,2024-05-27,株式会社Ｌｕｍｉｎａ,,株式会社,東京都,世田谷区,若林３丁目７番１５－３０２号,,13,112,1540023,,,,,,,2024-05-27,1,,,,,ルミナ,0
547,3010901055345,新規,0,2024-05-27,2024-05-27,株式会社栄華不動産,,株式会社,東京都,世田谷区,代田２丁目３６番２１号,,13,112,1550033,,,,,,,2024-05-27,1,,,,,エイガフドウサン,0
551,3011001162131,新規,0,2024-05-27,2024-05-27,オヤシル株式会社,,株式会社,東京都,渋谷区,道玄坂１丁目１６－６二葉ビル８ｂ,,13,113,1500043,,,,,,,2024-05-27,1,,,,,オヤシル,0
552,3011001162164,新規,0,2024-05-27,2024-05-27,アンドデザイン株式会社,,株式会社,東京都,渋谷区,神宮前６丁目２３番４号桑野ビル２階,,13,113,1500001,,,,,,,2024-05-27,1,,,,,アンドデザイン,0
553,3011001162206,新規,0,2024-05-27,2024-05-27,Ｘｅｎｏｓ　Ｌａｂｓ株式会社,,株式会社,東京都,渋谷区,東１丁目２９番３号,,13,113,1500011,,,,,,,2024-05-27,1,,,,,ゼノスラブズ,0
554,3011001162247,新規,0,2024-05-27,2024-05-27,ＦＩＧＯ株式会社,,株式会社,東京都,渋谷区,渋谷２丁目１９番１５号,,13,113,1500002,,,,,,,2024-05-27,1,,,,,フィーゴ,0
555,3011003019214,新規,0,2024-05-27,2024-05-27,合同会社エイドア,,合同会社,東京都,渋谷区,恵比寿西２丁目４番８号ウィンド恵比寿ビル８Ｆ,,13,113,1500021,,,,,,,2024-05-27,1,,,,,エイドア,0
556,3011005010518,新規,0,2024-05-27,2024-05-27,一般社団法人日本フリーランス支援協会,,その他の設立登記法人,東京都,渋谷区,恵比寿西２丁目８番４号ＥＸ恵比寿西ビル５階,,13,113,1500021,,,,,,,2024-05-27,1,,,,,ニホンフリーランスシエンキョウカイ,0
557,3011101107449,新規,0,2024-05-27,2024-05-27,サクラザワガワ株式会社,,株式会社,東京都,新宿区,百人町２丁目１番４５号赤煉瓦２４８,,13,104,1690073,,,,,,,2024-05-27,1,,,,,サクラザワガワ,0
564,3011401026134,新規,0,2024-05-27,2024-05-27,ＥＭＡ株式会社,,株式会社,東京都,板橋区,板橋２丁目６４－１３Ｇ・Ｌ・Ｏ板橋５Ｆ,,13,119,1730004,,,,,,,2024-05-27,1,,,,,エマー,0
570,3011601027782,新規,0,2024-05-27,2024-05-27,株式会社５１０Ｃｏｍｐａｎｙ,,株式会社,東京都,練馬区,高松５丁目６番６号,,13,120,1790075,,,,,,,2024-05-27,1,,,,,ゴーイチマルカンパニー,0
571,3011603004350,新規,0,2024-05-27,2024-05-27,合同会社ＬＩＶＥＬＬＯ,,合同会社,東京都,練馬区,栄町６―１２マールビル３Ｆ,,13,120,1760006,,,,,,,2024-05-27,1,,,,,リベロ,0
572,3011803006262,新規,0,2024-05-27,2024-05-27,合同会社ＭＤＰＫ,,合同会社,東京都,葛飾区,東立石４丁目４８番１号,,13,122,1240013,,,,,,,2024-05-27,1,,,,,エムディーピーケー,0
577,3012401041899,新規,0,2024-05-27,2024-05-27,ＭＭＰｓｔ株式会社,,株式会社,東京都,狛江市,中和泉２丁目１０番１４－２０６号,,13,219,2010012,,,,,,,2024-05-27,1,,,,,エムエムピーエスティー,0
583,3013103001340,新規,0,2024-05-27,2024-05-27,合同会社ＦＮトレーディング,,合同会社,東京都,福生市,加美平１丁目５番地７,,13,218,1970012,,,,,,,2024-05-27,1,,,,,,0
587,3013301052581,新規,0,2024-05-27,2024-05-27,株式会社ＣＥＲＯ＆Ｃｏ．,,株式会社,東京都,豊島区,西池袋２丁目４２番８号,,13,116,1710021,,,,,,,2024-05-27,1,,,,,セロアンドカンパニー,0
593,3020001157438,新規,0,2024-05-27,2024-05-27,株式会社イーリング,,株式会社,神奈川県,横浜市青葉区,千草台１０番地２４,,14,117,2270051,,,,,,,2024-05-27,1,,,,,イーリング,0
594,3020001157446,新規,0,2024-05-27,2024-05-27,株式会社ＭＫＲ,,株式会社,神奈川県,横浜市港北区,新羽町１５２６番地,,14,109,2230057,,,,,,,2024-05-27,1,,,,,エムケーアール,0
595,3020003026211,新規,0,2024-05-27,2024-05-27,シプラ合同会社,,合同会社,神奈川県,川崎市多摩区,登戸１４６３番地第２大島荘２０５,,14,135,2140014,,,,,,,2024-05-27,1,,,,,シプラ,0
597,3021003014560,新規,0,2024-05-27,2024-05-27,３ｒｄ　ｐｅａｃｅ　ｓｔｙｌｅ合同会社,,合同会社,神奈川県,藤沢市,鵠沼神明２丁目５番２３号グランアレ湘南１０３,,14,205,2510021,,,,,,,2024-05-27,1,,,,,サードピーススタイル,0
603,3030001160556,新規,0,2024-05-27,2024-05-27,株式会社グリーンフレッシュ,,株式会社,埼玉県,吉川市,美南２丁目１２番地１２ルーチェスール１０１,,11,243,3420038,,,,,,,2024-05-27,1,,,,,グリーンフレッシュ,0
604,3030001160564,新規,0,2024-05-27,2024-05-27,株式会社あおぞら,,株式会社,埼玉県,川口市,西青木５丁目２番２８号志陽ハイツＫ＆Ｉ－１階,,11,203,3320035,,,,,,,2024-05-27,1,,,,,アオゾラ,0
610,3030003024370,新規,0,2024-05-27,2024-05-27,１０ｋ　Ｔｅｃｈ合同会社,,合同会社,埼玉県,川口市,芝中田１丁目２３番１３号クリアハウス川口２０１,,11,203,3330847,,,,,,,2024-05-27,1,,,,,テンケーテック,0
614,3040001133759,新規,0,2024-05-27,2024-05-27,株式会社ＳＥＣＯＮＤ,,株式会社,千葉県,旭市,東足洗２４６８,,12,215,2892512,,,,,,,2024-05-27,1,,,,,セカンド,0
619,3040005022405,新規,0,2024-05-27,2024-05-27,一般社団法人なみまち,,その他の設立登記法人,千葉県,東金市,家徳６０６番地１５,,12,213,2830062,,,,,,,2024-05-27,1,,,,,ナミマチ,0
621,3050001054814,新規,0,2024-05-27,2024-05-27,株式会社ＲＵＩ,,株式会社,茨城県,つくば市,吉沼４１２５番地１,,08,220,3002617,,,,,,,2024-05-27,1,,,,,アールユーアイ,0
624,3070001041777,新規,0,2024-05-27,2024-05-27,株式会社ＧＯＣ,,株式会社,群馬県,太田市,緑町８０３,,10,205,3730073,,,,,,,2024-05-27,1,,,,,ジーオーシー,0
626,3080001026323,新規,0,2024-05-27,2024-05-27,株式会社美ら電,,株式会社,静岡県,藤枝市,善左衛門３丁目１５番地の１３,,22,214,4260053,,,,,,,2024-05-27,1,,,,,チュラデン,0
641,3120001265271,新規,0,2024-05-27,2024-05-27,株式会社盛途,,株式会社,大阪府,大阪市西区,本田４丁目９番２３－７０２号,,27,106,5500022,,,,,,,2024-05-27,1,,,,,モリミチ,0
642,3120001265288,新規,0,2024-05-27,2024-05-27,株式会社ｂａｄａｓｓ,,株式会社,大阪府,大阪市北区,中津２丁目９番４８－３０２号,,27,127,5310071,,,,,,,2024-05-27,1,,,,,バッドアス,0
643,3120001265305,新規,0,2024-05-27,2024-05-27,吉友株式会社,,株式会社,大阪府,大阪市城東区,関目５丁目１９番９号関目花博公館４１２Ｂ,,27,118,5360008,,,,,,,2024-05-27,1,,,,,キチユウ,0
644,3120001265338,新規,0,2024-05-27,2024-05-27,株式会社やみびと,,株式会社,大阪府,枚方市,堤町１０番２４号,,27,210,5730057,,,,,,,2024-05-27,1,,,,,ヤミビト,0
662,3140001134540,新規,0,2024-05-27,2024-05-27,株式会社ミールラボ,,株式会社,兵庫県,西宮市,神楽町１番２６号,,28,204,6620977,,,,,,,2024-05-27,1,,,,,ミールラボ,0
663,3140001134557,新規,0,2024-05-27,2024-05-27,株式会社ＲＫＭ,,株式会社,兵庫県,西宮市,戸田町１番１０－２０４号,,28,204,6620916,,,,,,,2024-05-27,1,,,,,アールケーエム,0
670,3180001161647,新規,0,2024-05-27,2024-05-27,株式会社ジダイテクト,,株式会社,愛知県,名古屋市中川区,尾頭橋３丁目１０番８号エステムコート名古屋サウスネクスト３１２号,,23,110,4540012,,,,,,,2024-05-27,1,,,,,ジダイテクト,0
686,3240001063259,新規,0,2024-05-27,2024-05-27,ビホク産業株式会社,,株式会社,広島県,三次市,吉舎町吉舎１４０番地の５,,34,209,7294211,,,,,,,2024-05-27,1,,,,,ビホクサンギョウ,0
690,3260001039109,新規,0,2024-05-27,2024-05-27,ＧＲＡＩＮ　ＣＯＮＳＵＬＴＩＮＧ株式会社,,株式会社,岡山県,岡山市北区,弓之町１７番５号リオン後楽園３０４,,33,101,7000817,,,,,,,2024-05-27,1,,,,,グレインコンサルティング,0
693,3270001008987,新規,0,2024-05-27,2024-05-27,タナカッター株式会社,,株式会社,鳥取県,鳥取市,三津２１７番地２,,31,201,6890203,,,,,,,2024-05-27,1,,,,,タナカッター,0
701,3290001105915,新規,0,2024-05-27,2024-05-27,株式会社松竹鉄工所,,株式会社,福岡県,筑後市,大字前津１５７７番地２,,40,211,8330002,,,,,,,2024-05-27,1,,,,,マツタケテッコウショ,0
702,3290001105923,新規,0,2024-05-27,2024-05-27,株式会社アンリベル,,株式会社,福岡県,福岡市中央区,薬院１丁目１６番１８号江島ビル３０１号,,40,133,8100022,,,,,,,2024-05-27,1,,,,,アンリベル,0
705,3290003015336,新規,0,2024-05-27,2024-05-27,合同会社榮塗,,合同会社,福岡県,大牟田市,大字手鎌１９８番地,,40,202,8360004,,,,,,,2024-05-27,1,,,,,エイト,0
709,3290005019418,新規,0,2024-05-27,2024-05-27,税理士法人縁ＰＡＲＴＮＥＲＳ,,その他の設立登記法人,福岡県,福岡市中央区,西公園１－１４－２０１,,40,133,8100061,,,,,,,2024-05-27,1,,,,,エンパートナーズ,0
715,3330001032089,新規,0,2024-05-27,2024-05-27,株式会社ペペホーム,,株式会社,熊本県,熊本市東区,長嶺東３丁目３番３４号,,43,102,8618038,,,,,,,2024-05-27,1,,,,,ペペホーム,0
726,3360001033712,新規,0,2024-05-27,2024-05-27,株式会社ＯｋｕｒｉＢａｎｔ,,株式会社,沖縄県,糸満市,西崎１丁目９番１－４０２号ファミール花梨,,47,210,9010305,,,,,,,2024-05-27,1,,,,,オクリバント,0
735,3430001091884,新規,0,2024-05-27,2024-05-27,株式会社リバーツ,,株式会社,北海道,札幌市中央区,円山西町５丁目１２番７号,,01,101,0640944,,,,,,,2024-05-27,1,,,,,リバーツ,0
748,3700150122132,新規,0,2024-05-27,2024-05-27,ＣｈａｎｇｓｈａＸｉｙｕｅｄｉａｎｚｉｓｈａｎｇｗｕｙｏｕｘｉａｎｇｏｎｇｓｉ,,外国会社等,,,,,,,,Ｎｏ．５７７　Ｙｕｌａｎ　Ｒｏａｄ，Ｗａｎｇｃｈｅｎｇｐｏ　Ｓｔｒｅｅｔ，Ｙｕｅｌｕ　Ｄｉｓｔｒｉｃｔ，Ｄａｍｉ　Ｂｕｉｌｄｉｎｇ　３，Ｂｕｉｌｄｉｎｇ　４　ｐｏｄｉｕｍ　ａｎｄ　ｂａｓｅｍｅｎｔ　６６０　Ｃｈａｎｇｓｈａ　Ｃｉｔｙ　Ｈｕｎａｎ,,,,,,2024-05-27,1,,,,,チャンシャアシシイユエディエンズシャンウヨウシエンゴンス,0
749,3700150124913,新規,0,2024-05-27,2024-05-27,ｌｉｓｈｕｉ　ｒｕｉｚｅ　ｓｈａｎｇｍａｏ　ｙｏｕｘｉａｎ　ｇｏｎｇｓｉ,,外国会社等,,,,,,,,Ｎｏ．２２　Ａｎｊｕ　Ｗｅｓｔ　Ｒｏａｄ，Ｈｕｚｈｅｎ　Ｔｏｗｎ，Ｊｉｎｙｕｎ　Ｃｏｕｎｔｙ，Ｌｉｓｈｕｉ　Ｚｈｅｊｉａｎｇ,,,,,,2024-05-27,1,,,,,レイスイエイタクショウボウユウゲンコウシ,0
764,4010001245135,新規,0,2024-05-27,2024-05-27,株式会社みかんプラネッツ,,株式会社,東京都,中央区,銀座１丁目１２番４号Ｎ＆ＥＢＬＤ７階,,13,102,1040061,,,,,,,2024-05-27,1,,,,,ミカンプラネッツ,0
765,4010001245168,新規,0,2024-05-27,2024-05-27,ティーエルシーコキア株式会社,,株式会社,東京都,千代田区,神田練塀町３番地,,13,101,1010022,,,,,,,2024-05-27,1,,,,,ティーエルシーコキア,0
766,4010001245176,新規,0,2024-05-27,2024-05-27,株式会社ＴｏｒｉｃｏＲｉｂｂｏｎ,,株式会社,東京都,中央区,日本橋室町１丁目１１番１２号日本橋水野ビル７階,,13,102,1030022,,,,,,,2024-05-27,1,,,,,トリコリボン,0
770,4010003043693,新規,0,2024-05-27,2024-05-27,合同会社せい,,合同会社,東京都,中央区,銀座１丁目１２番４号Ｎ＆Ｅ，ＢＬＤ．６Ｆ,,13,102,1040061,,,,,,,2024-05-27,1,,,,,セイ,0
771,4010003043850,新規,0,2024-05-27,2024-05-27,ハニカム１２合同会社,,合同会社,東京都,千代田区,神田和泉町１番地６－１６,,13,101,1010024,,,,,,,2024-05-27,1,,,,,ハニカムトゥエルブ,0
772,4010003043859,新規,0,2024-05-27,2024-05-27,智翔合同会社,,合同会社,東京都,千代田区,内神田２丁目１３番８号,,13,101,1010047,,,,,,,2024-05-27,1,,,,,チショウ,0
782,4010401182580,新規,0,2024-05-27,2024-05-27,ＭｉＤ　ＢＲＩＤＧＥ株式会社,,株式会社,東京都,港区,虎ノ門３丁目１８番６号朝日虎ノ門マンション６１４号室,,13,103,1050001,,,,,,,2024-05-27,1,,,,,ミッドブリッジ,0
783,4010401182606,新規,0,2024-05-27,2024-05-27,株式会社中川薬局,,株式会社,東京都,港区,三田２丁目７番９号サニークレスト三田１階,,13,103,1080073,,,,,,,2024-05-27,1,,,,,ナカガワヤッキョク,0
784,4010401182614,新規,0,2024-05-27,2024-05-27,株式会社ガナビースポーツ＆アクティビティーズ,,株式会社,東京都,港区,芝２丁目５番１９号４階,,13,103,1050014,,,,,,,2024-05-27,1,,,,,ガナビースポーツアンドアクティビティーズ,0
785,4010401182721,新規,0,2024-05-27,2024-05-27,株式会社Ｎｏｍａｄ　Ｔｒａｉｌｅｒｓ,,株式会社,東京都,港区,虎ノ門１丁目１７番１号,,13,103,1050001,,,,,,,2024-05-27,1,,,,,ノマドトレイラーズ,0
788,4010403032684,新規,0,2024-05-27,2024-05-27,ＨＳアセット合同会社,,合同会社,東京都,港区,南麻布２丁目９番４０－３０２号,,13,103,1060047,,,,,,,2024-05-27,1,,,,,エイチエスアセット,0
790,4010405023277,新規,0,2024-05-27,2024-05-27,一般社団法人Ｓｈａｎｓｈａｎ,,その他の設立登記法人,東京都,港区,虎ノ門１丁目１番１８号ヒューリック虎ノ門ビル９階Ｌ＆Ｐ司法書士法人内,,13,103,1050001,,,,,,,2024-05-27,1,,,,,サンサン,0
793,4010601065263,新規,0,2024-05-27,2024-05-27,株式会社クロスリンク,,株式会社,東京都,江東区,佐賀２丁目８番６－１２０７号,,13,108,1350031,,,,,,,2024-05-27,1,,,,,クロスリンク,0
795,4010701046056,新規,0,2024-05-27,2024-05-27,株式会社パワフル,,株式会社,東京都,品川区,西中延１丁目１１番１０号ＲｉｖａＶｉｌｌａｇｅ西中延１０４,,13,109,1420054,,,,,,,2024-05-27,1,,,,,パワフル,0
806,4011001162262,新規,0,2024-05-27,2024-05-27,株式会社ＣｈｉｙｏＬｉｖｅ,,株式会社,東京都,渋谷区,道玄坂１丁目１０番８号渋谷道玄坂東急ビル２Ｆ－Ｃ,,13,113,1500043,,,,,,,2024-05-27,1,,,,,チヨライブ,0
809,4011003019246,新規,0,2024-05-27,2024-05-27,ＳＥＴＡＧＡＹＡ　ＢＬＩＮＤＥＲＳ合同会社,,合同会社,東京都,渋谷区,幡ヶ谷３丁目８０番５号,,13,113,1510072,,,,,,,2024-05-27,1,,,,,セタガヤブラインダーズ,0
819,4011401026125,新規,0,2024-05-27,2024-05-27,株式会社ＳＫＹ,,株式会社,東京都,板橋区,高島平７丁目１３番１８－３０６号,,13,119,1750082,,,,,,,2024-05-27,1,,,,,スカイ,0
824,4011701027327,新規,0,2024-05-27,2024-05-27,日本国薬株式会社,,株式会社,東京都,江戸川区,平井５丁目４５番５号渡辺ハイツ１０１,,13,123,1320035,,,,,,,2024-05-27,1,,,,,ニッポンコクヤク,0
826,4011703003838,新規,0,2024-05-27,2024-05-27,合同会社翔壱,,合同会社,東京都,江戸川区,鹿骨１丁目２３番１２号,,13,123,1330073,,,,,,,2024-05-27,1,,,,,ショウイチ,0
827,4011703003846,新規,0,2024-05-27,2024-05-27,合同会社テイルフォワード,,合同会社,東京都,江戸川区,南葛西１丁目１２番１６号ユーセンス３０１,,13,123,1340085,,,,,,,2024-05-27,1,,,,,テイルフォワード,0
841,4013301052580,新規,0,2024-05-27,2024-05-27,正融科工国際投資株式会社,,株式会社,東京都,豊島区,西池袋２丁目３１番１２号パシフィック目白マンション１０３号室,,13,116,1710021,,,,,,,2024-05-27,1,,,,,セイユウカコウコクサイトウシ,0
847,4020001157437,新規,0,2024-05-27,2024-05-27,株式会社エナジーハーベスト,,株式会社,神奈川県,横浜市中区,末吉町２丁目２５－１ナイスアーバン横濱伊勢佐木町７０２号,,14,104,2310055,,,,,,,2024-05-27,1,,,,,エナジーハーベスト,0
851,4020003026210,新規,0,2024-05-27,2024-05-27,ＮＬＣ合同会社,,合同会社,神奈川県,横浜市南区,万世町１丁目１７番地７ピュアハイム本田６０８号室,,14,105,2320032,,,,,,,2024-05-27,1,,,,,エヌエルシー,0
852,4020003026235,新規,0,2024-05-27,2024-05-27,合同会社ｓｔ　ｌｉｃｅｎｓｉｎｇ,,合同会社,神奈川県,川崎市麻生区,虹ケ丘１丁目１１番９号,,14,137,2150015,,,,,,,2024-05-27,1,,,,,エスティーライセンシング,0
861,4030001160489,新規,0,2024-05-27,2024-05-27,株式会社蒼明,,株式会社,埼玉県,所沢市,大字久米５２４番地の１ダイアパレス所沢２０６,,11,208,3591131,,,,,,,2024-05-27,1,,,,,ソウメイ,0
862,4030001160530,新規,0,2024-05-27,2024-05-27,エムジーカンパニー株式会社,,株式会社,埼玉県,春日部市,粕壁３丁目４番８号,,11,214,3440061,,,,,,,2024-05-27,1,,,,,エムジーカンパニー,0
863,4030001160539,新規,0,2024-05-27,2024-05-27,ＡＲＣ．ＪＯＢ株式会社,,株式会社,埼玉県,川越市,田町３番地８（１階Ｂ）,,11,201,3501113,,,,,,,2024-05-27,1,,,,,アークジョブ,0
864,4030001160555,新規,0,2024-05-27,2024-05-27,株式会社Ｄ‐ＢＬＵＥ,,株式会社,埼玉県,さいたま市西区,大字内野本郷９８５番地３９,,11,101,3310045,,,,,,,2024-05-27,1,,,,,ディーブルー,0
865,4030001160588,新規,0,2024-05-27,2024-05-27,日本医薬研株式会社,,株式会社,埼玉県,所沢市,御幸町１番１６－２６０３号所沢スカイライズタワー,,11,208,3591115,,,,,,,2024-05-27,1,,,,,ニホンイヤクケン,0
870,4030003024361,新規,0,2024-05-27,2024-05-27,馥郁合同会社,,合同会社,埼玉県,川口市,芝園町３番２－１２０６,,11,203,3330853,,,,,,,2024-05-27,1,,,,,フクイク,0
877,4050001054813,新規,0,2024-05-27,2024-05-27,Ｔ．Ｓ株式会社,,株式会社,茨城県,桜川市,真壁町古城３０１番地１,,08,231,3004407,,,,,,,2024-05-27,1,,,,,ティーエス,0
879,4050003008404,新規,0,2024-05-27,2024-05-27,Ｂｉａｎｃａ合同会社,,合同会社,茨城県,水戸市,元吉田町１３１３番地の２１メルハイム２棟１０１号,,08,201,3100836,,,,,,,2024-05-27,1,,,,,ビアンカ,0
881,4060003005086,新規,0,2024-05-27,2024-05-27,合同会社Ｔｅａｍ．Ｎ,,合同会社,栃木県,日光市,佐下部１０１番地１,,09,206,3212427,,,,,,,2024-05-27,1,,,,,チームエヌ,0
887,4090005007631,新規,0,2024-05-27,2024-05-27,一般社団法人桂川てらす,,その他の設立登記法人,山梨県,上野原市,新田４７番地,,19,212,4090113,,,,,,,2024-05-27,1,,,,,,0
888,4100001037465,新規,0,2024-05-27,2024-05-27,株式会社大雅商会,,株式会社,長野県,北安曇郡小谷村,大字千国乙３５４３番地１,,20,486,3999422,,,,,,,2024-05-27,1,,,,,タイガショウカイ,0
893,4120003026679,新規,0,2024-05-27,2024-05-27,合同会社Ｃ２,,合同会社,大阪府,大阪市北区,梅田１丁目２番２号大阪駅前第二ビル１２－１２,,27,127,5300001,,,,,,,2024-05-27,1,,,,,シーツー,0
894,4120003026704,新規,0,2024-05-27,2024-05-27,合同会社マノロ,,合同会社,大阪府,大阪市北区,梅田１丁目１２番１２号東京建物梅田ビル１４階,,27,127,5300001,,,,,,,2024-05-27,1,,,,,マノロ,0
901,4122001038111,新規,0,2024-05-27,2024-05-27,タイムテクノロジーズ株式会社,,株式会社,大阪府,八尾市,弓削町１丁目３４番地,,27,212,5810032,,,,,,,2024-05-27,1,,,,,タイムテクノロジーズ,0
902,4122003002890,新規,0,2024-05-27,2024-05-27,合同会社慈栄代,,合同会社,大阪府,東大阪市,吉原２丁目１０番２１号,,27,227,5780904,,,,,,,2024-05-27,1,,,,,ジエイダイ,0
908,4140001134556,新規,0,2024-05-27,2024-05-27,株式会社いち,,株式会社,兵庫県,神戸市北区,幸陽町１丁目１－１－３０２,,28,109,6511203,,,,,,,2024-05-27,1,,,,,イチ,0
910,4140003020614,新規,0,2024-05-27,2024-05-27,合同会社ＴＯＷＡＲＩ　ＮＯＴＥ　ＭＵＳＩＣ,,合同会社,兵庫県,神戸市中央区,磯上通８丁目１番２９号カサベラビルＣ＆Ｍ４０３号室,,28,110,6510086,,,,,,,2024-05-27,1,,,,,トワリノートミュージック,0
917,4180003026839,新規,0,2024-05-27,2024-05-27,合同会社ホールロット,,合同会社,愛知県,春日井市,気噴町北１丁目１３１番地１,,23,206,4870015,,,,,,,2024-05-27,1,,,,,ホールロット,0
918,4180003026847,新規,0,2024-05-27,2024-05-27,合同会社りくとそら,,合同会社,愛知県,西春日井郡豊山町,大字青山字高添１３６番地,,23,342,4800201,,,,,,,2024-05-27,1,,,,,リクトソラ,0
919,4180005020641,新規,0,2024-05-27,2024-05-27,一般社団法人入鹿の会,,その他の設立登記法人,愛知県,小牧市,中央５丁目１５０番地,,23,219,4850029,,,,,,,2024-05-27,1,,,,,イルカノカイ,0
925,4200003006359,新規,0,2024-05-27,2024-05-27,ＳＩＮＫＵ合同会社,,合同会社,岐阜県,岐阜市,則武東４丁目３０番６号第二川北プラザ１階,,21,201,5020929,,,,,,,2024-05-27,1,,,,,シンク,0
929,4240003006685,新規,0,2024-05-27,2024-05-27,フットルース合同会社,,合同会社,広島県,広島市中区,幟町三丁目５５番ゼネラルビル４０１号,,34,101,7300016,,,,,,,2024-05-27,1,,,,,フットルース,0
931,4250005008919,新規,0,2024-05-27,2024-05-27,綾羅木海浜マンション団地管理組合法人,,その他の設立登記法人,山口県,下関市,綾羅木新町２丁目２０番３６号,,35,201,7510865,,,,,,,2024-05-27,1,,,,,アヤラギカイヒンマンション,0
932,4260001039108,新規,0,2024-05-27,2024-05-27,株式会社おおぞら建設,,株式会社,岡山県,岡山市南区,福富中２丁目１６番３８号ラテＢ,,33,104,7028032,,,,,,,2024-05-27,1,,,,,オオゾラケンセツ,0
941,4290001105906,新規,0,2024-05-27,2024-05-27,株式会社ＯＨＡＮＡ,,株式会社,福岡県,糸島市,高田４丁目３５番１０号,,40,230,8191102,,,,,,,2024-05-27,1,,,,,,0
942,4290001105914,新規,0,2024-05-27,2024-05-27,株式会社博多Ｂｕｙ,,株式会社,福岡県,福岡市博多区,博多駅南５丁目１７番４－６０３号,,40,132,8120016,,,,,,,2024-05-27,1,,,,,ハカタバイ,0
943,4290001105922,新規,0,2024-05-27,2024-05-27,株式会社ビー,,株式会社,福岡県,福岡市中央区,天神２丁目２番１２号Ｔ＆Ｊビルディング７Ｆ,,40,133,8100001,,,,,,,2024-05-27,1,,,,,ビー,0
951,4330001032096,新規,0,2024-05-27,2024-05-27,株式会社Ｐ．ｃｏｎｎｅｃｔ,,株式会社,熊本県,熊本市中央区,新町２丁目７番１号マリアマンション２０２,,43,101,8600004,,,,,,,2024-05-27,1,,,,,ピードットコネクト,0
954,4360003013991,新規,0,2024-05-27,2024-05-27,合同会社ブライトＡ,,合同会社,沖縄県,南城市,大里字古堅８５６番地１,,47,215,9011207,,,,,,,2024-05-27,1,,,,,ブライトエー,0
956,4360005007034,新規,0,2024-05-27,2024-05-27,一般社団法人浩士企画,,その他の設立登記法人,沖縄県,島尻郡伊平屋村,字我喜屋２１３５番地１０７ギークハウス１０３号室,,47,359,9050703,,,,,,,2024-05-27,1,,,,,ヒロシキカク,0
978,4460101007555,新規,0,2024-05-27,2024-05-27,株式会社ネクストアップ,,株式会社,北海道,帯広市,西二十条南５丁目２１－１４,,01,207,0802470,,,,,,,2024-05-27,1,,,,,ネクストアップ,0
997,5010001245076,新規,0,2024-05-27,2024-05-27,株式会社東京設計事務所,,株式会社,東京都,千代田区,麹町５丁目５－１葵シャトー２０５号,,13,101,1020083,,,,,,,2024-05-27,1,,,,,トウキョウセッケイジムショ,0
998,5010001245118,新規,0,2024-05-27,2024-05-27,株式会社ｖｉｂｏｒｎ,,株式会社,東京都,中央区,晴海３丁目１３番１号ドゥトゥールイーストタワー４４０２,,13,102,1040053,,,,,,,2024-05-27,1,,,,,ヴィボーン,0
999,5010001245167,新規,0,2024-05-27,2024-05-27,ティーエルシードラセナ株式会社,,株式会社,東京都,千代田区,神田練塀町３番地,,13,101,1010022,,,,,,,2024-05-27,1,,,,,ティーエルシードラセナ,0
1000,5010001245183,新規,0,2024-05-27,2024-05-27,ガス建株式会社,,株式会社,東京都,文京区,本郷１丁目２５番９号,,13,105,1130033,,,,,,,2024-05-27,1,,,,,ガスケン,0
1004,5010003043833,新規,0,2024-05-27,2024-05-27,合同会社データエイド,,合同会社,東京都,千代田区,神田和泉町１番地６－１６ヤマトビル４０５,,13,101,1010024,,,,,,,2024-05-27,1,,,,,データエイド,0
1021,5010405023276,新規,0,2024-05-27,2024-05-27,一般社団法人Ｊｏｎｇｄａｒｉ,,その他の設立登記法人,東京都,港区,虎ノ門１丁目１番１８号ヒューリック虎ノ門ビル９階Ｌ＆Ｐ司法書士法人内,,13,103,1050001,,,,,,,2024-05-27,1,,,,,ジョンダリ,0
1022,5010501052328,新規,0,2024-05-27,2024-05-27,株式会社アイティープラス,,株式会社,東京都,台東区,浅草１丁目１３番５号,,13,106,1110032,,,,,,,2024-05-27,1,,,,,アイティープラス,0
1025,5010601065213,新規,0,2024-05-27,2024-05-27,ロボラボ株式会社,,株式会社,東京都,江東区,千田３番６号モナコートＳＥＮＤＡ５０１,,13,108,1350013,,,,,,,2024-05-27,1,,,,,ロボラボ,0
1026,5010601065221,新規,0,2024-05-27,2024-05-27,株式会社Ｏｓｈｉｂｌｏｏｍ,,株式会社,東京都,墨田区,押上３丁目２０番６号,,13,107,1310045,,,,,,,2024-05-27,1,,,,,オシブルーム,0
1036,5010801035073,新規,0,2024-05-27,2024-05-27,株式会社タンパニーカンパニー,,株式会社,東京都,大田区,中央８丁目７－５,,13,111,1430024,,,,,,,2024-05-27,1,,,,,タンパニーカンパニー,0
1045,5010901055343,新規,0,2024-05-27,2024-05-27,株式会社モンクール,,株式会社,東京都,世田谷区,下馬３丁目１６番１６号,,13,112,1540002,,,,,,,2024-05-27,1,,,,,モンクール,0
1050,5011001162179,新規,0,2024-05-27,2024-05-27,株式会社ＳＴＬＩＮＥ,,株式会社,東京都,目黒区,駒場１丁目２８番１号,,13,110,1530041,,,,,,,2024-05-27,1,,,,,ストライン,0
1051,5011001162220,新規,0,2024-05-27,2024-05-27,株式会社ポテトランド,,株式会社,東京都,渋谷区,恵比寿４丁目２０番３号恵比寿ガーデンプレイスタワー１８階,,13,113,1500013,,,,,,,2024-05-27,1,,,,,ポテトランド,0
1052,5011001162229,新規,0,2024-05-27,2024-05-27,株式会社スクール東京,,株式会社,東京都,渋谷区,道玄坂１丁目１３番５号４Ｆ,,13,113,1500043,,,,,,,2024-05-27,1,,,,,スクールトウキョウ,0
1053,5011001162253,新規,0,2024-05-27,2024-05-27,株式会社リボーンウェルネス,,株式会社,東京都,渋谷区,大山町３６番２４号,,13,113,1510065,,,,,,,2024-05-27,1,,,,,リボーンウェルネス,0
1056,5011003019237,新規,0,2024-05-27,2024-05-27,ジャパン・アイ・ティー・パートナーズ合同会社,,合同会社,東京都,目黒区,八雲５丁目１１番３号,,13,110,1520023,,,,,,,2024-05-27,1,,,,,ジャパンアイティーパートナーズ,0
1057,5011003019253,新規,0,2024-05-27,2024-05-27,合同会社クレイジーアバウト,,合同会社,東京都,渋谷区,神山町２０番２０号,,13,113,1500047,,,,,,,2024-05-27,1,,,,,クレイジーアバウト,0
1062,5011105011042,新規,0,2024-05-27,2024-05-27,一般社団法人日本ルートハーブ協会,,その他の設立登記法人,東京都,新宿区,築地町１７番地１グラーサ神楽坂１０２,,13,104,1620818,,,,,,,2024-05-27,1,,,,,ニホンルートハーブキョウカイ,0
1063,5011301029697,新規,0,2024-05-27,2024-05-27,株式会社クリエイティブスペース・フュージョン,,株式会社,東京都,杉並区,西荻南３丁目２４番２４－１,,13,115,1670053,,,,,,,2024-05-27,1,,,,,クリエイティブスペースフュージョン,0
1066,5011601027780,新規,0,2024-05-27,2024-05-27,森源株式会社,,株式会社,東京都,練馬区,北町２丁目３５－１４－３０３,,13,120,1790081,,,,,,,2024-05-27,1,,,,,モリゲン,0
1068,5011603004349,新規,0,2024-05-27,2024-05-27,光企画合同会社,,合同会社,東京都,練馬区,光が丘５丁目２番２－７０２号,,13,120,1790072,,,,,,,2024-05-27,1,,,,,ヒカリキカク,0
1069,5011703003845,新規,0,2024-05-27,2024-05-27,バイトブリッジ合同会社,,合同会社,東京都,江戸川区,西葛西５丁目７番６号,,13,123,1340088,,,,,,,2024-05-27,1,,,,,バイトブリッジ,0
1074,5012403006584,新規,0,2024-05-27,2024-05-27,エバーグローウィング西東京合同会社,,合同会社,東京都,三鷹市,下連雀２丁目１０番４０号,,13,204,1810013,,,,,,,2024-05-27,1,,,,,エバーグローウィングニシトウキョウ,0
1075,5012701018273,新規,0,2024-05-27,2024-05-27,株式会社インフォラーク,,株式会社,東京都,小平市,たかの台３２番１－２５０号,,13,211,1870024,,,,,,,2024-05-27,1,,,,,インフォラーク,0
1078,5013301052588,新規,0,2024-05-27,2024-05-27,ＫＫＬ株式会社,,株式会社,東京都,豊島区,西池袋１丁目３１－５白井ビル３－１０号室,,13,116,1710021,,,,,,,2024-05-27,1,,,,,ケーケーエル,0
1079,5013303007144,新規,0,2024-05-27,2024-05-27,合同会社黎花ｓｔａｒ,,合同会社,東京都,豊島区,東池袋２丁目７－９ハイプラザ東池袋２０５号室,,13,116,1700013,,,,,,,2024-05-27,1,,,,,リカスター,0
1085,5020001157436,新規,0,2024-05-27,2024-05-27,株式会社ＧＲＯＷＴＨ,,株式会社,神奈川県,横浜市神奈川区,片倉５丁目４０番２－１０４号,,14,102,2210865,,,,,,,2024-05-27,1,,,,,グロウス,0
1086,5020001157444,新規,0,2024-05-27,2024-05-27,Ｘ‐Ｃａｌｌｉｎｇ株式会社,,株式会社,神奈川県,川崎市川崎区,貝塚１丁目９番２‐２０２号ＲＳＢ昌榮館,,14,131,2100014,,,,,,,2024-05-27,1,,,,,エックスコーリング,0
1089,5020003026218,新規,0,2024-05-27,2024-05-27,合同会社カノン,,合同会社,神奈川県,横浜市都筑区,北山田６丁目２３番１５号,,14,118,2240021,,,,,,,2024-05-27,1,,,,,カノン,0
1092,5021003014550,新規,0,2024-05-27,2024-05-27,みちむら合同会社,,合同会社,神奈川県,三浦郡葉山町,堀内１２５０－２１,,14,301,2400112,,,,,,,2024-05-27,1,,,,,ミチムラ,0
1099,5030001160538,新規,0,2024-05-27,2024-05-27,ＣＯＣＯ株式会社,,株式会社,埼玉県,入間郡三芳町,大字藤久保７１６３番地,,11,324,3540041,,,,,,,2024-05-27,1,,,,,ココ,0
1100,5030001160570,新規,0,2024-05-27,2024-05-27,ＳＳＫ株式会社,,株式会社,埼玉県,蓮田市,大字黒浜４５３４番地１０,,11,238,3490101,,,,,,,2024-05-27,1,,,,,エスエスケー,0
1101,5030001160579,新規,0,2024-05-27,2024-05-27,神尚株式会社,,株式会社,埼玉県,戸田市,笹目北町１０番地の１７コスモシティ戸田グランキューブ８０７号室,,11,224,3350033,,,,,,,2024-05-27,1,,,,,カミショウ,0
1104,5030003024360,新規,0,2024-05-27,2024-05-27,合同会社レガレイラ,,合同会社,埼玉県,朝霞市,根岸台７丁目２８－８,,11,227,3510005,,,,,,,2024-05-27,1,,,,,レガレイラ,0
1109,5040001133757,新規,0,2024-05-27,2024-05-27,株式会社ユーバード,,株式会社,千葉県,松戸市,高塚新田１４９番地の２５グラシオッソ１０２号,,12,207,2702222,,,,,,,2024-05-27,1,,,,,ユーバード,0
1116,5040005022403,新規,0,2024-05-27,2024-05-27,一般社団法人リボンクラフト協会,,その他の設立登記法人,千葉県,船橋市,湊町３丁目２番２０号,,12,204,2730011,,,,,,,2024-05-27,1,,,,,リボンクラフトキョウカイ,0
1122,5060003005093,新規,0,2024-05-27,2024-05-27,合同会社ハナップ,,合同会社,栃木県,宇都宮市,宝木町２丁目８２０番地１４,,09,201,3200061,,,,,,,2024-05-27,1,,,,,ハナップ,0
1123,5070003005431,新規,0,2024-05-27,2024-05-27,合同会社セイゼイ,,合同会社,群馬県,邑楽郡邑楽町,大字中野３１６２番地,,10,525,3700603,,,,,,,2024-05-27,1,,,,,セイゼイ,0
1125,5080403005022,新規,0,2024-05-27,2024-05-27,合同会社ＳＡＫＯＮ,,合同会社,静岡県,菊川市,神尾２０－１,,22,224,4390016,,,,,,,2024-05-27,1,,,,,サコン,0
1126,5090001018730,新規,0,2024-05-27,2024-05-27,株式会社Ｒｉｇｈｔ　ｓｔａｆｆ,,株式会社,山梨県,甲府市,上阿原町１１２２番地１コーポ雨宮２０２,,19,201,4000814,,,,,,,2024-05-27,1,,,,,ライトスタッフ,0
1128,5100003007564,新規,0,2024-05-27,2024-05-27,合同会社小山,,合同会社,長野県,下伊那郡阿智村,清内路１３３８－１,,20,407,3950401,,,,,,,2024-05-27,1,,,,,コヤマ,0
1142,5120003026678,新規,0,2024-05-27,2024-05-27,合同会社ＳＶＮ,,合同会社,大阪府,大阪市浪速区,幸町２丁目３番１５－７０２号,,27,111,5560021,,,,,,,2024-05-27,1,,,,,エスブイエヌ,0
1144,5120101069661,新規,0,2024-05-27,2024-05-27,株式会社エイチ・スリー,,株式会社,大阪府,南河内郡河南町,大字神山４８６番地の１３,,27,382,5850034,,,,,,,2024-05-27,1,,,,,エイチスリー,0
1145,5120103005854,新規,0,2024-05-27,2024-05-27,合同会社ＬＩＧ,,合同会社,大阪府,堺市西区,鶴田町３番４号,,27,144,5938323,,,,,,,2024-05-27,1,,,,,リグ,0
1146,5120105009861,新規,0,2024-05-27,2024-05-27,特定非営利活動法人キラボシ,,その他の設立登記法人,大阪府,貝塚市,中町１－４０,,27,208,5970003,,,,,,,2024-05-27,1,,,,,キラボシ,0
1147,5120901049219,新規,0,2024-05-27,2024-05-27,株式会社Ａｌｏｐｅ,,株式会社,大阪府,箕面市,西小路２丁目１１番５号２Ｆ,,27,220,5620003,,,,,,,2024-05-27,1,,,,,アロッペ,0
1164,5180001161678,新規,0,2024-05-27,2024-05-27,株式会社ＮＥＷ　ＬＩＦＥ　ＨＤ,,株式会社,愛知県,名古屋市千種区,今池５丁目１番５号名古屋センタープラザビル１２階,,23,101,4640850,,,,,,,2024-05-27,1,,,,,ニューライフホールディングス,0
1168,5180305009573,新規,0,2024-05-27,2024-05-27,ＮＰＯ法人ＢｌｕｅＨｅａｒｔ,,その他の設立登記法人,愛知県,豊橋市,吉川町７６番地４,,23,201,4418002,,,,,,,2024-05-27,1,,,,,ブルーハート,0
1172,5240001063281,新規,0,2024-05-27,2024-05-27,株式会社ＨＥＨ,,株式会社,広島県,東広島市,西条町助実１６４１番地アイランドヒルズ１０３号,,34,212,7390021,,,,,,,2024-05-27,1,,,,,エイチイーエイチ,0
1174,5250003003508,新規,0,2024-05-27,2024-05-27,合同会社ＣＯＡＳＴ,,合同会社,山口県,山口市,湯田温泉４丁目２番２５－６０３号,,35,203,7530056,,,,,,,2024-05-27,1,,,,,コースト,0
1181,5290001105905,新規,0,2024-05-27,2024-05-27,株式会社ａｎｄ　Ａ．Ｔ,,株式会社,福岡県,福岡市中央区,渡辺通２丁目３番２８号,,40,133,8100004,,,,,,,2024-05-27,1,,,,,アンドエイティ,0
1182,5290001105913,新規,0,2024-05-27,2024-05-27,株式会社高松工業,00134909,株式会社,福岡県,糟屋郡須惠町,大字佐谷１３１４番地２６,,40,344,8112115,,,,,,,2024-05-27,1,,,,,タカマツコウギョウ,0
1191,5330003010388,新規,0,2024-05-27,2024-05-27,ＦＵＩＲＯ合同会社,,合同会社,熊本県,熊本市中央区,花畑町１番１４号Ａ＆Ｍ　ＨＡＮＡＢＡＴＡ３０１号,,43,101,8600806,,,,,,,2024-05-27,1,,,,,フイロ,0
1193,5340005009733,新規,0,2024-05-27,2024-05-27,宮脇土地家屋調査士法人,,その他の設立登記法人,鹿児島県,鹿児島市,真砂本町２１番１４号,,46,201,8900067,,,,,,,2024-05-27,1,,,,,ミヤワキ,0
1194,5360003014007,新規,0,2024-05-27,2024-05-27,Ｓａｎｄ　Ｄｏｌｌａｒ合同会社,,合同会社,沖縄県,国頭郡今帰仁村,字諸志８１番地,,47,306,9050426,,,,,,,2024-05-27,1,,,,,サンドダラー,0
1198,5380001034566,新規,0,2024-05-27,2024-05-27,株式会社つくし,,株式会社,福島県,須賀川市,梅田字穂下５番地,,07,207,9620303,,,,,,,2024-05-27,1,,,,,,0
1201,5400003003277,新規,0,2024-05-27,2024-05-27,合同会社あしま,,合同会社,岩手県,二戸市,石切所字川原２６番地４,,03,213,0286103,,,,,,,2024-05-27,1,,,,,アシマ,0
1203,5410005006590,新規,0,2024-05-27,2024-05-27,一般社団法人秋田県トライアスロン協会,,その他の設立登記法人,秋田県,秋田市,御野場５丁目１３番７号,,05,201,0101424,,,,,,,2024-05-27,1,,,,,アキタケントライアスロンキョウカイ,0
1231,6010001244985,新規,0,2024-05-27,2024-05-27,株式会社ＪＳＬ総合事務所,,株式会社,東京都,中央区,日本橋本石町３丁目２番６号ストークビルヂング本石４階,,13,102,1030021,,,,,,,2024-05-27,1,,,,,ジェイエスエルソウゴウジムショ,0
1232,6010001245166,新規,0,2024-05-27,2024-05-27,ティーエルシーモンステラ株式会社,,株式会社,東京都,千代田区,神田練塀町３番地,,13,101,1010022,,,,,,,2024-05-27,1,,,,,ティーエルシーモンステラ,0
1233,6010001245174,新規,0,2024-05-27,2024-05-27,ティーエルシーネーブル株式会社,,株式会社,東京都,千代田区,神田練塀町３番地,,13,101,1010022,,,,,,,2024-05-27,1,,,,,ティーエルシーネーブル,0
1234,6010001245199,新規,0,2024-05-27,2024-05-27,ＥＮＥＯＳドリリング株式会社,,株式会社,東京都,千代田区,大手町１丁目１番２号,,13,101,1000004,,,,,,,2024-05-27,1,,,,,エネオスドリリング,0
1238,6010101016161,新規,0,2024-05-27,2024-05-27,株式会社クロスポイント,,株式会社,東京都,八王子市,川口町１６８０番地２,,13,201,1930801,,,,,,,2024-05-27,1,,,,,クロスポイント,0
1252,6010403032690,新規,0,2024-05-27,2024-05-27,合同会社ＴＫＳ,,合同会社,東京都,港区,芝２丁目２８番３号,,13,103,1050014,,,,,,,2024-05-27,1,,,,,ティーケーエス,0
1254,6010501052335,新規,0,2024-05-27,2024-05-27,株式会社ハス設計事務所,,株式会社,東京都,台東区,谷中５丁目４番１号リトルキャッスル４０２号,,13,106,1100001,,,,,,,2024-05-27,1,,,,,ハスセッケイジムショ,0
1257,6010601065278,新規,0,2024-05-27,2024-05-27,喜之美株式会社,,株式会社,東京都,墨田区,本所３丁目４番１０号・５０１,,13,107,1300004,,,,,,,2024-05-27,1,,,,,キノミ,0
1273,6011001162161,新規,0,2024-05-27,2024-05-27,株式会社キャピトルシンク,,株式会社,東京都,渋谷区,神山町１７－３ネイバーズ渋谷神山町３０６,,13,113,1500047,,,,,,,2024-05-27,1,,,,,キャピトルシンク,0
1274,6011001162194,新規,0,2024-05-27,2024-05-27,株式会社まつもとインベスト,,株式会社,東京都,渋谷区,道玄坂１丁目１０番８号渋谷道玄坂東急ビル２Ｆ－Ｃ,,13,113,1500043,,,,,,,2024-05-27,1,,,,,マツモトインベスト,0
1276,6011003019236,新規,0,2024-05-27,2024-05-27,合同会社ＮｉｎｅＳｅｅｋ,,合同会社,東京都,渋谷区,東３丁目２４番１４号エクセルハイム恵比寿７０１号室,,13,113,1500011,,,,,,,2024-05-27,1,,,,,ナインシーク,0
1282,6011401026131,新規,0,2024-05-27,2024-05-27,株式会社ＳＩＦＯＰ,,株式会社,東京都,板橋区,高島平７丁目１１番１８号第一守屋ビル１０１,,13,119,1750082,,,,,,,2024-05-27,1,,,,,シフオプ,0
1285,6011703003836,新規,0,2024-05-27,2024-05-27,ＴＲＵＳＴ　ＦＲＥＩＧＨＴ　ＳＹＳＴＥＭＳ合同会社,,合同会社,東京都,江戸川区,南小岩２丁目１２番１２号,,13,123,1330056,,,,,,,2024-05-27,1,,,,,トラストフレイトシステムズ,0
1286,6011703003844,新規,0,2024-05-27,2024-05-27,合同会社ｒｏｕｔｅ,,合同会社,東京都,江戸川区,中葛西３丁目２０番１４‐３０７号,,13,123,1340083,,,,,,,2024-05-27,1,,,,,ルート,0
1288,6012701018272,新規,0,2024-05-27,2024-05-27,株式会社Ｒｅ‐Ｃａｒｅ,,株式会社,東京都,小平市,学園西町１丁目２７番５号,,13,211,1870045,,,,,,,2024-05-27,1,,,,,リケア,0
1289,6012703002992,新規,0,2024-05-27,2024-05-27,合同会社カミロソリューション,,合同会社,東京都,東村山市,久米川町２丁目３－４９,,13,213,1890003,,,,,,,2024-05-27,1,,,,,カミロソリューション,0
1294,6013301052579,新規,0,2024-05-27,2024-05-27,株式会社Ｔ．Ａ商事,,株式会社,東京都,豊島区,高松２丁目５３－６ペリエ要町２０１号,,13,116,1710042,,,,,,,2024-05-27,1,,,,,ティードットエイショウジ,0
1299,6020001157377,新規,0,2024-05-27,2024-05-27,株式会社嵐,,株式会社,神奈川県,横浜市緑区,中山６丁目８－２４ワコーレ中山４０３号室,,14,113,2260019,,,,,,,2024-05-27,1,,,,,アラシ,0
1300,6020001157419,新規,0,2024-05-27,2024-05-27,株式会社ＭＧＴファーマ,,株式会社,神奈川県,横浜市神奈川区,平川町７番地２ハイツはまゆう１階Ａ号室,,14,102,2210812,,,,,,,2024-05-27,1,,,,,エムジーティーファーマ,0
1301,6020001157427,新規,0,2024-05-27,2024-05-27,株式会社ＩＳＴ,,株式会社,神奈川県,横浜市鶴見区,東寺尾１丁目２２番９－２号ユナイト東寺尾コモエスタ１０６,,14,101,2300077,,,,,,,2024-05-27,1,,,,,イスト,0
1310,6020003026209,新規,0,2024-05-27,2024-05-27,ｓｕｎｅｎ合同会社,,合同会社,神奈川県,横浜市保土ケ谷区,峰岡町３丁目３８１番地２９,,14,106,2400064,,,,,,,2024-05-27,1,,,,,サンエン,0
1311,6020003026217,新規,0,2024-05-27,2024-05-27,合同会社ＢｌｕｅＳｔａｒ,,合同会社,神奈川県,横浜市鶴見区,平安町２丁目１９番地５オーベル横濱・鶴見セントラルパーク１０４号,,14,101,2300031,,,,,,,2024-05-27,1,,,,,ブルースター,0
1320,6030001160578,新規,0,2024-05-27,2024-05-27,ａｎｄ　ｓｍｏｏｔｈ株式会社,,株式会社,埼玉県,春日部市,緑町１丁目１１番地２－１号,,11,214,3440063,,,,,,,2024-05-27,1,,,,,アンドスムース,0
1325,6030005021710,新規,0,2024-05-27,2024-05-27,一般社団法人家具インテリアリサイクル協会,,その他の設立登記法人,埼玉県,さいたま市見沼区,東大宮５丁目３０番地１２,,11,104,3370051,,,,,,,2024-05-27,1,,,,,カグインテリアリサイクルキョウカイ,0
1337,6040001133517,新規,0,2024-05-27,2024-05-27,株式会社くまさん,,株式会社,千葉県,松戸市,高塚新田６３８番地の１５４,,12,207,2702222,,,,,,,2024-05-27,1,,,,,クマサン,0
1338,6040001133780,新規,0,2024-05-27,2024-05-27,ＭＨプラン株式会社,,株式会社,千葉県,千葉市中央区,東千葉２丁目６番１－４２４号,,12,101,2600041,,,,,,,2024-05-27,1,,,,,エムエイチプラン,0
1340,6050001054811,新規,0,2024-05-27,2024-05-27,株式会社常陽,,株式会社,茨城県,守谷市,松並１９９５番地の１,,08,224,3020108,,,,,,,2024-05-27,1,,,,,ジョウヨウ,0
1341,6050001054828,新規,0,2024-05-27,2024-05-27,株式会社エコファクトリー,,株式会社,茨城県,笠間市,安居３０４１番地の２,,08,216,3190206,,,,,,,2024-05-27,1,,,,,エコファクトリー,0
1345,6070001041774,新規,0,2024-05-27,2024-05-27,株式会社ＴＯＭＯＣＨＩ,,株式会社,群馬県,高崎市,江木町１０７３番地１３,,10,202,3700046,,,,,,,2024-05-27,1,,,,,トモチ,0
1346,6070001041782,新規,0,2024-05-27,2024-05-27,ワケあり不動産株式会社,,株式会社,群馬県,伊勢崎市,昭和町１８６８番地３,,10,204,3720014,,,,,,,2024-05-27,1,,,,,ワケアリフドウサン,0
1347,6070001041790,新規,0,2024-05-27,2024-05-27,水野プランニング株式会社,,株式会社,群馬県,藤岡市,森５１４番地１,,10,209,3750004,,,,,,,2024-05-27,1,,,,,ミズノプランニング,0
1353,6080105006433,新規,0,2024-05-27,2024-05-27,一般社団法人終活聖和会,,その他の設立登記法人,静岡県,沼津市,西沢田７１９番地,,22,203,4100007,,,,,,,2024-05-27,1,,,,,シュウカツセイワカイ,0
1354,6080403005021,新規,0,2024-05-27,2024-05-27,合同会社プレイズ,,合同会社,静岡県,磐田市,東新屋６７番地,,22,211,4380035,,,,,,,2024-05-27,1,,,,,プレイズ,0
1369,6120001265285,新規,0,2024-05-27,2024-05-27,株式会社ネオリンクス,,株式会社,大阪府,大阪市東淀川区,東中島５丁目１８－２０ＴＯＡビル２階,,27,114,5330033,,,,,,,2024-05-27,1,,,,,ネオリンクス,0
1370,6120001265327,新規,0,2024-05-27,2024-05-27,株式会社ＤＥＡＲ,,株式会社,大阪府,大阪市中央区,谷町８丁目１番４３－１４０５号,,27,128,5420012,,,,,,,2024-05-27,1,,,,,ディアー,0
1371,6120001265351,新規,0,2024-05-27,2024-05-27,富源株式会社,,株式会社,大阪府,大阪市北区,松ケ枝町１－４１,,27,127,5300037,,,,,,,2024-05-27,1,,,,,フゲン,0
1373,6120003026677,新規,0,2024-05-27,2024-05-27,合同会社アルク,,合同会社,大阪府,大阪市淀川区,東三国５丁目７番２３号大城コーポ１０３号,,27,123,5320002,,,,,,,2024-05-27,1,,,,,アルク,0
1381,6120103005861,新規,0,2024-05-27,2024-05-27,合同会社プライム興業,,合同会社,大阪府,富田林市,川向町３－２－４０５,,27,214,5840049,,,,,,,2024-05-27,1,,,,,プライムコウギョウ,0
1383,6130001077119,新規,0,2024-05-27,2024-05-27,株式会社ｎａｇａｍｏｃｈｉ,,株式会社,京都府,長岡京市,長岡１丁目３－９、１階Ｙ,,26,209,6170823,,,,,,,2024-05-27,1,,,,,ナガモチ,0
1388,6140001134546,新規,0,2024-05-27,2024-05-27,株式会社Ａｄｖａｎ,,株式会社,兵庫県,加古川市,平岡町土山１０３３番地の１１,,28,210,6750104,,,,,,,2024-05-27,1,,,,,アドバン,0
1389,6140001134554,新規,0,2024-05-27,2024-05-27,株式会社Ｒ＆ｙｏｕ,,株式会社,兵庫県,神戸市西区,枝吉２丁目１１６五兵衛ビル２０１,,28,111,6512133,,,,,,,2024-05-27,1,,,,,アールアンドユー,0
1391,6140003020620,新規,0,2024-05-27,2024-05-27,合同会社エディット,,合同会社,兵庫県,神戸市垂水区,福田１丁目８－２６－３０３,,28,108,6550013,,,,,,,2024-05-27,1,,,,,エディット,0
1399,6180001161611,新規,0,2024-05-27,2024-05-27,株式会社ＡＬＥＳＴ,,株式会社,愛知県,名古屋市千種区,内山３丁目１０番１７号今池セントラルビル４‐Ａ２,,23,101,4640075,,,,,,,2024-05-27,1,,,,,アレスト,0
1404,6180305009572,新規,0,2024-05-27,2024-05-27,一般社団法人日本占いメンタルヘルス協会,,その他の設立登記法人,愛知県,豊橋市,つつじが丘３丁目１２番地１３,,23,201,4400858,,,,,,,2024-05-27,1,,,,,ニホンウラナイメンタルヘルスキョウカイ,0
1412,6240001063280,新規,0,2024-05-27,2024-05-27,株式会社ＴＫＴ,,株式会社,広島県,広島市西区,三篠町２丁目１１番２０－３０２号,,34,104,7330003,,,,,,,2024-05-27,1,,,,,ティーケーティー,0
1417,6250003003507,新規,0,2024-05-27,2024-05-27,ＭＴ＆Ｈ合同会社,,合同会社,山口県,熊毛郡平生町,大字曽根２０２８番地の５,,35,344,7421107,,,,,,,2024-05-27,1,,,,,エムティーアンドエイチ,0
1428,6290001105895,新規,0,2024-05-27,2024-05-27,株式会社シナジーワーク,,株式会社,福岡県,飯塚市,南尾４０１番地８,,40,205,8200072,,,,,,,2024-05-27,1,,,,,シナジーワーク,0
1429,6290001105912,新規,0,2024-05-27,2024-05-27,株式会社旬果,,株式会社,福岡県,福岡市南区,向野２丁目３番４号アンビエンテ大橋福岡１００１号室,,40,134,8150035,,,,,,,2024-05-27,1,,,,,シュンカ,0
1433,6290005019415,新規,0,2024-05-27,2024-05-27,特定非営利活動法人六本松心理教育臨床オフィス,,その他の設立登記法人,福岡県,福岡市中央区,六本松２丁目３番９号アリッサム六本松２０２,,40,133,8100044,,,,,,,2024-05-27,1,,,,,ロッポンマツシンリキョウイクリンショウオフィス,0
1439,6290805009747,新規,0,2024-05-27,2024-05-27,ＮＰＯ法人ｃｉｅｌｂｌｅｕ,,その他の設立登記法人,福岡県,遠賀郡芦屋町,幸町３番１４号,,40,381,8070101,,,,,,,2024-05-27,1,,,,,シエルブルー,0
1440,6310001019028,新規,0,2024-05-27,2024-05-27,株式会社Ｓｅａ　ｆａｒｍ　ａｉｏｕ,,株式会社,長崎県,島原市,白谷町乙９７２番地,,42,203,8550885,,,,,,,2024-05-27,1,,,,,,0
1443,6340003004487,新規,0,2024-05-27,2024-05-27,月のうさぎ合同会社,,合同会社,鹿児島県,鹿児島市,大竜町８番７号モンレーヴ３０１号,,46,201,8920805,,,,,,,2024-05-27,1,,,,,ツキノウサギ,0
1444,6350001018975,新規,0,2024-05-27,2024-05-27,株式会社ＺＩＯＮ,,株式会社,宮崎県,宮崎市,昭栄町１１４番地サニーコートヴィラ３０１号,,45,201,8800833,,,,,,,2024-05-27,1,,,,,ザイオン,0
1449,6360003014006,新規,0,2024-05-27,2024-05-27,合同会社ジャングルサップ西表,,合同会社,沖縄県,八重山郡竹富町,字上原８７０－６０－２０１号,,47,381,9071541,,,,,,,2024-05-27,1,,,,,ジャングルサップイリオモテ,0
1452,6360005007040,新規,0,2024-05-27,2024-05-27,一般社団法人コード・フォー・ハエバル,,その他の設立登記法人,沖縄県,島尻郡南風原町,字宮城４３１番地,,47,350,9011102,,,,,,,2024-05-27,1,,,,,コードフォーハエバル,0
1457,6370005010794,新規,0,2024-05-27,2024-05-27,一般社団法人宮城県インドネシア協会,,その他の設立登記法人,宮城県,仙台市青葉区,国分町１丁目７番１８号,,04,101,9800803,,,,,,,2024-05-27,1,,,,,ミヤギケンインドネシアキョウカイ,0
1460,6380003005770,新規,0,2024-05-27,2024-05-27,ＨＩＲＯｐｌａｎｎｉｎｇ合同会社,,合同会社,福島県,いわき市,平上平窪字南町３番地７,,07,204,9708001,,,,,,,2024-05-27,1,,,,,ヒロプランニング,0
1461,6390001017619,新規,0,2024-05-27,2024-05-27,株式会社鳥海風土,,株式会社,山形県,飽海郡遊佐町,岩川字後田４７番地,,06,461,9998436,,,,,,,2024-05-27,1,,,,,チョウカイフウド,0
1463,6410003003936,新規,0,2024-05-27,2024-05-27,Ｌｉｋｅ　ｍｅ合同会社,,合同会社,秋田県,横手市,雄物川町今宿字出向３２５番地５,,05,203,0130205,,,,,,,2024-05-27,1,,,,,ライクミー,0
1466,6430001091881,新規,0,2024-05-27,2024-05-27,株式会社ニューライズ,,株式会社,北海道,札幌市中央区,大通西７丁目２番地２アセットプランニング大通ビル８階,,01,101,0600042,,,,,,,2024-05-27,1,,,,,ニューライズ,0
1481,6700150125594,新規,0,2024-05-27,2024-05-27,ＤＯＪＩＭＡ　ＩＮＶＥＳＴＭＥＮＴＳ　ＰＴＥ．ＬＴＤ．,,外国会社等,東京都,港区,虎ノ門５丁目１番４号,,13,103,1050001,シンガポール共和国５０カスケイド・ロード＃０８－０１、エイチピーエルハウス,,,,,,2024-05-27,1,,,,,ドウジマインベストメンツピーテイーイーエルテイーデイー,0
1487,7010001245140,新規,0,2024-05-27,2024-05-27,株式会社オーディン,,株式会社,東京都,中央区,日本橋茅場町２丁目９番５号日進ビル５階,,13,102,1030025,,,,,,,2024-05-27,1,,,,,オーディン,0
1488,7010001245165,新規,0,2024-05-27,2024-05-27,ティーエルシーアルピニア株式会社,,株式会社,東京都,千代田区,神田練塀町３番地,,13,101,1010022,,,,,,,2024-05-27,1,,,,,ティーエルシーアルピニア,0
1489,7010001245173,新規,0,2024-05-27,2024-05-27,ティーエルシーピスタチオ株式会社,,株式会社,東京都,千代田区,神田練塀町３番地,,13,101,1010022,,,,,,,2024-05-27,1,,,,,ティーエルシーピスタチオ,0
1490,7010001245181,新規,0,2024-05-27,2024-05-27,株式会社ａｎｏｔａ,,株式会社,東京都,千代田区,鍛冶町２丁目７番４号ヨウコービル７Ｆ,,13,101,1010044,,,,,,,2024-05-27,1,,,,,アノタ,0
1513,7010701046020,新規,0,2024-05-27,2024-05-27,株式会社ＢＩＳ,,株式会社,東京都,品川区,北品川６丁目７番２９号,,13,109,1410001,,,,,,,2024-05-27,1,,,,,ビス,0
1527,7011001162160,新規,0,2024-05-27,2024-05-27,株式会社ＭＪＣ,,株式会社,東京都,渋谷区,恵比寿西２丁目１９番９号フランセスビル１階,,13,113,1500021,,,,,,,2024-05-27,1,,,,,エムジェイシー,0
1528,7011001162235,新規,0,2024-05-27,2024-05-27,株式会社Ｌ．ＤＯＰＥ　ＪＡＰＡＮ,,株式会社,東京都,渋谷区,神宮前３丁目１番２６号,,13,113,1500001,,,,,,,2024-05-27,1,,,,,エルドープジャパン,0
1529,7011001162251,新規,0,2024-05-27,2024-05-27,株式会社Ｆａｒｍ,,株式会社,東京都,渋谷区,渋谷２丁目１０番６号,,13,113,1500002,,,,,,,2024-05-27,1,,,,,ファーム,0
1531,7011003019210,新規,0,2024-05-27,2024-05-27,合同会社Ｋ＆Ｃ,,合同会社,東京都,渋谷区,道玄坂１丁目１０番８号渋谷道玄坂東急ビル２Ｆ－Ｃ,,13,113,1500043,,,,,,,2024-05-27,1,,,,,ケーアンドシー,0
1542,7011101107412,新規,0,2024-05-27,2024-05-27,株式会社ｓｏｒａ,,株式会社,東京都,新宿区,西新宿１丁目２６番２号,,13,104,1600023,,,,,,,2024-05-27,1,,,,,ソラ,0
1545,7011401026130,新規,0,2024-05-27,2024-05-27,ＳＤＸ　ＪＰ株式会社,,株式会社,東京都,板橋区,上板橋３丁目１１番１１－２０３号,,13,119,1740076,,,,,,,2024-05-27,1,,,,,エスディーエックスジェイピー,0
1548,7011601027779,新規,0,2024-05-27,2024-05-27,株式会社ＮＥＵＴＲＡＬ,,株式会社,東京都,練馬区,旭町１丁目１２番１７号,,13,120,1790071,,,,,,,2024-05-27,1,,,,,ニュートラル,0
1549,7011601027787,新規,0,2024-05-27,2024-05-27,桐原株式会社,,株式会社,東京都,練馬区,三原台１丁目２９番８号ライフステージ石神井１０３号室,,13,120,1770031,,,,,,,2024-05-27,1,,,,,キリハラ,0
1557,7013301052545,新規,0,2024-05-27,2024-05-27,ＮＯＮＡＭＥ株式会社,,株式会社,東京都,豊島区,東池袋３丁目１５番１４号クレール東池袋３０６,,13,116,1700013,,,,,,,2024-05-27,1,,,,,ノーネーム,0
1558,7013301052594,新規,0,2024-05-27,2024-05-27,ＹＯＵＴＨＥＮ株式会社,,株式会社,東京都,豊島区,東池袋１丁目２２番１号,,13,116,1700013,,,,,,,2024-05-27,1,,,,,ユウセン,0
1562,7020001157426,新規,0,2024-05-27,2024-05-27,ＬＶＶ株式会社,,株式会社,神奈川県,横浜市神奈川区,入江２丁目１９番８号フェニックス大口３０２号室,,14,102,2210014,,,,,,,2024-05-27,1,,,,,エルブイブイ,0
1563,7020001157442,新規,0,2024-05-27,2024-05-27,ＳＵＩＫＩ株式会社,,株式会社,神奈川県,横浜市金沢区,富岡西１丁目２７－１２,,14,108,2360052,,,,,,,2024-05-27,1,,,,,スイキ,0
1575,7030001160081,新規,0,2024-05-27,2024-05-27,株式会社ＳＡＳ,,株式会社,埼玉県,ふじみ野市,新田２丁目１番２４号セザールマンション４０７号室,,11,245,3560033,,,,,,,2024-05-27,1,,,,,エスエーエス,0
1576,7030001160379,新規,0,2024-05-27,2024-05-27,株式会社ＬＡＲＫＳ,,株式会社,埼玉県,秩父郡横瀬町,大字横瀬１５３９－１３,,11,361,3680072,,,,,,,2024-05-27,1,,,,,ラークス,0
1577,7030001160544,新規,0,2024-05-27,2024-05-27,アイ・エム・シー株式会社,,株式会社,埼玉県,川口市,南鳩ヶ谷２丁目１６番１号,,11,203,3340013,,,,,,,2024-05-27,1,,,,,アイエムシー,0
1578,7030001160569,新規,0,2024-05-27,2024-05-27,株式会社ＫＴＳ,,株式会社,埼玉県,新座市,野火止６丁目２０番８号,,11,230,3520011,,,,,,,2024-05-27,1,,,,,ケーティーエス,0
1580,7030003024350,新規,0,2024-05-27,2024-05-27,特急合同会社,,合同会社,埼玉県,坂戸市,伊豆の山町２１番地４７ＫＩＶオフィス伊豆の山１号棟Ｃ号室,,11,239,3500275,,,,,,,2024-05-27,1,,,,,トッキュウ,0
1593,7040003025075,新規,0,2024-05-27,2024-05-27,ＯＣＥＡＮ　ＭＯＴＯＲＳ合同会社,,合同会社,千葉県,山武郡横芝光町,北清水３８５６番地１５,,12,410,2891734,,,,,,,2024-05-27,1,,,,,オーシャンモータース,0
1595,7050001054810,新規,0,2024-05-27,2024-05-27,シンキプロジェクト株式会社,,株式会社,茨城県,つくば市,上ノ室１１４２番地１,,08,220,3050023,,,,,,,2024-05-27,1,,,,,シンキプロジェクト,0
1611,7090001018729,新規,0,2024-05-27,2024-05-27,株式会社Ｗｉｚやまなし,,株式会社,山梨県,中央市,布施２１０６番地１,,19,214,4093841,,,,,,,2024-05-27,1,,,,,ワイズヤマナシ,0
1617,7100001037487,新規,0,2024-05-27,2024-05-27,信州人蔘栽培研究所株式会社,,株式会社,長野県,北佐久郡立科町,大字山部１９９番地２,,20,324,3842307,,,,,,,2024-05-27,1,,,,,シンシュウニンジンサイバイケンキュウジョ,0
1629,7120001265301,新規,0,2024-05-27,2024-05-27,株式会社ＪＯＥ,,株式会社,大阪府,大阪市天王寺区,清水谷町１８－２０－３０３,,27,109,5430011,,,,,,,2024-05-27,1,,,,,ジョー,0
1630,7120001265326,新規,0,2024-05-27,2024-05-27,株式会社シカイホールディングス,,株式会社,大阪府,大阪市阿倍野区,松崎町２丁目７－５－７０２号,,27,119,5450053,,,,,,,2024-05-27,1,,,,,シカイホールディングス,0
1631,7120001265350,新規,0,2024-05-27,2024-05-27,Ｗ株式会社,,株式会社,大阪府,大阪市淀川区,三津屋北１丁目７番１４号,,27,123,5320032,,,,,,,2024-05-27,1,,,,,ダブル,0
1635,7120101069643,新規,0,2024-05-27,2024-05-27,株式会社２４,,株式会社,大阪府,堺市北区,百舌鳥梅町１丁１番地６昭和ビル１００号室,,27,146,5918032,,,,,,,2024-05-27,1,,,,,ニイヨン,0
1636,7120901049217,新規,0,2024-05-27,2024-05-27,Ａｌｔｅｒｆ株式会社,,株式会社,大阪府,吹田市,寿町１丁目１５番２０号３０３,,27,205,5640036,,,,,,,2024-05-27,1,,,,,アルテルフ,0
1638,7120903005192,新規,0,2024-05-27,2024-05-27,Ｏｆ　Ｂｅｅ合同会社,,合同会社,大阪府,豊中市,長興寺北３丁目９番８号ＪＰアパートメント豊中ＩＩ３０２,00134912,27,203,5610875,,,,,,,2024-05-27,1,,,,,オフビー,0
1639,7122001038133,新規,0,2024-05-27,2024-05-27,大阪友川グローバル株式会社,,株式会社,大阪府,東大阪市,足代北２丁目２番１号渡辺ビル５Ｆ,,27,227,5770058,,,,,,,2024-05-27,1,,,,,オオサカトモカワグローバル,0
1644,7130003009597,新規,0,2024-05-27,2024-05-27,合同会社おろび,,合同会社,京都府,京田辺市,宮津大井池１６番地７,,26,211,6100314,,,,,,,2024-05-27,1,,,,,オロビ,0
1658,7150003003268,新規,0,2024-05-27,2024-05-27,合同会社おかだ建設工,,合同会社,奈良県,橿原市,東坊城町９０番地の３,,29,205,6340835,,,,,,,2024-05-27,1,,,,,オカダケンセツコウ,0
1664,7180001161701,新規,0,2024-05-27,2024-05-27,ＶＩＮＡ食品株式会社,,株式会社,愛知県,愛西市,勝幡町石塚１７１１番地２５,,23,232,4968001,,,,,,,2024-05-27,1,,,,,ヴィナショクヒン,0
1681,7290002054562,新規,0,2024-05-27,2024-05-27,有限会社コーグチクラフト工業,,有限会社,福岡県,大川市,大字一木１０５８番地の７,,40,212,8310034,,,,,,,2024-05-27,1,,,,,,0
1702,7370001051338,新規,0,2024-05-27,2024-05-27,株式会社ＰｏｌａｒＴｅｃｈ,,株式会社,宮城県,仙台市青葉区,宮町３丁目８番３８号クリエイターズビレッジ２０６号室,,04,101,9800004,,,,,,,2024-05-27,1,,,,,ポーラーテック,0
1710,7390001017618,新規,0,2024-05-27,2024-05-27,株式会社灯,,株式会社,山形県,最上郡鮭川村,大字川口２８３９番地３３,,06,366,9995203,,,,,,,2024-05-27,1,,,,,トモリ,0
1716,7430001091880,新規,0,2024-05-27,2024-05-27,株式会社トリプルウィン,,株式会社,北海道,札幌市中央区,南五条西９丁目１０１６番地２,,01,101,0640805,,,,,,,2024-05-27,1,,,,,トリプルウィン,0
1722,7470003002650,新規,0,2024-05-27,2024-05-27,合同会社Ｌ’ｅａＬ’ｅａ,,合同会社,香川県,高松市,天神前１０番５号高松セントラルスカイビルディング３Ｆｓｏｕｔｈ,,37,201,7600018,,,,,,,2024-05-27,1,,,,,レアレア,0
1740,8010001245057,新規,0,2024-05-27,2024-05-27,株式会社裸心社,,株式会社,東京都,中央区,晴海３丁目１０－１Ｄａｉｗａ晴海ビル２階,,13,102,1040053,,,,,,,2024-05-27,1,,,,,ラシンシャ,0
1741,8010001245098,新規,0,2024-05-27,2024-05-27,株式会社Ｐ＆Ｃ,,株式会社,東京都,千代田区,紀尾井町３番１０号紀尾井町ガーデンタワー２５０４号（Ｃ／Ｏｓｈｉｍａｄａ－ｏｆｆｉｃｅ）,,13,101,1020094,,,,,,,2024-05-27,1,,,,,ピーアンドシー,0
1742,8010001245123,新規,0,2024-05-27,2024-05-27,株式会社Ｂｌｏｃｋ　Ｇｅｎｅｒａｔｅ,,株式会社,東京都,中央区,日本橋人形町３丁目８番２号,,13,102,1030013,,,,,,,2024-05-27,1,,,,,ブロックジェネレート,0
1743,8010001245164,新規,0,2024-05-27,2024-05-27,ティーエルシーデイフラワー株式会社,,株式会社,東京都,千代田区,神田練塀町３番地,,13,101,1010022,,,,,,,2024-05-27,1,,,,,ティーエルシーデイフラワー,0
1744,8010001245172,新規,0,2024-05-27,2024-05-27,ティーエルシーセダム株式会社,,株式会社,東京都,千代田区,神田練塀町３番地,,13,101,1010022,,,,,,,2024-05-27,1,,,,,ティーエルシーセダム,0
1747,8010003043847,新規,0,2024-05-27,2024-05-27,合同会社ｄｒｉｖｅ,,合同会社,東京都,中央区,日本橋室町１丁目１１番１２号日本橋水野ビル７階,,13,102,1030022,,,,,,,2024-05-27,1,,,,,ドライブ,0
1752,8010401182651,新規,0,2024-05-27,2024-05-27,株式会社ＫＩＺＵＮＡ,,株式会社,東京都,港区,港南３丁目７番１６－２４０７号,,13,103,1080075,,,,,,,2024-05-27,1,,,,,キズナ,0
1756,8010405023216,新規,0,2024-05-27,2024-05-27,一般社団法人まもりて,,その他の設立登記法人,東京都,港区,北青山１丁目４－１－６１４,,13,103,1070061,,,,,,,2024-05-27,1,,,,,マモリテ,0
1758,8010503007459,新規,0,2024-05-27,2024-05-27,Ａｎ　Ｎｈｉｅｎ　Ｊａｐａｎ　Ｓｈｏｐ合同会社,,合同会社,東京都,台東区,浅草１丁目３６番１１号,,13,106,1110032,,,,,,,2024-05-27,1,,,,,アンニエンジャパンショップ,0
1766,8010701046060,新規,0,2024-05-27,2024-05-27,株式会社じゃがいも,,株式会社,東京都,品川区,大崎３丁目１８－８コンパルビル２０６,,13,109,1410032,,,,,,,2024-05-27,1,,,,,ジャガイモ,0
1776,8010903009096,新規,0,2024-05-27,2024-05-27,合同会社ＢＡＮ‐ＤＯ,,合同会社,東京都,世田谷区,祖師谷４丁目２５番１９号祖師谷シティーハウス３１３,,13,112,1570072,,,,,,,2024-05-27,1,,,,,バンドウ,0
1786,8011001162234,新規,0,2024-05-27,2024-05-27,株式会社ユニオニクス,,株式会社,東京都,渋谷区,神宮前６丁目２３番４号桑野ビル２階,,13,113,1500001,,,,,,,2024-05-27,1,,,,,ユニオニクス,0
1787,8011001162242,新規,0,2024-05-27,2024-05-27,株式会社ユウスケ・ナカノＤＥＳＩＧＮ　ＯＦＦＩＣＥ,,株式会社,東京都,目黒区,碑文谷５丁目２番５号Ｔ＆Ａビル５Ｆ,,13,110,1520003,,,,,,,2024-05-27,1,,,,,ユウスケナカノデザインオフィス,0
1788,8011001162250,新規,0,2024-05-27,2024-05-27,株式会社ＳＥＣＲＥＴ　ＲＥＣＩＰＥ,,株式会社,東京都,渋谷区,神宮前３丁目５番７号ＢＡＳＥ・Ｂ１Ｆ,,13,113,1500001,,,,,,,2024-05-27,1,,,,,シークレットレシピ,0
1790,8011003019234,新規,0,2024-05-27,2024-05-27,合同会社ブライト,,合同会社,東京都,渋谷区,道玄坂１丁目１０番８号２階Ｃ,,13,113,1500043,,,,,,,2024-05-27,1,,,,,ブライト,0
1792,8011101107403,新規,0,2024-05-27,2024-05-27,株式会社Ａ‐ｍｉｎｄ,,株式会社,東京都,新宿区,富久町１－２クラルテラセ新宿富久３０６,,13,104,1620067,,,,,,,2024-05-27,1,,,,,エーマインド,0
1795,8011301029694,新規,0,2024-05-27,2024-05-27,シオンネクスト株式会社,,株式会社,東京都,杉並区,西荻南３丁目７番１０号シオンハイツ,,13,115,1670053,,,,,,,2024-05-27,1,,,,,シオンネクスト,0
1806,8012401041911,新規,0,2024-05-27,2024-05-27,株式会社ＳＡＫＵＲＡ　ＲＯＡＤエンタテインメント,,株式会社,東京都,稲城市,平尾１丁目２０番地の３１,,13,225,2060823,,,,,,,2024-05-27,1,,,,,サクラロードエンタテインメント,0
1807,8012403006581,新規,0,2024-05-27,2024-05-27,Ｇｕｅｒｒｉｌｌａ　Ｗｏｒｋｓ合同会社,,合同会社,東京都,調布市,菊野台２丁目２０‐８,,13,208,1820007,,,,,,,2024-05-27,1,,,,,ゲリラワークス,0
1810,8012801023204,新規,0,2024-05-27,2024-05-27,株式会社ｅｕｒｅｋａ,,株式会社,東京都,東大和市,蔵敷１丁目４２６－２レスポワール２０１,,13,220,2070032,,,,,,,2024-05-27,1,,,,,エウレカ,0
1815,8013301052585,新規,0,2024-05-27,2024-05-27,株式会社Ａｍｉｒｉ,,株式会社,東京都,豊島区,上池袋４丁目３１番２８－７０４号,,13,116,1700012,,,,,,,2024-05-27,1,,,,,アミリ,0
1819,8020001157350,新規,0,2024-05-27,2024-05-27,株式会社Ｈ２ｍｉ,,株式会社,神奈川県,横浜市旭区,小高町１７０－８,,14,112,2410015,,,,,,,2024-05-27,1,,,,,エイチツーミー,0
1820,8020001157433,新規,0,2024-05-27,2024-05-27,株式会社バンブー,,株式会社,神奈川県,横浜市青葉区,すすき野３丁目８－１６－５０３,,14,117,2250021,,,,,,,2024-05-27,1,,,,,バンブー,0
1831,8030001160469,新規,0,2024-05-27,2024-05-27,株式会社丸浩急送,,株式会社,埼玉県,さいたま市緑区,美園３丁目１０番１５－１０７号,,11,109,3360967,,,,,,,2024-05-27,1,,,,,マルヒロキュウソウ,0
1832,8030001160527,新規,0,2024-05-27,2024-05-27,株式会社手嶋板金,,株式会社,埼玉県,蓮田市,東３丁目１２番１４－４号,,11,238,3490111,,,,,,,2024-05-27,1,,,,,テジマバンキン,0
1833,8030001160568,新規,0,2024-05-27,2024-05-27,東方株式会社,,株式会社,埼玉県,さいたま市南区,鹿手袋２丁目９番１１－２０３号,,11,108,3360031,,,,,,,2024-05-27,1,,,,,トウホウ,0
1834,8030001160601,新規,0,2024-05-27,2024-05-27,株式会社Ａｓｔｅｒ　ｐｒｏｍｏｔｉｏｎ,,株式会社,埼玉県,新座市,東北２丁目１７－１０トレスカーサス３０６,,11,230,3520001,,,,,,,2024-05-27,1,,,,,アスタープロモーション,0
1837,8030003024374,新規,0,2024-05-27,2024-05-27,Ｚａｉｔｃｈ合同会社,,合同会社,埼玉県,白岡市,篠津２６３３番地１,,11,246,3490204,,,,,,,2024-05-27,1,,,,,ザイチ,0
1840,8040001133580,新規,0,2024-05-27,2024-05-27,株式会社ＳＫ　ＴＲＡＤＩＮＧ,,株式会社,千葉県,野田市,なみき２丁目３２番地２４,,12,208,2700229,,,,,,,2024-05-27,1,,,,,エスケートレーディング,0
1851,8070005010278,新規,0,2024-05-27,2024-05-27,農事組合法人須田商店,,その他の設立登記法人,群馬県,みどり市,笠懸町鹿１７１番地１Ｂ２,,10,212,3792313,,,,,,,2024-05-27,1,,,,,スダショウテン,0
1858,8100001037486,新規,0,2024-05-27,2024-05-27,株式会社ＹＳＲ　Ｍａｎａｇｅｍｅｎｔ,,株式会社,長野県,飯田市,毛賀１５８番地３,,20,205,3950813,,,,,,,2024-05-27,1,,,,,ワイエスアールマネジメント,0
1866,8120001265259,新規,0,2024-05-27,2024-05-27,株式会社栄達商事,,株式会社,大阪府,大阪市中央区,日本橋２丁目１３番１２号プチ・カナール２０１号,,27,128,5420073,,,,,,,2024-05-27,1,,,,,エイタツショウジ,0
1867,8120001265325,新規,0,2024-05-27,2024-05-27,株式会社天力,,株式会社,大阪府,大阪市北区,東天満１丁目１２－１１－２０２号,,27,127,5300044,,,,,,,2024-05-27,1,,,,,テンリキ,0
1868,8120001265341,新規,0,2024-05-27,2024-05-27,正陽株式会社,,株式会社,大阪府,大阪市浪速区,敷津西１丁目９番１７－１０７号,,27,111,5560015,,,,,,,2024-05-27,1,,,,,セイヨウ,0
1869,8120003026691,新規,0,2024-05-27,2024-05-27,忍者エナジー合同会社,,合同会社,大阪府,大阪市中央区,島之内１丁目２１番２３号大起興産長堀橋ビル５０５号室,,27,128,5420082,,,,,,,2024-05-27,1,,,,,ニンジャエナジー,0
1875,8120901049216,新規,0,2024-05-27,2024-05-27,東陽家具株式会社,,株式会社,大阪府,茨木市,駅前４丁目６－３旭永ビル３階３０１号室,,27,211,5670888,,,,,,,2024-05-27,1,,,,,トウヨウカグ,0
1876,8120901049224,新規,0,2024-05-27,2024-05-27,株式会社ＫＯＵＳＥＩ,,株式会社,大阪府,高槻市,氷室町４丁目１７－２２,,27,207,5691141,,,,,,,2024-05-27,1,,,,,コウセイ,0
1877,8120901049232,新規,0,2024-05-27,2024-05-27,株式会社ネスト,,株式会社,大阪府,吹田市,山田西４丁目２番５２－１２０２号,,27,205,5650824,,,,,,,2024-05-27,1,,,,,ネスト,0
1879,8122001038132,新規,0,2024-05-27,2024-05-27,株式会社橋本タッピング加工所,,株式会社,大阪府,東大阪市,若江本町４丁目６番２９号,,27,227,5780942,,,,,,,2024-05-27,1,,,,,ハシモトタッピングカコウショ,0
1880,8130001077125,新規,0,2024-05-27,2024-05-27,株式会社ＵＫ,,株式会社,京都府,宇治市,木幡御蔵山３９番地の１６６６,,26,204,6110002,,,,,,,2024-05-27,1,,,,,ユーケー,0
1881,8130001077133,新規,0,2024-05-27,2024-05-27,株式会社スマートマッチング,,株式会社,京都府,京都市伏見区,横大路芝生５２,,26,109,6128246,,,,,,,2024-05-27,1,,,,,スマートマッチング,0
1885,8140001134528,新規,0,2024-05-27,2024-05-27,赤穂板金株式会社,,株式会社,兵庫県,姫路市,勝原区朝日谷４５９番地７８,,28,201,6711204,,,,,,,2024-05-27,1,,,,,アコウバンキン,0
1899,8180001161659,新規,0,2024-05-27,2024-05-27,株式会社ＹＬブリッジ,,株式会社,愛知県,名古屋市千種区,仲田２丁目１０番１２号,,23,101,4640074,,,,,,,2024-05-27,1,,,,,ワイエルブリッジ,0
1902,8180005020638,新規,0,2024-05-27,2024-05-27,一般社団法人ＥＶＥＲＧＲＥＥＮ,,その他の設立登記法人,愛知県,名古屋市名東区,大針３丁目６３番地の２,,23,115,4650064,,,,,,,2024-05-27,1,,,,,エバーグリーン,0
1903,8190001031365,新規,0,2024-05-27,2024-05-27,株式会社まるた,,株式会社,三重県,伊勢市,吹上２丁目２番地５ミタックスビル１階,,24,203,5160073,,,,,,,2024-05-27,1,,,,,マルタ,0
1904,8200001042542,新規,0,2024-05-27,2024-05-27,株式会社萬福,,株式会社,岐阜県,瑞穂市,本田１０９４番地９,,21,216,5010236,,,,,,,2024-05-27,1,,,,,マンフク,0
1909,8210001019770,新規,0,2024-05-27,2024-05-27,株式会社ＴＲＩＰＬＥ　ＣＩＲＣＬＥ,,株式会社,福井県,福井市,春日１丁目１３番２１号,,18,201,9188108,,,,,,,2024-05-27,1,,,,,トリプルサークル,0
1918,8240001063279,新規,0,2024-05-27,2024-05-27,株式会社どっこいしょＯｒｇａｎｉｃ,,株式会社,広島県,東広島市,志和町別府１５４０,,34,212,7390267,,,,,,,2024-05-27,1,,,,,ドッコイショオーガニック,0
1920,8260001039104,新規,0,2024-05-27,2024-05-27,日笠ＲＥＣ株式会社,,株式会社,岡山県,岡山市東区,西大寺松崎１６２番地５,,33,103,7048183,,,,,,,2024-05-27,1,,,,,ヒカサレック,0
1926,8290001105877,新規,0,2024-05-27,2024-05-27,ＬＡマネジメント株式会社,,株式会社,福岡県,福岡市中央区,六本松３丁目１－５８リード桜坂,,40,133,8100044,,,,,,,2024-05-27,1,,,,,ライフエイドマネジメント,0
1933,8290801030597,新規,0,2024-05-27,2024-05-27,株式会社ゆたかライフ,,株式会社,福岡県,北九州市八幡西区,則松６丁目９番２３号,,40,109,8070831,,,,,,,2024-05-27,1,,,,,ユタカライフ,0
1934,8300001013748,新規,0,2024-05-27,2024-05-27,ＡＫＡＩＴＯ　ＪＡＰＡＮ株式会社,,株式会社,佐賀県,鹿島市,大字三河内１１１１,,41,207,8491315,,,,,,,2024-05-27,1,,,,,アカイトジャパン,0
1940,8320001020494,新規,0,2024-05-27,2024-05-27,株式会社Ｌｉｏｎ,,株式会社,大分県,佐伯市,大字木立６２８６番地１,,44,205,8762121,,,,,,,2024-05-27,1,,,,,リオン,0
1944,8330003010393,新規,0,2024-05-27,2024-05-27,合同会社あしたの風,,合同会社,熊本県,玉名市,中１０６３－１,,43,206,8650064,,,,,,,2024-05-27,1,,,,,アシタノカゼ,0
1949,8370001051337,新規,0,2024-05-27,2024-05-27,株式会社ＦｕｌｌＳｗｉｎｇ,,株式会社,宮城県,仙台市青葉区,台原３丁目２５番２８号ＡＩＮＤＡＩＮＯＨＡＲＡ２０５,,04,101,9810911,,,,,,,2024-05-27,1,,,,,フルスイング,0
1956,8430001091888,新規,0,2024-05-27,2024-05-27,株式会社Ｎ４３プロ,,株式会社,北海道,札幌市清田区,北野三条５丁目２３番１８号,,01,110,0040863,,,,,,,2024-05-27,1,,,,,エヌヨンサンプロ,0
1958,8440001009443,新規,0,2024-05-27,2024-05-27,函館パーク株式会社,,株式会社,北海道,函館市,川原町１８番４号,,01,202,0410844,,,,,,,2024-05-27,1,,,,,ハコダテパーク,0
1959,8460401001262,新規,0,2024-05-27,2024-05-27,町のワインファクトリー株式会社,,株式会社,北海道,根室市,大正町３丁目３番地６,,01,223,0870028,,,,,,,2024-05-27,1,,,,,マチノワインファクトリー,0
1970,8700150119421,新規,0,2024-05-27,2024-05-27,Ｂｅｉｓｈａｎｚｈｉｄｉａｎ（Ｘｉａｍｅｎ）Ｏｎｌｉｎｅ　Ｔｅｃｈｎｏｌｏｇｙ　Ｃｏ．，Ｌｔｄ．,,外国会社等,,,,,,,,Ｎｏ．１２－５，Ｙｉｂｉｎ　Ｒｏａｄ，Ｈｕｌｉ　Ｄｉｓｔｒｉｃｔ，Ｘｉａｍｅｎ，Ｆｕｊｉａｎ,,,,,,2024-05-27,1,,,,,ベイシャンジディエンシャアメンワンルオコァジヨウシエンゴンス,0
1971,8700150125592,新規,0,2024-05-27,2024-05-27,Ｓｈｅｎｚｈｅｎ　Ｙａｂｏ　Ｐｏｗｅｒ　Ｔｅｃｈｎｏｌｏｇｙ　ＣＯ．，ＬＴＤ,,外国会社等,,,,,,,,Ｐｉｎｇｌｏｎｇｄｏｎｇｌｕ　２５２　ｈａｏ　Ｙａｓｈｉｇｏｎｇｙｅｙｕａｎ　３ｌｏｕ，Ｌｏｎｇｇａｎｇ，Ｇｕａｎｇｄｏｎｇ，Ｓｈｅｎｚｈｅｎ,,,,,,2024-05-27,1,,,,,シェンジェンシージュオイーコーァジーヨウシエンゴーンスー,0
1980,9010001245114,新規,0,2024-05-27,2024-05-27,Ｄｅｔａ　Ｅｌｉｓ　Ｊａｐａｎ株式会社,,株式会社,東京都,中央区,月島３丁目２４番５号月島ＮＲビル１Ｆ,,13,102,1040052,,,,,,,2024-05-27,1,,,,,データエリスジャパン,0
1981,9010001245163,新規,0,2024-05-27,2024-05-27,ティーエルシーシンビジウム株式会社,,株式会社,東京都,千代田区,神田練塀町３番地,,13,101,1010022,,,,,,,2024-05-27,1,,,,,ティーエルシーシンビジウム,0
1982,9010001245171,新規,0,2024-05-27,2024-05-27,ティーエルシーオーガスタ株式会社,,株式会社,東京都,千代田区,神田練塀町３番地,,13,101,1010022,,,,,,,2024-05-27,1,,,,,ティーエルシーオーガスタ,0
1983,9010001245213,新規,0,2024-05-27,2024-05-27,株式会社リカバリー,,株式会社,東京都,中央区,日本橋堀留町１丁目７番２号ＰＡＴＨ日本橋人形町６０２,,13,102,1030012,,,,,,,2024-05-27,1,,,,,リカバリー,0
1985,9010003043755,新規,0,2024-05-27,2024-05-27,合同会社Ｏｎｂｏａｒｄ,,合同会社,東京都,中央区,銀座１丁目１２番４号Ｎ＆ＥＢＬＤ．６Ｆ,,13,102,1040061,,,,,,,2024-05-27,1,,,,,オンボード,0
1986,9010003043838,新規,0,2024-05-27,2024-05-27,Ｂｒｅｎｎｔａｇ　Ｊａｐａｎ合同会社,,合同会社,東京都,中央区,銀座６丁目１０番１号ＧＩＮＺＡＳＩＸ１３階,,13,102,1040061,,,,,,,2024-05-27,1,,,,,ブレンタークジャパン,0
1987,9010003043846,新規,0,2024-05-27,2024-05-27,ＰＭＣ合同会社,,合同会社,東京都,中央区,銀座２丁目１５番２号ＫＲＧｉｎｚａＩＩ８Ｆ,00134914,13,102,1040061,,,,,,,2024-05-27,1,,,,,ピーエムシー,0
1988,9010101016159,新規,0,2024-05-27,2024-05-27,ホットハートはけん株式会社,,株式会社,東京都,八王子市,長房町１４６１番１０フルグランデ西八王子,,13,201,1930824,,,,,,,2024-05-27,1,,,,,ホットハートハケン,0
1989,9010401182535,新規,0,2024-05-27,2024-05-27,株式会社ｎｉｃｏ,,株式会社,東京都,港区,南青山３丁目１番３６号青山丸竹ビル６Ｆ,,13,103,1070062,,,,,,,2024-05-27,1,,,,,ニコ,0
1991,9010403032696,新規,0,2024-05-27,2024-05-27,合同会社Ｈａｌｍａ,,合同会社,東京都,港区,虎ノ門１丁目１番１８号ヒューリック虎ノ門ビル９階Ｌ＆Ｐ司法書士法人内,,13,103,1050001,,,,,,,2024-05-27,1,,,,,ハルマ,0
1993,9010501052316,新規,0,2024-05-27,2024-05-27,集＿株式会社,00134913,株式会社,東京都,台東区,台東３丁目５番１０号－１０２－２Ｏ室,,13,106,1100016,,,,,,,2024-05-27,1,,,,,シュウジュ,0
1994,9010601065275,新規,0,2024-05-27,2024-05-27,柏利株式会社,,株式会社,東京都,江東区,佐賀１丁目１６番３号２階Ｈ号室,,13,108,1350031,,,,,,,2024-05-27,1,,,,,ハクリ,0
2021,9011001162142,新規,0,2024-05-27,2024-05-27,フォクスセンス株式会社,,株式会社,東京都,渋谷区,富ヶ谷１丁目１４番１４号３階,,13,113,1510063,,,,,,,2024-05-27,1,,,,,フォクスセンス,0
2022,9011001162225,新規,0,2024-05-27,2024-05-27,アンドスチールグルー株式会社,,株式会社,東京都,渋谷区,道玄坂２丁目１１番１号,,13,113,1500043,,,,,,,2024-05-27,1,,,,,アンドスチールグルー,0
2023,9011001162299,新規,0,2024-05-27,2024-05-27,株式会社シオン,,株式会社,東京都,目黒区,下目黒５丁目２３‐１２,,13,110,1530064,,,,,,,2024-05-27,1,,,,,シオン,0
2027,9011003019209,新規,0,2024-05-27,2024-05-27,合同会社ななつ星,,合同会社,東京都,渋谷区,道玄坂１丁目１０番８号渋谷道玄坂東急ビル２Ｆ－Ｃ,,13,113,1500043,,,,,,,2024-05-27,1,,,,,ナナツボシ,0
2028,9011003019217,新規,0,2024-05-27,2024-05-27,合同会社ウルプナ,,合同会社,東京都,目黒区,目黒本町６丁目１７番２４号,,13,110,1520002,,,,,,,2024-05-27,1,,,,,,0
2032,9011101107385,新規,0,2024-05-27,2024-05-27,株式会社久富商貿,,株式会社,東京都,新宿区,若葉１丁目６番１号,,13,104,1600011,,,,,,,2024-05-27,1,,,,,ヒサトミショウボウ,0
2034,9011103014456,新規,0,2024-05-27,2024-05-27,ＫＯＤＥＮ合同会社,,合同会社,東京都,新宿区,百人町１丁目１８番８号大久保角ビル２０４号室Ｓ０１,,13,104,1690073,,,,,,,2024-05-27,1,,,,,コデン,0
2039,9011403004388,新規,0,2024-05-27,2024-05-27,新新合同会社,,合同会社,東京都,板橋区,成増２丁目２２－９ハヤブサビル１階１号室,,13,119,1750094,,,,,,,2024-05-27,1,,,,,シンシン,0
2042,9011503006078,新規,0,2024-05-27,2024-05-27,榎本商事合同会社,,合同会社,東京都,北区,東十条４丁目１１番３－２０２号,,13,117,1140001,,,,,,,2024-05-27,1,,,,,エノモトショウジ,0
2048,9011701027297,新規,0,2024-05-27,2024-05-27,サニーメディカルコンサルティング株式会社,,株式会社,東京都,江戸川区,西葛西６丁目１３番１号たかみビル５Ｆ－１０,,13,123,1340088,,,,,,,2024-05-27,1,,,,,サニーメディカルコンサルティング,0
2049,9011701027322,新規,0,2024-05-27,2024-05-27,株式会社ＰＫＧ,,株式会社,東京都,江戸川区,南小岩５丁目１６番２２号レイパパレス南小岩１０１,,13,123,1330056,,,,,,,2024-05-27,1,,,,,ピーケージー,0
2057,9012401041910,新規,0,2024-05-27,2024-05-27,Ｌｉｖｒａｎ株式会社,,株式会社,東京都,調布市,西つつじケ丘４丁目４番地３６,,13,208,1820006,,,,,,,2024-05-27,1,,,,,リブラン,0
2059,9012801023203,新規,0,2024-05-27,2024-05-27,Ｙ＆Ｉインタナショナル株式会社,,株式会社,東京都,国分寺市,内藤１丁目２０番地８１,,13,214,1850033,,,,,,,2024-05-27,1,,,,,ワイアンドアイインタナショナル,0
2060,9013301052584,新規,0,2024-05-27,2024-05-27,株式会社ＢＯＮＧＥＮ,,株式会社,東京都,豊島区,上池袋１丁目１５－１３,,13,116,1700012,,,,,,,2024-05-27,1,,,,,ボンゲン,0
2063,9020001157432,新規,0,2024-05-27,2024-05-27,麗馬グループ株式会社,,株式会社,神奈川県,横浜市保土ケ谷区,法泉１丁目１１番２－１号,,14,106,2400032,,,,,,,2024-05-27,1,,,,,レイバグループ,0
2066,9020003026214,新規,0,2024-05-27,2024-05-27,Ｔａｙｋａｎ合同会社,,合同会社,神奈川県,横浜市港北区,篠原町３０７４番地１２,,14,109,2220026,,,,,,,2024-05-27,1,,,,,タイカン,0
2070,9030001160550,新規,0,2024-05-27,2024-05-27,株式会社ＭａｔｅｙＦｕｎＴｒｅａｄ,,株式会社,埼玉県,さいたま市南区,内谷６丁目３番５－３１３号,,11,108,3360034,,,,,,,2024-05-27,1,,,,,メイティファントレッド,0
2071,9030001160575,新規,0,2024-05-27,2024-05-27,株式会社Ｒ,,株式会社,埼玉県,さいたま市北区,植竹町１丁目３３０番地４,,11,102,3310813,,,,,,,2024-05-27,1,,,,,アール,0
2073,9030003024373,新規,0,2024-05-27,2024-05-27,ゴールドトラスト合同会社,,合同会社,埼玉県,本庄市,前原２丁目２番２９号,,11,211,3670047,,,,,,,2024-05-27,1,,,,,ゴールドトラスト,0
2089,9050003008399,新規,0,2024-05-27,2024-05-27,合同会社春千代,,合同会社,茨城県,かすみがうら市,牛渡３２７５番地６,,08,230,3000213,,,,,,,2024-05-27,1,,,,,ハルチヨ,0
2091,9060001037135,新規,0,2024-05-27,2024-05-27,株式会社Ｌｏｇｉ　Ｌｉｏｎ,,株式会社,栃木県,栃木市,城内町２丁目２６－６１,,09,203,3280033,,,,,,,2024-05-27,1,,,,,ロジリオン,0
2096,9070001041788,新規,0,2024-05-27,2024-05-27,ＢｅｓｔＪＡＰＡＮ株式会社,,株式会社,群馬県,邑楽郡邑楽町,大字篠塚１５４６番地４,,10,525,3700615,,,,,,,2024-05-27,1,,,,,,0
2099,9070005010277,新規,0,2024-05-27,2024-05-27,農事組合法人ＳＤ産業,,その他の設立登記法人,群馬県,みどり市,笠懸町鹿１７１番地１Ｂ２,,10,212,3792313,,,,,,,2024-05-27,1,,,,,エスディーサンギョウ,0
2105,9110001038433,新規,0,2024-05-27,2024-05-27,グッドバン株式会社,,株式会社,新潟県,新潟市北区,太田甲２７４２番地６,,15,101,9503313,,,,,,,2024-05-27,1,,,,,グッドバン,0
2113,9120001265076,新規,0,2024-05-27,2024-05-27,株式会社ひがき建装,,株式会社,大阪府,大阪市淀川区,加島３丁目１１番２５号,,27,123,5320031,,,,,,,2024-05-27,1,,,,,ヒガキケンソウ,0
2114,9120001265266,新規,0,2024-05-27,2024-05-27,株式会社ヤマノ企画,,株式会社,大阪府,大阪市北区,長柄西２丁目８番１８－２０１号,,27,127,5310061,,,,,,,2024-05-27,1,,,,,ヤマノキカク,0
2115,9120001265324,新規,0,2024-05-27,2024-05-27,株式会社マイム,,株式会社,大阪府,大阪市平野区,加美北８丁目８番２７－５０５号,,27,126,5470001,,,,,,,2024-05-27,1,,,,,マイム,0
2116,9120001265332,新規,0,2024-05-27,2024-05-27,通築株式会社,,株式会社,大阪府,大阪市中央区,本町３丁目３－９－９Ｆ,,27,128,5410053,,,,,,,2024-05-27,1,,,,,ツウチク,0
2117,9120003026617,新規,0,2024-05-27,2024-05-27,合同会社アラカルト,,合同会社,大阪府,大阪市北区,梅田１丁目２番２号大阪駅前第２ビル１２－１２,,27,127,5300001,,,,,,,2024-05-27,1,,,,,アラカルト,0
2121,9120901049215,新規,0,2024-05-27,2024-05-27,株式会社ＯＮＥ　ＭＡＫＥ　ＰＲＯＪＥＣＴ,,株式会社,大阪府,茨木市,橋の内２丁目８番１２号岡部ビル３０２号,,27,211,5670805,,,,,,,2024-05-27,1,,,,,ワンメークプロジェクト,0
2122,9120903005190,新規,0,2024-05-27,2024-05-27,合同会社ａｉｎｇｏ,,合同会社,大阪府,吹田市,江の木町１７－３３,,27,205,5640053,,,,,,,2024-05-27,1,,,,,アインゴ,0
2132,9140001134493,新規,0,2024-05-27,2024-05-27,株式会社弥栄,,株式会社,兵庫県,姫路市,広畑区小坂１６４番地３９,,28,201,6711156,,,,,,,2024-05-27,1,,,,,イヤサカ,0
2133,9140001134551,新規,0,2024-05-27,2024-05-27,株式会社ＨＡＰ,,株式会社,兵庫県,姫路市,飾東町庄１１８番地,,28,201,6710218,,,,,,,2024-05-27,1,,,,,エイチエーピー,0
2141,9160003003199,新規,0,2024-05-27,2024-05-27,合同会社優プラス,,合同会社,滋賀県,彦根市,宇尾町４０番地１１,,25,202,5220045,,,,,,,2024-05-27,1,,,,,ユウプラス,0
2146,9180001161484,新規,0,2024-05-27,2024-05-27,株式会社ＳＨＩＣＨＩ,,株式会社,愛知県,名古屋市千種区,小松町５丁目１番地の２,,23,101,4640853,,,,,,,2024-05-27,1,,,,,シチ,0
2147,9180001161559,新規,0,2024-05-27,2024-05-27,株式会社Ｂｅ　Ｈｏｎｅｓｔ,,株式会社,愛知県,名古屋市港区,浜１丁目１－１４宇佐美ビル,,23,111,4550036,,,,,,,2024-05-27,1,,,,,ビーオネスト,0
2154,9210005010147,新規,0,2024-05-27,2024-05-27,一般社団法人サポート協会,,その他の設立登記法人,福井県,敦賀市,神楽町２丁目７－６,,18,202,9140063,,,,,,,2024-05-27,1,,,,,サポートキョウカイ,0
2160,9260003004690,新規,0,2024-05-27,2024-05-27,ＳＰＧ合同会社,,合同会社,岡山県,倉敷市,幸町６番６－７０７号,,33,202,7100051,,,,,,,2024-05-27,1,,,,,エスピージー,0
2166,9290001105901,新規,0,2024-05-27,2024-05-27,株式会社蓮池ホールディングス,,株式会社,福岡県,福岡市西区,大字飯盛４３０番地１,,40,135,8190037,,,,,,,2024-05-27,1,,,,,ハスイケホールディングス,0
2167,9290001105918,新規,0,2024-05-27,2024-05-27,ＫＩＹＯＭＵＲＡ株式会社,,株式会社,福岡県,福岡市東区,千早２丁目２８番３４－７０４号,,40,131,8130044,,,,,,,2024-05-27,1,,,,,キヨムラ,0
2168,9290001105926,新規,0,2024-05-27,2024-05-27,株式会社ＹＵＴＯ,,株式会社,福岡県,古賀市,谷山５５５番地９,,40,223,8113125,,,,,,,2024-05-27,1,,,,,ユウト,0
2169,9290003015371,新規,0,2024-05-27,2024-05-27,中川ホーム合同会社,,合同会社,福岡県,福岡市博多区,博多駅前１丁目２３番２号ｐａｒｋＦｒｏｎｔ博多駅前１丁目５Ｆ－Ｂ,,40,132,8120011,,,,,,,2024-05-27,1,,,,,ナカガワホーム,0
2174,9300001013747,新規,0,2024-05-27,2024-05-27,株式会社むさし,,株式会社,佐賀県,神埼郡吉野ヶ里町,大曲４９４１番地１,,41,327,8420103,,,,,,,2024-05-27,1,,,,,ムサシ,0
2175,9310005008767,新規,0,2024-05-27,2024-05-27,一般社団法人さかのまち企画,,その他の設立登記法人,長崎県,東彼杵郡川棚町,栄町４番地４,,42,322,8593608,,,,,,,2024-05-27,1,,,,,サカノマチキカク,0
2176,9320001020493,新規,0,2024-05-27,2024-05-27,株式会社プラム,,株式会社,大分県,国東市,安岐町塩屋１１３番地の４,,44,214,8730212,,,,,,,2024-05-27,1,,,,,プラム,0
2185,9360003013995,新規,0,2024-05-27,2024-05-27,合同会社はなきりん,,合同会社,沖縄県,那覇市,真嘉比２丁目３０－１７－７０２号グランドアビタシオン,,47,201,9020068,,,,,,,2024-05-27,1,,,,,ハナキリン,0
2187,9370001051336,新規,0,2024-05-27,2024-05-27,Ｃ２Ｎｅｔｗｏｒｋ株式会社,,株式会社,宮城県,仙台市青葉区,北山１丁目８番１１号,,04,101,9810931,,,,,,,2024-05-27,1,,,,,シートゥーネットワーク,0
2188,9370003006627,新規,0,2024-05-27,2024-05-27,合同会社ウイット,,合同会社,宮城県,仙台市若林区,大和町５丁目２９番２６－８０８号,,04,103,9840042,,,,,,,2024-05-27,1,,,,,ウイット,0
2197,9420005007907,新規,0,2024-05-27,2024-05-27,五所川原砂利協同組合,,その他の設立登記法人,青森県,五所川原市,大字桜田字鴻ノ巣１０番地１,,02,205,0370095,,,,,,,2024-05-27,1,,,,,ゴショガワラジャリ,0
2199,9430003016371,新規,0,2024-05-27,2024-05-27,グローバルリンクス合同会社,,合同会社,北海道,余市郡余市町,栄町４８番地２鳥一念,,01,408,0460001,,,,,,,2024-05-27,1,,,,,グローバルリンクス,0
2202,9470001020223,新規,0,2024-05-27,2024-05-27,株式会社Ｓａａｎｆａｎ,,株式会社,香川県,小豆郡小豆島町,坂手甲８２４－１,,37,324,7614425,,,,,,,2024-05-27,1,,,,,サーンファン,0
2210,9500001025656,新規,0,2024-05-27,2024-05-27,株式会社Ｃｏｔａ,,株式会社,愛媛県,松山市,中村４丁目１３番４１－４号,,38,201,7900964,,,,,,,2024-05-27,1,,,,,コタ,0
2211,9500005008707,新規,0,2024-05-27,2024-05-27,ＮＰＯ法人Ｓｍｉｌｅゆうかり,,その他の設立登記法人,愛媛県,西予市,三瓶町二及２番耕地６８３番地１,,38,214,7960903,,,,,,,2024-05-27,1,,,,,スマイルユウカリ,0
2214,9700150125591,新規,0,2024-05-27,2024-05-27,ｓｈｅｎｚｈｅｎｆｅｉｗｕｊｉｍａｏｙｉｙｏｕｘｉａｎｇｏｎｇｓｉ,,外国会社等,,,,,,,,１９７０ｋｅｊｉｙｕａｎ３ｄｏｎｇ１０５Ａ，ｍｉｎｚｈｉｊｉｅｄａｏ，ｍｉｎｚｈｉｓｈｅｑｕ，ｓｈｅｎｚｈｅｎ，ｌｏｎｇｈｕａｑｕ,,,,,,2024-05-27,1,,,,,シェンジェンフェイウージーマオイーヨウシエンゴーンスー,0
