sequenceNumber,corporateNumber,process,correct,updateDate,changeDate,name,nameImageId,kind,prefectureName,cityName,streetNumber,addressImageId,prefectureCode,cityCode,postCode,addressOutside,addressOutsideImageId,closeDate,closeCause,successorCorporateNumber,changeCause,assignmentDate,latest,enName,enPrefectureName,enCityName,enAddressOutside,furigana,hihyoji
5,1010001105110,登記記録の閉鎖等,0,2022-11-08,2022-11-02,株式会社キャリバー,,株式会社,東京都,世田谷区,北烏山３丁目５番９号,,13,112,1570061,,,2022-11-02,清算の結了等,,,2015-10-05,1,,,,,キャリバー,0
39,1010401100792,登記記録の閉鎖等,0,2022-11-08,2022-10-31,株式会社ソビコロ,,株式会社,東京都,千代田区,神田小川町１丁目１０番２－７０４号,,13,101,1010052,,,2022-10-31,清算の結了等,,,2015-10-05,1,,,,,ソビコロ,0
40,1010401111113,登記記録の閉鎖等,0,2022-11-08,2022-10-24,株式会社馨方亭,,株式会社,東京都,港区,新橋６丁目５番３号,,13,103,1050004,,,2022-10-24,清算の結了等,,,2015-10-05,1,,,,,シンフウテイ,0
47,1010401122127,登記記録の閉鎖等,0,2022-11-08,2022-11-04,株式会社リクポ,,株式会社,東京都,渋谷区,幡ヶ谷１丁目３０番８号,,13,113,1510072,,,2022-11-04,合併による解散等,1011001063257,令和４年１０月３１日東京都新宿区新宿三丁目１２番４号株式会社サイブリッジ（1011001063257）に合併し解散,2015-12-16,1,,,,,,0
48,1010401122267,登記記録の閉鎖等,0,2022-11-08,2022-11-01,株式会社Ｋ－ｍａｎａｇｅｍｅｎｔ,,株式会社,東京都,台東区,根岸１丁目１番２７号イニシア上野根岸１０１,,13,106,1100003,,,2022-11-01,清算の結了等,,,2015-12-24,1,,,,,ケイマネジメント,0
64,1010801020368,登記記録の閉鎖等,0,2022-11-08,2022-11-02,株式会社ミマツ・インターナショナル,,株式会社,東京都,葛飾区,青戸３丁目３２番２号,,13,122,1250062,,,2022-11-02,清算の結了等,,,2015-10-05,1,,,,,,0
79,1011003009803,登記記録の閉鎖等,0,2022-11-08,2022-10-31,ＳＡＭコンサルティング合同会社,,合同会社,東京都,渋谷区,笹塚２丁目４１番６号,,13,113,1510073,,,2022-10-31,清算の結了等,,,2019-03-29,1,,,,,サムコンサルティング,0
97,1011402004504,登記記録の閉鎖等,0,2022-11-08,2022-11-02,有限会社嶋田印刷,,有限会社,東京都,板橋区,前野町２丁目１９番１３号,,13,119,1740063,,,2022-11-02,清算の結了等,,,2015-10-05,1,,,,,シマダインサツ,0
158,1070002012333,登記記録の閉鎖等,0,2022-11-08,2022-11-01,有限会社三山商店,,有限会社,群馬県,高崎市,緑町１丁目１２番地１,,10,202,3700073,,,2022-11-01,清算の結了等,,,2015-10-05,1,,,,,ミヤマショウテン,0
168,1080002016069,登記記録の閉鎖等,0,2022-11-08,2022-11-04,有限会社東通清興タイヤ,,有限会社,静岡県,焼津市,東小川３丁目２番９号,,22,212,4250035,,,2022-11-04,清算の結了等,,,2015-10-05,1,,,,,トウツウセイコウタイヤ,0
211,1130001035799,登記記録の閉鎖等,0,2022-11-08,2022-10-31,平成建設株式会社,,株式会社,京都府,亀岡市,曽我部町寺広畑４３番地の１,,26,206,6210023,,,2022-10-31,清算の結了等,,,2015-10-05,1,,,,,ヘイセイケンセツ,0
231,1180001058548,登記記録の閉鎖等,0,2022-11-08,2022-11-01,株式会社バルバロッサ,,株式会社,愛知県,名古屋市緑区,有松２２１９番地,,23,114,4580924,,,2022-11-01,合併による解散等,8180002064662,令和４年１１月１日名古屋市緑区有松２２１９番地株式会社ケイ・ジイー（8180002064662）に合併し解散,2015-10-05,1,,,,,バルバロッサ,0
232,1180001096044,登記記録の閉鎖等,0,2022-11-08,2022-11-01,株式会社カワシマ,,株式会社,愛知県,東海市,富貴ノ台４丁目４４番地,,23,222,4760014,,,2022-11-01,清算の結了等,,,2015-10-05,1,,,,,カワシマ,0
257,1200002021915,登記記録の閉鎖等,0,2022-11-08,2022-11-04,遠藤建設有限会社,,有限会社,岐阜県,瑞浪市,土岐町５５８９番地の１,,21,208,5096101,,,2022-11-04,清算の結了等,,,2015-10-05,1,,,,,エンドウケンセツ,0
301,1290801025026,登記記録の閉鎖等,0,2022-11-08,2022-11-07,株式会社クロサワ建装,,株式会社,福岡県,北九州市八幡西区,光貞台２丁目２６番２－３号,,40,109,8070805,,,2022-11-07,清算の結了等,,,2018-10-16,1,,,,,クロサワケンソウ,0
323,1360003006916,登記記録の閉鎖等,0,2022-11-08,2022-10-31,ＨＵＭＭＩＮＧ　ＷＯＲＫＳ合同会社,,合同会社,沖縄県,那覇市,牧志２丁目５番６号コートヴィレッジ牧志１１０１,,47,201,9000013,,,2022-10-31,清算の結了等,,,2015-10-05,1,,,,,ハミングワークス,0
333,1390001007525,登記記録の閉鎖等,0,2022-11-08,2022-11-02,株式会社加藤,,株式会社,山形県,鶴岡市,文園町７番６号,,06,203,9970816,,,2022-11-02,清算の結了等,,,2015-10-05,1,,,,,カトウ,0
339,1430001067589,登記記録の閉鎖等,0,2022-11-08,2022-10-26,株式会社スピン,,株式会社,北海道,札幌市中央区,南三条西６丁目５番地,,01,101,0600063,,,2022-10-26,清算の結了等,,,2015-10-05,1,,,,,スピン,0
342,1430002041832,登記記録の閉鎖等,0,2022-11-08,2022-10-27,有限会社ワールドエンジニアリング,,有限会社,北海道,札幌市白石区,栄通１０丁目７番６号,,01,104,0030021,,,2022-10-27,清算の結了等,,,2015-10-05,1,,,,,ワールドエンジニアリング,0
389,2010102001364,登記記録の閉鎖等,0,2022-11-08,2022-11-04,有限会社大木商店,,有限会社,東京都,八王子市,元本郷町１丁目７番４号,,13,201,1920051,,,2022-11-04,清算の結了等,,,2015-10-05,1,,,,,オオキショウテン,0
442,2011201019710,登記記録の閉鎖等,0,2022-11-08,2022-11-04,株式会社ＤＩＶＥ,,株式会社,東京都,新宿区,上落合３丁目８番２５号,,13,104,1610034,,,2022-11-04,清算の結了等,,,2017-02-23,1,,,,,ダイブ,0
446,2011502005293,登記記録の閉鎖等,0,2022-11-08,2022-10-31,有限会社ヘアー・ジンク,,有限会社,東京都,北区,東十条４丁目４番５号,,13,117,1140001,,,2022-10-31,清算の結了等,,,2015-10-05,1,,,,,ヘアージンク,0
453,2011801020299,登記記録の閉鎖等,0,2022-11-08,2022-11-02,株式会社小岩フーズ,,株式会社,東京都,葛飾区,東新小岩２丁目１９番５号,,13,122,1240023,,,2022-11-02,清算の結了等,,,2015-10-05,1,,,,,,0
462,2020001058538,登記記録の閉鎖等,0,2022-11-08,2022-10-31,株式会社プライズクリエイト,,株式会社,神奈川県,横浜市神奈川区,三ツ沢下町２８番１２－３１１号,,14,102,2210852,,,2022-10-31,清算の結了等,,,2015-10-05,1,,,,,プライズクリエイト,0
476,2020002086158,登記記録の閉鎖等,0,2022-11-08,2022-11-01,有限会社キャラ,,有限会社,神奈川県,川崎市宮前区,宮崎２丁目１２番地,,14,136,2160033,,,2022-11-01,清算の結了等,,,2015-10-05,1,,,,,キャラ,0
505,2030002032607,登記記録の閉鎖等,0,2022-11-08,2022-10-31,有限会社城豚丸,,有限会社,埼玉県,所沢市,大字城８４６番地の５,,11,208,3590013,,,2022-10-31,清算の結了等,,,2015-10-05,1,,,,,ジョウトンマル,0
530,2080001004164,登記記録の閉鎖等,0,2022-11-08,2022-11-01,ノトス株式会社,,株式会社,静岡県,静岡市駿河区,手越原１７０番地の１,,22,102,4210131,,,2022-11-01,合併による解散等,2080001004874,令和４年１１月１日静岡市駿河区手越原１７０番地の１株式会社松永商店（2080001004874）に合併し解散,2015-10-05,1,,,,,ノトス,0
542,2110001025561,登記記録の閉鎖等,0,2022-11-08,2022-11-01,株式会社えちご川口農業振興公社,,株式会社,新潟県,長岡市,川口中山２５１５番地４,,15,202,9497503,,,2022-11-01,清算の結了等,,,2015-10-05,1,,,,,エチゴカワグチノウギョウシンコウコウシャ,0
562,2120002041020,登記記録の閉鎖等,0,2022-11-08,2022-11-01,有限会社エヌ・ティ・エム・コーポレーション,,有限会社,大阪府,大阪市北区,西天満６丁目２番１４号,,27,127,5300047,,,2022-11-01,合併による解散等,9260002012034,令和４年１１月１日大阪市中央区淡路町三丁目６番１２号株式会社中央コーポレーション（9260002012034）に合併し解散,2015-10-05,1,,,,,エヌティエムコーポレーション,0
571,2120901015941,登記記録の閉鎖等,0,2022-11-08,2022-11-04,株式会社リミックス,,株式会社,大阪府,茨木市,末広町２番２７号吉張ビル１階,,27,211,5670821,,,2022-11-04,合併による解散等,9140001055500,令和４年１１月１日兵庫県尼崎市昭和南通四丁目５９番地株式会社インフィニティ（9140001055500）に合併し解散,2015-10-05,1,,,,,リミックス,0
574,2120902021542,登記記録の閉鎖等,0,2022-11-08,2022-11-02,有限会社シィノン,,有限会社,大阪府,豊中市,曽根東町１丁目１番３０－１０３号,,27,203,5610802,,,2022-11-02,合併による解散等,2120001186857,令和４年１０月２７日大阪市北区堂島二丁目２番２号株式会社ケア２１メディカル（2120001186857）に合併し解散,2015-10-05,1,,,,,シィノン,0
589,2160001023552,登記記録の閉鎖等,0,2022-11-08,2022-11-02,株式会社グローバルリンク,,株式会社,滋賀県,大津市,膳所１丁目９番１９号,,25,201,5200815,,,2022-11-02,清算の結了等,,,2021-08-12,1,,,,,グローバルリンク,0
598,2180302018968,登記記録の閉鎖等,0,2022-11-08,2022-11-01,有限会社待木建設,,有限会社,愛知県,刈谷市,築地町１丁目１５番地３,,23,210,4480011,,,2022-11-01,清算の結了等,,,2015-10-05,1,,,,,マチキケンセツ,0
615,2220002011194,登記記録の閉鎖等,0,2022-11-08,2022-11-04,有限会社丸栄観光開発,,有限会社,石川県,小松市,白江町チ１９６番地１,,17,203,9230811,,,2022-11-04,清算の結了等,,,2015-10-05,1,,,,,マルエイカンコウカイハツ,0
619,2250001007694,登記記録の閉鎖等,0,2022-11-08,2022-11-01,株式会社五省商会,,株式会社,山口県,下関市,新椋野１丁目１番６号,,35,201,7510820,,,2022-11-01,合併による解散等,4250001006001,令和４年１１月１日山口県下関市新椋野一丁目１番６号株式会社友田（4250001006001）に合併し解散,2015-10-05,1,,,,,ゴセイショウカイ,0
626,2260005008168,登記記録の閉鎖等,0,2022-11-08,2022-11-07,医療法人佐野整形外科医院,,その他の設立登記法人,岡山県,玉野市,宇野１丁目２６番３号,,33,204,7060011,,,2022-11-07,清算の結了等,,,2015-10-05,1,,,,,サノセイケイゲカイイン,0
633,2290001053363,登記記録の閉鎖等,0,2022-11-08,2022-11-02,株式会社ピソコモド,,株式会社,福岡県,三潴郡大木町,大字三八松１０５２番地,,40,522,8300424,,,2022-11-02,合併による解散等,9290001052615,令和４年１１月１日福岡県三潴郡大木町大字三八松１０５２番地株式会社イケヒコ・コーポレーション（9290001052615）に合併し解散,2015-10-05,1,,,,,ピソコモド,0
644,2290802020438,登記記録の閉鎖等,0,2022-11-08,2022-11-04,有限会社ちかつ開発商事,,有限会社,福岡県,直方市,大字頓野１５５０番地の１,,40,204,8220002,,,2022-11-04,清算の結了等,,,2015-10-05,1,,,,,チカツカイハツショウジ,0
650,2320001008157,登記記録の閉鎖等,0,2022-11-08,2022-11-04,株式会社大分県産茶物流,,株式会社,大分県,豊後高田市,田染蕗４０９５番地,,44,209,8790841,,,2022-11-04,清算の結了等,,,2015-10-05,1,,,,,,0
667,2350005005296,登記記録の閉鎖等,0,2022-11-08,2022-10-04,特定非営利活動法人総合内科医とＩＣＴで支えあう安心な地域社会づくりの会,,その他の設立登記法人,宮崎県,日南市,戸高１丁目６番地１０,,45,204,8870031,,,2022-10-04,清算の結了等,,,2015-10-05,1,,,,,,0
683,2380001011865,登記記録の閉鎖等,0,2022-11-08,2022-11-01,株式会社マジカルモーメント,,株式会社,福島県,須賀川市,横山町８１番地,,07,207,9620041,,,2022-11-01,合併による解散等,4380001011186,令和４年１１月１日福島県須賀川市横山町８１番地北日本通信工業株式会社（4380001011186）に合併し解散,2015-10-05,1,,,,,マジカルモーメント,0
684,2390002006871,登記記録の閉鎖等,0,2022-11-08,2022-11-04,有限会社原田屋,,有限会社,山形県,山形市,城南町１丁目７番１５号,,06,201,9900827,,,2022-11-04,清算の結了等,,,2015-10-05,1,,,,,ハラダヤ,0
685,2390003001260,登記記録の閉鎖等,0,2022-11-08,2022-11-02,ピーシーラボ合同会社,,合同会社,山形県,天童市,大字成生２００７番地,,06,210,9940006,,,2022-11-02,清算の結了等,,,2015-10-05,1,,,,,ピーシーラボ,0
688,2430001007263,登記記録の閉鎖等,0,2022-11-08,2022-10-27,振興電機工事株式会社,,株式会社,北海道,札幌市北区,新琴似十一条２丁目２番１号,,01,102,0010911,,,2022-10-27,清算の結了等,,,2015-10-05,1,,,,,シンコウデンキコウジ,0
693,2430002049899,登記記録の閉鎖等,0,2022-11-08,2022-10-26,有限会社山中鉄工所,,有限会社,北海道,岩見沢市,元町一条東１丁目１５番地２,,01,210,0680054,,,2022-10-26,清算の結了等,,,2015-10-05,1,,,,,,0
696,2450001009290,登記記録の閉鎖等,0,2022-11-08,2022-11-04,株式会社増毛シナジー,,株式会社,北海道,増毛郡増毛町,別苅６３１番地２,,01,481,0770217,,,2022-11-04,清算の結了等,,,2015-10-05,1,,,,,マシケシナジー,0
714,3010001203283,登記記録の閉鎖等,0,2022-11-08,2022-10-31,株式会社プリオウエディングスＷＴ,,株式会社,東京都,中央区,八重洲１丁目５番１７号八重洲香川ビルディング６Ｆ,,13,102,1030028,,,2022-10-31,合併による解散等,1010001194590,令和４年１０月３１日東京都中央区八重洲一丁目５番１７号八重洲香川ビルディング６Ｆ株式会社プリオレストラン＆ウエディングス（1010001194590）に合併し解散,2019-08-16,1,,,,,プリオウエディングスダブリューティー,0
726,3010005019890,登記記録の閉鎖等,0,2022-11-08,2022-11-04,一般社団法人ミャンマー・ダウェイ文化経済開発協議会,,その他の設立登記法人,東京都,千代田区,神田神保町３丁目２３番地３,,13,101,1010051,,,2022-11-04,清算の結了等,,,2015-10-05,1,,,,,ミャンマーダウェイブンカケイザイカイハツキョウギカイ,0
746,3010901028276,登記記録の閉鎖等,0,2022-11-08,2022-11-02,株式会社匠コーポレーション,,株式会社,東京都,世田谷区,砧５丁目１番１８－２０３号,,13,112,1570073,,,2022-11-02,清算の結了等,,,2015-10-05,1,,,,,タクミコーポレーション,0
756,3011101002708,登記記録の閉鎖等,0,2022-11-08,2022-10-31,株式会社エイチ・イー・ディー・プランニング,,株式会社,埼玉県,東松山市,松風台１０番地２１,,11,212,3550055,,,2022-10-31,清算の結了等,,,2015-10-05,1,,,,,エイチイーディープランニング,0
758,3011101091585,登記記録の閉鎖等,0,2022-11-08,2022-11-02,株式会社ＢＡｍＢＹ　ｃａｒｅ,,株式会社,東京都,新宿区,北新宿４丁目７－１６－７０２,,13,104,1690074,,,2022-11-02,清算の結了等,,,2020-06-16,1,,,,,バンビケア,0
772,3011601002463,登記記録の閉鎖等,0,2022-11-08,2022-10-31,株式会社サンイツ,,株式会社,東京都,練馬区,大泉町４丁目３４番２４号,,13,120,1780062,,,2022-10-31,清算の結了等,,,2022-05-13,1,,,,,サンイツ,0
777,3011701016297,登記記録の閉鎖等,0,2022-11-08,2022-11-04,在宅医療・介護相談センター株式会社,,株式会社,東京都,江戸川区,西小岩１丁目２５番１５号,,13,123,1330057,,,2022-11-04,清算の結了等,,,2015-10-05,1,,,,,ザイタクイリョウカイゴソウダンセンター,0
787,3012402017618,登記記録の閉鎖等,0,2022-11-08,2022-11-04,有限会社福音総合研究所,,有限会社,東京都,武蔵野市,西久保１丁目１２番１２号,,13,203,1800013,,,2022-11-04,清算の結了等,,,2015-10-05,1,,,,,フクインソウゴウケンキュウジョ,0
793,3020001021370,登記記録の閉鎖等,0,2022-11-08,2022-10-31,株式会社野毛食堂,,株式会社,神奈川県,横浜市港北区,篠原台町１番７号,,14,109,2220024,,,2022-10-31,清算の結了等,,,2015-10-05,1,,,,,ノゲショクドウ,0
803,3021001001255,登記記録の閉鎖等,0,2022-11-08,2022-10-31,株式会社ダン,,株式会社,神奈川県,藤沢市,鵠沼海岸２丁目１７番１４号,,14,205,2510037,,,2022-10-31,清算の結了等,,,2015-10-05,1,,,,,ダン,0
829,3040002093077,登記記録の閉鎖等,0,2022-11-08,2022-10-04,有限会社増田商店,,有限会社,千葉県,我孫子市,日秀４番地,,12,222,2701123,,,2022-10-04,清算の結了等,,,2015-10-05,1,,,,,,0
837,3060002033691,登記記録の閉鎖等,0,2022-11-08,2022-10-20,有限会社みとも,,有限会社,栃木県,栃木市,藤岡町大田和５７１番地,,09,203,3231107,,,2022-10-20,清算の結了等,,,2015-10-05,1,,,,,ミトモ,0
844,3080002001374,登記記録の閉鎖等,0,2022-11-08,2022-11-04,有限会社ガードゥ,,有限会社,静岡県,静岡市葵区,呉服町２丁目８番地の１,,22,101,4200031,,,2022-11-04,清算の結了等,,,2015-10-05,1,,,,,ガードゥ,0
845,3080002016050,登記記録の閉鎖等,0,2022-11-08,2022-11-04,有限会社てんとう虫,,有限会社,静岡県,焼津市,石津向町８番地の２８,,22,212,4250044,,,2022-11-04,清算の結了等,,,2015-10-05,1,,,,,テントウムシ,0
855,3110001026781,登記記録の閉鎖等,0,2022-11-08,2022-11-01,株式会社和光,,株式会社,新潟県,魚沼市,小出島１０４１番地,,15,225,9460011,,,2022-11-01,清算の結了等,,,2015-10-05,1,,,,,ワコウ,0
865,3120001099430,登記記録の閉鎖等,0,2022-11-08,2022-11-01,株式会社ゼストアシスト,,株式会社,大阪府,大阪市東淀川区,豊里２丁目２５番８号北淀宝アカシアビル,,27,114,5330013,,,2022-11-01,合併による解散等,3120001072156,令和４年１１月１日大阪市東淀川区豊里二丁目２５番８号北淀宝アカシアビル２Ｆ株式会社レンタックス（3120001072156）に合併し解散,2015-10-05,1,,,,,ゼストアシスト,0
908,3140001098307,登記記録の閉鎖等,0,2022-11-08,2022-11-02,株式会社赤星,,株式会社,兵庫県,尼崎市,水堂町２丁目２９－１８,,28,202,6610026,,,2022-11-02,清算の結了等,,,2015-10-05,1,,,,,,0
930,3180002074831,登記記録の閉鎖等,0,2022-11-08,2022-10-31,有限会社小嶋造園,,有限会社,愛知県,犬山市,大字前原字西畑８９番地の１,,23,215,4840061,,,2022-10-31,清算の結了等,,,2015-10-05,1,,,,,コジマゾウエン,0
936,3190002024133,登記記録の閉鎖等,0,2022-11-08,2022-11-02,有限会社マルハチワークス,,有限会社,三重県,四日市市,平尾町２３７０番３１,,24,202,5121205,,,2022-11-02,清算の結了等,,,2015-10-05,1,,,,,マルハチワークス,0
940,3200001032548,登記記録の閉鎖等,0,2022-11-08,2022-11-08,株式会社根尾特産物振興会,,株式会社,岐阜県,本巣市,根尾板所６４３番地４の２,,21,218,5011524,,,2022-11-08,清算の結了等,,,2016-02-04,1,,,,,ネオトクサンブツシンコウカイ,0
963,3280002008688,登記記録の閉鎖等,0,2022-11-08,2022-11-02,有限会社三ツ星,,有限会社,島根県,江津市,都野津町２０６２番地,,32,207,6950021,,,2022-11-02,清算の結了等,,,2015-10-05,1,,,,,ミツボシ,0
1006,3380001020642,登記記録の閉鎖等,0,2022-11-08,2022-11-01,株式会社中原リーディング,,株式会社,東京都,中央区,晴海３丁目１３番１－５２２４号,,13,102,1040053,,,2022-11-01,合併による解散等,5010001120683,令和４年１１月１日東京都中央区晴海三丁目１３番１－５２２４号株式会社中原ナレッジ（5010001120683）に合併し解散,2015-10-05,1,,,,,ナカハラリーディング,0
1027,3470001010386,登記記録の閉鎖等,0,2022-11-08,2022-11-04,株式会社四国工藝社,,株式会社,香川県,観音寺市,豊浜町和田甲３３９番地,,37,205,7691603,,,2022-11-04,清算の結了等,,,2015-10-05,1,,,,,シコクコウゲイシャ,0
1028,3490002010524,登記記録の閉鎖等,0,2022-11-08,2022-10-31,須崎ハイヤー有限会社,00006720,有限会社,高知県,須崎市,新町２丁目１番４号,,39,206,7850003,,,2022-10-31,清算の結了等,,,2015-10-05,1,,,,,,0
1055,4010005021219,登記記録の閉鎖等,0,2022-11-08,2022-11-02,一般社団法人日本スポーツ振興会,,その他の設立登記法人,東京都,中央区,日本橋本町３丁目７－２,,13,102,1030023,,,2022-11-02,清算の結了等,,,2015-10-05,1,,,,,ニホンスポーツシンコウカイ,0
1063,4010401119228,登記記録の閉鎖等,0,2022-11-08,2022-11-01,株式会社ＬＩＦＵＬＬ　ＭＯＶＥ,,株式会社,東京都,千代田区,麹町１丁目４番地４,,13,101,1020083,,,2022-11-01,清算の結了等,,,2015-10-05,1,,,,,ライフルムーブ,0
1085,4011003012688,登記記録の閉鎖等,0,2022-11-08,2022-10-31,合同会社バタフライライフ東京,,合同会社,東京都,渋谷区,神宮前６丁目２３番４号桑野ビル２階,,13,113,1500001,,,2022-10-31,清算の結了等,,,2021-05-13,1,,,,,バタフライライフトウキョウ,0
1091,4011101066719,登記記録の閉鎖等,0,2022-11-08,2022-11-02,株式会社ｃｏｌｋ,,株式会社,東京都,新宿区,西新宿１丁目１８番５号甲新中沖ビル６Ｆ,,13,104,1600023,,,2022-11-02,清算の結了等,,,2015-10-05,1,,,,,コルク,0
1099,4011301005674,登記記録の閉鎖等,0,2022-11-08,2022-10-31,株式会社ハウスラボ,,株式会社,東京都,杉並区,高円寺南２丁目４５番１８号,,13,115,1660003,,,2022-10-31,清算の結了等,,,2015-10-05,1,,,,,ハウスラボ,0
1108,4011501005350,登記記録の閉鎖等,0,2022-11-08,2022-10-25,株式会社アモダ,,株式会社,東京都,荒川区,南千住５丁目２６番５号,,13,118,1160003,,,2022-10-25,清算の結了等,,,2015-10-05,1,,,,,アモダ,0
1111,4011602010308,登記記録の閉鎖等,0,2022-11-08,2022-11-02,有限会社ＹＰコーポレーション,,有限会社,東京都,練馬区,大泉町２丁目４番５号,,13,120,1780062,,,2022-11-02,清算の結了等,,,2015-10-05,1,,,,,,0
1128,4020001087626,登記記録の閉鎖等,0,2022-11-08,2022-11-01,日本マイセロ株式会社,,株式会社,神奈川県,横浜市港北区,新横浜２丁目５番地１１,,14,109,2220033,,,2022-11-01,清算の結了等,,,2015-10-05,1,,,,,ニホンマイセロ,0
1146,4021001061050,登記記録の閉鎖等,0,2022-11-08,2022-11-02,株式会社ＭＲＡ,,株式会社,神奈川県,中郡大磯町,高麗２丁目１９番２号,,14,341,2550001,,,2022-11-02,清算の結了等,,,2017-01-13,1,,,,,,0
1158,4030001039568,登記記録の閉鎖等,0,2022-11-08,2022-10-31,アルファ計装株式会社,,株式会社,埼玉県,三郷市,早稲田３丁目１８番地１８,,11,237,3410018,,,2022-10-31,清算の結了等,,,2015-10-05,1,,,,,アルファケイソウ,0
1159,4030001058799,登記記録の閉鎖等,0,2022-11-08,2022-10-31,株式会社近喜屋,,株式会社,埼玉県,川越市,南通町７番地１７,,11,201,3500045,,,2022-10-31,清算の結了等,,,2015-10-05,1,,,,,,0
1161,4030001062636,登記記録の閉鎖等,0,2022-11-08,2022-10-31,株式会社心流通,,株式会社,埼玉県,北本市,本町７丁目１７番地１,,11,233,3640033,,,2022-10-31,清算の結了等,,,2015-10-05,1,,,,,シンリュウツウ,0
1176,4030002057032,登記記録の閉鎖等,0,2022-11-08,2022-10-31,有限会社インテリア高橋,,有限会社,埼玉県,上尾市,大字瓦葺１３１７番地２,,11,219,3620022,,,2022-10-31,清算の結了等,,,2015-10-05,1,,,,,インテリアタカハシ,0
1210,4080003002552,登記記録の閉鎖等,0,2022-11-08,2022-11-04,バンブー合同会社,,合同会社,静岡県,静岡市駿河区,広野６丁目６番２９号,,22,102,4210121,,,2022-11-04,清算の結了等,,,2021-04-07,1,Bamboo LLC,Shizuoka,"6-6-29 Hirono, Suruga ku Shizuoka shi",,バンブー,0
1214,4090003001669,登記記録の閉鎖等,0,2022-11-08,2022-11-01,人財エクセレント合同会社,,合同会社,山梨県,甲府市,富竹１丁目６番２号,,19,201,4000049,,,2022-11-01,清算の結了等,,,2020-04-20,1,,,,,ジンザイエクセレント,0
1234,4120002037850,登記記録の閉鎖等,0,2022-11-08,2022-11-04,有限会社パックステーション,,有限会社,大阪府,豊能郡豊能町,希望ケ丘１丁目７番地の５,,27,321,5630214,,,2022-11-04,清算の結了等,,,2015-10-05,1,,,,,パックステーション,0
1247,4120101060563,登記記録の閉鎖等,0,2022-11-08,2022-11-01,エフ工業株式会社,,株式会社,大阪府,堺市美原区,平尾１８８２番地１,,27,147,5870022,,,2022-11-01,清算の結了等,,,2019-10-01,1,,,,,エフコウギョウ,0
1262,4140001087597,登記記録の閉鎖等,0,2022-11-08,2022-11-02,株式会社ダニーインターナショナル,,株式会社,兵庫県,神戸市東灘区,住吉東町１丁目６番１７－１０４号,,28,101,6580052,,,2022-11-02,清算の結了等,,,2015-10-05,1,,,,,ダニーインターナショナル,0
1270,4140005025306,登記記録の閉鎖等,0,2022-11-08,2022-11-04,一般社団法人日本サクセス＆ステイタスオブヘアードレッサー協会,,その他の設立登記法人,兵庫県,神戸市中央区,磯辺通４丁目２番１４－１５０１号,,28,110,6510084,,,2022-11-04,清算の結了等,,,2020-09-24,1,,,,,ニホンサクセスアンドステイタスオブヘアードレッサーキョウカイ,0
1292,4180002018523,登記記録の閉鎖等,0,2022-11-08,2022-11-02,有限会社高田工作所,,有限会社,愛知県,名古屋市中川区,小本本町２丁目４番地,,23,110,4540826,,,2022-11-02,清算の結了等,,,2015-10-05,1,,,,,タカダコウサクショ,0
1293,4180002038406,登記記録の閉鎖等,0,2022-11-08,2022-11-04,有限会社エム・コンサルティング,,有限会社,愛知県,名古屋市千種区,香流橋２丁目１番３７号,,23,101,4640002,,,2022-11-04,清算の結了等,,,2015-10-05,1,,,,,エムコンサルティング,0
1295,4180002064286,登記記録の閉鎖等,0,2022-11-08,2022-11-02,有限会社堀井興業所,,有限会社,愛知県,豊明市,三崎町三崎８番地の７,,23,229,4701124,,,2022-11-02,清算の結了等,,,2015-10-05,1,,,,,ホリイコウギョウショ,0
1296,4180002086867,登記記録の閉鎖等,0,2022-11-08,2022-11-02,有限会社大府金型,,有限会社,愛知県,大府市,江端町２丁目１２１番地,,23,223,4740035,,,2022-11-02,清算の結了等,,,2015-10-05,1,,,,,オオブカナガタ,0
1335,4260001034166,登記記録の閉鎖等,0,2022-11-08,2022-11-04,株式会社ＨＳパートナーズ,,株式会社,岡山県,岡山市北区,北長瀬表町２丁目１３番２７号,,33,101,7000962,,,2022-11-04,清算の結了等,,,2020-03-31,1,,,,,エイチエスパートナーズ,0
1337,4280002000751,登記記録の閉鎖等,0,2022-11-08,2022-11-04,有限会社晃英,,有限会社,島根県,松江市,矢田町２５０番地１０６,,32,201,6900021,,,2022-11-04,清算の結了等,,,2015-10-05,1,,,,,コウエイ,0
1348,4290801021781,登記記録の閉鎖等,0,2022-11-08,2022-11-07,株式会社Ｍ．Ｆ．Ｙ．,,株式会社,福岡県,北九州市門司区,下馬寄５番１７－８０１号,,40,101,8000051,,,2022-11-07,清算の結了等,,,2015-10-05,1,,,,,エムエフワイ,0
1358,4340001004482,登記記録の閉鎖等,0,2022-11-08,2022-11-07,有邦設計株式会社,,株式会社,鹿児島県,鹿児島市,新照院町１３番３号,,46,201,8900016,,,2022-11-07,清算の結了等,,,2015-10-05,1,,,,,ユウホウセッケイ,0
1417,5010001180711,登記記録の閉鎖等,0,2022-11-08,2022-11-01,ジ・オブザーバトリー・インターナショナル株式会社,,株式会社,東京都,文京区,千駄木５丁目１７番１９号,,13,105,1130022,,,2022-11-01,清算の結了等,,,2017-01-12,1,,,,,ジオブザーバトリーインターナショナル,0
1434,5010501044341,登記記録の閉鎖等,0,2022-11-08,2022-11-04,株式会社Ｄａｒｗｉｎ,,株式会社,東京都,台東区,花川戸１丁目７番１１号,,13,106,1110033,,,2022-11-04,清算の結了等,,,2019-07-05,1,,,,,ダーウィン,0
1436,5010505003269,登記記録の閉鎖等,0,2022-11-08,2022-11-02,一般社団法人笑友会,,その他の設立登記法人,東京都,台東区,東上野６丁目１９番１６号,,13,106,1100015,,,2022-11-02,清算の結了等,,,2021-10-15,1,,,,,ショウユウカイ,0
1438,5010601053374,登記記録の閉鎖等,0,2022-11-08,2022-11-01,ホームセレクト株式会社,,株式会社,東京都,杉並区,梅里２丁目４０番１７－１００６号,,13,115,1660011,,,2022-11-01,清算の結了等,,,2018-05-24,1,,,,,ホームセレクト,0
1461,5011102007745,登記記録の閉鎖等,0,2022-11-08,2022-11-01,株式会社スマートシステムサービス,,株式会社,東京都,千代田区,三番町７番２号,,13,101,1020075,,,2022-11-01,清算の結了等,,,2015-10-05,1,,,,,スマートシステムサービス,0
1463,5011102022059,登記記録の閉鎖等,0,2022-11-08,2022-11-04,有限会社エー・アイ・ユー,,有限会社,東京都,新宿区,西新宿１丁目１９番１２号鮎沢ビル９階,,13,104,1600023,,,2022-11-04,清算の結了等,,,2015-10-05,1,,,,,エーアイユー,0
1466,5011302004212,登記記録の閉鎖等,0,2022-11-08,2022-11-02,サン・トモエ有限会社,,有限会社,東京都,杉並区,宮前２丁目１８番５号,,13,115,1680081,,,2022-11-02,清算の結了等,,,2015-10-05,1,,,,,サントモエ,0
1470,5011501015687,登記記録の閉鎖等,0,2022-11-08,2022-11-01,株式会社ボイスエンパイア,,株式会社,愛知県,名古屋市北区,成願寺１丁目６番Ａ－３９０４号,,23,103,4620021,,,2022-11-01,清算の結了等,,,2015-10-05,1,,,,,ボイスエンパイア,0
1473,5011601021981,登記記録の閉鎖等,0,2022-11-08,2022-11-02,株式会社シングクリエイト,,株式会社,東京都,西東京市,田無町７丁目３番２８－１０１号,,13,229,1880011,,,2022-11-02,清算の結了等,,,2017-08-09,1,,,,,シングクリエイト,0
1480,5011802008729,登記記録の閉鎖等,0,2022-11-08,2022-11-04,有限会社旭町食糧販売所,,有限会社,東京都,足立区,千住旭町２２番８号,,13,121,1200026,,,2022-11-04,清算の結了等,,,2015-10-05,1,,,,,アサヒチョウショクリョウハンバイジョ,0
1487,5013202005521,登記記録の閉鎖等,0,2022-11-08,2022-10-31,有限会社プティコレット,,有限会社,東京都,目黒区,碑文谷５丁目３番１３号,,13,110,1520003,,,2022-10-31,清算の結了等,,,2015-10-05,1,,,,,プティコレット,0
1488,5013301032862,登記記録の閉鎖等,0,2022-11-08,2022-11-01,エスエスブラッサム株式会社,,株式会社,東京都,豊島区,駒込１丁目１１番７号,,13,116,1700003,,,2022-11-01,清算の結了等,,,2015-10-05,1,,,,,エスエスブラッサム,0
1499,5020003020419,登記記録の閉鎖等,0,2022-11-08,2022-11-01,ＶＥＲＭＡＴＥＲ合同会社,,合同会社,神奈川県,横浜市保土ケ谷区,瀬戸ケ谷町２３１－３０,,14,106,2400024,,,2022-11-01,清算の結了等,,,2021-09-01,1,,,,,ヴァーメーター,0
1519,5030002109360,登記記録の閉鎖等,0,2022-11-08,2022-10-25,有限会社エーゼットサーキットデザイン,,有限会社,埼玉県,川口市,南前川２丁目３番１６号ハイツあかつき１０２号,,11,203,3330846,,,2022-10-25,清算の結了等,,,2015-10-05,1,,,,,エーゼットサーキットデザイン,0
1520,5030003014452,登記記録の閉鎖等,0,2022-11-08,2022-10-28,合同会社Ｔｈｅ　ｔｈｉｒｄ　ｓｐａｃｅ,,合同会社,埼玉県,さいたま市大宮区,宮町３丁目２１番地１ライオンズプラザ大宮シティ３０６号室,,11,103,3300802,,,2022-10-28,清算の結了等,,,2019-11-29,1,,,,,ザサードスペース,0
1522,5040001027983,登記記録の閉鎖等,0,2022-11-08,2022-10-27,株式会社アイ・アンド・エム,,株式会社,千葉県,鎌ケ谷市,道野辺中央３丁目７番２７号,,12,224,2730113,,,2022-10-27,清算の結了等,,,2015-10-05,1,,,,,アイアンドエム,0
1534,5050002018725,登記記録の閉鎖等,0,2022-11-08,2022-10-24,有限会社池田鉄工建設,,有限会社,茨城県,坂東市,菅谷７１８番地,,08,228,3060505,,,2022-10-24,清算の結了等,,,2022-05-25,1,,,,,イケダテッコウケンセツ,0
1542,5080001012107,登記記録の閉鎖等,0,2022-11-08,2022-11-04,株式会社あゆみケアセンター,,株式会社,静岡県,静岡市清水区,有東坂１３番１３号,,22,103,4240873,,,2022-11-04,清算の結了等,,,2015-10-05,1,,,,,アユミケアセンター,0
1553,5110001013290,登記記録の閉鎖等,0,2022-11-08,2022-10-31,株式会社長谷川工務店,,株式会社,新潟県,胎内市,飯角１６番地１,,15,227,9592626,,,2022-10-31,清算の結了等,,,2015-10-05,1,,,,,ハセガワコウムテン,0
1558,5110001023645,登記記録の閉鎖等,0,2022-11-08,2022-11-01,横山建設株式会社,,株式会社,新潟県,長岡市,柳原町３番地７,,15,202,9400072,,,2022-11-01,清算の結了等,,,2015-10-05,1,,,,,ヨコヤマケンセツ,0
1581,5120103004815,登記記録の閉鎖等,0,2022-11-08,2022-10-28,合同会社笑福,,合同会社,大阪府,阪南市,下出１０７番地の７,,27,232,5990202,,,2022-10-28,清算の結了等,,,2022-08-16,1,,,,,エフク,0
1595,5140001065180,登記記録の閉鎖等,0,2022-11-08,2022-11-01,株式会社マザーズフーズ,,株式会社,兵庫県,たつの市,揖保町揖保中３３５番地,,28,229,6794155,,,2022-11-01,合併による解散等,6140001061476,令和４年１１月１日兵庫県姫路市中地１８８番地の１株式会社ペルゴ（6140001061476）に合併し解散,2015-10-05,1,,,,,マザーズフーズ,0
1597,5140001091210,登記記録の閉鎖等,0,2022-11-08,2022-11-01,ｍａｒｋＵＰ株式会社,,株式会社,兵庫県,小野市,住永町１４４－１,,28,218,6751368,,,2022-11-01,合併による解散等,2140001086378,令和４年１１月１日兵庫県姫路市八代緑ヶ丘町３番６号株式会社Ａ．Ｄ．Ｄ（2140001086378）に合併し解散,2015-10-05,1,,,,,,0
1609,5170002008202,登記記録の閉鎖等,0,2022-11-08,2022-11-04,有限会社クレセル,,有限会社,和歌山県,岩出市,安上４５４番地の１１,,30,209,6496252,,,2022-11-04,清算の結了等,,,2015-10-05,1,,,,,クレセル,0
1633,5200002021465,登記記録の閉鎖等,0,2022-11-08,2022-11-04,有限会社ナガイ,,有限会社,岐阜県,土岐市,土岐津町土岐口２３６４番地,,21,212,5095122,,,2022-11-04,清算の結了等,,,2015-10-05,1,,,,,ナガイ,0
1635,5200005001464,登記記録の閉鎖等,0,2022-11-08,2022-11-08,医療法人社団泰久会おぐしクリニック,,その他の設立登記法人,岐阜県,岐阜市,領下６丁目８７番地,,21,201,5008241,,,2022-11-08,清算の結了等,,,2015-10-05,1,,,,,タイキュウカイオグシクリニック,0
1638,5220002010516,登記記録の閉鎖等,0,2022-11-08,2022-11-01,有限会社北市測量設計,,有限会社,石川県,小松市,打越町１丁目４４番地,,17,203,9230831,,,2022-11-01,合併による解散等,4220001008487,令和４年１１月１日石川県金沢市田上の里一丁目１３９番地株式会社北市コンサルタント（4220001008487）に合併し解散,2015-10-05,1,,,,,キタイチソクリョウセッケイ,0
1652,5280001003960,登記記録の閉鎖等,0,2022-11-08,2022-11-04,石見日東株式会社,,株式会社,島根県,大田市,五十猛町１２４５番地,,32,205,6940035,,,2022-11-04,合併による解散等,9120001077513,令和４年１１月１日大阪市中央区備後町二丁目１番１号日東工業株式会社（9120001077513）に合併し解散,2015-10-05,1,,,,,イワミニットウ,0
1678,5310002010044,登記記録の閉鎖等,0,2022-11-08,2022-11-02,佐世保中央不動産有限会社,,有限会社,長崎県,佐世保市,高天町９番２３号,,42,202,8570802,,,2022-11-02,清算の結了等,,,2015-10-05,1,,,,,サセボチュウオウフドウサン,0
1680,5320005007994,登記記録の閉鎖等,0,2022-11-08,2022-11-02,特定非営利活動法人中津まちなみ会,,その他の設立登記法人,大分県,中津市,中央町１丁目５番２４号,,44,203,8710024,,,2022-11-02,清算の結了等,,,2015-10-05,1,,,,,ナカツマチナミカイ,0
1682,5330001013533,登記記録の閉鎖等,0,2022-11-08,2022-11-01,株式会社協和開発,,株式会社,熊本県,八代市,迎町２丁目九号１０番地,,43,202,8660055,,,2022-11-01,合併による解散等,2330001013825,令和４年１１月１日熊本県八代市迎町二丁目九号１０番地和久田建設株式会社（2330001013825）に合併し解散,2015-10-05,1,,,,,キョウワカイハツ,0
1687,5330002021799,登記記録の閉鎖等,0,2022-11-08,2022-11-01,有限会社嶋田電工,,有限会社,熊本県,玉名郡長洲町,大字高浜１２００番地２,,43,368,8690121,,,2022-11-01,清算の結了等,,,2015-10-05,1,,,,,シマダデンコウ,0
1716,5470001014617,登記記録の閉鎖等,0,2022-11-08,2022-11-02,株式会社ロットロジスティック,,株式会社,香川県,高松市,朝日町５丁目４番３３号,,37,201,7600065,,,2022-11-02,清算の結了等,,,2015-10-05,1,,,,,ロットロジスティック,0
1727,6010001217074,登記記録の閉鎖等,0,2022-11-08,2022-11-01,三菱ケミカルメタクリレーツ株式会社,,株式会社,東京都,千代田区,丸の内１丁目１番１号,,13,101,1000005,,,2022-11-01,合併による解散等,6010001146760,令和４年１１月１日東京都千代田区丸の内一丁目１番１号三菱ケミカル株式会社（6010001146760）に合併し解散,2021-04-05,1,,,,,ミツビシケミカルメタクリレーツ,0
1755,6010701006248,登記記録の閉鎖等,0,2022-11-08,2022-11-04,株式会社テクノ企画,,株式会社,東京都,品川区,北品川１丁目１０番９号,,13,109,1400001,,,2022-11-04,合併による解散等,8010401018566,令和４年１１月１日東京都大田区大森北４－１－１０富士ビル２階株式会社テクノウエア（8010401018566）に合併し解散,2015-10-05,1,,,,,テクノキカク,0
1758,6010801018804,登記記録の閉鎖等,0,2022-11-08,2022-10-28,トラストコム株式会社,,株式会社,東京都,大田区,大森東５丁目２５－５－３０１,,13,111,1430012,,,2022-10-28,清算の結了等,,,2015-10-05,1,,,,,トラストコム,0
1787,6011602011519,登記記録の閉鎖等,0,2022-11-08,2022-11-02,有限会社カミングアップ,,有限会社,東京都,練馬区,豊玉南１丁目８番１３号,,13,120,1760014,,,2022-11-02,清算の結了等,,,2015-10-05,1,,,,,カミングアップ,0
1805,6020001085082,登記記録の閉鎖等,0,2022-11-08,2022-11-07,株式会社ラック・カンパニー,,株式会社,愛媛県,松山市,小栗３丁目２番１６号,,38,201,7900036,,,2022-11-07,清算の結了等,,,2015-10-05,1,,,,,ラックカンパニー,0
1811,6020003013082,登記記録の閉鎖等,0,2022-11-08,2022-10-26,合同会社フジ工業,,合同会社,神奈川県,横浜市戸塚区,戸塚町３５１６番地１５戸塚サンコーポ４０１号,,14,110,2440003,,,2022-10-26,清算の結了等,,,2017-07-27,1,,,,,フジコウギョウ,0
1820,6021002036818,登記記録の閉鎖等,0,2022-11-08,2022-11-04,有限会社ＪＢハウス,,有限会社,神奈川県,厚木市,棚沢１５７８番地２,,14,212,2430205,,,2022-11-04,清算の結了等,,,2015-10-05,1,,,,,,0
1828,6030001093290,登記記録の閉鎖等,0,2022-11-08,2022-10-26,株式会社ジャセック,,株式会社,埼玉県,越谷市,大字南荻島６０番地４藤和シティコープ北越谷６０５,,11,222,3430804,,,2022-10-26,清算の結了等,,,2015-10-05,1,,,,,ジャセック,0
1842,6040002037320,登記記録の閉鎖等,0,2022-11-08,2022-11-04,有限会社ライフ・アツプ,,有限会社,千葉県,市川市,下貝塚３丁目８番地,,12,203,2720821,,,2022-11-04,合併による解散等,3010502014287,令和４年１１月１日東京都台東区小島二丁目１６番２号東京クロス株式会社（3010502014287）に合併し解散,2015-10-05,1,,,,,ライフアップ,0
1872,6110002011788,登記記録の閉鎖等,0,2022-11-08,2022-11-01,有限会社平野商会,,有限会社,新潟県,新潟市西蒲区,巻甲１７５９番地１,,15,108,9530041,,,2022-11-01,清算の結了等,,,2015-10-05,1,,,,,ヒラノショウカイ,0
1874,6110002028139,登記記録の閉鎖等,0,2022-11-08,2022-11-01,有限会社竹屋クリーニング店,,有限会社,新潟県,長岡市,宮内１丁目１４番１１号,,15,202,9401106,,,2022-11-01,清算の結了等,,,2015-10-05,1,,,,,タケヤクリーニングテン,0
1929,6180001043891,登記記録の閉鎖等,0,2022-11-08,2022-11-04,株式会社安久,,株式会社,愛知県,清須市,新清洲５丁目５番地１３,,23,233,4520943,,,2022-11-04,清算の結了等,,,2015-10-05,1,,,,,アンキュウ,0
1933,6180001102656,登記記録の閉鎖等,0,2022-11-08,2022-10-31,株式会社樹屋田中造園,,株式会社,愛知県,日進市,岩崎町南口１４５番地１,,23,230,4700131,,,2022-10-31,清算の結了等,,,2015-10-05,1,,,,,ジュヤタナカゾウエン,0
1936,6180001129047,登記記録の閉鎖等,0,2022-11-08,2022-11-04,株式会社星河商事,,株式会社,岐阜県,多治見市,脇之島町４丁目２９番地の３,,21,204,5070826,,,2022-11-04,清算の結了等,,,2017-08-14,1,,,,,ホシカワショウジ,0
1937,6180001143634,登記記録の閉鎖等,0,2022-11-08,2022-11-02,株式会社シールド＆バリアホーム,,株式会社,愛知県,名古屋市名東区,名東本通３丁目４２番地,,23,115,4650087,,,2022-11-02,清算の結了等,,,2020-11-18,1,,,,,シールドアンドバリアホーム,0
1950,6190001024593,登記記録の閉鎖等,0,2022-11-08,2022-11-04,山下電設株式会社,,株式会社,三重県,伊賀市,白樫２２６２番地,,24,216,5181151,,,2022-11-04,清算の結了等,,,2017-04-26,1,,,,,ヤマシタデンセツ,0
1951,6190002016648,登記記録の閉鎖等,0,2022-11-08,2022-11-01,有限会社サンコウ研磨,,有限会社,三重県,桑名市,大字小貝須浜橋爪１１２０番地,,24,205,5110841,,,2022-11-01,清算の結了等,,,2015-10-05,1,,,,,サンコウケンマ,0
1954,6200002023139,登記記録の閉鎖等,0,2022-11-08,2022-11-04,有限会社阿部測量,,有限会社,岐阜県,中津川市,苗木２９６３番地の１,,21,206,5080101,,,2022-11-04,清算の結了等,,,2015-10-05,1,,,,,,0
1967,6240002039131,登記記録の閉鎖等,0,2022-11-08,2022-11-01,有限会社麻生製材所,,有限会社,広島県,福山市,今津町２２０２番地,,34,207,7290111,,,2022-11-01,清算の結了等,,,2015-10-05,1,,,,,アソウセイザイショ,0
1983,6290801028544,登記記録の閉鎖等,0,2022-11-08,2022-11-07,株式会社ＳＡＮＥＩ,,株式会社,福岡県,北九州市小倉南区,上葛原２丁目１３番１４号,,40,107,8000255,,,2022-11-07,清算の結了等,,,2022-05-18,1,,,,,サンエイ,0
2021,6430003012415,登記記録の閉鎖等,0,2022-11-08,2022-10-21,合同会社Ｌｏｔｕｓ　Ｃｏｎｓｔｒｕｃｔｉｏｎ,,合同会社,北海道,札幌市豊平区,平岸三条１８丁目４番１０－１０６号,,01,105,0620933,,,2022-10-21,清算の結了等,,,2021-02-15,1,,,,,ロータスコンストラクション,0
2029,6470002011273,登記記録の閉鎖等,0,2022-11-08,2022-11-01,有限会社アイ・スタジオ,,有限会社,香川県,丸亀市,土居町２丁目１６番１８号,,37,202,7630012,,,2022-11-01,清算の結了等,,,2015-10-05,1,,,,,アイスタジオ,0
2031,6470003001604,登記記録の閉鎖等,0,2022-11-08,2022-11-01,合同会社ＥＳ　ＬＯＯＰ,,合同会社,富山県,富山市,八尾町井田７６４番地４ドムス涼風２０５号,,16,201,9392306,,,2022-11-01,清算の結了等,,,2019-06-18,1,,,,,エスループ,0
2059,7010401163652,登記記録の閉鎖等,0,2022-11-08,2022-10-24,株式会社ＯＴＳ,,株式会社,東京都,港区,浜松町２丁目２番１５号,,13,103,1050013,,,2022-10-24,清算の結了等,,,2021-11-05,1,,,,,オーティーエス,0
2090,7011001127502,登記記録の閉鎖等,0,2022-11-08,2022-11-04,サイブリッジホールディングス株式会社,,株式会社,東京都,渋谷区,幡ヶ谷１丁目３０番８号,,13,113,1510072,,,2022-11-04,合併による解散等,1011001063257,令和４年１０月３１日東京都新宿区新宿三丁目１２番４号株式会社サイブリッジ（1011001063257）に合併し解散,2019-04-09,1,,,,,サイブリッジホールディングス,0
2098,7011101074768,登記記録の閉鎖等,0,2022-11-08,2022-11-02,株式会社ティー．ティーフィナンシャルパートナーズ,,株式会社,東京都,新宿区,西新宿８丁目１５番１７号,,13,104,1600023,,,2022-11-02,合併による解散等,2011101039800,令和４年１１月１日東京都新宿区西新宿八丁目１５番１７号ティー．ティーコーポレーション株式会社（2011101039800）に合併し解散,2015-10-05,1,,,,,ティーティーフィナンシャルパートナーズ,0
2102,7011101098172,登記記録の閉鎖等,0,2022-11-08,2022-11-02,株式会社ＫＩＮＧ,,株式会社,東京都,新宿区,榎町３４番地３榎町ビル７Ｆ,,13,104,1620806,,,2022-11-02,清算の結了等,,,2022-03-15,1,,,,,キング,0
2122,7012701002886,登記記録の閉鎖等,0,2022-11-08,2022-11-01,株式会社ジャンクボックス,,株式会社,東京都,西東京市,東伏見４丁目９番９号,,13,229,2020021,,,2022-11-01,清算の結了等,,,2015-10-05,1,,,,,ジャンクボックス,0
2129,7013301039071,登記記録の閉鎖等,0,2022-11-08,2022-11-02,株式会社ワンスタイル,,株式会社,東京都,豊島区,西池袋１丁目２５番１号,,13,116,1710021,,,2022-11-02,清算の結了等,,,2016-07-06,1,,,,,ワンスタイル,0
2141,7020001063285,登記記録の閉鎖等,0,2022-11-08,2022-11-01,マブチ東横パッケージ株式会社,,株式会社,神奈川県,横浜市中区,日本大通１７番地,,14,104,2310021,,,2022-11-01,清算の結了等,,,2015-10-05,1,,,,,マブチトウヨコパッケージ,0
2166,7030002042510,登記記録の閉鎖等,0,2022-11-08,2022-10-31,株式会社アイクラフト,,株式会社,埼玉県,加須市,久下３丁目１番地７,,11,210,3470063,,,2022-10-31,清算の結了等,,,2015-10-05,1,,,,,アイクラフト,0
2168,7030002072037,登記記録の閉鎖等,0,2022-11-08,2022-10-28,有限会社粟生田商店,,有限会社,埼玉県,川越市,喜多町４番地３,,11,201,3500061,,,2022-10-28,清算の結了等,,,2015-10-05,1,,,,,アオダショウテン,0
2169,7030002094295,登記記録の閉鎖等,0,2022-11-08,2022-10-25,有限会社ヨシハラ電器,,有限会社,埼玉県,入間郡毛呂山町,前久保南２丁目７番地６,,11,326,3500463,,,2022-10-25,清算の結了等,,,2015-10-05,1,,,,,ヨシハラデンキ,0
2189,7080001003707,登記記録の閉鎖等,0,2022-11-08,2022-11-07,株式会社トータルサポート,,株式会社,静岡県,静岡市駿河区,登呂３丁目２８番１７号,,22,102,4228033,,,2022-11-07,合併による解散等,9080401005870,令和４年１１月１日静岡県浜松市北区根洗町５３５番地の２株式会社レーベンプラン（9080401005870）に合併し解散,2015-10-05,1,,,,,トータルサポート,0
2195,7090002010040,登記記録の閉鎖等,0,2022-11-08,2022-10-31,浅川木工所有限会社,,有限会社,山梨県,都留市,桂町９８５番地の１,,19,204,4020034,,,2022-10-31,清算の結了等,,,2015-10-05,1,,,,,アサカワモッコウショ,0
2203,7110001023148,登記記録の閉鎖等,0,2022-11-08,2022-10-31,株式会社北越楽器,,株式会社,新潟県,長岡市,城内町２丁目６番地６,,15,202,9400061,,,2022-10-31,合併による解散等,9110001023154,令和４年１０月３１日新潟県長岡市城内町二丁目６番地の６株式会社北越書館（9110001023154）に合併し解散,2015-10-05,1,,,,,ホクエツガッキ,0
2256,7140001107708,登記記録の閉鎖等,0,2022-11-08,2022-11-02,株式会社メテオコーポレーション,,株式会社,兵庫県,尼崎市,水堂町２丁目２９－１８－２,,28,202,6610026,,,2022-11-02,清算の結了等,,,2017-10-03,1,,,,,メテオコーポレーション,0
2257,7140001108383,登記記録の閉鎖等,0,2022-11-08,2022-11-01,株式会社Ｕｓｅｆｕｌ　Ｏｎｅ,,株式会社,兵庫県,神戸市中央区,海岸通２８番地ＢＥＬＩＳＴＡ神戸旧居留地２５０１号,,28,110,6500024,,,2022-11-01,合併による解散等,5140002000426,令和４年１１月１日神戸市中央区海岸通２８番地株式会社三裕産業（5140002000426）に合併し解散,2017-12-06,1,,,,,ユースフルワン,0
2259,7150001018202,登記記録の閉鎖等,0,2022-11-08,2022-11-04,株式会社天一,,株式会社,奈良県,大和郡山市,外川町４２番地,,29,203,6391052,,,2022-11-04,合併による解散等,2120001112656,令和４年１１月１日大阪市浪速区元町三丁目１０番４号株式会社晋陽（2120001112656）に合併し解散,2015-10-05,1,,,,,テンイチ,0
2284,7190002021226,登記記録の閉鎖等,0,2022-11-08,2022-11-01,有限会社銅仲鈑金工業所,,有限会社,三重県,四日市市,沖の島町２番１号,,24,202,5100083,,,2022-11-01,清算の結了等,,,2015-10-05,1,,,,,ドウナカバンキンコウギョウショ,0
2314,7290801014270,登記記録の閉鎖等,0,2022-11-08,2022-11-04,株式会社直方中央モータース,,株式会社,福岡県,直方市,大字知古７５６番地の１,,40,204,8220022,,,2022-11-04,清算の結了等,,,2015-10-05,1,,,,,ノオガタチュウオウ,0
2351,7410002003333,登記記録の閉鎖等,0,2022-11-08,2022-11-04,有限会社戸来工業所,,有限会社,秋田県,秋田市,土崎港南１丁目１番２１号,,05,201,0110943,,,2022-11-04,清算の結了等,,,2015-10-05,1,,,,,ヘライコウギョウショ,0
2357,7430001016169,登記記録の閉鎖等,0,2022-11-08,2022-11-04,株式会社マド設計事務所,,株式会社,北海道,札幌市北区,あいの里四条５丁目２番５号,,01,102,0028074,,,2022-11-04,清算の結了等,,,2015-10-05,1,,,,,マドセッケイジムショ,0
2358,7430001020897,登記記録の閉鎖等,0,2022-11-08,2022-11-01,日本グレース商事株式会社,,株式会社,北海道,札幌市東区,北四十八条東８丁目１番２２号,,01,103,0070848,,,2022-11-01,合併による解散等,8430001033667,令和４年１１月１日北海道北広島市大曲工業団地六丁目３番地２ネオラックス株式会社（8430001033667）に合併し解散,2015-10-05,1,,,,,ニホングレースショウジ,0
2371,7490002010520,登記記録の閉鎖等,0,2022-11-08,2022-10-31,須崎観光有限会社,,有限会社,高知県,須崎市,新町２丁目１番４号,,39,206,7850003,,,2022-10-31,清算の結了等,,,2015-10-05,1,,,,,,0
2385,8010003032148,登記記録の閉鎖等,0,2022-11-08,2022-11-01,合同会社リバーサイド・インベストメント・ツー,,合同会社,東京都,千代田区,内幸町２丁目１番６号,,13,101,1000011,,,2022-11-01,清算の結了等,,,2020-05-01,1,,,,,リバーサイドインベストメントツー,0
2402,8010405019321,登記記録の閉鎖等,0,2022-11-08,2022-10-25,一般社団法人Ａ．Ｐ．１６,,その他の設立登記法人,東京都,港区,元赤坂１丁目１番８号赤坂コミュニティビル４階,,13,103,1070051,,,2022-10-25,清算の結了等,,,2020-12-03,1,,,,,エーピーシックスティーン,0
2435,8011601003317,登記記録の閉鎖等,0,2022-11-08,2022-11-02,ジャストシステム株式会社,,株式会社,東京都,練馬区,田柄３丁目１６番２号,,13,120,1790073,,,2022-11-02,清算の結了等,,,2015-10-05,1,,,,,ジャストシステム,0
2450,8012302005271,登記記録の閉鎖等,0,2022-11-08,2022-11-01,有限会社ワイ・ビー・リメイク,,有限会社,東京都,町田市,本町田２８６６番地１７,,13,209,1940032,,,2022-11-01,清算の結了等,,,2015-10-05,1,,,,,ワイビーリメイク,0
2458,8020001002696,登記記録の閉鎖等,0,2022-11-08,2022-11-01,株式会社駅前薬局,,株式会社,神奈川県,横浜市磯子区,森３丁目１８番８号,,14,107,2350023,,,2022-11-01,清算の結了等,,,2015-10-05,1,,,,,エキマエヤッキョク,0
2474,8030001074215,登記記録の閉鎖等,0,2022-11-08,2022-10-31,カワグチ機械株式会社,,株式会社,埼玉県,川口市,大字道合４７３番地の２１,,11,203,3330835,,,2022-10-31,清算の結了等,,,2015-10-05,1,,,,,カワグチキカイ,0
2492,8040002045718,登記記録の閉鎖等,0,2022-11-08,2022-10-28,有限会社コグレ,,有限会社,千葉県,松戸市,小金原９丁目１１番地３,,12,207,2700021,,,2022-10-28,清算の結了等,,,2015-10-05,1,,,,,コグレ,0
2521,8100001000923,登記記録の閉鎖等,0,2022-11-08,2022-11-02,小林綿業株式会社,,株式会社,長野県,長野市,大字北尾張部７４番地,,20,201,3810014,,,2022-11-02,清算の結了等,,,2015-10-05,1,,,,,コバヤシメンギョウ,0
2523,8100001006623,登記記録の閉鎖等,0,2022-11-08,2022-11-01,ＧＲＥＥＮ環境事業株式会社,,株式会社,長野県,長野市,若里５丁目３番３２号,,20,201,3800928,,,2022-11-01,合併による解散等,8100001003166,令和４年１１月１日長野市小島田町９６５番地２株式会社ホンダ開発（8100001003166）に合併し解散,2015-10-05,1,,,,,グリーンカンキョウジギョウ,0
2527,8100005012915,登記記録の閉鎖等,0,2022-11-08,2022-10-28,三水村農業會,00127859,その他の設立登記法人,長野県,上水内郡飯綱町,大字普光寺９３７番地,,20,590,3891206,,,2022-10-28,清算の結了等,,,2022-09-21,1,,,,,,0
2572,8160002007251,登記記録の閉鎖等,0,2022-11-08,2022-11-02,有限会社コーワ工業,,有限会社,滋賀県,長浜市,高月町高月５１９番地,,25,203,5290241,,,2022-11-02,清算の結了等,,,2015-10-05,1,,,,,コーワコウギョウ,0
2576,8180001067278,登記記録の閉鎖等,0,2022-11-08,2022-10-31,余語印刷株式会社,,株式会社,愛知県,日進市,米野木町南荒田１１２番地１,,23,230,4700111,,,2022-10-31,清算の結了等,,,2015-10-05,1,,,,,ヨゴインサツ,0
2595,8200001017759,登記記録の閉鎖等,0,2022-11-08,2022-11-02,三宅鉄工株式会社,,株式会社,岐阜県,可児市,中恵土２０８３番地,,21,214,5090202,,,2022-11-02,清算の結了等,,,2015-10-05,1,,,,,ミヤケテッコウ,0
2597,8210001001638,登記記録の閉鎖等,0,2022-11-08,2022-11-02,順化駐車場株式会社,,株式会社,福井県,福井市,順化２丁目７番３号,,18,201,9100023,,,2022-11-02,合併による解散等,4210001001682,令和４年１０月３１日福井市順化二丁目７番３号島田商事株式会社（4210001001682）に合併し解散,2015-10-05,1,,,,,ジュンカチュウシャジョウ,0
2602,8210005006526,登記記録の閉鎖等,0,2022-11-08,2022-11-01,世久見生産森林組合,,その他の設立登記法人,福井県,三方上中郡若狭町,世久見第４号１３番地,,18,501,9191464,,,2022-11-01,清算の結了等,,,2015-10-05,1,,,,,セクミセイサン,0
2607,8230001009489,登記記録の閉鎖等,0,2022-11-08,2022-11-01,株式会社ＤＥＬ,,株式会社,福井県,福井市,開発５丁目１０１１番地,,18,201,9100842,,,2022-11-01,合併による解散等,7210001000640,令和４年１１月１日福井市開発五丁目１０１１番地株式会社大西商事（7210001000640）に合併し解散,2015-10-05,1,,,,,デル,0
2617,8250005003841,登記記録の閉鎖等,0,2022-11-08,2022-11-01,医療法人社団清香会,,その他の設立登記法人,山口県,下関市,生野町２丁目２７番７号,,35,201,7510832,,,2022-11-01,清算の結了等,,,2015-10-05,1,,,,,セイコウカイ,0
2619,8260002001145,登記記録の閉鎖等,0,2022-11-08,2022-11-07,有限会社うのでんき,,有限会社,岡山県,岡山市北区,学南町２丁目５番５０号,,33,101,7000011,,,2022-11-07,清算の結了等,,,2015-10-05,1,,,,,ウノデンキ,0
2638,8310002015882,登記記録の閉鎖等,0,2022-11-08,2022-10-31,有限会社日栄商会,,有限会社,福岡県,柳川市,出来町１番地１ネオス柳川城下の邸１１１号,,40,207,8320043,,,2022-10-31,清算の結了等,,,2015-10-05,1,,,,,ニチエイショウカイ,0
2639,8320001019297,登記記録の閉鎖等,0,2022-11-08,2022-11-01,太田建設株式会社,,株式会社,大分県,大分市,城崎町２丁目６番２８号,,44,201,8700045,,,2022-11-01,清算の結了等,,,2022-09-09,1,,,,,,0
2649,8340002028171,登記記録の閉鎖等,0,2022-11-08,2022-11-04,有限会社黒木商運,,有限会社,鹿児島県,曽於市,末吉町二之方字高尾７６５番地３,,46,217,8998605,,,2022-11-04,清算の結了等,,,2015-10-05,1,,,,,クロキショウウン,0
2651,8350001014056,登記記録の閉鎖等,0,2022-11-08,2022-10-31,株式会社坂元,,株式会社,宮崎県,宮崎市,元宮町４番１５号,,45,201,8800004,,,2022-10-31,清算の結了等,,,2016-05-26,1,,,,,サカモト,0
2661,8390002011511,登記記録の閉鎖等,0,2022-11-08,2022-11-02,有限会社鮭川環境アグリ,,有限会社,山形県,最上郡鮭川村,大字川口４３２５番１２,,06,366,9995203,,,2022-11-02,清算の結了等,,,2015-10-05,1,,,,,サケガワカンキョウアグリ,0
2679,8430002064843,登記記録の閉鎖等,0,2022-11-08,2022-10-26,有限会社北海道地所,,有限会社,北海道,室蘭市,港南町１丁目７番３号,,01,205,0510032,,,2022-10-26,清算の結了等,,,2015-10-05,1,,,,,ホッカイドウジショ,0
2707,9010401107459,登記記録の閉鎖等,0,2022-11-08,2022-10-24,サザンヴィスタ株式会社,,株式会社,東京都,港区,元赤坂１丁目７番１３号,,13,103,1070051,,,2022-10-24,清算の結了等,,,2015-10-05,1,,,,,サザンヴィスタ,0
2712,9010601018150,登記記録の閉鎖等,0,2022-11-08,2022-11-02,株式会社スダックス,,株式会社,東京都,墨田区,墨田１丁目９番９号,,13,107,1310031,,,2022-11-02,清算の結了等,,,2015-10-05,1,,,,,スダックス,0
2719,9010803003537,登記記録の閉鎖等,0,2022-11-08,2022-10-28,合同会社Ｌｉｆｅ　ｉｓ　Ｅｎｔｅｒｔａｉｎｍｅｎｔ,,合同会社,東京都,大田区,西蒲田４丁目３０－１７－３０１,,13,111,1440051,,,2022-10-28,清算の結了等,,,2020-11-09,1,,,,,ライフイズエンターテイメント,0
2724,9011001056765,登記記録の閉鎖等,0,2022-11-08,2022-11-01,株式会社ル・トラン,,株式会社,東京都,千代田区,岩本町１丁目２番８号,,13,101,1010032,,,2022-11-01,合併による解散等,9010002045835,令和４年１１月１日東京都千代田区神田神保町二丁目２番地株式会社プロパティインベストメント（9010002045835）に合併し解散,2015-10-05,1,,,,,ルトラン,0
2776,9021001053489,登記記録の閉鎖等,0,2022-11-08,2022-11-01,株式会社ＧＩメンテナンス,,株式会社,東京都,品川区,西五反田１丁目３０番２号ウィン五反田ビル３階,,13,109,1410031,,,2022-11-01,合併による解散等,6011001056966,令和４年１１月１日東京都品川区西五反田一丁目３０番２号ウィン五反田ビル３階株式会社グリーンイノベーションズホールディングス（6011001056966）に合併し解散,2015-10-05,1,,,,,ジーアイメンテナンス,0
2780,9021002034323,登記記録の閉鎖等,0,2022-11-08,2022-11-01,有限会社北友,,有限会社,神奈川県,愛甲郡愛川町,中津１８３１番地の５,,14,401,2430303,,,2022-11-01,清算の結了等,,,2015-10-05,1,,,,,ホクユウ,0
2781,9021002046913,登記記録の閉鎖等,0,2022-11-08,2022-11-01,有限会社細谷物産,,有限会社,神奈川県,綾瀬市,上土棚中２丁目２番３５号,,14,218,2521113,,,2022-11-01,清算の結了等,,,2015-10-05,1,,,,,ホソヤブッサン,0
2785,9030001025951,登記記録の閉鎖等,0,2022-11-08,2022-10-28,株式会社バーテックス,,株式会社,埼玉県,所沢市,大字中富７５２番地の３０,,11,208,3590002,,,2022-10-28,清算の結了等,,,2015-10-05,1,,,,,バーテックス,0
2786,9030001031149,登記記録の閉鎖等,0,2022-11-08,2022-11-01,株式会社野本倉庫,,株式会社,埼玉県,久喜市,菖蒲町新堀３０７０番地,,11,232,3460105,,,2022-11-01,清算の結了等,,,2015-10-05,1,,,,,ノモトソウコ,0
2787,9030001039175,登記記録の閉鎖等,0,2022-11-08,2022-10-28,株式会社埼玉電化サービス,,株式会社,埼玉県,草加市,吉町４丁目１０番３８号,,11,221,3400017,,,2022-10-28,清算の結了等,,,2015-10-05,1,,,,,サイタマデンカサービス,0
2788,9030001045149,登記記録の閉鎖等,0,2022-11-08,2022-10-31,株式会社ユー商事,,株式会社,埼玉県,朝霞市,膝折町４丁目１７番１６号,,11,227,3510014,,,2022-10-31,清算の結了等,,,2015-10-05,1,,,,,ユーショウジ,0
2803,9040001095770,登記記録の閉鎖等,0,2022-11-08,2022-11-04,株式会社天一,,株式会社,千葉県,松戸市,新松戸１丁目４２６番地,,12,207,2700034,,,2022-11-04,合併による解散等,2120001112656,令和４年１１月１日大阪市浪速区元町三丁目１０番４号株式会社晋陽（2120001112656）に合併し解散,2016-06-08,1,,,,,テンイチ,0
2804,9040001108862,登記記録の閉鎖等,0,2022-11-08,2022-10-28,株式会社Ｌｉｋｅ　ｆｉｔ,,株式会社,千葉県,館山市,大戸１８９番地,,12,205,2940025,,,2022-10-28,合併による解散等,8040002099391,令和４年１０月２８日千葉県木更津市畑沢一丁目５番３０号株式会社Ｌｉｋｅ　ｆｉｔ（8040002099391）に合併し解散,2019-04-19,1,,,,,ライクフィット,0
2822,9050001032541,登記記録の閉鎖等,0,2022-11-08,2022-10-27,株式会社シルクフーズ,,株式会社,茨城県,結城市,大字結城６４８９番地,,08,207,3070001,,,2022-10-27,清算の結了等,,,2015-10-05,1,,,,,シルクフーズ,0
2851,9100005012220,登記記録の閉鎖等,0,2022-11-08,2022-11-04,一般社団法人長野ブランド振興協会,,その他の設立登記法人,長野県,長野市,大字鶴賀問御所町１２９３番地,,20,201,3800834,,,2022-11-04,清算の結了等,,,2018-04-27,1,,,,,ナガノブランドシンコウキョウカイ,0
2874,9120002017261,登記記録の閉鎖等,0,2022-11-08,2022-11-02,株式会社かんすま,,株式会社,大阪府,大阪市西区,北堀江１丁目５番２号,,27,106,5500014,,,2022-11-02,清算の結了等,,,2015-10-05,1,,,,,カンスマ,0
2898,9160001007879,登記記録の閉鎖等,0,2022-11-08,2022-11-02,株式会社一谷農機,,株式会社,滋賀県,長浜市,田町９８番地,,25,203,5290142,,,2022-11-02,清算の結了等,,,2015-10-05,1,,,,,イチタニノウキ,0
2915,9180003020993,登記記録の閉鎖等,0,2022-11-08,2022-11-01,合同会社Ｇ．Ｉ．Ｆ．Ｔ．,,合同会社,愛知県,名古屋市名東区,大針２丁目１７６番地１号,,23,115,4650064,,,2022-11-01,清算の結了等,,,2020-03-26,1,,,,,ギフト,0
2929,9210001001686,登記記録の閉鎖等,0,2022-11-08,2022-11-02,島田不動産株式会社,,株式会社,福井県,福井市,順化２丁目７番３号,,18,201,9100023,,,2022-11-02,合併による解散等,4210001001682,令和４年１０月３１日福井市順化二丁目７番３号島田商事株式会社（4210001001682）に合併し解散,2015-10-05,1,,,,,シマダフドウサン,0
2936,9220002014364,登記記録の閉鎖等,0,2022-11-08,2022-10-31,有限会社吉野繊維,,有限会社,石川県,鹿島郡中能登町,春木へ部６６番地,,17,407,9291703,,,2022-10-31,清算の結了等,,,2015-10-05,1,,,,,ヨシノセンイ,0
2962,9290002035222,登記記録の閉鎖等,0,2022-11-08,2022-10-31,清榮商事有限会社,,有限会社,福岡県,宗像市,青葉台１丁目１０番地４,,40,220,8114162,,,2022-10-31,清算の結了等,,,2015-10-05,1,,,,,セイエイショウジ,0
2973,9330002002052,登記記録の閉鎖等,0,2022-11-08,2022-11-01,有限会社開成土木工業,,有限会社,熊本県,熊本市東区,戸島本町１０番１１－３０３号,,43,102,8618042,,,2022-11-01,清算の結了等,,,2015-10-05,1,,,,,カイセイドボクコウギョウ,0
2984,9370002010530,登記記録の閉鎖等,0,2022-11-08,2022-11-04,有限会社勝山重機,,有限会社,宮城県,仙台市青葉区,東勝山２丁目２６番３４号,,04,101,9810923,,,2022-11-04,清算の結了等,,,2015-10-05,1,,,,,カツヤマジュウキ,0
2991,9390001006461,登記記録の閉鎖等,0,2022-11-08,2022-11-02,株式会社土門鉄工所,,株式会社,山形県,酒田市,東大町１丁目６番地の１８,,06,204,9980851,,,2022-11-02,清算の結了等,,,2015-10-05,1,,,,,ドモンテッコウジョ,0
2992,9390001011998,登記記録の閉鎖等,0,2022-11-08,2022-11-02,株式会社木村設備,,株式会社,山形県,西村山郡河北町,大字溝延字小堤１５１番地の１,,06,321,9993522,,,2022-11-02,清算の結了等,,,2015-10-05,1,,,,,キムラセツビ,0
2993,9390002007046,登記記録の閉鎖等,0,2022-11-08,2022-11-02,有限会社板垣建築,,有限会社,山形県,酒田市,大宮字槇野１３３番地の１,,06,204,9980822,,,2022-11-02,清算の結了等,,,2015-10-05,1,,,,,イタガキケンチク,0
2997,9420002001400,登記記録の閉鎖等,0,2022-11-08,2022-11-02,有限会社ジョイパックあかさか,,有限会社,青森県,青森市,大字三内字沢部４５３番地１３,,02,201,0380031,,,2022-11-02,清算の結了等,,,2015-10-05,1,,,,,ジョイパックアカサカ,0
3000,9430001026546,登記記録の閉鎖等,0,2022-11-08,2022-11-01,らくすま株式会社,,株式会社,北海道,札幌市北区,新川五条１６丁目６番５号,,01,102,0010925,,,2022-11-01,合併による解散等,8430001001161,令和４年１１月１日札幌市北区新川五条十六丁目６番５号株式会社アシスト企画（8430001001161）に合併し解散,2015-10-05,1,,,,,ラクスマ,0
3016,9490002001617,登記記録の閉鎖等,0,2022-11-08,2022-11-04,有限会社幸進商事,,有限会社,高知県,高知市,大津乙１１４２番地３,,39,201,7815103,,,2022-11-04,清算の結了等,,,2015-10-05,1,,,,,コウシンショウジ,0
