sequenceNumber,corporateNumber,process,correct,updateDate,changeDate,name,nameImageId,kind,prefectureName,cityName,streetNumber,addressImageId,prefectureCode,cityCode,postCode,addressOutside,addressOutsideImageId,closeDate,closeCause,successorCorporateNumber,changeCause,assignmentDate,latest,enName,enPrefectureName,enCityName,enAddressOutside,furigana,hihyoji
19,1010401187120,新規,0,2024-12-20,2024-12-20,妙高未来株式会社,,株式会社,東京都,港区,南麻布４丁目１４番２号ＭＡ南麻布ビル５階,,13,103,1060047,,,,,,,2024-12-20,1,,,,,ミョウコウミライ,0
24,1010501053370,新規,0,2024-12-20,2024-12-20,ＣＯＢＢ株式会社,,株式会社,東京都,台東区,東上野６丁目１番１７号東上野中央ビル４０２号室,,13,106,1100015,,,,,,,2024-12-20,1,,,,,シーオービービー,0
27,1010601066487,新規,0,2024-12-20,2024-12-20,株式会社ＵＣＦ,,株式会社,東京都,江東区,塩浜１丁目４－３３－１０１０,,13,108,1350043,,,,,,,2024-12-20,1,,,,,ユーシーエフ,0
28,1010601066495,新規,0,2024-12-20,2024-12-20,伊藤建設株式会社,,株式会社,東京都,墨田区,江東橋２丁目６番１４号,,13,107,1300022,,,,,,,2024-12-20,1,,,,,イトウケンセツ,0
30,1010603011284,新規,0,2024-12-20,2024-12-20,合同会社藤,00137396,合同会社,東京都,墨田区,両国３丁目２２番２－９０６号,,13,107,1300026,,,,,,,2024-12-20,1,,,,,フジ,0
34,1010801035688,新規,0,2024-12-20,2024-12-20,株式会社ＳＪＫ,,株式会社,東京都,大田区,西蒲田６丁目７－１,,13,111,1440051,,,,,,,2024-12-20,1,,,,,エスジェイケイ,0
35,1010803005210,新規,0,2024-12-20,2024-12-20,星光合同会社,,合同会社,東京都,大田区,大森北１丁目３４番２１号大森ファーストビル６階,,13,111,1430016,,,,,,,2024-12-20,1,,,,,セイコウ,0
37,1010901056527,新規,0,2024-12-20,2024-12-20,株式会社Ｃｏｓｍｉｃ　Ｍａｇｉｃ,,株式会社,東京都,世田谷区,太子堂２丁目７番７号アリアーテ三軒茶屋３０１,,13,112,1540004,,,,,,,2024-12-20,1,,,,,コズミックマジック,0
38,1011001166381,新規,0,2024-12-20,2024-12-20,ＩＭＡＧ　ＭＡＲＫＥＴＩＮＧ株式会社,,株式会社,東京都,渋谷区,渋谷２丁目２４－１２渋谷スクランブルスクエア３９Ｆ,,13,113,1500002,,,,,,,2024-12-20,1,,,,,アイメーグマーケティング,0
39,1011001166415,新規,0,2024-12-20,2024-12-20,株式会社中目黒土地建物,,株式会社,東京都,目黒区,上目黒２丁目４５番１４号高架下７８,,13,110,1530051,,,,,,,2024-12-20,1,,,,,ナカメグロトチタテモノ,0
40,1011001166423,新規,0,2024-12-20,2024-12-20,株式会社Ｆｒｅｅｄ,,株式会社,東京都,渋谷区,恵比寿西２丁目４番８号ウィンド恵比寿ビル８Ｆ,,13,113,1500021,,,,,,,2024-12-20,1,,,,,フリード,0
41,1011001166472,新規,0,2024-12-20,2024-12-20,株式会社ＬＢ　Ｐａｒｔｎｅｒ’ｓ,,株式会社,東京都,渋谷区,宇田川町３６番２２号ノア渋谷パートＩＩ８０４,00137400,13,113,1500042,,,,,,,2024-12-20,1,,,,,エルビーパートナーズ,0
42,1011001166489,新規,0,2024-12-20,2024-12-20,パートナーセールス株式会社,,株式会社,東京都,渋谷区,恵比寿西１丁目１０番１０号,,13,113,1500021,,,,,,,2024-12-20,1,,,,,パートナーセールス,0
43,1011001166506,新規,0,2024-12-20,2024-12-20,ＦＬｏＷ株式会社,,株式会社,東京都,渋谷区,渋谷２丁目１９－１５宮益坂ビルディング６０９,,13,113,1500002,,,,,,,2024-12-20,1,,,,,フロウ,0
44,1011001166588,新規,0,2024-12-20,2024-12-20,ＡＳＩＦ株式会社,,株式会社,東京都,渋谷区,渋谷２丁目１９―１５宮益坂ビルディング６０９,,13,113,1500002,,,,,,,2024-12-20,1,,,,,アシフ,0
45,1011001166695,新規,0,2024-12-20,2024-12-20,株式会社ＨＨＨ,,株式会社,東京都,目黒区,碑文谷３丁目１３番７号,,13,110,1520003,,,,,,,2024-12-20,1,,,,,エイチエイチエイチ,0
50,1011003020603,新規,0,2024-12-20,2024-12-20,Ｆｉｒｓｔ　ＣＨ合同会社,,合同会社,東京都,渋谷区,渋谷２丁目１９－１５宮益坂ビルディング６０９,,13,113,1500002,,,,,,,2024-12-20,1,,,,,ファーストシーエイチ,0
51,1011003020644,新規,0,2024-12-20,2024-12-20,合同会社ａｉｉｇｈｔ,,合同会社,東京都,渋谷区,道玄坂１丁目１０－８渋谷道玄坂東急ビル２Ｆ－Ｃ,,13,113,1500043,,,,,,,2024-12-20,1,,,,,アーイ,0
53,1011101109959,新規,0,2024-12-20,2024-12-20,株式会社白山商事,,株式会社,東京都,新宿区,西新宿７丁目１７番１３－１１０５号パレステュディオ新宿ＷＥＳＴ,,13,104,1600023,,,,,,,2024-12-20,1,,,,,ハクサンショウジ,0
54,1011105011260,新規,0,2024-12-20,2024-12-20,一般社団法人在宅医療薬局連盟,,その他の設立登記法人,東京都,新宿区,西新宿２丁目１番１号新宿三井ビルディング３７階,,13,104,1600023,,,,,,,2024-12-20,1,,,,,ザイタクイリョウヤッキョクレンメイ,0
55,1011201025998,新規,0,2024-12-20,2024-12-20,東勝株式会社,,株式会社,東京都,中野区,弥生町３丁目５－８グレースＦ,,13,114,1640013,,,,,,,2024-12-20,1,,,,,トウショウ,0
57,1011301030238,新規,0,2024-12-20,2024-12-20,株式会社ＵＴ,,株式会社,東京都,杉並区,堀ノ内３丁目８番５号,,13,115,1660013,,,,,,,2024-12-20,1,,,,,,0
60,1011601028312,新規,0,2024-12-20,2024-12-20,株式会社ＰＢＤ,,株式会社,東京都,練馬区,東大泉５丁目４１番１３号エスカイヤ大泉学園２Ｆ,,13,120,1780063,,,,,,,2024-12-20,1,,,,,ピービーディー,0
78,1013301053524,新規,0,2024-12-20,2024-12-20,株式会社エスエー,,株式会社,東京都,豊島区,西池袋１丁目２９番３号ロイヤル西池袋ビル６Ｆ,,13,116,1710021,,,,,,,2024-12-20,1,,,,,エスエー,0
81,1020001160641,新規,0,2024-12-20,2024-12-20,ｉ‐ＭＸ株式会社,,株式会社,神奈川県,横浜市西区,北幸１丁目５番１０号ＪＰＲ横浜ビルエキスパートオフィス横浜１１３号室,,14,103,2200004,,,,,,,2024-12-20,1,,,,,イーマックス,0
83,1020003027467,新規,0,2024-12-20,2024-12-20,スコブル合同会社,,合同会社,神奈川県,横浜市青葉区,市ケ尾町１６７８番地２２３,,14,117,2250024,,,,,,,2024-12-20,1,,,,,スコブル,0
106,1030001163981,新規,0,2024-12-20,2024-12-20,株式会社Ｓｏｆｔｍｉｌｅ,,株式会社,埼玉県,越谷市,大字大泊１０７６番地５,,11,222,3430044,,,,,,,2024-12-20,1,,,,,ソフトマイル,0
107,1030001164022,新規,0,2024-12-20,2024-12-20,株式会社アート・コア,,株式会社,埼玉県,大里郡寄居町,大字桜沢９８４番地１,,11,408,3691202,,,,,,,2024-12-20,1,,,,,アートコア,0
111,1030003025734,新規,0,2024-12-20,2024-12-20,合同会社言ノ葉,,合同会社,埼玉県,久喜市,緑１丁目１６番４－１号,,11,232,3491106,,,,,,,2024-12-20,1,,,,,コトノハ,0
118,1040001136623,新規,0,2024-12-20,2024-12-20,株式会社エバント,,株式会社,千葉県,流山市,前ケ崎６５９番地の１１ダイアパレス北小金ヒルズ１１０,,12,220,2700144,,,,,,,2024-12-20,1,,,,,エバント,0
119,1040001136656,新規,0,2024-12-20,2024-12-20,飛電株式会社,,株式会社,千葉県,千葉市稲毛区,園生町１１０６番地４階,,12,103,2630051,,,,,,,2024-12-20,1,,,,,ヒデン,0
130,1050003008893,新規,0,2024-12-20,2024-12-20,ＪＡＡＮ　ＢＲＯＴＨＥＲＳ　ＪＡＰＡＮ合同会社,,合同会社,茨城県,取手市,双葉１丁目３番２０号,,08,217,3001501,,,,,,,2024-12-20,1,,,,,ジャーンブラザーズジャパン,0
132,1060001037761,新規,0,2024-12-20,2024-12-20,株式会社ＴＡＲＯ,,株式会社,栃木県,日光市,中宮祠２４７８番地,,09,206,3211661,,,,,,,2024-12-20,1,,,,,タロー,0
136,1060002041250,新規,0,2024-12-20,2024-12-20,有限会社かおる,,有限会社,栃木県,足利市,南大町４０７番地５,,09,202,3260836,,,,,,,2024-12-20,1,,,,,カオル,0
147,1090001019030,新規,0,2024-12-20,2024-12-20,株式会社ネイティヴ,,株式会社,山梨県,南アルプス市,野牛島２１９６番地１,,19,208,4000205,,,,,,,2024-12-20,1,,,,,ネイティヴ,0
166,1120001271148,新規,0,2024-12-20,2024-12-20,株式会社Ｏｄａ　ａｕｔｏ,,株式会社,大阪府,守口市,南寺方東通４丁目１８番２８号,,27,209,5700043,,,,,,,2024-12-20,1,,,,,オダオート,0
167,1120001271222,新規,0,2024-12-20,2024-12-20,株式会社ＢＡＩＮＡＮ,,株式会社,大阪府,大阪市西成区,南津守６丁目８番２１号,,27,122,5570063,,,,,,,2024-12-20,1,,,,,バイナン,0
168,1120001271271,新規,0,2024-12-20,2024-12-20,株式会社モロ,,株式会社,大阪府,大阪市北区,梅田１丁目１番３－２７００号大阪駅前第３ビル２７階,,27,127,5300001,,,,,,,2024-12-20,1,,,,,モロ,0
169,1120001271321,新規,0,2024-12-20,2024-12-20,株式会社ＶＩＣＴＯＲ,,株式会社,大阪府,門真市,北岸和田２丁目１２－４,,27,223,5710007,,,,,,,2024-12-20,1,,,,,ヴィクター,0
171,1120003028199,新規,0,2024-12-20,2024-12-20,ＤＯＲＥＭＯＮ合同会社,,合同会社,大阪府,大阪市浪速区,下寺１丁目３番１６号オリエンス夕陽丘９０７号,,27,111,5560001,,,,,,,2024-12-20,1,,,,,ドレモン,0
178,1130001078617,新規,0,2024-12-20,2024-12-20,ＮＳＫグローバルリンク株式会社,,株式会社,京都府,京都市伏見区,下鳥羽中円面田町５７番地フローラ洛水２０１,,26,109,6128498,,,,,,,2024-12-20,1,,,,,エヌエスケーグローバルリンク,0
179,1130001078633,新規,0,2024-12-20,2024-12-20,株式会社ＲＫＫ表現,,株式会社,京都府,京都市下京区,花屋町通壬生西入薬園町１５４番地,,26,106,6008823,,,,,,,2024-12-20,1,,,,,アールケーケーヒョウゲン,0
186,1140001136794,新規,0,2024-12-20,2024-12-20,株式会社ＬＡＹ,,株式会社,兵庫県,宝塚市,伊孑志２丁目１７番３７号,,28,214,6650033,,,,,,,2024-12-20,1,,,,,レイ,0
191,1140003021433,新規,0,2024-12-20,2024-12-20,合同会社紺屋,,合同会社,兵庫県,宝塚市,平井２丁目６番４１号,,28,214,6650816,,,,,,,2024-12-20,1,,,,,コウヤ,0
192,1150001027753,新規,0,2024-12-20,2024-12-20,株式会社正正光１,,株式会社,奈良県,御所市,大字戸毛１００８番地,,29,208,6392251,,,,,,,2024-12-20,1,,,,,ショウセイコウイチ,0
193,1150001027761,新規,0,2024-12-20,2024-12-20,オーサムライフ株式会社,,株式会社,奈良県,奈良市,西木辻町１２１－２朝日プラザ奈良プレシオ５０１,00137393,29,201,6308325,,,,,,,2024-12-20,1,,,,,オーサムライフ,0
197,1160001026408,新規,0,2024-12-20,2024-12-20,株式会社ＥＬＵ,,株式会社,滋賀県,長浜市,木之本町黒田２４１‐２８,,25,203,5290426,,,,,,,2024-12-20,1,,,,,エル,0
206,1180001164651,新規,0,2024-12-20,2024-12-20,株式会社ＭｅｄＡＩ,,株式会社,愛知県,名古屋市名東区,本郷２丁目２１２番地の１Ｓ－ＲＥＳＩＤＥＮＣＥ本郷ＩＩ８０２号,00137407,23,115,4650024,,,,,,,2024-12-20,1,,,,,メディエーアイ,0
207,1180001164668,新規,0,2024-12-20,2024-12-20,株式会社ｍｉｃｏｔｔｅ,,株式会社,愛知県,春日井市,六軒屋町２丁目２１番地,,23,206,4860842,,,,,,,2024-12-20,1,,,,,ミコッテ,0
210,1180003027699,新規,0,2024-12-20,2024-12-20,弘光工業合同会社,,合同会社,愛知県,常滑市,大野町３丁目１００番地,,23,216,4790866,,,,,,,2024-12-20,1,,,,,ヒロミツコウギョウ,0
215,1180301039322,新規,0,2024-12-20,2024-12-20,山内建設株式会社,,株式会社,愛知県,豊田市,日之出町１丁目１５番地１６,,23,211,4710075,,,,,,,2024-12-20,1,,,,,ヤマウチケンセツ,0
216,1180301039355,新規,0,2024-12-20,2024-12-20,株式会社ＷＩＳＥホールディングス,,株式会社,愛知県,西尾市,吉良町白浜新田南五六２１番地,,23,213,4440514,,,,,,,2024-12-20,1,,,,,ワイズホールディングス,0
221,1190001031883,新規,0,2024-12-20,2024-12-20,株式会社コアール,,株式会社,三重県,松阪市,久保町１８４６番地３４紫陽花館１０１号室,,24,204,5150044,,,,,,,2024-12-20,1,,,,,コアール,0
238,1240001064283,新規,0,2024-12-20,2024-12-20,株式会社一杯一心,,株式会社,広島県,広島市安佐南区,中筋３丁目８番１０号,,34,105,7310122,,,,,,,2024-12-20,1,,,,,イッパイイッシン,0
242,1250003003610,新規,0,2024-12-20,2024-12-20,合同会社ＳＰＥＣ,,合同会社,山口県,防府市,大字植松８７０－３カーサクラリスＡ２０２,,35,206,7470836,,,,,,,2024-12-20,1,,,,,スペック,0
247,1290001108317,新規,0,2024-12-20,2024-12-20,株式会社Ｎａｓｕｋｏｔｏ,,株式会社,福岡県,糟屋郡新宮町,美咲２丁目１１番５号,,40,345,8110121,,,,,,,2024-12-20,1,,,,,ナスコト,0
248,1290001108358,新規,0,2024-12-20,2024-12-20,日翔産業株式会社,,株式会社,福岡県,糸島市,志登４６５番１号,,40,230,8191106,,,,,,,2024-12-20,1,,,,,ニッショウサンギョウ,0
249,1290001108374,新規,0,2024-12-20,2024-12-20,コ・クリエーション株式会社,,株式会社,福岡県,福岡市博多区,銀天町１丁目６番２０－１４０２号,,40,132,8120879,,,,,,,2024-12-20,1,,,,,コクリエーション,0
252,1290003016204,新規,0,2024-12-20,2024-12-20,合同会社織雅,,合同会社,福岡県,福岡市中央区,地行浜２丁目２番４－１２０２号,,40,133,8100065,,,,,,,2024-12-20,1,,,,,オリガ,0
255,1290801031131,新規,0,2024-12-20,2024-12-20,株式会社ＰＲＡＹ　ＭＡＩＳＯＮ,,株式会社,福岡県,北九州市小倉北区,紺屋町２番１３－１２０７号,,40,106,8020081,,,,,,,2024-12-20,1,,,,,プレイメゾン,0
257,1330003010689,新規,0,2024-12-20,2024-12-20,佐藤リビング合同会社,,合同会社,熊本県,上益城郡益城町,大字安永４２１番地８,,43,443,8612231,,,,,,,2024-12-20,1,,,,,サトウリビング,0
259,1340001027008,新規,0,2024-12-20,2024-12-20,株式会社シトラスパレット,,株式会社,鹿児島県,出水市,下鯖町２０５９,00137394,46,208,8990123,,,,,,,2024-12-20,1,,,,,シトラスパレット,0
262,1350001019326,新規,0,2024-12-20,2024-12-20,株式会社Ｍｉｒａｉｏ,,株式会社,宮崎県,宮崎市,大字小松１０３６番地４,,45,201,8802112,,,,,,,2024-12-20,1,,,,,ミライオ,0
274,1380003005916,新規,0,2024-12-20,2024-12-20,ＩＮＴＥＫ　ＳＯＬＵＴＩＯＮＳ合同会社,,合同会社,福島県,いわき市,平字材木町２０‐２融和アパート１‐１,,07,204,9708026,,,,,,,2024-12-20,1,,,,,インテックソリューションズ,0
284,1430005015123,新規,0,2024-12-20,2024-12-20,特定非営利活動法人ひとり親とこどもふぉーらむ北海道,,その他の設立登記法人,北海道,札幌市中央区,南八条西２丁目５番７４号市民活動プラザ星園３０６号室,,01,101,0640808,,,,,,,2024-12-20,1,,,,,ヒトリオヤトコドモフォーラムホッカイドウ,0
305,2010003045808,新規,0,2024-12-20,2024-12-20,合同会社デジタルテクニック,,合同会社,東京都,中央区,銀座１丁目１２番４号Ｎ＆ＥＢＬＤ．６Ｆ,,13,102,1040061,,,,,,,2024-12-20,1,,,,,デジタルテクニック,0
306,2010003045824,新規,0,2024-12-20,2024-12-20,ｉプロパティ１９合同会社,,合同会社,東京都,千代田区,永田町２丁目１４番２号－３階スリーアイズキャピタル株式会社内,,13,101,1000014,,,,,,,2024-12-20,1,,,,,アイプロパティナインティーン,0
307,2010003045849,新規,0,2024-12-20,2024-12-20,汐入商業開発合同会社,,合同会社,東京都,千代田区,丸の内１丁目４番１号東京共同会計事務所内,,13,101,1000005,,,,,,,2024-12-20,1,,,,,シオイリショウギョウカイハツ,0
327,2010601066494,新規,0,2024-12-20,2024-12-20,株式会社１９３Ｆ,,株式会社,東京都,江東区,北砂５丁目１９番３１－８１６号,,13,108,1360073,,,,,,,2024-12-20,1,,,,,イチキュウサンエフ,0
329,2010801035687,新規,0,2024-12-20,2024-12-20,テラインテル株式会社,,株式会社,東京都,大田区,雪谷大塚町１０－１－１２０３,,13,111,1450067,,,,,,,2024-12-20,1,,,,,テラインテル,0
340,2011001166380,新規,0,2024-12-20,2024-12-20,株式会社Ｄｒａｃａｅｎａ＆Ｃｏ,,株式会社,東京都,渋谷区,神南１丁目１１－４ＦＰＧリンクス神南５階,,13,113,1500041,,,,,,,2024-12-20,1,,,,,ドラセナアンドコー,0
341,2011001166414,新規,0,2024-12-20,2024-12-20,株式会社Ｌｅｍｏｎ,,株式会社,東京都,渋谷区,恵比寿南２丁目２３番２号恵比寿ＮＨ第二ビル３０１,,13,113,1500022,,,,,,,2024-12-20,1,,,,,レモン,0
342,2011001166422,新規,0,2024-12-20,2024-12-20,信ソリューション株式会社,,株式会社,東京都,渋谷区,道玄坂１丁目１０番８号渋谷道玄坂東急ビル２Ｆ－Ｃ,,13,113,1500043,,,,,,,2024-12-20,1,,,,,マコトソリューション,0
343,2011001166455,新規,0,2024-12-20,2024-12-20,玄川リサーチ株式会社,,株式会社,東京都,目黒区,下目黒３丁目５番３号,,13,110,1530064,,,,,,,2024-12-20,1,,,,,ゲンセンリサーチ,0
344,2011001166463,新規,0,2024-12-20,2024-12-20,株式会社Ｄｅｌｐｈｙ,,株式会社,東京都,渋谷区,道玄坂１丁目１０番８号渋谷道玄坂東急ビル２Ｆ－Ｃ,,13,113,1500043,,,,,,,2024-12-20,1,,,,,デルフィー,0
345,2011001166488,新規,0,2024-12-20,2024-12-20,ＲＩＰＥ株式会社,,株式会社,東京都,目黒区,上目黒１丁目１４－６メゾンベルウッド１階店舗区画,,13,110,1530051,,,,,,,2024-12-20,1,,,,,,0
346,2011001166505,新規,0,2024-12-20,2024-12-20,株式会社ｆｕｍｉｚｕｋｉ,,株式会社,東京都,渋谷区,代々木５丁目４１番１－２１０号,,13,113,1510053,,,,,,,2024-12-20,1,,,,,フミヅキ,0
347,2011001166513,新規,0,2024-12-20,2024-12-20,株式会社ＭＵＴＡＮＴ,,株式会社,東京都,渋谷区,道玄坂１丁目１０番８号渋谷道玄坂東急ビル２Ｆ－Ｃ,,13,113,1500043,,,,,,,2024-12-20,1,,,,,ミュータント,0
348,2011001166546,新規,0,2024-12-20,2024-12-20,ＰＫＹＥ株式会社,,株式会社,東京都,目黒区,東山１丁目５番４号ＫＤＸ中目黒ビル２Ｆ,,13,110,1530043,,,,,,,2024-12-20,1,,,,,ピーケーワイイー,0
353,2011003020577,新規,0,2024-12-20,2024-12-20,合同会社ハセガワ,,合同会社,東京都,目黒区,上目黒２丁目２２番６号,,13,110,1530051,,,,,,,2024-12-20,1,,,,,ハセガワ,0
354,2011003020593,新規,0,2024-12-20,2024-12-20,合同会社ポジティブジャパン,,合同会社,東京都,目黒区,柿の木坂２丁目２０番２０号,,13,110,1520022,,,,,,,2024-12-20,1,,,,,ポジティブジャパン,0
357,2011101109982,新規,0,2024-12-20,2024-12-20,インサイドセールス株式会社,,株式会社,東京都,新宿区,高田馬場１丁目３１―１６ワイム高田馬場ビル,,13,104,1690075,,,,,,,2024-12-20,1,,,,,インサイドセールス,0
358,2011105011268,新規,0,2024-12-20,2024-12-20,一般社団法人みらい承継,,その他の設立登記法人,東京都,新宿区,西新宿４丁目３１番３号永谷リヴュール新宿２１９,,13,104,1600023,,,,,,,2024-12-20,1,,,,,ミライショウケイ,0
366,2011601028311,新規,0,2024-12-20,2024-12-20,株式会社ＬＦＣＦ,,株式会社,東京都,練馬区,石神井台４丁目１０番２０－３３８号,,13,120,1770045,,,,,,,2024-12-20,1,,,,,エルエフシーエフ,0
379,2013301053523,新規,0,2024-12-20,2024-12-20,株式会社アールエス,,株式会社,東京都,豊島区,西池袋１丁目２９番３号ロイヤル西池袋ビル８Ｆ,,13,116,1710021,,,,,,,2024-12-20,1,,,,,アールエス,0
394,2020003027458,新規,0,2024-12-20,2024-12-20,合同会社勇樹,,合同会社,神奈川県,横浜市港北区,篠原町７３－２プラウド横浜岸根公園３０９,,14,109,2220026,,,,,,,2024-12-20,1,,,,,ユウキ,0
395,2020003027474,新規,0,2024-12-20,2024-12-20,合同会社かげながら,,合同会社,神奈川県,川崎市中原区,木月祗園町１０－３４シャン・ド・フルール２０１号室,,14,133,2110033,,,,,,,2024-12-20,1,,,,,カゲナガラ,0
397,2021001083939,新規,0,2024-12-20,2024-12-20,株式会社ＭＤ,,株式会社,神奈川県,小田原市,北ノ窪３６０,,14,206,2500051,,,,,,,2024-12-20,1,,,,,エムディ,0
398,2021001084053,新規,0,2024-12-20,2024-12-20,株式会社Ｉ’ｖ　ｈｏｌｄｉｎｇｓ,,株式会社,神奈川県,厚木市,旭町２丁目１６番１－１０１号,,14,212,2430014,,,,,,,2024-12-20,1,,,,,アイブホールディングス,0
422,2040001136655,新規,0,2024-12-20,2024-12-20,株式会社ぷらす,,株式会社,千葉県,市川市,中山１丁目３番４号,,12,203,2720813,,,,,,,2024-12-20,1,,,,,プラス,0
425,2040003026441,新規,0,2024-12-20,2024-12-20,合同会社アツマル,,合同会社,千葉県,千葉市花見川区,幕張本郷２丁目３４－１９－４１３,,12,102,2620033,,,,,,,2024-12-20,1,,,,,アツマル,0
432,2050003008892,新規,0,2024-12-20,2024-12-20,ＳＡＭＵＲＡＩ　ＣＥＹＬＯＮ合同会社,,合同会社,茨城県,常総市,水海道山田町４７３１番地,,08,211,3030031,,,,,,,2024-12-20,1,,,,,サムライセイロン,0
434,2060001037752,新規,0,2024-12-20,2024-12-20,株式会社真和総合設備,,株式会社,栃木県,那須塩原市,二区町４９８番地１０,,09,213,3292733,,,,,,,2024-12-20,1,,,,,シンワソウゴウセツビ,0
437,2060003005369,新規,0,2024-12-20,2024-12-20,合同会社勇志工業,,合同会社,栃木県,那須塩原市,上厚崎３８６番地１２,,09,213,3250026,,,,,,,2024-12-20,1,,,,,ユウシコウギョウ,0
440,2080101025201,新規,0,2024-12-20,2024-12-20,株式会社あおい,,株式会社,静岡県,富士市,柳島１６０番地の３,,22,210,4160932,,,,,,,2024-12-20,1,,,,,アオイ,0
459,2120001270768,新規,0,2024-12-20,2024-12-20,三和株式会社,,株式会社,大阪府,大阪市都島区,都島本通１丁目２－２グラシア都島本通６０１号室,,27,102,5340021,,,,,,,2024-12-20,1,,,,,ミワ,0
460,2120001271270,新規,0,2024-12-20,2024-12-20,株式会社駿程,,株式会社,大阪府,大阪市中央区,谷町７丁目３－４新谷町第３ビル３１５－１号,,27,128,5420012,,,,,,,2024-12-20,1,,,,,シュンテイ,0
461,2120001271279,新規,0,2024-12-20,2024-12-20,誠創株式会社,,株式会社,大阪府,大阪市天王寺区,夕陽丘町４番２号１０号室,,27,109,5430075,,,,,,,2024-12-20,1,,,,,セイソウ,0
462,2120001271287,新規,0,2024-12-20,2024-12-20,東亜株式会社,,株式会社,大阪府,大阪市東淀川区,瑞光４丁目２－２１・２０１号室,,27,114,5330005,,,,,,,2024-12-20,1,,,,,トウア,0
463,2120001271304,新規,0,2024-12-20,2024-12-20,株式会社鴻鼎,,株式会社,大阪府,大阪市淀川区,十三元今里２丁目１２番２５－１０３号,,27,123,5320028,,,,,,,2024-12-20,1,,,,,コウテイ,0
464,2120001271320,新規,0,2024-12-20,2024-12-20,千本桜国際株式会社,,株式会社,大阪府,大阪市生野区,田島１丁目１０番３１－３０３号,,27,116,5440011,,,,,,,2024-12-20,1,,,,,センボンザクラコクサイ,0
465,2120001271345,新規,0,2024-12-20,2024-12-20,株式会社国際教育企画,,株式会社,大阪府,大阪市中央区,南船場１丁目３番１６－７０３号,,27,128,5420081,,,,,,,2024-12-20,1,,,,,コクサイキョウイクキカク,0
466,2120003028198,新規,0,2024-12-20,2024-12-20,合同会社ＩＦ　Ｔｅｃｈ,,合同会社,大阪府,大阪市鶴見区,鶴見１丁目６番１０９－１１０５号,,27,124,5380053,,,,,,,2024-12-20,1,,,,,イフテック,0
467,2120003028215,新規,0,2024-12-20,2024-12-20,合同会社ガネス,,合同会社,大阪府,大阪市住吉区,杉本２丁目８番３号,,27,120,5580022,,,,,,,2024-12-20,1,,,,,ガネス,0
479,2130001078632,新規,0,2024-12-20,2024-12-20,株式会社Ｉ．Ｚ,,株式会社,京都府,京都市伏見区,深草飯食山町１－１,,26,109,6120815,,,,,,,2024-12-20,1,,,,,アイゼット,0
484,2140001136777,新規,0,2024-12-20,2024-12-20,株式会社ＰＡＳ,,株式会社,兵庫県,宝塚市,仁川高丸１丁目１３－２,,28,214,6650063,,,,,,,2024-12-20,1,,,,,パス,0
485,2140001136785,新規,0,2024-12-20,2024-12-20,株式会社堀井マーケティング事務所,,株式会社,兵庫県,西宮市,門戸荘５番６号,,28,204,6620825,,,,,,,2024-12-20,1,,,,,ホリイマーケティングジムショ,0
487,2140005027312,新規,0,2024-12-20,2024-12-20,医療法人きらりと,,その他の設立登記法人,兵庫県,神戸市垂水区,つつじが丘４丁目７番地の３,,28,108,6550853,,,,,,,2024-12-20,1,,,,,キラリト,0
488,2150001027752,新規,0,2024-12-20,2024-12-20,株式会社大弘運輸,,株式会社,奈良県,奈良市,後藤町１番地の２,,29,201,6308296,,,,,,,2024-12-20,1,,,,,タイコウウンユ,0
496,2180001164650,新規,0,2024-12-20,2024-12-20,金澤建設株式会社,,株式会社,愛知県,清須市,新清洲３丁目３番地１６ＥＳＰＲＥＳＳＯ新清洲２Ｃ,,23,233,4520943,,,,,,,2024-12-20,1,,,,,カナザワケンセツ,0
511,2230001020666,新規,0,2024-12-20,2024-12-20,キズナ株式会社,,株式会社,富山県,射水市,戸破８番地１４,,16,211,9390351,,,,,,,2024-12-20,1,,,,,キズナ,0
514,2240001064282,新規,0,2024-12-20,2024-12-20,株式会社ＯＬＤ　ＮＥＷ,,株式会社,広島県,広島市安芸区,瀬野１丁目３－７,,34,107,7390311,,,,,,,2024-12-20,1,,,,,オールドニュー,0
516,2250001020937,新規,0,2024-12-20,2024-12-20,ここでんサービス株式会社,,株式会社,山口県,山口市,中尾９３１番地１,,35,203,7530801,,,,,,,2024-12-20,1,,,,,ココデンサービス,0
519,2280001009317,新規,0,2024-12-20,2024-12-20,株式会社ふうか,,株式会社,島根県,松江市,古志原２丁目９番３２号－２０６号,,32,201,6900012,,,,,,,2024-12-20,1,,,,,フウカ,0
532,2340001027007,新規,0,2024-12-20,2024-12-20,ドットＭ株式会社,,株式会社,鹿児島県,鹿児島市,南新町１９番１２－２号,,46,201,8900085,,,,,,,2024-12-20,1,,,,,ドットエム,0
539,2370001006536,新規,0,2024-12-20,2024-12-20,宮城観光開発株式会社,,株式会社,宮城県,仙台市泉区,南光台東２丁目３１番１１号,,04,105,9818001,,,,,,,2024-12-20,1,,,,,ミヤギカンコウカイハツ,0
542,2370001052051,新規,0,2024-12-20,2024-12-20,株式会社カーブド,,株式会社,宮城県,仙台市泉区,西中山２丁目６番１６号,,04,105,9813218,,,,,,,2024-12-20,1,,,,,カーブド,0
545,2370005010872,新規,0,2024-12-20,2024-12-20,一般社団法人日本建築設備ＣＡＤ協会,,その他の設立登記法人,宮城県,仙台市青葉区,本町１丁目９番５号五城ビル５０２,,04,101,9800014,,,,,,,2024-12-20,1,,,,,ニホンケンチクセツビキャドキョウカイ,0
547,2380001034998,新規,0,2024-12-20,2024-12-20,株式会社しおり,,株式会社,福島県,福島市,北矢野目字原田６６番地の９,,07,201,9600113,,,,,,,2024-12-20,1,,,,,シオリ,0
548,2380003005915,新規,0,2024-12-20,2024-12-20,合同会社Ｋｅｙｓｔｏｎｅ,,合同会社,福島県,いわき市,平谷川瀬１丁目１９－１７,,07,204,9708036,,,,,,,2024-12-20,1,,,,,キーストーン,0
561,2430003017095,新規,0,2024-12-20,2024-12-20,合同会社Ｍａｋｅ‐Ｉ,,合同会社,北海道,札幌市豊平区,月寒西一条７丁目８番９号,,01,105,0620021,,,,,,,2024-12-20,1,,,,,メイクアイ,0
571,2700150128295,新規,0,2024-12-20,2024-12-20,日本橋一丁目１・２番地区市街地再開発組合,,その他,東京都,中央区,日本橋室町３丁目２番１号,,13,102,1030022,,,,,,,2024-12-20,1,,,,,ニホンバシイツチヨウメイチニバンチクシガイチサイカイハツクミアイ,0
584,3010001250838,新規,0,2024-12-20,2024-12-20,株式会社Ｃｏｔｏｌｌｙ,,株式会社,東京都,中央区,勝どき２丁目１番１１－５０２号,,13,102,1040054,,,,,,,2024-12-20,1,,,,,コトリー,0
590,3010005039311,新規,0,2024-12-20,2024-12-20,一般社団法人日本ＦＡ代理店協会,,その他の設立登記法人,東京都,千代田区,外神田２丁目１７番６―１６０３号,,13,101,1010021,,,,,,,2024-12-20,1,,,,,ニホンエフエーダイリテンキョウカイ,0
602,3010401187168,新規,0,2024-12-20,2024-12-20,フォルモサインターナショナル株式会社,,株式会社,東京都,港区,赤坂３丁目１１番８号,,13,103,1070052,,,,,,,2024-12-20,1,,,,,フォルモサインターナショナル,0
603,3010405023872,新規,0,2024-12-20,2024-12-20,Ｉ＆Ｐ国際社会保険労務士法人,,その他の設立登記法人,東京都,港区,芝浦３丁目７番１３号８０４号,,13,103,1080023,,,,,,,2024-12-20,1,,,,,アイアンドピーコクサイ,0
606,3010501053360,新規,0,2024-12-20,2024-12-20,株式会社フューチャースター,,株式会社,東京都,台東区,柳橋２丁目１０番３号,,13,106,1110052,,,,,,,2024-12-20,1,,,,,フューチャースター,0
609,3010601066485,新規,0,2024-12-20,2024-12-20,株式会社ＯＮＥ,,株式会社,東京都,江東区,亀戸７丁目１９番６号,,13,108,1360071,,,,,,,2024-12-20,1,,,,,ワン,0
610,3010601066493,新規,0,2024-12-20,2024-12-20,竹海製薬株式会社,,株式会社,東京都,江東区,亀戸３丁目２４番７号ＣＧＭビル,,13,108,1360071,,,,,,,2024-12-20,1,,,,,タケウミセイヤク,0
617,3010701046998,新規,0,2024-12-20,2024-12-20,株式会社東和,,株式会社,東京都,品川区,東大井１丁目４－１７三栄ビル２０２,,13,109,1400011,,,,,,,2024-12-20,1,,,,,トウワ,0
618,3010703007503,新規,0,2024-12-20,2024-12-20,Ｍｉｚｕｈｏ　Ｔｒａｄｉｎｇ合同会社,,合同会社,東京都,品川区,西五反田３丁目３－２プラウドタワー目黒ＭＡＲＣ２７０３,,13,109,1410031,,,,,,,2024-12-20,1,,,,,ミズホトレーディング,0
627,3011001166413,新規,0,2024-12-20,2024-12-20,株式会社なのはな,,株式会社,東京都,渋谷区,桜丘町４番１４号ＶＯＲＴ渋谷桜丘ビル５Ｆ,,13,113,1500031,,,,,,,2024-12-20,1,,,,,ナノハナ,0
628,3011001166487,新規,0,2024-12-20,2024-12-20,株式会社イチゴエックス,,株式会社,東京都,渋谷区,渋谷２丁目９番９号ＳＡＮＷＡ青山Ｂｌｄｇ．９階,,13,113,1500002,,,,,,,2024-12-20,1,,,,,,0
629,3011001166727,新規,0,2024-12-20,2024-12-20,株式会社ｔｅｎｔｏｓｅｎ,,株式会社,東京都,渋谷区,恵比寿３丁目３６番１３－４０２号,,13,113,1500013,,,,,,,2024-12-20,1,,,,,テントセン,0
632,3011003020592,新規,0,2024-12-20,2024-12-20,合同会社ＫＧ,,合同会社,東京都,渋谷区,道玄坂１丁目１０番８号渋谷道玄坂東急ビル２Ｆ－Ｃ,,13,113,1500043,,,,,,,2024-12-20,1,,,,,ケージー,0
633,3011003020601,新規,0,2024-12-20,2024-12-20,合同会社ＬＴＲ,,合同会社,東京都,渋谷区,恵比寿南１丁目１８番２号,,13,113,1500022,,,,,,,2024-12-20,1,,,,,エルティーアール,0
635,3011101109957,新規,0,2024-12-20,2024-12-20,暮らしヨクスル株式会社,,株式会社,東京都,新宿区,西落合２丁目１０番２０号いらかビル４０１,,13,104,1610031,,,,,,,2024-12-20,1,,,,,クラシヨクスル,0
636,3011103015311,新規,0,2024-12-20,2024-12-20,合同会社ソーレ,,合同会社,東京都,新宿区,西新宿８丁目３番３２号ＣＡＲＭＥＬＩ１０２号室,00137406,13,104,1600023,,,,,,,2024-12-20,1,,,,,ソーレ,0
649,3011501031505,新規,0,2024-12-20,2024-12-20,吉森株式会社,,株式会社,東京都,北区,浮間１丁目１番１４号リムジンビル３０９,,13,117,1150051,,,,,,,2024-12-20,1,,,,,ヨシモリ,0
655,3011601028319,新規,0,2024-12-20,2024-12-20,株式会社青木真研究室,,株式会社,東京都,練馬区,北町７丁目２０番２９号,,13,120,1790081,,,,,,,2024-12-20,1,,,,,アオキシンケンキュウシツ,0
659,3011801045304,新規,0,2024-12-20,2024-12-20,株式会社ＬＩＦＥＬＩＢ,,株式会社,東京都,足立区,大谷田１丁目１番２－９０８号,,13,121,1200001,,,,,,,2024-12-20,1,,,,,ライフリブ,0
660,3011802031187,新規,0,2024-12-20,2024-12-20,有限会社マリオン,,有限会社,東京都,葛飾区,青戸６丁目１７番１６号,,13,122,1250062,,,,,,,2024-12-20,1,,,,,マリオン,0
662,3012301014195,新規,0,2024-12-20,2024-12-20,片脇産業株式会社,,株式会社,東京都,町田市,南つくし野２丁目３１番地７２,,13,209,1940002,,,,,,,2024-12-20,1,,,,,カタワキサンギョウ,0
670,3020001160623,新規,0,2024-12-20,2024-12-20,株式会社Ｒｅｓｕｒｒｅｃｔｉｏｎ,,株式会社,神奈川県,横浜市神奈川区,金港町５－１４クアドリフォリオ８階,,14,102,2210056,,,,,,,2024-12-20,1,,,,,レザレクション,0
685,3030001164004,新規,0,2024-12-20,2024-12-20,株式会社ＰＲＩＭＥ　ＬＡＮＫＡ　ＩＮＴＥＲＮＡＴＩＯＮＡＬ,,株式会社,埼玉県,本庄市,児玉町金屋５７８番地２,,11,211,3670216,,,,,,,2024-12-20,1,,,,,プライムランカインターナショナル,0
687,3030003025690,新規,0,2024-12-20,2024-12-20,合同会社Ｒｏｌｅ　Ｍｏｄｅｌ,,合同会社,埼玉県,三郷市,さつき平２丁目３番２－１１０５号,,11,237,3410021,,,,,,,2024-12-20,1,,,,,ロールモデル,0
688,3030003025724,新規,0,2024-12-20,2024-12-20,億城合同会社,,合同会社,埼玉県,新座市,新座１丁目３番２,,11,230,3520006,,,,,,,2024-12-20,1,,,,,オクシロ,0
689,3030003025732,新規,0,2024-12-20,2024-12-20,合同会社鈴木企画,,合同会社,埼玉県,さいたま市浦和区,本太４丁目９－１４,,11,107,3300052,,,,,,,2024-12-20,1,,,,,スズキキカク,0
698,3040001136654,新規,0,2024-12-20,2024-12-20,株式会社Ｊａｙａｓｉｒｉ　Ｉｎｔｅｒｎａｔｉｏｎａｌ,,株式会社,千葉県,船橋市,小室町３０３３番地,,12,204,2701471,,,,,,,2024-12-20,1,,,,,ジャヤシリインターナショナル,0
699,3040003026440,新規,0,2024-12-20,2024-12-20,ＤＨＯＲ　ＢＡＲＡＨＡ合同会社,,合同会社,千葉県,市川市,行徳駅前４丁目１１番８－３０２号（美竹ハイツ）,,12,203,2720133,,,,,,,2024-12-20,1,,,,,ドールバラハ,0
701,3050003008891,新規,0,2024-12-20,2024-12-20,合同会社未来,,合同会社,茨城県,北相馬郡利根町,大字布川２５５３番地２８,,08,564,3001622,,,,,,,2024-12-20,1,,,,,ミライ,0
712,3090001019053,新規,0,2024-12-20,2024-12-20,Ｒｕｂｙ　Ｒｅａｌｔｙ株式会社,,株式会社,山梨県,甲斐市,龍地２３４０番地４－１０１,,19,210,4000104,,,,,,,2024-12-20,1,,,,,ルビーリアルティ,0
716,3100001038126,新規,0,2024-12-20,2024-12-20,ＧＰＣ　ＧＲＯＵＰ株式会社,,株式会社,長野県,松本市,井川城３丁目３番８－５号,,20,202,3900831,,,,,,,2024-12-20,1,,,,,ジーピーシーグループ,0
718,3110001038934,新規,0,2024-12-20,2024-12-20,株式会社えにし,,株式会社,新潟県,上越市,大字大日２４８番地,,15,222,9430175,,,,,,,2024-12-20,1,,,,,,0
729,3120001271096,新規,0,2024-12-20,2024-12-20,Ｍａｎｔｉｓ　Ｆａｒｍ株式会社,,株式会社,大阪府,大阪市中央区,博労町４丁目６番１７号,,27,128,5410059,,,,,,,2024-12-20,1,,,,,マンティスファーム,0
730,3120001271294,新規,0,2024-12-20,2024-12-20,株式会社ＡＮＳ,,株式会社,大阪府,大阪市平野区,加美北４丁目２－３６－１０１,,27,126,5470001,,,,,,,2024-12-20,1,,,,,アンズ,0
731,3120001271311,新規,0,2024-12-20,2024-12-20,株式会社ドゥラポ,,株式会社,大阪府,大阪市生野区,巽東２丁目５番２４号,00137399,27,116,5440014,,,,,,,2024-12-20,1,,,,,ドゥラポ,0
732,3120001271336,新規,0,2024-12-20,2024-12-20,株式会社大国主,,株式会社,大阪府,大阪市東淀川区,東中島４丁目１１番３号朝日プラザ新大阪９０８号室,,27,114,5330033,,,,,,,2024-12-20,1,,,,,オオクニヌシ,0
734,3120003028206,新規,0,2024-12-20,2024-12-20,合同会社ＭＶＳコンサルティング,,合同会社,大阪府,大阪市中央区,内本町２丁目２－２－１２０５,,27,128,5400026,,,,,,,2024-12-20,1,,,,,エムブイエスコンサルティング,0
735,3120003028214,新規,0,2024-12-20,2024-12-20,ｍｏｏｍ合同会社,,合同会社,大阪府,大阪市北区,梅田１丁目２番２号大阪駅前第２ビル１２－１２,,27,127,5300001,,,,,,,2024-12-20,1,,,,,ムーム,0
740,3120103006202,新規,0,2024-12-20,2024-12-20,ソニラボ合同会社,,合同会社,大阪府,泉佐野市,春日町１０番２０号ランパートイヅツ１０３,,27,213,5980058,,,,,,,2024-12-20,1,,,,,ソニラボ,0
741,3120105009946,新規,0,2024-12-20,2024-12-20,一般社団法人とが・みのり,,その他の設立登記法人,大阪府,堺市南区,栂２２番地,,27,145,5900131,,,,,,,2024-12-20,1,,,,,トガミノリ,0
745,3130003010088,新規,0,2024-12-20,2024-12-20,合同会社トリンクス,,合同会社,京都府,京都市北区,上賀茂中ノ河原町８番地１５,,26,101,6038032,,,,,,,2024-12-20,1,,,,,トリンクス,0
750,3140003021423,新規,0,2024-12-20,2024-12-20,Ｉｎｄｉｖｉｄｕａｌ　Ｎｅｘｕｓ　Ｂｉｏ合同会社,,合同会社,兵庫県,尼崎市,道意町７丁目１番３,,28,202,6600083,,,,,,,2024-12-20,1,,,,,インディヴィデュアルネクサスバイオ,0
756,3170005007120,新規,0,2024-12-20,2024-12-20,特定非営利活動法人きしがわキッズ,,その他の設立登記法人,和歌山県,紀の川市,貴志川町神戸２１４番地２,,30,208,6400413,,,,,,,2024-12-20,1,,,,,キシガワキッズ,0
773,3180301039353,新規,0,2024-12-20,2024-12-20,株式会社サンラクト,,株式会社,愛知県,額田郡幸田町,大字上六栗字南山１６番地７,,23,501,4440123,,,,,,,2024-12-20,1,,,,,サンラクト,0
779,3200001043248,新規,0,2024-12-20,2024-12-20,ＢＡＮＨＭＩ　ＳＡＩＧＯＮ株式会社,,株式会社,岐阜県,山県市,大字伊佐美字東川３２０番地１,,21,215,5012100,,,,,,,2024-12-20,1,,,,,バインミーサイゴン,0
786,3250001020936,新規,0,2024-12-20,2024-12-20,三虎圧送株式会社,,株式会社,山口県,下関市,菊川町大字七見２４番地２３,,35,201,7500315,,,,,,,2024-12-20,1,,,,,ミトラアッソウ,0
788,3260001039728,新規,0,2024-12-20,2024-12-20,株式会社ＬＯＯＰ　ＴＥＣＨ,,株式会社,岡山県,岡山市南区,北七区２０８番地,,33,104,7091201,,,,,,,2024-12-20,1,,,,,ループテック,0
794,3290001108331,新規,0,2024-12-20,2024-12-20,株式会社ｍａｒｅ,,株式会社,福岡県,福岡市中央区,高砂２丁目１－４オーキッドプレイス天神南８階,,40,133,8100011,,,,,,,2024-12-20,1,,,,,マレ,0
810,3350003004803,新規,0,2024-12-20,2024-12-20,ＣｈａｉｎＳｐｈｅｒｅ合同会社,,合同会社,宮崎県,宮崎市,大島町原ノ島１６２５番地４７,,45,201,8800824,,,,,,,2024-12-20,1,,,,,チェーンスフィア,0
822,3380001034997,新規,0,2024-12-20,2024-12-20,株式会社ＭＹテック,,株式会社,福島県,いわき市,泉ケ丘２丁目６２番地の４,,07,204,9718171,,,,,,,2024-12-20,1,,,,,エムワイテック,0
823,3380003005914,新規,0,2024-12-20,2024-12-20,モデクボ合同会社,,合同会社,福島県,郡山市,田村町徳定字中河原１番地１,,07,203,9631165,,,,,,,2024-12-20,1,,,,,モデクボ,0
824,3390001017828,新規,0,2024-12-20,2024-12-20,株式会社ＥｚＧｏ,,株式会社,山形県,西村山郡西川町,大字月山沢３４７－３,,06,322,9900733,,,,,,,2024-12-20,1,,,,,イージーゴー,0
825,3390003002324,新規,0,2024-12-20,2024-12-20,合同会社舟橋ハウジング,,合同会社,山形県,鶴岡市,大東町５番７号,,06,203,9970026,,,,,,,2024-12-20,1,,,,,フナハシハウジング,0
828,3400005008458,新規,0,2024-12-20,2024-12-20,一般社団法人土淵地区営農組合,,その他の設立登記法人,岩手県,遠野市,土淵町土淵４地割２１番地６,,03,208,0280555,,,,,,,2024-12-20,1,,,,,ツチブチチクエイノウクミアイ,0
837,3430001093303,新規,0,2024-12-20,2024-12-20,北海道ニセコホテルアンドリゾート株式会社,,株式会社,北海道,札幌市中央区,北二条西１０丁目１番地１４西３０２,,01,101,0600002,,,,,,,2024-12-20,1,,,,,ホッカイドウニセコホテルアンドリゾート,0
872,4010501053376,新規,0,2024-12-20,2024-12-20,メディカルテック株式会社,,株式会社,東京都,台東区,東上野１丁目１５番４号キスワイヤ御徒町ビル４階,,13,106,1100015,,,,,,,2024-12-20,1,,,,,メディカルテック,0
874,4010603011281,新規,0,2024-12-20,2024-12-20,Ｎｏｖａ　Ｉｎｓｉｇｈｔ合同会社,,合同会社,東京都,江東区,亀戸２丁目６番４－３０５,,13,108,1360071,,,,,,,2024-12-20,1,,,,,ノヴァインサイト,0
878,4010701046997,新規,0,2024-12-20,2024-12-20,株式会社スピカコンサルティング,,株式会社,東京都,品川区,小山７丁目１２番１８号,,13,109,1420062,,,,,,,2024-12-20,1,,,,,スピカコンサルティング,0
886,4011001166370,新規,0,2024-12-20,2024-12-20,株式会社アルデンス,,株式会社,東京都,渋谷区,渋谷１丁目１－３アミーホール３Ｆ,,13,113,1500002,,,,,,,2024-12-20,1,,,,,アルデンス,0
887,4011001166412,新規,0,2024-12-20,2024-12-20,ＮＩＮＥ株式会社,,株式会社,東京都,渋谷区,道玄坂１丁目１０番８号,,13,113,1500043,,,,,,,2024-12-20,1,,,,,ナイン,0
888,4011001166420,新規,0,2024-12-20,2024-12-20,株式会社ｗｅｌｌｎｅｓｓ,,株式会社,東京都,渋谷区,元代々木町２１番９号シルエット１０２,,13,113,1510062,,,,,,,2024-12-20,1,,,,,ウェルネス,0
889,4011001166437,新規,0,2024-12-20,2024-12-20,株式会社ＯＰ,,株式会社,東京都,渋谷区,広尾２丁目６番２７－１０２号,,13,113,1500012,,,,,,,2024-12-20,1,,,,,オーピー,0
890,4011001166494,新規,0,2024-12-20,2024-12-20,株式会社ＣＬＥ,,株式会社,東京都,渋谷区,円山町２４番３号ＴＴＫフラット３０１,,13,113,1500044,,,,,,,2024-12-20,1,,,,,クレ,0
891,4011001166503,新規,0,2024-12-20,2024-12-20,株式会社ＪＱＩＴ,,株式会社,東京都,渋谷区,道玄坂１丁目１０－８渋谷道玄坂東急ビル２Ｆ－Ｃ,,13,113,1500043,,,,,,,2024-12-20,1,,,,,ジェイキット,0
892,4011001166511,新規,0,2024-12-20,2024-12-20,株式会社ＥｎＲｅａｃｈ,,株式会社,東京都,目黒区,目黒１丁目２番９－２０５号シティハウス目黒,,13,110,1530063,,,,,,,2024-12-20,1,,,,,エンリーチ,0
898,4011003020575,新規,0,2024-12-20,2024-12-20,合同会社ハント,,合同会社,東京都,目黒区,自由が丘１丁目７番３－６０５号,,13,110,1520035,,,,,,,2024-12-20,1,,,,,ハント,0
899,4011003020591,新規,0,2024-12-20,2024-12-20,合同会社デジメイト,,合同会社,東京都,渋谷区,道玄坂１丁目１０番８号渋谷道玄坂東急ビル２Ｆ－Ｃ,,13,113,1500043,,,,,,,2024-12-20,1,,,,,デジメイト,0
900,4011003020609,新規,0,2024-12-20,2024-12-20,合同会社Ｊｏｕｒｎｅｅ,,合同会社,東京都,渋谷区,上原２丁目４７番１６号Ｊ’ｓビル上原３階,,13,113,1510064,,,,,,,2024-12-20,1,,,,,ジュルネ,0
906,4011101109997,新規,0,2024-12-20,2024-12-20,株式会社ＩＬＬＭ,,株式会社,東京都,新宿区,大久保１丁目１７－１６第二玉屋ビル２０２,,13,104,1690072,,,,,,,2024-12-20,1,,,,,イルム,0
908,4011105011258,新規,0,2024-12-20,2024-12-20,ＭＥＰＳ有限責任監査法人,,その他の設立登記法人,東京都,新宿区,西新宿７丁目８番１３号,,13,104,1600023,,,,,,,2024-12-20,1,,,,,メップス,0
909,4011201025970,新規,0,2024-12-20,2024-12-20,頂火東京株式会社,,株式会社,東京都,中野区,南台１丁目１－１７新井ビル２０１室,,13,114,1640014,,,,,,,2024-12-20,1,,,,,チョウカトウキョウ,0
911,4011303005367,新規,0,2024-12-20,2024-12-20,合同会社ｏｎｅ　ｈｉｇｈ,,合同会社,東京都,杉並区,下高井戸４丁目４４番１６号,,13,115,1680073,,,,,,,2024-12-20,1,,,,,ワンハイ,0
913,4011601028318,新規,0,2024-12-20,2024-12-20,ＶＡＮＴＡＧＥ株式会社,,株式会社,東京都,練馬区,小竹町１丁目４３番４号,,13,120,1760004,,,,,,,2024-12-20,1,,,,,バンテージ,0
917,4011801045328,新規,0,2024-12-20,2024-12-20,株式会社善ＺＥＮ,,株式会社,東京都,足立区,古千谷本町１丁目１４番３５号,,13,121,1210832,,,,,,,2024-12-20,1,,,,,ゼン,0
920,4013101009590,新規,0,2024-12-20,2024-12-20,株式会社東京丁服,,株式会社,東京都,福生市,志茂６８番地,,13,218,1970023,,,,,,,2024-12-20,1,,,,,トウキョウテイフク,0
923,4013303007434,新規,0,2024-12-20,2024-12-20,合同会社ＵＭＩ　ＣＡＲＥ,,合同会社,東京都,豊島区,巣鴨１丁目１７－１巣鴨サマリヤマンション８階８０２号室,,13,116,1700002,,,,,,,2024-12-20,1,,,,,ウミケア,0
937,4021001084035,新規,0,2024-12-20,2024-12-20,銀月株式会社,,株式会社,神奈川県,秦野市,南矢名２２２３番地の４東海ビル２０２Ｂ,,14,211,2570003,,,,,,,2024-12-20,1,,,,,ギンゲツ,0
940,4021003015376,新規,0,2024-12-20,2024-12-20,ＡＫＥＥＬ　ＴＲＡＤＩＮＧ合同会社,,合同会社,神奈川県,平塚市,土屋４５７８－２オフィス３,,14,203,2591205,,,,,,,2024-12-20,1,,,,,アキールトレーディング,0
946,4030001164003,新規,0,2024-12-20,2024-12-20,昌弘株式会社,,株式会社,埼玉県,川口市,並木３丁目２７番６号斉藤ビル３０２,,11,203,3320034,,,,,,,2024-12-20,1,,,,,ショウコウ,0
947,4030001164044,新規,0,2024-12-20,2024-12-20,株式会社テイクオフ,,株式会社,埼玉県,さいたま市岩槻区,南平野４丁目１５番地１,,11,110,3390051,,,,,,,2024-12-20,1,,,,,テイクオフ,0
962,4040003026431,新規,0,2024-12-20,2024-12-20,アンシュ合同会社,,合同会社,千葉県,茂原市,早野２４６５番地１１,,12,210,2970037,,,,,,,2024-12-20,1,,,,,アンシュ,0
963,4040005022602,新規,0,2024-12-20,2024-12-20,一般社団法人日本ボーイスカウト千葉県連盟,,その他の設立登記法人,千葉県,千葉市中央区,都町２丁目１２番１１号,,12,101,2600001,,,,,,,2024-12-20,1,,,,,ニホンボーイスカウトチバケンレンメイ,0
970,4050003008890,新規,0,2024-12-20,2024-12-20,ザキラム合同会社,,合同会社,茨城県,稲敷市,上之島６７０,,08,229,3000732,,,,,,,2024-12-20,1,,,,,ザキラム,0
972,4060001037759,新規,0,2024-12-20,2024-12-20,ＬａＬａ　Ｃｏｍｐａｎｙ株式会社,,株式会社,栃木県,佐野市,君田町３２２番地４,,09,204,3270043,,,,,,,2024-12-20,1,,,,,ララカンパニー,0
974,4060003005367,新規,0,2024-12-20,2024-12-20,なすの資産管理合同会社,,合同会社,栃木県,那須塩原市,西大和４番３号,,09,213,3292754,,,,,,,2024-12-20,1,,,,,ナスノシサンカンリ,0
980,4080101025190,新規,0,2024-12-20,2024-12-20,株式会社Ａｓ,,株式会社,静岡県,伊東市,荻４５２番地の５６,,22,208,4140053,,,,,,,2024-12-20,1,,,,,エーエス,0
981,4080101025199,新規,0,2024-12-20,2024-12-20,大昭和バーガーパック株式会社,,株式会社,静岡県,富士市,依田橋６１番地の１,,22,210,4170002,,,,,,,2024-12-20,1,,,,,ダイショウワバーガーパック,0
1000,4120001271211,新規,0,2024-12-20,2024-12-20,株式会社ＬｉｎｋＧａｔｅ,,株式会社,大阪府,大阪市住吉区,苅田９丁目２番１７－３０２号,,27,120,5580011,,,,,,,2024-12-20,1,,,,,リンクゲート,0
1001,4120001271244,新規,0,2024-12-20,2024-12-20,株式会社もりた,,株式会社,大阪府,大阪市旭区,中宮２丁目７番７号,,27,117,5350003,,,,,,,2024-12-20,1,,,,,モリタ,0
1002,4120001271252,新規,0,2024-12-20,2024-12-20,吉川株式会社,,株式会社,大阪府,大阪市住吉区,東粉浜１丁目１２番１２－２０５号,,27,120,5580051,,,,,,,2024-12-20,1,,,,,ヨシカワ,0
1003,4120001271285,新規,0,2024-12-20,2024-12-20,株式会社カワ,,株式会社,大阪府,大阪市北区,芝田１丁目１０番１０号芝田グランドビル１２階,,27,127,5300012,,,,,,,2024-12-20,1,,,,,カワ,0
1004,4120001271293,新規,0,2024-12-20,2024-12-20,通達株式会社,,株式会社,大阪府,大阪市大正区,平尾４丁目１１番７号共栄ビル１０４号室,,27,108,5510012,,,,,,,2024-12-20,1,,,,,ツウタツ,0
1005,4120001271302,新規,0,2024-12-20,2024-12-20,株式会社Ｚｉｒａｉｙａ,,株式会社,大阪府,大阪市都島区,中野町５丁目６－１９－３０３,,27,102,5340027,,,,,,,2024-12-20,1,,,,,ジライヤ,0
1006,4120001271327,新規,0,2024-12-20,2024-12-20,大鵬株式会社,,株式会社,大阪府,大阪市西成区,北津守２丁目５番２－６号,,27,122,5570061,,,,,,,2024-12-20,1,,,,,ダイホウ,0
1007,4120001271335,新規,0,2024-12-20,2024-12-20,株式会社石川興業,,株式会社,大阪府,大阪市大正区,泉尾１丁目１８番２８号プレジオ大正１５０４,,27,108,5510031,,,,,,,2024-12-20,1,,,,,イシカワコウギョウ,0
1008,4120003028188,新規,0,2024-12-20,2024-12-20,合同会社Ｌｉｖｉｃａｔｅ,,合同会社,大阪府,大阪市浪速区,幸町１丁目２番９号ＲＥ－００５,,27,111,5560021,,,,,,,2024-12-20,1,,,,,リビケイト,0
1020,4130005017254,新規,0,2024-12-20,2024-12-20,特定非営利活動法人不動産整理整頓の窓口,,その他の設立登記法人,京都府,京都市西京区,桂朝日町３８番地３,,26,111,6158027,,,,,,,2024-12-20,1,,,,,フドウサンセイリセイトンノマドグチ,0
1022,4140001136759,新規,0,2024-12-20,2024-12-20,株式会社リルグリーン,,株式会社,兵庫県,淡路市,岩屋６２７－４,,28,226,6562401,,,,,,,2024-12-20,1,,,,,リルグリーン,0
1032,4180001004796,新規,0,2024-12-20,2024-12-20,東海空港株式会社,,株式会社,愛知県,名古屋市千種区,茶屋が坂１丁目６番１８号,,23,101,4640092,,,,,,,2024-12-20,1,,,,,トウカイクウコウ,0
1037,4180001164640,新規,0,2024-12-20,2024-12-20,ｍｏｍｏ株式会社,,株式会社,愛知県,名古屋市中川区,牛立町１丁目１１２番地牛立荘５,,23,110,4540043,,,,,,,2024-12-20,1,,,,,モモ,0
1038,4180001164649,新規,0,2024-12-20,2024-12-20,株式会社ＥＳＳ,,株式会社,愛知県,あま市,上萱津大門７５番地３,,23,237,4901112,,,,,,,2024-12-20,1,,,,,イーエスエス,0
1049,4180301039336,新規,0,2024-12-20,2024-12-20,株式会社ＳＹ計算事務所,,株式会社,愛知県,豊橋市,植田町字西ケ谷６８番地,,23,201,4418134,,,,,,,2024-12-20,1,,,,,エスワイケイサンジムショ,0
1064,4240001064272,新規,0,2024-12-20,2024-12-20,株式会社ＭＵＧＥＮ,,株式会社,広島県,福山市,瀬戸町山北１９１番地１Ｂ２０２,,34,207,7210000,,,,,,,2024-12-20,1,,,,,ムゲン,0
1069,4250001020935,新規,0,2024-12-20,2024-12-20,株式会社未来ステップ,,株式会社,山口県,宇部市,大小路２丁目７番３４号,,35,202,7550076,,,,,,,2024-12-20,1,,,,,ミライステップ,0
1076,4290003016192,新規,0,2024-12-20,2024-12-20,柏海合同会社,,合同会社,福岡県,福岡市中央区,大名１丁目３番４１号プリオ大名２Ｆ,,40,133,8100041,,,,,,,2024-12-20,1,,,,,バイハイ,0
1087,4310003004913,新規,0,2024-12-20,2024-12-20,合同会社ＭＫ‐ｆｌｏｗ,,合同会社,長崎県,西彼杵郡長与町,丸田郷１１５２番地４７,,42,307,8512124,,,,,,,2024-12-20,1,,,,,エムケーフロー,0
1090,4320005010207,新規,0,2024-12-20,2024-12-20,一般社団法人玖珠のカカオ,,その他の設立登記法人,大分県,玖珠郡玖珠町,大字岩室１３７６番地,,44,462,8794405,,,,,,,2024-12-20,1,,,,,クスノカカオ,0
1099,4360001034560,新規,0,2024-12-20,2024-12-20,株式会社沖縄ファースト政策研究所,,株式会社,沖縄県,那覇市,曙２丁目２４番１３号曙沖商ビル７階Ｂ号室,,47,201,9000002,,,,,,,2024-12-20,1,,,,,オキナワファーストセイサクケンキュウジョ,0
1105,4380001034996,新規,0,2024-12-20,2024-12-20,株式会社ＨＯＰＥ,,株式会社,福島県,安達郡大玉村,玉井字守谷山３７番地８７８,,07,322,9691302,,,,,,,2024-12-20,1,,,,,ホープ,0
1113,4430001093302,新規,0,2024-12-20,2024-12-20,ホワイトスペースマネジメント株式会社,,株式会社,北海道,虻田郡ニセコ町,字ニセコ４８２番地２,,01,395,0481511,,,,,,,2024-12-20,1,,,,,ホワイトスペースマネジメント,0
1117,4440001009538,新規,0,2024-12-20,2024-12-20,株式会社ＮＢＣサービス,,株式会社,北海道,函館市,山の手３丁目４２番５号,,01,202,0410836,,,,,,,2024-12-20,1,,,,,エヌビーシーサービス,0
1120,4450003002572,新規,0,2024-12-20,2024-12-20,合同会社渡邉牧場,,合同会社,北海道,紋別郡興部町,字朝日３９０番地の１１,,01,561,0981600,,,,,,,2024-12-20,1,,,,,ワタナベボクジョウ,0
1122,4700150128327,新規,0,2024-12-20,2024-12-20,ＨＩＮＬＩＮＫ（ＨＫ）ＬＩＭＩＴＥＤ,,外国会社等,,,,,,,,Ｕｎｉｔ　９０６，９／Ｆ，Ｆｉｒｓｔ　Ｇｒｏｕｐ　Ｃｅｎｔｒｅ，２３　Ｗａｎｇ　Ｃｈｉｕ　Ｒｏａｄ，Ｋｏｗｌｏｏｎ　Ｂａｙ，Ｈｏｎｇ　Ｋｏｎｇ,,,,,,2024-12-20,1,,,,,ヒンリンクホンコンリミテッド,0
1135,5010001250860,新規,0,2024-12-20,2024-12-20,ＡｌｉＥｘｐｒｅｓｓ日本株式会社,,株式会社,東京都,中央区,京橋２丁目２番１号京橋エドグラン２６階,,13,102,1040031,,,,,,,2024-12-20,1,,,,,アリエクスプレスニホン,0
1146,5010401187166,新規,0,2024-12-20,2024-12-20,竹芝準備４号株式会社,,株式会社,東京都,港区,海岸１丁目７番１号,,13,103,1050022,,,,,,,2024-12-20,1,,,,,タケシバジュンビヨンゴウ,0
1153,5010501053359,新規,0,2024-12-20,2024-12-20,ＴＥＲＢＡＩＫ株式会社,,株式会社,東京都,台東区,浅草橋５丁目２０番８号,,13,106,1110053,,,,,,,2024-12-20,1,,,,,テラバイク,0
1154,5010501053367,新規,0,2024-12-20,2024-12-20,株式会社ＨＡＰＰＹ　ＴＯＫＹＯ,,株式会社,東京都,台東区,台東１丁目２９－３イースタンクロスアキバ８０４,,13,106,1100016,,,,,,,2024-12-20,1,,,,,ハッピートーキョー,0
1159,5010701047029,新規,0,2024-12-20,2024-12-20,株式会社ｖｉｔｏ,,株式会社,東京都,品川区,東五反田２丁目１０番１－３０１７号,,13,109,1410022,,,,,,,2024-12-20,1,,,,,ヴイトー,0
1161,5010901056523,新規,0,2024-12-20,2024-12-20,株式会社ビュロー２,,株式会社,東京都,世田谷区,用賀２丁目２８－１１,,13,112,1580097,,,,,,,2024-12-20,1,,,,,ビュロードゥ,0
1164,5011001166378,新規,0,2024-12-20,2024-12-20,ルート株式会社,,株式会社,東京都,渋谷区,恵比寿南１丁目１番１号,,13,113,1500022,,,,,,,2024-12-20,1,,,,,ルート,0
1165,5011001166527,新規,0,2024-12-20,2024-12-20,株式会社Ａｓｏｂｉ　Ｓｔｕｄｉｏｓ,,株式会社,東京都,目黒区,下目黒１丁目３番２号４０５,,13,110,1530064,,,,,,,2024-12-20,1,,,,,アソビスタジオ,0
1167,5011003020574,新規,0,2024-12-20,2024-12-20,合同会社Ｆｉｒｓｔ　Ｄｏｏｒ,,合同会社,東京都,渋谷区,渋谷２丁目１９－１５宮益坂ビルディング６０９,,13,113,1500002,,,,,,,2024-12-20,1,,,,,ファーストドア,0
1168,5011003020599,新規,0,2024-12-20,2024-12-20,Ｏｃｈｉｆｙ合同会社,,合同会社,東京都,渋谷区,道玄坂１丁目１０番８号渋谷道玄坂東急ビル２Ｆ－Ｃ,,13,113,1500043,,,,,,,2024-12-20,1,,,,,オチファイ,0
1169,5011003020608,新規,0,2024-12-20,2024-12-20,合同会社コグマス,,合同会社,東京都,渋谷区,道玄坂１丁目１０番８号渋谷道玄坂東急ビル２Ｆ－Ｃ,,13,113,1500043,,,,,,,2024-12-20,1,,,,,コグマス,0
1170,5011003020624,新規,0,2024-12-20,2024-12-20,サジェス渋谷合同会社,,合同会社,東京都,渋谷区,渋谷３丁目２６番１１号,,13,113,1500002,,,,,,,2024-12-20,1,,,,,,0
1171,5011003020657,新規,0,2024-12-20,2024-12-20,Ｅａｓｔ　Ｇａｔｅ　Ｉｎｖｅｓｔｍｅｎｔ　ＩＶ合同会社,,合同会社,東京都,渋谷区,神宮前５丁目３３番１号クレアホームズ神宮前４０２,,13,113,1500001,,,,,,,2024-12-20,1,,,,,イーストゲートインベストメントフォー,0
1177,5011103015318,新規,0,2024-12-20,2024-12-20,合同会社ＢＥＧＥＮＤ,,合同会社,東京都,新宿区,西新宿３丁目３番１３号西新宿水間ビル２Ｆ,,13,104,1600023,,,,,,,2024-12-20,1,,,,,ビゲンド,0
1178,5011105011265,新規,0,2024-12-20,2024-12-20,特定目的会社ＫＡＨ　Ｏｎｅ,,その他の設立登記法人,東京都,新宿区,四谷２丁目９番地１５東京ユナイテッド綜合事務所内,,13,104,1600004,,,,,,,2024-12-20,1,,,,,ケイエイエイチワン,0
1181,5011501031503,新規,0,2024-12-20,2024-12-20,株式会社澳洋,,株式会社,東京都,荒川区,南千住７丁目１０番１３号,,13,118,1160003,,,,,,,2024-12-20,1,,,,,アオヤン,0
1184,5011601028291,新規,0,2024-12-20,2024-12-20,Ｖｅｒｍｉｌｌｉｏｎ株式会社,,株式会社,東京都,練馬区,旭丘１丁目１１番３旭丘光ハイム４０１Ｆ号,,13,120,1760005,,,,,,,2024-12-20,1,,,,,バーミリオン,0
1185,5011601028309,新規,0,2024-12-20,2024-12-20,株式会社Ｒｅｖｅ　Ｌｉａｎ,,株式会社,東京都,練馬区,北町２丁目３０番２７号泰徳ハイム４０２,,13,120,1790081,,,,,,,2024-12-20,1,,,,,リーヴリアン,0
1190,5012303002089,新規,0,2024-12-20,2024-12-20,合同会社恵,,合同会社,東京都,町田市,成瀬６丁目９番９号ベルウッド壱番館１０４,,13,209,1940044,,,,,,,2024-12-20,1,,,,,ケイ,0
1204,5020003027471,新規,0,2024-12-20,2024-12-20,千葉・ネクサ合同会社,,合同会社,神奈川県,川崎市川崎区,駅前本町１１番地２川崎フロンティアビル４階,,14,131,2100007,,,,,,,2024-12-20,1,,,,,チバネクサ,0
1205,5021001084034,新規,0,2024-12-20,2024-12-20,諾宝株式会社,,株式会社,神奈川県,秦野市,南矢名２２２３番地の４東海ビル１１４Ｄ,,14,211,2570003,,,,,,,2024-12-20,1,,,,,ダクホウ,0
1207,5021005013245,新規,0,2024-12-20,2024-12-20,一般社団法人外食フリーランス協会,,その他の設立登記法人,神奈川県,藤沢市,辻堂２丁目２番６号,,14,205,2510047,,,,,,,2024-12-20,1,,,,,ガイショクフリーランスキョウカイ,0
1221,5030003025730,新規,0,2024-12-20,2024-12-20,Ｘ‐ｊａｍ合同会社,,合同会社,埼玉県,飯能市,大字永田９９番地１,,11,209,3570062,,,,,,,2024-12-20,1,,,,,エックスジャム,0
1222,5030003025739,新規,0,2024-12-20,2024-12-20,ＳＡＢＩＴＡ合同会社,,合同会社,埼玉県,朝霞市,根岸台７丁目２１番５号,,11,227,3510005,,,,,,,2024-12-20,1,,,,,サビタ,0
1224,5030005021983,新規,0,2024-12-20,2024-12-20,農事組合法人Ｄ４,,その他の設立登記法人,埼玉県,東松山市,大字大谷３２０８番地４,,11,212,3550008,,,,,,,2024-12-20,1,,,,,ディーフォー,0
1228,5040001136660,新規,0,2024-12-20,2024-12-20,志成商事株式会社,,株式会社,千葉県,柏市,柏６９０－７７,,12,217,2770005,,,,,,,2024-12-20,1,,,,,シセイショウジ,0
1231,5040003026406,新規,0,2024-12-20,2024-12-20,合同会社ａｉｄｅｒ　ａｒｂｒｅｓ,,合同会社,千葉県,千葉市緑区,おゆみ野２丁目１３番地１,,12,105,2660031,,,,,,,2024-12-20,1,,,,,エデアーブル,0
1243,5080005007656,新規,0,2024-12-20,2024-12-20,一般社団法人まちなか演奏会実行委員会,,その他の設立登記法人,静岡県,静岡市駿河区,中原５３３番地の３,,22,102,4228058,,,,,,,2024-12-20,1,,,,,マチナカエンソウカイジッコウイインカイ,0
1258,5120001270996,新規,0,2024-12-20,2024-12-20,ＥＭＵ株式会社,,株式会社,大阪府,大阪市生野区,生野西２丁目１番３３－３１１号,,27,116,5440024,,,,,,,2024-12-20,1,,,,,イーエムユー,0
1259,5120001271193,新規,0,2024-12-20,2024-12-20,株式会社Ａｑｕａ　Ｌｉｆｅ,,株式会社,大阪府,大阪市旭区,赤川３丁目８番１号,,27,117,5350005,,,,,,,2024-12-20,1,,,,,アクアライフ,0
1260,5120001271235,新規,0,2024-12-20,2024-12-20,彬和株式会社,,株式会社,大阪府,大阪市城東区,関目５丁目１９番９号関目花博公館６０５Ｂ,,27,118,5360008,,,,,,,2024-12-20,1,,,,,ヒンワ,0
1261,5120001271284,新規,0,2024-12-20,2024-12-20,トレントゥーノ株式会社,,株式会社,大阪府,大阪市平野区,加美鞍作２丁目１５番１０号,,27,126,5470004,,,,,,,2024-12-20,1,,,,,トレントゥーノ,0
1262,5120001271292,新規,0,2024-12-20,2024-12-20,萌懌株式会社,,株式会社,大阪府,大阪市東成区,中本３丁目８番２１号プレステイジ緑橋１０１号室,,27,115,5370022,,,,,,,2024-12-20,1,,,,,モエキ,0
1263,5120001271326,新規,0,2024-12-20,2024-12-20,株式会社インティマシィ,,株式会社,大阪府,大阪市此花区,西九条１丁目７番２２号,,27,104,5540012,,,,,,,2024-12-20,1,,,,,インティマシィ,0
1267,5120003028212,新規,0,2024-12-20,2024-12-20,合同会社アブソルセーフティ,,合同会社,大阪府,大阪市西淀川区,佃５丁目１１番２０号,,27,113,5550001,,,,,,,2024-12-20,1,,,,,アブソルセーフティ,0
1270,5120101070792,新規,0,2024-12-20,2024-12-20,日進ＨＲ株式会社,,株式会社,大阪府,堺市堺区,熊野町東１－１－２９－２０１,,27,141,5900000,,,,,,,2024-12-20,1,,,,,ニッシンエッチアール,0
1274,5130001078596,新規,0,2024-12-20,2024-12-20,株式会社リバース,,株式会社,京都府,京都市中京区,元竹田町６３１番地２の４１０,,26,104,6048145,,,,,,,2024-12-20,1,,,,,リバース,0
1282,5140003021413,新規,0,2024-12-20,2024-12-20,合同会社ＯＭＡＫＡＳＥ,,合同会社,兵庫県,西宮市,東鳴尾町２丁目１２－９－３０８号,,28,204,6638132,,,,,,,2024-12-20,1,,,,,オマカセ,0
1289,5170003002138,新規,0,2024-12-20,2024-12-20,合同会社ＥＳＰＡＣＥ,,合同会社,和歌山県,和歌山市,木広町５丁目２番地１５プレサンスロジェ和歌山６０５号室,,30,201,6408328,,,,,,,2024-12-20,1,,,,,イースペース,0
1308,5180301039351,新規,0,2024-12-20,2024-12-20,株式会社ＲＡＴＥＬ,,株式会社,愛知県,西尾市,吉良町富好新田四縄２１番地２,,23,213,4440515,,,,,,,2024-12-20,1,,,,,ラーテル,0
1310,5180303006374,新規,0,2024-12-20,2024-12-20,合同会社Ｇｏｓｈａｗｋ,,合同会社,愛知県,豊橋市,つつじが丘２丁目１２番地４,,23,201,4400858,,,,,,,2024-12-20,1,,,,,ゴスホーク,0
1321,5240001064271,新規,0,2024-12-20,2024-12-20,株式会社ホワイト不動産,,株式会社,広島県,安芸郡府中町,青崎中２６－２２－１０２,,34,302,7350016,,,,,,,2024-12-20,1,,,,,ホワイトフドウサン,0
1329,5260001039726,新規,0,2024-12-20,2024-12-20,株式会社祐健工業,,株式会社,岡山県,岡山市南区,川張５５３番地１,,33,104,7091214,,,,,,,2024-12-20,1,,,,,ユウケンコウギョウ,0
1343,5290003016200,新規,0,2024-12-20,2024-12-20,合同会社Ｂｅｇｉｎｎｉｎｇ　Ｔｒａｎｓｐｏｒｔ,,合同会社,福岡県,福岡市西区,今宿駅前１丁目１０－２８グランメゾン九大学研都市２０１号室,,40,135,8190168,,,,,,,2024-12-20,1,,,,,ビギニングトランスポート,0
1344,5290801031136,新規,0,2024-12-20,2024-12-20,株式会社ＣｌｅａｎＢｅａｕｔｙ．Ｒｏｃｃｏ,,株式会社,福岡県,北九州市八幡西区,八千代町１番７－１０３号,,40,109,8060023,,,,,,,2024-12-20,1,,,,,クリーンビューティーロッコ,0
1354,5360001034527,新規,0,2024-12-20,2024-12-20,株式会社ＳｐａｃｅＶＵ,,株式会社,沖縄県,那覇市,安里２丁目１番１号－２０３号,,47,201,9020067,,,,,,,2024-12-20,1,,,,,スペースブイユー,0
1364,5370001052057,新規,0,2024-12-20,2024-12-20,株式会社シシマル,,株式会社,宮城県,仙台市青葉区,錦ケ丘８丁目２７番地の２３,,04,101,9893123,,,,,,,2024-12-20,1,,,,,シシマル,0
1368,5380001034995,新規,0,2024-12-20,2024-12-20,株式会社里建工業,,株式会社,福島県,石川郡浅川町,大字里白石字宿裏１４１番地の１,,07,504,9636202,,,,,,,2024-12-20,1,,,,,サトケンコウギョウ,0
1372,5420005007935,新規,0,2024-12-20,2024-12-20,特定非営利活動法人春楡ノ櫂,,その他の設立登記法人,青森県,五所川原市,字田町３２番地１,,02,205,0370041,,,,,,,2024-12-20,1,,,,,ハルニレノカイ,0
1376,5430001093301,新規,0,2024-12-20,2024-12-20,トータルリンク株式会社,,株式会社,北海道,札幌市北区,新川四条６丁目１番２０号,,01,102,0010924,,,,,,,2024-12-20,1,,,,,トータルリンク,0
1379,5440001009537,新規,0,2024-12-20,2024-12-20,ＫＳ企画株式会社,,株式会社,北海道,函館市,小安町３１８番地,,01,202,0410251,,,,,,,2024-12-20,1,,,,,ケーエスキカク,0
1380,5450003002571,新規,0,2024-12-20,2024-12-20,ｔｏｆｕ　ｆｕｎｄ合同会社,,合同会社,北海道,上川郡東川町,キトウシ南１丁目１番１１号,,01,458,0711418,,,,,,,2024-12-20,1,,,,,トーフファンド,0
1388,5700150128326,新規,0,2024-12-20,2024-12-20,ｓｈｅｎｚｈｅｎｓｈｉｊｉａｙｉｎｇｋｅｊｉｙｏｕｘｉａｎｇｏｎｇｓｉ,,外国会社等,,,,,,,,ｓｈｅｎｚｈｅｎｓｈｉｆｕｔｉａｎｑｕｎａｎｙｕａｎｊｉｅｄａｏｙｕｔｉａｎｓｈｅｑｕｄｏｎｇｙｕａｎｌｕｘｉａｎｇｄｏｎｇｗｅｉｃｕｎ４９ｈａｏ２０１　５１８０００　ＣＮ,,,,,,2024-12-20,1,,,,,シェンジェンシジャアインカージヨウシェンゴンスー,0
1393,6010001250835,新規,0,2024-12-20,2024-12-20,株式会社ＤＯＮ’Ｔ　ＴＨＩＮＫ　ＦＥＥＬ,,株式会社,東京都,文京区,千駄木３丁目３６‐１２,,13,105,1130022,,,,,,,2024-12-20,1,,,,,ドントシンクフィール,0
1395,6010003045655,新規,0,2024-12-20,2024-12-20,雲路電気合同会社,,合同会社,東京都,中央区,入船１丁目９番８号ピエノアーク入船１階,,13,102,1040042,,,,,,,2024-12-20,1,,,,,ウンロデンキ,0
1396,6010003045837,新規,0,2024-12-20,2024-12-20,Ｆｏｏｄ　Ｓａｌｅｓ　Ｃｒｅａｔｉｏｎ勝どき合同会社,,合同会社,東京都,中央区,勝どき１丁目３番１－１００１号,,13,102,1040054,,,,,,,2024-12-20,1,,,,,フードセールスクリエーションカチドキ,0
1397,6010003045853,新規,0,2024-12-20,2024-12-20,ＴＧ＆Ｐａｒｔｎｅｒｓ合同会社,,合同会社,東京都,中央区,勝どき６丁目３番２－５２１８号,,13,102,1040054,,,,,,,2024-12-20,1,,,,,ティージーアンドパートナーズ,0
1399,6010005039300,新規,0,2024-12-20,2024-12-20,一般社団法人渋谷西開発,,その他の設立登記法人,東京都,中央区,日本橋１丁目４番１号,,13,102,1030027,,,,,,,2024-12-20,1,,,,,シブヤニシカイハツ,0
1400,6010005039317,新規,0,2024-12-20,2024-12-20,一般社団法人運動器イノベーション研究会,,その他の設立登記法人,東京都,千代田区,九段南４丁目８番８－１７０１号,,13,101,1020074,,,,,,,2024-12-20,1,,,,,ウンドウキイノベーションケンキュウカイ,0
1412,6010501053366,新規,0,2024-12-20,2024-12-20,ファイン・オザキ株式会社,,株式会社,東京都,台東区,上野６丁目７－１６ＩＮＣ、Ｏｆｆｉｃｅ、Ｕｅｎｏ７２０号室,,13,106,1100005,,,,,,,2024-12-20,1,,,,,ファインオザキ,0
1413,6010601066490,新規,0,2024-12-20,2024-12-20,ＭＨ資産管理株式会社,,株式会社,東京都,江東区,門前仲町１丁目７番１３号,,13,108,1350048,,,,,,,2024-12-20,1,,,,,エムエイチシサンカンリ,0
1424,6011001166435,新規,0,2024-12-20,2024-12-20,株式会社ｍｏａｔｒｏｃｋ,,株式会社,東京都,渋谷区,円山町２８番４号大場ビルＡ館６Ｆ－６ｂ,,13,113,1500044,,,,,,,2024-12-20,1,,,,,モートロック,0
1425,6011001166476,新規,0,2024-12-20,2024-12-20,株式会社ＢＲＡＩＧ,,株式会社,東京都,渋谷区,渋谷２丁目１９－１５宮益坂ビルディング６０９,,13,113,1500002,,,,,,,2024-12-20,1,,,,,ブレイグ,0
1426,6011003020573,新規,0,2024-12-20,2024-12-20,Ｓｔｒｅｌｉｔｚｉａ合同会社,,合同会社,東京都,渋谷区,道玄坂１丁目１０番８号渋谷道玄坂東急ビル２Ｆ－Ｃ,,13,113,1500043,,,,,,,2024-12-20,1,,,,,ストレリチア,0
1427,6011003020607,新規,0,2024-12-20,2024-12-20,合同会社ＴＴＯ,,合同会社,東京都,渋谷区,千駄ヶ谷５丁目１５番１３号千駄ヶ谷エレガンス４０３,,13,113,1510051,,,,,,,2024-12-20,1,,,,,ティーティーオー,0
1428,6011003020648,新規,0,2024-12-20,2024-12-20,Ｍｏｂｏｔｅｘ合同会社,,合同会社,東京都,渋谷区,恵比寿４丁目３番５号７０４号室アークアウトソーシング株式会社内,,13,113,1500013,,,,,,,2024-12-20,1,,,,,モボテックス,0
1429,6011005010820,新規,0,2024-12-20,2024-12-20,一般社団法人海洋映画研究機構,,その他の設立登記法人,東京都,渋谷区,東４丁目６番２３－９０２号,,13,113,1500011,,,,,,,2024-12-20,1,,,,,カイヨウエイガケンキュウキコウ,0
1440,6011101109954,新規,0,2024-12-20,2024-12-20,株式会社ＲＢＮ,,株式会社,東京都,新宿区,神楽坂３丁目６－１５ＧＥ神楽坂ビル４階,,13,104,1620825,,,,,,,2024-12-20,1,,,,,アールビーエヌ,0
1441,6011101109962,新規,0,2024-12-20,2024-12-20,株式会社ＣＬＹＲＥ,,株式会社,東京都,新宿区,四谷１丁目２２番地５,,13,104,1600004,,,,,,,2024-12-20,1,,,,,クライア,0
1442,6011101109987,新規,0,2024-12-20,2024-12-20,株式会社ＡＷＵ,,株式会社,東京都,新宿区,西新宿５丁目１番１号,,13,104,1600023,,,,,,,2024-12-20,1,,,,,エイダブルユー,0
1443,6011103015317,新規,0,2024-12-20,2024-12-20,合同会社ＧＬＡＭＳ,,合同会社,東京都,新宿区,北新宿２丁目７番１０号,,13,104,1690074,,,,,,,2024-12-20,1,,,,,グラムス,0
1447,6011201026001,新規,0,2024-12-20,2024-12-20,株式会社Ｃスタイル,,株式会社,東京都,中野区,新井１丁目１６－７,,13,114,1650026,,,,,,,2024-12-20,1,,,,,シースタイル,0
1448,6011301030241,新規,0,2024-12-20,2024-12-20,バローネクス株式会社,,株式会社,東京都,杉並区,成田東４丁目６－６,,13,115,1660015,,,,,,,2024-12-20,1,,,,,バローネクス,0
1449,6011501031502,新規,0,2024-12-20,2024-12-20,株式会社チエノワ,,株式会社,東京都,北区,中里１丁目２１番２号中里ビル１Ｆ,,13,117,1140015,,,,,,,2024-12-20,1,,,,,チエノワ,0
1451,6011701027911,新規,0,2024-12-20,2024-12-20,株式会社ｂｈｓ,,株式会社,東京都,江戸川区,東小岩１丁目１７－８シャリテ２０３,,13,123,1330052,,,,,,,2024-12-20,1,,,,,ビーエイチエス,0
1460,6013101009589,新規,0,2024-12-20,2024-12-20,株式会社ヒューマンサポート東日本,,株式会社,東京都,羽村市,五ノ神４丁目１５番１号,,13,227,2050011,,,,,,,2024-12-20,1,,,,,ヒューマンサポートヒガシニホン,0
1474,6021001084033,新規,0,2024-12-20,2024-12-20,Ｇｌｏｂａｌ　Ｖｉｓｉｏｎ株式会社,,株式会社,神奈川県,小田原市,栄町１丁目１７番２２号,,14,206,2500011,,,,,,,2024-12-20,1,,,,,グローバルビジョン,0
1475,6021001084041,新規,0,2024-12-20,2024-12-20,Ｅ＆Ｔ株式会社,,株式会社,神奈川県,藤沢市,鵠沼海岸３丁目４番５－１０５号,00137395,14,205,2510037,,,,,,,2024-12-20,1,,,,,イーアンドティー,0
1477,6021003015382,新規,0,2024-12-20,2024-12-20,ＡＫ出版合同会社,,合同会社,神奈川県,横須賀市,安浦町２丁目３３番地１ザ・タワーハウス１３１５,,14,201,2380012,,,,,,,2024-12-20,1,,,,,エーケーシュッパン,0
1489,6030001164026,新規,0,2024-12-20,2024-12-20,株式会社サンエイクローバー,,株式会社,埼玉県,戸田市,下前１丁目８番１６－２０１号,,11,224,3350016,,,,,,,2024-12-20,1,,,,,サンエイクローバー,0
1495,6030005021982,新規,0,2024-12-20,2024-12-20,農事組合法人木村の会,,その他の設立登記法人,埼玉県,東松山市,大字大谷３２０８番地４,,11,212,3550008,,,,,,,2024-12-20,1,,,,,キムラノカイ,0
1500,6040001136635,新規,0,2024-12-20,2024-12-20,株式会社印西技建,,株式会社,千葉県,印西市,荒野５２８番地１３,,12,231,2702326,,,,,,,2024-12-20,1,,,,,インザイギケン,0
1501,6040001136643,新規,0,2024-12-20,2024-12-20,株式会社セキロウ,,株式会社,千葉県,船橋市,宮本６丁目２２番７－２号,,12,204,2730003,,,,,,,2024-12-20,1,,,,,セキロウ,0
1508,6040003026438,新規,0,2024-12-20,2024-12-20,ブリー合同会社,,合同会社,千葉県,習志野市,香澄１丁目５番６－３０２号,,12,216,2750022,,,,,,,2024-12-20,1,,,,,ブリー,0
1512,6050001055867,新規,0,2024-12-20,2024-12-20,ＥＬＶＩＮ　ＴＥＣＨＮＯＬＯＧＹ株式会社,,株式会社,茨城県,水戸市,見川４丁目４１１番地の１１,,08,201,3100912,,,,,,,2024-12-20,1,,,,,エルヴィンテクノロジー,0
1513,6050001055900,新規,0,2024-12-20,2024-12-20,株式会社米次郎,,株式会社,茨城県,土浦市,荒川沖東３丁目２２番３５－１号ブランシェＡ棟１０１,,08,203,3000871,,,,,,,2024-12-20,1,,,,,コメジロウ,0
1525,6080001026675,新規,0,2024-12-20,2024-12-20,株式会社オリジンホールディングス,,株式会社,静岡県,静岡市清水区,天神１丁目３番１２号,,22,103,4240809,,,,,,,2024-12-20,1,,,,,オリジンホールディングス,0
1527,6080401027637,新規,0,2024-12-20,2024-12-20,株式会社ＩＴＣ,,株式会社,静岡県,浜松市浜名区,新都田５丁目１２番１２号,,22,139,4312103,,,,,,,2024-12-20,1,,,,,アイティーシー,0
1547,6120001271143,新規,0,2024-12-20,2024-12-20,株式会社ＢＥＬＬＩＳＳＩＭＯ,,株式会社,大阪府,大阪市西淀川区,姫島６丁目３番１３－５０７号,,27,113,5550033,,,,,,,2024-12-20,1,,,,,ベリシモ,0
1548,6120001271267,新規,0,2024-12-20,2024-12-20,嘉誠国際株式会社,,株式会社,大阪府,大阪市生野区,新今里５丁目７－６新今里サクセスビル２０４号,,27,116,5440001,,,,,,,2024-12-20,1,,,,,カセイコクサイ,0
1549,6120001271309,新規,0,2024-12-20,2024-12-20,ＡＣＯ株式会社,,株式会社,大阪府,大阪市天王寺区,勝山１丁目７番１１号,,27,109,5430043,,,,,,,2024-12-20,1,,,,,アコ,0
1555,6130003010085,新規,0,2024-12-20,2024-12-20,ＲＡＯ　ＴＲＡＤＩＮＧ合同会社,,合同会社,京都府,京都市中京区,押小路通柳馬場東入虎石町４０番地の２八盛ビル４－Ｂ,,26,104,6040955,,,,,,,2024-12-20,1,,,,,ラオトレーディング,0
1562,6140003021437,新規,0,2024-12-20,2024-12-20,合同会社太陽と虹,,合同会社,兵庫県,三田市,武庫が丘８丁目１１番地１７,,28,219,6691544,,,,,,,2024-12-20,1,,,,,タイヨウトニジ,0
1563,6150001027740,新規,0,2024-12-20,2024-12-20,ＯＶＩＮ　ＩＮＴＥＲＮＡＴＩＯＮＡＬ株式会社,,株式会社,奈良県,磯城郡田原本町,大字法貴寺３８－１,,29,363,6360222,,,,,,,2024-12-20,1,,,,,オビンインターナショナル,0
1564,6150001027757,新規,0,2024-12-20,2024-12-20,ａｄｄ９株式会社,,株式会社,奈良県,大和郡山市,柳３丁目３５番,,29,203,6391134,,,,,,,2024-12-20,1,,,,,アドナイン,0
1575,6180001164647,新規,0,2024-12-20,2024-12-20,ｍａｋｅ　ｉｔ株式会社,,株式会社,愛知県,名古屋市緑区,鳴海町字上汐田六十二丁目２番地メゾン樹海３０６号,,23,114,4580835,,,,,,,2024-12-20,1,,,,,メイクイット,0
1578,6180003027777,新規,0,2024-12-20,2024-12-20,合同会社３８,,合同会社,愛知県,名古屋市昭和区,御器所３丁目１０番５号,,23,107,4660051,,,,,,,2024-12-20,1,,,,,サヤ,0
1585,6180301039359,新規,0,2024-12-20,2024-12-20,株式会社チェンジ,,株式会社,愛知県,豊橋市,豊清町字茶屋ノ下２番地の２７０,,23,201,4413115,,,,,,,2024-12-20,1,,,,,チェンジ,0
1588,6180303006373,新規,0,2024-12-20,2024-12-20,合同会社丸久,,合同会社,愛知県,刈谷市,西境町元宮８５番地１,,23,210,4480006,,,,,,,2024-12-20,1,,,,,マルキュウ,0
1589,6190001031887,新規,0,2024-12-20,2024-12-20,株式会社ウインリバー,,株式会社,三重県,四日市市,市場町１０４１番地４１,,24,202,5121302,,,,,,,2024-12-20,1,,,,,ウインリバー,0
1592,6200001043253,新規,0,2024-12-20,2024-12-20,株式会社桜ｗｏｒｋ,,株式会社,岐阜県,岐阜市,長良３０８９番地５４,,21,201,5020071,,,,,,,2024-12-20,1,,,,,サクラワーク,0
1611,6290001108378,新規,0,2024-12-20,2024-12-20,株式会社Ｒ＆Ｔ,,株式会社,福岡県,福岡市中央区,薬院２丁目２番１７－６０６号,,40,133,8100022,,,,,,,2024-12-20,1,,,,,アールアンドティ,0
1617,6350001019321,新規,0,2024-12-20,2024-12-20,大翔キャピタル株式会社,,株式会社,宮崎県,日南市,大字板敷８１６番地,,45,204,8892532,,,,,,,2024-12-20,1,,,,,タイショウキャピタル,0
1619,6360003014484,新規,0,2024-12-20,2024-12-20,ミラージュ合同会社,,合同会社,沖縄県,那覇市,おもろまち２丁目６－１８Ｄ’グラフォート沖縄タワー９０１号室,,47,201,9000006,,,,,,,2024-12-20,1,,,,,ミラージュ,0
1621,6370001008248,新規,0,2024-12-20,2024-12-20,株式会社サンシャルム,,株式会社,宮城県,仙台市青葉区,中央１丁目１番１号,,04,101,9800021,,,,,,,2024-12-20,1,,,,,サンシャルム,0
1632,6410005006615,新規,0,2024-12-20,2024-12-20,農事組合法人開野,,その他の設立登記法人,秋田県,大仙市,太田町横沢字堀ノ内４５番地１,,05,212,0191601,,,,,,,2024-12-20,1,,,,,ヒラキノ,0
1649,7010001250834,新規,0,2024-12-20,2024-12-20,金子株式会社,,株式会社,東京都,千代田区,神田淡路町１丁目９番地１ニューお茶の水ビル２０２号室,,13,101,1010063,,,,,,,2024-12-20,1,,,,,カネコ,0
1650,7010001250842,新規,0,2024-12-20,2024-12-20,エッジアウト株式会社,,株式会社,東京都,千代田区,神田岩本町１５－１ＣＹＫ神田岩本町Ｂ１Ｆ,,13,101,1010033,,,,,,,2024-12-20,1,,,,,エッジアウト,0
1651,7010001250875,新規,0,2024-12-20,2024-12-20,株式会社宇宙健康美容所,,株式会社,東京都,中央区,銀座６丁目２番－３号Ｄａｉｗａ銀座アネックス２階Ｒｏｏｍ６,,13,102,1040061,,,,,,,2024-12-20,1,,,,,ウチュウケンコウビヨウジョ,0
1652,7010001250909,新規,0,2024-12-20,2024-12-20,株式会社ＲＥＩＳ,,株式会社,東京都,文京区,湯島２丁目２番４号ＪＰ－ＢＡＳＥ御茶ノ水３階,,13,105,1130034,,,,,,,2024-12-20,1,,,,,レイズ,0
1656,7010005039308,新規,0,2024-12-20,2024-12-20,東品川一般社団法人,,その他の設立登記法人,東京都,千代田区,丸の内１丁目４番１号東京共同会計事務所内,,13,101,1000005,,,,,,,2024-12-20,1,,,,,ヒガシシナガワ,0
1657,7010101016458,新規,0,2024-12-20,2024-12-20,株式会社ＶＥＲＳＡＴ,,株式会社,東京都,八王子市,大塚５５番地３アーバンキャッスル多摩センターＩＩ６０１号,00137392,13,201,1920352,,,,,,,2024-12-20,1,,,,,バーサット,0
1664,7010401187073,新規,0,2024-12-20,2024-12-20,株式会社ＫＯＤＯ,,株式会社,東京都,港区,麻布十番１丁目２番７号ラフィネ麻布十番７０１号室,,13,103,1060045,,,,,,,2024-12-20,1,,,,,コウドウ,0
1672,7010601066481,新規,0,2024-12-20,2024-12-20,Ｆｉｎｅｓｔ　Ｅｘｐｏｒｔ株式会社,,株式会社,東京都,墨田区,緑２丁目１８番３号,,13,107,1300021,,,,,,,2024-12-20,1,,,,,ファイネストエクスポート,0
1689,7011001166376,新規,0,2024-12-20,2024-12-20,株式会社ＫＨ,,株式会社,東京都,渋谷区,鶯谷町１５番１０号,,13,113,1500032,,,,,,,2024-12-20,1,,,,,ケイエイチ,0
1690,7011001166459,新規,0,2024-12-20,2024-12-20,株式会社ｋａｎｎａｇａｒａ,,株式会社,東京都,渋谷区,東２丁目１４－２１ツインツリービル,,13,113,1500011,,,,,,,2024-12-20,1,,,,,カンナガラ,0
1691,7011001166491,新規,0,2024-12-20,2024-12-20,Ｉｎｆｒａｓ株式会社,,株式会社,東京都,渋谷区,東１丁目１－３８東常盤松マンション５０１,,13,113,1500011,,,,,,,2024-12-20,1,,,,,インフラス,0
1692,7011001166525,新規,0,2024-12-20,2024-12-20,Ｊ‐ＵＮＩＯＮ貿易株式会社,,株式会社,東京都,渋谷区,広尾２丁目２番５号ＡＳＴＩＬＥ広尾３０５,,13,113,1500012,,,,,,,2024-12-20,1,,,,,ジェーユニオンボウエキ,0
1695,7011003020572,新規,0,2024-12-20,2024-12-20,ミエルカ合同会社,,合同会社,東京都,渋谷区,富ヶ谷２丁目３５番１号,,13,113,1510063,,,,,,,2024-12-20,1,,,,,ミエルカ,0
1696,7011003020606,新規,0,2024-12-20,2024-12-20,合同会社ジセダイ,,合同会社,東京都,渋谷区,道玄坂１丁目１０番８号渋谷道玄坂東急ビル２Ｆ－Ｃ,,13,113,1500043,,,,,,,2024-12-20,1,,,,,ジセダイ,0
1701,7011101109961,新規,0,2024-12-20,2024-12-20,ソウルツリー株式会社,,株式会社,東京都,新宿区,舟町１番地シティタワー四谷,,13,104,1600006,,,,,,,2024-12-20,1,,,,,ソウルツリー,0
1708,7011501031501,新規,0,2024-12-20,2024-12-20,株式会社ＲＥＳＵＲＲＥＣＴＩＯＮ,,株式会社,東京都,北区,豊島８丁目２４番４号,,13,117,1140003,,,,,,,2024-12-20,1,,,,,レザレクション,0
1711,7011601028307,新規,0,2024-12-20,2024-12-20,株式会社ＣＴＦ,,株式会社,東京都,練馬区,南田中２丁目３番４４号,,13,120,1770035,,,,,,,2024-12-20,1,,,,,シーティーエフ,0
1712,7011603004553,新規,0,2024-12-20,2024-12-20,ＭＹＳライフプランニング合同会社,,合同会社,東京都,練馬区,高松６丁目３８番７号,,13,120,1790075,,,,,,,2024-12-20,1,,,,,エムワイエスライフプランニング,0
1713,7011801045341,新規,0,2024-12-20,2024-12-20,株式会社アイエヌエンジニアリング,,株式会社,東京都,足立区,中川５丁目１０番１号,,13,121,1200002,,,,,,,2024-12-20,1,,,,,アイエヌエンジニアリング,0
1724,7013301053543,新規,0,2024-12-20,2024-12-20,株式会社鼓福劇場,,株式会社,東京都,豊島区,南池袋３丁目１５番１０号,,13,116,1710022,,,,,,,2024-12-20,1,,,,,コフクゲキジョウ,0
1730,7020003027478,新規,0,2024-12-20,2024-12-20,合同会社ＬＲＦ,,合同会社,神奈川県,横浜市西区,平沼１丁目４番３ラ・プラージュ横浜４０２号,,14,103,2200023,,,,,,,2024-12-20,1,,,,,エルアールエフ,0
1732,7021001084008,新規,0,2024-12-20,2024-12-20,株式会社鳶瑛弘,,株式会社,神奈川県,横須賀市,野比２丁目２６番５号ＦｕｌｌＨｏｕｓｅ２０３,,14,201,2390841,,,,,,,2024-12-20,1,,,,,トビヒデヒロ,0
1733,7021001084040,新規,0,2024-12-20,2024-12-20,株式会社雅建設,,株式会社,神奈川県,秦野市,西田原２５１番地の１,,14,211,2570027,,,,,,,2024-12-20,1,,,,,ミヤビケンセツ,0
1734,7021001084057,新規,0,2024-12-20,2024-12-20,株式会社エースライド,,株式会社,神奈川県,藤沢市,葛原１３２９番地の１４,,14,205,2520822,,,,,,,2024-12-20,1,,,,,エースライド,0
1742,7030001164009,新規,0,2024-12-20,2024-12-20,株式会社Ａｔｅ　ｔｈａｔ,,株式会社,埼玉県,川口市,大字木曽呂８８８番地の３ジュネスグランデＩ１０３号,00137398,11,203,3330831,,,,,,,2024-12-20,1,,,,,エイトザット,0
1743,7030001164033,新規,0,2024-12-20,2024-12-20,株式会社共生,,株式会社,埼玉県,越谷市,千間台東２丁目１８番地１３,,11,222,3430042,,,,,,,2024-12-20,1,,,,,キョウセイ,0
1745,7030003025729,新規,0,2024-12-20,2024-12-20,合同会社パリンヤーラット１６８,,合同会社,埼玉県,坂戸市,西坂戸５丁目４番５号,,11,239,3500247,,,,,,,2024-12-20,1,,,,,パリンヤーラットイチロクハチ,0
1746,7030003025737,新規,0,2024-12-20,2024-12-20,ルーク・ソリューションズ合同会社,,合同会社,埼玉県,上尾市,柏座１丁目１０番１号キャッスル上尾５０４,,11,219,3620075,,,,,,,2024-12-20,1,,,,,ルークソリューションズ,0
1749,7030005021981,新規,0,2024-12-20,2024-12-20,一般社団法人実夢,,その他の設立登記法人,埼玉県,志木市,中宗岡４丁目１２番８号,,11,228,3530002,,,,,,,2024-12-20,1,,,,,ミユ,0
1753,7040001136650,新規,0,2024-12-20,2024-12-20,株式会社ｆｉｅｌｄ　ｏｆ　ｉｎｆｉｎｉｔｙ,,株式会社,千葉県,長生郡一宮町,東浪見４６２７番地,,12,421,2994303,,,,,,,2024-12-20,1,,,,,フィールドオブインフィニティ,0
1755,7050001055882,新規,0,2024-12-20,2024-12-20,株式会社プライドライフ,,株式会社,茨城県,龍ケ崎市,３２９０番地１久保田ハイツ２号館１０５号室,,08,208,3010000,,,,,,,2024-12-20,1,,,,,プライドライフ,0
1763,7060003005372,新規,0,2024-12-20,2024-12-20,一誠不動産合同会社,,合同会社,栃木県,佐野市,田沼町７７０番地２,,09,204,3270317,,,,,,,2024-12-20,1,,,,,,0
1771,7080101025196,新規,0,2024-12-20,2024-12-20,株式会社ＭＯＮ,,株式会社,静岡県,熱海市,渚町７番１５号,,22,205,4130014,,,,,,,2024-12-20,1,,,,,モン,0
1772,7080105006473,新規,0,2024-12-20,2024-12-20,特定非営利活動法人みんなの学校,,その他の設立登記法人,静岡県,御殿場市,中畑５８９番地の６,,22,215,4120006,,,,,,,2024-12-20,1,,,,,ミンナノガッコウ,0
1776,7100003007918,新規,0,2024-12-20,2024-12-20,Ｉｎ　Ｔｈｅ　Ｎｏｗ合同会社,,合同会社,長野県,長野市,大字上ケ屋２６８２番地１４７,,20,201,3800888,,,,,,,2024-12-20,1,,,,,インザナウ,0
1778,7110001038930,新規,0,2024-12-20,2024-12-20,ＮＡフードサービス株式会社,,株式会社,新潟県,新潟市東区,津島屋６丁目６３番地２,,15,102,9500801,,,,,,,2024-12-20,1,,,,,エヌエイフードサービス,0
1790,7120001270994,新規,0,2024-12-20,2024-12-20,双霖株式会社,,株式会社,大阪府,大阪市北区,南森町１丁目１番１－２１２号,,27,127,5300054,,,,,,,2024-12-20,1,,,,,ソウリン,0
1791,7120001271200,新規,0,2024-12-20,2024-12-20,株式会社ラフトキャピタル,,株式会社,大阪府,大阪市西区,新町１丁目２８番１１号,,27,106,5500013,,,,,,,2024-12-20,1,,,,,ラフトキャピタル,0
1792,7120001271209,新規,0,2024-12-20,2024-12-20,株式会社Ｐａｌｅｓｔａ,,株式会社,大阪府,寝屋川市,河北西町３１番７号,,27,215,5720817,,,,,,,2024-12-20,1,,,,,パレスタ,0
1793,7120001271258,新規,0,2024-12-20,2024-12-20,株式会社ＹＡＮＡＧＩ,,株式会社,大阪府,大阪市淀川区,宮原１丁目４番２３－１００１号,,27,123,5320003,,,,,,,2024-12-20,1,,,,,ヤナギ,0
1794,7120001271282,新規,0,2024-12-20,2024-12-20,株式会社ＡＮＡＳ,,株式会社,大阪府,大阪市住吉区,苅田８丁目１１番２０号太平ビル６０１号,,27,120,5580011,,,,,,,2024-12-20,1,,,,,アナス,0
1797,7120003028037,新規,0,2024-12-20,2024-12-20,合同会社クリーンネクスト,,合同会社,大阪府,大阪市城東区,成育３丁目１６－３－４Ｆ,,27,118,5360007,,,,,,,2024-12-20,1,,,,,クリーンネクスト,0
1798,7120003028202,新規,0,2024-12-20,2024-12-20,ＥＭＬ合同会社,,合同会社,大阪府,交野市,郡津５丁目３４番５号,,27,230,5760053,,,,,,,2024-12-20,1,,,,,イーエムエル,0
1800,7120005024661,新規,0,2024-12-20,2024-12-20,一般社団法人全国土葬墓地開発協会,,その他の設立登記法人,大阪府,大阪市東成区,神路３丁目１７番８号,,27,115,5370003,,,,,,,2024-12-20,1,,,,,ゼンコクドソウボチカイハツキョウカイ,0
1808,7140003021436,新規,0,2024-12-20,2024-12-20,合同会社ｍｙ,,合同会社,兵庫県,加古川市,東神吉町西井ノ口１１９番地の１,,28,210,6750055,,,,,,,2024-12-20,1,,,,,マイ,0
1809,7140005027316,新規,0,2024-12-20,2024-12-20,日鉄電磁労働組合,,その他の設立登記法人,兵庫県,姫路市,飾磨区入船町６－４,,28,201,6728076,,,,,,,2024-12-20,1,,,,,,0
1816,7180001164638,新規,0,2024-12-20,2024-12-20,ＲＳＡ・ＴＲＡＤＩＮＧ株式会社,,株式会社,愛知県,春日井市,割塚町１３１番地中京ビル３Ｆ,00137410,23,206,4860000,,,,,,,2024-12-20,1,,,,,アールエスエイトレイディング,0
1817,7180001164654,新規,0,2024-12-20,2024-12-20,株式会社Ｍ’ｓ　ＧＬＯＢＡＬ,,株式会社,愛知県,名古屋市港区,川間町３丁目７５ウェストン川間２０１,,23,111,4550076,,,,,,,2024-12-20,1,,,,,エムズグローバル,0
1837,7240001064278,新規,0,2024-12-20,2024-12-20,株式会社ゼネラル,,株式会社,広島県,広島市中区,中町７番４１号,,34,101,7300037,,,,,,,2024-12-20,1,,,,,ゼネラル,0
1842,7280003001903,新規,0,2024-12-20,2024-12-20,合同会社Ｍ＆Ｍ,,合同会社,島根県,松江市,竹矢町１３０６番地１,,32,201,6900023,,,,,,,2024-12-20,1,,,,,エムアンドエム,0
1846,7290001108360,新規,0,2024-12-20,2024-12-20,ＥＮＰＬＡＮＡ　ＧＲＯＵＰ株式会社,,株式会社,福岡県,福岡市南区,老司３丁目２６番５９－６号,,40,134,8111346,,,,,,,2024-12-20,1,,,,,エンプラーナグループ,0
1852,7290005019587,新規,0,2024-12-20,2024-12-20,一般社団法人アーツいとしま,,その他の設立登記法人,福岡県,糸島市,二丈松末５４９番地７,,40,230,8191613,,,,,,,2024-12-20,1,,,,,アーツイトシマ,0
1853,7290801031134,新規,0,2024-12-20,2024-12-20,株式会社祐太建設,,株式会社,福岡県,北九州市小倉南区,上石田４丁目７番２０号,,40,107,8020833,,,,,,,2024-12-20,1,,,,,ユウタケンセツ,0
1855,7310001019365,新規,0,2024-12-20,2024-12-20,長崎ヘンプ産業株式会社,,株式会社,長崎県,佐世保市,島瀬３－１１森塚第１５マンション１００３号室,00137401,42,202,8570000,,,,,,,2024-12-20,1,,,,,ナガサキヘンプサンギョウ,0
1857,7330005010855,新規,0,2024-12-20,2024-12-20,一般財団法人エル財団,,その他の設立登記法人,熊本県,熊本市東区,長嶺西３丁目２番９７号,,43,102,8618037,,,,,,,2024-12-20,1,,,,,エルザイダン,0
1865,7360005007147,新規,0,2024-12-20,2024-12-20,一般社団法人伊平屋会,,その他の設立登記法人,沖縄県,中頭郡中城村,字南上原９８２番地,,47,328,9012424,,,,,,,2024-12-20,1,,,,,イヘヤカイ,0
1866,7370001052055,新規,0,2024-12-20,2024-12-20,株式会社一丸水産,,株式会社,宮城県,気仙沼市,唐桑町小長根１４４番地１,,04,205,9880543,,,,,,,2024-12-20,1,,,,,カズマルスイサン,0
1883,7410005006614,新規,0,2024-12-20,2024-12-20,医療法人孝豊会,,その他の設立登記法人,秋田県,秋田市,外旭川字八幡田２１０番地,,05,201,0100802,,,,,,,2024-12-20,1,,,,,コウホウカイ,0
1887,7430001093308,新規,0,2024-12-20,2024-12-20,株式会社三馬,,株式会社,北海道,札幌市南区,真駒内緑町３丁目４番４－５０３号,,01,106,0050013,,,,,,,2024-12-20,1,,,,,サンマ,0
1895,7500003003389,新規,0,2024-12-20,2024-12-20,合同会社ＴＯ　ＲＡＣＩＮＧ,,合同会社,愛媛県,松山市,北梅本町甲１８４番地,,38,201,7910242,,,,,,,2024-12-20,1,,,,,ティーオーレーシング,0
1905,8010001250833,新規,0,2024-12-20,2024-12-20,ＰＯＳＩ＆辻・本郷株式会社,,株式会社,東京都,中央区,八重洲２丁目２番１号東京ミッドタウン八重洲八重洲セントラルタワー３２階,,13,102,1040028,,,,,,,2024-12-20,1,,,,,ピーオーエスアイアンドツジホンゴー,0
1906,8010001250841,新規,0,2024-12-20,2024-12-20,株式会社翔健,,株式会社,東京都,中央区,銀座１丁目１２番４号Ｎ＆ＥＢＬＤ６階,,13,102,1040061,,,,,,,2024-12-20,1,,,,,ショウケン,0
1907,8010001250890,新規,0,2024-12-20,2024-12-20,株式会社鳳凰財託,,株式会社,東京都,千代田区,神田神保町２丁目３４ＰＨＯＥＮＩＸ神保町ビル２０１号室,,13,101,1010051,,,,,,,2024-12-20,1,,,,,ホウオウザイタク,0
1910,8010003045868,新規,0,2024-12-20,2024-12-20,郷三インベストメント合同会社,,合同会社,東京都,千代田区,丸の内１丁目４番１号東京共同会計事務所内,,13,101,1000005,,,,,,,2024-12-20,1,,,,,サトミインベストメント,0
1911,8010005039273,新規,0,2024-12-20,2024-12-20,一般財団法人マンホールカード振興財団,,その他の設立登記法人,東京都,千代田区,内神田２丁目１０番１２号内神田すいすいビル,,13,101,1010047,,,,,,,2024-12-20,1,,,,,マンホールカードシンコウザイダン,0
1912,8010101016457,新規,0,2024-12-20,2024-12-20,株式会社Ｇｌｏｂａｌ　Ｉｎｖｅｓｔｍｅｎｔ,,株式会社,東京都,八王子市,小宮町８０７番地１２東亜建設第５ビル４０３号,,13,201,1920031,,,,,,,2024-12-20,1,,,,,グローバルインベストメント,0
1933,8010601066489,新規,0,2024-12-20,2024-12-20,バイオクロマトグラフィックス株式会社,,株式会社,東京都,墨田区,京島１丁目８番８号１３号室,,13,107,1310046,,,,,,,2024-12-20,1,,,,,バイオクロマトグラフィックス,0
1935,8010603011278,新規,0,2024-12-20,2024-12-20,レインメーカー合同会社,,合同会社,東京都,江東区,森下５丁目８番地４号３階,,13,108,1350004,,,,,,,2024-12-20,1,,,,,レインメーカー,0
1942,8010901056487,新規,0,2024-12-20,2024-12-20,株式会社Ｎｉｃｏ,,株式会社,東京都,世田谷区,玉川台２丁目２１－１５フレップ１０３,,13,112,1580096,,,,,,,2024-12-20,1,,,,,ニコ,0
1945,8010903009583,新規,0,2024-12-20,2024-12-20,ｍｉｗａ合同会社,,合同会社,東京都,世田谷区,尾山台２丁目６―９,,13,112,1580086,,,,,,,2024-12-20,1,,,,,ミワ,0
1949,8011001166367,新規,0,2024-12-20,2024-12-20,ｓｉｅｎ株式会社,,株式会社,東京都,渋谷区,恵比寿西１丁目３０番１６号オアシス代官山４Ｆ,,13,113,1500021,,,,,,,2024-12-20,1,,,,,シエン,0
1950,8011001166409,新規,0,2024-12-20,2024-12-20,株式会社Ｂｒｉｍｏｎ,,株式会社,東京都,渋谷区,恵比寿１丁目１０番７号７階,,13,113,1500013,,,,,,,2024-12-20,1,,,,,ブリモン,0
1951,8011001166425,新規,0,2024-12-20,2024-12-20,株式会社Ｆｏｒｔｕｎｅ,,株式会社,東京都,渋谷区,初台１丁目２番５－２０２号,,13,113,1510061,,,,,,,2024-12-20,1,,,,,フォーチュン,0
1952,8011001166433,新規,0,2024-12-20,2024-12-20,株式会社ＦＯＯＤ　ＲＵＢＡＴＯ,,株式会社,東京都,目黒区,上目黒２丁目１６番９号サンハイツ３０１,,13,110,1530051,,,,,,,2024-12-20,1,,,,,フードルバート,0
1953,8011001166441,新規,0,2024-12-20,2024-12-20,株式会社ＣＬＡＣＫ,,株式会社,東京都,渋谷区,恵比寿４丁目２０番３号恵比寿ガーデンプレイス２７階ＣＯＥＢＩ,,13,113,1500013,,,,,,,2024-12-20,1,,,,,クラック,0
1954,8011001166482,新規,0,2024-12-20,2024-12-20,株式会社Ｌｉｄｄｅｓ,,株式会社,東京都,渋谷区,神南１丁目１１番４号ＦＰＧリンクス神南５階,,13,113,1500041,,,,,,,2024-12-20,1,,,,,リッド,0
1955,8011001166490,新規,0,2024-12-20,2024-12-20,ＲＡＩＳＯＮＮＥ株式会社,,株式会社,東京都,渋谷区,南平台町１７－６Ｆ９３Ｎａｎｐｅｉｄａｉ１Ｆ,,13,113,1500036,,,,,,,2024-12-20,1,,,,,レゾネ,0
1956,8011001166615,新規,0,2024-12-20,2024-12-20,株式会社エコオケの会,,株式会社,東京都,渋谷区,恵比寿西２丁目４番８号ウィンド恵比寿ビル８Ｆ,,13,113,1500021,,,,,,,2024-12-20,1,,,,,エコオケノカイ,0
1957,8011001166672,新規,0,2024-12-20,2024-12-20,株式会社ＳＴＡＲＣＯＲＥ　ＭＵＳＩＣ,,株式会社,東京都,渋谷区,宇田川町二丁目１番渋谷ホームズ６０１号室,,13,113,1500042,,,,,,,2024-12-20,1,,,,,スターコアミュージック,0
1959,8011003020662,新規,0,2024-12-20,2024-12-20,ＦＵＭＩＢＬＵＥ合同会社,,合同会社,東京都,目黒区,青葉台１丁目１６―７朝日橋ビル３Ｆ,,13,110,1530042,,,,,,,2024-12-20,1,,,,,フミブルー,0
1961,8011005010827,新規,0,2024-12-20,2024-12-20,一般社団法人ＣＮ太陽光５号,,その他の設立登記法人,東京都,渋谷区,千駄ヶ谷３丁目１１番８号,,13,113,1510051,,,,,,,2024-12-20,1,,,,,シーエヌタイヨウコウゴゴウ,0
1965,8011101109911,新規,0,2024-12-20,2024-12-20,株式会社とびきり大陽線,,株式会社,東京都,新宿区,早稲田町７０番地６リハイム早稲田１０２,,13,104,1620042,,,,,,,2024-12-20,1,,,,,トビキリダイヨウセン,0
1966,8011101109960,新規,0,2024-12-20,2024-12-20,株式会社Ｂｅｔｔｅｒｆｌｙ,,株式会社,東京都,新宿区,荒木町７番地１４ＡＸＡＳ四谷３丁目７０２,,13,104,1600007,,,,,,,2024-12-20,1,,,,,ベターフライ,0
1974,8011601028306,新規,0,2024-12-20,2024-12-20,株式会社アシスト,,株式会社,東京都,練馬区,西大泉２丁目２番９号,,13,120,1780065,,,,,,,2024-12-20,1,,,,,アシスト,0
1978,8011803006605,新規,0,2024-12-20,2024-12-20,合同会社鬼ごっこ,,合同会社,東京都,足立区,竹の塚１丁目２８番４号ＭＩＹＡＢＩビルＣ,,13,121,1210813,,,,,,,2024-12-20,1,,,,,オニゴッコ,0
1988,8013101009587,新規,0,2024-12-20,2024-12-20,株式会社ウサギンガ,,株式会社,東京都,青梅市,河辺町６丁目２３番地の５パークハイツ１０３,,13,205,1980036,,,,,,,2024-12-20,1,,,,,ウサギンガ,0
1992,8020001160718,新規,0,2024-12-20,2024-12-20,コドライズ株式会社,,株式会社,神奈川県,横浜市西区,北幸１丁目１１番１号水信ビル７階,,14,103,2200004,,,,,,,2024-12-20,1,,,,,コドライズ,0
2001,8021003015364,新規,0,2024-12-20,2024-12-20,合同会社Ｎａｒｖａｌ　Ｐａｒｔｎｅｒｓ,,合同会社,神奈川県,鎌倉市,大町４丁目１４―３１,,14,204,2480007,,,,,,,2024-12-20,1,,,,,ナーヴァルパートナーズ,0
2002,8021003015380,新規,0,2024-12-20,2024-12-20,合同会社ＧＲＡＮＤＩＲ,,合同会社,神奈川県,相模原市中央区,青葉３丁目１５－２,,14,152,2520224,,,,,,,2024-12-20,1,,,,,グランディール,0
2009,8030001164008,新規,0,2024-12-20,2024-12-20,株式会社みやびハウジング,,株式会社,埼玉県,川越市,的場１丁目２４番地２４,,11,201,3501101,,,,,,,2024-12-20,1,,,,,ミヤビハウジング,0
2010,8030001164040,新規,0,2024-12-20,2024-12-20,ｈｅａｌｔｈ　ｙｏｕｔｈ　ｊｏｙ株式会社,,株式会社,埼玉県,南埼玉郡宮代町,川端２丁目８番２７－１０１号,,11,442,3450804,,,,,,,2024-12-20,1,,,,,ヘルスユースジョイ,0
2014,8030003025728,新規,0,2024-12-20,2024-12-20,合同会社電源企画,,合同会社,埼玉県,川口市,元郷２丁目１５番２号２００５,,11,203,3320011,,,,,,,2024-12-20,1,,,,,デンゲンキカク,0
2030,8040001136609,新規,0,2024-12-20,2024-12-20,ＺｅｒｏＯｎｅ株式会社,,株式会社,千葉県,千葉市緑区,おゆみ野南１丁目２８番地１４,,12,105,2660033,,,,,,,2024-12-20,1,,,,,ゼロワン,0
2046,8080003003357,新規,0,2024-12-20,2024-12-20,合同会社ボンフレール,,合同会社,静岡県,静岡市清水区,押切１９６２番地ボヌール３０５,,22,103,4240008,,,,,,,2024-12-20,1,,,,,ボンフレール,0
2047,8080105006472,新規,0,2024-12-20,2024-12-20,一般社団法人みらいず,,その他の設立登記法人,静岡県,伊東市,宇佐美２７８９番地の１,,22,208,4140001,,,,,,,2024-12-20,1,,,,,ミライズ,0
2049,8080401027635,新規,0,2024-12-20,2024-12-20,ＡＫＳアセットマネジメント株式会社,,株式会社,静岡県,浜松市中央区,田町２２８番地の５,,22,138,4300944,,,,,,,2024-12-20,1,,,,,エーケーエスアセットマネジメント,0
2052,8100001038113,新規,0,2024-12-20,2024-12-20,株式会社Ｐａｃｋ　Ｖａｃａｔｉｏｎ,,株式会社,長野県,安曇野市,穂高有明７４０３－３０,,20,220,3998301,,,,,,,2024-12-20,1,,,,,パックバケーション,0
2063,8120001271232,新規,0,2024-12-20,2024-12-20,株式会社ＴＮＣ‐Ｍ,,株式会社,大阪府,大阪市北区,中崎西１丁目８番２４号アインズビル梅田９０１,,27,127,5300015,,,,,,,2024-12-20,1,,,,,ティーエヌシーエム,0
2064,8120001271249,新規,0,2024-12-20,2024-12-20,株式会社シュヴァル,,株式会社,大阪府,大阪市北区,大深町３番４０－７０９号,,27,127,5300011,,,,,,,2024-12-20,1,,,,,シュヴァル,0
2065,8120001271273,新規,0,2024-12-20,2024-12-20,興茂株式会社,,株式会社,大阪府,大阪市中央区,玉造１丁目２１－２２－３０２号室,,27,128,5400004,,,,,,,2024-12-20,1,,,,,コウモ,0
2066,8120001271281,新規,0,2024-12-20,2024-12-20,東大将株式会社,,株式会社,大阪府,大阪市生野区,中川３丁目４番１７号２０７室,,27,116,5440005,,,,,,,2024-12-20,1,,,,,トウダイショウ,0
2068,8120003028201,新規,0,2024-12-20,2024-12-20,合同会社ワンキューズ,,合同会社,大阪府,大阪市中央区,平野町３丁目１番８－８０２号,,27,128,5410046,,,,,,,2024-12-20,1,,,,,ワンキューズ,0
2082,8130001078602,新規,0,2024-12-20,2024-12-20,株式会社ＭＩＲＡＩコンサルタント,,株式会社,京都府,京都市右京区,梅津罧原町３番地の３グレース嵐山４０７号,,26,108,6150926,,,,,,,2024-12-20,1,,,,,ミライコンサルタント,0
2083,8130001078619,新規,0,2024-12-20,2024-12-20,株式会社配列ＰＯＩＮＴ,,株式会社,京都府,京丹後市,峰山町丹波１１０番地の２５,,26,212,6270011,,,,,,,2024-12-20,1,,,,,ハイレツポイント,0
2084,8130001078627,新規,0,2024-12-20,2024-12-20,アムニスコア株式会社,,株式会社,京都府,京都市南区,東九条南松ノ木町１－１松ノ木町団地３号棟９０１号室,,26,107,6018023,,,,,,,2024-12-20,1,,,,,アムニスコア,0
2085,8130001078635,新規,0,2024-12-20,2024-12-20,株式会社Ｃｏｌｏｒｆｕｌ　Ｌａｕｇｈ,,株式会社,京都府,京都市下京区,七条通油小路東入大黒町２２７番地第２キョートビル４０２,,26,106,6008223,,,,,,,2024-12-20,1,,,,,カラフルラフ,0
2089,8140005027315,新規,0,2024-12-20,2024-12-20,医療法人社団栄桜会,,その他の設立登記法人,兵庫県,西宮市,中前田町１番１７号,,28,204,6620857,,,,,,,2024-12-20,1,,,,,エイオウカイ,0
2091,8150005009650,新規,0,2024-12-20,2024-12-20,医療法人成仁会,,その他の設立登記法人,奈良県,奈良市,富雄北１丁目２番２３号,,29,201,6310076,,,,,,,2024-12-20,1,,,,,セイジンカイ,0
2101,8180001164612,新規,0,2024-12-20,2024-12-20,株式会社ＵＧ,,株式会社,愛知県,名古屋市中村区,名駅４丁目２４番５号第２森ビル４０１,,23,105,4500002,,,,,,,2024-12-20,1,,,,,ユージー,0
2102,8180001164637,新規,0,2024-12-20,2024-12-20,株式会社ＥＳＳＡ　ＪＥＥ　ＣＯＲＰＯＲＡＴＩＯＮ,,株式会社,愛知県,名古屋市中区,錦１丁目１７番１３号,,23,106,4600003,,,,,,,2024-12-20,1,,,,,エッサジーコーポレーション,0
2122,8240001064285,新規,0,2024-12-20,2024-12-20,株式会社Ｅｌｅａｒｔ,,株式会社,広島県,広島市安佐南区,長楽寺１丁目３番２１－５－４号,,34,105,7310143,,,,,,,2024-12-20,1,,,,,エレアート,0
2124,8260003005013,新規,0,2024-12-20,2024-12-20,合同会社ｐｌａｎｅｔ,,合同会社,岡山県,岡山市中区,四御神６９番地３,,33,102,7038201,,,,,,,2024-12-20,1,,,,,プラネット,0
2129,8290001021546,新規,0,2024-12-20,2024-12-20,筑紫丘道路開発株式会社,,株式会社,福岡県,福岡市南区,筑紫丘１丁目１７番２０号,,40,134,8150036,,,,,,,2024-12-20,1,,,,,チクシガオカドウロカイハツ,0
2142,8290003016172,新規,0,2024-12-20,2024-12-20,合同会社船中八策,,合同会社,福岡県,大野城市,白木原１丁目９番４３－７０２号,,40,219,8160943,,,,,,,2024-12-20,1,,,,,センチュウハッサク,0
2143,8290003016197,新規,0,2024-12-20,2024-12-20,合同会社ＤＷＪ,,合同会社,福岡県,福岡市東区,多の津４丁目７－２３メイゾン多々良４０４号室,,40,131,8130034,,,,,,,2024-12-20,1,,,,,ディーダブルジェー,0
2144,8290005019586,新規,0,2024-12-20,2024-12-20,一般社団法人つくし柳川歴史文化協会,,その他の設立登記法人,福岡県,柳川市,本城町１１３番地１,,40,207,8320061,,,,,,,2024-12-20,1,,,,,ツクシヤナガワレキシブンカキョウカイ,0
2149,8290801031133,新規,0,2024-12-20,2024-12-20,株式会社幸福商会,,株式会社,福岡県,北九州市戸畑区,一枝４丁目１２番２６号,,40,105,8040021,,,,,,,2024-12-20,1,,,,,コウフクショウカイ,0
2158,8330003010690,新規,0,2024-12-20,2024-12-20,合同会社ＫＴＳ,,合同会社,熊本県,熊本市南区,城南町舞原１８０番地５,,43,104,8614214,,,,,,,2024-12-20,1,,,,,ケイティーエス,0
2161,8360005007146,新規,0,2024-12-20,2024-12-20,一般社団法人ファーストサークル,,その他の設立登記法人,沖縄県,国頭郡恩納村,字仲泊９４３番地１グランブルーＯＮＮＡＩＩ７０２号,00137408,47,311,9040415,,,,,,,2024-12-20,1,,,,,ファーストサークル,0
2175,8430001093307,新規,0,2024-12-20,2024-12-20,株式会社ナナレイ,,株式会社,北海道,札幌市厚別区,もみじ台東７丁目１１番１５号,,01,108,0040011,,,,,,,2024-12-20,1,,,,,ナナレイ,0
2176,8430001093315,新規,0,2024-12-20,2024-12-20,株式会社Ｃｏｎｎｅｃｔ,,株式会社,北海道,札幌市西区,西野十条８丁目１２番１３号,,01,107,0630040,,,,,,,2024-12-20,1,,,,,コネクト,0
2200,9010001250816,新規,0,2024-12-20,2024-12-20,株式会社美味慶,,株式会社,東京都,中央区,銀座７丁目２番８号高谷銀座ビル５階,,13,102,1040061,,,,,,,2024-12-20,1,,,,,ビミヨシ,0
2201,9010001250857,新規,0,2024-12-20,2024-12-20,株式会社マーヴェリック,,株式会社,東京都,中央区,日本橋１丁目４番１号日本橋一丁目ビルディング,,13,102,1030027,,,,,,,2024-12-20,1,,,,,マーヴェリック,0
2216,9010401186973,新規,0,2024-12-20,2024-12-20,株式会社フィットフォワード,,株式会社,東京都,港区,南麻布５丁目１番８号山田ビル２階,,13,103,1060047,,,,,,,2024-12-20,1,,,,,,0
2220,9010403033942,新規,0,2024-12-20,2024-12-20,合同会社ＫＫ　Ｌｉｎｋ,,合同会社,東京都,港区,北青山１丁目３－１アールキューブ青山３Ｆ,,13,103,1070061,,,,,,,2024-12-20,1,,,,,ケーケーリンク,0
2225,9010601066496,新規,0,2024-12-20,2024-12-20,プランビーコレクティブ株式会社,,株式会社,東京都,江東区,白河２丁目３番２号,,13,108,1350021,,,,,,,2024-12-20,1,,,,,プランビーコレクティブ,0
2228,9010701046927,新規,0,2024-12-20,2024-12-20,株式会社ＰＵＬＳＥ,,株式会社,東京都,品川区,南大井３丁目３１番１９号,,13,109,1400013,,,,,,,2024-12-20,1,,,,,パルス,0
2229,9010801035689,新規,0,2024-12-20,2024-12-20,株式会社ＡＬＴＥＲＮＡＭＥ,,株式会社,東京都,大田区,北千束２丁目３６番１３号ＯａｋＶｉｌｌａｇｅ２０２,,13,111,1450062,,,,,,,2024-12-20,1,,,,,オルターネーム,0
2244,9011001166408,新規,0,2024-12-20,2024-12-20,株式会社ＴＡＭＵＲＯ,,株式会社,東京都,目黒区,目黒本町２丁目７番４号太陽ビル１階,,13,110,1520002,,,,,,,2024-12-20,1,,,,,タムロ,0
2245,9011001166416,新規,0,2024-12-20,2024-12-20,株式会社Ｗ　ＩＭＰＡＣＴ,,株式会社,東京都,渋谷区,神宮前４丁目２６番２８号,,13,113,1500001,,,,,,,2024-12-20,1,,,,,ダブルインパクト,0
2246,9011001166424,新規,0,2024-12-20,2024-12-20,株式会社ＨｏＪｏＴｉｃｓ,,株式会社,東京都,目黒区,大岡山１丁目２３番１０号,,13,110,1520033,,,,,,,2024-12-20,1,,,,,ホジョティクス,0
2247,9011001166465,新規,0,2024-12-20,2024-12-20,未来煙株式会社,,株式会社,東京都,渋谷区,恵比寿西２丁目４番８号ウィンド恵比寿ビル８Ｆ,,13,113,1500021,,,,,,,2024-12-20,1,,,,,ミライケムリ,0
2248,9011001166531,新規,0,2024-12-20,2024-12-20,株式会社４８６１,,株式会社,東京都,渋谷区,東１丁目２９番３号渋谷ブリッジＢ棟,,13,113,1500011,,,,,,,2024-12-20,1,,,,,ヤギ,0
2249,9011001166639,新規,0,2024-12-20,2024-12-20,株式会社ｆｒｏｋ,,株式会社,東京都,渋谷区,道玄坂１丁目１０番８号渋谷道玄坂東急ビル２Ｆ－Ｃ,,13,113,1500043,,,,,,,2024-12-20,1,,,,,フロック,0
2252,9011003020570,新規,0,2024-12-20,2024-12-20,合同会社アデリービレッジ,,合同会社,東京都,目黒区,碑文谷２丁目７番１０－１０４号,,13,110,1520003,,,,,,,2024-12-20,1,,,,,アデリービレッジ,0
2253,9011003020595,新規,0,2024-12-20,2024-12-20,Ｆｉｘ合同会社,,合同会社,東京都,渋谷区,円山町５番５号Ｎａｖｉ渋谷Ｖ３階,,13,113,1500044,,,,,,,2024-12-20,1,,,,,フィックス,0
2254,9011003020604,新規,0,2024-12-20,2024-12-20,合同会社ｗｏｒｍ　ｄｅｓｉｇｎ,,合同会社,東京都,目黒区,中目黒３丁目１３－２２グランドメゾン中目黒ＴＨＥＣＬＡＳＳ４０７,,13,110,1530061,,,,,,,2024-12-20,1,,,,,ワームデザイン,0
2257,9011101109951,新規,0,2024-12-20,2024-12-20,株式会社Ｃｏａｃｈ　Ｍｅ,,株式会社,東京都,新宿区,新宿１丁目３６番２号３Ｆ,,13,104,1600022,,,,,,,2024-12-20,1,,,,,コーチミー,0
2259,9011301030239,新規,0,2024-12-20,2024-12-20,株式会社ヤマ,,株式会社,東京都,杉並区,高井戸西１丁目２３番２号,,13,115,1680071,,,,,,,2024-12-20,1,,,,,ヤマ,0
2261,9011503006342,新規,0,2024-12-20,2024-12-20,合同会社ブランディングジャパン９,,合同会社,東京都,北区,赤羽西１丁目３番１０号,,13,117,1150055,,,,,,,2024-12-20,1,,,,,ブランディングジャパンナイン,0
2266,9011803006595,新規,0,2024-12-20,2024-12-20,景晨合同会社,,合同会社,東京都,足立区,保木間５丁目２４番２７号３０１,,13,121,1210064,,,,,,,2024-12-20,1,,,,,ケイシン,0
2275,9013301053525,新規,0,2024-12-20,2024-12-20,株式会社ティーワイ,,株式会社,東京都,豊島区,池袋２丁目１２番１３号十二ビル６０２,,13,116,1710014,,,,,,,2024-12-20,1,,,,,ティーワイ,0
2280,9020001160618,新規,0,2024-12-20,2024-12-20,株式会社ＫＡＮＯＮ,,株式会社,神奈川県,川崎市中原区,木月住吉町９－８－１０１,,14,133,2110021,,,,,,,2024-12-20,1,,,,,カノン,0
2281,9020001160683,新規,0,2024-12-20,2024-12-20,株式会社青正工業,,株式会社,神奈川県,川崎市川崎区,下並木３４番地,,14,131,2100025,,,,,,,2024-12-20,1,,,,,セイショウコウギョウ,0
2283,9020003027468,新規,0,2024-12-20,2024-12-20,合同会社ＢＲＥＷ　ＤＥＳＩＧＮ,,合同会社,神奈川県,横浜市神奈川区,金港町５－１４クアドリフォリオ８階,,14,102,2210056,,,,,,,2024-12-20,1,,,,,ブリューデザイン,0
2287,9021003015363,新規,0,2024-12-20,2024-12-20,ＴＥＡＭＣＡＲＥ合同会社,,合同会社,神奈川県,逗子市,小坪１丁目１３番８号,,14,208,2490008,,,,,,,2024-12-20,1,,,,,チームケア,0
2288,9021003015371,新規,0,2024-12-20,2024-12-20,合同会社レジャー,,合同会社,神奈川県,大和市,中央２丁目４番１８号大和駅前テナント地下１階,,14,213,2420021,,,,,,,2024-12-20,1,,,,,レジャー,0
2293,9030001164007,新規,0,2024-12-20,2024-12-20,株式会社丸福,,株式会社,埼玉県,さいたま市緑区,大字中尾２４０７番地２９,,11,109,3360932,,,,,,,2024-12-20,1,,,,,マルフク,0
2294,9030001164031,新規,0,2024-12-20,2024-12-20,ＡＲＹモーター株式会社,,株式会社,埼玉県,所沢市,和ケ原３丁目２７８番地の４,,11,208,3591162,,,,,,,2024-12-20,1,,,,,エーアールワイモーター,0
2300,9030003025727,新規,0,2024-12-20,2024-12-20,合同会社ファイナンス工学研究所,,合同会社,埼玉県,坂戸市,にっさい花みず木５丁目２５－６,,11,239,3500269,,,,,,,2024-12-20,1,,,,,ファイナンスコウガクケンキュウショ,0
2305,9040001136640,新規,0,2024-12-20,2024-12-20,株式会社ブリッジエッジ,,株式会社,千葉県,成田市,飯仲３３６番地４グリーンヒルズ１０３,,12,211,2860046,,,,,,,2024-12-20,1,,,,,ブリッジエッジ,0
2311,9050001055897,新規,0,2024-12-20,2024-12-20,株式会社ａｉｚｕ,,株式会社,茨城県,筑西市,竹垣７３０番地,,08,227,3004543,,,,,,,2024-12-20,1,,,,,アイズ,0
2315,9060005010278,新規,0,2024-12-20,2024-12-20,一般社団法人いきいきライフ協会ベルモール,,その他の設立登記法人,栃木県,宇都宮市,駒生町１４１７番地１７,,09,201,3200065,,,,,,,2024-12-20,1,,,,,イキイキライフキョウカイベルモール,0
2317,9080001026672,新規,0,2024-12-20,2024-12-20,ソノファイ株式会社,,株式会社,静岡県,焼津市,坂本３５５番地,,22,212,4250004,,,,,,,2024-12-20,1,,,,,ソノファイ,0
2341,9120001271272,新規,0,2024-12-20,2024-12-20,株式会社プラベルーム,,株式会社,大阪府,大阪市東成区,大今里南５丁目１９番地２３,,27,115,5370013,,,,,,,2024-12-20,1,,,,,プラベルーム,0
2342,9120001271289,新規,0,2024-12-20,2024-12-20,和韵株式会社,,株式会社,大阪府,大阪市西成区,萩之茶屋１丁目１２－７万葉ビル１１１号室,,27,122,5570004,,,,,,,2024-12-20,1,,,,,ワイン,0
2343,9120001271297,新規,0,2024-12-20,2024-12-20,嘉騰国際株式会社,,株式会社,大阪府,大阪市中央区,瓦町１丁目３番２号ヒガシビル３１０号室,,27,128,5410048,,,,,,,2024-12-20,1,,,,,カトウコクサイ,0
2344,9120001271314,新規,0,2024-12-20,2024-12-20,株式会社ＴＥＥ商会,,株式会社,大阪府,大阪市城東区,鴫野西５丁目１３番３０号,,27,118,5360014,,,,,,,2024-12-20,1,,,,,ティーショウカイ,0
2345,9120001271322,新規,0,2024-12-20,2024-12-20,株式会社ろーたす,,株式会社,大阪府,大阪市住吉区,苅田８丁目３番１２号,,27,120,5580011,,,,,,,2024-12-20,1,,,,,ロータス,0
2346,9120001271363,新規,0,2024-12-20,2024-12-20,ＭＥＤ株式会社,,株式会社,大阪府,大阪市住吉区,東粉浜２丁目８番８号,,27,120,5580051,,,,,,,2024-12-20,1,,,,,メド,0
2348,9120003028118,新規,0,2024-12-20,2024-12-20,合同会社ＯＤＫ,,合同会社,大阪府,大阪市西区,新町１丁目２１番８－２７０６号,,27,106,5500013,,,,,,,2024-12-20,1,,,,,オーディーケー,0
2349,9120003028217,新規,0,2024-12-20,2024-12-20,合同会社東武商事,,合同会社,大阪府,大阪市生野区,勝山北５丁目１１番３号ハイツ勝山１０１号室,,27,116,5440033,,,,,,,2024-12-20,1,,,,,トウブショウジ,0
2352,9120901000631,新規,0,2024-12-20,2024-12-20,株式会社木下工務店,,株式会社,大阪府,茨木市,園田町８番１８号,,27,211,5670825,,,,,,,2024-12-20,1,,,,,キノシタコウムテン,0
2376,9140001136746,新規,0,2024-12-20,2024-12-20,ＭＴ株式会社,,株式会社,兵庫県,尼崎市,金楽寺町２丁目３４－２,,28,202,6600806,,,,,,,2024-12-20,1,,,,,エムティー,0
2377,9140001136754,新規,0,2024-12-20,2024-12-20,株式会社久保田算盤店,,株式会社,兵庫県,小野市,丸山町４番地の１０,,28,218,6751376,,,,,,,2024-12-20,1,,,,,,0
2378,9140001136770,新規,0,2024-12-20,2024-12-20,株式会社ＴＩＧＲＥ４６,,株式会社,兵庫県,神戸市中央区,中山手通６丁目７番１７－３０３号,,28,110,6500004,,,,,,,2024-12-20,1,,,,,ティグレヨンジュウロク,0
2379,9140001136787,新規,0,2024-12-20,2024-12-20,株式会社種の声,,株式会社,兵庫県,たつの市,揖西町小神１００２番地１,,28,229,6794003,,,,,,,2024-12-20,1,,,,,タネノコエ,0
2381,9140003021426,新規,0,2024-12-20,2024-12-20,華夢観光バス合同会社,,合同会社,兵庫県,たつの市,揖西町南山１０４３番地１,,28,229,6794016,,,,,,,2024-12-20,1,,,,,ハナユメカンコウバス,0
2382,9150001027754,新規,0,2024-12-20,2024-12-20,株式会社正正光２,,株式会社,奈良県,御所市,大字戸毛１００８番地,,29,208,6392251,,,,,,,2024-12-20,1,,,,,ショウセイコウニ,0
2383,9150001027762,新規,0,2024-12-20,2024-12-20,株式会社おかげ,,株式会社,奈良県,奈良市,中山町西４丁目５３５－４９７,,29,201,6310013,,,,,,,2024-12-20,1,,,,,オカゲ,0
2387,9180001092069,新規,0,2024-12-20,2024-12-20,株式会社ミタカ土地,,株式会社,愛知県,常滑市,字社辺１８番地の８,,23,216,4790042,,,,,,,2024-12-20,1,,,,,ミタカトチ,0
2393,9180001164669,新規,0,2024-12-20,2024-12-20,ハヤシシール株式会社,,株式会社,愛知県,あま市,富塚地蔵堂８４番地,,23,237,4901202,,,,,,,2024-12-20,1,,,,,ハヤシシール,0
2398,9180005020868,新規,0,2024-12-20,2024-12-20,アイアス税理士法人,,その他の設立登記法人,愛知県,名古屋市中区,錦３丁目２番３０号,,23,106,4600003,,,,,,,2024-12-20,1,,,,,アイアス,0
2400,9180301039348,新規,0,2024-12-20,2024-12-20,株式会社Ｋ．Ｓ．Ｅ,,株式会社,愛知県,豊田市,西中山町才ケ洞１０番地５４,,23,211,4700431,,,,,,,2024-12-20,1,,,,,ケーエスイー,0
2409,9200001043250,新規,0,2024-12-20,2024-12-20,ショーワ興産株式会社,,株式会社,岐阜県,岐阜市,早田東町２丁目１番地,,21,201,5020843,,,,,,,2024-12-20,1,,,,,ショーワコウサン,0
2417,9230003002350,新規,0,2024-12-20,2024-12-20,ＢｒｉＱ合同会社,,合同会社,富山県,富山市,総曲輪４丁目７番９‐５０１号レーベン富山総曲輪レジデンス,,16,201,9300083,,,,,,,2024-12-20,1,,,,,ブリキュー,0
2419,9240001064251,新規,0,2024-12-20,2024-12-20,株式会社コンパネロ,,株式会社,広島県,尾道市,西藤町９５０番地８,,34,205,7290142,,,,,,,2024-12-20,1,,,,,コンパネロ,0
2420,9240001064276,新規,0,2024-12-20,2024-12-20,株式会社ＭＩＲＡＩ　ＡＧＥＮＣＹ,,株式会社,広島県,広島市安芸区,船越４丁目５番８号,,34,107,7360081,,,,,,,2024-12-20,1,,,,,ミライエージェンシー,0
2432,9290001108367,新規,0,2024-12-20,2024-12-20,株式会社Ａｄｊｕｓｔ,,株式会社,福岡県,久留米市,東町５１２－６－３０４,,40,203,8300032,,,,,,,2024-12-20,1,,,,,アジャスト,0
2433,9290001108383,新規,0,2024-12-20,2024-12-20,ＳＨＩＮＫＥＩ株式会社,,株式会社,福岡県,福岡市中央区,薬院２丁目３番３－４０２号,,40,133,8100022,,,,,,,2024-12-20,1,,,,,シンケイ,0
2448,9350001019327,新規,0,2024-12-20,2024-12-20,株式会社ビジョンガルーダ,,株式会社,宮崎県,宮崎市,高千穂通２丁目４番３号ＳＥＩマンション高千穂４０２号,,45,201,8800812,,,,,,,2024-12-20,1,,,,,ビジョンガルーダ,0
2449,9350003004806,新規,0,2024-12-20,2024-12-20,合同会社ＭＩＲＡＥＮＥ,,合同会社,宮崎県,宮崎市,吉村町寺ノ前甲２８８２番地４６,,45,201,8800841,,,,,,,2024-12-20,1,,,,,ミラエネ,0
2450,9360001034564,新規,0,2024-12-20,2024-12-20,ＳｋｙＭｅｔｒｉｃｓ株式会社,,株式会社,沖縄県,中頭郡中城村,字南上原１０４０－１４サン・ステージ２０３号室,,47,328,9012424,,,,,,,2024-12-20,1,,,,,スカイメトリックス,0
2461,9430001093306,新規,0,2024-12-20,2024-12-20,株式会社シエルノルド,,株式会社,北海道,札幌市豊平区,豊平二条１丁目１番１８－９０５号,,01,105,0620902,,,,,,,2024-12-20,1,,,,,シエルノルド,0
2462,9430003017097,新規,0,2024-12-20,2024-12-20,合同会社優技社,,合同会社,北海道,札幌市中央区,大通西１８丁目１番地３６インフィニート大通,,01,101,0600042,,,,,,,2024-12-20,1,,,,,ユウギシャ,0
