sequenceNumber,corporateNumber,process,correct,updateDate,changeDate,name,nameImageId,kind,prefectureName,cityName,streetNumber,addressImageId,prefectureCode,cityCode,postCode,addressOutside,addressOutsideImageId,closeDate,closeCause,successorCorporateNumber,changeCause,assignmentDate,latest,enName,enPrefectureName,enCityName,enAddressOutside,furigana,hihyoji
11,1010001230107,新規,0,2022-10-17,2022-10-17,株式会社Ｌｓ．,,株式会社,東京都,中央区,銀座１丁目２２番１１号銀座大竹ビジデンス２階,,13,102,1040061,,,,,,,2022-10-17,1,,,,,エルス,0
12,1010001230164,新規,0,2022-10-17,2022-10-17,株式会社ＫＩＴＡＩ　ｒｅｓｏｒｔ,,株式会社,東京都,千代田区,丸の内１丁目１１番１号,,13,101,1000005,,,,,,,2022-10-17,1,,,,,キタイリゾート,0
13,1010001230230,新規,0,2022-10-17,2022-10-17,Ｓｐａｃｅ　ＤＣ　Ｊａｐａｎ株式会社,,株式会社,東京都,中央区,銀座３丁目４番１号大倉別館５階,,13,102,1040061,,,,,,,2022-10-17,1,,,,,スペースディーシージャパン,0
26,1010401170290,新規,0,2022-10-17,2022-10-17,株式会社ＯＶＥＲＪＯＹＥＤ,,株式会社,東京都,港区,新橋４丁目３１番６号,,13,103,1050004,,,,,,,2022-10-17,1,,,,,オーバージョイド,0
27,1010403028710,新規,0,2022-10-17,2022-10-17,合同会社ＢＡＬＥＩＡ,,合同会社,東京都,港区,南青山２丁目２番１５号,,13,103,1070062,,,,,,,2022-10-17,1,,,,,バレイア,0
30,1010501049501,新規,0,2022-10-17,2022-10-17,辰禹株式会社,,株式会社,東京都,台東区,北上野２丁目２５番９号－３０２号室,,13,106,1100014,,,,,,,2022-10-17,1,,,,,シンウ,0
32,1010503006756,新規,0,2022-10-17,2022-10-17,合同会社ＳＫ,,合同会社,東京都,台東区,上野５丁目１３番１号ハピネス御徒町５０１,,13,106,1100005,,,,,,,2022-10-17,1,,,,,エスケー,0
35,1010601061991,新規,0,2022-10-17,2022-10-17,株式会社らいぱち,,株式会社,東京都,江東区,北砂２丁目１８番２－１３０号,,13,108,1360073,,,,,,,2022-10-17,1,,,,,ライパチ,0
40,1010901051783,新規,0,2022-10-17,2022-10-17,株式会社ライクイット,,株式会社,東京都,世田谷区,等々力６丁目３番１６号,,13,112,1580082,,,,,,,2022-10-17,1,,,,,ライクイット,0
41,1010901051791,新規,0,2022-10-17,2022-10-17,株式会社Ａｃｈｅ　ｆｏｒ,,株式会社,東京都,世田谷区,上野毛３丁目２０－６上野毛の杜Ｌ,,13,112,1580093,,,,,,,2022-10-17,1,,,,,エイクフォー,0
42,1010903007701,新規,0,2022-10-17,2022-10-17,合同会社橋本事務所,,合同会社,東京都,世田谷区,三軒茶屋１丁目３４番１１―３０３号,,13,112,1540024,,,,,,,2022-10-17,1,,,,,ハシモトジムショ,0
43,1010903007718,新規,0,2022-10-17,2022-10-17,合同会社ＤＤ,,合同会社,東京都,世田谷区,池尻１丁目６番２号,,13,112,1540001,,,,,,,2022-10-17,1,,,,,ディーディー,0
50,1011003015545,新規,0,2022-10-17,2022-10-17,合同会社０６Ｓｏｕｎｄ　Ｃｒｅａｔｅ,,合同会社,東京都,渋谷区,神宮前６丁目２３番４号,,13,113,1500001,,,,,,,2022-10-17,1,,,,,ゼロロクサウンドクリエイト,0
52,1011005009776,新規,0,2022-10-17,2022-10-17,特定非営利活動法人未来の樹,,その他の設立登記法人,東京都,渋谷区,代々木１丁目３６番４号全理連ビル２階,,13,113,1510053,,,,,,,2022-10-17,1,,,,,ミライノキ,0
53,1011101100513,新規,0,2022-10-17,2022-10-17,蒼外雲株式会社,,株式会社,東京都,新宿区,愛住町１９番地１６富士ビル２階,,13,104,1600005,,,,,,,2022-10-17,1,,,,,ソウガイウン,0
56,1011201024158,新規,0,2022-10-17,2022-10-17,株式会社ｇｏＥＮ,,株式会社,東京都,中野区,弥生町３丁目２４番１９号,,13,114,1640013,,,,,,,2022-10-17,1,,,,,ゴエン,0
57,1011301028158,新規,0,2022-10-17,2022-10-17,沃尓森株式会社,00128159,株式会社,東京都,杉並区,梅里２丁目２５番１５号高円寺プラザ２１２号,,13,115,1660011,,,,,,,2022-10-17,1,,,,,ヨクジシン,0
59,1011303004545,新規,0,2022-10-17,2022-10-17,合同会社ＲＥＶＥＲＳＡＬ,,合同会社,東京都,杉並区,井草３丁目２２番１号ロイジェント井荻Ａ３０５,,13,115,1670021,,,,,,,2022-10-17,1,,,,,リバーサル,0
62,1011403003793,新規,0,2022-10-17,2022-10-17,Ｔ＆Ｈ合同会社,,合同会社,東京都,板橋区,小豆沢３丁目１０番１２号ＴＰビル３０２,,13,119,1740051,,,,,,,2022-10-17,1,,,,,ティアンドエイチ,0
63,1011501028560,新規,0,2022-10-17,2022-10-17,株式会社ブリックツリー,,株式会社,東京都,北区,堀船３丁目２７番１７号,,13,117,1140004,,,,,,,2022-10-17,1,,,,,ブリックツリー,0
64,1011603003718,新規,0,2022-10-17,2022-10-17,アイシ合同会社,,合同会社,東京都,練馬区,旭丘１丁目７３番９号ロイビル江古田２０２号,,13,120,1760005,,,,,,,2022-10-17,1,,,,,アイシ,0
71,1011801041404,新規,0,2022-10-17,2022-10-17,みかづき不動産株式会社,,株式会社,東京都,葛飾区,東新小岩８丁目２９番１１号,,13,122,1240023,,,,,,,2022-10-17,1,,,,,ミカヅキフドウサン,0
85,1021001077198,新規,0,2022-10-17,2022-10-17,株式会社創耀,,株式会社,神奈川県,相模原市南区,磯部４１１番地１１,,14,153,2520327,,,,,,,2022-10-17,1,,,,,ソウヨウ,0
86,1021001077215,新規,0,2022-10-17,2022-10-17,株式会社７１００,,株式会社,神奈川県,足柄下郡真鶴町,真鶴１３４３番地３,,14,383,2590201,,,,,,,2022-10-17,1,,,,,ナットウ,0
93,1040001125444,新規,0,2022-10-17,2022-10-17,株式会社ＬＥ　ＤＩＮＨ,,株式会社,千葉県,松戸市,小金清志町３丁目４３番地の５,,12,207,2700016,,,,,,,2022-10-17,1,,,,,レディン,0
94,1040001125469,新規,0,2022-10-17,2022-10-17,隆祥株式会社,,株式会社,千葉県,佐倉市,井野字柳沢１５０３番地２,,12,212,2850855,,,,,,,2022-10-17,1,,,,,リュウショウ,0
116,1080105006289,新規,0,2022-10-17,2022-10-17,一般社団法人ｋｏｄａｍａ,,その他の設立登記法人,静岡県,富士宮市,泉町８７７番地,,22,207,4180043,,,,,,,2022-10-17,1,,,,,コダマ,0
124,1100001035793,新規,0,2022-10-17,2022-10-17,株式会社エルフの杜動物霊園,,株式会社,長野県,駒ヶ根市,下平３９３番地,,20,210,3994101,,,,,,,2022-10-17,1,,,,,エルフノモリドウブツレイエン,0
138,1120001249516,新規,0,2022-10-17,2022-10-17,豊順株式会社,,株式会社,大阪府,大阪市中央区,北久宝寺町１丁目５番６－６１６号,,27,128,5410057,,,,,,,2022-10-17,1,,,,,ホウジュン,0
139,1120001249598,新規,0,2022-10-17,2022-10-17,株式会社ＩＴ‐ＲＥＸ,,株式会社,大阪府,大阪市北区,天神橋３丁目１－４３東邦ビル５０５号,,27,127,5300041,,,,,,,2022-10-17,1,,,,,アイティレックス,0
140,1120001249607,新規,0,2022-10-17,2022-10-17,株式会社Ｐｏｓｉｔｉｖｅｌｙ　Ｇｙｍ,,株式会社,大阪府,大阪市東淀川区,上新庄２丁目２０番３号,,27,114,5330006,,,,,,,2022-10-17,1,,,,,ポジティブリージム,0
142,1120003022648,新規,0,2022-10-17,2022-10-17,合同会社Ｇ．Ｉ．Ｄ．Ｓ,,合同会社,大阪府,大阪市北区,本庄西２丁目１番８号,,27,127,5310073,,,,,,,2022-10-17,1,,,,,ギッズ,0
144,1120101066381,新規,0,2022-10-17,2022-10-17,ＭＩＹＡＢＩ株式会社,,株式会社,大阪府,堺市堺区,翁橋町１丁１０番１７号ＭＩＹＡＢＩビル６階Ａ,,27,141,5900061,,,,,,,2022-10-17,1,,,,,ミヤビ,0
146,1120901046616,新規,0,2022-10-17,2022-10-17,株式会社あいエイト,,株式会社,大阪府,吹田市,元町７番９号,,27,205,5640031,,,,,,,2022-10-17,1,,,,,アイエイト,0
149,1122001036324,新規,0,2022-10-17,2022-10-17,株式会社あおば,,株式会社,大阪府,東大阪市,岩田町４丁目６番８号１階,,27,227,5780941,,,,,,,2022-10-17,1,,,,,アオバ,0
155,1130001072834,新規,0,2022-10-17,2022-10-17,株式会社Ｊｕｋｅ,,株式会社,京都府,京都市左京区,吉田中阿達町１４番地８,,26,103,6068306,,,,,,,2022-10-17,1,,,,,ジューク,0
168,1140001127711,新規,0,2022-10-17,2022-10-17,株式会社エムアールケイ,,株式会社,兵庫県,神戸市西区,岩岡町岩岡２１７３番地の３,,28,111,6512401,,,,,,,2022-10-17,1,,,,,エムアールケイ,0
174,1160003002704,新規,0,2022-10-17,2022-10-17,Ｍ２ＧＡＭＥ．合同会社,,合同会社,滋賀県,彦根市,岡町１１３番地１０,,25,202,5220037,,,,,,,2022-10-17,1,,,,,エムツーゲーム,0
182,1180001153349,新規,0,2022-10-17,2022-10-17,株式会社Ｖｏｌｔａ,,株式会社,愛知県,名古屋市東区,砂田橋４丁目１番５７号,,23,102,4610045,,,,,,,2022-10-17,1,,,,,ヴォルタ,0
186,1180003024366,新規,0,2022-10-17,2022-10-17,ＩＰ　Ｓｅｒｖｉｃｅｓ合同会社,,合同会社,愛知県,名古屋市千種区,南明町１丁目１１番地パーク南明６００号,,23,101,4640845,,,,,,,2022-10-17,1,,,,,アイピーサービセス,0
187,1180301036732,新規,0,2022-10-17,2022-10-17,株式会社スマイルクリーニングＬＬＬ,,株式会社,愛知県,豊川市,諏訪西町２丁目８７番地の２,,23,207,4420069,,,,,,,2022-10-17,1,,,,,スマイルクリーニングエルエルエル,0
191,1200001040552,新規,0,2022-10-17,2022-10-17,株式会社Ｋアセット,,株式会社,岐阜県,大垣市,本今６丁目１１４番地,,21,202,5030931,,,,,,,2022-10-17,1,,,,,ケイアセット,0
200,1240003005855,新規,0,2022-10-17,2022-10-17,合同会社Ｃｌａｒｋ’ｎ,,合同会社,広島県,東広島市,鏡山２丁目３１３,,34,212,7390046,,,,,,,2022-10-17,1,,,,,クラークン,0
212,1290003013069,新規,0,2022-10-17,2022-10-17,Ｊｉｍ　Ｄａｎｄｙ合同会社,,合同会社,福岡県,福岡市西区,今宿１丁目１２‐４‐５０３,,40,135,8190167,,,,,,,2022-10-17,1,,,,,ジムダンディ,0
215,1290803004226,新規,0,2022-10-17,2022-10-17,合同会社ＤＭＦ,,合同会社,福岡県,北九州市八幡西区,萩原１丁目１番５５号東洋レジデンス青山９０１号室,,40,109,8060059,,,,,,,2022-10-17,1,,,,,ディーエムエフ,0
219,1320001019378,新規,0,2022-10-17,2022-10-17,イワタ仮設株式会社,,株式会社,大分県,大分市,大字南９４番地,,44,201,8700117,,,,,,,2022-10-17,1,,,,,イワタカセツ,0
222,1330001030202,新規,0,2022-10-17,2022-10-17,ひむき株式会社,,株式会社,熊本県,熊本市東区,小山３丁目８番５７号,,43,102,8618045,,,,,,,2022-10-17,1,,,,,ヒムキ,0
230,1360001031073,新規,0,2022-10-17,2022-10-17,株式会社ＥＭＥＬＩＡ,,株式会社,沖縄県,中頭郡読谷村,字古堅７４－２,,47,324,9040314,,,,,,,2022-10-17,1,,,,,エメリア,0
239,1380001033183,新規,0,2022-10-17,2022-10-17,株式会社ずのう,,株式会社,福島県,白河市,中野山１９－５９,,07,205,9610844,,,,,,,2022-10-17,1,,,,,,0
240,1380003005296,新規,0,2022-10-17,2022-10-17,合同会社Ｏｆｆｉｃｅ　ＭＭＫＲ,,合同会社,福島県,いわき市,常磐松が台２３,,07,204,9728323,,,,,,,2022-10-17,1,,,,,,0
255,1430001087637,新規,0,2022-10-17,2022-10-17,株式会社タクミ工業,,株式会社,北海道,苫小牧市,青葉町２丁目２番３号,,01,213,0530807,,,,,,,2022-10-17,1,,,,,タクミコウギョウ,0
256,1430001087653,新規,0,2022-10-17,2022-10-17,株式会社ｃｏｍｍｏｎｓ　ｆｕｎ,,株式会社,北海道,札幌市中央区,南十一条西１３丁目１番８号,,01,101,0640811,,,,,,,2022-10-17,1,,,,,コモンズファン,0
257,1430001087686,新規,0,2022-10-17,2022-10-17,株式会社合掌工業,,株式会社,北海道,札幌市北区,新琴似十条８丁目１番１８号,,01,102,0010910,,,,,,,2022-10-17,1,,,,,ガッショウコウギョウ,0
259,1430003014366,新規,0,2022-10-17,2022-10-17,合同会社にしおいこみの水,,合同会社,北海道,岩内郡共和町,老古美１６９番地１８,,01,401,0450032,,,,,,,2022-10-17,1,,,,,ニシオイコミノミズ,0
260,1430003014374,新規,0,2022-10-17,2022-10-17,合同会社エム,,合同会社,北海道,札幌市中央区,南二条西４丁目１２－５乙井ビル６Ｆ,,01,101,0600062,,,,,,,2022-10-17,1,,,,,エム,0
266,1500001024541,新規,0,2022-10-17,2022-10-17,株式会社Ｌｉｖｅ２３,,株式会社,愛媛県,松山市,河野中須賀２２０番地,,38,201,7992438,,,,,,,2022-10-17,1,,,,,ライブニジュウサン,0
268,1700150112168,新規,0,2022-10-17,2022-10-17,Ｋｅｔｔｌ　Ｔｅａ　Ｉｎｃ,,外国会社等,福岡県,久留米市,梅満町１１６３－３－３０２,,40,203,8300048,Ｇｒｅｅｎｐｏｉｎｔ　Ａｖｅ，Ｇｒｏｕｎｄ　Ｆｌｏｏｒ　Ｂｒｏｏｋｌｙｎ，ＮＹ１１２２２,,,,,,2022-10-17,1,,,,,ケトルテイインク,0
275,2010001230130,新規,0,2022-10-17,2022-10-17,株式会社治療家コネクト,,株式会社,東京都,千代田区,飯田橋１丁目１２番７号ＭＳビル８階,,13,101,1020072,,,,,,,2022-10-17,1,,,,,チリョウカコネクト,0
277,2010105002186,新規,0,2022-10-17,2022-10-17,一般社団法人オンラインコミュニティ交流会,,その他の設立登記法人,東京都,八王子市,下柚木３丁目３番地４－１０４,,13,201,1920372,,,,,,,2022-10-17,1,,,,,オンラインコミュニティコウリュウカイ,0
282,2010401170265,新規,0,2022-10-17,2022-10-17,株式会社ワンズ,,株式会社,東京都,港区,西麻布４丁目１番１－８０２号,,13,103,1060031,,,,,,,2022-10-17,1,,,,,ワンズ,0
283,2010405021431,新規,0,2022-10-17,2022-10-17,農事組合法人十番,,その他の設立登記法人,東京都,港区,麻布十番２丁目８番１６号ＩＳＩビル５階,,13,103,1060045,,,,,,,2022-10-17,1,,,,,ジュウバン,0
284,2010405021497,新規,0,2022-10-17,2022-10-17,ＫＲ　Ｇｉｎｚａ特定目的会社,,その他の設立登記法人,東京都,港区,西新橋１丁目２２番５号６階,,13,103,1050003,,,,,,,2022-10-17,1,,,,,ケイアールギンザ,0
286,2010503006755,新規,0,2022-10-17,2022-10-17,合同会社アセットフォース,,合同会社,東京都,台東区,台東４丁目２７番４－８０１号コージーコート上野御徒町ＩＩ,00128155,13,106,1100016,,,,,,,2022-10-17,1,,,,,アセットフォース,0
291,2010601061990,新規,0,2022-10-17,2022-10-17,ＨＹ　ｇｌｏｂａｌ株式会社,,株式会社,東京都,江東区,豊洲５丁目１番１３－３７０９号,,13,108,1350061,,,,,,,2022-10-17,1,,,,,エイチワイグローバル,0
301,2010903007725,新規,0,2022-10-17,2022-10-17,合同会社Ｌｅａｐコンサルティング,,合同会社,東京都,世田谷区,砧２丁目１６番１－１０５号,,13,112,1570073,,,,,,,2022-10-17,1,,,,,リープコンサルティング,0
311,2011001150145,新規,0,2022-10-17,2022-10-17,ＬＩＶＥＤＧＥ株式会社,,株式会社,東京都,渋谷区,道玄坂１丁目１０番８号渋谷道玄坂東急ビル２Ｆ－Ｃ,,13,113,1500043,,,,,,,2022-10-17,1,,,,,ライブエッジ,0
312,2011001150335,新規,0,2022-10-17,2022-10-17,Ｃｙｎｔｈｉａｌｙ株式会社,,株式会社,東京都,渋谷区,渋谷２丁目１９番１５号宮益坂ビルディング６０９,,13,113,1500002,,,,,,,2022-10-17,1,,,,,シンシアリー,0
317,2011101100537,新規,0,2022-10-17,2022-10-17,日臨株式会社,,株式会社,東京都,新宿区,早稲田鶴巻町５３８番１９リンクス早稲田ビル５０２,,13,104,1620041,,,,,,,2022-10-17,1,,,,,ニチリン,0
318,2011105010443,新規,0,2022-10-17,2022-10-17,司法書士法人ケーズリーガル,,その他の設立登記法人,東京都,新宿区,西新宿７丁目３番１０号・２１山京ビル４０４号,,13,104,1600023,,,,,,,2022-10-17,1,,,,,ケーズリーガル,0
322,2011301028157,新規,0,2022-10-17,2022-10-17,賽柏藍健康科技株式会社,,株式会社,東京都,杉並区,梅里２丁目２５番１３号高円寺プラザ２１２号,,13,115,1660011,,,,,,,2022-10-17,1,,,,,サイハクランケンコウカギ,0
323,2011301028165,新規,0,2022-10-17,2022-10-17,株式会社コトリアソビ,,株式会社,東京都,杉並区,西荻南３丁目２５番５号,,13,115,1670053,,,,,,,2022-10-17,1,,,,,コトリアソビ,0
326,2011801041403,新規,0,2022-10-17,2022-10-17,株式会社エレクトリックエンジ,,株式会社,東京都,足立区,辰沼２丁目１８番２－１０１号,,13,121,1210054,,,,,,,2022-10-17,1,,,,,エレクトリックエンジ,0
328,2012801021898,新規,0,2022-10-17,2022-10-17,株式会社Ｇ２,,株式会社,東京都,立川市,錦町２丁目１番３５号グランエスポワール１０１号室,,13,202,1900022,,,,,,,2022-10-17,1,,,,,ジーツー,0
339,2020001148561,新規,0,2022-10-17,2022-10-17,株式会社ＷＡＮＴ,,株式会社,神奈川県,横浜市西区,高島２丁目１１番２号スカイメナー横浜５１９,,14,103,2200011,,,,,,,2022-10-17,1,,,,,ウォント,0
340,2020001148586,新規,0,2022-10-17,2022-10-17,株式会社未来,,株式会社,神奈川県,横浜市港北区,新羽町１７３４番地,,14,109,2230057,,,,,,,2022-10-17,1,,,,,ミライ,0
353,2021001077189,新規,0,2022-10-17,2022-10-17,株式会社おおくぼ動物病院,,株式会社,神奈川県,茅ヶ崎市,東海岸北５丁目１番１号,,14,207,2530053,,,,,,,2022-10-17,1,,,,,オオクボドウブツビョウイン,0
356,2021003012251,新規,0,2022-10-17,2022-10-17,合同会社ＡＮプランニング,,合同会社,神奈川県,大和市,下鶴間２７７１番７－２０７号室,,14,213,2420001,,,,,,,2022-10-17,1,,,,,エーエヌプランニング,0
361,2030001150616,新規,0,2022-10-17,2022-10-17,株式会社ｅｎｇｅｌｓ,,株式会社,埼玉県,草加市,谷塚仲町３６０－７,,11,221,3400025,,,,,,,2022-10-17,1,,,,,エンジェルス,0
366,2030005021020,新規,0,2022-10-17,2022-10-17,一般社団法人赤ひげ会,,その他の設立登記法人,埼玉県,草加市,氷川町３２５番地,,11,221,3400034,,,,,,,2022-10-17,1,,,,,アカヒゲカイ,0
370,2040001125443,新規,0,2022-10-17,2022-10-17,Ｔｒｕｓｔ　Ｄａｙｓ　Ｊａｐａｎ株式会社,,株式会社,千葉県,柏市,布施１３２６番地１,,12,217,2770825,,,,,,,2022-10-17,1,,,,,トラストデイズジャパン,0
371,2040001125451,新規,0,2022-10-17,2022-10-17,株式会社アイズ,,株式会社,千葉県,我孫子市,我孫子４丁目３３番５号,,12,222,2701166,,,,,,,2022-10-17,1,,,,,アイズ,0
373,2040003021046,新規,0,2022-10-17,2022-10-17,合同会社Ｓ．Ｋ　ＩＮＴＥＲＮＡＴＩＯＮＡＬ,,合同会社,千葉県,柏市,藤ケ谷２１５番地６,,12,217,2770931,,,,,,,2022-10-17,1,,,,,エスケーインターナショナル,0
374,2040005021779,新規,0,2022-10-17,2022-10-17,医療法人社団英知会,,その他の設立登記法人,千葉県,市原市,ちはら台南２丁目３２番地２,,12,219,2900142,,,,,,,2022-10-17,1,,,,,エイチカイ,0
378,2050001051820,新規,0,2022-10-17,2022-10-17,株式会社斉藤設備工業,,株式会社,茨城県,下妻市,前河原６２２番地６,,08,210,3040076,,,,,,,2022-10-17,1,,,,,サイトウセツビコウギョウ,0
396,2070005010044,新規,0,2022-10-17,2022-10-17,一般社団法人かい,,その他の設立登記法人,群馬県,伊勢崎市,除ケ町３２５－２,,10,204,3720832,,,,,,,2022-10-17,1,,,,,,0
405,2080401026097,新規,0,2022-10-17,2022-10-17,株式会社コタエル,,株式会社,静岡県,浜松市東区,天龍川町３０３番地の３Ｊハイム東浜松１００７号室,,22,132,4350013,,,,,,,2022-10-17,1,,,,,コタエル,0
411,2100001035792,新規,0,2022-10-17,2022-10-17,株式会社Ｌｉｅｔｏ,,株式会社,長野県,諏訪市,沖田町２丁目５２－１平成沖田ビル３Ｆ－１,,20,206,3920013,,,,,,,2022-10-17,1,,,,,リエート,0
440,2130001072783,新規,0,2022-10-17,2022-10-17,株式会社ＮＥＸＴＡ,,株式会社,京都府,京都市左京区,岩倉幡枝町７８５番地４９,,26,103,6060015,,,,,,,2022-10-17,1,,,,,ネクスタ,0
441,2130001072817,新規,0,2022-10-17,2022-10-17,株式会社京都機械商事,,株式会社,京都府,京都市伏見区,深草今在家町１－１８番地藤企画マンション２０３号室,,26,109,6120017,,,,,,,2022-10-17,1,,,,,キョウトキカイショウジ,0
453,2140001127735,新規,0,2022-10-17,2022-10-17,株式会社Ｃｏｎｔｉｎｕｅ,,株式会社,兵庫県,神戸市須磨区,妙法寺字大津江４３０番地の３ワコーレ須磨妙法寺ステーションマークス４０９号,,28,107,6540121,,,,,,,2022-10-17,1,,,,,コンティニュー,0
456,2140005026339,新規,0,2022-10-17,2022-10-17,一般社団法人エシカルビジネス研究所,,その他の設立登記法人,兵庫県,神戸市東灘区,魚崎北町１丁目２番３号,,28,101,6580082,,,,,,,2022-10-17,1,,,,,エシカルビジネスケンキュウショ,0
461,2160001024575,新規,0,2022-10-17,2022-10-17,株式会社八木産機,,株式会社,滋賀県,愛知郡愛荘町,上蚊野３２８番地,,25,425,5291203,,,,,,,2022-10-17,1,,,,,ヤギサンキ,0
463,2160003002703,新規,0,2022-10-17,2022-10-17,ジェイピーウェザー合同会社,,合同会社,滋賀県,彦根市,尾末町４番３－２０２号,,25,202,5220001,,,,,,,2022-10-17,1,,,,,ジェイピーウェザー,0
476,2180001153397,新規,0,2022-10-17,2022-10-17,Ｓ・Ｃ・Ｉ株式会社,,株式会社,愛知県,北名古屋市,徳重土部６３番地,,23,234,4810038,,,,,,,2022-10-17,1,,,,,エスシーアイ,0
477,2180001153414,新規,0,2022-10-17,2022-10-17,株式会社Ｅｐｉｓｔｙｌｅ,,株式会社,愛知県,名古屋市名東区,藤見が丘１３３コーポ北岳１０３,,23,115,4650048,,,,,,,2022-10-17,1,,,,,エピスタイル,0
478,2180001153430,新規,0,2022-10-17,2022-10-17,ＭＩホールディングス株式会社,,株式会社,愛知県,名古屋市中区,栄１丁目２０番１０号グランアベニュー栄１２０９,,23,106,4600008,,,,,,,2022-10-17,1,,,,,エムアイホールディングス,0
479,2180001153439,新規,0,2022-10-17,2022-10-17,株式会社ＴＲＹ,,株式会社,愛知県,名古屋市中区,栄４丁目１０番２５号サンケイサカエイーストビルＢ１Ｆ,,23,106,4600008,,,,,,,2022-10-17,1,,,,,トライ,0
480,2180001153463,新規,0,2022-10-17,2022-10-17,株式会社ＴＡＫＥ,,株式会社,愛知県,名古屋市南区,戸部町３丁目７１番地,,23,112,4570043,,,,,,,2022-10-17,1,,,,,テイク,0
483,2180003024373,新規,0,2022-10-17,2022-10-17,半田モバイル合同会社,,合同会社,愛知県,半田市,花園町１丁目１８番地の１３,,23,205,4750833,,,,,,,2022-10-17,1,,,,,ハンダモバイル,0
488,2180303005478,新規,0,2022-10-17,2022-10-17,合同会社マキビジネスサポート,,合同会社,愛知県,豊橋市,つつじが丘２丁目１７番地９,,23,201,4400858,,,,,,,2022-10-17,1,,,,,マキビジネスサポート,0
490,2200001040551,新規,0,2022-10-17,2022-10-17,株式会社ＯＫＵＭＵＲＡ,,株式会社,岐阜県,高山市,名田町５丁目７１番地１,,21,203,5060021,,,,,,,2022-10-17,1,,,,,オクムラ,0
495,2220001025096,新規,0,2022-10-17,2022-10-17,ＹＨＫ食品株式会社,,株式会社,石川県,金沢市,高畠３丁目２３１番地,,17,201,9218001,,,,,,,2022-10-17,1,,,,,ワイエイチケイショクヒン,0
496,2220003003380,新規,0,2022-10-17,2022-10-17,合同会社Ｆｕｒａｎａ,,合同会社,石川県,金沢市,彦三町１丁目２番１号,,17,201,9200901,,,,,,,2022-10-17,1,,,,,フラナ,0
502,2240001060488,新規,0,2022-10-17,2022-10-17,株式会社ＩＺＵＭＩ　ＴＥＣＨ,,株式会社,広島県,福山市,山手町５丁目２９番７号,,34,207,7200092,,,,,,,2022-10-17,1,,,,,イズミテック,0
506,2260003004061,新規,0,2022-10-17,2022-10-17,ＶＩＲＯＮ合同会社,,合同会社,岡山県,玉野市,八浜町波知６１３番地２,,33,204,7060223,,,,,,,2022-10-17,1,,,,,ヴィロン,0
522,2290801028969,新規,0,2022-10-17,2022-10-17,株式会社ＥＺ,,株式会社,福岡県,北九州市小倉北区,中井１丁目３２番１号,,40,106,8030836,,,,,,,2022-10-17,1,,,,,イーゼット,0
524,2300001013101,新規,0,2022-10-17,2022-10-17,しゃしゅしょ株式会社,,株式会社,佐賀県,佐賀市,水ヶ江２丁目１３番４号,,41,201,8400054,,,,,,,2022-10-17,1,,,,,シャシュショ,0
529,2350005006105,新規,0,2022-10-17,2022-10-17,一般社団法人リベラルハーツ,,その他の設立登記法人,宮崎県,都城市,八幡町１４街区２５号,,45,202,8850075,,,,,,,2022-10-17,1,,,,,リベラルハーツ,0
532,2360001031064,新規,0,2022-10-17,2022-10-17,島コンシェルジュデリバリー株式会社,,株式会社,沖縄県,石垣市,字新川１５８５－３５コーラルベイ石垣島迎賓館１０１号室,,47,207,9070024,,,,,,,2022-10-17,1,,,,,シマコンシェルジュデリバリー,0
536,2370001049155,新規,0,2022-10-17,2022-10-17,ｍ．ｇ．ｍ株式会社,,株式会社,宮城県,黒川郡大和町,杜の丘２丁目１０番地の１２,,04,421,9813628,,,,,,,2022-10-17,1,,,,,エムジーエム,0
541,2380005012637,新規,0,2022-10-17,2022-10-17,医療法人穂徹会,,その他の設立登記法人,福島県,二本松市,若宮２丁目１６４番地３,,07,210,9640906,,,,,,,2022-10-17,1,,,,,ホテツカイ,0
546,2420001018039,新規,0,2022-10-17,2022-10-17,株式会社稲生自動車整備工場,,株式会社,青森県,十和田市,元町西６丁目１１番１５号,,02,206,0340002,,,,,,,2022-10-17,1,,,,,イナオイジドウシャセイビコウジョウ,0
556,2430003014357,新規,0,2022-10-17,2022-10-17,合同会社ＬＯＯＰ,,合同会社,北海道,札幌市西区,宮の沢三条５丁目１６番１－３号,,01,107,0630053,,,,,,,2022-10-17,1,,,,,ループ,0
557,2430003014381,新規,0,2022-10-17,2022-10-17,合同会社Ｍｐｒｏｊｅｃｔ,,合同会社,北海道,札幌市中央区,南二条西１０丁目４番地５,,01,101,0600062,,,,,,,2022-10-17,1,,,,,エムプロジェクト,0
566,2700150112167,新規,0,2022-10-17,2022-10-17,上海済翔貿易有限公司,,外国会社等,東京都,千代田区,神田紺屋町４３番地２紺屋町共同ビル３０１号室,,13,101,1010035,上海市普陀区交通路４７１１号１８０７室Ｌ,,,,,,2022-10-17,1,,,,,シヤンハイサイシヨウボウエキユウゲンコウシ,0
578,3010001230229,新規,0,2022-10-17,2022-10-17,ＬＦＯ株式会社,,株式会社,東京都,中央区,銀座３丁目４番１号大倉別館５階,,13,102,1040061,,,,,,,2022-10-17,1,,,,,エルエフオー,0
580,3010003038876,新規,0,2022-10-17,2022-10-17,ＳＫＹｔｒａｎｓ合同会社,,合同会社,東京都,中央区,銀座１丁目１２－４Ｎ＆Ｅ．ＢＬＤ．７階,,13,102,1040061,,,,,,,2022-10-17,1,,,,,スカイトランス,0
581,3010005035681,新規,0,2022-10-17,2022-10-17,さくら一般社団法人,,その他の設立登記法人,東京都,千代田区,丸の内３丁目１番１号東京共同会計事務所内,,13,101,1000005,,,,,,,2022-10-17,1,,,,,サクラ,0
583,3010101015356,新規,0,2022-10-17,2022-10-17,株式会社ｍｉｒａｉ　ｉｎｔｅｒｎａｔｉｏｎａｌ,,株式会社,東京都,八王子市,美山町２４８０－１１、２Ｆ,,13,201,1920152,,,,,,,2022-10-17,1,,,,,ミライインターナショナル,0
584,3010105002185,新規,0,2022-10-17,2022-10-17,一般社団法人八王子ユナイトスポーツクラブ,,その他の設立登記法人,東京都,八王子市,館町１８７９番地５,,13,201,1930944,,,,,,,2022-10-17,1,,,,,ハチオウジユナイトスポーツクラブ,0
591,3010401170181,新規,0,2022-10-17,2022-10-17,株式会社サラアミューズメント,,株式会社,東京都,港区,三田１丁目６－３－１２０９,,13,103,1080073,,,,,,,2022-10-17,1,,,,,サラアミューズメント,0
594,3010403028576,新規,0,2022-10-17,2022-10-17,ミティアンファンド１号合同会社,,合同会社,東京都,港区,虎ノ門１丁目１番１１号マスダビル５階Ａ号室,,13,103,1050001,,,,,,,2022-10-17,1,,,,,ミティアンファンドイチゴウ,0
595,3010403028700,新規,0,2022-10-17,2022-10-17,ｒｈｉｚｏｍｅ合同会社,,合同会社,東京都,港区,西麻布３丁目３番１号ＳＫＹ西麻布ビル３Ｆ,,13,103,1060031,,,,,,,2022-10-17,1,,,,,リゾーム,0
596,3010403028717,新規,0,2022-10-17,2022-10-17,ウェン東京合同会社,,合同会社,東京都,港区,元麻布３丁目１番６号,,13,103,1060046,,,,,,,2022-10-17,1,,,,,ウェントウキョウ,0
598,3010405021439,新規,0,2022-10-17,2022-10-17,弁護士法人工藤法律事務所,,その他の設立登記法人,東京都,港区,南青山２丁目２７番８号南青山第２シティビル３階,,13,103,1070062,,,,,,,2022-10-17,1,,,,,クドウホウリツジムショ,0
603,3010601061965,新規,0,2022-10-17,2022-10-17,株式会社アマイファーム,,株式会社,東京都,江東区,新木場４丁目６番地８号,,13,108,1360082,,,,,,,2022-10-17,1,,,,,アマイファーム,0
604,3010601061998,新規,0,2022-10-17,2022-10-17,株式会社Ｈａｐｐｙｅｄｕ,,株式会社,東京都,江東区,東雲１丁目９番４２－１５０８号,,13,108,1350062,,,,,,,2022-10-17,1,,,,,ハッピーエデュ,0
605,3010603009780,新規,0,2022-10-17,2022-10-17,雷電ニューメリックス合同会社,,合同会社,東京都,江東区,有明３丁目７－２６有明フロンティアビルＢ棟９階,,13,108,1350063,,,,,,,2022-10-17,1,,,,,ライデンニューメリックス,0
606,3010605004144,新規,0,2022-10-17,2022-10-17,特定非営利活動法人Ｐｏｎｔｅｐａｃｉｓポンテパシス平和の架け橋,,その他の設立登記法人,東京都,江東区,青海２丁目７番４号ｔｈｅＳＯＨＯ９２８号室,,13,108,1350064,,,,,,,2022-10-17,1,,,,,ポンテパシスポンテパシスヘイワノカケハシ,0
620,3011001150334,新規,0,2022-10-17,2022-10-17,株式会社ＲｅＭａｋｅ,,株式会社,東京都,渋谷区,恵比寿１丁目１８番１３号ジラソーレｅｂｉｓｕ３０１,,13,113,1500013,,,,,,,2022-10-17,1,,,,,リメイク,0
624,3011101100528,新規,0,2022-10-17,2022-10-17,株式会社ｆｅｅｒ,,株式会社,東京都,新宿区,西新宿７丁目５－５プラザ西新宿３０９,,13,104,1600023,,,,,,,2022-10-17,1,,,,,フィール,0
629,3011601026289,新規,0,2022-10-17,2022-10-17,株式会社公和不動産,,株式会社,東京都,練馬区,光が丘５丁目２番２－１２０４号,,13,120,1790072,,,,,,,2022-10-17,1,,,,,コウワフドウサン,0
632,3011603003716,新規,0,2022-10-17,2022-10-17,合同会社ＡＩＭ,,合同会社,東京都,練馬区,練馬１丁目３２番５号,,13,120,1760001,,,,,,,2022-10-17,1,,,,,エーアイエム,0
633,3011603003724,新規,0,2022-10-17,2022-10-17,合同会社グレインズ,,合同会社,東京都,練馬区,豊玉北５丁目６番１４－８０１号,,13,120,1760012,,,,,,,2022-10-17,1,,,,,グレインズ,0
640,3011803005314,新規,0,2022-10-17,2022-10-17,合同会社ＨＯＭＲＡ　ＣＯＭＰＡＮＹ,,合同会社,東京都,葛飾区,四つ木１丁目２０番２号,,13,122,1240011,,,,,,,2022-10-17,1,,,,,ホムラカンパニー,0
649,3013301049801,新規,0,2022-10-17,2022-10-17,株式会社ＭＹＡＴ,,株式会社,東京都,豊島区,北大塚２丁目８番３－４０２号,,13,116,1700004,,,,,,,2022-10-17,1,,,,,ミャッ,0
669,3020001148585,新規,0,2022-10-17,2022-10-17,株式会社８Ｅｓｔａｔｅ,,株式会社,神奈川県,横浜市中区,扇町１丁目１番地２５キンガビル３０７号室,,14,104,2310027,,,,,,,2022-10-17,1,,,,,エイトエステート,0
671,3020003022540,新規,0,2022-10-17,2022-10-17,合同会社ｃｙｃｌｏｔｈｉｎｇ,,合同会社,神奈川県,横浜市青葉区,荏田西１丁目１２－１７－４１３,,14,117,2250014,,,,,,,2022-10-17,1,,,,,サイクロージン,0
681,3021003012259,新規,0,2022-10-17,2022-10-17,合同会社Ｌｅｓｈｅｎ,,合同会社,神奈川県,相模原市南区,上鶴間本町３丁目１０番２号ＲｉｚｉｅｒｅＷｅｓｔ３０３,,14,153,2520318,,,,,,,2022-10-17,1,,,,,レーシェン,0
687,3030001150557,新規,0,2022-10-17,2022-10-17,株式会社ナナマル,,株式会社,埼玉県,所沢市,大字下安松４０７番地の５,,11,208,3590024,,,,,,,2022-10-17,1,,,,,ナナマル,0
699,3050003006920,新規,0,2022-10-17,2022-10-17,合同会社アバンダンス,,合同会社,茨城県,取手市,下高井２０８９番地３２,,08,217,3020038,,,,,,,2022-10-17,1,,,,,アバンダンス,0
700,3060001035350,新規,0,2022-10-17,2022-10-17,株式会社忠実機械買取,,株式会社,栃木県,小山市,東城南４丁目１０番地２４ラ・フランスＫＡＺＵ１０３号,,09,208,3230829,,,,,,,2022-10-17,1,,,,,チュウジツキカイカイトリ,0
701,3060001035359,新規,0,2022-10-17,2022-10-17,株式会社イソジマタイヤ,,株式会社,栃木県,足利市,八幡町５０５番地６,,09,202,3260824,,,,,,,2022-10-17,1,,,,,イソジマタイヤ,0
721,3100001035791,新規,0,2022-10-17,2022-10-17,シティーカンファレンスコミュニケーションズ株式会社,,株式会社,長野県,伊那市,西町４８８２番地３,,20,209,3960026,,,,,,,2022-10-17,1,,,,,シティーカンファレンスコミュニケーションズ,0
724,3100003006725,新規,0,2022-10-17,2022-10-17,合同会社ブライトアップ,,合同会社,長野県,千曲市,上山田温泉２丁目２３番地６,,20,218,3890821,,,,,,,2022-10-17,1,,,,,ブライトアップ,0
728,3110001037044,新規,0,2022-10-17,2022-10-17,七福建商株式会社,,株式会社,新潟県,新潟市西蒲区,漆山２５００番地,,15,108,9530054,,,,,,,2022-10-17,1,,,,,ナナフクケンショウ,0
741,3120001249563,新規,0,2022-10-17,2022-10-17,ＡＣＥ　ＡＵＴＯ株式会社,,株式会社,大阪府,大阪市港区,弁天６丁目３番４号,,27,107,5520007,,,,,,,2022-10-17,1,,,,,エースオート,0
742,3120001249605,新規,0,2022-10-17,2022-10-17,株式会社ＥｉＴＯ,,株式会社,大阪府,大阪市浪速区,敷津西１丁目３番１０号ベルフォーレイガ３０１号,,27,111,5560015,,,,,,,2022-10-17,1,,,,,エイト,0
748,3120005023246,新規,0,2022-10-17,2022-10-17,行政書士法人ＨＲ　ＢＲＩＤＧＥ国際法務事務所,,その他の設立登記法人,大阪府,大阪市西区,新町１丁目３３番１ＯＮＥＳＨＩＮＭＡＣＨＩ６０１号,,27,106,5500013,,,,,,,2022-10-17,1,,,,,エイチアールブリッヂコクサイホウムジムショ,0
753,3130001072824,新規,0,2022-10-17,2022-10-17,ローヤルテック株式会社,,株式会社,京都府,綴喜郡宇治田原町,大字立川小字塩ケ谷１６－１４,,26,344,6100231,,,,,,,2022-10-17,1,,,,,ローヤルテック,0
754,3130001072832,新規,0,2022-10-17,2022-10-17,株式会社Ｋ．Ｋ,,株式会社,京都府,京都市山科区,竹鼻西ノ口町１２番地１９,,26,110,6078089,,,,,,,2022-10-17,1,,,,,ケーケー,0
755,3130005016604,新規,0,2022-10-17,2022-10-17,特定非営利活動法人ともいき京都,,その他の設立登記法人,京都府,京都市下京区,河原町通正面下る万屋町３４２番地ガーデンコート河原町８１０号,,26,106,6008199,,,,,,,2022-10-17,1,,,,,トモイキキョウト,0
763,3140001127718,新規,0,2022-10-17,2022-10-17,株式会社Ｉｍｐｒｅｓｓｉｏｎ,,株式会社,兵庫県,神戸市中央区,磯上通８丁目１－２９カサベラビルＣ＆Ｍビル４０３,,28,110,6510086,,,,,,,2022-10-17,1,,,,,インプレッション,0
764,3140001127734,新規,0,2022-10-17,2022-10-17,株式会社ウィズ・コウジ,,株式会社,兵庫県,神戸市灘区,鶴甲３丁目１３番１５－３０３号,,28,102,6570011,,,,,,,2022-10-17,1,,,,,ウィズコウジ,0
775,3180001153405,新規,0,2022-10-17,2022-10-17,株式会社雄政興業,,株式会社,愛知県,常滑市,樽水町２丁目６１番地,,23,216,4790826,,,,,,,2022-10-17,1,,,,,ユウセイコウギョウ,0
776,3180001153421,新規,0,2022-10-17,2022-10-17,株式会社アクシアド,,株式会社,愛知県,瀬戸市,苗場町１５０番地パークシティ新瀬戸２番街スカイスクエア１１０５,,23,204,4890983,,,,,,,2022-10-17,1,,,,,アクシアド,0
777,3180001153446,新規,0,2022-10-17,2022-10-17,株式会社鈴木業務店,,株式会社,愛知県,名古屋市守山区,小幡千代田１６番２８号,,23,113,4630053,,,,,,,2022-10-17,1,,,,,スズキギョウムテン,0
778,3180001153454,新規,0,2022-10-17,2022-10-17,株式会社ＴＯＣマネジメント,,株式会社,愛知県,名古屋市中村区,長筬町３丁目４６番地の２,,23,105,4530839,,,,,,,2022-10-17,1,,,,,ティーオーシーマネジメント,0
780,3180003024364,新規,0,2022-10-17,2022-10-17,合同会社Ｐｕａｌａ,,合同会社,愛知県,名古屋市中区,新栄３丁目２２－２５コートアクシス新栄４０２,,23,106,4600007,,,,,,,2022-10-17,1,,,,,プアラ,0
785,3190001029843,新規,0,2022-10-17,2022-10-17,株式会社幸ポレーション,,株式会社,三重県,津市,大門２３番２４号,,24,201,5140027,,,,,,,2022-10-17,1,,,,,コウポレーション,0
803,3290001099190,新規,0,2022-10-17,2022-10-17,株式会社ＧｉｖｉｎｇＢａｃｋ,,株式会社,福岡県,福岡市中央区,天神４丁目６－２８天神ファーストビル７階,,40,133,8100001,,,,,,,2022-10-17,1,,,,,ギビングバック,0
804,3290001099232,新規,0,2022-10-17,2022-10-17,株式会社Ａｎｄｒｅｗｓ　Ｃｏｍｐａｎｙ,,株式会社,福岡県,うきは市,浮羽町朝田３７０番地１,,40,225,8391401,,,,,,,2022-10-17,1,,,,,アンドリューズカンパニー,0
805,3290001099240,新規,0,2022-10-17,2022-10-17,エスフォーコート株式会社,,株式会社,福岡県,福岡市博多区,下呉服町７－２０５－３０１,,40,132,8120034,,,,,,,2022-10-17,1,,,,,エスフォーコート,0
806,3290001099249,新規,0,2022-10-17,2022-10-17,株式会社さくら総合企画,,株式会社,福岡県,糟屋郡宇美町,明神坂２丁目２番１６号,,40,341,8112122,,,,,,,2022-10-17,1,,,,,サクラソウゴウキカク,0
807,3290001099257,新規,0,2022-10-17,2022-10-17,株式会社パンタノ,,株式会社,福岡県,福岡市中央区,鳥飼１丁目１－５,,40,133,8100053,,,,,,,2022-10-17,1,,,,,パンタノ,0
816,3320001019376,新規,0,2022-10-17,2022-10-17,株式会社ＥＡＣＨ　ｇａｒｄｅｎ　ｄｅｓｉｇｎ,,株式会社,大分県,大分市,里３丁目２番２６号,,44,201,8700303,,,,,,,2022-10-17,1,,,,,イーチガーデンデザイン,0
818,3330001030200,新規,0,2022-10-17,2022-10-17,プロテクト・ユア・スマイル株式会社,,株式会社,熊本県,八代市,郡築一番町２番地７,,43,202,8660024,,,,,,,2022-10-17,1,,,,,プロテクトユアスマイル,0
824,3360003012367,新規,0,2022-10-17,2022-10-17,合同会社ＲＴ,,合同会社,沖縄県,宮古島市,平良字下里６４６－２、３－Ａ,,47,214,9060013,,,,,,,2022-10-17,1,,,,,アールティー,0
825,3360003012375,新規,0,2022-10-17,2022-10-17,合同会社あらかき,,合同会社,沖縄県,うるま市,字栄野比１０９９番地７,,47,213,9042205,,,,,,,2022-10-17,1,,,,,アラカキ,0
833,3370001049113,新規,0,2022-10-17,2022-10-17,株式会社フルタウンホールディングス,,株式会社,宮城県,仙台市宮城野区,新田４丁目３３番２２－４０２号,,04,102,9830038,,,,,,,2022-10-17,1,,,,,フルタウンホールディングス,0
834,3370001049154,新規,0,2022-10-17,2022-10-17,株式会社ロジープラス,,株式会社,宮城県,仙台市青葉区,本町２丁目１０－２３,,04,101,9800014,,,,,,,2022-10-17,1,,,,,ロジープラス,0
840,3380005012636,新規,0,2022-10-17,2022-10-17,特定非営利活動法人アニボウ,,その他の設立登記法人,福島県,郡山市,深沢２丁目１２番２号,,07,203,9638874,,,,,,,2022-10-17,1,,,,,アニボウ,0
843,3420001018038,新規,0,2022-10-17,2022-10-17,株式会社ＭＫＴサービス,,株式会社,青森県,青森市,大字駒込字桐ノ沢３番地１９,,02,201,0300955,,,,,,,2022-10-17,1,,,,,エムケーティーサービス,0
849,3430003014364,新規,0,2022-10-17,2022-10-17,合同会社マルケンオート,,合同会社,北海道,札幌市白石区,東米里２０２６番地４,,01,104,0030876,,,,,,,2022-10-17,1,,,,,マルケンオート,0
853,3500003002907,新規,0,2022-10-17,2022-10-17,合同会社イチカ,,合同会社,愛媛県,松山市,中村３丁目１－４サザンコートＩＩＩ３０２号,00128146,38,201,7900964,,,,,,,2022-10-17,1,,,,,イチカ,0
856,3700150112166,新規,0,2022-10-17,2022-10-17,Ｓ　Ａ　ＡＵＴＯ　ＰＡＣＫＳ　ＭＡＲＫＥＴＩＮＧ　ＰＶＴ　ＬＴＤ,,外国会社等,神奈川県,伊勢原市,高森１０９０－１高森サンハイツ１０５号室,,14,214,2591114,スリランカ民主社会主義共和国，アクラナ市ブルゴハゼンナＮｏ：２９７／Ａ,,,,,,2022-10-17,1,,,,,エスエーオートパツクスマーケテイングプライベートリミテツド,0
865,4010001230104,新規,0,2022-10-17,2022-10-17,株式会社ＬＥＡＦｓｈａｄｅ,,株式会社,東京都,千代田区,神田練塀町４５番地１ライオンズマンション秋葉原９０２,,13,101,1010022,,,,,,,2022-10-17,1,,,,,リーフシェイド,0
866,4010001230228,新規,0,2022-10-17,2022-10-17,株式会社ヒラクオン,,株式会社,東京都,中央区,日本橋兜町１７番２号兜町第６葉山ビル４階,,13,102,1030026,,,,,,,2022-10-17,1,,,,,ヒラクオン,0
874,4010401170263,新規,0,2022-10-17,2022-10-17,株式会社美桜ラボ,,株式会社,東京都,港区,港南２丁目３番１号大信秋山ビル３階,,13,103,1080075,,,,,,,2022-10-17,1,,,,,ミオラボ,0
878,4010405021438,新規,0,2022-10-17,2022-10-17,医療法人社団Ｖｓｍｉｌｅ,,その他の設立登記法人,東京都,港区,南青山４丁目６番２号ＭＩＫＡＭＩ１０２号室,,13,103,1070062,,,,,,,2022-10-17,1,,,,,ブイスマイル,0
879,4010405021495,新規,0,2022-10-17,2022-10-17,Ｇａｌａｘｙ特定目的会社,,その他の設立登記法人,東京都,港区,元赤坂１丁目１番８号赤坂コミュニティビル４階,,13,103,1070051,,,,,,,2022-10-17,1,,,,,ギャラクシー,0
881,4010503006753,新規,0,2022-10-17,2022-10-17,ＳＴＬ　ＷＯＲＬＤ　ＮＥＴＷＯＲＫ合同会社,,合同会社,東京都,台東区,下谷３丁目１番２４号５０５号室,,13,106,1100004,,,,,,,2022-10-17,1,,,,,エスティエルワールドネットワーク,0
882,4010601061989,新規,0,2022-10-17,2022-10-17,株式会社ＡＬＵＢＡ２８,,株式会社,東京都,墨田区,八広１丁目４０番１５号,,13,107,1310041,,,,,,,2022-10-17,1,,,,,アルバ,0
883,4010703006421,新規,0,2022-10-17,2022-10-17,ＬＢＬ　Ｔｅｃｈｎｏｌｏｇｉｅｓ合同会社,,合同会社,東京都,品川区,戸越３丁目１番１１号ＪＬＢグランエクリュ戸越銀座２０１,,13,109,1420041,,,,,,,2022-10-17,1,,,,,エルビーエルテクノロジーズ,0
904,4011101100527,新規,0,2022-10-17,2022-10-17,株式会社Ｇｕａｒｄｉａｎ　Ａｎｇｅｌ,,株式会社,東京都,新宿区,大久保１丁目９番１７号４Ｆ,,13,104,1690072,,,,,,,2022-10-17,1,,,,,ガーディアンエンジェル,0
908,4011301028155,新規,0,2022-10-17,2022-10-17,ＶＹＡＮ株式会社,,株式会社,東京都,杉並区,上井草１丁目２９番６号アイビーハウス１０２,,13,115,1670023,,,,,,,2022-10-17,1,,,,,ヴィアン,0
909,4011301028163,新規,0,2022-10-17,2022-10-17,エンブリッジアドバイザーズ株式会社,,株式会社,東京都,杉並区,西荻南２丁目２８番２４号,,13,115,1670053,,,,,,,2022-10-17,1,,,,,エンブリッジアドバイザーズ,0
912,4011503005316,新規,0,2022-10-17,2022-10-17,ＤＦ国際合同会社,,合同会社,東京都,北区,滝野川７丁目４３－１－１０５,,13,117,1140023,,,,,,,2022-10-17,1,,,,,ディーエフ,0
916,4011603003723,新規,0,2022-10-17,2022-10-17,合同会社クロッシュ,,合同会社,東京都,練馬区,関町南４丁目５番１９号,,13,120,1770053,,,,,,,2022-10-17,1,,,,,クロッシュ,0
921,4011705001757,新規,0,2022-10-17,2022-10-17,一般社団法人Ｓｏｌ　Ｌｉｇｈｔｓ　Ａｓｓｏｃｉａｔｉｏｎ,,その他の設立登記法人,東京都,江戸川区,西葛西５丁目１番３号第６山秀ビル６０２,,13,123,1340088,,,,,,,2022-10-17,1,,,,,ソルライツアソシエーション,0
923,4011803005313,新規,0,2022-10-17,2022-10-17,Ｌｉａｍ　Ｃｏｎｓｕｌｔｉｎｇ合同会社,,合同会社,東京都,足立区,小台１丁目２４番５－４０５号,,13,121,1200046,,,,,,,2022-10-17,1,,,,,リアムコンサルティング,0
942,4020003022564,新規,0,2022-10-17,2022-10-17,Ｇｒｅａｔ　Ｈａｒｍｏｎｙ合同会社,,合同会社,神奈川県,横浜市磯子区,森が丘２丁目１５番２２号エステートピアフヂ２０１号,,14,107,2350024,,,,,,,2022-10-17,1,,,,,グレイトハーモニー,0
943,4020003022580,新規,0,2022-10-17,2022-10-17,合同会社ＤＥＡＫＳ,,合同会社,神奈川県,横浜市保土ケ谷区,権太坂２丁目１４番２９号,,14,106,2400026,,,,,,,2022-10-17,1,,,,,ディークス,0
950,4021003012258,新規,0,2022-10-17,2022-10-17,合同会社ＫＡＫＥＲＵ,,合同会社,神奈川県,高座郡寒川町,一之宮１丁目１５番６号,,14,321,2530111,,,,,,,2022-10-17,1,,,,,,0
961,4030005021010,新規,0,2022-10-17,2022-10-17,弁護士法人アネロ,,その他の設立登記法人,埼玉県,越谷市,千間台西１丁目８番地７せんげん台ＩＫビル２０１号室,,11,222,3430041,,,,,,,2022-10-17,1,,,,,アネロ,0
962,4040001125417,新規,0,2022-10-17,2022-10-17,ａｂｉｌｅ再生株式会社,,株式会社,千葉県,柏市,青葉台２丁目８番１号,,12,217,2770055,,,,,,,2022-10-17,1,,,,,アビレサイセイ,0
963,4040001125441,新規,0,2022-10-17,2022-10-17,中寶株式会社,,株式会社,千葉県,山武郡横芝光町,宮川６９７５番地１,,12,410,2891727,,,,,,,2022-10-17,1,,,,,チュウホウ,0
964,4040001125458,新規,0,2022-10-17,2022-10-17,カーネルチップ株式会社,,株式会社,千葉県,船橋市,北本町１丁目１７番２５号,,12,204,2730864,,,,,,,2022-10-17,1,,,,,カーネルチップ,0
967,4040003021052,新規,0,2022-10-17,2022-10-17,合同会社ＫＩＹＯＳＨＩ　ＥＮＴＥＲＰＲＩＳＥＳ,,合同会社,千葉県,白井市,富塚１０４９番地の４ニューサンフラワーマンション３０３号室,,12,232,2701405,,,,,,,2022-10-17,1,,,,,キヨシエンタープライセズ,0
971,4050001051819,新規,0,2022-10-17,2022-10-17,株式会社将軍,,株式会社,茨城県,那珂市,菅谷２７９９－１,,08,226,3110105,,,,,,,2022-10-17,1,,,,,ショウグン,0
974,4060001035358,新規,0,2022-10-17,2022-10-17,株式会社ワタシテラス,,株式会社,栃木県,宇都宮市,柳田町２８６番地１５,,09,201,3210902,,,,,,,2022-10-17,1,,,,,ワタシテラス,0
984,4090001017816,新規,0,2022-10-17,2022-10-17,株式会社ライフベース,,株式会社,山梨県,笛吹市,石和町井戸１５４番地１,,19,211,4060045,,,,,,,2022-10-17,1,,,,,ライフベース,0
986,4100001035790,新規,0,2022-10-17,2022-10-17,株式会社ＡＳＡＭＡ　ＡＳＳＥＴ,,株式会社,長野県,北佐久郡軽井沢町,大字長倉３４２９－３８,,20,321,3890111,,,,,,,2022-10-17,1,,,,,アサマアセット,0
987,4100003006724,新規,0,2022-10-17,2022-10-17,合同会社南箕輪ファーム,,合同会社,長野県,上伊那郡箕輪町,大字中箕輪１８５０,,20,383,3994601,,,,,,,2022-10-17,1,,,,,ミナミミノワファーム,0
999,4120001249587,新規,0,2022-10-17,2022-10-17,株式会社Ｎ．ｅｘ．Ｔ,,株式会社,大阪府,大阪市西区,阿波座１丁目５番８号畑ビル２Ｆ,,27,106,5500011,,,,,,,2022-10-17,1,,,,,ネクスティ,0
1000,4120003022686,新規,0,2022-10-17,2022-10-17,合同会社ＴＳ企画,,合同会社,大阪府,寝屋川市,高柳１丁目１１番８号,,27,215,5720051,,,,,,,2022-10-17,1,,,,,ティエスキカク,0
1001,4120101066379,新規,0,2022-10-17,2022-10-17,株式会社ＰＫ　ＩＮＴＥＲＮＡＴＩＯＮＡＬ,,株式会社,大阪府,富田林市,錦織東２丁目１０番５号グランドコーポ錦３０３号室,,27,214,5840069,,,,,,,2022-10-17,1,,,,,ピーケーインターナショナル,0
1002,4120101066387,新規,0,2022-10-17,2022-10-17,株式会社ＫＯＡ,,株式会社,大阪府,堺市北区,東上野芝町２丁３３１番地２１,,27,146,5918035,,,,,,,2022-10-17,1,,,,,コア,0
1015,4130001072807,新規,0,2022-10-17,2022-10-17,ＫＡＺＵガラス工業株式会社,,株式会社,京都府,宇治市,宇治米阪２１番地の３,,26,204,6110021,,,,,,,2022-10-17,1,,,,,カズガラスコウギョウ,0
1016,4130001072831,新規,0,2022-10-17,2022-10-17,株式会社ＭＡ‐ＳＡ,,株式会社,京都府,京田辺市,同志社山手４丁目５番１０１,,26,211,6100315,,,,,,,2022-10-17,1,,,,,マーサ,0
1024,4140001127683,新規,0,2022-10-17,2022-10-17,ロンメディック株式会社,,株式会社,兵庫県,神戸市中央区,元町通４丁目４番８号タイムスビル７Ｆ,,28,110,6500022,,,,,,,2022-10-17,1,,,,,ロンメディック,0
1025,4140001127733,新規,0,2022-10-17,2022-10-17,株式会社Ａｌｏｈａ　ｈｏｍｅ,,株式会社,兵庫県,神戸市東灘区,深江北町３丁目３－１徳風マンション２０６号室,,28,101,6580013,,,,,,,2022-10-17,1,,,,,アロハホーム,0
1026,4140003018245,新規,0,2022-10-17,2022-10-17,合同会社ＵＷ,,合同会社,兵庫県,神戸市東灘区,向洋町中７丁目２－１－５－４０３,,28,101,6580032,,,,,,,2022-10-17,1,,,,,ユーダブリュー,0
1034,4160003002701,新規,0,2022-10-17,2022-10-17,ＣＯＭＰＡＳＳ合同会社,,合同会社,滋賀県,草津市,追分南２丁目８番２６号,,25,206,5250048,,,,,,,2022-10-17,1,,,,,コンパス,0
1043,4180001153346,新規,0,2022-10-17,2022-10-17,株式会社はなホールディングス,,株式会社,愛知県,名古屋市中区,丸の内１丁目５番２８号伊藤忠丸の内ビル８階,,23,106,4600002,,,,,,,2022-10-17,1,,,,,ハナホールディングス,0
1044,4180001153387,新規,0,2022-10-17,2022-10-17,株式会社ＣＥＮＴＯ　ＡＮＮＩ,,株式会社,愛知県,名古屋市千種区,末盛通５丁目１３番地,,23,101,4640821,,,,,,,2022-10-17,1,,,,,チェントアンニ,0
1045,4180001153420,新規,0,2022-10-17,2022-10-17,株式会社ＪＭＤＩ,,株式会社,愛知県,名古屋市千種区,田代町字岩谷３８番地の３４,,23,101,4640053,,,,,,,2022-10-17,1,,,,,ジェイエムディーアイ,0
1046,4180001153429,新規,0,2022-10-17,2022-10-17,株式会社ランドシー,,株式会社,愛知県,名古屋市北区,大曽根３丁目１０番７号,,23,103,4620825,,,,,,,2022-10-17,1,,,,,ランドシー,0
1047,4180001153445,新規,0,2022-10-17,2022-10-17,株式会社ＭＥＶＩＵＳ,,株式会社,愛知県,尾張旭市,旭台３丁目７番地５,,23,226,4880001,,,,,,,2022-10-17,1,,,,,メビウス,0
1052,4180003024363,新規,0,2022-10-17,2022-10-17,自在快発合同会社,,合同会社,愛知県,長久手市,下川原１番地１３,,23,238,4801137,,,,,,,2022-10-17,1,,,,,ジザイカイハツ,0
1054,4180005019972,新規,0,2022-10-17,2022-10-17,行政書士法人善,,その他の設立登記法人,愛知県,名古屋市北区,辻町２丁目６９番地の６,,23,103,4620032,,,,,,,2022-10-17,1,,,,,ゼン,0
1062,4200003005708,新規,0,2022-10-17,2022-10-17,合同会社柴田保険事務所,,合同会社,岐阜県,加茂郡坂祝町,黒岩１０８１番地,,21,501,5050071,,,,,,,2022-10-17,1,,,,,シバタホケンジムショ,0
1066,4240001060511,新規,0,2022-10-17,2022-10-17,国際人材支援株式会社,,株式会社,広島県,福山市,松永町５丁目７番３０号,,34,207,7290104,,,,,,,2022-10-17,1,,,,,コクサイジンザイシエン,0
1068,4240003005852,新規,0,2022-10-17,2022-10-17,合同会社ＫＵＴ,,合同会社,広島県,広島市中区,大手町１丁目７番２１号,,34,101,7300051,,,,,,,2022-10-17,1,,,,,ケーユーティー,0
1075,4260003004068,新規,0,2022-10-17,2022-10-17,合同会社せとうちトレード,,合同会社,岡山県,岡山市北区,大安寺東町１番７－１号,,33,101,7000063,,,,,,,2022-10-17,1,,,,,セトウチトレード,0
1083,4290003013074,新規,0,2022-10-17,2022-10-17,合同会社ビクトール,,合同会社,福岡県,福岡市中央区,舞鶴１丁目９番地３６号Ｒマンスリー博多１９　５０３号,,40,133,8100073,,,,,,,2022-10-17,1,,,,,ビクトール,0
1085,4290801028967,新規,0,2022-10-17,2022-10-17,株式会社山水プロモート,,株式会社,福岡県,直方市,大字頓野３７５番地１,,40,204,8220002,,,,,,,2022-10-17,1,,,,,サンスイプロモート,0
1089,4330005010569,新規,0,2022-10-17,2022-10-17,一般社団法人くまもと海のミライ,,その他の設立登記法人,熊本県,熊本市西区,二本木１丁目５番１２号,,43,103,8600051,,,,,,,2022-10-17,1,,,,,クマモトウミノミライ,0
1095,4360003012366,新規,0,2022-10-17,2022-10-17,合同会社森のなか,,合同会社,沖縄県,那覇市,首里当蔵町２丁目１４番地,,47,201,9030812,,,,,,,2022-10-17,1,,,,,モリノナカ,0
1101,4370003005848,新規,0,2022-10-17,2022-10-17,合同会社ゲンキ,,合同会社,宮城県,仙台市青葉区,木町４番１０号植木ハイツＶＩ－２０２,00128158,04,101,9810932,,,,,,,2022-10-17,1,,,,,ゲンキ,0
1102,4370003005864,新規,0,2022-10-17,2022-10-17,合同会社Ｂｅｔｔｙプラス,,合同会社,宮城県,気仙沼市,松崎鶴巻１７３番地１,,04,205,9880144,,,,,,,2022-10-17,1,,,,,ベティプラス,0
1109,4380001033189,新規,0,2022-10-17,2022-10-17,株式会社ＭＡＴＳＵＭＯＴＯ,,株式会社,福島県,伊達市,伏黒字南本場５番地２,,07,213,9600501,,,,,,,2022-10-17,1,,,,,マツモト,0
1110,4380005012635,新規,0,2022-10-17,2022-10-17,医療法人杏順会,,その他の設立登記法人,福島県,いわき市,小名浜林城字塚前１３番地の３,,07,204,9718122,,,,,,,2022-10-17,1,,,,,キョウジュンカイ,0
1115,4420001018037,新規,0,2022-10-17,2022-10-17,株式会社左風雅,,株式会社,青森県,青森市,桜川７丁目１４番５－２号,,02,201,0300945,,,,,,,2022-10-17,1,,,,,サフウガ,0
1118,4430001087642,新規,0,2022-10-17,2022-10-17,恵新ホールディングス株式会社,,株式会社,北海道,小樽市,新光２丁目２０番３３号,,01,203,0470152,,,,,,,2022-10-17,1,,,,,ケイシンホールディングス,0
1121,4430003014388,新規,0,2022-10-17,2022-10-17,合同会社東雲研究所,,合同会社,北海道,札幌市中央区,北二条東１丁目３－３サンマウンテンビル３Ｆ　Ｃｒｅａｔｉｖｅ　Ｌｏｕｎｇｅ　ＳＨＡＲＥ内,,01,101,0600032,,,,,,,2022-10-17,1,,,,,シノノメケンキュウジョ,0
1125,4460101007266,新規,0,2022-10-17,2022-10-17,Ｋ‐ライン株式会社,,株式会社,北海道,中川郡幕別町,札内北栄町５４番地の１２,,01,643,0890537,,,,,,,2022-10-17,1,,,,,ケイライン,0
1143,5010003038874,新規,0,2022-10-17,2022-10-17,多摩インベストメント合同会社,,合同会社,東京都,中央区,日本橋１丁目４番１号,,13,102,1030027,,,,,,,2022-10-17,1,,,,,タマインベストメント,0
1146,5010101015362,新規,0,2022-10-17,2022-10-17,株式会社ＭＰＳ,,株式会社,東京都,八王子市,諏訪町４５６番地５,,13,201,1930812,,,,,,,2022-10-17,1,,,,,エムピーエス,0
1147,5010103002004,新規,0,2022-10-17,2022-10-17,合同会社Ｄ‐ｃｏｌｌｅｃｔｉｏｎ,,合同会社,東京都,八王子市,大和田町５丁目３０番３６号,,13,201,1920045,,,,,,,2022-10-17,1,,,,,ディコレクション,0
1157,5010401170312,新規,0,2022-10-17,2022-10-17,株式会社ＯＮＥＢＩＥＮＴ,,株式会社,東京都,港区,芝４丁目７番６号芝ビルディング７０４,,13,103,1080014,,,,,,,2022-10-17,1,,,,,ワンビエント,0
1159,5010403028707,新規,0,2022-10-17,2022-10-17,合同会社ＳＫＯ,,合同会社,東京都,港区,赤坂３丁目１６番５号ＳＫＲ赤坂ビル４Ｆ,,13,103,1070052,,,,,,,2022-10-17,1,,,,,エスケーオー,0
1160,5010403028715,新規,0,2022-10-17,2022-10-17,合同会社Ｉｄｅｅ,,合同会社,東京都,港区,虎ノ門５丁目１番４号,,13,103,1050001,,,,,,,2022-10-17,1,,,,,イデー,0
1170,5010901051788,新規,0,2022-10-17,2022-10-17,株式会社ＴＨＩＮＫＳＴＨＩＮＫＳ,,株式会社,東京都,世田谷区,松原２丁目３８－９明大前グランドハイツ９０３,,13,112,1560043,,,,,,,2022-10-17,1,,,,,シンクスシンクス,0
1173,5011001150200,新規,0,2022-10-17,2022-10-17,ぺた株式会社,,株式会社,東京都,渋谷区,代々木１丁目３６番１号オダカビル５階,,13,113,1510053,,,,,,,2022-10-17,1,,,,,ペタ,0
1174,5011001150282,新規,0,2022-10-17,2022-10-17,株式会社ＤｉｇｉＭａｎ,,株式会社,東京都,目黒区,原町１丁目３４－１２－２０１,,13,110,1520011,,,,,,,2022-10-17,1,,,,,デジマン,0
1180,5011301028154,新規,0,2022-10-17,2022-10-17,株式会社ＲＭＴデンタルコンシェルジュ,,株式会社,東京都,杉並区,阿佐谷南１丁目３６－１２桑原ビル,,13,115,1660004,,,,,,,2022-10-17,1,,,,,アールエムティデンタルコンシェルジュ,0
1181,5011301028170,新規,0,2022-10-17,2022-10-17,君鼎不動産株式会社,,株式会社,東京都,杉並区,高円寺南２丁目１番４号シャンボール新高円寺４０４号室,,13,115,1660003,,,,,,,2022-10-17,1,,,,,クンテイフドウサン,0
1190,5011601026287,新規,0,2022-10-17,2022-10-17,株式会社隆豊ホールディングス,,株式会社,東京都,練馬区,春日町３丁目３１番１７号ラフィーネ春日町２階,,13,120,1790074,,,,,,,2022-10-17,1,,,,,リュウホウホールディングス,0
1195,5011703003283,新規,0,2022-10-17,2022-10-17,合同会社Ｆｕｌｌ　Ｂｅｔ,,合同会社,東京都,江戸川区,中葛西５丁目３５番８－４０３号アパートメントけやき通り中葛西,,13,123,1340083,,,,,,,2022-10-17,1,,,,,,0
1197,5012401039751,新規,0,2022-10-17,2022-10-17,株式会社ＫＡＮＧＥＮ　Ｈｏｌｄｉｎｇｓ,,株式会社,東京都,調布市,富士見町３丁目２１番地３,,13,208,1820033,,,,,,,2022-10-17,1,,,,,カンゲンホールディングス,0
1202,5020001148393,新規,0,2022-10-17,2022-10-17,Ｇｒｅｅｎｈｉｌｌｓ株式会社,,株式会社,神奈川県,横浜市中区,千代崎町４丁目９１番地１ベルヴィルＢ号室,,14,104,2310864,,,,,,,2022-10-17,1,,,,,グリーンヒルズ,0
1203,5020001148591,新規,0,2022-10-17,2022-10-17,新日本総合建設株式会社,,株式会社,神奈川県,横浜市南区,別所１丁目３番３１号静心ビル１階,,14,105,2320064,,,,,,,2022-10-17,1,,,,,シンニホンソウゴウケンセツ,0
1208,5020003022547,新規,0,2022-10-17,2022-10-17,合同会社ＬＩＥＮ,,合同会社,神奈川県,川崎市高津区,千年４３７番８号,,14,134,2130022,,,,,,,2022-10-17,1,,,,,リエン,0
1213,5021003012257,新規,0,2022-10-17,2022-10-17,合同会社Ｆｏｃｕｓ,,合同会社,神奈川県,平塚市,明石町１２番２１号Ｓｉｍｓビル４－Ｂ,,14,203,2540042,,,,,,,2022-10-17,1,,,,,フォーカス,0
1224,5030001150605,新規,0,2022-10-17,2022-10-17,株式会社ＳＩ創建,,株式会社,埼玉県,さいたま市大宮区,堀の内町３丁目２４７番地１,,11,103,3300804,,,,,,,2022-10-17,1,,,,,エスアイソウケン,0
1229,5030003020244,新規,0,2022-10-17,2022-10-17,ＧＲＡＢ合同会社,,合同会社,埼玉県,新座市,新堀２丁目１６―１７新清瀬ビル２０１,,11,230,3520032,,,,,,,2022-10-17,1,,,,,グラブ,0
1240,5050001051826,新規,0,2022-10-17,2022-10-17,株式会社デジタルファシリテーション研究所,,株式会社,茨城県,土浦市,港町２丁目８番２２－８０３号マリーナガーデン土浦,,08,203,3000034,,,,,,,2022-10-17,1,,,,,デジタルファシリテーションケンキュウジョ,0
1241,5050003006919,新規,0,2022-10-17,2022-10-17,合同会社トゥルシー,,合同会社,茨城県,常総市,水海道宝町２７３６番地２（２階）,,08,211,3030023,,,,,,,2022-10-17,1,,,,,トゥルシー,0
1242,5060001035332,新規,0,2022-10-17,2022-10-17,カンチャン株式会社,,株式会社,栃木県,宇都宮市,東宿郷２丁目１６番１８号タカヲイン１０３号,,09,201,3210953,,,,,,,2022-10-17,1,,,,,カンチャン,0
1243,5060001035349,新規,0,2022-10-17,2022-10-17,株式会社ＳＨＩＢＡグループホールディングス,,株式会社,栃木県,栃木市,大平町横堀１番地１,,09,203,3294411,,,,,,,2022-10-17,1,,,,,シバグループホールディングス,0
1253,5090001017815,新規,0,2022-10-17,2022-10-17,株式会社タチカワ,,株式会社,山梨県,西八代郡市川三郷町,高田５３４番地,,19,346,4093606,,,,,,,2022-10-17,1,,,,,タチカワ,0
1262,5110001037042,新規,0,2022-10-17,2022-10-17,株式会社宏偉商事,,株式会社,新潟県,上越市,柿崎区馬正面１２５０－２０,,15,222,9493214,,,,,,,2022-10-17,1,,,,,コウイショウジ,0
1271,5120001249611,新規,0,2022-10-17,2022-10-17,株式会社ＹＫベーキングカンパニー,,株式会社,大阪府,大阪市東淀川区,豊新２丁目１６番１４号,,27,114,5330014,,,,,,,2022-10-17,1,,,,,ワイケイベーキングカンパニー,0
1272,5120003022652,新規,0,2022-10-17,2022-10-17,Ｇ＆Ｋ合同会社,,合同会社,大阪府,大阪市中央区,松屋町１０番１８号４階,,27,128,5420067,,,,,,,2022-10-17,1,,,,,ジーアンドケイ,0
1273,5120003022685,新規,0,2022-10-17,2022-10-17,創禾合同会社,,合同会社,大阪府,大阪市浪速区,日本橋４丁目５番１８号アーバンコート日本橋３０４号室,,27,111,5560005,,,,,,,2022-10-17,1,,,,,ソウカ,0
1280,5120101066378,新規,0,2022-10-17,2022-10-17,株式会社ＳＥ　ｓｅｒｖｉｃｅ,,株式会社,大阪府,堺市美原区,多治井２５３番地１,,27,147,5870012,,,,,,,2022-10-17,1,,,,,エスイーサービス,0
1281,5120103004889,新規,0,2022-10-17,2022-10-17,Ｏ．Ｂ．Ｃ．Ｓ合同会社,,合同会社,大阪府,和泉市,伯太町４丁目２番３３号,,27,219,5940023,,,,,,,2022-10-17,1,,,,,オービーシーエス,0
1283,5122003002436,新規,0,2022-10-17,2022-10-17,合同会社サロン寿恵,,合同会社,大阪府,大東市,寺川５丁目９番４号,,27,218,5740014,,,,,,,2022-10-17,1,,,,,サロンスエ,0
1286,5130001072806,新規,0,2022-10-17,2022-10-17,株式会社樋口鐵工,,株式会社,京都府,京都市南区,唐橋堂ノ前町２２番地の３,,26,107,6018452,,,,,,,2022-10-17,1,,,,,ヒグチテッコウ,0
1287,5130001072814,新規,0,2022-10-17,2022-10-17,日本ホームインスペクション株式会社,,株式会社,京都府,京都市中京区,押小路通東洞院西入船屋町４００番地,,26,104,6040836,,,,,,,2022-10-17,1,,,,,ニホンホームインスペクション,0
1288,5130001072847,新規,0,2022-10-17,2022-10-17,Ｋａｔｒｕｓ株式会社,,株式会社,京都府,京都市中京区,御池通東洞院東入笹屋町４３６永和御池ビル内,,26,104,6048187,,,,,,,2022-10-17,1,,,,,カトラス,0
1290,5130003008246,新規,0,2022-10-17,2022-10-17,合同会社Ｓａｎｔｕａｒｉｏ,,合同会社,京都府,京都市伏見区,深草西伊達町８７－９２,,26,109,6120876,,,,,,,2022-10-17,1,,,,,サントゥアリオ,0
1293,5140003018244,新規,0,2022-10-17,2022-10-17,合同会社水元不動産,,合同会社,兵庫県,神戸市灘区,高徳町６丁目２－１７,,28,102,6570025,,,,,,,2022-10-17,1,,,,,ミズモトフドウサン,0
1307,5180001153403,新規,0,2022-10-17,2022-10-17,株式会社美勝,,株式会社,愛知県,小牧市,大字大草５５７３－１,,23,219,4850802,,,,,,,2022-10-17,1,,,,,ビショウ,0
1308,5180001153428,新規,0,2022-10-17,2022-10-17,株式会社デイライト,,株式会社,愛知県,名古屋市緑区,太子１丁目１４８番地,,23,114,4580823,,,,,,,2022-10-17,1,,,,,デイライト,0
1309,5180001153436,新規,0,2022-10-17,2022-10-17,株式会社コンフィアンスグループ,,株式会社,愛知県,あま市,森６丁目１５番地２３,,23,237,4901107,,,,,,,2022-10-17,1,,,,,コンフィアンスグループ,0
1310,5180001153452,新規,0,2022-10-17,2022-10-17,株式会社イナレッジ,,株式会社,愛知県,名古屋市中川区,広田町１丁目１番地アベニュー青山５０２号,,23,110,4540867,,,,,,,2022-10-17,1,,,,,イナレッジ,0
1314,5180003024370,新規,0,2022-10-17,2022-10-17,合同会社鈴山の森,,合同会社,愛知県,名古屋市中区,新栄３丁目３－５－１３０２,,23,106,4600007,,,,,,,2022-10-17,1,,,,,スズヤマノモリ,0
1324,5190005011746,新規,0,2022-10-17,2022-10-17,一般社団法人海と日本プロジェクトｉｎ三重県,,その他の設立登記法人,三重県,津市,渋見町６９３番地１,,24,201,5140063,,,,,,,2022-10-17,1,,,,,ウミトニホンプロジェクトインミエケン,0
1329,5220001025093,新規,0,2022-10-17,2022-10-17,能美岡田商事株式会社,,株式会社,石川県,能美市,舘町１００番地,,17,211,9231215,,,,,,,2022-10-17,1,,,,,ノミオカダショウジ,0
1335,5240001060502,新規,0,2022-10-17,2022-10-17,和心産業株式会社,,株式会社,広島県,広島市南区,西旭町１１番３号,,34,103,7340002,,,,,,,2022-10-17,1,,,,,ワゴコロサンギョウ,0
1337,5250001019811,新規,0,2022-10-17,2022-10-17,株式会社エスカリエ,,株式会社,山口県,岩国市,海土路町２丁目５３番２４号,,35,208,7400035,,,,,,,2022-10-17,1,,,,,エスカリエ,0
1341,5260003004067,新規,0,2022-10-17,2022-10-17,合同会社Ｋラインワークス,,合同会社,岡山県,岡山市東区,可知５丁目１４―６７,,33,103,7048173,,,,,,,2022-10-17,1,,,,,ケイラインワークス,0
1346,5290001099239,新規,0,2022-10-17,2022-10-17,株式会社ＥＮＥＲＡＬＬ,,株式会社,福岡県,福岡市中央区,長浜３丁目１６番６－１００２,,40,133,8100072,,,,,,,2022-10-17,1,,,,,エネラル,0
1347,5290001099247,新規,0,2022-10-17,2022-10-17,株式会社讃井Ｌａｂ,,株式会社,福岡県,福岡市城南区,飯倉１丁目３番１９号,,40,136,8140134,,,,,,,2022-10-17,1,,,,,サヌイラボ,0
1352,5290803004230,新規,0,2022-10-17,2022-10-17,ひかり合同会社,,合同会社,福岡県,田川郡福智町,金田６４０－７,,40,610,8221201,,,,,,,2022-10-17,1,,,,,ヒカリ,0
1356,5320001019382,新規,0,2022-10-17,2022-10-17,株式会社イージーディー,,株式会社,大分県,大分市,府内町１丁目５－１１安達ビル１階,,44,201,8700021,,,,,,,2022-10-17,1,,,,,イージーディー,0
1360,5350001017994,新規,0,2022-10-17,2022-10-17,株式会社ＯＮＥ　ＣＯＶＥＲ,,株式会社,宮崎県,宮崎市,江平西２丁目１番４９号１Ｆ,,45,201,8800051,,,,,,,2022-10-17,1,,,,,ワンカバー,0
1362,5360003012381,新規,0,2022-10-17,2022-10-17,ＭＭＲ合同会社,,合同会社,沖縄県,中頭郡北中城村,字ライカム５４６番地フレスコアザ・ライカム９０１,,47,327,9012306,,,,,,,2022-10-17,1,,,,,ミマアール,0
1363,5370003005863,新規,0,2022-10-17,2022-10-17,田子小国風力発電合同会社,,合同会社,宮城県,仙台市青葉区,本町１丁目７番１号,,04,101,9800014,,,,,,,2022-10-17,1,,,,,タッコオグニフウリョクハツデン,0
1370,5380005012634,新規,0,2022-10-17,2022-10-17,一般社団法人災害準備研究所,,その他の設立登記法人,福島県,福島市,飯坂町字錦町１番地の１１,,07,201,9600201,,,,,,,2022-10-17,1,,,,,サイガイジュンビケンキュウショ,0
1372,5420001018036,新規,0,2022-10-17,2022-10-17,株式会社ＭｅＷ,,株式会社,青森県,青森市,西大野３丁目１３番地７,,02,201,0300856,,,,,,,2022-10-17,1,,,,,ミュー,0
1376,5430001087641,新規,0,2022-10-17,2022-10-17,株式会社モノミテラス,,株式会社,北海道,札幌市西区,西野四条１０丁目８番１号,,01,107,0630034,,,,,,,2022-10-17,1,,,,,モノミテラス,0
1382,5430003014362,新規,0,2022-10-17,2022-10-17,八福合同会社,,合同会社,北海道,札幌市中央区,双子山１丁目１０番４４号,,01,101,0640946,,,,,,,2022-10-17,1,,,,,ハチフク,0
1383,5450003002258,新規,0,2022-10-17,2022-10-17,合同会社ＫＳＡ,,合同会社,北海道,士別市,西三条３丁目２番３８号,,01,220,0950023,,,,,,,2022-10-17,1,,,,,ケーエスエー,0
1396,6010001230151,新規,0,2022-10-17,2022-10-17,株式会社Ｊ２Ｋ　Ｉｎｖｅｓｔｍｅｎｔ,,株式会社,東京都,千代田区,麹町２丁目６－７ＳｔａｒＢｕｉｌｄｉｎｇ５階,,13,101,1020083,,,,,,,2022-10-17,1,,,,,ジェイトゥーケイインベストメント,0
1400,6010005035679,新規,0,2022-10-17,2022-10-17,一般社団法人ＳＲＥＷＦ,,その他の設立登記法人,東京都,中央区,日本橋１丁目４番１号,,13,102,1030027,,,,,,,2022-10-17,1,,,,,エスアールイーダブリューエフ,0
1406,6010401170303,新規,0,2022-10-17,2022-10-17,Ｗａｌｓｔａｒ株式会社,,株式会社,東京都,港区,南青山２丁目２－１５ウィン青山９４２,,13,103,1070062,,,,,,,2022-10-17,1,,,,,ウォルスター,0
1407,6010401170311,新規,0,2022-10-17,2022-10-17,株式会社メタ・メタル，東京,,株式会社,東京都,港区,港南２丁目１６番２号,,13,103,1080075,,,,,,,2022-10-17,1,,,,,メタメタルトウキョウ,0
1411,6010403028714,新規,0,2022-10-17,2022-10-17,ダイモスインフラファンド合同会社,,合同会社,東京都,港区,虎ノ門３丁目２２番１０－２０１号,,13,103,1050001,,,,,,,2022-10-17,1,,,,,ダイモスインフラファンド,0
1415,6010601062003,新規,0,2022-10-17,2022-10-17,アスクトレード株式会社,,株式会社,東京都,江東区,海辺２２番１５号,,13,108,1350012,,,,,,,2022-10-17,1,,,,,アスクトレード,0
1418,6010701043332,新規,0,2022-10-17,2022-10-17,株式会社ａｎｏｎｅ,,株式会社,東京都,品川区,西品川１丁目２番１－１５０８号,,13,109,1410033,,,,,,,2022-10-17,1,,,,,アンワン,0
1422,6010901051787,新規,0,2022-10-17,2022-10-17,株式会社鼓動,,株式会社,東京都,世田谷区,池尻４丁目８－２５コンフォリア駒場１１６,,13,112,1540001,,,,,,,2022-10-17,1,,,,,コドウ,0
1424,6010903007721,新規,0,2022-10-17,2022-10-17,合同会社ＧＩＯＮＡ松本,,合同会社,東京都,世田谷区,下馬１丁目４４番１０号,,13,112,1540002,,,,,,,2022-10-17,1,,,,,ジオナマツモト,0
1429,6011001150133,新規,0,2022-10-17,2022-10-17,株式会社ＣＲＥＡＲＣ,,株式会社,東京都,渋谷区,恵比寿２丁目１８番１０号,,13,113,1500013,,,,,,,2022-10-17,1,,,,,クレアーク,0
1430,6011001150141,新規,0,2022-10-17,2022-10-17,株式会社ｍｏｎｃｈｅｒｉ,,株式会社,東京都,渋谷区,千駄ヶ谷３丁目５１番１０号ＰＯＴＡＬＰＯＩＮＴＨＡＲＡＪＵＫＵＦＤ－２８,,13,113,1510051,,,,,,,2022-10-17,1,,,,,モンシェリ,0
1431,6011001150307,新規,0,2022-10-17,2022-10-17,株式会社ｍｏｍｏｃｒｉ,,株式会社,東京都,渋谷区,渋谷２丁目１９－１５宮益坂ビルディング６０９,,13,113,1500002,,,,,,,2022-10-17,1,,,,,モモクリ,0
1432,6011001150315,新規,0,2022-10-17,2022-10-17,ＭＥＬＬＯＷＳＢａｙ株式会社,,株式会社,東京都,渋谷区,渋谷２丁目２４－１２渋谷スクランブルスクエア,,13,113,1500002,,,,,,,2022-10-17,1,,,,,メロウズベイ,0
1439,6011301028153,新規,0,2022-10-17,2022-10-17,デルモ・キャピタル株式会社,,株式会社,東京都,杉並区,松ノ木２丁目４番１２－２０７号,,13,115,1660014,,,,,,,2022-10-17,1,,,,,デルモキャピタル,0
1443,6011503005322,新規,0,2022-10-17,2022-10-17,合同会社アキ・デザイン・ストアー,,合同会社,東京都,北区,王子５丁目２番２－５４４号,,13,117,1140002,,,,,,,2022-10-17,1,,,,,アキデザインストアー,0
1445,6011601026303,新規,0,2022-10-17,2022-10-17,株式会社アネスティ,,株式会社,東京都,練馬区,関町北５丁目１６番３４－１０５号,,13,120,1770051,,,,,,,2022-10-17,1,,,,,アネスティ,0
1449,6011701025700,新規,0,2022-10-17,2022-10-17,株式会社Ｔｅ＆Ｍｅ,,株式会社,東京都,江戸川区,南小岩６丁目２８番１４号,,13,123,1330056,,,,,,,2022-10-17,1,,,,,テトメ,0
1452,6012401039742,新規,0,2022-10-17,2022-10-17,株式会社傘屋,,株式会社,東京都,調布市,東つつじケ丘２丁目５番地３,,13,208,1820005,,,,,,,2022-10-17,1,,,,,カサヤ,0
1455,6012803002901,新規,0,2022-10-17,2022-10-17,合同会社ＲＥ．ＣＵＢＥ,,合同会社,東京都,東大和市,奈良橋６丁目８７７番地の５ラプラージュ２０２号,,13,220,2070031,,,,,,,2022-10-17,1,,,,,リキューブ,0
1470,6020001148599,新規,0,2022-10-17,2022-10-17,株式会社ニム,,株式会社,神奈川県,横浜市西区,宮崎町５８番地１グランドメゾン伊勢山５０９号,,14,103,2200031,,,,,,,2022-10-17,1,,,,,ニム,0
1481,6021001077193,新規,0,2022-10-17,2022-10-17,株式会社Ｒｉｎｅ,,株式会社,神奈川県,鎌倉市,大船１丁目１２番１０号湘南第５ビル４階,,14,204,2470056,,,,,,,2022-10-17,1,,,,,リーヌ,0
1495,6030001150505,新規,0,2022-10-17,2022-10-17,株式会社ゼロポイントフィールド,,株式会社,埼玉県,幸手市,大字円藤内２７７番地２,,11,240,3400104,,,,,,,2022-10-17,1,,,,,ゼロポイントフィールド,0
1496,6030001150546,新規,0,2022-10-17,2022-10-17,ラクダ通商株式会社,,株式会社,埼玉県,新座市,野火止１丁目１６－１３－２０４,,11,230,3520011,,,,,,,2022-10-17,1,,,,,ラクダツウショウ,0
1504,6040001125448,新規,0,2022-10-17,2022-10-17,株式会社ＡＸＩＳ．ｏｎｅ,,株式会社,千葉県,流山市,野々下３丁目７５４番地の４５,,12,220,2700135,,,,,,,2022-10-17,1,,,,,アクシスワン,0
1508,6040003020985,新規,0,2022-10-17,2022-10-17,合同会社天海,,合同会社,千葉県,市川市,原木１丁目３番２－４０５号原木中山ファミールハイツ２号館,,12,203,2720004,,,,,,,2022-10-17,1,,,,,アマミ,0
1512,6050001051817,新規,0,2022-10-17,2022-10-17,株式会社関東メンテナンス,,株式会社,茨城県,古河市,中田１６０９番地２ル・トレフル１０２号室,,08,204,3060053,,,,,,,2022-10-17,1,,,,,カントウメンテナンス,0
1520,6060001035364,新規,0,2022-10-17,2022-10-17,株式会社アイランドヒルズ,,株式会社,栃木県,宇都宮市,曲師町３番８号アーバンビル３Ｆ,,09,201,3200803,,,,,,,2022-10-17,1,,,,,アイランドヒルズ,0
1526,6060003004268,新規,0,2022-10-17,2022-10-17,ＫＲＩＳＨＮＡ　ＩＮＴＥＲＮＡＴＩＯＮＡＬ合同会社,,合同会社,栃木県,小山市,大字神鳥谷９３４番地７ＥｍｅｒａｌｄＧａｒｄｅｎ小山３０４,,09,208,3230827,,,,,,,2022-10-17,1,,,,,クリスナインターナショナル,0
1534,6080001025248,新規,0,2022-10-17,2022-10-17,坂政商店株式会社,,株式会社,静岡県,静岡市清水区,北脇５８０番地の１０,,22,103,4240052,,,,,,,2022-10-17,1,,,,,サカマサショウテン,0
1538,6080401026102,新規,0,2022-10-17,2022-10-17,株式会社ＦＲＥＥ　ＣＩＴＹ,,株式会社,静岡県,浜松市南区,中田島町１４０５番地,,22,134,4300845,,,,,,,2022-10-17,1,,,,,フリーシティー,0
1553,6120001249461,新規,0,2022-10-17,2022-10-17,株式会社ピーホールド,,株式会社,大阪府,大阪市北区,堂島１丁目５番１７号,,27,127,5300003,,,,,,,2022-10-17,1,,,,,ピーホールド,0
1554,6120001249569,新規,0,2022-10-17,2022-10-17,中西運送株式会社,,株式会社,大阪府,大阪市港区,市岡元町１丁目１番３４号原田ビル４０１号,,27,107,5520002,,,,,,,2022-10-17,1,,,,,ナカニシウンソウ,0
1567,6130003008237,新規,0,2022-10-17,2022-10-17,福源合同会社,,合同会社,京都府,船井郡京丹波町,蒲生蒲生野２３５番地１、２０１号,,26,407,6220214,,,,,,,2022-10-17,1,,,,,フクゲン,0
1570,6140001127731,新規,0,2022-10-17,2022-10-17,株式会社ブロッサム,,株式会社,兵庫県,尼崎市,東難波町４丁目１６番１－２１３号,,28,202,6600892,,,,,,,2022-10-17,1,,,,,ブロッサム,0
1590,6180001153402,新規,0,2022-10-17,2022-10-17,株式会社ユニシード,,株式会社,愛知県,名古屋市中区,栄３丁目８番２１号,,23,106,4600008,,,,,,,2022-10-17,1,,,,,ユニシード,0
1591,6180001153410,新規,0,2022-10-17,2022-10-17,株式会社ＳＡ開発,,株式会社,愛知県,名古屋市中村区,名駅２丁目４１番１０号アストラーレ名駅７Ｆ,,23,105,4500002,,,,,,,2022-10-17,1,,,,,エスエーカイハツ,0
1592,6180001153427,新規,0,2022-10-17,2022-10-17,株式会社Ｌａｕｌｅ’ａ　ｇａｒｄｅｎ,,株式会社,愛知県,名古屋市西区,名駅２丁目３４番１７号セントラル名古屋１１０１号,,23,104,4510045,,,,,,,2022-10-17,1,,,,,ラウレアガーデン,0
1598,6180003024353,新規,0,2022-10-17,2022-10-17,合同会社しろくま工房,,合同会社,愛知県,名古屋市天白区,元植田１丁目１０４番地９０２,,23,116,4680009,,,,,,,2022-10-17,1,,,,,シロクマコウボウ,0
1599,6180003024378,新規,0,2022-10-17,2022-10-17,山田リース合同会社,,合同会社,愛知県,名古屋市名東区,平和が丘２丁目２２３番地,,23,115,4650097,,,,,,,2022-10-17,1,,,,,ヤマダリース,0
1603,6180301036736,新規,0,2022-10-17,2022-10-17,株式会社ｓｍｉｌｅｍｅｅ,,株式会社,愛知県,西尾市,八ケ尻町郷中１０１番地２,,23,213,4450884,,,,,,,2022-10-17,1,,,,,スマイルミー,0
1613,6220001025092,新規,0,2022-10-17,2022-10-17,株式会社ｓｔｙｌｅ‐ｆ,,株式会社,石川県,金沢市,高尾台１丁目３５２番地（ヌーベルハイツ・１０１）,,17,201,9218155,,,,,,,2022-10-17,1,,,,,スタイルエフ,0
1616,6240001060518,新規,0,2022-10-17,2022-10-17,株式会社Ｋｉｃｋ　Ｉｔ,,株式会社,広島県,広島市東区,光町２丁目１２番３０－７０３号,,34,102,7320052,,,,,,,2022-10-17,1,,,,,キキット,0
1617,6240003005850,新規,0,2022-10-17,2022-10-17,合同会社Ｆ．Ｈ．Ｌ,,合同会社,広島県,広島市中区,鉄砲町５番２－４０１号,,34,101,7300017,,,,,,,2022-10-17,1,,,,,エフエイチエル,0
1619,6250003003168,新規,0,2022-10-17,2022-10-17,Ｈａｐｐｉｎｇ合同会社,,合同会社,山口県,防府市,栄町１丁目７番１１－５０５号,,35,206,7470035,,,,,,,2022-10-17,1,,,,,ハッピング,0
1630,6290003013064,新規,0,2022-10-17,2022-10-17,合同会社ＪＡＭ,,合同会社,福岡県,福岡市早良区,西新４丁目６番１２－７０５号レジディア西新,,40,137,8140002,,,,,,,2022-10-17,1,,,,,ジャム,0
1631,6290003013072,新規,0,2022-10-17,2022-10-17,オレンジ合同会社,,合同会社,福岡県,福岡市南区,横手３丁目１７番２５－１０２号,,40,134,8111311,,,,,,,2022-10-17,1,,,,,オレンジ,0
1634,6310003004465,新規,0,2022-10-17,2022-10-17,合同会社漁馬,,合同会社,長崎県,対馬市,上対馬町大浦１１番地３４,,42,209,8171722,,,,,,,2022-10-17,1,,,,,リョウマ,0
1640,6360001031069,新規,0,2022-10-17,2022-10-17,株式会社ＳＯＯＮＥＳＳ　ＨＯＵＳＩＮＧ,,株式会社,沖縄県,沖縄市,胡屋７丁目６番１号,,47,211,9040021,,,,,,,2022-10-17,1,,,,,ソーネスハウジング,0
1642,6360003012372,新規,0,2022-10-17,2022-10-17,合同会社ｔｈａｔ’ｓ　ｌｉｆｅ,,合同会社,沖縄県,中頭郡読谷村,字渡具知１５３番地１,,47,324,9040315,,,,,,,2022-10-17,1,,,,,ザッツライフ,0
1643,6370001049143,新規,0,2022-10-17,2022-10-17,スターチスｒｅｉ株式会社,,株式会社,宮城県,柴田郡大河原町,字西桜町８番５,,04,321,9891273,,,,,,,2022-10-17,1,,,,,スターチスレイ,0
1646,6380001033187,新規,0,2022-10-17,2022-10-17,株式会社シャルズム,,株式会社,福島県,郡山市,横塚６丁目１番６号,,07,203,9638803,,,,,,,2022-10-17,1,,,,,シャルズム,0
1651,6410001013301,新規,0,2022-10-17,2022-10-17,株式会社本荘ビルド,,株式会社,秋田県,由利本荘市,二番堰１４７番地５,,05,210,0150855,,,,,,,2022-10-17,1,,,,,ホンジョウビルド,0
1657,6430001087657,新規,0,2022-10-17,2022-10-17,株式会社Ｂ．Ｈ．Ｅｌｅｃｔｒｉｃｉｔｙ,,株式会社,北海道,札幌市北区,太平九条２丁目３番３４号,,01,102,0028009,,,,,,,2022-10-17,1,,,,,ビーエイチエレクトリシティー,0
1659,6430003014329,新規,0,2022-10-17,2022-10-17,ＢＥＡＵＳＥＬＦ合同会社,,合同会社,北海道,札幌市東区,北三十二条東１７丁目３番９‐３０１号,,01,103,0650032,,,,,,,2022-10-17,1,,,,,ビューセルフ,0
1660,6430003014361,新規,0,2022-10-17,2022-10-17,合同会社幸せの虹つなぐ,,合同会社,北海道,札幌市豊平区,西岡四条７丁目１－４０号コーポマリ１Ｆ,,01,105,0620034,,,,,,,2022-10-17,1,,,,,シアワセノニジツナグ,0
1664,6500005008528,新規,0,2022-10-17,2022-10-17,一般社団法人ウィンダムファーム,,その他の設立登記法人,愛媛県,上浮穴郡久万高原町,二名１４８６番地２,,38,386,7911222,,,,,,,2022-10-17,1,,,,,ウィンダムファーム,0
1675,7010001230134,新規,0,2022-10-17,2022-10-17,ＦＩＲＳＴ　ＳＴＥＰ株式会社,,株式会社,東京都,千代田区,西神田２丁目５番６号中西ビル４階,,13,101,1010065,,,,,,,2022-10-17,1,,,,,ファーストステップ,0
1676,7010001230142,新規,0,2022-10-17,2022-10-17,株式会社ＳＵＮＣＯＲＥ,,株式会社,東京都,中央区,銀座１丁目２２番１１号銀座大竹ビジデンス２階,,13,102,1040061,,,,,,,2022-10-17,1,,,,,サンコア,0
1677,7010001230150,新規,0,2022-10-17,2022-10-17,株式会社Ｔｅａｍ　ｗｈｉｔｅ　ｂｏａｒｄ,,株式会社,東京都,中央区,日本橋小舟町２番１１号２階,,13,102,1030024,,,,,,,2022-10-17,1,,,,,チームホワイトボード,0
1684,7010401170302,新規,0,2022-10-17,2022-10-17,株式会社ｒｅｓｏｎａ教育研究所,,株式会社,東京都,港区,芝浦２丁目８番３号エスティメゾン芝浦９０１,,13,103,1080023,,,,,,,2022-10-17,1,,,,,レソナキョウイクケンキュウジョ,0
1687,7010501049504,新規,0,2022-10-17,2022-10-17,株式会社オハナケア,,株式会社,東京都,台東区,根岸３丁目１番１６ー９０１号ラウレア,,13,106,1100003,,,,,,,2022-10-17,1,,,,,オハナケア,0
1688,7010503006759,新規,0,2022-10-17,2022-10-17,合同会社第十三補給基地,,合同会社,東京都,台東区,谷中２丁目１４番４号,,13,106,1100001,,,,,,,2022-10-17,1,,,,,ダイジュウサンホキュウキチ,0
1689,7010703006419,新規,0,2022-10-17,2022-10-17,合同会社アンズカンパニー,,合同会社,東京都,品川区,西五反田４丁目３０番１１号桜坂メゾン１階,,13,109,1410031,,,,,,,2022-10-17,1,,,,,アンズカンパニー,0
1691,7010801033356,新規,0,2022-10-17,2022-10-17,ＩＴ研究所株式会社,,株式会社,東京都,大田区,池上６丁目１３番２号,,13,111,1460082,,,,,,,2022-10-17,1,,,,,アイティケンキュウジョ,0
1700,7010901051786,新規,0,2022-10-17,2022-10-17,株式会社ｎｏｔｗｏｒｄｓ,,株式会社,東京都,世田谷区,太子堂２丁目１７－５佐藤ビル３階,,13,112,1540004,,,,,,,2022-10-17,1,,,,,ノットワーズ,0
1709,7011001150355,新規,0,2022-10-17,2022-10-17,株式会社シュガー,,株式会社,東京都,渋谷区,千駄ヶ谷２丁目１１番１３号,,13,113,1510051,,,,,,,2022-10-17,1,,,,,シュガー,0
1719,7011401024605,新規,0,2022-10-17,2022-10-17,株式会社ＭｉｌＴｙ,,株式会社,東京都,板橋区,赤塚２丁目８番７号,,13,119,1750092,,,,,,,2022-10-17,1,,,,,ミルティ,0
1720,7011503005321,新規,0,2022-10-17,2022-10-17,合同会社Ｋ．Ｍａｎａｇｅｍｅｎｔ,,合同会社,東京都,荒川区,南千住７丁目１番１－２７０２号,,13,118,1160003,,,,,,,2022-10-17,1,,,,,ケイマネジメント,0
1723,7011601026310,新規,0,2022-10-17,2022-10-17,かえでスタディ株式会社,,株式会社,東京都,練馬区,光が丘７丁目３番７－４０３号,,13,120,1790072,,,,,,,2022-10-17,1,,,,,カエデスタディ,0
1724,7011603003720,新規,0,2022-10-17,2022-10-17,合同会社Ｒ　ａｎｄ　Ｅ,,合同会社,東京都,練馬区,関町南４丁目６番３号,,13,120,1770053,,,,,,,2022-10-17,1,,,,,アールアンドイー,0
1739,7012401039758,新規,0,2022-10-17,2022-10-17,アークコミュニケーションズ株式会社,,株式会社,東京都,調布市,八雲台１丁目３番地１３フローラ八雲台２０５号,,13,208,1820015,,,,,,,2022-10-17,1,,,,,アークコミュニケーションズ,0
1740,7012701017307,新規,0,2022-10-17,2022-10-17,株式会社スターリミット,,株式会社,東京都,西東京市,南町３丁目１８番７号ソレイアードＦ－２,,13,229,1880012,,,,,,,2022-10-17,1,,,,,スターリミット,0
1757,7021003012263,新規,0,2022-10-17,2022-10-17,シャイニー・エー合同会社,,合同会社,神奈川県,平塚市,西八幡４丁目５番２－２号,,14,203,2540073,,,,,,,2022-10-17,1,,,,,シャイニーエー,0
1764,7030001150512,新規,0,2022-10-17,2022-10-17,株式会社すぐのり埼玉,,株式会社,埼玉県,深谷市,田中２５０２番地,,11,218,3691108,,,,,,,2022-10-17,1,,,,,スグノリサイタマ,0
1771,7040001125356,新規,0,2022-10-17,2022-10-17,株式会社ライトワイズ,,株式会社,千葉県,市原市,五所１７１６番地１,,12,219,2900066,,,,,,,2022-10-17,1,,,,,ライトワイズ,0
1772,7040001125430,新規,0,2022-10-17,2022-10-17,株式会社高品工業,00128147,株式会社,千葉県,袖ケ浦市,久保田２０７番地３,,12,229,2990242,,,,,,,2022-10-17,1,,,,,タカシナコウギョウ,0
1773,7040001125471,新規,0,2022-10-17,2022-10-17,株式会社ｇｒａｂ,,株式会社,千葉県,千葉市稲毛区,小中台町５０１番地,,12,103,2630044,,,,,,,2022-10-17,1,,,,,グラブ,0
1777,7040003021066,新規,0,2022-10-17,2022-10-17,ＫＯＢＡＹＡＳＨＩ　ＭＯＴＯＲＳ合同会社,,合同会社,千葉県,山武市,松尾町借毛本郷２８９－１５３７,,12,237,2891537,,,,,,,2022-10-17,1,,,,,コバヤシモーターズ,0
1779,7040005021782,新規,0,2022-10-17,2022-10-17,人材フロンティア協同組合,,その他の設立登記法人,千葉県,成田市,三里塚１７０番地,00128157,12,211,2860111,,,,,,,2022-10-17,1,,,,,ジンザイフロンティア,0
1784,7050001051816,新規,0,2022-10-17,2022-10-17,ＮＡＷＡＺ　ＴＲＡＤＩＮＧ株式会社,,株式会社,茨城県,筑西市,玉戸１３０９番地５５大吉亭１０５,,08,227,3080847,,,,,,,2022-10-17,1,,,,,ナワーズトレーディング,0
1786,7050003006925,新規,0,2022-10-17,2022-10-17,合同会社ＤＳＭ　ＩＮＴＥＲＮＡＴＩＯＮＡＬ,,合同会社,茨城県,坂東市,菅谷１１４５番地１０,,08,228,3060505,,,,,,,2022-10-17,1,,,,,ディーエスエムインターナショナル,0
1791,7060003004267,新規,0,2022-10-17,2022-10-17,合同会社一期一会,,合同会社,栃木県,日光市,中央町７－１０,,09,206,3211266,,,,,,,2022-10-17,1,,,,,イチゴイチエ,0
1800,7080403004633,新規,0,2022-10-17,2022-10-17,合同会社ＨＯＰＥ　ＢＬＵＥ,,合同会社,静岡県,湖西市,鷲津３１４７番地の５,,22,221,4310431,,,,,,,2022-10-17,1,,,,,ホープブルー,0
1806,7100001035788,新規,0,2022-10-17,2022-10-17,株式会社マナコダ,,株式会社,長野県,伊那市,西春近５０５３番地,,20,209,3994431,,,,,,,2022-10-17,1,,,,,マナコダ,0
1817,7120001249543,新規,0,2022-10-17,2022-10-17,株式会社桐麺,,株式会社,大阪府,大阪市淀川区,三津屋北３丁目１番１５号,,27,123,5320032,,,,,,,2022-10-17,1,,,,,キリメン,0
1818,7120001249551,新規,0,2022-10-17,2022-10-17,株式会社Ｇｒａｎｔ　Ｂｕｓｉｎｅｓｓ　Ａｓｓｏｃｉａｔｅｓ,,株式会社,大阪府,大阪市中央区,博労町１丁目９番８号,,27,128,5410059,,,,,,,2022-10-17,1,,,,,グラントビジネスアソシエイツ,0
1823,7120101066368,新規,0,2022-10-17,2022-10-17,株式会社山正,,株式会社,大阪府,松原市,天美西２丁目２番２２号,,27,217,5800034,,,,,,,2022-10-17,1,,,,,ヤマショウ,0
1824,7120103004887,新規,0,2022-10-17,2022-10-17,ＳＭＩＬＥ合同会社,,合同会社,大阪府,富田林市,伏山３丁目１０番９号,,27,214,5840061,,,,,,,2022-10-17,1,,,,,スマイル,0
1825,7120901046610,新規,0,2022-10-17,2022-10-17,株式会社マーブルイノベーション,,株式会社,大阪府,吹田市,江坂町１丁目２０番３０号,,27,205,5640063,,,,,,,2022-10-17,1,,,,,マーブルイノベーション,0
1832,7130001072812,新規,0,2022-10-17,2022-10-17,株式会社ロヂカラ,,株式会社,京都府,京都市下京区,高辻通烏丸東入匂天神町６４７番地ライオンズ四条烏丸セントマークス４０３号,00128156,26,106,6008414,,,,,,,2022-10-17,1,,,,,ロヂカラ,0
1841,7140001127714,新規,0,2022-10-17,2022-10-17,リブラコミュニケーションズ株式会社,,株式会社,兵庫県,明石市,田町２丁目９番２号,,28,203,6730025,,,,,,,2022-10-17,1,,,,,リブラコミュニケーションズ,0
1842,7140001127722,新規,0,2022-10-17,2022-10-17,ダンケシェーン株式会社,,株式会社,兵庫県,尼崎市,昭和通４丁目１１７番地３階,,28,202,6600881,,,,,,,2022-10-17,1,,,,,ダンケシェーン,0
1846,7140003018242,新規,0,2022-10-17,2022-10-17,合同会社ＫＯＵ,,合同会社,兵庫県,西宮市,津門稲荷町５番１０号,,28,204,6638247,,,,,,,2022-10-17,1,,,,,コウ,0
1850,7160001024570,新規,0,2022-10-17,2022-10-17,株式会社ＹＦＰキャピタル,,株式会社,滋賀県,大津市,秋葉台２９番５３号,,25,201,5200822,,,,,,,2022-10-17,1,,,,,ワイエフピーキャピタル,0
1856,7180001153418,新規,0,2022-10-17,2022-10-17,株式会社プレイアースラボ,,株式会社,愛知県,名古屋市中区,錦１丁目２番１２号チサンマンション錦第２　９０１,,23,106,4600003,,,,,,,2022-10-17,1,,,,,プレイアースラボ,0
1857,7180001153426,新規,0,2022-10-17,2022-10-17,株式会社Ｈａｃｋｅｒｓ,,株式会社,愛知県,名古屋市中区,千代田３丁目２１番１号,,23,106,4600012,,,,,,,2022-10-17,1,,,,,ハッカーズ,0
1858,7180001153450,新規,0,2022-10-17,2022-10-17,株式会社ライフウィナー,,株式会社,愛知県,名古屋市中村区,名駅４丁目２４番１６号,,23,105,4500002,,,,,,,2022-10-17,1,,,,,ライフウィナー,0
1859,7180001153459,新規,0,2022-10-17,2022-10-17,鶴亀旅行株式会社,,株式会社,愛知県,常滑市,古場町４丁目２１番地,,23,216,4790818,,,,,,,2022-10-17,1,,,,,ツルカメリョコウ,0
1876,7240001060509,新規,0,2022-10-17,2022-10-17,株式会社Ｉ’ＵＮＩＯＮ,,株式会社,広島県,福山市,住吉町３番２６号ローズシティＩＩＩ,00128150,34,207,7200809,,,,,,,2022-10-17,1,,,,,アイユニオン,0
1880,7240003005858,新規,0,2022-10-17,2022-10-17,ＮＥＸＴ合同会社,,合同会社,広島県,広島市中区,宝町７番１６－５０３号,,34,101,7300044,,,,,,,2022-10-17,1,,,,,ネクスト,0
1884,7250003003167,新規,0,2022-10-17,2022-10-17,オール・スプリング合同会社,,合同会社,山口県,岩国市,山手町１丁目４番１３－１号,,35,208,7400022,,,,,,,2022-10-17,1,,,,,オールスプリング,0
1891,7260001037323,新規,0,2022-10-17,2022-10-17,株式会社エスケー,,株式会社,岡山県,瀬戸内市,長船町飯井１３０９番地１,,33,212,7014261,,,,,,,2022-10-17,1,,,,,エスケー,0
1893,7270001008645,新規,0,2022-10-17,2022-10-17,株式会社未来の星,,株式会社,鳥取県,米子市,西福原３丁目７－３２,,31,202,6830805,,,,,,,2022-10-17,1,,,,,ミライノホシ,0
1894,7280001008801,新規,0,2022-10-17,2022-10-17,株式会社ゲテモノ,,株式会社,島根県,松江市,西津田５丁目２０－１６サンティーヌＧ１０５,,32,201,6900017,,,,,,,2022-10-17,1,,,,,ゲテモノ,0
1902,7290001099253,新規,0,2022-10-17,2022-10-17,株式会社春日野,,株式会社,福岡県,福岡市西区,今宿東３丁目２９番３６号,,40,135,8190161,,,,,,,2022-10-17,1,,,,,カスガノ,0
1906,7290803004229,新規,0,2022-10-17,2022-10-17,合同会社ｍｕｓｈ　ｕｐ,,合同会社,福岡県,北九州市小倉北区,赤坂２丁目１１番４３号,,40,106,8020032,,,,,,,2022-10-17,1,,,,,マッシュアップ,0
1910,7310001018086,新規,0,2022-10-17,2022-10-17,株式会社如月,,株式会社,長崎県,長崎市,油屋町１番２９－９０２号,,42,201,8500832,,,,,,,2022-10-17,1,,,,,,0
1912,7320003003928,新規,0,2022-10-17,2022-10-17,合同会社ぷらたなす,,合同会社,大分県,由布市,湯布院町川上１６２３番地,,44,213,8795102,,,,,,,2022-10-17,1,,,,,プラタナス,0
1914,7330003009552,新規,0,2022-10-17,2022-10-17,合同会社エブリワン,,合同会社,熊本県,熊本市西区,蓮台寺５丁目３番３号,,43,103,8600055,,,,,,,2022-10-17,1,,,,,エブリワン,0
1915,7340003003934,新規,0,2022-10-17,2022-10-17,アルジル合同会社,,合同会社,鹿児島県,熊毛郡屋久島町,平内３４９番地５６,,46,505,8914406,,,,,,,2022-10-17,1,,,,,アルジル,0
1922,7360001031076,新規,0,2022-10-17,2022-10-17,株式会社Ｏｋｉｍａｔｅｓ,,株式会社,沖縄県,那覇市,天久２丁目７番７号沖縄広告ビル１階,,47,201,9000005,,,,,,,2022-10-17,1,,,,,オキメイツ,0
1927,7380001033186,新規,0,2022-10-17,2022-10-17,株式会社スミケン,,株式会社,福島県,福島市,土船字北谷地頭６４番地の３,,07,201,9602152,,,,,,,2022-10-17,1,,,,,スミケン,0
1942,7430003014352,新規,0,2022-10-17,2022-10-17,合同会社タケダ企画,,合同会社,北海道,苫小牧市,沼ノ端中央３丁目１０番１６号,,01,213,0591305,,,,,,,2022-10-17,1,,,,,タケダキカク,0
1974,8010001230109,新規,0,2022-10-17,2022-10-17,株式会社イエローブレイン,,株式会社,東京都,中央区,東日本橋３丁目１０番１１－６０３号,,13,102,1030004,,,,,,,2022-10-17,1,,,,,イエローブレイン,0
1975,8010001230125,新規,0,2022-10-17,2022-10-17,実用根津ホーム株式会社,,株式会社,東京都,文京区,根津２丁目１５番１３号,,13,105,1130031,,,,,,,2022-10-17,1,,,,,ジツヨウネヅホーム,0
1976,8010001230141,新規,0,2022-10-17,2022-10-17,株式会社ベネフィット,,株式会社,東京都,千代田区,岩本町２丁目１１番１号,,13,101,1010032,,,,,,,2022-10-17,1,,,,,ベネフィット,0
1977,8010001230182,新規,0,2022-10-17,2022-10-17,株式会社ＺＥＲＯ,,株式会社,東京都,中央区,銀座１丁目１２－４Ｎ＆ＥＢＬＤ．７階,,13,102,1040061,,,,,,,2022-10-17,1,,,,,ゼロ,0
1981,8010005035669,新規,0,2022-10-17,2022-10-17,Ｄｏｙｌｅ１一般社団法人,,その他の設立登記法人,東京都,千代田区,丸の内３丁目１番１号東京共同会計事務所内,,13,101,1000005,,,,,,,2022-10-17,1,,,,,ドイルワン,0
1982,8010005035677,新規,0,2022-10-17,2022-10-17,Ａｕｔｈｅｎｓｅ税理士法人,,その他の設立登記法人,東京都,中央区,日本橋１丁目２番２号,,13,102,1030027,,,,,,,2022-10-17,1,,,,,オーセンス,0
1984,8010101015368,新規,0,2022-10-17,2022-10-17,株式会社Ｂｌｏｏｍｏｒｅ,,株式会社,東京都,八王子市,旭町６番１３号第９５東京ビル４Ｆ,,13,201,1920083,,,,,,,2022-10-17,1,,,,,ブルーモア,0
1990,8010401170292,新規,0,2022-10-17,2022-10-17,ＴＤＸ株式会社,,株式会社,東京都,港区,南青山６丁目６－２２南青山グリーンランドビル１Ｆ,,13,103,1070062,,,,,,,2022-10-17,1,,,,,ティーディーエックス,0
1994,8010403028695,新規,0,2022-10-17,2022-10-17,合同会社ｏｂｏｒｏｇｅ,,合同会社,東京都,港区,南麻布２丁目１５番５号,,13,103,1060047,,,,,,,2022-10-17,1,,,,,オボロゲ,0
1995,8010403028729,新規,0,2022-10-17,2022-10-17,ＣｌｏｕｄＣｒｏｓｓｉｎｇ　Ｊａｐａｎ合同会社,,合同会社,東京都,港区,芝５丁目３２番１２号,,13,103,1080014,,,,,,,2022-10-17,1,,,,,クラウドクロッシングジャパン,0
2000,8010503006758,新規,0,2022-10-17,2022-10-17,合同会社ｅｖｅｒ　ｇｒｅｅｎ,,合同会社,東京都,台東区,上野２丁目１２番２号,,13,106,1100005,,,,,,,2022-10-17,1,,,,,エバーグリーン,0
2002,8010603009784,新規,0,2022-10-17,2022-10-17,合同会社アセットセブン,,合同会社,東京都,江東区,東陽５丁目２１番１２号パークサイド東陽３Ｆ,,13,108,1350016,,,,,,,2022-10-17,1,,,,,アセットセブン,0
2003,8010801033355,新規,0,2022-10-17,2022-10-17,株式会社シモン,,株式会社,東京都,大田区,池上７丁目６番４号,,13,111,1460082,,,,,,,2022-10-17,1,,,,,,0
2008,8010901051785,新規,0,2022-10-17,2022-10-17,株式会社Ｆｅｅｃａ,,株式会社,東京都,世田谷区,北沢５丁目３６番１１号,,13,112,1550031,,,,,,,2022-10-17,1,,,,,フィーカ,0
2022,8011001150263,新規,0,2022-10-17,2022-10-17,株式会社エミアス,,株式会社,東京都,目黒区,上目黒４丁目３５番４号,,13,110,1530051,,,,,,,2022-10-17,1,,,,,エミアス,0
2023,8011001150346,新規,0,2022-10-17,2022-10-17,株式会社ＢｉｇＢａｎｇ,,株式会社,東京都,渋谷区,渋谷２丁目１４番１３号,,13,113,1500002,,,,,,,2022-10-17,1,,,,,ビッグバン,0
2029,8011101100440,新規,0,2022-10-17,2022-10-17,株式会社ココパ,,株式会社,東京都,新宿区,水道町１番１９号江戸川橋ＳＴビル４階,,13,104,1620811,,,,,,,2022-10-17,1,,,,,ココパ,0
2030,8011103012254,新規,0,2022-10-17,2022-10-17,合同会社ＨＹＴ,,合同会社,東京都,新宿区,西新宿３丁目３番１３号西新宿水間ビル６階,,13,104,1600023,,,,,,,2022-10-17,1,,,,,エイチワイティー,0
2033,8011301028168,新規,0,2022-10-17,2022-10-17,ｓｉｍｏｎｓ西門株式会社,,株式会社,東京都,杉並区,下高井戸１丁目１６－１６エクセレントハイム下高井戸１０７,,13,115,1680073,,,,,,,2022-10-17,1,,,,,シモンズセイモン,0
2034,8011301028176,新規,0,2022-10-17,2022-10-17,株式会社ルカリア,,株式会社,東京都,杉並区,高円寺南２丁目２２番１３号,,13,115,1660003,,,,,,,2022-10-17,1,,,,,ルカリア,0
2043,8012401039757,新規,0,2022-10-17,2022-10-17,株式会社ｗｏｒｋ　ａｎｄ　ｎｅｔ,,株式会社,東京都,調布市,西つつじケ丘１丁目５３番地３２,,13,208,1820006,,,,,,,2022-10-17,1,,,,,ワークアンドネット,0
2056,8020001148580,新規,0,2022-10-17,2022-10-17,ＬＩＺ株式会社,,株式会社,神奈川県,川崎市高津区,久本１丁目１５－１２バースシティ溝の口ティアラ５０２号,,14,134,2130011,,,,,,,2022-10-17,1,,,,,リズ,0
2060,8020003022569,新規,0,2022-10-17,2022-10-17,グロリアスコーチング合同会社,,合同会社,神奈川県,横浜市港北区,新横浜３丁目７番地１８日総第１８ビル,,14,109,2220033,,,,,,,2022-10-17,1,,,,,グロリアスコーチング,0
2077,8030001150478,新規,0,2022-10-17,2022-10-17,ジェーライン株式会社,,株式会社,埼玉県,加須市,上種足６３３番地１,,11,210,3470115,,,,,,,2022-10-17,1,,,,,ジェーライン,0
2078,8030001150585,新規,0,2022-10-17,2022-10-17,株式会社山近商事,,株式会社,埼玉県,本庄市,前原２丁目４番地７号前原ビル４０１,,11,211,3670047,,,,,,,2022-10-17,1,,,,,ヤマチカショウジ,0
2079,8030001150627,新規,0,2022-10-17,2022-10-17,ヴィエットリンク株式会社,,株式会社,埼玉県,越谷市,大字増林１０５８－１,,11,222,3430011,,,,,,,2022-10-17,1,,,,,ヴィエットリンク,0
2083,8030005021015,新規,0,2022-10-17,2022-10-17,税理士法人中山＆パートナーズ,,その他の設立登記法人,埼玉県,川口市,大字道合５６８番地の３,,11,203,3330835,,,,,,,2022-10-17,1,,,,,ナカヤマアンドパートナーズ,0
2093,8040003021065,新規,0,2022-10-17,2022-10-17,合同会社オフィスたまな,,合同会社,千葉県,柏市,若葉町１番２－１４０４号,,12,217,2770024,,,,,,,2022-10-17,1,,,,,オフィスタマナ,0
2097,8050001051815,新規,0,2022-10-17,2022-10-17,株式会社レベルテン,,株式会社,茨城県,水戸市,石川３丁目２０６３番地マリーナデルレイ２０１,,08,201,3100905,,,,,,,2022-10-17,1,,,,,レデルテン,0
2100,8050003006924,新規,0,2022-10-17,2022-10-17,ＨＩＲＯＳＨ　ＬＡＮＫＡ合同会社,,合同会社,茨城県,つくば市,北中島３０７番地１１,,08,220,3050072,,,,,,,2022-10-17,1,,,,,ヒロシランカ,0
2105,8060001035346,新規,0,2022-10-17,2022-10-17,ＳＩＧＡＬ　ＴＲＡＤＩＮＧ株式会社,,株式会社,栃木県,小山市,西城南１丁目１１番９号カーサビューＩ２０２号室,00128148,09,208,3230820,,,,,,,2022-10-17,1,,,,,シーガルトレーディング,0
2108,8070001039750,新規,0,2022-10-17,2022-10-17,株式会社スタニメ,,株式会社,群馬県,前橋市,石関町３６１番地,,10,201,3710006,,,,,,,2022-10-17,1,,,,,スタニメ,0
2116,8080105006290,新規,0,2022-10-17,2022-10-17,特定非営利活動法人みやっち,,その他の設立登記法人,静岡県,田方郡函南町,畑毛４９５番地,,22,325,4190111,,,,,,,2022-10-17,1,,,,,ミヤッチ,0
2122,8090001017812,新規,0,2022-10-17,2022-10-17,ナチュラルライフ株式会社,,株式会社,山梨県,富士吉田市,下吉田７丁目２３番２１号,,19,202,4030004,,,,,,,2022-10-17,1,,,,,ナチュラルライフ,0
2128,8110001037031,新規,0,2022-10-17,2022-10-17,株式会社Ｒｅｒｉｚｅ,,株式会社,新潟県,新潟市南区,保坂２２５番地１,,15,106,9501233,,,,,,,2022-10-17,1,,,,,リライズ,0
2138,8120001249550,新規,0,2022-10-17,2022-10-17,株式会社信和,,株式会社,大阪府,大阪市浪速区,日本橋５丁目２１番１８号,,27,111,5560005,,,,,,,2022-10-17,1,,,,,シンワ,0
2139,8120001249583,新規,0,2022-10-17,2022-10-17,Ｍｉｌｅｓ株式会社,,株式会社,大阪府,大阪市西成区,旭２丁目１番２８－４０３号,,27,122,5570032,,,,,,,2022-10-17,1,,,,,マイルス,0
2146,8120005023233,新規,0,2022-10-17,2022-10-17,一般社団法人星叶研究会,,その他の設立登記法人,大阪府,大阪市浪速区,湊町１丁目２番１７－１８０５号,,27,111,5560017,,,,,,,2022-10-17,1,,,,,セイトケンキュウカイ,0
2151,8122001036292,新規,0,2022-10-17,2022-10-17,株式会社野村興産,,株式会社,大阪府,東大阪市,東石切町２丁目７番１６号,,27,227,5798011,,,,,,,2022-10-17,1,,,,,ノムラコウサン,0
2159,8140001127705,新規,0,2022-10-17,2022-10-17,株式会社ＪＩＣランゲージスクール,,株式会社,兵庫県,神戸市中央区,下山手通４丁目１０番２４号ＮＫ元町ビル２階,,28,110,6500011,,,,,,,2022-10-17,1,,,,,ジェーアイシーランゲージスクール,0
2160,8140001127713,新規,0,2022-10-17,2022-10-17,株式会社岡部組,,株式会社,兵庫県,尼崎市,東難波町４丁目１１番２７号,,28,202,6600892,,,,,,,2022-10-17,1,,,,,オカベグミ,0
2175,8180001153400,新規,0,2022-10-17,2022-10-17,株式会社大西設備,,株式会社,愛知県,半田市,有脇町１４丁目５２番地フルラージュ２０２号,,23,205,4750017,,,,,,,2022-10-17,1,,,,,オオニシセツビ,0
2176,8180001153409,新規,0,2022-10-17,2022-10-17,株式会社Ｇ８,,株式会社,愛知県,名古屋市中区,栄４丁目１４番１５号フジプラザビル３階,,23,106,4600008,,,,,,,2022-10-17,1,,,,,ジーエイト,0
2177,8180001153425,新規,0,2022-10-17,2022-10-17,株式会社アイデアプラスＭＶ,,株式会社,愛知県,名古屋市中区,栄２丁目９番３０号,,23,106,4600008,,,,,,,2022-10-17,1,,,,,アイデアプラスエムヴイ,0
2178,8180001153433,新規,0,2022-10-17,2022-10-17,株式会社ＥＳＴ,,株式会社,愛知県,名古屋市西区,中小田井２丁目９５番地,,23,104,4520822,,,,,,,2022-10-17,1,,,,,エスト,0
2179,8180001153441,新規,0,2022-10-17,2022-10-17,株式会社キレイク,,株式会社,愛知県,名古屋市中区,松原３丁目６番２８号,,23,106,4600017,,,,,,,2022-10-17,1,,,,,キレイク,0
2183,8180003024376,新規,0,2022-10-17,2022-10-17,Ｅｔｈｉｃａｌ　ｐｌｕｓ合同会社,,合同会社,愛知県,名古屋市南区,元桜田町４丁目４６番地,,23,112,4570032,,,,,,,2022-10-17,1,,,,,エシカルプラス,0
2188,8180301036734,新規,0,2022-10-17,2022-10-17,株式会社おかだ,,株式会社,愛知県,豊橋市,牛川町字洗島６番地１５,,23,201,4400016,,,,,,,2022-10-17,1,,,,,オカダ,0
2190,8180303005480,新規,0,2022-10-17,2022-10-17,合同会社ハピエ,,合同会社,愛知県,岡崎市,筒針町字上川田４０番地４,,23,202,4440932,,,,,,,2022-10-17,1,,,,,ハピエ,0
2211,8290001099070,新規,0,2022-10-17,2022-10-17,吉水塗装株式会社,,株式会社,福岡県,福津市,中央１丁目１６番１号,,40,224,8113217,,,,,,,2022-10-17,1,,,,,ヨシミズトソウ,0
2224,8360001031075,新規,0,2022-10-17,2022-10-17,株式会社南東建設,,株式会社,沖縄県,中頭郡西原町,字兼久２７９番地の４５,,47,329,9030104,,,,,,,2022-10-17,1,,,,,ナントウケンセツ,0
2231,8390005008975,新規,0,2022-10-17,2022-10-17,一般社団法人ドリームやまがた里山プロジェクト,,その他の設立登記法人,山形県,山形市,十日町３丁目９番３６号,,06,201,9900031,,,,,,,2022-10-17,1,,,,,ドリームヤマガタサトヤマプロジェクト,0
2232,8400001016030,新規,0,2022-10-17,2022-10-17,ＵＴＣ株式会社,,株式会社,岩手県,盛岡市,館向町３２番１号,,03,201,0200115,,,,,,,2022-10-17,1,,,,,ユーティーシー,0
2233,8410003003711,新規,0,2022-10-17,2022-10-17,合同会社サンアース,,合同会社,秋田県,大仙市,花館字鶴田５２－２,,05,212,0140001,,,,,,,2022-10-17,1,,,,,サンアース,0
2241,8430001087647,新規,0,2022-10-17,2022-10-17,ＵＳＫホールディングス株式会社,,株式会社,北海道,札幌市中央区,南一条東２丁目６番地,,01,101,0600051,,,,,,,2022-10-17,1,,,,,ユーエスケイホールディングス,0
2242,8430001087655,新規,0,2022-10-17,2022-10-17,株式会社ＡＬＬＦ,,株式会社,北海道,札幌市中央区,南五条西７丁目９番地４ドミ１８ロイヤル７０１号,,01,101,0640805,,,,,,,2022-10-17,1,,,,,オールエフ,0
2246,8440001009170,新規,0,2022-10-17,2022-10-17,野澤建築工房株式会社,,株式会社,北海道,北斗市,七重浜８丁目１９番１７号,,01,236,0490111,,,,,,,2022-10-17,1,,,,,ノザワケンチクコウボウ,0
2252,8490003001708,新規,0,2022-10-17,2022-10-17,合同会社畠山果樹園,,合同会社,高知県,香美市,土佐山田町岩積１９９番地,,39,212,7820017,,,,,,,2022-10-17,1,,,,,ハタケヤマカジュエン,0
2274,9010003038862,新規,0,2022-10-17,2022-10-17,ｋａｎｄａホールディングス合同会社,,合同会社,東京都,文京区,小石川１丁目５番１－３１１０号,,13,105,1120002,,,,,,,2022-10-17,1,,,,,カンダホールディングス,0
2280,9010401170259,新規,0,2022-10-17,2022-10-17,株式会社リブランディングチーム,,株式会社,東京都,港区,新橋３丁目３－３新橋パイオニアビル２階,,13,103,1050004,,,,,,,2022-10-17,1,,,,,リブランディングチーム,0
2281,9010401170275,新規,0,2022-10-17,2022-10-17,株式会社オフィス武内,,株式会社,東京都,港区,芝浦４丁目４番２７－１３１０号,,13,103,1080023,,,,,,,2022-10-17,1,,,,,オフィスタケウチ,0
2282,9010401170283,新規,0,2022-10-17,2022-10-17,株式会社メタプラネット,,株式会社,東京都,港区,元麻布３丁目１番６号,,13,103,1060046,,,,,,,2022-10-17,1,,,,,メタプラネット,0
2287,9010405021499,新規,0,2022-10-17,2022-10-17,ＫＲ　Ｓｈｉｎｔｏｍｉ一般社団法人,,その他の設立登記法人,東京都,港区,西新橋１丁目２２番５号６階,,13,103,1050003,,,,,,,2022-10-17,1,,,,,ケイアールシントミ,0
2291,9010503006757,新規,0,2022-10-17,2022-10-17,合同会社ｓｈｉｎｉｎｇ,,合同会社,東京都,台東区,上野２丁目１２番２号,,13,106,1100005,,,,,,,2022-10-17,1,,,,,シャイニング,0
2295,9010603009783,新規,0,2022-10-17,2022-10-17,ＳＡＦＡＬ　ＩＮＴＥＲＮＡＴＩＯＮＡＬ合同会社,,合同会社,東京都,墨田区,向島５丁目５０番１３号,,13,107,1310033,,,,,,,2022-10-17,1,,,,,サファルインターナショナル,0
2299,9010901051792,新規,0,2022-10-17,2022-10-17,株式会社ＢＬＡＮＣ．Ｏ,,株式会社,東京都,世田谷区,世田谷１丁目２７番１９号,,13,112,1540017,,,,,,,2022-10-17,1,,,,,ブランコ,0
2301,9010903007719,新規,0,2022-10-17,2022-10-17,バクヤ合同会社,,合同会社,東京都,世田谷区,下馬３丁目２１番１号,,13,112,1540002,,,,,,,2022-10-17,1,,,,,バクヤ,0
2307,9011001150205,新規,0,2022-10-17,2022-10-17,株式会社カラフル,,株式会社,東京都,渋谷区,渋谷２丁目８－７青山宮野ビル,,13,113,1500002,,,,,,,2022-10-17,1,,,,,,0
2311,9011003015513,新規,0,2022-10-17,2022-10-17,合同会社リサーチ＆コンサルティング,,合同会社,東京都,渋谷区,大山町２７－２１プレジリア代々木大山町３１３,,13,113,1510065,,,,,,,2022-10-17,1,,,,,リサーチアンドコンサルティング,0
2317,9011103012253,新規,0,2022-10-17,2022-10-17,合同会社Ｔｅａｍ,,合同会社,東京都,新宿区,西新宿３丁目３番１３号西新宿水間ビル６階,,13,104,1600023,,,,,,,2022-10-17,1,,,,,チーム,0
2318,9011103012261,新規,0,2022-10-17,2022-10-17,Ｓｋｉｎ　Ａｍｕｒｅ合同会社,,合同会社,東京都,新宿区,市谷薬王寺町４５番地,,13,104,1620063,,,,,,,2022-10-17,1,,,,,スキンアミュレ,0
2320,9011203003929,新規,0,2022-10-17,2022-10-17,合同会社ＳＴ２,,合同会社,東京都,中野区,弥生町４丁目３４番１１－７０６号,,13,114,1640013,,,,,,,2022-10-17,1,,,,,エスティーツー,0
2321,9011301028159,新規,0,2022-10-17,2022-10-17,聞宇株式会社,,株式会社,東京都,杉並区,梅里２丁目２５番１３号高円寺プラザ２１２号,,13,115,1660011,,,,,,,2022-10-17,1,,,,,モンウ,0
2322,9011301028175,新規,0,2022-10-17,2022-10-17,株式会社朝から晩まで,,株式会社,東京都,杉並区,高円寺北３丁目３２－１６－２,,13,115,1660002,,,,,,,2022-10-17,1,,,,,,0
2327,9011403003794,新規,0,2022-10-17,2022-10-17,ＲＥＮＧＯＫＵ　ＳＴＵＤＩＯ合同会社,,合同会社,東京都,板橋区,仲宿３－８地上１階１０２室,,13,119,1730005,,,,,,,2022-10-17,1,,,,,レンゴクスタジオ,0
2328,9011603003719,新規,0,2022-10-17,2022-10-17,ｓＴａｒ　ｖｉｓｉｏｎ合同会社,,合同会社,東京都,練馬区,高松３丁目９番２４－７０２号,,13,120,1790075,,,,,,,2022-10-17,1,,,,,スタービジョン,0
2329,9011701025697,新規,0,2022-10-17,2022-10-17,株式会社近藤商店,,株式会社,東京都,江戸川区,平井５丁目２２番２号松下ビル１階,,13,123,1320035,,,,,,,2022-10-17,1,,,,,コンドウショウテン,0
2347,9021001077190,新規,0,2022-10-17,2022-10-17,株式会社ミニョン,,株式会社,神奈川県,中郡二宮町,二宮１１５４－３新栄古澤ビルＢ１０１号室,,14,342,2590123,,,,,,,2022-10-17,1,,,,,ミニョン,0
2356,9030001150592,新規,0,2022-10-17,2022-10-17,株式会社ＺＥＲＯ‐ＩＣＨＩ,,株式会社,埼玉県,上尾市,大字瓦葺９３４番地１,,11,219,3620022,,,,,,,2022-10-17,1,,,,,ゼロイチ,0
2357,9030001150618,新規,0,2022-10-17,2022-10-17,大迫電設株式会社,,株式会社,埼玉県,川口市,坂下町２丁目１５番２５－４０５号ガーデンシティ鳩ヶ谷,,11,203,3340003,,,,,,,2022-10-17,1,,,,,オオサコデンセツ,0
2365,9040001125445,新規,0,2022-10-17,2022-10-17,株式会社ＹＵ,,株式会社,千葉県,木更津市,金田東１丁目４３番地７ザ・リバーアップパレス３０８,,12,206,2920009,,,,,,,2022-10-17,1,,,,,ユー,0
2370,9050001051822,新規,0,2022-10-17,2022-10-17,株式会社ＡＺＨＡＲ　ＴＲＡＤＩＮＧ,,株式会社,茨城県,結城市,大字結城９８９０番地１０コーポマーズ１０２号室,,08,207,3070001,,,,,,,2022-10-17,1,,,,,アザールトレーディング,0
2375,9060001035361,新規,0,2022-10-17,2022-10-17,株式会社アエスクルス,,株式会社,栃木県,宇都宮市,平松本町１２０８番３号ボヌール鈴木１０６号,,09,201,3210932,,,,,,,2022-10-17,1,,,,,アエスクルス,0
2387,9100001035794,新規,0,2022-10-17,2022-10-17,株式会社ＰＲＯＵＤ　ＣＯＬＯＲ,,株式会社,長野県,北佐久郡軽井沢町,大字長倉字大道南２４７７番１－２０２号,,20,321,3890111,,,,,,,2022-10-17,1,,,,,プラウドカラー,0
2391,9110001037030,新規,0,2022-10-17,2022-10-17,株式会社Ｈｏｕｒ,,株式会社,新潟県,南魚沼郡湯沢町,大字湯沢３１７番地６,,15,461,9496101,,,,,,,2022-10-17,1,,,,,アワー,0
2392,9110001037039,新規,0,2022-10-17,2022-10-17,株式会社Ｇｅｅｋｓ,,株式会社,新潟県,新潟市江南区,丸山ノ内善之丞組７１２番地,,15,104,9500000,,,,,,,2022-10-17,1,,,,,ギークス,0
2403,9120001248725,新規,0,2022-10-17,2022-10-17,株式会社ＪＡＣＫ　ＪＡＰＡＮ,,株式会社,大阪府,枚方市,楠葉野田２丁目３３－１３－２０２,,27,210,5731103,,,,,,,2022-10-17,1,,,,,ジャックジャパン,0
2404,9120001249608,新規,0,2022-10-17,2022-10-17,株式会社明里ホールディングス,,株式会社,大阪府,大阪市中央区,南久宝寺町１丁目９番１０号日宝船場ビル８０１,,27,128,5410058,,,,,,,2022-10-17,1,,,,,アカリホールディングス,0
2411,9120101066382,新規,0,2022-10-17,2022-10-17,株式会社七福,,株式会社,大阪府,阪南市,和泉鳥取９１４番地の１,,27,232,5990213,,,,,,,2022-10-17,1,,,,,シチフク,0
2412,9120101066390,新規,0,2022-10-17,2022-10-17,株式会社Ｐ＆Ａ,,株式会社,大阪府,和泉市,万町２７３番地の１５,,27,219,5941104,,,,,,,2022-10-17,1,,,,,ピーアンドエー,0
2413,9120901046617,新規,0,2022-10-17,2022-10-17,株式会社エスワン,,株式会社,大阪府,茨木市,郡５丁目８番２６号,,27,211,5670072,,,,,,,2022-10-17,1,,,,,エスワン,0
2427,9130001072752,新規,0,2022-10-17,2022-10-17,株式会社ＨＲＸ,,株式会社,京都府,京都市左京区,吉田牛ノ宮町６－１ＴＥＣＨＳＴＵＤＩＯ,,26,103,6068302,,,,,,,2022-10-17,1,,,,,エイチアールエックス,0
2428,9130001072819,新規,0,2022-10-17,2022-10-17,株式会社シーガルディー,,株式会社,京都府,京都市伏見区,深草西伊達町８７－９２,,26,109,6120876,,,,,,,2022-10-17,1,,,,,シーガルディー,0
2441,9140001127737,新規,0,2022-10-17,2022-10-17,株式会社Ｆｔａｓ,,株式会社,兵庫県,明石市,松江５２７番地,,28,203,6730036,,,,,,,2022-10-17,1,,,,,エフタス,0
2443,9140003018249,新規,0,2022-10-17,2022-10-17,合同会社ＴＨＲＥＥ　ＭＥＮ,,合同会社,兵庫県,尼崎市,南七松町１丁目１０－１－２０８号,,28,202,6600053,,,,,,,2022-10-17,1,,,,,スリーメン,0
2456,9180001153366,新規,0,2022-10-17,2022-10-17,株式会社エスアシスト,,株式会社,愛知県,長久手市,岩作三ケ峯２番地５５３,,23,238,4801103,,,,,,,2022-10-17,1,,,,,エスアシスト,0
2457,9180001153399,新規,0,2022-10-17,2022-10-17,株式会社上原一級建築士事務所,,株式会社,愛知県,名古屋市東区,代官町１７番１３号５０１,,23,102,4610002,,,,,,,2022-10-17,1,,,,,ウエハライッキュウケンチクシジムショ,0
2458,9180001153408,新規,0,2022-10-17,2022-10-17,株式会社ＢＤＰ,,株式会社,愛知県,名古屋市北区,山田１丁目８番６号,,23,103,4620810,,,,,,,2022-10-17,1,,,,,ビーディピー,0
2459,9180001153432,新規,0,2022-10-17,2022-10-17,株式会社ＴＲＵＳＴ．Ｈ,,株式会社,愛知県,名古屋市中区,千代田３丁目３２番３３号,,23,106,4600012,,,,,,,2022-10-17,1,,,,,トラストエイチ,0
2460,9180001153440,新規,0,2022-10-17,2022-10-17,株式会社Ｕｎｉｏｎ,,株式会社,愛知県,あま市,甚目寺郷中９７番地２,,23,237,4901111,,,,,,,2022-10-17,1,,,,,ユニオン,0
2461,9180001153449,新規,0,2022-10-17,2022-10-17,ＮＩＳＳＩＮレンタカー株式会社,,株式会社,愛知県,日進市,赤池５丁目１８０５番地,,23,230,4700125,,,,,,,2022-10-17,1,,,,,ニッシンレンタカー,0
2462,9180001153457,新規,0,2022-10-17,2022-10-17,ウインクロス株式会社,,株式会社,愛知県,名古屋市天白区,平針３丁目２４１７番地,,23,116,4680011,,,,,,,2022-10-17,1,,,,,ウインクロス,0
2466,9180003024359,新規,0,2022-10-17,2022-10-17,合同会社ＫＪクリエイト,,合同会社,愛知県,名古屋市南区,菊住２丁目１０－２１,,23,112,4570012,,,,,,,2022-10-17,1,,,,,ケージェイクリエイト,0
2467,9180003024367,新規,0,2022-10-17,2022-10-17,合同会社まなぶと学ぶ,,合同会社,愛知県,名古屋市名東区,平和が丘２丁目１９４番地,,23,115,4650097,,,,,,,2022-10-17,1,,,,,マナブトマナブ,0
2468,9180003024375,新規,0,2022-10-17,2022-10-17,合同会社ボン,,合同会社,愛知県,愛西市,諏訪町郷浦３４番地１,,23,232,4968011,,,,,,,2022-10-17,1,,,,,ボン,0
2470,9180301036741,新規,0,2022-10-17,2022-10-17,株式会社マンダイホールディングス,,株式会社,愛知県,豊田市,本地町４丁目２２番地１,,23,211,4710848,,,,,,,2022-10-17,1,,,,,マンダイホールディングス,0
2478,9190003004112,新規,0,2022-10-17,2022-10-17,合同会社ＮＯＢＬＥ,,合同会社,三重県,松阪市,本町２０５８－１ローレルコートアトレ松阪１３０２号室,,24,204,5150081,,,,,,,2022-10-17,1,,,,,ノーブル,0
2482,9210001019126,新規,0,2022-10-17,2022-10-17,ＧＳＩゴールデンフェザー株式会社,,株式会社,福井県,越前市,高森町第５号１２番地の２４,,18,209,9150888,,,,,,,2022-10-17,1,,,,,ジーエスアイゴールデンフェザー,0
2488,9210003001569,新規,0,2022-10-17,2022-10-17,合同会社Ｆｒｅｅ　Ｗｏｒｋｓ,,合同会社,福井県,敦賀市,呉竹町２丁目２番４号,,18,202,9140802,,,,,,,2022-10-17,1,,,,,フリーワークス,0
2509,9290001099219,新規,0,2022-10-17,2022-10-17,株式会社ＷＫ５,,株式会社,福岡県,福岡市博多区,美野島３丁目１番３８号,,40,132,8120017,,,,,,,2022-10-17,1,,,,,ダブルケイファイブ,0
2525,9330003009550,新規,0,2022-10-17,2022-10-17,合同会社杉本内装,,合同会社,熊本県,熊本市中央区,帯山５丁目３番４４号,,43,101,8620924,,,,,,,2022-10-17,1,,,,,スギモトナイソウ,0
2527,9340003003932,新規,0,2022-10-17,2022-10-17,合同会社ＮＯＡ,,合同会社,鹿児島県,曽於市,末吉町上町４丁目１６番１２号,,46,217,8998609,,,,,,,2022-10-17,1,,,,,ノア,0
2531,9360003012329,新規,0,2022-10-17,2022-10-17,合同会社ｔｏｗａ,,合同会社,沖縄県,名護市,字安和４９３番,,47,209,9050001,,,,,,,2022-10-17,1,,,,,トワ,0
2536,9370001049157,新規,0,2022-10-17,2022-10-17,株式会社Ｙ’ｓ,,株式会社,宮城県,仙台市青葉区,国見ケ丘２丁目３７番地の４,,04,101,9893201,,,,,,,2022-10-17,1,,,,,ワイズ,0
2548,9410003003710,新規,0,2022-10-17,2022-10-17,ＨＯＰＤＯＧ　ＢＲＥＷＩＮＧ合同会社,,合同会社,秋田県,秋田市,南通みその町６番２７号,,05,201,0100012,,,,,,,2022-10-17,1,,,,,ホップドッグブルーイング,0
2563,9430003014383,新規,0,2022-10-17,2022-10-17,合同会社ソポレ,,合同会社,北海道,札幌市豊平区,中の島一条１０丁目８番４号,,01,105,0620921,,,,,,,2022-10-17,1,,,,,ソポレ,0
2568,9700150112169,新規,0,2022-10-17,2022-10-17,蘇州海博国際貿易有限公司,,外国会社等,,,,,,,,中国（江蘇）自由貿易試験区蘇州片区蘇州工業園区蘇虹東路３９１号４楼４０７室,,,,,,2022-10-17,1,,,,,ソシユウカイハクコクサイボウエキユウゲンコウシ,0
