sequenceNumber,corporateNumber,process,correct,updateDate,changeDate,name,nameImageId,kind,prefectureName,cityName,streetNumber,addressImageId,prefectureCode,cityCode,postCode,addressOutside,addressOutsideImageId,closeDate,closeCause,successorCorporateNumber,changeCause,assignmentDate,latest,enName,enPrefectureName,enCityName,enAddressOutside,furigana,hihyoji
8,1010001249659,新規,0,2024-11-08,2024-11-08,ＡＩ　Ｈｏｌｄｉｎｇｓ株式会社,,株式会社,東京都,千代田区,紀尾井町４番１号ニューオータニ・ガーデンタワー８階,,13,101,1020094,,,,,,,2024-11-08,1,,,,,エーアイホールディングス,0
9,1010001249667,新規,0,2024-11-08,2024-11-08,ＪＣＯＭフィナンシャル株式会社,,株式会社,東京都,千代田区,丸の内１丁目８番１号,,13,101,1000005,,,,,,,2024-11-08,1,,,,,ジェイコムフィナンシャル,0
10,1010001249683,新規,0,2024-11-08,2024-11-08,ＪＳナレッジ株式会社,,株式会社,東京都,千代田区,丸の内１丁目１番３号,,13,101,1000005,,,,,,,2024-11-08,1,,,,,ジェイエスナレッジ,0
11,1010001249691,新規,0,2024-11-08,2024-11-08,株式会社アニスピＨＤ,,株式会社,東京都,千代田区,九段南２丁目３－２５,,13,101,1020074,,,,,,,2024-11-08,1,,,,,アニスピエイチディー,0
12,1010001249758,新規,0,2024-11-08,2024-11-08,株式会社ＴＣ１５,,株式会社,東京都,千代田区,永田町２丁目１１番１号山王パークタワー５階トラスティーズ・コンサルティングＬＬＰ内,,13,101,1000014,,,,,,,2024-11-08,1,,,,,ティーシーフィフティーン,0
58,1010701046785,新規,0,2024-11-08,2024-11-08,ラクスルバンク株式会社,,株式会社,東京都,品川区,上大崎２丁目２４番９号,,13,109,1410021,,,,,,,2024-11-08,1,,,,,ラクスルバンク,0
59,1010901056246,新規,0,2024-11-08,2024-11-08,株式会社ＡＫＥＹマーケティング,,株式会社,東京都,世田谷区,代田３丁目５３番１２－２０２号,,13,112,1550033,,,,,,,2024-11-08,1,,,,,エーキーマーケティング,0
68,1011001165664,新規,0,2024-11-08,2024-11-08,株式会社サンダーソニー,,株式会社,東京都,渋谷区,道玄坂１丁目１０－８渋谷道玄坂東急ビル２Ｆ－Ｃ,,13,113,1500043,,,,,,,2024-11-08,1,,,,,サンダーソニー,0
69,1011001165680,新規,0,2024-11-08,2024-11-08,株式会社Ａｓ,,株式会社,東京都,渋谷区,恵比寿西２丁目８番４号ＥＸ恵比寿西ビル５階,,13,113,1500021,,,,,,,2024-11-08,1,,,,,エース,0
70,1011001165689,新規,0,2024-11-08,2024-11-08,株式会社ＴＥＭＰＯＲＡＲＹ,,株式会社,東京都,目黒区,中央町１丁目２番２号,,13,110,1520001,,,,,,,2024-11-08,1,,,,,テンポラリー,0
71,1011003020198,新規,0,2024-11-08,2024-11-08,オッズ合同会社,,合同会社,東京都,渋谷区,渋谷２丁目１９‐１５宮益坂ビルディング６０９,,13,113,1500002,,,,,,,2024-11-08,1,,,,,オッズ,0
72,1011003020330,新規,0,2024-11-08,2024-11-08,合同会社ＨＡＲＥＲＵＹＡ,,合同会社,東京都,渋谷区,道玄坂１丁目１０番８号渋谷道玄坂東急ビル２Ｆ－Ｃ,,13,113,1500043,,,,,,,2024-11-08,1,,,,,ハレルヤ,0
73,1011003020339,新規,0,2024-11-08,2024-11-08,合同会社ａｉｂｒｏ,,合同会社,東京都,渋谷区,宇田川町１１－６渋谷宇田川ＫＫビル５Ｆ,,13,113,1500042,,,,,,,2024-11-08,1,,,,,,0
78,1011101109447,新規,0,2024-11-08,2024-11-08,株式会社ＡＵＸ,,株式会社,東京都,新宿区,西新宿３丁目３番１３号西新宿水間ビル２Ｆ,,13,104,1600023,,,,,,,2024-11-08,1,,,,,オークス,0
79,1011101109496,新規,0,2024-11-08,2024-11-08,株式会社ＴｏｐＳａｌｅｓ,,株式会社,東京都,新宿区,西新宿３丁目３番１３号西新宿水間ビル２階,,13,104,1600023,,,,,,,2024-11-08,1,,,,,トップセールス,0
80,1011101109505,新規,0,2024-11-08,2024-11-08,東城商事株式会社,,株式会社,東京都,新宿区,高田馬場３丁目３－２,,13,104,1690075,,,,,,,2024-11-08,1,,,,,トウジョウショウジ,0
82,1011103015148,新規,0,2024-11-08,2024-11-08,合同会社ワンリバティ,,合同会社,東京都,新宿区,西新宿３丁目３番１３号西新宿水間ビル６階,,13,104,1600023,,,,,,,2024-11-08,1,,,,,ワンリバティ,0
88,1011401026565,新規,0,2024-11-08,2024-11-08,株式会社Ｎｏｒｅｎ．,,株式会社,東京都,板橋区,板橋４丁目２番４号,,13,119,1730004,,,,,,,2024-11-08,1,,,,,ノレン,0
89,1011403004544,新規,0,2024-11-08,2024-11-08,ＢｓＤ合同会社,,合同会社,東京都,板橋区,成増２丁目１７番２号,,13,119,1750094,,,,,,,2024-11-08,1,,,,,ビーエスディー,0
91,1011501031333,新規,0,2024-11-08,2024-11-08,穎峰株式会社,,株式会社,東京都,荒川区,東日暮里２丁目４３番３号,,13,118,1160014,,,,,,,2024-11-08,1,,,,,エイホウ,0
93,1011503006291,新規,0,2024-11-08,2024-11-08,合同会社うさぎサインカンパニー,,合同会社,東京都,北区,王子３丁目６－１５－４１０,,13,117,1140002,,,,,,,2024-11-08,1,,,,,ウサギサインカンパニー,0
99,1011801045116,新規,0,2024-11-08,2024-11-08,Ｂｌｏｃｋｓｃａｐｅ　Ｊａｐａｎ株式会社,,株式会社,東京都,葛飾区,水元２丁目１０番７号エリービル１３０９,,13,122,1250032,,,,,,,2024-11-08,1,,,,,ブロックスケープジャパン,0
104,1012301014148,新規,0,2024-11-08,2024-11-08,グランツ株式会社,,株式会社,東京都,町田市,つくし野２丁目７番地１７,,13,209,1940001,,,,,,,2024-11-08,1,,,,,グランツ,0
115,1013301053342,新規,0,2024-11-08,2024-11-08,アサヒプロパティ株式会社,,株式会社,東京都,豊島区,池袋２丁目７３番３号４０２,,13,116,1710014,,,,,,,2024-11-08,1,,,,,アサヒプロパティ,0
125,1021001083683,新規,0,2024-11-08,2024-11-08,Ｇａｒｄｅｎ彩株式会社,,株式会社,神奈川県,小田原市,荻窪５８８番地,,14,206,2500042,,,,,,,2024-11-08,1,,,,,ガーデンイロドリ,0
126,1021001083700,新規,0,2024-11-08,2024-11-08,株式会社ＡＬＬ　ＩＮ,,株式会社,神奈川県,相模原市中央区,相模原１丁目１番３２号藤和ハイタウン７０４号,,14,152,2520231,,,,,,,2024-11-08,1,,,,,オールイン,0
130,1021003015081,新規,0,2024-11-08,2024-11-08,ＯｔｏＫ合同会社,,合同会社,神奈川県,座間市,相武台１丁目３４番８－５０５号スタープラザ相武台駅前,,14,216,2520011,,,,,,,2024-11-08,1,,,,,オートゥーケー,0
131,1021003015189,新規,0,2024-11-08,2024-11-08,合同会社くらしほ,,合同会社,神奈川県,海老名市,上今泉５丁目３６番３１号,,14,215,2430431,,,,,,,2024-11-08,1,,,,,クラシホ,0
141,1030001163288,新規,0,2024-11-08,2024-11-08,小林ランチサービス株式会社,,株式会社,埼玉県,秩父郡皆野町,大字金崎３０７番地,,11,362,3691621,,,,,,,2024-11-08,1,,,,,コバヤシランチサービス,0
142,1030001163296,新規,0,2024-11-08,2024-11-08,株式会社ＡＯ,,株式会社,埼玉県,川越市,脇田新町１５番地８,,11,201,3501121,,,,,,,2024-11-08,1,,,,,エーオー,0
143,1030001163313,新規,0,2024-11-08,2024-11-08,株式会社ＯＭＳ,,株式会社,埼玉県,さいたま市緑区,大字三室４２３－３,,11,109,3360911,,,,,,,2024-11-08,1,,,,,オーエムエス,0
144,1030001163321,新規,0,2024-11-08,2024-11-08,株式会社やまと,,株式会社,埼玉県,さいたま市大宮区,桜木町２丁目４９１番地２ＰＯＳＴＯＭＩＹＡ２号棟２０１号室,,11,103,3300854,,,,,,,2024-11-08,1,,,,,ヤマト,0
145,1030001163346,新規,0,2024-11-08,2024-11-08,株式会社ウエダ建設,,株式会社,埼玉県,川越市,伊勢原町５丁目５－７（１号棟２０４号室）,,11,201,3501108,,,,,,,2024-11-08,1,,,,,ウエダケンセツ,0
151,1030003025395,新規,0,2024-11-08,2024-11-08,合同会社Ｉ．Ｒ．Ｃ,,合同会社,埼玉県,川口市,幸町２丁目９番地３２号エスプラナード１１０２号室,,11,203,3320016,,,,,,,2024-11-08,1,,,,,アイアールシー,0
157,1040001136061,新規,0,2024-11-08,2024-11-08,ＭＩＮＴ株式会社,,株式会社,千葉県,東金市,下武射田１９４０番地８,,12,213,2830012,,,,,,,2024-11-08,1,,,,,ミント,0
160,1040003026129,新規,0,2024-11-08,2024-11-08,合同会社クリエイト,,合同会社,千葉県,千葉市中央区,富士見１丁目１４番１３号千葉大栄ビル８Ｆ,,12,101,2600015,,,,,,,2024-11-08,1,,,,,クリエイト,0
161,1040003026137,新規,0,2024-11-08,2024-11-08,合同会社Ｊｓ　Ｌａｂ,,合同会社,千葉県,市原市,五井中央南１丁目１３番地６－１０２,,12,219,2900082,,,,,,,2024-11-08,1,,,,,ジェイズラボ,0
162,1040003026145,新規,0,2024-11-08,2024-11-08,合同会社Ｇａｍｅ　Ｏｆ　Ｌｉｆｅ,,合同会社,千葉県,市川市,菅野２丁目４番１２号,,12,203,2720824,,,,,,,2024-11-08,1,,,,,ゲームオブライフ,0
163,1040003026153,新規,0,2024-11-08,2024-11-08,タカハシ・ジャパン合同会社,,合同会社,千葉県,柏市,柏６丁目３番１７－３０６号,,12,217,2770005,,,,,,,2024-11-08,1,,,,,タカハシジャパン,0
165,1050001055665,新規,0,2024-11-08,2024-11-08,三鹿株式会社,,株式会社,茨城県,鹿嶋市,大字宮中２００番地宮内ビル２Ｆ,,08,222,3140031,,,,,,,2024-11-08,1,,,,,サンロク,0
167,1050005013512,新規,0,2024-11-08,2024-11-08,一般社団法人水戸ジェネチャー協議会,,その他の設立登記法人,茨城県,水戸市,三の丸１丁目１－４２駿優教育会館６階,,08,201,3100011,,,,,,,2024-11-08,1,,,,,ミトジェネチャーキョウギカイ,0
173,1080101025103,新規,0,2024-11-08,2024-11-08,株式会社Ｔ建築設計事務所,,株式会社,静岡県,三島市,東大場２丁目２５番地の９,,22,206,4110802,,,,,,,2024-11-08,1,,,,,ティケンチクセッケイジムショ,0
174,1080401027559,新規,0,2024-11-08,2024-11-08,株式会社ＰＨＤ,,株式会社,静岡県,浜松市中央区,野口町２１８番地の３,,22,138,4300919,,,,,,,2024-11-08,1,,,,,ピーエイチディー,0
193,1120001269992,新規,0,2024-11-08,2024-11-08,株式会社ゆずりは,,株式会社,大阪府,大阪市中央区,船越町１丁目３番５号マーキュリー愛晃ビル４０２,,27,128,5400036,,,,,,,2024-11-08,1,,,,,ユズリハ,0
194,1120001270100,新規,0,2024-11-08,2024-11-08,株式会社プライムケア,,株式会社,大阪府,大阪市中央区,南本町３丁目４番７号,,27,128,5410054,,,,,,,2024-11-08,1,,,,,プライムケア,0
195,1120001270125,新規,0,2024-11-08,2024-11-08,ＡＳＴＥＣ株式会社,,株式会社,大阪府,枚方市,伊加賀北町六丁目２０番地２０２号,,27,210,5730036,,,,,,,2024-11-08,1,,,,,アステック,0
201,1120901050007,新規,0,2024-11-08,2024-11-08,株式会社センチュリー,,株式会社,大阪府,茨木市,総持寺駅前町６番１号,,27,211,5670802,,,,,,,2024-11-08,1,,,,,センチュリー,0
203,1120903005413,新規,0,2024-11-08,2024-11-08,合同会社Ｈａｐｐｉｅｓｔａ,,合同会社,大阪府,高槻市,白梅町４―８―４００１,,27,207,5691116,,,,,,,2024-11-08,1,,,,,ハピエスタ,0
207,1130001078294,新規,0,2024-11-08,2024-11-08,株式会社麺天舎,,株式会社,京都府,京田辺市,田辺中央１丁目５番地３,,26,211,6100334,,,,,,,2024-11-08,1,,,,,メンテンシャ,0
208,1130001078303,新規,0,2024-11-08,2024-11-08,ジャパンスペシャリティエージェンシー株式会社,,株式会社,京都府,京都市下京区,中堂寺南町１３４番地（２号館２階）,,26,106,6008813,,,,,,,2024-11-08,1,,,,,ジャパンスペシャリティエージェンシー,0
209,1130001078311,新規,0,2024-11-08,2024-11-08,株式会社ＳＫＹＣＯＮＮＥＣＴ　ＩＮＣ．,,株式会社,京都府,京都市南区,西九条西柳ノ内町１４番地３６,,26,107,6018436,,,,,,,2024-11-08,1,,,,,スカイコネクトインク,0
213,1130003009982,新規,0,2024-11-08,2024-11-08,合同会社たてつなぎ,,合同会社,京都府,京丹後市,大宮町口大野４８,,26,212,6292501,,,,,,,2024-11-08,1,,,,,タテツナギ,0
214,1130003009990,新規,0,2024-11-08,2024-11-08,合同会社嶽本野ばら,,合同会社,京都府,京都市下京区,玉津島町２９４コモンルーム四条烏丸２階,,26,106,6008427,,,,,,,2024-11-08,1,,,,,タケモトノバラ,0
217,1140001136290,新規,0,2024-11-08,2024-11-08,ＷＢＰ商事株式会社,,株式会社,兵庫県,尼崎市,東難波町５丁目３０－１７アスパイア七番館８Ｆ,,28,202,6600892,,,,,,,2024-11-08,1,,,,,ダブリュービーピーショウジ,0
218,1140001136324,新規,0,2024-11-08,2024-11-08,株式会社せんすｔｈｅａｔｒｅ,,株式会社,兵庫県,伊丹市,梅ノ木４丁目４番２３号,,28,207,6640856,,,,,,,2024-11-08,1,,,,,センスシアター,0
219,1140001136373,新規,0,2024-11-08,2024-11-08,株式会社維翔,,株式会社,兵庫県,芦屋市,朝日ケ丘町１８番３号,,28,206,6590012,,,,,,,2024-11-08,1,,,,,イト,0
223,1140003021301,新規,0,2024-11-08,2024-11-08,合同会社ＴＥＸＩＡ,,合同会社,兵庫県,西宮市,城ケ堀町６番８－７０１号,,28,204,6620856,,,,,,,2024-11-08,1,,,,,テクシア,0
225,1150001027654,新規,0,2024-11-08,2024-11-08,ヴィッセン株式会社,,株式会社,奈良県,奈良市,西ノ京町１８番地の６,,29,201,6308042,,,,,,,2024-11-08,1,,,,,ヴィッセン,0
240,1180001164016,新規,0,2024-11-08,2024-11-08,株式会社Ｒｏｃａ,,株式会社,愛知県,名古屋市北区,紅雲町２４番地の２,,23,103,4620857,,,,,,,2024-11-08,1,,,,,ロカ,0
243,1180003027609,新規,0,2024-11-08,2024-11-08,合同会社中部クリーンサービス,,合同会社,愛知県,名古屋市中川区,荒越町２丁目６番地,,23,110,4540044,,,,,,,2024-11-08,1,,,,,チュウブクリーンサービス,0
246,1180301039207,新規,0,2024-11-08,2024-11-08,株式会社クローバー,,株式会社,愛知県,岡崎市,三崎町７番地１７,,23,202,4440853,,,,,,,2024-11-08,1,,,,,クローバー,0
247,1180301039215,新規,0,2024-11-08,2024-11-08,株式会社シンキホールディングス,,株式会社,愛知県,蒲郡市,八百富町３丁目１１２番地,,23,214,4430055,,,,,,,2024-11-08,1,,,,,シンキホールディングス,0
251,1200001043101,新規,0,2024-11-08,2024-11-08,株式会社ＱＤＦ,,株式会社,岐阜県,岐阜市,下川手１８０番地７,,21,201,5008246,,,,,,,2024-11-08,1,,,,,キューディーエフ,0
253,1210001019967,新規,0,2024-11-08,2024-11-08,株式会社トライアスアジア,,株式会社,福井県,福井市,新田塚町４１２番地２,,18,201,9100064,,,,,,,2024-11-08,1,,,,,トライアスアジア,0
271,1290001107830,新規,0,2024-11-08,2024-11-08,ＣＲＥＡＳ　ＬＹＫ　ＪＡＰＡＮ株式会社,,株式会社,福岡県,福岡市中央区,天神１丁目９番１７号福岡天神フコク生命ビル１５階,,40,133,8100001,,,,,,,2024-11-08,1,,,,,クリスエルワイケージャパン,0
272,1290001107855,新規,0,2024-11-08,2024-11-08,株式会社金海,,株式会社,福岡県,福岡市博多区,東光２丁目２－２２第一平野ビル４０１,,40,132,8120008,,,,,,,2024-11-08,1,,,,,キンカイ,0
274,1290003016014,新規,0,2024-11-08,2024-11-08,たまお合同会社,,合同会社,福岡県,福岡市中央区,天神２丁目２番１２号Ｔ＆Ｊビルディング７Ｆ,,40,133,8100001,,,,,,,2024-11-08,1,,,,,タマオ,0
276,1290801031016,新規,0,2024-11-08,2024-11-08,株式会社ＡＩＮＩＳ,,株式会社,福岡県,北九州市小倉北区,京町３丁目１－１セントシティ７Ｆ,,40,106,8020002,,,,,,,2024-11-08,1,,,,,アイニス,0
280,1320003004510,新規,0,2024-11-08,2024-11-08,合同会社セレンアンドセレン,,合同会社,大分県,大分市,新町１９番３リビオ春日７０２,,44,201,8700028,,,,,,,2024-11-08,1,,,,,セレンアンドセレン,0
287,1370001051888,新規,0,2024-11-08,2024-11-08,株式会社ＩＧＮＩＳ,,株式会社,宮城県,富谷市,上桜木１丁目３７番地４Ｆｏｒｅｓｔａ１０２,,04,216,9813328,,,,,,,2024-11-08,1,,,,,イグニス,0
288,1370001051896,新規,0,2024-11-08,2024-11-08,株式会社Ａ＆Ａ,,株式会社,宮城県,仙台市泉区,加茂１丁目２６番地の９,,04,105,9813122,,,,,,,2024-11-08,1,,,,,エーアンドエー,0
289,1370003006808,新規,0,2024-11-08,2024-11-08,合同会社れかん,,合同会社,宮城県,仙台市青葉区,愛子中央４丁目１２番２０号,,04,101,9893128,,,,,,,2024-11-08,1,,,,,レカン,0
298,1410001013982,新規,0,2024-11-08,2024-11-08,株式会社男鹿なまはげ魚工房,,株式会社,秋田県,男鹿市,野石字大場沢下１番地１７,,05,206,0100401,,,,,,,2024-11-08,1,,,,,オガナマハゲサカナコウボウ,0
308,1430001093024,新規,0,2024-11-08,2024-11-08,エス・コンサルタント株式会社,,株式会社,北海道,札幌市中央区,円山西町５丁目２番２３号,,01,101,0640944,,,,,,,2024-11-08,1,,,,,エスコンサルタント,0
311,1460301005254,新規,0,2024-11-08,2024-11-08,株式会社北海道熟成,,株式会社,北海道,網走市,北五条西８丁目４番２オホーツク夢灯台７０７,,01,211,0930075,,,,,,,2024-11-08,1,,,,,ホッカイドウジュクセイ,0
314,1500001025985,新規,0,2024-11-08,2024-11-08,株式会社ＨＯＫＵＢＥＩ　ＨＯＬＤＩＮＧＳ,,株式会社,愛媛県,東温市,則之内丙１１１９番地１,,38,215,7910313,,,,,,,2024-11-08,1,,,,,ホクベイホールディングス,0
317,1700150127513,新規,0,2024-11-08,2024-10-17,ムイカスノースクール,,その他,新潟県,南魚沼市,小栗山２９１０－１１４,,15,226,9496636,,,,,,,2024-10-17,1,,,,,ムイカスノースクール,0
318,1700150127538,新規,0,2024-11-08,2024-10-17,昇陽中学校・高等学校保護者会,,その他,大阪府,大阪市此花区,朝日１丁目１番９号,,27,104,5540011,,,,,,,2024-10-17,1,,,,,シヨウヨウチユウガツコウコウトウガツコウホゴシヤカイ,0
319,1700150127760,新規,0,2024-11-08,2024-11-08,ｄｓｅｉｋｉ　ＲＲＥ　ＬＬＣ,,外国会社等,,,,,,,,１２０９　ＭＯＵＮＴＡＩＮ　ＲＯＡＤ　ＰＬ　ＮＥ　ＳＴＥ　Ｎ　Ａｌｂｕｑｕｅｒｑｕｅ　ＮＭ　８７１１０　ＵＳＡ,,,,,,2024-11-08,1,,,,,デイセイキアールアールイー,0
328,2010001249550,新規,0,2024-11-08,2024-11-08,株式会社就活３．０,,株式会社,東京都,千代田区,外神田３丁目６－１３,,13,101,1010021,,,,,,,2024-11-08,1,,,,,シュウカツサンテンゼロ,0
329,2010001249658,新規,0,2024-11-08,2024-11-08,ユアイプサム株式会社,,株式会社,東京都,中央区,銀座４丁目１０番１４号ＡＣＮ銀座４ビルディング１１Ｆ,,13,102,1040061,,,,,,,2024-11-08,1,,,,,ユアイプサム,0
330,2010001249690,新規,0,2024-11-08,2024-11-08,株式会社銀座メディカルサービス,,株式会社,東京都,中央区,晴海５丁目４－４－４０２,,13,102,1040053,,,,,,,2024-11-08,1,,,,,ギンザメディカルサービス,0
331,2010001249708,新規,0,2024-11-08,2024-11-08,株式会社オフィス安永,,株式会社,東京都,千代田区,有楽町１丁目１３番２号第一生命日比谷ファースト１２階,,13,101,1000006,,,,,,,2024-11-08,1,,,,,オフィスヤスナガ,0
332,2010001249716,新規,0,2024-11-08,2024-11-08,株式会社Ｒ＆Ｍ,,株式会社,東京都,中央区,銀座１丁目１２番４号Ｎ＆ＥＢＬＤ．６Ｆ,,13,102,1040061,,,,,,,2024-11-08,1,,,,,アールアンドエム,0
333,2010001249749,新規,0,2024-11-08,2024-11-08,株式会社ＣＲＥＳＣＥＮＴ　ＳＫＹ,,株式会社,東京都,中央区,勝どき１丁目１３番６号,,13,102,1040054,,,,,,,2024-11-08,1,,,,,クレセントスカイ,0
334,2010001249757,新規,0,2024-11-08,2024-11-08,株式会社ＴＣ１４,,株式会社,東京都,千代田区,永田町２丁目１１番１号山王パークタワー５階トラスティーズ・コンサルティングＬＬＰ内,,13,101,1000014,,,,,,,2024-11-08,1,,,,,ティーシーフォーティーン,0
336,2010003045436,新規,0,2024-11-08,2024-11-08,ホライゾンリテールコンサルティング合同会社,,合同会社,東京都,千代田区,神田和泉町１番地６－１６ヤマトビル４０５,,13,101,1010024,,,,,,,2024-11-08,1,,,,,ホライゾンリテールコンサルティング,0
370,2010101016388,新規,0,2024-11-08,2024-11-08,株式会社メンテナンスファクトリー八王子,,株式会社,東京都,八王子市,松木３５番地１６,,13,201,1920362,,,,,,,2024-11-08,1,,,,,メンテナンスファクトリーハチオウジ,0
371,2010103002444,新規,0,2024-11-08,2024-11-08,合同会社おおるり,,合同会社,東京都,八王子市,万町１９番地２,,13,201,1920903,,,,,,,2024-11-08,1,,,,,オオルリ,0
377,2010401185949,新規,0,2024-11-08,2024-11-08,ＨＩＲＯ　ＹＡＭＡＧＡＴＡ　ＳＰＡＣＥ株式会社,,株式会社,東京都,港区,白金台５丁目１８番１８号Ｂａｒｂｉｚｏｎ１８ビル１階,,13,103,1080071,,,,,,,2024-11-08,1,,,,,ヒロヤマガタスペース,0
378,2010401186278,新規,0,2024-11-08,2024-11-08,株式会社イマクリエイション,,株式会社,東京都,港区,南青山２丁目２番１５号,,13,103,1070062,,,,,,,2024-11-08,1,,,,,イマクリエイション,0
382,2010601066230,新規,0,2024-11-08,2024-11-08,株式会社アイセル,,株式会社,東京都,江東区,富岡２丁目３番５号堀ビル２０１号室,,13,108,1350047,,,,,,,2024-11-08,1,,,,,アイセル,0
383,2010601066239,新規,0,2024-11-08,2024-11-08,株式会社Ｆｒｅｅ　Ｗｏｒｋｓｓ,,株式会社,東京都,江東区,大島５丁目８番５－９０２号,,13,108,1360072,,,,,,,2024-11-08,1,,,,,フリーワークス,0
384,2010603011201,新規,0,2024-11-08,2024-11-08,Ｃｏｎｔｒａｉｌ合同会社,,合同会社,東京都,江東区,東雲１丁目１０－１４－１１２４,,13,108,1350062,,,,,,,2024-11-08,1,,,,,コントレイル,0
385,2010701046792,新規,0,2024-11-08,2024-11-08,株式会社有村商店,,株式会社,東京都,品川区,南品川１丁目７番２１号,,13,109,1400004,,,,,,,2024-11-08,1,,,,,アリムラショウテン,0
387,2010801035547,新規,0,2024-11-08,2024-11-08,株式会社大岡山エナジー,,株式会社,東京都,大田区,南千束３丁目３６番１１号,,13,111,1450063,,,,,,,2024-11-08,1,,,,,オオオカヤマエナジー,0
389,2010901056286,新規,0,2024-11-08,2024-11-08,株式会社ワットムーン,,株式会社,東京都,世田谷区,駒沢１丁目１７番１５号,,13,112,1540012,,,,,,,2024-11-08,1,,,,,ワットムーン,0
395,2011001165696,新規,0,2024-11-08,2024-11-08,株式会社ＭＯＤＥＲＮ　ＳＫＹ　ＪＡＰＡＮ,,株式会社,東京都,渋谷区,神宮前１丁目１１番１１号,,13,113,1500001,,,,,,,2024-11-08,1,,,,,モダンスカイジャパン,0
396,2011001165713,新規,0,2024-11-08,2024-11-08,株式会社ＳＰ,,株式会社,東京都,目黒区,大橋１丁目１０番１－１７０１号,,13,110,1530044,,,,,,,2024-11-08,1,,,,,エスピー,0
398,2011003020338,新規,0,2024-11-08,2024-11-08,蔵前クリエーションズ合同会社,,合同会社,東京都,目黒区,大岡山１丁目３１－１７－５０６,,13,110,1520033,,,,,,,2024-11-08,1,,,,,クラマエクリエーションズ,0
399,2011003020370,新規,0,2024-11-08,2024-11-08,ＡＬＬＩＮ　ＩＮＴＥＲＮＡＴＩＯＮＡＬ合同会社,,合同会社,東京都,渋谷区,富ヶ谷１丁目１４番１１号,,13,113,1510063,,,,,,,2024-11-08,1,,,,,オールインインターナショナル,0
405,2011101109462,新規,0,2024-11-08,2024-11-08,新宿不動産管理株式会社,,株式会社,東京都,新宿区,百人町２丁目２０番２２号,,13,104,1690073,,,,,,,2024-11-08,1,,,,,シンジュクフドウサンカンリ,0
406,2011101109479,新規,0,2024-11-08,2024-11-08,東京未来教育株式会社,,株式会社,東京都,新宿区,高田馬場１丁目１７番地２号メゾンドスウ２０３,,13,104,1690075,,,,,,,2024-11-08,1,,,,,トウキョウミライキョウイク,0
407,2011101109495,新規,0,2024-11-08,2024-11-08,株式会社ＡＢＯＮＤＡＮＣＥ,,株式会社,東京都,新宿区,四谷１丁目６番３号ザ・レジデンス四谷アベニュー３０４,,13,104,1600004,,,,,,,2024-11-08,1,,,,,アボンダンス,0
411,2011401026564,新規,0,2024-11-08,2024-11-08,朝日投資管理株式会社,,株式会社,東京都,板橋区,大山東町３２番１８号ルイ・ステージ大山９０１,,13,119,1730014,,,,,,,2024-11-08,1,,,,,アサヒトウシカンリ,0
416,2011603004500,新規,0,2024-11-08,2024-11-08,合同会社ツバクロ,,合同会社,東京都,練馬区,豊玉上１丁目２０番４号,,13,120,1760011,,,,,,,2024-11-08,1,,,,,ツバクロ,0
417,2011701027774,新規,0,2024-11-08,2024-11-08,株式会社トーク,,株式会社,東京都,江戸川区,中葛西６丁目１７番９号,,13,123,1340083,,,,,,,2024-11-08,1,,,,,トーク,0
424,2012301014147,新規,0,2024-11-08,2024-11-08,株式会社杉井総建,,株式会社,東京都,町田市,山崎町１４９８番地９,,13,209,1950074,,,,,,,2024-11-08,1,,,,,スギイソウケン,0
427,2012401042460,新規,0,2024-11-08,2024-11-08,株式会社東連,,株式会社,東京都,調布市,西つつじケ丘３丁目３１番地８つつじケ丘シティタワー５０３,,13,208,1820006,,,,,,,2024-11-08,1,,,,,トウレン,0
428,2012701018540,新規,0,2024-11-08,2024-11-08,株式会社ＡＫＡＮＥ,,株式会社,東京都,東久留米市,小山１丁目１番４号,,13,222,2030051,,,,,,,2024-11-08,1,,,,,アカネ,0
430,2013301053333,新規,0,2024-11-08,2024-11-08,株式会社Ｂｕｚｚｒｙ,,株式会社,東京都,豊島区,東池袋３丁目２０番９号３Ｆ－０４,,13,116,1700013,,,,,,,2024-11-08,1,,,,,バズリー,0
432,2020001159971,新規,0,2024-11-08,2024-11-08,株式会社Ｙ’ｓコーポレーション,,株式会社,神奈川県,川崎市幸区,南幸町３丁目１９番地６,,14,132,2120016,,,,,,,2024-11-08,1,,,,,ワイズコーポレーション,0
433,2020001160087,新規,0,2024-11-08,2024-11-08,株式会社アンビット,,株式会社,神奈川県,横浜市港北区,綱島東４丁目３番４２－２０５号,,14,109,2230052,,,,,,,2024-11-08,1,,,,,アンビット,0
435,2020003027219,新規,0,2024-11-08,2024-11-08,合同会社３ＦＩＥＬＤＳ,,合同会社,神奈川県,横浜市南区,井土ケ谷上町３２－８－２,,14,105,2320051,,,,,,,2024-11-08,1,,,,,スリーフィールズ,0
442,2021001083682,新規,0,2024-11-08,2024-11-08,株式会社ＩＳＩ,,株式会社,神奈川県,平塚市,西真土１丁目５番１５号,,14,203,2540019,,,,,,,2024-11-08,1,,,,,アイエスアイ,0
443,2021001083699,新規,0,2024-11-08,2024-11-08,株式会社ＳＯＵＬＭＡＴＥ,,株式会社,神奈川県,藤沢市,藤沢１０６１番地の３望月ビル４階,,14,205,2510052,,,,,,,2024-11-08,1,,,,,ソウルメイト,0
446,2021003015196,新規,0,2024-11-08,2024-11-08,合同会社ＴｈｉｒｔｙＴｈｒｅｅ,,合同会社,神奈川県,藤沢市,南藤沢２３－１０六光会館ビル３０６,,14,205,2510055,,,,,,,2024-11-08,1,,,,,サーティースリー,0
454,2030001163295,新規,0,2024-11-08,2024-11-08,株式会社ＴＳＧ,,株式会社,埼玉県,越谷市,南越谷４丁目５番地１２ベアーズ新越谷２階,,11,222,3430845,,,,,,,2024-11-08,1,,,,,ティーエスージー,0
455,2030001163304,新規,0,2024-11-08,2024-11-08,株式会社イーエスジャパン,,株式会社,埼玉県,三郷市,三郷２丁目１２番７号,,11,237,3410024,,,,,,,2024-11-08,1,,,,,イーエスジャパン,0
456,2030001163312,新規,0,2024-11-08,2024-11-08,株式会社ダークライム,,株式会社,埼玉県,戸田市,新曽南１丁目６－６,,11,224,3350026,,,,,,,2024-11-08,1,,,,,ダークライム,0
457,2030001163320,新規,0,2024-11-08,2024-11-08,株式会社板垣塗装,,株式会社,埼玉県,上尾市,愛宕１丁目１２－８,,11,219,3620034,,,,,,,2024-11-08,1,,,,,イタガキトソウ,0
458,2030001163345,新規,0,2024-11-08,2024-11-08,株式会社Ｆｉｎｅ　ｃｕｒａｔｉｏｎ,,株式会社,埼玉県,草加市,八幡町５９４番地１０,,11,221,3400006,,,,,,,2024-11-08,1,,,,,ファインキュレーション,0
461,2030003025428,新規,0,2024-11-08,2024-11-08,エステートプラン合同会社,,合同会社,埼玉県,狭山市,柏原３１１６番地１８６,,11,215,3501335,,,,,,,2024-11-08,1,,,,,エステートプラン,0
462,2030003025436,新規,0,2024-11-08,2024-11-08,エクスワン合同会社,,合同会社,埼玉県,川口市,戸塚南１丁目１５－９,,11,203,3330817,,,,,,,2024-11-08,1,,,,,エクスワン,0
463,2030003025444,新規,0,2024-11-08,2024-11-08,合同会社中庄企画,,合同会社,埼玉県,川口市,金山町１２番１号,,11,203,3320014,,,,,,,2024-11-08,1,,,,,ナカショウキカク,0
464,2030003025452,新規,0,2024-11-08,2024-11-08,華躍合同会社,,合同会社,埼玉県,川越市,大字砂６２１番地１９,,11,201,3501133,,,,,,,2024-11-08,1,,,,,カヤク,0
466,2030005021929,新規,0,2024-11-08,2024-11-08,非営利型一般社団法人福祉事務所明,,その他の設立登記法人,埼玉県,東松山市,箭弓町１丁目１０番地１０号アーバンパレス東松山１００５,00136929,11,212,3550028,,,,,,,2024-11-08,1,,,,,ヒエイリガタフクシジムショアカリ,0
473,2040001136036,新規,0,2024-11-08,2024-11-08,株式会社ヤワタホールディングス,,株式会社,千葉県,香取郡東庄町,笹川ろ１１０６番地,,12,349,2890602,,,,,,,2024-11-08,1,,,,,ヤワタホールディングス,0
474,2040001136052,新規,0,2024-11-08,2024-11-08,株式会社ＲＩＶＡ,,株式会社,千葉県,船橋市,本町１丁目２６番１９号アリオッソ船橋４０１号,,12,204,2730005,,,,,,,2024-11-08,1,,,,,リーヴァ,0
475,2040001136069,新規,0,2024-11-08,2024-11-08,株式会社ヨシテツ,,株式会社,千葉県,浦安市,富士見３丁目２４番１５号,,12,227,2790043,,,,,,,2024-11-08,1,,,,,ヨシテツ,0
476,2040001136093,新規,0,2024-11-08,2024-11-08,株式会社ティークラフター,,株式会社,千葉県,船橋市,本中山６丁目１２番１４号,,12,204,2730035,,,,,,,2024-11-08,1,,,,,ティークラフター,0
479,2040003026111,新規,0,2024-11-08,2024-11-08,合同会社Ｋ‐Ｄｒｉｖｅ,,合同会社,千葉県,市川市,富浜２丁目１７番１９号,,12,203,2720115,,,,,,,2024-11-08,1,,,,,ケイドライブ,0
480,2040003026136,新規,0,2024-11-08,2024-11-08,合同会社帆の丘工房,,合同会社,千葉県,茂原市,本納３１９３番地２,,12,210,2994114,,,,,,,2024-11-08,1,,,,,ホノオカコウボウ,0
481,2040003026152,新規,0,2024-11-08,2024-11-08,ネパ・ジャパ合同会社,,合同会社,千葉県,柏市,柏６丁目３番１７－２０３号,,12,217,2770005,,,,,,,2024-11-08,1,,,,,ネパジャパ,0
483,2050001055672,新規,0,2024-11-08,2024-11-08,船橋農園株式会社,,株式会社,茨城県,結城市,大字新宿新田２６１番地,,08,207,3070034,,,,,,,2024-11-08,1,,,,,フナバシノウエン,0
484,2050003008793,新規,0,2024-11-08,2024-11-08,合同会社紡玖,,合同会社,茨城県,牛久市,中根町１９７番地,,08,219,3001202,,,,,,,2024-11-08,1,,,,,ツムグ,0
492,2070005010325,新規,0,2024-11-08,2024-11-08,一般社団法人スピカ相続センター,,その他の設立登記法人,群馬県,高崎市,東町１６０番地３３ＡＺＮＯＭＡビル６０１号,,10,202,3700045,,,,,,,2024-11-08,1,,,,,スピカソウゾクセンター,0
501,2080403005140,新規,0,2024-11-08,2024-11-08,海朋合同会社,,合同会社,静岡県,袋井市,浅羽２３８２番地４,,22,216,4371101,,,,,,,2024-11-08,1,,,,,カイボン,0
502,2090001018980,新規,0,2024-11-08,2024-11-08,株式会社きゃんとら,,株式会社,山梨県,富士吉田市,新西原３丁目１０番１２号ハイランドコーポ１０２号室,,19,202,4030017,,,,,,,2024-11-08,1,,,,,,0
503,2090001018989,新規,0,2024-11-08,2024-11-08,株式会社中澤工業,,株式会社,山梨県,南アルプス市,百々１６１８番地１,,19,208,4000214,,,,,,,2024-11-08,1,,,,,ナカザワコウギョウ,0
522,2120001270017,新規,0,2024-11-08,2024-11-08,株式会社サンティエプロパティーズ,,株式会社,大阪府,大阪市中央区,安土町１丁目６番２２号グランメゾン船場２１６,,27,128,5410052,,,,,,,2024-11-08,1,,,,,サンティエプロパティーズ,0
523,2120001270025,新規,0,2024-11-08,2024-11-08,株式会社エアセンス,,株式会社,大阪府,大阪市東淀川区,小松４丁目１６番８－６０２号,,27,114,5330004,,,,,,,2024-11-08,1,,,,,エアセンス,0
529,2120005024609,新規,0,2024-11-08,2024-11-08,一般社団法人日本ダンスアーツ協会,,その他の設立登記法人,大阪府,大阪市淀川区,十三本町３丁目４番２４－１４０４号,,27,123,5320024,,,,,,,2024-11-08,1,,,,,ニホンダンスアーツキョウカイ,0
531,2120101070556,新規,0,2024-11-08,2024-11-08,株式会社マティアス,,株式会社,大阪府,河内長野市,南花台１丁目２番１１号,,27,216,5860077,,,,,,,2024-11-08,1,,,,,マティアス,0
538,2122001038609,新規,0,2024-11-08,2024-11-08,株式会社サーパスイー,,株式会社,大阪府,大東市,御供田３丁目１７番３７号,,27,218,5740025,,,,,,,2024-11-08,1,,,,,サーパスイー,0
545,2140001136348,新規,0,2024-11-08,2024-11-08,株式会社奥畑アグリラボ,,株式会社,兵庫県,西脇市,住吉町２５３番地の１,,28,213,6770031,,,,,,,2024-11-08,1,,,,,オクハタアグリラボ,0
546,2140001136356,新規,0,2024-11-08,2024-11-08,株式会社ｃｙａｎ,,株式会社,兵庫県,明石市,西明石西町２丁目１３－１１－Ｆ,,28,203,6730049,,,,,,,2024-11-08,1,,,,,シアン,0
547,2140001136364,新規,0,2024-11-08,2024-11-08,株式会社ＧＧＲ,,株式会社,兵庫県,姫路市,田寺８丁目３番１６号,,28,201,6700086,,,,,,,2024-11-08,1,,,,,ジージーアール,0
548,2140001136372,新規,0,2024-11-08,2024-11-08,株式会社プラム・ザ・ワン,,株式会社,兵庫県,川西市,大和東２丁目２８番地の８,,28,217,6660111,,,,,,,2024-11-08,1,,,,,プラムザワン,0
550,2140003021275,新規,0,2024-11-08,2024-11-08,エラブル合同会社,,合同会社,兵庫県,高砂市,米田町米田８８４番地の３,,28,216,6760805,,,,,,,2024-11-08,1,,,,,エラブル,0
551,2140003021300,新規,0,2024-11-08,2024-11-08,合同会社あすかコーポレーション,,合同会社,兵庫県,川西市,下加茂１丁目２７番１２号,,28,217,6660022,,,,,,,2024-11-08,1,,,,,アスカコーポレーション,0
552,2150001027653,新規,0,2024-11-08,2024-11-08,株式会社エーキャリア,,株式会社,奈良県,大和郡山市,筒井町１２３４番地３、２Ｆ,,29,203,6391123,,,,,,,2024-11-08,1,,,,,エーキャリア,0
555,2160001026324,新規,0,2024-11-08,2024-11-08,株式会社ＮＫｐｒｏｊｅｃｔ,,株式会社,滋賀県,草津市,笠山５丁目３番６５－５１４号,,25,206,5250072,,,,,,,2024-11-08,1,,,,,エヌケープロジェクト,0
568,2180301039206,新規,0,2024-11-08,2024-11-08,株式会社オーディーエヌ,,株式会社,愛知県,刈谷市,野田町吹戸４８番地１,,23,210,4480803,,,,,,,2024-11-08,1,,,,,オーディーエヌ,0
569,2180301039214,新規,0,2024-11-08,2024-11-08,株式会社オメガダム,,株式会社,愛知県,豊田市,花沢町西ノ入３番地８３,,23,211,4443231,,,,,,,2024-11-08,1,,,,,オメガダム,0
573,2190003004853,新規,0,2024-11-08,2024-11-08,合同会社みえの森苺園,,合同会社,三重県,津市,小舟１０番地,,24,201,5140072,,,,,,,2024-11-08,1,,,,,ミエノモリイチゴエン,0
577,2200003006575,新規,0,2024-11-08,2024-11-08,合同会社Ｎｉｐｐｏｎ　Ｄｅｌｉｇｈｔｓ,,合同会社,岐阜県,可児郡御嵩町,伏見３５７番地１１,,21,521,5050125,,,,,,,2024-11-08,1,,,,,ニッポンデライツ,0
582,2250001020887,新規,0,2024-11-08,2024-11-08,ヒサノワークス株式会社,,株式会社,山口県,下松市,瑞穂町２丁目１７番１５号,,35,207,7440075,,,,,,,2024-11-08,1,,,,,ヒサノワークス,0
586,2280001009283,新規,0,2024-11-08,2024-11-08,彩百景株式会社,,株式会社,島根県,大田市,水上町白坏６５８番地１,,32,205,6940303,,,,,,,2024-11-08,1,,,,,イロドリヒャッケイ,0
591,2290001107838,新規,0,2024-11-08,2024-11-08,株式会社米立,,株式会社,福岡県,糟屋郡須惠町,大字旅石８６番地６２,,40,344,8112221,,,,,,,2024-11-08,1,,,,,コメタツ,0
592,2290803004885,新規,0,2024-11-08,2024-11-08,もと村合同会社,,合同会社,福岡県,田川市,大字夏吉２５３－２６ボローニアヒルＬ（桐ケ丘）,,40,206,8250004,,,,,,,2024-11-08,1,,,,,モトムラ,0
596,2330001032627,新規,0,2024-11-08,2024-11-08,株式会社ガーデニングアソ,,株式会社,熊本県,阿蘇郡南阿蘇村,大字白川２０４６番地,,43,433,8691502,,,,,,,2024-11-08,1,,,,,ガーデニングアソ,0
603,2350001019283,新規,0,2024-11-08,2024-11-08,株式会社おそうじ輝き隊,,株式会社,宮崎県,東諸県郡国富町,大字木脇１７２０番地３,,45,382,8801113,,,,,,,2024-11-08,1,,,,,オソウジカガヤキタイ,0
604,2360001034406,新規,0,2024-11-08,2024-11-08,株式会社安部商会,,株式会社,沖縄県,うるま市,与那城西原６４７番地エンジェルパレス２０７,,47,213,9042302,,,,,,,2024-11-08,1,,,,,アベショウカイ,0
607,2370003006807,新規,0,2024-11-08,2024-11-08,合同会社三友計画,,合同会社,宮城県,栗原市,若柳字川南南谷地６番地,,04,213,9895502,,,,,,,2024-11-08,1,,,,,サンユウケイカク,0
608,2370003006815,新規,0,2024-11-08,2024-11-08,合同会社ＫＤＳコネクト,,合同会社,宮城県,多賀城市,大代４丁目１５番１７号,,04,209,9850832,,,,,,,2024-11-08,1,,,,,ケーディーエスコネクト,0
614,2380001034890,新規,0,2024-11-08,2024-11-08,大竹興業株式会社,,株式会社,福島県,いわき市,内郷高野町銅屋作３４番地の１０,,07,204,9738406,,,,,,,2024-11-08,1,,,,,オオタケコウギョウ,0
620,2390001017787,新規,0,2024-11-08,2024-11-08,株式会社Ｃｈｅｒｒｙニット,,株式会社,山形県,寒河江市,大字米沢５７８番地２,,06,206,9900525,,,,,,,2024-11-08,1,,,,,チェリーニット,0
625,2420003003022,新規,0,2024-11-08,2024-11-08,サスティヘルス合同会社,,合同会社,青森県,弘前市,大字鷹匠町６４番地６,,02,202,0368271,,,,,,,2024-11-08,1,,,,,サスティヘルス,0
635,2470003002746,新規,0,2024-11-08,2024-11-08,合同会社ＺＺＺ,,合同会社,香川県,高松市,多肥上町１１８８番地６,,37,201,7618076,,,,,,,2024-11-08,1,,,,,ジージージー,0
651,3010001249533,新規,0,2024-11-08,2024-11-08,株式会社ｄｅｌｅ,,株式会社,東京都,文京区,本郷６丁目２５番１４号,,13,105,1130033,,,,,,,2024-11-08,1,,,,,ディーリー,0
652,3010001249649,新規,0,2024-11-08,2024-11-08,株式会社イエトコト,,株式会社,東京都,千代田区,大手町１丁目６番１号大手町ビルＳｐａｃｅｓ大手町,,13,101,1000004,,,,,,,2024-11-08,1,,,,,イエトコト,0
653,3010001249673,新規,0,2024-11-08,2024-11-08,株式会社キャリアファクトリー,,株式会社,東京都,中央区,銀座１丁目１２番４号Ｎ＆ＥＢＬＤ．６Ｆ,,13,102,1040061,,,,,,,2024-11-08,1,,,,,キャリアファクトリー,0
654,3010001249707,新規,0,2024-11-08,2024-11-08,Ｎｅｘａｉ株式会社,,株式会社,東京都,中央区,勝どき４丁目６番２－２４２２号,,13,102,1040054,,,,,,,2024-11-08,1,,,,,ネックスエーアイ,0
655,3010001249715,新規,0,2024-11-08,2024-11-08,テックランチャー株式会社,,株式会社,東京都,千代田区,神田神保町３丁目２１番７号ＭＩＲＡＩ－ＳＴＵＤＩＯ,,13,101,1010051,,,,,,,2024-11-08,1,,,,,テックランチャー,0
657,3010003045360,新規,0,2024-11-08,2024-11-08,ＯＭＲＦ合同会社,,合同会社,東京都,千代田区,霞が関３丁目２番５号,,13,101,1000013,,,,,,,2024-11-08,1,,,,,オーエムアールエフ,0
658,3010003045377,新規,0,2024-11-08,2024-11-08,合同会社Ｃ‐ＥＲＡ,,合同会社,東京都,中央区,銀座１丁目２２番１１号銀座大竹ビジデンス２Ｆ,,13,102,1040061,,,,,,,2024-11-08,1,,,,,シーエラ,0
659,3010003045385,新規,0,2024-11-08,2024-11-08,合同会社クローバー２０２５,,合同会社,東京都,千代田区,丸の内１丁目４番１号東京共同会計事務所内,,13,101,1000005,,,,,,,2024-11-08,1,,,,,クローバーニセンニジュウゴ,0
660,3010003045402,新規,0,2024-11-08,2024-11-08,合同会社サニースクエア,,合同会社,東京都,中央区,銀座１丁目１２番４号Ｎ＆ＥＢＬＤ．７階,,13,102,1040061,,,,,,,2024-11-08,1,,,,,サニースクエア,0
661,3010003045435,新規,0,2024-11-08,2024-11-08,オパール合同会社,,合同会社,東京都,千代田区,丸の内１丁目４番１号東京共同会計事務所内,,13,101,1000005,,,,,,,2024-11-08,1,,,,,オパール,0
689,3010101016387,新規,0,2024-11-08,2024-11-08,ジャパンマックストレーディング株式会社,,株式会社,東京都,八王子市,横山町４番５－１００６号ＢｒｉｌｌｉａＴｏｗｅｒ八王子,,13,201,1920081,,,,,,,2024-11-08,1,,,,,ジャパンマックストレーディング,0
701,3010401186104,新規,0,2024-11-08,2024-11-08,株式会社宝燈,,株式会社,東京都,港区,南青山２丁目２番１５号ＷＩＮ５３１,,13,103,1070062,,,,,,,2024-11-08,1,,,,,ポウトウ,0
702,3010401186244,新規,0,2024-11-08,2024-11-08,株式会社ＤＷＩ,,株式会社,東京都,港区,南青山３丁目１番３６号青山丸竹ビル６Ｆ,,13,103,1070062,,,,,,,2024-11-08,1,,,,,ディーダブリュアイ,0
703,3010405023724,新規,0,2024-11-08,2024-11-08,一般社団法人プチジャルダン,,その他の設立登記法人,東京都,港区,南青山３丁目１４番２４－１０２号,,13,103,1070062,,,,,,,2024-11-08,1,,,,,プチジャルダン,0
707,3010601066246,新規,0,2024-11-08,2024-11-08,株式会社ＢＬＵＥ,,株式会社,東京都,江東区,千石３丁目１番４５－４０１号,,13,108,1350015,,,,,,,2024-11-08,1,,,,,ブルー,0
710,3010603011200,新規,0,2024-11-08,2024-11-08,ＳＯＹ合同会社,,合同会社,東京都,江東区,大島２丁目５番１－２０２号,,13,108,1360072,,,,,,,2024-11-08,1,,,,,エスオーワイ,0
711,3010701046783,新規,0,2024-11-08,2024-11-08,株式会社Ｇ＆Ｋ,,株式会社,東京都,品川区,西五反田１丁目１７番１号第１９高橋ビル５階,,13,109,1410031,,,,,,,2024-11-08,1,,,,,ジーアンドケイ,0
712,3010801035554,新規,0,2024-11-08,2024-11-08,株式会社オークス,,株式会社,東京都,大田区,南馬込４丁目４４番３号ふじグレースマンション４０１,,13,111,1430025,,,,,,,2024-11-08,1,,,,,オークス,0
717,3011001165679,新規,0,2024-11-08,2024-11-08,株式会社Ｇｏｏｓｅｒ,,株式会社,東京都,渋谷区,恵比寿西２丁目８番４号ＥＸ恵比寿西ビル５階,,13,113,1500021,,,,,,,2024-11-08,1,,,,,グーサー,0
718,3011001165687,新規,0,2024-11-08,2024-11-08,株式会社ＲｉＮＮ,,株式会社,東京都,渋谷区,恵比寿西２丁目４番８号ウィンド恵比寿ビル８Ｆ,,13,113,1500021,,,,,,,2024-11-08,1,,,,,リン,0
719,3011001165836,新規,0,2024-11-08,2024-11-08,株式会社Ｖｉｓｋｅｔ,,株式会社,東京都,渋谷区,道玄坂１丁目１０番８号渋谷道玄坂東急ビル２Ｆ‐Ｃ,,13,113,1500043,,,,,,,2024-11-08,1,,,,,ビスケット,0
720,3011003020345,新規,0,2024-11-08,2024-11-08,合同会社ｃｒａｆｔｍａｔｅ,,合同会社,東京都,渋谷区,神宮前６丁目２３番４号桑野ビル２階,,13,113,1500001,,,,,,,2024-11-08,1,,,,,クラフトメイト,0
721,3011003020394,新規,0,2024-11-08,2024-11-08,合同会社ｂｉＴｒｅｅ,,合同会社,東京都,渋谷区,道玄坂１丁目１０番８号渋谷道玄坂東急ビル２Ｆ－Ｃ,,13,113,1500043,,,,,,,2024-11-08,1,,,,,バイツリー,0
727,3011101109503,新規,0,2024-11-08,2024-11-08,株式会社熟練,,株式会社,東京都,新宿区,水道町３－１４神楽坂Ｎビル,,13,104,1620811,,,,,,,2024-11-08,1,,,,,ジュクレン,0
730,3011103015105,新規,0,2024-11-08,2024-11-08,合同会社サブリーダー,,合同会社,東京都,新宿区,西新宿３丁目３番１３号西新宿水間ビル２Ｆ,,13,104,1600023,,,,,,,2024-11-08,1,,,,,サブリーダー,0
734,3011401026571,新規,0,2024-11-08,2024-11-08,株式会社ｔｒｉ　ＺＥＮ,,株式会社,東京都,板橋区,中丸町４９番地２,,13,119,1730026,,,,,,,2024-11-08,1,,,,,トリゼン,0
736,3011403004550,新規,0,2024-11-08,2024-11-08,合同会社長門塗装,,合同会社,東京都,板橋区,若木２丁目９番１９号,,13,119,1740065,,,,,,,2024-11-08,1,,,,,ナガトトソウ,0
740,3011803006510,新規,0,2024-11-08,2024-11-08,ガーデンホーム合同会社,,合同会社,東京都,足立区,西新井栄町１丁目７番４号ホワイトハイツ２０２,,13,121,1230843,,,,,,,2024-11-08,1,,,,,ガーデンホーム,0
741,3012301014146,新規,0,2024-11-08,2024-11-08,株式会社ＴａｋｅＲｕｎ,,株式会社,東京都,町田市,常盤町３３０６番地２,,13,209,1940213,,,,,,,2024-11-08,1,,,,,テイクラン,0
759,3020001159962,新規,0,2024-11-08,2024-11-08,フォーカス・フィールドコム株式会社,,株式会社,神奈川県,横浜市泉区,和泉町６２０８番地１１グリーンハイムいずみ野３８棟３０２号,,14,116,2450016,,,,,,,2024-11-08,1,,,,,フォーカスフィールドコム,0
760,3020001159970,新規,0,2024-11-08,2024-11-08,株式会社ライタスホース,,株式会社,神奈川県,川崎市川崎区,桜本１丁目２０番３－６０５号,,14,131,2100833,,,,,,,2024-11-08,1,,,,,ライタスホース,0
763,3020003027127,新規,0,2024-11-08,2024-11-08,合同会社ｆｅｔｅ　ｄｅ　ｌ’ｅｃｏｌｅ,,合同会社,神奈川県,横浜市西区,浅間町１丁目４番３号ウィザードビル４０２,,14,103,2200072,,,,,,,2024-11-08,1,,,,,フェットドゥレコール,0
768,3021001083698,新規,0,2024-11-08,2024-11-08,株式会社グリーングローブ,,株式会社,神奈川県,中郡二宮町,二宮９１番地６６,,14,342,2590123,,,,,,,2024-11-08,1,,,,,グリーングローブ,0
772,3021005013214,新規,0,2024-11-08,2024-11-08,弁護士法人至誠法律事務所,,その他の設立登記法人,神奈川県,小田原市,本町２丁目３番２４号青色会館２階,,14,206,2500012,,,,,,,2024-11-08,1,,,,,シセイホウリツジムショ,0
784,3030001163286,新規,0,2024-11-08,2024-11-08,株式会社ＮＥコミュニケーションズ,,株式会社,埼玉県,越谷市,南越谷４丁目１１番地５トラビ南越谷６Ｆ－２７,,11,222,3430845,,,,,,,2024-11-08,1,,,,,エヌイーコミュニケーションズ,0
785,3030001163294,新規,0,2024-11-08,2024-11-08,株式会社ｉｌｌｕ,,株式会社,埼玉県,久喜市,佐間１０６２番地５,,11,232,3491124,,,,,,,2024-11-08,1,,,,,イルル,0
786,3030001163311,新規,0,2024-11-08,2024-11-08,佐藤貿易株式会社,,株式会社,埼玉県,春日部市,小渕１９１２番地１７,,11,214,3440007,,,,,,,2024-11-08,1,,,,,サトウボウエキ,0
787,3030001163344,新規,0,2024-11-08,2024-11-08,株式会社ピスケス,,株式会社,埼玉県,川口市,新井町２３番１号,,11,203,3320005,,,,,,,2024-11-08,1,,,,,ピスケス,0
791,3030003025427,新規,0,2024-11-08,2024-11-08,合同会社Ｓ・Ｇ・Ｔ・Ｃスゴテック,,合同会社,埼玉県,川越市,大字平塚５４番地,,11,201,3500814,,,,,,,2024-11-08,1,,,,,エスジーティーシースゴテック,0
792,3030003025435,新規,0,2024-11-08,2024-11-08,合同会社ロールブラン,,合同会社,埼玉県,川口市,元郷３丁目１７番６号,,11,203,3320011,,,,,,,2024-11-08,1,,,,,ロールブラン,0
793,3030003025443,新規,0,2024-11-08,2024-11-08,合同会社ファースト,,合同会社,埼玉県,さいたま市大宮区,桜木町１丁目３９８番地１アドグレイス大宮７Ｆ,,11,103,3300854,,,,,,,2024-11-08,1,,,,,ファースト,0
797,3040001136043,新規,0,2024-11-08,2024-11-08,株式会社ＦＬＯＣＡＬ,,株式会社,千葉県,南房総市,和田町海発１４４７番地１,,12,234,2992712,,,,,,,2024-11-08,1,,,,,フローカル,0
798,3040001136051,新規,0,2024-11-08,2024-11-08,ＳＥＮＤＡＩ株式会社,,株式会社,千葉県,千葉市若葉区,上泉町６６６番地,,12,104,2650045,,,,,,,2024-11-08,1,,,,,センダイ,0
799,3040001136068,新規,0,2024-11-08,2024-11-08,株式会社総丸,,株式会社,千葉県,千葉市美浜区,ひび野２丁目４番地プレナ幕張４Ｆ,,12,106,2610021,,,,,,,2024-11-08,1,,,,,フサマル,0
800,3040001136076,新規,0,2024-11-08,2024-11-08,株式会社ＪＥＫ,,株式会社,千葉県,松戸市,松戸１３９３－５－３０３,,12,207,2710092,,,,,,,2024-11-08,1,,,,,ジェイイーケイ,0
801,3040001136084,新規,0,2024-11-08,2024-11-08,株式会社ＨＡＭＡ,,株式会社,千葉県,勝浦市,部原１０６５番地,,12,218,2995223,,,,,,,2024-11-08,1,,,,,ハマ,0
805,3040003026143,新規,0,2024-11-08,2024-11-08,合同会社ＴＩＰＳＹ,,合同会社,千葉県,木更津市,瓜倉８６３番地３,,12,206,2920007,,,,,,,2024-11-08,1,,,,,ティプシー,0
806,3040003026151,新規,0,2024-11-08,2024-11-08,ガンバロウ・ジャパン合同会社,,合同会社,千葉県,柏市,柏６丁目３番１７－２０５号,,12,217,2770005,,,,,,,2024-11-08,1,,,,,ガンバロウジャパン,0
808,3050001055639,新規,0,2024-11-08,2024-11-08,ＯＨＡＮＡ　ＨＯＬＤＩＮＧＳ　ＪＡＰＡＮ株式会社,,株式会社,茨城県,筑西市,海老ヶ島１２５０－１,,08,227,3004517,,,,,,,2024-11-08,1,,,,,オハナホールディングスジャパン,0
809,3050001055663,新規,0,2024-11-08,2024-11-08,Ｃａｒ　Ｌｉｎｋ株式会社,,株式会社,茨城県,下妻市,黒駒７－５,,08,210,3040007,,,,,,,2024-11-08,1,,,,,カーリンク,0
810,3050001055671,新規,0,2024-11-08,2024-11-08,株式会社パラド,,株式会社,茨城県,水戸市,河和田町４３７７番地の９０,,08,201,3114153,,,,,,,2024-11-08,1,,,,,パラド,0
812,3050003008776,新規,0,2024-11-08,2024-11-08,合同会社ＴＡＭ　ＰＨＵＣ,,合同会社,茨城県,つくばみらい市,小絹６２２番地１,,08,235,3002445,,,,,,,2024-11-08,1,,,,,タムフック,0
813,3050003008792,新規,0,2024-11-08,2024-11-08,ＫＣ合同会社,,合同会社,茨城県,土浦市,荒川沖東３丁目２番８号シティマンション１０１号室,,08,203,3000871,,,,,,,2024-11-08,1,,,,,ケーシー,0
814,3050003008801,新規,0,2024-11-08,2024-11-08,合同会社ＦＰＣ,,合同会社,茨城県,水戸市,千波町２４３２－５エミネンス山波Ｂ１０２,,08,201,3100851,,,,,,,2024-11-08,1,,,,,エフピーシー,0
815,3050005013519,新規,0,2024-11-08,2024-11-08,一般社団法人こどものらくえんまちづくりラボ,,その他の設立登記法人,茨城県,取手市,下高井２０８９番地３１,,08,217,3020038,,,,,,,2024-11-08,1,,,,,コドモノラクエンマチヅクリラボ,0
818,3060001037636,新規,0,2024-11-08,2024-11-08,株式会社静原屋,,株式会社,栃木県,真岡市,田島１０７４番地１,,09,209,3214404,,,,,,,2024-11-08,1,,,,,シズハラヤ,0
821,3070001042346,新規,0,2024-11-08,2024-11-08,株式会社上州寿,,株式会社,群馬県,桐生市,境野町７丁目１７７６番地５,,10,203,3760002,,,,,,,2024-11-08,1,,,,,ジョウシュウコトブキ,0
827,3070003005648,新規,0,2024-11-08,2024-11-08,合同会社ふくら,,合同会社,群馬県,伊勢崎市,田部井町１丁目８６７番地１５,,10,204,3792222,,,,,,,2024-11-08,1,,,,,フクラ,0
835,3080001026579,新規,0,2024-11-08,2024-11-08,ＪＧＡホールディングス株式会社,,株式会社,静岡県,静岡市駿河区,石部２５－７,,22,102,4210123,,,,,,,2024-11-08,1,,,,,ジェイジーエーホールディングス,0
838,3080101025118,新規,0,2024-11-08,2024-11-08,アトラス株式会社,,株式会社,静岡県,富士市,津田１１９番地,,22,210,4170034,,,,,,,2024-11-08,1,,,,,アトラス,0
842,3090001018988,新規,0,2024-11-08,2024-11-08,株式会社Ｗａｒｂｌｅ,,株式会社,山梨県,北杜市,高根町清里３５４５番地４６９,,19,209,4070301,,,,,,,2024-11-08,1,,,,,ウァーブル,0
845,3100001038002,新規,0,2024-11-08,2024-11-08,株式会社永日,,株式会社,長野県,北佐久郡軽井沢町,大字発地１８８４－５,,20,321,3890113,,,,,,,2024-11-08,1,,,,,エイジツ,0
864,3120001270073,新規,0,2024-11-08,2024-11-08,３２１株式会社,,株式会社,大阪府,大阪市中央区,西心斎橋１丁目１６番１５号川西ビル２Ｆ,,27,128,5420086,,,,,,,2024-11-08,1,,,,,サニー,0
865,3120001270107,新規,0,2024-11-08,2024-11-08,株式会社ダイセン,,株式会社,大阪府,大阪市北区,梅田１丁目２番２号大阪駅前第２ビル１２－１２,,27,127,5300001,,,,,,,2024-11-08,1,,,,,ダイセン,0
866,3120001270115,新規,0,2024-11-08,2024-11-08,株式会社ヨシダ,,株式会社,大阪府,守口市,藤田町３丁目４０番１８－５１６号,,27,209,5700014,,,,,,,2024-11-08,1,,,,,ヨシダ,0
873,3120003027926,新規,0,2024-11-08,2024-11-08,合同会社ＲＡＲＮ　ＯＳＡＫＡ,,合同会社,大阪府,大阪市西淀川区,中島１丁目３５番１７０－７号,,27,113,5550041,,,,,,,2024-11-08,1,,,,,ラーンオオサカ,0
875,3120005024608,新規,0,2024-11-08,2024-11-08,税理士法人みんなの会計事務所,,その他の設立登記法人,大阪府,大阪市北区,堂山町１８番３号,,27,127,5300027,,,,,,,2024-11-08,1,,,,,ミンナノカイケイジムショ,0
880,3120101070555,新規,0,2024-11-08,2024-11-08,株式会社トラステッドパートナーズ,,株式会社,大阪府,堺市堺区,三国ヶ丘御幸通１０－１－５階,,27,141,5900028,,,,,,,2024-11-08,1,,,,,トラステッドパートナーズ,0
882,3120103006128,新規,0,2024-11-08,2024-11-08,合同会社ＴＲＡＮＥＳ,,合同会社,大阪府,堺市東区,大美野１７１番地１８,,27,143,5998126,,,,,,,2024-11-08,1,,,,,トラネス,0
889,3122001038608,新規,0,2024-11-08,2024-11-08,株式会社Ｂｒａｉｄ　Ｓｅｃｕｒｉｔｙ,,株式会社,大阪府,東大阪市,大蓮北２丁目１２番２４号,00136936,27,227,5770826,,,,,,,2024-11-08,1,,,,,ブレイドセキュリティ,0
890,3122001038616,新規,0,2024-11-08,2024-11-08,株式会社Ｕテック,,株式会社,大阪府,八尾市,南本町９丁目２２－８,,27,212,5810081,,,,,,,2024-11-08,1,,,,,ユーテック,0
891,3122003003031,新規,0,2024-11-08,2024-11-08,合同会社エバー,,合同会社,大阪府,八尾市,堤町１丁目３８番地の２４,,27,212,5810832,,,,,,,2024-11-08,1,,,,,エバー,0
897,3130001078169,新規,0,2024-11-08,2024-11-08,株式会社ＰＬＵＳ．Ａ,,株式会社,京都府,久世郡久御山町,森村東２１６番地,,26,322,6130024,,,,,,,2024-11-08,1,,,,,プラスエー,0
904,3140001136371,新規,0,2024-11-08,2024-11-08,株式会社ＴＲＵＥ　ＮＯＲＴＨ,,株式会社,兵庫県,加古川市,米田町平津６７１－１５,,28,210,6750054,,,,,,,2024-11-08,1,,,,,トゥルーノース,0
906,3140003021299,新規,0,2024-11-08,2024-11-08,合同会社ｈｏｕｓｅ　ｉｎｎｏｖａｔｉｏｎ,,合同会社,兵庫県,神戸市東灘区,北青木３丁目８番３０－１号ＥＸＳＯＮＩＡ北青木１０３号,,28,101,6580014,,,,,,,2024-11-08,1,,,,,ハウスイノヴェーション,0
907,3140005027261,新規,0,2024-11-08,2024-11-08,一般社団法人さんサンにほんご,,その他の設立登記法人,兵庫県,たつの市,揖保川町野田３１９番地２,,28,229,6711602,,,,,,,2024-11-08,1,,,,,サンサンニホンゴ,0
910,3150001027644,新規,0,2024-11-08,2024-11-08,株式会社１０３１,,株式会社,奈良県,天理市,嘉幡町４７６番地１,,29,204,6320084,,,,,,,2024-11-08,1,,,,,トミー,0
921,3170005007112,新規,0,2024-11-08,2024-11-08,一般社団法人災害対策支援者協会,,その他の設立登記法人,和歌山県,田辺市,新庄町３３５３－９和歌山県立情報交流センタービッグ・ユー内,,30,206,6460011,,,,,,,2024-11-08,1,,,,,サイガイタイサクシエンシャキョウカイ,0
927,3180001164088,新規,0,2024-11-08,2024-11-08,株式会社プライムホールディングス,,株式会社,愛知県,名古屋市中区,栄１丁目１２番１０５号ＳＦＰビル４Ｆ,,23,106,4600008,,,,,,,2024-11-08,1,,,,,プライムホールディングス,0
929,3180003027573,新規,0,2024-11-08,2024-11-08,合同会社絲,,合同会社,愛知県,名古屋市西区,那古野１丁目１９番４号,,23,104,4510042,,,,,,,2024-11-08,1,,,,,イト,0
930,3180003027581,新規,0,2024-11-08,2024-11-08,合同会社ＨＯＭＥ,,合同会社,愛知県,名古屋市中村区,椿町２０番１２号,,23,105,4530015,,,,,,,2024-11-08,1,,,,,ホーム,0
934,3190001031790,新規,0,2024-11-08,2024-11-08,株式会社ＲＩＫＫＡＤＯＲ,,株式会社,三重県,津市,一志町大仰１０９３番地１,,24,201,5152524,,,,,,,2024-11-08,1,,,,,リッカドール,0
938,3190003004852,新規,0,2024-11-08,2024-11-08,マックフォールズ合同会社,,合同会社,三重県,伊勢市,東豊浜町４４３６番地,,24,203,5150502,,,,,,,2024-11-08,1,,,,,マックフォールズ,0
944,3200001043108,新規,0,2024-11-08,2024-11-08,株式会社大空工務店,,株式会社,岐阜県,飛騨市,神岡町西１１５９番地,,21,217,5061155,,,,,,,2024-11-08,1,,,,,オオゾラコウムテン,0
945,3200003006574,新規,0,2024-11-08,2024-11-08,ＧＯＬＤＳＴＡＲ合同会社,,合同会社,岐阜県,可児市,広見１丁目３３番地１リアルビル３０１号室,,21,214,5090214,,,,,,,2024-11-08,1,,,,,ゴールドスター,0
947,3220001026309,新規,0,2024-11-08,2024-11-08,株式会社辻エクステリア,00136928,株式会社,石川県,加賀市,柏野町ト７０番地１,,17,206,9220262,,,,,,,2024-11-08,1,,,,,ツジエクステリア,0
950,3230001020608,新規,0,2024-11-08,2024-11-08,株式会社竹島板金,,株式会社,富山県,下新川郡入善町,田中８１番地１,,16,342,9390672,,,,,,,2024-11-08,1,,,,,タケシマバンキン,0
961,3250005008960,新規,0,2024-11-08,2024-11-08,医療法人糖心会,,その他の設立登記法人,山口県,下関市,伊倉新町１丁目５番４３号,,35,201,7510869,,,,,,,2024-11-08,1,,,,,トウシンカイ,0
963,3260001039620,新規,0,2024-11-08,2024-11-08,つなのわ株式会社,,株式会社,岡山県,岡山市北区,京町９－２０,,33,101,7000838,,,,,,,2024-11-08,1,,,,,ツナノワ,0
964,3280001009282,新規,0,2024-11-08,2024-11-08,古百景株式会社,,株式会社,島根県,大田市,水上町白坏６５８番地１,,32,205,6940303,,,,,,,2024-11-08,1,,,,,イニシエヒャッケイ,0
965,3290001107845,新規,0,2024-11-08,2024-11-08,株式会社えーる,,株式会社,福岡県,福岡市南区,野間１丁目１７番１７－１０２号,,40,134,8150041,,,,,,,2024-11-08,1,,,,,エール,0
969,3290803004876,新規,0,2024-11-08,2024-11-08,合同会社玄海の森,,合同会社,福岡県,北九州市小倉南区,南方５丁目９番３２号,,40,107,8020976,,,,,,,2024-11-08,1,,,,,ゲンカイノモリ,0
970,3290803004884,新規,0,2024-11-08,2024-11-08,北九州パーツサービス合同会社,,合同会社,福岡県,北九州市小倉南区,貫弥生が丘２丁目２０番２５号,,40,107,8000234,,,,,,,2024-11-08,1,,,,,パーツサービス,0
971,3300001013959,新規,0,2024-11-08,2024-11-08,株式会社リンクス,,株式会社,佐賀県,三養基郡上峰町,大字坊所２５５０番地７,,41,345,8490123,,,,,,,2024-11-08,1,,,,,リンクス,0
975,3310001019303,新規,0,2024-11-08,2024-11-08,スターラケット株式会社,,株式会社,長崎県,大村市,西三城町１４番地２３,,42,205,8560825,,,,,,,2024-11-08,1,,,,,スターラケット,0
978,3330001032626,新規,0,2024-11-08,2024-11-08,ＥＧＩＮＣＩ　Ｉｎｔｅｒｎａｔｉｏｎａｌ株式会社,,株式会社,熊本県,熊本市中央区,上通町４番６号上通ビル,,43,101,8600845,,,,,,,2024-11-08,1,,,,,エギンジインターナショナル,0
982,3340005009784,新規,0,2024-11-08,2024-11-08,一般社団法人かごしまＮＰＯ支援センター,,その他の設立登記法人,鹿児島県,鹿児島市,新屋敷町１６番公社ビル２１５号,,46,201,8920838,,,,,,,2024-11-08,1,,,,,カゴシマエヌピーオーシエンセンター,0
989,3370001051894,新規,0,2024-11-08,2024-11-08,株式会社建築ストックコンサルタント,,株式会社,宮城県,仙台市青葉区,中江１丁目４番２４号,,04,101,9800001,,,,,,,2024-11-08,1,,,,,ケンチクストックコンサルタント,0
997,3390001017786,新規,0,2024-11-08,2024-11-08,株式会社ＳＯＬＲＯＳ,,株式会社,山形県,山形市,嶋南１丁目２番１０号,,06,201,9900886,,,,,,,2024-11-08,1,,,,,ソルロス,0
1006,3420001018913,新規,0,2024-11-08,2024-11-08,株式会社ＰＴクラフト,,株式会社,青森県,青森市,幸畑３丁目１０番８号,,02,201,0300943,,,,,,,2024-11-08,1,,,,,ピーティークラフト,0
1008,3420003003021,新規,0,2024-11-08,2024-11-08,合同会社ＨＡＲＵ,,合同会社,青森県,上北郡おいらせ町,下明堂４７番地４,,02,412,0392224,,,,,,,2024-11-08,1,,,,,ハル,0
1011,3430001093014,新規,0,2024-11-08,2024-11-08,Ｅ‐ＳＯＣ株式会社,,株式会社,北海道,北広島市,大曲工業団地２丁目５番地１,,01,234,0611274,,,,,,,2024-11-08,1,,,,,イーソック,0
1022,3700150127412,新規,0,2024-11-08,2024-10-03,愛知大学同窓会,,その他,愛知県,名古屋市東区,筒井２丁目１０－３１愛知大学車道校舎１３階,,23,102,4610003,,,,,,,2024-10-03,1,,,,,アイチダイガクドウソウカイ,0
1023,3700150127759,新規,0,2024-11-08,2024-11-08,青野ヶ原町自治会,,その他,兵庫県,小野市,復井町３１６番地の４,,28,218,6751352,,,,,,,2024-11-08,1,,,,,アオノガハラチヨウジチカイ,0
1034,4010001249689,新規,0,2024-11-08,2024-11-08,ジャパンキャピタル株式会社,,株式会社,東京都,中央区,銀座１丁目２２番１１号銀座大竹ビジデンス２Ｆ,,13,102,1040061,,,,,,,2024-11-08,1,,,,,ジャパンキャピタル,0
1035,4010001249714,新規,0,2024-11-08,2024-11-08,ＫＩＮＧＴＥＸ　ＪＡＰＡＮ株式会社,,株式会社,東京都,千代田区,岩本町２丁目１９番４号楽途ビル２階２０５室,,13,101,1010032,,,,,,,2024-11-08,1,,,,,キングテックスジャパン,0
1036,4010001249730,新規,0,2024-11-08,2024-11-08,株式会社アトン,,株式会社,東京都,中央区,銀座７丁目１７番１８号ジュエル銀座７０５号,,13,102,1040061,,,,,,,2024-11-08,1,,,,,アトン,0
1037,4010001249747,新規,0,2024-11-08,2024-11-08,株式会社ガジュマル,,株式会社,東京都,中央区,築地４丁目４番１号,,13,102,1040045,,,,,,,2024-11-08,1,,,,,ガジュマル,0
1038,4010001249796,新規,0,2024-11-08,2024-11-08,株式会社もみじＡＩ,,株式会社,東京都,文京区,本郷６丁目２５番１４号,,13,105,1130033,,,,,,,2024-11-08,1,,,,,モミジエーアイ,0
1041,4010003045368,新規,0,2024-11-08,2024-11-08,熊谷商事合同会社,,合同会社,東京都,中央区,銀座１丁目１２番４号Ｎ＆Ｅ．ＢＬＤ．６Ｆ,,13,102,1040061,,,,,,,2024-11-08,1,,,,,クマガイショウジ,0
1042,4010003045442,新規,0,2024-11-08,2024-11-08,寺宿ひかり蓄電合同会社,,合同会社,東京都,千代田区,丸の内１丁目４番１号東京共同会計事務所内,,13,101,1000005,,,,,,,2024-11-08,1,,,,,テラジュクヒカリチクデン,0
1072,4010005039046,新規,0,2024-11-08,2024-11-08,一般財団法人ＳＭＢＣグループ財団,,その他の設立登記法人,東京都,千代田区,丸の内１丁目１番２号,,13,101,1000005,,,,,,,2024-11-08,1,,,,,エスエムビーシーグループザイダン,0
1073,4010005039062,新規,0,2024-11-08,2024-11-08,一般社団法人ＡＡＪ　Ｇ,,その他の設立登記法人,東京都,千代田区,霞が関３丁目２番５号,,13,101,1000013,,,,,,,2024-11-08,1,,,,,エーエージェージー,0
1079,4010401186210,新規,0,2024-11-08,2024-11-08,株式会社クー,,株式会社,東京都,港区,西新橋３丁目２番２号,,13,103,1050003,,,,,,,2024-11-08,1,,,,,クー,0
1080,4010401186219,新規,0,2024-11-08,2024-11-08,株式会社マストファイナンス,,株式会社,東京都,港区,南青山３丁目１番３号,,13,103,1070062,,,,,,,2024-11-08,1,,,,,マストファイナンス,0
1081,4010401186251,新規,0,2024-11-08,2024-11-08,株式会社ＫｉｎｇＭａｋｅｒ,,株式会社,東京都,港区,麻布十番２丁目８番８号,,13,103,1060045,,,,,,,2024-11-08,1,,,,,キングメーカー,0
1082,4010401186268,新規,0,2024-11-08,2024-11-08,株式会社ＣＨＵＷＡ,,株式会社,東京都,港区,新橋１丁目５番６号銀座第三誠和ビル６階,,13,103,1050004,,,,,,,2024-11-08,1,,,,,チュウワ,0
1083,4010401186292,新規,0,2024-11-08,2024-11-08,株式会社クリエイティブ,,株式会社,東京都,港区,北青山１丁目３番１号アールキューブ青山３階,,13,103,1070061,,,,,,,2024-11-08,1,,,,,クリエイティブ,0
1089,4010405023731,新規,0,2024-11-08,2024-11-08,一般社団法人ＴＨ,,その他の設立登記法人,東京都,港区,愛宕１丁目１番１－２３０６号,,13,103,1050002,,,,,,,2024-11-08,1,,,,,ティーエイチ,0
1095,4010601066245,新規,0,2024-11-08,2024-11-08,弥生三つ株式会社,,株式会社,東京都,江東区,海辺１５－５錦糸町住吉オフィス１０４号室,,13,108,1350012,,,,,,,2024-11-08,1,,,,,ヤヨイミツ,0
1102,4010701046782,新規,0,2024-11-08,2024-11-08,メタシステムズジャパン株式会社,,株式会社,東京都,品川区,北品川４丁目８番３３号御殿山ハウス２１５,,13,109,1400001,,,,,,,2024-11-08,1,,,,,メタシステムズジャパン,0
1103,4010701046799,新規,0,2024-11-08,2024-11-08,株式会社ｚｅｒｏ,,株式会社,東京都,品川区,東五反田１丁目２２番６号,,13,109,1410022,,,,,,,2024-11-08,1,,,,,ゼロ,0
1104,4010801035545,新規,0,2024-11-08,2024-11-08,株式会社ＦＫＣ,,株式会社,東京都,大田区,南馬込１丁目６番７号,,13,111,1430025,,,,,,,2024-11-08,1,,,,,エフケーシー,0
1107,4011001165678,新規,0,2024-11-08,2024-11-08,アクティブライフアドバイザリー株式会社,,株式会社,東京都,渋谷区,広尾２丁目７番１１号,,13,113,1500012,,,,,,,2024-11-08,1,,,,,アクティブライフアドバイザリー,0
1111,4011003020303,新規,0,2024-11-08,2024-11-08,Ｂａｙ　ｈｅｌｉｘ合同会社,,合同会社,東京都,渋谷区,渋谷２丁目１９‐１５宮益坂ビルディング６０９,,13,113,1500002,,,,,,,2024-11-08,1,,,,,ベイヘリックス,0
1112,4011005010748,新規,0,2024-11-08,2024-11-08,一般社団法人腸内環境ヘルスケア協会,,その他の設立登記法人,東京都,渋谷区,代々木１丁目３６番１号,,13,113,1510053,,,,,,,2024-11-08,1,,,,,チョウナイカンキョウヘルスケアキョウカイ,0
1115,4011101109452,新規,0,2024-11-08,2024-11-08,株式会社ＧＥＡＲ,,株式会社,東京都,新宿区,新宿５丁目７番１４号秀和レジデンス１１０,,13,104,1600022,,,,,,,2024-11-08,1,,,,,ギア,0
1116,4011101109460,新規,0,2024-11-08,2024-11-08,株式会社玄,,株式会社,東京都,新宿区,西新宿３丁目３番１３号西新宿水間ビル２Ｆ,,13,104,1600023,,,,,,,2024-11-08,1,,,,,ゲン,0
1117,4011103015153,新規,0,2024-11-08,2024-11-08,合同会社新宿総合研究所,,合同会社,東京都,新宿区,西新宿３丁目３番１３号西新宿水間ビル２Ｆ,,13,104,1600023,,,,,,,2024-11-08,1,,,,,シンジュクソウゴウケンキュウジョ,0
1118,4011103015161,新規,0,2024-11-08,2024-11-08,東京バッティングケージ合同会社,,合同会社,東京都,新宿区,歌舞伎町２丁目３４番５号,,13,104,1600021,,,,,,,2024-11-08,1,,,,,トウキョウバッティングケージ,0
1122,4011405002361,新規,0,2024-11-08,2024-11-08,一般社団法人ＫａＫｅＨａＳＨｉ,,その他の設立登記法人,東京都,板橋区,大山町２３番５号仲田ハイツ１階,,13,119,1730023,,,,,,,2024-11-08,1,,,,,カケハシ,0
1128,4011801045113,新規,0,2024-11-08,2024-11-08,株式会社ツナグ,,株式会社,東京都,足立区,関原１丁目２番４号ＪＫビル１０２号,,13,121,1230852,,,,,,,2024-11-08,1,,,,,ツナグ,0
1129,4012301014145,新規,0,2024-11-08,2024-11-08,ＹＳＩ株式会社,,株式会社,東京都,町田市,小川６丁目３番１６号,,13,209,1940003,,,,,,,2024-11-08,1,,,,,ワイエスアイ,0
1135,4012705002431,新規,0,2024-11-08,2024-11-08,一般社団法人華道普及会,,その他の設立登記法人,東京都,東久留米市,柳窪１丁目７番６号,,13,222,2030044,,,,,,,2024-11-08,1,,,,,カドウフキュウカイ,0
1142,4013101009558,新規,0,2024-11-08,2024-11-08,株式会社インフィニティ,,株式会社,東京都,羽村市,小作台１丁目１２番地１２,,13,227,2050001,,,,,,,2024-11-08,1,,,,,インフィニティ,0
1144,4020001159945,新規,0,2024-11-08,2024-11-08,イグネス株式会社,,株式会社,神奈川県,横浜市西区,浅間町１丁目４番３号ウィザードビル４０２,,14,103,2200072,,,,,,,2024-11-08,1,,,,,イグネス,0
1145,4020001159961,新規,0,2024-11-08,2024-11-08,株式会社グリーンデイ,,株式会社,神奈川県,川崎市宮前区,犬蔵３丁目８番１－７１２号,,14,136,2160011,,,,,,,2024-11-08,1,,,,,グリーンデイ,0
1153,4021001083680,新規,0,2024-11-08,2024-11-08,Ｅｘｐｒｅｓｓ　Ｐｒｏｐｅｒｔｙ株式会社,,株式会社,神奈川県,海老名市,国分南４丁目２４―３８,,14,215,2430405,,,,,,,2024-11-08,1,,,,,エクスプレスプロパティ,0
1154,4021001083689,新規,0,2024-11-08,2024-11-08,株式会社大和総業,,株式会社,神奈川県,大和市,大和東３丁目１０番２号,,14,213,2420017,,,,,,,2024-11-08,1,,,,,ヤマトソウギョウ,0
1155,4021001083697,新規,0,2024-11-08,2024-11-08,株式会社ＨＰソリューションズ,,株式会社,神奈川県,逗子市,沼間３丁目２０番１０号,,14,208,2490004,,,,,,,2024-11-08,1,,,,,エイチピーソリューションズ,0
1158,4021003015186,新規,0,2024-11-08,2024-11-08,合同会社はまねこ,,合同会社,神奈川県,横須賀市,田浦町４丁目１９番地,,14,201,2370075,,,,,,,2024-11-08,1,,,,,ハマネコ,0
1159,4021005013213,新規,0,2024-11-08,2024-11-08,一般社団法人スマイルギフト,,その他の設立登記法人,神奈川県,小田原市,栢山１１１９番地,,14,206,2500852,,,,,,,2024-11-08,1,,,,,スマイルギフト,0
1167,4030001163277,新規,0,2024-11-08,2024-11-08,株式会社Ｗ‐Ａｙｅｒｓ,,株式会社,埼玉県,さいたま市西区,大字島根６６８番地１イソラフェリーチェ２０５,,11,101,3310054,,,,,,,2024-11-08,1,,,,,ダブルエアーズ,0
1168,4030001163285,新規,0,2024-11-08,2024-11-08,ＭＹＥ株式会社,,株式会社,埼玉県,所沢市,大字下富１２５６番地の３７,,11,208,3590001,,,,,,,2024-11-08,1,,,,,エムワイイー,0
1169,4030001163293,新規,0,2024-11-08,2024-11-08,株式会社ｔｏｕｋｉ,,株式会社,埼玉県,川越市,大字鯨井新田１番地１８細田ビル２階,,11,201,3500809,,,,,,,2024-11-08,1,,,,,トウキ,0
1170,4030001163302,新規,0,2024-11-08,2024-11-08,渚商会株式会社,,株式会社,埼玉県,行田市,大字南河原１１１４番地,,11,206,3610084,,,,,,,2024-11-08,1,,,,,ナギサショウカイ,0
1171,4030001163343,新規,0,2024-11-08,2024-11-08,株式会社マルダイ工業,,株式会社,埼玉県,比企郡嵐山町,大字川島１４７３番地４７,,11,342,3550213,,,,,,,2024-11-08,1,,,,,マルダイコウギョウ,0
1176,4030003025442,新規,0,2024-11-08,2024-11-08,スマイルブルーム合同会社,,合同会社,埼玉県,越谷市,蒲生寿町５番２８号キャステル蒲生壱番館４０１号,,11,222,3430836,,,,,,,2024-11-08,1,,,,,スマイルブルーム,0
1177,4030005021927,新規,0,2024-11-08,2024-11-08,特定非営利活動法人ＭＯＴＯＫＩ　ＦＯＵＮＤＡＴＩＯＮ,,その他の設立登記法人,埼玉県,鴻巣市,赤見台１丁目３番１０号スマイルＷビル４０２,,11,217,3650064,,,,,,,2024-11-08,1,,,,,モトキファンデーション,0
1182,4040001136034,新規,0,2024-11-08,2024-11-08,東証未来株式会社,,株式会社,千葉県,印西市,小林北３丁目２番９号,,12,231,2701313,,,,,,,2024-11-08,1,,,,,トウショウミライ,0
1183,4040001136042,新規,0,2024-11-08,2024-11-08,株式会社ＬＡＮＤ,,株式会社,千葉県,松戸市,新松戸１丁目３５１番地,,12,207,2700034,,,,,,,2024-11-08,1,,,,,ランド,0
1184,4040001136050,新規,0,2024-11-08,2024-11-08,株式会社橋本興業,,株式会社,千葉県,野田市,吉春２７番地１,,12,208,2780042,,,,,,,2024-11-08,1,,,,,ハシモトコウギョウ,0
1185,4040001136083,新規,0,2024-11-08,2024-11-08,株式会社Ａｉ　Ｇａｒａｇｅ,,株式会社,千葉県,千葉市緑区,おゆみ野中央４丁目６番地１１,,12,105,2660032,,,,,,,2024-11-08,1,,,,,アイガレージ,0
1191,4050003008800,新規,0,2024-11-08,2024-11-08,合同会社Ｒａｉｎｂｏｗ,,合同会社,茨城県,那珂郡東海村,舟石川駅東３丁目２番２７号石川コーポ１０１,,08,341,3191118,,,,,,,2024-11-08,1,,,,,レインボー,0
1194,4060003005318,新規,0,2024-11-08,2024-11-08,合同会社トライワーク,,合同会社,栃木県,足利市,田中町７１２番地プチメゾン富士１０１号,,09,202,3260822,,,,,,,2024-11-08,1,,,,,トライワーク,0
1197,4070001042329,新規,0,2024-11-08,2024-11-08,株式会社ＬＵＳＨ,,株式会社,群馬県,太田市,新田市野井町９４番３ソシアルビル１０３号,,10,205,3700314,,,,,,,2024-11-08,1,,,,,ラッシュ,0
1198,4070001042337,新規,0,2024-11-08,2024-11-08,株式会社Ｇａｒｈｏｌｉｃ,,株式会社,群馬県,高崎市,並榎町１５７番地５,,10,202,3700802,,,,,,,2024-11-08,1,,,,,ガーホリック,0
1202,4080103003186,新規,0,2024-11-08,2024-11-08,合同会社Ｅｔｈｉｃ,,合同会社,静岡県,賀茂郡東伊豆町,稲取５６６番地の５－２０２,,22,301,4130411,,,,,,,2024-11-08,1,,,,,エシック,0
1224,4120001269965,新規,0,2024-11-08,2024-11-08,株式会社イノベーションロジ,,株式会社,大阪府,大阪市北区,豊崎３丁目１５番５号,,27,127,5310072,,,,,,,2024-11-08,1,,,,,イノベーションロジ,0
1225,4120001269981,新規,0,2024-11-08,2024-11-08,株式会社弥生,,株式会社,大阪府,大阪市西区,京町堀１丁目９番１０号,,27,106,5500003,,,,,,,2024-11-08,1,,,,,ヤヨイ,0
1226,4120001270122,新規,0,2024-11-08,2024-11-08,株式会社易安,,株式会社,大阪府,大阪市中央区,島之内２丁目２番５－３０３号,,27,128,5420082,,,,,,,2024-11-08,1,,,,,イアン,0
1230,4120003027925,新規,0,2024-11-08,2024-11-08,リアイム合同会社,,合同会社,大阪府,大阪市阿倍野区,北畠１丁目２１番４号,,27,119,5450035,,,,,,,2024-11-08,1,,,,,リアイム,0
1232,4120101070538,新規,0,2024-11-08,2024-11-08,株式会社スコール,,株式会社,大阪府,泉佐野市,中町３丁目２－１５グランシャリオＫ５０３号,,27,213,5980013,,,,,,,2024-11-08,1,,,,,スコール,0
1233,4120103006127,新規,0,2024-11-08,2024-11-08,まるい器にかくのふた合同会社,,合同会社,大阪府,泉佐野市,湊３丁目１－２７,,27,213,5980063,,,,,,,2024-11-08,1,,,,,マルイウツワニカクノフタ,0
1239,4130001078300,新規,0,2024-11-08,2024-11-08,株式会社Ｗｅｓｔ１,,株式会社,京都府,京都市東山区,祇園町北側３４７－７－１Ｆ,,26,105,6050073,,,,,,,2024-11-08,1,,,,,ウェストワン,0
1240,4130001078309,新規,0,2024-11-08,2024-11-08,株式会社誠樹,,株式会社,京都府,京都市左京区,八瀬野瀬町２７９番地３,,26,103,6011254,,,,,,,2024-11-08,1,,,,,セイキ,0
1241,4130001078317,新規,0,2024-11-08,2024-11-08,高科精密株式会社,00136938,株式会社,京都府,宇治市,槇島町吹前４６番地６,,26,204,6110041,,,,,,,2024-11-08,1,,,,,タカシナセイミツ,0
1242,4130003009988,新規,0,2024-11-08,2024-11-08,合同会社Ｆｕｊｉｃｏ,,合同会社,京都府,京都市南区,吉祥院船戸町４４番地２号２階,,26,107,6018330,,,,,,,2024-11-08,1,,,,,フジコウ,0
1246,4140001136362,新規,0,2024-11-08,2024-11-08,株式会社ＭＡＮＧＥＴＳＵ　ＤＥＳＩＧＮ,,株式会社,兵庫県,伊丹市,森本２丁目５６番地の８,,28,207,6640842,,,,,,,2024-11-08,1,,,,,マンゲツデザイン,0
1247,4140001136370,新規,0,2024-11-08,2024-11-08,株式会社丸大,,株式会社,兵庫県,姫路市,飾磨区上野田５丁目１２７番地１,,28,201,6728043,,,,,,,2024-11-08,1,,,,,マルダイ,0
1249,4140003021273,新規,0,2024-11-08,2024-11-08,合同会社ＬＩＮＫ,,合同会社,兵庫県,姫路市,阿保甲２２０番地４,,28,201,6700944,,,,,,,2024-11-08,1,,,,,リンク,0
1250,4140003021281,新規,0,2024-11-08,2024-11-08,合同会社梅本デザイン事務所,,合同会社,兵庫県,尼崎市,昭和通１丁目１番３１－１号４０１,,28,202,6600881,,,,,,,2024-11-08,1,,,,,ウメモトデザインジムショ,0
1251,4140005027260,新規,0,2024-11-08,2024-11-08,大法寺,,その他の設立登記法人,兵庫県,加東市,北野１９１番地１,,28,228,6790205,,,,,,,2024-11-08,1,,,,,,0
1265,4180303006334,新規,0,2024-11-08,2024-11-08,フリープライム合同会社,,合同会社,愛知県,豊橋市,つつじが丘２丁目３番地３,,23,201,4400858,,,,,,,2024-11-08,1,,,,,フリープライム,0
1268,4200001043107,新規,0,2024-11-08,2024-11-08,株式会社レクシア,,株式会社,岐阜県,多治見市,太平町１丁目３２番地,,21,204,5070041,,,,,,,2024-11-08,1,,,,,レクシア,0
1270,4200003006573,新規,0,2024-11-08,2024-11-08,合同会社アベニール,,合同会社,岐阜県,岐阜市,三歳町３丁目３番地,,21,201,5008335,,,,,,,2024-11-08,1,,,,,アベニール,0
1284,4240003006925,新規,0,2024-11-08,2024-11-08,合同会社ウィンバレー,,合同会社,広島県,広島市東区,牛田東４丁目４番９号,,34,102,7320063,,,,,,,2024-11-08,1,,,,,ウィンバレー,0
1286,4270001009084,新規,0,2024-11-08,2024-11-08,株式会社野村料理店,,株式会社,鳥取県,米子市,尾高１６４１番地,,31,202,6893514,,,,,,,2024-11-08,1,,,,,ノムラリョウリテン,0
1290,4280001009281,新規,0,2024-11-08,2024-11-08,瓦百景株式会社,,株式会社,島根県,大田市,水上町白坏６５８番地１,,32,205,6940303,,,,,,,2024-11-08,1,,,,,カワラヒャッケイ,0
1294,4290803004875,新規,0,2024-11-08,2024-11-08,合同会社上ノ河内の森,,合同会社,福岡県,北九州市小倉南区,南方５丁目９番３２号,,40,107,8020976,,,,,,,2024-11-08,1,,,,,カミノカワチノモリ,0
1295,4300001013958,新規,0,2024-11-08,2024-11-08,株式会社珍日子,,株式会社,佐賀県,佐賀市,開成６丁目２番２６号,,41,201,8490934,,,,,,,2024-11-08,1,,,,,ウズヒコ,0
1297,4310001019302,新規,0,2024-11-08,2024-11-08,株式会社スリーピース,,株式会社,長崎県,佐世保市,早岐１丁目１３番１１号,,42,202,8593215,,,,,,,2024-11-08,1,,,,,スリーピース,0
1300,4330005010841,新規,0,2024-11-08,2024-11-08,ＮＰＯ法人文教菊池顕彰会,,その他の設立登記法人,熊本県,菊池市,深川４００番地,,43,210,8611304,,,,,,,2024-11-08,1,,,,,ブンキョウキクチケンショウカイ,0
1305,4360001034412,新規,0,2024-11-08,2024-11-08,株式会社風は南から３６９,,株式会社,沖縄県,那覇市,久茂地３丁目１３番１２号宮里ビル２０３,,47,201,9000015,,,,,,,2024-11-08,1,,,,,カゼハミナミカラサンロクキュー,0
1308,4370001051902,新規,0,2024-11-08,2024-11-08,株式会社Ｒｅ’Ｂｕｉｌｄ,,株式会社,宮城県,仙台市宮城野区,新田東２丁目１０－２－５０１,,04,102,9830039,,,,,,,2024-11-08,1,,,,,リビルド,0
1309,4370003006813,新規,0,2024-11-08,2024-11-08,合同会社アミネス,,合同会社,宮城県,仙台市青葉区,二日町１１番１２－５０５号,,04,101,9800802,,,,,,,2024-11-08,1,,,,,アミネス,0
1314,4390001017785,新規,0,2024-11-08,2024-11-08,株式会社小倉総建,,株式会社,山形県,米沢市,舘山１丁目１番１３７－４号,,06,202,9920072,,,,,,,2024-11-08,1,,,,,オグラソウケン,0
1317,4400001016851,新規,0,2024-11-08,2024-11-08,株式会社Ｍ．Ａ．Ｐ,,株式会社,岩手県,盛岡市,大沢川原１丁目１番２４－４０８号,,03,201,0200025,,,,,,,2024-11-08,1,,,,,エムエーピー,0
1322,4420003003020,新規,0,2024-11-08,2024-11-08,エリアプライム合同会社,,合同会社,青森県,八戸市,大字十三日町１番地ヴィアノヴァ３Ｆ,,02,203,0310042,,,,,,,2024-11-08,1,,,,,エリアプライム,0
1328,4470003002744,新規,0,2024-11-08,2024-11-08,合同会社スピカ,,合同会社,香川県,観音寺市,八幡町１丁目１０番９号,,37,205,7680061,,,,,,,2024-11-08,1,,,,,,0
1338,5010001249647,新規,0,2024-11-08,2024-11-08,株式会社ＨＹプロモーション,,株式会社,東京都,千代田区,麹町４丁目３番５号Ｋｉｏｉｃｈｏ４３５Ｂ２,,13,101,1020083,,,,,,,2024-11-08,1,,,,,エイチワイプロモーション,0
1339,5010001249655,新規,0,2024-11-08,2024-11-08,株式会社めぐり,,株式会社,東京都,中央区,銀座３丁目１２番６号２階,,13,102,1040061,,,,,,,2024-11-08,1,,,,,メグリ,0
1340,5010001249688,新規,0,2024-11-08,2024-11-08,リズム・キャピタル・ジャパン株式会社,,株式会社,東京都,千代田区,霞が関３丁目２番５号霞が関ビル５階,,13,101,1000013,,,,,,,2024-11-08,1,,,,,リズムキャピタルジャパン,0
1341,5010001249705,新規,0,2024-11-08,2024-11-08,ＯＷＳ　ＪＰ株式会社,,株式会社,東京都,中央区,勝どき４丁目６番２－２４２２号,,13,102,1040054,,,,,,,2024-11-08,1,,,,,オーダブリューエスジェーピー,0
1342,5010001249713,新規,0,2024-11-08,2024-11-08,株式会社第一インベストメント,,株式会社,東京都,千代田区,鍛冶町２丁目５番５号神田駅前ＳＫビル４階,,13,101,1010044,,,,,,,2024-11-08,1,,,,,,0
1343,5010001249721,新規,0,2024-11-08,2024-11-08,Ｎｏａｈｌｏｇｙ株式会社,,株式会社,東京都,文京区,本郷５丁目２５番１８ー５０１号,,13,105,1130033,,,,,,,2024-11-08,1,,,,,ノアロジー,0
1344,5010001249779,新規,0,2024-11-08,2024-11-08,エンデバー・ユナイテッド・パートナーズ・３５株式会社,,株式会社,東京都,千代田区,丸の内２丁目５番１号丸の内二丁目ビル６階,,13,101,1000005,,,,,,,2024-11-08,1,,,,,エンデバーユナイテッドパートナーズサーティーファイブ,0
1352,5010003045383,新規,0,2024-11-08,2024-11-08,Ｇ＆Ｇ合同会社,,合同会社,東京都,中央区,銀座８丁目１５番１０－４０９号,,13,102,1040061,,,,,,,2024-11-08,1,,,,,ジーアンドジー,0
1377,5010005039045,新規,0,2024-11-08,2024-11-08,一般財団法人森林資源財団,,その他の設立登記法人,東京都,中央区,日本橋茅場町２丁目３番１１号,,13,102,1030025,,,,,,,2024-11-08,1,,,,,シンリンシゲンザイダン,0
1378,5010101016393,新規,0,2024-11-08,2024-11-08,株式会社ＯＴＩ設計,,株式会社,東京都,八王子市,大塚６６５－１０,,13,201,1920352,,,,,,,2024-11-08,1,,,,,オチセッケイ,0
1381,5010401186250,新規,0,2024-11-08,2024-11-08,株式会社Ｒ２Ｔｈ,,株式会社,東京都,港区,南青山４丁目２１番３号ブラウベルグ表参道３０２,,13,103,1070062,,,,,,,2024-11-08,1,,,,,アールツーティーエイチ,0
1384,5010403033731,新規,0,2024-11-08,2024-11-08,合同会社れもん,,合同会社,東京都,港区,芝３丁目２２番８－１４０８号,,13,103,1050014,,,,,,,2024-11-08,1,,,,,レモン,0
1385,5010405023722,新規,0,2024-11-08,2024-11-08,一般社団法人アルファＨＤ１号,,その他の設立登記法人,東京都,港区,赤坂７丁目６番１５号,,13,103,1070052,,,,,,,2024-11-08,1,,,,,アルファエイチディーイチゴウ,0
1387,5010503007627,新規,0,2024-11-08,2024-11-08,ほなほの合同会社,,合同会社,東京都,台東区,浅草２丁目１２番１－６０１号レヴァンテ浅草,,13,106,1110032,,,,,,,2024-11-08,1,,,,,ホナホノ,0
1389,5010701046807,新規,0,2024-11-08,2024-11-08,株式会社翼ネクサス,,株式会社,東京都,品川区,東品川４丁目１２番８号品川シーサイドイーストタワー１５１１,,13,109,1400002,,,,,,,2024-11-08,1,,,,,ツバサネクサス,0
1392,5010705003696,新規,0,2024-11-08,2024-11-08,一般社団法人４ｔｈ　Ｐｌａｃｅ,,その他の設立登記法人,東京都,品川区,北品川５丁目５番２７－６０５号,,13,109,1410001,,,,,,,2024-11-08,1,,,,,フォースプレイス,0
1394,5010801035544,新規,0,2024-11-08,2024-11-08,株式会社社会政策研究所,,株式会社,東京都,大田区,北糀谷２丁目１０番２－５１１号,,13,111,1440032,,,,,,,2024-11-08,1,,,,,シャカイセイサクケンキュウジョ,0
1396,5010803005157,新規,0,2024-11-08,2024-11-08,ゼゼマル合同会社,,合同会社,東京都,大田区,多摩川２丁目２７番６－１０７号,,13,111,1460095,,,,,,,2024-11-08,1,,,,,ゼゼマル,0
1397,5010903009479,新規,0,2024-11-08,2024-11-08,南プラントデザイン合同会社,,合同会社,東京都,世田谷区,松原５丁目５３番２号,,13,112,1560043,,,,,,,2024-11-08,1,,,,,ミナミプラントデザイン,0
1402,5011001165669,新規,0,2024-11-08,2024-11-08,常磐松株式会社,,株式会社,東京都,渋谷区,東１丁目１３番９号,,13,113,1500011,,,,,,,2024-11-08,1,,,,,トキワマツ,0
1403,5011001165685,新規,0,2024-11-08,2024-11-08,株式会社現次,,株式会社,東京都,渋谷区,宇田川町３番７号ヒューリック渋谷公園通りビル５Ｆ－１０９,,13,113,1500042,,,,,,,2024-11-08,1,,,,,ゲンジ,0
1404,5011003020327,新規,0,2024-11-08,2024-11-08,ＩｎＮｅｘｔＲｉｎｋ合同会社,,合同会社,東京都,渋谷区,道玄坂１丁目１０番８号渋谷道玄坂東急ビル２Ｆ－Ｃ,,13,113,1500043,,,,,,,2024-11-08,1,,,,,インネクストリンク,0
1409,5011101109468,新規,0,2024-11-08,2024-11-08,株式会社アドラタ,,株式会社,東京都,新宿区,西新宿７丁目５－５Ｐｌａｚａ西新宿ＵＣＦ４０６,,13,104,1600023,,,,,,,2024-11-08,1,,,,,アドラタ,0
1413,5011103015144,新規,0,2024-11-08,2024-11-08,合同会社Ｎｏｆｒａｍｅ,,合同会社,東京都,新宿区,西新宿３丁目３番１３号西新宿水間ビル２Ｆ,,13,104,1600023,,,,,,,2024-11-08,1,,,,,ノンフレーム,0
1414,5011105011216,新規,0,2024-11-08,2024-11-08,特定非営利活動法人ＮＯＲＡＬＩＦＥ　ＤＥＳＩＧＮ　ＢＵＳ,,その他の設立登記法人,東京都,新宿区,新宿３丁目１番３２号新宿ビル１号館２階,,13,104,1600022,,,,,,,2024-11-08,1,,,,,ノラライフデザインバス,0
1416,5011303005341,新規,0,2024-11-08,2024-11-08,オルファン・リサーチ＆コンサルティング合同会社,,合同会社,東京都,杉並区,荻窪２丁目３５番１２号,,13,115,1670051,,,,,,,2024-11-08,1,,,,,オルファンリサーチアンドコンサルティング,0
1417,5011501031346,新規,0,2024-11-08,2024-11-08,株式会社ＧＭ,,株式会社,東京都,北区,王子本町２丁目１４番１４号ＲＯＷＨＯＵＳＥ王子本町２０３号,,13,117,1140022,,,,,,,2024-11-08,1,,,,,ジーエム,0
1422,5011701027796,新規,0,2024-11-08,2024-11-08,株式会社ｈａｎｄ　ｉｎ　ｈａｎｄ,,株式会社,東京都,江戸川区,西瑞江３丁目３３－７,,13,123,1320015,,,,,,,2024-11-08,1,,,,,ハンドインハンド,0
1423,5011703004026,新規,0,2024-11-08,2024-11-08,合同会社ミーク,,合同会社,東京都,江戸川区,西瑞江４丁目１４－８ＴＳＭビル４階,,13,123,1340015,,,,,,,2024-11-08,1,,,,,ミーク,0
1427,5011801045104,新規,0,2024-11-08,2024-11-08,株式会社サンキュー,,株式会社,東京都,葛飾区,青戸７丁目２３番１１号,,13,122,1250062,,,,,,,2024-11-08,1,,,,,サンキュー,0
1428,5011801045112,新規,0,2024-11-08,2024-11-08,株式会社Ｂｅｓｔ　ｉｍａｇｉｎａｔｉｏｎ,,株式会社,東京都,葛飾区,四つ木４丁目６番３号,,13,122,1240011,,,,,,,2024-11-08,1,,,,,ベストイマジネーション,0
1430,5012301014144,新規,0,2024-11-08,2024-11-08,株式会社スターフィールド,,株式会社,東京都,町田市,高ヶ坂７丁目３８番９号ビクトリアハイツ町田２－１１,,13,209,1940014,,,,,,,2024-11-08,1,,,,,スターフィールド,0
1437,5013301053339,新規,0,2024-11-08,2024-11-08,株式会社特券ニュース,,株式会社,東京都,豊島区,西巣鴨１丁目３番２号,,13,116,1700001,,,,,,,2024-11-08,1,,,,,トッケンニュース,0
1438,5013301053347,新規,0,2024-11-08,2024-11-08,秀一株式会社,,株式会社,東京都,豊島区,南池袋１丁目９番１８号２６２号室,,13,116,1710022,,,,,,,2024-11-08,1,,,,,シュウイ,0
1440,5013303007383,新規,0,2024-11-08,2024-11-08,ＯＭＧＷＴＦ合同会社,,合同会社,東京都,豊島区,東池袋４丁目５番１号エアライズタワー６０８号室,,13,116,1700013,,,,,,,2024-11-08,1,,,,,オーエムジーダブリューティーエフ,0
1449,5020001159952,新規,0,2024-11-08,2024-11-08,菊架工建株式会社,,株式会社,神奈川県,横浜市鶴見区,鶴見中央１丁目２４番１１号３０５号室,,14,101,2300051,,,,,,,2024-11-08,1,,,,,キッカコウケン,0
1450,5020001159969,新規,0,2024-11-08,2024-11-08,株式会社Ｃａｒｅ,,株式会社,神奈川県,横浜市磯子区,杉田９丁目３９番８号,,14,107,2350033,,,,,,,2024-11-08,1,,,,,ケア,0
1451,5020003027190,新規,0,2024-11-08,2024-11-08,合同会社そらりす,,合同会社,神奈川県,横浜市青葉区,たちばな台１丁目３番地８,,14,117,2270046,,,,,,,2024-11-08,1,,,,,ソラリス,0
1457,5021001083688,新規,0,2024-11-08,2024-11-08,株式会社ジョーショー,,株式会社,神奈川県,茅ヶ崎市,今宿５８９番地２９,,14,207,2530072,,,,,,,2024-11-08,1,,,,,ジョーショー,0
1458,5021001083705,新規,0,2024-11-08,2024-11-08,株式会社小俣通信,,株式会社,神奈川県,大和市,南林間９丁目１番２３号,,14,213,2420006,,,,,,,2024-11-08,1,,,,,オマタツウシン,0
1461,5030001163292,新規,0,2024-11-08,2024-11-08,株式会社司土建,,株式会社,埼玉県,羽生市,中央１丁目１１番９号,,11,216,3480058,,,,,,,2024-11-08,1,,,,,ツカサドケン,0
1462,5030001163301,新規,0,2024-11-08,2024-11-08,鯉平フードサービス株式会社,,株式会社,埼玉県,さいたま市大宮区,吉敷町４丁目１０１番地１,,11,103,3300843,,,,,,,2024-11-08,1,,,,,コイヘイフードサービス,0
1463,5030001163334,新規,0,2024-11-08,2024-11-08,フニー株式会社,,株式会社,埼玉県,戸田市,大字新曽２１９５番地１東栄アネックス北戸田６階,,11,224,3350021,,,,,,,2024-11-08,1,,,,,フニー,0
1466,5030003025375,新規,0,2024-11-08,2024-11-08,合同会社聖神サービス,,合同会社,埼玉県,所沢市,大字荒幡９００番地１６,,11,208,3591133,,,,,,,2024-11-08,1,,,,,セイシンサービス,0
1467,5030003025441,新規,0,2024-11-08,2024-11-08,ＰＹＭ合同会社,,合同会社,埼玉県,蕨市,塚越６丁目１５－８－３０３号,,11,223,3350002,,,,,,,2024-11-08,1,,,,,ピーワイエム,0
1469,5040001136041,新規,0,2024-11-08,2024-11-08,株式会社Ｊｏｉａ,,株式会社,千葉県,柏市,塚崎１０６９番地４,,12,217,2770923,,,,,,,2024-11-08,1,,,,,ジョイア,0
1470,5040001136058,新規,0,2024-11-08,2024-11-08,株式会社ＩＮＦＩＮＩ,,株式会社,千葉県,千葉市中央区,新宿２丁目２番２号第三プレシードビル８０１,,12,101,2600021,,,,,,,2024-11-08,1,,,,,アンフィニ,0
1471,5040001136074,新規,0,2024-11-08,2024-11-08,株式会社Ｈ＆Ｒ,,株式会社,千葉県,野田市,岩名２丁目１９番地の１１,,12,208,2780055,,,,,,,2024-11-08,1,,,,,エイチアンドアール,0
1472,5040001136082,新規,0,2024-11-08,2024-11-08,株式会社英百合,,株式会社,千葉県,浦安市,北栄１丁目１７番１６号Ａ・ＩビルＵＲＡＹＡＳＵ４Ｆ,,12,227,2790002,,,,,,,2024-11-08,1,,,,,ヒデユリ,0
1473,5040001136090,新規,0,2024-11-08,2024-11-08,株式会社Ａｋｕａ　Ｐｌｕｓ,,株式会社,千葉県,松戸市,上本郷１４２０番地５,,12,207,2710064,,,,,,,2024-11-08,1,,,,,アクアプラス,0
1478,5040003026117,新規,0,2024-11-08,2024-11-08,メルセデス・ベンツ・ハイパワー・チャージング日本合同会社,,合同会社,千葉県,千葉市美浜区,中瀬２丁目６番地１,,12,106,2610023,,,,,,,2024-11-08,1,,,,,,0
1480,5050001055661,新規,0,2024-11-08,2024-11-08,霞ヶ浦学院株式会社,,株式会社,茨城県,かすみがうら市,深谷６１番地７４,,08,230,3000134,,,,,,,2024-11-08,1,,,,,カスミガウラガクイン,0
1491,5080101025116,新規,0,2024-11-08,2024-11-08,株式会社米村組,,株式会社,静岡県,伊東市,荻５５６番地の２３,,22,208,4140053,,,,,,,2024-11-08,1,,,,,ヨネムラグミ,0
1492,5080103003193,新規,0,2024-11-08,2024-11-08,エムフィールド合同会社,,合同会社,静岡県,富士宮市,万野原新田３７５９番地の５,,22,207,4180001,,,,,,,2024-11-08,1,,,,,エムフィールド,0
1493,5080405007685,新規,0,2024-11-08,2024-11-08,特定非営利活動法人こども未来機構,,その他の設立登記法人,静岡県,磐田市,中泉５９１番地の１イーストスクエアビル,,22,211,4380078,,,,,,,2024-11-08,1,,,,,コドモミライキコウ,0
1495,5090001018978,新規,0,2024-11-08,2024-11-08,株式会社ＩＬＵＮＡ,,株式会社,山梨県,甲府市,住吉４丁目３番３３号ＢＥＬＬ住吉１－Ａ,,19,201,4000851,,,,,,,2024-11-08,1,,,,,イルナ,0
1501,5100003007853,新規,0,2024-11-08,2024-11-08,合同会社ＴＡＭＡＹＵＲＡ,,合同会社,長野県,下高井郡野沢温泉村,大字豊郷７７９７番地５,,20,563,3892502,,,,,,,2024-11-08,1,,,,,タマユラ,0
1503,5110001038825,新規,0,2024-11-08,2024-11-08,株式会社大森功業,,株式会社,新潟県,糸魚川市,中央２丁目１０番８号,,15,216,9410062,,,,,,,2024-11-08,1,,,,,オオモリコウギョウ,0
1517,5120001269824,新規,0,2024-11-08,2024-11-08,赤松祐光国際税務会計株式会社,,株式会社,大阪府,大阪市北区,大深町５番５４号グラングリーン大阪南館パークタワー７階,,27,127,5300011,,,,,,,2024-11-08,1,,,,,アカマツユミコクサイゼイムカイケイ,0
1518,5120001269989,新規,0,2024-11-08,2024-11-08,株式会社インコントロ,,株式会社,大阪府,大阪市中央区,淡路町２丁目３番５号,,27,128,5410047,,,,,,,2024-11-08,1,,,,,インコントロ,0
1519,5120001270006,新規,0,2024-11-08,2024-11-08,株式会社レガート,,株式会社,大阪府,大阪市中央区,高津３丁目２番３号,,27,128,5420072,,,,,,,2024-11-08,1,,,,,レガート,0
1520,5120001270047,新規,0,2024-11-08,2024-11-08,株式会社菊地,,株式会社,大阪府,大阪市中央区,北浜１丁目１番２７号,,27,128,5410041,,,,,,,2024-11-08,1,,,,,キクチ,0
1521,5120001270063,新規,0,2024-11-08,2024-11-08,平安テック株式会社,,株式会社,大阪府,大阪市住之江区,西加賀屋３丁目６－２５,,27,125,5590016,,,,,,,2024-11-08,1,,,,,ヘイアンテック,0
1522,5120001270071,新規,0,2024-11-08,2024-11-08,桜楽株式会社,,株式会社,大阪府,大阪市都島区,友渕町２丁目６－１５－２０６号,,27,102,5340016,,,,,,,2024-11-08,1,,,,,サクラ,0
1527,5120103006126,新規,0,2024-11-08,2024-11-08,合同会社ホッピー,,合同会社,大阪府,和泉市,はつが野２丁目１４番５号,,27,219,5941106,,,,,,,2024-11-08,1,,,,,ホッピー,0
1530,5122001038614,新規,0,2024-11-08,2024-11-08,株式会社汀,,株式会社,大阪府,八尾市,北亀井町１丁目３番３号,,27,212,5810066,,,,,,,2024-11-08,1,,,,,ミギワ,0
1534,5130001078299,新規,0,2024-11-08,2024-11-08,株式会社粟津組,,株式会社,京都府,京都市山科区,音羽中芝町４３－１,,26,110,6078069,,,,,,,2024-11-08,1,,,,,アワヅグミ,0
1535,5130001078308,新規,0,2024-11-08,2024-11-08,京都綾部蓄電所株式会社,,株式会社,京都府,福知山市,字堀２５９３番地,,26,201,6200000,,,,,,,2024-11-08,1,,,,,キョウトアヤベチクデンショ,0
1539,5130003009979,新規,0,2024-11-08,2024-11-08,合同会社ニッケイ,,合同会社,京都府,宇治市,伊勢田町中荒１４番地の３２,,26,204,6110043,,,,,,,2024-11-08,1,,,,,ニッケイ,0
1542,5140001136345,新規,0,2024-11-08,2024-11-08,株式会社ＳＨＩＮｃｏｒｐｏｒａｔｉｏｎ,,株式会社,兵庫県,宝塚市,すみれガ丘３丁目５番２－１０１１号,,28,214,6650847,,,,,,,2024-11-08,1,,,,,シンコーポレーション,0
1543,5140001136361,新規,0,2024-11-08,2024-11-08,株式会社Ｕｒｉ’ｚ,,株式会社,兵庫県,芦屋市,上宮川町１番５号,,28,206,6590061,,,,,,,2024-11-08,1,,,,,ウリズ,0
1547,5140003021297,新規,0,2024-11-08,2024-11-08,ＫＯＢＥ美容合同会社,,合同会社,兵庫県,芦屋市,涼風町２５ー１０,,28,206,6590036,,,,,,,2024-11-08,1,,,,,コウベビヨウ,0
1549,5150001027650,新規,0,2024-11-08,2024-11-08,株式会社３２３ＬＡＢ,,株式会社,奈良県,奈良市,餅飯殿町２７－１,,29,201,6308222,,,,,,,2024-11-08,1,,,,,ミツミラボ,0
1550,5160001026338,新規,0,2024-11-08,2024-11-08,株式会社和登,,株式会社,滋賀県,野洲市,行畑２６７番地ルイエレイ１０３号,,25,210,5202341,,,,,,,2024-11-08,1,,,,,ワトウ,0
1552,5160003003319,新規,0,2024-11-08,2024-11-08,合同会社Ｎａｔｕｒｅ,,合同会社,滋賀県,栗東市,上鈎３７７番地１（１０１号）ファミールロード,,25,208,5203022,,,,,,,2024-11-08,1,,,,,ネイチャー,0
1567,5180001164012,新規,0,2024-11-08,2024-11-08,株式会社ＳＥＶＥＮ,,株式会社,愛知県,東海市,大田町下浜田１００５番地ＥＡＳＴＢＬＵＥ２Ａ，２Ｂ号室,,23,222,4770031,,,,,,,2024-11-08,1,,,,,セブン,0
1568,5180001164020,新規,0,2024-11-08,2024-11-08,株式会社Ｌｕｍｉｅｒｅ,,株式会社,愛知県,名古屋市中区,錦２丁目７番７号２６０５号,,23,106,4600003,,,,,,,2024-11-08,1,,,,,ルミエール,0
1577,5180301039211,新規,0,2024-11-08,2024-11-08,杉浦工業株式会社,,株式会社,愛知県,西尾市,一色町治明本地５４番地,,23,213,4440426,,,,,,,2024-11-08,1,,,,,スギウラコウギョウ,0
1581,5190005011993,新規,0,2024-11-08,2024-11-08,一般社団法人日本アクセサリーリボン協会,,その他の設立登記法人,三重県,桑名市,末広町２２番地の１ヤマハウィングビル５Ｆ,,24,205,5110077,,,,,,,2024-11-08,1,,,,,ニホンアクセサリーリボンキョウカイ,0
1585,5200001043114,新規,0,2024-11-08,2024-11-08,マラックトレーディング株式会社,,株式会社,岐阜県,瑞浪市,日吉町３３７５番地９,,21,208,5096251,,,,,,,2024-11-08,1,,,,,マラックトレーディング,0
1587,5220001026307,新規,0,2024-11-08,2024-11-08,株式会社カイト,,株式会社,石川県,加賀市,山代温泉桔梗丘２丁目１１７番地,,17,206,9220257,,,,,,,2024-11-08,1,,,,,カイト,0
1598,5280003001896,新規,0,2024-11-08,2024-11-08,合同会社ｗａｗａｗａ,,合同会社,島根県,隠岐郡海士町,大字海士４９６４番地２,,32,525,6840403,,,,,,,2024-11-08,1,,,,,ワワワ,0
1602,5290801031020,新規,0,2024-11-08,2024-11-08,株式会社ろぼあぷり,,株式会社,福岡県,北九州市小倉北区,緑ケ丘２丁目１１番３号,,40,106,8030827,,,,,,,2024-11-08,1,,,,,ロボアプリ,0
1603,5290803004874,新規,0,2024-11-08,2024-11-08,合同会社ＧＳＫ,,合同会社,福岡県,遠賀郡遠賀町,浅木３丁目２７番１６号,,40,384,8114312,,,,,,,2024-11-08,1,,,,,ジーエスケイ,0
1606,5320001020794,新規,0,2024-11-08,2024-11-08,株式会社一期一会,,株式会社,大分県,大分市,大字森６７９番地の２７,,44,201,8700128,,,,,,,2024-11-08,1,,,,,イチゴイチエ,0
1607,5320003004507,新規,0,2024-11-08,2024-11-08,合同会社Ｌａｃ,,合同会社,大分県,臼杵市,野津町大字柚野木２の２５７６番地の１,,44,206,8750236,,,,,,,2024-11-08,1,,,,,ラック,0
1612,5330003010628,新規,0,2024-11-08,2024-11-08,合同会社なないろのたね,,合同会社,熊本県,熊本市東区,小山５丁目１１番１７号ＢｒａｖｅＢａｓｅ１０５,,43,102,8618045,,,,,,,2024-11-08,1,,,,,ナナイロノタネ,0
1613,5330003010636,新規,0,2024-11-08,2024-11-08,ｋｕｍａｃｏｍｅｄｉ合同会社,,合同会社,熊本県,人吉市,願成寺町６３５番地６,,43,203,8680022,,,,,,,2024-11-08,1,,,,,クマコメディ,0
1616,5340005009782,新規,0,2024-11-08,2024-11-08,一般社団法人インテリジェントスポーツ協会,,その他の設立登記法人,鹿児島県,鹿児島市,加治屋町１２番１３号福岡ビル８階,,46,201,8920846,,,,,,,2024-11-08,1,,,,,インテリジェントスポーツキョウカイ,0
1625,5370001051892,新規,0,2024-11-08,2024-11-08,株式会社カワムラガーデン,,株式会社,宮城県,仙台市泉区,向陽台３丁目６番１号,,04,105,9813102,,,,,,,2024-11-08,1,,,,,カワムラガーデン,0
1626,5370003006812,新規,0,2024-11-08,2024-11-08,合同会社イースタイル,,合同会社,宮城県,仙台市若林区,木ノ下２丁目１１番２２号,,04,103,9840047,,,,,,,2024-11-08,1,,,,,イースタイル,0
1647,5430001093004,新規,0,2024-11-08,2024-11-08,昌東株式会社,,株式会社,北海道,札幌市豊平区,中の島一条９丁目４番１４－１０５号,,01,105,0620921,,,,,,,2024-11-08,1,,,,,ショウトウ,0
1649,5450001014445,新規,0,2024-11-08,2024-11-08,株式会社カブトヤ薬局,,株式会社,北海道,旭川市,九条通１４丁目２４番地１０,,01,204,0700039,,,,,,,2024-11-08,1,,,,,カブトヤヤッキョク,0
1650,5460401001265,新規,0,2024-11-08,2024-11-08,五十福株式会社,,株式会社,北海道,根室市,千島町２丁目３５番地,,01,223,0870018,,,,,,,2024-11-08,1,,,,,,0
1653,5700150040737,新規,0,2024-11-08,2015-10-09,山形県立酒田東高等学校ＰＴＡ,,その他,山形県,酒田市,亀ケ崎１丁目３－６０,,06,204,9980842,,,,,,,2015-10-09,1,,,,,ヤマガタケンリツサカタヒガシコウトウガツコウピーテイーエー,0
1666,6010001249638,新規,0,2024-11-08,2024-11-08,株式会社あしたパートナーズ,,株式会社,東京都,千代田区,神田淡路町１丁目１９番１号木村ビル２階,,13,101,1010063,,,,,,,2024-11-08,1,,,,,アシタパートナーズ,0
1667,6010001249646,新規,0,2024-11-08,2024-11-08,株式会社メディカルプラットフォーム,,株式会社,東京都,千代田区,霞が関３丁目２番６号東京倶楽部ビルディング５階,,13,101,1000013,,,,,,,2024-11-08,1,,,,,メディカルプラットフォーム,0
1668,6010001249654,新規,0,2024-11-08,2024-11-08,株式会社中村ビル,,株式会社,東京都,千代田区,岩本町３丁目１番７号,,13,101,1010032,,,,,,,2024-11-08,1,,,,,ナカムラビル,0
1669,6010001249687,新規,0,2024-11-08,2024-11-08,株式会社ＡＧＡＴＨＡ,,株式会社,東京都,中央区,銀座３丁目１１番２号３Ｆ,,13,102,1040061,,,,,,,2024-11-08,1,,,,,アガサ,0
1670,6010001249729,新規,0,2024-11-08,2024-11-08,株式会社ＫＧ,,株式会社,東京都,中央区,銀座６丁目１２番１０号旭ビル６０２号室,,13,102,1040061,,,,,,,2024-11-08,1,,,,,ケージー,0
1672,6010003045366,新規,0,2024-11-08,2024-11-08,ＱｕａｎｔｕｍＶ合同会社,,合同会社,東京都,中央区,日本橋室町１丁目１１番１２号日本橋水野ビル７階,,13,102,1030022,,,,,,,2024-11-08,1,,,,,クアンタムヴィー,0
1673,6010003045399,新規,0,2024-11-08,2024-11-08,合同会社ヴォルスブックス,,合同会社,東京都,千代田区,神田神保町３丁目１０番地３,,13,101,1010051,,,,,,,2024-11-08,1,,,,,ヴォルスブックス,0
1709,6010401186258,新規,0,2024-11-08,2024-11-08,株式会社ルモエンタテインメント,,株式会社,東京都,港区,新橋５丁目１２番１１号天翔新橋５丁目ビル９０７,,13,103,1050004,,,,,,,2024-11-08,1,,,,,ルモエンタテインメント,0
1710,6010401186266,新規,0,2024-11-08,2024-11-08,株式会社ＩＺＭｉＮ,,株式会社,東京都,港区,南青山２丁目２－１５ＷｉｎＡｏｙａｍａビルＵＣＦ６階,,13,103,1070062,,,,,,,2024-11-08,1,,,,,イズミン,0
1711,6010401186290,新規,0,2024-11-08,2024-11-08,Ｖｉｒｉｈｕｂ　Ｅｎｅｒｇｙ　Ｊａｐａｎ株式会社,,株式会社,東京都,港区,西麻布１丁目４番３６－２１４号,,13,103,1060031,,,,,,,2024-11-08,1,,,,,ビリハブエナジージャパン,0
1719,6010701046797,新規,0,2024-11-08,2024-11-08,株式会社ＦＥＬＩ,,株式会社,東京都,品川区,小山６丁目５番６号,,13,109,1420062,,,,,,,2024-11-08,1,,,,,フェリ,0
1720,6010703007426,新規,0,2024-11-08,2024-11-08,合同会社Ｋａｌｙａｎａ　Ｍｉｔｒａ,,合同会社,東京都,品川区,南品川６丁目７番４号ミネルバコート５０１,,13,109,1400004,,,,,,,2024-11-08,1,,,,,カルヤナミトラ,0
1722,6010801035543,新規,0,2024-11-08,2024-11-08,株式会社ＫＵＭＹ建築設計事務所,,株式会社,東京都,大田区,南千束３丁目１９－５,,13,111,1450063,,,,,,,2024-11-08,1,,,,,ケーユーエムワイケンチクセッケイジムショ,0
1726,6011001165684,新規,0,2024-11-08,2024-11-08,株式会社ＫＪ　ＯＲＴＨＯ,,株式会社,東京都,目黒区,下目黒１丁目１番１４号コノトラビル７Ｆ,,13,110,1530064,,,,,,,2024-11-08,1,,,,,ケージェーオルソ,0
1730,6011101109450,新規,0,2024-11-08,2024-11-08,株式会社ミラーノート,,株式会社,東京都,新宿区,西新宿６丁目２１番１－１１１１号,,13,104,1600023,,,,,,,2024-11-08,1,,,,,ミラーノート,0
1731,6011101109517,新規,0,2024-11-08,2024-11-08,Ｄｅｅｐ　Ｑｕｅｓｔｅｒ株式会社,,株式会社,東京都,新宿区,西新宿３丁目３番１３号西新宿水間ビル２Ｆ,,13,104,1600023,,,,,,,2024-11-08,1,,,,,ディープクエスター,0
1732,6011103015151,新規,0,2024-11-08,2024-11-08,Ｎｅｘｔ　Ｗｉｎｇ合同会社,,合同会社,東京都,新宿区,高田馬場３丁目１２番１１号河合ビル４Ｆ,,13,104,1690075,,,,,,,2024-11-08,1,,,,,ネクストウイング,0
1736,6011301030150,新規,0,2024-11-08,2024-11-08,明るい未来株式会社,,株式会社,東京都,杉並区,上荻４丁目１４番２号,,13,115,1670043,,,,,,,2024-11-08,1,,,,,,0
1737,6011403004548,新規,0,2024-11-08,2024-11-08,合同会社Ｓｔｅｏｒｒａ,,合同会社,東京都,板橋区,坂下１丁目３９－７,,13,119,1740043,,,,,,,2024-11-08,1,,,,,ステオラ,0
1739,6011501031345,新規,0,2024-11-08,2024-11-08,株式会社富士電設,,株式会社,東京都,北区,浮間２丁目５番３－５０６号アトレ浮間舟渡ローレルコート,,13,117,1150051,,,,,,,2024-11-08,1,,,,,フジデンセツ,0
1743,6011703004025,新規,0,2024-11-08,2024-11-08,ｎｅｗ　ｍａｒｋ合同会社,,合同会社,東京都,江戸川区,平井６丁目２８－８サンハイツ生方２０１号室,,13,123,1320035,,,,,,,2024-11-08,1,,,,,ニューマーク,0
1744,6011801045103,新規,0,2024-11-08,2024-11-08,株式会社ＳＫＳ,,株式会社,東京都,葛飾区,青戸７丁目２５番４－９０２号ベルフール青砥,,13,122,1250062,,,,,,,2024-11-08,1,,,,,エスケイエス,0
1745,6011801045111,新規,0,2024-11-08,2024-11-08,株式会社ＴＨＩＮＫ,,株式会社,東京都,足立区,中川４丁目３１番１３号レジデンスプルームＤ０３号室,,13,121,1200002,,,,,,,2024-11-08,1,,,,,シンク,0
1748,6012401042457,新規,0,2024-11-08,2024-11-08,株式会社アクトンガレージ,,株式会社,東京都,三鷹市,下連雀３丁目２７番１３号６Ｆ,,13,204,1810013,,,,,,,2024-11-08,1,,,,,アクトンガレージ,0
1753,6013303007382,新規,0,2024-11-08,2024-11-08,合同会社ブルージャイアント,,合同会社,東京都,豊島区,池袋２丁目４３番２号ＦＩＮＯビル８階,,13,116,1710014,,,,,,,2024-11-08,1,,,,,ブルージャイアント,0
1757,6020001159968,新規,0,2024-11-08,2024-11-08,株式会社ＦＩＲＥ＆ｉ,,株式会社,神奈川県,川崎市中原区,小杉町３丁目１３０１番地エクラスタワー武蔵小杉３７０２号,,14,133,2110063,,,,,,,2024-11-08,1,,,,,ファイアアンドアイ,0
1758,6020001159976,新規,0,2024-11-08,2024-11-08,ホイール工房株式会社,,株式会社,神奈川県,横浜市都筑区,東山田２丁目２５番１７号,,14,118,2240023,,,,,,,2024-11-08,1,,,,,ホイールコウボウ,0
1766,6021001083679,新規,0,2024-11-08,2024-11-08,株式会社アイカタ,,株式会社,神奈川県,平塚市,浅間町２番２０－９０３号,,14,203,2540041,,,,,,,2024-11-08,1,,,,,アイカタ,0
1767,6021001083687,新規,0,2024-11-08,2024-11-08,株式会社Ｂａｃｃｈｕｓ,,株式会社,神奈川県,相模原市南区,相南２丁目４番３４号,,14,153,2520312,,,,,,,2024-11-08,1,,,,,バッカス,0
1773,6021003015192,新規,0,2024-11-08,2024-11-08,合同会社ここからここに,,合同会社,神奈川県,横須賀市,衣笠栄町４丁目２８番地,,14,201,2380031,,,,,,,2024-11-08,1,,,,,ココカラココニ,0
1783,6030001163283,新規,0,2024-11-08,2024-11-08,株式会社ＴｏｉＴｏｉＴｏｉ,,株式会社,埼玉県,川口市,大字安行領根岸２００４番地,,11,203,3330834,,,,,,,2024-11-08,1,,,,,トイトイトイ,0
1784,6030001163291,新規,0,2024-11-08,2024-11-08,株式会社スタイルクリエイト,,株式会社,埼玉県,飯能市,大字双柳３５３番地９２,,11,209,3570021,,,,,,,2024-11-08,1,,,,,スタイルクリエイト,0
1785,6030001163300,新規,0,2024-11-08,2024-11-08,株式会社Ｋ’ｓ　Ｇｒｏｕｐ,,株式会社,埼玉県,三郷市,彦成１丁目１９６番地１,,11,237,3410003,,,,,,,2024-11-08,1,,,,,ケーズグループ,0
1786,6030001163309,新規,0,2024-11-08,2024-11-08,株式会社Ｒａ,,株式会社,埼玉県,さいたま市西区,大字飯田９４番地３,,11,101,3310058,,,,,,,2024-11-08,1,,,,,アールエー,0
1787,6030001163341,新規,0,2024-11-08,2024-11-08,株式会社竜心工芸,,株式会社,埼玉県,草加市,青柳６丁目４５番２－１０５号,,11,221,3400002,,,,,,,2024-11-08,1,,,,,リュウシンコウゲイ,0
1791,6030003025449,新規,0,2024-11-08,2024-11-08,合同会社ＫＭＤＹ,,合同会社,埼玉県,行田市,持田５丁目４番１１号,,11,206,3610056,,,,,,,2024-11-08,1,,,,,ケイエムディワイ,0
1800,6040001136040,新規,0,2024-11-08,2024-11-08,株式会社Ａ・Ｋサービス,,株式会社,千葉県,松戸市,常盤平陣屋前２番地の５,,12,207,2702265,,,,,,,2024-11-08,1,,,,,エーケイサービス,0
1801,6040001136049,新規,0,2024-11-08,2024-11-08,ＡＢＵＬＦＡＺＡＬ株式会社,,株式会社,千葉県,佐倉市,稲荷台１丁目２４番地２３ホワイトハウス２０２号,,12,212,2850864,,,,,,,2024-11-08,1,,,,,アブルファザル,0
1802,6040001136065,新規,0,2024-11-08,2024-11-08,株式会社シトリン,,株式会社,千葉県,千葉市花見川区,幕張本郷２丁目５番１－１１１号,,12,102,2620033,,,,,,,2024-11-08,1,,,,,シトリン,0
1803,6040001136081,新規,0,2024-11-08,2024-11-08,株式会社ケーエッチシー,,株式会社,千葉県,松戸市,六高台２丁目４番地の６,,12,207,2702203,,,,,,,2024-11-08,1,,,,,ケーエッチシー,0
1805,6040003026116,新規,0,2024-11-08,2024-11-08,合同会社ｕｐ,,合同会社,千葉県,松戸市,秋山２丁目１０番地の２－４０９号,,12,207,2702223,,,,,,,2024-11-08,1,,,,,アップ,0
1806,6040003026132,新規,0,2024-11-08,2024-11-08,合同会社アカンパニーマネジメント,,合同会社,千葉県,柏市,柏３丁目１０―１１プレシャスタワー柏６０７,,12,217,2770005,,,,,,,2024-11-08,1,,,,,アカンパニーマネジメント,0
1807,6040003026149,新規,0,2024-11-08,2024-11-08,合同会社ＫｕＲＡＦＴ,,合同会社,千葉県,八千代市,ゆりのき台８丁目１８番地６ウィンディヒルズ３０２号,,12,221,2760042,,,,,,,2024-11-08,1,,,,,クラフト,0
1808,6050001055594,新規,0,2024-11-08,2024-11-08,株式会社Ｑｕｉｃｋ,,株式会社,茨城県,つくば市,吾妻２丁目５番地１,,08,220,3050031,,,,,,,2024-11-08,1,,,,,クイック,0
1809,6050001055660,新規,0,2024-11-08,2024-11-08,Ｋ２株式会社,,株式会社,茨城県,龍ケ崎市,長山８丁目１３番地５,,08,208,3010042,,,,,,,2024-11-08,1,,,,,ケーツー,0
1810,6050001055669,新規,0,2024-11-08,2024-11-08,株式会社森ファームポテト,,株式会社,茨城県,古河市,上片田１２２４番地２,,08,204,3060128,,,,,,,2024-11-08,1,,,,,モリファームポテト,0
1815,6050003008798,新規,0,2024-11-08,2024-11-08,合同会社ＲＩＨＯＫＡ,,合同会社,茨城県,稲敷市,蒲ケ山２２番地２５,,08,229,3000522,,,,,,,2024-11-08,1,,,,,リホカ,0
1816,6060003005316,新規,0,2024-11-08,2024-11-08,合同会社四拾萬堂,,合同会社,栃木県,矢板市,末広町１９－４ココマチ２階,,09,211,3292162,,,,,,,2024-11-08,1,,,,,シジマドウ,0
1817,6060005010264,新規,0,2024-11-08,2024-11-08,一般社団法人ＢｏＬＡｍｉｓＣ・ｐｌｕｓ,,その他の設立登記法人,栃木県,宇都宮市,桜２丁目１番２５号,,09,201,3200043,,,,,,,2024-11-08,1,,,,,ボラミスクプラス,0
1818,6070001042351,新規,0,2024-11-08,2024-11-08,株式会社ＡＴＡＲＩＨ,,株式会社,群馬県,邑楽郡大泉町,西小泉３丁目２１２８番　地１,,10,524,3700517,,,,,,,2024-11-08,1,,,,,アタリ,0
1835,6090003002673,新規,0,2024-11-08,2024-11-08,合同会社ＯＫＩＢＯＴＡ,,合同会社,山梨県,北杜市,白州町鳥原６０１,,19,209,4080316,,,,,,,2024-11-08,1,,,,,,0
1840,6110001038832,新規,0,2024-11-08,2024-11-08,株式会社サンルーツ,,株式会社,新潟県,新潟市中央区,山二ツ２丁目１６番２８号７,,15,103,9500922,,,,,,,2024-11-08,1,,,,,サンルーツ,0
1856,6120001269823,新規,0,2024-11-08,2024-11-08,株式会社ココン・ルミエール財務会計,,株式会社,大阪府,大阪市北区,大深町５番５４号グラングリーン大阪南館パークタワー７階,,27,127,5300011,,,,,,,2024-11-08,1,,,,,ココンルミエールザイムカイケイ,0
1857,6120001270087,新規,0,2024-11-08,2024-11-08,東方株式会社,,株式会社,大阪府,大阪市西成区,天下茶屋３丁目１９番４号,,27,122,5570014,,,,,,,2024-11-08,1,,,,,トウホウ,0
1862,6120003027907,新規,0,2024-11-08,2024-11-08,合同会社マタキテ,,合同会社,大阪府,大阪市北区,曾根崎新地２丁目５番３号,,27,127,5300002,,,,,,,2024-11-08,1,,,,,マタキテ,0
1866,6120101070552,新規,0,2024-11-08,2024-11-08,株式会社誠栄,,株式会社,大阪府,堺市北区,東上野芝町２丁５００番地１－１－６０２,,27,146,5918035,,,,,,,2024-11-08,1,,,,,セイエイ,0
1869,6120103006125,新規,0,2024-11-08,2024-11-08,ＡＥＹＮコーポレーション合同会社,,合同会社,大阪府,富田林市,南旭ケ丘町１７－２２,,27,214,5840007,,,,,,,2024-11-08,1,,,,,エーイーワイエヌコーポレーション,0
1875,6122001038613,新規,0,2024-11-08,2024-11-08,彩羽デザイン株式会社,,株式会社,大阪府,八尾市,太子堂１丁目５番３１号,,27,212,5810063,,,,,,,2024-11-08,1,,,,,アヤハデザイン,0
1876,6122001038621,新規,0,2024-11-08,2024-11-08,真貴工業株式会社,,株式会社,大阪府,東大阪市,俊徳町３丁目７番１９号,,27,227,5770831,,,,,,,2024-11-08,1,,,,,シンキコウギョウ,0
1880,6130001078298,新規,0,2024-11-08,2024-11-08,株式会社Ａ１メタル,,株式会社,京都府,久世郡久御山町,田井新荒見２６５番地５,,26,322,6130036,,,,,,,2024-11-08,1,,,,,エーワンメタル,0
1881,6130001078307,新規,0,2024-11-08,2024-11-08,パワーネクト山東株式会社,,株式会社,京都府,福知山市,字堀２５９３番地,,26,201,6200000,,,,,,,2024-11-08,1,,,,,パワーネクトサントウ,0
1882,6130001078315,新規,0,2024-11-08,2024-11-08,じゃーねー株式会社,,株式会社,京都府,京都市中京区,六角通油小路東入本能寺町９６番地１,,26,104,6048243,,,,,,,2024-11-08,1,,,,,ジャーネー,0
1887,6130003009978,新規,0,2024-11-08,2024-11-08,明悦の軒合同会社,,合同会社,京都府,京都市左京区,聖護院円頓美町１６番地２４,,26,103,6068323,,,,,,,2024-11-08,1,,,,,メイエツノケン,0
1890,6140001136344,新規,0,2024-11-08,2024-11-08,株式会社リヘイコンツェルン,,株式会社,兵庫県,川西市,東畦野４丁目１番１４号,,28,217,6660117,,,,,,,2024-11-08,1,,,,,リヘイコンツェルン,0
1893,6140003021296,新規,0,2024-11-08,2024-11-08,Ｕ建商合同会社,,合同会社,兵庫県,姫路市,西今宿２丁目９番１３－６０５号ロワイヤル西今宿,,28,201,6700061,,,,,,,2024-11-08,1,,,,,ユーケンショウ,0
1896,6170001018366,新規,0,2024-11-08,2024-11-08,株式会社ｅｍｅ,,株式会社,和歌山県,和歌山市,中之島１４９６、２－Ａ,,30,201,6408392,,,,,,,2024-11-08,1,,,,,エメ,0
1902,6180001163896,新規,0,2024-11-08,2024-11-08,株式会社ＬＡＬＡ　ＰＯＷＥＲ,,株式会社,愛知県,名古屋市中村区,名駅３丁目４－１０アルティメイト名駅１ｓｔ２階,,23,105,4500002,,,,,,,2024-11-08,1,,,,,ララパワー,0
1903,6180001163987,新規,0,2024-11-08,2024-11-08,株式会社エムズリレーションズ,,株式会社,愛知県,名古屋市昭和区,南山町２０番地６,,23,107,4660835,,,,,,,2024-11-08,1,,,,,エムズリレーションズ,0
1904,6180001163995,新規,0,2024-11-08,2024-11-08,株式会社どんぐり,,株式会社,愛知県,愛知郡東郷町,大字春木字山崎８８７番地５,,23,302,4700162,,,,,,,2024-11-08,1,,,,,ドングリ,0
1908,6180003027595,新規,0,2024-11-08,2024-11-08,合同会社ＩＲＩＥ,,合同会社,愛知県,北名古屋市,熊之庄古井３５番地コーポやよい１０１号,,23,234,4810006,,,,,,,2024-11-08,1,,,,,アイリー,0
1911,6180301039210,新規,0,2024-11-08,2024-11-08,株式会社ＯＤＳエンジニアリング,,株式会社,愛知県,豊橋市,羽根井西町６番地の２３,,23,201,4418026,,,,,,,2024-11-08,1,,,,,オーディエスエンジニアリング,0
1914,6180303006332,新規,0,2024-11-08,2024-11-08,合同会社ひゅうがなつみかん,,合同会社,愛知県,豊橋市,富士見台５丁目１５－２,,23,201,4418135,,,,,,,2024-11-08,1,,,,,ヒュウガナツミカン,0
1917,6190001031788,新規,0,2024-11-08,2024-11-08,株式会社善哉,,株式会社,三重県,鈴鹿市,汲川原町５０９番地の１４,,24,207,5130005,,,,,,,2024-11-08,1,,,,,ゼンザイ,0
1945,6280003001895,新規,0,2024-11-08,2024-11-08,西尾サービス合同会社,,合同会社,島根県,出雲市,稗原町４９３７番地４,,32,203,6930104,,,,,,,2024-11-08,1,,,,,ニシオサービス,0
1950,6290001107850,新規,0,2024-11-08,2024-11-08,株式会社ＳＦｃｏｍｐａｎｙ,,株式会社,福岡県,久留米市,北野町乙吉２１番地３,,40,203,8301124,,,,,,,2024-11-08,1,,,,,エスエフカンパニー,0
1956,6330003010627,新規,0,2024-11-08,2024-11-08,合同会社小島家,,合同会社,熊本県,熊本市西区,島崎２丁目２番７－２号ｔｅｒｒａｃｅｈｏｕｓｅＢ,,43,103,8600073,,,,,,,2024-11-08,1,,,,,オシマヤ,0
1957,6330003010635,新規,0,2024-11-08,2024-11-08,合同会社幸英,,合同会社,熊本県,熊本市南区,富合町南田尻８７３番地,,43,104,8614155,,,,,,,2024-11-08,1,,,,,コウエイ,0
1965,6370001051917,新規,0,2024-11-08,2024-11-08,株式会社ＫＩ企画,,株式会社,宮城県,仙台市泉区,南光台２丁目４番２３号,,04,105,9818003,,,,,,,2024-11-08,1,,,,,ケイアイキカク,0
1966,6370005010852,新規,0,2024-11-08,2024-11-08,一般社団法人ｃｈａｉｎ,,その他の設立登記法人,宮城県,亘理郡亘理町,逢隈十文字字竹ノ内５番地の１,,04,361,9892303,,,,,,,2024-11-08,1,,,,,チェーン,0
1969,6420001018910,新規,0,2024-11-08,2024-11-08,株式会社おばら組,,株式会社,青森県,上北郡おいらせ町,鶉久保山１１７番地６１３,,02,412,0392183,,,,,,,2024-11-08,1,,,,,オバラグミ,0
1974,6500001025989,新規,0,2024-11-08,2024-11-08,清水トラストコンサルティング株式会社,,株式会社,愛媛県,松山市,木屋町３丁目１番地１６,,38,201,7900821,,,,,,,2024-11-08,1,,,,,シミズトラストコンサルティング,0
1987,7010001249579,新規,0,2024-11-08,2024-11-08,華泰株式会社,,株式会社,東京都,文京区,白山１丁目６番４号文京ＶｅｎｔｕｒｅＢａｓｅＡ０１号室,,13,105,1130001,,,,,,,2024-11-08,1,,,,,カタイ,0
1988,7010001249629,新規,0,2024-11-08,2024-11-08,株式会社ＫＳＭＴＫ,,株式会社,東京都,千代田区,内幸町２丁目１番６号,,13,101,1000011,,,,,,,2024-11-08,1,,,,,ケイエスエムティーケイ,0
1989,7010001249678,新規,0,2024-11-08,2024-11-08,株式会社Ｈｙｍｎｓ,,株式会社,東京都,中央区,日本橋茅場町２丁目８番１号,,13,102,1030025,,,,,,,2024-11-08,1,,,,,ヒムズ,0
1990,7010001249694,新規,0,2024-11-08,2024-11-08,未来智庫株式会社,,株式会社,東京都,文京区,水道２丁目９番８号江戸川ハイツ２１３号室,,13,105,1120005,,,,,,,2024-11-08,1,,,,,ミライシンクタンク,0
1991,7010001249703,新規,0,2024-11-08,2024-11-08,株式会社ＹＥＡＨＧＵＯ,,株式会社,東京都,中央区,築地２丁目１５番１５号セントラル東銀座,,13,102,1040045,,,,,,,2024-11-08,1,,,,,イェーグ,0
1992,7010001249744,新規,0,2024-11-08,2024-11-08,ＬＩＮＫ　ＰＡＲＴＮＥＲＳ株式会社,,株式会社,東京都,千代田区,九段南３丁目８番１０号川内ビル３階,,13,101,1020074,,,,,,,2024-11-08,1,,,,,リンクパートナーズ,0
1993,7010001249760,新規,0,2024-11-08,2024-11-08,徳城株式会社,00136926,株式会社,東京都,中央区,勝どき２丁目１０番１６号,,13,102,1040054,,,,,,,2024-11-08,1,,,,,トクシロ,0
2002,7010003045431,新規,0,2024-11-08,2024-11-08,秋田申川太陽光発電合同会社,,合同会社,東京都,千代田区,内幸町２丁目１番１号,,13,101,1000011,,,,,,,2024-11-08,1,,,,,アキタサルカワタイヨウコウハツデン,0
2040,7010005039051,新規,0,2024-11-08,2024-11-08,一般社団法人播但,,その他の設立登記法人,東京都,千代田区,丸の内１丁目４番１号東京共同会計事務所内,,13,101,1000005,,,,,,,2024-11-08,1,,,,,バンタン,0
2041,7010101016391,新規,0,2024-11-08,2024-11-08,おときち株式会社,,株式会社,東京都,八王子市,川口町１１３０番地１,,13,201,1930801,,,,,,,2024-11-08,1,,,,,オトキチ,0
2048,7010401186265,新規,0,2024-11-08,2024-11-08,地域Ａｉ総研株式会社,,株式会社,東京都,港区,麻布十番２丁目２０番７号麻布十番高木ビル１Ｆ,00136939,13,103,1060045,,,,,,,2024-11-08,1,,,,,チイキエーアイソウケン,0
2050,7010403033746,新規,0,2024-11-08,2024-11-08,ＩＭＧ　Ｍｅｄｉａ　Ｊａｐａｎ合同会社,,合同会社,東京都,港区,六本木７丁目１８番１８号,,13,103,1060032,,,,,,,2024-11-08,1,,,,,アイエムジーメディアジャパン,0
2052,7010405023761,新規,0,2024-11-08,2024-11-08,一般社団法人レジデンシャルエイチ,,その他の設立登記法人,東京都,港区,西新橋１丁目２番９号メンターキャピタル税理士法人内,,13,103,1050003,,,,,,,2024-11-08,1,,,,,レジデンシャルエイチ,0
2056,7010601066234,新規,0,2024-11-08,2024-11-08,株式会社田口,,株式会社,東京都,江東区,佐賀１丁目１２－１１大幸ビル１階,,13,108,1350031,,,,,,,2024-11-08,1,,,,,タグチ,0
2057,7010601066242,新規,0,2024-11-08,2024-11-08,ＪＭＣ株式会社,,株式会社,東京都,江東区,豊洲３丁目６番５－３１１４号,,13,108,1350061,,,,,,,2024-11-08,1,,,,,ジェーエムシー,0
2058,7010601066250,新規,0,2024-11-08,2024-11-08,株式会社グローキャピタル,,株式会社,東京都,墨田区,石原４丁目２７番４号,,13,107,1300011,,,,,,,2024-11-08,1,,,,,グローキャピタル,0
2062,7010701046788,新規,0,2024-11-08,2024-11-08,ＭＯ３株式会社,,株式会社,東京都,品川区,東大井１丁目１１番２５－４１６号,,13,109,1400011,,,,,,,2024-11-08,1,,,,,エムオースリー,0
2063,7010703007433,新規,0,2024-11-08,2024-11-08,ＳＩアセット合同会社,,合同会社,東京都,品川区,荏原６丁目１４番４号,,13,109,1420063,,,,,,,2024-11-08,1,,,,,エスアイアセット,0
2067,7010903009485,新規,0,2024-11-08,2024-11-08,モナド合同会社,,合同会社,東京都,世田谷区,代沢２丁目４８番２２号,,13,112,1550032,,,,,,,2024-11-08,1,,,,,モナド,0
2072,7011001165650,新規,0,2024-11-08,2024-11-08,株式会社ＢＡＢＯＯＮ　Ｌａｂ,,株式会社,東京都,渋谷区,道玄坂２丁目２５番１２号道玄坂通５階,,13,113,1500043,,,,,,,2024-11-08,1,,,,,バブーンラボ,0
2073,7011001165659,新規,0,2024-11-08,2024-11-08,株式会社リエル,,株式会社,東京都,渋谷区,道玄坂１丁目１０番８号渋谷道玄坂東急ビル２Ｆ－Ｃ,,13,113,1500043,,,,,,,2024-11-08,1,,,,,リエル,0
2074,7011001165683,新規,0,2024-11-08,2024-11-08,株式会社ＧＡＤＩＤ　ＡＮＯＮＩＥＭ,,株式会社,東京都,目黒区,上目黒１丁目３番９号藤屋ビル３階,,13,110,1530051,,,,,,,2024-11-08,1,,,,,ガディッドアノニム,0
2078,7011101109441,新規,0,2024-11-08,2024-11-08,株式会社Ｏｎｅ　Ｔｒｅｅ,,株式会社,東京都,新宿区,百人町１丁目２‐９尚美ビルＩＩ４０２,00136924,13,104,1690073,,,,,,,2024-11-08,1,,,,,ワンツリー,0
2079,7011101109508,新規,0,2024-11-08,2024-11-08,株式会社智廷,,株式会社,東京都,新宿区,新宿１丁目２４番７－４０５号,,13,104,1600022,,,,,,,2024-11-08,1,,,,,チテイ,0
2084,7011103015150,新規,0,2024-11-08,2024-11-08,千葉システムズ合同会社,,合同会社,東京都,新宿区,西新宿３丁目３番１３号西新宿水間ビル２Ｆ,,13,104,1600023,,,,,,,2024-11-08,1,,,,,チバシステムズ,0
2088,7011403004547,新規,0,2024-11-08,2024-11-08,合同会社ＨａｎｄＳｈａｋｅ,,合同会社,東京都,板橋区,高島平１丁目４６番２号,,13,119,1750082,,,,,,,2024-11-08,1,,,,,ハンドシェイク,0
2092,7011503006286,新規,0,2024-11-08,2024-11-08,合同会社Ｌａｓｔ　Ｒｅｓｏｒｔ,,合同会社,東京都,北区,赤羽１丁目７－９赤羽第一葉山ビルＭＥＴＳ４Ｆ,,13,117,1150045,,,,,,,2024-11-08,1,,,,,ラストリゾート,0
2098,7011801045110,新規,0,2024-11-08,2024-11-08,株式会社山根,,株式会社,東京都,葛飾区,青戸６丁目２３番１７号,,13,122,1250062,,,,,,,2024-11-08,1,,,,,ヤマネ,0
2099,7011801045119,新規,0,2024-11-08,2024-11-08,ＴＨ企画株式会社,,株式会社,東京都,葛飾区,堀切７丁目２２番２８号,,13,122,1240006,,,,,,,2024-11-08,1,,,,,ティーエイチキカク,0
2119,7020001159918,新規,0,2024-11-08,2024-11-08,株式会社ｍａｉｔｒｉ,,株式会社,神奈川県,横浜市神奈川区,金港町５－１４クアドリフォリオ８Ｆ,,14,102,2210056,,,,,,,2024-11-08,1,,,,,マイトリー,0
2120,7020003027189,新規,0,2024-11-08,2024-11-08,合同会社ＲｅＢＯＲＮ,,合同会社,神奈川県,横浜市鶴見区,駒岡５丁目５－２１グランエール綱島７０１,,14,101,2300071,,,,,,,2024-11-08,1,,,,,リボーン,0
2121,7020003027197,新規,0,2024-11-08,2024-11-08,合同会社Ｄ＆Ｋ,,合同会社,神奈川県,川崎市麻生区,高石４丁目１６番３０－１０１号,,14,137,2150003,,,,,,,2024-11-08,1,,,,,ディーアンドケー,0
2122,7020003027206,新規,0,2024-11-08,2024-11-08,合同会社ｌｉｇｈｔｈｏｕｓｅ,,合同会社,神奈川県,横浜市港南区,野庭町２４２番地６３,,14,111,2340056,,,,,,,2024-11-08,1,,,,,ライトハウス,0
2124,7021001083686,新規,0,2024-11-08,2024-11-08,株式会社パートナーズ,,株式会社,神奈川県,大和市,南林間２丁目１１番１９号陽光ビル,,14,213,2420006,,,,,,,2024-11-08,1,,,,,パートナーズ,0
2125,7021001083694,新規,0,2024-11-08,2024-11-08,株式会社Ｂｅｊｉｔｔｏ,,株式会社,神奈川県,大和市,大和南１丁目４番８号西山ビル２－Ａ,,14,213,2420016,,,,,,,2024-11-08,1,,,,,ベジット,0
2126,7021001083703,新規,0,2024-11-08,2024-11-08,株式会社アーバウエステート,,株式会社,神奈川県,相模原市南区,御園３丁目１番１４号,,14,153,2520317,,,,,,,2024-11-08,1,,,,,アーバウエステート,0
2129,7021003015200,新規,0,2024-11-08,2024-11-08,合同会社Ｍ’ｓＴ,,合同会社,神奈川県,茅ヶ崎市,香川２丁目２５番３９－２号,,14,207,2530082,,,,,,,2024-11-08,1,,,,,エムズティー,0
2142,7030001163282,新規,0,2024-11-08,2024-11-08,株式会社前田工建,,株式会社,埼玉県,入間市,久保稲荷５丁目４番地３５,,11,225,3580024,,,,,,,2024-11-08,1,,,,,マエダコウケン,0
2143,7030001163299,新規,0,2024-11-08,2024-11-08,株式会社アドデジ,,株式会社,埼玉県,ふじみ野市,西２丁目７番１０－４０９号,,11,245,3560005,,,,,,,2024-11-08,1,,,,,アドデジ,0
2144,7030001163316,新規,0,2024-11-08,2024-11-08,株式会社アインス,,株式会社,埼玉県,行田市,持田１丁目１６番２７号,,11,206,3610056,,,,,,,2024-11-08,1,,,,,アインス,0
2145,7030001163324,新規,0,2024-11-08,2024-11-08,株式会社三和,,株式会社,埼玉県,八潮市,大字浮塚１００７番地２,,11,234,3400835,,,,,,,2024-11-08,1,,,,,サンワ,0
2148,7030003025431,新規,0,2024-11-08,2024-11-08,合同会社関口,,合同会社,埼玉県,北葛飾郡松伏町,ゆめみ野１丁目７番３号,,11,465,3430113,,,,,,,2024-11-08,1,,,,,セキグチ,0
2154,7040001136048,新規,0,2024-11-08,2024-11-08,株式会社イケダ,,株式会社,千葉県,四街道市,鷹の台１丁目６番８９－５０１号,,12,228,2840033,,,,,,,2024-11-08,1,,,,,イケダ,0
2155,7040001136072,新規,0,2024-11-08,2024-11-08,株式会社クロエ,,株式会社,千葉県,千葉市若葉区,高根町９１４番地１１９,,12,104,2650061,,,,,,,2024-11-08,1,,,,,クロエ,0
2156,7040001136080,新規,0,2024-11-08,2024-11-08,株式会社ヤマニ,,株式会社,千葉県,君津市,南子安５丁目４番１３号,,12,225,2991162,,,,,,,2024-11-08,1,,,,,ヤマニ,0
2164,7040003026156,新規,0,2024-11-08,2024-11-08,合同会社ｇｏｒｉｓａｎ,,合同会社,千葉県,柏市,高柳１丁目５番地１５エクセルメゾン高柳１０２号,,12,217,2770941,,,,,,,2024-11-08,1,,,,,ゴリサン,0
2167,7050001055668,新規,0,2024-11-08,2024-11-08,凱茵株式会社,,株式会社,茨城県,鉾田市,舟木１７４番地３７,,08,234,3111501,,,,,,,2024-11-08,1,,,,,ガイイン,0
2168,7050001055684,新規,0,2024-11-08,2024-11-08,Ｄ・Ｓ・ＧＵＮＡＷＡＲＤＡＮＡ＆ＳＯＮＳ株式会社,,株式会社,茨城県,ひたちなか市,大字田彦３９９番地３シンメイハイツ２０１,,08,221,3120063,,,,,,,2024-11-08,1,,,,,ディエスグナワルダアンドサンズ,0
2172,7060005010263,新規,0,2024-11-08,2024-11-08,弁護士法人松本直樹法律事務所,,その他の設立登記法人,栃木県,宇都宮市,中戸祭１丁目１４番１５号,,09,201,3200057,,,,,,,2024-11-08,1,,,,,マツモトナオキホウリツジムショ,0
2177,7070001042350,新規,0,2024-11-08,2024-11-08,日本総合支援株式会社,,株式会社,群馬県,伊勢崎市,上諏訪町２１１２番地１９,,10,204,3720021,,,,,,,2024-11-08,1,,,,,ニッポンソウゴウシエン,0
2179,7080003003325,新規,0,2024-11-08,2024-11-08,合同会社Ｃ．Ｖ．Ｃｒｅａｔｉｏｎ,,合同会社,静岡県,静岡市駿河区,高松２丁目３番３６－１０１号,,22,102,4228034,,,,,,,2024-11-08,1,,,,,シーブイクリエーション,0
2182,7080103003191,新規,0,2024-11-08,2024-11-08,合同会社ブレイク,,合同会社,静岡県,裾野市,公文名２５７番地の１シティハイムＫＩＩＡ－１０２,00136927,22,220,4101112,,,,,,,2024-11-08,1,,,,,ブレイク,0
2186,7090001018992,新規,0,2024-11-08,2024-11-08,得匯株式会社,,株式会社,山梨県,甲府市,国母２丁目１１番１１号,,19,201,4000043,,,,,,,2024-11-08,1,,,,,,0
2192,7110003005573,新規,0,2024-11-08,2024-11-08,合同会社大平バイオファーマ,,合同会社,新潟県,南魚沼市,余川８７６番地１,,15,226,9496681,,,,,,,2024-11-08,1,,,,,オオダイラバイオファーマ,0
2205,7120001269954,新規,0,2024-11-08,2024-11-08,名望株式会社,,株式会社,大阪府,守口市,南寺方中通１丁目１７－９－２Ｆ,,27,209,5700045,,,,,,,2024-11-08,1,,,,,メイボウ,0
2206,7120001270086,新規,0,2024-11-08,2024-11-08,株式会社関西熊,,株式会社,大阪府,大阪市東成区,東今里２丁目７番２４号,,27,115,5370011,,,,,,,2024-11-08,1,,,,,カンサイクマ,0
2207,7120001270094,新規,0,2024-11-08,2024-11-08,株式会社テクノス,,株式会社,大阪府,大阪市西淀川区,野里２丁目２０番７号,,27,113,5550024,,,,,,,2024-11-08,1,,,,,テクノス,0
2212,7120003027922,新規,0,2024-11-08,2024-11-08,合同会社ＦＵＮ,,合同会社,大阪府,大阪市中央区,内本町１丁目２番１５号８階,,27,128,5400026,,,,,,,2024-11-08,1,,,,,ファン,0
2221,7120901050001,新規,0,2024-11-08,2024-11-08,島田電機株式会社,,株式会社,大阪府,茨木市,山手台３丁目４番１４号,,27,211,5670009,,,,,,,2024-11-08,1,,,,,シマダデンキ,0
2223,7120903005408,新規,0,2024-11-08,2024-11-08,合同会社富士屋,,合同会社,大阪府,豊中市,新千里南町３丁目６番Ａ３－３１０号室,,27,203,5600084,,,,,,,2024-11-08,1,,,,,フジヤ,0
2227,7122001038587,新規,0,2024-11-08,2024-11-08,株式会社Ａｃｏｎｎｅｃｔ,,株式会社,大阪府,四條畷市,中野新町１０番２７号,,27,229,5750054,,,,,,,2024-11-08,1,,,,,エーコネクト,0
2228,7122001038612,新規,0,2024-11-08,2024-11-08,株式会社Ｍ’ｓ,,株式会社,大阪府,東大阪市,衣摺２丁目１８番２５号,,27,227,5770827,,,,,,,2024-11-08,1,,,,,エムズ,0
2231,7130001078289,新規,0,2024-11-08,2024-11-08,株式会社ＵＮＯ,,株式会社,京都府,京都市上京区,下立売通御前通西入２丁目堀川町５１９番地１２,,26,102,6028367,,,,,,,2024-11-08,1,,,,,ウノ,0
2232,7130001078306,新規,0,2024-11-08,2024-11-08,丹波蓄電所株式会社,,株式会社,京都府,福知山市,字堀２５９３番地,,26,201,6200000,,,,,,,2024-11-08,1,,,,,タンバチクデンショ,0
2240,7140003021279,新規,0,2024-11-08,2024-11-08,Ｋ９プラスウエスト合同会社,,合同会社,兵庫県,赤穂市,西有年３０１５番地４９－１３号,,28,212,6781186,,,,,,,2024-11-08,1,,,,,ケーナインプラスウエスト,0
2244,7160001026311,新規,0,2024-11-08,2024-11-08,株式会社ケイズホールディングス,,株式会社,滋賀県,草津市,若竹町９番８－７号,,25,206,5250031,,,,,,,2024-11-08,1,,,,,ケイズホールディングス,0
2245,7160001026328,新規,0,2024-11-08,2024-11-08,株式会社池田産業,,株式会社,滋賀県,湖南市,三雲１４９番地の１,,25,211,5203221,,,,,,,2024-11-08,1,,,,,イケダサンギョウ,0
2246,7160001026336,新規,0,2024-11-08,2024-11-08,イノベックス株式会社,,株式会社,滋賀県,犬上郡多賀町,大字多賀９８６番地１レトアＭＥＩＳＥＩ１０１号,,25,443,5220341,,,,,,,2024-11-08,1,,,,,イノベックス,0
2254,7180001164027,新規,0,2024-11-08,2024-11-08,株式会社ＷＡＮ　ＴＥＡＭ,,株式会社,愛知県,名古屋市緑区,鳴海町字三王山１７番地の１,,23,114,4580801,,,,,,,2024-11-08,1,,,,,ワンチーム,0
2260,7180301039192,新規,0,2024-11-08,2024-11-08,株式会社つぐみ,,株式会社,愛知県,岡崎市,鴨田町字向山８２番地アーバン鴨田５０２,,23,202,4442121,,,,,,,2024-11-08,1,,,,,ツグミ,0
2264,7190001031787,新規,0,2024-11-08,2024-11-08,株式会社前川防水,,株式会社,三重県,松阪市,駅部田町８６９番地３,,24,204,5150045,,,,,,,2024-11-08,1,,,,,マエガワボウスイ,0
2271,7220001026313,新規,0,2024-11-08,2024-11-08,株式会社ＫＰＳ,,株式会社,石川県,白山市,八田町１１２４番地３,,17,210,9240001,,,,,,,2024-11-08,1,,,,,ケーピーエス,0
2273,7230003002328,新規,0,2024-11-08,2024-11-08,ルーティンデザイン合同会社,,合同会社,富山県,富山市,北新町１丁目２‐７,,16,201,9300023,,,,,,,2024-11-08,1,,,,,ルーティンデザイン,0
2276,7240001064055,新規,0,2024-11-08,2024-11-08,株式会社ＧＳＴ　Ｊａｐａｎ,,株式会社,広島県,東広島市,吉川工業団地５－２３コラボステーション２Ｆ－Ａ,,34,212,7390153,,,,,,,2024-11-08,1,,,,,ジーエスティージャパン,0
2281,7260003004957,新規,0,2024-11-08,2024-11-08,合同会社スマイルクラフト,,合同会社,岡山県,岡山市北区,問屋町１６番地１０１―５０４,,33,101,7000977,,,,,,,2024-11-08,1,,,,,スマイルクラフト,0
2289,7290001107841,新規,0,2024-11-08,2024-11-08,株式会社ＵＧ,,株式会社,福岡県,福岡市中央区,渡辺通５丁目２－１１渡辺通プレイス７０１,,40,133,8100004,,,,,,,2024-11-08,1,,,,,,0
2290,7290003016041,新規,0,2024-11-08,2024-11-08,シルコイ合同会社,,合同会社,福岡県,福岡市中央区,平尾２丁目５番８－５１５号ラクレイス平尾ステーション,,40,133,8100014,,,,,,,2024-11-08,1,,,,,シルコイ,0
2292,7310001019290,新規,0,2024-11-08,2024-11-08,株式会社Ｓｈｏｐ　Ｈａｎａ,,株式会社,長崎県,雲仙市,国見町多比良丁２１４７,,42,213,8591324,,,,,,,2024-11-08,1,,,,,ショップハナ,0
2294,7320001020792,新規,0,2024-11-08,2024-11-08,株式会社ＫＵＲＯＳＨＩＯ　Ｊａｐａｎ,,株式会社,大分県,大分市,金池町２丁目４番６号九州電力大分ビル別館１階,,44,201,8700026,,,,,,,2024-11-08,1,,,,,クロシオジャパン,0
2295,7330003010634,新規,0,2024-11-08,2024-11-08,合同会社その,,合同会社,熊本県,熊本市中央区,上通町８番３０号坂田ビル１階,,43,101,8600845,,,,,,,2024-11-08,1,,,,,ソノ,0
2302,7370001051890,新規,0,2024-11-08,2024-11-08,株式会社南蘭,,株式会社,宮城県,仙台市宮城野区,燕沢３丁目３－２０,,04,102,9830823,,,,,,,2024-11-08,1,,,,,ナンカ,0
2303,7370001051899,新規,0,2024-11-08,2024-11-08,ＰＨＵＬＰＡＴＩ株式会社,,株式会社,宮城県,仙台市青葉区,五橋２丁目６－１４五橋レジデンス１階,,04,101,9800022,,,,,,,2024-11-08,1,,,,,フルパティ,0
2310,7400001016849,新規,0,2024-11-08,2024-11-08,株式会社板宮建設,,株式会社,岩手県,胆沢郡金ケ崎町,西根矢来１９番地,,03,381,0294503,,,,,,,2024-11-08,1,,,,,イタミヤケンセツ,0
2317,7450003002553,新規,0,2024-11-08,2024-11-08,合同会社マルトク山一商事,,合同会社,北海道,旭川市,南六条通２４丁目１９７５番地,,01,204,0788336,,,,,,,2024-11-08,1,,,,,マルトクヤマイチショウジ,0
2318,7460101007627,新規,0,2024-11-08,2024-11-08,株式会社ＡＴＨＢＡＳＥ,,株式会社,北海道,帯広市,西二十条南４丁目５－８,,01,207,0802470,,,,,,,2024-11-08,1,,,,,アスベース,0
2319,7470005006591,新規,0,2024-11-08,2024-11-08,農事組合法人結まーる,,その他の設立登記法人,香川県,高松市,十川東町９１０番地,,37,201,7610434,,,,,,,2024-11-08,1,,,,,,0
2321,7500001025988,新規,0,2024-11-08,2024-11-08,株式会社ＳＰ,,株式会社,愛媛県,松山市,畑寺町丙８９番地２,,38,201,7900912,,,,,,,2024-11-08,1,,,,,エスピー,0
2330,8010001249578,新規,0,2024-11-08,2024-11-08,ＣａｎｃｅｒＴｅｃｔ株式会社,,株式会社,東京都,中央区,銀座１丁目１４番４号プレリー銀座ビル５Ｆ,,13,102,1040061,,,,,,,2024-11-08,1,,,,,キャンサーテクト,0
2331,8010001249644,新規,0,2024-11-08,2024-11-08,ＫＩＮ　ＫＡ株式会社,,株式会社,東京都,千代田区,神田平河町１番地第３東ビル５ＦイーオフィスＡＫＩＢＡ２番館１６号室,,13,101,1010027,,,,,,,2024-11-08,1,,,,,キンカ,0
2332,8010001249652,新規,0,2024-11-08,2024-11-08,プロシアＩＴマネジメント株式会社,,株式会社,東京都,中央区,日本橋富沢町６番４号,,13,102,1030006,,,,,,,2024-11-08,1,,,,,プロシアアイティーマネジメント,0
2333,8010001249660,新規,0,2024-11-08,2024-11-08,スター・フォー・ニュー・ジェネレーション株式会社,,株式会社,東京都,千代田区,二番町１１番地９ダイアパレス二番町３０１号室,,13,101,1020084,,,,,,,2024-11-08,1,,,,,スターフォーニュージェネレーション,0
2334,8010001249710,新規,0,2024-11-08,2024-11-08,株式会社ＴｏＥ,,株式会社,東京都,千代田区,内神田３丁目５番１号大畜ビル,,13,101,1010047,,,,,,,2024-11-08,1,,,,,トゥーイー,0
2335,8010001249768,新規,0,2024-11-08,2024-11-08,株式会社利便東京,,株式会社,東京都,中央区,銀座１丁目２２－１１銀座大竹ビジデンス２Ｆ,,13,102,1040061,,,,,,,2024-11-08,1,,,,,リビントウキョウ,0
2336,8010001249801,新規,0,2024-11-08,2024-11-08,株式会社ＧｒａｓｓＡＩ,,株式会社,東京都,中央区,銀座７丁目１３番２１号銀座ｓｉｎｒｏｋｕｓｙｕビル２階,,13,102,1040061,,,,,,,2024-11-08,1,,,,,グラスエーアイ,0
2338,8010003045397,新規,0,2024-11-08,2024-11-08,合同会社ＫＣＣＳ,,合同会社,東京都,文京区,小石川５丁目３７番１－８０３号,,13,105,1120002,,,,,,,2024-11-08,1,,,,,ケーシーシーエス,0
2339,8010003045406,新規,0,2024-11-08,2024-11-08,合同会社カッティングエッジ,,合同会社,東京都,千代田区,神田和泉町一番地６－１６ヤマトビル４０５,,13,101,1010024,,,,,,,2024-11-08,1,,,,,カッティングエッジ,0
2374,8010101016390,新規,0,2024-11-08,2024-11-08,株式会社ＬＡ．ＭＩＵ,,株式会社,東京都,八王子市,横山町３－１１ＭＯＲＥＲＡ３Ｆ,,13,201,1920081,,,,,,,2024-11-08,1,,,,,ラミュウ,0
2392,8010703007432,新規,0,2024-11-08,2024-11-08,合同会社喜斗ホールディングス,,合同会社,東京都,品川区,小山３丁目１５番２－２５１５号,,13,109,1420062,,,,,,,2024-11-08,1,,,,,キトホールディングス,0
2393,8010801035541,新規,0,2024-11-08,2024-11-08,イー・アンド・イー株式会社,,株式会社,東京都,大田区,山王４丁目１３番１３号,,13,111,1430023,,,,,,,2024-11-08,1,,,,,イーアンドイー,0
2397,8010903009484,新規,0,2024-11-08,2024-11-08,Ｉ＆Ｃエンジニアリング合同会社,,合同会社,東京都,世田谷区,祖師谷３丁目８番１１号１階,,13,112,1570072,,,,,,,2024-11-08,1,,,,,アイアンドシーエンジニアリング,0
2399,8011001165708,新規,0,2024-11-08,2024-11-08,株式会社ＳｔａｒＬｉｆｅＰｒｏｍｏｔｉｏｎ,,株式会社,東京都,渋谷区,道玄坂１丁目１０番８号渋谷道玄坂東急ビル２Ｆ－Ｃ,,13,113,1500043,,,,,,,2024-11-08,1,,,,,スターライフプロモーション,0
2400,8011001165781,新規,0,2024-11-08,2024-11-08,株式会社ＧＩパートナーズ,,株式会社,東京都,渋谷区,渋谷２丁目１９番１５－６０９号宮益坂ビルディング,,13,113,1500002,,,,,,,2024-11-08,1,,,,,ジーアイパートナーズ,0
2401,8011001165831,新規,0,2024-11-08,2024-11-08,久遠綜合株式会社,,株式会社,東京都,渋谷区,道玄坂１丁目２－３渋谷フクラス１７Ｆ,,13,113,1500043,,,,,,,2024-11-08,1,,,,,クオンソウゴウ,0
2402,8011003020324,新規,0,2024-11-08,2024-11-08,合同会社ＳＡＮＧＡＫＵ,,合同会社,東京都,渋谷区,西原３丁目３６－２３ＢＯＲＵＮＨ３０４,,13,113,1510066,,,,,,,2024-11-08,1,,,,,サンガク,0
2407,8011101109457,新規,0,2024-11-08,2024-11-08,ＢＢＲＯ株式会社,,株式会社,東京都,新宿区,西新宿３丁目３番１３号西新宿水間ビル２Ｆ,,13,104,1600023,,,,,,,2024-11-08,1,,,,,ビーブロ,0
2409,8011303005339,新規,0,2024-11-08,2024-11-08,合同会社天の川,,合同会社,東京都,杉並区,下高井戸３丁目３０番１７号グランデュール桜上水１０１,,13,115,1680073,,,,,,,2024-11-08,1,,,,,アマノガワ,0
2410,8011403004546,新規,0,2024-11-08,2024-11-08,アトリエ・ＡＰ合同会社,,合同会社,東京都,板橋区,高島平４丁目９番１７号,,13,119,1750082,,,,,,,2024-11-08,1,,,,,アトリエエーピー,0
2411,8011501031335,新規,0,2024-11-08,2024-11-08,株式会社高翔,,株式会社,東京都,北区,神谷１丁目２６番１５号,,13,117,1150043,,,,,,,2024-11-08,1,,,,,タカショウ,0
2412,8011501031343,新規,0,2024-11-08,2024-11-08,Ｋ＆Ｍ株式会社,,株式会社,東京都,北区,赤羽１丁目５２－７増渕ビル３Ｆ,,13,117,1150045,,,,,,,2024-11-08,1,,,,,ケーアンドエム,0
2413,8011601028173,新規,0,2024-11-08,2024-11-08,アレナ株式会社,,株式会社,東京都,練馬区,旭丘１丁目１１番３旭丘光ハイム４０１Ｅ号,,13,120,1760005,,,,,,,2024-11-08,1,,,,,アレナ,0
2415,8011701027793,新規,0,2024-11-08,2024-11-08,株式会社盛安,,株式会社,東京都,江戸川区,東小松川４丁目４７番７号,,13,123,1320033,,,,,,,2024-11-08,1,,,,,モリヤス,0
2422,8012301014141,新規,0,2024-11-08,2024-11-08,Ｌｉｇｈｔｅｎｅｒ株式会社,,株式会社,東京都,町田市,真光寺２丁目３１番地３,,13,209,1950057,,,,,,,2024-11-08,1,,,,,ライトナー,0
2432,8020001159974,新規,0,2024-11-08,2024-11-08,株式会社ｉｗｏｒｋｓ,,株式会社,神奈川県,横浜市旭区,本村町６２番地１４ビューテラス本村１０２,,14,112,2410024,,,,,,,2024-11-08,1,,,,,アイワークス,0
2437,8021001083693,新規,0,2024-11-08,2024-11-08,株式会社ビジネス・デザイン,,株式会社,神奈川県,相模原市中央区,共和４丁目１３番５号ディアコートサガミ１Ｆ,,14,152,2520234,,,,,,,2024-11-08,1,,,,,ビジネスデザイン,0
2438,8021001083702,新規,0,2024-11-08,2024-11-08,株式会社明翔,,株式会社,神奈川県,大和市,中央林間３丁目１２番１４号,,14,213,2420007,,,,,,,2024-11-08,1,,,,,メイショウ,0
2439,8021003015182,新規,0,2024-11-08,2024-11-08,合同会社ＨＹ,,合同会社,神奈川県,綾瀬市,上土棚中２丁目１８番９１号,,14,218,2521113,,,,,,,2024-11-08,1,,,,,エイチワイ,0
2440,8021005013218,新規,0,2024-11-08,2024-11-08,一般社団法人ＳＧＳ親睦会,,その他の設立登記法人,神奈川県,平塚市,代官町３１番２７号,,14,203,2540807,,,,,,,2024-11-08,1,,,,,エスジーエスシンボクカイ,0
2447,8030001163265,新規,0,2024-11-08,2024-11-08,株式会社ねこいずむ,,株式会社,埼玉県,蕨市,塚越２丁目１－１８シティプラザ蕨３Ｆ,,11,223,3350002,,,,,,,2024-11-08,1,,,,,ネコイズム,0
2448,8030001163281,新規,0,2024-11-08,2024-11-08,株式会社さくら並木,,株式会社,埼玉県,川越市,大字池辺３１６番地１,,11,201,3501171,,,,,,,2024-11-08,1,,,,,サクラナミキ,0
2449,8030001163307,新規,0,2024-11-08,2024-11-08,株式会社リプラン,,株式会社,埼玉県,新座市,北野２丁目５番２８号アミティエ２０４号室,,11,230,3520003,,,,,,,2024-11-08,1,,,,,リプラン,0
2450,8030001163323,新規,0,2024-11-08,2024-11-08,株式会社ビバフューチャー,,株式会社,埼玉県,東松山市,松葉町３丁目１５番２０号,,11,212,3550017,,,,,,,2024-11-08,1,,,,,ビバフューチャー,0
2451,8030001163364,新規,0,2024-11-08,2024-11-08,Ｆａｒｏｏｑ　Ｔｒａｄｉｎｇ株式会社,,株式会社,埼玉県,坂戸市,大字赤尾字長島２０３５番５,,11,239,3500201,,,,,,,2024-11-08,1,,,,,ファルークトレイディング,0
2453,8030003025397,新規,0,2024-11-08,2024-11-08,合同会社ヒカリ,,合同会社,埼玉県,北葛飾郡杉戸町,大字宮前１３７番地１０８,,11,464,3450004,,,,,,,2024-11-08,1,,,,,ヒカリ,0
2454,8030003025422,新規,0,2024-11-08,2024-11-08,合同会社Ｄｕｌｙ,,合同会社,埼玉県,川口市,川口３丁目２番４－７０３号リプレ川口一番街,,11,203,3320015,,,,,,,2024-11-08,1,,,,,デューリー,0
2464,8040001136022,新規,0,2024-11-08,2024-11-08,株式会社ｌｉｔｔｌｅ　ｐｌｕｓ,,株式会社,千葉県,柏市,東１丁目２番４５号サンライズイシド２０２,,12,217,2770014,,,,,,,2024-11-08,1,,,,,リトルプラス,0
2465,8040001136055,新規,0,2024-11-08,2024-11-08,株式会社Ｔｏｎｅ,,株式会社,千葉県,千葉市稲毛区,長沼原町３１７番地１－１２０３号,,12,103,2630001,,,,,,,2024-11-08,1,,,,,トーン,0
2466,8040001136063,新規,0,2024-11-08,2024-11-08,マリンブルー株式会社,,株式会社,千葉県,流山市,南流山３丁目１０番８号１階,,12,220,2700163,,,,,,,2024-11-08,1,,,,,マリンブルー,0
2467,8040003026122,新規,0,2024-11-08,2024-11-08,合同会社ＭＡＮＩ,,合同会社,千葉県,船橋市,東船橋４丁目１９番２６－１０１号,,12,204,2730002,,,,,,,2024-11-08,1,,,,,マニ,0
2468,8040003026139,新規,0,2024-11-08,2024-11-08,合同会社ａｉｄ．Ｅ,,合同会社,千葉県,成田市,公津の杜４丁目１２プロシードＣＯ－Ｚ東館Ｂ－６号室,,12,211,2860048,,,,,,,2024-11-08,1,,,,,エイド,0
2469,8040003026147,新規,0,2024-11-08,2024-11-08,合同会社ヨコタ内装,,合同会社,千葉県,柏市,逆井２丁目２８番８号,,12,217,2770042,,,,,,,2024-11-08,1,,,,,ヨコタナイソウ,0
2470,8040003026155,新規,0,2024-11-08,2024-11-08,Ｊａｐａｎ　Ｔｒａｄｅｒｓ合同会社,,合同会社,千葉県,佐倉市,臼井台１６番地１９,,12,212,2850866,,,,,,,2024-11-08,1,,,,,ジャパントレイダーズ,0
2476,8050001055667,新規,0,2024-11-08,2024-11-08,いばらき電気設備管理株式会社,,株式会社,茨城県,土浦市,小山崎５０５番地７,,08,203,3000004,,,,,,,2024-11-08,1,,,,,イバラキデンキセツビカンリ,0
2477,8050001055683,新規,0,2024-11-08,2024-11-08,エイジェイイート株式会社,,株式会社,茨城県,ひたちなか市,表町１番４号勝田ビル１Ｆ,,08,221,3120047,,,,,,,2024-11-08,1,,,,,エイジェイイート,0
2478,8050001055691,新規,0,2024-11-08,2024-11-08,株式会社森住造園,,株式会社,茨城県,守谷市,百合ケ丘１丁目２４４０番地の４,,08,224,3020110,,,,,,,2024-11-08,1,,,,,モリズミゾウエン,0
2485,8060003005314,新規,0,2024-11-08,2024-11-08,ＰＬＮＢ合同会社,,合同会社,栃木県,宇都宮市,峰４丁目８番３８号,,09,201,3210942,,,,,,,2024-11-08,1,,,,,ピーエルエヌビー,0
2489,8070001042309,新規,0,2024-11-08,2024-11-08,ヒーロー不動産株式会社,,株式会社,群馬県,前橋市,南町４丁目４８番地１３,,10,201,3710805,,,,,,,2024-11-08,1,,,,,ヒーローフドウサン,0
2493,8080001026574,新規,0,2024-11-08,2024-11-08,株式会社Ａｍｉｔｉｅ　ｎｏｒｉ,,株式会社,静岡県,静岡市駿河区,曲金３丁目６番１８号,,22,102,4228006,,,,,,,2024-11-08,1,,,,,アミティエノリ,0
2494,8080101025105,新規,0,2024-11-08,2024-11-08,株式会社ＧＳエステート,,株式会社,静岡県,田方郡函南町,平井１２９６番地の４,,22,325,4190107,,,,,,,2024-11-08,1,,,,,ジーエスエステート,0
2498,8100001038014,新規,0,2024-11-08,2024-11-08,株式会社Ｗａｒａｉａｉ,,株式会社,長野県,埴科郡坂城町,大字坂城６８１０番地,,20,521,3890601,,,,,,,2024-11-08,1,,,,,ワライアイ,0
2512,8120001270036,新規,0,2024-11-08,2024-11-08,株式会社ＲＡＸＵＳ　Ｏｓａｋａ　Ｃｉｔｙ　ＳＣ,,株式会社,大阪府,大阪市中央区,上汐１丁目４－１０上汐ビル３０３,,27,128,5420064,,,,,,,2024-11-08,1,,,,,ラグザスオーサカシティエスシー,0
2513,8120001270052,新規,0,2024-11-08,2024-11-08,昇源株式会社,,株式会社,大阪府,大阪市天王寺区,大道３丁目１－２４グラン・ピア寺田町３０２号室,,27,109,5430052,,,,,,,2024-11-08,1,,,,,ショウゲン,0
2514,8120001270060,新規,0,2024-11-08,2024-11-08,株式会社Ａｌｉｙａ,,株式会社,大阪府,大阪市浪速区,敷津東２丁目４番１７－２２０１号,,27,111,5560012,,,,,,,2024-11-08,1,,,,,アリヤ,0
2515,8120001270069,新規,0,2024-11-08,2024-11-08,株式会社真田不動産,,株式会社,大阪府,大阪市西区,江戸堀１丁目２３番１９号６階,,27,106,5500002,,,,,,,2024-11-08,1,,,,,サナダフドウサン,0
2516,8120001270085,新規,0,2024-11-08,2024-11-08,スキコトラボ株式会社,,株式会社,大阪府,大阪市北区,角田町８番１号大阪梅田ツインタワーズ・ノース１９階,,27,127,5300017,,,,,,,2024-11-08,1,,,,,スキコトラボ,0
2517,8120001270119,新規,0,2024-11-08,2024-11-08,株式会社オリマ,,株式会社,大阪府,大阪市天王寺区,玉造本町５番１９号オータムヒルズ６０１号,,27,109,5430013,,,,,,,2024-11-08,1,,,,,オリマ,0
2522,8120101070559,新規,0,2024-11-08,2024-11-08,株式会社ＳＴＡＳＴＯ,,株式会社,大阪府,河内長野市,喜多町４１６番地の３０,,27,216,5860033,,,,,,,2024-11-08,1,,,,,スタスト,0
2525,8122001038603,新規,0,2024-11-08,2024-11-08,株式会社三木建築事務所,,株式会社,大阪府,四條畷市,田原台９丁目７番４６号,,27,229,5750013,,,,,,,2024-11-08,1,,,,,ミキケンチクジムショ,0
2526,8122001038611,新規,0,2024-11-08,2024-11-08,株式会社ネオトレック,,株式会社,大阪府,八尾市,小畑町２丁目１番地の２３,,27,212,5810835,,,,,,,2024-11-08,1,,,,,ネオトレック,0
2528,8122003003027,新規,0,2024-11-08,2024-11-08,合同会社ＯＲＣＡ,,合同会社,大阪府,東大阪市,若江東町６丁目８－４９－２０１,,27,227,5780935,,,,,,,2024-11-08,1,,,,,オルカ,0
2535,8130001078271,新規,0,2024-11-08,2024-11-08,株式会社みよし,,株式会社,京都府,京田辺市,大住岡村５６番地,,26,211,6100343,,,,,,,2024-11-08,1,,,,,ミヨシ,0
2536,8130001078296,新規,0,2024-11-08,2024-11-08,スピカラボ株式会社,,株式会社,京都府,京都市伏見区,久我森の宮町８番地５５,,26,109,6128495,,,,,,,2024-11-08,1,,,,,スピカラボ,0
2537,8130001078305,新規,0,2024-11-08,2024-11-08,京都よさの蓄電所株式会社,,株式会社,京都府,福知山市,字堀２５９３番地,,26,201,6200000,,,,,,,2024-11-08,1,,,,,キョウトヨサノチクデンショ,0
2538,8130001078313,新規,0,2024-11-08,2024-11-08,株式会社Ａ‐ＨＯＭＥ,,株式会社,京都府,京都市下京区,中堂寺庄ノ内町１番地１７９マンションパール１Ｆ南側,,26,106,6008814,,,,,,,2024-11-08,1,,,,,エーホーム,0
2540,8130005017234,新規,0,2024-11-08,2024-11-08,弁理士法人京都七条特許事務所,,その他の設立登記法人,京都府,京都市下京区,烏丸通七条下る東塩小路町７３５－１京阪京都ビル８階,,26,106,6008216,,,,,,,2024-11-08,1,,,,,キョウトナナジョウトッキョジムショ,0
2544,8140001136367,新規,0,2024-11-08,2024-11-08,エムエスエイチアール株式会社,,株式会社,兵庫県,姫路市,駅前町２４１番地フェスタビル北館３Ｆ,,28,201,6700927,,,,,,,2024-11-08,1,,,,,エムエスエイチアール,0
2545,8140001136375,新規,0,2024-11-08,2024-11-08,株式会社三和会,,株式会社,兵庫県,宝塚市,栄町１丁目１８番２号,,28,214,6650845,,,,,,,2024-11-08,1,,,,,サンワカイ,0
2546,8140001136383,新規,0,2024-11-08,2024-11-08,株式会社グランライツ,,株式会社,兵庫県,芦屋市,山手町２９番１５,,28,206,6590096,,,,,,,2024-11-08,1,,,,,グランライツ,0
2552,8140003021286,新規,0,2024-11-08,2024-11-08,Ａｖｉｏｎｔ　ｇｒｏｕｐ　Ｊａｐａｎ合同会社,,合同会社,兵庫県,神戸市長田区,雲雀ヶ丘３丁目６番１号ヴィラナリー雲雀ヶ丘２号棟１０１号,,28,106,6530879,,,,,,,2024-11-08,1,,,,,エビオントグループジャパン,0
2553,8140003021303,新規,0,2024-11-08,2024-11-08,ルーカス合同会社,,合同会社,兵庫県,神戸市長田区,腕塚町８丁目２番１３号,,28,106,6530036,,,,,,,2024-11-08,1,,,,,ルーカス,0
2561,8180001163936,新規,0,2024-11-08,2024-11-08,株式会社ＳＫＴ,,株式会社,愛知県,名古屋市中村区,横井２丁目１５番地,,23,105,4530866,,,,,,,2024-11-08,1,,,,,エスケイティ,0
2562,8180001164018,新規,0,2024-11-08,2024-11-08,株式会社ＤＭＳ,,株式会社,愛知県,春日井市,小野町２丁目１番地３勝川サザンクラスβ１３０４号,,23,206,4860926,,,,,,,2024-11-08,1,,,,,ディーエムエス,0
2563,8180001164026,新規,0,2024-11-08,2024-11-08,株式会社英設備,,株式会社,愛知県,一宮市,緑１丁目９番２０号,,23,203,4910862,,,,,,,2024-11-08,1,,,,,ハナブサセツビ,0
2566,8180003027593,新規,0,2024-11-08,2024-11-08,リベラシオン合同会社,,合同会社,愛知県,長久手市,岩作西浦８６番地２,,23,238,4801103,,,,,,,2024-11-08,1,,,,,リベラシオン,0
2569,8180301039209,新規,0,2024-11-08,2024-11-08,株式会社８８２３,,株式会社,愛知県,碧南市,音羽町３番地１２,,23,209,4470000,,,,,,,2024-11-08,1,,,,,ハヤブサ,0
2571,8180303006330,新規,0,2024-11-08,2024-11-08,合資会社ララール,,合資会社,愛知県,豊田市,土橋町４丁目６８番地,,23,211,4710842,,,,,,,2024-11-08,1,,,,,ララール,0
2576,8200001043103,新規,0,2024-11-08,2024-11-08,株式会社Ｔｏｗｌ,,株式会社,岐阜県,関市,山田５５５番地２,,21,205,5013944,,,,,,,2024-11-08,1,,,,,,0
2578,8200003006578,新規,0,2024-11-08,2024-11-08,合同会社マリッサ,,合同会社,岐阜県,大垣市,静里町２７番地３リバーサイドパーク３０２,,21,202,5030983,,,,,,,2024-11-08,1,,,,,マリッサ,0
2580,8220003003879,新規,0,2024-11-08,2024-11-08,合同会社みなみ,,合同会社,石川県,小松市,高堂町ト５２番地,,17,203,9230031,,,,,,,2024-11-08,1,,,,,ミナミ,0
2592,8260001039608,新規,0,2024-11-08,2024-11-08,デジタルコンテンツ株式会社,,株式会社,岡山県,倉敷市,玉島柏島４０３５番地１,,33,202,7138123,,,,,,,2024-11-08,1,,,,,デジタルコンテンツ,0
2620,8420001018909,新規,0,2024-11-08,2024-11-08,株式会社ブランカッセ,,株式会社,青森県,弘前市,大字城東北１丁目９番地７,,02,202,0368092,,,,,,,2024-11-08,1,,,,,ブランカッセ,0
2624,8430001093026,新規,0,2024-11-08,2024-11-08,株式会社ＬＴＢ,,株式会社,北海道,札幌市西区,西野二条４丁目３番１３号,,01,107,0630032,,,,,,,2024-11-08,1,,,,,エルティービー,0
2631,8500001025987,新規,0,2024-11-08,2024-11-08,キタノ企画株式会社,,株式会社,愛媛県,新居浜市,宇高町３丁目１１番８号,,38,205,7920866,,,,,,,2024-11-08,1,,,,,キタノキカク,0
2644,9010001249536,新規,0,2024-11-08,2024-11-08,株式会社まねびば,,株式会社,東京都,中央区,日本橋室町１丁目１１番１２号日本橋水野ビル７階,,13,102,1030022,,,,,,,2024-11-08,1,,,,,マネビバ,0
2645,9010001249651,新規,0,2024-11-08,2024-11-08,株式会社馥や,,株式会社,東京都,中央区,日本橋小伝馬町１４番１９号高取ビル１階,,13,102,1030001,,,,,,,2024-11-08,1,,,,,フクヤ,0
2646,9010001249676,新規,0,2024-11-08,2024-11-08,株式会社Ｓｕｎｎｙ,,株式会社,東京都,千代田区,岩本町３丁目８番９号東加ビル３階３０３号室,,13,101,1010032,,,,,,,2024-11-08,1,,,,,サニー,0
2647,9010001249692,新規,0,2024-11-08,2024-11-08,ＭＫファーマ株式会社,,株式会社,東京都,中央区,銀座１丁目１２番４号Ｎ＆Ｅ・ＢＬＤ．６Ｆ,,13,102,1040061,,,,,,,2024-11-08,1,,,,,エムケイファーマ,0
2648,9010001249701,新規,0,2024-11-08,2024-11-08,株式会社Ｊａｐａｎ　Ｌａｗｙｅｒｓ　Ｓｅａｒｃｈ,,株式会社,東京都,中央区,日本橋兜町１７番２号兜町第６葉山ビル４Ｆ,,13,102,1030026,,,,,,,2024-11-08,1,,,,,ジャパンローヤーズサーチ,0
2649,9010001249783,新規,0,2024-11-08,2024-11-08,株式会社デジフル,,株式会社,東京都,中央区,日本橋室町１丁目１１番１２号日本橋水野ビル７階,,13,102,1030022,,,,,,,2024-11-08,1,,,,,デジフル,0
2653,9010003045388,新規,0,2024-11-08,2024-11-08,友屋合同会社,,合同会社,東京都,中央区,銀座７丁目１５番８号タウンハイツ銀座４０６,,13,102,1040061,,,,,,,2024-11-08,1,,,,,トモヤ,0
2654,9010003045396,新規,0,2024-11-08,2024-11-08,合同会社Ｒｅ　Ａｌｔ,,合同会社,東京都,千代田区,永田町２丁目１３番１４－３２０８号,,13,101,1000014,,,,,,,2024-11-08,1,,,,,リオルト,0
2683,9010401186255,新規,0,2024-11-08,2024-11-08,株式会社セブン,,株式会社,東京都,港区,南青山４丁目２６番１６－３０７号,,13,103,1070062,,,,,,,2024-11-08,1,,,,,セブン,0
2684,9010401186263,新規,0,2024-11-08,2024-11-08,Ｓｕｓｈｉ　ＡＩ株式会社,,株式会社,東京都,港区,浜松町２丁目２番１５号浜松町ダイヤビル２Ｆ,,13,103,1050013,,,,,,,2024-11-08,1,,,,,スシエーアイ,0
2685,9010401186271,新規,0,2024-11-08,2024-11-08,ＳｔａｒＱガイア株式会社,,株式会社,東京都,港区,芝大門２丁目１２番９号,,13,103,1050012,,,,,,,2024-11-08,1,,,,,スタークガイア,0
2687,9010403033744,新規,0,2024-11-08,2024-11-08,合同会社ヨリグランツ,,合同会社,東京都,港区,三田５丁目７番８－１００３号,,13,103,1080073,,,,,,,2024-11-08,1,,,,,ヨリグランツ,0
2688,9010405023719,新規,0,2024-11-08,2024-11-08,一般社団法人エムザス,,その他の設立登記法人,東京都,港区,西麻布３丁目８番２－１７０２号,,13,103,1060031,,,,,,,2024-11-08,1,,,,,エムザス,0
2690,9010503007631,新規,0,2024-11-08,2024-11-08,Ｋ＆ＰＲＯＤＵＣＴＩＯＮ合同会社,,合同会社,東京都,台東区,元浅草１丁目６－１２－５０８,,13,106,1110041,,,,,,,2024-11-08,1,,,,,ケイアンドプロダクション,0
2696,9010601066240,新規,0,2024-11-08,2024-11-08,株式会社ＢｅｌｌＡｕｃ,,株式会社,東京都,江東区,青海２丁目７番４号ｔｈｅＳＯＨＯ４１１号室,,13,108,1350064,,,,,,,2024-11-08,1,,,,,ベルオーク,0
2700,9010701046794,新規,0,2024-11-08,2024-11-08,株式会社ミントバケーション,,株式会社,東京都,品川区,八潮５丁目１０番５５号,,13,109,1400003,,,,,,,2024-11-08,1,,,,,ミントバケーション,0
2702,9010801035540,新規,0,2024-11-08,2024-11-08,成塚建設株式会社,,株式会社,東京都,大田区,東六郷１丁目１９番５号,,13,111,1440046,,,,,,,2024-11-08,1,,,,,ナリツカケンセツ,0
2704,9010901056271,新規,0,2024-11-08,2024-11-08,株式会社ＲＩＭ,,株式会社,東京都,世田谷区,上野毛４丁目２８番７号,,13,112,1580093,,,,,,,2024-11-08,1,,,,,リム,0
2705,9010903009483,新規,0,2024-11-08,2024-11-08,合同会社Ｋ,,合同会社,東京都,世田谷区,桜１丁目６３－１６,,13,112,1560053,,,,,,,2024-11-08,1,,,,,ケー,0
2711,9011001165640,新規,0,2024-11-08,2024-11-08,株式会社Ｌｕｃｋｈａｃｋ,,株式会社,東京都,渋谷区,神宮前６丁目２３番４号桑野ビル２階,,13,113,1500001,,,,,,,2024-11-08,1,,,,,ラックハック,0
2712,9011001165707,新規,0,2024-11-08,2024-11-08,株式会社オープンフェア,,株式会社,東京都,目黒区,下目黒２丁目２０番５号ＢＯＴ７３３－Ｙ３,,13,110,1530064,,,,,,,2024-11-08,1,,,,,オープンフェア,0
2722,9011101109448,新規,0,2024-11-08,2024-11-08,パンプキン・モンスターズ株式会社,,株式会社,東京都,新宿区,下落合２丁目１３番２２号Ａ７０１号室,,13,104,1610033,,,,,,,2024-11-08,1,,,,,パンプキンモンスターズ,0
2723,9011101109480,新規,0,2024-11-08,2024-11-08,株式会社ＳＴＡＲ　ＮＥＸＴ　ＪＡＰＡＮ,,株式会社,東京都,新宿区,西新宿４丁目１３番１４号西新宿青木ビル３０２,,13,104,1600023,,,,,,,2024-11-08,1,,,,,スターネクストジャパン,0
2725,9011103015149,新規,0,2024-11-08,2024-11-08,ＬＤＰ合同会社,,合同会社,東京都,新宿区,西新宿３丁目３－１３西新宿水間ビル６階,,13,104,1600023,,,,,,,2024-11-08,1,,,,,エルディーピー,0
2726,9011103015157,新規,0,2024-11-08,2024-11-08,ビジネスイノベーション合同会社,,合同会社,東京都,新宿区,西新宿３丁目３番１３号西新宿水間ビル６階,,13,104,1600023,,,,,,,2024-11-08,1,,,,,ビジネスイノベーション,0
2730,9011303005338,新規,0,2024-11-08,2024-11-08,ＥＴＨＸ　ＳＯＦＴＣＯＮ合同会社,,合同会社,東京都,杉並区,本天沼３丁目３９番１０号,,13,115,1670031,,,,,,,2024-11-08,1,,,,,エシックスソフトコン,0
2736,9011701027792,新規,0,2024-11-08,2024-11-08,株式会社エーリオ経済研究所,,株式会社,東京都,江戸川区,西葛西５丁目７番６－３０６,,13,123,1340088,,,,,,,2024-11-08,1,,,,,エーリオケイザイケンキュウジョ,0
2741,9011801045109,新規,0,2024-11-08,2024-11-08,株式会社カンナナＧＴ,,株式会社,東京都,足立区,島根４丁目７番１５－２０４号,,13,121,1210815,,,,,,,2024-11-08,1,,,,,カンナナジーティー,0
2742,9011801045133,新規,0,2024-11-08,2024-11-08,株式会社ＶＩＳＩＯＮ,,株式会社,東京都,足立区,島根３丁目７番１４号,,13,121,1210815,,,,,,,2024-11-08,1,,,,,ヴィジョン,0
2743,9012301014149,新規,0,2024-11-08,2024-11-08,株式会社クレオ,,株式会社,東京都,町田市,原町田４丁目１１－１３天野ビル４Ｆ,,13,209,1940013,,,,,,,2024-11-08,1,,,,,クレオ,0
2744,9012403006837,新規,0,2024-11-08,2024-11-08,合同会社ＹＳ１０,,合同会社,東京都,府中市,四谷５丁目８番地の３０デュオヒルズ府中多摩川４２２,,13,206,1830035,,,,,,,2024-11-08,1,,,,,ワイエスイチゼロ,0
2745,9012801023533,新規,0,2024-11-08,2024-11-08,株式会社泰真組,,株式会社,東京都,武蔵村山市,神明４丁目７９番地の７,,13,223,2080002,,,,,,,2024-11-08,1,,,,,タイシングミ,0
2752,9020001159965,新規,0,2024-11-08,2024-11-08,株式会社健康に食べる,,株式会社,神奈川県,横浜市瀬谷区,瀬谷４丁目４３番地１,,14,114,2460031,,,,,,,2024-11-08,1,,,,,ケンコウニタベル,0
2753,9020001159973,新規,0,2024-11-08,2024-11-08,株式会社Ｃｏｎｎｅｃｔ,,株式会社,神奈川県,横浜市都筑区,高山１８番８号ＦＭマンション２０２,,14,118,2240065,,,,,,,2024-11-08,1,,,,,コネクト,0
2755,9020003027187,新規,0,2024-11-08,2024-11-08,合同会社ＯＴＡＲＵ,,合同会社,神奈川県,横浜市港北区,箕輪町２丁目７番３６－９２４号,,14,109,2230051,,,,,,,2024-11-08,1,,,,,オタル,0
2756,9020003027237,新規,0,2024-11-08,2024-11-08,ソレンジ合同会社,,合同会社,神奈川県,川崎市幸区,新川崎５番１－１５１５号,,14,132,2120032,,,,,,,2024-11-08,1,,,,,ソレンジ,0
2760,9021001083668,新規,0,2024-11-08,2024-11-08,株式会社ＡＳＧ,,株式会社,神奈川県,三浦市,初声町入江１１８番地１２,,14,210,2380113,,,,,,,2024-11-08,1,,,,,エーエスジー,0
2761,9021001083692,新規,0,2024-11-08,2024-11-08,山室電設株式会社,,株式会社,神奈川県,茅ヶ崎市,松が丘２丁目１３番３８号,,14,207,2530025,,,,,,,2024-11-08,1,,,,,ヤマムロデンセツ,0
2762,9021001083701,新規,0,2024-11-08,2024-11-08,株式会社ジェダル,,株式会社,神奈川県,相模原市中央区,清新７丁目７番１３号ＹＳメゾン１０２,,14,152,2520216,,,,,,,2024-11-08,1,,,,,ジェダル,0
2764,9021003015181,新規,0,2024-11-08,2024-11-08,合同会社ＴＣＫ,,合同会社,神奈川県,小田原市,板橋９１番地１５,,14,206,2500034,,,,,,,2024-11-08,1,,,,,ティーシーケー,0
2765,9021003015198,新規,0,2024-11-08,2024-11-08,合同会社プロネクスト,,合同会社,神奈川県,伊勢原市,高森台１丁目４番８号,,14,214,2591115,,,,,,,2024-11-08,1,,,,,プロネクスト,0
2771,9030001163297,新規,0,2024-11-08,2024-11-08,株式会社ニチスイ,,株式会社,埼玉県,さいたま市桜区,大字上大久保３８２番地１リンデンバーム２０１,,11,106,3380824,,,,,,,2024-11-08,1,,,,,ニチスイ,0
2772,9030001163314,新規,0,2024-11-08,2024-11-08,ｊ‐ｄａｓｈ株式会社,,株式会社,埼玉県,熊谷市,銀座２丁目３３番地,,11,202,3600032,,,,,,,2024-11-08,1,,,,,ジェイダッシュ,0
2777,9030003025438,新規,0,2024-11-08,2024-11-08,合同会社レインボー・アトラクションズ,,合同会社,埼玉県,北本市,北本１丁目１０７番地江利川ビル１階,,11,233,3640006,,,,,,,2024-11-08,1,,,,,レインボーアトラクションズ,0
2781,9040001136013,新規,0,2024-11-08,2024-11-08,株式会社木更津興業,,株式会社,千葉県,木更津市,祇園２丁目１６番１６号オリエックスハイム２０１,,12,206,2920052,,,,,,,2024-11-08,1,,,,,キサラヅコウギョウ,0
2782,9040001136021,新規,0,2024-11-08,2024-11-08,株式会社Ｒｅｓｔｌｅｓｓ,,株式会社,千葉県,八千代市,緑が丘４丁目２番地６,,12,221,2760049,,,,,,,2024-11-08,1,,,,,レストレス,0
2783,9040001136046,新規,0,2024-11-08,2024-11-08,株式会社リード,,株式会社,千葉県,千葉市若葉区,西都賀４丁目２番４－２号,,12,104,2640026,,,,,,,2024-11-08,1,,,,,リード,0
2784,9040001136054,新規,0,2024-11-08,2024-11-08,株式会社ＳＴＥＰウェルネスパートナー,,株式会社,千葉県,木更津市,祇園１丁目２７番１２号,00136925,12,206,2920052,,,,,,,2024-11-08,1,,,,,ステップウェルネスパートナー,0
2785,9040001136062,新規,0,2024-11-08,2024-11-08,ウエストマウンテン株式会社,,株式会社,千葉県,松戸市,紙敷１３０７番地の２,,12,207,2702221,,,,,,,2024-11-08,1,,,,,ウエストマウンテン,0
2786,9040001136079,新規,0,2024-11-08,2024-11-08,ＵＰＡＬＬＥＴ株式会社,,株式会社,千葉県,いすみ市,長志８１５番地４,,12,238,2980024,,,,,,,2024-11-08,1,,,,,ユーパレット,0
2787,9040001136087,新規,0,2024-11-08,2024-11-08,株式会社フィード千葉,,株式会社,千葉県,船橋市,湊町２丁目４番５号第五白川ビル５０１号,,12,204,2730011,,,,,,,2024-11-08,1,,,,,フィードチバ,0
2789,9040003026146,新規,0,2024-11-08,2024-11-08,Ｔｏｋｙｏ　Ｒｉｄｅｓ合同会社,,合同会社,千葉県,野田市,岩名１丁目４番地の７,,12,208,2780055,,,,,,,2024-11-08,1,,,,,トウキョウライズ,0
2790,9040003026154,新規,0,2024-11-08,2024-11-08,グロモル合同会社,,合同会社,千葉県,柏市,柏６丁目３番１７－４０２号,,12,217,2770005,,,,,,,2024-11-08,1,,,,,グロモル,0
2794,9050001055641,新規,0,2024-11-08,2024-11-08,Ｒｅホーム株式会社,,株式会社,茨城県,牛久市,南４丁目３８番地１３,,08,219,3001222,,,,,,,2024-11-08,1,,,,,リホーム,0
2795,9050001055666,新規,0,2024-11-08,2024-11-08,株式会社ＰＲＩＤＥ,,株式会社,茨城県,石岡市,石岡１丁目８番地６,,08,205,3150001,,,,,,,2024-11-08,1,,,,,プライド,0
2796,9050001055674,新規,0,2024-11-08,2024-11-08,京成電鉄茨城ホールディングス株式会社,,株式会社,茨城県,水戸市,三の丸１丁目４番７３号,,08,201,3100011,,,,,,,2024-11-08,1,,,,,ケイセイデンテツイバラキホールディングス,0
2801,9070003005642,新規,0,2024-11-08,2024-11-08,合同会社ＰｌｕｍＬａｎｄ,,合同会社,群馬県,高崎市,箕郷町上芝６１―１,,10,202,3703104,,,,,,,2024-11-08,1,,,,,プラムランド,0
2802,9070003005650,新規,0,2024-11-08,2024-11-08,Ｊ　Ｐｏｗｅｒ合同会社,,合同会社,群馬県,高崎市,貝沢町９３９番地３Ｅ’ｚＮ－ｉ号,,10,202,3700042,,,,,,,2024-11-08,1,,,,,ジェイパワー,0
2804,9080001026581,新規,0,2024-11-08,2024-11-08,株式会社ココロフィルム,,株式会社,静岡県,静岡市駿河区,池田１４５番地の３ルシェル東静岡４０５,,22,102,4228005,,,,,,,2024-11-08,1,,,,,ココロフィルム,0
2810,9100001038005,新規,0,2024-11-08,2024-11-08,株式会社パルズイン雷鳥,,株式会社,長野県,北安曇郡白馬村,大字神城２２３４２番地２４,,20,485,3999211,,,,,,,2024-11-08,1,,,,,パルズインライチョウ,0
2822,9120001270027,新規,0,2024-11-08,2024-11-08,株式会社ＹＭＳ,,株式会社,大阪府,大阪市北区,梅田１丁目２番２号大阪駅前第２ビル１２－１２,,27,127,5300001,,,,,,,2024-11-08,1,,,,,ワイエムエス,0
2823,9120001270076,新規,0,2024-11-08,2024-11-08,株式会社Ｄｉｓｃｏｖｅｒｙ　Ｋｉｄｓ,,株式会社,大阪府,大阪市北区,同心２丁目１０番２３－２０１号,,27,127,5300035,,,,,,,2024-11-08,1,,,,,ディスカバリーキッズ,0
2824,9120001270092,新規,0,2024-11-08,2024-11-08,株式会社ＫＳＮ,,株式会社,大阪府,大阪市淀川区,西三国４丁目６－４ディモア三国レジデンス１１０２,,27,123,5320006,,,,,,,2024-11-08,1,,,,,ケーエスエヌ,0
2825,9120001270101,新規,0,2024-11-08,2024-11-08,株式会社フルネクト,,株式会社,大阪府,大阪市淀川区,東三国３丁目１０番１７－Ａ９０７号,,27,123,5320002,,,,,,,2024-11-08,1,,,,,フルネクト,0
2832,9120003027929,新規,0,2024-11-08,2024-11-08,ｏｏＬｏｏ　ｆｉｌｍ合同会社,,合同会社,大阪府,大阪市中央区,島之内１丁目１１番地２４号,,27,128,5420082,,,,,,,2024-11-08,1,,,,,オールーフィルム,0
2839,9120901049982,新規,0,2024-11-08,2024-11-08,株式会社ネクストクリック,,株式会社,大阪府,吹田市,千里山東１丁目１８番４号ＦＥＲＲＡＩＩＩ番館２０６号室,00136923,27,205,5650842,,,,,,,2024-11-08,1,,,,,ネクストクリック,0
2840,9120901049999,新規,0,2024-11-08,2024-11-08,株式会社いろは,,株式会社,大阪府,吹田市,南清和園町４１番３６号,,27,205,5640038,,,,,,,2024-11-08,1,,,,,イロハ,0
2841,9120901050008,新規,0,2024-11-08,2024-11-08,株式会社ＯｆｆｉｃｅＹ,,株式会社,大阪府,高槻市,宮野町１３番３４号,,27,207,5690081,,,,,,,2024-11-08,1,,,,,オフィスワイ,0
2850,9130001078304,新規,0,2024-11-08,2024-11-08,とらふす蓄電所株式会社,,株式会社,京都府,福知山市,字堀２５９３番地,,26,201,6200000,,,,,,,2024-11-08,1,,,,,トラフスチクデンショ,0
2853,9130003009983,新規,0,2024-11-08,2024-11-08,ＡＪＷＡ　ＴＲＡＤＩＮＧ合同会社,,合同会社,京都府,京都市中京区,新シ町通蛸薬師上る上黒門町３９６番地ハイツエガワ１０３,,26,104,6048343,,,,,,,2024-11-08,1,,,,,アジュワトレーディング,0
2858,9140001136341,新規,0,2024-11-08,2024-11-08,株式会社Ｕｐｈｏｌｄ,,株式会社,兵庫県,神戸市中央区,栄町通６丁目１番１９号,,28,110,6500023,,,,,,,2024-11-08,1,,,,,アップホールド,0
2859,9140001136358,新規,0,2024-11-08,2024-11-08,株式会社Ｅｉｎ,,株式会社,兵庫県,西宮市,今津曙町２番１５号蒼天ビル１Ｆ,,28,204,6638214,,,,,,,2024-11-08,1,,,,,エイン,0
2860,9140001136366,新規,0,2024-11-08,2024-11-08,株式会社ａｉｃｏｔｏｂａオンライン,,株式会社,兵庫県,尼崎市,小中島１丁目２４番２５－２２０号,,28,202,6610972,,,,,,,2024-11-08,1,,,,,アイコトバオンライン,0
2861,9150001027655,新規,0,2024-11-08,2024-11-08,三久株式会社,,株式会社,奈良県,奈良市,下三条町３４番地更谷ビル４０３号室,,29,201,6308236,,,,,,,2024-11-08,1,,,,,サンキュウ,0
2866,9180001164009,新規,0,2024-11-08,2024-11-08,株式会社三方,,株式会社,愛知県,名古屋市守山区,桔梗平２丁目１２０１番地スカイパーク１０２号室,,23,113,4630814,,,,,,,2024-11-08,1,,,,,サンポウ,0
2867,9180001164017,新規,0,2024-11-08,2024-11-08,株式会社Ｕｌｕｒｕ,,株式会社,愛知県,名古屋市北区,紅雲町２４番地の２,,23,103,4620857,,,,,,,2024-11-08,1,,,,,ウルル,0
2868,9180001164033,新規,0,2024-11-08,2024-11-08,スカイブリス株式会社,,株式会社,愛知県,一宮市,栄１丁目１０番１２号春日井不動産ビル１号４階４０２号室,,23,203,4910858,,,,,,,2024-11-08,1,,,,,スカイブリス,0
2872,9180301039208,新規,0,2024-11-08,2024-11-08,株式会社東和キャスト刈谷,,株式会社,愛知県,刈谷市,新富町５丁目７５番地,,23,210,4480045,,,,,,,2024-11-08,1,,,,,トウワキャストカリヤ,0
2879,9190003004847,新規,0,2024-11-08,2024-11-08,合同会社野村商事,,合同会社,三重県,四日市市,広永町６４７番地２８,,24,202,5128061,,,,,,,2024-11-08,1,,,,,ノムラショウジ,0
2882,9200001043102,新規,0,2024-11-08,2024-11-08,日乃輪株式会社,,株式会社,岐阜県,各務原市,鵜沼各務原町４丁目１０番地,,21,213,5090141,,,,,,,2024-11-08,1,,,,,ヒノワ,0
2885,9200005013679,新規,0,2024-11-08,2024-11-08,一般社団法人ｃｏｌｅｕｓ,,その他の設立登記法人,岐阜県,岐阜市,粟野西６丁目１２２番地,,21,201,5020006,,,,,,,2024-11-08,1,,,,,コリウス,0
2888,9240001064061,新規,0,2024-11-08,2024-11-08,株式会社メイワサービス,,株式会社,広島県,広島市安佐北区,白木町小越３７４番地,,34,106,7391700,,,,,,,2024-11-08,1,,,,,メイワサービス,0
2894,9260001039623,新規,0,2024-11-08,2024-11-08,株式会社アティチュード,,株式会社,岡山県,倉敷市,中畝４丁目１２番２３号,,33,202,7128051,,,,,,,2024-11-08,1,,,,,アティチュード,0
2900,9290801031017,新規,0,2024-11-08,2024-11-08,株式会社ＮＩＣＯＬＡＳ　ＹＯＵ,,株式会社,福岡県,北九州市小倉北区,大畠３丁目７－１,,40,106,8020026,,,,,,,2024-11-08,1,,,,,ニコラスユー,0
2903,9310001019306,新規,0,2024-11-08,2024-11-08,株式会社早瀬海産,,株式会社,長崎県,雲仙市,小浜町富津２７６７番地,,42,213,8540516,,,,,,,2024-11-08,1,,,,,ハヤセカイサン,0
2904,9310001019314,新規,0,2024-11-08,2024-11-08,天松プログレス株式会社,,株式会社,長崎県,佐世保市,権常寺町１０８５番地２９,,42,202,8593213,,,,,,,2024-11-08,1,,,,,テンショウプログレス,0
2907,9330001032629,新規,0,2024-11-08,2024-11-08,株式会社おふく,,株式会社,熊本県,山鹿市,山鹿１８０８番地,,43,208,8610501,,,,,,,2024-11-08,1,,,,,オフク,0
2914,9370001051889,新規,0,2024-11-08,2024-11-08,すまいるほけん株式会社,,株式会社,宮城県,仙台市太白区,長町７丁目１０番７－６０２号,,04,104,9820011,,,,,,,2024-11-08,1,,,,,スマイルホケン,0
2917,9380001034892,新規,0,2024-11-08,2024-11-08,株式会社カーハート,,株式会社,福島県,石川郡古殿町,大字田口字黒長５７番地１,,07,505,9638306,,,,,,,2024-11-08,1,,,,,カーハート,0
2919,9390001017789,新規,0,2024-11-08,2024-11-08,株式会社アーネストミサワ,,株式会社,山形県,山形市,桜田南１３番４号,,06,201,9902322,,,,,,,2024-11-08,1,,,,,アーネストミサワ,0
2931,9470001020454,新規,0,2024-11-08,2024-11-08,株式会社ＬＵＣＫＹ　ＬＡＮＤ,,株式会社,香川県,坂出市,府中町５０８０番地２,,37,203,7620024,,,,,,,2024-11-08,1,,,,,,0
2934,9500001025986,新規,0,2024-11-08,2024-11-08,久保機工株式会社,,株式会社,愛媛県,喜多郡内子町,重松甲１０５番地,,38,422,7950304,,,,,,,2024-11-08,1,,,,,クボキコウ,0
2935,9700150017814,新規,0,2024-11-08,2015-10-09,埼玉県電気工事工業組合　行田支部,,その他,埼玉県,行田市,宮本１５－５,,11,206,3610072,,,,,,,2015-10-09,1,,,,,サイタマケンデンキコウジコウギヨウクミアイギヨウダシブ,0
2936,9700150127761,新規,0,2024-11-08,2024-11-08,ＰＴ．ＫＡＲＹＡ　ＳＥＭＥＳＴＡ　ＳＥＪＡＨＴＥＲＡ,,外国会社等,千葉県,八千代市,八千代台北１７丁目１５番２４,,12,221,2760031,インドネシア共和国、西ジャワ州べカシ市ジャティサンプルナ区ジャティランゴン郡ラワドラー通り８８号隣組００１・町内会００５,,,,,,2024-11-08,1,,,,,ピーテイカリヤセメスタセジヤテラ,0
