sequenceNumber,corporateNumber,process,correct,updateDate,changeDate,name,nameImageId,kind,prefectureName,cityName,streetNumber,addressImageId,prefectureCode,cityCode,postCode,addressOutside,addressOutsideImageId,closeDate,closeCause,successorCorporateNumber,changeCause,assignmentDate,latest,enName,enPrefectureName,enCityName,enAddressOutside,furigana,hihyoji
9,1010001241302,新規,0,2024-01-10,2024-01-10,株式会社ＣｒｏｓｓＶｉｓｉｏｎ,,株式会社,東京都,千代田区,九段南１丁目５番６号りそな九段ビル５ＦＫＳフロア,,13,101,1020074,,,,,,,2024-01-10,1,,,,,クロスビジョン,0
10,1010001241319,新規,0,2024-01-10,2024-01-10,株式会社アスター・イノベーション・イニシアティブ,,株式会社,東京都,文京区,湯島２丁目２２番４－１２０２号,,13,105,1130034,,,,,,,2024-01-10,1,,,,,アスターイノベーションイニシアティブ,0
11,1010001241335,新規,0,2024-01-10,2024-01-10,株式会社信豊,,株式会社,東京都,文京区,本駒込３丁目１番１－５０１号,,13,105,1130021,,,,,,,2024-01-10,1,,,,,ノブトヨ,0
14,1010003042582,新規,0,2024-01-10,2024-01-10,合同会社ＧｒａｎｄＳｈｉｆｆ,,合同会社,東京都,中央区,日本橋大伝馬町１３番地７日本橋大富ビル３階,,13,102,1030011,,,,,,,2024-01-10,1,,,,,グランシフ,0
16,1010005037688,新規,0,2024-01-10,2024-01-10,一般社団法人日本伝統文化検定協会,,その他の設立登記法人,東京都,中央区,銀座５丁目１５番８号,,13,102,1040061,,,,,,,2024-01-10,1,,,,,ニホンデントウブンカケンテイキョウカイ,0
23,1010401179588,新規,0,2024-01-10,2024-01-10,株式会社ＢｙｔＡｇｉｌｅ,,株式会社,東京都,港区,新橋４丁目３１番３号第３名和ビル１Ｆ－９Ｆ,,13,103,1050004,,,,,,,2024-01-10,1,,,,,ビートアジャイル,0
24,1010401179596,新規,0,2024-01-10,2024-01-10,株式会社Ｈｕｃｈａ,,株式会社,東京都,港区,南青山２丁目２番１５号,,13,103,1070062,,,,,,,2024-01-10,1,,,,,ヒューチャ,0
25,1010401179605,新規,0,2024-01-10,2024-01-10,ＡＧＨＬＤ株式会社,,株式会社,東京都,港区,赤坂２丁目２３番１－１００１号,,13,103,1070052,,,,,,,2024-01-10,1,,,,,エージーエイチエルディー,0
26,1010401179621,新規,0,2024-01-10,2024-01-10,株式会社ＤＩＦＹ,,株式会社,東京都,港区,南青山３丁目１番３６号青山丸竹ビル６Ｆ,,13,103,1070062,,,,,,,2024-01-10,1,,,,,ディーアイエフワイ,0
27,1010401179638,新規,0,2024-01-10,2024-01-10,Ｇｅｎｅｒａｌ　Ａｔｏｍｉｃｓ　Ｇｌｏｂａｌ　Ｊａｐａｎ株式会社,,株式会社,東京都,港区,赤坂２丁目２３－１アークヒルズフロントタワーＲｏＰ８０６号,,13,103,1070052,,,,,,,2024-01-10,1,,,,,ゼネラルアトミックスグローバルジャパン,0
31,1010403031689,新規,0,2024-01-10,2024-01-10,合同会社アーネスト,,合同会社,東京都,港区,芝大門２丁目４－１イズミビル５Ｆ,,13,103,1050012,,,,,,,2024-01-10,1,,,,,アーネスト,0
37,1010801034673,新規,0,2024-01-10,2024-01-10,株式会社リトスマーケティング,,株式会社,東京都,大田区,東糀谷５丁目１５番２５号,,13,111,1440033,,,,,,,2024-01-10,1,,,,,リトスマーケティング,0
42,1010901054480,新規,0,2024-01-10,2024-01-10,万盛源株式会社,,株式会社,東京都,世田谷区,代沢２丁目５番４号,,13,112,1550032,,,,,,,2024-01-10,1,,,,,マンセイゲン,0
44,1010903008708,新規,0,2024-01-10,2024-01-10,Ｋｉｎｇｆｉｓｈｅｒ合同会社,,合同会社,東京都,世田谷区,玉堤１丁目１２番２０－２０７号,,13,112,1580087,,,,,,,2024-01-10,1,,,,,キングフィッシャー,0
46,1011001159204,新規,0,2024-01-10,2024-01-10,株式会社Ｐｒｏｕｄ‐ｍｅ,,株式会社,東京都,渋谷区,恵比寿４丁目５番１３号,,13,113,1500013,,,,,,,2024-01-10,1,,,,,プラウドミー,0
48,1011101105693,新規,0,2024-01-10,2024-01-10,株式会社インフォスフィア,,株式会社,東京都,新宿区,新宿２丁目９－２０ライオンズマンション新宿御苑前３０１,,13,104,1600022,,,,,,,2024-01-10,1,,,,,インフォスフィア,0
49,1011101105727,新規,0,2024-01-10,2024-01-10,アンコーポレーション株式会社,,株式会社,東京都,新宿区,下落合４丁目６番１９号,,13,104,1610033,,,,,,,2024-01-10,1,,,,,アンコーポレーション,0
50,1011103013928,新規,0,2024-01-10,2024-01-10,合同会社ＨＩＫＩＤＵＳ,,合同会社,東京都,新宿区,新宿１丁目３６－２新宿第七葉山ビル３Ｆ,,13,104,1600022,,,,,,,2024-01-10,1,,,,,ヒキダス,0
51,1011103013936,新規,0,2024-01-10,2024-01-10,日本小顔矯正認定協会合同会社,,合同会社,東京都,新宿区,神楽坂４丁目５番地３ロータス神楽坂１１０１,,13,104,1620825,,,,,,,2024-01-10,1,,,,,ニホンコガオキョウセイニンテイキョウカイ,0
56,1011601027438,新規,0,2024-01-10,2024-01-10,株式会社スタートレイル,,株式会社,東京都,練馬区,富士見台３丁目６番７号,,13,120,1770034,,,,,,,2024-01-10,1,,,,,スタートレイル,0
57,1011603004195,新規,0,2024-01-10,2024-01-10,ＦＩＥＬＤ．ＭＯＵＴＨ．合同会社,,合同会社,東京都,練馬区,桜台６丁目４１－５,,13,120,1760002,,,,,,,2024-01-10,1,,,,,フィールドマウス,0
65,1012405004929,新規,0,2024-01-10,2024-01-10,一般社団法人税務会計研究協会,,その他の設立登記法人,東京都,武蔵野市,境５丁目７番１号,,13,203,1800022,,,,,,,2024-01-10,1,,,,,ゼイムカイケイケンキュウキョウカイ,0
67,1012801022889,新規,0,2024-01-10,2024-01-10,株式会社ＰＡＲＡＣＯＭ,,株式会社,東京都,国立市,東４丁目２５番８号,,13,215,1860002,,,,,,,2024-01-10,1,,,,,,0
68,1012803003276,新規,0,2024-01-10,2024-01-10,合同会社エナジャイズ,,合同会社,東京都,国分寺市,東恋ヶ窪３丁目８－２１－４０３,,13,214,1850014,,,,,,,2024-01-10,1,,,,,,0
70,1013301051882,新規,0,2024-01-10,2024-01-10,君尚株式会社,,株式会社,東京都,豊島区,西池袋１丁目３１－５白井ビル３－６号室,,13,116,1710021,,,,,,,2024-01-10,1,,,,,クンショウ,0
80,1020001155055,新規,0,2024-01-10,2024-01-10,株式会社燈,,株式会社,神奈川県,横浜市鶴見区,駒岡３丁目２番２１－６０７号,,14,101,2300071,,,,,,,2024-01-10,1,,,,,アカリ,0
81,1020001155220,新規,0,2024-01-10,2024-01-10,株式会社Ｇｒａｎｄｅ,,株式会社,神奈川県,横浜市都筑区,加賀原１丁目２８番９号,,14,118,2240055,,,,,,,2024-01-10,1,,,,,グランデ,0
86,1021001081175,新規,0,2024-01-10,2024-01-10,株式会社コマツ板金,,株式会社,神奈川県,平塚市,大神８丁目２１番２８号,,14,203,2540012,,,,,,,2024-01-10,1,,,,,コマツバンキン,0
97,1030001158008,新規,0,2024-01-10,2024-01-10,ＮｅｗＦａｒｍ株式会社,,株式会社,埼玉県,加須市,東栄２丁目２０番４５号,,11,210,3470064,,,,,,,2024-01-10,1,,,,,ニューファーム,0
98,1030001158024,新規,0,2024-01-10,2024-01-10,ＤａｒｋＣｏｖｅ株式会社,,株式会社,埼玉県,所沢市,小手指町３丁目１１－９サンアベニュー小手指１１３号室,,11,208,3591141,,,,,,,2024-01-10,1,,,,,ダークコーヴ,0
99,1030001158057,新規,0,2024-01-10,2024-01-10,株式会社Ｂ．Ｔ．ＦＡＲＭ,,株式会社,埼玉県,北本市,石戸９丁目１６７番地１,,11,233,3640024,,,,,,,2024-01-10,1,,,,,ビーティーファーム,0
100,1030001158073,新規,0,2024-01-10,2024-01-10,ビジョンパートナーＨ株式会社,,株式会社,埼玉県,所沢市,松葉町１７番４号,,11,208,3590044,,,,,,,2024-01-10,1,,,,,ビジョンパートナーエイチ,0
103,1030003023341,新規,0,2024-01-10,2024-01-10,ＢＯＵＩＬＬＯＴ合同会社,,合同会社,埼玉県,戸田市,大字新曽１５３５番地サンウェルティ３０９号室,,11,224,3350021,,,,,,,2024-01-10,1,,,,,ブヨ,0
112,1040001131640,新規,0,2024-01-10,2024-01-10,株式会社ミチスジ,,株式会社,千葉県,野田市,桜木７番地の１１,,12,208,2780028,,,,,,,2024-01-10,1,,,,,ミチスジ,0
116,1040003023951,新規,0,2024-01-10,2024-01-10,合同会社Ｒ２,,合同会社,千葉県,千葉市花見川区,こてはし台６丁目３７－１,,12,102,2620005,,,,,,,2024-01-10,1,,,,,アールツー,0
117,1040003024082,新規,0,2024-01-10,2024-01-10,合同会社みその,,合同会社,千葉県,茂原市,茂原１５１８番地７,,12,210,2970026,,,,,,,2024-01-10,1,,,,,ミソノ,0
120,1050001054064,新規,0,2024-01-10,2024-01-10,株式会社ｍａｎｏ,,株式会社,茨城県,つくば市,島名１１３７番地（香取台Ａ４４街区６）,,08,220,3002655,,,,,,,2024-01-10,1,,,,,マーノ,0
121,1050001054097,新規,0,2024-01-10,2024-01-10,グロワール・ラボ株式会社,,株式会社,茨城県,龍ケ崎市,４２６４番地１,,08,208,3010000,,,,,,,2024-01-10,1,,,,,グロワールラボ,0
122,1060001036697,新規,0,2024-01-10,2024-01-10,株式会社オフィス岳,,株式会社,栃木県,足利市,大前町２４３番地５ハイツ天神前Ｂ６,,09,202,3260845,,,,,,,2024-01-10,1,,,,,オフィスガク,0
123,1060001036706,新規,0,2024-01-10,2024-01-10,株式会社みちふむ,,株式会社,栃木県,宇都宮市,五代３丁目７番３０号,,09,201,3210135,,,,,,,2024-01-10,1,,,,,ミチフム,0
124,1070001041259,新規,0,2024-01-10,2024-01-10,株式会社土屋電業,,株式会社,群馬県,高崎市,上豊岡町９６７番地サンエアリＢ１０１号,,10,202,3700871,,,,,,,2024-01-10,1,,,,,ツチヤデンギョウ,0
127,1080101024443,新規,0,2024-01-10,2024-01-10,株式会社みよホールディングス,,株式会社,静岡県,伊豆の国市,長岡９２５番地,,22,225,4102211,,,,,,,2024-01-10,1,,,,,ミヨホールディングス,0
819,1110001038093,新規,0,2024-01-10,2024-01-10,オフィスＢＥＡコンサルティング株式会社,,株式会社,新潟県,新潟市西区,内野西が丘２丁目８番２３号,,15,107,9502157,,,,,,,2024-01-10,1,,,,,オフィスベアコンサルティング,0
825,1120001261157,新規,0,2024-01-10,2024-01-10,四夕木杉株式会社,,株式会社,大阪府,大阪市大正区,三軒家西３丁目４番１６号中山ビル４０５Ｂ,,27,108,5510001,,,,,,,2024-01-10,1,,,,,シユウキサン,0
826,1120001261207,新規,0,2024-01-10,2024-01-10,Ｋ　ＢＵＩＬＤ株式会社,,株式会社,大阪府,枚方市,磯島南町８番１５－１０１号,,27,210,5731186,,,,,,,2024-01-10,1,,,,,ケービルド,0
831,1120101068840,新規,0,2024-01-10,2024-01-10,夢工業株式会社,,株式会社,大阪府,高石市,加茂４丁目１１番１８号,,27,225,5920011,,,,,,,2024-01-10,1,,,,,ユメコウギョウ,0
832,1120101068849,新規,0,2024-01-10,2024-01-10,株式会社クリーンアイテム,,株式会社,大阪府,和泉市,光明台２丁目３４番１１号,,27,219,5941111,,,,,,,2024-01-10,1,,,,,クリーンアイテム,0
833,1120103005610,新規,0,2024-01-10,2024-01-10,合同会社しののめ,,合同会社,大阪府,河内長野市,美加の台７丁目３２番１１号,,27,216,5860044,,,,,,,2024-01-10,1,,,,,シノノメ,0
834,1120103005619,新規,0,2024-01-10,2024-01-10,公共建築サービス合同会社,,合同会社,大阪府,堺市北区,東三国ヶ丘町１丁１番４－１１２号,,27,146,5918046,,,,,,,2024-01-10,1,,,,,コウキョウケンチクサービス,0
838,1130001076018,新規,0,2024-01-10,2024-01-10,株式会社吉誠社,,株式会社,京都府,京都市北区,紫野門前町２９番地,,26,101,6038216,,,,,,,2024-01-10,1,,,,,キッセイシャ,0
839,1130001076083,新規,0,2024-01-10,2024-01-10,株式会社Ｒａｐｐｏｒｔ,,株式会社,京都府,京都市中京区,壬生坊城町５３番地６壬生坊城ビル２－３,,26,104,6048804,,,,,,,2024-01-10,1,,,,,ラポール,0
840,1130001076091,新規,0,2024-01-10,2024-01-10,株式会社新井土木,,株式会社,京都府,宮津市,字須津２３番地の７１,,26,205,6292251,,,,,,,2024-01-10,1,,,,,アライドボク,0
850,1140001132892,新規,0,2024-01-10,2024-01-10,株式会社エステートひまわり,,株式会社,兵庫県,西宮市,生瀬東町１５番２０号,,28,204,6691103,,,,,,,2024-01-10,1,,,,,エステートヒマワリ,0
851,1140001132926,新規,0,2024-01-10,2024-01-10,株式会社Ｓｏｕｔｈ　Ｎｉｎｅ,,株式会社,兵庫県,姫路市,琴岡町２６６番地２３船場ラボビル１階,,28,201,6700035,,,,,,,2024-01-10,1,,,,,サウスナイン,0
852,1140001132934,新規,0,2024-01-10,2024-01-10,株式会社瑞耕社,,株式会社,兵庫県,三木市,細川町中里１６２６番地の２,,28,215,6730702,,,,,,,2024-01-10,1,,,,,ズイコウシャ,0
856,1140003020014,新規,0,2024-01-10,2024-01-10,クレア合同会社,,合同会社,兵庫県,神戸市東灘区,深江南町１丁目２番１０－９０９号,,28,101,6580022,,,,,,,2024-01-10,1,,,,,クレア,0
857,1140003020022,新規,0,2024-01-10,2024-01-10,合同会社中秀,,合同会社,兵庫県,洲本市,由良１丁目１番８号,,28,205,6562541,,,,,,,2024-01-10,1,,,,,ナカヒデ,0
861,1160001025616,新規,0,2024-01-10,2024-01-10,株式会社平樂メディカル,,株式会社,滋賀県,草津市,野路町３０１０－１０３,,25,206,5250055,,,,,,,2024-01-10,1,,,,,ヘイラクメディカル,0
863,1170001017959,新規,0,2024-01-10,2024-01-10,株式会社南大建設,,株式会社,和歌山県,和歌山市,北１８番地２,,30,201,6496334,,,,,,,2024-01-10,1,,,,,ナンダイケンセツ,0
864,1180001159619,新規,0,2024-01-10,2024-01-10,レーザーセーフジャパン株式会社,,株式会社,愛知県,小牧市,篠岡１丁目２０番地８,,23,219,4850815,,,,,,,2024-01-10,1,,,,,レーザーセーフジャパン,0
865,1180001159643,新規,0,2024-01-10,2024-01-10,株式会社ＥＭＩ,,株式会社,愛知県,名古屋市昭和区,五軒家町１２番地の４ライオンズマンション石川橋１－１１号,,23,107,4660838,,,,,,,2024-01-10,1,,,,,イーエムアイ,0
866,1180001159651,新規,0,2024-01-10,2024-01-10,株式会社ＬＡＮＴＡＮ,,株式会社,愛知県,春日井市,八田町１丁目１３番地４,,23,206,4860849,,,,,,,2024-01-10,1,,,,,ランタン,0
867,1180001159684,新規,0,2024-01-10,2024-01-10,株式会社ＴＷＳ,,株式会社,愛知県,名古屋市中区,丸の内２丁目７番１７号,,23,106,4600002,,,,,,,2024-01-10,1,,,,,ティーダブルエス,0
868,1180001159692,新規,0,2024-01-10,2024-01-10,株式会社小川建設,,株式会社,愛知県,春日井市,大手町１１１９番地ラカーサコンテンタ２０３号,,23,206,4860807,,,,,,,2024-01-10,1,,,,,オガワケンセツ,0
872,1180003026197,新規,0,2024-01-10,2024-01-10,合同会社サンクリプト,,合同会社,愛知県,名古屋市中区,錦２丁目７番７号,,23,106,4600003,,,,,,,2024-01-10,1,,,,,サンクリプト,0
876,1180301038200,新規,0,2024-01-10,2024-01-10,株式会社Ｓｔｅａｄｙ．,,株式会社,愛知県,豊川市,若鳩町９番地,,23,207,4420065,,,,,,,2024-01-10,1,,,,,ステディ,0
879,1190001031000,新規,0,2024-01-10,2024-01-10,株式会社Ｏ,,株式会社,三重県,伊勢市,上地町７８５番地１,,24,203,5160051,,,,,,,2024-01-10,1,,,,,オー,0
880,1190001031009,新規,0,2024-01-10,2024-01-10,株式会社じゅうない,,株式会社,三重県,鳥羽市,安楽島町８５８番地４,,24,211,5170021,,,,,,,2024-01-10,1,,,,,ジュウナイ,0
883,1200001042053,新規,0,2024-01-10,2024-01-10,株式会社Ｍ‐Ｒｅｖｅ,,株式会社,岐阜県,大垣市,東前２丁目３１－３,,21,202,5030835,,,,,,,2024-01-10,1,,,,,エムレーヴ,0
895,1240001062626,新規,0,2024-01-10,2024-01-10,株式会社ＲＩＪＯＴｅｃ,,株式会社,広島県,広島市東区,中山上２丁目２２番５号,,34,102,7320027,,,,,,,2024-01-10,1,,,,,リジョテック,0
896,1240001062642,新規,0,2024-01-10,2024-01-10,エアストテック株式会社,,株式会社,広島県,東広島市,福富町久芳１３６９－１,,34,212,7392303,,,,,,,2024-01-10,1,,,,,エアストテック,0
900,1240005015695,新規,0,2024-01-10,2024-01-10,社会福祉法人恵仁会,,その他の設立登記法人,広島県,庄原市,東城町川東１５２番地４,,34,210,7295121,,,,,,,2024-01-10,1,,,,,ケイジンカイ,0
902,1250001020459,新規,0,2024-01-10,2024-01-10,株式会社Ｄ．,,株式会社,山口県,下関市,宝町８番３１号,,35,201,7510822,,,,,,,2024-01-10,1,,,,,ディドット,0
903,1250001020467,新規,0,2024-01-10,2024-01-10,株式会社守龍,,株式会社,山口県,山口市,維新公園１丁目１２番２８号,,35,203,7530815,,,,,,,2024-01-10,1,,,,,モリタツ,0
907,1260003004541,新規,0,2024-01-10,2024-01-10,合同会社Ｒｅｔｒｅａｔ,,合同会社,岡山県,和気郡和気町,福富６１３番地９ウタカビル１Ｆ,,33,346,7090442,,,,,,,2024-01-10,1,,,,,リトリート,0
912,1280005007581,新規,0,2024-01-10,2024-01-10,弁護士法人アジュール法律事務所,,その他の設立登記法人,島根県,松江市,母衣町９５番地,,32,201,6900886,,,,,,,2024-01-10,1,,,,,アジュールホウリツジムショ,0
925,1290001104282,新規,0,2024-01-10,2024-01-10,株式会社リブラオフィスサポート,,株式会社,福岡県,福岡市中央区,薬院２丁目５番３号,,40,133,8100022,,,,,,,2024-01-10,1,,,,,リブラオフィスサポート,0
936,1290801030190,新規,0,2024-01-10,2024-01-10,株式会社ライフ・エイト,,株式会社,福岡県,北九州市小倉南区,沼緑町３丁目７番６号,,40,107,8000207,,,,,,,2024-01-10,1,,,,,ライフエイト,0
937,1290801030199,新規,0,2024-01-10,2024-01-10,株式会社ディライト,,株式会社,福岡県,北九州市八幡西区,京良城町１４番２２号,,40,109,8060061,,,,,,,2024-01-10,1,,,,,ディライト,0
939,1290803004580,新規,0,2024-01-10,2024-01-10,合同会社隆翔,,合同会社,福岡県,北九州市門司区,北川町３番８号,,40,101,8000004,,,,,,,2024-01-10,1,,,,,リュウショウ,0
940,1300005007174,新規,0,2024-01-10,2024-01-10,税理士法人白川会計,,その他の設立登記法人,佐賀県,鹿島市,大字高津原７５０番地,,41,207,8491311,,,,,,,2024-01-10,1,,,,,シラカワカイケイ,0
941,1310001018785,新規,0,2024-01-10,2024-01-10,株式会社ｓｋ　ｓｔｙｌｅ,,株式会社,長崎県,大村市,宮代町４７５番地１,,42,205,8560015,,,,,,,2024-01-10,1,,,,,エスケースタイル,0
942,1310001018793,新規,0,2024-01-10,2024-01-10,株式会社富士電機商会,,株式会社,長崎県,大村市,今津町３３１番地１,,42,205,8560818,,,,,,,2024-01-10,1,,,,,フジデンキショウカイ,0
951,1350003004540,新規,0,2024-01-10,2024-01-10,合同会社アオシマアップサイト,,合同会社,宮崎県,宮崎市,青島３丁目７番７号,,45,201,8892162,,,,,,,2024-01-10,1,,,,,アオシマアップサイト,0
957,1410003003874,新規,0,2024-01-10,2024-01-10,高橋農産合同会社,00133257,合同会社,秋田県,仙北郡美郷町,南町字上島田４番地,,05,434,0191231,,,,,,,2024-01-10,1,,,,,タカハシノウサン,0
961,1430001090839,新規,0,2024-01-10,2024-01-10,株式会社ＲＩＺ　ＨＯＫＫＡＩＤＯ,,株式会社,北海道,札幌市白石区,栄通１９丁目４番３号,,01,104,0030021,,,,,,,2024-01-10,1,,,,,リズホッカイドウ,0
970,1480003002069,新規,0,2024-01-10,2024-01-10,合同会社イロドリ,,合同会社,徳島県,徳島市,丈六町長尾５３番３４,,36,201,7714262,,,,,,,2024-01-10,1,,,,,イロドリ,0
973,1700150108587,新規,0,2024-01-10,2022-05-10,Ｔｈｅａｔｅｒ　Ｖｉｋｉｎｇ,,その他,東京都,豊島区,西巣鴨４丁目１４番１５号カーサ秀１階,,13,116,1700001,,,,,,,2022-05-10,1,,,,,シアターバイキング,0
974,1700150112192,新規,0,2024-01-10,2024-01-10,ＱＩＮＧＤＡＯ　ＢＵＸＩＮＧＺＨＥ　ＹＵＮＤＯＮＧ　ＹＯＮＧＰＩＮ　ＹＯＵＸＩＡＮＧＯＮＧＳＩ,,外国会社等,,,,,,,,ＴＩＥＱＩＳＨＡＮＬＵ　ＹＵ　ＴＩＡＮＦＥＮＧＢＥＩＬＵ　ＪＩＡＯＫＯＵ　ＤＯＮＧ５００ＭＩ，ＣＨＥＮＧＹＡＮＧＱＵ　ＸＩＡＺＨＵＡＮＧＪＩＥＤＡＯ，ＱＩＮＧＤＡＯＳＨＩ，ＳＨＡＮＤＯＮＧＳＨＥＮＧ,,,,,,2024-01-10,1,,,,,チンタオブーシンチャユンドンヨンピンヨウシエンゴンス,0
975,1700150123264,新規,0,2024-01-10,2024-01-10,ＨＡＮＧＺＨＯＵ　ＳＵＮＹＡ　ＴＲＡＤＥ　ＬＩＭＩＴＥＤ,,外国会社等,,,,,,,,ＲＯＯＭ　１８０５，ＢＵＩＬＤＩＮＧ　１，ＹＵＮＪＩ　ＩＮＮＯＶＡＴＩＯＮ　ＣＥＮＴＥＲ　ＣＨＡＮＧＨＥ，ＢＩＮＧＪＩＡＮＧ　ＨＡＮＧＺＨＯＵ　ＺＨＥＪＩＡＮＧ　３１００５１　ＣＮ,,,,,,2024-01-10,1,,,,,ハーンジョウシュンヤーンマオイーヨウシエンゴーンスー,0
976,1700150123272,新規,0,2024-01-10,2024-01-10,ｓｈａｎｇｈａｉｑｕａｎｘｉａｎｗａｎｇｌｕｏｋｅｊｉｙｏｕｘｉａｎｇｏｎｇｓｉ,,外国会社等,,,,,,,,ｓｕｚｈａｏｌｕ１６２８ｈａｏ　ｍｉｎｈａｎｇｑｕ　ｓｈａｎｇｈａｉｓｈｉ　２０１１１４　ＣＮ,,,,,,2024-01-10,1,,,,,シャンハイチュエンシエンワンルオコージーヨウシエンゴンスー,0
983,2010001241342,新規,0,2024-01-10,2024-01-10,エピック株式会社,,株式会社,東京都,中央区,銀座１丁目１２番４号Ｎ＆ＥＢＬＤ６階,,13,102,1040061,,,,,,,2024-01-10,1,,,,,エピック,0
984,2010001241350,新規,0,2024-01-10,2024-01-10,株式会社メディカルサポート,,株式会社,東京都,中央区,銀座１丁目８番７号,,13,102,1040061,,,,,,,2024-01-10,1,,,,,メディカルサポート,0
988,2010003042607,新規,0,2024-01-10,2024-01-10,合同会社ミルプラス,,合同会社,東京都,文京区,水道１丁目２番１０号フォリアージュ７１９,,13,105,1120005,,,,,,,2024-01-10,1,,,,,ミルプラス,0
989,2010003042615,新規,0,2024-01-10,2024-01-10,合同会社ＦＭＳ,,合同会社,東京都,中央区,月島１丁目２２番１－１４０４号ミッドタワーグランド,,13,102,1040052,,,,,,,2024-01-10,1,,,,,エフエムエス,0
1000,2010401179579,新規,0,2024-01-10,2024-01-10,株式会社ｎｏｔｒｅ,,株式会社,東京都,港区,芝５丁目２７－３ＭＢＣＡ－７号,,13,103,1080014,,,,,,,2024-01-10,1,,,,,ノートル,0
1001,2010401179612,新規,0,2024-01-10,2024-01-10,ＨＵＡＦＯＮ　ＪＡＰＡＮ株式会社,,株式会社,東京都,港区,赤坂１丁目１１番４４号赤坂インターシティ５階Ｍａｚａｒｓ・Ｊａｐａｎ株式会社内,,13,103,1070052,,,,,,,2024-01-10,1,,,,,フアフォンジャパン,0
1002,2010403031688,新規,0,2024-01-10,2024-01-10,合同会社ジーシーティー・ホールディングス,,合同会社,東京都,港区,六本木６丁目１０番１号六本木ヒルズ森タワー,,13,103,1060032,,,,,,,2024-01-10,1,,,,,ジーシーティーホールディングス,0
1005,2010501051596,新規,0,2024-01-10,2024-01-10,株式会社ジャルレ,,株式会社,東京都,台東区,雷門２丁目９番２－１０１号,,13,106,1110034,,,,,,,2024-01-10,1,,,,,ジャルレ,0
1006,2010501051605,新規,0,2024-01-10,2024-01-10,株式会社リッチミネラル,,株式会社,東京都,台東区,浅草橋１丁目３０番９－９０６号,,13,106,1110053,,,,,,,2024-01-10,1,,,,,リッチミネラル,0
1009,2010605004277,新規,0,2024-01-10,2024-01-10,一般社団法人江東ＣＩＧビジョン推進協会,,その他の設立登記法人,東京都,江東区,亀戸１丁目５－１２,,13,108,1360071,,,,,,,2024-01-10,1,,,,,コウトウシーアイジービジョンスイシンキョウカイ,0
1014,2010801034648,新規,0,2024-01-10,2024-01-10,株式会社ＯＤＩＳＨＩ,,株式会社,東京都,大田区,西蒲田７丁目１５番７号,,13,111,1440051,,,,,,,2024-01-10,1,,,,,オリッシー,0
1015,2010801034672,新規,0,2024-01-10,2024-01-10,株式会社渡辺,,株式会社,東京都,大田区,千鳥３丁目１５番１６号ＶＩＬＬＡ千鳥１０１,,13,111,1460083,,,,,,,2024-01-10,1,,,,,ワタナベ,0
1027,2011001159153,新規,0,2024-01-10,2024-01-10,迅卓株式会社,,株式会社,東京都,渋谷区,代々木１丁目３０番１５号天翔代々木ビル４階Ｓ４０２－Ｉ号室,00133260,13,113,1510053,,,,,,,2024-01-10,1,,,,,ジンタク,0
1028,2011001159161,新規,0,2024-01-10,2024-01-10,株式会社ヒラエスムーン,,株式会社,東京都,渋谷区,渋谷３丁目１－９ＹＡＺＡＷＡビル３階,,13,113,1500002,,,,,,,2024-01-10,1,,,,,ヒラエスムーン,0
1029,2011001159260,新規,0,2024-01-10,2024-01-10,ストプラ株式会社,,株式会社,東京都,渋谷区,円山町６番７号,,13,113,1500044,,,,,,,2024-01-10,1,,,,,ストプラ,0
1038,2011101105734,新規,0,2024-01-10,2024-01-10,キューイーエイ・テック・ジャパン株式会社,,株式会社,東京都,新宿区,若葉１丁目８番地４－２４,,13,104,1600011,,,,,,,2024-01-10,1,,,,,キューイーエイテックジャパン,0
1039,2011101105742,新規,0,2024-01-10,2024-01-10,株式会社ＳＯＮＩＣ,,株式会社,東京都,新宿区,四谷２丁目２－１８ＶＯＲＴ四谷１１階,,13,104,1600004,,,,,,,2024-01-10,1,,,,,ソニック,0
1040,2011101105750,新規,0,2024-01-10,2024-01-10,いろはな株式会社,,株式会社,東京都,新宿区,西新宿３丁目３番１３号西新宿水間ビル６階,,13,104,1600023,,,,,,,2024-01-10,1,,,,,イロハナ,0
1041,2011103013927,新規,0,2024-01-10,2024-01-10,合同会社オルフレ,,合同会社,東京都,新宿区,新宿１丁目３６番２号新宿第七葉山ビル３Ｆ,,13,104,1600022,,,,,,,2024-01-10,1,,,,,オルフレ,0
1042,2011103013935,新規,0,2024-01-10,2024-01-10,合同会社ＴＦＩコンサルティング,,合同会社,東京都,新宿区,四谷４丁目１番地小島ビル４０１,,13,104,1600004,,,,,,,2024-01-10,1,,,,,ティーエフアイコンサルティング,0
1044,2011305002950,新規,0,2024-01-10,2024-01-10,一般社団法人フリーランス支援組合,,その他の設立登記法人,東京都,杉並区,下高井戸５丁目１０番２号アルカイックｂｆ１０１,,13,115,1680073,,,,,,,2024-01-10,1,,,,,フリーランスシエンクミアイ,0
1046,2011401025756,新規,0,2024-01-10,2024-01-10,株式会社サカドモ,,株式会社,東京都,板橋区,大山町１０－５ロイヤルフォーレスト大山１０７号室,,13,119,1730023,,,,,,,2024-01-10,1,,,,,サカドモ,0
1048,2011603004194,新規,0,2024-01-10,2024-01-10,合同会社シーエフジー,,合同会社,東京都,練馬区,貫井１丁目２番１号中村橋サンパレス２０１,,13,120,1760021,,,,,,,2024-01-10,1,,,,,シーエフジー,0
1051,2011801043606,新規,0,2024-01-10,2024-01-10,株式会社Ｂ．ｗｉｎｇｓ,,株式会社,東京都,葛飾区,高砂７丁目１２番８号,,13,122,1250054,,,,,,,2024-01-10,1,,,,,ビーウィングス,0
1052,2011801043622,新規,0,2024-01-10,2024-01-10,ＬＰ株式会社,,株式会社,東京都,足立区,綾瀬２丁目１４番１１号,,13,121,1200005,,,,,,,2024-01-10,1,,,,,エルピー,0
1054,2011803006024,新規,0,2024-01-10,2024-01-10,ＮＥＰＰＵ　ＳＯＦＴ合同会社,,合同会社,東京都,葛飾区,西新小岩３丁目１３番４号エステートピアフタワ２０２,,13,122,1240025,,,,,,,2024-01-10,1,,,,,ネップソフト,0
1061,2012405004928,新規,0,2024-01-10,2024-01-10,一般社団法人エンジョイユアワーク,,その他の設立登記法人,東京都,三鷹市,野崎３丁目３番１４号１０１,,13,204,1810014,,,,,,,2024-01-10,1,,,,,エンジョイユアワーク,0
1062,2012701018020,新規,0,2024-01-10,2024-01-10,株式会社百舌鳥商会,,株式会社,東京都,小平市,小川町１丁目４７２番地の４,,13,211,1870032,,,,,,,2024-01-10,1,,,,,モズショウカイ,0
1071,2020001155203,新規,0,2024-01-10,2024-01-10,株式会社リーズンホームソリューションズ,,株式会社,神奈川県,横浜市旭区,鶴ケ峰本町２丁目１３番１０号,,14,112,2410021,,,,,,,2024-01-10,1,,,,,リーズンホームソリューションズ,0
1072,2020001155228,新規,0,2024-01-10,2024-01-10,株式会社ＧＯＬＤＥＮＢＥＡＭ,,株式会社,神奈川県,横浜市港北区,新横浜３丁目１７番地１２アルファスペース新横浜ビステーション新横浜内３１０,,14,109,2220033,,,,,,,2024-01-10,1,,,,,ゴールデンビーム,0
1074,2020003025305,新規,0,2024-01-10,2024-01-10,合同会社碌一,,合同会社,神奈川県,横浜市都筑区,東山田３丁目３３番１４号,,14,118,2240023,,,,,,,2024-01-10,1,,,,,ロクイチ,0
1076,2021001081174,新規,0,2024-01-10,2024-01-10,株式会社Ｌｉｔｔｌｅ　ｂｅａｒ,,株式会社,神奈川県,相模原市中央区,横山台１丁目２０番２－４号,,14,152,2520241,,,,,,,2024-01-10,1,,,,,リトルベアー,0
1078,2030001157941,新規,0,2024-01-10,2024-01-10,株式会社エイシン,,株式会社,埼玉県,新座市,道場２丁目１８番１６号,,11,230,3520024,,,,,,,2024-01-10,1,,,,,エイシン,0
1079,2030001158031,新規,0,2024-01-10,2024-01-10,株式会社Ｃｏｎｎｅｃｔ,,株式会社,埼玉県,所沢市,北野１丁目１０番地の１,,11,208,3591152,,,,,,,2024-01-10,1,,,,,コネクト,0
1080,2030001158048,新規,0,2024-01-10,2024-01-10,ティ・アンド・エム研究所株式会社,,株式会社,埼玉県,さいたま市北区,別所町１００番地９,,11,102,3310821,,,,,,,2024-01-10,1,,,,,ティアンドエムケンキュウショ,0
1081,2030001158056,新規,0,2024-01-10,2024-01-10,株式会社ＡＣＡＣ,,株式会社,埼玉県,草加市,瀬崎２丁目２４番８号,,11,221,3400022,,,,,,,2024-01-10,1,,,,,エーシーエーシー,0
1082,2030001158072,新規,0,2024-01-10,2024-01-10,株式会社ライズ,,株式会社,埼玉県,さいたま市大宮区,桜木町２丁目３番地大宮マルイ７階,,11,103,3300854,,,,,,,2024-01-10,1,,,,,ライズ,0
1090,2040001131689,新規,0,2024-01-10,2024-01-10,株式会社Ｍ＆Ａ,,株式会社,千葉県,柏市,千代田１丁目１１番１－２０２号,,12,217,2770025,,,,,,,2024-01-10,1,,,,,,0
1097,2040003024057,新規,0,2024-01-10,2024-01-10,合同会社Ｙａｍａｎｏｉ,,合同会社,千葉県,富里市,高松２８６番地１７,,12,233,2860213,,,,,,,2024-01-10,1,,,,,ヤマノイ,0
1098,2040003024073,新規,0,2024-01-10,2024-01-10,合同会社オフィスａｎＫ,,合同会社,千葉県,浦安市,美浜１丁目６番６０３号,,12,227,2790011,,,,,,,2024-01-10,1,,,,,オフィスアンク,0
1102,2060001036696,新規,0,2024-01-10,2024-01-10,株式会社杉山ファーム,,株式会社,栃木県,塩谷郡塩谷町,大字肘内５９８番地,,09,384,3292333,,,,,,,2024-01-10,1,,,,,スギヤマファーム,0
1104,2060003004866,新規,0,2024-01-10,2024-01-10,Ａｋｍａ　Ｔｒａｄｉｎｇ合同会社,,合同会社,栃木県,小山市,駅東通り１丁目１０番１０号経友会メゾン２０２号,,09,208,3230022,,,,,,,2024-01-10,1,,,,,アクマトレーディング,0
1105,2070001041258,新規,0,2024-01-10,2024-01-10,株式会社ＮＡＬＵ,,株式会社,群馬県,前橋市,粕川町深津１０１１番地,,10,201,3710215,,,,,,,2024-01-10,1,,,,,ナル,0
1106,2070003005228,新規,0,2024-01-10,2024-01-10,合同会社楓,,合同会社,群馬県,北群馬郡吉岡町,大字漆原５９９番地,,10,345,3703601,,,,,,,2024-01-10,1,,,,,カエデ,0
1111,2080101024450,新規,0,2024-01-10,2024-01-10,株式会社Ｃｌｏｖｅｒ　Ｇｒｏｕｐ,,株式会社,静岡県,熱海市,銀座町２番１２号,,22,205,4130013,,,,,,,2024-01-10,1,,,,,クローバーグループ,0
1112,2080103002958,新規,0,2024-01-10,2024-01-10,合同会社ケミカルシード,,合同会社,静岡県,伊豆の国市,田京７２０番地の３,,22,225,4102315,,,,,,,2024-01-10,1,,,,,ケミカルシード,0
1791,2100003007328,新規,0,2024-01-10,2024-01-10,合同会社ＦＲＩＧＡ＆ＩＣＨＩＧＯ,,合同会社,長野県,飯田市,毛賀３０１番地１,,20,205,3950813,,,,,,,2024-01-10,1,,,,,フリガアンドイチゴ,0
1800,2120001261156,新規,0,2024-01-10,2024-01-10,株式会社弘成,,株式会社,大阪府,大阪市東成区,東中本３丁目１４番５号,,27,115,5370021,,,,,,,2024-01-10,1,,,,,コウセイ,0
1807,2120101068848,新規,0,2024-01-10,2024-01-10,株式会社リウッド,,株式会社,大阪府,岸和田市,岸城町４番９号,,27,202,5960073,,,,,,,2024-01-10,1,,,,,リウッド,0
1808,2120103005618,新規,0,2024-01-10,2024-01-10,ゆとり生活合同会社,,合同会社,大阪府,堺市南区,晴美台１丁３４番２４号,,27,145,5900113,,,,,,,2024-01-10,1,,,,,ユトリセイカツ,0
1816,2130001076090,新規,0,2024-01-10,2024-01-10,吉田土建株式会社,,株式会社,京都府,舞鶴市,字上福井５８１番地,,26,202,6240951,,,,,,,2024-01-10,1,,,,,ヨシダドケン,0
1821,2140001132925,新規,0,2024-01-10,2024-01-10,株式会社ＹＳｍａｎａｇｅｍｅｎｔ,,株式会社,兵庫県,尼崎市,西長洲町１丁目３番２０号,,28,202,6600805,,,,,,,2024-01-10,1,,,,,ワイエスマネジメント,0
1822,2140001132941,新規,0,2024-01-10,2024-01-10,美雅株式会社,,株式会社,兵庫県,川西市,向陽台１丁目３番地６３号,,28,217,6660115,,,,,,,2024-01-10,1,,,,,メイヤ,0
1826,2140003020021,新規,0,2024-01-10,2024-01-10,合同会社信丸,,合同会社,兵庫県,洲本市,由良町由良２６７８番地３９,,28,205,6562543,,,,,,,2024-01-10,1,,,,,ノブマル,0
1828,2140005026891,新規,0,2024-01-10,2024-01-10,一般社団法人るみえる,,その他の設立登記法人,兵庫県,姫路市,四郷町坂元１８２番地６,,28,201,6710246,,,,,,,2024-01-10,1,,,,,ルミエル,0
1829,2150001026985,新規,0,2024-01-10,2024-01-10,株式会社ソア,,株式会社,奈良県,生駒郡安堵町,大字西安堵３４番地の５０,,29,345,6391066,,,,,,,2024-01-10,1,,,,,ソア,0
1839,2180001159642,新規,0,2024-01-10,2024-01-10,明盛商事株式会社,,株式会社,愛知県,海部郡蟹江町,学戸６丁目２４８番地,,23,425,4970050,,,,,,,2024-01-10,1,,,,,メイセイショウジ,0
1840,2180001159675,新規,0,2024-01-10,2024-01-10,丸弘サービス株式会社,,株式会社,愛知県,一宮市,三条字道東８５番地３３,,23,203,4940003,,,,,,,2024-01-10,1,,,,,マルヒロサービス,0
1845,2180003026196,新規,0,2024-01-10,2024-01-10,合同会社アセット,,合同会社,愛知県,名古屋市名東区,植園町３丁目６７番地の１,,23,115,4650077,,,,,,,2024-01-10,1,,,,,アセット,0
1848,2180301038199,新規,0,2024-01-10,2024-01-10,株式会社ＡＷＥＳＯＭＥ　ＲＯＹＡＬ,,株式会社,愛知県,豊橋市,新栄町字一本木４１番地エルディム新栄Ａ－２０６,,23,201,4418016,,,,,,,2024-01-10,1,,,,,オーサムロイヤル,0
1850,2190001031008,新規,0,2024-01-10,2024-01-10,株式会社畑中設備,,株式会社,三重県,伊賀市,阿保１３６番地の２,,24,216,5180226,,,,,,,2024-01-10,1,,,,,ハタナカセツビ,0
1851,2200001042044,新規,0,2024-01-10,2024-01-10,株式会社ｓａｉ　ｗｏｒｋｓ,,株式会社,岐阜県,下呂市,萩原町四美２２５４番地３,,21,220,5092502,,,,,,,2024-01-10,1,,,,,サイワークス,0
1853,2210001019594,新規,0,2024-01-10,2024-01-10,株式会社ヘイワ繊維,,株式会社,福井県,福井市,四ツ井２丁目１番３１号,,18,201,9100846,,,,,,,2024-01-10,1,,,,,ヘイワセンイ,0
1858,2220001025765,新規,0,2024-01-10,2024-01-10,株式会社ｃｈａｉｇｈｔ,,株式会社,石川県,金沢市,古府２丁目１２６番地１０２号,,17,201,9200362,,,,,,,2024-01-10,1,,,,,シェイト,0
1865,2240001062625,新規,0,2024-01-10,2024-01-10,株式会社サラチカ,,株式会社,広島県,安芸高田市,吉田町中馬７３番地１,,34,214,7310525,,,,,,,2024-01-10,1,,,,,サラチカ,0
1873,2250003003411,新規,0,2024-01-10,2024-01-10,星羽合同会社,,合同会社,山口県,宇部市,厚南北２丁目２０番１７号,,35,202,7590209,,,,,,,2024-01-10,1,,,,,セイハ,0
1875,2260001038631,新規,0,2024-01-10,2024-01-10,株式会社Ｒｉｐｐｌｅ,,株式会社,岡山県,備前市,伊部１９０番地４,,33,211,7050001,,,,,,,2024-01-10,1,,,,,リップル,0
1878,2280001009093,新規,0,2024-01-10,2024-01-10,株式会社佐々木牧場,,株式会社,島根県,浜田市,弥栄町長安本郷１６７番地,,32,202,6971211,,,,,,,2024-01-10,1,,,,,ササキボクジョウ,0
1889,2290001104232,新規,0,2024-01-10,2024-01-10,尚帝実業株式会社,,株式会社,福岡県,福岡市中央区,赤坂２丁目２番９－６０５号,,40,133,8100042,,,,,,,2024-01-10,1,,,,,ショウテイジツギョウ,0
1890,2290001104265,新規,0,2024-01-10,2024-01-10,株式会社ｆｏｒＴＵＮＥ,,株式会社,福岡県,福岡市中央区,天神２丁目６番３２号ジェムキャッスルサザン通りビル地下１階,,40,133,8100001,,,,,,,2024-01-10,1,,,,,フォーチューン,0
1891,2290001104307,新規,0,2024-01-10,2024-01-10,株式会社Ｗｉｓｔｅｌｅ,,株式会社,福岡県,筑後市,大字野町６８５－２,,40,211,8330032,,,,,,,2024-01-10,1,,,,,,0
1892,2290001104323,新規,0,2024-01-10,2024-01-10,株式会社ｒｅｓｕｌｔ,,株式会社,福岡県,福岡市中央区,天神４丁目６－２８天神ファーストビル７階,,40,133,8100001,,,,,,,2024-01-10,1,,,,,リザルト,0
1893,2290001104331,新規,0,2024-01-10,2024-01-10,株式会社エフ・サポート・プラスアルファ,,株式会社,福岡県,福岡市早良区,西新１丁目１１番２７－２０７号,,40,137,8140002,,,,,,,2024-01-10,1,,,,,エフサポートプラスアルファ,0
1896,2290003014818,新規,0,2024-01-10,2024-01-10,合同会社Ｂｅｎｙ,,合同会社,福岡県,久留米市,合川町１２３７番地１１,,40,203,8390861,,,,,,,2024-01-10,1,,,,,ベニー,0
1897,2290003014834,新規,0,2024-01-10,2024-01-10,合同会社ＷＡＫＥ　ＵＰ,,合同会社,福岡県,福岡市中央区,天神２丁目２番１２号Ｔ＆Ｊビルディング７Ｆ,,40,133,8100001,,,,,,,2024-01-10,1,,,,,ウェイクアップ,0
1898,2290801030198,新規,0,2024-01-10,2024-01-10,株式会社想舎,,株式会社,福岡県,北九州市若松区,高須北１丁目９番９号,,40,103,8080147,,,,,,,2024-01-10,1,,,,,オモヤ,0
1901,2320001020228,新規,0,2024-01-10,2024-01-10,株式会社満月,,株式会社,大分県,由布市,挾間町高崎２６２番地１,,44,213,8795513,,,,,,,2024-01-10,1,,,,,マンゲツ,0
1902,2320005010126,新規,0,2024-01-10,2024-01-10,税理士法人橋本会計,,その他の設立登記法人,大分県,大分市,東津留１丁目５番２５号,,44,201,8700934,,,,,,,2024-01-10,1,,,,,ハシモトカイケイ,0
1909,2340001026207,新規,0,2024-01-10,2024-01-10,グリフ株式会社,,株式会社,鹿児島県,熊毛郡屋久島町,麦生３１３番地３０,,46,505,8914402,,,,,,,2024-01-10,1,,,,,グリフ,0
1917,2360003013572,新規,0,2024-01-10,2024-01-10,合同会社ｉｓｔａｍａｒｕ,,合同会社,沖縄県,石垣市,字新川２２９３番地カンセイホーム西５Ａ号,,47,207,9070024,,,,,,,2024-01-10,1,,,,,イスタマール,0
1929,2410001013684,新規,0,2024-01-10,2024-01-10,セレクトハウス株式会社,,株式会社,秋田県,秋田市,飯島川端２丁目５番７号,,05,201,0110912,,,,,,,2024-01-10,1,,,,,セレクトハウス,0
1936,2430001090796,新規,0,2024-01-10,2024-01-10,株式会社Ｍｉｎａｍｉｙａ　Ｆａｃｔｏｒｙ,,株式会社,北海道,札幌市豊平区,月寒東三条１６丁目１６番８号,,01,105,0620053,,,,,,,2024-01-10,1,,,,,ミナミヤファクトリー,0
1938,2430003015818,新規,0,2024-01-10,2024-01-10,合同会社おやこみらい,,合同会社,北海道,札幌市北区,北二十一条西４丁目２番１１号,,01,102,0010021,,,,,,,2024-01-10,1,,,,,オヤコミライ,0
1939,2440001009374,新規,0,2024-01-10,2024-01-10,株式会社ティビ,,株式会社,北海道,函館市,日吉町４丁目９番２７号,,01,202,0410841,,,,,,,2024-01-10,1,,,,,ティビ,0
1944,2480003002068,新規,0,2024-01-10,2024-01-10,ナインサポート合同会社,,合同会社,徳島県,徳島市,春日２丁目５番４３号,,36,201,7700002,,,,,,,2024-01-10,1,,,,,ナインサポート,0
1952,2700150115038,新規,0,2024-01-10,2024-01-10,Ｗｅａｓｅｌｌｅｒ　ｉｎｃ．,,外国会社等,,,,,,,,３５８５　Ｓ　Ｖｅｒｍｏｎｔ　Ａｖｅ，＃７３６７，Ｌｏｓ　Ａｎｇｅｌｅｓ，ＣＡ，９０００７，ＵＳ,,,,,,2024-01-10,1,,,,,ウィスラーインク,0
1953,2700150115269,新規,0,2024-01-10,2024-01-10,ｓｈｅｎｚｈｅｎｓｈｉｚｏｎｇｊｉａｎｇｋｅｊｉｙｏｕｘｉａｎｇｏｎｇｓｉ,,外国会社等,,,,,,,,ｙｕｅｈａｉｊｉｅｄａｏ　ｂｉｎｈａｉｓｈｅｑｕ　ｇａｏｘｉｎｎａｎｓｈｉｄａｏ６３ｈａｏ，ｇａｏｘｉｎｑｕ　ｌｉａｎｈｅｚｏｎｇｂｕ　ｄａｓｈａ２６ｃｅｎｇ，ｓｈｅｎｚｈｅｎｓｈｉ，ｇｕａｎｇｄｏｎｇｓｈｅｎｇ　ｎａｎｓｈａｎｑｕ，ＣＮ　５１８０６３,,,,,,2024-01-10,1,,,,,シェンジェンシゾンジャンカージヨウシェンゴーンス,0
1954,2700150123263,新規,0,2024-01-10,2024-01-10,Ｆｏ　ｓｈａｎ　ｓｈｉ　ｘｉｎｇ　ｙｅ　ｋｅ　ｊｉ　ｙｏｕ　ｘｉａｎ　ｇｏｎｇ　ｓｉ,,外国会社等,,,,,,,,ｎａｎｈａｉｑｕｄａｎｚａｏｚｈｅｎｄａｗｏｇｕｆｅｎｈｅｚｕｏｊｉｎｇｊｉｌｉａｎｈｅｓｈｅ　ｄａｎｈｅｎｇｌｕｘｉｄｉｄｕａｎｗｅｎｇｙｉｂｉｎｃｈｅｎｊｉａｎｅｒｌｏｕ２０７ｓｈｉ　ｆｏｓｈａｎ　Ｇｕａｎｇｄｏｎｇ　５２８２１６　ＣＮ,,,,,,2024-01-10,1,,,,,フォーシャンシーシーンイエコーァジーヨウシエンゴーンスー,0
1955,2700150123271,新規,0,2024-01-10,2024-01-10,Ｃｈａｎｇｓｈａ　Ｌｉｎｇｍａｉ　Ｄｉａｎｚｉ　Ｓｈａｎｇｗｕ　Ｙｏｕｘｉａｎｚｅｒｅｎｇｏｎｇｓｉ,,外国会社等,,,,,,,,Ｙｕｅｌｕｑｕ　ｙｉｎｐｅｎｌｉｎｇｊｉｅｄａｏ　ｙｕｅｌｕｄａｄａｏ　１５８ｈａｏ　ｓｈｅｎｇｄａｚｅｘｉｃｈｅｎｇ５　１０１２，１０１３ｆａｎｇ　Ｃｈａｎｇｓｈａ　Ｈｕｎａｎ　４１７６００　ＣＮ,,,,,,2024-01-10,1,,,,,ジャンシャーリンマイディエンズーシャンウーヨウシエンゾーレンゴンスー,0
1963,3010001241242,新規,0,2024-01-10,2024-01-10,株式会社カネタカ,,株式会社,東京都,文京区,大塚５丁目４１番５号,,13,105,1120012,,,,,,,2024-01-10,1,,,,,カネタカ,0
1964,3010001241333,新規,0,2024-01-10,2024-01-10,株式会社Ｆｌｏｗｅｒ　Ｇｏｌｄ　Ｓｙｓｔｅｍｓ,,株式会社,東京都,中央区,日本橋室町１丁目１１番１２号日本橋水野ビル７階,,13,102,1030022,,,,,,,2024-01-10,1,,,,,フラワーゴールドシステムズ,0
1965,3010001241358,新規,0,2024-01-10,2024-01-10,株式会社創成堂,,株式会社,東京都,千代田区,有楽町１丁目５番２号・東宝日比谷プロムナードビル１１階,,13,101,1000006,,,,,,,2024-01-10,1,,,,,ソーセイドー,0
1969,3010003042597,新規,0,2024-01-10,2024-01-10,合同会社アカザワラボ,,合同会社,東京都,千代田区,西神田３丁目５番３－３０１０号,,13,101,1010065,,,,,,,2024-01-10,1,,,,,アカザワラボ,0
1971,3010005037711,新規,0,2024-01-10,2024-01-10,弁理士法人大場国際特許事務所,,その他の設立登記法人,東京都,千代田区,岩本町１丁目４番３号ＫＭビル８階,,13,101,1010032,,,,,,,2024-01-10,1,,,,,オオバコクサイトッキョジムショ,0
1977,3010401179611,新規,0,2024-01-10,2024-01-10,株式会社お菓子のおうち,,株式会社,東京都,港区,北青山１丁目３番１号アールキューブ青山３階,,13,103,1070061,,,,,,,2024-01-10,1,,,,,オカシノオウチ,0
1980,3010403031695,新規,0,2024-01-10,2024-01-10,ＴｅｃＡｌｌｉａｎｃｅ　Ｊａｐａｎ合同会社,,合同会社,東京都,港区,港南２丁目１５番１号品川インターシティＡ棟２８階,,13,103,1080075,,,,,,,2024-01-10,1,,,,,テックアライアンスジャパン,0
1982,3010601064415,新規,0,2024-01-10,2024-01-10,株式会社メニーフラワー,,株式会社,東京都,墨田区,東向島５丁目２１番１５号,,13,107,1310032,,,,,,,2024-01-10,1,,,,,メニーフラワー,0
1983,3010601064448,新規,0,2024-01-10,2024-01-10,株式会社トラスト,,株式会社,東京都,江東区,南砂１丁目５－３０－１４０９,,13,108,1360076,,,,,,,2024-01-10,1,,,,,トラスト,0
1991,3010701045372,新規,0,2024-01-10,2024-01-10,株式会社メトロミュージック,,株式会社,東京都,品川区,旗の台６丁目１５番２０号カーサ旗の台１０１,,13,109,1420064,,,,,,,2024-01-10,1,,,,,メトロミュージック,0
1996,3010805003086,新規,0,2024-01-10,2024-01-10,一般社団法人ライフデザイン研究所,,その他の設立登記法人,東京都,大田区,久が原３丁目１７番６号,,13,111,1460085,,,,,,,2024-01-10,1,,,,,ライフデザインケンキュウジョ,0
1997,3010901054487,新規,0,2024-01-10,2024-01-10,株式会社ハカリ,,株式会社,東京都,世田谷区,弦巻１丁目２６番１号プロパーケビー２０３,,13,112,1540016,,,,,,,2024-01-10,1,,,,,ハカリ,0
1998,3010901054495,新規,0,2024-01-10,2024-01-10,株式会社益田エステート,,株式会社,東京都,世田谷区,羽根木２丁目２７番２４号,,13,112,1560042,,,,,,,2024-01-10,1,,,,,マスダエステート,0
1999,3010901054504,新規,0,2024-01-10,2024-01-10,株式会社ＪＥＴ,,株式会社,東京都,世田谷区,船橋６丁目９番４号,,13,112,1560055,,,,,,,2024-01-10,1,,,,,ジェット,0
2010,3011003018224,新規,0,2024-01-10,2024-01-10,Ｙ＆Ｙ合同会社,,合同会社,東京都,渋谷区,富ヶ谷２丁目３０－７,,13,113,1510063,,,,,,,2024-01-10,1,,,,,ワイアンドワイ,0
2015,3011101105717,新規,0,2024-01-10,2024-01-10,株式会社ＳＳＳ,,株式会社,東京都,新宿区,歌舞伎町２丁目４１番１２号,,13,104,1600021,,,,,,,2024-01-10,1,,,,,トリプルエス,0
2016,3011101105725,新規,0,2024-01-10,2024-01-10,ピー＆ピー株式会社,,株式会社,東京都,新宿区,住吉町８番１３－２０２号,,13,104,1620065,,,,,,,2024-01-10,1,,,,,ピーアンドピー,0
2017,3011101105733,新規,0,2024-01-10,2024-01-10,株式会社あっぱれ,,株式会社,東京都,新宿区,西新宿３丁目３番１３号西新宿水間ビル６階,,13,104,1600023,,,,,,,2024-01-10,1,,,,,アッパレ,0
2018,3011101105741,新規,0,2024-01-10,2024-01-10,株式会社ＳＤスタート,,株式会社,東京都,新宿区,新宿５丁目１８番２０号ルックハイツ新宿８０３号,,13,104,1600022,,,,,,,2024-01-10,1,,,,,エスディースタート,0
2019,3011103013934,新規,0,2024-01-10,2024-01-10,合同会社ＶＥＮＵＳ,,合同会社,東京都,新宿区,西新宿３丁目３番１３号西新宿水間ビル６階,,13,104,1600023,,,,,,,2024-01-10,1,,,,,ビーナス,0
2026,3011501030168,新規,0,2024-01-10,2024-01-10,山水田商事株式会社,,株式会社,東京都,北区,王子５丁目３０番１－３１６号,,13,117,1140002,,,,,,,2024-01-10,1,,,,,,0
2029,3011701026908,新規,0,2024-01-10,2024-01-10,株式会社ＰＹインターナショナル,,株式会社,東京都,江戸川区,平井１丁目５－６,,13,123,1320035,,,,,,,2024-01-10,1,,,,,ピーワイインターナショナル,0
2030,3011701026916,新規,0,2024-01-10,2024-01-10,株式会社ウィズ,,株式会社,東京都,江戸川区,一之江８丁目７番１２－２０２号,,13,123,1320024,,,,,,,2024-01-10,1,,,,,ウィズ,0
2031,3011801043605,新規,0,2024-01-10,2024-01-10,株式会社花かつみ,,株式会社,東京都,足立区,保木間２丁目１５－１５,,13,121,1210064,,,,,,,2024-01-10,1,,,,,ハナカツミ,0
2032,3011801043621,新規,0,2024-01-10,2024-01-10,株式会社Ｒｅｐｌａｙ,,株式会社,東京都,足立区,千住仲町３７番４号,,13,121,1200036,,,,,,,2024-01-10,1,,,,,リプレイ,0
2035,3012401041387,新規,0,2024-01-10,2024-01-10,株式会社クリードコンサルティング,,株式会社,東京都,府中市,若松町３丁目１４番地の２６,,13,206,1830005,,,,,,,2024-01-10,1,,,,,クリードコンサルティング,0
2036,3012405004927,新規,0,2024-01-10,2024-01-10,一般社団法人日中エンターテインメント経済推進協議会,,その他の設立登記法人,東京都,調布市,小島町１丁目１１番地３アルテール調布５０７,,13,208,1820026,,,,,,,2024-01-10,1,,,,,ニッチュウエンターテインメントケイザイスイシンキョウギカイ,0
2039,3013303006949,新規,0,2024-01-10,2024-01-10,合同会社アンティ,,合同会社,東京都,豊島区,目白２丁目２０－２７,,13,116,1710031,,,,,,,2024-01-10,1,,,,,アンティ,0
2040,3013303006957,新規,0,2024-01-10,2024-01-10,合同会社ｕｎｄｅｆｉｎｅｄ,,合同会社,東京都,豊島区,南大塚３丁目３６－７南大塚Ｔ＆Ｔビル６Ｆ,,13,116,1700005,,,,,,,2024-01-10,1,,,,,アンデファインド,0
2045,3020001155136,新規,0,2024-01-10,2024-01-10,株式会社元希,,株式会社,神奈川県,横浜市保土ケ谷区,西谷４丁目６番２３号,,14,106,2400054,,,,,,,2024-01-10,1,,,,,ゲンキ,0
2046,3020001155202,新規,0,2024-01-10,2024-01-10,株式会社夢であえたら,,株式会社,神奈川県,横浜市港北区,綱島西４丁目２番２０－２０９号,,14,109,2230053,,,,,,,2024-01-10,1,,,,,ユメデアエタラ,0
2047,3020001155210,新規,0,2024-01-10,2024-01-10,株式会社ラ・ヴィラ,,株式会社,神奈川県,横浜市港北区,鳥山町２９２番地の８,,14,109,2220035,,,,,,,2024-01-10,1,,,,,ラヴィラ,0
2048,3020001155235,新規,0,2024-01-10,2024-01-10,Ｃｏｎｓｉｄｅ‐Ｒａｔｉｏｎ株式会社,,株式会社,神奈川県,川崎市中原区,下小田中１丁目１９番１７号,,14,133,2110041,,,,,,,2024-01-10,1,,,,,コンシデレーション,0
2051,3020003025304,新規,0,2024-01-10,2024-01-10,合同会社Ｔカンパニー,,合同会社,神奈川県,川崎市中原区,木月３丁目２５番１２号エクサハイツ元住吉２０３,,14,133,2110025,,,,,,,2024-01-10,1,,,,,ティーカンパニー,0
2052,3020003025312,新規,0,2024-01-10,2024-01-10,合同会社日本カナウエ,,合同会社,神奈川県,横浜市南区,中村町２丁目１１７番地２,,14,105,2320033,,,,,,,2024-01-10,1,,,,,ニホンカナウエ,0
2053,3020003025329,新規,0,2024-01-10,2024-01-10,合同会社アクア,,合同会社,神奈川県,横浜市中区,花咲町１丁目４９番地,,14,104,2310063,,,,,,,2024-01-10,1,,,,,アクア,0
2060,3030001158039,新規,0,2024-01-10,2024-01-10,ＴＧＳ販売株式会社,,株式会社,埼玉県,加須市,中央２丁目４番４号,,11,210,3470055,,,,,,,2024-01-10,1,,,,,ティージーエスハンバイ,0
2061,3030001158071,新規,0,2024-01-10,2024-01-10,株式会社山清商事,,株式会社,埼玉県,深谷市,岡部１２０５番地２,,11,218,3690211,,,,,,,2024-01-10,1,,,,,ヤマセイショウジ,0
2069,3040001131630,新規,0,2024-01-10,2024-01-10,創日通株式会社,,株式会社,千葉県,我孫子市,布佐平和台１丁目１ウィングマンションＤ６１２室,,12,222,2701108,,,,,,,2024-01-10,1,,,,,ソウニッツウ,0
2070,3040001131655,新規,0,2024-01-10,2024-01-10,株式会社Ｃ’ｓシステム,,株式会社,千葉県,八街市,八街ろ８７番地１７２,,12,230,2891144,,,,,,,2024-01-10,1,,,,,シーズシステム,0
2071,3040001131696,新規,0,2024-01-10,2024-01-10,株式会社モビック,,株式会社,千葉県,千葉市花見川区,畑町９２７番地３,,12,102,2620018,,,,,,,2024-01-10,1,,,,,モビック,0
2075,3040003023974,新規,0,2024-01-10,2024-01-10,合同会社ＹＰＮ,,合同会社,千葉県,松戸市,六実１丁目１２－３フェニックスＣ２０１,,12,207,2702204,,,,,,,2024-01-10,1,,,,,ワイピーエヌ,0
2076,3040003024056,新規,0,2024-01-10,2024-01-10,Ｍａｒｕｍａｎｂａｓｈｉ　Ｃｏｎｓｕｌｔｉｎｇ合同会社,,合同会社,千葉県,鴨川市,東町１１９０番地,,12,223,2960041,,,,,,,2024-01-10,1,,,,,マルマンバシコンサルティング,0
2077,3050001054095,新規,0,2024-01-10,2024-01-10,株式会社茨進準備会社,,株式会社,茨城県,土浦市,川口１丁目１０番５号,,08,203,3000033,,,,,,,2024-01-10,1,,,,,イバシンジュンビガイシャ,0
2078,3060001036704,新規,0,2024-01-10,2024-01-10,株式会社Ｗｉｎｇ工業,,株式会社,栃木県,大田原市,桧木沢８８０番地,,09,210,3240245,,,,,,,2024-01-10,1,,,,,ウィングコウギョウ,0
2079,3060001036712,新規,0,2024-01-10,2024-01-10,株式会社アールオー,,株式会社,栃木県,足利市,丸山町６９１番地１１,,09,202,3260057,,,,,,,2024-01-10,1,,,,,アールオー,0
2080,3070001041257,新規,0,2024-01-10,2024-01-10,株式会社輝,,株式会社,群馬県,みどり市,笠懸町鹿４０３８番地３,,10,212,3792313,,,,,,,2024-01-10,1,,,,,カガヤキ,0
2081,3070001041265,新規,0,2024-01-10,2024-01-10,株式会社輪,,株式会社,群馬県,高崎市,飯塚町４３５番地４,,10,202,3700069,,,,,,,2024-01-10,1,,,,,リン,0
2083,3070003005219,新規,0,2024-01-10,2024-01-10,合同会社ダーナ,,合同会社,群馬県,高崎市,中尾町８３８番地６,,10,202,3700001,,,,,,,2024-01-10,1,,,,,ダーナ,0
2768,3100001037111,新規,0,2024-01-10,2024-01-10,株式会社ＬＩＦＥ　ＳＴＯＲＹ,,株式会社,長野県,佐久市,岩村田１８１３番地,,20,217,3850022,,,,,,,2024-01-10,1,,,,,ライフストーリー,0
2769,3100003007335,新規,0,2024-01-10,2024-01-10,合同会社龍盛,,合同会社,長野県,安曇野市,穂高４５１番地１,,20,220,3998303,,,,,,,2024-01-10,1,,,,,リュウセイ,0
2780,3120001261031,新規,0,2024-01-10,2024-01-10,蓮花株式会社,,株式会社,大阪府,大阪市西成区,天下茶屋３丁目２４番２２号サンライズ天下茶屋２０８,,27,122,5570014,,,,,,,2024-01-10,1,,,,,レンカ,0
2781,3120001261205,新規,0,2024-01-10,2024-01-10,大同株式会社,,株式会社,大阪府,大阪市此花区,西九条１丁目４番１２号,,27,104,5540012,,,,,,,2024-01-10,1,,,,,ダイドウ,0
2782,3120001261279,新規,0,2024-01-10,2024-01-10,瀬戸テック工業株式会社,,株式会社,大阪府,大阪市阿倍野区,王子町３丁目４－１４,,27,119,5450023,,,,,,,2024-01-10,1,,,,,セトテックコウギョウ,0
2785,3120005024079,新規,0,2024-01-10,2024-01-10,一般社団法人大阪市北区訪問介護,,その他の設立登記法人,大阪府,大阪市北区,池田町３番２１－２００８号,,27,127,5300033,,,,,,,2024-01-10,1,,,,,オオサカシキタクホウモンカイゴ,0
2786,3120005024087,新規,0,2024-01-10,2024-01-10,一般社団法人丸善会,,その他の設立登記法人,大阪府,寝屋川市,香里北之町１５番２,,27,215,5720080,,,,,,,2024-01-10,1,,,,,マルゼンカイ,0
2787,3120103005617,新規,0,2024-01-10,2024-01-10,合同会社スキナ,,合同会社,大阪府,和泉市,伯太町６丁目１０番２０－２１２号,,27,219,5940023,,,,,,,2024-01-10,1,,,,,スキナ,0
2789,3120903004990,新規,0,2024-01-10,2024-01-10,ホームトラスト合同会社,,合同会社,大阪府,茨木市,玉瀬町３２番１号,,27,211,5670893,,,,,,,2024-01-10,1,,,,,ホームトラスト,0
2791,3122001037709,新規,0,2024-01-10,2024-01-10,株式会社ウェルネスエコーサービス,,株式会社,大阪府,柏原市,石川町４番１５号,,27,221,5820029,,,,,,,2024-01-10,1,,,,,ウェルネスエコーサービス,0
2792,3122001037717,新規,0,2024-01-10,2024-01-10,株式会社ＡＫＡＲＩＹＡ,,株式会社,大阪府,東大阪市,横小路町５丁目３番４１号,,27,227,5798063,,,,,,,2024-01-10,1,,,,,アカリヤ,0
2795,3130001076081,新規,0,2024-01-10,2024-01-10,株式会社ケイシン工業,,株式会社,京都府,八幡市,戸津南小路３３番地,,26,210,6148201,,,,,,,2024-01-10,1,,,,,ケイシンコウギョウ,0
2796,3130001076115,新規,0,2024-01-10,2024-01-10,株式会社ＩＳＯＧＡＩ　ＭＡＧＮＥＴ　ＬＡＢＯＲＡＴＯＲＹ,,株式会社,京都府,亀岡市,篠町王子唐櫃越１番地８８,,26,206,6210827,,,,,,,2024-01-10,1,,,,,イソガイマグネットラボラトリー,0
2803,3140001132924,新規,0,2024-01-10,2024-01-10,太伸管財株式会社,,株式会社,兵庫県,神戸市中央区,栄町通３丁目２番２号和栄ビル３号館２Ｆ,,28,110,6500023,,,,,,,2024-01-10,1,,,,,タイシンカンザイ,0
2804,3140001132932,新規,0,2024-01-10,2024-01-10,日輝プロダクション株式会社,,株式会社,兵庫県,神戸市中央区,海岸通２丁目２番３号サンエービル４Ｆ,,28,110,6500024,,,,,,,2024-01-10,1,,,,,ニッキプロダクション,0
2808,3140003019979,新規,0,2024-01-10,2024-01-10,合同会社プロティクス,,合同会社,兵庫県,西宮市,今津曙町４番１２号,,28,204,6638214,,,,,,,2024-01-10,1,,,,,プロティクス,0
2809,3140003020020,新規,0,2024-01-10,2024-01-10,武福合同会社,,合同会社,兵庫県,南あわじ市,広田中筋３８７番地１０,,28,224,6560131,,,,,,,2024-01-10,1,,,,,タケフク,0
2813,3160001025614,新規,0,2024-01-10,2024-01-10,株式会社コニシ,,株式会社,滋賀県,大津市,螢谷４番５１－４０４号,,25,201,5200853,,,,,,,2024-01-10,1,,,,,コニシ,0
2821,3180001159633,新規,0,2024-01-10,2024-01-10,Ａ．Ｓ．株式会社,,株式会社,愛知県,津島市,莪原町字椋木５７番地,,23,208,4960011,,,,,,,2024-01-10,1,,,,,エードットエスドット,0
2822,3180001159641,新規,0,2024-01-10,2024-01-10,株式会社あさひ技建,,株式会社,愛知県,稲沢市,下津小井戸１丁目３番６号,,23,220,4928093,,,,,,,2024-01-10,1,,,,,アサヒギケン,0
2823,3180001159666,新規,0,2024-01-10,2024-01-10,株式会社ＳＡＩＬＩＮＧ　ＷＯＮＤＥＲ,,株式会社,愛知県,名古屋市中区,丸の内３丁目２０番１７号,,23,106,4600002,,,,,,,2024-01-10,1,,,,,セーリングワンダー,0
2824,3180001159690,新規,0,2024-01-10,2024-01-10,株式会社渡辺シーリング,,株式会社,愛知県,名古屋市西区,比良３丁目２６０番地の１,,23,104,4520802,,,,,,,2024-01-10,1,,,,,ワタナベシーリング,0
2825,3180001159716,新規,0,2024-01-10,2024-01-10,株式会社かんな,,株式会社,愛知県,日進市,折戸町枯木２１番地２９エスポア日進１４０４,,23,230,4700115,,,,,,,2024-01-10,1,,,,,カンナ,0
2829,3180003026187,新規,0,2024-01-10,2024-01-10,ググプロ合同会社,,合同会社,愛知県,春日井市,知多町１丁目１９－１－１０３,,23,206,4860947,,,,,,,2024-01-10,1,,,,,ググプロ,0
2830,3180003026195,新規,0,2024-01-10,2024-01-10,合同会社南水産,,合同会社,愛知県,名古屋市中村区,名駅４丁目２１番６号,,23,105,4500002,,,,,,,2024-01-10,1,,,,,ミナミスイサン,0
2840,3190001030999,新規,0,2024-01-10,2024-01-10,株式会社ＥＭＩＮＧ,,株式会社,三重県,度会郡南伊勢町,内瀬１０４３番地,,24,472,5160111,,,,,,,2024-01-10,1,,,,,エミング,0
2841,3190001031007,新規,0,2024-01-10,2024-01-10,株式会社Ｃｏｃｏｒｏ,,株式会社,三重県,鈴鹿市,算所町１２６４番地１,,24,207,5130805,,,,,,,2024-01-10,1,,,,,ココロ,0
2844,3200001042043,新規,0,2024-01-10,2024-01-10,株式会社Ｍ．Ｄ．Ｓ,,株式会社,岐阜県,可児市,土田３９８７番地,,21,214,5090206,,,,,,,2024-01-10,1,,,,,エムディーエス,0
2849,3210001019593,新規,0,2024-01-10,2024-01-10,株式会社雅,,株式会社,福井県,福井市,若杉浜２丁目３２４番地２,,18,201,9188056,,,,,,,2024-01-10,1,,,,,ミヤビ,0
2852,3220001025764,新規,0,2024-01-10,2024-01-10,株式会社五幸鳥,,株式会社,石川県,白山市,北安田西１丁目２１０番地,,17,210,9240039,,,,,,,2024-01-10,1,,,,,ゴコウドリ,0
2858,3250001020465,新規,0,2024-01-10,2024-01-10,株式会社Ｋテクノ,,株式会社,山口県,下松市,生野屋３丁目１番３２号,,35,207,7440031,,,,,,,2024-01-10,1,,,,,ケイテクノ,0
2862,3260001038639,新規,0,2024-01-10,2024-01-10,Ｐ’ｓ　Ｗｅｌｌｎｅｓｓ株式会社,,株式会社,岡山県,倉敷市,新田２４９８番地１ドミール新田２０２号,,33,202,7100038,,,,,,,2024-01-10,1,,,,,ピーズウェルネス,0
2865,3280003001799,新規,0,2024-01-10,2024-01-10,合同会社Ｍｕｔ,,合同会社,島根県,安来市,月坂町３６１番地１,,32,206,6920013,,,,,,,2024-01-10,1,,,,,ムート,0
2871,3290001104264,新規,0,2024-01-10,2024-01-10,株式会社ＦＬＥＸ,,株式会社,福岡県,福岡市早良区,大字西１０５５番地７,,40,137,8111131,,,,,,,2024-01-10,1,,,,,フレックス,0
2872,3290001104272,新規,0,2024-01-10,2024-01-10,株式会社ＰＥＧＡＳＵＳ,,株式会社,福岡県,筑紫野市,大字筑紫９３８番地４３,,40,217,8180025,,,,,,,2024-01-10,1,,,,,ペガサス,0
2873,3290001104322,新規,0,2024-01-10,2024-01-10,くらら株式会社,,株式会社,福岡県,春日市,岡本１丁目８番地２カケルプラス３０５号,,40,218,8160861,,,,,,,2024-01-10,1,,,,,クララ,0
2877,3290801030197,新規,0,2024-01-10,2024-01-10,株式会社ｓｏｒａ‐ｉｒｏ,,株式会社,福岡県,田川郡川崎町,大字川崎８７７番地５,,40,605,8270003,,,,,,,2024-01-10,1,,,,,ソライロ,0
2879,3300001013579,新規,0,2024-01-10,2024-01-10,株式会社ＳＳ　Ｃｏｍｐａｎｙ,,株式会社,佐賀県,佐賀市,白山２丁目６番３６号,,41,201,8400826,,,,,,,2024-01-10,1,,,,,エスエスカンパニー,0
2880,3300001013587,新規,0,2024-01-10,2024-01-10,株式会社リンド,,株式会社,佐賀県,佐賀市,松原２丁目１１番１０号－３０２,,41,201,8400831,,,,,,,2024-01-10,1,,,,,リンド,0
2883,3310001018800,新規,0,2024-01-10,2024-01-10,株式会社ノジマ工業,,株式会社,長崎県,島原市,柏野町２８２１番地,,42,203,8550064,,,,,,,2024-01-10,1,,,,,ノジマコウギョウ,0
2886,3330001031628,新規,0,2024-01-10,2024-01-10,株式会社ＬＡＺＯ,,株式会社,熊本県,熊本市中央区,九品寺２丁目８番１９－４０４号,,43,101,8620976,,,,,,,2024-01-10,1,,,,,ラソ,0
2890,3350001018739,新規,0,2024-01-10,2024-01-10,株式会社ｔｅｎｋｕｕ,,株式会社,宮崎県,宮崎市,大字島之内７８１７番地１,,45,201,8800121,,,,,,,2024-01-10,1,,,,,テンクー,0
2897,3370003006442,新規,0,2024-01-10,2024-01-10,ＴＯＴＯＮＯＵ合同会社,,合同会社,宮城県,仙台市太白区,向山２丁目２－１０－７０２,,04,104,9820841,,,,,,,2024-01-10,1,,,,,トトノウ,0
2904,3400001016514,新規,0,2024-01-10,2024-01-10,株式会社ＦＵＮ,,株式会社,岩手県,一関市,幸町６番４号,,03,209,0210024,,,,,,,2024-01-10,1,,,,,ファン,0
2906,3410001013683,新規,0,2024-01-10,2024-01-10,株式会社ななくらファーム,,株式会社,秋田県,能代市,二ツ井町麻生字下悪戸１０番地３,,05,202,0183101,,,,,,,2024-01-10,1,,,,,ナナクラファーム,0
2909,3430001090804,新規,0,2024-01-10,2024-01-10,株式会社アウェアネスパートナーズ,,株式会社,北海道,札幌市中央区,円山西町１丁目７番１６号,,01,101,0640944,,,,,,,2024-01-10,1,,,,,アウェアネスパートナーズ,0
2911,3430003015841,新規,0,2024-01-10,2024-01-10,合同会社Ｔｈｒｏｕｇｈ　Ｓｅｖｅｎ　Ｓｅａｓ,,合同会社,北海道,札幌市豊平区,中の島一条９丁目７番１７号グランクラッセ中の島２０２号,,01,105,0620921,,,,,,,2024-01-10,1,,,,,スルーセブンシーズ,0
2922,3490003001852,新規,0,2024-01-10,2024-01-10,合同会社みらい整骨院,,合同会社,高知県,高知市,万々３３９番地,,39,201,7800973,,,,,,,2024-01-10,1,,,,,ミライセイコツイン,0
2924,3700150112240,新規,0,2024-01-10,2024-01-10,Ｍｉｓｂｌｕｅ　ＨＫ　Ｌｉｍｉｔｅｄ,,外国会社等,,,,,,,,１１／Ｆ　ＬＥＥ　ＫＡ　ＩＮＤ　ＢＬＤＧ　８，ＲＭ　３２，ＮＧ　ＦＯＮＧ　ＳＴ　ＳＡＮ　ＰＯ　ＫＯＮＧ，ＫＬ，９９９０７７，ＨＫ,,,,,,2024-01-10,1,,,,,ミスブルーエイチケーリミテッド,0
2925,3700150113718,新規,0,2024-01-10,2024-01-10,Ｃｌｅｖｏ　Ｉｎｎｏｖａｔｉｏｎ　ＩＮＣ,,外国会社等,,,,,,,,２０６０　Ｎ　ＣＯＬＬＩＮＳ　ＢＬＶＤ　ＳＴＥ　１１０　ＲＩＣＨＡＲＤＳＯＮ　ＴＸ，Ｕｎｉｔｅｄ　Ｓｔａｔｅｓ　７５０８０－２６５７,,,,,,2024-01-10,1,,,,,クレボイノベーシヨンインク,0
2926,3700150123270,新規,0,2024-01-10,2024-01-10,Ｄｏｎｇｇｕａｎ　Ｃｈｕａｎｇｑｉｎ　ｅｌｅｃｔｒｏｎｉｃ　ｔｅｃｈｎｏｌｏｇｙ　Ｃｏ．，ＬＴＤ,,外国会社等,,,,,,,,Ｒｏｏｍ　１０２，Ｎｏ．７　Ｈａｏｊｉｎｇ　Ｌａｎｅ　２，Ｎａｎｚｈａ，Ｈｕｍｅｎ　Ｔｏｗｎ　Ｄｏｎｇｇｕａｎ　Ｇｕａｎｇｄｏｎｇ　５２３１６５　ＣＮ,,,,,,2024-01-10,1,,,,,ドンワンシチュァンチンディエンズーカージヨウシェンゴンスー,0
2937,4010001241290,新規,0,2024-01-10,2024-01-10,Ｈａｒｖｅｓｔ　Ｉｎｔｅｇｒａｔｅｄ　Ｒｅｓｅａｒｃｈ　Ｏｒｇａｎｉｚａｔｉｏｎ　Ｊａｐａｎ株式会社,,株式会社,東京都,千代田区,霞が関３丁目２番６号東京倶楽部ビルディング１１階,,13,101,1000013,,,,,,,2024-01-10,1,,,,,ハーベストインテグレーテッドリサーチオーガニゼーションジャパン,0
2938,4010001241324,新規,0,2024-01-10,2024-01-10,株式会社Ｃｏｎｆｉｒｅｓ,,株式会社,東京都,中央区,日本橋堀留町１丁目１０番１号,,13,102,1030012,,,,,,,2024-01-10,1,,,,,コンフィレス,0
2939,4010001241365,新規,0,2024-01-10,2024-01-10,株式会社海外開発アドバイザリー,,株式会社,東京都,中央区,銀座７丁目１３番６号サガミビル２階,,13,102,1040061,,,,,,,2024-01-10,1,,,,,カイガイカイハツアドバイザリー,0
2953,4010401179461,新規,0,2024-01-10,2024-01-10,Ｈｉｌｌｓｉｄｅ　Ｐｒｏｄｕｃｔｉｏｎ株式会社,,株式会社,東京都,港区,南麻布５丁目３番２３－４０１号,,13,103,1060047,,,,,,,2024-01-10,1,,,,,ヒルサイドプロダクション,0
2954,4010401179593,新規,0,2024-01-10,2024-01-10,株式会社アウトエッジ,,株式会社,東京都,港区,赤坂４丁目８番１９号,,13,103,1070052,,,,,,,2024-01-10,1,,,,,アウトエッジ,0
2955,4010401179602,新規,0,2024-01-10,2024-01-10,株式会社ｌｅ　ｍｉｅｕｘ,,株式会社,東京都,港区,南青山６丁目２－６,,13,103,1070062,,,,,,,2024-01-10,1,,,,,ルミュー,0
2956,4010401179619,新規,0,2024-01-10,2024-01-10,ａｌｏｎｇ株式会社,,株式会社,東京都,港区,南麻布３丁目２０－１Ｄａｉｗａ麻布テラス４階,,13,103,1060047,,,,,,,2024-01-10,1,,,,,アロング,0
2962,4010501051594,新規,0,2024-01-10,2024-01-10,株式会社博観ＮＥＸＴ,,株式会社,東京都,台東区,寿３丁目３番２号,,13,106,1110042,,,,,,,2024-01-10,1,,,,,ヒロミネクスト,0
2963,4010503007297,新規,0,2024-01-10,2024-01-10,合同会社ラルーソオート,,合同会社,東京都,台東区,花川戸１丁目７番５号,,13,106,1110033,,,,,,,2024-01-10,1,,,,,ラルーソオート,0
2966,4010601064455,新規,0,2024-01-10,2024-01-10,株式会社ＣＡＴＳＴＥＣＨ,,株式会社,東京都,墨田区,立花１丁目３１番１１号,,13,107,1310043,,,,,,,2024-01-10,1,,,,,キャッツテック,0
2967,4010703007015,新規,0,2024-01-10,2024-01-10,合同会社咲花,,合同会社,東京都,品川区,大崎４丁目２番１３－６１０号,,13,109,1410032,,,,,,,2024-01-10,1,,,,,ハナ,0
2975,4010901054494,新規,0,2024-01-10,2024-01-10,株式会社ＢｉｚＡｄ,,株式会社,東京都,世田谷区,若林２丁目２２番６号,,13,112,1540023,,,,,,,2024-01-10,1,,,,,ビズアド,0
2977,4010903008705,新規,0,2024-01-10,2024-01-10,合同会社Ｓｔｅｌｌａｒ　Ｃｏｒｅ,,合同会社,東京都,世田谷区,深沢８丁目７－１７－２０３,,13,112,1580081,,,,,,,2024-01-10,1,,,,,ステラコア,0
2978,4010903008713,新規,0,2024-01-10,2024-01-10,合同会社ＥＭＯＷＡ,,合同会社,東京都,世田谷区,桜上水５丁目３７－２１－１０１,,13,112,1560045,,,,,,,2024-01-10,1,,,,,エモワ,0
2979,4010903008721,新規,0,2024-01-10,2024-01-10,サード・プレイス合同会社,,合同会社,東京都,世田谷区,千歳台２丁目３７番１３号,,13,112,1570071,,,,,,,2024-01-10,1,,,,,サードプレイス,0
2982,4011001159201,新規,0,2024-01-10,2024-01-10,株式会社ＮＯＷＬＤＷＯＲＫＳ,,株式会社,東京都,渋谷区,道玄坂１丁目１０番８号渋谷道玄坂東急ビル２Ｆ－Ｃ,,13,113,1500043,,,,,,,2024-01-10,1,,,,,ナウルドワークス,0
2984,4011003018207,新規,0,2024-01-10,2024-01-10,Ｂｅｌｌｅ　Ｆｌｉｐｐｅｒ合同会社,,合同会社,東京都,目黒区,目黒本町６丁目１５－３,,13,110,1520002,,,,,,,2024-01-10,1,,,,,ベルフリッパー,0
2986,4011101105583,新規,0,2024-01-10,2024-01-10,株式会社ティケイジィ・ドット,,株式会社,東京都,新宿区,新小川町１丁目１７三輪田ビル７階,,13,104,,,,,,,,2024-01-10,1,,,,,ティケイジィドット,0
2987,4011101105716,新規,0,2024-01-10,2024-01-10,株式会社こいけ不動産,,株式会社,東京都,新宿区,四谷４丁目２２藤原ビル１Ｅ,,13,104,1600004,,,,,,,2024-01-10,1,,,,,コイケフドウサン,0
2988,4011101105724,新規,0,2024-01-10,2024-01-10,株式会社アルジェント,,株式会社,東京都,新宿区,西新宿６丁目２１番１号,,13,104,1600023,,,,,,,2024-01-10,1,,,,,アルジェント,0
2989,4011101105732,新規,0,2024-01-10,2024-01-10,株式会社フォワード,,株式会社,東京都,新宿区,西新宿３丁目３番１３号西新宿水間ビル２Ｆ,,13,104,1600023,,,,,,,2024-01-10,1,,,,,フォワード,0
2990,4011101105749,新規,0,2024-01-10,2024-01-10,株式会社ＬＵＣＡ,,株式会社,東京都,新宿区,新宿２丁目２番４号第１０御苑宮庭マンション４階Ｄ号室,,13,104,1600022,,,,,,,2024-01-10,1,,,,,ルカ,0
2991,4011101105773,新規,0,2024-01-10,2024-01-10,Ｒ＆Ｍ株式会社,,株式会社,東京都,新宿区,市谷柳町４９番地エスセナーリオ牛込柳町１０２,,13,104,1620061,,,,,,,2024-01-10,1,,,,,アールアンドエム,0
3001,4011601027427,新規,0,2024-01-10,2024-01-10,株式会社彩食２１３,,株式会社,東京都,練馬区,豊玉北６丁目１４番３号,,13,120,1760012,,,,,,,2024-01-10,1,,,,,サイショクニイチサン,0
3002,4011601027435,新規,0,2024-01-10,2024-01-10,ＦｉｖｅＬｕｃｋ株式会社,,株式会社,東京都,練馬区,谷原１丁目２０番１６号,,13,120,1770032,,,,,,,2024-01-10,1,,,,,ファイブラック,0
3003,4011603004184,新規,0,2024-01-10,2024-01-10,ＴＭＴ合同会社,,合同会社,東京都,練馬区,桜台４丁目３４－２３三高・ヴィラ桜台２０２,,13,120,1760002,,,,,,,2024-01-10,1,,,,,ティーエムティー,0
3005,4011701026907,新規,0,2024-01-10,2024-01-10,株式会社ＴＨＥＯ　ＴＥＣ,,株式会社,東京都,江戸川区,船堀３丁目５番２６－２０２号,,13,123,1340091,,,,,,,2024-01-10,1,,,,,セオテック,0
3006,4011801043612,新規,0,2024-01-10,2024-01-10,株式会社ＩＴ　ＭＥＣＡ,,株式会社,東京都,足立区,竹の塚１丁目４０番１５号庄栄ビル５Ｆビジネスポート竹の塚,,13,121,1210813,,,,,,,2024-01-10,1,,,,,アイティーメカ,0
3007,4011801043629,新規,0,2024-01-10,2024-01-10,ＡＫロジ株式会社,,株式会社,東京都,足立区,千住桜木１丁目３番３－２０５号,,13,121,1200045,,,,,,,2024-01-10,1,,,,,エイケイロジ,0
3008,4012301013725,新規,0,2024-01-10,2024-01-10,株式会社ＲＯＯＴ,,株式会社,東京都,町田市,原町田６丁目２６番２号杉本ビル１０１,,13,209,1940013,,,,,,,2024-01-10,1,,,,,ルート,0
3012,4012401041394,新規,0,2024-01-10,2024-01-10,株式会社大翔機工,,株式会社,東京都,三鷹市,北野２丁目４番２１号,,13,204,1810003,,,,,,,2024-01-10,1,,,,,タイショウキコウ,0
3015,4012701018019,新規,0,2024-01-10,2024-01-10,株式会社Ｂｕｓｉｎｅｓｓ　ａｄｖｉｓｏｒｙ　ｏｆｆｉｃｅ,,株式会社,東京都,西東京市,富士町２丁目１番２３号,,13,229,2020014,,,,,,,2024-01-10,1,,,,,ビジネスアドバイザリーオフィス,0
3016,4012701018027,新規,0,2024-01-10,2024-01-10,株式会社ＴＯＳＨＩＮ,,株式会社,東京都,小平市,栄町３丁目１番１２号,,13,211,1870034,,,,,,,2024-01-10,1,,,,,トウシン,0
3017,4012801022878,新規,0,2024-01-10,2024-01-10,株式会社ワールドムソウ,,株式会社,東京都,日野市,日野本町３丁目３番地の１,,13,212,1910011,,,,,,,2024-01-10,1,,,,,ワールドムソウ,0
3019,4013101009327,新規,0,2024-01-10,2024-01-10,株式会社エコリプロ,,株式会社,東京都,青梅市,今寺３丁目３７９番地の１１,,13,205,1980021,,,,,,,2024-01-10,1,,,,,,0
3023,4013303006948,新規,0,2024-01-10,2024-01-10,合同会社ＴＢ,,合同会社,東京都,豊島区,上池袋２丁目４４番１３号,,13,116,1700012,,,,,,,2024-01-10,1,,,,,ティービー,0
3027,4020001155201,新規,0,2024-01-10,2024-01-10,株式会社Ｍ．Ａ,,株式会社,神奈川県,川崎市川崎区,小田５丁目１０番１９号,,14,131,2100846,,,,,,,2024-01-10,1,,,,,エムエー,0
3028,4020001155218,新規,0,2024-01-10,2024-01-10,株式会社エスケーエス,,株式会社,神奈川県,川崎市宮前区,菅生５丁目３番７号,,14,136,2160015,,,,,,,2024-01-10,1,,,,,エスケーエス,0
3029,4020001155242,新規,0,2024-01-10,2024-01-10,ＳＡＭ株式会社,,株式会社,神奈川県,川崎市多摩区,生田１丁目２番１２号,,14,135,2140038,,,,,,,2024-01-10,1,,,,,サム,0
3030,4020003025311,新規,0,2024-01-10,2024-01-10,合同会社しょうげん,,合同会社,神奈川県,川崎市多摩区,宿河原５丁目２５番３０号,,14,135,2140021,,,,,,,2024-01-10,1,,,,,ショウゲン,0
3035,4021003013999,新規,0,2024-01-10,2024-01-10,合同会社レベルスケイプ,,合同会社,神奈川県,座間市,相模が丘６丁目９―１１,,14,216,2520001,,,,,,,2024-01-10,1,,,,,レベルスケイプ,0
3039,4030001158038,新規,0,2024-01-10,2024-01-10,株式会社ＡＣＴ,,株式会社,埼玉県,飯能市,茜台１丁目７番地１１,,11,209,3570069,,,,,,,2024-01-10,1,,,,,アクト,0
3040,4030001158046,新規,0,2024-01-10,2024-01-10,株式会社Ｆ＆Ａ,,株式会社,埼玉県,三郷市,戸ケ崎３丁目７２６番地,,11,237,3410044,,,,,,,2024-01-10,1,,,,,エフアンドエー,0
3041,4030001158054,新規,0,2024-01-10,2024-01-10,株式会社ＬｉｇｈｔＣｏｍｐａｓｓ,,株式会社,埼玉県,さいたま市西区,大字指扇２１２８番地１０,,11,101,3310047,,,,,,,2024-01-10,1,,,,,ライトコンパス,0
3042,4030003023330,新規,0,2024-01-10,2024-01-10,合同会社アースファーム玄,,合同会社,埼玉県,さいたま市南区,大字大谷口５０２１番地２,,11,108,3360042,,,,,,,2024-01-10,1,,,,,アースファームゲン,0
3052,4040003023684,新規,0,2024-01-10,2024-01-10,合同会社Ｒ１,,合同会社,千葉県,千葉市花見川区,こてはし台６丁目３７－１,,12,102,2620005,,,,,,,2024-01-10,1,,,,,アールワン,0
3053,4040003024030,新規,0,2024-01-10,2024-01-10,ＭＵＴＳＵＭＩ　ＩＮＴＥＲＮＡＴＩＯＮＡＬ合同会社,,合同会社,千葉県,印西市,浦部２６２９番地１,,12,231,2701367,,,,,,,2024-01-10,1,,,,,ムツミインターナショナル,0
3054,4040003024071,新規,0,2024-01-10,2024-01-10,合同会社Ｆｕｔｕｒｅ　Ｋ,,合同会社,千葉県,流山市,野々下３丁目７６２番地の１フォレストハイム３１１,,12,220,2700135,,,,,,,2024-01-10,1,,,,,フューチャーケイ,0
3058,4060001036703,新規,0,2024-01-10,2024-01-10,株式会社ＩＴＣＳ,,株式会社,栃木県,那須塩原市,島方５３５番地１２,,09,213,3293152,,,,,,,2024-01-10,1,,,,,アイティーシーエス,0
3059,4060003004864,新規,0,2024-01-10,2024-01-10,合同会社ひまわり,,合同会社,栃木県,芳賀郡茂木町,大字河井１９４２番地１,,09,343,3213703,,,,,,,2024-01-10,1,,,,,ヒマワリ,0
3063,4080101024449,新規,0,2024-01-10,2024-01-10,株式会社モスペリオ,,株式会社,静岡県,富士市,蓼原９５６番地ＳＴＪフナムラビル２階,,22,210,4160931,,,,,,,2024-01-10,1,,,,,モスペリオ,0
3638,4080403004933,新規,0,2024-01-10,2024-01-10,合同会社タノモギ,,合同会社,静岡県,浜松市中央区,飯田町８６１番地の３,,22,138,4350028,,,,,,,2024-01-10,1,,,,,タノモギ,0
3720,4080405007604,新規,0,2024-01-10,2024-01-10,社会保険労務士法人ラシック,,その他の設立登記法人,静岡県,浜松市中央区,曳馬６丁目２３番１６号モリショウ第一ビル２０１号室,,22,138,4300901,,,,,,,2024-01-10,1,,,,,ラシック,0
3723,4100001037110,新規,0,2024-01-10,2024-01-10,株式会社信州寿地質,,株式会社,長野県,長野市,吉田１丁目１８番１２号,,20,201,3810043,,,,,,,2024-01-10,1,,,,,シンシュウコトブキチシツ,0
3724,4100001037119,新規,0,2024-01-10,2024-01-10,株式会社信州安曇野林農園,,株式会社,長野県,安曇野市,堀金三田３４７番地１,,20,220,3998212,,,,,,,2024-01-10,1,,,,,シンシュウアヅミノハヤシノウエン,0
3741,4120001261047,新規,0,2024-01-10,2024-01-10,株式会社Ｂｒｉｌｌｉａｎｔ　Ｉｓｌａｎｄ,,株式会社,大阪府,大阪市都島区,東野田町１丁目１７番２７－４０１号,,27,102,5340024,,,,,,,2024-01-10,1,,,,,ブリリアントアイランド,0
3742,4120001261170,新規,0,2024-01-10,2024-01-10,株式会社Ｖｉｎｔａｇｅ　Ｇｌｏｂａｌ,,株式会社,大阪府,寝屋川市,打上中町１０番８号,,27,215,5720857,,,,,,,2024-01-10,1,,,,,ウィンテージグローバル,0
3743,4120001261311,新規,0,2024-01-10,2024-01-10,学途株式会社,,株式会社,大阪府,大阪市淀川区,十八条３丁目１番１８号,,27,123,5320001,,,,,,,2024-01-10,1,,,,,ガクト,0
3746,4120005024086,新規,0,2024-01-10,2024-01-10,一般社団法人ひらく,,その他の設立登記法人,大阪府,大阪市中央区,谷町１丁目３番２７号大手前建設会館３０７号,,27,128,5400012,,,,,,,2024-01-10,1,,,,,ヒラク,0
3748,4120101068805,新規,0,2024-01-10,2024-01-10,Ｙ＆Ｊ株式会社,,株式会社,大阪府,大阪狭山市,今熊２丁目２番地の１狭山ヒルズＡ棟２０８室,,27,231,5890021,,,,,,,2024-01-10,1,,,,,ワイアンドジェイ,0
3749,4120101068838,新規,0,2024-01-10,2024-01-10,株式会社若本商店,,株式会社,大阪府,羽曳野市,向野２丁目１６番１１号,,27,222,5830883,,,,,,,2024-01-10,1,,,,,ワカモトショウテン,0
3755,4120905006547,新規,0,2024-01-10,2024-01-10,一般社団法人憩響会,,その他の設立登記法人,大阪府,茨木市,中穂積１丁目２番５１号シャトー春日第３ビル２階,,27,211,5670034,,,,,,,2024-01-10,1,,,,,ケイキョウカイ,0
3757,4122003002767,新規,0,2024-01-10,2024-01-10,合同会社ＦＵＪＩ,,合同会社,大阪府,八尾市,高美町７丁目２８番４１号,,27,212,5810017,,,,,,,2024-01-10,1,,,,,フジ,0
3758,4130001076064,新規,0,2024-01-10,2024-01-10,株式会社帝京自動車,,株式会社,京都府,京都市山科区,西野山岩ケ谷町３３－１,,26,110,6078309,,,,,,,2024-01-10,1,,,,,テイキョウジドウシャ,0
3759,4130001076072,新規,0,2024-01-10,2024-01-10,エテルナ不動産販売株式会社,,株式会社,京都府,京都市伏見区,竹田七瀬川町９０番地１エテルナビル１階,,26,109,6128422,,,,,,,2024-01-10,1,,,,,エテルナフドウサンハンバイ,0
3760,4130001076089,新規,0,2024-01-10,2024-01-10,ＹＯＬＯ株式会社,,株式会社,京都府,京田辺市,草内一ノ坪３番地１エストＩＩ２０１,00133261,26,211,6100311,,,,,,,2024-01-10,1,,,,,ヨーロ,0
3761,4130003009229,新規,0,2024-01-10,2024-01-10,ＴＫＣ合同会社,,合同会社,京都府,京都市左京区,下鴨蓼倉町４１－２３,,26,103,6060806,,,,,,,2024-01-10,1,,,,,ティーケーシー,0
3770,4140001132948,新規,0,2024-01-10,2024-01-10,株式会社デイクラフト,,株式会社,兵庫県,神戸市垂水区,桃山台７丁目１４３１番地の４フロール桃山台３０２号,,28,108,6550854,,,,,,,2024-01-10,1,,,,,デイクラフト,0
3774,4160001025605,新規,0,2024-01-10,2024-01-10,株式会社ＹＭ商事,,株式会社,滋賀県,草津市,桜ケ丘５丁目６番２号,,25,206,5250057,,,,,,,2024-01-10,1,,,,,ワイエムショウジ,0
3783,4180001159649,新規,0,2024-01-10,2024-01-10,株式会社バイカル,,株式会社,愛知県,名古屋市昭和区,鶴舞２丁目１７番１７号鶴舞ベルビル２Ｆ,,23,107,4660064,,,,,,,2024-01-10,1,,,,,バイカル,0
3784,4180001159673,新規,0,2024-01-10,2024-01-10,株式会社ＮＯＺＯＭＩ,,株式会社,愛知県,名古屋市名東区,望が丘２６２番地の２,,23,115,4650046,,,,,,,2024-01-10,1,,,,,ノゾミ,0
3785,4180001159681,新規,0,2024-01-10,2024-01-10,春和株式会社,,株式会社,愛知県,名古屋市瑞穂区,津賀田町２丁目２７ドール津賀田２０５号,,23,108,4670823,,,,,,,2024-01-10,1,,,,,シュンワ,0
3788,4180003026178,新規,0,2024-01-10,2024-01-10,合同会社アップデート,,合同会社,愛知県,大府市,江端町３丁目７番地マリオットＫ１０１号,,23,223,4740035,,,,,,,2024-01-10,1,,,,,アップデート,0
3789,4180005020484,新規,0,2024-01-10,2024-01-10,一般社団法人ＪＡＰＡＮ　ＨＩＣＫＯＲＹ　ＧＯＬＦＩＮＧ　ＳＯＣＩＥＴＹ,,その他の設立登記法人,愛知県,一宮市,篭屋４丁目１１番３７号,,23,203,4940002,,,,,,,2024-01-10,1,,,,,ジャパンヒッコリーゴルフィングソサエティ,0
3792,4180301038206,新規,0,2024-01-10,2024-01-10,株式会社Ｌｉｓｏｎｏ,,株式会社,愛知県,安城市,高棚町新池３９番地４０,,23,212,4460053,,,,,,,2024-01-10,1,,,,,リソノ,0
3795,4200001042050,新規,0,2024-01-10,2024-01-10,株式会社ｒｏｏｔケアステーション,,株式会社,岐阜県,岐阜市,柳津町丸野５丁目１１１番地１,,21,201,5016115,,,,,,,2024-01-10,1,,,,,ルートケアステーション,0
3797,4210001019592,新規,0,2024-01-10,2024-01-10,株式会社ＧＳ,,株式会社,福井県,鯖江市,田村町第２号４番地１,,18,207,9160087,,,,,,,2024-01-10,1,,,,,ジーエス,0
3799,4220001025763,新規,0,2024-01-10,2024-01-10,北陸ツイスター株式会社,,株式会社,石川県,かほく市,遠塚イ１４８番地１,,17,209,9291173,,,,,,,2024-01-10,1,,,,,ホクリクツイスター,0
3800,4220001025771,新規,0,2024-01-10,2024-01-10,株式会社Ｙ．Ｏ．Ｌ．Ｏ．,,株式会社,石川県,金沢市,湊２丁目１２０番地４０,,17,201,9200211,,,,,,,2024-01-10,1,,,,,ヨロ,0
3802,4230001020160,新規,0,2024-01-10,2024-01-10,株式会社Ｓａｃｃｈｉ,,株式会社,富山県,富山市,二俣４４６番地１,,16,201,9398185,,,,,,,2024-01-10,1,,,,,サッチ,0
3813,4290001104263,新規,0,2024-01-10,2024-01-10,誠和総建株式会社,,株式会社,福岡県,福岡市南区,長住７丁目７番７－２号,,40,134,8111362,,,,,,,2024-01-10,1,,,,,セイワソウケン,0
3815,4290003014824,新規,0,2024-01-10,2024-01-10,合同会社ゆのあ企画,,合同会社,福岡県,筑紫野市,美しが丘南７丁目１番地４サンビューラー美しが丘４０２号,,40,217,8180034,,,,,,,2024-01-10,1,,,,,,0
3816,4290003014832,新規,0,2024-01-10,2024-01-10,合同会社ＺＩＮＡＮ,,合同会社,福岡県,久留米市,西町８４０番地６,,40,203,8300038,,,,,,,2024-01-10,1,,,,,,0
3817,4290005019251,新規,0,2024-01-10,2024-01-10,医療法人五省堂,,その他の設立登記法人,福岡県,福岡市博多区,那珂１丁目２番４号,,40,132,8120893,,,,,,,2024-01-10,1,,,,,ゴセイドウ,0
3822,4290801030188,新規,0,2024-01-10,2024-01-10,株式会社ＴＡＭＡＫＩ,,株式会社,福岡県,北九州市八幡西区,熊手２丁目４番２５号かやまビル３階,,40,109,8060028,,,,,,,2024-01-10,1,,,,,タマキ,0
3823,4290801030196,新規,0,2024-01-10,2024-01-10,株式会社エフシーサービス,,株式会社,福岡県,行橋市,南泉３丁目５９－８,,40,213,8240036,,,,,,,2024-01-10,1,,,,,エフシーサービス,0
3826,4290803004578,新規,0,2024-01-10,2024-01-10,合同会社ｂｌｉｓｓ,,合同会社,福岡県,北九州市八幡西区,若葉２丁目１４番１３－４０２号,,40,109,8060066,,,,,,,2024-01-10,1,,,,,ブリス,0
3828,4300001013578,新規,0,2024-01-10,2024-01-10,株式会社フローリストはなさと,,株式会社,佐賀県,小城市,牛津町牛津８１０番地７,,41,208,8490303,,,,,,,2024-01-10,1,,,,,フローリストハナサト,0
3829,4300001013586,新規,0,2024-01-10,2024-01-10,株式会社新太技建,,株式会社,佐賀県,三養基郡みやき町,大字寄人１０５４番地,,41,346,8401105,,,,,,,2024-01-10,1,,,,,アラタギケン,0
3841,4340001026196,新規,0,2024-01-10,2024-01-10,株式会社フードデバイス,,株式会社,鹿児島県,鹿児島市,入佐町１４６９番地１４,,46,201,8992706,,,,,,,2024-01-10,1,,,,,フードデバイス,0
3843,4350005006202,新規,0,2024-01-10,2024-01-10,一般社団法人リスクコンサルティングサービス,,その他の設立登記法人,宮崎県,延岡市,東浜砂町７３番地２,,45,203,8820852,,,,,,,2024-01-10,1,,,,,リスクコンサルティングサービス,0
3848,4370003006441,新規,0,2024-01-10,2024-01-10,わたり小野マム合同会社,,合同会社,宮城県,亘理郡亘理町,逢隈中泉字松木１０４番地,00133263,04,361,9892301,,,,,,,2024-01-10,1,,,,,ワタリオノマム,0
3855,4410001013682,新規,0,2024-01-10,2024-01-10,清水建装株式会社,,株式会社,秋田県,秋田市,外旭川字山崎２８５番地１７,,05,201,0100802,,,,,,,2024-01-10,1,,,,,シミズケンソウ,0
3856,4410001013690,新規,0,2024-01-10,2024-01-10,株式会社秋田県旅協,,株式会社,秋田県,秋田市,八橋大畑２丁目１２番５３号,,05,201,0100962,,,,,,,2024-01-10,1,,,,,アキタケンリョキョウ,0
3858,4420005007878,新規,0,2024-01-10,2024-01-10,医療法人あべ耳鼻咽喉科,,その他の設立登記法人,青森県,弘前市,大字宮川１丁目２番地２２,,02,202,0368051,,,,,,,2024-01-10,1,,,,,,0
3862,4430001090803,新規,0,2024-01-10,2024-01-10,株式会社ウェルビーイング,,株式会社,北海道,札幌市中央区,南十一条西１８丁目１番１０号,,01,101,0640811,,,,,,,2024-01-10,1,,,,,ウェルビーイング,0
3863,4430001090836,新規,0,2024-01-10,2024-01-10,株式会社ＴＡＯ,,株式会社,北海道,札幌市中央区,南三条東３丁目８番地,,01,101,0600053,,,,,,,2024-01-10,1,,,,,タオ,0
3864,4430003015824,新規,0,2024-01-10,2024-01-10,合同会社サト建,,合同会社,北海道,札幌市清田区,真栄三条２丁目３番２６号,,01,110,0040833,,,,,,,2024-01-10,1,,,,,サトケン,0
3866,4440003001567,新規,0,2024-01-10,2024-01-10,合同会社Ｃｈａｒｍ　Ｐｈｏｔｏ,,合同会社,北海道,函館市,八幡町２１番６号,,01,202,0400083,,,,,,,2024-01-10,1,,,,,チャームフォト,0
3869,4460101007480,新規,0,2024-01-10,2024-01-10,株式会社ＡＧ,,株式会社,北海道,帯広市,西七条南１７丁目１１番地７,,01,207,0800017,,,,,,,2024-01-10,1,,,,,エージー,0
3872,4470001019971,新規,0,2024-01-10,2024-01-10,ｉ‐ｎｏｔｅ株式会社,,株式会社,香川県,三豊市,高瀬町下勝間６５０番地１,,37,208,7670011,,,,,,,2024-01-10,1,,,,,アイノテ,0
3875,4490001010672,新規,0,2024-01-10,2024-01-10,株式会社浅野商店,,株式会社,高知県,土佐市,高岡町乙７９０番地１０６,,39,205,7811102,,,,,,,2024-01-10,1,,,,,アサノショウテン,0
3876,4490003001851,新規,0,2024-01-10,2024-01-10,合同会社谷事務所,,合同会社,高知県,高知市,青柳町５１番地１４,,39,201,7810813,,,,,,,2024-01-10,1,,,,,タニジムショ,0
3877,4500001025396,新規,0,2024-01-10,2024-01-10,株式会社ＧＲＡＣＥ,,株式会社,愛媛県,新居浜市,新須賀町３丁目２番４１号,,38,205,7920802,,,,,,,2024-01-10,1,,,,,グレース,0
3879,4700150114450,新規,0,2024-01-10,2023-02-22,山室町自治会,,その他,福井県,福井市,山室町５３－４５－１,,18,201,9100108,,,,,,,2023-02-22,1,,,,,ヤマムロチヨウジチカイ,0
3880,4700150115036,新規,0,2024-01-10,2024-01-10,ＨＥＸＵ　Ｔｒａｄｅ　Ｃｏ．，ＬＴＤ,,外国会社等,,,,,,,,ｔａｏｙｕａｎｊｉｅｄａｏｔａｏｙｕａｎｃｕｎ１０ｄｏｎｇ６０６ｆａｎｇ，ｓｈｅｎｚｈｅｎｓｈｉ，ｇｕａｎｇｄｏｎｇｓｈｅｎｇ，５１８００，ＣＮ,,,,,,2024-01-10,1,,,,,ホーシュイトレードカンパニーリミテッド,0
3889,5010001241323,新規,0,2024-01-10,2024-01-10,株式会社ＴＫサポート,,株式会社,東京都,中央区,日本橋堀留町２丁目８番１０号,,13,102,1030012,,,,,,,2024-01-10,1,,,,,ティーケーサポート,0
3890,5010001241348,新規,0,2024-01-10,2024-01-10,Ｍ‐Ｉｎｎｏｖａｔｉｏｎｓ株式会社,,株式会社,東京都,千代田区,内神田３丁目４番１５号,,13,101,1010047,,,,,,,2024-01-10,1,,,,,エムイノベーションズ,0
3891,5010001241356,新規,0,2024-01-10,2024-01-10,株式会社ｏｆｆｉｃｅ　ｂａｓｅ　ｇｒｏｕｐ,,株式会社,東京都,千代田区,神田司町２番地１３ワイムビジネスプラザ神田,,13,101,1000000,,,,,,,2024-01-10,1,,,,,オフィスベースグループ,0
3895,5010003042604,新規,0,2024-01-10,2024-01-10,合同会社Ｓｎｕｇｇｌｅ　Ｔｒｅｅ,,合同会社,東京都,中央区,日本橋室町１丁目１１番１２号日本橋水野ビル７階,,13,102,1030022,,,,,,,2024-01-10,1,,,,,スナグルツリー,0
3906,5010401179551,新規,0,2024-01-10,2024-01-10,株式会社ＴＥＣＯ,,株式会社,東京都,港区,南青山３丁目１番３６号青山丸竹ビル６Ｆ,,13,103,1070062,,,,,,,2024-01-10,1,,,,,テコ,0
3907,5010401179626,新規,0,2024-01-10,2024-01-10,株式会社アート総合設計東京・ＡＳＥＩ建築設計事務所,,株式会社,東京都,港区,芝公園３丁目６番２２号ＪＣビル１階,,13,103,1050011,,,,,,,2024-01-10,1,,,,,アートソウゴウセッケイトウキョウアセイケンチクセッケイジムショ,0
3909,5010403031685,新規,0,2024-01-10,2024-01-10,ＰＭＩ合同会社,,合同会社,東京都,港区,六本木１丁目５番３－４０１号,,13,103,1060032,,,,,,,2024-01-10,1,,,,,ピーエムアイ,0
3910,5010403031693,新規,0,2024-01-10,2024-01-10,ＩＨ‐ＣＯＭ合同会社,,合同会社,東京都,港区,北青山１丁目３番１号アールキューブ青山３階,,13,103,1070061,,,,,,,2024-01-10,1,,,,,アイエイチコム,0
3912,5010501051602,新規,0,2024-01-10,2024-01-10,ＭＡ．Ａ株式会社,,株式会社,東京都,台東区,松が谷４丁目２１番７号グレイス松ケ谷２０１,,13,106,1110036,,,,,,,2024-01-10,1,,,,,エムエイエイ,0
3915,5010701045370,新規,0,2024-01-10,2024-01-10,株式会社ＬｅｇａｌＢａｎｋ,,株式会社,東京都,品川区,小山３丁目１５番２号パークシティ武蔵小山ザタワー１５１１,,13,109,1420062,,,,,,,2024-01-10,1,,,,,リーガルバンク,0
3918,5010803004803,新規,0,2024-01-10,2024-01-10,Ａｌｅｘ合同会社,,合同会社,東京都,大田区,西六郷１丁目１７番１６号,,13,111,1440056,,,,,,,2024-01-10,1,,,,,アレックス,0
3923,5011001159200,新規,0,2024-01-10,2024-01-10,株式会社セールスマーケティング総合研究所,,株式会社,東京都,渋谷区,渋谷２丁目１９－１５宮益坂ビルディング６０９,,13,113,1500002,,,,,,,2024-01-10,1,,,,,セールスマーケティングソウゴウケンキュウジョ,0
3924,5011001159209,新規,0,2024-01-10,2024-01-10,制作ガレージ・ハシモト株式会社,,株式会社,東京都,目黒区,大岡山１丁目２９番３５号,,13,110,1520033,,,,,,,2024-01-10,1,,,,,セイサクガレージハシモト,0
3925,5011001159217,新規,0,2024-01-10,2024-01-10,株式会社ｇｎｕｄｉ,,株式会社,東京都,渋谷区,神宮前３丁目４１番２号１Ｆ,,13,113,1500001,,,,,,,2024-01-10,1,,,,,ニューディー,0
3930,5011101105723,新規,0,2024-01-10,2024-01-10,株式会社ワールドウィン・プロパティ,,株式会社,東京都,新宿区,大久保２丁目５番２２号,,13,104,1690072,,,,,,,2024-01-10,1,,,,,ワールドウィンプロパティ,0
3931,5011101105731,新規,0,2024-01-10,2024-01-10,ＷＡＫＥ　ＵＰ株式会社,,株式会社,東京都,新宿区,富久町１５番１－５００１号,,13,104,1620067,,,,,,,2024-01-10,1,,,,,ウェークアップ,0
3932,5011103013932,新規,0,2024-01-10,2024-01-10,合同会社Ｌｕｇｌｉｏ,,合同会社,東京都,新宿区,矢来町８２番地,,13,104,1620805,,,,,,,2024-01-10,1,,,,,ルーリオ,0
3933,5011103013940,新規,0,2024-01-10,2024-01-10,合同会社マイファンド,,合同会社,東京都,新宿区,西新宿４丁目４１－１０フォレストマンション８０５,,13,104,1600023,,,,,,,2024-01-10,1,,,,,マイファンド,0
3934,5011105010903,新規,0,2024-01-10,2024-01-10,一般社団法人日本鳥学会,,その他の設立登記法人,東京都,新宿区,大久保２丁目４番１２号,,13,104,1690072,,,,,,,2024-01-10,1,,,,,ニホンチョウガクカイ,0
3942,5011601027442,新規,0,2024-01-10,2024-01-10,株式会社ＦｏｏｄＬｕｃｋ,,株式会社,東京都,練馬区,氷川台１丁目１１－４朝日ラ・パリオ氷川台１０７,,13,120,1790084,,,,,,,2024-01-10,1,,,,,フードラック,0
3947,5011801043594,新規,0,2024-01-10,2024-01-10,パンダホールディングス株式会社,,株式会社,東京都,葛飾区,立石５丁目２８番７－１１０３号ロイヤルタワーお花茶屋,,13,122,1240012,,,,,,,2024-01-10,1,,,,,パンダホールディングス,0
3948,5011801043603,新規,0,2024-01-10,2024-01-10,株式会社忠建設,,株式会社,東京都,葛飾区,立石６丁目２３番１３号コーポ立石１０３,,13,122,1240012,,,,,,,2024-01-10,1,,,,,タダケンセツ,0
3949,5012301013724,新規,0,2024-01-10,2024-01-10,株式会社ラックプラマー,,株式会社,東京都,町田市,山崎町７８１番地６,,13,209,1950074,,,,,,,2024-01-10,1,,,,,ラックプラマー,0
3952,5012701018018,新規,0,2024-01-10,2024-01-10,株式会社ＳＯＦＴ　ＳＴＥＰ　ＰＬＵＳ,,株式会社,東京都,東村山市,栄町２丁目３９番地２６,,13,213,1890013,,,,,,,2024-01-10,1,,,,,ソフトステッププラス,0
3954,5012803003280,新規,0,2024-01-10,2024-01-10,プロジェクトステージ合同会社,,合同会社,東京都,立川市,幸町３丁目３４－３ラ・ベレッツァ・フェリオ５０５,,13,202,1900002,,,,,,,2024-01-10,1,,,,,,0
3958,5013305003562,新規,0,2024-01-10,2024-01-10,一般社団法人東池袋コンテンツ研究会,,その他の設立登記法人,東京都,豊島区,東池袋１丁目２番６号國見ビル内,,13,116,1700013,,,,,,,2024-01-10,1,,,,,ヒガシイケブクロコンテンツケンキュウカイ,0
3961,5020001155217,新規,0,2024-01-10,2024-01-10,トカキボシ株式会社,,株式会社,神奈川県,横浜市中区,常盤町３丁目２２番地１関内リバティービルＢ１Ｆ－Ａ号室,,14,104,2310014,,,,,,,2024-01-10,1,,,,,トカキボシ,0
3965,5020003025319,新規,0,2024-01-10,2024-01-10,合同会社Ｌｉｔｔｙ,,合同会社,神奈川県,川崎市麻生区,白鳥３丁目１３番２号,,14,137,2150024,,,,,,,2024-01-10,1,,,,,リティ,0
3971,5030001158053,新規,0,2024-01-10,2024-01-10,株式会社モルノー,,株式会社,埼玉県,春日部市,中央１丁目４３番地９,,11,214,3440067,,,,,,,2024-01-10,1,,,,,モルノー,0
3972,5030001158061,新規,0,2024-01-10,2024-01-10,株式会社佐藤電設,,株式会社,埼玉県,南埼玉郡宮代町,本田４丁目１番３０号,,11,442,3450827,,,,,,,2024-01-10,1,,,,,サトウデンセツ,0
3987,5040001131637,新規,0,2024-01-10,2024-01-10,株式会社ＭＩＲＡＲＣＨ,,株式会社,千葉県,市川市,相之川３丁目１２番１７号,,12,203,2720143,,,,,,,2024-01-10,1,,,,,ミラーチ,0
3988,5040001131653,新規,0,2024-01-10,2024-01-10,株式会社つかさ,,株式会社,千葉県,松戸市,古ケ崎１丁目３０３３番地の５,,12,207,2710068,,,,,,,2024-01-10,1,,,,,ツカサ,0
3993,5040003024054,新規,0,2024-01-10,2024-01-10,合同会社コウケン,,合同会社,千葉県,香取市,伊地山１０００番地,,12,236,2870023,,,,,,,2024-01-10,1,,,,,コウケン,0
3994,5040003024062,新規,0,2024-01-10,2024-01-10,合同会社ｔｏｍａｒｉ木,,合同会社,千葉県,千葉市稲毛区,小中台町１７６８番地３－１０１号,,12,103,2630044,,,,,,,2024-01-10,1,,,,,トマリキ,0
3995,5040003024079,新規,0,2024-01-10,2024-01-10,合同会社ＡＲＯＷ,,合同会社,千葉県,千葉市中央区,富士見１丁目１３番１１号紅谷ビル２階２０２,,12,101,2600015,,,,,,,2024-01-10,1,,,,,アロー,0
3997,5060001036702,新規,0,2024-01-10,2024-01-10,株式会社オートガラスＯＮＥ,,株式会社,栃木県,宇都宮市,若松原２丁目４番２１号,,09,201,3210139,,,,,,,2024-01-10,1,,,,,オートガラスワン,0
3998,5060001036710,新規,0,2024-01-10,2024-01-10,株式会社こかいの郷,,株式会社,栃木県,芳賀郡市貝町,大字大谷津５２番地,,09,344,3213405,,,,,,,2024-01-10,1,,,,,コカイノサト,0
3999,5060003004863,新規,0,2024-01-10,2024-01-10,合同会社エムケア,,合同会社,栃木県,下野市,下古山２丁目６番地２４,,09,216,3290502,,,,,,,2024-01-10,1,,,,,エムケア,0
4001,5070001041247,新規,0,2024-01-10,2024-01-10,ＰＯＫＨＡＲＡ　ＮＴ株式会社,,株式会社,群馬県,前橋市,城東町２丁目９－１ユキダロマ,,10,201,3710016,,,,,,,2024-01-10,1,,,,,,0
4002,5070001041255,新規,0,2024-01-10,2024-01-10,株式会社メカニックラボ,,株式会社,群馬県,前橋市,富士見町小沢４１４番地１,,10,201,3710115,,,,,,,2024-01-10,1,,,,,メカニックラボ,0
4003,5070003005225,新規,0,2024-01-10,2024-01-10,合同会社Ｔｈｅ　Ｓａｌｏｎ,,合同会社,群馬県,高崎市,日高町１０１４－１,,10,202,3700002,,,,,,,2024-01-10,1,,,,,,0
4007,5080003003112,新規,0,2024-01-10,2024-01-10,合同会社アルタイル,,合同会社,静岡県,静岡市駿河区,下川原５丁目３４－３０,,22,102,4210113,,,,,,,2024-01-10,1,,,,,アルタイル,0
4670,5100001037118,新規,0,2024-01-10,2024-01-10,株式会社ＦＶＨ,,株式会社,長野県,松本市,本庄１丁目３番４号,,20,202,3900814,,,,,,,2024-01-10,1,,,,,エフブイエイチ,0
4682,5120001261178,新規,0,2024-01-10,2024-01-10,洲際匯株式会社,,株式会社,大阪府,大阪市浪速区,敷津西２丁目１４番１４号,,27,111,5560015,,,,,,,2024-01-10,1,,,,,シュウサイワイ,0
4685,5120005024077,新規,0,2024-01-10,2024-01-10,司法書士法人第一法務事務所,,その他の設立登記法人,大阪府,大阪市中央区,道修町１丁目７番１０号,,27,128,5410045,,,,,,,2024-01-10,1,,,,,ダイイチホウムジムショ,0
4688,5120101068820,新規,0,2024-01-10,2024-01-10,株式会社聖友測建,,株式会社,大阪府,岸和田市,稲葉町６３３番地の２,,27,202,5960103,,,,,,,2024-01-10,1,,,,,セイユウソッケン,0
4689,5120101068837,新規,0,2024-01-10,2024-01-10,株式会社ＧＡＫＵ,,株式会社,大阪府,富田林市,小金台２丁目１番１２号,,27,214,5840083,,,,,,,2024-01-10,1,,,,,ガク,0
4690,5120101068845,新規,0,2024-01-10,2024-01-10,株式会社ＭＣ,,株式会社,大阪府,堺市北区,長曽根町３０７２番地１,,27,146,5918025,,,,,,,2024-01-10,1,,,,,エムシー,0
4692,5120103005615,新規,0,2024-01-10,2024-01-10,ＬＩＳＯＳ合同会社,,合同会社,大阪府,堺市西区,鳳西町３丁７３６番地１０,,27,144,5938326,,,,,,,2024-01-10,1,,,,,リソス,0
4695,5120901048591,新規,0,2024-01-10,2024-01-10,株式会社Ａ・Ｙ　Ｇｒｏｕｐ,,株式会社,大阪府,吹田市,朝日町２さんくす２番館Ｂ１－２２,,27,205,5640027,,,,,,,2024-01-10,1,,,,,エーワイグループ,0
4696,5120901048600,新規,0,2024-01-10,2024-01-10,株式会社Ｆａｓｔ　ｒｏａｄ,,株式会社,大阪府,豊中市,新千里北町２丁目４０番Ｃ－６０１号,,27,203,5600081,,,,,,,2024-01-10,1,,,,,ファストロード,0
4697,5120903004989,新規,0,2024-01-10,2024-01-10,合同会社Ｕｒａｒａ,,合同会社,大阪府,豊中市,長興寺南２丁目７番３９－１０４号,,27,203,5610874,,,,,,,2024-01-10,1,,,,,ウララ,0
4700,5130001076071,新規,0,2024-01-10,2024-01-10,株式会社ＰＬＥＣＯ,,株式会社,京都府,京都市南区,吉祥院前河原町１５－２６,,26,107,6018304,,,,,,,2024-01-10,1,,,,,プレコ,0
4701,5130001076088,新規,0,2024-01-10,2024-01-10,ＹＵＭＥＲＩＡ株式会社,,株式会社,京都府,京田辺市,河原北口７番地７ビクトワール西川Ａ－１,,26,211,6100361,,,,,,,2024-01-10,1,,,,,ユメリア,0
4708,5140001132939,新規,0,2024-01-10,2024-01-10,株式会社つむぎびと,,株式会社,兵庫県,神戸市北区,山田町小部字出坂山１０－５ハピネスプラザ北町１０７,,28,109,6511101,,,,,,,2024-01-10,1,,,,,ツムギビト,0
4726,5180001159573,新規,0,2024-01-10,2024-01-10,株式会社あしあと,,株式会社,愛知県,名古屋市中川区,二女子町７丁目７３番地の１,,23,110,4540036,,,,,,,2024-01-10,1,,,,,アシアト,0
4727,5180001159672,新規,0,2024-01-10,2024-01-10,株式会社ＹＤＳ,,株式会社,愛知県,東海市,富木島町東長口１０８番地の１オーキッドＢ－２０２,,23,222,4760011,,,,,,,2024-01-10,1,,,,,ワイディーエス,0
4728,5180001159689,新規,0,2024-01-10,2024-01-10,株式会社ジーコーポレーション,,株式会社,愛知県,海部郡飛島村,大字新政成６丁目９１番地の２,,23,427,4901443,,,,,,,2024-01-10,1,,,,,ジーコーポレーション,0
4732,5180301038196,新規,0,2024-01-10,2024-01-10,株式会社大和,,株式会社,愛知県,刈谷市,大正町７丁目３０８番地,,23,210,4480855,,,,,,,2024-01-10,1,,,,,ヤマト,0
4737,5190001031005,新規,0,2024-01-10,2024-01-10,株式会社ｙｕｙｕｍｉ,,株式会社,三重県,鈴鹿市,江島台１丁目６番２５号,,24,207,5100231,,,,,,,2024-01-10,1,,,,,ユウユミ,0
4738,5190001031013,新規,0,2024-01-10,2024-01-10,くすのき不動産株式会社,,株式会社,三重県,員弁郡東員町,城山２丁目２２番１０,,24,324,5110233,,,,,,,2024-01-10,1,,,,,クスノキフドウサン,0
4745,5200005013559,新規,0,2024-01-10,2024-01-10,一般社団法人ウエストピーク,,その他の設立登記法人,岐阜県,中津川市,駒場１６６６－３４３９,,21,206,5080011,,,,,,,2024-01-10,1,,,,,ウエストピーク,0
4746,5210001019591,新規,0,2024-01-10,2024-01-10,株式会社藤美,,株式会社,福井県,大飯郡高浜町,青第２０号１番地２,,18,481,9192384,,,,,,,2024-01-10,1,,,,,フジミ,0
4755,5260001038637,新規,0,2024-01-10,2024-01-10,株式会社もも,,株式会社,岡山県,真庭市,惣４６４番地,,33,214,7193204,,,,,,,2024-01-10,1,,,,,モモ,0
4763,5290001104254,新規,0,2024-01-10,2024-01-10,株式会社ＴＯＫＵＤＡ,,株式会社,福岡県,福岡市中央区,今泉１丁目２番３０－１１０２号,,40,133,8100021,,,,,,,2024-01-10,1,,,,,トクダ,0
4764,5290001104270,新規,0,2024-01-10,2024-01-10,株式会社Ｍ　ＳＥＣＯＮＤ,,株式会社,福岡県,小郡市,横隈１５６８番地６,,40,216,8380105,,,,,,,2024-01-10,1,,,,,エムセカンド,0
4765,5290001104287,新規,0,2024-01-10,2024-01-10,オフィス・ボナミ株式会社,,株式会社,福岡県,久留米市,御井町１６５０－１,,40,203,8390851,,,,,,,2024-01-10,1,,,,,オフィスボナミ,0
4766,5290001104295,新規,0,2024-01-10,2024-01-10,株式会社Ｔ‐ｄｏｔ,,株式会社,福岡県,福岡市中央区,天神２丁目２番１２号Ｔ＆Ｊビルディング７Ｆ,,40,133,8100001,,,,,,,2024-01-10,1,,,,,ティードット,0
4770,5290003014823,新規,0,2024-01-10,2024-01-10,オトワクリエイト合同会社,,合同会社,福岡県,福岡市東区,社領２丁目２３番２６号,,40,131,8120068,,,,,,,2024-01-10,1,,,,,オトワクリエイト,0
4771,5290003014831,新規,0,2024-01-10,2024-01-10,アヴァンセ・アン合同会社,,合同会社,福岡県,糸島市,前原駅南１丁目６番４１号クレール前原１０３,,40,230,8191138,,,,,,,2024-01-10,1,,,,,アヴァンセアン,0
4772,5290801030195,新規,0,2024-01-10,2024-01-10,株式会社Ｏｎｅ　Ｌｉｆｅ,,株式会社,福岡県,宮若市,鶴田１１５１番地,,40,226,8230002,,,,,,,2024-01-10,1,,,,,ワンライフ,0
4774,5300001013577,新規,0,2024-01-10,2024-01-10,株式会社ｈａｒｕｋｉ,,株式会社,佐賀県,佐賀市,兵庫北２丁目１９番４号,,41,201,8490919,,,,,,,2024-01-10,1,,,,,ハルキ,0
4775,5300001013585,新規,0,2024-01-10,2024-01-10,香山ウェルディング株式会社,,株式会社,佐賀県,鳥栖市,幸津町８６８番地５,,41,203,8410062,,,,,,,2024-01-10,1,,,,,カヤマウェルディング,0
4780,5310003004706,新規,0,2024-01-10,2024-01-10,合同会社あいかわ,,合同会社,長崎県,佐世保市,黒髪町６５１０－１０６,,42,202,8571152,,,,,,,2024-01-10,1,,,,,アイカワ,0
4785,5350001018737,新規,0,2024-01-10,2024-01-10,株式会社縁,,株式会社,宮崎県,都城市,金田町２３９８番地１７,,45,202,8850001,,,,,,,2024-01-10,1,,,,,エン,0
4797,5410001013681,新規,0,2024-01-10,2024-01-10,株式会社メルツ,,株式会社,秋田県,秋田市,大平台１丁目１０番地１１,,05,201,0101428,,,,,,,2024-01-10,1,,,,,メルツ,0
4803,5430001090785,新規,0,2024-01-10,2024-01-10,株式会社ＲＩＶＥＲ　ＧＡＴＥ,,株式会社,北海道,札幌市中央区,南二条西３丁目２０番地ライオンズタワー札幌１１０２,,01,101,0600062,,,,,,,2024-01-10,1,,,,,リバーゲート,0
4804,5430001090835,新規,0,2024-01-10,2024-01-10,株式会社ＷＯＲＫ　ＵＰ,,株式会社,北海道,千歳市,幸町２丁目１０番４号,,01,224,0660063,,,,,,,2024-01-10,1,,,,,ワークアップ,0
4805,5430001090843,新規,0,2024-01-10,2024-01-10,株式会社秋本装業,,株式会社,北海道,札幌市西区,西野七条１０丁目５番１２号,,01,107,0630037,,,,,,,2024-01-10,1,,,,,アキモトソウギョウ,0
4810,5430005014864,新規,0,2024-01-10,2024-01-10,きらら司法書士法人,,その他の設立登記法人,北海道,札幌市北区,北九条西３丁目１０番地１,,01,102,0600809,,,,,,,2024-01-10,1,,,,,キララ,0
4815,5490001010671,新規,0,2024-01-10,2024-01-10,株式会社中越建設,,株式会社,高知県,高知市,介良４９９番地２,,39,201,7815104,,,,,,,2024-01-10,1,,,,,ナカゴシケンセツ,0
4816,5490003001850,新規,0,2024-01-10,2024-01-10,合同会社門田整体整骨院,,合同会社,高知県,高知市,朝倉南町２番３０―３号,,39,201,7808075,,,,,,,2024-01-10,1,,,,,カドタセイタイセイコツイン,0
4818,5700150115035,新規,0,2024-01-10,2024-01-10,ｂｅｉｊｉｎｇｒｅｎｆｅｎｇｔｏｎｇｓｈａｎｇｍａｏｙｏｕｘｉａｎｇｏｎｇｓｉ,,外国会社等,,,,,,,,ｌｕｃｈｅｎｇｚｈｅｎ　ｈｕｌａｎｇｌｕ　８０ｈａｏ１７６ｓｈｉ，ｔｏｎｇｚｈｏｕｑｕ，ｂｅｉｊｉｎｇｓｈｉ，１０１１０７，ＣＮ,,,,,,2024-01-10,1,,,,,ベイジンレンフォントンシャンマオヨウシエンゴンスー,0
4819,5700150123269,新規,0,2024-01-10,2024-01-10,Ｇｕａｎｇｚｈｏｕ　Ｚｈｉｚｅ　ｎｅｔｗｏｒｋ　ｔｅｃｈｎｏｌｏｇｙ　Ｃｏ．，ＬＴＤ,,外国会社等,,,,,,,,Ｎｏ．２３，Ｈｕａｎｇｇｅ　Ｓｅｃｔｉｏｎ，Ｆａｎｚｈｏｎｇ　Ｒｏａｄ，Ｈｕａｎｇｇｅ　Ｔｏｗｎ，Ｎａｎｓｈａ　Ｌｉａｎｙｕｅ　Ｍｉｄ－ｌｅｖｅｌｓ　Ｐｌａｚａ　４４６－Ｂ２１７　Ｇｕａｎｇｚｈｏｕ　Ｇｕａｎｇｄｏｎｇ　５１１４５８　ＣＮ,,,,,,2024-01-10,1,,,,,グァンジョウジーズァワンルオカージヨウシェンゴンスー,0
4820,5700150123277,新規,0,2024-01-10,2024-01-10,瑞安市啓貝豊電子商務有限公司,,外国会社等,,,,,,,,中国浙江省温州市瑞安市馬嶼鎮泛浦村泛浦路４２号,,,,,,2024-01-10,1,,,,,ズイアンシケイバイホウデンシショウムユウゲンコウシ,0
4828,6010001241248,新規,0,2024-01-10,2024-01-10,新日本住設ホールディングス株式会社,,株式会社,東京都,千代田区,麹町１丁目１２番地１住友不動産ふくおか半蔵門ビル３階,,13,101,1020083,,,,,,,2024-01-10,1,,,,,シンニホンジュウセツホールディングス,0
4829,6010001241314,新規,0,2024-01-10,2024-01-10,株式会社Ｐｈｏｅｎｉｘ　Ｃｏｎｓｕｌｔｉｎｇ　Ｉｎｔｅｒｎａｔｉｏｎａｌ,,株式会社,東京都,文京区,本郷３丁目２４番１１－７０５号,,13,105,1130033,,,,,,,2024-01-10,1,,,,,フェニックスコンサルティングインターナショナル,0
4848,6010401179583,新規,0,2024-01-10,2024-01-10,株式会社２１２７ｓｔ,,株式会社,東京都,港区,南青山５丁目４番１１－５０３号,,13,103,1070062,,,,,,,2024-01-10,1,,,,,ニーイチニーナナエスティー,0
4849,6010401179591,新規,0,2024-01-10,2024-01-10,株式会社Ｒ‐ＳＴＲＩＮＧＳ,,株式会社,東京都,港区,南青山３丁目１番３６号青山丸竹ビル６Ｆ,,13,103,1070062,,,,,,,2024-01-10,1,,,,,アールストリングス,0
4852,6010403031684,新規,0,2024-01-10,2024-01-10,ＵＮＯ　ＯＶＥＲＳＥＡＳ　ＰＬＡＣＥＭＥＮＴ，ＩＮＣ．合同会社,,合同会社,東京都,港区,港南２丁目１７番１号,,13,103,1080075,,,,,,,2024-01-10,1,,,,,ウノオーバーシーズプレースメントインク,0
4853,6010403031692,新規,0,2024-01-10,2024-01-10,オフィス沖田修合同会社,,合同会社,東京都,港区,南青山３丁目１番３６号青山丸竹ビル６Ｆ,,13,103,1070062,,,,,,,2024-01-10,1,,,,,オフィスオキタオサム,0
4858,6010603010554,新規,0,2024-01-10,2024-01-10,合同会社ＲｉｓｅＳ　Ｈｕｂ,,合同会社,東京都,墨田区,文花１丁目１８番１３号,,13,107,1310044,,,,,,,2024-01-10,1,,,,,ライズエスハブ,0
4864,6010701045386,新規,0,2024-01-10,2024-01-10,３５ＭＭ株式会社,,株式会社,東京都,品川区,小山６丁目５－１０－１Ｆ,,13,109,1420062,,,,,,,2024-01-10,1,,,,,サンジュウゴミリ,0
4868,6010903008703,新規,0,2024-01-10,2024-01-10,合同会社ＹＵＨＩＴＯＭＯ,,合同会社,東京都,世田谷区,深沢８丁目５番１７号,,13,112,1580081,,,,,,,2024-01-10,1,,,,,ユヒトモ,0
4869,6010905004568,新規,0,2024-01-10,2024-01-10,一般社団法人ホームサスティナブル推進機構,,その他の設立登記法人,東京都,世田谷区,池尻３丁目１１番７－１０１号,,13,112,1540001,,,,,,,2024-01-10,1,,,,,ホームサスティナブルスイシンキコウ,0
4879,6011101105730,新規,0,2024-01-10,2024-01-10,株式会社Ｌｉｂ,,株式会社,東京都,新宿区,西新宿１丁目１９番１２号鮎沢ビル５階,,13,104,1600023,,,,,,,2024-01-10,1,,,,,リブ,0
4883,6011103013931,新規,0,2024-01-10,2024-01-10,ＮＥＷ　ＷＯＲＬＤ合同会社,,合同会社,東京都,新宿区,高田馬場３丁目２番１３号第２丸曽ビル地下１階,,13,104,1690075,,,,,,,2024-01-10,1,,,,,ニューワールド,0
4891,6011501030173,新規,0,2024-01-10,2024-01-10,株式会社レイオール,,株式会社,東京都,荒川区,東日暮里２丁目３０番５号,,13,118,1160014,,,,,,,2024-01-10,1,,,,,レイオール,0
4893,6011603004190,新規,0,2024-01-10,2024-01-10,合同会社チェリッシュワークス,,合同会社,東京都,練馬区,田柄２丁目４９番１０号,,13,120,1790073,,,,,,,2024-01-10,1,,,,,チェリッシュワークス,0
4897,6011801043610,新規,0,2024-01-10,2024-01-10,株式会社易来福,,株式会社,東京都,足立区,梅田３丁目６番１４号,,13,121,1230851,,,,,,,2024-01-10,1,,,,,イーライフ,0
4898,6011803006029,新規,0,2024-01-10,2024-01-10,齊藤運送合同会社,,合同会社,東京都,足立区,足立２丁目３５番１４－５０４号,,13,121,1200015,,,,,,,2024-01-10,1,,,,,サイトウウンソウ,0
4902,6012701018017,新規,0,2024-01-10,2024-01-10,株式会社猿田彦不動産,,株式会社,東京都,小平市,小川東町３丁目４番８－１０２号,,13,211,1870031,,,,,,,2024-01-10,1,,,,,サルタヒコフドウサン,0
4903,6012701018025,新規,0,2024-01-10,2024-01-10,株式会社ＭＫプランニング,,株式会社,東京都,清瀬市,松山１丁目４番２０号,,13,221,2040022,,,,,,,2024-01-10,1,,,,,エムケープランニング,0
4905,6013101009325,新規,0,2024-01-10,2024-01-10,株式会社ディースカイ,,株式会社,東京都,青梅市,河辺町１丁目８２９番地の１河辺ダイヤモンドマンション２０２,,13,205,1980036,,,,,,,2024-01-10,1,,,,,ディースカイ,0
4909,6013301051878,新規,0,2024-01-10,2024-01-10,株式会社ＰｒｉｍｅＢｅａｕｔｙ,,株式会社,東京都,豊島区,南池袋２丁目１６番４号ＳＫビル９階,,13,116,1710022,,,,,,,2024-01-10,1,,,,,プライムビューティー,0
4916,6020001155166,新規,0,2024-01-10,2024-01-10,株式会社Ｇｏｏｄ　Ａｉｒ,,株式会社,神奈川県,横浜市中区,本町１丁目７,,14,104,2310005,,,,,,,2024-01-10,1,,,,,グッドエア,0
4917,6020001155216,新規,0,2024-01-10,2024-01-10,株式会社ケイエムエス,,株式会社,神奈川県,横浜市鶴見区,駒岡５丁目２２番９－４０２,,14,101,2300071,,,,,,,2024-01-10,1,,,,,ケイエムエス,0
4918,6020001155224,新規,0,2024-01-10,2024-01-10,株式会社ＬＵＸＥ,,株式会社,神奈川県,横浜市旭区,上白根３丁目５番５号,,14,112,2410002,,,,,,,2024-01-10,1,,,,,リュクス,0
4921,6020003025334,新規,0,2024-01-10,2024-01-10,合同会社ハリーズコーヒークラブ,,合同会社,神奈川県,横浜市港南区,下永谷６丁目３‐１４,,14,111,2330016,,,,,,,2024-01-10,1,,,,,ハリーズコーヒークラブ,0
4924,6021001081146,新規,0,2024-01-10,2024-01-10,株式会社ヒカリ住建,,株式会社,神奈川県,厚木市,妻田南１丁目５番２８号ルミエールＦ－１０５,,14,212,2430814,,,,,,,2024-01-10,1,,,,,ヒカリジュウケン,0
4926,6021003013997,新規,0,2024-01-10,2024-01-10,合同会社ＲＩＶＥＲＣＩＴＹ,,合同会社,神奈川県,平塚市,代官町５番２号,,14,203,2540807,,,,,,,2024-01-10,1,,,,,リバーシティ,0
4929,6030001157970,新規,0,2024-01-10,2024-01-10,吉輝商事株式会社,,株式会社,埼玉県,さいたま市南区,太田窪５丁目１７番１号,,11,108,3360015,,,,,,,2024-01-10,1,,,,,ヨシキショウジ,0
4930,6030001158052,新規,0,2024-01-10,2024-01-10,株式会社あずさわファーム,,株式会社,埼玉県,加須市,鴻茎１３５９番地１,,11,210,3470111,,,,,,,2024-01-10,1,,,,,アズサワファーム,0
4935,6040001131578,新規,0,2024-01-10,2024-01-10,株式会社ＦＡＮｓｈｉｆｔ,,株式会社,千葉県,千葉市中央区,富士見１丁目１４－１３千葉大栄ビル８Ｆ,,12,101,2600015,,,,,,,2024-01-10,1,,,,,ファンシフト,0
4945,6060001036692,新規,0,2024-01-10,2024-01-10,ＴＳＣコネクト株式会社,,株式会社,栃木県,宇都宮市,西川田３丁目２１番３号ニイベハイツ１０３,,09,201,3210152,,,,,,,2024-01-10,1,,,,,ティエスシーコネクト,0
4947,6070001041254,新規,0,2024-01-10,2024-01-10,株式会社クロスヤード,,株式会社,群馬県,高崎市,新町１７１４番地１センチュリー新町１０８号,,10,202,3701301,,,,,,,2024-01-10,1,,,,,クロスヤード,0
5650,6120001261177,新規,0,2024-01-10,2024-01-10,五花馬株式会社,,株式会社,大阪府,大阪市浪速区,敷津西２丁目１４番１４号,,27,111,5560015,,,,,,,2024-01-10,1,,,,,ゴカバ,0
5651,6120001261185,新規,0,2024-01-10,2024-01-10,株式会社世紀末の小麦祭り,,株式会社,大阪府,大阪市淀川区,西中島１丁目１３番２１号,,27,123,5320011,,,,,,,2024-01-10,1,,,,,セイキマツノコムギマツリ,0
5652,6120001261342,新規,0,2024-01-10,2024-01-10,株式会社ヘルスリンク,,株式会社,大阪府,大阪市西区,北堀江４丁目１３番２１－３０５号,,27,106,5500014,,,,,,,2024-01-10,1,,,,,ヘルスリンク,0
5662,6120101068803,新規,0,2024-01-10,2024-01-10,ケイテック株式会社,,株式会社,大阪府,岸和田市,大手町８番２１－２０１号,,27,202,5960063,,,,,,,2024-01-10,1,,,,,ケイテック,0
5663,6120101068836,新規,0,2024-01-10,2024-01-10,株式会社アタルテック,,株式会社,大阪府,堺市東区,石原町３丁１１２番地１６,,27,143,5998102,,,,,,,2024-01-10,1,,,,,アタルテック,0
5664,6120101068844,新規,0,2024-01-10,2024-01-10,株式会社ＳＵＮＮＹ,,株式会社,大阪府,堺市堺区,大浜北町２丁２番１７－７０３号,,27,141,5900974,,,,,,,2024-01-10,1,,,,,サニー,0
5665,6120103005622,新規,0,2024-01-10,2024-01-10,合同会社Ｔ本舗,,合同会社,大阪府,南河内郡太子町,大字春日２０４番地の１５,,27,381,5830991,,,,,,,2024-01-10,1,,,,,ティーホンポ,0
5670,6130001076087,新規,0,2024-01-10,2024-01-10,株式会社ＡｒｔＣｒｅａｔｉｏｎ,,株式会社,京都府,京都市左京区,岩倉花園町２９５番地１５,,26,103,6060024,,,,,,,2024-01-10,1,,,,,アートクリエイション,0
5673,6130003009219,新規,0,2024-01-10,2024-01-10,合同会社ラクラボ,,合同会社,京都府,京田辺市,花住坂１丁目２８番地１０カレブラン花住坂１０６,,26,211,6100352,,,,,,,2024-01-10,1,,,,,ラクラボ,0
5677,6140001132748,新規,0,2024-01-10,2024-01-10,株式会社アサヒ開発,,株式会社,兵庫県,丹波市,柏原町南多田５９３番地の１,,28,223,6693301,,,,,,,2024-01-10,1,,,,,アサヒカイハツ,0
5678,6140001132921,新規,0,2024-01-10,2024-01-10,新田工業株式会社,,株式会社,兵庫県,豊岡市,弥栄町１番１１号,,28,209,6680057,,,,,,,2024-01-10,1,,,,,ニッタコウギョウ,0
5679,6140001132946,新規,0,2024-01-10,2024-01-10,株式会社真織,,株式会社,兵庫県,加古川市,平岡町一色６０番地の６、２Ｆ,,28,210,6750115,,,,,,,2024-01-10,1,,,,,マオリ,0
5681,6140003019968,新規,0,2024-01-10,2024-01-10,ＭＩＮＨ　ＨＵＹ合同会社,,合同会社,兵庫県,神戸市長田区,東尻池町１丁目１０－１９,,28,106,6530022,,,,,,,2024-01-10,1,,,,,ミンフィ,0
5682,6150001026981,新規,0,2024-01-10,2024-01-10,株式会社ＭＭＫ’ｓ,,株式会社,奈良県,奈良市,あやめ池南５丁目１－４５,,29,201,6310033,,,,,,,2024-01-10,1,,,,,エムエムケーズ,0
5692,6180001159671,新規,0,2024-01-10,2024-01-10,株式会社グローバルライフ,,株式会社,愛知県,瀬戸市,美濃池町７２番地１,,23,204,4890932,,,,,,,2024-01-10,1,,,,,グローバルライフ,0
5693,6180001159688,新規,0,2024-01-10,2024-01-10,株式会社自由ヶ丘動物病院,,株式会社,愛知県,名古屋市千種区,徳川山町２丁目８番２２号,,23,101,4640031,,,,,,,2024-01-10,1,,,,,ジユウガオカドウブツビョウイン,0
5694,6180001159696,新規,0,2024-01-10,2024-01-10,株式会社高橋メディカルリエゾン,,株式会社,愛知県,名古屋市昭和区,川名町１丁目３５番地の２,,23,107,4660856,,,,,,,2024-01-10,1,,,,,タカハシメディカルリエゾン,0
5697,6180003026201,新規,0,2024-01-10,2024-01-10,合同会社タカラソリューション,,合同会社,愛知県,名古屋市西区,平出町３４５番地の２,,23,104,4520832,,,,,,,2024-01-10,1,,,,,タカラソリューション,0
5699,6180301038195,新規,0,2024-01-10,2024-01-10,株式会社ＤＥＮＧＥＫＩ,,株式会社,愛知県,岡崎市,中之郷町字東中村３４番地１,,23,202,4440242,,,,,,,2024-01-10,1,,,,,デンゲキ,0
5700,6180303005953,新規,0,2024-01-10,2024-01-10,合同会社Ｆｒｅｅ　Ｓｔｙｌｅ,,合同会社,愛知県,豊橋市,野依台２丁目１４番地２,,23,201,4418125,,,,,,,2024-01-10,1,,,,,フリースタイル,0
5704,6190001030996,新規,0,2024-01-10,2024-01-10,株式会社ＩＫＣ,,株式会社,三重県,津市,阿漕町津興２４９５番地３,,24,201,5140811,,,,,,,2024-01-10,1,,,,,アイケーシー,0
5705,6190001031004,新規,0,2024-01-10,2024-01-10,中嶋工業株式会社,,株式会社,三重県,度会郡度会町,麻加江６２２番地３,,24,470,5162117,,,,,,,2024-01-10,1,,,,,ナカジマコウギョウ,0
5708,6200001042057,新規,0,2024-01-10,2024-01-10,株式会社ＧＥＮＪＩ,,株式会社,岐阜県,高山市,国府町今５１５番地,,21,203,5094104,,,,,,,2024-01-10,1,,,,,ゲンジ,0
5711,6200005013558,新規,0,2024-01-10,2024-01-10,医療法人裕揮会,,その他の設立登記法人,岐阜県,羽島郡笠松町,上本町３０番地,,21,303,5016051,,,,,,,2024-01-10,1,,,,,ヒロキカイ,0
5713,6210001014039,新規,0,2024-01-10,2024-01-10,丸加産業株式会社,,株式会社,福井県,小浜市,中井第９号５０番地の１,,18,204,9170036,,,,,,,2024-01-10,1,,,,,マルカサンギョウ,0
5718,6230001020159,新規,0,2024-01-10,2024-01-10,株式会社富山エムズ企画,,株式会社,富山県,富山市,羽根９９０番地２８号,,16,201,9300864,,,,,,,2024-01-10,1,,,,,トヤマエムズキカク,0
5719,6230001020167,新規,0,2024-01-10,2024-01-10,株式会社ＢＵＢＢＬＥＳ,,株式会社,富山県,富山市,大町２２７番３号,,16,201,9398073,,,,,,,2024-01-10,1,,,,,バブルス,0
5721,6240001062638,新規,0,2024-01-10,2024-01-10,株式会社オフィスＫ‐１,,株式会社,広島県,広島市安芸区,瀬野西５丁目１４番１３号,,34,107,7390313,,,,,,,2024-01-10,1,,,,,オフィスケーワン,0
5723,6240003006485,新規,0,2024-01-10,2024-01-10,合同会社栄伸組,,合同会社,広島県,三原市,西野３丁目７番１５号,,34,204,7230065,,,,,,,2024-01-10,1,,,,,エイシングミ,0
5730,6290001104253,新規,0,2024-01-10,2024-01-10,株式会社ＬＩＯＳ,,株式会社,福岡県,福岡市中央区,天神３丁目４番２８号天神ブロードウェイ４Ｆ,,40,133,8100001,,,,,,,2024-01-10,1,,,,,リオス,0
5731,6290001104278,新規,0,2024-01-10,2024-01-10,株式会社フラン,,株式会社,福岡県,太宰府市,朱雀４丁目１８番８号,,40,221,8180103,,,,,,,2024-01-10,1,,,,,フラン,0
5732,6290001104286,新規,0,2024-01-10,2024-01-10,Ｓｋｙ　Ｇａｒａｇｅ株式会社,,株式会社,福岡県,那珂川市,今光６丁目１７番地１８,,40,231,8111211,,,,,,,2024-01-10,1,,,,,スカイガレージ,0
5733,6290001104294,新規,0,2024-01-10,2024-01-10,株式会社Ｅｉｇｈｔ　Ｆａｃｔｏｒｙ,,株式会社,福岡県,福岡市早良区,原３丁目１２番１５号,,40,137,8140022,,,,,,,2024-01-10,1,,,,,エイトファクトリー,0
5734,6290001104336,新規,0,2024-01-10,2024-01-10,株式会社エムデイプランニング,,株式会社,福岡県,福岡市博多区,住吉５丁目２８番７号,,40,132,8120018,,,,,,,2024-01-10,1,,,,,エムデイプランニング,0
5738,6290003014839,新規,0,2024-01-10,2024-01-10,合同会社エンパワメント福岡,,合同会社,福岡県,福岡市早良区,原４丁目７番３８号,,40,137,8140022,,,,,,,2024-01-10,1,,,,,エンパワメントフクオカ,0
5742,6290801030186,新規,0,2024-01-10,2024-01-10,株式会社吉田建設,,株式会社,福岡県,遠賀郡岡垣町,大字手野５０５,,40,383,8114204,,,,,,,2024-01-10,1,,,,,ヨシダケンセツ,0
5743,6290801030194,新規,0,2024-01-10,2024-01-10,株式会社Ｏｎ,,株式会社,福岡県,北九州市小倉北区,寿山町１番１号,,40,106,8020025,,,,,,,2024-01-10,1,,,,,オン,0
5744,6290803004584,新規,0,2024-01-10,2024-01-10,合同会社ＫＩＹＯＳＨＩＧＥ,,合同会社,福岡県,北九州市小倉南区,大字合馬１８６４番地２,,40,107,8030261,,,,,,,2024-01-10,1,,,,,キヨシゲ,0
5753,6330001031633,新規,0,2024-01-10,2024-01-10,涼結工業株式会社,,株式会社,熊本県,菊池郡大津町,大字室２１１６番地２１,,43,403,8691235,,,,,,,2024-01-10,1,,,,,リョウユウコウギョウ,0
5756,6350001018736,新規,0,2024-01-10,2024-01-10,株式会社ＨＩＮＡＴＡ,,株式会社,宮崎県,宮崎市,青葉町１１５番地３ＡＫＨＡ３　４０４号室,,45,201,8800842,,,,,,,2024-01-10,1,,,,,ヒナタ,0
5757,6350001018744,新規,0,2024-01-10,2024-01-10,株式会社まるけい,,株式会社,宮崎県,都城市,栄町７号４番地,,45,202,8850023,,,,,,,2024-01-10,1,,,,,マルケイ,0
5758,6360003013585,新規,0,2024-01-10,2024-01-10,合同会社池城,,合同会社,沖縄県,那覇市,首里山川町１丁目２２番地３グランシャトレ首里１１０１,,47,201,9030825,,,,,,,2024-01-10,1,,,,,イケグスク,0
5762,6410001013689,新規,0,2024-01-10,2024-01-10,株式会社問い塾,,株式会社,秋田県,秋田市,牛島西２丁目１１番２０号,,05,201,0100063,,,,,,,2024-01-10,1,,,,,トイジュク,0
5763,6420002014132,新規,0,2024-01-10,2024-01-10,有限会社藤田物流,,有限会社,青森県,弘前市,大字大和沢字里見４７番地４,,02,202,0368133,,,,,,,2024-01-10,1,,,,,フジタブツリュウ,0
5766,6430001090842,新規,0,2024-01-10,2024-01-10,株式会社マジョリカ,,株式会社,北海道,札幌市中央区,南四条西３丁目１番１号第３グリーンビル４階,,01,101,0640804,,,,,,,2024-01-10,1,,,,,マジョリカ,0
5767,6430003015822,新規,0,2024-01-10,2024-01-10,合同会社ＫＯＴＯＨＡ,,合同会社,北海道,札幌市中央区,南十九条西１６丁目７番２－２０１号,,01,101,0640919,,,,,,,2024-01-10,1,,,,,コトハ,0
5768,6430003015839,新規,0,2024-01-10,2024-01-10,合同会社下山工業,,合同会社,北海道,岩内郡岩内町,字大浜１９番地７,,01,402,0450001,,,,,,,2024-01-10,1,,,,,シモヤマコウギョウ,0
5774,6460103001587,新規,0,2024-01-10,2024-01-10,合同会社Ａｌｔｅｉｄ,,合同会社,北海道,帯広市,南の森西２丁目７番８号,,01,207,0800862,,,,,,,2024-01-10,1,,,,,アルテイド,0
5776,6500003003167,新規,0,2024-01-10,2024-01-10,合同会社Ｓ　ｔｅｃｈ,,合同会社,愛媛県,今治市,新谷甲１３８２番１,,38,202,7940850,,,,,,,2024-01-10,1,,,,,エステック,0
5777,6700150111652,新規,0,2024-01-10,2024-01-10,ｉＴＯＭＡ（Ｈｏｎｇ　Ｋｏｎｇ）Ｃｏｍｐａｎｙ　Ｌｉｍｉｔｅｄ,,外国会社等,,,,,,,,Ｎｏ．６　Ｔｓｕｎ　Ｙｉｐ　Ｌａｎｅ，Ｆｌａｔ　Ａ，１４／Ｆ，Ｆｕｌｌｙ　Ｉｎｄｕｓｔｒｉａｌ　Ｂｕｉｌｄｉｎｇ，Ｋｏｗｌｏｏｎ　Ｋｗｕｎ　Ｔｏｎｇ，ＨＫ　９９９０７７,,,,,,2024-01-10,1,,,,,アイトマホンコンカンパニーリミティッド,0
5778,6700150112510,新規,0,2024-01-10,2024-01-10,Ｇｏｍｕｍ　Ｅｃｏｍｍｅｒｃｅ　Ｌｉｍｉｔｅｄ,,外国会社等,,,,,,,,ＦＩＮＡＮＣＥ　ＣＴＲ　ＨＡＲＢＯＵＲ　ＣＩＴＹ　１７　ＣＡＮＴＯＮ　ＲＤ，ＲＭ　６０４，６／Ｆ，ＳＯＵＴＨ　ＴＯＷＥＲ　ＷＯＲＬＤ，ＴＳＴ，ＫＬＮ，ＨＫ，９９９０７７，ＣＮ,,,,,,2024-01-10,1,,,,,ゴウモンイーコマースリミテッド,0
5779,6700150122716,新規,0,2024-01-10,2023-12-13,日田やきそば研究会,,その他,大分県,日田市,元町１１－３,,44,204,8770013,,,,,,,2023-12-13,1,,,,,ヒタヤキソバケンキユウカイ,0
5780,6700150123268,新規,0,2024-01-10,2024-01-10,ｓｈｅｎｚｈｅｎｓｈｉｃｈｅｎｇｙｉｋｅｊｉｙｏｕｘｉａｎｇｏｎｇｓｉ,,外国会社等,,,,,,,,ｓｈｅｎｚｈｅｎｓｈｉｂａｏａｎｑｕｓｈａｊｉｎｊｉｅｄａｏｙａｂｉａｎｓｈｅｑｕｂａｏａｎｄａｄａｏｂｉａｎｙａｂｉａｎｘｕｅｚｉｗｅｉｊｕｊｉｋｅｊｉｄａｓｈａ７２２　ｓｈｅｎｚｈｅｎ　ｇｕａｎｇｄｏｎｇ　５１８０００　ＣＮ,,,,,,2024-01-10,1,,,,,シェンジェンシチェンイーカージヨウシェンゴンスー,0
5781,6700150123276,新規,0,2024-01-10,2024-01-10,深セン市通徳雲科技有限公司,,外国会社等,,,,,,,,中国深セン市龍崗区龍城街道吉祥社区彩雲路４２号雲海企業総部基地Ａ棟２０２,00133177,,,,,2024-01-10,1,,,,,シンセンシツウトクウンカギユウゲンコウシ,0
5785,7010001241172,新規,0,2024-01-10,2024-01-10,株式会社ＬＩＦＥ　ＭＡＫＥ,,株式会社,東京都,中央区,銀座１丁目１２番４号Ｎ＆ＥＢＬＤ．６Ｆ,,13,102,1040061,,,,,,,2024-01-10,1,,,,,ライフメイク,0
5786,7010001241288,新規,0,2024-01-10,2024-01-10,株式会社Ａｆｆａｉｒ,,株式会社,東京都,中央区,銀座１丁目２２番１１号銀座大竹ビジデンス２Ｆ,,13,102,1040061,,,,,,,2024-01-10,1,,,,,アフェア,0
5787,7010001241296,新規,0,2024-01-10,2024-01-10,信威株式会社,,株式会社,東京都,文京区,本駒込５丁目１－６－４０１号,,13,105,1130021,,,,,,,2024-01-10,1,,,,,シンイ,0
5793,7010003042602,新規,0,2024-01-10,2024-01-10,事業承継支援機構合同会社,,合同会社,東京都,中央区,銀座１丁目１２番４号Ｎ＆Ｅ・ＢＬＤ．６Ｆ,,13,102,1040061,,,,,,,2024-01-10,1,,,,,ジギョウショウケイシエンキコウ,0
5804,7010401179590,新規,0,2024-01-10,2024-01-10,株式会社ＭＡＩＳＯＮ　ＢＥＡＵＴＥ,,株式会社,東京都,港区,南青山４丁目１７番１４号ＶＡＬＯ南青山１０１,,13,103,1070062,,,,,,,2024-01-10,1,,,,,メゾンボーテ,0
5805,7010401179599,新規,0,2024-01-10,2024-01-10,ｎｅｗｍｏ株式会社,,株式会社,東京都,港区,虎ノ門５丁目９番１号麻布台ヒルズガーデンプラザＢ４階,,13,103,1050001,,,,,,,2024-01-10,1,,,,,ニューモ,0
5806,7010401179616,新規,0,2024-01-10,2024-01-10,株式会社ＭＹＶＩＳ,,株式会社,東京都,港区,浜松町２丁目２－１５浜松町ダイヤビル２階,,13,103,1050013,,,,,,,2024-01-10,1,,,,,マイビス,0
5807,7010401179624,新規,0,2024-01-10,2024-01-10,株式会社東京コンシェルジュ,,株式会社,東京都,港区,白金台５丁目１０番１６号２階,,13,103,1080071,,,,,,,2024-01-10,1,,,,,トウキョウコンシェルジュ,0
5811,7010403031683,新規,0,2024-01-10,2024-01-10,合同会社藤川商店,,合同会社,東京都,港区,南青山４丁目９番３号ＶＩＶＲＥ・ＡＯＹＡＭＡ３Ｆ,,13,103,1070062,,,,,,,2024-01-10,1,,,,,フジカワショウテン,0
5815,7010701045377,新規,0,2024-01-10,2024-01-10,株式会社Ｆｕｔｕｒ,,株式会社,東京都,品川区,東五反田２丁目１０番１号パークタワーグランスカイ３２１号,,13,109,1410022,,,,,,,2024-01-10,1,,,,,フチュール,0
5816,7010701045385,新規,0,2024-01-10,2024-01-10,ＥＣｓＰａｎｄ株式会社,,株式会社,東京都,品川区,西五反田１丁目２６番地２号五反田サンハイツ９１１,,13,109,1410031,,,,,,,2024-01-10,1,,,,,イクスパンド,0
5818,7010801034668,新規,0,2024-01-10,2024-01-10,株式会社和光内装,,株式会社,東京都,大田区,仲六郷３丁目２０番７号,,13,111,1440055,,,,,,,2024-01-10,1,,,,,ワコウナイソウ,0
5822,7011001159207,新規,0,2024-01-10,2024-01-10,Ｙａｍａｍｏｔｏ　Ｔｏｋｙｏ　Ｓｈｏｐ２株式会社,,株式会社,東京都,渋谷区,神宮前３丁目３０－６，Ｚｅｔ・Ｊｉｎｇｕｍａｅ，１Ｆ,,13,113,1500001,,,,,,,2024-01-10,1,,,,,ヤマモトトウキョウショップツー,0
5823,7011003018229,新規,0,2024-01-10,2024-01-10,合同会社ＴＤＴインベストメント,,合同会社,東京都,渋谷区,上原２丁目２３番１０号,,13,113,1510064,,,,,,,2024-01-10,1,,,,,ティーディーティーインベストメント,0
5829,7011101105663,新規,0,2024-01-10,2024-01-10,株式会社ｌｉｖｅ　ｕｐ,,株式会社,東京都,新宿区,新宿７丁目２７番４７号オルソ東新宿３０１,,13,104,1600022,,,,,,,2024-01-10,1,,,,,リヴアップ,0
5830,7011101105688,新規,0,2024-01-10,2024-01-10,株式会社ＮＥＸＴ,,株式会社,東京都,新宿区,新宿７丁目２０番６号１Ｆ,,13,104,1600022,,,,,,,2024-01-10,1,,,,,ネクスト,0
5831,7011101105705,新規,0,2024-01-10,2024-01-10,株式会社大筒木,,株式会社,東京都,新宿区,西新宿３丁目３番１３号西新宿水間ビル６階,,13,104,1600023,,,,,,,2024-01-10,1,,,,,オオツツキ,0
5832,7011101105738,新規,0,2024-01-10,2024-01-10,ＴＯＲ　Ｒｅａｌｔｙ　Ｉｎｖｅｓｔｍｅｎｔ加耀株式会社,,株式会社,東京都,新宿区,西新宿４丁目１１番２０号,,13,104,1600023,,,,,,,2024-01-10,1,,,,,ティーオーアールリアルティーインベストメントカヨウ,0
5833,7011101105746,新規,0,2024-01-10,2024-01-10,株式会社スプリ,,株式会社,東京都,新宿区,新宿１丁目２８番１７－１１０４号,,13,104,1600022,,,,,,,2024-01-10,1,,,,,スプリ,0
5834,7011101105754,新規,0,2024-01-10,2024-01-10,ＴＥＴＣＯ株式会社,,株式会社,東京都,新宿区,中井２丁目１１番５号,,13,104,1610035,,,,,,,2024-01-10,1,,,,,テトコ,0
5835,7011101105762,新規,0,2024-01-10,2024-01-10,株式会社Ｎｏｔｏ　Ｄｅｓｉｇｎ,,株式会社,東京都,新宿区,下落合２丁目６番１１号,,13,104,1610033,,,,,,,2024-01-10,1,,,,,ノトデザイン,0
5836,7011103013930,新規,0,2024-01-10,2024-01-10,合同会社しろくまメディカル,,合同会社,東京都,新宿区,若松町２５番１７－７０４号,,13,104,1620056,,,,,,,2024-01-10,1,,,,,シロクマメデイカル,0
5840,7011601027440,新規,0,2024-01-10,2024-01-10,株式会社ＨＧＳ,,株式会社,東京都,練馬区,氷川台４丁目５９番１２号,,13,120,1790084,,,,,,,2024-01-10,1,,,,,エイチジーエス,0
5842,7011701026904,新規,0,2024-01-10,2024-01-10,日中総合コンサルティング株式会社,,株式会社,東京都,江戸川区,中葛西５丁目２番２９ＯＦＦＩＣＥ５２２９ＢＬＤＧ．０４０１号室,,13,123,1340083,,,,,,,2024-01-10,1,,,,,ニッチュウソウゴウコンサルティング,0
5844,7011801043601,新規,0,2024-01-10,2024-01-10,ＧＡＳ　ＨＥＲＯ株式会社,,株式会社,東京都,葛飾区,西新小岩４丁目１４－１２マリオン新小岩４１２,,13,122,1240025,,,,,,,2024-01-10,1,,,,,ガスヒーロー,0
5846,7012403006351,新規,0,2024-01-10,2024-01-10,合同会社ＭＹグループ,,合同会社,東京都,小金井市,東町４丁目３８番地２４高橋ビルＢ１階,,13,210,1840011,,,,,,,2024-01-10,1,,,,,エムワイグループ,0
5847,7012701018024,新規,0,2024-01-10,2024-01-10,株式会社リリーフハーツ,,株式会社,東京都,東久留米市,中央町３丁目２３番１５号,,13,222,2030054,,,,,,,2024-01-10,1,,,,,リリーフハーツ,0
5851,7012803003279,新規,0,2024-01-10,2024-01-10,合同会社後藤興業,,合同会社,東京都,武蔵村山市,三ツ藤１丁目７１番地の４,,13,223,2080021,,,,,,,2024-01-10,1,,,,,ゴトウコウギョウ,0
5852,7013301051877,新規,0,2024-01-10,2024-01-10,株式会社アーチェロ,,株式会社,東京都,豊島区,高田２丁目１７番２０号サンシン目白ビル２階,,13,116,1710033,,,,,,,2024-01-10,1,,,,,アーチェロ,0
5854,7013303006945,新規,0,2024-01-10,2024-01-10,合同会社勝活企画,,合同会社,東京都,豊島区,高松１丁目７番４号ハイパインズ１０２号,,13,116,1710042,,,,,,,2024-01-10,1,,,,,ショウカツキカク,0
5860,7020001155198,新規,0,2024-01-10,2024-01-10,株式会社フィリックス,,株式会社,神奈川県,川崎市麻生区,黒川５７３番地１,,14,137,2150035,,,,,,,2024-01-10,1,,,,,フィリックス,0
5861,7020001155207,新規,0,2024-01-10,2024-01-10,Ｌ．Ｃ．Ｌ株式会社,,株式会社,神奈川県,横浜市金沢区,谷津町３４５番地サンフォレストオオサワ１０３号,,14,108,2360016,,,,,,,2024-01-10,1,,,,,エルシーエル,0
5866,7020003025300,新規,0,2024-01-10,2024-01-10,合同会社ＡＣＥ,,合同会社,神奈川県,川崎市高津区,久地８５３番地４４,,14,134,2130032,,,,,,,2024-01-10,1,,,,,エース,0
5867,7020003025309,新規,0,2024-01-10,2024-01-10,ＢＴ‐ＭＹＫＡ合同会社,,合同会社,神奈川県,横浜市都筑区,南山田２丁目２８番６６号,,14,118,2240029,,,,,,,2024-01-10,1,,,,,ビーティマイカ,0
5875,7021003014004,新規,0,2024-01-10,2024-01-10,合同会社ＰＲＩＳＥＮ,,合同会社,神奈川県,厚木市,岡田３丁目１６―２６,,14,212,2430021,,,,,,,2024-01-10,1,,,,,プライゼン,0
5880,7030001158002,新規,0,2024-01-10,2024-01-10,株式会社Ｆｏｒｔｕｎａ　Ｌａｎｄ,,株式会社,埼玉県,川口市,西川口１丁目３８番２３号,,11,203,3320021,,,,,,,2024-01-10,1,,,,,フォーチュナランド,0
5881,7030001158027,新規,0,2024-01-10,2024-01-10,株式会社プロスパー,,株式会社,埼玉県,川口市,東川口４丁目１７－７,,11,203,3330801,,,,,,,2024-01-10,1,,,,,プロスパー,0
5882,7030001158043,新規,0,2024-01-10,2024-01-10,株式会社ＲＥＡ,,株式会社,埼玉県,八潮市,緑町２丁目１１番地２１,,11,234,3400808,,,,,,,2024-01-10,1,,,,,レア,0
5890,7040003024052,新規,0,2024-01-10,2024-01-10,合同会社デスリザ,,合同会社,千葉県,千葉市花見川区,花園２丁目９番７号山本ビル２０２,,12,102,2620025,,,,,,,2024-01-10,1,,,,,デスリザ,0
5891,7040003024077,新規,0,2024-01-10,2024-01-10,合同会社リメイクハウス,,合同会社,千葉県,千葉市中央区,神明町２５－２君待橋マンション４０８,,12,101,2600022,,,,,,,2024-01-10,1,,,,,リメイクハウス,0
5892,7040003024093,新規,0,2024-01-10,2024-01-10,合同会社さくら会計アシスト,,合同会社,千葉県,成田市,囲護台１２５１番地３４,,12,211,2860035,,,,,,,2024-01-10,1,,,,,サクラカイケイアシスト,0
5893,7060001036700,新規,0,2024-01-10,2024-01-10,株式会社みらい開発,,株式会社,栃木県,下野市,中川島１７３番地,,09,216,3230104,,,,,,,2024-01-10,1,,,,,ミライカイハツ,0
5894,7060003004861,新規,0,2024-01-10,2024-01-10,合同会社ＬＦＬ,,合同会社,栃木県,小山市,大字南飯田２８９番地４,,09,208,3290213,,,,,,,2024-01-10,1,,,,,エルエフエル,0
5896,7070001041245,新規,0,2024-01-10,2024-01-10,結株式会社,,株式会社,群馬県,高崎市,剣崎町２９６番地,,10,202,3700883,,,,,,,2024-01-10,1,,,,,ユイ,0
5897,7070001041253,新規,0,2024-01-10,2024-01-10,株式会社白鳥薬局,,株式会社,群馬県,太田市,高林南町７０１番１,,10,205,3730827,,,,,,,2024-01-10,1,,,,,ハクチョウヤッキョク,0
5898,7070001041261,新規,0,2024-01-10,2024-01-10,株式会社ＭＯＮＥＴ,,株式会社,群馬県,前橋市,西片貝町５丁目２１番地９ＡＳＪビル１０５,,10,201,3710013,,,,,,,2024-01-10,1,,,,,モネ,0
6221,7080401026927,新規,0,2024-01-10,2024-01-10,株式会社遠州クリエイト,,株式会社,静岡県,浜松市中央区,桜台１丁目１３番１号,,22,138,4311104,,,,,,,2024-01-10,1,,,,,エンシュウクリエイト,0
6628,7100001037108,新規,0,2024-01-10,2024-01-10,株式会社トラストトランスポートシステム,,株式会社,長野県,松本市,村井町北１丁目２番５２号Ｂ１０１号,,20,202,3990035,,,,,,,2024-01-10,1,,,,,トラストトランスポートシステム,0
6629,7100001037116,新規,0,2024-01-10,2024-01-10,株式会社阿多解体,,株式会社,長野県,下伊那郡豊丘村,大字神稲９１３７番地８,,20,416,3993202,,,,,,,2024-01-10,1,,,,,アタカイタイ,0
6631,7100005013105,新規,0,2024-01-10,2024-01-10,一般社団法人シアターランポン,,その他の設立登記法人,長野県,松本市,埋橋１丁目２－８メゾン花岡２１０,,20,202,3900813,,,,,,,2024-01-10,1,,,,,シアターランポン,0
6632,7110001038071,新規,0,2024-01-10,2024-01-10,株式会社和康,,株式会社,新潟県,五泉市,青橋１１７３番地１,,15,218,9591755,,,,,,,2024-01-10,1,,,,,ワコウ,0
6642,7120001261127,新規,0,2024-01-10,2024-01-10,株式会社ＳｉＬａ,,株式会社,大阪府,大阪市中央区,島町１丁目２－３,,27,128,5400034,,,,,,,2024-01-10,1,,,,,シーラ,0
6643,7120005024083,新規,0,2024-01-10,2024-01-10,土地家屋調査士法人エール,,その他の設立登記法人,大阪府,大阪市中央区,内平野町２丁目４番５号内平野中央ビル５階,,27,128,5400037,,,,,,,2024-01-10,1,,,,,エール,0
6646,7120101068827,新規,0,2024-01-10,2024-01-10,株式会社北野電工,,株式会社,大阪府,富田林市,甲田２丁目１３番９号,,27,214,5840036,,,,,,,2024-01-10,1,,,,,キタノデンコウ,0
6647,7120101068843,新規,0,2024-01-10,2024-01-10,ナーシング＆ウェルフェア株式会社,,株式会社,大阪府,堺市美原区,平尾７４番地１岸埜マンション２０１号,,27,147,5870022,,,,,,,2024-01-10,1,,,,,ナーシングアンドウェルフェア,0
6649,7120103005613,新規,0,2024-01-10,2024-01-10,雄輝合同会社,,合同会社,大阪府,岸和田市,松風町１３番５８号春木ｗｏｒｋｓｐａｃｅ１０１号室,,27,202,5960021,,,,,,,2024-01-10,1,,,,,ユウキ,0
6657,7130005016971,新規,0,2024-01-10,2024-01-10,一般社団法人国際禅普及協会,,その他の設立登記法人,京都府,京都市右京区,花園妙心寺町３５番地,,26,108,6168035,,,,,,,2024-01-10,1,,,,,コクサイゼンフキュウキョウカイ,0
6663,7140001132929,新規,0,2024-01-10,2024-01-10,株式会社大垣花店,,株式会社,兵庫県,西宮市,馬場町５番７号,,28,204,6620915,,,,,,,2024-01-10,1,,,,,オオガキハナテン,0
6664,7140001132937,新規,0,2024-01-10,2024-01-10,ＡＩＲＬＩＧＨＴ株式会社,,株式会社,兵庫県,神戸市兵庫区,島上町２丁目２番１７号,,28,105,6520833,,,,,,,2024-01-10,1,,,,,エアライト,0
6665,7140001132945,新規,0,2024-01-10,2024-01-10,今一商会株式会社,,株式会社,兵庫県,丹波篠山市,東吹１０６４番地,,28,221,6692202,,,,,,,2024-01-10,1,,,,,イマイチショウカイ,0
6669,7140005026904,新規,0,2024-01-10,2024-01-10,税理士法人北村八木会計,,その他の設立登記法人,兵庫県,神戸市中央区,多聞通３丁目２番６号長澤ビル３Ｆ,,28,110,6500015,,,,,,,2024-01-10,1,,,,,キタムラヤギカイケイ,0
6681,7180001159654,新規,0,2024-01-10,2024-01-10,株式会社バンシステム,,株式会社,愛知県,名古屋市守山区,金屋１丁目５番１２号,,23,113,4630072,,,,,,,2024-01-10,1,,,,,バンシステム,0
6682,7180001159662,新規,0,2024-01-10,2024-01-10,Ｒｏｓｅｌｌｅ株式会社,,株式会社,愛知県,名古屋市北区,喜惣治１丁目２９６番地,,23,103,4620065,,,,,,,2024-01-10,1,,,,,ローゼル,0
6683,7180001159679,新規,0,2024-01-10,2024-01-10,株式会社サムライ商事,,株式会社,愛知県,名古屋市中村区,名駅３丁目４番１０号アルティメイト名駅１ｓｔ２階,,23,105,4500002,,,,,,,2024-01-10,1,,,,,サムライショウジ,0
6687,7180003026200,新規,0,2024-01-10,2024-01-10,ＥｓｃｏｒｔＧｒｏｕｐ合同会社,,合同会社,愛知県,名古屋市中区,栄４丁目１１番２３号,,23,106,4600008,,,,,,,2024-01-10,1,,,,,エスコートグループ,0
6691,7180303005969,新規,0,2024-01-10,2024-01-10,小林塗工合同会社,,合同会社,愛知県,田原市,長沢町馬道下１８番地３,,23,231,4413609,,,,,,,2024-01-10,1,,,,,コバヤシトコウ,0
6698,7200003006199,新規,0,2024-01-10,2024-01-10,梅鉢屋合同会社,,合同会社,岐阜県,岐阜市,室町２４番地,,21,201,5008075,,,,,,,2024-01-10,1,,,,,ウメバチヤ,0
6703,7240001062637,新規,0,2024-01-10,2024-01-10,株式会社マエダハウジングホールディングス,,株式会社,広島県,広島市中区,八丁堀１０番１４号,,34,101,7300013,,,,,,,2024-01-10,1,,,,,マエダハウジングホールディングス,0
6706,7240005015698,新規,0,2024-01-10,2024-01-10,広島市安芸地区環境事業協同組合,,その他の設立登記法人,広島県,広島市南区,東雲本町２丁目６番１６号,,34,103,7340023,,,,,,,2024-01-10,1,,,,,ヒロシマシアキチクカンキョウ,0
6719,7290001104319,新規,0,2024-01-10,2024-01-10,サンプラウ株式会社,,株式会社,福岡県,那珂川市,大字成竹２２６番３,,40,231,8111235,,,,,,,2024-01-10,1,,,,,,0
6723,7290003014821,新規,0,2024-01-10,2024-01-10,合同会社うえだ本舗,,合同会社,福岡県,福岡市中央区,薬院伊福町１１番１号ＫＡＺビル２Ｆ,,40,133,8100025,,,,,,,2024-01-10,1,,,,,ウエダホンポ,0
6724,7290003014838,新規,0,2024-01-10,2024-01-10,合同会社アクテリア,,合同会社,福岡県,福岡市東区,下原４丁目１７番１－１０１号フローラ５,,40,131,8130002,,,,,,,2024-01-10,1,,,,,アクテリア,0
6727,7290801030185,新規,0,2024-01-10,2024-01-10,株式会社ＣＲＵＮＫ,,株式会社,福岡県,行橋市,南泉６丁目７番２２号,,40,213,8240036,,,,,,,2024-01-10,1,,,,,クランク,0
6728,7290801030193,新規,0,2024-01-10,2024-01-10,株式会社宵月コンサルティング,,株式会社,福岡県,築上郡築上町,大字椎田９６８番地１５,,40,647,8290301,,,,,,,2024-01-10,1,,,,,ショウゲツコンサルティング,0
6729,7290803004583,新規,0,2024-01-10,2024-01-10,Ａｍｉｓｔａｄ合同会社,,合同会社,福岡県,北九州市戸畑区,旭町５－１,,40,105,8040083,,,,,,,2024-01-10,1,,,,,アミスタッド,0
6734,7310001018788,新規,0,2024-01-10,2024-01-10,Ａｌｗａｙｓ　Ａｃｔ株式会社,,株式会社,長崎県,佐世保市,勝富町４番８号,,42,202,8570803,,,,,,,2024-01-10,1,,,,,オールウェズアクト,0
6737,7340001026193,新規,0,2024-01-10,2024-01-10,株式会社ｓｏｗａｋａ,,株式会社,鹿児島県,霧島市,溝辺町麓５６０番地１４,,46,218,8996404,,,,,,,2024-01-10,1,,,,,ソワカ,0
6745,7370001050793,新規,0,2024-01-10,2024-01-10,株式会社結創,,株式会社,宮城県,仙台市宮城野区,東仙台５丁目３７番１６号ロイヤルマリンジ東仙台１０５,,04,102,9830833,,,,,,,2024-01-10,1,,,,,ユウソウ,0
6759,7400001016510,新規,0,2024-01-10,2024-01-10,株式会社宮崎商店ホールディングス,,株式会社,岩手県,盛岡市,城西町９番２２号,,03,201,0200044,,,,,,,2024-01-10,1,,,,,ミヤザキショウテンホールディングス,0
6761,7410001013688,新規,0,2024-01-10,2024-01-10,株式会社児玉ファーム,,株式会社,秋田県,山本郡三種町,鹿渡字石田１６０番地,,05,348,0182104,,,,,,,2024-01-10,1,,,,,コダマファーム,0
6776,7700150115033,新規,0,2024-01-10,2024-01-10,ｓｈｅｎｚｈｅｎｓｈｉｊｉｅｎｕｏｗｅｉｄｉａｎｚｉｋｅｊｉｆａｚｈａｎｙｏｕｘｉａｎｇｏｎｇｓｉ,,外国会社等,,,,,,,,Ｂｌｏｃｋ　Ａ，３／Ｆ，Ｂｕｉｌｄｉｎｇ　Ｄ，Ｇｏｎｇｃｈｕａｎｇｙｉｎｇ　Ｉｎｄｕｓｔｒｉａｌ　Ａｒｅａ，Ｂａｏｄａｎ　Ｒｏａｄ　Ｎｏ．８，，Ｎａｎｗａｎ　Ｓｔｒｅｅｔ，Ｌｏｎｇｇａｎｇ，Ｓｈｅｎｚｈｅｎ,,,,,,2024-01-10,1,,,,,シェンジェンシージェノウエイディエンズーケージファージャンヨウシエンゴーンスー,0
6777,7700150123267,新規,0,2024-01-10,2024-01-10,ＳｈｅｎｚｈｅｎｓｈｉＭａｎＢｕＹｕｎＤｕａｎＭａｏＹｉＹｏｕＸｉａｎＧｏｎｇＳｉ,,外国会社等,,,,,,,,Ｂ２１６Ａ，２／Ｆ，Ｂｕｉｌｄｉｎｇ　Ｂ，Ａｏｓｈｉｄａ　Ｍａｎｓｉｏｎ，Ｎｏ．４　Ｍｅｉｚｈｉ　Ｒｏａｄ，Ｍｅｉｔｉｎｇ　Ｃｏｍｍｕｎｉｔｙ，Ｍｅｉｌｉｎ　Ｓｔｒｅｅｔ，Ｆｕｔｉａｎ　Ｄｉｓｔｒｉｃｔ，Ｓｈｅｎｚｈｅｎ　Ｃｉｔｙ，Ｇｕａｎｇｄｏｎｇ　Ｐｒｏｖｉｎｃｅ，Ｐ．Ｒ．Ｃｈｉｎａ　５１８０００,,,,,,2024-01-10,1,,,,,シェンジェンシマンブユンドゥァンマオイーヨウシェンゴンスー,0
6786,8010001241122,新規,0,2024-01-10,2024-01-10,株式会社エナジーパートナー,,株式会社,東京都,中央区,日本橋本石町２丁目１番１号,,13,102,1030021,,,,,,,2024-01-10,1,,,,,エナジーパートナー,0
6787,8010001241304,新規,0,2024-01-10,2024-01-10,Ａｘｉｏｍ　Ｔｅｃｈｎｏｌｏｇｉｅｓ　Ｊａｐａｎ株式会社,,株式会社,東京都,中央区,新川１丁目２７番８号新川大原ビル８階,,13,102,1040033,,,,,,,2024-01-10,1,,,,,アクシオムテクノロジーズジャパン,0
6788,8010001241320,新規,0,2024-01-10,2024-01-10,とことこサービス株式会社,,株式会社,東京都,中央区,日本橋浜町２丁目１０番７－４０３号,,13,102,1030007,,,,,,,2024-01-10,1,,,,,トコトコサービス,0
6789,8010001241329,新規,0,2024-01-10,2024-01-10,安吉良商事株式会社,,株式会社,東京都,千代田区,岩本町１丁目１番６号渡東ビルディングＡＮＮＥＸＩＩ５０２号室,00133258,13,101,1010032,,,,,,,2024-01-10,1,,,,,アンキラショウジ,0
6790,8010001241337,新規,0,2024-01-10,2024-01-10,株式会社ライフミックス,,株式会社,東京都,文京区,本駒込６丁目２２番１７号,,13,105,1130021,,,,,,,2024-01-10,1,,,,,ライフミックス,0
6791,8010001241361,新規,0,2024-01-10,2024-01-10,株式会社モクシャ,,株式会社,東京都,中央区,銀座６丁目１３番１６号銀座ＷａｌｌビルＵＣＦ５階,,13,102,1040061,,,,,,,2024-01-10,1,,,,,モクシャ,0
6792,8010001241386,新規,0,2024-01-10,2024-01-10,株式会社モッチハック,,株式会社,東京都,中央区,日本橋室町１丁目１１番１２号７階,,13,102,1030022,,,,,,,2024-01-10,1,,,,,モッチハック,0
6810,8010401179499,新規,0,2024-01-10,2024-01-10,株式会社ｓｗｅｅｐ,,株式会社,東京都,港区,南青山３丁目２番４号セントラル青山Ｎｏ６－ＢＡ,,13,103,1070062,,,,,,,2024-01-10,1,,,,,スイープ,0
6811,8010401179549,新規,0,2024-01-10,2024-01-10,株式会社ＧＰＴ　ＭＥＤＩＡ　ＳＯＬＵＴＩＯＮ,,株式会社,東京都,港区,六本木７丁目１４番２３号ラウンドクロス六本木４,,13,103,1060032,,,,,,,2024-01-10,1,,,,,ジーピーティーメディアソリューション,0
6812,8010401179598,新規,0,2024-01-10,2024-01-10,ＦＬＯＷ株式会社,,株式会社,東京都,港区,赤坂２丁目２１番４号天翔赤坂ＡＮＮＥＸビル４階４０５－Ａ号室,,13,103,1070052,,,,,,,2024-01-10,1,,,,,フロー,0
6813,8010401179607,新規,0,2024-01-10,2024-01-10,株式会社ミカエル,,株式会社,東京都,港区,新橋２丁目２―４新橋パイオニアビル２五階,,13,103,1050004,,,,,,,2024-01-10,1,,,,,ミカエル,0
6814,8010401179615,新規,0,2024-01-10,2024-01-10,株式会社ＭＫテック,,株式会社,東京都,港区,南青山２丁目２番１５号,,13,103,1070062,,,,,,,2024-01-10,1,,,,,エムケーテック,0
6822,8010503007269,新規,0,2024-01-10,2024-01-10,Ｊｔｏｐｉａ合同会社,,合同会社,東京都,台東区,西浅草３丁目２７－１７飯村亭１０３,,13,106,1110035,,,,,,,2024-01-10,1,,,,,ジェイトピア,0
6824,8010601064443,新規,0,2024-01-10,2024-01-10,風標株式会社,,株式会社,東京都,江東区,木場５丁目１番５号メイプルハイム木場Ｂ１１２室,,13,108,1350042,,,,,,,2024-01-10,1,,,,,フウヒョウ,0
6825,8010701045351,新規,0,2024-01-10,2024-01-10,株式会社ＥＴＣ,,株式会社,東京都,品川区,戸越２丁目６番５号,,13,109,1420041,,,,,,,2024-01-10,1,,,,,イーティーシー,0
6828,8010801034667,新規,0,2024-01-10,2024-01-10,株式会社ＭＡＮＯ　ＴＯＫＹＯ,,株式会社,東京都,大田区,下丸子１丁目１５番２２－３１０号,,13,111,1460092,,,,,,,2024-01-10,1,,,,,マノトウキョウ,0
6830,8010901054482,新規,0,2024-01-10,2024-01-10,株式会社Ｓａｎｔａ　Ｃｌａｕｓ,,株式会社,東京都,世田谷区,用賀２丁目３０－７,,13,112,1580097,,,,,,,2024-01-10,1,,,,,サンタクロース,0
6831,8010901054499,新規,0,2024-01-10,2024-01-10,梨園庭株式会社,,株式会社,東京都,世田谷区,松原１丁目２０番１１－３０１号,,13,112,1560043,,,,,,,2024-01-10,1,,,,,ナシエンテイ,0
6843,8011101105712,新規,0,2024-01-10,2024-01-10,株式会社Ｆ４,,株式会社,東京都,新宿区,上落合１丁目１５番７－３０５号,,13,104,1610034,,,,,,,2024-01-10,1,,,,,エフフォー,0
6844,8011101105720,新規,0,2024-01-10,2024-01-10,株式会社ＲＥＡＬ,,株式会社,東京都,新宿区,高田馬場４丁目１番１号アップステージ２０２,,13,104,1690075,,,,,,,2024-01-10,1,,,,,リアル,0
6845,8011101105737,新規,0,2024-01-10,2024-01-10,ＴＯＲ　ＮＡ　ＳＡ株式会社,,株式会社,東京都,新宿区,西新宿４丁目１１番２０号,,13,104,1600023,,,,,,,2024-01-10,1,,,,,ティーオーアールナサ,0
6846,8011101105745,新規,0,2024-01-10,2024-01-10,ＰａｙＣｏｒｅ株式会社,,株式会社,東京都,新宿区,西新宿１丁目４－１１,,13,104,1600023,,,,,,,2024-01-10,1,,,,,ペイコア,0
6847,8011101105753,新規,0,2024-01-10,2024-01-10,株式会社半夏ＨＯＭＥ’Ｓ,,株式会社,東京都,新宿区,西新宿６丁目１２番７号ストーク新宿１階,,13,104,1600023,,,,,,,2024-01-10,1,,,,,ハンカホームス,0
6848,8011101105761,新規,0,2024-01-10,2024-01-10,株式会社Ｔｒａ‐ｖｅｒｓｅ,,株式会社,東京都,新宿区,四谷本塩町６番７号（あをばビル）,,13,104,1600003,,,,,,,2024-01-10,1,,,,,トラバース,0
6849,8011201025141,新規,0,2024-01-10,2024-01-10,百川国際株式会社,,株式会社,東京都,中野区,鷺宮６丁目２６番１９号,,13,114,1650032,,,,,,,2024-01-10,1,,,,,モモカワコクサイ,0
6854,8011403004224,新規,0,2024-01-10,2024-01-10,合同会社メロディ,,合同会社,東京都,板橋区,成増３丁目７番８号,,13,119,1750094,,,,,,,2024-01-10,1,,,,,メロディ,0
6856,8011601027431,新規,0,2024-01-10,2024-01-10,株式会社ワム,,株式会社,東京都,練馬区,中村２丁目１１番６号桂初マンション２０１,,13,120,1760024,,,,,,,2024-01-10,1,,,,,ワム,0
6863,8012401041390,新規,0,2024-01-10,2024-01-10,株式会社１ｓｔ　Ｄｅｓｉｇｎ,,株式会社,東京都,三鷹市,北野１丁目１－７２,,13,204,1810003,,,,,,,2024-01-10,1,,,,,ファーストデザイン,0
6865,8012403006350,新規,0,2024-01-10,2024-01-10,愈白合同会社,,合同会社,東京都,武蔵野市,境南町２丁目３－１４グローリア初穂武蔵境４０５号,,13,203,1800023,,,,,,,2024-01-10,1,,,,,ヨハク,0
6867,8012701018023,新規,0,2024-01-10,2024-01-10,株式会社柳沢興業,,株式会社,東京都,西東京市,南町３丁目３番９号エクセル田無１０３号,,13,229,1880012,,,,,,,2024-01-10,1,,,,,ヤギサワコウギョウ,0
6868,8012703002883,新規,0,2024-01-10,2024-01-10,Ｒａｎｕｎ合同会社,,合同会社,東京都,西東京市,ひばりが丘北３丁目３番２８号,,13,229,2020002,,,,,,,2024-01-10,1,,,,,ラナン,0
6869,8012801022882,新規,0,2024-01-10,2024-01-10,株式会社光輝,,株式会社,東京都,国立市,富士見台４丁目５１番１１号アプリコットハウス１０１号室,,13,215,1860003,,,,,,,2024-01-10,1,,,,,コウキ,0
6871,8012803003278,新規,0,2024-01-10,2024-01-10,カッコカリ合同会社,,合同会社,東京都,国分寺市,南町３丁目２３番１３号ハウスアメニティ１００－３０１,,13,214,1850021,,,,,,,2024-01-10,1,,,,,カッコカリ,0
6875,8013301051876,新規,0,2024-01-10,2024-01-10,株式会社ＡＰ,,株式会社,東京都,豊島区,東池袋３丁目８番８号Ｔ＆Ｇ東池袋マンション３０４,,13,116,1700013,,,,,,,2024-01-10,1,,,,,エーピー,0
6876,8013301051884,新規,0,2024-01-10,2024-01-10,株式会社シーサー,,株式会社,東京都,豊島区,西池袋２丁目４３番５号日神パレステージ西池袋６０５,,13,116,1710021,,,,,,,2024-01-10,1,,,,,シーサー,0
6878,8020001155222,新規,0,2024-01-10,2024-01-10,株式会社Ｋｅｙ　ｔｏ,,株式会社,神奈川県,横浜市中区,山下町２８－２ライオンズプラザ山下公園５１２,,14,104,2310023,,,,,,,2024-01-10,1,,,,,キイトゥ,0
6897,8030001157985,新規,0,2024-01-10,2024-01-10,株式会社オハナ,,株式会社,埼玉県,秩父市,番場町１６番９号,,11,207,3680041,,,,,,,2024-01-10,1,,,,,オハナ,0
6898,8030001158018,新規,0,2024-01-10,2024-01-10,株式会社サンクス不動産,,株式会社,埼玉県,ふじみ野市,上福岡１丁目１４番３９号,,11,245,3560004,,,,,,,2024-01-10,1,,,,,サンクスフドウサン,0
6899,8030001158042,新規,0,2024-01-10,2024-01-10,ｍｅｉ　ｓｅｌｅｃｔ　ｓｔｏｎｅ株式会社,,株式会社,埼玉県,和光市,下新倉３丁目２１番２１号,,11,229,3510111,,,,,,,2024-01-10,1,,,,,メイセレクトストーン,0
6900,8030001158075,新規,0,2024-01-10,2024-01-10,株式会社ＢＡＩＬＥＹ,,株式会社,埼玉県,川口市,西川口３丁目２番１４－９０３号スタジオデン西川口,,11,203,3320021,,,,,,,2024-01-10,1,,,,,ベイリ,0
6903,8030003023327,新規,0,2024-01-10,2024-01-10,合同会社エヌ,,合同会社,埼玉県,越谷市,レイクタウン５丁目５番５号,,11,222,3430828,,,,,,,2024-01-10,1,,,,,エヌ,0
6904,8030003023368,新規,0,2024-01-10,2024-01-10,合同会社スマートライフ,,合同会社,埼玉県,飯能市,大字岩渕６３３‐１,,11,209,3570048,,,,,,,2024-01-10,1,,,,,スマートライフ,0
6907,8040001131601,新規,0,2024-01-10,2024-01-10,ＳＨＩＯＤＡ株式会社,,株式会社,千葉県,船橋市,習志野台５丁目４１番２０－２号,,12,204,2740063,,,,,,,2024-01-10,1,,,,,シオダ,0
6911,8040003024076,新規,0,2024-01-10,2024-01-10,ＳＨＡＨ　ＢＡＫＨＴ合同会社,,合同会社,千葉県,佐倉市,上志津１７６１番地１コープ野村２棟２０１号,,12,212,2850846,,,,,,,2024-01-10,1,,,,,シャバクッタ,0
6912,8040005022235,新規,0,2024-01-10,2024-01-10,一般社団法人日本こども音読協会,,その他の設立登記法人,千葉県,船橋市,西船２丁目２０－１０,,12,204,2730031,,,,,,,2024-01-10,1,,,,,,0
6915,8060001036699,新規,0,2024-01-10,2024-01-10,株式会社さわこ,,株式会社,栃木県,下都賀郡壬生町,落合１丁目２１番１０号ステアハウスＣ号室,,09,361,3210218,,,,,,,2024-01-10,1,,,,,サワコ,0
6916,8060001036716,新規,0,2024-01-10,2024-01-10,株式会社郡司新聞店,,株式会社,栃木県,那須烏山市,小倉１１７５番地１,,09,215,3210528,,,,,,,2024-01-10,1,,,,,グンジシンブンテン,0
6922,8080101024453,新規,0,2024-01-10,2024-01-10,ケイネクスト株式会社,,株式会社,静岡県,沼津市,小諏訪２１３番地の９,,22,203,4100872,,,,,,,2024-01-10,1,,,,,ケイネクスト,0
7620,8100001037115,新規,0,2024-01-10,2024-01-10,株式会社ほし乃Ｆｏｏｄ　Ｌｉｎｋ,,株式会社,長野県,長野市,大字南長野県町４７５番地９,,20,201,3800838,,,,,,,2024-01-10,1,,,,,ホシノフードリンンク,0
7622,8100003007339,新規,0,2024-01-10,2024-01-10,ピーアンドエム合同会社,,合同会社,長野県,佐久市,岩村田２２４９番地２０,,20,217,3850022,,,,,,,2024-01-10,1,,,,,ピーアンドエム,0
7624,8110001038079,新規,0,2024-01-10,2024-01-10,株式会社ＮＩＳＵＫＥ,,株式会社,新潟県,新潟市南区,釣寄新３００番地１,,15,106,9501312,,,,,,,2024-01-10,1,,,,,ニスケ,0
7633,8120001260953,新規,0,2024-01-10,2024-01-10,日本ＰＵ商事発展株式会社,,株式会社,大阪府,大阪市城東区,成育２丁目１０番２６号朝日プラザアクシス城東１００５号,,27,118,5360007,,,,,,,2024-01-10,1,,,,,ニホンピーユーショウジハッテン,0
7634,8120001261159,新規,0,2024-01-10,2024-01-10,株式会社ＳＥＬＦ　ＧＲＯＷＴＨ,,株式会社,大阪府,大阪市西区,北堀江３丁目１２番３１号,,27,106,5500014,,,,,,,2024-01-10,1,,,,,セルフグロウス,0
7638,8120101068826,新規,0,2024-01-10,2024-01-10,ＡＬＫ株式会社,,株式会社,大阪府,松原市,天美北２丁目５番６号,,27,217,5800031,,,,,,,2024-01-10,1,,,,,エーエルケー,0
7639,8120103005620,新規,0,2024-01-10,2024-01-10,合同会社サテライト,,合同会社,大阪府,羽曳野市,南恵我之荘３丁目１２番４号,,27,222,5830885,,,,,,,2024-01-10,1,,,,,サテライト,0
7641,8122001037720,新規,0,2024-01-10,2024-01-10,株式会社森島精工,,株式会社,大阪府,八尾市,曙町１丁目１５１番地の１,,27,212,5810026,,,,,,,2024-01-10,1,,,,,モリシマセイコウ,0
7646,8130001076069,新規,0,2024-01-10,2024-01-10,株式会社Ｍａｃｈｉｙａｇｕｒａｓｈｉ,,株式会社,京都府,京都市下京区,不明門通上珠数屋町下る亀町２番地,,26,106,6008159,,,,,,,2024-01-10,1,,,,,マチヤグラシ,0
7647,8130001076093,新規,0,2024-01-10,2024-01-10,ロングラスティングライン株式会社,,株式会社,京都府,京都市右京区,嵯峨大覚寺門前登リ町２３番地－１,,26,108,6168412,,,,,,,2024-01-10,1,,,,,ロングラスティングライン,0
7648,8130003009217,新規,0,2024-01-10,2024-01-10,合同会社ユニティ,,合同会社,京都府,宇治市,槇島町十六３８番地の２１,,26,204,6110041,,,,,,,2024-01-10,1,,,,,ユニティ,0
7649,8130003009233,新規,0,2024-01-10,2024-01-10,合同会社キャピタル・グロース,,合同会社,京都府,城陽市,寺田市ノ久保２－４９３,,26,207,6100121,,,,,,,2024-01-10,1,,,,,キャピタルグロース,0
7662,8140001132928,新規,0,2024-01-10,2024-01-10,株式会社ぴーす・ふる,,株式会社,兵庫県,神戸市須磨区,白川台４丁目２７－２０白川台ハイツ１０１,,28,107,6540103,,,,,,,2024-01-10,1,,,,,ピースフル,0
7663,8140001132936,新規,0,2024-01-10,2024-01-10,株式会社ＭＯＴＯＮＯＲＩ,,株式会社,兵庫県,神戸市北区,惣山町５丁目３番地の７,,28,109,6511145,,,,,,,2024-01-10,1,,,,,,0
7664,8140001132944,新規,0,2024-01-10,2024-01-10,Ｗｉｓｄｏｍ　Ｅｖｏｌｕｔｉｏｎ　Ｃｏｍｐａｎｙ株式会社,,株式会社,兵庫県,神戸市中央区,御幸通８丁目１番６号神戸国際会館２２Ｆ,,28,110,6510087,,,,,,,2024-01-10,1,,,,,ウィズダムエヴォルーションカンパニー,0
7666,8140003020024,新規,0,2024-01-10,2024-01-10,合同会社ＴＡ　Ｍａｎａｇｅｍｅｎｔ,,合同会社,兵庫県,神戸市東灘区,住吉東町２丁目４番１８－４０４号,,28,101,6580052,,,,,,,2024-01-10,1,,,,,ティーエーマネジメント,0
7667,8140005026894,新規,0,2024-01-10,2024-01-10,医療法人社団つじリウマチ科内科,,その他の設立登記法人,兵庫県,神戸市灘区,岩屋北町７丁目３番２号ＪＲ灘駅ビル２階,,28,102,6570846,,,,,,,2024-01-10,1,,,,,ツジリウマチカナイカ,0
7668,8140005026903,新規,0,2024-01-10,2024-01-10,医療法人社団やなぎさわ眼科,,その他の設立登記法人,兵庫県,神戸市灘区,篠原北町１丁目１番５号シャーメゾン六甲山手１階,,28,102,6570068,,,,,,,2024-01-10,1,,,,,ヤナギサワガンカ,0
7670,8160001025626,新規,0,2024-01-10,2024-01-10,株式会社中日本企画開発,,株式会社,滋賀県,甲賀市,甲南町希望ケ丘２丁目２３番地１,,25,209,5203333,,,,,,,2024-01-10,1,,,,,ナカニホンキカクカイハツ,0
7682,8180001159653,新規,0,2024-01-10,2024-01-10,株式会社ムスコノプロダクション,,株式会社,愛知県,名古屋市中村区,日比津町２丁目８番１４号ＤＵＰＬＥＸ吉川１,,23,105,4530061,,,,,,,2024-01-10,1,,,,,ムスコノプロダクション,0
7683,8180001159661,新規,0,2024-01-10,2024-01-10,株式会社坂飛,,株式会社,愛知県,名古屋市緑区,浦里１丁目１２５番地の２,,23,114,4580847,,,,,,,2024-01-10,1,,,,,バンショウ,0
7684,8180001159678,新規,0,2024-01-10,2024-01-10,株式会社ジーハーツ,,株式会社,愛知県,小牧市,大字三ツ渕２０２５番地２,,23,219,4850075,,,,,,,2024-01-10,1,,,,,ジーハーツ,0
7687,8180003026190,新規,0,2024-01-10,2024-01-10,合同会社ＬＥＧＡＬ　ＳＱＵＡＲＥ,,合同会社,愛知県,名古屋市熱田区,神宮３丁目７番１号べんてんビル５階Ｅ号室,,23,109,4560031,,,,,,,2024-01-10,1,,,,,リーガルスクウェア,0
7688,8180003026199,新規,0,2024-01-10,2024-01-10,合同会社富吉,,合同会社,愛知県,名古屋市中川区,馬手町２丁目８０番地,,23,110,4540845,,,,,,,2024-01-10,1,,,,,トミキチ,0
7691,8180301038193,新規,0,2024-01-10,2024-01-10,株式会社ＳＴＡＲ,,株式会社,愛知県,豊田市,柿本町５丁目５番地４,,23,211,4710855,,,,,,,2024-01-10,1,,,,,スター,0
7693,8180303005968,新規,0,2024-01-10,2024-01-10,合同会社とんぼの杜,,合同会社,愛知県,豊橋市,中原町字東山７３番地２,,23,201,4413106,,,,,,,2024-01-10,1,,,,,トンボノモリ,0
7695,8190003004550,新規,0,2024-01-10,2024-01-10,合同会社明智,,合同会社,三重県,津市,垂水２７７２番地７３,,24,201,5140821,,,,,,,2024-01-10,1,,,,,メイチ,0
7698,8240001062636,新規,0,2024-01-10,2024-01-10,株式会社ＨＡＲＥＴＡ,,株式会社,広島県,広島市中区,白島北町１６番２５号２階,,34,101,7300001,,,,,,,2024-01-10,1,,,,,ハレタ,0
7705,8260001038642,新規,0,2024-01-10,2024-01-10,株式会社カーコレクションエムエム本舗,,株式会社,岡山県,岡山市南区,山田２４８番地１０,,33,104,7010202,,,,,,,2024-01-10,1,,,,,カーコレクションエムエムホンポ,0
7713,8290001104029,新規,0,2024-01-10,2024-01-10,日本ＡＭＧ電子株式会社,,株式会社,福岡県,福岡市西区,大字徳永５８７－３,,40,135,8190375,,,,,,,2024-01-10,1,,,,,ニホンエーエムジーデンシ,0
7714,8290001104243,新規,0,2024-01-10,2024-01-10,株式会社ＨＥＲＩＴＡＧＥ,,株式会社,福岡県,大野城市,筒井１丁目１２番１９号,,40,219,8160931,,,,,,,2024-01-10,1,,,,,ヘリテージ,0
7715,8290001104276,新規,0,2024-01-10,2024-01-10,株式会社Ｆｒｅｅ　Ｓｔｙｌｅ　Ｌａｂｏ,,株式会社,福岡県,福岡市中央区,今泉１丁目１番４号,,40,133,8100021,,,,,,,2024-01-10,1,,,,,フリースタイルラボ,0
7716,8290001104284,新規,0,2024-01-10,2024-01-10,株式会社ＰＡＮＥＪＡＰＡＮ,,株式会社,福岡県,福岡市中央区,天神２丁目２番１２号Ｔ＆Ｊビルディング７Ｆ,,40,133,8100001,,,,,,,2024-01-10,1,,,,,パンジャパン,0
7717,8290001104301,新規,0,2024-01-10,2024-01-10,株式会社モーターランドＨＩＳＡＹＡＭＡ,,株式会社,福岡県,糟屋郡久山町,大字山田１９２１番地７,,40,348,8112502,,,,,,,2024-01-10,1,,,,,モーターランドヒサヤマ,0
7724,8290003014829,新規,0,2024-01-10,2024-01-10,合同会社ＨＡＷＡＩ,,合同会社,福岡県,久留米市,三潴町早津崎８０５番地２,,40,203,8300101,,,,,,,2024-01-10,1,,,,,ハワイ,0
7730,8300001013582,新規,0,2024-01-10,2024-01-10,株式会社森工業,,株式会社,佐賀県,唐津市,呼子町加部島３７２５番地１,,41,202,8470305,,,,,,,2024-01-10,1,,,,,モリコウギョウ,0
7736,8320001020222,新規,0,2024-01-10,2024-01-10,株式会社アリコーンテック,,株式会社,大分県,由布市,庄内町直野内山１０９６番地,,44,213,8795424,,,,,,,2024-01-10,1,,,,,アリコーンテック,0
7739,8330003010146,新規,0,2024-01-10,2024-01-10,合同会社Ｓｅｃｏｎｄ　ｌｉｎｅ,,合同会社,熊本県,熊本市東区,長嶺南３丁目４番６３－４０６号コアマンション長嶺南レクシア,,43,102,8618039,,,,,,,2024-01-10,1,,,,,セカンドライン,0
7746,8370003006438,新規,0,2024-01-10,2024-01-10,合同会社ＣｏＣｏ　Ｃｏｍｐａｎｙ,,合同会社,宮城県,柴田郡大河原町,字東新町１４番地３,,04,321,9891223,,,,,,,2024-01-10,1,,,,,ココカンパニー,0
7757,8400005008379,新規,0,2024-01-10,2024-01-10,一般社団法人カナカン漁業振興会,,その他の設立登記法人,岩手県,宮古市,中里団地１２番１１号,,03,202,0270093,,,,,,,2024-01-10,1,,,,,カナカンギョギョウシンコウカイ,0
7765,8460103001585,新規,0,2024-01-10,2024-01-10,合同会社ＳＮＯＷＳ,,合同会社,北海道,帯広市,西十五条南３７丁目１番地３３,,01,207,0800025,,,,,,,2024-01-10,1,,,,,スノウズ,0
7766,8470001019968,新規,0,2024-01-10,2024-01-10,株式会社イース,,株式会社,香川県,高松市,丸亀町６番地１フェスタ１ビル２階,,37,201,7600029,,,,,,,2024-01-10,1,,,,,イース,0
7768,8470003002550,新規,0,2024-01-10,2024-01-10,合同会社ブレスカインドネス,,合同会社,香川県,高松市,川島東町１７９０番地４,,37,201,7610443,,,,,,,2024-01-10,1,,,,,ブレスカインドネス,0
7769,8470005006541,新規,0,2024-01-10,2024-01-10,司法書士法人なかがわ事務所,,その他の設立登記法人,香川県,丸亀市,金倉町１４３２番地３,,37,202,7630053,,,,,,,2024-01-10,1,,,,,ナカガワジムショ,0
7772,8490001010669,新規,0,2024-01-10,2024-01-10,株式会社しまんとｔａｓｔｙ,,株式会社,高知県,四万十市,佐田４９２番地１,,39,210,7871106,,,,,,,2024-01-10,1,,,,,シマントテイスティ,0
7773,8700150114579,新規,0,2024-01-10,2024-01-10,Ｙｅｓｃｏｍ　ＵＳＡ，Ｉｎｃ．,,外国会社等,,,,,,,,１８５　Ｎ　Ｓｕｎｓｅｔ　Ａｖｅ，Ｃｉｔｙ　ｏｆ　Ｉｎｄｕｓｔｒｙ，ＣＡ　９１７４４,,,,,,2024-01-10,1,,,,,イエスコムユーエスエーインク,0
7774,8700150123266,新規,0,2024-01-10,2024-01-10,ＨＡＮＧＺＨＯＵ　ＪＩＣＨＡＯ　ＣＯ．，ＬＴＤ,,外国会社等,,,,,,,,ｚｈｅｊｉａｎｇｓｈｅｎｇｈａｎｇｚｈｏｕｓｈｉｂｉｎｊｉａｎｇｑｕｊｉａｎｇｎａｎｄａｄａｏ３８０ｈａｏ１ｚｈｕａｎｇｓｈｉｃｅｎｇ１００１ｓｈｉ,,,,,,2024-01-10,1,,,,,コウシュウキチョウボウエキカンパニーリミティッド,0
7775,8700150123274,新規,0,2024-01-10,2024-01-10,ｓｈｅｎｚｈｅｎｓｈｉｄａｗｏｙｕｎｄｕｘｉｅｋｅｊｉｙｏｕｘｉａｎｇｏｎｇｓｉ,,外国会社等,,,,,,,,Ｂａｏａｎ，Ｘｉｎａｎ，ＪｉｅＤａｏ　ＬｏｎｇＪｉｎｇ　Ｅｒｌｕ　３Ｈａｏ　ＺｈｏｎｇＬｉａｎｇＪｉＴｕａｎＤａＳｈａ１８０１　Ｓｈｅｎｚｈｅｎ　Ｇｕａｎｇｄｏｎｇ　５１８０００　ＣＮ,,,,,,2024-01-10,1,,,,,シェンジェンシーダーウオインドゥーシエコージーヨウシエンゴンスー,0
7780,9010001241220,新規,0,2024-01-10,2024-01-10,ＰＩＣＫ‐ＵＰ株式会社,,株式会社,東京都,中央区,銀座１丁目２２番１１号銀座大竹ビジデンス２Ｆ,,13,102,1040061,,,,,,,2024-01-10,1,,,,,ピックアップ,0
7781,9010001241294,新規,0,2024-01-10,2024-01-10,クローバー・ビズ株式会社,,株式会社,東京都,中央区,京橋２丁目２番１号,,13,102,1040031,,,,,,,2024-01-10,1,,,,,クローバービズ,0
7782,9010001241328,新規,0,2024-01-10,2024-01-10,山田アンドパートナーズアドバイザリー株式会社,,株式会社,東京都,千代田区,丸の内１丁目８番１号丸の内トラストタワーＮ館,,13,101,1000005,,,,,,,2024-01-10,1,,,,,ヤマダアンドパートナーズアドバイザリー,0
7783,9010001241336,新規,0,2024-01-10,2024-01-10,株式会社一,,株式会社,東京都,中央区,日本橋浜町３丁目２０番２－６０６号,,13,102,1030007,,,,,,,2024-01-10,1,,,,,イチ,0
7784,9010001241360,新規,0,2024-01-10,2024-01-10,Ｈ２Ｔ２株式会社,,株式会社,東京都,中央区,銀座１丁目１２番４号Ｎ＆ＥＢＬＤ．７階,,13,102,1040061,,,,,,,2024-01-10,1,,,,,エイチツーティーツー,0
7790,9010003042600,新規,0,2024-01-10,2024-01-10,並木通り５丁目合同会社,,合同会社,東京都,千代田区,丸の内３丁目４番１号,,13,101,1000005,,,,,,,2024-01-10,1,,,,,ナミキドオリゴチョウメ,0
7793,9010005037706,新規,0,2024-01-10,2024-01-10,一般社団法人女神の呼吸,,その他の設立登記法人,東京都,中央区,銀座７丁目１５番８号タウンハイツ銀座４０６,,13,102,1040061,,,,,,,2024-01-10,1,,,,,メガミノコキュウ,0
7794,9010005037714,新規,0,2024-01-10,2024-01-10,一般社団法人中小企業経営支援アドバイザー協会,,その他の設立登記法人,東京都,中央区,銀座１丁目１２番４号Ｎ＆ＥＢＬＤ．７階,,13,102,1040061,,,,,,,2024-01-10,1,,,,,チュウショウキギョウケイエイシエンアドバイザーキョウカイ,0
7803,9010401179507,新規,0,2024-01-10,2024-01-10,Ｚａｎ株式会社,,株式会社,東京都,港区,六本木３丁目１４－１４ＶＯＲＴ六本木ｂｒｉｌｌｅｒ３階,,13,103,1060032,,,,,,,2024-01-10,1,,,,,ザン,0
7804,9010401179589,新規,0,2024-01-10,2024-01-10,株式会社デリシャスライフ,,株式会社,東京都,港区,芝３丁目１５番４号,,13,103,1050014,,,,,,,2024-01-10,1,,,,,デリシャスライフ,0
7805,9010401179597,新規,0,2024-01-10,2024-01-10,ＱＳｉｍｕｌａｔｅ　Ｊａｐａｎ株式会社,,株式会社,東京都,港区,六本木７丁目３番８号,,13,103,1060032,,,,,,,2024-01-10,1,,,,,キューシミュレイトジャパン,0
7806,9010401179606,新規,0,2024-01-10,2024-01-10,株式会社ＲＥＳＩＧＲＩＴ,,株式会社,東京都,港区,南青山３丁目１番３６号青山丸竹ビル６Ｆ,,13,103,1070062,,,,,,,2024-01-10,1,,,,,レジグリット,0
7807,9010401179614,新規,0,2024-01-10,2024-01-10,株式会社ＮＡＰＩＲＥ,,株式会社,東京都,港区,南青山３丁目１番３６号青山丸竹ビル６Ｆ,,13,103,1070062,,,,,,,2024-01-10,1,,,,,ネイピア,0
7813,9010403031673,新規,0,2024-01-10,2024-01-10,合同会社喜玲,,合同会社,東京都,港区,白金６丁目１６番２０号,,13,103,1080072,,,,,,,2024-01-10,1,,,,,キレイ,0
7814,9010403031681,新規,0,2024-01-10,2024-01-10,Ｐｕｒｏ＆Ｌｕｍｉ合同会社,,合同会社,東京都,港区,南青山４丁目１８番１１号フォレストヒルズイーストウィング２Ｆ,,13,103,1070062,,,,,,,2024-01-10,1,,,,,ピューロアンドルミ,0
7815,9010403031707,新規,0,2024-01-10,2024-01-10,ＫＳＡＴ　Ｊａｐａｎ合同会社,,合同会社,東京都,港区,虎ノ門４丁目３番１号城山トラストタワー２１階,,13,103,1050001,,,,,,,2024-01-10,1,,,,,ケイサットジャパン,0
7821,9010501051598,新規,0,2024-01-10,2024-01-10,Ｉｎｆｉｎｉｔｙ　Ｈｏｌｄｉｎｇｓ株式会社,,株式会社,東京都,台東区,上野２丁目７番７号,,13,106,1100005,,,,,,,2024-01-10,1,,,,,インフィニティホールディングス,0
7824,9010603010568,新規,0,2024-01-10,2024-01-10,グロース・プゥラット合同会社,,合同会社,東京都,江東区,古石場２丁目５番１０－６０４号,,13,108,1350045,,,,,,,2024-01-10,1,,,,,グロースプゥラット,0
7827,9010701045342,新規,0,2024-01-10,2024-01-10,ｗ．ｋｅｎｔｏ株式会社,,株式会社,東京都,品川区,大崎３丁目１番５号ルミネ五反田第２・２０２号室,,13,109,1410032,,,,,,,2024-01-10,1,,,,,ダブリュードットケント,0
7828,9010703007010,新規,0,2024-01-10,2024-01-10,合同会社ＳＫＫＬ,,合同会社,東京都,品川区,東品川４丁目１１番３６－１８２３号,,13,109,1400002,,,,,,,2024-01-10,1,,,,,エスケーケーエル,0
7833,9011001158768,新規,0,2024-01-10,2024-01-10,株式会社ＭＳＫｉｌｌ,,株式会社,東京都,渋谷区,神南１丁目５－６－４０１,,13,113,1500041,,,,,,,2024-01-10,1,,,,,エムスキル,0
7834,9011001159221,新規,0,2024-01-10,2024-01-10,株式会社サラトガコンサルティング,,株式会社,東京都,目黒区,八雲１丁目１０番１１号,,13,110,1520023,,,,,,,2024-01-10,1,,,,,サラトガコンサルティング,0
7836,9011005010330,新規,0,2024-01-10,2024-01-10,特定非営利活動法人ユーススポーツサポート,,その他の設立登記法人,東京都,目黒区,中目黒２丁目６番２４号プレスティージ２０３,,13,110,1530061,,,,,,,2024-01-10,1,,,,,ユーススポーツサポート,0
7841,9011101105736,新規,0,2024-01-10,2024-01-10,株式会社Ｅｍｅｒａｌｄｔｈｒｅｅ,,株式会社,東京都,新宿区,西新宿７丁目１８番５号ＶＯＲＴ西新宿５０２,,13,104,1600023,,,,,,,2024-01-10,1,,,,,エメラルドスリー,0
7842,9011101105760,新規,0,2024-01-10,2024-01-10,株式会社ＢＡＫＯＫＯ,,株式会社,東京都,新宿区,大久保２丁目２５番３５号,,13,104,1690072,,,,,,,2024-01-10,1,,,,,バココ,0
7843,9011103013937,新規,0,2024-01-10,2024-01-10,ＪＭＭ合同会社,,合同会社,東京都,新宿区,舟町１番地８シティタワー四谷１００１,,13,104,1600006,,,,,,,2024-01-10,1,,,,,ジェイエムエム,0
7848,9011403004223,新規,0,2024-01-10,2024-01-10,合同会社シルク,,合同会社,東京都,板橋区,小茂根２丁目２３番１号廣田ビル１階,,13,119,1730037,,,,,,,2024-01-10,1,,,,,シルク,0
7850,9011601027430,新規,0,2024-01-10,2024-01-10,株式会社Ｌｕｐｉｎｕｓ,,株式会社,東京都,練馬区,東大泉４丁目１０番２３号パティーナ大泉学園４０９,,13,120,1780063,,,,,,,2024-01-10,1,,,,,ルピナス,0
7851,9011703003701,新規,0,2024-01-10,2024-01-10,合同会社Ｃ．Ｆエステート,,合同会社,東京都,江戸川区,東葛西５丁目２０番地第５コーポマキ１階Ａ,,13,123,1340084,,,,,,,2024-01-10,1,,,,,シーエフエステート,0
7854,9011801043599,新規,0,2024-01-10,2024-01-10,ＷＷＷ株式会社,,株式会社,東京都,足立区,西新井本町１丁目２７番９号,,13,121,1230845,,,,,,,2024-01-10,1,,,,,ダブリューウイン,0
7855,9011801043616,新規,0,2024-01-10,2024-01-10,株式会社アイキモリーナ,,株式会社,東京都,足立区,古千谷本町４丁目６番５号,,13,121,1210832,,,,,,,2024-01-10,1,,,,,アイキモリーナ,0
7857,9011803006026,新規,0,2024-01-10,2024-01-10,合同会社アテンダント,,合同会社,東京都,葛飾区,水元１丁目２６番１５号パーソンヒルズ２０２号,,13,122,1250032,,,,,,,2024-01-10,1,,,,,,0
7859,9012701018014,新規,0,2024-01-10,2024-01-10,ＣＯＶＥＲＡＮ株式会社,,株式会社,東京都,東村山市,栄町３丁目２６番地１３エスポワール八坂２０５,,13,213,1890013,,,,,,,2024-01-10,1,,,,,カバーアン,0
7860,9012703002882,新規,0,2024-01-10,2024-01-10,合同会社どらせなコンサル,,合同会社,東京都,東久留米市,滝山３丁目１番９～１０７,,13,222,2030033,,,,,,,2024-01-10,1,,,,,ドラセナコンサル,0
7863,9020001155205,新規,0,2024-01-10,2024-01-10,株式会社馬車道大かわ,,株式会社,神奈川県,横浜市中区,太田町４丁目４８番地,,14,104,2310011,,,,,,,2024-01-10,1,,,,,バシャミチオオカワ,0
7864,9020001155221,新規,0,2024-01-10,2024-01-10,株式会社Ｂｕｄｄｙ,,株式会社,神奈川県,川崎市多摩区,菅馬場２丁目２５番３－１号,,14,135,2140004,,,,,,,2024-01-10,1,,,,,バディ,0
7867,9020003025331,新規,0,2024-01-10,2024-01-10,合同会社４月のさかな,,合同会社,神奈川県,川崎市宮前区,菅生５丁目１番１号ラ・ムー２０１,,14,136,2160015,,,,,,,2024-01-10,1,,,,,シガツノサカナ,0
7878,9021005012986,新規,0,2024-01-10,2024-01-10,医療法人湘瑛会,,その他の設立登記法人,神奈川県,藤沢市,辻堂１丁目２番１号辻堂中堂第一ビル５階,,14,205,2510047,,,,,,,2024-01-10,1,,,,,ショウエイカイ,0
7882,9030001158041,新規,0,2024-01-10,2024-01-10,ティーエムエー株式会社,,株式会社,埼玉県,戸田市,本町１丁目５番７号,,11,224,3350023,,,,,,,2024-01-10,1,,,,,ティーエムエー,0
7883,9030001158074,新規,0,2024-01-10,2024-01-10,株式会社渋谷工務店,,株式会社,埼玉県,新座市,東１丁目７番３７号,,11,230,3520002,,,,,,,2024-01-10,1,,,,,シブヤコウムテン,0
7885,9030003023342,新規,0,2024-01-10,2024-01-10,ヴィラエクラ合同会社,,合同会社,埼玉県,川口市,柳崎２丁目７番２２号,,11,203,3330861,,,,,,,2024-01-10,1,,,,,ヴィラエクラ,0
7886,9030003023367,新規,0,2024-01-10,2024-01-10,中西農業合同会社,,合同会社,埼玉県,さいたま市大宮区,下町３丁目７番地１Ｓ１３１４号,,11,103,3300844,,,,,,,2024-01-10,1,,,,,ナカニシノウギョウ,0
7892,9040001131468,新規,0,2024-01-10,2024-01-10,株式会社ＴＥＲＡＳＨＩＴＡ,,株式会社,千葉県,船橋市,飯山満町３丁目１６６１番地７６,,12,204,2740822,,,,,,,2024-01-10,1,,,,,テラシタ,0
7893,9040001131625,新規,0,2024-01-10,2024-01-10,株式会社ｂａｒｂａ,,株式会社,千葉県,船橋市,本町１丁目１１番６号２Ｆ船橋２号館,,12,204,2730005,,,,,,,2024-01-10,1,,,,,バルバ,0
7894,9040001131641,新規,0,2024-01-10,2024-01-10,株式会社度会,,株式会社,千葉県,市川市,柏井町２丁目１４３０番地６７,,12,203,2720802,,,,,,,2024-01-10,1,,,,,ワタライ,0
7895,9040001131674,新規,0,2024-01-10,2024-01-10,株式会社Ｃ．Ｃ．Ｂａｋｅｒｙ　ａｎｄ　Ｒｏａｓｔｅｒｙ,,株式会社,千葉県,船橋市,金杉台１丁目１番２－１０２号,,12,204,2730852,,,,,,,2024-01-10,1,,,,,シーシーベーカリーアンドロースタリー,0
7898,9040003024050,新規,0,2024-01-10,2024-01-10,合同会社ＦＲＥＥＤＯＭ,,合同会社,千葉県,我孫子市,湖北台５丁目１４－１,,12,222,2701132,,,,,,,2024-01-10,1,,,,,フリーダム,0
7899,9040003024067,新規,0,2024-01-10,2024-01-10,千葉テクノエンジ合同会社,,合同会社,千葉県,市原市,五所１９５２番地１０,,12,219,2900066,,,,,,,2024-01-10,1,,,,,チバテクノエンジ,0
7900,9040003024075,新規,0,2024-01-10,2024-01-10,合同会社柳製作所,,合同会社,千葉県,柏市,十余二３１３番地６１１,,12,217,2770872,,,,,,,2024-01-10,1,,,,,ヤナギセイサクショ,0
7901,9050001054049,新規,0,2024-01-10,2024-01-10,株式会社岡測量,,株式会社,茨城県,日立市,十王町友部２５２５番地９,,08,202,3191304,,,,,,,2024-01-10,1,,,,,オカソクリョウ,0
7904,9060001036698,新規,0,2024-01-10,2024-01-10,株式会社ＴＡＴＳＵＹＡ,,株式会社,栃木県,宇都宮市,下栗町２２８１番地２,,09,201,3210923,,,,,,,2024-01-10,1,,,,,タツヤ,0
7905,9060001036715,新規,0,2024-01-10,2024-01-10,株式会社大島総業,,株式会社,栃木県,小山市,大字南和泉３０３番地７,,09,208,3230816,,,,,,,2024-01-10,1,,,,,オオシマソウギョウ,0
7907,9070001041268,新規,0,2024-01-10,2024-01-10,株式会社Ｋ＆Ｓコンサルティング,,株式会社,群馬県,伊勢崎市,上蓮町６７５番地８,00133262,10,204,3720851,,,,,,,2024-01-10,1,,,,,,0
8218,9080401026941,新規,0,2024-01-10,2024-01-10,株式会社鰐田商店,,株式会社,静岡県,浜松市浜名区,於呂２９３１番地６号,,22,139,4340015,,,,,,,2024-01-10,1,,,,,ワニタショウテン,0
8647,9090003002464,新規,0,2024-01-10,2024-01-10,Ｐａｔｈ合同会社,,合同会社,山梨県,甲府市,千塚４丁目３番３８号,,19,201,4000074,,,,,,,2024-01-10,1,,,,,パス,0
8649,9100001037114,新規,0,2024-01-10,2024-01-10,株式会社ハウスリペア,,株式会社,長野県,岡谷市,銀座２丁目１番２号,,20,204,3940022,,,,,,,2024-01-10,1,,,,,ハウスリペア,0
8654,9120001261158,新規,0,2024-01-10,2024-01-10,凱思株式会社,,株式会社,大阪府,大阪市都島区,中野町４丁目３番６号Ｈ２Ｈ大阪桜之宮邸１Ｄ－１,,27,102,5340027,,,,,,,2024-01-10,1,,,,,ガイシ,0
8655,9120001261281,新規,0,2024-01-10,2024-01-10,株式会社上田商会,,株式会社,大阪府,大阪市西淀川区,佃３丁目５番１３号,,27,113,5550001,,,,,,,2024-01-10,1,,,,,ウエダショウカイ,0
8661,9122001037711,新規,0,2024-01-10,2024-01-10,株式会社ＷＡＫＵＳＥＮ,,株式会社,大阪府,東大阪市,小阪１丁目１２番１２－７０８号,,27,227,5770801,,,,,,,2024-01-10,1,,,,,ワクセン,0
8665,9130001076068,新規,0,2024-01-10,2024-01-10,株式会社ツインクル,,株式会社,京都府,亀岡市,河原町２００番地の３,,26,206,6210803,,,,,,,2024-01-10,1,,,,,ツインクル,0
8667,9130003009224,新規,0,2024-01-10,2024-01-10,合同会社Ｐｉｏｎｅｅｒ,,合同会社,京都府,宇治市,五ケ庄芝ノ東１６番地の２,,26,204,6110011,,,,,,,2024-01-10,1,,,,,パイオニア,0
8668,9130003009232,新規,0,2024-01-10,2024-01-10,合同会社ｍｅ,,合同会社,京都府,京都市左京区,岡崎成勝寺町１－８,,26,103,6068343,,,,,,,2024-01-10,1,,,,,ミー,0
8671,9140001132927,新規,0,2024-01-10,2024-01-10,株式会社ｃｈｉｋｕｔａｋｕ,,株式会社,兵庫県,神戸市灘区,高羽町５丁目５－２１－１０２,,28,102,6570023,,,,,,,2024-01-10,1,,,,,チクタク,0
8672,9140001132943,新規,0,2024-01-10,2024-01-10,マイハネスト株式会社,,株式会社,兵庫県,神戸市兵庫区,本町２丁目１番５号３０１,,28,105,6520834,,,,,,,2024-01-10,1,,,,,マイハネスト,0
8674,9140003020015,新規,0,2024-01-10,2024-01-10,合同会社耕学塾,,合同会社,兵庫県,川西市,見野２丁目３５番６号ＩＢＳ山下駅前ビル３０１,,28,217,6660105,,,,,,,2024-01-10,1,,,,,コウガクジュク,0
8675,9140003020023,新規,0,2024-01-10,2024-01-10,岩見合同会社,,合同会社,兵庫県,洲本市,由良１丁目１０番１４号,,28,205,6562541,,,,,,,2024-01-10,1,,,,,イワミ,0
8678,9150001026979,新規,0,2024-01-10,2024-01-10,株式会社Ｔａｉｓｈｉ,,株式会社,奈良県,生駒郡斑鳩町,法隆寺南２丁目５番２０号,,29,344,6360113,,,,,,,2024-01-10,1,,,,,タイシ,0
8679,9160001025617,新規,0,2024-01-10,2024-01-10,ＨＹホールディングス株式会社,,株式会社,滋賀県,長浜市,湖北町小倉１１０番地,,25,203,5290343,,,,,,,2024-01-10,1,,,,,エイチワイホールディングス,0
8686,9180001159636,新規,0,2024-01-10,2024-01-10,ジョイントベンチャー株式会社,,株式会社,愛知県,名古屋市中区,栄２丁目１番２１号,,23,106,4600008,,,,,,,2024-01-10,1,,,,,ジョイントベンチャー,0
8687,9180001159652,新規,0,2024-01-10,2024-01-10,株式会社ＥＮａｂｌｅ,,株式会社,愛知県,海部郡蟹江町,城１丁目５７６番地,,23,425,4970040,,,,,,,2024-01-10,1,,,,,イネーブル,0
8688,9180001159660,新規,0,2024-01-10,2024-01-10,株式会社Ｅグリーン,,株式会社,愛知県,名古屋市北区,西味鋺３丁目８１４番地,,23,103,4620016,,,,,,,2024-01-10,1,,,,,イーグリーン,0
8689,9180001159677,新規,0,2024-01-10,2024-01-10,株式会社Ｏ’２Ｌｉｎｋ,,株式会社,愛知県,一宮市,三条字道東８０－６オーシマビル２Ｆ,,23,203,4940003,,,,,,,2024-01-10,1,,,,,オーツーリンク,0
8690,9180001159702,新規,0,2024-01-10,2024-01-10,ケイワイエム株式会社,,株式会社,愛知県,名古屋市南区,桜本町２丁目２５番地の２,,23,112,4570038,,,,,,,2024-01-10,1,,,,,ケイワイエム,0
8697,9180005020488,新規,0,2024-01-10,2024-01-10,ＮＰＯ法人児童福祉の架け橋,,その他の設立登記法人,愛知県,名古屋市中区,新栄２丁目２番１９号新栄グリーンハイツ５０１,,23,106,4600007,,,,,,,2024-01-10,1,,,,,ジドウフクシノカケハシ,0
8702,9180301038201,新規,0,2024-01-10,2024-01-10,株式会社木村建築,,株式会社,愛知県,田原市,中山町儀呂２６１番地１,,23,231,4413615,,,,,,,2024-01-10,1,,,,,キムラケンチク,0
8706,9220001025767,新規,0,2024-01-10,2024-01-10,株式会社キリンドット,,株式会社,石川県,金沢市,久安２丁目４３４番地,,17,201,9218164,,,,,,,2024-01-10,1,,,,,キリンドット,0
8707,9230001020164,新規,0,2024-01-10,2024-01-10,株式会社金岡興産,,株式会社,富山県,富山市,婦中町塚原６８番地,,16,201,9392712,,,,,,,2024-01-10,1,,,,,カナオカコウサン,0
8713,9250001020427,新規,0,2024-01-10,2024-01-10,フラワーブロスＴＭＳ株式会社,,株式会社,山口県,宇部市,大字中野開作６７番地,,35,202,7590203,,,,,,,2024-01-10,1,,,,,フラワーブロスティーエムエス,0
8714,9250001020468,新規,0,2024-01-10,2024-01-10,株式会社パラディ,,株式会社,山口県,防府市,天神２丁目６番２７号,,35,206,7470034,,,,,,,2024-01-10,1,,,,,パラディ,0
8715,9250003003413,新規,0,2024-01-10,2024-01-10,合同会社くにひろ写真館,,合同会社,山口県,宇部市,大字西岐波３６２３番地１４,,35,202,7550151,,,,,,,2024-01-10,1,,,,,クニヒロシャシンカン,0
8716,9260001038641,新規,0,2024-01-10,2024-01-10,株式会社プライムリペア,,株式会社,岡山県,岡山市南区,妹尾８９１番地２,,33,104,7010205,,,,,,,2024-01-10,1,,,,,プライムリペア,0
8727,9290001104275,新規,0,2024-01-10,2024-01-10,ダブルリターン株式会社,,株式会社,福岡県,福岡市博多区,豊２丁目４番５７号コンダクト福岡東８２０号,,40,132,8120042,,,,,,,2024-01-10,1,,,,,ダブルリターン,0
8728,9290001104300,新規,0,2024-01-10,2024-01-10,株式会社Ｆｌａｇ,,株式会社,福岡県,福岡市中央区,天神２丁目３番１０号天神パインクレスト７１９号,,40,133,8100001,,,,,,,2024-01-10,1,,,,,フラッグ,0
8729,9290001104309,新規,0,2024-01-10,2024-01-10,株式会社クローズギャップ,,株式会社,福岡県,福岡市中央区,天神１丁目４番１号－１６Ｆ,,40,133,8100001,,,,,,,2024-01-10,1,,,,,クローズギャップ,0
8732,9290801030183,新規,0,2024-01-10,2024-01-10,株式会社Ｚｅｎ　Ｑｕａｌｉｔｙ,,株式会社,福岡県,北九州市八幡西区,東鳴水５丁目２番４９号,,40,109,8060051,,,,,,,2024-01-10,1,,,,,ゼンクオリティ,0
8734,9290803004581,新規,0,2024-01-10,2024-01-10,合同会社五葉,,合同会社,福岡県,北九州市小倉北区,馬借１丁目６番１７－６０２号,,40,106,8020077,,,,,,,2024-01-10,1,,,,,ゴヨウ,0
8735,9300001013581,新規,0,2024-01-10,2024-01-10,株式会社岸元,,株式会社,佐賀県,藤津郡太良町,大字糸岐１０１２番地５,,41,441,8491603,,,,,,,2024-01-10,1,,,,,キシモト,0
8737,9320001020221,新規,0,2024-01-10,2024-01-10,株式会社Ｒａｄｉａｒｋ,,株式会社,大分県,大分市,中央町１丁目５番２５号,,44,201,8700035,,,,,,,2024-01-10,1,,,,,ラディアーク,0
8743,9350001018741,新規,0,2024-01-10,2024-01-10,株式会社響心,,株式会社,宮崎県,宮崎市,大字塩路５３７番地１,,45,201,8800122,,,,,,,2024-01-10,1,,,,,キョウシン,0
8744,9360003013590,新規,0,2024-01-10,2024-01-10,林澤合同会社,,合同会社,沖縄県,糸満市,西崎２丁目３６番８－３０３号ベルコート西崎,,47,210,9010305,,,,,,,2024-01-10,1,,,,,リンザワ,0
8745,9360003013599,新規,0,2024-01-10,2024-01-10,合同会社ＳＴＵＤＩＯ　ＴＯＫＡ,,合同会社,沖縄県,沖縄市,胡屋４丁目１３番２６号玉城アパート２０１号,,47,211,9040021,,,,,,,2024-01-10,1,,,,,スタジオトカ,0
8756,9410001013686,新規,0,2024-01-10,2024-01-10,株式会社アグリ志戸橋,,株式会社,秋田県,山本郡三種町,志戸橋字久根添２３番地,,05,348,0182301,,,,,,,2024-01-10,1,,,,,アグリシドバシ,0
8768,9430003015811,新規,0,2024-01-10,2024-01-10,合同会社ＡＬＩＶＥ,,合同会社,北海道,札幌市豊平区,平岸二条８丁目３番１号アール２８・４０３号,,01,105,0620932,,,,,,,2024-01-10,1,,,,,アライヴ,0
8773,9470005006540,新規,0,2024-01-10,2024-01-10,一般社団法人丸亀のせなか,,その他の設立登記法人,香川県,丸亀市,浜町２５－１秋山ビル１Ｆ北側,,37,202,7630022,,,,,,,2024-01-10,1,,,,,マルガメノセナカ,0
8784,9700150123265,新規,0,2024-01-10,2024-01-10,Ｇｕａｎｇｚｈｏｕ　Ｘｉａｏｌｉｙｕ　Ｔｒａｄｉｎｇ　Ｃｏ．，Ｌｔｄ,,外国会社等,,,,,,,,Ｇｕａｎｇｚｈｏｕｓｈｉｔｉａｎｈｅｑｕｃｅｎｃｕｎｓｏｎｇｇａｎｇｄａｊｉｅ６ｈａｏｃ１５４０ｓｈｉ,,,,,,2024-01-10,1,,,,,コウシュウココイトレーディングカンパニーリミティッド,0
8785,9700150123273,新規,0,2024-01-10,2024-01-10,Ｄｏｎｇｇｕａｎ　Ｙｉｘｕｎ　Ｅｌｅｃｔｒｏｎｉｃｓ　Ｃｏ．，Ｌｔｄ．,,外国会社等,,,,,,,,Ｒｏｏｍ　８０２，Ｂｕｉｌｄｉｎｇ　１，Ｎｏ．６，Ｆｕｍａ　１ｓｔ　Ｒｏａｄ　Ｃｈｉｇａｎｇ　Ｈｕｍｅｎ　Ｔｏｗｎ　Ｄｏｎｇｇｕａｎ　Ｃｉｔｙ　Ｇｕａｎｇｄｏｎｇ　Ｐｒｏｖｉｎｃｅ　５２３９２１　ＣＮ,,,,,,2024-01-10,1,,,,,ドングワンイーシンディエンズーヨウシエンゴンスー,0
