sequenceNumber,corporateNumber,process,correct,updateDate,changeDate,name,nameImageId,kind,prefectureName,cityName,streetNumber,addressImageId,prefectureCode,cityCode,postCode,addressOutside,addressOutsideImageId,closeDate,closeCause,successorCorporateNumber,changeCause,assignmentDate,latest,enName,enPrefectureName,enCityName,enAddressOutside,furigana,hihyoji
3,1010001057640,登記記録の閉鎖等,0,2025-05-30,2025-05-12,株式会社エクシーズ,,株式会社,東京都,中央区,銀座１丁目２２番１１号銀座大竹ビジデンス２階,,13,102,1040061,,,2025-05-12,清算の結了等,,,2015-10-05,1,,,,,エクシーズ,0
29,1010402003318,登記記録の閉鎖等,0,2025-05-30,2025-04-25,有限会社カー・ベー・ケージ,,有限会社,東京都,港区,赤坂６丁目３番１２号,,13,103,1070052,,,2025-04-25,清算の結了等,,,2015-10-05,1,,,,,カーベーケージ,0
40,1010802003958,登記記録の閉鎖等,0,2025-05-30,2025-05-23,有限会社川本製作所,,有限会社,東京都,大田区,大森南２丁目１２番１４号,,13,111,1430013,,,2025-05-23,清算の結了等,,,2015-10-05,1,,,,,カワモトセイサクショ,0
41,1010802007496,登記記録の閉鎖等,0,2025-05-30,2025-05-23,有限会社秀明食品,,有限会社,東京都,大田区,南雪谷５丁目１６番２号,,13,111,1450066,,,2025-05-23,清算の結了等,,,2015-10-05,1,,,,,シュウメイショクヒン,0
64,1011502010030,登記記録の閉鎖等,0,2025-05-30,2025-05-28,有限会社トオヤマカープール,,有限会社,東京都,荒川区,東日暮里６丁目１８番１０号,,13,118,1160014,,,2025-05-28,清算の結了等,,,2015-10-05,1,,,,,,0
100,1030001045206,登記記録の閉鎖等,0,2025-05-30,2025-05-28,株式会社伊藤製作所,,株式会社,埼玉県,志木市,下宗岡４丁目１１番３５号,,11,228,3530003,,,2025-05-28,清算の結了等,,,2015-10-05,1,,,,,イトウセイサクショ,0
108,1040001093121,登記記録の閉鎖等,0,2025-05-30,2025-05-15,株式会社オートガレージＫ,,株式会社,千葉県,野田市,東宝珠花１５６－１,,12,208,2700226,,,2025-05-15,清算の結了等,,,2015-12-08,1,,,,,オートガレージケイ,0
119,1050003000867,登記記録の閉鎖等,0,2025-05-30,2025-05-26,合同会社ダイリン,,合同会社,茨城県,石岡市,石岡３１１４番地,,08,205,3150001,,,2025-05-26,清算の結了等,,,2015-10-05,1,,,,,ダイリン,0
131,1090003001382,登記記録の閉鎖等,0,2025-05-30,2025-05-26,合同会社森のプランナー,,合同会社,山梨県,北杜市,白州町鳥原３５６６番地,,19,209,4080316,,,2025-05-26,清算の結了等,,,2018-02-23,1,,,,,モリノプランナー,0
149,1120101060715,登記記録の閉鎖等,0,2025-05-30,2025-05-26,株式会社ティーブリ,,株式会社,大阪府,堺市南区,御池台４丁２番１号,,27,145,5900134,,,2025-05-26,清算の結了等,,,2019-10-28,1,,,,,ティーブリ,0
150,1120102001817,登記記録の閉鎖等,0,2025-05-30,2025-05-27,有限会社小林精工,,有限会社,大阪府,堺市西区,鳳南町５丁５６４番地の１,,27,144,5938325,,,2025-05-27,清算の結了等,,,2015-10-05,1,,,,,コバヤシセイコウ,0
154,1120901030537,登記記録の閉鎖等,0,2025-05-30,2025-05-22,株式会社ネクスト,,株式会社,大阪府,豊中市,庄内宝町３丁目１１番１４号,,27,203,5610836,,,2025-05-22,清算の結了等,,,2015-10-05,1,,,,,ネクスト,0
168,1140001070952,登記記録の閉鎖等,0,2025-05-30,2025-05-26,株式会社オフィスかわい,,株式会社,兵庫県,西宮市,浜甲子園２丁目１７番２７号,,28,204,6638154,,,2025-05-26,清算の結了等,,,2015-10-05,1,,,,,オフィスカワイ,0
183,1180002052467,登記記録の閉鎖等,0,2025-05-30,2025-05-27,有限会社豊工芸,,有限会社,愛知県,西春日井郡豊山町,大字豊場字城屋敷７７番地,,23,342,4800202,,,2025-05-27,清算の結了等,,,2015-10-05,1,,,,,ユタカコウゲイ,0
204,1260005008771,登記記録の閉鎖等,0,2025-05-30,2025-05-27,一般社団法人岡山自立支援協会,,その他の設立登記法人,岡山県,岡山市東区,瀬戸町瀬戸４１１番地１,,33,103,7090861,,,2025-05-27,清算の結了等,,,2015-10-05,1,,,,,,0
217,1300002010916,登記記録の閉鎖等,0,2025-05-30,2025-05-28,有限会社池田釣具店,,有限会社,佐賀県,唐津市,肥前町切木３９５番地３,,41,202,8471501,,,2025-05-28,清算の結了等,,,2015-10-05,1,,,,,イケダツリグテン,0
224,1360002020199,登記記録の閉鎖等,0,2025-05-30,2025-05-22,有限会社ウォータスポーツインターナショナル,,有限会社,沖縄県,国頭郡本部町,字崎本部４７５５番地１,,47,308,9050225,,,2025-05-22,清算の結了等,,,2015-10-05,1,,,,,ウォータスポーツインターナショナル,0
225,1360003010414,登記記録の閉鎖等,0,2025-05-30,2025-05-21,合同会社コトブキ,,合同会社,沖縄県,中頭郡北中城村,字島袋６０５番地４,,47,327,9012301,,,2025-05-21,清算の結了等,,,2020-07-07,1,,,,,コトブキ,0
228,1380001028794,登記記録の閉鎖等,0,2025-05-30,2025-05-20,ハシル株式会社,,株式会社,福島県,福島市,御山字中屋敷１０１番地の１７,,07,201,9608252,,,2025-05-20,清算の結了等,,,2018-01-18,1,,,,,ハシル,0
229,1390001001825,登記記録の閉鎖等,0,2025-05-30,2025-05-26,株式会社まるしち商店,,株式会社,山形県,山形市,蔵王温泉９５５番地の９,,06,201,9902301,,,2025-05-26,清算の結了等,,,2015-10-05,1,,,,,マルシチショウテン,0
240,2010001134240,登記記録の閉鎖等,0,2025-05-30,2025-05-12,Ｏｎｅｌｉｘｓ株式会社,,株式会社,東京都,中央区,東日本橋２丁目２８番４号,,13,102,1030004,,,2025-05-12,清算の結了等,,,2015-10-05,1,,,,,ワンライクス,0
243,2010001198764,登記記録の閉鎖等,0,2025-05-30,2025-05-12,株式会社アナザー,,株式会社,東京都,中央区,京橋２丁目５番４号,,13,102,1040031,,,2025-05-12,清算の結了等,,,2019-02-28,1,,,,,アナザー,0
254,2010005022482,登記記録の閉鎖等,0,2025-05-30,2025-05-29,山佐ＣＭＰ１一般社団法人,,その他の設立登記法人,東京都,千代田区,丸の内１丁目４番１号東京共同会計事務所内,,13,101,1000005,,,2025-05-29,清算の結了等,,,2015-10-05,1,,,,,ヤマサシーエムピーイチ,0
266,2010402014405,登記記録の閉鎖等,0,2025-05-30,2025-05-19,有限会社モリ塗装工事,,有限会社,東京都,台東区,元浅草２丁目２番９－８０４号,,13,106,1110041,,,2025-05-19,清算の結了等,,,2015-10-05,1,,,,,モリトソウコウジ,0
269,2010601039533,登記記録の閉鎖等,0,2025-05-30,2025-05-15,久松通商株式会社,,株式会社,千葉県,市川市,北国分３丁目２２番２０号,,12,203,2720836,,,2025-05-15,清算の結了等,,,2015-10-05,1,,,,,ヒサマツツウショウ,0
312,2013303005092,登記記録の閉鎖等,0,2025-05-30,2025-05-20,フラムティード合同会社,,合同会社,東京都,豊島区,東池袋２丁目６０番８号シティインデックス池袋１００５号室,,13,116,1700013,,,2025-05-20,清算の結了等,,,2020-04-21,1,,,,,フラムティード,0
335,2030005021573,登記記録の閉鎖等,0,2025-05-30,2025-05-07,ＮＰＯ法人狭山ＦＭ放送,,その他の設立登記法人,埼玉県,新座市,野寺４丁目２番２１号,,11,230,3520034,,,2025-05-07,清算の結了等,,,2024-03-06,1,,,,,サヤマエフエムホウソウ,0
337,2040001054502,登記記録の閉鎖等,0,2025-05-30,2025-05-15,株式会社フジタ技研,,株式会社,千葉県,市原市,千種５丁目３番地８,,12,219,2990109,,,2025-05-15,清算の結了等,,,2015-10-05,1,,,,,フジタギケン,0
359,2110001025702,登記記録の閉鎖等,0,2025-05-30,2025-05-16,株式会社越後魚伊,,株式会社,新潟県,長岡市,千歳１丁目３番２４号,,15,202,9400082,,,2025-05-16,合併による解散等,3110001030049,令和７年５月１５日新潟県長岡市美沢四丁目２０４番地１株式会社アベフードサービス（3110001030049）に合併し解散,2015-10-05,1,,,,,エチゴウオイ,0
367,2120001247188,登記記録の閉鎖等,0,2025-05-30,2025-05-19,株式会社Ｂｌｏｏｍ　ｏｆ　ｐｅａｃｅ,,株式会社,大阪府,枚方市,南中振２丁目５０番２号,,27,210,5730094,,,2025-05-19,清算の結了等,,,2022-07-11,1,,,,,ブルームオブピース,0
378,2120101032201,登記記録の閉鎖等,0,2025-05-30,2025-05-26,株式会社田中ナット製作所,,株式会社,大阪府,羽曳野市,樫山２０５番地の５,,27,222,5830875,,,2025-05-26,清算の結了等,,,2015-10-05,1,,,,,タナカナットセイサクショ,0
390,2120902011709,登記記録の閉鎖等,0,2025-05-30,2025-05-23,有限会社オフィスナカムラ,,有限会社,大阪府,三島郡島本町,青葉３丁目１２番１－２０５号,,27,301,6180015,,,2025-05-23,清算の結了等,,,2015-10-05,1,,,,,,0
396,2140001110022,登記記録の閉鎖等,0,2025-05-30,2025-05-26,株式会社Ａｇ　Ｇｌｕｅｃｋ,,株式会社,兵庫県,尼崎市,西川２丁目２０番３１号,,28,202,6610966,,,2025-05-26,清算の結了等,,,2018-05-22,1,,,,,エージーグリュック,0
403,2140002051562,登記記録の閉鎖等,0,2025-05-30,2025-05-21,有限会社ワイピー,,有限会社,兵庫県,姫路市,岡田４７９番地,,28,201,6700982,,,2025-05-21,合併による解散等,2140002047890,令和７年５月２１日兵庫県姫路市岡田４７９番地岡田興産株式会社（2140002047890）に合併し解散,2015-10-05,1,,,,,,0
408,2180001004542,登記記録の閉鎖等,0,2025-05-30,2025-05-28,株式会社高木ビル,,株式会社,愛知県,名古屋市千種区,今池１丁目１７番１３号,,23,101,4640850,,,2025-05-28,清算の結了等,,,2015-10-05,1,,,,,タカギビル,0
414,2180001140404,登記記録の閉鎖等,0,2025-05-30,2025-05-27,ＺＥＮＣＩＴＹ株式会社,,株式会社,愛知県,清須市,須ケ口３２２番地,,23,233,4520905,,,2025-05-27,清算の結了等,,,2020-03-12,1,,,,,ゼンシティ,0
425,2180003009093,登記記録の閉鎖等,0,2025-05-30,2025-05-28,合同会社藤井工業,,合同会社,愛知県,名古屋市港区,中川本町４丁目１番地の５４,,23,111,4550051,,,2025-05-28,清算の結了等,,,2015-10-05,1,,,,,フジイコウギョウ,0
426,2180303005593,登記記録の閉鎖等,0,2025-05-30,2025-05-26,合同会社河津企画,,合同会社,愛知県,豊田市,美里４丁目３番地７７,,23,211,4710805,,,2025-05-26,清算の結了等,,,2023-02-01,1,,,,,カワツキカク,0
440,2240001049110,登記記録の閉鎖等,0,2025-05-30,2025-05-28,株式会社ナガタ,,株式会社,広島県,広島市安芸区,阿戸町１０４番地１４,,34,107,7314231,,,2025-05-28,清算の結了等,,,2016-04-07,1,,,,,ナガタ,0
443,2260001012165,登記記録の閉鎖等,0,2025-05-30,2025-05-27,株式会社西日本農機,,株式会社,岡山県,岡山市東区,瀬戸町瀬戸４１１番地１,,33,103,7090861,,,2025-05-27,清算の結了等,,,2015-10-05,1,,,,,,0
486,2490002011003,登記記録の閉鎖等,0,2025-05-30,2025-05-28,有限会社橋本製材,,有限会社,高知県,高岡郡四万十町,広瀬２１１番地,,39,412,7860534,,,2025-05-28,清算の結了等,,,2015-10-05,1,,,,,ハシモトセイザイ,0
501,3010005034477,登記記録の閉鎖等,0,2025-05-30,2025-05-28,一般社団法人オルジュ,,その他の設立登記法人,東京都,千代田区,丸の内１丁目４番１号東京共同会計事務所内,,13,101,1000005,,,2025-05-28,清算の結了等,,,2022-01-17,1,,,,,オルジュ,0
509,3010401079522,登記記録の閉鎖等,0,2025-05-30,2025-05-01,株式会社インテリオン,,株式会社,東京都,港区,東新橋２丁目４番１号,,13,103,1050021,,,2025-05-01,合併による解散等,5010401114483,令和７年５月１日東京都港区東新橋二丁目４番１号株式会社パック・エックス（5010401114483）に合併し解散,2015-10-05,1,,,,,インテリオン,0
513,3010401132974,登記記録の閉鎖等,0,2025-05-30,2025-04-30,ライフシフト株式会社,,株式会社,東京都,港区,東新橋１丁目６番３号２４Ｆ,,13,103,1050021,,,2025-04-30,清算の結了等,,,2017-08-01,1,,,,,ライフシフト,0
526,3010601052527,登記記録の閉鎖等,0,2025-05-30,2025-05-23,株式会社深川フード＆ツアーズ,,株式会社,東京都,江東区,有明３丁目７番２６号有明フロンティアビルＢ棟９階,,13,108,1350063,,,2025-05-23,清算の結了等,,,2017-11-22,1,,,,,フカガワフードアンドツアーズ,0
529,3010702005417,登記記録の閉鎖等,0,2025-05-30,2025-05-08,有限会社テシオコンサルティング,,有限会社,東京都,品川区,大崎５丁目９番９－２５０３号,,13,109,1410032,,,2025-05-08,清算の結了等,,,2015-10-05,1,,,,,テシオコンサルティング,0
530,3010702015069,登記記録の閉鎖等,0,2025-05-30,2025-05-08,ナイズ有限会社,,有限会社,東京都,品川区,上大崎２丁目４番１９－３０２号,,13,109,1410021,,,2025-05-08,清算の結了等,,,2015-10-05,1,,,,,,0
579,3020003007847,登記記録の閉鎖等,0,2025-05-30,2025-05-27,ＴＷＩＮＣＬＥ合同会社,,合同会社,神奈川県,横浜市保土ケ谷区,仏向西１２番１１号,,14,106,2400046,,,2025-05-27,清算の結了等,,,2015-10-05,1,,,,,トゥインクル,0
588,3021005001714,登記記録の閉鎖等,0,2025-05-30,2025-05-26,特定非営利活動法人ドリームファクトリー,,その他の設立登記法人,神奈川県,茅ヶ崎市,みずき２丁目２１番１号,,14,207,2530088,,,2025-05-26,清算の結了等,,,2015-10-05,1,,,,,ドリームファクトリー,0
593,3040001073055,登記記録の閉鎖等,0,2025-05-30,2025-05-15,株式会社ベストメンテサポート,,株式会社,千葉県,松戸市,八ケ崎３丁目４９番地の１１,,12,207,2700023,,,2025-05-15,清算の結了等,,,2015-10-05,1,,,,,ベストメンテサポート,0
604,3060002038848,登記記録の閉鎖等,0,2025-05-30,2025-05-28,株式会社柿沼工業,,株式会社,栃木県,佐野市,植下町４２７番地,,09,204,3270835,,,2025-05-28,清算の結了等,,,2015-10-05,1,,,,,カキヌマコウギョウ,0
618,3120001202786,登記記録の閉鎖等,0,2025-05-30,2025-05-23,株式会社Ｕｔｉｃａ,,株式会社,大阪府,大阪市中央区,徳井町１丁目４番３号,,27,128,5400025,,,2025-05-23,清算の結了等,,,2017-01-05,1,,,,,ユーティカ,0
625,3120003012556,登記記録の閉鎖等,0,2025-05-30,2025-05-23,株式会社鐘商,,株式会社,大阪府,大阪市東淀川区,東中島１丁目１７番５号ステュディオ新大阪１０５１号,,27,114,5330033,,,2025-05-23,清算の結了等,,,2017-03-08,1,,,,,カネショウ,0
647,3140001043345,登記記録の閉鎖等,0,2025-05-30,2025-05-21,播磨ナショナル販売株式会社,,株式会社,兵庫県,加古川市,加古川町本町１４６番地の７,,28,210,6750037,,,2025-05-21,合併による解散等,1140001043603,令和７年５月２１日兵庫県加古川市加古川町本町２９４番地の８播磨電材株式会社（1140001043603）に合併し解散,2015-10-05,1,,,,,ハリマナショナルハンバイ,0
657,3150005003699,登記記録の閉鎖等,0,2025-05-30,2025-05-28,特定非営利活動法人共生学舎,,その他の設立登記法人,奈良県,奈良市,佐紀町１３６０,,29,201,6308003,,,2025-05-28,清算の結了等,,,2015-10-05,1,,,,,キョウセイガクシャ,0
660,3160001003751,登記記録の閉鎖等,0,2025-05-30,2025-05-27,ユーアイ株式会社,,株式会社,滋賀県,大津市,馬場１丁目７番１９号,,25,201,5200802,,,2025-05-27,清算の結了等,,,2015-10-05,1,,,,,ユーアイ,0
674,3220001014552,登記記録の閉鎖等,0,2025-05-30,2025-05-29,株式会社ＣＯＲＥＺＯ,,株式会社,石川県,金沢市,広岡２丁目１２番６号,,17,201,9200031,,,2025-05-29,合併による解散等,4220001026365,令和７年５月２８日石川県金沢市南町２番１号株式会社地域未来創造（4220001026365）に合併し解散,2015-10-05,1,,,,,コレゾ,0
683,3260001020480,登記記録の閉鎖等,0,2025-05-30,2025-05-26,株式会社ナスアグリサービス岡山,,株式会社,岡山県,津山市,野介代１３４８番地の１２,,33,203,7080821,,,2025-05-26,清算の結了等,,,2015-10-05,1,,,,,ナスアグリサービスオカヤマ,0
695,3320003000615,登記記録の閉鎖等,0,2025-05-30,2025-05-27,合資会社別個商事,,合資会社,大分県,別府市,大字鶴見字杉園６７３番地１,,44,202,8740840,,,2025-05-27,清算の結了等,,,2015-10-05,1,,,,,ベッコショウジ,0
708,3380002006129,登記記録の閉鎖等,0,2025-05-30,2025-05-23,有限会社植光,,有限会社,福島県,伊達市,保原町富沢字新若林３１番地,,07,213,9600682,,,2025-05-23,清算の結了等,,,2015-10-05,1,,,,,ウエコウ,0
715,3400003002537,登記記録の閉鎖等,0,2025-05-30,2025-05-15,エコ開発＆ロックス合同会社,,合同会社,岩手県,盛岡市,肴町９番３号１０３号,,03,201,0200878,,,2025-05-15,清算の結了等,,,2019-10-31,1,,,,,エコカイハツアンドロックス,0
744,4010001208018,登記記録の閉鎖等,0,2025-05-30,2025-05-09,株式会社ＩＫＩＢＡ,,株式会社,東京都,中央区,勝どき４丁目６番１－１９２９号,,13,102,1040054,,,2025-05-09,清算の結了等,,,2020-03-06,1,,,,,イキバ,0
746,4010001242710,登記記録の閉鎖等,0,2025-05-30,2025-05-12,株式会社大山,,株式会社,東京都,千代田区,神田淡路町１丁目１５塚崎ビル３階,00134072,13,101,1010063,,,2025-05-12,清算の結了等,,,2024-03-15,1,,,,,オオヤマ,0
754,4010005007746,登記記録の閉鎖等,0,2025-05-30,2025-05-28,一般社団法人日本健康気圧協会,,その他の設立登記法人,東京都,文京区,本郷３丁目４２番１号,,13,105,1130033,,,2025-05-28,清算の結了等,,,2015-10-05,1,,,,,ニホンケンコウキアツキョウカイ,0
767,4010603006711,登記記録の閉鎖等,0,2025-05-30,2025-05-26,ミズガイ合同会社,,合同会社,東京都,江東区,越中島１丁目３番１２－１００９号,,13,108,1350044,,,2025-05-26,清算の結了等,,,2017-04-07,1,,,,,ミズガイ,0
774,4010802004788,登記記録の閉鎖等,0,2025-05-30,2025-05-26,有限会社ケー・エー・オフィス,,有限会社,東京都,大田区,大森本町１丁目１番１－１４０４号,,13,111,1430011,,,2025-05-26,清算の結了等,,,2015-10-05,1,,,,,ケーエーオフィス,0
775,4010802016684,登記記録の閉鎖等,0,2025-05-30,2025-05-27,多倶貿易有限会社,,有限会社,東京都,大田区,南馬込２丁目３０番２号,,13,111,1430025,,,2025-05-27,清算の結了等,,,2015-10-05,1,,,,,タグボウエキ,0
780,4010903004373,登記記録の閉鎖等,0,2025-05-30,2025-05-29,ＺＺ　Ｐａｙｍｅｎｔ合同会社,,合同会社,東京都,世田谷区,羽根木１丁目２９番１４号,,13,112,1560042,,,2025-05-29,清算の結了等,,,2018-06-19,1,,,,,ジージーペイメント,0
782,4011001010909,登記記録の閉鎖等,0,2025-05-30,2025-04-30,株式会社情報システム開発,,株式会社,東京都,渋谷区,本町１丁目２０番２号,,13,113,1510071,,,2025-04-30,清算の結了等,,,2015-10-05,1,,,,,ジョウホウシステムカイハツ,0
827,4020001080283,登記記録の閉鎖等,0,2025-05-30,2025-05-28,株式会社マインド,,株式会社,神奈川県,川崎市川崎区,南町１番地８,,14,131,2100015,,,2025-05-28,合併による解散等,3011101085546,令和７年５月１日東京都新宿区西新宿七丁目５番２５号株式会社セラクＣＣＣ（3011101085546）に合併し解散,2015-10-05,1,,,,,マインド,0
831,4020002074094,登記記録の閉鎖等,0,2025-05-30,2025-05-21,有限会社ビリーフ,,有限会社,神奈川県,横浜市中区,根岸町３丁目１９０番地１,,14,104,2310836,,,2025-05-21,清算の結了等,,,2015-10-05,1,,,,,ビリーフ,0
840,4021005004690,登記記録の閉鎖等,0,2025-05-30,2025-05-21,医療法人社団聖光会,,その他の設立登記法人,神奈川県,大和市,大和東３丁目９番１号浜屋センタービル２階,,14,213,2420017,,,2025-05-21,清算の結了等,,,2015-10-05,1,,,,,セイコウカイ,0
845,4030002048320,登記記録の閉鎖等,0,2025-05-30,2025-05-22,有限会社飯田製作所,,有限会社,埼玉県,三郷市,高州２丁目７４番地,,11,237,3410037,,,2025-05-22,清算の結了等,,,2015-10-05,1,,,,,イイダセイサクジョ,0
856,4050001001699,登記記録の閉鎖等,0,2025-05-30,2025-05-27,株式会社不動産情報館ツジタ,,株式会社,茨城県,水戸市,城南３丁目１２番５号,,08,201,3100803,,,2025-05-27,清算の結了等,,,2015-10-05,1,,,,,フドウサンジョウホウカンツジタ,0
858,4050002034814,登記記録の閉鎖等,0,2025-05-30,2025-05-26,有限会社亀石電気工事,,有限会社,茨城県,龍ケ崎市,貝原塚町１４３６番地２,,08,208,3010856,,,2025-05-26,清算の結了等,,,2015-10-05,1,,,,,カメイシデンキコウジ,0
864,4080101000152,登記記録の閉鎖等,0,2025-05-30,2025-05-28,伊豆石油株式会社,,株式会社,静岡県,沼津市,真砂町１番地の１０,,22,203,4100861,,,2025-05-28,清算の結了等,,,2015-10-05,1,,,,,イズセキユ,0
865,4080102018524,登記記録の閉鎖等,0,2025-05-30,2025-05-27,有限会社ハラダ,,有限会社,静岡県,熱海市,小嵐町６番１１号,,22,205,4130029,,,2025-05-27,清算の結了等,,,2015-10-05,1,,,,,ハラダ,0
874,4120001146256,登記記録の閉鎖等,0,2025-05-30,2025-05-26,株式会社Ｍ＆Ｉ　ｓｏｌｕｔｉｏｎ,,株式会社,大阪府,大阪市北区,天神橋２丁目北１番２１号３階Ｉ号室,,27,127,5300041,,,2025-05-26,清算の結了等,,,2015-10-05,1,,,,,エムアンドアイソリューション,0
875,4120001198834,登記記録の閉鎖等,0,2025-05-30,2025-05-23,Ｓ株式会社,,株式会社,大阪府,大阪市北区,中津１丁目６番２９－２００３号,,27,127,5310071,,,2025-05-23,清算の結了等,,,2016-06-09,1,,,,,エス,0
884,4120003026316,登記記録の閉鎖等,0,2025-05-30,2025-05-22,合同会社マインドブルーム,,合同会社,大阪府,大阪市中央区,日本橋１丁目１７番１７号ピカソ日本一ビル６０４号室,,27,128,5420073,,,2025-05-22,清算の結了等,,,2024-04-11,1,,,,,マインドブルーム,0
889,4120005012207,登記記録の閉鎖等,0,2025-05-30,2025-05-28,一般社団法人大阪府保険鍼灸マッサージ師協会,,その他の設立登記法人,大阪府,大阪市都島区,中野町５丁目１３番３－１４０９号,,27,102,5340027,,,2025-05-28,清算の結了等,,,2015-10-05,1,,,,,オオサカフホケンシンキュウマッサージシキョウカイ,0
891,4120101033429,登記記録の閉鎖等,0,2025-05-30,2025-05-27,株式会社日東商工,,株式会社,大阪府,羽曳野市,軽里３丁目５番１５号,,27,222,5830854,,,2025-05-27,清算の結了等,,,2015-10-05,1,,,,,ニットウショウコウ,0
938,4240005013977,登記記録の閉鎖等,0,2025-05-30,2025-05-29,一般社団法人宮島ネイチャー構想推進協議会,,その他の設立登記法人,広島県,廿日市市,宮島町１１６２番地１８,,34,213,7390588,,,2025-05-29,清算の結了等,,,2015-10-05,1,,,,,ミヤジマネイチャーコウソウスイシンキョウギカイ,0
939,4250001002396,登記記録の閉鎖等,0,2025-05-30,2025-05-27,株式会社パナコ,,株式会社,山口県,防府市,開出本町２０番１０号,,35,206,7470053,,,2025-05-27,清算の結了等,,,2015-10-05,1,,,,,パナコ,0
951,4290002053749,登記記録の閉鎖等,0,2025-05-30,2025-05-23,有限会社二宮畳店,,有限会社,福岡県,大川市,大字向島２６５５番地の１,,40,212,8310005,,,2025-05-23,清算の結了等,,,2015-10-05,1,,,,,ニノミヤタタミテン,0
979,4430002045021,登記記録の閉鎖等,0,2025-05-30,2025-05-27,有限会社システム開発,,有限会社,北海道,札幌市手稲区,曙二条４丁目３番５４号,,01,109,0060832,,,2025-05-27,清算の結了等,,,2015-10-05,1,,,,,システムカイハツ,0
980,4430002047653,登記記録の閉鎖等,0,2025-05-30,2025-05-27,有限会社佐々木塗装店,,有限会社,北海道,千歳市,豊里２丁目４番６号,,01,224,0660022,,,2025-05-27,清算の結了等,,,2015-10-05,1,,,,,ササキトソウテン,0
991,5010001052290,登記記録の閉鎖等,0,2025-05-30,2025-05-26,株式会社トーイン,,株式会社,神奈川県,横浜市青葉区,千草台２９番地５８,,14,117,2270051,,,2025-05-26,清算の結了等,,,2015-10-05,1,,,,,トーイン,0
1012,5010401090394,登記記録の閉鎖等,0,2025-05-30,2025-05-01,株式会社パワープレイプロモーション,,株式会社,東京都,港区,東麻布３丁目４番１８号,,13,103,1060044,,,2025-05-01,合併による解散等,3010401084349,令和７年５月１日東京都港区東麻布三丁目４番１８号株式会社パワープレイミュージック（3010401084349）に合併し解散,2015-10-05,1,,,,,パワープレイプロモーション,0
1030,5010605002195,登記記録の閉鎖等,0,2025-05-30,2025-05-26,特定非営利活動法人あすなろの会,,その他の設立登記法人,東京都,江東区,白河１丁目２番１０号藤和シティホームズ清澄庭園１階,,13,108,1350021,,,2025-05-26,清算の結了等,,,2015-10-05,1,,,,,アスナロノカイ,0
1031,5010701043291,登記記録の閉鎖等,0,2025-05-30,2025-05-07,株式会社ｉｎＳＩＧＨＴＳ,,株式会社,東京都,品川区,大崎２丁目９番２－２３０１号,,13,109,1410032,,,2025-05-07,清算の結了等,,,2022-10-05,1,,,,,インサイツ,0
1036,5010802019249,登記記録の閉鎖等,0,2025-05-30,2025-05-23,有限会社ヴァッサー,,有限会社,東京都,大田区,池上７丁目５番９号,,13,111,1460082,,,2025-05-23,清算の結了等,,,2015-10-05,1,,,,,,0
1065,5011302006167,登記記録の閉鎖等,0,2025-05-30,2025-05-26,有限会社ティブロン,,有限会社,東京都,杉並区,荻窪１丁目１９番１３号,,13,115,1670051,,,2025-05-26,清算の結了等,,,2015-10-05,1,,,,,ティブロン,0
1068,5011402003279,登記記録の閉鎖等,0,2025-05-30,2025-05-26,有限会社光陽ビルサービス,,有限会社,東京都,板橋区,高島平３丁目１１番６－１００６号,,13,119,1750082,,,2025-05-26,清算の結了等,,,2015-10-05,1,,,,,コウヨウビルサービス,0
1080,5013301046755,登記記録の閉鎖等,0,2025-05-30,2025-05-20,株式会社ＫＡＪＩＴＯＲＩ,,株式会社,東京都,豊島区,池袋４丁目１番７号アポロ池袋ビル７階,,13,116,1710014,,,2025-05-20,清算の結了等,,,2021-01-06,1,,,,,カジトリ,0
1084,5020002042711,登記記録の閉鎖等,0,2025-05-30,2025-05-27,有限会社三興商事,,有限会社,神奈川県,横浜市磯子区,丸山１丁目２７番１ヒルトップ横濱根岸２０１,,14,107,2350011,,,2025-05-27,清算の結了等,,,2015-10-05,1,,,,,サンコウショウジ,0
1085,5020002091865,登記記録の閉鎖等,0,2025-05-30,2025-05-27,有限会社きし不動産,,有限会社,神奈川県,川崎市多摩区,栗谷４丁目６番２０号スカイコーポ１０１,,14,135,2140039,,,2025-05-27,清算の結了等,,,2015-10-05,1,,,,,キシフドウサン,0
1091,5021002008611,登記記録の閉鎖等,0,2025-05-30,2025-05-29,有限会社ＴＴＲＫＳ,,有限会社,神奈川県,藤沢市,辻堂５丁目１９番２０号,,14,205,2510047,,,2025-05-29,清算の結了等,,,2015-10-05,1,,,,,,0
1123,5100001008382,登記記録の閉鎖等,0,2025-05-30,2025-05-27,株式会社ウィンディー,,株式会社,長野県,小諸市,大字大久保１７７８番地,,20,208,3840071,,,2025-05-27,清算の結了等,,,2015-10-05,1,,,,,ウィンディー,0
1138,5120003018923,登記記録の閉鎖等,0,2025-05-30,2025-05-26,合同会社上本町商店,,合同会社,大阪府,大阪市生野区,小路１丁目７番９号,,27,116,5440002,,,2025-05-26,清算の結了等,,,2021-02-17,1,,,,,ウエホンマチショウテン,0
1144,5120101021655,登記記録の閉鎖等,0,2025-05-30,2025-05-23,株式会社東邦鋳造所,,株式会社,大阪府,堺市美原区,木材通１丁目７番４８号,,27,147,5870042,,,2025-05-23,清算の結了等,,,2015-10-05,1,,,,,トウホウチュウゾウショ,0
1171,5140001135487,登記記録の閉鎖等,0,2025-05-30,2025-05-22,株式会社Ｌｉｅｒｒｅ,,株式会社,兵庫県,神戸市西区,櫨谷町寺谷１２４２－５８１,,28,111,6512231,,,2025-05-22,合併による解散等,5140001025226,令和７年５月２２日神戸市西区櫨谷町寺谷１２４２－５８１株式会社舞子ホームサービス（5140001025226）に合併し解散,2024-08-13,1,,,,,リエール,0
1193,5230003001141,登記記録の閉鎖等,0,2025-05-30,2025-05-29,合同会社グリーンフィールドアカデミー,,合同会社,富山県,富山市,横内４６７,,16,201,9398033,,,2025-05-29,清算の結了等,,,2017-09-27,1,,,,,グリーンフィールドアカデミー,0
1197,5260002024025,登記記録の閉鎖等,0,2025-05-30,2025-05-23,有限会社マリンロード,,有限会社,岡山県,総社市,中央４丁目１８番地の１２１,,33,208,7191131,,,2025-05-23,清算の結了等,,,2015-10-05,1,,,,,マリンロード,0
1207,5340002024132,登記記録の閉鎖等,0,2025-05-30,2025-05-21,有限会社今市製茶,,有限会社,鹿児島県,南九州市,川辺町下山田５５７３番地,,46,223,8970133,,,2025-05-21,清算の結了等,,,2015-10-05,1,,,,,イマイチセイチャ,0
1219,5370001043741,登記記録の閉鎖等,0,2025-05-30,2025-05-26,株式会社ＯＧＡＴＡ,,株式会社,宮城県,仙台市宮城野区,小田原山本丁１００番地の９,,04,102,9830817,,,2025-05-26,清算の結了等,,,2018-11-14,1,,,,,オガタ,0
1222,5370003005780,登記記録の閉鎖等,0,2025-05-30,2025-05-26,合同会社セラス,,合同会社,宮城県,栗原市,志波姫南郷蓬田１番地,00127258,04,213,9895611,,,2025-05-26,清算の結了等,,,2022-07-20,1,,,,,セラス,0
1228,5380002018469,登記記録の閉鎖等,0,2025-05-30,2025-05-23,有限会社松山米店,,有限会社,福島県,白河市,横町６番地,,07,205,9610907,,,2025-05-23,清算の結了等,,,2015-10-05,1,,,,,マツヤマコメテン,0
1236,5430002021582,登記記録の閉鎖等,0,2025-05-30,2025-05-27,有限会社ライフワーク,,有限会社,北海道,札幌市東区,伏古三条５丁目４番２３号,,01,103,0070863,,,2025-05-27,清算の結了等,,,2015-10-05,1,,,,,ライフワーク,0
1263,6010405020743,登記記録の閉鎖等,0,2025-05-30,2025-05-01,松伏町物流開発特定目的会社,,その他の設立登記法人,東京都,港区,虎ノ門３丁目２２番１０－２０１号,,13,103,1050001,,,2025-05-01,清算の結了等,,,2022-02-28,1,,,,,マツブシマチブツリュウカイハツ,0
1264,6010501012504,登記記録の閉鎖等,0,2025-05-30,2025-05-19,株式会社トライ,,株式会社,東京都,台東区,上野５丁目５番１０号御徒町永谷タウンプラザ５０５号,,13,106,1100005,,,2025-05-19,清算の結了等,,,2015-10-05,1,,,,,トライ,0
1272,6010801008904,登記記録の閉鎖等,0,2025-05-30,2025-05-27,ＮＣＳ不動産株式会社,,株式会社,東京都,大田区,蒲田５丁目３３番１号,,13,111,1440052,,,2025-05-27,清算の結了等,,,2015-10-05,1,,,,,エヌシーエスフドウサン,0
1318,6013301020536,登記記録の閉鎖等,0,2025-05-30,2025-05-27,株式会社芸術書院,,株式会社,東京都,豊島区,東池袋３丁目２１番１８号第一笠原ビル４０３号,,13,116,1700013,,,2025-05-27,清算の結了等,,,2015-10-05,1,,,,,ゲイジュツショイン,0
1330,6020001129789,登記記録の閉鎖等,0,2025-05-30,2025-05-23,株式会社アルテス,,株式会社,神奈川県,横浜市港北区,日吉本町１丁目１７番２６号,,14,109,2230062,,,2025-05-23,清算の結了等,,,2019-02-04,1,,,,,アルテス,0
1337,6021001041521,登記記録の閉鎖等,0,2025-05-30,2025-05-29,三和貿易株式会社,,株式会社,神奈川県,逗子市,久木３丁目９番１５号,,14,208,2490001,,,2025-05-29,清算の結了等,,,2015-10-05,1,,,,,サンワボウエキ,0
1346,6030002087250,登記記録の閉鎖等,0,2025-05-30,2025-05-14,有限会社トライアド,,有限会社,千葉県,千葉市花見川区,花見川７番３棟５０２号,,12,102,2620046,,,2025-05-14,清算の結了等,,,2015-10-05,1,,,,,トライアド,0
1361,6050002007066,登記記録の閉鎖等,0,2025-05-30,2025-05-26,有限会社オリエントサービス,,有限会社,茨城県,那珂郡東海村,東海１丁目１０番４３号,,08,341,3191117,,,2025-05-26,清算の結了等,,,2015-10-05,1,,,,,オリエントサービス,0
1375,6090005003471,登記記録の閉鎖等,0,2025-05-30,2025-05-20,富士教東桂教会,00069068,その他の設立登記法人,山梨県,都留市,鹿留,,19,204,4020032,,,2025-05-20,清算の結了等,,,2015-10-05,1,,,,,フジキョウヒガシカツラキョウカイ,0
1395,6120002037064,登記記録の閉鎖等,0,2025-05-30,2025-05-26,有限会社つるやドラッグストアー,,有限会社,大阪府,大阪市中央区,東心斎橋２丁目２番１８号,,27,128,5420083,,,2025-05-26,清算の結了等,,,2015-10-05,1,,,,,ツルヤドラッグストアー,0
1416,6140001043342,登記記録の閉鎖等,0,2025-05-30,2025-05-21,播磨電材株式会社,,株式会社,兵庫県,加古川市,加古川町本町２９４番地の８,,28,210,6750037,,,2025-05-21,合併による解散等,1140001043603,令和７年５月２１日兵庫県加古川市加古川町本町２９４番地の８播磨電材株式会社（1140001043603）に合併し解散,2015-10-05,1,,,,,ハリマデンザイ,0
1421,6140002058281,登記記録の閉鎖等,0,2025-05-30,2025-05-26,有限会社リアライズ,,有限会社,兵庫県,西宮市,甲子園六番町１６番８号グリーンビル１階１１０１号,,28,204,6638176,,,2025-05-26,清算の結了等,,,2015-10-05,1,,,,,,0
1423,6150001011876,登記記録の閉鎖等,0,2025-05-30,2025-05-28,株式会社ハウジングシカヤ,,株式会社,奈良県,橿原市,葛本町１５３番地２,,29,205,6340007,,,2025-05-28,清算の結了等,,,2015-10-05,1,,,,,,0
1435,6180003020889,登記記録の閉鎖等,0,2025-05-30,2025-05-27,インドネシアゼミ合同会社,,合同会社,愛知県,名古屋市東区,大幸２丁目５番２８号,,23,102,4610043,,,2025-05-27,清算の結了等,,,2020-02-27,1,,,,,インドネシアゼミ,0
1482,6380002006357,登記記録の閉鎖等,0,2025-05-30,2025-05-23,有限会社原田,,有限会社,福島県,伊達市,保原町二井田字八百地２番地の１,,07,213,9600633,,,2025-05-23,清算の結了等,,,2015-10-05,1,,,,,ハラダ,0
1484,6380002023575,登記記録の閉鎖等,0,2025-05-30,2025-05-22,有限会社古田部米穀店,,有限会社,福島県,いわき市,平字久保町３５番地,,07,204,9708026,,,2025-05-22,清算の結了等,,,2015-10-05,1,,,,,コタベベイコクテン,0
1516,7010003038518,登記記録の閉鎖等,0,2025-05-30,2025-05-13,合同会社アイランドシップ４号,,合同会社,東京都,中央区,八丁堀４丁目２番１０号ＡＯＪ税理士法人内,,13,102,1040032,,,2025-05-13,清算の結了等,,,2022-09-05,1,,,,,アイランドシップヨンゴウ,0
1522,7010005033970,登記記録の閉鎖等,0,2025-05-30,2025-05-28,一般社団法人オルガノ,,その他の設立登記法人,東京都,千代田区,丸の内１丁目４番１号東京共同会計事務所内,,13,101,1000005,,,2025-05-28,清算の結了等,,,2021-09-09,1,,,,,オルガノ,0
1542,7010801011824,登記記録の閉鎖等,0,2025-05-30,2025-05-26,明和鋳造株式会社,,株式会社,東京都,大田区,西六郷４丁目１０番９号,,13,111,1440056,,,2025-05-26,清算の結了等,,,2015-10-05,1,,,,,メイワチュウゾウ,0
1588,7020002012373,登記記録の閉鎖等,0,2025-05-30,2025-05-26,有限会社戸塚朝日電気商会,00010340,有限会社,神奈川県,横浜市戸塚区,川上町３６６番地,,14,110,2440805,,,2025-05-26,清算の結了等,,,2015-10-05,1,,,,,トツカアサヒデンキショウカイ,0
1602,7030002006366,登記記録の閉鎖等,0,2025-05-30,2025-05-28,有限会社信公電設,,有限会社,埼玉県,さいたま市桜区,南元宿１丁目２０番２５号,,11,106,3380831,,,2025-05-28,清算の結了等,,,2015-10-05,1,,,,,シンコウデンセツ,0
1605,7040001072937,登記記録の閉鎖等,0,2025-05-30,2025-05-15,株式会社ムジエク,,株式会社,千葉県,船橋市,西船４丁目１９番２号,,12,204,2730031,,,2025-05-15,清算の結了等,,,2015-10-05,1,,,,,ムジエク,0
1624,7070001024877,登記記録の閉鎖等,0,2025-05-30,2025-05-26,株式会社笑遊,,株式会社,群馬県,前橋市,二之宮町５３７番地２,,10,201,3792117,,,2025-05-26,清算の結了等,,,2015-10-05,1,,,,,ショウユウ,0
1640,7120001039770,登記記録の閉鎖等,0,2025-05-30,2025-05-23,株式会社フーズ大和,,株式会社,大阪府,大阪市浪速区,敷津西２丁目１０番２１号,,27,111,5560015,,,2025-05-23,清算の結了等,,,2015-10-05,1,,,,,,0
1674,7140001082653,登記記録の閉鎖等,0,2025-05-30,2025-05-26,株式会社フジテクノガルバー,,株式会社,兵庫県,宝塚市,雲雀丘山手２丁目２１番３３号,,28,214,6650804,,,2025-05-26,清算の結了等,,,2015-10-05,1,,,,,フジテクノガルバー,0
1678,7140002051319,登記記録の閉鎖等,0,2025-05-30,2025-05-21,有限会社ヤンクス,,有限会社,兵庫県,姫路市,岡田４７９番地,,28,201,6700982,,,2025-05-21,合併による解散等,2140002047890,令和７年５月２１日兵庫県姫路市岡田４７９番地岡田興産株式会社（2140002047890）に合併し解散,2015-10-05,1,,,,,,0
1680,7140002058207,登記記録の閉鎖等,0,2025-05-30,2025-05-26,有限会社吉川一級建築設計事務所,00041353,有限会社,兵庫県,西宮市,甲風園３丁目１３番１６号,,28,204,6620832,,,2025-05-26,清算の結了等,,,2015-10-05,1,,,,,ヨシカワイッキュウケンチクセッケイジムショ,0
1684,7180001051992,登記記録の閉鎖等,0,2025-05-30,2025-05-27,株式会社スライヴ,,株式会社,愛知県,名古屋市東区,大幸４丁目１２番８号,,23,102,4610043,,,2025-05-27,清算の結了等,,,2015-10-05,1,,,,,スライブ,0
1692,7180003027371,登記記録の閉鎖等,0,2025-05-30,2025-05-29,合同会社マザーグース,,合同会社,愛知県,丹羽郡大口町,城屋敷１丁目２９７,,23,361,4800143,,,2025-05-29,清算の結了等,,,2024-09-24,1,,,,,マザーグース,0
1696,7180303002891,登記記録の閉鎖等,0,2025-05-30,2025-05-26,合資会社杉の子,,合資会社,愛知県,新城市,字宮ノ西４番地,,23,221,4411377,,,2025-05-26,清算の結了等,,,2015-10-05,1,,,,,スギノコ,0
1703,7200001039878,登記記録の閉鎖等,0,2025-05-30,2025-05-20,株式会社Ｇ‐ＣＲＡＦＴ,,株式会社,岐阜県,可児市,久々利１９５８－３－２,,21,214,5090224,,,2025-05-20,清算の結了等,,,2022-03-22,1,,,,,ジークラフト,0
1708,7260001034015,登記記録の閉鎖等,0,2025-05-30,2025-05-28,彩美工務店株式会社,,株式会社,岡山県,倉敷市,新田２４１５番地１（１００８）,,33,202,7100038,,,2025-05-28,清算の結了等,,,2020-02-06,1,,,,,サイビコウムテン,0
1709,7260002010378,登記記録の閉鎖等,0,2025-05-30,2025-05-26,有限会社友アンド愛,,有限会社,岡山県,岡山市北区,今３丁目９番８号,,33,101,7000975,,,2025-05-26,清算の結了等,,,2015-10-05,1,,,,,,0
1711,7270002010063,登記記録の閉鎖等,0,2025-05-30,2025-05-28,有限会社沢田建築設計事務所,,有限会社,鳥取県,倉吉市,八屋２５９番地,,31,203,6820025,,,2025-05-28,清算の結了等,,,2015-10-05,1,,,,,サワダケンチクセッケイジムショ,0
1735,7330005007001,登記記録の閉鎖等,0,2025-05-30,2025-05-26,光円寺,,その他の設立登記法人,熊本県,天草市,川原町４番１６号,,43,215,8630024,,,2025-05-26,清算の結了等,,,2015-10-05,1,,,,,コウエンジ,0
1751,7400002008804,登記記録の閉鎖等,0,2025-05-30,2025-05-19,有限会社わかそう薬局,,有限会社,岩手県,花巻市,大迫町大迫第３地割２３０番地,,03,205,0283203,,,2025-05-19,清算の結了等,,,2015-10-05,1,,,,,ワカソウヤッキョク,0
1770,7470002010547,登記記録の閉鎖等,0,2025-05-30,2025-05-28,有限会社井戸商店,,有限会社,香川県,木田郡三木町,大字井戸４４２６番地２,,37,341,7610823,,,2025-05-28,清算の結了等,,,2015-10-05,1,,,,,イドショウテン,0
1797,8010401140337,登記記録の閉鎖等,0,2025-05-30,2025-05-01,株式会社ピースホールディングス,,株式会社,東京都,港区,浜松町２丁目７番１４号ＫＡＭＯＮビル８Ｆ,,13,103,1050013,,,2025-05-01,合併による解散等,4380002010773,令和７年５月１日東京都港区浜松町二丁目７番１４号ＫＡＭＯＮビル８Ｆ株式会社太平（4380002010773）に合併し解散,2018-08-22,1,,,,,ピースホールディングス,0
1801,8010403024125,登記記録の閉鎖等,0,2025-05-30,2025-05-01,合同会社名古屋レジデンシャルマスターリース,,合同会社,東京都,港区,元赤坂１丁目１番７－１００６号,,13,103,1070051,,,2025-05-01,清算の結了等,,,2020-11-17,1,,,,,ナゴヤレジデンシャルマスターリース,0
1811,8010803004585,登記記録の閉鎖等,0,2025-05-30,2025-05-21,Ｐａｉｎｔ　ｉｔ合同会社,,合同会社,東京都,大田区,南六郷１丁目３４－５ユニバーサル７－３０５,,13,111,1440045,,,2025-05-21,清算の結了等,,,2023-06-26,1,,,,,ペイントイット,0
1813,8010901013959,登記記録の閉鎖等,0,2025-05-30,2025-05-26,株式会社長野電子,,株式会社,東京都,世田谷区,成城２丁目３６番１４号,,13,112,1570066,,,2025-05-26,清算の結了等,,,2015-10-05,1,,,,,ナガノデンシ,0
1814,8010901053922,登記記録の閉鎖等,0,2025-05-30,2025-05-28,株式会社プレシオ,,株式会社,東京都,世田谷区,等々力８丁目１３番１７号朝日マンション等々力４０５,,13,112,1580082,,,2025-05-28,清算の結了等,,,2023-10-03,1,,,,,プレシオ,0
1864,8021001002257,登記記録の閉鎖等,0,2025-05-30,2025-05-27,株式会社モデルニクス,,株式会社,神奈川県,藤沢市,辻堂神台２丁目２番４３号,,14,205,2510041,,,2025-05-27,清算の結了等,,,2015-10-05,1,,,,,モデルニクス,0
1878,8030002042154,登記記録の閉鎖等,0,2025-05-30,2025-05-27,有限会社千通信工業,,有限会社,埼玉県,加須市,騎西１番地の８,,11,210,3470105,,,2025-05-27,清算の結了等,,,2015-10-05,1,,,,,センツウシンコウギョウ,0
1879,8030002058844,登記記録の閉鎖等,0,2025-05-30,2025-05-23,有限会社大一工業所,,有限会社,埼玉県,朝霞市,大字上内間木３１９番地５,,11,227,3510001,,,2025-05-23,清算の結了等,,,2015-10-05,1,,,,,ダイイチコウギョウショ,0
1886,8040001066021,登記記録の閉鎖等,0,2025-05-30,2025-05-15,株式会社テスコ,,株式会社,千葉県,柏市,旭町８丁目１番１２号,,12,217,2770852,,,2025-05-15,清算の結了等,,,2015-10-05,1,,,,,テスコ,0
1941,8120902007453,登記記録の閉鎖等,0,2025-05-30,2025-05-22,有限会社ファイン,,有限会社,大阪府,吹田市,泉町２丁目３６番３０号,,27,205,5640041,,,2025-05-22,清算の結了等,,,2015-10-05,1,,,,,ファイン,0
1948,8140002030791,登記記録の閉鎖等,0,2025-05-30,2025-05-26,有限会社エムケイコーポレーション,,有限会社,兵庫県,三木市,末広１丁目１５番２６号,,28,215,6730403,,,2025-05-26,清算の結了等,,,2015-10-05,1,,,,,エムケイコーポレーション,0
1949,8140002046912,登記記録の閉鎖等,0,2025-05-30,2025-05-27,有限会社川丈,,有限会社,兵庫県,美方郡新温泉町,諸寄２７４番地の１５,,28,586,6696753,,,2025-05-27,清算の結了等,,,2015-10-05,1,,,,,カワジョウ,0
1959,8180001126158,登記記録の閉鎖等,0,2025-05-30,2025-05-28,アプティチュード株式会社,,株式会社,愛知県,名古屋市中区,栄１丁目１４番１４号,,23,106,4600008,,,2025-05-28,清算の結了等,,,2017-01-11,1,,,,,アプティチュード,0
1970,8210001013360,登記記録の閉鎖等,0,2025-05-30,2025-05-27,山與織物株式会社,00077768,株式会社,福井県,鯖江市,水落町３丁目３番６号,,18,207,9160022,,,2025-05-27,清算の結了等,,,2015-10-05,1,,,,,ヤマヨオリモノ,0
1976,8260001034856,登記記録の閉鎖等,0,2025-05-30,2025-05-26,Ｖｅｇｅｆｒｕ　Ｆａｒｍ株式会社,,株式会社,岡山県,倉敷市,福田町古新田７２０番地３,,33,202,7128046,,,2025-05-26,清算の結了等,,,2020-10-28,1,,,,,ベジフルファーム,0
1986,8290001025638,登記記録の閉鎖等,0,2025-05-30,2025-05-28,株式会社ネッツコーポレーション,,株式会社,福岡県,福岡市博多区,住吉４丁目３番２号,,40,132,8120018,,,2025-05-28,清算の結了等,,,2015-10-05,1,,,,,ネッツコーポレーション,0
2017,8410001010767,登記記録の閉鎖等,0,2025-05-30,2025-05-22,株式会社キザイコム,,株式会社,大阪府,大阪市北区,西天満３丁目７番１７号,,27,127,5300047,,,2025-05-22,清算の結了等,,,2015-10-05,1,,,,,キザイコム,0
2043,9010003028104,登記記録の閉鎖等,0,2025-05-30,2025-05-12,アテインザ・ゴール合同会社,,合同会社,東京都,中央区,日本橋３丁目２番１４号新槇町ビル別館第一２階,,13,102,1030027,,,2025-05-12,清算の結了等,,,2018-08-16,1,,,,,アテインザゴール,0
2062,9010402012443,登記記録の閉鎖等,0,2025-05-30,2025-05-01,有限会社三鈴製作所,,有限会社,東京都,港区,高輪１丁目３－２－１５０３,,13,103,1080074,,,2025-05-01,清算の結了等,,,2015-10-05,1,,,,,ミスズセイサクショ,0
2064,9010405020699,登記記録の閉鎖等,0,2025-05-30,2025-05-01,一般社団法人松伏町物流開発,,その他の設立登記法人,東京都,港区,虎ノ門３丁目２２番１０－２０１号,,13,103,1050001,,,2025-05-01,清算の結了等,,,2022-02-16,1,,,,,マツブシマチブツリュウカイハツ,0
2078,9010801005824,登記記録の閉鎖等,0,2025-05-30,2025-05-26,株式会社水圏科学コンサルタント,,株式会社,東京都,大田区,東蒲田２丁目３０番１７号,,13,111,1440031,,,2025-05-26,清算の結了等,,,2015-10-05,1,,,,,スイケンカガクコンサルタント,0
2101,9011505001928,登記記録の閉鎖等,0,2025-05-30,2025-05-23,特定非営利活動法人住いネット,,その他の設立登記法人,東京都,北区,赤羽西１丁目３５番８号レッドウィングビル８階８０１号室,,13,117,1150055,,,2025-05-23,清算の結了等,,,2015-10-05,1,,,,,,0
2105,9011702007133,登記記録の閉鎖等,0,2025-05-30,2025-05-23,有限会社タカタチ,,有限会社,東京都,江戸川区,平井７丁目１番１５号,,13,123,1320035,,,2025-05-23,清算の結了等,,,2015-10-05,1,,,,,タカタチ,0
2111,9012802002841,登記記録の閉鎖等,0,2025-05-30,2025-05-27,有限会社大塚塗装,,有限会社,東京都,昭島市,松原町５丁目２０番１号,,13,207,1960003,,,2025-05-27,清算の結了等,,,2015-10-05,1,,,,,オオツカトソウ,0
2155,9040002064411,登記記録の閉鎖等,0,2025-05-30,2025-05-15,有限会社エムケー商業施設研究所,,有限会社,千葉県,佐倉市,田町１２１番地１モアクレストアルファス佐倉８０３号,,12,212,2850012,,,2025-05-15,清算の結了等,,,2015-10-05,1,,,,,エムケーショウギョウシセツケンキュウショ,0
2170,9080101014271,登記記録の閉鎖等,0,2025-05-30,2025-05-27,株式会社ヤマト電機,,株式会社,静岡県,伊東市,八幡野１７２１番地の２,,22,208,4130232,,,2025-05-27,清算の結了等,,,2015-10-05,1,,,,,ヤマトデンキ,0
2183,9120001084682,登記記録の閉鎖等,0,2025-05-30,2025-05-26,株式会社つるや会館,,株式会社,大阪府,大阪市中央区,東心斎橋２丁目２番１８号,,27,128,5420083,,,2025-05-26,清算の結了等,,,2015-10-05,1,,,,,ツルヤカイカン,0
2184,9120001103525,登記記録の閉鎖等,0,2025-05-30,2025-05-26,メインソリューション株式会社,,株式会社,大阪府,大阪市北区,西天満５丁目１６－１５エフワンビル２Ｆ２０１号,,27,127,5300047,,,2025-05-26,清算の結了等,,,2015-10-05,1,,,,,メインソリューション,0
2186,9120001170648,登記記録の閉鎖等,0,2025-05-30,2025-05-23,株式会社デサイドワークス,,株式会社,大阪府,大阪市北区,西天満４丁目９番１２号,,27,127,5300047,,,2025-05-23,清算の結了等,,,2015-10-05,1,,,,,,0
2208,9140001055005,登記記録の閉鎖等,0,2025-05-30,2025-05-26,株式会社アネシス．ｃｏｍ,,株式会社,兵庫県,尼崎市,富松町１丁目１２番１０号,,28,202,6610003,,,2025-05-26,清算の結了等,,,2015-10-05,1,,,,,アネシスドットコム,0
2234,9220001012922,登記記録の閉鎖等,0,2025-05-30,2025-05-28,株式会社松沢工業,,株式会社,石川県,能美市,和気町井６０番地,,17,211,9231224,,,2025-05-28,清算の結了等,,,2015-10-05,1,,,,,,0
2244,9260001026803,登記記録の閉鎖等,0,2025-05-30,2025-05-26,４Ｃ’ｓコーポレーション株式会社,,株式会社,岡山県,倉敷市,福田町古新田７２０番地３,,33,202,7128046,,,2025-05-26,清算の結了等,,,2015-10-05,1,,,,,フォーシーズコーポレーション,0
2247,9260005006108,登記記録の閉鎖等,0,2025-05-30,2025-05-19,特定非営利活動法人フォレストフォーピープル岡山,,その他の設立登記法人,岡山県,高梁市,小高下町５１番地２,,33,209,7160006,,,2025-05-19,清算の結了等,,,2015-10-05,1,,,,,フォレストフォーピープルオカヤマ,0
2254,9290002017105,登記記録の閉鎖等,0,2025-05-30,2025-05-23,有限会社びっくり亭,,有限会社,福岡県,福岡市博多区,麦野２丁目１４番１－８０１号,,40,132,8120882,,,2025-05-23,清算の結了等,,,2015-10-05,1,,,,,ビックリテイ,0
2267,9330002011623,登記記録の閉鎖等,0,2025-05-30,2025-05-27,有限会社ワイルド・ダック,,有限会社,熊本県,熊本市東区,月出４丁目６番６９号,,43,102,8620920,,,2025-05-27,清算の結了等,,,2015-10-05,1,,,,,ワイルドダック,0
2280,9420001016977,登記記録の閉鎖等,0,2025-05-30,2025-05-26,株式会社青森食研,,株式会社,青森県,黒石市,大字下目内澤字小屋敷添５番地１５,,02,204,0360539,,,2025-05-26,清算の結了等,,,2020-04-17,1,,,,,アオモリショッケン,0
2281,9420002017677,登記記録の閉鎖等,0,2025-05-30,2025-05-26,有限会社佐々木自動車修理工場,,有限会社,青森県,三沢市,南町３丁目３１番地２９３４,,02,207,0330036,,,2025-05-26,清算の結了等,,,2015-10-05,1,,,,,ササキジドウシャシュウリコウジョウ,0
