sequenceNumber,corporateNumber,process,correct,updateDate,changeDate,name,nameImageId,kind,prefectureName,cityName,streetNumber,addressImageId,prefectureCode,cityCode,postCode,addressOutside,addressOutsideImageId,closeDate,closeCause,successorCorporateNumber,changeCause,assignmentDate,latest,enName,enPrefectureName,enCityName,enAddressOutside,furigana,hihyoji
15,1010003035553,登記記録の閉鎖等,0,2025-01-10,2024-12-20,合同会社ＫＣＲ１,,合同会社,東京都,中央区,日本橋１丁目４番１号,,13,102,1030027,,,2024-12-20,清算の結了等,,,2021-08-13,1,,,,,ケーシーアールワン,0
42,1010801009691,登記記録の閉鎖等,0,2025-01-10,2024-12-27,株式会社橋本工務店,,株式会社,東京都,大田区,南六郷１丁目１２番７号,,13,111,1440045,,,2024-12-27,清算の結了等,,,2015-10-05,1,,,,,ハシモトコウムテン,0
43,1010801011755,登記記録の閉鎖等,0,2025-01-10,2025-01-06,村重製作所株式会社,,株式会社,東京都,港区,東新橋２丁目１４番１号,,13,103,1050021,,,2025-01-06,合併による解散等,8010001131934,令和７年１月１日東京都港区東新橋二丁目１４番１号株式会社ワールドレジデンシャル（8010001131934）に合併し解散,2015-10-05,1,,,,,ムラシゲセイサクジョ,0
67,1011102027689,登記記録の閉鎖等,0,2025-01-10,2025-01-08,有限会社ラウンドフラット,,有限会社,埼玉県,春日部市,道口蛭田１７６番地１０,,11,214,3440045,,,2025-01-08,合併による解散等,2040001025214,令和７年１月１日東京都中野区本町一丁目３２番２号株式会社ネットショップ総研（2040001025214）に合併し解散,2015-10-05,1,,,,,ラウンドフラット,0
71,1011301007608,登記記録の閉鎖等,0,2025-01-10,2025-01-08,株式会社リーディングコスモ,,株式会社,東京都,杉並区,松庵１丁目１番２０号,,13,115,1670054,,,2025-01-08,清算の結了等,,,2015-10-05,1,,,,,リーディングコスモ,0
72,1011301021674,登記記録の閉鎖等,0,2025-01-10,2025-01-08,ＦＡＷＤＯ株式会社,,株式会社,東京都,杉並区,西荻北２丁目１番１１号,,13,115,1670042,,,2025-01-08,清算の結了等,,,2015-10-05,1,,,,,ファウド,0
91,1012701011364,登記記録の閉鎖等,0,2025-01-10,2024-12-23,Ｊ・ｗｉｎｇ株式会社,,株式会社,東京都,小平市,学園西町１丁目８番３２号,,13,211,1870045,,,2024-12-23,清算の結了等,,,2015-10-05,1,,,,,ジェイウイング,0
93,1012801000515,登記記録の閉鎖等,0,2025-01-10,2024-12-25,株式会社山英図工立川,,株式会社,東京都,立川市,錦町２丁目７番５号,,13,202,1900022,,,2024-12-25,清算の結了等,,,2015-10-05,1,,,,,サンエイズコウタチカワ,0
95,1012802005026,登記記録の閉鎖等,0,2025-01-10,2024-12-26,有限会社丸藤,,有限会社,東京都,武蔵村山市,残堀２丁目８２番地の３,,13,223,2080034,,,2024-12-26,清算の結了等,,,2015-10-05,1,,,,,マルフジ,0
101,1020001037872,登記記録の閉鎖等,0,2025-01-10,2024-12-19,株式会社アニックコーポレーション,,株式会社,神奈川県,横浜市都筑区,佐江戸町１８６番地,,14,118,2240054,,,2024-12-19,清算の結了等,,,2015-10-05,1,,,,,アニックコーポレーション,0
102,1020001088981,登記記録の閉鎖等,0,2025-01-10,2024-12-27,エイコーエコスパ株式会社,,株式会社,神奈川県,横浜市鶴見区,小野町７５番地１横浜新技術創造館１号館,,14,101,2300046,,,2024-12-27,清算の結了等,,,2015-10-05,1,,,,,エイコーエコスパ,0
103,1020001112469,登記記録の閉鎖等,0,2025-01-10,2024-12-25,株式会社ＳＫＪ,,株式会社,神奈川県,横浜市中区,蓬莱町２丁目６－３,,14,104,2310048,,,2024-12-25,清算の結了等,,,2015-10-05,1,,,,,エスケージェイ,0
112,1020003007857,登記記録の閉鎖等,0,2025-01-10,2024-12-25,合同会社美々爽々,,合同会社,神奈川県,川崎市麻生区,王禅寺東２丁目１９番７号,,14,137,2150018,,,2024-12-25,清算の結了等,,,2015-10-05,1,,,,,ビビソウソウ,0
121,1030001051666,登記記録の閉鎖等,0,2025-01-10,2024-12-26,テシマ設計株式会社,,株式会社,埼玉県,南埼玉郡宮代町,笠原２丁目２番６号,,11,442,3450822,,,2024-12-26,清算の結了等,,,2015-10-05,1,,,,,テシマセッケイ,0
143,1040001071259,登記記録の閉鎖等,0,2025-01-10,2024-12-27,株式会社松栄ゴム製作所,,株式会社,千葉県,野田市,蕃昌新田３８３番地,,12,208,2780000,,,2024-12-27,清算の結了等,,,2015-10-05,1,,,,,ショウエイゴムセイサクショ,0
151,1040002012831,登記記録の閉鎖等,0,2025-01-10,2024-12-26,有限会社渡辺冷藏庫製作所,,有限会社,千葉県,千葉市中央区,富士見２丁目１６番１号,,12,101,2600015,,,2024-12-26,清算の結了等,,,2015-10-05,1,,,,,ワタナベレイゾウコセイサクショ,0
152,1040002020850,登記記録の閉鎖等,0,2025-01-10,2024-12-26,有限会社江川建築設計事務所,,有限会社,千葉県,船橋市,夏見台１丁目１３番２１号,,12,204,2730866,,,2024-12-26,清算の結了等,,,2015-10-05,1,,,,,エガワケンチクセッケイジムショ,0
155,1040002045006,登記記録の閉鎖等,0,2025-01-10,2024-12-26,有限会社学友堂,,有限会社,千葉県,松戸市,稔台２丁目５８番地の９,,12,207,2702231,,,2024-12-26,清算の結了等,,,2015-10-05,1,,,,,ガクユウドウ,0
158,1050001053636,登記記録の閉鎖等,0,2025-01-10,2024-12-26,株式会社１ｕｐｓｔｙｌｅ,,株式会社,茨城県,古河市,宮前町５番１６号桜台西３０６,,08,204,3060031,,,2024-12-26,清算の結了等,,,2023-10-17,1,,,,,ワンナップスタイル,0
165,1080401001555,登記記録の閉鎖等,0,2025-01-10,2024-12-27,株式会社クレッセント,,株式会社,静岡県,浜松市中央区,菅原町８番１５号,,22,138,4328041,,,2024-12-27,合併による解散等,3080401005001,令和６年１２月２７日静岡県浜松市中央区菅原町８番１５号株式会社松並（3080401005001）に合併し解散,2015-10-05,1,,,,,クレッセント,0
173,1110005009842,登記記録の閉鎖等,0,2025-01-10,2025-01-06,宗顕寺,,その他の設立登記法人,新潟県,妙高市,大字上新保１０７６番地,,15,217,9440025,,,2025-01-06,清算の結了等,,,2015-10-05,1,,,,,ソウケンジ,0
175,1120001102641,登記記録の閉鎖等,0,2025-01-10,2024-12-26,日本メック株式会社,,株式会社,大阪府,大阪市北区,梅田１丁目１番３－２００号大阪駅前第３ビル２階,,27,127,5300001,,,2024-12-26,清算の結了等,,,2024-07-18,1,,,,,ニホンメック,0
179,1120001194340,登記記録の閉鎖等,0,2025-01-10,2024-12-20,株式会社フェニックスインターナショナル,,株式会社,大阪府,大阪市生野区,巽北３丁目１５番２６－８０６号,00104951,27,116,5440004,,,2024-12-20,清算の結了等,,,2015-11-11,1,,,,,フェニックスインターナショナル,0
180,1120001216210,登記記録の閉鎖等,0,2025-01-10,2025-01-06,Ａｍｂｉｖａｌｅｎｔ株式会社,,株式会社,大阪府,大阪市中央区,谷町９丁目１番７号,,27,128,5420012,,,2025-01-06,清算の結了等,,,2018-09-28,1,,,,,アンビバレント,0
209,1130001000183,登記記録の閉鎖等,0,2025-01-10,2025-01-06,株式会社エフオーエム,,株式会社,滋賀県,大津市,湖城が丘１９番９号,,25,201,5200821,,,2025-01-06,合併による解散等,2160001000535,令和７年１月１日滋賀県大津市湖城が丘１９番９号株式会社近畿予防医学研究所（2160001000535）に合併し解散,2015-10-05,1,,,,,エフオーエム,0
245,1180302026121,登記記録の閉鎖等,0,2025-01-10,2024-12-25,有限会社杉浦木型製作所,,有限会社,愛知県,西尾市,寺津５丁目１番地７,,23,213,4440327,,,2024-12-25,清算の結了等,,,2015-10-05,1,,,,,スギウラキガタセイサクジョ,0
256,1220001003854,登記記録の閉鎖等,0,2025-01-10,2025-01-10,大生商事株式会社,,株式会社,石川県,野々市市,本町１丁目４３番２０号,,17,212,9218815,,,2025-01-10,登記官による閉鎖,,,2017-05-01,1,,,,,タイセイショウジ,0
257,1220002005115,登記記録の閉鎖等,0,2025-01-10,2025-01-10,有限会社まる梅,,有限会社,石川県,金沢市,光が丘２丁目８２番地２,,17,201,9218142,,,2025-01-10,登記官による閉鎖,,,2015-10-05,1,,,,,,0
258,1220005002407,登記記録の閉鎖等,0,2025-01-10,2025-01-10,特定非営利活動法人いしかわ福祉医療協会,,その他の設立登記法人,石川県,金沢市,有松５丁目１０番２５号,,17,201,9218161,,,2025-01-10,登記官による閉鎖,,,2015-10-05,1,,,,,,0
261,1230002011566,登記記録の閉鎖等,0,2025-01-10,2025-01-06,有限会社辻屋酒店,00079159,有限会社,富山県,高岡市,伏木湊町７番８号,,16,202,9330104,,,2025-01-06,清算の結了等,,,2015-10-05,1,,,,,ツジヤサケテン,0
262,1230003000758,登記記録の閉鎖等,0,2025-01-10,2025-01-07,合同会社まなびねっと,,合同会社,富山県,富山市,婦中町高日附７９５番地,,16,201,9392613,,,2025-01-07,清算の結了等,,,2015-10-05,1,,,,,マナビネット,0
263,1240001007060,登記記録の閉鎖等,0,2025-01-10,2025-01-09,槌本ビル株式会社,,株式会社,広島県,広島市中区,小町９番２１号ダイアパレス小町８０２号室,,34,101,7300041,,,2025-01-09,登記官による閉鎖,,,2015-10-05,1,,,,,ツチモトビル,0
264,1240001007192,登記記録の閉鎖等,0,2025-01-10,2025-01-09,株式会社テクノ,,株式会社,広島県,広島市佐伯区,皆賀２丁目１２番１７号,,34,108,7315124,,,2025-01-09,登記官による閉鎖,,,2015-10-05,1,,,,,テクノ,0
265,1240001007663,登記記録の閉鎖等,0,2025-01-10,2025-01-09,株式会社ドッポー,,株式会社,広島県,広島市西区,南観音４丁目２番１号,,34,104,7330035,,,2025-01-09,登記官による閉鎖,,,2015-10-05,1,,,,,,0
266,1240001015963,登記記録の閉鎖等,0,2025-01-10,2025-01-09,章栄建設株式会社,,株式会社,広島県,広島市中区,中町２番１６号,,34,101,7300037,,,2025-01-09,登記官による閉鎖,,,2015-10-05,1,,,,,,0
267,1240001016623,登記記録の閉鎖等,0,2025-01-10,2025-01-09,株式会社アップル,,株式会社,広島県,広島市中区,中町７番１６－２号,,34,101,7300037,,,2025-01-09,登記官による閉鎖,,,2015-10-05,1,,,,,アップル,0
268,1240001022068,登記記録の閉鎖等,0,2025-01-10,2025-01-09,株式会社松浦,,株式会社,広島県,広島市中区,小町１番２０号,,34,101,7300041,,,2025-01-09,登記官による閉鎖,,,2015-10-05,1,,,,,,0
269,1240001022118,登記記録の閉鎖等,0,2025-01-10,2025-01-09,株式会社アールイーコロン,,株式会社,広島県,広島市中区,新天地１番２４号,,34,101,7300034,,,2025-01-09,登記官による閉鎖,,,2015-10-05,1,,,,,,0
270,1240001022860,登記記録の閉鎖等,0,2025-01-10,2025-01-09,株式会社セフ・ラン,,株式会社,広島県,東広島市,西条御条町６番２号,,34,212,7390013,,,2025-01-09,登記官による閉鎖,,,2015-10-05,1,,,,,,0
271,1240001023603,登記記録の閉鎖等,0,2025-01-10,2025-01-09,英伸サービス株式会社,,株式会社,広島県,東広島市,八本松南７丁目１３番６号,,34,212,7390144,,,2025-01-09,登記官による閉鎖,,,2015-10-05,1,,,,,,0
272,1240001035458,登記記録の閉鎖等,0,2025-01-10,2025-01-09,Ｎ’ｓ　ｅｎｔｅｒｔａｉｎ　ｖｉｓｉｔｏｒ株式会社,,株式会社,広島県,福山市,加茂町字北山４８９番地,,34,207,7202415,,,2025-01-09,登記官による閉鎖,,,2015-10-05,1,,,,,,0
274,1240001051991,登記記録の閉鎖等,0,2025-01-10,2025-01-09,水呑織物株式会社,,株式会社,広島県,福山市,水呑町４１１４番地,,34,207,7200832,,,2025-01-09,登記官による閉鎖,,,2017-11-29,1,,,,,,0
275,1240001053971,登記記録の閉鎖等,0,2025-01-10,2025-01-09,第一中國興産株式会社,,株式会社,広島県,呉市,西中央３丁目７番４１号,,34,202,7370811,,,2025-01-09,登記官による閉鎖,,,2019-02-22,1,,,,,ダイイチチュウゴクコウサン,0
276,1240002004222,登記記録の閉鎖等,0,2025-01-10,2025-01-09,有限会社河下構造事務所,,有限会社,広島県,広島市中区,八丁堀１番２３号,,34,101,7300013,,,2025-01-09,登記官による閉鎖,,,2015-10-05,1,,,,,,0
278,1240002010055,登記記録の閉鎖等,0,2025-01-10,2025-01-09,有限会社谷崎商事,,有限会社,広島県,広島市西区,三篠町２丁目１１番１４号,,34,104,7330003,,,2025-01-09,登記官による閉鎖,,,2015-10-05,1,,,,,,0
279,1240002025796,登記記録の閉鎖等,0,2025-01-10,2025-01-09,有限会社ＦＡＩＴＨ．Ｍ,,有限会社,広島県,広島市中区,千田町３丁目７番７３－７０４号,,34,101,7300052,,,2025-01-09,登記官による閉鎖,,,2015-10-05,1,,,,,,0
281,1240002028337,登記記録の閉鎖等,0,2025-01-10,2025-01-09,有限会社プラント機工,,有限会社,広島県,東広島市,黒瀬楢原北１丁目８番２３号,00001056,34,212,7392627,,,2025-01-09,登記官による閉鎖,,,2015-10-05,1,,,,,,0
282,1240002028428,登記記録の閉鎖等,0,2025-01-10,2025-01-09,有限会社マルヤマ,,有限会社,広島県,東広島市,西条町田口２０４番地の９０,,34,212,7390036,,,2025-01-09,登記官による閉鎖,,,2015-10-05,1,,,,,,0
283,1240002029632,登記記録の閉鎖等,0,2025-01-10,2025-01-09,有限会社大朝電化センター,,有限会社,広島県,山県郡北広島町,大朝２４５６番地,,34,369,7312104,,,2025-01-09,登記官による閉鎖,,,2015-10-05,1,,,,,,0
284,1240002031076,登記記録の閉鎖等,0,2025-01-10,2025-01-09,有限会社田中商店,,有限会社,広島県,安芸高田市,高宮町房後１０７２番地,,34,214,7391804,,,2025-01-09,登記官による閉鎖,,,2015-10-05,1,,,,,,0
285,1240002033989,登記記録の閉鎖等,0,2025-01-10,2025-01-09,有限会社フットウエアーうぶき,,有限会社,広島県,呉市,吉浦本町１丁目１１番１号,,34,202,7370861,,,2025-01-09,登記官による閉鎖,,,2015-10-05,1,,,,,,0
286,1240002041505,登記記録の閉鎖等,0,2025-01-10,2025-01-09,有限会社大丸地所,,有限会社,広島県,福山市,箕島町福泉寺４１７番地の２１,,34,207,7210957,,,2025-01-09,登記官による閉鎖,,,2015-10-05,1,,,,,,0
288,1240005002223,登記記録の閉鎖等,0,2025-01-10,2025-01-09,ライフケア事業協同組合,,その他の設立登記法人,広島県,広島市西区,己斐本町２丁目４番１６号,,34,104,7330812,,,2025-01-09,登記官による閉鎖,,,2015-10-05,1,,,,,,0
303,1290002044288,登記記録の閉鎖等,0,2025-01-10,2024-12-02,有限会社ホナミ運輸,,有限会社,福岡県,飯塚市,南尾６０２番地１２,,40,205,8200072,,,2024-12-02,合併による解散等,6290002046908,令和６年１２月１日福岡県飯塚市南尾６０２番地１２株式会社九通（6290002046908）に合併し解散,2015-10-05,1,,,,,,0
308,1300005003363,登記記録の閉鎖等,0,2025-01-10,2025-01-08,舟ノ原生産森林組合,,その他の設立登記法人,佐賀県,武雄市,山内町大字鳥海１８９３７番地１,,41,206,8492302,,,2025-01-08,清算の結了等,,,2015-10-05,1,,,,,フネノハラ,0
315,1340001009583,登記記録の閉鎖等,0,2025-01-10,2025-01-06,株式会社ＫＡＺＵ工業,,株式会社,鹿児島県,日置市,伊集院町下神殿１０８８の３番地,,46,216,8992511,,,2025-01-06,清算の結了等,,,2015-10-05,1,,,,,,0
336,1430002001290,登記記録の閉鎖等,0,2025-01-10,2025-01-06,アルバ有限会社,,有限会社,北海道,札幌市清田区,清田五条２丁目１９番１７号,,01,110,0040845,,,2025-01-06,清算の結了等,,,2015-10-05,1,,,,,アルバ,0
338,1430003004994,登記記録の閉鎖等,0,2025-01-10,2024-12-27,合同会社住友観光開発,,合同会社,北海道,札幌市西区,西町北１丁目２番１９号,,01,107,0630061,,,2024-12-27,合併による解散等,2430003013243,令和６年１１月２０日札幌市西区西町北一丁目２番１９号合同会社住友住宅（2430003013243）に合併し解散,2015-10-05,1,,,,,,0
344,2010001182561,登記記録の閉鎖等,0,2025-01-10,2025-01-06,株式会社グランドゥース,,株式会社,大阪府,大阪市北区,梅田１丁目１－３大阪駅前第３ビル２３０７,,27,127,5300001,,,2025-01-06,清算の結了等,,,2017-04-11,1,,,,,グランドゥース,0
346,2010001205009,登記記録の閉鎖等,0,2025-01-10,2024-12-20,ｓｏｎｎｅｎ　Ｊａｐａｎ株式会社,,株式会社,東京都,千代田区,丸の内１丁目１１番１号パシフィックセンチュリープレイス丸の内,,13,101,1000005,,,2024-12-20,清算の結了等,,,2019-10-30,1,,,,,ゾンネンジャパン,0
353,2010003031700,登記記録の閉鎖等,0,2025-01-10,2024-12-23,東日本ロジ合同会社,,合同会社,東京都,千代田区,平河町１丁目６番１５号シルスフィア会計事務所内,,13,101,1020093,,,2024-12-23,清算の結了等,,,2020-02-21,1,,,,,ヒガシニホンロジ,0
364,2010401090298,登記記録の閉鎖等,0,2025-01-10,2024-12-26,ウォッチレスキュー株式会社,,株式会社,東京都,杉並区,阿佐谷北２丁目１３番２号阿佐谷北口駅前ビル１階,,13,115,1660001,,,2024-12-26,清算の結了等,,,2015-10-05,1,,,,,ウォッチレスキュー,0
365,2010401093607,登記記録の閉鎖等,0,2025-01-10,2024-12-16,株式会社従心会倶楽部,,株式会社,東京都,港区,虎ノ門３丁目６番２号第２秋山ビル,,13,103,1050001,,,2024-12-16,清算の結了等,,,2015-10-05,1,,,,,ジュウシンカイクラブ,0
374,2010405019500,登記記録の閉鎖等,0,2025-01-10,2024-12-17,ＭＦＪＰＮ２特定目的会社,,その他の設立登記法人,東京都,港区,虎ノ門３丁目２２番１０－２０１号,,13,103,1050001,,,2024-12-17,清算の結了等,,,2021-02-19,1,,,,,エムエフジェイピーエヌツー,0
376,2010501025781,登記記録の閉鎖等,0,2025-01-10,2024-12-25,株式会社ココロコ,,株式会社,東京都,台東区,浅草橋１丁目６番１号,,13,106,1110053,,,2024-12-25,清算の結了等,,,2015-10-05,1,,,,,ココロコ,0
383,2010801012868,登記記録の閉鎖等,0,2025-01-10,2024-12-27,株式会社ワタナベ,,株式会社,東京都,大田区,大森中３丁目８番２３号,,13,111,1430014,,,2024-12-27,清算の結了等,,,2015-10-05,1,,,,,ワタナベ,0
396,2011001140914,登記記録の閉鎖等,0,2025-01-10,2024-12-09,株式会社ケイ・オカムラ,,株式会社,東京都,目黒区,柿の木坂２丁目１７番２０号,,13,110,1520022,,,2024-12-09,清算の結了等,,,2021-06-08,1,,,,,ケイオカムラ,0
417,2011602022214,登記記録の閉鎖等,0,2025-01-10,2024-12-25,ＳＳＴ有限会社,,有限会社,東京都,練馬区,立野町２４番１１号,,13,120,1770054,,,2024-12-25,清算の結了等,,,2015-10-05,1,,,,,エスエスティ,0
421,2011802001843,登記記録の閉鎖等,0,2025-01-10,2024-12-27,有限会社片岡商店,,有限会社,東京都,葛飾区,立石７丁目２番１号,,13,122,1240012,,,2024-12-27,清算の結了等,,,2015-10-05,1,,,,,カタオカショウテン,0
428,2012702013524,登記記録の閉鎖等,0,2025-01-10,2024-12-24,有限会社安部興業,,有限会社,東京都,西東京市,向台町２丁目６番１１号,,13,229,1880013,,,2024-12-24,清算の結了等,,,2015-10-05,1,,,,,アベコウギョウ,0
447,2020002047853,登記記録の閉鎖等,0,2025-01-10,2025-01-06,有限会社西部商事,,有限会社,神奈川県,川崎市宮前区,犬蔵２丁目３３番１５号,,14,136,2160011,,,2025-01-06,清算の結了等,,,2015-10-05,1,,,,,ニシベショウジ,0
448,2020002083188,登記記録の閉鎖等,0,2025-01-10,2024-12-20,有限会社鹿島工務店,,有限会社,神奈川県,川崎市中原区,下小田中４丁目２０番１号,,14,133,2110041,,,2024-12-20,清算の結了等,,,2015-10-05,1,,,,,カシマコウムテン,0
455,2021002000109,登記記録の閉鎖等,0,2025-01-10,2025-01-08,アーバン有限会社,,有限会社,神奈川県,藤沢市,善行２丁目３番地の２,,14,205,2510871,,,2025-01-08,清算の結了等,,,2015-10-05,1,,,,,アーバン,0
461,2030001071705,登記記録の閉鎖等,0,2025-01-10,2024-12-26,株式会社協働舎,,株式会社,埼玉県,比企郡ときがわ町,大字玉川２８９３番地の７,,11,349,3550342,,,2024-12-26,清算の結了等,,,2015-10-05,1,,,,,キョウドウシャ,0
462,2030001131839,登記記録の閉鎖等,0,2025-01-10,2025-01-06,株式会社Ｃｏｗｂｏｙ’ｓ　Ｋｉｔｃｈｅｎ,,株式会社,埼玉県,新座市,野火止４丁目１３番１１号,,11,230,3520011,,,2025-01-06,清算の結了等,,,2019-07-04,1,,,,,カウボーイズキッチン,0
478,2040003010684,登記記録の閉鎖等,0,2025-01-10,2024-12-27,日本自動車Ａｕｔｏ合同会社,,合同会社,千葉県,千葉市若葉区,川井町２２４番地の２,,12,104,2650062,,,2024-12-27,清算の結了等,,,2017-10-05,1,,,,,ニホンジドウシャオウト,0
483,2050002035830,登記記録の閉鎖等,0,2025-01-10,2025-01-06,有限会社大和屋製材所,,有限会社,茨城県,常陸大宮市,上檜沢１９４６番地,,08,225,3192511,,,2025-01-06,清算の結了等,,,2015-10-05,1,,,,,ヤマトヤセイザイショ,0
486,2060002008653,登記記録の閉鎖等,0,2025-01-10,2024-12-27,有限会社ミサオ工業,,有限会社,栃木県,宇都宮市,陽東１丁目１１番１８号,,09,201,3210904,,,2024-12-27,清算の結了等,,,2015-10-05,1,,,,,ミサオコウギョウ,0
489,2060002034022,登記記録の閉鎖等,0,2025-01-10,2024-12-27,有限会社かねふく,,有限会社,栃木県,栃木市,河合町９番１０号,,09,203,3280041,,,2024-12-27,清算の結了等,,,2015-10-05,1,,,,,カネフク,0
498,2080402016080,登記記録の閉鎖等,0,2025-01-10,2025-01-06,有限会社西澤建築,,有限会社,静岡県,浜松市浜名区,引佐町伊平１２４８番地の２,,22,139,4312205,,,2025-01-06,清算の結了等,,,2015-10-05,1,,,,,ニシザワケンチク,0
511,2120001213842,登記記録の閉鎖等,0,2025-01-10,2025-01-08,株式会社アシスト,,株式会社,大阪府,大阪市都島区,大東町３丁目６番２０号,,27,102,5340002,,,2025-01-08,清算の結了等,,,2018-06-14,1,,,,,アシスト,0
540,2140001040491,登記記録の閉鎖等,0,2025-01-10,2025-01-06,兵庫プレカット株式会社,,株式会社,兵庫県,宍粟市,山崎町須賀沢８８１番地１３,,28,227,6712533,,,2025-01-06,合併による解散等,2140001062767,令和７年１月１日兵庫県姫路市三左衛門堀西の町２０５番地の２株式会社テクニカルアート兵庫（2140001062767）に合併し解散,2015-10-05,1,,,,,ヒョウゴプレカット,0
547,2140001097342,登記記録の閉鎖等,0,2025-01-10,2025-01-06,株式会社イサトデザインワークス,,株式会社,兵庫県,神戸市中央区,中山手通５丁目２番３号扇都センタービル６０２号,,28,110,6500004,,,2025-01-06,清算の結了等,,,2015-10-05,1,,,,,イサトデザインワークス,0
553,2150003002852,登記記録の閉鎖等,0,2025-01-10,2025-01-09,ＦＯＸＴＲＡＩＬ　ＯＵＴＤＯＯＲ合同会社,,合同会社,奈良県,奈良市,中登美ヶ丘６丁目１３番２－３１３号,,29,201,6310003,,,2025-01-09,清算の結了等,,,2023-01-10,1,,,,,フォックストレイルアウトドア,0
558,2180001017346,登記記録の閉鎖等,0,2025-01-10,2024-12-25,株式会社ＨＩＲＯＭＩカンパニー,,株式会社,愛知県,春日井市,下条町１２１２番地１,,23,206,4860923,,,2024-12-25,清算の結了等,,,2015-10-05,1,,,,,ヒロミカンパニー,0
559,2180001047228,登記記録の閉鎖等,0,2025-01-10,2024-12-25,アプローチ株式会社,,株式会社,愛知県,名古屋市千種区,竹越１丁目１１番１６号,,23,101,4640007,,,2024-12-25,清算の結了等,,,2015-10-05,1,,,,,アプローチ,0
592,2220001001056,登記記録の閉鎖等,0,2025-01-10,2025-01-10,株式会社イケノ住宅,,株式会社,石川県,金沢市,円光寺３丁目１２番１１号,,17,201,9218173,,,2025-01-10,登記官による閉鎖,,,2015-10-05,1,,,,,,0
593,2220001002632,登記記録の閉鎖等,0,2025-01-10,2025-01-10,株式会社コアー,,株式会社,石川県,金沢市,堀川町２番１３号,,17,201,9200847,,,2025-01-10,登記官による閉鎖,,,2019-06-17,1,,,,,コアー,0
594,2220001003044,登記記録の閉鎖等,0,2025-01-10,2025-01-10,佐々木物産株式会社,,株式会社,石川県,金沢市,高尾台３丁目１９７番地,,17,201,9218155,,,2025-01-10,登記官による閉鎖,,,2015-10-05,1,,,,,,0
595,2220001005156,登記記録の閉鎖等,0,2025-01-10,2025-01-10,株式会社ピュアウォータートレーディング,,株式会社,石川県,金沢市,駅西本町１丁目１番３４号,,17,201,9200025,,,2025-01-10,登記官による閉鎖,,,2015-10-05,1,,,,,,0
596,2220001017614,登記記録の閉鎖等,0,2025-01-10,2025-01-10,たかまつ食品株式会社,,株式会社,石川県,かほく市,高松甲１６番地９９,,17,209,9291215,,,2025-01-10,登記官による閉鎖,,,2015-10-05,1,,,,,,0
597,2220001018249,登記記録の閉鎖等,0,2025-01-10,2025-01-10,株式会社ＡＫＹプロダクション,,株式会社,石川県,金沢市,福久町ハ２２番地２,,17,201,9203122,,,2025-01-10,登記官による閉鎖,,,2015-10-05,1,,,,,,0
600,2240001000171,登記記録の閉鎖等,0,2025-01-10,2025-01-09,株式会社ＡＩＴＹ,,株式会社,広島県,廿日市市,宮島口西１丁目４番１３－１３０３号,,34,213,7390412,,,2025-01-09,登記官による閉鎖,,,2015-10-05,1,,,,,,0
601,2240001011672,登記記録の閉鎖等,0,2025-01-10,2025-01-09,株式会社ムラヤマカードツクセンター,,株式会社,広島県,広島市西区,高須４丁目１０番２３号,,34,104,7330871,,,2025-01-09,登記官による閉鎖,,,2015-10-05,1,,,,,ムラヤマカードツクセンター,0
602,2240001017125,登記記録の閉鎖等,0,2025-01-10,2025-01-09,株式会社ビジネスサポート,,株式会社,広島県,広島市中区,大手町３丁目１３番１８号,,34,101,7300051,,,2025-01-09,登記官による閉鎖,,,2015-10-05,1,,,,,,0
603,2240001022166,登記記録の閉鎖等,0,2025-01-10,2025-01-09,株式会社キーノート,,株式会社,広島県,広島市安佐南区,伴東８丁目７０番１１号,,34,105,7313164,,,2025-01-09,登記官による閉鎖,,,2015-10-05,1,,,,,,0
604,2240001029277,登記記録の閉鎖等,0,2025-01-10,2025-01-09,株式会社やぐち民間救急サービス,,株式会社,広島県,広島市安佐北区,落合１丁目４１番１２号,,34,106,7391731,,,2025-01-09,登記官による閉鎖,,,2015-10-05,1,,,,,,0
605,2240001032578,登記記録の閉鎖等,0,2025-01-10,2025-01-09,株式会社れたす,,株式会社,広島県,福山市,水呑町２４０５番地の２,,34,207,7200832,,,2025-01-09,登記官による閉鎖,,,2015-10-05,1,,,,,,0
606,2240001035416,登記記録の閉鎖等,0,2025-01-10,2025-01-09,株式会社Ｒｉｎｇｓ,,株式会社,広島県,福山市,春日町３丁目２４番１０号,,34,207,7210907,,,2025-01-09,登記官による閉鎖,,,2015-10-05,1,,,,,,0
607,2240001037346,登記記録の閉鎖等,0,2025-01-10,2025-01-09,仙場商店株式会社,,株式会社,広島県,竹原市,本町３丁目２番２５号,,34,203,7250022,,,2025-01-09,登記官による閉鎖,,,2015-10-05,1,,,,,,0
608,2240001037981,登記記録の閉鎖等,0,2025-01-10,2025-01-09,株式会社神原酒舗,,株式会社,広島県,尾道市,長江１丁目２２番３号,,34,205,7220046,,,2025-01-09,登記官による閉鎖,,,2015-10-05,1,,,,,,0
609,2240001041661,登記記録の閉鎖等,0,2025-01-10,2025-01-09,株式会社モンレーヴ,,株式会社,広島県,広島市中区,上八丁堀８番２３号,,34,101,7300012,,,2025-01-09,登記官による閉鎖,,,2015-10-05,1,,,,,,0
611,2240001054052,登記記録の閉鎖等,0,2025-01-10,2025-01-06,株式会社ＷＯＷＨＯＵＳＥ,,株式会社,広島県,福山市,南蔵王町６丁目１２番２２号,,34,207,7210973,,,2025-01-06,合併による解散等,2240001033031,令和７年１月１日広島県福山市南蔵王町六丁目１２番２２号ワウハウス株式会社（2240001033031）に合併し解散,2019-03-12,1,,,,,ワウハウス,0
612,2240002003784,登記記録の閉鎖等,0,2025-01-10,2025-01-09,有限会社ひろしま女性学研究所,,有限会社,広島県,広島市中区,白島北町１６番２５号,,34,101,7300001,,,2025-01-09,登記官による閉鎖,,,2019-10-01,1,,,,,ヒロシマジョセイガクケンキュウショ,0
613,2240002004139,登記記録の閉鎖等,0,2025-01-10,2025-01-09,有限会社神山流通研究所,,有限会社,広島県,広島市佐伯区,海老園４丁目８番１－９０６号,,34,108,7315135,,,2025-01-09,登記官による閉鎖,,,2015-10-05,1,,,,,,0
614,2240002007199,登記記録の閉鎖等,0,2025-01-10,2025-01-09,有限会社サロンドベベ,,有限会社,広島県,広島市南区,西旭町２１－１７コープ野村１Ｆ,,34,103,7340002,,,2025-01-09,登記官による閉鎖,,,2015-10-05,1,,,,,,0
615,2240002010228,登記記録の閉鎖等,0,2025-01-10,2025-01-09,有限会社中国新聞安西販売所,,有限会社,広島県,広島市安佐南区,長楽寺１丁目９番４号,,34,105,7310143,,,2025-01-09,登記官による閉鎖,,,2015-10-05,1,,,,,,0
616,2240002013486,登記記録の閉鎖等,0,2025-01-10,2025-01-09,有限会社はな子,,有限会社,広島県,広島市中区,薬研堀２番１７号ロータリービル３階,,34,101,7300027,,,2025-01-09,登記官による閉鎖,,,2015-10-05,1,,,,,,0
617,2240002015672,登記記録の閉鎖等,0,2025-01-10,2025-01-09,有限会社松本製作所,,有限会社,広島県,広島市南区,大州３丁目３番１１号,,34,103,7320802,,,2025-01-09,登記官による閉鎖,,,2015-10-05,1,,,,,,0
618,2240002018923,登記記録の閉鎖等,0,2025-01-10,2025-01-09,有限会社アキュパンチャー・コジマ,,有限会社,広島県,広島市中区,昭和町２番８号,,34,101,7300046,,,2025-01-09,登記官による閉鎖,,,2015-10-05,1,,,,,,0
619,2240002041603,登記記録の閉鎖等,0,2025-01-10,2025-01-06,有限会社高橋材木店,,有限会社,広島県,福山市,松永町３丁目１５番３号,,34,207,7290104,,,2025-01-06,清算の結了等,,,2015-10-05,1,,,,,タカハシザイモクテン,0
622,2240002043839,登記記録の閉鎖等,0,2025-01-10,2025-01-09,有限会社若林組,,有限会社,広島県,福山市,本庄町中２丁目１１番１１号,,34,207,7200076,,,2025-01-09,登記官による閉鎖,,,2015-10-05,1,,,,,,0
623,2240002047947,登記記録の閉鎖等,0,2025-01-10,2025-01-09,有限会社共和商会,,有限会社,広島県,安芸郡熊野町,萩原６丁目９番８号,,34,307,7314213,,,2025-01-09,登記官による閉鎖,,,2015-10-05,1,,,,,,0
624,2240002051123,登記記録の閉鎖等,0,2025-01-10,2025-01-09,日光自動車有限会社,,有限会社,広島県,尾道市,向島町８５７５番地の１,,34,205,7220073,,,2025-01-09,登記官による閉鎖,,,2015-10-05,1,,,,,,0
626,2240005007816,登記記録の閉鎖等,0,2025-01-10,2025-01-09,福山管工設備企業組合,,その他の設立登記法人,広島県,福山市,瀬戸町大字長和２５０番地の６,,34,207,7200836,,,2025-01-09,登記官による閉鎖,,,2015-10-05,1,,,,,,0
627,2240005009960,登記記録の閉鎖等,0,2025-01-10,2025-01-09,特定非営利活動法人国際交流ＰＲＯ’Ｓ,,その他の設立登記法人,広島県,府中市,栗柄町３６７番地の１,,34,208,7260023,,,2025-01-09,登記官による閉鎖,,,2015-10-05,1,,,,,,0
629,2250002005458,登記記録の閉鎖等,0,2025-01-10,2025-01-08,有限会社濱本工業所,,有限会社,山口県,宇部市,居能町２丁目１０番１５号,,35,202,7550055,,,2025-01-08,清算の結了等,,,2015-10-05,1,,,,,ハマモトコウギョウショ,0
642,2290003009322,登記記録の閉鎖等,0,2025-01-10,2024-12-17,合同会社藤井,,合同会社,福岡県,春日市,春日原東町２丁目４２番地パラッシオ春日原東町４０１号,,40,218,8160801,,,2024-12-17,清算の結了等,,,2019-09-05,1,,,,,フジイ,0
649,2340001018187,登記記録の閉鎖等,0,2025-01-10,2025-01-06,株式会社晟愛義肢製作所,,株式会社,鹿児島県,鹿児島市,武２丁目４７番４０号,,46,201,8900045,,,2025-01-06,清算の結了等,,,2015-10-05,1,,,,,,0
653,2350003001017,登記記録の閉鎖等,0,2025-01-10,2025-01-06,合名会社桜谷電気商会,,合名会社,宮崎県,延岡市,本小路９６番地６,,45,203,8820812,,,2025-01-06,清算の結了等,,,2015-10-05,1,,,,,サクラダニデンキショウカイ,0
664,2370002009934,登記記録の閉鎖等,0,2025-01-10,2024-12-26,有限会社遠藤製本所,,有限会社,宮城県,仙台市青葉区,中江１丁目６番６号,,04,101,9800001,,,2024-12-26,清算の結了等,,,2015-10-05,1,,,,,エンドウセイホンジョ,0
665,2370003004967,登記記録の閉鎖等,0,2025-01-10,2024-12-26,合同会社ｌａｎｄ　ｔｅｃｈ,,合同会社,宮城県,仙台市青葉区,上杉１丁目１４番２５号ロイヤルヒルズ上杉ＩＩＩ２０２号室,00121074,04,101,9800011,,,2024-12-26,清算の結了等,,,2020-10-16,1,,,,,ランドテック,0
667,2370005003538,登記記録の閉鎖等,0,2025-01-10,2024-12-26,特定非営利活動法人バルサモ学習指導奉仕協会,,その他の設立登記法人,宮城県,仙台市青葉区,花京院２丁目１番９－３０３号,,04,101,9800013,,,2024-12-26,清算の結了等,,,2015-10-05,1,,,,,バルサモガクシュウシドウホウシキョウカイ,0
679,2430003005083,登記記録の閉鎖等,0,2025-01-10,2024-12-17,ＭｙＣＯＳＭＥ合同会社,,合同会社,福岡県,福岡市東区,香椎照葉４丁目２番５－５１２号,,40,131,8130017,,,2024-12-17,清算の結了等,,,2015-10-05,1,,,,,マイコスメ,0
682,2450005002119,登記記録の閉鎖等,0,2025-01-10,2025-01-07,医療法人高橋歯科医院,00090853,その他の設立登記法人,北海道,富良野市,日の出町３番２号,,01,229,0760025,,,2025-01-07,清算の結了等,,,2015-10-05,1,,,,,タカハシシカイイン,0
685,2470002013496,登記記録の閉鎖等,0,2025-01-10,2025-01-06,有限会社宮本工務店,,有限会社,香川県,仲多度郡まんのう町,吉野８７８番地１,,37,406,7660023,,,2025-01-06,清算の結了等,,,2015-10-05,1,,,,,ミヤモトコウムテン,0
701,3010003036871,登記記録の閉鎖等,0,2025-01-10,2024-12-23,千葉インダストリアル合同会社,,合同会社,東京都,千代田区,平河町１丁目６番１５号シルスフィア会計事務所内,,13,101,1020093,,,2024-12-23,清算の結了等,,,2022-01-28,1,,,,,チバインダストリアル,0
702,3010003037671,登記記録の閉鎖等,0,2025-01-10,2024-12-23,Ｚｅｎｄｒｉｖｅ　Ｊａｐａｎ合同会社,,合同会社,東京都,千代田区,大手町１丁目５番１号大手町ファーストスクエア・イースト・タワー４階,,13,101,1000004,,,2024-12-23,清算の結了等,,,2022-05-18,1,,,,,ゼンドライブジャパン,0
719,3010403011433,登記記録の閉鎖等,0,2025-01-10,2024-12-26,合同会社ＪＲＥ酒田風力,,合同会社,東京都,港区,六本木６丁目２番３１号六本木ヒルズノースタワー１５階,,13,103,1060032,,,2024-12-26,清算の結了等,,,2015-10-05,1,,,,,ジェーアールイーサカタフウリョク,0
720,3010405016950,登記記録の閉鎖等,0,2025-01-10,2024-12-13,一般社団法人東京女子営業大学,,その他の設立登記法人,東京都,港区,麻布台１丁目９番１０号飯倉ＩＴビル７階,,13,103,1060041,,,2024-12-13,清算の結了等,,,2018-08-02,1,,,,,トウキョウジョシエイギョウダイガク,0
740,3011001139971,登記記録の閉鎖等,0,2025-01-10,2024-12-25,株式会社ＡＩ　ＮＥＸＴ　Ｈｏｌｄｉｎｇｓ,,株式会社,東京都,目黒区,東山３丁目３番１０号,,13,110,1530043,,,2024-12-25,清算の結了等,,,2021-04-22,1,,,,,エーアイネクストホールディングス,0
751,3011101071158,登記記録の閉鎖等,0,2025-01-10,2025-01-09,株式会社ウエスト電力,,株式会社,広島県,広島市西区,楠木町１丁目１５番２４号,,34,104,7330002,,,2025-01-09,登記官による閉鎖,,,2015-10-05,1,,,,,ウエストデンリョク,0
790,3030002055219,登記記録の閉鎖等,0,2025-01-10,2024-12-27,有限会社茂呂空調,,有限会社,埼玉県,上尾市,中妻５丁目２５番地３２,,11,219,3620072,,,2024-12-27,清算の結了等,,,2015-10-05,1,,,,,モロクウチョウ,0
791,3030002059715,登記記録の閉鎖等,0,2025-01-10,2024-12-27,有限会社ギャラクシー,,有限会社,埼玉県,志木市,中宗岡２丁目１番４１号,,11,228,3530002,,,2024-12-27,清算の結了等,,,2015-10-05,1,,,,,ギャラクシー,0
792,3030002064062,登記記録の閉鎖等,0,2025-01-10,2024-12-26,有限会社加登屋商店,,有限会社,埼玉県,和光市,白子１丁目２４番８号,,11,229,3510101,,,2024-12-26,清算の結了等,,,2015-10-05,1,,,,,カトウヤショウテン,0
794,3030002121697,登記記録の閉鎖等,0,2025-01-10,2024-12-27,有限会社福井商会,,有限会社,埼玉県,秩父市,日野田町２丁目６番２４号,,11,207,3680034,,,2024-12-27,清算の結了等,,,2015-10-05,1,,,,,フクイショウカイ,0
798,3030003018736,登記記録の閉鎖等,0,2025-01-10,2025-01-06,合同会社アルファベート,,合同会社,埼玉県,新座市,東１丁目２番３の１０６号,,11,230,3520002,,,2025-01-06,清算の結了等,,,2022-01-28,1,,,,,アルファベート,0
827,3080401001116,登記記録の閉鎖等,0,2025-01-10,2024-12-27,小田フェンス工業株式会社,,株式会社,静岡県,浜松市中央区,渡瀬町３０７番地,,22,138,4350036,,,2024-12-27,清算の結了等,,,2015-10-05,1,,,,,オダフェンスコウギョウ,0
837,3120001051878,登記記録の閉鎖等,0,2025-01-10,2025-01-07,三光紙業株式会社,,株式会社,沖縄県,中頭郡読谷村,字波平８１９番地１,,47,324,9040322,,,2025-01-07,清算の結了等,,,2015-10-05,1,,,,,サンコウシギョウ,0
852,3120002070761,登記記録の閉鎖等,0,2025-01-10,2025-01-06,有限会社サンフェニックス,,有限会社,大阪府,大阪市城東区,諏訪４丁目１３番２号,,27,118,5360021,,,2025-01-06,清算の結了等,,,2015-10-05,1,,,,,,0
857,3120105008898,登記記録の閉鎖等,0,2025-01-10,2024-12-27,一般社団法人スマイルアット,,その他の設立登記法人,大阪府,堺市中区,土師町５丁１５番３５号ヒルズ土師２０３,,27,142,5998238,,,2024-12-27,清算の結了等,,,2018-07-19,1,,,,,スマイルアット,0
862,3122001032362,登記記録の閉鎖等,0,2025-01-10,2025-01-06,株式会社ハクト,,株式会社,大阪府,大阪市生野区,田島２丁目２番１５号,,27,116,5440011,,,2025-01-06,清算の結了等,,,2019-02-25,1,,,,,ハクト,0
867,3130002009321,登記記録の閉鎖等,0,2025-01-10,2025-01-07,有限会社まこと工業,,有限会社,京都府,京都市西京区,桂千代原町１１番地１４,,26,111,6158085,,,2025-01-07,清算の結了等,,,2015-10-05,1,,,,,マコトコウギョウ,0
873,3140001054029,登記記録の閉鎖等,0,2025-01-10,2024-12-27,株式会社ラジカルオプティ,,株式会社,大阪府,大阪市阿倍野区,阪南町３丁目１－８シーダーバレーＩ,00128330,27,119,5450021,,,2024-12-27,清算の結了等,,,2015-10-05,1,,,,,ラジカルオプティ,0
874,3140001114699,登記記録の閉鎖等,0,2025-01-10,2025-01-06,株式会社ＦＡＤＷＥ,,株式会社,兵庫県,神戸市中央区,中山手通１丁目４番２３号レインボービルＢ１Ｆ,,28,110,6500004,,,2025-01-06,合併による解散等,3140001133625,令和７年１月１日神戸市中央区栄町通五丁目２番１９号ＣＮＤ株式会社（3140001133625）に合併し解散,2019-08-29,1,,,,,ファドウィ,0
884,3140002068903,登記記録の閉鎖等,0,2025-01-10,2025-01-06,有限会社センタープラザ土井,,有限会社,兵庫県,洲本市,五色町都志３８２番地の１,,28,205,6561301,,,2025-01-06,清算の結了等,,,2015-10-05,1,,,,,センタープラザドイ,0
886,3150001004981,登記記録の閉鎖等,0,2025-01-10,2025-01-07,株式会社大宣工房,,株式会社,奈良県,生駒市,東松ケ丘１６番１６号,,29,209,6300244,,,2025-01-07,合併による解散等,2150001004982,令和７年１月１日奈良県生駒市元町一丁目６番１２号大光宣伝株式会社（2150001004982）に合併し解散,2015-10-05,1,,,,,ダイセンコウボウ,0
905,3180301024066,登記記録の閉鎖等,0,2025-01-10,2025-01-08,株式会社ヒラマツヤ,,株式会社,愛知県,新城市,字町並３３１番・３３２番合併地,,23,221,4411374,,,2025-01-08,清算の結了等,,,2015-10-05,1,,,,,ヒラマツヤ,0
909,3190002019471,登記記録の閉鎖等,0,2025-01-10,2025-01-08,有限会社エヌ・ビ・アール工業,,有限会社,三重県,四日市市,富田４丁目３番５号,,24,202,5108014,,,2025-01-08,清算の結了等,,,2015-10-05,1,,,,,エヌビアールコウギョウ,0
911,3200002000388,登記記録の閉鎖等,0,2025-01-10,2025-01-06,有限会社イタバシトランスポート,,有限会社,岐阜県,岐阜市,六条福寿町３番５号,,21,201,5008354,,,2025-01-06,合併による解散等,8200002000383,令和７年１月１日岐阜市六条福寿町３番５号株式会社ＩＴＡＢＡＳＨＩ（8200002000383）に合併し解散,2015-10-05,1,,,,,イタバシトランスポート,0
918,3220002001293,登記記録の閉鎖等,0,2025-01-10,2025-01-10,有限会社浮世寿し,,有限会社,石川県,金沢市,石引１丁目１１番１２号,,17,201,9200935,,,2025-01-10,登記官による閉鎖,,,2015-10-05,1,,,,,,0
919,3220005003122,登記記録の閉鎖等,0,2025-01-10,2025-01-10,特定非営利活動法人わらべ館,,その他の設立登記法人,石川県,金沢市,円光寺本町１３番８号,,17,201,9218176,,,2025-01-10,登記官による閉鎖,,,2015-10-05,1,,,,,,0
920,3220005006018,登記記録の閉鎖等,0,2025-01-10,2025-01-10,特定非営利活動法人じんのび,,その他の設立登記法人,石川県,鳳珠郡穴水町,字鵜島ロの３８番地,,17,461,9270031,,,2025-01-10,登記官による閉鎖,,,2015-10-05,1,,,,,,0
923,3240001010392,登記記録の閉鎖等,0,2025-01-10,2025-01-09,藤田服飾株式会社,,株式会社,広島県,広島市西区,商工センター２丁目１１番１２号,,34,104,7330833,,,2025-01-09,登記官による閉鎖,,,2015-10-05,1,,,,,,0
924,3240001014195,登記記録の閉鎖等,0,2025-01-10,2025-01-09,エーティーカンパニー株式会社,,株式会社,広島県,広島市南区,段原４丁目２番３号,,34,103,7320811,,,2025-01-09,登記官による閉鎖,,,2015-10-05,1,,,,,エーティーカンパニー,0
925,3240001014591,登記記録の閉鎖等,0,2025-01-10,2025-01-09,株式会社コム・エンタープライゼス・ジャパン,,株式会社,広島県,広島市中区,舟入南３丁目２番１９号,,34,101,7300847,,,2025-01-09,登記官による閉鎖,,,2015-10-05,1,,,,,,0
926,3240001022883,登記記録の閉鎖等,0,2025-01-10,2025-01-09,株式会社元屋,,株式会社,広島県,東広島市,志和町志和堀３２１５番地の３,,34,212,7390269,,,2025-01-09,登記官による閉鎖,,,2015-10-05,1,,,,,,0
927,3240001031182,登記記録の閉鎖等,0,2025-01-10,2025-01-09,株式会社太陽,,株式会社,広島県,福山市,南蔵王町５丁目２３番５０号,,34,207,7210973,,,2025-01-09,登記官による閉鎖,,,2015-10-05,1,,,,,,0
929,3240001043863,登記記録の閉鎖等,0,2025-01-10,2025-01-09,株式会社美顔施星の浦,,株式会社,広島県,福山市,鞆町後地１５９８番地１,,34,207,7200202,,,2025-01-09,登記官による閉鎖,,,2015-10-05,1,,,,,,0
931,3240001053243,登記記録の閉鎖等,0,2025-01-10,2025-01-09,株式会社河富士陶器店,,株式会社,広島県,広島市南区,的場町１丁目２番２５号,,34,103,7320824,,,2025-01-09,登記官による閉鎖,,,2018-09-03,1,,,,,カワフジトウキテン,0
933,3240002008279,登記記録の閉鎖等,0,2025-01-10,2025-01-09,有限会社視力回復センター,,有限会社,広島県,広島市西区,横川町３丁目１２番７号,,34,104,7330011,,,2025-01-09,登記官による閉鎖,,,2015-10-05,1,,,,,,0
934,3240002016678,登記記録の閉鎖等,0,2025-01-10,2025-01-09,有限会社メディク広島,,有限会社,広島県,広島市中区,広瀬北町５番３２号,,34,101,7300803,,,2025-01-09,登記官による閉鎖,,,2015-10-05,1,,,,,,0
935,3240002016950,登記記録の閉鎖等,0,2025-01-10,2025-01-09,有限会社ヤングツルヤ,,有限会社,広島県,広島市中区,東平塚町２番２２－２０１号,,34,101,7300025,,,2025-01-09,登記官による閉鎖,,,2015-10-05,1,,,,,,0
936,3240002017321,登記記録の閉鎖等,0,2025-01-10,2025-01-09,ヤマニシ内装有限会社,,有限会社,広島県,広島市安佐南区,沼田町大字伴８８６２番地の６,,34,105,7313161,,,2025-01-09,登記官による閉鎖,,,2015-10-05,1,,,,,,0
937,3240002018055,登記記録の閉鎖等,0,2025-01-10,2025-01-09,有限会社若葉製作所,,有限会社,広島県,広島市安佐南区,沼田町伴字大下４０７３番地の１,,34,105,7310100,,,2025-01-09,登記官による閉鎖,,,2015-10-05,1,,,,,,0
938,3240002028649,登記記録の閉鎖等,0,2025-01-10,2025-01-09,有限会社脇坂コーポ,,有限会社,広島県,東広島市,西条中央１丁目９番２１号,,34,212,7390025,,,2025-01-09,登記官による閉鎖,,,2015-10-05,1,,,,,,0
939,3240002037625,登記記録の閉鎖等,0,2025-01-10,2025-01-09,有限会社ゲイナンエキスプレス,,有限会社,広島県,大竹市,南栄３丁目５番４号,,34,211,7390602,,,2025-01-09,登記官による閉鎖,,,2015-10-05,1,,,,,,0
940,3240002043549,登記記録の閉鎖等,0,2025-01-10,2025-01-09,有限会社山富商店,,有限会社,広島県,福山市,卸町８番１３号,,34,207,7210954,,,2025-01-09,登記官による閉鎖,,,2015-10-05,1,,,,,,0
943,3240005012699,登記記録の閉鎖等,0,2025-01-10,2025-01-09,特定非営利活動法人知識のかけはし支援協会,,その他の設立登記法人,広島県,広島市安佐北区,可部町大字桐原９４３番地,,34,106,7310214,,,2025-01-09,登記官による閉鎖,,,2015-10-05,1,,,,,,0
956,3290005010335,登記記録の閉鎖等,0,2025-01-10,2024-12-19,医療法人いわい会,,その他の設立登記法人,福岡県,久留米市,上津１丁目６番１１号,,40,203,8300055,,,2024-12-19,清算の結了等,,,2015-10-05,1,,,,,イワイカイ,0
967,3380001030492,登記記録の閉鎖等,0,2025-01-10,2025-01-06,株式会社わが家,,株式会社,福島県,いわき市,平谷川瀬２丁目１２番地の１,,07,204,9708036,,,2025-01-06,合併による解散等,8380001013030,令和７年１月１日福島県いわき市小名浜字古湊４５番地１志賀塗装株式会社（8380001013030）に合併し解散,2019-11-28,1,,,,,,0
980,3430001031428,登記記録の閉鎖等,0,2025-01-10,2025-01-09,株式会社ノリックスリンク,,株式会社,北海道,札幌市白石区,北郷四条８丁目８番１８号,,01,104,0030834,,,2025-01-09,清算の結了等,,,2015-10-05,1,,,,,ノリックスリンク,0
992,3470002014576,登記記録の閉鎖等,0,2025-01-10,2025-01-07,有限会社コスモ・エステート・リサーチ,,有限会社,香川県,丸亀市,中府町３丁目１番１号,,37,202,7630033,,,2025-01-07,清算の結了等,,,2015-10-05,1,,,,,コスモエステートリサーチ,0
995,3490002003998,登記記録の閉鎖等,0,2025-01-10,2025-01-08,日星警備保障有限会社,,有限会社,高知県,高知市,薊野３１０番地２,,39,201,7810010,,,2025-01-08,清算の結了等,,,2015-10-05,1,,,,,ニッセイケイビホショウ,0
1003,4010001141152,登記記録の閉鎖等,0,2025-01-10,2025-01-07,キューブイメージング株式会社,,株式会社,埼玉県,ふじみ野市,旭１丁目１３番２０号,,11,245,3560055,,,2025-01-07,合併による解散等,7420001005379,令和６年８月１日東京都豊島区池袋二丁目４３番１号株式会社くすりの窓口（7420001005379）に合併し解散,2015-10-05,1,,,,,キューブイメージング,0
1008,4010001203076,登記記録の閉鎖等,0,2025-01-10,2024-12-17,未来保険サービス株式会社,,株式会社,東京都,港区,虎ノ門１丁目１６番１６号虎ノ門一丁目ＭＧビル８Ｆ,,13,103,1050001,,,2024-12-17,合併による解散等,4010001158700,令和６年１２月１７日東京都港区虎ノ門一丁目１６番１６号虎ノ門一丁目ＭＧビル８Ｆゼアーウィンスリーサービス株式会社（4010001158700）に合併し解散,2019-08-08,1,,,,,ミライホケンサービス,0
1020,4010005017943,登記記録の閉鎖等,0,2025-01-10,2024-12-16,特定非営利活動法人地球環境対策研究支援機構,,その他の設立登記法人,東京都,港区,西新橋２丁目５番１１号,,13,103,1050003,,,2024-12-16,清算の結了等,,,2015-10-05,1,,,,,チキュウカンキョウタイサクケンキュウシエンキコウ,0
1021,4010005021441,登記記録の閉鎖等,0,2025-01-10,2025-01-08,一般社団法人戦略的グローバルＩＲ協会,,その他の設立登記法人,東京都,中央区,日本橋兜町１３番１号,,13,102,1030026,,,2025-01-08,清算の結了等,,,2015-10-05,1,,,,,センリャクテキグローバルアイアールキョウカイ,0
1025,4010401106894,登記記録の閉鎖等,0,2025-01-10,2024-12-27,ＳＳＫ株式会社,,株式会社,茨城県,かすみがうら市,大和田８６７番地,,08,230,3000124,,,2024-12-27,清算の結了等,,,2015-10-05,1,,,,,エスエスケイ,0
1052,4011101022432,登記記録の閉鎖等,0,2025-01-10,2024-12-26,株式会社和服センター,,株式会社,東京都,新宿区,高田馬場４丁目２２番５号,,13,104,1690075,,,2024-12-26,清算の結了等,,,2015-10-05,1,,,,,ワフクセンター,0
1070,4012401017163,登記記録の閉鎖等,0,2025-01-10,2025-01-08,株式会社アウティスジャパン,,株式会社,東京都,府中市,宮西町１丁目３番１号,,13,206,1830022,,,2025-01-08,清算の結了等,,,2015-10-05,1,,,,,アウティスジャパン,0
1081,4020001112128,登記記録の閉鎖等,0,2025-01-10,2025-01-06,株式会社テクニカンインターナショナル,,株式会社,神奈川県,横浜市都筑区,茅ケ崎南３丁目１－１６,,14,118,2240037,,,2025-01-06,清算の結了等,,,2015-10-05,1,,,,,テクニカンインターナショナル,0
1090,4021003009576,登記記録の閉鎖等,0,2025-01-10,2025-01-09,スコープ合同会社,,合同会社,神奈川県,茅ヶ崎市,浜竹４丁目１－２２,,14,207,2530021,,,2025-01-09,清算の結了等,,,2020-08-05,1,,,,,スコープ,0
1107,4040002051760,登記記録の閉鎖等,0,2025-01-10,2024-12-26,有限会社成和建設,,有限会社,千葉県,流山市,東初石２丁目１６０番地の３,,12,220,2700114,,,2024-12-26,清算の結了等,,,2015-10-05,1,,,,,セイワケンセツ,0
1114,4060001016696,登記記録の閉鎖等,0,2025-01-10,2024-12-27,両毛食品株式会社,,株式会社,栃木県,栃木市,河合町９番１０号,,09,203,3280041,,,2024-12-27,清算の結了等,,,2015-10-05,1,,,,,リョウモウショクヒン,0
1118,4070002024771,登記記録の閉鎖等,0,2025-01-10,2025-01-08,有限会社松島商事,,有限会社,群馬県,みどり市,東町小夜戸１７９番地,,10,212,3760305,,,2025-01-08,清算の結了等,,,2015-10-05,1,,,,,マツシマショウジ,0
1119,4080401013176,登記記録の閉鎖等,0,2025-01-10,2025-01-06,吉和田総合サービス株式会社,,株式会社,静岡県,浜松市中央区,安新町２８９番地の１,,22,138,4350005,,,2025-01-06,合併による解散等,1080401005705,令和７年１月１日静岡県浜松市中央区安新町２９２番地株式会社吉和田浜松（1080401005705）に合併し解散,2015-10-05,1,,,,,ヨシワダソウゴウサービス,0
1126,4120001137643,登記記録の閉鎖等,0,2025-01-10,2025-01-06,株式会社東栄,,株式会社,大阪府,大阪市西成区,橘３丁目５番１８号,,27,122,5570051,,,2025-01-06,清算の結了等,,,2015-10-05,1,,,,,,0
1130,4120001219375,登記記録の閉鎖等,0,2025-01-10,2025-01-06,ＢＭＳ株式会社,,株式会社,大阪府,大阪市中央区,今橋４丁目１番１号,,27,128,5410042,,,2025-01-06,合併による解散等,7120001104509,令和７年１月１日大阪市中央区今橋四丁目１番１号スカイジャパンコーポレーション株式会社（7120001104509）に合併し解散,2019-03-05,1,,,,,ビーエムエス,0
1155,4140001028469,登記記録の閉鎖等,0,2025-01-10,2025-01-07,株式会社イージャ・ネット,,株式会社,兵庫県,神戸市中央区,栄町通２丁目８－２福栄ビル３Ｆ東,,28,110,6500023,,,2025-01-07,清算の結了等,,,2015-10-05,1,,,,,イージャネット,0
1162,4140001113700,登記記録の閉鎖等,0,2025-01-10,2025-01-06,株式会社新日本クリニック,,株式会社,兵庫県,神戸市中央区,栄町通５丁目２番１９号,,28,110,6500023,,,2025-01-06,合併による解散等,3140001133625,令和７年１月１日神戸市中央区栄町通五丁目２番１９号ＣＮＤ株式会社（3140001133625）に合併し解散,2019-05-21,1,,,,,シンニホンクリニック,0
1188,4180003027077,登記記録の閉鎖等,0,2025-01-10,2024-12-24,合同会社ｙｏｕｓｔａｎｄ,,合同会社,愛知県,名古屋市守山区,新城２３番１０号,,23,113,4630056,,,2024-12-24,清算の結了等,,,2024-07-17,1,,,,,ユウスタンド,0
1202,4220001004965,登記記録の閉鎖等,0,2025-01-10,2025-01-10,株式会社ニッケンシステム,,株式会社,石川県,金沢市,東蚊爪町ム３７番地,,17,201,9200209,,,2025-01-10,登記官による閉鎖,,,2019-08-01,1,,,,,ニッケンシステム,0
1203,4220001009270,登記記録の閉鎖等,0,2025-01-10,2025-01-06,テラ株式会社,,株式会社,石川県,白山市,千代野西７丁目４番地１,,17,210,9240072,,,2025-01-06,清算の結了等,,,2015-10-05,1,,,,,テラ,0
1204,4220002009063,登記記録の閉鎖等,0,2025-01-10,2025-01-10,有限会社サンテックス,,有限会社,石川県,白山市,宮永市町４７６番地,,17,210,9240016,,,2025-01-10,登記官による閉鎖,,,2015-10-05,1,,,,,,0
1205,4220002012174,登記記録の閉鎖等,0,2025-01-10,2025-01-10,有限会社温泉クリーニング,,有限会社,石川県,加賀市,片山津温泉ヒ９番地,,17,206,9220412,,,2025-01-10,登記官による閉鎖,,,2015-10-05,1,,,,,,0
1206,4220002016687,登記記録の閉鎖等,0,2025-01-10,2025-01-10,有限会社二木工業,,有限会社,石川県,河北郡津幡町,字潟端３０１番地３,,17,361,9290346,,,2025-01-10,登記官による閉鎖,,,2015-10-05,1,,,,,,0
1207,4220002017314,登記記録の閉鎖等,0,2025-01-10,2025-01-10,有限会社加賀陶器商會,00081292,有限会社,石川県,能美市,（石川県能美郡寺井野町字湯谷ニ５８番地ノ２）,,17,211,9231100,,,2025-01-10,登記官による閉鎖,,,2015-10-05,1,,,,,,0
1208,4220005003088,登記記録の閉鎖等,0,2025-01-10,2025-01-10,特定非営利活動法人ネット婚しぇるじゅ,,その他の設立登記法人,石川県,金沢市,保古３丁目１３２番地,,17,201,9218052,,,2025-01-10,登記官による閉鎖,,,2015-10-05,1,,,,,,0
1209,4220005004490,登記記録の閉鎖等,0,2025-01-10,2025-01-10,特定非営利活動法人白山くろゆりユニバーサル,,その他の設立登記法人,石川県,白山市,鶴来本町４丁目千目３５番地,,17,210,9202121,,,2025-01-10,登記官による閉鎖,,,2015-10-05,1,,,,,,0
1210,4240001007982,登記記録の閉鎖等,0,2025-01-10,2025-01-09,株式会社夏目産業,,株式会社,広島県,広島市南区,皆実町４丁目２番１６号,,34,103,7340007,,,2025-01-09,登記官による閉鎖,,,2015-10-05,1,,,,,,0
1211,4240001017180,登記記録の閉鎖等,0,2025-01-10,2025-01-09,株式会社Ｓｉｐ,,株式会社,広島県,広島市中区,大手町５丁目５番４号,,34,101,7300051,,,2025-01-09,登記官による閉鎖,,,2015-10-05,1,,,,,,0
1212,4240001023492,登記記録の閉鎖等,0,2025-01-10,2025-01-09,株式会社ＴＫサービス,,株式会社,広島県,東広島市,西条町御薗宇１７４５番地,,34,212,7390024,,,2025-01-09,登記官による閉鎖,,,2015-10-05,1,,,,,,0
1213,4240001027477,登記記録の閉鎖等,0,2025-01-10,2025-01-09,株式会社ＹＣ広,,株式会社,広島県,呉市,広中新開２丁目６番４４号,,34,202,7370124,,,2025-01-09,登記官による閉鎖,,,2015-10-05,1,,,,,,0
1214,4240001031149,登記記録の閉鎖等,0,2025-01-10,2025-01-09,第一商事株式会社,,株式会社,広島県,福山市,奈良津町１丁目２２番１０号,,34,207,7200022,,,2025-01-09,登記官による閉鎖,,,2015-10-05,1,,,,,,0
1215,4240001033269,登記記録の閉鎖等,0,2025-01-10,2025-01-09,梓不動産株式会社,,株式会社,広島県,尾道市,浦崎町甲２９２７番地,,34,205,7200551,,,2025-01-09,登記官による閉鎖,,,2015-10-05,1,,,,,,0
1216,4240001035463,登記記録の閉鎖等,0,2025-01-10,2025-01-06,ワウハウスホールディングス株式会社,,株式会社,広島県,福山市,南蔵王町３丁目８番３０号,,34,207,7210973,,,2025-01-06,合併による解散等,2240001033031,令和７年１月１日広島県福山市南蔵王町六丁目１２番２２号ワウハウス株式会社（2240001033031）に合併し解散,2015-10-05,1,,,,,ワウハウスホールディングス,0
1217,4240001040166,登記記録の閉鎖等,0,2025-01-10,2025-01-08,株式会社ＭＡＰ,,株式会社,広島県,三原市,本郷南６丁目１２番９号,,34,204,7290417,,,2025-01-08,清算の結了等,,,2015-10-05,1,,,,,エムエーピー,0
1218,4240001060338,登記記録の閉鎖等,0,2025-01-10,2025-01-09,株式会社ユーノス福山,,株式会社,広島県,福山市,沼隈町大字常石１０８３番地,,34,207,7200313,,,2025-01-09,登記官による閉鎖,,,2022-09-20,1,,,,,ユーノスフクヤマ,0
1220,4240002006694,登記記録の閉鎖等,0,2025-01-10,2025-01-09,有限会社山我商店,,有限会社,広島県,広島市西区,草津本町３０番３号,,34,104,7330865,,,2025-01-09,登記官による閉鎖,,,2015-10-05,1,,,,,,0
1221,4240002010449,登記記録の閉鎖等,0,2025-01-10,2025-01-09,有限会社直栄産業,,有限会社,広島県,広島市佐伯区,倉重１丁目１４７番３号,,34,108,7315156,,,2025-01-09,登記官による閉鎖,,,2015-10-05,1,,,,,,0
1222,4240002012544,登記記録の閉鎖等,0,2025-01-10,2025-01-09,有限会社ノッツ,,有限会社,広島県,広島市中区,南竹屋町９番５号,,34,101,7300049,,,2025-01-09,登記官による閉鎖,,,2015-10-05,1,,,,,,0
1223,4240002015274,登記記録の閉鎖等,0,2025-01-10,2025-01-09,有限会社堀川工務店,,有限会社,広島県,広島市中区,吉島東１丁目９番５－１０４号,,34,101,7300822,,,2025-01-09,登記官による閉鎖,,,2015-10-05,1,,,,,,0
1224,4240002023046,登記記録の閉鎖等,0,2025-01-10,2025-01-09,有限会社昇真,,有限会社,広島県,広島市佐伯区,海老園１丁目４番３７号,,34,108,7315135,,,2025-01-09,登記官による閉鎖,,,2015-10-05,1,,,,,,0
1225,4240002033664,登記記録の閉鎖等,0,2025-01-10,2025-01-09,有限会社にいなやとうふ,,有限会社,広島県,呉市,郷原町７０２番地の３４,,34,202,7370161,,,2025-01-09,登記官による閉鎖,,,2015-10-05,1,,,,,,0
1226,4240002036774,登記記録の閉鎖等,0,2025-01-10,2025-01-09,有限会社西手工務店,,有限会社,広島県,廿日市市,上平良４０番地の１１,,34,213,7380026,,,2025-01-09,登記官による閉鎖,,,2015-10-05,1,,,,,,0
1227,4240002042368,登記記録の閉鎖等,0,2025-01-10,2025-01-09,有限会社浜原材木店,,有限会社,広島県,福山市,今津町５丁目３番２６号,,34,207,7290111,,,2025-01-09,登記官による閉鎖,,,2015-10-05,1,,,,,ハマハラザイモクテン,0
1228,4240002054826,登記記録の閉鎖等,0,2025-01-10,2025-01-09,有限会社丸天物産,,有限会社,広島県,福山市,沼隈町大字上山南１８３番地,,34,207,7200401,,,2025-01-09,登記官による閉鎖,,,2019-04-18,1,,,,,マルテンブッサン,0
1234,4280001006361,登記記録の閉鎖等,0,2025-01-10,2025-01-06,株式会社ヒート,,株式会社,埼玉県,上尾市,柏座４丁目１０番５号,,11,219,3620075,,,2025-01-06,清算の結了等,,,2015-10-05,1,,,,,ヒート,0
1271,4370002009420,登記記録の閉鎖等,0,2025-01-10,2025-01-06,有限会社アズ薬局,,有限会社,宮城県,仙台市青葉区,大手町５番７号,,04,101,9800805,,,2025-01-06,合併による解散等,6030001066965,令和６年１２月１日埼玉県北葛飾郡松伏町築比地７９５番地１株式会社ウィーズ（6030001066965）に合併し解散,2015-10-05,1,,,,,アズヤッキョク,0
1272,4380001015518,登記記録の閉鎖等,0,2025-01-10,2024-12-24,オリエント精密株式会社,,株式会社,福島県,南相馬市,原町区上北高平字高松１５４番地の６,,07,212,9750027,,,2024-12-24,清算の結了等,,,2015-10-05,1,,,,,オリエントセイミツ,0
1276,4380003004790,登記記録の閉鎖等,0,2025-01-10,2024-12-09,合同会社千照,,合同会社,福島県,郡山市,横塚２丁目４５番地の１３,,07,203,9638803,,,2024-12-09,清算の結了等,,,2020-11-19,1,,,,,センショウ,0
1285,4430003004348,登記記録の閉鎖等,0,2025-01-10,2025-01-09,株式会社札幌森組,,株式会社,北海道,北広島市,朝日町６丁目１番地１８,,01,234,0611123,,,2025-01-09,清算の結了等,,,2015-10-05,1,,,,,サッポロモリグミ,0
1289,4460101000758,登記記録の閉鎖等,0,2025-01-10,2025-01-06,株式会社杉浦,,株式会社,北海道,帯広市,西五条南１２丁目１７番地２,,01,207,0800015,,,2025-01-06,清算の結了等,,,2015-10-05,1,,,,,スギウラ,0
1293,4500002010166,登記記録の閉鎖等,0,2025-01-10,2025-01-06,有限会社橋本測量設計,,有限会社,愛媛県,松山市,味酒町２丁目９番地１７,,38,201,7900814,,,2025-01-06,清算の結了等,,,2015-10-05,1,,,,,ハシモトソクリョウセッケイ,0
1303,5010001210006,登記記録の閉鎖等,0,2025-01-10,2024-12-26,株式会社ＭＵＩＮＥＮ,,株式会社,東京都,新宿区,西新宿３丁目３－１３西新宿水間ビル６Ｆ,,13,104,1600023,,,2024-12-26,清算の結了等,,,2020-07-13,1,,,,,ムイネン,0
1357,5011101054326,登記記録の閉鎖等,0,2025-01-10,2024-12-24,株式会社ビルドケア,,株式会社,東京都,東村山市,諏訪町１丁目１６番地２６,,13,213,1890021,,,2024-12-24,清算の結了等,,,2015-10-05,1,,,,,ビルドケア,0
1371,5011601001100,登記記録の閉鎖等,0,2025-01-10,2024-12-26,株式会社エムテクス,,株式会社,東京都,練馬区,豊玉上２丁目２７番２０号,,13,120,1760011,,,2024-12-26,清算の結了等,,,2015-10-05,1,,,,,エムテクス,0
1377,5011801036920,登記記録の閉鎖等,0,2025-01-10,2024-12-25,恒泰佳合株式会社,,株式会社,東京都,葛飾区,お花茶屋２丁目４－２９,,13,122,1240003,,,2024-12-25,清算の結了等,,,2019-11-22,1,,,,,コウタイカゴウ,0
1387,5013102000804,登記記録の閉鎖等,0,2025-01-10,2025-01-06,有限会社フラワーランド,,有限会社,東京都,福生市,大字福生武蔵野２２３１番地５,,13,218,1970011,,,2025-01-06,清算の結了等,,,2015-10-05,1,,,,,フラワーランド,0
1391,5013401007260,登記記録の閉鎖等,0,2025-01-10,2024-12-26,株式会社ＭＹコンサルティング,,株式会社,東京都,日野市,大字日野１１１１番地の１ニューロシティＢ－１００１,,13,212,1910012,,,2024-12-26,清算の結了等,,,2015-10-05,1,,,,,エムワイコンサルティング,0
1403,5021001072699,登記記録の閉鎖等,0,2025-01-10,2025-01-09,株式会社ｓｔｕｄｉｏ５１５０,,株式会社,神奈川県,鎌倉市,扇ガ谷４丁目２８－１,,14,204,2480011,,,2025-01-09,清算の結了等,,,2021-04-16,1,,,,,スタジオゴイチゴゼロ,0
1423,5040001090395,登記記録の閉鎖等,0,2025-01-10,2024-12-26,株式会社平柳タイル工業,,株式会社,千葉県,船橋市,二和西６丁目２３番８号,,12,204,2740806,,,2024-12-26,清算の結了等,,,2015-10-05,1,,,,,ヒラヤナギタイルコウギョウ,0
1437,5060001017388,登記記録の閉鎖等,0,2025-01-10,2024-12-26,三和興業株式会社,,株式会社,栃木県,栃木市,岩舟町静和２１１３番地１,,09,203,3294304,,,2024-12-26,清算の結了等,,,2015-10-05,1,,,,,サンワコウギョウ,0
1439,5060002010004,登記記録の閉鎖等,0,2025-01-10,2024-12-27,有限会社陽東設備工業,,有限会社,栃木県,宇都宮市,陽東１丁目１１番１８号,,09,201,3210904,,,2024-12-27,清算の結了等,,,2015-10-05,1,,,,,ヨウトウセツビコウギョウ,0
1445,5080001008971,登記記録の閉鎖等,0,2025-01-10,2025-01-06,ヒノデネット株式会社,,株式会社,静岡県,静岡市清水区,宮加三３２４番地の２,,22,103,4240911,,,2025-01-06,清算の結了等,,,2015-10-05,1,,,,,ヒノデネット,0
1448,5080102010769,登記記録の閉鎖等,0,2025-01-10,2024-12-27,有限会社泰成興業,,有限会社,静岡県,田方郡函南町,平井１１４番地の６,,22,325,4190107,,,2024-12-27,清算の結了等,,,2015-10-05,1,,,,,,0
1462,5120001200111,登記記録の閉鎖等,0,2025-01-10,2024-12-27,株式会社アークス,,株式会社,大阪府,大阪市中央区,西心斎橋２丁目１０－２９,,27,128,5420086,,,2024-12-27,清算の結了等,,,2016-08-12,1,,,,,アークス,0
1472,5120003019327,登記記録の閉鎖等,0,2025-01-10,2024-12-27,合同会社知幸,,合同会社,大阪府,枚方市,津田元町２丁目３番１５号,,27,210,5730127,,,2024-12-27,清算の結了等,,,2021-04-28,1,,,,,チユキ,0
1491,5130003007000,登記記録の閉鎖等,0,2025-01-10,2025-01-06,ヒロん家合同会社,,合同会社,京都府,京都市上京区,宮垣町９１－１０２,,26,102,6020853,,,2025-01-06,合併による解散等,3130001076148,令和７年１月１日京都市左京区高野東開町８－５ゴキンジョ株式会社（3130001076148）に合併し解散,2021-01-27,1,,,,,ヒロンチ,0
1497,5130005009192,登記記録の閉鎖等,0,2025-01-10,2025-01-07,特定非営利活動法人エスティーネットトウェンティーワン,,その他の設立登記法人,京都府,城陽市,久世下大谷１８番地の８８,,26,207,6100102,,,2025-01-07,清算の結了等,,,2015-10-05,1,,,,,エスティーネットトウェンティーワン,0
1498,5130005015851,登記記録の閉鎖等,0,2025-01-10,2024-12-27,一般社団法人ワイルドローバーローイングクラブ,,その他の設立登記法人,京都府,京都市右京区,嵯峨天龍寺瀬戸川町２０番地の５４,,26,108,6168376,,,2024-12-27,清算の結了等,,,2020-03-13,1,,,,,ワイルドローバーローイングクラブ,0
1499,5140001058333,登記記録の閉鎖等,0,2025-01-10,2024-12-27,株式会社カツラ自動車販売,,株式会社,兵庫県,姫路市,保城４５６番地の６,,28,201,6700804,,,2024-12-27,清算の結了等,,,2015-10-05,1,,,,,カツラジドウシャハンバイ,0
1501,5140001087043,登記記録の閉鎖等,0,2025-01-10,2025-01-06,株式会社コトブキヤ,,株式会社,兵庫県,加古川市,加古川町篠原町２１番地の８,,28,210,6750065,,,2025-01-06,清算の結了等,,,2015-10-05,1,,,,,,0
1512,5140002051691,登記記録の閉鎖等,0,2025-01-10,2025-01-06,有限会社オーテック,,有限会社,兵庫県,姫路市,夢前町高長峠ノ谷１００番地の１,,28,201,6712117,,,2025-01-06,清算の結了等,,,2015-10-05,1,,,,,オーテック,0
1517,5160001006265,登記記録の閉鎖等,0,2025-01-10,2025-01-07,ＪＰ株式会社,,株式会社,滋賀県,甲賀市,甲南町希望ケ丘５丁目５番地１３,,25,209,5203333,,,2025-01-07,清算の結了等,,,2015-10-05,1,,,,,ジェーピー,0
1543,5190001026434,登記記録の閉鎖等,0,2025-01-10,2025-01-06,株式会社天童,,株式会社,三重県,松阪市,美濃田町５３５番地,,24,204,5152344,,,2025-01-06,清算の結了等,,,2019-05-22,1,,,,,テンドウ,0
1550,5220001015078,登記記録の閉鎖等,0,2025-01-10,2025-01-10,株式会社ＡｚｕｒｅＮＥＴ,,株式会社,石川県,金沢市,三口新町１丁目２２番１１号,,17,201,9200944,,,2025-01-10,登記官による閉鎖,,,2015-10-05,1,,,,,,0
1551,5220001018238,登記記録の閉鎖等,0,2025-01-10,2025-01-10,株式会社リアン,,株式会社,石川県,金沢市,西金沢３丁目６７６番地,,17,201,9218054,,,2025-01-10,登記官による閉鎖,,,2015-10-05,1,,,,,,0
1552,5220001018304,登記記録の閉鎖等,0,2025-01-10,2025-01-10,株式会社金沢感染性医療廃棄物処理センター,,株式会社,石川県,金沢市,湊１丁目２２番地７,,17,201,9200211,,,2025-01-10,登記官による閉鎖,,,2015-10-05,1,,,,,,0
1553,5220005004325,登記記録の閉鎖等,0,2025-01-10,2025-01-10,特定非営利活動法人いしかわ未来ネットワーク,,その他の設立登記法人,石川県,小松市,福乃宮町１丁目１０３番地,,17,203,9230865,,,2025-01-10,登記官による閉鎖,,,2015-10-05,1,,,,,,0
1557,5230002009061,登記記録の閉鎖等,0,2025-01-10,2025-01-07,有限会社マリンプラザ,,有限会社,富山県,滑川市,常盤町３１番地５,,16,206,9360027,,,2025-01-07,清算の結了等,,,2015-10-05,1,,,,,マリンプラザ,0
1558,5240001005928,登記記録の閉鎖等,0,2025-01-10,2025-01-09,株式会社大雅堂,,株式会社,広島県,広島市西区,観音本町２丁目１３番５号,,34,104,7330033,,,2025-01-09,登記官による閉鎖,,,2015-10-05,1,,,,,,0
1559,5240001010606,登記記録の閉鎖等,0,2025-01-10,2025-01-09,株式会社フルタ商会,,株式会社,広島県,広島市南区,京橋町１０番３１号,,34,103,7320828,,,2025-01-09,登記官による閉鎖,,,2015-10-05,1,,,,,,0
1560,5240001010713,登記記録の閉鎖等,0,2025-01-10,2025-01-09,ベックコンサルタント株式会社,,株式会社,広島県,広島市安佐北区,口田南４丁目４０番３０号,,34,106,7391733,,,2025-01-09,登記官による閉鎖,,,2015-10-05,1,,,,,,0
1561,5240001012230,登記記録の閉鎖等,0,2025-01-10,2025-01-09,株式会社吉岡会計,,株式会社,広島県,広島市安佐南区,中須２丁目１１番１２号,,34,105,7310121,,,2025-01-09,登記官による閉鎖,,,2015-10-05,1,,,,,,0
1562,5240001019234,登記記録の閉鎖等,0,2025-01-10,2025-01-09,株式会社桃太郎,,株式会社,広島県,安芸郡海田町,国信２丁目１番３５号,,34,304,7360002,,,2025-01-09,登記官による閉鎖,,,2015-10-05,1,,,,,,0
1563,5240001024531,登記記録の閉鎖等,0,2025-01-10,2025-01-09,三次観光開発株式会社,,株式会社,広島県,三次市,粟屋町１７００番地,,34,209,7280025,,,2025-01-09,登記官による閉鎖,,,2015-10-05,1,,,,,ミツギカンコウカイハツ,0
1564,5240001025455,登記記録の閉鎖等,0,2025-01-10,2025-01-09,株式会社相原本店,,株式会社,広島県,呉市,仁方本町１丁目１６番１３号,,34,202,7370152,,,2025-01-09,登記官による閉鎖,,,2015-10-05,1,,,,,,0
1566,5240001055667,登記記録の閉鎖等,0,2025-01-10,2025-01-09,備南建設株式会社,,株式会社,広島県,尾道市,東久保町１４番９号,,34,205,7220043,,,2025-01-09,登記官による閉鎖,,,2020-02-17,1,,,,,ビナンケンセツ,0
1567,5240001056533,登記記録の閉鎖等,0,2025-01-10,2025-01-09,昭栄ランバー株式会社,,株式会社,広島県,安芸郡熊野町,３９６４番地,,34,307,7314200,,,2025-01-09,登記官による閉鎖,,,2020-08-24,1,,,,,ショウエイランバー,0
1568,5240001060832,登記記録の閉鎖等,0,2025-01-10,2025-01-09,丸大織布株式会社,,株式会社,広島県,府中市,出口町７２６番地,,34,208,7260032,,,2025-01-09,登記官による閉鎖,,,2023-02-09,1,,,,,マルダイショクフ,0
1570,5240002006818,登記記録の閉鎖等,0,2025-01-10,2025-01-09,さくら食品有限会社,,有限会社,広島県,広島市東区,戸坂大上１丁目２番１５号,,34,102,7320014,,,2025-01-09,登記官による閉鎖,,,2015-10-05,1,,,,,,0
1571,5240002009465,登記記録の閉鎖等,0,2025-01-10,2025-01-09,有限会社高津組,00000810,有限会社,広島県,広島市佐伯区,八幡東４丁目２番３４－２８号,,34,108,7315115,,,2025-01-09,登記官による閉鎖,,,2015-10-05,1,,,,,,0
1573,5240002030388,登記記録の閉鎖等,0,2025-01-10,2025-01-09,有限会社美松商事,,有限会社,広島県,三次市,十日市南７丁目４番１－１号,,34,209,7280014,,,2025-01-09,登記官による閉鎖,,,2015-10-05,1,,,,,,0
1574,5240002034760,登記記録の閉鎖等,0,2025-01-10,2025-01-09,有限会社大光汽船,,有限会社,広島県,呉市,音戸町早瀬２丁目２０番２２号,,34,202,7371215,,,2025-01-09,登記官による閉鎖,,,2015-10-05,1,,,,,,0
1575,5240002035437,登記記録の閉鎖等,0,2025-01-10,2025-01-09,有限会社脇坂建設,,有限会社,広島県,呉市,焼山中央６丁目３番２１号,,34,202,7370935,,,2025-01-09,登記官による閉鎖,,,2015-10-05,1,,,,,,0
1576,5240002035635,登記記録の閉鎖等,0,2025-01-10,2025-01-09,有限会社江中建設,,有限会社,広島県,江田島市,江田島町小用１丁目６番８号,,34,215,7372121,,,2025-01-09,登記官による閉鎖,,,2015-10-05,1,,,,,,0
1577,5240002036055,登記記録の閉鎖等,0,2025-01-10,2025-01-09,有限会社フクタケ,,有限会社,広島県,呉市,焼山東４丁目８番１７号,,34,202,7370936,,,2025-01-09,登記官による閉鎖,,,2015-10-05,1,,,,,,0
1578,5240002037755,登記記録の閉鎖等,0,2025-01-10,2025-01-09,有限会社マルセン,,有限会社,広島県,大竹市,新町１丁目３番３号,,34,211,7390611,,,2025-01-09,登記官による閉鎖,,,2015-10-05,1,,,,,,0
1579,5240002040461,登記記録の閉鎖等,0,2025-01-10,2025-01-09,有限会社宏栄,,有限会社,広島県,福山市,大門町４丁目１３番２７号,,34,207,7210926,,,2025-01-09,登記官による閉鎖,,,2015-10-05,1,,,,,,0
1580,5240002040817,登記記録の閉鎖等,0,2025-01-10,2025-01-09,有限会社さとう畳店,,有限会社,広島県,福山市,新涯町６丁目１７番１５号,,34,207,7210955,,,2025-01-09,登記官による閉鎖,,,2015-10-05,1,,,,,,0
1581,5240002041344,登記記録の閉鎖等,0,2025-01-10,2025-01-09,有限会社誠信建設,,有限会社,広島県,福山市,草戸町４丁目５番２２号,,34,207,7200831,,,2025-01-09,登記官による閉鎖,,,2015-10-05,1,,,,,,0
1582,5240002042648,登記記録の閉鎖等,0,2025-01-10,2025-01-09,有限会社福芳電工,,有限会社,広島県,福山市,木之庄町３丁目７番３８号,,34,207,7200082,,,2025-01-09,登記官による閉鎖,,,2015-10-05,1,,,,,,0
1583,5240002044594,登記記録の閉鎖等,0,2025-01-10,2025-01-09,有限会社新井鮮魚店,,有限会社,広島県,福山市,南蔵王町５丁目１２番３０号,,34,207,7210973,,,2025-01-09,登記官による閉鎖,,,2015-10-05,1,,,,,,0
1584,5240002048364,登記記録の閉鎖等,0,2025-01-10,2025-01-09,有限会社つばき,,有限会社,広島県,安芸郡府中町,本町２丁目１６番１２号,,34,302,7350006,,,2025-01-09,登記官による閉鎖,,,2015-10-05,1,,,,,,0
1586,5240005004100,登記記録の閉鎖等,0,2025-01-10,2025-01-09,企業組合加藤米店,,その他の設立登記法人,広島県,東広島市,安芸津町三津３５７７番地,,34,212,7392402,,,2025-01-09,登記官による閉鎖,,,2015-10-05,1,,,,,,0
1588,5240005011633,登記記録の閉鎖等,0,2025-01-10,2025-01-09,特定非営利活動法人ゆりかごの家,,その他の設立登記法人,広島県,尾道市,高須町２８３９番地,,34,205,7290141,,,2025-01-09,登記官による閉鎖,,,2015-10-05,1,,,,,,0
1611,5350001013028,登記記録の閉鎖等,0,2025-01-10,2025-01-06,ＡＹＵ株式会社,,株式会社,宮崎県,延岡市,古城町４丁目１３２番地,,45,203,8820837,,,2025-01-06,合併による解散等,4350001007815,令和７年１月１日宮崎県延岡市古城町四丁目１３２番地株式会社おいでの里（4350001007815）に合併し解散,2015-10-05,1,,,,,エーワイユー,0
1620,5370201003041,登記記録の閉鎖等,0,2025-01-10,2025-01-06,株式会社一桝,,株式会社,宮城県,栗原市,栗駒岩ケ崎神南３１番地３,,04,213,9895301,,,2025-01-06,合併による解散等,6030001066965,令和６年１２月１日埼玉県北葛飾郡松伏町築比地７９５番地１株式会社ウィーズ（6030001066965）に合併し解散,2015-10-05,1,,,,,イチマス,0
1632,5430002001964,登記記録の閉鎖等,0,2025-01-10,2025-01-06,あさひ建設株式会社,,株式会社,北海道,札幌市中央区,北四条西１２丁目１番地,,01,101,0600004,,,2025-01-06,合併による解散等,3430001005737,令和７年１月１日札幌市中央区北四条西十二丁目１番地恒完工業株式会社（3430001005737）に合併し解散,2015-10-05,1,,,,,アサヒケンセツ,0
1634,5430002038049,登記記録の閉鎖等,0,2025-01-10,2025-01-06,有限会社大山新聞販売所,,有限会社,北海道,札幌市西区,発寒五条６丁目２番１号,,01,107,0630825,,,2025-01-06,清算の結了等,,,2015-10-05,1,,,,,オオヤマシンブンハンバイショ,0
1635,5430003014478,登記記録の閉鎖等,0,2025-01-10,2024-12-27,合同会社北海道土地,,合同会社,北海道,札幌市西区,西町北１丁目２番１９号,,01,107,0630061,,,2024-12-27,合併による解散等,2430003013243,令和６年１１月２０日札幌市西区西町北一丁目２番１９号合同会社住友住宅（2430003013243）に合併し解散,2022-11-18,1,,,,,ホッカイドウトチ,0
1644,5460103001332,登記記録の閉鎖等,0,2025-01-10,2025-01-06,合同会社ＳＴＹ,,合同会社,北海道,帯広市,大通南１６丁目１８番地,,01,207,0800010,,,2025-01-06,合併による解散等,6460101000599,令和７年１月１日北海道帯広市大通南十六丁目１８番地株式会社三光産業（6460101000599）に合併し解散,2020-12-22,1,,,,,エスティーワイ,0
1656,6010001096543,登記記録の閉鎖等,0,2025-01-10,2025-01-07,株式会社ポエムホールディングス,,株式会社,東京都,千代田区,丸の内１丁目８番１号丸の内トラストタワーＮ館,,13,101,1000005,,,2025-01-07,合併による解散等,3010001221896,令和６年１２月２９日東京都千代田区丸の内一丁目８番１号丸の内トラストタワーＮ館株式会社ＯＨＭＵＲＡ（3010001221896）に合併し解散,2015-10-05,1,,,,,ポエムホールディングス,0
1672,6010002012111,登記記録の閉鎖等,0,2025-01-10,2024-12-26,有限会社タツミ不動産,,有限会社,東京都,千代田区,内神田１丁目９番５号,,13,101,1010047,,,2024-12-26,合併による解散等,1010001022231,令和６年１２月２６日東京都千代田区内神田一丁目９番５号株式会社タツミ商店（1010001022231）に合併し解散,2015-10-05,1,,,,,タツミフドウサン,0
1674,6010003028016,登記記録の閉鎖等,0,2025-01-10,2024-12-24,奥谷商務コンサルティング合同会社,,合同会社,東京都,千代田区,霞が関３丁目２番５号,,13,101,1000013,,,2024-12-24,清算の結了等,,,2018-08-01,1,,,,,オクタニショウムコンサルティング,0
1679,6010401082746,登記記録の閉鎖等,0,2025-01-10,2024-12-16,ＪＳＲ株式会社,,株式会社,東京都,港区,東新橋１丁目９番２号,,13,103,1050021,,,2024-12-16,合併による解散等,1010401175166,令和６年１２月１日東京都港区東新橋一丁目９番２号ＪＩＣＣ‐０２株式会社（1010401175166）に合併し解散,2015-10-05,1,,,,,ジェイエスアール,0
1708,6011201011804,登記記録の閉鎖等,0,2025-01-10,2025-01-08,株式会社ビカレン,,株式会社,東京都,中野区,東中野１丁目２７番６号－１０１,,13,114,1640003,,,2025-01-08,清算の結了等,,,2015-10-05,1,,,,,,0
1709,6011301024516,登記記録の閉鎖等,0,2025-01-10,2025-01-08,株式会社ＭＭＰ,,株式会社,東京都,杉並区,南荻窪４丁目３０番６号,,13,115,1670052,,,2025-01-08,清算の結了等,,,2018-10-11,1,,,,,エムエムピー,0
1737,6020001127636,登記記録の閉鎖等,0,2025-01-10,2024-12-23,リアルタイム株式会社,,株式会社,神奈川県,川崎市高津区,久地１丁目２番３号,,14,134,2130032,,,2024-12-23,清算の結了等,,,2018-08-20,1,,,,,リアルタイム,0
1748,6021002032313,登記記録の閉鎖等,0,2025-01-10,2025-01-06,有限会社タケオ企画,,有限会社,神奈川県,厚木市,山際６１５番地の７,,14,212,2430803,,,2025-01-06,清算の結了等,,,2015-10-05,1,,,,,タケオキカク,0
1752,6030001035978,登記記録の閉鎖等,0,2025-01-10,2024-12-27,株式会社興栄工機製作所,,株式会社,埼玉県,八潮市,大字大曽根１４４９番地１,,11,234,3400834,,,2024-12-27,清算の結了等,,,2015-10-05,1,,,,,コウエイコウキセイサクショ,0
1761,6030002059646,登記記録の閉鎖等,0,2025-01-10,2024-12-27,有限会社和智造園,,有限会社,埼玉県,朝霞市,本町２丁目６番１５号,,11,227,3510011,,,2024-12-27,清算の結了等,,,2015-10-05,1,,,,,ワチゾウエン,0
1775,6040003022593,登記記録の閉鎖等,0,2025-01-10,2024-12-27,Ａｓｓｉｓｔ合同会社,,合同会社,東京都,大田区,久が原４丁目４３番６号レオパレスドミール久が原１０４,,13,111,1460085,,,2024-12-27,清算の結了等,,,2023-05-11,1,,,,,アシスト,0
1789,6080401021706,登記記録の閉鎖等,0,2025-01-10,2025-01-08,佐藤電気工事株式会社,,株式会社,静岡県,浜松市中央区,萩丘３丁目１１番５号,,22,138,4338121,,,2025-01-08,清算の結了等,,,2016-09-05,1,,,,,サトウデンキコウジ,0
1799,6110001002557,登記記録の閉鎖等,0,2025-01-10,2025-01-06,株式会社シナノメディカルプランニング,,株式会社,新潟県,新潟市中央区,医学町通２番町１１番地,,15,103,9518124,,,2025-01-06,合併による解散等,9110001017024,令和７年１月１日新潟市中央区医学町通二番町１１番地株式会社エーアンドエム（9110001017024）に合併し解散,2015-10-05,1,,,,,シナノメディカルプランニング,0
1802,6120001007415,登記記録の閉鎖等,0,2025-01-10,2025-01-06,株式会社コイケ,,株式会社,大阪府,八尾市,太田新町８丁目１１４番地,,27,212,5810039,,,2025-01-06,清算の結了等,,,2015-10-05,1,,,,,コイケ,0
1805,6120001183405,登記記録の閉鎖等,0,2025-01-10,2024-12-25,株式会社ＴＲＡアカデミー,,株式会社,大阪府,大阪市中央区,本町橋二丁目１４番地３０８号,,27,128,5400029,,,2024-12-25,清算の結了等,,,2015-10-05,1,,,,,ティーアールエーアカデミー,0
1806,6120001215959,登記記録の閉鎖等,0,2025-01-10,2025-01-06,株式会社グローウィンオール,,株式会社,大阪府,大阪市港区,磯路３丁目２４番地１１,,27,107,5520003,,,2025-01-06,清算の結了等,,,2018-09-21,1,,,,,グローウィンオール,0
1838,6140002037186,登記記録の閉鎖等,0,2025-01-10,2025-01-06,有限会社清水運送,,有限会社,兵庫県,高砂市,曽根町字渡場２７４３番地１８,,28,216,6760082,,,2025-01-06,清算の結了等,,,2015-10-05,1,,,,,シミズウンソウ,0
1847,6160001009093,登記記録の閉鎖等,0,2025-01-10,2025-01-06,株式会社ＴＦエンタープライズ,,株式会社,滋賀県,彦根市,高宮町１４２３番３,,25,202,5220201,,,2025-01-06,清算の結了等,,,2015-10-05,1,,,,,ティエフエンタープライズ,0
1848,6160001022914,登記記録の閉鎖等,0,2025-01-10,2025-01-09,株式会社ひだまりホームデザイン,,株式会社,滋賀県,栗東市,小柿６丁目１番２２号１階,,25,208,5203024,,,2025-01-09,清算の結了等,,,2020-11-18,1,,,,,ヒダマリホームデザイン,0
1850,6160002009431,登記記録の閉鎖等,0,2025-01-10,2024-12-25,有限会社大堀機鋼,,有限会社,滋賀県,蒲生郡日野町,大字内池３３４番地の２,,25,383,5291644,,,2024-12-25,清算の結了等,,,2015-10-05,1,,,,,オオボリキコウ,0
1857,6180001151414,登記記録の閉鎖等,0,2025-01-10,2024-12-25,友紀株式会社,,株式会社,愛知県,名古屋市名東区,高間町３７６番地の５,,23,115,4650081,,,2024-12-25,清算の結了等,,,2022-05-25,1,,,,,ユウキ,0
1871,6180002042141,登記記録の閉鎖等,0,2025-01-10,2024-12-25,有限会社アドバンス情報システム,,有限会社,愛知県,名古屋市中村区,黄金通２丁目５０番地,,23,105,4530804,,,2024-12-25,合併による解散等,9180001017620,令和６年１２月２５日名古屋市東区葵一丁目２６番８号株式会社トータルオフィスプロセッサー（9180001017620）に合併し解散,2015-10-05,1,,,,,アドバンスジョウホウシステム,0
1878,6180301025202,登記記録の閉鎖等,0,2025-01-10,2024-12-26,株式会社セレクトライン,,株式会社,愛知県,刈谷市,恩田町２丁目１５６番地７,,23,210,4480013,,,2024-12-26,清算の結了等,,,2015-10-05,1,,,,,セレクトライン,0
1883,6180302018221,登記記録の閉鎖等,0,2025-01-10,2024-12-27,有限会社ケイテック,,有限会社,愛知県,刈谷市,高須町坤５５番地３,,23,210,4480812,,,2024-12-27,清算の結了等,,,2015-10-05,1,,,,,ケイテック,0
1887,6190001014652,登記記録の閉鎖等,0,2025-01-10,2025-01-07,川村木材工業株式会社,,株式会社,三重県,四日市市,陶栄町３番１号,,24,202,5100035,,,2025-01-07,清算の結了等,,,2015-10-05,1,,,,,カワムラモクザイコウギョウ,0
1897,6220001012652,登記記録の閉鎖等,0,2025-01-10,2025-01-10,株式会社くらひち,,株式会社,石川県,能美市,寺井町ウ２２番地,,17,211,9231121,,,2025-01-10,登記官による閉鎖,,,2015-10-05,1,,,,,,0
1898,6220001014194,登記記録の閉鎖等,0,2025-01-10,2025-01-10,株式会社トータル,,株式会社,石川県,加賀市,冨塚町瓶焼３番地１１,,17,206,9220421,,,2025-01-10,登記官による閉鎖,,,2015-10-05,1,,,,,,0
1901,6220005002484,登記記録の閉鎖等,0,2025-01-10,2025-01-10,特定非営利活動法人金沢スピリッツライフ,,その他の設立登記法人,石川県,金沢市,本江町８番１３号,,17,201,9218012,,,2025-01-10,登記官による閉鎖,,,2015-10-05,1,,,,,,0
1907,6240001001026,登記記録の閉鎖等,0,2025-01-10,2025-01-09,株式会社岩倉歯科商店,,株式会社,広島県,広島市南区,東雲１丁目５番７号,,34,103,7340022,,,2025-01-09,登記官による閉鎖,,,2015-10-05,1,,,,,,0
1911,6240001039165,登記記録の閉鎖等,0,2025-01-10,2025-01-09,尾三青果株式会社,,株式会社,広島県,尾道市,東尾道１２番地２５,,34,205,7220051,,,2025-01-09,登記官による閉鎖,,,2015-10-05,1,,,,,,0
1912,6240001042870,登記記録の閉鎖等,0,2025-01-10,2025-01-09,志満タウン株式会社,,株式会社,広島県,広島市南区,向洋本町２番１３号,,34,103,7340062,,,2025-01-09,登記官による閉鎖,,,2015-10-05,1,,,,,,0
1913,6240002000869,登記記録の閉鎖等,0,2025-01-10,2025-01-09,有限会社あゆみ,,有限会社,広島県,広島市南区,荒神町１番１号,,34,103,7320807,,,2025-01-09,登記官による閉鎖,,,2015-10-05,1,,,,,,0
1914,6240002003319,登記記録の閉鎖等,0,2025-01-10,2025-01-09,有限会社岡村,,有限会社,広島県,広島市安佐南区,上安４丁目９番２０号,,34,105,7310154,,,2025-01-09,登記官による閉鎖,,,2015-10-05,1,,,,,,0
1915,6240002004028,登記記録の閉鎖等,0,2025-01-10,2025-01-09,有限会社かねまつ住建,,有限会社,広島県,広島市中区,舟入幸町２３番７号,,34,101,7300844,,,2025-01-09,登記官による閉鎖,,,2015-10-05,1,,,,,,0
1916,6240002011107,登記記録の閉鎖等,0,2025-01-10,2025-01-09,有限会社銅銀エンタープライズ,,有限会社,広島県,広島市安佐北区,大林１丁目１４番４８号,,34,106,7310201,,,2025-01-09,登記官による閉鎖,,,2015-10-05,1,,,,,,0
1917,6240002012278,登記記録の閉鎖等,0,2025-01-10,2025-01-09,有限会社日正堂,,有限会社,広島県,広島市南区,上東雲町１８番３８－１０５号,,34,103,7340021,,,2025-01-09,登記官による閉鎖,,,2015-10-05,1,,,,,,0
1918,6240002024109,登記記録の閉鎖等,0,2025-01-10,2025-01-09,有限会社Ｓ．Ｍ．Ｃ,,有限会社,広島県,広島市西区,己斐中１丁目２番３０号,,34,104,7330813,,,2025-01-09,登記官による閉鎖,,,2015-10-05,1,,,,,,0
1919,6240002027672,登記記録の閉鎖等,0,2025-01-10,2025-01-09,有限会社サンエイ興業,,有限会社,広島県,東広島市,西条町下三永８３９番地の１,,34,212,7390023,,,2025-01-09,登記官による閉鎖,,,2015-10-05,1,,,,,,0
1920,6240002028935,登記記録の閉鎖等,0,2025-01-10,2025-01-09,有限会社Ｔ．Ｍカンパニー,,有限会社,広島県,東広島市,西条町御薗宇７１８番地１４,,34,212,7390024,,,2025-01-09,登記官による閉鎖,,,2015-10-05,1,,,,,,0
1921,6240002029784,登記記録の閉鎖等,0,2025-01-10,2025-01-09,有限会社泰源,,有限会社,広島県,山県郡安芸太田町,大字上殿２２６番地,,34,368,7313664,,,2025-01-09,登記官による閉鎖,,,2015-10-05,1,,,,,,0
1922,6240002032870,登記記録の閉鎖等,0,2025-01-10,2025-01-09,迫田木工有限会社,,有限会社,広島県,呉市,仁方本町２丁目１０番８号,,34,202,7370152,,,2025-01-09,登記官による閉鎖,,,2015-10-05,1,,,,,,0
1923,6240002036582,登記記録の閉鎖等,0,2025-01-10,2025-01-09,サンライズ有限会社,,有限会社,広島県,廿日市市,本町８番２４号,,34,213,7380015,,,2025-01-09,登記官による閉鎖,,,2015-10-05,1,,,,,,0
1924,6240002041054,登記記録の閉鎖等,0,2025-01-10,2025-01-09,有限会社清水フードセンター,00001330,有限会社,広島県,福山市,東手城町１丁目３３番１８号,,34,207,7210962,,,2025-01-09,登記官による閉鎖,,,2015-10-05,1,,,,,,0
1925,6240002042639,登記記録の閉鎖等,0,2025-01-10,2025-01-07,有限会社福田製材所,,有限会社,広島県,福山市,柳津町３丁目３番４０号,,34,207,7290114,,,2025-01-07,清算の結了等,,,2015-10-05,1,,,,,フクダセイザイショ,0
1926,6240002050336,登記記録の閉鎖等,0,2025-01-10,2025-01-09,カンノ電工有限会社,,有限会社,広島県,尾道市,向東町１０６６２番地,,34,205,7220062,,,2025-01-09,登記官による閉鎖,,,2015-10-05,1,,,,,,0
1927,6240002054832,登記記録の閉鎖等,0,2025-01-10,2025-01-09,有限会社三協開発,,有限会社,広島県,広島市中区,吉島新町２丁目２５番１０号,,34,101,7300824,,,2025-01-09,登記官による閉鎖,,,2019-07-22,1,,,,,サンキョウカイハツ,0
1928,6240003001123,登記記録の閉鎖等,0,2025-01-10,2025-01-09,合同会社トリプルダブル,,合同会社,広島県,広島市東区,中山鏡が丘１２番９号,,34,102,7320022,,,2025-01-09,登記官による閉鎖,,,2015-10-05,1,,,,,,0
1929,6240005002128,登記記録の閉鎖等,0,2025-01-10,2025-01-09,協同組合可部商業スペース開発,,その他の設立登記法人,広島県,広島市安佐北区,可部３丁目８番３８号,,34,106,7310221,,,2025-01-09,登記官による閉鎖,,,2015-10-05,1,,,,,,0
1930,6240005004066,登記記録の閉鎖等,0,2025-01-10,2025-01-09,安芸津干拓農業協同組合,,その他の設立登記法人,広島県,東広島市,安芸津町風早３１１８番地,,34,212,7392403,,,2025-01-09,登記官による閉鎖,,,2015-10-05,1,,,,,,0
1932,6240005012325,登記記録の閉鎖等,0,2025-01-10,2025-01-09,特定非営利活動法人西日本ライフサポート,,その他の設立登記法人,広島県,広島市西区,庚午北１丁目２３番１１号,,34,104,7330821,,,2025-01-09,登記官による閉鎖,,,2015-10-05,1,,,,,,0
1934,6250001007377,登記記録の閉鎖等,0,2025-01-10,2025-01-09,株式会社ＦＡＳＴ,,株式会社,山口県,下関市,富任町５丁目１５－５０,,35,201,7596613,,,2025-01-09,清算の結了等,,,2015-10-05,1,,,,,,0
1936,6250001017707,登記記録の閉鎖等,0,2025-01-10,2025-01-07,株式会社レイワ・グローバル,,株式会社,山口県,宇部市,大字東岐波１２９番地３,,35,202,7550241,,,2025-01-07,清算の結了等,,,2019-05-16,1,REIWA GLOBAL Corporation,Yamaguchi,"129-3, Ube shi Higashikiwa",,レイワグローバル,0
1942,6260002033636,登記記録の閉鎖等,0,2025-01-10,2024-12-27,有限会社岡田鮮魚店,,有限会社,岡山県,真庭市,久世２６３７番地,,33,214,7193201,,,2024-12-27,清算の結了等,,,2015-10-05,1,,,,,オカダセンギョテン,0
1964,6310001018715,登記記録の閉鎖等,0,2025-01-10,2024-12-27,株式会社ＴＳＵＳＨＩＭＡ　Ｆｉｓｈｉｎｇ,,株式会社,長崎県,対馬市,美津島町竹敷４番地１５５,,42,209,8170511,,,2024-12-27,清算の結了等,,,2023-11-20,1,,,,,ツシマフィッシング,0
1968,6320205000476,登記記録の閉鎖等,0,2025-01-10,2025-01-07,最勝寺,,その他の設立登記法人,大分県,臼杵市,野津町大字原１７９７番地,,44,206,8750234,,,2025-01-07,清算の結了等,,,2015-10-05,1,,,,,,0
1981,6380002001515,登記記録の閉鎖等,0,2025-01-10,2024-12-25,有限会社佐藤精密,,有限会社,福島県,福島市,東浜町２１番１６号,,07,201,9608132,,,2024-12-25,清算の結了等,,,2015-10-05,1,,,,,サトウセイミツ,0
2006,6490001005695,登記記録の閉鎖等,0,2025-01-10,2025-01-08,株式会社クロスロード,,株式会社,高知県,土佐市,蓮池５７２２番地２,,39,205,7811105,,,2025-01-08,清算の結了等,,,2015-10-05,1,,,,,クロスロード,0
2044,7010405021823,登記記録の閉鎖等,0,2025-01-10,2024-12-17,ＭＦＪＰＮ５特定目的会社,,その他の設立登記法人,東京都,港区,虎ノ門３丁目２２番１０－２０１号,,13,103,1050001,,,2024-12-17,清算の結了等,,,2023-02-21,1,,,,,エムエフジェイピーエヌファイブ,0
2047,7010501034539,登記記録の閉鎖等,0,2025-01-10,2024-12-27,株式会社創真,,株式会社,千葉県,八千代市,ゆりのき台１丁目２番地２セントラルビル２,,12,221,2760042,,,2024-12-27,清算の結了等,,,2015-10-05,1,,,,,ソウシン,0
2073,7011101043070,登記記録の閉鎖等,0,2025-01-10,2024-12-25,株式会社徳育経営研究所,,株式会社,東京都,新宿区,西新宿７丁目１０番１７号,,13,104,1600023,,,2024-12-25,清算の結了等,,,2015-10-05,1,,,,,トクイクケイエイケンキュウジョ,0
2074,7011101065701,登記記録の閉鎖等,0,2025-01-10,2025-01-06,ＳＵＺＵＰＡＮ株式会社,,株式会社,三重県,津市,寿町１１番２７号,,24,201,5140015,,,2025-01-06,清算の結了等,,,2015-10-05,1,,,,,スズパン,0
2082,7011301021000,登記記録の閉鎖等,0,2025-01-10,2025-01-08,株式会社三栄クラフター,,株式会社,東京都,杉並区,西荻北２丁目１番１１号,,13,115,1670042,,,2025-01-08,清算の結了等,,,2015-10-05,1,,,,,サンエイクラフター,0
2097,7011801037339,登記記録の閉鎖等,0,2025-01-10,2024-12-27,株式会社アスラム,,株式会社,埼玉県,三郷市,早稲田２丁目１３番地２０,,11,237,3410018,,,2024-12-27,清算の結了等,,,2020-03-03,1,,,,,アスラム,0
2105,7013201016393,登記記録の閉鎖等,0,2025-01-10,2024-12-09,株式会社ディワン,,株式会社,東京都,目黒区,青葉台２丁目１９番１０号,,13,110,1530042,,,2024-12-09,清算の結了等,,,2015-10-05,1,,,,,ディワン,0
2112,7020001093209,登記記録の閉鎖等,0,2025-01-10,2024-12-25,株式会社ヨシダ,,株式会社,神奈川県,川崎市多摩区,長沢４丁目１４番６号,,14,135,2140035,,,2024-12-25,清算の結了等,,,2015-10-05,1,,,,,ヨシダ,0
2120,7020002097514,登記記録の閉鎖等,0,2025-01-10,2024-12-27,有限会社シンエイ,,有限会社,神奈川県,川崎市川崎区,渡田山王町２５番４号,,14,131,2100845,,,2024-12-27,清算の結了等,,,2015-10-05,1,,,,,シンエイ,0
2123,7021001041545,登記記録の閉鎖等,0,2025-01-10,2025-01-07,株式会社ジャパンアンドビキン,,株式会社,神奈川県,座間市,相模が丘５丁目３２番２５号,,14,216,2520001,,,2025-01-07,清算の結了等,,,2015-10-05,1,,,,,ジャパンアンドビキン,0
2125,7021003014169,登記記録の閉鎖等,0,2025-01-10,2025-01-07,合同会社ｖｉｓｉｏｎ,,合同会社,神奈川県,座間市,南栗原５丁目１４番４１号ヒルズコート南栗原Ｂ１０３号,,14,216,2520015,,,2025-01-07,清算の結了等,,,2024-02-19,1,,,,,ヴィジョン,0
2126,7021003014879,登記記録の閉鎖等,0,2025-01-10,2025-01-09,コマキインベストメント合同会社,,合同会社,神奈川県,横須賀市,米が浜通１丁目３番地,,14,201,2380011,,,2025-01-09,清算の結了等,,,2024-08-09,1,,,,,コマキインベストメント,0
2160,7080402004799,登記記録の閉鎖等,0,2025-01-10,2024-12-27,有限会社高林サッシ工業所,,有限会社,静岡県,浜松市中央区,寺脇町９２９番地の１,,22,138,4300841,,,2024-12-27,清算の結了等,,,2015-10-05,1,,,,,タカバヤシサッシコウギョウショ,0
2162,7080402016563,登記記録の閉鎖等,0,2025-01-10,2024-12-27,有限会社オノウエ,,有限会社,静岡県,浜松市天竜区,春野町長蔵寺３８６番地,,22,140,4370614,,,2024-12-27,清算の結了等,,,2015-10-05,1,,,,,オノウエ,0
2165,7100001007044,登記記録の閉鎖等,0,2025-01-10,2025-01-06,株式会社クイーンズ・ケー,,株式会社,長野県,長野市,三輪田町１３１３番地,,20,201,3810000,,,2025-01-06,合併による解散等,9100001000716,令和７年１月１日長野市稲葉字北村前沖２５５２－５株式会社菊池信輪舎（9100001000716）に合併し解散,2015-10-05,1,,,,,クイーンズケー,0
2177,7120001194599,登記記録の閉鎖等,0,2025-01-10,2025-01-06,株式会社レジェンド・イノベーション,,株式会社,大阪府,大阪市西区,南堀江１丁目３番１２－３２０３号,,27,106,5500015,,,2025-01-06,清算の結了等,,,2015-11-19,1,,,,,,0
2179,7120001228456,登記記録の閉鎖等,0,2025-01-10,2025-01-06,株式会社ＭＭＦ,,株式会社,大阪府,大阪市生野区,中川２丁目１番３－１１０６号,,27,116,5440005,,,2025-01-06,清算の結了等,,,2020-04-09,1,,,,,エムエムエフ,0
2194,7120002003081,登記記録の閉鎖等,0,2025-01-10,2025-01-07,有限会社コリエンテス,,有限会社,大阪府,堺市北区,常磐町１丁１番２浅香山グリーンマンション４１８号,,27,146,5918001,,,2025-01-07,清算の結了等,,,2015-10-05,1,,,,,コリエンテス,0
2203,7122001000225,登記記録の閉鎖等,0,2025-01-10,2024-12-25,朝日鋲螺株式会社,,株式会社,大阪府,東大阪市,西堤楠町３丁目３番２５号,,27,227,5770047,,,2024-12-25,清算の結了等,,,2015-10-05,1,,,,,アサヒビョウラ,0
2205,7130002007651,登記記録の閉鎖等,0,2025-01-10,2025-01-08,有限会社野村酒店,,有限会社,京都府,京都市下京区,油小路通正面下る玉本町２０４番地,,26,106,6008346,,,2025-01-08,清算の結了等,,,2015-10-05,1,,,,,ノムラサケテン,0
2207,7130003007089,登記記録の閉鎖等,0,2025-01-10,2025-01-08,ＣＡＴＣＨ　ＧＡＴＥ合同会社,,合同会社,京都府,京都市中京区,御池通東洞院東入る笹屋町４３６番地永和御池ビル６０６号,,26,104,6040000,,,2025-01-08,清算の結了等,,,2021-03-05,1,,,,,キャッチゲート,0
2215,7140002034728,登記記録の閉鎖等,0,2025-01-10,2025-01-06,有限会社氷上広告センター,,有限会社,兵庫県,丹波市,氷上町稲継２３０番地の１,,28,223,6693466,,,2025-01-06,清算の結了等,,,2015-10-05,1,,,,,ヒカミコウコクセンター,0
2220,7180001154309,登記記録の閉鎖等,0,2025-01-10,2025-01-06,株式会社Ｄｅｇｉａｓ,,株式会社,愛知県,名古屋市中区,錦２丁目２０番１５号広小路クロスタワー１３階,,23,106,4600003,,,2025-01-06,合併による解散等,1180001109838,令和６年１２月３１日名古屋市中区錦二丁目２０番１５号広小路クロスタワー１３階株式会社ＷｅｅＡｒｅ（1180001109838）に合併し解散,2022-12-27,1,,,,,デジアス,0
2230,7190001009684,登記記録の閉鎖等,0,2025-01-10,2025-01-07,勝島不動産株式会社,,株式会社,三重県,名張市,桔梗が丘２番町七街区１４番地,,24,208,5180622,,,2025-01-07,清算の結了等,,,2015-10-05,1,,,,,カツシマフドウサン,0
2236,7200002005326,登記記録の閉鎖等,0,2025-01-10,2025-01-08,有限会社渡辺メディカルサービス,,有限会社,岐阜県,岐阜市,鏡島精華３丁目７番１４号,,21,201,5010112,,,2025-01-08,清算の結了等,,,2015-10-05,1,,,,,ワタナベメディカルサービス,0
2238,7220002005555,登記記録の閉鎖等,0,2025-01-10,2025-01-10,有限会社マル木商会,,有限会社,石川県,金沢市,弥生１丁目１７番２９号,,17,201,9218036,,,2025-01-10,登記官による閉鎖,,,2015-10-05,1,,,,,,0
2239,7220002010737,登記記録の閉鎖等,0,2025-01-10,2025-01-10,有限会社住吉商事,,有限会社,石川県,加賀市,山代温泉４４の２番地の１,,17,206,9220242,,,2025-01-10,登記官による閉鎖,,,2015-10-05,1,,,,,,0
2240,7220002014449,登記記録の閉鎖等,0,2025-01-10,2025-01-10,有限会社金喜式製作所,,有限会社,石川県,鹿島郡中能登町,能登部上ル部１５番地,,17,407,9291602,,,2025-01-10,登記官による閉鎖,,,2015-10-05,1,,,,,,0
2244,7240001006107,登記記録の閉鎖等,0,2025-01-10,2025-01-09,太平洋物産株式会社,,株式会社,広島県,広島市東区,矢賀新町２丁目４番１４－１１０９号,,34,102,7320044,,,2025-01-09,登記官による閉鎖,,,2015-10-05,1,,,,,,0
2245,7240001009092,登記記録の閉鎖等,0,2025-01-10,2025-01-09,株式会社広島エクセルホーム,,株式会社,広島県,広島市中区,舟入南２丁目７番１号,,34,101,7300847,,,2025-01-09,登記官による閉鎖,,,2015-10-05,1,,,,,ヒロシマエクセルホーム,0
2246,7240001014935,登記記録の閉鎖等,0,2025-01-10,2025-01-09,株式会社リード,,株式会社,広島県,広島市西区,観音新町１丁目４番３０号,,34,104,7330036,,,2025-01-09,登記官による閉鎖,,,2015-10-05,1,,,,,,0
2247,7240001025305,登記記録の閉鎖等,0,2025-01-10,2025-01-09,三次ロイヤルホテル株式会社,,株式会社,広島県,三次市,十日市東６丁目１３番２５号,,34,209,7280013,,,2025-01-09,登記官による閉鎖,,,2015-10-05,1,,,,,,0
2248,7240001032136,登記記録の閉鎖等,0,2025-01-10,2025-01-09,マエダ建装株式会社,,株式会社,広島県,福山市,明神町１丁目３番３４号,,34,207,7210961,,,2025-01-09,登記官による閉鎖,,,2015-10-05,1,,,,,,0
2249,7240002010636,登記記録の閉鎖等,0,2025-01-10,2025-01-09,有限会社ツムラ,,有限会社,広島県,広島市南区,東雲本町２丁目１８番９号,,34,103,7340023,,,2025-01-09,登記官による閉鎖,,,2015-10-05,1,,,,,,0
2250,7240002020131,登記記録の閉鎖等,0,2025-01-10,2025-01-09,有限会社ＲＯＣＫＥＴＳ,,有限会社,広島県,広島市東区,牛田中２丁目２番１９－１０２号,,34,102,7320065,,,2025-01-09,登記官による閉鎖,,,2015-10-05,1,,,,,,0
2251,7240002032085,登記記録の閉鎖等,0,2025-01-10,2025-01-09,有限会社一道土木,,有限会社,広島県,呉市,西惣付町１番４４号,,34,202,7370062,,,2025-01-09,登記官による閉鎖,,,2015-10-05,1,,,,,,0
2252,7240002046201,登記記録の閉鎖等,0,2025-01-10,2025-01-09,有限会社村上商事,,有限会社,広島県,神石郡神石高原町,油木乙１９０６番地,,34,545,7201812,,,2025-01-09,登記官による閉鎖,,,2019-02-27,1,,,,,ムラカミショウジ,0
2253,7240002050616,登記記録の閉鎖等,0,2025-01-10,2025-01-09,三協テック有限会社,,有限会社,広島県,尾道市,新高山２丁目２６３１番地の３８,,34,205,7220055,,,2025-01-09,登記官による閉鎖,,,2015-10-05,1,,,,,,0
2255,7240002054897,登記記録の閉鎖等,0,2025-01-10,2025-01-09,有限会社古川クリーニング,,有限会社,広島県,尾道市,美ノ郷町三成１５７１番地の１,,34,205,7220215,,,2025-01-09,登記官による閉鎖,,,2022-10-28,1,,,,,フルカワクリーニング,0
2257,7240005006409,登記記録の閉鎖等,0,2025-01-10,2025-01-09,特定非営利活動法人呉第一保育園,,その他の設立登記法人,広島県,呉市,両城２丁目１番３号,,34,202,7370826,,,2025-01-09,登記官による閉鎖,,,2015-10-05,1,,,,,,0
2261,7260002028478,登記記録の閉鎖等,0,2025-01-10,2024-12-27,有限会社茂文産業,,有限会社,岡山県,津山市,上紺屋町１３番地,,33,203,7080076,,,2024-12-27,清算の結了等,,,2015-10-05,1,,,,,シゲフミサンギョウ,0
2272,7290802005236,登記記録の閉鎖等,0,2025-01-10,2025-01-08,有限会社ハヤカワ,,有限会社,福岡県,北九州市戸畑区,西鞘ケ谷町２１番３８号,00094388,40,105,8040024,,,2025-01-08,清算の結了等,,,2015-10-05,1,,,,,ハヤカワ,0
2281,7330002005701,登記記録の閉鎖等,0,2025-01-10,2024-12-27,有限会社スリー工房,,有限会社,熊本県,熊本市中央区,本荘５丁目２番６号,,43,101,8600811,,,2024-12-27,清算の結了等,,,2015-10-05,1,,,,,スリーコウボウ,0
2296,7380002022403,登記記録の閉鎖等,0,2025-01-10,2024-12-25,有限会社インテリア松崎,00083850,有限会社,福島県,いわき市,平上平窪字上岡７４番地,,07,204,9708001,,,2024-12-25,清算の結了等,,,2015-10-05,1,,,,,インテリアマツザキ,0
2298,7390001015043,登記記録の閉鎖等,0,2025-01-10,2025-01-06,株式会社ＡＭＯコーポレーション,,株式会社,山形県,天童市,芳賀タウン北５丁目２番１７号たくみテナント１０２号,,06,210,9940082,,,2025-01-06,合併による解散等,1390002005767,令和７年１月１日山形県天童市芳賀タウン北五丁目１４番１１号株式会社ボイス（1390002005767）に合併し解散,2017-09-04,1,,,,,アモコーポレーション,0
2309,7430001046868,登記記録の閉鎖等,0,2025-01-10,2025-01-06,株式会社ホリ美唄工場,,株式会社,北海道,美唄市,東六条北９丁目１番１１号,,01,215,0720007,,,2025-01-06,合併による解散等,3430001048637,令和７年１月１日北海道砂川市西一条北十九丁目２番１号株式会社ホリ（3430001048637）に合併し解散,2015-10-05,1,,,,,ホリビバイコウジョウ,0
2324,8010001047890,登記記録の閉鎖等,0,2025-01-10,2024-12-23,ゼストプランニング株式会社,,株式会社,東京都,中央区,日本橋堀留町２丁目８番５号,,13,102,1030012,,,2024-12-23,清算の結了等,,,2015-10-05,1,,,,,ゼストプランニング,0
2337,8010002007010,登記記録の閉鎖等,0,2025-01-10,2024-12-26,有限会社アダマント,,有限会社,東京都,千代田区,内神田１丁目９番５号,,13,101,1010047,,,2024-12-26,合併による解散等,1010001022231,令和６年１２月２６日東京都千代田区内神田一丁目９番５号株式会社タツミ商店（1010001022231）に合併し解散,2015-10-05,1,,,,,アダマント,0
2338,8010002029079,登記記録の閉鎖等,0,2025-01-10,2024-12-26,有限会社コラル,,有限会社,東京都,豊島区,要町３丁目４２番１２号,,13,116,1710043,,,2024-12-26,清算の結了等,,,2015-10-05,1,,,,,コラル,0
2339,8010003035951,登記記録の閉鎖等,0,2025-01-10,2024-12-23,豊田藤岡合同会社,,合同会社,東京都,千代田区,平河町１丁目６番１５号シルスフィア会計事務所内,,13,101,1020093,,,2024-12-23,清算の結了等,,,2021-10-01,1,,,,,トヨタフジオカ,0
2343,8010101009758,登記記録の閉鎖等,0,2025-01-10,2025-01-06,カスタマー・リスペクト株式会社,,株式会社,東京都,八王子市,下恩方町１８９８番地３,,13,201,1920154,,,2025-01-06,清算の結了等,,,2015-10-05,1,,,,,カスタマーリスペクト,0
2413,8021002049990,登記記録の閉鎖等,0,2025-01-10,2025-01-09,有限会社共同電気商会,,有限会社,神奈川県,足柄下郡湯河原町,吉浜１３７３番地,,14,384,2590312,,,2025-01-09,清算の結了等,,,2015-10-05,1,,,,,キョウドウデンキショウカイ,0
2416,8030001018452,登記記録の閉鎖等,0,2025-01-10,2024-12-26,株式会社ティーエーエンジニアリング,,株式会社,埼玉県,蓮田市,西新宿４丁目７２番地の２３,,11,238,3490141,,,2024-12-26,清算の結了等,,,2015-10-05,1,,,,,ティーエーエンジニアリング,0
2417,8030001023295,登記記録の閉鎖等,0,2025-01-10,2024-12-27,ＮＮＫ株式会社,,株式会社,埼玉県,さいたま市岩槻区,大字末田２３０９番地２,,11,110,3390021,,,2024-12-27,清算の結了等,,,2015-10-05,1,,,,,エヌエヌケー,0
2418,8030001034697,登記記録の閉鎖等,0,2025-01-10,2024-12-26,株式会社ウエダ,,株式会社,埼玉県,草加市,八幡町５７７番地６２,,11,221,3400006,,,2024-12-26,清算の結了等,,,2015-10-05,1,,,,,ウエダ,0
2422,8030001107528,登記記録の閉鎖等,0,2025-01-10,2024-12-26,株式会社ｃｏｔｏｈｏｕｓｅ,,株式会社,埼玉県,三郷市,笹塚３０番地２,,11,237,3410027,,,2024-12-26,清算の結了等,,,2015-10-05,1,,,,,コトハウス,0
2436,8040001082373,登記記録の閉鎖等,0,2025-01-10,2024-12-27,株式会社八百武,,株式会社,千葉県,千葉市美浜区,高洲３丁目１５番６棟,,12,106,2610004,,,2024-12-27,清算の結了等,,,2015-10-05,1,,,,,ヤオタケ,0
2444,8040002000490,登記記録の閉鎖等,0,2025-01-10,2025-01-06,有限会社アスモ,,有限会社,千葉県,千葉市緑区,おゆみ野南６丁目３８番地７,,12,105,2660033,,,2025-01-06,清算の結了等,,,2015-10-05,1,,,,,アスモ,0
2447,8040003019101,登記記録の閉鎖等,0,2025-01-10,2024-12-26,合同会社Ｄ２４,,合同会社,千葉県,柏市,松葉町１丁目１３番地１、１２棟３号,,12,217,2770827,,,2024-12-26,清算の結了等,,,2021-12-14,1,,,,,ディーニジュウヨン,0
2453,8050002030917,登記記録の閉鎖等,0,2025-01-10,2024-12-27,有限会社大伸測量,,有限会社,茨城県,日立市,川尻町６丁目２１番３号,,08,202,3191411,,,2024-12-27,清算の結了等,,,2015-10-05,1,,,,,ダイシンソクリョウ,0
2464,8110001033014,登記記録の閉鎖等,0,2025-01-10,2025-01-06,株式会社グッドライフ保険サービス,,株式会社,新潟県,三条市,須頃２丁目４１番地,,15,204,9550092,,,2025-01-06,合併による解散等,4110001016501,令和７年１月１日新潟県燕市横田２５１１番地株式会社丸山自動車（4110001016501）に合併し解散,2018-02-21,1,,,,,グッドライフホケンサービス,0
2472,8120001176209,登記記録の閉鎖等,0,2025-01-10,2025-01-06,株式会社ライズ建設工業,,株式会社,大阪府,大阪市北区,中津３丁目２２番７号,,27,127,5310071,,,2025-01-06,清算の結了等,,,2015-10-05,1,,,,,ライズケンセツコウギョウ,0
2485,8120005010132,登記記録の閉鎖等,0,2025-01-10,2024-12-16,エバーグリーン第２住吉管理組合法人,,その他の設立登記法人,大阪府,大阪市住之江区,東加賀屋１丁目９番２６,,27,125,5590012,,,2024-12-16,清算の結了等,,,2015-10-05,1,,,,,エバーグリーンダイニスミヨシ,0
2491,8122002003779,登記記録の閉鎖等,0,2025-01-10,2025-01-06,有限会社花下製作所,,有限会社,大阪府,東大阪市,森河内東２丁目１番１０号,,27,227,5770062,,,2025-01-06,清算の結了等,,,2015-10-05,1,,,,,,0
2502,8140001040701,登記記録の閉鎖等,0,2025-01-10,2024-12-27,株式会社フィオーレ,,株式会社,兵庫県,三木市,別所町巴２１番１,,28,215,6730443,,,2024-12-27,清算の結了等,,,2015-10-05,1,,,,,フィオーレ,0
2505,8140001105438,登記記録の閉鎖等,0,2025-01-10,2025-01-06,新日本リライフ株式会社,,株式会社,兵庫県,神戸市中央区,東川崎町１丁目３番３号ハーバーランドセンタービル２０Ｆ,,28,110,6500044,,,2025-01-06,合併による解散等,3140001133625,令和７年１月１日神戸市中央区栄町通五丁目２番１９号ＣＮＤ株式会社（3140001133625）に合併し解散,2017-03-16,1,,,,,シンニホンリライフ,0
2508,8140001133380,登記記録の閉鎖等,0,2025-01-10,2024-12-20,株式会社リアル,,株式会社,兵庫県,神戸市中央区,磯辺通３丁目１番２号４０５,,28,110,6510084,,,2024-12-20,清算の結了等,,,2024-02-21,1,,,,,リアル,0
2523,8160005003859,登記記録の閉鎖等,0,2025-01-10,2025-01-09,善覺寺,,その他の設立登記法人,滋賀県,長浜市,下坂中町１３９番地の１,,25,203,5260044,,,2025-01-09,清算の結了等,,,2015-10-05,1,,,,,ゼンカクジ,0
2529,8180002038773,登記記録の閉鎖等,0,2025-01-10,2025-01-06,有限会社楓,,有限会社,愛知県,名古屋市西区,名駅２丁目１１番２号,,23,104,4510045,,,2025-01-06,合併による解散等,6030001066965,令和６年１２月１日埼玉県北葛飾郡松伏町築比地７９５番地１株式会社ウィーズ（6030001066965）に合併し解散,2015-10-05,1,,,,,カエデ,0
2535,8180302000664,登記記録の閉鎖等,0,2025-01-10,2024-12-27,有限会社オカタツ,,有限会社,愛知県,岡崎市,岡町字上野川５８番地２,,23,202,4440005,,,2024-12-27,合併による解散等,3180301001569,令和６年１２月２７日愛知県岡崎市岡町字上野川５８番地２株式会社トーエイ（3180301001569）に合併し解散,2015-10-05,1,,,,,オカタツ,0
2536,8180302024275,登記記録の閉鎖等,0,2025-01-10,2024-12-26,有限会社保利製作所,,有限会社,愛知県,みよし市,莇生町水洗３２番地の４,,23,236,4700206,,,2024-12-26,清算の結了等,,,2015-10-05,1,,,,,ホリセイサクショ,0
2544,8220002003120,登記記録の閉鎖等,0,2025-01-10,2025-01-10,有限会社下田設計事務所,,有限会社,石川県,金沢市,松村２丁目３５４番地,,17,201,9200348,,,2025-01-10,登記官による閉鎖,,,2015-10-05,1,,,,,,0
2545,8220002009943,登記記録の閉鎖等,0,2025-01-10,2025-01-10,有限会社Ｔ・Ｍコーポレーション,,有限会社,石川県,金沢市,片町２丁目２番１２号,,17,201,9200981,,,2025-01-10,登記官による閉鎖,,,2015-10-05,1,,,,,,0
2546,8220002014225,登記記録の閉鎖等,0,2025-01-10,2025-01-10,笠師保織布有限会社,,有限会社,石川県,七尾市,中島町笠師メ部４番地,,17,202,9292233,,,2025-01-10,登記官による閉鎖,,,2015-10-05,1,,,,,カサシホショクフ,0
2547,8220002015066,登記記録の閉鎖等,0,2025-01-10,2025-01-10,有限会社ウエーベル,,有限会社,石川県,羽咋郡宝達志水町,宿参号２９番地１ヴィラ千里浜ガーデン８２３号室,,17,386,9291341,,,2025-01-10,登記官による閉鎖,,,2015-10-05,1,,,,,,0
2549,8220005004520,登記記録の閉鎖等,0,2025-01-10,2025-01-10,特定非営利活動法人アニマルエステ協会,,その他の設立登記法人,石川県,小松市,打越町丙１０６番地３,,17,203,9230831,,,2025-01-10,登記官による閉鎖,,,2015-10-05,1,,,,,,0
2551,8240001009471,登記記録の閉鎖等,0,2025-01-10,2025-01-09,株式会社広島土地建物,,株式会社,広島県,広島市安佐南区,中筋３丁目２９番２３－１０１号,,34,105,7310122,,,2025-01-09,登記官による閉鎖,,,2015-10-05,1,,,,,,0
2552,8240001018844,登記記録の閉鎖等,0,2025-01-10,2025-01-09,株式会社サン・ウィング,,株式会社,広島県,広島市佐伯区,八幡１丁目１８－８ピープルタウン八幡２０２号,,34,108,7315116,,,2025-01-09,登記官による閉鎖,,,2015-10-05,1,,,,,,0
2553,8240001025262,登記記録の閉鎖等,0,2025-01-10,2025-01-09,株式会社カジヤマ,,株式会社,広島県,庄原市,東城町川東１１５８番地１,,34,210,7295121,,,2025-01-09,登記官による閉鎖,,,2015-10-05,1,,,,,,0
2554,8240001034676,登記記録の閉鎖等,0,2025-01-10,2025-01-09,株式会社シモヤマ,,株式会社,広島県,福山市,港町２丁目１３番１７号,,34,207,7210964,,,2025-01-09,登記官による閉鎖,,,2015-10-05,1,,,,,,0
2558,8240001060623,登記記録の閉鎖等,0,2025-01-10,2025-01-09,樹光産業株式会社,,株式会社,広島県,広島市安佐北区,可部町大字下町屋２１４６番地,,34,106,7310217,,,2025-01-09,登記官による閉鎖,,,2022-11-15,1,,,,,,0
2560,8240002004265,登記記録の閉鎖等,0,2025-01-10,2025-01-09,有限会社河野旦次商店,,有限会社,広島県,広島市中区,本川町２丁目５番１号,,34,101,7300802,,,2025-01-09,登記官による閉鎖,,,2015-10-05,1,,,,,,0
2561,8240002006591,登記記録の閉鎖等,0,2025-01-10,2025-01-09,有限会社サコオカ機工,,有限会社,広島県,広島市西区,三滝町１３番１０号,,34,104,7330005,,,2025-01-09,登記官による閉鎖,,,2015-10-05,1,,,,,,0
2562,8240002007342,登記記録の閉鎖等,0,2025-01-10,2025-01-09,有限会社シーショアー,,有限会社,広島県,広島市東区,牛田本町５丁目１２番１８－６０２号,,34,102,7320066,,,2025-01-09,登記官による閉鎖,,,2015-10-05,1,,,,,,0
2563,8240002007994,登記記録の閉鎖等,0,2025-01-10,2025-01-09,有限会社住宅保全センター,,有限会社,広島県,広島市中区,光南２丁目１９番１０号,,34,101,7300825,,,2025-01-09,登記官による閉鎖,,,2015-10-05,1,,,,,,0
2564,8240002009990,登記記録の閉鎖等,0,2025-01-10,2025-01-09,有限会社田中菓子店,,有限会社,広島県,広島市南区,松原町４番５号,,34,103,7320822,,,2025-01-09,登記官による閉鎖,,,2015-10-05,1,,,,,,0
2565,8240002011807,登記記録の閉鎖等,0,2025-01-10,2025-01-09,有限会社中藤工業,,有限会社,広島県,広島市東区,福田８丁目１３番１－１５号,,34,102,7320029,,,2025-01-09,登記官による閉鎖,,,2015-10-05,1,,,,,,0
2566,8240002012623,登記記録の閉鎖等,0,2025-01-10,2025-01-09,有限会社ハウジング・リフォーム,,有限会社,広島県,広島市西区,楠木町１丁目１５番２９－２０２号,,34,104,7330002,,,2025-01-09,登記官による閉鎖,,,2015-10-05,1,,,,,,0
2567,8240002022928,登記記録の閉鎖等,0,2025-01-10,2025-01-09,有限会社ポルタ企画,,有限会社,広島県,広島市佐伯区,藤の木３丁目１１番３６号,,34,108,7315103,,,2025-01-09,登記官による閉鎖,,,2015-10-05,1,,,,,,0
2568,8240002027035,登記記録の閉鎖等,0,2025-01-10,2025-01-09,有限会社ファーマーシステム,,有限会社,広島県,広島市東区,牛田旭２丁目６番１３号,,34,102,7320067,,,2025-01-09,登記官による閉鎖,,,2015-10-05,1,,,,,,0
2569,8240002028330,登記記録の閉鎖等,0,2025-01-10,2025-01-09,有限会社ブルーム,,有限会社,広島県,東広島市,西条西本町２７番３７号,,34,212,7390043,,,2025-01-09,登記官による閉鎖,,,2015-10-05,1,,,,,,0
2570,8240002030625,登記記録の閉鎖等,0,2025-01-10,2025-01-09,福六酒造有限会社,,有限会社,広島県,三次市,吉舎町吉舎３７８番地１,,34,209,7294211,,,2025-01-09,登記官による閉鎖,,,2015-10-05,1,,,,,,0
2571,8240002041977,登記記録の閉鎖等,0,2025-01-10,2025-01-09,有限会社徳毛学習セミナー,,有限会社,広島県,福山市,引野町北２丁目３番８号,,34,207,7210941,,,2025-01-09,登記官による閉鎖,,,2015-10-05,1,,,,,,0
2572,8240002042694,登記記録の閉鎖等,0,2025-01-10,2025-01-09,有限会社フジイ機設工業,,有限会社,広島県,福山市,瀬戸町大字山北２２４番地の１,,34,207,7200838,,,2025-01-09,登記官による閉鎖,,,2015-10-05,1,,,,,,0
2575,8240002053114,登記記録の閉鎖等,0,2025-01-10,2025-01-09,有限会社兼光,,有限会社,広島県,三原市,沼田東町両名２９６番地の１,,34,204,7230141,,,2025-01-09,登記官による閉鎖,,,2015-10-05,1,,,,,,0
2577,8240005001937,登記記録の閉鎖等,0,2025-01-10,2025-01-09,皆実食糧企業組合,,その他の設立登記法人,広島県,広島市南区,皆実町１丁目５番１０号,,34,103,7340007,,,2025-01-09,登記官による閉鎖,,,2015-10-05,1,,,,,ミナミショクリョウ,0
2581,8250002017373,登記記録の閉鎖等,0,2025-01-10,2025-01-08,福田青果有限会社,,有限会社,山口県,周南市,今住町７番２７号,,35,215,7450063,,,2025-01-08,清算の結了等,,,2015-10-05,1,,,,,フクダセイカ,0
2582,8250005000772,登記記録の閉鎖等,0,2025-01-10,2024-12-27,医療法人社団恭仁会利重クリニック,,その他の設立登記法人,山口県,山口市,江崎２２２９番１,,35,203,7540896,,,2024-12-27,清算の結了等,,,2015-10-05,1,,,,,キョウジンカイトシシゲクリニック,0
2600,8310001003599,登記記録の閉鎖等,0,2025-01-10,2025-01-06,株式会社錦食品,,株式会社,佐賀県,唐津市,中瀬通１番地８,,41,202,8470101,,,2025-01-06,合併による解散等,8310001001702,令和７年１月１日佐賀県唐津市中瀬通１番地８金子産業株式会社（8310001001702）に合併し解散,2015-10-05,1,,,,,ニシキショクヒン,0
2608,8340002012076,登記記録の閉鎖等,0,2025-01-10,2024-12-26,株式会社グリーン企画,,株式会社,鹿児島県,鹿児島市,西伊敷７丁目３４番１２号,,46,201,8911202,,,2024-12-26,清算の結了等,,,2015-10-05,1,,,,,グリーンキカク,0
2621,8370202003665,登記記録の閉鎖等,0,2025-01-10,2024-12-25,有限会社オールモータース伊藤,,有限会社,宮城県,加美郡加美町,字中畑１２番地の１,,04,445,9814333,,,2024-12-25,清算の結了等,,,2015-10-05,1,,,,,オールモータースイトウ,0
2627,8380003001108,登記記録の閉鎖等,0,2025-01-10,2024-12-25,合同会社ジェイケイ,,合同会社,福島県,いわき市,郷ケ丘３丁目２１番地の１,,07,204,9708045,,,2024-12-25,清算の結了等,,,2015-10-05,1,,,,,ジェイケイ,0
2636,8430001032355,登記記録の閉鎖等,0,2025-01-10,2025-01-06,株式会社ハイベリー,,株式会社,北海道,札幌市西区,発寒十一条１丁目１０番７３号,,01,107,0630831,,,2025-01-06,清算の結了等,,,2015-10-05,1,,,,,ハイベリー,0
2650,8500002000709,登記記録の閉鎖等,0,2025-01-10,2025-01-06,有限会社アタックス,,有限会社,愛媛県,松山市,千舟町２丁目３番地４,,38,201,7900011,,,2025-01-06,合併による解散等,5500001004663,令和７年１月１日愛媛県松山市湊町二丁目５番地６株式会社向井酒店（5500001004663）に合併し解散,2015-10-05,1,,,,,アタックス,0
2657,9010003029894,登記記録の閉鎖等,0,2025-01-10,2024-12-23,ＫＭアソシエイツ合同会社,,合同会社,東京都,中央区,勝どき２丁目１１番２号,,13,102,1040054,,,2024-12-23,清算の結了等,,,2019-05-24,1,,,,,ケイエムアソシエイツ,0
2660,9010005030719,登記記録の閉鎖等,0,2025-01-10,2025-01-06,晴海特定目的会社,,その他の設立登記法人,東京都,千代田区,平河町１丁目６番１５号シルスフィア会計事務所内,,13,101,1020093,,,2025-01-06,清算の結了等,,,2019-09-05,1,,,,,ハルミ,0
2671,9010403024900,登記記録の閉鎖等,0,2025-01-10,2024-12-17,ｋｍキャピタル合同会社,,合同会社,東京都,港区,赤坂２丁目８番６号,,13,103,1070052,,,2024-12-17,清算の結了等,,,2021-03-16,1,,,,,ケイエムキャピタル,0
2675,9010601041409,登記記録の閉鎖等,0,2025-01-10,2025-01-06,東京東フィグラ株式会社,,株式会社,東京都,江東区,辰巳３丁目１５番１５号ＴＧＣビル,,13,108,1350053,,,2025-01-06,合併による解散等,7010001243771,令和７年１月１日東京都江東区辰巳三丁目１５番１５号ＴＧＣビルグラス・ワン株式会社（7010001243771）に合併し解散,2015-10-05,1,,,,,トウキョウヒガシフィグラ,0
2678,9010801021227,登記記録の閉鎖等,0,2025-01-10,2025-01-10,ワタナベヤ株式会社,,株式会社,石川県,金沢市,安江町５番１３号,,17,201,9200854,,,2025-01-10,登記官による閉鎖,,,2015-10-05,1,,,,,ワタナベヤ,0
2692,9011101004863,登記記録の閉鎖等,0,2025-01-10,2024-12-25,株式会社川島製本所,,株式会社,東京都,新宿区,早稲田鶴巻町５４７番地,,13,104,1620041,,,2024-12-25,清算の結了等,,,2015-10-05,1,,,,,カワシマセイホンショ,0
2696,9011201024729,登記記録の閉鎖等,0,2025-01-10,2025-01-07,株式会社エースコネクション,,株式会社,東京都,中野区,東中野２丁目１２番１８号フェリスバニラ２０４,,13,114,1640003,,,2025-01-07,清算の結了等,,,2023-06-22,1,,,,,エースコネクション,0
2704,9011401014125,登記記録の閉鎖等,0,2025-01-10,2024-12-26,株式会社エスワークス,,株式会社,東京都,板橋区,中丸町１２番１６号,,13,119,1730026,,,2024-12-26,清算の結了等,,,2015-10-05,1,,,,,エスワークス,0
2722,9012301010908,登記記録の閉鎖等,0,2025-01-10,2024-12-27,株式会社エダヒロ,,株式会社,東京都,町田市,玉川学園７丁目１５番１０号,,13,209,1940041,,,2024-12-27,清算の結了等,,,2017-04-05,1,,,,,エダヒロ,0
2733,9013101003696,登記記録の閉鎖等,0,2025-01-10,2025-01-06,株式会社昭洋精機,,株式会社,東京都,青梅市,今井３丁目５番２３,,13,205,1980023,,,2025-01-06,清算の結了等,,,2015-10-05,1,,,,,ショウヨウセイキ,0
2738,9013402000797,登記記録の閉鎖等,0,2025-01-10,2024-12-25,有限会社西武自動車,,有限会社,東京都,日野市,万願寺３丁目４８番地の７,,13,212,1910024,,,2024-12-25,清算の結了等,,,2015-10-05,1,,,,,セイブジドウシャ,0
2741,9020001095797,登記記録の閉鎖等,0,2025-01-10,2024-12-25,株式会社レンエネルギー・クロスボーダー,,株式会社,神奈川県,横浜市港北区,大倉山２丁目３４番１５号,,14,109,2220037,,,2024-12-25,清算の結了等,,,2015-10-05,1,,,,,レンエネルギークロスボーダー,0
2753,9030001033211,登記記録の閉鎖等,0,2025-01-10,2025-01-06,株式会社一弘工芸,,株式会社,埼玉県,加須市,岡古井４６２番地,,11,210,3470058,,,2025-01-06,清算の結了等,,,2015-10-05,1,,,,,イチコウコウゲイ,0
2755,9030001081763,登記記録の閉鎖等,0,2025-01-10,2025-01-06,株式会社エスエス,,株式会社,埼玉県,川口市,東領家４丁目１１番１１号,,11,203,3320003,,,2025-01-06,清算の結了等,,,2015-10-05,1,,,,,エスエス,0
2774,9040002089788,登記記録の閉鎖等,0,2025-01-10,2024-12-23,有限会社後藤商店,,有限会社,千葉県,柏市,布施１２８１番地,,12,217,2770825,,,2024-12-23,清算の結了等,,,2015-10-05,1,,,,,ゴトウショウテン,0
2784,9080101008843,登記記録の閉鎖等,0,2025-01-10,2024-12-27,駿河ギフト株式会社,,株式会社,静岡県,富士市,森島８６番地の３,,22,210,4160948,,,2024-12-27,清算の結了等,,,2015-10-05,1,,,,,スルガギフト,0
2801,9120001059668,登記記録の閉鎖等,0,2025-01-10,2025-01-06,トヨタカローラ大阪株式会社,,株式会社,大阪府,大阪市西区,立売堀３丁目１番１号,,27,106,5500012,,,2025-01-06,合併による解散等,8120001049050,令和７年１月１日大阪市西区立売堀三丁目１番１号大阪トヨペット株式会社（8120001049050）に合併し解散,2015-10-05,1,,,,,トヨタカローラオオサカ,0
2829,9120002073453,登記記録の閉鎖等,0,2025-01-10,2025-01-09,有限会社アルファ技研,,有限会社,大阪府,枚方市,渚南町２２番６号,00046165,27,210,5731183,,,2025-01-09,清算の結了等,,,2015-10-05,1,,,,,アルファギケン,0
2830,9120002073890,登記記録の閉鎖等,0,2025-01-10,2024-12-27,有限会社勝部通信,,有限会社,大阪府,枚方市,印田町３０番１３号,,27,210,5730017,,,2024-12-27,清算の結了等,,,2015-10-05,1,,,,,カツベツウシン,0
2836,9122001017168,登記記録の閉鎖等,0,2025-01-10,2025-01-06,株式会社ジャムプロジェクト,,株式会社,大阪府,四條畷市,岡山東２丁目１番１１号,,27,229,5750003,,,2025-01-06,清算の結了等,,,2015-10-05,1,,,,,ジャムプロジェクト,0
2840,9140001002287,登記記録の閉鎖等,0,2025-01-10,2025-01-06,株式会社共進,,株式会社,兵庫県,神戸市東灘区,西岡本７丁目８番１９号,,28,101,6580073,,,2025-01-06,清算の結了等,,,2015-10-05,1,,,,,キョウシン,0
2855,9150001004984,登記記録の閉鎖等,0,2025-01-10,2025-01-06,大鵬技建株式会社,,株式会社,京都府,相楽郡精華町,桜が丘４丁目３８番地１９,,26,366,6190232,,,2025-01-06,清算の結了等,,,2015-10-05,1,,,,,タイホウギケン,0
2860,9160001009173,登記記録の閉鎖等,0,2025-01-10,2025-01-06,株式会社ネイチャーライフ,,株式会社,滋賀県,彦根市,南川瀬町１５４９番地,,25,202,5220222,,,2025-01-06,清算の結了等,,,2015-10-05,1,,,,,ネイチャーライフ,0
2886,9180301009929,登記記録の閉鎖等,0,2025-01-10,2025-01-08,株式会社清光堂,,株式会社,愛知県,豊川市,門前町２５番地,,23,207,4420037,,,2025-01-08,清算の結了等,,,2015-10-05,1,,,,,セイコウドウ,0
2892,9190002001408,登記記録の閉鎖等,0,2025-01-10,2025-01-09,本堂建設有限会社,,有限会社,三重県,津市,半田１９４６番地,,24,201,5140823,,,2025-01-09,清算の結了等,,,2015-10-05,1,,,,,ホンドウケンセツ,0
2900,9220001008144,登記記録の閉鎖等,0,2025-01-10,2025-01-10,株式会社エムゲン,,株式会社,石川県,金沢市,湊４丁目６０番地２,,17,201,9200211,,,2025-01-10,登記官による閉鎖,,,2015-10-05,1,,,,,,0
2902,9220002002402,登記記録の閉鎖等,0,2025-01-10,2025-01-10,有限会社ケイ・エス・ビィ金沢,,有限会社,石川県,金沢市,示野町西３番地カナザワＨＫビル２階,,17,201,9200059,,,2025-01-10,登記官による閉鎖,,,2015-10-05,1,,,,,,0
2903,9220005001715,登記記録の閉鎖等,0,2025-01-10,2025-01-10,北陸住宅宅地事業協同組合,,その他の設立登記法人,石川県,金沢市,入江２丁目１８０番地（土井ビル内）,,17,201,9218011,,,2025-01-10,登記官による閉鎖,,,2015-10-05,1,,,,,,0
2908,9230002001931,登記記録の閉鎖等,0,2025-01-10,2025-01-06,有限会社タイムインシュアランス,,有限会社,富山県,富山市,二俣新町３１番地,,16,201,9398184,,,2025-01-06,合併による解散等,7230002002626,令和７年１月１日富山市二俣新町３１番地株式会社フロム・シー（7230002002626）に合併し解散,2015-10-05,1,,,,,タイムインシュアランス,0
2909,9230003001889,登記記録の閉鎖等,0,2025-01-10,2025-01-06,合同会社ＧＯＬＤＫ,,合同会社,富山県,砺波市,鷹栖６６０番地６,,16,208,9391335,,,2025-01-06,清算の結了等,,,2022-07-15,1,,,,,ゴルディク,0
2910,9240001012862,登記記録の閉鎖等,0,2025-01-10,2025-01-09,株式会社アビ,,株式会社,広島県,広島市西区,商工センター２丁目１２番４号,,34,104,7330833,,,2025-01-09,登記官による閉鎖,,,2015-10-05,1,,,,,,0
2911,9240001018546,登記記録の閉鎖等,0,2025-01-10,2025-01-09,株式会社お宙,,株式会社,広島県,広島市東区,牛田中２丁目２番１９－１０３号,,34,102,7320065,,,2025-01-09,登記官による閉鎖,,,2015-10-05,1,,,,,,0
2912,9240001022762,登記記録の閉鎖等,0,2025-01-10,2025-01-09,株式会社古本建設,,株式会社,広島県,東広島市,志和町七条椛坂８９３番地の１,,34,212,7390264,,,2025-01-09,登記官による閉鎖,,,2015-10-05,1,,,,,フルモトケンセツ,0
2913,9240001023967,登記記録の閉鎖等,0,2025-01-10,2025-01-09,株式会社広島自動車整備工場,,株式会社,広島県,山県郡北広島町,有田９９５番地,,34,369,7311533,,,2025-01-09,登記官による閉鎖,,,2015-10-05,1,,,,,,0
2914,9240001027720,登記記録の閉鎖等,0,2025-01-10,2025-01-09,Ｋ＆Ｓ興業株式会社,,株式会社,広島県,呉市,阿賀中央３丁目１２番７－１０７号,,34,202,7370003,,,2025-01-09,登記官による閉鎖,,,2015-10-05,1,,,,,,0
2915,9240001027761,登記記録の閉鎖等,0,2025-01-10,2025-01-09,株式会社ノーテック・コーポレーション,,株式会社,広島県,江田島市,能美町鹿川３１７番地の２,,34,215,7372302,,,2025-01-09,登記官による閉鎖,,,2015-10-05,1,,,,,,0
2916,9240001031664,登記記録の閉鎖等,0,2025-01-10,2025-01-09,株式会社信岡,,株式会社,広島県,福山市,沖野上町５丁目３０番２６号,,34,207,7200825,,,2025-01-09,登記官による閉鎖,,,2015-10-05,1,,,,,,0
2917,9240001039138,登記記録の閉鎖等,0,2025-01-10,2025-01-09,株式会社しまなみメンテナンス,,株式会社,広島県,尾道市,因島中庄町２４９３番地２,,34,205,7222211,,,2025-01-09,登記官による閉鎖,,,2015-10-05,1,,,,,,0
2918,9240001039732,登記記録の閉鎖等,0,2025-01-10,2025-01-09,株式会社錦潟,,株式会社,広島県,三原市,城町３丁目２番１４号,,34,204,7230014,,,2025-01-09,登記官による閉鎖,,,2015-10-05,1,,,,,,0
2919,9240001041787,登記記録の閉鎖等,0,2025-01-10,2025-01-09,株式会社ＮＥＸＴ　ＬＥＶＥＬ,,株式会社,広島県,広島市中区,富士見町１６番１４号サンビル６０３号室,,34,101,7300043,,,2025-01-09,登記官による閉鎖,,,2015-10-05,1,,,,,,0
2920,9240001045474,登記記録の閉鎖等,0,2025-01-10,2025-01-09,株式会社広工業,,株式会社,広島県,竹原市,竹原町２２９１－１９,,34,203,7250021,,,2025-01-09,登記官による閉鎖,,,2015-10-05,1,,,,,,0
2921,9240002000560,登記記録の閉鎖等,0,2025-01-10,2025-01-09,有限会社アジアマリンサービス,,有限会社,広島県,広島市中区,舟入中町８番１７－４０３号,,34,101,7300842,,,2025-01-09,登記官による閉鎖,,,2015-10-05,1,,,,,,0
2922,9240002000619,登記記録の閉鎖等,0,2025-01-10,2025-01-09,有限会社安佐電機,,有限会社,広島県,広島市安佐北区,亀山３丁目１番５７－３号,,34,106,7310231,,,2025-01-09,登記官による閉鎖,,,2015-10-05,1,,,,,,0
2923,9240002008307,登記記録の閉鎖等,0,2025-01-10,2025-01-09,有限会社末田経営計算センター,,有限会社,広島県,広島市中区,八丁堀３番８－４０１号,,34,101,7300013,,,2025-01-09,登記官による閉鎖,,,2015-10-05,1,,,,,,0
2924,9240002010279,登記記録の閉鎖等,0,2025-01-10,2025-01-09,有限会社中国ニシキ,,有限会社,広島県,広島市東区,矢賀新町１丁目１番１号,,34,102,7320044,,,2025-01-09,登記官による閉鎖,,,2015-10-05,1,,,,,,0
2925,9240002012606,登記記録の閉鎖等,0,2025-01-10,2025-01-09,有限会社バウ建築設計事務所,,有限会社,広島県,広島市西区,井口台１丁目２２番２６号,,34,104,7330844,,,2025-01-09,登記官による閉鎖,,,2015-10-05,1,,,,,,0
2926,9240002015996,登記記録の閉鎖等,0,2025-01-10,2025-01-09,有限会社美輝,,有限会社,広島県,広島市東区,牛田旭２丁目５番２４号,,34,102,7320067,,,2025-01-09,登記官による閉鎖,,,2015-10-05,1,,,,,,0
2927,9240002017068,登記記録の閉鎖等,0,2025-01-10,2025-01-09,有限会社藪建設,,有限会社,広島県,広島市安佐南区,上安４丁目１７番１２号,,34,105,7310154,,,2025-01-09,登記官による閉鎖,,,2015-10-05,1,,,,,,0
2928,9240002021788,登記記録の閉鎖等,0,2025-01-10,2025-01-09,有限会社中央自動車,,有限会社,広島県,広島市佐伯区,五日市７丁目６番１７号,,34,108,7315127,,,2025-01-09,登記官による閉鎖,,,2015-10-05,1,,,,,,0
2929,9240002025277,登記記録の閉鎖等,0,2025-01-10,2025-01-09,有限会社キノホーム企画,,有限会社,広島県,広島市東区,中山中町８番５号,,34,102,7320026,,,2025-01-09,登記官による閉鎖,,,2015-10-05,1,,,,,,0
2930,9240002025418,登記記録の閉鎖等,0,2025-01-10,2025-01-09,有限会社ストーンライフ,,有限会社,広島県,広島市南区,東雲３丁目１１番３６号,,34,103,7340022,,,2025-01-09,登記官による閉鎖,,,2015-10-05,1,,,,,,0
2931,9240002025888,登記記録の閉鎖等,0,2025-01-10,2025-01-09,有限会社和幸建装,,有限会社,広島県,広島市佐伯区,湯来町大字白砂２６７５番地の２,,34,108,7380512,,,2025-01-09,登記官による閉鎖,,,2015-10-05,1,,,,,,0
2932,9240002029823,登記記録の閉鎖等,0,2025-01-10,2025-01-09,有限会社山県商事,,有限会社,広島県,山県郡安芸太田町,大字加計３５２９番地の２,,34,368,7313501,,,2025-01-09,登記官による閉鎖,,,2015-10-05,1,,,,,ヤマガタショウジ,0
2933,9240002031639,登記記録の閉鎖等,0,2025-01-10,2025-01-09,有限会社ムネヒサ,,有限会社,広島県,庄原市,東本町２丁目１６番２２号,,34,210,7270011,,,2025-01-09,登記官による閉鎖,,,2015-10-05,1,,,,,,0
2934,9240002032629,登記記録の閉鎖等,0,2025-01-10,2025-01-09,有限会社クニサ電工,,有限会社,広島県,呉市,焼山北１丁目３番２５号,,34,202,7370911,,,2025-01-09,登記官による閉鎖,,,2015-10-05,1,,,,,,0
2936,9240002046728,登記記録の閉鎖等,0,2025-01-10,2025-01-09,有限会社かじやま繊維,,有限会社,広島県,府中市,河佐町１３２７番地の４,,34,208,7293221,,,2025-01-09,登記官による閉鎖,,,2015-10-05,1,,,,,,0
2937,9240002054854,登記記録の閉鎖等,0,2025-01-10,2025-01-09,有限会社佐々田ホーム,,有限会社,広島県,府中市,元町５４７番地の２,,34,208,7260003,,,2025-01-09,登記官による閉鎖,,,2020-06-12,1,,,,,ササダホーム,0
2938,9240003001814,登記記録の閉鎖等,0,2025-01-10,2025-01-09,レオイワサキ合同会社,,合同会社,広島県,福山市,引野町３丁目２７番２１号,,34,207,7210942,,,2025-01-09,登記官による閉鎖,,,2015-10-05,1,,,,,,0
2940,9240005003445,登記記録の閉鎖等,0,2025-01-10,2025-01-09,企業組合川都温泉,,その他の設立登記法人,広島県,広島市南区,東雲１丁目３番３２号,,34,103,7340022,,,2025-01-09,登記官による閉鎖,,,2015-10-05,1,,,,,カワトオンセン,0
2941,9240005006571,登記記録の閉鎖等,0,2025-01-10,2025-01-09,広島農水技術振興協同組合,,その他の設立登記法人,広島県,江田島市,沖美町三吉４５７番地の４,,34,215,7372316,,,2025-01-09,登記官による閉鎖,,,2015-10-05,1,,,,,,0
2942,9240005007660,登記記録の閉鎖等,0,2025-01-10,2025-01-09,備後地区造船協力協同組合,,その他の設立登記法人,広島県,福山市,今津町２５４４番地の１,,34,207,7290111,,,2025-01-09,登記官による閉鎖,,,2015-10-05,1,,,,,,0
2943,9240005009054,登記記録の閉鎖等,0,2025-01-10,2025-01-09,協同組合ニューマート,,その他の設立登記法人,広島県,福山市,新市町大字新市５６０番地,,34,207,7293103,,,2025-01-09,登記官による閉鎖,,,2015-10-05,1,,,,,,0
2944,9240005011299,登記記録の閉鎖等,0,2025-01-10,2025-01-09,特定非営利活動法人ニューウインド,,その他の設立登記法人,広島県,尾道市,久保町２１３２番地,,34,205,7220042,,,2025-01-09,登記官による閉鎖,,,2015-10-05,1,,,,,,0
2945,9240005012289,登記記録の閉鎖等,0,2025-01-10,2025-01-09,特定非営利活動法人障害者の生命と人権を守る・宏友会,,その他の設立登記法人,広島県,三原市,明神１丁目１６番７号,,34,204,7230046,,,2025-01-09,登記官による閉鎖,,,2015-10-05,1,,,,,,0
2949,9270002010648,登記記録の閉鎖等,0,2025-01-10,2025-01-06,有限会社山田薬局,,有限会社,鳥取県,倉吉市,上灘町１７１番地,00004430,31,203,6820811,,,2025-01-06,合併による解散等,6030001066965,令和６年１２月１日埼玉県北葛飾郡松伏町築比地７９５番地１株式会社ウィーズ（6030001066965）に合併し解散,2015-10-05,1,,,,,ヤマダヤッキョク,0
