sequenceNumber,corporateNumber,process,correct,updateDate,changeDate,name,nameImageId,kind,prefectureName,cityName,streetNumber,addressImageId,prefectureCode,cityCode,postCode,addressOutside,addressOutsideImageId,closeDate,closeCause,successorCorporateNumber,changeCause,assignmentDate,latest,enName,enPrefectureName,enCityName,enAddressOutside,furigana,hihyoji
11,1010003049867,新規,0,2025-12-26,2025-12-26,Ｃｙｂｅｒ　Ｌｏｄｇｅ合同会社,,合同会社,東京都,中央区,銀座１丁目１２－４Ｎ＆ＥＢＬＤ．７階,,13,102,1040061,,,,,,,2025-12-26,1,,,,,サイバーロッジ,0
13,1010005041137,新規,0,2025-12-26,2025-12-26,一般社団法人三笠トラスト,,その他の設立登記法人,東京都,千代田区,五番町１番地９,,13,101,1020076,,,,,,,2025-12-26,1,,,,,ミカサトラスト,0
14,1010005041145,新規,0,2025-12-26,2025-12-26,一般社団法人読める形見,,その他の設立登記法人,東京都,中央区,銀座７丁目１３番２１号ＧｉｎｚａＲｏｋｕｓｈｕビル２階,,13,102,1040061,,,,,,,2025-12-26,1,,,,,ヨメルカタミ,0
22,1010401195197,新規,0,2025-12-26,2025-12-26,株式会社宝友,,株式会社,東京都,港区,浜松町２丁目２番１５号浜松町ダイヤビル２階,,13,103,1050013,,,,,,,2025-12-26,1,,,,,ホウユウ,0
25,1010403036928,新規,0,2025-12-26,2025-12-26,川崎パワー合同会社,,合同会社,東京都,港区,新橋３丁目９番１０号天翔新橋ビル７０１号室,,13,103,1050004,,,,,,,2025-12-26,1,,,,,カワサキパワー,0
30,1010801036901,新規,0,2025-12-26,2025-12-26,株式会社ヤマロク,,株式会社,東京都,大田区,蒲田２丁目６－１５山六マンション１Ｆ,,13,111,1440052,,,,,,,2025-12-26,1,,,,,ヤマロク,0
31,1010901058721,新規,0,2025-12-26,2025-12-26,株式会社ＩＺＡＭ,,株式会社,東京都,世田谷区,羽根木２丁目４０―６,,13,112,1560042,,,,,,,2025-12-26,1,,,,,イザム,0
38,1011001174327,新規,0,2025-12-26,2025-12-26,株式会社Ｒｏｙ　Ｃａｐｉｔａｌ,,株式会社,東京都,渋谷区,広尾１丁目２－１ヒカリビル４階,,13,113,1500012,,,,,,,2025-12-26,1,,,,,ロイキャピタル,0
39,1011001174450,新規,0,2025-12-26,2025-12-26,株式会社アルタ・マネジメント,,株式会社,東京都,渋谷区,千駄ヶ谷５丁目２８番１０－５０３号,,13,113,1510051,,,,,,,2025-12-26,1,,,,,アルタマネジメント,0
41,1011003022921,新規,0,2025-12-26,2025-12-26,合同会社没頭ｔｉｍｅｓ,,合同会社,東京都,渋谷区,恵比寿南２丁目１３－９美芳ビル４階,,13,113,1500022,,,,,,,2025-12-26,1,,,,,ボットウタイムズ,0
48,1011203004918,新規,0,2025-12-26,2025-12-26,合同会社エステック,,合同会社,東京都,中野区,中央２丁目３０－９山王ＭＧＴビル３１４,,13,114,1640011,,,,,,,2025-12-26,1,,,,,エステック,0
53,1011501032959,新規,0,2025-12-26,2025-12-26,株式会社壽々喜園,,株式会社,東京都,荒川区,西日暮里２丁目１７番７号,,13,118,1160013,,,,,,,2025-12-26,1,,,,,スズキエン,0
54,1011601029269,新規,0,2025-12-26,2025-12-26,あきみつＰ株式会社,,株式会社,東京都,練馬区,西大泉２丁目１７番６号,,13,120,1780065,,,,,,,2025-12-26,1,,,,,アキミツピー,0
55,1011601029277,新規,0,2025-12-26,2025-12-26,リスタンダード株式会社,,株式会社,東京都,練馬区,北町３丁目１０番１５－５０４号,,13,120,1790081,,,,,,,2025-12-26,1,,,,,リスタンダード,0
60,1011803007246,新規,0,2025-12-26,2025-12-26,寿限無合同会社,,合同会社,東京都,葛飾区,青戸３丁目３２番５号,,13,122,1250062,,,,,,,2025-12-26,1,,,,,ジュゲム,0
71,1013301055504,新規,0,2025-12-26,2025-12-26,株式会社東龍,,株式会社,東京都,豊島区,西池袋１丁目１８－１０ミラノビル３階,,13,116,1710021,,,,,,,2025-12-26,1,,,,,トウリュウ,0
72,1013301055512,新規,0,2025-12-26,2025-12-26,株式会社ＯｓｈｉＲ０,,株式会社,東京都,豊島区,西池袋５丁目１８－１１,,13,116,1710021,,,,,,,2025-12-26,1,,,,,オシロ,0
73,1013301055520,新規,0,2025-12-26,2025-12-26,伊田株式会社,,株式会社,東京都,豊島区,池袋本町１丁目４５番１９号スマイル池袋３０２,,13,116,1700011,,,,,,,2025-12-26,1,,,,,イタ,0
75,1013303008022,新規,0,2025-12-26,2025-12-26,関原グローバルコマース合同会社,,合同会社,東京都,豊島区,北大塚３丁目２７－９マンションパーク宮仲１階Ｃ店舗,,13,116,1700004,,,,,,,2025-12-26,1,,,,,セキハラグローバルコマース,0
81,1020001166457,新規,0,2025-12-26,2025-12-26,株式会社Ｒｅ　Ｈｕｎｔｅｄ,,株式会社,神奈川県,横浜市青葉区,つつじが丘１０番地２０,,14,117,2270055,,,,,,,2025-12-26,1,,,,,リハンテッド,0
87,1021001087148,新規,0,2025-12-26,2025-12-26,株式会社ＳＵＩＴＥ,,株式会社,神奈川県,藤沢市,辻堂新町３丁目１０番１号,,14,205,2510042,,,,,,,2025-12-26,1,,,,,スイート,0
91,1021003016955,新規,0,2025-12-26,2025-12-26,シエラ合同会社,,合同会社,神奈川県,足柄下郡湯河原町,吉浜１８４８番地の４４,,14,384,2590312,,,,,,,2025-12-26,1,,,,,シエラ,0
93,1030001170326,新規,0,2025-12-26,2025-12-26,株式会社Ｒａｃｅｒ　Ｐｒｉｍｅ　Ｍｏｂｉｌｉｔｙ,,株式会社,埼玉県,桶川市,大字坂田１６３３番地１,,11,231,3630008,,,,,,,2025-12-26,1,,,,,レーサープライムモビリティー,0
94,1030001170334,新規,0,2025-12-26,2025-12-26,株式会社バースオブヴィーナス,,株式会社,埼玉県,ふじみ野市,市沢１丁目６番２２号,,11,245,3560057,,,,,,,2025-12-26,1,,,,,バースオブヴィーナス,0
98,1040001141961,新規,0,2025-12-26,2025-12-26,萬泰株式会社,,株式会社,千葉県,千葉市若葉区,大宮台３丁目２０－５－１,,12,104,2640015,,,,,,,2025-12-26,1,,,,,バンダイ,0
101,1040003029197,新規,0,2025-12-26,2025-12-26,合同会社ＡＳＡ八街中央,,合同会社,千葉県,八街市,八街ろ１７４番１６,,12,230,2891144,,,,,,,2025-12-26,1,,,,,アサヤチマタチュウオウ,0
102,1040003029222,新規,0,2025-12-26,2025-12-26,合同会社五大丸,,合同会社,千葉県,柏市,つくしが丘４丁目２番９号,,12,217,2770072,,,,,,,2025-12-26,1,,,,,ゴダイマル,0
105,1050001057793,新規,0,2025-12-26,2025-12-26,株式会社マネジメントパートナーズ,,株式会社,茨城県,つくば市,学園の森１丁目５番地２,,08,220,3050816,,,,,,,2025-12-26,1,,,,,マネジメントパートナーズ,0
108,1080005007750,新規,0,2025-12-26,2025-12-26,一般社団法人日本ペット回復マッサージ美容協会,,その他の設立登記法人,静岡県,藤枝市,小石川町４丁目１８番２８号,,22,214,4260033,,,,,,,2025-12-26,1,,,,,ニホンペットカイフクマッサージビヨウキョウカイ,0
110,1080101025978,新規,0,2025-12-26,2025-12-26,ＢＥＭＯＶＥ株式会社,,株式会社,静岡県,御殿場市,二の岡１丁目１番２２号アザレア１０３,,22,215,4120025,,,,,,,2025-12-26,1,,,,,ビームーブ,0
111,1080101025986,新規,0,2025-12-26,2025-12-26,株式会社ＪＡＳＴＲＩＺＥ,,株式会社,静岡県,御殿場市,川島田１５７番地の３,,22,215,4120045,,,,,,,2025-12-26,1,,,,,ジャストライズ,0
116,1100001039217,新規,0,2025-12-26,2025-12-26,株式会社ハラダカーサービス,,株式会社,長野県,茅野市,玉川２５６８番地１,,20,214,3910011,,,,,,,2025-12-26,1,,,,,ハラダカーサービス,0
119,1100003008533,新規,0,2025-12-26,2025-12-26,合同会社寺嶋自動車修理工場,,合同会社,長野県,小諸市,大字塩野１８９７番地１,,20,208,3840806,,,,,,,2025-12-26,1,,,,,テラシマジドウシャシュウリコウジョウ,0
132,1120001282995,新規,0,2025-12-26,2025-12-26,ＲＬＳ　Ｊａｐａｎ株式会社,,株式会社,大阪府,大阪市浪速区,難波中２丁目１０番７０号なんばパークスタワー１９階,,27,111,5560011,,,,,,,2025-12-26,1,,,,,アールエルエスジャパン,0
133,1120001283085,新規,0,2025-12-26,2025-12-26,津山産業医事務所株式会社,,株式会社,大阪府,大阪市北区,梅田１丁目２番２号大阪駅前第２ビル１２‐１２,,27,127,5300001,,,,,,,2025-12-26,1,,,,,ツヤマサンギョウイジムショ,0
136,1120003031558,新規,0,2025-12-26,2025-12-26,合同会社タナベ,,合同会社,大阪府,大阪市北区,中崎２丁目１番１５号,,27,127,5300016,,,,,,,2025-12-26,1,,,,,タナベ,0
156,1140001141209,新規,0,2025-12-26,2025-12-26,株式会社ＮＫＭ,,株式会社,兵庫県,神戸市垂水区,南多聞台４丁目５番１１号,,28,108,6550043,,,,,,,2025-12-26,1,,,,,エヌケーエム,0
157,1140001141217,新規,0,2025-12-26,2025-12-26,株式会社ＡＰＥＲＩＯ,,株式会社,兵庫県,神戸市西区,竜が岡１丁目１７番地の２,,28,111,6512412,,,,,,,2025-12-26,1,,,,,アペリオ,0
158,1140001141241,新規,0,2025-12-26,2025-12-26,株式会社Ｅａｔｂａａｒ　Ｌａｎｄ,,株式会社,兵庫県,神戸市西区,神出町小束野９番地の６１,,28,111,6512304,,,,,,,2025-12-26,1,,,,,エートバールランド,0
165,1170001018924,新規,0,2025-12-26,2025-12-26,株式会社龍神観光,,株式会社,和歌山県,田辺市,下屋敷町１２番地,,30,206,6460032,,,,,,,2025-12-26,1,,,,,リュウジンカンコウ,0
169,1180001170071,新規,0,2025-12-26,2025-12-26,株式会社Ｂ‐ＴＲＵＳＴ,,株式会社,愛知県,名古屋市南区,中割町２丁目３２番地の２,,23,112,4570826,,,,,,,2025-12-26,1,,,,,ビートラスト,0
176,1190001032782,新規,0,2025-12-26,2025-12-26,株式会社ＶＵＬＴＥＣＨ,,株式会社,三重県,四日市市,追分２丁目４番２０－３号,,24,202,5100882,,,,,,,2025-12-26,1,,,,,バルテック,0
177,1220003004198,新規,0,2025-12-26,2025-12-26,Ｄｉｇｉｔａｌ　Ｃａｐａｂｉｌｉｔｉｅｓ合同会社,,合同会社,石川県,小松市,浜田町ロ２１１,,17,203,9230907,,,,,,,2025-12-26,1,,,,,,0
178,1240001065959,新規,0,2025-12-26,2025-12-26,広島菱商サービス株式会社,,株式会社,広島県,豊田郡大崎上島町,中野４８０５番地,,34,431,7250301,,,,,,,2025-12-26,1,,,,,ヒロシマリョウショウサービス,0
179,1240001065975,新規,0,2025-12-26,2025-12-26,株式会社オフィス角,,株式会社,広島県,安芸郡海田町,寺迫２丁目１２番１１－３号,,34,304,7360011,,,,,,,2025-12-26,1,,,,,オフィススミ,0
184,1260001040844,新規,0,2025-12-26,2025-12-26,木乃崎屋ホールディングス株式会社,,株式会社,岡山県,津山市,川崎４２４番地,,33,203,7080841,,,,,,,2025-12-26,1,,,,,キノサキヤホールディングス,0
192,1290005019948,新規,0,2025-12-26,2025-12-26,医療法人アルシオン,,その他の設立登記法人,福岡県,福岡市東区,馬出２丁目４番２２号,,40,131,8120054,,,,,,,2025-12-26,1,,,,,アルシオン,0
195,1310003005154,新規,0,2025-12-26,2025-12-26,合同会社ＨＯＰＥ,,合同会社,長崎県,諫早市,小船越町７０５番地６,,42,204,8540062,,,,,,,2025-12-26,1,,,,,ホープ,0
204,1360001036196,新規,0,2025-12-26,2025-12-26,株式会社ｋａｙａｎｏｈａ不動産,,株式会社,沖縄県,南城市,玉城字喜良原３９０,,47,215,9010607,,,,,,,2025-12-26,1,,,,,カヤノハフドウサン,0
205,1360003015487,新規,0,2025-12-26,2025-12-26,ＯＮＥＳＨＯＲＥ合同会社,,合同会社,沖縄県,名護市,字宇茂佐１６０１－４０６,,47,209,9050006,,,,,,,2025-12-26,1,,,,,ワンショア,0
212,1410003004187,新規,0,2025-12-26,2025-12-26,ＭＴ合同会社,,合同会社,秋田県,秋田市,東通仲町４番１号秋田拠点センターアルヴェ１４－１０,,05,201,0100002,,,,,,,2025-12-26,1,,,,,エムテイ,0
215,1430003018458,新規,0,2025-12-26,2025-12-26,ＹＧ　ＩＮＴＥＲＮＡＴＩＯＮＡＬ合同会社,,合同会社,北海道,札幌市中央区,南十二条西９丁目３－３３－２０１号,,01,101,0640912,,,,,,,2025-12-26,1,,,,,ワイジーインターナショナル,0
228,2010003049651,新規,0,2025-12-26,2025-12-26,ステラマリス合同会社,,合同会社,東京都,千代田区,神田神保町３丁目１１番６号神保町ビル１０階,,13,101,1010051,,,,,,,2025-12-26,1,,,,,ステラマリス,0
232,2010005041152,新規,0,2025-12-26,2025-12-26,一般社団法人河口湖ホテルプロジェクト,,その他の設立登記法人,東京都,千代田区,霞が関３丁目２番５号,,13,101,1000013,,,,,,,2025-12-26,1,,,,,カワグチコホテルプロジェクト,0
233,2010101017031,新規,0,2025-12-26,2025-12-26,ＬＯＶＥ　Ｒｉｖｅｒ株式会社,,株式会社,東京都,八王子市,打越町２００１番地９北野レインボービル５０２号,,13,201,1920911,,,,,,,2025-12-26,1,,,,,ラブリバー,0
237,2010401194917,新規,0,2025-12-26,2025-12-26,株式会社ＢＡキャピタル,,株式会社,東京都,港区,六本木１丁目４番５号アークヒルズサウスタワー,,13,103,1060032,,,,,,,2025-12-26,1,,,,,ビーエーキャピタル,0
238,2010401195386,新規,0,2025-12-26,2025-12-26,株式会社ＵＰ　Ｆｏｒｗａｒｄ,,株式会社,東京都,港区,港南２丁目１６－４品川グランドセントラルタワー８階,,13,103,1080075,,,,,,,2025-12-26,1,,,,,アップフォワード,0
239,2010401195460,新規,0,2025-12-26,2025-12-26,ＡＳＡＷＥＬＬ株式会社,,株式会社,東京都,港区,北青山１丁目４－１－６１４,,13,103,1070061,,,,,,,2025-12-26,1,,,,,アサウェル,0
241,2010403036877,新規,0,2025-12-26,2025-12-26,合同会社ＡＩＧＥＮ,,合同会社,東京都,港区,南青山３丁目１番３６号青山丸竹ビル６Ｆ,,13,103,1070062,,,,,,,2025-12-26,1,,,,,アイジェン,0
242,2010403036927,新規,0,2025-12-26,2025-12-26,尾道パワー合同会社,,合同会社,東京都,港区,新橋３丁目９番１０号天翔新橋ビル７０１号室,,13,103,1050004,,,,,,,2025-12-26,1,,,,,オノミチパワー,0
243,2010405025110,新規,0,2025-12-26,2025-12-26,ジー・エイ・ワン・レジデンス・フォーティーン一般社団法人,,その他の設立登記法人,東京都,港区,虎ノ門５丁目１番４号,,13,103,1050001,,,,,,,2025-12-26,1,,,,,ジーエイワンレジデンスフォーティーン,0
246,2010603011993,新規,0,2025-12-26,2025-12-26,Ｕ　Ｒｅａｌ　Ｅｓｔａｔｅ合同会社,,合同会社,東京都,江東区,越中島２丁目１番３２－７０４号,,13,108,1350044,,,,,,,2025-12-26,1,,,,,ユーリアルエステート,0
251,2010701048830,新規,0,2025-12-26,2025-12-26,ＧＲＯＵＮＤ　ＷＯＲＫ株式会社,,株式会社,東京都,品川区,南大井２丁目１２番５－８０９号,,13,109,1400013,,,,,,,2025-12-26,1,,,,,グラウンドワーク,0
258,2011001174458,新規,0,2025-12-26,2025-12-26,愛印科技株式会社,,株式会社,東京都,渋谷区,富ヶ谷１丁目１４番１４号３Ｆ・４Ｆ,,13,113,1510063,,,,,,,2025-12-26,1,,,,,アイインカギ,0
265,2011101114487,新規,0,2025-12-26,2025-12-26,株式会社ＰｏｒｔＢｒｉｄｇｅ,,株式会社,東京都,新宿区,西新宿３丁目３番１３号西新宿水間ビル６階,,13,104,1600023,,,,,,,2025-12-26,1,,,,,ポートブリッジ,0
266,2011103016905,新規,0,2025-12-26,2025-12-26,エンリッチ合同会社,,合同会社,東京都,新宿区,西新宿３丁目９－７フロンティア新宿タワー２３０７,,13,104,1600023,,,,,,,2025-12-26,1,,,,,エンリッチ,0
276,2012301014650,新規,0,2025-12-26,2025-12-26,株式会社ＢＩＯＴＯＰ,,株式会社,東京都,町田市,南町田４丁目２０番１３号,,13,209,1940005,,,,,,,2025-12-26,1,,,,,ビオトープ,0
277,2012303002265,新規,0,2025-12-26,2025-12-26,合同会社エムジェクト,,合同会社,東京都,町田市,野津田町１４７５番地８,,13,209,1950063,,,,,,,2025-12-26,1,,,,,エムジェクト,0
283,2012703003433,新規,0,2025-12-26,2025-12-26,合同会社Ｈｉｎｏｒｏ　Ｉｎｔｅｒｎａｔｉｏｎａｌ,,合同会社,東京都,小平市,学園東町１丁目７番３７－４０２号春山方,,13,211,1870043,,,,,,,2025-12-26,1,,,,,ヒノロインターナショナル,0
284,2013303008021,新規,0,2025-12-26,2025-12-26,合同会社Ｍａｇｉ,,合同会社,東京都,豊島区,東池袋２丁目６２番８号ＢＩＧオフィスプラザ池袋１２０６,,13,116,1700013,,,,,,,2025-12-26,1,,,,,マギ,0
292,2021001087139,新規,0,2025-12-26,2025-12-26,株式会社Ｓｔｒａｔｅｇｙ　ｄｅｐｔ,,株式会社,神奈川県,茅ヶ崎市,東海岸南４丁目２番６－１２８号ヴェレーナグラン茅ヶ崎東海岸,,14,207,2530054,,,,,,,2025-12-26,1,,,,,ストラテジーデプト,0
296,2021003016946,新規,0,2025-12-26,2025-12-26,合同会社杏’ｓコンパニオン,,合同会社,神奈川県,足柄下郡湯河原町,宮上１３６番地３シャリエ湯河原宮上２０１,,14,384,2590314,,,,,,,2025-12-26,1,,,,,アンズコンパニオン,0
297,2021003016979,新規,0,2025-12-26,2025-12-26,ＡＮＹ合同会社,,合同会社,神奈川県,秦野市,名古木１１３番地の１３,,14,211,2570024,,,,,,,2025-12-26,1,,,,,エニイ,0
302,2030001170036,新規,0,2025-12-26,2025-12-26,株式会社ハートステージ,,株式会社,埼玉県,所沢市,中富南２丁目１６番地の１０,,11,208,3590003,,,,,,,2025-12-26,1,,,,,ハートステージ,0
303,2030001170317,新規,0,2025-12-26,2025-12-26,株式会社プロセシア,,株式会社,埼玉県,さいたま市大宮区,天沼町１丁目４５９番地１グランドメゾン大宮２０２号室,,11,103,3300834,,,,,,,2025-12-26,1,,,,,プロセシア,0
304,2030001170333,新規,0,2025-12-26,2025-12-26,株式会社ヤマチュウ,,株式会社,埼玉県,狭山市,大字南入曽８６４番地２３,,11,215,3501316,,,,,,,2025-12-26,1,,,,,ヤマチュウ,0
305,2030001170382,新規,0,2025-12-26,2025-12-26,ＳｋｙＤＣ株式会社,,株式会社,埼玉県,北葛飾郡杉戸町,大字本郷４９１－２,,11,464,3450023,,,,,,,2025-12-26,1,,,,,スカイディーシー,0
309,2040001141928,新規,0,2025-12-26,2025-12-26,リピートプラス株式会社,,株式会社,千葉県,香取市,新市場７０番地,,12,236,2870016,,,,,,,2025-12-26,1,,,,,リピートプラス,0
310,2040001141960,新規,0,2025-12-26,2025-12-26,山本鋼業株式会社,,株式会社,千葉県,野田市,蕃昌２５２－６７,,12,208,2780041,,,,,,,2025-12-26,1,,,,,ヤマモトコウギョウ,0
312,2040003029213,新規,0,2025-12-26,2025-12-26,合同会社ノイエクラッセ,,合同会社,千葉県,市川市,八幡２丁目５番２号二葉屋ビル１階,,12,203,2720021,,,,,,,2025-12-26,1,,,,,ノイエクラッセ,0
313,2040003029221,新規,0,2025-12-26,2025-12-26,合同会社ひまわり,,合同会社,千葉県,山武郡横芝光町,尾垂イ１７１２番地,,12,410,2891725,,,,,,,2025-12-26,1,,,,,ヒマワリ,0
336,2100001039216,新規,0,2025-12-26,2025-12-26,マサオキベーカリー株式会社,,株式会社,長野県,小県郡青木村,大字奈良本３８０番地５,,20,349,3861607,,,,,,,2025-12-26,1,,,,,マサオキベーカリー,0
348,2120001283043,新規,0,2025-12-26,2025-12-26,株式会社ミラス,,株式会社,大阪府,大阪市港区,弁天４丁目５番１１－５０８号,,27,107,5520007,,,,,,,2025-12-26,1,,,,,ミラス,0
349,2120001283051,新規,0,2025-12-26,2025-12-26,インスティンクトホームズ株式会社,,株式会社,大阪府,大阪市北区,大淀南２丁目２番４３－１００３号,,27,127,5310075,,,,,,,2025-12-26,1,,,,,インスティンクトホームズ,0
350,2120001283076,新規,0,2025-12-26,2025-12-26,株式会社Ｅａｓｔ　Ｓｉｄｅレコード,,株式会社,大阪府,大阪市浪速区,日本橋西１丁目５－５ミズホビル７階,,27,111,5560004,,,,,,,2025-12-26,1,,,,,イーストサイドレコード,0
357,2120101072998,新規,0,2025-12-26,2025-12-26,株式会社サイエンスビルド,,株式会社,大阪府,岸和田市,岸の丘町２丁目２番１５号,,27,202,5960817,,,,,,,2025-12-26,1,,,,,サイエンスビルド,0
359,2120901052035,新規,0,2025-12-26,2025-12-26,株式会社ＨＩ,,株式会社,大阪府,豊中市,刀根山４丁目３番２５‐４０２号,,27,203,5600045,,,,,,,2025-12-26,1,,,,,ハイ,0
363,2130005017545,新規,0,2025-12-26,2025-12-26,一般社団法人Ｌｅａｒｎｉｎｇ　Ｂｒｉｄｇｅ,,その他の設立登記法人,京都府,京都市下京区,七条通油小路東入大黒町２２７番地第２キョートビル４０２,,26,106,6008223,,,,,,,2025-12-26,1,,,,,ラーニングブリッジ,0
369,2160001027314,新規,0,2025-12-26,2025-12-26,株式会社フォックセンス,,株式会社,滋賀県,高島市,今津町今津１６１２番地６－１００,,25,212,5201621,,,,,,,2025-12-26,1,,,,,フォックセンス,0
384,2180001170070,新規,0,2025-12-26,2025-12-26,株式会社ｆｅａｔｈｅｒ,,株式会社,愛知県,名古屋市東区,矢田南１丁目２番１１号メイツナゴヤドームＷＥＳＴ１０４号,,23,102,4610048,,,,,,,2025-12-26,1,,,,,フェザー,0
391,2180003029546,新規,0,2025-12-26,2025-12-26,合同会社ＰＩＴ,,合同会社,愛知県,名古屋市中区,錦３丁目３番１９号ＪＰ錦ビル３階,,23,106,4600003,,,,,,,2025-12-26,1,,,,,ピット,0
392,2180005021360,新規,0,2025-12-26,2025-12-26,医療法人セレアヴィアリー,,その他の設立登記法人,愛知県,尾張旭市,大久手町一の曽４８番,,23,226,4880004,,,,,,,2025-12-26,1,,,,,セレアヴィアリー,0
394,2180301040551,新規,0,2025-12-26,2025-12-26,株式会社ＲｅｉＮｅ,,株式会社,愛知県,豊橋市,大清水町字大清水５５４番地の２,,23,201,4418133,,,,,,,2025-12-26,1,,,,,レーヌ,0
402,2240001065974,新規,0,2025-12-26,2025-12-26,株式会社安芸グローバル,,株式会社,広島県,広島市安佐北区,口田３丁目４３番２５号,,34,106,7391734,,,,,,,2025-12-26,1,,,,,アキグローバル,0
407,2250003003873,新規,0,2025-12-26,2025-12-26,合同会社龍丸,,合同会社,山口県,山口市,吉敷下東２丁目６番５号リアライズＶ１０４号室,,35,203,7530814,,,,,,,2025-12-26,1,,,,,リュウマル,0
410,2260003005464,新規,0,2025-12-26,2025-12-26,ＢｌｕｗａｒｋＸ合同会社,,合同会社,岡山県,岡山市北区,津島中３丁目１共創イノベーションラボ,,33,101,7000082,,,,,,,2025-12-26,1,,,,,ブルワークス,0
425,2320003004864,新規,0,2025-12-26,2025-12-26,合同会社ＥＶＡＮ,,合同会社,大分県,大分市,三ケ田町１丁目６番１号,,44,201,8700888,,,,,,,2025-12-26,1,,,,,エヴァン,0
436,2370001053355,新規,0,2025-12-26,2025-12-26,トレーダーボウズ株式会社,,株式会社,宮城県,仙台市太白区,秋保町長袋字上原２番地の２,,04,104,9820243,,,,,,,2025-12-26,1,,,,,トレーダーボウズ,0
452,2430001095944,新規,0,2025-12-26,2025-12-26,株式会社Ｐｅｎｔａｇｒａｍ,,株式会社,北海道,札幌市南区,澄川四条３丁目４番２０号シャトー澄川１階,,01,106,0050004,,,,,,,2025-12-26,1,,,,,ペンタグラム,0
453,2430003018449,新規,0,2025-12-26,2025-12-26,大学発ヘルスケアＤＸ共創ラボ合同会社,,合同会社,北海道,石狩郡当別町,字金沢１７５７,,01,303,0610212,,,,,,,2025-12-26,1,,,,,ダイガクハツヘルスケアディーエックスキョウソウラボ,0
458,2470003003042,新規,0,2025-12-26,2025-12-26,ＴＴＴｈインベストメント合同会社,,合同会社,香川県,高松市,藤塚町３丁目５番３号,,37,201,7600071,,,,,,,2025-12-26,1,,,,,ティーティーティーエイチインベストメント,0
462,2700150039773,新規,0,2025-12-26,2015-10-09,千歳平自治会,,その他,青森県,上北郡六ヶ所村,大字倉内字笹崎３３１,,02,411,0393215,,,,,,,2015-10-09,1,,,,,チトセタイジチカイ,0
463,2700150133808,新規,0,2025-12-26,2025-12-26,ミツトヨ健康保険組合,,その他,神奈川県,川崎市高津区,坂戸１丁目２０番１号,,14,134,2130012,,,,,,,2025-12-26,1,,,,,ミツトヨケンコウホケンクミアイ,0
471,3010001261141,新規,0,2025-12-26,2025-12-26,株式会社白河,,株式会社,東京都,中央区,勝どき４丁目６－１パークタワー勝どきサウス６１２,,13,102,1040054,,,,,,,2025-12-26,1,,,,,シラカワ,0
472,3010001261513,新規,0,2025-12-26,2025-12-26,プライム・アドバイザリー株式会社,,株式会社,東京都,中央区,日本橋室町１丁目１１番１２号日本橋水野ビル７階,,13,102,1030022,,,,,,,2025-12-26,1,,,,,プライムアドバイザリー,0
473,3010003049808,新規,0,2025-12-26,2025-12-26,ＣＨＡＬＮＩＡ合同会社,,合同会社,東京都,中央区,銀座１丁目１２－４Ｎ＆ＥＢＬＤ．７階,,13,102,1040061,,,,,,,2025-12-26,1,,,,,シャルニア,0
475,3010005041143,新規,0,2025-12-26,2025-12-26,一般社団法人アントラー,,その他の設立登記法人,東京都,千代田区,丸の内１丁目４番１号東京共同会計事務所内,,13,101,1000005,,,,,,,2025-12-26,1,,,,,アントラー,0
482,3010401194800,新規,0,2025-12-26,2025-12-26,株式会社ＩＫＩＺＥＮＦＲＥＥ,,株式会社,東京都,港区,南青山３丁目１番３６号青山丸竹ビル６Ｆ,,13,103,1070062,,,,,,,2025-12-26,1,,,,,イキゼンフリー,0
483,3010401195419,新規,0,2025-12-26,2025-12-26,株式会社ＫＡＮＯＡ,,株式会社,東京都,港区,赤坂５丁目４－１４ベルテンポ赤坂７０２,,13,103,1070052,,,,,,,2025-12-26,1,,,,,カノア,0
484,3010401195427,新規,0,2025-12-26,2025-12-26,マインドシフトシステムズ株式会社,,株式会社,東京都,港区,港南２丁目１６番１号４階,,13,103,1080075,,,,,,,2025-12-26,1,,,,,マインドシフトシステムズ,0
485,3010403036884,新規,0,2025-12-26,2025-12-26,リズムデザイン合同会社,,合同会社,東京都,港区,浜松町２丁目２番１５号浜松町ダイヤビル２Ｆ,,13,103,1050013,,,,,,,2025-12-26,1,,,,,リズムデザイン,0
486,3010403036926,新規,0,2025-12-26,2025-12-26,坪沼パワー合同会社,,合同会社,東京都,港区,新橋３丁目９番１０号天翔新橋ビル７０１号室,,13,103,1050004,,,,,,,2025-12-26,1,,,,,ツボヌマパワー,0
491,3010501055225,新規,0,2025-12-26,2025-12-26,株式会社ＧＤ　ＪＡＰＡＮ,,株式会社,東京都,台東区,上野７丁目３番９号,,13,106,1100005,,,,,,,2025-12-26,1,,,,,ジーディージャパン,0
496,3010901058703,新規,0,2025-12-26,2025-12-26,株式会社タモッティ,,株式会社,東京都,世田谷区,上野毛３丁目１－３第１０大協ビル２０１,,13,112,1580093,,,,,,,2025-12-26,1,,,,,タモッティ,0
497,3010901058711,新規,0,2025-12-26,2025-12-26,Ｎｅｘｔ　Ｓｅｅｄ株式会社,,株式会社,東京都,世田谷区,奥沢５丁目１番１１号メゾンドジョワ２０２,,13,112,1580083,,,,,,,2025-12-26,1,,,,,ネクストシード,0
507,3011001174589,新規,0,2025-12-26,2025-12-26,株式会社Ｂａｋｕ　Ｓａｙａｎｇ　Ｊａｐａｎ,,株式会社,東京都,渋谷区,道玄坂１丁目１０番８号渋谷道玄坂東急ビル２Ｆ－Ｃ,,13,113,1500043,,,,,,,2025-12-26,1,,,,,バクサヤンジャパン,0
508,3011001174655,新規,0,2025-12-26,2025-12-26,ＬＵＸＥ　ＴＩＭＥ株式会社,,株式会社,東京都,渋谷区,恵比寿２丁目６―５―３０２,,13,113,1500013,,,,,,,2025-12-26,1,,,,,リュクスタイム,0
511,3011003023190,新規,0,2025-12-26,2025-12-26,Ｇａｏｍｕ　Ｔａｉｗａｎ‐Ｌｉｎｋ合同会社,,合同会社,東京都,目黒区,上目黒３丁目６番５号,,13,110,1530051,,,,,,,2025-12-26,1,,,,,ガオムータイワンリンク,0
512,3011003023224,新規,0,2025-12-26,2025-12-26,合同会社５０４０,,合同会社,東京都,渋谷区,神南１丁目１１－４ＦＰＧリンクス神南５階,,13,113,1500041,,,,,,,2025-12-26,1,,,,,フィフティーフォーティー,0
513,3011003023240,新規,0,2025-12-26,2025-12-26,合同会社トゥーエス,,合同会社,東京都,渋谷区,道玄坂１丁目１０番８号渋谷道玄坂東急ビル２階,,13,113,1500043,,,,,,,2025-12-26,1,,,,,トゥーエス,0
525,3012301014658,新規,0,2025-12-26,2025-12-26,株式会社ｒａｐｐｏｒｔｉ,,株式会社,東京都,町田市,南町田１丁目２５番１８号グリーンイーストタウンＢ１０４,,13,209,1940005,,,,,,,2025-12-26,1,,,,,ラッポルティー,0
528,3012701019249,新規,0,2025-12-26,2025-12-26,株式会社ＫＡＮＯＡ,,株式会社,東京都,東久留米市,下里２丁目８－９,,13,222,2030043,,,,,,,2025-12-26,1,,,,,カノア,0
530,3012801024438,新規,0,2025-12-26,2025-12-26,株式会社ＺＵＭＩＸ,,株式会社,東京都,昭島市,大神町４丁目２６番１２号,,13,207,1960013,,,,,,,2025-12-26,1,,,,,ズミックス,0
532,3013101009897,新規,0,2025-12-26,2025-12-26,株式会社Ａｓｃｅｎｄ　Ｌｏｇｉｃ,,株式会社,東京都,青梅市,師岡町１丁目１２５－１４,,13,205,1980031,,,,,,,2025-12-26,1,,,,,アセンドロジック,0
539,3020001166471,新規,0,2025-12-26,2025-12-26,Ｔカンパニー株式会社,,株式会社,神奈川県,川崎市多摩区,菅仙谷３丁目１番地１２号棟２０２号室,,14,135,2140006,,,,,,,2025-12-26,1,,,,,ティーカンパニー,0
543,3020003030064,新規,0,2025-12-26,2025-12-26,Ｆｏｒａｇｅｒ　Ｌａｂ合同会社,,合同会社,神奈川県,横浜市西区,北幸２丁目１０番４８号　むつみビル３階,,14,103,2200004,,,,,,,2025-12-26,1,,,,,フォレジャーラボ,0
547,3021001087138,新規,0,2025-12-26,2025-12-26,株式会社Ｍ．Ｗ．,,株式会社,神奈川県,藤沢市,本鵠沼３丁目１３番１４号,,14,205,2510028,,,,,,,2025-12-26,1,,,,,エムダブリュー,0
548,3021001087146,新規,0,2025-12-26,2025-12-26,株式会社丸一,,株式会社,神奈川県,平塚市,河内１丁目２６番２５号,,14,203,2540903,,,,,,,2025-12-26,1,,,,,マルイチ,0
553,3021003016953,新規,0,2025-12-26,2025-12-26,合同会社ＡＺＵＲＥ　ＣＯＭＰＡＳＳ,,合同会社,神奈川県,逗子市,久木２丁目４番２７号,,14,208,2490001,,,,,,,2025-12-26,1,,,,,アジュールコンパス,0
573,3050001057800,新規,0,2025-12-26,2025-12-26,株式会社石津,,株式会社,茨城県,神栖市,知手中央１丁目９番４３号１棟,,08,232,3140112,,,,,,,2025-12-26,1,,,,,,0
582,3080401028349,新規,0,2025-12-26,2025-12-26,株式会社ワイズマーク,,株式会社,静岡県,浜松市中央区,北寺島町２０２番地の８カーサミラ日神パレステージ浜松第２・２０２,,22,138,4300923,,,,,,,2025-12-26,1,,,,,ワイズマーク,0
592,3110003006014,新規,0,2025-12-26,2025-12-26,合同会社２ｒｅｅ,,合同会社,新潟県,新潟市西区,青山２丁目１３番５号,,15,107,9502002,,,,,,,2025-12-26,1,,,,,ツリー,0
602,3120001282969,新規,0,2025-12-26,2025-12-26,株式会社レイアーク,,株式会社,大阪府,大阪市中央区,南本町１丁目３－２３ロイヤルビル３０１室,,27,128,5410054,,,,,,,2025-12-26,1,,,,,レイアーク,0
603,3120001282985,新規,0,2025-12-26,2025-12-26,株式会社小島メディカル,,株式会社,大阪府,大阪市城東区,諏訪４丁目３番１５号シャーメゾングランデ深江橋３０３号,,27,118,5360021,,,,,,,2025-12-26,1,,,,,コジマメディカル,0
604,3120001282993,新規,0,2025-12-26,2025-12-26,あおコンサルティング株式会社,,株式会社,大阪府,大阪市中央区,南本町４丁目５番７,,27,128,5410054,,,,,,,2025-12-26,1,,,,,アオコンサルティング,0
605,3120001283018,新規,0,2025-12-26,2025-12-26,ＡＭＩＯ株式会社,,株式会社,大阪府,大阪市港区,築港３丁目５番５号,,27,107,5520021,,,,,,,2025-12-26,1,,,,,アミオ,0
610,3120003031589,新規,0,2025-12-26,2025-12-26,トライトジャパン合同会社,,合同会社,大阪府,大阪市淀川区,十三東２丁目１２番４１号,,27,123,5320023,,,,,,,2025-12-26,1,,,,,トライトジャパン,0
616,3120101072989,新規,0,2025-12-26,2025-12-26,株式会社いちじく,,株式会社,大阪府,富田林市,川面町１丁目４番４６号,,27,214,5840014,,,,,,,2025-12-26,1,,,,,イチジク,0
617,3120103006912,新規,0,2025-12-26,2025-12-26,合同会社ＴＹＳＯＮ　ＥＸＰＲＥＳＳ,,合同会社,大阪府,貝塚市,海塚３丁目１７番８号,,27,208,5970083,,,,,,,2025-12-26,1,,,,,タイソンエクスプレス,0
619,3120105010094,新規,0,2025-12-26,2025-12-26,ＮＰＯ法人まなびパレット,,その他の設立登記法人,大阪府,堺市西区,浜寺石津町東４丁６番７号,,27,144,5928335,,,,,,,2025-12-26,1,,,,,マナビパレット,0
623,3130001081271,新規,0,2025-12-26,2025-12-26,株式会社デュース,,株式会社,京都府,京都市中京区,高倉通夷川上る福屋町７１８番地吉原ビル２階,,26,104,6040882,,,,,,,2025-12-26,1,,,,,デュース,0
626,3130005017544,新規,0,2025-12-26,2025-12-26,一般財団法人桑梓会,,その他の設立登記法人,京都府,京都市東山区,高台寺北門前通下河原東入鷲尾町５１２番地,,26,105,6050072,,,,,,,2025-12-26,1,,,,,ソウシカイ,0
633,3140001141198,新規,0,2025-12-26,2025-12-26,株式会社兵庫ビジネスサポート,,株式会社,兵庫県,加東市,牧野８５５番地,,28,228,6731474,,,,,,,2025-12-26,1,,,,,ビジネスサポート,0
636,3160001027321,新規,0,2025-12-26,2025-12-26,リタウエスト株式会社,,株式会社,滋賀県,大津市,日吉台３丁目３２番１６号,,25,201,5200112,,,,,,,2025-12-26,1,,,,,リタウエスト,0
643,3180001170037,新規,0,2025-12-26,2025-12-26,株式会社ＳｕｎＬｅａｆ１０９３,,株式会社,愛知県,愛知郡東郷町,御岳２丁目１８番地１３,,23,302,4700156,,,,,,,2025-12-26,1,,,,,サンリーフイチゼロキューサン,0
644,3180001170053,新規,0,2025-12-26,2025-12-26,株式会社ＡＳＫ,,株式会社,愛知県,小牧市,東２丁目３８２番地３,,23,219,4850831,,,,,,,2025-12-26,1,,,,,エーエスケー,0
647,3180003029520,新規,0,2025-12-26,2025-12-26,合同会社ＲＡＮＡ　ＴＲＡＤＥＲＳ,,合同会社,愛知県,岩倉市,下本町燈明庵１５９－１マンション千代１０８,,23,228,4820005,,,,,,,2025-12-26,1,,,,,ラナトレーダ,0
653,3180303006855,新規,0,2025-12-26,2025-12-26,ＨＹアセットマネジメント合同会社,,合同会社,愛知県,安城市,小堤町５番８号,,23,212,4460036,,,,,,,2025-12-26,1,,,,,エイチワイアセットマネジメント,0
654,3190005012102,新規,0,2025-12-26,2025-12-26,一般社団法人三木里こうし隊,,その他の設立登記法人,三重県,尾鷲市,三木里町４５１番地,,24,209,5193811,,,,,,,2025-12-26,1,,,,,ミキサトコウシタイ,0
656,3210001020436,新規,0,2025-12-26,2025-12-26,株式会社歓喜,,株式会社,福井県,福井市,光陽１丁目８番２５号,,18,201,9100026,,,,,,,2025-12-26,1,,,,,カンキ,0
658,3210003001987,新規,0,2025-12-26,2025-12-26,合同会社熊谷農園,,合同会社,福井県,三方上中郡若狭町,田井第１１５号９番地の８,,18,501,9191462,,,,,,,2025-12-26,1,,,,,クマガイノウエン,0
670,3280003002021,新規,0,2025-12-26,2025-12-26,合同会社ＡＬＩＶＥ,,合同会社,島根県,江津市,桜江町小田１００‐７,,32,207,6994225,,,,,,,2025-12-26,1,,,,,アライブ,0
679,3290001112597,新規,0,2025-12-26,2025-12-26,太陽ファーム株式会社,,株式会社,福岡県,福岡市博多区,博多駅中央街５番１２号博多東ビル２０２号室,,40,132,8120012,,,,,,,2025-12-26,1,,,,,タイヨウファーム,0
682,3290803005239,新規,0,2025-12-26,2025-12-26,合同会社Ｒｏｙａｌ,,合同会社,福岡県,北九州市八幡西区,茶屋の原２丁目５番４７－２号,,40,109,8071134,,,,,,,2025-12-26,1,,,,,ロイヤル,0
686,3320003004863,新規,0,2025-12-26,2025-12-26,合同会社ＮＩＮＥ,,合同会社,大分県,別府市,石垣東２丁目１番３号,,44,202,8740919,,,,,,,2025-12-26,1,,,,,ナイン,0
688,3330003011371,新規,0,2025-12-26,2025-12-26,合同会社Ｈｉｔ,,合同会社,熊本県,玉名市,富尾３１６－３,,43,206,8650062,,,,,,,2025-12-26,1,,,,,ヒット,0
689,3340001027856,新規,0,2025-12-26,2025-12-26,株式会社とし幸,,株式会社,鹿児島県,鹿児島市,高麗町２８番１１－２０３号,,46,201,8900051,,,,,,,2025-12-26,1,,,,,トシユキ,0
693,3360001036178,新規,0,2025-12-26,2025-12-26,株式会社ＭＡＣＡＲＯＮ　ＣＡＲＥ琉球,,株式会社,沖縄県,中頭郡北谷町,字吉原７９２番１３の７,,47,326,9040105,,,,,,,2025-12-26,1,,,,,マカロンケアリュウキュウ,0
695,3360003015510,新規,0,2025-12-26,2025-12-26,合同会社タカ鉄,,合同会社,沖縄県,宜野湾市,新城２丁目２番１２－１０１号,,47,205,9012201,,,,,,,2025-12-26,1,,,,,タカテツ,0
698,3370001053321,新規,0,2025-12-26,2025-12-26,ＫＵＲＡＭＯＴＯペロブスカイト株式会社,,株式会社,宮城県,栗原市,若柳武鎗字花水前１番地１,,04,213,9895508,,,,,,,2025-12-26,1,,,,,クラモトペロブスカイト,0
699,3370001053354,新規,0,2025-12-26,2025-12-26,ＣＯＬＥＭＢＥＲＳ株式会社,,株式会社,宮城県,仙台市太白区,金剛沢３丁目１３番２３号,,04,104,9820803,,,,,,,2025-12-26,1,,,,,コレンバーズ,0
702,3400003003584,新規,0,2025-12-26,2025-12-26,合同会社ＬｏｏｐＲｏｏｍ,,合同会社,岩手県,盛岡市,紅葉が丘１２番１４号,,03,201,0200005,,,,,,,2025-12-26,1,,,,,ループルーム,0
704,3410001014351,新規,0,2025-12-26,2025-12-26,株式会社Ａｌｂｅｒｏ,,株式会社,秋田県,秋田市,中通２丁目１番２３号,,05,201,0100001,,,,,,,2025-12-26,1,,,,,アルベロ,0
705,3420005007994,新規,0,2025-12-26,2025-12-26,医療法人Ｐ＆Ｅｙｅ,,その他の設立登記法人,青森県,弘前市,大字駅前町１３番地１扶岳ビル２Ｆ,,02,202,0368003,,,,,,,2025-12-26,1,,,,,ピーアンドアイ,0
707,3430001095951,新規,0,2025-12-26,2025-12-26,株式会社ＬＯＸＥ,,株式会社,北海道,札幌市豊平区,豊平四条１３丁目１番２７－６０１号,,01,105,0620904,,,,,,,2025-12-26,1,,,,,ロクス,0
708,3430003018448,新規,0,2025-12-26,2025-12-26,合同会社ロバック,,合同会社,北海道,江別市,一番町２１番地の１７,,01,217,0670072,,,,,,,2025-12-26,1,,,,,ロバック,0
709,3430003018456,新規,0,2025-12-26,2025-12-26,不動産レベニュー合同会社,,合同会社,北海道,札幌市中央区,南六条西１３丁目４番２７号,,01,101,0640806,,,,,,,2025-12-26,1,,,,,フドウサンレベニュー,0
714,3470001021037,新規,0,2025-12-26,2025-12-26,株式会社みどりインクルージョンケア,,株式会社,香川県,高松市,栗林町１丁目１８番３０号,,37,201,7600073,,,,,,,2025-12-26,1,,,,,ミドリインクルージョンケア,0
715,3480003002364,新規,0,2025-12-26,2025-12-26,合同会社アリプト,,合同会社,徳島県,徳島市,国府町東黒田字桜ノ本５６番地,,36,201,7793103,,,,,,,2025-12-26,1,,,,,アリプト,0
722,4010003049831,新規,0,2025-12-26,2025-12-26,合同会社Ｓｃａｕｐ,,合同会社,東京都,千代田区,神田須田町１丁目７番８号ＶＯＲＴ秋葉原ＩＶ２Ｆ,00142023,13,101,1010041,,,,,,,2025-12-26,1,,,,,スカウプ,0
726,4010005041134,新規,0,2025-12-26,2025-12-26,一般社団法人リペア・アライアンス,,その他の設立登記法人,東京都,千代田区,神田和泉町１番地６－１６ヤマトビル４０５,,13,101,1010024,,,,,,,2025-12-26,1,,,,,リペアアライアンス,0
734,4010401195319,新規,0,2025-12-26,2025-12-26,株式会社ＬＩＶＥ　ＪＡＭ　ＳＴＡＧＥ,,株式会社,東京都,港区,北青山１丁目３番１号アールキューブ青山３階,,13,103,1070061,,,,,,,2025-12-26,1,,,,,ライブジャムステージ,0
735,4010401195376,新規,0,2025-12-26,2025-12-26,株式会社太陽,,株式会社,東京都,港区,南青山２丁目２番１５号,,13,103,1070062,,,,,,,2025-12-26,1,,,,,タイヨウ,0
736,4010403036850,新規,0,2025-12-26,2025-12-26,合同会社ｕｎｐｌｕｇｇｅｄＭＣ,,合同会社,東京都,港区,芝浦２丁目４－６－１１１２,,13,103,1080023,,,,,,,2025-12-26,1,,,,,アンプラグドエムシー,0
737,4010403036909,新規,0,2025-12-26,2025-12-26,合同会社６３４コンサル,,合同会社,東京都,港区,六本木３丁目１７－１２－５０３,,13,103,1060032,,,,,,,2025-12-26,1,,,,,ムサシコンサル,0
738,4010403036925,新規,0,2025-12-26,2025-12-26,川宮パワー合同会社,,合同会社,東京都,港区,新橋３丁目９番１０号天翔新橋ビル７０１号室,,13,103,1050004,,,,,,,2025-12-26,1,,,,,カワミヤパワー,0
742,4010901058702,新規,0,2025-12-26,2025-12-26,株式会社矢萩智建築設計事務所,,株式会社,東京都,世田谷区,玉川３丁目３番１４－７０１号,,13,112,1580094,,,,,,,2025-12-26,1,,,,,ヤハギサトルケンチクセッケイジムショ,0
743,4010901058727,新規,0,2025-12-26,2025-12-26,株式会社ＮＯＫＴＯＡ,,株式会社,東京都,世田谷区,太子堂４丁目１８番１５号マガザン三軒茶屋２－３Ｆ－３,,13,112,1540004,,,,,,,2025-12-26,1,,,,,ノクトア,0
750,4011001174448,新規,0,2025-12-26,2025-12-26,株式会社ａｒｉｍａｒｕ,,株式会社,東京都,目黒区,東山３丁目４番５－２０３号セリジェ池尻大橋,,13,110,1530043,,,,,,,2025-12-26,1,,,,,アリマール,0
751,4011001174514,新規,0,2025-12-26,2025-12-26,株式会社ナナデン,,株式会社,東京都,渋谷区,円山町５番３号ＭＩＥＵＸ渋谷８階,,13,113,1500044,,,,,,,2025-12-26,1,,,,,ナナデン,0
752,4011001174555,新規,0,2025-12-26,2025-12-26,株式会社ｙ’ｓパートナー,,株式会社,東京都,目黒区,大橋１丁目５番１－３４１５号クロスエアタワー,,13,110,1530044,,,,,,,2025-12-26,1,,,,,ワイズパートナー,0
753,4011003023181,新規,0,2025-12-26,2025-12-26,Ｍｕｅｌｌｅ合同会社,,合同会社,東京都,渋谷区,道玄坂１丁目１０番８号渋谷道玄坂東急ビル２Ｆ－Ｃ,,13,113,1500043,,,,,,,2025-12-26,1,,,,,ミュエル,0
772,4011805003505,新規,0,2025-12-26,2025-12-26,一般社団法人堀切ホームクリニック,,その他の設立登記法人,東京都,葛飾区,堀切４丁目５８番１９号大伴ビル２階,,13,122,1240006,,,,,,,2025-12-26,1,,,,,ホリキリホームクリニック,0
776,4013301055518,新規,0,2025-12-26,2025-12-26,株式会社ＡＱＵＡＬＩＴＹエンタテイメント,,株式会社,東京都,豊島区,高松１丁目１１番１６号,,13,116,1710042,,,,,,,2025-12-26,1,,,,,アクオリティエンタテイメント,0
783,4020003030014,新規,0,2025-12-26,2025-12-26,合同会社弥栄,,合同会社,神奈川県,横浜市港北区,新吉田東４丁目６番２０号,,14,109,2230058,,,,,,,2025-12-26,1,,,,,イヤサカ,0
787,4021001087129,新規,0,2025-12-26,2025-12-26,株式会社越後会計,,株式会社,神奈川県,横須賀市,池上４丁目１３番１３号,,14,201,2380035,,,,,,,2025-12-26,1,,,,,エチゴカイケイ,0
788,4021001087137,新規,0,2025-12-26,2025-12-26,株式会社ギフトデツナグ,,株式会社,神奈川県,鎌倉市,植木２２２,,14,204,2470073,,,,,,,2025-12-26,1,,,,,ギフトデツナグ,0
789,4021001087145,新規,0,2025-12-26,2025-12-26,株式会社ムッシェルコーポレーション,,株式会社,神奈川県,南足柄市,怒田２８０１番地５オレンジハイツ１Ｆ,,14,217,2500106,,,,,,,2025-12-26,1,,,,,ムッシェルコーポレーション,0
790,4021003016878,新規,0,2025-12-26,2025-12-26,ＵＳＣ合同会社,,合同会社,神奈川県,茅ヶ崎市,東海岸北５丁目４番１１号,,14,207,2530053,,,,,,,2025-12-26,1,,,,,ユーエスシー,0
791,4021003016944,新規,0,2025-12-26,2025-12-26,Ｋ＆Ｋ合同会社,,合同会社,神奈川県,茅ヶ崎市,中海岸１丁目１－６５オートペッカー１Ｆ,,14,207,2530055,,,,,,,2025-12-26,1,,,,,ケーアンドケー,0
792,4021003016952,新規,0,2025-12-26,2025-12-26,合同会社キッチンナノハナ,,合同会社,神奈川県,大和市,中央３丁目７番１７号エクセル中央１０２,,14,213,2420021,,,,,,,2025-12-26,1,,,,,キッチンナノハナ,0
793,4021005013502,新規,0,2025-12-26,2025-12-26,ＮＰＯ法人ＴｅｍＴｒｉ,,その他の設立登記法人,神奈川県,藤沢市,藤沢１００９番地の６、３ＦＢ号室,,14,205,2510052,,,,,,,2025-12-26,1,,,,,エヌピーオーホウジンテムトリ,0
795,4030001170323,新規,0,2025-12-26,2025-12-26,株式会社ＳＩＮ　ｃｏｒｐｏｒａｔｉｏｎ,,株式会社,埼玉県,越谷市,神明町２丁目８番地１０号,,11,222,3430805,,,,,,,2025-12-26,1,,,,,シンコーポレーション,0
810,4070001043681,新規,0,2025-12-26,2025-12-26,こもれみーな株式会社,,株式会社,群馬県,前橋市,新前橋町１番地１７ホーユウパレス新前橋３０３,,10,201,3710843,,,,,,,2025-12-26,1,,,,,コモレミーナ,0
812,4070005010455,新規,0,2025-12-26,2025-12-26,前橋市清掃事業協同組合,,その他の設立登記法人,群馬県,前橋市,樋越町２５３番地の１,,10,201,3710221,,,,,,,2025-12-26,1,,,,,マエバシシセイソウジギョウ,0
816,4100001039222,新規,0,2025-12-26,2025-12-26,株式会社Ｃｈｅｓｔｎｕｔｓ＆Ｃｏ．,,株式会社,長野県,北安曇郡白馬村,大字北城５４７７番地１,,20,485,3999301,,,,,,,2025-12-26,1,,,,,チェスナッツアンドカンパニー,0
819,4110003006013,新規,0,2025-12-26,2025-12-26,合同会社香りの森,,合同会社,新潟県,長岡市,新保５丁目４１９番地１７,,15,202,9400875,,,,,,,2025-12-26,1,,,,,カオリノモリ,0
833,4120001283033,新規,0,2025-12-26,2025-12-26,株式会社Ｂｏｎｔｅ,,株式会社,大阪府,大阪市西淀川区,千舟１丁目３番４号,,27,113,5550013,,,,,,,2025-12-26,1,,,,,ボンテ,0
841,4120101072988,新規,0,2025-12-26,2025-12-26,レグリス防災株式会社,,株式会社,大阪府,堺市中区,大野芝町２３番地６９,,27,142,5998233,,,,,,,2025-12-26,1,,,,,レグリスボウサイ,0
842,4120103006886,新規,0,2025-12-26,2025-12-26,合同会社ＬＵＭＩＮＯＳ,,合同会社,大阪府,南河内郡河南町,大宝４丁目１７番４号,,27,382,5850005,,,,,,,2025-12-26,1,,,,,ルミノス,0
843,4120105010093,新規,0,2025-12-26,2025-12-26,一般社団法人アルピニア,,その他の設立登記法人,大阪府,阪南市,緑ヶ丘１丁目８番１６号,,27,232,5990216,,,,,,,2025-12-26,1,,,,,アルピニア,0
847,4130001081213,新規,0,2025-12-26,2025-12-26,Ｍｏｎａ株式会社,,株式会社,京都府,京都市左京区,吉田上阿達町２８番地ライオンズ鴨川東２０７号室,,26,103,6068307,,,,,,,2025-12-26,1,,,,,モナ,0
848,4130001081312,新規,0,2025-12-26,2025-12-26,株式会社二代目,,株式会社,京都府,京都市伏見区,桃山町西尾３７番地プレサンスレジェンド六地蔵５０８号,,26,109,6128003,,,,,,,2025-12-26,1,,,,,ニダイメ,0
870,4180001170028,新規,0,2025-12-26,2025-12-26,株式会社中部ＫＲフード,,株式会社,愛知県,名古屋市緑区,大高町字上塩田３７番地の１,,23,114,4598001,,,,,,,2025-12-26,1,,,,,チュウブケーアールフード,0
871,4180001170036,新規,0,2025-12-26,2025-12-26,株式会社アイアンドアイ,,株式会社,愛知県,名古屋市東区,泉３丁目１７番１０号泉ビル３Ｆ,,23,102,4610001,,,,,,,2025-12-26,1,,,,,アイアンドアイ,0
876,4180003029552,新規,0,2025-12-26,2025-12-26,合同会社ＢＩＮＧＯ,,合同会社,愛知県,名古屋市中村区,稲西町１６８番地の６,,23,105,4530849,,,,,,,2025-12-26,1,,,,,ビンゴ,0
892,4240001065980,新規,0,2025-12-26,2025-12-26,株式会社ＮＯＡＨ＆ｎｄ,,株式会社,広島県,広島市南区,大須賀町１３番１７号,,34,103,7320821,,,,,,,2025-12-26,1,,,,,ノアンド,0
921,4370001053345,新規,0,2025-12-26,2025-12-26,株式会社オノデラ,,株式会社,宮城県,遠田郡涌谷町,涌谷字下町３番地４,,04,501,9870121,,,,,,,2025-12-26,1,,,,,オノデラ,0
943,4430001095950,新規,0,2025-12-26,2025-12-26,ＮＵＨ株式会社,,株式会社,北海道,札幌市東区,北三十四条東２６丁目２番２４号,,01,103,0070834,,,,,,,2025-12-26,1,,,,,エヌユーエイチ,0
945,4430003018455,新規,0,2025-12-26,2025-12-26,合同会社Ａｕｔｕｍｎ　ｌｅａｆ,,合同会社,北海道,札幌市北区,篠路五条４丁目３番８号,,01,102,0028025,,,,,,,2025-12-26,1,,,,,オータムリーフ,0
950,4470001021036,新規,0,2025-12-26,2025-12-26,株式会社ＪＩＮＹＡ,,株式会社,香川県,綾歌郡宇多津町,浜八番丁１２９番地７,,37,386,7690208,,,,,,,2025-12-26,1,,,,,ジンヤ,0
953,4500001026691,新規,0,2025-12-26,2025-12-26,株式会社エクセルグロー,,株式会社,愛媛県,四国中央市,中曽根町４０１番地１,,38,213,7990413,,,,,,,2025-12-26,1,,,,,エクセルグロー,0
958,4700150133806,新規,0,2025-12-26,2025-12-26,Ａｕｒｅｑｕ　Ｉｎｔｅｒｎａｔｉｏｎａｌ　Ｌｉｍｉｔｅｄ,,外国会社等,,,,,,,,Ｕｎｉｔ　９１５，９／Ｆ．，Ｎｏｒｔｈ　Ｔｏｗｅｒ，Ｃｏｎｃｏｒｄｉａ　Ｐｌａｚａ，１　Ｓｃｉｅｎｃｅ　Ｍｕｓｅｕｍ　Ｒｏａｄ，Ｔｓｉｍ　Ｓｈａ　Ｔｓｕｉ，Ｋｏｗｌｏｏｎ，ＨｏｎｇＫｏｎｇ,,,,,,2025-12-26,1,,,,,オーレクインターナショナルリミテッド,0
970,5010001258549,新規,0,2025-12-26,2025-12-26,株式会社エクストラ,,株式会社,東京都,文京区,音羽１丁目２０番１５－８０２号,,13,105,1120013,,,,,,,2025-12-26,1,,,,,エクストラ,0
971,5010001259968,新規,0,2025-12-26,2025-12-26,株式会社インフォツリー・アセットマネジメント,,株式会社,東京都,中央区,晴海５丁目４－５,,13,102,1040053,,,,,,,2025-12-26,1,,,,,,0
972,5010001261486,新規,0,2025-12-26,2025-12-26,株式会社ＡＭＡＧＯ,,株式会社,東京都,中央区,湊２丁目１２番１６－６０４号,,13,102,1040043,,,,,,,2025-12-26,1,,,,,アマゴ,0
973,5010001261494,新規,0,2025-12-26,2025-12-26,ティ・エ・エスホールディングス株式会社,,株式会社,東京都,中央区,銀座７丁目１７番１号銀座武蔵野ビル２階,,13,102,1040061,,,,,,,2025-12-26,1,,,,,ティエエスホールディングス,0
977,5010005041091,新規,0,2025-12-26,2025-12-26,スターリー一般社団法人,,その他の設立登記法人,東京都,千代田区,丸の内１丁目４番１号東京共同会計事務所内,,13,101,1000005,,,,,,,2025-12-26,1,,,,,スターリー,0
978,5010005041141,新規,0,2025-12-26,2025-12-26,一般社団法人ＣＶＨＫ,,その他の設立登記法人,東京都,中央区,銀座２丁目１０番８号マニエラ銀座ビル４階,,13,102,1040061,,,,,,,2025-12-26,1,,,,,シーブイエイチケー,0
980,5010401195367,新規,0,2025-12-26,2025-12-26,株式会社Ｂ‐３,,株式会社,東京都,港区,赤坂６丁目９－１０－３０４号,,13,103,1070052,,,,,,,2025-12-26,1,,,,,ビースリー,0
981,5010401195383,新規,0,2025-12-26,2025-12-26,株式会社ＦＭ‐ＬＩＮＫ,,株式会社,東京都,港区,北青山１丁目３番１号アールキューブ青山３階,,13,103,1070061,,,,,,,2025-12-26,1,,,,,エフエムリンク,0
982,5010401195400,新規,0,2025-12-26,2025-12-26,株式会社Ｎａｌｕ　Ｍａｎａｇｅｍｅｎｔ,,株式会社,東京都,港区,赤坂８丁目４番１４号青山タワープレイス８階,,13,103,1070052,,,,,,,2025-12-26,1,,,,,ナルマネジメント,0
983,5010401195425,新規,0,2025-12-26,2025-12-26,Ｓ　Ｃｌａｓｓ　Ｒｅａｌｔｙ株式会社,,株式会社,東京都,港区,海岸１丁目２番２０号汐留ビルディング５Ｆ,,13,103,1050022,,,,,,,2025-12-26,1,,,,,エスクラスリアルティ,0
984,5010401195433,新規,0,2025-12-26,2025-12-26,株式会社ＫＡＩＫＡ,,株式会社,東京都,港区,北青山１丁目３－３三橋ビル３階,,13,103,1070061,,,,,,,2025-12-26,1,,,,,カイカ,0
987,5010403036932,新規,0,2025-12-26,2025-12-26,合同会社東京銀座,,合同会社,東京都,港区,西新橋１丁目２番９号メンターキャピタル税理士法人内,,13,103,1050003,,,,,,,2025-12-26,1,,,,,トウキョウギンザ,0
990,5010501055223,新規,0,2025-12-26,2025-12-26,株式会社宝環,,株式会社,東京都,台東区,台東４丁目２５番３号安信ビル１階,,13,106,1100016,,,,,,,2025-12-26,1,,,,,ホウカン,0
991,5010505003673,新規,0,2025-12-26,2025-12-26,一般社団法人ビジネスアーキテクチャ・ジャパン協会,,その他の設立登記法人,東京都,台東区,東上野３丁目２６－３,,13,106,1100015,,,,,,,2025-12-26,1,,,,,ビジネスアーキテクチャジャパンキョウカイ,0
1000,5011005011324,新規,0,2025-12-26,2025-12-26,一般社団法人Ｃｏ‐Ｂｕｉｌｄ　Ｌａｂ,,その他の設立登記法人,東京都,目黒区,東山１丁目１５番５号静宏荘１号館１０３号室,,13,110,1530043,,,,,,,2025-12-26,1,,,,,コビルドラボ,0
1007,5011503006817,新規,0,2025-12-26,2025-12-26,Ｐｕｒｅ　Ｓｅｌｆ合同会社,,合同会社,東京都,荒川区,東尾久８丁目８番６－４０２号,,13,118,1160012,,,,,,,2025-12-26,1,,,,,ピュアセルフ,0
1013,5011803007242,新規,0,2025-12-26,2025-12-26,合同会社パンタレイ,,合同会社,東京都,足立区,梅田１丁目３０－３,,13,121,1230851,,,,,,,2025-12-26,1,,,,,パンタレイ,0
1016,5012301014656,新規,0,2025-12-26,2025-12-26,ＢＭＮＭＫＳ株式会社,,株式会社,東京都,町田市,図師町１７８４番地９,,13,209,1940203,,,,,,,2025-12-26,1,,,,,ビーマックス,0
1020,5013101009895,新規,0,2025-12-26,2025-12-26,トップガード株式会社,,株式会社,東京都,あきる野市,山田７６１番地６,,13,228,1900144,,,,,,,2025-12-26,1,,,,,トップガード,0
1021,5013301055517,新規,0,2025-12-26,2025-12-26,ＮＥＷ　ＷＩＬＬ株式会社,,株式会社,東京都,豊島区,長崎４丁目４４番７号００３号室,,13,116,1710051,,,,,,,2025-12-26,1,,,,,ニューウィル,0
1029,5020001166412,新規,0,2025-12-26,2025-12-26,株式会社ライズ,,株式会社,神奈川県,川崎市川崎区,本町２丁目１３－２－３０２,,14,131,2100001,,,,,,,2025-12-26,1,,,,,ライズ,0
1030,5020001166453,新規,0,2025-12-26,2025-12-26,テクノハンズホールディングス株式会社,,株式会社,神奈川県,横浜市磯子区,丸山１丁目９番１号,,14,107,2350011,,,,,,,2025-12-26,1,,,,,テクノハンズホールディングス,0
1031,5020001166478,新規,0,2025-12-26,2025-12-26,株式会社ＡＲＴＯＹ,,株式会社,神奈川県,横浜市西区,北幸２丁目１０番４８号むつみビル３階,,14,103,2200004,,,,,,,2025-12-26,1,,,,,アートイ,0
1035,5020003030054,新規,0,2025-12-26,2025-12-26,合同会社ＧＦ,,合同会社,神奈川県,横浜市都筑区,池辺町４８１５番地,,14,118,2240053,,,,,,,2025-12-26,1,,,,,ジーエフ,0
1039,5021001087078,新規,0,2025-12-26,2025-12-26,日中精密株式会社,,株式会社,神奈川県,相模原市中央区,東淵野辺５丁目１５番１５号,,14,152,2520203,,,,,,,2025-12-26,1,,,,,ニッチュウセイミツ,0
1040,5021001087136,新規,0,2025-12-26,2025-12-26,株式会社ジェイキューブ,,株式会社,神奈川県,鎌倉市,今泉台１丁目１５番６号,,14,204,2470053,,,,,,,2025-12-26,1,,,,,ジェイキューブ,0
1041,5021001087144,新規,0,2025-12-26,2025-12-26,株式会社柳島屋あおき商店,,株式会社,神奈川県,茅ヶ崎市,柳島海岸１２８４番地,,14,207,2530063,,,,,,,2025-12-26,1,,,,,ヤナギシマヤアオキショウテン,0
1048,5030001170289,新規,0,2025-12-26,2025-12-26,エムラインテクニクス株式会社,,株式会社,埼玉県,川口市,大字東本郷１３８２番地の８,,11,203,3340063,,,,,,,2025-12-26,1,,,,,エムラインテクニクス,0
1057,5030003028361,新規,0,2025-12-26,2025-12-26,合同会社Ｈａｔｈａｗａｙ,,合同会社,埼玉県,川口市,鳩ヶ谷本町３丁目８番２―１４０４号ウィルローズ鳩ヶ谷,,11,203,3340002,,,,,,,2025-12-26,1,,,,,ハサウェイ,0
1069,5050001057773,新規,0,2025-12-26,2025-12-26,株式会社Ｃｅｌｅｂｌｙｎａ,,株式会社,茨城県,土浦市,北荒川沖町２番９号,,08,203,3000876,,,,,,,2025-12-26,1,,,,,セレブリーナ,0
1070,5050003009839,新規,0,2025-12-26,2025-12-26,Ｓａｒｄａｒ　ｔｒａｄｉｎｇ合同会社,,合同会社,茨城県,古河市,水海２９５１番地１９,,08,204,3060215,,,,,,,2025-12-26,1,,,,,サルダールトレーディング,0
1081,5070001043689,新規,0,2025-12-26,2025-12-26,金子自動車株式会社,,株式会社,群馬県,邑楽郡千代田町,大字福島４３５番地,,10,523,3700501,,,,,,,2025-12-26,1,,,,,カネコジドウシャ,0
1091,5080401028347,新規,0,2025-12-26,2025-12-26,ＬＯＶＥキャラクターズ株式会社,,株式会社,静岡県,浜松市浜名区,新都田１丁目３番３号の１浜松都田インキュベートセンター研究室Ｂ－１,,22,139,4312103,,,,,,,2025-12-26,1,,,,,ラブキャラクターズ,0
1098,5100003008538,新規,0,2025-12-26,2025-12-26,合同会社やおきファーム,,合同会社,長野県,諏訪郡原村,やつがね１１０４４－７８,,20,363,3910113,,,,,,,2025-12-26,1,,,,,ヤオキファーム,0
1105,5120001283040,新規,0,2025-12-26,2025-12-26,株式会社ＰＥＢＢＬＥＳ,,株式会社,大阪府,大阪市北区,天満３丁目１番２号ＴＳビル５Ｆ,,27,127,5300043,,,,,,,2025-12-26,1,,,,,ペブルズ,0
1106,5120001283065,新規,0,2025-12-26,2025-12-26,石塚ヨットスクール株式会社,00142024,株式会社,大阪府,大阪市大正区,三軒家東１丁目４番１１号２階,,27,108,5510002,,,,,,,2025-12-26,1,,,,,イシヅカヨットスクール,0
1107,5120001283073,新規,0,2025-12-26,2025-12-26,株式会社ｃｌｅｙｅｒａ,,株式会社,大阪府,大阪市中央区,内本町２丁目４番３号,,27,128,5400026,,,,,,,2025-12-26,1,,,,,クレイラ,0
1108,5120001283098,新規,0,2025-12-26,2025-12-26,株式会社ランス,,株式会社,大阪府,大阪市中央区,大手前１丁目７番３１号ＯＭＭビル,,27,128,5400008,,,,,,,2025-12-26,1,,,,,ランス,0
1111,5120003031570,新規,0,2025-12-26,2025-12-26,ＤＵＹ　ＡＮＨ合同会社,,合同会社,大阪府,大阪市西成区,山王２丁目６－１９山王ハイツ１０２,,27,122,5570001,,,,,,,2025-12-26,1,,,,,ズィアィン,0
1112,5120003031579,新規,0,2025-12-26,2025-12-26,合同会社ブオナパルテ,,合同会社,大阪府,大阪市浪速区,元町２丁目１３－３６、４０１,,27,111,5560016,,,,,,,2025-12-26,1,,,,,ブオナパルテ,0
1117,5120101072995,新規,0,2025-12-26,2025-12-26,株式会社リタッチ,,株式会社,大阪府,河内長野市,高向２００１番地,,27,216,5860036,,,,,,,2025-12-26,1,,,,,リタッチ,0
1120,5120903006011,新規,0,2025-12-26,2025-12-26,合同会社ＳＯＷＷＡ,,合同会社,大阪府,豊中市,蛍池南町一丁目１３番１号,,27,203,5600000,,,,,,,2025-12-26,1,,,,,ソウワ,0
1121,5122001040033,新規,0,2025-12-26,2025-12-26,ＮｅｘＦａｂ株式会社,,株式会社,大阪府,八尾市,山賀町５丁目４８,,27,212,5810812,,,,,,,2025-12-26,1,,,,,ネクスファブ,0
1124,5130001081294,新規,0,2025-12-26,2025-12-26,株式会社アクシオン,,株式会社,京都府,京都市左京区,一乗寺樋ノ口町３５番地２,,26,103,6068167,,,,,,,2025-12-26,1,,,,,アクシオン,0
1126,5130003011027,新規,0,2025-12-26,2025-12-26,合同会社ｍｏｔｈｅｒ,,合同会社,京都府,京田辺市,花住坂３丁目１６番地７,,26,211,6100352,,,,,,,2025-12-26,1,,,,,マザー,0
1127,5130003011043,新規,0,2025-12-26,2025-12-26,合同会社ｃｏｔａｎ,,合同会社,京都府,京都市上京区,竹屋町通千本東入主税町１１６９番地２,,26,102,6028155,,,,,,,2025-12-26,1,,,,,コタン,0
1134,5140001141238,新規,0,2025-12-26,2025-12-26,株式会社ＬｉｖｅＳｐｉｃｅ,,株式会社,兵庫県,神戸市北区,西大池１丁目３４番１８号,,28,109,6511201,,,,,,,2025-12-26,1,,,,,リブスパイス,0
1135,5140003022997,新規,0,2025-12-26,2025-12-26,合同会社播州葡萄園,,合同会社,兵庫県,加古郡稲美町,印南４６０番地の２,,28,381,6751111,,,,,,,2025-12-26,1,,,,,バンシュウブドウエン,0
1138,5160001027311,新規,0,2025-12-26,2025-12-26,株式会社Ｔｏｍｏｎａｒｉ　Ｈａｓｈｉｍｏｔｏ　Ｓｔｕｄｉｏ,,株式会社,滋賀県,甲賀市,信楽町黄瀬１６３３－１,,25,209,5291802,,,,,,,2025-12-26,1,,,,,トモナリハシモトスタジオ,0
1141,5170003002360,新規,0,2025-12-26,2025-12-26,合同会社信明,,合同会社,和歌山県,紀の川市,貴志川町北１１２－６,,30,208,6400421,,,,,,,2025-12-26,1,,,,,シンコウ,0
1149,5180001170051,新規,0,2025-12-26,2025-12-26,株式会社泰和国際,,株式会社,愛知県,名古屋市中村区,長筬町１丁目１番地（長筬マンション１０５室）,,23,105,4530839,,,,,,,2025-12-26,1,,,,,タイワコクサイ,0
1151,5180005021358,新規,0,2025-12-26,2025-12-26,一般社団法人ＴＳＣ,,その他の設立登記法人,愛知県,一宮市,昭和３丁目３番１４号,,23,203,4910917,,,,,,,2025-12-26,1,,,,,ティーエスシー,0
1153,5190003005312,新規,0,2025-12-26,2025-12-26,ＧＯＬＤＭＥＴＡＬ合同会社,,合同会社,三重県,名張市,鍛冶町８６番地コートとも１０６号,,24,208,5180714,,,,,,,2025-12-26,1,,,,,ゴールドメタル,0
1159,5220005009027,新規,0,2025-12-26,2025-12-26,海浜あみだ湯労働者協同組合,,その他の設立登記法人,石川県,珠洲市,野々江町ナ部５番地３,,17,205,9271213,,,,,,,2025-12-26,1,,,,,カイヒンアミダユ,0
1161,5240001065963,新規,0,2025-12-26,2025-12-26,株式会社アスト,,株式会社,広島県,福山市,神辺町字湯野９１３番地１,,34,207,7202121,,,,,,,2025-12-26,1,,,,,,0
1162,5240001065971,新規,0,2025-12-26,2025-12-26,株式会社爆上げサンタ,,株式会社,広島県,三原市,本郷町船木１９３５番地１１,,34,204,7290411,,,,,,,2025-12-26,1,,,,,バクアゲサンタ,0
1178,5290003017842,新規,0,2025-12-26,2025-12-26,合同会社シェリー,,合同会社,福岡県,福岡市中央区,渡辺通５丁目１６－１０－１１０６,,40,133,8100004,,,,,,,2025-12-26,1,,,,,シェリー,0
1184,5350001019867,新規,0,2025-12-26,2025-12-26,株式会社かがわ,,株式会社,宮崎県,都城市,鷹尾３丁目４－３,,45,202,8850081,,,,,,,2025-12-26,1,,,,,カガワ,0
1194,5380003006217,新規,0,2025-12-26,2025-12-26,盛栄スマイル合同会社,,合同会社,福島県,いわき市,泉町７丁目１番地の１４,,07,204,9718185,,,,,,,2025-12-26,1,,,,,セイエイスマイル,0
1205,5430003018454,新規,0,2025-12-26,2025-12-26,合同会社北海道クラフトビールアソシエーション,,合同会社,北海道,札幌市中央区,南二条東４丁目２番地１　４０３号,,01,101,0600052,,,,,,,2025-12-26,1,,,,,ホッカイドウクラフトビールアソシエーション,0
1217,6010001261527,新規,0,2025-12-26,2025-12-26,株式会社コード２４,,株式会社,東京都,千代田区,神田錦町３丁目１５番地錦精社神田ビル２階２０５号室,,13,101,1010054,,,,,,,2025-12-26,1,,,,,コードニジュウヨン,0
1218,6010001261535,新規,0,2025-12-26,2025-12-26,ユーワ株式会社,,株式会社,東京都,文京区,後楽２丁目２３番１２号,,13,105,1120004,,,,,,,2025-12-26,1,,,,,ユーワ,0
1225,6010401195424,新規,0,2025-12-26,2025-12-26,ジントレーディング株式会社,,株式会社,東京都,港区,南青山３丁目１番３６号・青山丸竹ビル６階,,13,103,1070062,,,,,,,2025-12-26,1,,,,,ジントレーディング,0
1230,6010501055222,新規,0,2025-12-26,2025-12-26,株式会社ラフェリー,,株式会社,東京都,台東区,元浅草１丁目６番１２号ＧＯＧＯオフィス御徒町８１０号室,,13,106,1110041,,,,,,,2025-12-26,1,,,,,ラフェリー,0
1231,6010701048827,新規,0,2025-12-26,2025-12-26,アップワード株式会社,,株式会社,東京都,品川区,東五反田１丁目２５番１３－６０１号,,13,109,1410022,,,,,,,2025-12-26,1,,,,,アップワード,0
1236,6010903010527,新規,0,2025-12-26,2025-12-26,合同会社ここね,,合同会社,東京都,世田谷区,喜多見７丁目２２番２１号,,13,112,1570067,,,,,,,2025-12-26,1,,,,,ココネ,0
1238,6011001174677,新規,0,2025-12-26,2025-12-26,株式会社ＴＫＬ,,株式会社,東京都,渋谷区,恵比寿４丁目１６番６号パークアクシス恵比寿４０２,,13,113,1500013,,,,,,,2025-12-26,1,,,,,ティーケーエル,0
1251,6011403004993,新規,0,2025-12-26,2025-12-26,ＩＭＪ合同会社,,合同会社,東京都,板橋区,双葉町４６番７号,,13,119,1730011,,,,,,,2025-12-26,1,,,,,アイエムジェイ,0
1256,6011503006816,新規,0,2025-12-26,2025-12-26,合同会社ｐａｗｎ,,合同会社,東京都,荒川区,東日暮里１丁目１６番２－６０２号,,13,118,1160014,,,,,,,2025-12-26,1,,,,,ポーン,0
1263,6012701019246,新規,0,2025-12-26,2025-12-26,永創国際株式会社,,株式会社,東京都,西東京市,向台町３丁目６－１５,,13,229,1880013,,,,,,,2025-12-26,1,,,,,エイソウコクサイ,0
1268,6013301055516,新規,0,2025-12-26,2025-12-26,フジハロー株式会社,,株式会社,東京都,豊島区,池袋４丁目３番５－６０４号,,13,116,1710014,,,,,,,2025-12-26,1,,,,,フジハロー,0
1274,6020001166452,新規,0,2025-12-26,2025-12-26,株式会社Ｋｉｎｇｍａｔｅ,,株式会社,神奈川県,横浜市神奈川区,六角橋５丁目１４番４８号須貝ハイツ１０１号,,14,102,2210802,,,,,,,2025-12-26,1,,,,,キングメイト,0
1278,6020003029970,新規,0,2025-12-26,2025-12-26,合同会社Ａ．Ｒ．Ｙ,,合同会社,神奈川県,横浜市青葉区,市ケ尾町４９５‐５,,14,117,2250024,,,,,,,2025-12-26,1,,,,,エーアールワイ,0
1279,6020003030053,新規,0,2025-12-26,2025-12-26,合同会社Ｄ・Ｏ・Ｉ,,合同会社,神奈川県,横浜市青葉区,大場町１１０‐１,,14,117,2250023,,,,,,,2025-12-26,1,,,,,ドイ,0
1286,6021001087127,新規,0,2025-12-26,2025-12-26,株式会社Ｋ＆Ｎ,,株式会社,神奈川県,大和市,西鶴間１丁目１４番１０号エフティプラザ６０２,,14,213,2420005,,,,,,,2025-12-26,1,,,,,ケイアンドエヌ,0
1287,6021001087135,新規,0,2025-12-26,2025-12-26,株式会社カレスター,,株式会社,神奈川県,平塚市,大神７丁目１４番１０号,,14,203,2540012,,,,,,,2025-12-26,1,,,,,カレスター,0
1288,6021001087151,新規,0,2025-12-26,2025-12-26,株式会社ＴＣクリーン,,株式会社,神奈川県,厚木市,上依知１３１５番地１,,14,212,2430801,,,,,,,2025-12-26,1,,,,,ティーシークリーン,0
1293,6021003016967,新規,0,2025-12-26,2025-12-26,合同会社ロジステリクス,,合同会社,神奈川県,海老名市,河原口１丁目２６―１―１２０３,,14,215,2430433,,,,,,,2025-12-26,1,,,,,ロジステリクス,0
1303,6030001170296,新規,0,2025-12-26,2025-12-26,ベデザンジュ株式会社,,株式会社,埼玉県,朝霞市,宮戸２丁目１５番１６号,,11,227,3510031,,,,,,,2025-12-26,1,,,,,ベデザンジュ,0
1304,6030001170321,新規,0,2025-12-26,2025-12-26,株式会社ＭＡＳ,,株式会社,埼玉県,八潮市,八潮７丁目２０番７号,,11,234,3400815,,,,,,,2025-12-26,1,,,,,エムエイエス,0
1312,6040001141932,新規,0,2025-12-26,2025-12-26,ＯＮＳ株式会社,,株式会社,千葉県,我孫子市,中峠２９７７番地,,12,222,2701121,,,,,,,2025-12-26,1,,,,,オーエヌエス,0
1313,6040001141940,新規,0,2025-12-26,2025-12-26,株式会社ＡＫ,,株式会社,千葉県,船橋市,西船４丁目２３番８号第二十河ビル２階２０２号室,,12,204,2730031,,,,,,,2025-12-26,1,,,,,エーケー,0
1320,6050001057789,新規,0,2025-12-26,2025-12-26,株式会社根崎板金,,株式会社,茨城県,行方市,手賀１６９２番地２,,08,233,3113513,,,,,,,2025-12-26,1,,,,,ネサキバンキン,0
1340,6100003008537,新規,0,2025-12-26,2025-12-26,合同会社いけラボ,,合同会社,長野県,北安曇郡池田町,大字会染２４６５,,20,481,3998602,,,,,,,2025-12-26,1,,,,,イケラボ,0
1350,6120001283031,新規,0,2025-12-26,2025-12-26,順発資産管理株式会社,,株式会社,大阪府,大阪市西成区,岸里２丁目８番１６－１０２号,,27,122,5570041,,,,,,,2025-12-26,1,,,,,ジュンハツシサンカンリ,0
1351,6120001283080,新規,0,2025-12-26,2025-12-26,株式会社ＧＸクリエイティブズ,,株式会社,大阪府,大阪市此花区,春日出中１丁目３－１９春日出パークホームズＩ２０５号室,00142022,27,104,5540022,,,,,,,2025-12-26,1,,,,,ジーエックスクリエイティブズ,0
1353,6120003031586,新規,0,2025-12-26,2025-12-26,合同会社Ｎ．Ｋ．Ｔ．Ｉ,,合同会社,大阪府,大阪市中央区,谷町３丁目２番１１号ＦＬＡＧＳ１Ｆ,,27,128,5400012,,,,,,,2025-12-26,1,,,,,エヌケーティーアイ,0
1372,6140001141220,新規,0,2025-12-26,2025-12-26,株式会社コンパス,,株式会社,兵庫県,西宮市,松籟荘１１番９－４０２号,,28,204,6620822,,,,,,,2025-12-26,1,,,,,コンパス,0
1376,6140003023004,新規,0,2025-12-26,2025-12-26,合同会社ｍａｋｏｔｏ,,合同会社,兵庫県,神戸市灘区,天城通３丁目３番１－１０１号,,28,102,6570823,,,,,,,2025-12-26,1,,,,,マコト,0
1378,6140005027738,新規,0,2025-12-26,2025-12-26,一般社団法人Ｆｌｏｗｅｒ,,その他の設立登記法人,兵庫県,神戸市西区,玉津町今津６６４番地８,,28,111,6512128,,,,,,,2025-12-26,1,,,,,フラワー,0
1379,6150005009751,新規,0,2025-12-26,2025-12-26,特定非営利活動法人しろとくろ時々ねこ,,その他の設立登記法人,奈良県,奈良市,三条大路１丁目１番４５－１０３号,,29,201,6308013,,,,,,,2025-12-26,1,,,,,シロトクロトキドキネコ,0
1389,6180001096460,新規,0,2025-12-26,2025-12-26,株式会社すぎ屋,,株式会社,愛知県,津島市,牛田町字角田３７番地,,23,208,4960018,,,,,,,2025-12-26,1,,,,,スギヤ,0
1398,6180003029542,新規,0,2025-12-26,2025-12-26,ＴｒｕｓｔＴｅｃＡＩ愛合同会社,,合同会社,愛知県,名古屋市中川区,柳島町６丁目１１番地の１,,23,110,4540024,,,,,,,2025-12-26,1,,,,,トラステックアイ,0
1399,6180005021357,新規,0,2025-12-26,2025-12-26,医療法人ＥＩＲ,,その他の設立登記法人,愛知県,名古屋市千種区,四谷通１丁目１３番地ノア四ツ谷ビル３Ｆ,,23,101,4640819,,,,,,,2025-12-26,1,,,,,エイル,0
1403,6190001032786,新規,0,2025-12-26,2025-12-26,株式会社ＲＳ,,株式会社,三重県,津市,安濃町内多３０２４番地,,24,201,5142303,,,,,,,2025-12-26,1,,,,,アールエス,0
1412,6240001065979,新規,0,2025-12-26,2025-12-26,株式会社蓮,,株式会社,広島県,東広島市,黒瀬切田が丘３丁目８番１０号,,34,212,7392619,,,,,,,2025-12-26,1,,,,,レン,0
1415,6260001040848,新規,0,2025-12-26,2025-12-26,タイヤステーション井原株式会社,,株式会社,岡山県,井原市,笹賀町９２番地１,,33,207,7150025,,,,,,,2025-12-26,1,,,,,タイヤステーションイバラ,0
1416,6260005011564,新規,0,2025-12-26,2025-12-26,一般社団法人財務コンサル研究所,,その他の設立登記法人,岡山県,岡山市北区,平野７６５－１０,,33,101,7010151,,,,,,,2025-12-26,1,,,,,ザイムコンサルケンキュウショ,0
1422,6290003017841,新規,0,2025-12-26,2025-12-26,合同会社Ｆａｍｉｒｉｓｅ,,合同会社,福岡県,福岡市西区,小戸１丁目４７番６号,,40,135,8190001,,,,,,,2025-12-26,1,,,,,ファミライズ,0
1423,6320005010279,新規,0,2025-12-26,2025-12-26,一般社団法人コンチネンスサロン大分,,その他の設立登記法人,大分県,杵築市,大田石丸６０６番地,,44,210,8790901,,,,,,,2025-12-26,1,,,,,コンチネンスサロンオオイタ,0
1428,6350001019866,新規,0,2025-12-26,2025-12-26,株式会社ソライロ,,株式会社,宮崎県,西都市,大字穂北４７９４番地,,45,208,8810026,,,,,,,2025-12-26,1,,,,,ソライロ,0
1432,6360001036191,新規,0,2025-12-26,2025-12-26,Ｃｏｒｅ　Ｆｉｎｄ　Ｓｔｕｄｉｏ株式会社,,株式会社,沖縄県,那覇市,久茂地２丁目１４－１２Ｃ１８ｏｆｆｉｃｅＫＵＭＯＪＩ－Ｃ３,,47,201,9000015,,,,,,,2025-12-26,1,,,,,コアファインドスタジオ,0
1439,6370003007421,新規,0,2025-12-26,2025-12-26,平筒沼合同会社,,合同会社,宮城県,登米市,米山町字桜岡大又１２４番地１９７,,04,212,9870311,,,,,,,2025-12-26,1,,,,,ビョウドウヌマ,0
1444,6400003003581,新規,0,2025-12-26,2025-12-26,まなび・組織ＤＸ合同会社,,合同会社,岩手県,盛岡市,中央通２丁目１０番３０号,,03,201,0200021,,,,,,,2025-12-26,1,,,,,マナビソシキディーエックス,0
1452,6430001095949,新規,0,2025-12-26,2025-12-26,株式会社Ｌｉｅｎ　ｄ’Ａｕｒａ,,株式会社,北海道,札幌市中央区,南八条西１８丁目３番１８号飯村ビル２階,,01,101,0640808,,,,,,,2025-12-26,1,,,,,リアンドオーラ,0
1469,6700150031165,新規,0,2025-12-26,2015-10-09,滋賀ＳＲ経営労務センター,,その他,滋賀県,大津市,末広町１－１日本生命大津ビル３階,,25,201,5200056,,,,,,,2015-10-09,1,,,,,シガエスアールケイエイロウムセンター,0
1470,6700150133812,新規,0,2025-12-26,2025-12-26,瀬戸中水野駅周辺土地区画整理組合,,その他,愛知県,瀬戸市,内田町１丁目４８４番地１,,23,204,4890902,,,,,,,2025-12-26,1,,,,,セトナカミズノエキシユウヘントチクカクセイリクミアイ,0
1483,7010001261435,新規,0,2025-12-26,2025-12-26,株式会社Ａｍｂｉｖａｌｅｎｔ,,株式会社,東京都,中央区,銀座１丁目１２番４号Ｎ＆ＥＢＬＤ．６Ｆ,,13,102,1040061,,,,,,,2025-12-26,1,,,,,アンビバレント,0
1484,7010001261468,新規,0,2025-12-26,2025-12-26,あい・知ＬＡＢＯ株式会社,,株式会社,東京都,中央区,八丁堀２丁目１０番７号日本瓦斯八丁堀ビル,,13,102,1040032,,,,,,,2025-12-26,1,,,,,アイチラボ,0
1500,7010401195381,新規,0,2025-12-26,2025-12-26,Ｐｒｉｄａｒａ　Ｊａｐａｎ株式会社,,株式会社,東京都,港区,虎ノ門虎ノ門ヒルズビジネスタワー１５階,,13,103,1050000,,,,,,,2025-12-26,1,,,,,プライダーラジャパン,0
1501,7010401195415,新規,0,2025-12-26,2025-12-26,株式会社３５,,株式会社,東京都,港区,白金５丁目２番地３号－３０４,,13,103,1080072,,,,,,,2025-12-26,1,,,,,サンゴー,0
1502,7010401195423,新規,0,2025-12-26,2025-12-26,株式会社ｍｏｌｄｂｏａｒｄ,,株式会社,東京都,港区,浜松町２丁目２番１５号浜松町ダイヤビル２Ｆ,,13,103,1050013,,,,,,,2025-12-26,1,,,,,モールドボード,0
1503,7010401195431,新規,0,2025-12-26,2025-12-26,花輪工務店株式会社,,株式会社,東京都,港区,麻布十番１丁目３番９号ＴＢＣ麻布４０３,,13,103,1060045,,,,,,,2025-12-26,1,,,,,ハナワコウムテン,0
1505,7010601068494,新規,0,2025-12-26,2025-12-26,株式会社結,,株式会社,東京都,江東区,扇橋１丁目２１番５－１１３号,,13,108,1350011,,,,,,,2025-12-26,1,,,,,ユイ,0
1511,7010801036912,新規,0,2025-12-26,2025-12-26,株式会社５８Ｌｉｆｅ,,株式会社,東京都,大田区,南雪谷２丁目１７番５－４０８号,,13,111,1450066,,,,,,,2025-12-26,1,,,,,ゴーハチライフ,0
1512,7010805003231,新規,0,2025-12-26,2025-12-26,特定非営利活動法人日本Ｘセンターフォーラム,,その他の設立登記法人,東京都,大田区,北千束２丁目４番地２号,,13,111,1450062,,,,,,,2025-12-26,1,,,,,ニホンエックスセンターフォーラム,0
1513,7010903010518,新規,0,2025-12-26,2025-12-26,合同会社エムズ,,合同会社,東京都,世田谷区,上北沢４丁目３３－２１ＶｉｌｌａＲｏｎｄｏ２３４,,13,112,1560057,,,,,,,2025-12-26,1,,,,,エムズ,0
1519,7011001174453,新規,0,2025-12-26,2025-12-26,株式会社ＳＬＡＹ　ＨＵＭＡＮ　ＣＡＲＥ,,株式会社,東京都,渋谷区,恵比寿西２丁目８番４号ＥＸ恵比寿西ビル５階,,13,113,1500021,,,,,,,2025-12-26,1,,,,,スレイヒューマンケア,0
1520,7011001174478,新規,0,2025-12-26,2025-12-26,株式会社イロヴィア,,株式会社,東京都,目黒区,下目黒２丁目１４－２０ＷＪＨａｕｓ５０２,,13,110,1530064,,,,,,,2025-12-26,1,,,,,イロヴィア,0
1521,7011001174577,新規,0,2025-12-26,2025-12-26,株式会社渡海企画室,,株式会社,東京都,目黒区,大橋２丁目１９番６号,,13,110,1530044,,,,,,,2025-12-26,1,,,,,ワタルミキカクシツ,0
1522,7011001174627,新規,0,2025-12-26,2025-12-26,株式会社ＹＮＣコネクト,,株式会社,東京都,渋谷区,桜丘町１５－１４フジビル４０．７Ｆ,,13,113,1500031,,,,,,,2025-12-26,1,,,,,ワイエヌシーコネクト,0
1523,7011001174643,新規,0,2025-12-26,2025-12-26,ＳＯＤＡ株式会社,,株式会社,東京都,渋谷区,恵比寿２丁目１６番６号ＲＥＸＩＥＤ恵比寿２階,,13,113,1500013,,,,,,,2025-12-26,1,,,,,ソーダ,0
1524,7011001174668,新規,0,2025-12-26,2025-12-26,株式会社セゾンプライム,,株式会社,東京都,渋谷区,道玄坂２丁目２９番５号,,13,113,1500043,,,,,,,2025-12-26,1,,,,,セゾンプライム,0
1525,7011003023195,新規,0,2025-12-26,2025-12-26,合同会社五日酔,,合同会社,東京都,渋谷区,恵比寿西２丁目４番８号ウィンド恵比寿ビル８階,,13,113,1500021,,,,,,,2025-12-26,1,,,,,イツカヨイ,0
1526,7011003023212,新規,0,2025-12-26,2025-12-26,合同会社ＨＭＥＵＲ,,合同会社,東京都,渋谷区,神南１丁目１１番４号ＦＰＧリンクス神南５階,,13,113,1500041,,,,,,,2025-12-26,1,,,,,エミュール,0
1527,7011003023220,新規,0,2025-12-26,2025-12-26,Ａｒｃ合同会社,,合同会社,東京都,渋谷区,代々木３丁目３３－１－Ｇ,,13,113,1510053,,,,,,,2025-12-26,1,,,,,アーク,0
1535,7011101114490,新規,0,2025-12-26,2025-12-26,株式会社バケモノＳｔｏｃｋ,,株式会社,東京都,新宿区,西新宿３丁目３番１３号西新宿水間ビル２Ｆ,,13,104,1600023,,,,,,,2025-12-26,1,,,,,バケモノストック,0
1538,7011305003085,新規,0,2025-12-26,2025-12-26,一般社団法人ＡＣＴｓ,,その他の設立登記法人,東京都,杉並区,下井草３丁目１２番１６号ＨｅｉｍＫａｓｔａｎｉｅ１０３,,13,115,1670022,,,,,,,2025-12-26,1,,,,,アクト,0
1548,7013103001519,新規,0,2025-12-26,2025-12-26,合同会社ワールドゲート,,合同会社,東京都,福生市,加美平４丁目１番地加美平住宅１５－４１０,,13,218,1970012,,,,,,,2025-12-26,1,,,,,,0
1556,7021001087150,新規,0,2025-12-26,2025-12-26,株式会社アロマキャリー,,株式会社,神奈川県,大和市,大和東３丁目１２番２１－１０２号,,14,213,2420017,,,,,,,2025-12-26,1,,,,,アロマキャリー,0
1557,7021003016958,新規,0,2025-12-26,2025-12-26,合同会社ナツシマ,,合同会社,神奈川県,横須賀市,浦郷町２丁目２９番地２１,,14,201,2370062,,,,,,,2025-12-26,1,,,,,ナツシマ,0
1564,7030003028236,新規,0,2025-12-26,2025-12-26,合同会社ＧａｌａＲｉｓｅ,,合同会社,埼玉県,本庄市,見福２丁目１６－２,,11,211,3670044,,,,,,,2025-12-26,1,,,,,ギャライズ,0
1565,7030003028343,新規,0,2025-12-26,2025-12-26,翔紀合同会社,,合同会社,埼玉県,朝霞市,根岸台３丁目１５―２３,,11,227,3510005,,,,,,,2025-12-26,1,,,,,ショウキ,0
1570,7040003029101,新規,0,2025-12-26,2025-12-26,ＬＵＰＥＸ合同会社,,合同会社,千葉県,浦安市,美浜１丁目４番８０１号,,12,227,2790011,,,,,,,2025-12-26,1,,,,,ルペックス,0
1572,7040003029225,新規,0,2025-12-26,2025-12-26,合同会社ＧＳアカウンティング,,合同会社,千葉県,船橋市,東船橋２丁目２番３号,,12,204,2730002,,,,,,,2025-12-26,1,,,,,ジーエスアカウンティング,0
1582,7100003008536,新規,0,2025-12-26,2025-12-26,合同会社ｅｎ,,合同会社,長野県,長野市,三輪６丁目１６番５号,,20,201,3800803,,,,,,,2025-12-26,1,,,,,エン,0
1583,7110001039796,新規,0,2025-12-26,2025-12-26,ＯＦＳ　Ｉｎｖｅｓｔｍｅｎｔｓ株式会社,,株式会社,新潟県,妙高市,大字関川７１０番地３,,15,217,9492112,,,,,,,2025-12-26,1,,,,,オーエフエスインベストメンツ,0
1584,7110001039805,新規,0,2025-12-26,2025-12-26,株式会社カードリーム新潟,,株式会社,新潟県,新潟市北区,松浜１丁目２４番地１３,,15,101,9503126,,,,,,,2025-12-26,1,,,,,カードリームニイガタ,0
1596,7120001283014,新規,0,2025-12-26,2025-12-26,株式会社Ｄｅａｒ　ｎａ　ｄｏｌｃｅ,,株式会社,大阪府,守口市,大日東町４番サンマークスだいにちジアスタワーレジデンスＡ－３６０４号,,27,209,5700016,,,,,,,2025-12-26,1,,,,,ディアナドルチェ,0
1597,7120001283055,新規,0,2025-12-26,2025-12-26,株式会社ＢＩＧ　ＷＩＮＧ,,株式会社,大阪府,門真市,江端町２４番１０号,,27,223,5710012,,,,,,,2025-12-26,1,,,,,ビッグウィング,0
1598,7120001283071,新規,0,2025-12-26,2025-12-26,ＺＬＹ株式会社,,株式会社,大阪府,大阪市中央区,瓦屋町３丁目７番２０号ミフネセントラルベアー島之内３０２号室,,27,128,5420066,,,,,,,2025-12-26,1,,,,,ゼットエルワイ,0
1601,7120003031247,新規,0,2025-12-26,2025-12-26,Ｍｅｒｃｅｎａｒｙ合同会社,,合同会社,大阪府,大阪市北区,梅田１丁目２番地２号,,27,127,5300001,,,,,,,2025-12-26,1,,,,,マーセナリー,0
1602,7120003031585,新規,0,2025-12-26,2025-12-26,合同会社ビジョナリー,,合同会社,大阪府,大阪市浪速区,幸町３丁目９番１９－２０８号,,27,111,5560021,,,,,,,2025-12-26,1,,,,,ビジョナリー,0
1605,7120101072993,新規,0,2025-12-26,2025-12-26,株式会社ＬＯＧＩＣプロパティ,,株式会社,大阪府,堺市北区,百舌鳥梅町３丁３５番地３８,,27,146,5918032,,,,,,,2025-12-26,1,,,,,ロジックプロパティ,0
1606,7120101073001,新規,0,2025-12-26,2025-12-26,株式会社ＬＡＬ,,株式会社,大阪府,松原市,天美北６丁目４４９番地,,27,217,5800031,,,,,,,2025-12-26,1,,,,,エルエーエル,0
1608,7120103006917,新規,0,2025-12-26,2025-12-26,合同会社ＨＧＣ,,合同会社,大阪府,松原市,三宅中６丁目４番２５号,,27,217,5800046,,,,,,,2025-12-26,1,,,,,エイチジーシー,0
1614,7120901052022,新規,0,2025-12-26,2025-12-26,ＣＬＯＶＥ株式会社,,株式会社,大阪府,茨木市,天王２丁目４番１０号１Ｆ,,27,211,5670876,,,,,,,2025-12-26,1,,,,,クローブ,0
1621,7130003011033,新規,0,2025-12-26,2025-12-26,合同会社Ｃｏｎｎｅｃｔｉｎｇ　ｔｈｅ　ｄｏｔｓ,,合同会社,京都府,京都市左京区,下鴨蓼倉町４２－１９,,26,103,6060806,,,,,,,2025-12-26,1,,,,,コネクティングザドッツ,0
1628,7140001141228,新規,0,2025-12-26,2025-12-26,株式会社世六,,株式会社,兵庫県,神戸市灘区,篠原本町３丁目８番２７号,,28,102,6570067,,,,,,,2025-12-26,1,,,,,セロク,0
1633,7150003003788,新規,0,2025-12-26,2025-12-26,ＩＲＯ合同会社,,合同会社,奈良県,奈良市,小西町８番地１－４階Ｂ号室,,29,201,6308226,,,,,,,2025-12-26,1,,,,,イロ,0
1634,7150005009750,新規,0,2025-12-26,2025-12-26,特定非営利活動法人ハロパトやまのべ,,その他の設立登記法人,奈良県,天理市,別所町２３０番地６,,29,204,6320018,,,,,,,2025-12-26,1,,,,,ハロパトヤマノベ,0
1638,7160005011474,新規,0,2025-12-26,2025-12-26,一般社団法人なぎのこのわ,,その他の設立登記法人,滋賀県,草津市,野村２丁目１１番１号,,25,206,5250027,,,,,,,2025-12-26,1,,,,,ナギノコノワ,0
1640,7170003002359,新規,0,2025-12-26,2025-12-26,合同会社マエダ,,合同会社,和歌山県,和歌山市,友田町３丁目３８番地シャルマンフジスマート友田町１３０３号室,,30,201,6408342,,,,,,,2025-12-26,1,,,,,マエダ,0
1643,7180001170041,新規,0,2025-12-26,2025-12-26,株式会社ＫＩＹＯ　ＳＰＩＲＩＴ,,株式会社,愛知県,名古屋市守山区,町北９番１０号,,23,113,4630074,,,,,,,2025-12-26,1,,,,,キヨスピリット,0
1648,7180301040547,新規,0,2025-12-26,2025-12-26,株式会社まごころサポートセンター,,株式会社,愛知県,知立市,東上重原１丁目６６番地エステートＢＥＬＬ１－１０９号,,23,225,4720054,,,,,,,2025-12-26,1,,,,,マゴコロサポートセンター,0
1651,7190001032785,新規,0,2025-12-26,2025-12-26,株式会社うましくにから,,株式会社,三重県,員弁郡東員町,大字大木２５７０番地,,24,324,5110244,,,,,,,2025-12-26,1,,,,,ウマシクニカラ,0
1653,7190003005310,新規,0,2025-12-26,2025-12-26,合同会社レナリア,,合同会社,三重県,津市,河芸町杜の街３丁目１５番１０,,24,201,5100318,,,,,,,2025-12-26,1,,,,,レナリア,0
1673,7290001112593,新規,0,2025-12-26,2025-12-26,株式会社Ｄａｌａｈａｓｔ,,株式会社,福岡県,大野城市,下大利２丁目１７番５号,,40,219,8160952,,,,,,,2025-12-26,1,,,,,ダーラヘスト,0
1674,7290001112602,新規,0,2025-12-26,2025-12-26,フーズポーター株式会社,,株式会社,福岡県,福岡市中央区,長浜３丁目１１番３号５０１,,40,133,8100072,,,,,,,2025-12-26,1,,,,,フーズポーター,0
1675,7290001112668,新規,0,2025-12-26,2025-12-26,株式会社ＳＨＯＤＡＩ,,株式会社,福岡県,朝倉郡筑前町,篠隈５３６番地６,,40,447,8380215,,,,,,,2025-12-26,1,,,,,ショウダイ,0
1692,7360003015498,新規,0,2025-12-26,2025-12-26,合同会社ＫＡＣＨＡＳＨ,,合同会社,沖縄県,那覇市,字国場７０１番地グランテラス・Ｋ３０２,,47,201,9020075,,,,,,,2025-12-26,1,,,,,カチャシー,0
1693,7360003015515,新規,0,2025-12-26,2025-12-26,合同会社クラースホーム,,合同会社,沖縄県,浦添市,宮城５丁目６番２号,,47,208,9012126,,,,,,,2025-12-26,1,,,,,クラースホーム,0
1700,7380005013044,新規,0,2025-12-26,2025-12-26,特定非営利活動法人いなＧＯ,,その他の設立登記法人,福島県,南会津郡南会津町,古町字東町尻１５１６番地,,07,368,9670501,,,,,,,2025-12-26,1,,,,,イナゴー,0
1704,7420003003216,新規,0,2025-12-26,2025-12-26,合同会社ミタラシ,,合同会社,青森県,青森市,長島２丁目１３番１号アクア青森スクエア６階,,02,201,0300861,,,,,,,2025-12-26,1,,,,,ミタラシ,0
1714,7480001013046,新規,0,2025-12-26,2025-12-26,東四国買取センター株式会社,,株式会社,徳島県,徳島市,応神町古川字戎子野８２番地９－１０４号,,36,201,7711151,,,,,,,2025-12-26,1,,,,,ヒガシシコクカイトリセンター,0
1717,7700150053150,新規,0,2025-12-26,2015-10-09,防府商工労務管理センター,,その他,山口県,防府市,大字高井１１４３番地の１,,35,206,7470064,,,,,,,2015-10-09,1,,,,,ホウフシヨウコウロウムカンリセンター,0
1724,8010001261418,新規,0,2025-12-26,2025-12-26,株式会社Ａｌｐｉｎａ　Ａｓｉａ,,株式会社,東京都,中央区,八重洲２丁目２－１東京ミッドタウン八重洲７Ｆ,,13,102,1040028,,,,,,,2025-12-26,1,,,,,アルピナアジア,0
1727,8010003049811,新規,0,2025-12-26,2025-12-26,Ｓｐｒｉｎｔ　Ａｓｓｅｔ２ＧＫ合同会社４,,合同会社,東京都,千代田区,霞が関３丁目２番５号,,13,101,1000013,,,,,,,2025-12-26,1,,,,,スプリントアセットツージーケーフォー,0
1732,8010401195232,新規,0,2025-12-26,2025-12-26,西川興産株式会社,,株式会社,東京都,港区,赤坂６丁目１０番６号,,13,103,1070052,,,,,,,2025-12-26,1,,,,,,0
1736,8010403036839,新規,0,2025-12-26,2025-12-26,ｃａｌｍ　ｃａｆｅ合同会社,,合同会社,東京都,港区,南青山２丁目２番１５号,,13,103,1070062,,,,,,,2025-12-26,1,,,,,カルムカフェ,0
1740,8010501055204,新規,0,2025-12-26,2025-12-26,スケールデータテクノロジー株式会社,,株式会社,東京都,台東区,上野３丁目１１番５号,,13,106,1100005,,,,,,,2025-12-26,1,,,,,スケールデータテクノロジー,0
1744,8010601068485,新規,0,2025-12-26,2025-12-26,フロンティアネットワークス株式会社,,株式会社,東京都,江東区,豊洲２丁目５番１－２１０７号,,13,108,1350061,,,,,,,2025-12-26,1,,,,,フロンティアネットワークス,0
1747,8010805003230,新規,0,2025-12-26,2025-12-26,一般社団法人ＪＳＭＴ,,その他の設立登記法人,東京都,大田区,西糀谷４丁目９番２４号,,13,111,1440034,,,,,,,2025-12-26,1,,,,,ジェイエスエムティー,0
1757,8011001174568,新規,0,2025-12-26,2025-12-26,音羽ホールディングス株式会社,,株式会社,東京都,渋谷区,代々木５丁目５５番１２号,,13,113,1510053,,,,,,,2025-12-26,1,,,,,オトワホールディングス,0
1758,8011001174584,新規,0,2025-12-26,2025-12-26,株式会社Ｎｉｅｓｕ,,株式会社,東京都,目黒区,下目黒３丁目１９番９－３０８号ＺＯＯＭ目黒不動前,,13,110,1530064,,,,,,,2025-12-26,1,,,,,ニース,0
1759,8011001174634,新規,0,2025-12-26,2025-12-26,株式会社Ｆ３,,株式会社,東京都,渋谷区,恵比寿南１丁目１８番７号ハイム恵比寿ヶ丘２０３,,13,113,1500022,,,,,,,2025-12-26,1,,,,,エフスリー,0
1760,8011001174642,新規,0,2025-12-26,2025-12-26,白石労働衛生事務所株式会社,,株式会社,東京都,目黒区,自由が丘２丁目１６番１２号ＲＪ３,,13,110,1520035,,,,,,,2025-12-26,1,,,,,シライシロウドウエイセイジムショ,0
1762,8011003023186,新規,0,2025-12-26,2025-12-26,合同会社折鶴,,合同会社,東京都,渋谷区,道玄坂１丁目１０番８号渋谷道玄坂東急ビル２Ｆ－Ｃ,,13,113,1500043,,,,,,,2025-12-26,1,,,,,オリヅル,0
1763,8011003023236,新規,0,2025-12-26,2025-12-26,春秋アカウンティング合同会社,,合同会社,東京都,渋谷区,千駄ヶ谷１丁目２３番６号,,13,113,1510051,,,,,,,2025-12-26,1,,,,,シュンジュウアカウンティング,0
1775,8012301014661,新規,0,2025-12-26,2025-12-26,株式会社Ａｒｉ,,株式会社,東京都,町田市,原町田３丁目３番１号オリンピア第一ビル３０１号室,,13,209,1940013,,,,,,,2025-12-26,1,,,,,エイリィ,0
1781,8012401043957,新規,0,2025-12-26,2025-12-26,Ｓｈａｒｉｋｉｎ株式会社,,株式会社,東京都,武蔵野市,吉祥寺南町５丁目１１番６号,,13,203,1800003,,,,,,,2025-12-26,1,,,,,シャリキン,0
1786,8013103001518,新規,0,2025-12-26,2025-12-26,合同会社福ホーム,,合同会社,東京都,福生市,加美平１丁目７－２１,,13,218,1970012,,,,,,,2025-12-26,1,,,,,フクホーム,0
1793,8021001087133,新規,0,2025-12-26,2025-12-26,株式会社ＡＬＴＵＲＮ,,株式会社,神奈川県,鎌倉市,岡本２丁目１２番１０号,,14,204,2470072,,,,,,,2025-12-26,1,,,,,オールターン,0
1796,8021003016949,新規,0,2025-12-26,2025-12-26,えびカンパニー合同会社,,合同会社,神奈川県,秦野市,堀川５１－１２,,14,211,2591305,,,,,,,2025-12-26,1,,,,,エビカンパニー,0
1797,8021003016957,新規,0,2025-12-26,2025-12-26,合同会社りんかんマネジメント,,合同会社,神奈川県,大和市,林間２丁目６番５－６１０号,,14,213,2420003,,,,,,,2025-12-26,1,,,,,リンカンマネジメント,0
1806,8030003028326,新規,0,2025-12-26,2025-12-26,ＹＹＯＳＨＩ合同会社,,合同会社,埼玉県,新座市,新堀３丁目４－２０フローレンス清瀬４０６,,11,230,3520032,,,,,,,2025-12-26,1,,,,,ワイワイオウエスエッチアイ,0
1807,8030005022376,新規,0,2025-12-26,2025-12-26,一般社団法人日本子育て協会,,その他の設立登記法人,埼玉県,川口市,南町１丁目１３番２５アメニクス川口２０１号,,11,203,3320026,,,,,,,2025-12-26,1,,,,,ニホンコソダテキョウカイ,0
1811,8040001141897,新規,0,2025-12-26,2025-12-26,株式会社ロブ,,株式会社,千葉県,茂原市,国府関１６４６－３,,12,210,2970067,,,,,,,2025-12-26,1,,,,,ロブ,0
1812,8040001141963,新規,0,2025-12-26,2025-12-26,Ｊａｐａｎ　Ｔｒｕｓｔ　Ｐｒｏｐｅｒｔｉｅｓ株式会社,,株式会社,千葉県,松戸市,六高台３丁目１３４－３－１０３,,12,207,2702203,,,,,,,2025-12-26,1,,,,,ジャパントラストプロパティズ,0
1814,8040003029216,新規,0,2025-12-26,2025-12-26,Ｓｉｆａｔ＆Ｓｏｎｓ　Ｔｒａｄｉｎｇ　Ｃｏｍｐａｎｙ合同会社,,合同会社,千葉県,野田市,目吹１４２５番地の１,,12,208,2780001,,,,,,,2025-12-26,1,,,,,シファトアンドサンズトレーディングカンパニー,0
1821,8060001038885,新規,0,2025-12-26,2025-12-26,株式会社Ｕ‐ＭＯＲ,,株式会社,栃木県,大田原市,中田原８６８番地１３,,09,210,3240062,,,,,,,2025-12-26,1,,,,,ユーモア,0
1823,8060003005900,新規,0,2025-12-26,2025-12-26,合同会社ＳＴＡＲ・ＴＲＡＤＩＮＧ,,合同会社,栃木県,栃木市,岩舟町新里１３０３－２－２１号室,,09,203,3294316,,,,,,,2025-12-26,1,,,,,スタートレーディング,0
1831,8080103003496,新規,0,2025-12-26,2025-12-26,南雲商会合同会社,,合同会社,静岡県,富士市,吉原２丁目８番２０号,,22,210,4170051,,,,,,,2025-12-26,1,,,,,ナグモショウカイ,0
1832,8080401028344,新規,0,2025-12-26,2025-12-26,株式会社ＢＩＴＥＳ,,株式会社,静岡県,浜松市中央区,富塚町８０２番地の２６,,22,138,4328002,,,,,,,2025-12-26,1,,,,,バイツ,0
1833,8080403005416,新規,0,2025-12-26,2025-12-26,ＳＫＥ　Ａｃｃｏｕｎｔｉｎｇ合同会社,,合同会社,静岡県,浜松市中央区,鴨江３丁目５１番２号大石ビル２階北側,,22,138,4328023,,,,,,,2025-12-26,1,,,,,エスケイイーアカウンティング,0
1847,8120001283046,新規,0,2025-12-26,2025-12-26,日出貿易株式会社,,株式会社,大阪府,大阪市旭区,大宮４丁目４番８号ジュネス大宮Ｉ４０３号室,00142027,27,117,5350002,,,,,,,2025-12-26,1,,,,,ヒノデボウエキ,0
1848,8120001283062,新規,0,2025-12-26,2025-12-26,近畿ＫＦシステム株式会社,,株式会社,大阪府,門真市,末広町３９番１６号,,27,223,5710030,,,,,,,2025-12-26,1,,,,,キンキケーエフシステム,0
1849,8120001283070,新規,0,2025-12-26,2025-12-26,ＪＡＳＡＫＡ株式会社,,株式会社,大阪府,大阪市平野区,西脇４丁目４番２１－６０３号,,27,126,5470035,,,,,,,2025-12-26,1,,,,,ジャサカ,0
1851,8120003031576,新規,0,2025-12-26,2025-12-26,合同会社東研,,合同会社,大阪府,大阪市阿倍野区,西田辺二丁目６番３号グレーシィー西田辺５Ｄ,,27,119,5450000,,,,,,,2025-12-26,1,,,,,トウケン,0
1852,8120003031584,新規,0,2025-12-26,2025-12-26,合同会社カラケア,,合同会社,大阪府,大阪市平野区,平野本町２丁目４番１０－３０１号,,27,126,5470044,,,,,,,2025-12-26,1,,,,,カラケア,0
1853,8120005025320,新規,0,2025-12-26,2025-12-26,一般社団法人ワーカーズインクルージョン,,その他の設立登記法人,大阪府,大阪市中央区,久太郎町２丁目４番２７号堺筋本町ＴＦビル２階,,27,128,5410056,,,,,,,2025-12-26,1,,,,,ワーカーズインクルージョン,0
1857,8120103006916,新規,0,2025-12-26,2025-12-26,ＮＯＲＴＨ　ＣＲＡＦＴ合同会社,,合同会社,大阪府,高石市,西取石５丁目３―２２ヴィブレ大歳Ｂ１０１,,27,225,5920012,,,,,,,2025-12-26,1,,,,,ノースクラフト,0
1861,8130001081291,新規,0,2025-12-26,2025-12-26,株式会社ＫＡＰＯＮＯ,,株式会社,京都府,京田辺市,薪茶屋前１４番地の４,,26,211,6100341,,,,,,,2025-12-26,1,,,,,カポノ,0
1863,8130003011040,新規,0,2025-12-26,2025-12-26,ノムラ企画合同会社,,合同会社,京都府,京都市下京区,小稲荷町８５－２Ｇｒａｎｄ－Ｋ京都駅前ビル２０１,,26,106,6008208,,,,,,,2025-12-26,1,,,,,ノムラキカク,0
1871,8150001028621,新規,0,2025-12-26,2025-12-26,ＮＡＮＷＡ　ＥＮＥＲＧＹ株式会社,,株式会社,奈良県,吉野郡大淀町,大字下渕１３７４番地の１,,29,442,6380821,,,,,,,2025-12-26,1,,,,,ナンワエネルギー,0
1890,8180001170040,新規,0,2025-12-26,2025-12-26,リライテック株式会社,,株式会社,愛知県,名古屋市中村区,名駅４丁目２４番５号第２森ビル４０１,,23,105,4500002,,,,,,,2025-12-26,1,,,,,リライテック,0
1895,8180003029532,新規,0,2025-12-26,2025-12-26,合同会社やわらかテック舎,,合同会社,愛知県,名古屋市中村区,名駅４丁目２４番５号第２森ビル４０１,,23,105,4500002,,,,,,,2025-12-26,1,,,,,ヤワラカテックシャ,0
1896,8180003029549,新規,0,2025-12-26,2025-12-26,合同会社行動研究,,合同会社,愛知県,名古屋市千種区,内山３丁目１０番１２号今池堂ビル６階北,,23,101,4640075,,,,,,,2025-12-26,1,,,,,コウドウケンキュウ,0
1903,8190001032784,新規,0,2025-12-26,2025-12-26,株式会社わたしいろ,,株式会社,三重県,度会郡玉城町,上田辺２５０３番地１,,24,461,5190417,,,,,,,2025-12-26,1,,,,,ワタシイロ,0
1916,8290001112493,新規,0,2025-12-26,2025-12-26,株式会社ソラカゼ,,株式会社,福岡県,福岡市中央区,天神２丁目２番１２号Ｔ＆Ｊビルディング７Ｆ,,40,133,8100001,,,,,,,2025-12-26,1,,,,,ソラカゼ,0
1917,8290001112592,新規,0,2025-12-26,2025-12-26,Ｒｏｏｔｓ株式会社,,株式会社,福岡県,久留米市,北野町上弓削１１３番地６,,40,203,8301117,,,,,,,2025-12-26,1,,,,,ルーツ,0
1918,8290001112601,新規,0,2025-12-26,2025-12-26,株式会社Ｈｏｎｅ　Ｃｒａｆｔ,,株式会社,福岡県,福岡市南区,横手３丁目６番２９－２０２号,,40,134,8111311,,,,,,,2025-12-26,1,,,,,ホーンクラフト,0
1919,8290001112626,新規,0,2025-12-26,2025-12-26,株式会社花庭出版社,,株式会社,福岡県,福岡市中央区,大名２丁目１番４３－５０６号,,40,133,8100041,,,,,,,2025-12-26,1,,,,,ハナニワシュッパンシャ,0
1921,8290005019941,新規,0,2025-12-26,2025-12-26,医療法人雅会,,その他の設立登記法人,福岡県,福岡市東区,箱崎３丁目３２－１１,,40,131,8120053,,,,,,,2025-12-26,1,,,,,ミヤビカイ,0
1923,8310003005156,新規,0,2025-12-26,2025-12-26,合同会社３Ｄ　Ｂａｓｅ,,合同会社,長崎県,長崎市,小菅町エトワール小菅町１６－３６，１０２,,42,201,8500934,,,,,,,2025-12-26,1,,,,,スリーディーベース,0
1933,8350003005103,新規,0,2025-12-26,2025-12-26,合同会社Ｕｔｉｌｅ,,合同会社,宮崎県,宮崎市,江平東町９番地３,,45,201,8800817,,,,,,,2025-12-26,1,,,,,ユティル,0
1934,8360001036181,新規,0,2025-12-26,2025-12-26,株式会社トライバルクリエイト,,株式会社,沖縄県,南城市,大里字嶺井５５１番地２,,47,215,9011201,,,,,,,2025-12-26,1,,,,,トライバルクリエイト,0
1935,8360003015506,新規,0,2025-12-26,2025-12-26,合同会社ＩＷＡＭＩ,,合同会社,沖縄県,那覇市,松尾１丁目１０－２４ホークシティー那覇ビル１階,,47,201,9000014,,,,,,,2025-12-26,1,,,,,イワミ,0
1937,8380001035660,新規,0,2025-12-26,2025-12-26,株式会社くまで,,株式会社,福島県,双葉郡大熊町,大字下野上字清水１７２番地ルミネＡ１０２,,07,545,9791308,,,,,,,2025-12-26,1,,,,,クマデ,0
1938,8380001035776,新規,0,2025-12-26,2025-12-26,株式会社ＫＯＮＤＡ電設,,株式会社,福島県,いわき市,金山町汐見台１１９番地の１２,,07,204,9748211,,,,,,,2025-12-26,1,,,,,コンダデンセツ,0
1940,8390002016452,新規,0,2025-12-26,2025-12-26,有限会社佐藤不動産,,有限会社,山形県,鶴岡市,文園町１番６８号,,06,203,9970816,,,,,,,2025-12-26,1,,,,,,0
1947,8420001019378,新規,0,2025-12-26,2025-12-26,株式会社ＦＫファーム,,株式会社,青森県,北津軽郡中泊町,大字尾別字玉の井７１番地２,,02,387,0370304,,,,,,,2025-12-26,1,,,,,エフケーファーム,0
1948,8430001095955,新規,0,2025-12-26,2025-12-26,株式会社Ｈ‐ｉｄｅａ,,株式会社,北海道,札幌市西区,西野六条８丁目４番２３号南西ビル１Ｆ,,01,107,0630036,,,,,,,2025-12-26,1,,,,,ヒデア,0
1949,8430005015380,新規,0,2025-12-26,2025-12-26,行政書士法人相続百花,,その他の設立登記法人,北海道,札幌市北区,北八条西４丁目１番地１,,01,102,0600808,,,,,,,2025-12-26,1,,,,,ソウゾクヒャッカ,0
1952,8440001009732,新規,0,2025-12-26,2025-12-26,ガイア・グリーン株式会社,,株式会社,北海道,北斗市,追分１丁目１２番６号,,01,236,0490101,,,,,,,2025-12-26,1,,,,,ガイアグリーン,0
1954,8450003002759,新規,0,2025-12-26,2025-12-26,合同会社日色,,合同会社,北海道,空知郡中富良野町,字中富良野東２線北十号,,01,461,0710772,,,,,,,2025-12-26,1,,,,,ヒイロ,0
1958,8480001013045,新規,0,2025-12-26,2025-12-26,株式会社Ｌｉｅｎ　Ａｒｃ,,株式会社,徳島県,那賀郡那賀町,成瀬字忠ヶ谷口２番地２,,36,368,7716327,,,,,,,2025-12-26,1,,,,,ラインアーク,0
1960,8700150133810,新規,0,2025-12-26,2025-12-26,本牧元町共同ビルマンション敷地売却組合,,その他,神奈川県,横浜市中区,本牧元町６１番１号,,14,104,2310822,,,,,,,2025-12-26,1,,,,,ホンモクモトマチキヨウドウビルマンシヨンシキチバイキヤククミアイ,0
1969,9010001261417,新規,0,2025-12-26,2025-12-26,株式会社リライアンス,,株式会社,東京都,千代田区,有楽町１丁目５－２東宝日比谷プロムナードビル１１階,,13,101,1000006,,,,,,,2025-12-26,1,,,,,リライアンス,0
1974,9010003049810,新規,0,2025-12-26,2025-12-26,合同会社アセットソリューション,,合同会社,東京都,千代田区,神田和泉町１番地６－１６ヤマトビル４０５,,13,101,1010024,,,,,,,2025-12-26,1,,,,,アセットソリューション,0
1984,9010403036912,新規,0,2025-12-26,2025-12-26,合同会社みやもと,,合同会社,東京都,港区,南青山２丁目２番１５号,,13,103,1070062,,,,,,,2025-12-26,1,,,,,ミヤモト,0
1985,9010403036929,新規,0,2025-12-26,2025-12-26,Ｔｙｌｅｒ合同会社,,合同会社,東京都,港区,南麻布２丁目３番１１号,,13,103,1060047,,,,,,,2025-12-26,1,,,,,タイラー,0
1987,9010501055203,新規,0,2025-12-26,2025-12-26,ｉＰｉｘｅｌＭｕｓｅ株式会社,,株式会社,東京都,台東区,台東１丁目２４番９号ブライト秋葉原Ｂ１Ｆ,,13,106,1100016,,,,,,,2025-12-26,1,,,,,アイピクセル,0
1989,9010603011995,新規,0,2025-12-26,2025-12-26,合同会社ＲＭ,,合同会社,東京都,江東区,大島７丁目４１番１７号吉川ビル３０２,,13,108,1360072,,,,,,,2025-12-26,1,,,,,アールエム,0
2004,9011101114258,新規,0,2025-12-26,2025-12-26,蓮丸株式会社,,株式会社,東京都,新宿区,西新宿３丁目３番１３号西新宿水間ビル２Ｆ,,13,104,1600023,,,,,,,2025-12-26,1,,,,,ハスマル,0
2005,9011101114514,新規,0,2025-12-26,2025-12-26,株式会社ＢＵＶ,,株式会社,東京都,新宿区,西新宿３丁目３番１３号西新宿水間ビル６階,,13,104,1600023,,,,,,,2025-12-26,1,,,,,バブ,0
2007,9011203004919,新規,0,2025-12-26,2025-12-26,合同会社家門,,合同会社,東京都,中野区,弥生町１丁目４８番１０号,,13,114,1640013,,,,,,,2025-12-26,1,,,,,イエカド,0
2012,9011603004964,新規,0,2025-12-26,2025-12-26,合同会社ＬＵＦ　ＪＡＰＡＮ,,合同会社,東京都,練馬区,光が丘５丁目２番５－９１７,,13,120,1790072,,,,,,,2025-12-26,1,,,,,エルユウエフジャパン,0
2014,9011801047253,新規,0,2025-12-26,2025-12-26,株式会社寿々メンテナンスサービス,,株式会社,東京都,足立区,佐野１丁目３番１１号,,13,121,1210053,,,,,,,2025-12-26,1,,,,,ジュジュメンテナンスサービス,0
2015,9012701019243,新規,0,2025-12-26,2025-12-26,Ｃｏｍｍｅｒｇｅｎｔ株式会社,,株式会社,東京都,東村山市,多摩湖町１丁目３番地１７,,13,213,1890026,,,,,,,2025-12-26,1,,,,,コマーシェント,0
2019,9012801024432,新規,0,2025-12-26,2025-12-26,株式会社ｍｉｎａｔｏ,,株式会社,東京都,国立市,谷保５９３５番地の３,,13,215,1860011,,,,,,,2025-12-26,1,,,,,ミナト,0
2023,9013303008023,新規,0,2025-12-26,2025-12-26,宝泉合同会社,,合同会社,東京都,豊島区,北大塚３丁目１７番４号大塚スカイマンション２０４号室,,13,116,1700004,,,,,,,2025-12-26,1,,,,,ホウセン,0
2025,9020001166227,新規,0,2025-12-26,2025-12-26,株式会社トカ,,株式会社,神奈川県,川崎市宮前区,菅生５丁目３番４号ティフェレット１０２,,14,136,2160015,,,,,,,2025-12-26,1,,,,,トカ,0
2028,9021001087132,新規,0,2025-12-26,2025-12-26,リフォプロ株式会社,,株式会社,神奈川県,相模原市中央区,千代田２丁目２番１５号メイプル１９９０ビル１階,,14,152,2520237,,,,,,,2025-12-26,1,,,,,リフォプロ,0
2029,9021001087140,新規,0,2025-12-26,2025-12-26,株式会社ライフテックス,,株式会社,神奈川県,相模原市南区,御園４丁目９番１４号,,14,153,2520317,,,,,,,2025-12-26,1,,,,,ライフテックス,0
2030,9021001087149,新規,0,2025-12-26,2025-12-26,株式会社アンアーシング,,株式会社,神奈川県,相模原市中央区,横山３丁目９番１０号,,14,152,2520242,,,,,,,2025-12-26,1,,,,,アンアーシング,0
2033,9021003016956,新規,0,2025-12-26,2025-12-26,グッドウィル・エージェンシー合同会社,,合同会社,神奈川県,秦野市,尾尻３３８番地の１１９,,14,211,2570011,,,,,,,2025-12-26,1,,,,,グッドウィルエージェンシー,0
2034,9021005013506,新規,0,2025-12-26,2025-12-26,医療法人社団ＭＩＯ,,その他の設立登記法人,神奈川県,小田原市,栄町１丁目５番１６号オゾン２ビルＡ棟２階,,14,206,2500011,,,,,,,2025-12-26,1,,,,,ミオ,0
2045,9040001141962,新規,0,2025-12-26,2025-12-26,株式会社リブラコンサルティング,,株式会社,千葉県,松戸市,松戸１７４３－１－３０２,,12,207,2710092,,,,,,,2025-12-26,1,,,,,リブラコンサルティング,0
2050,9050001057794,新規,0,2025-12-26,2025-12-26,大千茂株式会社,,株式会社,茨城県,ひたちなか市,大字東石川３３７９番地２１６,,08,221,3120052,,,,,,,2025-12-26,1,,,,,ダイセンモ,0
2062,9070003006236,新規,0,2025-12-26,2025-12-26,合同会社Ｏｔｅｔｅ,,合同会社,群馬県,伊勢崎市,下道寺町４３７番地４,,10,204,3720843,,,,,,,2025-12-26,1,,,,,オテテ,0
2067,9080101025979,新規,0,2025-12-26,2025-12-26,椙箭緑化建設株式会社,,株式会社,静岡県,伊東市,池５８６番地の１,,22,208,4130234,,,,,,,2025-12-26,1,,,,,スギヤリョッカケンセツ,0
2074,9100003008534,新規,0,2025-12-26,2025-12-26,合同会社籏町,00142028,合同会社,長野県,松本市,大字里山辺３４２７番地１１,,20,202,3900221,,,,,,,2025-12-26,1,,,,,ハタマチ,0
2089,9120001282996,新規,0,2025-12-26,2025-12-26,南粤之光情報技術株式会社,,株式会社,大阪府,大阪市西成区,聖天下１丁目４番２９号３０３,,27,122,5570012,,,,,,,2025-12-26,1,,,,,ナンエツノヒカリジョウホウギジュツ,0
2094,9120003031575,新規,0,2025-12-26,2025-12-26,合同会社Ｓｔａｒ,,合同会社,大阪府,大阪市浪速区,恵美須西２丁目１４番２１－３０１号,,27,111,5560003,,,,,,,2025-12-26,1,,,,,スター,0
2096,9120103006915,新規,0,2025-12-26,2025-12-26,合同会社さくらＬＹＮＸ,,合同会社,大阪府,河内長野市,大矢船中町２８番３号,,27,216,5860075,,,,,,,2025-12-26,1,,,,,サクラリンクス,0
2098,9122005003866,新規,0,2025-12-26,2025-12-26,ＮＰＯ法人プレイス,,その他の設立登記法人,大阪府,東大阪市,小若江２丁目１４番１２号岡本文化住宅２０１号室,,27,227,5770818,,,,,,,2025-12-26,1,,,,,プレイス,0
2099,9130001081308,新規,0,2025-12-26,2025-12-26,株式会社パレット,,株式会社,京都府,京都市左京区,北白川西瀬ノ内町２－３－３０５,,26,103,6068255,,,,,,,2025-12-26,1,,,,,パレット,0
2114,9140003022944,新規,0,2025-12-26,2025-12-26,合同会社石堂,,合同会社,兵庫県,神戸市兵庫区,松原通５丁目１番６－３０４号,,28,105,6520881,,,,,,,2025-12-26,1,,,,,イシドウ,0
2115,9140003023001,新規,0,2025-12-26,2025-12-26,合同会社ＰＡＷＭＡＲＫ,,合同会社,兵庫県,尼崎市,杭瀬寺島１丁目５番６号,,28,202,6600813,,,,,,,2025-12-26,1,,,,,パウマーク,0
2120,9170001018925,新規,0,2025-12-26,2025-12-26,株式会社龍神自動車,,株式会社,和歌山県,田辺市,あけぼの３７番２０号,,30,206,6460021,,,,,,,2025-12-26,1,,,,,リュウジンジドウシャ,0
2128,9180001170064,新規,0,2025-12-26,2025-12-26,株式会社ＧＴＯ,,株式会社,愛知県,名古屋市瑞穂区,岳見町４丁目３５番地,,23,108,4670043,,,,,,,2025-12-26,1,,,,,ジーティーオー,0
2132,9180005021362,新規,0,2025-12-26,2025-12-26,医療法人エム,,その他の設立登記法人,愛知県,名古屋市中川区,法華２丁目５５番地,,23,110,4540933,,,,,,,2025-12-26,1,,,,,エム,0
2135,9180301040537,新規,0,2025-12-26,2025-12-26,バティール株式会社,,株式会社,愛知県,豊橋市,西幸町字笠松４１番地１,,23,201,4418113,,,,,,,2025-12-26,1,,,,,バティール,0
2136,9180301040545,新規,0,2025-12-26,2025-12-26,株式会社コジマ西端,,株式会社,愛知県,刈谷市,井ケ谷町池之浦８８番地,,23,210,4480001,,,,,,,2025-12-26,1,,,,,コジマニシバタ,0
2138,9190001032783,新規,0,2025-12-26,2025-12-26,株式会社明香山,,株式会社,三重県,四日市市,東富田町２１番１４号,,24,202,5108006,,,,,,,2025-12-26,1,,,,,ミョウコウザン,0
2141,9200005013836,新規,0,2025-12-26,2025-12-26,一般社団法人Ｂ‐ＮＡＰＳ,,その他の設立登記法人,岐阜県,瑞穂市,野田新田４１２５番地,,21,216,5010232,,,,,,,2025-12-26,1,,,,,ビーナップス,0
2146,9230001021220,新規,0,2025-12-26,2025-12-26,株式会社Ｒｅ　Ｆａｃｔｏｒｙ,,株式会社,富山県,富山市,呉羽町１５２８番地,,16,201,9300138,,,,,,,2025-12-26,1,,,,,リファクトリー,0
2158,9290001112666,新規,0,2025-12-26,2025-12-26,株式会社ＲＥＣＬＡＴ,,株式会社,福岡県,福岡市城南区,東油山１丁目３０－９,,40,136,8140155,,,,,,,2025-12-26,1,,,,,レクラット,0
2160,9290003017863,新規,0,2025-12-26,2025-12-26,合同会社ベステ,,合同会社,福岡県,福岡市博多区,博多駅前１丁目２３番２号,,40,132,8120011,,,,,,,2025-12-26,1,,,,,ベステ,0
2166,9320001021491,新規,0,2025-12-26,2025-12-26,Ｓｐｉｒｉｔ　Ｌｉｎｋ　ＪＡＰＡＮ株式会社,,株式会社,大分県,大分市,六坊北町３番１４号,,44,201,8700841,,,,,,,2025-12-26,1,,,,,スピリットリンクジャパン,0
2168,9340003005053,新規,0,2025-12-26,2025-12-26,合同会社ＦＬＡＧ,,合同会社,鹿児島県,鹿児島市,荒田２丁目３４－１４メゾンドール荒田２０６,,46,201,8900054,,,,,,,2025-12-26,1,,,,,フラッグ,0
2170,9350003005102,新規,0,2025-12-26,2025-12-26,合同会社かたちに,,合同会社,宮崎県,児湯郡高鍋町,大字北高鍋３４２７番地６,,45,401,8840002,,,,,,,2025-12-26,1,,,,,カタチニ,0
2171,9360005007343,新規,0,2025-12-26,2025-12-26,一般社団法人ズミスマイル,,その他の設立登記法人,沖縄県,宮古島市,平良字西仲宗根５６１番地,,47,214,9060006,,,,,,,2025-12-26,1,,,,,ズミスマイル,0
2173,9380001035775,新規,0,2025-12-26,2025-12-26,株式会社会津山塩,,株式会社,福島県,耶麻郡北塩原村,大字大塩字太田２番地,,07,402,9660402,,,,,,,2025-12-26,1,,,,,アイヅヤマジオ,0
2174,9390001018184,新規,0,2025-12-26,2025-12-26,Ｒｉｇｈｔ　Ｈｏｕｓｅ　Ｍａｎａｇｅｍｅｎｔ株式会社,,株式会社,山形県,山形市,蔵王温泉８９０番地２,,06,201,9902301,,,,,,,2025-12-26,1,,,,,ライトハウスマネジメント,0
2176,9390005009147,新規,0,2025-12-26,2025-12-26,特定非営利活動法人東北舞台芸術プロジェクト,,その他の設立登記法人,山形県,山形市,城南町１丁目１番１号霞城セントラル２階スタートアップステーション・ジョージ山形内,,06,201,9900827,,,,,,,2025-12-26,1,,,,,トウホクブタイゲイジュツプロジェクト,0
2180,9430001095954,新規,0,2025-12-26,2025-12-26,株式会社ＲＯＱＡ,,株式会社,北海道,札幌市中央区,南二条西３丁目１３－４カタオカビル３Ｆ,,01,101,0600062,,,,,,,2025-12-26,1,,,,,ロカ,0
2187,9450005004471,新規,0,2025-12-26,2025-12-26,一般社団法人ふらの森林協会,,その他の設立登記法人,北海道,富良野市,緑町１６番５２号,,01,229,0760021,,,,,,,2025-12-26,1,,,,,フラノシンリンキョウカイ,0
2191,9480001013044,新規,0,2025-12-26,2025-12-26,株式会社肉元,,株式会社,徳島県,鳴門市,撫養町南浜字大工野５３番地４,,36,202,7720003,,,,,,,2025-12-26,1,,,,,ニクゲン,0
