sequenceNumber,corporateNumber,process,correct,updateDate,changeDate,name,nameImageId,kind,prefectureName,cityName,streetNumber,addressImageId,prefectureCode,cityCode,postCode,addressOutside,addressOutsideImageId,closeDate,closeCause,successorCorporateNumber,changeCause,assignmentDate,latest,enName,enPrefectureName,enCityName,enAddressOutside,furigana,hihyoji
1,1010001024896,登記記録の閉鎖等,0,2023-03-23,2023-03-16,冬至ビル株式会社,,株式会社,東京都,千代田区,神田神保町２丁目１２番地４,,13,101,1010051,,,2023-03-16,清算の結了等,,,2015-10-05,1,,,,,トウジビル,0
23,1010405019658,登記記録の閉鎖等,0,2023-03-23,2023-03-09,一般社団法人Ｍｅｄｉｃａｌ　Ｍａｓｔｅｒｓ　Ｊａｐａｎ,,その他の設立登記法人,東京都,港区,虎ノ門１丁目１７番１号虎ノ門ヒルズビジネスタワー１４階,,13,103,1050001,,,2023-03-09,清算の結了等,,,2021-04-01,1,,,,,メディカルマスターズジャパン,0
32,1010901046321,登記記録の閉鎖等,0,2023-03-23,2023-03-13,株式会社スタッフマネジメント,,株式会社,東京都,世田谷区,下馬５丁目３９番１２号,,13,112,1540002,,,2023-03-13,清算の結了等,,,2020-06-03,1,,,,,スタッフマネジメント,0
35,1011001056392,登記記録の閉鎖等,0,2023-03-23,2023-03-22,Ｂ・Ｓ・ＣＲＥＷ株式会社,,株式会社,東京都,渋谷区,宇田川町３６番３号,,13,113,1500042,,,2023-03-22,清算の結了等,,,2015-10-05,1,,,,,ビーエスクルー,0
49,1011101065698,登記記録の閉鎖等,0,2023-03-23,2023-03-13,株式会社日本事務入力機構,,株式会社,埼玉県,さいたま市大宮区,宮町３丁目１３番２号,,11,103,3300802,,,2023-03-13,合併による解散等,2010403010642,令和５年３月１日東京都港区芝大門一丁目１０番１１号合同会社ジェイキャピタルクラブカンパニー（2010403010642）に合併し解散,2015-10-05,1,,,,,ニホンジムニュウリョクキコウ,0
50,1011101065772,登記記録の閉鎖等,0,2023-03-23,2023-03-01,株式会社就労支援,,株式会社,東京都,港区,芝大門１丁目１０番１１号,,13,103,1050012,,,2023-03-01,合併による解散等,2010403010642,令和５年３月１日東京都港区芝大門一丁目１０番１１号合同会社ジェイキャピタルクラブカンパニー（2010403010642）に合併し解散,2015-10-05,1,,,,,シュウロウシエン,0
64,1011702009772,登記記録の閉鎖等,0,2023-03-23,2023-03-20,有限会社藤田商事,,有限会社,東京都,江戸川区,松江７丁目１番６号,,13,123,1320025,,,2023-03-20,清算の結了等,,,2015-10-05,1,,,,,フジタショウジ,0
66,1012701013451,登記記録の閉鎖等,0,2023-03-23,2023-03-22,真和電設株式会社,,株式会社,東京都,東久留米市,本町１丁目２番２２号,,13,222,2030053,,,2023-03-22,清算の結了等,,,2015-11-27,1,,,,,シンワデンセツ,0
73,1020001045561,登記記録の閉鎖等,0,2023-03-23,2023-03-20,コムキューブ株式会社,,株式会社,島根県,松江市,美保関町北浦３１０番地,,32,201,6901221,,,2023-03-20,清算の結了等,,,2015-10-05,1,,,,,コムキューブ,0
81,1020002100729,登記記録の閉鎖等,0,2023-03-23,2023-03-20,有限会社ユーエム,,有限会社,神奈川県,川崎市高津区,北見方１丁目１０番１９－２号,,14,134,2130005,,,2023-03-20,清算の結了等,,,2015-10-05,1,,,,,ユーエム,0
112,1040003015577,登記記録の閉鎖等,0,2023-03-23,2023-03-17,合同会社Ａｌｌｉｎ,,合同会社,千葉県,千葉市花見川区,長作町７１５番地,,12,102,2620044,,,2023-03-17,清算の結了等,,,2020-06-22,1,,,,,オールイン,0
117,1050001020925,登記記録の閉鎖等,0,2023-03-23,2023-03-07,鹿島サンケン株式会社,,株式会社,茨城県,神栖市,矢田部８０７３番地,,08,232,3140341,,,2023-03-07,清算の結了等,,,2015-10-05,1,,,,,カシマサンケン,0
124,1070002025731,登記記録の閉鎖等,0,2023-03-23,2023-03-17,有限会社藤屋,,有限会社,群馬県,桐生市,新宿２丁目１０番７号,,10,203,3760006,,,2023-03-17,清算の結了等,,,2015-10-05,1,,,,,フジヤ,0
135,1120001017575,登記記録の閉鎖等,0,2023-03-23,2023-03-22,三協化成株式会社,,株式会社,大阪府,大阪市生野区,巽南５丁目１番１５号,00027364,27,116,5440015,,,2023-03-22,清算の結了等,,,2015-10-05,1,,,,,,0
153,1120102015395,登記記録の閉鎖等,0,2023-03-23,2023-03-20,有限会社ワダ工業,,有限会社,大阪府,大阪狭山市,東茱萸木４丁目１４２８番地,00046950,27,231,5890012,,,2023-03-20,清算の結了等,,,2015-10-05,1,,,,,ワダコウギョウ,0
179,1180003005275,登記記録の閉鎖等,0,2023-03-23,2023-03-09,合同会社宅見時計店,,合同会社,愛知県,名古屋市中区,栄１丁目５番８号,,23,106,4600008,,,2023-03-09,清算の結了等,,,2015-10-05,1,,,,,タクミトケイテン,0
183,1200001037895,登記記録の閉鎖等,0,2023-03-23,2023-03-22,株式会社Ｗｉｔｃｈ　Ｍｉｎｄ,,株式会社,岐阜県,羽島郡岐南町,徳田７丁目４４番地,,21,302,5016016,,,2023-03-22,清算の結了等,,,2020-10-06,1,,,,,ウィッチマインド,0
189,1240001043312,登記記録の閉鎖等,0,2023-03-23,2023-03-22,株式会社未希サービス,,株式会社,広島県,福山市,芦田町大字上有地４８８番地の２,00000639,34,207,7201261,,,2023-03-22,清算の結了等,,,2015-10-05,1,,,,,ミキサービス,0
212,1290002050253,登記記録の閉鎖等,0,2023-03-23,2023-03-17,有限会社山田興産,,有限会社,福岡県,久留米市,中央町１１番地の１２,,40,203,8300023,,,2023-03-17,清算の結了等,,,2015-10-05,1,,,,,ヤマダコウサン,0
230,1360003007988,登記記録の閉鎖等,0,2023-03-23,2023-03-14,合同会社学友館,,合同会社,沖縄県,宮古島市,平良字東仲宗根８８５番地１４,,47,214,9060007,,,2023-03-14,清算の結了等,,,2017-01-23,1,,,,,ガクユウカン,0
233,1370302002276,登記記録の閉鎖等,0,2023-03-23,2023-03-17,有限会社マルショー,,有限会社,宮城県,石巻市,流留字七勺９番地１３,,04,202,9862103,,,2023-03-17,清算の結了等,,,2015-10-05,1,,,,,マルショー,0
245,1430001013956,登記記録の閉鎖等,0,2023-03-23,2023-03-16,ビッグサービス株式会社,,株式会社,北海道,札幌市西区,西野三条５丁目３番１４号,,01,107,0630033,,,2023-03-16,清算の結了等,,,2015-10-05,1,,,,,ビッグサービス,0
254,1470001004101,登記記録の閉鎖等,0,2023-03-23,2023-03-15,屋島登山鉄道株式会社,,株式会社,香川県,高松市,屋島中町１４１番地,,37,201,7610112,,,2023-03-15,清算の結了等,,,2015-10-05,1,,,,,ヤシマトザンテツドウ,0
260,1500005003384,登記記録の閉鎖等,0,2023-03-23,2023-03-20,ＮＰＯ法人すたぁと,,その他の設立登記法人,愛媛県,大洲市,柚木１０３０番５,,38,207,7950011,,,2023-03-20,清算の結了等,,,2015-10-05,1,,,,,スタァト,0
267,2010001078446,登記記録の閉鎖等,0,2023-03-23,2023-03-16,プリヴェチューリッヒキャピタル株式会社,,株式会社,東京都,千代田区,霞が関３丁目２番５号,,13,101,1000013,,,2023-03-16,清算の結了等,,,2023-01-27,1,,,,,プリヴェチューリッヒキャピタル,0
268,2010001080096,登記記録の閉鎖等,0,2023-03-23,2023-03-16,トウホウシッピング株式会社,,株式会社,東京都,千代田区,丸の内２丁目３番２号,,13,101,1000005,,,2023-03-16,清算の結了等,,,2015-10-05,1,,,,,トウホウシッピング,0
272,2010001184269,登記記録の閉鎖等,0,2023-03-23,2023-03-13,株式会社南青山ビューティーコレクション,,株式会社,東京都,文京区,大塚３丁目３５番１号,00110560,13,105,1120012,,,2023-03-13,清算の結了等,,,2017-06-16,1,,,,,ミナミアオヤマビューティコレクション,0
320,2011001011702,登記記録の閉鎖等,0,2023-03-23,2023-03-17,杉本商事株式会社,,株式会社,東京都,渋谷区,広尾３丁目１番２２－２０２号,,13,113,1500012,,,2023-03-17,合併による解散等,2010401087484,令和５年３月７日東京都港区虎ノ門一丁目１番１０号株式会社アドラスト（2010401087484）に合併し解散,2015-10-05,1,,,,,スギモトショウジ,0
331,2011002014010,登記記録の閉鎖等,0,2023-03-23,2023-03-17,有限会社ロイヤル・ハイネス,,有限会社,東京都,渋谷区,元代々木町２６番５号,,13,113,1510062,,,2023-03-17,清算の結了等,,,2015-10-05,1,,,,,ロイヤルハイネス,0
334,2011101006239,登記記録の閉鎖等,0,2023-03-23,2023-03-13,株式会社＿蘭,00053682,株式会社,東京都,新宿区,西新宿１丁目２６番２号,,13,104,1600023,,,2023-03-13,清算の結了等,,,2015-10-05,1,,,,,エラン,0
335,2011101065301,登記記録の閉鎖等,0,2023-03-23,2023-03-01,株式会社ネット合説,,株式会社,東京都,港区,芝大門１丁目１０番１１号,,13,103,1050012,,,2023-03-01,合併による解散等,2010403010642,令和５年３月１日東京都港区芝大門一丁目１０番１１号合同会社ジェイキャピタルクラブカンパニー（2010403010642）に合併し解散,2015-10-05,1,,,,,ネットゴウセツ,0
357,2020001119166,登記記録の閉鎖等,0,2023-03-23,2023-03-07,株式会社パーセプションエンジン,,株式会社,東京都,品川区,北品川１丁目１２－１０,,13,109,1400001,,,2023-03-07,清算の結了等,,,2016-12-21,1,,,,,パーセプションエンジン,0
363,2020002006867,登記記録の閉鎖等,0,2023-03-23,2023-03-17,有限会社冨士塗装工業所,,有限会社,神奈川県,横浜市都筑区,大熊町１６番地６,,14,118,2240042,,,2023-03-17,清算の結了等,,,2015-10-05,1,,,,,フジトソウコウギョウショ,0
386,2030002065004,登記記録の閉鎖等,0,2023-03-23,2023-03-17,有限会社西川機工,,有限会社,埼玉県,朝霞市,膝折町４丁目２１番９号,,11,227,3510014,,,2023-03-17,清算の結了等,,,2015-10-05,1,,,,,,0
394,2040003012136,登記記録の閉鎖等,0,2023-03-23,2023-03-16,高崎合同会社,,合同会社,千葉県,千葉市中央区,登戸１丁目１番１７号２０１,,12,101,2600032,,,2023-03-16,清算の結了等,,,2018-09-06,1,,,,,タカサキ,0
397,2050001023555,登記記録の閉鎖等,0,2023-03-23,2023-03-06,株式会社ホーザン,,株式会社,茨城県,日立市,諏訪町１丁目１番４号,,08,202,3160001,,,2023-03-06,清算の結了等,,,2015-10-05,1,,,,,ホーザン,0
415,2110001032995,登記記録の閉鎖等,0,2023-03-23,2023-03-20,株式会社Ｒｅ・ＺＡＲＤ,,株式会社,新潟県,燕市,三王渕２５５番地１,,15,213,9591207,,,2023-03-20,清算の結了等,,,2018-02-08,1,,,,,,0
431,2120101026459,登記記録の閉鎖等,0,2023-03-23,2023-03-22,株式会社あゆみ,,株式会社,大阪府,大阪狭山市,今熊１丁目１１３５番地の１,,27,231,5890021,,,2023-03-22,清算の結了等,,,2015-10-05,1,,,,,アユミ,0
444,2130005009121,登記記録の閉鎖等,0,2023-03-23,2023-03-13,天理教錦大路分教会,,その他の設立登記法人,京都府,城陽市,寺田乾出北２番地２,,26,207,6100121,,,2023-03-13,合併による解散等,6010005000542,令和５年３月６日東京都千代田区神田錦町一丁目１１番地天理教錦江大教会（6010005000542）に合併し解散,2015-10-05,1,,,,,テンリキョウニシキオオジブンキョウカイ,0
456,2180001062689,登記記録の閉鎖等,0,2023-03-23,2023-03-08,株式会社クラッシー・ファミリーコンシェルジェ名古屋,,株式会社,愛知県,名古屋市中区,錦３丁目６番３５号,,23,106,4600003,,,2023-03-08,合併による解散等,4140001032693,令和５年３月１日兵庫県芦屋市松ノ内町３番１号株式会社クラッシー・ファミリーコンシェルジェ関西（4140001032693）に合併し解散,2015-10-05,1,,,,,クラッシーファミリーコンシェルジェナゴヤ,0
474,2220001000272,登記記録の閉鎖等,0,2023-03-23,2023-03-17,株式会社加賀鉄筋,,株式会社,石川県,金沢市,湊１丁目１１１番地,,17,201,9200211,,,2023-03-17,清算の結了等,,,2015-10-05,1,,,,,カガテッキン,0
490,2290001078402,登記記録の閉鎖等,0,2023-03-23,2023-03-09,株式会社七曲,,株式会社,福岡県,那珂川市,下梶原２丁目１２番１号,,40,231,8111222,,,2023-03-09,清算の結了等,,,2017-07-12,1,,,,,ナナマガリ,0
499,2330001021217,登記記録の閉鎖等,0,2023-03-23,2023-03-22,ＲｅＣｒｅａｔｅ株式会社,,株式会社,熊本県,熊本市東区,長嶺西２丁目２１番１０号,,43,102,8618037,,,2023-03-22,清算の結了等,,,2015-10-05,1,,,,,,0
525,2440001001579,登記記録の閉鎖等,0,2023-03-23,2023-03-13,中川商事株式会社,,株式会社,北海道,函館市,西桔梗町５８９番地の５１,,01,202,0410824,,,2023-03-13,清算の結了等,,,2015-10-05,1,,,,,ナカガワショウジ,0
560,3010403023008,登記記録の閉鎖等,0,2023-03-23,2023-03-13,Ａｒｔｒｅｅ合同会社,,合同会社,東京都,港区,浜松町２丁目２番１５号浜松町ダイヤビル２Ｆ,,13,103,1050013,,,2023-03-13,清算の結了等,,,2020-05-29,1,,,,,アートリー,0
561,3010403025771,登記記録の閉鎖等,0,2023-03-23,2023-03-13,Ａｒｋｏｓｅ　Ｌａｂｓ　Ｊａｐａｎ合同会社,,合同会社,東京都,港区,虎ノ門４丁目３番１号城山トラストタワー２１階,,13,103,1050001,,,2023-03-13,清算の結了等,,,2021-07-21,1,,,,,アーコスラボジャパン,0
565,3010801018732,登記記録の閉鎖等,0,2023-03-23,2023-03-15,株式会社アーチ,,株式会社,東京都,大田区,大森西３丁目１２番２５号,,13,111,1430015,,,2023-03-15,清算の結了等,,,2015-10-05,1,,,,,アーチ,0
566,3010901001068,登記記録の閉鎖等,0,2023-03-23,2023-03-20,株式会社イズタニケンゾウ事務所,,株式会社,東京都,世田谷区,深沢１丁目２４番１９号,,13,112,1580081,,,2023-03-20,清算の結了等,,,2015-10-05,1,,,,,イズタニケンゾウジムショ,0
567,3010901017915,登記記録の閉鎖等,0,2023-03-23,2023-03-20,でんらく株式会社,,株式会社,東京都,世田谷区,世田谷１丁目３０番１５号,,13,112,1540017,,,2023-03-20,清算の結了等,,,2015-10-05,1,,,,,,0
574,3010902019191,登記記録の閉鎖等,0,2023-03-23,2023-03-20,有限会社東京デリンス,,有限会社,東京都,世田谷区,成城９丁目２３番１５号,,13,112,1570066,,,2023-03-20,清算の結了等,,,2015-10-05,1,,,,,,0
582,3011001114784,登記記録の閉鎖等,0,2023-03-23,2023-03-22,株式会社Ａｔｈｌｅｔｅ　Ｐｏｗｅｒ,,株式会社,東京都,渋谷区,広尾１丁目７番２０号,,13,113,1500012,,,2023-03-22,清算の結了等,,,2017-02-08,1,,,,,,0
614,3012401007454,登記記録の閉鎖等,0,2023-03-23,2023-03-20,小の鉄工業株式会社,,株式会社,神奈川県,川崎市麻生区,上麻生４丁目４３番１６号,,14,137,2150021,,,2023-03-20,清算の結了等,,,2015-10-05,1,,,,,オノテツコウギョウ,0
623,3020005011715,登記記録の閉鎖等,0,2023-03-23,2023-03-20,協同組合橋梁・トンネル調査機構,,その他の設立登記法人,神奈川県,横浜市緑区,長津田町２９４２番地１,,14,113,2260026,,,2023-03-20,清算の結了等,,,2015-10-05,1,,,,,キョウリョウトンネルチョウサキコウ,0
644,3040003017241,登記記録の閉鎖等,0,2023-03-23,2023-03-16,合同会社Ｔａｄｐｏｌｅ,,合同会社,千葉県,長生郡長南町,佐坪１１３１ＫＩＺＵＮＡＨＯＭＥ２２０号,,12,427,2970145,,,2023-03-16,清算の結了等,,,2021-03-15,1,,,,,タッドポール,0
645,3050003003637,登記記録の閉鎖等,0,2023-03-23,2023-03-20,合同会社メディコーポレーション,,合同会社,茨城県,土浦市,西根西１丁目６－２３,,08,203,3000848,,,2023-03-20,清算の結了等,,,2017-03-09,1,,,,,,0
658,3110005008768,登記記録の閉鎖等,0,2023-03-23,2023-03-15,天理教名古浦分教会,,その他の設立登記法人,新潟県,上越市,中央４丁目２番１０号,,15,222,9420001,,,2023-03-15,合併による解散等,6110005008765,令和５年３月１５日新潟県上越市大町二丁目４番８号天理教名越分教会（6110005008765）に合併し解散,2015-10-05,1,,,,,,0
666,3120003008554,登記記録の閉鎖等,0,2023-03-23,2023-03-17,合同会社ＲＩＳＩＮＧ－ＦＩＴ０１,,合同会社,大阪府,大阪市西区,阿波座１丁目６番１号,,27,106,5500011,,,2023-03-17,清算の結了等,,,2015-10-05,1,,,,,,0
690,3180002083634,登記記録の閉鎖等,0,2023-03-23,2023-03-15,有限会社竹内自動車整備,,有限会社,愛知県,半田市,新居町４丁目２０番地,,23,205,4750039,,,2023-03-15,清算の結了等,,,2015-10-05,1,,,,,タケウチジドウシャセイビ,0
703,3240001033724,登記記録の閉鎖等,0,2023-03-23,2023-03-20,ハチダイヤ株式会社,,株式会社,広島県,福山市,新市町大字戸手６６２番地,,34,207,7293101,,,2023-03-20,清算の結了等,,,2015-10-05,1,,,,,ハチダイヤ,0
756,3470001017191,登記記録の閉鎖等,0,2023-03-23,2023-03-22,ＴＳＥ．株式会社,,株式会社,香川県,高松市,錦町２丁目４番２５－２０５号,,37,201,7600020,,,2023-03-22,清算の結了等,,,2018-12-11,1,,,,,ティーエスイー,0
770,4010001131624,登記記録の閉鎖等,0,2023-03-23,2023-03-16,ワイドリップル株式会社,,株式会社,東京都,千代田区,一番町３番地２,,13,101,1020082,,,2023-03-16,清算の結了等,,,2015-10-05,1,,,,,ワイドリップル,0
789,4010405016834,登記記録の閉鎖等,0,2023-03-23,2023-03-17,一般社団法人日本編集部,,その他の設立登記法人,神奈川県,鎌倉市,材木座５丁目９番６号,,14,204,2480013,,,2023-03-17,清算の結了等,,,2018-06-28,1,,,,,ニホンヘンシュウブ,0
805,4011101064061,登記記録の閉鎖等,0,2023-03-23,2023-03-01,株式会社ソシアルワードシェアリング,,株式会社,東京都,港区,芝大門１丁目１０番１１号,,13,103,1050012,,,2023-03-01,合併による解散等,2010403010642,令和５年３月１日東京都港区芝大門一丁目１０番１１号合同会社ジェイキャピタルクラブカンパニー（2010403010642）に合併し解散,2015-10-05,1,,,,,ソシアルワードシェアリング,0
815,4011402017016,登記記録の閉鎖等,0,2023-03-23,2023-03-20,有限会社原田エンジニアリング,,有限会社,東京都,板橋区,徳丸３丁目４１番１２－６０１号,,13,119,1750083,,,2023-03-20,清算の結了等,,,2015-10-05,1,,,,,,0
818,4011805000452,登記記録の閉鎖等,0,2023-03-23,2023-03-14,天理教本石金分教会,,その他の設立登記法人,東京都,葛飾区,金町３丁目３７番１６号,,13,122,1250042,,,2023-03-14,合併による解散等,5010005000452,令和５年３月１３日東京都文京区春日二丁目１３番９号天理教本石分教会（5010005000452）に合併し解散,2015-10-05,1,,,,,,0
840,4030001033595,登記記録の閉鎖等,0,2023-03-23,2023-03-14,株式会社ジェイピーセブン,,株式会社,埼玉県,羽生市,大字北荻島８４５番地１,,11,216,3480015,,,2023-03-14,清算の結了等,,,2015-10-05,1,,,,,ジェイピーセブン,0
844,4030002027506,登記記録の閉鎖等,0,2023-03-23,2023-03-20,有限会社鈴木電気,,有限会社,埼玉県,戸田市,笹目１丁目２９番地の２３,,11,224,3350034,,,2023-03-20,清算の結了等,,,2015-10-05,1,,,,,スズキデンキ,0
845,4030002044352,登記記録の閉鎖等,0,2023-03-23,2023-03-17,有限会社産立工業,,有限会社,埼玉県,草加市,中央２丁目１０番３－７０７号,,11,221,3400016,,,2023-03-17,清算の結了等,,,2015-10-05,1,,,,,サンリツコウギョウ,0
857,4040002074547,登記記録の閉鎖等,0,2023-03-23,2023-03-17,仲道商事有限会社,,有限会社,千葉県,市原市,徳氏５６５番地,,12,219,2900544,,,2023-03-17,清算の結了等,,,2015-10-05,1,,,,,ナカミチショウジ,0
910,4160001013139,登記記録の閉鎖等,0,2023-03-23,2023-03-20,株式会社ボーン・トゥ・ラン,,株式会社,滋賀県,草津市,北大萱町５４９番地の１,,25,206,5250016,,,2023-03-20,清算の結了等,,,2015-10-05,1,,,,,ボーントゥラン,0
914,4180001117144,登記記録の閉鎖等,0,2023-03-23,2023-03-20,株式会社ザ・ファクトリー,,株式会社,愛知県,名古屋市中区,丸の内３丁目５－３３,,23,106,4600002,,,2023-03-20,清算の結了等,,,2015-10-05,1,,,,,ザファクトリー,0
915,4180001144601,登記記録の閉鎖等,0,2023-03-23,2023-03-16,株式会社Ｍエクスプレス,,株式会社,愛知県,知多郡東浦町,大字森岡字岡田５４番地の３,,23,442,4702101,,,2023-03-16,清算の結了等,,,2021-01-29,1,,,,,エムエクスプレス,0
922,4190005009766,登記記録の閉鎖等,0,2023-03-23,2023-03-20,技術研究組合Ｌｉｇｎｏｐｈｅｎｏｌ＆Ｓｙｓｔｅｍｓ,,その他の設立登記法人,兵庫県,尼崎市,南七松町２丁目９番７号,,28,202,6600053,,,2023-03-20,清算の結了等,,,2015-10-05,1,,,,,リグノフェノールアンドシステムズ,0
923,4200001034353,登記記録の閉鎖等,0,2023-03-23,2023-03-22,郡上エネルギー株式会社,,株式会社,岐阜県,郡上市,八幡町小野９１番地１ＨＵＢＧＵＪＯ内,,21,219,5014221,,,2023-03-22,清算の結了等,,,2017-08-16,1,,,,,,0
939,4240002040529,登記記録の閉鎖等,0,2023-03-23,2023-03-22,有限会社幸,,有限会社,広島県,福山市,松永町４丁目１７番１８号,,34,207,7290104,,,2023-03-22,清算の結了等,,,2015-10-05,1,,,,,コウ,0
941,4240005014042,登記記録の閉鎖等,0,2023-03-23,2023-03-20,一般社団法人交通事故支援協会,,その他の設立登記法人,広島県,広島市西区,庚午北１丁目２５番２３号１Ｆ,,34,104,7330821,,,2023-03-20,清算の結了等,,,2015-11-24,1,,,,,コウツウジコシエンキョウカイ,0
942,4250001011703,登記記録の閉鎖等,0,2023-03-23,2023-03-20,株式会社ユウセイ,,株式会社,山口県,岩国市,麻里布町５丁目１５番２７号,,35,208,7400018,,,2023-03-20,清算の結了等,,,2015-10-05,1,,,,,,0
957,4290005001812,登記記録の閉鎖等,0,2023-03-23,2023-03-20,医療法人元友会,,その他の設立登記法人,福岡県,福岡市城南区,堤２丁目４番４５号,,40,136,8140151,,,2023-03-20,清算の結了等,,,2015-10-05,1,,,,,ゲンユウカイ,0
960,4290805004386,登記記録の閉鎖等,0,2023-03-23,2023-03-15,天理教永樂町分教会,,その他の設立登記法人,福岡県,北九州市八幡東区,宮田町１３番６号,,40,108,8050009,,,2023-03-15,合併による解散等,3290005012001,令和５年３月１５日福岡県みやま市瀬高町下庄８７１番地天理教瀬高町分教会（3290005012001）に合併し解散,2015-10-05,1,,,,,,0
964,4320003003113,登記記録の閉鎖等,0,2023-03-23,2023-03-22,ＭＥＳＡＮＡ合同会社,,合同会社,大分県,臼杵市,大字江無田１３８９番地の３,,44,206,8750023,,,2023-03-22,清算の結了等,,,2019-11-05,1,,,,,メサナ,0
975,4410002013541,登記記録の閉鎖等,0,2023-03-23,2023-03-16,有限会社ユーケンホーム,,有限会社,秋田県,横手市,安本字本田下７０番地８,,05,203,0130811,,,2023-03-16,清算の結了等,,,2015-10-05,1,,,,,ユーケンホーム,0
984,4480002013989,登記記録の閉鎖等,0,2023-03-23,2023-03-22,有限会社森グリーンサービス,,有限会社,徳島県,阿南市,新野町清貞９９番地３,,36,204,7791510,,,2023-03-22,清算の結了等,,,2015-10-05,1,,,,,モリグリーンサービス,0
1011,5010003030220,登記記録の閉鎖等,0,2023-03-23,2023-03-16,合同会社ｓｋｙ　ｈｏｕｓｅ,,合同会社,東京都,文京区,本郷３丁目２３番１０－４０１号ハイシティ文京,,13,105,1130033,,,2023-03-16,清算の結了等,,,2019-07-30,1,,,,,スカイハウス,0
1015,5010005030136,登記記録の閉鎖等,0,2023-03-23,2023-03-20,一般社団法人ｍｏｔｈｅｒ－ｌｉｎｅ,,その他の設立登記法人,東京都,中央区,銀座７丁目４番５号６Ｆ,,13,102,1040061,,,2023-03-20,清算の結了等,,,2019-05-10,1,,,,,マザーライン,0
1017,5010101008762,登記記録の閉鎖等,0,2023-03-23,2023-03-16,フロンティア株式会社,,株式会社,東京都,八王子市,越野２２番地１２－８０２号,,13,201,1920361,,,2023-03-16,清算の結了等,,,2015-10-05,1,,,,,フロンティア,0
1027,5010403026231,登記記録の閉鎖等,0,2023-03-23,2023-03-10,アジャイル・データセンター・ジャパン合同会社,,合同会社,東京都,港区,六本木６丁目１０番１号六本木ヒルズ森タワー,,13,103,1060032,,,2023-03-10,清算の結了等,,,2021-09-30,1,,,,,アジャイルデータセンタージャパン,0
1037,5010901002031,登記記録の閉鎖等,0,2023-03-23,2023-03-14,株式会社エム・ケー・エス,,株式会社,東京都,世田谷区,成城４丁目１９番２１号,,13,112,1570066,,,2023-03-14,合併による解散等,2010902007940,令和５年３月１日東京都世田谷区成城四丁目１９番２１号株式会社新和事務所（2010902007940）に合併し解散,2015-10-05,1,,,,,エムケーエス,0
1039,5010901020561,登記記録の閉鎖等,0,2023-03-23,2023-03-16,株式会社成田産,,株式会社,東京都,世田谷区,上馬２丁目２９番１６号,,13,112,1540011,,,2023-03-16,清算の結了等,,,2015-10-05,1,,,,,ナリタサン,0
1043,5010903006716,登記記録の閉鎖等,0,2023-03-23,2023-03-17,合同会社ＲＡＭＩ,,合同会社,東京都,世田谷区,奥沢７丁目４０－１６－３,,13,112,1580083,,,2023-03-17,清算の結了等,,,2021-08-06,1,,,,,ラミ,0
1056,5011101063335,登記記録の閉鎖等,0,2023-03-23,2023-03-01,株式会社就活あぷり,,株式会社,東京都,港区,芝大門１丁目１０番１１号,,13,103,1050012,,,2023-03-01,合併による解散等,2010403010642,令和５年３月１日東京都港区芝大門一丁目１０番１１号合同会社ジェイキャピタルクラブカンパニー（2010403010642）に合併し解散,2015-10-05,1,,,,,シュウカツアプリ,0
1058,5011103009162,登記記録の閉鎖等,0,2023-03-23,2023-03-20,森林再生ファンド３号合同会社,,合同会社,東京都,新宿区,四谷４丁目３２番８号ＹＫＢサニービル６階,,13,104,1600004,,,2023-03-20,清算の結了等,,,2019-10-09,1,,,,,シンリンサイセイファンドサンゴウ,0
1079,5020001149499,登記記録の閉鎖等,0,2023-03-23,2023-03-10,プロセス機器事業分割準備株式会社,,株式会社,神奈川県,川崎市中原区,中丸子１５０番地,,14,133,2110012,,,2023-03-10,合併による解散等,6050001041264,令和５年３月１日茨木県龍ケ崎市向陽台五丁目２番地ＡＩメカテック株式会社（6050001041264）に合併し解散,2022-12-21,1,,,,,プロセスキキジギョウブンカツジュンビ,0
1087,5021001058764,登記記録の閉鎖等,0,2023-03-23,2023-03-20,株式会社Ｌｉｎｋ　ｔｏ　Ｒｅａｌｉｔｙ,,株式会社,神奈川県,三浦郡葉山町,堀内１０５５－６,,14,301,2400112,,,2023-03-20,合併による解散等,1021001068560,令和５年２月２８日神奈川県三浦郡葉山町堀内１０５５番地の６株式会社ＴＨＥ　ＨＯＵＳＥ（1021001068560）に合併し解散,2016-03-15,1,,,,,,0
1097,5040001065703,登記記録の閉鎖等,0,2023-03-23,2023-03-16,株式会社シイナ,,株式会社,千葉県,柏市,花野井１８１４番地３８,,12,217,2770812,,,2023-03-16,清算の結了等,,,2015-10-05,1,,,,,シイナ,0
1098,5040001122727,登記記録の閉鎖等,0,2023-03-23,2023-03-14,株式会社Ｉ’ＬＬ　ＢＥ,,株式会社,千葉県,船橋市,咲が丘４丁目２５番２３号,,12,204,2740807,,,2023-03-14,清算の結了等,,,2022-03-23,1,,,,,アイルビー,0
1107,5080001008311,登記記録の閉鎖等,0,2023-03-23,2023-03-22,島崎タクシー株式会社,,株式会社,静岡県,静岡市清水区,港町１丁目２番２０号,,22,103,4240943,,,2023-03-22,清算の結了等,,,2015-10-05,1,,,,,,0
1112,5080401014347,登記記録の閉鎖等,0,2023-03-23,2023-03-20,株式会社東雲,,株式会社,静岡県,掛川市,伊達方３２３番地の１,,22,213,4360005,,,2023-03-20,清算の結了等,,,2015-10-05,1,,,,,シノノメ,0
1115,5100002005783,登記記録の閉鎖等,0,2023-03-23,2023-03-20,有限会社理容ヨコタ,,有限会社,長野県,長野市,大字三輪１２１５番地８,,20,201,3800803,,,2023-03-20,清算の結了等,,,2015-10-05,1,,,,,リヨウヨコタ,0
1117,5110005007289,登記記録の閉鎖等,0,2023-03-23,2023-03-13,彌勒寺,,その他の設立登記法人,新潟県,刈羽郡刈羽村,大字赤田町方９４１番地,,15,504,9450323,,,2023-03-13,合併による解散等,2110005006822,令和５年３月１３日新潟県柏崎市西山町坂田１３９５番地圓満寺（2110005006822）に合併し解散,2015-10-05,1,,,,,ミロクジ,0
1140,5120005005969,登記記録の閉鎖等,0,2023-03-23,2023-03-20,全国金物連合商業協同組合,,その他の設立登記法人,大阪府,大阪市淀川区,西中島５丁目１４の２２,,27,123,5320011,,,2023-03-20,清算の結了等,,,2015-10-05,1,,,,,ゼンコクカナモノレンゴウショウギョウ,0
1165,5130002021472,登記記録の閉鎖等,0,2023-03-23,2023-03-20,有限会社エコ蔵企画,,有限会社,京都府,京都市下京区,油小路通高辻上る太子山町６１０番地,00037675,26,106,6008469,,,2023-03-20,清算の結了等,,,2015-10-05,1,,,,,エコゾウキカク,0
1209,5320002016899,登記記録の閉鎖等,0,2023-03-23,2023-03-20,有限会社竹部石油店,,有限会社,大分県,佐伯市,弥生大字上小倉１０６５番地の１,,44,205,8760112,,,2023-03-20,清算の結了等,,,2015-10-05,1,,,,,タケベセキユテン,0
1244,5500003001931,登記記録の閉鎖等,0,2023-03-23,2023-03-22,合同会社ゴールドくるみヘルスケア,,合同会社,愛媛県,松山市,北条辻１９３番地１,00110335,38,201,7992430,,,2023-03-22,清算の結了等,,,2017-05-29,1,,,,,ゴールドクルミヘルスケア,0
1250,6010001102937,登記記録の閉鎖等,0,2023-03-23,2023-03-16,創健食品株式会社,,株式会社,東京都,中央区,東日本橋３丁目８番１号,,13,102,1030004,,,2023-03-16,清算の結了等,,,2015-10-05,1,,,,,ソウケンショクヒン,0
1283,6010701023672,登記記録の閉鎖等,0,2023-03-23,2023-03-20,株式会社ＢＬＵＥ　ＬＯＴＵＳ,,株式会社,東京都,品川区,北品川６丁目１番８号,,13,109,1410001,,,2023-03-20,清算の結了等,,,2015-10-05,1,,,,,ブルーロータス,0
1287,6010902005445,登記記録の閉鎖等,0,2023-03-23,2023-03-17,有限会社ケン・エンタープライズ,,有限会社,東京都,世田谷区,池尻１丁目９番１３号,,13,112,1540001,,,2023-03-17,清算の結了等,,,2015-10-05,1,,,,,,0
1303,6011101040845,登記記録の閉鎖等,0,2023-03-23,2023-03-20,株式会社ガラパゴ,,株式会社,東京都,新宿区,新宿１丁目１９番１０号,,13,104,1600022,,,2023-03-20,合併による解散等,7011101029937,令和５年３月２０日東京都新宿区新宿一丁目１９番１０号株式会社オプナムコーポレーション（7011101029937）に合併し解散,2015-10-05,1,,,,,ガラパゴ,0
1304,6011101063334,登記記録の閉鎖等,0,2023-03-23,2023-03-01,ジャパンインキュベーションサポート株式会社,,株式会社,東京都,港区,浜松町２丁目４番１号,,13,103,1050013,,,2023-03-01,合併による解散等,2010403010642,令和５年３月１日東京都港区芝大門一丁目１０番１１号合同会社ジェイキャピタルクラブカンパニー（2010403010642）に合併し解散,2015-10-05,1,,,,,ジャパンインキュベーションサポート,0
1305,6011101065545,登記記録の閉鎖等,0,2023-03-23,2023-03-01,株式会社インターンシップ比較ナビ,,株式会社,東京都,港区,芝大門１丁目１０番１１号,,13,103,1050012,,,2023-03-01,合併による解散等,2010403010642,令和５年３月１日東京都港区芝大門一丁目１０番１１号合同会社ジェイキャピタルクラブカンパニー（2010403010642）に合併し解散,2015-10-05,1,,,,,インターンシップヒカクナビ,0
1306,6011101088595,登記記録の閉鎖等,0,2023-03-23,2023-03-13,株式会社ＤＭＤ．ｉｎｃ,,株式会社,東京都,新宿区,西新宿１丁目８番１号,,13,104,1600023,,,2023-03-13,合併による解散等,2010403010642,令和５年３月１日東京都港区芝大門一丁目１０番１１号合同会社ジェイキャピタルクラブカンパニー（2010403010642）に合併し解散,2019-08-13,1,,,,,ディーエムディードットインク,0
1311,6011202001176,登記記録の閉鎖等,0,2023-03-23,2023-03-22,有限会社オーク編集工房,,有限会社,東京都,中野区,東中野１丁目２５番１０号,,13,114,1640003,,,2023-03-22,清算の結了等,,,2015-10-05,1,,,,,オークヘンシュウコウボウ,0
1329,6013101001595,登記記録の閉鎖等,0,2023-03-23,2023-03-17,リオン金属工業株式会社,,株式会社,東京都,西多摩郡瑞穂町,大字箱根ケ崎１３２３番地１,,13,303,1901221,,,2023-03-17,合併による解散等,3010101004466,令和５年１月１日東京都八王子市兵衛二丁目２２番２号リオンテクノ株式会社（3010101004466）に合併し解散,2015-10-05,1,,,,,リオンキンゾクコウギョウ,0
1339,6021001032132,登記記録の閉鎖等,0,2023-03-23,2023-03-13,株式会社強羅環翠楼,,株式会社,神奈川県,足柄下郡箱根町,強羅１３００番地の２０,,14,382,2500408,,,2023-03-13,合併による解散等,2010401061225,令和５年３月１日東京都港区虎ノ門二丁目３番１７号森トラスト・ホテルズ＆リゾーツ株式会社（2010401061225）に合併し解散,2015-10-05,1,,,,,ゴウラカンスイロウ,0
1364,6060001012256,登記記録の閉鎖等,0,2023-03-23,2023-03-17,株式会社セイユウ,,株式会社,栃木県,那須塩原市,一区町２８１番４１３,,09,213,3292732,,,2023-03-17,清算の結了等,,,2015-10-05,1,,,,,セイユウ,0
1370,6080401024295,登記記録の閉鎖等,0,2023-03-23,2023-03-20,ＭＯＤＥＦＡＢＲＩＫＥＮ株式会社,,株式会社,静岡県,磐田市,見付１１０８番地１０,,22,211,4380086,,,2023-03-20,清算の結了等,,,2020-05-08,1,"MODE FABRIKEN Co.,Ltd.",Shizuoka,"1108-10, Mitsuke, Iwata-shi, Shizuoka",,モードファブリーケン,0
1380,6120001215133,登記記録の閉鎖等,0,2023-03-23,2023-03-20,橙子家株式会社,,株式会社,大阪府,泉南市,樽井１丁目１１－５,,27,228,5900521,,,2023-03-20,清算の結了等,,,2018-08-06,1,,,,,トウシヤ,0
1388,6120005012824,登記記録の閉鎖等,0,2023-03-23,2023-03-20,枚方市西口公設市場商業協同組合,,その他の設立登記法人,大阪府,枚方市,伊加賀東町６番８号,,27,210,5730058,,,2023-03-20,清算の結了等,,,2015-10-05,1,,,,,ヒラカタシニシグチコウセツイチバ,0
1390,6120101035695,登記記録の閉鎖等,0,2023-03-23,2023-03-22,株式会社アプリコット,,株式会社,大阪府,富田林市,緑ケ丘町２番１０号,,27,214,5840026,,,2023-03-22,清算の結了等,,,2015-10-05,1,,,,,アプリコット,0
1409,6140001091696,登記記録の閉鎖等,0,2023-03-23,2023-03-17,株式会社ナンバーワンアソシエイツ,,株式会社,兵庫県,神戸市中央区,北長狭通４丁目１番１２号鯉川ビル,,28,110,6500012,,,2023-03-17,清算の結了等,,,2015-10-05,1,,,,,ナンバーワンアソシエイツ,0
1418,6170005006854,登記記録の閉鎖等,0,2023-03-23,2023-03-20,一般社団法人日本育児コンサルタント協会,,その他の設立登記法人,和歌山県,新宮市,下田２丁目３番２号,,30,207,6470042,,,2023-03-20,清算の結了等,,,2020-10-15,1,,,,,ニホンイクジコンサルタントキョウカイ,0
1423,6180002052355,登記記録の閉鎖等,0,2023-03-23,2023-03-20,有限会社東海青果,,有限会社,愛知県,西春日井郡豊山町,大字豊場字八反１０７番地,,23,342,4800202,,,2023-03-20,合併による解散等,3180001052326,令和５年３月２０日愛知県西春日井郡豊山町大字豊場字八反１０７番地株式会社東果（3180001052326）に合併し解散,2015-10-05,1,,,,,トウカイセイカ,0
1436,6240001053851,登記記録の閉鎖等,0,2023-03-23,2023-03-22,株式会社フジデン,,株式会社,広島県,広島市西区,井口台３丁目１６番６号,,34,104,7330844,,,2023-03-22,清算の結了等,,,2019-01-29,1,,,,,フジデン,0
1455,6330002013440,登記記録の閉鎖等,0,2023-03-23,2023-03-20,有限会社オルテスト,,有限会社,熊本県,熊本市東区,若葉６丁目１２番８３－６号,,43,102,8612103,,,2023-03-20,清算の結了等,,,2015-10-05,1,,,,,オルテスト,0
1467,6400005000008,登記記録の閉鎖等,0,2023-03-23,2023-03-20,東北農業研究センター消費生活協同組合,,その他の設立登記法人,岩手県,盛岡市,下厨川字赤平４番地,,03,201,0200123,,,2023-03-20,清算の結了等,,,2015-10-05,1,,,,,トウホクノウギョウケンキュウセンター,0
1471,6420001005371,登記記録の閉鎖等,0,2023-03-23,2023-03-13,株式会社フレンド,,株式会社,青森県,青森市,浪岡大字女鹿沢字東早稲田４２番地２,,02,201,0381331,,,2023-03-13,清算の結了等,,,2015-10-05,1,,,,,フレンド,0
1476,6430005005879,登記記録の閉鎖等,0,2023-03-23,2023-03-15,医療法人社団千誠会千歳佐藤整形外科医院,,その他の設立登記法人,北海道,千歳市,新富１丁目２番８号,,01,224,0660037,,,2023-03-15,清算の結了等,,,2015-10-05,1,,,,,チセイカイチトセサトウセイケイゲカイイン,0
1483,7010001120715,登記記録の閉鎖等,0,2023-03-23,2023-03-16,株式会社エムアンドメッツ,,株式会社,東京都,中央区,八丁堀４丁目９番４号,,13,102,1040032,,,2023-03-16,清算の結了等,,,2015-10-05,1,,,,,エムアンドメッツ,0
1499,7010401013535,登記記録の閉鎖等,0,2023-03-23,2023-03-09,株式会社芝福,00050609,株式会社,東京都,港区,三田５丁目１７番１２号,,13,103,1080073,,,2023-03-09,清算の結了等,,,2015-10-05,1,,,,,シバフク,0
1502,7010401025480,登記記録の閉鎖等,0,2023-03-23,2023-03-10,株式会社フィーゴ,,株式会社,東京都,港区,北青山２丁目９番５号,,13,103,1070061,,,2023-03-10,合併による解散等,5011001070365,令和５年３月１日東京都港区北青山二丁目９番５号株式会社ユニオンゲートグループ（5011001070365）に合併し解散,2015-10-05,1,,,,,フィーゴ,0
1515,7010901004166,登記記録の閉鎖等,0,2023-03-23,2023-03-17,小島アルミ株式会社,,株式会社,東京都,世田谷区,下馬６丁目２４番９号,,13,112,1540002,,,2023-03-17,清算の結了等,,,2015-10-05,1,,,,,コジマアルミ,0
1546,7012801020664,登記記録の閉鎖等,0,2023-03-23,2023-03-16,株式会社ＫＳ　ｓｔｙｌｅ,,株式会社,東京都,立川市,柴崎町３丁目５番１１号辰午ビル３Ｆ,,13,202,1900023,,,2023-03-16,清算の結了等,,,2021-02-18,1,,,,,ケイエススタイル,0
1548,7013301040756,登記記録の閉鎖等,0,2023-03-23,2023-03-01,ＦＬＣキャピタル株式会社,,株式会社,東京都,港区,六本木１丁目６番１号泉ガーデンタワー,,13,103,1060032,,,2023-03-01,合併による解散等,5010401089032,令和５年２月２８日東京都港区六本木一丁目６番１号泉ガーデンタワー、パシフィック・アセット・マネジメント株式会社（5010401089032）に合併し解散,2017-06-28,1,,,,,エフエルシーキャピタル,0
1561,7020005009755,登記記録の閉鎖等,0,2023-03-23,2023-03-20,一般社団法人ＣＥＰＡジャパン,,その他の設立登記法人,東京都,千代田区,九段北１丁目２－１九段中央ビル８０１号税理士法人魁内,,13,101,1020073,,,2023-03-20,清算の結了等,,,2015-10-05,1,,,,,セパジャパン,0
1562,7020005014004,登記記録の閉鎖等,0,2023-03-23,2023-03-13,一般社団法人ＬＩＶＥ　ｉｎ　Ｆｕｔｕｒｅ,,その他の設立登記法人,神奈川県,川崎市中原区,新丸子東２丁目８９０－１パークキューブ武蔵小杉３１２,,14,133,2110004,,,2023-03-13,清算の結了等,,,2019-01-10,1,,,,,リブインフューチャー,0
1568,7021003004987,登記記録の閉鎖等,0,2023-03-23,2023-03-20,合同会社ニタカ,,合同会社,神奈川県,厚木市,中町２丁目１番２３号,,14,212,2430018,,,2023-03-20,清算の結了等,,,2015-10-05,1,,,,,ニタカ,0
1590,7040001077085,登記記録の閉鎖等,0,2023-03-23,2023-03-15,株式会社オーユー設計,,株式会社,千葉県,市川市,中国分４丁目６番１７号,,12,203,2720835,,,2023-03-15,清算の結了等,,,2015-10-05,1,,,,,,0
1603,7090002011113,登記記録の閉鎖等,0,2023-03-23,2023-03-20,有限会社Ｌ,,有限会社,山梨県,甲府市,中央１丁目１２番４２号,,19,201,4000032,,,2023-03-20,合併による解散等,1120001132969,令和５年３月１７日大阪市中央区鎗屋町一丁目１番１号愛知ビル３階株式会社蔵王（1120001132969）に合併し解散,2015-10-05,1,,,,,エル,0
1606,7100002000477,登記記録の閉鎖等,0,2023-03-23,2023-03-20,有限会社いづなやコイケ,,有限会社,長野県,長野市,南千歳２丁目１４番地９,,20,201,3800823,,,2023-03-20,清算の結了等,,,2015-10-05,1,,,,,イヅナヤコイケ,0
1607,7100002032743,登記記録の閉鎖等,0,2023-03-23,2023-03-20,有限会社倉田塗装,,有限会社,長野県,伊那市,西町４９７７番地,,20,209,3960026,,,2023-03-20,清算の結了等,,,2015-10-05,1,,,,,クラタトソウ,0
1610,7110001021655,登記記録の閉鎖等,0,2023-03-23,2023-03-20,パルターニアン株式会社,,株式会社,新潟県,糸魚川市,寺町３丁目８番３３号,,15,216,9410058,,,2023-03-20,清算の結了等,,,2015-10-05,1,,,,,パルターニアン,0
1635,7120005000150,登記記録の閉鎖等,0,2023-03-23,2023-03-13,天理教桑園分教会,,その他の設立登記法人,大阪府,大阪市東住吉区,東田辺３丁目９番１号,,27,121,5460032,,,2023-03-13,合併による解散等,5122005000727,令和５年３月１０日大阪府東大阪市菱屋西一丁目３番３６号天理教桃園分教会（5122005000727）に合併し解散,2015-10-05,1,,,,,テンリキョウクワゾノブンキョウカイ,0
1638,7120101030712,登記記録の閉鎖等,0,2023-03-23,2023-03-22,泉機工株式会社,,株式会社,大阪府,堺市北区,新金岡町３丁１番１５－１０５号,,27,146,5918021,,,2023-03-22,清算の結了等,,,2015-10-05,1,,,,,イズミキコウ,0
1652,7130002034670,登記記録の閉鎖等,0,2023-03-23,2023-03-14,有限会社みどり印刷,,有限会社,京都府,舞鶴市,溝尻町３７番地の２４,,26,202,6250042,,,2023-03-14,清算の結了等,,,2015-10-05,1,,,,,ミドリインサツ,0
1653,7130002034704,登記記録の閉鎖等,0,2023-03-23,2023-03-16,有限会社山石,,有限会社,京都府,舞鶴市,字吉坂５７７番地,,26,202,6250011,,,2023-03-16,合併による解散等,4210001014123,令和５年３月１日大阪市生野区中川六丁目１３番１９号平成建設株式会社（4210001014123）に合併し解散,2015-10-05,1,,,,,ヤマイシ,0
1662,7150001011363,登記記録の閉鎖等,0,2023-03-23,2023-03-09,株式会社優結,,株式会社,奈良県,磯城郡川西町,大字結崎７０３番地の１,,29,361,6360202,,,2023-03-09,清算の結了等,,,2015-10-05,1,,,,,ユウユウ,0
1665,7170002010783,登記記録の閉鎖等,0,2023-03-23,2023-03-22,有限会社ケイ・オフィス,,有限会社,和歌山県,橋本市,学文路１３６番地の１,,30,203,6480043,,,2023-03-22,清算の結了等,,,2015-10-05,1,,,,,ケイオフィス,0
1666,7180001073847,登記記録の閉鎖等,0,2023-03-23,2023-03-15,株式会社オクト住建,,株式会社,愛知県,春日井市,東野町２丁目９番地の７,,23,206,4860817,,,2023-03-15,清算の結了等,,,2015-10-05,1,,,,,オクトジュウケン,0
1667,7180001088721,登記記録の閉鎖等,0,2023-03-23,2023-03-15,株式会社壽屋,,株式会社,愛知県,名古屋市昭和区,花見通１丁目５番１０号,,23,107,4660831,,,2023-03-15,清算の結了等,,,2015-10-05,1,,,,,コトブキヤ,0
1676,7190001011211,登記記録の閉鎖等,0,2023-03-23,2023-03-20,株式会社イツトモ,,株式会社,三重県,度会郡大紀町,神原３番地,,24,471,5192735,,,2023-03-20,清算の結了等,,,2015-10-05,1,,,,,イツトモ,0
1688,7240001019430,登記記録の閉鎖等,0,2023-03-23,2023-03-20,株式会社地川建築企画,,株式会社,広島県,広島市佐伯区,五日市町大字石内字沖田１０４２番地１,,34,108,7315102,,,2023-03-20,清算の結了等,,,2015-10-05,1,,,,,チガワケンチクキカク,0
1692,7240005003554,登記記録の閉鎖等,0,2023-03-23,2023-03-08,医療法人社団樹章会,,その他の設立登記法人,広島県,東広島市,西条岡町８番１３号,,34,212,7390016,,,2023-03-08,合併による解散等,1010005004837,令和５年３月１日千葉県柏市小青田一丁目３番地１２医療法人社団葵会（1010005004837）に合併し解散,2015-10-05,1,,,,,ジュショウカイ,0
1694,7250002012037,登記記録の閉鎖等,0,2023-03-23,2023-03-17,有限会社一期一会,,有限会社,山口県,下関市,新垢田北町６番１６号,,35,201,7510845,,,2023-03-17,清算の結了等,,,2015-10-05,1,,,,,イチゴイチエ,0
1706,7290001085765,登記記録の閉鎖等,0,2023-03-23,2023-03-17,株式会社オールワン福岡,,株式会社,福岡県,福岡市早良区,田村４丁目３番２４号,,40,137,8140175,,,2023-03-17,清算の結了等,,,2019-07-09,1,,,,,オールワンフクオカ,0
1732,7430003009922,登記記録の閉鎖等,0,2023-03-23,2023-03-16,ＲＵＨＩ合同会社,,合同会社,北海道,札幌市東区,北四十六条東１９丁目４番１０－１０７,,01,103,0070846,,,2023-03-16,清算の結了等,,,2018-11-29,1,,,,,ルヒ,0
1738,7460002005630,登記記録の閉鎖等,0,2023-03-23,2023-03-20,有限会社９４６Ｓｋｙファーム,,有限会社,北海道,釧路市,新野１８９番地４,,01,206,0840925,,,2023-03-20,清算の結了等,,,2015-10-05,1,,,,,クシロスカイファーム,0
1758,8010401067753,登記記録の閉鎖等,0,2023-03-23,2023-03-10,三菱オートリース・ホールディング株式会社,,株式会社,東京都,港区,芝５丁目３４番７号,,13,103,1080014,,,2023-03-10,合併による解散等,2010401028728,令和５年３月９日東京都港区芝五丁目３４番７号三菱オートリース株式会社（2010401028728）に合併し解散,2015-10-05,1,,,,,ミツビシオートリースホールディング,0
1804,8013303005467,登記記録の閉鎖等,0,2023-03-23,2023-03-13,合同会社ＤＫＳ,,合同会社,東京都,豊島区,東池袋１丁目１７番１１号パークハイツ池袋１１０５号,,13,116,1700013,,,2023-03-13,清算の結了等,,,2021-01-06,1,,,,,ディーケーエス,0
1814,8021001032337,登記記録の閉鎖等,0,2023-03-23,2023-03-20,株式会社岩田商店,,株式会社,神奈川県,小田原市,飯田岡５０番地７,,14,206,2500854,,,2023-03-20,清算の結了等,,,2015-10-05,1,,,,,,0
1834,8050001013245,登記記録の閉鎖等,0,2023-03-23,2023-03-16,株式会社イーパル,,株式会社,茨城県,土浦市,真鍋１丁目１６番１１号,,08,203,3000051,,,2023-03-16,清算の結了等,,,2015-10-05,1,,,,,,0
1846,8060002036203,登記記録の閉鎖等,0,2023-03-23,2023-03-17,有限会社コンビニエンス和泉,,有限会社,栃木県,足利市,西砂原後町１１７７番地１,,09,202,3260065,,,2023-03-17,清算の結了等,,,2015-10-05,1,,,,,コンビニエンスイズミ,0
1849,8080103002291,登記記録の閉鎖等,0,2023-03-23,2023-03-15,ＫＭＭ合同会社,,合同会社,静岡県,裾野市,今里５９番地の１７,,22,220,4101104,,,2023-03-15,清算の結了等,,,2021-02-03,1,,,,,ケーエムエム,0
1852,8080402002892,登記記録の閉鎖等,0,2023-03-23,2023-03-10,有限会社弘和自動車,,有限会社,静岡県,浜松市南区,参野町３５０番地の１,,22,134,4300816,,,2023-03-10,清算の結了等,,,2015-10-05,1,,,,,コウワジドウシャ,0
1860,8120001028401,登記記録の閉鎖等,0,2023-03-23,2023-03-20,大阪物産株式会社,,株式会社,大阪府,大阪市大正区,南恩加島１丁目９番３号,,27,108,5510021,,,2023-03-20,清算の結了等,,,2015-10-05,1,,,,,オオサカブッサン,0
1868,8120001123821,登記記録の閉鎖等,0,2023-03-23,2023-03-20,株式会社シナジー,,株式会社,大阪府,箕面市,西宿３丁目８番２１号,,27,220,5620034,,,2023-03-20,清算の結了等,,,2015-10-05,1,,,,,シナジー,0
1875,8120001224553,登記記録の閉鎖等,0,2023-03-23,2023-03-20,益豐達国際株式会社,00117989,株式会社,石川県,金沢市,東力２丁目３６－７,,17,201,9218015,,,2023-03-20,清算の結了等,,,2019-10-21,1,,,,,マスホウタツコクサイ,0
1918,8180002067145,登記記録の閉鎖等,0,2023-03-23,2023-03-17,有限会社福長商店,,有限会社,愛知県,春日井市,前並町１丁目８番地の１１,,23,206,4860903,,,2023-03-17,清算の結了等,,,2015-10-05,1,,,,,フクチョウショウテン,0
1919,8180002085444,登記記録の閉鎖等,0,2023-03-23,2023-03-17,有限会社トーエイ工業,,有限会社,愛知県,知多郡東浦町,大字石浜字片山３８番地の１,,23,442,4702103,,,2023-03-17,清算の結了等,,,2015-10-05,1,,,,,トーエイコウギョウ,0
1947,8330005009590,登記記録の閉鎖等,0,2023-03-23,2023-03-22,一般社団法人いばちょ,,その他の設立登記法人,熊本県,菊池市,隈府３６４番地１２,,43,210,8611331,,,2023-03-22,清算の結了等,,,2017-01-16,1,,,,,,0
1953,8360003011785,登記記録の閉鎖等,0,2023-03-23,2023-03-13,合同会社ＯｃｅａｎＢｒｅｅｚｅ,,合同会社,沖縄県,中頭郡読谷村,字大木８１番地ステラなごみ３０２号室,,47,324,9040316,,,2023-03-13,清算の結了等,,,2022-02-07,1,,,,,オーシャンブリーズ,0
1957,8370302002162,登記記録の閉鎖等,0,2023-03-23,2023-03-17,有限会社丸昭運輸,,有限会社,宮城県,石巻市,流留字七勺９番地１３,,04,202,9862103,,,2023-03-17,清算の結了等,,,2015-10-05,1,,,,,マルショウウンユ,0
1972,9010001024740,登記記録の閉鎖等,0,2023-03-23,2023-03-10,株式会社トラベルエキスパーツ,,株式会社,東京都,千代田区,九段南３丁目４番１５号,,13,101,1020074,,,2023-03-10,清算の結了等,,,2023-01-04,1,,,,,トラベルエキスパーツ,0
1976,9010001224027,登記記録の閉鎖等,0,2023-03-23,2023-03-16,株式会社ＡＲ７,,株式会社,東京都,中央区,銀座１丁目８番１９号,,13,102,1040061,,,2023-03-16,清算の結了等,,,2022-01-26,1,,,,,エーアールセブン,0
2002,9010602033446,登記記録の閉鎖等,0,2023-03-23,2023-03-16,有限会社トーヤマ,,有限会社,東京都,墨田区,亀沢２丁目１８番３号,,13,107,1300014,,,2023-03-16,清算の結了等,,,2015-10-05,1,,,,,トーヤマ,0
2015,9011101096554,登記記録の閉鎖等,0,2023-03-23,2023-03-17,ＡＥＤ　Ｈｏｔｅｌｓ　Ｊａｐａｎ株式会社,,株式会社,東京都,品川区,荏原７丁目４番１４号,,13,109,1420063,,,2023-03-17,清算の結了等,,,2021-10-13,1,,,,,エーイーディーホテルズジャパン,0
2024,9011402004876,登記記録の閉鎖等,0,2023-03-23,2023-03-20,有限会社寿司光,,有限会社,東京都,板橋区,蓮根２丁目３番９号,00055185,13,119,1740046,,,2023-03-20,清算の結了等,,,2015-10-05,1,,,,,スシミツ,0
2029,9011802007421,登記記録の閉鎖等,0,2023-03-23,2023-03-16,有限会社マルヤマプロセス印刷,,有限会社,東京都,葛飾区,西水元１丁目１４番２号,,13,122,1250031,,,2023-03-16,清算の結了等,,,2023-01-19,1,,,,,マルヤマプロセスインサツ,0
2030,9011802024417,登記記録の閉鎖等,0,2023-03-23,2023-03-20,有限会社スーパーかわな,,有限会社,東京都,足立区,扇１丁目２６番２６号,,13,121,1230873,,,2023-03-20,清算の結了等,,,2015-10-05,1,,,,,スーパーカワナ,0
2045,9020001085625,登記記録の閉鎖等,0,2023-03-23,2023-03-17,株式会社プロテックス２４,,株式会社,東京都,町田市,中町１丁目１８番１６号,,13,209,1940021,,,2023-03-17,清算の結了等,,,2015-10-05,1,,,,,プロテックス,0
2057,9030001134331,登記記録の閉鎖等,0,2023-03-23,2023-03-20,株式会社一隅,,株式会社,埼玉県,春日部市,赤沼７０８番地４,,11,214,3440015,,,2023-03-20,清算の結了等,,,2019-12-17,1,,,,,イチグウ,0
2059,9030002017634,登記記録の閉鎖等,0,2023-03-23,2023-03-20,有限会社イチエ企画,,有限会社,埼玉県,さいたま市緑区,宮本２丁目１３番地１５,,11,109,3360916,,,2023-03-20,清算の結了等,,,2015-10-05,1,,,,,イチエキカク,0
2083,9120001061021,登記記録の閉鎖等,0,2023-03-23,2023-03-16,株式会社上杉機械製作所,,株式会社,大阪府,大阪市北区,（大阪市大淀区大淀南三丁目４番８号）,,27,127,5300000,,,2023-03-16,清算の結了等,,,2015-10-05,1,,,,,ウエスギキカイセイサクジョ,1
2088,9120001163024,登記記録の閉鎖等,0,2023-03-23,2023-03-22,株式会社ファインバス,,株式会社,大阪府,大阪市北区,中之島３丁目３番２３号,,27,127,5300005,,,2023-03-22,清算の結了等,,,2015-10-05,1,,,,,,0
2116,9180002057153,登記記録の閉鎖等,0,2023-03-23,2023-03-15,有限会社光工業,,有限会社,愛知県,名古屋市中川区,蔦元町１丁目１７番地,,23,110,4540824,,,2023-03-15,清算の結了等,,,2015-10-05,1,,,,,ヒカリコウギョウ,0
2117,9180302026543,登記記録の閉鎖等,0,2023-03-23,2023-03-13,有限会社米津青果卸売市場,,有限会社,愛知県,西尾市,米津町仲之畑３０番地１,,23,213,4450802,,,2023-03-13,清算の結了等,,,2015-10-05,1,,,,,ヨネヅセイカオロシウリシジョウ,0
2125,9240001057882,登記記録の閉鎖等,0,2023-03-23,2023-03-22,アスリート福山株式会社,,株式会社,広島県,福山市,御幸町大字中津原９８２番地２,,34,207,7200004,,,2023-03-22,清算の結了等,,,2021-04-28,1,,,,,アスリートフクヤマ,0
2128,9290001078627,登記記録の閉鎖等,0,2023-03-23,2023-03-16,株式会社Ｂｏｕｑｕｅｔ　ｄｅ　Ｐｒｉｎｔｅｍｐｓ,,株式会社,福岡県,福岡市中央区,天神２丁目３番１０号,,40,133,8100001,,,2023-03-16,清算の結了等,,,2017-08-04,1,,,,,ブーケットデプリンテンプス,0
2144,9340001013396,登記記録の閉鎖等,0,2023-03-23,2023-03-22,なかはら整骨院株式会社,,株式会社,鹿児島県,鹿児島市,慈眼寺町５番１１号,,46,201,8910146,,,2023-03-22,清算の結了等,,,2015-10-05,1,,,,,,0
2145,9340001023032,登記記録の閉鎖等,0,2023-03-23,2023-03-14,株式会社ＡｉＮＥＸＴ,,株式会社,鹿児島県,鹿児島市,加治屋町１２－１１ＭＡＸ　ＢＬＤＧ．５Ｆ,,46,201,8920846,,,2023-03-14,合併による解散等,5011001121696,令和５年３月１日東京都渋谷区上原一丁目４７番８号藤本ビル２Ｆバズエリア株式会社（5011001121696）に合併し解散,2020-07-31,1,,,,,アイネクスト,0
2148,9370002007188,登記記録の閉鎖等,0,2023-03-23,2023-03-20,有限会社共栄自動車鈑金塗装工業所,,有限会社,宮城県,仙台市宮城野区,日の出町３丁目４番３２号,,04,102,9830035,,,2023-03-20,清算の結了等,,,2015-10-05,1,,,,,キョウエイジドウシャバンキントソウコウギョウショ,0
