sequenceNumber,corporateNumber,process,correct,updateDate,changeDate,name,nameImageId,kind,prefectureName,cityName,streetNumber,addressImageId,prefectureCode,cityCode,postCode,addressOutside,addressOutsideImageId,closeDate,closeCause,successorCorporateNumber,changeCause,assignmentDate,latest,enName,enPrefectureName,enCityName,enAddressOutside,furigana,hihyoji
9,1010001229586,新規,0,2022-09-22,2022-09-22,株式会社ユーティリティ,,株式会社,東京都,中央区,月島１丁目５番１,,13,102,1040052,,,,,,,2022-09-22,1,,,,,ユーティリティ,0
11,1010003038696,新規,0,2022-09-22,2022-09-22,合同会社カーチスファンド５号,,合同会社,東京都,千代田区,紀尾井町４番１号新紀尾井町ビル２Ｆ,,13,101,1020094,,,,,,,2022-09-22,1,,,,,カーチスファンドゴゴウ,0
13,1010101015333,新規,0,2022-09-22,2022-09-22,株式会社セラス,,株式会社,東京都,八王子市,上恩方町１５８,,13,201,1920156,,,,,,,2022-09-22,1,,,,,セラス,0
24,1010401169812,新規,0,2022-09-22,2022-09-22,株式会社ウェルズゴルフマネージメント,,株式会社,東京都,港区,虎ノ門１丁目１番２０号虎ノ門実業会館,,13,103,1050001,,,,,,,2022-09-22,1,,,,,ウェルズゴルフマネージメント,0
25,1010401169829,新規,0,2022-09-22,2022-09-22,優品国際株式会社,,株式会社,東京都,港区,白金台２丁目２６番９号,,13,103,1080071,,,,,,,2022-09-22,1,,,,,ヨーピンインターナショナル,0
26,1010401169837,新規,0,2022-09-22,2022-09-22,株式会社ＷＫＡ,,株式会社,東京都,港区,南青山２丁目２番１５号,,13,103,1070062,,,,,,,2022-09-22,1,,,,,ダブリューケーエー,0
30,1010603009733,新規,0,2022-09-22,2022-09-22,テックウィズ合同会社,,合同会社,東京都,江東区,塩浜２丁目１７－７,,13,108,1350043,,,,,,,2022-09-22,1,,,,,テックウィズ,0
33,1010701043246,新規,0,2022-09-22,2022-09-22,株式会社Ｆｕｎ　ａｎｄ　Ｈｅａｌｔｈ,,株式会社,東京都,品川区,中延３丁目２番１５号パビリオン福田２Ｆ,,13,109,1420053,,,,,,,2022-09-22,1,,,,,ファンアンドヘルス,0
35,1010901051668,新規,0,2022-09-22,2022-09-22,株式会社ＢＬＵＥ　ＨＯＲＳＥ　ＭＡＮ,,株式会社,東京都,世田谷区,三軒茶屋１丁目２７－３アルファ１０４,,13,112,1540024,,,,,,,2022-09-22,1,,,,,ブルーホースマン,0
36,1010901051676,新規,0,2022-09-22,2022-09-22,株式会社ＤＹ＆Ｃｏ．,,株式会社,東京都,世田谷区,奥沢７丁目５３－５、４０１,,13,112,1580083,,,,,,,2022-09-22,1,,,,,ディーワイアンドコ,0
37,1010903007643,新規,0,2022-09-22,2022-09-22,合同会社ＤＥＣＮＯＶＵＳフィナンシャルグループ,,合同会社,東京都,世田谷区,三宿１丁目６番３号マイルストーンビル１Ｆ,,13,112,1540005,,,,,,,2022-09-22,1,,,,,デクノーバスフィナンシャルグループ,0
39,1011001149766,新規,0,2022-09-22,2022-09-22,株式会社Ｌｉｎｏｆｏｒｔｙ,,株式会社,東京都,渋谷区,神宮前６丁目２３番４号桑野ビル２階,,13,113,1500001,,,,,,,2022-09-22,1,,,,,リノフォーティー,0
40,1011001149857,新規,0,2022-09-22,2022-09-22,株式会社クアリア,,株式会社,東京都,渋谷区,神宮前６丁目２３番４号桑野ビル２階,,13,113,1500001,,,,,,,2022-09-22,1,,,,,クアリア,0
43,1011003015347,新規,0,2022-09-22,2022-09-22,合同会社カミヤソフトウェア,,合同会社,東京都,渋谷区,渋谷２丁目１９－１５宮益坂ビルディング６０９,,13,113,1500002,,,,,,,2022-09-22,1,,,,,カミヤソフトウェア,0
44,1011003015396,新規,0,2022-09-22,2022-09-22,合同会社ＩＡＵワークシステム,,合同会社,東京都,渋谷区,恵比寿西１丁目９－６アストゥルビル４Ｆ,,13,113,1500021,,,,,,,2022-09-22,1,,,,,アイエーユーワークシステム,0
45,1011101100190,新規,0,2022-09-22,2022-09-22,株式会社Ｓｅｒｉｏｕｓｌｙ,,株式会社,東京都,新宿区,北山伏町１番３２号,,13,104,1620853,,,,,,,2022-09-22,1,,,,,シーリアスリー,0
46,1011101100224,新規,0,2022-09-22,2022-09-22,ＪＰＴ株式会社,,株式会社,東京都,新宿区,四谷１丁目６番３－３０３号,,13,104,1600004,,,,,,,2022-09-22,1,,,,,ジェイピーティー,0
47,1011101100257,新規,0,2022-09-22,2022-09-22,株式会社Ｅ＆Ｆ,,株式会社,東京都,新宿区,西新宿３丁目３番１３号西新宿水間ビル２Ｆ,,13,104,1600023,,,,,,,2022-09-22,1,,,,,イーアンドエフ,0
48,1011103012186,新規,0,2022-09-22,2022-09-22,合同会社ハーベスト,,合同会社,東京都,新宿区,南元町１４－１２,,13,104,1600012,,,,,,,2022-09-22,1,,,,,ハーベスト,0
49,1011303004529,新規,0,2022-09-22,2022-09-22,合同会社高木総業,,合同会社,東京都,杉並区,上高井戸１丁目４番２－４０７号,,13,115,1680074,,,,,,,2022-09-22,1,,,,,タカギソウギョウ,0
54,1011701025639,新規,0,2022-09-22,2022-09-22,株式会社江陽,,株式会社,東京都,江戸川区,東小松川４丁目２０番１３号,,13,123,1320033,,,,,,,2022-09-22,1,,,,,コウヨウ,0
56,1012401039648,新規,0,2022-09-22,2022-09-22,株式会社Ｂｕｌｌｓ　Ｅｙｅ,,株式会社,東京都,武蔵野市,境南町３丁目５番１０‐７０２号,,13,203,1800023,,,,,,,2022-09-22,1,,,,,ブルズアイ,0
57,1012401039656,新規,0,2022-09-22,2022-09-22,株式会社ミランファクトリー,,株式会社,東京都,武蔵野市,中町１丁目１８番１０号ラグーン三鷹２０１,,13,203,1800006,,,,,,,2022-09-22,1,,,,,ミランファクトリー,0
60,1012701017262,新規,0,2022-09-22,2022-09-22,株式会社Ｂａｍｕｐ,,株式会社,東京都,西東京市,中町１丁目２－１３,,13,229,2020013,,,,,,,2022-09-22,1,,,,,バンアップ,0
66,1020001148249,新規,0,2022-09-22,2022-09-22,株式会社Ｃｒｏｗ’ｓ　ＵＰ　ＰＯＫＥＲ,,株式会社,神奈川県,横浜市西区,中央１丁目４３番９－３０２号,,14,103,2200051,,,,,,,2022-09-22,1,,,,,クロウズアップポーカー,0
67,1020001148257,新規,0,2022-09-22,2022-09-22,フォーネクスト株式会社,,株式会社,神奈川県,川崎市中原区,丸子通１丁目６３４番地１２,,14,133,2110006,,,,,,,2022-09-22,1,,,,,フォーネクスト,0
68,1020001148265,新規,0,2022-09-22,2022-09-22,株式会社瑞進,,株式会社,神奈川県,横浜市南区,三春台２９番地５８,,14,105,2320002,,,,,,,2022-09-22,1,,,,,ズイシン,0
93,1040003020858,新規,0,2022-09-22,2022-09-22,合同会社ララプロジェクト,,合同会社,千葉県,市川市,柏井町２丁目１４２６番地１サンライズ柏井１０１号,,12,203,2720802,,,,,,,2022-09-22,1,,,,,ララプロジェクト,0
102,1090003002166,新規,0,2022-09-22,2022-09-22,ケイ‐アイ合同会社,,合同会社,山梨県,都留市,つる５丁目１番６１号,,19,204,4020056,,,,,,,2022-09-22,1,,,,,ケイアイ,0
130,1120001248930,新規,0,2022-09-22,2022-09-22,阪申株式会社,,株式会社,大阪府,大阪市生野区,巽北１丁目１番１号１Ｆ－Ｄ,,27,116,5440004,,,,,,,2022-09-22,1,,,,,ハンシン,0
131,1120001249004,新規,0,2022-09-22,2022-09-22,株式会社伸和テクノス,,株式会社,大阪府,大阪市平野区,平野東４丁目４番３４号,,27,126,5470043,,,,,,,2022-09-22,1,,,,,シンワテクノス,0
134,1120003022508,新規,0,2022-09-22,2022-09-22,ＷＡＶＹ合同会社,,合同会社,大阪府,大阪市北区,梅田１丁目１番３号大阪駅前第３ビル２９階－１－１－１号室,,27,127,5300001,,,,,,,2022-09-22,1,,,,,ウェイビー,0
135,1120003022516,新規,0,2022-09-22,2022-09-22,合同会社Ｗアドバタイジング,,合同会社,大阪府,大阪市中央区,東平２丁目１―２２―１００８,,27,128,5420063,,,,,,,2022-09-22,1,,,,,ダブリューアドバタイジング,0
140,1120101066258,新規,0,2022-09-22,2022-09-22,株式会社ＥＶＩＳＵ電設,,株式会社,大阪府,堺市南区,深阪南１０７番地２－８,,27,145,5900103,,,,,,,2022-09-22,1,,,,,エビスデンセツ,0
143,1120903004308,新規,0,2022-09-22,2022-09-22,合同会社コウボウ,,合同会社,大阪府,豊中市,東豊中町２丁目１１番６号,,27,203,5600003,,,,,,,2022-09-22,1,,,,,コウボウ,0
155,1140001127422,新規,0,2022-09-22,2022-09-22,ＯＴＥＭＯＴＯ株式会社,,株式会社,兵庫県,神戸市灘区,青谷町３丁目２番２０号,,28,102,6570805,,,,,,,2022-09-22,1,,,,,オテモト,0
162,1160001024519,新規,0,2022-09-22,2022-09-22,株式会社エルホーム,,株式会社,滋賀県,東近江市,五個荘川並町１６８番地３２,,25,213,5291441,,,,,,,2022-09-22,1,,,,,エルホーム,0
165,1160005011117,新規,0,2022-09-22,2022-09-22,医療法人山田整形外科クリニック,,その他の設立登記法人,滋賀県,草津市,南草津３丁目４番３－１,,25,206,5250050,,,,,,,2022-09-22,1,,,,,ヤマダセイケイゲカクリニック,0
170,1180001153043,新規,0,2022-09-22,2022-09-22,グランドガーデン株式会社,,株式会社,愛知県,小牧市,東新町３９番地,,23,219,4850028,,,,,,,2022-09-22,1,,,,,グランドガーデン,0
171,1180001153076,新規,0,2022-09-22,2022-09-22,株式会社善導,,株式会社,愛知県,一宮市,平和１丁目１２番８号,,23,203,4910905,,,,,,,2022-09-22,1,,,,,ゼンドウ,0
172,1180001153084,新規,0,2022-09-22,2022-09-22,株式会社ＤＧウインド,,株式会社,愛知県,名古屋市中村区,名駅４丁目２４番１６号,,23,105,4500002,,,,,,,2022-09-22,1,,,,,ディージーウインド,0
173,1180001153092,新規,0,2022-09-22,2022-09-22,株式会社ＳＹケアーズ,,株式会社,愛知県,名古屋市東区,徳川１丁目１４番１号,,23,102,4610025,,,,,,,2022-09-22,1,,,,,エスワイケアーズ,0
184,1200001040461,新規,0,2022-09-22,2022-09-22,株式会社ＺＥＳＴ　ＦＡＣＴＯＲＹ,,株式会社,岐阜県,各務原市,鵜沼小伊木町４丁目４５番地,,21,213,5090143,,,,,,,2022-09-22,1,,,,,ゼストファクトリー,0
191,1230001019528,新規,0,2022-09-22,2022-09-22,株式会社ＡＮＤ　ＫＵＲＵＲＩ,,株式会社,富山県,富山市,大栗２０番地２７,,16,201,9301327,,,,,,,2022-09-22,1,,,,,アンドクルリ,0
197,1260003004038,新規,0,2022-09-22,2022-09-22,合同会社フォワイエ,,合同会社,岡山県,総社市,小寺１１０番地１,,33,208,7191155,,,,,,,2022-09-22,1,,,,,フォワイエ,0
198,1290001098962,新規,0,2022-09-22,2022-09-22,松本渉加藤浩樹株式会社,,株式会社,福岡県,福岡市中央区,赤坂１丁目８番２３号,,40,133,8100042,,,,,,,2022-09-22,1,,,,,マツモトワタルカトウヒロキ,0
202,1290801028904,新規,0,2022-09-22,2022-09-22,ウラタ自動車株式会社,,株式会社,福岡県,北九州市八幡東区,春の町２丁目１番６号,,40,108,8050050,,,,,,,2022-09-22,1,,,,,ウラタジドウシャ,0
207,1340003003907,新規,0,2022-09-22,2022-09-22,Ｙ．ｓＦａｍｉｌｙ合同会社,,合同会社,鹿児島県,霧島市,国分中央１丁目１９－１９,,46,218,8994332,,,,,,,2022-09-22,1,,,,,ワイドットズファミリー,0
214,1380001033126,新規,0,2022-09-22,2022-09-22,株式会社ＮＥＶＥＲＬＡＮＤ,,株式会社,福島県,郡山市,中町１１番５号やまのいビル９０７号室,,07,203,9638004,,,,,,,2022-09-22,1,,,,,ネバーランド,0
217,1420001018015,新規,0,2022-09-22,2022-09-22,株式会社ＹＳマシン＆板金,,株式会社,青森県,十和田市,大字相坂字小林３２５番地２,,02,206,0340041,,,,,,,2022-09-22,1,,,,,ワイエスマシンアンドバンキン,0
224,1430001087513,新規,0,2022-09-22,2022-09-22,株式会社Ｅｎｉ‐ｗｉｆｉ,,株式会社,北海道,恵庭市,和光町５丁目１６番２３号,,01,231,0611406,,,,,,,2022-09-22,1,,,,,エニワイファイ,0
227,1430003014291,新規,0,2022-09-22,2022-09-22,合同会社Ｗｏｒｌｄ　Ｌｉｑｕｏｒ,,合同会社,北海道,札幌市厚別区,厚別西一条２丁目４番２２号,,01,108,0040061,,,,,,,2022-09-22,1,,,,,ワールドリカー,0
228,1430003014300,新規,0,2022-09-22,2022-09-22,合同会社サローネ,,合同会社,北海道,札幌市西区,平和二条４丁目１番７号,,01,107,0630022,,,,,,,2022-09-22,1,,,,,サローネ,0
230,1460103001484,新規,0,2022-09-22,2022-09-22,ポンフィールド合同会社,,合同会社,北海道,中川郡池田町,字西一条２丁目２１－２,,01,644,0830021,,,,,,,2022-09-22,1,,,,,ポンフィールド,0
232,1470001019264,新規,0,2022-09-22,2022-09-22,株式会社冨山工業,,株式会社,香川県,坂出市,西大浜北２丁目２番３号,,37,203,7620053,,,,,,,2022-09-22,1,,,,,トミヤマコウギョウ,0
234,1700150111112,新規,0,2022-09-22,2022-09-22,Ｓｕｍｉｔｏｍｏ（ＳＨＩ）Ｄｅｍａｇ　Ｐｌａｓｔｉｃｓ　Ｍａｃｈｉｎｅｒｙ　Ｎｏｒｔｈ　Ａｍｅｒｉｃａ，Ｉｎｃ．,,外国会社等,,,,,,,,４１０　Ｈｏｒｉｚｏｎ　Ｄｒｉｖｅ，Ｓｕｉｔｅ　２００，Ｓｕｗａｎｅｅ，ＧＡ　３００２４　ＵＳＡ,,,,,,2022-09-22,1,,,,,スミトモエスエイチアイデマーグプラスチツクスマシナリーノースアメリカインク,0
235,1700150111789,新規,0,2022-09-22,2022-09-22,ＳｈｅｎＺｈｅｎＥｎｇｅｓｅｎＥｌｅｃｔｒｏｎｉｃｓＣｏ．，Ｌｔｄ．,,外国会社等,,,,,,,,９０６　Ｙｉｎｓｈｅｎｇ　Ｂｌｄｇ，１００１　ｈｏｎｇｌｉ　Ｒｄ，Ｙｕａｎｌｉｎｇ　Ｓｔｒ　９０６　Ｙｉｎｓｈｅｎｇ　Ｂｌｄｇ　ＳｈｅｎＺｈｅｎ　Ｆｕｔｉａｎ　ＧｕａｎｇＤｏｎｇ,,,,,,2022-09-22,1,,,,,シエンチエンエンゲセンエレクトロニクスカンパニーリミテツド,0
252,2010001229643,新規,0,2022-09-22,2022-09-22,株式会社ＷＩＮＫｓ,,株式会社,東京都,中央区,銀座１丁目１２番４号,,13,102,1040061,,,,,,,2022-09-22,1,,,,,ウインクス,0
255,2010003038695,新規,0,2022-09-22,2022-09-22,合同会社ＤＬＳＦ,,合同会社,東京都,千代田区,丸の内３丁目１番１号東京共同会計事務所内,,13,101,1000005,,,,,,,2022-09-22,1,,,,,ディーエルエスエフ,0
261,2010401169844,新規,0,2022-09-22,2022-09-22,ＭＷＭ株式会社,,株式会社,東京都,港区,芝浦４丁目２０番２号,,13,103,1080023,,,,,,,2022-09-22,1,,,,,エムダブルエム,0
262,2010401169852,新規,0,2022-09-22,2022-09-22,株式会社ＧＴＣＩ,,株式会社,東京都,港区,南青山６丁目１番６号パレス青山４０５,,13,103,1070062,,,,,,,2022-09-22,1,,,,,ジーティーシーアイ,0
272,2010405021407,新規,0,2022-09-22,2022-09-22,ＥＳＲ３６特定目的会社,,その他の設立登記法人,東京都,港区,浜松町１丁目２０番１０号ライオネス浜松町５０６号室,,13,103,1050013,,,,,,,2022-09-22,1,,,,,イーエスアールサンジュウロク,0
284,2011001149798,新規,0,2022-09-22,2022-09-22,株式会社ＩＮＦＩＮＩＣ,,株式会社,東京都,渋谷区,鶯谷町７－１２ＧｒａｎＤｕｏ３Ｆ,,13,113,1500032,,,,,,,2022-09-22,1,,,,,アンフィニック,0
285,2011001149856,新規,0,2022-09-22,2022-09-22,アンカーテクノロジーズ株式会社,,株式会社,東京都,渋谷区,渋谷２丁目１９番１５号宮益坂ビルディング,,13,113,1500002,,,,,,,2022-09-22,1,,,,,アンカーテクノロジーズ,0
290,2011101100272,新規,0,2022-09-22,2022-09-22,ＳＫ株式会社,,株式会社,東京都,新宿区,河田町３番５１－１９０６号,,13,104,1620054,,,,,,,2022-09-22,1,,,,,エスケー,0
291,2011103012193,新規,0,2022-09-22,2022-09-22,合同会社ピュア,,合同会社,東京都,新宿区,西新宿３丁目３番１３号西新宿水間ビル２Ｆ,,13,104,1600023,,,,,,,2022-09-22,1,,,,,ピュア,0
292,2011303004528,新規,0,2022-09-22,2022-09-22,合同会社シュトラ,,合同会社,東京都,杉並区,和泉２丁目３１－１２－１０１,,13,115,1680063,,,,,,,2022-09-22,1,,,,,シュトラ,0
298,2011705001750,新規,0,2022-09-22,2022-09-22,一般社団法人小豆島クライミング協会,,その他の設立登記法人,東京都,江戸川区,東葛西５丁目２７番１６号,,13,123,1340084,,,,,,,2022-09-22,1,,,,,ショウドシマクライミングキョウカイ,0
303,2011803005273,新規,0,2022-09-22,2022-09-22,合同会社ＣＡＫＥ,,合同会社,東京都,足立区,千住５丁目２７－１ＣＡＳＡＲ２０３,,13,121,1200034,,,,,,,2022-09-22,1,,,,,ケーキ,0
313,2020003022434,新規,0,2022-09-22,2022-09-22,フルスイング企画合同会社,,合同会社,神奈川県,川崎市麻生区,岡上２丁目２６番１号,,14,137,2150027,,,,,,,2022-09-22,1,,,,,フルスイングキカク,0
314,2020003022450,新規,0,2022-09-22,2022-09-22,合同会社ＳＯＲＡＢＯＴ,,合同会社,神奈川県,横浜市都筑区,荏田南５丁目２０－９－５０３,,14,118,2240007,,,,,,,2022-09-22,1,,,,,ソラボット,0
316,2021001077024,新規,0,2022-09-22,2022-09-22,ＵＩＬＡ株式会社,,株式会社,神奈川県,綾瀬市,上土棚北３丁目１８番４３号,,14,218,2521111,,,,,,,2022-09-22,1,,,,,ウイラ,0
317,2021001077032,新規,0,2022-09-22,2022-09-22,株式会社真鶴ブランド,,株式会社,神奈川県,足柄下郡真鶴町,真鶴１５１４番地１ロイヤルプラザ真鶴２０１,,14,383,2590201,,,,,,,2022-09-22,1,,,,,マナヅルブランド,0
324,2030001150161,新規,0,2022-09-22,2022-09-22,アグネスハートケア株式会社,,株式会社,埼玉県,桶川市,北２丁目６番１５号,,11,231,3630011,,,,,,,2022-09-22,1,,,,,アグネスハートケア,0
330,2030003020230,新規,0,2022-09-22,2022-09-22,ホームリッチ合同会社,,合同会社,埼玉県,吉川市,美南２丁目１２番地６,,11,243,3420038,,,,,,,2022-09-22,1,,,,,ホームリッチ,0
334,2040001125154,新規,0,2022-09-22,2022-09-22,ぞうさん株式会社,,株式会社,千葉県,鎌ケ谷市,南初富５丁目８－６５,,12,224,2730123,,,,,,,2022-09-22,1,,,,,ゾウサン,0
335,2040001125179,新規,0,2022-09-22,2022-09-22,株式会社Ｌｅｉ,,株式会社,千葉県,千葉市中央区,登戸１丁目３番１号高橋ビル２階,,12,101,2600032,,,,,,,2022-09-22,1,,,,,レイ,0
339,2060005010012,新規,0,2022-09-22,2022-09-22,特定非営利活動法人知のアトリエ,,その他の設立登記法人,栃木県,那須郡那須町,大字豊原乙２９４４番地２,,09,407,3293224,,,,,,,2022-09-22,1,,,,,チノアトリエ,0
344,2080101023535,新規,0,2022-09-22,2022-09-22,Ｄ‐ＰＲＯＪＥＣＴ株式会社,,株式会社,静岡県,三島市,大場９４番地,,22,206,4110803,,,,,,,2022-09-22,1,,,,,ディープロジェクト,0
346,2080103002652,新規,0,2022-09-22,2022-09-22,合同会社ＧＯＴＯ,,合同会社,静岡県,伊豆の国市,南江間１８４０番地の１０,,22,225,4102221,,,,,,,2022-09-22,1,,,,,ゴトウ,0
349,2080401026048,新規,0,2022-09-22,2022-09-22,ヤマシタ開発株式会社,,株式会社,静岡県,菊川市,赤土１３１３番地の１,,22,224,4371507,,,,,,,2022-09-22,1,,,,,ヤマシタカイハツ,0
351,2080403004613,新規,0,2022-09-22,2022-09-22,合同会社ＲＰ,,合同会社,静岡県,磐田市,大立野４３３,,22,211,4380036,,,,,,,2022-09-22,1,,,,,アールピー,0
352,2090001017784,新規,0,2022-09-22,2022-09-22,株式会社スマナビ,,株式会社,山梨県,富士吉田市,緑ケ丘２丁目５番１９号,,19,202,4030013,,,,,,,2022-09-22,1,,,,,スマナビ,0
353,2090003002165,新規,0,2022-09-22,2022-09-22,合同会社ＳＴＡＲ,,合同会社,山梨県,中央市,下河東３０２６番地１８,,19,214,4093821,,,,,,,2022-09-22,1,,,,,スター,0
366,2110003004869,新規,0,2022-09-22,2022-09-22,合同会社Ｃａｔａｌｙｓｔｗｏ,,合同会社,新潟県,十日町市,高田町１丁目２１５番地,,15,210,9480063,,,,,,,2022-09-22,1,,,,,カタリストゥー,0
378,2120001248954,新規,0,2022-09-22,2022-09-22,ペンシル株式会社,,株式会社,大阪府,枚方市,楠葉朝日１丁目７番２５号,,27,210,5731111,,,,,,,2022-09-22,1,,,,,ペンシル,0
379,2120001248962,新規,0,2022-09-22,2022-09-22,株式会社ワンライフ,,株式会社,大阪府,枚方市,楠葉朝日３丁目５番２２号飛鳥第４ビル３Ｆ,,27,210,5731111,,,,,,,2022-09-22,1,,,,,ワンライフ,0
380,2120001249036,新規,0,2022-09-22,2022-09-22,アルゴス株式会社,,株式会社,大阪府,大阪市城東区,関目２丁目１番２４－２０２号,,27,118,5360008,,,,,,,2022-09-22,1,,,,,アルゴス,0
381,2120003022515,新規,0,2022-09-22,2022-09-22,Ａ‐ｐｌｕｓ合同会社,,合同会社,大阪府,大阪市西成区,千本中１丁目１０番２２号,,27,122,5570054,,,,,,,2022-09-22,1,,,,,エープラス,0
384,2120101066249,新規,0,2022-09-22,2022-09-22,株式会社Ｄプテロン,,株式会社,大阪府,堺市南区,庭代台３丁９番１２号,,27,145,5900133,,,,,,,2022-09-22,1,,,,,ディープテロン,0
387,2120901046516,新規,0,2022-09-22,2022-09-22,ＷＥＳＴ　ＳＥＲＶＩＣＥ株式会社,,株式会社,大阪府,吹田市,金田町１２番１８号,,27,205,5640045,,,,,,,2022-09-22,1,,,,,ウエストサービス,0
396,2130005016588,新規,0,2022-09-22,2022-09-22,一般社団法人寧和会,,その他の設立登記法人,京都府,京都市西京区,川島有栖川町１６番地,,26,111,6158191,,,,,,,2022-09-22,1,,,,,ネイワカイ,0
400,2140001127421,新規,0,2022-09-22,2022-09-22,ビアンビ株式会社,,株式会社,兵庫県,神戸市中央区,筒井町３丁目１２番２５号ル・パルトネール三宮東９０３,,28,110,6510071,,,,,,,2022-09-22,1,,,,,ビアンビ,0
403,2150001025830,新規,0,2022-09-22,2022-09-22,丸徳重機建設株式会社,00127914,株式会社,奈良県,北葛城郡広陵町,大字古寺４４４番地６,,29,426,6350815,,,,,,,2022-09-22,1,,,,,マルトクジュウキケンセツ,0
405,2160005011116,新規,0,2022-09-22,2022-09-22,医療法人シーエルリンク,,その他の設立登記法人,滋賀県,草津市,南草津３丁目４番３－３,,25,206,5250050,,,,,,,2022-09-22,1,,,,,シーエルリンク,0
410,2180001153067,新規,0,2022-09-22,2022-09-22,株式会社ウッドレア,,株式会社,愛知県,海部郡飛島村,木場１丁目８８番地,,23,427,4901444,,,,,,,2022-09-22,1,,,,,ウッドレア,0
411,2180001153083,新規,0,2022-09-22,2022-09-22,株式会社岩本建築事務所,,株式会社,愛知県,名古屋市天白区,表山２丁目２５０３番地,,23,116,4680069,,,,,,,2022-09-22,1,,,,,イワモトケンチクジムショ,0
412,2180001153091,新規,0,2022-09-22,2022-09-22,株式会社ＯＲＣＡ　Ｅｎｔｅｒｔａｉｎｍｅｎｔ,,株式会社,愛知県,名古屋市中区,栄３丁目１２番６号ライオンズマンション栄１１１３号,,23,106,4600008,,,,,,,2022-09-22,1,,,,,オルカエンターテイメント,0
413,2180001153100,新規,0,2022-09-22,2022-09-22,株式会社ジェントライ,,株式会社,愛知県,大府市,神田町６丁目１１４番地,,23,223,4740003,,,,,,,2022-09-22,1,,,,,ジェントライ,0
420,2220001025047,新規,0,2022-09-22,2022-09-22,ワインエー株式会社,,株式会社,石川県,鳳珠郡能登町,字合鹿６字３４番,,17,463,9280311,,,,,,,2022-09-22,1,,,,,ワインエー,0
426,2240001060389,新規,0,2022-09-22,2022-09-22,共勢株式会社,,株式会社,広島県,呉市,広古新開５丁目３番１５号,,34,202,7370112,,,,,,,2022-09-22,1,,,,,キョウセイ,0
429,2260001037261,新規,0,2022-09-22,2022-09-22,株式会社優游,,株式会社,岡山県,岡山市南区,新保６８５番地１１,,33,104,7000945,,,,,,,2022-09-22,1,,,,,ユウユウ,0
437,2290801028903,新規,0,2022-09-22,2022-09-22,株式会社ＧＳＯ,,株式会社,福岡県,北九州市小倉南区,上曽根１丁目２番３１号,,40,107,8000223,,,,,,,2022-09-22,1,,,,,ジーエスオー,0
455,2360003012228,新規,0,2022-09-22,2022-09-22,合同会社ＶＲＩＬＥＹＥＮＴ,,合同会社,沖縄県,沖縄市,登川３丁目２５－２０、１０５号室,,47,211,9042142,,,,,,,2022-09-22,1,,,,,ヴィレリエント,0
473,2430003014290,新規,0,2022-09-22,2022-09-22,合同会社エコモビリティ北海道,,合同会社,北海道,虻田郡ニセコ町,字元町３３６番地１,,01,395,0481544,,,,,,,2022-09-22,1,,,,,エコモビリティホッカイドウ,0
477,2460303000772,新規,0,2022-09-22,2022-09-22,合同会社北見商店,,合同会社,北海道,北見市,山下町２丁目１番５号ユニオンビル３０１,,01,208,0900037,,,,,,,2022-09-22,1,,,,,キタミショウテン,0
480,2500001024474,新規,0,2022-09-22,2022-09-22,株式会社寿会計,,株式会社,愛媛県,四国中央市,妻鳥町２９４８番地１,,38,213,7990113,,,,,,,2022-09-22,1,,,,,コトブキカイケイ,0
481,2500005008523,新規,0,2022-09-22,2022-09-22,一般社団法人ＤＡＮＤＡＮ,,その他の設立登記法人,愛媛県,西予市,宇和町新城９９３番地,,38,214,7970006,,,,,,,2022-09-22,1,,,,,ダンダン,0
482,2700150111788,新規,0,2022-09-22,2022-09-22,ＲＥＳＩＤＥＮＣＩＡ　ＬＩＭＩＴＥＤ,,外国会社等,千葉県,船橋市,行田２丁目６－９コスモザパーク船橋１１１４,,12,204,2730044,ＵＮＩＴ　１０　２／Ｆ　ＣＥＮＴＵＲＹ　ＣＥＮＴＲＥ　ＮＯＳ　４４－４６　ＨＵＮＧ　ＴＯ　ＲＯＡＤ　ＫＷＵＮＧ　ＹＯＮＧ　ＫＯＷＬＯＯＮ　ＨＯＮＧ　ＫＯＮＧ,,,,,,2022-09-22,1,,,,,レジデンシアリミテツド,0
498,3010003038694,新規,0,2022-09-22,2022-09-22,ジェイコアレジ７合同会社,,合同会社,東京都,千代田区,丸の内３丁目１番１号東京共同会計事務所内,,13,101,1000005,,,,,,,2022-09-22,1,,,,,ジェイコアレジセブン,0
508,3010401169819,新規,0,2022-09-22,2022-09-22,Ｔｒｕｓｔ　Ｃｒｅａｔｉｏｎ株式会社,,株式会社,東京都,港区,芝浦４丁目２０番２－３８０４号,,13,103,1080023,,,,,,,2022-09-22,1,,,,,トラストクリエーション,0
509,3010401169868,新規,0,2022-09-22,2022-09-22,ＫＵＮＩＵＭＩ‐ＥＨＬ株式会社,,株式会社,東京都,港区,元麻布２丁目１番１３号,,13,103,1060046,,,,,,,2022-09-22,1,,,,,クニウミイーエイチエル,0
511,3010403028543,新規,0,2022-09-22,2022-09-22,合同会社ｎａｎｏ’ｓ　ｇｒｏｕｐ,,合同会社,東京都,港区,新橋６丁目５番３号ル・グラシエルＢＬＤＧ６号館４階,,13,103,1050004,,,,,,,2022-09-22,1,,,,,ナノズグループ,0
512,3010405021406,新規,0,2022-09-22,2022-09-22,ＥＳＲ３５特定目的会社,,その他の設立登記法人,東京都,港区,浜松町１丁目２０番１０号ライオネス浜松町５０６号室,,13,103,1050013,,,,,,,2022-09-22,1,,,,,イーエスアールサンジュウゴ,0
515,3010601061874,新規,0,2022-09-22,2022-09-22,株式会社ＢＲｉＧＨｔＥＮ,,株式会社,東京都,江東区,平野４丁目５番１１号,,13,108,1350023,,,,,,,2022-09-22,1,,,,,ブライトン,0
525,3011001149863,新規,0,2022-09-22,2022-09-22,道玄坂ホテルマネジメント株式会社,,株式会社,東京都,目黒区,青葉台２丁目１９番１０号,,13,110,1530042,,,,,,,2022-09-22,1,,,,,ドウゲンザカホテルマネジメント,0
526,3011005009717,新規,0,2022-09-22,2022-09-22,一般社団法人日本美容医療心理師協会,,その他の設立登記法人,東京都,目黒区,上目黒１丁目２６－１－１５１０,,13,110,1530051,,,,,,,2022-09-22,1,,,,,ニホンビヨウイリョウシンリシキョウカイ,0
535,3011103012176,新規,0,2022-09-22,2022-09-22,合同会社鈴音,,合同会社,東京都,新宿区,西早稲田１丁目２３―１２―６０４号,,13,104,1690051,,,,,,,2022-09-22,1,,,,,スズネ,0
536,3011201024115,新規,0,2022-09-22,2022-09-22,株式会社ＥＮＴＡＭＥ　ＧＩＧ,,株式会社,東京都,中野区,中央４丁目５３番９号メゾネット小林２Ｆ,,13,114,1640011,,,,,,,2022-09-22,1,,,,,エンタメギグ,0
540,3011301028115,新規,0,2022-09-22,2022-09-22,翊麟株式会社,,株式会社,東京都,杉並区,高円寺南２丁目１番４－４０４号シャンボール新高円寺,,13,115,1660003,,,,,,,2022-09-22,1,,,,,ヨクリン,0
541,3011303004527,新規,0,2022-09-22,2022-09-22,ＩＫエンタープライズ合同会社,,合同会社,東京都,杉並区,方南２丁目７番６号,,13,115,1680062,,,,,,,2022-09-22,1,,,,,アイケーエンタープライズ,0
544,3011501028476,新規,0,2022-09-22,2022-09-22,ＯＴＫ株式会社,,株式会社,東京都,荒川区,西尾久４丁目１２－１１－４０１,,13,118,1160011,,,,,,,2022-09-22,1,,,,,オテイケイ,0
545,3011601026264,新規,0,2022-09-22,2022-09-22,株式会社ガーデン,,株式会社,東京都,練馬区,高松３丁目９番４号,,13,120,1790075,,,,,,,2022-09-22,1,,,,,ガーデン,0
550,3011701025629,新規,0,2022-09-22,2022-09-22,杞禾株式会社,,株式会社,東京都,江戸川区,平井７丁目２０番１３－２０３,,13,123,1320035,,,,,,,2022-09-22,1,,,,,キワ,0
554,3011803005272,新規,0,2022-09-22,2022-09-22,合同会社ＭＡＴＩＣ,,合同会社,東京都,足立区,千住５丁目２７－１ＣＡＳＡＲ２０３,,13,121,1200034,,,,,,,2022-09-22,1,,,,,マチック,0
555,3012701017260,新規,0,2022-09-22,2022-09-22,株式会社蒼世,,株式会社,東京都,西東京市,新町４丁目１２番３６号,,13,229,2020023,,,,,,,2022-09-22,1,,,,,ソウセイ,0
572,3021001077023,新規,0,2022-09-22,2022-09-22,株式会社ビーテック,,株式会社,神奈川県,平塚市,長持１８２番地の１（１０２号）,,14,203,2591217,,,,,,,2022-09-22,1,,,,,ビーテック,0
573,3021001077031,新規,0,2022-09-22,2022-09-22,株式会社Ｓ＆Ｈ,,株式会社,神奈川県,中郡二宮町,山西３５番地の１６２,,14,342,2590124,,,,,,,2022-09-22,1,,,,,エスアンドエイチ,0
589,3030001150103,新規,0,2022-09-22,2022-09-22,ＣＡＲＮＡＴＩＯＮ株式会社,,株式会社,埼玉県,富士見市,西みずほ台３丁目６番地みずほ台団地６－１－５０８,,11,235,3540018,,,,,,,2022-09-22,1,,,,,カーネーション,0
596,3030003020221,新規,0,2022-09-22,2022-09-22,合同会社プラム,,合同会社,埼玉県,草加市,新里町４１４番地グリーンシャルムＩＩ－３０３号,00127907,11,221,3400031,,,,,,,2022-09-22,1,,,,,プラム,0
599,3040001125153,新規,0,2022-09-22,2022-09-22,高崎吉井ソーラーパーク株式会社,,株式会社,千葉県,松戸市,串崎南町１３０番地の３,,12,207,2702215,,,,,,,2022-09-22,1,,,,,タカサキヨシイソーラーパーク,0
600,3040001125178,新規,0,2022-09-22,2022-09-22,株式会社トシ電気,,株式会社,千葉県,成田市,不動ケ岡１８７７番地２１,,12,211,2860044,,,,,,,2022-09-22,1,,,,,トシデンキ,0
603,3040003020872,新規,0,2022-09-22,2022-09-22,合同会社１ｓｔ．ＵＯＶＯ,,合同会社,千葉県,八千代市,高津１４８９番地１３,,12,221,2760036,,,,,,,2022-09-22,1,,,,,ファーストウォーヴォ,0
604,3040003020880,新規,0,2022-09-22,2022-09-22,合同会社アスチルベ,,合同会社,千葉県,船橋市,前原東２丁目１８番１９号シティクレスト津田沼３０２号室,,12,204,2740824,,,,,,,2022-09-22,1,,,,,アスチルベ,0
609,3050003006870,新規,0,2022-09-22,2022-09-22,合同会社ＮＩＫＫＯＲＹ　ＪＡＰＡＮ,,合同会社,茨城県,古河市,東３丁目６番５号あさひビル１号棟３号室,,08,204,3060011,,,,,,,2022-09-22,1,,,,,ニッコリージャパン,0
610,3050005013147,新規,0,2022-09-22,2022-09-22,医療法人ピース,,その他の設立登記法人,茨城県,下妻市,古沢７番地１,,08,210,3040041,,,,,,,2022-09-22,1,,,,,ピース,0
613,3070001039648,新規,0,2022-09-22,2022-09-22,ＢＦＴ　ＴＲＡＤＩＮＧ株式会社,,株式会社,群馬県,太田市,新井町５５３番地４ＭレジデンスＩＩ－１０３,00127903,10,205,3730852,,,,,,,2022-09-22,1,,,,,ビーエフティートレーディング,0
628,3110003004868,新規,0,2022-09-22,2022-09-22,山大合同会社,,合同会社,新潟県,燕市,吉田西太田４２５番地４,,15,213,9590221,,,,,,,2022-09-22,1,,,,,ヤマダイ,0
638,3120001248887,新規,0,2022-09-22,2022-09-22,ＤｅｅｐＲｅｃｏｍｍｅｎｄ株式会社,,株式会社,大阪府,大阪市住吉区,苅田５丁目１６番３号ハイムエンジェル２０１,,27,120,5580011,,,,,,,2022-09-22,1,,,,,ディープレコメンド,0
639,3120001248978,新規,0,2022-09-22,2022-09-22,株式会社三野建装,,株式会社,大阪府,大阪市西区,九条２丁目１３番８号,,27,106,5500027,,,,,,,2022-09-22,1,,,,,ミノケンソウ,0
640,3120001248994,新規,0,2022-09-22,2022-09-22,株式会社ジーシードホールディングス,,株式会社,大阪府,大阪市北区,天満４丁目４番８号,,27,127,5300043,,,,,,,2022-09-22,1,,,,,ジーシードホールディングス,0
643,3120003022514,新規,0,2022-09-22,2022-09-22,ＨＩＭＡＷＡＲＩ合同会社,,合同会社,大阪府,大阪市中央区,材木町２番８号,,27,128,5400010,,,,,,,2022-09-22,1,,,,,ヒマワリ,0
661,3140003018147,新規,0,2022-09-22,2022-09-22,ＴＵＥ　ＭＩＮＨ合同会社,,合同会社,兵庫県,神戸市東灘区,御影中町１丁目４番５号ファースト御影１０１号,,28,101,6580054,,,,,,,2022-09-22,1,,,,,トゥエミン,0
667,3160001024525,新規,0,2022-09-22,2022-09-22,株式会社ハシモト電器,,株式会社,滋賀県,栗東市,安養寺８丁目７番３２号,,25,208,5203015,,,,,,,2022-09-22,1,,,,,ハシモトデンキ,0
670,3170003001777,新規,0,2022-09-22,2022-09-22,合同会社ＮＡＪＩＤＯ,,合同会社,和歌山県,和歌山市,石橋丁９番地８,,30,201,6408201,,,,,,,2022-09-22,1,,,,,ナジド,0
677,3180001153074,新規,0,2022-09-22,2022-09-22,株式会社チュロスタジオ,,株式会社,愛知県,名古屋市中区,丸の内２丁目１７－１３ＮＫ丸の内ビル,,23,106,4600002,,,,,,,2022-09-22,1,,,,,チュロスタジオ,0
678,3180001153082,新規,0,2022-09-22,2022-09-22,株式会社ライツコミュニケーションズ,,株式会社,愛知県,名古屋市西区,中小田井２丁目１２２番地の３,,23,104,4520822,,,,,,,2022-09-22,1,,,,,ライツコミュニケーションズ,0
682,3180301036656,新規,0,2022-09-22,2022-09-22,株式会社ＮＥＶＥＲ,,株式会社,愛知県,豊川市,御油町長谷山５２番地,,23,207,4410212,,,,,,,2022-09-22,1,,,,,ネバー,0
687,3220001025046,新規,0,2022-09-22,2022-09-22,株式会社Ｌａ　Ｓｏｕｐｅ,,株式会社,石川県,金沢市,森山１丁目２番１号２１５,,17,201,9200843,,,,,,,2022-09-22,1,,,,,ラスープ,0
691,3230001019526,新規,0,2022-09-22,2022-09-22,株式会社ニュースポイント,,株式会社,富山県,高岡市,下関町１番１７号２階,,16,202,9330021,,,,,,,2022-09-22,1,,,,,ニュースポイント,0
692,3230005009259,新規,0,2022-09-22,2022-09-22,一般社団法人とやまミライラボ,,その他の設立登記法人,富山県,富山市,新根塚町１丁目８番１４号,,16,201,9398205,,,,,,,2022-09-22,1,,,,,トヤマミライラボ,0
697,3260001037260,新規,0,2022-09-22,2022-09-22,株式会社医食同源社,,株式会社,岡山県,加賀郡吉備中央町,豊岡上３１８番地,,33,681,7092664,,,,,,,2022-09-22,1,,,,,イショクドウゲンシャ,0
700,3280005007506,新規,0,2022-09-22,2022-09-22,協同組合ワークアラウンドうんなん,,その他の設立登記法人,島根県,雲南市,吉田町吉田２５４１番地,,32,209,6902801,,,,,,,2022-09-22,1,,,,,,0
707,3290001098977,新規,0,2022-09-22,2022-09-22,株式会社シオ商事,,株式会社,福岡県,福岡市南区,井尻５丁目２４番１５号,,40,134,8111302,,,,,,,2022-09-22,1,,,,,シオショウジ,0
708,3290003012969,新規,0,2022-09-22,2022-09-22,ＳＯＥ合同会社,,合同会社,福岡県,福岡市西区,内浜２丁目３４番２２－２０１号Ｃｒｅｏ姪浜七番館,,40,135,8190005,,,,,,,2022-09-22,1,,,,,エスオーイー,0
713,3330001030126,新規,0,2022-09-22,2022-09-22,株式会社白青社,,株式会社,熊本県,熊本市東区,東本町６－１８,,43,102,8620902,,,,,,,2022-09-22,1,,,,,ハクセイシャ,0
715,3340001025042,新規,0,2022-09-22,2022-09-22,株式会社アット・アド,,株式会社,鹿児島県,鹿屋市,西原１丁目１番２４号,,46,203,8930064,,,,,,,2022-09-22,1,,,,,,0
717,3360001030965,新規,0,2022-09-22,2022-09-22,沖縄珈琲農園株式会社,,株式会社,沖縄県,中頭郡読谷村,字宇座１８６１番,,47,324,9040328,,,,,,,2022-09-22,1,,,,,オキナワコーヒーノウエン,0
719,3360003012318,新規,0,2022-09-22,2022-09-22,合同会社８８,,合同会社,沖縄県,那覇市,辻１丁目１６－９サングリーンビル１階,00127906,47,201,9000037,,,,,,,2022-09-22,1,,,,,エイティエイト,0
730,3380001033124,新規,0,2022-09-22,2022-09-22,株式会社Ｋａｓｕｍｉ　Ｃｏｍｐａｎｙ,,株式会社,福島県,いわき市,平字田町６５番地の２アルファマンション７０５,,07,204,9708026,,,,,,,2022-09-22,1,,,,,カスミカンパニー,0
748,3430003014298,新規,0,2022-09-22,2022-09-22,合同会社ヤマト商会,,合同会社,北海道,石狩郡当別町,太美町１４７３番地５０,,01,303,0613776,,,,,,,2022-09-22,1,,,,,ヤマトショウカイ,0
758,3500005008522,新規,0,2022-09-22,2022-09-22,一般社団法人海と日本プロジェクトｉｎえひめ,,その他の設立登記法人,愛媛県,松山市,本町１丁目１番１号,,38,201,7900811,,,,,,,2022-09-22,1,,,,,ウミトニッポンプロジェクトインエヒメ,0
759,3700150111787,新規,0,2022-09-22,2022-09-22,ＳｈｅｎＺｈｅｎＱｉｙｕＴｅｃｈｎｏｌｏｇｙＣｏ．，Ｌｔｄ．,,外国会社等,,,,,,,,３０３，Ｔａｏｙｕａｎ　ｃｏｍｐｌｅｘ　ｂｕｉｌｄｉｎｇ，Ｂａｏｇａｎｇ　Ｒｏａｄ，Ｌｕｏｈｕ　Ｄｉｓｔｒｉｃｔ，Ｓｈｅｎｆｅｉ　ｃｉｔｙ（Ｌｉａｏｄｏｎｇ　ｐｒｏｖｉｎｃｅ）,,,,,,2022-09-22,1,,,,,シエンチエンキユウテクノロジーカンパニーリミテツド,0
770,4010001229617,新規,0,2022-09-22,2022-09-22,株式会社副業,,株式会社,東京都,中央区,日本橋大伝馬町１３番５－２１１号,,13,102,1030011,,,,,,,2022-09-22,1,,,,,フクギョウ,0
771,4010001229658,新規,0,2022-09-22,2022-09-22,株式会社アクロサポート,,株式会社,東京都,千代田区,飯田橋１丁目７番１０号山京ビル本館２階,,13,101,1020072,,,,,,,2022-09-22,1,,,,,アクロサポート,0
782,4010403028534,新規,0,2022-09-22,2022-09-22,合同会社Ａｕｇｕｓｔ８,,合同会社,東京都,港区,西麻布２丁目１３番８－８０４号,,13,103,1060031,,,,,,,2022-09-22,1,,,,,オーガストエイト,0
783,4010403028542,新規,0,2022-09-22,2022-09-22,合同会社ＯＮＥ　ＡＬＬ,,合同会社,東京都,港区,白金６丁目４番３号４０３,,13,103,1080072,,,,,,,2022-09-22,1,,,,,ワンオール,0
785,4010501049267,新規,0,2022-09-22,2022-09-22,株式会社香港日本投資促進協会,,株式会社,東京都,台東区,上野３丁目１７番４号尾上貿易上野ビル３Ｆ,,13,106,1100005,,,,,,,2022-09-22,1,,,,,ホンコンニホントウシソクシンキョウカイ,0
787,4010601061873,新規,0,2022-09-22,2022-09-22,ＤＧＳ徳広盛株式会社,,株式会社,東京都,江東区,大島８丁目１４番３号,,13,108,1360072,,,,,,,2022-09-22,1,,,,,ディージーエストコウセイ,0
788,4010701043235,新規,0,2022-09-22,2022-09-22,株式会社ＬＩＳＯＷ,,株式会社,東京都,品川区,南品川２丁目７番１８号ＴＹビル２階,,13,109,1400004,,,,,,,2022-09-22,1,,,,,リソウ,0
789,4010701043243,新規,0,2022-09-22,2022-09-22,株式会社ホリスティック・ウェルネス,,株式会社,東京都,品川区,上大崎３丁目１番２号,,13,109,1410021,,,,,,,2022-09-22,1,,,,,ホリスティックウェルネス,0
801,4011001149755,新規,0,2022-09-22,2022-09-22,株式会社バイモ,,株式会社,東京都,渋谷区,東１丁目２６番３０号パレステュディオ渋谷イースト１０２,,13,113,1500011,,,,,,,2022-09-22,1,,,,,バイモ,0
802,4011001149904,新規,0,2022-09-22,2022-09-22,Ｐｏｓｅｙ．Ｓｔｏｌａ株式会社,,株式会社,東京都,渋谷区,上原１丁目３番９号,,13,113,1510064,,,,,,,2022-09-22,1,,,,,ポージーストラ,0
805,4011003015393,新規,0,2022-09-22,2022-09-22,ＵＭＥ　ＦＩＬＭＳ合同会社,,合同会社,東京都,目黒区,上目黒３丁目４４―２９エコーメゾン４０５,,13,110,1530051,,,,,,,2022-09-22,1,,,,,ウメフィルムズ,0
809,4011005009757,新規,0,2022-09-22,2022-09-22,一般社団法人みらい設計,,その他の設立登記法人,東京都,渋谷区,円山町５番５号,,13,113,1500044,,,,,,,2022-09-22,1,,,,,ミライセッケイ,0
812,4011103012175,新規,0,2022-09-22,2022-09-22,カスケードワークス合同会社,,合同会社,東京都,新宿区,西新宿３丁目３番１３号西新宿水間ビル６階,,13,104,1600023,,,,,,,2022-09-22,1,,,,,カスケードワークス,0
816,4011201024114,新規,0,2022-09-22,2022-09-22,台三株式会社,,株式会社,東京都,中野区,中央１丁目４６番５号シャングリラベル新宿４０１,,13,114,1640011,,,,,,,2022-09-22,1,,,,,ダイサン,0
820,4011601026263,新規,0,2022-09-22,2022-09-22,株式会社ファーブラ,,株式会社,東京都,練馬区,練馬１丁目２０番８号日建練馬ビル２Ｆ,,13,120,1760001,,,,,,,2022-09-22,1,,,,,ファーブラ,0
821,4011801041302,新規,0,2022-09-22,2022-09-22,株式会社ポンテ,,株式会社,東京都,足立区,関原３丁目５番８号,,13,121,1230852,,,,,,,2022-09-22,1,,,,,ポンテ,0
822,4012401039661,新規,0,2022-09-22,2022-09-22,株式会社めろこと,,株式会社,東京都,三鷹市,井の頭３丁目１７番２４号,,13,204,1810001,,,,,,,2022-09-22,1,,,,,メロコト,0
826,4013301049701,新規,0,2022-09-22,2022-09-22,株式会社ｏｎｅ　ｓｔｅａｄｙ,,株式会社,東京都,豊島区,南池袋２丁目１０番５号中丸ビル４０１号室,,13,116,1710022,,,,,,,2022-09-22,1,,,,,ワンステディ,0
829,4020001148287,新規,0,2022-09-22,2022-09-22,嘉華商事株式会社,,株式会社,神奈川県,横浜市中区,千代崎町４丁目１００番地エンゼルハイム山手３０５号室,,14,104,2310864,,,,,,,2022-09-22,1,,,,,カカショウジ,0
831,4020005015665,新規,0,2022-09-22,2022-09-22,一般社団法人個人事業主支援会,,その他の設立登記法人,神奈川県,横浜市神奈川区,鶴屋町３丁目２９番地４,,14,102,2210835,,,,,,,2022-09-22,1,,,,,コジンジギョウヌシシエンカイ,0
832,4021001077039,新規,0,2022-09-22,2022-09-22,株式会社青と赤,,株式会社,神奈川県,鎌倉市,二階堂８２２,,14,204,2480002,,,,,,,2022-09-22,1,,,,,アオトアカ,0
834,4021003012159,新規,0,2022-09-22,2022-09-22,Ｙ’ｓビジネスパートナーズ合同会社,,合同会社,神奈川県,藤沢市,片瀬２丁目２０番２４号,,14,205,2510032,,,,,,,2022-09-22,1,,,,,ワイズビジネスパートナーズ,0
845,4030003020253,新規,0,2022-09-22,2022-09-22,合同会社ＲｈｉｎｏＲａｃｉｎｇＪａｐａｎ,,合同会社,埼玉県,鶴ヶ島市,南町１丁目９－２１,,11,241,3502215,,,,,,,2022-09-22,1,,,,,リノレーシングジャパン,0
846,4040001125177,新規,0,2022-09-22,2022-09-22,新意株式会社,,株式会社,千葉県,木更津市,高柳２丁目３番６号,,12,206,2920014,,,,,,,2022-09-22,1,,,,,シンイ,0
849,4040003020814,新規,0,2022-09-22,2022-09-22,Ｄｉｅ　Ｓｏｎｎｅコンサルティング合同会社,,合同会社,千葉県,船橋市,西船４丁目２９番８号ＮＳＴ西船橋２０７,,12,204,2730031,,,,,,,2022-09-22,1,,,,,ディゾンヌコンサルティング,0
850,4040003020871,新規,0,2022-09-22,2022-09-22,合同会社ｓｐｒｉｎｇ　ｌｉｇｈｔ,,合同会社,千葉県,四街道市,鷹の台４丁目８－１１,,12,228,2840033,,,,,,,2022-09-22,1,,,,,スプリングライト,0
864,4090003002163,新規,0,2022-09-22,2022-09-22,合同会社ｆｌｙ　ｂｏｗ,,合同会社,山梨県,甲府市,丸の内２丁目３０番５号,,19,201,4000031,,,,,,,2022-09-22,1,,,,,フライボウ,0
867,4100003006699,新規,0,2022-09-22,2022-09-22,合同会社中村フルーツセンター,,合同会社,長野県,長野市,小島田町１３７８番地,,20,201,3812212,,,,,,,2022-09-22,1,,,,,ナカムラフルーツセンター,0
881,4120001248820,新規,0,2022-09-22,2022-09-22,株式会社Ｒｏｏｔｓ,,株式会社,大阪府,枚方市,尊延寺５丁目２３番１－３０３号,,27,210,5730112,,,,,,,2022-09-22,1,,,,,ルーツ,0
882,4120001248969,新規,0,2022-09-22,2022-09-22,株式会社ＮＡＤプラス,,株式会社,大阪府,大阪市北区,紅梅町１番１８号,,27,127,5300038,,,,,,,2022-09-22,1,,,,,ナッドプラス,0
883,4120001248985,新規,0,2022-09-22,2022-09-22,株式会社スリーシンカー,,株式会社,大阪府,大阪市北区,梅田２丁目４－９ブリーゼタワー１階,,27,127,5300001,,,,,,,2022-09-22,1,,,,,スリーシンカー,0
884,4120001248993,新規,0,2022-09-22,2022-09-22,株式会社ＴＧＲＯ,,株式会社,大阪府,大阪市中央区,道頓堀１丁目東３番２０号エンポリウムビル４０１,,27,128,5420071,,,,,,,2022-09-22,1,,,,,トグロ,0
888,4120003022513,新規,0,2022-09-22,2022-09-22,Ａｖｅｅ合同会社,,合同会社,大阪府,大阪市城東区,関目５丁目１６番１９号－８０３,,27,118,5360008,,,,,,,2022-09-22,1,,,,,アヴェエ,0
891,4120101066247,新規,0,2022-09-22,2022-09-22,株式会社ライズ建物管理,,株式会社,大阪府,泉大津市,春日町７番１０－１０６号,,27,206,5950061,,,,,,,2022-09-22,1,,,,,ライズタテモノカンリ,0
892,4120101066255,新規,0,2022-09-22,2022-09-22,ＣＳＧ株式会社,,株式会社,大阪府,泉佐野市,中町３丁目４番４０号１０１室,,27,213,5980013,,,,,,,2022-09-22,1,,,,,シーエスジー,0
898,4130001072658,新規,0,2022-09-22,2022-09-22,株式会社Ｋ‐ｓｔｙｌｅ,,株式会社,京都府,京都市北区,等持院西町１６番地１５,,26,101,6038354,,,,,,,2022-09-22,1,,,,,ケースタイル,0
906,4160001024524,新規,0,2022-09-22,2022-09-22,株式会社なかなか,,株式会社,滋賀県,守山市,下之郷３丁目６０６番地３,,25,207,5240013,,,,,,,2022-09-22,1,,,,,ナカナカ,0
907,4160005011114,新規,0,2022-09-22,2022-09-22,医療法人優信会,,その他の設立登記法人,滋賀県,彦根市,平田町１３７番地８,,25,202,5220041,,,,,,,2022-09-22,1,,,,,ユウシンカイ,0
912,4180001153057,新規,0,2022-09-22,2022-09-22,株式会社オッターズ,,株式会社,愛知県,名古屋市中川区,戸田１丁目１２１３番地の１,,23,110,4540962,,,,,,,2022-09-22,1,,,,,オッターズ,0
913,4180001153065,新規,0,2022-09-22,2022-09-22,株式会社１２１１,,株式会社,愛知県,名古屋市千種区,徳川山町６丁目２番２６号ラグナヒルズ　レジデンスアクア　Ｑ４０１号,,23,101,4640031,,,,,,,2022-09-22,1,,,,,イチニイチイチ,0
914,4180001153081,新規,0,2022-09-22,2022-09-22,株式会社ｍｉｓｓ　ｙｏｕ　Ｌｉｎ,,株式会社,愛知県,名古屋市昭和区,川名町１丁目３０番地（５０５）,,23,107,4660856,,,,,,,2022-09-22,1,,,,,ミスユーリン,0
917,4180003024272,新規,0,2022-09-22,2022-09-22,合同会社ＡｏｉＥｃｏ,,合同会社,愛知県,小牧市,城山３丁目５番地サンコート桃花台Ｄ棟４０１,,23,219,4850812,,,,,,,2022-09-22,1,,,,,アオイエコ,0
918,4180003024289,新規,0,2022-09-22,2022-09-22,合同会社ＮＩＫＩ,,合同会社,愛知県,名古屋市中村区,名駅４丁目２４番５号第２森ビル４０１,,23,105,4500002,,,,,,,2022-09-22,1,,,,,ニキ,0
919,4180005019923,新規,0,2022-09-22,2022-09-22,一般社団法人デジタル大使館,,その他の設立登記法人,愛知県,名古屋市西区,那古野２丁目１４番１号なごのキャンパス３－９,00127904,23,104,4510042,,,,,,,2022-09-22,1,,,,,デジタルタイシカン,0
922,4180301036655,新規,0,2022-09-22,2022-09-22,リバーシブル株式会社,,株式会社,愛知県,岡崎市,羽根東町２丁目２番地３,,23,202,4440832,,,,,,,2022-09-22,1,,,,,リバーシブル,0
927,4200001040467,新規,0,2022-09-22,2022-09-22,株式会社ＫＳインターナショナル,,株式会社,岐阜県,瑞穂市,小城町二丁目７番地,,21,216,5010200,,,,,,,2022-09-22,1,,,,,ケーエスインターナショナル,0
929,4210001019064,新規,0,2022-09-22,2022-09-22,株式会社坪川商会,,株式会社,福井県,坂井市,丸岡町新九頭竜２丁目１３７番地,,18,210,9100369,,,,,,,2022-09-22,1,,,,,ツボカワショウカイ,0
933,4240001060387,新規,0,2022-09-22,2022-09-22,ｒｅｓｉｐｌｅ株式会社,,株式会社,広島県,広島市東区,矢賀２丁目８番２９－１０６号,,34,102,7320042,,,,,,,2022-09-22,1,,,,,レシプル,0
939,4280005007505,新規,0,2022-09-22,2022-09-22,一般社団法人おおなん木の学校,,その他の設立登記法人,島根県,邑智郡邑南町,雪田３０８番地,,32,449,6960506,,,,,,,2022-09-22,1,,,,,,0
945,4290003012968,新規,0,2022-09-22,2022-09-22,合同会社ひより,,合同会社,福岡県,福岡市東区,多の津５丁目５－１２フジノビルサンフォーカス２０２,,40,131,8130034,,,,,,,2022-09-22,1,,,,,ヒヨリ,0
946,4290003012976,新規,0,2022-09-22,2022-09-22,合同会社ｃｏｃｕｔｅ,,合同会社,福岡県,糟屋郡久山町,大字久原１８４３番地１８４,,40,348,8112501,,,,,,,2022-09-22,1,,,,,コキュット,0
949,4290803004207,新規,0,2022-09-22,2022-09-22,天星合同会社,,合同会社,福岡県,北九州市八幡西区,千代ケ崎３丁目６番２４号,,40,109,8070803,,,,,,,2022-09-22,1,,,,,テンセイ,0
951,4320005010017,新規,0,2022-09-22,2022-09-22,特定非営利活動法人ＺＩＰＡＮＧＵ　ＭＩＬＥＬＥ基金,,その他の設立登記法人,大分県,大分市,大字津守８８８番地７,,44,201,8700945,,,,,,,2022-09-22,1,,,,,ジパングミレキキン,0
954,4360003012325,新規,0,2022-09-22,2022-09-22,合同会社沖縄ＬＭ企画,,合同会社,沖縄県,那覇市,首里金城町４丁目２８番地８,,47,201,9030815,,,,,,,2022-09-22,1,,,,,オキナワエルエムキカク,0
956,4370001049079,新規,0,2022-09-22,2022-09-22,アドバンスメディカル株式会社,,株式会社,宮城県,仙台市若林区,上飯田２丁目８番３４号,,04,103,9840838,,,,,,,2022-09-22,1,,,,,アドバンスメディカル,0
957,4370005010532,新規,0,2022-09-22,2022-09-22,司法書士法人沖田事務所,,その他の設立登記法人,宮城県,仙台市青葉区,上杉４丁目２番４４号,,04,101,9800011,,,,,,,2022-09-22,1,,,,,オキタジムショ,0
958,4380001033123,新規,0,2022-09-22,2022-09-22,株式会社オール総業,,株式会社,福島県,田村郡三春町,大字貝山字沼倉７番１,,07,521,9637719,,,,,,,2022-09-22,1,,,,,オールソウギョウ,0
969,4440001009158,新規,0,2022-09-22,2022-09-22,株式会社ゆうぜん,,株式会社,北海道,北斗市,七重浜４丁目３２番２４号,,01,236,0490111,,,,,,,2022-09-22,1,,,,,ユウゼン,0
975,4500005008521,新規,0,2022-09-22,2022-09-22,特定非営利活動法人ＣＴＳｐｏｒｔｓ愛媛,,その他の設立登記法人,愛媛県,松山市,平井町甲２８５８－１,,38,201,7910243,,,,,,,2022-09-22,1,,,,,シーティースポーツエヒメ,0
977,4700150111786,新規,0,2022-09-22,2022-09-22,ＲＥＳＯＬＶＥ　ＰＲＯＪＥＣＴ　ＭＡＮＡＧＥＭＥＮＴ　ＰＴＹ　ＬＴＤ,,外国会社等,長野県,北安曇郡白馬村,大字北城４８８８－６,,20,485,3999301,ＢＡＴＥＳ　＆　ＰＩＣＫＥＲＩＮＧ　ＬＥＶＥＬ　１　１１　ＦＩＴＺＲＯＹ　ＳＴＲＥＥＴ　ＦＯＲＲＥＳＴ　ＡＣＴ　２６０３,,,,,,2022-09-22,1,,,,,リゾルブプロジエクトマネジメントピーテイーワイエルテイデイ,0
978,4700150111803,新規,0,2022-09-22,2022-09-22,Ｋａｎｄｙ　Ａｕｔｏ　Ｅｎｔｅｒｐｒｉｓｅｓ,,外国会社等,千葉県,成田市,名古屋３６１番地１オフィス２,,12,211,2890116,スリランカ民主社会主義共和国、ラムブッカナ、クルネガラロード、７７,,,,,,2022-09-22,1,,,,,キヤンデイオートエンタープライズ,0
1003,5010005035580,新規,0,2022-09-22,2022-09-22,社会保険労務士法人スフィア,,その他の設立登記法人,東京都,千代田区,麹町３丁目１０－１ＴＷＧ麹町５階,,13,101,1020083,,,,,,,2022-09-22,1,,,,,スフィア,0
1012,5010401169809,新規,0,2022-09-22,2022-09-22,ディフェンダー株式会社,,株式会社,東京都,港区,六本木７丁目１２－２Ｒ７ビルディング３階,,13,103,1060032,,,,,,,2022-09-22,1,,,,,ディフェンダー,0
1013,5010401169817,新規,0,2022-09-22,2022-09-22,株式会社Ｇｉｒａｓｏｌｅ,,株式会社,東京都,港区,赤坂２丁目８番１４号ラミアール赤坂３０７号室,,13,103,1070052,,,,,,,2022-09-22,1,,,,,ジラソーレ,0
1021,5010601061831,新規,0,2022-09-22,2022-09-22,株式会社たんぽぽ,,株式会社,東京都,墨田区,八広４丁目４７番１８－１０３号ビューノナガサカ八広４,,13,107,1310041,,,,,,,2022-09-22,1,,,,,タンポポ,0
1024,5010701043168,新規,0,2022-09-22,2022-09-22,株式会社ＴＭＨ,,株式会社,東京都,品川区,東五反田２丁目１０番１－３９１３号,,13,109,1410022,,,,,,,2022-09-22,1,,,,,ティーエムエイチ,0
1025,5010701043242,新規,0,2022-09-22,2022-09-22,株式会社クラッチパートナー,,株式会社,東京都,品川区,東五反田２丁目３番５号五反田中央ビル７階,,13,109,1410022,,,,,,,2022-09-22,1,,,,,クラッチパートナー,0
1030,5010903007656,新規,0,2022-09-22,2022-09-22,合同会社ＣＯＲＴＩＬＥ,,合同会社,東京都,世田谷区,東玉川１丁目３４番１３号,,13,112,1580084,,,,,,,2022-09-22,1,,,,,コルティーレ,0
1039,5011001149440,新規,0,2022-09-22,2022-09-22,株式会社Ｃｏｗｅｌｌ,,株式会社,東京都,渋谷区,神宮前１丁目１９－８原宿ファミリービル４０５,,13,113,1500001,,,,,,,2022-09-22,1,,,,,コーウェル,0
1040,5011001149845,新規,0,2022-09-22,2022-09-22,株式会社Ｔｓｕｎａｇｕｗａ,,株式会社,東京都,渋谷区,渋谷１丁目１－３アミーホール３Ｆ,,13,113,1500002,,,,,,,2022-09-22,1,,,,,ツナグワ,0
1049,5011101100253,新規,0,2022-09-22,2022-09-22,株式会社アルバ工建,,株式会社,東京都,新宿区,西新宿４丁目１４番７号,,13,104,1600023,,,,,,,2022-09-22,1,,,,,アルバコウケン,0
1053,5011301028113,新規,0,2022-09-22,2022-09-22,ＭＡＣ株式会社,,株式会社,東京都,杉並区,上井草３丁目１３番１３号,,13,115,1670023,,,,,,,2022-09-22,1,,,,,エムエーシー,0
1056,5011401024557,新規,0,2022-09-22,2022-09-22,株式会社パズル,,株式会社,東京都,板橋区,前野町１丁目１１番２号,,13,119,1740063,,,,,,,2022-09-22,1,,,,,パズル,0
1059,5011601026262,新規,0,2022-09-22,2022-09-22,アールティー不動産株式会社,,株式会社,東京都,練馬区,立野町１４番２７号,,13,120,1770054,,,,,,,2022-09-22,1,,,,,アールティーフドウサン,0
1063,5011803005270,新規,0,2022-09-22,2022-09-22,匯通合同会社,00127913,合同会社,東京都,足立区,千住緑町２丁目２７－７－１０１,,13,121,1200044,,,,,,,2022-09-22,1,,,,,カイツウ,0
1072,5020001148294,新規,0,2022-09-22,2022-09-22,ＹＣ株式会社,,株式会社,神奈川県,横浜市神奈川区,菅田町８６７番地１８１,,14,102,2210864,,,,,,,2022-09-22,1,,,,,ワイシー,0
1073,5020003022431,新規,0,2022-09-22,2022-09-22,Ｃａｓａ　Ｆｅｌｉｃｅ合同会社,,合同会社,神奈川県,川崎市中原区,中丸子７９６－１パークホームズ多摩川中丸子４０２,,14,133,2110012,,,,,,,2022-09-22,1,,,,,カーサフェリーチェ,0
1074,5020005015664,新規,0,2022-09-22,2022-09-22,特定非営利活動法人宮大工木造技術継承協会,,その他の設立登記法人,神奈川県,横浜市鶴見区,市場西中町８－９,,14,101,2300023,,,,,,,2022-09-22,1,,,,,ミヤダイクモクゾウギジュツケイショウキョウカイ,0
1079,5021005012619,新規,0,2022-09-22,2022-09-22,ＮＰＯ法人駐在親子の笑顔咲かせ心育むＨｉｍａｗａｒｉ,,その他の設立登記法人,神奈川県,大和市,南林間６丁目４番２６号,,14,213,2420006,,,,,,,2022-09-22,1,,,,,チュウザイオヤコノエガオサカセココロハグクムヒマワリ,0
1081,5030001150175,新規,0,2022-09-22,2022-09-22,株式会社コムレイズ,,株式会社,埼玉県,児玉郡上里町,大字七本木５４５１番,,11,385,3690306,,,,,,,2022-09-22,1,,,,,コムレイズ,0
1082,5030001150209,新規,0,2022-09-22,2022-09-22,千弘未来株式会社,,株式会社,埼玉県,川口市,柳崎１丁目２６番１４号,,11,203,3330861,,,,,,,2022-09-22,1,,,,,チヒロミライ,0
1092,5040003020879,新規,0,2022-09-22,2022-09-22,合同会社ＬＧＳ　ＥＮＴＥＲＰＲＩＳＥＳ,,合同会社,千葉県,山武郡芝山町,高田１１７５番地６,,12,409,2891623,,,,,,,2022-09-22,1,,,,,エルジーエスエンタープライセズ,0
1094,5050001051693,新規,0,2022-09-22,2022-09-22,株式会社ＢＯＮＤ,,株式会社,茨城県,古河市,磯部１０８４番地１,,08,204,3060225,,,,,,,2022-09-22,1,,,,,ボンド,0
1096,5050003006869,新規,0,2022-09-22,2022-09-22,合同会社ＦＩＶＥ,,合同会社,茨城県,ひたちなか市,大字足崎１２８７番地１０１,,08,221,3120003,,,,,,,2022-09-22,1,,,,,ファイヴ,0
1104,5110001036977,新規,0,2022-09-22,2022-09-22,株式会社燕三条キッチン研究所,,株式会社,新潟県,燕市,小池３６３３番地１０,,15,213,9591276,,,,,,,2022-09-22,1,,,,,ツバメサンジョウキッチンケンキュウショ,0
1111,5120001248976,新規,0,2022-09-22,2022-09-22,ＩＨＱ株式会社,,株式会社,大阪府,大阪市北区,兎我野町１１－１９浪速ビル３０２,,27,127,5300056,,,,,,,2022-09-22,1,,,,,アイエイチキュー,0
1112,5120001249000,新規,0,2022-09-22,2022-09-22,株式会社ＡＳＫ,,株式会社,大阪府,交野市,天野が原町４丁目１１番１３号,,27,230,5760034,,,,,,,2022-09-22,1,,,,,エイエスケイ,0
1115,5120003022504,新規,0,2022-09-22,2022-09-22,ＳＡＨＡＲＡ合同会社,,合同会社,大阪府,大阪市西成区,松１丁目９－１井下花園マンション１階店舗００５号室,,27,122,5570034,,,,,,,2022-09-22,1,,,,,サハラ,0
1119,5120901046513,新規,0,2022-09-22,2022-09-22,内海ジェイユーホールディングス株式会社,,株式会社,大阪府,高槻市,北園町１３番１９号,,27,207,5690802,,,,,,,2022-09-22,1,,,,,ウツミジェイユーホールディングス,0
1133,5140001127419,新規,0,2022-09-22,2022-09-22,富秦株式会社,,株式会社,兵庫県,神戸市中央区,楠町１丁目１４番１２号明賢マンション４０１号室,,28,110,6500017,,,,,,,2022-09-22,1,,,,,トミハタ,0
1134,5140001127435,新規,0,2022-09-22,2022-09-22,子午線不動産サービス株式会社,,株式会社,兵庫県,神戸市西区,小山３丁目８番１１号,,28,111,6512144,,,,,,,2022-09-22,1,,,,,シゴセンフドウサンサービス,0
1137,5140003018153,新規,0,2022-09-22,2022-09-22,麗崋商事合同会社,,合同会社,兵庫県,神戸市兵庫区,梅元町９番２０号－２号,,28,105,6520003,,,,,,,2022-09-22,1,,,,,レイカショウジ,0
1139,5160001024523,新規,0,2022-09-22,2022-09-22,株式会社ＭＵＳＵＨＩ,,株式会社,滋賀県,愛知郡愛荘町,愛知川４５５－９,,25,425,5291331,,,,,,,2022-09-22,1,,,,,ムスヒ,0
1140,5160005011113,新規,0,2022-09-22,2022-09-22,司法書士法人中野事務所,,その他の設立登記法人,滋賀県,守山市,梅田町１番１９－４０１号,,25,207,5240037,,,,,,,2022-09-22,1,,,,,ナカノジムショ,0
1142,5170001017286,新規,0,2022-09-22,2022-09-22,株式会社Ｌｉｎｏ,,株式会社,和歌山県,新宮市,田鶴原町１丁目３番１号,,30,207,6470031,,,,,,,2022-09-22,1,,,,,リノ,0
1148,5180001153064,新規,0,2022-09-22,2022-09-22,株式会社ＣＨＡＮＧＥエネルギー,,株式会社,愛知県,岩倉市,東町藤塚１７５番地,,23,228,4820041,,,,,,,2022-09-22,1,,,,,チェンジエネルギー,0
1149,5180001153080,新規,0,2022-09-22,2022-09-22,株式会社ＱＵＡＤＳ,,株式会社,愛知県,名古屋市名東区,平和が丘３丁目８８番地の３,,23,115,4650097,,,,,,,2022-09-22,1,,,,,クワッズ,0
1150,5180001153089,新規,0,2022-09-22,2022-09-22,株式会社アンサンブル,,株式会社,愛知県,あま市,富塚布内７番地,,23,237,4901202,,,,,,,2022-09-22,1,,,,,アンサンブル,0
1151,5180001153097,新規,0,2022-09-22,2022-09-22,株式会社ナゴス,,株式会社,愛知県,長久手市,草掛５１番地１７,,23,238,4801184,,,,,,,2022-09-22,1,,,,,ナゴス,0
1153,5180003024288,新規,0,2022-09-22,2022-09-22,合同会社伊吹,,合同会社,愛知県,名古屋市中村区,名駅４丁目２４番５号第２森ビル４０１,,23,105,4500002,,,,,,,2022-09-22,1,,,,,イブキ,0
1154,5180003024296,新規,0,2022-09-22,2022-09-22,合同会社ナゴハチ,,合同会社,愛知県,名古屋市中村区,名駅４丁目２４番５号第２森ビル４０１,,23,105,4500002,,,,,,,2022-09-22,1,,,,,ナゴハチ,0
1155,5180005019939,新規,0,2022-09-22,2022-09-22,ミライズ司法書士法人,,その他の設立登記法人,愛知県,春日井市,朝宮町２丁目１３番地２２,,23,206,4860846,,,,,,,2022-09-22,1,,,,,ミライズ,0
1156,5180301036646,新規,0,2022-09-22,2022-09-22,株式会社酒井組,,株式会社,愛知県,岡崎市,北野町字大訳３９番地１,,23,202,4440951,,,,,,,2022-09-22,1,,,,,サカイグミ,0
1157,5180301036654,新規,0,2022-09-22,2022-09-22,偉峰株式会社,,株式会社,愛知県,豊川市,伊奈町南山新田９９番地１２３,,23,207,4410105,,,,,,,2022-09-22,1,,,,,ウェイフォン,0
1159,5190001029775,新規,0,2022-09-22,2022-09-22,株式会社中西工業,,株式会社,三重県,四日市市,生桑町２８８番地５,,24,202,5120911,,,,,,,2022-09-22,1,,,,,ナカニシコウギョウ,0
1163,5200001040458,新規,0,2022-09-22,2022-09-22,株式会社アキラ商事,,株式会社,岐阜県,美濃加茂市,牧野１７４８番地５,,21,211,5050016,,,,,,,2022-09-22,1,,,,,アキラショウジ,0
1173,5240005015460,新規,0,2022-09-22,2022-09-22,医療法人むらき小児科,,その他の設立登記法人,広島県,広島市西区,庚午北２丁目２２番４号,,34,104,7330821,,,,,,,2022-09-22,1,,,,,ムラキショウニカ,0
1181,5290001098959,新規,0,2022-09-22,2022-09-22,Ｆ＆Ｌ株式会社,,株式会社,福岡県,福岡市博多区,銀天町２丁目２－２１－１００１,,40,132,8120879,,,,,,,2022-09-22,1,,,,,エフアンドエル,0
1182,5290001098967,新規,0,2022-09-22,2022-09-22,株式会社ｍｉｓｕｃｏ,,株式会社,福岡県,福岡市東区,原田２丁目１９番２号,,40,131,8120063,,,,,,,2022-09-22,1,,,,,ミスコ,0
1183,5290001098983,新規,0,2022-09-22,2022-09-22,株式会社山築舎,,株式会社,福岡県,福津市,日蒔野４丁目８番地の１０,,40,224,8113209,,,,,,,2022-09-22,1,,,,,サンチクシャ,0
1187,5290003012975,新規,0,2022-09-22,2022-09-22,合同会社Ｂｅ　Ｕ’ｓ　Ｂｒｉｄｇｅ,,合同会社,福岡県,筑後市,大字長浜１６４番地２,,40,211,8330005,,,,,,,2022-09-22,1,,,,,ビーユーズブリッジ,0
1188,5290005018814,新規,0,2022-09-22,2022-09-22,一般社団法人日本精神神経画像センター,,その他の設立登記法人,福岡県,福岡市中央区,大名２丁目４番２２号新日本ビル３階ＯｎＲａｍｐ内,,40,133,8100041,,,,,,,2022-09-22,1,,,,,ニホンセイシンシンケイガゾウセンター,0
1212,5430003014296,新規,0,2022-09-22,2022-09-22,合同会社レイズ,,合同会社,北海道,札幌市東区,北四十四条東７丁目３番３０号,,01,103,0070844,,,,,,,2022-09-22,1,,,,,レイズ,0
1213,5440003001483,新規,0,2022-09-22,2022-09-22,合同会社ＥＧＡＯ,,合同会社,北海道,函館市,桔梗３丁目３２番９号,,01,202,0410808,,,,,,,2022-09-22,1,,,,,エガオ,0
1217,5480001011860,新規,0,2022-09-22,2022-09-22,シンユウ設備株式会社,,株式会社,徳島県,三好郡東みよし町,足代１１７４番地１,,36,489,7712502,,,,,,,2022-09-22,1,,,,,シンユウセツビ,0
1227,5700150111785,新規,0,2022-09-22,2022-09-22,ＤａｎｙａｎｇＣａｍｐｋｉｎｇＳｐｏｒｔｓＰｒｏｄｕｃｔＣｏ．，Ｌｔｄ．,,外国会社等,,,,,,,,ＸＩＸＩＡ　ＱＩＮ　ＶＩＬＬＡＧＥ，ＤＡＯＳＨＵ　ＴＯＷＮ，ＤＡＮＹＡＮＧ　ＣＩＴＹ,,,,,,2022-09-22,1,,,,,ダンヤンキヤンプイングスポーツプロダクツカンパニーリミテツド,0
1228,5700150111793,新規,0,2022-09-22,2022-09-22,ＪＵＭＬＩ　ＮＩＲＭＡＮ　ＳＥＷＡＰＶＴ．ＬＴＤ．,,外国会社等,東京都,大田区,東矢口２丁目１２番２号あけみ荘２０１,,13,111,1460094,ネパール国、バグルング地区、バグルング自治体、０３番,,,,,,2022-09-22,1,,,,,ジユムリニルマンセワプライベートリミテツド,0
1229,5700150111802,新規,0,2022-09-22,2022-09-22,ＥＡＳＴＥＲＮ　ＡＵＴＯ　ＭＡＲＴ,,外国会社等,千葉県,八街市,東吉田４９４番地２２,,12,230,2891114,スリランカ民主社会主義共和国、キャンディ、プジャピティヤ、アンクンブラロード、１０５,,,,,,2022-09-22,1,,,,,イースタンオートマート,0
1247,6010401169849,新規,0,2022-09-22,2022-09-22,株式会社ｅｉｇｈｔｋｎｏｔ,,株式会社,東京都,港区,赤坂４丁目８番１９号,,13,103,1070052,,,,,,,2022-09-22,1,,,,,エイトノット,0
1258,6010801033282,新規,0,2022-09-22,2022-09-22,株式会社ＢＩＧＳＴＯＮＥ,,株式会社,東京都,大田区,山王４丁目１１番７－３０６号,,13,111,1430023,,,,,,,2022-09-22,1,,,,,ビッグストーン,0
1259,6010903007655,新規,0,2022-09-22,2022-09-22,合同会社ロカムーン,,合同会社,東京都,世田谷区,粕谷２丁目４番７号パークホームズ蘆花恒春園フォレストコート２０５,,13,112,1570063,,,,,,,2022-09-22,1,,,,,ロカムーン,0
1262,6011003015417,新規,0,2022-09-22,2022-09-22,合同会社ＲａｄｉＣｏｎ　Ｑ,,合同会社,東京都,目黒区,八雲２丁目７番８号コルヌイエ八雲２０６,,13,110,1520023,,,,,,,2022-09-22,1,,,,,ラジコンキュー,0
1264,6011005009739,新規,0,2022-09-22,2022-09-22,一般社団法人今野敏,,その他の設立登記法人,東京都,目黒区,上目黒２丁目２１番９号,,13,110,1530051,,,,,,,2022-09-22,1,,,,,コンノビン,0
1268,6011105010415,新規,0,2022-09-22,2022-09-22,一般社団法人日本ダイエットアカデミー協会,,その他の設立登記法人,東京都,新宿区,西新宿１丁目４番１１号,,13,104,1600023,,,,,,,2022-09-22,1,,,,,ニホンダイエットアカデミーキョウカイ,0
1272,6011201024112,新規,0,2022-09-22,2022-09-22,株式会社零ＨＬＤ,,株式会社,東京都,中野区,大和町４丁目５６番地６号あざみハイツ１０１号,,13,114,1650034,,,,,,,2022-09-22,1,,,,,ゼロホールディングス,0
1278,6011701025634,新規,0,2022-09-22,2022-09-22,株式会社レアリゼ,,株式会社,東京都,江戸川区,臨海町５丁目３番１－９２０号,,13,123,1340086,,,,,,,2022-09-22,1,,,,,レアリゼ,0
1288,6020003022430,新規,0,2022-09-22,2022-09-22,合同会社スマイル,,合同会社,神奈川県,横浜市都筑区,茅ケ崎中央５２番２－９０５号,,14,118,2240032,,,,,,,2022-09-22,1,,,,,スマイル,0
1290,6021001077029,新規,0,2022-09-22,2022-09-22,株式会社ＡＣＴＩＶＩＳＩＯＮ,,株式会社,神奈川県,茅ヶ崎市,浜須賀１６ー３０,,14,207,2530035,,,,,,,2022-09-22,1,,,,,アクティヴィジョン,0
1295,6030001150174,新規,0,2022-09-22,2022-09-22,株式会社Ｔｏｏ‐ＢＥＥ,,株式会社,埼玉県,さいたま市浦和区,本太４丁目２２番２５号,,11,107,3300052,,,,,,,2022-09-22,1,,,,,トゥービー,0
1296,6030001150182,新規,0,2022-09-22,2022-09-22,株式会社ＴＳ,,株式会社,埼玉県,春日部市,小渕１２０３番地８,,11,214,3440007,,,,,,,2022-09-22,1,,,,,ティース,0
1304,6040001124796,新規,0,2022-09-22,2022-09-22,株式会社ＴＯＴＡＬＲＥＵＳＥ,,株式会社,千葉県,八千代市,上高野７３－１１,,12,221,2760022,,,,,,,2022-09-22,1,,,,,トータルリユース,0
1305,6040001125150,新規,0,2022-09-22,2022-09-22,海麗株式会社,,株式会社,千葉県,成田市,東町６０７番地１成田東町ビル４Ｆ－４０３号室,,12,211,2860025,,,,,,,2022-09-22,1,,,,,カイレイ,0
1306,6040001125159,新規,0,2022-09-22,2022-09-22,株式会社京葉塗装,,株式会社,千葉県,船橋市,東船橋６丁目４番１２号,,12,204,2730002,,,,,,,2022-09-22,1,,,,,ケイヨウトソウ,0
1309,6040003020878,新規,0,2022-09-22,2022-09-22,ＳＡＮＵ　ＩＮＴＥＲＮＡＴＩＯＮＡＬ合同会社,,合同会社,千葉県,山武市,和田１１６２番地１グリーンウッド２０１号室,,12,237,2891334,,,,,,,2022-09-22,1,,,,,サヌインターナショナル,0
1310,6040003020894,新規,0,2022-09-22,2022-09-22,合同会社Ｈａｖｅ　Ｆｕｎ　Ｆｏｏｄ　Ｓｅｒｖｉｃｅ,,合同会社,千葉県,市川市,曽谷５丁目２５番９号,,12,203,2720832,,,,,,,2022-09-22,1,,,,,ハブファンフードサービス,0
1311,6040003020903,新規,0,2022-09-22,2022-09-22,アポストロフ合同会社,,合同会社,千葉県,千葉市美浜区,磯辺４丁目２４番１６号,,12,106,2610012,,,,,,,2022-09-22,1,,,,,アポストロフ,0
1315,6050003006868,新規,0,2022-09-22,2022-09-22,ＲＥＮＵ　ＡＳＩＡＮ　ＦＯＯＤ合同会社,,合同会社,茨城県,結城市,大字結城８４０番地１ダイヤマテナント１Ｆ北,,08,207,3070001,,,,,,,2022-09-22,1,,,,,レヌアジアンフード,0
1318,6070003004622,新規,0,2022-09-22,2022-09-22,合同会社セシルクオリティ,,合同会社,群馬県,安中市,中秋間３５５番地７,,10,211,3790103,,,,,,,2022-09-22,1,,,,,セシルクオリティ,0
1324,6100001035715,新規,0,2022-09-22,2022-09-22,ＥａｓｔＧａｔｅ白馬ホテル株式会社,,株式会社,長野県,北安曇郡白馬村,大字北城４９８５番地,,20,485,3999301,,,,,,,2022-09-22,1,,,,,イーストゲートハクバホテル,0
1325,6110001036976,新規,0,2022-09-22,2022-09-22,株式会社森林再生エネルギー,,株式会社,新潟県,新潟市東区,紫竹２丁目６番３号,,15,102,9500864,,,,,,,2022-09-22,1,,,,,シンリンサイセイエネルギー,0
1337,6120001248926,新規,0,2022-09-22,2022-09-22,株式会社夕望,,株式会社,大阪府,大阪市中央区,内久宝寺町４丁目４番３号日宝パールビル４Ｆ１号室,,27,128,5400013,,,,,,,2022-09-22,1,,,,,ユウボウ,0
1338,6120001248959,新規,0,2022-09-22,2022-09-22,株式会社ルブリケーション,,株式会社,大阪府,大阪市港区,夕凪１丁目１２番１５号,,27,107,5520004,,,,,,,2022-09-22,1,,,,,ルブリケーション,0
1339,6120001248975,新規,0,2022-09-22,2022-09-22,稲川グループ株式会社,,株式会社,大阪府,大阪市北区,西天満４丁目１４番３号,,27,127,5300047,,,,,,,2022-09-22,1,,,,,イナガワグループ,0
1340,6120001248991,新規,0,2022-09-22,2022-09-22,株式会社ビレッジピクス,,株式会社,大阪府,大阪市東住吉区,田辺４丁目１２－１４ラポタナベ６０２,,27,121,5460031,,,,,,,2022-09-22,1,,,,,ビレッジピクス,0
1348,6120101066245,新規,0,2022-09-22,2022-09-22,株式会社ＫＩＲＡＲＩＡ,,株式会社,大阪府,大阪狭山市,西山台６丁目１４－１０－１１０２,,27,231,5890022,,,,,,,2022-09-22,1,,,,,キラリア,0
1349,6120101066253,新規,0,2022-09-22,2022-09-22,株式会社リエゾン,,株式会社,大阪府,堺市堺区,戎島町４丁４５番１号ポルタスセンタービル１３階１３０１号室,,27,141,5900985,,,,,,,2022-09-22,1,,,,,リエゾン,0
1351,6120103004863,新規,0,2022-09-22,2022-09-22,Ｍｉｒａｋｕｍｕ合同会社,,合同会社,大阪府,堺市北区,中百舌鳥町６丁９９１番地４－３０３号室,,27,146,5918023,,,,,,,2022-09-22,1,,,,,ミラクム,0
1363,6130001072664,新規,0,2022-09-22,2022-09-22,株式会社トータル物流,,株式会社,京都府,宇治市,大久保町大竹４８番地コーポ南城園２０８号,,26,204,6110033,,,,,,,2022-09-22,1,,,,,トータルブツリュウ,0
1364,6130001072697,新規,0,2022-09-22,2022-09-22,株式会社ぎおん,,株式会社,京都府,宇治市,伊勢田町砂田６番地１２,,26,204,6110043,,,,,,,2022-09-22,1,,,,,ギオン,0
1370,6140001127426,新規,0,2022-09-22,2022-09-22,株式会社三九,,株式会社,兵庫県,姫路市,船橋町５丁目７－１－３０３,,28,201,6700048,,,,,,,2022-09-22,1,,,,,サンキュウ,0
1376,6160001024522,新規,0,2022-09-22,2022-09-22,辰誠農林水産株式会社,,株式会社,滋賀県,長浜市,早崎町１２３５番地１,,25,203,5260124,,,,,,,2022-09-22,1,,,,,タッセイノウリンスイサン,0
1378,6160003002674,新規,0,2022-09-22,2022-09-22,ひびき合同会社,,合同会社,滋賀県,草津市,野村１丁目１４番８号,,25,206,5250027,,,,,,,2022-09-22,1,,,,,ヒビキ,0
1387,6180001153088,新規,0,2022-09-22,2022-09-22,日本ものづくり事業承継投資株式会社,,株式会社,愛知県,名古屋市中区,錦１丁目５番１１号,,23,106,4600003,,,,,,,2022-09-22,1,,,,,ニホンモノヅクリジギョウショウケイトウシ,0
1388,6180003024279,新規,0,2022-09-22,2022-09-22,５ＦＲＡＮＣ合同会社,,合同会社,愛知県,名古屋市中区,栄３丁目１９番２７号,,23,106,4600008,,,,,,,2022-09-22,1,,,,,ゴフラン,0
1393,6200003005680,新規,0,2022-09-22,2022-09-22,合同会社青芝,,合同会社,岐阜県,不破郡垂井町,１１０１番地の４,,21,361,5032121,,,,,,,2022-09-22,1,,,,,アオシバ,0
1399,6240001060393,新規,0,2022-09-22,2022-09-22,株式会社カクタスケア,,株式会社,広島県,広島市中区,千田町３丁目１番９号１０１号室,,34,101,7300052,,,,,,,2022-09-22,1,,,,,カクタスケア,0
1405,6260001037258,新規,0,2022-09-22,2022-09-22,株式会社Ｄｉｓｈ,,株式会社,岡山県,倉敷市,連島町連島１２５番地２,,33,202,7128011,,,,,,,2022-09-22,1,,,,,ディッシュ,0
1411,6290001098974,新規,0,2022-09-22,2022-09-22,株式会社カナン福岡,,株式会社,福岡県,大野城市,仲畑１丁目１６番１１号,,40,219,8160921,,,,,,,2022-09-22,1,,,,,カナンフクオカ,0
1421,6310003004449,新規,0,2022-09-22,2022-09-22,合同会社吉建,,合同会社,長崎県,佐世保市,吉井町直谷１２５１番地８,,42,202,8596305,,,,,,,2022-09-22,1,,,,,ヨシケン,0
1422,6330001030131,新規,0,2022-09-22,2022-09-22,株式会社ＩＬＯ,,株式会社,熊本県,上益城郡甲佐町,大字西寒野７７６番地,,43,444,8614609,,,,,,,2022-09-22,1,,,,,イロ,0
1429,6370003005838,新規,0,2022-09-22,2022-09-22,合同会社Ｇ．Ｂ．Ａ　ＡＳＩＡＮ　ＨＡＬＡＬ　ＦＯＯＤ,,合同会社,宮城県,柴田郡村田町,大字村田字町７５番地２木村アパートＡ号,,04,322,9891305,,,,,,,2022-09-22,1,,,,,ジービーエーアジアンハラールフード,0
1440,6430001087509,新規,0,2022-09-22,2022-09-22,株式会社フィールドワークス,,株式会社,北海道,札幌市東区,北二十条東２１丁目３番１０号,,01,103,0650020,,,,,,,2022-09-22,1,,,,,フィールドワークス,0
1441,6430001087525,新規,0,2022-09-22,2022-09-22,株式会社白組,,株式会社,北海道,恵庭市,有明町１丁目９番１－１０３号,,01,231,0611431,,,,,,,2022-09-22,1,,,,,シログミ,0
1451,6500003002895,新規,0,2022-09-22,2022-09-22,合同会社ハーバードＳＨＩ．Ｎ,,合同会社,愛媛県,四国中央市,妻鳥町１６７９番地１０,,38,213,7990113,,,,,,,2022-09-22,1,,,,,ハーバードシン,0
1452,6700150111784,新規,0,2022-09-22,2022-09-22,ＫｉｎｇｗｉｎＩｎｔｅｒｎｅｔＴｅｃｈｎｏｌｏｇｙＣｏ．，Ｌｔｄ．,,外国会社等,,,,,,,,１８ｔｈ　ｆｌｏｏｒ　Ｎｏ．２，ｄａ　ｊｉａｏ　ｔｉｎｇ　ｍｉｄｄｌｅ　ｓｔ．，ｃｈａｏｙａｎｇ　ｄｉｓｔｒｉｃｔ，ｂｅｉｊｉｎｇ,,,,,,2022-09-22,1,,,,,キンウインインターネツトテクノロジーカンパニーリミテツド,0
1453,6700150111792,新規,0,2022-09-22,2022-09-22,静岡市宮川・水上土地区画整理組合,,その他,静岡県,静岡市駿河区,大谷１丁目７番３２号,,22,102,4228017,,,,,,,2022-09-22,1,,,,,シズオカシミヤガワミズカミトチクカクセイリクミアイ,0
1460,7010001229671,新規,0,2022-09-22,2022-09-22,株式会社ナレッジ,,株式会社,東京都,中央区,銀座１丁目３番３号Ｇ１ビル７階,,13,102,1040061,,,,,,,2022-09-22,1,,,,,ナレッジ,0
1461,7010003038708,新規,0,2022-09-22,2022-09-22,合同会社彩七,,合同会社,東京都,千代田区,麹町１丁目３番地ダイアン麹町ビル３階,,13,101,1020083,,,,,,,2022-09-22,1,,,,,イロナ,0
1469,7010401169708,新規,0,2022-09-22,2022-09-22,株式会社Ｚ１,,株式会社,東京都,港区,芝大門１丁目６－６芝大門ヤマトビル３Ｆ,,13,103,1050012,,,,,,,2022-09-22,1,,,,,ゼットワン,0
1470,7010401169823,新規,0,2022-09-22,2022-09-22,株式会社マピ,,株式会社,東京都,港区,虎ノ門１丁目１５番７号,,13,103,1050001,,,,,,,2022-09-22,1,,,,,マピ,0
1471,7010401169831,新規,0,2022-09-22,2022-09-22,株式会社Ｍ＆Ｎ,,株式会社,東京都,港区,南青山３丁目１番３６号青山丸竹ビル６Ｆ,,13,103,1070062,,,,,,,2022-09-22,1,,,,,エムアンドエヌ,0
1472,7010401169856,新規,0,2022-09-22,2022-09-22,ＳＡＮプランニング株式会社,,株式会社,東京都,港区,海岸１丁目１番１－４２０８号,,13,103,1050022,,,,,,,2022-09-22,1,,,,,サンプランニング,0
1478,7010405021377,新規,0,2022-09-22,2022-09-22,一般社団法人エーエスケー,,その他の設立登記法人,東京都,港区,新橋１丁目５番５号グランベル銀座ビルＩＩ４階,00127901,13,103,1050004,,,,,,,2022-09-22,1,,,,,エーエスケー,0
1483,7010603009736,新規,0,2022-09-22,2022-09-22,合同会社クアストラック,,合同会社,東京都,江東区,有明３丁目７番２６号有明フロンティアビルＢ棟９階,,13,108,1350063,,,,,,,2022-09-22,1,,,,,クアストラック,0
1485,7010701043240,新規,0,2022-09-22,2022-09-22,株式会社スタディファクトリー,,株式会社,東京都,品川区,西五反田２丁目３０番４号,,13,109,1410031,,,,,,,2022-09-22,1,,,,,スタディファクトリー,0
1493,7011001149843,新規,0,2022-09-22,2022-09-22,株式会社Ａ‐ｔｙｐｅ,,株式会社,東京都,渋谷区,笹塚１丁目５６番２号,,13,113,1510073,,,,,,,2022-09-22,1,,,,,エータイプ,0
1501,7011103012189,新規,0,2022-09-22,2022-09-22,合同会社富禾,,合同会社,東京都,新宿区,高田馬場１丁目４番２１－８０３号,,13,104,1690075,,,,,,,2022-09-22,1,,,,,トミカ,0
1504,7011501028489,新規,0,2022-09-22,2022-09-22,＿＿株式会社,00127912,株式会社,東京都,北区,浮間１丁目１番１４号リムジンビル３２３,,13,117,1150051,,,,,,,2022-09-22,1,,,,,センセン,0
1507,7011601026260,新規,0,2022-09-22,2022-09-22,ＰＯＲＴ株式会社,,株式会社,東京都,練馬区,大泉学園町７丁目４番２２号,,13,120,1780061,,,,,,,2022-09-22,1,,,,,ポート,0
1514,7012401039659,新規,0,2022-09-22,2022-09-22,株式会社ソハナ,,株式会社,東京都,調布市,布田４丁目２７番地３０,,13,208,1820024,,,,,,,2022-09-22,1,,,,,ソハナ,0
1516,7012403005592,新規,0,2022-09-22,2022-09-22,合同会社ｍａｎｍａｒｕ,,合同会社,東京都,三鷹市,下連雀３丁目２５－１１－１２０４,,13,204,1810013,,,,,,,2022-09-22,1,,,,,マンマル,0
1519,7013301049698,新規,0,2022-09-22,2022-09-22,株式会社クセジュ,,株式会社,東京都,豊島区,目白３丁目１７番６号,,13,116,1710031,,,,,,,2022-09-22,1,,,,,クセジュ,0
1528,7020003022446,新規,0,2022-09-22,2022-09-22,合同会社Ｈ＆Ｄ,,合同会社,神奈川県,横浜市泉区,岡津町６５５番地３テラスＹＨ・ＩＩ１０４号,00127916,14,116,2450003,,,,,,,2022-09-22,1,,,,,エイチアンドディ,0
1531,7021001077011,新規,0,2022-09-22,2022-09-22,ＤＡＹＳＣＡＰＥ株式会社,,株式会社,神奈川県,相模原市緑区,二本松１丁目３１番１０号,,14,151,2520137,,,,,,,2022-09-22,1,,,,,デイスケープ,0
1532,7021001077028,新規,0,2022-09-22,2022-09-22,株式会社ｓｏａｒ,,株式会社,神奈川県,大和市,大和南２丁目１－５加瀬ビル１８７‐４Ｆ,,14,213,2420016,,,,,,,2022-09-22,1,,,,,ソアー,0
1536,7021003012164,新規,0,2022-09-22,2022-09-22,合同会社Ｔｈｅ　ＮｏｒｔｈＦｉｅｌｄｓ,,合同会社,神奈川県,逗子市,桜山５丁目４６番１０号,,14,208,2490005,,,,,,,2022-09-22,1,,,,,ザノースフィールズ,0
1552,7030003020218,新規,0,2022-09-22,2022-09-22,合同会社ＭＩＮＤＦＵＬＮＥＳＳ,,合同会社,埼玉県,ふじみ野市,上福岡４丁目１０番３号３,,11,245,3560004,,,,,,,2022-09-22,1,,,,,マインドフルネス,0
1553,7030003020234,新規,0,2022-09-22,2022-09-22,ＡＢＩＤ　ＣＡＲ　ＰＯＩＮＴ合同会社,,合同会社,埼玉県,春日部市,藤塚１５０７番地１,,11,214,3440011,,,,,,,2022-09-22,1,,,,,アビッドカーポイント,0
1562,7040003020869,新規,0,2022-09-22,2022-09-22,合同会社カラーリリー,,合同会社,千葉県,袖ケ浦市,奈良輪２丁目９－１,,12,229,2990263,,,,,,,2022-09-22,1,,,,,カラーリリー,0
1563,7040003020877,新規,0,2022-09-22,2022-09-22,ミラクル合同会社,,合同会社,千葉県,印西市,木下東１丁目８番地１１シノハラハイツＡ棟２０１号室,,12,231,2701323,,,,,,,2022-09-22,1,,,,,ミラクル,0
1572,7080003002871,新規,0,2022-09-22,2022-09-22,合同会社Ａｌｔｅｒｎａ,,合同会社,静岡県,静岡市葵区,城北２丁目８番１号,,22,101,4200805,,,,,,,2022-09-22,1,,,,,オルタナ,0
1574,7080103002656,新規,0,2022-09-22,2022-09-22,合同会社ドゥーエンジニアリング,,合同会社,静岡県,駿東郡小山町,一色１３４３番地の２,,22,344,4101325,,,,,,,2022-09-22,1,,,,,ドゥーエンジニアリング,0
1576,7100005012916,新規,0,2022-09-22,2022-09-22,農事組合法人西内農林組合,,その他の設立登記法人,長野県,上田市,西内９０４番地,,20,203,3860322,,,,,,,2022-09-22,1,,,,,ニシウチノウリンクミアイ,0
1589,7120001248982,新規,0,2022-09-22,2022-09-22,株式会社ＳｏｆｔＬｏｇｉＱ,,株式会社,大阪府,大阪市城東区,鴫野西３丁目３番１９号メゾンＹＭＣ３０１号,,27,118,5360014,,,,,,,2022-09-22,1,,,,,ソフトロジック,0
1590,7120001248990,新規,0,2022-09-22,2022-09-22,株式会社アダム,,株式会社,大阪府,大阪市北区,豊崎３丁目５番１２号,,27,127,5310072,,,,,,,2022-09-22,1,,,,,アダム,0
1593,7120003022493,新規,0,2022-09-22,2022-09-22,合同会社Ｂｅ　Ｆａｍｉｌｙ　Ａｕｔｏ,,合同会社,大阪府,大阪市西区,新町４丁目１０番２１号セルン新町１１１３号,,27,106,5500013,,,,,,,2022-09-22,1,,,,,ビーファミリーオート,0
1594,7120003022510,新規,0,2022-09-22,2022-09-22,合同会社ＯＴＰ,,合同会社,大阪府,大阪市北区,梅田１丁目２番２－２００号大阪駅前第２ビル２階３－１－２,,27,127,5300001,,,,,,,2022-09-22,1,,,,,オーティーピー,0
1598,7120901046511,新規,0,2022-09-22,2022-09-22,株式会社ドライバー,,株式会社,大阪府,高槻市,大塚町１丁目９番３０号,,27,207,5690034,,,,,,,2022-09-22,1,,,,,ドライバー,0
1600,7122003002426,新規,0,2022-09-22,2022-09-22,ＦＢコンサル合同会社,,合同会社,大阪府,四條畷市,田原台３丁目１８番１８号,,27,229,5750013,,,,,,,2022-09-22,1,,,,,エフビーコンサル,0
1607,7140001127425,新規,0,2022-09-22,2022-09-22,株式会社ＫＣＲＡＦＴ,,株式会社,兵庫県,高砂市,梅井２丁目９番５号,,28,216,6760074,,,,,,,2022-09-22,1,,,,,ケークラフト,0
1617,7180001153062,新規,0,2022-09-22,2022-09-22,株式会社のぞみ,,株式会社,愛知県,尾張旭市,北山町北山２６０番地２ウインフィールド北山Ａ－１０３,,23,226,4880056,,,,,,,2022-09-22,1,,,,,ノゾミ,0
1618,7180001153070,新規,0,2022-09-22,2022-09-22,株式会社ＡＶＥＳ,,株式会社,愛知県,名古屋市熱田区,金山町１丁目２番８号ジャルダン金山,,23,109,4560002,,,,,,,2022-09-22,1,,,,,エイブス,0
1619,7180001153087,新規,0,2022-09-22,2022-09-22,ハート株式会社,,株式会社,愛知県,名古屋市名東区,社台１丁目２６１番地の１アリエス社台Ｄ号室,,23,115,4650092,,,,,,,2022-09-22,1,,,,,ハート,0
1620,7180001153095,新規,0,2022-09-22,2022-09-22,株式会社ＬＴＧラボ,,株式会社,愛知県,半田市,北二ツ坂町２丁目１２番地の１,,23,205,4750927,,,,,,,2022-09-22,1,,,,,エルティージーラボ,0
1625,7180003024286,新規,0,2022-09-22,2022-09-22,合同会社優多家,,合同会社,愛知県,春日井市,上条町４丁目４８番地１,,23,206,4860833,,,,,,,2022-09-22,1,,,,,ユタカ,0
1632,7200001040464,新規,0,2022-09-22,2022-09-22,株式会社ＭＹ　ＷＯＲＫＳ,,株式会社,岐阜県,大垣市,和合本町２丁目６８番地,,21,202,5030005,,,,,,,2022-09-22,1,,,,,マイワークス,0
1647,7290003012965,新規,0,2022-09-22,2022-09-22,合同会社くさば整骨院,,合同会社,福岡県,福岡市南区,塩原３丁目２番１２号,,40,134,8150032,,,,,,,2022-09-22,1,,,,,クサバセイコツイン,0
1651,7290005018812,新規,0,2022-09-22,2022-09-22,特定非営利活動法人春日まちづくり支援センター・ぶどうの庭,,その他の設立登記法人,福岡県,春日市,須玖北５丁目１５５番地,,40,218,8160864,,,,,,,2022-09-22,1,,,,,カスガマチヅクリシエンセンターブドウノニワ,0
1655,7310001018037,新規,0,2022-09-22,2022-09-22,株式会社西海サステナブルソリューションズ,,株式会社,長崎県,西海市,西彼町亀浦郷８７８番地,,42,212,8513303,,,,,,,2022-09-22,1,,,,,サイカイサステナブルソリューションズ,0
1657,7310003004431,新規,0,2022-09-22,2022-09-22,ＲａｌＴｅｘ　Ｓｏｌｕｔｉｏｎｓ合同会社,,合同会社,長崎県,佐世保市,春日町７０５番地２,,42,202,8570011,,,,,,,2022-09-22,1,,,,,リテックスソリューションズ,0
1658,7330001030122,新規,0,2022-09-22,2022-09-22,株式会社Ｅ‐ＬＩＮＫ,,株式会社,熊本県,熊本市北区,大窪３丁目７番２号,,43,105,8600083,,,,,,,2022-09-22,1,,,,,イーリンク,0
1660,7340005009509,新規,0,2022-09-22,2022-09-22,とくのしま伊仙まちづくり協同組合,,その他の設立登記法人,鹿児島県,大島郡伊仙町,大字喜念３９７番地１,,46,532,8918111,,,,,,,2022-09-22,1,,,,,トクノシマイセンマチヅクリ,0
1663,7370001049076,新規,0,2022-09-22,2022-09-22,Ｌｉｔ株式会社,,株式会社,宮城県,仙台市青葉区,片平１丁目１番３－４０４号,,04,101,9800812,,,,,,,2022-09-22,1,,,,,リット,0
1671,7430001087516,新規,0,2022-09-22,2022-09-22,株式会社Ｋ　ＢＡＳＥ,,株式会社,北海道,札幌市豊平区,美園八条２丁目７番２０号,,01,105,0620008,,,,,,,2022-09-22,1,,,,,ケイベース,0
1673,7460005001560,新規,0,2022-09-22,2022-09-22,一般社団法人厚岸観光協会,,その他の設立登記法人,北海道,厚岸郡厚岸町,真栄３丁目１番地,,01,662,0881151,,,,,,,2022-09-22,1,,,,,アッケシカンコウキョウカイ,0
1675,7470003002254,新規,0,2022-09-22,2022-09-22,合同会社ｅｌｅ,,合同会社,香川県,坂出市,大屋冨町２４５４番地１,,37,203,7620015,,,,,,,2022-09-22,1,,,,,イーエルイー,0
1676,7470005006468,新規,0,2022-09-22,2022-09-22,一般社団法人海と日本プロジェクトｉｎかがわ,,その他の設立登記法人,香川県,高松市,丸の内８番１５号,,37,201,7600033,,,,,,,2022-09-22,1,,,,,ウミトニッポンプロジェクトインカガワ,0
1677,7700150111783,新規,0,2022-09-22,2022-09-22,明治土地改良区,,その他,岡山県,井原市,芳井町種８４５－２,,33,207,7142122,,,,,,,2022-09-22,1,,,,,メイジトチカイリヨウク,0
1699,8010401169772,新規,0,2022-09-22,2022-09-22,ほまれアセットマネジメント株式会社,,株式会社,東京都,港区,南青山２丁目２番１５号,,13,103,1070062,,,,,,,2022-09-22,1,,,,,ホマレアセットマネジメント,0
1700,8010401169855,新規,0,2022-09-22,2022-09-22,株式会社青木組,,株式会社,東京都,港区,赤坂９丁目７番４号７２２,,13,103,1070052,,,,,,,2022-09-22,1,,,,,アオキグミ,0
1706,8010403028539,新規,0,2022-09-22,2022-09-22,パレス合同会社,,合同会社,東京都,港区,新橋５丁目１０番８号,,13,103,1050004,,,,,,,2022-09-22,1,,,,,パレス,0
1707,8010403028547,新規,0,2022-09-22,2022-09-22,合同会社ラントフランナ,,合同会社,東京都,港区,赤坂２丁目１８番１３号,,13,103,1070052,,,,,,,2022-09-22,1,,,,,ラントフランナ,0
1726,8011001149842,新規,0,2022-09-22,2022-09-22,株式会社ｎｅｗｃｏｌｏｒ,,株式会社,東京都,渋谷区,富ヶ谷１丁目１２番７号渋谷田村ビル５階,,13,113,1510063,,,,,,,2022-09-22,1,,,,,ニューカラー,0
1727,8011001149850,新規,0,2022-09-22,2022-09-22,株式会社ＷｉｔｈＴｅｃｈｎｏｌｏｇｙ,,株式会社,東京都,渋谷区,神南１丁目１１－３ＰＯＲＴＡＬＰＯＩＮＴＳＨＩＢＵＹＡ５０５,,13,113,1500041,,,,,,,2022-09-22,1,,,,,ウィズテクノロジー,0
1728,8011001149867,新規,0,2022-09-22,2022-09-22,株式会社Ｎｏｗｈｅｒｅ,,株式会社,東京都,目黒区,五本木２丁目４９番２４号Ｌａｃｌａｒｔｅ五本木３０１,,13,110,1530053,,,,,,,2022-09-22,1,,,,,ノーウェアー,0
1729,8011001149875,新規,0,2022-09-22,2022-09-22,アドレイズ株式会社,,株式会社,東京都,渋谷区,神宮前６丁目２３番４号桑野ビル２階,,13,113,1500001,,,,,,,2022-09-22,1,,,,,アドレイズ,0
1730,8011003015308,新規,0,2022-09-22,2022-09-22,合同会社Ｓｏｌａｓｈｉ　Ｊａｐａｎ,,合同会社,東京都,渋谷区,桜丘町１８番４号,,13,113,1500031,,,,,,,2022-09-22,1,,,,,ソラシジャパン,0
1731,8011003015415,新規,0,2022-09-22,2022-09-22,Ｍｅｔａ　Ｐｒｏｄｕｃｅ合同会社,,合同会社,東京都,渋谷区,神宮前１丁目４番２０号,,13,113,1500001,,,,,,,2022-09-22,1,,,,,メタプロデュース,0
1733,8011101100267,新規,0,2022-09-22,2022-09-22,トーキョーティータイム株式会社,,株式会社,東京都,新宿区,西早稲田２丁目２１番１９号,,13,104,1690051,,,,,,,2022-09-22,1,,,,,トーキョーティータイム,0
1734,8011103012188,新規,0,2022-09-22,2022-09-22,水月流茶学合同会社,,合同会社,東京都,新宿区,四谷４丁目３２－８ＹＫＢサニービル１階,,13,104,1600004,,,,,,,2022-09-22,1,,,,,スイゲツリュウチャガク,0
1735,8011201024110,新規,0,2022-09-22,2022-09-22,株式会社油溌麺,,株式会社,東京都,中野区,新井４丁目４－９,,13,114,1650026,,,,,,,2022-09-22,1,,,,,ヨウポーメン,0
1739,8011505002497,新規,0,2022-09-22,2022-09-22,医療法人社団ＯＨＴＡＮＩ,,その他の設立登記法人,東京都,北区,赤羽１丁目５８番２号ニュー大谷ビル２階,,13,117,1150045,,,,,,,2022-09-22,1,,,,,オオタニ,0
1741,8011701025632,新規,0,2022-09-22,2022-09-22,株式会社サマードラゴン,,株式会社,東京都,江戸川区,東小松川２丁目３番１７号,,13,123,1320033,,,,,,,2022-09-22,1,,,,,サマードラゴン,0
1742,8011701025640,新規,0,2022-09-22,2022-09-22,株式会社ＯＳ空調設備,,株式会社,東京都,江戸川区,松本１丁目１１番２号,,13,123,1330043,,,,,,,2022-09-22,1,,,,,オーエスクウチョウセツビ,0
1745,8011801041298,新規,0,2022-09-22,2022-09-22,ＳＫＹ株式会社,,株式会社,東京都,足立区,千住桜木２丁目５番６号,,13,121,1200045,,,,,,,2022-09-22,1,,,,,スカイ,0
1746,8011801041307,新規,0,2022-09-22,2022-09-22,ＧｒｅｅｎＷｏｒｌｄ株式会社,,株式会社,東京都,葛飾区,新小岩４丁目２９－１０リッチハイツ新小岩５０２号室,,13,122,1240024,,,,,,,2022-09-22,1,,,,,グリーンワールド,0
1749,8012403005591,新規,0,2022-09-22,2022-09-22,合同会社ＦＦ＆Ｅ設計室,,合同会社,東京都,調布市,東つつじケ丘１丁目１５番地の３,,13,208,1820005,,,,,,,2022-09-22,1,,,,,エフエフイーセッケイシツ,0
1756,8012803002890,新規,0,2022-09-22,2022-09-22,合同会社Ｒｅｕｓｅ　Ｔｏｋｙｏ,,合同会社,東京都,立川市,柴崎町１丁目１５番１号,,13,202,1900023,,,,,,,2022-09-22,1,,,,,リユーストーキョー,0
1760,8013301049697,新規,0,2022-09-22,2022-09-22,株式会社Ｔ．Ｋ．ＳＣＩＥＮＣＥ,,株式会社,東京都,豊島区,東池袋２丁目６２番８号,,13,116,1700013,,,,,,,2022-09-22,1,,,,,ティーケーサイエンス,0
1766,8020001148259,新規,0,2022-09-22,2022-09-22,ＳＱ　ＩＮＴＥＲＮＡＴＩＯＮＡＬ株式会社,,株式会社,神奈川県,川崎市川崎区,渡田向町９番７号ＴＭ渡田向町ＩＩ１０５号室,00127900,14,131,2100841,,,,,,,2022-09-22,1,,,,,エスキューインターナショナル,0
1769,8020003022437,新規,0,2022-09-22,2022-09-22,ＭＯＴＬＥＹ　ＮＯＴＥ　ＴＯＫＹＯ合同会社,,合同会社,神奈川県,横浜市旭区,鶴ケ峰２丁目２０－８藤巻ビル３０３,,14,112,2410022,,,,,,,2022-09-22,1,,,,,モトリーノートトウキョウ,0
1775,8021001077043,新規,0,2022-09-22,2022-09-22,株式会社豊田屋,,株式会社,神奈川県,鎌倉市,台１８８３番地,,14,204,2470061,,,,,,,2022-09-22,1,,,,,トヨダヤ,0
1777,8021003012163,新規,0,2022-09-22,2022-09-22,ＢＡＬＡＪＩ　ＴＲＡＤＩＮＧ合同会社,,合同会社,神奈川県,秦野市,平沢１５２ー２０２,,14,211,2570015,,,,,,,2022-09-22,1,,,,,バラジトレーディング,0
1789,8030003020225,新規,0,2022-09-22,2022-09-22,合同会社徳田貿易,,合同会社,埼玉県,上尾市,柏座１丁目１２番１８号アトラスカーロ壱番館３０３号室,,11,219,3620075,,,,,,,2022-09-22,1,,,,,トクダボウエキ,0
1793,8040001125149,新規,0,2022-09-22,2022-09-22,龍悦株式会社,,株式会社,千葉県,山武市,富田７７２番地２,,12,237,2891321,,,,,,,2022-09-22,1,,,,,リュウエツ,0
1799,8070001039651,新規,0,2022-09-22,2022-09-22,株式会社生物建築舎,,株式会社,群馬県,高崎市,貝沢町３２３番地１,,10,202,3700042,,,,,,,2022-09-22,1,,,,,イキモノケンチクシャ,0
1814,8120001248957,新規,0,2022-09-22,2022-09-22,株式会社ＫＣ商事,,株式会社,大阪府,枚方市,長尾家具町４丁目４番地の１６,,27,210,5730102,,,,,,,2022-09-22,1,,,,,ケーシーショウジ,0
1815,8120001248965,新規,0,2022-09-22,2022-09-22,リバスキュラーバイオ株式会社,,株式会社,大阪府,大阪市北区,中之島６丁目１番３８－２５１７号,,27,127,5300005,,,,,,,2022-09-22,1,,,,,リバスキュラーバイオ,0
1816,8120001248973,新規,0,2022-09-22,2022-09-22,株式会社Ｐｅｉｎａｏ,,株式会社,大阪府,大阪市平野区,瓜破７丁目５番７号,,27,126,5470024,,,,,,,2022-09-22,1,,,,,ペイナオ,0
1820,8120003022492,新規,0,2022-09-22,2022-09-22,トラストプロパティ合同会社,,合同会社,大阪府,大阪市阿倍野区,西田辺町２丁目１－１４－１００２,,27,119,5450014,,,,,,,2022-09-22,1,,,,,トラストプロパティ,0
1821,8120003022501,新規,0,2022-09-22,2022-09-22,合同会社ＲＩＣＨ　ＢＥＡＵＴＹ,,合同会社,大阪府,大阪市中央区,瓦町４丁目８番４号,,27,128,5410048,,,,,,,2022-09-22,1,,,,,リッチビューティー,0
1834,8140001127408,新規,0,2022-09-22,2022-09-22,甲東商事株式会社,,株式会社,兵庫県,西宮市,上甲東園１丁目２３番１０号,,28,204,6620813,,,,,,,2022-09-22,1,,,,,コウトウショウジ,0
1835,8140001127432,新規,0,2022-09-22,2022-09-22,ＫｉＲ株式会社,,株式会社,兵庫県,神戸市中央区,磯上通８丁目１番２９号カサベラビルＣ＆Ｍ４０３号室,,28,110,6510086,,,,,,,2022-09-22,1,,,,,キール,0
1837,8150003002780,新規,0,2022-09-22,2022-09-22,合同会社かづな軽運送,,合同会社,奈良県,天理市,櫟本町９２６番地１,,29,204,6320004,,,,,,,2022-09-22,1,,,,,カヅナケイウンソウ,0
1854,8180003024285,新規,0,2022-09-22,2022-09-22,ミャウホーム合同会社,,合同会社,愛知県,清須市,土田２丁目８番地３,,23,233,4520945,,,,,,,2022-09-22,1,,,,,ミャウホーム,0
1864,8200001040463,新規,0,2022-09-22,2022-09-22,株式会社すみ企画,,株式会社,岐阜県,郡上市,八幡町小野１２７番地２,,21,219,5014221,,,,,,,2022-09-22,1,,,,,スミキカク,0
1867,8210005010057,新規,0,2022-09-22,2022-09-22,Ｔｈｒｅｅｐｌｕｓ協同組合,,その他の設立登記法人,福井県,吉田郡永平寺町,東古市第２号２３番地１,,18,322,9101212,,,,,,,2022-09-22,1,,,,,スリープラス,0
1872,8250001019775,新規,0,2022-09-22,2022-09-22,株式会社クラコー,,株式会社,山口県,岩国市,由宇町北５丁目６番２２号,,35,208,7401455,,,,,,,2022-09-22,1,,,,,クラコー,0
1889,8310001018036,新規,0,2022-09-22,2022-09-22,長崎ＰＭＪＡＰＡＮ株式会社,,株式会社,長崎県,西彼杵郡時津町,元村郷９番地１,,42,308,8512103,,,,,,,2022-09-22,1,,,,,ナガサキピーエムジャパン,0
1890,8320001019347,新規,0,2022-09-22,2022-09-22,株式会社肉の和,,株式会社,大分県,大分市,山津町２丁目４番２２号,,44,201,8700136,,,,,,,2022-09-22,1,,,,,ニクノワ,0
1898,8360001030993,新規,0,2022-09-22,2022-09-22,株式会社拓渡建築,,株式会社,沖縄県,宮古島市,平良字西里８４０番地ビジュー八城２００９号,,47,214,9060012,,,,,,,2022-09-22,1,,,,,タクトケンチク,0
1899,8360003012321,新規,0,2022-09-22,2022-09-22,合同会社光輪,,合同会社,沖縄県,那覇市,西１丁目５番１１号,,47,201,9000036,,,,,,,2022-09-22,1,,,,,コウリン,0
1908,8380001033128,新規,0,2022-09-22,2022-09-22,株式会社プライマリー,,株式会社,福島県,福島市,桜本字細町３番地の２,,07,201,9602151,,,,,,,2022-09-22,1,,,,,プライマリー,0
1921,8700150111790,新規,0,2022-09-22,2022-09-22,ＳｈｅｎＺｈｅｎＫａｇｅｉａＴｈｅｃｈｎｏｌｏｇｙＣｏ．，Ｌｔｄ．,,外国会社等,,,,,,,,１２０６　ＧａｏＸｕｎ　Ｂｌｄｇ，ｆｕｑｉａｎｇｌｕ，ｆｕｔｉａｎｊｉｅｄａｏ，ｆｕｔｉａｎｑｕ，ｓｈｅｎｚｈｅｎｓｈｉ，ｇｕａｎｇｄｏｎｇｓｈｅｎｇ,,,,,,2022-09-22,1,,,,,シエンチエンカゲイアテクノロジーカンパニーリミテツド,0
1925,9010001229240,新規,0,2022-09-22,2022-09-22,株式会社Ｃｅｌｌｆｒａｍｅ,,株式会社,東京都,中央区,築地６丁目２番１２－６１６号,,13,102,1040045,,,,,,,2022-09-22,1,,,,,セルフレーム,0
1926,9010001229645,新規,0,2022-09-22,2022-09-22,ＴＫ　Ｃａｐｉｔａｌ株式会社,,株式会社,東京都,千代田区,丸の内３丁目１－１国際ビル,,13,101,1000005,,,,,,,2022-09-22,1,,,,,ティケイキャピタル,0
1927,9010001229661,新規,0,2022-09-22,2022-09-22,株式会社ＦＤ,,株式会社,東京都,千代田区,丸の内２丁目３番２号１階,,13,101,1000005,,,,,,,2022-09-22,1,,,,,フューチャーデザイン,0
1928,9010001229703,新規,0,2022-09-22,2022-09-22,株式会社アクシス,,株式会社,東京都,中央区,新富２丁目４番５号１階ｅｌｉｓａＡｓｉｌｅ１０１０,,13,102,1040041,,,,,,,2022-09-22,1,,,,,アクシス,0
1930,9010003038722,新規,0,2022-09-22,2022-09-22,Ａｔｏｍ合同会社,,合同会社,東京都,千代田区,丸の内３丁目１番１号東京共同会計事務所内,,13,101,1000005,,,,,,,2022-09-22,1,,,,,アトム,0
1931,9010003038730,新規,0,2022-09-22,2022-09-22,Ｌ’ａｇｅｎｔｅ合同会社,,合同会社,東京都,文京区,関口１丁目２３－１ロジェ関口８０２,,13,105,1120014,,,,,,,2022-09-22,1,,,,,ラジェンテ,0
1934,9010005035585,新規,0,2022-09-22,2022-09-22,ジャパン・ロジスティクス・デベロップメント１特定目的会社,,その他の設立登記法人,東京都,中央区,日本橋１丁目４番１号日本橋一丁目ビルディング,,13,102,1030027,,,,,,,2022-09-22,1,,,,,ジャパンロジスティクスデベロップメントワン,0
1935,9010101015334,新規,0,2022-09-22,2022-09-22,株式会社令和建設,,株式会社,東京都,八王子市,片倉町６２９番地２４,,13,201,1920914,,,,,,,2022-09-22,1,,,,,レイワケンセツ,0
1944,9010401169862,新規,0,2022-09-22,2022-09-22,株式会社アルディートホールディングス,,株式会社,東京都,港区,浜松町２丁目５番５号ＰＭＯ浜松町４Ｆ,,13,103,1050013,,,,,,,2022-09-22,1,,,,,アルディートホールディングス,0
1947,9010503006724,新規,0,2022-09-22,2022-09-22,つくる合同会社,,合同会社,東京都,台東区,竜泉２丁目３－６,,13,106,1100012,,,,,,,2022-09-22,1,,,,,ツクル,0
1953,9010603009734,新規,0,2022-09-22,2022-09-22,Ｓｔａｃｋ　Ｆｏｒｗａｒｄ合同会社,,合同会社,東京都,江東区,有明３丁目７－２６有明フロンティアビルＢ棟９階,,13,108,1350063,,,,,,,2022-09-22,1,,,,,スタックフォワード,0
1957,9010901051669,新規,0,2022-09-22,2022-09-22,Ｎｅｕｔｒａｌ株式会社,,株式会社,東京都,世田谷区,瀬田４丁目４０番１４－４０３号,,13,112,1580095,,,,,,,2022-09-22,1,,,,,ニュートラル,0
1959,9010903007652,新規,0,2022-09-22,2022-09-22,合同会社Ｎｅｗ　Ｃｏｕｎｔｅｒ　Ｆｉｌｍｓ,,合同会社,東京都,世田谷区,世田谷１丁目１４番１８号,,13,112,1540017,,,,,,,2022-09-22,1,,,,,ニューカウンターフィルムズ,0
1966,9011001149817,新規,0,2022-09-22,2022-09-22,株式会社リンネジャパン,,株式会社,東京都,渋谷区,神宮前６丁目２３番４号桑野ビル２階,,13,113,1500001,,,,,,,2022-09-22,1,,,,,リンネジャパン,0
1976,9011401024553,新規,0,2022-09-22,2022-09-22,株式会社ＴＵＬＧＡ,,株式会社,東京都,板橋区,西台３丁目１０番９号Ｔ－３・１０６号,,13,119,1750045,,,,,,,2022-09-22,1,,,,,ツルガ,0
1978,9011501028479,新規,0,2022-09-22,2022-09-22,Ｑ１ホールディングス株式会社,,株式会社,東京都,荒川区,西日暮里６丁目１４番１３－１１０２号,,13,118,1160013,,,,,,,2022-09-22,1,,,,,キュウワンホールディングス,0
1981,9011803005275,新規,0,2022-09-22,2022-09-22,合同会社エムエイチ,,合同会社,東京都,足立区,江北１丁目１５－２－５０６,,13,121,1230872,,,,,,,2022-09-22,1,,,,,エムエイチ,0
1985,9012403005590,新規,0,2022-09-22,2022-09-22,合同会社おんもプロダクション,,合同会社,東京都,小金井市,緑町４丁目５番２号,,13,210,1840003,,,,,,,2022-09-22,1,,,,,オンモプロダクション,0
1987,9012701017263,新規,0,2022-09-22,2022-09-22,株式会社リアンエステート,,株式会社,東京都,西東京市,田無町２丁目１３番１５－１０１号,,13,229,1880011,,,,,,,2022-09-22,1,,,,,リアンエステート,0
1995,9020001148241,新規,0,2022-09-22,2022-09-22,ＫＢ株式会社,,株式会社,神奈川県,横浜市鶴見区,尻手１丁目６番１２号２階２号室,,14,101,2300003,,,,,,,2022-09-22,1,,,,,ケービー,0
1996,9020001148282,新規,0,2022-09-22,2022-09-22,株式会社鳶政,,株式会社,神奈川県,横浜市神奈川区,羽沢町１７３２番地２グラシューズＡ１０２号,,14,102,2210863,,,,,,,2022-09-22,1,,,,,トビマサ,0
2005,9030001150205,新規,0,2022-09-22,2022-09-22,株式会社菊地圧送,,株式会社,埼玉県,さいたま市見沼区,大字大谷１６７３番地４０,,11,104,3370014,,,,,,,2022-09-22,1,,,,,キクチアッソウ,0
2019,9040001125131,新規,0,2022-09-22,2022-09-22,株式会社冨島建設,,株式会社,千葉県,八街市,八街ろ９５番地３５９,,12,230,2891144,,,,,,,2022-09-22,1,,,,,トミシマケンセツ,0
2020,9040001125156,新規,0,2022-09-22,2022-09-22,ｍｏｓｓ　ｄｅｓｉｇｎ株式会社,,株式会社,千葉県,柏市,豊四季２８７番地２－１０５,,12,217,2770863,,,,,,,2022-09-22,1,,,,,モスデザイン,0
2023,9040003020867,新規,0,2022-09-22,2022-09-22,合同会社桐生,,合同会社,千葉県,松戸市,幸田５丁目５５番地の４,,12,207,2700001,,,,,,,2022-09-22,1,,,,,キリュウ,0
2024,9050001051698,新規,0,2022-09-22,2022-09-22,株式会社ワンクラフト,,株式会社,茨城県,下妻市,下妻乙１０１２番地２,,08,210,3040067,,,,,,,2022-09-22,1,,,,,ワンクラフト,0
2026,9050005013141,新規,0,2022-09-22,2022-09-22,医療法人アイ,,その他の設立登記法人,茨城県,高萩市,本町２丁目８８番地３,,08,214,3180033,,,,,,,2022-09-22,1,,,,,アイ,0
2030,9080001025195,新規,0,2022-09-22,2022-09-22,株式会社ＮＯ　ＬＩＭＩＴ,,株式会社,静岡県,藤枝市,鬼島５２８番地の６,,22,214,4260008,,,,,,,2022-09-22,1,,,,,ノーリミット,0
2034,9090001017786,新規,0,2022-09-22,2022-09-22,株式会社ＡＫＡＩＫＥ,,株式会社,山梨県,甲府市,中町２７４番地６,,19,201,4000844,,,,,,,2022-09-22,1,,,,,アカイケ,0
2035,9090003002167,新規,0,2022-09-22,2022-09-22,合同会社ちくちくの木,,合同会社,山梨県,甲州市,大和町初鹿野１７２４－２,,19,213,4091203,,,,,,,2022-09-22,1,,,,,,0
2036,9100001035712,新規,0,2022-09-22,2022-09-22,ミヤシタ興産株式会社,,株式会社,長野県,千曲市,大字倉科１７０６番地６,,20,218,3870004,,,,,,,2022-09-22,1,,,,,ミヤシタコウサン,0
2038,9100003006694,新規,0,2022-09-22,2022-09-22,ＧａｒａｇｅＫ合同会社,,合同会社,長野県,岡谷市,長地柴宮３丁目２０番１７号,,20,204,3940083,,,,,,,2022-09-22,1,,,,,ガレーヂケー,0
2048,9120001248964,新規,0,2022-09-22,2022-09-22,ＳＵＧＩＴＡ　ＮＡＶＹ株式会社,,株式会社,大阪府,大阪市城東区,今福東１丁目４番１９号,,27,118,5360002,,,,,,,2022-09-22,1,,,,,スギタネイビー,0
2049,9120001248989,新規,0,2022-09-22,2022-09-22,マオチ工業株式会社,,株式会社,大阪府,守口市,南寺方東通６丁目１５番５号,,27,209,5700043,,,,,,,2022-09-22,1,,,,,マオチコウギョウ,0
2050,9120003022491,新規,0,2022-09-22,2022-09-22,合同会社アシストワン,,合同会社,大阪府,大阪市中央区,淡路町１丁目３番７号キタデビル５０６,,27,128,5410047,,,,,,,2022-09-22,1,,,,,アシストワン,0
2051,9120003022500,新規,0,2022-09-22,2022-09-22,合同会社ｒｉｃａ　ｂｅｌｌｅｚａ,,合同会社,大阪府,大阪市北区,梅田１丁目９番２０号,,27,127,5300001,,,,,,,2022-09-22,1,,,,,リカベレーザ,0
2052,9120003022509,新規,0,2022-09-22,2022-09-22,日研メディクス合同会社,,合同会社,大阪府,大阪市北区,梅田１丁目１－３大阪駅前第３ビル２９階１－１－１号室,,27,127,5300001,,,,,,,2022-09-22,1,,,,,ニッケンメディクス,0
2053,9120003022525,新規,0,2022-09-22,2022-09-22,合同会社羊屋,,合同会社,大阪府,大阪市北区,梅田１丁目１番３－２４０号,,27,127,5300001,,,,,,,2022-09-22,1,,,,,ヒツジヤ,0
2057,9120005023199,新規,0,2022-09-22,2022-09-22,特定非営利活動法人楽喜晴日,,その他の設立登記法人,大阪府,大阪市淀川区,新高２丁目７番３号,,27,123,5320033,,,,,,,2022-09-22,1,,,,,ラキハビ,0
2072,9130003008168,新規,0,2022-09-22,2022-09-22,合同会社ＨＡＣ,,合同会社,京都府,京田辺市,大住三野１２番地,,26,211,6100343,,,,,,,2022-09-22,1,,,,,エイチエーシー,0
2077,9140001127431,新規,0,2022-09-22,2022-09-22,リアンエステート株式会社,,株式会社,兵庫県,加古川市,別府町別府９８６番地１１,,28,210,6750122,,,,,,,2022-09-22,1,,,,,リアンエステート,0
2084,9160003002671,新規,0,2022-09-22,2022-09-22,合同会社フィールド,,合同会社,滋賀県,大津市,滋賀里４丁目７番３９－３０１号,,25,201,5200006,,,,,,,2022-09-22,1,,,,,フィールド,0
2085,9160005011118,新規,0,2022-09-22,2022-09-22,医療法人にしむら整形外科クリニック,,その他の設立登記法人,滋賀県,野洲市,永原１８３４番地１,,25,210,5202304,,,,,,,2022-09-22,1,,,,,ニシムラセイケイゲカクリニック,0
2093,9180001153060,新規,0,2022-09-22,2022-09-22,株式会社ＴＳＵＢＯＩホールディングス,,株式会社,愛知県,名古屋市天白区,御前場町２１１番地１,,23,116,4680023,,,,,,,2022-09-22,1,,,,,ツボイホールディングス,0
2094,9180001153077,新規,0,2022-09-22,2022-09-22,株式会社Ａｋｉｇｉｒｉ不動産,,株式会社,愛知県,名古屋市東区,白壁２丁目１番２０号,,23,102,4610011,,,,,,,2022-09-22,1,,,,,アキギリフドウサン,0
2095,9180001153085,新規,0,2022-09-22,2022-09-22,株式会社ＤＧバッテリー,,株式会社,愛知県,名古屋市中村区,名駅４丁目２４番１６号,,23,105,4500002,,,,,,,2022-09-22,1,,,,,ディージーバッテリー,0
2096,9180001153093,新規,0,2022-09-22,2022-09-22,ＫＣプレスト株式会社,,株式会社,愛知県,名古屋市中川区,尾頭橋３丁目２１番１０号アイエスビル尾頭橋３０２号,,23,110,4540012,,,,,,,2022-09-22,1,,,,,ケーシープレスト,0
2097,9180001153110,新規,0,2022-09-22,2022-09-22,株式会社おくるみ,,株式会社,愛知県,名古屋市南区,鳥栖１丁目２０番２１号,,23,112,4570006,,,,,,,2022-09-22,1,,,,,オクルミ,0
2104,9180003024276,新規,0,2022-09-22,2022-09-22,合同会社ユニゾンワークス,,合同会社,愛知県,名古屋市天白区,梅が丘４丁目３１１番地エクセル梅ヶ丘１０１,,23,116,4680004,,,,,,,2022-09-22,1,,,,,ユニゾンワークス,0
2105,9180003024284,新規,0,2022-09-22,2022-09-22,合同会社アーティキュレート,,合同会社,愛知県,名古屋市昭和区,広路町字石坂５－４アーバンドエル八事石坂２０７号室,,23,107,4660834,,,,,,,2022-09-22,1,,,,,アーティキュレート,0
2106,9180301036650,新規,0,2022-09-22,2022-09-22,雅養鰻株式会社,,株式会社,愛知県,豊橋市,神野新田町字クノ割５０番地１,,23,201,4418077,,,,,,,2022-09-22,1,,,,,マサヨウマン,0
2110,9210005010056,新規,0,2022-09-22,2022-09-22,敦賀石油事業協同組合,,その他の設立登記法人,福井県,敦賀市,中央町１丁目１番３６号,,18,202,9140811,,,,,,,2022-09-22,1,,,,,ツルガセキユ,0
2111,9220001025040,新規,0,2022-09-22,2022-09-22,株式会社プランナーズエステート,,株式会社,石川県,金沢市,黒田１丁目２４７番地５,,17,201,9218051,,,,,,,2022-09-22,1,,,,,プランナーズエステート,0
2113,9240001060390,新規,0,2022-09-22,2022-09-22,株式会社石井自動車,,株式会社,広島県,福山市,古野上町１３番３７号,,34,207,7200817,,,,,,,2022-09-22,1,,,,,イシイジドウシャ,0
2118,9240003005815,新規,0,2022-09-22,2022-09-22,流通サポート合同会社,,合同会社,広島県,東広島市,黒瀬楢原北２丁目３０番２５号,00127915,34,212,7392627,,,,,,,2022-09-22,1,,,,,リュウツウサポート,0
2120,9280001008782,新規,0,2022-09-22,2022-09-22,イールズ株式会社,,株式会社,島根県,出雲市,斐川町神氷２７６４番地３７,,32,203,6990613,,,,,,,2022-09-22,1,,,,,イールズ,0
2129,9330003009526,新規,0,2022-09-22,2022-09-22,合同会社あきちゃん,,合同会社,熊本県,菊池市,重味２３４１番地３,,43,210,8611682,,,,,,,2022-09-22,1,,,,,アキチャン,0
2131,9340003003908,新規,0,2022-09-22,2022-09-22,合同会社Ｗ,,合同会社,鹿児島県,鹿児島市,鴨池１丁目３９‐１２‐１０１,,46,201,8900063,,,,,,,2022-09-22,1,,,,,ダブリュー,0
2135,9360005006717,新規,0,2022-09-22,2022-09-22,一般社団法人童ぃ健育会,,その他の設立登記法人,沖縄県,浦添市,伊祖３丁目１７番３－６０１号ライオンズマンション伊祖第３,,47,208,9012132,,,,,,,2022-09-22,1,,,,,ワラビィケンイクカイ,0
2147,9430003014292,新規,0,2022-09-22,2022-09-22,デイジー合同会社,,合同会社,北海道,札幌市白石区,栄通１丁目９番１２号,,01,104,0030021,,,,,,,2022-09-22,1,,,,,デイジー,0
2151,9500001024476,新規,0,2022-09-22,2022-09-22,株式会社丸場技研,,株式会社,愛媛県,松山市,和泉南１丁目７番６号,,38,201,7900941,,,,,,,2022-09-22,1,,,,,マルバギケン,0
