sequenceNumber,corporateNumber,process,correct,updateDate,changeDate,name,nameImageId,kind,prefectureName,cityName,streetNumber,addressImageId,prefectureCode,cityCode,postCode,addressOutside,addressOutsideImageId,closeDate,closeCause,successorCorporateNumber,changeCause,assignmentDate,latest,enName,enPrefectureName,enCityName,enAddressOutside,furigana,hihyoji
13,1010001249155,新規,0,2024-10-24,2024-10-24,株式会社Ｋ,,株式会社,東京都,中央区,銀座１丁目１２番４号Ｍ＆ＥＢＬＤ．６Ｆ,,13,102,1040061,,,,,,,2024-10-24,1,,,,,ケー,0
14,1010001249337,新規,0,2024-10-24,2024-10-24,株式会社ＡＩ　Ｄｒｉｖｅｎ,,株式会社,東京都,中央区,銀座１丁目１２番４号Ｎ＆ＥＢＬＤ．６Ｆ,,13,102,1040061,,,,,,,2024-10-24,1,,,,,エーアイドリブン,0
27,1010401185917,新規,0,2024-10-24,2024-10-24,株式会社本木商事,,株式会社,東京都,港区,芝公園１丁目２番１０－１０３号,,13,103,1050011,,,,,,,2024-10-24,1,,,,,モトキショウジ,0
33,1010403033652,新規,0,2024-10-24,2024-10-24,合同会社ＡＩｔｅｍ,,合同会社,東京都,港区,赤坂４丁目８番１９号赤坂フロントタウン３階,,13,103,1070052,,,,,,,2024-10-24,1,,,,,アイテム,0
36,1010405023651,新規,0,2024-10-24,2024-10-24,税理士法人ＡＺＡＢＵ総合会計事務所,,その他の設立登記法人,東京都,港区,麻布十番１丁目５番１０号６階,,13,103,1060045,,,,,,,2024-10-24,1,,,,,アザブソウゴウカイケイジムショ,0
38,1010701046728,新規,0,2024-10-24,2024-10-24,株式会社Ａ　ＢＥＡＵＴＥ,,株式会社,東京都,品川区,旗の台４丁目３番６号ホワイトハウス旗の台５階,,13,109,1420064,,,,,,,2024-10-24,1,,,,,エーボーテ,0
42,1010803005144,新規,0,2024-10-24,2024-10-24,合同会社Ｒ・Ｅ・Ｎ,,合同会社,東京都,大田区,矢口３丁目８番３号矢口第１２コーポ１０１,,13,111,1460093,,,,,,,2024-10-24,1,,,,,アールイーエヌ,0
46,1010901056171,新規,0,2024-10-24,2024-10-24,ＭＰ＆Ｐ株式会社,,株式会社,東京都,世田谷区,三軒茶屋２丁目４０番３号,,13,112,1540024,,,,,,,2024-10-24,1,,,,,エムピーアンドピー,0
47,1010901056196,新規,0,2024-10-24,2024-10-24,株式会社ハーツ,,株式会社,東京都,世田谷区,三宿１丁目１番３号－７０２,,13,112,1540005,,,,,,,2024-10-24,1,,,,,ハーツ,0
51,1011001165359,新規,0,2024-10-24,2024-10-24,株式会社フューチャーフロンティア,,株式会社,東京都,渋谷区,渋谷２丁目１９－１５宮益坂ビルディング６０９,,13,113,1500002,,,,,,,2024-10-24,1,,,,,フューチャーフロンティア,0
52,1011001165433,新規,0,2024-10-24,2024-10-24,株式会社ＭＡＤ’Ｓ　ｉＮＫ,,株式会社,東京都,渋谷区,宇田川町３６－２２ノア渋谷パートＩＩ７０７,00136738,13,113,1500042,,,,,,,2024-10-24,1,,,,,マッズインク,0
53,1011001165441,新規,0,2024-10-24,2024-10-24,ヒューマン・キャピタル・グロース株式会社,,株式会社,東京都,目黒区,自由が丘１丁目７番１１号,,13,110,1520035,,,,,,,2024-10-24,1,,,,,ヒューマンキャピタルグロース,0
54,1011005010734,新規,0,2024-10-24,2024-10-24,一般社団法人社会課題解決推進機構,,その他の設立登記法人,東京都,目黒区,柿の木坂２丁目２１番１４号,,13,110,1520022,,,,,,,2024-10-24,1,,,,,シャカイカダイカイケツスイシンキコウ,0
57,1011101109249,新規,0,2024-10-24,2024-10-24,株式会社日本物流保証,,株式会社,東京都,新宿区,新宿１丁目１３番９号オフィスパークインビル２Ｆ,,13,104,1600022,,,,,,,2024-10-24,1,,,,,ニッポンブツリュウホショウ,0
58,1011101109273,新規,0,2024-10-24,2024-10-24,大胤株式会社,,株式会社,東京都,新宿区,西早稲田１丁目１１番６号華青会ビル３０５号室,,13,104,1690051,,,,,,,2024-10-24,1,,,,,ダイイン,0
59,1011103015098,新規,0,2024-10-24,2024-10-24,合同会社ロバート,,合同会社,東京都,新宿区,四谷２丁目９番地１５東京ユナイテッド綜合事務所内,,13,104,1600004,,,,,,,2024-10-24,1,,,,,ロバート,0
60,1011103015115,新規,0,2024-10-24,2024-10-24,合同会社アノザ,,合同会社,東京都,新宿区,西新宿３丁目３番１３号西新宿水間ビル６階,,13,104,1600023,,,,,,,2024-10-24,1,,,,,アノザ,0
62,1011201025890,新規,0,2024-10-24,2024-10-24,株式会社フルスイング,,株式会社,東京都,中野区,沼袋３丁目２３番２３号Ｊ－ＳＰＡＣＥ２０１号室,,13,114,1650025,,,,,,,2024-10-24,1,,,,,フルスイング,0
72,1011501031291,新規,0,2024-10-24,2024-10-24,株式会社Ｆａｓａｏ,,株式会社,東京都,北区,滝野川７丁目４４番９－３０２号,,13,117,1140023,,,,,,,2024-10-24,1,,,,,ファサオ,0
78,1011701027742,新規,0,2024-10-24,2024-10-24,株式会社エム・アンド・ワイ管理サービス,,株式会社,東京都,江戸川区,西葛西５丁目２番９号コモン西葛西,,13,123,1340088,,,,,,,2024-10-24,1,,,,,エムアンドワイカンリサービス,0
79,1011701027750,新規,0,2024-10-24,2024-10-24,Ａｎｄ　Ｃ株式会社,,株式会社,東京都,江戸川区,西葛西５丁目２番１７号佐久間ビル３階,,13,123,1340088,,,,,,,2024-10-24,1,,,,,アンドシー,0
81,1011703004013,新規,0,2024-10-24,2024-10-24,ＫＯＩＫＥ合同会社,,合同会社,東京都,江戸川区,一之江６丁目６番１５号,,13,123,1320024,,,,,,,2024-10-24,1,,,,,コイケ,0
84,1012401042412,新規,0,2024-10-24,2024-10-24,株式会社Ｂｅｎｒｉｓｙｓ,,株式会社,東京都,府中市,四谷１丁目１３－２２,,13,206,1830035,,,,,,,2024-10-24,1,,,,,ベンリシス,0
85,1012801023490,新規,0,2024-10-24,2024-10-24,ＪＯＩＮＴＥＣＨ株式会社,,株式会社,東京都,昭島市,玉川町２丁目７番５号,,13,207,1960034,,,,,,,2024-10-24,1,,,,,ジョインテック,0
86,1012801023524,新規,0,2024-10-24,2024-10-24,株式会社齋藤,,株式会社,東京都,国分寺市,南町２丁目１番１７号,,13,214,1850021,,,,,,,2024-10-24,1,,,,,サイトウ,0
88,1013301053268,新規,0,2024-10-24,2024-10-24,株式会社シュヴァルエステート,,株式会社,東京都,豊島区,東池袋３丁目１番４号メゾンサンシャイン１２１２号室,,13,116,1700013,,,,,,,2024-10-24,1,,,,,シュヴァルエステート,0
90,1013303007354,新規,0,2024-10-24,2024-10-24,合同会社ポセイドン,,合同会社,東京都,豊島区,巣鴨３丁目２１番１５－３０１号,,13,116,1700002,,,,,,,2024-10-24,1,,,,,ポセイドン,0
96,1020001159758,新規,0,2024-10-24,2024-10-24,株式会社Ｒｅ‐Ｍａｒｋ,,株式会社,神奈川県,横浜市青葉区,荏子田１丁目１４番地３８,,14,117,2250005,,,,,,,2024-10-24,1,,,,,リマーク,0
97,1020005016591,新規,0,2024-10-24,2024-10-24,一般社団法人ｅｃｏ給湯器セーフティ機構,,その他の設立登記法人,神奈川県,横浜市港北区,新吉田東８丁目４１番６号,,14,109,2230058,,,,,,,2024-10-24,1,,,,,エコキュウトウキセーフティキコウ,0
105,1030001163098,新規,0,2024-10-24,2024-10-24,株式会社ブリスナッツ,,株式会社,埼玉県,さいたま市大宮区,桜木町１丁目３７８番地,,11,103,3300854,,,,,,,2024-10-24,1,,,,,ブリスナッツ,0
106,1030001163123,新規,0,2024-10-24,2024-10-24,株式会社はぎ,,株式会社,埼玉県,児玉郡上里町,大字七本木１２６３番地１メゾンドソレイユＣ,,11,385,3690306,,,,,,,2024-10-24,1,,,,,ハギ,0
109,1030003025362,新規,0,2024-10-24,2024-10-24,合同会社ＴＡＷｓＤＥＳＩＧＮ,,合同会社,埼玉県,川口市,鳩ヶ谷本町４丁目１２番１９号１階,,11,203,3340002,,,,,,,2024-10-24,1,,,,,タウズデザイン,0
112,1040001135889,新規,0,2024-10-24,2024-10-24,株式会社アビセフ,,株式会社,千葉県,市原市,白金町３丁目５８番地１,,12,219,2900059,,,,,,,2024-10-24,1,,,,,アビセフ,0
114,1040003026038,新規,0,2024-10-24,2024-10-24,合同会社ＪＪ　Ｍａｒｋｅｔ,,合同会社,千葉県,柏市,南逆井３丁目１１番２号,,12,217,2770043,,,,,,,2024-10-24,1,,,,,ジェイジェイマーケット,0
116,1050001055582,新規,0,2024-10-24,2024-10-24,株式会社Ｂｒａｃｅ　Ｂｒｅｗｉｎｇ,,株式会社,茨城県,水戸市,中央１丁目６番９号,,08,201,3100805,,,,,,,2024-10-24,1,,,,,ブレイスブリューイング,0
117,1050001055599,新規,0,2024-10-24,2024-10-24,株式会社ｗｉｎ‐ｗｉｎ,,株式会社,茨城県,取手市,井野３３９８番地１２,,08,217,3020011,,,,,,,2024-10-24,1,,,,,ウィンウィン,0
131,1100003007816,新規,0,2024-10-24,2024-10-24,ＢＥＬＬＥＺ合同会社,,合同会社,長野県,北安曇郡白馬村,大字北城３０２０番地９５７,,20,485,3999301,,,,,,,2024-10-24,1,,,,,ベルズ,0
147,1120001269679,新規,0,2024-10-24,2024-10-24,嘉仁株式会社,,株式会社,大阪府,大阪市浪速区,恵美須西１丁目４番２３号住吉ビル３０１,,27,111,5560003,,,,,,,2024-10-24,1,,,,,カニ,0
150,1120003027779,新規,0,2024-10-24,2024-10-24,合同会社ささりんどう,,合同会社,大阪府,大阪市東成区,中道１丁目９番１２号１０４号室,,27,115,5370025,,,,,,,2024-10-24,1,,,,,ササリンドウ,0
151,1120003027804,新規,0,2024-10-24,2024-10-24,龍珠合同会社,,合同会社,大阪府,大阪市東成区,東中本３丁目２０番２２号関西マンション１０２号室,,27,115,5370021,,,,,,,2024-10-24,1,,,,,リュウジュ,0
152,1120003027812,新規,0,2024-10-24,2024-10-24,合同会社ＳＩＤＥ　ＢＹ　ＳＩＤＥ,,合同会社,大阪府,大阪市西成区,千本南２丁目１番３１号,,27,122,5570055,,,,,,,2024-10-24,1,,,,,サイドバイサイド,0
164,1130005017224,新規,0,2024-10-24,2024-10-24,一般社団法人ＪＥＡ日本耳美学協会,,その他の設立登記法人,京都府,京都市中京区,錦大宮町１１６番地プラネシア阪急ビル６Ｆ,,26,104,6048365,,,,,,,2024-10-24,1,,,,,ジェーイーエーニホンミミビガクキョウカイ,0
170,1140001136200,新規,0,2024-10-24,2024-10-24,株式会社想努,,株式会社,兵庫県,加古川市,平岡町新在家１４９番地の７パレードビル２Ｆ,,28,210,6750101,,,,,,,2024-10-24,1,,,,,ソウド,0
175,1150005009632,新規,0,2024-10-24,2024-10-24,一般社団法人ｍｉｃａ,,その他の設立登記法人,奈良県,生駒市,高山町８９１６番地５学生宿舎６－２１０,,29,209,6300101,,,,,,,2024-10-24,1,,,,,ミカ,0
183,1180001163793,新規,0,2024-10-24,2024-10-24,株式会社Ｍ．ｃｒｅｗ,,株式会社,愛知県,名古屋市中村区,名駅３丁目４番１０号アルティメイト名駅１ＳＴ２階,,23,105,4500002,,,,,,,2024-10-24,1,,,,,エムクルー,0
184,1180001163843,新規,0,2024-10-24,2024-10-24,太宰食品株式会社,,株式会社,愛知県,知多市,清水が丘１丁目１８１３番,,23,224,4780053,,,,,,,2024-10-24,1,,,,,ダザイショクヒン,0
187,1180303006320,新規,0,2024-10-24,2024-10-24,ソアラ合同会社,,合同会社,愛知県,豊田市,大林町９丁目９９－Ｃ９０６,,23,211,4730902,,,,,,,2024-10-24,1,,,,,ソアラ,0
190,1190001031719,新規,0,2024-10-24,2024-10-24,株式会社ＣＡＮＶＡＳ’ｓ,,株式会社,三重県,四日市市,生桑町７４９番地２,,24,202,5120911,,,,,,,2024-10-24,1,,,,,キャンバス,0
196,1230001020584,新規,0,2024-10-24,2024-10-24,ＳＫＹアートオークション株式会社,,株式会社,富山県,富山市,花園町３丁目３番１１号,,16,201,9398201,,,,,,,2024-10-24,1,,,,,スカイアートオークション,0
215,1290001107673,新規,0,2024-10-24,2024-10-24,株式会社Ｒａｂｉｌｉｏｎ,,株式会社,福岡県,福岡市西区,内浜２丁目１０番２０－６０２号エイリックスタイル姪浜駅ウエスト,,40,135,8190005,,,,,,,2024-10-24,1,,,,,ラビリオン,0
221,1310005008808,新規,0,2024-10-24,2024-10-24,特定非営利活動法人大村湾ネイチャートリップ,,その他の設立登記法人,長崎県,西海市,西彼町亀浦郷１１６１番地３,,42,212,8513303,,,,,,,2024-10-24,1,,,,,オオムラワンネイチャートリップ,0
223,1330005010836,新規,0,2024-10-24,2024-10-24,一般社団法人タカシ商会,,その他の設立登記法人,熊本県,熊本市東区,江津３丁目２番１４号,,43,102,8620942,,,,,,,2024-10-24,1,,,,,タカシショウカイ,0
230,1360003014415,新規,0,2024-10-24,2024-10-24,合同会社ラセン,,合同会社,沖縄県,那覇市,小禄４丁目７番地２６トゥエルヴエステムコート小禄南４０３,,47,201,9010152,,,,,,,2024-10-24,1,,,,,ラセン,0
239,1420003003015,新規,0,2024-10-24,2024-10-24,孝信総合合同会社,,合同会社,青森県,青森市,筒井２丁目４５０番地２１,,02,201,0300944,,,,,,,2024-10-24,1,,,,,コウシンソウゴウ,0
246,1430003016916,新規,0,2024-10-24,2024-10-24,合同会社ＢＯＲＵＮＯ,,合同会社,北海道,札幌市南区,川沿十一条３丁目３番３号,,01,106,0050811,,,,,,,2024-10-24,1,,,,,ボルノ,0
266,2010001249212,新規,0,2024-10-24,2024-10-24,ＨＹＣ　Ｊａｐａｎ株式会社,,株式会社,東京都,千代田区,丸の内２丁目２－１岸本ビルヂング７階２０６室,,13,101,1000005,,,,,,,2024-10-24,1,,,,,エイチワイシージャパン,0
278,2010401185924,新規,0,2024-10-24,2024-10-24,株式会社アミューズミュージックエンタテインメント,,株式会社,東京都,港区,南青山５丁目４番３１号,,13,103,1070062,,,,,,,2024-10-24,1,,,,,アミューズミュージックエンタテインメント,0
282,2010403033651,新規,0,2024-10-24,2024-10-24,合同会社ＴｅｃｈＣｒｅａｔｉｖｅ,,合同会社,東京都,港区,元麻布１丁目２番１２号ＰａｒｋＡｘｉｓ３０６,,13,103,1060046,,,,,,,2024-10-24,1,,,,,テッククリエイティブ,0
283,2010405023683,新規,0,2024-10-24,2024-10-24,一般社団法人日本ヘルメット治療評価認定機構,,その他の設立登記法人,東京都,港区,南麻布５丁目６番８号恩賜財団母子愛育会愛育研究所,,13,103,1060047,,,,,,,2024-10-24,1,,,,,ニホンヘルメットチリョウヒョウカニンテイキコウ,0
287,2010601066156,新規,0,2024-10-24,2024-10-24,岩崎偉文化用品株式会社,,株式会社,東京都,墨田区,横川３丁目６番７号３－Ｋ室,,13,107,1300003,,,,,,,2024-10-24,1,,,,,イワサキイブンカヨウヒン,0
294,2010901056179,新規,0,2024-10-24,2024-10-24,株式会社ＷｒｉｔｅＣｏｄｅ,,株式会社,東京都,世田谷区,桜丘３丁目１９－８,,13,112,1560054,,,,,,,2024-10-24,1,,,,,ライトコード,0
295,2010901056187,新規,0,2024-10-24,2024-10-24,株式会社ＪＵＮ　ＣＯＲＰＯＲＡＴＩＯＮ,,株式会社,東京都,世田谷区,北烏山１丁目３８番９号,,13,112,1570061,,,,,,,2024-10-24,1,,,,,ジュンコーポレーション,0
299,2011001165358,新規,0,2024-10-24,2024-10-24,株式会社Ｍｉｉ‐Ｌａｂ,,株式会社,東京都,渋谷区,道玄坂１丁目１０番８号渋谷道玄坂東急ビル２Ｆ－Ｃ,,13,113,1500043,,,,,,,2024-10-24,1,,,,,ミーラボ,0
300,2011001165366,新規,0,2024-10-24,2024-10-24,株式会社マリーシア,,株式会社,東京都,渋谷区,神宮前６丁目２３番４号,,13,113,1500001,,,,,,,2024-10-24,1,,,,,,0
301,2011001165424,新規,0,2024-10-24,2024-10-24,株式会社ロビフリーク,,株式会社,東京都,渋谷区,西原３丁目７番３号コーポ代々木上原４Ｂ,,13,113,1510066,,,,,,,2024-10-24,1,,,,,ロビフリーク,0
302,2011001165465,新規,0,2024-10-24,2024-10-24,株式会社Ｖｏｃａｌｉｓｔ　Ｌａｂｅｌ,,株式会社,東京都,渋谷区,道玄坂１丁目１０番８号渋谷道玄坂東急ビル２Ｆ－Ｃ,,13,113,1500043,,,,,,,2024-10-24,1,,,,,ボーカリストレーベル,0
306,2011101109289,新規,0,2024-10-24,2024-10-24,株式会社ＬＳＴ,,株式会社,東京都,新宿区,山吹町３６６－１－７０３,,13,104,1620801,,,,,,,2024-10-24,1,,,,,エルエスティー,0
307,2011501031299,新規,0,2024-10-24,2024-10-24,旭登台湾物産株式会社,,株式会社,東京都,荒川区,東日暮里２丁目４９番８号１０１室,,13,118,1160014,,,,,,,2024-10-24,1,,,,,キョクトタイワンブッサン,0
308,2011503006274,新規,0,2024-10-24,2024-10-24,ＬｏｇｉＺｅｎ合同会社,,合同会社,東京都,北区,豊島８丁目６番１０号,,13,117,1140003,,,,,,,2024-10-24,1,,,,,ロジゼン,0
310,2011701027741,新規,0,2024-10-24,2024-10-24,株式会社レーナ,,株式会社,東京都,江戸川区,平井２丁目１１番１号アムール中井ビル２０１,,13,123,1320035,,,,,,,2024-10-24,1,,,,,レーナ,0
314,2011801045040,新規,0,2024-10-24,2024-10-24,ＰＦ株式会社,,株式会社,東京都,足立区,中川４丁目２８－１１－５０３,,13,121,1200002,,,,,,,2024-10-24,1,,,,,ピーエフ,0
315,2013301053259,新規,0,2024-10-24,2024-10-24,株式会社ＬＣＳ,,株式会社,東京都,豊島区,池袋本町４丁目１１番３号三浦ビル１０３号,,13,116,1700011,,,,,,,2024-10-24,1,,,,,エルシーエス,0
316,2013301053267,新規,0,2024-10-24,2024-10-24,株式会社ミセシルアナリティクス,,株式会社,東京都,豊島区,東池袋２丁目６０番３号グレイスロータリービル７Ｆ,,13,116,1700013,,,,,,,2024-10-24,1,,,,,ミセシルアナリティクス,0
329,2021003015114,新規,0,2024-10-24,2024-10-24,緑モータース合同会社,,合同会社,神奈川県,相模原市緑区,青野原２２０２－１,,14,151,2520161,,,,,,,2024-10-24,1,,,,,ミドリモータース,0
330,2021005013207,新規,0,2024-10-24,2024-10-24,一般社団法人三浦街おこし会遊企塾,,その他の設立登記法人,神奈川県,三浦市,三崎町小網代１０３５番地,,14,210,2380225,,,,,,,2024-10-24,1,,,,,ミウラマチオコシカイユウキジュク,0
334,2030003025378,新規,0,2024-10-24,2024-10-24,カエル合同会社,,合同会社,埼玉県,さいたま市浦和区,東仲町１９－１９－１０３,,11,107,3300056,,,,,,,2024-10-24,1,,,,,カエル,0
335,2030005021904,新規,0,2024-10-24,2024-10-24,医療法人社団ＨＳＩＪ,,その他の設立登記法人,埼玉県,入間市,大字上藤沢４６２番地１イオンスタイル入間２階,,11,225,3580013,,,,,,,2024-10-24,1,,,,,,0
339,2040001135748,新規,0,2024-10-24,2024-10-24,易軟株式会社,,株式会社,千葉県,船橋市,湊町２丁目１番１９号ルミエール船橋１０５－Ｃ,,12,204,2730011,,,,,,,2024-10-24,1,,,,,エキナン,0
346,2040003026004,新規,0,2024-10-24,2024-10-24,合同会社良品製作所,,合同会社,千葉県,千葉市中央区,登戸３丁目９―７,,12,101,2600032,,,,,,,2024-10-24,1,,,,,リョウヒンセイサクジョ,0
347,2040003026037,新規,0,2024-10-24,2024-10-24,合同会社ディベルトフーズジャパン,,合同会社,千葉県,市川市,菅野４丁目１７番７号,,12,203,2720824,,,,,,,2024-10-24,1,,,,,ディベルトフーズジャパン,0
348,2040003026045,新規,0,2024-10-24,2024-10-24,合同会社ＡＧ　Ａｓｓｏｃｉａｔｅｓ,,合同会社,千葉県,市原市,高滝字土太郎８８６‐１９５,,12,219,2900555,,,,,,,2024-10-24,1,,,,,エージーアソシエイツ,0
351,2050001055565,新規,0,2024-10-24,2024-10-24,ＲＥＮ株式会社,,株式会社,茨城県,土浦市,中荒川沖町２２番１３号,,08,203,3000875,,,,,,,2024-10-24,1,,,,,レン,0
357,2070003005616,新規,0,2024-10-24,2024-10-24,岩承合同会社,,合同会社,群馬県,太田市,飯田町５６４,,10,205,3730851,,,,,,,2024-10-24,1,,,,,ガンショウ,0
380,2120001269562,新規,0,2024-10-24,2024-10-24,株式会社グラッド工房,,株式会社,大阪府,守口市,寺内町２丁目６番１２号,,27,209,5700056,,,,,,,2024-10-24,1,,,,,グラッドコウボウ,0
381,2120001269604,新規,0,2024-10-24,2024-10-24,日本科学器機株式会社,,株式会社,大阪府,大阪市港区,市岡３丁目３番１７号,,27,107,5520012,,,,,,,2024-10-24,1,,,,,ニホンカガクキキ,0
382,2120001269637,新規,0,2024-10-24,2024-10-24,株式会社ＴＳＫ,,株式会社,大阪府,大阪市淀川区,野中南２丁目８番１７－５０２号,,27,123,5320022,,,,,,,2024-10-24,1,,,,,ティーエスケー,0
383,2120001269678,新規,0,2024-10-24,2024-10-24,ＶＮＪ株式会社,,株式会社,大阪府,大阪市西区,阿波座１丁目３番１５号関電不動産西本町ビル１０階,,27,106,5500011,,,,,,,2024-10-24,1,,,,,ブイエヌジェイ,0
385,2120003027811,新規,0,2024-10-24,2024-10-24,合同会社ＣＲＯＳＳ,,合同会社,大阪府,枚方市,東船橋２丁目４６番地の２,,27,210,5731115,,,,,,,2024-10-24,1,,,,,クロス,0
390,2122001038567,新規,0,2024-10-24,2024-10-24,株式会社ｆａｓｔ,,株式会社,大阪府,東大阪市,永和３丁目１５－４,,27,227,5770809,,,,,,,2024-10-24,1,,,,,ファースト,0
392,2130001078178,新規,0,2024-10-24,2024-10-24,株式会社焦皮,,株式会社,京都府,京都市左京区,下鴨西本町７番地１・１０１号,,26,103,6060826,,,,,,,2024-10-24,1,,,,,カラピー,0
396,2130005017223,新規,0,2024-10-24,2024-10-24,一般社団法人ＧＡＮＢＡＲＥ‐ＡＦＲＩＫＡ,,その他の設立登記法人,京都府,京都市南区,上鳥羽苗代町２７番地４ベラジオ京都烏丸十条ＩＩ５０７,00136734,26,107,6018111,,,,,,,2024-10-24,1,,,,,ガンバレアフリカ,0
416,2180001163834,新規,0,2024-10-24,2024-10-24,ケバーテクノ日本株式会社,,株式会社,愛知県,名古屋市緑区,有松町大字桶狭間字生山１番第２５番地リーデンススクエアザ・シーズ３０９号,,23,114,4580912,,,,,,,2024-10-24,1,,,,,ケバーテクノニホン,0
428,2190001031750,新規,0,2024-10-24,2024-10-24,株式会社４ＬＪ　Ｂｏｏｋｉｎｇ　ａｎｄ　Ｖｅｈｉｃｌｅ　Ｒｅｎｔａｌ,,株式会社,三重県,津市,高洲町１６番５号,,24,201,5140011,,,,,,,2024-10-24,1,,,,,フォーエルジェイブッキングアンドヴィークルレンタル,0
434,2200001043059,新規,0,2024-10-24,2024-10-24,Ｋ・Ｗｏｒｋｓ株式会社,,株式会社,岐阜県,岐阜市,中大桑町１番地,,21,201,5008027,,,,,,,2024-10-24,1,,,,,ケーワークス,0
467,2310003004881,新規,0,2024-10-24,2024-10-24,合同会社Ｋｏｎａ,,合同会社,長崎県,西彼杵郡時津町,西時津郷２１３番地１０,,42,308,8512101,,,,,,,2024-10-24,1,,,,,コナ,0
471,2330001032577,新規,0,2024-10-24,2024-10-24,株式会社島村板金,,株式会社,熊本県,熊本市北区,龍田３丁目１６番１０号,,43,105,8618006,,,,,,,2024-10-24,1,,,,,シマムラバンキン,0
473,2350001019234,新規,0,2024-10-24,2024-10-24,株式会社セーフティＯＮＥ,,株式会社,宮崎県,延岡市,出北６丁目６７６番,,45,203,8820856,,,,,,,2024-10-24,1,,,,,セーフテイワン,0
479,2380001034858,新規,0,2024-10-24,2024-10-24,Ｑｕｉｅｓｃｅ　Ｅｂｂ株式会社,,株式会社,福島県,郡山市,開成２丁目１番２５号,,07,203,9638851,,,,,,,2024-10-24,1,,,,,クイエスエヴ,0
482,2400001016837,新規,0,2024-10-24,2024-10-24,株式会社ＣＲＥＵＳ,,株式会社,岩手県,盛岡市,東仙北２丁目６番２４号,,03,201,0200862,,,,,,,2024-10-24,1,,,,,クレアス,0
487,2410001013973,新規,0,2024-10-24,2024-10-24,株式会社ＧＹＢ企画,,株式会社,秋田県,秋田市,八橋新川向１６番２０号,,05,201,0100965,,,,,,,2024-10-24,1,,,,,ジーワイビーキカク,0
490,2430001092925,新規,0,2024-10-24,2024-10-24,株式会社ｐｉｇｅｏｎ,,株式会社,北海道,札幌市北区,北二十三条西５丁目２－３９－Ｎ２３ビル１Ｆ西,,01,102,0010023,,,,,,,2024-10-24,1,,,,,ピジョン,0
493,2430003016898,新規,0,2024-10-24,2024-10-24,洞爺ホームサービス合同会社,,合同会社,北海道,虻田郡洞爺湖町,洞爺町２３９－３２,,01,584,0495802,,,,,,,2024-10-24,1,,,,,トウヤホームサービス,0
495,2462501001016,新規,0,2024-10-24,2024-10-24,株式会社ジィテック,,株式会社,北海道,標津郡中標津町,西町１丁目３０番地２,,01,692,0861157,,,,,,,2024-10-24,1,,,,,ジィテック,0
499,2480001012630,新規,0,2024-10-24,2024-10-24,株式会社ＤＹＤ,,株式会社,徳島県,徳島市,上八万町中山６番地の１４５センチュリーヒルズ,,36,201,7708040,,,,,,,2024-10-24,1,,,,,ディーワイディー,0
502,2700150127578,新規,0,2024-10-24,2024-10-24,株式会社チョウキセキ,,外国会社等,東京都,豊島区,南池袋１丁目１５－２１田中ビル４０９,,13,116,1710022,ミャンマー連邦共和国マンダレー管区アマラプラ町,,,,,,2024-10-24,1,,,,,カブシキガイシヤチヨウキセキ,0
528,3010401186013,新規,0,2024-10-24,2024-10-24,株式会社ＬｅＡｌｅ１８,,株式会社,東京都,港区,芝４丁目７番６－７０４号芝ビルディング,,13,103,1080014,,,,,,,2024-10-24,1,,,,,レアーレエイティーン,0
535,3010601066130,新規,0,2024-10-24,2024-10-24,栄興ネット株式会社,,株式会社,東京都,江東区,千石３丁目１番２４－３３５号,,13,108,1350015,,,,,,,2024-10-24,1,,,,,エイコウネット,0
536,3010601066147,新規,0,2024-10-24,2024-10-24,株式会社Ｗａｎｇｕｎ　ＯＧ,,株式会社,東京都,江東区,東雲２丁目７番５号トミンタワー東雲１２０９,,13,108,1350062,,,,,,,2024-10-24,1,,,,,ワンガンオージー,0
537,3010601066155,新規,0,2024-10-24,2024-10-24,善源株式会社,,株式会社,東京都,墨田区,京島１丁目４３番２号２－Ｄ室,,13,107,1310046,,,,,,,2024-10-24,1,,,,,,0
543,3010901056186,新規,0,2024-10-24,2024-10-24,株式会社ＰＡＬＡＣＥ,,株式会社,東京都,世田谷区,上用賀２丁目４番１８号コリーヌ馬事公苑アネックス棟１Ｆ,,13,112,1580098,,,,,,,2024-10-24,1,,,,,パレス,0
546,3011001165464,新規,0,2024-10-24,2024-10-24,株式会社ＤｏｃＴｏｋ,,株式会社,東京都,渋谷区,恵比寿３丁目９番２９号シェビア恵比寿２階ＲｅｌｉｃＳＱＵＡＲＥＺＥＲＯ,,13,113,1500013,,,,,,,2024-10-24,1,,,,,ドックトック,0
548,3011003020238,新規,0,2024-10-24,2024-10-24,合同会社２３Ｃ,,合同会社,東京都,渋谷区,神宮前６丁目２９－４原宿Ｋｏｍｉｙａビル６階,,13,113,1500001,,,,,,,2024-10-24,1,,,,,ニーサンシー,0
549,3011003020295,新規,0,2024-10-24,2024-10-24,エクスポ合同会社,,合同会社,東京都,渋谷区,渋谷２丁目５番１２号,,13,113,1500002,,,,,,,2024-10-24,1,,,,,エクスポ,0
552,3011101109255,新規,0,2024-10-24,2024-10-24,株式会社ＰＡＳＥＯＢＯＮＧ貿易,,株式会社,東京都,新宿区,新宿２丁目１３番３号グローリー西田４Ｃ号室,,13,104,1600022,,,,,,,2024-10-24,1,,,,,パソボンボウエキ,0
557,3011203004503,新規,0,2024-10-24,2024-10-24,ＪＤＭｆｌｕｘ　Ｅｘｐｏｒｔｓ合同会社,,合同会社,東京都,中野区,野方１丁目３２番１号コウキビル６Ｆ,,13,114,1650027,,,,,,,2024-10-24,1,,,,,ジェイディーエムフラックスエクスポーツ,0
561,3011701027732,新規,0,2024-10-24,2024-10-24,株式会社Ｉ’ｚ,,株式会社,東京都,江戸川区,上一色２丁目１９番５号,,13,123,1330041,,,,,,,2024-10-24,1,,,,,アイズ,0
576,3013301053217,新規,0,2024-10-24,2024-10-24,株式会社ぷに王,,株式会社,東京都,豊島区,南長崎４丁目２８番２号クリアル落合南長崎１０３号,,13,116,1710052,,,,,,,2024-10-24,1,,,,,プニオウ,0
577,3013305003663,新規,0,2024-10-24,2024-10-24,特定非営利活動法人日本野生動物保護協会,,その他の設立登記法人,東京都,豊島区,東池袋１丁目３３番３号池袋シティハイツ６１０室,,13,116,1700013,,,,,,,2024-10-24,1,,,,,ニホンヤセイドウブツホゴキョウカイ,0
589,3021001083558,新規,0,2024-10-24,2024-10-24,株式会社ＳＡＳＡＫＯ,,株式会社,神奈川県,横須賀市,森崎３丁目６番４９号,,14,201,2380023,,,,,,,2024-10-24,1,,,,,ササコー,0
590,3021001083574,新規,0,2024-10-24,2024-10-24,株式会社ａｄｖｉｓｅ,,株式会社,神奈川県,相模原市中央区,下九沢１１８３番地１１３,,14,152,2520254,,,,,,,2024-10-24,1,,,,,アドバイス,0
591,3021003015113,新規,0,2024-10-24,2024-10-24,Ａ．Ｒ．ＭＯＴＯＲＳ合同会社,,合同会社,神奈川県,茅ヶ崎市,芹沢２４１４番地２,,14,207,2530008,,,,,,,2024-10-24,1,,,,,エイアールモータース,0
612,3040003026036,新規,0,2024-10-24,2024-10-24,合同会社彩虹,,合同会社,千葉県,千葉市中央区,問屋町８－１ハーバーレジデンス８２４,,12,101,2600025,,,,,,,2024-10-24,1,,,,,サイコウ,0
613,3040003026044,新規,0,2024-10-24,2024-10-24,合同会社エヴァーライン,,合同会社,千葉県,柏市,松ケ崎１１７０番地１７２,,12,217,2770835,,,,,,,2024-10-24,1,,,,,エヴァーライン,0
614,3050001055572,新規,0,2024-10-24,2024-10-24,株式会社ＡＯＩ,,株式会社,茨城県,水戸市,大町３丁目２番８号レクセル水戸大町１００５号,,08,201,3100062,,,,,,,2024-10-24,1,,,,,アオイ,0
615,3050001055580,新規,0,2024-10-24,2024-10-24,株式会社ＨＯＳＨＩＤＡホールディングス,,株式会社,茨城県,古河市,谷貝８８３番地,,08,204,3060113,,,,,,,2024-10-24,1,,,,,ホシダホールディングス,0
617,3050005013510,新規,0,2024-10-24,2024-10-24,社会福祉法人縁と和心会,,その他の設立登記法人,茨城県,鉾田市,鹿田１０７番地７,,08,234,3111416,,,,,,,2024-10-24,1,,,,,エントワゴコロカイ,0
624,3060005010259,新規,0,2024-10-24,2024-10-24,特定非営利活動法人ママピアテラス,,その他の設立登記法人,栃木県,鹿沼市,睦町１９５６番地２,,09,205,3220031,,,,,,,2024-10-24,1,,,,,,0
629,3080001026562,新規,0,2024-10-24,2024-10-24,株式会社マルカブ,,株式会社,静岡県,静岡市駿河区,南町１９番１６号,,22,102,4228067,,,,,,,2024-10-24,1,,,,,マルカブ,0
651,3120001269586,新規,0,2024-10-24,2024-10-24,株式会社エピック,,株式会社,大阪府,大阪市西区,南堀江３丁目１番２４号２Ｆ,,27,106,5500015,,,,,,,2024-10-24,1,,,,,エピック,0
652,3120001269611,新規,0,2024-10-24,2024-10-24,株式会社ａｉｍｍｙ,,株式会社,大阪府,大阪市西区,靱本町１丁目１０番７－３００３号,,27,106,5500004,,,,,,,2024-10-24,1,,,,,アイミー,0
653,3120001269628,新規,0,2024-10-24,2024-10-24,ワイズ・フォース・ホールディングス株式会社,,株式会社,大阪府,大阪市西区,江戸堀２丁目３－９,,27,106,5500002,,,,,,,2024-10-24,1,,,,,ワイズフォースホールディングス,0
654,3120001269636,新規,0,2024-10-24,2024-10-24,株式会社テンアンツエステート,,株式会社,大阪府,大阪市中央区,谷町７丁目３番４号,,27,128,5420012,,,,,,,2024-10-24,1,,,,,テンアンツエステート,0
655,3120001269710,新規,0,2024-10-24,2024-10-24,株式会社グローバルフューチャー,,株式会社,大阪府,大阪市旭区,赤川４丁目２番１８号,,27,117,5350005,,,,,,,2024-10-24,1,,,,,グローバルフューチャー,0
659,3120003027819,新規,0,2024-10-24,2024-10-24,合同会社ほしぞら,,合同会社,大阪府,大阪市中央区,谷町１丁目４番２号大阪オルガンビル２階,,27,128,5400012,,,,,,,2024-10-24,1,,,,,ホシゾラ,0
661,3120101070448,新規,0,2024-10-24,2024-10-24,株式会社Ｓｕｎｎｙ　Ｏｎ,,株式会社,大阪府,和泉市,唐国町３丁目５番１７６－５号,,27,219,5941151,,,,,,,2024-10-24,1,,,,,サニーオン,0
663,3122001038566,新規,0,2024-10-24,2024-10-24,株式会社Ｔｒａｓｈ,,株式会社,大阪府,東大阪市,大蓮東３丁目１５番２号ＹＳシステムビル２０３,00136735,27,227,5770824,,,,,,,2024-10-24,1,,,,,トラッシュ,0
664,3130003009865,新規,0,2024-10-24,2024-10-24,合同会社Ｓｈｒｉｎｅ　Ｏｎｅ,,合同会社,京都府,宮津市,字大垣２９０番地の５,,26,205,6292242,,,,,,,2024-10-24,1,,,,,シュラインワン,0
665,3140001136207,新規,0,2024-10-24,2024-10-24,株式会社Ｂｅプランニング,,株式会社,兵庫県,神戸市東灘区,御影３丁目２番１１－５３号,,28,101,6580047,,,,,,,2024-10-24,1,,,,,ビープランニング,0
668,3140003021233,新規,0,2024-10-24,2024-10-24,合同会社ＡＤＡ,,合同会社,兵庫県,淡路市,志筑３９６８番地１９,,28,226,6562131,,,,,,,2024-10-24,1,,,,,エーディーエー,0
669,3140005027245,新規,0,2024-10-24,2024-10-24,ＮＰＯ法人ふりかけ,,その他の設立登記法人,兵庫県,加東市,北野２８番地７,,28,228,6790205,,,,,,,2024-10-24,1,,,,,フリカケ,0
677,3180003027516,新規,0,2024-10-24,2024-10-24,合同会社ＫＲ　ＣＯＲＰＯＲＡＴＩＯＮ,,合同会社,愛知県,海部郡飛島村,大字梅之郷字北梅２７番地,,23,427,4901435,,,,,,,2024-10-24,1,,,,,ケーアールコーポレーション,0
678,3180003027540,新規,0,2024-10-24,2024-10-24,安樂三四郎商店合同会社,,合同会社,愛知県,名古屋市中村区,名駅３丁目４―１０アルティメイト名駅１ｓｔ２Ｆ,,23,105,4500002,,,,,,,2024-10-24,1,,,,,アンラクサンシロウショウテン,0
684,3180301039163,新規,0,2024-10-24,2024-10-24,株式会社ｃｏｍｆ,,株式会社,愛知県,安城市,桜井町高見５番地３,,23,212,4441154,,,,,,,2024-10-24,1,,,,,コンフ,0
693,3230001020582,新規,0,2024-10-24,2024-10-24,ユノ・ホープ株式会社,,株式会社,富山県,富山市,愛宕町１丁目１番１号,,16,201,9300091,,,,,,,2024-10-24,1,,,,,ユノホープ,0
711,3290803004868,新規,0,2024-10-24,2024-10-24,合同会社ｅｎｎｅ,,合同会社,福岡県,北九州市小倉北区,船場町６番１号麻布ビル２０２号室,,40,106,8020007,,,,,,,2024-10-24,1,,,,,エンネ,0
719,3310003004880,新規,0,2024-10-24,2024-10-24,合同会社Ｙｕｉ‐結,,合同会社,長崎県,大村市,東三城町１２番地１０,,42,205,8560826,,,,,,,2024-10-24,1,,,,,ユイユイ,0
723,3330001032576,新規,0,2024-10-24,2024-10-24,月出プロパティー株式会社,,株式会社,熊本県,熊本市南区,南高江３丁目１番６６号,,43,104,8614106,,,,,,,2024-10-24,1,,,,,ツキデプロパティー,0
724,3330001032584,新規,0,2024-10-24,2024-10-24,株式会社Ｒｅリンク,,株式会社,熊本県,熊本市中央区,水前寺３丁目２番１４号,,43,101,8620950,,,,,,,2024-10-24,1,,,,,リリンク,0
737,3410001013972,新規,0,2024-10-24,2024-10-24,株式会社美佳技官,,株式会社,秋田県,潟上市,天王字一向１１番地５６,,05,211,0100201,,,,,,,2024-10-24,1,,,,,ビケイギカン,0
743,3430001092890,新規,0,2024-10-24,2024-10-24,ＳＳＫ　ＤＡＩＲＹ　ＦＡＲＭ株式会社,,株式会社,北海道,日高郡新ひだか町,三石川上４１７番地の１０３,,01,610,0593354,,,,,,,2024-10-24,1,,,,,エスエスケイデイリーファーム,0
766,4010001249235,新規,0,2024-10-24,2024-10-24,株式会社ｓｏｒｅｉｋｅ,,株式会社,東京都,文京区,小石川１丁目２８番３号ＮＩＳ小石川ビル,,13,105,1120002,,,,,,,2024-10-24,1,,,,,ソレイケ,0
767,4010001249268,新規,0,2024-10-24,2024-10-24,ｓａｉ株式会社,,株式会社,東京都,中央区,銀座１丁目２２番１１号銀座大竹ビジデンス２Ｆ,,13,102,1040061,,,,,,,2024-10-24,1,,,,,サイ,0
781,4010401186012,新規,0,2024-10-24,2024-10-24,株式会社タグボート,,株式会社,東京都,港区,港南２丁目１７番１号京王品川ビル,,13,103,1080075,,,,,,,2024-10-24,1,,,,,タグボート,0
784,4010403033666,新規,0,2024-10-24,2024-10-24,ａｌｌｌｉｇｎ　ｐａｒｔｎｅｒｓ合同会社,,合同会社,東京都,港区,浜松町２丁目２番１５号浜松町ダイヤビル２Ｆ,,13,103,1050013,,,,,,,2024-10-24,1,,,,,アラインパートナーズ,0
792,4010601066146,新規,0,2024-10-24,2024-10-24,株式会社ＫＮＴ’Ｓ,,株式会社,東京都,江東区,常盤１丁目９番３号,,13,108,1350006,,,,,,,2024-10-24,1,,,,,ケイエヌティーエス,0
793,4010601066154,新規,0,2024-10-24,2024-10-24,アジア国際貿易株式会社,,株式会社,東京都,江東区,有明１丁目５－２Ｂｒｉｌｌｉａ有明ＣｉｔｙＴｏｗｅｒ１１０９号室,,13,108,1350063,,,,,,,2024-10-24,1,,,,,アジアコクサイボウエキ,0
795,4010603011166,新規,0,2024-10-24,2024-10-24,ＡＮＫＨ合同会社,,合同会社,東京都,墨田区,江東橋４丁目２４番７号,,13,107,1300022,,,,,,,2024-10-24,1,,,,,アンク,0
798,4010703007403,新規,0,2024-10-24,2024-10-24,合同会社ＫＵＳＵＨＡＲＡ,,合同会社,東京都,品川区,二葉１丁目３番７－１０６号,,13,109,1420043,,,,,,,2024-10-24,1,,,,,クスハラ,0
799,4010801035520,新規,0,2024-10-24,2024-10-24,Ｌｕｚｚ株式会社,,株式会社,東京都,大田区,中央８丁目４０－１８,,13,111,1430024,,,,,,,2024-10-24,1,,,,,ラズ,0
800,4010901056177,新規,0,2024-10-24,2024-10-24,株式会社雅成,,株式会社,東京都,世田谷区,船橋１丁目３７番７号エフブリッヂ３０１,,13,112,1560055,,,,,,,2024-10-24,1,,,,,マサシゲ,0
801,4010901056193,新規,0,2024-10-24,2024-10-24,株式会社オーガスタ埼玉,,株式会社,東京都,世田谷区,太子堂４丁目１８番１５号マガザン三軒茶屋２、３Ｆ－３,,13,112,1540004,,,,,,,2024-10-24,1,,,,,オーガスタサイタマ,0
806,4011001165439,新規,0,2024-10-24,2024-10-24,Ｅｖａｎｇｅｌｙ株式会社,,株式会社,東京都,渋谷区,広尾５丁目４番１６号ＥＡＴ・ＰＬＡＹ・ＷＯＲＫＳ３階,,13,113,1500012,,,,,,,2024-10-24,1,,,,,エバンジェリー,0
807,4011001165463,新規,0,2024-10-24,2024-10-24,株式会社Ｎｏｎ,,株式会社,東京都,渋谷区,神宮前３丁目４２番１５号メグビル３階,,13,113,1500001,,,,,,,2024-10-24,1,,,,,ノン,0
808,4011003020212,新規,0,2024-10-24,2024-10-24,合同会社キャンバス,,合同会社,東京都,渋谷区,本町４丁目４１番１２号Ｆマンション２０９,,13,113,1510071,,,,,,,2024-10-24,1,,,,,キャンバス,0
809,4011003020220,新規,0,2024-10-24,2024-10-24,合同会社Ｓａｌｔｅ　Ｊａｐａｎ,,合同会社,東京都,渋谷区,円山町５番５号Ｎａｖｉ渋谷Ｖ３階,,13,113,1500044,,,,,,,2024-10-24,1,,,,,ソルテジャパン,0
810,4011003020229,新規,0,2024-10-24,2024-10-24,合同会社ＴＧＣ,,合同会社,東京都,渋谷区,神泉町１０番１５号アネックス神泉３０１,,13,113,1500045,,,,,,,2024-10-24,1,,,,,ティージーシー,0
811,4011003020245,新規,0,2024-10-24,2024-10-24,ｎｉｃｅ２ｈａｖｅ合同会社,,合同会社,東京都,渋谷区,道玄坂１丁目１０番８号渋谷道玄坂東急ビル２Ｆ‐Ｃ,,13,113,1500043,,,,,,,2024-10-24,1,,,,,ナイストゥハブ,0
812,4011003020253,新規,0,2024-10-24,2024-10-24,合同会社ＳＰ販売,,合同会社,東京都,目黒区,中目黒２丁目７番９号ＫｕｋａｉＴｅｒｒａｃｅ中目黒２０１,,13,110,1530061,,,,,,,2024-10-24,1,,,,,エスピーハンバイ,0
815,4011101109295,新規,0,2024-10-24,2024-10-24,株式会社ＰＱＴ,,株式会社,東京都,新宿区,歌舞伎町１丁目１２番６号,,13,104,1600021,,,,,,,2024-10-24,1,,,,,ピーキューティー,0
816,4011201025888,新規,0,2024-10-24,2024-10-24,株式会社ＢＲＩＤＧＥｓ,,株式会社,東京都,中野区,新井２丁目７番１２号８Ｆ－１０２,,13,114,1650026,,,,,,,2024-10-24,1,,,,,ブリッジ,0
820,4011401026521,新規,0,2024-10-24,2024-10-24,Ｆａｉｔｈ　Ｃｒｅａｔｅ　Ｍｅｄｉａ株式会社,,株式会社,東京都,板橋区,仲宿６３番地７号ＯＥＯｆｆｉｃｅＢｌｄｇ．５０８号室,,13,119,1730005,,,,,,,2024-10-24,1,,,,,フェイスクリエイトメディア,0
821,4011501031289,新規,0,2024-10-24,2024-10-24,株式会社ドラビナ,,株式会社,東京都,荒川区,西尾久７丁目４０番２号アパート地上３階建２０１号室,,13,118,1160011,,,,,,,2024-10-24,1,,,,,ドラビナ,0
826,4011601028144,新規,0,2024-10-24,2024-10-24,トソス株式会社,,株式会社,東京都,練馬区,下石神井５丁目１８－９下石神井アパート１階,,13,120,1770042,,,,,,,2024-10-24,1,,,,,トソス,0
828,4011801045039,新規,0,2024-10-24,2024-10-24,ベスト商業株式会社,,株式会社,東京都,葛飾区,金町２丁目２１－５プラーズ金町３１３,,13,122,1250042,,,,,,,2024-10-24,1,,,,,,0
831,4012401042418,新規,0,2024-10-24,2024-10-24,株式会社ＦＲＯＮＴＩＥＲ,,株式会社,東京都,武蔵野市,吉祥寺南町２丁目８－６第１８通南ビル３０６,,13,203,1800003,,,,,,,2024-10-24,1,,,,,フロンティア,0
842,4020001159689,新規,0,2024-10-24,2024-10-24,株式会社ホールインプレス,,株式会社,神奈川県,横浜市金沢区,谷津町３７４番地川島ビル１０３,,14,108,2360016,,,,,,,2024-10-24,1,,,,,ホールインプレス,0
846,4021001083581,新規,0,2024-10-24,2024-10-24,澤田植木株式会社,,株式会社,神奈川県,藤沢市,柄沢２３０－１５,,14,205,2510003,,,,,,,2024-10-24,1,,,,,サワダウエキ,0
852,4030001163129,新規,0,2024-10-24,2024-10-24,株式会社ロジリンクス,,株式会社,埼玉県,加須市,大桑１丁目１８番地１,,11,210,3470010,,,,,,,2024-10-24,1,,,,,ロジリンクス,0
864,4040003026043,新規,0,2024-10-24,2024-10-24,Ｎａｇｉ合同会社,,合同会社,千葉県,柏市,豊住１丁目２－１５－５,,12,217,2770071,,,,,,,2024-10-24,1,,,,,ナギ,0
867,4050003008759,新規,0,2024-10-24,2024-10-24,合同会社ＺＥＲＯ,,合同会社,茨城県,つくば市,鬼ケ窪１１６１番地２４,,08,220,3002651,,,,,,,2024-10-24,1,,,,,ゼロ,0
869,4060003005301,新規,0,2024-10-24,2024-10-24,合同会社Ｙ３,,合同会社,栃木県,鹿沼市,塩山町１４６番地,,09,205,3220527,,,,,,,2024-10-24,1,,,,,,0
878,4080103003178,新規,0,2024-10-24,2024-10-24,合同会社ベストリッチ,,合同会社,静岡県,田方郡函南町,畑毛２２７番地の３,,22,325,4190111,,,,,,,2024-10-24,1,,,,,ベストリッチ,0
880,4080403005130,新規,0,2024-10-24,2024-10-24,マミヤ建設コンサルタント合同会社,,合同会社,静岡県,浜松市中央区,豊西町４１０番地,,22,138,4313102,,,,,,,2024-10-24,1,,,,,マミヤケンセツコンサルタント,0
881,4090001018962,新規,0,2024-10-24,2024-10-24,株式会社ネクサスライブ,,株式会社,山梨県,甲府市,大手１丁目２番２１号イノベーションベースＳｏｉｅ１１３,,19,201,4000015,,,,,,,2024-10-24,1,,,,,,0
895,4120001269577,新規,0,2024-10-24,2024-10-24,株式会社Ｆｅｌｉｃｉａ,,株式会社,大阪府,寝屋川市,香里新町２番１３号１階,,27,215,5720085,,,,,,,2024-10-24,1,,,,,フェリシア,0
896,4120001269585,新規,0,2024-10-24,2024-10-24,株式会社ＮＡＮＡ’ｓ　Ｃｏｍｐａｎｙ,,株式会社,大阪府,大阪市西区,南堀江４丁目１１番８－２１０５号,,27,106,5500015,,,,,,,2024-10-24,1,,,,,ナナズカンパニー,0
897,4120001269619,新規,0,2024-10-24,2024-10-24,株式会社ＡＮＴＥ　ｍａｒｋｅｔｉｎｇ,,株式会社,大阪府,大阪市北区,中津１丁目２番２１号明大ビル４０５,,27,127,5310071,,,,,,,2024-10-24,1,,,,,アンティマーケティング,0
898,4120001269651,新規,0,2024-10-24,2024-10-24,株式会社隼奏設備,,株式会社,大阪府,大阪市淀川区,塚本１丁目１７番２５号Ｌ２,,27,123,5320026,,,,,,,2024-10-24,1,,,,,シュンソウセツビ,0
899,4120001269676,新規,0,2024-10-24,2024-10-24,Ａｎｙｐａｃｋ　Ｊａｐａｎ株式会社,,株式会社,大阪府,大阪市淀川区,田川北１丁目２番２１号,,27,123,5320021,,,,,,,2024-10-24,1,,,,,エニパックジャパン,0
909,4120103006102,新規,0,2024-10-24,2024-10-24,合同会社びーと,,合同会社,大阪府,和泉市,光明台３丁目２７番１２号,,27,219,5941111,,,,,,,2024-10-24,1,,,,,ビート,0
915,4120901049946,新規,0,2024-10-24,2024-10-24,株式会社ＫｕｒａＮｏｖａ,,株式会社,大阪府,吹田市,桃山台３丁目７－１,,27,205,5650854,,,,,,,2024-10-24,1,,,,,クラノヴァ,0
917,4122001038565,新規,0,2024-10-24,2024-10-24,株式会社Ｌｏｔｕｓ　Ｕｎｉｏｎ,,株式会社,大阪府,東大阪市,長堂１丁目８番３７号ヴェル・ノール布施３階ＲｅｑｒｅｅＶｅｌｌｅｎｏｒｄ,,27,227,5770056,,,,,,,2024-10-24,1,,,,,ロータスユニオン,0
926,4140005027244,新規,0,2024-10-24,2024-10-24,特定非営利活動法人ＫＯＴＯＴＵＮＡ,,その他の設立登記法人,兵庫県,神戸市北区,鈴蘭台北町５丁目４番５号,,28,109,6511111,,,,,,,2024-10-24,1,,,,,コトツナ,0
927,4150001027627,新規,0,2024-10-24,2024-10-24,株式会社Ｏｆｆｉｃｅ　ＮＯＤＡ,,株式会社,奈良県,天理市,中町１０番地５８,,29,204,6320097,,,,,,,2024-10-24,1,,,,,オフィスノダ,0
938,4180001163816,新規,0,2024-10-24,2024-10-24,ホッタデザインワークス株式会社,,株式会社,愛知県,一宮市,城崎通６丁目１５番地５,,23,203,4910866,,,,,,,2024-10-24,1,,,,,ホッタデザインワークス,0
939,4180001163849,新規,0,2024-10-24,2024-10-24,株式会社Ｇ＆Ｄ,,株式会社,愛知県,名古屋市中区,丸の内２丁目７番１７号（ＡＲＥＸ丸の内ＩＩ３０１号）,00136743,23,106,4600002,,,,,,,2024-10-24,1,,,,,ジーアンドディー,0
940,4180003027515,新規,0,2024-10-24,2024-10-24,合同会社ＯＶＥＲ　ＳＥＡＳ,,合同会社,愛知県,名古屋市中区,丸の内３丁目２１番１９号１３０６,,23,106,4600002,,,,,,,2024-10-24,1,,,,,オーバーシーズ,0
952,4230001020581,新規,0,2024-10-24,2024-10-24,株式会社みのふぁーむ,,株式会社,富山県,南砺市,田尻２４８番地,,16,210,9391538,,,,,,,2024-10-24,1,,,,,ミノファーム,0
954,4240001063976,新規,0,2024-10-24,2024-10-24,株式会社ＹｕｎＳｅｕｌ,,株式会社,広島県,広島市安佐南区,山本新町２丁目３番５号,,34,105,7310139,,,,,,,2024-10-24,1,,,,,ユンスル,0
955,4240001063992,新規,0,2024-10-24,2024-10-24,タカヤ興産株式会社,,株式会社,広島県,広島市中区,江波南２丁目１２番１０－３１４号,,34,101,7300835,,,,,,,2024-10-24,1,,,,,タカヤコウサン,0
958,4240003006917,新規,0,2024-10-24,2024-10-24,合同会社さんぽ企画,,合同会社,広島県,江田島市,大柿町大原５４７０,,34,215,7372213,,,,,,,2024-10-24,1,,,,,サンポキカク,0
963,4270001009076,新規,0,2024-10-24,2024-10-24,Ｍｅｒｏｕｇｅ株式会社,,株式会社,鳥取県,米子市,旗ヶ崎３丁目１５番２５号,,31,202,6830845,,,,,,,2024-10-24,1,,,,,メロージュ,0
967,4290001107679,新規,0,2024-10-24,2024-10-24,Ｈ‐ＲＥ株式会社,,株式会社,福岡県,福岡市博多区,比恵町１１番７号,,40,132,8120014,,,,,,,2024-10-24,1,,,,,エイチアールイー,0
970,4290801030989,新規,0,2024-10-24,2024-10-24,ＧＲＡＳＴ株式会社,,株式会社,福岡県,北九州市小倉北区,高峰町２番３号,,40,106,8030826,,,,,,,2024-10-24,1,,,,,グラスト,0
977,4340003004638,新規,0,2024-10-24,2024-10-24,合同会社ネクステラ,,合同会社,鹿児島県,鹿児島市,西伊敷５丁目２番４号,,46,201,8911202,,,,,,,2024-10-24,1,,,,,ネクステラ,0
981,4380001034864,新規,0,2024-10-24,2024-10-24,株式会社Ｌｅｍｏｎｅｙ,,株式会社,福島県,いわき市,平下神谷字南一里塚３５番地の２,,07,204,9700101,,,,,,,2024-10-24,1,,,,,レモニイ,0
996,4460101007621,新規,0,2024-10-24,2024-10-24,株式会社８８４,,株式会社,北海道,帯広市,西三条南３丁目９番２,,01,207,0800013,,,,,,,2024-10-24,1,,,,,ハヤシ,0
999,4480001012629,新規,0,2024-10-24,2024-10-24,株式会社ｔａｐ３４,,株式会社,徳島県,徳島市,国府町東高輪３９２番地１４,,36,201,7793105,,,,,,,2024-10-24,1,,,,,タップサンジュウヨン,0
1002,4700150126891,新規,0,2024-10-24,2024-08-26,日本ロシア・東欧研究連絡協議会,,その他,北海道,札幌市北区,北九条西７丁目北海道大学スラブ・ユーラシア研究センター内,,01,102,0600809,,,,,,,2024-08-26,1,,,,,ニホンロシアトウオウケンキユウレンラクキヨウギカイ,0
1012,5010005039020,新規,0,2024-10-24,2024-10-24,一般社団法人南阿蘇リゾート,,その他の設立登記法人,東京都,千代田区,永田町２丁目１７番５号,,13,101,1000014,,,,,,,2024-10-24,1,,,,,ミナミアソリゾート,0
1021,5010401185847,新規,0,2024-10-24,2024-10-24,株式会社ＬＧＯ,,株式会社,東京都,港区,赤坂７丁目１０番９号,,13,103,1070052,,,,,,,2024-10-24,1,,,,,エルジーオー,0
1022,5010401185905,新規,0,2024-10-24,2024-10-24,ＶａｌｕｅＵｐＬａｂ株式会社,,株式会社,東京都,港区,新橋２丁目２０－１５新橋駅前ビル１号館６０１号室,,13,103,1050004,,,,,,,2024-10-24,1,,,,,バリューアップラボ,0
1023,5010401185921,新規,0,2024-10-24,2024-10-24,株式会社Ｒｅｍｅｄｉａ２７,,株式会社,東京都,港区,高輪３丁目４番１３号第二高輪偕成ビル７階,,13,103,1080074,,,,,,,2024-10-24,1,,,,,リメディアニジュウナナ,0
1032,5010901056143,新規,0,2024-10-24,2024-10-24,株式会社Ｏｐｅｒａ　Ｔｅｃｈ,,株式会社,東京都,世田谷区,深沢２丁目８－７,,13,112,1580081,,,,,,,2024-10-24,1,,,,,オペラテック,0
1033,5010901056168,新規,0,2024-10-24,2024-10-24,株式会社サンクリング,,株式会社,東京都,世田谷区,砧３丁目１８番１４号,,13,112,1570073,,,,,,,2024-10-24,1,,,,,サンクリング,0
1034,5010901056176,新規,0,2024-10-24,2024-10-24,株式会社ＥＭＭＵ,,株式会社,東京都,世田谷区,粕谷３丁目２８番２１号,,13,112,1570063,,,,,,,2024-10-24,1,,,,,エミュ,0
1035,5010901056184,新規,0,2024-10-24,2024-10-24,株式会社相武データソリューション,,株式会社,東京都,世田谷区,北沢２丁目２番７号,,13,112,1550031,,,,,,,2024-10-24,1,,,,,ソウブデータソリューション,0
1037,5010903009438,新規,0,2024-10-24,2024-10-24,ノクターン合同会社,,合同会社,東京都,世田谷区,深沢２丁目１番３―９０４号,,13,112,1580081,,,,,,,2024-10-24,1,,,,,ノクターン,0
1040,5011001165396,新規,0,2024-10-24,2024-10-24,株式会社キーリングコンサルタンツ,,株式会社,東京都,渋谷区,代々木２丁目３２番１３号,,13,113,1510053,,,,,,,2024-10-24,1,,,,,キーリングコンサルタンツ,0
1041,5011001165405,新規,0,2024-10-24,2024-10-24,株式会社ＫＩＩ,,株式会社,東京都,渋谷区,代々木１丁目４５番３号２Ｆ,,13,113,1510053,,,,,,,2024-10-24,1,,,,,ケーツー,0
1048,5011101109245,新規,0,2024-10-24,2024-10-24,Ｐｒｉｍｅ株式会社,,株式会社,東京都,新宿区,高田馬場３丁目１番５号サンパティオ高田馬場３０９号室,,13,104,1690075,,,,,,,2024-10-24,1,,,,,プライム,0
1049,5011101109294,新規,0,2024-10-24,2024-10-24,株式会社ＷＥＮＬＡＮ,,株式会社,東京都,新宿区,榎町３４－３榎町ビル７階－２９室,,13,104,1620806,,,,,,,2024-10-24,1,,,,,ブンラン,0
1050,5011105011199,新規,0,2024-10-24,2024-10-24,一般社団法人日中農林水産業促進会,,その他の設立登記法人,東京都,新宿区,西新宿６丁目１６番６号新宿タツミビル１００２,,13,104,1600023,,,,,,,2024-10-24,1,,,,,ニッチュウノウリンスイサンギョウソクシンカイ,0
1055,5011201025887,新規,0,2024-10-24,2024-10-24,株式会社ランス,,株式会社,東京都,中野区,野方２丁目６１番９号ＢＵＺＺ中野野方３０１,,13,114,1650027,,,,,,,2024-10-24,1,,,,,ランス,0
1062,5011801045038,新規,0,2024-10-24,2024-10-24,株式会社東京徽章,,株式会社,東京都,葛飾区,柴又４丁目１３番１０号エビヤコーポ１０１号,,13,122,1250052,,,,,,,2024-10-24,1,,,,,トウキョウキショウ,0
1067,5012403006808,新規,0,2024-10-24,2024-10-24,合同会社ドロウ,,合同会社,東京都,多摩市,落合３丁目３番地１－５０４,,13,224,2060033,,,,,,,2024-10-24,1,,,,,ドロウ,0
1069,5012701018505,新規,0,2024-10-24,2024-10-24,株式会社ＭＹＫ,,株式会社,東京都,東久留米市,下里５丁目４番２０号,,13,222,2030043,,,,,,,2024-10-24,1,,,,,エムワイケイ,0
1073,5013301053256,新規,0,2024-10-24,2024-10-24,三条株式会社,,株式会社,東京都,豊島区,千川１丁目１－１３エスエフ千川２０３,,13,116,1710041,,,,,,,2024-10-24,1,,,,,サンジョウ,0
1074,5013301053264,新規,0,2024-10-24,2024-10-24,珠澤総業株式会社,,株式会社,東京都,豊島区,雑司が谷１丁目２１－４吉田ビル２０１,,13,116,1710032,,,,,,,2024-10-24,1,,,,,ミサワソウギョウ,0
1080,5021001083597,新規,0,2024-10-24,2024-10-24,株式会社ワールドライス,,株式会社,神奈川県,相模原市南区,上鶴間３丁目２番２号,,14,153,2520302,,,,,,,2024-10-24,1,,,,,ワールドライス,0
1081,5021001083614,新規,0,2024-10-24,2024-10-24,株式会社Ｌｕｎａｔｉｏｎ,,株式会社,神奈川県,大和市,西鶴間３丁目６－１,,14,213,2420005,,,,,,,2024-10-24,1,,,,,ルネーション,0
1088,5030001163128,新規,0,2024-10-24,2024-10-24,株式会社イージス,,株式会社,埼玉県,入間市,大字上藤沢３番地１８,,11,225,3580013,,,,,,,2024-10-24,1,,,,,イージス,0
1103,5040003026042,新規,0,2024-10-24,2024-10-24,Ｆｏｒｔｕａｒｅ合同会社,,合同会社,千葉県,千葉市稲毛区,園生町１３４０番地１ザ・クイーンズガーデン稲毛１１０３号,,12,103,2630051,,,,,,,2024-10-24,1,,,,,フォルトゥァーレ,0
1107,5050001055587,新規,0,2024-10-24,2024-10-24,ＳＨＩＮＷＡＲＩ　ＴＲＡＤＩＮＧ株式会社,,株式会社,茨城県,坂東市,内野山４９４番地１,,08,228,3060514,,,,,,,2024-10-24,1,,,,,シンワリトレイディング,0
1108,5050003008758,新規,0,2024-10-24,2024-10-24,ＫＤＳ　Ｖｉｓｈｗａ　Ｅｎｔｅｒｐｒｉｓｅｓ　Ｊａｐａｎ合同会社,,合同会社,茨城県,常総市,山口８２－３,,08,211,3002715,,,,,,,2024-10-24,1,,,,,ケーディーエスヴィシュワエンタープライズジャパン,0
1109,5060001037592,新規,0,2024-10-24,2024-10-24,小泉建設株式会社,,株式会社,栃木県,宇都宮市,竹林町２５７番地１エリール竹和Ａ１０１,,09,201,3210974,,,,,,,2024-10-24,1,,,,,コイズミケンセツ,0
1113,5070003005621,新規,0,2024-10-24,2024-10-24,合同会社ｅｎｓｅｍｂｌｅ,,合同会社,群馬県,桐生市,本町６丁目３８４番地４,,10,203,3760031,,,,,,,2024-10-24,1,,,,,アンサンブル,0
1136,5120001269601,新規,0,2024-10-24,2024-10-24,ビジネス戦株式会社,,株式会社,大阪府,大阪市都島区,片町１丁目２－９－２０２,,27,102,5340025,,,,,,,2024-10-24,1,,,,,ビジネスイクサ,0
1137,5120001269659,新規,0,2024-10-24,2024-10-24,株式会社ＬＩＦＥ　ＳＴＡＧＥ,,株式会社,大阪府,大阪市中央区,谷町７丁目５番５－１１０２号,,27,128,5420012,,,,,,,2024-10-24,1,,,,,ライフステージ,0
1138,5120001269675,新規,0,2024-10-24,2024-10-24,欧亜匯通商貿株式会社,,株式会社,大阪府,大阪市城東区,中浜２丁目１８番１７号,,27,118,5360024,,,,,,,2024-10-24,1,,,,,ユーラシアカイツウショウボウ,0
1140,5120003027817,新規,0,2024-10-24,2024-10-24,ルアン・ランカー合同会社,,合同会社,大阪府,大阪市天王寺区,東高津町６番１９－３０７号,,27,109,5430021,,,,,,,2024-10-24,1,,,,,ルアンランカー,0
1145,5120101070454,新規,0,2024-10-24,2024-10-24,海晟大阪株式会社,,株式会社,大阪府,堺市北区,中村町３１７－２,,27,146,5918012,,,,,,,2024-10-24,1,,,,,カイセイオオサカ,0
1146,5122001038564,新規,0,2024-10-24,2024-10-24,株式会社Ｌｅａｌｅａ,,株式会社,大阪府,大東市,御供田３丁目８番１号,,27,218,5740025,,,,,,,2024-10-24,1,,,,,レアレア,0
1154,5130005017220,新規,0,2024-10-24,2024-10-24,一般社団法人ＳＮＳプロフェッショナル協会,,その他の設立登記法人,京都府,京都市下京区,中堂寺粟田町９０ＫＲＰ８号館３０７,,26,106,6008815,,,,,,,2024-10-24,1,,,,,エスエヌエスプロフェッショナルキョウカイ,0
1177,5180303006325,新規,0,2024-10-24,2024-10-24,合同会社ＴＭＹ,,合同会社,愛知県,岡崎市,矢作町字神居１番地２２,,23,202,4440943,,,,,,,2024-10-24,1,,,,,テーエムワイ,0
1182,5200003006556,新規,0,2024-10-24,2024-10-24,さくらそら合同会社,,合同会社,岐阜県,岐阜市,住ノ江町１丁目１９番地,,21,201,5008408,,,,,,,2024-10-24,1,,,,,サクラソラ,0
1188,5240001063991,新規,0,2024-10-24,2024-10-24,株式会社Ｋ．Ｉ．パートナー,,株式会社,広島県,広島市安佐南区,山本新町３丁目４０番１４号,,34,105,7310139,,,,,,,2024-10-24,1,,,,,ケイアイパートナー,0
1189,5240003006916,新規,0,2024-10-24,2024-10-24,フェリズ合同会社,,合同会社,広島県,廿日市市,阿品３丁目１番２－９０４号,,34,213,7380054,,,,,,,2024-10-24,1,,,,,フェリズ,0
1203,5290001107711,新規,0,2024-10-24,2024-10-24,株式会社Ｌｅｖｅｌ　ｕｐ,,株式会社,福岡県,福岡市中央区,赤坂１丁目４番１号,,40,133,8100042,,,,,,,2024-10-24,1,,,,,レベルアップ,0
1207,5320001020778,新規,0,2024-10-24,2024-10-24,株式会社ＳＥＧＡＷＡＳＡＮ,,株式会社,大分県,大分市,大字横尾３５８５番地の１１,,44,201,8700126,,,,,,,2024-10-24,1,,,,,セガワサン,0
1209,5330001032574,新規,0,2024-10-24,2024-10-24,株式会社ＴＡＫＡＨＡＳＨＩ　Ａｒｃｈｉｔｅｃｔｕｒｅ,,株式会社,熊本県,阿蘇郡産山村,大字山鹿２５０２番地３,,43,425,8692703,,,,,,,2024-10-24,1,,,,,タカハシアーキテクチャー,0
1220,5370001051843,新規,0,2024-10-24,2024-10-24,株式会社ウェスタ,,株式会社,宮城県,宮城郡利府町,春日字勝負沢４３番地１１１,,04,406,9810102,,,,,,,2024-10-24,1,,,,,ウェスタ,0
1221,5370003006795,新規,0,2024-10-24,2024-10-24,ドントクライ合同会社,,合同会社,宮城県,仙台市青葉区,本町１丁目５番２８号カーニープレイス仙台駅前通６０３号室,,04,101,9800014,,,,,,,2024-10-24,1,,,,,ドントクライ,0
1222,5380003005879,新規,0,2024-10-24,2024-10-24,ＹＡＭ　ＫＵＭＡＲＩ合同会社,,合同会社,福島県,郡山市,駅前１丁目７番５号,,07,203,9638002,,,,,,,2024-10-24,1,,,,,ヤムクマリ,0
1244,5460101007620,新規,0,2024-10-24,2024-10-24,株式会社たびと,,株式会社,北海道,帯広市,東一条南３０丁目１番地２５,,01,207,0800801,,,,,,,2024-10-24,1,,,,,タビト,0
1251,6010001249142,新規,0,2024-10-24,2024-10-24,株式会社なまくら刀,,株式会社,東京都,千代田区,東神田２丁目６番２号タカラビル７Ｆ,,13,101,1010031,,,,,,,2024-10-24,1,,,,,ナマクラガタナ,0
1252,6010001249282,新規,0,2024-10-24,2024-10-24,株式会社うさちゃん,,株式会社,東京都,中央区,銀座１丁目１２番４号Ｎ＆Ｅ．ＢＬＤ．７階,,13,102,1040061,,,,,,,2024-10-24,1,,,,,ウサチャン,0
1270,6010401185945,新規,0,2024-10-24,2024-10-24,株式会社ユニティワーク,,株式会社,東京都,港区,芝浦３丁目５番２５号８４,,13,103,1080023,,,,,,,2024-10-24,1,,,,,ユニティワーク,0
1271,6010403033672,新規,0,2024-10-24,2024-10-24,合同会社Ａｎｓｗｅｒ,,合同会社,東京都,港区,麻布台３丁目５－５－６０１,,13,103,1060041,,,,,,,2024-10-24,1,,,,,アンサー,0
1273,6010405023696,新規,0,2024-10-24,2024-10-24,博多アイランドシティ一般社団法人,,その他の設立登記法人,東京都,港区,虎ノ門３丁目２２番１０－２０１号,,13,103,1050001,,,,,,,2024-10-24,1,,,,,ハカタアイランドシティ,0
1278,6010601066144,新規,0,2024-10-24,2024-10-24,株式会社Ｇ＆Ｇ,,株式会社,東京都,江東区,木場３丁目１８番２－２６０２号,,13,108,1350042,,,,,,,2024-10-24,1,,,,,ジーアンドジー,0
1279,6010601066152,新規,0,2024-10-24,2024-10-24,株式会社ｙｏｕｒｉｎｇ,,株式会社,東京都,江東区,扇橋１丁目２１番５－１０３２号,,13,108,1350011,,,,,,,2024-10-24,1,,,,,ユーリン,0
1285,6010901056183,新規,0,2024-10-24,2024-10-24,株式会社ワールド商事,,株式会社,東京都,世田谷区,北沢２丁目１０番１５－７０３号,,13,112,1550031,,,,,,,2024-10-24,1,,,,,ワールドショウジ,0
1286,6010903009429,新規,0,2024-10-24,2024-10-24,合同会社遠藤住建,,合同会社,東京都,世田谷区,八幡山１丁目２－６ハイブリッヂマンション３０７,,13,112,1560056,,,,,,,2024-10-24,1,,,,,エンドウジュウケン,0
1293,6011001165387,新規,0,2024-10-24,2024-10-24,株式会社Ｓｕｒｐｒｉｄｅ　Ｔｏｋｙｏ,,株式会社,東京都,渋谷区,渋谷２丁目１９番１５号宮益坂ビルディング６０９,,13,113,1500002,,,,,,,2024-10-24,1,,,,,サプライドトウキョウ,0
1296,6011003020284,新規,0,2024-10-24,2024-10-24,合同会社コバヤシプロ,,合同会社,東京都,渋谷区,渋谷２丁目１９‐１５宮益坂ビルディング６０９,,13,113,1500002,,,,,,,2024-10-24,1,,,,,コバヤシプロ,0
1299,6011101109269,新規,0,2024-10-24,2024-10-24,ＳＳＧ株式会社,,株式会社,東京都,新宿区,市谷船河原町５番地丹京ビル３０１号,,13,104,1620826,,,,,,,2024-10-24,1,,,,,エスエスジー,0
1300,6011103015085,新規,0,2024-10-24,2024-10-24,合同会社ＳＯＲＡ,,合同会社,東京都,新宿区,西新宿３丁目３番１３号西新宿水間ビル２Ｆ,,13,104,1600023,,,,,,,2024-10-24,1,,,,,ソラ,0
1301,6011103015102,新規,0,2024-10-24,2024-10-24,合同会社アドリープ,,合同会社,東京都,新宿区,高田馬場１丁目２８－１０三慶ビル４ＦＣＡＳＥｓｈｉｎｊｕｋｕ,,13,104,1690075,,,,,,,2024-10-24,1,,,,,アドリープ,0
1310,6011501031295,新規,0,2024-10-24,2024-10-24,南興セラミックス株式会社,,株式会社,東京都,北区,堀船２丁目１９番１９号,,13,117,1140004,,,,,,,2024-10-24,1,,,,,ナンコウセラミックス,0
1312,6011703004009,新規,0,2024-10-24,2024-10-24,合同会社ＺＡＩＯＮ,,合同会社,東京都,江戸川区,江戸川５丁目１２番１号メルディア一之江２０３,,13,123,1340013,,,,,,,2024-10-24,1,,,,,ザイオン,0
1314,6011803006516,新規,0,2024-10-24,2024-10-24,合同会社フェニックス,,合同会社,東京都,葛飾区,新小岩２丁目３１番３号大場マンション２０２,,13,122,1240024,,,,,,,2024-10-24,1,,,,,フェニックス,0
1317,6012401042424,新規,0,2024-10-24,2024-10-24,株式会社フューチャーコアパートナーズ,,株式会社,東京都,小金井市,東町４丁目４２－２０,,13,210,1840011,,,,,,,2024-10-24,1,,,,,フューチャーコアパートナーズ,0
1319,6012703003116,新規,0,2024-10-24,2024-10-24,ＹＵＫＲ合同会社,,合同会社,東京都,小平市,回田町６４番地の８２,,13,211,1870013,,,,,,,2024-10-24,1,,,,,ワイユーケーアール,0
1323,6013301053247,新規,0,2024-10-24,2024-10-24,株式会社ｔｒｉｎｉｓｔ,,株式会社,東京都,豊島区,南池袋３丁目１３－５ＫＪ南池袋ビル８Ｆ,,13,116,1710022,,,,,,,2024-10-24,1,,,,,トリニスト,0
1324,6013301053255,新規,0,2024-10-24,2024-10-24,株式会社Ｌｉｑｕｏｒ　ｆｏｒ　Ｌｉｆｅ,,株式会社,東京都,豊島区,北大塚３丁目１９番１２号,,13,116,1700004,,,,,,,2024-10-24,1,,,,,リカーフォーライフ,0
1325,6013301053263,新規,0,2024-10-24,2024-10-24,株式会社モノドット,,株式会社,東京都,豊島区,南池袋２丁目４９番７号池袋パークビル４階,,13,116,1710022,,,,,,,2024-10-24,1,,,,,モノドット,0
1329,6020001159720,新規,0,2024-10-24,2024-10-24,エーテルケア株式会社,,株式会社,神奈川県,横浜市神奈川区,栄町１０番地３５ザ・ヨコハマタワーズＥ３１０３号,,14,102,2210052,,,,,,,2024-10-24,1,,,,,エーテルケア,0
1330,6020001159737,新規,0,2024-10-24,2024-10-24,株式会社翔陽,,株式会社,神奈川県,横浜市緑区,新治町１２０－１,,14,113,2260017,,,,,,,2024-10-24,1,,,,,ショウヨウ,0
1334,6021001083588,新規,0,2024-10-24,2024-10-24,株式会社Ｇｒｅｅｎｓｐｉｒｅ,,株式会社,神奈川県,平塚市,代官町３５番１８－２０６号平塚ダイカンプラザ,,14,203,2540807,,,,,,,2024-10-24,1,,,,,グリーンスパイア,0
1337,6030001163102,新規,0,2024-10-24,2024-10-24,株式会社３６９エステート,,株式会社,埼玉県,川口市,青木１丁目１５番５－１１４号,,11,203,3320031,,,,,,,2024-10-24,1,,,,,ミロクエステート,0
1338,6030001163127,新規,0,2024-10-24,2024-10-24,和旅行株式会社,,株式会社,埼玉県,さいたま市北区,日進町１丁目７０番地４,,11,102,3310823,,,,,,,2024-10-24,1,,,,,ワリョコウ,0
1356,6050001055561,新規,0,2024-10-24,2024-10-24,株式会社中小企業情報設計社,,株式会社,茨城県,水戸市,南町３丁目３－３５栗原ビル１ＦＷａｇｔａｉｌ,,08,201,3100021,,,,,,,2024-10-24,1,,,,,チュウショウキギョウジョウホウセッケイシャ,0
1357,6050001055578,新規,0,2024-10-24,2024-10-24,つくばリビング株式会社,,株式会社,茨城県,つくば市,自由ケ丘４４９－５,,08,220,3001266,,,,,,,2024-10-24,1,,,,,ツクバリビング,0
1364,6050003008732,新規,0,2024-10-24,2024-10-24,合同会社よろず屋レンジャー,,合同会社,茨城県,つくば市,大曽根９７２番地２ロイヤルヴィラ筑波１０３号,,08,220,3003253,,,,,,,2024-10-24,1,,,,,ヨロズヤレンジャー,0
1365,6050003008765,新規,0,2024-10-24,2024-10-24,ケンティー合同会社,,合同会社,茨城県,結城市,大字大木８１６－２,,08,207,3070031,,,,,,,2024-10-24,1,,,,,ケンティー,0
1374,6070003005629,新規,0,2024-10-24,2024-10-24,合同会社トータルアセット,,合同会社,群馬県,前橋市,下阿内町１７４番地２,,10,201,3792142,,,,,,,2024-10-24,1,,,,,トータルアセット,0
1379,6080405007684,新規,0,2024-10-24,2024-10-24,一般社団法人えみゆいネットワーク,,その他の設立登記法人,静岡県,浜松市中央区,芳川町７６４番地,,22,138,4300813,,,,,,,2024-10-24,1,,,,,エミユイネットワーク,0
1387,6120001269402,新規,0,2024-10-24,2024-10-24,株式会社ＸＸＸＸ,,株式会社,大阪府,大阪市北区,西天満３丁目６－２ＯＤＥＳＳＡ西天満１階,,27,127,5300047,,,,,,,2024-10-24,1,,,,,フォーエックス,0
1388,6120001269609,新規,0,2024-10-24,2024-10-24,株式会社トラストサッシ工業,,株式会社,大阪府,大阪市生野区,巽東３丁目９番３１－６０２号,00136732,27,116,5440014,,,,,,,2024-10-24,1,,,,,トラストサッシコウギョウ,0
1389,6120001269617,新規,0,2024-10-24,2024-10-24,地球儀株式会社,,株式会社,大阪府,大阪市旭区,千林２丁目１３番７号,,27,117,5350012,,,,,,,2024-10-24,1,,,,,チキュウギ,0
1390,6120001269641,新規,0,2024-10-24,2024-10-24,株式会社ループネクスト,,株式会社,大阪府,枚方市,杉山手３丁目３２番７号,,27,210,5730118,,,,,,,2024-10-24,1,,,,,ループネクスト,0
1391,6120001269658,新規,0,2024-10-24,2024-10-24,京一株式会社,,株式会社,大阪府,大阪市城東区,関目５丁目１９番９号関目花博公館６０５Ａ,,27,118,5360008,,,,,,,2024-10-24,1,,,,,キョウイチ,0
1392,6120001269666,新規,0,2024-10-24,2024-10-24,牧川株式会社,,株式会社,大阪府,大阪市住之江区,粉浜１丁目３番２５－４０１号,,27,125,5590001,,,,,,,2024-10-24,1,,,,,マキカワ,0
1396,6120003027816,新規,0,2024-10-24,2024-10-24,ｒｅｃｏｒｐ合同会社,,合同会社,大阪府,大阪市大正区,小林東２丁目１０－７,,27,108,5510011,,,,,,,2024-10-24,1,,,,,アールイーコープ,0
1397,6120005024588,新規,0,2024-10-24,2024-10-24,一般社団法人臨床研究・ピアサポートグループ,,その他の設立登記法人,大阪府,大阪市北区,梅田１丁目２番２号大阪駅前第２ビル１２－１２,,27,127,5300001,,,,,,,2024-10-24,1,,,,,リンショウケンキュウピアサポートグループ,0
1399,6120101070453,新規,0,2024-10-24,2024-10-24,海時大阪株式会社,,株式会社,大阪府,堺市北区,中村町３１７－２,,27,146,5918012,,,,,,,2024-10-24,1,,,,,カイジオオサカ,0
1407,6140001136220,新規,0,2024-10-24,2024-10-24,株式会社ＲＭＫ,,株式会社,兵庫県,姫路市,飾磨区恵美酒１０９番地８,,28,201,6728057,,,,,,,2024-10-24,1,,,,,アールエムケー,0
1409,6140003021230,新規,0,2024-10-24,2024-10-24,ＡＵＴＵＭＮ合同会社,,合同会社,兵庫県,神戸市長田区,久保町４丁目５番５号,,28,106,6530041,,,,,,,2024-10-24,1,,,,,オータム,0
1413,6150003003401,新規,0,2024-10-24,2024-10-24,合同会社スクウェア・ホールディングス,,合同会社,奈良県,香芝市,磯壁２丁目１０９０番地１９,,29,210,6390236,,,,,,,2024-10-24,1,,,,,スクウェアホールディングス,0
1427,6180001163789,新規,0,2024-10-24,2024-10-24,株式会社ＳＨ,,株式会社,愛知県,名古屋市東区,東桜２丁目１３番３４号,,23,102,4610005,,,,,,,2024-10-24,1,,,,,エスエイチ,0
1432,6180003027513,新規,0,2024-10-24,2024-10-24,くまのソフトウェア工房合同会社,,合同会社,愛知県,名古屋市昭和区,天神町２丁目２６－４フォーブル御器所３０６号,,23,107,4660032,,,,,,,2024-10-24,1,,,,,クマノソフトウェアコウボウ,0
1433,6180003027521,新規,0,2024-10-24,2024-10-24,合同会社ｃｌｏｖｅｒ,,合同会社,愛知県,名古屋市東区,泉１丁目４番３号ｃｈａｎｇｕＩＩＩ泉９０２号,00136737,23,102,4610001,,,,,,,2024-10-24,1,,,,,クローバー,0
1434,6180005020813,新規,0,2024-10-24,2024-10-24,特定非営利活動法人かえるのすみか,,その他の設立登記法人,愛知県,名古屋市昭和区,村雲町２番２０号,,23,107,4660052,,,,,,,2024-10-24,1,,,,,カエルノスミカ,0
1437,6200001043063,新規,0,2024-10-24,2024-10-24,日本昇龍トラベル株式会社,,株式会社,岐阜県,高山市,国府町広瀬町２４５９番地５,,21,203,5094119,,,,,,,2024-10-24,1,,,,,ニホンドラゴントラベル,0
1446,6240003006915,新規,0,2024-10-24,2024-10-24,合同会社橘,,合同会社,広島県,広島市中区,江波本町５番２７－５０４号,,34,101,7300833,,,,,,,2024-10-24,1,,,,,タチバナ,0
1448,6260001039568,新規,0,2024-10-24,2024-10-24,株式会社ＫＩＫ,,株式会社,岡山県,倉敷市,神田４丁目８番２６号,,33,202,7128061,,,,,,,2024-10-24,1,,,,,ケイアイケイ,0
1449,6260003004933,新規,0,2024-10-24,2024-10-24,合同会社和氣あいあい,,合同会社,岡山県,加賀郡吉備中央町,納地１５９８番地２,,33,681,7161121,,,,,,,2024-10-24,1,,,,,ワキアイアイ,0
1450,6260003004941,新規,0,2024-10-24,2024-10-24,合同会社カー・ペット,,合同会社,岡山県,岡山市中区,祇園１８６番地３,,33,102,7038207,,,,,,,2024-10-24,1,,,,,カーペット,0
1454,6290001107603,新規,0,2024-10-24,2024-10-24,ワクワク株式会社,,株式会社,福岡県,福岡市博多区,博多駅前４丁目１３番２７号（６１２）,,40,132,8120011,,,,,,,2024-10-24,1,,,,,ワクワク,0
1455,6290001107677,新規,0,2024-10-24,2024-10-24,株式会社カザルキカザル,,株式会社,福岡県,福岡市南区,寺塚２丁目４番４－４０７号,,40,134,8150074,,,,,,,2024-10-24,1,,,,,カザルキカザル,0
1458,6290801030987,新規,0,2024-10-24,2024-10-24,サンセリテＭ株式会社,,株式会社,福岡県,京都郡苅田町,大字南原１４７４番地１９,,40,621,8000355,,,,,,,2024-10-24,1,,,,,サンセリテエム,0
1470,6370003006794,新規,0,2024-10-24,2024-10-24,合同会社ＯＨＡＮＡ　ＷＯＲＫＳ,,合同会社,宮城県,大崎市,鹿島台木間塚字石名坂１７－３,,04,215,9894102,,,,,,,2024-10-24,1,,,,,オハナワークス,0
1472,6390001017775,新規,0,2024-10-24,2024-10-24,株式会社菜な八,,株式会社,山形県,鶴岡市,藤沢甲２９４番地,,06,203,9970751,,,,,,,2024-10-24,1,,,,,ナナハチ,0
1517,7010005039010,新規,0,2024-10-24,2024-10-24,一般社団法人エルインベストメント３,,その他の設立登記法人,東京都,千代田区,丸の内１丁目４番１号東京共同会計事務所内,,13,101,1000005,,,,,,,2024-10-24,1,,,,,エルインベストメントスリー,0
1531,7010401185894,新規,0,2024-10-24,2024-10-24,株式会社ＲｅｅＤｏｔ,,株式会社,東京都,港区,南青山３丁目１番３６号青山丸竹ビル６Ｆ,,13,103,1070062,,,,,,,2024-10-24,1,,,,,リードット,0
1532,7010401185928,新規,0,2024-10-24,2024-10-24,Ｌｉｏｎｓ　Ｇａｔｅ株式会社,,株式会社,東京都,港区,芝２丁目１８番９号－２Ｆ,,13,103,1050014,,,,,,,2024-10-24,1,,,,,ライオンズゲート,0
1533,7010401185952,新規,0,2024-10-24,2024-10-24,株式会社ＦＵＲＣＩＦＥＲ,,株式会社,東京都,港区,赤坂１丁目１番１７号細川ビル９０７,,13,103,1070052,,,,,,,2024-10-24,1,,,,,フルシファー,0
1535,7010403033259,新規,0,2024-10-24,2024-10-24,合同会社ＯＣＴＯＣ,,合同会社,東京都,港区,高輪１丁目５－４グランドメゾン白金高輪パークフロント５０３,,13,103,1080074,,,,,,,2024-10-24,1,,,,,オクトック,0
1537,7010405023654,新規,0,2024-10-24,2024-10-24,医療法人社団蒼誠会,,その他の設立登記法人,東京都,港区,新橋１丁目１８番１４号新橋ＭＭビル５階,,13,103,1050004,,,,,,,2024-10-24,1,,,,,ソウセイカイ,0
1539,7010601066143,新規,0,2024-10-24,2024-10-24,株式会社ＢｏＢｏ,,株式会社,東京都,江東区,木場３丁目１８番２－２６０２号,,13,108,1350042,,,,,,,2024-10-24,1,,,,,ボボ,0
1541,7010603011171,新規,0,2024-10-24,2024-10-24,合同会社デザインファン,,合同会社,東京都,江東区,深川１丁目９番１号マルシンコーポ３０２,,13,108,1350033,,,,,,,2024-10-24,1,,,,,デザインファン,0
1549,7010803005139,新規,0,2024-10-24,2024-10-24,革新動力合同会社,,合同会社,東京都,大田区,山王４丁目２９番地１号,,13,111,1430023,,,,,,,2024-10-24,1,,,,,カクシンドウリョク,0
1553,7011001165436,新規,0,2024-10-24,2024-10-24,株式会社ＯｎＴｉｍｅ,,株式会社,東京都,渋谷区,代々木１丁目２５番５号,,13,113,1510053,,,,,,,2024-10-24,1,,,,,オンタイム,0
1554,7011003020291,新規,0,2024-10-24,2024-10-24,合同会社Ｐｏｋｏ　Ｔｅｃｈ,,合同会社,東京都,渋谷区,渋谷２丁目１９‐１５宮益坂ビルディング６０９,,13,113,1500002,,,,,,,2024-10-24,1,,,,,ポコテック,0
1557,7011101109235,新規,0,2024-10-24,2024-10-24,株式会社ワームク,,株式会社,東京都,新宿区,西新宿６丁目５番１号新宿アイランドタワー２階,,13,104,1600023,,,,,,,2024-10-24,1,,,,,ワームク,0
1558,7011101109268,新規,0,2024-10-24,2024-10-24,株式会社ＬＩＴ,,株式会社,東京都,新宿区,西新宿６丁目５番１号新宿アイランドタワー２階,,13,104,1600023,,,,,,,2024-10-24,1,,,,,リット,0
1566,7011501031294,新規,0,2024-10-24,2024-10-24,株式会社ゆうじょう,,株式会社,東京都,北区,赤羽１丁目６２番地８号,,13,117,1150045,,,,,,,2024-10-24,1,,,,,ユウジョウ,0
1568,7011503006245,新規,0,2024-10-24,2024-10-24,合同会社ＳＡＱＡＦＩ,,合同会社,東京都,北区,田端新町１丁目１２－２,,13,117,1140012,,,,,,,2024-10-24,1,,,,,サカフィ,0
1574,7011801045028,新規,0,2024-10-24,2024-10-24,足立重機株式会社,,株式会社,東京都,足立区,鹿浜４丁目１７番１７－２０５号,,13,121,1230864,,,,,,,2024-10-24,1,,,,,アダチジュウキ,0
1575,7011801045036,新規,0,2024-10-24,2024-10-24,株式会社ｅｘｌｕｄｏ,,株式会社,東京都,葛飾区,新小岩１丁目５７番地７号メインステージ新小岩８０４号室,,13,122,1240024,,,,,,,2024-10-24,1,,,,,エクスルード,0
1578,7011803006515,新規,0,2024-10-24,2024-10-24,アジャイル合同会社,,合同会社,東京都,足立区,東和４丁目１０番１８－３０４号,,13,121,1200003,,,,,,,2024-10-24,1,,,,,アジャイル,0
1581,7012401042415,新規,0,2024-10-24,2024-10-24,株式会社ホーミーズ,,株式会社,東京都,三鷹市,大沢１丁目１２番３５号,,13,204,1810015,,,,,,,2024-10-24,1,,,,,ホーミーズ,0
1582,7012701018511,新規,0,2024-10-24,2024-10-24,株式会社エスパレット,,株式会社,東京都,西東京市,住吉町３丁目１０番２５－２９０３号,,13,229,2020005,,,,,,,2024-10-24,1,,,,,エスパレット,0
1584,7012801023519,新規,0,2024-10-24,2024-10-24,株式会社ＲＩＭ　ＴＥＣＨ,,株式会社,東京都,立川市,富士見町７丁目３２―４４レガリア２０４号室,,13,202,1900013,,,,,,,2024-10-24,1,,,,,リムテック,0
1585,7012803003535,新規,0,2024-10-24,2024-10-24,貢トレーディング合同会社,,合同会社,東京都,日野市,栄町５丁目８番地の２,,13,212,1910001,,,,,,,2024-10-24,1,,,,,ススムトレーディング,0
1586,7013103001378,新規,0,2024-10-24,2024-10-24,合同会社若林,,合同会社,東京都,青梅市,河辺町５丁目２９－３５佐々木ビル３０２,,13,205,1980036,,,,,,,2024-10-24,1,,,,,ワカバヤシ,0
1589,7013301053254,新規,0,2024-10-24,2024-10-24,ＪＸ貿易株式会社,,株式会社,東京都,豊島区,池袋２丁目７３－３サンスプレンダー池袋６０５号室,,13,116,1710014,,,,,,,2024-10-24,1,,,,,ジェーエクスボウエキ,0
1596,7020001159694,新規,0,2024-10-24,2024-10-24,大東サービス株式会社,,株式会社,神奈川県,横浜市都筑区,加賀原２丁目１０番１４号エクセル加賀原１０２,,14,118,2240055,,,,,,,2024-10-24,1,,,,,ダイトウサービス,0
1597,7020001159736,新規,0,2024-10-24,2024-10-24,株式会社ＷＯＷＣＲＥＡＴＩＯＮ,,株式会社,神奈川県,横浜市都筑区,桜並木１３－１６,,14,118,2240046,,,,,,,2024-10-24,1,,,,,ワオクリエーション,0
1603,7020003027098,新規,0,2024-10-24,2024-10-24,合同会社Ｌｉｂｅｒａｔｅ,,合同会社,神奈川県,横浜市保土ケ谷区,西久保町１４９番地セントリビエ２０１号,,14,106,2400022,,,,,,,2024-10-24,1,,,,,リベレイト,0
1604,7020005016578,新規,0,2024-10-24,2024-10-24,一般社団法人あやとり部ひも遊び課,,その他の設立登記法人,神奈川県,横浜市港北区,篠原西町３７番３０号,,14,109,2220025,,,,,,,2024-10-24,1,,,,,アヤトリブヒモアソビカ,0
1606,7021001083579,新規,0,2024-10-24,2024-10-24,オオシマジャパン株式会社,,株式会社,神奈川県,相模原市緑区,牧野１２８２２番地,,14,151,2520186,,,,,,,2024-10-24,1,,,,,,0
1607,7021001083604,新規,0,2024-10-24,2024-10-24,青楓株式会社,,株式会社,神奈川県,茅ヶ崎市,高田４丁目１８番２９号,,14,207,2530002,,,,,,,2024-10-24,1,,,,,アオカエデ,0
1610,7030001163092,新規,0,2024-10-24,2024-10-24,株式会社押切工務店,,株式会社,埼玉県,さいたま市桜区,大字白鍬７２７番地１５,,11,106,3380811,,,,,,,2024-10-24,1,,,,,オシキリコウムテン,0
1626,7050001055577,新規,0,2024-10-24,2024-10-24,株式会社ＩＨＫ工業,,株式会社,茨城県,神栖市,深芝７９９番地２,,08,232,3140148,,,,,,,2024-10-24,1,,,,,アイエイチケーコウギョウ,0
1627,7050001055602,新規,0,2024-10-24,2024-10-24,しゅんの株式会社,,株式会社,茨城県,石岡市,鹿の子１丁目８番３４号,,08,205,3150005,,,,,,,2024-10-24,1,,,,,シュンノ,0
1630,7050003008764,新規,0,2024-10-24,2024-10-24,サンライズ合同会社,,合同会社,茨城県,神栖市,矢田部８８８３番地３,,08,232,3140341,,,,,,,2024-10-24,1,,,,,サンライズ,0
1637,7070001042301,新規,0,2024-10-24,2024-10-24,株式会社ＧＡＢＥ＆ＳＯＮＳ,,株式会社,群馬県,前橋市,表町２丁目２９番３０－２７０６号,,10,201,3710024,,,,,,,2024-10-24,1,,,,,ガベアンドサンズ,0
1639,7080003003317,新規,0,2024-10-24,2024-10-24,合同会社石蕗,,合同会社,静岡県,静岡市駿河区,西脇１５－３ＫＳ－１３－２０１,,22,102,4228044,,,,,,,2024-10-24,1,,,,,ツワブキ,0
1646,7110003005557,新規,0,2024-10-24,2024-10-24,合同会社ｓｉｌｋｇｌａｒｅ,,合同会社,新潟県,燕市,新栄町１２０‐１,,15,213,9591246,,,,,,,2024-10-24,1,,,,,シルクグレア,0
1648,7110005017146,新規,0,2024-10-24,2024-10-24,医療法人社団しんこどもクリニック,,その他の設立登記法人,新潟県,新潟市秋葉区,あおば通１丁目７番１号,,15,105,9560017,,,,,,,2024-10-24,1,,,,,シンコドモクリニック,0
1661,7120001269558,新規,0,2024-10-24,2024-10-24,株式会社ＹＡＲ,,株式会社,大阪府,大阪市北区,樋之口町１番２０－３６０９号,,27,127,5300032,,,,,,,2024-10-24,1,,,,,ワイエーアール,0
1662,7120001269590,新規,0,2024-10-24,2024-10-24,株式会社ｓｙｎｃｓｔｕｄｉｏ,,株式会社,大阪府,大阪市北区,中津３丁目２６番１４号,,27,127,5310071,,,,,,,2024-10-24,1,,,,,シンクスタジオ,0
1663,7120001269616,新規,0,2024-10-24,2024-10-24,ＴＫ‐Ｇｌｏｂａｌ．株式会社,,株式会社,大阪府,大阪市北区,堂山町６番１１号そわぁーる堂山ビル３階,,27,127,5300027,,,,,,,2024-10-24,1,,,,,ティーケーグローバル,0
1664,7120001269632,新規,0,2024-10-24,2024-10-24,株式会社Ｏｎ　Ｙｏｕｒ　Ｍａｒｋ,,株式会社,大阪府,大阪市北区,紅梅町２番１８号２階,,27,127,5300038,,,,,,,2024-10-24,1,,,,,オンユアマーク,0
1665,7120001269649,新規,0,2024-10-24,2024-10-24,ＨＭＳ　Ｒｕｂｙ株式会社,,株式会社,大阪府,大阪市中央区,船場中央２丁目１番４号船場センタービル４号館地下一階Ｂ１０８ＲＯＹＡＬＯＦＦＩＣＥ内,,27,128,5410055,,,,,,,2024-10-24,1,,,,,エイチエムエスルビー,0
1666,7120001269657,新規,0,2024-10-24,2024-10-24,宝羅株式会社,,株式会社,大阪府,大阪市城東区,関目５丁目１９番９号関目花博公館２１２Ｂ,,27,118,5360008,,,,,,,2024-10-24,1,,,,,ホウラ,0
1671,7120003027815,新規,0,2024-10-24,2024-10-24,合同会社クライム,,合同会社,大阪府,大阪市西区,江戸堀１丁目４－２１日宝肥後橋中央ビル３０６,,27,106,5500002,,,,,,,2024-10-24,1,,,,,クライム,0
1679,7130003009960,新規,0,2024-10-24,2024-10-24,合同会社ＳＧ,,合同会社,京都府,京都市南区,八条源町５番地２０アドバンス京都エーデル４０８号室,,26,107,6018477,,,,,,,2024-10-24,1,,,,,エスジー,0
1704,7180003027495,新規,0,2024-10-24,2024-10-24,ＨＫＴクリエイティブ合同会社,,合同会社,愛知県,名古屋市緑区,黒沢台１丁目４０３番地の４,,23,114,4580003,,,,,,,2024-10-24,1,,,,,エイチケーティークリエイティブ,0
1705,7180003027512,新規,0,2024-10-24,2024-10-24,合同会社ＡＳＴＲＯ,,合同会社,愛知県,名古屋市守山区,幸心２丁目５１４番地幸心西住宅４棟４０３号,,23,113,4630079,,,,,,,2024-10-24,1,,,,,アストロ,0
1711,7200001043070,新規,0,2024-10-24,2024-10-24,株式会社ＸＳｈｉｐ,,株式会社,岐阜県,中津川市,茄子川１９８４－８５,,21,206,5099132,,,,,,,2024-10-24,1,,,,,シップ,0
1712,7210001019953,新規,0,2024-10-24,2024-10-24,上山電工株式会社,,株式会社,福井県,鯖江市,下野田町２６－１３－８,,18,207,9160073,,,,,,,2024-10-24,1,,,,,ウエヤマデンコウ,0
1716,7220003003863,新規,0,2024-10-24,2024-10-24,メグリーン合同会社,,合同会社,石川県,白山市,村井町８５６番地７,,17,210,9240032,,,,,,,2024-10-24,1,,,,,メグリーン,0
1718,7240001063973,新規,0,2024-10-24,2024-10-24,株式会社カムイキャピタル,,株式会社,広島県,広島市安佐南区,西原５丁目１５番２３－１００１号,,34,105,7310113,,,,,,,2024-10-24,1,,,,,カムイキャピタル,0
1719,7240003006914,新規,0,2024-10-24,2024-10-24,合同会社Ａｂｉｇ,,合同会社,広島県,広島市南区,東雲２丁目４―３６,,34,103,7340022,,,,,,,2024-10-24,1,,,,,エイビック,0
1728,7290001107602,新規,0,2024-10-24,2024-10-24,キラキラ株式会社,,株式会社,福岡県,福岡市東区,香住ヶ丘２丁目８番２７号（３０３）,,40,131,8130003,,,,,,,2024-10-24,1,,,,,キラキラ,0
1729,7290001107668,新規,0,2024-10-24,2024-10-24,道一建設株式会社,,株式会社,福岡県,福岡市西区,小戸３丁目３１番１１シャ－ミー小戸公園１０２号,,40,135,8190001,,,,,,,2024-10-24,1,,,,,ドウイチケンセツ,0
1731,7290801030994,新規,0,2024-10-24,2024-10-24,株式会社イナダ,,株式会社,福岡県,北九州市小倉南区,津田４丁目２番２７号,,40,107,8000242,,,,,,,2024-10-24,1,,,,,イナダ,0
1736,7330001032572,新規,0,2024-10-24,2024-10-24,株式会社Ｕ‐ＲＩＭＳ熊本,,株式会社,熊本県,熊本市北区,楠７丁目７番１５号２Ｆ,,43,105,8618003,,,,,,,2024-10-24,1,,,,,ユーリムズクマモト,0
1740,7350001019246,新規,0,2024-10-24,2024-10-24,株式会社人良,,株式会社,宮崎県,宮崎市,中央通２番９号ＫＡＷＡＮＯＩビル１０２,00136733,45,201,8800002,,,,,,,2024-10-24,1,,,,,ヒトヨシ,0
1747,7370003006793,新規,0,2024-10-24,2024-10-24,合同会社大小実業,,合同会社,宮城県,仙台市泉区,南光台南２丁目２４－８,,04,105,9818002,,,,,,,2024-10-24,1,,,,,ダイショウジツギョウ,0
1749,7380001034861,新規,0,2024-10-24,2024-10-24,株式会社秀産業,,株式会社,福島県,須賀川市,長沼字町頭５番地４,,07,207,9620203,,,,,,,2024-10-24,1,,,,,ヒデサンギョウ,0
1779,8010001249207,新規,0,2024-10-24,2024-10-24,株式会社ＴＲＡＣＫＳホールディングス,,株式会社,東京都,千代田区,平河町１丁目１６番１５号ＵＳビル８Ｆ,,13,101,1020093,,,,,,,2024-10-24,1,,,,,トラックスホールディングス,0
1780,8010001249322,新規,0,2024-10-24,2024-10-24,株式会社クロスリンク,,株式会社,東京都,千代田区,丸の内１丁目８番地３号,,13,101,1000005,,,,,,,2024-10-24,1,,,,,クロスリンク,0
1781,8010005038993,新規,0,2024-10-24,2024-10-24,一般社団法人地域構想,,その他の設立登記法人,東京都,千代田区,神田須田町１丁目７番８号ＶＯＲＴ秋葉原ＩＶ２Ｆ,00136731,13,101,1010041,,,,,,,2024-10-24,1,,,,,チイキコウソウ,0
1782,8010005039001,新規,0,2024-10-24,2024-10-24,ＥＢＳ１一般社団法人,,その他の設立登記法人,東京都,千代田区,霞が関３丁目２番５号,,13,101,1000013,,,,,,,2024-10-24,1,,,,,イービーエスワン,0
1799,8010403033613,新規,0,2024-10-24,2024-10-24,合同会社シャイニングロード,,合同会社,東京都,港区,南青山２丁目２－１５,,13,103,1070062,,,,,,,2024-10-24,1,,,,,シャイニングロード,0
1805,8010503007608,新規,0,2024-10-24,2024-10-24,合同会社Ｉｎｎｏｖａｔｏｒ　Ｘ　Ｉｎｎｏｖａｔｏｒ,,合同会社,東京都,台東区,浅草６丁目２０―３コーポ猿若４０２,,13,106,1110032,,,,,,,2024-10-24,1,,,,,イノベーターイノベーター,0
1815,8010901056173,新規,0,2024-10-24,2024-10-24,グローバル・ヘルスケア・パートナーズ株式会社,,株式会社,東京都,世田谷区,桜上水４丁目２２番１５,,13,112,1560045,,,,,,,2024-10-24,1,,,,,グローバルヘルスケアパートナーズ,0
1822,8011001165047,新規,0,2024-10-24,2024-10-24,株式会社Ｓｔｅｌｌａｂｉｔ,,株式会社,東京都,渋谷区,神宮前６丁目２３番４号桑野ビル２階,,13,113,1500001,,,,,,,2024-10-24,1,,,,,ステラビット,0
1823,8011001165377,新規,0,2024-10-24,2024-10-24,株式会社真花インターナショナル,,株式会社,東京都,渋谷区,代々木５丁目２９番７－２０７号,,13,113,1510053,,,,,,,2024-10-24,1,,,,,マハナインターナショナル,0
1825,8011003020159,新規,0,2024-10-24,2024-10-24,合同会社ＭＯＣＯキャピタル,,合同会社,東京都,目黒区,八雲４丁目９番１２号,,13,110,1520023,,,,,,,2024-10-24,1,,,,,モコキャピタル,0
1826,8011003020258,新規,0,2024-10-24,2024-10-24,合同会社Ｆ３,,合同会社,東京都,渋谷区,神山町９番４－８０１号,,13,113,1500047,,,,,,,2024-10-24,1,,,,,エフスリー,0
1836,8011301030108,新規,0,2024-10-24,2024-10-24,株式会社アクロスクリエイト,,株式会社,東京都,杉並区,方南２丁目１０－１４－Ｓ１２８,,13,115,1680062,,,,,,,2024-10-24,1,,,,,,0
1847,8011703004015,新規,0,2024-10-24,2024-10-24,合同会社ｈｏｌｏｍｕａ,,合同会社,東京都,江戸川区,西小松川町１０番１３号,,13,123,1320032,,,,,,,2024-10-24,1,,,,,ホロムア,0
1850,8011803006514,新規,0,2024-10-24,2024-10-24,アドリーム合同会社,,合同会社,東京都,足立区,西新井本町２丁目１番６号アドリーム西新井１０１,,13,121,1230845,,,,,,,2024-10-24,1,,,,,アドリーム,0
1854,8012701018510,新規,0,2024-10-24,2024-10-24,株式会社ジョイ,,株式会社,東京都,東久留米市,柳窪５丁目５番１９号,,13,222,2030044,,,,,,,2024-10-24,1,,,,,ジョイ,0
1856,8013101009546,新規,0,2024-10-24,2024-10-24,カタルシス株式会社,,株式会社,東京都,福生市,大字福生２４１０番地１かやとマンション３０６号,,13,218,1970011,,,,,,,2024-10-24,1,,,,,カタルシス,0
1861,8013301053204,新規,0,2024-10-24,2024-10-24,朝日株式会社,,株式会社,東京都,豊島区,東池袋５丁目２１番２号,,13,116,1700013,,,,,,,2024-10-24,1,,,,,アサヒ,0
1862,8013301053253,新規,0,2024-10-24,2024-10-24,株式会社ＢＵＺＺ　ＭＥＥＴ,,株式会社,東京都,豊島区,北大塚１丁目１９－１２コルティス大塚６Ｆ－４１,,13,116,1700004,,,,,,,2024-10-24,1,,,,,バズミート,0
1872,8020003027106,新規,0,2024-10-24,2024-10-24,合同会社ＥＬＩ,,合同会社,神奈川県,横浜市青葉区,美しが丘１丁目１３番地１０吉村ビル１０７号,,14,117,2250002,,,,,,,2024-10-24,1,,,,,エリ,0
1880,8021001083537,新規,0,2024-10-24,2024-10-24,株式会社ＪＣハイテクノロジー,,株式会社,神奈川県,藤沢市,藤沢６１４－５ＨＬ藤沢２０２号,,14,205,2510052,,,,,,,2024-10-24,1,,,,,ジェイシーハイテクノロジー,0
1885,8030001163091,新規,0,2024-10-24,2024-10-24,シップリッジ株式会社,,株式会社,埼玉県,志木市,柏町６丁目２９番７０号,,11,228,3530007,,,,,,,2024-10-24,1,,,,,シップリッジ,0
1897,8050001055601,新規,0,2024-10-24,2024-10-24,株式会社水戸自動車,,株式会社,茨城県,東茨城郡茨城町,大字上石崎３２１,,08,302,3113122,,,,,,,2024-10-24,1,,,,,ミトジドウシャ,0
1899,8050003008747,新規,0,2024-10-24,2024-10-24,ＫＡＬＰＡＮＡ合同会社,,合同会社,茨城県,取手市,取手３丁目２番１２号,,08,217,3020004,,,,,,,2024-10-24,1,,,,,カルパナ,0
1921,8100005013244,新規,0,2024-10-24,2024-10-24,医療法人社団丸山会,,その他の設立登記法人,長野県,安曇野市,豊科２６４３番地１２,,20,220,3998205,,,,,,,2024-10-24,1,,,,,シャダンマルヤマカイ,0
1925,8110005017145,新規,0,2024-10-24,2024-10-24,一般社団法人すこやか友の会,,その他の設立登記法人,新潟県,新潟市秋葉区,古田６１０番地,,15,105,9560025,,,,,,,2024-10-24,1,,,,,スコヤカトモノカイ,0
1933,8120001269648,新規,0,2024-10-24,2024-10-24,株式会社ＩＴ経営相談所,,株式会社,大阪府,大阪市西区,北堀江４丁目１２番１０－１２１８号,,27,106,5500014,,,,,,,2024-10-24,1,,,,,アイティーケイエイソウダンショ,0
1934,8120001269664,新規,0,2024-10-24,2024-10-24,株式会社Ｓｐｉｒｉｔｓ,,株式会社,大阪府,大阪市北区,中津６丁目８番６－７０３号,,27,127,5310071,,,,,,,2024-10-24,1,,,,,スピリッツ,0
1935,8120001269680,新規,0,2024-10-24,2024-10-24,株式会社ＹＵＺＵＮＯｋｉｔｃｈｅｎ,,株式会社,大阪府,大阪市淀川区,十三元今里２丁目９番１９号,,27,123,5320028,,,,,,,2024-10-24,1,,,,,ユズノキッチン,0
1936,8120003027822,新規,0,2024-10-24,2024-10-24,合同会社アートバイユー,,合同会社,大阪府,大阪市中央区,本町４丁目６番２５号Ｓ－ＣＲＥＡ御堂筋本町６０５号,,27,128,5410053,,,,,,,2024-10-24,1,,,,,アートバイユー,0
1942,8122001038561,新規,0,2024-10-24,2024-10-24,株式会社ｋｏｔｏＮｏｈａ,,株式会社,大阪府,八尾市,東山本新町５丁目８番１２号,,27,212,5810866,,,,,,,2024-10-24,1,,,,,コトノハ,0
1943,8122003003019,新規,0,2024-10-24,2024-10-24,Ｂａｎｄｉｎｏ合同会社,,合同会社,大阪府,東大阪市,下六万寺町１丁目１０番１６号,,27,227,5798066,,,,,,,2024-10-24,1,,,,,バンディーノ,0
1948,8130003009935,新規,0,2024-10-24,2024-10-24,ＺＩＮＥＴＨ合同会社,,合同会社,京都府,京都市右京区,山ノ内養老町８－９養老ビル１Ｆ,,26,108,6150081,,,,,,,2024-10-24,1,,,,,,0
1953,8140001136202,新規,0,2024-10-24,2024-10-24,株式会社ＯＭＳ,,株式会社,兵庫県,神戸市須磨区,関守町２丁目３番３－４号,,28,107,6540073,,,,,,,2024-10-24,1,,,,,オーエムエス,0
1955,8140003021229,新規,0,2024-10-24,2024-10-24,合同会社光里,,合同会社,兵庫県,三田市,狭間が丘２丁目１２番地１０,,28,219,6691545,,,,,,,2024-10-24,1,,,,,ヒカリ,0
1965,8180001163812,新規,0,2024-10-24,2024-10-24,株式会社ＴＨＥＯＶＥＲ,,株式会社,愛知県,名古屋市中川区,七反田町５番地の１,,23,110,4540975,,,,,,,2024-10-24,1,,,,,ザオーバー,0
1968,8180003027528,新規,0,2024-10-24,2024-10-24,ＹＯＯＳＵＦＩＹＡ　ＴＲＡＤＩＮＧ合同会社,,合同会社,愛知県,名古屋市港区,宝神５丁目１０３１番地の１シャトーパルシェ７Ｃ号,,23,111,4550832,,,,,,,2024-10-24,1,,,,,ユースフィアトレーディング,0
1969,8180005020811,新規,0,2024-10-24,2024-10-24,一般社団法人ＨＯＲＩＺＯＰＩＣ,,その他の設立登記法人,愛知県,長久手市,東狭間６０２番地２,,23,238,4801123,,,,,,,2024-10-24,1,,,,,ホライゾピック,0
1971,8180305009620,新規,0,2024-10-24,2024-10-24,一般社団法人こどもおとなすいっち,,その他の設立登記法人,愛知県,刈谷市,場割町２丁目３番地７,,23,210,4480810,,,,,,,2024-10-24,1,,,,,コドモオトナスイッチ,0
1974,8200001043061,新規,0,2024-10-24,2024-10-24,ＥＬＩＴＥ．ＪＣ株式会社,,株式会社,岐阜県,加茂郡川辺町,上川辺１７２４番地１,,21,503,5090302,,,,,,,2024-10-24,1,,,,,エリットジェイシー,0
1990,8280001009278,新規,0,2024-10-24,2024-10-24,株式会社Ｗｅａｖｅ,,株式会社,島根県,松江市,西津田４丁目７番６－２０５号アビターレ,,32,201,6900017,,,,,,,2024-10-24,1,,,,,ウィーヴ,0
2011,8340001026878,新規,0,2024-10-24,2024-10-24,株式会社ＣＬＥＡＤ　ＵＰ,,株式会社,鹿児島県,鹿児島市,中央町２４番３７号,,46,201,8900053,,,,,,,2024-10-24,1,,,,,クリードアップ,0
2012,8340001026886,新規,0,2024-10-24,2024-10-24,株式会社ＣＯＤＥＮＯＶＡ,,株式会社,鹿児島県,姶良市,船津１４７４－１,,46,225,8995655,,,,,,,2024-10-24,1,,,,,コードノヴァ,0
2015,8360001034367,新規,0,2024-10-24,2024-10-24,株式会社Ｐｌｕｓ１,,株式会社,沖縄県,島尻郡南風原町,字兼城１２３番地,,47,350,9011111,,,,,,,2024-10-24,1,,,,,プラスワン,0
2020,8370003006792,新規,0,2024-10-24,2024-10-24,合同会社Ｙ　Ｃｒｅａｔｉｖｅ　Ｒｅｔａｉｌｉｎｇ,,合同会社,宮城県,仙台市青葉区,本町１丁目５番２８号カーニープレイス仙台駅前通６０３号室,,04,101,9800014,,,,,,,2024-10-24,1,,,,,ワイクリエイティブリテイリング,0
2029,8410001013968,新規,0,2024-10-24,2024-10-24,株式会社Ｖｅｎｔｏｓ,,株式会社,秋田県,にかほ市,象潟町横岡字前田４５,,05,214,0180151,,,,,,,2024-10-24,1,,,,,ベントス,0
2031,8420003003017,新規,0,2024-10-24,2024-10-24,合同会社潮彩亭,,合同会社,青森県,青森市,緑３丁目９―２,,02,201,0300845,,,,,,,2024-10-24,1,,,,,シオサイテイ,0
2034,8430001092878,新規,0,2024-10-24,2024-10-24,株式会社ＪＯＵＲＮＥＹ,,株式会社,北海道,札幌市豊平区,平岸三条１７丁目４番１２号,,01,105,0620933,,,,,,,2024-10-24,1,,,,,ジャーニー,0
2038,8430003016901,新規,0,2024-10-24,2024-10-24,合同会社ｎｅｗ　ｐａｒｔｎｅｒ,,合同会社,北海道,札幌市北区,新琴似五条１４丁目１－２８－２０１,,01,102,0010905,,,,,,,2024-10-24,1,,,,,ニューパートナー,0
2040,8460003001017,新規,0,2024-10-24,2024-10-24,合同会社ＯＷＬ,,合同会社,北海道,釧路市,春採１丁目１１番２０号,,01,206,0850813,,,,,,,2024-10-24,1,,,,,アウル,0
2041,8480001012633,新規,0,2024-10-24,2024-10-24,株式会社小笠原工業,,株式会社,徳島県,板野郡藍住町,富吉字豊吉２番地２５,,36,403,7711231,,,,,,,2024-10-24,1,,,,,ワガサワラコウギョウ,0
2049,9010001248356,新規,0,2024-10-24,2024-10-24,株式会社ＡＳＥＡＶＥ,,株式会社,東京都,中央区,新川１丁目２６－１６・８０３,,13,102,1040033,,,,,,,2024-10-24,1,,,,,アシーブ,0
2060,9010501053082,新規,0,2024-10-24,2024-10-24,三休株式会社,,株式会社,東京都,台東区,西浅草２丁目２５－７高橋ビル１Ｆ,,13,106,1110035,,,,,,,2024-10-24,1,,,,,サンキュウ,0
2066,9010901056164,新規,0,2024-10-24,2024-10-24,株式会社ＡＩＤＡ,,株式会社,東京都,世田谷区,代沢４丁目４２番１５号,,13,112,1550032,,,,,,,2024-10-24,1,,,,,アイダ,0
2075,9011101109241,新規,0,2024-10-24,2024-10-24,株式会社ｐｒｏｏｆｌａｂ,,株式会社,東京都,新宿区,新小川町４番１号,,13,104,1620814,,,,,,,2024-10-24,1,,,,,プルーフラボ,0
2077,9011103015090,新規,0,2024-10-24,2024-10-24,Ｋ．Ａ．Ｌ．合同会社,,合同会社,東京都,新宿区,西五軒町１番４－５０９号,,13,104,1620812,,,,,,,2024-10-24,1,,,,,カル,0
2078,9011103015099,新規,0,2024-10-24,2024-10-24,相模原ロジスティクス合同会社,,合同会社,東京都,新宿区,四谷２丁目９番地１５東京ユナイテッド綜合事務所内,,13,104,1600004,,,,,,,2024-10-24,1,,,,,サガミハラロジスティクス,0
2080,9011303005321,新規,0,2024-10-24,2024-10-24,合同会社ｍｅｓｅｎ,,合同会社,東京都,杉並区,梅里１丁目１３番１７－１１０２号,,13,115,1660011,,,,,,,2024-10-24,1,,,,,メセン,0
2085,9011701027743,新規,0,2024-10-24,2024-10-24,株式会社オプティス,,株式会社,東京都,江戸川区,東小岩６丁目２１番５号,,13,123,1330052,,,,,,,2024-10-24,1,,,,,オプティス,0
2089,9011803006521,新規,0,2024-10-24,2024-10-24,合同会社ＬＯＬ,,合同会社,東京都,葛飾区,鎌倉１丁目２６―１０―２０２,,13,122,1250053,,,,,,,2024-10-24,1,,,,,エルオーエル,0
2093,9013301053269,新規,0,2024-10-24,2024-10-24,株式会社エミネント,,株式会社,東京都,豊島区,西池袋１丁目２９番１４号,,13,116,1710021,,,,,,,2024-10-24,1,,,,,エミネント,0
2098,9020001159750,新規,0,2024-10-24,2024-10-24,創明株式会社,,株式会社,神奈川県,横浜市南区,大岡２丁目１８番９号,,14,105,2320061,,,,,,,2024-10-24,1,,,,,ソウメイ,0
2099,9020001159874,新規,0,2024-10-24,2024-10-24,株式会社フレンズ,,株式会社,神奈川県,横浜市港北区,小机町２６００番地９０－２０３号,,14,109,2220036,,,,,,,2024-10-24,1,,,,,フレンズ,0
2103,9020003026998,新規,0,2024-10-24,2024-10-24,合同会社マスキー,,合同会社,神奈川県,横浜市神奈川区,二ツ谷町４－７笹部ビル２０３,,14,102,2210823,,,,,,,2024-10-24,1,,,,,マスキー,0
2104,9020003027063,新規,0,2024-10-24,2024-10-24,全味合同会社,,合同会社,神奈川県,川崎市多摩区,寺尾台２丁目９－２９,,14,135,2140005,,,,,,,2024-10-24,1,,,,,ゼンミ,0
2105,9020003027113,新規,0,2024-10-24,2024-10-24,合同会社ワールドブリッジ,,合同会社,神奈川県,横浜市保土ケ谷区,霞台２１－２１,,14,106,2400014,,,,,,,2024-10-24,1,,,,,ワールドブリッジ,0
2106,9021001083560,新規,0,2024-10-24,2024-10-24,株式会社Ｓａｉｒａ,,株式会社,神奈川県,相模原市中央区,上矢部５丁目３－２４,,14,152,2520201,,,,,,,2024-10-24,1,,,,,サイラ,0
2108,9021003015140,新規,0,2024-10-24,2024-10-24,合同会社さくら,,合同会社,神奈川県,伊勢原市,伊勢原４丁目７番１号,,14,214,2591131,,,,,,,2024-10-24,1,,,,,サクラ,0
2110,9021005013200,新規,0,2024-10-24,2024-10-24,一般社団法人探究科学研究所,,その他の設立登記法人,神奈川県,鎌倉市,寺分２丁目２８番３号,,14,204,2470064,,,,,,,2024-10-24,1,,,,,タンキュウカガクケンキュウショ,0
2111,9030001162860,新規,0,2024-10-24,2024-10-24,株式会社サンセツ,,株式会社,埼玉県,蕨市,錦町１丁目１２番４０号アーバンラフレ戸田４１５号,,11,223,3350005,,,,,,,2024-10-24,1,,,,,サンセツ,0
2118,9040001135840,新規,0,2024-10-24,2024-10-24,株式会社Ｄｅｌｉｇｈｔ,,株式会社,千葉県,八街市,八街に４９番地１４,,12,230,2891103,,,,,,,2024-10-24,1,,,,,デライト,0
2121,9040003026047,新規,0,2024-10-24,2024-10-24,ビヨンド合同会社,,合同会社,千葉県,千葉市緑区,大木戸町１１９６番地,,12,105,2670057,,,,,,,2024-10-24,1,,,,,ビヨンド,0
2127,9050001055559,新規,0,2024-10-24,2024-10-24,株式会社ＡＲＩＡＮＡ,,株式会社,茨城県,坂東市,辺田１１４６番地１５,,08,228,3060632,,,,,,,2024-10-24,1,,,,,アリアナ,0
2128,9050001055575,新規,0,2024-10-24,2024-10-24,水美館クラブ株式会社,,株式会社,茨城県,東茨城郡城里町,大字下赤沢５０４番地,,08,310,3114406,,,,,,,2024-10-24,1,,,,,スイビカンクラブ,0
2129,9050003008762,新規,0,2024-10-24,2024-10-24,合同会社スカイウェーブ,,合同会社,茨城県,ひたちなか市,磯崎町４５５０番地１,,08,221,3111202,,,,,,,2024-10-24,1,,,,,スカイウェーブ,0
2136,9070003005626,新規,0,2024-10-24,2024-10-24,合同会社Ｗｅｌｌ　Ｄｏｎｅ,,合同会社,群馬県,太田市,宝町６４２番地４,,10,205,3730042,,,,,,,2024-10-24,1,,,,,ウェルダン,0
2140,9080001026565,新規,0,2024-10-24,2024-10-24,株式会社ＶＩＺＯＲＡ,,株式会社,静岡県,静岡市駿河区,中島２０３－１第二昌栄ビル２階,,22,102,4228046,,,,,,,2024-10-24,1,,,,,,0
2144,9080101025087,新規,0,2024-10-24,2024-10-24,株式会社フジサチ工業,,株式会社,静岡県,富士市,大淵２９７７番地,,22,210,4170801,,,,,,,2024-10-24,1,,,,,フジサチコウギョウ,0
2158,9120001269531,新規,0,2024-10-24,2024-10-24,ＥＣＯ　ＧＣ　ＩＮＶＥＳＴＭＥＮＴ株式会社,,株式会社,大阪府,大阪市平野区,瓜破２丁目１－５０アビタシオン２３－３０６室,,27,126,5470024,,,,,,,2024-10-24,1,,,,,エコジーシーインヴェストメント,0
2159,9120001269572,新規,0,2024-10-24,2024-10-24,大豪株式会社,,株式会社,大阪府,大阪市生野区,中川３丁目４番１７号２１０室,,27,116,5440005,,,,,,,2024-10-24,1,,,,,ダイゴウ,0
2160,9120001269589,新規,0,2024-10-24,2024-10-24,株式会社Ａｒｃａ,,株式会社,大阪府,大阪市中央区,南久宝寺町１丁目３番７－１２０５号,,27,128,5410058,,,,,,,2024-10-24,1,,,,,アルカ,0
2161,9120001269606,新規,0,2024-10-24,2024-10-24,株式会社クリエイトシンエイ,,株式会社,大阪府,大阪市北区,天神橋１丁目１８番２７号クレール・ド・ボタン３０２号室,,27,127,5300041,,,,,,,2024-10-24,1,,,,,クリエイトシンエイ,0
2162,9120001269647,新規,0,2024-10-24,2024-10-24,株式会社シンク・クリエーション,,株式会社,大阪府,大阪市北区,中津７丁目３番２－７０２号,,27,127,5310071,,,,,,,2024-10-24,1,,,,,シンククリエーション,0
2163,9120001269671,新規,0,2024-10-24,2024-10-24,安隆株式会社,,株式会社,大阪府,大阪市東住吉区,西今川３丁目３３番２０号１０１号室,,27,121,5460042,,,,,,,2024-10-24,1,,,,,アンリュウ,0
2167,9120003027813,新規,0,2024-10-24,2024-10-24,合同会社リリクス,,合同会社,大阪府,大阪市城東区,新喜多１丁目２番１７－２１１号,,27,118,5360015,,,,,,,2024-10-24,1,,,,,リリクス,0
2169,9120101070467,新規,0,2024-10-24,2024-10-24,株式会社壮翔,,株式会社,大阪府,堺市堺区,南旅篭町西３丁２－２０,,27,141,5900968,,,,,,,2024-10-24,1,,,,,ソウショウ,0
2176,9130001078196,新規,0,2024-10-24,2024-10-24,昊寅株式会社,,株式会社,京都府,京都市山科区,川田清水焼団地町９番地２,,26,110,6078322,,,,,,,2024-10-24,1,,,,,コウイン,0
2178,9130005017225,新規,0,2024-10-24,2024-10-24,一般社団法人Ｕｌｕ,,その他の設立登記法人,京都府,京都市西京区,桂朝日町１３７ソレイユ桂２０７,,26,111,6158027,,,,,,,2024-10-24,1,,,,,ウル,0
2180,9140001136218,新規,0,2024-10-24,2024-10-24,林組株式会社,,株式会社,兵庫県,尼崎市,大庄西町２丁目３４番２０号,,28,202,6600077,,,,,,,2024-10-24,1,,,,,ハヤシグミ,0
2184,9140003021228,新規,0,2024-10-24,2024-10-24,合同会社ＫＥＩＭＩ,,合同会社,兵庫県,神戸市中央区,栄町通１丁目１番９－４０７号,,28,110,6500023,,,,,,,2024-10-24,1,,,,,ケイミ,0
2186,9150001027630,新規,0,2024-10-24,2024-10-24,株式会社恵信建設,,株式会社,奈良県,奈良市,南新町１番地１,,29,201,6308016,,,,,,,2024-10-24,1,,,,,ケイシンケンセツ,0
2188,9170001018355,新規,0,2024-10-24,2024-10-24,オンリンク株式会社,,株式会社,和歌山県,和歌山市,友田町４丁目１番地３ネバーランド和歌山友田町４０２,,30,201,6408342,,,,,,,2024-10-24,1,,,,,オンリンク,0
2201,9180003027485,新規,0,2024-10-24,2024-10-24,合同会社東山アカデミー,,合同会社,愛知県,名古屋市千種区,東山通４丁目４番地３,,23,101,4640807,,,,,,,2024-10-24,1,,,,,ヒガシヤマアカデミー,0
2202,9180003027527,新規,0,2024-10-24,2024-10-24,合同会社ＣｏｃｏＷｅｌｉ,,合同会社,愛知県,津島市,埋田町４丁目３８番地１コーポ泉ＩＩＢ５,00136736,23,208,4960031,,,,,,,2024-10-24,1,,,,,ココウェリ,0
2208,9180303006305,新規,0,2024-10-24,2024-10-24,合同会社ＵＳＭＡＮ　ＴＲＡＤＩＮＧ,,合同会社,愛知県,岡崎市,田口町字深田６５番地,,23,202,4443172,,,,,,,2024-10-24,1,,,,,ウスマントレーディング,0
2209,9190001031744,新規,0,2024-10-24,2024-10-24,伊勢志摩ファーム株式会社,,株式会社,三重県,松阪市,小阿坂町２２０番地１,,24,204,5152343,,,,,,,2024-10-24,1,,,,,イセシマファーム,0
2222,9250003003578,新規,0,2024-10-24,2024-10-24,合同会社ル・シェリア,,合同会社,山口県,山陽小野田市,須恵３丁目２番２２号,,35,216,7560836,,,,,,,2024-10-24,1,,,,,ルシェリア,0
2224,9260001039573,新規,0,2024-10-24,2024-10-24,株式会社ＳＫハウス,,株式会社,岡山県,岡山市北区,富原１１５５番地３,,33,101,7011153,,,,,,,2024-10-24,1,,,,,エスケイハウス,0
2232,9290001107716,新規,0,2024-10-24,2024-10-24,株式会社イチグウテラス,,株式会社,福岡県,福岡市中央区,谷１丁目１４番２４号Ｓｏｒｉｓｓｏ六本松３Ａ,,40,133,8100031,,,,,,,2024-10-24,1,,,,,イチグウテラス,0
2235,9290003015974,新規,0,2024-10-24,2024-10-24,合同会社ミクロジ,,合同会社,福岡県,福岡市中央区,天神４丁目６－２８天神ファーストビル７階,,40,133,8100001,,,,,,,2024-10-24,1,,,,,,0
2245,9340001026869,新規,0,2024-10-24,2024-10-24,株式会社オレンジカウンティ,,株式会社,鹿児島県,志布志市,志布志町志布志１０７７番地１,,46,221,8997103,,,,,,,2024-10-24,1,,,,,オレンジカウンティ,0
2246,9340001026877,新規,0,2024-10-24,2024-10-24,株式会社Ｔ．ｃｏｍｐａｎｙ,,株式会社,鹿児島県,鹿児島市,山之口町９番１７号上原薬局ビルＢＦ２号,,46,201,8920844,,,,,,,2024-10-24,1,,,,,ティーカンパニー,0
2252,9370001051848,新規,0,2024-10-24,2024-10-24,株式会社Ｌｏｒｄ,,株式会社,宮城県,仙台市太白区,入来田一丁目１９番５号,,04,104,9820000,,,,,,,2024-10-24,1,,,,,ロード,0
2254,9370003006791,新規,0,2024-10-24,2024-10-24,金子会計合同会社,,合同会社,宮城県,仙台市太白区,富沢西３丁目３番地の９ノブレス富沢ＷＥＳＴ４１２,,04,104,9820037,,,,,,,2024-10-24,1,,,,,カネコカイケイ,0
2271,9380005012886,新規,0,2024-10-24,2024-10-24,一般社団法人はぐくみ会,,その他の設立登記法人,福島県,郡山市,片平町字遠辺田２６番地の１６,,07,203,9630211,,,,,,,2024-10-24,1,,,,,ハグクミカイ,0
2272,9390001017780,新規,0,2024-10-24,2024-10-24,株式会社クリスタルジャパントレーディング,,株式会社,山形県,米沢市,桜木町２番８０号ＰＡＬ桜木１０３号室,,06,202,9920017,,,,,,,2024-10-24,1,,,,,クリスタルジャパントレーディング,0
2282,9430003016925,新規,0,2024-10-24,2024-10-24,合同会社ブルーリーフ,,合同会社,北海道,札幌市中央区,北三条西７丁目１番地１６シティハウス道庁前２０１号,,01,101,0600003,,,,,,,2024-10-24,1,,,,,ブルーリーフ,0
