sequenceNumber,corporateNumber,process,correct,updateDate,changeDate,name,nameImageId,kind,prefectureName,cityName,streetNumber,addressImageId,prefectureCode,cityCode,postCode,addressOutside,addressOutsideImageId,closeDate,closeCause,successorCorporateNumber,changeCause,assignmentDate,latest,enName,enPrefectureName,enCityName,enAddressOutside,furigana,hihyoji
5,1010001254824,新規,0,2025-05-09,2025-05-09,株式会社Ｉ’ＬＬ　ｂｅ,,株式会社,東京都,千代田区,神田佐久間町２丁目１８番地１秋葉原ＳＴＮフロント１０階,,13,101,1010025,,,,,,,2025-05-09,1,,,,,アイルビー,0
6,1010001254832,新規,0,2025-05-09,2025-05-09,鵬盛・中常財務コンサルティング株式会社,,株式会社,東京都,中央区,東日本橋久松町１３番４号トスパビル９階,,13,102,1030000,,,,,,,2025-05-09,1,,,,,ホウセイナカツネザイムコンサルティング,0
7,1010001254840,新規,0,2025-05-09,2025-05-09,株式会社ダブルボギー,,株式会社,東京都,中央区,銀座８丁目１７番５号ＴＨＥＨＵＢ銀座ＯＣＴ,,13,102,1040061,,,,,,,2025-05-09,1,,,,,ダブルボギー,0
9,1010003047292,新規,0,2025-05-09,2025-05-09,ニッポン・ウエルス・マネジメント合同会社,,合同会社,東京都,中央区,日本橋室町１丁目１３番７号,,13,102,1030022,,,,,,,2025-05-09,1,,,,,ニッポンウエルスマネジメント,0
29,1010401189959,新規,0,2025-05-09,2025-05-09,Ｌａｎｄｆｏｒｄ　ｃａｐｉｔａｌ　Ｊａｐａｎ株式会社,,株式会社,東京都,港区,麻布十番１丁目５－１３－６０２,,13,103,1060045,,,,,,,2025-05-09,1,,,,,ランドフォードキャピタルジャパン,0
30,1010401190066,新規,0,2025-05-09,2025-05-09,株式会社Ｗａｃｋｅｒ,,株式会社,東京都,港区,北青山１丁目３番１号アールキューブ青山３階,,13,103,1070061,,,,,,,2025-05-09,1,,,,,ワッカー,0
31,1010401190132,新規,0,2025-05-09,2025-05-09,株式会社あーす,,株式会社,東京都,港区,赤坂６丁目４番１９号サントミビル７階,,13,103,1070052,,,,,,,2025-05-09,1,,,,,アース,0
32,1010401190140,新規,0,2025-05-09,2025-05-09,株式会社アヴァロン・エージェンシー,,株式会社,東京都,港区,白金３丁目２２番６号ハプラスビル５Ｆ,,13,103,1080072,,,,,,,2025-05-09,1,,,,,アヴァロンエージェンシー,0
39,1011001169649,新規,0,2025-05-09,2025-05-09,株式会社ＮＳＴ,,株式会社,東京都,渋谷区,恵比寿西２丁目４番８号ウィンド恵比寿ビル８Ｆ,,13,113,1500021,,,,,,,2025-05-09,1,,,,,エヌエスティー,0
40,1011001169731,新規,0,2025-05-09,2025-05-09,株式会社アミュン,,株式会社,東京都,渋谷区,代々木１丁目１０－５－２０４,,13,113,1510053,,,,,,,2025-05-09,1,,,,,アミュン,0
49,1011103015899,新規,0,2025-05-09,2025-05-09,合同会社ジェイ・ジー・ジェイ,,合同会社,東京都,新宿区,下宮比町１番４号,,13,104,1620822,,,,,,,2025-05-09,1,,,,,ジェイジージェイ,0
55,1011501032034,新規,0,2025-05-09,2025-05-09,株式会社ＭＣＣ,,株式会社,東京都,北区,王子５丁目１番２－１００１号,,13,117,1140002,,,,,,,2025-05-09,1,,,,,エムシーシー,0
56,1011701028311,新規,0,2025-05-09,2025-05-09,寅木株式会社,,株式会社,東京都,江戸川区,西小岩５丁目１３番１３小出マンション１０６号室,,13,123,1330057,,,,,,,2025-05-09,1,,,,,トラキ,0
58,1011803006850,新規,0,2025-05-09,2025-05-09,ニエベジャパン合同会社,,合同会社,東京都,葛飾区,立石８丁目５５番７号,,13,122,1240012,,,,,,,2025-05-09,1,,,,,ニエベジャパン,0
66,1012401043063,新規,0,2025-05-09,2025-05-09,株式会社ＧｅｎＷｏｒｋｓ,,株式会社,東京都,府中市,分梅町３丁目４番地の１５,,13,206,1830033,,,,,,,2025-05-09,1,,,,,ジェンワークス,0
67,1012401043071,新規,0,2025-05-09,2025-05-09,株式会社ＭＡＧＯＯ,,株式会社,東京都,調布市,深大寺北町７丁目３９－１１,,13,208,1820011,,,,,,,2025-05-09,1,,,,,,0
68,1012403007116,新規,0,2025-05-09,2025-05-09,合同会社スカラックデザイン,,合同会社,東京都,三鷹市,新川４丁目３番１１－１１７号,,13,204,1810004,,,,,,,2025-05-09,1,,,,,スカラックデザイン,0
71,1012701018847,新規,0,2025-05-09,2025-05-09,株式会社Ｐａｃｉｆｉｃ　Ｂｌｕｅ　Ｗａｖｅ,,株式会社,東京都,清瀬市,元町１丁目１４番２５号,,13,221,2040021,,,,,,,2025-05-09,1,,,,,パシフィックブルーウェーブ,0
74,1013301054191,新規,0,2025-05-09,2025-05-09,株式会社ＨＭＧ,,株式会社,東京都,豊島区,西池袋５丁目２７番７－７０３号,,13,116,1710021,,,,,,,2025-05-09,1,,,,,エチエムジー,0
81,1020001162489,新規,0,2025-05-09,2025-05-09,株式会社ｓｉｏプロパティーズ,,株式会社,神奈川県,川崎市幸区,中幸町３丁目２６番２４号クレッセント川崎タワー２１０７,,14,132,2120012,,,,,,,2025-05-09,1,,,,,シオプロパティーズ,0
82,1020001162761,新規,0,2025-05-09,2025-05-09,アロイタイジャパン株式会社,,株式会社,神奈川県,川崎市川崎区,駅前本町１１番地２川崎フロンティアビル４階,,14,131,2100007,,,,,,,2025-05-09,1,,,,,アロイタイジャパン,0
89,1021001085168,新規,0,2025-05-09,2025-05-09,株式会社山口,,株式会社,神奈川県,厚木市,林３丁目１０番３号,,14,212,2430816,,,,,,,2025-05-09,1,,,,,ヤマグチ,0
90,1021001085184,新規,0,2025-05-09,2025-05-09,ノヒラプリンティング株式会社,,株式会社,神奈川県,藤沢市,藤沢５４１番地の１９クリオ藤沢七番館６０８号,,14,205,2510052,,,,,,,2025-05-09,1,,,,,ノヒラプリンティング,0
100,1030001166316,新規,0,2025-05-09,2025-05-09,株式会社ＣＩＶＡＮ工業,,株式会社,埼玉県,さいたま市見沼区,大字御蔵１３３－１,,11,104,3370033,,,,,,,2025-05-09,1,,,,,シバンコウギョウ,0
101,1030001166357,新規,0,2025-05-09,2025-05-09,株式会社リンベックモーターズ,,株式会社,埼玉県,さいたま市桜区,田島２丁目１１番２号,,11,106,3380837,,,,,,,2025-05-09,1,,,,,リンベックモーターズ,0
102,1030001166365,新規,0,2025-05-09,2025-05-09,株式会社ウッドヴィレッジ,,株式会社,埼玉県,草加市,住吉１丁目８番１５号,,11,221,3400014,,,,,,,2025-05-09,1,,,,,ウッドヴィレッジ,0
103,1030001166381,新規,0,2025-05-09,2025-05-09,株式会社Ｒ３,,株式会社,埼玉県,草加市,花栗１丁目１２番２６－３１１号,,11,221,3400044,,,,,,,2025-05-09,1,,,,,アールスリー,0
104,1030001166398,新規,0,2025-05-09,2025-05-09,豊玉商事株式会社,,株式会社,埼玉県,鶴ヶ島市,大字藤金７７８番地９,,11,241,3502206,,,,,,,2025-05-09,1,,,,,トヨタマショウジ,0
105,1030001166423,新規,0,2025-05-09,2025-05-09,株式会社シンセツ,,株式会社,埼玉県,さいたま市南区,文蔵２丁目１６番１４号ディアコート南浦和１０１,,11,108,3360025,,,,,,,2025-05-09,1,,,,,シンセツ,0
112,1040001138677,新規,0,2025-05-09,2025-05-09,株式会社ｗａｒｍｏｒｉａ,,株式会社,千葉県,流山市,おおたかの森東４丁目１－６,,12,220,2700138,,,,,,,2025-05-09,1,,,,,ワモリア,0
113,1040001138685,新規,0,2025-05-09,2025-05-09,株式会社花野建築研究室,,株式会社,千葉県,いすみ市,大原３９６番地,,12,238,2980004,,,,,,,2025-05-09,1,,,,,,0
117,1040003027498,新規,0,2025-05-09,2025-05-09,合同会社キルケブルク,,合同会社,千葉県,君津市,戸崎８２３番地,,12,225,2920441,,,,,,,2025-05-09,1,,,,,キルケブルク,0
118,1040003027507,新規,0,2025-05-09,2025-05-09,合同会社ｍｉｒａｃｌｅ,,合同会社,千葉県,八街市,八街ほ６０６－１７,,12,230,2891115,,,,,,,2025-05-09,1,,,,,ミラクル,0
121,1040005022687,新規,0,2025-05-09,2025-05-09,日本花茶協会一般社団法人,,その他の設立登記法人,千葉県,柏市,若柴６９－１,,12,217,2770871,,,,,,,2025-05-09,1,,,,,ニホンハナチャキョウカイ,0
122,1050001056606,新規,0,2025-05-09,2025-05-09,株式会社北ウェイ,,株式会社,茨城県,猿島郡境町,大字伏木２１８０番地２,,08,546,3060416,,,,,,,2025-05-09,1,,,,,ホクウェイ,0
123,1050001056630,新規,0,2025-05-09,2025-05-09,株式会社Ｈａｉ‐ｔａｃｃｈｉ,,株式会社,茨城県,那珂郡東海村,大字村松１２９１番地５,,08,341,3191112,,,,,,,2025-05-09,1,,,,,ハイタッチ,0
124,1050001056639,新規,0,2025-05-09,2025-05-09,つくば相続センター株式会社,,株式会社,茨城県,つくば市,吾妻１丁目５番７号ダイワロイネットホテルつくばビル２階,,08,220,3050031,,,,,,,2025-05-09,1,,,,,ツクバソウゾクセンター,0
127,1050003009231,新規,0,2025-05-09,2025-05-09,合同会社ＹＴ　ｍｉｒａｉ,,合同会社,茨城県,ひたちなか市,大字東石川１８５０―９,,08,221,3120052,,,,,,,2025-05-09,1,,,,,ワイティーミライ,0
151,1120001275041,新規,0,2025-05-09,2025-05-09,株式会社モノリスラボ,,株式会社,大阪府,大阪市生野区,勝山北５丁目５番１１号３階,,27,116,5440033,,,,,,,2025-05-09,1,,,,,モノリスラボ,0
152,1120001275140,新規,0,2025-05-09,2025-05-09,株式会社ＳＡＢＡＫＡＮ,,株式会社,大阪府,大阪市阿倍野区,橋本町３番２０号,,27,119,5450031,,,,,,,2025-05-09,1,,,,,サバカン,0
153,1120001275149,新規,0,2025-05-09,2025-05-09,ＳＫフロンティア株式会社,,株式会社,大阪府,大阪市中央区,久太郎町１丁目９番４号,,27,128,5410056,,,,,,,2025-05-09,1,,,,,エスケーフロンティア,0
154,1120001275181,新規,0,2025-05-09,2025-05-09,株式会社ランドスター,,株式会社,大阪府,大阪市中央区,淡路町１丁目３番２号７階,,27,128,5410047,,,,,,,2025-05-09,1,,,,,ランドスター,0
155,1120001275198,新規,0,2025-05-09,2025-05-09,興嘉仕株式会社,,株式会社,大阪府,大阪市東成区,大今里３丁目１５番６号ＩｍａｚａｔｏＴｏｗｅｒ２０２Ｂ,,27,115,5370012,,,,,,,2025-05-09,1,,,,,コウカシ,0
156,1120001275264,新規,0,2025-05-09,2025-05-09,聞名有伽株式会社,,株式会社,大阪府,大阪市中央区,船場中央３丁目２番８号船場センタービル８号館Ｂ１１８号室,,27,128,5410055,,,,,,,2025-05-09,1,,,,,ブンメイユウカ,0
157,1120001275280,新規,0,2025-05-09,2025-05-09,云起株式会社,,株式会社,大阪府,大阪市淀川区,西宮原２丁目６番１６号,,27,123,5320004,,,,,,,2025-05-09,1,,,,,ウンキ,0
158,1120001275306,新規,0,2025-05-09,2025-05-09,泰百順商貿株式会社,,株式会社,大阪府,大阪市都島区,都島北通２丁目１５－３１－２０１号室,,27,102,5340014,,,,,,,2025-05-09,1,,,,,タイバイシュンショウボウ,0
159,1120001275339,新規,0,2025-05-09,2025-05-09,株式会社ＷＥＳＴ　ＳＩＤＥ　ＤＥＰＴ,,株式会社,大阪府,大阪市城東区,蒲生３丁目１０番７号,,27,118,5360016,,,,,,,2025-05-09,1,,,,,ウエストサイドデプト,0
160,1120001275446,新規,0,2025-05-09,2025-05-09,檸檬樹株式会社,,株式会社,大阪府,大阪市生野区,生野西４丁目１５番１６号,,27,116,5440024,,,,,,,2025-05-09,1,,,,,レモンジュ,0
164,1120003029255,新規,0,2025-05-09,2025-05-09,合同会社きずな,,合同会社,大阪府,大阪市北区,国分寺２丁目２番１７号プレサージュ７階,,27,127,5310064,,,,,,,2025-05-09,1,,,,,キズナ,0
171,1120105010006,新規,0,2025-05-09,2025-05-09,一般社団法人清水みらいの会,,その他の設立登記法人,大阪府,松原市,南新町６丁目７番１２号,,27,217,5800023,,,,,,,2025-05-09,1,,,,,シミズミライノカイ,0
180,1130001079615,新規,0,2025-05-09,2025-05-09,株式会社リンクス,,株式会社,京都府,京都市西京区,牛ケ瀬新田泓町３番地９,,26,111,6158043,,,,,,,2025-05-09,1,,,,,リンクス,0
181,1130001079631,新規,0,2025-05-09,2025-05-09,株式会社漆畑吉兵衛商店,,株式会社,京都府,京都市下京区,東堀川通五条上る小泉町１０３,,26,106,6008480,,,,,,,2025-05-09,1,,,,,ウルシバタキチベエショウテン,0
184,1130003010420,新規,0,2025-05-09,2025-05-09,ティアラ合同会社,,合同会社,京都府,綾部市,広瀬町宮ノ前４番地,,26,203,6291256,,,,,,,2025-05-09,1,,,,,ティアラ,0
185,1130003010437,新規,0,2025-05-09,2025-05-09,ポンドレーブ合同会社,,合同会社,京都府,京都市下京区,小稲荷町８５番地２Ｇｒａｎｄ－Ｋ京都駅前ビル２０１,,26,106,6008208,,,,,,,2025-05-09,1,,,,,ポンドレーブ,0
186,1130005017364,新規,0,2025-05-09,2025-05-09,一般社団法人日本ＰＭＩサポート協会,,その他の設立登記法人,京都府,京都市下京区,七条通油小路東入大黒町２２７番地第２キョートビル４０２,,26,106,6008223,,,,,,,2025-05-09,1,,,,,ニホンピーエムアイサポートキョウカイ,0
191,1140001138436,新規,0,2025-05-09,2025-05-09,株式会社丙成ライフ,,株式会社,兵庫県,姫路市,大津区勘兵衛町１丁目１１４番地２,,28,201,6711132,,,,,,,2025-05-09,1,,,,,ヘイセイライフ,0
192,1140001138444,新規,0,2025-05-09,2025-05-09,株式会社ＫＥ　Ｃｏｎｓｕｌｔｉｎｇ,,株式会社,兵庫県,西宮市,分銅町５番３０－３１３号,,28,204,6620042,,,,,,,2025-05-09,1,,,,,ケーイーコンサルティング,0
193,1140001138502,新規,0,2025-05-09,2025-05-09,株式会社Ｇｉｆｔ＆Ｉｇｎｉｔｉｏｎ,,株式会社,兵庫県,宝塚市,光明町１８番１０号,,28,214,6650045,,,,,,,2025-05-09,1,,,,,ギフトアンドイグニッション,0
201,1140005027494,新規,0,2025-05-09,2025-05-09,一般社団法人国際シルバー経済文化促進会,,その他の設立登記法人,兵庫県,神戸市中央区,八幡通１丁目１番１４号,,28,110,6510085,,,,,,,2025-05-09,1,,,,,コクサイシルバーケイザイブンカソクシンカイ,0
203,1150003003604,新規,0,2025-05-09,2025-05-09,合同会社叶生,,合同会社,奈良県,大和郡山市,小泉町２３７７番地９,,29,203,6391042,,,,,,,2025-05-09,1,,,,,カナイ,0
205,1160001026721,新規,0,2025-05-09,2025-05-09,株式会社ＴＲホールディングス,,株式会社,滋賀県,栗東市,手原２丁目３番８号,,25,208,5203047,,,,,,,2025-05-09,1,,,,,ティーアールホールディングス,0
206,1160005011406,新規,0,2025-05-09,2025-05-09,一般社団法人農村まるごとサポート,,その他の設立登記法人,滋賀県,甲賀市,土山町北土山２０４０－１,,25,209,5280211,,,,,,,2025-05-09,1,,,,,ノウソンマルゴトサポート,0
208,1170003002208,新規,0,2025-05-09,2025-05-09,合同会社ＯＡＯ,,合同会社,和歌山県,紀の川市,西三谷１０番地１６,,30,208,6496433,,,,,,,2025-05-09,1,,,,,オーエーオー,0
216,1180001166706,新規,0,2025-05-09,2025-05-09,株式会社ＹＯＬ,,株式会社,愛知県,名古屋市中村区,名駅４丁目１７番１８号茗荷ビル５階,,23,105,4500002,,,,,,,2025-05-09,1,,,,,ヨール,0
217,1180001166747,新規,0,2025-05-09,2025-05-09,株式会社ＳＨＥＬＬＹ　ＭＯＯＤ,,株式会社,愛知県,清須市,須ケ口４９番地,,23,233,4520905,,,,,,,2025-05-09,1,,,,,シェリームード,0
219,1180003028409,新規,0,2025-05-09,2025-05-09,ＯＴＳ　ｓｅｒｖｉｃｅ合同会社,,合同会社,愛知県,愛西市,西川端町南須原１８－５,,23,232,4968019,,,,,,,2025-05-09,1,,,,,オーティーエスサービス,0
220,1180003028441,新規,0,2025-05-09,2025-05-09,合同会社美翔界,,合同会社,愛知県,清須市,寺野花園６０－１,,23,233,4520908,,,,,,,2025-05-09,1,,,,,ビショウカイ,0
225,1180301039792,新規,0,2025-05-09,2025-05-09,株式会社ステッチ,,株式会社,愛知県,岡崎市,羽根町字小豆坂８０番地１,,23,202,4440814,,,,,,,2025-05-09,1,,,,,ステッチ,0
228,1190001032205,新規,0,2025-05-09,2025-05-09,株式会社Ｖｉｓｔａ,,株式会社,三重県,桑名市,大字北別所１８２４番地６,,24,205,5110819,,,,,,,2025-05-09,1,,,,,ビスタ,0
232,1200001043737,新規,0,2025-05-09,2025-05-09,シミヅ建設株式会社,,株式会社,岐阜県,不破郡垂井町,１９３２番地の１,,21,361,5032121,,,,,,,2025-05-09,1,,,,,シミヅケンセツ,0
235,1200003006816,新規,0,2025-05-09,2025-05-09,ＡＫＭＡＬ　ＴＲＡＤＩＮＧ合同会社,,合同会社,岐阜県,美濃加茂市,川合町３丁目６番２９号,,21,211,5050022,,,,,,,2025-05-09,1,,,,,アクマルトレーディング,0
239,1220005008965,新規,0,2025-05-09,2025-05-09,医療法人ＫＣ,,その他の設立登記法人,石川県,金沢市,鞍月５丁目４７番地,,17,201,9208203,,,,,,,2025-05-09,1,,,,,ケーシー,0
241,1240001064894,新規,0,2025-05-09,2025-05-09,穴井塗装株式会社,,株式会社,広島県,福山市,箕島町６６８５番地３,,34,207,7210957,,,,,,,2025-05-09,1,,,,,アナイトソウ,0
243,1250001021135,新規,0,2025-05-09,2025-05-09,株式会社ＵＫＲ,,株式会社,山口県,下関市,垢田町２丁目１５番１１号,,35,201,7510841,,,,,,,2025-05-09,1,,,,,ユーケイアール,0
245,1260001040183,新規,0,2025-05-09,2025-05-09,ＨＵＳＳＡＩＮ　ＴＲＡＤＥＲ株式会社,,株式会社,岡山県,赤磐市,桜が丘東２丁目２番地２８,,33,213,7090721,,,,,,,2025-05-09,1,,,,,フセイントレーダー,0
246,1260003005168,新規,0,2025-05-09,2025-05-09,エスアールリンク合同会社,,合同会社,岡山県,岡山市中区,桜橋４丁目１番１３号,,33,102,7038285,,,,,,,2025-05-09,1,,,,,エスアールリンク,0
252,1290001109926,新規,0,2025-05-09,2025-05-09,株式会社アイマ,,株式会社,福岡県,福岡市中央区,渡辺通２丁目４番８号５Ｆ,,40,133,8100004,,,,,,,2025-05-09,1,,,,,アイマ,0
253,1290003016815,新規,0,2025-05-09,2025-05-09,合同会社ひぐらし,,合同会社,福岡県,八女市,上陽町北川内８１２番地,,40,210,8341102,,,,,,,2025-05-09,1,,,,,ヒグラシ,0
259,1310001019593,新規,0,2025-05-09,2025-05-09,株式会社寺栗不動産,,株式会社,長崎県,西彼杵郡長与町,吉無田郷１４８９番地８５,,42,307,8512126,,,,,,,2025-05-09,1,,,,,テラクリフドウサン,0
260,1310003005006,新規,0,2025-05-09,2025-05-09,合同会社きっとみつかる,,合同会社,長崎県,雲仙市,千々石町戊字山頭５２０番地２,,42,213,8540405,,,,,,,2025-05-09,1,,,,,キットミツカル,0
262,1320001021086,新規,0,2025-05-09,2025-05-09,株式会社ＮｅＸＴ,,株式会社,大分県,大分市,向原西２丁目１番地４,,44,201,8700905,,,,,,,2025-05-09,1,,,,,ネクスト,0
267,1330003011002,新規,0,2025-05-09,2025-05-09,合同会社ＩＫＩＲＵ,,合同会社,熊本県,熊本市中央区,坪井２丁目１番７号藤一第３ビル６０３号,,43,101,8600863,,,,,,,2025-05-09,1,,,,,イキル,0
271,1360001035140,新規,0,2025-05-09,2025-05-09,株式会社ＧＸパーク琉球,,株式会社,沖縄県,那覇市,松山１丁目１５番１号,,47,201,9000032,,,,,,,2025-05-09,1,,,,,ジーエックスパークリュウキュウ,0
272,1360001035157,新規,0,2025-05-09,2025-05-09,株式会社ふじえだ,,株式会社,沖縄県,中頭郡北谷町,字吉原１３０番地,,47,326,9040105,,,,,,,2025-05-09,1,,,,,フジエダ,0
276,1380003006030,新規,0,2025-05-09,2025-05-09,ＦＬＹ．Ｄ合同会社,,合同会社,福島県,郡山市,大槻町字林ノ北２５番地の２ヴィクトワールＩＩＩ３０１号,00139076,07,203,9630201,,,,,,,2025-05-09,1,,,,,フライデイ,0
278,1400003003454,新規,0,2025-05-09,2025-05-09,合同会社ＡＺ,,合同会社,岩手県,盛岡市,西青山３丁目３９番４８号シティプラザ西青山Ｂ－１０７号,,03,201,0200132,,,,,,,2025-05-09,1,,,,,エーゼット,0
288,1430001094352,新規,0,2025-05-09,2025-05-09,株式会社Ｒｅｖｏ　Ｐｌｕｓ,,株式会社,北海道,札幌市西区,山の手一条５丁目６番７－１号,,01,107,0630001,,,,,,,2025-05-09,1,,,,,レボプラス,0
289,1430001094360,新規,0,2025-05-09,2025-05-09,株式会社ミライズ,,株式会社,北海道,札幌市東区,丘珠町６９５番地１,,01,103,0070880,,,,,,,2025-05-09,1,,,,,ミライズ,0
290,1430001094369,新規,0,2025-05-09,2025-05-09,エスエー工建株式会社,,株式会社,北海道,札幌市東区,北十六条東１３丁目３番１６号,,01,103,0650016,,,,,,,2025-05-09,1,,,,,エスエーコウケン,0
293,1430003017583,新規,0,2025-05-09,2025-05-09,合同会社さとう企画,,合同会社,北海道,札幌市中央区,南七条西４丁目２‐６ＬＣ拾壱番館１階,,01,101,0640807,,,,,,,2025-05-09,1,,,,,サトウキカク,0
296,1440001009607,新規,0,2025-05-09,2025-05-09,株式会社ｃｏｃｏｃｈ,,株式会社,北海道,函館市,大澗町１４５番地２,,01,202,0410403,,,,,,,2025-05-09,1,,,,,ココチ,0
298,1450001014622,新規,0,2025-05-09,2025-05-09,株式会社ＨＡＫＵの森,,株式会社,北海道,名寄市,大通南１２丁目６６－４,,01,221,0960010,,,,,,,2025-05-09,1,,,,,ハクノモリ,0
313,2010001254749,新規,0,2025-05-09,2025-05-09,株式会社ＲＳＣ,,株式会社,東京都,千代田区,神田神保町１丁目３２番地ＨｉｓａｙａＢｌｄｇ１Ｆ,,13,101,1010051,,,,,,,2025-05-09,1,,,,,アールエスシー,0
314,2010001254906,新規,0,2025-05-09,2025-05-09,ＨｅＬＭ　Ａｇｇｒｅｇａｔｉｏｎ株式会社,,株式会社,東京都,千代田区,丸の内２丁目２番１号,,13,101,1000005,,,,,,,2025-05-09,1,,,,,ヘルムアグリゲーション,0
319,2010005039997,新規,0,2025-05-09,2025-05-09,一般社団法人国際就業支援協会,,その他の設立登記法人,東京都,中央区,日本橋浜町３丁目３５番５号オフィス３０－６０３号,,13,102,1030007,,,,,,,2025-05-09,1,,,,,コクサイシュウギョウシエンキョウカイ,0
320,2010005040022,新規,0,2025-05-09,2025-05-09,トリピックピーオー特定目的会社,,その他の設立登記法人,東京都,千代田区,丸の内１丁目４番１号東京共同会計事務所内,,13,101,1000005,,,,,,,2025-05-09,1,,,,,トリピックピーオー,0
322,2010101016669,新規,0,2025-05-09,2025-05-09,株式会社秀真電工,,株式会社,東京都,八王子市,台町１丁目１６番７号１,,13,201,1930931,,,,,,,2025-05-09,1,,,,,シュウシンデンコウ,0
333,2010401189867,新規,0,2025-05-09,2025-05-09,ウォーク株式会社,,株式会社,東京都,港区,赤坂９丁目６番２６号フォンテ六本木４０２号室,,13,103,1070052,,,,,,,2025-05-09,1,,,,,ウォーク,0
334,2010401190057,新規,0,2025-05-09,2025-05-09,株式会社ＥＴＥＰ,,株式会社,東京都,港区,芝大門１丁目１１番８－８０２号,,13,103,1050012,,,,,,,2025-05-09,1,,,,,イーテップ,0
335,2010401190156,新規,0,2025-05-09,2025-05-09,株式会社アドランナー,,株式会社,東京都,港区,虎ノ門５丁目１３番１号虎ノ門４０ＭＴビル７階,,13,103,1050001,,,,,,,2025-05-09,1,,,,,アドランナー,0
337,2010403035037,新規,0,2025-05-09,2025-05-09,合同会社メタモ,,合同会社,東京都,港区,南青山３丁目１番３６号青山丸竹ビル６階,,13,103,1070062,,,,,,,2025-05-09,1,,,,,メタモ,0
356,2011001169697,新規,0,2025-05-09,2025-05-09,株式会社Ｃ‐ＴＨＲＥＥ,,株式会社,東京都,渋谷区,本町１丁目５１番１０－２０４号,,13,113,1510071,,,,,,,2025-05-09,1,,,,,シースリー,0
366,2011101111674,新規,0,2025-05-09,2025-05-09,株式会社ｍｏｆｕｒｕ,,株式会社,東京都,新宿区,西新宿５丁目８番２号惠徳ビル４階,,13,104,1600023,,,,,,,2025-05-09,1,,,,,モフル,0
369,2011401027075,新規,0,2025-05-09,2025-05-09,東立株式会社,,株式会社,東京都,板橋区,仲宿６３番地７号ＯＥＯｆｆｉｃｅＢｌｄｇ．２０１号,,13,119,1730005,,,,,,,2025-05-09,1,,,,,トウリツ,0
372,2011501032033,新規,0,2025-05-09,2025-05-09,株式会社ＭＣ　ＬＩＮＫ　ＦＡＳ,,株式会社,東京都,北区,王子１丁目１９番８号,,13,117,1140002,,,,,,,2025-05-09,1,,,,,エムシーリンクファス,0
374,2011603004698,新規,0,2025-05-09,2025-05-09,合同会社リズム,,合同会社,東京都,練馬区,富士見台２丁目１７番１２号１０１,,13,120,1770034,,,,,,,2025-05-09,1,,,,,リズム,0
380,2012401043062,新規,0,2025-05-09,2025-05-09,株式会社５０３ｗｏｒｋｓ,,株式会社,東京都,狛江市,猪方３丁目２３番６号グロブナーハウスＢ１Ｆ,,13,219,2010015,,,,,,,2025-05-09,1,,,,,ゴーマルサンワークス,0
381,2012403007115,新規,0,2025-05-09,2025-05-09,合同会社Ｓｕｚ,,合同会社,東京都,武蔵野市,吉祥寺本町１丁目７－３－１階,,13,203,1800004,,,,,,,2025-05-09,1,,,,,スズ,0
383,2012703003268,新規,0,2025-05-09,2025-05-09,合同会社ＧＬＡＤｎｅｓｓ,,合同会社,東京都,東村山市,諏訪町２丁目３３番地１５,,13,213,1890021,,,,,,,2025-05-09,1,,,,,グラッドネス,0
385,2012803003721,新規,0,2025-05-09,2025-05-09,合同会社藤元,,合同会社,東京都,昭島市,田中町２丁目１番１２号,,13,207,1960014,,,,,,,2025-05-09,1,,,,,フジモト,0
397,2020001162678,新規,0,2025-05-09,2025-05-09,株式会社秋元技術研究所,,株式会社,神奈川県,川崎市高津区,明津３０番地,,14,134,2130024,,,,,,,2025-05-09,1,,,,,アキモトギジュツケンキュウショ,0
398,2020001162686,新規,0,2025-05-09,2025-05-09,株式会社ＶＡＸＡＬ,,株式会社,神奈川県,横浜市神奈川区,三枚町５４３ハイツ宮向Ｍ号棟,,14,102,2210862,,,,,,,2025-05-09,1,,,,,バクサル,0
399,2020001162752,新規,0,2025-05-09,2025-05-09,鈴興業株式会社,,株式会社,神奈川県,横浜市中区,翁町２丁目８番地２ロワール横濱関内１３０４号室,,14,104,2310028,,,,,,,2025-05-09,1,,,,,スズコウギョウ,0
400,2020001162769,新規,0,2025-05-09,2025-05-09,株式会社ＲＰ,,株式会社,神奈川県,横浜市神奈川区,新子安１丁目１８番１－２３３号,,14,102,2210013,,,,,,,2025-05-09,1,,,,,アールピー,0
405,2020003028448,新規,0,2025-05-09,2025-05-09,合同会社ＵＰ　ＴＯ　ＹＯＵ,,合同会社,神奈川県,横浜市港北区,篠原台町４番２３号,,14,109,2220024,,,,,,,2025-05-09,1,,,,,アップトゥユー,0
406,2020005016855,新規,0,2025-05-09,2025-05-09,行政書士法人横浜中央法務事務所,,その他の設立登記法人,神奈川県,横浜市中区,本町５丁目４９番地,,14,104,2310005,,,,,,,2025-05-09,1,,,,,ヨコハマチュウオウホウムジムショ,0
408,2021001085126,新規,0,2025-05-09,2025-05-09,六六堂ホールディングス株式会社,,株式会社,神奈川県,平塚市,日向岡１丁目１０番７号,,14,203,2540905,,,,,,,2025-05-09,1,,,,,ロクロクドウホールディングス,0
409,2021001085142,新規,0,2025-05-09,2025-05-09,株式会社ＤＯＧＩｍＯ,,株式会社,神奈川県,足柄下郡湯河原町,土肥２丁目１５番地の４,,14,384,2590303,,,,,,,2025-05-09,1,,,,,ドギモ,0
410,2021001085150,新規,0,2025-05-09,2025-05-09,つむぎケア株式会社,,株式会社,神奈川県,相模原市中央区,緑が丘２丁目４３番２４号,,14,152,2520225,,,,,,,2025-05-09,1,,,,,ツムギケア,0
411,2021001085167,新規,0,2025-05-09,2025-05-09,株式会社和建設,,株式会社,神奈川県,平塚市,山下１丁目７番２号リエージュ山下Ｄ２,,14,203,2540911,,,,,,,2025-05-09,1,,,,,ナゴミケンセツ,0
412,2021001085175,新規,0,2025-05-09,2025-05-09,ＷＡＩＣＨＩ株式会社,,株式会社,神奈川県,相模原市中央区,淵野辺本町４丁目１５番４号,,14,152,2520202,,,,,,,2025-05-09,1,,,,,ワイチ,0
414,2021003015948,新規,0,2025-05-09,2025-05-09,ＲＣＴ合同会社,,合同会社,神奈川県,海老名市,泉２丁目３－１－５１８,,14,215,2430437,,,,,,,2025-05-09,1,,,,,アールシーティー,0
415,2021003015989,新規,0,2025-05-09,2025-05-09,合同会社フラワー,,合同会社,神奈川県,相模原市中央区,清新３丁目１番７－４０３,,14,152,2520216,,,,,,,2025-05-09,1,,,,,フラワー,0
416,2021005013355,新規,0,2025-05-09,2025-05-09,一般社団法人ＯＣＥＡＮ　ＬＯＯＰ,,その他の設立登記法人,神奈川県,藤沢市,鵠沼石上１丁目５番９号メガサンエスビル６階,,14,205,2510025,,,,,,,2025-05-09,1,,,,,オーシャンループ,0
422,2030001166348,新規,0,2025-05-09,2025-05-09,株式会社島瀬工業,,株式会社,埼玉県,八潮市,大字南後谷７１９－３－５０２,,11,234,3400831,,,,,,,2025-05-09,1,,,,,シマセコウギョウ,0
423,2030001166356,新規,0,2025-05-09,2025-05-09,ブルーオーシャン株式会社,,株式会社,埼玉県,上尾市,向山５丁目７番地２７,,11,219,3620045,,,,,,,2025-05-09,1,,,,,ブルーオーシャン,0
424,2030001166414,新規,0,2025-05-09,2025-05-09,株式会社ベネフィットネオ,,株式会社,埼玉県,所沢市,若狭４丁目２５１４番地の３,,11,208,3591151,,,,,,,2025-05-09,1,,,,,ベネフィットネオ,0
425,2030001166439,新規,0,2025-05-09,2025-05-09,株式会社Ｗｉｓｔｅｒｉａ,,株式会社,埼玉県,吉川市,美南５丁目３１番地１貴賓館４０１,,11,243,3420038,,,,,,,2025-05-09,1,,,,,ウイステリア,0
432,2030003026707,新規,0,2025-05-09,2025-05-09,Ｕｐｒｉｇｈｔ　Ｐｒｏｐｅｒｔｙ　Ｐａｒｔｎｅｒｓ合同会社,,合同会社,埼玉県,深谷市,西島町１丁目１番１９号ネオハイツ深谷１００５号,,11,218,3660824,,,,,,,2025-05-09,1,,,,,アップライトプロパティパートナーズ,0
438,2040001138668,新規,0,2025-05-09,2025-05-09,株式会社オオノ,,株式会社,千葉県,市原市,上高根１１７２番地３,,12,219,2900243,,,,,,,2025-05-09,1,,,,,オオノ,0
441,2040003027464,新規,0,2025-05-09,2025-05-09,合同会社ｋ４６,,合同会社,千葉県,流山市,向小金２丁目２６３番地の４,,12,220,2700143,,,,,,,2025-05-09,1,,,,,ケーヨンロク,0
442,2040003027480,新規,0,2025-05-09,2025-05-09,合同会社橘興業,,合同会社,千葉県,茂原市,本納１６３７番地６,,12,210,2994114,,,,,,,2025-05-09,1,,,,,タチバナコウギョウ,0
443,2040003027497,新規,0,2025-05-09,2025-05-09,安云心文化交流合同会社,,合同会社,千葉県,市川市,鬼高３丁目１０番３号,,12,203,2720015,,,,,,,2025-05-09,1,,,,,アンウンシンブンカコウリュウ,0
449,2050001056638,新規,0,2025-05-09,2025-05-09,株式会社ＦＪＫ,,株式会社,茨城県,神栖市,平泉１番地７１,,08,232,3140146,,,,,,,2025-05-09,1,,,,,エフジェイケー,0
450,2050001056646,新規,0,2025-05-09,2025-05-09,株式会社山田金属,,株式会社,茨城県,日立市,東多賀町３丁目９番２号,,08,202,3160004,,,,,,,2025-05-09,1,,,,,ヤマダキンゾク,0
451,2050003009239,新規,0,2025-05-09,2025-05-09,合同会社ティーアール,,合同会社,茨城県,筑西市,女方４２番地,,08,227,3080854,,,,,,,2025-05-09,1,,,,,ティーアール,0
452,2050005013627,新規,0,2025-05-09,2025-05-09,一般社団法人Ｒｅｄ　Ｔｒｉｄｅｎｔ,,その他の設立登記法人,茨城県,稲敷郡阿見町,本郷１丁目１番地２０,,08,443,3001159,,,,,,,2025-05-09,1,,,,,レッドトライデント,0
454,2060003005542,新規,0,2025-05-09,2025-05-09,ＦａｍｉｌｙＳａｌｏｎミヨシ合同会社,,合同会社,栃木県,宇都宮市,駒生町８３２番地１,,09,201,3200065,,,,,,,2025-05-09,1,,,,,ファミリーサロンミヨシ,0
462,2080001026927,新規,0,2025-05-09,2025-05-09,株式会社Ｃ＆Ｍ,,株式会社,静岡県,静岡市駿河区,高松３３０４番地の１,,22,102,4228034,,,,,,,2025-05-09,1,,,,,シーアンドエム,0
464,2080005007691,新規,0,2025-05-09,2025-05-09,静岡サミル聖書教会,,その他の設立登記法人,静岡県,静岡市葵区,美川町４番２３号,,22,101,4200875,,,,,,,2025-05-09,1,,,,,シズオカサミルセイショキョウカイ,0
466,2080401027905,新規,0,2025-05-09,2025-05-09,株式会社クラハシ建設,,株式会社,静岡県,浜松市中央区,恒武町３１１番地の１,,22,138,4313108,,,,,,,2025-05-09,1,,,,,クラハシケンセツ,0
474,2110005017225,新規,0,2025-05-09,2025-05-09,一般社団法人新潟県新発田市に夜間中学校をつくる会,,その他の設立登記法人,新潟県,新発田市,豊町２丁目１５番７号,,15,206,9570016,,,,,,,2025-05-09,1,,,,,ニイガタケンシバタシニヤカンチュウガッコウヲツクルカイ,0
479,2120001275156,新規,0,2025-05-09,2025-05-09,株式会社ＲＥＪＯＩＣＥ,,株式会社,大阪府,大阪市阿倍野区,阪南町５丁目１７番２７号６階Ａ,,27,119,5450021,,,,,,,2025-05-09,1,,,,,リジョイス,0
480,2120001275180,新規,0,2025-05-09,2025-05-09,株式会社ブギワークスジャパン,,株式会社,大阪府,大阪市中央区,久太郎町３丁目１番６号伊藤佑ビル大阪本町６階,,27,128,5410056,,,,,,,2025-05-09,1,,,,,ブギワークスジャパン,0
481,2120001275197,新規,0,2025-05-09,2025-05-09,水川株式会社,,株式会社,大阪府,大阪市大正区,三軒家西３丁目４番１６号中山ビル２１２Ｂ,,27,108,5510001,,,,,,,2025-05-09,1,,,,,ミズカワ,0
482,2120001275247,新規,0,2025-05-09,2025-05-09,和心科技株式会社,,株式会社,大阪府,大阪市西区,靱本町３丁目１０－２４兆豊阿波座ビル,,27,106,5500004,,,,,,,2025-05-09,1,,,,,ワシンカギ,0
483,2120001275296,新規,0,2025-05-09,2025-05-09,六和株式会社,,株式会社,大阪府,大阪市淀川区,東三国６丁目２３－１７－２０１,,27,123,5320002,,,,,,,2025-05-09,1,,,,,ロクワ,0
484,2120001275338,新規,0,2025-05-09,2025-05-09,株式会社あおい,,株式会社,大阪府,大阪市中央区,博労町１丁目９番１５－１２０３号,,27,128,5410059,,,,,,,2025-05-09,1,,,,,アオイ,0
485,2120001275362,新規,0,2025-05-09,2025-05-09,Ｍｏｎｔｅｅ　Ｂｅｌｌｅ株式会社,,株式会社,大阪府,大阪市東成区,深江南２丁目９番２２号２階,,27,115,5370002,,,,,,,2025-05-09,1,,,,,モンテベール,0
486,2120001275370,新規,0,2025-05-09,2025-05-09,株式会社ｋｈａｒａ,,株式会社,大阪府,大阪市淀川区,西宮原１丁目８番４８－１１０１号,,27,123,5320004,,,,,,,2025-05-09,1,,,,,カラー,0
487,2120001275742,新規,0,2025-05-09,2025-05-09,株式会社ａｕｎ,,株式会社,大阪府,大阪市住吉区,我孫子東３丁目９番２４－３０２号,,27,120,5580013,,,,,,,2025-05-09,1,,,,,アウン,0
490,2120003029411,新規,0,2025-05-09,2025-05-09,合同会社ＳＧＲ　ＳＥＲＶＩＣＥＳ,,合同会社,大阪府,大阪市中央区,南船場３丁目２番２２号おおきに南船場ビル２０５,,27,128,5420081,,,,,,,2025-05-09,1,,,,,エスジーアールサービス,0
492,2120005024914,新規,0,2025-05-09,2025-05-09,行政書士法人大阪綜合法務事務所,,その他の設立登記法人,大阪府,大阪市北区,本庄東２丁目１６番４号メルヘンパレス１Ｆ,,27,127,5310074,,,,,,,2025-05-09,1,,,,,オオサカソウゴウホウムジムショ,0
493,2120101071629,新規,0,2025-05-09,2025-05-09,株式会社蒼葉,,株式会社,大阪府,松原市,天美南２丁目１３１番地の１６,,27,217,5800033,,,,,,,2025-05-09,1,,,,,アオバ,0
496,2120901050815,新規,0,2025-05-09,2025-05-09,株式会社ＴＭＪ　Ａｇｅｎｃｙ,,株式会社,大阪府,高槻市,今城町１５番５－８１１号,,27,207,5691135,,,,,,,2025-05-09,1,,,,,ティーエムジェイエージェンシー,0
500,2130001079606,新規,0,2025-05-09,2025-05-09,金博株式会社,,株式会社,京都府,京都市東山区,泉涌寺門前町２０番地１０,,26,105,6050973,,,,,,,2025-05-09,1,,,,,ジンブォ,0
501,2130001079614,新規,0,2025-05-09,2025-05-09,株式会社アイナトウ,,株式会社,京都府,京都市南区,唐橋平垣町６７番地１,,26,107,6018469,,,,,,,2025-05-09,1,,,,,アイナトウ,0
507,2140001138435,新規,0,2025-05-09,2025-05-09,株式会社ＯＬＩＪＯＮ,,株式会社,兵庫県,姫路市,亀井町３８番地,,28,201,6700925,,,,,,,2025-05-09,1,,,,,オリジョン,0
508,2140001138443,新規,0,2025-05-09,2025-05-09,株式会社金松,,株式会社,兵庫県,高砂市,曽根町７５９番地,,28,216,6760082,,,,,,,2025-05-09,1,,,,,カネマツ,0
509,2140001138468,新規,0,2025-05-09,2025-05-09,株式会社大輝工業,,株式会社,兵庫県,姫路市,打越７４２番地,,28,201,6712246,,,,,,,2025-05-09,1,,,,,ダイキコウギョウ,0
510,2140001138518,新規,0,2025-05-09,2025-05-09,Ａｌｐｈａ商事株式会社,,株式会社,兵庫県,神戸市中央区,東川崎町６丁目６番９号,,28,110,6500044,,,,,,,2025-05-09,1,,,,,アルファショウジ,0
514,2140003022026,新規,0,2025-05-09,2025-05-09,農業合同会社緑青舎,,合同会社,兵庫県,神戸市北区,淡河町淡河１６９５番地５,,28,109,6511603,,,,,,,2025-05-09,1,,,,,ノウギョウロクショウシャ,0
515,2150003003603,新規,0,2025-05-09,2025-05-09,ＳＡＣ合同会社,,合同会社,奈良県,吉野郡大淀町,大字下渕１６４０番地の２０３,,29,442,6380821,,,,,,,2025-05-09,1,,,,,エスエーシー,0
516,2160001026745,新規,0,2025-05-09,2025-05-09,株式会社西田創建,,株式会社,滋賀県,犬上郡甲良町,大字小川原８００－４５,,25,442,5220243,,,,,,,2025-05-09,1,,,,,ニシダソウケン,0
517,2160005011405,新規,0,2025-05-09,2025-05-09,一般社団法人淡海,,その他の設立登記法人,滋賀県,彦根市,犬方町６１３,,25,202,5220236,,,,,,,2025-05-09,1,,,,,オウミ,0
525,2180001166580,新規,0,2025-05-09,2025-05-09,株式会社ダイイチホールディングス,,株式会社,愛知県,愛西市,内佐屋町松原７０番地,,23,232,4960903,,,,,,,2025-05-09,1,,,,,ダイイチホールディングス,0
526,2180001166647,新規,0,2025-05-09,2025-05-09,株式会社永灯,,株式会社,愛知県,名古屋市昭和区,神村町１丁目４９番地５,,23,107,4660802,,,,,,,2025-05-09,1,,,,,エイトウ,0
527,2180001166721,新規,0,2025-05-09,2025-05-09,株式会社Ｇｒａｃｅ,,株式会社,愛知県,名古屋市天白区,梅が丘２丁目５０１番地の２,,23,116,4680004,,,,,,,2025-05-09,1,,,,,グレース,0
528,2180001166762,新規,0,2025-05-09,2025-05-09,株式会社ＡＴ,,株式会社,愛知県,名古屋市千種区,内山１丁目１８番１６号,,23,101,4640075,,,,,,,2025-05-09,1,,,,,エーティー,0
534,2180005021088,新規,0,2025-05-09,2025-05-09,一般社団法人プロパンガス公正取引協会,,その他の設立登記法人,愛知県,名古屋市中村区,名駅４丁目２４番５号第二森ビル４階,,23,105,4500002,,,,,,,2025-05-09,1,,,,,プロパンガスコウセイトリヒキキョウカイ,0
535,2180301039791,新規,0,2025-05-09,2025-05-09,ａｎｄ　Ｉ株式会社,,株式会社,愛知県,安城市,御幸本町８番１０号,,23,212,4460032,,,,,,,2025-05-09,1,,,,,アンドアイ,0
537,2190001032204,新規,0,2025-05-09,2025-05-09,株式会社久保田建設,,株式会社,三重県,鳥羽市,河内町１１９番地１,,24,211,5170044,,,,,,,2025-05-09,1,,,,,クボタケンセツ,0
541,2200001043711,新規,0,2025-05-09,2025-05-09,株式会社ＮＫテック,,株式会社,岐阜県,各務原市,鵜沼朝日町５丁目２８７番地６,,21,213,5090145,,,,,,,2025-05-09,1,,,,,エヌケーテック,0
542,2200001043736,新規,0,2025-05-09,2025-05-09,農地所有適格法人美空野ファーム株式会社,,株式会社,岐阜県,高山市,江名子町３４２７番地,,21,203,5060818,,,,,,,2025-05-09,1,,,,,ノウチショユウテキカクホウジンミソラノファーム,0
543,2200001043744,新規,0,2025-05-09,2025-05-09,株式会社兼市今尾,,株式会社,岐阜県,各務原市,那加新加納町２１７２番地２,,21,213,5040958,,,,,,,2025-05-09,1,,,,,カネイチイマオ,0
544,2200001043752,新規,0,2025-05-09,2025-05-09,株式会社オークレジデンス,,株式会社,岐阜県,岐阜市,若福町２８番１４号,,21,201,5020811,,,,,,,2025-05-09,1,,,,,オークレジデンス,0
545,2200001043760,新規,0,2025-05-09,2025-05-09,株式会社ＭＡＲＩＭＯ,,株式会社,岐阜県,多治見市,日ノ出町２丁目３８番地,,21,204,5070848,,,,,,,2025-05-09,1,,,,,マリモ,0
547,2200003006815,新規,0,2025-05-09,2025-05-09,合同会社森山工業,,合同会社,岐阜県,羽島郡笠松町,中野１８３番地,,21,303,5016034,,,,,,,2025-05-09,1,,,,,モリヤマコウギョウ,0
551,2240001064927,新規,0,2025-05-09,2025-05-09,株式会社相生,,株式会社,広島県,広島市中区,大手町１丁目３番１４号,,34,101,7300051,,,,,,,2025-05-09,1,,,,,アイオイ,0
552,2250001021134,新規,0,2025-05-09,2025-05-09,株式会社山口滋山建設,,株式会社,山口県,山口市,阿知須４７４７番地,,35,203,7541277,,,,,,,2025-05-09,1,,,,,ヤマグチシゲヤマケンセツ,0
553,2250003003717,新規,0,2025-05-09,2025-05-09,合同会社ＳＡＦＥＴＹ代行サービス,,合同会社,山口県,下関市,細江町１丁目４番８号２Ｆ－Ｂ,,35,201,7500016,,,,,,,2025-05-09,1,,,,,セーフティダイコウサービス,0
556,2290001109891,新規,0,2025-05-09,2025-05-09,株式会社ＲＶｉｎｇＪａｐａｎ,,株式会社,福岡県,太宰府市,水城２丁目１０－１,,40,221,8180131,,,,,,,2025-05-09,1,,,,,アールブイングジャパン,0
557,2290001109925,新規,0,2025-05-09,2025-05-09,株式会社ＥＡＲＴＨＬＩＮＧ,,株式会社,福岡県,糸島市,伊都の杜３丁目４－７,,40,230,8191130,,,,,,,2025-05-09,1,,,,,アースリング,0
558,2290001109966,新規,0,2025-05-09,2025-05-09,株式会社ＡＫＩＨＩＲＯ　ＪＡＰＡＮ,,株式会社,福岡県,福津市,上西郷１１５０番地１５,,40,224,8113207,,,,,,,2025-05-09,1,,,,,アキヒロジャパン,0
559,2290001109974,新規,0,2025-05-09,2025-05-09,株式会社ＣＡＤフクオカ,,株式会社,福岡県,福岡市西区,下山門１丁目１２番３号,,40,135,8190052,,,,,,,2025-05-09,1,,,,,キャドフクオカ,0
560,2290001109982,新規,0,2025-05-09,2025-05-09,株式会社ＫＤＫ,,株式会社,福岡県,久留米市,御井旗崎４丁目７番１７号,,40,203,8390841,,,,,,,2025-05-09,1,,,,,,0
564,2290803005041,新規,0,2025-05-09,2025-05-09,合同会社ＦＳホールディング,,合同会社,福岡県,北九州市小倉南区,曽根新田北３丁目１３番３６号,,40,107,8000219,,,,,,,2025-05-09,1,,,,,エフエスホールディング,0
565,2310001019601,新規,0,2025-05-09,2025-05-09,クイーンズ株式会社,,株式会社,長崎県,対馬市,美津島町鷄知甲３７５番地２８,00139084,42,209,8170000,,,,,,,2025-05-09,1,,,,,クイーンズ,0
572,2330001033162,新規,0,2025-05-09,2025-05-09,サンシスタ株式会社,,株式会社,熊本県,山鹿市,山鹿３７８番地４,,43,208,8610501,,,,,,,2025-05-09,1,,,,,サンシスタ,0
573,2330001033179,新規,0,2025-05-09,2025-05-09,株式会社クロテック,,株式会社,熊本県,熊本市北区,鶴羽田８－４７－２,,43,105,8610000,,,,,,,2025-05-09,1,,,,,クロテック,0
575,2330003011001,新規,0,2025-05-09,2025-05-09,合同会社大池田ドック,,合同会社,熊本県,天草市,牛深町１５５１－２３,,43,215,8631901,,,,,,,2025-05-09,1,,,,,オオイケダドック,0
577,2340001027312,新規,0,2025-05-09,2025-05-09,株式会社上村匠建,,株式会社,鹿児島県,奄美市,名瀬大字浦上８６７番地２,,46,222,8940008,,,,,,,2025-05-09,1,,,,,カンムラショウケン,0
578,2340001027320,新規,0,2025-05-09,2025-05-09,株式会社Ｋｏｍａｔｓｕ　Ｇｒｏｕｐ,,株式会社,鹿児島県,鹿児島市,東谷山４丁目２２番１３号,,46,201,8910113,,,,,,,2025-05-09,1,,,,,コマツグループ,0
582,2360001035148,新規,0,2025-05-09,2025-05-09,ＬＯＯＰ株式会社,,株式会社,沖縄県,那覇市,具志２丁目２０番７号カンセイホーム具志３０３号室,,47,201,9010146,,,,,,,2025-05-09,1,,,,,ループ,0
583,2360001035164,新規,0,2025-05-09,2025-05-09,沖縄日章興産株式会社,,株式会社,沖縄県,うるま市,字川崎３６７番地３,,47,213,9042203,,,,,,,2025-05-09,1,,,,,オキナワニッショウコウサン,0
584,2380001035303,新規,0,2025-05-09,2025-05-09,Ｋ＆Ｉカンパニー株式会社,,株式会社,福島県,会津若松市,藤原２丁目６番地の１１,,07,202,9650029,,,,,,,2025-05-09,1,,,,,ケイアンドアイカンパニー,0
588,2400005008491,新規,0,2025-05-09,2025-05-09,一般社団法人まるごとラボ,,その他の設立登記法人,岩手県,一関市,大町４番１１号,,03,209,0210881,,,,,,,2025-05-09,1,,,,,マルゴトラボ,0
592,2430001094335,新規,0,2025-05-09,2025-05-09,株式会社Ｂｙｐｌｕｓ,,株式会社,北海道,札幌市中央区,南五条西１５丁目２－３－５０３,,01,101,0640805,,,,,,,2025-05-09,1,,,,,バイプラス,0
593,2430001094376,新規,0,2025-05-09,2025-05-09,株式会社千歳不動産販売,,株式会社,北海道,千歳市,富士３丁目５番１１号,,01,224,0660039,,,,,,,2025-05-09,1,,,,,チトセフドウサンハンバイ,0
596,2430003017616,新規,0,2025-05-09,2025-05-09,Ｔｈｉｎｋｔａｎｋ　Ｉｎｄｅｐｅｎｄｅｎｃｅ　Ｅｎｔｅｒｐｒｉｓｅ合同会社,,合同会社,北海道,札幌市清田区,北野七条３丁目５番１号,,01,110,0040867,,,,,,,2025-05-09,1,,,,,シンクタンクインデペンデンスエンタープライズ,0
617,3010003047191,新規,0,2025-05-09,2025-05-09,合同会社ＯＨＡＮＡ,,合同会社,東京都,中央区,銀座１丁目１２番４号Ｎ＆ＥＢＬＤ．７階,,13,102,1040061,,,,,,,2025-05-09,1,,,,,オハナ,0
620,3010101016668,新規,0,2025-05-09,2025-05-09,株式会社ＫＯＮＥＣＴ,,株式会社,東京都,八王子市,散田町１丁目１１番１７号,,13,201,1930832,,,,,,,2025-05-09,1,,,,,コネクト,0
629,3010401190064,新規,0,2025-05-09,2025-05-09,株式会社ジャパゲート,,株式会社,東京都,港区,白金３丁目７－１,,13,103,1080072,,,,,,,2025-05-09,1,,,,,ジャパゲート,0
630,3010401190130,新規,0,2025-05-09,2025-05-09,株式会社ＦＵＮＡＤＥ,,株式会社,東京都,港区,浜松町２丁目１３－１２ＲｉｓｅＷｅｌｌビル２Ｆ,,13,103,1050013,,,,,,,2025-05-09,1,,,,,フナデ,0
631,3010401190246,新規,0,2025-05-09,2025-05-09,株式会社食在楽山,,株式会社,東京都,港区,南青山３丁目１番３６号青山丸竹ビル６Ｆ,,13,103,1070062,,,,,,,2025-05-09,1,,,,,ショクザイラクサン,0
639,3010801036115,新規,0,2025-05-09,2025-05-09,鵬図ホールディングス株式会社,,株式会社,東京都,大田区,上池台５丁目２番１号,,13,111,1450064,,,,,,,2025-05-09,1,,,,,ホウトホールディングス,0
640,3010801036131,新規,0,2025-05-09,2025-05-09,株式会社Ｒｉｃｋｓ,,株式会社,東京都,大田区,西馬込２丁目１７番１０号オルヴィエート２０２,,13,111,1430026,,,,,,,2025-05-09,1,,,,,リックス,0
641,3010803005373,新規,0,2025-05-09,2025-05-09,合同会社中本企画,,合同会社,東京都,大田区,下丸子４丁目２１番１５－２５０３号,,13,111,1460092,,,,,,,2025-05-09,1,,,,,ナカモトキカク,0
645,3010901057291,新規,0,2025-05-09,2025-05-09,株式会社Ｊ’ｓプロジェクト,,株式会社,東京都,世田谷区,南烏山３丁目２２番１３－５０２号,,13,112,1570062,,,,,,,2025-05-09,1,,,,,ジェイズプロジェクト,0
646,3010901057325,新規,0,2025-05-09,2025-05-09,Ｒａｗｆｅｅｌ株式会社,,株式会社,東京都,世田谷区,世田谷１丁目１６番１４－６０１号,,13,112,1540017,,,,,,,2025-05-09,1,,,,,ローフィール,0
647,3010903009902,新規,0,2025-05-09,2025-05-09,ｓｏｒａｋａｚｅ合同会社,,合同会社,東京都,世田谷区,代田６丁目１４－１０ｓｏｒａｋａｚｅ１０１,,13,112,1550033,,,,,,,2025-05-09,1,,,,,ソラカゼ,0
657,3011001169507,新規,0,2025-05-09,2025-05-09,スターヘリックス株式会社,,株式会社,東京都,渋谷区,神宮前６丁目３３番１８号ハイツ原宿３０１,,13,113,1500001,,,,,,,2025-05-09,1,,,,,スターヘリックス,0
659,3011003021657,新規,0,2025-05-09,2025-05-09,合同会社上島コンサルティング,,合同会社,東京都,渋谷区,神南１丁目１１－４ＦＰＧリンクス神南５階,,13,113,1500041,,,,,,,2025-05-09,1,,,,,ウエシマコンサルティング,0
664,3011101111632,新規,0,2025-05-09,2025-05-09,株式会社ＬｅｖｅｒＡｇｅ,,株式会社,東京都,新宿区,下落合３丁目１９番２号フイユ・ドール目白３０２,,13,104,1610033,,,,,,,2025-05-09,1,,,,,レバレッジ,0
675,3011503006521,新規,0,2025-05-09,2025-05-09,合同会社シロツグ,,合同会社,東京都,北区,赤羽２丁目６２番１５号,,13,117,1150045,,,,,,,2025-05-09,1,,,,,シロツグ,0
678,3011701028318,新規,0,2025-05-09,2025-05-09,鈴てつ株式会社,,株式会社,東京都,江戸川区,西瑞江５丁目４番地７１,,13,123,1340015,,,,,,,2025-05-09,1,,,,,スズテツ,0
680,3011801046087,新規,0,2025-05-09,2025-05-09,株式会社ＢＢＪＰ,,株式会社,東京都,葛飾区,西新小岩５丁目１番１６号,,13,122,1240025,,,,,,,2025-05-09,1,,,,,ビービージェイピー,0
681,3011801046095,新規,0,2025-05-09,2025-05-09,株式会社ツキガタ,,株式会社,東京都,葛飾区,東金町３丁目１７－１０・ＫＢＳ・Ｃ－１０,,13,122,1250041,,,,,,,2025-05-09,1,,,,,ツキガタ,0
682,3012305002130,新規,0,2025-05-09,2025-05-09,一般社団法人癒やしの木,,その他の設立登記法人,東京都,町田市,図師町１３３２番地１５,,13,209,1940203,,,,,,,2025-05-09,1,,,,,イヤシノキ,0
683,3012401043061,新規,0,2025-05-09,2025-05-09,株式会社ＶＥＲＯＲＡ,,株式会社,東京都,小金井市,前原町２丁目１７番１８号,,13,210,1840013,,,,,,,2025-05-09,1,,,,,ヴェローラ,0
684,3012403007114,新規,0,2025-05-09,2025-05-09,合同会社フタ城,,合同会社,東京都,武蔵野市,緑町１丁目４番１０号－４０１室Ｃ,,13,203,1800012,,,,,,,2025-05-09,1,,,,,フタシロ,0
685,3012701018853,新規,0,2025-05-09,2025-05-09,株式会社リコス,,株式会社,東京都,小平市,回田町２８３番地の３ｔｒｅｃｏｒｄｅ２０２号,,13,211,1870013,,,,,,,2025-05-09,1,,,,,リコス,0
700,3020001162669,新規,0,2025-05-09,2025-05-09,株式会社禊,,株式会社,神奈川県,横浜市西区,北幸２丁目１０番４８号むつみビル３階,,14,103,2200004,,,,,,,2025-05-09,1,,,,,ミソギ,0
701,3020001162743,新規,0,2025-05-09,2025-05-09,株式会社Ｃｅｈａ　Ｊａｐａｎ,,株式会社,神奈川県,横浜市青葉区,田奈町１８番地４２,,14,117,2270064,,,,,,,2025-05-09,1,,,,,チェハジャパン,0
702,3020001162751,新規,0,2025-05-09,2025-05-09,株式会社Ｏｚｏｏ,,株式会社,神奈川県,横浜市南区,白金町１丁目６番地３０１号,,14,105,2320005,,,,,,,2025-05-09,1,,,,,オズ,0
703,3020001162768,新規,0,2025-05-09,2025-05-09,株式会社ダイヤアソシエイツ,,株式会社,神奈川県,横浜市神奈川区,台町１０番地１５,,14,102,2210834,,,,,,,2025-05-09,1,,,,,ダイヤアソシエイツ,0
708,3021001085158,新規,0,2025-05-09,2025-05-09,木之美商事株式会社,,株式会社,神奈川県,大和市,大和南２丁目２番４－８０２号,,14,213,2420016,,,,,,,2025-05-09,1,,,,,コノミショウジ,0
709,3021001085166,新規,0,2025-05-09,2025-05-09,株式会社大栄建設,,株式会社,神奈川県,大和市,代官２丁目８－２０,,14,213,2420025,,,,,,,2025-05-09,1,,,,,ダイエイケンセツ,0
710,3021001085190,新規,0,2025-05-09,2025-05-09,株式会社エンセリオ,,株式会社,神奈川県,平塚市,錦町１６番２３号カストラ湘南３Ｆ,,14,203,2540044,,,,,,,2025-05-09,1,,,,,エンセリオ,0
725,3030001166181,新規,0,2025-05-09,2025-05-09,ＬＥＮＴＯ株式会社,,株式会社,埼玉県,川口市,南鳩ヶ谷３丁目１１番２０－８号,,11,203,3340013,,,,,,,2025-05-09,1,,,,,レント,0
726,3030001166347,新規,0,2025-05-09,2025-05-09,株式会社大福,,株式会社,埼玉県,越谷市,大沢３丁目２１番３３号,,11,222,3430025,,,,,,,2025-05-09,1,,,,,ダイフク,0
727,3030001166355,新規,0,2025-05-09,2025-05-09,株式会社ブリジット,,株式会社,埼玉県,さいたま市緑区,美園３丁目８番地１２－１０８,,11,109,3360967,,,,,,,2025-05-09,1,,,,,ブリジット,0
728,3030001166438,新規,0,2025-05-09,2025-05-09,株式会社双建仮設,,株式会社,埼玉県,吉川市,美南１丁目３６番地４イルソーレ吉川美南ヴェルデ２０２号室,,11,243,3420038,,,,,,,2025-05-09,1,,,,,ソウケンカセツ,0
735,3030003026697,新規,0,2025-05-09,2025-05-09,合同会社明来,,合同会社,埼玉県,ふじみ野市,本新田３番１５号,,11,245,3560018,,,,,,,2025-05-09,1,,,,,ミンライ,0
737,3040001138618,新規,0,2025-05-09,2025-05-09,ＴＢＩ株式会社,,株式会社,千葉県,市原市,ちはら台東２丁目２０番地２ファミールハイツ１０号５０４,,12,219,2900141,,,,,,,2025-05-09,1,,,,,ティービーアイ,0
738,3040001138626,新規,0,2025-05-09,2025-05-09,株式会社ＷＩＮＧ,,株式会社,千葉県,千葉市中央区,青葉町１２４７番地７,,12,101,2600852,,,,,,,2025-05-09,1,,,,,ウイング,0
739,3040001138642,新規,0,2025-05-09,2025-05-09,株式会社カザハヤセッケイ,,株式会社,千葉県,勝浦市,植野７２０番地,,12,218,2995265,,,,,,,2025-05-09,1,,,,,カザハヤセッケイ,0
741,3040003027521,新規,0,2025-05-09,2025-05-09,ＪＩＮ速ｓｖｃ合同会社,,合同会社,千葉県,八千代市,緑が丘西２丁目１２番地６エクセル八千代緑が丘３０５号,,12,221,2760040,,,,,,,2025-05-09,1,,,,,ジンソクサービス,0
744,3050003009246,新規,0,2025-05-09,2025-05-09,合同会社咲彩,,合同会社,茨城県,日立市,大久保町２丁目１１－２８－２０２,,08,202,3160012,,,,,,,2025-05-09,1,,,,,サアヤ,0
745,3050005013626,新規,0,2025-05-09,2025-05-09,一般社団法人ＴＯＲＩＯＳ．Ｔ,,その他の設立登記法人,茨城県,ひたちなか市,大字後台４６０番地４５９,,08,221,3120031,,,,,,,2025-05-09,1,,,,,トリオスティー,0
749,3070001042924,新規,0,2025-05-09,2025-05-09,株式会社パワーズ,,株式会社,群馬県,前橋市,朝倉町１丁目８番地１２三樹ハイツ朝倉３階,,10,201,3710811,,,,,,,2025-05-09,1,,,,,,0
751,3070003005920,新規,0,2025-05-09,2025-05-09,Ｎｏｍａｄ　Ｆａｃｔｏｒｙ合同会社,,合同会社,群馬県,前橋市,天川原町１丁目２－１８クレストビル２０１,,10,201,3710803,,,,,,,2025-05-09,1,,,,,,0
756,3100001038588,新規,0,2025-05-09,2025-05-09,株式会社ひろはし電器サービス,,株式会社,長野県,上高井郡小布施町,大字小布施９６番地５,,20,541,3810201,,,,,,,2025-05-09,1,,,,,ヒロハシデンキサービス,0
771,3120001275072,新規,0,2025-05-09,2025-05-09,青山株式会社,,株式会社,大阪府,大阪市城東区,関目５丁目１９番９号関目花博公館１０７Ａ,,27,118,5360008,,,,,,,2025-05-09,1,,,,,アオヤマ,0
772,3120001275188,新規,0,2025-05-09,2025-05-09,株式会社農村日和,,株式会社,大阪府,大阪市中央区,平野町３丁目３番１０号浅野ビル８Ｆ,,27,128,5410046,,,,,,,2025-05-09,1,,,,,ノウソンビヨリ,0
773,3120001275213,新規,0,2025-05-09,2025-05-09,株式会社リメイク,,株式会社,大阪府,大阪市中央区,北新町４番１号谷町プラザビル１階,,27,128,5400023,,,,,,,2025-05-09,1,,,,,リメイク,0
774,3120001275238,新規,0,2025-05-09,2025-05-09,雨静株式会社,,株式会社,大阪府,大阪市淀川区,西宮原３丁目２－１－５２０号,,27,123,5320004,,,,,,,2025-05-09,1,,,,,ウセイ,0
775,3120001275246,新規,0,2025-05-09,2025-05-09,ｃｈｒｏｍａｔｉｃ株式会社,,株式会社,大阪府,大阪市中央区,南船場３丁目２番２２号おおきに南船場ビル２０５,,27,128,5420081,,,,,,,2025-05-09,1,,,,,クロマティック,0
776,3120001275262,新規,0,2025-05-09,2025-05-09,株式会社エバーグリーン,,株式会社,大阪府,大阪市西区,立売堀１丁目８番１号,,27,106,5500012,,,,,,,2025-05-09,1,,,,,エバーグリーン,0
777,3120001275279,新規,0,2025-05-09,2025-05-09,百陽株式会社,,株式会社,大阪府,大阪市中央区,南船場３丁目２番２２号おおきに南船場ビル２０５,,27,128,5420081,,,,,,,2025-05-09,1,,,,,モモハル,0
778,3120001275345,新規,0,2025-05-09,2025-05-09,株式会社菅原商店,,株式会社,大阪府,大阪市東住吉区,今林１丁目２番６８号大阪市中央卸売市場東部市場内,,27,121,5460001,,,,,,,2025-05-09,1,,,,,スガハラショウテン,0
779,3120001275361,新規,0,2025-05-09,2025-05-09,Ｄ＆Ｎ株式会社,,株式会社,大阪府,大阪市東淀川区,菅原７丁目１０番４号淡路パンション１３号室,,27,114,5330022,,,,,,,2025-05-09,1,,,,,ディーアンドエヌ,0
780,3120001275477,新規,0,2025-05-09,2025-05-09,株式会社ブルーミング,,株式会社,大阪府,大阪市中央区,南船場４丁目７番２１号,,27,128,5420081,,,,,,,2025-05-09,1,,,,,ブルーミング,0
786,3120101071636,新規,0,2025-05-09,2025-05-09,株式会社ＳＨ,,株式会社,大阪府,堺市中区,八田南之町３３０番地７,,27,142,5998263,,,,,,,2025-05-09,1,,,,,エスエイチ,0
789,3122001039192,新規,0,2025-05-09,2025-05-09,有栄株式会社,,株式会社,大阪府,東大阪市,若江西新町４丁目６番１０－１０３号,,27,227,5780944,,,,,,,2025-05-09,1,,,,,ユウエイ,0
794,3130001079621,新規,0,2025-05-09,2025-05-09,株式会社苔泉堂,,株式会社,京都府,京都市北区,紫竹下高才町４４,,26,101,6038114,,,,,,,2025-05-09,1,,,,,タイセンドウ,0
795,3130003010435,新規,0,2025-05-09,2025-05-09,合同会社井上工業,,合同会社,京都府,福知山市,大江町金屋９０５番地の２,,26,201,6200303,,,,,,,2025-05-09,1,,,,,イノウエコウギョウ,0
796,3130005017362,新規,0,2025-05-09,2025-05-09,一般社団法人ＡＲＴ＆ＨＥＡＬＴＨきょうと,,その他の設立登記法人,京都府,京都市左京区,高野西開町１番地第２くめマンション４－８,,26,103,6068103,,,,,,,2025-05-09,1,,,,,アートアンドヘルスキョウト,0
800,3140001138392,新規,0,2025-05-09,2025-05-09,株式会社Ｓ＆ＡＡ環境ソリューションズ,,株式会社,兵庫県,芦屋市,山手町１４番２号,,28,206,6590096,,,,,,,2025-05-09,1,,,,,エスアンドエーエーソリューションズ,0
801,3140001138401,新規,0,2025-05-09,2025-05-09,株式会社Ｒｏｏｆｅｒ’ｓ,,株式会社,兵庫県,姫路市,豊富町豊富４４７番地１,,28,201,6792123,,,,,,,2025-05-09,1,,,,,ルーファーズ,0
802,3140001138509,新規,0,2025-05-09,2025-05-09,初志株式会社,,株式会社,兵庫県,神戸市中央区,熊内町４丁目６番１号,,28,110,6510056,,,,,,,2025-05-09,1,,,,,ショシ,0
803,3140001138533,新規,0,2025-05-09,2025-05-09,株式会社にしきた不動産,,株式会社,兵庫県,西宮市,北昭和町３番２－３０１号,,28,204,6620833,,,,,,,2025-05-09,1,,,,,ニシキタフドウサン,0
810,3150005009696,新規,0,2025-05-09,2025-05-09,一般社団法人日本フォークリフト運転技能協会,,その他の設立登記法人,奈良県,生駒市,俵口町１０１４番地１,,29,209,6300243,,,,,,,2025-05-09,1,,,,,ニホンフォークリフトウンテンギノウキョウカイ,0
811,3160001026744,新規,0,2025-05-09,2025-05-09,ＴＯＲＡ　ＴＥＣ株式会社,,株式会社,滋賀県,大津市,二本松４番３６号,,25,201,5200021,,,,,,,2025-05-09,1,,,,,,0
815,3170005007153,新規,0,2025-05-09,2025-05-09,一般社団法人きのくに芸術文化振興協会,,その他の設立登記法人,和歌山県,東牟婁郡串本町,串本１８０１番地,,30,428,6493503,,,,,,,2025-05-09,1,,,,,キノクニゲイジュツブンカシンコウキョウカイ,0
823,3180001166670,新規,0,2025-05-09,2025-05-09,株式会社オカムラ・エステートサービス,,株式会社,愛知県,名古屋市中区,栄５丁目５番３１号第２能楽ビル３０１号,,23,106,4600008,,,,,,,2025-05-09,1,,,,,オカムラエステートサービス,0
824,3180001166687,新規,0,2025-05-09,2025-05-09,株式会社Ｍｅｒｉｔ,,株式会社,愛知県,名古屋市緑区,鳴海町字姥子山２２番地２８６,,23,114,4580828,,,,,,,2025-05-09,1,,,,,メリット,0
830,3180003028448,新規,0,2025-05-09,2025-05-09,合同会社サクラ商会,,合同会社,愛知県,春日井市,勝川町６丁目１５１番地ＬＳＰ勝川２－９０６,,23,206,4860945,,,,,,,2025-05-09,1,,,,,サクラショウカイ,0
834,3180301039790,新規,0,2025-05-09,2025-05-09,ＢｅｅＬｉｖｒｅ株式会社,,株式会社,愛知県,西尾市,吉良町吉田東中浜５０番地２,,23,213,4440516,,,,,,,2025-05-09,1,,,,,ビリーバー,0
836,3180303006566,新規,0,2025-05-09,2025-05-09,メディカルサロンズ陽心合同会社,,合同会社,愛知県,豊橋市,野依町字東屋敷３３番地２０,,23,201,4418124,,,,,,,2025-05-09,1,,,,,メディカルサロンズヨウシン,0
837,3190001032203,新規,0,2025-05-09,2025-05-09,株式会社ＴＥＮＴ,,株式会社,三重県,名張市,栄町２９３５番地２０,,24,208,5180719,,,,,,,2025-05-09,1,,,,,テント,0
838,3190003005017,新規,0,2025-05-09,2025-05-09,合同会社貴公子,,合同会社,三重県,桑名市,高塚町６丁目５６番地,00139072,24,205,5110818,,,,,,,2025-05-09,1,,,,,キコウシ,0
839,3190005012052,新規,0,2025-05-09,2025-05-09,一般社団法人ＵｍｍａｈＭｕｓｌｉｍＭｉｅＩｎｄｏｎｅｓｉａ,,その他の設立登記法人,三重県,四日市市,西浦１丁目１０番２０号,,24,202,5100071,,,,,,,2025-05-09,1,,,,,ウマームスリムミエインドネシア,0
841,3200001043735,新規,0,2025-05-09,2025-05-09,ＮＲＭ株式会社,,株式会社,岐阜県,瑞穂市,横屋６５番地１３,,21,216,5010321,,,,,,,2025-05-09,1,,,,,エヌアールエム,0
842,3200001043743,新規,0,2025-05-09,2025-05-09,株式会社ＳＲ,,株式会社,岐阜県,美濃市,生櫛１６１２番地５３,,21,207,5013756,,,,,,,2025-05-09,1,,,,,エスアール,0
843,3200003006814,新規,0,2025-05-09,2025-05-09,合同会社アドバンスキャリー,,合同会社,岐阜県,岐阜市,野一色６丁目９番７－１号,,21,201,5008226,,,,,,,2025-05-09,1,,,,,アドバンスキャリー,0
849,3230001020896,新規,0,2025-05-09,2025-05-09,リバイバル株式会社,,株式会社,富山県,小矢部市,法楽寺２１２６番地,,16,209,9320027,,,,,,,2025-05-09,1,,,,,リバイバル,0
850,3230001020905,新規,0,2025-05-09,2025-05-09,ＮＥＷ　ＬＩＧＨＴ株式会社,,株式会社,富山県,砺波市,東石丸３９７番地５,,16,208,9391302,,,,,,,2025-05-09,1,,,,,ニューライト,0
852,3240001064901,新規,0,2025-05-09,2025-05-09,株式会社秀栄興業,,株式会社,広島県,呉市,山手１丁目９番４４号,,34,202,7370814,,,,,,,2025-05-09,1,,,,,シュウエイコウギョウ,0
853,3240001064918,新規,0,2025-05-09,2025-05-09,株式会社Ｆａｎｄｆｉｖｅ．,,株式会社,広島県,広島市西区,井口明神１丁目１５－２－１５０４,,34,104,7330841,,,,,,,2025-05-09,1,,,,,エフアンドファイブ,0
854,3240001064926,新規,0,2025-05-09,2025-05-09,株式会社河岸興産,,株式会社,広島県,安芸郡府中町,八幡４丁目２番１３号,,34,302,7350012,,,,,,,2025-05-09,1,,,,,カワギシコウサン,0
857,3250001021133,新規,0,2025-05-09,2025-05-09,株式会社ＯＷＬ,,株式会社,山口県,周南市,大内町４番１４－１３０４号,,35,215,7450824,,,,,,,2025-05-09,1,,,,,アウル,0
858,3250001021141,新規,0,2025-05-09,2025-05-09,株式会社大重工業,,株式会社,山口県,柳井市,柳井４８１８番地８グランリーブルＡ２０１号,,35,212,7420021,,,,,,,2025-05-09,1,,,,,オオシゲコウギョウ,0
860,3280001009423,新規,0,2025-05-09,2025-05-09,株式会社リズム,,株式会社,島根県,出雲市,松寄下町３２５番地７,,32,203,6930052,,,,,,,2025-05-09,1,,,,,リズム,0
863,3290001109924,新規,0,2025-05-09,2025-05-09,Ｒｉｃｏ　Ｄｅｓｉｇｎ株式会社,,株式会社,福岡県,福岡市博多区,博多駅南３丁目１９番１７号,,40,132,8120016,,,,,,,2025-05-09,1,,,,,リコデザイン,0
864,3290001109965,新規,0,2025-05-09,2025-05-09,株式会社ＳＴＵＤＩＯ　ＭＯＵＮ,,株式会社,福岡県,福岡市中央区,今川１丁目１６－１６,,40,133,8100054,,,,,,,2025-05-09,1,,,,,スタジオマウン,0
865,3290001109973,新規,0,2025-05-09,2025-05-09,株式会社わびさび,,株式会社,福岡県,福岡市早良区,百道浜１丁目３番７０号ザ・レジデンシャルスイート福岡４３０１,,40,137,8140001,,,,,,,2025-05-09,1,,,,,ワビサビ,0
867,3290003016771,新規,0,2025-05-09,2025-05-09,合同会社１９１ｃｏｎｔｅｎｔｓ,,合同会社,福岡県,福岡市中央区,天神４丁目６－２８天神ファーストビル７階,,40,133,8100001,,,,,,,2025-05-09,1,,,,,イチキュウイチコンテンツ,0
883,3360001035114,新規,0,2025-05-09,2025-05-09,里海珊瑚プロジェクト株式会社,,株式会社,沖縄県,那覇市,泉崎１丁目２１－３那覇泉崎ビル,,47,201,9000021,,,,,,,2025-05-09,1,,,,,サトウミサンゴプロジェクト,0
884,3360001035130,新規,0,2025-05-09,2025-05-09,株式会社Ｔｈｅ　Ｇｒａｎｄ　Ｏ　ｔｏ　Ｕ,,株式会社,沖縄県,那覇市,鏡原町１２‐６,,47,201,9010151,,,,,,,2025-05-09,1,,,,,ザグランドオートゥーユー,0
885,3360001035171,新規,0,2025-05-09,2025-05-09,株式会社エシェルーオ,,株式会社,沖縄県,豊見城市,字豊崎１番地１１７７プレミスト豊崎シーアンドパークス１５０４号,,47,212,9010225,,,,,,,2025-05-09,1,,,,,エシェルーオ,0
886,3360005007225,新規,0,2025-05-09,2025-05-09,一般社団法人苧麻協会,,その他の設立登記法人,沖縄県,那覇市,泉崎２丁目３番３号オフィス泉崎２－Ａ,,47,201,9000021,,,,,,,2025-05-09,1,,,,,チョマキョウカイ,0
887,3370001052538,新規,0,2025-05-09,2025-05-09,株式会社住建ライフサポート,,株式会社,宮城県,仙台市泉区,八乙女４丁目１１番８号セジュール八乙女ＭＥ－１１０１,,04,105,9813112,,,,,,,2025-05-09,1,,,,,ジュウケンライフサポート,0
889,3370005010954,新規,0,2025-05-09,2025-05-09,一般社団法人ｏｎｅ　Ｅａｒｔｈ,,その他の設立登記法人,宮城県,塩竈市,本町１１番２号,,04,203,9850052,,,,,,,2025-05-09,1,,,,,ワンアース,0
894,3380001035302,新規,0,2025-05-09,2025-05-09,株式会社瀧田商事,,株式会社,福島県,郡山市,片平町字西大町３２番地,,07,203,9630211,,,,,,,2025-05-09,1,,,,,タキタショウジ,0
903,3410003004103,新規,0,2025-05-09,2025-05-09,合同会社Ｒｅｂｉｒｔｈ,,合同会社,秋田県,由利本荘市,吉沢字上林８１番地,,05,210,0150324,,,,,,,2025-05-09,1,,,,,リバース,0
904,3420003003112,新規,0,2025-05-09,2025-05-09,合同会社ＡＦネット,,合同会社,青森県,平川市,館田前田１１３番地２,,02,210,0360155,,,,,,,2025-05-09,1,,,,,エーエフネット,0
906,3430001094342,新規,0,2025-05-09,2025-05-09,株式会社ＦＯＸ,,株式会社,北海道,沙流郡日高町,富川西３丁目２番２０号,,01,601,0550007,,,,,,,2025-05-09,1,,,,,フォックス,0
907,3430001094359,新規,0,2025-05-09,2025-05-09,株式会社ランドプラン,,株式会社,北海道,札幌市東区,北三十八条東４丁目１番１２号,,01,103,0070838,,,,,,,2025-05-09,1,,,,,ランドプラン,0
909,3430003017607,新規,0,2025-05-09,2025-05-09,全日雪合同会社,,合同会社,北海道,札幌市手稲区,新発寒六条１丁目１－３０第二グランドハイツ１０１号室,,01,109,0060806,,,,,,,2025-05-09,1,,,,,ゼンニチユキ,0
910,3430003017615,新規,0,2025-05-09,2025-05-09,合同会社ふ川,,合同会社,北海道,苫小牧市,表町２丁目１番２２号,,01,213,0530022,,,,,,,2025-05-09,1,,,,,フカワ,0
911,3430003017648,新規,0,2025-05-09,2025-05-09,合同会社ＭＲＴカンパニー,,合同会社,北海道,三笠市,若草町３９８番地５,,01,222,0682107,,,,,,,2025-05-09,1,,,,,エムアールティーカンパニー,0
918,3480001012828,新規,0,2025-05-09,2025-05-09,株式会社ＭＥＩＫＯ,,株式会社,徳島県,阿南市,羽ノ浦町宮倉羽ノ浦居内１３０番地４,,36,204,7791102,,,,,,,2025-05-09,1,,,,,メイコ,0
932,4010001254573,新規,0,2025-05-09,2025-05-09,株式会社Ｇｕｍｐ,,株式会社,東京都,千代田区,九段南１丁目５番６号りそな九段ビル５Ｆ・ＫＳフロア,,13,101,1020074,,,,,,,2025-05-09,1,,,,,ガンプ,0
934,4010003047257,新規,0,2025-05-09,2025-05-09,ケア・クチュール合同会社,,合同会社,東京都,中央区,日本橋室町１丁目１１番１２号日本橋水野ビル７階,,13,102,1030022,,,,,,,2025-05-09,1,,,,,ケアクチュール,0
936,4010101016667,新規,0,2025-05-09,2025-05-09,株式会社ＫＲＰ,,株式会社,東京都,八王子市,大塚１１２番地９,,13,201,1920352,,,,,,,2025-05-09,1,,,,,ケーアールピー,0
937,4010103002566,新規,0,2025-05-09,2025-05-09,ＭＡＩＬＥ合同会社,,合同会社,東京都,八王子市,石川町１４０９番地２－１０５号,,13,201,1920032,,,,,,,2025-05-09,1,,,,,マイレ,0
939,4010401189824,新規,0,2025-05-09,2025-05-09,株式会社フロンティア,,株式会社,東京都,港区,北青山１丁目３－３三橋ビル３階,,13,103,1070061,,,,,,,2025-05-09,1,,,,,フロンティア,0
940,4010401190055,新規,0,2025-05-09,2025-05-09,株式会社Ｅｌａｎ　Ｂｌａｎｃ,,株式会社,東京都,港区,南青山３丁目１番３６号青山丸竹ビル６Ｆ,,13,103,1070062,,,,,,,2025-05-09,1,,,,,エランブラン,0
941,4010401190071,新規,0,2025-05-09,2025-05-09,Ｈｕｍａｃｏｌｏｇｙ株式会社,,株式会社,東京都,港区,西新橋３丁目２４番８号山内ビル３階,,13,103,1050003,,,,,,,2025-05-09,1,,,,,ヒューマコロジー,0
942,4010401190154,新規,0,2025-05-09,2025-05-09,縁リアルエステート株式会社,,株式会社,東京都,港区,新橋５丁目３１番８号,,13,103,1050004,,,,,,,2025-05-09,1,,,,,エンリアルエステート,0
952,4010701047649,新規,0,2025-05-09,2025-05-09,株式会社アウェイズ,,株式会社,東京都,品川区,小山台１丁目４番５－２０９号,,13,109,1420061,,,,,,,2025-05-09,1,,,,,アウェイズ,0
954,4010801036114,新規,0,2025-05-09,2025-05-09,株式会社ウィスリー,,株式会社,東京都,大田区,中央７丁目５番１３号,,13,111,1430024,,,,,,,2025-05-09,1,,,,,ウィスリー,0
955,4010801036139,新規,0,2025-05-09,2025-05-09,株式会社イアビヤ,,株式会社,東京都,大田区,大森東３丁目１９－１０,,13,111,1430012,,,,,,,2025-05-09,1,,,,,イアビヤ,0
956,4010805003176,新規,0,2025-05-09,2025-05-09,一般社団法人リスクマネジメント・プラットフォーム,,その他の設立登記法人,東京都,大田区,中央５丁目２９番１号ネオハイツ・ヴェルビュー７号,,13,111,1430024,,,,,,,2025-05-09,1,,,,,リスクマネジメントプラットフォーム,0
959,4010901057324,新規,0,2025-05-09,2025-05-09,株式会社ＨＯＳＰＹ,,株式会社,東京都,世田谷区,太子堂４丁目３０番６号コディカスコティファースト１０３,,13,112,1540004,,,,,,,2025-05-09,1,,,,,ホスピィ,0
963,4010903009901,新規,0,2025-05-09,2025-05-09,合同会社Ｄａｚｚｌｅ,,合同会社,東京都,世田谷区,瀬田３丁目９番１９号カルミヤマンション１０１,,13,112,1580095,,,,,,,2025-05-09,1,,,,,ダズル,0
975,4011101111598,新規,0,2025-05-09,2025-05-09,フーリン株式会社,,株式会社,東京都,新宿区,歌舞伎町２丁目４５番１７号ＧＥＳＴ３３－５０１,,13,104,1600021,,,,,,,2025-05-09,1,,,,,フーリン,0
983,4011501032031,新規,0,2025-05-09,2025-05-09,辰川工機株式会社,,株式会社,東京都,荒川区,南千住３丁目２７－２浅草ビル５０８,,13,118,1160003,,,,,,,2025-05-09,1,,,,,タツカワコウキ,0
988,4011603004696,新規,0,2025-05-09,2025-05-09,机上空論合同会社,,合同会社,東京都,練馬区,練馬１丁目２０－８日建練馬ビル２Ｆ,,13,120,1760001,,,,,,,2025-05-09,1,,,,,キジョウノクウロン,0
997,4012403007113,新規,0,2025-05-09,2025-05-09,合同会社コモラボ,,合同会社,東京都,武蔵野市,中町１丁目７番７号オサダビル４Ｆ,,13,203,1800006,,,,,,,2025-05-09,1,,,,,コモラボ,0
1007,4020001162676,新規,0,2025-05-09,2025-05-09,株式会社ショパンナ,,株式会社,神奈川県,横浜市南区,井土ケ谷上町２２番２０号,,14,105,2320051,,,,,,,2025-05-09,1,,,,,ショパンナ,0
1008,4020001162718,新規,0,2025-05-09,2025-05-09,株式会社ホーリヤ,,株式会社,神奈川県,川崎市川崎区,四谷上町４番１９号,,14,131,2100828,,,,,,,2025-05-09,1,,,,,ホーリヤ,0
1009,4020001162750,新規,0,2025-05-09,2025-05-09,クレール株式会社,,株式会社,神奈川県,川崎市麻生区,下麻生３丁目４３番１９－１０１号,,14,137,2150022,,,,,,,2025-05-09,1,,,,,クレール,0
1010,4020001162791,新規,0,2025-05-09,2025-05-09,ＳＵＺＵＫＩＤ株式会社,,株式会社,神奈川県,横浜市栄区,上郷町２６９番地１３,,14,115,2470013,,,,,,,2025-05-09,1,,,,,スズキッド,0
1013,4020003028438,新規,0,2025-05-09,2025-05-09,Ｔａｆｆｙ合同会社,,合同会社,神奈川県,横浜市鶴見区,矢向３丁目３５番１９－１号,,14,101,2300001,,,,,,,2025-05-09,1,,,,,タフィー,0
1017,4021001085149,新規,0,2025-05-09,2025-05-09,株式会社リープスホールディングス,,株式会社,神奈川県,相模原市中央区,富士見６丁目１４番１５号,,14,152,2520236,,,,,,,2025-05-09,1,,,,,リープスホールディングス,0
1018,4021001085198,新規,0,2025-05-09,2025-05-09,株式会社湘北電工,,株式会社,神奈川県,相模原市中央区,陽光台４丁目１番１２号,,14,152,2520226,,,,,,,2025-05-09,1,,,,,ショウホクデンコウ,0
1031,4030001166313,新規,0,2025-05-09,2025-05-09,株式会社ＧＲＩＴ　ＵＰ,,株式会社,埼玉県,三郷市,戸ケ崎１丁目４４６番地,,11,237,3410044,,,,,,,2025-05-09,1,,,,,グリットアップ,0
1032,4030001166346,新規,0,2025-05-09,2025-05-09,株式会社ルリカラクサ,,株式会社,埼玉県,川越市,志多町１番地１２,,11,201,3500051,,,,,,,2025-05-09,1,,,,,ルリカラクサ,0
1033,4030001166412,新規,0,2025-05-09,2025-05-09,オールドエンジニアリング株式会社,,株式会社,埼玉県,川越市,大字石田６７９番地９,,11,201,3500837,,,,,,,2025-05-09,1,,,,,オールドエンジニアリング,0
1034,4030001166437,新規,0,2025-05-09,2025-05-09,株式会社ＭＩＮＡＴＣＨＥＬＬ,,株式会社,埼玉県,富士見市,大字勝瀬９４０番地２,,11,235,3540031,,,,,,,2025-05-09,1,,,,,ミナッチェル,0
1035,4030001166461,新規,0,2025-05-09,2025-05-09,本をつなぐ株式会社,,株式会社,埼玉県,草加市,西町１００１番地１２,,11,221,3400035,,,,,,,2025-05-09,1,,,,,ホンヲツナグ,0
1041,4030003026705,新規,0,2025-05-09,2025-05-09,合同会社Ｋ．Ｇ．ＯＮＥ,,合同会社,埼玉県,春日部市,下蛭田１９８番地１１,,11,214,3440043,,,,,,,2025-05-09,1,,,,,ケージーワン,0
1042,4030003026721,新規,0,2025-05-09,2025-05-09,合同会社でくらす,,合同会社,埼玉県,秩父郡東秩父村,大字坂本５５,,11,369,3550372,,,,,,,2025-05-09,1,,,,,デクラス,0
1043,4030003026754,新規,0,2025-05-09,2025-05-09,合同会社ＴＳＵＢＯＭＩコンサルティング,,合同会社,埼玉県,草加市,西町９５５番地５,,11,221,3400035,,,,,,,2025-05-09,1,,,,,ツボミコンサルティング,0
1046,4040001138617,新規,0,2025-05-09,2025-05-09,ＭＡＹＡ株式会社,,株式会社,千葉県,成田市,土屋４１１番地１,,12,211,2860021,,,,,,,2025-05-09,1,,,,,マヤ,0
1050,4040003027470,新規,0,2025-05-09,2025-05-09,ＣＯＭＦＯＲＴ　ＬＩＦＥ　Ｌａｂ合同会社,,合同会社,千葉県,松戸市,栄町６丁目３８７－４,,12,207,2710062,,,,,,,2025-05-09,1,,,,,コンフォートライフラボ,0
1055,4050001056636,新規,0,2025-05-09,2025-05-09,株式会社エコナ,,株式会社,茨城県,水戸市,けやき台３丁目２８番５－３０６号,,08,201,3100842,,,,,,,2025-05-09,1,,,,,エコナ,0
1056,4050001056644,新規,0,2025-05-09,2025-05-09,創研建設株式会社,,株式会社,茨城県,日立市,水木町２丁目３番８号サンヒルズ水木１Ｆ,,08,202,3160024,,,,,,,2025-05-09,1,,,,,ソウケンケンセツ,0
1058,4050003009245,新規,0,2025-05-09,2025-05-09,秋山合同会社,,合同会社,茨城県,常総市,大沢新田８１番地２,,08,211,3002745,,,,,,,2025-05-09,1,,,,,アキヤマ,0
1061,4070001042907,新規,0,2025-05-09,2025-05-09,株式会社アイズ,,株式会社,群馬県,高崎市,中尾町２６番地１,,10,202,3700001,,,,,,,2025-05-09,1,,,,,アイズ,0
1062,4070001042923,新規,0,2025-05-09,2025-05-09,株式会社ＴＯＰ,,株式会社,群馬県,太田市,原宿町３８９０番地,,10,205,3730071,,,,,,,2025-05-09,1,,,,,トップ,0
1066,4080103003319,新規,0,2025-05-09,2025-05-09,合同会社Ｒ‐Ｓ‐Ｔ,,合同会社,静岡県,熱海市,梅園町５番４号,,22,205,4130032,,,,,,,2025-05-09,1,,,,,アールエスティ,0
1090,4120001275047,新規,0,2025-05-09,2025-05-09,Ｍｕｊｉｍｏ株式会社,,株式会社,大阪府,大阪市阿倍野区,松崎町３丁目１３－２３コスモあべの坂ガーデンズ４１６,,27,119,5450053,,,,,,,2025-05-09,1,,,,,ムジモ,0
1091,4120001275212,新規,0,2025-05-09,2025-05-09,ＯＴＭ株式会社,,株式会社,大阪府,大阪市天王寺区,伶人町２－３１ＳＴＡＲＯｆｆｉｃｅ大阪天王寺北８階８０１号室,,27,109,5430061,,,,,,,2025-05-09,1,,,,,オーティーエム,0
1092,4120001275245,新規,0,2025-05-09,2025-05-09,雅道鶴香株式会社,,株式会社,大阪府,大阪市西成区,津守３丁目５番１０号,,27,122,5570062,,,,,,,2025-05-09,1,,,,,ガドウカクコウ,0
1096,4120003029310,新規,0,2025-05-09,2025-05-09,丹桂合同会社,,合同会社,大阪府,大阪市東住吉区,駒川４丁目４番１７号,,27,121,5460043,,,,,,,2025-05-09,1,,,,,タンケイ,0
1097,4120003029319,新規,0,2025-05-09,2025-05-09,合同会社ＬＯＵＬＵ,,合同会社,大阪府,大阪市平野区,平野元町５番５号,,27,126,5470047,,,,,,,2025-05-09,1,,,,,ロウル,0
1098,4120003029327,新規,0,2025-05-09,2025-05-09,合同会社ＲＰＭデータワークス,,合同会社,大阪府,大阪市中央区,南船場３丁目２番２２号おおきに南船場ビル２０５,,27,128,5420081,,,,,,,2025-05-09,1,,,,,アールピーエムデータワークス,0
1099,4120101071643,新規,0,2025-05-09,2025-05-09,拓微株式会社,,株式会社,大阪府,岸和田市,藤井町１丁目２０番２２号,,27,202,5960046,,,,,,,2025-05-09,1,,,,,タクビ,0
1100,4120101071651,新規,0,2025-05-09,2025-05-09,株式会社サーマルワークス,,株式会社,大阪府,大阪狭山市,池尻中２丁目１４番２１号,,27,231,5890007,,,,,,,2025-05-09,1,,,,,サーマルワークス,0
1105,4122001039183,新規,0,2025-05-09,2025-05-09,株式会社巴幸搬,,株式会社,大阪府,四條畷市,岡山３丁目８番１６号,,27,229,5750002,,,,,,,2025-05-09,1,,,,,トモエコウハン,0
1106,4122001039191,新規,0,2025-05-09,2025-05-09,株式会社Ｅｕｃａｌｙ　Ｄｅｓｉｇｎ,,株式会社,大阪府,東大阪市,豊浦町１６番１８号,,27,227,5798031,,,,,,,2025-05-09,1,,,,,ユーカリデザイン,0
1107,4122001039200,新規,0,2025-05-09,2025-05-09,泰久商事株式会社,,株式会社,大阪府,東大阪市,松原２丁目２番２５号,,27,227,5780922,,,,,,,2025-05-09,1,,,,,タクショウジ,0
1121,4130003010327,新規,0,2025-05-09,2025-05-09,つむぎ合同会社,,合同会社,京都府,京都市下京区,烏丸通四条下る水銀屋町６２０番地ＣＯＣＯＮ烏丸４階シティラボ内,,26,106,6008411,,,,,,,2025-05-09,1,,,,,ツムギ,0
1126,4140001138441,新規,0,2025-05-09,2025-05-09,株式会社ＭＳＧ,,株式会社,兵庫県,宝塚市,安倉北２丁目１１番５号,,28,214,6650821,,,,,,,2025-05-09,1,,,,,エムエスジー,0
1128,4140003022024,新規,0,2025-05-09,2025-05-09,Ｔｅｎｄｅｒ合同会社,,合同会社,兵庫県,三田市,高次１丁目１番１０号ホワイトヒルＣ棟４０２号,,28,219,6691512,,,,,,,2025-05-09,1,,,,,タンドル,0
1133,4170001018616,新規,0,2025-05-09,2025-05-09,株式会社なかそ塗装,,株式会社,和歌山県,東牟婁郡那智勝浦町,大字狗子ノ川１５７番地４７,,30,421,6495313,,,,,,,2025-05-09,1,,,,,ナカソトソウ,0
1134,4170003002196,新規,0,2025-05-09,2025-05-09,合同会社あい,,合同会社,和歌山県,有田郡湯浅町,大字栖原５５‐１０,,30,361,6430005,,,,,,,2025-05-09,1,,,,,アイ,0
1136,4170005007152,新規,0,2025-05-09,2025-05-09,一般社団法人永井友治郎きみゑ愛育む,,その他の設立登記法人,和歌山県,和歌山市,小松原６丁目１番１９号,,30,201,6408265,,,,,,,2025-05-09,1,,,,,ナガイトモジロウキミエアイイクム,0
1144,4180001166653,新規,0,2025-05-09,2025-05-09,株式会社ＲＥＢＯＯＴ,,株式会社,愛知県,名古屋市中村区,名駅４丁目２４番５号第２森ビル４０１,,23,105,4500002,,,,,,,2025-05-09,1,,,,,リブート,0
1145,4180001166703,新規,0,2025-05-09,2025-05-09,株式会社焚き火の会,,株式会社,愛知県,名古屋市守山区,天子田１丁目１２０１番地の１５,,23,113,4630037,,,,,,,2025-05-09,1,,,,,タキビノカイ,0
1146,4180001166711,新規,0,2025-05-09,2025-05-09,株式会社ＬＵＣＫＹ　ＳＴＡＲ,,株式会社,愛知県,津島市,愛宕町２丁目４番地３,,23,208,4960036,,,,,,,2025-05-09,1,,,,,ラッキースター,0
1148,4180005021094,新規,0,2025-05-09,2025-05-09,特定非営利活動法人アクトエリア,,その他の設立登記法人,愛知県,名古屋市中区,栄２丁目９番５号アーク栄東海ビル９階,,23,106,4600008,,,,,,,2025-05-09,1,,,,,アクトエリア,0
1152,4180303006565,新規,0,2025-05-09,2025-05-09,合同会社Ｏｒａｎｇｅ,,合同会社,愛知県,豊橋市,野依台１丁目１９番地３,,23,201,4418125,,,,,,,2025-05-09,1,,,,,オレンジ,0
1153,4190001032202,新規,0,2025-05-09,2025-05-09,株式会社マーヴェリックカーズ,,株式会社,三重県,松阪市,美濃田町２０番地,,24,204,5152344,,,,,,,2025-05-09,1,,,,,マーヴェリックカーズ,0
1156,4190005012051,新規,0,2025-05-09,2025-05-09,一般社団法人ＭＩＲＡＩＥ,,その他の設立登記法人,三重県,桑名市,大字能部６０３番地,,24,205,5110931,,,,,,,2025-05-09,1,,,,,ミライエ,0
1158,4200001043742,新規,0,2025-05-09,2025-05-09,ＭＴＫ株式会社,,株式会社,岐阜県,多治見市,小田町６丁目１番地,,21,204,5070023,,,,,,,2025-05-09,1,,,,,エムティーケー,0
1161,4210001020162,新規,0,2025-05-09,2025-05-09,株式会社ＴＯＭＯＲＵ,,株式会社,福井県,福井市,渡町３０５番地,,18,201,9188066,,,,,,,2025-05-09,1,,,,,トモル,0
1168,4240001064925,新規,0,2025-05-09,2025-05-09,株式会社アルファ,,株式会社,広島県,広島市南区,北大河町１０番１３号,,34,103,7340042,,,,,,,2025-05-09,1,,,,,アルファ,0
1170,4240003007188,新規,0,2025-05-09,2025-05-09,八尾萬合同会社,,合同会社,広島県,安芸高田市,八千代町佐々井字奥寒田１０２５３番１５１,,34,214,7310303,,,,,,,2025-05-09,1,,,,,ヤオマン,0
1171,4240003007196,新規,0,2025-05-09,2025-05-09,合同会社ＯＢＵ,,合同会社,広島県,福山市,野上町２丁目３番２５－１００３号,,34,207,7200815,,,,,,,2025-05-09,1,,,,,オービーユー,0
1175,4260003005173,新規,0,2025-05-09,2025-05-09,クスルランナー合同会社,,合同会社,岡山県,岡山市北区,西辛川９６２番地１,,33,101,7011213,,,,,,,2025-05-09,1,,,,,クスルランナー,0
1180,4290001109948,新規,0,2025-05-09,2025-05-09,株式会社エムビー興産,,株式会社,福岡県,糟屋郡粕屋町,内橋東２丁目１２番３号,,40,349,8112320,,,,,,,2025-05-09,1,,,,,エムビーコウサン,0
1181,4290001109989,新規,0,2025-05-09,2025-05-09,株式会社デープブレス,,株式会社,福岡県,福岡市中央区,舞鶴３丁目６番７号,,40,133,8100073,,,,,,,2025-05-09,1,,,,,デープブレス,0
1183,4290003016787,新規,0,2025-05-09,2025-05-09,合同会社ＮＯＡＬＯ,,合同会社,福岡県,福岡市中央区,天神４丁目６－２８天神ファーストビル７階,,40,133,8100001,,,,,,,2025-05-09,1,,,,,ノアロ,0
1185,4290801031533,新規,0,2025-05-09,2025-05-09,株式会社トータルプロデュースＨ２,,株式会社,福岡県,北九州市八幡西区,南鷹見町８番１４－２０２号,,40,109,8070833,,,,,,,2025-05-09,1,,,,,トータルプロデュースエイチツー,0
1186,4300003002281,新規,0,2025-05-09,2025-05-09,合同会社かんろ,,合同会社,佐賀県,佐賀市,駅南本町１番１－１３０３号アーサー佐賀駅前プレミアムステージ,,41,201,8400816,,,,,,,2025-05-09,1,,,,,カンロ,0
1188,4310001019599,新規,0,2025-05-09,2025-05-09,株式会社ＯＶＡＴＩＯＮ,,株式会社,長崎県,長崎市,本石灰町５－９－１Ｆ,,42,201,8500901,,,,,,,2025-05-09,1,,,,,オベーション,0
1190,4310003005011,新規,0,2025-05-09,2025-05-09,ＧｒｉｔＬａｂ合同会社,,合同会社,長崎県,長崎市,本原町３５番３３－１００２号,,42,201,8528133,,,,,,,2025-05-09,1,,,,,グリットラボ,0
1193,4330001033128,新規,0,2025-05-09,2025-05-09,ＲＥＩＣＨＩ株式会社,,株式会社,熊本県,上益城郡益城町,大字福富６８７番１号,,43,443,8612235,,,,,,,2025-05-09,1,,,,,レイチ,0
1194,4330001033160,新規,0,2025-05-09,2025-05-09,エスプラス株式会社,,株式会社,熊本県,熊本市中央区,国府３丁目２５番２１号,,43,101,8620949,,,,,,,2025-05-09,1,,,,,エスプラス,0
1195,4330001033185,新規,0,2025-05-09,2025-05-09,株式会社ＳＫスマイル,,株式会社,熊本県,熊本市中央区,下通１丁目１１番２１号ロフティ西銀座会館ビル８Ｆ,,43,101,8600807,,,,,,,2025-05-09,1,,,,,エスケースマイル,0
1196,4330001033193,新規,0,2025-05-09,2025-05-09,株式会社ＬＩＮＫ,,株式会社,熊本県,八代市,永碇町６８９番地１,,43,202,8660885,,,,,,,2025-05-09,1,,,,,リンク,0
1202,4340001027302,新規,0,2025-05-09,2025-05-09,株式会社Ｋａｒａｔｈ,,株式会社,鹿児島県,南さつま市,加世田ハーモニー５番地５,,46,220,8970009,,,,,,,2025-05-09,1,,,,,カラス,0
1203,4340001027310,新規,0,2025-05-09,2025-05-09,株式会社Ｓｕｎオーシャン,,株式会社,鹿児島県,出水郡長島町,諸浦１６２５番地,,46,404,8991403,,,,,,,2025-05-09,1,,,,,サンオーシャン,0
1206,4360001035162,新規,0,2025-05-09,2025-05-09,株式会社ＤＥＮＩ　ＴＲＡＤＩＮＧ,,株式会社,沖縄県,名護市,大南２丁目１番３１号リアンコネクト２０３号室,,47,209,9050015,,,,,,,2025-05-09,1,,,,,デニートレーディング,0
1210,4370001052553,新規,0,2025-05-09,2025-05-09,株式会社山達建設,,株式会社,宮城県,大崎市,古川境野宮字前田１４５番地７,,04,215,9896128,,,,,,,2025-05-09,1,,,,,ヤマタツケンセツ,0
1214,4390001017983,新規,0,2025-05-09,2025-05-09,株式会社米鶴酒造農業部,,株式会社,山形県,東置賜郡高畠町,大字二井宿１０７６番地,,06,381,9920301,,,,,,,2025-05-09,1,,,,,ヨネツルシュゾウノウギョウブ,0
1218,4410003004102,新規,0,2025-05-09,2025-05-09,合同会社ＫＴＭ,,合同会社,秋田県,潟上市,昭和大久保字小橋３９番地,,05,211,0181401,,,,,,,2025-05-09,1,,,,,ケーティーエム,0
1223,4430001094341,新規,0,2025-05-09,2025-05-09,株式会社テイク・テック,,株式会社,北海道,札幌市中央区,南二条西５丁目３１番１号ＲＭＢｌｄ．７０１,,01,101,0600062,,,,,,,2025-05-09,1,,,,,テイクテック,0
1224,4430001094382,新規,0,2025-05-09,2025-05-09,株式会社フロントアップ,,株式会社,北海道,札幌市中央区,南五条西１丁目１番地２８,,01,101,0640805,,,,,,,2025-05-09,1,,,,,フロントアップ,0
1228,4430003017614,新規,0,2025-05-09,2025-05-09,そらまる合同会社,,合同会社,北海道,札幌市西区,宮の沢一条５丁目１８番２－２号,,01,107,0630051,,,,,,,2025-05-09,1,,,,,ソラマル,0
1229,4430003017622,新規,0,2025-05-09,2025-05-09,合同会社ａｍｕ,,合同会社,北海道,札幌市手稲区,前田七条９丁目２番２３号,,01,109,0060817,,,,,,,2025-05-09,1,,,,,アム,0
1230,4430003017647,新規,0,2025-05-09,2025-05-09,合同会社Ｌファースト,,合同会社,北海道,札幌市北区,北二十八条西５丁目２番２５－６０１号,,01,102,0010028,,,,,,,2025-05-09,1,,,,,エルファースト,0
1233,4450001014611,新規,0,2025-05-09,2025-05-09,株式会社Ｔｉｅｒ　ＵＰ,,株式会社,北海道,上川郡鷹栖町,８線十一号１番地,,01,452,0711248,,,,,,,2025-05-09,1,,,,,ティアアップ,0
1235,4480001012827,新規,0,2025-05-09,2025-05-09,株式会社Ｃｏｍｐａｓｓ,,株式会社,徳島県,徳島市,八万町内浜１０番地の２,,36,201,7708076,,,,,,,2025-05-09,1,,,,,コンパス,0
1239,4490001011043,新規,0,2025-05-09,2025-05-09,優建築設計株式会社,,株式会社,高知県,長岡郡本山町,高角４３７番地２シェアオフィスもとやま,,39,341,7813606,,,,,,,2025-05-09,1,,,,,ユウケンチクセッケイ,0
1242,4500001026287,新規,0,2025-05-09,2025-05-09,株式会社高橋建築,00139077,株式会社,愛媛県,西条市,野々市７番地１,,38,206,7930066,,,,,,,2025-05-09,1,,,,,タカハシケンチク,0
1244,4500005008793,新規,0,2025-05-09,2025-05-09,一般社団法人寒川運営協議会,,その他の設立登記法人,愛媛県,四国中央市,寒川町３６３７番地,,38,213,7990431,,,,,,,2025-05-09,1,,,,,サンガワウンエイキョウギカイ,0
1252,5010001254713,新規,0,2025-05-09,2025-05-09,株式会社ＮＥＶＯ　ＤＥＳＩＧＮ,,株式会社,東京都,千代田区,丸の内１丁目８番３号丸の内トラストタワー本館２０階,,13,101,1000005,,,,,,,2025-05-09,1,,,,,ネヴォデザイン,0
1253,5010003047223,新規,0,2025-05-09,2025-05-09,エミュレーション合同会社,,合同会社,東京都,中央区,晴海３丁目１３番１号－３７０２,,13,102,1040053,,,,,,,2025-05-09,1,,,,,エミュレーション,0
1254,5010003047314,新規,0,2025-05-09,2025-05-09,ＨＯＴＡＫＡ合同会社,,合同会社,東京都,千代田区,神田平河町１番地第３東ビル６階,,13,101,1010027,,,,,,,2025-05-09,1,,,,,ホタカ,0
1256,5010005040011,新規,0,2025-05-09,2025-05-09,医療法人社団ＫＰＩ,,その他の設立登記法人,東京都,千代田区,麹町３丁目１番地ＫＯＪＩＭＡＣＨＩＴＥＲＲＡＣＥ２階,,13,101,1020083,,,,,,,2025-05-09,1,,,,,ケーピーアイ,0
1258,5010103002565,新規,0,2025-05-09,2025-05-09,恵騰輝達商貿合同会社,,合同会社,東京都,八王子市,追分町６番１１号立川ビル２０６室,,13,201,1920056,,,,,,,2025-05-09,1,,,,,エトウキタツショウボウ,0
1264,5010401190112,新規,0,2025-05-09,2025-05-09,日本人材投資株式会社,,株式会社,東京都,港区,三田３丁目５番２７号,,13,103,1080073,,,,,,,2025-05-09,1,,,,,ニッポンジンザイトウシ,0
1267,5010403035042,新規,0,2025-05-09,2025-05-09,アークティックウルフジャパン合同会社,,合同会社,東京都,港区,六本木１丁目９番１０号アークヒルズ仙石山森タワー２８階べーカー＆マッケンジー法律事務所（外国法共同事業）内,,13,103,1060032,,,,,,,2025-05-09,1,,,,,アークティックウルフジャパン,0
1271,5010501054043,新規,0,2025-05-09,2025-05-09,株式会社ＮＩＮＥ,,株式会社,東京都,台東区,谷中４丁目２番２７号,,13,106,1100001,,,,,,,2025-05-09,1,,,,,ナイン,0
1276,5010701047672,新規,0,2025-05-09,2025-05-09,株式会社ｃｏｎｎｅｃｔ,,株式会社,東京都,品川区,西五反田２丁目１３番１号,,13,109,1410031,,,,,,,2025-05-09,1,,,,,コネクト,0
1277,5010703007699,新規,0,2025-05-09,2025-05-09,合同会社ＴＨＥ　ＷＯＲＬＤ　ＤＩＧＥＳＴＥＤ,,合同会社,東京都,品川区,小山台１丁目２０番１２号,,13,109,1420061,,,,,,,2025-05-09,1,,,,,ザワールドダイジェスティッド,0
1278,5010801036138,新規,0,2025-05-09,2025-05-09,トク・イーリス株式会社,,株式会社,東京都,大田区,南六郷２丁目３４番６号,,13,111,1440045,,,,,,,2025-05-09,1,,,,,トクイーリス,0
1280,5010901057298,新規,0,2025-05-09,2025-05-09,株式会社小梅商店,,株式会社,東京都,世田谷区,砧８丁目６番２３号,,13,112,1570073,,,,,,,2025-05-09,1,,,,,コウメショウテン,0
1281,5010901057315,新規,0,2025-05-09,2025-05-09,株式会社ＣＬＡＹ　ＳＴＵＤＩＯ　Ｔａｍｕ,,株式会社,東京都,世田谷区,上北沢１丁目３９番９号,,13,112,1560057,,,,,,,2025-05-09,1,,,,,クレイスタジオタム,0
1282,5010901057323,新規,0,2025-05-09,2025-05-09,ＡＬＡＫＡＩ　ＪＡＰＡＮ株式会社,,株式会社,東京都,世田谷区,成城３丁目１３番３０号グランドメゾン成城レジデンス４０２,,13,112,1570066,,,,,,,2025-05-09,1,,,,,アラカイジャパン,0
1286,5011001169348,新規,0,2025-05-09,2025-05-09,株式会社ＧＲＥＥＮ,,株式会社,東京都,渋谷区,幡ヶ谷２丁目１８番４－３０１号,,13,113,1510072,,,,,,,2025-05-09,1,,,,,グリーン,0
1290,5011003021606,新規,0,2025-05-09,2025-05-09,合同会社ｎｕｇ,,合同会社,東京都,渋谷区,道玄坂１丁目１０番８号渋谷道玄坂東急ビル２Ｆ－Ｃ,,13,113,1500043,,,,,,,2025-05-09,1,,,,,ナグ,0
1291,5011005010978,新規,0,2025-05-09,2025-05-09,一般社団法人アイケイ,,その他の設立登記法人,東京都,目黒区,中目黒３丁目１４番７号,,13,110,1530061,,,,,,,2025-05-09,1,,,,,アイケイ,0
1298,5011105011422,新規,0,2025-05-09,2025-05-09,一般社団法人フリーランス相互支援協会,,その他の設立登記法人,東京都,新宿区,高田馬場２丁目１７番３号東京三協信用金庫本店ビル６Ｆ,,13,104,1690075,,,,,,,2025-05-09,1,,,,,フリーランスソウゴシエンキョウカイ,0
1302,5011301030556,新規,0,2025-05-09,2025-05-09,株式会社ナレッジアップ,,株式会社,東京都,杉並区,和田１丁目３９番５号４０４号,,13,115,1660012,,,,,,,2025-05-09,1,,,,,,0
1304,5011403004689,新規,0,2025-05-09,2025-05-09,合同会社平井,,合同会社,東京都,板橋区,成増１丁目３６番１－４２２号,,13,119,1750094,,,,,,,2025-05-09,1,,,,,ヒライ,0
1308,5011501032030,新規,0,2025-05-09,2025-05-09,株式会社光石テクノロジー,,株式会社,東京都,荒川区,南千住３丁目２７－２浅草ビル５０８,,13,118,1160003,,,,,,,2025-05-09,1,,,,,ヒカリイシテクノロジー,0
1313,5012703003265,新規,0,2025-05-09,2025-05-09,合同会社Ｄ＆Ｆ　ＪＡＰＡＮ,,合同会社,東京都,東村山市,恩多町５丁目２５番地１９,,13,213,1890011,,,,,,,2025-05-09,1,,,,,ディーアンドエフジャパン,0
1329,5020001162667,新規,0,2025-05-09,2025-05-09,株式会社オールクリーンプラス,,株式会社,神奈川県,横浜市瀬谷区,橋戸３丁目５番地９第一青木ビル１Ｆ,,14,114,2460037,,,,,,,2025-05-09,1,,,,,オールクリーンプラス,0
1330,5020001162766,新規,0,2025-05-09,2025-05-09,株式会社ｓｉｒａＢｅｌｌ,,株式会社,神奈川県,横浜市西区,北幸２丁目１０番４８号,,14,103,2200004,,,,,,,2025-05-09,1,,,,,シラベル,0
1331,5020001162774,新規,0,2025-05-09,2025-05-09,株式会社渋谷工務店,,株式会社,神奈川県,横浜市泉区,上飯田町４０６４番地３,,14,116,2450018,,,,,,,2025-05-09,1,,,,,シブヤコウムテン,0
1343,5020003028437,新規,0,2025-05-09,2025-05-09,合同会社Ｇ‐プランニングカンパニー,,合同会社,神奈川県,横浜市保土ケ谷区,狩場町３０３番地３９,,14,106,2400025,,,,,,,2025-05-09,1,,,,,ジープランニングカンパニー,0
1344,5020005016828,新規,0,2025-05-09,2025-05-09,特定非営利活動法人川崎市精神障害者地域生活推進連合会,,その他の設立登記法人,神奈川県,川崎市高津区,久本３丁目１０番１号,,14,134,2130011,,,,,,,2025-05-09,1,,,,,カワサキシセイシンショウガイシャチイキセイカツスイシンレンゴウカイ,0
1346,5021001085131,新規,0,2025-05-09,2025-05-09,株式会社ＥＤＩＴ３,,株式会社,神奈川県,茅ヶ崎市,今宿６６１番地１,,14,207,2530072,,,,,,,2025-05-09,1,,,,,エディットスリー,0
1347,5021001085156,新規,0,2025-05-09,2025-05-09,株式会社相州鳶,,株式会社,神奈川県,茅ヶ崎市,ひばりが丘２番１号シェルボ茅ヶ崎３０１,,14,207,2530027,,,,,,,2025-05-09,1,,,,,ソウシュウトビ,0
1348,5021001085189,新規,0,2025-05-09,2025-05-09,株式会社ＶＳＥ,,株式会社,神奈川県,相模原市南区,松が枝町２４番３,,14,153,2520313,,,,,,,2025-05-09,1,,,,,ブイエスイー,0
1352,5021003015961,新規,0,2025-05-09,2025-05-09,合同会社コウシンワークス,,合同会社,神奈川県,鎌倉市,玉縄５丁目２６番地８,,14,204,2470071,,,,,,,2025-05-09,1,,,,,コウシンワークス,0
1358,5030001166460,新規,0,2025-05-09,2025-05-09,株式会社ファイブクラフト,,株式会社,埼玉県,久喜市,南栗橋５丁目９番地１８,,11,232,3491117,,,,,,,2025-05-09,1,,,,,ファイブクラフト,0
1364,5030003026753,新規,0,2025-05-09,2025-05-09,福原リンクス合同会社,,合同会社,埼玉県,戸田市,下前１丁目１４番２６－６１４号,,11,224,3350016,,,,,,,2025-05-09,1,,,,,フクハラリンクス,0
1365,5040001138434,新規,0,2025-05-09,2025-05-09,株式会社Ｓ＆Ｒ,,株式会社,千葉県,千葉市稲毛区,小仲台１丁目４番１号アイ・プレイス稲毛１棟１６０１号,,12,103,2630043,,,,,,,2025-05-09,1,,,,,エスアンドアール,0
1366,5040001138624,新規,0,2025-05-09,2025-05-09,東京アカウンテック株式会社,,株式会社,千葉県,千葉市中央区,中央４丁目９－８エムズビル２０１,,12,101,2600013,,,,,,,2025-05-09,1,,,,,トウキョウアカウンテック,0
1367,5040001138632,新規,0,2025-05-09,2025-05-09,株式会社アドバンス近藤,,株式会社,千葉県,船橋市,本町６丁目１８番１９号第三中山ビル４０１号室,,12,204,2730005,,,,,,,2025-05-09,1,,,,,アドバンスコンドウ,0
1368,5040001138640,新規,0,2025-05-09,2025-05-09,株式会社グレートアバンダンス,,株式会社,千葉県,千葉市美浜区,磯辺５丁目１６番４棟４０７号,,12,106,2610012,,,,,,,2025-05-09,1,,,,,グレートアバンダンス,0
1369,5040001138665,新規,0,2025-05-09,2025-05-09,株式会社ＣＳＣ,,株式会社,千葉県,八千代市,ゆりのき台５丁目３番地８,,12,221,2760042,,,,,,,2025-05-09,1,,,,,シーエスシー,0
1375,5050001056619,新規,0,2025-05-09,2025-05-09,株式会社ＢＲＥＥＺＥ‐Ｉ,,株式会社,茨城県,水戸市,千波町１２７４番地の１２,,08,201,3100851,,,,,,,2025-05-09,1,,,,,ブリーズアイ,0
1376,5050001056635,新規,0,2025-05-09,2025-05-09,株式会社Ａｌｌ　ａｔ　ｏｎｃｅ,,株式会社,茨城県,ひたちなか市,春日町１４番１２号,,08,221,3120048,,,,,,,2025-05-09,1,,,,,オールアットワンス,0
1377,5050001056643,新規,0,2025-05-09,2025-05-09,株式会社リベラモンテッソーリ,,株式会社,茨城県,つくば市,東新井１８番地２,,08,220,3050033,,,,,,,2025-05-09,1,,,,,リベラモンテッソーリ,0
1379,5050003009228,新規,0,2025-05-09,2025-05-09,合同会社ＪＣＯＮ,,合同会社,茨城県,潮来市,日の出６丁目７番地７,,08,223,3112423,,,,,,,2025-05-09,1,,,,,ジェイコン,0
1380,5050003009244,新規,0,2025-05-09,2025-05-09,合同会社ある雪の日に,,合同会社,茨城県,猿島郡境町,大字稲尾６９１番地,,08,546,3060407,,,,,,,2025-05-09,1,,,,,アルユキノヒニ,0
1385,5070001042922,新規,0,2025-05-09,2025-05-09,株式会社輝福,,株式会社,群馬県,富岡市,富岡７２９番地５メゾンオクターブ２０３,,10,210,3702316,,,,,,,2025-05-09,1,,,,,キフク,0
1387,5070003005910,新規,0,2025-05-09,2025-05-09,合同会社ＥＸＣＩＡ,,合同会社,群馬県,高崎市,東中里町３番地,,10,202,3701204,,,,,,,2025-05-09,1,,,,,エクシア,0
1393,5100001038586,新規,0,2025-05-09,2025-05-09,アイ・ロード株式会社,,株式会社,長野県,飯田市,松尾八幡２１２４番地,,20,205,3950000,,,,,,,2025-05-09,1,,,,,アイロード,0
1395,5100003008141,新規,0,2025-05-09,2025-05-09,ＮａｔｕｒｅＧｌｏｂｅ合同会社,,合同会社,長野県,佐久市,前山３０－１２,,20,217,3850046,,,,,,,2025-05-09,1,,,,,ネーチャーグローブ,0
1396,5110001039229,新規,0,2025-05-09,2025-05-09,株式会社ＫＡＤＯＤＥ,,株式会社,新潟県,新潟市中央区,西船見町５９３２番地４９７,,15,103,9518101,,,,,,,2025-05-09,1,,,,,カドデ,0
1409,5120001274980,新規,0,2025-05-09,2025-05-09,時間印記株式会社,,株式会社,大阪府,大阪市住之江区,新北島１丁目４－１５－２０６号,,27,125,5590024,,,,,,,2025-05-09,1,,,,,ジカンインキ,0
1410,5120001275137,新規,0,2025-05-09,2025-05-09,承億株式会社,,株式会社,大阪府,大阪市北区,浪花町１３番２５号５０１号室,,27,127,5300022,,,,,,,2025-05-09,1,,,,,ショウオク,0
1411,5120001275161,新規,0,2025-05-09,2025-05-09,株式会社ＲＩＳＩＮＧ　ＤＲＡＧＯＮ,,株式会社,大阪府,大阪市中央区,高麗橋３丁目２番７号,,27,128,5410043,,,,,,,2025-05-09,1,,,,,ライジングドラゴン,0
1412,5120001275211,新規,0,2025-05-09,2025-05-09,株式会社道,,株式会社,大阪府,大阪市西成区,天下茶屋北１丁目５番１号ウッドウィレッジ３０４号,,27,122,5570003,,,,,,,2025-05-09,1,,,,,ミチ,0
1413,5120001275252,新規,0,2025-05-09,2025-05-09,銘熙株式会社,,株式会社,大阪府,大阪市天王寺区,堂ケ芝２丁目６番３－４Ａ,,27,109,5430033,,,,,,,2025-05-09,1,,,,,メイキ,0
1414,5120001275260,新規,0,2025-05-09,2025-05-09,株式会社パナシーク,,株式会社,大阪府,大阪市中央区,南久宝寺町１丁目７番１０号５０２,,27,128,5410058,,,,,,,2025-05-09,1,,,,,パナシーク,0
1415,5120001275269,新規,0,2025-05-09,2025-05-09,アイズ住宅販売株式会社,,株式会社,大阪府,大阪市淀川区,宮原２丁目７番３２号－３階,,27,123,5320003,,,,,,,2025-05-09,1,,,,,アイズジュウタクハンバイ,0
1416,5120001275319,新規,0,2025-05-09,2025-05-09,株式会社幻宇時空科技,,株式会社,大阪府,大阪市東成区,大今里西３丁目１４番１６－２０３号,,27,115,5370014,,,,,,,2025-05-09,1,,,,,ゲンウジクウカギ,0
1417,5120001275624,新規,0,2025-05-09,2025-05-09,合茶貿易株式会社,,株式会社,大阪府,大阪市東住吉区,鷹合４丁目２１番１６号３Ｆ－Ｅ,,27,121,5460014,,,,,,,2025-05-09,1,,,,,ゴウチャボウエキ,0
1418,5120001275632,新規,0,2025-05-09,2025-05-09,株式会社Ｎｅｘｔ,,株式会社,大阪府,大阪市北区,西天満４丁目３番１９号ＡＸＩＳ西天満ビル３階,,27,127,5300047,,,,,,,2025-05-09,1,,,,,ネクスト,0
1419,5120001275698,新規,0,2025-05-09,2025-05-09,株式会社ビビマート,,株式会社,大阪府,大阪市浪速区,元町１丁目５番７号ナンバプラザビル９０７号,,27,111,5560016,,,,,,,2025-05-09,1,,,,,ビビマート,0
1425,5120003029301,新規,0,2025-05-09,2025-05-09,合同会社Ｂｌｏｏｄ　Ｃｏｒｅ　Ａｔｅｌｉｅｒ,,合同会社,大阪府,大阪市北区,梅田１丁目２番２号大阪駅前第２ビル１２‐１２,,27,127,5300001,,,,,,,2025-05-09,1,,,,,ブラッドコアアトリエ,0
1426,5120003029318,新規,0,2025-05-09,2025-05-09,ＣＰ　ＶＵ合同会社,,合同会社,大阪府,大阪市西成区,北津守２丁目５－２３,,27,122,5570061,,,,,,,2025-05-09,1,,,,,シピブー,0
1427,5120003029342,新規,0,2025-05-09,2025-05-09,ＳＯＯＷＹ合同会社,,合同会社,大阪府,大阪市北区,中津１丁目１７番１７－５０５号,,27,127,5310071,,,,,,,2025-05-09,1,,,,,ソーイ,0
1428,5120005024928,新規,0,2025-05-09,2025-05-09,一般社団法人ケセラセラ,,その他の設立登記法人,大阪府,大阪市西区,靱本町３丁目３番４－７０１号,,27,106,5500004,,,,,,,2025-05-09,1,,,,,ケセラセラ,0
1432,5120101071650,新規,0,2025-05-09,2025-05-09,株式会社ＳＨＡ,,株式会社,大阪府,堺市南区,槇塚台２丁２０番９号,00139089,27,145,5900114,,,,,,,2025-05-09,1,,,,,エスエイチエー,0
1436,5120903005649,新規,0,2025-05-09,2025-05-09,合同会社ＢＵＮＫＥＲ,,合同会社,大阪府,高槻市,弥生が丘町３０番１号,,27,207,5691021,,,,,,,2025-05-09,1,,,,,バンカー,0
1437,5120903005657,新規,0,2025-05-09,2025-05-09,合同会社まもい,,合同会社,大阪府,豊中市,服部豊町１丁目１４番２２－２０１号,,27,203,5610859,,,,,,,2025-05-09,1,,,,,マモイ,0
1439,5122001039182,新規,0,2025-05-09,2025-05-09,太閤木下ホールディングス株式会社,,株式会社,大阪府,東大阪市,長田西４丁目４番２１号,,27,227,5770016,,,,,,,2025-05-09,1,,,,,タイコウキノシタホールディングス,0
1444,5140001138416,新規,0,2025-05-09,2025-05-09,株式会社宝琳,,株式会社,兵庫県,神戸市中央区,布引町４丁目２番６号,,28,110,6510097,,,,,,,2025-05-09,1,,,,,ホウリン,0
1445,5140001138457,新規,0,2025-05-09,2025-05-09,株式会社加古川電総,,株式会社,兵庫県,加古川市,別府町新野辺２１８０番地,,28,210,6750131,,,,,,,2025-05-09,1,,,,,カコガワデンソウ,0
1446,5140001138515,新規,0,2025-05-09,2025-05-09,株式会社ユウファーマ,,株式会社,兵庫県,芦屋市,松ノ内町３番３０号,,28,206,6590094,,,,,,,2025-05-09,1,,,,,ユウファーマ,0
1447,5140003022023,新規,0,2025-05-09,2025-05-09,合同会社岩本ゴム工業所,,合同会社,兵庫県,神戸市長田区,苅藻通２丁目２番２号,,28,106,6530032,,,,,,,2025-05-09,1,,,,,イワモトゴムコウギョウショ,0
1450,5150001027972,新規,0,2025-05-09,2025-05-09,株式会社オオギリ,,株式会社,奈良県,生駒市,真弓２丁目２番６号,,29,209,6300122,,,,,,,2025-05-09,1,,,,,オオギリ,0
1451,5160001026726,新規,0,2025-05-09,2025-05-09,Ｋ５ＤＥＳＩＧＮ株式会社,,株式会社,滋賀県,愛知郡愛荘町,豊満１２８１番地１１,,25,425,5291321,,,,,,,2025-05-09,1,,,,,ケイファイブデザイン,0
1452,5160003003459,新規,0,2025-05-09,2025-05-09,合同会社さくら,,合同会社,滋賀県,甲賀市,土山町北土山５３６番地,,25,209,5280211,,,,,,,2025-05-09,1,,,,,サクラ,0
1453,5160003003475,新規,0,2025-05-09,2025-05-09,合同会社スクラバ,,合同会社,滋賀県,草津市,東矢倉１丁目２－２東矢倉ビル４階,,25,206,5250054,,,,,,,2025-05-09,1,,,,,スクラバ,0
1454,5170001018615,新規,0,2025-05-09,2025-05-09,株式会社ＩＰＣ,,株式会社,和歌山県,和歌山市,加納６２番地５,,30,201,6408391,,,,,,,2025-05-09,1,,,,,アイピーシー,0
1469,5180303006564,新規,0,2025-05-09,2025-05-09,ＰＡＮＤＡ建設合同会社,,合同会社,愛知県,知立市,昭和９丁目４番地,,23,225,4720011,,,,,,,2025-05-09,1,,,,,パンダケンセツ,0
1471,5190001032176,新規,0,2025-05-09,2025-05-09,Ｓ．Ｉ．Ｃ株式会社,,株式会社,三重県,鈴鹿市,郡山町７１０番地の１３,,24,207,5100263,,,,,,,2025-05-09,1,,,,,,0
1472,5190001032201,新規,0,2025-05-09,2025-05-09,株式会社前川塗料店,,株式会社,三重県,松阪市,中町１９５７番地,,24,204,5150083,,,,,,,2025-05-09,1,,,,,マエガワトリョウテン,0
1473,5190003005023,新規,0,2025-05-09,2025-05-09,ＭＩＥ合同会社,,合同会社,三重県,伊賀市,阿保１２２‐２,,24,216,5180226,,,,,,,2025-05-09,1,,,,,ミイエ,0
1476,5200003006795,新規,0,2025-05-09,2025-05-09,合同会社Ｐｅａｋ,,合同会社,岐阜県,岐阜市,本郷町２丁目１９番地２,,21,201,5008302,,,,,,,2025-05-09,1,,,,,ピーク,0
1479,5220001026661,新規,0,2025-05-09,2025-05-09,株式会社ＡＳＡＮＯ,,株式会社,石川県,金沢市,浅野本町１丁目１０番１０号,,17,201,9200841,,,,,,,2025-05-09,1,,,,,アサノ,0
1489,5240001064908,新規,0,2025-05-09,2025-05-09,株式会社ｎｉｃｏｎｉｃｏ,,株式会社,広島県,府中市,高木町１１４２番地,,34,208,7260013,,,,,,,2025-05-09,1,,,,,ニコニコ,0
1490,5240001064924,新規,0,2025-05-09,2025-05-09,株式会社ニューコネクト,,株式会社,広島県,広島市中区,上八丁堀８番２３－９０７号,,34,101,7300012,,,,,,,2025-05-09,1,,,,,ニューコネクト,0
1492,5250001021148,新規,0,2025-05-09,2025-05-09,株式会社ＢＬＵＥ　ＣＯＮＳＵＬＴＩＮＧ,,株式会社,山口県,山口市,小郡大江町６番３３号リーベンアルデバラン６０１号室,,35,203,7540015,,,,,,,2025-05-09,1,,,,,ブルーコンサルティング,0
1494,5250003003714,新規,0,2025-05-09,2025-05-09,合同会社みっしゅまっしゅ,,合同会社,山口県,下関市,山の田東町７番２５号,,35,201,7510834,,,,,,,2025-05-09,1,,,,,ミッシュマッシュ,0
1495,5250003003722,新規,0,2025-05-09,2025-05-09,合同会社ｔａｎｓｕ,,合同会社,山口県,防府市,大字田島５４３番地の４３,,35,206,7470834,,,,,,,2025-05-09,1,,,,,タンス,0
1496,5260003005156,新規,0,2025-05-09,2025-05-09,ＳＮニューホライズン合同会社,,合同会社,岡山県,岡山市北区,津島西坂２丁目５番１５号リビンコートプライム津島１２０４号室,,33,101,7000086,,,,,,,2025-05-09,1,,,,,エスエヌニューホライズン,0
1507,5290001109922,新規,0,2025-05-09,2025-05-09,株式会社ＩＮＦＫＴ,,株式会社,福岡県,福岡市博多区,大博町３番３１－４０２号カーサ・エテルナ,,40,132,8120033,,,,,,,2025-05-09,1,,,,,インフェクト,0
1508,5290001109939,新規,0,2025-05-09,2025-05-09,蜀株式会社一級建築士事務所,,株式会社,福岡県,那珂川市,片縄東１丁目２－２５三好アパート２０１号室,,40,231,8111204,,,,,,,2025-05-09,1,,,,,ショクイッキュウケンチクシジムショ,0
1509,5290001109963,新規,0,2025-05-09,2025-05-09,大隈西株式会社,,株式会社,福岡県,糟屋郡粕屋町,大字大隈１２２９番地,,40,349,8112302,,,,,,,2025-05-09,1,,,,,オオクマニシ,0
1510,5290001109971,新規,0,2025-05-09,2025-05-09,豊吉株式会社,,株式会社,福岡県,糟屋郡粕屋町,大字阿惠４５９－７コーポコスモスＫ１０２室,,40,349,8112306,,,,,,,2025-05-09,1,,,,,トヨヨシ,0
1516,5290005019738,新規,0,2025-05-09,2025-05-09,一般社団法人ままところ,,その他の設立登記法人,福岡県,福岡市西区,福重２丁目６番２号,,40,135,8190022,,,,,,,2025-05-09,1,,,,,ママトコロ,0
1523,5330001033176,新規,0,2025-05-09,2025-05-09,株式会社ハマモトエステート,,株式会社,熊本県,天草市,御所浦町牧島４２８番地,,43,215,8660334,,,,,,,2025-05-09,1,,,,,ハマモトエステート,0
1524,5330001033184,新規,0,2025-05-09,2025-05-09,株式会社ＭＡＵＧＯＤＸ,,株式会社,熊本県,熊本市南区,野口３丁目１６番３号,,43,104,8614137,,,,,,,2025-05-09,1,,,,,マウゴックス,0
1531,5360001035145,新規,0,2025-05-09,2025-05-09,株式会社ＳＴＡ,,株式会社,沖縄県,豊見城市,字翁長８２４番地１２,,47,212,9010223,,,,,,,2025-05-09,1,,,,,エスティーエー,0
1533,5360003014898,新規,0,2025-05-09,2025-05-09,合同会社ＳＥＩＦＡ,,合同会社,沖縄県,那覇市,久茂地１丁目１番１号９階,,47,201,9000015,,,,,,,2025-05-09,1,,,,,セイファ,0
1535,5370001052544,新規,0,2025-05-09,2025-05-09,株式会社熊谷工業,,株式会社,宮城県,仙台市若林区,上飯田３丁目５番３６号,,04,103,9840838,,,,,,,2025-05-09,1,,,,,クマガイコウギョウ,0
1536,5370001052560,新規,0,2025-05-09,2025-05-09,株式会社彩創コーポレーション,,株式会社,宮城県,名取市,田高字南３３６番地の９,,04,207,9811221,,,,,,,2025-05-09,1,,,,,サイソウコーポレーション,0
1546,5380001035291,新規,0,2025-05-09,2025-05-09,株式会社ナチュラル,,株式会社,福島県,福島市,松浪町７番１号,,07,201,9608114,,,,,,,2025-05-09,1,,,,,ナチュラル,0
1547,5390001017982,新規,0,2025-05-09,2025-05-09,株式会社Ｍａｋｅ　Ｔｒｕｓｔ,,株式会社,山形県,米沢市,中央６丁目１番７８号,,06,202,9920045,,,,,,,2025-05-09,1,,,,,メイクトラスト,0
1557,5430001094324,新規,0,2025-05-09,2025-05-09,株式会社リングオ,,株式会社,北海道,札幌市豊平区,平岸四条６丁目１番２９号,,01,105,0620934,,,,,,,2025-05-09,1,,,,,リングオ,0
1558,5430001094349,新規,0,2025-05-09,2025-05-09,株式会社しばけん工業,,株式会社,北海道,札幌市北区,南あいの里７丁目９番３号,,01,102,0028091,,,,,,,2025-05-09,1,,,,,シバケンコウギョウ,0
1559,5430001094365,新規,0,2025-05-09,2025-05-09,株式会社川又設備,,株式会社,北海道,札幌市西区,平和二条４丁目７番１０号,,01,107,0630022,,,,,,,2025-05-09,1,,,,,カワマタセツビ,0
1560,5430001094373,新規,0,2025-05-09,2025-05-09,帝進国際サービス株式会社,,株式会社,北海道,札幌市白石区,北郷二条１４丁目３番１２号マンションみのるＢ３,,01,104,0030832,,,,,,,2025-05-09,1,,,,,テイシンコクサイサービス,0
1568,5430003017613,新規,0,2025-05-09,2025-05-09,Ｅｒｄｅ．合同会社,,合同会社,北海道,札幌市南区,石山一条７丁目２６番１４号,,01,106,0050841,,,,,,,2025-05-09,1,,,,,エルデ,0
1575,5480001012826,新規,0,2025-05-09,2025-05-09,福島電設株式会社,,株式会社,徳島県,徳島市,南田宮１丁目５番４３号,,36,201,7700004,,,,,,,2025-05-09,1,,,,,フクシマデンセツ,0
1576,5480003002263,新規,0,2025-05-09,2025-05-09,合同会社悠羽華,,合同会社,徳島県,美馬市,穴吹町口山字宮内５５番地６,,36,207,7770006,,,,,,,2025-05-09,1,,,,,ユウカ,0
1591,6010001254308,新規,0,2025-05-09,2025-05-09,Ｃｒｅｗ　Ｃｏｎｓｕｌｔｉｎｇ株式会社,,株式会社,東京都,千代田区,岩本町３丁目８－８中和秋葉原ビル,,13,101,1010032,,,,,,,2025-05-09,1,,,,,クルーコンサルティング,0
1592,6010001254745,新規,0,2025-05-09,2025-05-09,カルチュアルサポート株式会社,,株式会社,東京都,文京区,本郷１丁目４－４水道橋ビル５Ｆ,,13,105,1130033,,,,,,,2025-05-09,1,,,,,カルチュアルサポート,0
1593,6010001254794,新規,0,2025-05-09,2025-05-09,ＮＩＨＯＮ　Ｘ　ＨＯＬＤＩＮＧＳ株式会社,,株式会社,東京都,中央区,銀座３丁目１０－１９美術家会館ビル２Ｆ,,13,102,1040061,,,,,,,2025-05-09,1,,,,,ニホンエックスホールディングス,0
1594,6010001254869,新規,0,2025-05-09,2025-05-09,株式会社セレストブルー,,株式会社,東京都,千代田区,飯田橋２丁目１８番１号東京レジデンス７０３号,,13,101,1020072,,,,,,,2025-05-09,1,,,,,セレストブルー,0
1598,6010005040010,新規,0,2025-05-09,2025-05-09,一般社団法人バーチャルキャラクターエンターテインメント協会,,その他の設立登記法人,東京都,中央区,銀座４丁目１２番１５号歌舞伎座タワー,,13,102,1040061,,,,,,,2025-05-09,1,,,,,バーチャルキャラクターエンターテインメントキョウカイ,0
1614,6010701047647,新規,0,2025-05-09,2025-05-09,株式会社ノベル,,株式会社,東京都,品川区,上大崎３丁目５番８－５０９号,,13,109,1410021,,,,,,,2025-05-09,1,,,,,ノベル,0
1616,6010703007698,新規,0,2025-05-09,2025-05-09,Ｓｏｒ’ｂｅａｕｔｙ合同会社,,合同会社,東京都,品川区,西五反田１丁目２９番３号五反田シティハイツ３０１,,13,109,1410031,,,,,,,2025-05-09,1,,,,,ソービューティー,0
1618,6010803005379,新規,0,2025-05-09,2025-05-09,ＨＯＭエンタープライズ合同会社,,合同会社,東京都,大田区,西馬込１丁目４番７号パークホームズ西馬込クリアコート６０１,,13,111,1430026,,,,,,,2025-05-09,1,,,,,エイチオーエムエンタープライズ,0
1622,6010901057306,新規,0,2025-05-09,2025-05-09,ピーポー株式会社,,株式会社,東京都,世田谷区,太子堂４丁目１８番１５号マガザン三軒茶屋,,13,112,1540004,,,,,,,2025-05-09,1,,,,,ピーポー,0
1623,6010901057330,新規,0,2025-05-09,2025-05-09,株式会社ｐｏｏｌ,,株式会社,東京都,世田谷区,北沢２丁目５番２号,,13,112,1550031,,,,,,,2025-05-09,1,,,,,プール,0
1629,6011001169371,新規,0,2025-05-09,2025-05-09,株式会社Ｈｉｋａｒｉ　Ｄｅｓｉｇｎ,,株式会社,東京都,渋谷区,円山町５番３号ＭＩＥＵＸ渋谷ビル８階,,13,113,1500044,,,,,,,2025-05-09,1,,,,,ヒカリデザイン,0
1630,6011001169545,新規,0,2025-05-09,2025-05-09,Ｌｕｍｉｑ株式会社,,株式会社,東京都,目黒区,目黒２丁目１番１８－１３０１号プライムアーバン目黒リバーフロント,,13,110,1530063,,,,,,,2025-05-09,1,,,,,ルミック,0
1631,6011001169735,新規,0,2025-05-09,2025-05-09,株式会社Ｄｅｅｐ　Ｆｒｏｎｔｉｅｒ,,株式会社,東京都,目黒区,鷹番１丁目１－５フラットフォービル４Ｆ,,13,110,1520004,,,,,,,2025-05-09,1,,,,,ディープフロンティア,0
1633,6011003021605,新規,0,2025-05-09,2025-05-09,合同会社リベルタ,,合同会社,東京都,渋谷区,道玄坂１丁目１６－６二葉ビル８ｂ,,13,113,1500043,,,,,,,2025-05-09,1,,,,,リベルタ,0
1634,6011003021638,新規,0,2025-05-09,2025-05-09,合同会社ワークワン,,合同会社,東京都,渋谷区,代々木２丁目１１番１２号,,13,113,1510053,,,,,,,2025-05-09,1,,,,,ワークワン,0
1637,6011101111596,新規,0,2025-05-09,2025-05-09,明日の朝株式会社,,株式会社,東京都,新宿区,山吹町３３７－５都住創山吹町ビル６０４Ｎ,,13,104,1620801,,,,,,,2025-05-09,1,,,,,アシタノアサ,0
1640,6011301030563,新規,0,2025-05-09,2025-05-09,ネイビー株式会社,,株式会社,東京都,杉並区,善福寺３丁目２７番１７号,,13,115,1670041,,,,,,,2025-05-09,1,,,,,ネイビー,0
1641,6011305003037,新規,0,2025-05-09,2025-05-09,一般社団法人風致,,その他の設立登記法人,東京都,杉並区,永福４丁目４番１号,,13,115,1680064,,,,,,,2025-05-09,1,,,,,フウチ,0
1645,6011403004688,新規,0,2025-05-09,2025-05-09,新山栄合同会社,,合同会社,東京都,板橋区,大山東町６０－１５－２Ｆ,,13,119,1730014,,,,,,,2025-05-09,1,,,,,シンヤマサカエ,0
1658,6011801046092,新規,0,2025-05-09,2025-05-09,ＢＳＬ　ＪＡＰＡＮ株式会社,,株式会社,東京都,足立区,大谷田３丁目１７番４号サンフラワー１号館Ｂ１－１０７,,13,121,1200001,,,,,,,2025-05-09,1,,,,,ビーエスエルジャパン,0
1660,6011805003453,新規,0,2025-05-09,2025-05-09,特定非営利活動法人ＣＯＡ,,その他の設立登記法人,東京都,足立区,中央本町３丁目４番４号,,13,121,1210011,,,,,,,2025-05-09,1,,,,,コア,0
1661,6012303002146,新規,0,2025-05-09,2025-05-09,合同会社ＯＳＭ,,合同会社,東京都,町田市,木曽西４丁目１９番５号プラウド・エンブレム２０２,,13,209,1940037,,,,,,,2025-05-09,1,,,,,オーエスエム,0
1663,6012401043067,新規,0,2025-05-09,2025-05-09,株式会社トランス,,株式会社,東京都,三鷹市,上連雀６丁目１番１０号メゾン・クロワール３０５,,13,204,1810012,,,,,,,2025-05-09,1,,,,,トランス,0
1664,6012401043075,新規,0,2025-05-09,2025-05-09,Ｍｙｕ株式会社,,株式会社,東京都,武蔵野市,吉祥寺本町１丁目１８番６号,,13,203,1800004,,,,,,,2025-05-09,1,,,,,ミュー,0
1666,6012801023949,新規,0,2025-05-09,2025-05-09,株式会社ラピオンホールディングス,,株式会社,東京都,日野市,南平７丁目２番地の１４,,13,212,1910041,,,,,,,2025-05-09,1,,,,,ラピオンホールディングス,0
1672,6020001162732,新規,0,2025-05-09,2025-05-09,株式会社中村彫刻,,株式会社,神奈川県,横浜市中区,山手町４５番地３１,,14,104,2310862,,,,,,,2025-05-09,1,,,,,ナカムラチョウコク,0
1673,6020001162749,新規,0,2025-05-09,2025-05-09,株式会社Ｌｉｍｅｔｏｎｅ　Ａｕｄｉｏ,,株式会社,神奈川県,横浜市青葉区,美しが丘１丁目１３番地１０,,14,117,2250002,,,,,,,2025-05-09,1,,,,,ライムトーンオーディオ,0
1674,6020001162757,新規,0,2025-05-09,2025-05-09,株式会社ＬＩＶＳＴＡ,,株式会社,神奈川県,川崎市中原区,木月２丁目１７番１０号,,14,133,2110025,,,,,,,2025-05-09,1,,,,,リブスタ,0
1675,6020001162765,新規,0,2025-05-09,2025-05-09,株式会社Ｔ‐ＧＯＬＦ,,株式会社,神奈川県,横浜市中区,末広町３丁目９９番Ｔ＆ＦＫＡＮＮＡＩＢＬＤＧ．,,14,104,2310046,,,,,,,2025-05-09,1,,,,,ティーゴルフ,0
1676,6020001162773,新規,0,2025-05-09,2025-05-09,クライベル株式会社,,株式会社,神奈川県,横浜市青葉区,青葉台１丁目５－４青葉台サンクスビル３Ｆ２８号室,,14,117,2270062,,,,,,,2025-05-09,1,,,,,クライベル,0
1679,6020003028452,新規,0,2025-05-09,2025-05-09,エバーライズ合同会社,,合同会社,神奈川県,川崎市中原区,木月４丁目１５番１６－３０１号,,14,133,2110025,,,,,,,2025-05-09,1,,,,,エバーライズ,0
1683,6021001085155,新規,0,2025-05-09,2025-05-09,品川書店株式会社,,株式会社,神奈川県,藤沢市,片瀬目白山２－１,,14,205,2510034,,,,,,,2025-05-09,1,,,,,シナガワショテン,0
1684,6021001085171,新規,0,2025-05-09,2025-05-09,株式会社ＲＥＡＬＩＺＥ,,株式会社,神奈川県,横須賀市,林２丁目７－６,,14,201,2380315,,,,,,,2025-05-09,1,,,,,リアライズ,0
1685,6021001085205,新規,0,2025-05-09,2025-05-09,株式会社井上電機,,株式会社,神奈川県,小田原市,田島８７５番地の６,,14,206,2560811,,,,,,,2025-05-09,1,,,,,イノウエデンキ,0
1700,6030001166352,新規,0,2025-05-09,2025-05-09,株式会社鷹啄設備,,株式会社,埼玉県,川口市,大字安行原２７７１番地の２エスポワールＩ・１０１号,00139080,11,203,3340057,,,,,,,2025-05-09,1,,,,,タカハシセツビ,0
1701,6030001166427,新規,0,2025-05-09,2025-05-09,株式会社ブリーズ,,株式会社,埼玉県,さいたま市西区,宮前町５９８－１グランソフィアＡ棟,,11,101,3310046,,,,,,,2025-05-09,1,,,,,ブリーズ,0
1708,6030003026703,新規,0,2025-05-09,2025-05-09,合同会社タツキ,,合同会社,埼玉県,草加市,中根２丁目１１番２２号,,11,221,3400005,,,,,,,2025-05-09,1,,,,,タツキ,0
1709,6030003026736,新規,0,2025-05-09,2025-05-09,合同会社宮健塗装,,合同会社,埼玉県,さいたま市桜区,田島３丁目１９番１０号,,11,106,3380837,,,,,,,2025-05-09,1,,,,,ミヤケントソウ,0
1712,6040001138607,新規,0,2025-05-09,2025-05-09,ＦＵＬＬＡＬＬＧＯＬ株式会社,,株式会社,千葉県,柏市,藤心５丁目１５番９号,,12,217,2770034,,,,,,,2025-05-09,1,,,,,フルオルゴール,0
1713,6040001138615,新規,0,2025-05-09,2025-05-09,株式会社ネクトレ,,株式会社,千葉県,我孫子市,若松１０８－１１,,12,222,2701147,,,,,,,2025-05-09,1,,,,,ネクトレ,0
1714,6040001138623,新規,0,2025-05-09,2025-05-09,そらのはしら株式会社,,株式会社,千葉県,市川市,日之出１０－１－５１２,,12,203,2720135,,,,,,,2025-05-09,1,,,,,ソラノハシラ,0
1715,6040001138648,新規,0,2025-05-09,2025-05-09,株式会社笹のいえ,,株式会社,千葉県,いすみ市,荻原４４１１番地,,12,238,2980131,,,,,,,2025-05-09,1,,,,,ササノイエ,0
1716,6040001138656,新規,0,2025-05-09,2025-05-09,ＺＩＡ株式会社,,株式会社,千葉県,佐倉市,表町１丁目１０－１２－Ｂ－３,,12,212,2850811,,,,,,,2025-05-09,1,,,,,ジア,0
1719,6040005022757,新規,0,2025-05-09,2025-05-09,一般社団法人全日本ギフトラッピング協会,,その他の設立登記法人,千葉県,松戸市,常盤平１丁目５番地の６,,12,207,2702261,,,,,,,2025-05-09,1,,,,,ゼンニホンギフトラッピングキョウカイ,0
1721,6050001056626,新規,0,2025-05-09,2025-05-09,株式会社栄弘電気,,株式会社,茨城県,かすみがうら市,下稲吉２６７３番地２１３,,08,230,3150052,,,,,,,2025-05-09,1,,,,,エイコウデンキ,0
1722,6050001056642,新規,0,2025-05-09,2025-05-09,協力リサイクル株式会社,,株式会社,茨城県,筑西市,寺上野１２０６番地,,08,227,3004525,,,,,,,2025-05-09,1,,,,,キョウリョクサイクル,0
1725,6060001038160,新規,0,2025-05-09,2025-05-09,株式会社Ｌ’ＡＵＢＥ,,株式会社,栃木県,足利市,今福町３６‐１ヴィラフェリーチェ７号棟,,09,202,3260842,,,,,,,2025-05-09,1,,,,,ローブ,0
1728,6070001042921,新規,0,2025-05-09,2025-05-09,株式会社エコフィールドワークス,,株式会社,群馬県,高崎市,藤塚町５１番地４,,10,202,3700875,,,,,,,2025-05-09,1,,,,,エコフィールドワークス,0
1730,6070003005918,新規,0,2025-05-09,2025-05-09,ＨＡＭＺＡ　ＴＲＡＤＩＮＧ合同会社,,合同会社,群馬県,伊勢崎市,境百々東１０番地５アライハイツＣ２０１,,10,204,3700116,,,,,,,2025-05-09,1,,,,,,0
1731,6080001026923,新規,0,2025-05-09,2025-05-09,株式会社大映自動車,,株式会社,静岡県,静岡市清水区,大内６６９番地の１,,22,103,4240061,,,,,,,2025-05-09,1,,,,,ダイエイジドウシャ,0
1740,6090001019257,新規,0,2025-05-09,2025-05-09,株式会社レイア,,株式会社,山梨県,南アルプス市,寺部１６６３番地３,,19,208,4000337,,,,,,,2025-05-09,1,,,,,レイア,0
1741,6090003002806,新規,0,2025-05-09,2025-05-09,合同会社ＥＳＫ,,合同会社,山梨県,甲府市,丸の内３丁目２１－３,,19,201,4000031,,,,,,,2025-05-09,1,,,,,エスク,0
1743,6100001038569,新規,0,2025-05-09,2025-05-09,株式会社ａｌａｃｒｉｔａｓ,,株式会社,長野県,飯田市,鼎一色４５６番地イオン飯田アップルロード店２階,,20,205,3950805,,,,,,,2025-05-09,1,,,,,アラクリタス,0
1744,6100003008132,新規,0,2025-05-09,2025-05-09,合同会社アイエヌエー,,合同会社,長野県,北安曇郡白馬村,大字神城２１４２６―１,,20,485,3999211,,,,,,,2025-05-09,1,,,,,アイエヌエー,0
1746,6110001039236,新規,0,2025-05-09,2025-05-09,株式会社ＨＡＣＨＩＳＡＮＭＡＲＵ,,株式会社,新潟県,長岡市,寺泊吉２１８番地１,,15,202,9402507,,,,,,,2025-05-09,1,,,,,ハチサンマル,0
1761,6120001275185,新規,0,2025-05-09,2025-05-09,株式会社オールケア旭ノア,,株式会社,大阪府,大阪市旭区,清水４丁目３番１１号,,27,117,5350021,,,,,,,2025-05-09,1,,,,,オールケアアサヒノア,0
1762,6120001275268,新規,0,2025-05-09,2025-05-09,ＳＯＥＮ株式会社,,株式会社,大阪府,大阪市東住吉区,北田辺６丁目１９番１０号,,27,121,5460044,,,,,,,2025-05-09,1,,,,,ソウエン,0
1763,6120001275284,新規,0,2025-05-09,2025-05-09,雅合株式会社,,株式会社,大阪府,大阪市住吉区,大領５丁目２－２４サンフラワー大領２０３号室,,27,120,5580001,,,,,,,2025-05-09,1,,,,,ガゴウ,0
1764,6120001275342,新規,0,2025-05-09,2025-05-09,株式会社ナチュラル日向,,株式会社,大阪府,大阪市北区,紅梅町１番２２号,,27,127,5300038,,,,,,,2025-05-09,1,,,,,ナチュラルヒナタ,0
1769,6120003029275,新規,0,2025-05-09,2025-05-09,合同会社Ｓｕｎｎｙ,,合同会社,大阪府,大阪市生野区,鶴橋２丁目１５番１４号,,27,116,5440031,,,,,,,2025-05-09,1,,,,,サニー,0
1770,6120003029317,新規,0,2025-05-09,2025-05-09,合同会社ｅｎｔｒａｉｄｅ,,合同会社,大阪府,枚方市,釈尊寺町２８－４－１０４,,27,210,5730081,,,,,,,2025-05-09,1,,,,,アントレッド,0
1771,6120003029325,新規,0,2025-05-09,2025-05-09,合同会社丸笑,,合同会社,大阪府,大阪市西成区,萩之茶屋１丁目５番６号１階,,27,122,5570004,,,,,,,2025-05-09,1,,,,,マルショウ,0
1772,6120005024919,新規,0,2025-05-09,2025-05-09,司法書士法人ＡＢＥＮＯ,,その他の設立登記法人,大阪府,大阪市中央区,淡路町３丁目５番１３号創建御堂筋ビル７階,,27,128,5410047,,,,,,,2025-05-09,1,,,,,アベノ,0
1775,6120101071641,新規,0,2025-05-09,2025-05-09,株式会社ＳｏｍａＦｌｏｗ,,株式会社,大阪府,泉南郡岬町,多奈川谷川２９０２番地の２,,27,366,5990311,,,,,,,2025-05-09,1,,,,,ソマフロー,0
1784,6130001079528,新規,0,2025-05-09,2025-05-09,株式会社サルコ,,株式会社,京都府,亀岡市,千代川町今津１丁目１１－１０レジェンド千代川１－Ｂ,,26,206,6210051,,,,,,,2025-05-09,1,,,,,サルコ,0
1785,6130001079610,新規,0,2025-05-09,2025-05-09,京都雅櫞株式会社,,株式会社,京都府,京都市北区,上賀茂畔勝町４番地正和フラット上賀茂３０５,,26,101,6038044,,,,,,,2025-05-09,1,,,,,キョウトガエン,0
1786,6130001079627,新規,0,2025-05-09,2025-05-09,株式会社誠建設,,株式会社,京都府,向日市,寺戸町大牧１４番地２４大牧ビル２・３Ｆ,,26,208,6170002,,,,,,,2025-05-09,1,,,,,マコトケンセツ,0
1791,6130003010440,新規,0,2025-05-09,2025-05-09,ＬＥＡＤ合同会社,,合同会社,京都府,京都市北区,小山西大野町７９番地５エディナワールドビル３階,,26,101,6038167,,,,,,,2025-05-09,1,,,,,リード,0
1792,6130003010449,新規,0,2025-05-09,2025-05-09,Ｔｒｉｆｔ合同会社,,合同会社,京都府,京都市下京区,小稲荷町８５－２Ｇｒａｎｄ－Ｋ京都駅前ビル２０１,,26,106,6008208,,,,,,,2025-05-09,1,,,,,トリフト,0
1800,6140001138415,新規,0,2025-05-09,2025-05-09,株式会社北播サービス,,株式会社,兵庫県,姫路市,増位新町２丁目４２番地,,28,201,6700806,,,,,,,2025-05-09,1,,,,,ホクバンサービス,0
1801,6140001138423,新規,0,2025-05-09,2025-05-09,株式会社坂本建工,,株式会社,兵庫県,たつの市,龍野町日山２６６番地１１,,28,229,6794161,,,,,,,2025-05-09,1,,,,,サカモトケンコウ,0
1802,6140001138431,新規,0,2025-05-09,2025-05-09,株式会社Ｍｅｄｃｅｓｓｉｏｎ,,株式会社,兵庫県,伊丹市,北本町１丁目１６５番地１エーベル伊丹参番館５０３号,,28,207,6640836,,,,,,,2025-05-09,1,,,,,メデュセッション,0
1803,6140001138506,新規,0,2025-05-09,2025-05-09,株式会社ＴＭＳ,,株式会社,兵庫県,相生市,双葉２丁目８番１５号,,28,208,6780024,,,,,,,2025-05-09,1,,,,,ティーエムエス,0
1806,6140003022030,新規,0,2025-05-09,2025-05-09,ＭＩＮ合同会社,,合同会社,兵庫県,神戸市兵庫区,西上橘通２丁目７－１０シンチャオ１０１号室,,28,105,6520033,,,,,,,2025-05-09,1,,,,,ミン,0
1807,6150001028111,新規,0,2025-05-09,2025-05-09,株式会社ガチャラリティ,,株式会社,奈良県,北葛城郡王寺町,王寺２丁目８番２５号田中愛ビル１５号館４０３号室,,29,425,6360002,,,,,,,2025-05-09,1,,,,,ガチャラリティ,0
1809,6160001026741,新規,0,2025-05-09,2025-05-09,株式会社ＧＲＯＵＮＤ,,株式会社,滋賀県,東近江市,建部瓦屋寺町１３４－１６,,25,213,5270007,,,,,,,2025-05-09,1,,,,,グラウンド,0
1816,6180001166651,新規,0,2025-05-09,2025-05-09,株式会社ケーフラット,,株式会社,愛知県,名古屋市北区,西味鋺１丁目５１１番地水野ビル,,23,103,4620016,,,,,,,2025-05-09,1,,,,,ケーフラット,0
1817,6180001166676,新規,0,2025-05-09,2025-05-09,株式会社ウッドスプリング,,株式会社,愛知県,名古屋市瑞穂区,白砂町２丁目１７番地の１,,23,108,4670056,,,,,,,2025-05-09,1,,,,,ウッドスプリング,0
1818,6180001166742,新規,0,2025-05-09,2025-05-09,久屋鑑定株式会社,,株式会社,愛知県,名古屋市中区,丸の内３丁目５番１６号,,23,106,4600002,,,,,,,2025-05-09,1,,,,,ヒサヤカンテイ,0
1819,6180001166759,新規,0,2025-05-09,2025-05-09,株式会社シエルブルー,,株式会社,愛知県,小牧市,応時３丁目２６６番地１プラウド小牧口１１０３号,,23,219,4850832,,,,,,,2025-05-09,1,,,,,シエルブルー,0
1820,6180003028420,新規,0,2025-05-09,2025-05-09,合同会社ＫＯＲＯ,,合同会社,愛知県,名古屋市中村区,名駅３丁目４－１０アルティメイト名駅１ｓｔ２階,,23,105,4500002,,,,,,,2025-05-09,1,,,,,コロ,0
1822,6200001043740,新規,0,2025-05-09,2025-05-09,株式会社Ｔｏｍｍｙ,,株式会社,岐阜県,関市,池田町５２番地２,,21,205,5013247,,,,,,,2025-05-09,1,,,,,トミー,0
1823,6200001043757,新規,0,2025-05-09,2025-05-09,株式会社イマム,,株式会社,岐阜県,各務原市,各務東町３丁目１９８番地１,,21,213,5090103,,,,,,,2025-05-09,1,,,,,イマム,0
1827,6200003006811,新規,0,2025-05-09,2025-05-09,合同会社Ｍｉｎ１０,,合同会社,岐阜県,下呂市,萩原町桜洞１２０８番地１,,21,220,5092513,,,,,,,2025-05-09,1,,,,,ミント,0
1828,6210001020160,新規,0,2025-05-09,2025-05-09,株式会社Ｋ２,,株式会社,福井県,福井市,上江尻町第３号４０１番地,,18,201,9188174,,,,,,,2025-05-09,1,,,,,ケイツー,0
1831,6220001026669,新規,0,2025-05-09,2025-05-09,株式会社エンフォリアジャパン,,株式会社,石川県,加賀市,深田町イ６４－３,,17,206,9220566,,,,,,,2025-05-09,1,,,,,エンフォリアジャパン,0
1837,6240001064923,新規,0,2025-05-09,2025-05-09,株式会社ＴＳ,,株式会社,広島県,広島市安佐南区,大町西２丁目３０番２０号,,34,105,7310125,,,,,,,2025-05-09,1,,,,,ティーエス,0
1839,6250001021139,新規,0,2025-05-09,2025-05-09,株式会社西健,,株式会社,山口県,宇部市,大字妻崎開作１５１９番地９,,35,202,7590204,,,,,,,2025-05-09,1,,,,,ニシケン,0
1840,6250003003721,新規,0,2025-05-09,2025-05-09,合同会社ＨＡキャピタル,,合同会社,山口県,山口市,黒川２５７６番地４,,35,203,7530851,,,,,,,2025-05-09,1,,,,,エイチエイキャピタル,0
1843,6290001109962,新規,0,2025-05-09,2025-05-09,オクダスタイル株式会社,,株式会社,福岡県,福岡市東区,舞松原１丁目６番４９号グリーンハイツ１０１号,,40,131,8130042,,,,,,,2025-05-09,1,,,,,オクダスタイル,0
1844,6290001109970,新規,0,2025-05-09,2025-05-09,株式会社Ｆｕｕ　Ｆｕｕ,,株式会社,福岡県,福岡市早良区,曙１丁目１１－１－１０３,,40,137,8140004,,,,,,,2025-05-09,1,,,,,フーフー,0
1845,6290003016802,新規,0,2025-05-09,2025-05-09,Ｎｏｅｌ合同会社,,合同会社,福岡県,福岡市中央区,天神２丁目２番１２号Ｔ＆Ｊビルディング７Ｆ,,40,133,8100001,,,,,,,2025-05-09,1,,,,,ノエル,0
1846,6290003016810,新規,0,2025-05-09,2025-05-09,ＳＫ九州古賀１号蓄電所合同会社,,合同会社,福岡県,福岡市博多区,博多駅前２丁目１９番１７トーカン博多第５ビル１００１号,,40,132,8120011,,,,,,,2025-05-09,1,,,,,エスケイキュウシュウコガイチゴウチクデンショ,0
1855,6330001033183,新規,0,2025-05-09,2025-05-09,株式会社信西,,株式会社,熊本県,球磨郡多良木町,大字多良木５４５番地２,,43,505,8680501,,,,,,,2025-05-09,1,,,,,シンセイ,0
1858,6340001027317,新規,0,2025-05-09,2025-05-09,保険センター株式会社,,株式会社,鹿児島県,大島郡徳之島町,亀津７６４３番地２,,46,530,8917101,,,,,,,2025-05-09,1,,,,,ホケンセンター,0
1864,6360001035152,新規,0,2025-05-09,2025-05-09,株式会社ＫＡＺＵ開発,,株式会社,沖縄県,糸満市,字真栄平１９５番地１,,47,210,9010331,,,,,,,2025-05-09,1,,,,,カズカイハツ,0
1865,6370001052551,新規,0,2025-05-09,2025-05-09,Ｕｎｂｅｒ株式会社,,株式会社,宮城県,仙台市青葉区,国見６丁目２４－２７,,04,101,9810943,,,,,,,2025-05-09,1,,,,,アンバー,0
1867,6390001017981,新規,0,2025-05-09,2025-05-09,Ｇｌｏｃａｌ　Ｇｌｏｗ株式会社,,株式会社,山形県,東田川郡三川町,大字押切新田字三本木８０番地,,06,426,9971321,,,,,,,2025-05-09,1,,,,,グローカルグロー,0
1871,6430001094298,新規,0,2025-05-09,2025-05-09,株式会社磯部水産,,株式会社,北海道,岩内郡岩内町,字敷島内３３番地４,,01,402,0450025,,,,,,,2025-05-09,1,,,,,イソベスイサン,0
1872,6430001094372,新規,0,2025-05-09,2025-05-09,株式会社いろは,,株式会社,北海道,恵庭市,本町２８番地,,01,231,0611413,,,,,,,2025-05-09,1,,,,,イロハ,0
1876,6450001014618,新規,0,2025-05-09,2025-05-09,株式会社康仁,,株式会社,北海道,旭川市,永山一条１３丁目２番１０号,,01,204,0798411,,,,,,,2025-05-09,1,,,,,コウジン,0
1878,6480001012825,新規,0,2025-05-09,2025-05-09,株式会社いであ,,株式会社,徳島県,板野郡北島町,中村字西ノ瀬２７番地アーバンエベンエゼル１０６号室,,36,402,7710203,,,,,,,2025-05-09,1,,,,,イデア,0
1880,6490001011041,新規,0,2025-05-09,2025-05-09,株式会社ＡＴＫ,,株式会社,高知県,高知市,南久万８３番地７,,39,201,7800985,,,,,,,2025-05-09,1,,,,,エーティーケー,0
1897,7010001254430,新規,0,2025-05-09,2025-05-09,ｆｕｎｌｅａｄ株式会社,,株式会社,東京都,中央区,銀座１丁目１２番４号Ｎ＆ＥＢＬＤ．６Ｆ,,13,102,1040061,,,,,,,2025-05-09,1,,,,,ファンリード,0
1898,7010001254843,新規,0,2025-05-09,2025-05-09,株式会社クロスベース,,株式会社,東京都,千代田区,神田神保町１丁目９ＫＯＡＬＡＢＬＤＧ．ＪＩＭＢＯＣＨＯ,,13,101,1010051,,,,,,,2025-05-09,1,,,,,クロスベース,0
1901,7010003047270,新規,0,2025-05-09,2025-05-09,Ａｄａｃａｉ合同会社,,合同会社,東京都,中央区,銀座１丁目１２番４号Ｎ＆ＥＢＬＤ．６Ｆ,,13,102,1040061,,,,,,,2025-05-09,1,,,,,アダカイ,0
1902,7010003047279,新規,0,2025-05-09,2025-05-09,ＢＤＯ　ＣａＮ　ＦＡＳ合同会社,,合同会社,東京都,中央区,日本橋茅場町１丁目９番２号第一稲村ビル７階,,13,102,1030025,,,,,,,2025-05-09,1,,,,,ビーディーオーキャンファズ,0
1903,7010003047304,新規,0,2025-05-09,2025-05-09,ＡＤＯＦ　ＩＩ合同会社,,合同会社,東京都,千代田区,麹町１丁目７番地相互半蔵門ビルディング３階,,13,101,1020083,,,,,,,2025-05-09,1,,,,,エイドフツー,0
1905,7010101016672,新規,0,2025-05-09,2025-05-09,株式会社小田咲,,株式会社,東京都,八王子市,上野町３５番地１,,13,201,1920902,,,,,,,2025-05-09,1,,,,,オダサク,0
1911,7010401190267,新規,0,2025-05-09,2025-05-09,株式会社さやみ,,株式会社,東京都,港区,芝浦３丁目４‐２‐１６０４,,13,103,1080023,,,,,,,2025-05-09,1,,,,,サヤミ,0
1912,7010403035024,新規,0,2025-05-09,2025-05-09,Ｒｏｂｅｒｔｓｈａｗ合同会社,,合同会社,東京都,港区,虎ノ門４丁目３番１号城山トラストタワー東京赤坂法律事務所内,,13,103,1050001,,,,,,,2025-05-09,1,,,,,ロバートショウ,0
1915,7010701047646,新規,0,2025-05-09,2025-05-09,ＶＩＴＵＲＥ　ＪＰ株式会社,,株式会社,東京都,品川区,西五反田２丁目１１番１５－６０３号,,13,109,1410031,,,,,,,2025-05-09,1,,,,,ヴィチュアージェピー,0
1918,7010703007697,新規,0,2025-05-09,2025-05-09,合同会社Ｍ,,合同会社,東京都,品川区,上大崎２丁目１８番２５号目黒三田フラワーマンション４０５,,13,109,1410021,,,,,,,2025-05-09,1,,,,,エム,0
1920,7010801036128,新規,0,2025-05-09,2025-05-09,ＰＴＧ株式会社,,株式会社,東京都,大田区,山王２丁目１番８号山王アーバンライフ１１２１号室,,13,111,1430023,,,,,,,2025-05-09,1,,,,,ピーティージー,0
1922,7010803005378,新規,0,2025-05-09,2025-05-09,合同会社Ｒｅｎａｔｕｓ,,合同会社,東京都,大田区,久が原２丁目２５番８号,,13,111,1460085,,,,,,,2025-05-09,1,,,,,レナトゥス,0
1923,7010901057321,新規,0,2025-05-09,2025-05-09,不動産ソリューション株式会社,,株式会社,東京都,世田谷区,三宿１丁目１０－２３,,13,112,1540005,,,,,,,2025-05-09,1,,,,,フドウサンソリューション,0
1926,7011001169701,新規,0,2025-05-09,2025-05-09,株式会社ＥＸＩＯ　ＧＬＯＢＡＬ,,株式会社,東京都,目黒区,目黒本町４丁目１１番１５号,,13,110,1520002,,,,,,,2025-05-09,1,,,,,エクシオグローバル,0
1930,7011003021620,新規,0,2025-05-09,2025-05-09,合同会社Ｌｏｆｉｌｙ,,合同会社,東京都,渋谷区,道玄坂１丁目１６－６二葉ビル８ｂ,,13,113,1500043,,,,,,,2025-05-09,1,,,,,ロフィリ,0
1934,7011105011445,新規,0,2025-05-09,2025-05-09,一般社団法人ジェイ・エイチ・ダブリュー,,その他の設立登記法人,東京都,新宿区,下宮比町１番４号,,13,104,1620822,,,,,,,2025-05-09,1,,,,,ジェイエイチダブリュー,0
1935,7011203004689,新規,0,2025-05-09,2025-05-09,ＰＯＮＯＲＩ合同会社,,合同会社,東京都,中野区,中野５丁目６７番７号プラザ中野８０１,,13,114,1640001,,,,,,,2025-05-09,1,,,,,ポノリ,0
1942,7011301030579,新規,0,2025-05-09,2025-05-09,アリンコサービス株式会社,,株式会社,東京都,杉並区,成田東４丁目１４番２２号,,13,115,1660015,,,,,,,2025-05-09,1,,,,,アリンコサービス,0
1943,7011401027070,新規,0,2025-05-09,2025-05-09,Ｆ．Ｆ株式会社,,株式会社,東京都,板橋区,清水町４６番７－１００１号,,13,119,1740053,,,,,,,2025-05-09,1,,,,,エフドットエフ,0
1947,7011405002391,新規,0,2025-05-09,2025-05-09,一般社団法人日本獣医臨床病理学会,,その他の設立登記法人,東京都,板橋区,小豆沢２丁目９番１９号,,13,119,1740051,,,,,,,2025-05-09,1,,,,,ニホンジュウイリンショウビョウリガッカイ,0
1949,7011503006518,新規,0,2025-05-09,2025-05-09,合同会社ＳＴＵＤＩＯ・ＫＡＧＵＲＡ,,合同会社,東京都,北区,中里１丁目５番１１－２０１号メゾンデラビル,,13,117,1140015,,,,,,,2025-05-09,1,,,,,スタジオカグラ,0
1953,7011801046091,新規,0,2025-05-09,2025-05-09,株式会社ＭＡＲＩＥ　ＪＥＷＥＬＲＹ,,株式会社,東京都,葛飾区,高砂２丁目１９番１１号,,13,122,1250054,,,,,,,2025-05-09,1,,,,,マリエジュエリー,0
1958,7012401043066,新規,0,2025-05-09,2025-05-09,株式会社ａｓｉ,,株式会社,東京都,小金井市,前原町３丁目１０番５号メゾンノア２０２,,13,210,1840013,,,,,,,2025-05-09,1,,,,,エーエスアイ,0
1959,7012403007110,新規,0,2025-05-09,2025-05-09,合同会社雅都,,合同会社,東京都,小金井市,貫井北町１丁目８番３１号,,13,210,1840015,,,,,,,2025-05-09,1,,,,,ミヤビト,0
1960,7012405005112,新規,0,2025-05-09,2025-05-09,一般社団法人Ｒａｉｌ　ＤｉＭｅＣ,,その他の設立登記法人,東京都,武蔵野市,吉祥寺東町１丁目２０番２号,,13,203,1800002,,,,,,,2025-05-09,1,,,,,レイルディーメック,0
1963,7012703003271,新規,0,2025-05-09,2025-05-09,合同会社Ｎｅｏ　Ｓｅａｓｏｎ,,合同会社,東京都,西東京市,保谷町３丁目９番７号柳沢ゴールデンハイツ１０１号,,13,229,2020015,,,,,,,2025-05-09,1,,,,,ネオシーズン,0
1983,7020001162756,新規,0,2025-05-09,2025-05-09,株式会社ＮｙｕＲ,,株式会社,神奈川県,川崎市幸区,小向西町２丁目３９番地４,,14,132,2120004,,,,,,,2025-05-09,1,,,,,ニューアール,0
1984,7020001162772,新規,0,2025-05-09,2025-05-09,株式会社ＡＮＢＯＵＮＤジャパン,,株式会社,神奈川県,横浜市青葉区,しらとり台２－３１ハイム青葉台,,14,117,2270054,,,,,,,2025-05-09,1,,,,,アンバウンドジャパン,0
1985,7020001162780,新規,0,2025-05-09,2025-05-09,株式会社グリーンサイクル,,株式会社,神奈川県,横浜市旭区,三反田町２７１番地２,,14,112,2410013,,,,,,,2025-05-09,1,,,,,グリーンサイクル,0
1989,7020003028427,新規,0,2025-05-09,2025-05-09,合同会社糸と音,,合同会社,神奈川県,横浜市西区,西平沼町４番１－Ｅ１２０４号,,14,103,2200024,,,,,,,2025-05-09,1,,,,,イトトオト,0
1990,7020003028451,新規,0,2025-05-09,2025-05-09,合同会社ＭＲＯ,,合同会社,神奈川県,横浜市西区,戸部町５丁目１９７番地クリオ横浜高島町壱番館６０３号室,,14,103,2200042,,,,,,,2025-05-09,1,,,,,エムアールオー,0
1992,7021001085162,新規,0,2025-05-09,2025-05-09,株式会社ノーリサーチ,,株式会社,神奈川県,相模原市南区,相武台２丁目２２番５号,,14,153,2520324,,,,,,,2025-05-09,1,,,,,ノーリサーチ,0
1993,7021001085170,新規,0,2025-05-09,2025-05-09,株式会社ａｄａＺｉａｎＳｔｕｄｉｏ,,株式会社,神奈川県,鎌倉市,津西１丁目１３番１号,,14,204,2480034,,,,,,,2025-05-09,1,,,,,アダジャンスタジオ,0
1994,7021001085179,新規,0,2025-05-09,2025-05-09,株式会社三栄リアルティ,,株式会社,神奈川県,小田原市,久野４６９番地,,14,206,2500055,,,,,,,2025-05-09,1,,,,,サンエイリアルティ,0
1995,7021001085187,新規,0,2025-05-09,2025-05-09,株式会社結‐ゆい,,株式会社,神奈川県,茅ヶ崎市,室田１丁目１１番２７－３号,,14,207,2530018,,,,,,,2025-05-09,1,,,,,ユイ,0
1996,7021001085195,新規,0,2025-05-09,2025-05-09,株式会社ガニエ,,株式会社,神奈川県,小田原市,南鴨宮３丁目６番８号,,14,206,2500875,,,,,,,2025-05-09,1,,,,,ガニエ,0
1998,7021003015811,新規,0,2025-05-09,2025-05-09,合同会社Ｍａｒｉｎ,,合同会社,神奈川県,相模原市南区,上鶴間本町４丁目４３番１６号,,14,153,2520318,,,,,,,2025-05-09,1,,,,,マリン,0
1999,7021003015943,新規,0,2025-05-09,2025-05-09,Ｒ　Ｉｎｃ．合同会社,,合同会社,神奈川県,平塚市,紅谷町１４番３号カメヤＫ１ビル２階,,14,203,2540043,,,,,,,2025-05-09,1,,,,,アールインク,0
2008,7030001166343,新規,0,2025-05-09,2025-05-09,株式会社Ｎｉｃｏ　Ｖｅｔ,,株式会社,埼玉県,川口市,大字東本郷１８００番地の５,,11,203,3340063,,,,,,,2025-05-09,1,,,,,ニコベット,0
2011,7030003026644,新規,0,2025-05-09,2025-05-09,山田木材合同会社,,合同会社,埼玉県,飯能市,大字坂石町分２７６番地１１,,11,209,3570213,,,,,,,2025-05-09,1,,,,,ヤマダモクザイ,0
2012,7030003026710,新規,0,2025-05-09,2025-05-09,合同会社亜久志須,,合同会社,埼玉県,三郷市,彦成３丁目１２１番地４,,11,237,3410003,,,,,,,2025-05-09,1,,,,,アクシズ,0
2013,7030003026719,新規,0,2025-05-09,2025-05-09,合同会社ＤＮＣＲ,,合同会社,埼玉県,児玉郡上里町,大字金久保７１２番地５,,11,385,3690301,,,,,,,2025-05-09,1,,,,,ディーエヌシーアール,0
2014,7030003026743,新規,0,2025-05-09,2025-05-09,合同会社ｌｉｎｋ　ｕｐ．,,合同会社,埼玉県,飯能市,大字岩沢６２７番地５,,11,209,3570023,,,,,,,2025-05-09,1,,,,,リンクアップ,0
2015,7030005022162,新規,0,2025-05-09,2025-05-09,社会福祉法人ラベンダー,,その他の設立登記法人,埼玉県,ふじみ野市,西鶴ケ岡２丁目１０番１号,,11,245,3560044,,,,,,,2025-05-09,1,,,,,ラベンダー,0
2020,7040001138589,新規,0,2025-05-09,2025-05-09,株式会社ＨＢ　ＬＩＶＩＮＧ,,株式会社,千葉県,八千代市,八千代台南２丁目１０番５号,,12,221,2760033,,,,,,,2025-05-09,1,,,,,エイチビーリヴィング,0
2021,7040001138622,新規,0,2025-05-09,2025-05-09,株式会社Ｃ２,,株式会社,千葉県,我孫子市,天王台５丁目２番２－９０１号ハイマート天王台Ａ,,12,222,2701143,,,,,,,2025-05-09,1,,,,,シーツー,0
2022,7040001138630,新規,0,2025-05-09,2025-05-09,株式会社ＩＲＯＤＯＲＩ,,株式会社,千葉県,佐倉市,中志津５丁目２－１９,,12,212,2850843,,,,,,,2025-05-09,1,,,,,イロドリ,0
2023,7040001138655,新規,0,2025-05-09,2025-05-09,ユニカレント株式会社,,株式会社,千葉県,松戸市,新松戸６丁目１２８番地メゾン日暮１０５号,,12,207,2700034,,,,,,,2025-05-09,1,,,,,ユニカレント,0
2029,7050001056641,新規,0,2025-05-09,2025-05-09,株式会社サンエックス,,株式会社,茨城県,古河市,諸川１１３６番地１プレッソ２０１号,,08,204,3060126,,,,,,,2025-05-09,1,,,,,サンエックス,0
2033,7060003005546,新規,0,2025-05-09,2025-05-09,合同会社芳賀伐採,,合同会社,栃木県,芳賀郡益子町,大字塙２８０１番地１０,,09,342,3214216,,,,,,,2025-05-09,1,,,,,ハガバッサイ,0
2034,7070001042912,新規,0,2025-05-09,2025-05-09,株式会社みくに設計事務所,,株式会社,群馬県,高崎市,請地町１番地７,,10,202,3700067,,,,,,,2025-05-09,1,,,,,ミクニセッケイジムショ,0
2042,7090001019256,新規,0,2025-05-09,2025-05-09,大石工業株式会社,,株式会社,山梨県,甲斐市,富竹新田７５３番地１０,,19,210,4000113,,,,,,,2025-05-09,1,,,,,オオイシコウギョウ,0
2046,7100001038592,新規,0,2025-05-09,2025-05-09,ハーモニーユニオン株式会社,,株式会社,長野県,諏訪郡原村,１７２１７番地１１４丸山の森別荘地Ｃ８５,,20,363,3910100,,,,,,,2025-05-09,1,,,,,ハーモニーユニオン,0
2063,7120001275119,新規,0,2025-05-09,2025-05-09,正栄株式会社,,株式会社,大阪府,大阪市西成区,南津守７丁目８番６号アクティ玉出３Ｄ号室,,27,122,5570063,,,,,,,2025-05-09,1,,,,,マサエイ,0
2064,7120001275151,新規,0,2025-05-09,2025-05-09,Ｔｒｅｎｄ　Ｍｏｔｉｏｎ　Ｏｓａｋａ株式会社,,株式会社,大阪府,大阪市中央区,上汐１丁目４番１０－３０３号,,27,128,5420064,,,,,,,2025-05-09,1,,,,,トレンドモーションオオサカ,0
2065,7120001275218,新規,0,2025-05-09,2025-05-09,株式会社ミヤパレスワン,,株式会社,大阪府,大阪市中央区,久太郎町１丁目５番３１号リアライズ堺筋本町ビル６０４号,,27,128,5410056,,,,,,,2025-05-09,1,,,,,ミヤパレスワン,0
2066,7120001275226,新規,0,2025-05-09,2025-05-09,株式会社アネシスター,,株式会社,大阪府,大阪市北区,梅田１丁目２番２号大阪駅前第２ビル１２－１２,,27,127,5300001,,,,,,,2025-05-09,1,,,,,アネシスター,0
2067,7120001275259,新規,0,2025-05-09,2025-05-09,エージェント・パートナーズ株式会社,,株式会社,大阪府,大阪市住吉区,我孫子１丁目２番１８号－３０４号,,27,120,5580014,,,,,,,2025-05-09,1,,,,,エージェントパートナーズ,0
2068,7120001275267,新規,0,2025-05-09,2025-05-09,大旗株式会社,,株式会社,大阪府,大阪市西成区,萩之茶屋２丁目６番４号,,27,122,5570004,,,,,,,2025-05-09,1,,,,,タイキ,0
2069,7120001275275,新規,0,2025-05-09,2025-05-09,株式会社ショーエイサイエンス,,株式会社,大阪府,大阪市旭区,今市２丁目２２番３－１００４号,,27,117,5350011,,,,,,,2025-05-09,1,,,,,ショーエイサイエンス,0
2070,7120001275291,新規,0,2025-05-09,2025-05-09,株式会社Ｐａｐｅｒ,,株式会社,大阪府,大阪市旭区,大宮４丁目２２番１５－２０３号,,27,117,5350002,,,,,,,2025-05-09,1,,,,,ペーパー,0
2071,7120001275647,新規,0,2025-05-09,2025-05-09,海川株式会社,,株式会社,大阪府,大阪市都島区,中野町１丁目３番１６－１０１号,,27,102,5340027,,,,,,,2025-05-09,1,,,,,ウミカワ,0
2077,7120003029324,新規,0,2025-05-09,2025-05-09,福隆合同会社,,合同会社,大阪府,大阪市生野区,巽西３丁目１３番１０号,,27,116,5440012,,,,,,,2025-05-09,1,,,,,フクリュウ,0
2078,7120003029332,新規,0,2025-05-09,2025-05-09,ＨＯＡＮＧ　ＰＣ合同会社,,合同会社,大阪府,大阪市西成区,岸里東１丁目１９－７時栄ビル２０１,,27,122,5570042,,,,,,,2025-05-09,1,,,,,ホアンピシ,0
2082,7120101071649,新規,0,2025-05-09,2025-05-09,ＡＮＮＡ　ＥＮＴＥＲＰＲＩＳＥ株式会社,,株式会社,大阪府,松原市,天美東５丁目５番２４号,,27,217,5800032,,,,,,,2025-05-09,1,,,,,アンナエンタープライズ,0
2095,7122001039156,新規,0,2025-05-09,2025-05-09,力拓株式会社,,株式会社,大阪府,東大阪市,上小阪４丁目１０－１５、２０２号室,,27,227,5770806,,,,,,,2025-05-09,1,,,,,リキタク,0
2096,7122001039180,新規,0,2025-05-09,2025-05-09,株式会社シン・ワークス,,株式会社,大阪府,東大阪市,池島町３丁目５番５号,,27,227,5798064,,,,,,,2025-05-09,1,,,,,シンワークス,0
2097,7122001039189,新規,0,2025-05-09,2025-05-09,明徳株式会社,,株式会社,大阪府,東大阪市,若江西新町４丁目６番１０－１０５号,,27,227,5780944,,,,,,,2025-05-09,1,,,,,メイトク,0
2098,7122001039206,新規,0,2025-05-09,2025-05-09,株式会社ＴＭキャピタル,,株式会社,大阪府,東大阪市,神田町７番１４号,,27,227,5798058,,,,,,,2025-05-09,1,,,,,ティーエムキャピタル,0
2102,7130001079626,新規,0,2025-05-09,2025-05-09,株式会社オフィス岡島,,株式会社,京都府,京都市中京区,室町通二条下る蛸薬師町２８３番地,,26,104,6040021,,,,,,,2025-05-09,1,,,,,オフィスオカジマ,0
2105,7130005017367,新規,0,2025-05-09,2025-05-09,一般社団法人京都スポーツ・文化クラブ,,その他の設立登記法人,京都府,京都市伏見区,深草瓦町４３番地２テラ・リーブリー瓦町１０５号,,26,109,6120873,,,,,,,2025-05-09,1,,,,,キョウトスポーツブンカクラブ,0
2113,7140001138430,新規,0,2025-05-09,2025-05-09,株式会社エイトウイング,,株式会社,兵庫県,赤穂市,清水町１０番地４０,,28,212,6780212,,,,,,,2025-05-09,1,,,,,エイトウイング,0
2114,7140001138463,新規,0,2025-05-09,2025-05-09,株式会社ｐｌｕｓ,,株式会社,兵庫県,西宮市,鳴尾町５丁目８番１９号,,28,204,6638184,,,,,,,2025-05-09,1,,,,,プラス,0
2120,7140003022021,新規,0,2025-05-09,2025-05-09,合同会社田前工業,,合同会社,兵庫県,神戸市西区,森友５丁目７７番１－３０５号,,28,111,6512132,,,,,,,2025-05-09,1,,,,,タマエコウギョウ,0
2121,7150001028110,新規,0,2025-05-09,2025-05-09,株式会社Ｉｒｏｈａ,,株式会社,奈良県,葛城市,長尾３６６番地Ａ２０２号室,,29,211,6392164,,,,,,,2025-05-09,1,,,,,イロハ,0
2122,7160001026732,新規,0,2025-05-09,2025-05-09,株式会社ｗｉｔｈ,,株式会社,滋賀県,大津市,青山５丁目２番１９号,,25,201,5202101,,,,,,,2025-05-09,1,,,,,ウイズ,0
2123,7160003003465,新規,0,2025-05-09,2025-05-09,ｍｅａｌｕｕ合同会社,,合同会社,滋賀県,大津市,山百合の丘２０番５号,,25,201,5200357,,,,,,,2025-05-09,1,,,,,ミールー,0
2124,7160003003473,新規,0,2025-05-09,2025-05-09,Ａｌｈｅｎａ合同会社,,合同会社,滋賀県,大津市,本丸町６番１１－４０２号,,25,201,5200814,,,,,,,2025-05-09,1,,,,,アルヘナ,0
2140,7200001043748,新規,0,2025-05-09,2025-05-09,ＭＩＲＡＩデジタルソリューションズ株式会社,,株式会社,岐阜県,岐阜市,六条南３丁目９番１６－１０２号（シェトワ六条）,,21,201,5008358,,,,,,,2025-05-09,1,,,,,ミライデジタルソリューションズ,0
2144,7220001026676,新規,0,2025-05-09,2025-05-09,株式会社ｌｉｂｅｒｔｙ,,株式会社,石川県,加賀市,二子塚町１０３番地１,,17,206,9220325,,,,,,,2025-05-09,1,,,,,リバティ,0
2147,7220005008968,新規,0,2025-05-09,2025-05-09,一般社団法人ベルユニティ,,その他の設立登記法人,石川県,野々市市,粟田６丁目４５４番地,,17,212,9218823,,,,,,,2025-05-09,1,,,,,ベルユニティ,0
2152,7250003003720,新規,0,2025-05-09,2025-05-09,ヒマココ合同会社,,合同会社,山口県,下関市,彦島海士郷町２３番８号,,35,201,7500071,,,,,,,2025-05-09,1,,,,,ヒマココ,0
2158,7290001109929,新規,0,2025-05-09,2025-05-09,株式会社まつだ設計,,株式会社,福岡県,福津市,津屋崎７丁目１４番５号,,40,224,8113304,,,,,,,2025-05-09,1,,,,,マツダセッケイ,0
2159,7290001109937,新規,0,2025-05-09,2025-05-09,株式会社Ｎ．Ｓテクノ,,株式会社,福岡県,福岡市南区,高宮４丁目１３番２８号ヒルズ高宮Ａ棟１０２号室,,40,134,8150083,,,,,,,2025-05-09,1,,,,,エヌエステクノ,0
2160,7290001109945,新規,0,2025-05-09,2025-05-09,株式会社いことも,,株式会社,福岡県,福岡市中央区,大手門３丁目１３番２３－１号,,40,133,8100074,,,,,,,2025-05-09,1,,,,,イコトモ,0
2161,7290001109953,新規,0,2025-05-09,2025-05-09,株式会社ＭＢＲ,,株式会社,福岡県,筑紫野市,桜台２丁目３番８号,,40,217,8180063,,,,,,,2025-05-09,1,,,,,エムビーアール,0
2164,7320001021080,新規,0,2025-05-09,2025-05-09,株式会社丸長旅館,,株式会社,大分県,竹田市,直入町大字長湯７９９５番地２,,44,208,8780402,,,,,,,2025-05-09,1,,,,,マルチョウリョカン,0
2165,7330001033182,新規,0,2025-05-09,2025-05-09,株式会社アドバンスＫＡＯ,,株式会社,熊本県,山鹿市,鹿央町千田２１８５番地,,43,208,8610563,,,,,,,2025-05-09,1,,,,,アドバンスカオウ,0
2168,7340001027324,新規,0,2025-05-09,2025-05-09,株式会社ＭＴＫ,,株式会社,鹿児島県,鹿児島市,西田２丁目１２番１０号,,46,201,8900046,,,,,,,2025-05-09,1,,,,,エムティーケイ,0
2174,7360001035135,新規,0,2025-05-09,2025-05-09,株式会社Ｓｏｌ　Ｃｏｒｐｏｒａｔｉｏｎ,,株式会社,沖縄県,うるま市,字川崎３３７番地,,47,213,9042203,,,,,,,2025-05-09,1,,,,,ソルコーポレーション,0
2176,7370003007081,新規,0,2025-05-09,2025-05-09,合同会社ｕｓｕａｌ,,合同会社,宮城県,仙台市若林区,若林５丁目４番５８－２０７号,,04,103,9840826,,,,,,,2025-05-09,1,,,,,ユージュアル,0
2179,7380001035298,新規,0,2025-05-09,2025-05-09,ＤＥＩ株式会社,,株式会社,福島県,いわき市,平字田町１６番地の４ルネサンスビル５Ｆ,,07,204,9708026,,,,,,,2025-05-09,1,,,,,デイ,0
2187,7420001019123,新規,0,2025-05-09,2025-05-09,株式会社マウスクリア,,株式会社,青森県,八戸市,大字新井田字西平２８番地２４,,02,203,0310813,,,,,,,2025-05-09,1,,,,,マウスクリア,0
2191,7430001094339,新規,0,2025-05-09,2025-05-09,株式会社ノースリフォーム,,株式会社,北海道,札幌市白石区,菊水九条１丁目２番３４号,,01,104,0030809,,,,,,,2025-05-09,1,,,,,ノースリフォーム,0
2192,7430001094347,新規,0,2025-05-09,2025-05-09,株式会社サイアーライン,,株式会社,北海道,札幌市豊平区,美園五条３丁目２番２３号,,01,105,0620005,,,,,,,2025-05-09,1,,,,,サイアーライン,0
2196,7430003017611,新規,0,2025-05-09,2025-05-09,合同会社まる八,,合同会社,北海道,砂川市,西一条北８丁目６番２号,,01,226,0730161,,,,,,,2025-05-09,1,,,,,マルハチ,0
2198,7450001014609,新規,0,2025-05-09,2025-05-09,旭東ホールディングス株式会社,,株式会社,北海道,旭川市,新星町１丁目１番９号,,01,204,0700014,,,,,,,2025-05-09,1,,,,,キョクトウホールディングス,0
2214,8010001254834,新規,0,2025-05-09,2025-05-09,ＴＣＧ２５０１株式会社,,株式会社,東京都,千代田区,丸の内１丁目５番１号,,13,101,1000005,,,,,,,2025-05-09,1,,,,,ティーシージーニーゴーゼロイチ,0
2217,8010003047220,新規,0,2025-05-09,2025-05-09,ＡＡＪＫ合同会社,,合同会社,東京都,千代田区,霞が関３丁目２番５号,,13,101,1000013,,,,,,,2025-05-09,1,,,,,エーエージェーケー,0
2218,8010003047237,新規,0,2025-05-09,2025-05-09,合同会社ＦＰ渡邉爽介,,合同会社,東京都,中央区,京橋２丁目５－１ＴＣＭビルディング７Ｆ,,13,102,1040031,,,,,,,2025-05-09,1,,,,,エフピーワタナベソウスケ,0
2227,8010401190092,新規,0,2025-05-09,2025-05-09,リビジョンコンサルティング株式会社,,株式会社,東京都,港区,元赤坂１丁目１番７号,,13,103,1070051,,,,,,,2025-05-09,1,,,,,リビジョンコンサルティング,0
2228,8010401190150,新規,0,2025-05-09,2025-05-09,サーデェアウ株式会社,,株式会社,東京都,港区,港南２丁目１６番１号品川ＥａｓｔＯｎｅＴｏｗｅｒ７Ｆ,,13,103,1080075,,,,,,,2025-05-09,1,,,,,サーデェアウ,0
2230,8010403035048,新規,0,2025-05-09,2025-05-09,合同会社レジデンスアセットソリューション４号,,合同会社,東京都,港区,港南２丁目１５番３号,,13,103,1080075,,,,,,,2025-05-09,1,,,,,レジデンスアセットソリューションヨンゴウ,0
2233,8010501054049,新規,0,2025-05-09,2025-05-09,株式会社ＬＩＮＫＳＴＡＹ,,株式会社,東京都,台東区,東上野５丁目１１番９号－１Ｆ,,13,106,1100015,,,,,,,2025-05-09,1,,,,,リンクステイ,0
2241,8010701047653,新規,0,2025-05-09,2025-05-09,株式会社天王国,,株式会社,東京都,品川区,東品川２丁目３番１２号,,13,109,1400002,,,,,,,2025-05-09,1,,,,,テンオウコク,0
2242,8010701047661,新規,0,2025-05-09,2025-05-09,Ｘｕｎｓ株式会社,,株式会社,東京都,品川区,荏原２丁目８番９号パレス戸越銀座２０５,,13,109,1420063,,,,,,,2025-05-09,1,,,,,サンズ,0
2250,8010803005377,新規,0,2025-05-09,2025-05-09,合同会社ヴェイロングループ,,合同会社,東京都,大田区,大森北４丁目１７番１３号パレステージ大森３０３,,13,111,1430016,,,,,,,2025-05-09,1,,,,,ヴェイロングループ,0
2254,8010901057312,新規,0,2025-05-09,2025-05-09,ミームクラフト株式会社,,株式会社,東京都,世田谷区,新町２丁目３８番２３－２０１号,,13,112,1540014,,,,,,,2025-05-09,1,,,,,ミームクラフト,0
2255,8010901057329,新規,0,2025-05-09,2025-05-09,株式会社ＹＺ,,株式会社,東京都,世田谷区,北沢２丁目５番２号,,13,112,1550031,,,,,,,2025-05-09,1,,,,,ワイジー,0
2256,8010903009897,新規,0,2025-05-09,2025-05-09,合同会社ＪＳインサイト,,合同会社,東京都,世田谷区,船橋１丁目９番９－１０５号,,13,112,1560055,,,,,,,2025-05-09,1,,,,,ジェイエスインサイト,0
2272,8011601028628,新規,0,2025-05-09,2025-05-09,株式会社マトリックスホーム,,株式会社,東京都,練馬区,田柄１丁目１６番６号,,13,120,1790073,,,,,,,2025-05-09,1,,,,,マトリックスホーム,0
2277,8011701028313,新規,0,2025-05-09,2025-05-09,エレガントエックス株式会社,,株式会社,東京都,江戸川区,西小岩１丁目５番５号,,13,123,1330057,,,,,,,2025-05-09,1,,,,,エレガントエックス,0
2278,8011801046099,新規,0,2025-05-09,2025-05-09,株式会社ＭＩＳＥＲＹ,,株式会社,東京都,足立区,千住旭町１２番３号菊池ハイツ２－２０１,,13,121,1200026,,,,,,,2025-05-09,1,,,,,ミザリー,0
2279,8011803006836,新規,0,2025-05-09,2025-05-09,合同会社ＴＯ,,合同会社,東京都,葛飾区,新宿６丁目２番１－３３０号シティタワー金町タワー棟,,13,122,1250051,,,,,,,2025-05-09,1,,,,,ティーオー,0
2283,8012703003270,新規,0,2025-05-09,2025-05-09,Ｇ‐ＰＯＷＥＲ　Ａ．Ｓ合同会社,,合同会社,東京都,西東京市,田無町１丁目２番２６－５０１号,,13,229,1880011,,,,,,,2025-05-09,1,,,,,ジーパワーエーエス,0
2285,8012803003732,新規,0,2025-05-09,2025-05-09,合同会社ＨＡＫＵ,,合同会社,東京都,国分寺市,本町２丁目７番２号ハウスアメニティ９９－８０５号室,,13,214,1850012,,,,,,,2025-05-09,1,,,,,ハク,0
2303,8020001162763,新規,0,2025-05-09,2025-05-09,株式会社Ｔ‐ＲＩＺＥ,,株式会社,神奈川県,横浜市金沢区,朝比奈町１４６番地,,14,108,2360034,,,,,,,2025-05-09,1,,,,,ティライズ,0
2305,8020003028426,新規,0,2025-05-09,2025-05-09,合同会社中川商店,,合同会社,神奈川県,横浜市神奈川区,子安通３丁目３６０番地４,,14,102,2210021,,,,,,,2025-05-09,1,,,,,ナカガワショウテン,0
2306,8020003028450,新規,0,2025-05-09,2025-05-09,合同会社川越屋,,合同会社,神奈川県,横浜市西区,中央１丁目３番１５－６０１号,,14,103,2200051,,,,,,,2025-05-09,1,,,,,カワゴエヤ,0
2310,8021001085161,新規,0,2025-05-09,2025-05-09,株式会社Ｔａｚａｗａ　ｇｒｏｕｐ,,株式会社,神奈川県,藤沢市,湘南台１丁目１５番地の２１ガーデンパレス湘南台１０１,,14,205,2520804,,,,,,,2025-05-09,1,,,,,タザワグループ,0
2311,8021001085194,新規,0,2025-05-09,2025-05-09,株式会社窪松設備,,株式会社,神奈川県,大和市,桜森２丁目１２番１０号クローバーライフ桜森２０１号,,14,213,2420028,,,,,,,2025-05-09,1,,,,,クボマツセツビ,0
2314,8021003015901,新規,0,2025-05-09,2025-05-09,合同会社壱新,,合同会社,神奈川県,座間市,栗原中央４丁目９－５,,14,216,2520014,,,,,,,2025-05-09,1,,,,,イッシン,0
2320,8030001166342,新規,0,2025-05-09,2025-05-09,株式会社ＫＩＮＵＫＡフローラル・ブラッサム,,株式会社,埼玉県,ふじみ野市,うれし野２丁目１４番９号,,11,245,3560056,,,,,,,2025-05-09,1,,,,,キヌカフローラルブラッサム,0
2321,8030001166350,新規,0,2025-05-09,2025-05-09,株式会社Ｅ・ＨＯＮＥＳＴ,,株式会社,埼玉県,さいたま市緑区,大字大門１５５４番地１,,11,109,3360963,,,,,,,2025-05-09,1,,,,,イーホネスト,0
2322,8030001166383,新規,0,2025-05-09,2025-05-09,株式会社ヴィンテージ,,株式会社,埼玉県,本庄市,緑３丁目１番２３号,,11,211,3670043,,,,,,,2025-05-09,1,,,,,ヴィンテージ,0
2323,8030001166425,新規,0,2025-05-09,2025-05-09,Ｋ２Ｃ株式会社,,株式会社,埼玉県,越谷市,登戸町２９番２０－２号,,11,222,3430846,,,,,,,2025-05-09,1,,,,,ケーツーシー,0
2324,8030001166433,新規,0,2025-05-09,2025-05-09,ＪＣＣ株式会社,,株式会社,埼玉県,戸田市,喜沢１丁目３２番地の２２,,11,224,3350013,,,,,,,2025-05-09,1,,,,,ジェイシーシー,0
2325,8030001166458,新規,0,2025-05-09,2025-05-09,株式会社バックドア,,株式会社,埼玉県,草加市,草加４丁目２番２１－２１８号,,11,221,3400043,,,,,,,2025-05-09,1,,,,,バックドア,0
2335,8040001138646,新規,0,2025-05-09,2025-05-09,達豊株式会社,,株式会社,千葉県,船橋市,本中山７丁目１５番１号サンクス原木中山１０１,,12,204,2730035,,,,,,,2025-05-09,1,,,,,ダーフォー,0
2336,8040001138654,新規,0,2025-05-09,2025-05-09,Ｃｌｅｏ　Ｒｉｓｅ株式会社,,株式会社,千葉県,市川市,本行徳５番１６－３０２号（サステナブランシェ本行徳）,,12,203,2720103,,,,,,,2025-05-09,1,,,,,クレオライズ,0
2337,8040001138670,新規,0,2025-05-09,2025-05-09,株式会社上川防災設備,,株式会社,千葉県,船橋市,松が丘３丁目１９番１号,,12,204,2740064,,,,,,,2025-05-09,1,,,,,カミカワボウサイセツビ,0
2338,8040001138729,新規,0,2025-05-09,2025-05-09,Ｃ２Ｚ株式会社,,株式会社,千葉県,千葉市美浜区,中瀬１丁目３番地幕張テクノガーデンＣＢ棟３階ＭＢＰ,,12,106,2610023,,,,,,,2025-05-09,1,,,,,シートゥーズィー,0
2342,8040003027491,新規,0,2025-05-09,2025-05-09,合同会社さくら工業,,合同会社,千葉県,茂原市,早野新田５４,,12,210,2970031,,,,,,,2025-05-09,1,,,,,サクラコウギョウ,0
2343,8040005022771,新規,0,2025-05-09,2025-05-09,一般社団法人介護リーダー育成協会,,その他の設立登記法人,千葉県,千葉市美浜区,中瀬２丁目６番地１,,12,106,2610023,,,,,,,2025-05-09,1,,,,,カイゴリーダーイクセイキョウカイ,0
2347,8050001056574,新規,0,2025-05-09,2025-05-09,ＳＫＡ　ＴＲＡＤＩＮＧ株式会社,,株式会社,茨城県,結城市,大字結城２０５９－３玉岡マンション１０２,,08,207,3070001,,,,,,,2025-05-09,1,,,,,エスケエトレーディング,0
2348,8050001056608,新規,0,2025-05-09,2025-05-09,株式会社ｆａｃｅ．ＬＡＢＯ,,株式会社,茨城県,高萩市,大字上手綱１１０７番地の１６,,08,214,3180004,,,,,,,2025-05-09,1,,,,,フェイスドットラボ,0
2349,8050001056632,新規,0,2025-05-09,2025-05-09,株式会社ななし食品,,株式会社,茨城県,つくば市,北条４０９３番地,,08,220,3004231,,,,,,,2025-05-09,1,,,,,ナナシショクヒン,0
2350,8050001056640,新規,0,2025-05-09,2025-05-09,株式会社真友サービス,,株式会社,茨城県,常総市,菅生町４４８４番地１１,,08,211,3030044,,,,,,,2025-05-09,1,,,,,シンユウサービス,0
2358,8060001038175,新規,0,2025-05-09,2025-05-09,株式会社ユウ設工業,,株式会社,栃木県,足利市,田島町１８１１番地７,,09,202,3260061,,,,,,,2025-05-09,1,,,,,ユウセツコウギョウ,0
2359,8060001038183,新規,0,2025-05-09,2025-05-09,株式会社ｄｅｆｅｎｄ,,株式会社,栃木県,宇都宮市,横山２丁目１２番２６号,,09,201,3200005,,,,,,,2025-05-09,1,,,,,ディフェンド,0
2365,8070003005916,新規,0,2025-05-09,2025-05-09,合同会社サファイア,,合同会社,群馬県,太田市,台之郷町１６４０番地１１,,10,205,3730801,,,,,,,2025-05-09,1,,,,,サファイア,0
2369,8080005007694,新規,0,2025-05-09,2025-05-09,企業組合荒れ放題改善委員会,,その他の設立登記法人,静岡県,藤枝市,堀之内２１７１番地の８,,22,214,4260088,,,,,,,2025-05-09,1,,,,,アレホウダイカイゼンイインカイ,0
2371,8080105006506,新規,0,2025-05-09,2025-05-09,司法書士法人かつむら事務所,,その他の設立登記法人,静岡県,伊豆の国市,吉田１２２番地,,22,225,4102322,,,,,,,2025-05-09,1,,,,,カツムラジムショ,0
2373,8090005007702,新規,0,2025-05-09,2025-05-09,ニューライフインターナショナルチャーチ,,その他の設立登記法人,山梨県,甲府市,朝日５丁目４番１６号,,19,201,4000025,,,,,,,2025-05-09,1,,,,,ニューライフインターナショナルチャーチ,0
2378,8100001038575,新規,0,2025-05-09,2025-05-09,株式会社今井電工,,株式会社,長野県,上伊那郡中川村,大草３７３９番地２,,20,386,3993801,,,,,,,2025-05-09,1,,,,,イマイデンコウ,0
2379,8100001038591,新規,0,2025-05-09,2025-05-09,信州ＨＮサービス株式会社,,株式会社,長野県,松本市,梓川梓２４５０番地１,,20,202,3901702,,,,,,,2025-05-09,1,,,,,シンシュウエイチエヌサービス,0
2383,8100003008147,新規,0,2025-05-09,2025-05-09,合同会社茶虎スタジオ,,合同会社,長野県,中野市,大字牛出２６９番地５,,20,211,3830055,,,,,,,2025-05-09,1,,,,,チャトラスタジオ,0
2400,8120001275225,新規,0,2025-05-09,2025-05-09,株式会社Ｌｉｚｙ,,株式会社,大阪府,大阪市北区,梅田１丁目２番２号,,27,127,5300001,,,,,,,2025-05-09,1,,,,,ライジー,0
2401,8120001275266,新規,0,2025-05-09,2025-05-09,株式会社方寸屋,,株式会社,大阪府,大阪市住之江区,西加賀屋３丁目２０番１０－５０３号,,27,125,5590016,,,,,,,2025-05-09,1,,,,,ホウスンヤ,0
2402,8120001275365,新規,0,2025-05-09,2025-05-09,ＪＣＹ株式会社,,株式会社,大阪府,大阪市西区,九条南２丁目２１番８号九条三伸ビル２Ａ号室,,27,106,5500025,,,,,,,2025-05-09,1,,,,,ジェーシーワイ,0
2403,8120001275398,新規,0,2025-05-09,2025-05-09,株式会社ｓａｎｓｙｏ,,株式会社,大阪府,大阪市天王寺区,勝山４丁目９番８号,,27,109,5430043,,,,,,,2025-05-09,1,,,,,サンショー,0
2406,8120003029298,新規,0,2025-05-09,2025-05-09,ＫＡＴＯＲＩ　ＳＨＯＰ合同会社,,合同会社,大阪府,大阪市中央区,本町２丁目３番４号アソルティ本町４階,,27,128,5410053,,,,,,,2025-05-09,1,,,,,カトリショップ,0
2409,8120101071648,新規,0,2025-05-09,2025-05-09,株式会社ＡＳＴＲＯ,,株式会社,大阪府,和泉市,府中町１丁目１４番２０号,,27,219,5940071,,,,,,,2025-05-09,1,,,,,アストロ,0
2414,8120901050818,新規,0,2025-05-09,2025-05-09,株式会社アイエム電気,,株式会社,大阪府,茨木市,山手台新町２丁目２番５号,,27,211,5670010,,,,,,,2025-05-09,1,,,,,アイエムデンキ,0
2415,8120901050850,新規,0,2025-05-09,2025-05-09,淀屋橋心理療法センター株式会社,,株式会社,大阪府,豊中市,寺内２丁目１３番４９号ＴＧＣ８－３０２,,27,203,5610872,,,,,,,2025-05-09,1,,,,,ヨドヤバシシンリリョウホウセンター,0
2419,8120903005646,新規,0,2025-05-09,2025-05-09,Ｒ　Ｉｎｔｅｒｎａｔｉｏｎａｌ合同会社,,合同会社,大阪府,吹田市,千里丘上３６ルネシーズンズ千里の丘三番館６０２号,,27,205,5650811,,,,,,,2025-05-09,1,,,,,アールインターナショナル,0
2421,8122001039171,新規,0,2025-05-09,2025-05-09,株式会社ＬＫ,,株式会社,大阪府,東大阪市,足代新町１０番１２号グランドビルＦ２Ｐｅａｃｅ,,27,227,5770057,,,,,,,2025-05-09,1,,,,,エルケー,0
2422,8122001039188,新規,0,2025-05-09,2025-05-09,日創本業株式会社,,株式会社,大阪府,東大阪市,若江西新町４丁目６番１０－１０４号,,27,227,5780944,,,,,,,2025-05-09,1,,,,,ニッソウホンギョウ,0
2423,8122001039205,新規,0,2025-05-09,2025-05-09,株式会社奥野工務店,,株式会社,大阪府,八尾市,竹渕西３丁目１２４番地,,27,212,5810051,,,,,,,2025-05-09,1,,,,,オクノコウムテン,0
2426,8130001079591,新規,0,2025-05-09,2025-05-09,株式会社Ｆｉｎｅ　Ｔｕｎｅ,,株式会社,京都府,京都市上京区,大宮通鞍馬口下る筋違橋町５７６番地,,26,102,6020091,,,,,,,2025-05-09,1,,,,,ファインチューン,0
2427,8130001079609,新規,0,2025-05-09,2025-05-09,株式会社タケダスポーツ,,株式会社,京都府,舞鶴市,字浜４０１番地７,,26,202,6250036,,,,,,,2025-05-09,1,,,,,タケダスポーツ,0
2428,8130001079617,新規,0,2025-05-09,2025-05-09,株式会社ｅ‐ｓｕｐｐｏｒｔｅｒ,,株式会社,京都府,京都市北区,上賀茂西上之段町１８番地１２,,26,101,6038028,,,,,,,2025-05-09,1,,,,,イーサポーター,0
2429,8130001079625,新規,0,2025-05-09,2025-05-09,株式会社ｓｏｇｎｏ,,株式会社,京都府,京田辺市,山手西２丁目１６番地１３,,26,211,6100355,,,,,,,2025-05-09,1,,,,,ソーニョ,0
2430,8130001079633,新規,0,2025-05-09,2025-05-09,京コレデザイン株式会社,,株式会社,京都府,京都市下京区,四条通室町東入函谷鉾町８５番地１－４Ｆ,,26,106,6008009,,,,,,,2025-05-09,1,,,,,キョウコレデザイン,0
2431,8130003010439,新規,0,2025-05-09,2025-05-09,合同会社Ｌｉｌｙ,,合同会社,京都府,京都市伏見区,久我本町１１番地２８,,26,109,6128492,,,,,,,2025-05-09,1,,,,,リリー,0
2434,8140001138479,新規,0,2025-05-09,2025-05-09,株式会社アイエフ不動産,,株式会社,兵庫県,小野市,敷地町８５４番地,,28,218,6751367,,,,,,,2025-05-09,1,,,,,アイエフフドウサン,0
2436,8140003022029,新規,0,2025-05-09,2025-05-09,鄭斗合同会社,,合同会社,兵庫県,神戸市兵庫区,羽坂通３丁目７番３号２０１号室,,28,105,6520805,,,,,,,2025-05-09,1,,,,,テイト,0
2441,8160001026731,新規,0,2025-05-09,2025-05-09,株式会社キューアベニール,,株式会社,滋賀県,彦根市,西今町１０４１番地３２,,25,202,5220054,,,,,,,2025-05-09,1,,,,,キューアベニール,0
2443,8160003003472,新規,0,2025-05-09,2025-05-09,合同会社ＫＭＹ２,,合同会社,滋賀県,草津市,南草津１丁目２番地１２０５シャリエパークナード南草津,,25,206,5250050,,,,,,,2025-05-09,1,,,,,ケイエムワイツー,0
2456,8180001166682,新規,0,2025-05-09,2025-05-09,株式会社蒼天エナジー,,株式会社,愛知県,尾張旭市,北山町北新田４５番地８,,23,226,4880057,,,,,,,2025-05-09,1,,,,,ソウテンエナジー,0
2457,8180001166708,新規,0,2025-05-09,2025-05-09,Ｎ‐Ｌｅａｐ株式会社,,株式会社,愛知県,名古屋市名東区,牧の原１丁目９０６番地インテリジェント星ケ丘Ｉ号館１０２号,00139073,23,115,4650072,,,,,,,2025-05-09,1,,,,,エヌリープ,0
2458,8180001166749,新規,0,2025-05-09,2025-05-09,株式会社ＳＴｅｒｌｉｎｇ　ＨＯＬＤＩＮＧＳ，ＩＮＣ．,,株式会社,愛知県,一宮市,浅井町西海戸字中屋敷３１８番地７,,23,203,4910115,,,,,,,2025-05-09,1,,,,,スターリングホールディングス,0
2461,8180003028435,新規,0,2025-05-09,2025-05-09,かさでらのまち食堂合同会社,,合同会社,愛知県,名古屋市南区,前浜通７丁目３２番２,,23,112,4570058,,,,,,,2025-05-09,1,,,,,カサデラノマチショクドウ,0
2463,8180005021082,新規,0,2025-05-09,2025-05-09,ＮＰＯ法人総合型地域スポーツ・文化・学習クラブ,,その他の設立登記法人,愛知県,名古屋市東区,東桜２丁目１８番３号コープ野村東桜１３０７号,,23,102,4610005,,,,,,,2025-05-09,1,,,,,ソウゴウガタチイキスポーツブンカガクシュウクラブ,0
2466,8190001032198,新規,0,2025-05-09,2025-05-09,株式会社Ｌａｂ＆Ｐｅａｃｅ,,株式会社,三重県,三重郡菰野町,大字菰野２４６３番地３,,24,341,5101233,,,,,,,2025-05-09,1,,,,,ラブアンドピース,0
2468,8200001043739,新規,0,2025-05-09,2025-05-09,株式会社ＳＴ,,株式会社,岐阜県,大垣市,鶴見町４６番地エクセル鶴見２０７号,,21,202,5030805,,,,,,,2025-05-09,1,,,,,エスティー,0
2469,8200001043747,新規,0,2025-05-09,2025-05-09,株式会社ＧＡＲＤＥＲＯＢＥ,,株式会社,岐阜県,可児市,下恵土２番地１０,,21,214,5090203,,,,,,,2025-05-09,1,,,,,ガルドローブ,0
2470,8200001043755,新規,0,2025-05-09,2025-05-09,庭伊株式会社,,株式会社,岐阜県,関市,春里町３丁目３番３８号,,21,205,5013901,,,,,,,2025-05-09,1,,,,,ニワイ,0
2471,8210001020159,新規,0,2025-05-09,2025-05-09,株式会社ＨＳ,,株式会社,福井県,坂井市,三国町下野第１８号４番地１,,18,210,9130033,,,,,,,2025-05-09,1,,,,,エイチエス,0
2474,8220003004027,新規,0,2025-05-09,2025-05-09,合同会社ｗｉｓｈ．,,合同会社,石川県,金沢市,堀川新町５番１号,,17,201,9200849,,,,,,,2025-05-09,1,,,,,ウィッシュ,0
2476,8220005008967,新規,0,2025-05-09,2025-05-09,医療法人社団こじま内科クリニック,,その他の設立登記法人,石川県,金沢市,豊穂町３番地,,17,201,9200372,,,,,,,2025-05-09,1,,,,,コジマナイカクリニック,0
2481,8240001064921,新規,0,2025-05-09,2025-05-09,株式会社Ｃｏｎｅｘｉｏｎ　Ｗｏｒｋｌｅ,,株式会社,広島県,広島市中区,鶴見町５番１７号,,34,101,7300045,,,,,,,2025-05-09,1,,,,,コネクションワークル,0
2483,8240003007201,新規,0,2025-05-09,2025-05-09,合同会社グリーンベース,,合同会社,広島県,安芸郡府中町,宮の町３丁目５番１８号,,34,302,7350005,,,,,,,2025-05-09,1,,,,,グリーンベース,0
2488,8260001040152,新規,0,2025-05-09,2025-05-09,クレール株式会社,,株式会社,岡山県,倉敷市,玉島乙島７３７４番地１２,,33,202,7138103,,,,,,,2025-05-09,1,,,,,クレール,0
2489,8260001040177,新規,0,2025-05-09,2025-05-09,株式会社Ｅｖｏｌｕｔｉｏｎ,,株式会社,岡山県,笠岡市,入江９１番地１１,,33,205,7140041,,,,,,,2025-05-09,1,,,,,エボリューション,0
2500,8290001109894,新規,0,2025-05-09,2025-05-09,株式会社義庸,,株式会社,福岡県,福岡市中央区,薬院３丁目６番４－１１０２号,,40,133,8100022,,,,,,,2025-05-09,1,,,,,ギヨウ,0
2501,8290001109928,新規,0,2025-05-09,2025-05-09,株式会社ＴＯＭＡ企画,,株式会社,福岡県,福岡市南区,中尾１丁目９番１０－５号,,40,134,8111364,,,,,,,2025-05-09,1,,,,,トーマキカク,0
2502,8290001109936,新規,0,2025-05-09,2025-05-09,株式会社井上電気テクノ,,株式会社,福岡県,福岡市城南区,東油山３丁目２２番２１号,,40,136,8140155,,,,,,,2025-05-09,1,,,,,イノウエデンキテクノ,0
2503,8290801031521,新規,0,2025-05-09,2025-05-09,株式会社カワモト,,株式会社,福岡県,京都郡苅田町,大字与原１２０１番地,,40,621,8000323,,,,,,,2025-05-09,1,,,,,カワモト,0
2509,8310001019595,新規,0,2025-05-09,2025-05-09,株式会社愛プランニング,,株式会社,長崎県,佐世保市,大和町１０７６番地１ＮＪＪビル１階,,42,202,8571165,,,,,,,2025-05-09,1,,,,,アイプランニング,0
2510,8310003005008,新規,0,2025-05-09,2025-05-09,合同会社ＡＲＺ,,合同会社,長崎県,長崎市,大橋町７番１号川田ビル２０３号,,42,201,8528134,,,,,,,2025-05-09,1,,,,,アルズ,0
2519,8360001035142,新規,0,2025-05-09,2025-05-09,エイコーポレーション株式会社,,株式会社,沖縄県,那覇市,曙２丁目２５番３８号５階,,47,201,9000002,,,,,,,2025-05-09,1,,,,,エイコーポレーション,0
2521,8370001052558,新規,0,2025-05-09,2025-05-09,バレービレッジ株式会社,,株式会社,宮城県,柴田郡村田町,大字足立字川原３８番地,,04,322,9891311,,,,,,,2025-05-09,1,,,,,バレービレッジ,0
2528,8420001019122,新規,0,2025-05-09,2025-05-09,株式会社マザーファーム,,株式会社,青森県,上北郡東北町,大字大浦字唐虫沢１５番地２,,02,408,0392402,,,,,,,2025-05-09,1,,,,,マザーファーム,0
2534,8430001094362,新規,0,2025-05-09,2025-05-09,株式会社うーと,,株式会社,北海道,札幌市中央区,円山西町１丁目１番２－３１２号,,01,101,0640944,,,,,,,2025-05-09,1,,,,,ウート,0
2536,8440003001687,新規,0,2025-05-09,2025-05-09,合同会社ＬａＳｅｎ,,合同会社,北海道,二海郡八雲町,落部３５７―７,,01,346,0492562,,,,,,,2025-05-09,1,,,,,ラセン,0
2539,8480001012823,新規,0,2025-05-09,2025-05-09,エイカクリーンサービス株式会社,,株式会社,徳島県,板野郡上板町,西分字松木１番地１,,36,405,7711330,,,,,,,2025-05-09,1,,,,,エイカクリーンサービス,0
2547,9010001254841,新規,0,2025-05-09,2025-05-09,ＦＡＮＣＹ　ＴＯＫＹＯ株式会社,,株式会社,東京都,千代田区,神田須田町１丁目７－８ＶＯＲＴ秋葉原ＩＶ２Ｆ,00139075,13,101,1010041,,,,,,,2025-05-09,1,,,,,ファンシートウキョウ,0
2548,9010001254882,新規,0,2025-05-09,2025-05-09,株式会社ＵＬＵ,,株式会社,東京都,中央区,日本橋人形町３丁目３番５号,,13,102,1030013,,,,,,,2025-05-09,1,,,,,ウル,0
2549,9010001254899,新規,0,2025-05-09,2025-05-09,株式会社ＣＣＩＦｏｒｗａｒｄ,,株式会社,東京都,千代田区,丸の内１丁目８番２号＿鋼ビルディング８階,00139091,13,101,1000005,,,,,,,2025-05-09,1,,,,,シーシーアイフォワード,0
2550,9010003047319,新規,0,2025-05-09,2025-05-09,Ｌｕｍｉｅｒａ合同会社,,合同会社,東京都,中央区,銀座１丁目１２番４号Ｎ＆ＥＢＬＤ．６Ｆ,,13,102,1040061,,,,,,,2025-05-09,1,,,,,ルミエラ,0
2553,9010005040016,新規,0,2025-05-09,2025-05-09,一般社団法人バッテリーパワー,,その他の設立登記法人,東京都,中央区,京橋２丁目２番１号京橋エドグラン,,13,102,1040031,,,,,,,2025-05-09,1,,,,,バッテリーパワー,0
2554,9010005040024,新規,0,2025-05-09,2025-05-09,一般社団法人日本気候リーダーズ・パートナーシップ,,その他の設立登記法人,東京都,中央区,銀座８丁目１８番１号,,13,102,1040061,,,,,,,2025-05-09,1,,,,,ニホンキコウリーダーズパートナーシップ,0
2557,9010401190141,新規,0,2025-05-09,2025-05-09,株式会社リーガルスマートマーケティング,,株式会社,東京都,港区,元赤坂１丁目１番１５号,,13,103,1070051,,,,,,,2025-05-09,1,,,,,リーガルスマートマーケティング,0
2558,9010401190166,新規,0,2025-05-09,2025-05-09,株式会社ＰＲＳ築地,,株式会社,東京都,港区,虎ノ門５丁目９番１号,,13,103,1050001,,,,,,,2025-05-09,1,,,,,ピーアールエスツキジ,0
2559,9010403035039,新規,0,2025-05-09,2025-05-09,合同会社ＳＩＳＵ　ＭＥＤＩＡ,,合同会社,東京都,港区,六本木２丁目３－７セントラルクリブ六本木ＩＩＩ３０４,00139074,13,103,1060032,,,,,,,2025-05-09,1,,,,,シスメディア,0
2560,9010403035088,新規,0,2025-05-09,2025-05-09,Ｎｏｖａｓｔａ合同会社,,合同会社,東京都,港区,海岸１丁目６番１―２８０９号,,13,103,1050022,,,,,,,2025-05-09,1,,,,,ノバスタ,0
2573,9010701047669,新規,0,2025-05-09,2025-05-09,株式会社トーマステック,,株式会社,東京都,品川区,北品川１丁目１番１４号,,13,109,1400001,,,,,,,2025-05-09,1,,,,,トーマステック,0
2576,9010801036126,新規,0,2025-05-09,2025-05-09,株式会社ＴＰクリエイト,,株式会社,東京都,大田区,下丸子４丁目２１番１５－２５０３号,,13,111,1460092,,,,,,,2025-05-09,1,,,,,ティーピークリエイト,0
2577,9010801036134,新規,0,2025-05-09,2025-05-09,いとう電気株式会社,,株式会社,東京都,大田区,大森東４丁目１８番６号,,13,111,1430012,,,,,,,2025-05-09,1,,,,,イトウデンキ,0
2581,9010901057294,新規,0,2025-05-09,2025-05-09,株式会社ダイスキ,,株式会社,東京都,世田谷区,北沢２丁目３１番３号,,13,112,1550031,,,,,,,2025-05-09,1,,,,,ダイスキ,0
2582,9010901057303,新規,0,2025-05-09,2025-05-09,株式会社Ｒｅｖｉｓｔａｐ,,株式会社,東京都,世田谷区,給田２丁目１９番４号,,13,112,1570064,,,,,,,2025-05-09,1,,,,,レヴィスタップ,0
2583,9010901057311,新規,0,2025-05-09,2025-05-09,株式会社ｂｕｂｕ,,株式会社,東京都,世田谷区,三軒茶屋２丁目４０番４号,,13,112,1540024,,,,,,,2025-05-09,1,,,,,ブブ,0
2590,9011001169658,新規,0,2025-05-09,2025-05-09,ＣＩＯＮＥＳ株式会社,,株式会社,東京都,渋谷区,神泉町１０番１５号アネックス神泉３０１,,13,113,1500045,,,,,,,2025-05-09,1,,,,,シオネス,0
2593,9011003021536,新規,0,2025-05-09,2025-05-09,合同会社ＪＨＴＲコンサルティング,,合同会社,東京都,渋谷区,大山町１５番３号,,13,113,1510065,,,,,,,2025-05-09,1,,,,,ジェイエイチティーアールコンサルティング,0
2594,9011003021619,新規,0,2025-05-09,2025-05-09,合同会社たねまきラボ,,合同会社,東京都,目黒区,自由が丘２丁目１６番１２号ＲＪ３,,13,110,1520035,,,,,,,2025-05-09,1,,,,,タネマキラボ,0
2598,9011201026337,新規,0,2025-05-09,2025-05-09,株式会社Ｐｒｏｄｕｃｔｉｏｎ翠,,株式会社,東京都,中野区,白鷺２丁目１３番２３号,,13,114,1650035,,,,,,,2025-05-09,1,,,,,プロダクションスイ,0
2601,9011501032019,新規,0,2025-05-09,2025-05-09,思辰株式会社,,株式会社,東京都,北区,王子本町１丁目２２番１号ＫＳＧビル３０１,,13,117,1140022,,,,,,,2025-05-09,1,,,,,シシン,0
2602,9011501032027,新規,0,2025-05-09,2025-05-09,店装インターナショナル株式会社,,株式会社,東京都,荒川区,町屋２丁目１６－８イイダマンション４０１号室,,13,118,1160001,,,,,,,2025-05-09,1,,,,,テンソウインターナショナル,0
2603,9011503006516,新規,0,2025-05-09,2025-05-09,Ｇｌｏｖｉａ合同会社,,合同会社,東京都,北区,豊島２丁目１０番６号１０８室,,13,117,1140003,,,,,,,2025-05-09,1,,,,,グローヴィア,0
2604,9011701028320,新規,0,2025-05-09,2025-05-09,星辰株式会社,,株式会社,東京都,江戸川区,西小岩５丁目１３－１３小出マンション１３８号室,,13,123,1330057,,,,,,,2025-05-09,1,,,,,セイシン,0
2607,9011803006835,新規,0,2025-05-09,2025-05-09,フリーライフ合同会社,,合同会社,東京都,葛飾区,青戸７丁目３２番３－２１５号ザ・パークハウス青砥,,13,122,1250062,,,,,,,2025-05-09,1,,,,,フリーライフ,0
2611,9012401043064,新規,0,2025-05-09,2025-05-09,株式会社Ｉｍａｇｎｅｔｏｒ,,株式会社,東京都,調布市,深大寺元町３丁目２４番地２,,13,208,1820017,,,,,,,2025-05-09,1,,,,,イマグネーター,0
2612,9012401043072,新規,0,2025-05-09,2025-05-09,株式会社嘉泉,,株式会社,東京都,多摩市,落合１丁目９－６,,13,224,2060033,,,,,,,2025-05-09,1,,,,,,0
2614,9012403007117,新規,0,2025-05-09,2025-05-09,尚宇機械合同会社,,合同会社,東京都,稲城市,若葉台４丁目３０－４８,,13,225,2060824,,,,,,,2025-05-09,1,,,,,コウウショウジ,0
2625,9020001162688,新規,0,2025-05-09,2025-05-09,株式会社三つ葉フーズ,,株式会社,神奈川県,川崎市中原区,新城５丁目１番８号島村ビル１階,,14,133,2110044,,,,,,,2025-05-09,1,,,,,ミツバフーズ,0
2626,9020001162713,新規,0,2025-05-09,2025-05-09,株式会社ＡＧペイント,,株式会社,神奈川県,横浜市鶴見区,矢向５丁目７番２８号中山ハウス２０１,,14,101,2300001,,,,,,,2025-05-09,1,,,,,エージーペイント,0
2631,9020003028458,新規,0,2025-05-09,2025-05-09,眞我合同会社,,合同会社,神奈川県,横浜市港北区,新吉田東５丁目５０番３３号,,14,109,2230058,,,,,,,2025-05-09,1,,,,,シンガ,0
2639,9021001085169,新規,0,2025-05-09,2025-05-09,株式会社ルークエンターテインメント,,株式会社,神奈川県,横須賀市,三春町２丁目１番地４第一大谷ビル１階,,14,201,2380014,,,,,,,2025-05-09,1,,,,,ルークエンターテインメント,0
2640,9021001085177,新規,0,2025-05-09,2025-05-09,株式会社Ｃｅｌｔｉｓ　ｕｐ,,株式会社,神奈川県,平塚市,豊原町２７番６号,,14,203,2540051,,,,,,,2025-05-09,1,,,,,セルティスアップ,0
2650,9030001166341,新規,0,2025-05-09,2025-05-09,株式会社ＩＧＡＩ　ＧＬＡＳＳ,,株式会社,埼玉県,草加市,青柳５丁目３５番１８号,,11,221,3400002,,,,,,,2025-05-09,1,,,,,イガイガラス,0
2651,9030001166358,新規,0,2025-05-09,2025-05-09,株式会社３ＢｏＵ,,株式会社,埼玉県,さいたま市南区,別所２丁目１７番２号バリアントヒルズ３０５,,11,108,3360021,,,,,,,2025-05-09,1,,,,,サンボウ,0
2652,9030001166366,新規,0,2025-05-09,2025-05-09,株式会社ＫＹＯＨＡＬＵ,,株式会社,埼玉県,川口市,前川３丁目２０番２９－１号,,11,203,3330842,,,,,,,2025-05-09,1,,,,,キョウハル,0
2653,9030001166399,新規,0,2025-05-09,2025-05-09,株式会社たすき,,株式会社,埼玉県,さいたま市浦和区,常盤８丁目１２－３,,11,107,3300061,,,,,,,2025-05-09,1,,,,,タスキ,0
2657,9030003026691,新規,0,2025-05-09,2025-05-09,合同会社ＮＴＰ,,合同会社,埼玉県,鴻巣市,鎌塚２丁目４－３山下邸１０２号室,,11,217,3690112,,,,,,,2025-05-09,1,,,,,ネヌティピー,0
2658,9030003026717,新規,0,2025-05-09,2025-05-09,合同会社高井商店,00139078,合同会社,埼玉県,春日部市,樋堀２９９番地１春日部ファミールハイツ５０６,00139079,11,214,3440005,,,,,,,2025-05-09,1,,,,,タカイショウテン,0
2659,9030003026733,新規,0,2025-05-09,2025-05-09,あおじろう合同会社,,合同会社,埼玉県,川口市,金山町１２番１号サウスゲートタワー４０５,,11,203,3320014,,,,,,,2025-05-09,1,,,,,アオジロウ,0
2664,9040001138629,新規,0,2025-05-09,2025-05-09,温故知新エルエー株式会社,,株式会社,千葉県,佐倉市,宮前２丁目６番地１,,12,212,2850005,,,,,,,2025-05-09,1,,,,,オンコチシンエルエー,0
2665,9040001138653,新規,0,2025-05-09,2025-05-09,株式会社ＪＥＷＥＬＲＹ’Ｓ,,株式会社,千葉県,野田市,山崎２２２４番地の１０,,12,208,2780022,,,,,,,2025-05-09,1,,,,,ジュエリーズ,0
2666,9040001138661,新規,0,2025-05-09,2025-05-09,株式会社よしだコーポレーション,,株式会社,千葉県,千葉市美浜区,磯辺３丁目１８番９号,,12,106,2610012,,,,,,,2025-05-09,1,,,,,ヨシダコーポレーション,0
2667,9040001138686,新規,0,2025-05-09,2025-05-09,株式会社Ｓ．Ｋ．Ｓハウジング,,株式会社,千葉県,市川市,鬼高３丁目２０番２４－６０６号,,12,203,2720015,,,,,,,2025-05-09,1,,,,,エスケーエスハウジング,0
2670,9040003027490,新規,0,2025-05-09,2025-05-09,Ｃｒｅａｔｉｏｎ　ＢＯＸ合同会社,,合同会社,千葉県,市原市,市原８７,,12,219,2900015,,,,,,,2025-05-09,1,,,,,クリエイションボックス,0
2673,9040005022762,新規,0,2025-05-09,2025-05-09,一般社団法人ＪＶＧフィットコンディショニング協会,,その他の設立登記法人,千葉県,印西市,西の原４丁目４番地１５,,12,231,2701334,,,,,,,2025-05-09,1,,,,,ジェイブイジーフィットコンディショニングキョウカイ,0
2674,9040005022770,新規,0,2025-05-09,2025-05-09,ＮＰＯ法人千葉県子ども食堂連絡会,,その他の設立登記法人,千葉県,松戸市,上本郷９０２－１,,12,207,2710064,,,,,,,2025-05-09,1,,,,,チバケンコドモショクドウレンラクカイ,0
2679,9050001056631,新規,0,2025-05-09,2025-05-09,株式会社Ｉｎｖｉｃｔｕｓ　Ｓｐｏｒｔｓ,,株式会社,茨城県,つくば市,二の宮１丁目２３番地６,,08,220,3050051,,,,,,,2025-05-09,1,,,,,インヴィクタススポーツ,0
2682,9050003009199,新規,0,2025-05-09,2025-05-09,ＸＳ４ＭＬ７Ｒ合同会社,,合同会社,茨城県,稲敷市,蒲ケ山４１番地９ＳＰタワービル７０３号室,,08,229,3000522,,,,,,,2025-05-09,1,,,,,エックスエスフォーエムエルセブンアール,0
2683,9050003009232,新規,0,2025-05-09,2025-05-09,ＬＤ　ＩＮＴＥＲＮＡＴＩＯＮＡＬ合同会社,,合同会社,茨城県,稲敷市,月出里１１４－４,,08,229,3000521,,,,,,,2025-05-09,1,,,,,エルディインターナショナル,0
2684,9050003009240,新規,0,2025-05-09,2025-05-09,ＦＳ　Ｔｒａｄｉｎｇ合同会社,,合同会社,茨城県,北相馬郡利根町,もえぎ野台５丁目１－１１,,08,564,3001606,,,,,,,2025-05-09,1,,,,,エフエストレーディング,0
2688,9060001038190,新規,0,2025-05-09,2025-05-09,株式会社ＤＡＹＡ　ＭＯＴＯＲＳ,,株式会社,栃木県,宇都宮市,相野沢町２４８－５,,09,201,3291113,,,,,,,2025-05-09,1,,,,,ダヤモータース,0
2692,9070001042902,新規,0,2025-05-09,2025-05-09,株式会社リバラン,,株式会社,群馬県,高崎市,椿町４番地,,10,202,3700059,,,,,,,2025-05-09,1,,,,,リバラン,0
2695,9080001026904,新規,0,2025-05-09,2025-05-09,インテリジェント・ヘルスケア研究院株式会社,,株式会社,静岡県,静岡市駿河区,大谷８３６国立大学法人静岡大学イノベーション社会連携推進機構静岡オフィス内,,22,102,4228017,,,,,,,2025-05-09,1,,,,,インテリジェントヘルスケアケンキュウイン,0
2696,9080005007693,新規,0,2025-05-09,2025-05-09,かわねほんちょう水と森の里協同組合,,その他の設立登記法人,静岡県,榛原郡川根本町,徳山１７１０番地,,22,429,4280301,,,,,,,2025-05-09,1,,,,,カワネホンチョウミズトモリノサト,0
2699,9080401027907,新規,0,2025-05-09,2025-05-09,株式会社イレブンリンクス,,株式会社,静岡県,浜松市中央区,田尻町２５５番地の１,,22,138,4328054,,,,,,,2025-05-09,1,,,,,イレブンリンクス,0
2705,9100001038590,新規,0,2025-05-09,2025-05-09,株式会社イーエスピー,,株式会社,長野県,伊那市,西町６０２８番地２６,,20,209,3960026,,,,,,,2025-05-09,1,,,,,イーエスピー,0
2721,9120001275141,新規,0,2025-05-09,2025-05-09,株式会社グロウス,,株式会社,大阪府,大阪市西淀川区,千舟３丁目８番６号,,27,113,5550013,,,,,,,2025-05-09,1,,,,,グロウス,0
2722,9120001275216,新規,0,2025-05-09,2025-05-09,株式会社原商事,,株式会社,大阪府,大阪市浪速区,日本橋３丁目６－１本田ビル４Ｆ,,27,111,5560005,,,,,,,2025-05-09,1,,,,,ハラショウジ,0
2723,9120001275265,新規,0,2025-05-09,2025-05-09,株式会社ＹＭＤ,,株式会社,大阪府,守口市,滝井西町２丁目４番１７－２０１号,,27,209,5700076,,,,,,,2025-05-09,1,,,,,ワイエムディー,0
2724,9120001275281,新規,0,2025-05-09,2025-05-09,株式会社Ｍ＆Ｃ,,株式会社,大阪府,大阪市中央区,東心斎橋１丁目１３番２２号３０１,,27,128,5420083,,,,,,,2025-05-09,1,,,,,エムアンドシー,0
2725,9120001275356,新規,0,2025-05-09,2025-05-09,株式会社Ｓ　ｌａｄｉｅｓ　ｍｅｄｉｃａｌ,,株式会社,大阪府,大阪市天王寺区,真法院町２１番１号,,27,109,5430041,,,,,,,2025-05-09,1,,,,,エスレディースメディカル,0
2730,9120003029248,新規,0,2025-05-09,2025-05-09,合同会社玉鋼,,合同会社,大阪府,大阪市北区,梅田１丁目２番２号大阪駅前第２ビル１２－１２,,27,127,5300001,,,,,,,2025-05-09,1,,,,,タマハガネ,0
2731,9120003029306,新規,0,2025-05-09,2025-05-09,ＭＩＺＵＳＨＩ合同会社,,合同会社,大阪府,大阪市西成区,玉出西２丁目１６－２７コルベール玉出１０３室,,27,122,5570045,,,,,,,2025-05-09,1,,,,,ミズシ,0
2732,9120003029314,新規,0,2025-05-09,2025-05-09,合同会社ｃｐ‐ｓｐａｚｉｏ建築事務所,,合同会社,大阪府,大阪市北区,大深町３番４０－３５１０号,,27,127,5300011,,,,,,,2025-05-09,1,,,,,シーピースパジオケンチクジムショ,0
2735,9120901050833,新規,0,2025-05-09,2025-05-09,株式会社Ｌｉｆｅ４Ｏｔｈｅｒｓ,,株式会社,大阪府,豊中市,南桜塚４丁目１５番８号,,27,203,5610882,,,,,,,2025-05-09,1,,,,,ライフフォーアザーズ,0
2736,9122003003199,新規,0,2025-05-09,2025-05-09,Ｔｏｐ　Ｎｏｔｅ合同会社,,合同会社,大阪府,東大阪市,花園西町１丁目２０番７号,,27,227,5780936,,,,,,,2025-05-09,1,,,,,トップノート,0
2745,9130001079624,新規,0,2025-05-09,2025-05-09,ＮＥＷＢＡＵＳ株式会社,,株式会社,京都府,京都市中京区,竹屋町通柳馬場西入和久屋町１１２番,,26,104,6040803,,,,,,,2025-05-09,1,,,,,ニューバウス,0
2746,9130003010446,新規,0,2025-05-09,2025-05-09,合同会社カワナミ,,合同会社,京都府,木津川市,梅美台６丁目１９番地２４,,26,214,6190215,,,,,,,2025-05-09,1,,,,,カワナミ,0
2750,9140001138321,新規,0,2025-05-09,2025-05-09,株式会社ＳＨＵＷＡ,,株式会社,兵庫県,伊丹市,昆陽南５丁目２番１０号,,28,207,6640888,,,,,,,2025-05-09,1,,,,,シュウワ,0
2751,9140001138338,新規,0,2025-05-09,2025-05-09,畠中工業株式会社,,株式会社,兵庫県,加古川市,平岡町土山８９８番地の１,,28,210,6750104,,,,,,,2025-05-09,1,,,,,ハタナカコウギョウ,0
2752,9140001138387,新規,0,2025-05-09,2025-05-09,株式会社Ｍ’ｓＬＩＮＫ,,株式会社,兵庫県,宝塚市,中筋４丁目１０番１－３０３号,,28,214,6650874,,,,,,,2025-05-09,1,,,,,エムズリンク,0
2753,9140001138404,新規,0,2025-05-09,2025-05-09,株式会社ＨＲＭ,,株式会社,兵庫県,赤穂市,砂子１４８番地,,28,212,6780174,,,,,,,2025-05-09,1,,,,,エイチアールエム,0
2754,9140001138420,新規,0,2025-05-09,2025-05-09,株式会社アールイー,,株式会社,兵庫県,神戸市北区,惣山町５丁目５番地の１１,,28,109,6511145,,,,,,,2025-05-09,1,,,,,アールイー,0
2755,9140001138429,新規,0,2025-05-09,2025-05-09,長信株式会社,,株式会社,兵庫県,神戸市東灘区,向洋町中１丁目１７番地２９階,,28,101,6580032,,,,,,,2025-05-09,1,,,,,チョウシン,0
2756,9140001138453,新規,0,2025-05-09,2025-05-09,ホテルニューアワジＣＦ株式会社,,株式会社,兵庫県,洲本市,小路谷２３番地２,,28,205,6560023,,,,,,,2025-05-09,1,,,,,ホテルニューアワジシーエフ,0
2757,9140001138478,新規,0,2025-05-09,2025-05-09,株式会社エコスタッフ,,株式会社,兵庫県,姫路市,白浜町甲４０２番地２２７,,28,201,6728023,,,,,,,2025-05-09,1,,,,,エコスタッフ,0
2760,9140003022036,新規,0,2025-05-09,2025-05-09,合同会社ＯＣＥＥ,,合同会社,兵庫県,姫路市,辻井９丁目１６番地の５,,28,201,6700083,,,,,,,2025-05-09,1,,,,,オーシー,0
2765,9160001026739,新規,0,2025-05-09,2025-05-09,株式会社Ｅ‐ＨＥＡＤ,,株式会社,滋賀県,野洲市,行畑２丁目３番３６号,,25,210,5202341,,,,,,,2025-05-09,1,,,,,イーヘッド,0
2767,9160003003447,新規,0,2025-05-09,2025-05-09,合同会社ｌｉｆｅｄｅｓｉｇｎ,,合同会社,滋賀県,大津市,大江３丁目２４－４７,,25,201,5202141,,,,,,,2025-05-09,1,,,,,ライフデザイン,0
2768,9160003003471,新規,0,2025-05-09,2025-05-09,合同会社あおぞら,,合同会社,滋賀県,大津市,皇子が丘３丁目４番３３号,,25,201,5200025,,,,,,,2025-05-09,1,,,,,アオゾラ,0
2784,9180001166748,新規,0,2025-05-09,2025-05-09,匠建設株式会社,,株式会社,愛知県,名古屋市天白区,植田西２丁目１６１０番地,,23,116,4680058,,,,,,,2025-05-09,1,,,,,タクミケンセツ,0
2789,9180301039785,新規,0,2025-05-09,2025-05-09,株式会社スズテックプラス,,株式会社,愛知県,豊田市,藤岡飯野町二反田４６４番地１,,23,211,4700451,,,,,,,2025-05-09,1,,,,,スズテックプラス,0
2793,9180303006569,新規,0,2025-05-09,2025-05-09,合同会社大美インターナショナル,,合同会社,愛知県,豊田市,西町２丁目４３番地,,23,211,4710025,,,,,,,2025-05-09,1,,,,,オオミインターナショナル,0
2795,9190001032206,新規,0,2025-05-09,2025-05-09,株式会社ＡＤＡＭＡＮＴＥ,,株式会社,三重県,四日市市,日永５丁目７番１２－４０２号スカイハイツ日永,,24,202,5100885,,,,,,,2025-05-09,1,,,,,アダマンテ,0
2796,9200001043746,新規,0,2025-05-09,2025-05-09,株式会社テクニカ,,株式会社,岐阜県,羽島郡笠松町,円城寺１４７２番地,,21,303,5016035,,,,,,,2025-05-09,1,,,,,テクニカ,0
2801,9220005008966,新規,0,2025-05-09,2025-05-09,一般社団法人石川県相続センター,,その他の設立登記法人,石川県,金沢市,新神田４丁目４番１５号（木村ビル３０１号）,,17,201,9218013,,,,,,,2025-05-09,1,,,,,イシカワケンソウゾクセンター,0
2809,9240001064929,新規,0,2025-05-09,2025-05-09,株式会社金山板金,,株式会社,広島県,広島市西区,古江西町１０番６－３０１号,,34,104,7330874,,,,,,,2025-05-09,1,,,,,カナヤマバンキン,0
2814,9240003007200,新規,0,2025-05-09,2025-05-09,合同会社ＥＭＥＲＡ,,合同会社,広島県,福山市,南蔵王町５丁目２番１号,,34,207,7210973,,,,,,,2025-05-09,1,,,,,エメラ,0
2816,9270001009195,新規,0,2025-05-09,2025-05-09,株式会社オーク昭和町工場,,株式会社,鳥取県,境港市,昭和町１２番地３１,,31,204,6840034,,,,,,,2025-05-09,1,,,,,オークショウワマチコウジョウ,0
2820,9290003016816,新規,0,2025-05-09,2025-05-09,合同会社Ｚ,,合同会社,福岡県,大牟田市,大字勝立５５９番地３,,40,202,8360886,,,,,,,2025-05-09,1,,,,,ゼット,0
2821,9290801031504,新規,0,2025-05-09,2025-05-09,株式会社田中興産,,株式会社,福岡県,北九州市小倉北区,木町４丁目７番１０号,,40,106,8030851,,,,,,,2025-05-09,1,,,,,タナカコウサン,0
2822,9290801031537,新規,0,2025-05-09,2025-05-09,株式会社ヤマゾー,,株式会社,福岡県,北九州市小倉南区,葉山町２丁目１番６号（２０３）,,40,107,8020837,,,,,,,2025-05-09,1,,,,,ヤマゾー,0
2827,9310001019594,新規,0,2025-05-09,2025-05-09,株式会社ｔｕｔｕｍｉ,,株式会社,長崎県,長崎市,香焼町６８０番地,,42,201,8510310,,,,,,,2025-05-09,1,,,,,ツツミ,0
2829,9330001033180,新規,0,2025-05-09,2025-05-09,株式会社ＳＵＧＩＮＡＭＩ　Ｔｅｃｈ　Ｌａｂｏ,,株式会社,熊本県,菊池郡菊陽町,杉並台１丁目９－１０,,43,404,8691110,,,,,,,2025-05-09,1,,,,,スギナミテックラボ,0
2839,9390003002384,新規,0,2025-05-09,2025-05-09,さくらんぼスマートエナジー合同会社,,合同会社,山形県,山形市,白山３丁目１番３１号,,06,201,9902446,,,,,,,2025-05-09,1,,,,,スリーズスマートエナジー,0
2840,9390005009114,新規,0,2025-05-09,2025-05-09,一般社団法人やまがたデジタルキャリア支援機構,,その他の設立登記法人,山形県,山形市,幸町６番１号,,06,201,9900038,,,,,,,2025-05-09,1,,,,,ヤマガタデジタルキャリアシエンキコウ,0
2841,9400001017028,新規,0,2025-05-09,2025-05-09,株式会社千葉防水,,株式会社,岩手県,奥州市,水沢真城字垣ノ内５４番地４,,03,215,0230841,,,,,,,2025-05-09,1,,,,,チバボウスイ,0
2851,9430001094345,新規,0,2025-05-09,2025-05-09,みそのエステート株式会社,,株式会社,北海道,札幌市豊平区,美園三条３丁目２番１８号,,01,105,0620003,,,,,,,2025-05-09,1,,,,,ミソノエステート,0
2852,9430001094361,新規,0,2025-05-09,2025-05-09,株式会社ｃｈａｒｍ,,株式会社,北海道,札幌市手稲区,手稲本町三条３丁目１番１－２０１号,,01,109,0060023,,,,,,,2025-05-09,1,,,,,チャーム,0
2862,9500001026290,新規,0,2025-05-09,2025-05-09,株式会社ＳＥＮＳＥ　ＬＹＮＸ,,株式会社,愛媛県,松山市,和気町２丁目８５４番地１３,,38,201,7992656,,,,,,,2025-05-09,1,,,,,センスリンクス,0
