sequenceNumber,corporateNumber,process,correct,updateDate,changeDate,name,nameImageId,kind,prefectureName,cityName,streetNumber,addressImageId,prefectureCode,cityCode,postCode,addressOutside,addressOutsideImageId,closeDate,closeCause,successorCorporateNumber,changeCause,assignmentDate,latest,enName,enPrefectureName,enCityName,enAddressOutside,furigana,hihyoji
8,1010002025951,登記記録の閉鎖等,0,2023-02-20,2023-02-13,有限会社山重,,有限会社,東京都,江東区,豊洲６丁目５番１号,,13,108,1350061,,,2023-02-13,清算の結了等,,,2015-10-05,1,,,,,ヤマシゲ,0
9,1010003030117,登記記録の閉鎖等,0,2023-02-20,2023-02-14,日光Ｐｌｕｓ１０合同会社２,,合同会社,東京都,千代田区,丸の内３丁目１番１号東京共同会計事務所内,,13,101,1000005,,,2023-02-14,清算の結了等,,,2019-07-02,1,,,,,ニッコウプラステンニ,0
10,1010003030125,登記記録の閉鎖等,0,2023-02-20,2023-02-14,日光Ｐｌｕｓ１０合同会社１０,,合同会社,東京都,千代田区,丸の内３丁目１番１号東京共同会計事務所内,,13,101,1000005,,,2023-02-14,清算の結了等,,,2019-07-02,1,,,,,ニッコウプラステンイチゼロ,0
20,1010403020205,登記記録の閉鎖等,0,2023-02-20,2023-02-08,日本橋インベストメンツ２合同会社,,合同会社,東京都,港区,六本木１丁目６番１号泉ガーデンタワー,,13,103,1060032,,,2023-02-08,清算の結了等,,,2019-02-19,1,,,,,ニホンバシインベストメンツツー,0
21,1010403025113,登記記録の閉鎖等,0,2023-02-20,2023-02-07,Ｎｉｐｐｏｎ　Ｉｎｔｅｒｎａｔｉｏｎａｌ　Ｓｔｒａｔｅｇｉｃ　Ａｄｖｉｓｏｒｙ合同会社,,合同会社,東京都,港区,南麻布５丁目３番１５号サクラハウス,,13,103,1060047,,,2023-02-07,清算の結了等,,,2021-04-14,1,,,,,ニッポンインターナショナルストラテジックアドバイザリー,0
44,1011001090953,登記記録の閉鎖等,0,2023-02-20,2023-02-14,サーアント株式会社,,株式会社,東京都,渋谷区,代々木２丁目３３番４号アールヴェール代々木,,13,113,1510053,,,2023-02-14,清算の結了等,,,2015-10-05,1,,,,,サーアント,0
52,1011002028440,登記記録の閉鎖等,0,2023-02-20,2023-02-07,有限会社相川会計センター,,有限会社,東京都,港区,赤坂３丁目２１番１５号,,13,103,1070052,,,2023-02-07,清算の結了等,,,2015-10-05,1,,,,,アイカワカイケイセンター,0
56,1011101007254,登記記録の閉鎖等,0,2023-02-20,2023-02-16,株式会社国際セレン製作所,,株式会社,東京都,新宿区,中落合１丁目１２番８号,,13,104,1610032,,,2023-02-16,清算の結了等,,,2015-10-05,1,,,,,コクサイセレンセイサクショ,0
61,1011101084938,登記記録の閉鎖等,0,2023-02-20,2023-02-16,株式会社分析と意思決定,,株式会社,東京都,新宿区,西新宿１丁目２６番２号,,13,104,1600023,,,2023-02-16,清算の結了等,,,2018-08-01,1,,,,,ブンセキトイシケッテイ,0
79,1011801005037,登記記録の閉鎖等,0,2023-02-20,2023-02-16,株式会社ウィングライン,,株式会社,東京都,葛飾区,亀有５丁目１２番１２号,,13,122,1250061,,,2023-02-16,清算の結了等,,,2015-10-05,1,,,,,ウィングライン,0
108,1050001004911,登記記録の閉鎖等,0,2023-02-20,2023-02-16,株式会社渡辺建設,,株式会社,茨城県,那珂郡東海村,大字石神内宿１６３８番地,,08,341,3191102,,,2023-02-16,清算の結了等,,,2015-10-05,1,,,,,ワタナベケンセツ,0
110,1050002027589,登記記録の閉鎖等,0,2023-02-20,2023-02-15,鹿行計電株式会社,,株式会社,茨城県,神栖市,溝口５８２４番地１,,08,232,3140121,,,2023-02-15,清算の結了等,,,2015-10-05,1,,,,,ロッコウケイデン,0
120,1090002006812,登記記録の閉鎖等,0,2023-02-20,2023-02-17,有限会社コマツ通信企画,,有限会社,山梨県,甲府市,高畑１丁目４番１号,,19,201,4000042,,,2023-02-17,登記官による閉鎖,,,2015-10-05,1,,,,,,0
121,1090002010509,登記記録の閉鎖等,0,2023-02-20,2023-02-17,有限会社三井精工,,有限会社,山梨県,都留市,戸沢１１７５番地,,19,204,4020022,,,2023-02-17,登記官による閉鎖,,,2017-02-01,1,,,,,,0
122,1090002014996,登記記録の閉鎖等,0,2023-02-20,2023-02-17,有限会社中富製材,,有限会社,山梨県,南巨摩郡身延町,八日市場１２２５番地,,19,365,4093421,,,2023-02-17,登記官による閉鎖,,,2015-10-05,1,,,,,,0
123,1090002015508,登記記録の閉鎖等,0,2023-02-20,2023-02-17,有限会社甲府ファミリーサービス,,有限会社,山梨県,西八代郡市川三郷町,岩間４４６番地１,,19,346,4093244,,,2023-02-17,登記官による閉鎖,,,2015-10-05,1,,,,,,0
125,1090005000275,登記記録の閉鎖等,0,2023-02-20,2023-02-17,山梨エフジーチェーン協同組合,,その他の設立登記法人,山梨県,甲府市,大津町３１７番地の１１,,19,201,4000055,,,2023-02-17,登記官による閉鎖,,,2015-10-05,1,,,,,,0
126,1090005000283,登記記録の閉鎖等,0,2023-02-20,2023-02-17,山梨新電話事業協同組合,,その他の設立登記法人,山梨県,甲府市,徳行３丁目１４番２７号,,19,201,4000047,,,2023-02-17,登記官による閉鎖,,,2015-10-05,1,,,,,,0
127,1090005000507,登記記録の閉鎖等,0,2023-02-20,2023-02-17,山梨県合成樹脂工業協同組合,,その他の設立登記法人,山梨県,甲府市,千塚１丁目９番３１号,,19,201,4000074,,,2023-02-17,登記官による閉鎖,,,2015-10-05,1,,,,,,0
128,1090005002610,登記記録の閉鎖等,0,2023-02-20,2023-02-17,山梨県産材住宅建築事業協同組合,,その他の設立登記法人,山梨県,笛吹市,石和町今井２番地,,19,211,4060042,,,2023-02-17,登記官による閉鎖,,,2015-10-05,1,,,,,,0
129,1090005003724,登記記録の閉鎖等,0,2023-02-20,2023-02-17,企業組合三富雉牧場,,その他の設立登記法人,山梨県,山梨市,三富上柚木９７１番地、村営馬込住宅Ａ－１,,19,205,4040202,,,2023-02-17,登記官による閉鎖,,,2015-10-05,1,,,,,,0
130,1090005004169,登記記録の閉鎖等,0,2023-02-20,2023-02-17,富士住宅産業協同組合,,その他の設立登記法人,山梨県,富士吉田市,下吉田５０３番地,,19,202,4030004,,,2023-02-17,登記官による閉鎖,,,2015-10-05,1,,,,,,0
138,1110002030727,登記記録の閉鎖等,0,2023-02-20,2023-02-16,有限会社堀設備,,有限会社,新潟県,長岡市,中之島５３３番地１,,15,202,9540124,,,2023-02-16,清算の結了等,,,2015-10-05,1,,,,,ホリセツビ,0
153,1120001220716,登記記録の閉鎖等,0,2023-02-20,2023-02-08,神田製菓株式会社,,株式会社,大阪府,大阪市港区,夕凪１丁目１０番２２号,,27,107,5520004,,,2023-02-08,清算の結了等,,,2019-05-09,1,,,,,カンダセイカ,0
160,1120002034792,登記記録の閉鎖等,0,2023-02-20,2023-02-10,有限会社大西フードサービス,,有限会社,大阪府,大阪市中央区,久太郎町３丁目４番１２号,,27,128,5410056,,,2023-02-10,合併による解散等,6120001076212,令和５年２月１０日大阪市中央区久太郎町四丁目２番１０号グラントラスト株式会社（6120001076212）に合併し解散,2015-10-05,1,,,,,オオニシフードサービス,0
168,1140001028934,登記記録の閉鎖等,0,2023-02-20,2023-02-15,株式会社ＢＥ,,株式会社,兵庫県,神戸市須磨区,弥栄台３丁目１番２号,,28,107,6540161,,,2023-02-15,清算の結了等,,,2022-11-22,1,,,,,ビーイー,0
172,1140001114420,登記記録の閉鎖等,0,2023-02-20,2023-02-14,株式会社ボニエスト,,株式会社,兵庫県,神戸市垂水区,青山台１丁目６番２７号,,28,108,6550873,,,2023-02-14,清算の結了等,,,2019-07-31,1,,,,,ボニエスト,0
185,1170001010071,登記記録の閉鎖等,0,2023-02-20,2023-02-17,茂樹造園株式会社,,株式会社,和歌山県,御坊市,薗５１０番地,,30,205,6440002,,,2023-02-17,清算の結了等,,,2015-10-05,1,,,,,シゲキゾウエン,0
193,1180002034523,登記記録の閉鎖等,0,2023-02-20,2023-02-13,有限会社印刷のスタッフ,,有限会社,愛知県,名古屋市千種区,今池３丁目２２番１０号,,23,101,4640850,,,2023-02-13,清算の結了等,,,2015-10-05,1,,,,,インサツノスタッフ,0
195,1180005008722,登記記録の閉鎖等,0,2023-02-20,2023-02-13,特定非営利活動法人まちのエキスパネット,,その他の設立登記法人,愛知県,春日井市,藤山台１丁目１番地,,23,206,4870035,,,2023-02-13,清算の結了等,,,2015-10-05,1,,,,,マチノエキスパネット,0
199,1190005007624,登記記録の閉鎖等,0,2023-02-20,2023-02-13,特定非営利活動法人蒲公英,,その他の設立登記法人,三重県,松阪市,八重田町７８７番地,,24,204,5150844,,,2023-02-13,清算の結了等,,,2015-10-05,1,,,,,タンポポ,0
213,1260005002056,登記記録の閉鎖等,0,2023-02-20,2023-02-17,特定非営利活動法人子ども劇場岡山県センター,,その他の設立登記法人,岡山県,岡山市東区,西大寺北９４６番地,,33,103,7048111,,,2023-02-17,清算の結了等,,,2015-10-05,1,,,,,コドモゲキジョウオカヤマケンセンター,0
229,1430001040546,登記記録の閉鎖等,0,2023-02-20,2023-02-15,株式会社エイド,,株式会社,北海道,札幌市中央区,南四条西９丁目１００６番地８,,01,101,0640804,,,2023-02-15,清算の結了等,,,2015-10-05,1,,,,,エイド,0
246,2010003030116,登記記録の閉鎖等,0,2023-02-20,2023-02-14,日光Ｐｌｕｓ１０合同会社１,,合同会社,東京都,千代田区,丸の内３丁目１番１号東京共同会計事務所内,,13,101,1000005,,,2023-02-14,清算の結了等,,,2019-07-02,1,,,,,ニッコウプラステンイチ,0
247,2010003030124,登記記録の閉鎖等,0,2023-02-20,2023-02-14,日光Ｐｌｕｓ１０合同会社９,,合同会社,東京都,千代田区,丸の内３丁目１番１号東京共同会計事務所内,,13,101,1000005,,,2023-02-14,清算の結了等,,,2019-07-02,1,,,,,ニッコウプラステンキュー,0
254,2010401156784,登記記録の閉鎖等,0,2023-02-20,2023-02-08,ＳＵＮ’Ｏ株式会社,,株式会社,東京都,港区,新橋６丁目１６番８号,,13,103,1050004,,,2023-02-08,清算の結了等,,,2020-12-01,1,,,,,サンオー,0
259,2010403020204,登記記録の閉鎖等,0,2023-02-20,2023-02-08,日本橋インベストメンツ１合同会社,,合同会社,東京都,港区,六本木１丁目６番１号泉ガーデンタワー,,13,103,1060032,,,2023-02-08,清算の結了等,,,2019-02-19,1,,,,,ニホンバシインベストメンツワン,0
276,2010801030309,登記記録の閉鎖等,0,2023-02-20,2023-02-16,株式会社プラチナム,,株式会社,神奈川県,横浜市南区,三春台１２２番地１４,,14,105,2320002,,,2023-02-16,清算の結了等,,,2019-10-18,1,,,,,プラチナム,0
299,2011601022999,登記記録の閉鎖等,0,2023-02-20,2023-02-16,株式会社ＧＳＡ,,株式会社,東京都,練馬区,石神井町６丁目１７番４３号,,13,120,1770041,,,2023-02-16,清算の結了等,,,2018-12-14,1,,,,,ジーエスエー,0
302,2012402012116,登記記録の閉鎖等,0,2023-02-20,2023-02-16,有限会社ノジマ,,有限会社,東京都,調布市,菊野台１丁目１７番地４,,13,208,1820007,,,2023-02-16,清算の結了等,,,2015-10-05,1,,,,,ノジマ,0
304,2020001060865,登記記録の閉鎖等,0,2023-02-20,2023-02-15,浜電子株式会社,,株式会社,神奈川県,横浜市港北区,鳥山町６５６番地２０３号,,14,109,2220035,,,2023-02-15,清算の結了等,,,2015-10-05,1,,,,,ハマデンシ,0
312,2021002023877,登記記録の閉鎖等,0,2023-02-20,2023-02-15,有限会社渕野辺ランドリー,,有限会社,神奈川県,相模原市南区,大野台３丁目２９番１号,,14,153,2520331,,,2023-02-15,清算の結了等,,,2015-10-05,1,,,,,フチノベランドリー,0
339,2080401023400,登記記録の閉鎖等,0,2023-02-20,2023-02-17,株式会社ランドプロダクツ,,株式会社,静岡県,浜松市南区,白羽町１０３番地,,22,134,4300846,,,2023-02-17,清算の結了等,,,2019-01-25,1,,,,,ランドプロダクツ,0
340,2090001005731,登記記録の閉鎖等,0,2023-02-20,2023-02-17,株式会社中央電工,,株式会社,山梨県,中央市,山之神２２番地５６,,19,214,4093845,,,2023-02-17,登記官による閉鎖,,,2015-10-05,1,,,,,,0
341,2090001008049,登記記録の閉鎖等,0,2023-02-20,2023-02-17,青木建設工業株式会社,,株式会社,山梨県,上野原市,上野原３５３８番地,,19,212,4090112,,,2023-02-17,登記官による閉鎖,,,2015-10-05,1,,,,,,0
342,2090001011003,登記記録の閉鎖等,0,2023-02-20,2023-02-17,早川商事株式会社,,株式会社,山梨県,富士吉田市,下吉田３７２１番地,,19,202,4030004,,,2023-02-17,登記官による閉鎖,,,2015-10-05,1,,,,,,0
343,2090002000566,登記記録の閉鎖等,0,2023-02-20,2023-02-17,建築工房おかだ有限会社,,有限会社,山梨県,甲府市,上石田４丁目３番６号,,19,201,4000041,,,2023-02-17,登記官による閉鎖,,,2015-10-05,1,,,,,,0
344,2090002004410,登記記録の閉鎖等,0,2023-02-20,2023-02-17,富士城物産有限会社,,有限会社,山梨県,中央市,中楯１２７３番地３,,19,214,4093801,,,2023-02-17,登記官による閉鎖,,,2015-10-05,1,,,,,,0
345,2090002009748,登記記録の閉鎖等,0,2023-02-20,2023-02-17,有限会社ハイテック,,有限会社,山梨県,上野原市,コモアしおつ１丁目３５番１号,,19,212,4090126,,,2023-02-17,登記官による閉鎖,,,2015-10-05,1,,,,,,0
346,2090005004168,登記記録の閉鎖等,0,2023-02-20,2023-02-17,富士吉田染色加工業協同組合,,その他の設立登記法人,山梨県,富士吉田市,小明見１６０６番地,,19,202,4030002,,,2023-02-17,登記官による閉鎖,,,2015-10-05,1,,,,,,0
347,2090005004481,登記記録の閉鎖等,0,2023-02-20,2023-02-17,一般社団法人京王富士スバル高原別荘地第一次管理組合,,その他の設立登記法人,山梨県,南都留郡鳴沢村,字富士山１０４４３番地,,19,429,4010320,,,2023-02-17,登記官による閉鎖,,,2015-10-05,1,,,,,,0
350,2100001010317,登記記録の閉鎖等,0,2023-02-20,2023-02-15,株式会社マルキ木村陶器店,,株式会社,長野県,上田市,中央３丁目８番９号,,20,203,3860012,,,2023-02-15,清算の結了等,,,2015-10-05,1,,,,,マルキキムラトウキテン,0
362,2120001198638,登記記録の閉鎖等,0,2023-02-20,2023-02-16,株式会社サクベジ三国店,,株式会社,大阪府,大阪市淀川区,西三国３丁目２番８号,,27,123,5320006,,,2023-02-16,清算の結了等,,,2016-06-03,1,,,,,サクベジミクニテン,0
380,2122001026489,登記記録の閉鎖等,0,2023-02-20,2023-02-16,株式会社マナックス,,株式会社,大阪府,大阪市住之江区,南港東４丁目５番２３号,,27,125,5590031,,,2023-02-16,清算の結了等,,,2015-10-05,1,,,,,マナックス,0
390,2140001099058,登記記録の閉鎖等,0,2023-02-20,2023-02-14,株式会社Ｓｏｗａ,,株式会社,兵庫県,西宮市,苦楽園五番町２番３５－２０９号,,28,204,6620087,,,2023-02-14,清算の結了等,,,2015-10-05,1,,,,,ソワ,0
430,2260001018609,登記記録の閉鎖等,0,2023-02-20,2023-02-15,株式会社タカギ,,株式会社,岡山県,井原市,下出部町１丁目１４番地９,,33,207,7150022,,,2023-02-15,清算の結了等,,,2015-10-05,1,,,,,タカギ,0
432,2260002027864,登記記録の閉鎖等,0,2023-02-20,2023-02-17,有限会社エリカ,,有限会社,岡山県,津山市,大手町１１番地,,33,203,7080023,,,2023-02-17,清算の結了等,,,2015-10-05,1,,,,,エリカ,0
433,2260003001422,登記記録の閉鎖等,0,2023-02-20,2023-02-17,合同会社ラ・モダ,,合同会社,岡山県,岡山市北区,奉還町３丁目８番１３号,,33,101,7000026,,,2023-02-17,清算の結了等,,,2015-10-05,1,,,,,ラモダ,0
442,2290802003319,登記記録の閉鎖等,0,2023-02-20,2023-02-17,有限会社新和タクシー,,有限会社,福岡県,北九州市小倉北区,井堀３丁目６－３２,,40,106,8030835,,,2023-02-17,清算の結了等,,,2015-10-05,1,,,,,,0
445,2310002003950,登記記録の閉鎖等,0,2023-02-20,2023-02-17,有限会社中島商店,,有限会社,長崎県,長崎市,西山４丁目４８５番地８,,42,201,8500001,,,2023-02-17,清算の結了等,,,2015-10-05,1,,,,,ナカシマショウテン,0
460,2390001013101,登記記録の閉鎖等,0,2023-02-20,2023-02-14,山形フォレストリー株式会社,,株式会社,山形県,新庄市,五日町１２５８番地２１,,06,205,9960001,,,2023-02-14,清算の結了等,,,2015-10-05,1,,,,,ヤマガタフォレストリー,0
462,2460002003176,登記記録の閉鎖等,0,2023-02-20,2023-02-17,有限会社村山鉄工,,有限会社,北海道,釧路市,愛国西２丁目１７番１１号,,01,206,0850057,,,2023-02-17,清算の結了等,,,2015-10-05,1,,,,,ムラヤマテッコウ,0
467,3010001026008,登記記録の閉鎖等,0,2023-02-20,2023-02-13,株式会社ニユー西北エンタープライズ,,株式会社,東京都,千代田区,麹町１丁目８番地６ＯＩマンション２０２号,,13,101,1020083,,,2023-02-13,清算の結了等,,,2015-10-05,1,,,,,ニユーセイホクエンタープライズ,0
475,3010003026897,登記記録の閉鎖等,0,2023-02-20,2023-02-13,合同会社Ｃｏｓｍｏｓ,,合同会社,東京都,千代田区,内幸町１丁目１番１号,,13,101,1000011,,,2023-02-13,清算の結了等,,,2018-02-02,1,,,,,コスモス,0
476,3010003030123,登記記録の閉鎖等,0,2023-02-20,2023-02-14,日光Ｐｌｕｓ１０合同会社８,,合同会社,東京都,千代田区,丸の内３丁目１番１号東京共同会計事務所内,,13,101,1000005,,,2023-02-14,清算の結了等,,,2019-07-02,1,,,,,ニッコウプラステンハチ,0
477,3010003034223,登記記録の閉鎖等,0,2023-02-20,2023-02-14,東京レジ１５合同会社,,合同会社,東京都,千代田区,丸の内３丁目１番１号東京共同会計事務所内,,13,101,1000005,,,2023-02-14,清算の結了等,,,2021-02-24,1,,,,,トウキョウレジフィフティーン,0
478,3010003035262,登記記録の閉鎖等,0,2023-02-20,2023-02-14,東京レジ２２合同会社,,合同会社,東京都,千代田区,丸の内３丁目１番１号東京共同会計事務所内,,13,101,1000005,,,2023-02-14,清算の結了等,,,2021-07-13,1,,,,,トウキョウレジトゥエンティツー,0
500,3010502019716,登記記録の閉鎖等,0,2023-02-20,2023-02-14,有限会社シャイニング・ブルー,,有限会社,東京都,台東区,上野５丁目２５番４号,,13,106,1100005,,,2023-02-14,清算の結了等,,,2015-10-05,1,,,,,シャイニングブルー,0
520,3011101016435,登記記録の閉鎖等,0,2023-02-20,2023-02-17,日本水理設計株式会社,,株式会社,東京都,新宿区,西新宿６丁目２１番１号,,13,104,1600023,,,2023-02-17,清算の結了等,,,2015-10-05,1,,,,,ニホンスイリセッケイ,0
555,3030001086933,登記記録の閉鎖等,0,2023-02-20,2023-02-15,株式会社染谷工房,,株式会社,埼玉県,行田市,忍２丁目８番１号,,11,206,3610077,,,2023-02-15,清算の結了等,,,2015-10-05,1,,,,,ソメヤコウボウ,0
565,3040003007606,登記記録の閉鎖等,0,2023-02-20,2023-02-13,アストルジャパン合同会社,,合同会社,東京都,大田区,池上８丁目１９番１０－３０４号,,13,111,1460082,,,2023-02-13,合併による解散等,8010403017624,令和５年２月１日東京都八王子市大楽寺町２番地ハイツ神戸２０３リーブルジャパン合同会社（8010403017624）に合併し解散,2015-10-05,1,,,,,,0
571,3090001009327,登記記録の閉鎖等,0,2023-02-20,2023-02-17,株式会社飯島建材,,株式会社,山梨県,甲州市,塩山熊野２６５番地３,,19,213,4040036,,,2023-02-17,登記官による閉鎖,,,2015-10-05,1,,,,,,0
573,3090002007239,登記記録の閉鎖等,0,2023-02-20,2023-02-17,有限会社釜無タクシー,,有限会社,山梨県,南アルプス市,上高砂９０２番地１,,19,208,4000201,,,2023-02-17,登記官による閉鎖,,,2015-10-05,1,,,,,,0
574,3090002008492,登記記録の閉鎖等,0,2023-02-20,2023-02-17,有限会社トーワ工業,,有限会社,山梨県,笛吹市,八代町北１４３６番地の１,,19,211,4060821,,,2023-02-17,登記官による閉鎖,,,2015-10-05,1,,,,,,0
575,3090002012032,登記記録の閉鎖等,0,2023-02-20,2023-02-17,有限会社コンチェルト,,有限会社,山梨県,南都留郡富士河口湖町,船津６７１３番地の８,,19,430,4010301,,,2023-02-17,登記官による閉鎖,,,2015-10-05,1,,,,,,0
576,3090005000364,登記記録の閉鎖等,0,2023-02-20,2023-02-17,甲府洋家具工業協同組合,,その他の設立登記法人,山梨県,甲府市,徳行２丁目１４番２２号,,19,201,4000047,,,2023-02-17,登記官による閉鎖,,,2015-10-05,1,,,,,,0
577,3090005000579,登記記録の閉鎖等,0,2023-02-20,2023-02-17,甲府理容師協同組合,,その他の設立登記法人,山梨県,甲府市,桜井町６１９番地１,,19,201,4000803,,,2023-02-17,登記官による閉鎖,,,2015-10-05,1,,,,,,0
578,3090005000620,登記記録の閉鎖等,0,2023-02-20,2023-02-17,山梨県食鳥商業協同組合,,その他の設立登記法人,山梨県,甲府市,青沼２丁目２５番１号,,19,201,4000867,,,2023-02-17,登記官による閉鎖,,,2015-10-05,1,,,,,,0
579,3090005001156,登記記録の閉鎖等,0,2023-02-20,2023-02-17,山梨県ポリエチレン加工協同組合,,その他の設立登記法人,山梨県,中央市,山之神流通団地一丁目３番２号,,19,214,4093845,,,2023-02-17,登記官による閉鎖,,,2015-10-05,1,,,,,,0
580,3090005003755,登記記録の閉鎖等,0,2023-02-20,2023-02-17,企業組合緑美造林,,その他の設立登記法人,山梨県,山梨市,北２１７１番地の２４,,19,205,4050041,,,2023-02-17,登記官による閉鎖,,,2015-10-05,1,,,,,,0
581,3090005004159,登記記録の閉鎖等,0,2023-02-20,2023-02-17,郡内塗装工業協同組合,,その他の設立登記法人,山梨県,富士吉田市,下吉田２３１番地,,19,202,4030004,,,2023-02-17,登記官による閉鎖,,,2015-10-05,1,,,,,,0
582,3090005004349,登記記録の閉鎖等,0,2023-02-20,2023-02-17,住まいの友協同組合,,その他の設立登記法人,山梨県,南都留郡忍野村,忍草字平山２４２７番地１７,,19,424,4010511,,,2023-02-17,登記官による閉鎖,,,2015-10-05,1,,,,,,0
583,3090005004522,登記記録の閉鎖等,0,2023-02-20,2023-02-17,韮崎ショッピングセンター協同組合,,その他の設立登記法人,山梨県,韮崎市,若宮１丁目２番５０号,,19,207,4070015,,,2023-02-17,登記官による閉鎖,,,2015-10-05,1,,,,,,0
588,3120001160935,登記記録の閉鎖等,0,2023-02-20,2023-02-15,株式会社ソルコ,,株式会社,大阪府,大阪市都島区,片町１丁目５番１３号,,27,102,5340025,,,2023-02-15,清算の結了等,,,2015-10-05,1,,,,,ソルコ,0
636,3200001037027,登記記録の閉鎖等,0,2023-02-20,2023-02-13,北代行運転株式会社,,株式会社,岐阜県,岐阜市,守口町２丁目１６番地,,21,201,5020921,,,2023-02-13,清算の結了等,,,2020-01-15,1,,,,,キタダイコウウンテン,0
638,3230001008990,登記記録の閉鎖等,0,2023-02-20,2023-02-15,株式会社エイコープおやべ,,株式会社,富山県,小矢部市,石動町１０番２８号,,16,209,9320053,,,2023-02-15,清算の結了等,,,2015-10-05,1,,,,,エイコープオヤベ,0
643,3260001003790,登記記録の閉鎖等,0,2023-02-20,2023-02-15,創栄産業株式会社,,株式会社,岡山県,玉野市,八浜町八浜１４６２番地１２,,33,204,7060221,,,2023-02-15,清算の結了等,,,2015-10-05,1,,,,,ソウエイサンギョウ,0
664,3340002024662,登記記録の閉鎖等,0,2023-02-20,2023-02-16,有限会社牧山,,有限会社,鹿児島県,南九州市,頴娃町郡１６０３番地,,46,223,8910701,,,2023-02-16,清算の結了等,,,2015-10-05,1,,,,,マキヤマ,0
687,4010001048827,登記記録の閉鎖等,0,2023-02-20,2023-02-13,株式会社大貴洞,,株式会社,東京都,中央区,銀座７丁目１２番４号,,13,102,1040061,,,2023-02-13,清算の結了等,,,2015-10-05,1,,,,,ダイキドウ,0
700,4010003030122,登記記録の閉鎖等,0,2023-02-20,2023-02-14,日光Ｐｌｕｓ１０合同会社７,,合同会社,東京都,千代田区,丸の内３丁目１番１号東京共同会計事務所内,,13,101,1000005,,,2023-02-14,清算の結了等,,,2019-07-02,1,,,,,ニッコウプラステンナナ,0
753,4011301002903,登記記録の閉鎖等,0,2023-02-20,2023-02-13,三邦印刷株式会社,,株式会社,東京都,杉並区,西荻南１丁目１３番１５号,,13,115,1670053,,,2023-02-13,清算の結了等,,,2022-07-28,1,,,,,サンポウインサツ,0
760,4011801031708,登記記録の閉鎖等,0,2023-02-20,2023-02-16,株式会社ヤマヤ・エコ・サービス,,株式会社,東京都,足立区,六木４丁目９番１６号星野ハイツ２０６,,13,121,1210052,,,2023-02-16,清算の結了等,,,2016-04-22,1,,,,,ヤマヤエコサービス,0
763,4011803003911,登記記録の閉鎖等,0,2023-02-20,2023-02-16,合同会社ＢＬＵＥ　ＲＡＮＧＥ　ｆｉｌｍ,,合同会社,東京都,清瀬市,竹丘２丁目３番２７号ライブコア清瀬３１１,,13,221,2040023,,,2023-02-16,清算の結了等,,,2019-11-26,1,,,,,ブルーレンジフィルム,0
769,4020002025923,登記記録の閉鎖等,0,2023-02-20,2023-02-17,有限会社角庄商店,,有限会社,神奈川県,横浜市神奈川区,山内町１番地の１,,14,102,2210054,,,2023-02-17,清算の結了等,,,2015-10-05,1,,,,,,0
772,4021001032737,登記記録の閉鎖等,0,2023-02-20,2023-02-15,湘南総合不動産鑑定株式会社,,株式会社,神奈川県,小田原市,南鴨宮３丁目４９番１号,,14,206,2500875,,,2023-02-15,清算の結了等,,,2015-10-05,1,,,,,ショウナンソウゴウフドウサンカンテイ,0
774,4021002015872,登記記録の閉鎖等,0,2023-02-20,2023-02-16,有限会社ユーフアス製剤研究所,,有限会社,神奈川県,鎌倉市,大町３丁目９番１３号,,14,204,2480007,,,2023-02-16,清算の結了等,,,2015-10-05,1,,,,,ユーフアスセイザイケンキュウジョ,0
799,4060001021028,登記記録の閉鎖等,0,2023-02-20,2023-02-17,Ｆ・Ｅ・サプライ株式会社,,株式会社,栃木県,佐野市,大橋町１４００番地１,,09,204,3270003,,,2023-02-17,清算の結了等,,,2015-10-05,1,,,,,エフイーサプライ,0
808,4090001009549,登記記録の閉鎖等,0,2023-02-20,2023-02-17,相沢土木株式会社,,株式会社,山梨県,南都留郡富士河口湖町,船津１２１６番地の１,,19,430,4010301,,,2023-02-17,登記官による閉鎖,,,2015-10-05,1,,,,,,0
809,4090001011926,登記記録の閉鎖等,0,2023-02-20,2023-02-17,株式会社叶製作所,,株式会社,山梨県,西八代郡市川三郷町,市川大門６０７１番地１,,19,346,4093601,,,2023-02-17,登記官による閉鎖,,,2015-10-05,1,,,,,,0
810,4090002006603,登記記録の閉鎖等,0,2023-02-20,2023-02-17,有限会社アトラクティブ,,有限会社,山梨県,甲斐市,竜地６２１２番地の１,,19,210,4000100,,,2023-02-17,登記官による閉鎖,,,2015-10-05,1,,,,,,0
811,4090002009432,登記記録の閉鎖等,0,2023-02-20,2023-02-17,有限会社タイヤショップピット大月,,有限会社,山梨県,大月市,大月町真木４２番地２,,19,206,4010016,,,2023-02-17,登記官による閉鎖,,,2015-10-05,1,,,,,,0
812,4090002010786,登記記録の閉鎖等,0,2023-02-20,2023-02-17,有限会社真愛,,有限会社,山梨県,山梨市,下神内川３４３番地６,,19,205,4050017,,,2023-02-17,登記官による閉鎖,,,2015-10-05,1,,,,,,0
813,4090003000340,登記記録の閉鎖等,0,2023-02-20,2023-02-17,合同会社和Ｃｏｃｏｒｏ,,合同会社,山梨県,甲府市,大手１丁目２番２１号,,19,201,4000015,,,2023-02-17,登記官による閉鎖,,,2015-10-05,1,,,,,,0
814,4090005000578,登記記録の閉鎖等,0,2023-02-20,2023-02-17,甲府木材不動産協同組合,,その他の設立登記法人,山梨県,甲府市,高畑１丁目１番１７号甲府木協ビル２０２号室,,19,201,4000042,,,2023-02-17,登記官による閉鎖,,,2015-10-05,1,,,,,,0
815,4090005000586,登記記録の閉鎖等,0,2023-02-20,2023-02-17,甲府住宅供給事業協同組合,,その他の設立登記法人,山梨県,甲府市,富竹１丁目１２番２号,,19,201,4000049,,,2023-02-17,登記官による閉鎖,,,2015-10-05,1,,,,,,0
816,4090005001295,登記記録の閉鎖等,0,2023-02-20,2023-02-17,山梨県管工事営繕協同組合,,その他の設立登記法人,山梨県,甲府市,徳行４丁目９番１５号明和工業株式会社内,,19,201,4000047,,,2023-02-17,登記官による閉鎖,,,2015-10-05,1,,,,,,0
817,4090005004158,登記記録の閉鎖等,0,2023-02-20,2023-02-17,北富士振興協同組合,,その他の設立登記法人,山梨県,富士吉田市,大明見１２７０番地,,19,202,4030003,,,2023-02-17,登記官による閉鎖,,,2015-10-05,1,,,,,,0
818,4090005004174,登記記録の閉鎖等,0,2023-02-20,2023-02-17,富士ファッションソーイング協同組合,,その他の設立登記法人,山梨県,富士吉田市,ときわ台２丁目３番１７号,,19,202,4030015,,,2023-02-17,登記官による閉鎖,,,2015-10-05,1,,,,,,0
819,4090005005899,登記記録の閉鎖等,0,2023-02-20,2023-02-17,カノヤ林業企業組合,,その他の設立登記法人,山梨県,南巨摩郡南部町,成島５２３番地,,19,366,4092216,,,2023-02-17,登記官による閉鎖,,,2015-10-05,1,,,,,,0
836,4120003010963,登記記録の閉鎖等,0,2023-02-20,2023-02-16,合同会社グローバル,,合同会社,大阪府,大阪市港区,八幡屋２丁目６番１－４１３,,27,107,5520014,,,2023-02-16,清算の結了等,,,2015-10-05,1,,,,,グローバル,0
839,4120102024807,登記記録の閉鎖等,0,2023-02-20,2023-02-16,有限会社ＫＳＹ翻訳サービス,,有限会社,大阪府,大阪市中央区,森ノ宮中央１丁目２番２１号第ＩＩＩ森ノ宮中央ハイツ,00115215,27,128,5400003,,,2023-02-16,清算の結了等,,,2015-10-05,1,,,,,ケイエスワイホンヤクサービス,0
873,4200001019503,登記記録の閉鎖等,0,2023-02-20,2023-02-16,株式会社平田塗装,,株式会社,岐阜県,関市,吉野町８番２５号,,21,205,5013816,,,2023-02-16,清算の結了等,,,2015-10-05,1,,,,,ヒラタトソウ,0
878,4240001055016,登記記録の閉鎖等,0,2023-02-20,2023-02-16,株式会社スカイ,,株式会社,広島県,呉市,本通５丁目１１番２３号,,34,202,7370045,,,2023-02-16,清算の結了等,,,2019-10-07,1,,,,,スカイ,0
888,4280002005081,登記記録の閉鎖等,0,2023-02-20,2023-02-17,有限会社アビニヨン,,有限会社,島根県,出雲市,矢野町９４１番地１,,32,203,6930058,,,2023-02-17,清算の結了等,,,2015-10-05,1,,,,,アビニヨン,0
918,4410001010878,登記記録の閉鎖等,0,2023-02-20,2023-02-13,株式会社共栄機械,,株式会社,秋田県,鹿角市,十和田末広字村下７５番地２,,05,209,0185337,,,2023-02-13,清算の結了等,,,2015-10-05,1,,,,,キョウエイキカイ,0
933,5010001032409,登記記録の閉鎖等,0,2023-02-20,2023-02-13,株式会社黎デザイン総合計画研究所,,株式会社,東京都,千代田区,麹町３丁目５番地,00060529,13,101,1020083,,,2023-02-13,清算の結了等,,,2015-10-05,1,,,,,レイデザインソウゴウケイカクケンキュウジョ,0
935,5010001110305,登記記録の閉鎖等,0,2023-02-20,2023-02-13,株式会社ＴＩＳ＆ＰＡＲＴＮＥＲＳ,,株式会社,東京都,千代田区,二番町９番３号,,13,101,1020084,,,2023-02-13,清算の結了等,,,2015-10-05,1,,,,,ティアイエスアンドパートナーズ,0
945,5010003030121,登記記録の閉鎖等,0,2023-02-20,2023-02-14,日光Ｐｌｕｓ１０合同会社６,,合同会社,東京都,千代田区,丸の内３丁目１番１号東京共同会計事務所内,,13,101,1000005,,,2023-02-14,清算の結了等,,,2019-07-02,1,,,,,ニッコウプラステンロク,0
951,5010401167597,登記記録の閉鎖等,0,2023-02-20,2023-02-06,ＮＥＷＤＥＥＰ株式会社,,株式会社,東京都,港区,南青山３丁目１番３号スプライン青山東急ビル６Ｆ,,13,103,1070062,,,2023-02-06,清算の結了等,,,2022-05-30,1,,,,,ニューディープ,0
956,5010403020201,登記記録の閉鎖等,0,2023-02-20,2023-02-08,日本橋インベストメンツ合同会社,,合同会社,東京都,港区,六本木１丁目６番１号泉ガーデンタワー,,13,103,1060032,,,2023-02-08,清算の結了等,,,2019-02-15,1,,,,,ニホンバシインベストメンツ,0
986,5011101010147,登記記録の閉鎖等,0,2023-02-20,2023-02-16,システム開発株式会社,,株式会社,東京都,新宿区,大久保１丁目１２番３号カーサ第２新宿ビル,,13,104,1690072,,,2023-02-16,清算の結了等,,,2015-10-05,1,,,,,システムカイハツ,0
993,5011105004013,登記記録の閉鎖等,0,2023-02-20,2023-02-15,特定非営利活動法人日本パワーフィットネス協会,,その他の設立登記法人,神奈川県,横浜市中区,日本大通７日本大通７ビル４Ｆ・ＹＢＰ内,,14,104,2310021,,,2023-02-15,清算の結了等,,,2015-10-05,1,,,,,ニホンパワーフィットネスキョウカイ,0
1001,5012702009370,登記記録の閉鎖等,0,2023-02-20,2023-02-16,有限会社ティーティーエム,,有限会社,東京都,東村山市,栄町１丁目１５番地１１６,,13,213,1890013,,,2023-02-16,清算の結了等,,,2015-10-05,1,,,,,ティーティーエム,0
1026,5030002080330,登記記録の閉鎖等,0,2023-02-20,2023-02-15,有限会社アズワン・コミュニケーションズ,,有限会社,埼玉県,川越市,新宿町６丁目７番地４,,11,201,3501124,,,2023-02-15,清算の結了等,,,2015-10-05,1,,,,,アズワンコミュニケーションズ,0
1055,5090001011165,登記記録の閉鎖等,0,2023-02-20,2023-02-17,日本テレシステム株式会社,,株式会社,山梨県,北杜市,明野町小笠原３３９４番地３１５,,19,209,4080202,,,2023-02-17,登記官による閉鎖,,,2015-10-05,1,,,,,,0
1056,5090002009704,登記記録の閉鎖等,0,2023-02-20,2023-02-17,有限会社タカハシ解体,,有限会社,山梨県,上野原市,棡原１０２４３番地,,19,212,4090111,,,2023-02-17,登記官による閉鎖,,,2015-10-05,1,,,,,,0
1057,5090002015074,登記記録の閉鎖等,0,2023-02-20,2023-02-17,有限会社前橋塗装所,,有限会社,山梨県,南巨摩郡富士川町,小林１７０９番地,,19,368,4000504,,,2023-02-17,登記官による閉鎖,,,2015-10-05,1,,,,,,0
1058,5090003000604,登記記録の閉鎖等,0,2023-02-20,2023-02-17,合同会社あまの,,合同会社,山梨県,富士吉田市,上吉田２４６２番地の２,,19,202,4030005,,,2023-02-17,登記官による閉鎖,,,2015-10-05,1,,,,,,0
1060,5090005000362,登記記録の閉鎖等,0,2023-02-20,2023-02-17,甲進総合建設協同組合,,その他の設立登記法人,山梨県,甲府市,朝日１丁目１０番１３号,,19,201,4000025,,,2023-02-17,登記官による閉鎖,,,2015-10-05,1,,,,,,0
1061,5090005000478,登記記録の閉鎖等,0,2023-02-20,2023-02-17,山梨県ニット染色協同組合,,その他の設立登記法人,山梨県,甲府市,青葉町４４４番地,,19,201,4000828,,,2023-02-17,登記官による閉鎖,,,2015-10-05,1,,,,,,0
1062,5090005000560,登記記録の閉鎖等,0,2023-02-20,2023-02-17,山梨県設備設計士協同組合,,その他の設立登記法人,山梨県,甲府市,中央３丁目１２番１０号,,19,201,4000032,,,2023-02-17,登記官による閉鎖,,,2015-10-05,1,,,,,,0
1063,5090005003316,登記記録の閉鎖等,0,2023-02-20,2023-02-17,都留染色捺染業協同組合,,その他の設立登記法人,山梨県,都留市,田原３丁目３番２２号,,19,204,4020054,,,2023-02-17,登記官による閉鎖,,,2015-10-05,1,,,,,,0
1064,5090005004462,登記記録の閉鎖等,0,2023-02-20,2023-02-17,フィットメンテナンス事業協同組合,,その他の設立登記法人,山梨県,南都留郡富士河口湖町,小立字三階７１３９番地１,,19,430,4010302,,,2023-02-17,登記官による閉鎖,,,2015-10-05,1,,,,,,0
1065,5090005004859,登記記録の閉鎖等,0,2023-02-20,2023-02-17,清里高原ペンション事業協同組合,,その他の設立登記法人,山梨県,北杜市,高根町長沢２６２３番地,,19,209,4080000,,,2023-02-17,登記官による閉鎖,,,2015-10-05,1,,,,,,0
1072,5110001031747,登記記録の閉鎖等,0,2023-02-20,2023-02-16,ＥＰＩＣ　ＴＥＣＨＮＯＬＯＧＩＥＳ　ＪＡＰＡＮ株式会社,,株式会社,新潟県,南魚沼市,浦佐１１８８番地２グローバルＩＴパーク,,15,226,9497302,,,2023-02-16,清算の結了等,,,2016-08-15,1,,,,,エピックテクノロジーズジャパン,0
1079,5120001238762,登記記録の閉鎖等,0,2023-02-20,2023-02-20,ＴＥＦＥ株式会社,,株式会社,大阪府,大阪市旭区,千林２丁目１１番８－１５０４号,,27,117,5350012,,,2023-02-20,清算の結了等,,,2021-07-06,1,,,,,テフ,0
1085,5120003010491,登記記録の閉鎖等,0,2023-02-20,2023-02-13,インフォーマル合同会社,,合同会社,大阪府,大阪市東成区,大今里西１丁目２７番２号,,27,115,5370014,,,2023-02-13,清算の結了等,,,2015-10-05,1,,,,,インフォーマル,0
1091,5120903001714,登記記録の閉鎖等,0,2023-02-20,2023-02-16,合同会社Ｃｚａｒ,,合同会社,大阪府,大阪市中央区,谷町２丁目９番３号,,27,128,5400012,,,2023-02-16,清算の結了等,,,2015-10-05,1,,,,,ツァーリ,0
1100,5140002004047,登記記録の閉鎖等,0,2023-02-20,2023-02-13,有限会社神戸物流サービス,,有限会社,兵庫県,神戸市灘区,箕岡通３丁目３番２３号,,28,102,6570812,,,2023-02-13,清算の結了等,,,2015-10-05,1,,,,,コウベブツリュウサービス,0
1115,5180003010288,登記記録の閉鎖等,0,2023-02-20,2023-02-14,合資会社橋本鈑金,,合資会社,愛知県,小牧市,小牧５丁目３６６番地,,23,219,4850041,,,2023-02-14,清算の結了等,,,2015-10-05,1,,,,,ハシモトバンキン,0
1117,5180005007150,登記記録の閉鎖等,0,2023-02-20,2023-02-15,港商連協同組合,,その他の設立登記法人,愛知県,名古屋市港区,港楽３丁目４番１６号,,23,111,4550014,,,2023-02-15,清算の結了等,,,2015-10-05,1,,,,,ミナトショウレン,0
1121,5180302015731,登記記録の閉鎖等,0,2023-02-20,2023-02-14,有限会社西九商店,,有限会社,愛知県,蒲郡市,三谷町八舗１０６番地の３,,23,214,4430021,,,2023-02-14,清算の結了等,,,2015-10-05,1,,,,,ニシクショウテン,0
1131,5240001030083,登記記録の閉鎖等,0,2023-02-20,2023-02-17,岩木産業株式会社,,株式会社,広島県,福山市,駅家町大字法成寺２２１番地の１,,34,207,7202413,,,2023-02-17,清算の結了等,,,2015-10-05,1,,,,,,0
1172,5460102000590,登記記録の閉鎖等,0,2023-02-20,2023-02-13,有限会社帯広漁販,,有限会社,北海道,帯広市,西二十一条南４丁目２５番地１０,,01,207,0802471,,,2023-02-13,清算の結了等,,,2015-10-05,1,,,,,オビヒロギョハン,0
1174,5480002013055,登記記録の閉鎖等,0,2023-02-20,2023-02-16,サンコウカデン有限会社,,有限会社,徳島県,阿南市,津乃峰町長浜４４５番地８,,36,204,7740021,,,2023-02-16,清算の結了等,,,2015-10-05,1,,,,,サンコウカデン,0
1189,6010003030120,登記記録の閉鎖等,0,2023-02-20,2023-02-14,日光Ｐｌｕｓ１０合同会社５,,合同会社,東京都,千代田区,丸の内３丁目１番１号東京共同会計事務所内,,13,101,1000005,,,2023-02-14,清算の結了等,,,2019-07-02,1,,,,,ニッコウプラステンゴ,0
1193,6010401133284,登記記録の閉鎖等,0,2023-02-20,2023-01-31,株式会社アラレ,,株式会社,東京都,港区,麻布十番２丁目１１番３－４０２号,,13,103,1060045,,,2023-01-31,清算の結了等,,,2017-08-22,1,,,,,アラレ,0
1201,6010403021751,登記記録の閉鎖等,0,2023-02-20,2023-02-07,合同会社面白い人,,合同会社,東京都,港区,浜松町２丁目２番１５号,,13,103,1050013,,,2023-02-07,清算の結了等,,,2019-11-08,1,,,,,オモシロイヒト,0
1209,6010601008377,登記記録の閉鎖等,0,2023-02-20,2023-02-13,株式会社明日香,,株式会社,東京都,墨田区,江東橋４丁目１０番７号,,13,107,1300022,,,2023-02-13,清算の結了等,,,2015-10-05,1,,,,,アスカ,0
1216,6010901036697,登記記録の閉鎖等,0,2023-02-20,2023-02-07,株式会社Ｗｉｓｈ　Ｓｅｒｖｉｃｅ　Ｃｏｍｐａｎｙ,,株式会社,東京都,目黒区,目黒３丁目１３番２６号,,13,110,1530063,,,2023-02-07,清算の結了等,,,2015-10-05,1,,,,,ウィッシュサービスカンパニー,0
1225,6011001094545,登記記録の閉鎖等,0,2023-02-20,2023-02-10,株式会社アンドモデル,,株式会社,東京都,渋谷区,渋谷３丁目１３番地５号７０４,,13,113,1500002,,,2023-02-10,清算の結了等,,,2015-10-05,1,,,,,アンドモデル,0
1243,6011802014222,登記記録の閉鎖等,0,2023-02-20,2023-02-16,有限会社ジャパン・スペースホーム,,有限会社,東京都,足立区,西伊興２丁目８番１０号,,13,121,1210824,,,2023-02-16,清算の結了等,,,2015-10-05,1,,,,,ジャパンスペースホーム,0
1252,6020002051430,登記記録の閉鎖等,0,2023-02-20,2023-02-16,有限会社グリーングラス,,有限会社,神奈川県,横浜市中区,打越４４番地６,,14,104,2310867,,,2023-02-16,清算の結了等,,,2015-10-05,1,,,,,グリーングラス,0
1266,6030002048426,登記記録の閉鎖等,0,2023-02-20,2023-02-16,有限会社エフ建築工房,,有限会社,埼玉県,三郷市,早稲田１丁目８番地１,,11,237,3410018,,,2023-02-16,清算の結了等,,,2015-10-05,1,,,,,エフケンチクコウボウ,0
1282,6070002030173,登記記録の閉鎖等,0,2023-02-20,2023-02-15,東宝地所有限会社,,有限会社,群馬県,太田市,下田島町４３０番地,,10,205,3730844,,,2023-02-15,清算の結了等,,,2015-10-05,1,,,,,トウホウジショ,0
1290,6090001005827,登記記録の閉鎖等,0,2023-02-20,2023-02-17,株式会社クリスタル,,株式会社,山梨県,甲斐市,万才１０４９番地１,,19,210,4000114,,,2023-02-17,登記官による閉鎖,,,2015-10-05,1,,,,,,0
1291,6090001011338,登記記録の閉鎖等,0,2023-02-20,2023-02-17,株式会社ひまわり,,株式会社,山梨県,北杜市,大泉町谷戸３９０５番地,,19,209,4091502,,,2023-02-17,登記官による閉鎖,,,2015-10-05,1,,,,,,0
1292,6090002000298,登記記録の閉鎖等,0,2023-02-20,2023-02-17,有限会社一心,,有限会社,山梨県,甲府市,千塚５丁目１５番３１号,,19,201,4000074,,,2023-02-17,登記官による閉鎖,,,2015-10-05,1,,,,,,0
1293,6090002001016,登記記録の閉鎖等,0,2023-02-20,2023-02-17,有限会社甲府特産堂,,有限会社,山梨県,甲府市,湯田２丁目１４番１６号,,19,201,4000864,,,2023-02-17,登記官による閉鎖,,,2015-10-05,1,,,,,,0
1294,6090002005347,登記記録の閉鎖等,0,2023-02-20,2023-02-17,有限会社ジオリード,,有限会社,山梨県,甲府市,羽黒町９１３番地,,19,201,4000071,,,2023-02-17,登記官による閉鎖,,,2015-10-05,1,,,,,,0
1295,6090002007236,登記記録の閉鎖等,0,2023-02-20,2023-02-17,有限会社河西設備,,有限会社,山梨県,南アルプス市,藤田１７１０番地３,,19,208,4000334,,,2023-02-17,登記官による閉鎖,,,2015-10-05,1,,,,,,0
1296,6090002009042,登記記録の閉鎖等,0,2023-02-20,2023-02-17,有限会社グレープハウス,,有限会社,山梨県,笛吹市,春日居町鎮目２０番１号５０３号室,,19,211,4060015,,,2023-02-17,登記官による閉鎖,,,2015-10-05,1,,,,,,0
1297,6090002014240,登記記録の閉鎖等,0,2023-02-20,2023-02-17,有限会社パンパスグラス,,有限会社,山梨県,北杜市,高根町清里３５４５番地,,19,209,4070301,,,2023-02-17,登記官による閉鎖,,,2015-10-05,1,,,,,,0
1298,6090003000339,登記記録の閉鎖等,0,2023-02-20,2023-02-17,合同会社みらい計画,,合同会社,山梨県,中巨摩郡昭和町,西条新田２００番地,,19,384,4093865,,,2023-02-17,登記官による閉鎖,,,2015-10-05,1,,,,,,0
1299,6090005000270,登記記録の閉鎖等,0,2023-02-20,2023-02-17,山梨印章技術師協同組合,,その他の設立登記法人,山梨県,甲府市,相生３丁目４番１７号,,19,201,4000858,,,2023-02-17,登記官による閉鎖,,,2015-10-05,1,,,,,,0
1300,6090005000543,登記記録の閉鎖等,0,2023-02-20,2023-02-17,山梨県総合建設業協同組合,,その他の設立登記法人,山梨県,甲府市,屋形１丁目２番２７号,,19,201,4000017,,,2023-02-17,登記官による閉鎖,,,2015-10-05,1,,,,,,0
1301,6090005000551,登記記録の閉鎖等,0,2023-02-20,2023-02-17,山梨県記章協同組合,,その他の設立登記法人,山梨県,甲府市,国玉町９７６番地２落合工芸内,,19,201,4000815,,,2023-02-17,登記官による閉鎖,,,2015-10-05,1,,,,,,0
1345,6160001000663,登記記録の閉鎖等,0,2023-02-20,2023-02-16,株式会社ケイワンクラブ,,株式会社,滋賀県,大津市,国分１丁目８番３１号,,25,201,5200844,,,2023-02-16,清算の結了等,,,2015-10-05,1,,,,,ケイワンクラブ,0
1353,6180002008662,登記記録の閉鎖等,0,2023-02-20,2023-02-14,有限会社日比野商店,,有限会社,愛知県,名古屋市昭和区,滝子町１８番３４号,,23,107,4660053,,,2023-02-14,清算の結了等,,,2015-10-05,1,,,,,ヒビノショウテン,0
1365,6220002002479,登記記録の閉鎖等,0,2023-02-20,2023-02-16,有限会社兼六舎,,有限会社,石川県,金沢市,小坂町西５１番地３,,17,201,9200811,,,2023-02-16,清算の結了等,,,2015-10-05,1,,,,,ケンロクシャ,0
1388,6290002013924,登記記録の閉鎖等,0,2023-02-20,2023-02-16,有限会社アクアクリーン社,,有限会社,福岡県,福岡市中央区,長浜３丁目１４番３号,,40,133,8100072,,,2023-02-16,清算の結了等,,,2015-10-05,1,,,,,アクアクリーンシャ,0
1390,6290002033971,登記記録の閉鎖等,0,2023-02-20,2023-02-16,有限会社ヤマモト,,有限会社,福岡県,古賀市,花鶴丘３丁目１９番３,,40,223,8113104,,,2023-02-16,清算の結了等,,,2015-10-05,1,,,,,,0
1400,6340002003845,登記記録の閉鎖等,0,2023-02-20,2023-02-17,有限会社河野建材工業,,有限会社,鹿児島県,鹿児島市,東千石町３番３７－１００４号,,46,201,8920842,,,2023-02-17,清算の結了等,,,2015-10-05,1,,,,,コウノケンザイコウギョウ,0
1402,6350001004414,登記記録の閉鎖等,0,2023-02-20,2023-02-14,ピー・アイ株式会社,,株式会社,宮崎県,宮崎市,中西町１６５番地１,,45,201,8800853,,,2023-02-14,清算の結了等,,,2015-10-05,1,,,,,ピーアイ,0
1403,6350001005404,登記記録の閉鎖等,0,2023-02-20,2023-02-02,株式会社エムズスリー,,株式会社,宮崎県,宮崎市,吉村町大田ケ島甲４０９番地７,,45,201,8800841,,,2023-02-02,合併による解散等,3350001014556,令和５年２月１日宮崎市吉村町大田ケ島甲４０９番地７株式会社エムズワン（3350001014556）に合併し解散,2015-10-05,1,,,,,エムズスリー,0
1416,6430001080439,登記記録の閉鎖等,0,2023-02-20,2023-02-17,株式会社ランド,,株式会社,北海道,札幌市北区,南あいの里７丁目３１番７号,,01,102,0028091,,,2023-02-17,清算の結了等,,,2019-12-11,1,,,,,ランド,0
1419,6480003001801,登記記録の閉鎖等,0,2023-02-20,2023-02-17,合同会社ＢＫＧ　ＧＬＯＢＡＬ,,合同会社,徳島県,鳴門市,瀬戸町明神字弐軒家３番地２,,36,202,7720060,,,2023-02-17,清算の結了等,,,2022-03-11,1,,,,,ビーケージーグローバル,0
1438,7010401114291,登記記録の閉鎖等,0,2023-02-20,2023-02-14,株式会社Ｍリテイル,,株式会社,東京都,中央区,銀座６丁目１０番１号２Ｆ,,13,102,1040061,,,2023-02-14,合併による解散等,6290001028766,令和５年２月１日東京都港区南青山六丁目１番１３－５０８号株式会社ビジュードエム（6290001028766）に合併し解散,2015-10-05,1,,,,,エムリテイル,0
1446,7010401169988,登記記録の閉鎖等,0,2023-02-20,2023-02-06,株式会社ＮＥＷ,,株式会社,東京都,港区,港南２丁目１５番１号,,13,103,1080075,,,2023-02-06,清算の結了等,,,2022-10-04,1,,,,,エヌイーダブリュー,0
1461,7010601053579,登記記録の閉鎖等,0,2023-02-20,2023-02-17,エルエフティー株式会社,,株式会社,神奈川県,横浜市神奈川区,栄町５－１横浜クリエーションスクエア１４階,,14,102,2210052,,,2023-02-17,清算の結了等,,,2018-07-06,1,,,,,エルエフティー,0
1482,7011101059265,登記記録の閉鎖等,0,2023-02-20,2023-02-17,株式会社日本経営者センター,,株式会社,東京都,西東京市,向台町３丁目５番２７－９１３号,,13,229,1880013,,,2023-02-17,清算の結了等,,,2015-10-05,1,,,,,ニホンケイエイシャセンター,0
1494,7012701015178,登記記録の閉鎖等,0,2023-02-20,2023-02-17,株式会社Ｓｅｎｌｉｍｏ,,株式会社,東京都,小平市,花小金井１丁目６番３２－１４号,,13,211,1870002,,,2023-02-17,清算の結了等,,,2019-01-18,1,,,,,センリーモ,0
1509,7021001073118,登記記録の閉鎖等,0,2023-02-20,2023-02-16,株式会社ＡＥＳ,,株式会社,神奈川県,相模原市南区,旭町６番１７号オクトワール相模大野２０５号,,14,153,2520304,,,2023-02-16,清算の結了等,,,2021-06-10,1,,,,,エーイーエス,0
1538,7080002004679,登記記録の閉鎖等,0,2023-02-20,2023-02-16,有限会社ハトリ電子,,有限会社,静岡県,静岡市葵区,建穂２丁目５番６１号,,22,101,4211214,,,2023-02-16,清算の結了等,,,2015-10-05,1,,,,,ハトリデンシ,0
1543,7090002003639,登記記録の閉鎖等,0,2023-02-20,2023-02-17,有限会社共生堂原田薬局,,有限会社,山梨県,甲斐市,富竹新田３３６番地の１,,19,210,4000113,,,2023-02-17,登記官による閉鎖,,,2015-10-05,1,,,,,,0
1544,7090002004208,登記記録の閉鎖等,0,2023-02-20,2023-02-17,有限会社化光製作所,,有限会社,山梨県,中央市,西花輪１９４番地１,,19,214,4093843,,,2023-02-17,登記官による閉鎖,,,2015-10-05,1,,,,,,0
1545,7090002009999,登記記録の閉鎖等,0,2023-02-20,2023-02-17,有限会社菊地製作所,,有限会社,山梨県,上野原市,秋山６３３６番地１,,19,212,4010201,,,2023-02-17,登記官による閉鎖,,,2015-10-05,1,,,,,,0
1546,7090002013794,登記記録の閉鎖等,0,2023-02-20,2023-02-17,有限会社日本情報企画,,有限会社,山梨県,韮崎市,中田町中條１２０５番地,,19,207,4070262,,,2023-02-17,登記官による閉鎖,,,2015-10-05,1,,,,,,0
1547,7090002014157,登記記録の閉鎖等,0,2023-02-20,2023-02-17,有限会社清水重機,,有限会社,山梨県,北杜市,小淵沢町下笹尾４５４番地３,,19,209,4080043,,,2023-02-17,登記官による閉鎖,,,2015-10-05,1,,,,,,0
1548,7090005000492,登記記録の閉鎖等,0,2023-02-20,2023-02-17,山梨県観光土産商工業協同組合,,その他の設立登記法人,山梨県,中巨摩郡昭和町,清水新居９４２番地,,19,384,4093867,,,2023-02-17,登記官による閉鎖,,,2015-10-05,1,,,,,,0
1549,7090005001631,登記記録の閉鎖等,0,2023-02-20,2023-02-17,山梨韓日貴金属協同組合,,その他の設立登記法人,山梨県,甲府市,若松町６番３２号,,19,201,4000866,,,2023-02-17,登記官による閉鎖,,,2015-10-05,1,,,,,,0
1550,7090005003314,登記記録の閉鎖等,0,2023-02-20,2023-02-17,田辺織物協同組合,,その他の設立登記法人,山梨県,都留市,四日市場１０３６番地,,19,204,4020005,,,2023-02-17,登記官による閉鎖,,,2015-10-05,1,,,,,,0
1551,7090005003784,登記記録の閉鎖等,0,2023-02-20,2023-02-17,塩山シティ事業協同組合,,その他の設立登記法人,山梨県,甲州市,塩山上於曽８４８番地１,,19,213,4040042,,,2023-02-17,登記官による閉鎖,,,2015-10-05,1,,,,,,0
1556,7110001031142,登記記録の閉鎖等,0,2023-02-20,2023-02-16,ＳＫＰ株式会社,,株式会社,新潟県,三条市,荻堀７４９番地１,,15,204,9550151,,,2023-02-16,清算の結了等,,,2015-12-16,1,,,,,エスケーピー,0
1557,7110002028113,登記記録の閉鎖等,0,2023-02-20,2023-02-15,有限会社高橋木型製作所,,有限会社,新潟県,長岡市,原町１丁目５番地１６,,15,202,9400013,,,2023-02-15,清算の結了等,,,2015-10-05,1,,,,,タカハシキガタセイサクショ,0
1564,7120001103196,登記記録の閉鎖等,0,2023-02-20,2023-02-16,株式会社Ｔ・Ａ・Ｃ,,株式会社,大阪府,大阪市東淀川区,西淡路５丁目１４番,,27,114,5330031,,,2023-02-16,清算の結了等,,,2015-10-05,1,,,,,ティーエーシー,0
1571,7120001245468,登記記録の閉鎖等,0,2023-02-20,2023-02-15,株式会社ＲＡＴ,,株式会社,大阪府,大阪市北区,東天満２丁目１０－１９マークベストビル５Ｆ,,27,127,5300044,,,2023-02-15,清算の結了等,,,2022-04-25,1,,,,,ラット,0
1575,7120002054827,登記記録の閉鎖等,0,2023-02-20,2023-02-17,有限会社マングレート,,有限会社,大阪府,大阪市住吉区,長居東３丁目１４番２２－７０５号,,27,120,5580004,,,2023-02-17,清算の結了等,,,2015-10-05,1,,,,,マングレート,0
1579,7120101034358,登記記録の閉鎖等,0,2023-02-20,2023-02-17,株式会社トミカホーム,,株式会社,大阪府,南河内郡千早赤阪村,大字千早１４６番地,,27,383,5850051,,,2023-02-17,清算の結了等,,,2015-10-05,1,,,,,トミカホーム,0
1583,7122001021171,登記記録の閉鎖等,0,2023-02-20,2023-02-17,株式会社平田製作所,,株式会社,大阪府,柏原市,本郷５丁目２番２３号,,27,221,5820001,,,2023-02-17,清算の結了等,,,2015-10-05,1,,,,,ヒラタセイサクショ,0
1594,7130002030439,登記記録の閉鎖等,0,2023-02-20,2023-02-15,有限会社ハニー空調,,有限会社,京都府,八幡市,男山長沢１８番地１０,,26,210,6148367,,,2023-02-15,清算の結了等,,,2015-10-05,1,,,,,ハニークウチョウ,0
1603,7140001070807,登記記録の閉鎖等,0,2023-02-20,2023-02-15,株式会社理容大丸,,株式会社,兵庫県,西宮市,甲子園五番町１５番１４号,,28,204,6638175,,,2023-02-15,清算の結了等,,,2015-10-05,1,,,,,リヨウダイマル,0
1614,7150001015686,登記記録の閉鎖等,0,2023-02-20,2023-02-13,株式会社井戸商店,,株式会社,奈良県,吉野郡十津川村,大字折立２５３番地,,29,449,6371443,,,2023-02-13,清算の結了等,,,2015-10-05,1,,,,,イドショウテン,0
1619,7160002013548,登記記録の閉鎖等,0,2023-02-20,2023-02-16,有限会社デイリーアサ,,有限会社,滋賀県,栗東市,手原３丁目６番２１号,,25,208,5203047,,,2023-02-16,清算の結了等,,,2015-10-05,1,,,,,デイリーアサ,0
1630,7180002067823,登記記録の閉鎖等,0,2023-02-20,2023-02-13,有限会社エス・ティー・ケー,,有限会社,愛知県,春日井市,堀ノ内町４丁目３番地６,,23,206,4860829,,,2023-02-13,清算の結了等,,,2015-10-05,1,,,,,エスティーケー,0
1637,7210005005108,登記記録の閉鎖等,0,2023-02-20,2023-02-16,特定非営利活動法人ふくい創業・就職支援センター,,その他の設立登記法人,福井県,福井市,加茂河原３丁目７番１２号,,18,201,9188057,,,2023-02-16,清算の結了等,,,2015-10-05,1,,,,,フクイソウギョウシュウショクシエンセンター,0
1662,7350002002201,登記記録の閉鎖等,0,2023-02-20,2023-02-16,有限会社新城コンタクトレンズ,,有限会社,宮崎県,宮崎市,下北方町上田田９６４番地２めがねのせきビル３Ｆ,,45,201,8800035,,,2023-02-16,清算の結了等,,,2015-10-05,1,,,,,シンジョウコンタクトレンズ,0
1663,7350002017760,登記記録の閉鎖等,0,2023-02-20,2023-02-16,有限会社片之坂ガス設備,,有限会社,宮崎県,小林市,須木中原１７８６番地の２,,45,205,8860111,,,2023-02-16,清算の結了等,,,2015-10-05,1,,,,,カタノサカガスセツビ,0
1697,8010001148243,登記記録の閉鎖等,0,2023-02-20,2023-02-08,株式会社ベイクウェル,,株式会社,東京都,港区,元赤坂１丁目５番８号,,13,103,1070051,,,2023-02-08,清算の結了等,,,2015-10-05,1,,,,,ベイクウェル,0
1704,8010003030119,登記記録の閉鎖等,0,2023-02-20,2023-02-14,日光Ｐｌｕｓ１０合同会社４,,合同会社,東京都,千代田区,丸の内３丁目１番１号東京共同会計事務所内,,13,101,1000005,,,2023-02-14,清算の結了等,,,2019-07-02,1,,,,,ニッコウプラステンヨン,0
1706,8010005018475,登記記録の閉鎖等,0,2023-02-20,2023-02-17,公益財団法人東京都保健医療公社,,その他の設立登記法人,東京都,千代田区,神田駿河台２丁目５番地,,13,101,1010062,,,2023-02-17,清算の結了等,,,2015-10-05,1,,,,,トウキョウトホケンイリョウコウシャ,0
1718,8010501027401,登記記録の閉鎖等,0,2023-02-20,2023-02-17,株式会社ＳＯＮＩＣ,,株式会社,東京都,台東区,上野３丁目９番５号,,13,106,1100005,,,2023-02-17,清算の結了等,,,2015-10-05,1,,,,,ソニック,0
1722,8010503006386,登記記録の閉鎖等,0,2023-02-20,2023-02-17,埼玉不動産合同会社,,合同会社,東京都,台東区,清川２丁目２８番７－８０１号ＭＡＸＩＶｓｃｅｎｅ南千住,,13,106,1110022,,,2023-02-17,清算の結了等,,,2021-09-16,1,,,,,サイタマフドウサン,0
1727,8010905001885,登記記録の閉鎖等,0,2023-02-20,2023-02-14,特定非営利活動法人アート工房らん,,その他の設立登記法人,東京都,世田谷区,砧２丁目２１番１０－１０６号,,13,112,1570073,,,2023-02-14,清算の結了等,,,2015-10-05,1,,,,,,0
1734,8011101003692,登記記録の閉鎖等,0,2023-02-20,2023-02-16,株式会社オーエスシー六光管財,,株式会社,東京都,新宿区,西新宿３丁目１３番１１号,,13,104,1600023,,,2023-02-16,清算の結了等,,,2015-10-05,1,,,,,オーエスシーロッコウカンザイ,0
1741,8011105000422,登記記録の閉鎖等,0,2023-02-20,2023-02-17,一般社団法人防衛協力商業者連合会,,その他の設立登記法人,東京都,新宿区,市谷本村町３番２０号,,13,104,1620845,,,2023-02-17,清算の結了等,,,2015-10-05,1,,,,,ボウエイキョウリョクショウギョウシャレンゴウカイ,0
1754,8011703003009,登記記録の閉鎖等,0,2023-02-20,2023-02-16,合同会社メロディーレーン,,合同会社,東京都,江戸川区,西小岩２丁目７番８号グランジュール小岩２０１号室,,13,123,1330057,,,2023-02-16,清算の結了等,,,2021-12-01,1,,,,,メロディーレーン,0
1760,8012402023561,登記記録の閉鎖等,0,2023-02-20,2023-02-15,有限会社イング・コミュニケーションズ,,有限会社,東京都,調布市,飛田給１丁目９番１０号ライオンズマンション調布第２－２０３号,,13,208,1820036,,,2023-02-15,清算の結了等,,,2015-10-05,1,,,,,イングコミュニケーションズ,0
1793,8040001120983,登記記録の閉鎖等,0,2023-02-20,2023-02-16,株式会社アネモネ,,株式会社,千葉県,船橋市,海神１丁目１２番４号ハイツ相沢３０１号,,12,204,2730021,,,2023-02-16,清算の結了等,,,2021-11-12,1,,,,,アネモネ,0
1795,8040002024390,登記記録の閉鎖等,0,2023-02-20,2023-02-15,ハイ・ストーン有限会社,,有限会社,千葉県,船橋市,上山町１丁目１９１番地１２,,12,204,2730046,,,2023-02-15,清算の結了等,,,2015-10-05,1,,,,,ハイストーン,0
1797,8040003007618,登記記録の閉鎖等,0,2023-02-20,2023-02-13,スィエルジャパン合同会社,,合同会社,東京都,大田区,池上６丁目１３番７号,,13,111,1460082,,,2023-02-13,合併による解散等,8010403017624,令和５年２月１日東京都八王子市大楽寺町２番地ハイツ神戸２０３リーブルジャパン合同会社（8010403017624）に合併し解散,2015-10-05,1,,,,,,0
1804,8070001022426,登記記録の閉鎖等,0,2023-02-20,2023-02-15,株式会社コーヨーテック,,株式会社,群馬県,太田市,東別所町２３１番地,,10,205,3730815,,,2023-02-15,清算の結了等,,,2015-10-05,1,,,,,コーヨーテック,0
1807,8090001007045,登記記録の閉鎖等,0,2023-02-20,2023-02-17,株式会社マイ・ハートイン鳴沢,,株式会社,山梨県,甲府市,大里町２０５７番地４１,,19,201,4000053,,,2023-02-17,登記官による閉鎖,,,2015-10-05,1,,,,,,0
1808,8090001007210,登記記録の閉鎖等,0,2023-02-20,2023-02-17,アクアエンタープライズ株式会社,,株式会社,山梨県,甲府市,中央１丁目２０番２号,,19,201,4000032,,,2023-02-17,登記官による閉鎖,,,2015-10-05,1,,,,,,0
1809,8090001007573,登記記録の閉鎖等,0,2023-02-20,2023-02-17,株式会社Ｔｏｐｉｋｅ’ｓ,,株式会社,山梨県,甲府市,堀之内町９３０番地,,19,201,4000056,,,2023-02-17,登記官による閉鎖,,,2015-10-05,1,,,,,,0
1810,8090001009264,登記記録の閉鎖等,0,2023-02-20,2023-02-17,大平建設株式会社,,株式会社,山梨県,甲州市,大和町日影３３４番地,,19,213,4091204,,,2023-02-17,登記官による閉鎖,,,2015-10-05,1,,,,,,0
1811,8090001009826,登記記録の閉鎖等,0,2023-02-20,2023-02-17,株式会社滝口印刷所,,株式会社,山梨県,富士吉田市,下吉田５２２９番地３,,19,202,4030004,,,2023-02-17,登記官による閉鎖,,,2015-10-05,1,,,,,,0
1813,8090002001914,登記記録の閉鎖等,0,2023-02-20,2023-02-17,有限会社高岡薬品,,有限会社,山梨県,甲府市,富竹１丁目３番１８号,,19,201,4000049,,,2023-02-17,登記官による閉鎖,,,2015-10-05,1,,,,,,0
1814,8090002004751,登記記録の閉鎖等,0,2023-02-20,2023-02-17,有限会社丸善産業,,有限会社,山梨県,中巨摩郡昭和町,清水新居４７６番地,,19,384,4093867,,,2023-02-17,登記官による閉鎖,,,2015-10-05,1,,,,,,0
1815,8090002009635,登記記録の閉鎖等,0,2023-02-20,2023-02-17,有限会社黒川興業,,有限会社,山梨県,上野原市,上野原５０６２番地８,,19,212,4090112,,,2023-02-17,登記官による閉鎖,,,2015-10-05,1,,,,,,0
1816,8090005000459,登記記録の閉鎖等,0,2023-02-20,2023-02-17,協同組合プラザコア,,その他の設立登記法人,山梨県,甲府市,中央１丁目１２番１３号,,19,201,4000032,,,2023-02-17,登記官による閉鎖,,,2015-10-05,1,,,,,,0
1817,8090005000624,登記記録の閉鎖等,0,2023-02-20,2023-02-17,山梨中央木材林産協同組合,,その他の設立登記法人,山梨県,甲府市,高畑２丁目１８番９号,,19,201,4000042,,,2023-02-17,登記官による閉鎖,,,2015-10-05,1,,,,,,0
1818,8090005004162,登記記録の閉鎖等,0,2023-02-20,2023-02-17,都留肥料商業協同組合,,その他の設立登記法人,山梨県,富士吉田市,下吉田１５２３番地,,19,202,4030004,,,2023-02-17,登記官による閉鎖,,,2015-10-05,1,,,,,,0
1819,8100002001508,登記記録の閉鎖等,0,2023-02-20,2023-02-17,有限会社クレ・ド・バーグ,,有限会社,長野県,長野市,桐原１丁目２５番１７号,,20,201,3810045,,,2023-02-17,清算の結了等,,,2015-10-05,1,,,,,クレドバーグ,0
1852,8140001082553,登記記録の閉鎖等,0,2023-02-20,2023-02-15,株式会社日興電気商会,,株式会社,兵庫県,宝塚市,中山五月台２丁目１０番８号,,28,214,6650871,,,2023-02-15,清算の結了等,,,2015-10-05,1,,,,,ニッコウデンキショウカイ,0
1862,8180001020773,登記記録の閉鎖等,0,2023-02-20,2023-02-14,株式会社藤野化工,,株式会社,愛知県,名古屋市中川区,下之一色町字松蔭７丁目１番地,,23,110,4540945,,,2023-02-14,清算の結了等,,,2015-10-05,1,,,,,フジノカコウ,0
1867,8180001148581,登記記録の閉鎖等,0,2023-02-20,2023-02-03,ＥＬＪ　ｓｔｅｒｒａ株式会社,,株式会社,愛知県,名古屋市名東区,姫若町３番地の２ＫＴＣビル４階,,23,115,4650045,,,2023-02-03,合併による解散等,9180001103172,令和５年２月１日名古屋市名東区姫若町３番地の２ＫＴＣビル５階ＥＬＪソーラーコーポレーション株式会社（9180001103172）に合併し解散,2021-11-05,1,,,,,イーエルジェイステラ,0
1869,8180002024170,登記記録の閉鎖等,0,2023-02-20,2023-02-15,名古屋梱包資材有限会社,,有限会社,愛知県,名古屋市西区,名駅３丁目１０番２２号,,23,104,4510045,,,2023-02-15,清算の結了等,,,2015-10-05,1,,,,,ナゴヤコンポウシザイ,0
1917,9010001006334,登記記録の閉鎖等,0,2023-02-20,2023-02-14,株式会社バイタルテック,,株式会社,千葉県,流山市,南流山４丁目１６番地１８ローヤルコーポ渡辺１階,,12,220,2700163,,,2023-02-14,清算の結了等,,,2015-10-05,1,,,,,バイタルテック,0
1925,9010003030118,登記記録の閉鎖等,0,2023-02-20,2023-02-14,日光Ｐｌｕｓ１０合同会社３,,合同会社,東京都,千代田区,丸の内３丁目１番１号東京共同会計事務所内,,13,101,1000005,,,2023-02-14,清算の結了等,,,2019-07-02,1,,,,,ニッコウプラステンサン,0
1939,9010403020206,登記記録の閉鎖等,0,2023-02-20,2023-02-08,日本橋インベストメンツ３合同会社,,合同会社,東京都,港区,六本木１丁目６番１号泉ガーデンタワー,,13,103,1060032,,,2023-02-08,清算の結了等,,,2019-02-19,1,,,,,ニホンバシインベストメンツスリー,0
1941,9010403025741,登記記録の閉鎖等,0,2023-02-20,2023-02-08,合同会社ＧＫ０４７,,合同会社,東京都,港区,虎ノ門３丁目２２番１０－２０１号,,13,103,1050001,,,2023-02-08,清算の結了等,,,2021-07-20,1,,,,,ジーケイゼロフォーセブン,0
1952,9010702012944,登記記録の閉鎖等,0,2023-02-20,2023-02-16,有限会社スリーエフマシナリー,,有限会社,東京都,品川区,南大井２丁目１２番１０－１３０５号,,13,109,1400013,,,2023-02-16,清算の結了等,,,2015-10-05,1,,,,,スリーエフマシナリー,0
1959,9011001135858,登記記録の閉鎖等,0,2023-02-20,2023-02-16,株式会社ＳｔａｒＤｅｃｏ,,株式会社,東京都,渋谷区,代々木１丁目３８番１号,,13,113,1510053,,,2023-02-16,清算の結了等,,,2020-09-17,1,,,,,スターデコ,0
1963,9011002019358,登記記録の閉鎖等,0,2023-02-20,2023-02-14,有限会社サクラ・セラピー,,有限会社,東京都,渋谷区,代々木１丁目５７番２号,,13,113,1510053,,,2023-02-14,清算の結了等,,,2015-10-05,1,,,,,サクラセラピー,0
1987,9020001010590,登記記録の閉鎖等,0,2023-02-20,2023-02-16,株式会社マスミ電設,,株式会社,神奈川県,横浜市保土ケ谷区,新桜ケ丘２丁目１８番７号,,14,106,2400036,,,2023-02-16,清算の結了等,,,2015-10-05,1,,,,,マスミデンセツ,0
2005,9040002044529,登記記録の閉鎖等,0,2023-02-20,2023-02-14,有限会社衛生堂薬局,,有限会社,千葉県,松戸市,新松戸南１丁目３５６番地の３,,12,207,2700035,,,2023-02-14,清算の結了等,,,2015-10-05,1,,,,,エイセイドウヤッキョク,0
2011,9070002016228,登記記録の閉鎖等,0,2023-02-20,2023-02-14,有限会社佐藤自動車整備工場,,有限会社,群馬県,富岡市,富岡１２９２番地,,10,210,3702316,,,2023-02-14,清算の結了等,,,2015-10-05,1,,,,,サトウジドウシャセイビコウジョウ,0
2014,9080002017679,登記記録の閉鎖等,0,2023-02-20,2023-02-17,有限会社正信ポンプ商会,,有限会社,静岡県,藤枝市,高岡４丁目２番３９号,,22,214,4260062,,,2023-02-17,清算の結了等,,,2015-10-05,1,,,,,セイシンポンプショウカイ,0
2016,9090001002350,登記記録の閉鎖等,0,2023-02-20,2023-02-17,株式会社柳屋商店,,株式会社,山梨県,甲府市,国母６丁目６番２号,,19,201,4000043,,,2023-02-17,登記官による閉鎖,,,2015-10-05,1,,,,,,0
2017,9090001006681,登記記録の閉鎖等,0,2023-02-20,2023-02-17,株式会社シンゲン工業,,株式会社,山梨県,甲斐市,篠原３０００番地,,19,210,4000115,,,2023-02-17,登記官による閉鎖,,,2015-10-05,1,,,,,,0
2018,9090001007300,登記記録の閉鎖等,0,2023-02-20,2023-02-17,株式会社ファーマシストメディカル,,株式会社,山梨県,甲府市,和戸町６８５番地３,,19,201,4000812,,,2023-02-17,登記官による閉鎖,,,2015-10-05,1,,,,,,0
2019,9090001011574,登記記録の閉鎖等,0,2023-02-20,2023-02-17,三田鼎貿易株式会社,,株式会社,山梨県,韮崎市,中央町８番２０号,,19,207,4070023,,,2023-02-17,登記官による閉鎖,,,2015-10-05,1,,,,,,0
2021,9090002000790,登記記録の閉鎖等,0,2023-02-20,2023-02-17,有限会社喜久竹,,有限会社,山梨県,甲府市,大手１丁目２番４号,,19,201,4000015,,,2023-02-17,登記官による閉鎖,,,2015-10-05,1,,,,,,0
2022,9090002006524,登記記録の閉鎖等,0,2023-02-20,2023-02-17,有限会社天救,,有限会社,山梨県,甲府市,池田１丁目１０番３５号,,19,201,4000062,,,2023-02-17,登記官による閉鎖,,,2015-10-05,1,,,,,,0
2023,9090002008272,登記記録の閉鎖等,0,2023-02-20,2023-02-17,有限会社共和製作所,,有限会社,山梨県,笛吹市,境川町藤垈八乙女３５３０番地５,,19,211,4060853,,,2023-02-17,登記官による閉鎖,,,2015-10-05,1,,,,,,0
2024,9090003000402,登記記録の閉鎖等,0,2023-02-20,2023-02-17,合同会社さくらんぼ,,合同会社,山梨県,甲斐市,名取１９４－２,,19,210,4000112,,,2023-02-17,登記官による閉鎖,,,2015-10-05,1,,,,,,0
2025,9090005000284,登記記録の閉鎖等,0,2023-02-20,2023-02-17,山梨観光情報協同組合,,その他の設立登記法人,山梨県,甲府市,平瀬町３２０７番地,,19,201,4000083,,,2023-02-17,登記官による閉鎖,,,2015-10-05,1,,,,,,0
2026,9090005000359,登記記録の閉鎖等,0,2023-02-20,2023-02-17,機山建設業協同組合,,その他の設立登記法人,山梨県,甲府市,武田３丁目３番２９号,,19,201,4000016,,,2023-02-17,登記官による閉鎖,,,2015-10-05,1,,,,,,0
2027,9090005001258,登記記録の閉鎖等,0,2023-02-20,2023-02-17,リアルエステイト事業協同組合,,その他の設立登記法人,山梨県,甲府市,上石田３丁目５番８号,,19,201,4000041,,,2023-02-17,登記官による閉鎖,,,2015-10-05,1,,,,,,0
2028,9090005002818,登記記録の閉鎖等,0,2023-02-20,2023-02-17,富士電機デバイステクノロジー労働組合,,その他の設立登記法人,山梨県,南アルプス市,飯野２２１番地１号,,19,208,4000222,,,2023-02-17,登記官による閉鎖,,,2015-10-05,1,,,,,,0
2029,9090005005622,登記記録の閉鎖等,0,2023-02-20,2023-02-17,雨畑硯製造販売協同組合,,その他の設立登記法人,山梨県,南巨摩郡早川町,雨畑１５８９番地,,19,364,4092734,,,2023-02-17,登記官による閉鎖,,,2015-10-05,1,,,,,,0
2035,9120001144214,登記記録の閉鎖等,0,2023-02-20,2023-02-16,株式会社ヴェネト,,株式会社,大阪府,大阪市中央区,南船場２丁目１０番２８号,,27,128,5420081,,,2023-02-16,清算の結了等,,,2015-10-05,1,,,,,ヴェネト,0
2048,9140001072165,登記記録の閉鎖等,0,2023-02-20,2023-02-16,株式会社ＴＤＳＰ,,株式会社,兵庫県,西宮市,山口町上山口３丁目３１番４号,,28,204,6511421,,,2023-02-16,清算の結了等,,,2015-10-05,1,,,,,,0
2056,9140002045780,登記記録の閉鎖等,0,2023-02-20,2023-02-16,有限会社クロス,,有限会社,兵庫県,尼崎市,富松町４丁目１０番１０号,,28,202,6610003,,,2023-02-16,清算の結了等,,,2015-10-05,1,,,,,クロス,0
2062,9150002001948,登記記録の閉鎖等,0,2023-02-20,2023-02-14,有限会社リンカー,,有限会社,奈良県,奈良市,西登美ヶ丘１丁目７番１７号,,29,201,6310006,,,2023-02-14,清算の結了等,,,2015-10-05,1,,,,,リンカー,0
2069,9180001137121,登記記録の閉鎖等,0,2023-02-20,2023-02-10,株式会社ワークナビ上小田井,,株式会社,愛知県,名古屋市西区,貴生町２３－４ＩＴＡＬＩＡＮ第九平松ビル２Ｆ,,23,104,4520816,,,2023-02-10,清算の結了等,,,2019-07-02,1,,,,,ワークナビカミオタイ,0
2072,9180002078224,登記記録の閉鎖等,0,2023-02-20,2023-02-13,有限会社小林,,有限会社,愛知県,一宮市,東五城字備前４８番地の１,,23,203,4940008,,,2023-02-13,清算の結了等,,,2015-10-05,1,,,,,コバヤシ,0
2074,9180301004376,登記記録の閉鎖等,0,2023-02-20,2023-02-17,株式会社アイディー,,株式会社,愛知県,岡崎市,天白町字郷西１９番地１,,23,202,4440844,,,2023-02-17,清算の結了等,,,2015-10-05,1,,,,,,0
2079,9200001015043,登記記録の閉鎖等,0,2023-02-20,2023-02-17,ナカショー株式会社,,株式会社,岐阜県,養老郡養老町,押越７１１番地の２,,21,341,5031316,,,2023-02-17,清算の結了等,,,2015-10-05,1,,,,,,0
2081,9210001008946,登記記録の閉鎖等,0,2023-02-20,2023-02-14,株式会社ＤＥＴＡＩＬ,,株式会社,福井県,福井市,木田３丁目３１１３番地,,18,201,9188105,,,2023-02-14,合併による解散等,9130001058149,令和５年２月１２日京都市西京区桂上野東町８８番地株式会社ＦＬＡＰ　ｉｎｃ．（9130001058149）に合併し解散,2015-10-05,1,,,,,,0
2098,9290002007923,登記記録の閉鎖等,0,2023-02-20,2023-02-16,九建サッシ有限会社,,有限会社,福岡県,福岡市早良区,大字脇山２５１２番地の６,,40,137,8111111,,,2023-02-16,清算の結了等,,,2015-10-05,1,,,,,キュウケンサッシ,0
2109,9330002008917,登記記録の閉鎖等,0,2023-02-20,2023-02-16,有限会社フィッシュマン・インターナショナル,,有限会社,熊本県,熊本市東区,御領６丁目２番２７号,,43,102,8618035,,,2023-02-16,清算の結了等,,,2015-10-05,1,,,,,フイッシュマンインターナショナル,0
2118,9370001047409,登記記録の閉鎖等,0,2023-02-20,2023-02-17,株式会社和泉建業,,株式会社,宮城県,登米市,中田町浅水字新田２１９番地１,,04,212,9870611,,,2023-02-17,清算の結了等,,,2021-08-02,1,,,,,イズミケンギョウ,0
2124,9420002003719,登記記録の閉鎖等,0,2023-02-20,2023-02-15,有限会社海江田技建,,有限会社,青森県,青森市,大字新城字平岡２１８番地５,,02,201,0380042,,,2023-02-15,清算の結了等,,,2015-10-05,1,,,,,ウミエダギケン,0
2130,9450001012239,登記記録の閉鎖等,0,2023-02-20,2023-02-17,株式会社オホーツクＳＳＣ,,株式会社,北海道,紋別市,北浜町２丁目１０番１４号,,01,219,0940001,,,2023-02-17,清算の結了等,,,2017-11-22,1,,,,,オホーツクエスエスシー,0
2131,9460001001125,登記記録の閉鎖等,0,2023-02-20,2023-02-17,株式会社藤建工業,,株式会社,北海道,釧路郡釧路町,若葉５丁目２２番地,,01,661,0880613,,,2023-02-17,清算の結了等,,,2015-10-05,1,,,,,トウケンコウギョウ,0
