sequenceNumber,corporateNumber,process,correct,updateDate,changeDate,name,nameImageId,kind,prefectureName,cityName,streetNumber,addressImageId,prefectureCode,cityCode,postCode,addressOutside,addressOutsideImageId,closeDate,closeCause,successorCorporateNumber,changeCause,assignmentDate,latest,enName,enPrefectureName,enCityName,enAddressOutside,furigana,hihyoji
16,1010401131771,登記記録の閉鎖等,0,2024-11-05,2024-10-21,クラウドマインズ・テクノロジー・ジャパン株式会社,,株式会社,東京都,中央区,日本橋茅場町１丁目１３番２１号阪神ビル６階,,13,102,1030025,,,2024-10-21,清算の結了等,,,2017-05-31,1,,,,,クラウドマインズテクノロジージャパン,0
39,1010901015961,登記記録の閉鎖等,0,2024-11-05,2024-10-28,株式会社リュック,,株式会社,東京都,世田谷区,奥沢３丁目４６番１号,,13,112,1580083,,,2024-10-28,清算の結了等,,,2015-10-05,1,,,,,,0
41,1010905000679,登記記録の閉鎖等,0,2024-11-05,2024-10-25,医療法人社団つぼみ会,,その他の設立登記法人,東京都,世田谷区,梅丘２丁目２３番３０号１階,,13,112,1540022,,,2024-10-25,清算の結了等,,,2015-10-05,1,,,,,ツボミカイ,0
73,1020001023435,登記記録の閉鎖等,0,2024-11-05,2024-10-18,情報ソフト開発株式会社,,株式会社,神奈川県,横浜市神奈川区,鶴屋町３丁目３５番地１第２米林ビル８階,,14,102,2210835,,,2024-10-18,清算の結了等,,,2015-10-05,1,,,,,ジョウホウソフトカイハツ,0
75,1020001075947,登記記録の閉鎖等,0,2024-11-05,2024-10-18,株式会社創商,,株式会社,神奈川県,川崎市宮前区,有馬３丁目７番１９号,,14,136,2160003,,,2024-10-18,清算の結了等,,,2015-10-05,1,,,,,,0
95,1021002052712,登記記録の閉鎖等,0,2024-11-05,2024-10-31,有限会社ニシヤマ,,有限会社,神奈川県,小田原市,石橋２３７番地,,14,206,2500022,,,2024-10-31,清算の結了等,,,2015-10-05,1,,,,,ニシヤマ,0
115,1030002109835,登記記録の閉鎖等,0,2024-11-05,2024-10-31,新統物流有限会社,,有限会社,埼玉県,川口市,大字東本郷字石御堂１７１番地の１,,11,203,3340063,,,2024-10-31,清算の結了等,,,2015-10-05,1,,,,,,0
146,1120003007137,登記記録の閉鎖等,0,2024-11-05,2024-11-01,合同会社マーケットデザイン,,合同会社,大阪府,大阪市中央区,南本町４丁目５番７号,,27,128,5410054,,,2024-11-01,清算の結了等,,,2015-10-05,1,,,,,マーケットデザイン,0
155,1122002006598,登記記録の閉鎖等,0,2024-11-05,2024-10-31,有限会社エターナル,,有限会社,大阪府,東大阪市,中小阪５丁目１４番２８号,,27,227,5770804,,,2024-10-31,清算の結了等,,,2015-10-05,1,,,,,エターナル,0
167,1180001104178,登記記録の閉鎖等,0,2024-11-05,2024-10-23,株式会社はなよし,,株式会社,愛知県,名古屋市西区,城西３丁目２１番１６号,,23,104,4510031,,,2024-10-23,清算の結了等,,,2015-10-05,1,,,,,ハナヨシ,0
176,1180001134893,登記記録の閉鎖等,0,2024-11-05,2024-10-24,セイサクウェブ株式会社,,株式会社,愛知県,名古屋市瑞穂区,大殿町１丁目８番地の１（プログレッソ瑞穂汐路７０１号）,,23,108,4670007,,,2024-10-24,清算の結了等,,,2018-12-25,1,,,,,セイサクウェブ,0
189,1180301035148,登記記録の閉鎖等,0,2024-11-05,2024-10-30,株式会社ＭＡＫＥ　ｓｍｉｌｅ,,株式会社,愛知県,刈谷市,東境町上野３４番地３,,23,210,4480007,,,2024-10-30,清算の結了等,,,2021-07-08,1,,,,,メイクスマイル,0
190,1180302012212,登記記録の閉鎖等,0,2024-11-05,2024-10-30,有限会社エヴァ,,有限会社,愛知県,豊橋市,牟呂町字松崎１番地の４（２－９０４）,,23,201,4418087,,,2024-10-30,清算の結了等,,,2015-10-05,1,,,,,エヴァ,0
193,1200002005562,登記記録の閉鎖等,0,2024-11-05,2024-10-31,有限会社一休,,有限会社,岐阜県,本巣市,文殊７５２番地３,,21,218,5011203,,,2024-10-31,清算の結了等,,,2015-10-05,1,,,,,,0
202,1240005004517,登記記録の閉鎖等,0,2024-11-05,2024-11-01,財団法人小板振興会,,その他の設立登記法人,広島県,山県郡安芸太田町,大字小板字深入山５３８番地の２,,34,368,7313835,,,2024-11-01,清算の結了等,,,2015-10-05,1,,,,,コイタシンコウカイ,0
210,1290001044719,登記記録の閉鎖等,0,2024-11-05,2024-10-01,株式会社ライフサポートホールディングス,,株式会社,福岡県,福岡市東区,水谷１丁目２７番１１号,,40,131,8130041,,,2024-10-01,合併による解散等,6290001056825,令和６年１０月１日福岡市東区水谷一丁目２７番１１号株式会社ワールドホールディングス（6290001056825）に合併し解散,2015-10-05,1,,,,,ライフサポートホールディングス,0
238,1370005001344,登記記録の閉鎖等,0,2024-11-05,2024-10-24,医療法人社団山家内科医院,,その他の設立登記法人,宮城県,仙台市太白区,金剛沢１丁目４番２６号,,04,104,9820803,,,2024-10-24,清算の結了等,,,2015-10-05,1,,,,,ヤンベナイカイイン,0
253,1390001010768,登記記録の閉鎖等,0,2024-11-05,2024-10-18,株式会社ニットルック,,株式会社,山形県,東置賜郡川西町,大字上小松３０１７番地４,,06,382,9990121,,,2024-10-18,清算の結了等,,,2015-10-05,1,,,,,ニットルック,0
254,1390003001798,登記記録の閉鎖等,0,2024-11-05,2024-10-24,サン庄内サービス合同会社,,合同会社,山形県,東田川郡三川町,大字押切新田字五反４５番地１,,06,426,9971321,,,2024-10-24,清算の結了等,,,2021-01-21,1,,,,,サンショウナイサービス,0
259,1430001065790,登記記録の閉鎖等,0,2024-11-05,2024-10-31,一達国際投資株式会社,,株式会社,北海道,虻田郡喜茂別町,字栄１６６番地１,,01,398,0440222,,,2024-10-31,清算の結了等,,,2015-10-05,1,,,,,イチタツコクサイトウシ,0
264,1430003008285,登記記録の閉鎖等,0,2024-11-05,2024-10-30,合同会社ワンエス,,合同会社,北海道,札幌市清田区,北野三条４丁目１３番２０号,,01,110,0040863,,,2024-10-30,清算の結了等,,,2017-03-16,1,,,,,ワンエス,0
269,1460005001418,登記記録の閉鎖等,0,2024-11-05,2024-11-01,一般社団法人ソーシャルオフィス,,その他の設立登記法人,北海道,釧路市,大川町７番１０号,,01,206,0850837,,,2024-11-01,清算の結了等,,,2015-10-05,1,,,,,ソーシャルオフィス,0
287,2010401173490,登記記録の閉鎖等,0,2024-11-05,2024-10-11,株式会社テンエイティ,,株式会社,東京都,港区,北青山２丁目１０－２４,,13,103,1070061,,,2024-10-11,清算の結了等,,,2023-04-06,1,,,,,テンエイティ,0
298,2010405021605,登記記録の閉鎖等,0,2024-11-05,2024-10-17,目黒インベストメント一般社団法人,,その他の設立登記法人,東京都,港区,六本木１丁目６番１号泉ガーデンタワー,,13,103,1060032,,,2024-10-17,清算の結了等,,,2022-11-18,1,,,,,メグロインベストメント,0
308,2010901039134,登記記録の閉鎖等,0,2024-11-05,2024-10-28,株式会社日本総合ツアーズ,,株式会社,東京都,世田谷区,用賀４丁目１０－１世田谷ビジネススクエアタワー２２階,,13,112,1580097,,,2024-10-28,清算の結了等,,,2016-11-28,1,,,,,ニホンソウゴウツアーズ,0
311,2010902002223,登記記録の閉鎖等,0,2024-11-05,2024-10-28,有限会社エイコーポレーション,,有限会社,東京都,世田谷区,瀬田２丁目３１番３－４０２号,,13,112,1580095,,,2024-10-28,清算の結了等,,,2015-10-05,1,,,,,エイコーポレーション,0
312,2010902016966,登記記録の閉鎖等,0,2024-11-05,2024-10-28,有限会社ザック,,有限会社,東京都,世田谷区,北沢２丁目１１番２号,,13,112,1550031,,,2024-10-28,清算の結了等,,,2015-10-05,1,,,,,ザック,0
359,2030001054107,登記記録の閉鎖等,0,2024-11-05,2024-10-31,株式会社セーフティー,,株式会社,埼玉県,三郷市,早稲田２丁目１３番地２８,,11,237,3410018,,,2024-10-31,清算の結了等,,,2015-10-05,1,,,,,セーフティー,0
371,2030002105767,登記記録の閉鎖等,0,2024-11-05,2024-10-31,有限会社西新井,,有限会社,埼玉県,川口市,大字芝４８４１番地の２,,11,203,3330866,,,2024-10-31,清算の結了等,,,2015-10-05,1,,,,,ニシアライ,0
389,2080401018994,登記記録の閉鎖等,0,2024-11-05,2024-10-31,株式会社エクラ,,株式会社,静岡県,浜松市中央区,鍛冶町１５番地,,22,138,4300933,,,2024-10-31,清算の結了等,,,2015-10-05,1,,,,,エクラ,0
392,2080402021592,登記記録の閉鎖等,0,2024-11-05,2024-10-31,有限会社鈴木鉄工所,,有限会社,静岡県,袋井市,旭町２丁目４番地の２５,,22,216,4370015,,,2024-10-31,清算の結了等,,,2015-10-05,1,,,,,スズキテッコウジョ,0
412,2120001229467,登記記録の閉鎖等,0,2024-11-05,2024-10-31,ケイズインベストメント株式会社,,株式会社,大阪府,大阪市天王寺区,上汐４丁目４番１４－１００１号,,27,109,5430002,,,2024-10-31,清算の結了等,,,2020-06-05,1,,,,,ケイズインベストメント,0
421,2120002015800,登記記録の閉鎖等,0,2024-11-05,2024-10-31,有限会社ピー・アール商会,,有限会社,大阪府,大阪市港区,南市岡２丁目１０番３号ウエストウイング２０１号,,27,107,5520011,,,2024-10-31,清算の結了等,,,2015-10-05,1,,,,,ピーアールショウカイ,0
437,2122001009064,登記記録の閉鎖等,0,2024-11-05,2024-10-31,株式会社エムワン,,株式会社,大阪府,東大阪市,西石切町１丁目５番４６号,,27,227,5798013,,,2024-10-31,清算の結了等,,,2015-10-05,1,,,,,エムワン,0
441,2130001021848,登記記録の閉鎖等,0,2024-11-05,2024-10-31,トヨ商事株式会社,,株式会社,京都府,京都市北区,北野東紅梅町４番地ローレルコート京都北野２０１号,,26,101,6038323,,,2024-10-31,清算の結了等,,,2015-10-05,1,,,,,トヨショウジ,0
443,2130002034254,登記記録の閉鎖等,0,2024-11-05,2024-10-31,有限会社九州工業,,有限会社,京都府,舞鶴市,字上安久６３６番地の４,,26,202,6240913,,,2024-10-31,清算の結了等,,,2015-10-05,1,,,,,クスコウギョウ,0
450,2160001020756,登記記録の閉鎖等,0,2024-11-05,2024-10-23,株式会社光フィールド,,株式会社,愛知県,名古屋市中区,錦３丁目１０番１４号（協和錦ビル６階）,,23,106,4600003,,,2024-10-23,清算の結了等,,,2018-02-26,1,,,,,ヒカリフィールド,0
456,2180001087744,登記記録の閉鎖等,0,2024-11-05,2024-10-25,株式会社ウィーズ中国,,株式会社,山口県,下関市,上新地町３丁目３番３号,,35,201,7500061,,,2024-10-25,合併による解散等,6030001066965,令和６年１０月１日埼玉県北葛飾郡松伏町築比地７９５番地１株式会社ウィーズ（6030001066965）に合併し解散,2015-10-05,1,,,,,ウィーズチュウゴク,0
484,2290001044734,登記記録の閉鎖等,0,2024-11-05,2024-10-01,株式会社ワールドヒューマン,,株式会社,福岡県,福岡市東区,水谷１丁目２７番１１号,,40,131,8130041,,,2024-10-01,合併による解散等,6290001056825,令和６年１０月１日福岡市東区水谷一丁目２７番１１号株式会社ワールドホールディングス（6290001056825）に合併し解散,2015-10-05,1,,,,,ワールドヒューマン,0
493,2320001002886,登記記録の閉鎖等,0,2024-11-05,2024-10-31,ミライト株式会社,,株式会社,大分県,大分市,大字片島字上川原１４８番地の１,,44,201,8700943,,,2024-10-31,清算の結了等,,,2015-10-05,1,,,,,,0
495,2320001012489,登記記録の閉鎖等,0,2024-11-05,2024-10-31,株式会社三宝,,株式会社,大分県,大分市,高崎４丁目７番２号,,44,201,8700872,,,2024-10-31,清算の結了等,,,2015-10-05,1,,,,,,0
503,2360001015075,登記記録の閉鎖等,0,2024-11-05,2024-10-07,株式会社ミライ沖縄,,株式会社,沖縄県,那覇市,古島１丁目２０番１号,,47,201,9020061,,,2024-10-07,合併による解散等,3290001018431,令和６年９月１日福岡市博多区吉塚四丁目３番３７－１号株式会社ミライ（3290001018431）に合併し解散,2015-10-05,1,,,,,ミライオキナワ,0
512,2380001029313,登記記録の閉鎖等,0,2024-11-05,2024-10-16,ペタソス株式会社,,株式会社,福島県,福島市,二子塚字萱場３７番地,,07,201,9602263,,,2024-10-16,清算の結了等,,,2018-07-31,1,,,,,ペタソス,0
515,2380002030435,登記記録の閉鎖等,0,2024-11-05,2024-10-22,有限会社ぼらぐち商店,,有限会社,福島県,双葉郡楢葉町,大字波倉字細谷１３４番地,,07,542,9790601,,,2024-10-22,清算の結了等,,,2015-10-05,1,,,,,ボラグチショウテン,0
517,2390001010065,登記記録の閉鎖等,0,2024-11-05,2024-10-18,株式会社はんえい,,株式会社,山形県,米沢市,駅前３丁目１番２７号,,06,202,9920027,,,2024-10-18,清算の結了等,,,2015-10-05,1,,,,,ハンエイ,0
522,2430001009706,登記記録の閉鎖等,0,2024-11-05,2024-10-31,株式会社大善マート,,株式会社,北海道,札幌市南区,澄川四条５丁目６番３号,,01,106,0050004,,,2024-10-31,清算の結了等,,,2015-10-05,1,,,,,ダイゼンマート,0
524,2430001040594,登記記録の閉鎖等,0,2024-11-05,2024-11-01,株式会社丸井工業,,株式会社,北海道,札幌市東区,苗穂町１丁目２番２３号,,01,103,0650043,,,2024-11-01,清算の結了等,,,2015-10-05,1,,,,,マルイコウギョウ,0
540,2490001009650,登記記録の閉鎖等,0,2024-11-05,2024-10-29,株式会社叶,,株式会社,高知県,高知市,南御座３番６号,,39,201,7810084,,,2024-10-29,清算の結了等,,,2020-09-03,1,,,,,カナエ,0
542,2500003001934,登記記録の閉鎖等,0,2024-11-05,2024-10-31,合同会社真鍋事務所,,合同会社,愛媛県,新居浜市,庄内町４丁目７番５０号,,38,205,7920811,,,2024-10-31,清算の結了等,,,2017-06-05,1,,,,,マナベジムショ,0
554,3010002029182,登記記録の閉鎖等,0,2024-11-05,2024-10-17,有限会社トチギ介護サービス,,有限会社,東京都,文京区,本駒込３丁目１１番９号,,13,105,1130021,,,2024-10-17,清算の結了等,,,2015-10-05,1,,,,,トチギカイゴサービス,0
573,3010502007407,登記記録の閉鎖等,0,2024-11-05,2024-10-28,有限会社ティーズ・テクニクス,,有限会社,東京都,台東区,東上野６丁目１４番１４号,,13,106,1100015,,,2024-10-28,清算の結了等,,,2015-10-05,1,,,,,ティーズテクニクス,0
579,3010901036592,登記記録の閉鎖等,0,2024-11-05,2024-10-21,クラウドマインズジャパン株式会社,,株式会社,東京都,中央区,日本橋茅場町１丁目１３番２１号阪神ビル６階,,13,102,1030025,,,2024-10-21,清算の結了等,,,2015-10-05,1,,,,,クラウドマインズジャパン,0
603,3013102003651,登記記録の閉鎖等,0,2024-11-05,2024-10-24,有限会社佐藤塗装店,,有限会社,東京都,福生市,大字熊川１１４５番地７,,13,218,1970003,,,2024-10-24,清算の結了等,,,2015-10-05,1,,,,,サトウトソウテン,0
606,3020001085110,登記記録の閉鎖等,0,2024-11-05,2024-10-17,アクート株式会社,,株式会社,神奈川県,川崎市幸区,塚越４丁目３２０番地７,,14,132,2120024,,,2024-10-17,清算の結了等,,,2015-10-05,1,,,,,アクート,0
615,3020003019974,登記記録の閉鎖等,0,2024-11-05,2024-10-21,横浜商事合同会社,,合同会社,神奈川県,横浜市西区,高島２丁目１１番２号スカイメナー横浜内,,14,103,2200011,,,2024-10-21,清算の結了等,,,2021-06-14,1,,,,,ヨコハマショウジ,0
621,3021002055267,登記記録の閉鎖等,0,2024-11-05,2024-10-30,有限会社丸金商事,,有限会社,神奈川県,足柄上郡松田町,神山９７５－９,,14,363,2580002,,,2024-10-30,清算の結了等,,,2015-10-05,1,,,,,マルカネショウジ,0
631,3030002009819,登記記録の閉鎖等,0,2024-11-05,2024-10-30,有限会社トム,,有限会社,埼玉県,さいたま市大宮区,寿能町１丁目１２１番地の４,,11,103,3300805,,,2024-10-30,清算の結了等,,,2015-10-05,1,,,,,トム,0
634,3030002042027,登記記録の閉鎖等,0,2024-11-05,2024-10-30,有限会社ユウビ,,有限会社,埼玉県,羽生市,南４丁目２番８号,,11,216,3480053,,,2024-10-30,清算の結了等,,,2015-10-05,1,,,,,ユウビ,0
640,3030003006113,登記記録の閉鎖等,0,2024-11-05,2024-10-30,合同会社晄エンジニアリング,,合同会社,埼玉県,春日部市,米島８１８番地１５,,11,214,3440115,,,2024-10-30,清算の結了等,,,2015-10-05,1,,,,,ヒカリエンジニアリング,0
651,3040002067502,登記記録の閉鎖等,0,2024-11-05,2024-11-01,カナウ有限会社,,有限会社,和歌山県,海草郡紀美野町,動木１３８２番地,,30,304,6401131,,,2024-11-01,清算の結了等,,,2015-10-05,1,,,,,カナウ,0
657,3060002011020,登記記録の閉鎖等,0,2024-11-05,2024-10-30,有限会社伊豆内鉄工建設,,有限会社,栃木県,河内郡上三川町,大字上三川４８７９番地,,09,301,3290611,,,2024-10-30,清算の結了等,,,2015-10-05,1,,,,,イズウチテッコウケンセツ,0
658,3070001041678,登記記録の閉鎖等,0,2024-11-05,2024-10-31,ハンディオネット株式会社,,株式会社,群馬県,佐波郡玉村町,大字福島５０９番地２小林ビル１０４号室,,10,464,3701105,,,2024-10-31,清算の結了等,,,2024-04-26,1,,,,,ハンディオネット,0
662,3080401026781,登記記録の閉鎖等,0,2024-11-05,2024-10-31,株式会社カロフ,,株式会社,静岡県,浜松市中央区,中島３丁目４番１２号,,22,138,4300856,,,2024-10-31,清算の結了等,,,2023-10-11,1,,,,,カロフ,0
671,3120001192953,登記記録の閉鎖等,0,2024-11-05,2024-10-31,株式会社オリーブライフ,,株式会社,大阪府,大阪市中央区,西心斎橋２丁目７番２２－３０３号,,27,128,5420086,,,2024-10-31,清算の結了等,,,2015-10-05,1,,,,,オリーブライフ,0
675,3120001229185,登記記録の閉鎖等,0,2024-11-05,2024-10-31,株式会社グランファクトリー,,株式会社,大阪府,寝屋川市,寿町６１番２２－１０９号,,27,215,5720029,,,2024-10-31,清算の結了等,,,2020-05-25,1,,,,,グランファクトリー,0
699,3130002033940,登記記録の閉鎖等,0,2024-11-05,2024-10-31,有限会社ゆうき建装,,有限会社,京都府,京丹後市,久美浜町神崎１８７４番地,,26,212,6293441,,,2024-10-31,清算の結了等,,,2015-10-05,1,,,,,ユウキケンソウ,0
708,3160001017966,登記記録の閉鎖等,0,2024-11-05,2024-11-01,株式会社新婦人しが,,株式会社,滋賀県,大津市,京町２丁目４番５号,,25,201,5200044,,,2024-11-01,清算の結了等,,,2015-10-05,1,,,,,シンフジンシガ,0
710,3180001080640,登記記録の閉鎖等,0,2024-11-05,2024-10-23,株式会社デントスタイル,,株式会社,愛知県,瀬戸市,山の田町６２番地８,,23,204,4890975,,,2024-10-23,清算の結了等,,,2015-10-05,1,,,,,デントスタイル,0
717,3180002012972,登記記録の閉鎖等,0,2024-11-05,2024-10-22,有限会社吉田営繕社,00072900,有限会社,愛知県,名古屋市北区,金城１丁目３番５号,,23,103,4620847,,,2024-10-22,清算の結了等,,,2015-10-05,1,,,,,ヨシダエイゼンシャ,0
718,3180002029323,登記記録の閉鎖等,0,2024-11-05,2024-10-21,有限会社森政ビル,,有限会社,愛知県,清須市,助七五反田６６番地２,,23,233,4520902,,,2024-10-21,清算の結了等,,,2015-10-05,1,,,,,モリマサビル,0
719,3180002031808,登記記録の閉鎖等,0,2024-11-05,2024-10-22,有限会社辻元,00073074,有限会社,愛知県,名古屋市中区,新栄２丁目３３番３号,,23,106,4600007,,,2024-10-22,清算の結了等,,,2015-10-05,1,,,,,ツジモト,0
723,3190001016602,登記記録の閉鎖等,0,2024-11-05,2024-10-31,森本工業株式会社,,株式会社,三重県,四日市市,松寺２丁目７番２４号,,24,202,5108021,,,2024-10-31,清算の結了等,,,2015-10-05,1,,,,,モリモトコウギョウ,0
724,3190002014902,登記記録の閉鎖等,0,2024-11-05,2024-10-28,有限会社まる久水産,,有限会社,三重県,松阪市,中道町４５０番地５,,24,204,5152115,,,2024-10-28,清算の結了等,,,2015-10-05,1,,,,,マルキュウスイサン,0
736,3240003005878,登記記録の閉鎖等,0,2024-11-05,2024-10-31,合同会社ふくちゃん弁当,,合同会社,広島県,三原市,古浜３丁目１番１号,,34,204,7230013,,,2024-10-31,清算の結了等,,,2022-11-07,1,,,,,フクチャンベントウ,0
738,3250001013832,登記記録の閉鎖等,0,2024-11-05,2024-10-31,株式会社エレクトロニックコマース,,株式会社,山口県,宇部市,大字東岐波１１００番地,,35,202,7550241,,,2024-10-31,清算の結了等,,,2015-10-05,1,,,,,エレクトロニックコマース,0
749,3290001085835,登記記録の閉鎖等,0,2024-11-05,2024-10-01,株式会社アルゴスマイル,,株式会社,福岡県,福岡市博多区,博多駅南１丁目１５－２８－３Ｆ,,40,132,8120016,,,2024-10-01,合併による解散等,4290001067114,令和６年１０月１日福岡市中央区黒門３番１９号プラスアルファ株式会社（4290001067114）に合併し解散,2019-07-12,1,,,,,アルゴスマイル,0
757,3290801020792,登記記録の閉鎖等,0,2024-11-05,2024-10-21,株式会社中央硝工,,株式会社,福岡県,中間市,長津２丁目１６番２６号,,40,215,8090036,,,2024-10-21,清算の結了等,,,2015-10-05,1,,,,,チュウオウショウコウ,0
759,3300005005960,登記記録の閉鎖等,0,2024-11-05,2024-11-01,特定非営利活動法人佐賀県断酒連合会,,その他の設立登記法人,佐賀県,佐賀市,昭栄町７番１１号,,41,201,8400855,,,2024-11-01,清算の結了等,,,2015-10-05,1,,,,,サガケンダンシュレンゴウカイ,0
766,3320001017207,登記記録の閉鎖等,0,2024-11-05,2024-11-01,株式会社クロス,,株式会社,大分県,別府市,大字鉄輪５９０番地,,44,202,8740000,,,2024-11-01,合併による解散等,5320001014573,令和６年１１月１日大分県別府市大字鉄輪３４５番地４株式会社Ｇｏｒｙｏ　Ｍａｒｉｎｅ（5320001014573）に合併し解散,2019-07-30,1,,,,,クロス,0
767,3320005004341,登記記録の閉鎖等,0,2024-11-05,2024-10-31,農事組合法人上高家,,その他の設立登記法人,大分県,宇佐市,大字上高家３５７番地の４,,44,211,8790305,,,2024-10-31,清算の結了等,,,2015-10-05,1,,,,,カミタケイ,0
769,3330002018368,登記記録の閉鎖等,0,2024-11-05,2024-10-29,有限会社エイトフレッシュ,,有限会社,熊本県,山鹿市,鹿本町中川２２２３番地の１,,43,208,8610314,,,2024-10-29,清算の結了等,,,2015-10-05,1,,,,,エイトフレッシュ,0
789,3390002015145,登記記録の閉鎖等,0,2024-11-05,2024-10-24,白鷹ハイブロ産業有限会社,,有限会社,山形県,西置賜郡白鷹町,大字鮎貝３４４２番地,,06,402,9920771,,,2024-10-24,清算の結了等,,,2015-10-05,1,,,,,シラタカハイブロサンギョウ,0
795,3462501000859,登記記録の閉鎖等,0,2024-11-05,2024-11-01,共栄育成牧場株式会社,,株式会社,北海道,標津郡中標津町,字俣落１３９９番地３,,01,692,0861273,,,2024-11-01,清算の結了等,,,2020-03-13,1,,,,,キョウエイイクセイボクジョウ,0
803,3500003001058,登記記録の閉鎖等,0,2024-11-05,2024-10-31,合同会社輝瞳コンサルタント,,合同会社,愛媛県,四国中央市,土居町上野２２３番地,,38,213,7990721,,,2024-10-31,清算の結了等,,,2015-10-05,1,,,,,キドウコンサルタント,0
820,4010401153664,登記記録の閉鎖等,0,2024-11-05,2024-10-17,ＧＡＰＴ株式会社,,株式会社,東京都,港区,虎ノ門５丁目３－１４日産研会館３０２,,13,103,1050001,,,2024-10-17,清算の結了等,,,2020-06-29,1,,,,,ジーエーピーティー,0
831,4010405020745,登記記録の閉鎖等,0,2024-11-05,2024-10-17,一般社団法人Ｍｏｎ　Ｔａｌｉｓｍａｎ,,その他の設立登記法人,東京都,港区,虎ノ門５丁目１番４号,,13,103,1050001,,,2024-10-17,清算の結了等,,,2022-02-25,1,,,,,モンタリスマン,0
857,4011303002579,登記記録の閉鎖等,0,2024-11-05,2024-10-23,合同会社スリーエイチ,,合同会社,東京都,新宿区,新宿１丁目８番２号－７０２,,13,104,1600022,,,2024-10-23,清算の結了等,,,2016-10-24,1,,,,,スリーエイチ,0
861,4011803004579,登記記録の閉鎖等,0,2024-11-05,2024-10-25,合同会社東京ドリーム,,合同会社,東京都,葛飾区,立石２丁目５－５パリンダマンション２０２,,13,122,1240012,,,2024-10-25,清算の結了等,,,2021-04-14,1,,,,,トウキョウドリーム,0
874,4020001032598,登記記録の閉鎖等,0,2024-11-05,2024-10-18,株式会社ナガノ,,株式会社,神奈川県,横浜市旭区,中希望が丘２３３番地の９,,14,112,2410825,,,2024-10-18,清算の結了等,,,2015-10-05,1,,,,,ナガノ,0
895,4021002035862,登記記録の閉鎖等,0,2024-11-05,2024-10-28,有限会社ドムス,,有限会社,神奈川県,愛甲郡清川村,煤ヶ谷２２５１番地の１,,14,402,2430112,,,2024-10-28,清算の結了等,,,2015-10-05,1,,,,,ドムス,0
906,4030002052116,登記記録の閉鎖等,0,2024-11-05,2024-10-28,大地有限会社,,有限会社,埼玉県,草加市,八幡町５６番地２ベルドゥムール草加八幡２０５号,,11,221,3400006,,,2024-10-28,清算の結了等,,,2015-10-05,1,,,,,ダイチ,0
908,4030003012226,登記記録の閉鎖等,0,2024-11-05,2024-10-01,Ｇ　Ｃｌｏｕｄ合同会社,,合同会社,埼玉県,越谷市,赤山本町３－２４ライオンズグローベル越谷ステーションプラザ１２０１号,,11,222,3430808,,,2024-10-01,合併による解散等,8011103007213,令和６年１０月１日さいたま市南区四谷３－１－２４－３１１、Ｓ　Ａｓｓｅｔ合同会社（8011103007213）に合併し解散,2018-07-25,1,,,,,ジークラウド,0
916,4040003002366,登記記録の閉鎖等,0,2024-11-05,2024-10-30,合同会社ｍｉｓｕｚｕ,,合同会社,千葉県,成田市,玉造３丁目１番地（７棟４０３号）,,12,211,2860011,,,2024-10-30,清算の結了等,,,2015-10-05,1,,,,,,0
917,4040003006375,登記記録の閉鎖等,0,2024-11-05,2024-10-29,合名会社青木,,合名会社,千葉県,野田市,東宝珠花５５５－３,,12,208,2700226,,,2024-10-29,清算の結了等,,,2015-10-05,1,,,,,アオキ,0
924,4050001018702,登記記録の閉鎖等,0,2024-11-05,2024-10-29,スミスキャリア株式会社,,株式会社,茨城県,古河市,丘里３番２,,08,204,3060206,,,2024-10-29,合併による解散等,9050001018697,令和６年１０月１日東京都千代田区神田須田町二丁目５日鉄ステンレス鋼管株式会社（9050001018697）に合併し解散,2015-10-05,1,,,,,スミスキャリア,0
933,4070002033814,登記記録の閉鎖等,0,2024-11-05,2024-10-31,有限会社ビジネス・インホメーシヨン,,有限会社,群馬県,館林市,美園町９番１９号,,10,207,3740039,,,2024-10-31,清算の結了等,,,2015-10-05,1,,,,,ビジネスインホメーシヨン,0
936,4080401026896,登記記録の閉鎖等,0,2024-11-05,2024-10-30,株式会社伊藤,,株式会社,静岡県,磐田市,上新屋７４８番地,,22,211,4380831,,,2024-10-30,合併による解散等,7080401026927,令和６年１０月１日浜松市中央区桜台一丁目１３番１号株式会社遠州クリエイト（7080401026927）に合併し解散,2023-12-15,1,,,,,イトウ,0
940,4100002012129,登記記録の閉鎖等,0,2024-11-05,2024-10-28,有限会社八千穂きのこファーム,,有限会社,長野県,南佐久郡佐久穂町,大字高野町６２５番地,,20,309,3840613,,,2024-10-28,清算の結了等,,,2015-10-05,1,,,,,ヤチホキノコファーム,0
942,4110005010137,登記記録の閉鎖等,0,2024-11-05,2024-10-30,医療法人社団達寿会,,その他の設立登記法人,新潟県,十日町市,春日町３丁目１９０番地,,15,210,9480057,,,2024-10-30,清算の結了等,,,2015-10-05,1,,,,,タツジュカイ,0
954,4120002075396,登記記録の閉鎖等,0,2024-11-05,2024-11-01,ワイエスサービス有限会社,,有限会社,大阪府,枚方市,楠葉並木１丁目６番１８号,,27,210,5731118,,,2024-11-01,清算の結了等,,,2015-10-05,1,,,,,ワイエスサービス,0
963,4120005013543,登記記録の閉鎖等,0,2024-11-05,2024-10-30,特定非営利活動法人日本歯科予防協会,,その他の設立登記法人,大阪府,枚方市,楠葉並木１丁目３８－２０,,27,210,5731118,,,2024-10-30,清算の結了等,,,2015-10-05,1,,,,,ニホンシカヨボウキョウカイ,0
977,4130001022695,登記記録の閉鎖等,0,2024-11-05,2024-10-31,丸福染匠株式会社,,株式会社,京都府,京都市中京区,岩上通御池南入上巴町４２４番地,,26,104,6040000,,,2024-10-31,合併による解散等,3130003000155,令和６年１０月３１日京都市中京区岩上通御池南入上巴町４２４番地楓株式会社（3130003000155）に合併し解散,2015-10-05,1,,,,,マルフクセンショウ,0
980,4140001056049,登記記録の閉鎖等,0,2024-11-05,2024-10-25,株式会社二位,,株式会社,兵庫県,豊岡市,中央町１０番２８号,,28,209,6680033,,,2024-10-25,清算の結了等,,,2015-10-05,1,,,,,ニイ,0
982,4140001108948,登記記録の閉鎖等,0,2024-11-05,2024-10-25,株式会社ＲＥＶＥ,,株式会社,兵庫県,神戸市垂水区,星陵台１丁目２番６－２０２号,,28,108,6550038,,,2024-10-25,清算の結了等,,,2018-01-26,1,,,,,レーヴ,0
1002,4180001148379,登記記録の閉鎖等,0,2024-11-05,2024-10-23,Ｍｏｎｄｏ　Ｓｋｙ株式会社,,株式会社,愛知県,小牧市,小木南２丁目７１番地,,23,219,4850056,,,2024-10-23,清算の結了等,,,2021-10-20,1,,,,,モンドスカイ,0
1007,4180002003731,登記記録の閉鎖等,0,2024-11-05,2024-10-22,有限会社エクレール,,有限会社,愛知県,名古屋市千種区,南明町２丁目８番２号,,23,101,4640845,,,2024-10-22,清算の結了等,,,2015-10-05,1,,,,,エクレール,0
1009,4180002074756,登記記録の閉鎖等,0,2024-11-05,2024-10-22,有限会社メルヘン,,有限会社,愛知県,丹羽郡大口町,大屋敷３丁目１９５番地,,23,361,4800137,,,2024-10-22,清算の結了等,,,2015-10-05,1,,,,,メルヘン,0
1014,4190001011619,登記記録の閉鎖等,0,2024-11-05,2024-10-30,いちはな企画　株式会社,,株式会社,三重県,松阪市,中林町６３番地２,,24,204,5152111,,,2024-10-30,清算の結了等,,,2015-10-05,1,,,,,イチハナキカク,0
1033,4250002020554,登記記録の閉鎖等,0,2024-11-05,2024-10-31,有限会社サンウエスト,,有限会社,山口県,柳井市,大畠８５９番地４,,35,212,7490102,,,2024-10-31,清算の結了等,,,2015-10-05,1,,,,,サンウエスト,0
1035,4270002011015,登記記録の閉鎖等,0,2024-11-05,2024-11-01,有限会社光徳工業,,有限会社,鳥取県,倉吉市,中河原６４７番地３,,31,203,6820856,,,2024-11-01,清算の結了等,,,2015-10-05,1,,,,,,0
1043,4290001098943,登記記録の閉鎖等,0,2024-11-05,2024-10-02,株式会社樹レジデンシャル,,株式会社,福岡県,福岡市中央区,赤坂１丁目１４番２２号,,40,133,8100042,,,2024-10-02,合併による解散等,4290001072989,令和６年１０月１日福岡市中央区赤坂一丁目１４番２２号株式会社新日本ホールディングス（4290001072989）に合併し解散,2022-09-15,1,,,,,イツキレジデンシャル,0
1062,4330002019084,登記記録の閉鎖等,0,2024-11-05,2024-10-29,有限会社緒方工作所,,有限会社,熊本県,熊本市北区,植木町内４２７番地１,,43,105,8610102,,,2024-10-29,清算の結了等,,,2015-10-05,1,,,,,オガタコウサクショ,0
1063,4330005010370,登記記録の閉鎖等,0,2024-11-05,2024-10-28,一般社団法人地域産業連携技術組合,,その他の設立登記法人,熊本県,熊本市南区,内田町２４７２番地,,43,104,8614127,,,2024-10-28,清算の結了等,,,2021-07-20,1,,,,,チイキサンギョウレンケイギジュツクミアイ,0
1069,4350001004366,登記記録の閉鎖等,0,2024-11-05,2024-10-30,株式会社アウラ,,株式会社,宮崎県,宮崎市,大字芳士９８５－１フラワーマンション花ケ島壱番館６０２,,45,201,8800123,,,2024-10-30,清算の結了等,,,2015-10-05,1,,,,,アウラ,0
1072,4360003009552,登記記録の閉鎖等,0,2024-11-05,2024-10-31,ウィンストン合同会社,,合同会社,沖縄県,沖縄市,与儀１丁目２５番８号,,47,211,9042174,,,2024-10-31,清算の結了等,,,2019-06-07,1,,,,,ウィンストン,0
1077,4380001000940,登記記録の閉鎖等,0,2024-11-05,2024-10-16,東北共販株式会社,,株式会社,福島県,福島市,仲間町１０番２３号,,07,201,9608105,,,2024-10-16,清算の結了等,,,2015-10-05,1,,,,,トウホクキョウハン,0
1092,4480001010731,登記記録の閉鎖等,0,2024-11-05,2024-10-31,株式会社船崎新聞店,00117059,株式会社,徳島県,三好郡東みよし町,昼間９８８番地１,,36,489,7712501,,,2024-10-31,清算の結了等,,,2019-07-05,1,,,,,フナザキシンブンテン,0
1110,5010002012062,登記記録の閉鎖等,0,2024-11-05,2024-10-21,タカミ商事有限会社,,有限会社,東京都,千代田区,外神田３丁目５番１３号,,13,101,1010021,,,2024-10-21,清算の結了等,,,2015-10-05,1,,,,,タカミショウジ,0
1117,5010401177794,登記記録の閉鎖等,0,2024-11-05,2024-10-17,株式会社フルラックジャパン,,株式会社,東京都,港区,芝５丁目１９番７－２０２号,,13,103,1080014,,,2024-10-17,清算の結了等,,,2023-10-13,1,,,,,フルラックジャパン,0
1129,5010601063373,登記記録の閉鎖等,0,2024-11-05,2024-10-28,株式会社Ｊａｐａｎ　Ｐｏｋｅｒ　Ｐｒｏｍｏｔｉｏｎ,,株式会社,東京都,江東区,平野３丁目２－６木場パークビル２Ｆ,,13,108,1350023,,,2024-10-28,清算の結了等,,,2023-07-05,1,,,,,ジャパンポーカープロモーション,0
1134,5010901003269,登記記録の閉鎖等,0,2024-11-05,2024-10-30,株式会社清田,,株式会社,東京都,世田谷区,奥沢３丁目３２番７号,,13,112,1580083,,,2024-10-30,清算の結了等,,,2015-10-05,1,,,,,キヨタ,0
1141,5011001156998,登記記録の閉鎖等,0,2024-11-05,2024-10-07,ＡＥ　Ｇｒｏｕｐ株式会社,,株式会社,東京都,渋谷区,道玄坂１丁目１０番８号渋谷道玄坂東急ビル２Ｆ－Ｃ,,13,113,1500043,,,2024-10-07,清算の結了等,,,2023-09-26,1,,,,,エーイーグループ,0
1207,5040002016911,登記記録の閉鎖等,0,2024-11-05,2024-10-30,有限会社佐藤舗道,,有限会社,千葉県,千葉市中央区,亀岡町５番２１号,,12,101,2600857,,,2024-10-30,清算の結了等,,,2015-10-05,1,,,,,サトウホドウ,0
1218,5060002012108,登記記録の閉鎖等,0,2024-11-05,2024-10-30,有限会社Ｔ・Ｍ・Ｃ,,有限会社,栃木県,宇都宮市,石井町２８００番地１９９,,09,201,3210912,,,2024-10-30,清算の結了等,,,2015-10-05,1,,,,,ティーエムシー,0
1232,5100002010115,登記記録の閉鎖等,0,2024-11-05,2024-10-24,有限会社仁組,,有限会社,長野県,千曲市,大字小島２８９０番地１,,20,218,3870013,,,2024-10-24,清算の結了等,,,2015-10-05,1,,,,,ジングミ,0
1241,5120001253539,登記記録の閉鎖等,0,2024-11-05,2024-10-31,株式会社ゴールドプラザ,,株式会社,大阪府,大阪市中央区,南船場１丁目１３番２０号,,27,128,5420081,,,2024-10-31,清算の結了等,,,2023-03-29,1,,,,,ゴールドプラザ,0
1259,5130001003323,登記記録の閉鎖等,0,2024-11-05,2024-10-30,株式会社武田工務店,,株式会社,京都府,京都市上京区,出町通桝形上る青竜町１９６番地の２,,26,102,6020000,,,2024-10-30,清算の結了等,,,2015-10-05,1,,,,,タケダコウムテン,0
1260,5130001019749,登記記録の閉鎖等,0,2024-11-05,2024-10-30,株式会社アルファ・プリント社,,株式会社,京都府,京都市中京区,御池通神泉苑西入神泉苑町１番地の１１,,26,104,6048371,,,2024-10-30,清算の結了等,,,2015-10-05,1,,,,,アルファプリントシャ,0
1270,5150005001008,登記記録の閉鎖等,0,2024-11-05,2024-10-01,奈良県畜産農業協同組合連合会,,その他の設立登記法人,奈良県,橿原市,城殿町４５９番地,,29,205,6340033,,,2024-10-01,合併による解散等,3150005009127,令和６年１０月１日奈良県橿原市城殿町４５９番地奈良県畜産農業協同組合（3150005009127）に権利義務を承継し解散,2015-10-05,1,,,,,ナラケンチクサン,0
1284,5180002092633,登記記録の閉鎖等,0,2024-11-05,2024-10-24,有限会社中央ツール,,有限会社,愛知県,あま市,木田小兵衛前６６番地,,23,237,4901222,,,2024-10-24,清算の結了等,,,2015-10-05,1,,,,,チュウオウツール,0
1286,5180301026779,登記記録の閉鎖等,0,2024-11-05,2024-11-01,中部杉山商事株式会社,,株式会社,愛知県,岡崎市,宇頭町字井ノ上２－１,,23,202,4440905,,,2024-11-01,清算の結了等,,,2015-10-05,1,,,,,チュウブスギヤマショウジ,0
1289,5180305008732,登記記録の閉鎖等,0,2024-11-05,2024-10-29,一般社団法人衣浦地域産業文化振興協会,,その他の設立登記法人,愛知県,碧南市,築山町１丁目７６番地,,23,209,4470849,,,2024-10-29,清算の結了等,,,2017-12-05,1,,,,,キヌウラチイキサンギョウブンカシンコウキョウカイ,0
1291,5200001031416,登記記録の閉鎖等,0,2024-11-05,2024-11-01,株式会社カミノ技研,,株式会社,岐阜県,各務原市,鵜沼丸子町３丁目１２８番地,,21,213,5090142,,,2024-11-01,清算の結了等,,,2015-10-05,1,,,,,カミノギケン,0
1297,5220003001456,登記記録の閉鎖等,0,2024-11-05,2024-11-01,合同会社アパッショナート,,合同会社,東京都,中野区,上鷺宮４丁目１６番１７号１階,,13,114,1650031,,,2024-11-01,清算の結了等,,,2015-10-05,1,,,,,アパッショナート,0
1338,5350002012004,登記記録の閉鎖等,0,2024-11-05,2024-10-31,有限会社コハラ薬局,,有限会社,宮崎県,延岡市,幸町１丁目１２４番地,,45,203,8820053,,,2024-10-31,清算の結了等,,,2015-10-05,1,,,,,コハラヤッキョク,0
1340,5370001002061,登記記録の閉鎖等,0,2024-11-05,2024-10-23,日邦電気株式会社,,株式会社,宮城県,仙台市太白区,長町７丁目１９番２７号,,04,104,9820011,,,2024-10-23,清算の結了等,,,2015-10-05,1,,,,,ニッポウデンキ,0
1344,5380001009576,登記記録の閉鎖等,0,2024-11-05,2024-10-23,今江建設株式会社,,株式会社,福島県,二本松市,若宮２丁目４９番地,,07,210,9640906,,,2024-10-23,清算の結了等,,,2015-10-05,1,,,,,イマエケンセツ,0
1360,5460401000218,登記記録の閉鎖等,0,2024-11-05,2024-11-01,株式会社能登商店,,株式会社,北海道,根室市,宝林町２丁目１２２番地,,01,223,0870024,,,2024-11-01,清算の結了等,,,2015-10-05,1,,,,,ノトショウテン,0
1363,5480002010928,登記記録の閉鎖等,0,2024-11-05,2024-10-31,有限会社明和,,有限会社,徳島県,鳴門市,瀬戸町明神字鳴谷１２１番地,,36,202,7710360,,,2024-10-31,清算の結了等,,,2015-10-05,1,,,,,メイワ,0
1365,6010001144211,登記記録の閉鎖等,0,2024-11-05,2024-10-30,株式会社アルバ・ロッサ,,株式会社,東京都,足立区,柳原１丁目３０番２７号,,13,121,1200022,,,2024-10-30,清算の結了等,,,2015-10-05,1,,,,,アルバロッサ,0
1376,6010002018265,登記記録の閉鎖等,0,2024-11-05,2024-10-21,有限会社おおば,,有限会社,東京都,中央区,銀座８丁目６番１１号３階,,13,102,1040061,,,2024-10-21,清算の結了等,,,2015-10-05,1,,,,,オオバ,0
1399,6010403027708,登記記録の閉鎖等,0,2024-11-05,2024-10-18,合同会社Ｕｎｉｃｏｒｎ,,合同会社,東京都,港区,虎ノ門５丁目１番４号,,13,103,1050001,,,2024-10-18,清算の結了等,,,2022-05-24,1,,,,,ユニコーン,0
1411,6010901044493,登記記録の閉鎖等,0,2024-11-05,2024-10-08,株式会社プラチナシェフ,,株式会社,東京都,目黒区,鷹番１丁目１番９号,,13,110,1520004,,,2024-10-08,清算の結了等,,,2019-07-05,1,,,,,プラチナシェフ,0
1413,6011001002499,登記記録の閉鎖等,0,2024-11-05,2024-10-02,株式会社インテックス,,株式会社,東京都,渋谷区,東３丁目２０番３号,,13,113,1500011,,,2024-10-02,合併による解散等,2011001015158,令和６年１０月１日東京都渋谷区東三丁目２０番３号株式会社ドヴア（2011001015158）に合併し解散,2015-10-05,1,,,,,インテックス,0
1435,6011801043016,登記記録の閉鎖等,0,2024-11-05,2024-10-28,ＣＯＴＯ株式会社,,株式会社,東京都,足立区,竹の塚５丁目３６番１８－２０３号,,13,121,1210813,,,2024-10-28,清算の結了等,,,2023-09-08,1,,,,,コト,0
1438,6011802007606,登記記録の閉鎖等,0,2024-11-05,2024-10-28,有限会社美松理髪店,,有限会社,東京都,葛飾区,立石１丁目２１番１号,,13,122,1240012,,,2024-10-28,清算の結了等,,,2015-10-05,1,,,,,ミマツリハツテン,0
1448,6020001066181,登記記録の閉鎖等,0,2024-11-05,2024-10-25,株式会社五島建設,,株式会社,神奈川県,川崎市高津区,久地１丁目２３番１号,,14,134,2130032,,,2024-10-25,清算の結了等,,,2015-10-05,1,,,,,ゴトウケンセツ,0
1457,6020002010535,登記記録の閉鎖等,0,2024-11-05,2024-10-18,廣川工業有限会社,,有限会社,神奈川県,横浜市磯子区,中浜町１８番１５号,,14,107,2350014,,,2024-10-18,清算の結了等,,,2015-10-05,1,,,,,ヒロカワコウギョウ,0
1458,6020002053030,登記記録の閉鎖等,0,2024-11-05,2024-10-16,有限会社田辺設備,,有限会社,神奈川県,横浜市旭区,今宿南町１９１３番地の３,,14,112,2410034,,,2024-10-16,清算の結了等,,,2015-10-05,1,,,,,タナベセツビ,0
1460,6020002097333,登記記録の閉鎖等,0,2024-11-05,2024-10-21,有限会社下村写真館,,有限会社,神奈川県,川崎市川崎区,大師町１３番９号,,14,131,2100816,,,2024-10-21,清算の結了等,,,2015-10-05,1,,,,,シモムラシャシンカン,0
1461,6020002103974,登記記録の閉鎖等,0,2024-11-05,2024-10-18,有限会社エー・アイ・シー,,有限会社,神奈川県,川崎市高津区,坂戸３丁目２番１号,,14,134,2130012,,,2024-10-18,清算の結了等,,,2015-10-05,1,,,,,エーアイシー,0
1488,6040002101282,登記記録の閉鎖等,0,2024-11-05,2024-10-28,有限会社和楽,,有限会社,千葉県,南房総市,富浦町多田良１２０４番地８,,12,234,2992404,,,2024-10-28,清算の結了等,,,2015-10-05,1,,,,,ワラク,0
1494,6040005019415,登記記録の閉鎖等,0,2024-11-05,2024-10-29,一般社団法人組織・人能力開発研究所,,その他の設立登記法人,千葉県,浦安市,入船１丁目８番１－１７１１号,,12,227,2790012,,,2024-10-29,清算の結了等,,,2017-02-06,1,,,,,ソシキヒトノウリョクカイハツケンキュウショ,0
1500,6080103000487,登記記録の閉鎖等,0,2024-11-05,2024-11-01,合資会社ブレイン,,合資会社,静岡県,田方郡函南町,上沢６８７番地の５,,22,325,4190122,,,2024-11-01,清算の結了等,,,2015-10-05,1,,,,,ブレイン,0
1530,6120101010186,登記記録の閉鎖等,0,2024-11-05,2024-10-31,株式会社杉光建材産業,,株式会社,大阪府,松原市,天美我堂２丁目２７７番地,,27,217,5800026,,,2024-10-31,清算の結了等,,,2015-10-05,1,,,,,スギミツケンザイサンギョウ,0
1540,6120902001276,登記記録の閉鎖等,0,2024-11-05,2024-10-30,有限会社野田電気商会,,有限会社,大阪府,茨木市,鮎川４丁目１４番１０号,,27,211,5670831,,,2024-10-30,清算の結了等,,,2015-10-05,1,,,,,ノダデンキショウカイ,0
1556,6180001046325,登記記録の閉鎖等,0,2024-11-05,2024-10-22,株式会社名古屋リゼ,,株式会社,愛知県,名古屋市港区,甚兵衛通３丁目２６番地の８,,23,111,4550822,,,2024-10-22,清算の結了等,,,2015-10-05,1,,,,,ナゴヤリゼ,0
1557,6180001086395,登記記録の閉鎖等,0,2024-11-05,2024-10-24,熊澤富株式会社,,株式会社,愛知県,一宮市,大和町戸塚字西郷１０１７番地５,,23,203,4910927,,,2024-10-24,清算の結了等,,,2015-10-05,1,,,,,クマザワトミ,0
1559,6180001101807,登記記録の閉鎖等,0,2024-11-05,2024-10-21,株式会社ドゥマン,,株式会社,愛知県,大府市,大府町ウド９２番地の２１５,,23,223,4740051,,,2024-10-21,清算の結了等,,,2015-10-05,1,,,,,ドゥマン,0
1561,6180001109107,登記記録の閉鎖等,0,2024-11-05,2024-10-30,中京ＣＫカンパニー株式会社,,株式会社,愛知県,一宮市,大和町宮地花池３９番地１,,23,203,4910847,,,2024-10-30,合併による解散等,4190001006775,令和６年１０月１５日三重県伊勢市上地町２６９１番地６株式会社ダイム（4190001006775）に合併し解散,2015-10-05,1,,,,,チュウキョウシーケーカンパニー,0
1571,6180002061422,登記記録の閉鎖等,0,2024-11-05,2024-10-22,有限会社シーケンステクノロジー,,有限会社,愛知県,名古屋市緑区,鳴海町字乙子山８４－９,,23,114,4580801,,,2024-10-22,清算の結了等,,,2015-10-05,1,,,,,シーケンステクノロジー,0
1576,6180301022273,登記記録の閉鎖等,0,2024-11-05,2024-10-30,株式会社油甚本店,,株式会社,愛知県,西尾市,寄住町若宮２０番地１,,23,213,4450073,,,2024-10-30,清算の結了等,,,2015-10-05,1,,,,,アブジンホンテン,0
1592,6250001014464,登記記録の閉鎖等,0,2024-11-05,2024-10-02,株式会社アドエクス,,株式会社,山口県,下関市,秋根本町２丁目１０番１０号,,35,201,7510875,,,2024-10-02,清算の結了等,,,2015-10-05,1,,,,,アドエクス,0
1597,6270002002144,登記記録の閉鎖等,0,2024-11-05,2024-11-01,有限会社前田機工,,有限会社,鳥取県,鳥取市,古海３６１番地の３,,31,201,6800921,,,2024-11-01,清算の結了等,,,2015-10-05,1,,,,,マエタキコウ,0
1604,6290001100946,登記記録の閉鎖等,0,2024-11-05,2024-09-30,ＹＯＥＮ株式会社,,株式会社,福岡県,福岡市中央区,白金２丁目４－２８ロマネスク白金４０５室,,40,133,8100012,,,2024-09-30,清算の結了等,,,2023-03-23,1,,,,,ヨン,0
1615,6300002001308,登記記録の閉鎖等,0,2024-11-05,2024-11-01,有限会社フォーユー,,有限会社,佐賀県,佐賀市,水ヶ江６丁目１番１０号,,41,201,8400054,,,2024-11-01,清算の結了等,,,2015-10-05,1,,,,,フォーユー,0
1619,6320001011272,登記記録の閉鎖等,0,2024-11-05,2024-10-31,株式会社鍋島振興,,株式会社,大分県,中津市,大字鍋島１５１３番地１,,44,203,8790102,,,2024-10-31,清算の結了等,,,2015-10-05,1,,,,,ナベシマシンコウ,0
1625,6350002007671,登記記録の閉鎖等,0,2024-11-05,2024-10-30,有限会社やながわ,,有限会社,宮崎県,宮崎市,佐土原町下那珂１２８００番地４３,,45,201,8800212,,,2024-10-30,清算の結了等,,,2015-10-05,1,,,,,ヤナガワ,0
1638,6430002033809,登記記録の閉鎖等,0,2024-11-05,2024-10-30,有限会社グラテック,,有限会社,北海道,札幌市豊平区,月寒西二条８丁目１番３号,,01,105,0620022,,,2024-10-30,清算の結了等,,,2015-10-05,1,,,,,グラテック,0
1679,7010405018209,登記記録の閉鎖等,0,2024-11-05,2024-10-17,一般社団法人築地ホテル管理,,その他の設立登記法人,東京都,港区,虎ノ門５丁目１番４号,,13,103,1050001,,,2024-10-17,清算の結了等,,,2019-10-29,1,,,,,ツキジホテルカンリ,0
1706,7013301012516,登記記録の閉鎖等,0,2024-11-05,2024-10-23,株式会社ルーフ,,株式会社,東京都,豊島区,南長崎４丁目３４番１０号,,13,116,1710052,,,2024-10-23,清算の結了等,,,2015-10-05,1,,,,,ルーフ,0
1714,7020002077409,登記記録の閉鎖等,0,2024-11-05,2024-10-16,ブリッジ有限会社,,有限会社,神奈川県,横浜市中区,石川町５丁目２２０番地山手ガーデニア５１０号,,14,104,2310868,,,2024-10-16,清算の結了等,,,2015-10-05,1,,,,,ブリッジ,0
1717,7021001020441,登記記録の閉鎖等,0,2024-11-05,2024-10-31,株式会社陽明社,,株式会社,神奈川県,厚木市,幸町８番２号,,14,212,2430012,,,2024-10-31,清算の結了等,,,2015-10-05,1,,,,,ヨウメイシャ,0
1727,7030001113634,登記記録の閉鎖等,0,2024-11-05,2024-10-30,ＩＮＭＹＬＩＦＥ８８株式会社,,株式会社,埼玉県,さいたま市緑区,太田窪３丁目１６番１２号,,11,109,3360936,,,2024-10-30,清算の結了等,,,2016-04-05,1,,,,,インマイライフエイティーエイト,0
1767,7110002031851,登記記録の閉鎖等,0,2024-11-05,2024-10-30,有限会社ミヤジマ,,有限会社,新潟県,見附市,本所１丁目２番２１号,,15,211,9540051,,,2024-10-30,清算の結了等,,,2015-10-05,1,,,,,ミヤジマ,0
1799,7130001004204,登記記録の閉鎖等,0,2024-11-05,2024-10-31,株式会社京都三原和裁技能養成所,,株式会社,京都府,京都市右京区,嵯峨一本木町３０番地２０,,26,108,6168354,,,2024-10-31,清算の結了等,,,2015-10-05,1,,,,,キョウトミハラワサイギノウヨウセイジョ,0
1809,7150005003299,登記記録の閉鎖等,0,2024-11-05,2024-10-30,特定非営利活動法人動物を守る奈良県民の会,,その他の設立登記法人,奈良県,生駒郡平群町,初香台３丁目４番１６号,,29,342,6360934,,,2024-10-30,清算の結了等,,,2015-10-05,1,,,,,ドウブツヲマモルナラケンミンノカイ,0
1814,7180001083202,登記記録の閉鎖等,0,2024-11-05,2024-10-22,株式会社東海メディア,,株式会社,愛知県,一宮市,九品町３丁目９番地１,,23,203,4910079,,,2024-10-22,清算の結了等,,,2015-10-05,1,,,,,トウカイメディア,0
1825,7180002012886,登記記録の閉鎖等,0,2024-11-05,2024-10-22,エイドマシン株式会社,,株式会社,愛知県,名古屋市東区,飯田町１２番地,,23,102,4610013,,,2024-10-22,清算の結了等,,,2015-10-05,1,,,,,エイドマシン,0
1827,7180002059077,登記記録の閉鎖等,0,2024-11-05,2024-10-24,有限会社ＬＭオフィス,,有限会社,愛知県,名古屋市北区,光音寺町２丁目６３番地,,23,103,4620053,,,2024-10-24,清算の結了等,,,2015-10-05,1,,,,,エルエムオフィス,0
1833,7190001010196,登記記録の閉鎖等,0,2024-11-05,2024-10-31,協栄警備保障株式会社,,株式会社,三重県,松阪市,早馬瀬町３３６番地,,24,204,5150217,,,2024-10-31,清算の結了等,,,2015-10-05,1,,,,,キョウエイケイビホショウ,0
1835,7210001015606,登記記録の閉鎖等,0,2024-11-05,2024-10-30,株式会社清水総建,,株式会社,福井県,敦賀市,舞崎町２丁目１３番１７－３０４号,,18,202,9140053,,,2024-10-30,清算の結了等,,,2015-10-05,1,,,,,シミズソウケン,0
1839,7220002010150,登記記録の閉鎖等,0,2024-11-05,2024-10-31,有限会社たけむら,,有限会社,石川県,金沢市,畝田西３丁目９８番地,,17,201,9200342,,,2024-10-31,清算の結了等,,,2015-10-05,1,,,,,タケムラ,0
1847,7240002052141,登記記録の閉鎖等,0,2024-11-05,2024-10-31,有限会社飛鳥,,有限会社,広島県,尾道市,西藤町４２５番地１,,34,205,7290142,,,2024-10-31,清算の結了等,,,2015-10-05,1,,,,,アスカ,0
1850,7260002010766,登記記録の閉鎖等,0,2024-11-05,2024-10-29,有限会社渡邉エーシー,,有限会社,岡山県,岡山市南区,築港緑町１丁目４番７号,,33,104,7028055,,,2024-10-29,清算の結了等,,,2015-10-05,1,,,,,ワタナベエーシー,0
1852,7290001031694,登記記録の閉鎖等,0,2024-11-05,2024-10-02,ＳＷコーポレーション株式会社,,株式会社,福岡県,福岡市博多区,金の隈２丁目１８番４１号,,40,132,8120863,,,2024-10-02,合併による解散等,5290001026102,令和６年１０月１日福岡市博多区金の隈二丁目１８番４１号株式会社西和（5290001026102）に合併し解散,2015-10-05,1,,,,,エスダブリュコーポレーション,0
1864,7290002045891,登記記録の閉鎖等,0,2024-11-05,2024-10-01,有限会社はんれい,,有限会社,福岡県,飯塚市,西町２番８８号,,40,205,8200043,,,2024-10-01,清算の結了等,,,2015-10-05,1,,,,,ハンレイ,0
1865,7290002046080,登記記録の閉鎖等,0,2024-11-05,2024-10-02,有限会社薬師堂,,有限会社,福岡県,飯塚市,柏の森４３２番地の３,,40,205,8200011,,,2024-10-02,清算の結了等,,,2015-10-05,1,,,,,ヤクシドウ,0
1892,7370003005993,登記記録の閉鎖等,0,2024-11-05,2024-10-24,あんしんの杜合同会社,,合同会社,宮城県,仙台市泉区,将監１丁目８番４号,,04,105,9813132,,,2024-10-24,清算の結了等,,,2023-02-15,1,,,,,,0
1896,7370601001056,登記記録の閉鎖等,0,2024-11-05,2024-10-22,株式会社パワーシステム,,株式会社,宮城県,塩竈市,北浜４丁目２番５４号,,04,203,9850003,,,2024-10-22,清算の結了等,,,2015-10-05,1,,,,,パワーシステム,0
1897,7370602001427,登記記録の閉鎖等,0,2024-11-05,2024-10-23,有限会社中野工作所,,有限会社,宮城県,宮城郡七ヶ浜町,東宮浜字左道５６番地の１,,04,404,9850804,,,2024-10-23,清算の結了等,,,2015-10-05,1,,,,,,0
1904,7380002010655,登記記録の閉鎖等,0,2024-11-05,2024-10-23,有限会社長生堂薬舗,,有限会社,福島県,郡山市,田村町金屋字マセロ４１番地の２,,07,203,9630725,,,2024-10-23,清算の結了等,,,2015-10-05,1,,,,,チョウセイドウヤクホ,0
1959,8010405015048,登記記録の閉鎖等,0,2024-11-05,2024-10-17,Ｎｉｓｅｋｏ　Ａｌｐｉｎｅ　Ｒｅｓｏｒｔｓ特定目的会社,,その他の設立登記法人,東京都,港区,虎ノ門３丁目２２番１０－２０１号,,13,103,1050001,,,2024-10-17,清算の結了等,,,2016-08-22,1,,,,,ニセコアルパインリゾーツ,0
1972,8010902001070,登記記録の閉鎖等,0,2024-11-05,2024-10-30,有限会社アルカディア・ピクチャーズ,,有限会社,東京都,世田谷区,三軒茶屋１丁目３３番１２号ブロックスコート,,13,112,1540024,,,2024-10-30,清算の結了等,,,2015-10-05,1,,,,,アルカディアピクチャーズ,0
1973,8011001010640,登記記録の閉鎖等,0,2024-11-05,2024-10-30,新明治工業株式会社,,株式会社,埼玉県,川口市,飯塚２丁目２番１－１４０７号ライオンズプラザ川口,,11,203,3320023,,,2024-10-30,清算の結了等,,,2015-10-05,1,,,,,,0
1979,8011101077778,登記記録の閉鎖等,0,2024-11-05,2024-10-23,サンズゲート株式会社,,株式会社,東京都,新宿区,西新宿３丁目５番地１２,,13,104,1600023,,,2024-10-23,清算の結了等,,,2016-07-28,1,,,,,サンズゲート,0
1987,8011301005241,登記記録の閉鎖等,0,2024-11-05,2024-10-30,株式会社西荻貨物,,株式会社,東京都,杉並区,西荻北５丁目２０番１４号,,13,115,1670042,,,2024-10-30,清算の結了等,,,2015-10-05,1,,,,,ニシオギカモツ,0
1996,8012401013308,登記記録の閉鎖等,0,2024-11-05,2024-11-01,株式会社ユーコム,,株式会社,東京都,武蔵野市,境南町３丁目１５番４号,,13,203,1800023,,,2024-11-01,清算の結了等,,,2015-10-05,1,,,,,,0
2007,8020002020549,登記記録の閉鎖等,0,2024-11-05,2024-10-21,有限会社アップル電子,,有限会社,神奈川県,横浜市旭区,白根２丁目３１番１５－２０１号,,14,112,2410005,,,2024-10-21,清算の結了等,,,2015-10-05,1,,,,,アップルデンシ,0
2018,8030001042122,登記記録の閉鎖等,0,2024-11-05,2024-10-08,株式会社シルバーはあと,,株式会社,埼玉県,久喜市,菖蒲町三箇７４０番１号,,11,232,3460104,,,2024-10-08,合併による解散等,7010001091023,令和６年１０月１日東京都千代田区神田神保町二丁目４番株式会社ハートメディカルケア（7010001091023）に合併し解散,2015-10-05,1,,,,,シルバーハアト,0
2021,8030001149553,登記記録の閉鎖等,0,2024-11-05,2024-10-28,株式会社Ｋ．Ｐ．Ｍ,,株式会社,埼玉県,さいたま市大宮区,桜木町４丁目３２１番地,,11,103,3300854,,,2024-10-28,清算の結了等,,,2022-08-05,1,,,,,ケーピーエム,0
2026,8030002016570,登記記録の閉鎖等,0,2024-11-05,2024-10-22,有限会社タカハシデザイン,,有限会社,東京都,中央区,新富２丁目１０番１号,,13,102,1040041,,,2024-10-22,清算の結了等,,,2015-10-05,1,,,,,タカハシデザイン,0
2027,8030002021380,登記記録の閉鎖等,0,2024-11-05,2024-10-29,有限会社高橋機械製作所,,有限会社,埼玉県,さいたま市岩槻区,大字飯塚１１１２番地,,11,110,3390031,,,2024-10-29,清算の結了等,,,2015-10-05,1,,,,,タカハシキカイセイサクショ,0
2041,8060002012880,登記記録の閉鎖等,0,2024-11-05,2024-10-30,有限会社モーブ企画,,有限会社,栃木県,さくら市,氏家２３６３番地５,,09,214,3291311,,,2024-10-30,清算の結了等,,,2015-10-05,1,,,,,モーブキカク,0
2043,8060002034784,登記記録の閉鎖等,0,2024-11-05,2024-10-30,有限会社きっすい,,有限会社,栃木県,栃木市,今泉町２丁目１３番２６号,,09,203,3280027,,,2024-10-30,清算の結了等,,,2015-10-05,1,,,,,キッスイ,0
2072,8120005012839,登記記録の閉鎖等,0,2024-11-05,2024-10-31,全大阪警備事業協同組合,,その他の設立登記法人,大阪府,枚方市,岡東町３番１０号,,27,210,5730032,,,2024-10-31,清算の結了等,,,2015-10-05,1,,,,,ゼンオオサカケイビ,0
2079,8130001020101,登記記録の閉鎖等,0,2024-11-05,2024-10-31,株式会社鴨沂電業社,,株式会社,京都府,京都市中京区,壬生渕田町１０番地の７,,26,104,6040000,,,2024-10-31,清算の結了等,,,2015-10-05,1,,,,,オウキデンギョウシャ,0
2084,8130001056970,登記記録の閉鎖等,0,2024-11-05,2024-10-30,株式会社とよとみ,,株式会社,京都府,福知山市,字畑中１７０１番地の１,,26,201,6200967,,,2024-10-30,清算の結了等,,,2016-03-04,1,,,,,トヨトミ,0
2102,8170001015493,登記記録の閉鎖等,0,2024-11-05,2024-11-01,Ｓ．ＫＯＯＶＯ株式会社,,株式会社,和歌山県,紀の川市,荒見６４３番地の４,,30,208,6496561,,,2024-11-01,清算の結了等,,,2019-02-27,1,,,,,エスクーヴォ,0
2108,8180001126315,登記記録の閉鎖等,0,2024-11-05,2024-10-23,株式会社渡辺商会,,株式会社,愛知県,名古屋市天白区,中平５丁目２００４番地（１０２号）,,23,116,4680014,,,2024-10-23,清算の結了等,,,2017-01-20,1,,,,,ワタナベショウカイ,0
2110,8180001149266,登記記録の閉鎖等,0,2024-11-05,2024-10-24,株式会社ハリショウ,,株式会社,愛知県,小牧市,新町２丁目２６２番地３,,23,219,4850013,,,2024-10-24,清算の結了等,,,2021-12-24,1,,,,,ハリショウ,0
2120,8190003003321,登記記録の閉鎖等,0,2024-11-05,2024-10-29,合同会社キセキ,,合同会社,三重県,多気郡多気町,丹生４５１６番地１,,24,441,5192211,,,2024-10-29,清算の結了等,,,2020-03-13,1,,,,,キセキ,0
2134,8250001007350,登記記録の閉鎖等,0,2024-11-05,2024-10-31,株式会社生産技術支援,,株式会社,山口県,下関市,小月杉迫３丁目１２番２０号,,35,201,7501145,,,2024-10-31,清算の結了等,,,2015-10-05,1,,,,,セイサンギジュツシエン,0
2142,8290001005846,登記記録の閉鎖等,0,2024-11-05,2024-10-01,株式会社ハヤタ,,株式会社,福岡県,福岡市早良区,室見１丁目１３番２１号,,40,137,8140015,,,2024-10-01,清算の結了等,,,2015-10-05,1,,,,,ハヤタ,0
2148,8290001095219,登記記録の閉鎖等,0,2024-11-05,2024-10-01,アルゴスマイル株式会社,,株式会社,福岡県,福岡市博多区,博多駅南１丁目１５－２８－３Ｆ,,40,132,8120016,,,2024-10-01,合併による解散等,4290001067114,令和６年１０月１日福岡市中央区黒門３番１９号プラスアルファ株式会社（4290001067114）に合併し解散,2021-11-04,1,,,,,アルゴスマイル,0
2164,8350002013049,登記記録の閉鎖等,0,2024-11-05,2024-10-31,有限会社リゾートレソート,,有限会社,宮崎県,延岡市,中央通３丁目６番地３,,45,203,8820824,,,2024-10-31,清算の結了等,,,2015-10-05,1,,,,,リゾートレソート,0
2167,8360003002719,登記記録の閉鎖等,0,2024-11-05,2024-11-01,合同会社かわひら電器,,合同会社,沖縄県,沖縄市,胡屋１丁目２番１号,,47,211,9040021,,,2024-11-01,清算の結了等,,,2015-10-05,1,,,,,カラヒラデンキ,0
2172,8410003002837,登記記録の閉鎖等,0,2024-11-05,2024-10-17,オルウィーヴ合同会社,,合同会社,秋田県,秋田市,将軍野南３丁目２番１２号,,05,201,0110936,,,2024-10-17,清算の結了等,,,2015-10-05,1,,,,,オルウィーヴ,0
2176,8450001013626,登記記録の閉鎖等,0,2024-11-05,2024-10-22,株式会社リズカーレ,,株式会社,北海道,士別市,東一条６丁目３２３番地８,,01,220,0950011,,,2024-10-22,清算の結了等,,,2022-03-03,1,,,,,リズカーレ,0
2179,8460102000233,登記記録の閉鎖等,0,2024-11-05,2024-11-01,有限会社磯部建築設計事務所,,有限会社,北海道,帯広市,西十九条南２丁目５－１２,,01,207,0802469,,,2024-11-01,清算の結了等,,,2015-10-05,1,,,,,イゾベケンチクセッケイ,0
2213,9010405020831,登記記録の閉鎖等,0,2024-11-05,2024-10-17,目黒インベストメント特定目的会社,,その他の設立登記法人,東京都,港区,六本木１丁目６番１号泉ガーデンタワー,,13,103,1060032,,,2024-10-17,清算の結了等,,,2022-03-24,1,,,,,メグロインベストメント,0
2215,9010405022431,登記記録の閉鎖等,0,2024-11-05,2024-10-17,一般財団法人三宅財団,,その他の設立登記法人,東京都,港区,赤坂８丁目５番２７号,,13,103,1070052,,,2024-10-17,清算の結了等,,,2023-09-12,1,,,,,ミヤケザイダン,0
2220,9010602031953,登記記録の閉鎖等,0,2024-11-05,2024-11-01,有限会社イナ・エンジニアリング,,有限会社,東京都,江東区,亀戸９丁目１０番１号,,13,108,1360071,,,2024-11-01,清算の結了等,,,2015-10-05,1,,,,,,0
2225,9010901014386,登記記録の閉鎖等,0,2024-11-05,2024-10-28,株式会社インターメディケア,,株式会社,東京都,世田谷区,代田６丁目３２番１号,,13,112,1550033,,,2024-10-28,清算の結了等,,,2015-10-05,1,,,,,インターメディケア,0
2238,9011101055989,登記記録の閉鎖等,0,2024-11-05,2024-10-28,バーティ・エアテル・ジャパン株式会社,,株式会社,東京都,新宿区,西新宿３丁目７番１号新宿パークタワーＮ３０階,,13,104,1600023,,,2024-10-28,清算の結了等,,,2015-10-05,1,,,,,バーティエアテルジャパン,0
2256,9020001072268,登記記録の閉鎖等,0,2024-11-05,2024-10-18,大場建設株式会社,,株式会社,神奈川県,川崎市中原区,上小田中１丁目３６番１４号,,14,133,2110053,,,2024-10-18,清算の結了等,,,2015-10-05,1,,,,,オオバケンセツ,0
2272,9020002046642,登記記録の閉鎖等,0,2024-11-05,2024-10-18,有限会社眞山石材店,,有限会社,神奈川県,横浜市泉区,中田東１丁目１５番２３号,,14,116,2450013,,,2024-10-18,清算の結了等,,,2015-10-05,1,,,,,,0
2289,9030003011768,登記記録の閉鎖等,0,2024-11-05,2024-10-01,Ｄ　Ｂｏｎｄ合同会社,,合同会社,埼玉県,戸田市,本町４丁目４番６号ＴＢＣ,,11,224,3350023,,,2024-10-01,合併による解散等,8011103007213,令和６年１０月１日さいたま市南区四谷３－１－２４－３１１、Ｓ　Ａｓｓｅｔ合同会社（8011103007213）に合併し解散,2018-04-17,1,,,,,ディーボンド,0
2312,9080401016843,登記記録の閉鎖等,0,2024-11-05,2024-10-31,テレフオーラム株式会社,,株式会社,静岡県,磐田市,大中瀬１０００番地４,,22,211,4380214,,,2024-10-31,清算の結了等,,,2015-10-05,1,,,,,テレフオーラム,0
2326,9120001201510,登記記録の閉鎖等,0,2024-11-05,2024-10-31,株式会社ハウスゲート不動産売却センター,,株式会社,大阪府,枚方市,牧野阪１丁目２０番４号,,27,210,5731146,,,2024-10-31,清算の結了等,,,2016-10-26,1,,,,,,0
2352,9160001024338,登記記録の閉鎖等,0,2024-11-05,2024-10-29,株式会社ゼロホールディングス,,株式会社,滋賀県,草津市,西草津２丁目３番２２号,,25,206,5250035,,,2024-10-29,合併による解散等,5160001013047,令和６年１０月２９日滋賀県草津市御倉町１９番地株式会社ダイイチ（5160001013047）に合併し解散,2022-07-08,1,,,,,ゼロホールディングス,0
2356,9180001112140,登記記録の閉鎖等,0,2024-11-05,2024-11-01,株式会社ＥＴＫジャパン,,株式会社,鳥取県,鳥取市,南栄町２６番地４,,31,201,6891121,,,2024-11-01,清算の結了等,,,2015-10-05,1,,,,,,0
2365,9180302024877,登記記録の閉鎖等,0,2024-11-05,2024-10-30,有限会社ユナイテッド,,有限会社,愛知県,豊田市,大成町３丁目６１番地,,23,211,4701217,,,2024-10-30,清算の結了等,,,2015-10-05,1,,,,,ユナイテッド,0
2366,9190002005111,登記記録の閉鎖等,0,2024-11-05,2024-11-01,有限会社橋本建設,,有限会社,三重県,熊野市,育生町長井６５３番地,,24,212,5194449,,,2024-11-01,清算の結了等,,,2015-10-05,1,,,,,ハシモトケンセツ,0
2396,9320001013365,登記記録の閉鎖等,0,2024-11-05,2024-10-31,樹の里株式会社,,株式会社,大分県,佐伯市,蒲江大字畑野浦２７９８番地,,44,205,8762201,,,2024-10-31,合併による解散等,4320002016446,令和６年１０月３１日大分県佐伯市蒲江大字畑野浦２７９８番地株式会社大山水産（4320002016446）に合併し解散,2015-10-05,1,,,,,,0
2402,9340005000705,登記記録の閉鎖等,0,2024-11-05,2024-10-31,カコイ事業協同組合,,その他の設立登記法人,鹿児島県,鹿児島市,錦江町９番２５号,,46,201,8920836,,,2024-10-31,清算の結了等,,,2015-10-05,1,,,,,カコイ,0
2403,9350002011480,登記記録の閉鎖等,0,2024-11-05,2024-10-31,有限会社真拓商事,,有限会社,宮崎県,日向市,大字塩見８８８番地１５,,45,206,8830033,,,2024-10-31,清算の結了等,,,2015-10-05,1,,,,,シンタクショウジ,0
2426,9400001003845,登記記録の閉鎖等,0,2024-11-05,2024-10-24,株式会社いどじり,,株式会社,岩手県,紫波郡紫波町,桜町字浦田１２番地,,03,321,0283307,,,2024-10-24,清算の結了等,,,2015-10-05,1,,,,,イドジリ,0
2429,9430001057525,登記記録の閉鎖等,0,2024-11-05,2024-10-30,ティクス株式会社,,株式会社,北海道,室蘭市,東町２丁目１４番１５号,,01,205,0500083,,,2024-10-30,清算の結了等,,,2015-10-05,1,,,,,ティクス,0
2435,9430003015448,登記記録の閉鎖等,0,2024-11-05,2024-10-31,合同会社平和堂,,合同会社,北海道,札幌市西区,琴似四条４丁目１番６号,,01,107,0630814,,,2024-10-31,清算の結了等,,,2023-09-21,1,,,,,ヘイワドウ,0
