sequenceNumber,corporateNumber,process,correct,updateDate,changeDate,name,nameImageId,kind,prefectureName,cityName,streetNumber,addressImageId,prefectureCode,cityCode,postCode,addressOutside,addressOutsideImageId,closeDate,closeCause,successorCorporateNumber,changeCause,assignmentDate,latest,enName,enPrefectureName,enCityName,enAddressOutside,furigana,hihyoji
1,1010001009872,登記記録の閉鎖等,0,2022-09-06,2022-08-30,アセツク株式会社,,株式会社,東京都,千代田区,隼町３番１９号,,13,101,1020092,,,2022-08-30,清算の結了等,,,2015-10-05,1,,,,,アセツク,0
25,1010401017120,登記記録の閉鎖等,0,2022-09-06,2022-08-15,株式会社高松商店,,株式会社,東京都,港区,南麻布４丁目１２番７号,,13,103,1060047,,,2022-08-15,清算の結了等,,,2015-10-05,1,,,,,タカマツショウテン,0
50,1010902015325,登記記録の閉鎖等,0,2022-09-06,2022-09-01,有限会社モノリス,,有限会社,東京都,世田谷区,上野毛４丁目１５番３号,,13,112,1580093,,,2022-09-01,清算の結了等,,,2015-10-05,1,,,,,モノリス,0
60,1011402003200,登記記録の閉鎖等,0,2022-09-06,2022-09-02,幸生運輸有限会社,,有限会社,東京都,板橋区,本町４１番地,,13,119,1730001,,,2022-09-02,清算の結了等,,,2015-10-05,1,,,,,コウウウンユ,0
71,1012702004103,登記記録の閉鎖等,0,2022-09-06,2022-09-02,有限会社カネヒロ,,有限会社,東京都,西東京市,中町１丁目１１番３１号,,13,229,2020013,,,2022-09-02,清算の結了等,,,2015-10-05,1,,,,,カネヒロ,0
76,1013201002449,登記記録の閉鎖等,0,2022-09-06,2022-08-23,三隆精工株式会社,,株式会社,東京都,目黒区,大橋２丁目１６番４１号,,13,110,1530044,,,2022-08-23,清算の結了等,,,2015-10-05,1,,,,,ミタカセイコウ,0
95,1020005013713,登記記録の閉鎖等,0,2022-09-06,2022-09-01,一般社団法人全国先進有識者フォーラム,,その他の設立登記法人,神奈川県,川崎市川崎区,東田町８番地パレール三井ビルディング１６階川崎区総合庁舎,,14,131,2100005,,,2022-09-01,清算の結了等,,,2018-06-07,1,,,,,ゼンコクセンシンユウシキシャフォーラム,0
107,1030003003541,登記記録の閉鎖等,0,2022-09-06,2022-08-25,合同会社システムアシスト,,合同会社,埼玉県,坂戸市,西坂戸４丁目１１番１３号,,11,239,3500247,,,2022-08-25,清算の結了等,,,2015-10-05,1,,,,,システムアシスト,0
115,1040001104027,登記記録の閉鎖等,0,2022-09-06,2022-08-10,株式会社ＴＭＫテクノ,,株式会社,千葉県,印西市,木下東２丁目８番地１３,,12,231,2701323,,,2022-08-10,清算の結了等,,,2018-03-28,1,,,,,ティエムケイテクノ,0
193,1160002009015,登記記録の閉鎖等,0,2022-09-06,2022-09-01,有限会社米原冷菓,,有限会社,滋賀県,彦根市,大藪町４７４番地３,,25,202,5220053,,,2022-09-01,清算の結了等,,,2015-10-05,1,,,,,マイバラレイカ,0
212,1180002081128,登記記録の閉鎖等,0,2022-09-06,2022-08-30,有限会社ハッピーパソコンスクール,,有限会社,愛知県,稲沢市,奥田神ノ木町２１番地,,23,220,4928253,,,2022-08-30,清算の結了等,,,2015-10-05,1,,,,,ハッピーパソコンスクール,0
213,1180002089963,登記記録の閉鎖等,0,2022-09-06,2022-09-05,有限会社水谷企画,,有限会社,愛知県,海部郡蟹江町,大字今字川東下５番地の１,,23,425,4970032,,,2022-09-05,清算の結了等,,,2015-10-05,1,,,,,ミズタニキカク,0
227,1220001015453,登記記録の閉鎖等,0,2022-09-06,2022-08-31,七尾街づくりセンター株式会社,,株式会社,石川県,七尾市,桧物町５７番地１０,,17,202,9260048,,,2022-08-31,清算の結了等,,,2015-10-05,1,,,,,ナナオマチヅクリセンター,0
240,1240002014171,登記記録の閉鎖等,0,2022-09-06,2022-09-01,有限会社フォー・キッズ,,有限会社,広島県,広島市西区,観音新町１丁目２番２１号,,34,104,7330036,,,2022-09-01,合併による解散等,1240001045432,令和４年９月１日広島市西区観音新町一丁目２番２１号株式会社スキップス（1240001045432）に合併し解散,2015-10-05,1,,,,,フォーキッズ,0
247,1280002009341,登記記録の閉鎖等,0,2022-09-06,2022-09-02,有限会社宮里商店,,有限会社,島根県,江津市,都野津町１９２６番地,,32,207,6950021,,,2022-09-02,清算の結了等,,,2015-10-05,1,,,,,ミヤザトショウテン,0
267,1360001017444,登記記録の閉鎖等,0,2022-09-06,2022-09-01,トーマ産業株式会社,,株式会社,沖縄県,島尻郡与那原町,字東浜９０番地１,,47,348,9011304,,,2022-09-01,合併による解散等,5360001006476,令和４年９月１日沖縄県島尻郡与那原町字東浜９０番地１トーマ産業株式会社（5360001006476）に合併し解散,2015-10-05,1,,,,,トーマサンギョウ,0
287,1470002009363,登記記録の閉鎖等,0,2022-09-06,2022-09-02,有限会社オザキ工装,,有限会社,香川県,高松市,香川町寺井６６７番地１０,,37,201,7611702,,,2022-09-02,清算の結了等,,,2015-10-05,1,,,,,オザキコウソウ,0
315,2010401014455,登記記録の閉鎖等,0,2022-09-06,2022-08-22,株式会社ジヤパンパブリシテイ,,株式会社,東京都,港区,芝２丁目９番２号渡邉ビル１Ｆ,,13,103,1050014,,,2022-08-22,清算の結了等,,,2015-10-05,1,,,,,ジヤパンパブリシテイ,0
319,2010401154202,登記記録の閉鎖等,0,2022-09-06,2022-07-15,株式会社ＧＲＩアーツ,,株式会社,東京都,港区,芝公園２丁目３－６,,13,103,1050011,,,2022-07-15,合併による解散等,4010401080545,令和４年７月１日東京都港区芝公園２－３－６株式会社ＧＲＩ（4010401080545）に合併し解散,2020-07-27,1,,,,,ジーアールアイアーツ,0
324,2010403021202,登記記録の閉鎖等,0,2022-09-06,2022-08-15,ＷＯＤＥＸ合同会社,,合同会社,東京都,港区,南麻布３丁目１９番２３号オーク南麻布ビル２階,,13,103,1060047,,,2022-08-15,清算の結了等,,,2019-08-06,1,,,,,ヲーデックス,0
349,2011101003525,登記記録の閉鎖等,0,2022-09-06,2022-09-05,株式会社エムケイジヤパン,,株式会社,東京都,新宿区,西新宿４丁目１番１０－９０４号,,13,104,1600023,,,2022-09-05,清算の結了等,,,2015-10-05,1,,,,,エムケイジャパン,0
350,2011101021766,登記記録の閉鎖等,0,2022-09-06,2022-09-01,株式会社ユニオン・プロダクシヨン,,株式会社,東京都,新宿区,箪笥町３８番地,00065095,13,104,1620833,,,2022-09-01,清算の結了等,,,2015-10-05,1,,,,,ユニオンプロダクシヨン,0
366,2011801007577,登記記録の閉鎖等,0,2022-09-06,2022-09-01,株式会社コーダ販売,,株式会社,東京都,足立区,島根２丁目１４番５号,,13,121,1210815,,,2022-09-01,清算の結了等,,,2015-10-05,1,,,,,コーダハンバイ,0
367,2011803001941,登記記録の閉鎖等,0,2022-09-06,2022-09-01,東京土地建物合同会社,,合同会社,東京都,足立区,神明南１丁目１番８号,,13,121,1210057,,,2022-09-01,清算の結了等,,,2015-10-05,1,,,,,トウキョウトチタテモノ,0
402,2021002020750,登記記録の閉鎖等,0,2022-09-06,2022-08-31,有限会社眞田一三商店,,有限会社,神奈川県,相模原市中央区,相模原７丁目５番９号,,14,152,2520231,,,2022-08-31,清算の結了等,,,2015-10-05,1,,,,,サナダイチゾウショウテン,0
410,2030002099902,登記記録の閉鎖等,0,2022-09-06,2022-08-25,有限会社赤星食品,,有限会社,埼玉県,川口市,大字伊刈字牛田１０６０番地の５,,11,203,3330865,,,2022-08-25,清算の結了等,,,2015-10-05,1,,,,,アカホシショクヒン,0
454,2120002018836,登記記録の閉鎖等,0,2022-09-06,2022-09-05,有限会社セイワ工業,,有限会社,大阪府,大阪市福島区,大開２丁目４番１１号,,27,103,5530007,,,2022-09-05,清算の結了等,,,2015-10-05,1,,,,,セイワコウギョウ,0
495,2180002004533,登記記録の閉鎖等,0,2022-09-06,2022-08-31,有限会社世古電器,,有限会社,愛知県,名古屋市千種区,観月町２丁目６２番地,,23,101,4640831,,,2022-08-31,清算の結了等,,,2015-10-05,1,,,,,セコデンキ,0
497,2180301006643,登記記録の閉鎖等,0,2022-09-06,2022-08-31,ＮＫＫ株式会社,,株式会社,愛知県,豊橋市,問屋町１９番地５,,23,201,4418086,,,2022-08-31,合併による解散等,7180301006647,令和４年８月３１日愛知県豊橋市問屋町１１番地３永井海苔株式会社（7180301006647）に合併し解散,2015-10-05,1,,,,,エヌケイケイ,0
506,2220001016153,登記記録の閉鎖等,0,2022-09-06,2022-09-01,株式会社ヤギュウスポーツ,,株式会社,石川県,羽咋市,中央町キ１番地３,,17,207,9250052,,,2022-09-01,清算の結了等,,,2015-10-05,1,,,,,ヤギュウスポーツ,0
521,2240002043450,登記記録の閉鎖等,0,2022-09-06,2022-09-02,有限会社モリトー,,有限会社,広島県,福山市,道三町６番８号,,34,207,7200813,,,2022-09-02,清算の結了等,,,2015-10-05,1,,,,,モリトー,0
533,2270003001033,登記記録の閉鎖等,0,2022-09-06,2022-09-01,合同会社はあと・わん,,合同会社,鳥取県,鳥取市,面影１丁目２番６号,,31,201,6800855,,,2022-09-01,清算の結了等,,,2018-01-15,1,,,,,ハアトワン,0
535,2280002011874,登記記録の閉鎖等,0,2022-09-06,2022-09-05,有限会社藤原土木,,有限会社,島根県,飯石郡飯南町,下来島６３番地,,32,386,6903402,,,2022-09-05,清算の結了等,,,2015-10-05,1,,,,,フジハラドボク,0
550,2310003003925,登記記録の閉鎖等,0,2022-09-06,2022-08-31,合同会社ＭＭ０,,合同会社,長崎県,長崎市,本河内１丁目１８番１３号マンション多喜３０３号,,42,201,8500012,,,2022-08-31,清算の結了等,,,2020-10-01,1,,,,,エムエムゼロ,0
588,2420002002272,登記記録の閉鎖等,0,2022-09-06,2022-09-01,有限会社野村産業,,有限会社,青森県,青森市,大字三内字沢部１０４番地１,,02,201,0380031,,,2022-09-01,清算の結了等,,,2015-10-05,1,,,,,ノムラサンギョウ,0
598,2470002006533,登記記録の閉鎖等,0,2022-09-06,2022-09-02,有限会社丸昭貨物配送センター,,有限会社,香川県,高松市,六条町９９２番地６,,37,201,7610303,,,2022-09-02,清算の結了等,,,2015-10-05,1,,,,,マルショウカモツハイソウセンター,0
607,3010001135353,登記記録の閉鎖等,0,2022-09-06,2022-09-01,ＥＰＳインターナショナル株式会社,,株式会社,東京都,新宿区,津久戸町１番８号,,13,104,1620821,,,2022-09-01,合併による解散等,1011101070467,令和４年９月１日東京都新宿区下宮比町２番２３号イーピーエス株式会社（1011101070467）に合併し解散,2015-10-05,1,,,,,イーピーエスインターナショナル,0
608,3010001137556,登記記録の閉鎖等,0,2022-09-06,2022-09-01,アール・イー・コンサルティング株式会社,,株式会社,東京都,千代田区,平河町２丁目５番７号,,13,101,1020093,,,2022-09-01,清算の結了等,,,2015-10-05,1,,,,,アールイーコンサルティング,0
612,3010001207953,登記記録の閉鎖等,0,2022-09-06,2022-08-31,株式会社大家族,,株式会社,東京都,中央区,勝どき１丁目１３番６－４００３号,,13,102,1040054,,,2022-08-31,清算の結了等,,,2020-03-05,1,,,,,ダイカゾク,0
617,3010001215320,登記記録の閉鎖等,0,2022-09-06,2022-08-31,株式会社Ｏｎ　Ｔｈｅ　Ｆｌｙ,,株式会社,東京都,千代田区,大手町１丁目６番１号大手町ビル３階,,13,101,1000004,,,2022-08-31,清算の結了等,,,2021-01-22,1,,,,,オンザフライ,0
629,3010401144557,登記記録の閉鎖等,0,2022-09-06,2022-08-15,ＴＯＧＡ　ＪＡＰＡＮ株式会社,,株式会社,東京都,港区,浜松町２丁目１番１３号芝エクセレントビル８階,,13,103,1050013,,,2022-08-15,清算の結了等,,,2019-03-25,1,,,,,トーガジャパン,0
663,3011401003653,登記記録の閉鎖等,0,2022-09-06,2022-09-01,第一興業株式会社,,株式会社,東京都,板橋区,舟渡２丁目２５番７号,,13,119,1740041,,,2022-09-01,合併による解散等,6011401003659,令和４年９月１日東京都板橋区舟渡二丁目９番８号第一硝子株式会社（6011401003659）に合併し解散,2015-10-05,1,,,,,ダイイチコウギョウ,0
665,3011401014163,登記記録の閉鎖等,0,2022-09-06,2022-09-01,株式会社ＫＩＹＯＭＩ,,株式会社,東京都,板橋区,相生町３番９号,,13,119,1740044,,,2022-09-01,清算の結了等,,,2015-10-05,1,,,,,キヨミ,0
699,3020002097567,登記記録の閉鎖等,0,2022-09-06,2022-08-31,鈴木瀘業有限会社,00011642,有限会社,神奈川県,川崎市川崎区,四谷下町１４番９号,,14,131,2100827,,,2022-08-31,清算の結了等,,,2015-10-05,1,,,,,スズキロギョウ,0
750,3080102008451,登記記録の閉鎖等,0,2022-09-06,2022-09-02,有限会社土屋樹脂製作所,,有限会社,静岡県,伊豆の国市,田原野１５３番地の１,,22,225,4102313,,,2022-09-02,清算の結了等,,,2015-10-05,1,,,,,ツチヤジュシセイサクショ,0
754,3080405007191,登記記録の閉鎖等,0,2022-09-06,2022-08-31,一般社団法人ＳＡ－ＤＲＥＡＭ,,その他の設立登記法人,静岡県,浜松市東区,小池町２６１８番地の１,,22,132,4350056,,,2022-08-31,清算の結了等,,,2019-10-09,1,,,,,エスエードリーム,0
761,3110005009997,登記記録の閉鎖等,0,2022-09-06,2022-09-01,行政書士法人経営ブレイン,,その他の設立登記法人,新潟県,上越市,北城町４丁目６番８号,,15,222,9430824,,,2022-09-01,清算の結了等,,,2015-10-05,1,,,,,ケイエイブレイン,0
784,3120002043107,登記記録の閉鎖等,0,2022-09-06,2022-09-02,有限会社こがんコーポレーション,,有限会社,大阪府,大阪市淀川区,西中島５丁目６番１６号,,27,123,5320011,,,2022-09-02,清算の結了等,,,2015-10-05,1,,,,,コガンコーポレーション,0
792,3120101045169,登記記録の閉鎖等,0,2022-09-06,2022-09-02,株式会社オールスター,,株式会社,大阪府,泉佐野市,日根野２１１１－３,,27,213,5980021,,,2022-09-02,清算の結了等,,,2015-10-05,1,,,,,,0
796,3120102000825,登記記録の閉鎖等,0,2022-09-06,2022-09-01,有限会社エレガンス,,有限会社,大阪府,堺市東区,関茶屋９５番地の１,,27,143,5998115,,,2022-09-01,清算の結了等,,,2015-10-05,1,,,,,エレガンス,0
815,3140001114138,登記記録の閉鎖等,0,2022-09-06,2022-08-29,株式会社ハリマトーシン,,株式会社,兵庫県,加古郡播磨町,東本荘１丁目５番２１号クリエートビル３階,,28,382,6750156,,,2022-08-29,清算の結了等,,,2019-07-05,1,,,,,ハリマトーシン,0
819,3140003010987,登記記録の閉鎖等,0,2022-09-06,2022-09-01,合同会社燦燦ソーラー,,合同会社,兵庫県,加古郡稲美町,国岡５丁目１５６番,,28,381,6751115,,,2022-09-01,合併による解散等,7140001046121,令和４年９月１日兵庫県加古郡稲美町国岡五丁目１５６番地株式会社ＹＭＳコーポレーション（7140001046121）に合併し解散,2015-10-23,1,,,,,サンサンソーラー,0
825,3160001002431,登記記録の閉鎖等,0,2022-09-06,2022-09-01,株式会社ワイズ・マーケットプレイス,,株式会社,滋賀県,大津市,今堅田２丁目３３番１０号,,25,201,5200241,,,2022-09-01,合併による解散等,8160001002518,令和４年９月１日滋賀県大津市今堅田二丁目３３番１０号株式会社ゲインコーポレーション（8160001002518）に合併し解散,2015-10-05,1,,,,,ワイズマーケットプレイス,0
856,3220002016507,登記記録の閉鎖等,0,2022-09-06,2022-08-31,有限会社板坂解体,,有限会社,石川県,河北郡津幡町,字能瀬ハ１４２番地１,,17,361,9290319,,,2022-08-31,清算の結了等,,,2015-10-05,1,,,,,イタサカカイタイ,0
866,3250001018303,登記記録の閉鎖等,0,2022-09-06,2022-08-30,成長株式会社,,株式会社,山口県,防府市,国衙１丁目９番１３号,,35,206,7470024,,,2022-08-30,清算の結了等,,,2020-06-03,1,,,,,セイチョウ,0
876,3280005004692,登記記録の閉鎖等,0,2022-09-06,2022-09-02,浜田市水道事業協同組合,,その他の設立登記法人,島根県,浜田市,黒川町４１９５番地,,32,202,6970024,,,2022-09-02,清算の結了等,,,2015-10-05,1,,,,,ハマダシスイドウ,0
883,3290002047611,登記記録の閉鎖等,0,2022-09-06,2022-08-31,有限会社松藤,,有限会社,福岡県,筑後市,大字溝口１２６１番地の１,,40,211,8330012,,,2022-08-31,清算の結了等,,,2015-10-05,1,,,,,マツフジ,0
890,3310002011003,登記記録の閉鎖等,0,2022-09-06,2022-09-02,有限会社冨永工機製作所,,有限会社,長崎県,佐世保市,長坂町７０３番地４,,42,202,8580921,,,2022-09-02,清算の結了等,,,2015-10-05,1,,,,,トミナガコウキセイサクショ,0
910,3380002003514,登記記録の閉鎖等,0,2022-09-06,2022-09-01,有限会社マルセン商事,,有限会社,福島県,福島市,森合字台３番地の１８,,07,201,9608003,,,2022-09-01,清算の結了等,,,2015-10-05,1,,,,,マルセン,0
911,3380005007768,登記記録の閉鎖等,0,2022-09-06,2022-09-02,ふたば夢工房企業組合,,その他の設立登記法人,福島県,双葉郡双葉町,大字前田字舘下１１番地の２,,07,546,9791421,,,2022-09-02,清算の結了等,,,2015-10-05,1,,,,,,0
916,3400002001151,登記記録の閉鎖等,0,2022-09-06,2022-09-01,有限会社ケーワイケープランニング,,有限会社,岩手県,盛岡市,菜園１丁目１１番３号カガヤ菜園ビル８階,,03,201,0200024,,,2022-09-01,合併による解散等,6400001003591,令和４年９月１日岩手県盛岡市菜園一丁目１１番３号カガヤ菜園ビル８階株式会社ランデック都市開発（6400001003591）に合併し解散,2015-10-05,1,,,,,ケーワイケープランニング,0
923,3470001014362,登記記録の閉鎖等,0,2022-09-06,2022-09-01,株式会社オフィスフジワラ,,株式会社,香川県,高松市,宮脇町１丁目１８番２２号,,37,201,7600005,,,2022-09-01,清算の結了等,,,2015-10-05,1,,,,,オフィスフジワラ,0
938,4010001098070,登記記録の閉鎖等,0,2022-09-06,2022-08-31,みつわ株式会社,,株式会社,東京都,中央区,八丁堀２丁目１８番１０号,,13,102,1040032,,,2022-08-31,清算の結了等,,,2015-10-05,1,,,,,ミツワ,0
946,4010001218710,登記記録の閉鎖等,0,2022-09-06,2022-08-31,株式会社Ｔｅａｍ　ＩＺ,,株式会社,東京都,千代田区,大手町１丁目６番１号大手町ビル３階,,13,101,1000004,,,2022-08-31,清算の結了等,,,2021-06-10,1,,,,,チームアイジー,0
990,4011101017993,登記記録の閉鎖等,0,2022-09-06,2022-09-01,株式会社ビジネス情報,,株式会社,東京都,新宿区,西新宿７丁目５番２５号,,13,104,1600023,,,2022-09-01,清算の結了等,,,2015-10-05,1,,,,,ビジネスジョウホウ,0
1005,4012401003238,登記記録の閉鎖等,0,2022-09-06,2022-08-30,株式会社日本精密技術研究所,,株式会社,東京都,小金井市,中町４丁目１７番７号,,13,210,1840012,,,2022-08-30,清算の結了等,,,2015-10-05,1,,,,,ニホンセイミツギジュツケンキュウショ,0
1025,4020002015478,登記記録の閉鎖等,0,2022-09-06,2022-09-02,株式会社まるひろ商事,,株式会社,神奈川県,横浜市青葉区,藤が丘１丁目３番地２４,,14,117,2270043,,,2022-09-02,合併による解散等,7040001111975,令和４年８月３０日千葉市美浜区中瀬一丁目５番地１イオンネクスト株式会社（7040001111975）に合併し解散,2015-10-05,1,,,,,マルヒロショウジ,0
1026,4020002042761,登記記録の閉鎖等,0,2022-09-06,2022-09-01,有限会社三晶建物,,有限会社,神奈川県,横浜市中区,常盤町４丁目４２番地２号,,14,104,2310014,,,2022-09-01,合併による解散等,8020001025078,令和４年９月１日横浜市中区常盤町四丁目４５番地株式会社アート宝飾（8020001025078）に合併し解散,2015-10-05,1,,,,,サンショウタテモノ,0
1029,4020002106450,登記記録の閉鎖等,0,2022-09-06,2022-08-31,有限会社プロフィッツ,,有限会社,神奈川県,横浜市神奈川区,三ツ沢西町８番８号クレセント三ツ沢１０６号,,14,102,2210855,,,2022-08-31,清算の結了等,,,2015-10-05,1,,,,,プロフィッツ,0
1030,4020003009231,登記記録の閉鎖等,0,2022-09-06,2022-08-26,ブラックバード合同会社,,合同会社,神奈川県,横浜市中区,吉田町１０番地２０３号,,14,104,2310041,,,2022-08-26,清算の結了等,,,2015-10-05,1,,,,,ブラックバード,0
1033,4021001001238,登記記録の閉鎖等,0,2022-09-06,2022-08-31,総和工業株式会社,,株式会社,神奈川県,藤沢市,亀井野２３９９番地,,14,205,2520813,,,2022-08-31,清算の結了等,,,2015-10-05,1,,,,,ソウワコウギョウ,0
1034,4021001039088,登記記録の閉鎖等,0,2022-09-06,2022-08-31,エスアールイー株式会社,,株式会社,神奈川県,中郡二宮町,富士見が丘１丁目２９番１７号,,14,342,2590122,,,2022-08-31,清算の結了等,,,2015-10-05,1,,,,,エスアールイー,0
1041,4030001094191,登記記録の閉鎖等,0,2022-09-06,2022-08-24,株式会社クレシェンド,,株式会社,埼玉県,行田市,大字荒木２０１５番地,,11,206,3610011,,,2022-08-24,清算の結了等,,,2015-10-05,1,,,,,クレシェンド,0
1055,4040005004410,登記記録の閉鎖等,0,2022-09-06,2022-09-01,特定非営利活動法人ままる子育てコミュニケーション,,その他の設立登記法人,千葉県,市川市,市川南３丁目１２番パークシティ市川Ｅ－託児室,,12,203,2720033,,,2022-09-01,清算の結了等,,,2015-10-05,1,,,,,,0
1096,4110005009393,登記記録の閉鎖等,0,2022-09-06,2022-09-01,税理士法人経営ブレイン,,その他の設立登記法人,新潟県,上越市,北城町４丁目６番８号,,15,222,9430824,,,2022-09-01,清算の結了等,,,2015-10-05,1,,,,,ケイエイブレイン,0
1100,4120001031821,登記記録の閉鎖等,0,2022-09-06,2022-09-05,株式会社山口工務店,,株式会社,大阪府,大阪市住之江区,粉浜１丁目１９番８号,,27,125,5590001,,,2022-09-05,清算の結了等,,,2015-10-05,1,,,,,ヤマグチコウムテン,0
1115,4120005012009,登記記録の閉鎖等,0,2022-09-06,2022-09-02,一般財団法人日本研究所,,その他の設立登記法人,大阪府,大阪市住吉区,清水丘３丁目１６番１３号,,27,120,5580033,,,2022-09-02,清算の結了等,,,2015-10-05,1,,,,,ニホンケンキュウショ,0
1117,4120102022380,登記記録の閉鎖等,0,2022-09-06,2022-09-01,株式会社西原観光バス,,株式会社,大阪府,貝塚市,麻生中１００５番地１コスモスハイツＡ－２０３号室,,27,208,5970081,,,2022-09-01,清算の結了等,,,2015-10-05,1,,,,,ニシハラカンコウバス,0
1122,4120901000768,登記記録の閉鎖等,0,2022-09-06,2022-09-02,国光産業株式会社,,株式会社,大阪府,寝屋川市,松屋町１９番１－９２９号,,27,215,5720086,,,2022-09-02,清算の結了等,,,2015-10-05,1,,,,,コッコウサンギョウ,0
1144,4140002006812,登記記録の閉鎖等,0,2022-09-06,2022-08-31,有限会社ライト,,有限会社,兵庫県,神戸市長田区,若松町４丁目２番１５－２７０５号,,28,106,6530038,,,2022-08-31,清算の結了等,,,2015-10-05,1,,,,,ライト,0
1154,4180001013905,登記記録の閉鎖等,0,2022-09-06,2022-09-02,株式会社若木屋良恭,,株式会社,愛知県,名古屋市北区,大曽根２丁目８番２４号,,23,103,4620825,,,2022-09-02,清算の結了等,,,2015-10-05,1,,,,,ワカギヤヨシヤス,0
1179,4230001000856,登記記録の閉鎖等,0,2022-09-06,2022-09-05,株式会社カタグチ,,株式会社,富山県,富山市,粟島町１丁目８番５５号,,16,201,9318314,,,2022-09-05,清算の結了等,,,2015-10-05,1,,,,,カタグチ,0
1198,4290002032892,登記記録の閉鎖等,0,2022-09-06,2022-08-31,有限会社ブティック妙子,,有限会社,福岡県,糸島市,前原中央２丁目３番５３号,,40,230,8191116,,,2022-08-31,清算の結了等,,,2015-10-05,1,,,,,ブティックタエコ,0
1199,4290003007150,登記記録の閉鎖等,0,2022-09-06,2022-08-31,合同会社Ｓ・Ｅ・Ｍ,,合同会社,福岡県,福岡市博多区,麦野５丁目１０番８号,,40,132,8120882,,,2022-08-31,清算の結了等,,,2017-04-18,1,,,,,エスイーエム,0
1235,4450005000467,登記記録の閉鎖等,0,2022-09-06,2022-09-05,大雪漁業生産組合,,その他の設立登記法人,北海道,上川郡上川町,字東雲５２７番地の８,,01,457,0781731,,,2022-09-05,清算の結了等,,,2015-10-05,1,,,,,タイセツ,0
1236,4470005003204,登記記録の閉鎖等,0,2022-09-06,2022-09-02,今治造船グループ事業協同組合,,その他の設立登記法人,香川県,丸亀市,昭和町３０番地,,37,202,7630061,,,2022-09-02,清算の結了等,,,2015-10-05,1,,,,,イマバリゾウセングループ,0
1287,5010602009978,登記記録の閉鎖等,0,2022-09-06,2022-08-31,有限会社吾妻工芸社,,有限会社,東京都,墨田区,東向島２丁目１７番１０号,,13,107,1310032,,,2022-08-31,清算の結了等,,,2015-10-05,1,,,,,アヅマコウゲイシャ,0
1288,5010602016264,登記記録の閉鎖等,0,2022-09-06,2022-08-23,有限会社和商,,有限会社,東京都,墨田区,向島２丁目１０番６号,,13,107,1310033,,,2022-08-23,清算の結了等,,,2015-10-05,1,,,,,カズショウ,0
1338,5013302016591,登記記録の閉鎖等,0,2022-09-06,2022-08-31,株式会社グリーン・マネジメント,,株式会社,東京都,豊島区,南池袋２丁目２６番５号,,13,116,1710022,,,2022-08-31,合併による解散等,2020002072703,令和４年８月３１日東京都豊島区南池袋二丁目２６番５号株式会社パストール総業（2020002072703）に合併し解散,2015-10-05,1,,,,,グリーンマネジメント,0
1378,5040002087473,登記記録の閉鎖等,0,2022-09-06,2022-08-31,有限会社ケイズファーム,,有限会社,千葉県,香取郡神崎町,神崎本宿字高崎前６７２番地４,,12,342,2890221,,,2022-08-31,清算の結了等,,,2015-10-05,1,,,,,ケイズファーム,0
1384,5060002011068,登記記録の閉鎖等,0,2022-09-06,2022-08-31,有限会社角田商店,,有限会社,栃木県,河内郡上三川町,大字下神主３３２番地,,09,301,3290529,,,2022-08-31,清算の結了等,,,2015-10-05,1,,,,,カクタショウテン,0
1389,5070002036139,登記記録の閉鎖等,0,2022-09-06,2022-08-31,有限会社リンク・ステーション,,有限会社,群馬県,吾妻郡嬬恋村,大字鎌原字大カイシコ１５１３番地５,,10,425,3771524,,,2022-08-31,清算の結了等,,,2015-10-05,1,,,,,,0
1392,5080001001753,登記記録の閉鎖等,0,2022-09-06,2022-09-01,株式会社ザ・太陽,,株式会社,静岡県,静岡市葵区,瀬名４６２９番地の１,,22,101,4200911,,,2022-09-01,清算の結了等,,,2015-10-05,1,,,,,ザタイヨウ,0
1397,5080401010461,登記記録の閉鎖等,0,2022-09-06,2022-08-31,株式会社協栄,,株式会社,静岡県,浜松市浜北区,平口５２４７番地,,22,136,4340041,,,2022-08-31,合併による解散等,5080401001428,令和４年８月３１日静岡県浜松市浜北区平口５２４７番地株式会社協栄工業（5080401001428）に合併し解散,2015-10-05,1,,,,,キョウエイ,0
1415,5120001158168,登記記録の閉鎖等,0,2022-09-06,2022-09-01,株式会社まむ多,,株式会社,大阪府,門真市,上島町４８番２号,,27,223,5710071,,,2022-09-01,清算の結了等,,,2015-10-05,1,,,,,マムタ,0
1442,5122001000210,登記記録の閉鎖等,0,2022-09-06,2022-08-31,旭紙工工業株式会社,,株式会社,大阪府,東大阪市,御厨東１丁目２番２９号,,27,227,5770033,,,2022-08-31,清算の結了等,,,2015-10-05,1,,,,,アサヒシコウコウギョウ,0
1447,5130002024269,登記記録の閉鎖等,0,2022-09-06,2022-08-30,有限会社カネマツ,,有限会社,京都府,京都市山科区,大宅御所田町２番地の１７,,26,110,6078179,,,2022-08-30,清算の結了等,,,2015-10-05,1,,,,,カネマツ,0
1456,5160002008434,登記記録の閉鎖等,0,2022-09-06,2022-09-01,有限会社西軽,,有限会社,滋賀県,愛知郡愛荘町,矢守４９番地,,25,425,5291228,,,2022-09-01,清算の結了等,,,2015-10-05,1,,,,,ニシケイ,0
1458,5180001128413,登記記録の閉鎖等,0,2022-09-06,2022-08-31,株式会社スワン,,株式会社,愛知県,名古屋市中区,栄４丁目８番７号,,23,106,4600008,,,2022-08-31,清算の結了等,,,2017-06-27,1,,,,,スワン,0
1464,5180005008917,登記記録の閉鎖等,0,2022-09-06,2022-08-15,如々庵,,その他の設立登記法人,愛知県,瀬戸市,穴田町５２４番地,,23,204,4890003,,,2022-08-15,合併による解散等,5180005000436,令和４年８月１５日名古屋市熱田区旗屋一丁目１０番３９号青大悲寺（5180005000436）に合併し解散,2015-10-05,1,,,,,,0
1472,5190002008142,登記記録の閉鎖等,0,2022-09-06,2022-09-01,朝日タクシー有限会社,,有限会社,三重県,伊勢市,曽祢１丁目１０番１号,,24,203,5160078,,,2022-09-01,清算の結了等,,,2015-10-05,1,,,,,アサヒタクシー,0
1484,5240001022254,登記記録の閉鎖等,0,2022-09-06,2022-09-01,アイメディアス株式会社,,株式会社,広島県,広島市中区,銀山町３番１号ひろしまハイビル１６Ｆ,,34,101,7300022,,,2022-09-01,清算の結了等,,,2015-10-05,1,,,,,アイメディアス,0
1514,5340002003607,登記記録の閉鎖等,0,2022-09-06,2022-09-05,有限会社クラランス,,有限会社,鹿児島県,鹿児島市,西千石町６番２１号,,46,201,8920847,,,2022-09-05,清算の結了等,,,2015-10-05,1,,,,,,0
1526,5380005003096,登記記録の閉鎖等,0,2022-09-06,2022-08-17,日本基督教団郡山細沼教会,,その他の設立登記法人,福島県,郡山市,細沼町８番１２号,,07,203,9638015,,,2022-08-17,合併による解散等,7380005003094,令和４年８月１７日福島県郡山市清水台二丁目６番４号日本基督教団郡山教会（7380005003094）に合併し解散,2015-10-05,1,,,,,ニホンキリストキョウダンコオリヤマホソヌマキョウカイ,0
1535,5480001010210,登記記録の閉鎖等,0,2022-09-06,2022-09-01,株式会社光洋,,株式会社,徳島県,徳島市,昭和町８丁目１番地,,36,201,7700942,,,2022-09-01,合併による解散等,8480001003228,令和４年９月１日徳島市昭和町八丁目１番地株式会社旭洋（8480001003228）に合併し解散,2017-12-19,1,,,,,コウヨウ,0
1538,5500001012617,登記記録の閉鎖等,0,2022-09-06,2022-09-01,株式会社フィールドブルー,,株式会社,愛媛県,今治市,衣干町３丁目３番２９号,,38,202,7940813,,,2022-09-01,合併による解散等,7500001011872,令和４年９月１日愛媛県今治市衣干町四丁目２番２５号大和染工株式会社（7500001011872）に合併し解散,2015-10-05,1,,,,,フィールドブルー,0
1549,6010003035689,登記記録の閉鎖等,0,2022-09-06,2022-08-31,福島矢吹太陽光発電合同会社,,合同会社,東京都,千代田区,丸の内３丁目１番１号東京共同会計事務所内,,13,101,1000005,,,2022-08-31,清算の結了等,,,2021-08-31,1,,,,,フクシマヤブキタイヨウコウハツデン,0
1552,6010401070957,登記記録の閉鎖等,0,2022-09-06,2022-09-01,アイオン・トレーディング・ジャパン株式会社,,株式会社,東京都,千代田区,丸の内２丁目１番１号明治安田生命ビル６階,,13,101,1000005,,,2022-09-01,合併による解散等,6010001073815,令和４年９月１日東京都千代田区丸の内二丁目１番１号株式会社アイオン・グループ・ジャパン（6010001073815）に合併し解散,2015-10-05,1,,,,,アイオントレーディングジャパン,0
1573,6010903003497,登記記録の閉鎖等,0,2022-09-06,2022-09-01,合同会社大竹企画,,合同会社,東京都,世田谷区,瀬田５丁目９番９号,,13,112,1580095,,,2022-09-01,清算の結了等,,,2017-02-15,1,,,,,オオタケキカク,0
1593,6012301011784,登記記録の閉鎖等,0,2022-09-06,2022-09-01,株式会社東神サービス,,株式会社,東京都,町田市,相原町１８０３番地１８９,,13,209,1940211,,,2022-09-01,清算の結了等,,,2019-06-19,1,,,,,トウシンサービス,0
1601,6013201012773,登記記録の閉鎖等,0,2022-09-06,2022-08-31,株式会社キクロス・ディオ,,株式会社,東京都,渋谷区,渋谷１丁目１５番８号,,13,113,1500002,,,2022-08-31,合併による解散等,2010402036481,令和４年８月１日東京都港区南青山五丁目４番２４号アールイーオー株式会社（2010402036481）に合併し解散,2015-10-05,1,,,,,キクロスディオ,0
1637,6040002018072,登記記録の閉鎖等,0,2022-09-06,2022-08-31,有限会社エフエスエイ,,有限会社,千葉県,習志野市,袖ケ浦６丁目１５番２３号,,12,216,2750021,,,2022-08-31,清算の結了等,,,2015-10-05,1,,,,,エフエスエイ,0
1648,6050002044019,登記記録の閉鎖等,0,2022-09-06,2022-08-31,有限会社アトイーズサロンかよ,,有限会社,茨城県,桜川市,犬田１３０３番地の３,,08,231,3091217,,,2022-08-31,清算の結了等,,,2015-10-05,1,,,,,,0
1649,6050005005190,登記記録の閉鎖等,0,2022-09-06,2022-08-25,つくば市環境事業協同組合,,その他の設立登記法人,茨城県,つくば市,今鹿島３７７９番地,,08,220,3002641,,,2022-08-25,清算の結了等,,,2015-10-05,1,,,,,ツクバシカンキョウ,0
1651,6060002030653,登記記録の閉鎖等,0,2022-09-06,2022-08-31,有限会社下村工業,,有限会社,栃木県,下野市,花の木３丁目７番１６号,,09,216,3290518,,,2022-08-31,清算の結了等,,,2015-10-05,1,,,,,シモムラコウギョウ,0
1655,6070003000935,登記記録の閉鎖等,0,2022-09-06,2022-09-02,合名会社いづみ屋,,合名会社,群馬県,伊勢崎市,境３３３番地２,,10,204,3700124,,,2022-09-02,清算の結了等,,,2015-10-05,1,,,,,イヅミヤ,0
1673,6120001160750,登記記録の閉鎖等,0,2022-09-06,2022-09-02,株式会社Ｔプラス,,株式会社,奈良県,生駒市,北田原町１１１８番地５,,29,209,6300142,,,2022-09-02,合併による解散等,6120001175872,令和４年９月１日大阪市東成区玉津一丁目２番３号株式会社ジェネシスＨＤ（6120001175872）に合併し解散,2015-10-05,1,,,,,ティプラス,0
1734,6180002060663,登記記録の閉鎖等,0,2022-09-06,2022-08-31,有限会社サニングホーム,,有限会社,愛知県,名古屋市緑区,大高町字中屋敷５０番地,,23,114,4598001,,,2022-08-31,清算の結了等,,,2015-10-05,1,,,,,サニングホーム,0
1738,6180005008932,登記記録の閉鎖等,0,2022-09-06,2022-08-15,平等庵,,その他の設立登記法人,愛知県,瀬戸市,東町４０番地,,23,204,4890847,,,2022-08-15,合併による解散等,5180005000436,令和４年８月１５日名古屋市熱田区旗屋一丁目１０番３９号青大悲寺（5180005000436）に合併し解散,2015-10-05,1,,,,,,0
1741,6180301028659,登記記録の閉鎖等,0,2022-09-06,2022-08-31,ＣｏｍＭｏｎ　Ｇｏｏｄ株式会社,,株式会社,愛知県,額田郡幸田町,大字大草字広野２６番地１,,23,501,4440103,,,2022-08-31,清算の結了等,,,2015-12-08,1,,,,,コモングッド,0
1759,6220003002676,登記記録の閉鎖等,0,2022-09-06,2022-09-01,合名会社モンテ,,合名会社,石川県,金沢市,田上本町レ８番地,,17,201,9201155,,,2022-09-01,合併による解散等,3220001011657,令和４年９月１日石川県金沢市田上本町レ８番地合名会社ジュピター（3220001011657）に合併し解散,2019-10-07,1,,,,,モンテ,0
1780,6280002007654,登記記録の閉鎖等,0,2022-09-06,2022-09-02,有限会社水明館,,有限会社,島根県,大田市,波根町１３３６番地１,,32,205,6992211,,,2022-09-02,清算の結了等,,,2015-10-05,1,,,,,スイメイカン,0
1789,6300001008353,登記記録の閉鎖等,0,2022-09-06,2022-08-31,ウイングス株式会社,,株式会社,佐賀県,佐賀市,鍋島町大字八戸溝１４３７番地５,,41,201,8490932,,,2022-08-31,清算の結了等,,,2015-10-05,1,,,,,ウイングス,0
1790,6300001011687,登記記録の閉鎖等,0,2022-09-06,2022-08-31,株式会社トーケン,,株式会社,佐賀県,佐賀市,大和町尼寺３３８８番地３,,41,201,8490000,,,2022-08-31,清算の結了等,,,2019-04-26,1,,,,,トーケン,0
1798,6370001002977,登記記録の閉鎖等,0,2022-09-06,2022-08-30,小泉貴金属株式会社,,株式会社,宮城県,仙台市若林区,大和町３丁目１１番１－１０２号,,04,103,9840042,,,2022-08-30,清算の結了等,,,2015-10-05,1,,,,,コイズミキキンゾク,0
1802,6370502000422,登記記録の閉鎖等,0,2022-09-06,2022-08-31,旭総業有限会社,,有限会社,宮城県,本吉郡南三陸町,志津川字大森町８７番地,,04,606,9860732,,,2022-08-31,清算の結了等,,,2015-10-05,1,,,,,アサヒソウギョウ,0
1818,6470001006893,登記記録の閉鎖等,0,2022-09-06,2022-09-01,影山建設株式会社,,株式会社,香川県,綾歌郡綾川町,牛川４６７番地２地先,,37,387,7612208,,,2022-09-01,合併による解散等,8470001007774,令和４年９月１日香川県綾歌郡宇多津町浜一番丁１番地開成工業株式会社（8470001007774）に合併し解散,2015-10-05,1,,,,,カゲヤマケンセツ,0
1824,7010001195476,登記記録の閉鎖等,0,2022-09-06,2022-08-31,株式会社アプト,,株式会社,東京都,文京区,湯島３丁目４０番１号原ビル４Ｆ,,13,105,1130034,,,2022-08-31,合併による解散等,5010001173129,令和４年８月３１日東京都文京区湯島三丁目４０番１号原ビル４Ｆ株式会社ティーズプラニング（5010001173129）に合併し解散,2018-10-15,1,,,,,アプト,0
1825,7010001200871,登記記録の閉鎖等,0,2022-09-06,2022-07-19,Ｔａｔｓｕｊｉｎ株式会社,,株式会社,東京都,渋谷区,恵比寿４丁目３番１４号恵比寿ＳＳビル,,13,113,1500013,,,2022-07-19,合併による解散等,5010401147946,令和４年７月１日東京都渋谷区神泉町１０番１０号ＶＯＲＴ渋谷神泉ランク王株式会社（5010401147946）に合併し解散,2019-05-24,1,,,,,タツジン,0
1838,7010401017404,登記記録の閉鎖等,0,2022-09-06,2022-08-02,田丸金属株式会社,,株式会社,東京都,目黒区,柿の木坂１丁目３２番７号,,13,110,1520022,,,2022-08-02,清算の結了等,,,2015-10-05,1,,,,,タマルキンゾク,0
1878,7011303003541,登記記録の閉鎖等,0,2022-09-06,2022-08-31,４５１合同会社,,合同会社,東京都,杉並区,方南１丁目２８番１号明伸ピカソビル７Ｆ,,13,115,1680062,,,2022-08-31,清算の結了等,,,2020-01-28,1,,,,,ヨコイ,0
1883,7011602002987,登記記録の閉鎖等,0,2022-09-06,2022-09-01,有限会社北島商店,,有限会社,東京都,練馬区,田柄２丁目５０番６号,,13,120,1790073,,,2022-09-01,清算の結了等,,,2015-10-05,1,,,,,キタジマショウテン,0
1888,7012302004745,登記記録の閉鎖等,0,2022-09-06,2022-09-01,有限会社グリーン計画,,有限会社,東京都,八王子市,打越町１０９３番地３,,13,201,1920911,,,2022-09-01,清算の結了等,,,2015-10-05,1,,,,,グリーンケイカク,0
1893,7013302019741,登記記録の閉鎖等,0,2022-09-06,2022-09-01,有限会社吉田審美補綴,,有限会社,東京都,豊島区,南池袋２丁目４５番２－４１０４号,,13,116,1710022,,,2022-09-01,清算の結了等,,,2015-10-05,1,,,,,ヨシダシンビホテツ,0
1928,7030002075188,登記記録の閉鎖等,0,2022-09-06,2022-08-23,有限会社丸山マネキン紹介所,,有限会社,埼玉県,川越市,新宿町１丁目１４番地２５,,11,201,3501124,,,2022-08-23,清算の結了等,,,2015-10-05,1,,,,,マルヤママネキンショウカイジョ,0
1932,7040001020185,登記記録の閉鎖等,0,2022-09-06,2022-09-01,株式会社マット,,株式会社,千葉県,船橋市,浜町１丁目６番５－１０３号,,12,204,2730012,,,2022-09-01,清算の結了等,,,2015-10-05,1,,,,,マット,0
1935,7040001060173,登記記録の閉鎖等,0,2022-09-06,2022-09-01,株式会社カトウ自動車販売,,株式会社,千葉県,茂原市,法目３０２９番地１,,12,210,2994113,,,2022-09-01,合併による解散等,8040001058778,令和４年９月１日千葉県大網白里市上貝塚５６７番地株式会社加藤運輸（8040001058778）に合併し解散,2015-10-05,1,,,,,カトウジドウシャハンバイ,0
1952,7070001034083,登記記録の閉鎖等,0,2022-09-06,2022-09-01,株式会社ＧＲＩＴ,,株式会社,群馬県,高崎市,大八木町４３６番地１,,10,202,3700072,,,2022-09-01,清算の結了等,,,2017-10-30,1,,,,,グリット,0
1956,7080105002522,登記記録の閉鎖等,0,2022-09-06,2022-09-01,特定非営利活動法人静岡就労支援センター,,その他の設立登記法人,静岡県,裾野市,茶畑２０１６番地の５２,,22,220,4101121,,,2022-09-01,清算の結了等,,,2015-10-05,1,,,,,シズオカシュウロウシエンセンター,0
1965,7120001097918,登記記録の閉鎖等,0,2022-09-06,2022-09-01,ケイ・アイ・ティー株式会社,,株式会社,大阪府,大阪市中央区,備後町３丁目１番８号,,27,128,5410051,,,2022-09-01,合併による解散等,5120001103149,令和４年９月１日大阪市中央区備後町三丁目１番８号コイズミクロージング株式会社（5120001103149）に合併し解散,2015-10-05,1,,,,,ケイアイティー,0
1986,7120902002447,登記記録の閉鎖等,0,2022-09-06,2022-08-31,有限会社アルカサル,,有限会社,大阪府,吹田市,金田町２７番１１号,,27,205,5640045,,,2022-08-31,合併による解散等,2120901016527,令和４年８月３１日大阪府吹田市金田町３０番８号株式会社建成（2120901016527）に合併し解散,2015-10-05,1,,,,,アルカサル,0
2008,7160001000241,登記記録の閉鎖等,0,2022-09-06,2022-09-05,エムエス松原産業株式会社,,株式会社,滋賀県,大津市,苗鹿３丁目地先,,25,201,5200102,,,2022-09-05,清算の結了等,,,2015-10-05,1,,,,,エムエスマツバラサンギョウ,0
2017,7180001009594,登記記録の閉鎖等,0,2022-09-06,2022-09-02,株式会社ヤマイチ,,株式会社,愛知県,名古屋市昭和区,北山本町１丁目９番地の４,,23,107,4660016,,,2022-09-02,清算の結了等,,,2015-10-05,1,,,,,ヤマイチ,0
2035,7190001021367,登記記録の閉鎖等,0,2022-09-06,2022-09-01,鈴鹿ベジタブル株式会社,,株式会社,三重県,鈴鹿市,追分町２３６６番地の５,,24,207,5190313,,,2022-09-01,清算の結了等,,,2015-10-05,1,,,,,スズカベジタブル,0
2041,7200002023385,登記記録の閉鎖等,0,2022-09-06,2022-09-02,有限会社高山工業所,00077066,有限会社,岐阜県,中津川市,駒場１５４７番地の２３,,21,206,5080011,,,2022-09-02,清算の結了等,,,2015-10-05,1,,,,,タカヤマコウギョウショ,0
2054,7240001043117,登記記録の閉鎖等,0,2022-09-06,2022-09-01,株式会社はんどうハウス,,株式会社,広島県,広島市西区,横川町３丁目８番１０号,,34,104,7330011,,,2022-09-01,合併による解散等,7240001008912,令和４年９月１日広島市西区横川町三丁目８番１０号株式会社はんどう（7240001008912）に合併し解散,2015-10-05,1,,,,,ハンドウハウス,0
2083,7320003001592,登記記録の閉鎖等,0,2022-09-06,2022-08-31,合同会社末成・住まいまちづくり研究所,,合同会社,大分県,大分市,大手町３丁目２番３７号第５皐月マンション３０５号,,44,201,8700022,,,2022-08-31,清算の結了等,,,2015-10-05,1,,,,,スエナリスマイマチヅクリケンキュウショ,0
2110,7400002002138,登記記録の閉鎖等,0,2022-09-06,2022-09-02,有限会社テーラード・エム,,有限会社,岩手県,盛岡市,中央通３丁目１３番１８号,,03,201,0200021,,,2022-09-02,清算の結了等,,,2015-10-05,1,,,,,テーラードエム,0
2135,8010001194485,登記記録の閉鎖等,0,2022-09-06,2022-09-01,株式会社ネクスト・ステージ,,株式会社,東京都,中央区,銀座８丁目１７番５号,,13,102,1040061,,,2022-09-01,清算の結了等,,,2018-08-30,1,,,,,ネクストステージ,0
2197,8011601013027,登記記録の閉鎖等,0,2022-09-06,2022-08-26,ワールドコーポレーション株式会社,,株式会社,埼玉県,新座市,野寺２丁目６番２７号,,11,230,3520034,,,2022-08-26,清算の結了等,,,2015-10-05,1,,,,,ワールドコーポレーション,0
2198,8011601025294,登記記録の閉鎖等,0,2022-09-06,2022-08-31,三栄宅株式会社,,株式会社,東京都,練馬区,石神井町３丁目２５番２号２０１号室,,13,120,1770041,,,2022-08-31,清算の結了等,,,2021-07-29,1,,,,,サンエイタク,0
2214,8020002012496,登記記録の閉鎖等,0,2022-09-06,2022-09-02,有限会社日本ビジネスコンサルタント,,有限会社,神奈川県,横浜市戸塚区,上矢部町１２１３番地２８,,14,110,2450053,,,2022-09-02,清算の結了等,,,2015-10-05,1,,,,,ニホンビジネスコンサルタント,0
2216,8020002101101,登記記録の閉鎖等,0,2022-09-06,2022-09-02,有限会社クレフ音楽出版,,有限会社,神奈川県,川崎市宮前区,平２丁目７番３３号,,14,136,2160022,,,2022-09-02,清算の結了等,,,2015-10-05,1,,,,,,0
2261,8060002019265,登記記録の閉鎖等,0,2022-09-06,2022-08-31,有限会社川田農園,,有限会社,栃木県,芳賀郡益子町,大字大沢１９０８番地３,,09,342,3214104,,,2022-08-31,清算の結了等,,,2015-10-05,1,,,,,カワタノウエン,0
2265,8070002028281,登記記録の閉鎖等,0,2022-09-06,2022-08-26,有限会社エス・ワイ・メディカルサービス,,有限会社,群馬県,太田市,西本町６４番２４号,,10,205,3730033,,,2022-08-26,清算の結了等,,,2015-10-05,1,,,,,エスワイメディカルサービス,0
2290,8120001210454,登記記録の閉鎖等,0,2022-09-06,2022-09-02,株式会社ＡＢＲＯＡＤ　ＥＤＵＣＡＴＩＯＮ　ＴＲＡＤＥ　ＡＮＤ　ＣＯＮＳＵＬＴＩＮＧ　ＣＯＭＰＡＮＹ,,株式会社,大阪府,大阪市西区,北堀江１丁目３番２号ビーイング四ツ橋ビル６階,,27,106,5500014,,,2022-09-02,清算の結了等,,,2018-01-19,1,,,,,アブロードエデュケーショントレードアンドコンサルティングカンパニー,0
2319,8140002062579,登記記録の閉鎖等,0,2022-09-06,2022-09-01,有限会社森本,,有限会社,兵庫県,加西市,北条町北条１１８９番地,,28,220,6752312,,,2022-09-01,清算の結了等,,,2015-10-05,1,,,,,モリモト,0
2330,8180001132370,登記記録の閉鎖等,0,2022-09-06,2022-08-31,株式会社未来健康研究所,,株式会社,愛知県,稲沢市,朝府町１７番１－１０１２号,,23,220,4928268,,,2022-08-31,清算の結了等,,,2018-05-21,1,,,,,ミライケンコウケンキュウジョ,0
2331,8180001135241,登記記録の閉鎖等,0,2022-09-06,2022-09-01,株式会社スイムテック,,株式会社,愛知県,名古屋市東区,徳川町２１０９番地,,23,102,4610023,,,2022-09-01,清算の結了等,,,2019-01-21,1,,,,,スイムテック,0
2346,8200002009359,登記記録の閉鎖等,0,2022-09-06,2022-09-02,有限会社オーエム建設,,有限会社,岐阜県,瑞穂市,田之上３３番地の１,,21,216,5010304,,,2022-09-02,清算の結了等,,,2015-10-05,1,,,,,オーエムケンセツ,0
2352,8220001006719,登記記録の閉鎖等,0,2022-09-06,2022-08-30,丸三建設株式会社,,株式会社,石川県,金沢市,下安原町西２５８番地８,,17,201,9200371,,,2022-08-30,清算の結了等,,,2015-10-05,1,,,,,マルサンケンセツ,0
2371,8290001001399,登記記録の閉鎖等,0,2022-09-06,2022-08-31,新東企画株式会社,,株式会社,福岡県,福岡市南区,大楠２丁目２１番１５号,,40,134,8150082,,,2022-08-31,清算の結了等,,,2019-09-02,1,,,,,シントウキカク,0
2381,8290802002554,登記記録の閉鎖等,0,2022-09-06,2022-09-02,有限会社光洋電設,,有限会社,福岡県,北九州市小倉南区,中吉田１丁目１３番１０号,,40,107,8000204,,,2022-09-02,清算の結了等,,,2015-10-05,1,,,,,コウヨウデンセツ,0
2392,8340002027842,登記記録の閉鎖等,0,2022-09-06,2022-09-01,有限会社太信商事,,有限会社,鹿児島県,志布志市,志布志町安楽３１５２番地,,46,221,8997104,,,2022-09-01,合併による解散等,8340002027677,令和４年９月１日鹿児島県志布志市志布志町帖４７８６番地株式会社中山信商店（8340002027677）に合併し解散,2015-10-05,1,,,,,タイシンショウジ,0
2419,8430002049316,登記記録の閉鎖等,0,2022-09-06,2022-08-31,有限会社小林仙吉商店,,有限会社,北海道,岩見沢市,元町一条東７丁目２０番地,,01,210,0680054,,,2022-08-31,清算の結了等,,,2021-08-30,1,,,,,コバヤシセンキチショウテン,0
2432,9010001103635,登記記録の閉鎖等,0,2022-09-06,2022-09-01,ナインシグマ・アジアパシフィック株式会社,,株式会社,東京都,千代田区,内神田１丁目３番３号,,13,101,1010047,,,2022-09-01,合併による解散等,5010001185586,令和４年９月１日東京都千代田区内神田一丁目３番３号ナインシグマ・ホールディングス株式会社（5010001185586）に合併し解散,2015-10-05,1,,,,,ナインシグマアジアパシフィック,0
2444,9010002000526,登記記録の閉鎖等,0,2022-09-06,2022-08-31,有限会社イジィーミュージック・ハウス,,有限会社,東京都,文京区,湯島３丁目２１番１５号ユシマレミエビル２Ｆ,,13,105,1130034,,,2022-08-31,清算の結了等,,,2015-10-05,1,,,,,イジィーミュージックハウス,0
2450,9010103001051,登記記録の閉鎖等,0,2022-09-06,2022-07-29,東＿合同会社,00108677,合同会社,東京都,八王子市,南陽台２丁目３０番１３号・１Ｆ,,13,201,1920371,,,2022-07-29,合併による解散等,4010101012261,令和４年７月２６日東京都八王子市南陽台二丁目３０番１３号１Ｆ九九の宝蔵株式会社（4010101012261）に合併し解散,2016-12-12,1,,,,,,0
2490,9010902012546,登記記録の閉鎖等,0,2022-09-06,2022-08-31,有限会社ひとみ塗装店,,有限会社,東京都,杉並区,下高井戸１丁目１５番１７号,,13,115,1680073,,,2022-08-31,清算の結了等,,,2015-10-05,1,,,,,ヒトミトソウテン,0
2506,9011801032321,登記記録の閉鎖等,0,2022-09-06,2022-09-02,株式会社ラッシュ,,株式会社,東京都,台東区,浅草６丁目４１番４号,,13,106,1110032,,,2022-09-02,清算の結了等,,,2016-09-16,1,,,,,ラッシュ,0
2515,9013102001609,登記記録の閉鎖等,0,2022-09-06,2022-09-05,有限会社ラクテック,,有限会社,東京都,羽村市,小作台５丁目１番地の１ルミエール・シモダ２０８,,13,227,2050001,,,2022-09-05,清算の結了等,,,2015-10-05,1,,,,,,0
2535,9020003011100,登記記録の閉鎖等,0,2022-09-06,2022-09-02,合同会社楽しい珈琲,,合同会社,神奈川県,横浜市港北区,新横浜２丁目１４番３０号日総第１７ビル,,14,109,2220033,,,2022-09-02,清算の結了等,,,2016-03-23,1,,,,,タノシイコーヒー,0
2543,9030001073414,登記記録の閉鎖等,0,2022-09-06,2022-08-25,旭織物株式会社,,株式会社,埼玉県,さいたま市緑区,芝原３丁目２０番地９,,11,109,3360917,,,2022-08-25,清算の結了等,,,2015-10-05,1,,,,,アサヒオリモノ,0
2549,9030001130339,登記記録の閉鎖等,0,2022-09-06,2022-08-25,株式会社ヴァリュー・クリエーション,,株式会社,埼玉県,さいたま市岩槻区,大字真福寺１１１１番地１,,11,110,3390044,,,2022-08-25,清算の結了等,,,2019-04-15,1,,,,,ヴァリュークリエーション,0
2554,9030002010977,登記記録の閉鎖等,0,2022-09-06,2022-08-26,ハンズリミテッドコーポレーション有限会社,,有限会社,埼玉県,さいたま市西区,大字指扇３７４番地,,11,101,3310047,,,2022-08-26,清算の結了等,,,2015-10-05,1,,,,,ハンズリミテッドコーポレーション,0
2574,9070002003044,登記記録の閉鎖等,0,2022-09-06,2022-09-02,清和重機工業有限会社,,有限会社,群馬県,前橋市,下細井町１３８番地２,,10,201,3710054,,,2022-09-02,清算の結了等,,,2015-10-05,1,,,,,セイワジュウキコウギョウ,0
2579,9080401005152,登記記録の閉鎖等,0,2022-09-06,2022-09-01,株式会社丸高塗装工業所,,株式会社,静岡県,浜松市東区,有玉北町５８０番地,,22,132,4313121,,,2022-09-01,合併による解散等,2080401000903,令和４年９月１日静岡県浜松市東区大島町１６１４番地の１江間工業株式会社（2080401000903）に合併し解散,2015-10-05,1,,,,,マルタカトソウコウギョウショ,0
2586,9110001030695,登記記録の閉鎖等,0,2022-09-06,2022-08-31,株式会社村田商店,,株式会社,宮城県,仙台市青葉区,五橋１丁目５番３号,,04,101,9800022,,,2022-08-31,清算の結了等,,,2015-10-05,1,,,,,ムラタショウテン,0
2596,9120001073553,登記記録の閉鎖等,0,2022-09-06,2022-09-05,朝日新聞大阪シティ販売株式会社,,株式会社,大阪府,大阪市北区,西天満１丁目１０番８号,,27,127,5300047,,,2022-09-05,清算の結了等,,,2015-10-05,1,,,,,アサヒシンブンオオサカシティハンバイ,0
2607,9120101023433,登記記録の閉鎖等,0,2022-09-06,2022-09-01,株式会社大野,,株式会社,大阪府,堺市東区,日置荘田中町１８６番地の１,,27,143,5998113,,,2022-09-01,清算の結了等,,,2015-10-05,1,,,,,オオノ,0
2624,9130001043720,登記記録の閉鎖等,0,2022-09-06,2022-08-29,株式会社マルタンヤング,,株式会社,京都府,舞鶴市,南浜町２７番地５,,26,202,6250057,,,2022-08-29,清算の結了等,,,2015-10-05,1,,,,,マルタンヤング,0
2626,9130001049478,登記記録の閉鎖等,0,2022-09-06,2022-08-31,株式会社コニシホールディングス,,株式会社,京都府,福知山市,夜久野町小倉１４４５番地の２,,26,201,6291314,,,2022-08-31,清算の結了等,,,2015-10-05,1,,,,,コニシホールディングス,0
2649,9180003018410,登記記録の閉鎖等,0,2022-09-06,2022-08-26,合同会社ママのミカタ＆子供たちのミライ,,合同会社,愛知県,小牧市,篠岡１丁目４５スカイステージ３３－１０６号,,23,219,4850815,,,2022-08-26,清算の結了等,,,2017-11-09,1,,,,,ママノミカタアンドコドモタチノミライ,0
2656,9190002004113,登記記録の閉鎖等,0,2022-09-06,2022-09-01,有限会社コム,,有限会社,三重県,津市,岩田１２番５号,,24,201,5140838,,,2022-09-01,清算の結了等,,,2015-10-05,1,,,,,コム,0
2659,9200001019564,登記記録の閉鎖等,0,2022-09-06,2022-09-05,松嶋工業株式会社,,株式会社,岐阜県,美濃市,１７５６番地２,,21,207,5013701,,,2022-09-05,清算の結了等,,,2015-10-05,1,,,,,マツシマコウギョウ,0
2677,9260002020078,登記記録の閉鎖等,0,2022-09-06,2022-09-01,有限会社中野住建,,有限会社,岡山県,倉敷市,平田２７４番地の４,,33,202,7100003,,,2022-09-01,清算の結了等,,,2015-10-05,1,,,,,ナカノジュウケン,0
2714,9380002021799,登記記録の閉鎖等,0,2022-09-06,2022-09-01,鮫川縫製有限会社,,有限会社,福島県,石川郡浅川町,大字簑輪字大代１番地の１９,,07,504,9636217,,,2022-09-01,合併による解散等,9380001011636,令和４年９月１日福島県石川郡浅川町大字簑輪字大代１番地の１９ミドリ浅川衣料株式会社（9380001011636）に合併し解散,2015-10-05,1,,,,,サメガワホウセイ,0
2722,9400501000292,登記記録の閉鎖等,0,2022-09-06,2022-09-01,株式会社ヤマベ食品資材,,株式会社,岩手県,一関市,地主町７番１４号,,03,209,0210893,,,2022-09-01,清算の結了等,,,2015-10-05,1,,,,,ヤマベショクヒンシザイ,0
