sequenceNumber,corporateNumber,process,correct,updateDate,changeDate,name,nameImageId,kind,prefectureName,cityName,streetNumber,addressImageId,prefectureCode,cityCode,postCode,addressOutside,addressOutsideImageId,closeDate,closeCause,successorCorporateNumber,changeCause,assignmentDate,latest,enName,enPrefectureName,enCityName,enAddressOutside,furigana,hihyoji
21,1010605004096,新規,0,2022-06-23,2022-06-23,特定非営利活動法人寺子屋みなてらす,,その他の設立登記法人,東京都,江東区,東砂７丁目９－１３,,13,108,1360074,,,,,,,2022-06-23,1,,,,,テラコヤミナテラス,0
22,1010701042850,新規,0,2022-06-23,2022-06-23,レリー株式会社,,株式会社,東京都,品川区,中延６丁目１１番１５号,,13,109,1420053,,,,,,,2022-06-23,1,,,,,レリー,0
31,1010905004333,新規,0,2022-06-23,2022-06-23,一般社団法人日本映画制作適正化機構,,その他の設立登記法人,東京都,世田谷区,成城１丁目４番１号,,13,112,1570066,,,,,,,2022-06-23,1,,,,,ニホンエイガセイサクテキセイカキコウ,0
42,1011001148207,新規,0,2022-06-23,2022-06-23,雲クジラ株式会社,,株式会社,東京都,渋谷区,恵比寿４丁目３番５号７０４号室アークアウトソーシング株式会社内,,13,113,1500013,,,,,,,2022-06-23,1,,,,,クモクジラ,0
45,1011003014893,新規,0,2022-06-23,2022-06-23,合同会社フロム四十五,,合同会社,東京都,目黒区,柿の木坂３丁目３番２３号,,13,110,1520022,,,,,,,2022-06-23,1,,,,,フロムシジュウゴ,0
54,1011401024346,新規,0,2022-06-23,2022-06-23,株式会社こためろん,,株式会社,東京都,板橋区,清水町７４番１－５０５号,,13,119,1740053,,,,,,,2022-06-23,1,,,,,コタメロン,0
55,1011403003694,新規,0,2022-06-23,2022-06-23,カッツオ合同会社,,合同会社,東京都,板橋区,志村１丁目１９番地２６号トーケンハイム志村２０１,,13,119,1740056,,,,,,,2022-06-23,1,,,,,カッツオ,0
57,1011601026043,新規,0,2022-06-23,2022-06-23,株式会社Ａｃｘｙｚ　Ｃｒｅａｔｉｖ,,株式会社,東京都,練馬区,豊玉上２丁目２５番７号４０５,,13,120,1760011,,,,,,,2022-06-23,1,,,,,アクシズクリエイティブ,0
67,1013101008950,新規,0,2022-06-23,2022-06-23,ＭＡＥＤＡ電工株式会社,,株式会社,東京都,あきる野市,引田２番地３（８街区１０）,,13,228,1970834,,,,,,,2022-06-23,1,,,,,マエダデンコウ,0
76,1020003021998,新規,0,2022-06-23,2022-06-23,合同会社エアースカンパニー,,合同会社,神奈川県,横浜市磯子区,滝頭３丁目８番２７号,,14,107,2350012,,,,,,,2022-06-23,1,,,,,エアースカンパニー,0
77,1020005015585,新規,0,2022-06-23,2022-06-23,一般社団法人ＲＳＥ,,その他の設立登記法人,神奈川県,横浜市保土ケ谷区,岩井町３７番地６トータスマンション保土ケ谷３０２号,,14,106,2400023,,,,,,,2022-06-23,1,,,,,アールエスイー,0
81,1021001076316,新規,0,2022-06-23,2022-06-23,株式会社尾上,,株式会社,神奈川県,鎌倉市,山ノ内１５３番地,,14,204,2470062,,,,,,,2022-06-23,1,,,,,オノウエ,0
82,1021001076332,新規,0,2022-06-23,2022-06-23,株式会社松木組,,株式会社,神奈川県,平塚市,東真土４丁目１１－２４,,14,203,2540018,,,,,,,2022-06-23,1,,,,,マツキグミ,0
83,1021001076340,新規,0,2022-06-23,2022-06-23,株式会社彩海工房,,株式会社,神奈川県,相模原市南区,相模台６丁目１４番１０号,,14,153,2520321,,,,,,,2022-06-23,1,,,,,アヤミコウボウ,0
84,1021003011849,新規,0,2022-06-23,2022-06-23,合同会社ウスイ,,合同会社,神奈川県,横須賀市,馬堀海岸３丁目１２番１号,,14,201,2390801,,,,,,,2022-06-23,1,,,,,ウスイ,0
88,1030001148818,新規,0,2022-06-23,2022-06-23,株式会社ＭＩＲＡＩ,,株式会社,埼玉県,春日部市,豊町１丁目１番地１３,,11,214,3440066,,,,,,,2022-06-23,1,,,,,ミライ,0
89,1030001148834,新規,0,2022-06-23,2022-06-23,株式会社タノゴトライフ,,株式会社,埼玉県,上尾市,富士見１丁目２０番９号富士見団地,,11,219,3620041,,,,,,,2022-06-23,1,,,,,タノゴトライフ,0
97,1040001123935,新規,0,2022-06-23,2022-06-23,株式会社ＳＧＨＤ,,株式会社,千葉県,千葉市若葉区,高品町８９７番地７,,12,104,2640024,,,,,,,2022-06-23,1,,,,,エスジーエイチディー,0
98,1040001123943,新規,0,2022-06-23,2022-06-23,株式会社ＫＲ,,株式会社,千葉県,千葉市若葉区,千城台東３丁目３８番１１号,,12,104,2640002,,,,,,,2022-06-23,1,,,,,ケイアール,0
105,1040003020296,新規,0,2022-06-23,2022-06-23,Ｍｉｎ　Ｍｉｎ　Ｇｒｏｕｐ合同会社,,合同会社,千葉県,千葉市中央区,登戸１丁目１番１７号ＡＲＴＳＰＡＣＥＩＩ２階,00126979,12,101,2600032,,,,,,,2022-06-23,1,,,,,,0
106,1040003020305,新規,0,2022-06-23,2022-06-23,アダムスピーク合同会社,,合同会社,千葉県,浦安市,今川２丁目１１番２８号,,12,227,2790022,,,,,,,2022-06-23,1,,,,,アダムスピーク,0
108,1050001051268,新規,0,2022-06-23,2022-06-23,株式会社鈴,,株式会社,茨城県,稲敷郡阿見町,大字小池１６３１番地４,,08,443,3001157,,,,,,,2022-06-23,1,,,,,スズ,0
109,1050001051276,新規,0,2022-06-23,2022-06-23,株式会社吉田住建,,株式会社,茨城県,稲敷市,脇川７７２番地,,08,229,3000606,,,,,,,2022-06-23,1,,,,,ヨシダジュウケン,0
110,1050001051292,新規,0,2022-06-23,2022-06-23,株式会社エムケーホールディングス,,株式会社,茨城県,日立市,砂沢町２２０番地２,,08,202,3191418,,,,,,,2022-06-23,1,,,,,エムケーホールディングス,0
115,1070001039369,新規,0,2022-06-23,2022-06-23,株式会社ファースト,,株式会社,群馬県,館林市,東美園町１７－３オフィス美園２０２,,10,207,3740031,,,,,,,2022-06-23,1,,,,,ファースト,0
118,1090003002117,新規,0,2022-06-23,2022-06-23,合同会社弦月,,合同会社,山梨県,甲斐市,中下条４７２番地９２,,19,210,4000124,,,,,,,2022-06-23,1,,,,,ゲンゲツ,0
126,1110001036758,新規,0,2022-06-23,2022-06-23,株式会社Ｄｕｓｋ,,株式会社,新潟県,新潟市中央区,医学町通２番町１１,,15,103,9518124,,,,,,,2022-06-23,1,,,,,ダスク,0
134,1120001246793,新規,0,2022-06-23,2022-06-23,株式会社ＧＣＪ,,株式会社,大阪府,大阪市城東区,新喜多１丁目１番３号,,27,118,5360015,,,,,,,2022-06-23,1,,,,,ジーシージェー,0
135,1120001246810,新規,0,2022-06-23,2022-06-23,株式会社エコリンク,,株式会社,大阪府,門真市,本町７番１５号,,27,223,5710046,,,,,,,2022-06-23,1,,,,,エコリンク,0
136,1120001246835,新規,0,2022-06-23,2022-06-23,ＯｒａｎｇｅＳｔａｒ株式会社,,株式会社,大阪府,大阪市中央区,松屋町９番２０号ローレルステート松屋町４０１Ｂ,,27,128,5420067,,,,,,,2022-06-23,1,,,,,オレンジスター,0
137,1120001246884,新規,0,2022-06-23,2022-06-23,８株式会社,,株式会社,大阪府,大阪市北区,梅田１丁目１番３号大阪駅前第３ビル２５階,,27,127,5300001,,,,,,,2022-06-23,1,,,,,ハチ,0
138,1120001246901,新規,0,2022-06-23,2022-06-23,株式会社アクウェル,,株式会社,大阪府,大阪市東成区,玉津２丁目１０番６－５０３号,,27,115,5370023,,,,,,,2022-06-23,1,,,,,アクウェル,0
143,1120101065788,新規,0,2022-06-23,2022-06-23,株式会社ＳＴＫ,,株式会社,大阪府,高石市,千代田６丁目１１番９号,,27,225,5920005,,,,,,,2022-06-23,1,,,,,エスティーケイ,0
146,1120901046145,新規,0,2022-06-23,2022-06-23,アセット管理株式会社,,株式会社,大阪府,吹田市,内本町１丁目７番８号,,27,205,5640032,,,,,,,2022-06-23,1,,,,,アセットカンリ,0
148,1122001035994,新規,0,2022-06-23,2022-06-23,株式会社ＤｏＮ,,株式会社,大阪府,東大阪市,小若江３丁目７番７号,,27,227,5770818,,,,,,,2022-06-23,1,,,,,ドン,0
149,1122003002365,新規,0,2022-06-23,2022-06-23,合同会社Ｈ．Ｐ　Ｍａｒｔ,,合同会社,大阪府,東大阪市,岩田町１丁目１番８号コーポＳＡ２０１号,,27,227,5780941,,,,,,,2022-06-23,1,,,,,エイチピーマート,0
153,1130001072025,新規,0,2022-06-23,2022-06-23,京紅建設株式会社,,株式会社,京都府,船井郡京丹波町,豊田新宮谷２０５番地,,26,407,6220231,,,,,,,2022-06-23,1,,,,,キョウベニケンセツ,0
155,1130003008010,新規,0,2022-06-23,2022-06-23,合同会社つながる,,合同会社,京都府,京都市伏見区,淀本町２２４番地４,,26,109,6130903,,,,,,,2022-06-23,1,,,,,ツナガル,0
156,1130003008019,新規,0,2022-06-23,2022-06-23,ｍｅ　ｎｏｓｔａｌｇｉａ合同会社,,合同会社,京都府,京都市中京区,壬生仙念町１０番地５明光苑５０２号,,26,104,6048854,,,,,,,2022-06-23,1,,,,,ミーノスタルジア,0
168,1140001126465,新規,0,2022-06-23,2022-06-23,＿飴株式会社,00126980,株式会社,兵庫県,神戸市中央区,中山手通１丁目２０番１５号４Ｆ－２,,28,110,6500004,,,,,,,2022-06-23,1,,,,,ホウイ,0
169,1140001126507,新規,0,2022-06-23,2022-06-23,株式会社竹園ファシリティズ,,株式会社,兵庫県,芦屋市,岩園町３７番１７号,,28,206,6590013,,,,,,,2022-06-23,1,,,,,タケゾノファシリティズ,0
173,1140003017828,新規,0,2022-06-23,2022-06-23,合同会社とよだのみたらしだんご,,合同会社,兵庫県,朝来市,山東町矢名瀬町８９１－１,,28,225,6695103,,,,,,,2022-06-23,1,,,,,トヨダノミタラシダンゴ,0
179,1180001151848,新規,0,2022-06-23,2022-06-23,株式会社ＲＥＩＶＥＬ,,株式会社,愛知県,名古屋市東区,泉２丁目１１番４号,,23,102,4610001,,,,,,,2022-06-23,1,,,,,レイベル,0
198,1240001059969,新規,0,2022-06-23,2022-06-23,株式会社ＳＡＴ,,株式会社,広島県,廿日市市,桜尾１丁目６番４－４１０号,,34,213,7380004,,,,,,,2022-06-23,1,,,,,エスエーティー,0
199,1240001059977,新規,0,2022-06-23,2022-06-23,株式会社フィジウェイ,,株式会社,広島県,広島市安佐南区,東野１丁目１５番２０号,,34,105,7310111,,,,,,,2022-06-23,1,,,,,フィジウェイ,0
200,1240001059985,新規,0,2022-06-23,2022-06-23,株式会社ひろしま事業承継パートナーズ,,株式会社,広島県,広島市佐伯区,石内北１丁目２１番１８号,,34,108,7315109,,,,,,,2022-06-23,1,,,,,ヒロシマジギョウショウケイパートナーズ,0
202,1240003005681,新規,0,2022-06-23,2022-06-23,合同会社フルール,,合同会社,広島県,広島市西区,三篠町２丁目１５番１３号,,34,104,7330003,,,,,,,2022-06-23,1,,,,,フルール,0
204,1260001036982,新規,0,2022-06-23,2022-06-23,株式会社メディカルオクタゴン,,株式会社,岡山県,岡山市北区,今８丁目１４－２８今八丁目合同ビル,,33,101,7000975,,,,,,,2022-06-23,1,,,,,メディカルオクタゴン,0
205,1260003003956,新規,0,2022-06-23,2022-06-23,合同会社ＧＲＥＳＴＡＲＴ,,合同会社,岡山県,岡山市北区,弓之町１－２０ＳＫＩＰビル３Ｆ,,33,101,7000817,,,,,,,2022-06-23,1,,,,,グリスタート,0
211,1290003012665,新規,0,2022-06-23,2022-06-23,合同会社山口企画社,,合同会社,福岡県,古賀市,舞の里５丁目１４番３３号,,40,223,8113114,,,,,,,2022-06-23,1,,,,,ヤマグチキカクシャ,0
224,1350001017817,新規,0,2022-06-23,2022-06-23,株式会社実恵,,株式会社,宮崎県,宮崎市,花ケ島町柳ノ丸５３６番地１,,45,201,8800036,,,,,,,2022-06-23,1,,,,,ミノリエ,0
231,1360003012105,新規,0,2022-06-23,2022-06-23,合同会社Ｖｏｙｎｉｃｈ　ｗｒｉｔｉｎｇ,,合同会社,沖縄県,糸満市,潮崎町３丁目８番地の４,,47,210,9010364,,,,,,,2022-06-23,1,,,,,ヴォイニッチライティング,0
243,1410001013215,新規,0,2022-06-23,2022-06-23,株式会社まるい企画,,株式会社,秋田県,山本郡三種町,森岳字木戸沢２９番地１４,,05,348,0182303,,,,,,,2022-06-23,1,,,,,マルイキカク,0
249,1430003014028,新規,0,2022-06-23,2022-06-23,合同会社ｅｙａｓ,,合同会社,北海道,札幌市北区,新琴似八条１２丁目１番１３号,,01,102,0010908,,,,,,,2022-06-23,1,,,,,アイアス,0
254,1460103001468,新規,0,2022-06-23,2022-06-23,合同会社ネクストライフコーポレーション,,合同会社,北海道,河東郡音更町,宝来仲町南１丁目２番地１３,,01,631,0800135,,,,,,,2022-06-23,1,,,,,ネクストライフコーポレーション,0
257,1700150110345,新規,0,2022-06-23,2022-06-23,深＿市冠城世紀貿易有限公司,00126956,外国会社等,,,,,,,,中華人民共和国深＿市福田区福田街道崗廈社区彩田路３０６９号星河世紀Ａ棟２４１７Ｄ４,00126957,,,,,2022-06-23,1,,,,,シンセンシカンジョウセイキボウエキユウゲンコウシ,0
267,2010001227580,新規,0,2022-06-23,2022-06-23,株式会社ＮＭ１,,株式会社,東京都,千代田区,丸の内３丁目１番１号東京共同会計事務所内,,13,101,1000005,,,,,,,2022-06-23,1,,,,,エヌエムワン,0
279,2010601061363,新規,0,2022-06-23,2022-06-23,グランドケアシステム株式会社,,株式会社,東京都,墨田区,向島３丁目４５番１５－４０２号,,13,107,1310033,,,,,,,2022-06-23,1,,,,,グランドケアシステム,0
283,2010701042866,新規,0,2022-06-23,2022-06-23,ＳＪＪ株式会社,,株式会社,東京都,品川区,西五反田１丁目２４番４－１００７号,,13,109,1410031,,,,,,,2022-06-23,1,,,,,エスジェイジェイ,0
293,2011001148197,新規,0,2022-06-23,2022-06-23,Ｔｏｍａｔａｌｋ株式会社,,株式会社,東京都,渋谷区,神宮前６丁目２３番４号桑野ビル２階,,13,113,1500001,,,,,,,2022-06-23,1,,,,,トマトーク,0
294,2011001148214,新規,0,2022-06-23,2022-06-23,株式会社ノンロンリネス,,株式会社,東京都,渋谷区,幡ヶ谷２丁目２番１０号ヴィラ・グレイス２０１,,13,113,1510072,,,,,,,2022-06-23,1,,,,,ノンロンリネス,0
295,2011001148263,新規,0,2022-06-23,2022-06-23,株式会社エルキカク,,株式会社,東京都,目黒区,八雲５丁目１３番８号,,13,110,1520023,,,,,,,2022-06-23,1,,,,,エルキカク,0
296,2011001148271,新規,0,2022-06-23,2022-06-23,株式会社ＷＩＮＤＦＡＬＬ,,株式会社,東京都,渋谷区,代々木１丁目４５番４号代々木山陽ビル４階,,13,113,1510053,,,,,,,2022-06-23,1,,,,,ウインドフォール,0
300,2011203003852,新規,0,2022-06-23,2022-06-23,合同会社エムアンドエス,,合同会社,東京都,中野区,野方２丁目５６番１０号,,13,114,1650027,,,,,,,2022-06-23,1,,,,,エムアンドエス,0
306,2011701025398,新規,0,2022-06-23,2022-06-23,株式会社ひまわりインターナショナル,,株式会社,東京都,江戸川区,東小岩６丁目３３番１２－２０９号秀和レジデンス,,13,123,1330052,,,,,,,2022-06-23,1,,,,,ヒマワリインターナショナル,0
307,2011801040909,新規,0,2022-06-23,2022-06-23,株式会社玉龍,,株式会社,東京都,葛飾区,立石１丁目１－２立石Ｎフラット１０１号室,,13,122,1240012,,,,,,,2022-06-23,1,,,,,ギョクリュウ,0
308,2011801040917,新規,0,2022-06-23,2022-06-23,株式会社Ｋ・Ｍワークス,,株式会社,東京都,足立区,本木東町１８番８号,,13,121,1230854,,,,,,,2022-06-23,1,,,,,ケーエムワークス,0
310,2012401039333,新規,0,2022-06-23,2022-06-23,株式会社ａｌ＆ｍａｒｃ,,株式会社,東京都,調布市,小島町３丁目６７番地１２,,13,208,1820026,,,,,,,2022-06-23,1,,,,,アルアンドマーク,0
312,2012801021675,新規,0,2022-06-23,2022-06-23,株式会社カリフォルニア倶楽部,,株式会社,東京都,国分寺市,富士本２丁目３１番地１２,,13,214,1850031,,,,,,,2022-06-23,1,,,,,カリフォルニアクラブ,0
316,2013301049281,新規,0,2022-06-23,2022-06-23,株式会社トラディショナルコミュニケーション,,株式会社,東京都,豊島区,西池袋３丁目２１番１３号,,13,116,1710021,,,,,,,2022-06-23,1,,,,,トラディショナルコミュニケーション,0
324,2020001147051,新規,0,2022-06-23,2022-06-23,株式会社Ｉｍｐｒｏｖｅ,,株式会社,神奈川県,横浜市戸塚区,影取町２３９番地１グランドール影取１０９号,,14,110,2450064,,,,,,,2022-06-23,1,,,,,インプローブ,0
329,2020003021964,新規,0,2022-06-23,2022-06-23,合同会社ｖｅｎｔｕｒａ,,合同会社,神奈川県,川崎市高津区,上作延５９７－１－２０５,,14,134,2130034,,,,,,,2022-06-23,1,,,,,ヴェントゥラ,0
330,2020003021989,新規,0,2022-06-23,2022-06-23,ＢＬＵＥ　ＣＲＡＦＴ合同会社,,合同会社,神奈川県,横浜市都筑区,北山田１丁目１０番５号３Ｆ－０５,,14,118,2240021,,,,,,,2022-06-23,1,,,,,ブルークラフト,0
334,2021001076323,新規,0,2022-06-23,2022-06-23,株式会社祥和商事,,株式会社,神奈川県,藤沢市,湘南台２丁目３番地の３,,14,205,2520804,,,,,,,2022-06-23,1,,,,,ショウワショウジ,0
338,2021003011856,新規,0,2022-06-23,2022-06-23,オレンジモーメント合同会社,,合同会社,神奈川県,藤沢市,辻堂太平台２丁目３番２号,,14,205,2510044,,,,,,,2022-06-23,1,,,,,オレンジモーメント,0
344,2030001148833,新規,0,2022-06-23,2022-06-23,株式会社ｅｇｒｅｔ,,株式会社,埼玉県,所沢市,大字神米金２２番地の１１,,11,208,3590005,,,,,,,2022-06-23,1,,,,,イーグレット,0
354,2040001123934,新規,0,2022-06-23,2022-06-23,フェイスフルエステート株式会社,,株式会社,千葉県,成田市,公津の杜２丁目３８番地４,,12,211,2860048,,,,,,,2022-06-23,1,,,,,フェイスフルエステート,0
355,2040001123942,新規,0,2022-06-23,2022-06-23,株式会社イエリー,,株式会社,千葉県,千葉市美浜区,磯辺３丁目３６番１号,,12,106,2610012,,,,,,,2022-06-23,1,,,,,イエリー,0
356,2040001123967,新規,0,2022-06-23,2022-06-23,Ｌｕｘｕｒｙ　Ｓｔｙｌｅ株式会社,,株式会社,千葉県,千葉市中央区,松波４丁目２３番１２号ＧｅｍテラスＢ３０２号,,12,101,2600044,,,,,,,2022-06-23,1,,,,,ラグジュアリースタイル,0
360,2050001051267,新規,0,2022-06-23,2022-06-23,株式会社丸桂運輸,,株式会社,茨城県,水戸市,酒門町４２７７番地の２６,,08,201,3100841,,,,,,,2022-06-23,1,,,,,マルケイウンユ,0
363,2050003006632,新規,0,2022-06-23,2022-06-23,合同会社パイプ・ラン,,合同会社,茨城県,常陸大宮市,泉１８４番１４号,,08,225,3192144,,,,,,,2022-06-23,1,,,,,パイプラン,0
364,2050003006640,新規,0,2022-06-23,2022-06-23,合同会社Ａｐｐｅｙｏ,,合同会社,茨城県,水戸市,酒門町３２７９番地８クレール欅Ａ棟２０３号,,08,201,3100841,,,,,,,2022-06-23,1,,,,,アッペヨ,0
367,2060001035013,新規,0,2022-06-23,2022-06-23,株式会社Ｆａｓｈｉｏｎ　Ｍａｋｅｒ,,株式会社,栃木県,那須塩原市,東赤田３２１番地,,09,213,3292742,,,,,,,2022-06-23,1,,,,,ファッションメーカー,0
368,2060001035021,新規,0,2022-06-23,2022-06-23,株式会社ＷＡＬＫ　ＮＯＯＤＬＥ’ｓ,,株式会社,栃木県,宇都宮市,城南３丁目８番７号,,09,201,3210117,,,,,,,2022-06-23,1,,,,,ウォークヌードルズ,0
380,2090001017636,新規,0,2022-06-23,2022-06-23,株式会社Ｎｅｏ　Ｌｉｆｅ,,株式会社,山梨県,甲府市,住吉４丁目２３番１７号ウェルズ２１Ｄ棟,,19,201,4000851,,,,,,,2022-06-23,1,,,,,ネオライフ,0
381,2090003002116,新規,0,2022-06-23,2022-06-23,合同会社Ｌｕｏｎｔ,,合同会社,山梨県,富士吉田市,大明見３３３５番地,,19,202,4030003,,,,,,,2022-06-23,1,,,,,ルオント,0
385,2110001036757,新規,0,2022-06-23,2022-06-23,株式会社シンテック,,株式会社,新潟県,新潟市東区,逢谷内２丁目５番１５号,,15,102,9500814,,,,,,,2022-06-23,1,,,,,シンテック,0
400,2120001246850,新規,0,2022-06-23,2022-06-23,株式会社Ｓｉｇｎａｓ,,株式会社,大阪府,大阪市淀川区,西中島３丁目１２－５,,27,123,5320011,,,,,,,2022-06-23,1,,,,,シグナス,0
401,2120001246859,新規,0,2022-06-23,2022-06-23,株式会社信友,,株式会社,大阪府,大阪市西成区,天下茶屋北１丁目５番１号ウッドビレッジ５０２号室,,27,122,5570003,,,,,,,2022-06-23,1,,,,,シンユウ,0
402,2120001246875,新規,0,2022-06-23,2022-06-23,株式会社首里,,株式会社,大阪府,大阪市中央区,博労町３丁目１番８号チサンマンション心斎橋２番館４１０号,,27,128,5410059,,,,,,,2022-06-23,1,,,,,シュリ,0
403,2120001246883,新規,0,2022-06-23,2022-06-23,株式会社イビサ・リアルパートナーズ,,株式会社,大阪府,大阪市浪速区,難波中３丁目７番１７－１１１０号,,27,111,5560011,,,,,,,2022-06-23,1,,,,,イビサリアルパートナーズ,0
404,2120001246917,新規,0,2022-06-23,2022-06-23,株式会社Ｌクオリティ,,株式会社,大阪府,大阪市城東区,成育２丁目１６番１５号,,27,118,5360007,,,,,,,2022-06-23,1,,,,,エルクオリティ,0
405,2120003021962,新規,0,2022-06-23,2022-06-23,合同会社ＬＡＬＡ企画,,合同会社,大阪府,大阪市平野区,瓜破西２丁目１２番２９号２０３,,27,126,5470025,,,,,,,2022-06-23,1,,,,,ララキカク,0
414,2130001072024,新規,0,2022-06-23,2022-06-23,ＹＬ株式会社,,株式会社,京都府,宇治市,槇島町中川原１４３番地１,,26,204,6110041,,,,,,,2022-06-23,1,,,,,ワイエル,0
415,2130001072032,新規,0,2022-06-23,2022-06-23,株式会社ｔｒｅｓｓｅｓ,,株式会社,京都府,京都市南区,吉祥院船戸町２５番地８０,,26,107,6018330,,,,,,,2022-06-23,1,,,,,トレス,0
426,2140001126415,新規,0,2022-06-23,2022-06-23,株式会社エスフォー,,株式会社,兵庫県,川西市,大和東１丁目６３番地の１,,28,217,6660111,,,,,,,2022-06-23,1,,,,,エスフォー,0
427,2140001126497,新規,0,2022-06-23,2022-06-23,株式会社チェスマオ,,株式会社,兵庫県,芦屋市,上宮川町１番１２－３０４号,,28,206,6590061,,,,,,,2022-06-23,1,,,,,チェスマオ,0
436,2180001151822,新規,0,2022-06-23,2022-06-23,ＲＥＩＷＡ株式会社,,株式会社,愛知県,名古屋市中村区,黄金通１丁目１２番地,,23,105,4530804,,,,,,,2022-06-23,1,,,,,レイワ,0
437,2180001151830,新規,0,2022-06-23,2022-06-23,株式会社スリーアイランドトラスト,,株式会社,愛知県,名古屋市名東区,藤見が丘６０番地,,23,115,4650048,,,,,,,2022-06-23,1,,,,,スリーアイランドトラスト,0
438,2180001151839,新規,0,2022-06-23,2022-06-23,森虎国際貿易株式会社,,株式会社,愛知県,小牧市,新町２丁目２７５,,23,219,4850013,,,,,,,2022-06-23,1,,,,,モリトラコクサイボウエキ,0
439,2180001151847,新規,0,2022-06-23,2022-06-23,株式会社トップホールディングス,,株式会社,愛知県,江南市,高屋町十六田１５７番地の１,,23,217,4838064,,,,,,,2022-06-23,1,,,,,トップホールディングス,0
440,2180001151855,新規,0,2022-06-23,2022-06-23,株式会社ＤＡＩＫＯ,,株式会社,愛知県,名古屋市東区,東桜２丁目３番７号,,23,102,4610005,,,,,,,2022-06-23,1,,,,,ダイコー,0
455,2240003005680,新規,0,2022-06-23,2022-06-23,ＥＩＭＭＯ合同会社,,合同会社,広島県,広島市安佐南区,相田３丁目４３番２８号,,34,105,7310141,,,,,,,2022-06-23,1,,,,,エイモ,0
459,2260003003955,新規,0,2022-06-23,2022-06-23,Ｎ合同会社,,合同会社,岡山県,岡山市北区,下中野１２２６番地１２,,33,101,7000973,,,,,,,2022-06-23,1,,,,,エヌ,0
460,2270001008567,新規,0,2022-06-23,2022-06-23,株式会社大協ホールディングス,,株式会社,鳥取県,米子市,蚊屋２３５番地２,,31,202,6893543,,,,,,,2022-06-23,1,,,,,ダイキョウホールディングス,0
474,2290001098020,新規,0,2022-06-23,2022-06-23,株式会社クリスタルリゾート,,株式会社,福岡県,福岡市博多区,博多駅東１丁目１６番１４号,,40,132,8120013,,,,,,,2022-06-23,1,,,,,クリスタルリゾート,0
480,2320001019154,新規,0,2022-06-23,2022-06-23,株式会社はーてすと,,株式会社,大分県,大分市,大字宮崎１６５０番地の２,,44,201,8701133,,,,,,,2022-06-23,1,,,,,ハーテスト,0
482,2350001017816,新規,0,2022-06-23,2022-06-23,株式会社ＳＨ．Ｆｏｏｄｓ,,株式会社,宮崎県,宮崎市,高松町３番３４号鶴原ビル３階,,45,201,8800003,,,,,,,2022-06-23,1,,,,,エスエイチフーズ,0
511,2430001086885,新規,0,2022-06-23,2022-06-23,株式会社幺,,株式会社,北海道,札幌市中央区,大通西１丁目１４－２桂和大通ビル５０　９階,,01,101,0600042,,,,,,,2022-06-23,1,,,,,イシガシラ,0
517,2490001010212,新規,0,2022-06-23,2022-06-23,株式会社ＴｕＮａＧｕ,,株式会社,高知県,土佐市,宇佐町宇佐２７５９番地３,,39,205,7811161,,,,,,,2022-06-23,1,,,,,ツナグ,0
526,3010001227596,新規,0,2022-06-23,2022-06-23,株式会社Ｓｅｎｃｅ　ｏｆ,,株式会社,東京都,中央区,銀座１丁目２２－１１銀座大竹ビジデンス２Ｆ,,13,102,1040061,,,,,,,2022-06-23,1,,,,,センスオブ,0
528,3010005035129,新規,0,2022-06-23,2022-06-23,一般社団法人ＴＴＭ＆Ｆａｍｉｌｙ,,その他の設立登記法人,東京都,中央区,京橋２丁目２番１号京橋エドグラン２６階,,13,102,1040031,,,,,,,2022-06-23,1,,,,,ティーティーエムアンドファミリー,0
533,3010403027982,新規,0,2022-06-23,2022-06-23,Ｈｉｒａｆｕ　Ｔａｎｉ合同会社,,合同会社,東京都,港区,虎ノ門３丁目２２番１０－２０１号,,13,103,1050001,,,,,,,2022-06-23,1,,,,,ヒラフタニ,0
539,3010501048971,新規,0,2022-06-23,2022-06-23,株式会社仙玉家,,株式会社,東京都,台東区,東上野３丁目２７番１号,,13,106,1100015,,,,,,,2022-06-23,1,,,,,センギョクヤ,0
540,3010501049012,新規,0,2022-06-23,2022-06-23,株式会社ＲＡＲＥ　ＥＤＧＥ,,株式会社,東京都,台東区,上野５丁目５－８第七協立ビル１０Ｆ,,13,106,1100005,,,,,,,2022-06-23,1,,,,,レアエッジ,0
559,3011001148188,新規,0,2022-06-23,2022-06-23,株式会社Ａｌｌａｂｌｅ,,株式会社,東京都,目黒区,三田１丁目３－４伊藤コーポ３０３,,13,110,1530062,,,,,,,2022-06-23,1,,,,,オールエイブル,0
560,3011001148221,新規,0,2022-06-23,2022-06-23,シンキングデータ株式会社,,株式会社,東京都,渋谷区,千駄ヶ谷５丁目２７－５リンクスクエア新宿,,13,113,1510051,,,,,,,2022-06-23,1,,,,,シンキングデータ,0
574,3012801021674,新規,0,2022-06-23,2022-06-23,株式会社くるみ堂,,株式会社,東京都,国立市,中３丁目１１番地の１,,13,215,1860004,,,,,,,2022-06-23,1,,,,,,0
578,3013301049289,新規,0,2022-06-23,2022-06-23,ＯＮＥＢＯＹ　Ｊａｐａｎ株式会社,,株式会社,東京都,豊島区,東池袋２丁目４５番８号エコービル２０１号室,,13,116,1700013,,,,,,,2022-06-23,1,,,,,ワンボーイジャパン,0
585,3020001147018,新規,0,2022-06-23,2022-06-23,サンドック株式会社,,株式会社,神奈川県,横浜市瀬谷区,南台１丁目８番地３,,14,114,2460032,,,,,,,2022-06-23,1,,,,,サンドック,0
587,3020003021988,新規,0,2022-06-23,2022-06-23,Ｓｈｅｋ合同会社,,合同会社,神奈川県,横浜市港北区,篠原町１２２７番地２０,,14,109,2220026,,,,,,,2022-06-23,1,,,,,シェク,0
588,3020003021996,新規,0,2022-06-23,2022-06-23,合同会社ＲｏＫＵ,,合同会社,神奈川県,川崎市川崎区,駅前本町１１番地２川崎フロンティアビル４階,,14,131,2100007,,,,,,,2022-06-23,1,,,,,ロク,0
592,3021001076330,新規,0,2022-06-23,2022-06-23,株式会社マルストレーディング,,株式会社,神奈川県,大和市,中央４丁目２番６号,,14,213,2420021,,,,,,,2022-06-23,1,,,,,マルストレーディング,0
593,3021001076339,新規,0,2022-06-23,2022-06-23,さがみネギセンター株式会社,,株式会社,神奈川県,相模原市緑区,青山１７３番地,,14,151,2520156,,,,,,,2022-06-23,1,,,,,サガミネギセンター,0
594,3021001076347,新規,0,2022-06-23,2022-06-23,株式会社ＴＨＥ　ＯＮＥ,,株式会社,神奈川県,座間市,相模が丘５丁目２－２９－１２０１コンフォルシア小田急相模原,,14,216,2520001,,,,,,,2022-06-23,1,,,,,ザワン,0
595,3021003011847,新規,0,2022-06-23,2022-06-23,合同会社神楽喜コンサルティング,,合同会社,神奈川県,相模原市中央区,淵野辺２丁目１０番地１マイキャッスル渕野辺エクセレントステージ５０６,,14,152,2520206,,,,,,,2022-06-23,1,,,,,カグラギコンサルティング,0
596,3021003011855,新規,0,2022-06-23,2022-06-23,結楽里合同会社,,合同会社,神奈川県,足柄下郡湯河原町,宮上７４２－２０５,,14,384,2590314,,,,,,,2022-06-23,1,,,,,ユラリ,0
601,3030001148808,新規,0,2022-06-23,2022-06-23,ＨＫ株式会社,,株式会社,埼玉県,熊谷市,銀座２丁目４２番地,,11,202,3600032,,,,,,,2022-06-23,1,,,,,エイチケー,0
602,3030001148824,新規,0,2022-06-23,2022-06-23,Ｙ＆Ｓ　Ｂｕｓｉｎｅｓｓ　Ｓｅｒｖｉｃｅ株式会社,,株式会社,埼玉県,川越市,今成１丁目２３番地４０,,11,201,3501105,,,,,,,2022-06-23,1,,,,,ワイエンドエスビジネスサービス,0
604,3030003019627,新規,0,2022-06-23,2022-06-23,合同会社ワイドフィールドインベストメント,,合同会社,埼玉県,越谷市,レイクタウン８丁目１番地Ｅ－６０２,,11,222,3430828,,,,,,,2022-06-23,1,,,,,ワイドフィールドインベストメント,0
612,3040001123941,新規,0,2022-06-23,2022-06-23,株式会社ジュエリーハウス,,株式会社,千葉県,千葉市若葉区,大宮台１丁目１７番２号,,12,104,2640015,,,,,,,2022-06-23,1,,,,,ジュエリーハウス,0
614,3040003020303,新規,0,2022-06-23,2022-06-23,合同会社南房総シェアリゾート,,合同会社,千葉県,南房総市,富浦町豊岡８５４番地４１,,12,234,2992402,,,,,,,2022-06-23,1,,,,,ミナミボウソウシェアリゾート,0
618,3050003006631,新規,0,2022-06-23,2022-06-23,合同会社ウラカフーズ,,合同会社,茨城県,常総市,大輪町４３６番地７,,08,211,3002512,,,,,,,2022-06-23,1,,,,,ウラカフーズ,0
624,3070003004526,新規,0,2022-06-23,2022-06-23,リョウシン工業合同会社,,合同会社,群馬県,前橋市,上新田町１１９２番地３,,10,201,3710821,,,,,,,2022-06-23,1,,,,,リョウシンコウギョウ,0
632,3090003002115,新規,0,2022-06-23,2022-06-23,合同会社Ｓ,,合同会社,山梨県,中巨摩郡昭和町,清水新居２８６番地１ピュア清水新居２０６号,,19,384,4093867,,,,,,,2022-06-23,1,,,,,エス,0
647,3120001246916,新規,0,2022-06-23,2022-06-23,ヨリドコ観光株式会社,,株式会社,大阪府,大阪市北区,大淀中２丁目１番１号,,27,127,5310076,,,,,,,2022-06-23,1,,,,,ヨリドコカンコウ,0
653,3122001036000,新規,0,2022-06-23,2022-06-23,株式会社夢中とは夢の中,,株式会社,大阪府,八尾市,郡川５丁目２５番地の１０,,27,212,5810872,,,,,,,2022-06-23,1,,,,,ムチュウトハユメノナカ,0
657,3130001072023,新規,0,2022-06-23,2022-06-23,三幸不動産株式会社,,株式会社,京都府,亀岡市,北古世町１丁目１２番１３号ＴＷＩＮ・ＨＯＲＳＥＩＩＡ号室,00126978,26,206,6210811,,,,,,,2022-06-23,1,,,,,サンコウフドウサン,0
658,3130003008017,新規,0,2022-06-23,2022-06-23,ＭＡＫ合同会社,,合同会社,京都府,京田辺市,松井ケ丘１丁目３番地６,,26,211,6100353,,,,,,,2022-06-23,1,,,,,エムエーケー,0
659,3130003008025,新規,0,2022-06-23,2022-06-23,合同会社タケザワ,,合同会社,京都府,木津川市,山城町平尾北払戸７５番地１,,26,214,6190202,,,,,,,2022-06-23,1,,,,,タケザワ,0
667,3140001126471,新規,0,2022-06-23,2022-06-23,株式会社Ｎ‐ｒａｂｂｉｔ　Ｓｐｏｒｔｓ,,株式会社,兵庫県,加古川市,加古川町篠原町５０番地の７,,28,210,6750065,,,,,,,2022-06-23,1,,,,,エヌラビットスポーツ,0
668,3140001126496,新規,0,2022-06-23,2022-06-23,ｓｕｓｗｏｒｋ株式会社,,株式会社,兵庫県,神戸市中央区,浪花町５６起業プラザひょうご内,,28,110,6500035,,,,,,,2022-06-23,1,,,,,サスワーク,0
679,3180001151854,新規,0,2022-06-23,2022-06-23,株式会社大黒工業,,株式会社,愛知県,名古屋市北区,苗田町８１番地の２,,23,103,4620009,,,,,,,2022-06-23,1,,,,,ダイコクコウギョウ,0
683,3180003023969,新規,0,2022-06-23,2022-06-23,合同会社Ｂｌｕｅ　Ｏｃｅａｎ５５,,合同会社,愛知県,瀬戸市,北脇町１７０番地の８,,23,204,4890918,,,,,,,2022-06-23,1,,,,,ブルーオーシャンゴーゴー,0
685,3180301036359,新規,0,2022-06-23,2022-06-23,株式会社Ａｃｅ,,株式会社,愛知県,豊橋市,下地町字北村１９番地（２０６）,,23,201,4400083,,,,,,,2022-06-23,1,,,,,エース,0
692,3200001040212,新規,0,2022-06-23,2022-06-23,株式会社ＤＳＫ,,株式会社,岐阜県,岐阜市,金町５丁目１６番地３,,21,201,5008842,,,,,,,2022-06-23,1,,,,,ディーエスケイ,0
708,3260001036980,新規,0,2022-06-23,2022-06-23,株式会社Ｈｅａｒｔ　Ｆｉｅｌｄｓ,,株式会社,岡山県,倉敷市,連島町鶴新田２５７０番地１,,33,202,7128006,,,,,,,2022-06-23,1,,,,,ハートフィールズ,0
711,3260003003954,新規,0,2022-06-23,2022-06-23,合同会社北山,,合同会社,岡山県,倉敷市,青江７３２番地７号,,33,202,7100064,,,,,,,2022-06-23,1,,,,,キタヤマ,0
719,3290001098028,新規,0,2022-06-23,2022-06-23,株式会社Ｌｉｂｅｒｔｙ,,株式会社,福岡県,福岡市博多区,住吉３丁目９番地１１,,40,132,8120018,,,,,,,2022-06-23,1,,,,,リバティ,0
720,3290001098036,新規,0,2022-06-23,2022-06-23,栄翔株式会社,,株式会社,福岡県,福岡市早良区,百道浜４丁目２番１－６０５号,,40,137,8140001,,,,,,,2022-06-23,1,,,,,エイト,0
729,3350001017815,新規,0,2022-06-23,2022-06-23,株式会社ｏｆｆｉｃｅ　ｍａｒｃｏ,,株式会社,宮崎県,宮崎市,中津瀬町２１番地,,45,201,8800025,,,,,,,2022-06-23,1,,,,,オフィスマルコ,0
750,3410001013221,新規,0,2022-06-23,2022-06-23,株式会社美麗犬荘,,株式会社,秋田県,大館市,川口字大人沢１５７番地２,,05,204,0170878,,,,,,,2022-06-23,1,,,,,ミレイケンソウ,0
754,3430001086884,新規,0,2022-06-23,2022-06-23,株式会社ＲＩＡＮＴ,,株式会社,北海道,札幌市中央区,北二条西２丁目３３番地２,,01,101,0600002,,,,,,,2022-06-23,1,,,,,リアン,0
756,3430003014034,新規,0,2022-06-23,2022-06-23,合同会社ヘイワカーゴ,,合同会社,北海道,札幌市中央区,界川３丁目１４番８号,,01,101,0640943,,,,,,,2022-06-23,1,,,,,ヘイワカーゴ,0
769,3700150110112,新規,0,2022-06-23,2022-06-20,桐生みどり地区中高特生指対協,,その他,群馬県,桐生市,西久方町１丁目１－４１,,10,203,3760054,,,,,,,2022-06-20,1,,,,,キリユウミドリチクチユウコウトクセイシタイキヨウ,0
777,4010001227579,新規,0,2022-06-23,2022-06-23,株式会社ＫＬ１,,株式会社,東京都,千代田区,丸の内３丁目１番１号東京共同会計事務所内,,13,101,1000005,,,,,,,2022-06-23,1,,,,,ケーエルワン,0
778,4010001227587,新規,0,2022-06-23,2022-06-23,株式会社お金の育て方,,株式会社,東京都,中央区,銀座７丁目１３番６号サガミビル２階,,13,102,1040061,,,,,,,2022-06-23,1,,,,,オカネノソダテカタ,0
779,4010001227595,新規,0,2022-06-23,2022-06-23,株式会社Ｎｅｗｓｉｇｈｔ　Ｔｅｃｈ　Ａｎｇｅｌｓ,,株式会社,東京都,中央区,東日本橋２丁目２８番４号日本橋ＣＥＴビル２階,,13,102,1030004,,,,,,,2022-06-23,1,,,,,ニューサイトテックエンジェルス,0
786,4010401167978,新規,0,2022-06-23,2022-06-23,株式会社ＦＴＣ,,株式会社,東京都,港区,南麻布５丁目１２番１６号,,13,103,1060047,,,,,,,2022-06-23,1,,,,,エフティーシー,0
790,4010501049011,新規,0,2022-06-23,2022-06-23,株式会社ｇｌｅａｍ,,株式会社,東京都,台東区,千束１丁目９番２号タマキビル６Ｆ,,13,106,1110031,,,,,,,2022-06-23,1,,,,,グリーム,0
804,4010901051104,新規,0,2022-06-23,2022-06-23,株式会社ＭＥＤＩＡ　ＨＡＣＫ,,株式会社,東京都,世田谷区,松原４丁目１１番１０－４０９号,,13,112,1560043,,,,,,,2022-06-23,1,,,,,メディアハック,0
812,4011003014890,新規,0,2022-06-23,2022-06-23,パーソルパートナーズ合同会社,,合同会社,東京都,渋谷区,恵比寿１丁目１５番９号日宝恵比寿ビル４０３,,13,113,1500013,,,,,,,2022-06-23,1,,,,,パーソルパートナーズ,0
828,4012301013031,新規,0,2022-06-23,2022-06-23,株式会社Ｆ・Ｙ,,株式会社,東京都,町田市,小山田桜台２丁目４番地１４－４０５,,13,209,1940204,,,,,,,2022-06-23,1,,,,,エフワイ,0
830,4012703002482,新規,0,2022-06-23,2022-06-23,Ａ‐Ｓｌｏｗ　Ｌｉｆｅ合同会社,,合同会社,東京都,東村山市,栄町１丁目２４番地１シャリエ久米川アクアマークス１００２,,13,213,1890013,,,,,,,2022-06-23,1,,,,,アスローライフ,0
844,4020001146893,新規,0,2022-06-23,2022-06-23,株式会社佐藤デザイン工房,,株式会社,神奈川県,川崎市高津区,諏訪１丁目２４番７号,,14,134,2130004,,,,,,,2022-06-23,1,,,,,サトウデザインコウボウ,0
845,4020001147017,新規,0,2022-06-23,2022-06-23,クルール株式会社,,株式会社,神奈川県,横浜市港北区,小机町１４７番地,,14,109,2220036,,,,,,,2022-06-23,1,,,,,クルール,0
846,4020001147041,新規,0,2022-06-23,2022-06-23,株式会社ティートライ,,株式会社,神奈川県,横浜市都筑区,茅ケ崎中央９－３－６０３号,,14,118,2240032,,,,,,,2022-06-23,1,,,,,ティートライ,0
852,4020003021979,新規,0,2022-06-23,2022-06-23,Ｇｉｆｔ合同会社,,合同会社,神奈川県,横浜市旭区,中希望が丘２０５番地１０,,14,112,2410825,,,,,,,2022-06-23,1,,,,,ギフト,0
853,4020003021995,新規,0,2022-06-23,2022-06-23,合同会社ナチュリオ,,合同会社,神奈川県,横浜市鶴見区,平安町１丁目４８番地１０,,14,101,2300031,,,,,,,2022-06-23,1,,,,,ナチュリオ,0
859,4021003011854,新規,0,2022-06-23,2022-06-23,ＡＢＩＲＡ　ＡＵＴＯ商会合同会社,,合同会社,神奈川県,綾瀬市,大上６丁目７番１６号Ａ－１０３,,14,218,2521104,,,,,,,2022-06-23,1,,,,,アビラオートショウカイ,0
860,4021005012553,新規,0,2022-06-23,2022-06-23,一般社団法人ごかんシンフォニカ,,その他の設立登記法人,神奈川県,横須賀市,秋谷４３２１番地,,14,201,2400105,,,,,,,2022-06-23,1,,,,,ゴカンシンフォニカ,0
864,4030001148815,新規,0,2022-06-23,2022-06-23,株式会社六葉,,株式会社,埼玉県,蕨市,南町２丁目１２－１１ベルググランデ蕨２０１号,,11,223,3350003,,,,,,,2022-06-23,1,,,,,ロクヨウ,0
865,4030001148848,新規,0,2022-06-23,2022-06-23,株式会社ＳＡＮＴＯ,,株式会社,埼玉県,蕨市,中央５丁目５番１３号,,11,223,3350004,,,,,,,2022-06-23,1,,,,,サント,0
874,4040005021653,新規,0,2022-06-23,2022-06-23,一般社団法人松戸市経済研究会,,その他の設立登記法人,千葉県,松戸市,常盤平５丁目１３番地の９,,12,207,2702261,,,,,,,2022-06-23,1,,,,,マツドシケイザイケンキュウカイ,0
876,4050001051265,新規,0,2022-06-23,2022-06-23,株式会社小匙,,株式会社,茨城県,つくば市,竹園３丁目２１番地２Ｄ棟１０３号,,08,220,3050032,,,,,,,2022-06-23,1,,,,,コサジ,0
877,4050001051281,新規,0,2022-06-23,2022-06-23,株式会社グリーングラン,,株式会社,茨城県,牛久市,栄町４丁目１１９番地６,,08,219,3001233,,,,,,,2022-06-23,1,,,,,グリーングラン,0
882,4060001035011,新規,0,2022-06-23,2022-06-23,株式会社渡邉工務店,,株式会社,栃木県,那須塩原市,上大貫１６１番地２,,09,213,3292814,,,,,,,2022-06-23,1,,,,,ワタナベコウムテン,0
883,4070003004525,新規,0,2022-06-23,2022-06-23,ティキューブ合同会社,,合同会社,群馬県,渋川市,有馬１４５番地６アリマベース１０１号,,10,208,3770005,,,,,,,2022-06-23,1,,,,,ティキューブ,0
889,4090001017634,新規,0,2022-06-23,2022-06-23,株式会社オカベ,,株式会社,山梨県,笛吹市,一宮町東原３２８－３０,,19,211,4050075,,,,,,,2022-06-23,1,,,,,,0
890,4090003002114,新規,0,2022-06-23,2022-06-23,合同会社小澤フードサービス,,合同会社,山梨県,甲府市,太田町１番１号南栄第３ビル１０１,,19,201,4000865,,,,,,,2022-06-23,1,,,,,,0
901,4120003021969,新規,0,2022-06-23,2022-06-23,合同会社Ｆｅａｓｔ,,合同会社,大阪府,大阪市生野区,鶴橋２丁目２－１３,,27,116,5440031,,,,,,,2022-06-23,1,,,,,フィースト,0
907,4122001035991,新規,0,2022-06-23,2022-06-23,株式会社メイキカンパニー,,株式会社,大阪府,八尾市,龍華町１丁目４番２－３２１５号,,27,212,5810069,,,,,,,2022-06-23,1,,,,,メイキカンパニー,0
915,4140001126421,新規,0,2022-06-23,2022-06-23,株式会社真心Ｐｈｏｅｎｉｘ,,株式会社,兵庫県,伊丹市,西台１丁目３番５号,,28,207,6640858,,,,,,,2022-06-23,1,,,,,マゴコロフェニックス,0
916,4140001126504,新規,0,2022-06-23,2022-06-23,ホウヨク株式会社,,株式会社,兵庫県,神戸市中央区,三宮町２丁目１１番１－５０８号,,28,110,6500021,,,,,,,2022-06-23,1,,,,,ホウヨク,0
918,4140003017841,新規,0,2022-06-23,2022-06-23,合同会社ＫＲＳ,,合同会社,兵庫県,神戸市垂水区,舞子坂３丁目４番３－３０４号,,28,108,6550044,,,,,,,2022-06-23,1,,,,,ケーアールエス,0
919,4140003017858,新規,0,2022-06-23,2022-06-23,ハナジャパン合同会社,,合同会社,兵庫県,神戸市西区,井吹台西町１丁目２番地２－９０６,,28,111,6512243,,,,,,,2022-06-23,1,,,,,ハナジャパン,0
929,4180001151829,新規,0,2022-06-23,2022-06-23,株式会社近藤保険事務所,,株式会社,愛知県,名古屋市千種区,松軒１丁目１番１８号,,23,101,4640084,,,,,,,2022-06-23,1,,,,,コンドウホケンジムショ,0
930,4180001151845,新規,0,2022-06-23,2022-06-23,株式会社石塚企画,,株式会社,愛知県,名古屋市中区,栄１丁目６番３０号,,23,106,4600008,,,,,,,2022-06-23,1,,,,,イシヅカキカク,0
931,4180001151853,新規,0,2022-06-23,2022-06-23,株式会社沢の井ビル,,株式会社,愛知県,名古屋市中区,大井町１番１１号沢の井ビル２０１号,,23,106,4600015,,,,,,,2022-06-23,1,,,,,サワノイビル,0
933,4180003023968,新規,0,2022-06-23,2022-06-23,合同会社スターチス,,合同会社,愛知県,名古屋市天白区,塩釜口２丁目１５０１番地,,23,116,4680073,,,,,,,2022-06-23,1,,,,,スターチス,0
944,4200001040203,新規,0,2022-06-23,2022-06-23,株式会社ダイヤモンド・ＧＰ,,株式会社,岐阜県,多治見市,本町２丁目１８番地の１,,21,204,5070033,,,,,,,2022-06-23,1,,,,,ダイヤモンドグループ,0
945,4210005010036,新規,0,2022-06-23,2022-06-23,一般社団法人あわら市まちづくりセンター,,その他の設立登記法人,福井県,あわら市,中番第１７号３番地１０,,18,208,9104137,,,,,,,2022-06-23,1,,,,,アワラシマチヅクリセンター,0
946,4220001024914,新規,0,2022-06-23,2022-06-23,浜出産業株式会社,,株式会社,石川県,鳳珠郡穴水町,字甲ソ字１４８番地,,17,461,9270211,,,,,,,2022-06-23,1,,,,,ハマデサンギョウ,0
952,4240001059974,新規,0,2022-06-23,2022-06-23,株式会社ＴＫ,,株式会社,広島県,廿日市市,深江３丁目１１番１号（９）,,34,213,7390421,,,,,,,2022-06-23,1,,,,,ティーケー,0
956,4250003003104,新規,0,2022-06-23,2022-06-23,合同会社萬禄,,合同会社,山口県,柳井市,新庄２９８０番地３２,,35,212,7420033,,,,,,,2022-06-23,1,,,,,マンロク,0
962,4290001098019,新規,0,2022-06-23,2022-06-23,株式会社ＩＰ企画,,株式会社,福岡県,柳川市,起田５２３番地１,,40,207,8320000,,,,,,,2022-06-23,1,,,,,アイピーキカク,0
963,4290001098027,新規,0,2022-06-23,2022-06-23,株式会社ＷＡＳＥＮ,,株式会社,福岡県,太宰府市,吉松１丁目６番５号,,40,221,8180138,,,,,,,2022-06-23,1,,,,,ワセン,0
964,4290003012662,新規,0,2022-06-23,2022-06-23,ライフアシスト合同会社,,合同会社,福岡県,福岡市西区,石丸１丁目１８番１４－１０６号,,40,135,8190025,,,,,,,2022-06-23,1,,,,,ライフアシスト,0
965,4290003012670,新規,0,2022-06-23,2022-06-23,ＭｏｎａＲｉｎ合同会社,,合同会社,福岡県,福岡市東区,松島２丁目９－１－４０１,,40,131,8120062,,,,,,,2022-06-23,1,,,,,モナリン,0
968,4290801028661,新規,0,2022-06-23,2022-06-23,清水株式会社,,株式会社,福岡県,築上郡築上町,大字東八田５７５番地１,,40,647,8290342,,,,,,,2022-06-23,1,,,,,シミズ,0
969,4290803004149,新規,0,2022-06-23,2022-06-23,合同会社ＭＲＭＳ,,合同会社,福岡県,北九州市小倉北区,馬借１丁目１１－６－２Ｆ,,40,106,8020077,,,,,,,2022-06-23,1,,,,,エムアールエムエス,0
970,4300003001861,新規,0,2022-06-23,2022-06-23,合同会社コスモ,,合同会社,佐賀県,佐賀市,紺屋町６番１２号,,41,201,8400056,,,,,,,2022-06-23,1,,,,,コスモ,0
972,4320001019152,新規,0,2022-06-23,2022-06-23,株式会社木の花,,株式会社,大分県,日田市,大山町西大山５８８６番地１,,44,204,8770201,,,,,,,2022-06-23,1,,,,,コノハナ,0
974,4350001017814,新規,0,2022-06-23,2022-06-23,株式会社Ａｌｅｔｈｅａ,,株式会社,宮崎県,都城市,蓑原町３２０７－２,,45,202,8850095,,,,,,,2022-06-23,1,,,,,アリーシア,0
982,4390001016944,新規,0,2022-06-23,2022-06-23,株式会社エスアンドエスコーポレーション,,株式会社,山形県,鶴岡市,羽黒町手向字百々目木７３番地９６,,06,203,9970211,,,,,,,2022-06-23,1,,,,,エスアンドエスコーポレーション,0
997,4460101007209,新規,0,2022-06-23,2022-06-23,株式会社ＲＯＯＭ　ＲＡＮＧＥＲ,,株式会社,北海道,河東郡音更町,南鈴蘭南５丁目２番地８,,01,631,0800312,,,,,,,2022-06-23,1,,,,,ルームレンジャー,0
1008,5010001227578,新規,0,2022-06-23,2022-06-23,株式会社ＣＰ１,,株式会社,東京都,千代田区,丸の内３丁目１番１号東京共同会計事務所内,,13,101,1000005,,,,,,,2022-06-23,1,,,,,シーピーワン,0
1009,5010001227594,新規,0,2022-06-23,2022-06-23,株式会社カッチブー,,株式会社,東京都,千代田区,神田佐久間河岸７８番地３号柴田ビル７階,,13,101,1010026,,,,,,,2022-06-23,1,,,,,カッチブー,0
1012,5010003037959,新規,0,2022-06-23,2022-06-23,ＭＩＲＡＩ合同会社,,合同会社,東京都,文京区,本駒込５丁目４５番９号,,13,105,1130021,,,,,,,2022-06-23,1,,,,,ミライ,0
1020,5010401168166,新規,0,2022-06-23,2022-06-23,株式会社ＣＯＭＭＯＮＳ,,株式会社,東京都,港区,六本木７丁目１２番２号,,13,103,1060032,,,,,,,2022-06-23,1,,,,,コモンズ,0
1024,5010403027980,新規,0,2022-06-23,2022-06-23,ローガン合同会社,,合同会社,東京都,港区,六本木１丁目６番１号泉ガーデンタワーＫＰＭＧ税理士法人内,,13,103,1060032,,,,,,,2022-06-23,1,,,,,ローガン,0
1033,5010603009597,新規,0,2022-06-23,2022-06-23,パイソン合同会社,,合同会社,東京都,江東区,亀戸９丁目４番地１号亀戸ハイツ４０３,,13,108,1360071,,,,,,,2022-06-23,1,,,,,パイソン,0
1054,5011001148095,新規,0,2022-06-23,2022-06-23,株式会社ＳＯＣＩＡＬ　ＣＯＭＭＯＮ　ＣＡＰＩＴＡＬ,,株式会社,東京都,渋谷区,道玄坂１丁目５番７号,,13,113,1500043,,,,,,,2022-06-23,1,,,,,ソーシャルコモンキャピタル,0
1055,5011001148203,新規,0,2022-06-23,2022-06-23,株式会社ＨＯＫＡＤＯＫＯ．ｃｏｍラボ,,株式会社,東京都,渋谷区,神南１丁目６番５号,,13,113,1500041,,,,,,,2022-06-23,1,,,,,ホカドコドットコムラボ,0
1058,5011003014881,新規,0,2022-06-23,2022-06-23,合同会社オレンジビズ,,合同会社,東京都,渋谷区,道玄坂１丁目１０番８号渋谷道玄坂東急ビル２Ｆ－Ｃ,,13,113,1500043,,,,,,,2022-06-23,1,,,,,オレンジビズ,0
1062,5011101099321,新規,0,2022-06-23,2022-06-23,株式会社ｃｏｒ,,株式会社,東京都,新宿区,北新宿１丁目１４番３号Ｓｔａｇｅ北新宿ＩＩ２０３,00126989,13,104,1690074,,,,,,,2022-06-23,1,,,,,コー,0
1063,5011103011878,新規,0,2022-06-23,2022-06-23,合同会社ＥＡＩ,,合同会社,東京都,新宿区,西新宿３丁目３番１３号西新宿水間ビル６階,,13,104,1600023,,,,,,,2022-06-23,1,,,,,イーエーアイ,0
1069,5011501028144,新規,0,2022-06-23,2022-06-23,道明寺株式会社,,株式会社,東京都,北区,東田端２丁目９番１７号三協マンション２０３号室,,13,117,1140013,,,,,,,2022-06-23,1,,,,,ドウミョウジ,0
1085,5013301049287,新規,0,2022-06-23,2022-06-23,Ｋパートナーズ投資株式会社,,株式会社,東京都,豊島区,巣鴨１丁目１８番８号ＳＹマンション５０１号,,13,116,1700002,,,,,,,2022-06-23,1,,,,,ケーパートナーズトウシ,0
1091,5020001146967,新規,0,2022-06-23,2022-06-23,ＪＳＭ株式会社,,株式会社,神奈川県,川崎市幸区,幸町３丁目４番地３,,14,132,2120011,,,,,,,2022-06-23,1,,,,,ジェイエスエム,0
1092,5020001147008,新規,0,2022-06-23,2022-06-23,株式会社Ｆｉｔｎｅｓｓ　Ｆｒｅａｋｓ,,株式会社,神奈川県,川崎市幸区,柳町６９番地プラウド川崎柳町１３０７号室,,14,132,2120015,,,,,,,2022-06-23,1,,,,,フィットネスフリークス,0
1093,5020001147016,新規,0,2022-06-23,2022-06-23,エビス・ジン株式会社,,株式会社,神奈川県,横浜市中区,山手町４６番地４,,14,104,2310862,,,,,,,2022-06-23,1,,,,,エビスジン,0
1094,5020003021994,新規,0,2022-06-23,2022-06-23,合同会社シルヴプレ,,合同会社,神奈川県,横浜市緑区,三保町３０２４番地１０,,14,113,2260015,,,,,,,2022-06-23,1,,,,,シルヴプレ,0
1097,5021001076320,新規,0,2022-06-23,2022-06-23,株式会社フレンディ保証,,株式会社,神奈川県,茅ヶ崎市,浜竹３丁目３番３０号エクレール湘南辻御堂Ｃ,,14,207,2530021,,,,,,,2022-06-23,1,,,,,フレンディホショウ,0
1098,5021001076337,新規,0,2022-06-23,2022-06-23,株式会社Ｂ．Ａ．Ｓ．Ｓ,,株式会社,神奈川県,鎌倉市,梶原２丁目２６番１－３１８号,,14,204,2470063,,,,,,,2022-06-23,1,,,,,ビーエーエスエス,0
1099,5021001076345,新規,0,2022-06-23,2022-06-23,株式会社トリアール,,株式会社,神奈川県,平塚市,四之宮４丁目７番１１号,,14,203,2540014,,,,,,,2022-06-23,1,,,,,トリアール,0
1104,5030001148707,新規,0,2022-06-23,2022-06-23,ホームクリニック株式会社,,株式会社,埼玉県,比企郡嵐山町,大字菅谷３８９番地４,,11,342,3550221,,,,,,,2022-06-23,1,,,,,ホームクリニック,0
1105,5030001148822,新規,0,2022-06-23,2022-06-23,大東商事株式会社,,株式会社,埼玉県,ふじみ野市,上福岡５丁目５番８号１,,11,245,3560004,,,,,,,2022-06-23,1,,,,,ダイトウショウジ,0
1106,5030001148839,新規,0,2022-06-23,2022-06-23,樹モールプラザパーキング株式会社,,株式会社,埼玉県,川口市,栄町３丁目１２番６号,,11,203,3320017,,,,,,,2022-06-23,1,,,,,ジュモールプラザパーキング,0
1117,5040001123972,新規,0,2022-06-23,2022-06-23,株式会社ＧＦＥ,,株式会社,千葉県,松戸市,大金平２丁目１１０－３,,12,207,2700006,,,,,,,2022-06-23,1,,,,,ジーエフイー,0
1120,5040003020318,新規,0,2022-06-23,2022-06-23,合同会社天啓,,合同会社,千葉県,松戸市,和名ケ谷８３３番地の１２,,12,207,2702232,,,,,,,2022-06-23,1,,,,,テンケー,0
1121,5040003020326,新規,0,2022-06-23,2022-06-23,ＯＪＩＮＷＡＹＯ　ＡＵＴＯＭＯＢＩＬＥ合同会社,,合同会社,千葉県,野田市,木間ケ瀬１７９５－１,,12,208,2700222,,,,,,,2022-06-23,1,,,,,オジンワヨオートモービル,0
1127,5050001051280,新規,0,2022-06-23,2022-06-23,株式会社大森商事,,株式会社,茨城県,日立市,大久保町４丁目７番１４号,,08,202,3160012,,,,,,,2022-06-23,1,,,,,オオモリショウジ,0
1128,5050001051289,新規,0,2022-06-23,2022-06-23,プラム株式会社,,株式会社,茨城県,つくば市,研究学園５丁目１２番地１０研究学園スクウェアビル４Ｆ,,08,220,3050817,,,,,,,2022-06-23,1,,,,,,0
1131,5050003006638,新規,0,2022-06-23,2022-06-23,合同会社まなびネットプロ,,合同会社,茨城県,土浦市,荒川沖東３丁目１１－８,,08,203,3000871,,,,,,,2022-06-23,1,,,,,マナビネットプロ,0
1132,5060001035010,新規,0,2022-06-23,2022-06-23,株式会社吉本工業,,株式会社,栃木県,鹿沼市,千渡２２９９番地２グレースコーポ３０４,,09,205,3220002,,,,,,,2022-06-23,1,,,,,ヨシモトコウギョウ,0
1133,5060001035019,新規,0,2022-06-23,2022-06-23,株式会社彩鳳,,株式会社,栃木県,栃木市,岩舟町静２８３８番地１,,09,203,3294307,,,,,,,2022-06-23,1,,,,,サイホウ,0
1136,5070001039357,新規,0,2022-06-23,2022-06-23,ブレイブ・エンジニアリング株式会社,,株式会社,群馬県,太田市,浜町１２番９号,,10,205,3730853,,,,,,,2022-06-23,1,,,,,ブレイブエンジニアリング,0
1138,5070003004524,新規,0,2022-06-23,2022-06-23,合同会社クアドリ,,合同会社,群馬県,館林市,当郷町１９１７番地の１０,,10,207,3740006,,,,,,,2022-06-23,1,,,,,クアドリ,0
1145,5090001017633,新規,0,2022-06-23,2022-06-23,株式会社親成林業,,株式会社,山梨県,南巨摩郡南部町,福士１６５３９－１,,19,366,4092102,,,,,,,2022-06-23,1,,,,,シンセイリンギョウ,0
1159,5120001246798,新規,0,2022-06-23,2022-06-23,株式会社ＳＥＥＡ,,株式会社,大阪府,大阪市北区,梅田１丁目１番３号大阪駅前第３ビル２３０７,,27,127,5300001,,,,,,,2022-06-23,1,,,,,シーア,0
1160,5120001246872,新規,0,2022-06-23,2022-06-23,ＥＫＡＡ　ＴＥＣＨＮＯＬＯＧＹ株式会社,,株式会社,大阪府,大阪市平野区,平野上町１丁目６番５号,,27,126,5470045,,,,,,,2022-06-23,1,,,,,エカテクノロジー,0
1161,5120003021927,新規,0,2022-06-23,2022-06-23,合同会社ＦＩＴ,,合同会社,大阪府,大阪市淀川区,新高１丁目２番３１号,,27,123,5320033,,,,,,,2022-06-23,1,,,,,エフアイティー,0
1162,5120003021968,新規,0,2022-06-23,2022-06-23,合同会社Ｂｌｅｓｓ　ｙｏｕ,,合同会社,大阪府,寝屋川市,河北西町５番１－１０１,,27,215,5720817,,,,,,,2022-06-23,1,,,,,ブレスユー,0
1163,5122001035999,新規,0,2022-06-23,2022-06-23,株式会社ＴＫカンパニー,,株式会社,大阪府,八尾市,郡川５丁目２５番地の１０,,27,212,5810872,,,,,,,2022-06-23,1,,,,,ティーケーカンパニー,0
1166,5130001072054,新規,0,2022-06-23,2022-06-23,株式会社イノセント,,株式会社,京都府,城陽市,寺田庭井３４番地１,,26,207,6100121,,,,,,,2022-06-23,1,,,,,イノセント,0
1171,5140001126503,新規,0,2022-06-23,2022-06-23,大麦株式会社,,株式会社,兵庫県,神戸市東灘区,向洋町中１丁目１７アジアワンセンター３０２号室,,28,101,6580032,,,,,,,2022-06-23,1,,,,,オオムギ,0
1177,5150001025646,新規,0,2022-06-23,2022-06-23,株式会社セカンドエフォート,,株式会社,奈良県,香芝市,瓦口６１番地,,29,210,6390225,,,,,,,2022-06-23,1,,,,,セカンドエフォート,0
1184,5180001151844,新規,0,2022-06-23,2022-06-23,株式会社みこと,,株式会社,愛知県,名古屋市中区,丸の内３丁目５番１６号ライオンズマンショングリーン久屋大通７０５号,,23,106,4600002,,,,,,,2022-06-23,1,,,,,ミコト,0
1194,5200003005599,新規,0,2022-06-23,2022-06-23,合同会社Ｖｅｒｓｅａｕ,,合同会社,岐阜県,多治見市,笠原町３２５９番地の３,,21,204,5070901,,,,,,,2022-06-23,1,,,,,ヴェルソー,0
1197,5220003003312,新規,0,2022-06-23,2022-06-23,合同会社パル,,合同会社,石川県,金沢市,太陽が丘２丁目１８２番地,,17,201,9201154,,,,,,,2022-06-23,1,,,,,パル,0
1203,5240001059973,新規,0,2022-06-23,2022-06-23,株式会社Ｓａｒａｎｇ,,株式会社,広島県,広島市安佐北区,深川５丁目３５番６－１０４号Ｉ,00126977,34,106,7391751,,,,,,,2022-06-23,1,,,,,サラン,0
1212,5260001036979,新規,0,2022-06-23,2022-06-23,株式会社Ｏ２,,株式会社,岡山県,岡山市北区,御津野々口１５７２番地１,,33,101,7092117,,,,,,,2022-06-23,1,,,,,オーツー,0
1215,5290001098018,新規,0,2022-06-23,2022-06-23,株式会社ＵＲＵＯＳ,,株式会社,福岡県,福岡市中央区,天神２丁目３番１０号天神パインクレスト７１９号,,40,133,8100001,,,,,,,2022-06-23,1,,,,,ウルオス,0
1216,5290001098034,新規,0,2022-06-23,2022-06-23,株式会社タナクラ,,株式会社,福岡県,福岡市南区,大橋３丁目２１番１９－１０２号室,,40,134,8150033,,,,,,,2022-06-23,1,,,,,タナクラ,0
1217,5290801028660,新規,0,2022-06-23,2022-06-23,株式会社オクムラ自動車販売,,株式会社,福岡県,北九州市門司区,黒川東２丁目２番７号,,40,101,8010826,,,,,,,2022-06-23,1,,,,,オクムラジドウシャハンバイ,0
1219,5290803004131,新規,0,2022-06-23,2022-06-23,ＭＩＮＨ　ＪＰ合同会社,,合同会社,福岡県,北九州市小倉北区,明和町１番２３－１０１号,,40,106,8020017,,,,,,,2022-06-23,1,,,,,ミンジェイピー,0
1229,5350001017813,新規,0,2022-06-23,2022-06-23,株式会社友栄工業,,株式会社,宮崎県,延岡市,若葉町１丁目１０８番地２６２,,45,203,8820875,,,,,,,2022-06-23,1,,,,,ユウエイコウギョウ,0
1239,5390001016943,新規,0,2022-06-23,2022-06-23,東根セキュリティ株式会社,,株式会社,山形県,東根市,中央２丁目１２番８号,,06,211,9993711,,,,,,,2022-06-23,1,,,,,ヒガシネセキュリティ,0
1264,5460003000905,新規,0,2022-06-23,2022-06-23,合同会社マルチ・ワーク,,合同会社,北海道,釧路市,大楽毛南５丁目１２番１６号,,01,206,0840915,,,,,,,2022-06-23,1,,,,,マルチワーク,0
1267,5470001019129,新規,0,2022-06-23,2022-06-23,株式会社ＦＧＲＯＷ,,株式会社,香川県,高松市,庵治町６３９３番地４５,,37,201,7610130,,,,,,,2022-06-23,1,,,,,エフグロウ,0
1280,6010001227569,新規,0,2022-06-23,2022-06-23,須水門株式会社,,株式会社,東京都,中央区,東日本橋２丁目２８番５号５０８,,13,102,1030004,,,,,,,2022-06-23,1,,,,,ススイモン,0
1281,6010001227577,新規,0,2022-06-23,2022-06-23,株式会社アーク・プレス,,株式会社,東京都,千代田区,麹町２丁目２番地,,13,101,1020083,,,,,,,2022-06-23,1,,,,,アークプレス,0
1285,6010101015221,新規,0,2022-06-23,2022-06-23,株式会社知賢貿易,,株式会社,東京都,八王子市,中野上町３丁目３０番５号,,13,201,1920041,,,,,,,2022-06-23,1,,,,,チケンボウエキ,0
1302,6010601061335,新規,0,2022-06-23,2022-06-23,易泉株式会社,,株式会社,東京都,江東区,豊洲２丁目５番１－２２０３号,,13,108,1350061,,,,,,,2022-06-23,1,,,,,イーチェン,0
1303,6010601061368,新規,0,2022-06-23,2022-06-23,株式会社ＡＲＴＥＭＩＳ,,株式会社,東京都,江東区,亀戸５丁目１２番１０号,,13,108,1360071,,,,,,,2022-06-23,1,,,,,アルテミス,0
1306,6010803004216,新規,0,2022-06-23,2022-06-23,ＰＯＬＬＵＸ合同会社,,合同会社,東京都,大田区,北千束１丁目１０番４号スタジオスクエア洗足５０１,,13,111,1450062,,,,,,,2022-06-23,1,,,,,ポルックス,0
1321,6011003014897,新規,0,2022-06-23,2022-06-23,合同会社Ｓｕｍｍｅｒ　ｏｆ　Ｌｏｖｅ,,合同会社,東京都,渋谷区,元代々木町４８－１４プレミアムキューブ６０２,,13,113,1510062,,,,,,,2022-06-23,1,,,,,サマーオブラブ,0
1329,6011401024341,新規,0,2022-06-23,2022-06-23,株式会社ギブファースト,,株式会社,東京都,板橋区,小豆沢１丁目１番１６－９１４号,,13,119,1740051,,,,,,,2022-06-23,1,,,,,ギブファースト,0
1334,6011801040913,新規,0,2022-06-23,2022-06-23,株式会社ｌｉｕ,,株式会社,東京都,足立区,六町１丁目１６－１０,,13,121,1210073,,,,,,,2022-06-23,1,,,,,リウ,0
1336,6011803005146,新規,0,2022-06-23,2022-06-23,ＭｙＬＤＫ合同会社,,合同会社,東京都,足立区,保木間５丁目８－２２,,13,121,1210064,,,,,,,2022-06-23,1,,,,,マイエルディーケー,0
1349,6013303006203,新規,0,2022-06-23,2022-06-23,合同会社Ｆ．Ｐ．ＭＯＲＥ,,合同会社,東京都,豊島区,目白５丁目２７番１５号,,13,116,1710031,,,,,,,2022-06-23,1,,,,,エフピーモア,0
1350,6013305003355,新規,0,2022-06-23,2022-06-23,一般社団法人Ｈｅｌｌｏ　Ｗｏｒｌｄ,,その他の設立登記法人,東京都,豊島区,高田３丁目１７番４号,,13,116,1710033,,,,,,,2022-06-23,1,,,,,ハローワールド,0
1357,6020001147023,新規,0,2022-06-23,2022-06-23,株式会社ｕｒｂａｎ　ｍａｄｅ,,株式会社,神奈川県,川崎市多摩区,宿河原７丁目１番２７－３０１号ハイツ・パンドーラ５,,14,135,2140021,,,,,,,2022-06-23,1,,,,,アーバンメイド,0
1358,6020003021952,新規,0,2022-06-23,2022-06-23,ジェムズクリエイション合同会社,,合同会社,神奈川県,横浜市中区,富士見町２番地１東亜ビル４０６,,14,104,2310037,,,,,,,2022-06-23,1,,,,,ジェムズクリエイション,0
1359,6020003021985,新規,0,2022-06-23,2022-06-23,合同会社暮らすワン,,合同会社,神奈川県,横浜市青葉区,美しが丘西２丁目３８番地１５,,14,117,2250001,,,,,,,2022-06-23,1,,,,,クラスワン,0
1360,6020003021993,新規,0,2022-06-23,2022-06-23,Ｃｕｏｒｅ　Ｃｏｃｏ合同会社,,合同会社,神奈川県,横浜市鶴見区,北寺尾５丁目２番１８－５０７号,,14,101,2300074,,,,,,,2022-06-23,1,,,,,クオレココ,0
1363,6020005015580,新規,0,2022-06-23,2022-06-23,一般社団法人リカバリーウェルネス,,その他の設立登記法人,神奈川県,横浜市鶴見区,駒岡５丁目１７－３２－１階,,14,101,2300071,,,,,,,2022-06-23,1,,,,,リカバリーウェルネス,0
1364,6021001076328,新規,0,2022-06-23,2022-06-23,株式会社ダイト,,株式会社,神奈川県,横須賀市,鴨居１丁目４１番１４－２０３号,,14,201,2390813,,,,,,,2022-06-23,1,,,,,ダイト,0
1365,6021001076336,新規,0,2022-06-23,2022-06-23,株式会社Ｗ．Ｏ．Ｒ．Ｄ．Ｓ,,株式会社,神奈川県,伊勢原市,大山２５２番地の１,,14,214,2591107,,,,,,,2022-06-23,1,,,,,ワーズ,0
1369,6021003011844,新規,0,2022-06-23,2022-06-23,圏央葬祭合同会社,,合同会社,神奈川県,愛甲郡愛川町,中津７４２９番地２,,14,401,2430303,,,,,,,2022-06-23,1,,,,,ケンオウソウサイ,0
1376,6030001148813,新規,0,2022-06-23,2022-06-23,株式会社ひなぎく,,株式会社,埼玉県,新座市,石神４丁目４番１６号,,11,230,3520033,,,,,,,2022-06-23,1,,,,,ヒナギク,0
1377,6030003019632,新規,0,2022-06-23,2022-06-23,金商事合同会社,,合同会社,埼玉県,川口市,飯塚４丁目８番７号,,11,203,3320023,,,,,,,2022-06-23,1,,,,,キンショウジ,0
1382,6040001123939,新規,0,2022-06-23,2022-06-23,株式会社カラフルストア,,株式会社,千葉県,匝瑳市,椿１６０７番地７,,12,235,2892102,,,,,,,2022-06-23,1,,,,,カラフルストア,0
1384,6040003020325,新規,0,2022-06-23,2022-06-23,ＫＡＷＡＲＡアビエーション合同会社,,合同会社,千葉県,大網白里市,みずほ台２丁目２１番地３,,12,239,2993234,,,,,,,2022-06-23,1,,,,,カワラアビエーション,0
1391,6050001051271,新規,0,2022-06-23,2022-06-23,ＲＯＹＡＬ　ＤＲＩＶＥ株式会社,,株式会社,茨城県,鹿嶋市,大字荒野１５６６番地４１,,08,222,3112221,,,,,,,2022-06-23,1,,,,,ロイヤルドライブ,0
1392,6050001051288,新規,0,2022-06-23,2022-06-23,株式会社スズキホールディングス,,株式会社,茨城県,土浦市,並木３丁目３番４１号,,08,203,3000061,,,,,,,2022-06-23,1,,,,,スズキホールディングス,0
1395,6050003006637,新規,0,2022-06-23,2022-06-23,合同会社コーリン産業,,合同会社,茨城県,稲敷郡阿見町,大字阿見４６４４番地３５ニューパインハイツ１０２号,,08,443,3000331,,,,,,,2022-06-23,1,,,,,コーリンサンギョウ,0
1396,6070001039331,新規,0,2022-06-23,2022-06-23,ギルド株式会社,,株式会社,群馬県,高崎市,下里見町２７３９番地３,,10,202,3703343,,,,,,,2022-06-23,1,,,,,ギルド,0
1397,6070001039348,新規,0,2022-06-23,2022-06-23,ＰＲＡＢＨＡ　ＩＮＴＥＲＮＡＴＩＯＮＡＬ株式会社,,株式会社,群馬県,富岡市,下黒岩１２３０番地１,,10,210,3702341,,,,,,,2022-06-23,1,,,,,プラバインターナショナル,0
1398,6070001039356,新規,0,2022-06-23,2022-06-23,株式会社ＮＣＳ,,株式会社,群馬県,高崎市,島野町３１３番地２Ｆ,,10,202,3700015,,,,,,,2022-06-23,1,,,,,エヌシーエス,0
1399,6070001039372,新規,0,2022-06-23,2022-06-23,株式会社ＣＣＳ,,株式会社,群馬県,館林市,つつじ町６番４号,,10,207,3740017,,,,,,,2022-06-23,1,,,,,シーシーエス,0
1405,6080101023374,新規,0,2022-06-23,2022-06-23,株式会社ＩＸｃｕｒｒｅ,,株式会社,静岡県,三島市,大社町１８－５２,,22,206,4110853,,,,,,,2022-06-23,1,,,,,イクスカルレ,0
1415,6110003004799,新規,0,2022-06-23,2022-06-23,合同会社Ｓ．Ｋ,,合同会社,新潟県,新潟市西区,上新栄町１丁目４－１６－２,,15,107,9502076,,,,,,,2022-06-23,1,,,,,エスケイ,0
1434,6120103004748,新規,0,2022-06-23,2022-06-23,隆正社合同会社,00126981,合同会社,大阪府,河内長野市,松ケ丘東町１３５６番地の２２,,27,216,5860007,,,,,,,2022-06-23,1,,,,,リュウショウシャ,0
1436,6122001035998,新規,0,2022-06-23,2022-06-23,株式会社Ｔ．Ｃ．Ｕ,,株式会社,大阪府,東大阪市,長田東３丁目３番４５号,,27,227,5770012,,,,,,,2022-06-23,1,,,,,ティーシーユー,0
1440,6130001072053,新規,0,2022-06-23,2022-06-23,株式会社正浩,,株式会社,京都府,木津川市,山城町平尾西口４８番地２,,26,214,6190202,,,,,,,2022-06-23,1,,,,,ショウヨウ,0
1442,6130003007981,新規,0,2022-06-23,2022-06-23,ＳＨＡＮＳＡ合同会社,,合同会社,京都府,京都市下京区,玉津島町２９４,,26,106,6008427,,,,,,,2022-06-23,1,,,,,シャンサ,0
1443,6130003008022,新規,0,2022-06-23,2022-06-23,合同会社ｍｏｐｐａｌａ,,合同会社,京都府,京都市中京区,天神山町２８０番地石勘ビル４Ｆ－３,,26,104,6048221,,,,,,,2022-06-23,1,,,,,モッパラ,0
1448,6140001126493,新規,0,2022-06-23,2022-06-23,株式会社ＡＳＴＲＩＤＥ,,株式会社,兵庫県,神戸市中央区,琴ノ緒町３丁目３－２１蒲鉾ビル２階東,,28,110,6510094,,,,,,,2022-06-23,1,,,,,アストライド,0
1449,6140001126502,新規,0,2022-06-23,2022-06-23,株式会社わたしたち,,株式会社,兵庫県,淡路市,野島常盤１４６３番地６,,28,226,6561726,,,,,,,2022-06-23,1,,,,,ワタシタチ,0
1450,6140001126519,新規,0,2022-06-23,2022-06-23,ＭＪ都市開発株式会社,,株式会社,兵庫県,神戸市東灘区,向洋町中６丁目９神戸ファッションマート,,28,101,6580032,,,,,,,2022-06-23,1,,,,,エムジェイトシカイハツ,0
1451,6140003017831,新規,0,2022-06-23,2022-06-23,ＭＹＴ‐Ｌｉｎｋ合同会社,,合同会社,兵庫県,西宮市,上ケ原七番町１番４８号,,28,204,6620881,,,,,,,2022-06-23,1,,,,,マイティリンク,0
1453,6150001025645,新規,0,2022-06-23,2022-06-23,株式会社ウエストオート,,株式会社,奈良県,奈良市,六条２丁目２０番８７号,,29,201,6308043,,,,,,,2022-06-23,1,,,,,ウエストオート,0
1455,6150003002717,新規,0,2022-06-23,2022-06-23,合同会社明永,,合同会社,奈良県,北葛城郡河合町,大字大輪田１０１３番地３アンソレイエ西大和２０１号,,29,427,6360093,,,,,,,2022-06-23,1,,,,,メイエイ,0
1458,6180001151851,新規,0,2022-06-23,2022-06-23,株式会社ストリーム,,株式会社,愛知県,名古屋市中川区,一色新町２丁目１１０６番地,,23,110,4540946,,,,,,,2022-06-23,1,,,,,ストリーム,0
1463,6180003023958,新規,0,2022-06-23,2022-06-23,合同会社ＨＯＰＥ,,合同会社,愛知県,名古屋市守山区,守山３丁目３－４,,23,113,4630067,,,,,,,2022-06-23,1,,,,,ホープ,0
1464,6180003023966,新規,0,2022-06-23,2022-06-23,合同会社Ｙ,,合同会社,愛知県,名古屋市中区,錦３丁目１７番３号Ｍ・Ｉ錦ビル１階,,23,106,4600003,,,,,,,2022-06-23,1,,,,,ワイ,0
1470,6200003005598,新規,0,2022-06-23,2022-06-23,合同会社ＴｗｉｎｋｌｅＤａｙｓ,,合同会社,岐阜県,多治見市,滝呂町１２丁目２０２番地の１７,,21,204,5070813,,,,,,,2022-06-23,1,,,,,トゥインクルデイズ,0
1474,6220003003311,新規,0,2022-06-23,2022-06-23,合同会社凜庵,,合同会社,石川県,白山市,鶴来水戸町３丁目２９番地,,17,210,9202134,,,,,,,2022-06-23,1,,,,,リアン,0
1480,6260001036978,新規,0,2022-06-23,2022-06-23,Ｌｅｓ　ｖａｃａｎｃｅｓ株式会社,,株式会社,岡山県,岡山市北区,番町１丁目２番１５号セレニテ２０１号,,33,101,7000811,,,,,,,2022-06-23,1,,,,,レバカンス,0
1482,6280005007486,新規,0,2022-06-23,2022-06-23,特定非営利活動法人しまねベトナム同志会,,その他の設立登記法人,島根県,松江市,寺町２０４番地４,,32,201,6900063,,,,,,,2022-06-23,1,,,,,,0
1492,6290001098025,新規,0,2022-06-23,2022-06-23,株式会社ウプシロン,,株式会社,福岡県,福岡市中央区,天神１丁目９番１７号福岡天神フコク生命ビル１５階,,40,133,8100001,,,,,,,2022-06-23,1,,,,,ウプシロン,0
1493,6290001098033,新規,0,2022-06-23,2022-06-23,留学生株式会社,,株式会社,福岡県,福岡市早良区,百道浜４丁目２番１－６０５号,,40,137,8140001,,,,,,,2022-06-23,1,,,,,リュウガクセイ,0
1497,6290803004147,新規,0,2022-06-23,2022-06-23,合同会社Ｆａｍｉｌｉａ,,合同会社,福岡県,直方市,大字上新入２３７７－７０,,40,204,8220033,,,,,,,2022-06-23,1,,,,,ファミリア,0
1502,6330001029859,新規,0,2022-06-23,2022-06-23,株式会社内山,,株式会社,熊本県,球磨郡錦町,大字西１９３１,,43,501,8680303,,,,,,,2022-06-23,1,,,,,ウチヤマ,0
1506,6350001017812,新規,0,2022-06-23,2022-06-23,株式会社キャナー,,株式会社,宮崎県,児湯郡高鍋町,大字北高鍋１０５８番地,,45,401,8840002,,,,,,,2022-06-23,1,,,,,キャナー,0
1523,6410001013219,新規,0,2022-06-23,2022-06-23,株式会社ＪＹＫＫＳ,,株式会社,秋田県,秋田市,山王３丁目８番２７号ひばりビル２Ｆ,,05,201,0100951,,,,,,,2022-06-23,1,,,,,ジークス,0
1532,6470003002206,新規,0,2022-06-23,2022-06-23,合同会社アップ,,合同会社,香川県,高松市,川島本町８３番地３,,37,201,7610442,,,,,,,2022-06-23,1,,,,,アップ,0
1533,6490001010217,新規,0,2022-06-23,2022-06-23,株式会社ＫＵＩＳＨＩ,,株式会社,高知県,須崎市,浜町２丁目４番８号,,39,206,7850006,,,,,,,2022-06-23,1,,,,,クイシ,0
1544,7010005035174,新規,0,2022-06-23,2022-06-23,一般社団法人あゆみ文化芸術振興会,,その他の設立登記法人,東京都,千代田区,二番町５番地２麹町駅プラザ９０１,,13,101,1020084,,,,,,,2022-06-23,1,,,,,アユミブンカゲイジュツシンコウカイ,0
1556,7010501049017,新規,0,2022-06-23,2022-06-23,株式会社アシスト,,株式会社,東京都,台東区,柳橋１丁目９－９－４０２,,13,106,1110052,,,,,,,2022-06-23,1,,,,,アシスト,0
1561,7010601061367,新規,0,2022-06-23,2022-06-23,株式会社白浦ＬＩＶＥ,,株式会社,東京都,江東区,東雲１丁目９番５０－４０６号,,13,108,1350062,,,,,,,2022-06-23,1,,,,,シロウラライブ,0
1572,7011001148184,新規,0,2022-06-23,2022-06-23,株式会社ＨＡＰＩ　ＴＯ　ＤＯ,,株式会社,東京都,渋谷区,道玄坂１丁目１０番８号渋谷道玄坂東急ビル２Ｆ－Ｃ,,13,113,1500043,,,,,,,2022-06-23,1,,,,,ハピトゥドゥ,0
1573,7011001148275,新規,0,2022-06-23,2022-06-23,ＫＯＭＡＩ　ＪＡＰＡＮ株式会社,,株式会社,東京都,渋谷区,桜丘町１４番６号黒松ビル４Ｆ,,13,113,1500031,,,,,,,2022-06-23,1,,,,,コマイジャパン,0
1574,7011003014913,新規,0,2022-06-23,2022-06-23,三友国際合同会社,,合同会社,東京都,渋谷区,代々木２丁目２３番１－３１８号,,13,113,1510053,,,,,,,2022-06-23,1,,,,,サンユウコクサイ,0
1577,7011401024349,新規,0,2022-06-23,2022-06-23,株式会社Ｄｉｇｉｔａｌ　Ｈ,,株式会社,東京都,板橋区,高島平８丁目２３番１７号ブランドール高島平１０５,,13,119,1750082,,,,,,,2022-06-23,1,,,,,デジタルエイチ,0
1585,7011801040912,新規,0,2022-06-23,2022-06-23,株式会社３６度,,株式会社,東京都,葛飾区,新小岩３丁目２６番１９号,,13,122,1240024,,,,,,,2022-06-23,1,,,,,サンジュウロクド,0
1597,7013301049277,新規,0,2022-06-23,2022-06-23,ＴＹ株式会社,,株式会社,東京都,豊島区,千早２丁目２３番１６号２Ｆ,,13,116,1710044,,,,,,,2022-06-23,1,,,,,ティーワイ,0
1598,7013301049285,新規,0,2022-06-23,2022-06-23,ＹＧＣａｒｅｅｒ株式会社,,株式会社,東京都,豊島区,東池袋１丁目４２番１４号２８山京ビル７階６号室,,13,116,1700013,,,,,,,2022-06-23,1,,,,,ワイジーキャリア,0
1602,7021001076343,新規,0,2022-06-23,2022-06-23,株式会社ＷＲＣ,,株式会社,神奈川県,鎌倉市,梶原２丁目２６番１－３１８号,,14,204,2470063,,,,,,,2022-06-23,1,,,,,ダブリュアールシー,0
1603,7021003011851,新規,0,2022-06-23,2022-06-23,合同会社ＨＡＭ,,合同会社,神奈川県,海老名市,泉２丁目１４番１－１００２号,,14,215,2430437,,,,,,,2022-06-23,1,,,,,エイチエーエム,0
1608,7030001148754,新規,0,2022-06-23,2022-06-23,株式会社Ｂｒｉｄｇｅ　ｏｆ　Ｄｒｅａｍｓ,,株式会社,埼玉県,上尾市,向山２丁目９番地３８,,11,219,3620045,,,,,,,2022-06-23,1,,,,,ブリッジオブドリームズ,0
1609,7030001148812,新規,0,2022-06-23,2022-06-23,株式会社琢磨創業,,株式会社,埼玉県,新座市,畑中２丁目１番１９号,,11,230,3520012,,,,,,,2022-06-23,1,,,,,タクマソウギョウ,0
1610,7030001148820,新規,0,2022-06-23,2022-06-23,ＫＭＦ株式会社,,株式会社,埼玉県,川口市,戸塚２丁目９番３－２０３号,,11,203,3330811,,,,,,,2022-06-23,1,,,,,ケイエムエフ,0
1611,7030001148837,新規,0,2022-06-23,2022-06-23,株式会社ｅｃｌａｔ,,株式会社,埼玉県,深谷市,荒川１８８番地,,11,218,3691245,,,,,,,2022-06-23,1,,,,,エクラ,0
1612,7030001148845,新規,0,2022-06-23,2022-06-23,株式会社ハピネスなな,,株式会社,埼玉県,北葛飾郡松伏町,大字築比地４４番地３,,11,465,3430102,,,,,,,2022-06-23,1,,,,,ハピネスナナ,0
1613,7030001148853,新規,0,2022-06-23,2022-06-23,株式会社Ｏｋｏ　ｈｏｍｅ,,株式会社,埼玉県,さいたま市見沼区,大字膝子３６７番地１,,11,104,3370021,,,,,,,2022-06-23,1,,,,,オーコーホーム,0
1615,7030003019656,新規,0,2022-06-23,2022-06-23,ＹＯＫＥ合同会社,,合同会社,埼玉県,川越市,脇田町５番地１０ジョイファーストビル５階,,11,201,3501122,,,,,,,2022-06-23,1,,,,,ヨーク,0
1619,7040001123946,新規,0,2022-06-23,2022-06-23,株式会社吉半,,株式会社,千葉県,松戸市,三ケ月１２８０番地パークサイドレジデンス４０２号,,12,207,2700026,,,,,,,2022-06-23,1,,,,,ヨシハン,0
1623,7040003020299,新規,0,2022-06-23,2022-06-23,合同会社藤原建設,,合同会社,千葉県,松戸市,二ツ木１１２番地の１ルネサンスアベニュー北小金２０５号,,12,207,2700027,,,,,,,2022-06-23,1,,,,,フジワラケンセツ,0
1624,7040003020324,新規,0,2022-06-23,2022-06-23,フリーダム合同会社,,合同会社,千葉県,いすみ市,苅谷３９３番地１,,12,238,2980123,,,,,,,2022-06-23,1,,,,,フリーダム,0
1630,7050001051270,新規,0,2022-06-23,2022-06-23,株式会社平田家電,,株式会社,茨城県,つくばみらい市,板橋２５２９番地,,08,235,3002307,,,,,,,2022-06-23,1,,,,,ヒラタカデン,0
1633,7050003006636,新規,0,2022-06-23,2022-06-23,合同会社Ｋ．Ｍ　ＩＮＴＥＲＮＡＴＩＯＮＡＬ　ＴＲＡＤＩＮＧ,,合同会社,茨城県,下妻市,半谷５８２番地１,,08,210,3040005,,,,,,,2022-06-23,1,,,,,ケーエムインターナショナルトレーディング,0
1645,7070001039363,新規,0,2022-06-23,2022-06-23,株式会社ＴＡＫＵＫＥＮ,,株式会社,群馬県,伊勢崎市,東上之宮町１３９０番地,,10,204,3720815,,,,,,,2022-06-23,1,,,,,タクケン,0
1649,7070003004522,新規,0,2022-06-23,2022-06-23,ＮＨＡＴ　ＮＡＭ合同会社,,合同会社,群馬県,前橋市,表町２丁目１番１０号,,10,201,3710024,,,,,,,2022-06-23,1,,,,,,0
1650,7080001025032,新規,0,2022-06-23,2022-06-23,株式会社田村モータース,,株式会社,静岡県,静岡市清水区,半左衛門新田１５２番地の３,,22,103,4240056,,,,,,,2022-06-23,1,,,,,タムラモータース,0
1652,7090001017631,新規,0,2022-06-23,2022-06-23,株式会社Ｓ‐ｆａｒｍ,,株式会社,山梨県,笛吹市,石和町砂原２２７番地,,19,211,4060044,,,,,,,2022-06-23,1,,,,,エスファーム,0
1655,7100001035458,新規,0,2022-06-23,2022-06-23,株式会社こはば,,株式会社,長野県,松本市,鎌田２丁目５番２号,,20,202,3900837,,,,,,,2022-06-23,1,,,,,コハバ,0
1656,7100001035466,新規,0,2022-06-23,2022-06-23,株式会社ＩＲＯＤＯＲＩ,,株式会社,長野県,上伊那郡辰野町,大字辰野１５５１番地,,20,382,3990421,,,,,,,2022-06-23,1,,,,,イロドリ,0
1671,7120003021966,新規,0,2022-06-23,2022-06-23,合同会社ＴＲＣ,,合同会社,大阪府,大阪市港区,磯路３丁目６番１０号,,27,107,5520003,,,,,,,2022-06-23,1,,,,,ティーアールシー,0
1677,7122001035997,新規,0,2022-06-23,2022-06-23,株式会社Ｓｐａｒｋｌｅ,,株式会社,大阪府,東大阪市,西石切町２丁目１０番２８号,,27,227,5798013,,,,,,,2022-06-23,1,,,,,スパークル,0
1679,7130001072036,新規,0,2022-06-23,2022-06-23,株式会社Ｇｒｅｅｎ,,株式会社,京都府,亀岡市,大井町小金岐旭１９番地,,26,206,6210018,,,,,,,2022-06-23,1,,,,,グリーン,0
1680,7130003008005,新規,0,2022-06-23,2022-06-23,合同会社カラミラ,,合同会社,京都府,京田辺市,三山木中央４丁目６番地３ゲマインシャフト１Ｆ,,26,211,6100313,,,,,,,2022-06-23,1,,,,,カラミラ,0
1681,7130003008021,新規,0,2022-06-23,2022-06-23,合同会社忠住,,合同会社,京都府,京都市西京区,下津林番条町３５番地,,26,111,6158057,,,,,,,2022-06-23,1,,,,,タダズミ,0
1694,7150001025644,新規,0,2022-06-23,2022-06-23,株式会社心輪,,株式会社,奈良県,橿原市,見瀬町４番４号グリーンコーポ１０１Ｄ,,29,205,6340064,,,,,,,2022-06-23,1,,,,,ココワ,0
1695,7150003002716,新規,0,2022-06-23,2022-06-23,合同会社Ｔａｂｌｅ　Ｃｒｅｗ,,合同会社,奈良県,奈良市,学園緑ヶ丘１丁目１６番３号,,29,201,6310026,,,,,,,2022-06-23,1,,,,,テーブルクルー,0
1696,7160003002599,新規,0,2022-06-23,2022-06-23,合同会社ＬＡＵＧＨ　ＴＡＬＥ,,合同会社,滋賀県,近江八幡市,安土町西老蘇８７３番地１－１０５号,,25,204,5211334,,,,,,,2022-06-23,1,,,,,ラフテル,0
1699,7180001151826,新規,0,2022-06-23,2022-06-23,株式会社ナノケア研究所,,株式会社,愛知県,西春日井郡豊山町,大字豊場字流川２９番地,,23,342,4800202,,,,,,,2022-06-23,1,,,,,ナノケアケンキュウジョ,0
1700,7180001151859,新規,0,2022-06-23,2022-06-23,株式会社大陽,,株式会社,愛知県,日進市,赤池町西組１２４番地２,,23,230,4700126,,,,,,,2022-06-23,1,,,,,タイヨウ,0
1702,7180003023965,新規,0,2022-06-23,2022-06-23,合同会社アイテクト,,合同会社,愛知県,小牧市,中央１丁目２７１番地大垣共立銀行小牧支店ビル,,23,219,4850029,,,,,,,2022-06-23,1,,,,,アイテクト,0
1705,7190003004023,新規,0,2022-06-23,2022-06-23,合同会社真信商店,,合同会社,三重県,鈴鹿市,江島町３７６０番地メゾンルミエールＩＩ,00126982,24,207,5100237,,,,,,,2022-06-23,1,,,,,マシンショウテン,0
1710,7200001040209,新規,0,2022-06-23,2022-06-23,株式会社アトム,,株式会社,岐阜県,加茂郡七宗町,川並１５５番地３,,21,504,5090402,,,,,,,2022-06-23,1,,,,,アトム,0
1715,7220003003310,新規,0,2022-06-23,2022-06-23,合同会社Ｎｏｖｅｌｄｏｏｒ,,合同会社,石川県,白山市,月橋町ヌ２７番地５,,17,210,9202104,,,,,,,2022-06-23,1,,,,,ノーベルドア,0
1720,7240001059971,新規,0,2022-06-23,2022-06-23,株式会社プルスコード,,株式会社,広島県,広島市南区,比治山本町１３番１７,,34,103,7320816,,,,,,,2022-06-23,1,,,,,プルスコード,0
1727,7260001036977,新規,0,2022-06-23,2022-06-23,株式会社８ホールディングス,,株式会社,岡山県,倉敷市,黒石１１３番地１１,,33,202,7100035,,,,,,,2022-06-23,1,,,,,ビィーホールディングス,0
1735,7290801028650,新規,0,2022-06-23,2022-06-23,株式会社佐藤工業,,株式会社,福岡県,田川郡川崎町,大字川崎１７７番地の４,,40,605,8270003,,,,,,,2022-06-23,1,,,,,サトウコウギョウ,0
1739,7330003009429,新規,0,2022-06-23,2022-06-23,さかた不動産合同会社,,合同会社,熊本県,八代市,植柳上町８５８番地１２,,43,202,8660081,,,,,,,2022-06-23,1,,,,,サカタフドウサン,0
1742,7340001024833,新規,0,2022-06-23,2022-06-23,株式会社うしとベロ,,株式会社,鹿児島県,薩摩川内市,祁答院町下手６５８４番１号,,46,215,8951501,,,,,,,2022-06-23,1,,,,,ウシトベロ,0
1743,7340003003835,新規,0,2022-06-23,2022-06-23,ＬＨジャパン合同会社,,合同会社,鹿児島県,姶良市,加治木町木田５８１番地１,,46,225,8995241,,,,,,,2022-06-23,1,,,,,エルエイチジャパン,0
1759,7380001032915,新規,0,2022-06-23,2022-06-23,株式会社創園社,,株式会社,福島県,伊達郡川俣町,大字秋山字南６４番地の５,,07,308,9601409,,,,,,,2022-06-23,1,,,,,ソウエンシャ,0
1765,7410001013218,新規,0,2022-06-23,2022-06-23,サンテ警備株式会社,,株式会社,秋田県,鹿角市,十和田毛馬内字上陣場５７番地１サンライフ十和田３０４,,05,209,0185334,,,,,,,2022-06-23,1,,,,,サンテケイビ,0
1777,7430003014030,新規,0,2022-06-23,2022-06-23,合同会社ＲｅＭｏｏｄ,,合同会社,北海道,石狩市,樽川五条２丁目２５番地,,01,235,0613255,,,,,,,2022-06-23,1,,,,,リムード,0
1778,7440001009106,新規,0,2022-06-23,2022-06-23,株式会社カプリシャス国土開発,,株式会社,北海道,函館市,梁川町５番８号,,01,202,0400015,,,,,,,2022-06-23,1,,,,,カプリシャスコクドカイハツ,0
1785,7490001010216,新規,0,2022-06-23,2022-06-23,株式会社リッツアイル,,株式会社,高知県,高知市,昭和町２０番１４号,,39,201,7800063,,,,,,,2022-06-23,1,,,,,リッツアイル,0
1786,7490003001675,新規,0,2022-06-23,2022-06-23,合同会社ベア,,合同会社,高知県,高岡郡佐川町,西組８５１番地５,,39,402,7891234,,,,,,,2022-06-23,1,,,,,ベア,0
1790,7700150109175,新規,0,2022-06-23,2022-06-01,大木ムービー・アカデミー,,その他,大阪府,大阪市西淀川区,福町１丁目１２－３４－２１４,,27,113,5550034,,,,,,,2022-06-01,1,,,,,オオキムービーアカデミー,0
1791,7700150110042,新規,0,2022-06-23,2022-06-20,Ｉｎｎｅｒ　Ｖｉｅｗｓ,,その他,東京都,町田市,小山町３９９４－２９,,13,209,1940212,,,,,,,2022-06-20,1,,,,,インナービユーズ,0
1794,8010001227229,新規,0,2022-06-23,2022-06-23,株式会社ＰｕｒｒＳｏｎｇ　Ｊａｐａｎ,,株式会社,東京都,中央区,銀座１丁目２２番１１号銀座大竹ビジデンス２階,,13,102,1040061,,,,,,,2022-06-23,1,,,,,パーソングジャパン,0
1795,8010005035173,新規,0,2022-06-23,2022-06-23,セントラル・フォース税理士法人,,その他の設立登記法人,東京都,千代田区,外神田１丁目５番８号,,13,101,1010021,,,,,,,2022-06-23,1,,,,,セントラルフォース,0
1798,8010401168147,新規,0,2022-06-23,2022-06-23,Ｓｕｐｐｌｙ　Ｃｈａｉｎ　ＧＯ　ＪＰ株式会社,,株式会社,東京都,港区,南青山４丁目１７番１３号１０２室,,13,103,1070062,,,,,,,2022-06-23,1,,,,,サプライチェーンゴージャパン,0
1807,8010601061366,新規,0,2022-06-23,2022-06-23,株式会社ＳＥＶＥＮ,,株式会社,東京都,江東区,新大橋３丁目１１番２２号,,13,108,1350007,,,,,,,2022-06-23,1,,,,,セブン,0
1814,8010703006285,新規,0,2022-06-23,2022-06-23,合同会社ヒーリングビューティー,,合同会社,東京都,品川区,旗の台５丁目２８番２号セイケンハイツ２０７,,13,109,1420064,,,,,,,2022-06-23,1,,,,,ヒーリングビューティー,0
1816,8010803004214,新規,0,2022-06-23,2022-06-23,金涛合同会社,,合同会社,東京都,大田区,大森西５丁目１３番１３－３０２号,,13,111,1430015,,,,,,,2022-06-23,1,,,,,キントウ,0
1821,8011001148084,新規,0,2022-06-23,2022-06-23,株式会社Ｔｅｒｒａ東京,,株式会社,東京都,渋谷区,恵比寿南２丁目３番１０号,,13,113,1500022,,,,,,,2022-06-23,1,,,,,テラトウキョウ,0
1822,8011001148175,新規,0,2022-06-23,2022-06-23,株式会社アルティメットソリューションズ,,株式会社,東京都,渋谷区,道玄坂１丁目１０番８号渋谷道玄坂東急ビル２Ｆ－Ｃ,,13,113,1500043,,,,,,,2022-06-23,1,,,,,アルティメットソリューションズ,0
1823,8011003014862,新規,0,2022-06-23,2022-06-23,合同会社Ｎｏ　Ｂｏｒｄｅｒｓ,,合同会社,東京都,目黒区,中目黒５丁目２７番１８－７０９号,,13,110,1530061,,,,,,,2022-06-23,1,,,,,ノーボーダーズ,0
1824,8011003014912,新規,0,2022-06-23,2022-06-23,ＯＫ４Ｕ合同会社,,合同会社,東京都,渋谷区,笹塚１丁目３１番９－１０２号,,13,113,1510073,,,,,,,2022-06-23,1,,,,,オーケーフォーユー,0
1831,8011103011883,新規,0,2022-06-23,2022-06-23,合同会社Ｔ＆Ｃ,,合同会社,東京都,新宿区,余丁町１１番地１８,,13,104,1620055,,,,,,,2022-06-23,1,,,,,ティアンドシー,0
1848,8012403005451,新規,0,2022-06-23,2022-06-23,合同会社メタワークス,,合同会社,東京都,小金井市,梶野町１丁目２番３６号,,13,210,1840002,,,,,,,2022-06-23,1,,,,,メタワークス,0
1858,8013301049301,新規,0,2022-06-23,2022-06-23,株式会社ホビートレード,,株式会社,東京都,豊島区,東池袋１丁目２８番１号,,13,116,1700013,,,,,,,2022-06-23,1,,,,,ホビートレード,0
1861,8020001147046,新規,0,2022-06-23,2022-06-23,株式会社オフィスＭＴＲ,,株式会社,神奈川県,横浜市青葉区,荏子田１丁目１番地１５,,14,117,2250005,,,,,,,2022-06-23,1,,,,,オフィスエムティーアール,0
1865,8020003021991,新規,0,2022-06-23,2022-06-23,合同会社ＰＣＲ検査センター川崎,,合同会社,神奈川県,川崎市川崎区,東田町３番地１１栄ビル２階,,14,131,2100005,,,,,,,2022-06-23,1,,,,,ピーシーアールケンサセンターカワサキ,0
1869,8021001076318,新規,0,2022-06-23,2022-06-23,株式会社レバレッジハウス,,株式会社,神奈川県,平塚市,広川６０５番地の２９,,14,203,2591219,,,,,,,2022-06-23,1,,,,,レバレッジハウス,0
1870,8021001076326,新規,0,2022-06-23,2022-06-23,株式会社吉備屋,,株式会社,神奈川県,鎌倉市,御成町７番１１号,,14,204,2480012,,,,,,,2022-06-23,1,,,,,キビヤ,0
1871,8021001076342,新規,0,2022-06-23,2022-06-23,株式会社ＩＴＳ,,株式会社,神奈川県,鎌倉市,梶原２丁目２６番１－３１８号,,14,204,2470063,,,,,,,2022-06-23,1,,,,,アイティーエス,0
1874,8021003011850,新規,0,2022-06-23,2022-06-23,合同会社Ｍワークス,,合同会社,神奈川県,藤沢市,下土棚１０４３番地の６シャトレ―湘南１０２号室,,14,205,2520807,,,,,,,2022-06-23,1,,,,,エムワークス,0
1883,8030001148836,新規,0,2022-06-23,2022-06-23,株式会社フォルティッシモ,,株式会社,埼玉県,川口市,大字安行藤八１１番地の１１,,11,203,3340051,,,,,,,2022-06-23,1,,,,,フォルティッシモ,0
1884,8030003019614,新規,0,2022-06-23,2022-06-23,ＭＩＨＩＲＡＮＧＡ　ＥＮＴＥＲＰＲＩＳＥＳ合同会社,,合同会社,埼玉県,狭山市,柏原１８４７－２,,11,215,3501335,,,,,,,2022-06-23,1,,,,,ミヒランガエンタープライゼズ,0
1887,8040001123937,新規,0,2022-06-23,2022-06-23,株式会社電伸,,株式会社,千葉県,松戸市,新松戸１丁目１３０番地の２ジュネパレス新松戸第２７－４０２号,,12,207,2700034,,,,,,,2022-06-23,1,,,,,デンシン,0
1891,8040003020307,新規,0,2022-06-23,2022-06-23,ＲＲ　ｇｅｎｅｒａｌ　ｔｒａｄｉｎｇ合同会社,,合同会社,千葉県,富津市,富津１６４９番地,,12,226,2930021,,,,,,,2022-06-23,1,,,,,アールアールジェネラルトレーディング,0
1895,8050001051261,新規,0,2022-06-23,2022-06-23,株式会社ＳＭＡＲＴ　ＣＡＲＳ,,株式会社,茨城県,結城市,大字江川新宿１９６８番地２３浜野住宅Ｊ号棟,,08,207,3070042,,,,,,,2022-06-23,1,,,,,スマートカーズ,0
1896,8050001051278,新規,0,2022-06-23,2022-06-23,株式会社Ｎｏ．２,,株式会社,茨城県,水戸市,中原町８２９番地の１,,08,201,3190305,,,,,,,2022-06-23,1,,,,,ナンバーツー,0
1903,8070001039370,新規,0,2022-06-23,2022-06-23,株式会社エム・エンジニア,,株式会社,群馬県,安中市,松井田町二軒在家１６７４番地８,,10,211,3790223,,,,,,,2022-06-23,1,,,,,エムエンジニア,0
1904,8070001039379,新規,0,2022-06-23,2022-06-23,Ｐｌａｎｎｉｎｇ　Ｓ株式会社,,株式会社,群馬県,高崎市,上中居町２２番地１４,,10,202,3700851,,,,,,,2022-06-23,1,,,,,プランニングエス,0
1907,8080001025031,新規,0,2022-06-23,2022-06-23,株式会社静岡ファーム,,株式会社,静岡県,静岡市葵区,竜南３丁目１２番３号コアパレス竜南１階,,22,101,4200804,,,,,,,2022-06-23,1,,,,,シズオカファーム,0
1908,8080103002614,新規,0,2022-06-23,2022-06-23,合同会社ＣＨＩＥＳ　ＲＩＮＧ,,合同会社,静岡県,伊豆の国市,神島１０４４番地の２,,22,225,4102325,,,,,,,2022-06-23,1,,,,,チエズリング,0
1910,8090001017630,新規,0,2022-06-23,2022-06-23,株式会社望月特殊工業,,株式会社,山梨県,甲斐市,万才５０２番地２,,19,210,4000114,,,,,,,2022-06-23,1,,,,,モチヅキトクシュコウギョウ,0
1926,8120001246845,新規,0,2022-06-23,2022-06-23,Ｙ．Ｋ．ＬＥＡＰ株式会社,,株式会社,大阪府,大阪市住吉区,大領２丁目６番１７号,,27,120,5580001,,,,,,,2022-06-23,1,,,,,ワイケイリープ,0
1931,8130001072027,新規,0,2022-06-23,2022-06-23,富兆メディカル株式会社,,株式会社,京都府,京都市北区,西賀茂円峰１番地９４,,26,101,6038806,,,,,,,2022-06-23,1,,,,,トミチョウメディカル,0
1932,8130001072035,新規,0,2022-06-23,2022-06-23,株式会社夢創建築設計工務,,株式会社,京都府,京都市山科区,日ノ岡坂脇町７番地６,,26,110,6078496,,,,,,,2022-06-23,1,,,,,ムソウケンチクセッケイコウム,0
1942,8140003017838,新規,0,2022-06-23,2022-06-23,合同会社ＯＦＦＩＣＥ　ＲＯＸＹ,,合同会社,兵庫県,神戸市中央区,北長狭通１丁目２０番１３号,,28,110,6500012,,,,,,,2022-06-23,1,,,,,オフィスロキシー,0
1944,8150001025643,新規,0,2022-06-23,2022-06-23,人和株式会社,,株式会社,奈良県,橿原市,白橿町６丁目１６番１５号,,29,205,6340051,,,,,,,2022-06-23,1,,,,,ジンワ,0
1945,8150003002715,新規,0,2022-06-23,2022-06-23,合同会社タラール,,合同会社,奈良県,香芝市,上中１２６８番地６８,,29,210,6390265,,,,,,,2022-06-23,1,,,,,タラール,0
1947,8160001024297,新規,0,2022-06-23,2022-06-23,ＬＡ　ＤＡＣＨＡ株式会社,,株式会社,滋賀県,高島市,マキノ町海津字岩谷３６０,,25,212,5201811,,,,,,,2022-06-23,1,,,,,ラダッチャ,0
1950,8180001151817,新規,0,2022-06-23,2022-06-23,株式会社Ｒ‐ＥＳＴＡＴＥ,,株式会社,愛知県,名古屋市昭和区,北山町３丁目１７番地の５,,23,107,4660006,,,,,,,2022-06-23,1,,,,,アールエステート,0
1951,8180001151858,新規,0,2022-06-23,2022-06-23,株式会社金牙,,株式会社,愛知県,名古屋市中区,栄４丁目８番１６号プレコビル１階,,23,106,4600008,,,,,,,2022-06-23,1,,,,,キバ,0
1954,8180003023948,新規,0,2022-06-23,2022-06-23,合同会社ベリル,,合同会社,愛知県,名古屋市中川区,愛知町８－７－１０３,,23,110,4540807,,,,,,,2022-06-23,1,,,,,ベリル,0
1959,8190003004022,新規,0,2022-06-23,2022-06-23,合同会社コニンジャ,,合同会社,三重県,桑名市,松ノ木３丁目９番地１,,24,205,5110902,,,,,,,2022-06-23,1,,,,,コニンジャ,0
1963,8200001040208,新規,0,2022-06-23,2022-06-23,株式会社白新,,株式会社,岐阜県,関市,桜台３丁目１２番６号,,21,205,5013931,,,,,,,2022-06-23,1,,,,,ハクシン,0
1965,8200003005596,新規,0,2022-06-23,2022-06-23,合同会社縁し,,合同会社,岐阜県,岐阜市,細畑塚浦６４－２グリーンハイツ細畑Ｂ－１０８,,21,201,5008244,,,,,,,2022-06-23,1,,,,,エニシ,0
1968,8230001019422,新規,0,2022-06-23,2022-06-23,ぼくのいちご株式会社,,株式会社,富山県,南砺市,高堀１７６番地１,,16,210,9391511,,,,,,,2022-06-23,1,,,,,ボクノイチゴ,0
1975,8280001008726,新規,0,2022-06-23,2022-06-23,株式会社あごう,,株式会社,島根県,出雲市,塩冶町１４６４番地１,,32,203,6930021,,,,,,,2022-06-23,1,,,,,アゴウ,0
1979,8290001098023,新規,0,2022-06-23,2022-06-23,８１コンサルティング株式会社,,株式会社,福岡県,福岡市中央区,天神２丁目３番１０号,,40,133,8100001,,,,,,,2022-06-23,1,,,,,エイティワンコンサルティング,0
1980,8290003012667,新規,0,2022-06-23,2022-06-23,合同会社ＯＥ,,合同会社,福岡県,福岡市中央区,港１丁目８番４－１３０２号ラ・メール港,,40,133,8100075,,,,,,,2022-06-23,1,,,,,オーイー,0
1983,8290005018712,新規,0,2022-06-23,2022-06-23,一般社団法人地域創生女性プロジェクト,,その他の設立登記法人,福岡県,福岡市中央区,薬院３丁目１３番１１号,,40,133,8100022,,,,,,,2022-06-23,1,,,,,チイキソウセイジョセイプロジェクト,0
1990,8300005007085,新規,0,2022-06-23,2022-06-23,名護屋日本山妙法寺,,その他の設立登記法人,佐賀県,唐津市,鎮西町名護屋６５０番地,,41,202,8470401,,,,,,,2022-06-23,1,,,,,ナゴヤニホンザンミョウホウジ,0
1993,8310003004397,新規,0,2022-06-23,2022-06-23,合同会社多笑良,,合同会社,長崎県,松浦市,志佐町浦免１３２５,,42,208,8594501,,,,,,,2022-06-23,1,,,,,タワラ,0
1994,8320001019149,新規,0,2022-06-23,2022-06-23,株式会社清雲,,株式会社,大分県,豊後大野市,緒方町小原１１６２番地,,44,212,8796861,,,,,,,2022-06-23,1,,,,,セイウン,0
1995,8320003003836,新規,0,2022-06-23,2022-06-23,合同会社Ｔｅｃｈ　Ｌｉｆｅ,,合同会社,大分県,由布市,挾間町古野５８４番地３,,44,213,8795511,,,,,,,2022-06-23,1,,,,,テックライフ,0
2016,8400003002953,新規,0,2022-06-23,2022-06-23,フルワークス合同会社,,合同会社,岩手県,宮古市,日影町７番２８号,,03,202,0270007,,,,,,,2022-06-23,1,,,,,フルワークス,0
2024,8440001009105,新規,0,2022-06-23,2022-06-23,株式会社カプリシャス設計事務所,,株式会社,北海道,函館市,万代町１４番３３号,,01,202,0400075,,,,,,,2022-06-23,1,,,,,カプリシャスセッケイジムショ,0
2026,8450003002222,新規,0,2022-06-23,2022-06-23,六三海合同会社,,合同会社,北海道,枝幸郡枝幸町,目梨泊５４０番地,,01,514,0985816,,,,,,,2022-06-23,1,,,,,ロクサンカイ,0
2029,8480001011775,新規,0,2022-06-23,2022-06-23,漏水調査光水株式会社,,株式会社,徳島県,徳島市,名東町２丁目７０５番地の４,,36,201,7700047,,,,,,,2022-06-23,1,,,,,ロウスイチョウサコウスイ,0
2030,8490001010215,新規,0,2022-06-23,2022-06-23,株式会社仁淀川物産,,株式会社,高知県,土佐市,宇佐町宇佐２３２３番地６,,39,205,7811161,,,,,,,2022-06-23,1,,,,,ニヨドガワブッサン,0
2039,9010001227566,新規,0,2022-06-23,2022-06-23,株式会社ＳＯＲＡＫＡ,,株式会社,東京都,中央区,銀座８丁目１８番３号銀座加藤ビル２階,,13,102,1040061,,,,,,,2022-06-23,1,,,,,ソラカ,0
2040,9010001227590,新規,0,2022-06-23,2022-06-23,株式会社クラウドナイン,,株式会社,東京都,中央区,銀座１丁目１２番４号Ｎ＆Ｅ・ＢＬＤ．７階,,13,102,1040061,,,,,,,2022-06-23,1,,,,,クラウドナイン,0
2043,9010005035172,新規,0,2022-06-23,2022-06-23,特定非営利活動法人音楽の時間,,その他の設立登記法人,東京都,中央区,銀座１丁目１２番４号Ｎ＆ＥＢＬＤ．７階,,13,102,1040061,,,,,,,2022-06-23,1,,,,,オンガクノジカン,0
2057,9010501048982,新規,0,2022-06-23,2022-06-23,一莞株式会社,,株式会社,東京都,台東区,千束３丁目２１－１２－３０２号室,,13,106,1110031,,,,,,,2022-06-23,1,,,,,イチカン,0
2058,9010501049015,新規,0,2022-06-23,2022-06-23,農豊株式会社,,株式会社,東京都,台東区,北上野２丁目２５番９号－５０３号室,,13,106,1100014,,,,,,,2022-06-23,1,,,,,ノウホウ,0
2060,9010601061365,新規,0,2022-06-23,2022-06-23,株式会社東大門市場,,株式会社,東京都,墨田区,立花３丁目１０番５－１０２号,,13,107,1310043,,,,,,,2022-06-23,1,,,,,トンデムン,0
2061,9010701042851,新規,0,2022-06-23,2022-06-23,株式会社ｍ＆ｌｏ,,株式会社,東京都,品川区,小山３丁目１４番２号,,13,109,1420062,,,,,,,2022-06-23,1,,,,,エムアンドエルオー,0
2074,9011001148190,新規,0,2022-06-23,2022-06-23,株式会社Ｅｕｒｅｋａ,,株式会社,東京都,渋谷区,西原３丁目３４番１５号,,13,113,1510066,,,,,,,2022-06-23,1,,,,,ユリイカ,0
2075,9011003014903,新規,0,2022-06-23,2022-06-23,合同会社トータス,,合同会社,東京都,渋谷区,道玄坂１丁目１０番８号渋谷道玄坂東急ビル２Ｆ－Ｃ,,13,113,1500043,,,,,,,2022-06-23,1,,,,,トータス,0
2076,9011101099318,新規,0,2022-06-23,2022-06-23,株式会社ＳＯＨＯ,,株式会社,東京都,新宿区,西新宿３丁目３番１３号西新宿水間ビル６階,,13,104,1600023,,,,,,,2022-06-23,1,,,,,ソホ,0
2083,9011203003854,新規,0,2022-06-23,2022-06-23,合同会社ＡＫＲ,,合同会社,東京都,中野区,弥生町２丁目１５番１７号ニューライフアサヒ７０１,,13,114,1640013,,,,,,,2022-06-23,1,,,,,エーケーアール,0
2090,9011401024330,新規,0,2022-06-23,2022-06-23,ワールドキッズ株式会社,,株式会社,東京都,板橋区,大和町２５－９,,13,119,1730012,,,,,,,2022-06-23,1,,,,,ワールドキッズ,0
2091,9011401024347,新規,0,2022-06-23,2022-06-23,株式会社プラスアール,,株式会社,東京都,板橋区,三園２丁目１７番１７号,,13,119,1750091,,,,,,,2022-06-23,1,,,,,プラスアール,0
2092,9011403003704,新規,0,2022-06-23,2022-06-23,Ａｒｃｈｗａｙ合同会社,,合同会社,東京都,板橋区,志村２丁目７番９号,,13,119,1740056,,,,,,,2022-06-23,1,,,,,アーチウェイ,0
2106,9012701017115,新規,0,2022-06-23,2022-06-23,株式会社リョーツ,,株式会社,東京都,小平市,小川町１丁目４５６,,13,211,1870032,,,,,,,2022-06-23,1,,,,,リョーツ,0
2107,9012801021652,新規,0,2022-06-23,2022-06-23,株式会社鈴木工務店,,株式会社,東京都,国立市,泉３丁目２７番地の１４,,13,215,1860012,,,,,,,2022-06-23,1,,,,,スズキコウムテン,0
2108,9012801021677,新規,0,2022-06-23,2022-06-23,株式会社Ｋ‐ＤＲＥＡＭ,,株式会社,東京都,立川市,一番町６丁目１５番地の１,,13,202,1900033,,,,,,,2022-06-23,1,,,,,ケイドリーム,0
2113,9013301049291,新規,0,2022-06-23,2022-06-23,株式会社Ｇ‐ＳＴＹＬＥ,,株式会社,東京都,豊島区,上池袋３丁目３９番２５号,,13,116,1700012,,,,,,,2022-06-23,1,,,,,ジースタイル,0
2121,9020001147029,新規,0,2022-06-23,2022-06-23,株式会社中野工業,,株式会社,神奈川県,川崎市幸区,南加瀬４丁目１３番１２号,,14,132,2120055,,,,,,,2022-06-23,1,,,,,ナカノコウギョウ,0
2131,9021001076341,新規,0,2022-06-23,2022-06-23,株式会社Ｔｅｃｈ　Ｆｕｓｉｏｎ,,株式会社,神奈川県,鎌倉市,梶原２丁目２６番１－３１８号,,14,204,2470063,,,,,,,2022-06-23,1,,,,,テックフュージョン,0
2142,9030001148819,新規,0,2022-06-23,2022-06-23,株式会社Ｎ＆Ｎ　ＳＯＬＵＴＩＯＮ,,株式会社,埼玉県,ふじみ野市,上福岡６丁目１番２０号,,11,245,3560004,,,,,,,2022-06-23,1,,,,,エヌアンドエヌソリューション,0
2143,9030001148827,新規,0,2022-06-23,2022-06-23,株式会社ＬＯＶＥＲＴ　ＴＲＡＤＩＮＧ　ＩＮＴＥＲＮＡＴＩＯＮＡＬ,,株式会社,埼玉県,越谷市,南町３丁目９番２０号ペンキャビンマンション３０２,,11,222,3430832,,,,,,,2022-06-23,1,,,,,ロバートトレーディングインターナショナル,0
2150,9040001123928,新規,0,2022-06-23,2022-06-23,株式会社Ｏ・Ｎ・Ｅ　ＣＡＲ　ＳＥＲＶＩＣＥ,,株式会社,千葉県,佐倉市,飯田９５１番地２,,12,212,2850032,,,,,,,2022-06-23,1,,,,,オーエヌイーカーサービス,0
2151,9040001123969,新規,0,2022-06-23,2022-06-23,株式会社メロンコンサルティング,,株式会社,千葉県,船橋市,本町２丁目２－７,,12,204,2730005,,,,,,,2022-06-23,1,,,,,メロンコンサルティング,0
2154,9040003020256,新規,0,2022-06-23,2022-06-23,合同会社Ｐｒｅｖｅｎｔｉｖｅ　Ｐｈａｒｍａｃｙ,,合同会社,千葉県,千葉市中央区,新宿１丁目１０番３号,,12,101,2600021,,,,,,,2022-06-23,1,,,,,プリベンティブファーマシー,0
2155,9040003020297,新規,0,2022-06-23,2022-06-23,合同会社児島商会,,合同会社,千葉県,市川市,市川２丁目４番１－３０６号,,12,203,2720034,,,,,,,2022-06-23,1,,,,,コジマショウカイ,0
2157,9050001051285,新規,0,2022-06-23,2022-06-23,株式会社Ａｆｒｉｃａ　Ｌｏｇｉｓｔｉｃｓ,,株式会社,茨城県,坂東市,寺久１２８３番地１,,08,228,3060656,,,,,,,2022-06-23,1,,,,,アフリカロジスティクス,0
2159,9050003006634,新規,0,2022-06-23,2022-06-23,ＳＫＹ　ＴＯＫＹＯ　ＴＲＡＤＩＮＧ　ＣＯＭＰＡＮＹ合同会社,,合同会社,茨城県,筑西市,樋口１６８番２３の４,,08,227,3080001,,,,,,,2022-06-23,1,,,,,スカイトーキョートレーディングカンパニー,0
2166,9060001034982,新規,0,2022-06-23,2022-06-23,株式会社ティーエム,,株式会社,栃木県,佐野市,田沼町１８０６番地１２,,09,204,3270317,,,,,,,2022-06-23,1,,,,,ティーエム,0
2169,9070003004520,新規,0,2022-06-23,2022-06-23,合同会社まめ太郎,,合同会社,群馬県,渋川市,渋川１３０５番地,,10,208,3770008,,,,,,,2022-06-23,1,,,,,マメタロウ,0
2172,9090003002118,新規,0,2022-06-23,2022-06-23,合同会社住宅ローンのみかた,,合同会社,山梨県,甲府市,飯田４丁目８番２１号グリーンサイドコーポＩＩ４０１号室,00126983,19,201,4000035,,,,,,,2022-06-23,1,,,,,ジュウタクローンノミカタ,0
2182,9120001246844,新規,0,2022-06-23,2022-06-23,ボンボンパフェ株式会社,,株式会社,大阪府,大阪市中央区,南船場１丁目６番１７号,,27,128,5420081,,,,,,,2022-06-23,1,,,,,ボンボンパフェ,0
2183,9120001246869,新規,0,2022-06-23,2022-06-23,リヴス株式会社,,株式会社,大阪府,大阪市西区,北堀江１丁目６番２号サンワールドビル９階,,27,106,5500014,,,,,,,2022-06-23,1,,,,,リヴス,0
2184,9120001246902,新規,0,2022-06-23,2022-06-23,東陽株式会社,,株式会社,大阪府,門真市,上野口町３６番１４号,,27,223,5710070,,,,,,,2022-06-23,1,,,,,トウヨウ,0
2185,9120001246910,新規,0,2022-06-23,2022-06-23,株式会社ＲｅＯＮＥ,,株式会社,大阪府,大阪市西区,江戸堀１丁目１９番２３号長崎ビル１０５,,27,106,5500002,,,,,,,2022-06-23,1,,,,,レオン,0
2195,9122001035995,新規,0,2022-06-23,2022-06-23,株式会社シンシア,,株式会社,大阪府,八尾市,弓削町１丁目２２番地,,27,212,5810032,,,,,,,2022-06-23,1,,,,,シンシア,0
2211,9140001126482,新規,0,2022-06-23,2022-06-23,株式会社三星商事,,株式会社,兵庫県,神戸市中央区,山本通２丁目２－１,,28,110,6500003,,,,,,,2022-06-23,1,,,,,サンセイショウジ,0
2212,9140001126499,新規,0,2022-06-23,2022-06-23,株式会社Ｈｉｌｏ,,株式会社,兵庫県,神戸市灘区,灘南通４丁目３番２０号,,28,102,6570841,,,,,,,2022-06-23,1,,,,,ヒロ,0
2234,9180001151832,新規,0,2022-06-23,2022-06-23,株式会社ライズ,,株式会社,愛知県,大府市,北崎町７丁目４０番地の１ルピナスコートＢ１０１号,,23,223,4740002,,,,,,,2022-06-23,1,,,,,ライズ,0
2235,9180001151849,新規,0,2022-06-23,2022-06-23,株式会社ＴＥＣ,,株式会社,愛知県,名古屋市名東区,延珠町２０９番地第三メゾン高安１０１号,,23,115,4650003,,,,,,,2022-06-23,1,,,,,ティーイーシー,0
2236,9180001151857,新規,0,2022-06-23,2022-06-23,株式会社ウェルステーション,,株式会社,愛知県,名古屋市中区,栄３丁目１２番６号,,23,106,4600008,,,,,,,2022-06-23,1,,,,,ウェルステーション,0
2240,9180003023963,新規,0,2022-06-23,2022-06-23,合同会社Ｒ＆Ｅ,,合同会社,愛知県,名古屋市北区,平安２丁目１０番１９号,,23,103,4620819,,,,,,,2022-06-23,1,,,,,アールアンドイー,0
2244,9200003005595,新規,0,2022-06-23,2022-06-23,信長バナナ合同会社,,合同会社,岐阜県,各務原市,鵜沼山崎町１丁目１１９番地４,,21,213,5090124,,,,,,,2022-06-23,1,,,,,,0
2248,9220003003309,新規,0,2022-06-23,2022-06-23,合同会社Ｈａｐｐｉｎｅｓｓ,,合同会社,石川県,白山市,月橋町ヌ２２番地４,,17,210,9202104,,,,,,,2022-06-23,1,,,,,ハッピネス,0
2258,9290003012666,新規,0,2022-06-23,2022-06-23,合同会社ひなた,,合同会社,福岡県,福岡市中央区,今泉１丁目１９番１０－２０２号,,40,133,8100021,,,,,,,2022-06-23,1,,,,,ヒナタ,0
2262,9290801028649,新規,0,2022-06-23,2022-06-23,株式会社ＡＡＬＥＡＤ,,株式会社,福岡県,遠賀郡岡垣町,海老津駅南３丁目２番１７号,,40,383,8114238,,,,,,,2022-06-23,1,,,,,エーエーリード,0
2264,9310003004396,新規,0,2022-06-23,2022-06-23,合同会社コノユビトーマレ,,合同会社,長崎県,大村市,上諏訪町１２３３番地５,,42,205,8560023,,,,,,,2022-06-23,1,,,,,コノユビトーマレ,0
2265,9320001019156,新規,0,2022-06-23,2022-06-23,株式会社くものうえ,,株式会社,大分県,大分市,中央町４丁目１番２４号,,44,201,8700035,,,,,,,2022-06-23,1,,,,,クモノウエ,0
2267,9330001029864,新規,0,2022-06-23,2022-06-23,株式会社Ｐｒｏｆｉｔ,,株式会社,熊本県,熊本市中央区,桜町３番３０－５０２号,,43,101,8600805,,,,,,,2022-06-23,1,,,,,プロフィット,0
2274,9350005006081,新規,0,2022-06-23,2022-06-23,一般社団法人ＲＩＰＰＬＥ,,その他の設立登記法人,宮崎県,宮崎市,矢の先町１１４番地,,45,201,8800034,,,,,,,2022-06-23,1,,,,,リップル,0
2275,9360003012106,新規,0,2022-06-23,2022-06-23,合同会社ＭＢＣ,,合同会社,沖縄県,那覇市,久茂地２丁目１４番１２号Ｃ１８Ｏｆｆｉｃｅ　ＫＵＭＯＪＩ,,47,201,9000015,,,,,,,2022-06-23,1,,,,,エムビーシー,0
2285,9400001015923,新規,0,2022-06-23,2022-06-23,株式会社彩福,,株式会社,岩手県,北上市,大堤北２丁目１０番６号,,03,206,0240052,,,,,,,2022-06-23,1,,,,,アヤフク,0
2294,9430003014029,新規,0,2022-06-23,2022-06-23,合同会社エアテック,,合同会社,北海道,札幌市厚別区,厚別中央一条２丁目５－１４,,01,108,0040051,,,,,,,2022-06-23,1,,,,,エアテック,0
2303,9490001010214,新規,0,2022-06-23,2022-06-23,株式会社ＹＫＳ,,株式会社,高知県,高知市,瀬戸２丁目６番１８－１号,,39,201,7810250,,,,,,,2022-06-23,1,,,,,ワイケーエス,0
2308,9700150110346,新規,0,2022-06-23,2022-06-23,Ｓｏｌａｒ　Ｐｒｏｊｅｃｔｓ　ＬＬＣ,,外国会社等,,,,,,,,１２０１　Ｎｏｒｔｈ　Ｍａｒｋｅｔ　Ｓｔｒｅｅｔ，　Ｓｕｉｔｅ　１００２，　Ｗｉｌｍｉｎｇｔｏｎ，　Ｄｅｌａｗａｒｅ　１９８０１－１８０７,,,,,,2022-06-23,1,,,,,ソーラープロジエクト,0
