sequenceNumber,corporateNumber,process,correct,updateDate,changeDate,name,nameImageId,kind,prefectureName,cityName,streetNumber,addressImageId,prefectureCode,cityCode,postCode,addressOutside,addressOutsideImageId,closeDate,closeCause,successorCorporateNumber,changeCause,assignmentDate,latest,enName,enPrefectureName,enCityName,enAddressOutside,furigana,hihyoji
50,1010901026174,登記記録の閉鎖等,0,2024-05-14,2024-05-08,株式会社ウイ,,株式会社,東京都,世田谷区,給田３丁目６番４号,,13,112,1570064,,,2024-05-08,清算の結了等,,,2015-10-05,1,,,,,ウイ,0
59,1011003006908,登記記録の閉鎖等,0,2024-05-14,2024-05-07,Ｍｅｄｉ－Ｐａｒｔｎｅｒｓ合同会社,,合同会社,東京都,江東区,豊洲３丁目６番５－２７０２号,,13,108,1350061,,,2024-05-07,清算の結了等,,,2016-07-06,1,,,,,メディパートナーズ,0
115,1030002014861,登記記録の閉鎖等,0,2024-05-14,2024-05-10,有限会社リーベジャパン,,有限会社,埼玉県,さいたま市見沼区,東大宮３丁目６番２号ブルーハイツＢ－４０５,,11,104,3370051,,,2024-05-10,清算の結了等,,,2015-10-05,1,,,,,リーベジャパン,0
118,1030003007088,登記記録の閉鎖等,0,2024-05-14,2024-05-08,合同会社はな,,合同会社,埼玉県,さいたま市緑区,大字下山口新田１１番地２,,11,109,3360925,,,2024-05-08,清算の結了等,,,2015-10-05,1,,,,,ハナ,0
137,1050001043018,登記記録の閉鎖等,0,2024-05-14,2024-05-09,株式会社アールサービス,,株式会社,茨城県,龍ケ崎市,川原代町１２０３番地１,,08,208,3010005,,,2024-05-09,清算の結了等,,,2017-06-28,1,,,,,アールサービス,0
150,1080102004675,登記記録の閉鎖等,0,2024-05-14,2024-05-08,有限会社ニット菊屋沼津,,有限会社,静岡県,沼津市,高島町２３番１２号プランシェ沼津高島町１００４,,22,203,4100056,,,2024-05-08,清算の結了等,,,2015-10-05,1,,,,,ニットキクヤヌマヅ,0
174,1120005013629,登記記録の閉鎖等,0,2024-05-14,2024-05-02,特定非営利活動法人ジェイ・エス・シー,,その他の設立登記法人,大阪府,寝屋川市,宝町１－８,,27,215,5720067,,,2024-05-02,清算の結了等,,,2015-10-05,1,,,,,ジェイエスシー,0
201,1180001064711,登記記録の閉鎖等,0,2024-05-14,2024-05-02,株式会社ツキヤマデザインオフィス,,株式会社,愛知県,名古屋市中区,丸の内１丁目７番６号,,23,106,4600002,,,2024-05-02,清算の結了等,,,2015-10-05,1,,,,,ツキヤマデザインオフィス,0
202,1180001074909,登記記録の閉鎖等,0,2024-05-14,2024-05-02,朋世建設株式会社,,株式会社,愛知県,春日井市,梅ケ坪町１１１番地の２,,23,206,4860856,,,2024-05-02,清算の結了等,,,2015-10-05,1,,,,,ホウセイケンセツ,0
205,1180001135198,登記記録の閉鎖等,0,2024-05-14,2024-05-01,株式会社ケントス,,株式会社,愛知県,名古屋市千種区,神田町１６番１６号,,23,101,4640077,,,2024-05-01,合併による解散等,7180003006251,令和６年５月１日名古屋市瑞穂区春山町１１番地の４合資会社実田屋（7180003006251）に合併し解散,2019-01-17,1,,,,,ケントス,0
206,1180001139496,登記記録の閉鎖等,0,2024-05-14,2024-04-30,株式会社Ｎ．ＰＬＵＳ,,株式会社,愛知県,岩倉市,石仏町岩塚２２番地,00118683,23,228,4820034,,,2024-04-30,清算の結了等,,,2020-01-10,1,,,,,エヌプラス,0
211,1180002000888,登記記録の閉鎖等,0,2024-05-14,2024-05-01,有限会社大栄不動産,,有限会社,愛知県,名古屋市守山区,新守山２８１７番地,,23,113,4630070,,,2024-05-01,合併による解散等,9180001052469,令和６年５月１日名古屋市中村区椿町１５番８号ＡＢＣ株式会社（9180001052469）に合併し解散,2015-10-05,1,,,,,ダイエイフドウサン,0
215,1180301009960,登記記録の閉鎖等,0,2024-05-14,2024-05-07,株式会社大黒商事,,株式会社,愛知県,豊川市,中央通３丁目２８番地,,23,207,4420051,,,2024-05-07,清算の結了等,,,2015-10-05,1,,,,,ダイコクショウジ,0
223,1200001036550,登記記録の閉鎖等,0,2024-05-14,2024-05-13,株式会社ＪＵＮＧＬｅｅｅｅ,,株式会社,岐阜県,岐阜市,神田町６丁目２５番地２辻ビル２階,,21,201,5008833,,,2024-05-13,清算の結了等,,,2019-08-07,1,,,,,ジャングリー,0
226,1230001010916,登記記録の閉鎖等,0,2024-05-14,2024-05-07,北陸食品株式会社,,株式会社,富山県,高岡市,下黒田７７７番地,,16,202,9330852,,,2024-05-07,清算の結了等,,,2015-10-05,1,,,,,ホクリクショクヒン,0
233,1250005008293,登記記録の閉鎖等,0,2024-05-14,2024-05-10,特定非営利活動法人防府まちコミュ,,その他の設立登記法人,山口県,防府市,天神１丁目６番３７号,,35,206,7470034,,,2024-05-10,清算の結了等,,,2017-03-13,1,,,,,ホウフマチコミュ,0
263,1370401000429,登記記録の閉鎖等,0,2024-05-14,2024-05-07,株式会社エンドー,,株式会社,宮城県,登米市,迫町佐沼字大網９２番地の１,,04,212,9870511,,,2024-05-07,清算の結了等,,,2015-10-05,1,,,,,エンドー,0
279,1430001083280,登記記録の閉鎖等,0,2024-05-14,2024-05-10,株式会社井口組,,株式会社,北海道,札幌市白石区,中央二条３丁目１番５３号三晃ビル３階,,01,104,0030012,,,2024-05-10,清算の結了等,,,2021-01-29,1,,,,,イグチグミ,0
282,1430001087835,登記記録の閉鎖等,0,2024-05-14,2024-03-18,株式会社モリアゲ,,株式会社,北海道,札幌市東区,北三十四条東２１丁目２番１号ル・ケレス１２０１号室,,01,103,0070834,,,2024-03-18,清算の結了等,,,2022-11-15,1,,,,,モリアゲ,0
291,1450003001684,登記記録の閉鎖等,0,2024-05-14,2024-05-08,合同会社ｐｏｒｔｏ　ｓｔａｆｆ,,合同会社,北海道,旭川市,東鷹栖二条４丁目６３８番地の２３７,,01,204,0718102,,,2024-05-08,清算の結了等,,,2017-12-28,1,,,,,ポルトスタッフ,0
295,1470005000625,登記記録の閉鎖等,0,2024-05-14,2024-05-02,医療法人社団宮武耳鼻咽喉科クリニック,,その他の設立登記法人,香川県,高松市,香西南町５１２番地１,,37,201,7618014,,,2024-05-02,清算の結了等,,,2015-10-05,1,,,,,ミヤタケジビインコウカクリニック,0
325,2010001135370,登記記録の閉鎖等,0,2024-05-14,2024-05-01,株式会社リュウエンジニアリング,,株式会社,埼玉県,八潮市,緑町４丁目３番地１０,,11,234,3400808,,,2024-05-01,清算の結了等,,,2015-10-05,1,,,,,リュウエンジニアリング,0
339,2010401088879,登記記録の閉鎖等,0,2024-05-14,2024-05-08,株式会社アーヴェル・シュシュ,,株式会社,東京都,台東区,東上野２丁目１４番８号ベルナハイツ２０２,,13,106,1100015,,,2024-05-08,清算の結了等,,,2015-10-05,1,,,,,アーヴェルシュシュ,0
345,2010401179117,登記記録の閉鎖等,0,2024-05-14,2024-05-09,株式会社ケアネクスト２,,株式会社,東京都,港区,南青山３丁目１番３号スプライン青山東急ビル３階,,13,103,1070062,,,2024-05-09,合併による解散等,3010401179116,令和６年５月１日広島市中区八丁堀１４番４号株式会社ケアネクストホールディングス（3010401179116）に合併し解散,2023-12-12,1,,,,,ケアネクストツー,0
348,2010402003861,登記記録の閉鎖等,0,2024-05-14,2024-04-22,有限会社木下文具店,,有限会社,東京都,港区,高輪１丁目２番１１号,,13,103,1080074,,,2024-04-22,清算の結了等,,,2015-10-05,1,,,,,キノシタブングテン,0
349,2010402023744,登記記録の閉鎖等,0,2024-05-14,2024-04-22,ロティ有限会社,,有限会社,東京都,港区,六本木６丁目６番９号,,13,103,1060032,,,2024-04-22,清算の結了等,,,2015-10-05,1,,,,,ロティ,0
351,2010403029022,登記記録の閉鎖等,0,2024-05-14,2024-05-01,合同会社日光市小林発電所,,合同会社,東京都,港区,六本木３丁目２番１号,,13,103,1060032,,,2024-05-01,合併による解散等,3011001038942,令和６年５月１日東京都港区六本木三丁目２番１号合同会社ＤＭＭ．ｃｏｍ（3011001038942）に合併し解散,2022-11-30,1,,,,,ニッコウシコバヤシハツデンショ,0
361,2010901038664,登記記録の閉鎖等,0,2024-05-14,2024-04-26,フードウェルジャパン株式会社,,株式会社,東京都,文京区,大塚３丁目３４番１号,,13,105,1120012,,,2024-04-26,清算の結了等,,,2016-08-18,1,,,,,フードウェルジャパン,0
364,2011001062563,登記記録の閉鎖等,0,2024-05-14,2024-05-01,株式会社フルハウス,,株式会社,東京都,新宿区,西新宿６丁目３番１号新宿アイランドウイング２階,,13,104,1600023,,,2024-05-01,合併による解散等,7011101060140,令和６年５月１日東京都新宿区西新宿七丁目２１番１号新宿ロイヤルビル９階株式会社ＪＪ（7011101060140）に合併し解散,2015-10-05,1,,,,,フルハウス,0
381,2011501002052,登記記録の閉鎖等,0,2024-05-14,2024-05-02,新興運輸株式会社,,株式会社,東京都,北区,赤羽西６丁目２３番１６号,,13,117,1150055,,,2024-05-02,清算の結了等,,,2015-10-05,1,,,,,シンコウウンユ,0
396,2012805001327,登記記録の閉鎖等,0,2024-05-14,2024-05-02,特定非営利活動法人福祉センターあさぎ,,その他の設立登記法人,東京都,立川市,羽衣町１丁目２３番６号大野マンション３０３号室,,13,202,1900021,,,2024-05-02,清算の結了等,,,2015-10-05,1,,,,,フクシセンターアサギ,0
398,2013201001367,登記記録の閉鎖等,0,2024-05-14,2024-05-13,画地測量設計株式会社,,株式会社,東京都,目黒区,原町１丁目１２番１２号,,13,110,1520011,,,2024-05-13,清算の結了等,,,2015-10-05,1,,,,,カクチソクリョウセッケイ,0
408,2021001032549,登記記録の閉鎖等,0,2024-05-14,2024-05-13,株式会社糀屋,,株式会社,神奈川県,小田原市,栄町２丁目１０番１５号,,14,206,2500011,,,2024-05-13,清算の結了等,,,2015-10-05,1,,,,,コウジヤ,0
410,2021001080052,登記記録の閉鎖等,0,2024-05-14,2024-05-07,株式会社エー・アンド・ディ,,株式会社,神奈川県,相模原市南区,上鶴間本町３丁目９番１０－１４０５号,,14,153,2520318,,,2024-05-07,清算の結了等,,,2023-08-29,1,,,,,エーアンドディ,0
415,2030001015678,登記記録の閉鎖等,0,2024-05-14,2024-05-10,株式会社エー・ワイ・エー,,株式会社,埼玉県,さいたま市見沼区,東大宮３丁目６番地２ブルーハイツＢ－４０５,,11,104,3370051,,,2024-05-10,清算の結了等,,,2015-10-05,1,,,,,エーワイエー,0
456,2050001040971,登記記録の閉鎖等,0,2024-05-14,2024-05-08,株式会社森工業,,株式会社,茨城県,日立市,久慈町５丁目５０番４２号,,08,202,3191222,,,2024-05-08,清算の結了等,,,2016-05-13,1,,,,,モリコウギョウ,0
464,2070002022397,登記記録の閉鎖等,0,2024-05-14,2024-05-10,有限会社相生コンタクトレンズ,,有限会社,群馬県,桐生市,相生町２丁目１０５番地,,10,203,3760011,,,2024-05-10,清算の結了等,,,2015-10-05,1,,,,,アイオイコンタクトレンズ,0
466,2080001008207,登記記録の閉鎖等,0,2024-05-14,2024-05-07,清水丸共運輸株式会社,,株式会社,静岡県,静岡市清水区,袖師町字飛島１９７４番地の７,,22,103,4240037,,,2024-05-07,清算の結了等,,,2015-10-05,1,,,,,シミズマルキョウウンユ,0
470,2080101011085,登記記録の閉鎖等,0,2024-05-14,2024-05-02,駿河商事株式会社,,株式会社,静岡県,富士市,御幸町７番１１号,,22,210,4170041,,,2024-05-02,清算の結了等,,,2015-10-05,1,,,,,スルガショウジ,0
479,2100002017492,登記記録の閉鎖等,0,2024-05-14,2024-04-23,有限会社富井商会,,有限会社,長野県,下高井郡野沢温泉村,大字豊郷４４６１番地２,,20,563,3892502,,,2024-04-23,清算の結了等,,,2015-10-05,1,,,,,トミイショウカイ,0
482,2110002027689,登記記録の閉鎖等,0,2024-05-14,2024-05-09,有限会社坂田新聞舗,,有限会社,新潟県,長岡市,愛宕３丁目４番１４号,,15,202,9400036,,,2024-05-09,清算の結了等,,,2015-10-05,1,,,,,サカタシンブンホ,0
499,2130002034361,登記記録の閉鎖等,0,2024-05-14,2024-05-10,有限会社嶋貫商会,,有限会社,京都府,舞鶴市,字余部上９７０番地,,26,202,6250083,,,2024-05-10,清算の結了等,,,2015-10-05,1,,,,,シマヌキショウカイ,0
514,2170002010210,登記記録の閉鎖等,0,2024-05-14,2024-05-10,有限会社ハラ商事,,有限会社,和歌山県,御坊市,薗２０４番地,,30,205,6440002,,,2024-05-10,清算の結了等,,,2015-10-05,1,,,,,ハラショウジ,0
516,2180001082662,登記記録の閉鎖等,0,2024-05-14,2024-05-07,株式会社河原田,,株式会社,愛知県,一宮市,多加木１丁目１６番１６号,,23,203,4910837,,,2024-05-07,清算の結了等,,,2015-10-05,1,,,,,カワハラダ,0
521,2180001147119,登記記録の閉鎖等,0,2024-05-14,2024-04-30,株式会社ＤＩＶＥ　ＴＹＰＥ,,株式会社,愛知県,名古屋市守山区,川村町５２番地サンコート愛３０１号,,23,113,4630097,,,2024-04-30,清算の結了等,,,2021-07-28,1,,,,,ダイブタイプ,0
522,2180002006249,登記記録の閉鎖等,0,2024-05-14,2024-05-07,有限会社こうらく,,有限会社,愛知県,名古屋市港区,港楽１丁目１２番１７号,,23,111,4550014,,,2024-05-07,清算の結了等,,,2015-10-05,1,,,,,コウラク,0
525,2190001010804,登記記録の閉鎖等,0,2024-05-14,2024-05-10,フロンティア株式会社,,株式会社,三重県,松阪市,星合町６９４番地の１,,24,204,5152101,,,2024-05-10,清算の結了等,,,2015-10-05,1,,,,,,0
537,2240001017744,登記記録の閉鎖等,0,2024-05-14,2024-05-10,株式会社フジ建設,,株式会社,広島県,広島市安佐南区,大町東１丁目７番１１号,,34,105,7310124,,,2024-05-10,清算の結了等,,,2015-10-05,1,,,,,,0
541,2260002001514,登記記録の閉鎖等,0,2024-05-14,2024-05-07,有限会社エム・アイ調査設計,,有限会社,岡山県,岡山市北区,足守１５３８番地９,,33,101,7011463,,,2024-05-07,清算の結了等,,,2015-10-05,1,,,,,エムアイチョウサセッケイ,0
551,2310001001848,登記記録の閉鎖等,0,2024-05-14,2024-05-10,株式会社フィノ,,株式会社,長崎県,長崎市,平和町４番１２号,,42,201,8528116,,,2024-05-10,清算の結了等,,,2015-10-05,1,,,,,フィノ,0
555,2330001007001,登記記録の閉鎖等,0,2024-05-14,2024-05-01,株式会社毛利,,株式会社,熊本県,熊本市東区,長嶺西２丁目２１番６号,,43,102,8618037,,,2024-05-01,清算の結了等,,,2015-10-05,1,,,,,,0
574,2380002018678,登記記録の閉鎖等,0,2024-05-14,2024-05-10,有限会社中川高志建築設計室,,有限会社,福島県,白河市,影鬼越２６番地の５６,,07,205,9610886,,,2024-05-10,合併による解散等,3380002018124,令和６年５月１０日福島県西白河郡矢吹町八幡町５８８番地１株式会社タック設計（3380002018124）に合併し解散,2015-10-05,1,,,,,ナカガワタカシケンチクセッケイシツ,0
576,2390002006426,登記記録の閉鎖等,0,2024-05-14,2024-05-01,有限会社キャステック,,有限会社,山形県,山形市,中桜田２丁目３番１５号,,06,201,9902422,,,2024-05-01,清算の結了等,,,2015-10-05,1,,,,,キャステック,0
588,2430005004769,登記記録の閉鎖等,0,2024-05-14,2024-05-13,医療法人社団秀峰会,,その他の設立登記法人,北海道,北広島市,大曲緑ヶ丘１丁目１３番地２,,01,234,0611276,,,2024-05-13,清算の結了等,,,2015-10-05,1,,,,,,0
589,2450001006973,登記記録の閉鎖等,0,2024-05-14,2024-05-08,株式会社さくらい,,株式会社,北海道,旭川市,八条通５丁目２５００番地の１２１,,01,204,0700038,,,2024-05-08,清算の結了等,,,2015-10-05,1,,,,,サクライ,0
593,2470002002284,登記記録の閉鎖等,0,2024-05-14,2024-05-08,有限会社キノシタ,,有限会社,香川県,高松市,塩上町７番地１,,37,201,7600062,,,2024-05-08,清算の結了等,,,2015-10-05,1,,,,,キノシタ,0
594,2470003000519,登記記録の閉鎖等,0,2024-05-14,2024-05-07,合資会社弥助,,合資会社,香川県,小豆郡土庄町,淵崎甲２０７８番地１１,,37,322,7614121,,,2024-05-07,清算の結了等,,,2015-10-05,1,,,,,ヤスケ,0
613,3010001077785,登記記録の閉鎖等,0,2024-05-14,2024-04-30,株式会社赤坂エクセルホテル東急,,株式会社,東京都,千代田区,永田町２丁目１４番３号,,13,101,1000014,,,2024-04-30,清算の結了等,,,2015-10-05,1,,,,,アカサカエクセルホテルトウキュウ,0
629,3010402009445,登記記録の閉鎖等,0,2024-05-14,2024-04-22,有限会社東京成和商会,,有限会社,東京都,港区,台場１丁目３番３号,,13,103,1350091,,,2024-04-22,清算の結了等,,,2015-10-05,1,,,,,トウキョウセイワショウカイ,0
630,3010403029038,登記記録の閉鎖等,0,2024-05-14,2024-05-01,合同会社深津第三発電所,,合同会社,東京都,港区,六本木３丁目２番１号,,13,103,1060032,,,2024-05-01,合併による解散等,3011001038942,令和６年５月１日東京都港区六本木三丁目２番１号合同会社ＤＭＭ．ｃｏｍ（3011001038942）に合併し解散,2022-12-01,1,,,,,フカツダイサンハツデンショ,0
671,3011303003743,登記記録の閉鎖等,0,2024-05-14,2024-05-01,ＡＭＢ合同会社,,合同会社,東京都,杉並区,浜田山１丁目２５番３１号,,13,115,1680065,,,2024-05-01,清算の結了等,,,2020-08-25,1,,,,,エーエムビー,0
688,3012401035967,登記記録の閉鎖等,0,2024-05-14,2024-05-02,株式会社ＵＬＵＮＯＡ,,株式会社,東京都,狛江市,東和泉１丁目３４番２６号,,13,219,2010014,,,2024-05-02,清算の結了等,,,2019-11-28,1,,,,,ウルノア,0
711,3030001065615,登記記録の閉鎖等,0,2024-05-14,2024-05-09,株式会社丸勝物流,,株式会社,千葉県,千葉市稲毛区,六方町４０番地１,,12,103,2630004,,,2024-05-09,合併による解散等,9050002029644,令和６年４月３０日茨城県鉾田市上太田３５３番地１株式会社サンケイ物流（9050002029644）に合併し解散,2015-10-05,1,,,,,マルショウブツリュウ,0
716,3030002031376,登記記録の閉鎖等,0,2024-05-14,2024-05-01,有限会社宮原工業,,有限会社,埼玉県,さいたま市中央区,大戸５丁目１４番５号,,11,105,3380012,,,2024-05-01,合併による解散等,3030001002997,令和６年５月１日埼玉県さいたま市桜区田島九丁目３１番１号株式会社セイウン（3030001002997）に合併し解散,2015-10-05,1,,,,,ミヤハラコウギョウ,0
732,3040003009107,登記記録の閉鎖等,0,2024-05-14,2024-04-30,合同会社ケイ・アイ,,合同会社,千葉県,木更津市,ほたる野３丁目４１番地６,,12,206,2920038,,,2024-04-30,清算の結了等,,,2016-09-26,1,,,,,ケイアイ,0
733,3040003021128,登記記録の閉鎖等,0,2024-05-14,2024-05-01,合同会社Ｒｅｎｏｗａｎｏ,,合同会社,千葉県,千葉市美浜区,真砂２丁目１－７ヴェール真砂６０４号室,,12,106,2610011,,,2024-05-01,清算の結了等,,,2022-11-10,1,,,,,リノワーノ,0
757,3120001217925,登記記録の閉鎖等,0,2024-05-14,2024-05-10,株式会社アサックス,,株式会社,大阪府,大阪市住吉区,遠里小野１丁目８番１３号,,27,120,5580032,,,2024-05-10,清算の結了等,,,2018-12-20,1,,,,,アサックス,0
773,3120002070448,登記記録の閉鎖等,0,2024-05-14,2024-05-10,有限会社ＡＰＸ,,有限会社,大阪府,大阪市浪速区,難波中１丁目７番２０号,,27,111,5560011,,,2024-05-10,清算の結了等,,,2015-10-05,1,,,,,エイピーエックス,0
789,3120902005965,登記記録の閉鎖等,0,2024-05-14,2024-05-08,有限会社クープエスト,,有限会社,大阪府,吹田市,山田西３丁目８５番１号,,27,205,5650824,,,2024-05-08,清算の結了等,,,2015-10-05,1,,,,,クープエスト,0
807,3180001068339,登記記録の閉鎖等,0,2024-05-14,2024-04-30,株式会社Ｌａラナ,,株式会社,愛知県,名古屋市名東区,上社２丁目１７番地ＩＣコート上社ＩＩ３０３,00129404,23,115,4650025,,,2024-04-30,清算の結了等,,,2015-10-05,1,,,,,エルエーラナ,0
817,3180001135650,登記記録の閉鎖等,0,2024-05-14,2024-05-01,アサヒコーポレーション株式会社,,株式会社,愛知県,名古屋市中村区,名駅３丁目１１番２２号,,23,105,4500002,,,2024-05-01,合併による解散等,9180001114450,令和６年５月１日名古屋市中村区名駅三丁目１番１６号グランドメゾン名駅三丁目１６０２号アサヒインターナショナル株式会社（9180001114450）に合併し解散,2019-03-05,1,,,,,アサヒコーポレーション,0
827,3190001000300,登記記録の閉鎖等,0,2024-05-14,2024-05-10,株式会社ケアーズ,,株式会社,三重県,津市,観音寺町７６０番地の２６,,24,201,5140062,,,2024-05-10,清算の結了等,,,2015-10-05,1,,,,,ケアーズ,0
838,3230002009781,登記記録の閉鎖等,0,2024-05-14,2024-05-13,有限会社渡辺薬局,,有限会社,富山県,南砺市,田中７８番地１,,16,210,9391704,,,2024-05-13,合併による解散等,9220001017979,令和６年５月１日石川県金沢市小立野一丁目２番７号株式会社瑠璃光（9220001017979）に合併し解散,2015-10-05,1,,,,,ワタナベヤッキョク,0
840,3240002013907,登記記録の閉鎖等,0,2024-05-14,2024-05-13,有限会社広興電産,,有限会社,広島県,広島市安佐南区,相田５丁目２８番１１号,,34,105,7310141,,,2024-05-13,清算の結了等,,,2015-10-05,1,,,,,ヒロコウデンサン,0
849,3290002040161,登記記録の閉鎖等,0,2024-05-14,2024-05-01,有限会社ポプラ薬局,,有限会社,福岡県,筑紫野市,針摺西１丁目４番１０号,00093384,40,217,8180084,,,2024-05-01,合併による解散等,2290001019694,令和６年５月１日福岡市博多区山王一丁目１２番１９号株式会社ニック（2290001019694）に合併し解散,2015-10-05,1,,,,,ポプラヤッキョク,0
869,3340001002735,商号の登記の抹消,0,2024-05-14,2024-05-01,株式会社玉里,,株式会社,鹿児島県,鹿児島市,下伊敷１丁目１０番２号,,46,201,8900005,,,,,,,2015-10-05,1,,,,,タマザト,0
872,3340005008737,登記記録の閉鎖等,0,2024-05-14,2024-05-08,特定非営利活動法人かごしま相続・空家サポートセンター,,その他の設立登記法人,鹿児島県,鹿児島市,清和３丁目１８番３０号,,46,201,8910109,,,2024-05-08,清算の結了等,,,2017-06-12,1,,,,,カゴシマソウゾクアキヤサポートセンター,0
875,3370001004852,登記記録の閉鎖等,0,2024-05-14,2024-05-07,環境調査株式会社,,株式会社,宮城県,仙台市宮城野区,燕沢東２丁目９番１７号,,04,102,9830822,,,2024-05-07,清算の結了等,,,2015-10-05,1,,,,,カンキョウチョウサ,0
884,3390001001674,登記記録の閉鎖等,0,2024-05-14,2024-04-30,株式会社文昇堂印刷,,株式会社,山形県,山形市,立谷川２丁目９３８番地,,06,201,9902251,,,2024-04-30,清算の結了等,,,2015-10-05,1,,,,,ブンショウドウインサツ,0
926,4010001016676,登記記録の閉鎖等,0,2024-05-14,2024-05-07,小山管財株式会社,,株式会社,東京都,板橋区,前野町３丁目４７番１号,,13,119,1740063,,,2024-05-07,清算の結了等,,,2015-10-05,1,,,,,,0
952,4010401143500,登記記録の閉鎖等,0,2024-05-14,2024-05-09,株式会社アイシス,,株式会社,東京都,港区,赤坂９丁目７番１号ミッドタウン・タワー３７Ｆ,,13,103,1070052,,,2024-05-09,合併による解散等,3010401129590,令和６年５月９日東京都港区赤坂九丁目７番１号ミッドタウン・タワー３７Ｆ株式会社アクティアス（3010401129590）に合併し解散,2019-02-01,1,,,,,アイシス,0
963,4010502001391,登記記録の閉鎖等,0,2024-05-14,2024-05-07,有限会社ウエノ企画,,有限会社,東京都,台東区,東上野２丁目２０番６号,,13,106,1100015,,,2024-05-07,清算の結了等,,,2015-10-05,1,,,,,ウエノキカク,0
970,4010902010819,登記記録の閉鎖等,0,2024-05-14,2024-05-08,有限会社トモ,,有限会社,東京都,世田谷区,上野毛４丁目１８番１４号,,13,112,1580093,,,2024-05-08,清算の結了等,,,2015-10-05,1,,,,,,0
996,4011402003387,登記記録の閉鎖等,0,2024-05-14,2024-05-08,有限会社コンサルネット,,有限会社,東京都,世田谷区,赤堤４丁目１５番３号,,13,112,1560044,,,2024-05-08,清算の結了等,,,2015-10-05,1,,,,,コンサルネット,0
1004,4011802003607,登記記録の閉鎖等,0,2024-05-14,2024-05-09,有限会社新行キャスト,,有限会社,東京都,葛飾区,東立石２丁目７番７号,,13,122,1240013,,,2024-05-09,清算の結了等,,,2015-10-05,1,,,,,シンコウキャスト,0
1017,4013301040065,登記記録の閉鎖等,0,2024-05-14,2024-05-01,ＵＦＢ三誠コーポ株式会社,,株式会社,東京都,豊島区,目白１丁目３番１７号目白ガーデンヒルズＣ棟５２７号,,13,116,1710031,,,2024-05-01,清算の結了等,,,2017-02-15,1,,,,,ユーエフビーサンセイコーポ,0
1037,4021001037042,登記記録の閉鎖等,0,2024-05-14,2024-05-10,日本コンピューター工業株式会社,,株式会社,神奈川県,平塚市,徳延２８４番地の９,,14,203,2540902,,,2024-05-10,清算の結了等,,,2015-10-05,1,,,,,ニホンコンピューターコウギョウ,0
1055,4040001020394,登記記録の閉鎖等,0,2024-05-14,2024-04-30,株式会社Ｂ．Ｐ．Ｓ．,,株式会社,千葉県,船橋市,宮本２丁目９番１号,,12,204,2730003,,,2024-04-30,清算の結了等,,,2015-10-05,1,,,,,ビーピーエス,0
1066,4050001029344,登記記録の閉鎖等,0,2024-05-14,2024-05-08,市村種苗株式会社,,株式会社,茨城県,常総市,沖新田町８０８番地,,08,211,3002504,,,2024-05-08,清算の結了等,,,2015-10-05,1,,,,,イチムラシュビョウ,0
1073,4050002041513,登記記録の閉鎖等,0,2024-05-14,2024-05-08,有限会社ツクバコマチ,,有限会社,茨城県,常総市,本石下４９番地３,,08,211,3002707,,,2024-05-08,清算の結了等,,,2015-10-05,1,,,,,ツクバコマチ,0
1080,4070002000541,登記記録の閉鎖等,0,2024-05-14,2024-05-10,有限会社磯部商事,,有限会社,群馬県,前橋市,六供町２丁目３７番地１,,10,201,3710804,,,2024-05-10,清算の結了等,,,2015-10-05,1,,,,,イソベショウジ,0
1108,4120002077319,登記記録の閉鎖等,0,2024-05-14,2024-05-07,有限会社誠進,,有限会社,大阪府,交野市,天野が原町４丁目１９番５号,,27,230,5760034,,,2024-05-07,清算の結了等,,,2015-10-05,1,,,,,,0
1111,4120003014188,登記記録の閉鎖等,0,2024-05-14,2024-05-09,ＪＡＭ合同会社,,合同会社,大阪府,大阪市生野区,林寺１丁目５番２号,,27,116,5440023,,,2024-05-09,清算の結了等,,,2018-04-23,1,,,,,ジャム,0
1133,4140001084495,登記記録の閉鎖等,0,2024-05-14,2024-05-09,出雲サービス株式会社,,株式会社,兵庫県,宝塚市,光ガ丘１丁目２番１６号,,28,214,6650015,,,2024-05-09,清算の結了等,,,2015-10-05,1,,,,,イズモサービス,0
1142,4150002008923,登記記録の閉鎖等,0,2024-05-14,2024-05-10,有限会社ごとう,,有限会社,奈良県,北葛城郡広陵町,馬見南１丁目６番２３号,,29,426,6350833,,,2024-05-10,清算の結了等,,,2015-10-05,1,,,,,ゴトウ,0
1150,4180001048216,登記記録の閉鎖等,0,2024-05-14,2024-05-07,株式会社オートサークル,,株式会社,愛知県,名古屋市西区,名西２丁目１７番３２号,,23,104,4510064,,,2024-05-07,清算の結了等,,,2015-10-05,1,,,,,オートサークル,0
1153,4180001108663,登記記録の閉鎖等,0,2024-05-14,2024-05-08,ワンストップサービス株式会社,,株式会社,愛知県,高浜市,湯山町７丁目５番地８,,23,227,4441332,,,2024-05-08,清算の結了等,,,2015-10-05,1,,,,,ワンストップサービス,0
1162,4180002087361,登記記録の閉鎖等,0,2024-05-14,2024-05-01,有限会社イマガワ,,有限会社,愛知県,知多郡武豊町,字二ケ崎２丁目６６番地１,,23,447,4702316,,,2024-05-01,清算の結了等,,,2015-10-05,1,,,,,イマガワ,0
1163,4180003005553,登記記録の閉鎖等,0,2024-05-14,2024-05-07,合資会社豊鮓,,合資会社,愛知県,名古屋市中区,栄４丁目７番１号,,23,106,4600008,,,2024-05-07,清算の結了等,,,2015-10-05,1,,,,,ユタカスシ,0
1193,4240002028474,登記記録の閉鎖等,0,2024-05-14,2024-05-09,宮田急送有限会社,,有限会社,広島県,東広島市,黒瀬町乃美尾２３１５番地,,34,212,7392622,,,2024-05-09,清算の結了等,,,2015-10-05,1,,,,,ミヤタキュウソウ,0
1194,4250002014374,登記記録の閉鎖等,0,2024-05-14,2024-05-09,有限会社井上食糧,,有限会社,山口県,周南市,大字久米３９６３番地,,35,215,7450801,,,2024-05-09,清算の結了等,,,2015-10-05,1,,,,,イノウエショクリョウ,0
1195,4250002015959,登記記録の閉鎖等,0,2024-05-14,2024-05-10,有限会社ミヤタ,,有限会社,山口県,下松市,生野屋４丁目２番７号,,35,207,7440031,,,2024-05-10,清算の結了等,,,2015-10-05,1,,,,,ミヤタ,0
1196,4260001018094,登記記録の閉鎖等,0,2024-05-14,2024-05-07,株式会社東和建材社,,株式会社,岡山県,小田郡矢掛町,矢掛３０４７番地の１６,,33,461,7141201,,,2024-05-07,清算の結了等,,,2015-10-05,1,,,,,トウワケンザイシャ,0
1201,4290001039195,登記記録の閉鎖等,0,2024-05-14,2024-05-01,株式会社ハーモニー,,株式会社,福岡県,福岡市博多区,山王１丁目１２番１９号,,40,132,8120015,,,2024-05-01,合併による解散等,2290001019694,令和６年５月１日福岡市博多区山王一丁目１２番１９号株式会社ニック（2290001019694）に合併し解散,2015-10-05,1,,,,,ハーモニー,0
1221,4380002007745,登記記録の閉鎖等,0,2024-05-14,2024-05-08,有限会社アルファプランニング,,有限会社,福島県,郡山市,舞木町字岩ノ作４４番地の２５,,07,203,9630661,,,2024-05-08,清算の結了等,,,2015-10-05,1,,,,,アルファプランニング,0
1222,4380002020392,登記記録の閉鎖等,0,2024-05-14,2024-05-08,有限会社渡辺生花,,有限会社,福島県,須賀川市,中町１６番地の４,,07,207,9620845,,,2024-05-08,清算の結了等,,,2015-10-05,1,,,,,ワタナベセイカ,0
1224,4390002001029,登記記録の閉鎖等,0,2024-05-14,2024-04-30,株式会社蔵王サンハイム,,株式会社,山形県,山形市,蔵王温泉字川前９０３番地の２,,06,201,9902301,,,2024-04-30,清算の結了等,,,2015-10-05,1,,,,,ザオウサンハイム,0
1226,4400003002899,登記記録の閉鎖等,0,2024-05-14,2024-04-30,合同会社ごろり,,合同会社,岩手県,盛岡市,鉈屋町３－１０八百倉町家,,03,201,0200827,,,2024-04-30,清算の結了等,,,2022-02-17,1,,,,,ゴロリ,0
1240,4430002019875,登記記録の閉鎖等,0,2024-05-14,2024-05-08,有限会社メイテック,,有限会社,北海道,札幌市豊平区,月寒東四条８丁目３番１９号,,01,105,0620054,,,2024-05-08,清算の結了等,,,2015-10-05,1,,,,,メイテック,0
1242,4430002066042,登記記録の閉鎖等,0,2024-05-14,2024-05-09,有限会社ビッグジャパン,,有限会社,北海道,室蘭市,宮の森町４丁目１４番４号,,01,205,0500073,,,2024-05-09,清算の結了等,,,2015-10-05,1,,,,,ビッグジャパン,0
1249,4470001011276,登記記録の閉鎖等,0,2024-05-14,2024-04-30,葵紙業株式会社,,株式会社,香川県,東かがわ市,吉田６８６番地１５,,37,207,7692907,,,2024-04-30,清算の結了等,,,2015-10-05,1,,,,,アオイシギョウ,0
1281,5010003040624,登記記録の閉鎖等,0,2024-05-14,2024-04-23,合同会社おぼろ,,合同会社,東京都,千代田区,神田和泉町１番地６－１６ヤマトビル４０５,,13,101,1010024,,,2024-04-23,清算の結了等,,,2023-05-18,1,,,,,オボロ,0
1299,5010405017749,登記記録の閉鎖等,0,2024-05-14,2024-04-22,一般社団法人ＤＲＨＦ５,,その他の設立登記法人,東京都,港区,虎ノ門３丁目２２番１０－２０１号,,13,103,1050001,,,2024-04-22,清算の結了等,,,2019-05-31,1,,,,,ディーアールエイチエフファイブ,0
1326,5011002013513,登記記録の閉鎖等,0,2024-05-14,2024-04-22,有限会社八百喜代,,有限会社,東京都,渋谷区,笹塚２丁目４１番１８号,00064859,13,113,1510073,,,2024-04-22,清算の結了等,,,2015-10-05,1,,,,,ヤオキヨ,0
1349,5011802019767,登記記録の閉鎖等,0,2024-05-14,2024-05-07,有限会社山口旭工務店,,有限会社,東京都,足立区,島根４丁目９番２１号,,13,121,1210815,,,2024-05-07,清算の結了等,,,2015-10-05,1,,,,,ヤマグチアキラコウムテン,0
1394,5050001018445,登記記録の閉鎖等,0,2024-05-14,2024-05-01,立花防災株式会社,,株式会社,茨城県,古河市,大手町１０番４４号,,08,204,3060032,,,2024-05-01,清算の結了等,,,2015-10-05,1,,,,,タチバナボウサイ,0
1409,5080001005770,登記記録の閉鎖等,0,2024-05-14,2024-05-08,株式会社光工務店,,株式会社,静岡県,静岡市葵区,牧ケ谷３６５番地の３,,22,101,4211221,,,2024-05-08,清算の結了等,,,2015-10-05,1,,,,,ヒカリコウムテン,0
1410,5080001012098,登記記録の閉鎖等,0,2024-05-14,2024-05-08,株式会社ＹＯＵ,,株式会社,静岡県,静岡市葵区,田町５丁目２９番地の１０,,22,101,4200068,,,2024-05-08,清算の結了等,,,2015-10-05,1,,,,,ユウ,0
1447,5120002078720,登記記録の閉鎖等,0,2024-05-14,2024-05-01,有限会社中道製作所,,有限会社,大阪府,守口市,大久保町５丁目６４番７号,,27,209,5700012,,,2024-05-01,清算の結了等,,,2015-10-05,1,,,,,ナカミチセイサクショ,0
1451,5120102001425,登記記録の閉鎖等,0,2024-05-14,2024-05-07,有限会社木下加工所,,有限会社,大阪府,堺市南区,片蔵１３９７番地,,27,145,5900121,,,2024-05-07,清算の結了等,,,2015-10-05,1,,,,,キノシタカコウショ,0
1453,5120901001377,登記記録の閉鎖等,0,2024-05-14,2024-05-08,辻石油株式会社,00033261,株式会社,大阪府,箕面市,粟生間谷東７丁目１８番２３号,,27,220,5620022,,,2024-05-08,清算の結了等,,,2015-10-05,1,,,,,ツジセキユ,0
1457,5130001009642,登記記録の閉鎖等,0,2024-05-14,2024-05-13,フリアン株式会社,,株式会社,京都府,京都市東山区,宮川筋５丁目３３３番地,,26,105,6050801,,,2024-05-13,清算の結了等,,,2015-10-05,1,,,,,,0
1462,5130001063870,登記記録の閉鎖等,0,2024-05-14,2024-05-13,株式会社Ｅｌ　Ｐｕｅｎｔｅ,,株式会社,京都府,京都市東山区,古川町５４２番地３,,26,105,6050026,,,2024-05-13,清算の結了等,,,2019-02-07,1,,,,,,0
1463,5130001067913,登記記録の閉鎖等,0,2024-05-14,2024-05-10,株式会社ＳＳ,,株式会社,京都府,宇治市,小倉町新田島７番地５,,26,204,6110042,,,2024-05-10,清算の結了等,,,2020-11-04,1,,,,,エスエス,0
1470,5140001091549,登記記録の閉鎖等,0,2024-05-14,2024-05-09,株式会社Ｍ’ｓ,,株式会社,兵庫県,姫路市,四郷町本郷３１６番地２,,28,201,6710243,,,2024-05-09,清算の結了等,,,2015-10-05,1,,,,,エムズ,0
1487,5180002008829,登記記録の閉鎖等,0,2024-05-14,2024-05-01,有限会社マルフジ,,有限会社,愛知県,名古屋市昭和区,曙町３丁目１３番地の１,00072824,23,107,4660003,,,2024-05-01,清算の結了等,,,2015-10-05,1,,,,,マルフジ,0
1490,5180003023026,登記記録の閉鎖等,0,2024-05-14,2024-04-26,合同会社カシワギ,,合同会社,愛知県,名古屋市中区,大須４丁目１１番３９号川本ビル２Ｆ,,23,106,4600011,,,2024-04-26,清算の結了等,,,2021-10-01,1,,,,,カシワギ,0
1497,5190002016153,登記記録の閉鎖等,0,2024-05-14,2024-05-10,有限会社四季和フーズ,,有限会社,三重県,松阪市,伊勢場町６７３番地１,,24,204,5150213,,,2024-05-10,清算の結了等,,,2015-10-05,1,,,,,,0
1554,5380002028237,登記記録の閉鎖等,0,2024-05-14,2024-05-08,有限会社貝門,,有限会社,福島県,相馬市,中村字新町１８７番地,,07,209,9760042,,,2024-05-08,清算の結了等,,,2015-10-05,1,,,,,カイモン,0
1555,5380002028906,登記記録の閉鎖等,0,2024-05-14,2024-05-08,有限会社訪問介護事業所やすらぎ,,有限会社,福島県,相馬市,椎木字段ノ原１１０番地,,07,209,9760002,,,2024-05-08,清算の結了等,,,2015-10-05,1,,,,,ホウモンカイゴジギョウショヤスラギ,0
1558,5390002001671,登記記録の閉鎖等,0,2024-05-14,2024-05-01,有限会社新拓,,有限会社,山形県,山形市,十日町１丁目６番１５号,,06,201,9900031,,,2024-05-01,清算の結了等,,,2015-10-05,1,,,,,シンタク,0
1570,5430003006095,登記記録の閉鎖等,0,2024-05-14,2024-04-30,合同会社よねさか商店製作所,,合同会社,北海道,札幌市手稲区,西宮の沢二条２丁目４番３９号,,01,109,0060002,,,2024-04-30,清算の結了等,,,2015-10-05,1,,,,,,0
1577,5500002023745,登記記録の閉鎖等,0,2024-05-14,2024-05-09,マリオ有限会社,,有限会社,愛媛県,宇和島市,三間町宮野下４０７番地,,38,203,7981112,,,2024-05-09,清算の結了等,,,2015-10-05,1,,,,,マリオ,0
1602,6010401098420,登記記録の閉鎖等,0,2024-05-14,2024-04-22,株式会社スリーズ,,株式会社,東京都,港区,六本木７丁目３番２３号,,13,103,1060032,,,2024-04-22,清算の結了等,,,2015-10-05,1,,,,,スリーズ,0
1631,6010703002451,登記記録の閉鎖等,0,2024-05-14,2024-05-08,合同会社天王洲ＰＩＥＲ,,合同会社,東京都,品川区,東品川２丁目２番２４号,,13,109,1400002,,,2024-05-08,清算の結了等,,,2015-10-05,1,,,,,テンノウズピア,0
1644,6011001137270,登記記録の閉鎖等,0,2024-05-14,2024-04-26,高岡企画株式会社,,株式会社,東京都,目黒区,下目黒２丁目２番２－６１４号,,13,110,1530064,,,2024-04-26,清算の結了等,,,2020-12-15,1,,,,,タカオカキカク,0
1657,6011302016198,登記記録の閉鎖等,0,2024-05-14,2024-05-08,有限会社エリック・コンサルティング,,有限会社,東京都,杉並区,浜田山１丁目３５番５号,,13,115,1680065,,,2024-05-08,清算の結了等,,,2015-10-05,1,,,,,エリックコンサルティング,0
1670,6011802006731,登記記録の閉鎖等,0,2024-05-14,2024-05-08,有限会社深田クリーンサービス,,有限会社,東京都,葛飾区,新小岩４丁目４５番６号,,13,122,1240024,,,2024-05-08,清算の結了等,,,2015-10-05,1,,,,,フカダクリーンサービス,0
1730,6040003010094,登記記録の閉鎖等,0,2024-05-14,2024-04-30,合同会社ＴＭＫ,,合同会社,千葉県,市原市,光風台１丁目１５６番地,,12,219,2900255,,,2024-04-30,清算の結了等,,,2017-05-25,1,,,,,ティーエムケー,0
1740,6060002017931,登記記録の閉鎖等,0,2024-05-14,2024-05-02,有限会社中島建材興業,,有限会社,栃木県,真岡市,上江連５３３番地,,09,209,3214536,,,2024-05-02,清算の結了等,,,2015-10-05,1,,,,,ナカジマケンザイコウギョウ,0
1747,6080001020109,登記記録の閉鎖等,0,2024-05-14,2024-05-07,株式会社バイナリーテック,,株式会社,静岡県,静岡市駿河区,下島３８０番地の１,,22,102,4228037,,,2024-05-07,清算の結了等,,,2015-10-05,1,,,,,バイナリーテック,0
1771,6110005011216,登記記録の閉鎖等,0,2024-05-14,2024-05-10,医療法人社団竹山整形外科,,その他の設立登記法人,新潟県,長岡市,東宮内町３４０７番地６,,15,202,9401102,,,2024-05-10,清算の結了等,,,2015-10-05,1,,,,,タケヤマセイケイゲカ,0
1773,6120001065009,登記記録の閉鎖等,0,2024-05-14,2024-05-08,株式会社ジーピークリエイツ,,株式会社,大阪府,大阪市北区,東天満２丁目６番５号,,27,127,5300044,,,2024-05-08,清算の結了等,,,2015-10-05,1,,,,,ジーピークリエイツ,0
1779,6120001180872,登記記録の閉鎖等,0,2024-05-14,2024-05-10,株式会社いろは,,株式会社,大阪府,大阪市西区,新町１丁目３４番２－２１０５号,,27,106,5500013,,,2024-05-10,清算の結了等,,,2015-10-05,1,,,,,イロハ,0
1799,6130001026950,登記記録の閉鎖等,0,2024-05-14,2024-05-10,松屋ＹＬＢ株式会社,,株式会社,京都府,京都市北区,大宮西小野堀町１７－５,,26,101,6038405,,,2024-05-10,清算の結了等,,,2015-10-05,1,,,,,マツヤワイエルビー,0
1810,6160001004441,登記記録の閉鎖等,0,2024-05-14,2024-05-08,ベスト警備保障株式会社,,株式会社,滋賀県,大津市,下阪本４丁目１５番５号,,25,201,5200105,,,2024-05-08,清算の結了等,,,2015-10-05,1,,,,,ベストケイビホショウ,0
1818,6180001144871,登記記録の閉鎖等,0,2024-05-14,2024-05-01,Ｏ・Ｇファミリー株式会社,,株式会社,愛知県,名古屋市守山区,八剣２丁目２９０８番地,,23,113,4630022,,,2024-05-01,清算の結了等,,,2021-02-19,1,,,,,オージーファミリー,0
1820,6180002069011,登記記録の閉鎖等,0,2024-05-14,2024-05-01,コキ・テック有限会社,,有限会社,愛知県,小牧市,小木２丁目１３２番地,,23,219,4850058,,,2024-05-01,清算の結了等,,,2015-10-05,1,,,,,コキテック,0
1832,6190001017853,登記記録の閉鎖等,0,2024-05-14,2024-05-01,アサヒホールディングス株式会社,,株式会社,愛知県,名古屋市中村区,名駅３丁目１１番２２号,,23,105,4500002,,,2024-05-01,合併による解散等,9180001114450,令和６年５月１日名古屋市中村区名駅三丁目１番１６号グランドメゾン名駅三丁目１６０２号アサヒインターナショナル株式会社（9180001114450）に合併し解散,2015-10-05,1,,,,,アサヒホールディングス,0
1835,6200001019518,登記記録の閉鎖等,0,2024-05-14,2024-05-13,株式会社福井ゴム工業,,株式会社,岐阜県,美濃市,９６番地の３４,,21,207,5013701,,,2024-05-13,清算の結了等,,,2015-10-05,1,,,,,,0
1861,6290002023956,登記記録の閉鎖等,0,2024-05-14,2024-05-01,有限会社めでぃかるむじん庵,,有限会社,福岡県,福岡市博多区,山王１丁目１２番１９号,,40,132,8120015,,,2024-05-01,合併による解散等,2290001019694,令和６年５月１日福岡市博多区山王一丁目１２番１９号株式会社ニック（2290001019694）に合併し解散,2015-10-05,1,,,,,メディカルムジンアン,0
1892,6380002012999,登記記録の閉鎖等,0,2024-05-14,2024-05-08,有限会社吉田設計,,有限会社,福島県,郡山市,舞木町字岩ノ作４４番地の２５,,07,203,9630661,,,2024-05-08,清算の結了等,,,2015-10-05,1,,,,,ヨシダセッケイ,0
1912,6470002004129,登記記録の閉鎖等,0,2024-05-14,2024-05-07,有限会社高松住宅サービス,00005283,有限会社,香川県,高松市,田村町２７５番地,,37,201,7618057,,,2024-05-07,清算の結了等,,,2015-10-05,1,,,,,タカマツジュウタクサービス,0
1951,7010003025128,登記記録の閉鎖等,0,2024-05-14,2024-04-30,合同会社キャピタルスキャッスル,,合同会社,東京都,中央区,日本橋３丁目２番１４号新槇町ビル別館第一１階,,13,102,1030027,,,2024-04-30,清算の結了等,,,2017-04-10,1,,,,,キャピタルスキャッスル,0
1957,7010401099005,登記記録の閉鎖等,0,2024-05-14,2024-05-01,株式会社フォーティワン,,株式会社,東京都,港区,六本木７丁目４番１号,,13,103,1060032,,,2024-05-01,合併による解散等,9010401008970,令和６年５月１日東京都港区六本木七丁目４番１号株式会社研音（9010401008970）に合併し解散,2015-10-05,1,,,,,フォーティワン,0
1968,7010403020785,登記記録の閉鎖等,0,2024-05-14,2024-04-22,合同会社東京ホテルマネジメント５,,合同会社,東京都,港区,虎ノ門３丁目２２番１０－２０１号,,13,103,1050001,,,2024-04-22,清算の結了等,,,2019-05-31,1,,,,,トウキョウホテルマネジメントファイブ,0
1977,7010801022656,登記記録の閉鎖等,0,2024-05-14,2024-05-01,株式会社ブレーメン．ノイ,,株式会社,福岡県,福岡市博多区,山王１丁目１２番１９号,,40,132,8120015,,,2024-05-01,合併による解散等,2290001019694,令和６年５月１日福岡市博多区山王一丁目１２番１９号株式会社ニック（2290001019694）に合併し解散,2015-10-05,1,,,,,ブレーメンノイ,0
1983,7010902007630,登記記録の閉鎖等,0,2024-05-14,2024-05-07,有限会社松陰電化,,有限会社,東京都,世田谷区,喜多見２丁目１０番２３号,,13,112,1570067,,,2024-05-07,清算の結了等,,,2015-10-05,1,,,,,,0
2052,7030005012378,登記記録の閉鎖等,0,2024-05-14,2024-05-08,一家会麺業協同組合,00018634,その他の設立登記法人,埼玉県,川口市,西青木２丁目５番２３号,,11,203,3320035,,,2024-05-08,清算の結了等,,,2015-10-05,1,,,,,イッケカイメンギョウ,0
2054,7040001050249,登記記録の閉鎖等,0,2024-05-14,2024-04-30,株式会社ほんだ商事,,株式会社,千葉県,千葉市緑区,誉田町２丁目２４番地,,12,105,2660005,,,2024-04-30,清算の結了等,,,2015-10-05,1,,,,,ホンダショウジ,0
2059,7040002089393,登記記録の閉鎖等,0,2024-05-14,2024-04-26,有限会社川上塗装工業所,,有限会社,千葉県,白井市,河原子３２８番９号,,12,232,2701403,,,2024-04-26,清算の結了等,,,2015-10-05,1,,,,,カワカミトソウコウギョウショ,0
2060,7040003017898,登記記録の閉鎖等,0,2024-05-14,2024-04-30,合同会社ｌｉｖｉｌ,,合同会社,千葉県,柏市,大井１８１０番地,,12,217,2770902,,,2024-04-30,清算の結了等,,,2021-06-07,1,,,,,リビル,0
2067,7070001032244,登記記録の閉鎖等,0,2024-05-14,2024-05-13,ＪＲＳ株式会社,,株式会社,群馬県,伊勢崎市,田部井町１丁目１０３８番地３,,10,204,3792222,,,2024-05-13,清算の結了等,,,2016-06-06,1,,,,,,0
2068,7080101008993,登記記録の閉鎖等,0,2024-05-14,2024-05-13,田子浦港事業株式会社,,株式会社,静岡県,富士市,前田８８８番地の１,,22,210,4160937,,,2024-05-13,清算の結了等,,,2015-10-05,1,,,,,,0
2080,7120001191209,登記記録の閉鎖等,0,2024-05-14,2024-04-23,株式会社クレディモア,,株式会社,大阪府,吹田市,古江台２丁目１０番１７号,,27,205,5650874,,,2024-04-23,合併による解散等,5120901007085,令和６年４月２３日大阪府吹田市古江台二丁目１０番１７号株式会社千里商事（5120901007085）に合併し解散,2015-10-05,1,,,,,クレディモア,0
2093,7120002068629,登記記録の閉鎖等,0,2024-05-14,2024-05-10,有限会社サンユウ,,有限会社,大阪府,大阪市住之江区,南港中３丁目８番２４－１００７号,,27,125,5590033,,,2024-05-10,清算の結了等,,,2015-10-05,1,,,,,サンユウ,0
2097,7120101055189,登記記録の閉鎖等,0,2024-05-14,2024-05-01,株式会社ホームエージェント,,株式会社,大阪府,堺市南区,赤坂台５丁２４番２－２号,,27,145,5900144,,,2024-05-01,清算の結了等,,,2016-08-10,1,,,,,ホームエージェント,0
2102,7120902020903,登記記録の閉鎖等,0,2024-05-14,2024-05-09,有限会社ナニワ創建,,有限会社,大阪府,豊中市,庄内幸町３丁目９番７号,,27,203,5610833,,,2024-05-09,清算の結了等,,,2015-10-05,1,,,,,,0
2109,7140001028895,登記記録の閉鎖等,0,2024-05-14,2024-04-01,アウデオＳＡＤ株式会社,,株式会社,大阪府,大阪市中央区,安土町３丁目５－６ナカヒロビル６階,,27,128,5410052,,,2024-04-01,合併による解散等,8122001024792,令和６年４月１日大阪市中央区安土町三丁目５番６号ナカヒロビル６階株式会社エムシーアイ（8122001024792）に合併し解散,2015-10-05,1,,,,,アウデオエスエーディー,0
2132,7180001063773,登記記録の閉鎖等,0,2024-05-14,2024-05-01,藤岡商事株式会社,,株式会社,愛知県,名古屋市天白区,池場５丁目４１４番地,,23,116,4680055,,,2024-05-01,清算の結了等,,,2015-10-05,1,,,,,フジオカショウジ,0
2139,7180002073185,登記記録の閉鎖等,0,2024-05-14,2024-05-07,有限会社伊東工務所,,有限会社,愛知県,日進市,南ケ丘３丁目１番地８,,23,230,4700114,,,2024-05-07,清算の結了等,,,2015-10-05,1,,,,,イトウコウムショ,0
2143,7180003025227,登記記録の閉鎖等,0,2024-05-14,2024-05-07,合同会社アスカ,,合同会社,愛知県,名古屋市中村区,名駅４丁目２４番５号第２森ビル４０１,,23,105,4500002,,,2024-05-07,清算の結了等,,,2023-05-12,1,,,,,アスカ,0
2147,7190001007069,登記記録の閉鎖等,0,2024-05-14,2024-05-09,株式会社三重フジミ,,株式会社,三重県,伊勢市,岩渕３丁目５６１番８三交伊勢ビル,,24,203,5160037,,,2024-05-09,合併による解散等,9122001021186,令和６年５月１日大阪府柏原市清州一丁目１番２２号株式会社フジミ（9122001021186）に合併し解散,2015-10-05,1,,,,,ミエフジミ,0
2158,7230001005869,登記記録の閉鎖等,0,2024-05-14,2024-05-09,株式会社寛和工業,,株式会社,富山県,富山市,古寺１５１番地,,16,201,9398023,,,2024-05-09,清算の結了等,,,2015-10-05,1,,,,,カンワコウギョウ,0
2164,7240001037837,登記記録の閉鎖等,0,2024-05-14,2024-05-10,株式会社上野屋本舗,,株式会社,広島県,尾道市,高須町５８３番地１,,34,205,7290141,,,2024-05-10,清算の結了等,,,2015-10-05,1,,,,,ウエノヤホンポ,0
2166,7250001018381,登記記録の閉鎖等,0,2024-05-14,2024-05-09,株式会社ＮＫセレクト,,株式会社,山口県,下関市,長府浜浦町２７番１０号,,35,201,7520993,,,2024-05-09,清算の結了等,,,2020-08-04,1,,,,,エヌケイセレクト,0
2174,7290002027733,登記記録の閉鎖等,0,2024-05-14,2024-05-01,有限会社メディプラン,,有限会社,福岡県,福岡市博多区,山王１丁目１２番１９号,,40,132,8120015,,,2024-05-01,合併による解散等,2290001019694,令和６年５月１日福岡市博多区山王一丁目１２番１９号株式会社ニック（2290001019694）に合併し解散,2015-10-05,1,,,,,メディプラン,0
2175,7290002040802,登記記録の閉鎖等,0,2024-05-14,2024-05-01,有限会社サカモト調剤薬局,,有限会社,福岡県,春日市,大土居３丁目１９３番地,,40,218,8160847,,,2024-05-01,合併による解散等,2290001019694,令和６年５月１日福岡市博多区山王一丁目１２番１９号株式会社ニック（2290001019694）に合併し解散,2015-10-05,1,,,,,サカモトチョウザイヤッキョク,0
2176,7290002044241,登記記録の閉鎖等,0,2024-05-14,2024-04-10,有限会社ロッキー企画,,有限会社,福岡県,朝倉市,美奈宜の杜７丁目１番３２号,,40,228,8380020,,,2024-04-10,清算の結了等,,,2015-10-05,1,,,,,,0
2179,7310001005670,登記記録の閉鎖等,0,2024-05-14,2024-05-13,太陽商事株式会社,,株式会社,長崎県,佐世保市,卸本町８番３号,,42,202,8571162,,,2024-05-13,清算の結了等,,,2015-10-05,1,,,,,タイヨウショウジ,0
2185,7360002000278,登記記録の閉鎖等,0,2024-05-14,2024-05-10,有限会社新垣自動車,,有限会社,沖縄県,糸満市,字阿波根１１１８番地の３,,47,210,9010301,,,2024-05-10,清算の結了等,,,2015-10-05,1,,,,,,0
2203,7420002000288,登記記録の閉鎖等,0,2024-05-14,2024-05-01,有限会社アンエイ商事,,有限会社,青森県,青森市,旭町３丁目７番５号,,02,201,0300851,,,2024-05-01,清算の結了等,,,2015-10-05,1,,,,,アンエイショウジ,0
2205,7420002005766,登記記録の閉鎖等,0,2024-05-14,2024-05-08,有限会社フォト・テン,,有限会社,青森県,西津軽郡鰺ヶ沢町,大字舞戸町字上富田１７８番地,,02,321,0382761,,,2024-05-08,清算の結了等,,,2015-10-05,1,,,,,フォトテン,0
2211,7430001089974,登記記録の閉鎖等,0,2024-05-14,2024-05-01,Ｋｎａｃｌａｍｐ株式会社,,株式会社,北海道,江別市,文京台６６番地の７－１０７,,01,217,0690833,,,2024-05-01,清算の結了等,,,2023-09-13,1,,,,,ナックランプ,0
2221,7480001011594,登記記録の閉鎖等,0,2024-05-14,2024-05-10,株式会社萌希,,株式会社,徳島県,吉野川市,山川町堤外１番地１１４,,36,205,7793403,,,2024-05-10,清算の結了等,,,2021-12-28,1,,,,,ホマレ,0
2275,8010602027812,登記記録の閉鎖等,0,2024-05-14,2024-04-26,有限会社エーアンドケー,,有限会社,東京都,墨田区,亀沢１丁目２２番１０－４０４号,,13,107,1300014,,,2024-04-26,清算の結了等,,,2015-10-05,1,,,,,エーアンドケー,0
2307,8011101063282,登記記録の閉鎖等,0,2024-05-14,2024-05-02,株式会社アートエモーション,,株式会社,東京都,新宿区,大久保１丁目１７番１５号,,13,104,1690072,,,2024-05-02,清算の結了等,,,2015-10-05,1,,,,,アートエモーション,0
2321,8011602002508,登記記録の閉鎖等,0,2024-05-14,2024-05-09,有限会社花千,,有限会社,東京都,練馬区,田柄３丁目２７番３０号,,13,120,1790073,,,2024-05-09,清算の結了等,,,2015-10-05,1,,,,,ハナセン,0
2370,8040001025646,登記記録の閉鎖等,0,2024-05-14,2024-05-08,株式会社インフォネット,,株式会社,東京都,世田谷区,赤堤４丁目１５番３号,,13,112,1560044,,,2024-05-08,清算の結了等,,,2015-10-05,1,,,,,インフォネット,0
2392,8070001001941,登記記録の閉鎖等,0,2024-05-14,2024-05-08,株式会社大都不動産,,株式会社,群馬県,前橋市,荒牧町２丁目３５番地５,,10,201,3710044,,,2024-05-08,清算の結了等,,,2015-10-05,1,,,,,ダイトフドウサン,0
2399,8090003002234,登記記録の閉鎖等,0,2024-05-14,2024-05-08,合同会社ＰｌａｎＢ,,合同会社,山梨県,南アルプス市,小笠原２５５５番地,,19,208,4000306,,,2024-05-08,清算の結了等,,,2023-01-27,1,,,,,プランビー,0
2410,8120001167570,登記記録の閉鎖等,0,2024-05-14,2024-05-10,アドメント株式会社,,株式会社,大阪府,大阪市中央区,南船場２丁目３番６号第一住建長堀橋駅前ビル８０１,,27,128,5420081,,,2024-05-10,清算の結了等,,,2015-10-05,1,,,,,アドメント,0
2438,8130001073818,登記記録の閉鎖等,0,2024-05-14,2024-05-13,ＣＧＭ株式会社,,株式会社,京都府,京都市中京区,富小路通二条上る晴明町６６８－３御所南Ｌａｂｏ４Ｂ室,,26,104,6040951,,,2024-05-13,清算の結了等,,,2023-03-08,1,,,,,シージーエム,0
2440,8130002031782,登記記録の閉鎖等,0,2024-05-14,2024-05-13,有限会社京升堂サービス,,有限会社,京都府,八幡市,八幡植松１１番地の１１,,26,210,6148076,,,2024-05-13,清算の結了等,,,2015-10-05,1,,,,,,0
2457,8150005007828,登記記録の閉鎖等,0,2024-05-14,2024-05-13,特定非営利活動法人子守（こまもり）,,その他の設立登記法人,奈良県,生駒市,谷田町１３４７番地ライオンズマンション１０６,,29,209,6300251,,,2024-05-13,清算の結了等,,,2015-10-05,1,,,,,コマモリ,0
2467,8180002043889,登記記録の閉鎖等,0,2024-05-14,2024-05-02,有限会社末松合金鋳造所,,有限会社,愛知県,名古屋市中川区,松年町３丁目３５番地,,23,110,4540854,,,2024-05-02,清算の結了等,,,2015-10-05,1,,,,,スエマツゴウキンチュウゾウショ,0
2471,8180005017709,登記記録の閉鎖等,0,2024-05-14,2024-04-26,一般社団法人あいち障がい者就労サポート,,その他の設立登記法人,愛知県,清須市,春日落合６４１番地１,,23,233,4520961,,,2024-04-26,清算の結了等,,,2018-03-07,1,,,,,アイチショウガイシャシュウロウサポート,0
2491,8260001019840,登記記録の閉鎖等,0,2024-05-14,2024-05-02,株式会社ジャンボ不動産,,株式会社,岡山県,津山市,勝部１６８番地,,33,203,7080804,,,2024-05-02,清算の結了等,,,2015-10-05,1,,,,,ジャンボフドウサン,0
2496,8280003001126,登記記録の閉鎖等,0,2024-05-14,2024-05-13,合同会社山陰貨物,,合同会社,島根県,出雲市,小伊津町５００番地２２,,32,203,6910052,,,2024-05-13,清算の結了等,,,2016-12-15,1,,,,,サンインカモツ,0
2507,8340001002474,登記記録の閉鎖等,0,2024-05-14,2024-05-09,第一オートガス株式会社,,株式会社,鹿児島県,鹿児島市,宇宿２丁目１１番３号,,46,201,8900073,,,2024-05-09,合併による解散等,1340001002456,令和６年５月１日鹿児島市宇宿二丁目１１番３号鹿児島第一交通株式会社（1340001002456）に合併し解散,2015-10-05,1,,,,,ダイイチオートガス,0
2523,8390001006603,登記記録の閉鎖等,0,2024-05-14,2024-05-01,株式会社円義,,株式会社,山形県,酒田市,両羽町１０番地の２２,,06,204,9980832,,,2024-05-01,清算の結了等,,,2015-10-05,1,,,,,マルヨシ,0
2562,9010001024022,登記記録の閉鎖等,0,2024-05-14,2024-04-25,株式会社東亜総合開発,,株式会社,東京都,千代田区,麹町３丁目１番８号,00060404,13,101,1020083,,,2024-04-25,清算の結了等,,,2015-10-05,1,,,,,トウアソウゴウカイハツ,0
2581,9010401148841,登記記録の閉鎖等,0,2024-05-14,2024-04-22,株式会社キャリアサービス,,株式会社,東京都,港区,新橋２丁目２０番１５号新橋駅前ビル１号館６階,,13,103,1050004,,,2024-04-22,清算の結了等,,,2019-10-30,1,,,,,キャリアサービス,0
2587,9010403011353,登記記録の閉鎖等,0,2024-05-14,2024-04-26,ＲＴＩ　Ａｓｉａ合同会社,,合同会社,東京都,千代田区,神田小川町３丁目１番地５,,13,101,1010052,,,2024-04-26,清算の結了等,,,2015-10-05,1,,,,,アールティアイアジア,0
2596,9010703002630,登記記録の閉鎖等,0,2024-05-14,2024-04-22,Ｇｏｏｄ　Ｓｏｌａｒ合同会社,,合同会社,東京都,港区,虎ノ門１丁目２番８号リニューアブル・ジャパン株式会社内,,13,103,1050001,,,2024-04-22,清算の結了等,,,2015-10-05,1,,,,,グッドソーラー,0
2605,9011001030398,登記記録の閉鎖等,0,2024-05-14,2024-05-13,株式会社エム・エイチ・ディベロップメント,,株式会社,東京都,渋谷区,広尾１丁目３番１８号,,13,113,1500012,,,2024-05-13,清算の結了等,,,2015-10-05,1,,,,,エムエイチディベロップメント,0
2606,9011001068372,登記記録の閉鎖等,0,2024-05-14,2024-05-02,ＷＯＲＤＳ株式会社,,株式会社,東京都,渋谷区,鉢山町９番２１号細野ビル３０７,,13,113,1500035,,,2024-05-02,清算の結了等,,,2015-10-05,1,,,,,,0
2638,9012401038584,登記記録の閉鎖等,0,2024-05-14,2024-05-07,株式会社ブローデル,,株式会社,東京都,調布市,布田２丁目１番地３ＫＳＣビル２Ｆ,,13,208,1820024,,,2024-05-07,清算の結了等,,,2021-11-29,1,,,,,ブローデル,0
2663,9021002031477,登記記録の閉鎖等,0,2024-05-14,2024-05-10,有限会社県央企画,,有限会社,神奈川県,厚木市,小野２０７６番１,,14,212,2430125,,,2024-05-10,清算の結了等,,,2015-10-05,1,,,,,ケンオウキカク,0
2666,9021005010206,登記記録の閉鎖等,0,2024-05-14,2024-05-13,ＮＰＯ法人湘南遺産プロジェクト,,その他の設立登記法人,神奈川県,茅ヶ崎市,東海岸北４丁目１５番１３号,,14,207,2530053,,,2024-05-13,清算の結了等,,,2015-10-05,1,,,,,ショウナンイサンプロジェクト,0
2673,9030002094541,登記記録の閉鎖等,0,2024-05-14,2024-05-09,有限会社アームエクステリア,,有限会社,埼玉県,鶴ヶ島市,大字脚折１６７１番地１２,,11,241,3502213,,,2024-05-09,清算の結了等,,,2015-10-05,1,,,,,アームエクステリア,0
2680,9040001096083,登記記録の閉鎖等,0,2024-05-14,2024-05-09,株式会社セラコ・ジャパン,,株式会社,千葉県,千葉市稲毛区,小中台町１１９１番地２,,12,103,2630044,,,2024-05-09,清算の結了等,,,2016-07-12,1,,,,,セラコジャパン,0
2685,9040002093419,登記記録の閉鎖等,0,2024-05-14,2024-04-30,有限会社光正金型,,有限会社,千葉県,柏市,岩井３１９番地の１０,,12,217,2701445,,,2024-04-30,清算の結了等,,,2015-10-05,1,,,,,コウセイカナガタ,0
2698,9080103002662,登記記録の閉鎖等,0,2024-05-14,2024-05-10,合同会社ＭａＫｉｔｏ,,合同会社,静岡県,伊東市,八幡野１３２９‐２,,22,208,4130232,,,2024-05-10,清算の結了等,,,2022-10-04,1,,,,,マキト,0
2747,9130003006626,登記記録の閉鎖等,0,2024-05-14,2024-05-10,合同会社Ｒｏｏｔ２　Ｃｌｏｓｅｔ,,合同会社,京都府,京都市南区,東九条下殿田町２６－２、１階,,26,107,6018047,,,2024-05-10,合併による解散等,4130001045614,令和６年５月９日京都市東山区泉涌寺東林町４１番地１４株式会社ＲＯＯＴ２（4130001045614）に合併し解散,2020-07-15,1,,,,,ルートツークローセット,0
2759,9160001023397,登記記録の閉鎖等,0,2024-05-14,2024-05-10,株式会社ラウレール,,株式会社,滋賀県,近江八幡市,武佐町３３４番地,,25,204,5230012,,,2024-05-10,清算の結了等,,,2021-06-15,1,,,,,ラウレール,0
2761,9180001002713,登記記録の閉鎖等,0,2024-05-14,2024-04-26,日本環境整備株式会社,,株式会社,愛知県,名古屋市名東区,貴船１丁目４１番地,,23,115,4650058,,,2024-04-26,清算の結了等,,,2015-10-05,1,,,,,ニホンカンキョウセイビ,0
2765,9180001064010,登記記録の閉鎖等,0,2024-05-14,2024-05-08,株式会社成田精機,,株式会社,愛知県,名古屋市緑区,桶狭間切戸２４０２番地,,23,114,4580922,,,2024-05-08,清算の結了等,,,2015-10-05,1,,,,,ナリタセイキ,0
2766,9180001094271,登記記録の閉鎖等,0,2024-05-14,2024-05-01,株式会社グロリア,,株式会社,愛知県,東海市,加木屋町１丁目２８２番地,,23,222,4770032,,,2024-05-01,清算の結了等,,,2015-10-05,1,,,,,グロリア,0
2770,9180001154430,登記記録の閉鎖等,0,2024-05-14,2024-05-01,クオーレ株式会社,,株式会社,愛知県,名古屋市中村区,名駅３丁目１１番２２号,,23,105,4500002,,,2024-05-01,合併による解散等,9180001114450,令和６年５月１日名古屋市中村区名駅三丁目１番１６号グランドメゾン名駅三丁目１６０２号アサヒインターナショナル株式会社（9180001114450）に合併し解散,2023-01-06,1,,,,,クオーレ,0
2776,9180301009961,登記記録の閉鎖等,0,2024-05-14,2024-05-07,株式会社大黒地所,,株式会社,愛知県,豊川市,中央通３丁目３０番地,,23,207,4420051,,,2024-05-07,清算の結了等,,,2015-10-05,1,,,,,ダイコクチショ,0
2780,9180305007904,登記記録の閉鎖等,0,2024-05-14,2024-05-08,特定非営利活動法人リカバリーサポートあいち,,その他の設立登記法人,愛知県,安城市,篠目町肥田６０－１,,23,212,4460073,,,2024-05-08,清算の結了等,,,2015-10-05,1,,,,,リカバリーサポートアイチ,0
2795,9240001061117,登記記録の閉鎖等,0,2024-05-14,2024-05-09,株式会社グロース,,株式会社,広島県,広島市佐伯区,三宅３丁目２番２１－１０３号,,34,108,7315143,,,2024-05-09,清算の結了等,,,2023-02-21,1,,,,,グロース,0
2817,9310003000172,登記記録の閉鎖等,0,2024-05-14,2024-05-01,株式会社ハマダ,,株式会社,長崎県,長崎市,葉山２丁目２７番５号,,42,201,8528053,,,2024-05-01,合併による解散等,9310001017697,令和６年５月１日長崎市葉山二丁目２７番５号株式会社濱田屋ホールディングス（9310001017697）に合併し解散,2015-10-05,1,,,,,ハマダ,0
2839,9430002011332,登記記録の閉鎖等,0,2024-05-14,2024-05-08,有限会社測図センター,,有限会社,北海道,札幌市北区,屯田六条１丁目１番３７号,,01,102,0020856,,,2024-05-08,清算の結了等,,,2015-10-05,1,,,,,ソクズセンター,0
2844,9430005004597,登記記録の閉鎖等,0,2024-05-14,2024-05-09,特定非営利活動法人希望の家,,その他の設立登記法人,北海道,札幌市中央区,南十二条西９丁目１番１３号,,01,101,0640912,,,2024-05-09,清算の結了等,,,2015-10-05,1,,,,,キボウノイエ,0
2846,9470002007005,登記記録の閉鎖等,0,2024-05-14,2024-05-07,有限会社森永鉄工所,,有限会社,香川県,高松市,春日町７４２番地３,,37,201,7610101,,,2024-05-07,清算の結了等,,,2015-10-05,1,,,,,モリナガテッコウショ,0
2848,9490001009710,登記記録の閉鎖等,0,2024-05-14,2024-05-07,株式会社ファイバーマトリックス研究所,,株式会社,高知県,吾川郡いの町,天王南５丁目７番地２,,39,386,7812123,,,2024-05-07,清算の結了等,,,2020-11-13,1,,,,,ファイバーマトリックスケンキュウショ,0
