sequenceNumber,corporateNumber,process,correct,updateDate,changeDate,name,nameImageId,kind,prefectureName,cityName,streetNumber,addressImageId,prefectureCode,cityCode,postCode,addressOutside,addressOutsideImageId,closeDate,closeCause,successorCorporateNumber,changeCause,assignmentDate,latest,enName,enPrefectureName,enCityName,enAddressOutside,furigana,hihyoji
9,1010003048217,新規,0,2025-08-07,2025-08-07,合同会社ＣＨ不動産,,合同会社,東京都,中央区,新川１丁目１７番１８号,,13,102,1040033,,,,,,,2025-08-07,1,,,,,シーエイチフドウサン,0
21,1010401192178,新規,0,2025-08-07,2025-08-07,株式会社ひめの,,株式会社,東京都,港区,赤坂２丁目１８番５号ＦＵＮＡＲＴＡＫＡＳＡＫＡ１Ｆ,,13,103,1070052,,,,,,,2025-08-07,1,,,,,ヒメノ,0
22,1010401192327,新規,0,2025-08-07,2025-08-07,株式会社ユニバーシップブローカーズ,,株式会社,東京都,港区,芝大門１丁目１６番３号芝大門１１６ビル５階,,13,103,1050012,,,,,,,2025-08-07,1,,,,,ユニバーシップブローカーズ,0
24,1010403035797,新規,0,2025-08-07,2025-08-07,Ｌｉｂｅｒｔｅ合同会社,,合同会社,東京都,港区,北青山１丁目３番１号アールキューブ青山３階,,13,103,1070061,,,,,,,2025-08-07,1,,,,,リベルテ,0
30,1010601067725,新規,0,2025-08-07,2025-08-07,株式会社鈴木金網,,株式会社,東京都,江東区,扇橋２丁目１０番３－１５０８号,,13,108,1350011,,,,,,,2025-08-07,1,,,,,スズキカナアミ,0
38,1010901057888,新規,0,2025-08-07,2025-08-07,禅日本クリエイション株式会社,,株式会社,東京都,世田谷区,太子堂４丁目１８番１５号マガザン三軒茶屋２－３Ｆ－３,,13,112,1540004,,,,,,,2025-08-07,1,,,,,ゼンニッポンクリエイション,0
39,1011001171241,新規,0,2025-08-07,2025-08-07,Ｓｈａｎｔｓ株式会社,,株式会社,東京都,目黒区,緑が丘２丁目９－１９,,13,110,1520034,,,,,,,2025-08-07,1,,,,,シャンツ,0
40,1011001171299,新規,0,2025-08-07,2025-08-07,株式会社日本飲食産業,,株式会社,東京都,渋谷区,渋谷１丁目３番１８号,,13,113,1500002,,,,,,,2025-08-07,1,,,,,ニホンインショクサンギョウ,0
45,1011103016170,新規,0,2025-08-07,2025-08-07,合同会社エコスピリット,,合同会社,東京都,新宿区,西新宿３丁目３番１３号西新宿水間ビル２Ｆ,,13,104,1600023,,,,,,,2025-08-07,1,,,,,エコスピリット,0
48,1011601028857,新規,0,2025-08-07,2025-08-07,易徳株式会社,,株式会社,東京都,練馬区,春日町６丁目１６番１１号フォーチュン光が丘２６８室,,13,120,1790074,,,,,,,2025-08-07,1,,,,,イデ,0
49,1011601028873,新規,0,2025-08-07,2025-08-07,株式会社フリーマン,,株式会社,東京都,練馬区,高松６丁目３６番１２号,,13,120,1790075,,,,,,,2025-08-07,1,,,,,フリーマン,0
51,1011701028591,新規,0,2025-08-07,2025-08-07,株式会社Ｔ‐ＳＱＵＡＤ,,株式会社,東京都,江戸川区,西小松川町３４番１２号ウエストコート２０１,,13,123,1320032,,,,,,,2025-08-07,1,,,,,ティースクワッド,0
52,1011701028600,新規,0,2025-08-07,2025-08-07,株式会社柏屋,,株式会社,東京都,江戸川区,南小岩７丁目１８番１１号イ・ムーブルＡ３０１,,13,123,1330056,,,,,,,2025-08-07,1,,,,,カシワヤ,0
56,1012401043427,新規,0,2025-08-07,2025-08-07,株式会社Ｖｅｇａ　Ｌｙｒａ,,株式会社,東京都,武蔵野市,吉祥寺本町３丁目２５番６号クリーンハイツ１０３,,13,203,1800004,,,,,,,2025-08-07,1,,,,,ベガリラ,0
57,1012403007272,新規,0,2025-08-07,2025-08-07,ＹｕＨｏｍｅ合同会社,,合同会社,東京都,小金井市,緑町３丁目１２番１４号,,13,210,1840003,,,,,,,2025-08-07,1,,,,,ユーホーム,0
59,1012803003821,新規,0,2025-08-07,2025-08-07,合同会社Ｆａｎｏ,,合同会社,東京都,東大和市,狭山５丁目１５８７番地の１３コーポアイランド１０２号,,13,220,2070003,,,,,,,2025-08-07,1,,,,,ファノ,0
60,1013101009759,新規,0,2025-08-07,2025-08-07,株式会社サニーフロント,,株式会社,東京都,福生市,大字熊川３８０番地１７,,13,218,1970003,,,,,,,2025-08-07,1,,,,,サニーフロント,0
62,1013301054712,新規,0,2025-08-07,2025-08-07,株式会社アートレルム,,株式会社,東京都,豊島区,東池袋２丁目４５－２ステラビル７Ｆ,,13,116,1700013,,,,,,,2025-08-07,1,,,,,アートレルム,0
63,1013303007800,新規,0,2025-08-07,2025-08-07,合同会社ＢＥＲＵ,,合同会社,東京都,豊島区,西池袋１丁目４２番１１号森下第二ビル地下１階,,13,116,1710021,,,,,,,2025-08-07,1,,,,,ベル,0
78,1020003029141,新規,0,2025-08-07,2025-08-07,ＴＯＢＡＴＡ　ＥＡＬＳ合同会社,,合同会社,神奈川県,横浜市西区,浅間町１丁目４番３号ウィザードビル４０２,,14,103,2200072,,,,,,,2025-08-07,1,,,,,トバタイールズ,0
86,1021001085993,新規,0,2025-08-07,2025-08-07,わん株式会社,,株式会社,神奈川県,藤沢市,鵠沼橘１丁目２番４号クゲヌマファースト４Ｆ,,14,205,2510024,,,,,,,2025-08-07,1,,,,,ワン,0
87,1021001086018,新規,0,2025-08-07,2025-08-07,株式会社１６０,,株式会社,神奈川県,相模原市南区,下溝３０２番地９,,14,153,2520335,,,,,,,2025-08-07,1,,,,,イチロー,0
95,1030001167982,新規,0,2025-08-07,2025-08-07,株式会社全建興業,,株式会社,埼玉県,越谷市,南越谷２丁目２番６号,,11,222,3430845,,,,,,,2025-08-07,1,,,,,ゼンケンコウギョウ,0
98,1030003027367,新規,0,2025-08-07,2025-08-07,ヒロ住まいる合同会社,,合同会社,埼玉県,越谷市,赤山町３丁目１４６番地８,,11,222,3430807,,,,,,,2025-08-07,1,,,,,ヒロスマイル,0
99,1030005022234,新規,0,2025-08-07,2025-08-07,特定非営利活動法人ネクストリビング,,その他の設立登記法人,埼玉県,さいたま市中央区,本町西５丁目２番３－１１０４号,,11,105,3380004,,,,,,,2025-08-07,1,,,,,ネクストリビング,0
105,1040001139915,新規,0,2025-08-07,2025-08-07,Ｋ・ＴＥＣ株式会社,,株式会社,千葉県,東金市,大沼田８０２番地４,,12,213,2830051,,,,,,,2025-08-07,1,,,,,ケーテック,0
106,1040001139948,新規,0,2025-08-07,2025-08-07,古月株式会社,,株式会社,千葉県,船橋市,本郷町４３９－２－４０５号室,,12,204,2730033,,,,,,,2025-08-07,1,,,,,コゲツ,0
107,1040001140039,新規,0,2025-08-07,2025-08-07,禾立株式会社,,株式会社,千葉県,市川市,新井２丁目１番１９号メゾン・ド・ヴェール４０４,,12,203,2720144,,,,,,,2025-08-07,1,,,,,カタチ,0
110,1050001057075,新規,0,2025-08-07,2025-08-07,株式会社関東リフト販売,,株式会社,茨城県,小美玉市,堅倉１６１０番地３,,08,236,3190106,,,,,,,2025-08-07,1,,,,,カントウリフトハンバイ,0
113,1050003009487,新規,0,2025-08-07,2025-08-07,合同会社Ｋ＆Ｓ,,合同会社,茨城県,常総市,内守谷町１８９３番地,,08,211,3030043,,,,,,,2025-08-07,1,,,,,ケーアンドエス,0
116,1080003003520,新規,0,2025-08-07,2025-08-07,合同会社エム農産,,合同会社,静岡県,静岡市駿河区,馬渕３丁目３番１２号,,22,102,4228063,,,,,,,2025-08-07,1,,,,,エムノウサン,0
117,1080101025706,新規,0,2025-08-07,2025-08-07,株式会社勝栄グリーン産業,,株式会社,静岡県,富士市,今宮３７９番地の２,,22,210,4170802,,,,,,,2025-08-07,1,,,,,ショウエイグリーンサンギョウ,0
118,1080101025714,新規,0,2025-08-07,2025-08-07,株式会社ＰＬＡＹａｎｄＷｏＲＫＳ,,株式会社,静岡県,熱海市,渚町１０番５号水梅ビル１Ｆ,,22,205,4130014,,,,,,,2025-08-07,1,,,,,プレイアンドワークス,0
124,1120001278382,新規,0,2025-08-07,2025-08-07,株式会社ＥＲＫ,,株式会社,大阪府,大阪市都島区,都島本通３丁目１８－４サニータウン日新２０８,,27,102,5340021,,,,,,,2025-08-07,1,,,,,イーアールケー,0
125,1120001278515,新規,0,2025-08-07,2025-08-07,ミナミ金属株式会社,,株式会社,大阪府,大阪市生野区,巽南３丁目１４番１８号,00140200,27,116,5440015,,,,,,,2025-08-07,1,,,,,ミナミキンゾク,0
126,1120001278548,新規,0,2025-08-07,2025-08-07,株式会社長江電設工業,,株式会社,大阪府,大阪市住吉区,清水丘２丁目１５番２０号,,27,120,5580033,,,,,,,2025-08-07,1,,,,,ナガエデンセツコウギョウ,0
127,1120001278556,新規,0,2025-08-07,2025-08-07,株式会社ＹＵＩＭＩＲＡＩ,,株式会社,大阪府,大阪市平野区,喜連１丁目７番地２７号喜連一丁目連棟貸家３号,,27,126,5470027,,,,,,,2025-08-07,1,,,,,ユイミライ,0
128,1120001278589,新規,0,2025-08-07,2025-08-07,株式会社Ｌｉｎｋ,,株式会社,大阪府,大阪市生野区,生野西２丁目５番１４号,,27,116,5440024,,,,,,,2025-08-07,1,,,,,リンク,0
131,1120003030221,新規,0,2025-08-07,2025-08-07,たけだ幸せ研究所合同会社,,合同会社,大阪府,大阪市東住吉区,駒川５丁目２３番１３－３０２号,,27,121,5460043,,,,,,,2025-08-07,1,,,,,タケダシアワセケンキュウジョ,0
132,1120005025095,新規,0,2025-08-07,2025-08-07,大阪隆盛一般社団法人,,その他の設立登記法人,大阪府,大阪市中央区,高麗橋４丁目３番７号淀屋橋総合会計内,,27,128,5410043,,,,,,,2025-08-07,1,,,,,オオサカリュウセイ,0
133,1120101072215,新規,0,2025-08-07,2025-08-07,ＭＮクラフト株式会社,,株式会社,大阪府,和泉市,久井町１２６３,,27,219,5941142,,,,,,,2025-08-07,1,,,,,エムエヌクラフト,0
137,1122001039491,新規,0,2025-08-07,2025-08-07,株式会社ベストトランス,,株式会社,大阪府,東大阪市,御厨西ノ町２丁目１番２４号,,27,227,5770037,,,,,,,2025-08-07,1,,,,,ベストトランス,0
139,1130001080226,新規,0,2025-08-07,2025-08-07,梵音株式会社,,株式会社,京都府,京都市西京区,下津林北浦町１０番地７５－２０１,,26,111,6158061,,,,,,,2025-08-07,1,,,,,ボンネ,0
140,1130003010692,新規,0,2025-08-07,2025-08-07,合同会社ＣａｒｅＢｒｉｄｇｅ,,合同会社,京都府,京都市下京区,七条通油小路東入大黒町２２７番地第２キョートビル４０２,,26,106,6008223,,,,,,,2025-08-07,1,,,,,ケアブリッジ,0
147,1140001139541,新規,0,2025-08-07,2025-08-07,ＮＩＲＶＡＮＡ株式会社,,株式会社,兵庫県,神戸市長田区,御屋敷通２丁目３番１０－１号,,28,106,6530843,,,,,,,2025-08-07,1,,,,,ニルヴァーナ,0
148,1140001139558,新規,0,2025-08-07,2025-08-07,株式会社ＵＢ,,株式会社,兵庫県,尼崎市,食満３丁目７番４０号,,28,202,6610982,,,,,,,2025-08-07,1,,,,,ユービー,0
149,1140001139574,新規,0,2025-08-07,2025-08-07,株式会社ＭＡＲＫ,,株式会社,兵庫県,川西市,加茂２丁目９番４号,,28,217,6660025,,,,,,,2025-08-07,1,,,,,マーク,0
150,1140001139582,新規,0,2025-08-07,2025-08-07,株式会社ティースリー,,株式会社,兵庫県,宝塚市,安倉西４丁目１番１０号,,28,214,6650825,,,,,,,2025-08-07,1,,,,,ティースリー,0
156,1140003022373,新規,0,2025-08-07,2025-08-07,合同会社ＳｐｈｅｒｅＣｏｎｎｅｃｔ,,合同会社,兵庫県,小野市,復井町４１８－２,,28,218,6751352,,,,,,,2025-08-07,1,,,,,スフィアコネクト,0
158,1170003002265,新規,0,2025-08-07,2025-08-07,レジデンスメイド合同会社,,合同会社,和歌山県,御坊市,塩屋町南塩屋６５番地２,,30,205,6440024,,,,,,,2025-08-07,1,,,,,レジデンスメイド,0
172,1200001044108,新規,0,2025-08-07,2025-08-07,株式会社河原,,株式会社,岐阜県,岐阜市,日ノ出町４丁目１７番地サンワビル地下１階,,21,201,5008876,,,,,,,2025-08-07,1,,,,,カワハラ,0
173,1200001044124,新規,0,2025-08-07,2025-08-07,株式会社ＣＨＮ,,株式会社,岐阜県,関市,西本郷通６丁目６番４１号,,21,205,5013803,,,,,,,2025-08-07,1,,,,,シーエイチエヌ,0
174,1200003006956,新規,0,2025-08-07,2025-08-07,ＭＡＤＭＡＸ合同会社,,合同会社,岐阜県,美濃加茂市,加茂野町木野８１２－１,,21,211,5050053,,,,,,,2025-08-07,1,,,,,マッドマックス,0
178,1220001026855,新規,0,2025-08-07,2025-08-07,株式会社ノトコク,,株式会社,石川県,七尾市,万行町４３部１８１番地８,,17,202,9260012,,,,,,,2025-08-07,1,,,,,ノトコク,0
189,1280003001982,新規,0,2025-08-07,2025-08-07,Ｗｏｒｋ　Ｈａｃｋ合同会社,,合同会社,島根県,松江市,東忌部町２８８０‐２０,,32,201,6900036,,,,,,,2025-08-07,1,,,,,ワークハック,0
193,1290001110883,新規,0,2025-08-07,2025-08-07,美霖株式会社,,株式会社,福岡県,福岡市南区,多賀１丁目４番２５－２０２号,,40,134,8150072,,,,,,,2025-08-07,1,,,,,メリル,0
196,1290003017219,新規,0,2025-08-07,2025-08-07,合同会社Ｆｒｅｓｈ,,合同会社,福岡県,柳川市,袋町１９番地４ランドゥール柳川３０２号,,40,207,8320044,,,,,,,2025-08-07,1,,,,,フレッシュ,0
199,1300001014307,新規,0,2025-08-07,2025-08-07,平原地所株式会社,,株式会社,佐賀県,佐賀市,本庄町大字袋１３１番地５,,41,201,8400023,,,,,,,2025-08-07,1,,,,,ヒラバルヂショ,0
200,1310001019734,新規,0,2025-08-07,2025-08-07,株式会社旬菜縁,,株式会社,長崎県,雲仙市,国見町多比良戊１４１１番地１５,,42,213,8591325,,,,,,,2025-08-07,1,,,,,シュンサイエン,0
204,1330001033477,新規,0,2025-08-07,2025-08-07,Ｈ．Ｒコーポレーション株式会社,,株式会社,熊本県,宇土市,網津町２８７４番地,,43,211,8690461,,,,,,,2025-08-07,1,,,,,エイチアールコーポレーション,0
207,1330005010943,新規,0,2025-08-07,2025-08-07,菊陽町土地開発公社,,その他の設立登記法人,熊本県,菊池郡菊陽町,大字久保田２８００番地,,43,404,8691103,,,,,,,2025-08-07,1,,,,,キクヨウマチ,0
222,1380001035502,新規,0,2025-08-07,2025-08-07,株式会社ＢＲＩＧＨＴ　ＰＡＴＨ,,株式会社,福島県,須賀川市,古舘１４番地５６,,07,207,9620861,,,,,,,2025-08-07,1,,,,,ブライトパス,0
228,1430001094922,新規,0,2025-08-07,2025-08-07,株式会社ＹＳコンサルティング,,株式会社,北海道,札幌市中央区,南二条西５丁目３１番地１ＲＭＢｌｄ．７０１,,01,101,0600062,,,,,,,2025-08-07,1,,,,,ワイエスコンサルティング,0
229,1430001094939,新規,0,2025-08-07,2025-08-07,株式会社ＲＡＭＰＡＧＥ,,株式会社,北海道,札幌市中央区,南四条西２丁目８番地１０,,01,101,0640804,,,,,,,2025-08-07,1,,,,,ランページ,0
230,1430001095053,新規,0,2025-08-07,2025-08-07,株式会社カンデイ,,株式会社,北海道,勇払郡むかわ町,福住３丁目１１５番地,,01,586,0540032,,,,,,,2025-08-07,1,,,,,カンデイ,0
249,2010001257116,新規,0,2025-08-07,2025-08-07,ＮＵＲＩＴＹ株式会社,,株式会社,東京都,中央区,佃２丁目１－１センチュリーパークタワー３１１６,,13,102,1040051,,,,,,,2025-08-07,1,,,,,ヌリティ,0
250,2010001257470,新規,0,2025-08-07,2025-08-07,株式会社Ａ‐ＲＩＳＥ,,株式会社,東京都,文京区,白山４丁目１３番１４号,,13,105,1120001,,,,,,,2025-08-07,1,,,,,アライズ,0
255,2010005040410,新規,0,2025-08-07,2025-08-07,一般社団法人ジャパンパワーランド１,,その他の設立登記法人,東京都,中央区,京橋２丁目１２番６号ＡＯＪ税理士法人内,,13,102,1040031,,,,,,,2025-08-07,1,,,,,ジャパンパワーランドワン,0
263,2010401192292,新規,0,2025-08-07,2025-08-07,ＰＳエージェンシー株式会社,,株式会社,東京都,港区,港南２丁目１６番１号,,13,103,1080075,,,,,,,2025-08-07,1,,,,,ピーエスエージェンシー,0
264,2010401192301,新規,0,2025-08-07,2025-08-07,ＷＥＷＯＮ株式会社,,株式会社,東京都,港区,浜松町２丁目７番１７号イーグル浜松町天翔オフィス浜松町大門１０階１０５６号室,,13,103,1050013,,,,,,,2025-08-07,1,,,,,ウィウォン,0
268,2010403035763,新規,0,2025-08-07,2025-08-07,アデランテ合同会社,,合同会社,東京都,港区,六本木３丁目１６番１２号六本木ＫＳビル５Ｆ,,13,103,1060032,,,,,,,2025-08-07,1,,,,,アデランテ,0
270,2010405024582,新規,0,2025-08-07,2025-08-07,一般社団法人あそびまＳＴＡＴＩＯＮ,,その他の設立登記法人,東京都,港区,北青山１丁目３番１号アールキューブ青山３階,,13,103,1070061,,,,,,,2025-08-07,1,,,,,アソビマステイション,0
273,2010503007943,新規,0,2025-08-07,2025-08-07,合同会社メルシー,,合同会社,東京都,台東区,千束４丁目１７番７号,,13,106,1110031,,,,,,,2025-08-07,1,,,,,メルシー,0
274,2010901057846,新規,0,2025-08-07,2025-08-07,株式会社ナインヘーゼルズ,,株式会社,東京都,世田谷区,太子堂４丁目１８番１５号マガザン三軒茶屋２・３Ｆ－３,,13,112,1540004,,,,,,,2025-08-07,1,,,,,ナインヘーゼルズ,0
275,2010901057887,新規,0,2025-08-07,2025-08-07,ｆｅｍｔｅｃｈｎｏｌｏｇｉｅｓ株式会社,,株式会社,東京都,世田谷区,成城２丁目３９番４号,,13,112,1570066,,,,,,,2025-08-07,1,,,,,フェムテクノロジーズ,0
276,2010901057895,新規,0,2025-08-07,2025-08-07,株式会社コノハナスマイル,,株式会社,東京都,世田谷区,経堂５丁目３番２９号,,13,112,1560052,,,,,,,2025-08-07,1,,,,,コノハナスマイル,0
278,2010903010175,新規,0,2025-08-07,2025-08-07,合同会社ＥＬＮＡＺ,,合同会社,東京都,世田谷区,瀬田１丁目１３番８号ヒルズクレイオＢー１０１,,13,112,1580095,,,,,,,2025-08-07,1,,,,,エリナズ,0
284,2011001171348,新規,0,2025-08-07,2025-08-07,株式会社ＰＭＩ　Ｂｒｉｄｇｅ,,株式会社,東京都,渋谷区,恵比寿２丁目１３番１２－７０２号,,13,113,1500013,,,,,,,2025-08-07,1,,,,,ピーエムアイブリッジ,0
285,2011005011104,新規,0,2025-08-07,2025-08-07,一般社団法人ＢＨＤ,,その他の設立登記法人,東京都,渋谷区,猿楽町２３番２号,,13,113,1500033,,,,,,,2025-08-07,1,,,,,ビーエイチディー,0
291,2011101112813,新規,0,2025-08-07,2025-08-07,株式会社コモレア,,株式会社,東京都,新宿区,西新宿３丁目３番１３号西新宿水間ビル２Ｆ,,13,104,1600023,,,,,,,2025-08-07,1,,,,,コモレア,0
295,2011401027298,新規,0,2025-08-07,2025-08-07,宇佐米粉製パン株式会社,,株式会社,東京都,板橋区,成増１丁目１３番１１号ファーイーストビル９Ａ,,13,119,1750094,,,,,,,2025-08-07,1,,,,,ウサコメコセイパン,0
297,2011501032413,新規,0,2025-08-07,2025-08-07,株式会社ＴＲＵＥＲＡ,,株式会社,東京都,荒川区,西尾久７丁目４６番５－３０２号,,13,118,1160011,,,,,,,2025-08-07,1,,,,,トルーラ,0
310,2012403007271,新規,0,2025-08-07,2025-08-07,モトラク合同会社,,合同会社,東京都,三鷹市,深大寺２丁目１番１１号ＩＳビル２階,,13,204,1810016,,,,,,,2025-08-07,1,,,,,モトラク,0
311,2012701019010,新規,0,2025-08-07,2025-08-07,ことは株式会社,,株式会社,東京都,小平市,喜平町１丁目６番２１号,,13,211,1870044,,,,,,,2025-08-07,1,,,,,コトハ,0
313,2012803003820,新規,0,2025-08-07,2025-08-07,合同会社アレス,,合同会社,東京都,日野市,大字日野６６４番地の４,,13,212,1910012,,,,,,,2025-08-07,1,,,,,アレス,0
321,2013303007799,新規,0,2025-08-07,2025-08-07,ＰＥＥＲＳ合同会社,,合同会社,東京都,豊島区,長崎５丁目２番地９号,,13,116,1710051,,,,,,,2025-08-07,1,,,,,ピアーズ,0
328,2020003029108,新規,0,2025-08-07,2025-08-07,合同会社リベルタワークス,,合同会社,神奈川県,横浜市緑区,長津田３丁目６番１０号,,14,113,2260027,,,,,,,2025-08-07,1,,,,,リベルタワークス,0
334,2021001085984,新規,0,2025-08-07,2025-08-07,湘幸貿易株式会社,,株式会社,神奈川県,藤沢市,大庭５４５３番地の１－３０３号,,14,205,2510861,,,,,,,2025-08-07,1,,,,,ショウコウボウエキ,0
335,2021001085992,新規,0,2025-08-07,2025-08-07,株式会社ＯＬＳＯ,,株式会社,神奈川県,横須賀市,田浦町１丁目１８番地,,14,201,2370075,,,,,,,2025-08-07,1,,,,,,0
336,2021001086017,新規,0,2025-08-07,2025-08-07,株式会社ＡＲＤ,,株式会社,神奈川県,藤沢市,湘南台４丁目６番地の１６,,14,205,2520804,,,,,,,2025-08-07,1,,,,,エーアールディー,0
341,2030005022233,新規,0,2025-08-07,2025-08-07,プランナー社会保険労務士法人,,その他の設立登記法人,埼玉県,新座市,東北２丁目２６－３安部ビル５階,,11,230,3520001,,,,,,,2025-08-07,1,,,,,プランナー,0
343,2040001139996,新規,0,2025-08-07,2025-08-07,株式会社ヘルアド,,株式会社,千葉県,市川市,堀之内４丁目１９番１号,,12,203,2720837,,,,,,,2025-08-07,1,,,,,ヘルアド,0
348,2060001038478,新規,0,2025-08-07,2025-08-07,３６９ｍｉｒｏｋｕ　ｊａｐａｎ株式会社,,株式会社,栃木県,宇都宮市,東宿郷６丁目９番１１号レーベンリヴァーレ宇都宮クイントタワー１３０２,,09,201,3210953,,,,,,,2025-08-07,1,,,,,ミロクミロクジャパン,0
349,2060001038494,新規,0,2025-08-07,2025-08-07,株式会社エクラドーレ,,株式会社,栃木県,宇都宮市,鶴田２丁目４６番７号,,09,201,3200857,,,,,,,2025-08-07,1,,,,,エクラドーレ,0
350,2060005010367,新規,0,2025-08-07,2025-08-07,農事組合法人芳賀スカイ,,その他の設立登記法人,栃木県,芳賀郡芳賀町,大字東水沼４３９番地,,09,345,3213322,,,,,,,2025-08-07,1,,,,,ハガスカイ,0
352,2080001027082,新規,0,2025-08-07,2025-08-07,株式会社Ｓトレーディング,,株式会社,静岡県,静岡市清水区,折戸４丁目７番７号,,22,103,4240902,,,,,,,2025-08-07,1,,,,,エストレーディング,0
358,2100001038853,新規,0,2025-08-07,2025-08-07,エムスクエア株式会社,,株式会社,長野県,北佐久郡軽井沢町,大字追分字務塚９８０番地７５,,20,321,3890115,,,,,,,2025-08-07,1,,,,,エムスクエア,0
360,2110001039487,新規,0,2025-08-07,2025-08-07,名立ブナの森水力発電株式会社,,株式会社,新潟県,上越市,名立区瀬戸８３５番地２,,15,222,9491625,,,,,,,2025-08-07,1,,,,,ナダチブナノモリスイリョクハツデン,0
367,2120001278480,新規,0,2025-08-07,2025-08-07,初一株式会社,,株式会社,大阪府,大阪市西成区,萩之茶屋２丁目６番４－２１５号,,27,122,5570004,,,,,,,2025-08-07,1,,,,,ショイチ,0
368,2120001278497,新規,0,2025-08-07,2025-08-07,株式会社ＲＴＣ,,株式会社,大阪府,大阪市港区,築港３丁目３番１号天保山第五コーポ１号棟７１６,,27,107,5520021,,,,,,,2025-08-07,1,,,,,アールティーシー,0
369,2120001278522,新規,0,2025-08-07,2025-08-07,チン‐シン株式会社,,株式会社,大阪府,大阪市浪速区,元町１丁目１０番６号８階,,27,111,5560016,,,,,,,2025-08-07,1,,,,,チンシン,0
370,2120001278555,新規,0,2025-08-07,2025-08-07,株式会社オフィススタンス,,株式会社,大阪府,大阪市福島区,大開２丁目６番２９号第二首藤ビル１０３,,27,103,5530007,,,,,,,2025-08-07,1,,,,,オフィススタンス,0
371,2120001278588,新規,0,2025-08-07,2025-08-07,株式会社Ｌｕｃｅｎｔｅ,,株式会社,大阪府,大阪市北区,梅田１丁目１１番４号,,27,127,5300001,,,,,,,2025-08-07,1,,,,,ルチェンテ,0
372,2120001278646,新規,0,2025-08-07,2025-08-07,華星株式会社,,株式会社,大阪府,大阪市東成区,大今里３丁目１５番６号ＩｍａｚａｔｏＴｏｗｅｒ４０７Ａ,,27,115,5370012,,,,,,,2025-08-07,1,,,,,カセイ,0
375,2120003030063,新規,0,2025-08-07,2025-08-07,合同会社しずね,,合同会社,大阪府,大阪市西成区,北津守１丁目１－２,,27,122,5570061,,,,,,,2025-08-07,1,,,,,シズネ,0
376,2120003030121,新規,0,2025-08-07,2025-08-07,合同会社ＫＪ,,合同会社,大阪府,大阪市東住吉区,湯里２丁目１７番２３号ハイツ５１０－２０３号室,,27,121,5460013,,,,,,,2025-08-07,1,,,,,ケイジェー,0
377,2120101072222,新規,0,2025-08-07,2025-08-07,株式会社装三,,株式会社,大阪府,堺市堺区,大浜南町３丁１番５１号,,27,141,5900976,,,,,,,2025-08-07,1,,,,,ソウゾウ,0
378,2120103006616,新規,0,2025-08-07,2025-08-07,合同会社リブラ,,合同会社,大阪府,富田林市,富田林町６番７号,,27,214,5840033,,,,,,,2025-08-07,1,,,,,リブラ,0
390,2140001139540,新規,0,2025-08-07,2025-08-07,蓋乃可世株式会社,,株式会社,兵庫県,神戸市中央区,下山手通８丁目１５番３１－６０１号,,28,110,6500011,,,,,,,2025-08-07,1,,,,,ガイノカヨ,0
391,2140001139557,新規,0,2025-08-07,2025-08-07,株式会社中井技建,,株式会社,兵庫県,伊丹市,寺本６丁目３１番地,,28,207,6640026,,,,,,,2025-08-07,1,,,,,ナカイギケン,0
392,2140001139598,新規,0,2025-08-07,2025-08-07,株式会社ＲｉｓｅＷｏｒｋｓ,,株式会社,兵庫県,尼崎市,武庫豊町２丁目１０－７－１０２,,28,202,6610045,,,,,,,2025-08-07,1,,,,,ライズワークス,0
396,2140003022389,新規,0,2025-08-07,2025-08-07,ＨＲＭ商会合同会社,,合同会社,兵庫県,小野市,黒川町１７８９,,28,218,6751371,,,,,,,2025-08-07,1,,,,,エイチアールエムショウカイ,0
397,2140005027592,新規,0,2025-08-07,2025-08-07,一般社団法人兵庫県立視覚特別支援学校同窓会,,その他の設立登記法人,兵庫県,神戸市垂水区,城が山４丁目２番１号兵庫県立視覚特別支援学校内,,28,108,6550884,,,,,,,2025-08-07,1,,,,,ヒョウゴケンリツシカクトクベツシエンガッコウドウソウカイ,0
398,2150001028313,新規,0,2025-08-07,2025-08-07,株式会社櫻井ホーム,,株式会社,奈良県,生駒郡三郷町,三室１丁目９－３５－１０１,,29,343,6360802,,,,,,,2025-08-07,1,,,,,サクライホーム,0
399,2150001028321,新規,0,2025-08-07,2025-08-07,株式会社グランドウィル,,株式会社,奈良県,北葛城郡広陵町,大字大塚７００番地１,,29,426,6350834,,,,,,,2025-08-07,1,,,,,グランドウィル,0
401,2160001003257,新規,0,2025-08-07,2025-08-07,グリーンランド株式会社,,株式会社,滋賀県,大津市,伊香立上龍華町平山７０１－２０,,25,201,5200362,,,,,,,2025-08-07,1,,,,,グリーンランド,0
419,2200001044107,新規,0,2025-08-07,2025-08-07,株式会社服部商店,,株式会社,岐阜県,大垣市,荒尾町５１２番地３,,21,202,5030034,,,,,,,2025-08-07,1,,,,,ハットリショウテン,0
427,2240001065347,新規,0,2025-08-07,2025-08-07,株式会社ノヴァレクション,,株式会社,広島県,広島市西区,井口５丁目９番１０号,,34,104,7330842,,,,,,,2025-08-07,1,,,,,ノヴァレクション,0
430,2250001021290,新規,0,2025-08-07,2025-08-07,株式会社藤本工業,,株式会社,山口県,防府市,大字台道１１３５２番地の１２,,35,206,7471232,,,,,,,2025-08-07,1,,,,,フジモトコウギョウ,0
432,2260001040397,新規,0,2025-08-07,2025-08-07,株式会社陽のあたる場所不動産,,株式会社,岡山県,津山市,一方１５４番地,,33,203,7080883,,,,,,,2025-08-07,1,,,,,ヒノアタルバショフドウサン,0
448,2290801031766,新規,0,2025-08-07,2025-08-07,株式会社ＴＡＫＥ　ＯＦＦ,,株式会社,福岡県,北九州市八幡東区,枝光４丁目４番８号,,40,108,8050002,,,,,,,2025-08-07,1,,,,,テイクオフ,0
456,2330001033476,新規,0,2025-08-07,2025-08-07,株式会社明るい人事,,株式会社,熊本県,熊本市北区,龍田陳内３丁目２４番１５,,43,105,8618005,,,,,,,2025-08-07,1,,,,,アカルイジンジ,0
460,2330005010942,新規,0,2025-08-07,2025-08-07,一般社団法人全国幸せ相続計画ネットワークくまもと,,その他の設立登記法人,熊本県,熊本市東区,尾ノ上１丁目８番２７号,,43,102,8620913,,,,,,,2025-08-07,1,,,,,ゼンコクシアワセソウゾクケイカクネットワーククマモト,0
463,2340005009892,新規,0,2025-08-07,2025-08-07,一般財団法人かごしま島嶼ファンド,,その他の設立登記法人,鹿児島県,鹿児島市,東千石町１７番１号,,46,201,8920842,,,,,,,2025-08-07,1,,,,,カゴシマトウショファンド,0
467,2370001052927,新規,0,2025-08-07,2025-08-07,株式会社インぺルド,,株式会社,宮城県,仙台市青葉区,上愛子字雷神１５番地の５,,04,101,9893124,,,,,,,2025-08-07,1,,,,,インペルド,0
470,2380001035501,新規,0,2025-08-07,2025-08-07,株式会社パークサイド,,株式会社,福島県,郡山市,開成２丁目３９番１４号,,07,203,9638851,,,,,,,2025-08-07,1,,,,,パークサイド,0
472,2390001018075,新規,0,2025-08-07,2025-08-07,株式会社ＫＦ　Ｔａｂｌｅ,,株式会社,山形県,西村山郡河北町,谷地字谷地ニ８５番,,06,321,9993511,,,,,,,2025-08-07,1,,,,,,0
473,2410003004137,新規,0,2025-08-07,2025-08-07,合同会社アニラナー,,合同会社,秋田県,秋田市,保戸野八丁３番１２号,,05,201,0100903,,,,,,,2025-08-07,1,,,,,アニラナー,0
477,2420001019219,新規,0,2025-08-07,2025-08-07,株式会社水めじゃあ弘前,,株式会社,青森県,弘前市,大字五十石町５１番地３パレーシャル五十石２０１号,,02,202,0368362,,,,,,,2025-08-07,1,,,,,ミズメジャアヒロサキ,0
478,2420001019227,新規,0,2025-08-07,2025-08-07,株式会社ジョージのおやつ,,株式会社,青森県,中津軽郡西目屋村,大字田代字神田２４４番地６,,02,343,0361411,,,,,,,2025-08-07,1,,,,,ジョージノオヤツ,0
485,2430001094954,新規,0,2025-08-07,2025-08-07,株式会社ｎｏｔｔｅ,,株式会社,北海道,札幌市中央区,南二条東２丁目１６番地,,01,101,0600052,,,,,,,2025-08-07,1,,,,,ノッテ,0
498,2500001026462,新規,0,2025-08-07,2025-08-07,株式会社五色防災,,株式会社,愛媛県,伊予市,尾崎１６８番地１０,,38,210,7993127,,,,,,,2025-08-07,1,,,,,ゴシキボウサイ,0
506,3010003048297,新規,0,2025-08-07,2025-08-07,合同会社アリエス２,,合同会社,東京都,中央区,日本橋２丁目１０番４号,,13,102,1030027,,,,,,,2025-08-07,1,,,,,アリエスツー,0
508,3010005040491,新規,0,2025-08-07,2025-08-07,しえんＨＲパートナーズ社会保険労務士法人,,その他の設立登記法人,東京都,千代田区,四番町２番地１クレール東郷坂１Ｆ,,13,101,1020081,,,,,,,2025-08-07,1,,,,,シエンエイチアールパートナーズ,0
511,3010401192283,新規,0,2025-08-07,2025-08-07,ソナタコンサルティング株式会社,,株式会社,東京都,港区,芝浦１丁目４番１１－７０４号,,13,103,1050023,,,,,,,2025-08-07,1,,,,,ソナタコンサルティング,0
512,3010401192291,新規,0,2025-08-07,2025-08-07,Ｖｏｌｔｉｆｙ株式会社,,株式会社,東京都,港区,北青山１丁目３番１号アールキューブ青山３階,,13,103,1070061,,,,,,,2025-08-07,1,,,,,ボルティファイ,0
513,3010401192300,新規,0,2025-08-07,2025-08-07,ディライトワークス・キャピタル株式会社,,株式会社,東京都,港区,六本木６丁目１０番１号,,13,103,1060032,,,,,,,2025-08-07,1,,,,,ディライトワークスキャピタル,0
515,3010403035762,新規,0,2025-08-07,2025-08-07,アートファクトリージャパン合同会社,,合同会社,東京都,港区,南青山３丁目１番３６号青山丸竹ビル６Ｆ,,13,103,1070062,,,,,,,2025-08-07,1,,,,,アートファクトリージャパン,0
521,3010503007942,新規,0,2025-08-07,2025-08-07,Ｂｕｔｔｅｒ　Ｒｏｂｏｔ合同会社,,合同会社,東京都,台東区,台東２丁目３１番１０号第二掛川ビル１０５号室,,13,106,1100016,,,,,,,2025-08-07,1,,,,,バターロボット,0
523,3010903010174,新規,0,2025-08-07,2025-08-07,東京グッドテンポ合同会社,,合同会社,東京都,世田谷区,下馬１丁目４５番９号,,13,112,1540002,,,,,,,2025-08-07,1,,,,,トウキョウグッドテンポ,0
533,3011003022300,新規,0,2025-08-07,2025-08-07,ＭＴコンサルティング合同会社,,合同会社,東京都,渋谷区,道玄坂１丁目１０番８号渋谷道玄坂東急ビル２Ｆ－Ｃ,,13,113,1500043,,,,,,,2025-08-07,1,,,,,エムティーコンサルティング,0
534,3011003022317,新規,0,2025-08-07,2025-08-07,合同会社ｍｉｎｉｍｕｍ,,合同会社,東京都,渋谷区,道玄坂１丁目１０番８号渋谷道玄坂東急ビル２Ｆ－Ｃ,,13,113,1500043,,,,,,,2025-08-07,1,,,,,ミニマム,0
535,3011101112779,新規,0,2025-08-07,2025-08-07,株式会社ウニクス・アンド・カンパニー,,株式会社,東京都,新宿区,新宿１丁目９番１０号ＹＫＢ東ビル４階,,13,104,1600022,,,,,,,2025-08-07,1,,,,,ウニクスアンドカンパニー,0
536,3011101112804,新規,0,2025-08-07,2025-08-07,Ｓｏｐｈｉａ株式会社,,株式会社,東京都,新宿区,西新宿３丁目３番１３号西新宿水間ビル６階,,13,104,1600023,,,,,,,2025-08-07,1,,,,,ソフィア,0
540,3011301030780,新規,0,2025-08-07,2025-08-07,大渡海株式会社,,株式会社,東京都,杉並区,上井草３丁目１２番１１号,,13,115,1670023,,,,,,,2025-08-07,1,,,,,ダイトカイ,0
543,3011501032404,新規,0,2025-08-07,2025-08-07,株式会社小林大祐建築設計事務所,,株式会社,東京都,北区,田端５丁目３番２２－１０２号,,13,117,1140014,,,,,,,2025-08-07,1,,,,,コバヤシダイスケケンチクセッケイジムショ,0
544,3011501032420,新規,0,2025-08-07,2025-08-07,株式会社ＦＲＯＭ３０,,株式会社,東京都,北区,志茂１丁目２４番１４号,,13,117,1150042,,,,,,,2025-08-07,1,,,,,フロムサーティ,0
545,3011601028871,新規,0,2025-08-07,2025-08-07,株式会社北藤,,株式会社,東京都,練馬区,関町北１丁目１２番１１号,,13,120,1770051,,,,,,,2025-08-07,1,,,,,キタフジ,0
548,3011701028607,新規,0,2025-08-07,2025-08-07,株式会社東照,,株式会社,東京都,江戸川区,松江２丁目１５番２号,,13,123,1320025,,,,,,,2025-08-07,1,,,,,トウショウ,0
551,3011801046566,新規,0,2025-08-07,2025-08-07,天宇テック株式会社,,株式会社,東京都,葛飾区,金町１丁目２３番６号２号室,,13,122,1250042,,,,,,,2025-08-07,1,,,,,テンウテック,0
554,3012801024149,新規,0,2025-08-07,2025-08-07,株式会社ＨＡＬ,,株式会社,東京都,日野市,多摩平２丁目８番地の１、Ｄ－９５０,,13,212,1910062,,,,,,,2025-08-07,1,,,,,ハル,0
559,3013301054751,新規,0,2025-08-07,2025-08-07,株式会社ユアーズ,,株式会社,東京都,豊島区,東池袋３丁目１番４号メゾンサンシャイン１２３７号室,,13,116,1700013,,,,,,,2025-08-07,1,,,,,ユアーズ,0
568,3020001164137,新規,0,2025-08-07,2025-08-07,迅豊株式会社,,株式会社,神奈川県,横浜市南区,高根町１丁目４番４０号ＫＹＳオフィス２階Ａ０１９,,14,105,2320022,,,,,,,2025-08-07,1,,,,,ジンホウ,0
572,3020003029081,新規,0,2025-08-07,2025-08-07,合同会社猫組,,合同会社,神奈川県,横浜市神奈川区,金港町５－１４クアドリファリオ８階,,14,102,2210056,,,,,,,2025-08-07,1,,,,,ネコグミ,0
575,3021001085901,新規,0,2025-08-07,2025-08-07,株式会社みうら家族信託・相続サポートセンター,,株式会社,神奈川県,三浦市,南下浦町上宮田３２５９番地,,14,210,2380101,,,,,,,2025-08-07,1,,,,,ミウラカゾクシンタクソウゾクサポートセンター,0
581,3030001167972,新規,0,2025-08-07,2025-08-07,エム・クラフト株式会社,,株式会社,埼玉県,比企郡ときがわ町,大字大野４３６番地,,11,349,3550366,,,,,,,2025-08-07,1,,,,,エムクラフト,0
582,3030001167980,新規,0,2025-08-07,2025-08-07,カエセル株式会社,,株式会社,埼玉県,坂戸市,芦山町６番地８井上ビル３０１号室,,11,239,3500273,,,,,,,2025-08-07,1,,,,,カエセル,0
586,3030005022232,新規,0,2025-08-07,2025-08-07,特定非営利活動法人こうのすこども応援団,,その他の設立登記法人,埼玉県,鴻巣市,人形４丁目６番５号,,11,217,3650037,,,,,,,2025-08-07,1,,,,,コウノスコドモオウエンダン,0
587,3040001139905,新規,0,2025-08-07,2025-08-07,株式会社ブルーミングビジョン,,株式会社,千葉県,千葉市中央区,要町１６番３号,,12,101,2600017,,,,,,,2025-08-07,1,,,,,ブルーミングビジョン,0
593,3040003028172,新規,0,2025-08-07,2025-08-07,合同会社佳祐仲田,,合同会社,千葉県,千葉市緑区,大木戸町９３番地６６,,12,105,2670057,,,,,,,2025-08-07,1,,,,,ケイスケナカダ,0
596,3050001057040,新規,0,2025-08-07,2025-08-07,株式会社ＵＧＥＣ,,株式会社,茨城県,土浦市,中央２丁目６番４号,,08,203,3000043,,,,,,,2025-08-07,1,,,,,ユージーイーシー,0
597,3050001057073,新規,0,2025-08-07,2025-08-07,株式会社高島電通,,株式会社,茨城県,笠間市,旭町５６１－２１,,08,216,3091717,,,,,,,2025-08-07,1,,,,,タカシマデンツウ,0
603,3080001027081,新規,0,2025-08-07,2025-08-07,株式会社ＣＯＬＯＭＢＯ　ＬＩＦＥ　ＰＬＡＮＮＩＮＧ,,株式会社,静岡県,静岡市駿河区,中田３丁目３番２３号,,22,102,4228041,,,,,,,2025-08-07,1,,,,,コロンボライフプランニング,0
605,3080003003519,新規,0,2025-08-07,2025-08-07,合同会社ひまわり,,合同会社,静岡県,静岡市清水区,押切２００４番地,,22,103,4240008,,,,,,,2025-08-07,1,,,,,ヒマワリ,0
606,3080401028035,新規,0,2025-08-07,2025-08-07,株式会社渡辺化学澱粉製造所,,株式会社,静岡県,湖西市,新所５８４０番地の１,,22,221,4310421,,,,,,,2025-08-07,1,,,,,,0
608,3110001039486,新規,0,2025-08-07,2025-08-07,株式会社創志建興,,株式会社,新潟県,燕市,富永３２１番地６,,15,213,9590211,,,,,,,2025-08-07,1,,,,,ソウシケンコウ,0
617,3120001278190,新規,0,2025-08-07,2025-08-07,和泰株式会社,,株式会社,大阪府,大阪市中央区,高津１丁目９－１０インテリジェンスビル８０５号室,,27,128,5420072,,,,,,,2025-08-07,1,,,,,ワタイ,0
618,3120001278554,新規,0,2025-08-07,2025-08-07,ＳＩＳＵ株式会社,,株式会社,大阪府,大阪市西区,京町堀２丁目３番１０－１００１号,,27,106,5500003,,,,,,,2025-08-07,1,,,,,シス,0
619,3120001278587,新規,0,2025-08-07,2025-08-07,フィーゴ株式会社,,株式会社,大阪府,大阪市西区,西本町１丁目８番２号,,27,106,5500005,,,,,,,2025-08-07,1,,,,,フィーゴ,0
620,3120001278645,新規,0,2025-08-07,2025-08-07,恒銘発展株式会社,,株式会社,大阪府,大阪市城東区,関目５丁目１９番９号関目花博公館２０５Ａ,,27,118,5360008,,,,,,,2025-08-07,1,,,,,コウメイハッテン,0
628,3130001080224,新規,0,2025-08-07,2025-08-07,Ｔ＆Ｃ株式会社,,株式会社,京都府,京都市山科区,安朱馬場ノ西町３９番地の１,,26,110,6078007,,,,,,,2025-08-07,1,,,,,ティーアンドシー,0
632,3140001139531,新規,0,2025-08-07,2025-08-07,株式会社ＮＥＸＵＳ　ＧＬＯＢＡＬ　ＴＲＡＤＩＮＧ,,株式会社,兵庫県,姫路市,勝原区宮田５８８－３－２Ｆ,,28,201,6711213,,,,,,,2025-08-07,1,,,,,ネクサスグローバルトレーディング,0
633,3140001139548,新規,0,2025-08-07,2025-08-07,株式会社ＩＭＯＮＴＥＣＨＮＯ,,株式会社,兵庫県,川西市,南花屋敷４丁目１２番５号,,28,217,6660026,,,,,,,2025-08-07,1,,,,,イモンテクノ,0
634,3140001139556,新規,0,2025-08-07,2025-08-07,ＡＫＥＮＡ株式会社,,株式会社,兵庫県,西宮市,笠屋町１１番２３－２０２号,,28,204,6638136,,,,,,,2025-08-07,1,,,,,アケナ,0
635,3140001139564,新規,0,2025-08-07,2025-08-07,株式会社イトウ,,株式会社,兵庫県,神戸市灘区,箕岡通４丁目４番１９号マザーズウーム１０２号,,28,102,6570812,,,,,,,2025-08-07,1,,,,,イトウ,0
636,3140001139572,新規,0,2025-08-07,2025-08-07,株式会社ＰａｗＬｉｎｋ,,株式会社,兵庫県,神戸市西区,岩岡町野中１７９番地の１,,28,111,6512405,,,,,,,2025-08-07,1,,,,,パウリンク,0
637,3140001139580,新規,0,2025-08-07,2025-08-07,ジェムテック株式会社,,株式会社,兵庫県,神崎郡神河町,鍛冶１７番地,,28,446,6793100,,,,,,,2025-08-07,1,,,,,ジェムテック,0
638,3140001139589,新規,0,2025-08-07,2025-08-07,株式会社セブンフィート,,株式会社,兵庫県,芦屋市,公光町７番１０－５０３号,,28,206,6590065,,,,,,,2025-08-07,1,,,,,セブンフィート,0
639,3140001139597,新規,0,2025-08-07,2025-08-07,株式会社ＡＩ　Ｃｏａｃｈｉｎｇ　Ｌａｂ,,株式会社,兵庫県,神戸市北区,菖蒲が丘２丁目１番地の７,,28,109,6511306,,,,,,,2025-08-07,1,,,,,エーアイコーチングラボ,0
643,3140003022405,新規,0,2025-08-07,2025-08-07,宝商事合同会社,,合同会社,兵庫県,神戸市兵庫区,湊川町１０丁目１８番１１号,,28,105,6520041,,,,,,,2025-08-07,1,,,,,タカラショウジ,0
644,3150001028304,新規,0,2025-08-07,2025-08-07,Ｈａｐｐｙ　Ｓｍｉｌｅ株式会社,,株式会社,奈良県,奈良市,水門町５２番地,,29,201,6308208,,,,,,,2025-08-07,1,,,,,ハッピースマイル,0
645,3150005009713,新規,0,2025-08-07,2025-08-07,一般社団法人バッテラサバサバ,,その他の設立登記法人,奈良県,生駒郡平群町,緑ケ丘３丁目１１番１７号,,29,342,6360941,,,,,,,2025-08-07,1,,,,,バッテラサバサバ,0
649,3180001167818,新規,0,2025-08-07,2025-08-07,株式会社あまね,,株式会社,愛知県,名古屋市中村区,本陣通５丁目１２３番地,,23,105,4530041,,,,,,,2025-08-07,1,,,,,アマネ,0
655,3180305009716,新規,0,2025-08-07,2025-08-07,ひろ行政書士法人,,その他の設立登記法人,愛知県,西尾市,住崎町北畑２８番地１－２ＭＩＩＣＲＵＩＳＥ１Ｆ－Ａ,00140210,23,213,4450876,,,,,,,2025-08-07,1,,,,,ヒロ,0
656,3200001044089,新規,0,2025-08-07,2025-08-07,株式会社ティーエヌエー,,株式会社,岐阜県,岐阜市,茜部中島３丁目３１－２２,,21,201,5008269,,,,,,,2025-08-07,1,,,,,ティーエヌエー,0
657,3200001044106,新規,0,2025-08-07,2025-08-07,興達商事株式会社,,株式会社,岐阜県,瑞浪市,陶町猿爪５８８番地,,21,208,5096361,,,,,,,2025-08-07,1,,,,,コウタツショウジ,0
658,3200001044122,新規,0,2025-08-07,2025-08-07,株式会社ライス企画岐阜,,株式会社,岐阜県,多治見市,下沢町４丁目７２番地の３,,21,204,5070812,,,,,,,2025-08-07,1,,,,,ライスキカクギフ,0
667,3240001065338,新規,0,2025-08-07,2025-08-07,株式会社睡魔,,株式会社,広島県,広島市南区,金屋町３番１０－２０３号,,34,103,7320825,,,,,,,2025-08-07,1,,,,,スイマ,0
673,3270001009259,新規,0,2025-08-07,2025-08-07,ＹＫメディカルリンクス株式会社,,株式会社,鳥取県,鳥取市,気高町宝木１５６１番地８,,31,201,6890216,,,,,,,2025-08-07,1,,,,,ワイケーメディカルリンクス,0
687,3300001014313,新規,0,2025-08-07,2025-08-07,株式会社ＳＯＲＡＫＡ,,株式会社,佐賀県,武雄市,武雄町大字永島１６５０９番地８,,41,206,8430021,,,,,,,2025-08-07,1,,,,,ソラカ,0
688,3310001019732,新規,0,2025-08-07,2025-08-07,株式会社アーキ建設,,株式会社,長崎県,島原市,礫石原町甲１２０２番地３３,,42,203,8550026,,,,,,,2025-08-07,1,,,,,アーキケンセツ,0
690,3330001033475,新規,0,2025-08-07,2025-08-07,株式会社Ｌｉｂｅｌｕｌａ,,株式会社,熊本県,熊本市南区,出仲間９丁目２番３９号サンライズＩ１０２,,43,104,8620963,,,,,,,2025-08-07,1,,,,,リベルラ,0
704,3370001052934,新規,0,2025-08-07,2025-08-07,株式会社コウケン,,株式会社,宮城県,仙台市若林区,荒井３丁目３番地の２,,04,103,9840032,,,,,,,2025-08-07,1,,,,,コウケン,0
707,3380001035509,新規,0,2025-08-07,2025-08-07,株式会社Ｌｏｉｒｅ,,株式会社,福島県,いわき市,平豊間字塩屋台８番地の１,,07,204,9700224,,,,,,,2025-08-07,1,,,,,ロワール,0
711,3410003004136,新規,0,2025-08-07,2025-08-07,Ｍ企画合同会社,,合同会社,秋田県,能代市,花園町１５番８号,,05,202,0160844,,,,,,,2025-08-07,1,,,,,エムキカク,0
714,3430001094937,新規,0,2025-08-07,2025-08-07,天神不動産株式会社,,株式会社,北海道,札幌市豊平区,平岸一条１８丁目２番５４号,,01,105,0620931,,,,,,,2025-08-07,1,,,,,テンジンフドウサン,0
715,3430001094953,新規,0,2025-08-07,2025-08-07,株式会社グロシード,,株式会社,北海道,札幌市北区,屯田五条７丁目９番１２号,,01,102,0020855,,,,,,,2025-08-07,1,,,,,グロシード,0
717,3430003017978,新規,0,2025-08-07,2025-08-07,合同会社ニャー助のホテルん,,合同会社,北海道,積丹郡積丹町,大字西河町１４番地２,,01,405,0460324,,,,,,,2025-08-07,1,,,,,ニャースケノホテルン,0
723,3490001011135,新規,0,2025-08-07,2025-08-07,株式会社暖,,株式会社,高知県,土佐市,波介６１番地,,39,205,7811143,,,,,,,2025-08-07,1,,,,,ハル,0
725,3500003003566,新規,0,2025-08-07,2025-08-07,合同会社ＦＥＬＬＯＷＳ,,合同会社,愛媛県,松山市,高岡町２１８番地１,,38,201,7918036,,,,,,,2025-08-07,1,,,,,フェローズ,0
732,4010001257460,新規,0,2025-08-07,2025-08-07,株式会社ワンエナジー,,株式会社,東京都,千代田区,飯田橋４丁目４番１－２１０３号,,13,101,1020072,,,,,,,2025-08-07,1,,,,,ワンエナジー,0
733,4010001257576,新規,0,2025-08-07,2025-08-07,株式会社ＴＡＭＫＯ,,株式会社,東京都,千代田区,神田小川町３丁目２８番９号三東ビル２Ｆ,,13,101,1010052,,,,,,,2025-08-07,1,,,,,タムコ,0
737,4010003048296,新規,0,2025-08-07,2025-08-07,合同会社アリエス１,,合同会社,東京都,中央区,日本橋２丁目１０番４号,,13,102,1030027,,,,,,,2025-08-07,1,,,,,アリエスワン,0
741,4010005040433,新規,0,2025-08-07,2025-08-07,一般社団法人起業支援者協会,,その他の設立登記法人,東京都,千代田区,神田猿楽町２丁目８番１１号,,13,101,1010064,,,,,,,2025-08-07,1,,,,,キギョウシエンシャキョウカイ,0
742,4010005040490,新規,0,2025-08-07,2025-08-07,一般社団法人エヴォリューション・アカデミー協会,,その他の設立登記法人,東京都,千代田区,九段南１丁目５番６号りそな九段ビル５Ｆ,,13,101,1020074,,,,,,,2025-08-07,1,,,,,エヴォリューションアカデミーキョウカイ,0
744,4010101016808,新規,0,2025-08-07,2025-08-07,株式会社ｎｅｘｔ　ｉｎｎｏｖａｔｉｏｎ,,株式会社,東京都,八王子市,丹木町３丁目２１２番地８,,13,201,1920003,,,,,,,2025-08-07,1,,,,,ネクストイノベーション,0
751,4010401192175,新規,0,2025-08-07,2025-08-07,株式会社Ｓｏｌｖｉａ,,株式会社,東京都,港区,南麻布５丁目１０－３０コトー南麻布２０２,,13,103,1060047,,,,,,,2025-08-07,1,,,,,ソルヴィア,0
752,4010401192209,新規,0,2025-08-07,2025-08-07,ＮＥＥＤ株式会社,,株式会社,東京都,港区,三田５丁目２０番１２号エリセリア白金高輪１１０１号室,,13,103,1080073,,,,,,,2025-08-07,1,,,,,ニード,0
753,4010401192282,新規,0,2025-08-07,2025-08-07,ＧＯドライブ株式会社,,株式会社,東京都,港区,麻布台１丁目３番１号麻布台ヒルズ森ＪＰタワー,,13,103,1060041,,,,,,,2025-08-07,1,,,,,ゴードライブ,0
754,4010401192299,新規,0,2025-08-07,2025-08-07,ルミエールパートナーズ株式会社,,株式会社,東京都,港区,赤坂２丁目５番８号ヒューリックＪＰ赤坂ビル５Ｆ,,13,103,1070052,,,,,,,2025-08-07,1,,,,,ルミエールパートナーズ,0
755,4010401192316,新規,0,2025-08-07,2025-08-07,株式会社Ｐｌａｔｉｎｕｍ,,株式会社,東京都,港区,浜松町２丁目５－２田中ビル４Ｆ,,13,103,1050013,,,,,,,2025-08-07,1,,,,,プラチナム,0
756,4010401192357,新規,0,2025-08-07,2025-08-07,あんぜんＬＡＢ株式会社,,株式会社,東京都,港区,六本木３丁目１６番１２号六本木ＫＳビル５Ｆ,,13,103,1060032,,,,,,,2025-08-07,1,,,,,アンゼンラボ,0
759,4010405024572,新規,0,2025-08-07,2025-08-07,一般社団法人ＩＤＥＭＡ,,その他の設立登記法人,東京都,港区,西新橋２丁目１１番９号ワタルビル６階,,13,103,1050003,,,,,,,2025-08-07,1,,,,,アイデマ,0
761,4010501054507,新規,0,2025-08-07,2025-08-07,株式会社ＲＳＨ　ＣＯＮＳＵＬＴＩＮＧ,,株式会社,東京都,台東区,日本堤１丁目１９－２－８０４号,,13,106,1110021,,,,,,,2025-08-07,1,,,,,,0
764,4010601067747,新規,0,2025-08-07,2025-08-07,永豊株式会社,,株式会社,東京都,江東区,有明２丁目１番２－１１１１号,,13,108,1350063,,,,,,,2025-08-07,1,,,,,エイホウ,0
767,4010603011728,新規,0,2025-08-07,2025-08-07,合同会社ボニーブルー,,合同会社,東京都,江東区,深川１丁目１－２－１２０５,,13,108,1350033,,,,,,,2025-08-07,1,,,,,ボニーブルー,0
771,4010901057885,新規,0,2025-08-07,2025-08-07,株式会社ＺＯＢＥ,,株式会社,東京都,世田谷区,宮坂１丁目３７－１４,,13,112,1560051,,,,,,,2025-08-07,1,,,,,ゾベ,0
773,4011001171767,新規,0,2025-08-07,2025-08-07,株式会社一体感,,株式会社,東京都,目黒区,下目黒１丁目１番１４号コノトラビル７Ｆ,,13,110,1530064,,,,,,,2025-08-07,1,,,,,イッタイカン,0
777,4011201026556,新規,0,2025-08-07,2025-08-07,株式会社ギフトＣＨ,,株式会社,東京都,中野区,上高田１丁目４３－５,,13,114,1640002,,,,,,,2025-08-07,1,,,,,ギフトシーエイチ,0
778,4011203004782,新規,0,2025-08-07,2025-08-07,合同会社ＲＥＡＬ　ＥＳＴＡＴＥ　ＳＨＩＮＷＡ,,合同会社,東京都,中野区,南台４丁目３２番１６－１０２号,,13,114,1640014,,,,,,,2025-08-07,1,,,,,リアルエステートシンワ,0
779,4011303005664,新規,0,2025-08-07,2025-08-07,合同会社永道,,合同会社,東京都,杉並区,永福４丁目２７番４号,,13,115,1680064,,,,,,,2025-08-07,1,,,,,エイドウ,0
780,4011401027296,新規,0,2025-08-07,2025-08-07,株式会社フリーダムソリューション,,株式会社,東京都,板橋区,東坂下１丁目１９番１２－４０４号,,13,119,1740042,,,,,,,2025-08-07,1,,,,,フリーダムソリューション,0
783,4011601028879,新規,0,2025-08-07,2025-08-07,株式会社シンタニデザインスタジオ,,株式会社,東京都,練馬区,下石神井６丁目１５番１１号,,13,120,1770042,,,,,,,2025-08-07,1,,,,,シンタニデザインスタジオ,0
791,4012701019009,新規,0,2025-08-07,2025-08-07,株式会社おばこさん,,株式会社,東京都,西東京市,田無町３丁目１１番１３号,,13,229,1880011,,,,,,,2025-08-07,1,,,,,オバコサン,0
794,4012801024148,新規,0,2025-08-07,2025-08-07,株式会社叶華建設,,株式会社,東京都,東大和市,芋窪４丁目１４２３番地の１,,13,220,2070033,,,,,,,2025-08-07,1,,,,,キョウカケンセツ,0
806,4020001164219,新規,0,2025-08-07,2025-08-07,株式会社キタケン,,株式会社,神奈川県,川崎市幸区,北加瀬３丁目１７番７号,,14,132,2120057,,,,,,,2025-08-07,1,,,,,キタケン,0
808,4020003029114,新規,0,2025-08-07,2025-08-07,合同会社Ｓｔｕｄｉｏ　Ｏｒｂ,,合同会社,神奈川県,横浜市港北区,綱島東４丁目１０番５－１０９号,,14,109,2230052,,,,,,,2025-08-07,1,,,,,スタジオオーブ,0
811,4021001085982,新規,0,2025-08-07,2025-08-07,政隆英商会株式会社,,株式会社,神奈川県,中郡大磯町,大磯９５４番地,,14,341,2550003,,,,,,,2025-08-07,1,,,,,セイリュウハナブサショウカイ,0
812,4021001085990,新規,0,2025-08-07,2025-08-07,株式会社ＩＭＫスタイル,,株式会社,神奈川県,平塚市,西真土１丁目５－５２,,14,203,2540019,,,,,,,2025-08-07,1,,,,,アイエムケイスタイル,0
818,4030001167971,新規,0,2025-08-07,2025-08-07,株式会社Ｌｉｎｇｒｏｗ,,株式会社,埼玉県,所沢市,林２丁目４７５番地の１５,,11,208,3591167,,,,,,,2025-08-07,1,,,,,リングロウ,0
824,4030003027331,新規,0,2025-08-07,2025-08-07,合同会社マルタ商会,,合同会社,埼玉県,東松山市,日吉町３番３８号,,11,212,3550012,,,,,,,2025-08-07,1,,,,,マルタショウカイ,0
825,4030003027348,新規,0,2025-08-07,2025-08-07,合同会社Ｙ，Ｓファクトリー,,合同会社,埼玉県,さいたま市西区,大字指扇３５５６－１ＪＡＭＢｕｉｌｄ西大宮２０２,,11,101,3310047,,,,,,,2025-08-07,1,,,,,ワイズファクトリー,0
826,4030005022231,新規,0,2025-08-07,2025-08-07,特定非営利活動法人ＪＯＭＯＮコミュニティ,,その他の設立登記法人,埼玉県,川口市,西川口３丁目７番１４号,,11,203,3320021,,,,,,,2025-08-07,1,,,,,ジョウモンコミュニティ,0
829,4040003028163,新規,0,2025-08-07,2025-08-07,合同会社振魂産業,,合同会社,千葉県,松戸市,五香６丁目１０番地の６,,12,207,2702213,,,,,,,2025-08-07,1,,,,,フルタマサンギョウ,0
833,4050001057007,新規,0,2025-08-07,2025-08-07,雲雀興業株式会社,,株式会社,茨城県,龍ケ崎市,奈戸岡２番地７１,,08,208,3010845,,,,,,,2025-08-07,1,,,,,ヒバリコウギョウ,0
834,4050001057048,新規,0,2025-08-07,2025-08-07,株式会社ＦＡＮ　ＳＨＯＰ,,株式会社,茨城県,猿島郡境町,大字長井戸７３１番地１４,,08,546,3060404,,,,,,,2025-08-07,1,,,,,ファンショップ,0
835,4050001057072,新規,0,2025-08-07,2025-08-07,中内ホールディングス株式会社,,株式会社,茨城県,ひたちなか市,大字中根１３４７番地,,08,221,3120011,,,,,,,2025-08-07,1,,,,,ナカウチホールデイングス,0
836,4050003009484,新規,0,2025-08-07,2025-08-07,ダンジョン・アーセナル合同会社,,合同会社,茨城県,稲敷郡美浦村,大字見晴６７番地１３,,08,442,3000437,,,,,,,2025-08-07,1,,,,,ダンジョンアーセナル,0
837,4060001038484,新規,0,2025-08-07,2025-08-07,ＳＫ　ＴＲＡＤＩＮＧ株式会社,,株式会社,栃木県,栃木市,大平町北武井１１１１番地,,09,203,3294412,,,,,,,2025-08-07,1,,,,,エスケートレーディング,0
841,4080101025711,新規,0,2025-08-07,2025-08-07,株式会社真こと舎,,株式会社,静岡県,富士市,伝法１６４４番地の２５,,22,210,4170061,,,,,,,2025-08-07,1,,,,,マコトシャ,0
848,4100001038819,新規,0,2025-08-07,2025-08-07,株式会社ＹＧ,,株式会社,長野県,伊那市,前原８２６８番地４０７,,20,209,3960112,,,,,,,2025-08-07,1,,,,,ワイジー,0
849,4100001038851,新規,0,2025-08-07,2025-08-07,旭赤株式会社,,株式会社,長野県,北安曇郡白馬村,大字神城２２１９４番地１,,20,485,3999211,,,,,,,2025-08-07,1,,,,,アサヒアカ,0
851,4110001039485,新規,0,2025-08-07,2025-08-07,株式会社ビューティー恵,,株式会社,新潟県,阿賀野市,緑町１９番１５号,,15,223,9592034,,,,,,,2025-08-07,1,,,,,ビューティーケイ,0
856,4120001278462,新規,0,2025-08-07,2025-08-07,株式会社エバークリーン,,株式会社,大阪府,大阪市都島区,大東町２丁目２１番２２号都島大東町ライゼホビー２号室,,27,102,5340002,,,,,,,2025-08-07,1,,,,,エバークリーン,0
857,4120001278479,新規,0,2025-08-07,2025-08-07,ＯＲＡＮＧＥＣ株式会社,,株式会社,大阪府,大阪市西成区,萩之茶屋２丁目６番４－２２７号,,27,122,5570004,,,,,,,2025-08-07,1,,,,,オレンジーシー,0
858,4120001278504,新規,0,2025-08-07,2025-08-07,和慧株式会社,,株式会社,大阪府,大阪市東淀川区,豊新５丁目６番３－３０２号,,27,114,5330014,,,,,,,2025-08-07,1,,,,,カズエ,0
859,4120001278512,新規,0,2025-08-07,2025-08-07,晴雅株式会社,,株式会社,大阪府,大阪市此花区,春日出北３丁目１３番３７－４０５号,,27,104,5540021,,,,,,,2025-08-07,1,,,,,ハレガ,0
860,4120001278553,新規,0,2025-08-07,2025-08-07,株式会社ＨＩＭ,,株式会社,大阪府,寝屋川市,日之出町１５番２１号,,27,215,5720835,,,,,,,2025-08-07,1,,,,,エッチアイエム,0
861,4120001278586,新規,0,2025-08-07,2025-08-07,フェニックス株式会社,,株式会社,大阪府,大阪市生野区,勝山南３丁目９番２号,,27,116,5440021,,,,,,,2025-08-07,1,,,,,フェニックス,0
862,4120001278594,新規,0,2025-08-07,2025-08-07,株式会社ＧＬＯＷ　ＷＩＴＨ,,株式会社,大阪府,大阪市港区,波除３丁目８番９号２Ｆ,,27,107,5520001,,,,,,,2025-08-07,1,,,,,グロウウィズ,0
863,4120001278636,新規,0,2025-08-07,2025-08-07,株式会社オールドハウス,,株式会社,大阪府,大阪市中央区,西心斎橋２丁目１６番１号ＴＦビル５Ｆ,,27,128,5420086,,,,,,,2025-08-07,1,,,,,オールドハウス,0
866,4120003030169,新規,0,2025-08-07,2025-08-07,Ａｍｂｉｔｉｏｕｓ合同会社,,合同会社,大阪府,大阪市中央区,宗右衛門町２－２５南ビル,,27,128,5420084,,,,,,,2025-08-07,1,,,,,アンビシャス,0
868,4120101072220,新規,0,2025-08-07,2025-08-07,株式会社ＮＯＲＳＥＮ,,株式会社,大阪府,堺市南区,庭代台４丁２４番１３号,,27,145,5900133,,,,,,,2025-08-07,1,,,,,ノーゼン,0
869,4120103006614,新規,0,2025-08-07,2025-08-07,合同会社エーライフ,,合同会社,大阪府,藤井寺市,小山６丁目２番４２号,,27,226,5830033,,,,,,,2025-08-07,1,,,,,エーライフ,0
871,4120105010052,新規,0,2025-08-07,2025-08-07,一般社団法人岬町総合型地域スポーツクラブみさきタコクラブ,,その他の設立登記法人,大阪府,泉南郡岬町,淡輪４５４６番地岬町町民体育館内,,27,366,5990301,,,,,,,2025-08-07,1,,,,,ミサキチョウソウゴウガタチイキスポーツクラブミサキタコクラブ,0
876,4130001080223,新規,0,2025-08-07,2025-08-07,株式会社タイムリスト,,株式会社,京都府,京都市下京区,小稲荷町８５－２Ｇｒａｎｄ－Ｋ京都駅前ビル２０１,,26,106,6008208,,,,,,,2025-08-07,1,,,,,タイムリスト,0
877,4130001080272,新規,0,2025-08-07,2025-08-07,アモチカコーポレーション株式会社,,株式会社,京都府,京都市山科区,大塚檀ノ浦１９番地６１０,,26,110,6078124,,,,,,,2025-08-07,1,,,,,アモチカコーポレーション,0
886,4140001139547,新規,0,2025-08-07,2025-08-07,愛陽株式会社,,株式会社,兵庫県,神戸市長田区,水笠通４丁目４番６号,,28,106,6530842,,,,,,,2025-08-07,1,,,,,アイヨウ,0
887,4140001139563,新規,0,2025-08-07,2025-08-07,株式会社Ｌｅｇａｃｙ　Ｆｏｏｄｓ,,株式会社,兵庫県,宍粟市,波賀町安賀５３９番地５,,28,227,6714241,,,,,,,2025-08-07,1,,,,,レガシーフーズ,0
888,4140001139605,新規,0,2025-08-07,2025-08-07,株式会社ＶＥＲＤＥ,,株式会社,兵庫県,三木市,別所町高木９３３番地の５,,28,215,6730435,,,,,,,2025-08-07,1,,,,,ヴェルデ,0
892,4140003022362,新規,0,2025-08-07,2025-08-07,合同会社ＣＣＭ,,合同会社,兵庫県,神戸市垂水区,狩口台４丁目２４番３０４号,,28,108,6550049,,,,,,,2025-08-07,1,,,,,シーシーエム,0
893,4140003022379,新規,0,2025-08-07,2025-08-07,ＭＯＮＯ’Ｓ　ＳＴＹＬＥ合同会社,,合同会社,兵庫県,小野市,天神町４３７番地の３,,28,218,6751316,,,,,,,2025-08-07,1,,,,,モノズスタイル,0
894,4140003022387,新規,0,2025-08-07,2025-08-07,Ｈｓリンクス合同会社,,合同会社,兵庫県,芦屋市,伊勢町７番１４号２０２,,28,206,6590052,,,,,,,2025-08-07,1,,,,,エイチエスリンクス,0
895,4140003022395,新規,0,2025-08-07,2025-08-07,ＨＹ・ＮＥＸＵＳ合同会社,,合同会社,兵庫県,神戸市中央区,山本通４丁目１９番８号エクセレント諏訪山１０１,,28,110,6500003,,,,,,,2025-08-07,1,,,,,エイチワイネクサス,0
896,4150003003675,新規,0,2025-08-07,2025-08-07,合同会社ヘリオトロープ,,合同会社,奈良県,奈良市,学園北２丁目６番２３号,,29,201,6310036,,,,,,,2025-08-07,1,,,,,ヘリオトロープ,0
912,4190001032466,新規,0,2025-08-07,2025-08-07,中西ＨＤ株式会社,,株式会社,三重県,松阪市,上川町３４６１番地５,,24,204,5150041,,,,,,,2025-08-07,1,,,,,ナカニシホールディングス,0
913,4200001044105,新規,0,2025-08-07,2025-08-07,株式会社スライヴ,,株式会社,岐阜県,多治見市,笠原町７７９番地の２９,,21,204,5070901,,,,,,,2025-08-07,1,,,,,スライヴ,0
914,4200001044121,新規,0,2025-08-07,2025-08-07,株式会社補修専科丸壱,,株式会社,岐阜県,多治見市,脇之島町４丁目３６番地の５,,21,204,5070826,,,,,,,2025-08-07,1,,,,,ホシュウセンカマルイチ,0
919,4200003006937,新規,0,2025-08-07,2025-08-07,合同会社Ｍｏｐｐｙ,,合同会社,岐阜県,瑞浪市,稲津町小里３３８－１,,21,208,5096103,,,,,,,2025-08-07,1,,,,,モッピー,0
921,4220001026860,新規,0,2025-08-07,2025-08-07,株式会社ＭＵＳＴ,,株式会社,石川県,金沢市,木越町タ１３１番地２,,17,201,9200203,,,,,,,2025-08-07,1,,,,,マスト,0
922,4230001021035,新規,0,2025-08-07,2025-08-07,奥村産業株式会社,,株式会社,富山県,富山市,千代田町１１番５号,,16,201,9300811,,,,,,,2025-08-07,1,,,,,オクムラサンギョウ,0
925,4240001065337,新規,0,2025-08-07,2025-08-07,株式会社ｍｉｋａｔａ,,株式会社,広島県,江田島市,能美町中町４０１５番地１,,34,215,7372301,,,,,,,2025-08-07,1,,,,,ミカタ,0
926,4240001065345,新規,0,2025-08-07,2025-08-07,株式会社キャリー・オン,,株式会社,広島県,呉市,音戸町波多見９丁目４番７号,,34,202,7371207,,,,,,,2025-08-07,1,,,,,,0
929,4240003007345,新規,0,2025-08-07,2025-08-07,合同会社オガワＫ,,合同会社,広島県,広島市西区,田方１丁目１４番２号,,34,104,7330851,,,,,,,2025-08-07,1,,,,,オガワケイ,0
932,4280001009488,新規,0,2025-08-07,2025-08-07,株式会社ＣＲＡＳＥＳＴ．,,株式会社,島根県,益田市,高津５丁目１６番２号,,32,204,6980041,,,,,,,2025-08-07,1,,,,,クラーセスト,0
936,4290001110922,新規,0,2025-08-07,2025-08-07,株式会社ｍａｍａｒｉｓｏ,,株式会社,福岡県,福岡市東区,香椎駅前２丁目１２番４１号あおやぎビル２０２,,40,131,8130013,,,,,,,2025-08-07,1,,,,,ママリソー,0
937,4290001110939,新規,0,2025-08-07,2025-08-07,株式会社黒鐵,,株式会社,福岡県,古賀市,小竹９５４番地１０,,40,223,8113135,,,,,,,2025-08-07,1,,,,,クロテツ,0
944,4310001019731,新規,0,2025-08-07,2025-08-07,株式会社ＦＡＳＩＯ,,株式会社,長崎県,北松浦郡佐々町,古川免２７６番地４,,42,391,8570314,,,,,,,2025-08-07,1,,,,,ファシオ,0
948,4320001021273,新規,0,2025-08-07,2025-08-07,株式会社Ｌｕｃｅｓｔｏｌｌａ,,株式会社,大分県,大分市,大字丹川１９１８番地の５１,,44,201,8700317,,,,,,,2025-08-07,1,,,,,ルーチェストラ,0
952,4330005010940,新規,0,2025-08-07,2025-08-07,特定非営利活動法人玉名国際交流市民の会,,その他の設立登記法人,熊本県,玉名市,岱明町中土１０４５番地２,,43,206,8690223,,,,,,,2025-08-07,1,,,,,タマナコクサイコウリュウシミンノカイ,0
961,4360003015146,新規,0,2025-08-07,2025-08-07,合同会社ＳＩＭＡ　ＩＲＡＢＵ,,合同会社,沖縄県,宮古島市,伊良部字佐和田１５４６番地県営伊良部第二団地１棟３０１号室,,47,214,9060507,,,,,,,2025-08-07,1,,,,,シマイラブ,0
962,4370001052933,新規,0,2025-08-07,2025-08-07,株式会社ＳｉｅｌｐＡ　Ｂｏｏｋｓ,,株式会社,宮城県,仙台市青葉区,荒巻字青葉３９０番地の９３メゾン・モナミ１０３,,04,101,9800845,,,,,,,2025-08-07,1,,,,,シエルパブックス,0
963,4370003007225,新規,0,2025-08-07,2025-08-07,合同会社ＲＣ,,合同会社,宮城県,仙台市宮城野区,鶴ケ谷東２丁目３４番２７号ハイツリベルテ２０１,,04,102,9830826,,,,,,,2025-08-07,1,,,,,アールシー,0
964,4370003007241,新規,0,2025-08-07,2025-08-07,合同会社Ｓ１Ｋ‐ＨＡＣＫ,,合同会社,宮城県,仙台市青葉区,中央２丁目１１－１９仙南ビル４階－Ａ,,04,101,9800021,,,,,,,2025-08-07,1,,,,,シクハック,0
966,4380001035524,新規,0,2025-08-07,2025-08-07,株式会社ＬＯＶＥ　ＡＮＤ　ＴＲＵＳＴ,,株式会社,福島県,いわき市,佐糠町１丁目３番地の１３,,07,204,9748223,,,,,,,2025-08-07,1,,,,,ラブアンドトラスト,0
976,4430003017928,新規,0,2025-08-07,2025-08-07,合同会社ＪＷ,,合同会社,北海道,札幌市白石区,南郷通７丁目北５番２２号,,01,104,0030023,,,,,,,2025-08-07,1,,,,,ジェイダブリュー,0
981,4470003002950,新規,0,2025-08-07,2025-08-07,楓経理合同会社,,合同会社,香川県,綾歌郡宇多津町,大字東分１９６４番地６,,37,386,7690213,,,,,,,2025-08-07,1,,,,,,0
990,4500001026460,新規,0,2025-08-07,2025-08-07,株式会社アーキ・ファーム,,株式会社,愛媛県,今治市,波方町樋口甲２２００番地１０９,00140201,38,202,7992102,,,,,,,2025-08-07,1,,,,,アーキファーム,0
992,4500003003565,新規,0,2025-08-07,2025-08-07,合同会社Ｈａｐｐｉａ,,合同会社,愛媛県,松山市,久米窪田町４７１番地３,,38,201,7911101,,,,,,,2025-08-07,1,,,,,ハピア,0
1007,5010001257402,新規,0,2025-08-07,2025-08-07,全共連第４回劣後ローン流動化株式会社,,株式会社,東京都,千代田区,丸の内１丁目４番１号東京共同会計事務所内,,13,101,1000005,,,,,,,2025-08-07,1,,,,,ゼンキョウレンダイヨンカイレツゴローンリュウドウカ,0
1008,5010001257518,新規,0,2025-08-07,2025-08-07,株式会社ローンチクエスト,,株式会社,東京都,千代田区,神田駿河台２丁目１番１９号,,13,101,1010062,,,,,,,2025-08-07,1,,,,,ローンチクエスト,0
1009,5010001257641,新規,0,2025-08-07,2025-08-07,バンブー・フローテック株式会社,,株式会社,東京都,千代田区,神田和泉町１番地６－１６ヤマトビル４０５,,13,101,1010024,,,,,,,2025-08-07,1,,,,,バンブーフローテック,0
1012,5010003048295,新規,0,2025-08-07,2025-08-07,合同会社高栄１,,合同会社,東京都,中央区,日本橋２丁目１０番４号,,13,102,1030027,,,,,,,2025-08-07,1,,,,,コウエイワン,0
1019,5010401192273,新規,0,2025-08-07,2025-08-07,株式会社ＮＴＬ４７,,株式会社,東京都,港区,港南１丁目２番７０号,,13,103,1080075,,,,,,,2025-08-07,1,,,,,エヌティエルヨンジュウナナ,0
1020,5010401192281,新規,0,2025-08-07,2025-08-07,ワインマン株式会社,,株式会社,東京都,港区,芝５丁目２０番２２号,,13,103,1080014,,,,,,,2025-08-07,1,,,,,ワインマン,0
1021,5010401192323,新規,0,2025-08-07,2025-08-07,株式会社ＱＯＰ,,株式会社,東京都,港区,南青山２丁目２番１５号,,13,103,1070062,,,,,,,2025-08-07,1,,,,,キューオーピー,0
1023,5010403035777,新規,0,2025-08-07,2025-08-07,セリエタ設立準備合同会社,,合同会社,東京都,港区,西麻布３丁目１３番２０号,,13,103,1060031,,,,,,,2025-08-07,1,,,,,セリエタセツリツジュンビ,0
1025,5010405024638,新規,0,2025-08-07,2025-08-07,一般社団法人ＴＳＭ１７２,,その他の設立登記法人,東京都,港区,元赤坂１丁目１番７号,,13,103,1070051,,,,,,,2025-08-07,1,,,,,ティーエスエムヒャクナナジュウニ,0
1029,5010501054522,新規,0,2025-08-07,2025-08-07,Ｓｅｅ　Ｊａｙ株式会社,,株式会社,東京都,台東区,台東２丁目２６－８,,13,106,1100016,,,,,,,2025-08-07,1,,,,,シージェイ,0
1032,5010701048126,新規,0,2025-08-07,2025-08-07,株式会社ｔｏｕｔｅｓ,,株式会社,東京都,品川区,東五反田３丁目１７番１２号,,13,109,1410022,,,,,,,2025-08-07,1,,,,,トト,0
1040,5010903010164,新規,0,2025-08-07,2025-08-07,北溟堂合同会社,,合同会社,東京都,世田谷区,太子堂４丁目１８番１５号マガザン三軒茶屋２－３Ｆ－３,,13,112,1540004,,,,,,,2025-08-07,1,,,,,ホクメイドウ,0
1044,5011001171188,新規,0,2025-08-07,2025-08-07,ｕＨｏｏ株式会社,,株式会社,東京都,渋谷区,道玄坂１丁目１０番８号渋谷道玄坂東急ビル２Ｆ－Ｃ,,13,113,1500043,,,,,,,2025-08-07,1,,,,,ユーフー,0
1046,5011003021993,新規,0,2025-08-07,2025-08-07,合同会社ブネット,,合同会社,東京都,渋谷区,恵比寿２丁目２８－７,,13,113,1500013,,,,,,,2025-08-07,1,,,,,ブネット,0
1047,5011101112637,新規,0,2025-08-07,2025-08-07,Ｔｏｐｗｉｎｇ株式会社,,株式会社,東京都,新宿区,西新宿６丁目１７番７号エクセル７ビル２Ｆ,,13,104,1600023,,,,,,,2025-08-07,1,,,,,トップウィング,0
1048,5011101112653,新規,0,2025-08-07,2025-08-07,リライト株式会社,,株式会社,東京都,新宿区,西新宿３丁目５番１２－２０９号トーカン新宿第２キャステール,,13,104,1600023,,,,,,,2025-08-07,1,,,,,リライト,0
1051,5011201026555,新規,0,2025-08-07,2025-08-07,飛翔工業株式会社,,株式会社,東京都,中野区,上高田４丁目４６番１１号サンエイアームス４０３,,13,114,1640002,,,,,,,2025-08-07,1,,,,,ツバサコウギョウ,0
1054,5011301030779,新規,0,2025-08-07,2025-08-07,株式会社ナラ,,株式会社,東京都,杉並区,梅里１丁目２２番１８号,,13,115,1660011,,,,,,,2025-08-07,1,,,,,ナラ,0
1055,5011301030787,新規,0,2025-08-07,2025-08-07,Ｍａｙｓ株式会社,,株式会社,東京都,杉並区,永福４丁目１９番２１－７号,,13,115,1680064,,,,,,,2025-08-07,1,,,,,メイズ,0
1057,5011303005647,新規,0,2025-08-07,2025-08-07,合同会社ＲＩＮＳＥＮ,,合同会社,東京都,杉並区,天沼１丁目１３－１２,,13,115,1670032,,,,,,,2025-08-07,1,,,,,リンセン,0
1058,5011401027312,新規,0,2025-08-07,2025-08-07,株式会社Ｎ‐１,,株式会社,東京都,板橋区,仲宿５９番１４号メゾンドルフ小松屋４０２号室,,13,119,1730005,,,,,,,2025-08-07,1,,,,,エヌワン,0
1061,5011501032410,新規,0,2025-08-07,2025-08-07,東京かんきょう科学研究院株式会社,,株式会社,東京都,荒川区,南千住３丁目２７－２浅草ビル５０８,,13,118,1160003,,,,,,,2025-08-07,1,,,,,トウキョウカンキョウカガクケンキュウイン,0
1062,5011601028878,新規,0,2025-08-07,2025-08-07,チョイ株式会社,,株式会社,東京都,練馬区,春日町６丁目１６－１１フォーチュン光が丘２１８号室,,13,120,1790074,,,,,,,2025-08-07,1,,,,,チョイ,0
1070,5012401043448,新規,0,2025-08-07,2025-08-07,株式会社ｃｉｉａ,,株式会社,東京都,武蔵野市,吉祥寺本町２丁目２５番１２号ＳａｎｔａＦｅ・Ｂ１－Ｂ,,13,203,1800004,,,,,,,2025-08-07,1,,,,,シーア,0
1071,5012401043464,新規,0,2025-08-07,2025-08-07,株式会社ＳＡＢＢＹ,,株式会社,東京都,多摩市,落合２丁目１番地の１０ソフィア青木葉Ｖ,00140211,13,224,2060033,,,,,,,2025-08-07,1,,,,,サビィ,0
1073,5012803003818,新規,0,2025-08-07,2025-08-07,弘田企画合同会社,,合同会社,東京都,立川市,錦町１丁目１９番地６号サンライズ錦１０２号室,,13,202,1900022,,,,,,,2025-08-07,1,,,,,ヒロタキカク,0
1076,5013303007796,新規,0,2025-08-07,2025-08-07,合同会社そそるＰＥＴ,,合同会社,東京都,豊島区,東池袋２丁目６２番８号ＢＩＧオフィスプラザ池袋１２０６,,13,116,1700013,,,,,,,2025-08-07,1,,,,,ソソルペット,0
1081,5020001164250,新規,0,2025-08-07,2025-08-07,ＴＴマネジメント株式会社,,株式会社,神奈川県,横浜市青葉区,美しが丘西３丁目４４番地３６,,14,117,2250001,,,,,,,2025-08-07,1,,,,,ティーティーマネジメント,0
1085,5020003029006,新規,0,2025-08-07,2025-08-07,合同会社ライジンリンク,,合同会社,神奈川県,横浜市旭区,川井本町９９番地２エンゼルハイム鶴ケ峰第２－２０２号,,14,112,2410803,,,,,,,2025-08-07,1,,,,,ライジンリンク,0
1086,5020003029113,新規,0,2025-08-07,2025-08-07,合同会社Ｒｅｉ,,合同会社,神奈川県,横浜市緑区,霧が丘３丁目１３－２３,,14,113,2260016,,,,,,,2025-08-07,1,,,,,レイ,0
1087,5020003029121,新規,0,2025-08-07,2025-08-07,合同会社秋葉原総合藝術研究所,,合同会社,神奈川県,横浜市港北区,下田町１丁目１６番１９号,,14,109,2230064,,,,,,,2025-08-07,1,,,,,アキハバラソウゴウゲイジュツケンキュウショ,0
1093,5030001167896,新規,0,2025-08-07,2025-08-07,株式会社Ｉｍｕａ,,株式会社,埼玉県,越谷市,大間野町４丁目１５番１号,,11,222,3430844,,,,,,,2025-08-07,1,,,,,イムア,0
1094,5030001167954,新規,0,2025-08-07,2025-08-07,モンドーレ株式会社,,株式会社,埼玉県,所沢市,松葉町１７番１号鈴木ビル４Ｆ,,11,208,3590044,,,,,,,2025-08-07,1,,,,,モンドーレ,0
1095,5030001167970,新規,0,2025-08-07,2025-08-07,株式会社ＲＩＸ内装,,株式会社,埼玉県,川口市,八幡木２丁目１番地の３５,,11,203,3340012,,,,,,,2025-08-07,1,,,,,リックスナイソウ,0
1096,5030001167979,新規,0,2025-08-07,2025-08-07,株式会社ＤＸエクスプレス,,株式会社,埼玉県,草加市,谷塚町１２４３番地５アヴェイル早坂２０１号,,11,221,3400023,,,,,,,2025-08-07,1,,,,,ディーエックスエクスプレス,0
1097,5030001168102,新規,0,2025-08-07,2025-08-07,常泉株式会社,,株式会社,埼玉県,所沢市,大字久米３８２－１０,,11,208,3591131,,,,,,,2025-08-07,1,,,,,ジョウセン,0
1105,5030003027330,新規,0,2025-08-07,2025-08-07,合同会社ＱＵＯＫＫＡ,,合同会社,埼玉県,さいたま市大宮区,桜木町２丁目６番地１３水島ビル中２階,,11,103,3300854,,,,,,,2025-08-07,1,,,,,クオッカ,0
1106,5030005022230,新規,0,2025-08-07,2025-08-07,社会福祉法人織の音,,その他の設立登記法人,埼玉県,さいたま市西区,大字二ツ宮８３番,,11,101,3310065,,,,,,,2025-08-07,1,,,,,オリノネ,0
1107,5040001139977,新規,0,2025-08-07,2025-08-07,戸澤建設株式会社,,株式会社,千葉県,市川市,原木１丁目１９－１２,,12,203,2720004,,,,,,,2025-08-07,1,,,,,トザワケンセツ,0
1115,5050001057063,新規,0,2025-08-07,2025-08-07,ＷＩＴＨＤＯＭ　Ｉｂａｒａｋｉ株式会社,,株式会社,茨城県,水戸市,双葉台４丁目５６２番地の２１,,08,201,3114145,,,,,,,2025-08-07,1,,,,,ウィズダムイバラキ,0
1125,5060003005671,新規,0,2025-08-07,2025-08-07,合同会社芳洋,,合同会社,栃木県,栃木市,大平町下皆川２００８番地４,,09,203,3294406,,,,,,,2025-08-07,1,,,,,ホウヨウ,0
1128,5080101025710,新規,0,2025-08-07,2025-08-07,株式会社Ａｏｎｏｖａ,,株式会社,静岡県,駿東郡小山町,桑木６８１番地の３,,22,344,4101315,,,,,,,2025-08-07,1,,,,,アオノヴァ,0
1129,5080103003391,新規,0,2025-08-07,2025-08-07,合同会社タスクリンク,,合同会社,静岡県,駿東郡清水町,伏見２６４番地の１フレグランスヨシカワ１０２,,22,341,4110907,,,,,,,2025-08-07,1,,,,,,0
1148,5120001278511,新規,0,2025-08-07,2025-08-07,三和国際株式会社,,株式会社,大阪府,大阪市住之江区,新北島１丁目４－１５－２１３号室,,27,125,5590024,,,,,,,2025-08-07,1,,,,,サンワコクサイ,0
1149,5120001278602,新規,0,2025-08-07,2025-08-07,石本住建株式会社,,株式会社,大阪府,大阪市中央区,今橋１丁目７－１４堺筋北浜宗田ビル４Ｆ,,27,128,5410042,,,,,,,2025-08-07,1,,,,,イシモトジュウケン,0
1150,5120001278684,新規,0,2025-08-07,2025-08-07,株式会社ＴＴ技建,,株式会社,大阪府,大阪市中央区,谷町４丁目４番１７－２００３号,,27,128,5400012,,,,,,,2025-08-07,1,,,,,ティティギケン,0
1152,5120005025075,新規,0,2025-08-07,2025-08-07,ＮＰＯ法人ｒｅ’ＳＰＥＣ,,その他の設立登記法人,大阪府,大阪市住吉区,万代６丁目４番３０号,,27,120,5580055,,,,,,,2025-08-07,1,,,,,リスピーク,0
1153,5120005025100,新規,0,2025-08-07,2025-08-07,一般社団法人ＹＡＤＯＫＡＲＩ,,その他の設立登記法人,大阪府,大阪市西成区,玉出東１丁目１１番５号１Ｆ,,27,122,5570043,,,,,,,2025-08-07,1,,,,,ヤドカリ,0
1156,5122003003269,新規,0,2025-08-07,2025-08-07,合同会社ＩＱＲＩＳ,,合同会社,大阪府,東大阪市,新庄東２番３号,,27,227,5780951,,,,,,,2025-08-07,1,,,,,イコライズ,0
1159,5130001080098,新規,0,2025-08-07,2025-08-07,株式会社彦庄,,株式会社,京都府,久世郡久御山町,東一口１１０番地５,,26,322,6130021,,,,,,,2025-08-07,1,,,,,ヒコショウ,0
1171,5140001139538,新規,0,2025-08-07,2025-08-07,株式会社日興サービス,,株式会社,兵庫県,尼崎市,南武庫之荘２丁目２２－１－３０５,,28,202,6610033,,,,,,,2025-08-07,1,,,,,ニッコウサービス,0
1172,5140001139554,新規,0,2025-08-07,2025-08-07,株式会社ＲＡ　ＧＲＯＵＰ,,株式会社,兵庫県,高砂市,米田町米田４８０番地の３メゾン・アンフィーニ１０３号室,,28,216,6760805,,,,,,,2025-08-07,1,,,,,アールエーグループ,0
1173,5140001139562,新規,0,2025-08-07,2025-08-07,ＮＣカワニシ株式会社,,株式会社,兵庫県,姫路市,上野田六丁目１００番地２,,28,201,6700000,,,,,,,2025-08-07,1,,,,,エヌシーカワニシ,0
1174,5140001139579,新規,0,2025-08-07,2025-08-07,株式会社Ｔｉｇｅｒ,,株式会社,兵庫県,神戸市灘区,桜口町４丁目４番４－１１０２号,,28,102,6570036,,,,,,,2025-08-07,1,,,,,タイガー,0
1175,5140003022394,新規,0,2025-08-07,2025-08-07,合同会社朔,,合同会社,兵庫県,加古川市,加古川町備後３７２番地の６,,28,210,6750032,,,,,,,2025-08-07,1,,,,,サク,0
1176,5140003022403,新規,0,2025-08-07,2025-08-07,合同会社ＬＩＲＡ,,合同会社,兵庫県,神戸市須磨区,戸政町２丁目２番１５－３号,,28,107,6540034,,,,,,,2025-08-07,1,,,,,リラ,0
1179,5160001026965,新規,0,2025-08-07,2025-08-07,株式会社寿,,株式会社,滋賀県,大津市,伊香立下在地町１１２３番地,,25,201,5200352,,,,,,,2025-08-07,1,,,,,コトブキ,0
1200,5240001065344,新規,0,2025-08-07,2025-08-07,ＭＯＦＦマテリアルズ株式会社,,株式会社,広島県,広島市安佐南区,長束３丁目４５番３号,,34,105,7310135,,,,,,,2025-08-07,1,,,,,エムオーエフエフマテリアルズ,0
1206,5280001009487,新規,0,2025-08-07,2025-08-07,株式会社ＹＯＲＩＳＨＩＲＯ,,株式会社,島根県,仁多郡奥出雲町,三成７０９番地３,,32,343,6991511,,,,,,,2025-08-07,1,,,,,ヨリシロ,0
1212,5290001111036,新規,0,2025-08-07,2025-08-07,株式会社糸島農販,,株式会社,福岡県,糸島市,岩本１丁目１９４番地,,40,230,8191126,,,,,,,2025-08-07,1,,,,,イトシマノウハン,0
1213,5290003017248,新規,0,2025-08-07,2025-08-07,一途一心合同会社,,合同会社,福岡県,福岡市中央区,天神４丁目７―１１クレアビル４階,,40,133,8100001,,,,,,,2025-08-07,1,,,,,イチズイッシン,0
1219,5310001019739,新規,0,2025-08-07,2025-08-07,株式会社ｓｕｍｉ　ｈａｉｒ　ｄｅｓｉｇｎ,,株式会社,長崎県,長崎市,油屋町２番９号,,42,201,8500832,,,,,,,2025-08-07,1,,,,,スミヘアーデザイン,0
1222,5330001033465,新規,0,2025-08-07,2025-08-07,株式会社ｒｏｒｏ,,株式会社,熊本県,熊本市中央区,上通町９番１６号,,43,101,8600845,,,,,,,2025-08-07,1,,,,,ロロ,0
1223,5330001033473,新規,0,2025-08-07,2025-08-07,株式会社ヒサスエ,,株式会社,熊本県,熊本市南区,城南町碇４６０番地７,,43,104,8614205,,,,,,,2025-08-07,1,,,,,ヒサスエ,0
1226,5340003004918,新規,0,2025-08-07,2025-08-07,合同会社ＫＵＤ,,合同会社,鹿児島県,鹿児島市,紫原６丁目４番１号桜七番館２Ａ,,46,201,8900082,,,,,,,2025-08-07,1,,,,,ケイユーディー,0
1229,5360003015153,新規,0,2025-08-07,2025-08-07,合同会社アロハ興産,,合同会社,沖縄県,豊見城市,字保栄茂５１番地,,47,212,9010214,,,,,,,2025-08-07,1,,,,,アロハコウサン,0
1240,5420001019224,新規,0,2025-08-07,2025-08-07,株式会社のざわりんごえん,,株式会社,青森県,青森市,浪岡大字女鹿沢字西増田４７番地,,02,201,0381331,,,,,,,2025-08-07,1,,,,,ノザワリンゴエン,0
1243,5430001094919,新規,0,2025-08-07,2025-08-07,株式会社ハチマキ,,株式会社,北海道,札幌市西区,発寒十一条５丁目１番１２－４０１号,,01,107,0630831,,,,,,,2025-08-07,1,,,,,ハチマキ,0
1245,5430003017935,新規,0,2025-08-07,2025-08-07,Ｓ‐ＬＩＦＥ合同会社,,合同会社,北海道,札幌市中央区,双子山１丁目３番１号,,01,101,0640946,,,,,,,2025-08-07,1,,,,,エスライフ,0
1246,5430003017992,新規,0,2025-08-07,2025-08-07,合同会社ホリエ,,合同会社,北海道,札幌市北区,あいの里二条５丁目７番１３号,,01,102,0028072,,,,,,,2025-08-07,1,,,,,ホリエ,0
1247,5450003002704,新規,0,2025-08-07,2025-08-07,合同会社メモリアルサービス,,合同会社,北海道,天塩郡遠別町,字本町３丁目８２番地１２,,01,486,0983543,,,,,,,2025-08-07,1,,,,,,0
1251,5470001020838,新規,0,2025-08-07,2025-08-07,株式会社メイコレクション,,株式会社,香川県,香川郡直島町,４７８６番地１,,37,364,7613110,,,,,,,2025-08-07,1,,,,,メイコレクション,0
1252,5480003002305,新規,0,2025-08-07,2025-08-07,合同会社福永板金,,合同会社,徳島県,那賀郡那賀町,朴野字大下１１番地１,,36,368,7715412,,,,,,,2025-08-07,1,,,,,フクナガバンキン,0
1255,5490001011133,新規,0,2025-08-07,2025-08-07,ＳＥ株式会社,,株式会社,高知県,高知市,江陽町１０番１６号,,39,201,7800055,,,,,,,2025-08-07,1,,,,,エスイー,0
1266,6010003048294,新規,0,2025-08-07,2025-08-07,合同会社礼栄１,,合同会社,東京都,中央区,日本橋２丁目１０番４号,,13,102,1030027,,,,,,,2025-08-07,1,,,,,レイエイワン,0
1267,6010003048303,新規,0,2025-08-07,2025-08-07,埼玉県七本木バッテリーＪＳＤ２４００３合同会社,,合同会社,東京都,千代田区,飯田橋４丁目５番１６号メトロシティ飯田橋５階,,13,101,1020072,,,,,,,2025-08-07,1,,,,,サイタマケンシチホンギバッテリージェイエスディーニーヨンゼロゼロサン,0
1277,6010401192223,新規,0,2025-08-07,2025-08-07,株式会社ＲＡＩＮＢＯＷ　ＢＲＩＤＧＥ,,株式会社,東京都,港区,芝浦４丁目４－１５－１・９０５,,13,103,1080023,,,,,,,2025-08-07,1,,,,,レインボーブリッジ,0
1278,6010401192280,新規,0,2025-08-07,2025-08-07,株式会社ｈａｒｍｏｎｉｃ　ｔａｂｌｅ,,株式会社,東京都,港区,南青山３丁目１４番２８号１階,,13,103,1070062,,,,,,,2025-08-07,1,,,,,ハーモニックテーブル,0
1279,6010401192289,新規,0,2025-08-07,2025-08-07,ＡＧＥ株式会社,,株式会社,東京都,港区,芝浦２丁目１７－１３保坂興産ビル３Ｆ－Ｃ,,13,103,1080023,,,,,,,2025-08-07,1,,,,,エイジ,0
1280,6010401192297,新規,0,2025-08-07,2025-08-07,株式会社ｈｉｂｉ,,株式会社,東京都,港区,芝４丁目１８番３号・ＪＴＭ－２６・７２号室,,13,103,1080014,,,,,,,2025-08-07,1,,,,,ヒビ,0
1281,6010401192330,新規,0,2025-08-07,2025-08-07,株式会社オーラムコーポレーション,,株式会社,東京都,港区,白金台２丁目２３番６号,,13,103,1080071,,,,,,,2025-08-07,1,,,,,オーラムコーポレーション,0
1282,6010401192396,新規,0,2025-08-07,2025-08-07,株式会社かわの義博,,株式会社,東京都,港区,南青山３丁目１番３６号青山丸竹ビル６Ｆ,,13,103,1070062,,,,,,,2025-08-07,1,,,,,カワノヨシヒロ,0
1285,6010403035719,新規,0,2025-08-07,2025-08-07,アポッドプライムホールディングス合同会社,,合同会社,東京都,港区,南青山２丁目２番１５号ウイン青山９４２号,,13,103,1070062,,,,,,,2025-08-07,1,,,,,アポッドプライムホールディングス,0
1286,6010403035776,新規,0,2025-08-07,2025-08-07,セリエタ合同会社,,合同会社,東京都,港区,西麻布３丁目１３番２０号,,13,103,1060031,,,,,,,2025-08-07,1,,,,,セリエタ,0
1287,6010501054488,新規,0,2025-08-07,2025-08-07,金奎株式会社,,株式会社,東京都,台東区,蔵前４丁目１６－６ストーク蔵前Ｍ＆Ｋ４階４１５,,13,106,1110051,,,,,,,2025-08-07,1,,,,,キンケイ,0
1288,6010501054505,新規,0,2025-08-07,2025-08-07,守素株式会社,,株式会社,東京都,台東区,堤一丁目３９番５号,,13,106,1100000,,,,,,,2025-08-07,1,,,,,シュソ,0
1292,6010601067753,新規,0,2025-08-07,2025-08-07,株式会社ＤＰＣ　Ｄｅｓｉｇｎ　Ｌａｂ．,,株式会社,東京都,墨田区,千歳３丁目５番１１－６０３号ＨＷ．ＨＩＬＬＳ森下,,13,107,1300025,,,,,,,2025-08-07,1,,,,,ディーピーシーデザインラボ,0
1297,6010701048125,新規,0,2025-08-07,2025-08-07,ＮＮプロパティーズ株式会社,,株式会社,東京都,品川区,西五反田７丁目１３番５号ＤＫ五反田４Ｆ４２５号,,13,109,1410031,,,,,,,2025-08-07,1,,,,,エヌエヌプロパティーズ,0
1298,6010703007855,新規,0,2025-08-07,2025-08-07,Ａ＆Ｃｏｍｐａｎｙ合同会社,,合同会社,東京都,品川区,東五反田２丁目１０番１号,,13,109,1410022,,,,,,,2025-08-07,1,,,,,エーアンドカンパニー,0
1301,6011001170957,新規,0,2025-08-07,2025-08-07,株式会社おむすび,,株式会社,東京都,渋谷区,恵比寿南２丁目２０－１５,,13,113,1500022,,,,,,,2025-08-07,1,,,,,オムスビ,0
1302,6011001171443,新規,0,2025-08-07,2025-08-07,華昊文化科技株式会社,,株式会社,東京都,渋谷区,本町６丁目２５番８号豊マンション２０２号室,,13,113,1510071,,,,,,,2025-08-07,1,,,,,カコウブンカカギ,0
1305,6011105011545,新規,0,2025-08-07,2025-08-07,一般社団法人都市再生推進機構,,その他の設立登記法人,東京都,新宿区,高田馬場１丁目２８番１０号,,13,104,1690075,,,,,,,2025-08-07,1,,,,,トシサイセイスイシンキコウ,0
1306,6011301030778,新規,0,2025-08-07,2025-08-07,品栗株式会社,,株式会社,東京都,杉並区,高円寺南２丁目４９番２－Ｂ１０６号,,13,115,1660003,,,,,,,2025-08-07,1,,,,,シナクリ,0
1307,6011301030786,新規,0,2025-08-07,2025-08-07,玖金開発株式会社,,株式会社,東京都,杉並区,下井草２丁目２９番６号,,13,115,1670022,,,,,,,2025-08-07,1,,,,,クッキンカイハツ,0
1308,6011303005662,新規,0,2025-08-07,2025-08-07,ＬＧＳＳ　ＴＲＡＤＩＮＧ合同会社,,合同会社,東京都,杉並区,阿佐谷北１丁目１０番８－１０３号,,13,115,1660001,,,,,,,2025-08-07,1,,,,,エルジーエスエストレーディング,0
1310,6011501032418,新規,0,2025-08-07,2025-08-07,ＪＤＫトレーディング株式会社,,株式会社,東京都,荒川区,東日暮里５丁目４２番８号,,13,118,1160014,,,,,,,2025-08-07,1,,,,,ジェイディケイトレーディング,0
1312,6011601028877,新規,0,2025-08-07,2025-08-07,東津株式会社,,株式会社,東京都,練馬区,関町北５丁目１３番２５－Ｂ１－Ｂ,,13,120,1770051,,,,,,,2025-08-07,1,,,,,,0
1317,6011701028595,新規,0,2025-08-07,2025-08-07,未来ノバテック株式会社,,株式会社,東京都,江戸川区,西小岩１丁目１３－２１浩三ビルＩ－４０３,00140195,13,123,1330057,,,,,,,2025-08-07,1,,,,,ミライノバテック,0
1318,6011701028604,新規,0,2025-08-07,2025-08-07,響品牌株式会社,,株式会社,東京都,江戸川区,西小岩５丁目１３番１３小出マンション１２３号室,,13,123,1330057,,,,,,,2025-08-07,1,,,,,ヒビキヒンハイ,0
1319,6011703004339,新規,0,2025-08-07,2025-08-07,プレパラシオン合同会社,,合同会社,東京都,江戸川区,松島３丁目４番４号－１Ｆ,,13,123,1320031,,,,,,,2025-08-07,1,,,,,プレパラシオン,0
1326,6012403007276,新規,0,2025-08-07,2025-08-07,合同会社Ｏｎｅ　Ｈｕｎｄｒｅｄ　Ｆｏｕｒ,,合同会社,東京都,調布市,仙川町１丁目２３番地３０,,13,208,1820002,,,,,,,2025-08-07,1,,,,,ワンハンドレッドフォー,0
1328,6012405005138,新規,0,2025-08-07,2025-08-07,一般社団法人ＣＲＥＡＰＳ‐ＤＥＳＩＧＮ,,その他の設立登記法人,東京都,武蔵野市,吉祥寺本町１丁目２０番１号吉祥寺永谷シティプラザ１００２,,13,203,1800004,,,,,,,2025-08-07,1,,,,,クレアプスデザイン,0
1331,6013301054716,新規,0,2025-08-07,2025-08-07,株式会社ハッピーブルーム,,株式会社,東京都,豊島区,南池袋２丁目８番１７号第一豊南ビル４０３,,13,116,1710022,,,,,,,2025-08-07,1,,,,,ハッピーブルーム,0
1332,6013303007795,新規,0,2025-08-07,2025-08-07,Ｆｉｋａ　Ｌｉｆｅ合同会社,,合同会社,東京都,豊島区,東池袋２丁目６２番８号ＢＩＧオフィスプラザ池袋１２０６,,13,116,1700013,,,,,,,2025-08-07,1,,,,,フィーカライフ,0
1341,6020003029087,新規,0,2025-08-07,2025-08-07,合同会社ＴＣＫトラストワークス,,合同会社,神奈川県,横浜市磯子区,森６丁目１６－３－１０６,,14,107,2350023,,,,,,,2025-08-07,1,,,,,ティーシーケイトラストワークス,0
1343,6021003016389,新規,0,2025-08-07,2025-08-07,合同会社Ｙ’ｓ,,合同会社,神奈川県,厚木市,山際９２４番地１サンレジデンス１０１,,14,212,2430803,,,,,,,2025-08-07,1,,,,,ワイズ,0
1351,6030001168010,新規,0,2025-08-07,2025-08-07,株式会社ＭＧＮ,,株式会社,埼玉県,熊谷市,上川上１０７５番地３,,11,202,3600004,,,,,,,2025-08-07,1,,,,,エムジーエヌ,0
1353,6030003027346,新規,0,2025-08-07,2025-08-07,合同会社宏洋,,合同会社,埼玉県,戸田市,喜沢南２丁目６番１０号,,11,224,3350014,,,,,,,2025-08-07,1,,,,,コウヨウ,0
1363,6050001057038,新規,0,2025-08-07,2025-08-07,株式会社Ｒａｐｉｓ,,株式会社,茨城県,稲敷郡阿見町,大字塙２９３番地１,,08,443,3000321,,,,,,,2025-08-07,1,,,,,ラピス,0
1364,6060001038466,新規,0,2025-08-07,2025-08-07,株式会社ジオン,,株式会社,栃木県,大田原市,蜂巣３９２番地,,09,210,3240244,,,,,,,2025-08-07,1,,,,,ジオン,0
1369,6070001043226,新規,0,2025-08-07,2025-08-07,凛として株式会社,,株式会社,群馬県,前橋市,上泉町１９８番地,,10,201,3710007,,,,,,,2025-08-07,1,,,,,リントシテ,0
1374,6080403005327,新規,0,2025-08-07,2025-08-07,Ｆ‐ＷＡＶＥ合同会社,,合同会社,静岡県,御前崎市,白羽６６２１番地の１０７０,,22,223,4371622,,,,,,,2025-08-07,1,,,,,,0
1381,6100001038858,新規,0,2025-08-07,2025-08-07,株式会社まち・カラ,,株式会社,長野県,下伊那郡下條村,陽皐２８４９番地１,,20,411,3992102,,,,,,,2025-08-07,1,,,,,マチカラ,0
1392,6120001278502,新規,0,2025-08-07,2025-08-07,飛陽株式会社,,株式会社,大阪府,大阪市西区,立売堀４丁目３番１６号５０４室,,27,106,5500012,,,,,,,2025-08-07,1,,,,,ヒヨウ,0
1393,6120001278543,新規,0,2025-08-07,2025-08-07,株式会社ＬＹＮＣＴＯＲ,,株式会社,大阪府,交野市,私市２丁目２７番１１号,,27,230,5760033,,,,,,,2025-08-07,1,,,,,リンクター,0
1394,6120001278551,新規,0,2025-08-07,2025-08-07,エヌ・ケーＪＡＩＣソーシャルアセットマネジメント株式会社,,株式会社,大阪府,大阪市東住吉区,中野３丁目１番１３号,,27,121,5460012,,,,,,,2025-08-07,1,,,,,エヌケージャイクソーシャルアセットマネジメント,0
1395,6120001278568,新規,0,2025-08-07,2025-08-07,株式会社オドリコ,,株式会社,大阪府,大阪市北区,鶴野町４－１１朝日プラザ梅田２Ｆ,,27,127,5300014,,,,,,,2025-08-07,1,,,,,オドリコ,0
1396,6120001278576,新規,0,2025-08-07,2025-08-07,Ｍ’ｓデリポスフロントプロジェクト株式会社,,株式会社,大阪府,門真市,小路町７番２５号,,27,223,5710058,,,,,,,2025-08-07,1,,,,,エムズデリポスフロントプロジェクト,0
1397,6120001278601,新規,0,2025-08-07,2025-08-07,株式会社ソーマ漢方研究所,,株式会社,大阪府,大阪市東淀川区,東中島１丁目１７番５号ステュディオ新大阪２０６号室,,27,114,5330033,,,,,,,2025-08-07,1,,,,,ソーマカンポウケンキュウジョ,0
1398,6120001278642,新規,0,2025-08-07,2025-08-07,株式会社ＲＡＮＫＵＰ,,株式会社,大阪府,大阪市旭区,高殿７丁目１番２２－５０３号,,27,117,5350031,,,,,,,2025-08-07,1,,,,,ランクアップ,0
1403,6120003030183,新規,0,2025-08-07,2025-08-07,ＰａｒａＬｉｎｋ合同会社,,合同会社,大阪府,大阪市城東区,永田４丁目－３－１－１０２室,,27,118,5360022,,,,,,,2025-08-07,1,,,,,パラリンク,0
1404,6120003030200,新規,0,2025-08-07,2025-08-07,合同会社月光,,合同会社,大阪府,大阪市浪速区,大国２丁目６番２号－２０３,,27,111,5560014,,,,,,,2025-08-07,1,,,,,ゲッコウ,0
1405,6120003030209,新規,0,2025-08-07,2025-08-07,合同会社キャメル,,合同会社,大阪府,大阪市城東区,鴫野東１丁目１番１３－７０７号,,27,118,5360013,,,,,,,2025-08-07,1,,,,,キャメル,0
1406,6120003030217,新規,0,2025-08-07,2025-08-07,合同会社ＬＩＮＫ,,合同会社,大阪府,大阪市天王寺区,石ケ辻町１４番１２－３００５号,00140196,27,109,5430031,,,,,,,2025-08-07,1,,,,,リンク,0
1411,6120005025099,新規,0,2025-08-07,2025-08-07,弁理士法人渡辺国際特許事務所,,その他の設立登記法人,大阪府,大阪市北区,梅田３丁目４番５号毎日新聞ビル,,27,127,5300001,,,,,,,2025-08-07,1,,,,,ワタナベコクサイトッキョジムショ,0
1412,6120101072219,新規,0,2025-08-07,2025-08-07,株式会社Ａｍｂｅｒ,,株式会社,大阪府,和泉市,唐国町３丁目５番１７６－１号,,27,219,5941151,,,,,,,2025-08-07,1,,,,,アンバー,0
1416,6120901051207,新規,0,2025-08-07,2025-08-07,株式会社ＮＩＳＨＩＧＵＣＨＩ,,株式会社,大阪府,箕面市,如意谷２丁目７番４３号,,27,220,5620011,,,,,,,2025-08-07,1,,,,,ニシグチ,0
1419,6122001039578,新規,0,2025-08-07,2025-08-07,株式会社ワイズ,,株式会社,大阪府,東大阪市,中新開１丁目６番１５号コムプラザ中新開Ｉ－Ｇ,00140209,27,227,5780911,,,,,,,2025-08-07,1,,,,,ワイズ,0
1434,6140001139553,新規,0,2025-08-07,2025-08-07,グローバルエックス株式会社,,株式会社,兵庫県,神戸市兵庫区,中道通１丁目３番１６号,,28,105,6520801,,,,,,,2025-08-07,1,,,,,グローバルエックス,0
1435,6140001139561,新規,0,2025-08-07,2025-08-07,Ｋａｙａ　Ｂａｓｅ株式会社,,株式会社,兵庫県,神戸市北区,京地２丁目１番地の５,,28,109,6511304,,,,,,,2025-08-07,1,,,,,カヤベース,0
1436,6140001139578,新規,0,2025-08-07,2025-08-07,株式会社三陽商会,,株式会社,兵庫県,西宮市,柏堂西町１番２８号,,28,204,6620098,,,,,,,2025-08-07,1,,,,,サンヨウショウカイ,0
1437,6140001139594,新規,0,2025-08-07,2025-08-07,株式会社Ｓ‐ｌｉｖｅ９,,株式会社,兵庫県,神戸市長田区,上池田６丁目５番２８号,,28,106,6530827,,,,,,,2025-08-07,1,,,,,エスライブナイン,0
1441,6140005027589,新規,0,2025-08-07,2025-08-07,一般社団法人日本内航コンテナ船協会,,その他の設立登記法人,兵庫県,神戸市中央区,浪花町５９番地,,28,110,6500035,,,,,,,2025-08-07,1,,,,,ニッポンナイコウコンテナセンキョウカイ,0
1443,6150001028318,新規,0,2025-08-07,2025-08-07,Ｒ‐Ｄｅｓｉｇｎ株式会社,,株式会社,奈良県,香芝市,高山台３丁目２９番地１１,,29,210,6390256,,,,,,,2025-08-07,1,,,,,アールデザイン,0
1445,6160001026972,新規,0,2025-08-07,2025-08-07,株式会社Ｔ‐ＲＩＳＥ,,株式会社,滋賀県,近江八幡市,白鳥町１９番地３,,25,204,5230032,,,,,,,2025-08-07,1,,,,,ティーライズ,0
1453,6180301040093,新規,0,2025-08-07,2025-08-07,株式会社羽柴設備,,株式会社,愛知県,西尾市,寺津町三ノ割横道東１６番地９,,23,213,4440324,,,,,,,2025-08-07,1,,,,,ハシバセツビ,0
1454,6180301040110,新規,0,2025-08-07,2025-08-07,ハーモニア・グロース株式会社,,株式会社,愛知県,碧南市,白砂町５丁目１９番地７,,23,209,4470076,,,,,,,2025-08-07,1,,,,,ハーモニアグロース,0
1458,6210001020268,新規,0,2025-08-07,2025-08-07,株式会社松本商事,,株式会社,福井県,福井市,順化１丁目１４番２１号順化アルバビル１階１０２号室,,18,201,9100023,,,,,,,2025-08-07,1,,,,,マツモトショウジ,0
1460,6210003001943,新規,0,2025-08-07,2025-08-07,合同会社ＴｈｅｒａＷｅｌｌ,,合同会社,福井県,吉田郡永平寺町,飯島第１８号６８番地,,18,322,9101217,,,,,,,2025-08-07,1,,,,,セラウェル,0
1463,6220001026859,新規,0,2025-08-07,2025-08-07,網善商店株式会社,,株式会社,石川県,金沢市,笠市町１０番１０号,,17,201,9200851,,,,,,,2025-08-07,1,,,,,アミゼンショウテン,0
1465,6220003004094,新規,0,2025-08-07,2025-08-07,合同会社平岡結納舗,,合同会社,石川県,金沢市,尾山町１０番１１号,,17,201,9200918,,,,,,,2025-08-07,1,,,,,ヒラオカユイノウホ,0
1466,6230001021033,新規,0,2025-08-07,2025-08-07,株式会社Ｍ．Ｋ．Ｓ,,株式会社,富山県,射水市,中太閤山１７丁目１番地３３,,16,211,9390363,,,,,,,2025-08-07,1,,,,,エムケーエス,0
1467,6240001065335,新規,0,2025-08-07,2025-08-07,ＹＵＧＩｑｕｅ株式会社,,株式会社,広島県,広島市中区,西白島町１６番２１号,,34,101,7300005,,,,,,,2025-08-07,1,,,,,ユギーク,0
1468,6240001065343,新規,0,2025-08-07,2025-08-07,株式会社ＯＭＥ,,株式会社,広島県,尾道市,木ノ庄町木門田１４６７番地,,34,205,7220232,,,,,,,2025-08-07,1,,,,,オーエムイー,0
1470,6250001021295,新規,0,2025-08-07,2025-08-07,マネーワンストップ株式会社,,株式会社,山口県,山口市,小郡新町６丁目１番２５号２階,,35,203,7540031,,,,,,,2025-08-07,1,,,,,マネーワンストップ,0
1472,6260001040419,新規,0,2025-08-07,2025-08-07,ＫＧＣ株式会社,,株式会社,岡山県,岡山市中区,＿９８番地２（６０４号）,00140212,33,102,7038248,,,,,,,2025-08-07,1,,,,,ケージーシー,0
1477,6290001110929,新規,0,2025-08-07,2025-08-07,株式会社シネ用品ホールディングス,,株式会社,福岡県,福岡市博多区,那珂６丁目３番１１号,,40,132,8120893,,,,,,,2025-08-07,1,,,,,シネヨウヒンホールディングス,0
1478,6290001111068,新規,0,2025-08-07,2025-08-07,株式会社ブレス,,株式会社,福岡県,福岡市南区,長丘１丁目１９番２５－１号,,40,134,8150075,,,,,,,2025-08-07,1,,,,,ブレス,0
1480,6290801031770,新規,0,2025-08-07,2025-08-07,中屋不動産株式会社,,株式会社,福岡県,直方市,大字頓野１８７０番地６,,40,204,8220002,,,,,,,2025-08-07,1,,,,,ナカヤフドウサン,0
1484,6310003005059,新規,0,2025-08-07,2025-08-07,合同会社ジェイエスエム,,合同会社,長崎県,南松浦郡新上五島町,有川郷２３９９番地２,,42,411,8574211,,,,,,,2025-08-07,1,,,,,ジェイエスエム,0
1490,6330001033456,新規,0,2025-08-07,2025-08-07,城野印刷所株式会社,,株式会社,熊本県,熊本市中央区,帯山４丁目２４番１０号,,43,101,8620924,,,,,,,2025-08-07,1,,,,,ジョウノインサツショ,0
1491,6330001033464,新規,0,2025-08-07,2025-08-07,株式会社Ｓｉｎｓｅｌｌ,,株式会社,熊本県,熊本市南区,南高江１丁目３番６９号－１０２,,43,104,8614106,,,,,,,2025-08-07,1,,,,,シンセル,0
1493,6330003011162,新規,0,2025-08-07,2025-08-07,合同会社ＭＩＬ　ＳＰＥＣ,,合同会社,熊本県,熊本市北区,鶴羽田町１０４１番地７１,,43,105,8615513,,,,,,,2025-08-07,1,,,,,ミルスペック,0
1495,6330005010939,新規,0,2025-08-07,2025-08-07,フェアウェイ協同組合,,その他の設立登記法人,熊本県,熊本市東区,若葉３丁目１番３号後藤ビル１－Ａ,,43,102,8620903,,,,,,,2025-08-07,1,,,,,フェアウェイ,0
1502,6360003015144,新規,0,2025-08-07,2025-08-07,合同会社ＲＥＤ,,合同会社,沖縄県,那覇市,久米２丁目３３番２０－３０１号,,47,201,9000033,,,,,,,2025-08-07,1,,,,,レッド,0
1503,6360005007263,新規,0,2025-08-07,2025-08-07,一般社団法人Ｏｒｔｈｏｄｏｘ　Ｇｅｎｅｓｉｓ沖縄,,その他の設立登記法人,沖縄県,中頭郡北中城村,字島袋１１６０－２Ｆ,,47,327,9012301,,,,,,,2025-08-07,1,,,,,オーソドックスジェネシスオキナワ,0
1514,6430001094926,新規,0,2025-08-07,2025-08-07,株式会社くらしスマイル,,株式会社,北海道,札幌市北区,篠路町篠路３７２番地２４,,01,102,0028053,,,,,,,2025-08-07,1,,,,,クラシスマイル,0
1515,6430001094934,新規,0,2025-08-07,2025-08-07,株式会社成和ライフ,,株式会社,北海道,札幌市豊平区,平岸五条１２丁目１番１－４０７号,,01,105,0620935,,,,,,,2025-08-07,1,,,,,セイワライフ,0
1517,6430003017942,新規,0,2025-08-07,2025-08-07,アートプロモート・カク合同会社,,合同会社,北海道,札幌市豊平区,西岡五条３丁目４番７号,,01,105,0620035,,,,,,,2025-08-07,1,,,,,アートプロモートカク,0
1520,6440001009668,新規,0,2025-08-07,2025-08-07,トラスト・スター株式会社,,株式会社,北海道,函館市,神山町２４１番地６７,,01,202,0410831,,,,,,,2025-08-07,1,,,,,トラストスター,0
1521,6460001006028,新規,0,2025-08-07,2025-08-07,株式会社ＬＵＦＦ,,株式会社,北海道,釧路市,興津２丁目３６番１０号,,01,206,0850811,,,,,,,2025-08-07,1,,,,,ラフ,0
1524,6500001026459,新規,0,2025-08-07,2025-08-07,株式会社吉成テック,,株式会社,愛媛県,今治市,大正町６丁目１番６０号,,38,202,7940025,,,,,,,2025-08-07,1,,,,,キッセイテック,0
1526,6700150131691,新規,0,2025-08-07,2025-08-07,ＯＫ　ＴＥＤＩ　ＡＵＳＴＲＡＬＩＡ　ＰＴＹ　ＬＴＤ,,外国会社等,東京都,千代田区,丸の内１丁目４番１号丸の内永楽ビルディング２６階,,13,101,1000005,オーストラリア連邦４０１３クイーンズランド州ノースゲート、ナジー・ロード９３６,,,,,,2025-08-07,1,,,,,オクテデイオーストラリアピーテイーワイリミテツド,0
1533,7010001257326,新規,0,2025-08-07,2025-08-07,インテグリティ株式会社,,株式会社,東京都,中央区,晴海１丁目８番１２号晴海アイランドトリトンスクエアオフィスタワーＺ７Ｆ,,13,102,1040053,,,,,,,2025-08-07,1,,,,,インテグリティ,0
1534,7010001257433,新規,0,2025-08-07,2025-08-07,ＪＹＮ株式会社,,株式会社,東京都,中央区,湊３丁目８番１－２５０３号,,13,102,1040043,,,,,,,2025-08-07,1,,,,,ジェイワイエヌ,0
1535,7010003048260,新規,0,2025-08-07,2025-08-07,合同会社Ｋ＆Ｒ,,合同会社,東京都,中央区,銀座１丁目１２番４号Ｎ＆Ｅ・ＢＬＤ．６Ｆ,,13,102,1040061,,,,,,,2025-08-07,1,,,,,ケイアンドアール,0
1536,7010003048285,新規,0,2025-08-07,2025-08-07,須賀川蓄電所合同会社,,合同会社,東京都,中央区,銀座８丁目１３番１号,,13,102,1040061,,,,,,,2025-08-07,1,,,,,スカガワチクデンショ,0
1538,7010005040496,新規,0,2025-08-07,2025-08-07,一般社団法人日本テニスリーグ,,その他の設立登記法人,東京都,中央区,銀座１丁目１２番４号Ｎ＆ＥＢＬＤ．６Ｆ,,13,102,1040061,,,,,,,2025-08-07,1,,,,,ニッポンテニスリーグ,0
1542,7010401192288,新規,0,2025-08-07,2025-08-07,ＣｒｅｓｔＷａｖｅ株式会社,,株式会社,東京都,港区,芝浦２丁目１７－１３保坂興産ビル３Ｆ－Ｄ,,13,103,1080023,,,,,,,2025-08-07,1,,,,,クレストウェーブ,0
1543,7010401192321,新規,0,2025-08-07,2025-08-07,株式会社ＥＢＴ,,株式会社,東京都,港区,南青山４丁目１６番１１号,,13,103,1070062,,,,,,,2025-08-07,1,,,,,イービーティー,0
1544,7010401192362,新規,0,2025-08-07,2025-08-07,Ｎ．Ｉｎｎｏｖａｔｉｏｎ　Ｐａｒｔｎｅｒｓ株式会社,,株式会社,東京都,港区,元赤坂１丁目２番７号,,13,103,1070051,,,,,,,2025-08-07,1,,,,,エヌイノベーションパートナーズ,0
1548,7010501054495,新規,0,2025-08-07,2025-08-07,景江地所株式会社,,株式会社,東京都,台東区,雷門２丁目１８－６－６０２,,13,106,1110034,,,,,,,2025-08-07,1,,,,,ケイコウジショ,0
1551,7010503007939,新規,0,2025-08-07,2025-08-07,Ｌｅｄｇｅｒ　Ｂｒｉｄｇｅ　Ｊａｐａｎ合同会社,,合同会社,東京都,台東区,日本堤２丁目２６番１３号,,13,106,1110021,,,,,,,2025-08-07,1,,,,,レッジャーブリッジジャパン,0
1555,7010703007854,新規,0,2025-08-07,2025-08-07,Ｓｏｃｉａｌ　Ｖａｌｕｅ　Ｄｅｓｉｇｎ合同会社,,合同会社,東京都,品川区,大崎２丁目９－１－３３０９,,13,109,1410032,,,,,,,2025-08-07,1,,,,,ソーシャルバリューデザイン,0
1562,7011001171426,新規,0,2025-08-07,2025-08-07,コネクサス株式会社,,株式会社,東京都,渋谷区,道玄坂１丁目１０番８号渋谷道玄坂東急ビル２Ｆ－Ｃ,,13,113,1500043,,,,,,,2025-08-07,1,,,,,コネクサス,0
1563,7011003022189,新規,0,2025-08-07,2025-08-07,合同会社おりさん,,合同会社,東京都,渋谷区,道玄坂１丁目１０番８号渋谷道玄坂東急ビル２Ｆ－Ｃ,,13,113,1500043,,,,,,,2025-08-07,1,,,,,オリサン,0
1567,7011301030785,新規,0,2025-08-07,2025-08-07,リッチ株式会社,,株式会社,東京都,杉並区,荻窪１丁目４９番２４号,,13,115,1670051,,,,,,,2025-08-07,1,,,,,リッチ,0
1568,7011301030793,新規,0,2025-08-07,2025-08-07,Ｙ’Ｓメンテナンス株式会社,,株式会社,東京都,杉並区,久我山２丁目２７番３号,,13,115,1680082,,,,,,,2025-08-07,1,,,,,ワイズメンテナンス,0
1569,7011501032409,新規,0,2025-08-07,2025-08-07,栄和製薬株式会社,,株式会社,東京都,荒川区,南千住３丁目２７－２浅草ビル５０８,,13,118,1160003,,,,,,,2025-08-07,1,,,,,エイワセイヤク,0
1570,7011501032417,新規,0,2025-08-07,2025-08-07,株式会社リリーブ,,株式会社,東京都,北区,東十条１丁目２０番５号Ｂ１,,13,117,1140001,,,,,,,2025-08-07,1,,,,,リリーブ,0
1572,7011503006633,新規,0,2025-08-07,2025-08-07,栄和合同会社,,合同会社,東京都,北区,赤羽１丁目５２－４グリーンマンション２０１号室,,13,117,1150045,,,,,,,2025-08-07,1,,,,,エイワ,0
1574,7011601028876,新規,0,2025-08-07,2025-08-07,株式会社Ｂ‐Ｄｒｅａｍ,,株式会社,東京都,練馬区,春日町６丁目１６番７号テクノハイツ１階,,13,120,1790074,,,,,,,2025-08-07,1,,,,,ビードリーム,0
1578,7011703004338,新規,0,2025-08-07,2025-08-07,Ａ．Ｒ．Ｒ　Ｃｏｒｐｏｒａｔｉｏｎ合同会社,,合同会社,東京都,江戸川区,東葛西１丁目９－９,,13,123,1340084,,,,,,,2025-08-07,1,,,,,エアールアールコーポレーション,0
1581,7012801024145,新規,0,2025-08-07,2025-08-07,株式会社ＫＵＲ　ＫＵＲ,,株式会社,東京都,立川市,砂川町２丁目３５番地の１２,,13,202,1900031,,,,,,,2025-08-07,1,,,,,クルクル,0
1582,7012801024153,新規,0,2025-08-07,2025-08-07,ウミダス株式会社,,株式会社,東京都,立川市,錦町２丁目２番２号下田ビル３０２号室,,13,202,1900022,,,,,,,2025-08-07,1,,,,,ウミダス,0
1584,7013303007786,新規,0,2025-08-07,2025-08-07,合同会社Ｌｉｇｈｔ,,合同会社,東京都,豊島区,池袋２丁目４４番５号ＳＡビル３階,,13,116,1710014,,,,,,,2025-08-07,1,,,,,ライト,0
1589,7020001164182,新規,0,2025-08-07,2025-08-07,風遊心株式会社,,株式会社,神奈川県,川崎市麻生区,上麻生７丁目１４番１号,,14,137,2150021,,,,,,,2025-08-07,1,,,,,フウユウシン,0
1590,7020001164323,新規,0,2025-08-07,2025-08-07,ＳＹＴマネージメント株式会社,,株式会社,神奈川県,横浜市中区,尾上町４丁目５７番地横浜尾上町ビルディング８Ｆ,,14,104,2310015,,,,,,,2025-08-07,1,,,,,エスワイティーマネージメント,0
1593,7021001085988,新規,0,2025-08-07,2025-08-07,ユーミ株式会社,,株式会社,神奈川県,茅ヶ崎市,芹沢４１３３番地１,,14,207,2530008,,,,,,,2025-08-07,1,,,,,ユーミ,0
1600,7030001167952,新規,0,2025-08-07,2025-08-07,株式会社フロンティア,,株式会社,埼玉県,吉川市,木売１丁目９番地１２,,11,243,3420045,,,,,,,2025-08-07,1,,,,,フロンティア,0
1601,7030001167969,新規,0,2025-08-07,2025-08-07,株式会社シーイーエス,,株式会社,埼玉県,所沢市,大字山口７３２番地の４２,,11,208,3591145,,,,,,,2025-08-07,1,,,,,シーイーエス,0
1602,7030001167977,新規,0,2025-08-07,2025-08-07,株式会社オネスト,,株式会社,埼玉県,さいたま市見沼区,大字片柳１１５９番地５,,11,104,3370024,,,,,,,2025-08-07,1,,,,,オネスト,0
1604,7030003027361,新規,0,2025-08-07,2025-08-07,合同会社創活工房,,合同会社,埼玉県,さいたま市浦和区,常盤１丁目６番１３号,,11,107,3300061,,,,,,,2025-08-07,1,,,,,ソウカツコウボウ,0
1613,7040003028169,新規,0,2025-08-07,2025-08-07,ＯＲＧＥＮＥ合同会社,,合同会社,千葉県,浦安市,高洲３丁目１８－３,,12,227,2790023,,,,,,,2025-08-07,1,,,,,オルジーン,0
1619,7070001043233,新規,0,2025-08-07,2025-08-07,株式会社ＲＥＩ,,株式会社,群馬県,北群馬郡吉岡町,大字北下１１９４番地５,,10,345,3703605,,,,,,,2025-08-07,1,,,,,レイ,0
1621,7070003006031,新規,0,2025-08-07,2025-08-07,Ｍｉｎａｋａｍｉ　Ｈａｒｖｅｓｔ合同会社,,合同会社,群馬県,利根郡みなかみ町,石倉１９５番地１セーフティーヴィラ５１１号,,10,449,3791311,,,,,,,2025-08-07,1,,,,,ミナカミハーベスト,0
1623,7080101004209,新規,0,2025-08-07,2025-08-07,株式会社日鉄建設,,株式会社,静岡県,御殿場市,大坂９９番地,,22,215,4120034,,,,,,,2025-08-07,1,,,,,ニッテツケンセツ,0
1625,7080101025683,新規,0,2025-08-07,2025-08-07,三大ハウス株式会社,,株式会社,静岡県,富士宮市,阿幸地町４１０番地,,22,207,4180078,,,,,,,2025-08-07,1,,,,,サンダイハウス,0
1628,7080401028064,新規,0,2025-08-07,2025-08-07,ＢＥＡＲＳ株式会社,,株式会社,静岡県,浜松市中央区,雄踏２丁目２２番１９号,,22,138,4310103,,,,,,,2025-08-07,1,,,,,ベアーズ,0
1629,7080401028089,新規,0,2025-08-07,2025-08-07,株式会社美徳,,株式会社,静岡県,磐田市,匂坂上４８番地,,22,211,4380005,,,,,,,2025-08-07,1,,,,,ビトク,0
1646,7120001278451,新規,0,2025-08-07,2025-08-07,楽市株式会社,,株式会社,大阪府,大阪市西成区,岸里２丁目２－４－１０６,,27,122,5570041,,,,,,,2025-08-07,1,,,,,ラクイチ,0
1647,7120001278501,新規,0,2025-08-07,2025-08-07,ＳＡＷＡＲＩＮＮＡ株式会社,,株式会社,大阪府,大阪市西成区,聖天下１丁目４番２９号２０２室,,27,122,5570012,,,,,,,2025-08-07,1,,,,,サワリンナ,0
1648,7120001278583,新規,0,2025-08-07,2025-08-07,株式会社ブラウベルグ,,株式会社,大阪府,枚方市,小倉東町３４番５号,,27,210,5731174,,,,,,,2025-08-07,1,,,,,ブラウベルグ,0
1652,7120005025098,新規,0,2025-08-07,2025-08-07,一般社団法人ファースト,,その他の設立登記法人,大阪府,大阪市中央区,瓦町３丁目２番１６号瓦町ビル６２号室,,27,128,5410048,,,,,,,2025-08-07,1,,,,,ファースト,0
1653,7120101072218,新規,0,2025-08-07,2025-08-07,株式会社毛戸工業,,株式会社,大阪府,堺市中区,福田６８３番地２,,27,142,5998241,,,,,,,2025-08-07,1,,,,,ケドコウギョウ,0
1654,7120101072242,新規,0,2025-08-07,2025-08-07,株式会社ｔａｕ．ｊｐ,,株式会社,大阪府,堺市堺区,西湊町６丁７番２５－３,,27,141,5900835,,,,,,,2025-08-07,1,,,,,タウドットジェイピイ,0
1659,7130001080220,新規,0,2025-08-07,2025-08-07,株式会社Ａｕ‐ｄｅｎ,,株式会社,京都府,宇治市,木幡御蔵山３９－１３１７,,26,204,6110002,,,,,,,2025-08-07,1,,,,,オーデン,0
1660,7130001080303,新規,0,2025-08-07,2025-08-07,株式会社美ホールディングス,,株式会社,京都府,長岡京市,長岡１丁目３４番２５号,,26,209,6170823,,,,,,,2025-08-07,1,,,,,ビホールディングス,0
1661,7130003010654,新規,0,2025-08-07,2025-08-07,合同会社ネリズム,,合同会社,京都府,京都市上京区,泰童片原町６４４番地ラナップスクエア京都西陣７０５,,26,102,6028455,,,,,,,2025-08-07,1,,,,,ネリズム,0
1662,7130005017417,新規,0,2025-08-07,2025-08-07,特定非営利活動法人世界哲学会議推進会,,その他の設立登記法人,京都府,京都市上京区,寺町通今出川上る上塔之段町４７２番地メゾンドファミーユ１Ｆ,,26,102,6020815,,,,,,,2025-08-07,1,,,,,セカイテツガクカイギスイシンカイ,0
1671,7140001139544,新規,0,2025-08-07,2025-08-07,株式会社ミスターフォトグラフ,,株式会社,兵庫県,神戸市須磨区,行幸町２丁目２番１４－１号,,28,107,6540052,,,,,,,2025-08-07,1,,,,,ミスターフォトグラフ,0
1672,7140001139569,新規,0,2025-08-07,2025-08-07,博創株式会社,,株式会社,兵庫県,川西市,一庫字区田３番地９,,28,217,6660153,,,,,,,2025-08-07,1,,,,,ハクソウ,0
1673,7140001139577,新規,0,2025-08-07,2025-08-07,株式会社ｒｙｏｊｉ,,株式会社,兵庫県,川西市,錦松台４番３２－５７号,,28,217,6660135,,,,,,,2025-08-07,1,,,,,リョウジ,0
1674,7140001139585,新規,0,2025-08-07,2025-08-07,株式会社翔栄,,株式会社,兵庫県,川西市,小花１丁目４番１２号,,28,217,6660015,,,,,,,2025-08-07,1,,,,,ショウエイ,0
1675,7140001139593,新規,0,2025-08-07,2025-08-07,ミク株式会社,,株式会社,兵庫県,神戸市中央区,磯上通８丁目１番２９号カサベラビルＣ＆Ｍ４０３号,,28,110,6510086,,,,,,,2025-08-07,1,,,,,ミク,0
1680,7160001026963,新規,0,2025-08-07,2025-08-07,株式会社ＤＫＡ設備工業,,株式会社,滋賀県,甲賀市,甲南町耕心４丁目１０３５番地１６３,,25,209,5203326,,,,,,,2025-08-07,1,,,,,ディーケーエーセツビコウギョウ,0
1687,7180001168052,新規,0,2025-08-07,2025-08-07,株式会社ＫＡＷＡＵＣＨＩ　ＧＲＯＵＰ,,株式会社,愛知県,豊明市,二村台７丁目３４番地３２,,23,229,4701131,,,,,,,2025-08-07,1,,,,,カワウチグループ,0
1690,7180005021166,新規,0,2025-08-07,2025-08-07,一般社団法人セルアクティブ．ラボ,,その他の設立登記法人,愛知県,長久手市,西原山１－５セントハート藤が丘１４０６号,,23,238,4801138,,,,,,,2025-08-07,1,,,,,セルアクティブドットラボ,0
1695,7190001032463,新規,0,2025-08-07,2025-08-07,株式会社ＰＵＲ設備工業,,株式会社,三重県,四日市市,大井手３丁目３番２号ピースタウン１０３,,24,202,5100835,,,,,,,2025-08-07,1,,,,,ピーユーアールセツビコウギョウ,0
1705,7200001044119,新規,0,2025-08-07,2025-08-07,みんなんち株式会社,,株式会社,岐阜県,可児市,今渡１６５９番地１,,21,214,5090207,,,,,,,2025-08-07,1,,,,,ミンナンチ,0
1706,7210003001942,新規,0,2025-08-07,2025-08-07,合同会社ゆらら堂,,合同会社,福井県,福井市,花堂南１丁目１０番３０号,,18,201,9188015,,,,,,,2025-08-07,1,,,,,ユララドウ,0
1707,7220003004093,新規,0,2025-08-07,2025-08-07,合同会社ＳＣＩＲＮＥＸ,,合同会社,石川県,金沢市,此花町５－６ライフ金沢第１ビル,,17,201,9200852,,,,,,,2025-08-07,1,,,,,スクリネクス,0
1708,7230003002476,新規,0,2025-08-07,2025-08-07,Ｍｉｍｏｒａ合同会社,,合同会社,富山県,滑川市,吾妻町４２６‐２６,,16,206,9360033,,,,,,,2025-08-07,1,,,,,ミモラ,0
1709,7240001065342,新規,0,2025-08-07,2025-08-07,株式会社ＢＲＥＥＺＥ,,株式会社,広島県,広島市南区,松原町９－１（１１階）,,34,103,7320822,,,,,,,2025-08-07,1,,,,,ブリーズ,0
1711,7250001021294,新規,0,2025-08-07,2025-08-07,チャハヤバイオマス株式会社,,株式会社,山口県,宇部市,南小羽山町１丁目１－４,,35,202,7550083,,,,,,,2025-08-07,1,,,,,チャハヤバイオマス,0
1721,7290001110928,新規,0,2025-08-07,2025-08-07,デンティスジャパン株式会社,,株式会社,福岡県,福岡市南区,長丘４丁目７番１５号アイビーコート８８－１０１号,,40,134,8150075,,,,,,,2025-08-07,1,,,,,デンティスジャパン,0
1725,7290003017254,新規,0,2025-08-07,2025-08-07,合同会社Ｋａｎａｍｅ,,合同会社,福岡県,福岡市南区,中尾１丁目８番１９号,,40,134,8111364,,,,,,,2025-08-07,1,,,,,カナメ,0
1730,7310001019729,新規,0,2025-08-07,2025-08-07,株式会社川添みかん園,,株式会社,長崎県,西海市,西海町太田和郷３８８７番地,,42,212,8513505,,,,,,,2025-08-07,1,,,,,カワゾエミカンエン,0
1732,7320001021270,新規,0,2025-08-07,2025-08-07,株式会社技研車体整備工場,,株式会社,大分県,別府市,大字北石垣字中野１１４４番地５,,44,202,8740000,,,,,,,2025-08-07,1,,,,,ギケンシャタイセイビコウジョウ,0
1733,7330001033471,新規,0,2025-08-07,2025-08-07,株式会社ＡＩｍｕｓｕｂｉ,,株式会社,熊本県,上益城郡益城町,大字木山４６５番地４,,43,443,8612242,,,,,,,2025-08-07,1,,,,,アイムスビ,0
1739,7370001052914,新規,0,2025-08-07,2025-08-07,株式会社ＹＵＮＯ,,株式会社,宮城県,仙台市青葉区,広瀬町３番２４号,,04,101,9800873,,,,,,,2025-08-07,1,,,,,ユノ,0
1740,7370001052947,新規,0,2025-08-07,2025-08-07,株式会社ＷＩＴＨＮＯＴＥ,,株式会社,宮城県,仙台市若林区,河原町１丁目４番７－５０１号,,04,103,9840816,,,,,,,2025-08-07,1,,,,,ウィズノート,0
1750,7420001019230,新規,0,2025-08-07,2025-08-07,株式会社山弥赤川商店,,株式会社,青森県,弘前市,大字種市字高瀬２番地１,,02,202,0383614,,,,,,,2025-08-07,1,,,,,ヤマヤアカガワショウテン,0
1756,7430001094958,新規,0,2025-08-07,2025-08-07,株式会社渡辺設備,,株式会社,北海道,札幌市北区,篠路五条３丁目７番８号,,01,102,0028025,,,,,,,2025-08-07,1,,,,,ワタナベセツビ,0
1757,7430001095015,新規,0,2025-08-07,2025-08-07,株式会社ＧＯＡＴ,,株式会社,北海道,札幌市中央区,北二条西２丁目３２番地第３７桂和ビル６階,,01,101,0600002,,,,,,,2025-08-07,1,,,,,ゴート,0
1759,7440001009667,新規,0,2025-08-07,2025-08-07,株式会社ＢＵＩＬＤ　ＷＯＲＫＳ,,株式会社,北海道,上磯郡知内町,字元町２４－２,,01,333,0491106,,,,,,,2025-08-07,1,,,,,ビルドワークス,0
1763,7460001006027,新規,0,2025-08-07,2025-08-07,株式会社逸心,,株式会社,北海道,釧路市,星が浦南２丁目１番２４号,,01,206,0840913,,,,,,,2025-08-07,1,,,,,イッシン,0
1765,7470005006641,新規,0,2025-08-07,2025-08-07,一般社団法人三観広域カーボンニュートラル協議会,,その他の設立登記法人,香川県,観音寺市,観音寺町甲３３７７番地の３,,37,205,7680060,,,,,,,2025-08-07,1,,,,,サンカンコウイキカーボンニュートラルキョウギカイ,0
1767,7500001026458,新規,0,2025-08-07,2025-08-07,株式会社鴻上緑化園,,株式会社,愛媛県,新居浜市,中萩町８番６号,,38,205,7920045,,,,,,,2025-08-07,1,,,,,コウガミリョッカエン,0
1768,7700150131690,新規,0,2025-08-07,2025-08-07,ＳＱＥ　Ｉｎｃｏｒｐｏｒａｔｅｄ,,外国会社等,,,,,,,,５００　Ａｎｄｏｖｅｒ　Ｐａｒｋ　Ｅ，　Ｔｕｋｗｉｌａ，　ＷＡ　９８１８８　ＵＳＡ,,,,,,2025-08-07,1,,,,,エスキューイーインコーポレイテッド,0
1772,8010001257498,新規,0,2025-08-07,2025-08-07,株式会社サリテージ,,株式会社,東京都,千代田区,神田和泉町１－６－１６ヤマトビル４０５,,13,101,1010024,,,,,,,2025-08-07,1,,,,,サリテージ,0
1773,8010001257515,新規,0,2025-08-07,2025-08-07,株式会社なつ,,株式会社,東京都,千代田区,神田佐久間町３丁目２１番地,,13,101,1010025,,,,,,,2025-08-07,1,,,,,ナツ,0
1774,8010001257589,新規,0,2025-08-07,2025-08-07,株式会社ＳＡＦＥ　ＨＡＶＮ,,株式会社,東京都,千代田区,神田須田町１丁目７番８号ＶＯＲＴ秋葉原ＩＶ２Ｆ,00140208,13,101,1010041,,,,,,,2025-08-07,1,,,,,セイフヘイブン,0
1776,8010003048251,新規,0,2025-08-07,2025-08-07,合同会社おくら,,合同会社,東京都,千代田区,神田和泉町１番地６の１６ヤマトビル４０５,,13,101,1010024,,,,,,,2025-08-07,1,,,,,オクラ,0
1778,8010005040495,新規,0,2025-08-07,2025-08-07,行政書士法人エクセレンスジャパン,,その他の設立登記法人,東京都,千代田区,外神田２丁目１３－５ＭＩＮＴＲＯＮ秋葉原ビル６階,,13,101,1010021,,,,,,,2025-08-07,1,,,,,,0
1782,8010401192287,新規,0,2025-08-07,2025-08-07,株式会社ＰＨＯＸＹ,,株式会社,東京都,港区,西新橋１丁目１９番６‐６０１号,,13,103,1050003,,,,,,,2025-08-07,1,,,,,フォクシー,0
1783,8010401192304,新規,0,2025-08-07,2025-08-07,株式会社ｉｎ　Ｓｔｙｌｅ,,株式会社,東京都,港区,白金台２丁目１８－２カーサ白金台３０１,,13,103,1080071,,,,,,,2025-08-07,1,,,,,インスタイル,0
1786,8010403035782,新規,0,2025-08-07,2025-08-07,ＰＯＭＩＩＩ合同会社,,合同会社,東京都,港区,北青山１丁目３－３三橋ビル３階,,13,103,1070061,,,,,,,2025-08-07,1,,,,,ポミー,0
1790,8010701048115,新規,0,2025-08-07,2025-08-07,メンタルケアテクノロジーズ株式会社,,株式会社,東京都,品川区,小山３丁目１５番２－１４１５号,,13,109,1420062,,,,,,,2025-08-07,1,,,,,メンタルケアテクノロジーズ,0
1794,8010901057881,新規,0,2025-08-07,2025-08-07,株式会社Ｊｏｊｏ　Ｗｅｌｌｎｅｓｓ,,株式会社,東京都,世田谷区,等々力３丁目１０番３号ヤマダコーポ１０２,,13,112,1580082,,,,,,,2025-08-07,1,,,,,ジョジョウェルネス,0
1807,8011101112551,新規,0,2025-08-07,2025-08-07,ベレンセラピューティクス株式会社,,株式会社,東京都,新宿区,新宿６丁目２７番２９号コンフォリア新宿イーストサイドタワー１８１６号室,,13,104,1600022,,,,,,,2025-08-07,1,,,,,ベレンセラピューティクス,0
1810,8011203004787,新規,0,2025-08-07,2025-08-07,ｓｓｋｏｏｌ合同会社,,合同会社,東京都,中野区,本町６丁目２７番８号プリンスコート１０３－Ｃ,,13,114,1640012,,,,,,,2025-08-07,1,,,,,スクール,0
1811,8011303005660,新規,0,2025-08-07,2025-08-07,合同会社奥田邦博事務所,,合同会社,東京都,杉並区,浜田山３丁目３１番６号フレンドリー浜田山３Ｆ,,13,115,1680065,,,,,,,2025-08-07,1,,,,,オクダクニヒロジムショ,0
1812,8011401027301,新規,0,2025-08-07,2025-08-07,株式会社チェックマル,,株式会社,東京都,板橋区,赤塚２丁目１６番１号,,13,119,1750092,,,,,,,2025-08-07,1,,,,,,0
1814,8011501032416,新規,0,2025-08-07,2025-08-07,株式会社ＹＫＢ,,株式会社,東京都,北区,東十条３丁目５番７号,,13,117,1140001,,,,,,,2025-08-07,1,,,,,ワイケービー,0
1816,8011503006632,新規,0,2025-08-07,2025-08-07,合同会社誠弘,,合同会社,東京都,北区,中里３丁目８番３号,,13,117,1140015,,,,,,,2025-08-07,1,,,,,セイコウ,0
1817,8011601028859,新規,0,2025-08-07,2025-08-07,モリタ商事株式会社,,株式会社,東京都,練馬区,下石神井３丁目２０－５,,13,120,1770042,,,,,,,2025-08-07,1,,,,,モリタショウジ,0
1818,8011601028875,新規,0,2025-08-07,2025-08-07,ＳｅａＷａｙ株式会社,,株式会社,東京都,練馬区,大泉町１丁目７番１３号,,13,120,1780062,,,,,,,2025-08-07,1,,,,,シーウェイ,0
1830,8012401043412,新規,0,2025-08-07,2025-08-07,株式会社Ｎｅｘｕｓ　Ｃａｐｉｔａｌ,,株式会社,東京都,三鷹市,井の頭５丁目１２番１７号,,13,204,1810001,,,,,,,2025-08-07,1,,,,,ネクサスキャピタル,0
1831,8012401043429,新規,0,2025-08-07,2025-08-07,株式会社ＷＡＳＨ　Ｉｎｔｅｒｉｏｒ,,株式会社,東京都,府中市,小柳町２丁目５第５ひばりマンション３０８号室,,13,206,1830013,,,,,,,2025-08-07,1,,,,,ワシインテリア,0
1836,8012801024152,新規,0,2025-08-07,2025-08-07,株式会社ニュースタイル,,株式会社,東京都,武蔵村山市,大南１丁目２番１号大南ロフティ１０Ａ号室,,13,223,2080013,,,,,,,2025-08-07,1,,,,,ニュースタイル,0
1845,8013301054706,新規,0,2025-08-07,2025-08-07,株式会社なんくるないさ,,株式会社,東京都,豊島区,西池袋１丁目４１番地５号トップ池袋ビル,,13,116,1710021,,,,,,,2025-08-07,1,,,,,ナンクルナイサ,0
1859,8021001085905,新規,0,2025-08-07,2025-08-07,株式会社ＥＶＥＲ　ＧＲＥＥＮ,,株式会社,神奈川県,藤沢市,鵠沼松が岡４丁目３番２５～１号,00140191,14,205,2510038,,,,,,,2025-08-07,1,,,,,エバーグリーン,0
1865,8030001167968,新規,0,2025-08-07,2025-08-07,株式会社ＴＫルミナス,,株式会社,埼玉県,さいたま市浦和区,大東３丁目２４番７号,,11,107,3300043,,,,,,,2025-08-07,1,,,,,ティーケールミナス,0
1866,8030001167976,新規,0,2025-08-07,2025-08-07,群芯株式会社,,株式会社,埼玉県,北本市,北本２丁目２６番地１パシフィック北本ＩＩＩ２０１号室,00140193,11,233,3640006,,,,,,,2025-08-07,1,,,,,グンシン,0
1869,8030003027360,新規,0,2025-08-07,2025-08-07,合同会社ＨＩＤＥ,,合同会社,埼玉県,川口市,並木３丁目１５－７レクセルプラザ西川口２０７,,11,203,3320034,,,,,,,2025-08-07,1,,,,,ヒデ,0
1873,8040001139883,新規,0,2025-08-07,2025-08-07,株式会社キラック,,株式会社,千葉県,長生郡一宮町,一宮９２６４－１１,,12,421,2994301,,,,,,,2025-08-07,1,,,,,キラック,0
1883,8080401028088,新規,0,2025-08-07,2025-08-07,株式会社亀田,,株式会社,静岡県,浜松市中央区,上新屋町７２番地の４,,22,138,4350053,,,,,,,2025-08-07,1,,,,,カメダ,0
1897,8120001278533,新規,0,2025-08-07,2025-08-07,株式会社極量,,株式会社,大阪府,大阪市北区,豊崎５丁目７番１１号アベニュー中津６０４号室,,27,127,5310072,,,,,,,2025-08-07,1,,,,,キョクリョウ,0
1898,8120005025097,新規,0,2025-08-07,2025-08-07,一般社団法人日本レイキアカデミー,,その他の設立登記法人,大阪府,大阪市中央区,谷町８丁目１番４３－１２０４号,,27,128,5420012,,,,,,,2025-08-07,1,,,,,ニホンレイキアカデミー,0
1901,8120101072209,新規,0,2025-08-07,2025-08-07,株式会社アエル・デ,,株式会社,大阪府,羽曳野市,はびきの３丁目３１６番地の８４,,27,222,5830872,,,,,,,2025-08-07,1,,,,,アエルデ,0
1902,8120101072217,新規,0,2025-08-07,2025-08-07,株式会社山雅,,株式会社,大阪府,羽曳野市,河原城１１０５番地,,27,222,5830867,,,,,,,2025-08-07,1,,,,,ヤママサ,0
1908,8130005017424,新規,0,2025-08-07,2025-08-07,一般社団法人ＭＤＫ舞鶴ダンプ協議会,,その他の設立登記法人,京都府,舞鶴市,字京田小字古茶屋８６０番地,,26,202,6240823,,,,,,,2025-08-07,1,,,,,エムディケイマイヅルダンプキョウギカイ,0
1913,8140001139551,新規,0,2025-08-07,2025-08-07,徳田梅心堂株式会社,,株式会社,兵庫県,明石市,朝霧南町３丁目１番３２－１０１号,,28,203,6730870,,,,,,,2025-08-07,1,,,,,トクダバイシンドウ,0
1914,8140001139592,新規,0,2025-08-07,2025-08-07,拓真貿易株式会社,,株式会社,兵庫県,神戸市東灘区,深江北町４丁目１２番１４－８０２号,,28,101,6580013,,,,,,,2025-08-07,1,,,,,タクシンボウエキ,0
1915,8140003022391,新規,0,2025-08-07,2025-08-07,合同会社おの也,,合同会社,兵庫県,神戸市兵庫区,塚本通６丁目１番９－４０２号,,28,105,6520804,,,,,,,2025-08-07,1,,,,,オノヤ,0
1927,8180005021181,新規,0,2025-08-07,2025-08-07,一般社団法人ギャンブル依存症家族の会愛知,,その他の設立登記法人,愛知県,名古屋市中川区,西中島２丁目４０１番地サンなかしま２－６０６号,,23,110,4540934,,,,,,,2025-08-07,1,,,,,ギャンブルイゾンショウカゾクノカイアイチ,0
1930,8180303006669,新規,0,2025-08-07,2025-08-07,ＳＤＹオートトレーディング合同会社,,合同会社,愛知県,豊田市,西岡町切畑１０３番地パブリックビレッジ２０３号,,23,211,4730936,,,,,,,2025-08-07,1,,,,,エスディーワイオートトレーディング,0
1935,8200001044126,新規,0,2025-08-07,2025-08-07,株式会社ＳＡ　Ｍａｎａｇｅｍｅｎｔ,,株式会社,岐阜県,美濃加茂市,中部台２丁目１番地１５,,21,211,5050038,,,,,,,2025-08-07,1,,,,,エスエーマネジメント,0
1940,8240001065341,新規,0,2025-08-07,2025-08-07,尾道工芸株式会社,,株式会社,広島県,尾道市,向島町２０１５番地１０,,34,205,7220073,,,,,,,2025-08-07,1,,,,,オノミチコウゲイ,0
1951,8290003017237,新規,0,2025-08-07,2025-08-07,合資会社セラヴィ,,合資会社,福岡県,那珂川市,五郎丸２丁目４０番地,,40,231,8111252,,,,,,,2025-08-07,1,,,,,セラヴィ,0
1957,8290801031752,新規,0,2025-08-07,2025-08-07,株式会社シマヤ,,株式会社,福岡県,北九州市小倉北区,竪町２丁目４番１２－２０１号,,40,106,8030818,,,,,,,2025-08-07,1,,,,,シマヤ,0
1958,8290801031769,新規,0,2025-08-07,2025-08-07,Ａｂａｄｉ株式会社,,株式会社,福岡県,遠賀郡遠賀町,大字上別府５０６番地の１,,40,384,8114332,,,,,,,2025-08-07,1,,,,,アバディ,0
1959,8290801031777,新規,0,2025-08-07,2025-08-07,株式会社ＭＩＬＥＳ,,株式会社,福岡県,北九州市戸畑区,浅生２丁目１７番２７号,,40,105,8040062,,,,,,,2025-08-07,1,,,,,マイルズ,0
1961,8300001014309,新規,0,2025-08-07,2025-08-07,ＯｍｎｉＡｉｄ株式会社,,株式会社,佐賀県,佐賀市,天神３丁目２番２３号,,41,201,8400815,,,,,,,2025-08-07,1,,,,,オムニエイド,0
1965,8330001033470,新規,0,2025-08-07,2025-08-07,株式会社ひらかわ,,株式会社,熊本県,山鹿市,鹿央町広４０２７番地１,,43,208,8610564,,,,,,,2025-08-07,1,,,,,ヒラカワ,0
1967,8330003011160,新規,0,2025-08-07,2025-08-07,合同会社堀川農園,,合同会社,熊本県,熊本市北区,清水新地６丁目２番３２号,,43,105,8618075,,,,,,,2025-08-07,1,,,,,ホリカワノウエン,0
1968,8330003011169,新規,0,2025-08-07,2025-08-07,合同会社ライフガーデン,,合同会社,熊本県,合志市,合生３５８１－７,,43,216,8611101,,,,,,,2025-08-07,1,,,,,ライフガーデン,0
1978,8390001018078,新規,0,2025-08-07,2025-08-07,株式会社高東工業,00140199,株式会社,山形県,酒田市,砂越字楯之内４１番地の１１,,06,204,9996701,,,,,,,2025-08-07,1,,,,,コウトウコウギョウ,0
1984,8430001094940,新規,0,2025-08-07,2025-08-07,オウル株式会社,,株式会社,北海道,札幌市白石区,北郷一条４丁目３番３０号,,01,104,0030831,,,,,,,2025-08-07,1,,,,,オウル,0
1985,8430001095047,新規,0,2025-08-07,2025-08-07,株式会社ユニックス,,株式会社,北海道,札幌市豊平区,平岸四条１５丁目１番１５号,,01,105,0620934,,,,,,,2025-08-07,1,,,,,ユニックス,0
1990,8430003017940,新規,0,2025-08-07,2025-08-07,合同会社くろこびと,,合同会社,北海道,札幌市東区,北二十一条東２０丁目４番１５号,,01,103,0650021,,,,,,,2025-08-07,1,,,,,クロコビト,0
1992,8440001009666,新規,0,2025-08-07,2025-08-07,シラト医療株式会社,,株式会社,北海道,亀田郡七飯町,本町３丁目１８番６－１０３号,,01,337,0411111,,,,,,,2025-08-07,1,,,,,シラトイリョウ,0
1995,8500001026465,新規,0,2025-08-07,2025-08-07,株式会社オフィスＫ２,,株式会社,愛媛県,松山市,六軒家町３番２４号丸五ビル２階,,38,201,7918021,,,,,,,2025-08-07,1,,,,,オフィスケイツー,0
1999,9010001257407,新規,0,2025-08-07,2025-08-07,ベアリングス・リアル・エステート・インベストメント・ジャパン株式会社,,株式会社,東京都,中央区,京橋２丁目２番１号京橋エドグラン,,13,102,1040031,,,,,,,2025-08-07,1,,,,,ベアリングスリアルエステートインベストメントジャパン,0
2000,9010003048192,新規,0,2025-08-07,2025-08-07,Ａｎｄｏ　Ｔｈｅｒａｐｅｕｔｉｃｓ　Ｊａｐａｎ合同会社,,合同会社,東京都,中央区,日本橋堀留町１丁目９番１０号,,13,102,1030012,,,,,,,2025-08-07,1,,,,,アンドウセラピューティクスジャパン,0
2006,9010401192055,新規,0,2025-08-07,2025-08-07,株式会社ＷｉｔｈＢｉｔ,,株式会社,東京都,港区,西新橋３丁目１３－３ＢＩＺＣＯＲＥ西新橋１３階,,13,103,1050003,,,,,,,2025-08-07,1,,,,,ウィズビット,0
2007,9010401192286,新規,0,2025-08-07,2025-08-07,株式会社ＡＢＥＣＡＲＳ,,株式会社,東京都,港区,東麻布１丁目１０番１１号,,13,103,1060044,,,,,,,2025-08-07,1,,,,,アベカーズ,0
2008,9010401192294,新規,0,2025-08-07,2025-08-07,株式会社メタアセット,,株式会社,東京都,港区,白金１丁目２番１－Ｅ２０１３号,,13,103,1080072,,,,,,,2025-08-07,1,,,,,メタアセット,0
2009,9010401192303,新規,0,2025-08-07,2025-08-07,ミライキャピタルホールディングス株式会社,,株式会社,東京都,港区,赤坂２丁目１１番２号ＮＯＩＲＡＫＡＳＡＫＡＢＬＤＧ３階,,13,103,1070052,,,,,,,2025-08-07,1,,,,,ミライキャピタルホールディングス,0
2014,9010403035740,新規,0,2025-08-07,2025-08-07,Ａｎｇｅｍｅｌｉｅ合同会社,,合同会社,東京都,港区,虎ノ門１丁目１６番６号虎ノ門ＲＡＰＯ－ＴＯビルＵＣＦ７０３,,13,103,1050001,,,,,,,2025-08-07,1,,,,,アンジュメリ,0
2015,9010403035765,新規,0,2025-08-07,2025-08-07,合同会社ＴＳＭ１７２,,合同会社,東京都,港区,元赤坂１丁目１番７号,,13,103,1070051,,,,,,,2025-08-07,1,,,,,ティーエスエムヒャクナナジュウニ,0
2016,9010403035773,新規,0,2025-08-07,2025-08-07,ＯＧＲ合同会社,,合同会社,東京都,港区,北青山１丁目３－３三橋ビル３階,,13,103,1070061,,,,,,,2025-08-07,1,,,,,オージーアール,0
2018,9010501054502,新規,0,2025-08-07,2025-08-07,株式会社Ｋ＆Ｋ,,株式会社,東京都,台東区,下谷１丁目４番９号リビオメゾン上野入谷７０３,,13,106,1100004,,,,,,,2025-08-07,1,,,,,ケーアンドケー,0
2022,9010601067750,新規,0,2025-08-07,2025-08-07,株式会社トポス,,株式会社,東京都,江東区,門前仲町１丁目１５番６号,,13,108,1350048,,,,,,,2025-08-07,1,,,,,トポス,0
2038,9011003022261,新規,0,2025-08-07,2025-08-07,データ・トゥ・トランザクション合同会社,,合同会社,東京都,渋谷区,道玄坂１丁目１０番８号渋谷道玄坂東急ビル２Ｆ－Ｃ,,13,113,1500043,,,,,,,2025-08-07,1,,,,,データトゥトランザクション,0
2043,9011203004786,新規,0,2025-08-07,2025-08-07,合同会社ｎｏｎｏｈａ,,合同会社,東京都,中野区,沼袋３丁目１１－９－２０２,,13,114,1650025,,,,,,,2025-08-07,1,,,,,ノノハ,0
2045,9011301030783,新規,0,2025-08-07,2025-08-07,株式会社ＦＩＶＥ,,株式会社,東京都,杉並区,本天沼２丁目２８－１１,,13,115,1670031,,,,,,,2025-08-07,1,,,,,ファイブ,0
2047,9011503006631,新規,0,2025-08-07,2025-08-07,合同会社大地,,合同会社,東京都,北区,中里１丁目２１番２号中里ビル１Ｆ,,13,117,1140015,,,,,,,2025-08-07,1,,,,,ダイチ,0
2060,9012403007265,新規,0,2025-08-07,2025-08-07,ＭＯＰＯ合同会社,,合同会社,東京都,多摩市,乞田１３４７番地の２,,13,224,2060014,,,,,,,2025-08-07,1,,,,,モポ,0
2061,9012801024143,新規,0,2025-08-07,2025-08-07,新三和フーズ株式会社,,株式会社,東京都,立川市,若葉町４丁目１８－５,,13,202,1900001,,,,,,,2025-08-07,1,,,,,シンサンワフーズ,0
2065,9013303007792,新規,0,2025-08-07,2025-08-07,ＪＲＡ合同会社,,合同会社,東京都,豊島区,南長崎５丁目２３番１２号,,13,116,1710052,,,,,,,2025-08-07,1,,,,,ジェーアールエー,0
2073,9020003029035,新規,0,2025-08-07,2025-08-07,合同会社ＹＵＩＭＩＰＲＯ　ＡＧＥＮＣＹ,,合同会社,神奈川県,横浜市港南区,日限山１丁目９番地５号,,14,111,2330015,,,,,,,2025-08-07,1,,,,,ユミプロエージェンシー,0
2075,9021001085986,新規,0,2025-08-07,2025-08-07,小田原フィジカルサポート株式会社,,株式会社,神奈川県,小田原市,蓮正寺２４４番地１８号,,14,206,2500865,,,,,,,2025-08-07,1,,,,,オダワラフィジカルサポート,0
2076,9021001086035,新規,0,2025-08-07,2025-08-07,株式会社福来商事,,株式会社,神奈川県,平塚市,上平塚７番５０号,,14,203,2540055,,,,,,,2025-08-07,1,,,,,フクライショウジ,0
2078,9021003016279,新規,0,2025-08-07,2025-08-07,ＭＤ　ｔａｂｌｅ　ｔｅｎｎｉｓ　ｌｉｆｅ合同会社,,合同会社,神奈川県,大和市,大和東１丁目９番２４号山川ビル,,14,213,2420017,,,,,,,2025-08-07,1,,,,,エムディーテーブルテニスライフ,0
2081,9021005013407,新規,0,2025-08-07,2025-08-07,一般財団法人矢沢音楽財団,,その他の設立登記法人,神奈川県,足柄下郡箱根町,仙石原字ズミノ中５１５番１号２０６,,14,382,2500631,,,,,,,2025-08-07,1,,,,,ヤザワオンガクザイダン,0
2089,9030001167975,新規,0,2025-08-07,2025-08-07,株式会社國建,,株式会社,埼玉県,吉川市,吉川２丁目７番地１０,,11,243,3420055,,,,,,,2025-08-07,1,,,,,クニケン,0
2105,9040001139817,新規,0,2025-08-07,2025-08-07,株式会社ＷＥＭ,,株式会社,千葉県,市原市,門前１丁目１６１番地４,,12,219,2900016,,,,,,,2025-08-07,1,,,,,ウェム,0
2106,9040001139899,新規,0,2025-08-07,2025-08-07,スミスブラザーズ株式会社,,株式会社,千葉県,千葉市緑区,鎌取町９番地１７,,12,105,2660011,,,,,,,2025-08-07,1,,,,,スミスブラザーズ,0
2107,9040003028068,新規,0,2025-08-07,2025-08-07,合同会社Ａｉｑｕｏｒ,,合同会社,千葉県,印西市,草深２５３０番地３９,,12,231,2701337,,,,,,,2025-08-07,1,,,,,アイコア,0
2108,9040003028150,新規,0,2025-08-07,2025-08-07,合同会社Ｍ　ｉ　Ｌｉｇｈｔ,,合同会社,千葉県,千葉市中央区,末広２丁目２番２０号末広サンフレアＡ２０３号,,12,101,2600843,,,,,,,2025-08-07,1,,,,,ミライト,0
2109,9050001057051,新規,0,2025-08-07,2025-08-07,株式会社ハセ建,,株式会社,茨城県,小美玉市,羽鳥２６１７番地８,,08,236,3190123,,,,,,,2025-08-07,1,,,,,ハセケン,0
2115,9060003005668,新規,0,2025-08-07,2025-08-07,合同会社ＲＡＩＳＥ,,合同会社,栃木県,宇都宮市,江野町７－７ユウケイビルＢ１階１０１,,09,201,3200802,,,,,,,2025-08-07,1,,,,,レイズ,0
2120,9080101025707,新規,0,2025-08-07,2025-08-07,株式会社クスノキ設計,,株式会社,静岡県,富士市,永田町１丁目９３番地ワールドユニオンビル２階,,22,210,4170055,,,,,,,2025-08-07,1,,,,,クスノキセッケイ,0
2123,9090001019436,新規,0,2025-08-07,2025-08-07,株式会社ＲＭＲホールディングス,,株式会社,山梨県,甲府市,中小河原町３６３番地４,,19,201,4000854,,,,,,,2025-08-07,1,,,,,アールエムアールホールディングス,0
2134,9120001278458,新規,0,2025-08-07,2025-08-07,株式会社ＹＵＴＥＣＨ,,株式会社,大阪府,大阪市東住吉区,杭全２丁目４番４号,,27,121,5460002,,,,,,,2025-08-07,1,,,,,ユーテック,0
2135,9120001278474,新規,0,2025-08-07,2025-08-07,株式会社４４ｍｅｄｅｌ,,株式会社,大阪府,大阪市北区,大深町１番１号ＬｉｎｋｓＵｍｅｄａ８Ｆ,,27,127,5300011,,,,,,,2025-08-07,1,,,,,ヨンヨンメデル,0
2136,9120001278516,新規,0,2025-08-07,2025-08-07,ＤＬＲファーマ株式会社,,株式会社,大阪府,大阪市淀川区,西中島７丁目１番５号辰野新大阪ビル３階,,27,123,5320011,,,,,,,2025-08-07,1,,,,,ディーエルアールファーマ,0
2137,9120001278573,新規,0,2025-08-07,2025-08-07,株式会社ココエム,,株式会社,大阪府,大阪市北区,梅田１丁目２番２号大阪駅前第２ビル１２－１２,,27,127,5300001,,,,,,,2025-08-07,1,,,,,ココエム,0
2138,9120001278623,新規,0,2025-08-07,2025-08-07,株式会社ＦＥＡＳＴ,,株式会社,大阪府,守口市,大日東町２番１３－１６１７号,,27,209,5700016,,,,,,,2025-08-07,1,,,,,フィースト,0
2139,9120001278689,新規,0,2025-08-07,2025-08-07,スイスイマート株式会社,,株式会社,大阪府,大阪市住吉区,我孫子西２丁目１番２７号,,27,120,5580015,,,,,,,2025-08-07,1,,,,,スイスイマート,0
2141,9120003030214,新規,0,2025-08-07,2025-08-07,合同会社クリエイトジーエル,,合同会社,大阪府,大阪市北区,梅田１丁目２番２号大阪駅前第２ビル１２－１２,,27,127,5300001,,,,,,,2025-08-07,1,,,,,クリエイトジーエル,0
2142,9120005025096,新規,0,2025-08-07,2025-08-07,阪神繁栄一般社団法人,,その他の設立登記法人,大阪府,大阪市中央区,高麗橋４丁目３番７号淀屋橋総合会計内,,27,128,5410043,,,,,,,2025-08-07,1,,,,,ハンシンハンエイ,0
2143,9120101072224,新規,0,2025-08-07,2025-08-07,株式会社ＦＬＡＲＥ,,株式会社,大阪府,大阪狭山市,山本南３２０番地,,27,231,5890033,,,,,,,2025-08-07,1,,,,,フレア,0
2144,9120101072257,新規,0,2025-08-07,2025-08-07,株式会社ＳＴＡＲ　Ｈｏｌｄｉｎｇｓ,,株式会社,大阪府,堺市中区,深井中町１９５２番地２－１０９号,,27,142,5998272,,,,,,,2025-08-07,1,,,,,スターホールディングス,0
2145,9120103006618,新規,0,2025-08-07,2025-08-07,合同会社マッスマイル,,合同会社,大阪府,河内長野市,小山田町２２０４番地,,27,216,5860094,,,,,,,2025-08-07,1,,,,,マッスマイル,0
2151,9122001039484,新規,0,2025-08-07,2025-08-07,株式会社Ｓ．Ｓ,,株式会社,大阪府,東大阪市,足代新町１５番５号,,27,227,5770057,,,,,,,2025-08-07,1,,,,,エスエス,0
2154,9130001080210,新規,0,2025-08-07,2025-08-07,デジタルレイバー株式会社,,株式会社,京都府,京都市中京区,錦小路通烏丸西入ル占出山町３１２,,26,104,6040000,,,,,,,2025-08-07,1,,,,,デジタルレイバー,0
2155,9130001080219,新規,0,2025-08-07,2025-08-07,株式会社迅工業,,株式会社,京都府,京都市伏見区,向島庚申町９０番地２,,26,109,6128122,,,,,,,2025-08-07,1,,,,,ハヤテコウギョウ,0
2156,9130001080227,新規,0,2025-08-07,2025-08-07,株式会社Ｗｉｌｌ　Ｓｔｏｒｙ,,株式会社,京都府,京都市下京区,七条通油小路東入大黒町２２７番地第２キョートビル４０２,,26,106,6008223,,,,,,,2025-08-07,1,,,,,ウィルストーリー,0
2157,9130003010652,新規,0,2025-08-07,2025-08-07,合同会社Ｐｅａｒｌ,,合同会社,京都府,舞鶴市,字小倉２６８番地３,,26,202,6250020,,,,,,,2025-08-07,1,,,,,パール,0
2162,9140001139542,新規,0,2025-08-07,2025-08-07,株式会社ライフコネクト,,株式会社,兵庫県,神戸市西区,桜が丘西町２丁目１７番地の９,,28,111,6512227,,,,,,,2025-08-07,1,,,,,ライフコネクト,0
2163,9140001139559,新規,0,2025-08-07,2025-08-07,株式会社縁友不動産,,株式会社,兵庫県,姫路市,飾磨区今在家２丁目５３番地,,28,201,6728079,,,,,,,2025-08-07,1,,,,,エンユウフドウサン,0
2164,9140001139567,新規,0,2025-08-07,2025-08-07,株式会社ヒツジヤリバティ,,株式会社,兵庫県,丹波市,柏原町柏原３０番地２,,28,223,6693309,,,,,,,2025-08-07,1,,,,,,0
2165,9140001139583,新規,0,2025-08-07,2025-08-07,株式会社イイダステーブルマネジメント,,株式会社,兵庫県,尼崎市,田能２丁目２番１７－２０１号,,28,202,6610951,,,,,,,2025-08-07,1,,,,,イイダステーブルマネジメント,0
2166,9140001139591,新規,0,2025-08-07,2025-08-07,株式会社アセンダ,,株式会社,兵庫県,伊丹市,北野６丁目５番地１アドリーム伊丹北野アネックス５０５号,,28,207,6640007,,,,,,,2025-08-07,1,,,,,アセンダ,0
2169,9140003022390,新規,0,2025-08-07,2025-08-07,合同会社オフイスＬＡＰＡＮ,,合同会社,兵庫県,朝来市,立脇１７番地３,,28,225,6793403,,,,,,,2025-08-07,1,,,,,オフイスラパン,0
2170,9160001026961,新規,0,2025-08-07,2025-08-07,株式会社ＫＧ　Ｗｏｒｋｓ,,株式会社,滋賀県,長浜市,新旭町６５番地,,25,203,5290133,,,,,,,2025-08-07,1,,,,,ケージーワークス,0
2174,9180001168059,新規,0,2025-08-07,2025-08-07,株式会社ユーフォニア,,株式会社,愛知県,名古屋市西区,城西町１５０番地,,23,104,4520841,,,,,,,2025-08-07,1,,,,,ユーフォニア,0
2179,9200001044125,新規,0,2025-08-07,2025-08-07,株式会社リスペクトワークス,,株式会社,岐阜県,岐阜市,福光東１丁目２４番８号エクセル長良１－Ｂ,,21,201,5020813,,,,,,,2025-08-07,1,,,,,リスペクトワークス,0
2184,9240001065340,新規,0,2025-08-07,2025-08-07,水青株式会社,,株式会社,広島県,三原市,本郷町南方５１４３－２,,34,204,7290413,,,,,,,2025-08-07,1,,,,,スイセイ,0
2185,9240001065349,新規,0,2025-08-07,2025-08-07,株式会社昇希,,株式会社,広島県,広島市佐伯区,藤の木２丁目２５番３５号,,34,108,7315103,,,,,,,2025-08-07,1,,,,,ショウキ,0
2190,9250003003792,新規,0,2025-08-07,2025-08-07,光束マネージメント合同会社,,合同会社,山口県,光市,大字束荷５９１番地,,35,210,7430105,,,,,,,2025-08-07,1,,,,,コウソクマネージメント,0
2192,9270003001778,新規,0,2025-08-07,2025-08-07,合同会社Ｓｔｒｉｄｅ,,合同会社,鳥取県,倉吉市,伊木７５番地,,31,203,6820024,,,,,,,2025-08-07,1,,,,,ストライド,0
2198,9290001111131,新規,0,2025-08-07,2025-08-07,株式会社だん,,株式会社,福岡県,那珂川市,大字上梶原８８７―９―１,,40,231,8111223,,,,,,,2025-08-07,1,,,,,ダン,0
2199,9290003017194,新規,0,2025-08-07,2025-08-07,合同会社ＫＲＨ,,合同会社,福岡県,福岡市西区,姪浜駅南１丁目５－２０コンフォール香洋３０６号,,40,135,8190006,,,,,,,2025-08-07,1,,,,,ケイアールエイチ,0
2206,9310001019735,新規,0,2025-08-07,2025-08-07,株式会社ＤＭデザイン,,株式会社,長崎県,東彼杵郡波佐見町,折敷瀬郷１３７１番地２,,42,323,8593701,,,,,,,2025-08-07,1,,,,,ディーエムデザイン,0
2207,9320003004734,新規,0,2025-08-07,2025-08-07,合同会社Ｆｉｒｅ　Ｕｐ,,合同会社,大分県,大分市,萩原３丁目１７－１,,44,201,8700921,,,,,,,2025-08-07,1,,,,,ファイアーアップ,0
2211,9330003011143,新規,0,2025-08-07,2025-08-07,ＩＳＨＩＣＯＲＰ合同会社,,合同会社,熊本県,八代市,本町１丁目１０番４３号２Ｆ,,43,202,8660861,,,,,,,2025-08-07,1,,,,,イシコープ,0
2212,9330003011168,新規,0,2025-08-07,2025-08-07,合同会社Ｇｒｅｅｎ　Ｗｏｒｋｓ,,合同会社,熊本県,玉名市,岱明町古閑５３９－１,,43,206,8690233,,,,,,,2025-08-07,1,,,,,グリーンワークス,0
2215,9360001035595,新規,0,2025-08-07,2025-08-07,比嘉砂販売株式会社,,株式会社,沖縄県,中頭郡中城村,字奥間７０４番地７,,47,328,9012412,,,,,,,2025-08-07,1,,,,,ヒガスナハンバイ,0
2216,9360003015158,新規,0,2025-08-07,2025-08-07,合同会社仲田不動産,,合同会社,沖縄県,浦添市,仲西３丁目１番１５号,,47,208,9012125,,,,,,,2025-08-07,1,,,,,ナカタフドウサン,0
2219,9360005007260,新規,0,2025-08-07,2025-08-07,伊平屋てるしのワーク協同組合,,その他の設立登記法人,沖縄県,島尻郡伊平屋村,字我喜屋２１７番地２７－２号室,,47,359,9050703,,,,,,,2025-08-07,1,,,,,イヘヤテルシノワーク,0
2226,9390001018077,新規,0,2025-08-07,2025-08-07,株式会社笹原商店,,株式会社,山形県,天童市,長岡北３丁目５番１０号,,06,210,9940062,,,,,,,2025-08-07,1,,,,,ササハラショウテン,0
2228,9420001019229,新規,0,2025-08-07,2025-08-07,株式会社ヤマシチ宮越,,株式会社,青森県,北津軽郡中泊町,大字尾別字玉の井４３番地,,02,387,0370304,,,,,,,2025-08-07,1,,,,,ヤマシチミヤコシ,0
2236,9430003017923,新規,0,2025-08-07,2025-08-07,合同会社ホシバ設備,,合同会社,北海道,滝川市,東町７丁目２１３番地１９,,01,225,0730024,,,,,,,2025-08-07,1,,,,,ホシバセツビ,0
2237,9440001009665,新規,0,2025-08-07,2025-08-07,株式会社青函製作所,,株式会社,北海道,函館市,高丘町２０番１号,,01,202,0420955,,,,,,,2025-08-07,1,,,,,セイカンセイサクショ,0
2238,9450001014697,新規,0,2025-08-07,2025-08-07,アールネット株式会社,,株式会社,北海道,旭川市,四条通１丁目１９６３番地の８,,01,204,0700034,,,,,,,2025-08-07,1,,,,,アールネット,0
2242,9470001020842,新規,0,2025-08-07,2025-08-07,株式会社エターナルライフ,,株式会社,香川県,高松市,桜町１丁目１４番２１－５０２号ロイヤルガーデン桜町レジデンスＩＩ,00140192,37,201,7600074,,,,,,,2025-08-07,1,,,,,エターナルライフ,0
2246,9500001026448,新規,0,2025-08-07,2025-08-07,株式会社米田ホールディングス,,株式会社,愛媛県,松山市,堀江町甲２００番地１,,38,201,7992651,,,,,,,2025-08-07,1,,,,,ヨネダホールディングス,0
2247,9500001026456,新規,0,2025-08-07,2025-08-07,株式会社祐成,,株式会社,愛媛県,四国中央市,土居町入野１３９番地１,,38,213,7990712,,,,,,,2025-08-07,1,,,,,ユウセイ,0
