sequenceNumber,corporateNumber,process,correct,updateDate,changeDate,name,nameImageId,kind,prefectureName,cityName,streetNumber,addressImageId,prefectureCode,cityCode,postCode,addressOutside,addressOutsideImageId,closeDate,closeCause,successorCorporateNumber,changeCause,assignmentDate,latest,enName,enPrefectureName,enCityName,enAddressOutside,furigana,hihyoji
6,1010002040298,登記記録の閉鎖等,0,2025-02-13,2025-01-31,有限会社樹,,有限会社,東京都,台東区,池之端１丁目４番３３号,,13,106,1100008,,,2025-01-31,清算の結了等,,,2015-10-05,1,,,,,ジュ,0
13,1010401007311,登記記録の閉鎖等,0,2025-02-13,2025-01-21,株式会社河野,,株式会社,東京都,港区,新橋５丁目４番１号,,13,103,1050004,,,2025-01-21,清算の結了等,,,2015-10-05,1,,,,,コウノ,0
48,1011301013820,登記記録の閉鎖等,0,2025-02-13,2025-02-07,株式会社アロー・プランニング,,株式会社,東京都,杉並区,宮前３丁目１７番２２号オギクボグリーンビレッジＧ－１,,13,115,1680081,,,2025-02-07,合併による解散等,7010001135374,令和７年２月１日東京都中央区日本橋兜町５番１号兜町第１平和ビル７階株式会社ドリームプラス（7010001135374）に合併し解散,2015-10-05,1,,,,,アロープランニング,0
53,1011701015210,登記記録の閉鎖等,0,2025-02-13,2025-02-07,株式会社佐藤サービス,,株式会社,東京都,江戸川区,瑞江１丁目１９番１－５０１号,,13,123,1320011,,,2025-02-07,清算の結了等,,,2015-10-05,1,,,,,サトウサービス,0
70,1020001084873,登記記録の閉鎖等,0,2025-02-13,2025-01-30,東郷経営企画株式会社,,株式会社,神奈川県,横浜市磯子区,磯子４丁目２番１号,,14,107,2350016,,,2025-01-30,清算の結了等,,,2015-10-05,1,,,,,トウゴウケイエイキカク,0
76,1020002038952,登記記録の閉鎖等,0,2025-02-13,2025-01-28,有限会社辰生工業所,,有限会社,神奈川県,横浜市鶴見区,下末吉６丁目２５番２５号,,14,101,2300012,,,2025-01-28,清算の結了等,,,2015-10-05,1,,,,,,0
79,1020003018771,登記記録の閉鎖等,0,2025-02-13,2025-01-27,サツキメンテナンス合同会社,,合同会社,神奈川県,横浜市港北区,綱島東５丁目２８番１０号,,14,109,2230052,,,2025-01-27,清算の結了等,,,2020-11-11,1,,,,,サツキメンテナンス,0
82,1021001006818,登記記録の閉鎖等,0,2025-02-13,2025-02-12,株式会社小林組,,株式会社,神奈川県,茅ヶ崎市,行谷１０３０番地,,14,207,2530007,,,2025-02-12,清算の結了等,,,2025-01-06,1,,,,,コバヤシクミ,0
87,1021002017302,登記記録の閉鎖等,0,2025-02-13,2025-02-10,有限会社アイカワサービス,,有限会社,神奈川県,相模原市中央区,上溝５６５番地の４,,14,152,2520243,,,2025-02-10,清算の結了等,,,2015-10-05,1,,,,,アイカワサービス,0
88,1030003006932,登記記録の閉鎖等,0,2025-02-13,2025-02-06,合同会社ｐｒｅｃｉｏｕｓ　ｆｅｌｌｏｗ,,合同会社,埼玉県,越谷市,大字上間久里１４９番地１３,,11,222,3430043,,,2025-02-06,清算の結了等,,,2015-10-05,1,,,,,プレシャスフェロー,0
106,1100002028870,登記記録の閉鎖等,0,2025-02-13,2025-02-05,有限会社藤精工,,有限会社,長野県,諏訪郡下諏訪町,４７０２番地９,,20,361,3930000,,,2025-02-05,清算の結了等,,,2015-10-05,1,,,,,フジセイコウ,0
110,1120001087115,登記記録の閉鎖等,0,2025-02-13,2025-02-04,株式会社ハイテックジャパン,,株式会社,大阪府,大阪市中央区,南船場２丁目１１番１３号,,27,128,5420081,,,2025-02-04,清算の結了等,,,2015-10-05,1,,,,,ハイテックジャパン,0
133,1130001043711,登記記録の閉鎖等,0,2025-02-13,2025-02-10,株式会社前川管工事工業所,,株式会社,京都府,舞鶴市,上安東町１１６０番地１,,26,202,6240911,,,2025-02-10,清算の結了等,,,2015-10-05,1,,,,,マエカワカンコウジコウギョウショ,0
179,1260001014006,登記記録の閉鎖等,0,2025-02-13,2025-01-29,橘商事株式会社,,株式会社,岡山県,倉敷市,児島味野上１丁目８番３４号,,33,202,7110917,,,2025-01-29,清算の結了等,,,2015-10-05,1,,,,,タチバナショウジ,0
196,1320002015252,登記記録の閉鎖等,0,2025-02-13,2025-02-10,有限会社國東水産,,有限会社,大分県,杵築市,大字守江３の１８３１番地,,44,210,8730033,,,2025-02-10,清算の結了等,,,2015-10-05,1,,,,,,0
223,1450001007527,登記記録の閉鎖等,0,2025-02-13,2025-02-07,株式会社インテリアスガハラ,,株式会社,北海道,士別市,東一条１丁目１６０２番地８５,,01,220,0950011,,,2025-02-07,清算の結了等,,,2015-10-05,1,,,,,インテリアスガハラ,0
252,2010405018436,登記記録の閉鎖等,0,2025-02-13,2025-01-22,一般社団法人空き家サポート協会,,その他の設立登記法人,東京都,港区,赤坂７丁目６番３８号,,13,103,1070052,,,2025-01-22,清算の結了等,,,2020-02-03,1,,,,,アキヤサポートキョウカイ,0
273,2010902019143,登記記録の閉鎖等,0,2025-02-13,2025-02-07,有限会社啓正造園,,有限会社,東京都,世田谷区,下馬６丁目２２番１０号,,13,112,1540002,,,2025-02-07,清算の結了等,,,2015-10-05,1,,,,,ケイショウゾウエン,0
276,2011001052795,登記記録の閉鎖等,0,2025-02-13,2025-01-17,株式会社ティーエス・パートナー,,株式会社,東京都,渋谷区,本町４丁目１８番４号メゾン本町１０３,,13,113,1510071,,,2025-01-17,清算の結了等,,,2015-10-05,1,,,,,ティーエスパートナー,0
280,2011003010314,登記記録の閉鎖等,0,2025-02-13,2025-01-15,レベルサ合同会社,,合同会社,東京都,渋谷区,代官山町２０番９号,,13,113,1500034,,,2025-01-15,清算の結了等,,,2019-09-06,1,,,,,レベルサ,0
295,2012801019678,登記記録の閉鎖等,0,2025-02-13,2025-02-03,株式会社オザキリビング,,株式会社,東京都,東大和市,南街５丁目１３番地の１,,13,220,2070014,,,2025-02-03,清算の結了等,,,2019-10-09,1,,,,,オザキリビング,0
297,2012802001494,登記記録の閉鎖等,0,2025-02-13,2025-02-03,有限会社たまがわ製本,,有限会社,東京都,立川市,錦町５丁目４番２０号,,13,202,1900022,,,2025-02-03,清算の結了等,,,2015-10-05,1,,,,,タマガワセイホン,0
302,2020001061260,登記記録の閉鎖等,0,2025-02-13,2025-01-27,株式会社スプラッシュ,,株式会社,神奈川県,横浜市港北区,岸根町５３５番地１,,14,109,2220034,,,2025-01-27,清算の結了等,,,2015-10-05,1,,,,,スプラッシュ,0
306,2020001118044,登記記録の閉鎖等,0,2025-02-13,2025-01-24,株式会社ＭＡＣＫ,,株式会社,神奈川県,横浜市磯子区,汐見台２丁目２番地２,,14,107,2350022,,,2025-01-24,清算の結了等,,,2016-09-30,1,,,,,マック,0
309,2020003021816,登記記録の閉鎖等,0,2025-02-13,2025-01-28,合同会社Ｔ‐Ａｃｔ,,合同会社,神奈川県,横浜市南区,三春台１１４－１１キャッスルマンション３０６,,14,105,2320002,,,2025-01-28,清算の結了等,,,2022-06-22,1,,,,,ティーアクト,0
334,2040001105263,登記記録の閉鎖等,0,2025-02-13,2025-01-29,株式会社ＭＯＲＹ,,株式会社,東京都,品川区,南大井４丁目１０番２号,,13,109,1400013,,,2025-01-29,清算の結了等,,,2018-07-05,1,,,,,モーリー,0
339,2040002064558,登記記録の閉鎖等,0,2025-02-13,2025-01-31,有限会社葵建設,,有限会社,千葉県,八街市,八街へ３６４番地８,,12,230,2891113,,,2025-01-31,清算の結了等,,,2015-10-05,1,,,,,アオイケンセツ,0
346,2070001031944,登記記録の閉鎖等,0,2025-02-13,2025-02-10,株式会社アスレイル,,株式会社,愛媛県,松山市,祝谷町１丁目１１番３０号,,38,201,7900834,,,2025-02-10,清算の結了等,,,2016-03-14,1,,,,,アスレイル,0
375,2120101001940,登記記録の閉鎖等,0,2025-02-13,2025-01-31,九州建設株式会社,,株式会社,大阪府,堺市東区,白鷺町１丁９番１５号,,27,143,5998107,,,2025-01-31,清算の結了等,,,2024-11-07,1,,,,,キュウシュウケンセツ,0
386,2140005019425,登記記録の閉鎖等,0,2025-02-13,2025-02-12,特定非営利活動法人重度身体障害者生きがい支援の会・アートスタジオ夢,,その他の設立登記法人,兵庫県,洲本市,五色町鮎原西４１７番地,,28,205,6561313,,,2025-02-12,清算の結了等,,,2015-10-05,1,,,,,ジュウドシンタイショウガイシャイキガイシエンノカイアートスタジオユメ,0
387,2160002010500,登記記録の閉鎖等,0,2025-02-13,2025-02-07,有限会社カットインタカダ,,有限会社,滋賀県,近江八幡市,為心町中１８番地,,25,204,5230865,,,2025-02-07,清算の結了等,,,2015-10-05,1,,,,,カットインタカダ,0
401,2180002055262,登記記録の閉鎖等,0,2025-02-13,2025-02-07,有限会社小島動物病院,,有限会社,愛知県,名古屋市港区,辰巳町４番５号,,23,111,4550003,,,2025-02-07,清算の結了等,,,2015-10-05,1,,,,,コジマドウブツビョウイン,0
413,2200001009992,登記記録の閉鎖等,0,2025-02-13,2025-02-10,株式会社杉山陸運,,株式会社,岐阜県,瑞穂市,生津天王東町１丁目４９番地,,21,216,5010215,,,2025-02-10,清算の結了等,,,2015-10-05,1,,,,,スギヤマリクウン,0
423,2260002014763,登記記録の閉鎖等,0,2025-02-13,2025-02-07,有限会社ラジアンスジャポン,,有限会社,岡山県,岡山市中区,雄町４６２番地１,,33,102,7038204,,,2025-02-07,清算の結了等,,,2015-10-05,1,,,,,ラジアンスジャポン,0
425,2270005002863,登記記録の閉鎖等,0,2025-02-13,2025-02-10,医療法人社団常松医院,,その他の設立登記法人,鳥取県,米子市,福市５７４番地５,,31,202,6830011,,,2025-02-10,清算の結了等,,,2015-10-05,1,,,,,ツネマツイイン,0
440,2340005003557,登記記録の閉鎖等,0,2025-02-13,2025-02-06,農事組合法人柳原荒茶加工組合,,その他の設立登記法人,鹿児島県,薩摩川内市,樋脇町塔之原６００６番地３,00100166,46,215,8951202,,,2025-02-06,清算の結了等,,,2015-10-05,1,,,,,ヤナギハラアラチャカコウクミアイ,0
442,2360001026989,登記記録の閉鎖等,0,2025-02-13,2025-01-29,株式会社Ｒｉｓｅ　ａｎｄ　ｓｈｉｎｅ,,株式会社,東京都,中央区,八重洲２丁目８番７号,,13,102,1040028,,,2025-01-29,清算の結了等,,,2020-03-27,1,,,,,ライズアンドシャイン,0
443,2360001028655,登記記録の閉鎖等,0,2025-02-13,2025-02-07,株式会社Ｑｕａｌｉｔｙ　ｌｉｆｅ　ｓｕｐｐｏｒｔ　ＰＬＵＳ,,株式会社,沖縄県,うるま市,与那城屋慶名１１０番地,,47,213,9042304,,,2025-02-07,清算の結了等,,,2021-04-14,1,,,,,クォリティライフサポートプラス,0
454,2450001008326,登記記録の閉鎖等,0,2025-02-13,2025-02-07,マルヨ清水屋商事株式会社,,株式会社,北海道,稚内市,中央３丁目１０番１９号,,01,214,0970022,,,2025-02-07,清算の結了等,,,2015-10-05,1,,,,,マルヨシミズヤショウジ,0
461,2500005004002,登記記録の閉鎖等,0,2025-02-13,2025-02-10,天台寺門宗石鎚修験派総本山明王院仙徳寺,,その他の設立登記法人,愛媛県,西条市,中奥１号１番地,,38,206,7930214,,,2025-02-10,清算の結了等,,,2015-10-05,1,,,,,テンダイジモンシュウイシヅチシュウゲンハソウホンザンミョウオウインセントクジ,0
463,3010001059197,登記記録の閉鎖等,0,2025-02-13,2025-02-05,山種不動産株式会社,,株式会社,東京都,中央区,日本橋箱崎町８番１号,,13,102,1030015,,,2025-02-05,合併による解散等,2010601007242,令和７年２月１日東京都江東区越中島一丁目２番２１号株式会社ヤマタネ（2010601007242）に合併し解散,2015-10-05,1,,,,,ヤマタネフドウサン,0
489,3010403023354,登記記録の閉鎖等,0,2025-02-13,2025-01-20,ＫＯＫＯ　ＨＯＴＥＬ広島駅前合同会社,,合同会社,東京都,港区,虎ノ門５丁目１番４号,,13,103,1050001,,,2025-01-20,清算の結了等,,,2020-07-27,1,,,,,ココホテルヒロシマエキマエ,0
500,3010901046526,登記記録の閉鎖等,0,2025-02-13,2025-02-06,株式会社ＨＡＮＤＲＥＤ,,株式会社,東京都,世田谷区,北沢２丁目２７－９,,13,112,1550031,,,2025-02-06,清算の結了等,,,2020-07-03,1,,,,,ハンドレッド,0
516,3011101085884,登記記録の閉鎖等,0,2025-02-13,2025-02-06,株式会社Ｃ＆Ｋ,,株式会社,東京都,新宿区,西新宿１丁目２０番３号,,13,104,1600023,,,2025-02-06,合併による解散等,8120101048654,令和７年２月１日大阪市西区西本町一丁目２番４号株式会社タカガワ・ジャパン（8120101048654）に合併し解散,2018-11-06,1,,,,,シーアンドケー,0
532,3011802005091,登記記録の閉鎖等,0,2025-02-13,2025-02-04,有限会社中央ロール彫刻,,有限会社,東京都,葛飾区,青戸４丁目２２番７号,,13,122,1250062,,,2025-02-04,清算の結了等,,,2015-10-05,1,,,,,チュウオウロールチョウコク,0
535,3012402020448,登記記録の閉鎖等,0,2025-02-13,2025-02-10,有限会社どん,,有限会社,東京都,三鷹市,井口３丁目７番３３号,,13,204,1810011,,,2025-02-10,清算の結了等,,,2015-10-05,1,,,,,ドン,0
546,3020001110347,登記記録の閉鎖等,0,2025-02-13,2025-01-28,株式会社箭内エンジニアリング,,株式会社,神奈川県,川崎市中原区,宮内４丁目２１番２０号,,14,133,2110051,,,2025-01-28,清算の結了等,,,2015-10-05,1,,,,,ヤナイエンジニアリング,0
573,3030001043851,登記記録の閉鎖等,0,2025-02-13,2025-02-06,株式会社ワン・アドバンス,,株式会社,埼玉県,北足立郡伊奈町,学園３丁目５６番地,,11,301,3620813,,,2025-02-06,清算の結了等,,,2015-10-05,1,,,,,ワンアドバンス,0
577,3030005021481,登記記録の閉鎖等,0,2025-02-13,2025-02-07,一般社団法人いきいきライフ協会さくら,,その他の設立登記法人,埼玉県,川越市,大字牛子５４４番地１８,,11,201,3500017,,,2025-02-07,清算の結了等,,,2023-11-22,1,,,,,イキイキライフキョウカイサクラ,0
585,3040002065712,登記記録の閉鎖等,0,2025-02-13,2025-02-10,東洋電器有限会社,,有限会社,神奈川県,横須賀市,平成町２丁目１番地,,14,201,2380013,,,2025-02-10,清算の結了等,,,2015-10-05,1,,,,,トウヨウデンキ,0
601,3100002034347,登記記録の閉鎖等,0,2025-02-13,2025-02-05,有限会社羽場左官店,,有限会社,長野県,駒ヶ根市,赤穂１６６６９番地１,,20,210,3994117,,,2025-02-05,清算の結了等,,,2015-10-05,1,,,,,ハバサカンテン,0
637,3140001085503,登記記録の閉鎖等,0,2025-02-13,2025-02-06,淡路セラミツクス株式会社,,株式会社,兵庫県,南あわじ市,榎列小榎列４０５番地の２,,28,224,6560425,,,2025-02-06,清算の結了等,,,2015-10-05,1,,,,,アワジセラミックス,0
640,3180001015101,登記記録の閉鎖等,0,2025-02-13,2025-02-05,ドレンマスター株式会社,,株式会社,愛知県,名古屋市南区,大堀町１７番８号,,23,112,4570002,,,2025-02-05,清算の結了等,,,2015-10-05,1,,,,,ドレンマスター,0
643,3180002007816,登記記録の閉鎖等,0,2025-02-13,2025-02-06,有限会社金山マンション,,有限会社,愛知県,名古屋市昭和区,福江２丁目１１番３号,,23,107,4660059,,,2025-02-06,清算の結了等,,,2015-10-05,1,,,,,カナヤママンション,0
644,3180002012139,登記記録の閉鎖等,0,2025-02-13,2025-02-03,有限会社名北サービス,,有限会社,愛知県,稲沢市,大塚北１丁目３１番地１,,23,220,4928215,,,2025-02-03,清算の結了等,,,2015-10-05,1,,,,,メイホクサービス,0
646,3180301008671,登記記録の閉鎖等,0,2025-02-13,2025-01-29,株式会社豊通樹脂,,株式会社,東京都,中央区,日本橋２丁目１番１４号日本橋加藤ビルディング６階弁護士法人ＰＬＡＺＡ総合法律事務所内,,13,102,1030027,,,2025-01-29,清算の結了等,,,2015-10-05,1,,,,,トヨツウジュシ,0
656,3230002013263,登記記録の閉鎖等,0,2025-02-13,2025-02-10,有限会社Ｋ保険センター,,有限会社,富山県,高岡市,伏木一宮１丁目３番８号,,16,202,9330116,,,2025-02-10,清算の結了等,,,2015-10-05,1,,,,,ケーホケンセンター,0
658,3240002002447,登記記録の閉鎖等,0,2025-02-13,2025-02-07,有限会社エフエフシックス・カンパニー,,有限会社,広島県,広島市中区,薬研堀１番１号,,34,101,7300027,,,2025-02-07,清算の結了等,,,2015-10-05,1,,,,,エフエフシックスカンパニー,0
661,3240002025019,登記記録の閉鎖等,0,2025-02-13,2025-02-07,有限会社ピボット,,有限会社,広島県,広島市安芸区,船越南５丁目１１番１－２０１号,,34,107,7360082,,,2025-02-07,清算の結了等,,,2015-10-05,1,,,,,ピボット,0
667,3270002007550,登記記録の閉鎖等,0,2025-02-13,2025-02-05,有限会社よなご薬局,,有限会社,鳥取県,米子市,車尾４丁目１４番１５号,,31,202,6830006,,,2025-02-05,清算の結了等,,,2015-10-05,1,,,,,ヨナゴヤッキョク,0
682,3290801021774,登記記録の閉鎖等,0,2025-02-13,2025-02-04,株式会社大林,,株式会社,福岡県,北九州市小倉北区,上到津２丁目４番１９号,,40,106,8030845,,,2025-02-04,合併による解散等,5290802013653,令和７年２月１日北九州市八幡西区千代ケ崎一丁目１５番９号株式会社折尾動物病院（5290802013653）に合併し解散,2015-10-05,1,,,,,オオバヤシ,0
688,3320002020275,登記記録の閉鎖等,0,2025-02-13,2025-02-10,有限会社和光システム玖珠,,有限会社,大分県,玖珠郡玖珠町,大字塚脇１２８番地の２,,44,462,8794413,,,2025-02-10,清算の結了等,,,2015-10-05,1,,,,,,0
691,3330001013849,登記記録の閉鎖等,0,2025-02-13,2025-02-05,株式会社川西工業,,株式会社,熊本県,八代市,鏡町内田２０番地,,43,202,8694202,,,2025-02-05,清算の結了等,,,2015-10-05,1,,,,,,0
709,3400001015144,登記記録の閉鎖等,0,2025-02-13,2025-02-04,株式会社倖眞堂,,株式会社,岩手県,一関市,萩荘字高梨北方７５番地１,,03,209,0210902,,,2025-02-04,清算の結了等,,,2020-09-17,1,,,,,コウシンドウ,0
711,3430001058883,登記記録の閉鎖等,0,2025-02-13,2025-02-10,北建サービス株式会社,,株式会社,北海道,札幌市南区,澄川四条４丁目１０番５１号,,01,106,0050004,,,2025-02-10,清算の結了等,,,2015-10-05,1,,,,,ホッケンサービス,0
714,3430003016749,登記記録の閉鎖等,0,2025-02-13,2025-02-05,あびら製粉合同会社,,合同会社,北海道,勇払郡安平町,早来北進７１番地４７,,01,585,0591502,,,2025-02-05,清算の結了等,,,2024-09-04,1,,,,,アビラセイフン,0
736,4010403023361,登記記録の閉鎖等,0,2025-02-13,2025-01-20,ＫＯＫＯ　ＨＯＴＥＬ鹿児島天文館合同会社,,合同会社,東京都,港区,虎ノ門５丁目１番４号,,13,103,1050001,,,2025-01-20,清算の結了等,,,2020-07-28,1,,,,,ココホテルカゴシマテンモンカン,0
738,4010405018376,登記記録の閉鎖等,0,2025-02-13,2025-01-21,一般社団法人ＧＣシェアトラスト,,その他の設立登記法人,東京都,港区,南青山２丁目２４番１５号,,13,103,1070062,,,2025-01-21,清算の結了等,,,2020-01-07,1,,,,,ジーシーシェアトラスト,0
743,4010603004962,登記記録の閉鎖等,0,2025-02-13,2025-02-07,合同会社瑞穗,,合同会社,東京都,江東区,北砂２丁目１番３２号,,13,108,1360073,,,2025-02-07,清算の結了等,,,2015-10-05,1,,,,,ミズホ,0
749,4010901006801,登記記録の閉鎖等,0,2025-02-13,2025-02-06,株式会社ターゲンテックス,,株式会社,東京都,世田谷区,南烏山５丁目１番１３号,,13,112,1570062,,,2025-02-06,清算の結了等,,,2015-10-05,1,,,,,ターゲンテックス,0
750,4010901036641,登記記録の閉鎖等,0,2025-02-13,2025-02-10,ＫＭＡホールディングス株式会社,,株式会社,東京都,世田谷区,池尻３丁目２８番８号,,13,112,1540001,,,2025-02-10,合併による解散等,2140001042100,令和７年２月１日兵庫県丹波篠山市東吹３３６番地１合同会社デカンショパワー（2140001042100）に合併し解散,2015-10-05,1,,,,,ケーエムエーホールディングス,0
755,4011002025781,登記記録の閉鎖等,0,2025-02-13,2025-01-07,有限会社マウ,,有限会社,東京都,渋谷区,神宮前４丁目９番２号,,13,113,1500001,,,2025-01-07,清算の結了等,,,2015-10-05,1,,,,,マウ,0
756,4011003010329,登記記録の閉鎖等,0,2025-02-13,2025-01-15,ガナール合同会社,,合同会社,東京都,渋谷区,代官山町２０番９号,,13,113,1500034,,,2025-01-15,清算の結了等,,,2019-09-11,1,,,,,ガナール,0
767,4011103010410,登記記録の閉鎖等,0,2025-02-13,2025-02-04,合同会社ジェイ・ヴイ・キュー,,合同会社,東京都,新宿区,下宮比町１番４号,,13,104,1620822,,,2025-02-04,清算の結了等,,,2021-02-22,1,,,,,ジェイヴイキュー,0
771,4011303003833,登記記録の閉鎖等,0,2025-02-13,2025-02-06,くらすこ合同会社,,合同会社,東京都,杉並区,高円寺南４丁目７番３号サンシャイン高円寺８０３,,13,115,1660003,,,2025-02-06,清算の結了等,,,2020-11-25,1,,,,,クラスコ,0
782,4012701011246,登記記録の閉鎖等,0,2025-02-13,2025-02-10,株式会社グリフス,,株式会社,東京都,調布市,深大寺南町５丁目１８番地２４,,13,208,1820013,,,2025-02-10,清算の結了等,,,2015-10-05,1,,,,,グリフス,0
794,4020005014023,登記記録の閉鎖等,0,2025-02-13,2025-01-16,一般社団法人和食育協会,,その他の設立登記法人,東京都,目黒区,目黒３丁目１番地７－８０２号日生住宅目黒マンション,,13,110,1530063,,,2025-01-16,清算の結了等,,,2019-02-04,1,,,,,ワショクイクキョウカイ,0
799,4021002060563,登記記録の閉鎖等,0,2025-02-13,2025-02-07,有限会社富士製作所,,有限会社,東京都,多摩市,唐木田１丁目２４番地の１０,,13,224,2060035,,,2025-02-07,清算の結了等,,,2015-10-05,1,,,,,フジセイサクショ,0
802,4030001097087,登記記録の閉鎖等,0,2025-02-13,2025-02-06,一力企画株式会社,,株式会社,埼玉県,さいたま市大宮区,大成町２丁目１１２番地２,,11,103,3300852,,,2025-02-06,清算の結了等,,,2015-10-05,1,,,,,イチリキキカク,0
818,4060001029426,登記記録の閉鎖等,0,2025-02-13,2025-02-07,見目設備株式会社,,株式会社,栃木県,宇都宮市,江曽島本町６番５号,,09,201,3210101,,,2025-02-07,清算の結了等,,,2017-05-22,1,,,,,ケンモクセツビ,0
852,4122001025704,登記記録の閉鎖等,0,2025-02-13,2025-02-10,株式会社ライフ・プロテクト,,株式会社,大阪府,東大阪市,衣摺２丁目８番１９号,,27,227,5770827,,,2025-02-10,清算の結了等,,,2015-10-05,1,,,,,ライフプロテクト,0
864,4140003005879,登記記録の閉鎖等,0,2025-02-13,2025-02-07,合同会社銀の助．ＣＯＭ,,合同会社,兵庫県,明石市,魚住町金ケ崎１４８４番地の４３,,28,203,6740071,,,2025-02-07,清算の結了等,,,2015-10-05,1,,,,,ギンノスケドットコム,0
897,4270002001305,登記記録の閉鎖等,0,2025-02-13,2025-02-10,有限会社富士割烹,,有限会社,鳥取県,鳥取市,興南町４５番地,,31,201,6800844,,,2025-02-10,清算の結了等,,,2015-10-05,1,,,,,フジカッポウ,0
908,4290802007243,登記記録の閉鎖等,0,2025-02-13,2025-02-10,有限会社アリエルジャパン,,有限会社,福岡県,北九州市小倉北区,神岳１丁目３番１８号,,40,106,8020045,,,2025-02-10,清算の結了等,,,2015-10-05,1,,,,,アリエルジャパン,0
944,5010005024427,登記記録の閉鎖等,0,2025-02-13,2025-02-03,特定非営利活動法人日本サッカー指導者協会,,その他の設立登記法人,東京都,文京区,西片２丁目９番４号,,13,105,1130024,,,2025-02-03,清算の結了等,,,2015-10-05,1,,,,,ニホンサッカーシドウシャキョウカイ,0
953,5010403023360,登記記録の閉鎖等,0,2025-02-13,2025-01-20,ＫＯＫＯ　ＨＯＴＥＬ福岡天神合同会社,,合同会社,東京都,港区,虎ノ門５丁目１番４号,,13,103,1050001,,,2025-01-20,清算の結了等,,,2020-07-28,1,,,,,ココホテルフクオカテンジン,0
955,5010405020760,登記記録の閉鎖等,0,2025-02-13,2025-02-07,一般社団法人浜町神戸運営,,その他の設立登記法人,東京都,千代田区,五番町６番地２ＯＡＧ税理士法人内,,13,101,1020076,,,2025-02-07,清算の結了等,,,2022-03-01,1,,,,,ハマチョウコウベウンエイ,0
956,5010501012703,登記記録の閉鎖等,0,2025-02-13,2025-02-03,古澤プラスチツク工業株式会社,,株式会社,東京都,台東区,台東３丁目１１番６号,,13,106,1100016,,,2025-02-03,清算の結了等,,,2015-10-05,1,,,,,フルサワプラスチツクコウギョウ,0
959,5010601057482,登記記録の閉鎖等,0,2025-02-13,2025-02-03,株式会社ＦＰＳ,,株式会社,東京都,台東区,東上野３丁目１５番１３号,,13,106,1100015,,,2025-02-03,清算の結了等,,,2020-06-10,1,,,,,エフピーエス,0
963,5010901048875,登記記録の閉鎖等,0,2025-02-13,2025-02-10,株式会社円居－ＭＡＤＯｙ,,株式会社,東京都,世田谷区,東玉川２丁目５番２４号,,13,112,1580084,,,2025-02-10,合併による解散等,9010701019940,令和７年１月１日東京都渋谷区恵比寿四丁目２０番３号恵比寿ガーデンプレイスタワー１８階株式会社ケーズカラナリープランニング（9010701019940）に合併し解散,2021-06-15,1,,,,,マドイマドイ,0
977,5011101077038,登記記録の閉鎖等,0,2025-02-13,2025-01-29,株式会社コスミックス,,株式会社,東京都,千代田区,富士見１丁目８番１２号,,13,101,1020071,,,2025-01-29,清算の結了等,,,2016-05-19,1,,,,,コスミックス,0
1005,5020001146059,登記記録の閉鎖等,0,2025-02-13,2025-01-27,株式会社ＮＳＦ,,株式会社,神奈川県,川崎市麻生区,片平１５２１番地１３,,14,137,2150023,,,2025-01-27,清算の結了等,,,2022-04-12,1,,,,,エヌエスエフ,0
1009,5020002104503,登記記録の閉鎖等,0,2025-02-13,2025-01-28,有限会社寿運送,,有限会社,神奈川県,川崎市宮前区,初山２丁目７番３３号,,14,136,2160026,,,2025-01-28,清算の結了等,,,2015-10-05,1,,,,,コトブキウンソウ,0
1035,5050002021877,登記記録の閉鎖等,0,2025-02-13,2025-02-04,有限会社中尾工業,,有限会社,茨城県,つくば市,筑穂３丁目７番地１１,,08,220,3003257,,,2025-02-04,清算の結了等,,,2015-10-05,1,,,,,ナカオコウギョウ,0
1037,5060005004795,登記記録の閉鎖等,0,2025-02-13,2025-02-07,特定非営利活動法人野うさぎくらぶ,,その他の設立登記法人,栃木県,那須烏山市,東原１１番地１,,09,215,3210517,,,2025-02-07,清算の結了等,,,2015-10-05,1,,,,,ノウサギクラブ,0
1044,5080101008285,登記記録の閉鎖等,0,2025-02-13,2025-02-07,株式会社岡田組,,株式会社,静岡県,富士市,今泉字高尾奈５０３番地の１,,22,210,4170001,,,2025-02-07,清算の結了等,,,2015-10-05,1,,,,,オカダグミ,0
1074,5120102028006,登記記録の閉鎖等,0,2025-02-13,2025-02-06,有限会社ティティエー,,有限会社,大阪府,阪南市,鳥取中３４２番地,,27,232,5990211,,,2025-02-06,清算の結了等,,,2015-10-05,1,,,,,ティティエー,0
1079,5130001014543,登記記録の閉鎖等,0,2025-02-13,2025-02-10,山光化染株式会社,,株式会社,京都府,京都市伏見区,横大路千両松町１７２番地,,26,109,6128244,,,2025-02-10,清算の結了等,,,2015-10-05,1,,,,,,0
1082,5130001030169,登記記録の閉鎖等,0,2025-02-13,2025-02-10,真和クリエイション株式会社,,株式会社,京都府,長岡京市,奥海印寺太鼓山２２番地１１０,,26,209,6170853,,,2025-02-10,清算の結了等,,,2015-10-05,1,,,,,シンワクリエイション,0
1093,5160002009102,登記記録の閉鎖等,0,2025-02-13,2025-02-07,有限会社新田建築板金,,有限会社,滋賀県,犬上郡豊郷町,大字上枝１６２番地２,,25,441,5291166,,,2025-02-07,清算の結了等,,,2015-10-05,1,,,,,ニッタケンチクバンキン,0
1095,5180001007492,登記記録の閉鎖等,0,2025-02-13,2025-02-07,宮田鈑金株式会社,,株式会社,愛知県,名古屋市港区,築盛町３９番地,,23,111,4550057,,,2025-02-07,清算の結了等,,,2015-10-05,1,,,,,ミヤタバンキン,0
1096,5180001036938,登記記録の閉鎖等,0,2025-02-13,2025-02-07,株式会社住地ゴルフ,,株式会社,愛知県,名古屋市中区,錦３丁目６番３４号,,23,106,4600003,,,2025-02-07,合併による解散等,3013201010656,令和７年２月１日東京都千代田区丸の内三丁目３番１号新東京ビル９階９４６区株式会社住地ゴルフ（3013201010656）に合併し解散,2015-10-05,1,,,,,ジュウチゴルフ,0
1101,5180001139229,登記記録の閉鎖等,0,2025-02-13,2025-02-05,株式会社ＦＥＲＮＡ,,株式会社,愛知県,名古屋市中区,千代田３丁目１０番２号,,23,106,4600012,,,2025-02-05,清算の結了等,,,2019-12-12,1,,,,,フェルナ,0
1115,5230001014104,登記記録の閉鎖等,0,2025-02-13,2025-02-10,株式会社シー・カンパニー,,株式会社,富山県,南砺市,福光７９番地１,,16,210,9391610,,,2025-02-10,清算の結了等,,,2015-10-05,1,,,,,シーカンパニー,0
1116,5230001019573,登記記録の閉鎖等,0,2025-02-13,2025-02-07,株式会社アグリアップ,,株式会社,富山県,射水市,上条６６番地１５,,16,211,9390255,,,2025-02-07,清算の結了等,,,2022-11-02,1,,,,,アグリアップ,0
1117,5240001029290,登記記録の閉鎖等,0,2025-02-13,2025-02-10,Ｌｏｔｕｓ．株式会社,,株式会社,広島県,広島市中区,大手町１丁目４－５,,34,101,7300051,,,2025-02-10,清算の結了等,,,2015-10-05,1,,,,,ロータス,0
1126,5270005003470,登記記録の閉鎖等,0,2025-02-13,2025-02-10,医療法人社団高田内科医院,00004551,その他の設立登記法人,鳥取県,境港市,東雲町７番地,,31,204,6840015,,,2025-02-10,清算の結了等,,,2015-10-05,1,,,,,タカタナイカイイン,0
1151,5330005010337,登記記録の閉鎖等,0,2025-02-13,2025-02-05,一般社団法人ひのくにスマイルプロジェクト,,その他の設立登記法人,熊本県,菊池市,泗水町吉富３００番地６１,,43,210,8611201,,,2025-02-05,清算の結了等,,,2021-04-26,1,,,,,ヒノクニスマイルプロジェクト,0
1173,5490001007742,登記記録の閉鎖等,0,2025-02-13,2025-02-10,株式会社くらぶはーつ,,株式会社,高知県,高知市,宝町１５番９号,,39,201,7800914,,,2025-02-10,清算の結了等,,,2015-10-05,1,,,,,,0
1183,6010001204980,登記記録の閉鎖等,0,2025-02-13,2025-01-30,株式会社カイロス,,株式会社,東京都,千代田区,紀尾井町４番１号ニューオータニガーデンコート９階,,13,101,1020094,,,2025-01-30,清算の結了等,,,2019-10-29,1,,,,,カイロス,0
1188,6010002031664,登記記録の閉鎖等,0,2025-02-13,2025-01-29,有限会社アクジス,,有限会社,東京都,中央区,日本橋人形町１丁目１５番３号,,13,102,1030013,,,2025-01-29,清算の結了等,,,2015-10-05,1,,,,,アクジス,0
1204,6010505002419,登記記録の閉鎖等,0,2025-02-13,2025-02-05,一般社団法人日青塾,,その他の設立登記法人,愛知県,名古屋市東区,徳川２丁目１６番１６号,,23,102,4610025,,,2025-02-05,清算の結了等,,,2015-10-05,1,,,,,ニッセイジュク,0
1233,6011301027873,登記記録の閉鎖等,0,2025-02-13,2025-02-12,Ｆｕｔｕｒｅ　ｄｉｒｅｃｔｉｏｎ株式会社,,株式会社,東京都,杉並区,梅里２丁目２５番１３号高円寺プラザ２０３号,,13,115,1660011,,,2025-02-12,清算の結了等,,,2022-06-22,1,,,,,フーチャーディレクション,0
1242,6012402002559,登記記録の閉鎖等,0,2025-02-13,2025-02-12,有限会社マツモト,,有限会社,東京都,府中市,日新町５丁目１５番地の２４,,13,206,1830036,,,2025-02-12,清算の結了等,,,2015-10-05,1,,,,,マツモト,0
1262,6021002041289,登記記録の閉鎖等,0,2025-02-13,2025-02-10,有限会社水和,,有限会社,神奈川県,大和市,中央林間３丁目２１番２５号,,14,213,2420007,,,2025-02-10,清算の結了等,,,2015-10-05,1,,,,,スイワ,0
1272,6030002057278,登記記録の閉鎖等,0,2025-02-13,2025-02-03,有限会社ブルーアンプルール,,有限会社,埼玉県,桶川市,大字加納１０２番地の４,,11,231,3630001,,,2025-02-03,清算の結了等,,,2015-10-05,1,,,,,ブルーアンプルール,0
1276,6040001122544,登記記録の閉鎖等,0,2025-02-13,2025-02-06,株式会社ベジトル,,株式会社,千葉県,市原市,ちはら台東１丁目１１－２,,12,219,2900141,,,2025-02-06,清算の結了等,,,2022-03-04,1,"Vegetoru, Inc.",,,,ベジトル,0
1282,6060005006725,登記記録の閉鎖等,0,2025-02-13,2025-02-06,特定非営利活動法人まつむら森林倶楽部,,その他の設立登記法人,栃木県,足利市,大門通２３８０番地,,09,202,3260812,,,2025-02-06,清算の結了等,,,2015-10-05,1,,,,,マツムラシンリンクラブ,0
1333,6180301036793,登記記録の閉鎖等,0,2025-02-13,2025-02-04,株式会社ＭＡＲＣＥＲ,,株式会社,愛知県,西尾市,伊藤町村４番地４,,23,213,4450806,,,2025-02-04,清算の結了等,,,2022-11-09,1,,,,,マーサー,0
1340,6220005008713,登記記録の閉鎖等,0,2025-02-13,2025-02-03,一般社団法人ｓｐｉｐ,,その他の設立登記法人,石川県,金沢市,西金沢２丁目８２番地,,17,201,9218054,,,2025-02-03,清算の結了等,,,2022-11-10,1,,,,,スピップ,0
1352,6290001050423,登記記録の閉鎖等,0,2025-02-13,2025-01-28,株式会社ケイ・ツー環境計画,,株式会社,福岡県,小郡市,津古１１９８番地の５８,,40,216,8380102,,,2025-01-28,清算の結了等,,,2015-10-05,1,,,,,ケイツーカンキョウケイカク,0
1371,6330001017946,登記記録の閉鎖等,0,2025-02-13,2025-02-06,西穂建設株式会社,,株式会社,熊本県,合志市,幾久富１９０９番地１４０８,,43,216,8611112,,,2025-02-06,清算の結了等,,,2015-10-05,1,,,,,セイホケンセツ,0
1382,6370003006381,登記記録の閉鎖等,0,2025-02-13,2025-02-06,合同会社ＨＤＴ東北センター,,合同会社,宮城県,仙台市宮城野区,東仙台４丁目２番７６号,,04,102,9830833,,,2025-02-06,清算の結了等,,,2023-11-24,1,,,,,エイチディティトウホクセンター,0
1388,6400002000084,登記記録の閉鎖等,0,2025-02-13,2025-02-03,青葉工業有限会社,,有限会社,岩手県,盛岡市,三本柳１０地割６１番地９,,03,201,0200831,,,2025-02-03,清算の結了等,,,2015-10-05,1,,,,,アオバコウギョウ,0
1394,6490002000349,登記記録の閉鎖等,0,2025-02-13,2025-02-07,有限会社みやび美装,,有限会社,高知県,香南市,野市町みどり野１丁目１０番地,,39,211,7815206,,,2025-02-07,清算の結了等,,,2015-10-05,1,,,,,ミヤビビソウ,0
1406,7010101011954,登記記録の閉鎖等,0,2025-02-13,2025-02-07,株式会社菊池ハイテクサプライ,,株式会社,東京都,八王子市,美山町２１６１番地２１,,13,201,1920152,,,2025-02-07,清算の結了等,,,2015-10-05,1,,,,,キクチハイテクサプライ,0
1408,7010401106470,登記記録の閉鎖等,0,2025-02-13,2025-02-07,株式会社ＯＺｓｏｆｔ,,株式会社,東京都,千代田区,外神田２丁目１０番７号,,13,101,1010021,,,2025-02-07,合併による解散等,1011001098377,令和７年１月１日東京都目黒区目黒一丁目２４番１２号ＡＬＨ株式会社（1011001098377）に合併し解散,2015-10-05,1,,,,,オズソフト,0
1409,7010401181423,登記記録の閉鎖等,0,2025-02-13,2025-01-21,株式会社Ｒｅｕｎｉｏｎ,,株式会社,東京都,港区,北青山１丁目３番１号アールキューブ青山３階,,13,103,1070061,,,2025-01-21,清算の結了等,,,2024-04-05,1,,,,,リユニオン,0
1439,7011101062186,登記記録の閉鎖等,0,2025-02-13,2025-02-03,株式会社Ｓ＆Ｋ,,株式会社,東京都,新宿区,百人町２丁目２４番１０号,,13,104,1690073,,,2025-02-03,清算の結了等,,,2015-10-05,1,,,,,エスアンドケー,0
1451,7011801038849,登記記録の閉鎖等,0,2025-02-13,2025-02-04,Ｗａｌｌａｂｙｓｏｆｔ株式会社,,株式会社,東京都,葛飾区,柴又３丁目３６番１－６０５号オーベル金町エアーズ,,13,122,1250052,,,2025-02-04,清算の結了等,,,2021-03-08,1,,,,,ワラビーソフト,0
1459,7012301011222,登記記録の閉鎖等,0,2025-02-13,2025-02-07,株式会社Ｃｈｅｒｉｅ,,株式会社,東京都,町田市,成瀬２丁目１８番地５,,13,209,1940044,,,2025-02-07,清算の結了等,,,2017-12-19,1,,,,,シェリー,0
1489,7021002036346,登記記録の閉鎖等,0,2025-02-13,2025-02-10,有限会社中村工芸,,有限会社,神奈川県,愛甲郡愛川町,三増１３８３番地１,,14,401,2430308,,,2025-02-10,清算の結了等,,,2015-10-05,1,,,,,ナカムラコウゲイ,0
1500,7030002096077,登記記録の閉鎖等,0,2025-02-13,2025-02-06,有限会社千代田工務店,,有限会社,埼玉県,東松山市,大字早俣７２番地,,11,212,3550043,,,2025-02-06,清算の結了等,,,2015-10-05,1,,,,,チヨダコウムテン,0
1503,7030003016109,登記記録の閉鎖等,0,2025-02-13,2025-02-06,合同会社セディアデザイン,,合同会社,埼玉県,狭山市,柏原１９０２番地の７,,11,215,3501335,,,2025-02-06,清算の結了等,,,2020-10-30,1,,,,,セディアデザイン,0
1507,7040002042666,登記記録の閉鎖等,0,2025-02-13,2025-02-06,有限会社Ｔ・Ｒ・Ｃ,,有限会社,千葉県,鎌ケ谷市,西佐津間１丁目２４番２４号,,12,224,2730134,,,2025-02-06,清算の結了等,,,2015-10-05,1,,,,,ティーアールシー,0
1512,7050001024870,登記記録の閉鎖等,0,2025-02-13,2025-02-04,華安商事株式会社,,株式会社,茨城県,日立市,会瀬町３丁目２４番１－５０１号,,08,202,3170076,,,2025-02-04,清算の結了等,,,2015-10-05,1,,,,,カアンショウジ,0
1522,7070002017649,登記記録の閉鎖等,0,2025-02-13,2025-01-29,ニッタル運輸有限会社,,有限会社,群馬県,藤岡市,上大塚２４８番地の９,,10,209,3750054,,,2025-01-29,清算の結了等,,,2015-10-05,1,,,,,ニッタルウンユ,0
1523,7080001008301,登記記録の閉鎖等,0,2025-02-13,2025-02-06,株式会社篠田工業,,株式会社,静岡県,静岡市清水区,山切５０４番地の１,,22,103,4240105,,,2025-02-06,清算の結了等,,,2015-10-05,1,,,,,シノダコウギョウ,0
1524,7080003003044,登記記録の閉鎖等,0,2025-02-13,2025-02-10,合同会社ライブラ,,合同会社,静岡県,静岡市駿河区,下川原６丁目３０番１,,22,102,4210113,,,2025-02-10,合併による解散等,8180001161782,令和７年２月１日名古屋市北区平安二丁目１４番１号株式会社プラネット（8180001161782）に合併し解散,2023-08-29,1,,,,,ライブラ,0
1546,7120101053358,登記記録の閉鎖等,0,2025-02-13,2025-02-10,株式会社井原工業,,株式会社,大阪府,堺市堺区,御陵通２番６号,,27,141,5900057,,,2025-02-10,清算の結了等,,,2015-10-05,1,,,,,イハラコウギョウ,0
1561,7140003007591,登記記録の閉鎖等,0,2025-02-13,2025-02-06,合資会社葵屋呉服店,,合資会社,兵庫県,西宮市,越水町７番８号,,28,204,6620864,,,2025-02-06,清算の結了等,,,2015-10-05,1,,,,,アオイヤゴフクテン,0
1562,7140003020314,登記記録の閉鎖等,0,2025-02-13,2025-02-05,Ｂｅａｎｓｔａｌｋ合同会社,,合同会社,兵庫県,西宮市,甲東園１丁目１番６号,,28,204,6620812,,,2025-02-05,清算の結了等,,,2024-04-17,1,,,,,ビーンストーク,0
1564,7150001012444,登記記録の閉鎖等,0,2025-02-13,2025-02-12,株式会社エミール,,株式会社,奈良県,葛城市,東室１４３番地の１,,29,211,6392102,,,2025-02-12,清算の結了等,,,2015-10-05,1,,,,,エミール,0
1567,7160001006370,登記記録の閉鎖等,0,2025-02-13,2025-02-07,株式会社エムメンタル,,株式会社,滋賀県,草津市,渋川２丁目７番２８号,,25,206,5250026,,,2025-02-07,清算の結了等,,,2015-10-05,1,,,,,エムメンタル,0
1573,7180001133741,登記記録の閉鎖等,0,2025-02-13,2025-02-05,株式会社レオウェイズ,,株式会社,愛知県,名古屋市名東区,高社１丁目８９番地,,23,115,4650095,,,2025-02-05,清算の結了等,,,2018-09-20,1,,,,,レオウェイズ,0
1582,7180303001704,登記記録の閉鎖等,0,2025-02-13,2025-02-05,合同会社イーグルネパール,,合同会社,愛知県,豊橋市,神野新田町字ヲノ割１７番地３,,23,201,4418077,,,2025-02-05,清算の結了等,,,2015-10-05,1,,,,,イーグルネパール,0
1608,7320003002475,登記記録の閉鎖等,0,2025-02-13,2025-02-03,合同会社チャレンジスター,,合同会社,大分県,宇佐市,大字上田２１１１番地の１,,44,211,8790453,,,2025-02-03,合併による解散等,2320001018222,令和７年２月１日大分県宇佐市大字上田２１１１番地の１株式会社ウィルプラス（2320001018222）に合併し解散,2016-09-06,1,,,,,,0
1609,7320003002541,登記記録の閉鎖等,0,2025-02-13,2025-02-03,合同会社チャレンジグリット,,合同会社,大分県,宇佐市,大字上田２１１１番地の１,,44,211,8790453,,,2025-02-03,合併による解散等,2320001018222,令和７年２月１日大分県宇佐市大字上田２１１１番地の１株式会社ウィルプラス（2320001018222）に合併し解散,2017-01-31,1,,,,,,0
1622,7360002004758,登記記録の閉鎖等,0,2025-02-13,2025-02-10,有限会社リフォームハイテク,,有限会社,沖縄県,豊見城市,字高安５番地,,47,212,9010242,,,2025-02-10,清算の結了等,,,2015-10-05,1,,,,,リフォームハイテク,0
1628,7380001001762,登記記録の閉鎖等,0,2025-02-13,2025-02-05,株式会社ヤマモト,,株式会社,福島県,福島市,北中央３丁目７番地の１,,07,201,9608072,,,2025-02-05,清算の結了等,,,2015-10-05,1,,,,,ヤマモト,0
1630,7410001011080,登記記録の閉鎖等,0,2025-02-13,2025-02-06,株式会社秋田電気管理センター,,株式会社,秋田県,秋田市,川尻総社町４番１６号,,05,201,0100946,,,2025-02-06,清算の結了等,,,2016-01-19,1,,,,,アキタデンキカンリセンター,0
1631,7450001007645,登記記録の閉鎖等,0,2025-02-13,2025-02-07,株式会社船木電機,,株式会社,北海道,士別市,東一条１４丁目３１４４番地,,01,220,0950011,,,2025-02-07,清算の結了等,,,2015-10-05,1,,,,,フナキデンキ,0
1641,8010005022618,登記記録の閉鎖等,0,2025-02-13,2025-02-07,一般社団法人咲羅ホールディングス,,その他の設立登記法人,東京都,中央区,京橋１丁目１１番１号関電不動産八重洲ビル３Ｆ,,13,102,1040031,,,2025-02-07,清算の結了等,,,2015-10-05,1,,,,,サクラホールディングス,0
1643,8010005033103,登記記録の閉鎖等,0,2025-02-13,2025-02-06,一般社団法人医事薬事通訳国際教育推進機構,,その他の設立登記法人,東京都,中央区,銀座１丁目２２番１１号,,13,102,1040061,,,2025-02-06,清算の結了等,,,2021-03-23,1,,,,,イジヤクジツウヤクコクサイキョウイクスイシンキコウ,0
1651,8010401118416,登記記録の閉鎖等,0,2025-02-13,2025-01-31,株式会社インターステム,,株式会社,東京都,港区,海岸１丁目２番２０号汐留ビルディング２０階,,13,103,1050022,,,2025-01-31,清算の結了等,,,2015-10-05,1,,,,,インターステム,0
1652,8010401143546,登記記録の閉鎖等,0,2025-02-13,2025-01-21,株式会社リトビズ,,株式会社,東京都,港区,新橋２丁目１２番７号労金新橋ビル４階,,13,103,1050004,,,2025-01-21,清算の結了等,,,2019-02-04,1,,,,,リトビズ,0
1659,8010403023358,登記記録の閉鎖等,0,2025-02-13,2025-01-20,ＫＯＫＯ　ＨＯＴＥＬ札幌駅前合同会社,,合同会社,東京都,港区,虎ノ門５丁目１番４号,,13,103,1050001,,,2025-01-20,清算の結了等,,,2020-07-28,1,,,,,ココホテルサッポロエキマエ,0
1663,8010405012433,登記記録の閉鎖等,0,2025-02-13,2025-01-22,一般社団法人ブロケード,,その他の設立登記法人,東京都,港区,虎ノ門３丁目２２番１０－２０１号,,13,103,1050001,,,2025-01-22,清算の結了等,,,2015-10-05,1,,,,,ブロケード,0
1667,8010501031139,登記記録の閉鎖等,0,2025-02-13,2025-01-21,株式会社オフィス・メイト,,株式会社,東京都,港区,芝３丁目８番２号,,13,103,1050014,,,2025-01-21,清算の結了等,,,2015-10-05,1,,,,,オフィスメイト,0
1669,8010502000209,登記記録の閉鎖等,0,2025-02-13,2025-02-03,有限会社アートルーム沾,,有限会社,東京都,台東区,根岸２丁目２１番１３号ジョイフル根岸２０７,,13,106,1100003,,,2025-02-03,清算の結了等,,,2015-10-05,1,,,,,アートルームセン,0
1671,8010701025898,登記記録の閉鎖等,0,2025-02-13,2025-02-07,株式会社アダムアップ,,株式会社,東京都,港区,浜松町２丁目７番１６号第３小森谷ビル別館８Ｆ,,13,103,1050013,,,2025-02-07,合併による解散等,4180001064353,令和７年２月１日名古屋市中村区名駅南一丁目３番１８号株式会社総合システムリサーチ（4180001064353）に合併し解散,2015-10-05,1,,,,,アダムアップ,0
1673,8010901001658,登記記録の閉鎖等,0,2025-02-13,2025-02-12,映電工業株式会社,,株式会社,神奈川県,鎌倉市,坂ノ下２７番１２－４０５号,,14,204,2480021,,,2025-02-12,清算の結了等,,,2015-10-05,1,,,,,エイデンコウギョウ,0
1679,8010905000391,登記記録の閉鎖等,0,2025-02-13,2025-01-29,紀米花教会,,その他の設立登記法人,東京都,世田谷区,赤堤５丁目２１番９号,,13,112,1560044,,,2025-01-29,清算の結了等,,,2015-10-05,1,,,,,キメハナキョウカイ,0
1706,8020002046759,登記記録の閉鎖等,0,2025-02-13,2025-01-27,有限会社塚越工務店,00010992,有限会社,神奈川県,横浜市緑区,長津田７丁目１３番２８号,,14,113,2260027,,,2025-01-27,清算の結了等,,,2015-10-05,1,,,,,,0
1712,8020003013130,登記記録の閉鎖等,0,2025-02-13,2025-01-28,合同会社Ｕ＆Ｌ,,合同会社,神奈川県,横浜市中区,本郷町３丁目１７１番地４,,14,104,2310843,,,2025-01-28,清算の結了等,,,2017-08-09,1,,,,,ユーアンドエル,0
1717,8021001037476,登記記録の閉鎖等,0,2025-02-13,2025-02-10,株式会社望月糸店,,株式会社,神奈川県,平塚市,紅谷町３番１０－１０３号,,14,203,2540043,,,2025-02-10,清算の結了等,,,2015-10-05,1,,,,,モチヅキイトテン,0
1743,8080102015039,登記記録の閉鎖等,0,2025-02-13,2025-02-07,有限会社増田工業,,有限会社,静岡県,富士市,大渕２８０２番地の５,,22,210,4170000,,,2025-02-07,清算の結了等,,,2015-10-05,1,,,,,マスダコウギョウ,0
1764,8120901026512,登記記録の閉鎖等,0,2025-02-13,2025-02-04,桜観光株式会社,,株式会社,大阪府,豊中市,東豊中町５丁目２５番５号,,27,203,5600003,,,2025-02-04,清算の結了等,,,2015-10-05,1,,,,,サクラカンコウ,0
1767,8130002027764,登記記録の閉鎖等,0,2025-02-13,2025-02-10,有限会社Ｓ．Ｋ．Ｙ,,有限会社,京都府,久世郡久御山町,林宮ノ後６６番地の１６,,26,322,6130033,,,2025-02-10,清算の結了等,,,2015-10-05,1,,,,,エスケーワイ,0
1773,8140001125139,登記記録の閉鎖等,0,2025-02-13,2025-02-07,株式会社ｙａｓｓ,,株式会社,兵庫県,神戸市中央区,磯上通４丁目１－１４,,28,110,6510086,,,2025-02-07,清算の結了等,,,2022-03-03,1,,,,,ヤース,0
1783,8180001085593,登記記録の閉鎖等,0,2025-02-13,2025-02-04,株式会社アイホクグローバル,,株式会社,愛知県,一宮市,浅野字大西東２９番地２,,23,203,4910871,,,2025-02-04,合併による解散等,9180001104294,令和７年２月１日愛知県一宮市浅野字大西東２９番地２株式会社アイホクエステート（9180001104294）に合併し解散,2015-10-05,1,,,,,アイホクグローバル,0
1807,8290001005160,登記記録の閉鎖等,0,2025-02-13,2025-01-29,株式会社こうや,,株式会社,福岡県,福岡市早良区,室住団地３２番２０１号,,40,137,8140035,,,2025-01-29,清算の結了等,,,2015-10-05,1,,,,,コウヤ,0
1831,8400001009216,登記記録の閉鎖等,0,2025-02-13,2025-02-03,株式会社集和建工,,株式会社,岩手県,岩手郡葛巻町,葛巻第２８地割６３番地２３,,03,302,0285402,,,2025-02-03,清算の結了等,,,2015-10-05,1,,,,,シュウワケンコウ,0
1833,8400002002070,登記記録の閉鎖等,0,2025-02-13,2025-02-03,有限会社千葉工業,,有限会社,岩手県,盛岡市,三本柳１０地割６１番地９,,03,201,0200831,,,2025-02-03,清算の結了等,,,2015-10-05,1,,,,,チバコウギョウ,0
1839,8470002000976,登記記録の閉鎖等,0,2025-02-13,2025-02-12,有限会社伊藤建工,,有限会社,香川県,高松市,鬼無町是竹５５１番地７,,37,201,7618021,,,2025-02-12,清算の結了等,,,2015-10-05,1,,,,,,0
1854,9010005030173,登記記録の閉鎖等,0,2025-02-13,2025-02-07,ＴＦＪ２一般社団法人,,その他の設立登記法人,東京都,中央区,八丁堀４丁目２番１０号ＡＯＪ税理士法人内,,13,102,1040032,,,2025-02-07,清算の結了等,,,2019-05-15,1,,,,,ティーエフジェーツー,0
1860,9010401177808,登記記録の閉鎖等,0,2025-02-13,2025-01-22,Ｌｏｃｕｓ　Ｒｏｂｏｔｉｃｓ　Ｃｏｒｐ　Ｊａｐａｎ株式会社,,株式会社,東京都,港区,元麻布３丁目１番６号,,13,103,1060046,,,2025-01-22,清算の結了等,,,2023-10-16,1,,,,,ローカスロボティクスコープジャパン,0
1873,9010501005307,登記記録の閉鎖等,0,2025-02-13,2025-02-03,株式会社新日本ピーアール,,株式会社,東京都,台東区,浅草橋３丁目３３番２号筑波ビル,,13,106,1110053,,,2025-02-03,清算の結了等,,,2015-10-05,1,,,,,シンニホンピーアール,0
1881,9010702008777,登記記録の閉鎖等,0,2025-02-13,2025-01-30,有限会社吉村不動産,,有限会社,東京都,品川区,旗の台３丁目１１番１３号,,13,109,1420064,,,2025-01-30,清算の結了等,,,2015-10-05,1,,,,,ヨシムラフドウサン,0
1893,9011001072845,登記記録の閉鎖等,0,2025-02-13,2025-02-04,株式会社ヒューズ,,株式会社,東京都,新宿区,西新宿８丁目３番１号西新宿ＧＦビル,,13,104,1600023,,,2025-02-04,清算の結了等,,,2015-10-05,1,,,,,ヒューズ,0
1902,9011003014671,登記記録の閉鎖等,0,2025-02-13,2025-01-14,Ｎｅｓｓ‐Ａ合同会社,,合同会社,東京都,渋谷区,渋谷２丁目１９番１５－６０９号宮益坂ビルディング,,13,113,1500002,,,2025-01-14,清算の結了等,,,2022-05-26,1,,,,,ネスエー,0
1936,9012701004864,登記記録の閉鎖等,0,2025-02-13,2025-02-06,株式会社シーブイジェイ,,株式会社,東京都,清瀬市,元町１丁目１２番２号,,13,221,2040021,,,2025-02-06,清算の結了等,,,2015-10-05,1,,,,,シーブイジェイ,0
1947,9020001065313,登記記録の閉鎖等,0,2025-02-13,2025-01-30,株式会社須川映像技術研究所,00009704,株式会社,神奈川県,川崎市麻生区,下麻生２丁目４０番１２号,,14,137,2150022,,,2025-01-30,清算の結了等,,,2015-10-05,1,,,,,スガワエイゾウギジュツケンキュウジョ,0
1962,9030002062820,登記記録の閉鎖等,0,2025-02-13,2025-02-06,有限会社上田建設,,有限会社,埼玉県,富士見市,大字水子４５３０番地,,11,235,3540011,,,2025-02-06,清算の結了等,,,2015-10-05,1,,,,,ウエダケンセツ,0
1967,9040002070426,登記記録の閉鎖等,0,2025-02-13,2025-02-07,有限会社根岸養鶏場,,有限会社,千葉県,君津市,戸崎２６１３番地,,12,225,2920441,,,2025-02-07,清算の結了等,,,2015-10-05,1,,,,,ネギシヨウケイジョウ,0
1983,9110002032567,登記記録の閉鎖等,0,2025-02-13,2025-02-10,有限会社セイブシステム,,有限会社,新潟県,長岡市,新陽１丁目１番地,,15,202,9402147,,,2025-02-10,清算の結了等,,,2015-10-05,1,,,,,セイブシステム,0
2029,9180001148779,登記記録の閉鎖等,0,2025-02-13,2025-02-06,株式会社ＡＩＭ,,株式会社,愛知県,愛西市,西保町石暮４４番地１５,,23,232,4960911,,,2025-02-06,清算の結了等,,,2021-11-17,1,,,,,エーアイエム,0
2033,9180003016199,登記記録の閉鎖等,0,2025-02-13,2025-02-05,合同会社ミトカレー,,合同会社,愛知県,名古屋市港区,小碓４丁目３２０番地宝小碓ハイツ１１２号,,23,111,4550801,,,2025-02-05,清算の結了等,,,2015-10-05,1,,,,,ミトカレー,0
2048,9240005010615,登記記録の閉鎖等,0,2025-02-13,2025-02-10,農事組合法人池の迫池組合,,その他の設立登記法人,広島県,尾道市,門田町１４番１８号,,34,205,7220017,,,2025-02-10,清算の結了等,,,2015-10-05,1,,,,,イケノサコイケクミアイ,0
2051,9260002028740,登記記録の閉鎖等,0,2025-02-13,2025-02-06,有限会社竹本薬品商会,,有限会社,岡山県,津山市,小原６１番地の８,,33,203,7080001,,,2025-02-06,清算の結了等,,,2015-10-05,1,,,,,タケモトヤクヒンショウカイ,0
2054,9270002006159,登記記録の閉鎖等,0,2025-02-13,2025-02-10,有限会社スタジオ・モリヤス,,有限会社,鳥取県,米子市,道笑町４丁目８７番地３,,31,202,6830064,,,2025-02-10,清算の結了等,,,2015-10-05,1,,,,,スタジオモリヤス,0
2085,9360001006167,登記記録の閉鎖等,0,2025-02-13,2025-01-31,株式会社ティンガーラ,,株式会社,沖縄県,中頭郡北中城村,字島袋１４４９番地,,47,327,9012301,,,2025-01-31,清算の結了等,,,2015-10-05,1,,,,,ティンガーラ,0
2104,9500001022406,登記記録の閉鎖等,0,2025-02-13,2025-02-07,スリーエス四国株式会社,,株式会社,愛媛県,西予市,宇和町上松葉６０１番地１,,38,214,7970046,,,2025-02-07,清算の結了等,,,2019-12-06,1,,,,,スリーエスシコク,0
