sequenceNumber,corporateNumber,process,correct,updateDate,changeDate,name,nameImageId,kind,prefectureName,cityName,streetNumber,addressImageId,prefectureCode,cityCode,postCode,addressOutside,addressOutsideImageId,closeDate,closeCause,successorCorporateNumber,changeCause,assignmentDate,latest,enName,enPrefectureName,enCityName,enAddressOutside,furigana,hihyoji
6,1010003031073,登記記録の閉鎖等,0,2023-02-21,2023-02-15,日光Ｐｌｕｓ１１合同会社８,,合同会社,東京都,千代田区,丸の内３丁目１番１号東京共同会計事務所内,,13,101,1000005,,,2023-02-15,清算の結了等,,,2019-11-15,1,,,,,ニッコウプラスイレブンハチ,0
22,1010702011004,登記記録の閉鎖等,0,2023-02-21,2023-02-16,有限会社ハナオカ企画印刷,,有限会社,東京都,品川区,東五反田３丁目１６番４６号,,13,109,1410022,,,2023-02-16,清算の結了等,,,2015-10-05,1,,,,,ハナオカキカクインサツ,0
50,1011802012577,登記記録の閉鎖等,0,2023-02-21,2023-02-17,有限会社國府田製作所,,有限会社,東京都,足立区,保木間４丁目１番１０号,,13,121,1210064,,,2023-02-17,清算の結了等,,,2015-10-05,1,,,,,コウダセイサクジョ,0
53,1013301046899,登記記録の閉鎖等,0,2023-02-21,2023-02-10,株式会社ＮＦＣホールディングス,,株式会社,東京都,新宿区,新宿５丁目１７番１８号,,13,104,1600022,,,2023-02-10,合併による解散等,6010401167497,令和５年２月１日東京都港区虎ノ門四丁目１番２８号虎ノ門タワーズオフィス１７階株式会社ＡＰ７３（6010401167497）に合併し解散,2021-02-03,1,,,,,エヌエフシーホールディングス,0
54,1020001018807,登記記録の閉鎖等,0,2023-02-21,2023-02-13,株式会社丸千,,株式会社,神奈川県,横浜市神奈川区,白楽９１番地１,,14,102,2210065,,,2023-02-13,清算の結了等,,,2015-10-05,1,,,,,マルセン,0
61,1020002034588,登記記録の閉鎖等,0,2023-02-21,2023-02-13,有限会社タグチ精工,,有限会社,神奈川県,横浜市港北区,箕輪町２丁目１８番２７号,,14,109,2230051,,,2023-02-13,清算の結了等,,,2015-10-05,1,,,,,タグチセイコウ,0
84,1040002069351,登記記録の閉鎖等,0,2023-02-21,2023-02-17,株式会社昭和車両,,株式会社,千葉県,木更津市,真里６９１番地,,12,206,2920212,,,2023-02-17,清算の結了等,,,2015-10-05,1,,,,,ショウワシャリョウ,0
86,1040002082528,登記記録の閉鎖等,0,2023-02-21,2023-02-16,日新工業有限会社,,有限会社,千葉県,長生郡一宮町,一宮４２８７番地６,,12,421,2994301,,,2023-02-16,清算の結了等,,,2015-10-05,1,,,,,ニッシンコウギョウ,0
89,1040003016014,登記記録の閉鎖等,0,2023-02-21,2023-02-17,アクトチューン合同会社,,合同会社,神奈川県,横浜市南区,永田山王台２３番１６号,,14,105,2320074,,,2023-02-17,清算の結了等,,,2020-09-02,1,,,,,アクトチューン,0
139,1140001127991,登記記録の閉鎖等,0,2023-02-21,2023-02-16,株式会社サイン,,株式会社,兵庫県,西宮市,西宮浜３丁目２９番,,28,204,6620934,,,2023-02-16,清算の結了等,,,2022-11-07,1,,,,,サイン,0
150,1180001083620,登記記録の閉鎖等,0,2023-02-21,2023-02-16,株式会社フジタ電器,,株式会社,愛知県,一宮市,丹陽町重吉字新道９２７番地１,,23,203,4910821,,,2023-02-16,清算の結了等,,,2015-10-05,1,,,,,フジタデンキ,0
159,1210001007609,登記記録の閉鎖等,0,2023-02-21,2023-02-17,株式会社西野造園,,株式会社,福井県,坂井市,丸岡町一本田中第３４号４１番地,,18,210,9100253,,,2023-02-17,清算の結了等,,,2015-10-05,1,,,,,ニシノゾウエン,0
172,1290002035964,登記記録の閉鎖等,0,2023-02-21,2023-02-17,有限会社アサヒ製作所,,有限会社,福岡県,糟屋郡宇美町,大字井野４３２番地,,40,341,8112104,,,2023-02-17,清算の結了等,,,2015-10-05,1,,,,,アサヒセイサクショ,0
175,1310002004009,登記記録の閉鎖等,0,2023-02-21,2023-02-20,有限会社中村米穀,,有限会社,長崎県,長崎市,茂木町１８０７番地２,,42,201,8510241,,,2023-02-20,清算の結了等,,,2015-10-05,1,,,,,ナカムラベイコク,0
192,1390002009421,登記記録の閉鎖等,0,2023-02-21,2023-02-16,有限会社シブヤ商会,,有限会社,山形県,鶴岡市,山王町１１番５号,,06,203,9970028,,,2023-02-16,清算の結了等,,,2015-10-05,1,,,,,シブヤショウカイ,0
198,1430001007479,登記記録の閉鎖等,0,2023-02-21,2023-02-20,株式会社シン商事,,株式会社,北海道,札幌市豊平区,福住一条５丁目３番１８号,,01,105,0620041,,,2023-02-20,清算の結了等,,,2015-10-05,1,,,,,シンショウジ,0
208,1490002003950,登記記録の閉鎖等,0,2023-02-21,2023-02-20,有限会社西村工業,,有限会社,高知県,高知市,北川添２２番１４号,,39,201,7800081,,,2023-02-20,清算の結了等,,,2015-10-05,1,,,,,ニシムラコウギョウ,0
210,1500002013741,登記記録の閉鎖等,0,2023-02-21,2023-02-17,有限会社マルチメディアコーポレーション,,有限会社,愛媛県,八幡浜市,産業通２番１３号,,38,204,7968004,,,2023-02-17,清算の結了等,,,2015-10-05,1,,,,,マルチメディアコーポレーション,0
224,2010003031072,登記記録の閉鎖等,0,2023-02-21,2023-02-15,日光Ｐｌｕｓ１１合同会社７,,合同会社,東京都,千代田区,丸の内３丁目１番１号東京共同会計事務所内,,13,101,1000005,,,2023-02-15,清算の結了等,,,2019-11-15,1,,,,,ニッコウプラスイレブンナナ,0
241,2010405017470,登記記録の閉鎖等,0,2023-02-21,2023-02-08,日本橋キャピタル一般社団法人,,その他の設立登記法人,東京都,港区,六本木１丁目６番１号泉ガーデンタワー,,13,103,1060032,,,2023-02-08,清算の結了等,,,2019-02-15,1,,,,,ニホンバシキャピタル,0
244,2010601052453,登記記録の閉鎖等,0,2023-02-21,2023-02-20,東京物産インターナショナル株式会社,,株式会社,静岡県,焼津市,駅北１丁目２番２４号クリオ焼津壱番館１１０４,,22,212,4250028,,,2023-02-20,清算の結了等,,,2017-11-10,1,,,,,トウキョウブッサンインターナショナル,0
287,2020002079450,登記記録の閉鎖等,0,2023-02-21,2023-02-17,東洋テック有限会社,,有限会社,東京都,足立区,千住仲町１６番５,,13,121,1200036,,,2023-02-17,清算の結了等,,,2015-10-05,1,,,,,トウヨウテック,0
300,2030002031154,登記記録の閉鎖等,0,2023-02-21,2023-02-15,有限会社丸仲建築,,有限会社,埼玉県,所沢市,大字下安松１５２６番地の２,,11,208,3590024,,,2023-02-15,清算の結了等,,,2015-10-05,1,,,,,マルナカケンチク,0
318,2060001018653,登記記録の閉鎖等,0,2023-02-21,2023-02-16,株式会社佐竹,,株式会社,栃木県,足利市,常盤町１番地１,,09,202,3260026,,,2023-02-16,清算の結了等,,,2015-10-05,1,,,,,サタケ,0
368,2140001127999,登記記録の閉鎖等,0,2023-02-21,2023-02-16,株式会社コサイン,,株式会社,兵庫県,西宮市,西宮浜３丁目２９番,,28,204,6620934,,,2023-02-16,清算の結了等,,,2022-11-10,1,,,,,コサイン,0
373,2150001010816,登記記録の閉鎖等,0,2023-02-21,2023-02-14,株式会社西田昭和堂,,株式会社,奈良県,橿原市,八木町３丁目８番３７号,,29,205,6340078,,,2023-02-14,清算の結了等,,,2015-10-05,1,,,,,ニシダショウワドウ,0
374,2150001015798,登記記録の閉鎖等,0,2023-02-21,2023-02-15,戌亥電機工業株式会社,,株式会社,奈良県,吉野郡大淀町,大字桧垣本１３５３番地,,29,442,6380812,,,2023-02-15,清算の結了等,,,2015-10-05,1,,,,,,0
380,2180001083149,登記記録の閉鎖等,0,2023-02-21,2023-02-14,株式会社ティーエムシー,,株式会社,愛知県,一宮市,末広１丁目５番２１号,,23,203,4910918,,,2023-02-14,清算の結了等,,,2015-10-05,1,,,,,ティーエムシー,0
385,2180002011505,登記記録の閉鎖等,0,2023-02-21,2023-02-16,有限会社ススム,,有限会社,愛知県,名古屋市西区,上橋町１７３番地の３,,23,104,4520844,,,2023-02-16,清算の結了等,,,2015-10-05,1,,,,,ススム,0
391,2200003000842,登記記録の閉鎖等,0,2023-02-21,2023-02-20,武藏屋食糧工業合資会社,,合資会社,岐阜県,岐阜市,芥見６丁目８番地,,21,201,5013134,,,2023-02-20,清算の結了等,,,2015-10-05,1,,,,,,0
410,2330001000600,登記記録の閉鎖等,0,2023-02-21,2023-02-20,エムファッション株式会社,,株式会社,熊本県,熊本市中央区,城東町２番６号,,43,101,8600846,,,2023-02-20,清算の結了等,,,2015-10-05,1,,,,,エムファッション,0
430,2500002015968,登記記録の閉鎖等,0,2023-02-21,2023-02-17,有限会社ウイン,,有限会社,愛媛県,新居浜市,瀬戸町１０番１０号,,38,205,7920821,,,2023-02-17,清算の結了等,,,2015-10-05,1,,,,,ウイン,0
448,3010003031071,登記記録の閉鎖等,0,2023-02-21,2023-02-15,日光Ｐｌｕｓ１１合同会社６,,合同会社,東京都,千代田区,丸の内３丁目１番１号東京共同会計事務所内,,13,101,1000005,,,2023-02-15,清算の結了等,,,2019-11-15,1,,,,,ニッコウプラスイレブンロク,0
450,3010005013638,登記記録の閉鎖等,0,2023-02-21,2023-02-17,特定非営利活動法人おじいさんの知恵袋の会,,その他の設立登記法人,東京都,中央区,月島３丁目１番１号,,13,102,1040052,,,2023-02-17,清算の結了等,,,2015-10-05,1,,,,,オジイサンノチエブクロノカイ,0
462,3010403014287,登記記録の閉鎖等,0,2023-02-21,2023-02-09,合同会社シリウス,,合同会社,東京都,港区,麻布十番１丁目５番２６号,,13,103,1060045,,,2023-02-09,清算の結了等,,,2016-01-13,1,,,,,シリウス,0
467,3010405019441,登記記録の閉鎖等,0,2023-02-21,2023-02-09,ＲＢソーラー１号ホールディングス一般社団法人,,その他の設立登記法人,東京都,港区,虎ノ門３丁目２２番１０－２０１号,,13,103,1050001,,,2023-02-09,清算の結了等,,,2021-01-27,1,,,,,アールビーソーラーイチゴウホールディングス,0
496,3011703002790,登記記録の閉鎖等,0,2023-02-21,2023-02-14,アンドビー合同会社,,合同会社,千葉県,船橋市,前貝塚町３１３－２９,,12,204,2730042,,,2023-02-14,清算の結了等,,,2021-03-05,1,,,,,アンドビー,0
517,3021005002308,登記記録の閉鎖等,0,2023-02-21,2023-02-15,ＮＰＯ法人老人ホーム評価センター,,その他の設立登記法人,神奈川県,鎌倉市,常盤９３７番地１６４,,14,204,2480022,,,2023-02-15,清算の結了等,,,2015-10-05,1,,,,,ロウジンホームヒョウカセンター,0
532,3070001012588,登記記録の閉鎖等,0,2023-02-21,2023-02-17,株式会社矢島鉄工所,,株式会社,群馬県,藤岡市,鮎川５４３番地,,10,209,3750042,,,2023-02-17,清算の結了等,,,2015-10-05,1,,,,,ヤジマテッコウジョ,0
533,3070001023668,登記記録の閉鎖等,0,2023-02-21,2023-02-14,株式会社一田屋旅館,,株式会社,群馬県,吾妻郡草津町,大字草津４６４番地４４４,,10,426,3771711,,,2023-02-14,清算の結了等,,,2015-10-05,1,,,,,イチダヤリョカン,0
547,3110001022649,登記記録の閉鎖等,0,2023-02-21,2023-02-20,白根産業株式会社,,株式会社,新潟県,長岡市,城岡１丁目７番２８号,,15,202,9400021,,,2023-02-20,清算の結了等,,,2015-10-05,1,,,,,シロネサンギョウ,0
549,3110001032029,登記記録の閉鎖等,0,2023-02-21,2023-02-16,Ｘｐｅｔｉｚｅ　Ｔｅｃｈｎｏｌｏｇｙ　Ｓｏｌｕｔｉｏｎｓ　Ｊａｐａｎ株式会社,,株式会社,新潟県,南魚沼市,浦佐１１８８番地２グローバルＩＴパーク,,15,226,9497302,,,2023-02-16,清算の結了等,,,2016-12-26,1,,,,,エクズペチズテクノロジーソリューションズジャパン,0
550,3110001032367,登記記録の閉鎖等,0,2023-02-21,2023-02-16,Ｌｏｇｉｃａｂｅａｎｓ　Ｊａｐａｎ株式会社,,株式会社,新潟県,南魚沼市,浦佐１１８８番地２グローバルＩＴパーク,,15,226,9497302,,,2023-02-16,清算の結了等,,,2017-05-09,1,,,,,ロジカビーンズジャパン,0
565,3120103003315,登記記録の閉鎖等,0,2023-02-21,2023-02-20,合同会社サンライフ,,合同会社,大阪府,羽曳野市,西浦６丁目２番２０号,,27,222,5830861,,,2023-02-20,清算の結了等,,,2019-04-11,1,,,,,サンライフ,0
574,3140001123972,登記記録の閉鎖等,0,2023-02-21,2023-02-16,株式会社正建,,株式会社,兵庫県,尼崎市,西長洲町２丁目３６番２０号２階,,28,202,6600805,,,2023-02-16,清算の結了等,,,2021-11-26,1,,,,,セイケン,0
595,3240002047384,登記記録の閉鎖等,0,2023-02-21,2023-02-20,有限会社エフライナー,,有限会社,広島県,福山市,本郷町１０９８番地１,,34,207,7290252,,,2023-02-20,清算の結了等,,,2015-10-05,1,,,,,,0
599,3260002027384,登記記録の閉鎖等,0,2023-02-21,2023-02-20,有限会社渡辺機械,,有限会社,岡山県,新見市,高尾２４７１番地の８,,33,210,7180003,,,2023-02-20,清算の結了等,,,2015-10-05,1,,,,,ワタナベキカイ,0
600,3260003001306,登記記録の閉鎖等,0,2023-02-21,2023-02-16,合同会社岡宅サポート,,合同会社,岡山県,岡山市北区,駅前町２丁目５番２８号,,33,101,7000023,,,2023-02-16,清算の結了等,,,2015-10-05,1,,,,,オカタクサポート,0
608,3290001088656,登記記録の閉鎖等,0,2023-02-21,2023-02-20,株式会社ユウケンカンパニー,,株式会社,福岡県,福岡市博多区,博多駅東２丁目８番２２号,,40,132,8120013,,,2023-02-20,清算の結了等,,,2020-04-27,1,,,,,ユウケンカンパニー,0
629,3380001005643,登記記録の閉鎖等,0,2023-02-21,2023-02-16,双信商事株式会社,,株式会社,福島県,郡山市,安積荒井本町４４１番地安積サンシャイン６０３号,,07,203,9630116,,,2023-02-16,清算の結了等,,,2015-10-05,1,,,,,ソウシンショウジ,0
634,3390001009775,登記記録の閉鎖等,0,2023-02-21,2023-02-15,株式会社エスポワール,,株式会社,山形県,米沢市,松が岬２丁目１番６６号,,06,202,9920053,,,2023-02-15,清算の結了等,,,2015-10-05,1,,,,,エスポワール,0
644,3430005005147,登記記録の閉鎖等,0,2023-02-21,2023-02-17,ひばりが丘社会保険労務士法人２．０,,その他の設立登記法人,北海道,札幌市厚別区,厚別南１丁目１０番１－４０５号,,01,108,0040022,,,2023-02-17,清算の結了等,,,2015-10-05,1,,,,,,0
654,4010002022541,登記記録の閉鎖等,0,2023-02-21,2023-02-14,有限会社築地湯田運送,,有限会社,東京都,中央区,築地７丁目１８番２８号,,13,102,1040045,,,2023-02-14,清算の結了等,,,2015-10-05,1,,,,,ツキジユタウンソウ,0
655,4010003025097,登記記録の閉鎖等,0,2023-02-21,2023-02-17,Ａｖａｓｔ　Ｓｏｆｔｗａｒｅ　Ｊａｐａｎ合同会社,,合同会社,東京都,千代田区,大手町１丁目６番１号大手町ビル１Ｆ・２Ｆ,,13,101,1000004,,,2023-02-17,合併による解散等,5010401061429,令和５年２月１日東京都港区赤坂一丁目１２番３２号アーク森ビル１２階株式会社ノートンライフロック（5010401061429）に合併し解散,2017-03-29,1,,,,,アバストソフトウェアジャパン,0
656,4010003031070,登記記録の閉鎖等,0,2023-02-21,2023-02-15,日光Ｐｌｕｓ１１合同会社５,,合同会社,東京都,千代田区,丸の内３丁目１番１号東京共同会計事務所内,,13,101,1000005,,,2023-02-15,清算の結了等,,,2019-11-15,1,,,,,ニッコウプラスイレブンゴ,0
659,4010401136999,登記記録の閉鎖等,0,2023-02-21,2023-02-15,コシダテレコム・インベストメント株式会社,,株式会社,東京都,港区,高輪２丁目１５番２１号,,13,103,1080074,,,2023-02-15,合併による解散等,9010401036286,令和５年２月１５日東京都港区高輪二丁目１５番２１号イリオスネット株式会社（9010401036286）に合併し解散,2018-03-02,1,,,,,コシダテレコムインベストメント,0
668,4010403024582,登記記録の閉鎖等,0,2023-02-21,2023-02-09,ＲＢソーラー１号合同会社,,合同会社,東京都,港区,虎ノ門３丁目２２番１０－２０１号,,13,103,1050001,,,2023-02-09,清算の結了等,,,2021-01-27,1,,,,,アールビーソーラーイチゴウ,0
670,4010403028278,登記記録の閉鎖等,0,2023-02-21,2023-02-01,合同会社ＳＡＫＵＲＡ,,合同会社,東京都,港区,南青山２丁目２番１５号,,13,103,1070062,,,2023-02-01,清算の結了等,,,2022-08-31,1,,,,,サクラ,0
674,4010601004667,登記記録の閉鎖等,0,2023-02-21,2023-02-15,株式会社岡野工務店,,株式会社,東京都,江東区,扇橋２丁目１２番２号,,13,108,1350011,,,2023-02-15,清算の結了等,,,2015-10-05,1,,,,,オカノコウムテン,0
698,4011502004608,登記記録の閉鎖等,0,2023-02-21,2023-02-13,有限会社のざわ,,有限会社,東京都,北区,赤羽北２丁目８番９号,,13,117,1150052,,,2023-02-13,清算の結了等,,,2015-10-05,1,,,,,ノザワ,0
710,4012402014449,登記記録の閉鎖等,0,2023-02-21,2023-02-20,有限会社一行,,有限会社,東京都,小金井市,前原町２丁目１７番２６号,,13,210,1840013,,,2023-02-20,清算の結了等,,,2015-10-05,1,,,,,イッコウ,0
712,4012701000612,登記記録の閉鎖等,0,2023-02-21,2023-02-17,株式会社田村製作所,,株式会社,東京都,小平市,小川東町５丁目１５番１４号,,13,211,1870031,,,2023-02-17,清算の結了等,,,2015-10-05,1,,,,,タムラセイサクショ,0
718,4020001127183,登記記録の閉鎖等,0,2023-02-21,2023-02-20,株式会社パワーライフ,,株式会社,神奈川県,横浜市鶴見区,梶山１丁目２２番１３号アメニティ梶山２０１,,14,101,2300072,,,2023-02-20,清算の結了等,,,2018-07-18,1,,,,,パワーライフ,0
724,4020005006441,登記記録の閉鎖等,0,2023-02-21,2023-02-16,特定非営利活動法人ヨガ元氣学,,その他の設立登記法人,神奈川県,横浜市都筑区,平台２５番１４号有限会社ピー・エス・キュー内,,14,118,2240064,,,2023-02-16,清算の結了等,,,2015-10-05,1,,,,,ヨガゲンキガク,0
730,4030001046102,登記記録の閉鎖等,0,2023-02-21,2023-02-17,株式会社ビッグウェーブ,,株式会社,埼玉県,新座市,大和田５丁目２番９号,,11,230,3520004,,,2023-02-17,清算の結了等,,,2015-10-05,1,,,,,ビッグウェーブ,0
752,4050001045556,登記記録の閉鎖等,0,2023-02-21,2023-02-15,フィールドネット株式会社,,株式会社,茨城県,龍ケ崎市,長山５丁目１１番地１６,,08,208,3010042,,,2023-02-15,清算の結了等,,,2019-02-08,1,,,,,フィールドネット,0
761,4070001005590,登記記録の閉鎖等,0,2023-02-21,2023-02-15,株式会社フレッシュアンドスマイル,,株式会社,群馬県,前橋市,元総社町９２９番１４,,10,201,3710846,,,2023-02-15,清算の結了等,,,2015-10-05,1,,,,,フレッシュアンドスマイル,0
767,4120001025154,登記記録の閉鎖等,0,2023-02-21,2023-02-17,故郷流通株式会社,,株式会社,大阪府,大阪市天王寺区,石ケ辻町２番９号,00027898,27,109,5430031,,,2023-02-17,清算の結了等,,,2015-10-05,1,,,,,フルサトリュウツウ,0
784,4120905004550,登記記録の閉鎖等,0,2023-02-21,2023-02-20,特定非営利活動法人Ｊａｐａｎ　Ａｃｃｅｓｓｉｂｌｅ　Ｔｏｕｒｉｓｍ　Ｃｅｎｔｅｒ,,その他の設立登記法人,大阪府,豊中市,南桜塚２丁目１４番２０－１０１号,,27,203,5610882,,,2023-02-20,清算の結了等,,,2015-10-05,1,,,,,ジャパンアクセシブルツーリズムセンター,0
807,4140005009028,登記記録の閉鎖等,0,2023-02-21,2023-02-16,ＮＰＯ法人町なみ屋なみ研究所,,その他の設立登記法人,兵庫県,丹波篠山市,油井６６８番地,,28,221,6692114,,,2023-02-16,清算の結了等,,,2015-10-05,1,,,,,マチナミヤナミケンキュウジョ,0
808,4150001012991,登記記録の閉鎖等,0,2023-02-21,2023-02-15,株式会社高砂鋳造所,,株式会社,奈良県,香芝市,畑５丁目１６４３番地,,29,210,6390245,,,2023-02-15,清算の結了等,,,2015-10-05,1,,,,,タカサゴチュウゾウショ,0
812,4170001010738,登記記録の閉鎖等,0,2023-02-21,2023-02-20,堀畑産業株式会社,,株式会社,和歌山県,橋本市,神野々１１６番地,,30,203,6480086,,,2023-02-20,清算の結了等,,,2015-10-05,1,,,,,ホリバタサンギョウ,0
833,4290001019387,登記記録の閉鎖等,0,2023-02-21,2023-02-16,株式会社Ｔｏｏ福岡,,株式会社,福岡県,福岡市中央区,天神５丁目７番３号,,40,133,8100001,,,2023-02-16,合併による解散等,4010901024712,令和５年２月１日東京都港区虎ノ門三丁目４番７号虎ノ門３６森ビル株式会社Ｔｏｏ（4010901024712）に合併し解散,2015-10-05,1,,,,,トゥーフクオカ,0
844,4290801024495,登記記録の閉鎖等,0,2023-02-21,2023-02-20,祐貴技研工業株式会社,,株式会社,福岡県,北九州市八幡西区,屋敷１丁目１番１４－１０１号,,40,109,8060006,,,2023-02-20,清算の結了等,,,2018-04-04,1,,,,,ユウキギケンコウギョウ,0
860,4370305000935,登記記録の閉鎖等,0,2023-02-21,2023-02-14,一般社団法人十八成ビーチ・海の見える丘協議会,,その他の設立登記法人,宮城県,石巻市,十八成浜十八成８９番地,,04,202,9862527,,,2023-02-14,清算の結了等,,,2015-10-05,1,,,,,,0
863,4380001030252,登記記録の閉鎖等,0,2023-02-21,2023-02-13,株式会社スーマ・スティラ,,株式会社,東京都,千代田区,丸の内１丁目８－３丸の内トラストタワー本館Ｆ２０株式会社創眞内,,13,101,1000005,,,2023-02-13,清算の結了等,,,2019-08-19,1,,,,,スーマスティラ,0
864,4380002016325,登記記録の閉鎖等,0,2023-02-21,2023-02-16,有限会社シャフトコーポレーション,,有限会社,福島県,二本松市,金色４１２番地の１２,,07,210,9640915,,,2023-02-16,清算の結了等,,,2015-10-05,1,,,,,シャフトコーポレーション,0
870,4430003009826,登記記録の閉鎖等,0,2023-02-21,2023-02-20,合同会社久保断熱工業,,合同会社,北海道,石狩市,花川南九条１丁目９０番地１,,01,235,0613209,,,2023-02-20,清算の結了等,,,2018-11-01,1,,,,,クボダンネツコウギョウ,0
872,4430005012852,登記記録の閉鎖等,0,2023-02-21,2023-02-20,一般社団法人アナコットカンボジア,,その他の設立登記法人,北海道,芦別市,北四条西３丁目３番地の６,,01,216,0750004,,,2023-02-20,清算の結了等,,,2016-07-22,1,,,,,アナコットカンボジア,0
884,4500001016379,登記記録の閉鎖等,0,2023-02-21,2023-02-17,富屋建設株式会社,,株式会社,愛媛県,松山市,竹原４丁目８番４０号,,38,201,7900053,,,2023-02-17,清算の結了等,,,2015-12-24,1,,,,,トミヤケンセツ,0
888,5010003031656,登記記録の閉鎖等,0,2023-02-21,2023-02-15,日光Ｐｌｕｓ１２合同会社４,,合同会社,東京都,千代田区,丸の内３丁目１番１号東京共同会計事務所内,,13,101,1000005,,,2023-02-15,清算の結了等,,,2020-02-18,1,,,,,ニッコウプラストゥエルブヨン,0
897,5010401095699,登記記録の閉鎖等,0,2023-02-21,2023-02-09,スズキ・コーポレーション株式会社,,株式会社,東京都,港区,白金台１丁目１番２１－１１０号,,13,103,1080071,,,2023-02-09,清算の結了等,,,2015-10-05,1,,,,,スズキコーポレーション,0
908,5010601000252,登記記録の閉鎖等,0,2023-02-21,2023-02-14,加賀美食品株式会社,,株式会社,東京都,江東区,南砂４丁目１８番２号,,13,108,1360076,,,2023-02-14,清算の結了等,,,2015-10-05,1,,,,,カガミショクヒン,0
918,5011001123494,登記記録の閉鎖等,0,2023-02-21,2023-02-14,株式会社ａｎｏｓｏｎｏ　ｍｅｄｉａ,,株式会社,東京都,中央区,日本橋２丁目１番１７号丹生ビル２階,,13,102,1030027,,,2023-02-14,清算の結了等,,,2018-08-02,1,,,,,アノソノメディア,0
937,5011701011107,登記記録の閉鎖等,0,2023-02-21,2023-02-17,株式会社カワウチ,,株式会社,東京都,江戸川区,東葛西４丁目１番１－７０１号,,13,123,1340084,,,2023-02-17,清算の結了等,,,2015-10-05,1,,,,,カワウチ,0
943,5011802007078,登記記録の閉鎖等,0,2023-02-21,2023-02-15,マイスター建築工房有限会社,,有限会社,東京都,葛飾区,柴又６丁目１５番１３号,,13,122,1250052,,,2023-02-15,清算の結了等,,,2015-10-05,1,,,,,マイスターケンチクコウボウ,0
953,5013402003960,登記記録の閉鎖等,0,2023-02-21,2023-02-17,有限会社谷田部青果店,,有限会社,東京都,稲城市,大丸１９６番地,,13,225,2060801,,,2023-02-17,清算の結了等,,,2015-10-05,1,,,,,ヤタベセイカテン,0
954,5020001004051,登記記録の閉鎖等,0,2023-02-21,2023-02-20,株式会社スエヒロ港南台,,株式会社,神奈川県,横浜市港南区,港南台３丁目４番３５号,,14,111,2340054,,,2023-02-20,清算の結了等,,,2015-10-05,1,,,,,スエヒロコウナンダイ,0
962,5020002096402,登記記録の閉鎖等,0,2023-02-21,2023-02-16,有限会社エスプリ・ドゥ,,有限会社,神奈川県,横浜市鶴見区,東寺尾４丁目７番１１号,,14,101,2300077,,,2023-02-16,清算の結了等,,,2015-10-05,1,,,,,エスプリドゥ,0
982,5030005014780,登記記録の閉鎖等,0,2023-02-21,2023-02-17,飯能市土地開発公社,,その他の設立登記法人,埼玉県,飯能市,大字双柳１番地１,,11,209,3570021,,,2023-02-17,清算の結了等,,,2015-10-05,1,,,,,ハンノウシ,0
995,5050002033807,登記記録の閉鎖等,0,2023-02-21,2023-02-17,テーケーメデイカルサービス株式会社,,株式会社,千葉県,香取市,香取２３５番地３,,12,236,2870017,,,2023-02-17,清算の結了等,,,2015-10-05,1,,,,,テーケーメデイカルサービス,0
1000,5070001034069,登記記録の閉鎖等,0,2023-02-21,2023-02-16,株式会社カスデザイン,,株式会社,群馬県,高崎市,上並榎町１４２番地３,,10,202,3700801,,,2023-02-16,清算の結了等,,,2017-10-18,1,,,,,カスデザイン,0
1010,5100005009344,登記記録の閉鎖等,0,2023-02-21,2023-02-15,医療法人順恵会,,その他の設立登記法人,長野県,上伊那郡辰野町,大字伊那富７４８３番地,,20,382,3990428,,,2023-02-15,清算の結了等,,,2015-10-05,1,,,,,ジュンケイカイ,0
1012,5110005003651,登記記録の閉鎖等,0,2023-02-21,2023-02-20,医療法人社団家田医院,,その他の設立登記法人,新潟県,阿賀野市,中央町１丁目１１番２４号,,15,223,9592021,,,2023-02-20,清算の結了等,,,2015-10-05,1,,,,,イエダイイン,0
1015,5120001039046,登記記録の閉鎖等,0,2023-02-21,2023-02-17,椿本商事株式会社,,株式会社,大阪府,大阪市浪速区,難波中２丁目６番６号,,27,111,5560011,,,2023-02-17,清算の結了等,,,2015-10-05,1,,,,,ツバキモトショウジ,0
1049,5170001001133,登記記録の閉鎖等,0,2023-02-21,2023-02-20,株式会社ゴトウ本店,,株式会社,和歌山県,和歌山市,真砂丁１丁目１番地,,30,201,6408261,,,2023-02-20,清算の結了等,,,2015-10-05,1,,,,,ゴトウホンテン,0
1075,5240002015653,登記記録の閉鎖等,0,2023-02-21,2023-02-17,有限会社マツバランド,,有限会社,広島県,広島市佐伯区,五日市中央５丁目２１番３３号,,34,108,7315128,,,2023-02-17,清算の結了等,,,2015-10-05,1,,,,,マツバランド,0
1081,5290001054103,登記記録の閉鎖等,0,2023-02-21,2023-02-16,山藤商事株式会社,,株式会社,福岡県,大牟田市,大正町２丁目５番地の１,,40,202,8360047,,,2023-02-16,清算の結了等,,,2023-01-31,1,,,,,ヤマフジショウジ,0
1093,5340001014729,登記記録の閉鎖等,0,2023-02-21,2023-02-20,株式会社メディクルーズ,,株式会社,鹿児島県,鹿屋市,札元２丁目３７７１番地８,,46,203,8930013,,,2023-02-20,清算の結了等,,,2015-10-05,1,,,,,メディクルーズ,0
1094,5340002008564,登記記録の閉鎖等,0,2023-02-21,2023-02-21,有限会社別府自動車鈑金塗裝工場,,有限会社,鹿児島県,鹿児島市,宇宿２丁目２４番４２号,,46,201,8900073,,,2023-02-21,清算の結了等,,,2015-10-05,1,,,,,ベップジドウシャバンキントソウコウジョウ,0
1096,5350001015296,登記記録の閉鎖等,0,2023-02-21,2023-02-17,株式会社いのくち総合研究所,,株式会社,宮崎県,延岡市,春日町１丁目１－３スプリングヒルズ２００９号室,,45,203,8820844,,,2023-02-17,清算の結了等,,,2018-06-01,1,,,,,イノクチソウゴウケンキュウショ,0
1122,6010001014918,登記記録の閉鎖等,0,2023-02-21,2023-02-17,株式会社キュービスト,,株式会社,東京都,新宿区,西新宿３丁目２番４号ＪＲＥ西新宿テラス３階,,13,104,1600023,,,2023-02-17,合併による解散等,9011101083536,令和５年２月１日東京都新宿区西新宿三丁目２番４号ＪＲＥ西新宿テラス４Ｆ株式会社ＣＲＥＳＴ（9011101083536）に合併し解散,2015-10-05,1,,,,,キュービスト,0
1127,6010001199528,登記記録の閉鎖等,0,2023-02-21,2023-02-15,株式会社キャリアゲート,,株式会社,東京都,中央区,銀座７丁目１３番６号サガミビル２階,,13,102,1040061,,,2023-02-15,清算の結了等,,,2019-03-28,1,,,,,キャリアゲート,0
1133,6010003031069,登記記録の閉鎖等,0,2023-02-21,2023-02-15,日光Ｐｌｕｓ１１合同会社４,,合同会社,東京都,千代田区,丸の内３丁目１番１号東京共同会計事務所内,,13,101,1000005,,,2023-02-15,清算の結了等,,,2019-11-15,1,,,,,ニッコウプラスイレブンヨン,0
1147,6010401116207,登記記録の閉鎖等,0,2023-02-21,2023-02-08,ＤｉＣｅｎｔｒａｌ　Ｊａｐａｎ株式会社,,株式会社,東京都,港区,虎ノ門５丁目１３番１号虎ノ門４０ＭＴビル７階,,13,103,1050001,,,2023-02-08,清算の結了等,,,2015-10-05,1,,,,,ディセントラルジャパン,0
1156,6010405010298,登記記録の閉鎖等,0,2023-02-21,2023-02-16,一般社団法人不動産流動化機構,,その他の設立登記法人,東京都,千代田区,永田町２丁目１１番１号山王パークタワー,,13,101,1000014,,,2023-02-16,清算の結了等,,,2015-10-05,1,,,,,フドウサンリュウドウカキコウ,0
1164,6010801021997,登記記録の閉鎖等,0,2023-02-21,2023-02-16,パークシステム株式会社,,株式会社,東京都,大田区,大森北６丁目３０番１６号,,13,111,1430016,,,2023-02-16,清算の結了等,,,2015-10-05,1,,,,,,0
1167,6010802009323,登記記録の閉鎖等,0,2023-02-21,2023-02-16,有限会社調布精機製作所,,有限会社,東京都,大田区,多摩川１丁目３６番２号,,13,111,1460095,,,2023-02-16,清算の結了等,,,2015-10-05,1,,,,,,0
1172,6011001091699,登記記録の閉鎖等,0,2023-02-21,2023-02-17,クレスタ株式会社,,株式会社,東京都,世田谷区,赤堤５丁目３８番３－１０１号,,13,112,1560044,,,2023-02-17,清算の結了等,,,2015-10-05,1,,,,,クレスタ,0
1196,6011502013697,登記記録の閉鎖等,0,2023-02-21,2023-02-14,有限会社ギャラクシージャパン,,有限会社,東京都,文京区,千駄木３丁目１番１号,,13,105,1130022,,,2023-02-14,清算の結了等,,,2015-10-05,1,,,,,ギャラクシージャパン,0
1236,6030005007247,登記記録の閉鎖等,0,2023-02-21,2023-02-20,ＮＰＯ法人市民のアトリエ,,その他の設立登記法人,埼玉県,富士見市,山室２丁目３番１０号,,11,235,3540022,,,2023-02-20,清算の結了等,,,2015-10-05,1,,,,,シミンノアトリエ,0
1252,6070002007733,登記記録の閉鎖等,0,2023-02-21,2023-02-17,有限会社悠々庵,,有限会社,群馬県,前橋市,富士見町石井１３７２番地１８,,10,201,3710105,,,2023-02-17,清算の結了等,,,2015-10-05,1,,,,,,0
1255,6090002000380,登記記録の閉鎖等,0,2023-02-21,2023-02-17,有限会社魚政寿司,,有限会社,山梨県,甲府市,千塚４丁目３番３３号,,19,201,4000074,,,2023-02-17,清算の結了等,,,2015-10-05,1,,,,,ウオマサズシ,0
1258,6100002033263,登記記録の閉鎖等,0,2023-02-21,2023-02-20,有限会社ホテルエーゲ海,,有限会社,長野県,伊那市,西箕輪１９３８番地６４,,20,209,3994501,,,2023-02-20,清算の結了等,,,2015-10-05,1,,,,,ホテルエーゲカイ,0
1267,6120001168397,登記記録の閉鎖等,0,2023-02-21,2023-02-20,エクストライン株式会社,,株式会社,大阪府,大阪市住之江区,新北島５丁目１番１４号,,27,125,5590024,,,2023-02-20,清算の結了等,,,2015-10-05,1,,,,,エクストライン,0
1269,6120001180154,登記記録の閉鎖等,0,2023-02-21,2023-02-17,株式会社ＫＡＶ,,株式会社,大阪府,大阪市東淀川区,淡路１丁目１４番５号,,27,114,5330032,,,2023-02-17,清算の結了等,,,2015-10-05,1,,,,,ケーエーブイ,0
1271,6120001196209,登記記録の閉鎖等,0,2023-02-21,2023-02-17,株式会社アドウシールカンパニー,,株式会社,大阪府,大阪市住吉区,苅田３丁目１３番２２－３０６号,,27,120,5580011,,,2023-02-17,清算の結了等,,,2016-02-12,1,,,,,アドウシールカンパニー,0
1277,6120002032874,登記記録の閉鎖等,0,2023-02-21,2023-02-17,有限会社マック・オリエント,,有限会社,大阪府,大阪市北区,西天満５丁目９番１６号,,27,127,5300047,,,2023-02-17,清算の結了等,,,2015-10-05,1,,,,,マックオリエント,0
1281,6120102024581,登記記録の閉鎖等,0,2023-02-21,2023-02-20,有限会社グローリックス,,有限会社,大阪府,泉佐野市,高松西２丁目２４１５番地の１,,27,213,5980016,,,2023-02-20,清算の結了等,,,2015-10-05,1,,,,,,0
1283,6122001005605,登記記録の閉鎖等,0,2023-02-21,2023-02-20,株式会社西岡工設,,株式会社,大阪府,東大阪市,上石切町１丁目２番１４号,,27,227,5798012,,,2023-02-20,清算の結了等,,,2015-10-05,1,,,,,ニシオカコウセツ,0
1286,6122003001536,登記記録の閉鎖等,0,2023-02-21,2023-02-20,合同会社フラッグ,,合同会社,大阪府,東大阪市,御厨栄町１丁目３番１３－５１５号,,27,227,5770036,,,2023-02-20,清算の結了等,,,2018-07-26,1,,,,,フラッグ,0
1293,6140001039209,登記記録の閉鎖等,0,2023-02-21,2023-02-17,株式会社森元建設,,株式会社,兵庫県,宍粟市,千種町河呂４８４番地,,28,227,6713231,,,2023-02-17,清算の結了等,,,2015-10-05,1,,,,,モリモトケンセツ,0
1307,6180001151430,登記記録の閉鎖等,0,2023-02-21,2023-02-16,株式会社ＯＴＲインターナショナル,,株式会社,愛知県,稲沢市,下津町西下町３５番地１,,23,220,4928075,,,2023-02-16,清算の結了等,,,2022-05-26,1,,,,,オーティーアールインターナショナル,0
1309,6180002031887,登記記録の閉鎖等,0,2023-02-21,2023-02-15,有限会社デザインルーム司,,有限会社,愛知県,名古屋市昭和区,御器所１丁目１６番８号,,23,107,4660051,,,2023-02-15,清算の結了等,,,2015-10-05,1,,,,,デザインルームツカサ,0
1338,6330002010314,登記記録の閉鎖等,0,2023-02-21,2023-02-20,有限会社美松,,有限会社,熊本県,熊本市南区,砂原町５７０番地１,,43,104,8615255,,,2023-02-20,清算の結了等,,,2015-10-05,1,,,,,ミマツ,0
1351,6400002000679,登記記録の閉鎖等,0,2023-02-21,2023-02-17,有限会社オオムラ,,有限会社,岩手県,盛岡市,本宮２丁目２番１１号,,03,201,0200866,,,2023-02-17,清算の結了等,,,2015-10-05,1,,,,,オオムラ,0
1354,6400005000726,登記記録の閉鎖等,0,2023-02-21,2023-02-16,御大堂牧野農業協同組合,,その他の設立登記法人,岩手県,盛岡市,上米内字畑井野５２番地１,,03,201,0200001,,,2023-02-16,清算の結了等,,,2015-10-05,1,,,,,,0
1361,6430001008984,登記記録の閉鎖等,0,2023-02-21,2023-02-20,株式会社装研,,株式会社,北海道,札幌市東区,北三十三条東１０丁目５番１２号,,01,103,0650033,,,2023-02-20,清算の結了等,,,2015-10-05,1,,,,,ソウケン,0
1370,6440001005519,登記記録の閉鎖等,0,2023-02-21,2023-02-06,北海道観光バス株式会社,,株式会社,北海道,函館市,上湯川町３７７番２号,,01,202,0420914,,,2023-02-06,合併による解散等,9430001021456,令和５年２月１日札幌市清田区真栄一条二丁目３３番１０号北海道バス株式会社（9430001021456）に合併し解散,2015-10-05,1,,,,,ホッカイドウカンコウバス,0
1381,7010001205813,登記記録の閉鎖等,0,2023-02-21,2023-02-14,株式会社スリーポイント,,株式会社,東京都,中央区,銀座６丁目１３番１６号,,13,102,1040061,,,2023-02-14,清算の結了等,,,2019-12-06,1,,,,,スリーポイント,0
1386,7010003031068,登記記録の閉鎖等,0,2023-02-21,2023-02-15,日光Ｐｌｕｓ１１合同会社３,,合同会社,東京都,千代田区,丸の内３丁目１番１号東京共同会計事務所内,,13,101,1000005,,,2023-02-15,清算の結了等,,,2019-11-15,1,,,,,ニッコウプラスイレブンサン,0
1396,7010401166226,登記記録の閉鎖等,0,2023-02-21,2023-02-01,株式会社ビテック,,株式会社,東京都,港区,西新橋１丁目１８番６号クロスオフィス内幸町８１０号,,13,103,1050003,,,2023-02-01,清算の結了等,,,2022-03-16,1,,,,,ビテック,0
1429,7013302014775,登記記録の閉鎖等,0,2023-02-21,2023-02-13,有限会社マサキ,,有限会社,東京都,豊島区,池袋２丁目７４番１０号,,13,116,1710014,,,2023-02-13,清算の結了等,,,2015-10-05,1,,,,,マサキ,0
1452,7030003007677,登記記録の閉鎖等,0,2023-02-21,2023-02-17,合同会社アクセス,,合同会社,埼玉県,川口市,三ツ和１丁目１番地の２,,11,203,3340011,,,2023-02-17,清算の結了等,,,2015-10-05,1,,,,,アクセス,0
1475,7070003003391,登記記録の閉鎖等,0,2023-02-21,2023-02-17,株式会社ＬＡＲＡ,,株式会社,群馬県,前橋市,大友町３丁目９番地２第二伸栄ビル３階７号,,10,201,3710847,,,2023-02-17,清算の結了等,,,2019-02-25,1,,,,,ララ,0
1476,7080001019439,登記記録の閉鎖等,0,2023-02-21,2023-02-10,株式会社ＪＡＤＥ,,株式会社,静岡県,静岡市駿河区,広野５丁目１１番１９号,,22,102,4210121,,,2023-02-10,清算の結了等,,,2015-10-05,1,,,,,ジェイド,0
1486,7110002028501,登記記録の閉鎖等,0,2023-02-21,2023-02-15,長岡紙工業有限会社,,有限会社,新潟県,長岡市,中島３丁目５番２３号,,15,202,9400094,,,2023-02-15,清算の結了等,,,2015-10-05,1,,,,,ナガオカカミコウギョウ,0
1509,7130001035827,登記記録の閉鎖等,0,2023-02-21,2023-02-17,丸中ミシン株式会社,,株式会社,京都府,亀岡市,余部町宝久保１５番地の５,,26,206,6210806,,,2023-02-17,清算の結了等,,,2015-10-05,1,,,,,マルナカミシン,0
1530,7260001017688,登記記録の閉鎖等,0,2023-02-21,2023-02-09,株式会社考藤為吉商店,,株式会社,岡山県,笠岡市,笠岡８２番地,,33,205,7140081,,,2023-02-09,合併による解散等,9260002024946,令和５年１月６日東京都大田区田園調布五丁目１５番１７号株式会社カントウ不動産（9260002024946）に合併し解散,2015-10-05,1,,,,,カントウタメキチショウテン,0
1532,7260002026102,登記記録の閉鎖等,0,2023-02-21,2023-02-16,有限会社アパレル共和,,有限会社,岡山県,井原市,芳井町吉井１５６９番地の１,,33,207,7142111,,,2023-02-16,清算の結了等,,,2015-10-05,1,,,,,アパレルキョウワ,0
1552,7320001008994,登記記録の閉鎖等,0,2023-02-21,2023-02-20,石栄建設工業株式会社,,株式会社,大分県,佐伯市,東町５番２３号,,44,205,8760814,,,2023-02-20,清算の結了等,,,2015-10-05,1,,,,,セキエイケンセツコウギョウ,0
1556,7320003002558,登記記録の閉鎖等,0,2023-02-21,2023-02-20,さかえＬＬＣ合同会社,,合同会社,大分県,大分市,大字政所２１１４番地の１,,44,201,8700268,,,2023-02-20,清算の結了等,,,2017-03-03,1,,,,,サカエエルエルシー,0
1570,7370301000168,登記記録の閉鎖等,0,2023-02-21,2023-02-10,株式会社石彫工房高将,,株式会社,宮城県,石巻市,大瓜字棚橋９４番地の１,00081566,04,202,9860005,,,2023-02-10,清算の結了等,,,2015-10-05,1,,,,,,0
1571,7370502000074,登記記録の閉鎖等,0,2023-02-21,2023-02-20,有限会社ウイング,,有限会社,宮城県,気仙沼市,所沢２７３番地１３,,04,205,9880057,,,2023-02-20,清算の結了等,,,2015-10-05,1,,,,,ウイング,0
1587,7470001009722,登記記録の閉鎖等,0,2023-02-21,2023-02-13,株式会社アトム,,株式会社,香川県,丸亀市,飯山町東坂元１９８７番地１,,37,202,7620081,,,2023-02-13,清算の結了等,,,2015-10-05,1,,,,,アトム,0
1591,7490002013416,登記記録の閉鎖等,0,2023-02-21,2023-02-17,有限会社正義鍛造所,,有限会社,高知県,土佐郡土佐町,田井９１３番地,,39,363,7813521,,,2023-02-17,清算の結了等,,,2023-01-31,1,,,,,マサヨシタンゾウショ,0
1596,8010001165180,登記記録の閉鎖等,0,2023-02-21,2023-02-16,パワーソーラー出雲株式会社,,株式会社,東京都,品川区,東品川４丁目１２番４号,,13,109,1400002,,,2023-02-16,清算の結了等,,,2015-10-05,1,,,,,パワーソーラーイズモ,0
1598,8010001212932,登記記録の閉鎖等,0,2023-02-21,2023-02-14,株式会社トップフォース,,株式会社,東京都,中央区,銀座１丁目２２番１１号銀座大竹ビジデンス２Ｆ,,13,102,1040061,,,2023-02-14,清算の結了等,,,2020-10-14,1,,,,,トップフォース,0
1607,8010003031067,登記記録の閉鎖等,0,2023-02-21,2023-02-15,日光Ｐｌｕｓ１１合同会社２,,合同会社,東京都,千代田区,丸の内３丁目１番１号東京共同会計事務所内,,13,101,1000005,,,2023-02-15,清算の結了等,,,2019-11-15,1,,,,,ニッコウプラスイレブンニ,0
1608,8010003031653,登記記録の閉鎖等,0,2023-02-21,2023-02-15,日光Ｐｌｕｓ１２合同会社１,,合同会社,東京都,千代田区,丸の内３丁目１番１号東京共同会計事務所内,,13,101,1000005,,,2023-02-15,清算の結了等,,,2020-02-18,1,,,,,ニッコウプラストゥエルブイチ,0
1615,8010401161440,登記記録の閉鎖等,0,2023-02-21,2023-02-10,株式会社ブースト,,株式会社,東京都,港区,浜松町２丁目２番１５号浜松町ダイヤビル２Ｆ,,13,103,1050013,,,2023-02-10,清算の結了等,,,2021-07-12,1,,,,,ブースト,0
1619,8010402022996,登記記録の閉鎖等,0,2023-02-21,2023-02-08,有限会社山崎事務所,00050975,有限会社,東京都,港区,新橋２丁目１６番１号,,13,103,1050004,,,2023-02-08,清算の結了等,,,2015-10-05,1,,,,,ヤマザキジムショ,0
1623,8010405017481,登記記録の閉鎖等,0,2023-02-21,2023-02-08,日本橋インベストメンツ特定目的会社,,その他の設立登記法人,東京都,港区,六本木１丁目６番１号泉ガーデンタワー,,13,103,1060032,,,2023-02-08,清算の結了等,,,2019-02-25,1,,,,,ニホンバシインベストメンツ,0
1626,8010501039215,登記記録の閉鎖等,0,2023-02-21,2023-02-13,株式会社フィフティ,,株式会社,東京都,荒川区,西日暮里２丁目４０番３号横山ビル７階,,13,118,1160013,,,2023-02-13,清算の結了等,,,2016-03-02,1,,,,,フィフティ,0
1637,8010902001153,登記記録の閉鎖等,0,2023-02-21,2023-02-16,有限会社アルバトロス,,有限会社,東京都,大田区,田園調布南１７番１－６０２号,,13,111,1450076,,,2023-02-16,清算の結了等,,,2015-10-05,1,,,,,,0
1646,8011101077844,登記記録の閉鎖等,0,2023-02-21,2023-02-16,Ｃｒｅｗ　Ｇｒｏｕｐ株式会社,,株式会社,埼玉県,熊谷市,筑波１丁目２７番地３,,11,202,3600037,,,2023-02-16,清算の結了等,,,2016-08-04,1,,,,,クルーグループ,0
1677,8021001070205,登記記録の閉鎖等,0,2023-02-21,2023-02-17,株式会社建ファースト,,株式会社,神奈川県,海老名市,本郷３３０６番地の１,,14,215,2430417,,,2023-02-17,清算の結了等,,,2020-07-30,1,,,,,ケンファースト,0
1722,8120001088098,登記記録の閉鎖等,0,2023-02-21,2023-02-14,株式会社広谷建築綜合事務所,,株式会社,大阪府,大阪市中央区,東平２丁目３番５号,,27,128,5420063,,,2023-02-14,清算の結了等,,,2015-10-05,1,,,,,ヒロタニケンチクソウゴウジムショ,0
1724,8120001137730,登記記録の閉鎖等,0,2023-02-21,2023-02-16,株式会社Ｔｏｏ大阪,,株式会社,大阪府,大阪市西区,江戸堀１丁目２５番７号江戸堀ヤタニビル,,27,106,5500002,,,2023-02-16,合併による解散等,4010901024712,令和５年２月１日東京都港区虎ノ門三丁目４番７号虎ノ門３６森ビル株式会社Ｔｏｏ（4010901024712）に合併し解散,2015-10-05,1,,,,,トゥーオオサカ,0
1725,8120001146830,登記記録の閉鎖等,0,2023-02-21,2023-02-17,株式会社アーキテクツ・テクノロジー大阪,,株式会社,大阪府,大阪市鶴見区,鶴見５丁目１番１０号,,27,124,5380053,,,2023-02-17,清算の結了等,,,2015-10-05,1,,,,,,0
1745,8120002004186,登記記録の閉鎖等,0,2023-02-21,2023-02-17,有限会社小橋商事,,有限会社,大阪府,大阪市都島区,御幸町２丁目８番６号,,27,102,5340012,,,2023-02-17,清算の結了等,,,2015-10-05,1,,,,,オバシショウジ,0
1784,8210002003336,登記記録の閉鎖等,0,2023-02-21,2023-02-17,有限会社ボンメイト,,有限会社,福井県,福井市,大宮３丁目８番２号,,18,201,9100016,,,2023-02-17,清算の結了等,,,2015-10-05,1,,,,,ボンメイト,0
1802,8290001090153,登記記録の閉鎖等,0,2023-02-21,2023-02-20,株式会社伸起,,株式会社,福岡県,福岡市東区,松香台１丁目２２－３３,,40,131,8130004,,,2023-02-20,清算の結了等,,,2020-09-07,1,,,,,シンキ,0
1804,8290003011958,登記記録の閉鎖等,0,2023-02-21,2023-02-20,合同会社ＡＣＵ,,合同会社,福岡県,福岡市南区,塩原２丁目１０番６－２１１号オリエントビルＮｏ．８１ＡＭＡＲＩＧＥ,,40,134,8150032,,,2023-02-20,清算の結了等,,,2021-12-23,1,,,,,アーク,0
1814,8340002025391,登記記録の閉鎖等,0,2023-02-21,2023-02-20,共栄物流有限会社,,有限会社,鹿児島県,垂水市,二川１０２０番地,,46,214,8994633,,,2023-02-20,清算の結了等,,,2015-10-05,1,,,,,キョウエイブツリュウ,0
1827,8410003002696,登記記録の閉鎖等,0,2023-02-21,2023-02-17,株式会社スタジオルピナス,,株式会社,秋田県,能代市,二ツ井町切石字山根５８番１,,05,202,0183124,,,2023-02-17,清算の結了等,,,2015-10-05,1,,,,,スタジオルピナス,0
1854,9010003031066,登記記録の閉鎖等,0,2023-02-21,2023-02-15,日光Ｐｌｕｓ１１合同会社１,,合同会社,東京都,千代田区,丸の内３丁目１番１号東京共同会計事務所内,,13,101,1000005,,,2023-02-15,清算の結了等,,,2019-11-15,1,,,,,ニッコウプラスイレブンイチ,0
1873,9010403024033,登記記録の閉鎖等,0,2023-02-21,2023-02-17,合同会社クロス外国語学院,,合同会社,茨城県,稲敷郡美浦村,大字見晴字見晴台６７番地１３号,,08,442,3000437,,,2023-02-17,清算の結了等,,,2020-11-06,1,,,,,クロスガイコクゴガクイン,0
1920,9021001013229,登記記録の閉鎖等,0,2023-02-21,2023-02-17,トーア株式会社,,株式会社,神奈川県,相模原市中央区,横山２丁目１番１７号,,14,152,2520242,,,2023-02-17,清算の結了等,,,2015-10-05,1,,,,,トーア,0
1923,9021005011609,登記記録の閉鎖等,0,2023-02-21,2023-02-17,協同組合ＦＵＲＵＳＡＴＯ,,その他の設立登記法人,神奈川県,平塚市,入野２８４番地の１,,14,203,2591216,,,2023-02-17,清算の結了等,,,2019-05-08,1,,,,,フルサト,0
1930,9030001137482,登記記録の閉鎖等,0,2023-02-21,2023-02-17,成達株式会社,,株式会社,埼玉県,川口市,栄町２丁目３番１３－６０２号川口栄町ローヤルコーポ,,11,203,3320017,,,2023-02-17,清算の結了等,,,2020-07-27,1,,,,,セイタツ,0
1943,9040002013913,登記記録の閉鎖等,0,2023-02-21,2023-02-16,株式会社クリスタル,,株式会社,千葉県,千葉市稲毛区,園生町３７６番地５,,12,103,2630051,,,2023-02-16,清算の結了等,,,2015-10-05,1,,,,,クリスタル,0
1945,9040002053240,登記記録の閉鎖等,0,2023-02-21,2023-02-16,有限会社ＴＥＳ,,有限会社,千葉県,柏市,大井９１０番地１１８,,12,217,2770902,,,2023-02-16,清算の結了等,,,2015-10-05,1,,,,,ティーイーエス,0
1958,9060001016790,登記記録の閉鎖等,0,2023-02-21,2023-02-16,株式会社栃木共和,,株式会社,栃木県,栃木市,大平町富田１３４９番地１,,09,203,3294404,,,2023-02-16,清算の結了等,,,2015-10-05,1,,,,,トチギキョウワ,0
1972,9120001049396,登記記録の閉鎖等,0,2023-02-21,2023-02-20,株式会社門矢製菓舗,,株式会社,大阪府,大阪市西淀川区,大野２丁目１番１３号,,27,113,5550043,,,2023-02-20,清算の結了等,,,2015-10-05,1,,,,,,0
1997,9130001007709,登記記録の閉鎖等,0,2023-02-21,2023-02-20,京都シルクビル株式会社,,株式会社,京都府,京都市左京区,聖護院円頓美町１１－４７,,26,103,6068323,,,2023-02-20,清算の結了等,,,2015-10-05,1,,,,,キョウトシルクビル,0
2019,9180002002092,登記記録の閉鎖等,0,2023-02-21,2023-02-10,有限会社川出商店,,有限会社,愛知県,名古屋市名東区,猪高台２丁目２２８番地,,23,115,4650028,,,2023-02-10,清算の結了等,,,2015-10-05,1,,,,,カワデショウテン,0
2041,9260001014659,登記記録の閉鎖等,0,2023-02-21,2023-02-10,藤倉住宅株式会社,,株式会社,岡山県,倉敷市,茶屋町１１８３番地,,33,202,7101101,,,2023-02-10,清算の結了等,,,2015-10-05,1,,,,,フジクラジュウタク,0
2080,9390002008696,登記記録の閉鎖等,0,2023-02-21,2023-02-16,有限会社アイイープランニング,,有限会社,山形県,酒田市,東大町１丁目９番３号,,06,204,9980851,,,2023-02-16,清算の結了等,,,2015-10-05,1,,,,,,0
2087,9430001025416,登記記録の閉鎖等,0,2023-02-21,2023-02-16,株式会社Ｔｏｏ札幌,,株式会社,北海道,札幌市中央区,大通西８丁目２番地３０,,01,101,0600042,,,2023-02-16,合併による解散等,4010901024712,令和５年２月１日東京都港区虎ノ門三丁目４番７号虎ノ門３６森ビル株式会社Ｔｏｏ（4010901024712）に合併し解散,2015-10-05,1,,,,,トゥーサッポロ,0
2097,9490002002821,登記記録の閉鎖等,0,2023-02-21,2023-02-15,有限会社三和会計,,有限会社,高知県,高知市,葛島１丁目５番１７号,,39,201,7818121,,,2023-02-15,清算の結了等,,,2015-10-05,1,,,,,サンワカイケイ,0
