sequenceNumber,corporateNumber,process,correct,updateDate,changeDate,name,nameImageId,kind,prefectureName,cityName,streetNumber,addressImageId,prefectureCode,cityCode,postCode,addressOutside,addressOutsideImageId,closeDate,closeCause,successorCorporateNumber,changeCause,assignmentDate,latest,enName,enPrefectureName,enCityName,enAddressOutside,furigana,hihyoji
7,1010001248421,新規,0,2024-09-20,2024-09-20,みちしるべ株式会社,,株式会社,東京都,中央区,銀座１丁目２２番１１号銀座大竹ビジデンス２Ｆ,,13,102,1040061,,,,,,,2024-09-20,1,,,,,ミチシルベ,0
8,1010001248438,新規,0,2024-09-20,2024-09-20,株式会社デジタリンク,,株式会社,東京都,千代田区,神田和泉町１番地６－１６ヤマトビル４０５,,13,101,1010024,,,,,,,2024-09-20,1,,,,,デジタリンク,0
9,1010001248446,新規,0,2024-09-20,2024-09-20,株式会社ＮＭＢ,,株式会社,東京都,千代田区,有楽町１丁目１番２号東京ミッドタウン日比谷３階,,13,101,1000006,,,,,,,2024-09-20,1,,,,,エヌエムビー,0
10,1010001248462,新規,0,2024-09-20,2024-09-20,Ｇｉｇｚ　Ｘ株式会社,,株式会社,東京都,中央区,勝どき６丁目３番１－４９１２号,,13,102,1040054,,,,,,,2024-09-20,1,,,,,ギグズエックス,0
12,1010105002303,新規,0,2024-09-20,2024-09-20,特定非営利活動法人久保山ライフサポートセンター,,その他の設立登記法人,東京都,八王子市,久保山町１丁目９番地１４,,13,201,1920023,,,,,,,2024-09-20,1,,,,,クボヤマライフサポートセンター,0
17,1010401185149,新規,0,2024-09-20,2024-09-20,株式会社トリオンフ,,株式会社,東京都,港区,新橋６丁目２０番２号ＬＯＦＷｏｒｋｓｐａｃｅ２階,,13,103,1050004,,,,,,,2024-09-20,1,,,,,トリオンフ,0
18,1010401185207,新規,0,2024-09-20,2024-09-20,株式会社ＵＳＴ１７３,,株式会社,東京都,港区,南麻布２丁目１２番７号南麻布ＴＭＤビル７階,,13,103,1060047,,,,,,,2024-09-20,1,,,,,ユーエスティーイチナナサン,0
19,1010401185248,新規,0,2024-09-20,2024-09-20,株式会社東日本復興再生機構,,株式会社,東京都,港区,六本木２丁目２番２号,,13,103,1060032,,,,,,,2024-09-20,1,,,,,ヒガシニホンフッコウサイセイキコウ,0
20,1010403033454,新規,0,2024-09-20,2024-09-20,Ｐａｔｓｎａｐ合同会社,,合同会社,東京都,港区,元麻布３丁目１番６号,,13,103,1060046,,,,,,,2024-09-20,1,,,,,パットスナップ,0
25,1010701046562,新規,0,2024-09-20,2024-09-20,ＨＡＫ　ＪＡＰＡＮ株式会社,,株式会社,東京都,品川区,東五反田５丁目６番３６号,,13,109,1410022,,,,,,,2024-09-20,1,,,,,ハックジャパン,0
26,1010701046570,新規,0,2024-09-20,2024-09-20,株式会社アーチーズジャパン,,株式会社,東京都,品川区,小山４丁目１１番１号,,13,109,1420062,,,,,,,2024-09-20,1,,,,,アーチーズジャパン,0
34,1011001164716,新規,0,2024-09-20,2024-09-20,株式会社Ｙｏｕｍｏｒｅ,,株式会社,東京都,目黒区,上目黒２丁目９番３－２０２号レガシス中目黒,,13,110,1530051,,,,,,,2024-09-20,1,,,,,,0
35,1011001164757,新規,0,2024-09-20,2024-09-20,株式会社ＷＡＢＩＳＡＢＩ,,株式会社,東京都,渋谷区,道玄坂１丁目１０番８号渋谷道玄坂東急ビル２Ｆ－Ｃ,,13,113,1500043,,,,,,,2024-09-20,1,,,,,ワビサビ,0
36,1011001164773,新規,0,2024-09-20,2024-09-20,ＳｔａｒＸ株式会社,,株式会社,東京都,渋谷区,神南１丁目１１－４ＦＰＧリンクス神南５階,,13,113,1500041,,,,,,,2024-09-20,1,,,,,スターエックス,0
37,1011003020058,新規,0,2024-09-20,2024-09-20,合同会社オフィス植松,,合同会社,東京都,目黒区,中央町２丁目２番１１号,,13,110,1520001,,,,,,,2024-09-20,1,,,,,オフィスウエマツ,0
39,1011101108829,新規,0,2024-09-20,2024-09-20,国際文献ホールディングス株式会社,,株式会社,東京都,新宿区,山吹町３５８番地５,,13,104,1620801,,,,,,,2024-09-20,1,,,,,コクサイブンケンホールディングス,0
40,1011101108845,新規,0,2024-09-20,2024-09-20,株式会社法人保険の義務教育,,株式会社,東京都,新宿区,信濃町１４番地１４,,13,104,1600016,,,,,,,2024-09-20,1,,,,,ホウジンホケンノギムキョウイク,0
45,1011103014967,新規,0,2024-09-20,2024-09-20,合同会社ＪＫＦ‐１,,合同会社,東京都,新宿区,下宮比町１番４号,,13,104,1620822,,,,,,,2024-09-20,1,,,,,ジェイケイエフワン,0
55,1011803006462,新規,0,2024-09-20,2024-09-20,＿一合同会社,00136359,合同会社,東京都,足立区,大谷田１丁目一番７－４３１室,,13,121,1200001,,,,,,,2024-09-20,1,,,,,キンイチ,0
59,1012701018459,新規,0,2024-09-20,2024-09-20,株式会社ＴＨＬＥＡＤ,,株式会社,東京都,東村山市,青葉町２丁目１２番地３,,13,213,1890002,,,,,,,2024-09-20,1,,,,,スリード,0
61,1013303007313,新規,0,2024-09-20,2024-09-20,合同会社ＡＯ,,合同会社,東京都,豊島区,南大塚３丁目３７番１０－２０２号,,13,116,1700005,,,,,,,2024-09-20,1,,,,,エーオー,0
68,1020003026931,新規,0,2024-09-20,2024-09-20,合同会社ｃｏｍｐａｓｓ,,合同会社,神奈川県,川崎市多摩区,宿河原３丁目５－３２,,14,135,2140021,,,,,,,2024-09-20,1,,,,,コンパス,0
70,1021001083287,新規,0,2024-09-20,2024-09-20,株式会社スタジオＳＮＯＷ,,株式会社,神奈川県,平塚市,上吉沢２２７３番地,,14,203,2591204,,,,,,,2024-09-20,1,,,,,スタジオスノー,0
71,1021001083295,新規,0,2024-09-20,2024-09-20,ＨＡＳ株式会社,,株式会社,神奈川県,綾瀬市,寺尾西１丁目１０番１３号サンハイツＣ・Ｃ２０７,,14,218,2521136,,,,,,,2024-09-20,1,,,,,エイチエーエス,0
76,1021003014926,新規,0,2024-09-20,2024-09-20,合同会社ＳＰＥＸ　ＬＯＧＩＳＴＩＣＳ,,合同会社,神奈川県,相模原市中央区,清新６丁目１０番２１－３１５号,,14,152,2520216,,,,,,,2024-09-20,1,,,,,スペックスロジスティクス,0
77,1021003015032,新規,0,2024-09-20,2024-09-20,合同会社良い人生,,合同会社,神奈川県,小田原市,北ノ窪４７１番地の３,,14,206,2500051,,,,,,,2024-09-20,1,,,,,イイジンセイ,0
81,1030001162496,新規,0,2024-09-20,2024-09-20,匠屋株式会社,,株式会社,埼玉県,越谷市,瓦曽根３丁目１番１３号,,11,222,3430821,,,,,,,2024-09-20,1,,,,,タクミヤ,0
82,1030001162538,新規,0,2024-09-20,2024-09-20,大勝商事株式会社,,株式会社,埼玉県,川越市,砂新田３丁目１５番地１８サンハイツ新河岸２０２号,,11,201,3501137,,,,,,,2024-09-20,1,,,,,タイショウショウジ,0
83,1030001162579,新規,0,2024-09-20,2024-09-20,株式会社ｂｅｌｌｓ,,株式会社,埼玉県,さいたま市西区,三橋６丁目４６５番地２,,11,101,3310052,,,,,,,2024-09-20,1,,,,,ベルズ,0
86,1030003025148,新規,0,2024-09-20,2024-09-20,合同会社マンハッタン・レーヴ,,合同会社,埼玉県,三郷市,高州１丁目３０３番地クレインヒルズ２０６,,11,237,3410037,,,,,,,2024-09-20,1,,,,,マンハッタンレーヴ,0
89,1040001135336,新規,0,2024-09-20,2024-09-20,株式会社ｉｎａｓｈｉｇｅ,,株式会社,千葉県,松戸市,常盤平６丁目６－１,,12,207,2702261,,,,,,,2024-09-20,1,,,,,イナシゲ,0
90,1040001135427,新規,0,2024-09-20,2024-09-20,石井興業株式会社,,株式会社,千葉県,君津市,西粟倉１１８番地,,12,225,2921168,,,,,,,2024-09-20,1,,,,,イシイコウギョウ,0
91,1040001135435,新規,0,2024-09-20,2024-09-20,株式会社下田工業,,株式会社,千葉県,東金市,東新宿１５番地８,,12,213,2830006,,,,,,,2024-09-20,1,,,,,シモダコウギョウ,0
92,1040001135443,新規,0,2024-09-20,2024-09-20,森倉株式会社,,株式会社,千葉県,我孫子市,布佐２２５１－３,,12,222,2701101,,,,,,,2024-09-20,1,,,,,モリクラ,0
93,1040001135476,新規,0,2024-09-20,2024-09-20,株式会社リリィケア,,株式会社,千葉県,千葉市中央区,都町１丁目４５番１４号,,12,101,2600001,,,,,,,2024-09-20,1,,,,,リリィケア,0
96,1040003025799,新規,0,2024-09-20,2024-09-20,合同会社リオ・プロパティーズ,,合同会社,千葉県,松戸市,松戸２１０１番地の４Ａ棟,,12,207,2710092,,,,,,,2024-09-20,1,,,,,リオプロパティーズ,0
97,1050001055434,新規,0,2024-09-20,2024-09-20,株式会社ＴＮＬ　Ｔｒｉｂｅ,,株式会社,茨城県,行方市,麻生１２６０－４,,08,233,3113832,,,,,,,2024-09-20,1,,,,,ティーエヌエルトライブ,0
100,1060003005254,新規,0,2024-09-20,2024-09-20,オリーブベース合同会社,,合同会社,栃木県,塩谷郡高根沢町,光陽台２丁目５０番地１,,09,386,3291232,,,,,,,2024-09-20,1,,,,,オリーブベース,0
101,1070001042190,新規,0,2024-09-20,2024-09-20,株式会社Ｂ１,,株式会社,群馬県,高崎市,小八木町１２０２番地１,,10,202,3700071,,,,,,,2024-09-20,1,,,,,ビーワン,0
108,1090005007650,新規,0,2024-09-20,2024-09-20,医療法人杉松会,,その他の設立登記法人,山梨県,北杜市,長坂町大八田字道添３８６０番１,,19,209,4080034,,,,,,,2024-09-20,1,,,,,スギマツカイ,0
109,1100001037856,新規,0,2024-09-20,2024-09-20,株式会社Ｎｅｗｔｒａｌ．,,株式会社,長野県,北安曇郡松川村,１３３３番地１,,20,482,3998501,,,,,,,2024-09-20,1,,,,,ニュートラル,0
119,1120001268648,新規,0,2024-09-20,2024-09-20,株式会社Ｍｉｎｄｈａｃｋ,,株式会社,大阪府,大阪市生野区,林寺４丁目２－２－２Ｆ,,27,116,5440023,,,,,,,2024-09-20,1,,,,,マインドハック,0
120,1120001268722,新規,0,2024-09-20,2024-09-20,慧興商貿株式会社,,株式会社,大阪府,大阪市生野区,巽中２丁目４番１５－４０４号,,27,116,5440013,,,,,,,2024-09-20,1,,,,,ケイコウショウボウ,0
121,1120001268739,新規,0,2024-09-20,2024-09-20,ヘルプカンパニー株式会社,,株式会社,大阪府,大阪市北区,万歳町１番６号,,27,127,5300028,,,,,,,2024-09-20,1,,,,,ヘルプカンパニー,0
126,1120003027564,新規,0,2024-09-20,2024-09-20,カマ合同会社,,合同会社,大阪府,大阪市西成区,松３丁目１１番２２号３０２号室,,27,122,5570034,,,,,,,2024-09-20,1,,,,,カマ,0
127,1120003027572,新規,0,2024-09-20,2024-09-20,合同会社アイリス,,合同会社,大阪府,大阪市都島区,都島南通２丁目５番１８号レオン京橋１０５号,,27,102,5340023,,,,,,,2024-09-20,1,,,,,アイリス,0
130,1122001038460,新規,0,2024-09-20,2024-09-20,株式会社インフィニットブルーム,,株式会社,大阪府,八尾市,東山本町６丁目４番３２号,,27,212,5810847,,,,,,,2024-09-20,1,,,,,インフィニットブルーム,0
142,1140001135838,新規,0,2024-09-20,2024-09-20,株式会社尼崎コンサルティング,,株式会社,兵庫県,尼崎市,塚口町６丁目３４番地の２９,,28,202,6610002,,,,,,,2024-09-20,1,,,,,アマガサキコンサルティング,0
143,1140001135870,新規,0,2024-09-20,2024-09-20,株式会社金子ＰＭＣ,,株式会社,兵庫県,神戸市中央区,磯上通８丁目１番２９号カサベラビルＣ＆Ｍ４０３号室,,28,110,6510086,,,,,,,2024-09-20,1,,,,,カネコピーエムシー,0
148,1140003021103,新規,0,2024-09-20,2024-09-20,合同会社ネオプランリンクス,,合同会社,兵庫県,神戸市中央区,磯辺通１丁目１番１８号カサベラ国際プラザビル７０７号室,,28,110,6510084,,,,,,,2024-09-20,1,,,,,ネオプランリンクス,0
150,1150005009624,新規,0,2024-09-20,2024-09-20,特定非営利活動法人松下会わが家,,その他の設立登記法人,奈良県,吉野郡大淀町,大字桧垣本１０１０番地の１５３,,29,442,6380812,,,,,,,2024-09-20,1,,,,,マツシタカイワガヤ,0
159,1200001042945,新規,0,2024-09-20,2024-09-20,岡部板金株式会社,,株式会社,岐阜県,揖斐郡大野町,大字黒野２２９７番地１１,,21,403,5010521,,,,,,,2024-09-20,1,,,,,オカベバンキン,0
163,1210003001840,新規,0,2024-09-20,2024-09-20,ｈｏｔｏ　ｈｏｔｏ合同会社,,合同会社,福井県,大飯郡高浜町,西三松第１３号４１番地,,18,481,9192381,,,,,,,2024-09-20,1,,,,,ホトホト,0
166,1240001063830,新規,0,2024-09-20,2024-09-20,株式会社ＴＯＭＯＲＲＯＷ,,株式会社,広島県,広島市中区,大手町５丁目１－１－７Ｆ－Ｃ,,34,101,7300051,,,,,,,2024-09-20,1,,,,,トゥモロー,0
167,1250001020822,新規,0,2024-09-20,2024-09-20,株式会社ユナイテッド,,株式会社,山口県,周南市,大字徳山４７０２番地の５,,35,215,7450851,,,,,,,2024-09-20,1,,,,,ユナイテッド,0
177,1290001107277,新規,0,2024-09-20,2024-09-20,株式会社ＨＯＰＥ,,株式会社,福岡県,福岡市中央区,大名２丁目２－５７藤和サンコープ大名９０１,,40,133,8100041,,,,,,,2024-09-20,1,,,,,ホープ,0
178,1290001107293,新規,0,2024-09-20,2024-09-20,株式会社ギフト,,株式会社,福岡県,福岡市博多区,元町１丁目１番１７号グレイスコート０１,,40,132,8120877,,,,,,,2024-09-20,1,,,,,ギフト,0
179,1290001107302,新規,0,2024-09-20,2024-09-20,株式会社ＮＵＭＥＲＯＰＲＩＭＥ,,株式会社,福岡県,福岡市中央区,今泉２丁目４番１９－５０３号,,40,133,8100021,,,,,,,2024-09-20,1,,,,,ヌメロプライム,0
180,1290001107335,新規,0,2024-09-20,2024-09-20,株式会社イノベーターズ,,株式会社,福岡県,小郡市,横隈１８３０番地１嘉賀アパート西２号,,40,216,8380105,,,,,,,2024-09-20,1,,,,,イノベーターズ,0
181,1290003015825,新規,0,2024-09-20,2024-09-20,合同会社ソリューションジャパン,,合同会社,福岡県,福岡市中央区,天神２丁目２番１２号Ｔ＆Ｊビルディング７Ｆ,,40,133,8100001,,,,,,,2024-09-20,1,,,,,ソリューションジャパン,0
188,1310001019214,新規,0,2024-09-20,2024-09-20,ルーフ・エンジニアリング株式会社,,株式会社,長崎県,長崎市,岡町５番１号４０１,,42,201,8528115,,,,,,,2024-09-20,1,,,,,ルーフエンジニアリング,0
190,1330005010828,新規,0,2024-09-20,2024-09-20,ＮＰＯ法人ネコハル,,その他の設立登記法人,熊本県,球磨郡あさぎり町,岡原南２２３６番地１３,,43,514,8680432,,,,,,,2024-09-20,1,,,,,ネコハル,0
197,1360003014282,新規,0,2024-09-20,2024-09-20,合同会社ＳＫサポート,,合同会社,沖縄県,名護市,東江１丁目６番２１号シエロビアント東江名護シティ６０３号,,47,209,9050021,,,,,,,2024-09-20,1,,,,,エスケーサポート,0
202,1370001051731,新規,0,2024-09-20,2024-09-20,株式会社Ｍｉｓｓｙ,,株式会社,宮城県,仙台市青葉区,旭ケ丘２丁目４番１４号,,04,101,9810904,,,,,,,2024-09-20,1,,,,,ミッシー,0
213,1410005006603,新規,0,2024-09-20,2024-09-20,一般社団法人秋田県古民家再生協会,,その他の設立登記法人,秋田県,秋田市,東通６丁目１－３１,,05,201,0100003,,,,,,,2024-09-20,1,,,,,アキタケンコミンカサイセイキョウカイ,0
217,1420003002999,新規,0,2024-09-20,2024-09-20,合同会社日和,,合同会社,青森県,青森市,妙見２丁目２０番４号,,02,201,0300121,,,,,,,2024-09-20,1,,,,,ヒヨリ,0
226,1430003016791,新規,0,2024-09-20,2024-09-20,日本モルト合同会社,,合同会社,北海道,空知郡南幌町,美園１丁目１番３号,,01,423,0690234,,,,,,,2024-09-20,1,,,,,,0
227,1430003016800,新規,0,2024-09-20,2024-09-20,合同会社ＰＥＡＣＥ,,合同会社,北海道,札幌市北区,新琴似五条１５丁目３番５号,,01,102,0010905,,,,,,,2024-09-20,1,,,,,ピース,0
228,1430005015073,新規,0,2024-09-20,2024-09-20,一般社団法人善生会,,その他の設立登記法人,北海道,札幌市南区,藤野二条１１丁目１６番３号,,01,106,0612282,,,,,,,2024-09-20,1,,,,,,0
236,1700150127240,新規,0,2024-09-20,2024-09-20,ｓｈｅｎｚｈｅｎｓｈｉｚｈｕｏｃｈｅｎｙａｏｍａｏｙｉｙｏｕｘｉａｎｇｏｎｇｓｉ,,外国会社等,,,,,,,,ｓｈｅｎｚｈｅｎｓｈｉｌｏｎｇｇａｎｇｑｕｂａｎｔｉａｎｊｉｅｄａｏｇａｎｇｔｏｕｓｈｅｑｕｚｈｏｎｇｘｉｎｗｅｉｃｕｎｙｉｑｕ３ｈａｏ４０１,,,,,,2024-09-20,1,,,,,シンセンシタクチンヨウボウエキユウゲンコウシ,0
243,2010101016330,新規,0,2024-09-20,2024-09-20,株式会社ｋｏｂａｔａ,,株式会社,東京都,八王子市,絹ケ丘１丁目５１番４号,,13,201,1920912,,,,,,,2024-09-20,1,,,,,コバタ,0
258,2010401185156,新規,0,2024-09-20,2024-09-20,株式会社ＩｎｃｕｂｅＸ　Ｓｔｕｄｉｏ,,株式会社,東京都,港区,虎ノ門４丁目３－１ＷｅＷｏｒｋ城山トラストタワー２１階,,13,103,1050001,,,,,,,2024-09-20,1,,,,,インキュベックススタジオ,0
261,2010403033379,新規,0,2024-09-20,2024-09-20,ＴＤスタイル合同会社,,合同会社,東京都,港区,芝５丁目１６番５－７０８号,,13,103,1080014,,,,,,,2024-09-20,1,,,,,ティーディースタイル,0
262,2010403033429,新規,0,2024-09-20,2024-09-20,合同会社トキノデアイ,,合同会社,東京都,港区,南青山３丁目１番３６号青山丸竹ビル６階,,13,103,1070062,,,,,,,2024-09-20,1,,,,,トキノデアイ,0
263,2010405023592,新規,0,2024-09-20,2024-09-20,ソーラーハクチョウ一般社団法人,,その他の設立登記法人,東京都,港区,南青山２丁目１３番２号サンライズ青山２Ｆ青山国際税理士法人内,,13,103,1070062,,,,,,,2024-09-20,1,,,,,ソーラーハクチョウ,0
265,2010501052883,新規,0,2024-09-20,2024-09-20,株式会社ベルパレット,,株式会社,東京都,台東区,浅草橋１丁目１番地の１５原田ビル,,13,106,1110053,,,,,,,2024-09-20,1,,,,,ベルパレット,0
282,2011101108844,新規,0,2024-09-20,2024-09-20,Ｔａｌｋｉｎｇ　Ｄｒｕｍｓ株式会社,,株式会社,東京都,新宿区,西新宿８丁目１１－１０星野ビル３Ｆ３３７号室,,13,104,1600023,,,,,,,2024-09-20,1,,,,,トーキングドラムス,0
290,2011501031150,新規,0,2024-09-20,2024-09-20,Ｎｉｐｐｏｎ　ｗｉｎｇｓ株式会社,,株式会社,東京都,荒川区,西日暮里２丁目２６番５号市井ビル,,13,118,1160013,,,,,,,2024-09-20,1,,,,,ニッポンウイングス,0
291,2011601028071,新規,0,2024-09-20,2024-09-20,株式会社東商,,株式会社,東京都,練馬区,北町２丁目３６番８号,,13,120,1790081,,,,,,,2024-09-20,1,,,,,トーショウ,0
293,2011701027642,新規,0,2024-09-20,2024-09-20,株式会社エイチツー,,株式会社,東京都,江戸川区,江戸川２丁目１４番３４号,,13,123,1320013,,,,,,,2024-09-20,1,,,,,エイチツー,0
294,2012303002050,新規,0,2024-09-20,2024-09-20,合同会社ａｔｌａｓ,,合同会社,東京都,町田市,大蔵町１４２７番地ウェルハイツ１０２,,13,209,1950062,,,,,,,2024-09-20,1,,,,,,0
296,2012401042295,新規,0,2024-09-20,2024-09-20,Ｋａｎａｉｚａｃｏ株式会社,,株式会社,東京都,武蔵野市,御殿山１丁目６番１１号Ｋ２ビル２Ｆ,,13,203,1800005,,,,,,,2024-09-20,1,,,,,カナイザコ,0
297,2012403006744,新規,0,2024-09-20,2024-09-20,三海金属合同会社,,合同会社,東京都,武蔵野市,中町１丁目１２番１０－１００１号,,13,203,1800006,,,,,,,2024-09-20,1,,,,,サンカイキンゾク,0
299,2012701018458,新規,0,2024-09-20,2024-09-20,ＢｉＺｉＴコンサルティング株式会社,,株式会社,東京都,小平市,花小金井２丁目３番２１－５０３号,,13,211,1870002,,,,,,,2024-09-20,1,,,,,ビジットコンサルティング,0
301,2013101009519,新規,0,2024-09-20,2024-09-20,株式会社Ｒｅ．,,株式会社,東京都,あきる野市,伊奈１２６２番地５,,13,228,1900142,,,,,,,2024-09-20,1,,,,,リー,0
314,2021001083278,新規,0,2024-09-20,2024-09-20,株式会社桃の木,,株式会社,神奈川県,足柄上郡中井町,井ノ口２８０２－４－２０６,,14,361,2590151,,,,,,,2024-09-20,1,,,,,モモノキ,0
316,2021003015031,新規,0,2024-09-20,2024-09-20,合同会社ＳＡＭＵＲＡＩ‐ＡＧＥＮＣＹ,,合同会社,神奈川県,鎌倉市,稲村ガ崎１丁目１８番７－２号,,14,204,2480024,,,,,,,2024-09-20,1,,,,,サムライエージェンシー,0
322,2030001162504,新規,0,2024-09-20,2024-09-20,株式会社ＧＢＴｅｃｈ,,株式会社,埼玉県,春日部市,金崎１０１０番地１１,,11,214,3440117,,,,,,,2024-09-20,1,,,,,ジービーテック,0
323,2030001162529,新規,0,2024-09-20,2024-09-20,株式会社ＴｏＲ,,株式会社,埼玉県,川越市,むさし野南２６－４,,11,201,3501158,,,,,,,2024-09-20,1,,,,,トアル,0
324,2030001162537,新規,0,2024-09-20,2024-09-20,株式会社ＴＡＮＯＣ,,株式会社,埼玉県,日高市,大字女影１７７１番地,,11,242,3501227,,,,,,,2024-09-20,1,,,,,タノック,0
325,2030001162553,新規,0,2024-09-20,2024-09-20,東福商事株式会社,,株式会社,埼玉県,川口市,並木２丁目１５番１５－３１０号,,11,203,3320034,,,,,,,2024-09-20,1,,,,,トウフクショウジ,0
326,2030001162586,新規,0,2024-09-20,2024-09-20,株式会社ミライズ,,株式会社,埼玉県,さいたま市大宮区,桜木町２丁目３番地大宮マルイ７階,,11,103,3300854,,,,,,,2024-09-20,1,,,,,ミライズ,0
332,2040001135459,新規,0,2024-09-20,2024-09-20,株式会社我妻タイル工業,,株式会社,千葉県,鎌ケ谷市,東道野辺３丁目６番２０号,,12,224,2730115,,,,,,,2024-09-20,1,,,,,アガツマタイルコウギョウ,0
359,2110001038712,新規,0,2024-09-20,2024-09-20,株式会社ウィルサポート,,株式会社,新潟県,新潟市秋葉区,車場８６１番地１,,15,105,9560011,,,,,,,2024-09-20,1,,,,,ウィルサポート,0
370,2120001268639,新規,0,2024-09-20,2024-09-20,株式会社イフテイズ,,株式会社,大阪府,大阪市福島区,福島７丁目１－１０Ｗｉｚｆｕｋｕｓｈｉｍａ２階ＧＲＡＮＤＳＬＡＭ,,27,103,5530003,,,,,,,2024-09-20,1,,,,,イフテイズ,0
371,2120001268705,新規,0,2024-09-20,2024-09-20,株式会社ＮＥＸＴ,,株式会社,大阪府,大阪市中央区,島之内１丁目１３番３号おおきに東心斎橋ビル５０３,,27,128,5420082,,,,,,,2024-09-20,1,,,,,ネクスト,0
385,2130001077980,新規,0,2024-09-20,2024-09-20,株式会社Ｐ＆Ｄ　ＴＲＡＤＩＮＧ,,株式会社,京都府,綴喜郡宇治田原町,銘城台１７番地の１０,,26,344,6100254,,,,,,,2024-09-20,1,,,,,ピーアンドディートレーディング,0
386,2130001077989,新規,0,2024-09-20,2024-09-20,サンロード株式会社,,株式会社,京都府,京都市西京区,大原野小塩町６４６番地,,26,111,6101133,,,,,,,2024-09-20,1,,,,,サンロード,0
391,2140003021093,新規,0,2024-09-20,2024-09-20,Ａｓａｋｉ　Ｃｏｍｐａｎｙ合同会社,,合同会社,兵庫県,神戸市西区,伊川谷町長坂９７７番地の１６８,,28,111,6512104,,,,,,,2024-09-20,1,,,,,アサキカンパニー,0
396,2170003002099,新規,0,2024-09-20,2024-09-20,合同会社トライロ,,合同会社,和歌山県,田辺市,芳養松原２丁目１８番１９号,,30,206,6460063,,,,,,,2024-09-20,1,,,,,トライロ,0
403,2180001163339,新規,0,2024-09-20,2024-09-20,株式会社ＴＭコーポレーション,,株式会社,愛知県,瀬戸市,西米泉町９２番地,,23,204,4890943,,,,,,,2024-09-20,1,,,,,ティーエムコーポレーション,0
409,2180003027384,新規,0,2024-09-20,2024-09-20,棚橋コンサルティング合同会社,,合同会社,愛知県,名古屋市西区,栄生２丁目５番３号１２０３号室,,23,104,4510052,,,,,,,2024-09-20,1,,,,,タナハシコンサルティング,0
418,2240005015835,新規,0,2024-09-20,2024-09-20,医療法人社団ＰＲＩＭＡ,,その他の設立登記法人,広島県,広島市中区,大手町１丁目８番２２号本通ＷＥＳＴＸ３階３０１,,34,101,7300051,,,,,,,2024-09-20,1,,,,,プリマ,0
424,2290001107284,新規,0,2024-09-20,2024-09-20,永昌株式会社,,株式会社,福岡県,福岡市博多区,吉塚本町７－１６プラッツ吉塚３０３号室,,40,132,8120046,,,,,,,2024-09-20,1,,,,,,0
425,2290001107318,新規,0,2024-09-20,2024-09-20,株式会社エイド,,株式会社,福岡県,久留米市,田主丸町志塚島７８７番地４,,40,203,8391222,,,,,,,2024-09-20,1,,,,,エイド,0
426,2290001107334,新規,0,2024-09-20,2024-09-20,皓天マネジメント株式会社,,株式会社,福岡県,福岡市中央区,警固１丁目１５番２２－７０３号,,40,133,8100023,,,,,,,2024-09-20,1,,,,,コウテンマネジメント,0
427,2290001107342,新規,0,2024-09-20,2024-09-20,株式会社ピュア・マインド,,株式会社,福岡県,福岡市中央区,大名２丁目４番３５号,,40,133,8100041,,,,,,,2024-09-20,1,,,,,ピュアマインド,0
437,2360003014315,新規,0,2024-09-20,2024-09-20,合同会社Ｓｍｉｌｅ　ｌｉｆｅ,,合同会社,沖縄県,那覇市,字安里３７９－３・２階,,47,201,9020067,,,,,,,2024-09-20,1,,,,,スマイルライフ,0
445,2410001013940,新規,0,2024-09-20,2024-09-20,株式会社フレグゼック,,株式会社,秋田県,秋田市,八橋本町３丁目１１番１２号サンモール八橋Ｄ２０１,,05,201,0100973,,,,,,,2024-09-20,1,,,,,フレグゼック,0
446,2410005006602,新規,0,2024-09-20,2024-09-20,行政書士法人草薙事務所,,その他の設立登記法人,秋田県,秋田市,泉北１丁目１１番２５号,,05,201,0100916,,,,,,,2024-09-20,1,,,,,クサナギジムショ,0
451,2440003001627,新規,0,2024-09-20,2024-09-20,合同会社シンコウ,,合同会社,北海道,寿都郡黒松内町,字黒松内４４１番地４８,,01,393,0480101,,,,,,,2024-09-20,1,,,,,シンコウ,0
458,2500001025885,新規,0,2024-09-20,2024-09-20,株式会社ＯＤＡＲＩＫＵ,,株式会社,愛媛県,松山市,南吉田町３４６番地１５,,38,201,7918042,,,,,,,2024-09-20,1,,,,,オダリク,0
470,3010003044932,新規,0,2024-09-20,2024-09-20,合同会社Ｓｉｌｖｅｒ　Ｓｕｎ,,合同会社,東京都,千代田区,霞が関３丁目２番５号,,13,101,1000013,,,,,,,2024-09-20,1,,,,,シルバーサン,0
474,3010403033428,新規,0,2024-09-20,2024-09-20,合同会社御殿場高圧蓄電所,,合同会社,東京都,港区,芝大門２丁目１２番３号,,13,103,1050012,,,,,,,2024-09-20,1,,,,,ゴテンバコウアツチクデンショ,0
475,3010405023550,新規,0,2024-09-20,2024-09-20,一般社団法人東京ＬＡＢ,,その他の設立登記法人,東京都,港区,三田２丁目１４番４－６０３号,,13,103,1080073,,,,,,,2024-09-20,1,,,,,トウキョウラボ,0
481,3010601065958,新規,0,2024-09-20,2024-09-20,株式会社東京環境エネルギー,,株式会社,東京都,江東区,北砂５丁目１３番１２号,,13,108,1360073,,,,,,,2024-09-20,1,,,,,トウキョウカンキョウエネルギー,0
483,3010603011101,新規,0,2024-09-20,2024-09-20,Ｍプロモート合同会社,,合同会社,東京都,江東区,木場５丁目６番３６－３０９号,,13,108,1350042,,,,,,,2024-09-20,1,,,,,エムプロモート,0
484,3010703007346,新規,0,2024-09-20,2024-09-20,合同会社グローバレンズ,,合同会社,東京都,品川区,旗の台６丁目１８番地１０号パークハウス旗の台６丁目２０３号室,,13,109,1420064,,,,,,,2024-09-20,1,,,,,グローバレンズ,0
485,3010703007354,新規,0,2024-09-20,2024-09-20,合同会社戸田,,合同会社,東京都,品川区,上大崎２丁目５番２１号,,13,109,1410021,,,,,,,2024-09-20,1,,,,,トダ,0
495,3011001164706,新規,0,2024-09-20,2024-09-20,株式会社ＴＯＩ,,株式会社,東京都,渋谷区,渋谷２丁目１９－１５宮益坂ビルディング６０９,,13,113,1500002,,,,,,,2024-09-20,1,,,,,ティーオーアイ,0
496,3011001164763,新規,0,2024-09-20,2024-09-20,ポジティブフィードバック株式会社,,株式会社,東京都,渋谷区,道玄坂２丁目６番１７号渋東シネタワー１２階,,13,113,1500043,,,,,,,2024-09-20,1,,,,,ポジティブフィードバック,0
501,3011101108843,新規,0,2024-09-20,2024-09-20,ＮｅｘｔＳｔｅｐ　ＪＰ株式会社,,株式会社,東京都,新宿区,新宿６丁目２９番１１号新宿イーストクロスタワー１０Ｆ,,13,104,1600022,,,,,,,2024-09-20,1,,,,,ネクストステップジャパン,0
506,3011603004458,新規,0,2024-09-20,2024-09-20,合同会社青葉ケアタクシー,,合同会社,東京都,練馬区,石神井台２丁目２５－２,,13,120,1770045,,,,,,,2024-09-20,1,,,,,アオバケアタクシー,0
509,3011803006460,新規,0,2024-09-20,2024-09-20,合同会社ＡＭＡＴＥＲＡＳＵ,,合同会社,東京都,足立区,梅田６丁目６番１２－２０５号,,13,121,1230851,,,,,,,2024-09-20,1,,,,,アマテラス,0
518,3020001159269,新規,0,2024-09-20,2024-09-20,株式会社ビル・テック・ジャパン,,株式会社,神奈川県,川崎市中原区,小杉御殿町２丁目１１１番地,,14,133,2110068,,,,,,,2024-09-20,1,,,,,ビルテックジャパン,0
520,3020003026921,新規,0,2024-09-20,2024-09-20,マサラモア合同会社,,合同会社,神奈川県,横浜市都筑区,中川中央１丁目２１－３ドゥーエセンター北２０１,,14,118,2240003,,,,,,,2024-09-20,1,,,,,マサラモア,0
521,3021001083285,新規,0,2024-09-20,2024-09-20,株式会社ＧＦＣ,,株式会社,神奈川県,鎌倉市,城廻１２３番地１,,14,204,2470074,,,,,,,2024-09-20,1,,,,,ジーエフシー,0
522,3021001083293,新規,0,2024-09-20,2024-09-20,株式会社パーティクルラボ,,株式会社,神奈川県,平塚市,四之宮３丁目２番４７号,,14,203,2540014,,,,,,,2024-09-20,1,,,,,パーティクルラボ,0
528,3021005013180,新規,0,2024-09-20,2024-09-20,特定非営利活動法人Ｓｈｕ‐Ｈａ‐Ｒｉ,,その他の設立登記法人,神奈川県,鎌倉市,笛田５丁目５２番２号,,14,204,2480027,,,,,,,2024-09-20,1,,,,,シュハリ,0
535,3030001162478,新規,0,2024-09-20,2024-09-20,三華株式会社,,株式会社,埼玉県,戸田市,喜沢１丁目２２番地の３,,11,224,3350013,,,,,,,2024-09-20,1,,,,,ミハナ,0
536,3030001162544,新規,0,2024-09-20,2024-09-20,株式会社ＤＩＲＥＣＴ,,株式会社,埼玉県,東松山市,殿山町１４－１９,,11,212,3550003,,,,,,,2024-09-20,1,,,,,ディレクト,0
537,3030001162569,新規,0,2024-09-20,2024-09-20,株式会社ＡＧＥＨＡ,,株式会社,埼玉県,川口市,西青木５丁目５番６－１０２号コープ野村青木町公園,,11,203,3320035,,,,,,,2024-09-20,1,,,,,アゲハ,0
538,3030001162577,新規,0,2024-09-20,2024-09-20,株式会社ＴＯＫＵＳＵＮ,,株式会社,埼玉県,さいたま市大宮区,大門町２丁目７番地,,11,103,3300846,,,,,,,2024-09-20,1,,,,,トクサン,0
539,3030001162585,新規,0,2024-09-20,2024-09-20,グローバル人財バンク株式会社,,株式会社,埼玉県,坂戸市,薬師町２２番地３第５石田ビル１０３,,11,239,3500229,,,,,,,2024-09-20,1,,,,,グローバルジンザイバンク,0
543,3030003025154,新規,0,2024-09-20,2024-09-20,合同会社ライト,,合同会社,埼玉県,さいたま市岩槻区,城南１丁目１番２１－４号,,11,110,3390043,,,,,,,2024-09-20,1,,,,,ライト,0
544,3030003025162,新規,0,2024-09-20,2024-09-20,合同会社ＦＫＢ,,合同会社,埼玉県,さいたま市見沼区,大字南中丸９４３番地１８,,11,104,3370041,,,,,,,2024-09-20,1,,,,,エフケービー,0
547,3040001135433,新規,0,2024-09-20,2024-09-20,山田建工株式会社,,株式会社,千葉県,印西市,原山２丁目３番地６棟６０３号,,12,231,2701341,,,,,,,2024-09-20,1,,,,,ヤマダケンコウ,0
551,3040003025822,新規,0,2024-09-20,2024-09-20,合同会社ＩＳＯＫＩ,,合同会社,千葉県,松戸市,緑ケ丘２丁目３６９藤和シティコープ松戸上本郷３０３,,12,207,2710074,,,,,,,2024-09-20,1,,,,,イソキ,0
552,3040003025830,新規,0,2024-09-20,2024-09-20,合同会社デリーセ,,合同会社,千葉県,茂原市,高師１７３５－２階,,12,210,2970029,,,,,,,2024-09-20,1,,,,,デリーゼ,0
555,3050001055424,新規,0,2024-09-20,2024-09-20,株式会社関東観光貿易,,株式会社,茨城県,坂東市,内野山１２５０番地５,,08,228,3060514,,,,,,,2024-09-20,1,,,,,カントウカンコウボウエキ,0
560,3060001037504,新規,0,2024-09-20,2024-09-20,株式会社ＳＶＴ‐２,,株式会社,栃木県,足利市,寺岡町３５１番地,,09,202,3294213,,,,,,,2024-09-20,1,,,,,エスブイティーツー,0
561,3060003005252,新規,0,2024-09-20,2024-09-20,ｅａｒｔｈ’ｓ合同会社,,合同会社,栃木県,芳賀郡市貝町,大字杉山７０３番地５,,09,344,3213415,,,,,,,2024-09-20,1,,,,,アース,0
564,3080001026496,新規,0,2024-09-20,2024-09-20,株式会社ミセナビ,,株式会社,静岡県,静岡市葵区,二番町３番地の１０ラ・フォーレ二番町４０１,,22,101,4200072,,,,,,,2024-09-20,1,,,,,ミセナビ,0
567,3100001037854,新規,0,2024-09-20,2024-09-20,株式会社クリエイトホールディングス,,株式会社,長野県,北佐久郡軽井沢町,大字長倉９番地１０８,,20,321,3890111,,,,,,,2024-09-20,1,,,,,クリエイトホールディングス,0
568,3100005013224,新規,0,2024-09-20,2024-09-20,一般社団法人信州医療開発,,その他の設立登記法人,長野県,塩尻市,大門八番町１番２８号シビックイノベーション拠点スナバ,,20,215,3990737,,,,,,,2024-09-20,1,,,,,シンシュウイリョウカイハツ,0
589,3140001135836,新規,0,2024-09-20,2024-09-20,株式会社Ｌ・Ａ・Ｍ,,株式会社,兵庫県,加古川市,尾上町長田５１３番地,,28,210,6750024,,,,,,,2024-09-20,1,,,,,エルエーエム,0
590,3140001135860,新規,0,2024-09-20,2024-09-20,ＢＵＲＫＥＧＯＬＦ　ＪＰ株式会社,,株式会社,兵庫県,姫路市,飾磨区野田町９５番地３第１ニシキビル１Ｆ,,28,201,6728040,,,,,,,2024-09-20,1,,,,,バークゴルフジェイピー,0
598,3170001018311,新規,0,2024-09-20,2024-09-20,ＫＩＮＯＹＡ株式会社,,株式会社,和歌山県,和歌山市,九番丁４番地１,,30,201,6408155,,,,,,,2024-09-20,1,,,,,キノヤ,0
608,3180001163338,新規,0,2024-09-20,2024-09-20,ＮＯＷＡ株式会社,,株式会社,愛知県,名古屋市東区,泉３丁目３０番３号－５,,23,102,4610001,,,,,,,2024-09-20,1,,,,,ノワ,0
616,3190001031659,新規,0,2024-09-20,2024-09-20,株式会社青商事,,株式会社,三重県,津市,安濃町草生１９５７番地２,,24,201,5142328,,,,,,,2024-09-20,1,,,,,アオショウジ,0
621,3210001019916,新規,0,2024-09-20,2024-09-20,株式会社めぐりけあ,,株式会社,福井県,敦賀市,若葉町２丁目１００１番地６,,18,202,9140125,,,,,,,2024-09-20,1,,,,,メグリケア,0
622,3210003001839,新規,0,2024-09-20,2024-09-20,合同会社ＭＲ事業,,合同会社,福井県,敦賀市,中央町２丁目２２番３１号,,18,202,9140811,,,,,,,2024-09-20,1,,,,,エムアールジギョウ,0
631,3290001107283,新規,0,2024-09-20,2024-09-20,ＭＯＥ株式会社,,株式会社,福岡県,福岡市博多区,博多駅前１丁目２３番２号ＰａｒｋＦｒｏｎｔ博多駅前１丁目５ＦＢ,,40,132,8120011,,,,,,,2024-09-20,1,,,,,エムオーイー,0
632,3290001107291,新規,0,2024-09-20,2024-09-20,ＴＲＥＢＬＥＥＴ株式会社,,株式会社,福岡県,福岡市中央区,平尾１丁目１０－２６ダイナコート平尾１０３室,,40,133,8100014,,,,,,,2024-09-20,1,,,,,,0
633,3290001107300,新規,0,2024-09-20,2024-09-20,株式会社ＣＡＲＳＯＬ．,,株式会社,福岡県,小郡市,福童２２３番地１,,40,216,8380137,,,,,,,2024-09-20,1,,,,,カーソル,0
636,3290003015831,新規,0,2024-09-20,2024-09-20,とぎ名人合同会社,,合同会社,福岡県,太宰府市,五条２丁目２２－７,,40,221,8180125,,,,,,,2024-09-20,1,,,,,トギメイジン,0
638,3300003002183,新規,0,2024-09-20,2024-09-20,Ｂｅａｃｈｅｅｓ合同会社,,合同会社,佐賀県,唐津市,原１４７１－１,,41,202,8470031,,,,,,,2024-09-20,1,,,,,ビーチーズ,0
639,3310001019212,新規,0,2024-09-20,2024-09-20,共栄殖産株式会社,,株式会社,長崎県,佐世保市,鹿子前町５９０番地１,,42,202,8580922,,,,,,,2024-09-20,1,,,,,キョウエイショクサン,0
640,3310003004864,新規,0,2024-09-20,2024-09-20,合同会社ＵＫＩＨＡＭＡ,,合同会社,長崎県,対馬市,厳原町久田４５１番地３　１０１号,,42,209,8170032,,,,,,,2024-09-20,1,,,,,ウキハマ,0
647,3370001051738,新規,0,2024-09-20,2024-09-20,ロックンロールキドニー株式会社,,株式会社,宮城県,仙台市青葉区,広瀬町１番７－２０１号,,04,101,9800873,,,,,,,2024-09-20,1,,,,,ロックンロールキドニー,0
648,3370003006748,新規,0,2024-09-20,2024-09-20,合同会社チェルシー,,合同会社,宮城県,仙台市青葉区,国分町２丁目１５番２号,,04,101,9800803,,,,,,,2024-09-20,1,,,,,チェルシー,0
653,3390001017745,新規,0,2024-09-20,2024-09-20,株式会社ＮＢ,,株式会社,山形県,鶴岡市,上名川字堰東３８番地,,06,203,9970405,,,,,,,2024-09-20,1,,,,,エヌビー,0
655,3410003003988,新規,0,2024-09-20,2024-09-20,合同会社Ｉｍｐｏｒｔａｎｔ,,合同会社,秋田県,南秋田郡井川町,浜井川字家ノ東４２５番地４０羽立第２団地１１１号,,05,366,0181516,,,,,,,2024-09-20,1,,,,,インポータント,0
656,3420001018871,新規,0,2024-09-20,2024-09-20,株式会社Ｏ．Ｔ．Ｓ,,株式会社,青森県,青森市,西大野４丁目１９番地１０,,02,201,0300856,,,,,,,2024-09-20,1,,,,,オーティーエス,0
661,3430005015071,新規,0,2024-09-20,2024-09-20,一般社団法人フェムテック北海道,,その他の設立登記法人,北海道,札幌市中央区,北四条西２５丁目２番８号－５０２,,01,101,0640824,,,,,,,2024-09-20,1,,,,,,0
668,3700150127239,新規,0,2024-09-20,2024-09-20,ｓｈｅｎｚｈｅｎｓｈｉｌｏｎｇｈｕｉｆａｎｇｚｈｉｐｉｎｙｏｕｘｉａｎｇｏｎｇｓｉ,,外国会社等,,,,,,,,ｓｈｅｎｚｈｅｎｓｈｉｌｏｎｇｇａｎｇｑｕｐｉｎｇｈｕｊｉｅｄａｏｈｕａｎａｎｄａｄａｏｙｉｈａｏｈｕａｎａｎｇｕｏｊｉｐｉｇｅｐｉｊｕｙｕａｎｆｕｌｉａｏｗｕｌｉｕｑｕ（ｙｉｑｉ）Ｌ０９ｄｏｎｇ１１９ｈａｏ,,,,,,2024-09-20,1,,,,,シンセンシリュウキボウショクヒンユウゲンコウシ,0
679,4010001248410,新規,0,2024-09-20,2024-09-20,株式会社Ｅｃｈｏｌｌｅｃｔｉｖｅ,,株式会社,東京都,中央区,銀座１丁目１２－４Ｎ＆ＥＢＬＤ．６Ｆ,,13,102,1040061,,,,,,,2024-09-20,1,,,,,エコーレクティブ,0
680,4010001248443,新規,0,2024-09-20,2024-09-20,ビジネスサービス株式会社,,株式会社,東京都,中央区,銀座１丁目２２番１１号銀座大竹ビジデンス２Ｆ,,13,102,1040061,,,,,,,2024-09-20,1,,,,,ビジネスサービス,0
682,4010003044931,新規,0,2024-09-20,2024-09-20,合同会社ＡＲＣＨ　Ｌｉｖｉｎｇ　Ｊａｐａｎ,,合同会社,東京都,千代田区,霞が関３丁目２番５号,,13,101,1000013,,,,,,,2024-09-20,1,,,,,アーチリビングジャパン,0
683,4010003044972,新規,0,2024-09-20,2024-09-20,ｉプロパティ１８合同会社,,合同会社,東京都,千代田区,永田町２丁目１４番２号－３階スリーアイズキャピタル株式会社内,,13,101,1000014,,,,,,,2024-09-20,1,,,,,アイプロパティエイティーン,0
687,4010005038849,新規,0,2024-09-20,2024-09-20,一般社団法人エネルギーリソースアグリゲーション事業協会,,その他の設立登記法人,東京都,中央区,銀座１丁目１２番４号Ｎ＆Ｅ・ＢＬＤ．６Ｆ,,13,102,1040061,,,,,,,2024-09-20,1,,,,,エネルギーリソースアグリゲーションジギョウキョウカイ,0
691,4010401185146,新規,0,2024-09-20,2024-09-20,株式会社Ｒｉｎａｒｔ,,株式会社,東京都,港区,元麻布１丁目３－１－１８０５,,13,103,1060046,,,,,,,2024-09-20,1,,,,,リナート,0
692,4010401185204,新規,0,2024-09-20,2024-09-20,株式会社ＦＫＩ,,株式会社,東京都,港区,六本木５丁目１８番２１号４階,,13,103,1060032,,,,,,,2024-09-20,1,,,,,エフケーアイ,0
693,4010401185229,新規,0,2024-09-20,2024-09-20,株式会社Ｔｅｃｈ　Ｖｅｇａ,,株式会社,東京都,港区,赤坂９丁目７番１号,,13,103,1070052,,,,,,,2024-09-20,1,,,,,テックベガ,0
695,4010405023582,新規,0,2024-09-20,2024-09-20,一般社団法人アイディアアセットマネジメント,,その他の設立登記法人,東京都,港区,南青山３丁目１番３６号青山丸竹ビル６階,,13,103,1070062,,,,,,,2024-09-20,1,,,,,アイディアアセットマネジメント,0
709,4010903009372,新規,0,2024-09-20,2024-09-20,ＮＥＷ　ＤＩＲＥＣＴＩＯＮ合同会社,,合同会社,東京都,世田谷区,世田谷４丁目２番１５号小見山ビル３０１,,13,112,1540017,,,,,,,2024-09-20,1,,,,,ニューダイレクション,0
712,4011003019972,新規,0,2024-09-20,2024-09-20,ＴＯＳＯ合同会社,,合同会社,東京都,渋谷区,神泉町１０番１５号アネックス神泉３０１,,13,113,1500045,,,,,,,2024-09-20,1,,,,,トーソー,0
715,4011101108834,新規,0,2024-09-20,2024-09-20,株式会社Ｓ‐ＰＲＯ,,株式会社,東京都,新宿区,西新宿１丁目４番１１号全研プラザＳＰＡＣＥＳ新宿,,13,104,1600023,,,,,,,2024-09-20,1,,,,,エスプロ,0
716,4011101108842,新規,0,2024-09-20,2024-09-20,株式会社ＳＴＭ,,株式会社,東京都,新宿区,北新宿２丁目２０番３－３０３号,,13,104,1690074,,,,,,,2024-09-20,1,,,,,エスティーエム,0
717,4011101108850,新規,0,2024-09-20,2024-09-20,未来健康日本株式会社,,株式会社,東京都,新宿区,百人町２丁目１１番２号新戸山アネックス１Ｆ,,13,104,1690073,,,,,,,2024-09-20,1,,,,,ミライケンコウニホン,0
719,4011103014948,新規,0,2024-09-20,2024-09-20,合同会社Ｃ＆Ｌ,,合同会社,東京都,新宿区,東五軒町１番９号ＳＢＳ－Ｄ－３号,,13,104,1620813,,,,,,,2024-09-20,1,,,,,シーアンドエル,0
721,4011201025797,新規,0,2024-09-20,2024-09-20,株式会社ハトリリ,,株式会社,東京都,中野区,中央１丁目２３‐２,,13,114,1640011,,,,,,,2024-09-20,1,,,,,ハトリリ,0
722,4011201025806,新規,0,2024-09-20,2024-09-20,Ｋｉｎａｒｉ株式会社,,株式会社,東京都,中野区,野方３丁目２９番１１－１０３号,,13,114,1650027,,,,,,,2024-09-20,1,,,,,キナリ,0
725,4011501031165,新規,0,2024-09-20,2024-09-20,拓株式会社,,株式会社,東京都,北区,田端新町１丁目７－１４ビズフィールド西日暮里１０９,,13,117,1140012,,,,,,,2024-09-20,1,,,,,タク,0
726,4011501031173,新規,0,2024-09-20,2024-09-20,株式会社ＬＵＸＥＷＡＬＬ,,株式会社,東京都,北区,赤羽２丁目４２－１０赤羽トナミビル２０２,,13,117,1150045,,,,,,,2024-09-20,1,,,,,リュクスウォール,0
735,4012401042293,新規,0,2024-09-20,2024-09-20,ライフスタイルサポート株式会社,,株式会社,東京都,稲城市,平尾４丁目６番２４号,,13,225,2060823,,,,,,,2024-09-20,1,,,,,ライフスタイルサポート,0
736,4012701018456,新規,0,2024-09-20,2024-09-20,株式会社こでまり,,株式会社,東京都,西東京市,保谷町６丁目２３番１４号,,13,229,2020015,,,,,,,2024-09-20,1,,,,,コデマリ,0
738,4013101009517,新規,0,2024-09-20,2024-09-20,株式会社鈴吉ペイント,,株式会社,東京都,あきる野市,野辺４６２番地１７町田ビル２Ｆ,,13,228,1970823,,,,,,,2024-09-20,1,,,,,,0
742,4013301053117,新規,0,2024-09-20,2024-09-20,株式会社ＤＩＯＳ,,株式会社,東京都,豊島区,千早２丁目３８番１１号ディオスプラド５０２号,,13,116,1710044,,,,,,,2024-09-20,1,,,,,ディオス,0
749,4020003026920,新規,0,2024-09-20,2024-09-20,合同会社ＦｉｒｓｔＳｔｅｐ,,合同会社,神奈川県,横浜市西区,浅間町１丁目４番３号ウィザードビル４０２,,14,103,2200072,,,,,,,2024-09-20,1,,,,,ファーストステップ,0
751,4021001083276,新規,0,2024-09-20,2024-09-20,株式会社ユーテル,,株式会社,神奈川県,小田原市,酒匂５丁目１３番２０号,,14,206,2560816,,,,,,,2024-09-20,1,,,,,ユーテル,0
752,4021001083284,新規,0,2024-09-20,2024-09-20,株式会社ＫＲＳ,,株式会社,神奈川県,平塚市,公所４６８番地１－１０６,,14,203,2540906,,,,,,,2024-09-20,1,,,,,ケーアールエス,0
753,4021001083292,新規,0,2024-09-20,2024-09-20,株式会社ＰＩＥＣＥＳ　ＬＡＢ,,株式会社,神奈川県,海老名市,扇町１４番２,,14,215,2430436,,,,,,,2024-09-20,1,,,,,ピーシーズラボ,0
761,4030001162527,新規,0,2024-09-20,2024-09-20,はやぶさ建設株式会社,,株式会社,埼玉県,所沢市,大字下富３３７番地１,,11,208,3590001,,,,,,,2024-09-20,1,,,,,ハヤブサケンセツ,0
762,4030001162535,新規,0,2024-09-20,2024-09-20,株式会社士業パートナー,,株式会社,埼玉県,さいたま市浦和区,東仲町１１番１号ステラ浦和４階,,11,107,3300056,,,,,,,2024-09-20,1,,,,,シギョウパートナー,0
763,4030001162584,新規,0,2024-09-20,2024-09-20,株式会社Ｒ‐ｔｅｃ,,株式会社,埼玉県,川口市,元郷６丁目１２番９－１０１号ＦＳマンション元郷,,11,203,3320011,,,,,,,2024-09-20,1,,,,,アールテック,0
767,4030003025013,新規,0,2024-09-20,2024-09-20,合同会社ＭＥＧＵＲＵ,,合同会社,埼玉県,鴻巣市,宮前４８６－２ウィルモア宮前１０１,,11,217,3650051,,,,,,,2024-09-20,1,,,,,メグル,0
768,4030003025145,新規,0,2024-09-20,2024-09-20,クロスリブ技研合同会社,,合同会社,埼玉県,入間郡毛呂山町,目白台２丁目９番地４,,11,326,3500439,,,,,,,2024-09-20,1,,,,,クロスリブギケン,0
769,4030003025153,新規,0,2024-09-20,2024-09-20,合同会社エネジー,,合同会社,埼玉県,さいたま市岩槻区,城南１丁目１番２１－４号,,11,110,3390043,,,,,,,2024-09-20,1,,,,,エネジー,0
779,4040001135218,新規,0,2024-09-20,2024-09-20,株式会社甲辰社,,株式会社,千葉県,松戸市,根本４６１―１０３,,12,207,2710077,,,,,,,2024-09-20,1,,,,,コウシンシャ,0
780,4040003025771,新規,0,2024-09-20,2024-09-20,鴻栄実業合同会社,,合同会社,千葉県,印旛郡栄町,安食台４丁目２－４,,12,329,2701515,,,,,,,2024-09-20,1,,,,,コウエイジツギョウ,0
784,4050001055423,新規,0,2024-09-20,2024-09-20,株式会社ＫＯｉＫＥ,,株式会社,茨城県,ひたちなか市,表町２番４号,,08,221,3120047,,,,,,,2024-09-20,1,,,,,,0
787,4050003008676,新規,0,2024-09-20,2024-09-20,合同会社だるま,,合同会社,茨城県,神栖市,大野原４丁目３番２９号,,08,232,3140144,,,,,,,2024-09-20,1,,,,,ダルマ,0
792,4060001037503,新規,0,2024-09-20,2024-09-20,カノン株式会社,,株式会社,栃木県,宇都宮市,中久保１丁目５番３５号１Ｆ,,09,201,3210906,,,,,,,2024-09-20,1,,,,,カノン,0
807,4120001268703,新規,0,2024-09-20,2024-09-20,株式会社ワンリアライズ,,株式会社,大阪府,大阪市福島区,福島７丁目１５番１－１１０６号,,27,103,5530003,,,,,,,2024-09-20,1,,,,,ワンリアライズ,0
808,4120001268728,新規,0,2024-09-20,2024-09-20,株式会社ケアサンク,,株式会社,大阪府,大阪市西区,京町堀１丁目８番３３号,,27,106,5500003,,,,,,,2024-09-20,1,,,,,ケアサンク,0
809,4120001268744,新規,0,2024-09-20,2024-09-20,株式会社Ｙｗｏｒｋｓ,,株式会社,大阪府,寝屋川市,高柳５丁目２０番９号,,27,215,5720051,,,,,,,2024-09-20,1,,,,,ワイワークス,0
812,4120101070307,新規,0,2024-09-20,2024-09-20,株式会社ハルモメディカル,,株式会社,大阪府,大阪狭山市,金剛１丁目８番１３号,,27,231,5890006,,,,,,,2024-09-20,1,,,,,ハルモメディカル,0
817,4130001077979,新規,0,2024-09-20,2024-09-20,株式会社ＮＥＯ　ＣＵＴＥ,,株式会社,京都府,八幡市,橋本西刈又４４番地の１,,26,210,6148334,,,,,,,2024-09-20,1,,,,,ネオキュート,0
825,4140001135802,新規,0,2024-09-20,2024-09-20,松田不動産販売株式会社,,株式会社,兵庫県,明石市,樽屋町５番２０号ホワイトスワン明石１Ｆ,,28,203,6730898,,,,,,,2024-09-20,1,,,,,マツダフドウサンハンバイ,0
826,4140001135835,新規,0,2024-09-20,2024-09-20,株式会社ＳＭＩＬＥＸＩＡ,,株式会社,兵庫県,姫路市,東雲町１丁目２５番地,,28,201,6700046,,,,,,,2024-09-20,1,,,,,スマイレクシア,0
828,4140003021109,新規,0,2024-09-20,2024-09-20,合同会社早瀬政策研究所,,合同会社,兵庫県,川西市,多田院１丁目２０番地１２,,28,217,6660126,,,,,,,2024-09-20,1,,,,,ハヤセセイサクケンキュウジョ,0
838,4180005020781,新規,0,2024-09-20,2024-09-20,医療法人好日風会,,その他の設立登記法人,愛知県,名古屋市熱田区,比々野町７１番１,,23,109,4560074,,,,,,,2024-09-20,1,,,,,コウジツフウカイ,0
840,4190001031658,新規,0,2024-09-20,2024-09-20,株式会社ＦＥＲＮＡ,,株式会社,三重県,伊勢市,岩渕２丁目２番１８号＆ｅｐｉ（アンドエピ）,,24,203,5160037,,,,,,,2024-09-20,1,,,,,フェルナ,0
842,4220003003841,新規,0,2024-09-20,2024-09-20,アシスト合同会社,,合同会社,石川県,金沢市,城南２丁目４２番１５号,,17,201,9200966,,,,,,,2024-09-20,1,,,,,アシスト,0
847,4240003006859,新規,0,2024-09-20,2024-09-20,合同会社Ｇａｕｃｈｉ,,合同会社,広島県,広島市安芸区,瀬野西４丁目１１番２２号,,34,107,7390313,,,,,,,2024-09-20,1,,,,,ガウチ,0
848,4240005015833,新規,0,2024-09-20,2024-09-20,一般社団法人猫のこしかけ,,その他の設立登記法人,広島県,広島市佐伯区,湯来町麦谷字東堂原２０１８,,34,108,7315100,,,,,,,2024-09-20,1,,,,,ネコノコシカケ,0
858,4290001107217,新規,0,2024-09-20,2024-09-20,株式会社ＳＰ,,株式会社,福岡県,福岡市中央区,地行３丁目４番３－８号,,40,133,8100064,,,,,,,2024-09-20,1,,,,,エスピー,0
861,4290801030898,新規,0,2024-09-20,2024-09-20,株式会社ｅｉｇｈｔ,,株式会社,福岡県,直方市,大字上頓野２７８０番地１,,40,204,8220003,,,,,,,2024-09-20,1,,,,,エイト,0
865,4300003002182,新規,0,2024-09-20,2024-09-20,合同会社ＳＩＮ,,合同会社,佐賀県,伊万里市,東山代町東大久保１８８２番地,,41,205,8494283,,,,,,,2024-09-20,1,,,,,シン,0
868,4320001020721,新規,0,2024-09-20,2024-09-20,株式会社Ｓｍｉｌｅ　Ｃｏｎｎｅｃｔ,,株式会社,大分県,大分市,大字下判田１４６２番地の１１３,,44,201,8701112,,,,,,,2024-09-20,1,,,,,スマイルコネクト,0
869,4330001032476,新規,0,2024-09-20,2024-09-20,株式会社ロッジア,,株式会社,熊本県,熊本市西区,春日５丁目９３番１３号,,43,103,8600047,,,,,,,2024-09-20,1,,,,,ロッジア,0
870,4330005010825,新規,0,2024-09-20,2024-09-20,一般社団法人介護経営獅志之会,,その他の設立登記法人,熊本県,熊本市南区,近見１丁目８番５号,,43,104,8614101,,,,,,,2024-09-20,1,,,,,カイゴケイエイシシノカイ,0
875,4360001034197,新規,0,2024-09-20,2024-09-20,株式会社ＳｔａｒＯｃｅａｎ,,株式会社,沖縄県,石垣市,字野底東田原１１５１番地７,,47,207,9070333,,,,,,,2024-09-20,1,,,,,スターオーシャン,0
876,4360001034214,新規,0,2024-09-20,2024-09-20,株式会社琉球オートドア,,株式会社,沖縄県,宜野湾市,真志喜５丁目２０番１２号,,47,205,9012224,,,,,,,2024-09-20,1,,,,,リュウキュウオートドア,0
878,4360003014313,新規,0,2024-09-20,2024-09-20,合同会社城,,合同会社,沖縄県,名護市,字古我知４２７－１,,47,209,9051156,,,,,,,2024-09-20,1,,,,,ジョウ,0
891,4410001013939,新規,0,2024-09-20,2024-09-20,株式会社ＯＲＡＮＤＯ,,株式会社,秋田県,能代市,二ツ井梅内字白岩新田６番地３,,05,202,0160000,,,,,,,2024-09-20,1,,,,,オランド,0
892,4410003003987,新規,0,2024-09-20,2024-09-20,合同会社未來ケア,,合同会社,秋田県,秋田市,将軍野東２丁目２２番７号,,05,201,0110931,,,,,,,2024-09-20,1,,,,,,0
895,4420001018870,新規,0,2024-09-20,2024-09-20,株式会社スタートオーバーゼロ,,株式会社,青森県,青森市,浜館４丁目１番地３,,02,201,0300947,,,,,,,2024-09-20,1,,,,,スタートオーバーゼロ,0
896,4430001092700,新規,0,2024-09-20,2024-09-20,株式会社ＭＭ‐Ｃ,,株式会社,北海道,札幌市東区,北四十六条東９丁目３－５,,01,103,0070846,,,,,,,2024-09-20,1,,,,,エムエムシー,0
897,4430001092717,新規,0,2024-09-20,2024-09-20,栄和ビジネスサポート株式会社,,株式会社,北海道,石狩市,新港南２丁目７２１番地５,,01,235,0613244,,,,,,,2024-09-20,1,,,,,エイワビジネスサポート,0
901,4470001020384,新規,0,2024-09-20,2024-09-20,株式会社ヤマシン工業,,株式会社,香川県,高松市,高松町２５０６－３松田ビル２Ｆ－Ａ,,37,201,7610104,,,,,,,2024-09-20,1,,,,,ヤマシンコウギョウ,0
902,4490003001934,新規,0,2024-09-20,2024-09-20,合同会社いのはた事務所,,合同会社,高知県,吾川郡いの町,八田３５３番地１,,39,386,7812124,,,,,,,2024-09-20,1,,,,,イノハタジムショ,0
903,4700150127238,新規,0,2024-09-20,2024-09-20,ｓｈｅｎｚｈｅｎｓｈｉ　ｋｅｒｕｉｘｉｕ　ｋｅｊｉｙｏｕｘｉａｎｇｏｎｇｓｉ,,外国会社等,,,,,,,,ｓｈｅｎｚｈｅｎｓｈｉｌｏｎｇｇａｎｇｑｕｂａｎｔｉａｎｊｉｅｄａｏｙａｎｇｍａｘｉａｏｑｕ２６ｄｏｎｇ２０２,,,,,,2024-09-20,1,,,,,シンセンシコクエイシュウカギユウゲンコウシ,0
904,4700150127246,新規,0,2024-09-20,2024-09-20,ＨＫ　ＧＷＯＲＬＤ　ＥＣＯＭＭＥＲＣＥ　ＬＩＭＩＴＥＤ,,外国会社等,,,,,,,,ＲＭ３１０，３／ＦＨＯＮＧＬＥＯＮＧ　ＰＬＡＺＡ（ＰＨＡＳＥ　Ｉ）３３　ＬＯＫ　ＹＩＰ　ＲＤＦＡＮＬＩＮＧ　ＮＴ,00136342,,,,,2024-09-20,1,,,,,シャンガンジーシーディエンズーシャンウーヨウシエンゴンスー,0
907,5010001248434,新規,0,2024-09-20,2024-09-20,株式会社ＴＴｒａｄｉｎｇ,,株式会社,東京都,千代田区,外神田２丁目５－１２,,13,101,1010021,,,,,,,2024-09-20,1,,,,,ティートレーディング,0
908,5010001248442,新規,0,2024-09-20,2024-09-20,ＦＳＫ人材育成株式会社,,株式会社,東京都,千代田区,神田東松下町１７番地フリージア本社ビル,,13,101,1010042,,,,,,,2024-09-20,1,,,,,エフエスケイジンザイイクセイ,0
916,5010401184857,新規,0,2024-09-20,2024-09-20,株式会社Ｆｅｌｉｚ,,株式会社,東京都,港区,北青山１丁目３番１号アールキューブ青山３階,,13,103,1070061,,,,,,,2024-09-20,1,,,,,フェリス,0
917,5010401185153,新規,0,2024-09-20,2024-09-20,Ｓｈａｓｈｉｎ　Ｔｏｋｙｏ株式会社,,株式会社,東京都,港区,浜松町２丁目７番１７号イーグル浜松町,,13,103,1050013,,,,,,,2024-09-20,1,,,,,,0
919,5010501052939,新規,0,2024-09-20,2024-09-20,株式会社Ｌｕｃｈｉｍｏ,,株式会社,東京都,台東区,台東３丁目４３番１０号佐藤ビル５０４,,13,106,1100016,,,,,,,2024-09-20,1,,,,,ルチモ,0
922,5010601065956,新規,0,2024-09-20,2024-09-20,株式会社ハヤシ交通,,株式会社,東京都,墨田区,八広３丁目２６－４,,13,107,1310041,,,,,,,2024-09-20,1,,,,,ハヤシコウツウ,0
923,5010701046567,新規,0,2024-09-20,2024-09-20,エブリワエナジー株式会社,,株式会社,東京都,品川区,西五反田１丁目２６番２号五反田サンハイツ９１１,,13,109,1410031,,,,,,,2024-09-20,1,,,,,エブリワエナジー,0
930,5011001164745,新規,0,2024-09-20,2024-09-20,株式会社ＧＩＦＴ　ＦＲＯＭ　ＴＨＥ　ＳＥＡ,,株式会社,東京都,渋谷区,西原３丁目１４－１２－３Ｂ,,13,113,1510066,,,,,,,2024-09-20,1,,,,,ギフトフロームザシー,0
931,5011003020005,新規,0,2024-09-20,2024-09-20,合同会社ライフスタイル,,合同会社,東京都,渋谷区,恵比寿南１丁目７－８－４１１,,13,113,1500022,,,,,,,2024-09-20,1,,,,,ライフスタイル,0
934,5011101108841,新規,0,2024-09-20,2024-09-20,株式会社詩田,,株式会社,東京都,新宿区,山吹町１３０番地５ソーラ・デ・吉岡３０８号,,13,104,1620801,,,,,,,2024-09-20,1,,,,,ウタダ,0
937,5011305003005,新規,0,2024-09-20,2024-09-20,医療法人社団ひさゆい会,,その他の設立登記法人,東京都,杉並区,下高井戸２丁目１９番１８号,,13,115,1680073,,,,,,,2024-09-20,1,,,,,シャダンヒサユイカイ,0
942,5011501031148,新規,0,2024-09-20,2024-09-20,株式会社タンポポ,,株式会社,東京都,北区,東田端２丁目３番７号,,13,117,1140013,,,,,,,2024-09-20,1,,,,,タンポポ,0
943,5011501031172,新規,0,2024-09-20,2024-09-20,株式会社ＵＫ,,株式会社,東京都,北区,赤羽南１丁目８番７号錦水ビル１Ｆ,,13,117,1150044,,,,,,,2024-09-20,1,,,,,ユウケイ,0
946,5011601028069,新規,0,2024-09-20,2024-09-20,ＴＥＮＴＯ株式会社,,株式会社,東京都,練馬区,南大泉１丁目３５番３号,,13,120,1780064,,,,,,,2024-09-20,1,,,,,テント,0
949,5011801044849,新規,0,2024-09-20,2024-09-20,株式会社アイセン,,株式会社,東京都,葛飾区,西新小岩５丁目２８番２０－１１１号,,13,122,1240025,,,,,,,2024-09-20,1,,,,,アイセン,0
950,5011801044873,新規,0,2024-09-20,2024-09-20,株式会社柳光,,株式会社,東京都,足立区,関原１丁目５番９号,,13,121,1230852,,,,,,,2024-09-20,1,,,,,リュウコウ,0
960,5013101009516,新規,0,2024-09-20,2024-09-20,株式会社鈴吉グループ,,株式会社,東京都,あきる野市,野辺４６２番地１７町田ビル２Ｆ,,13,228,1970823,,,,,,,2024-09-20,1,,,,,,0
961,5013103001371,新規,0,2024-09-20,2024-09-20,合同会社９５ＮＪ,,合同会社,東京都,青梅市,河辺町４丁目５番地の１,,13,205,1980036,,,,,,,2024-09-20,1,,,,,,0
975,5020001159192,新規,0,2024-09-20,2024-09-20,株式会社みちづき,,株式会社,神奈川県,横浜市中区,常磐町二丁目１５番地,,14,104,2310000,,,,,,,2024-09-20,1,,,,,ミチヅキ,0
976,5020001159267,新規,0,2024-09-20,2024-09-20,株式会社リライトキャリアデザイン,,株式会社,神奈川県,横浜市保土ケ谷区,西谷３丁目２８番１－５１２号,,14,106,2400054,,,,,,,2024-09-20,1,,,,,リライトキャリアデザイン,0
979,5020003026911,新規,0,2024-09-20,2024-09-20,合同会社Ｌｉｅｎ,,合同会社,神奈川県,横浜市神奈川区,六角橋６丁目９－１カイトウハウス２０２,,14,102,2210802,,,,,,,2024-09-20,1,,,,,リアン,0
984,5021003015037,新規,0,2024-09-20,2024-09-20,合同会社かとう総合会計事務所,,合同会社,神奈川県,秦野市,上今川町７番２２号,,14,211,2570052,,,,,,,2024-09-20,1,,,,,カトウソウゴウカイケイジムショ,0
995,5030001162534,新規,0,2024-09-20,2024-09-20,株式会社アメイズ,,株式会社,埼玉県,加須市,三俣２丁目１７番地１３,,11,210,3470009,,,,,,,2024-09-20,1,,,,,アメイズ,0
996,5030001162559,新規,0,2024-09-20,2024-09-20,株式会社ＡＬｌｉｇｈｔ,,株式会社,埼玉県,川口市,大字新堀１７８番地の１２,,11,203,3340061,,,,,,,2024-09-20,1,,,,,オールライト,0
997,5030001162575,新規,0,2024-09-20,2024-09-20,株式会社Ｖｉｄａ,,株式会社,埼玉県,三郷市,高州１丁目２７－１,,11,237,3410037,,,,,,,2024-09-20,1,,,,,ヴィーダ,0
998,5030001162583,新規,0,2024-09-20,2024-09-20,株式会社ＬＩＯＮ　ＥＣＯＷＯＲＫＳ,,株式会社,埼玉県,朝霞市,溝沼２丁目１番２５－３０７号,,11,227,3510023,,,,,,,2024-09-20,1,,,,,ライオンエコワークス,0
1013,5040001135431,新規,0,2024-09-20,2024-09-20,石井工業株式会社,,株式会社,千葉県,市原市,不入６９６番地３,,12,219,2900554,,,,,,,2024-09-20,1,,,,,イシイコウギョウ,0
1014,5040001135456,新規,0,2024-09-20,2024-09-20,株式会社プロエンジニア,,株式会社,千葉県,君津市,外箕輪３丁目５番４３号,,12,225,2991173,,,,,,,2024-09-20,1,,,,,プロエンジニア,0
1015,5040001135464,新規,0,2024-09-20,2024-09-20,宣錦株式会社,,株式会社,千葉県,松戸市,松戸５９５－１８エステ二十世紀１０３号室,,12,207,2710092,,,,,,,2024-09-20,1,,,,,センキン,0
1019,5040003025820,新規,0,2024-09-20,2024-09-20,合同会社梛福,,合同会社,千葉県,千葉市美浜区,若葉３丁目１番地１９－１５０１号,,12,106,2610014,,,,,,,2024-09-20,1,,,,,ナギフク,0
1021,5050001055356,新規,0,2024-09-20,2024-09-20,株式会社ユウキファーム,,株式会社,茨城県,猿島郡境町,大字若林１８３３番地,,08,546,3060417,,,,,,,2024-09-20,1,,,,,ユウキファーム,0
1036,5100003007779,新規,0,2024-09-20,2024-09-20,ＬＴＳ合同会社,,合同会社,長野県,下高井郡野沢温泉村,大字前坂８３８８番地,,20,563,3892503,,,,,,,2024-09-20,1,,,,,エルティーエス,0
1037,5100003007787,新規,0,2024-09-20,2024-09-20,ソーシャルアセットマネジメント合同会社,,合同会社,長野県,岡谷市,中央町１丁目８番２号,,20,204,3940027,,,,,,,2024-09-20,1,,,,,ソーシャルアセットマネジメント,0
1052,5120001268685,新規,0,2024-09-20,2024-09-20,日本富健化学株式会社,,株式会社,大阪府,大阪市城東区,関目５丁目１９番９号関目花博公館５０２Ｂ,,27,118,5360008,,,,,,,2024-09-20,1,,,,,ニホンフケンカガク,0
1053,5120001268702,新規,0,2024-09-20,2024-09-20,株式会社Ｇｏｏｄ　Ｌｕｃｋ　Ｄｅｓｉｇｎ,,株式会社,大阪府,大阪市天王寺区,逢阪２丁目３番２号,00136366,27,109,5430062,,,,,,,2024-09-20,1,,,,,グッドラックデザイン,0
1054,5120001268710,新規,0,2024-09-20,2024-09-20,Ｔａｈｏｒａｄｕｘ株式会社,,株式会社,大阪府,大阪市北区,梅田１丁目２番２号大阪駅前第２ビル１２－１２,,27,127,5300001,,,,,,,2024-09-20,1,,,,,タホラデュス,0
1056,5120003027569,新規,0,2024-09-20,2024-09-20,ＮＰｉｎｔｅｒｎａｔｉｏｎａｌ合同会社,,合同会社,大阪府,大阪市北区,松ケ枝町４－９テイシマビル,,27,127,5300037,,,,,,,2024-09-20,1,,,,,エヌピーインターナショナル,0
1057,5120003027577,新規,0,2024-09-20,2024-09-20,セブンスコード合同会社,,合同会社,大阪府,大阪市北区,梅田１丁目２番２号大阪駅前第２ビル１２－１２,,27,127,5300001,,,,,,,2024-09-20,1,,,,,セブンスコード,0
1058,5120101070306,新規,0,2024-09-20,2024-09-20,株式会社ＭＡＲＵＳＡＮ,,株式会社,大阪府,富田林市,向陽台３丁目１番１号,,27,214,5840082,,,,,,,2024-09-20,1,,,,,マルサン,0
1060,5120901049788,新規,0,2024-09-20,2024-09-20,株式会社ＡＹ,,株式会社,大阪府,豊中市,岡町９－７,,27,203,5610885,,,,,,,2024-09-20,1,,,,,エイワイ,0
1064,5130001077961,新規,0,2024-09-20,2024-09-20,株式会社ＧｒａｎＤｕｅｔ,,株式会社,京都府,京都市中京区,柳馬場通御池下る柳八幡町７５番地６,,26,104,6048101,,,,,,,2024-09-20,1,,,,,グランデュエット,0
1068,5140001135859,新規,0,2024-09-20,2024-09-20,株式会社ＡｋａＬｅａ,,株式会社,兵庫県,神戸市中央区,元町通１丁目４－１２ＭＩＳＸビル４０１,,28,110,6500022,,,,,,,2024-09-20,1,,,,,アカレア,0
1071,5140003021090,新規,0,2024-09-20,2024-09-20,合同会社ｆｏｒｅ　ｆｒｏｎｔ,,合同会社,兵庫県,神戸市中央区,磯辺通１丁目１番１８号カサベラ国際プラザビル７０７,,28,110,6510084,,,,,,,2024-09-20,1,,,,,フォアフロント,0
1086,5190001031657,新規,0,2024-09-20,2024-09-20,株式会社ネットラチェック,,株式会社,三重県,桑名市,大字桑部９５０番地４,,24,205,5110923,,,,,,,2024-09-20,1,,,,,ネットラチェック,0
1092,5200003006515,新規,0,2024-09-20,2024-09-20,石田電気保安合同会社,,合同会社,岐阜県,羽島市,竹鼻町７２７番地,,21,209,5016241,,,,,,,2024-09-20,1,,,,,イシダデンキホアン,0
1095,5220001026199,新規,0,2024-09-20,2024-09-20,株式会社北陸グリーンヒル,,株式会社,石川県,かほく市,余地ア３０番地,,17,209,9291101,,,,,,,2024-09-20,1,,,,,ホクリクグリーンヒル,0
1100,5250001020819,新規,0,2024-09-20,2024-09-20,エイデック株式会社,,株式会社,山口県,防府市,鞠生町１１－１３,,35,206,7470805,,,,,,,2024-09-20,1,,,,,エイデック,0
1106,5290001107273,新規,0,2024-09-20,2024-09-20,株式会社ＤｅｌｉｇｈｔＺ　ｈｏｌｄｉｎｇｓ,,株式会社,福岡県,大野城市,栄町３丁目１－３３リスクマネジメントビル３Ｆ,,40,219,8160924,,,,,,,2024-09-20,1,,,,,ディライツホールディングス,0
1107,5290001107331,新規,0,2024-09-20,2024-09-20,株式会社ＴＴＦ,,株式会社,福岡県,福岡市東区,箱崎１丁目４０番９号,,40,131,8120053,,,,,,,2024-09-20,1,,,,,ティーティーエフ,0
1128,5380003005854,新規,0,2024-09-20,2024-09-20,合同会社トモス,,合同会社,福島県,郡山市,並木５丁目８番１９号,,07,203,9638026,,,,,,,2024-09-20,1,,,,,トモス,0
1133,5460305002021,新規,0,2024-09-20,2024-09-20,医療法人白羽会,,その他の設立登記法人,北海道,北見市,北進町４丁目２番１１号,,01,208,0900052,,,,,,,2024-09-20,1,,,,,シラハカイ,0
1135,5700150127237,新規,0,2024-09-20,2024-09-20,ＷｕＨａｎＷｅｎＨｕｃｈｏｎｇＷｕＹｏｎｇＰｉｎＹｏｕＸｉａｎＧｏｎｇＳｉ,,外国会社等,,,,,,,,３　Ｆｌｏｏｒ，１－６ｃｅｎｇ　ＤｏｎｇｇａｎｇＭｕｙｅｓｈｅｎｇｃｈａｎｃｈａｎｇｆａｎｇ，３５ｈａｏ　ＧｕａｎＮａｎＳｉＬｕ，ＤｏｎｇＨｕＫａｉＦａＱｕ，Ｗｕｈａｎ,,,,,,2024-09-20,1,,,,,ブカンモンコペットヨウヒンユウゲンコウシ,0
1136,5700150127245,新規,0,2024-09-20,2024-09-20,Ｍａｎｓｈａ（Ｓｕｚｈｏｕ）ｋｅｊｉｊｉｔｕａｎｙｏｕｘｉａｎｇｏｎｇｓｉ,,外国会社等,,,,,,,,Ｎｏ．１６　ａｎｄ　Ｎｏ．２１　Ｆａｃｔｏｒｙ　Ｂｕｉｌｄｉｎｇ，Ｅｘｐｏｒｔ　Ｐｒｏｃｅｓｓｉｎｇ　Ｚｏｎｅ　Ｓｕｐｐｏｒｔｉｎｇ　Ｉｎｄｕｓｔｒｉａｌ　Ｐａｒｋ，Ｎｏ．６６６　Ｊｉａｎｌｉｎ　Ｒｏａｄ，Ｈｉ－Ｔｅｃｈ　Ｚｏｎｅ，Ｓｕｚｈｏｕ，Ｃｈｉｎａ,,,,,,2024-09-20,1,,,,,マンサスゾウカギシュウダンユウゲンコウシ,0
1143,6010001248185,新規,0,2024-09-20,2024-09-20,Ａ．Ｔ　Ｏｖｅｒ株式会社,,株式会社,東京都,中央区,銀座１丁目１２－４Ｎ＆ＥＢＬＤ．７階,,13,102,1040061,,,,,,,2024-09-20,1,,,,,エーティーオーバー,0
1144,6010003044954,新規,0,2024-09-20,2024-09-20,Ｏｒｉｇａｍｉ　Ｉｎｆｒａｓｔｒｕｃｔｕｒｅ　Ｐａｒｔｎｅｒｓ合同会社,,合同会社,東京都,中央区,銀座１丁目２２番１１号２Ｆ,,13,102,1040061,,,,,,,2024-09-20,1,,,,,オリガミインフラストラクチャーパートナーズ,0
1145,6010005038855,新規,0,2024-09-20,2024-09-20,ブルーインフラホールディングス６号一般社団法人,,その他の設立登記法人,東京都,千代田区,永田町２丁目１７番５号,,13,101,1000014,,,,,,,2024-09-20,1,,,,,ブルーインフラホールディングスロクゴウ,0
1153,6010501052938,新規,0,2024-09-20,2024-09-20,ＵｎｉＢｉｔ株式会社,,株式会社,東京都,台東区,根岸２丁目２番１２号－１Ｆ,,13,106,1100003,,,,,,,2024-09-20,1,,,,,ユニビット,0
1155,6010601065955,新規,0,2024-09-20,2024-09-20,株式会社ベリグラ,,株式会社,東京都,江東区,平野３丁目３－９,,13,108,1350023,,,,,,,2024-09-20,1,,,,,ベリグラ,0
1158,6010701046582,新規,0,2024-09-20,2024-09-20,株式会社ＫＡＲＯＹＡＫＡ,,株式会社,東京都,品川区,上大崎３丁目１４番１７－１０２号,,13,109,1410021,,,,,,,2024-09-20,1,,,,,カロヤカ,0
1174,6011101108808,新規,0,2024-09-20,2024-09-20,株式会社宝程,,株式会社,東京都,新宿区,市谷本村町３番２６号ホワイトレジデンス９Ａ,,13,104,1620845,,,,,,,2024-09-20,1,,,,,ホウテイ,0
1175,6011101108840,新規,0,2024-09-20,2024-09-20,株式会社ＡＥＭＩ,,株式会社,東京都,新宿区,市谷柳町２６番地１スカイコート市ヶ谷ＩＩ５０３,00136355,13,104,1620061,,,,,,,2024-09-20,1,,,,,アエミ,0
1176,6011103014946,新規,0,2024-09-20,2024-09-20,合同会社尋牛社,,合同会社,東京都,新宿区,西新宿３丁目３番１３号西新宿水間ビル６階,,13,104,1600023,,,,,,,2024-09-20,1,,,,,ジンギュウシャ,0
1182,6011301030002,新規,0,2024-09-20,2024-09-20,株式会社シークモート,,株式会社,東京都,杉並区,和田３丁目４番３号ラ・メゾンワダ４０２,,13,115,1660012,,,,,,,2024-09-20,1,,,,,シークモート,0
1189,6011605002606,新規,0,2024-09-20,2024-09-20,労働者協同組合ワーカーズ・コレクティブすぐり,,その他の設立登記法人,東京都,練馬区,石神井台８丁目２２番５号,,13,120,1770045,,,,,,,2024-09-20,1,,,,,ワーカーズコレクティブスグリ,0
1191,6011801044872,新規,0,2024-09-20,2024-09-20,株式会社一番商事,,株式会社,東京都,葛飾区,堀切２丁目１０番６号,,13,122,1240006,,,,,,,2024-09-20,1,,,,,イチバンショウジ,0
1193,6011803006458,新規,0,2024-09-20,2024-09-20,合同会社Ｔｏｍａ,,合同会社,東京都,足立区,千住４丁目２５番８,,13,121,1200034,,,,,,,2024-09-20,1,,,,,トーマ,0
1198,6012701018454,新規,0,2024-09-20,2024-09-20,株式会社Ｃｉｒｃｌｅ　Ｐｏｉｎｔ,,株式会社,東京都,東村山市,恩多町５丁目２５番地２,,13,213,1890011,,,,,,,2024-09-20,1,,,,,サークルポイント,0
1203,6020001159175,新規,0,2024-09-20,2024-09-20,株式会社Ｂｉｚｌｉｎｅライフスタイル,,株式会社,神奈川県,横浜市都筑区,仲町台１丁目３番７号,,14,118,2240041,,,,,,,2024-09-20,1,,,,,ビズラインライフスタイル,0
1204,6020001159200,新規,0,2024-09-20,2024-09-20,株式会社Ｈｏ＆Ｌｏ,,株式会社,神奈川県,横浜市神奈川区,金港町５－１４クアドリフォリオ８階,,14,102,2210056,,,,,,,2024-09-20,1,,,,,ホーアンドロー,0
1205,6020001159340,新規,0,2024-09-20,2024-09-20,株式会社ＳＭＡＲＴ　ＳＥＬＥＣＴＳ,,株式会社,神奈川県,横浜市鶴見区,岸谷４丁目２８－２３－２０６,,14,101,2300078,,,,,,,2024-09-20,1,,,,,スマートセレクツ,0
1210,6021001083282,新規,0,2024-09-20,2024-09-20,株式会社アトリエ紅,,株式会社,神奈川県,藤沢市,大庭５２４７－５,,14,205,2510861,,,,,,,2024-09-20,1,,,,,アトリエクレナイ,0
1213,6030001162517,新規,0,2024-09-20,2024-09-20,株式会社フォレスト,,株式会社,埼玉県,朝霞市,田島２丁目１５番,,11,227,3510032,,,,,,,2024-09-20,1,,,,,フォレスト,0
1214,6030001162558,新規,0,2024-09-20,2024-09-20,株式会社ｔｏｍｏｒｉ,,株式会社,埼玉県,さいたま市緑区,美園５丁目３７番地７,,11,109,3360967,,,,,,,2024-09-20,1,,,,,トモリ,0
1215,6030001162582,新規,0,2024-09-20,2024-09-20,ゴーフィールド株式会社,,株式会社,埼玉県,草加市,稲荷４丁目１６番３１－１号,,11,221,3400003,,,,,,,2024-09-20,1,,,,,ゴーフィールド,0
1217,6030003025135,新規,0,2024-09-20,2024-09-20,合同会社Ｍ＆Ｙ,,合同会社,埼玉県,飯能市,大字中藤下郷８番地３６,,11,209,3570123,,,,,,,2024-09-20,1,,,,,エムアンドワイ,0
1221,6040001135249,新規,0,2024-09-20,2024-09-20,株式会社ＥＦＡＳ,,株式会社,千葉県,市川市,市川３丁目４０番８号,,12,203,2720034,,,,,,,2024-09-20,1,,,,,イフアス,0
1222,6040001135455,新規,0,2024-09-20,2024-09-20,株式会社橙ホールディングス,,株式会社,千葉県,白井市,清水口２丁目１番２１棟１２０６号,,12,232,2701435,,,,,,,2024-09-20,1,,,,,ダイダイホールディングス,0
1225,6050001055421,新規,0,2024-09-20,2024-09-20,ＺＯＨＲＡ　ＴＲＡＤＩＮＧ株式会社,,株式会社,茨城県,下妻市,黒駒１０５３－３,,08,210,3040007,,,,,,,2024-09-20,1,,,,,ゾーラトレーディング,0
1246,6100003007794,新規,0,2024-09-20,2024-09-20,合同会社ケーアイディー,,合同会社,長野県,北佐久郡軽井沢町,大字長倉６２１番地３,,20,321,3890111,,,,,,,2024-09-20,1,,,,,ケーアイディー,0
1253,6120001268676,新規,0,2024-09-20,2024-09-20,株式会社Ｒｅｍａｋｅ,,株式会社,大阪府,大阪市中央区,南本町１丁目５番８号プレサンス堺筋本町駅前９０６号室,,27,128,5410054,,,,,,,2024-09-20,1,,,,,リメイク,0
1254,6120001268684,新規,0,2024-09-20,2024-09-20,祺秋国際株式会社,,株式会社,大阪府,大阪市都島区,中野町４丁目３番６号Ｈ２Ｈ大阪桜之宮邸２Ｅ－１,,27,102,5340027,,,,,,,2024-09-20,1,,,,,キシュウコクサイ,0
1256,6120003027568,新規,0,2024-09-20,2024-09-20,合同会社Ｏｆｆｉｃｅ龍生,,合同会社,大阪府,大阪市中央区,西心斎橋１丁目１６番１７号塚本ビル５階,00136357,27,128,5420086,,,,,,,2024-09-20,1,,,,,オフィスタツキ,0
1257,6120003027576,新規,0,2024-09-20,2024-09-20,合同会社ｔｉｅｓｃｒｅａｔｅ,,合同会社,大阪府,大阪市東淀川区,豊里５丁目１８番８－３１２号,,27,114,5330013,,,,,,,2024-09-20,1,,,,,タイズクリエイト,0
1265,6130001077960,新規,0,2024-09-20,2024-09-20,Ｌｅｍｕｒ　ｃａｔｔａ株式会社,,株式会社,京都府,京都市左京区,一乗寺築田町３３番地４,,26,103,6068175,,,,,,,2024-09-20,1,,,,,リーマーキャッター,0
1266,6130001077977,新規,0,2024-09-20,2024-09-20,株式会社フジタケ,,株式会社,京都府,京都市左京区,田中里ノ前町４９番地,,26,103,6068227,,,,,,,2024-09-20,1,,,,,フジタケ,0
1267,6130001077985,新規,0,2024-09-20,2024-09-20,株式会社トータルインテリアモリト疊,,株式会社,京都府,京都市西京区,上桂北ノ口町２１１,,26,111,6158212,,,,,,,2024-09-20,1,,,,,トータルインテリアモリトタタミ,0
1279,6140001135841,新規,0,2024-09-20,2024-09-20,ＣＡＲ　ＺＯＮＥ株式会社,,株式会社,兵庫県,神戸市東灘区,深江浜町７６番地神戸青果食品商業協同組合会館４００号室,,28,101,6580023,,,,,,,2024-09-20,1,,,,,カーゾーン,0
1289,6180001163335,新規,0,2024-09-20,2024-09-20,株式会社ＳＩＳＩＱ,,株式会社,愛知県,名古屋市中村区,中村中町４丁目４０番地の１,,23,105,4530831,,,,,,,2024-09-20,1,,,,,シシック,0
1295,6180003027389,新規,0,2024-09-20,2024-09-20,合同会社ことり,,合同会社,愛知県,春日井市,出川町３丁目１３番地３,,23,206,4870025,,,,,,,2024-09-20,1,,,,,コトリ,0
1300,6190003004800,新規,0,2024-09-20,2024-09-20,合同会社リヴィー,,合同会社,三重県,志摩市,磯部町迫間１０３２番地１ビレッジハウス２号棟３０２号,,24,215,5170214,,,,,,,2024-09-20,1,,,,,リヴィー,0
1301,6190005011984,新規,0,2024-09-20,2024-09-20,社会保険労務士法人ノーツ,,その他の設立登記法人,三重県,度会郡玉城町,佐田字銚子口１８２８番地,,24,461,5190414,,,,,,,2024-09-20,1,,,,,ノーツ,0
1304,6200001042957,新規,0,2024-09-20,2024-09-20,株式会社ベビーエレファン,,株式会社,岐阜県,大垣市,禾森町２丁目５７番地２,,21,202,5030852,,,,,,,2024-09-20,1,,,,,ベビーエレファン,0
1306,6200003006514,新規,0,2024-09-20,2024-09-20,合同会社ジャポネスト,,合同会社,岐阜県,郡上市,大和町河辺５１番地３,,21,219,5014606,,,,,,,2024-09-20,1,,,,,ジャポネスト,0
1310,6230003002295,新規,0,2024-09-20,2024-09-20,合同会社ｔｅｎ　ｔｏ　ｔｅｎ,,合同会社,富山県,射水市,戸破若宮町３０４６番１,,16,211,9390351,,,,,,,2024-09-20,1,,,,,テントテン,0
1311,6240001063834,新規,0,2024-09-20,2024-09-20,株式会社ホワイトロック,,株式会社,広島県,広島市中区,薬研堀５番６号２Ｆ,,34,101,7300027,,,,,,,2024-09-20,1,,,,,ホワイトロック,0
1313,6250001020818,新規,0,2024-09-20,2024-09-20,株式会社Ｔｈｒｅｅ　Ａｒｒｏｗｓ,,株式会社,山口県,周南市,河東町５番１８号,,35,215,7450845,,,,,,,2024-09-20,1,,,,,スリーアローズ,0
1321,6290001107306,新規,0,2024-09-20,2024-09-20,株式会社糸音,,株式会社,福岡県,みやま市,瀬高町東津留６７９番地１,,40,229,8350017,,,,,,,2024-09-20,1,,,,,,0
1322,6290003015820,新規,0,2024-09-20,2024-09-20,合同会社Ｃｕｄｄｌｅ,,合同会社,福岡県,春日市,桜ヶ丘８丁目５０番地２,,40,218,8160872,,,,,,,2024-09-20,1,,,,,カドル,0
1325,6310003004861,新規,0,2024-09-20,2024-09-20,合同会社愛津ライスセンター,,合同会社,長崎県,雲仙市,愛野町乙３２６１番地,,42,213,8540302,,,,,,,2024-09-20,1,,,,,アイツライスセンター,0
1333,6340001026789,新規,0,2024-09-20,2024-09-20,ひとつなぎ株式会社,,株式会社,鹿児島県,鹿児島市,樋之口町８－５照明電工ビル５０１号室,,46,201,8920845,,,,,,,2024-09-20,1,,,,,ヒトツナギ,0
1334,6350003004750,新規,0,2024-09-20,2024-09-20,ＩＭＵ合同会社,,合同会社,宮崎県,宮崎市,恒久６丁目１５－４プレッソ小川１０１号室,,45,201,8800913,,,,,,,2024-09-20,1,,,,,イム,0
1336,6360001034204,新規,0,2024-09-20,2024-09-20,ＤａｔａＮａｗａ株式会社,,株式会社,沖縄県,那覇市,樋川１丁目３５番１号カンセイホーム樋川３－Ｂ,,47,201,9000022,,,,,,,2024-09-20,1,,,,,データナワ,0
1339,6380001034805,新規,0,2024-09-20,2024-09-20,株式会社インデスト・サン,,株式会社,福島県,石川郡石川町,大字形見字大工内１６１番地,,07,501,9637807,,,,,,,2024-09-20,1,,,,,インデストサン,0
1341,6410003003985,新規,0,2024-09-20,2024-09-20,合同会社ＴＡＯ,,合同会社,秋田県,横手市,大森町上溝字杉平１４８番地,,05,203,0130552,,,,,,,2024-09-20,1,,,,,タオ,0
1356,6700150127244,新規,0,2024-09-20,2024-09-20,ＳｈｅｎＺｈｅｎＳｈｉＣｈｅｎｇＢｅｉＤｉａｎＺｉＹｏｕＸｉａｎＧｏｎｇＳｉ,,外国会社等,,,,,,,,Ｆｕｙｏｎｇ　Ｃｏｍｍｕｎｉｔｙ，Ｆｕｙｏｎｇ　Ｓｔｒｅｅｔ，Ｂａｏａｎ　Ｄｉｓｔｒｉｃｔ，Ｒｏｏｍ　８５０２，Ｕｎｉｔ　２，Ｎｏ．１７，Ｆｕｈａｉ　Ｔｅｃｈｎｏｌｏｇｙ　Ｉｎｄｕｓｔｒｉａｌ　Ｐａｒｋ，Ｓｈｅｎｚｈｅｎ　Ｇｕａｎｇｄｏｎｇ,,,,,,2024-09-20,1,,,,,シンセンシセイカイデンシユウゲンコウシ,0
1357,6700150127277,新規,0,2024-09-20,2024-09-20,ＨＦＰ　Ｃｏｒｐｏｒａｔｉｏｎ,,外国会社等,東京都,港区,新橋４丁目２１－３新橋東急ビル２Ｆ・３Ｆ,,13,103,1050004,アメリカ合衆国９６７２０ハワイ州ヒロ市マカアラ・ストリート１７,,,,,,2024-09-20,1,,,,,エイチエフピーコーポレーシヨン,0
1359,7010001248399,新規,0,2024-09-20,2024-09-20,ＪＩＡＲＥＭＬ株式会社,,株式会社,東京都,千代田区,霞が関３丁目２番１号,,13,101,1000013,,,,,,,2024-09-20,1,,,,,ジェイアイエーアールイーエムエル,0
1360,7010001248481,新規,0,2024-09-20,2024-09-20,株式会社ＷＩＬＬＳ,,株式会社,東京都,中央区,築地７丁目１５番１１号レジーナ銀座東２０２号,,13,102,1040045,,,,,,,2024-09-20,1,,,,,ウィルズ,0
1363,7010003044813,新規,0,2024-09-20,2024-09-20,合同会社公明,,合同会社,東京都,中央区,八丁堀２丁目７番１号,,13,102,1040032,,,,,,,2024-09-20,1,,,,,コウメイ,0
1364,7010003044937,新規,0,2024-09-20,2024-09-20,合同会社ルシアル,,合同会社,東京都,千代田区,神田和泉町１‐６‐１６ヤマトビル４０５,,13,101,1010024,,,,,,,2024-09-20,1,,,,,ルシアル,0
1365,7010005038854,新規,0,2024-09-20,2024-09-20,一般社団法人ＳＲＦ,,その他の設立登記法人,東京都,千代田区,丸の内１丁目４番１号東京共同会計事務所内,,13,101,1000005,,,,,,,2024-09-20,1,,,,,エスアールエフ,0
1369,7010403033440,新規,0,2024-09-20,2024-09-20,ソーラーハクチョウ合同会社,,合同会社,東京都,港区,南青山２丁目１３番２号サンライズ青山２Ｆ青山国際税理士法人内,,13,103,1070062,,,,,,,2024-09-20,1,,,,,ソーラーハクチョウ,0
1371,7010601065954,新規,0,2024-09-20,2024-09-20,株式会社リンク,,株式会社,東京都,江東区,亀戸５丁目１３番２号,,13,108,1360071,,,,,,,2024-09-20,1,,,,,リンク,0
1381,7011001164710,新規,0,2024-09-20,2024-09-20,ＴＨＥ　ＳＵＮ株式会社,,株式会社,東京都,渋谷区,渋谷２丁目１９－１５宮益坂ビルディング６０９,,13,113,1500002,,,,,,,2024-09-20,1,,,,,ザサン,0
1382,7011001164743,新規,0,2024-09-20,2024-09-20,株式会社ＡＮＤ,,株式会社,東京都,渋谷区,円山町１５－６アーバンコート渋谷２０２,,13,113,1500044,,,,,,,2024-09-20,1,,,,,エーエヌディー,0
1383,7011001164826,新規,0,2024-09-20,2024-09-20,株式会社ジェネギャ,,株式会社,東京都,渋谷区,代々木２丁目１番１号新宿マインズタワー８Ｆ,,13,113,1510053,,,,,,,2024-09-20,1,,,,,ジェネギャ,0
1384,7011003020044,新規,0,2024-09-20,2024-09-20,合同会社ＫＮＴ,,合同会社,東京都,渋谷区,道玄坂１丁目１０番８号渋谷道玄坂東急ビル２Ｆ－Ｃ,,13,113,1500043,,,,,,,2024-09-20,1,,,,,ケーエヌティー,0
1385,7011003020052,新規,0,2024-09-20,2024-09-20,合同会社Ｎｏｌｉｅ,,合同会社,東京都,目黒区,中目黒３丁目２番１６号,,13,110,1530061,,,,,,,2024-09-20,1,,,,,ノーリエ,0
1386,7011003020060,新規,0,2024-09-20,2024-09-20,合同会社アクーユプロジェクト,,合同会社,東京都,目黒区,上目黒５丁目８番１５－２０４号,,13,110,1530051,,,,,,,2024-09-20,1,,,,,アクーユプロジェクト,0
1387,7011003020077,新規,0,2024-09-20,2024-09-20,合同会社ＭＩＫＵＲＯＮ,,合同会社,東京都,渋谷区,恵比寿西２丁目４番８号ウィンド恵比寿ビル８Ｆ,,13,113,1500021,,,,,,,2024-09-20,1,,,,,ミクロン,0
1392,7011101108831,新規,0,2024-09-20,2024-09-20,株式会社はらフードコンサルティング,,株式会社,東京都,新宿区,西新宿３丁目２番９号新宿ワシントンホテルビル本館２Ｆ,,13,104,1600023,,,,,,,2024-09-20,1,,,,,ハラフードコンサルティング,0
1393,7011103014854,新規,0,2024-09-20,2024-09-20,ＧＵＣＨＹｍｅｄｉｃａｌｏｆｆｉｃｅ合同会社,,合同会社,東京都,新宿区,歌舞伎町１丁目１６－７－６Ｆ,,13,104,1600021,,,,,,,2024-09-20,1,,,,,グッチメディカルオフィス,0
1395,7011201025803,新規,0,2024-09-20,2024-09-20,株式会社ひかり不動産,,株式会社,東京都,中野区,東中野１丁目５９番３号,,13,114,1640003,,,,,,,2024-09-20,1,,,,,ヒカリフドウサン,0
1399,7011601028067,新規,0,2024-09-20,2024-09-20,株式会社門間開閃,,株式会社,東京都,練馬区,富士見台４丁目３４番７号,,13,120,1770034,,,,,,,2024-09-20,1,,,,,モンビラキ,0
1400,7011705001853,新規,0,2024-09-20,2024-09-20,医療法人社団ひまわりデンタルケア,,その他の設立登記法人,東京都,江戸川区,西葛西１丁目１５番９号スカイビル２階２０１号室,,13,123,1340088,,,,,,,2024-09-20,1,,,,,ヒマワリデンタルケア,0
1406,7013101009514,新規,0,2024-09-20,2024-09-20,株式会社ＳＯＲＡ,,株式会社,東京都,あきる野市,山田９４３番地８,,13,228,1900144,,,,,,,2024-09-20,1,,,,,ソラ,0
1408,7013303007316,新規,0,2024-09-20,2024-09-20,クリーン合同会社,,合同会社,東京都,豊島区,南池袋３丁目１６－４－２０２,,13,116,1710022,,,,,,,2024-09-20,1,,,,,クリーン,0
1415,7021001083281,新規,0,2024-09-20,2024-09-20,株式会社龍建築,,株式会社,神奈川県,南足柄市,生駒５１１－１,,14,217,2500124,,,,,,,2024-09-20,1,,,,,タツケンチク,0
1417,7021005013185,新規,0,2024-09-20,2024-09-20,ＮＰＯ法人アラドスポーツ,,その他の設立登記法人,神奈川県,座間市,入谷西５丁目６番５号プレステージホール２０５号,,14,216,2520029,,,,,,,2024-09-20,1,,,,,,0
1420,7030001162524,新規,0,2024-09-20,2024-09-20,拓達株式会社,,株式会社,埼玉県,川口市,上青木３丁目１６番２１号,,11,203,3330844,,,,,,,2024-09-20,1,,,,,ヒロタツ,0
1421,7030001162532,新規,0,2024-09-20,2024-09-20,東成テック株式会社,,株式会社,埼玉県,所沢市,上新井５丁目６７番地の２７,,11,208,3591142,,,,,,,2024-09-20,1,,,,,トウセイテック,0
1422,7030001162581,新規,0,2024-09-20,2024-09-20,株式会社ＨＭＣ,,株式会社,埼玉県,八潮市,大字中馬場１０番地１,,11,234,3400812,,,,,,,2024-09-20,1,,,,,エイチエムシー,0
1428,7030003025150,新規,0,2024-09-20,2024-09-20,合同会社ラクダゴ,,合同会社,埼玉県,さいたま市大宮区,上小町１１３９－３エギスハイム１０３号室,,11,103,3300855,,,,,,,2024-09-20,1,,,,,ラクダゴ,0
1429,7030003025159,新規,0,2024-09-20,2024-09-20,ＷＯＮＤＥＲＳ　ＣＯＲＰＯＲＡＴＩＯＮ合同会社,,合同会社,埼玉県,ふじみ野市,苗間１９番地４３,,11,245,3560052,,,,,,,2024-09-20,1,,,,,オンダルスコーポレーション,0
1432,7040001135462,新規,0,2024-09-20,2024-09-20,ＣＮＣＴｅｃｈ　Ｊａｐａｎ株式会社,,株式会社,千葉県,松戸市,上矢切２０５８番地,,12,207,2710094,,,,,,,2024-09-20,1,,,,,シーエヌシーテックジャパン,0
1434,7040003025827,新規,0,2024-09-20,2024-09-20,ＡＴＴＡＫＡ合同会社,,合同会社,千葉県,柏市,高柳１３３５番地７４,,12,217,2770941,,,,,,,2024-09-20,1,,,,,アッタカ,0
1436,7050001055395,新規,0,2024-09-20,2024-09-20,ＦＲＩＥＮＤＳ　ＴＲＡＤＥＲＳ株式会社,,株式会社,茨城県,筑西市,関本下１８３３－１ヴィラージュ川田壱番館１階１０１号室,,08,227,3080127,,,,,,,2024-09-20,1,,,,,フレンズトレーダーズ,0
1437,7050001055437,新規,0,2024-09-20,2024-09-20,株式会社ビオクオン,,株式会社,茨城県,ひたちなか市,勝田中央１番９号,,08,221,3120045,,,,,,,2024-09-20,1,,,,,ビオクオン,0
1444,7080101025015,新規,0,2024-09-20,2024-09-20,株式会社Ｌｉｂｅｒｔｙ　Ｈｉｌｌｓ,,株式会社,静岡県,富士市,中野７７０－２８,,22,210,4170809,,,,,,,2024-09-20,1,,,,,リバティヒルズ,0
1449,7090001018902,新規,0,2024-09-20,2024-09-20,株式会社とっとらいす,,株式会社,山梨県,富士吉田市,ときわ台２丁目２番１４号,,19,202,4030015,,,,,,,2024-09-20,1,,,,,トットライス,0
1451,7100001037842,新規,0,2024-09-20,2024-09-20,マキ不動産株式会社,,株式会社,長野県,飯田市,北方３５９番地２,,20,205,3950151,,,,,,,2024-09-20,1,,,,,マキフドウサン,0
1452,7100001037867,新規,0,2024-09-20,2024-09-20,株式会社やま星,,株式会社,長野県,下伊那郡阿智村,駒場２００７番地４,,20,407,3950303,,,,,,,2024-09-20,1,,,,,ヤマボシ,0
1453,7100003007785,新規,0,2024-09-20,2024-09-20,合同会社スペースアイ,,合同会社,長野県,上高井郡小布施町,大字福原２２０番地４０,,20,541,3810202,,,,,,,2024-09-20,1,,,,,スペースアイ,0
1473,7120001268650,新規,0,2024-09-20,2024-09-20,ＥＴＯ株式会社,,株式会社,大阪府,大阪市大正区,千島１丁目１０－１０エスポワール４３,,27,108,5510003,,,,,,,2024-09-20,1,,,,,イーティーオー,0
1474,7120001268700,新規,0,2024-09-20,2024-09-20,石源株式会社,,株式会社,大阪府,大阪市住之江区,浜口東２丁目６番２７号,,27,125,5590002,,,,,,,2024-09-20,1,,,,,イシゲン,0
1475,7120001268709,新規,0,2024-09-20,2024-09-20,ＢＲＡＮＤ　ＮＥＷ株式会社,,株式会社,大阪府,大阪市東淀川区,瑞光１丁目２番１１－３１２号,,27,114,5330005,,,,,,,2024-09-20,1,,,,,ブランニュー,0
1476,7120001268766,新規,0,2024-09-20,2024-09-20,ＫＬＬ株式会社,,株式会社,大阪府,大阪市天王寺区,勝山４丁目３番１９－７０１号,,27,109,5430043,,,,,,,2024-09-20,1,,,,,ケーエルエル,0
1478,7120003027443,新規,0,2024-09-20,2024-09-20,合同会社イノベートモール,,合同会社,大阪府,大阪市都島区,都島北通２丁目１番１７号ラ・フォーレ都島北通３０１号,,27,102,5340014,,,,,,,2024-09-20,1,,,,,イノベートモール,0
1479,7120003027575,新規,0,2024-09-20,2024-09-20,合同会社Ｔａｂｉｏｒｙ,,合同会社,大阪府,大阪市淀川区,東三国４丁目１１番１３号,,27,123,5320002,,,,,,,2024-09-20,1,,,,,タビオリー,0
1486,7122003003003,新規,0,2024-09-20,2024-09-20,合同会社匠商事,,合同会社,大阪府,大東市,三箇６丁目１３番２０号,,27,218,5740077,,,,,,,2024-09-20,1,,,,,タクミショウジ,0
1498,7150001027574,新規,0,2024-09-20,2024-09-20,株式会社ＳＴＡＲ,,株式会社,奈良県,葛城市,笛堂４５５番地１,,29,211,6392112,,,,,,,2024-09-20,1,,,,,スター,0
1507,7180001163318,新規,0,2024-09-20,2024-09-20,興安株式会社,,株式会社,愛知県,名古屋市西区,五才美町６番地メゾンヤスフク５０２号室,,23,104,4520806,,,,,,,2024-09-20,1,,,,,コウアン,0
1512,7180003027388,新規,0,2024-09-20,2024-09-20,合同会社彩光,,合同会社,愛知県,名古屋市昭和区,紅梅町１丁目１９―６０２,,23,107,4660031,,,,,,,2024-09-20,1,,,,,サイコウ,0
1515,7190001031655,新規,0,2024-09-20,2024-09-20,海昇株式会社,,株式会社,三重県,尾鷲市,栄町１１‐７,,24,209,5193618,,,,,,,2024-09-20,1,,,,,カイショウ,0
1518,7190003004799,新規,0,2024-09-20,2024-09-20,合同会社ちいおあき,,合同会社,三重県,鈴鹿市,岸岡町１２００番地の８８,,24,207,5100226,,,,,,,2024-09-20,1,,,,,チイオアキ,0
1520,7200001042948,新規,0,2024-09-20,2024-09-20,カワムラ商会株式会社,,株式会社,岐阜県,加茂郡坂祝町,酒倉６６２番地３,,21,501,5050074,,,,,,,2024-09-20,1,,,,,カワムラショウカイ,0
1523,7240001063833,新規,0,2024-09-20,2024-09-20,株式会社ＪＯＥカンパニー,,株式会社,広島県,広島市安佐北区,白木町大字秋山８７２番地１,,34,106,7391414,,,,,,,2024-09-20,1,,,,,ジョーカンパニー,0
1528,7270001009057,新規,0,2024-09-20,2024-09-20,株式会社ｔａｋｕｒａｍ,,株式会社,鳥取県,米子市,両三柳２２０番地１－２Ｆ,,31,202,6830853,,,,,,,2024-09-20,1,,,,,タクラム,0
1530,7290001107305,新規,0,2024-09-20,2024-09-20,株式会社ソループホールディングス,,株式会社,福岡県,福岡市中央区,大名１丁目３番４６号大名イマンスビル３階,,40,133,8100041,,,,,,,2024-09-20,1,,,,,ソループホールディングス,0
1533,7310003004860,新規,0,2024-09-20,2024-09-20,合同会社タラレバ,,合同会社,長崎県,長崎市,戸町１丁目５番５－４０１号,,42,201,8500952,,,,,,,2024-09-20,1,,,,,タラレバ,0
1541,7340003004610,新規,0,2024-09-20,2024-09-20,合同会社グッドライフ,,合同会社,鹿児島県,姶良市,加治木町木田２７６２番地４,,46,225,8995241,,,,,,,2024-09-20,1,,,,,グッドライフ,0
1552,7430001092706,新規,0,2024-09-20,2024-09-20,株式会社ＧＭＲ,,株式会社,北海道,千歳市,自由ケ丘２丁目１６番１５号,,01,224,0660072,,,,,,,2024-09-20,1,,,,,ジーエムアール,0
1554,7440005002783,新規,0,2024-09-20,2024-09-20,医療法人社団ａｐｏｃ,,その他の設立登記法人,北海道,亀田郡七飯町,桜町２丁目２番８号,,01,337,0411105,,,,,,,2024-09-20,1,,,,,エイポック,0
1555,7460101007610,新規,0,2024-09-20,2024-09-20,新里程資源株式会社,,株式会社,北海道,帯広市,西二十二条南３丁目２３－１,,01,207,0802472,,,,,,,2024-09-20,1,,,,,シンリテイシゲン,0
1558,7500001025889,新規,0,2024-09-20,2024-09-20,株式会社アイ・クレーション,,株式会社,愛媛県,松山市,南江戸３丁目４番７号,,38,201,7900062,,,,,,,2024-09-20,1,,,,,アイクレーション,0
1561,7700150127243,新規,0,2024-09-20,2024-09-20,Ｙｉｗｕ　Ｊｉｚｅ　Ｊｅｗｅｌｒｙ　Ｃｏｍｐａｎｙ　Ｌｉｍｉｔｅｄ,,外国会社等,,,,,,,,２／Ｆ，Ｕｎｉｔ　３，Ｂｕｉｌｄｉｎｇ　４１，Ｌｅｇａｃｙ　Ａｎｎ　ＩＩ，Ｈｏｕｚｈａｉ　Ｓｔｒｅｅｔ，Ｙｉｗｕ　Ｃｉｔｙ，Ｚｈｅｊｉａｎｇ　Ｐｒｏｖｉｎｃｅ,00136320,,,,,2024-09-20,1,,,,,ギウシキタクショクヒンユウゲンコウシ,0
1562,7700150127276,新規,0,2024-09-20,2024-09-20,ＬＫ　ＳＡＭＹＡＮＧ株式会社,,外国会社等,東京都,港区,浜松町２丁目１番１３号芝エクセレントビル３階,,13,103,1050013,大韓民国慶尚南道昌原市馬山会原区自由貿易６ギル１２３（ボンアム洞）,,,,,,2024-09-20,1,,,,,エルケーサムヤンカブシキカイシヤ,0
1564,8010001248398,新規,0,2024-09-20,2024-09-20,ＪＩＡＲＥ第２号株式会社,,株式会社,東京都,千代田区,霞が関３丁目２番１号,,13,101,1000013,,,,,,,2024-09-20,1,,,,,ジェイアイエーアールイーダイニゴウ,0
1566,8010005038853,新規,0,2024-09-20,2024-09-20,Ｔａｉｌｏｒ２Ａ一般社団法人,,その他の設立登記法人,東京都,千代田区,丸の内１丁目４番１号東京共同会計事務所内,,13,101,1000005,,,,,,,2024-09-20,1,,,,,テイラーツーエー,0
1572,8010401185167,新規,0,2024-09-20,2024-09-20,株式会社ＴＯＫＹＯＳＡＮＴＡ,,株式会社,東京都,港区,北青山１丁目３番１号アールキューブ青山３Ｆ,,13,103,1070061,,,,,,,2024-09-20,1,,,,,トウキョーサンタ,0
1573,8010401185233,新規,0,2024-09-20,2024-09-20,株式会社ソーシャルバリュープロパティ,,株式会社,東京都,港区,赤坂４丁目１３番１３号赤坂ビル４階,,13,103,1070052,,,,,,,2024-09-20,1,,,,,ソーシャルバリュープロパティ,0
1574,8010403033431,新規,0,2024-09-20,2024-09-20,合同会社ＡｌｉＭａ,,合同会社,東京都,港区,赤坂９丁目１番７号赤坂レジデンシャルホテル３５５号室,,13,103,1070052,,,,,,,2024-09-20,1,,,,,,0
1576,8010701046572,新規,0,2024-09-20,2024-09-20,ＴＳＵＧＵＭＩ　ＶＩＳＩＯＮ株式会社,,株式会社,東京都,品川区,中延５丁目１３番１３号,,13,109,1420053,,,,,,,2024-09-20,1,,,,,ツグミビジョン,0
1578,8010901056009,新規,0,2024-09-20,2024-09-20,株式会社Ｓｉｍ‐ｂａ,,株式会社,東京都,世田谷区,砧３丁目２８番６号,,13,112,1570073,,,,,,,2024-09-20,1,,,,,シンバ,0
1579,8010905004673,新規,0,2024-09-20,2024-09-20,特定非営利活動法人ＢＬＵＥ　ＳＫＹ　ＬＡＢ,,その他の設立登記法人,東京都,世田谷区,下馬３丁目２９番６号,,13,112,1540002,,,,,,,2024-09-20,1,,,,,ブルースカイラボ,0
1586,8011001164767,新規,0,2024-09-20,2024-09-20,Ａｂｕｒｕｋａ株式会社,,株式会社,東京都,渋谷区,道玄坂１丁目１０番８号渋谷道玄坂東急ビル２Ｆ－Ｃ,,13,113,1500043,,,,,,,2024-09-20,1,,,,,アブルカ,0
1597,8011501031161,新規,0,2024-09-20,2024-09-20,株式会社竹内商店,,株式会社,東京都,荒川区,町屋７丁目５番１６－５０７号,,13,118,1160001,,,,,,,2024-09-20,1,,,,,タケウチショウテン,0
1605,8012403006755,新規,0,2024-09-20,2024-09-20,合同会社ホーリーマジック,,合同会社,東京都,三鷹市,下連雀２丁目２１－１７－４０６,,13,204,1810013,,,,,,,2024-09-20,1,,,,,ホーリーマジック,0
1612,8013303007315,新規,0,2024-09-20,2024-09-20,ＭＩＲＡＩ　ＣＲＥＡＴＥ合同会社,,合同会社,東京都,豊島区,南長崎６丁目２０番１１－２０１号,,13,116,1710052,,,,,,,2024-09-20,1,,,,,ミライクリエイト,0
1615,8020001159207,新規,0,2024-09-20,2024-09-20,株式会社Ｉｎｓｐｉｒｅｎｔ,,株式会社,神奈川県,川崎市幸区,北加瀬３丁目１０－３元住吉ガーデンハイツ６０６,,14,132,2120057,,,,,,,2024-09-20,1,,,,,インスピレント,0
1616,8020001159289,新規,0,2024-09-20,2024-09-20,株式会社ファボナプランニング,,株式会社,神奈川県,横浜市中区,本牧原２１番１－４０３号,,14,104,2310821,,,,,,,2024-09-20,1,,,,,ファボナプランニング,0
1619,8020003026909,新規,0,2024-09-20,2024-09-20,合同会社ＴｅａｍＥｎｔｅｒ,,合同会社,神奈川県,横浜市栄区,笠間３丁目９番６号四方田方,,14,115,2470006,,,,,,,2024-09-20,1,,,,,チームエンター,0
1620,8020005016552,新規,0,2024-09-20,2024-09-20,特定非営利活動法人横浜ポップスウインドオーケストラ,,その他の設立登記法人,神奈川県,横浜市栄区,桂町１５８－９こみね第２ビル３０３号室,,14,115,2470005,,,,,,,2024-09-20,1,,,,,ヨコハマポップスウインドオーケストラ,0
1627,8021003015018,新規,0,2024-09-20,2024-09-20,ラフレーズ・コンサルティング合同会社,,合同会社,神奈川県,鎌倉市,長谷２丁目２０－２４,,14,204,2480016,,,,,,,2024-09-20,1,,,,,ラフレーズコンサルティング,0
1628,8021003015034,新規,0,2024-09-20,2024-09-20,徳永板金合同会社,,合同会社,神奈川県,座間市,広野台１丁目４２番１８号,,14,216,2520012,,,,,,,2024-09-20,1,,,,,トクナガバンキン,0
1631,8030001162473,新規,0,2024-09-20,2024-09-20,株式会社ＳＯＥＲＵＶＡ,,株式会社,埼玉県,草加市,中央１丁目４番２８号,,11,221,3400016,,,,,,,2024-09-20,1,,,,,ソエルバ,0
1632,8030001162556,新規,0,2024-09-20,2024-09-20,株式会社ＭＥＬＤＥＳ,,株式会社,埼玉県,鴻巣市,吹上富士見３丁目４番２６－４号,,11,217,3690121,,,,,,,2024-09-20,1,,,,,メルデス,0
1633,8030003025158,新規,0,2024-09-20,2024-09-20,合同会社Ｆ＆Ｐ　ＣＯＮＮＥＣＴ,,合同会社,埼玉県,草加市,八幡町１２５－５メゾン浅井Ｃ－１０１,,11,221,3400006,,,,,,,2024-09-20,1,,,,,エフアンドピーコネクト,0
1637,8040001135453,新規,0,2024-09-20,2024-09-20,株式会社ＳＨ　ＦＯＯＤＳ,,株式会社,千葉県,千葉市中央区,椿森１丁目２３番１号,,12,101,2600042,,,,,,,2024-09-20,1,,,,,エスエイチフーズ,0
1641,8040003025776,新規,0,2024-09-20,2024-09-20,合同会社Ｋアセットプロデュース,,合同会社,千葉県,松戸市,中和倉２５７－１８,,12,207,2700025,,,,,,,2024-09-20,1,,,,,ケイアセットプロデュース,0
1643,8040005022508,新規,0,2024-09-20,2024-09-20,一般社団法人Ｌｉｆｅ　ｂａｓｅ,,その他の設立登記法人,千葉県,千葉市中央区,中央２丁目５番１号千葉中央ツインビル２号館７階,,12,101,2600013,,,,,,,2024-09-20,1,,,,,ライフベース,0
1649,8060001037499,新規,0,2024-09-20,2024-09-20,ナーディ株式会社,,株式会社,栃木県,宇都宮市,陽南２丁目１４番３４号３０５,,09,201,3200834,,,,,,,2024-09-20,1,,,,,ナーディ,0
1652,8080101025014,新規,0,2024-09-20,2024-09-20,株式会社ＮＳＫ,,株式会社,静岡県,駿東郡清水町,徳倉２３７２番地の３,,22,341,4110917,,,,,,,2024-09-20,1,,,,,エヌエスケー,0
1659,8110001038715,新規,0,2024-09-20,2024-09-20,株式会社大和,,株式会社,新潟県,新潟市中央区,山二ツ４丁目１４番７号田川ビルＩＩ１０１,00136356,15,103,9500922,,,,,,,2024-09-20,1,,,,,ヤマト,0
1660,8110003005523,新規,0,2024-09-20,2024-09-20,ドリームアカンパニー合同会社,,合同会社,新潟県,上越市,本町３丁目２番２２号,,15,222,9430832,,,,,,,2024-09-20,1,,,,,ドリームアカンパニー,0
1667,8120001268658,新規,0,2024-09-20,2024-09-20,森鋭株式会社,,株式会社,大阪府,大阪市生野区,桃谷４丁目３番１６号,,27,116,5440034,,,,,,,2024-09-20,1,,,,,シンエイ,0
1668,8120001268682,新規,0,2024-09-20,2024-09-20,源陽株式会社,,株式会社,大阪府,大阪市都島区,中野町４丁目３番６号Ｈ２Ｈ大阪桜之宮邸４Ｂ－１,,27,102,5340027,,,,,,,2024-09-20,1,,,,,ゲンヨウ,0
1669,8120001268724,新規,0,2024-09-20,2024-09-20,大信食品セールスサポート株式会社,,株式会社,大阪府,大阪市生野区,巽南５丁目１４番３８号,00136368,27,116,5440015,,,,,,,2024-09-20,1,,,,,ダイシンショクヒンセールスサポート,0
1670,8120001268757,新規,0,2024-09-20,2024-09-20,欧陽株式会社,,株式会社,大阪府,大阪市淀川区,西宮原２丁目６番１６号新大阪コーポビアネーズ８３８号,,27,123,5320004,,,,,,,2024-09-20,1,,,,,オウヨウ,0
1674,8120101070303,新規,0,2024-09-20,2024-09-20,昆侖株式会社,,株式会社,大阪府,泉佐野市,日根野４２９１番地の２サンハイツオカトモ３０１号室,,27,213,5980021,,,,,,,2024-09-20,1,,,,,コンリン,0
1676,8120901049760,新規,0,2024-09-20,2024-09-20,株式会社シアーライン,,株式会社,大阪府,箕面市,瀬川２丁目２０番１８号,,27,220,5620045,,,,,,,2024-09-20,1,,,,,シアーライン,0
1677,8120901049785,新規,0,2024-09-20,2024-09-20,カイ＆ピコ株式会社,,株式会社,大阪府,吹田市,古江台１丁目１２番７号２Ｆ,,27,205,5650874,,,,,,,2024-09-20,1,,,,,カイアンドピコ,0
1678,8122001038462,新規,0,2024-09-20,2024-09-20,亜州娯楽株式会社,,株式会社,大阪府,東大阪市,新庄３丁目７番６号ＴＹハイツＣ号室,,27,227,5780963,,,,,,,2024-09-20,1,,,,,アシュウゴラク,0
1681,8130001077983,新規,0,2024-09-20,2024-09-20,都計御システム株式会社,,株式会社,京都府,京都市中京区,堂之前町２３１星の子六角ビル４０３号,,26,104,6048134,,,,,,,2024-09-20,1,,,,,ミヤコケイギョシステム,0
1689,8140001135823,新規,0,2024-09-20,2024-09-20,株式会社シーエーテック,,株式会社,兵庫県,伊丹市,昆陽３丁目１１５番地１,,28,207,6640881,,,,,,,2024-09-20,1,,,,,シーエーテック,0
1690,8140001135831,新規,0,2024-09-20,2024-09-20,株式会社ＢＲＡＶＥ,,株式会社,兵庫県,加古川市,尾上町池田１７２６番地の１,,28,210,6750023,,,,,,,2024-09-20,1,,,,,ブレイブ,0
1691,8140001135848,新規,0,2024-09-20,2024-09-20,株式会社Ｂｅ　Ｒｅｂｏｒｎ,,株式会社,兵庫県,神戸市中央区,上筒井通１丁目４番１０号,,28,110,6510061,,,,,,,2024-09-20,1,,,,,ビーリボーン,0
1692,8140001135856,新規,0,2024-09-20,2024-09-20,株式会社ＴＡＫホールディングス,,株式会社,兵庫県,神戸市長田区,細田町２丁目１番３３号,,28,106,6530835,,,,,,,2024-09-20,1,,,,,カブティーエーケイホールディングス,0
1707,8180003027370,新規,0,2024-09-20,2024-09-20,ＳＩＮＣＥＲＥ　ＦＩＲＭ合同会社,,合同会社,愛知県,春日井市,上条町３丁目２４４番地プラウドタワー春日井２００１号,,23,206,4860833,,,,,,,2024-09-20,1,,,,,シンシアファーム,0
1709,8180005020778,新規,0,2024-09-20,2024-09-20,クオーレ行政書士法人,,その他の設立登記法人,愛知県,北名古屋市,西春駅前１丁目２６番地,,23,234,4810040,,,,,,,2024-09-20,1,,,,,クオーレ,0
1713,8190005011982,新規,0,2024-09-20,2024-09-20,特定非営利活動法人子ども食堂四つ葉ＳＫ,,その他の設立登記法人,三重県,四日市市,鵜の森１丁目１５‐９広益社ビル北館,,24,202,5100074,,,,,,,2024-09-20,1,,,,,コドモショクドウヨツバエスケ,0
1725,8250001020816,新規,0,2024-09-20,2024-09-20,Ｌａｂ　Ｓｙｓｔｅｍ株式会社,,株式会社,山口県,周南市,久米中央１丁目１７番１５号ウィンダミアハウスＣ,,35,215,7450809,,,,,,,2024-09-20,1,,,,,ラボシステム,0
1727,8260001039475,新規,0,2024-09-20,2024-09-20,株式会社ＡＹＵＭＩ,,株式会社,岡山県,岡山市中区,江並３３１番地８４,,33,102,7028004,,,,,,,2024-09-20,1,,,,,アユミ,0
1728,8270001009048,新規,0,2024-09-20,2024-09-20,マツワホールディングス株式会社,,株式会社,鳥取県,鳥取市,杉崎４７６番地,,31,201,6891101,,,,,,,2024-09-20,1,,,,,マツワホールディングス,0
1732,8290001107320,新規,0,2024-09-20,2024-09-20,ＩＮＥ株式会社,,株式会社,福岡県,福岡市城南区,松山２丁目３４－１７－１０４,,40,136,8140131,,,,,,,2024-09-20,1,,,,,アイエヌイー,0
1733,8290001107337,新規,0,2024-09-20,2024-09-20,日本Ｒ・Ｉ・Ｓ株式会社,,株式会社,福岡県,福岡市中央区,天神５丁目５番８号３Ｆ－Ａ室,,40,133,8100001,,,,,,,2024-09-20,1,,,,,ニホンアールアイエス,0
1734,8290001107353,新規,0,2024-09-20,2024-09-20,株式会社Ｐｌａｃｅ　ｔｏ　ｂｅ,,株式会社,福岡県,久留米市,天神町一丁目１米城ビルディング９Ｆ,,40,203,8300033,,,,,,,2024-09-20,1,,,,,プレイストゥービー,0
1738,8290801030894,新規,0,2024-09-20,2024-09-20,株式会社ＨＡＴＡ,,株式会社,福岡県,遠賀郡水巻町,頃末南３丁目３番３号,,40,382,8070025,,,,,,,2024-09-20,1,,,,,ハタ,0
1742,8300003002179,新規,0,2024-09-20,2024-09-20,合同会社フリーダム,,合同会社,佐賀県,杵島郡江北町,大字佐留志２４１５番地Ｌ－６－４,,41,424,8490502,,,,,,,2024-09-20,1,,,,,フリーダム,0
1743,8310001019216,新規,0,2024-09-20,2024-09-20,株式会社長崎ジューソー,,株式会社,長崎県,長崎市,錦２丁目２３番５号,,42,201,8528045,,,,,,,2024-09-20,1,,,,,ナガサキジューソー,0
1766,8420003003000,新規,0,2024-09-20,2024-09-20,合同会社エムナ,,合同会社,青森県,三戸郡階上町,大字角柄折字神子沢１番地３,,02,446,0391208,,,,,,,2024-09-20,1,,,,,エムナ,0
1770,8430001092705,新規,0,2024-09-20,2024-09-20,株式会社シーレーベン,,株式会社,北海道,札幌市中央区,宮の森二条１６丁目１番２０－３０６号,,01,101,0640952,,,,,,,2024-09-20,1,,,,,シーレーベン,0
1772,8430005015075,新規,0,2024-09-20,2024-09-20,医療法人社団小樽いのくち眼科,,その他の設立登記法人,北海道,小樽市,潮見台１丁目１５番３４号,,01,203,0470002,,,,,,,2024-09-20,1,,,,,オタルイノクチガンカ,0
1774,8460105002301,新規,0,2024-09-20,2024-09-20,農事組合法人前田ファーム,,その他の設立登記法人,北海道,帯広市,東六条南１９丁目３－２９ボヌール光南１－Ｄ,,01,207,0800806,,,,,,,2024-09-20,1,,,,,マエダファーム,0
1778,8500001025888,新規,0,2024-09-20,2024-09-20,株式会社八金山,,株式会社,愛媛県,松山市,越智３丁目８番９号,,38,201,7900933,,,,,,,2024-09-20,1,,,,,ハチキンザン,0
1779,8700150127242,新規,0,2024-09-20,2024-09-20,ＳＨＥＮＺＨＥＮ　ＴＯＴＩＷＯ　ＴＥＣＨＮＯＬＯＧＹ　ＣＯ．，ＬＴＤ．,,外国会社等,,,,,,,,４ｔｈ　Ｆｌｏｏｒ，Ｓｈａｎｇｍｅｉ　Ｔｉｍｅｓ，Ｎｏ．５７，Ｌｏｎｇｇｕａｎ　Ｅａｓｔ　Ｒｏａｄ，Ｏｉｎｇｈｕａ　Ｃｏｍｍｕｎｉｔｙ，Ｌｏｎｇｈｕａ　Ｓｔｒｅｅｔ，Ｌｏｎｇｈｕａ　Ｄｉｓｔｒｉｃｔ，Ｓｈｅｎｚｈｅｎ,,,,,,2024-09-20,1,,,,,シンセンシツウテンオウカギユウゲンコウシ,0
1788,9010001247705,新規,0,2024-09-20,2024-09-20,株式会社中登屋,,株式会社,東京都,中央区,新川２丁目１１－１八丁堀東豊エステート１１０４,,13,102,1040033,,,,,,,2024-09-20,1,,,,,ナカトヤ,0
1789,9010001248422,新規,0,2024-09-20,2024-09-20,株式会社コチキャリ,,株式会社,東京都,千代田区,麹町４丁目８－１ＴＨＥＭＯＣＫ－ＵＰ３０１,,13,101,1020083,,,,,,,2024-09-20,1,,,,,コチキャリ,0
1790,9010003044968,新規,0,2024-09-20,2024-09-20,Ｇｉｇｚ　Ａ合同会社,,合同会社,東京都,中央区,勝どき６丁目３番１－４９１２号,,13,102,1040054,,,,,,,2024-09-20,1,,,,,ギグズエー,0
1798,9010403033430,新規,0,2024-09-20,2024-09-20,合同会社ＴＨＨ,,合同会社,東京都,港区,赤坂９丁目１番７号赤坂レジデンシャルホテル３５５号室,,13,103,1070052,,,,,,,2024-09-20,1,,,,,ティエイチエイチ,0
1799,9010501052885,新規,0,2024-09-20,2024-09-20,株式会社大和,,株式会社,東京都,台東区,浅草１丁目５番９－２０３号,,13,106,1110032,,,,,,,2024-09-20,1,,,,,ヤマト,0
1814,9010801035409,新規,0,2024-09-20,2024-09-20,Ｖｉｔｏｌ　Ｊａｐａｎ株式会社,,株式会社,東京都,大田区,羽田空港１丁目１番４号ＨＩＣｉｔｙＺｏｎｅ、Ｋ２０１号室,,13,111,1440041,,,,,,,2024-09-20,1,,,,,ビトルジャパン,0
1815,9010901056008,新規,0,2024-09-20,2024-09-20,株式会社ｃｏｒｒｅｃｔ　ｔｒｅｅ,,株式会社,東京都,世田谷区,上用賀１丁目２６番８－５０７号,,13,112,1580098,,,,,,,2024-09-20,1,,,,,コレクトツリー,0
1827,9011001164733,新規,0,2024-09-20,2024-09-20,株式会社ゾクゾク,,株式会社,東京都,渋谷区,東２丁目１２－５アトリエエスト８号室,,13,113,1500011,,,,,,,2024-09-20,1,,,,,ゾクゾク,0
1828,9011001164766,新規,0,2024-09-20,2024-09-20,株式会社ｅｐｉｋａ,,株式会社,東京都,渋谷区,神宮前６丁目２３番４号桑野ビル２階,,13,113,1500001,,,,,,,2024-09-20,1,,,,,エピカ,0
1832,9011003020042,新規,0,2024-09-20,2024-09-20,ゲットリアル合同会社,,合同会社,東京都,目黒区,鷹番３丁目１６番７号,,13,110,1520004,,,,,,,2024-09-20,1,,,,,ゲットリアル,0
1833,9011003020059,新規,0,2024-09-20,2024-09-20,Ｅａｓｔｅｒｎ　Ｒｅｅｆ合同会社,,合同会社,東京都,渋谷区,本町４丁目１番６号,,13,113,1510071,,,,,,,2024-09-20,1,,,,,イースターンリーフ,0
1834,9011003020075,新規,0,2024-09-20,2024-09-20,ａｌｉｃｅ　＆　ａｌｉｃｅ合同会社,,合同会社,東京都,渋谷区,恵比寿西２丁目４番８号ウィンド恵比寿ビル８Ｆ,,13,113,1500021,,,,,,,2024-09-20,1,,,,,アリスアンドアリス,0
1839,9011101108838,新規,0,2024-09-20,2024-09-20,株式会社ＨＭＦ,,株式会社,東京都,新宿区,下落合１丁目１番１トキワパレス７０６,,13,104,1610033,,,,,,,2024-09-20,1,,,,,エイチエムエフ,0
1840,9011101108846,新規,0,2024-09-20,2024-09-20,株式会社ウィスタリアヒル,,株式会社,東京都,新宿区,西新宿４丁目３９番２２－１３０１号,,13,104,1600023,,,,,,,2024-09-20,1,,,,,ウィスタリアヒル,0
1841,9011201025784,新規,0,2024-09-20,2024-09-20,ＭａｒｕＭａｒｕ株式会社,,株式会社,東京都,中野区,南台２丁目７－９サザンアネックスＩＩ１２１号室,00136367,13,114,1640014,,,,,,,2024-09-20,1,,,,,マルマル,0
1843,9011501031160,新規,0,2024-09-20,2024-09-20,遠海ネットワーク株式会社,,株式会社,東京都,北区,田端新町１丁目７－１４ビズフィールド西日暮里２１３,,13,117,1140012,,,,,,,2024-09-20,1,,,,,エンカイネットワーク,0
1844,9011503006227,新規,0,2024-09-20,2024-09-20,合同会社Ｗｈａｔｅｖｅｒ,,合同会社,東京都,北区,神谷２丁目３４－８佐藤マンション３０３,,13,117,1150043,,,,,,,2024-09-20,1,,,,,ワットエバー,0
1846,9011601028065,新規,0,2024-09-20,2024-09-20,株式会社マッチ,,株式会社,東京都,練馬区,高野台２丁目１７番４号ピニエール高野台Ａ１０１,,13,120,1770033,,,,,,,2024-09-20,1,,,,,マッチ,0
1847,9011601028073,新規,0,2024-09-20,2024-09-20,株式会社ブランパレット,,株式会社,東京都,練馬区,栄町３５－２アトリオ３５２、１階,,13,120,1760006,,,,,,,2024-09-20,1,,,,,ブランパレット,0
1851,9012401042289,新規,0,2024-09-20,2024-09-20,株式会社Ｉ　Ｃｏｍｐａｎｙ,,株式会社,東京都,府中市,若松町３丁目２５－３－１０５,,13,206,1830005,,,,,,,2024-09-20,1,,,,,アイカンパニー,0
1856,9013101009520,新規,0,2024-09-20,2024-09-20,株式会社宮寺ベース,,株式会社,東京都,羽村市,小作台２丁目７番地１７,,13,227,2050001,,,,,,,2024-09-20,1,,,,,ミヤデラベース,0
1857,9013301053104,新規,0,2024-09-20,2024-09-20,東茂株式会社,,株式会社,東京都,豊島区,雑司が谷３丁目８番２号コモンシティ目白３０１号室,,13,116,1710032,,,,,,,2024-09-20,1,,,,,トウモ,0
1858,9013301053120,新規,0,2024-09-20,2024-09-20,株式会社ＭＡＮＤＹ,,株式会社,東京都,豊島区,東池袋１丁目３４番５号いちご東池袋ビル６階,,13,116,1700013,,,,,,,2024-09-20,1,,,,,マンディ,0
1865,9020001159230,新規,0,2024-09-20,2024-09-20,株式会社ＩＣＫ,,株式会社,神奈川県,川崎市川崎区,池上新町１丁目１３－８,,14,131,2100832,,,,,,,2024-09-20,1,,,,,アイシーケー,0
1866,9020001159263,新規,0,2024-09-20,2024-09-20,株式会社ＳＵＮ　ＦＯＲ　ＹＯＵ　ＣＲＥＡＴＩＯＮ,,株式会社,神奈川県,横浜市栄区,庄戸５丁目１８番１０号,,14,115,2470022,,,,,,,2024-09-20,1,,,,,サンフォーユークリエーション,0
1872,9030001162530,新規,0,2024-09-20,2024-09-20,株式会社ＴＵＲＮ　ＯＶＥＲ,,株式会社,埼玉県,さいたま市岩槻区,太田１丁目７番９６－２号,,11,110,3390052,,,,,,,2024-09-20,1,,,,,ターンオーバー,0
1874,9030003025165,新規,0,2024-09-20,2024-09-20,ウィステリアカンパニー合同会社,,合同会社,埼玉県,川口市,栄町３丁目１３番１－１３１４号プラウドタワー川口クロス,,11,203,3320017,,,,,,,2024-09-20,1,,,,,ウィステリアカンパニー,0
1882,9040001135452,新規,0,2024-09-20,2024-09-20,株式会社わみこと,,株式会社,千葉県,市川市,南行徳２丁目１２番１号,,12,203,2720138,,,,,,,2024-09-20,1,,,,,ワミコト,0
1883,9040001135510,新規,0,2024-09-20,2024-09-20,株式会社ＭＥＧＡＬＩＳＳ,,株式会社,千葉県,船橋市,夏見３丁目３０番２５－７０２号,,12,204,2730865,,,,,,,2024-09-20,1,,,,,メガリス,0
1885,9040003025817,新規,0,2024-09-20,2024-09-20,合同会社ＡＫＩＷＯＲＡ　ＥＮＴＥＲＰＲＩＳＥＳ,,合同会社,千葉県,富里市,中沢３２０番地２４－Ａ,,12,233,2860222,,,,,,,2024-09-20,1,,,,,アキウォラエンタープライゼス,0
1886,9040003025825,新規,0,2024-09-20,2024-09-20,合同会社総社ＭＥＰ,,合同会社,千葉県,市原市,惣社５丁目１６番地２１,,12,219,2900023,,,,,,,2024-09-20,1,,,,,ソウジャエムイーピー,0
1905,9080001026499,新規,0,2024-09-20,2024-09-20,株式会社ＫＡＩ堂,,株式会社,静岡県,静岡市清水区,尾羽３４１番地,,22,103,4240103,,,,,,,2024-09-20,1,,,,,カイドウ,0
1907,9080103003149,新規,0,2024-09-20,2024-09-20,合同会社ＣＯＭＥＴ,,合同会社,静岡県,御殿場市,神山平１丁目６番地の３,,22,215,4120029,,,,,,,2024-09-20,1,,,,,コメット,0
1910,9080401027452,新規,0,2024-09-20,2024-09-20,株式会社やまさん,,株式会社,静岡県,浜松市中央区,中郡町１８２５番地,,22,138,4313111,,,,,,,2024-09-20,1,,,,,ヤマサン,0
1911,9080403005101,新規,0,2024-09-20,2024-09-20,北部遠州地域林業事業体ｎｏｒｔｈｅｎｆｏｒｅｓｔ合同会社,,合同会社,静岡県,浜松市天竜区,春野町石打松下３２１番地,,22,140,4370615,,,,,,,2024-09-20,1,,,,,ホクブエンシュウチイキリンギョウジギョウタイノーザンフォレスト,0
1912,9090003002646,新規,0,2024-09-20,2024-09-20,合同会社Ｋ＆Ｍ,,合同会社,山梨県,南アルプス市,下宮地７２２－６,,19,208,4000405,,,,,,,2024-09-20,1,,,,,ケーアンドエム,0
1913,9100001037857,新規,0,2024-09-20,2024-09-20,株式会社ＫＧＦ,,株式会社,長野県,諏訪郡富士見町,富士見３２６０番地１４ナトゥーア富士見ＩＩ１０２,00136361,20,362,3990211,,,,,,,2024-09-20,1,,,,,ケージーエフ,0
1924,9120001268624,新規,0,2024-09-20,2024-09-20,捷螺智能株式会社,,株式会社,大阪府,大阪市港区,南市岡１丁目８番２２号内田文化２０１Ｂ,,27,107,5520011,,,,,,,2024-09-20,1,,,,,ショウラチノウ,0
1925,9120001268698,新規,0,2024-09-20,2024-09-20,株式会社インストテック,,株式会社,大阪府,枚方市,磯島南町１５番１－１０３号,,27,210,5731186,,,,,,,2024-09-20,1,,,,,インストテック,0
1926,9120001268715,新規,0,2024-09-20,2024-09-20,ＭＨＲコーポレーション株式会社,,株式会社,大阪府,大阪市北区,梅田１丁目１－３大阪駅前第３ビル２３０７,,27,127,5300001,,,,,,,2024-09-20,1,,,,,エムエイチアールコーポレーション,0
1927,9120003027573,新規,0,2024-09-20,2024-09-20,合同会社ＫＡＮＡＺ,,合同会社,大阪府,大阪市中央区,谷町６丁目１７－５,,27,128,5420012,,,,,,,2024-09-20,1,,,,,カナズ,0
1928,9120003027581,新規,0,2024-09-20,2024-09-20,合同会社ＬＯＧＩ・Ｍ,,合同会社,大阪府,大阪市西成区,長橋１丁目１３－２２－１０５号室,,27,122,5570025,,,,,,,2024-09-20,1,,,,,ロジエム,0
1933,9120903005348,新規,0,2024-09-20,2024-09-20,合同会社ライフイノベーション,,合同会社,大阪府,吹田市,豊津町２７番１５号（２０２）,,27,205,5640051,,,,,,,2024-09-20,1,,,,,ライフイノベーション,0
1936,9130001077982,新規,0,2024-09-20,2024-09-20,株式会社京都きむら造園,,株式会社,京都府,京都市右京区,北嵯峨北ノ段町４７番地,,26,108,6168441,,,,,,,2024-09-20,1,,,,,キョウトキムラゾウエン,0
1937,9130003009868,新規,0,2024-09-20,2024-09-20,合同会社ＳＨ,,合同会社,京都府,京都市東山区,泉涌寺山内町３５番地３,,26,105,6050977,,,,,,,2024-09-20,1,,,,,エスエイチ,0
1945,9140001135830,新規,0,2024-09-20,2024-09-20,株式会社ＳＡｉＣＡ,,株式会社,兵庫県,尼崎市,東本町４丁目８１リバーサイド東本町１０５号室,,28,202,6600824,,,,,,,2024-09-20,1,,,,,サイカ,0
1946,9140003021095,新規,0,2024-09-20,2024-09-20,合同会社ＴＯＷＡ,,合同会社,兵庫県,神戸市兵庫区,中道通１丁目４番２３号,,28,105,6520801,,,,,,,2024-09-20,1,,,,,トワ,0
1960,9180001163324,新規,0,2024-09-20,2024-09-20,株式会社藤耀,,株式会社,愛知県,名古屋市中川区,的場町１丁目２番地,,23,110,4540862,,,,,,,2024-09-20,1,,,,,トウヨウ,0
1961,9180001163340,新規,0,2024-09-20,2024-09-20,株式会社ユースフル,,株式会社,愛知県,瀬戸市,西米泉町９２番地,,23,204,4890943,,,,,,,2024-09-20,1,,,,,ユースフル,0
1962,9180001163349,新規,0,2024-09-20,2024-09-20,株式会社プレゼンス,,株式会社,愛知県,知多市,八幡字東水代２２番地,,23,224,4780001,,,,,,,2024-09-20,1,,,,,プレゼンス,0
1967,9180301039067,新規,0,2024-09-20,2024-09-20,株式会社ＲＳ,,株式会社,愛知県,豊橋市,西口町字元茶屋２番地ガーデンコートセレブＩＩ２０３,00136358,23,201,4400841,,,,,,,2024-09-20,1,,,,,アールエス,0
1969,9200001042946,新規,0,2024-09-20,2024-09-20,株式会社Ａｓｕ・ｍｉ,,株式会社,岐阜県,各務原市,小佐野町６丁目６７番地,,21,213,5040942,,,,,,,2024-09-20,1,,,,,アスミー,0
1970,9200001042954,新規,0,2024-09-20,2024-09-20,株式会社ＣＵＲＥＳ,,株式会社,岐阜県,羽島郡笠松町,田代６１５番地の４,,21,303,5016062,,,,,,,2024-09-20,1,,,,,キュアーズ,0
1974,9200003006511,新規,0,2024-09-20,2024-09-20,ｈａｋｕｓｈｉ合同会社,,合同会社,岐阜県,岐阜市,長良福光１５９７番地１３,,21,201,5020817,,,,,,,2024-09-20,1,,,,,ハクシ,0
1978,9230001020536,新規,0,2024-09-20,2024-09-20,株式会社ｎａｋａｙａｍａｙａ,,株式会社,富山県,砺波市,鷹栖出４１１２番地３,,16,208,9391338,,,,,,,2024-09-20,1,,,,,ナカヤマヤ,0
1983,9240001063831,新規,0,2024-09-20,2024-09-20,株式会社ＢＯＲＤＥＲＳ,,株式会社,広島県,広島市安佐南区,西原４丁目３７番３４号,,34,105,7310113,,,,,,,2024-09-20,1,,,,,ボーダーズ,0
1986,9260001039474,新規,0,2024-09-20,2024-09-20,株式会社アレスワン,,株式会社,岡山県,岡山市北区,東古松２０９番地１リベール大元駅前ＩＩ４０１号室,00136360,33,101,7000921,,,,,,,2024-09-20,1,,,,,アレスワン,0
1989,9290001107294,新規,0,2024-09-20,2024-09-20,極ジャパン株式会社,,株式会社,福岡県,福岡市中央区,渡辺通１丁目１番１号,,40,133,8100004,,,,,,,2024-09-20,1,,,,,キワミジャパン,0
1993,9310001019215,新規,0,2024-09-20,2024-09-20,株式会社ユミリエ,,株式会社,長崎県,佐世保市,三浦町２番１－１３０２号,,42,202,8570863,,,,,,,2024-09-20,1,,,,,ユミリエ,0
1994,9310005008800,新規,0,2024-09-20,2024-09-20,一般社団法人ドリームサポートながさき,,その他の設立登記法人,長崎県,長崎市,元船町６番６号４０６号室,,42,201,8500035,,,,,,,2024-09-20,1,,,,,ドリームサポートナガサキ,0
2004,9330003010566,新規,0,2024-09-20,2024-09-20,ＮＯＶＡ合同会社,,合同会社,熊本県,菊池郡菊陽町,武蔵ヶ丘北１丁目３５番１－１０１号カインドネス,,43,404,8691112,,,,,,,2024-09-20,1,,,,,ノブア,0
2020,9430001092704,新規,0,2024-09-20,2024-09-20,株式会社信和企画,,株式会社,北海道,札幌市手稲区,西宮の沢六条１丁目１２番１７号,,01,109,0060006,,,,,,,2024-09-20,1,,,,,シンワキカク,0
2021,9430003016801,新規,0,2024-09-20,2024-09-20,合同会社ニュース,,合同会社,北海道,札幌市中央区,南九条西４丁目３番１－１７０５号,,01,101,0640809,,,,,,,2024-09-20,1,,,,,ニュース,0
2027,9480001012599,新規,0,2024-09-20,2024-09-20,株式会社こどものみらい,,株式会社,徳島県,徳島市,名東町２丁目９番地２,,36,201,7700047,,,,,,,2024-09-20,1,,,,,コドモノミライ,0
2028,9500001025887,新規,0,2024-09-20,2024-09-20,四国リバブル株式会社,,株式会社,愛媛県,松山市,萱町６丁目２０番地８,,38,201,7900813,,,,,,,2024-09-20,1,,,,,シコクリバブル,0
2030,9700150127241,新規,0,2024-09-20,2024-09-20,Ｓｈｅｎｚｈｅｎ　Ｋｅｌｉｎ　Ｔｅｃｈｎｏｌｏｇｙ　Ｃｏ．，Ｌｔｄ．,,外国会社等,,,,,,,,ｂａｏａｎｑｕ　ｘｉｘｉａｎｇｊｉｅｄａｏ　ｈｅｄｏｎｇｓｈｅｑｕ　ｂａｏａｎ８０ｑｕ　ｈａｏｙｕｎｌａｉｇｕａｎｇｃｈａｎｇ　ｈｅｄｏｎｇｄａｓｈａ　ＦＡ５－０１５Ｂ　ｓｈｅｎｚｈｅｎ　ｇｕａｎｇｄｏｎｇ,,,,,,2024-09-20,1,,,,,シンセンコクリンカギユウゲンコウシ,0
