sequenceNumber,corporateNumber,process,correct,updateDate,changeDate,name,nameImageId,kind,prefectureName,cityName,streetNumber,addressImageId,prefectureCode,cityCode,postCode,addressOutside,addressOutsideImageId,closeDate,closeCause,successorCorporateNumber,changeCause,assignmentDate,latest,enName,enPrefectureName,enCityName,enAddressOutside,furigana,hihyoji
13,1010003021025,登記記録の閉鎖等,0,2025-02-06,2025-01-27,日光１９６アーデン町田合同会社,,合同会社,東京都,千代田区,丸の内１丁目４番１号東京共同会計事務所内,,13,101,1000005,,,2025-01-27,清算の結了等,,,2015-10-05,1,,,,,ニッコウワンハンドレッドナイティーシックスアーデンマチダ,0
14,1010003036808,登記記録の閉鎖等,0,2025-02-06,2025-01-28,合同会社Ｂｉｒｉｂｉ,,合同会社,東京都,中央区,銀座１丁目６番１１号土志田ビルディング３Ｆ,,13,102,1040061,,,2025-01-28,清算の結了等,,,2022-01-24,1,,,,,ビリビ,0
19,1010101008774,登記記録の閉鎖等,0,2025-02-06,2025-02-03,株式会社サーパス,,株式会社,東京都,八王子市,上川町１９４６番地,,13,201,1920151,,,2025-02-03,清算の結了等,,,2015-10-05,1,,,,,サーパス,0
31,1010501051309,登記記録の閉鎖等,0,2025-02-06,2025-01-21,株式会社ＭＫＴ,,株式会社,東京都,台東区,下谷１丁目５番２２号,,13,106,1100004,,,2025-01-21,清算の結了等,,,2023-11-10,1,,,,,エムケイティ,0
34,1010505001854,登記記録の閉鎖等,0,2025-02-06,2025-01-16,特定非営利活動法人任意売却支援協会,,その他の設立登記法人,東京都,台東区,台東４丁目９番２号阪急阪神上野御徒町ビル,,13,106,1100016,,,2025-01-16,清算の結了等,,,2015-10-05,1,,,,,ニンイバイキャクシエンキョウカイ,0
69,1012702014052,登記記録の閉鎖等,0,2025-02-06,2025-01-30,有限会社アルファソリューション,,有限会社,東京都,小平市,上水本町６丁目１９番２７号,,13,211,1870022,,,2025-01-30,清算の結了等,,,2015-10-05,1,,,,,アルファソリューション,0
91,1030003020264,登記記録の閉鎖等,0,2025-02-06,2025-01-30,地域再生パートナーズ合同会社,,合同会社,東京都,新宿区,新宿６丁目２９－１１新宿イーストクロスタワー,,13,104,1600022,,,2025-01-30,清算の結了等,,,2022-09-28,1,,,,,チイキサイセイパートナーズ,0
110,1040005020039,登記記録の閉鎖等,0,2025-02-06,2025-01-30,一般社団法人千葉県相談支援事業協会,,その他の設立登記法人,千葉県,千葉市中央区,川戸町４６８番地１,,12,101,2600802,,,2025-01-30,清算の結了等,,,2018-08-29,1,,,,,チバケンソウダンシエンジギョウキョウカイ,0
127,1110002027780,登記記録の閉鎖等,0,2025-02-06,2025-01-30,有限会社三洋工業,,有限会社,新潟県,長岡市,永田町４６４番地１,,15,202,9400873,,,2025-01-30,清算の結了等,,,2015-10-05,1,,,,,サンヨウコウギョウ,0
137,1120003011031,登記記録の閉鎖等,0,2025-02-06,2025-02-03,合同会社さくらシステムズ,,合同会社,大阪府,大阪市東淀川区,西淡路１丁目１番３５号,,27,114,5330031,,,2025-02-03,清算の結了等,,,2015-10-05,1,,,,,サクラシステムズ,0
142,1120101060962,登記記録の閉鎖等,0,2025-02-06,2025-02-03,カナディアンホームプラス株式会社,,株式会社,大阪府,藤井寺市,沢田２丁目９番３１号,,27,226,5830011,,,2025-02-03,清算の結了等,,,2019-12-12,1,,,,,カナディアンホームプラス,0
151,1140001110972,登記記録の閉鎖等,0,2025-02-06,2025-02-03,株式会社メビウス・ゼロワン,,株式会社,兵庫県,神戸市垂水区,名谷町字入野７５６番地の２,,28,108,6550852,,,2025-02-03,清算の結了等,,,2018-08-13,1,,,,,メビウスゼロワン,0
152,1140001124634,登記記録の閉鎖等,0,2025-02-06,2025-02-03,株式会社コミット,,株式会社,兵庫県,神戸市中央区,脇浜海岸通４丁目１番７－８０２号,,28,110,6510073,,,2025-02-03,清算の結了等,,,2022-01-20,1,,,,,コミット,0
157,1150001017168,登記記録の閉鎖等,0,2025-02-06,2025-01-31,株式会社キャビンハイツ榛原,,株式会社,奈良県,宇陀市,榛原下井足１９３７番地の１９,,29,212,6330241,,,2025-01-31,清算の結了等,,,2015-10-05,1,,,,,キャビンハイツハイバラ,0
167,1180301002206,登記記録の閉鎖等,0,2025-02-06,2025-02-04,株式会社勇吉化学工業所,,株式会社,愛知県,岡崎市,竜美北２丁目１番地５,,23,202,4440876,,,2025-02-04,清算の結了等,,,2015-10-05,1,,,,,ユウキチカガクコウギョウショ,0
169,1180301030017,登記記録の閉鎖等,0,2025-02-06,2025-01-31,株式会社薬の智,,株式会社,愛知県,豊田市,山之手８丁目１２２番地,,23,211,4710833,,,2025-01-31,清算の結了等,,,2017-02-06,1,,,,,クスリノトモ,0
171,1190001022412,登記記録の閉鎖等,0,2025-02-06,2025-02-03,株式会社昭和企画,,株式会社,三重県,三重郡菰野町,大字千草３９２５番地１,,24,341,5101251,,,2025-02-03,清算の結了等,,,2015-10-05,1,,,,,ショウワキカク,0
173,1190002011802,登記記録の閉鎖等,0,2025-02-06,2025-01-31,有限会社六角,,有限会社,愛知県,名古屋市中川区,愛知町１３番４号グランパス愛知ＩＩ２０６号,00131718,23,110,4540807,,,2025-01-31,清算の結了等,,,2015-10-05,1,,,,,ロッカク,0
174,1200001037086,登記記録の閉鎖等,0,2025-02-06,2025-02-05,株式会社コンチェルト,,株式会社,岐阜県,多治見市,住吉町７丁目２９番地の１ファインビル住吉ＩＩＩ１０１号室,00129791,21,204,5070015,,,2025-02-05,清算の結了等,,,2020-01-24,1,,,,,コンチェルト,0
184,1280002001562,登記記録の閉鎖等,0,2025-02-06,2025-02-05,有限会社トップドライ,,有限会社,島根県,松江市,竹矢町１７６７番地３,,32,201,6900023,,,2025-02-05,清算の結了等,,,2015-10-05,1,,,,,トップドライ,0
207,1390002014132,登記記録の閉鎖等,0,2025-02-06,2025-01-29,有限会社メディカルＴＨ,,有限会社,山形県,米沢市,舘山５丁目６５１５番地の５,,06,202,9920072,,,2025-01-29,清算の結了等,,,2015-10-05,1,,,,,メディカルティーエイチ,0
215,1450001012353,登記記録の閉鎖等,0,2025-02-06,2025-01-31,フォーリーフ企画株式会社,,株式会社,北海道,旭川市,永山四条１丁目２番６号,,01,204,0798414,,,2025-01-31,清算の結了等,,,2018-03-06,1,,,,,フォーリーフキカク,0
216,1460305001919,登記記録の閉鎖等,0,2025-02-06,2025-02-03,税理士法人シー・エス・エス会計,,その他の設立登記法人,北海道,網走市,南七条東５丁目６番地,,01,211,0930007,,,2025-02-03,清算の結了等,,,2019-01-11,1,,,,,シーエスエスカイケイ,0
226,2010001247273,登記記録の閉鎖等,0,2025-02-06,2025-02-04,シンシア株式会社,,株式会社,東京都,江戸川区,春江町５丁目５－１３,,13,123,1340003,,,2025-02-04,清算の結了等,,,2024-08-08,1,,,,,シンシア,0
229,2010003020991,登記記録の閉鎖等,0,2025-02-06,2025-01-27,日光１６７三鷹プラザ合同会社,,合同会社,東京都,千代田区,丸の内１丁目４番１号東京共同会計事務所内,,13,101,1000005,,,2025-01-27,清算の結了等,,,2015-10-05,1,,,,,ニッコウワンハンドレッドシックスティーセブンミタカプラザ,0
245,2010501026805,登記記録の閉鎖等,0,2025-02-06,2025-01-29,ホープ電機株式会社,,株式会社,東京都,台東区,北上野１丁目８番９号,,13,106,1100014,,,2025-01-29,清算の結了等,,,2015-10-05,1,,,,,ホープデンキ,0
261,2011003004167,登記記録の閉鎖等,0,2025-02-06,2025-01-07,合同会社寅,,合同会社,東京都,渋谷区,初台１丁目４７番４号第２加藤ビル８階,,13,113,1510061,,,2025-01-07,清算の結了等,,,2015-10-05,1,,,,,トラ,0
269,2011203004264,登記記録の閉鎖等,0,2025-02-06,2025-02-03,合同会社参和商会,,合同会社,東京都,中野区,中央２丁目３０－９,,13,114,1640011,,,2025-02-03,清算の結了等,,,2023-12-25,1,,,,,サンワショウカイ,0
284,2020002024365,登記記録の閉鎖等,0,2025-02-06,2025-01-20,宇佐美建商株式会社,,株式会社,神奈川県,横浜市保土ケ谷区,和田２丁目１３番３号,,14,106,2400065,,,2025-01-20,合併による解散等,8020001118963,令和６年１２月３１日横浜市保土ケ谷区和田二丁目１４番８－７０１号株式会社宇佐美（8020001118963）に合併し解散,2015-10-05,1,,,,,ウサミケンショウ,0
286,2021001024190,登記記録の閉鎖等,0,2025-02-06,2025-02-04,株式会社Ｉ．Ｏ．Ａ,,株式会社,神奈川県,厚木市,中町４丁目１０番３号,,14,212,2430018,,,2025-02-04,合併による解散等,1010001159032,令和７年１月１日東京都中央区日本橋本町四丁目１番１３号株式会社アルファＴＫＧ（1010001159032）に合併し解散,2015-10-05,1,,,,,アイオーエー,0
303,2040002016947,登記記録の閉鎖等,0,2025-02-06,2025-01-31,有限会社メディカルサポート松田,,有限会社,千葉県,千葉市若葉区,千城台北３丁目８番４号,,12,104,2640005,,,2025-01-31,清算の結了等,,,2015-10-05,1,,,,,メディカルサポートマツダ,0
306,2040003019032,登記記録の閉鎖等,0,2025-02-06,2025-01-31,合同会社ＫＡＺＵＳＡ　ＢＡＳＥ,,合同会社,千葉県,流山市,おおたかの森北１丁目４番地の１ソライエグラン流山おおたかの森８１５号室,,12,220,2700119,,,2025-01-31,清算の結了等,,,2021-12-01,1,,,,,カズサベース,0
313,2070002023552,登記記録の閉鎖等,0,2025-02-06,2025-02-05,有限会社相模屋,,有限会社,群馬県,みどり市,大間々町大間々１４０４番地１,,10,212,3760101,,,2025-02-05,清算の結了等,,,2015-10-05,1,,,,,サガミヤ,0
315,2080001006012,登記記録の閉鎖等,0,2025-02-06,2025-02-03,株式会社みなもと,,株式会社,静岡県,静岡市葵区,大岩４丁目１番３２号,,22,101,4200886,,,2025-02-03,清算の結了等,,,2015-10-05,1,,,,,ミナモト,0
324,2120001024843,登記記録の閉鎖等,0,2025-02-06,2025-02-03,株式会社ノーベバリ,,株式会社,大阪府,大阪市天王寺区,生玉前町１番１３号,,27,109,5430072,,,2025-02-03,合併による解散等,4120001024503,令和７年２月１日大阪市天王寺区生玉前町１番１３号株式会社トータルプランニング（4120001024503）に合併し解散,2015-10-05,1,,,,,ノーベバリ,0
325,2120001044288,登記記録の閉鎖等,0,2025-02-06,2025-01-31,柴田株式会社,,株式会社,大阪府,大阪市西区,西本町１丁目７番８号,,27,106,5500005,,,2025-01-31,合併による解散等,3120001044287,令和７年１月３１日大阪市西区西本町一丁目７番８号柴田商事株式会社（3120001044287）に合併し解散,2015-10-05,1,,,,,シバタ,0
327,2120001158245,登記記録の閉鎖等,0,2025-02-06,2025-01-31,株式会社宮本工務店,,株式会社,大阪府,門真市,栄町１番６－１０６号,,27,223,5710047,,,2025-01-31,清算の結了等,,,2015-10-05,1,,,,,ミヤモトコウムテン,0
368,2140002029451,登記記録の閉鎖等,0,2025-02-06,2025-02-03,有限会社萩林警備,,有限会社,兵庫県,明石市,立石１丁目３番１号,,28,203,6730032,,,2025-02-03,清算の結了等,,,2015-10-05,1,,,,,ハギリンケイビ,0
377,2180001129678,登記記録の閉鎖等,0,2025-02-06,2025-02-03,タカダファッション株式会社,,株式会社,愛知県,名古屋市中区,丸の内２丁目１０番２３号,,23,106,4600002,,,2025-02-03,合併による解散等,8180001037727,令和７年２月１日名古屋市中区丸の内二丁目１０番２３号高田株式会社（8180001037727）に合併し解散,2017-10-25,1,,,,,タカダファッション,0
388,2200001010876,登記記録の閉鎖等,0,2025-02-06,2025-02-04,金田縫製株式会社,,株式会社,岐阜県,羽島郡岐南町,下印食５丁目４１番地,,21,302,5016018,,,2025-02-04,清算の結了等,,,2015-10-05,1,,,,,カネダホウセイ,0
402,2260002017312,登記記録の閉鎖等,0,2025-02-06,2025-01-30,有限会社春日工作所,,有限会社,岡山県,倉敷市,中島１８３６番地の２１,,33,202,7100803,,,2025-01-30,清算の結了等,,,2015-10-05,1,,,,,カスガコウサクショ,0
405,2280001008145,登記記録の閉鎖等,0,2025-02-06,2025-02-05,株式会社ｓｈｏｃｋ　ｓｉｎｇ,,株式会社,島根県,出雲市,古志町８６０番地,,32,203,6930031,,,2025-02-05,清算の結了等,,,2020-02-18,1,,,,,ショクシン,0
428,2360001018292,登記記録の閉鎖等,0,2025-02-06,2025-02-03,紀ハウジング株式会社,,株式会社,沖縄県,沖縄市,宮里１丁目１４番３号,,47,211,9042165,,,2025-02-03,清算の結了等,,,2015-10-05,1,,,,,キハウジング,0
435,2390001005627,登記記録の閉鎖等,0,2025-02-06,2025-01-31,株式会社ＣＧテクノ,,株式会社,山形県,山形市,南栄町２丁目９番２６号,,06,201,9902445,,,2025-01-31,清算の結了等,,,2015-10-05,1,,,,,シージーテクノ,0
436,2390002015749,登記記録の閉鎖等,0,2025-02-06,2025-01-31,有限会社ノブ科学模型社,,有限会社,山形県,寒河江市,元町２丁目１６番地の１０,,06,206,9910053,,,2025-01-31,清算の結了等,,,2015-10-05,1,,,,,ノブカガクモケイシャ,0
456,3010001217993,登記記録の閉鎖等,0,2025-02-06,2025-01-29,株式会社マイクロオービター,,株式会社,東京都,千代田区,丸の内１丁目８番２号鉄鋼ビルディング４階,,13,101,1000005,,,2025-01-29,清算の結了等,,,2021-05-13,1,,,,,マイクロオービター,0
457,3010001224858,登記記録の閉鎖等,0,2025-02-06,2025-01-29,諸戸アセットマネジメント株式会社,,株式会社,東京都,千代田区,丸の内３丁目３番１号新東京ビル２階２３１区,,13,101,1000005,,,2025-01-29,清算の結了等,,,2022-03-01,1,,,,,モロトアセットマネジメント,0
469,3010101012824,登記記録の閉鎖等,0,2025-02-06,2025-02-03,Ｃ・Ｈ・Ｓ株式会社,,株式会社,東京都,八王子市,明神町４丁目３番９号クリオ京王八王子ビサイド１０４,,13,201,1920046,,,2025-02-03,清算の結了等,,,2017-05-09,1,,,,,シーエイチエス,0
470,3010401126935,登記記録の閉鎖等,0,2025-02-06,2025-01-14,株式会社終活ねっと,,株式会社,東京都,港区,赤坂２丁目１１番１号,,13,103,1070052,,,2025-01-14,清算の結了等,,,2016-09-13,1,,,,,シュウカツネット,0
476,3010402029567,登記記録の閉鎖等,0,2025-02-06,2025-01-08,有限会社ＮＰＣ,,有限会社,東京都,目黒区,三田１丁目４番３号,,13,110,1530062,,,2025-01-08,合併による解散等,9010403010628,令和６年１２月３１日東京都目黒区三田一丁目４番３号ＸＩＬＩＸ合同会社（9010403010628）に合併し解散,2015-10-05,1,,,,,エヌピーシー,0
477,3010405018385,登記記録の閉鎖等,0,2025-02-06,2025-01-29,特定非営利活動法人ＳＥＡアジア教育支援協会,,その他の設立登記法人,東京都,新宿区,高田馬場４丁目９番１４号ふみビル４階,,13,104,1690075,,,2025-01-29,清算の結了等,,,2020-01-14,1,,,,,エスイーエイアジアキョウイクシエンキョウカイ,0
478,3010405021331,登記記録の閉鎖等,0,2025-02-06,2025-02-03,一般社団法人Ｊａｐａｎ　Ｃａｓｔｉｎｇ,,その他の設立登記法人,神奈川県,横浜市旭区,若葉台４丁目８－３０４,,14,112,2410801,,,2025-02-03,清算の結了等,,,2022-09-07,1,,,,,ジャパンキャスティング,0
492,3011001116211,登記記録の閉鎖等,0,2025-02-06,2025-01-07,株式会社ＡＷＡＫＥＮＳ,,株式会社,東京都,目黒区,目黒２丁目１１番地３号,,13,110,1530063,,,2025-01-07,清算の結了等,,,2017-05-11,1,,,,,アウェイクン,0
521,3020001083295,登記記録の閉鎖等,0,2025-02-06,2025-02-03,株式会社Ｖｅｔｅｒｉｎａｒｙ　Ｃｕｔｔｉｎｇ　Ｅｄｇｅ,,株式会社,東京都,町田市,金井ヶ丘１丁目２２番１４号,,13,209,1950076,,,2025-02-03,清算の結了等,,,2015-10-05,1,,,,,ヴェテリナリーカッティングエッジ,0
522,3020001102294,登記記録の閉鎖等,0,2025-02-06,2025-01-21,株式会社ナカエンジニアリング,,株式会社,神奈川県,横浜市戸塚区,下倉田町６１５番地２６６,,14,110,2440815,,,2025-01-21,清算の結了等,,,2015-10-05,1,,,,,ナカエンジニアリング,0
543,3040001004514,登記記録の閉鎖等,0,2025-02-06,2025-01-31,千葉オー・エー・システムサービス株式会社,,株式会社,千葉県,市原市,五所１９７２番地１,,12,219,2900066,,,2025-01-31,清算の結了等,,,2015-10-05,1,,,,,チバオーエーシステムサービス,0
547,3040001097608,登記記録の閉鎖等,0,2025-02-06,2025-01-27,株式会社リアルバイオサイエンス,,株式会社,東京都,中央区,日本橋３丁目２番１４号新槇町ビル別館第一１階,,13,102,1030027,,,2025-01-27,清算の結了等,,,2016-11-11,1,,,,,リアルバイオサイエンス,0
552,3040002028743,登記記録の閉鎖等,0,2025-02-06,2025-01-31,有限会社大高製作所,,有限会社,千葉県,八千代市,高津８５０番地７３,,12,221,2760036,,,2025-01-31,清算の結了等,,,2015-10-05,1,,,,,オオタカセイサクショ,0
555,3040002084225,登記記録の閉鎖等,0,2025-02-06,2025-01-31,有限会社石橋正康商店,,有限会社,千葉県,旭市,椎名内３０６０番地,,12,215,2892514,,,2025-01-31,清算の結了等,,,2015-10-05,1,,,,,イシバシマサヤスショウテン,0
556,3040003014073,登記記録の閉鎖等,0,2025-02-06,2025-01-30,合同会社アロウアート,,合同会社,千葉県,船橋市,本町４丁目２番１４号,,12,204,2730005,,,2025-01-30,清算の結了等,,,2019-10-07,1,,,,,アロウアート,0
559,3050001004736,登記記録の閉鎖等,0,2025-02-06,2025-02-03,株式会社日東住建,,株式会社,茨城県,那珂市,菅谷４６８１番地の１５,,08,226,3110105,,,2025-02-03,清算の結了等,,,2015-10-05,1,,,,,ニットウジュウケン,0
563,3080102014326,登記記録の閉鎖等,0,2025-02-06,2025-02-03,有限会社第一計装,,有限会社,静岡県,富士市,宮島７７７番地の２,,22,210,4160945,,,2025-02-03,清算の結了等,,,2015-10-05,1,,,,,ダイイチケイソウ,0
568,3080403002839,登記記録の閉鎖等,0,2025-02-06,2025-01-31,合同会社うなぎいもプロジェクト,,合同会社,静岡県,浜松市中央区,卸本町５０番地,,22,138,4328055,,,2025-01-31,清算の結了等,,,2015-10-05,1,,,,,ウナギイモプロジェクト,0
570,3100001018474,登記記録の閉鎖等,0,2025-02-06,2025-02-03,株式会社高木,00069288,株式会社,長野県,諏訪市,大手１丁目１１番３号,,20,206,3920026,,,2025-02-03,清算の結了等,,,2015-10-05,1,,,,,タカギ,0
574,3110003004711,登記記録の閉鎖等,0,2025-02-06,2025-01-21,合同会社メディカウェルネス,,合同会社,神奈川県,横浜市都筑区,中川７丁目１６番６号,,14,118,2240001,,,2025-01-21,清算の結了等,,,2022-03-07,1,,,,,メディカウェルネス,0
579,3120001160745,登記記録の閉鎖等,0,2025-02-06,2025-02-05,株式会社Ｅｎｖｉｃｅ・プラス,,株式会社,大阪府,大阪市北区,大淀南２丁目２番９－７０１号,,27,127,5310075,,,2025-02-05,清算の結了等,,,2015-10-05,1,,,,,エンヴィスプラス,0
581,3120001200930,登記記録の閉鎖等,0,2025-02-06,2025-02-03,株式会社ｇｒｏｗ　ｗｉｎ,,株式会社,大阪府,大阪市北区,梅田３丁目４番５号毎日新聞ビル２階,,27,127,5300001,,,2025-02-03,清算の結了等,,,2016-09-28,1,,,,,グローウィン,0
582,3120001259884,登記記録の閉鎖等,0,2025-02-06,2025-01-16,河上＆入水組株式会社,,株式会社,大阪府,大阪市西区,江戸堀１丁目２４番１９号,,27,106,5500002,,,2025-01-16,清算の結了等,,,2023-11-16,1,,,,,カワカミアンドイリミズグミ,0
589,3122001007034,登記記録の閉鎖等,0,2025-02-06,2025-02-03,株式会社フジ,,株式会社,大阪府,東大阪市,東石切町６丁目３番２９号,,27,227,5798011,,,2025-02-03,清算の結了等,,,2015-10-05,1,,,,,フジ,0
624,3180303006095,登記記録の閉鎖等,0,2025-02-06,2025-01-30,合同会社イロハエンタープライズ,,合同会社,愛知県,豊田市,平和町４丁目６４番地２パレス平和Ｂ－３Ｈ号,,23,211,4710821,,,2025-01-30,清算の結了等,,,2024-04-23,1,,,,,イロハエンタープライズ,0
625,3190002001652,登記記録の閉鎖等,0,2025-02-06,2025-02-04,有限会社山田設備,,有限会社,三重県,津市,野田２４６６番地,,24,201,5140826,,,2025-02-04,清算の結了等,,,2015-10-05,1,,,,,ヤマダセツビ,0
668,3370001015610,登記記録の閉鎖等,0,2025-02-06,2025-01-31,高昭ハウジング株式会社,00081487,株式会社,宮城県,仙台市泉区,野村字一本杉３番地の７,,04,105,9813124,,,2025-01-31,清算の結了等,,,2015-10-05,1,,,,,タカショウハウジング,0
674,3390001015567,登記記録の閉鎖等,0,2025-02-06,2025-02-03,株式会社アルス,,株式会社,山形県,山形市,嶋北２丁目６番２５号,,06,201,9900885,,,2025-02-03,清算の結了等,,,2019-01-17,1,,,,,アルス,0
677,3430001032194,登記記録の閉鎖等,0,2025-02-06,2025-02-03,株式会社カイセン水産,,株式会社,北海道,札幌市南区,南三十三条西１０丁目４番３号,,01,106,0050033,,,2025-02-03,清算の結了等,,,2015-10-05,1,,,,,カイセンスイサン,0
680,3430002011899,登記記録の閉鎖等,0,2025-02-06,2025-02-03,有限会社高井商事,,有限会社,北海道,札幌市中央区,南十七条西１７丁目２０番地２,,01,101,0640917,,,2025-02-03,清算の結了等,,,2015-10-05,1,,,,,タカイショウジ,0
681,3430002039395,登記記録の閉鎖等,0,2025-02-06,2025-02-03,有限会社アフェック,,有限会社,北海道,札幌市中央区,南五条西２６丁目１番２２－１０２,,01,101,0640805,,,2025-02-03,清算の結了等,,,2015-10-05,1,,,,,アフェック,0
703,4010002016873,登記記録の閉鎖等,0,2025-02-06,2025-01-27,石井保全興産有限会社,,有限会社,東京都,中央区,入船１丁目６番３－３１２号,,13,102,1040042,,,2025-01-27,清算の結了等,,,2015-10-05,1,,,,,イシイホゼンコウサン,0
705,4010003020973,登記記録の閉鎖等,0,2025-02-06,2025-01-27,日光２２ＮＳディモーラ合同会社,,合同会社,東京都,千代田区,丸の内１丁目４番１号東京共同会計事務所内,,13,101,1000005,,,2025-01-27,清算の結了等,,,2015-10-05,1,,,,,ニッコウトゥエンティーツーエヌエスディモーラ,0
706,4010003020981,登記記録の閉鎖等,0,2025-02-06,2025-01-27,日光３０デュオ後楽園合同会社,,合同会社,東京都,千代田区,丸の内１丁目４番１号東京共同会計事務所内,,13,101,1000005,,,2025-01-27,清算の結了等,,,2015-10-05,1,,,,,ニッコウサーティーデュオコウラクエン,0
723,4010401159364,登記記録の閉鎖等,0,2025-02-06,2025-01-14,株式会社エルラボ,,株式会社,東京都,港区,芝３丁目３番１２号芝松下ビル３階,,13,103,1050014,,,2025-01-14,清算の結了等,,,2021-04-08,1,,,,,エルラボ,0
735,4011001041441,登記記録の閉鎖等,0,2025-02-06,2025-01-07,株式会社ジークレスト,,株式会社,東京都,渋谷区,宇田川町４０番１号,,13,113,1500042,,,2025-01-07,合併による解散等,3011001060649,令和７年１月１日東京都渋谷区宇田川町４０番１号株式会社サムザップ（3011001060649）に合併し解散,2015-10-05,1,,,,,ジークレスト,0
743,4011301008017,登記記録の閉鎖等,0,2025-02-06,2025-02-03,中部日本観光開発株式会社,,株式会社,東京都,杉並区,善福寺２丁目３９番４号,,13,115,1670041,,,2025-02-03,清算の結了等,,,2015-10-05,1,,,,,チュウブニホンカンコウカイハツ,0
746,4011601018145,登記記録の閉鎖等,0,2025-02-06,2025-01-28,株式会社ウイングラン,,株式会社,東京都,江戸川区,大杉５丁目２９番３号,,13,123,1320022,,,2025-01-28,清算の結了等,,,2015-10-05,1,,,,,ウイングラン,0
754,4012302004533,登記記録の閉鎖等,0,2025-02-06,2025-02-03,有限会社丸屋畜産,,有限会社,東京都,町田市,木曽西４丁目１４番２３号,,13,209,1940037,,,2025-02-03,清算の結了等,,,2015-10-05,1,,,,,マルヤチクサン,0
757,4012403002279,登記記録の閉鎖等,0,2025-02-06,2025-02-05,ルーセントジャパン合同会社,,合同会社,東京都,三鷹市,下連雀５丁目８－３,,13,204,1810013,,,2025-02-05,清算の結了等,,,2015-10-05,1,,,,,ルーセントジャパン,0
758,4012405002962,登記記録の閉鎖等,0,2025-02-06,2025-02-03,一般社団法人身体障害者自立雇用協会,,その他の設立登記法人,東京都,三鷹市,大沢２丁目１８番３号,,13,204,1810015,,,2025-02-03,清算の結了等,,,2015-10-05,1,,,,,シンタイショウガイシャジリツコヨウキョウカイ,0
769,4020002046944,登記記録の閉鎖等,0,2025-02-06,2025-01-21,有限会社第一電子研究所,,有限会社,神奈川県,横浜市緑区,上山３丁目４番１２号,,14,113,2260012,,,2025-01-21,清算の結了等,,,2015-10-05,1,,,,,ダイイチデンシケンキュウショ,0
775,4021003009171,登記記録の閉鎖等,0,2025-02-06,2025-02-03,合同会社セレピア,,合同会社,神奈川県,秦野市,南矢名１７５１番地の１０,,14,211,2570003,,,2025-02-03,清算の結了等,,,2020-03-03,1,,,,,セレピア,0
784,4030002107266,登記記録の閉鎖等,0,2025-02-06,2025-02-03,有限会社まるたか給食,,有限会社,埼玉県,川口市,朝日５丁目５番７号,,11,203,3320001,,,2025-02-03,清算の結了等,,,2015-10-05,1,,,,,,0
798,4050001022497,登記記録の閉鎖等,0,2025-02-06,2025-02-04,株式会社富栄興業,,株式会社,茨城県,神栖市,木崎１３５１番地１２,,08,232,3140127,,,2025-02-04,合併による解散等,4020001074178,令和６年１２月３１日川崎市川崎区新川通り１１番地６ニュー新川マンション２０１株式会社大和（4020001074178）に合併し解散,2015-10-05,1,,,,,トミエイコウギョウ,0
804,4060002010995,登記記録の閉鎖等,0,2025-02-06,2025-02-03,有限会社アオヤギダンス企画,,有限会社,栃木県,河内郡上三川町,大字上郷２６３番地３,,09,301,3290604,,,2025-02-03,清算の結了等,,,2015-10-05,1,,,,,アオヤギダンスキカク,0
811,4070001028600,登記記録の閉鎖等,0,2025-02-06,2025-02-04,株式会社保険のガーデン,,株式会社,群馬県,高崎市,上中居町２９４－１,,10,202,3700851,,,2025-02-04,清算の結了等,,,2015-10-05,1,,,,,ホケンノガーデン,0
812,4070002037261,登記記録の閉鎖等,0,2025-02-06,2025-02-04,有限会社モミタロー,,有限会社,群馬県,邑楽郡明和町,上江黒５３５番地,,10,522,3700702,,,2025-02-04,清算の結了等,,,2015-10-05,1,,,,,モミタロー,0
825,4100001024661,登記記録の閉鎖等,0,2025-02-06,2025-02-03,株式会社テラサワ,,株式会社,長野県,茅野市,仲町５番２２号,,20,214,3910005,,,2025-02-03,清算の結了等,,,2015-10-05,1,,,,,テラサワ,0
828,4100003000999,登記記録の閉鎖等,0,2025-02-06,2025-02-04,中軽投研合資会社,,合資会社,神奈川県,藤沢市,本町３丁目１５番６号,,14,205,2510053,,,2025-02-04,清算の結了等,,,2015-10-05,1,,,,,ナカカルトウケン,0
832,4110002016112,登記記録の閉鎖等,0,2025-02-06,2025-02-04,有限会社太田ふとん店,,有限会社,新潟県,胎内市,東本町２１番５号,,15,227,9592643,,,2025-02-04,清算の結了等,,,2015-10-05,1,,,,,オオタフトンテン,0
836,4120001184025,登記記録の閉鎖等,0,2025-02-06,2025-02-05,株式会社ＶＩＭ,,株式会社,大阪府,大阪市中央区,道修町３丁目６番１号,,27,128,5410045,,,2025-02-05,清算の結了等,,,2015-10-05,1,,,,,ブイアイエム,0
837,4120001194635,登記記録の閉鎖等,0,2025-02-06,2025-02-05,株式会社あやか,,株式会社,大阪府,大阪市中央区,谷町３丁目４番５号,,27,128,5400012,,,2025-02-05,清算の結了等,,,2015-11-25,1,,,,,アヤカ,0
838,4120001198792,登記記録の閉鎖等,0,2025-02-06,2025-02-04,株式会社ナノアビリティ,,株式会社,大阪府,大阪市中央区,南船場４丁目１０番２１号,,27,128,5420081,,,2025-02-04,清算の結了等,,,2016-06-10,1,,,,,ナノアビリティ,0
851,4120901017614,登記記録の閉鎖等,0,2025-02-06,2025-01-31,株式会社ＯＦＦＩＣＥ　ＳＯＧＡＷＡ,,株式会社,大阪府,吹田市,桃山台４丁目３番１－４０４号,,27,205,5650854,,,2025-01-31,清算の結了等,,,2015-10-05,1,,,,,オフィスソガワ,0
863,4140003008717,登記記録の閉鎖等,0,2025-02-06,2025-02-04,ハッピー合同会社,,合同会社,兵庫県,神戸市垂水区,坂上３丁目２－２３－４０４号室,,28,108,6550895,,,2025-02-04,清算の結了等,,,2015-10-05,1,,,,,ハッピー,0
867,4150005009472,登記記録の閉鎖等,0,2025-02-06,2025-01-31,一般社団法人森未来かみきた,,その他の設立登記法人,奈良県,吉野郡上北山村,大字河合１０７番地,,29,451,6393701,,,2025-01-31,清算の結了等,,,2023-04-20,1,,,,,シンミライカミキタ,0
870,4170005003523,登記記録の閉鎖等,0,2025-02-06,2025-02-04,医療法人湯川歯科診療所,,その他の設立登記法人,和歌山県,田辺市,下屋敷町２番地の２,,30,206,6460032,,,2025-02-04,清算の結了等,,,2015-10-05,1,,,,,ユカワシカシンリョウショ,0
871,4180001012535,登記記録の閉鎖等,0,2025-02-06,2025-01-31,大英印刷工業株式会社,,株式会社,愛知県,名古屋市北区,落合町２２３番地,,23,103,4620017,,,2025-01-31,清算の結了等,,,2015-10-05,1,,,,,ダイエイインサツコウギョウ,0
884,4200003005625,登記記録の閉鎖等,0,2025-02-06,2025-02-05,小椋造園事務所合同会社,,合同会社,岐阜県,各務原市,蘇原東島町２丁目１４８番地,,21,213,5040816,,,2025-02-05,清算の結了等,,,2022-07-21,1,,,,,オグラゾウエンジムショ,0
907,4290003007927,登記記録の閉鎖等,0,2025-02-06,2025-01-20,合同会社えきぞちっくＪａｐａｎ,,合同会社,福岡県,福津市,西福間３丁目４０－１サンセットビレッジ１Ｆ,,40,224,8113219,,,2025-01-20,清算の結了等,,,2018-03-22,1,,,,,エキゾチックジャパン,0
925,4360003000817,登記記録の閉鎖等,0,2025-02-06,2025-02-04,合資会社隆重機土木,,合資会社,沖縄県,那覇市,字仲井真２７３番地,,47,201,9020074,,,2025-02-04,清算の結了等,,,2015-10-05,1,,,,,タカシジュウキドボク,0
927,4370001024321,登記記録の閉鎖等,0,2025-02-06,2025-02-03,株式会社ディーワン,,株式会社,宮城県,仙台市太白区,東大野田７番３号,,04,104,9820004,,,2025-02-03,清算の結了等,,,2015-10-05,1,,,,,ディーワン,0
938,4410002009077,登記記録の閉鎖等,0,2025-02-06,2025-02-03,有限会社グロウス,,有限会社,秋田県,大館市,芦田子字天下道上７４番地１７,00086789,05,204,0170025,,,2025-02-03,清算の結了等,,,2015-10-05,1,,,,,グロウス,0
942,4410002013327,登記記録の閉鎖等,0,2025-02-06,2025-02-03,有限会社テレネットプラス,,有限会社,秋田県,横手市,平鹿町醍醐字宿尻１７番地２,,05,203,0130102,,,2025-02-03,清算の結了等,,,2015-10-05,1,,,,,,0
944,4430001008557,登記記録の閉鎖等,0,2025-02-06,2025-02-04,株式会社スマット,,株式会社,北海道,札幌市豊平区,豊平三条８丁目１番２６号,,01,105,0620903,,,2025-02-04,清算の結了等,,,2015-10-05,1,,,,,スマット,0
945,4430002006287,登記記録の閉鎖等,0,2025-02-06,2025-02-03,清田サンハイム有限会社,,有限会社,北海道,札幌市清田区,清田三条３丁目２番２６号,,01,110,0040843,,,2025-02-03,清算の結了等,,,2015-10-05,1,,,,,キヨタサンハイム,0
955,4500001005547,登記記録の閉鎖等,0,2025-02-06,2025-02-03,株式会社岩崎屋,00007372,株式会社,愛媛県,松山市,鉄砲町８番地３田窪ビル３０６号,,38,201,7900827,,,2025-02-03,清算の結了等,,,2015-10-05,1,,,,,イワサキヤ,0
960,5010001232405,登記記録の閉鎖等,0,2025-02-06,2025-02-03,株式会社リベ大レストラン,,株式会社,大阪府,大阪市北区,太融寺町３番３０－１１０５号,,27,127,5300051,,,2025-02-03,清算の結了等,,,2023-01-23,1,,,,,リベダイレストラン,0
968,5010102003325,登記記録の閉鎖等,0,2025-02-06,2025-01-24,有限会社しま,,有限会社,東京都,八王子市,石川町２９６６番地１３,,13,201,1920032,,,2025-01-24,清算の結了等,,,2015-10-05,1,,,,,シマ,0
969,5010102003341,登記記録の閉鎖等,0,2025-02-06,2025-02-03,有限会社清水保商店,,有限会社,東京都,八王子市,北野町５６７番地の１５,,13,201,1920906,,,2025-02-03,清算の結了等,,,2015-10-05,1,,,,,シミズタモツショウテン,0
972,5010103000750,登記記録の閉鎖等,0,2025-02-06,2025-02-03,合同会社ＭＹＬＴ,,合同会社,東京都,八王子市,別所１丁目４９番１８号,,13,201,1920363,,,2025-02-03,清算の結了等,,,2015-10-05,1,,,,,ミルト,0
974,5010401026893,登記記録の閉鎖等,0,2025-02-06,2025-02-04,不二商株式会社,,株式会社,神奈川県,愛甲郡清川村,煤ヶ谷字原２３０７番地,,14,402,2430112,,,2025-02-04,合併による解散等,2080401004796,令和７年２月１日静岡県浜松市中央区西ケ崎町１０２７番地ヘイワオートサービス株式会社（2080401004796）に合併し解散,2015-10-05,1,,,,,フジショウ,0
983,5010602022535,登記記録の閉鎖等,0,2025-02-06,2025-02-03,有限会社プラネット,,有限会社,東京都,墨田区,亀沢２丁目１２番２号,,13,107,1300014,,,2025-02-03,清算の結了等,,,2015-10-05,1,,,,,プラネット,0
998,5011003016201,登記記録の閉鎖等,0,2025-02-06,2025-01-09,合同会社フローワンセブン,,合同会社,東京都,目黒区,目黒本町５丁目２６番１５号ベルボワ－ル１０２,,13,110,1520002,,,2025-01-09,清算の結了等,,,2023-02-06,1,,,,,フローワンセブン,0
1016,5012702001047,登記記録の閉鎖等,0,2025-02-06,2025-02-03,有限会社関根初男事務所,,有限会社,東京都,小平市,仲町１６４番地,,13,211,1870042,,,2025-02-03,清算の結了等,,,2015-10-05,1,,,,,セキネハツオジムショ,0
1044,5030003001525,登記記録の閉鎖等,0,2025-02-06,2025-02-03,合同会社リーブ・ポート,,合同会社,埼玉県,所沢市,松葉町２３番４号,,11,208,3590044,,,2025-02-03,清算の結了等,,,2015-10-05,1,,,,,リーブポート,0
1052,5040001000569,登記記録の閉鎖等,0,2025-02-06,2025-01-31,泉住宅設備株式会社,,株式会社,千葉県,千葉市若葉区,加曽利町１５２８番地１１号,,12,104,2640017,,,2025-01-31,清算の結了等,,,2015-10-05,1,,,,,イズミジュウタクセツビ,0
1053,5040001079901,登記記録の閉鎖等,0,2025-02-06,2025-01-31,株式会社みんなのちからカンパニー,,株式会社,千葉県,長生郡一宮町,一宮２６３４番地６,,12,421,2994301,,,2025-01-31,清算の結了等,,,2015-10-05,1,,,,,ミンナノチカラカンパニー,0
1054,5040001110905,登記記録の閉鎖等,0,2025-02-06,2025-01-27,株式会社ＹＳＳ,,株式会社,千葉県,四街道市,和良比２５７番地２２,,12,228,2840044,,,2025-01-27,清算の結了等,,,2019-10-02,1,,,,,ワイエスエス,0
1059,5040002074323,登記記録の閉鎖等,0,2025-02-06,2025-01-31,有限会社テックス,,有限会社,千葉県,市原市,国分寺台中央２丁目７番地２１,,12,219,2900073,,,2025-01-31,清算の結了等,,,2015-10-05,1,,,,,テックス,0
1062,5040005016702,登記記録の閉鎖等,0,2025-02-06,2025-01-30,一般社団法人メディカル前田,,その他の設立登記法人,千葉県,茂原市,六ツ野２８００番地３６,,12,210,2970012,,,2025-01-30,清算の結了等,,,2015-10-05,1,,,,,メディカルマエダ,0
1065,5060001019070,登記記録の閉鎖等,0,2025-02-06,2025-01-31,原清株式会社,,株式会社,栃木県,足利市,大橋町１丁目１８２７番地８,,09,202,3260051,,,2025-01-31,清算の結了等,,,2015-10-05,1,,,,,ハラセイ,0
1071,5070002000136,登記記録の閉鎖等,0,2025-02-06,2025-02-04,有限会社アクアヴェール,,有限会社,群馬県,前橋市,野中町６００番地１,,10,201,3792166,,,2025-02-04,清算の結了等,,,2015-10-05,1,,,,,エコリザーブ,0
1072,5080002016453,登記記録の閉鎖等,0,2025-02-06,2025-02-03,有限会社ロコモウエル,,有限会社,静岡県,焼津市,駅北３丁目９番１号,,22,212,4250028,,,2025-02-03,清算の結了等,,,2015-10-05,1,,,,,ロコモウエル,0
1073,5080401011740,登記記録の閉鎖等,0,2025-02-06,2025-02-03,株式会社キタウチ遊具,,株式会社,静岡県,浜松市天竜区,緑恵台５５６番地の２７０,,22,140,4313424,,,2025-02-03,合併による解散等,3080401016931,令和７年２月１日静岡県浜松市中央区大瀬町１８２７番地の２株式会社渡部建設（3080401016931）に合併し解散,2015-10-05,1,,,,,キタウチユウグ,0
1083,5100001034528,登記記録の閉鎖等,0,2025-02-06,2025-02-03,株式会社Ｍｏｔｉｏｎ　Ｐｌａｎ,,株式会社,長野県,東御市,本海野１０１２番地,,20,219,3890518,,,2025-02-03,清算の結了等,,,2021-08-13,1,,,,,モーションプラン,0
1085,5100002005957,登記記録の閉鎖等,0,2025-02-06,2025-02-03,有限会社黒田,,有限会社,長野県,上水内郡信濃町,大字野尻３６番地９,,20,583,3891303,,,2025-02-03,清算の結了等,,,2015-10-05,1,,,,,クロダ,0
1086,5100002030385,登記記録の閉鎖等,0,2025-02-06,2025-02-03,有限会社斫り山路,,有限会社,長野県,茅野市,宮川１４８９番地,,20,214,3910013,,,2025-02-03,清算の結了等,,,2015-10-05,1,,,,,ハツリヤマジ,0
1089,5110002031011,登記記録の閉鎖等,0,2025-02-06,2025-02-04,有限会社松本仙次郎,,有限会社,新潟県,長岡市,寺泊上田町７６８４番地１,,15,202,9402502,,,2025-02-04,清算の結了等,,,2015-10-05,1,,,,,マツモトセンジロウ,0
1090,5110002034955,登記記録の閉鎖等,0,2025-02-06,2025-02-04,有限会社Ｕ・サポートサービス,,有限会社,新潟県,佐渡市,加茂歌代３１３番地１,,15,224,9520028,,,2025-02-04,清算の結了等,,,2015-10-05,1,,,,,,0
1121,5130002002992,登記記録の閉鎖等,0,2025-02-06,2025-02-04,有限会社水谷銘木加工店,,有限会社,京都府,京都市上京区,下立売通浄福寺東入下丸屋町５０４番地,,26,102,6028176,,,2025-02-04,清算の結了等,,,2015-10-05,1,,,,,ミズタニメイボクカコウテン,0
1123,5130002030424,登記記録の閉鎖等,0,2025-02-06,2025-02-03,有限会社中江メディカル,,有限会社,京都府,八幡市,男山松里１１番地１０,,26,210,6148364,,,2025-02-03,合併による解散等,8130002011834,令和７年２月１日京都市山科区安朱南屋敷町３５番地株式会社アステリメディカル（8130002011834）に合併し解散,2015-10-05,1,,,,,ナカエメディカル,0
1135,5170002006503,登記記録の閉鎖等,0,2025-02-06,2025-02-04,有限会社大義,,有限会社,和歌山県,海南市,岡田３８６番地の４,,30,202,6420012,,,2025-02-04,清算の結了等,,,2015-10-05,1,,,,,ダイヨシ,0
1149,5190001018043,登記記録の閉鎖等,0,2025-02-06,2025-01-31,株式会社ＪＢＲ,,株式会社,三重県,四日市市,伊坂町１６３４番地,,24,202,5128064,,,2025-01-31,合併による解散等,7480001003666,令和７年１月１５日東京都千代田区神田佐久間町三丁目２７番３号ガーデンパークビル６０３号タカラ株式会社（7480001003666）に合併し解散,2015-10-05,1,,,,,ジェイビーアール,0
1163,5250001014515,登記記録の閉鎖等,0,2025-02-06,2025-02-05,株式会社アグリ・サポート・カネモト,,株式会社,山口県,熊毛郡田布施町,大字波野２６９番地,,35,343,7421502,,,2025-02-05,清算の結了等,,,2015-10-05,1,,,,,アグリサポートカネモト,0
1200,5370001050639,登記記録の閉鎖等,0,2025-02-06,2025-01-27,株式会社いちごびとたち,,株式会社,宮城県,仙台市若林区,中倉３丁目１６番３２号,,04,103,9840821,,,2025-01-27,清算の結了等,,,2023-11-17,1,,,,,イチゴビトタチ,0
1204,5380005003328,登記記録の閉鎖等,0,2025-02-06,2025-01-29,特定非営利活動法人中庸学舎,,その他の設立登記法人,福島県,郡山市,希望ヶ丘５番１０号２－８－２０５,,07,203,9638035,,,2025-01-29,清算の結了等,,,2015-10-05,1,,,,,チュウヨウガクシャ,0
1218,5450001009949,登記記録の閉鎖等,0,2025-02-06,2025-02-04,株式会社うらら,,株式会社,北海道,旭川市,二条通１０丁目２８８番地,,01,204,0700032,,,2025-02-04,清算の結了等,,,2015-10-05,1,,,,,ウララ,0
1237,6010002013316,登記記録の閉鎖等,0,2025-02-06,2025-01-27,有限会社ネットサポート,,有限会社,東京都,千代田区,三番町３０番地８,,13,101,1020075,,,2025-01-27,清算の結了等,,,2015-10-05,1,,,,,ネットサポート,0
1246,6010401094618,登記記録の閉鎖等,0,2025-02-06,2025-01-06,株式会社アイエスエフネットライフ,,株式会社,東京都,港区,赤坂７丁目１番１６号,,13,103,1070052,,,2025-01-06,合併による解散等,6010401052047,令和６年１２月２８日東京都港区赤坂七丁目１番１６号株式会社アイエスエフネット（6010401052047）に合併し解散,2015-10-05,1,,,,,アイエスエフネットライフ,0
1254,6010502019333,登記記録の閉鎖等,0,2025-02-06,2025-01-29,有限会社メゾンシステム,,有限会社,東京都,台東区,千束４丁目３３番１４－１００３号ケルン浅草,,13,106,1110031,,,2025-01-29,清算の結了等,,,2015-10-05,1,,,,,メゾンシステム,0
1255,6010601001687,登記記録の閉鎖等,0,2025-02-06,2025-02-03,株式会社木場リサイクル,,株式会社,東京都,江東区,塩浜２丁目１４番２号,,13,108,1350043,,,2025-02-03,合併による解散等,9010602000149,令和７年２月１日東京都江東区塩浜二丁目１４番２号ＡＲＳ株式会社（9010602000149）に合併し解散,2015-10-05,1,,,,,キバリサイクル,0
1303,6021002056015,登記記録の閉鎖等,0,2025-02-06,2025-01-21,有限会社エヌ・エス・コーポレーション,,有限会社,神奈川県,横浜市西区,高島２丁目１１番２号スカイメナー横浜５１９号室,,14,103,2200011,,,2025-01-21,清算の結了等,,,2015-10-05,1,,,,,エヌエスコーポレーション,0
1309,6030003016191,登記記録の閉鎖等,0,2025-02-06,2025-02-03,合同会社オカタシ,,合同会社,埼玉県,戸田市,笹目３丁目２０番地の１１,,11,224,3350034,,,2025-02-03,清算の結了等,,,2020-11-25,1,,,,,オカタシ,0
1312,6040001013487,登記記録の閉鎖等,0,2025-02-06,2025-01-31,株式会社エスティホーム,,株式会社,千葉県,千葉市若葉区,西都賀２丁目２０番２号,,12,104,2640026,,,2025-01-31,清算の結了等,,,2015-10-05,1,,,,,エスティホーム,0
1325,6060001018848,登記記録の閉鎖等,0,2025-02-06,2025-01-30,株式会社田代製作所,,株式会社,栃木県,足利市,樺崎町１１８番地の３,,09,202,3260004,,,2025-01-30,清算の結了等,,,2015-10-05,1,,,,,タシロセイサクジョ,0
1331,6070002018417,登記記録の閉鎖等,0,2025-02-06,2025-02-04,有限会社石崎壁材料店,,有限会社,群馬県,伊勢崎市,曲輪町３１番地１８,,10,204,3720055,,,2025-02-04,清算の結了等,,,2015-10-05,1,,,,,イシザキカベザイリョウテン,0
1341,6120001036661,登記記録の閉鎖等,0,2025-02-06,2025-02-04,株式会社モトイ,,株式会社,大阪府,大阪市福島区,野田１丁目１番８６号大阪市中央卸売市場本場内,,27,103,5530005,,,2025-02-04,清算の結了等,,,2015-10-05,1,,,,,モトイ,0
1346,6120001227946,登記記録の閉鎖等,0,2025-02-06,2025-02-03,株式会社フィッシュホールディングス,,株式会社,大阪府,大阪市北区,山崎町２番１１号,,27,127,5300024,,,2025-02-03,合併による解散等,7120001069660,令和７年２月１日大阪市北区山崎町２番１１号株式会社フィッシュ（7120001069660）に合併し解散,2020-03-18,1,,,,,フィッシュホールディングス,0
1361,6120902006449,登記記録の閉鎖等,0,2025-02-06,2025-01-31,有限会社治村企画,,有限会社,大阪府,吹田市,片山町１丁目１３番７号,,27,205,5640082,,,2025-01-31,清算の結了等,,,2015-10-05,1,,,,,ジムラキカク,0
1362,6120902011655,登記記録の閉鎖等,0,2025-02-06,2025-02-04,ロッキーマウンテンサンライズ有限会社,,有限会社,大阪府,枚方市,星丘３丁目２１番１８号,,27,210,5730013,,,2025-02-04,清算の結了等,,,2015-10-05,1,,,,,ロッキーマウンテンサンライズ,0
1365,6122001025132,登記記録の閉鎖等,0,2025-02-06,2025-02-03,株式会社Ｎ．ｃｏ,,株式会社,大阪府,東大阪市,西鴻池町１丁目１０番５号,,27,227,5780976,,,2025-02-03,清算の結了等,,,2015-10-05,1,,,,,ノコ,0
1366,6122002000290,登記記録の閉鎖等,0,2025-02-06,2025-02-03,有限会社イマムラ紙器,,有限会社,大阪府,東大阪市,柏田西２丁目１４番９号,,27,227,5770835,,,2025-02-03,清算の結了等,,,2015-10-05,1,,,,,イマムラシキ,0
1375,6140001118482,登記記録の閉鎖等,0,2025-02-06,2025-01-10,株式会社ＭｙＬｉｖｉｎｇ,,株式会社,東京都,渋谷区,恵比寿南２丁目１番１０号インテックス恵比寿７Ｆ,,13,113,1500022,,,2025-01-10,清算の結了等,,,2020-08-25,1,,,,,マイリビング,0
1385,6140005024289,登記記録の閉鎖等,0,2025-02-06,2025-02-03,一般社団法人ファーム神津,,その他の設立登記法人,兵庫県,伊丹市,森本２丁目２４１番地,,28,207,6640842,,,2025-02-03,清算の結了等,,,2018-10-04,1,,,,,ファームカミツ,0
1392,6170001005091,登記記録の閉鎖等,0,2025-02-06,2025-02-05,加太菜園株式会社,,株式会社,和歌山県,和歌山市,加太字炭谷２３６２番８,,30,201,6400103,,,2025-02-05,清算の結了等,,,2015-10-05,1,,,,,カダサイエン,0
1395,6180001053899,登記記録の閉鎖等,0,2025-02-06,2025-02-03,株式会社ＴＫＤ企画,,株式会社,愛知県,名古屋市中区,丸の内２丁目１０番２３号,,23,106,4600002,,,2025-02-03,合併による解散等,8180001037727,令和７年２月１日名古屋市中区丸の内二丁目１０番２３号高田株式会社（8180001037727）に合併し解散,2015-10-05,1,,,,,ティーケーディーキカク,0
1397,6180001074879,登記記録の閉鎖等,0,2025-02-06,2025-02-03,株式会社文友社,,株式会社,愛知県,岩倉市,八剱町池田１０番地,,23,228,4820031,,,2025-02-03,合併による解散等,6010601030760,令和７年２月１日東京都墨田区両国三丁目１９番３号株式会社文友社（6010601030760）に合併し解散,2015-10-05,1,,,,,ブンユウシャ,0
1398,6180001076628,登記記録の閉鎖等,0,2025-02-06,2025-02-05,株式会社吉田靴店,,株式会社,岐阜県,美濃加茂市,太田町２６８３番地,,21,211,5050041,,,2025-02-05,清算の結了等,,,2015-10-05,1,,,,,,0
1401,6180001124477,登記記録の閉鎖等,0,2025-02-06,2025-01-31,山川鉄筋鋼業株式会社,,株式会社,愛知県,あま市,花正五反田１７番地,,23,237,4901205,,,2025-01-31,合併による解散等,9180001149083,令和７年１月３１日愛知県あま市花正五反田１７番地株式会社ヤマカワ（9180001149083）に合併し解散,2016-08-15,1,,,,,ヤマカワテッキンコウギョウ,0
1406,6180002014132,登記記録の閉鎖等,0,2025-02-06,2025-02-03,有限会社タケウチハクイ,,有限会社,愛知県,名古屋市南区,明治１丁目２３番４号,,23,112,4570861,,,2025-02-03,清算の結了等,,,2015-10-05,1,,,,,タケウチハクイ,0
1413,6180301018222,登記記録の閉鎖等,0,2025-02-06,2025-02-03,光陽自動車株式会社,,株式会社,愛知県,豊田市,衣ケ原３丁目２０番地,,23,211,4710856,,,2025-02-03,合併による解散等,8180301018427,令和７年２月１日愛知県豊田市衣ケ原三丁目２０番地新明工業株式会社（8180301018427）に合併し解散,2015-10-05,1,,,,,コウヨウジドウシャ,0
1420,6200002005277,登記記録の閉鎖等,0,2025-02-06,2025-02-03,有限会社ワイド,,有限会社,岐阜県,岐阜市,真砂町５丁目１８番地,,21,201,5008864,,,2025-02-03,清算の結了等,,,2015-10-05,1,,,,,ワイド,0
1430,6260001021014,登記記録の閉鎖等,0,2025-02-06,2025-02-03,株式会社ノースタウン青果,,株式会社,岡山県,津山市,津山口２６２番地１２,,33,203,7080884,,,2025-02-03,清算の結了等,,,2015-10-05,1,,,,,ノースタウンセイカ,0
1433,6260002000578,登記記録の閉鎖等,0,2025-02-06,2025-02-04,有限会社有本,,有限会社,岡山県,岡山市東区,瀬戸町南方１０８４番地３,,33,103,7090844,,,2025-02-04,清算の結了等,,,2015-10-05,1,,,,,アリモト,0
1435,6280001008439,登記記録の閉鎖等,0,2025-02-06,2025-02-03,アプトテイク株式会社,,株式会社,島根県,松江市,南田町３２－１３,,32,201,6900884,,,2025-02-03,清算の結了等,,,2021-05-21,1,,,,,アプトテイク,0
1451,6330002009604,登記記録の閉鎖等,0,2025-02-06,2025-01-31,有限会社ホテルメルヘン,,有限会社,熊本県,熊本市中央区,九品寺１丁目１３番５号,,43,101,8620976,,,2025-01-31,清算の結了等,,,2015-10-05,1,,,,,ホテルメルヘン,0
1458,6360003012496,登記記録の閉鎖等,0,2025-02-06,2025-02-05,合同会社アーボーファーム,,合同会社,沖縄県,南城市,佐敷字津波古１００８番地４,,47,215,9011414,,,2025-02-05,清算の結了等,,,2022-11-28,1,,,,,アーボーファーム,0
1467,6370801001385,登記記録の閉鎖等,0,2025-02-06,2025-02-03,株式会社高齢住宅整備会,,株式会社,宮城県,名取市,愛島台２丁目１０１番地の３０,,04,207,9811251,,,2025-02-03,清算の結了等,,,2015-10-05,1,,,,,,0
1468,6390001008873,登記記録の閉鎖等,0,2025-02-06,2025-02-03,マルモ総合保険株式会社,,株式会社,山形県,新庄市,金沢字梨ノ木２２４８－６,,06,205,9960002,,,2025-02-03,清算の結了等,,,2015-10-05,1,,,,,マルモソウゴウホケン,0
1471,6400002010744,登記記録の閉鎖等,0,2025-02-06,2025-01-27,有限会社中沢設備,,有限会社,岩手県,宮古市,山口１丁目２番３０号,,03,202,0270063,,,2025-01-27,清算の結了等,,,2015-10-05,1,,,,,ナカザワセツビ,0
1475,6420002013209,登記記録の閉鎖等,0,2025-02-06,2025-02-03,興東観光開発有限会社,,有限会社,青森県,弘前市,大字新里字下樋田７９番地,,02,202,0368083,,,2025-02-03,清算の結了等,,,2015-10-05,1,,,,,,0
1477,6430002026853,登記記録の閉鎖等,0,2025-02-06,2025-02-03,有限会社三協機工,,有限会社,北海道,札幌市東区,東苗穂五条３丁目２番３５号,,01,103,0070805,,,2025-02-03,清算の結了等,,,2015-10-05,1,,,,,サンキョウキコウ,0
1478,6430003011953,登記記録の閉鎖等,0,2025-02-06,2025-02-04,合同会社ツリーファミリー,,合同会社,北海道,江別市,三条２丁目２０番地,,01,217,0670013,,,2025-02-04,清算の結了等,,,2020-09-23,1,,,,,ツリーファミリー,0
1490,6480002001091,登記記録の閉鎖等,0,2025-02-06,2025-02-04,有限会社金隆組,,有限会社,徳島県,徳島市,国府町延命５３４番地,,36,201,7793128,,,2025-02-04,清算の結了等,,,2015-10-05,1,,,,,キンリュウグミ,0
1505,7010005034003,登記記録の閉鎖等,0,2025-02-06,2025-02-03,一般社団法人ＳＡ　ＰＲＯＰＥＲＴＹ７,,その他の設立登記法人,東京都,中央区,銀座１丁目６番１１号土志田ビルディング３Ｆ,,13,102,1040061,,,2025-02-03,清算の結了等,,,2021-09-17,1,,,,,エスエープロパティセブン,0
1535,7011002028311,登記記録の閉鎖等,0,2025-02-06,2025-01-06,有限会社ＭＥＤＩＡ４,,有限会社,東京都,渋谷区,恵比寿１丁目１９番１９号,,13,113,1500013,,,2025-01-06,清算の結了等,,,2015-10-05,1,,,,,メディアフォー,0
1544,7011502015321,登記記録の閉鎖等,0,2025-02-06,2025-01-31,有限会社ＴＲＵＳＴ,,有限会社,東京都,北区,赤羽北２丁目８番１－１４０４号アクトピア北赤羽五番館,,13,117,1150052,,,2025-01-31,清算の結了等,,,2015-10-05,1,,,,,トラスト,0
1547,7011702006590,登記記録の閉鎖等,0,2025-02-06,2025-02-03,綜合美術有限会社,,有限会社,東京都,江戸川区,東葛西９丁目１０番１号,,13,123,1340084,,,2025-02-03,清算の結了等,,,2015-10-05,1,,,,,ソウゴウビジュツ,0
1561,7020002005807,登記記録の閉鎖等,0,2025-02-06,2025-01-17,有限会社光香工業,,有限会社,神奈川県,横浜市都筑区,折本町４３０番地２,,14,118,2240043,,,2025-01-17,清算の結了等,,,2017-12-22,1,,,,,コウカコウギョウ,0
1589,7040002041825,登記記録の閉鎖等,0,2025-02-06,2025-01-28,有限会社ムツミエンジニアリング,,有限会社,千葉県,浦安市,堀江２丁目２２番１５号,,12,227,2790041,,,2025-01-28,清算の結了等,,,2015-10-05,1,,,,,ムツミエンジニアリング,0
1593,7050002029654,登記記録の閉鎖等,0,2025-02-06,2025-01-31,有限会社丸尚,,有限会社,茨城県,鉾田市,安房１２６７番地１２,,08,234,3111504,,,2025-01-31,清算の結了等,,,2015-10-05,1,,,,,マルショウ,0
1599,7070002030247,登記記録の閉鎖等,0,2025-02-06,2025-01-31,有限会社東毛電業社,,有限会社,群馬県,邑楽郡大泉町,坂田２丁目１０番６号,,10,524,3700532,,,2025-01-31,清算の結了等,,,2015-10-05,1,,,,,トウモウデンギョウシャ,0
1630,7120901025069,登記記録の閉鎖等,0,2025-02-06,2025-01-29,新西日本冷機株式会社,,株式会社,大阪府,豊中市,三和町１丁目１番６６号,,27,203,5610828,,,2025-01-29,清算の結了等,,,2015-10-05,1,,,,,シンニシニホンレイキ,0
1635,7130001026487,登記記録の閉鎖等,0,2025-02-06,2025-02-03,株式会社貴善,,株式会社,大阪府,大阪市北区,梅田２丁目４番９号ブリーゼブリーゼ２階,,27,127,5300001,,,2025-02-03,合併による解散等,8010401180408,令和７年２月１日大阪市北区梅田二丁目４番９号ブリーゼブリーゼ２階株式会社ＴＡＫＡＺＥＮホールディングス（8010401180408）に合併し解散,2015-10-05,1,,,,,タカゼン,0
1644,7140002022468,登記記録の閉鎖等,0,2025-02-06,2025-02-03,有限会社介護サービスあしあと,,有限会社,兵庫県,神戸市兵庫区,大開通４丁目１番１７号濱竹ビル２階２０２号室,,28,105,6520803,,,2025-02-03,清算の結了等,,,2015-10-05,1,,,,,カイゴサービスアシアト,0
1649,7160001001628,登記記録の閉鎖等,0,2025-02-06,2025-02-03,一二三食品株式会社,,株式会社,滋賀県,大津市,浜町９番２４号,,25,201,5200041,,,2025-02-03,清算の結了等,,,2015-10-05,1,,,,,ヒフミショクヒン,0
1653,7180001090545,登記記録の閉鎖等,0,2025-02-06,2025-02-03,株式会社新名古屋製作所,,株式会社,愛知県,名古屋市港区,稲永１丁目３番５３号,,23,111,4550842,,,2025-02-03,合併による解散等,9180001007191,令和７年２月１日名古屋市港区稲永一丁目３番５３号株式会社濃美鉄工所（9180001007191）に合併し解散,2015-10-05,1,,,,,シンナゴヤセイサクショ,0
1674,7200001036289,登記記録の閉鎖等,0,2025-02-06,2025-02-05,株式会社中丸商事,,株式会社,岐阜県,岐阜市,青柳町４丁目３３番地,,21,201,5008881,,,2025-02-05,清算の結了等,,,2019-05-31,1,,,,,ナカマルショウジ,0
1676,7200002004328,登記記録の閉鎖等,0,2025-02-06,2025-02-03,有限会社松大工業,,有限会社,岐阜県,岐阜市,芥見町屋２丁目１７２番地,,21,201,5013116,,,2025-02-03,清算の結了等,,,2015-10-05,1,,,,,マツヒロコウギョウ,0
1711,7360001015855,登記記録の閉鎖等,0,2025-02-06,2025-02-04,株式会社東光電設工業,,株式会社,沖縄県,石垣市,字登野城９２７番地４,,47,207,9070004,,,2025-02-04,清算の結了等,,,2015-10-05,1,,,,,トウコウデンセツコウギョウ,0
1717,7370002017453,登記記録の閉鎖等,0,2025-02-06,2025-01-31,有限会社本田興業,,有限会社,宮城県,仙台市宮城野区,田子１丁目７番１５号,,04,102,9830021,,,2025-01-31,清算の結了等,,,2015-10-05,1,,,,,ホンダコウギョウ,0
1724,7430001059614,登記記録の閉鎖等,0,2025-02-06,2025-02-03,株式会社三共メンテナンス,,株式会社,北海道,札幌市南区,藤野一条７丁目１３番１４号,,01,106,0612281,,,2025-02-03,清算の結了等,,,2015-10-05,1,,,,,サンキョウメンテナンス,0
1731,7430005010845,登記記録の閉鎖等,0,2025-02-06,2025-02-04,公益財団法人杉野目記念会,,その他の設立登記法人,北海道,札幌市北区,北八条西７丁目北海道大学クラーク会舘内,,01,102,0600808,,,2025-02-04,清算の結了等,,,2015-10-05,1,,,,,スギノメキネンカイ,0
1751,8010003021092,登記記録の閉鎖等,0,2025-02-06,2025-01-27,日光１４０スタジオ泉合同会社,,合同会社,東京都,千代田区,丸の内１丁目４番１号東京共同会計事務所内,,13,101,1000005,,,2025-01-27,清算の結了等,,,2015-10-05,1,,,,,ニッコウワンハンドレッドフォーティースタジオイズミ,0
1753,8010003034466,登記記録の閉鎖等,0,2025-02-06,2025-01-27,日光Ｐｌｕｓ１７合同会社２,,合同会社,東京都,千代田区,丸の内１丁目４番１号東京共同会計事務所内,,13,101,1000005,,,2025-01-27,清算の結了等,,,2021-03-23,1,,,,,ニッコウプラスセブンティーンニ,0
1754,8010003035613,登記記録の閉鎖等,0,2025-02-06,2025-01-27,日光Ｐｌｕｓ２０合同会社７,,合同会社,東京都,千代田区,丸の内１丁目４番１号東京共同会計事務所内,,13,101,1000005,,,2025-01-27,清算の結了等,,,2021-08-16,1,,,,,ニッコウプラストゥエンティナナ,0
1766,8010401150179,登記記録の閉鎖等,0,2025-02-06,2025-01-15,株式会社ＮＳＳＫ　ＦＣ－ＪＳＦ,,株式会社,東京都,港区,愛宕２丁目５番１号愛宕グリーンヒルズＭＯＲＩタワー,,13,103,1050002,,,2025-01-15,清算の結了等,,,2020-01-07,1,,,,,エヌエスエスケーエフシージェイエスエフ,0
1773,8010501022724,登記記録の閉鎖等,0,2025-02-06,2025-02-03,株式会社ＴＫＤ販売,,株式会社,愛知県,名古屋市中区,丸の内２丁目１０番２３号,,23,106,4600002,,,2025-02-03,合併による解散等,8180001037727,令和７年２月１日名古屋市中区丸の内二丁目１０番２３号高田株式会社（8180001037727）に合併し解散,2015-10-05,1,,,,,ティーケーディーハンバイ,0
1775,8010601017087,登記記録の閉鎖等,0,2025-02-06,2025-01-31,本田皮革株式会社,,株式会社,東京都,墨田区,東墨田３丁目１２番１号,,13,107,1310042,,,2025-01-31,清算の結了等,,,2015-10-05,1,,,,,ホンダヒカク,0
1798,8011101101397,登記記録の閉鎖等,0,2025-02-06,2025-01-30,ＲＣＭプロパティ株式会社,,株式会社,東京都,新宿区,新宿６丁目２９－１１新宿イーストクロスタワー,,13,104,1600022,,,2025-01-30,清算の結了等,,,2023-01-11,1,,,,,アールシーエムプロパティ,0
1815,8020001018577,登記記録の閉鎖等,0,2025-02-06,2025-01-21,ビルド・クリエイションはたや株式会社,,株式会社,神奈川県,横浜市鶴見区,大東町７番地１５,,14,101,2300032,,,2025-01-21,清算の結了等,,,2015-10-05,1,,,,,ビルドクリエイションハタヤ,0
1819,8020002098560,登記記録の閉鎖等,0,2025-02-06,2025-01-21,有限会社野中組,,有限会社,神奈川県,川崎市川崎区,浜町３丁目６番７号,,14,131,2100851,,,2025-01-21,清算の結了等,,,2015-10-05,1,,,,,ノナカグミ,0
1833,8030002116890,登記記録の閉鎖等,0,2025-02-06,2025-02-03,有限会社成友,,有限会社,埼玉県,深谷市,東方３２７８番地８,,11,218,3660041,,,2025-02-03,清算の結了等,,,2015-10-05,1,,,,,セイユウ,0
1834,8040001001127,登記記録の閉鎖等,0,2025-02-06,2025-01-30,株式会社オアシスサービス,,株式会社,千葉県,千葉市美浜区,真砂１丁目１１番５棟４０２号,,12,106,2610011,,,2025-01-30,清算の結了等,,,2015-10-05,1,,,,,オアシスサービス,0
1848,8040002085870,登記記録の閉鎖等,0,2025-02-06,2025-01-31,有限会社沼橋管工設備,,有限会社,千葉県,銚子市,高神西町５４８番地,,12,202,2880026,,,2025-01-31,清算の結了等,,,2015-10-05,1,,,,,ヌマハシカンコウセツビ,0
1858,8070001012591,登記記録の閉鎖等,0,2025-02-06,2025-02-04,株式会社山正グリーンサービス,,株式会社,群馬県,藤岡市,下栗須１０１７番地３,,10,209,3750014,,,2025-02-04,清算の結了等,,,2015-10-05,1,,,,,ヤマショウグリーンサービス,0
1863,8080001004530,登記記録の閉鎖等,0,2025-02-06,2025-02-03,株式会社ファミール,,株式会社,静岡県,藤枝市,大新島２１番地,,22,214,4260043,,,2025-02-03,合併による解散等,8080001009422,令和７年２月１日静岡市清水区堀込３４５番地の２株式会社レスト（8080001009422）に合併し解散,2015-10-05,1,,,,,ファミール,0
1880,8120001207707,登記記録の閉鎖等,0,2025-02-06,2025-02-03,株式会社フィッシュビーパルク,,株式会社,大阪府,大阪市北区,山崎町２番１１号,,27,127,5300024,,,2025-02-03,合併による解散等,7120001069660,令和７年２月１日大阪市北区山崎町２番１１号株式会社フィッシュ（7120001069660）に合併し解散,2017-08-22,1,,,,,フィッシュビーパルク,0
1927,8190002015615,登記記録の閉鎖等,0,2025-02-06,2025-01-30,有限会社プロスペリテ,,有限会社,三重県,四日市市,九の城町７番６－２号,,24,202,5100072,,,2025-01-30,清算の結了等,,,2015-10-05,1,,,,,プロスペリテ,0
1947,8340002026687,登記記録の閉鎖等,0,2025-02-06,2025-02-03,有限会社山下建設,,有限会社,鹿児島県,肝属郡肝付町,前田９３６番地,,46,492,8931206,,,2025-02-03,清算の結了等,,,2015-10-05,1,,,,,ヤマシタケンセツ,0
1965,8430001017967,登記記録の閉鎖等,0,2025-02-06,2025-01-31,株式会社四葉エレクトリックファーム,,株式会社,北海道,恵庭市,住吉町３丁目８番２５号,,01,231,0611441,,,2025-01-31,清算の結了等,,,2015-10-05,1,,,,,ヨツバエレクトリックファーム,0
1969,8430002056551,登記記録の閉鎖等,0,2025-02-06,2025-01-31,有限会社藤崎商事,,有限会社,北海道,余市郡余市町,黒川町１２丁目６５番地,,01,408,0460003,,,2025-01-31,清算の結了等,,,2015-10-05,1,,,,,フジサキショウジ,0
1970,8430003009244,登記記録の閉鎖等,0,2025-02-06,2025-02-04,合同会社Ｊａｐａｎ　Ｒｅｓｏｒｔ,,合同会社,北海道,札幌市豊平区,平岸八条１３丁目１番１２－２号,,01,105,0620938,,,2025-02-04,清算の結了等,,,2018-04-03,1,,,,,ジャパンリゾート,0
1987,9010401087791,登記記録の閉鎖等,0,2025-02-06,2025-01-27,株式会社Ｔｒｅｅ　Ｓｉｘｔｙ　Ａｓｉａ,,株式会社,東京都,千代田区,丸の内３丁目２番３号丸の内二重橋ビル５Ｆ，ＦＣＣＪ、Ｈｅｒｍａｎ内,,13,101,1000005,,,2025-01-27,清算の結了等,,,2015-10-05,1,,,,,ツリーシックスティアジア,0
1991,9010401162421,登記記録の閉鎖等,0,2025-02-06,2025-01-14,株式会社シンビオシスパートナーズ,,株式会社,東京都,港区,高輪２丁目１１番７－２０２号,,13,103,1080074,,,2025-01-14,清算の結了等,,,2021-08-31,1,,,,,シンビオシスパートナーズ,0
2014,9011001153513,登記記録の閉鎖等,0,2025-02-06,2025-01-07,株式会社Ｕｎｌｉｍｉｔｅｄ　Ｗｏｒｋ　Ｐｌａｃｅ,,株式会社,東京都,渋谷区,桜丘町２６番１号セルリアンタワー１５階,,13,113,1500031,,,2025-01-07,清算の結了等,,,2023-04-28,1,,,,,アンリミテッドワークプレイス,0
2055,9021002050601,登記記録の閉鎖等,0,2025-02-06,2025-02-04,有限会社奈可むら,,有限会社,神奈川県,足柄下郡箱根町,二ノ平１１５６番地,,14,382,2500407,,,2025-02-04,清算の結了等,,,2015-10-05,1,,,,,ナカムラ,0
2058,9030001060800,登記記録の閉鎖等,0,2025-02-06,2025-02-03,日本システムサービス株式会社,,株式会社,埼玉県,児玉郡美里町,大字阿那志１６９０番地１,,11,381,3670103,,,2025-02-03,清算の結了等,,,2015-10-05,1,,,,,ニホンシステムサービス,0
2076,9060002014166,登記記録の閉鎖等,0,2025-02-06,2025-02-03,有限会社平山トップ加工所,,有限会社,栃木県,那須烏山市,大沢１７３４番地,,09,215,3210612,,,2025-02-03,清算の結了等,,,2015-10-05,1,,,,,ヒラヤマトップカコウジョ,0
2079,9070005005161,登記記録の閉鎖等,0,2025-02-06,2025-02-03,笠懸生産森林組合,,その他の設立登記法人,群馬県,みどり市,笠懸町阿左美１０８４番地,,10,212,3792311,,,2025-02-03,清算の結了等,,,2015-10-05,1,,,,,カサカケセイサン,0
2080,9080001004117,登記記録の閉鎖等,0,2025-02-06,2025-02-03,日本ハーブ食品株式会社,,株式会社,静岡県,焼津市,宗高９９４番地の２,,22,212,4210205,,,2025-02-03,清算の結了等,,,2015-10-05,1,,,,,ニホンハーブショクヒン,0
2084,9080002015170,登記記録の閉鎖等,0,2025-02-06,2025-02-03,有限会社静輪堂,,有限会社,静岡県,牧之原市,細江２０９９番地,,22,226,4210421,,,2025-02-03,清算の結了等,,,2015-10-05,1,,,,,セイリンドウ,0
2086,9080401006423,登記記録の閉鎖等,0,2025-02-06,2025-02-04,株式会社ソフィア,,株式会社,静岡県,浜松市中央区,板屋町１１１番地の２,,22,138,4300928,,,2025-02-04,合併による解散等,9010401018565,令和７年１月１日東京都港区海岸三丁目２０番２０号テクバン株式会社（9010401018565）に合併し解散,2015-10-05,1,,,,,ソフィア,0
2088,9100001011382,登記記録の閉鎖等,0,2025-02-06,2025-01-31,株式会社エムティー,,株式会社,長野県,上田市,御所２９１番地,,20,203,3860033,,,2025-01-31,合併による解散等,2100001010341,令和７年１月３１日長野県上田市御所２９１番地株式会社マザーツール（2100001010341）に合併し解散,2015-10-05,1,,,,,エムティー,0
2120,9130001069336,登記記録の閉鎖等,0,2025-02-06,2025-02-04,株式会社Ｋ　Ｃｏｍｐａｎｙ,,株式会社,京都府,京都市南区,久世中久世町５丁目２－１－３０１号,,26,107,6018213,,,2025-02-04,清算の結了等,,,2021-05-24,1,,,,,ケーカンパニー,0
2156,9180302002008,登記記録の閉鎖等,0,2025-02-06,2025-02-04,有限会社土井加納木材,,有限会社,愛知県,岡崎市,土井町字南赤部内１６番地,,23,202,4440204,,,2025-02-04,清算の結了等,,,2015-10-05,1,,,,,ドイカノウモクザイ,0
2159,9190003003205,登記記録の閉鎖等,0,2025-02-06,2025-02-04,合同会社８６カンパニー,,合同会社,三重県,松阪市,稲木町１９２９番地３,,24,204,5150212,,,2025-02-04,清算の結了等,,,2019-09-24,1,,,,,ハチロクカンパニー,0
2163,9200002004755,登記記録の閉鎖等,0,2025-02-06,2025-02-04,有限会社村地木工所,,有限会社,岐阜県,岐阜市,敷島町８丁目５８番地,,21,201,5008369,,,2025-02-04,清算の結了等,,,2015-10-05,1,,,,,ムラチモッコウショ,0
2170,9240001053915,登記記録の閉鎖等,0,2025-02-06,2025-02-03,株式会社Ｃｒｅａｒ,,株式会社,広島県,広島市中区,舟入幸町２５番３号,,34,101,7300844,,,2025-02-03,合併による解散等,6260001034544,令和７年２月１日広島市東区光町二丁目１４番９号１０１号室ネクシル株式会社（6260001034544）に合併し解散,2019-02-13,1,,,,,クレアール,0
2192,9320002017968,登記記録の閉鎖等,0,2025-02-06,2025-02-05,有限会社鶴屋,,有限会社,大分県,竹田市,大字君ケ園４０４番地３,,44,208,8780023,,,2025-02-05,清算の結了等,,,2015-10-05,1,,,,,ツルヤ,0
2202,9360001020325,登記記録の閉鎖等,0,2025-02-06,2025-01-28,株式会社ＴＳＵＮＡＧＵ,,株式会社,沖縄県,那覇市,泊１丁目３６番６－５１０号,,47,201,9000012,,,2025-01-28,清算の結了等,,,2016-01-12,1,,,,,ツナグ,0
2203,9360001022718,登記記録の閉鎖等,0,2025-02-06,2025-02-03,株式会社オート・インフォ,,株式会社,沖縄県,浦添市,大平１丁目３５番１号,,47,208,9012113,,,2025-02-03,清算の結了等,,,2017-08-08,1,,,,,オートインフォ,0
2212,9380005009271,登記記録の閉鎖等,0,2025-02-06,2025-01-28,塩川のれん商業協同組合,,その他の設立登記法人,福島県,喜多方市,塩川町字東栄町一丁目１番１,,07,208,9693512,,,2025-01-28,清算の結了等,,,2015-10-05,1,,,,,,0
2214,9400001001072,登記記録の閉鎖等,0,2025-02-06,2025-01-27,東北体育施設株式会社,,株式会社,岩手県,盛岡市,高松１丁目９番５０号,,03,201,0200114,,,2025-01-27,清算の結了等,,,2015-10-05,1,,,,,,0
2220,9420002012554,登記記録の閉鎖等,0,2025-02-06,2025-02-05,有限会社銀座観光,,有限会社,青森県,西津軽郡鰺ヶ沢町,大字舞戸町字上富田５０番地,,02,321,0382761,,,2025-02-05,清算の結了等,,,2015-10-05,1,,,,,ギンザカンコウ,0
