sequenceNumber,corporateNumber,process,correct,updateDate,changeDate,name,nameImageId,kind,prefectureName,cityName,streetNumber,addressImageId,prefectureCode,cityCode,postCode,addressOutside,addressOutsideImageId,closeDate,closeCause,successorCorporateNumber,changeCause,assignmentDate,latest,enName,enPrefectureName,enCityName,enAddressOutside,furigana,hihyoji
13,1010001260153,新規,0,2025-11-13,2025-11-13,シンギュラリア株式会社,,株式会社,東京都,中央区,銀座７丁目８－７,,13,102,1040061,,,,,,,2025-11-13,1,,,,,シンギュラリア,0
14,1010001260260,新規,0,2025-11-13,2025-11-13,ブルースカイソーラーキャピタル株式会社,,株式会社,東京都,千代田区,紀尾井町４番１号ニューオータニガーデンコート１９階フィンポート税理士法人内,,13,101,1020094,,,,,,,2025-11-13,1,,,,,ブルースカイソーラーキャピタル,0
15,1010001260277,新規,0,2025-11-13,2025-11-13,株式会社Ｃａｒｉｃｈｌａｂ,,株式会社,東京都,中央区,晴海２丁目２番４２－５２２号,,13,102,1040053,,,,,,,2025-11-13,1,,,,,キャリッチラボ,0
23,1010401194439,新規,0,2025-11-13,2025-11-13,ＡＩ　Ｋｅｙ　Ｉｎｎｏｖａｔｉｏｎ株式会社,,株式会社,東京都,港区,南青山３丁目１番３６号青山丸竹ビル６Ｆ,,13,103,1070062,,,,,,,2025-11-13,1,,,,,エーアイキーイノベーション,0
24,1010401194455,新規,0,2025-11-13,2025-11-13,株式会社ＬＩＮＯ　Ｌｉｆｅ　Ｄｅｓｉｇｎ,,株式会社,東京都,港区,芝１丁目２番１８号１Ｆ,,13,103,1050014,,,,,,,2025-11-13,1,,,,,リノライフデザイン,0
25,1010401194488,新規,0,2025-11-13,2025-11-13,株式会社ＴＥＬＬＵＳ,,株式会社,東京都,港区,東麻布２丁目６番５号,,13,103,1060044,,,,,,,2025-11-13,1,,,,,テルス,0
26,1010401194496,新規,0,2025-11-13,2025-11-13,株式会社Ｔｈｉｎｋ　Ｈｕｂ,,株式会社,東京都,港区,南青山３丁目１番３６号青山丸竹ビル６Ｆ,,13,103,1070062,,,,,,,2025-11-13,1,,,,,シンクハブ,0
28,1010403036589,新規,0,2025-11-13,2025-11-13,Ｌｅｔｔｒｅ合同会社,,合同会社,東京都,港区,高輪４丁目８番１１－６０１号,,13,103,1080074,,,,,,,2025-11-13,1,,,,,レトル,0
34,1010503008075,新規,0,2025-11-13,2025-11-13,合同会社ＷＲＳ,,合同会社,東京都,台東区,上野１丁目１７番６号広小路ビル８Ｆ－Ｂ,,13,106,1100005,,,,,,,2025-11-13,1,,,,,ダブリューアールエス,0
35,1010601068269,新規,0,2025-11-13,2025-11-13,株式会社ザ・ノエル,,株式会社,東京都,江東区,豊洲６丁目２番２９－２１１１号,,13,108,1350061,,,,,,,2025-11-13,1,,,,,ザノエル,0
37,1010701048591,新規,0,2025-11-13,2025-11-13,株式会社ＡＩＭＳ,,株式会社,東京都,品川区,東品川２丁目２番４３号,,13,109,1400002,,,,,,,2025-11-13,1,,,,,エイムス,0
43,1011001173106,新規,0,2025-11-13,2025-11-13,株式会社Ｔｅｃｈ　Ｋｎｉｇｈｔ,,株式会社,東京都,渋谷区,神南１丁目１１－４ＦＰＧリンクス神南５階,,13,113,1500041,,,,,,,2025-11-13,1,,,,,テックナイト,0
44,1011001173543,新規,0,2025-11-13,2025-11-13,株式会社Ｒｉｓｋｒａｃｋ,,株式会社,東京都,渋谷区,神山町１番２号,,13,113,1500047,,,,,,,2025-11-13,1,,,,,リスクラック,0
49,1011103016682,新規,0,2025-11-13,2025-11-13,もしクロカレー合同会社,,合同会社,東京都,新宿区,河田町３番５３－４０３号,,13,104,1620054,,,,,,,2025-11-13,1,,,,,モシクロカレー,0
57,1011601029161,新規,0,2025-11-13,2025-11-13,株式会社モリモト,,株式会社,東京都,練馬区,石神井台２丁目１７番１３号,,13,120,1770045,,,,,,,2025-11-13,1,,,,,モリモト,0
60,1011701028930,新規,0,2025-11-13,2025-11-13,株式会社オフィスノーススター,,株式会社,東京都,江戸川区,東瑞江２丁目９番５号２階,,13,123,1320014,,,,,,,2025-11-13,1,,,,,オフィスノーススター,0
61,1012301014593,新規,0,2025-11-13,2025-11-13,株式会社浦誠,,株式会社,東京都,町田市,相原町４８０番地１３１,,13,209,1940211,,,,,,,2025-11-13,1,,,,,ウラセイ,0
62,1012401043807,新規,0,2025-11-13,2025-11-13,株式会社レンジＥ設計,,株式会社,東京都,武蔵野市,境南町２丁目１０番２３号ルミナス武蔵野７０１,,13,203,1800023,,,,,,,2025-11-13,1,,,,,レンジイーセッケイ,0
63,1012401043815,新規,0,2025-11-13,2025-11-13,株式会社ｍｉｉ　ｕｐ,,株式会社,東京都,府中市,美好町３丁目３２番地の１９,,13,206,1830045,,,,,,,2025-11-13,1,,,,,ミーアップ,0
66,1012701019176,新規,0,2025-11-13,2025-11-13,株式会社わせだーにゃ,,株式会社,東京都,東久留米市,東本町８－１４、４Ｆ,,13,222,2030014,,,,,,,2025-11-13,1,,,,,ワセダーニャ,0
67,1012701019184,新規,0,2025-11-13,2025-11-13,ＧＴマネジメント株式会社,,株式会社,東京都,東久留米市,本町４丁目７番３１号,,13,222,2030053,,,,,,,2025-11-13,1,,,,,,0
71,1013301055297,新規,0,2025-11-13,2025-11-13,株式会社エースリーワン,,株式会社,東京都,豊島区,東池袋２丁目６２番８号ＢＩＧオフィスプラザ池袋１２０６,,13,116,1700013,,,,,,,2025-11-13,1,,,,,エースリーワン,0
75,1020001165491,新規,0,2025-11-13,2025-11-13,ウェンネット株式会社,,株式会社,神奈川県,横浜市都筑区,東山田３丁目１５番１号,,14,118,2240023,,,,,,,2025-11-13,1,,,,,ウェンネット,0
76,1020001165748,新規,0,2025-11-13,2025-11-13,佐藤商会株式会社,,株式会社,神奈川県,横浜市中区,本牧原３６番１号,,14,104,2310821,,,,,,,2025-11-13,1,,,,,サトウショウカイ,0
88,1021001086744,新規,0,2025-11-13,2025-11-13,株式会社ＩＣＨＩ,,株式会社,神奈川県,足柄上郡中井町,北田３４３番地,,14,361,2590143,,,,,,,2025-11-13,1,,,,,,0
89,1021001086752,新規,0,2025-11-13,2025-11-13,株式会社つなぐ,,株式会社,神奈川県,海老名市,上今泉６丁目４７番４３号,,14,215,2430431,,,,,,,2025-11-13,1,,,,,ツナグ,0
90,1021001086769,新規,0,2025-11-13,2025-11-13,株式会社ＢＯＬＤＩＸ,,株式会社,神奈川県,相模原市南区,上鶴間本町５丁目１８番１５号エクラシエ１０３,,14,153,2520318,,,,,,,2025-11-13,1,,,,,ボルディックス,0
94,1030001169649,新規,0,2025-11-13,2025-11-13,Ｃｏｒｄｉａｌ　ＩＰ株式会社,,株式会社,埼玉県,さいたま市浦和区,領家６丁目１０番３－３号,,11,107,3300072,,,,,,,2025-11-13,1,,,,,コーディアルアイピー,0
95,1030001169657,新規,0,2025-11-13,2025-11-13,オーケーリース株式会社,,株式会社,埼玉県,上尾市,仲町２丁目１１番８号,,11,219,3620035,,,,,,,2025-11-13,1,,,,,オーケーリース,0
96,1030001169665,新規,0,2025-11-13,2025-11-13,株式会社ＴＵＩＮ,,株式会社,埼玉県,所沢市,くすのき台１丁目１０番７号（３階）,,11,208,3590037,,,,,,,2025-11-13,1,,,,,トイン,0
100,1030003027870,新規,0,2025-11-13,2025-11-13,合同会社リバーフィールド,,合同会社,埼玉県,飯能市,大字川寺４９番地２２号,,11,209,3570044,,,,,,,2025-11-13,1,,,,,リバーフィールド,0
108,1040001141276,新規,0,2025-11-13,2025-11-13,エトエ・ジャパン株式会社,,株式会社,千葉県,市川市,南八幡２丁目８番１１号,,12,203,2720023,,,,,,,2025-11-13,1,,,,,エトエジャパン,0
109,1040001141292,新規,0,2025-11-13,2025-11-13,株式会社ＭＡＮＯＳ,,株式会社,千葉県,市原市,姉崎１７１３番地の１,,12,219,2990111,,,,,,,2025-11-13,1,,,,,マノス,0
116,1050001057554,新規,0,2025-11-13,2025-11-13,株式会社高松ファーム,,株式会社,茨城県,下妻市,大木１８２５番地３,,08,210,3040004,,,,,,,2025-11-13,1,,,,,タカマツファーム,0
117,1050003009743,新規,0,2025-11-13,2025-11-13,ＡＬ　ＢＡＩＳ　ＴＲＡＤＩＮＧ合同会社,,合同会社,茨城県,筑西市,藤ケ谷２０９１番地ロマ１０号,,08,227,3080112,,,,,,,2025-11-13,1,,,,,アルバイストレーディング,0
118,1060001038768,新規,0,2025-11-13,2025-11-13,宇南山工業株式会社,,株式会社,栃木県,真岡市,亀山８０番地１４,,09,209,3214363,,,,,,,2025-11-13,1,,,,,ウナヤマコウギョウ,0
130,1100001039118,新規,0,2025-11-13,2025-11-13,株式会社ＲＦＡＣＴ,,株式会社,長野県,安曇野市,堀金烏川４６９３番地,,20,220,3998211,,,,,,,2025-11-13,1,,,,,アールファクト,0
148,1120001281907,新規,0,2025-11-13,2025-11-13,テックエッジ株式会社,,株式会社,大阪府,大阪市淀川区,十三本町１丁目１８－７クリオプラザ十三パート２－３０２,,27,123,5320024,,,,,,,2025-11-13,1,,,,,テックエッジ,0
149,1120001281923,新規,0,2025-11-13,2025-11-13,ＷＯＯＴＺＣＲＡＦＴ株式会社,,株式会社,大阪府,大阪市東成区,中本１丁目５番９－３０１号,,27,115,5370022,,,,,,,2025-11-13,1,,,,,ウーツクラフト,0
150,1120001281964,新規,0,2025-11-13,2025-11-13,ＲＥＮＡＶＩＡ株式会社,,株式会社,大阪府,大阪市中央区,瓦町４丁目３番２号,,27,128,5410048,,,,,,,2025-11-13,1,,,,,レナヴィア,0
151,1120001281980,新規,0,2025-11-13,2025-11-13,株式会社Ｌｉｎｋ,,株式会社,大阪府,大阪市西成区,玉出西１丁目１６番２号ＴａｍａｄｅｎｉｓｈｉＰａｒｋＶｉｅｕｎｏ３０１号,,27,122,5570045,,,,,,,2025-11-13,1,,,,,リンク,0
156,1120005025244,新規,0,2025-11-13,2025-11-13,監査法人匠,,その他の設立登記法人,大阪府,大阪市中央区,常盤町１丁目４－９－２０４号,,27,128,5400028,,,,,,,2025-11-13,1,,,,,タクミ,0
157,1120101072784,新規,0,2025-11-13,2025-11-13,株式会社ＳＯＦＲＲＡ,,株式会社,大阪府,堺市堺区,旭ヶ丘北町３丁１番１６号,,27,141,5900809,,,,,,,2025-11-13,1,,,,,ソフラ,0
158,1120101072792,新規,0,2025-11-13,2025-11-13,デムボックス株式会社,,株式会社,大阪府,羽曳野市,羽曳が丘西２丁目２－１７,,27,222,5830865,,,,,,,2025-11-13,1,,,,,デムボックス,0
165,1122001039863,新規,0,2025-11-13,2025-11-13,株式会社すけっと,,株式会社,大阪府,東大阪市,長田中５丁目４番２７号,,27,227,5770013,,,,,,,2025-11-13,1,,,,,スケット,0
167,1130001080977,新規,0,2025-11-13,2025-11-13,株式会社稲荷駿河屋,,株式会社,京都府,京都市伏見区,深草一ノ坪町１３番地１６,,26,109,6120012,,,,,,,2025-11-13,1,,,,,イナリスルガヤ,0
168,1130001081026,新規,0,2025-11-13,2025-11-13,大一建設株式会社,,株式会社,京都府,城陽市,寺田樋尻４４番地６寺田駅前ビル３０３,00141513,26,207,6100121,,,,,,,2025-11-13,1,,,,,ダイイチケンセツ,0
176,1140001140697,新規,0,2025-11-13,2025-11-13,株式会社大野電気,,株式会社,兵庫県,神戸市兵庫区,笠松通７丁目３番４号,,28,105,6520864,,,,,,,2025-11-13,1,,,,,オオノデンキ,0
177,1140001140730,新規,0,2025-11-13,2025-11-13,株式会社グローバルセーフ,,株式会社,兵庫県,神戸市西区,竜が岡４丁目１３番地の１３レリッシュコート３０５号,,28,111,6512412,,,,,,,2025-11-13,1,,,,,グローバルセーフ,0
186,1140003022836,新規,0,2025-11-13,2025-11-13,瀧口グローバル貿易合同会社,,合同会社,兵庫県,西宮市,甲子園町２４番６－１０３号,,28,204,6638152,,,,,,,2025-11-13,1,,,,,タキグチグローバルボウエキ,0
188,1150001028553,新規,0,2025-11-13,2025-11-13,株式会社弥栄建設,,株式会社,奈良県,奈良市,佐紀町２８２４番地の１,,29,201,6308003,,,,,,,2025-11-13,1,,,,,イヤサカケンセツ,0
189,1150003003744,新規,0,2025-11-13,2025-11-13,合同会社ハートソーレ,,合同会社,奈良県,奈良市,疋田町２丁目７－４５,,29,201,6310843,,,,,,,2025-11-13,1,,,,,ハートソーレ,0
193,1180001169510,新規,0,2025-11-13,2025-11-13,ＡＡ不動産株式会社,,株式会社,愛知県,常滑市,青海町３丁目１５番地,,23,216,4790004,,,,,,,2025-11-13,1,,,,,エーシーズフドウサン,0
196,1180003029349,新規,0,2025-11-13,2025-11-13,ＢＬＯＯＭ合同会社,,合同会社,愛知県,名古屋市中村区,京田町３丁目４９番地の４,,23,105,4530816,,,,,,,2025-11-13,1,,,,,ブルーム,0
197,1180003029365,新規,0,2025-11-13,2025-11-13,ＬＵＣＫＹ　ＬＩＦＥ合同会社,,合同会社,愛知県,一宮市,丹陽町九日市場字地子７８６－１ビアン１０３,,23,203,4910824,,,,,,,2025-11-13,1,,,,,ラッキーライフ,0
198,1180005021312,新規,0,2025-11-13,2025-11-13,医療法人そら,,その他の設立登記法人,愛知県,名古屋市緑区,鳴海町字有松裏２００番地イオンタウン有松１階,,23,114,4580824,,,,,,,2025-11-13,1,,,,,ソラ,0
200,1180301040412,新規,0,2025-11-13,2025-11-13,Ｋ．Ｉ　ＮＥＸＴ株式会社,,株式会社,愛知県,岡崎市,明大寺本町４丁目３５番地,,23,202,4440860,,,,,,,2025-11-13,1,,,,,ケーアイネクスト,0
201,1180301040429,新規,0,2025-11-13,2025-11-13,株式会社ＢｏｎＤ,,株式会社,愛知県,岡崎市,米河内町字開元８番地２,,23,202,4443167,,,,,,,2025-11-13,1,,,,,,0
202,1180303006808,新規,0,2025-11-13,2025-11-13,神谷アセットマネジメント合同会社,,合同会社,愛知県,高浜市,呉竹町６丁目５番地１,,23,227,4441336,,,,,,,2025-11-13,1,,,,,,0
203,1190001032691,新規,0,2025-11-13,2025-11-13,株式会社Ａｘｉｓ　ｏｆ　Ａｓｉａ,,株式会社,三重県,四日市市,西新地１４番１号太平洋四日市ビル５Ｆ－Ｃ,,24,202,5100087,,,,,,,2025-11-13,1,,,,,アクシスオブアジア,0
204,1190003005266,新規,0,2025-11-13,2025-11-13,合同会社Ａｎｓｗｅｒ,,合同会社,三重県,四日市市,本郷町１８番２‐５号カルチェ・ブランＢ－１０２,,24,202,5100806,,,,,,,2025-11-13,1,,,,,アンサー,0
207,1240001065769,新規,0,2025-11-13,2025-11-13,株式会社ロンサール管理,,株式会社,広島県,広島市東区,光町２丁目１４番７号,,34,102,7320052,,,,,,,2025-11-13,1,,,,,ロンサールカンリ,0
208,1240001065785,新規,0,2025-11-13,2025-11-13,ドヒハウス建物管理株式会社,,株式会社,広島県,呉市,本町３番１９号,,34,202,7370032,,,,,,,2025-11-13,1,,,,,ドヒハウスタテモノカンリ,0
215,1260001040729,新規,0,2025-11-13,2025-11-13,株式会社梅鉢紋,,株式会社,岡山県,赤磐市,桜が丘西８丁目１７番７号,,33,213,7090802,,,,,,,2025-11-13,1,,,,,ウメバチモン,0
222,1290001112104,新規,0,2025-11-13,2025-11-13,株式会社ヨシダシステムズ,,株式会社,福岡県,筑紫野市,紫５丁目３番１０号,,40,217,8180061,,,,,,,2025-11-13,1,,,,,ヨシダシステムズ,0
225,1290801032022,新規,0,2025-11-13,2025-11-13,庭建株式会社,,株式会社,福岡県,田川市,大字猪国２９５０番地,,40,206,8260045,,,,,,,2025-11-13,1,,,,,テイケン,0
226,1290801032030,新規,0,2025-11-13,2025-11-13,北九州明心語学学院株式会社,,株式会社,福岡県,北九州市小倉北区,砂津３丁目１番４３号第５アイスビル２階,,40,106,8020014,,,,,,,2025-11-13,1,,,,,キタキュウシュウメイシンゴガクガクイン,0
227,1290805009875,新規,0,2025-11-13,2025-11-13,ＮＰＯ法人アンズブリッジ,,その他の設立登記法人,福岡県,行橋市,宮市町９番１号,,40,213,8240008,,,,,,,2025-11-13,1,,,,,アンズブリッジ,0
230,1330001033741,新規,0,2025-11-13,2025-11-13,ノマド・エナジー株式会社,,株式会社,熊本県,熊本市中央区,春竹町大字春竹４８６番地１,,43,101,8600815,,,,,,,2025-11-13,1,,,,,ノマドエナジー,0
235,1360003015388,新規,0,2025-11-13,2025-11-13,合同会社まる,,合同会社,沖縄県,うるま市,字兼箇段１０６５番地１,,47,213,9042241,,,,,,,2025-11-13,1,,,,,マル,0
242,1400003003561,新規,0,2025-11-13,2025-11-13,合同会社ホーム,,合同会社,岩手県,八幡平市,松尾寄木第２９地割８６番地１,,03,214,0287302,,,,,,,2025-11-13,1,,,,,ホーム,0
248,1430003018318,新規,0,2025-11-13,2025-11-13,合同会社ｓｅｎａ,,合同会社,北海道,札幌市清田区,清田九条３丁目６番２０号,,01,110,0040849,,,,,,,2025-11-13,1,,,,,セナ,0
249,1440003001727,新規,0,2025-11-13,2025-11-13,ＥＦＦＯＲＴ合同会社,,合同会社,北海道,函館市,亀田港町２１番１２号,,01,202,0410822,,,,,,,2025-11-13,1,,,,,エフォート,0
252,1460101007780,新規,0,2025-11-13,2025-11-13,Ｖｅｒｍｉｓ株式会社,,株式会社,北海道,河西郡更別村,字上更別南十三線９４番地３,,01,639,0891500,,,,,,,2025-11-13,1,,,,,ウェルミス,0
265,2010001260235,新規,0,2025-11-13,2025-11-13,ＩＴＯＦＭ株式会社,,株式会社,東京都,中央区,日本橋室町１丁目１１番１２号日本橋水野ビル７階,,13,102,1030022,,,,,,,2025-11-13,1,,,,,イトーエフエム,0
266,2010001260251,新規,0,2025-11-13,2025-11-13,ガーランド株式会社,,株式会社,東京都,千代田区,神田和泉町１番地６－１６ヤマトビル４０５,,13,101,1010024,,,,,,,2025-11-13,1,,,,,ガーランド,0
267,2010001260301,新規,0,2025-11-13,2025-11-13,ＵＣ　ＡｎｉｍａｌＣａｒｅ　Ｐａｒｔｎｅｒｓ２株式会社,,株式会社,東京都,千代田区,紀尾井町４番１号,,13,101,1020094,,,,,,,2025-11-13,1,,,,,ユーシーアニマルケアパートナーズツー,0
269,2010003049404,新規,0,2025-11-13,2025-11-13,ＤＧＦ１号合同会社,,合同会社,東京都,中央区,日本橋１丁目４番１号日本橋一丁目ビルディング,,13,102,1030027,,,,,,,2025-11-13,1,,,,,ディージーエフイチゴウ,0
270,2010003049420,新規,0,2025-11-13,2025-11-13,ノヴァ合同会社,,合同会社,東京都,千代田区,丸の内１丁目４番１号東京共同会計事務所内,,13,101,1000005,,,,,,,2025-11-13,1,,,,,ノヴァ,0
273,2010101016958,新規,0,2025-11-13,2025-11-13,耐爾特株式会社,,株式会社,東京都,八王子市,寺町４３－９中銀八王子マンシオン２０２号室,,13,201,1920073,,,,,,,2025-11-13,1,,,,,タイジトク,0
282,2010401194388,新規,0,2025-11-13,2025-11-13,株式会社ＨＥＮＳＨＵ,,株式会社,東京都,港区,北青山１丁目３－３三橋ビル３階,,13,103,1070061,,,,,,,2025-11-13,1,,,,,ヘンシュウ,0
285,2010403036497,新規,0,2025-11-13,2025-11-13,合同会社ＰｏｌｉＷｏｒｋｓ,,合同会社,東京都,港区,北青山１丁目３番１号,,13,103,1070061,,,,,,,2025-11-13,1,,,,,,0
287,2010405025028,新規,0,2025-11-13,2025-11-13,一般社団法人ＷＳ５,,その他の設立登記法人,東京都,港区,元赤坂１丁目１番７号,,13,103,1070051,,,,,,,2025-11-13,1,,,,,ダブリュエスファイブ,0
289,2010501054995,新規,0,2025-11-13,2025-11-13,株式会社イノバクト,,株式会社,東京都,台東区,寿３丁目１５番１８－６０１号,,13,106,1110042,,,,,,,2025-11-13,1,,,,,イノバクト,0
293,2010901058448,新規,0,2025-11-13,2025-11-13,株式会社トリップバース,,株式会社,東京都,世田谷区,太子堂２丁目１７番５号佐藤ビル３階,,13,112,1540004,,,,,,,2025-11-13,1,,,,,トリップバース,0
299,2011001173311,新規,0,2025-11-13,2025-11-13,Ｎｅｋｏ　Ｄｉｓｔｒｉｂｕｔｉｏｎ株式会社,,株式会社,東京都,渋谷区,渋谷２丁目７番１４号ＶＯＲＴ・ＡＯＹＡＭＡ４０３,,13,113,1500002,,,,,,,2025-11-13,1,,,,,ネコディストリビューション,0
300,2011001173773,新規,0,2025-11-13,2025-11-13,株式会社ＨＡＬＦＬＩＧＨＴ,,株式会社,東京都,渋谷区,道玄坂１丁目１０番８号渋谷道玄坂東急ビル２Ｆ－Ｃ,,13,113,1500043,,,,,,,2025-11-13,1,,,,,ハーフライト,0
306,2011003022813,新規,0,2025-11-13,2025-11-13,Ｃｒｅａｍ．Ｌｔｄ合同会社,,合同会社,東京都,渋谷区,東１丁目２９番３号渋谷ブリッジＢ棟,,13,113,1500011,,,,,,,2025-11-13,1,,,,,クリームリミテッド,0
307,2011003022879,新規,0,2025-11-13,2025-11-13,桑野弐合同会社,,合同会社,東京都,目黒区,中目黒３丁目６－１９パークハウス中目黒１１０,,13,110,1530061,,,,,,,2025-11-13,1,,,,,クワノニ,0
308,2011003022887,新規,0,2025-11-13,2025-11-13,ｍｅｎｍｏｋ合同会社,,合同会社,東京都,渋谷区,道玄坂１丁目１０番８号渋谷道玄坂東急ビル２Ｆ－Ｃ,,13,113,1500043,,,,,,,2025-11-13,1,,,,,メンモク,0
312,2011101113852,新規,0,2025-11-13,2025-11-13,株式会社ＫＴＡＳ,,株式会社,東京都,新宿区,西新宿３丁目３番１３号西新宿水間ビル２Ｆ,,13,104,1600023,,,,,,,2025-11-13,1,,,,,ケイタス,0
313,2011101113902,新規,0,2025-11-13,2025-11-13,株式会社ラボップ,,株式会社,東京都,新宿区,西新宿３丁目２番９号新宿ワシントンホテルビル本館２Ｆ,,13,104,1600023,,,,,,,2025-11-13,1,,,,,ラボップ,0
314,2011103016681,新規,0,2025-11-13,2025-11-13,合同会社セイヤ資産管理,,合同会社,東京都,新宿区,西新宿３丁目３番１３号西新宿水間ビル２Ｆ,,13,104,1600023,,,,,,,2025-11-13,1,,,,,セイヤシサンカンリ,0
317,2011301031037,新規,0,2025-11-13,2025-11-13,株式会社エムシャープ,,株式会社,東京都,杉並区,高井戸東３丁目１－６,,13,115,1680072,,,,,,,2025-11-13,1,,,,,エムシャープ,0
325,2011701028921,新規,0,2025-11-13,2025-11-13,ＥｃｈｏＦｌｕｘ株式会社,,株式会社,東京都,江戸川区,小松川４丁目７５－２桐マンション３０１,,13,123,1320034,,,,,,,2025-11-13,1,,,,,エコフラックス,0
327,2011803007187,新規,0,2025-11-13,2025-11-13,合同会社リリス,,合同会社,東京都,足立区,南花畑２丁目２０番１３号ＶＩＶＡＮＴＦＯＲＥＴ２０５,,13,121,1210062,,,,,,,2025-11-13,1,,,,,リリス,0
331,2012403007461,新規,0,2025-11-13,2025-11-13,Ｎｉｐｐｏｎ　Ｎｅｘｕｓ合同会社,,合同会社,東京都,調布市,小島町２丁目１０－２７,,13,208,1820026,,,,,,,2025-11-13,1,,,,,ニッポンネクサス,0
338,2013301055296,新規,0,2025-11-13,2025-11-13,株式会社ＡＣＴ,,株式会社,東京都,豊島区,東池袋２丁目６２番８号ＢＩＧオフィスプラザ池袋１２０６,,13,116,1700013,,,,,,,2025-11-13,1,,,,,アクト,0
344,2020001165722,新規,0,2025-11-13,2025-11-13,一光工業株式会社,,株式会社,神奈川県,川崎市川崎区,大島上町１８番２号三栄第三ビル２０２号,,14,131,2100836,,,,,,,2025-11-13,1,,,,,イチコウコウギョウ,0
345,2020001165763,新規,0,2025-11-13,2025-11-13,株式会社Ｆｌｅｘｉｃａｒｅ　Ｊａｐａｎ,,株式会社,神奈川県,横浜市西区,北幸１丁目１１番１号,,14,103,2200004,,,,,,,2025-11-13,1,,,,,フレキシケアジャパン,0
346,2020001165771,新規,0,2025-11-13,2025-11-13,徳慧株式会社,,株式会社,神奈川県,横浜市中区,石川町１丁目９Ｙ２ビル１階,,14,104,2310868,,,,,,,2025-11-13,1,,,,,トクエ,0
347,2020001165796,新規,0,2025-11-13,2025-11-13,株式会社鶴,,株式会社,神奈川県,横浜市金沢区,釜利谷東２丁目１０番６号４０３号室,,14,108,2360042,,,,,,,2025-11-13,1,,,,,ツル,0
350,2020003029768,新規,0,2025-11-13,2025-11-13,合同会社Ｅｄｕ‐Ｓｃｒｕｍ,,合同会社,神奈川県,横浜市鶴見区,矢向３丁目２２－３０－２,,14,101,2300001,,,,,,,2025-11-13,1,,,,,エデュースクラム,0
352,2021001007724,新規,0,2025-11-13,2025-11-13,株式会社林歯科商店,,株式会社,神奈川県,茅ヶ崎市,浜須賀７番４１号,,14,207,2530035,,,,,,,2025-11-13,1,,,,,ハヤシシカショウテン,0
355,2021001086751,新規,0,2025-11-13,2025-11-13,株式会社ＪＵＮＯＶＡＴＥ,,株式会社,神奈川県,相模原市南区,御園５丁目１４番４６－３号,,14,153,2520317,,,,,,,2025-11-13,1,,,,,ジュノベート,0
367,2030001169549,新規,0,2025-11-13,2025-11-13,株式会社アプティス・サイエンス,,株式会社,埼玉県,飯能市,大字川寺６４１番地１２２,,11,209,3570044,,,,,,,2025-11-13,1,,,,,アプティスサイエンス,0
368,2030001169581,新規,0,2025-11-13,2025-11-13,株式会社オルヴェックス,,株式会社,埼玉県,蕨市,北町１丁目２４番１９号,,11,223,3350001,,,,,,,2025-11-13,1,,,,,オルヴェックス,0
369,2030001169680,新規,0,2025-11-13,2025-11-13,株式会社テイク．ＭＯｔｏｒ’ｓ,,株式会社,埼玉県,さいたま市緑区,大字三室２６０７番地２４,,11,109,3360911,,,,,,,2025-11-13,1,,,,,テイクモータース,0
377,2040001141259,新規,0,2025-11-13,2025-11-13,株式会社オスマン,,株式会社,千葉県,松戸市,松戸新田２７０番地１６，２０１,,12,207,2702241,,,,,,,2025-11-13,1,,,,,オスマン,0
378,2040001141374,新規,0,2025-11-13,2025-11-13,ライスアンドポウ株式会社,,株式会社,千葉県,船橋市,湊町１丁目２番３号,,12,204,2730011,,,,,,,2025-11-13,1,,,,,ライスアンドポウ,0
383,2050003009759,新規,0,2025-11-13,2025-11-13,翔希建設合同会社,,合同会社,茨城県,つくば市,梅園２丁目１番地１５スプリングテックつくばビル４０１,,08,220,3050045,,,,,,,2025-11-13,1,,,,,ショウキケンセツ,0
388,2070001043551,新規,0,2025-11-13,2025-11-13,株式会社Ｎ‐ＰＣ倶楽部,,株式会社,群馬県,伊勢崎市,連取町３０６２番地１２,,10,204,3720812,,,,,,,2025-11-13,1,,,,,,0
390,2070003006184,新規,0,2025-11-13,2025-11-13,合同会社ｍｉｍｏｓａ,,合同会社,群馬県,高崎市,和田多中町４０２番地２,,10,202,3700844,,,,,,,2025-11-13,1,,,,,,0
392,2080001027272,新規,0,2025-11-13,2025-11-13,共同ホールディングス株式会社,,株式会社,静岡県,島田市,阪本４２９３番地,,22,209,4270111,,,,,,,2025-11-13,1,,,,,キョウドウホールディングス,0
396,2100003008474,新規,0,2025-11-13,2025-11-13,ＡＳ企画合同会社,,合同会社,長野県,北佐久郡軽井沢町,大字発地字八幡畑２１９番地４０,,20,321,3890113,,,,,,,2025-11-13,1,,,,,エーエスキカク,0
400,2110003005966,新規,0,2025-11-13,2025-11-13,合同会社Ｌｏｃａｌ　Ｓｅｓｓｉｏｎ,,合同会社,新潟県,南魚沼市,美佐島１７番地７,,15,226,9496608,,,,,,,2025-11-13,1,,,,,ローカルセッション,0
410,2120001281939,新規,0,2025-11-13,2025-11-13,株式会社ごえもん,,株式会社,大阪府,大阪市浪速区,日本橋東２丁目９番１６号オリエンタル日本橋２０５号,,27,111,5560006,,,,,,,2025-11-13,1,,,,,ゴエモン,0
411,2120001281947,新規,0,2025-11-13,2025-11-13,株式会社ｓｏＬｕｎａ,,株式会社,大阪府,大阪市東淀川区,下新庄３丁目９番５－１３０７号,,27,114,5330021,,,,,,,2025-11-13,1,,,,,ソルナ,0
412,2120001281955,新規,0,2025-11-13,2025-11-13,株式会社ｉｒｏｒｉ不動産,,株式会社,大阪府,大阪市西区,京町堀３丁目３番７号,,27,106,5500003,,,,,,,2025-11-13,1,,,,,イロリフドウサン,0
413,2120001281988,新規,0,2025-11-13,2025-11-13,株式会社一歩,,株式会社,大阪府,大阪市西淀川区,柏里３丁目１１番３号,,27,113,5550022,,,,,,,2025-11-13,1,,,,,イッポ,0
418,2120003031128,新規,0,2025-11-13,2025-11-13,ｄｏｋｕｇａｋｕ　ｌｉｎｋ合同会社,,合同会社,大阪府,大阪市北区,梅田１丁目１‐３大阪駅前第３ビル２９階１‐１‐１号室,,27,127,5300001,,,,,,,2025-11-13,1,,,,,ドクガクリンク,0
419,2120003031243,新規,0,2025-11-13,2025-11-13,合同会社メディファイヘルスケア,,合同会社,大阪府,大阪市浪速区,戎本町１丁目８－１７－１５０６,,27,111,5560013,,,,,,,2025-11-13,1,,,,,メディファイヘルスケア,0
420,2120101072775,新規,0,2025-11-13,2025-11-13,株式会社ケーエスト,,株式会社,大阪府,松原市,天美我堂３丁目２７４番地の４,,27,217,5800026,,,,,,,2025-11-13,1,,,,,ケーエスト,0
422,2120901051813,新規,0,2025-11-13,2025-11-13,株式会社ＭＳＫ,,株式会社,大阪府,豊中市,庄内栄町１丁目７番１８－２０１号,,27,203,5610834,,,,,,,2025-11-13,1,,,,,エムエスケイ,0
427,2122001039870,新規,0,2025-11-13,2025-11-13,ＲＶＶｉｌｌａｇｅ株式会社,,株式会社,大阪府,四條畷市,中野３丁目３－１３,,27,229,5750052,,,,,,,2025-11-13,1,,,,,アールブイヴィレッジ,0
438,2130001081017,新規,0,2025-11-13,2025-11-13,ＡｔｓＣｏｍｐａｎｙ株式会社,,株式会社,京都府,京都市西京区,大原野西境谷町２丁目１４番地５,,26,111,6101146,,,,,,,2025-11-13,1,,,,,エーティーエスカンパニー,0
439,2130001081025,新規,0,2025-11-13,2025-11-13,株式会社セミック,,株式会社,京都府,京都市右京区,山ノ内養老町５番地１山ノ内パーク・ホームズ２０３号室,,26,108,6150081,,,,,,,2025-11-13,1,,,,,セミック,0
440,2130001081041,新規,0,2025-11-13,2025-11-13,株式会社Ｂ．Ｂリフォーム,,株式会社,京都府,乙訓郡大山崎町,字下植野小字宮脇１番地２６,,26,303,6180081,,,,,,,2025-11-13,1,,,,,ビービーリフォーム,0
442,2130003010923,新規,0,2025-11-13,2025-11-13,合同会社ユーロスター,,合同会社,京都府,京都市南区,東九条南山王町２６番地１,,26,107,6018011,,,,,,,2025-11-13,1,,,,,ユーロスター,0
446,2140001140721,新規,0,2025-11-13,2025-11-13,ＫＡＩＯ　ＴＲＡＤＩＮＧ株式会社,,株式会社,兵庫県,加東市,山国字中尾２０１９－４２８,,28,228,6731421,,,,,,,2025-11-13,1,,,,,カイオートレーディング,0
447,2150003003743,新規,0,2025-11-13,2025-11-13,稀有ストーリーラボ合同会社,,合同会社,奈良県,大和高田市,南本町７番２－４０３号ヴィンテージハウス大和高田,,29,202,6350086,,,,,,,2025-11-13,1,,,,,ケウストーリーラボ,0
448,2150005009739,新規,0,2025-11-13,2025-11-13,一般社団法人Ｌｏｖｅ　ｆｏｒ　Ｍｏｔｈｅｒｓ,,その他の設立登記法人,奈良県,高市郡明日香村,大字岡１１９４番地,,29,402,6340111,,,,,,,2025-11-13,1,,,,,ラブフォーマザーズ,0
450,2160001027215,新規,0,2025-11-13,2025-11-13,株式会社ＦＰマネジメント,,株式会社,滋賀県,守山市,水保町１２５５番地３０６,,25,207,5240102,,,,,,,2025-11-13,1,,,,,エフピーマネジメント,0
451,2160001027223,新規,0,2025-11-13,2025-11-13,ＴＯＨ株式会社,,株式会社,滋賀県,大津市,南郷４丁目１番２０号,,25,201,5200865,,,,,,,2025-11-13,1,,,,,トウ,0
456,2180001169410,新規,0,2025-11-13,2025-11-13,株式会社信和製作所,,株式会社,愛知県,半田市,岩滑中町３丁目５０番地,,23,205,4750961,,,,,,,2025-11-13,1,,,,,シンワセイサクショ,0
457,2180001169419,新規,0,2025-11-13,2025-11-13,ジェイ・チーム株式会社,,株式会社,愛知県,名古屋市中村区,名駅３丁目４‐１０アルティメイト名駅１ｓｔ２階,,23,105,4500002,,,,,,,2025-11-13,1,,,,,ジェイチーム,0
465,2180301040411,新規,0,2025-11-13,2025-11-13,株式会社０,,株式会社,愛知県,豊田市,室町１丁目１番地１０,,23,211,4710818,,,,,,,2025-11-13,1,,,,,ゼロ,0
468,2190001032690,新規,0,2025-11-13,2025-11-13,株式会社ＳＨ＆Ｅ,,株式会社,三重県,四日市市,中部１２番１２号中部マンション８０４号,,24,202,5100082,,,,,,,2025-11-13,1,,,,,エスエイチアンドイー,0
475,2200005013818,新規,0,2025-11-13,2025-11-13,一般社団法人ほあかりの森,,その他の設立登記法人,岐阜県,恵那市,明智町１５５１番地７２,,21,210,5097731,,,,,,,2025-11-13,1,,,,,ホアカリノモリ,0
481,2230001021177,新規,0,2025-11-13,2025-11-13,Ｐｌａｎ株式会社,,株式会社,富山県,富山市,秋吉新町８番１９号,,16,201,9300954,,,,,,,2025-11-13,1,,,,,プラン,0
489,2250001021423,新規,0,2025-11-13,2025-11-13,株式会社にしきファーム,,株式会社,山口県,岩国市,入野２６８番地,,35,208,7400321,,,,,,,2025-11-13,1,,,,,ニシキファーム,0
492,2260001040728,新規,0,2025-11-13,2025-11-13,雄島海運株式会社,,株式会社,岡山県,備前市,日生町寒河２２３６番地３３,,33,211,7013202,,,,,,,2025-11-13,1,,,,,オジマカイウン,0
494,2280003002006,新規,0,2025-11-13,2025-11-13,合同会社トレノ,,合同会社,島根県,大田市,久手町波根西２２２７番地,,32,205,6940051,,,,,,,2025-11-13,1,,,,,トレノ,0
499,2290001112094,新規,0,2025-11-13,2025-11-13,株式会社省エネ住設サービス,,株式会社,福岡県,福岡市東区,唐原４丁目１６番１５号エムビル唐原１階１０６,,40,131,8130001,,,,,,,2025-11-13,1,,,,,ショウエネジュウセツサービス,0
500,2290001112111,新規,0,2025-11-13,2025-11-13,株式会社ＳＹＮＣ,,株式会社,福岡県,福岡市東区,箱崎ふ頭４丁目１番３７号,,40,131,8120051,,,,,,,2025-11-13,1,,,,,シンク,0
504,2290803005207,新規,0,2025-11-13,2025-11-13,合同会社ヒルウッド,,合同会社,福岡県,京都郡みやこ町,豊津１０６７番地１,,40,625,8240121,,,,,,,2025-11-13,1,,,,,ヒルウッド,0
505,2310001019849,新規,0,2025-11-13,2025-11-13,株式会社あじか磯釣センター,,株式会社,長崎県,平戸市,田平町山内免６１３番地２４,,42,207,8594825,,,,,,,2025-11-13,1,,,,,アジカイソツリセンター,0
507,2330001033740,新規,0,2025-11-13,2025-11-13,株式会社ＭＡＲメディカル,,株式会社,熊本県,熊本市東区,沼山津２丁目８番７４号,,43,102,8612102,,,,,,,2025-11-13,1,,,,,エムエーアールメディカル,0
511,2360001036022,新規,0,2025-11-13,2025-11-13,株式会社福エンジニアリング,,株式会社,沖縄県,うるま市,字塩屋２９９番地１,,47,213,9042231,,,,,,,2025-11-13,1,,,,,フクエンジニアリング,0
523,2430001095671,新規,0,2025-11-13,2025-11-13,株式会社エフティ資産管理,,株式会社,北海道,札幌市中央区,宮の森二条１５丁目５番１－５０１号,,01,101,0640952,,,,,,,2025-11-13,1,,,,,エフティシサンカンリ,0
526,2430003018325,新規,0,2025-11-13,2025-11-13,合同会社ＴＯＷ,,合同会社,北海道,千歳市,若草１丁目２４番地の８,,01,224,0660057,,,,,,,2025-11-13,1,,,,,ティーオーダブリュー,0
535,2470001020980,新規,0,2025-11-13,2025-11-13,司興業株式会社,,株式会社,香川県,香川郡直島町,３７５１番地７,,37,364,7613110,,,,,,,2025-11-13,1,,,,,ツカサコウギョウ,0
539,2500001026628,新規,0,2025-11-13,2025-11-13,株式会社Ｂ．Ｂ,,株式会社,愛媛県,西条市,大町１２５１,,38,206,7930030,,,,,,,2025-11-13,1,,,,,ビービー,0
549,3010001260011,新規,0,2025-11-13,2025-11-13,株式会社メイロン,,株式会社,東京都,千代田区,神田和泉町１番地６－１６ヤマトビル４０５,,13,101,1010024,,,,,,,2025-11-13,1,,,,,メイロン,0
550,3010001260291,新規,0,2025-11-13,2025-11-13,株式会社フォリアス,,株式会社,東京都,千代田区,神田神保町２丁目４番地１１,,13,101,1010051,,,,,,,2025-11-13,1,,,,,フォリアス,0
551,3010003049312,新規,0,2025-11-13,2025-11-13,合同会社ＮＹ　Ｍａｒｋｅｔｉｎｇ,,合同会社,東京都,中央区,銀座７丁目１３番６号サガミビル２階,,13,102,1040061,,,,,,,2025-11-13,1,,,,,エヌワイマーケティング,0
552,3010003049394,新規,0,2025-11-13,2025-11-13,合同会社Ｒｏｏｍ７０１,,合同会社,東京都,中央区,銀座１丁目１２－４Ｎ＆ＥＢＬＤ．７階,,13,102,1040061,,,,,,,2025-11-13,1,,,,,ルームナナマルイチ,0
554,3010401194429,新規,0,2025-11-13,2025-11-13,株式会社ゼノスフィア,,株式会社,東京都,港区,浜松町２丁目２番１５号浜松町ダイヤビル２Ｆ,,13,103,1050013,,,,,,,2025-11-13,1,,,,,ゼノスフィア,0
555,3010401194478,新規,0,2025-11-13,2025-11-13,株式会社プライムＩＴラボ,,株式会社,東京都,港区,南青山３丁目１番３６号青山丸竹ビル６Ｆ,,13,103,1070062,,,,,,,2025-11-13,1,,,,,プライムアイティーラボ,0
556,3010403036604,新規,0,2025-11-13,2025-11-13,ＭｅｄＢａｌａｎｃｅ　Ｄｅｓｉｇｎ合同会社,,合同会社,東京都,港区,浜松町２丁目２番１５号浜松町ダイヤビル２Ｆ,,13,103,1050013,,,,,,,2025-11-13,1,,,,,メッドバランスデザイン,0
558,3010501054978,新規,0,2025-11-13,2025-11-13,株式会社シックス・ボックスウッド,,株式会社,東京都,台東区,浅草橋２丁目２２番４－２０４号ＱＵＡＬＩＴＡＳ浅草橋,,13,106,1110053,,,,,,,2025-11-13,1,,,,,シックスボックスウッド,0
559,3010501055027,新規,0,2025-11-13,2025-11-13,ＴＯＴＡＬＧＯＯＤ株式会社,,株式会社,東京都,台東区,台東２丁目７番９号キュービーコート２０２,,13,106,1100016,,,,,,,2025-11-13,1,,,,,トータルグッド,0
560,3010503008081,新規,0,2025-11-13,2025-11-13,合同会社Ｔ‐ｐｒｉｍｅ　ｅｎｄ,,合同会社,東京都,台東区,上野１丁目１７番６号広小路ビル８Ｆ－Ｂ,,13,106,1100005,,,,,,,2025-11-13,1,,,,,ティープライムエンド,0
563,3010603011919,新規,0,2025-11-13,2025-11-13,ディープシー合同会社,,合同会社,東京都,江東区,東雲１丁目９番５０－８０２号,,13,108,1350062,,,,,,,2025-11-13,1,,,,,ディープシー,0
572,3010901058447,新規,0,2025-11-13,2025-11-13,株式会社Ｇ．Ｙ．Ａ　ＪＡＰＡＮ,,株式会社,東京都,世田谷区,岡本２丁目３番２３号,,13,112,1570076,,,,,,,2025-11-13,1,,,,,ジーワイエージャパン,0
573,3010903010414,新規,0,2025-11-13,2025-11-13,合同会社みよし,,合同会社,東京都,世田谷区,奥沢２丁目１番１４号,,13,112,1580083,,,,,,,2025-11-13,1,,,,,ミヨシ,0
580,3011003022837,新規,0,2025-11-13,2025-11-13,ｓｕｉｓｅｉ合同会社,,合同会社,東京都,渋谷区,千駄ヶ谷５丁目１６－５ダブルコート１Ａ号室,,13,113,1510051,,,,,,,2025-11-13,1,,,,,スイセイ,0
581,3011003022853,新規,0,2025-11-13,2025-11-13,ＴＳ２合同会社,,合同会社,東京都,渋谷区,東３丁目１７番１２号,,13,113,1500011,,,,,,,2025-11-13,1,,,,,ティーエスツー,0
586,3011301031044,新規,0,2025-11-13,2025-11-13,株式会社ディーコード,,株式会社,東京都,杉並区,上高井戸１丁目８番２２号きくやビル２０１,,13,115,1680074,,,,,,,2025-11-13,1,,,,,ディーコード,0
588,3011503006777,新規,0,2025-11-13,2025-11-13,合同会社ＤＡＴＥ・Ｋ,,合同会社,東京都,荒川区,南千住６丁目３７番９－２４０２号,,13,118,1160003,,,,,,,2025-11-13,1,,,,,ダテケイ,0
594,3011801047052,新規,0,2025-11-13,2025-11-13,株式会社Ｔｒｕｓｔ‐Ｏｎｅ,,株式会社,東京都,葛飾区,東堀切２丁目２０番２１号スターハイツ１階,,13,122,1240004,,,,,,,2025-11-13,1,,,,,トラストワン,0
596,3012303002231,新規,0,2025-11-13,2025-11-13,リスクエッジ合同会社,,合同会社,東京都,町田市,本町田２５３３公社住宅ハ１２－４０１,,13,209,1940032,,,,,,,2025-11-13,1,,,,,リスクエッジ,0
599,3012403007460,新規,0,2025-11-13,2025-11-13,ＷＮＬ　Ｃｒｅａｔｉｏｎ合同会社,,合同会社,東京都,調布市,仙川町２丁目７番地２２マンション仙川アゼリア１１１３,,13,208,1820002,,,,,,,2025-11-13,1,,,,,ダブリューエヌエルクリエーション,0
616,3020001165556,新規,0,2025-11-13,2025-11-13,オーラム株式会社,,株式会社,神奈川県,横浜市旭区,中希望が丘６番地の２,,14,112,2410825,,,,,,,2025-11-13,1,,,,,オーラム,0
621,3020005017035,新規,0,2025-11-13,2025-11-13,一般社団法人スノークリスタルミュージック,,その他の設立登記法人,神奈川県,川崎市麻生区,王禅寺東２丁目４３番９号,,14,137,2150018,,,,,,,2025-11-13,1,,,,,スノークリスタルミュージック,0
634,3030001169647,新規,0,2025-11-13,2025-11-13,株式会社Ｌｅｏ＆Ｃｏｍｐａｎｙ,,株式会社,埼玉県,熊谷市,玉井南３丁目１１３番地２,,11,202,3600854,,,,,,,2025-11-13,1,,,,,レオアンドカンパニー,0
635,3030001169663,新規,0,2025-11-13,2025-11-13,ＨＫＨ株式会社,,株式会社,埼玉県,志木市,本町５丁目１７番５号,,11,228,3530004,,,,,,,2025-11-13,1,,,,,エイチケイエイチ,0
639,3030003028033,新規,0,2025-11-13,2025-11-13,Ｇｏｌｄｅｎ　Ｂａｂｙ合同会社,,合同会社,埼玉県,行田市,大字若小玉３９０３番地,,11,206,3610017,,,,,,,2025-11-13,1,,,,,ゴールデンベイビー,0
642,3040001141357,新規,0,2025-11-13,2025-11-13,株式会社レックス,,株式会社,千葉県,松戸市,金ケ作２７番地の２ガクエン八柱ビル１Ｆ,,12,207,2702251,,,,,,,2025-11-13,1,,,,,レックス,0
653,3070003006191,新規,0,2025-11-13,2025-11-13,阿部オート合同会社,,合同会社,群馬県,太田市,只上町２４４７番地４,,10,205,3730011,,,,,,,2025-11-13,1,,,,,,0
657,3080001027271,新規,0,2025-11-13,2025-11-13,株式会社藤丸,,株式会社,静岡県,焼津市,飯淵７７２番地の１,,22,212,4210213,,,,,,,2025-11-13,1,,,,,フジマル,0
658,3080101025902,新規,0,2025-11-13,2025-11-13,株式会社千音,,株式会社,静岡県,富士宮市,野中１０３７番地の５,,22,207,4180039,,,,,,,2025-11-13,1,,,,,カズネ,0
659,3100003008473,新規,0,2025-11-13,2025-11-13,合同会社リックスイケダ,,合同会社,長野県,松本市,笹部４丁目１４番７号,,20,202,3900847,,,,,,,2025-11-13,1,,,,,リックスイケダ,0
676,3120001281351,新規,0,2025-11-13,2025-11-13,小可国際貿易株式会社,,株式会社,大阪府,大阪市淀川区,西宮原３丁目２番１－６２２号,,27,123,5320004,,,,,,,2025-11-13,1,,,,,ショウカコクサイボウエキ,0
677,3120001281707,新規,0,2025-11-13,2025-11-13,株式会社ＪＩＧＳＡＷ,,株式会社,大阪府,大阪市北区,中崎西１丁目９－１７－４０１,,27,127,5300015,,,,,,,2025-11-13,1,,,,,ジグソー,0
678,3120001281855,新規,0,2025-11-13,2025-11-13,１９７８文化創意株式会社,,株式会社,大阪府,大阪市東住吉区,鷹合４丁目２１番１６号１Ｆ－Ｄ,,27,121,5460014,,,,,,,2025-11-13,1,,,,,イチキュウナナハチブンカソウイ,0
679,3120001281913,新規,0,2025-11-13,2025-11-13,スーパーフリーク株式会社,,株式会社,大阪府,大阪市西区,北堀江１丁目１９番１号,,27,106,5500014,,,,,,,2025-11-13,1,,,,,スーパーフリーク,0
680,3120001281954,新規,0,2025-11-13,2025-11-13,株式会社華輝国際貿易,,株式会社,大阪府,大阪市浪速区,幸町２丁目２番４０号グラスホッパー４０５号,,27,111,5560021,,,,,,,2025-11-13,1,,,,,ハナキコクサイボウエキ,0
681,3120001281987,新規,0,2025-11-13,2025-11-13,小沢株式会社,,株式会社,大阪府,大阪市都島区,都島本通３丁目１８－４・２０８－１９号室,,27,102,5340021,,,,,,,2025-11-13,1,,,,,オザワ,0
685,3120003031201,新規,0,2025-11-13,2025-11-13,合同会社サラフル,,合同会社,大阪府,大阪市北区,豊崎３丁目６‐４上野ビル３階,,27,127,5310072,,,,,,,2025-11-13,1,,,,,サラフル,0
686,3120003031218,新規,0,2025-11-13,2025-11-13,ＮｅｘＰｏｉｎｔ合同会社,,合同会社,大阪府,大阪市都島区,都島本通５丁目１０番１２号,,27,102,5340021,,,,,,,2025-11-13,1,,,,,ネクスポイント,0
687,3120005025250,新規,0,2025-11-13,2025-11-13,行政書士法人杉田事務所,,その他の設立登記法人,大阪府,大阪市天王寺区,上汐３丁目６番１３号３Ｆ,,27,109,5430002,,,,,,,2025-11-13,1,,,,,スギタジムショ,0
691,3120901051762,新規,0,2025-11-13,2025-11-13,株式会社Ｎ・Ｃプランニング,,株式会社,大阪府,吹田市,五月が丘東９番９号４０３号室,,27,205,5650831,,,,,,,2025-11-13,1,,,,,エヌシープランニング,0
692,3120901051779,新規,0,2025-11-13,2025-11-13,ＹＡＳＵＨＩＲＯ商店株式会社,,株式会社,大阪府,池田市,畑２丁目５番１００－６１１号,,27,204,5630021,,,,,,,2025-11-13,1,,,,,ヤスヒロショウテン,0
694,3120903005956,新規,0,2025-11-13,2025-11-13,ＳＡＮＴＡ　ＨＯＵＳＥ合同会社,,合同会社,大阪府,摂津市,正雀３丁目１８番２５－１０３号,,27,224,5660023,,,,,,,2025-11-13,1,,,,,サンタハウス,0
696,3130001081024,新規,0,2025-11-13,2025-11-13,株式会社ニュー研,,株式会社,京都府,京都市左京区,下鴨宮崎町１２８番地５７,,26,103,6060802,,,,,,,2025-11-13,1,,,,,ニューケン,0
706,3140001140662,新規,0,2025-11-13,2025-11-13,株式会社はぐみ,,株式会社,兵庫県,川西市,美園町５番１０号,,28,217,6660013,,,,,,,2025-11-13,1,,,,,ハグミ,0
711,3150003003742,新規,0,2025-11-13,2025-11-13,ミリオンハート合資会社,,合資会社,奈良県,天理市,東井戸堂町４２４番地の２５,,29,204,6320074,,,,,,,2025-11-13,1,,,,,ミリオンハート,0
720,3180001169517,新規,0,2025-11-13,2025-11-13,なしろポケット株式会社,,株式会社,愛知県,春日井市,高山町１丁目２１番地４,,23,206,4860912,,,,,,,2025-11-13,1,,,,,ナシロポケット,0
726,3180005021310,新規,0,2025-11-13,2025-11-13,一般社団法人Ｊａｐａｎ　Ｍｏｎｇｏｌｉａ　Ｃａｒｅ　Ａｌｌｉａｎｃｅ,,その他の設立登記法人,愛知県,名古屋市港区,寛政町６丁目１０番地,,23,111,4550066,,,,,,,2025-11-13,1,,,,,ジャパンモンゴルケアアライアンス,0
731,3190003005264,新規,0,2025-11-13,2025-11-13,合同会社わいつ,,合同会社,三重県,四日市市,松寺２丁目１番１２－５号,,24,202,5108021,,,,,,,2025-11-13,1,,,,,ワイツ,0
741,3230001021168,新規,0,2025-11-13,2025-11-13,株式会社ネームスター,,株式会社,富山県,滑川市,安田２００番地１３,,16,206,9360825,,,,,,,2025-11-13,1,,,,,ネームスター,0
742,3230001021176,新規,0,2025-11-13,2025-11-13,株式会社天最,,株式会社,富山県,高岡市,伏木本町１６番１号,,16,202,9330106,,,,,,,2025-11-13,1,,,,,テンサイ,0
743,3240001065791,新規,0,2025-11-13,2025-11-13,株式会社ＲｕＲｕ　ｅｙｅｌａｓｈｓａｌｏｎ,,株式会社,広島県,広島市中区,袋町７番１号並木ビル７０１号室,,34,101,7300036,,,,,,,2025-11-13,1,,,,,ルルアイラッシュサロン,0
745,3240003007478,新規,0,2025-11-13,2025-11-13,合同会社清和リンク,,合同会社,広島県,広島市東区,戸坂くるめ木１丁目１５番１６－２号,,34,102,7320008,,,,,,,2025-11-13,1,,,,,セイワリンク,0
749,3260003005414,新規,0,2025-11-13,2025-11-13,合同会社アトリエナカウテ,,合同会社,岡山県,美作市,右手１６０－１,,33,215,7070204,,,,,,,2025-11-13,1,,,,,アトリエナカウテ,0
755,3290001112085,新規,0,2025-11-13,2025-11-13,株式会社プロネット,,株式会社,福岡県,久留米市,大善寺町夜明１０２６番地９,,40,203,8300074,,,,,,,2025-11-13,1,,,,,プロネット,0
756,3290001112093,新規,0,2025-11-13,2025-11-13,株式会社グッド・フィールド,,株式会社,福岡県,福岡市城南区,別府３丁目６番１５－１２０１号アクシオン別府駅前プレミアム,,40,136,8140104,,,,,,,2025-11-13,1,,,,,グッドフィールド,0
757,3290001112143,新規,0,2025-11-13,2025-11-13,株式会社ノマドウ,,株式会社,福岡県,糸島市,二丈武３丁目７－５,,40,230,8191616,,,,,,,2025-11-13,1,,,,,ノマドウ,0
760,3290801032029,新規,0,2025-11-13,2025-11-13,Ｓ‐ＴＲＩＸ株式会社,,株式会社,福岡県,北九州市八幡東区,東田２丁目１番２５－２１２号,,40,108,8050071,,,,,,,2025-11-13,1,,,,,エストリックス,0
762,3300001014412,新規,0,2025-11-13,2025-11-13,株式会社ＨＯＭＥＹ,,株式会社,佐賀県,神埼市,神埼町枝ヶ里１１１番地３ＧＡＴＨＥＲ・ＡＲＥＡ・Ａ号室,,41,210,8420006,,,,,,,2025-11-13,1,,,,,ホメイ,0
763,3310001019848,新規,0,2025-11-13,2025-11-13,株式会社つむぎ,,株式会社,長崎県,佐世保市,野中町８５－８,,42,202,8570142,,,,,,,2025-11-13,1,,,,,ツムギ,0
771,3360001036013,新規,0,2025-11-13,2025-11-13,株式会社Ｌｅａ,,株式会社,沖縄県,那覇市,小禄１丁目８番１号田原ハイツＩＩ１階,00141505,47,201,9010152,,,,,,,2025-11-13,1,,,,,レア,0
772,3360001036038,新規,0,2025-11-13,2025-11-13,株式会社ＦＬＯＲＩＳＴ　ＡＮＥＭＯＮＥ,,株式会社,沖縄県,沖縄市,山内２丁目２番１号クリアーアドバンスマンション２０２,,47,211,9040034,,,,,,,2025-11-13,1,,,,,フローリストアネモネ,0
776,3370001053189,新規,0,2025-11-13,2025-11-13,株式会社地域エネルギー創生研究所,,株式会社,宮城県,白石市,越河平字中在家５５‐４,,04,206,9890112,,,,,,,2025-11-13,1,,,,,チイキエネルギーソウセイケンキュウショ,0
777,3370001053230,新規,0,2025-11-13,2025-11-13,株式会社ゆらリズムワークス,,株式会社,宮城県,仙台市泉区,南光台南１丁目１番３号,,04,105,9818002,,,,,,,2025-11-13,1,,,,,ユラリズムワークス,0
781,3400003003551,新規,0,2025-11-13,2025-11-13,合同会社Ｂ＆Ｓ　ＴＲＡＤＩＮＧ,,合同会社,岩手県,盛岡市,茶畑２丁目１０－２０,,03,201,0200822,,,,,,,2025-11-13,1,,,,,ビーアンドエストレーディング,0
787,3430001095571,新規,0,2025-11-13,2025-11-13,株式会社Ｌｉｆｅプラス,,株式会社,北海道,苫小牧市,日新町１丁目１番１０号Ｌａｖｉｅ２０３,,01,213,0530833,,,,,,,2025-11-13,1,,,,,ライフプラス,0
789,3430005015352,新規,0,2025-11-13,2025-11-13,一般社団法人Ｏｈａｎａ　Ｈａｌａｗａｉ,,その他の設立登記法人,北海道,白老郡白老町,末広町５丁目４番８号,,01,578,0590907,,,,,,,2025-11-13,1,,,,,オハナハラワイ,0
798,3490005007014,新規,0,2025-11-13,2025-11-13,一般社団法人可楽,,その他の設立登記法人,高知県,高知市,南竹島町３番地１６,,39,201,7808017,,,,,,,2025-11-13,1,,,,,カラク,0
812,4010001259977,新規,0,2025-11-13,2025-11-13,株式会社Ａｌｌｅｓ,,株式会社,東京都,千代田区,神田神保町３丁目１１番６号神保町ビル１０階,,13,101,1010051,,,,,,,2025-11-13,1,,,,,,0
813,4010001260274,新規,0,2025-11-13,2025-11-13,ＣＰＡパートナーズアカウンティング株式会社,,株式会社,東京都,千代田区,有楽町１丁目６番６号,,13,101,1000006,,,,,,,2025-11-13,1,,,,,シーピーエーパートナーズアカウンティング,0
816,4010005040937,新規,0,2025-11-13,2025-11-13,ＡＡＪ　Ｍ特定目的会社,,その他の設立登記法人,東京都,千代田区,麹町４丁目５番地２０ドットアンドライン株式会社内,,13,101,1020083,,,,,,,2025-11-13,1,,,,,エーエージェーエム,0
828,4010401194551,新規,0,2025-11-13,2025-11-13,Ｋ・Ｎ・Ｋ株式会社,,株式会社,東京都,港区,新橋５丁目１２番１１号天翔オフィス新橋５丁目５０２号,,13,103,1050004,,,,,,,2025-11-13,1,,,,,ケーエヌケー,0
834,4010501055018,新規,0,2025-11-13,2025-11-13,株式会社ＭＭＷ,,株式会社,東京都,台東区,駒形２丁目１番６号駒形第五ビル１０１号,,13,106,1110043,,,,,,,2025-11-13,1,,,,,エムエムダブリュー,0
839,4010603011918,新規,0,2025-11-13,2025-11-13,合同会社フェルトベルク,,合同会社,東京都,墨田区,東向島２丁目１番１７号,,13,107,1310032,,,,,,,2025-11-13,1,,,,,フェルトベルク,0
848,4011001173482,新規,0,2025-11-13,2025-11-13,株式会社ウィズハートパートナーズ,,株式会社,東京都,渋谷区,道玄坂１丁目１０番８号,,13,113,1500043,,,,,,,2025-11-13,1,,,,,ウィズハートパートナーズ,0
849,4011001173524,新規,0,2025-11-13,2025-11-13,株式会社ＧＩＡ　Ｊａｐａｎ,,株式会社,東京都,渋谷区,代々木４丁目３１番４号キャッスル新宿１１０２号室,,13,113,1510053,,,,,,,2025-11-13,1,,,,,ジーアイエイジャパン,0
852,4011003022877,新規,0,2025-11-13,2025-11-13,合同会社ＳａｎｗａＸ,,合同会社,東京都,渋谷区,円山町５番３号ＭＩＥＵＸ渋谷ビル８階,,13,113,1500044,,,,,,,2025-11-13,1,,,,,サンワクロス,0
853,4011003022968,新規,0,2025-11-13,2025-11-13,合同会社ＩＴＯＹＵ　ＷＯＲＫＳ,,合同会社,東京都,渋谷区,神宮前６丁目２３番４号桑野ビル２階,,13,113,1500001,,,,,,,2025-11-13,1,,,,,イトユウワークス,0
854,4011103016515,新規,0,2025-11-13,2025-11-13,合同会社ＳＭＭ,,合同会社,東京都,新宿区,高田馬場４丁目２３－２９竹村ビル３Ａ号,,13,104,1690075,,,,,,,2025-11-13,1,,,,,エスエムエム,0
855,4011301031035,新規,0,2025-11-13,2025-11-13,旭秀クリエイト株式会社,,株式会社,東京都,杉並区,堀ノ内２丁目１１番８号,,13,115,1660013,,,,,,,2025-11-13,1,,,,,キョクシュウクイリエイト,0
856,4011301031043,新規,0,2025-11-13,2025-11-13,株式会社ドムス藤,,株式会社,東京都,杉並区,下高井戸５丁目９番５号,,13,115,1680073,,,,,,,2025-11-13,1,,,,,ドムスフジ,0
861,4011703004456,新規,0,2025-11-13,2025-11-13,ＫＳ合同会社,,合同会社,東京都,江戸川区,東瑞江３丁目５７番５号,,13,123,1320014,,,,,,,2025-11-13,1,,,,,ケーエス,0
865,4012401043804,新規,0,2025-11-13,2025-11-13,スノホワ株式会社,,株式会社,東京都,多摩市,諏訪２丁目４番地Ｅ－１４０１,,13,224,2060024,,,,,,,2025-11-13,1,,,,,スノホワ,0
868,4012403007451,新規,0,2025-11-13,2025-11-13,ＦＫＳプランニング合同会社,,合同会社,東京都,調布市,下石原３丁目４８番地５,,13,208,1820034,,,,,,,2025-11-13,1,,,,,エフケーエスプランニング,0
874,4013303007954,新規,0,2025-11-13,2025-11-13,ニャースケジャパン合同会社,,合同会社,東京都,豊島区,東池袋２丁目６２番８号ＢＩＧオフィスプラザ池袋１２０６,,13,116,1700013,,,,,,,2025-11-13,1,,,,,ニャースケジャパン,0
884,4020001165720,新規,0,2025-11-13,2025-11-13,立川農園株式会社,,株式会社,神奈川県,川崎市麻生区,黒川２８７番地,,14,137,2150035,,,,,,,2025-11-13,1,,,,,タチカワノウエン,0
885,4020001165794,新規,0,2025-11-13,2025-11-13,Ｋ‐ＫＩＤ’Ｓ　ＤＥＮＴＡＬ株式会社,,株式会社,神奈川県,横浜市鶴見区,矢向５丁目３番２３号,,14,101,2300001,,,,,,,2025-11-13,1,,,,,ケーキッズデンタル,0
886,4020001165803,新規,0,2025-11-13,2025-11-13,株式会社大装,,株式会社,神奈川県,横浜市南区,高砂町２丁目２７番地１０コーポＧ３０２,,14,105,2320025,,,,,,,2025-11-13,1,,,,,ダイソウ,0
887,4020001165836,新規,0,2025-11-13,2025-11-13,ＺＮ１号株式会社,,株式会社,神奈川県,横浜市都筑区,茅ケ崎中央２４番７号シャトルセンター南２０１号室,,14,118,2240032,,,,,,,2025-11-13,1,,,,,ゼットエヌイチゴウ,0
893,4021003016779,新規,0,2025-11-13,2025-11-13,合同会社Ｆｌｙｖｅ,,合同会社,神奈川県,相模原市南区,鵜野森２丁目２０－２０ハイムフォレスト１０２,,14,153,2520301,,,,,,,2025-11-13,1,,,,,フライブ,0
903,4040001141348,新規,0,2025-11-13,2025-11-13,株式会社おかげさま,,株式会社,千葉県,千葉市緑区,古市場町４７４－１７５メゾンアイレット２０３,,12,105,2660026,,,,,,,2025-11-13,1,,,,,オカゲサマ,0
917,4080001027270,新規,0,2025-11-13,2025-11-13,株式会社緑区,,株式会社,静岡県,島田市,元島田９２５２番地の１３,,22,209,4270057,,,,,,,2025-11-13,1,,,,,リョック,0
920,4080101025901,新規,0,2025-11-13,2025-11-13,株式会社ワイズカンパニー,,株式会社,静岡県,伊東市,八幡野１０８６番地の８２,,22,208,4130232,,,,,,,2025-11-13,1,,,,,ワイズカンパニー,0
925,4080403005378,新規,0,2025-11-13,2025-11-13,合同会社ＣＡＲ　ＳＴＯＲＥ,,合同会社,静岡県,掛川市,大坂４６３番地の４,,22,213,4371421,,,,,,,2025-11-13,1,,,,,カーストア,0
926,4080403005386,新規,0,2025-11-13,2025-11-13,合同会社堀江の庄,,合同会社,静岡県,浜松市中央区,舘山寺町２０６１,,22,138,4311209,,,,,,,2025-11-13,1,,,,,ホリエノショウ,0
927,4100001039107,新規,0,2025-11-13,2025-11-13,株式会社スパイラル,,株式会社,長野県,岡谷市,長地小萩１丁目８番２８号,,20,204,3940085,,,,,,,2025-11-13,1,,,,,スパイラル,0
933,4110003005964,新規,0,2025-11-13,2025-11-13,合同会社キレイエハウスクリーニング,,合同会社,新潟県,上越市,三和区水吉３８１,,15,222,9430232,,,,,,,2025-11-13,1,,,,,キレイエハウスクリーニング,0
941,4120001281904,新規,0,2025-11-13,2025-11-13,Ｍｕｎｅｄｉ株式会社,,株式会社,大阪府,大阪市阿倍野区,阿倍野元町３番１０－８０１号,,27,119,5450034,,,,,,,2025-11-13,1,,,,,ムネディー,0
942,4120001281937,新規,0,2025-11-13,2025-11-13,新程株式会社,,株式会社,大阪府,大阪市東淀川区,菅原４丁目１１－２１ビスタ新庄ハイツＩＩＩ８０６室,00141506,27,114,5330022,,,,,,,2025-11-13,1,,,,,シンテイ,0
943,4120001281986,新規,0,2025-11-13,2025-11-13,逸坊株式会社,,株式会社,大阪府,大阪市住之江区,新北島１丁目４番１５－３０９号,,27,125,5590024,,,,,,,2025-11-13,1,,,,,イツボウ,0
947,4120003031142,新規,0,2025-11-13,2025-11-13,合同会社ＭａｃｏｃｏＪＡＰＡＮ,,合同会社,大阪府,大阪市北区,梅田１丁目１－３大阪駅前第３ビル２９階１－１－１号室,,27,127,5300001,,,,,,,2025-11-13,1,,,,,マココジャパン,0
949,4120005025241,新規,0,2025-11-13,2025-11-13,司法書士法人みなみもりまち法務事務所,,その他の設立登記法人,大阪府,大阪市北区,天神橋３丁目１番３５号,,27,127,5300041,,,,,,,2025-11-13,1,,,,,ミナミモリマチホウムジムショ,0
954,4122001039869,新規,0,2025-11-13,2025-11-13,株式会社Ｓｅｃｏｎｄ,,株式会社,大阪府,八尾市,老原１丁目８５番地２,,27,212,5810092,,,,,,,2025-11-13,1,,,,,,0
955,4122003003393,新規,0,2025-11-13,2025-11-13,合同会社Ｋ＆ＬＬ,,合同会社,大阪府,東大阪市,横小路町３丁目５番２６号,,27,227,5798063,,,,,,,2025-11-13,1,,,,,ケーアンドエルエル,0
958,4130001081023,新規,0,2025-11-13,2025-11-13,株式会社ＴＲＵＮＫ,,株式会社,京都府,京都市下京区,麩屋町通綾小路下る俵屋町３０９番地１,,26,106,6008042,,,,,,,2025-11-13,1,,,,,トランク,0
964,4140001140694,新規,0,2025-11-13,2025-11-13,ライトスタンド株式会社,,株式会社,兵庫県,神戸市中央区,北長狭通２丁目３０番４６号,,28,110,6500012,,,,,,,2025-11-13,1,,,,,ライトスタンド,0
978,4180003029370,新規,0,2025-11-13,2025-11-13,高見不動産合同会社,,合同会社,愛知県,名古屋市千種区,高見１丁目２番２１号,,23,101,4640073,,,,,,,2025-11-13,1,,,,,タカミフドウサン,0
979,4190001032697,新規,0,2025-11-13,2025-11-13,株式会社ファームテクノ河合,,株式会社,三重県,三重郡菰野町,大字吉澤１１８１番地,,24,341,5101226,,,,,,,2025-11-13,1,,,,,ファームテクノカワイ,0
981,4200003007142,新規,0,2025-11-13,2025-11-13,合同会社将愛リサイクル,,合同会社,岐阜県,多治見市,小名田町小滝５番地の３８８,,21,204,5070001,,,,,,,2025-11-13,1,,,,,ショウアイリサイクル,0
983,4210001020385,新規,0,2025-11-13,2025-11-13,株式会社越前海岸観光振興,,株式会社,福井県,福井市,中央１丁目９番２４号,,18,201,9100006,,,,,,,2025-11-13,1,,,,,エチゼンカイガンカンコウシンコウ,0
986,4240001065790,新規,0,2025-11-13,2025-11-13,Ｈ．Ｂ株式会社,,株式会社,広島県,広島市中区,大手町１丁目１番２６号大手町一番ビル３０５,,34,101,7300051,,,,,,,2025-11-13,1,,,,,エイチビー,0
988,4250001021421,新規,0,2025-11-13,2025-11-13,株式会社ＫＯＮＤＯ,,株式会社,山口県,山口市,秋穂二島１８２９番地,,35,203,7540893,,,,,,,2025-11-13,1,,,,,コンドウ,0
990,4250003003847,新規,0,2025-11-13,2025-11-13,合同会社真和パートナーズ,,合同会社,山口県,岩国市,玖珂町６２８５番地１６,,35,208,7420344,,,,,,,2025-11-13,1,,,,,シンワパートナーズ,0
991,4260001040726,新規,0,2025-11-13,2025-11-13,株式会社ファームエックス,,株式会社,岡山県,赤磐市,桜が丘西８丁目３２番２８号,,33,213,7090802,,,,,,,2025-11-13,1,,,,,ファームエックス,0
999,4340001027780,新規,0,2025-11-13,2025-11-13,株式会社中野水産,,株式会社,鹿児島県,肝属郡肝付町,北方１７８３番地１,,46,492,8931401,,,,,,,2025-11-13,1,,,,,ナカノスイサン,0
1001,4340003005017,新規,0,2025-11-13,2025-11-13,合同会社壱信,,合同会社,鹿児島県,鹿児島市,五ヶ別府町３２９６番地２,,46,201,8910101,,,,,,,2025-11-13,1,,,,,イッシン,0
1008,4360001036020,新規,0,2025-11-13,2025-11-13,株式会社星雄,,株式会社,沖縄県,浦添市,大平２丁目１９番７号,,47,208,9012113,,,,,,,2025-11-13,1,,,,,セイユウ,0
1009,4360001036029,新規,0,2025-11-13,2025-11-13,長嶺ストア株式会社,,株式会社,沖縄県,那覇市,具志３丁目１７番１４号ＮＱハウス２階,,47,201,9010146,,,,,,,2025-11-13,1,,,,,ナガミネストア,0
1012,4360003015393,新規,0,2025-11-13,2025-11-13,合同会社アイリー,,合同会社,沖縄県,南城市,大里字嶺井４３２番地,,47,215,9011201,,,,,,,2025-11-13,1,,,,,アイリー,0
1021,4400001017230,新規,0,2025-11-13,2025-11-13,大久保農林株式会社,,株式会社,岩手県,久慈市,西の沢第６地割３５番地８,,03,207,0280081,,,,,,,2025-11-13,1,,,,,オオクボノウリン,0
1027,4420001019332,新規,0,2025-11-13,2025-11-13,ＳｏｕｎｄＢｏｍｂｅ株式会社,,株式会社,青森県,弘前市,大字浜の町東５丁目３番地４９,,02,202,0368323,,,,,,,2025-11-13,1,,,,,サウンドボンベ,0
1032,4430001095645,新規,0,2025-11-13,2025-11-13,ＳＯＣＨＩＨＡ株式会社,,株式会社,北海道,札幌市南区,南沢六条４丁目８番２号,,01,106,0050826,,,,,,,2025-11-13,1,,,,,ソチハ,0
1033,4430001095661,新規,0,2025-11-13,2025-11-13,株式会社アルファ,,株式会社,北海道,札幌市中央区,南九条西４丁目３番１－３０４号,,01,101,0640809,,,,,,,2025-11-13,1,,,,,アルファ,0
1034,4430005015351,新規,0,2025-11-13,2025-11-13,一般社団法人札幌市道路区画線協会,,その他の設立登記法人,北海道,札幌市豊平区,月寒東二条３丁目９番１２号,,01,105,0620052,,,,,,,2025-11-13,1,,,,,サッポロドウロクカクセンキョウカイ,0
1037,4460101007778,新規,0,2025-11-13,2025-11-13,株式会社ＧＲＥＥＮ　ＧＥＡＲＥＤ,,株式会社,北海道,帯広市,西十七条南５丁目４番地２５,,01,207,0800027,,,,,,,2025-11-13,1,,,,,グリーンギアード,0
1041,4500003003631,新規,0,2025-11-13,2025-11-13,合同会社エッジワークス,,合同会社,愛媛県,松山市,南梅本町７７７番地,,38,201,7910245,,,,,,,2025-11-13,1,,,,,エッジワークス,0
1052,5010001260075,新規,0,2025-11-13,2025-11-13,Ａｋｉｎｄ　Ｃｏｒｅ　Ｐｌｕｓ株式会社,,株式会社,東京都,千代田区,神田駿河台２丁目３番１１号,,13,101,1010062,,,,,,,2025-11-13,1,,,,,アカインドコアプラス,0
1053,5010001260182,新規,0,2025-11-13,2025-11-13,株式会社ｒａｉｎｙ,,株式会社,東京都,中央区,日本橋室町１丁目１１番１２号日本橋水野ビル７階,,13,102,1030022,,,,,,,2025-11-13,1,,,,,レイニー,0
1054,5010001260257,新規,0,2025-11-13,2025-11-13,ｕｎｔｉｔｌｅｄ株式会社,,株式会社,東京都,中央区,銀座６丁目１６番６号ＴＩＤＥＳビル１階,,13,102,1040061,,,,,,,2025-11-13,1,,,,,アンタイトル,0
1055,5010001260281,新規,0,2025-11-13,2025-11-13,株式会社トカリン,,株式会社,東京都,文京区,本郷１丁目３０番２７－６０４号,,13,105,1130033,,,,,,,2025-11-13,1,,,,,トカリン,0
1057,5010003049293,新規,0,2025-11-13,2025-11-13,Ｔｓｕｙａｍａ‐２ＢＥＳＳ合同会社,,合同会社,東京都,千代田区,霞が関３丁目２番６号東京倶楽部ビルディング１１階,,13,101,1000013,,,,,,,2025-11-13,1,,,,,ツヤマツーベス,0
1058,5010003049384,新規,0,2025-11-13,2025-11-13,合同会社ゴールドリアルター,,合同会社,東京都,千代田区,岩本町２丁目２番１１号ガレリアドゥエル神田岩本町４０３号,,13,101,1010032,,,,,,,2025-11-13,1,,,,,ゴールドリアルター,0
1062,5010401194154,新規,0,2025-11-13,2025-11-13,株式会社Ｋ‐ｐｒｏｊｅｃｔ,,株式会社,東京都,港区,北青山１丁目３－１アールキューブ青山３Ｆ,,13,103,1070061,,,,,,,2025-11-13,1,,,,,ケープロジェクト,0
1063,5010401194468,新規,0,2025-11-13,2025-11-13,株式会社Ｅｘｅｃｏｒｅ　Ｐａｒｔｎｅｒ,,株式会社,東京都,港区,六本木４丁目５－７スタジオＤ４階３０１号室,,13,103,1060032,,,,,,,2025-11-13,1,,,,,エグゼコアパートナー,0
1064,5010401194518,新規,0,2025-11-13,2025-11-13,ＲｅＮｏｖａ株式会社,,株式会社,東京都,港区,港南３丁目５番２１－１８１４号,,13,103,1080075,,,,,,,2025-11-13,1,,,,,リノヴァ,0
1065,5010401194550,新規,0,2025-11-13,2025-11-13,トラスティーズ・パートナーズ株式会社,,株式会社,東京都,港区,三田５丁目２番２２号２１０６,,13,103,1080073,,,,,,,2025-11-13,1,,,,,トラスティーズパートナーズ,0
1067,5010403036395,新規,0,2025-11-13,2025-11-13,合同会社ＰＭＪ,,合同会社,東京都,港区,六本木３丁目１６番１２号六本木ＫＳビル５Ｆ,,13,103,1060032,,,,,,,2025-11-13,1,,,,,ピーエムジェイ,0
1068,5010403036511,新規,0,2025-11-13,2025-11-13,合同会社アシスト,,合同会社,東京都,港区,六本木３丁目１６番１２号六本木ＫＳビル５Ｆ,,13,103,1060032,,,,,,,2025-11-13,1,,,,,アシスト,0
1069,5010403036552,新規,0,2025-11-13,2025-11-13,合同会社ｎｅａｔ,,合同会社,東京都,港区,北青山１丁目３－３三橋ビル３Ｆ,,13,103,1070061,,,,,,,2025-11-13,1,,,,,ニート,0
1070,5010403036593,新規,0,2025-11-13,2025-11-13,ヘルスケアにいがたファンド合同会社,,合同会社,東京都,港区,元赤坂１丁目１番７－１２０９号株式会社赤坂国際会計内,,13,103,1070051,,,,,,,2025-11-13,1,,,,,ヘルスケアニイガタファンド,0
1076,5010501055017,新規,0,2025-11-13,2025-11-13,嘉順株式会社,,株式会社,東京都,台東区,台東２丁目３１－１０第２掛川ビル１０９号室,,13,106,1100016,,,,,,,2025-11-13,1,,,,,カジュン,0
1088,5010901058338,新規,0,2025-11-13,2025-11-13,Ｅｄｏ　Ｐａｒｔｎｅｒｓ株式会社,,株式会社,東京都,世田谷区,桜丘３丁目５番５号,,13,112,1560054,,,,,,,2025-11-13,1,,,,,エドパートナーズ,0
1089,5010901058437,新規,0,2025-11-13,2025-11-13,株式会社豊舞,,株式会社,東京都,世田谷区,下馬６丁目１９番３－３０７号,,13,112,1540002,,,,,,,2025-11-13,1,,,,,ホウブ,0
1097,5011001173408,新規,0,2025-11-13,2025-11-13,株式会社ｅｎ‐ｒｙ,,株式会社,東京都,渋谷区,本町６丁目５番３号ＬＡＰｉＳ渋谷本町１０２,,13,113,1510071,,,,,,,2025-11-13,1,,,,,エンリー,0
1098,5011001173663,新規,0,2025-11-13,2025-11-13,株式会社城島ファーム,,株式会社,東京都,渋谷区,広尾１丁目７番２０号,,13,113,1500012,,,,,,,2025-11-13,1,,,,,ジョウシマファーム,0
1099,5011003022752,新規,0,2025-11-13,2025-11-13,和風情合同会社,,合同会社,東京都,目黒区,中目黒２丁目６－２３－９０１,,13,110,1530061,,,,,,,2025-11-13,1,,,,,,0
1100,5011003022876,新規,0,2025-11-13,2025-11-13,ＪＰＴサポート合同会社,,合同会社,東京都,渋谷区,円山町８番８号ハーベストハウスＩＩ２０６,00141507,13,113,1500044,,,,,,,2025-11-13,1,,,,,ジェーピーティーサポート,0
1101,5011003022942,新規,0,2025-11-13,2025-11-13,合同会社Ｋ‐ＣＵＢＵ,,合同会社,東京都,渋谷区,道玄坂１丁目１０番８号渋谷道玄坂東急ビル２Ｆ－Ｃ,,13,113,1500043,,,,,,,2025-11-13,1,,,,,ケーキューブ,0
1112,5011501032807,新規,0,2025-11-13,2025-11-13,株式会社黎明,,株式会社,東京都,荒川区,西日暮里２丁目６番１８－２０７号,,13,118,1160013,,,,,,,2025-11-13,1,,,,,レイメイ,0
1113,5011503006775,新規,0,2025-11-13,2025-11-13,合同会社ユナイト,,合同会社,東京都,北区,赤羽１丁目７－９赤羽第一ビル４Ｆ,,13,117,1150045,,,,,,,2025-11-13,1,,,,,ユナイト,0
1118,5011701028919,新規,0,2025-11-13,2025-11-13,株式会社ＴＹＲＯ,,株式会社,東京都,江戸川区,小松川４丁目７６番地１０,,13,123,1320034,,,,,,,2025-11-13,1,,,,,トイロ,0
1122,5012403007459,新規,0,2025-11-13,2025-11-13,合同会社イツナギ,,合同会社,東京都,稲城市,矢野口２０５９番地の１ペアパレスＡＯＫＩ３０１,,13,225,2060812,,,,,,,2025-11-13,1,,,,,イツナギ,0
1125,5012803003925,新規,0,2025-11-13,2025-11-13,合同会社ツナ,,合同会社,東京都,国分寺市,泉町３丁目６番１６号アルブル泉町３０１,,13,214,1850024,,,,,,,2025-11-13,1,,,,,ツナ,0
1139,5020001165785,新規,0,2025-11-13,2025-11-13,株式会社Ｎｅｘｕｓ科学技術経営,,株式会社,神奈川県,川崎市川崎区,東田町８番地パレール川崎レッド館３Ｆ,,14,131,2100005,,,,,,,2025-11-13,1,,,,,ネクサスカガクギジュツケイエイ,0
1140,5020003029773,新規,0,2025-11-13,2025-11-13,Ｐａｕｌ　Ｔｈｏｍａｓ合同会社,,合同会社,神奈川県,川崎市多摩区,登戸２４０８番地１パークホームズ登戸ステーションアベニュー１３０２,,14,135,2140014,,,,,,,2025-11-13,1,,,,,ポールトーマス,0
1149,5030001169678,新規,0,2025-11-13,2025-11-13,株式会社永愛,,株式会社,埼玉県,所沢市,青葉台１３０４番地の２４,,11,208,3591105,,,,,,,2025-11-13,1,,,,,エイアイ,0
1150,5030001169703,新規,0,2025-11-13,2025-11-13,慈泉福祉サービス株式会社,,株式会社,埼玉県,南埼玉郡宮代町,川端２丁目５番２５号,,11,442,3450804,,,,,,,2025-11-13,1,,,,,ジセンフクシサービス,0
1154,5030005022338,新規,0,2025-11-13,2025-11-13,一般社団法人ＭＯＵＮＴ　ＺＩＯＮ　ＦＩＲＥ　ＭＩＮＩＳＴＲＩＥＳ　ＩＮＴＥＲＮＡＴＩＯＮＡＬ,,その他の設立登記法人,埼玉県,春日部市,中央１丁目１６番地１１号フルヤビル２階,,11,214,3440067,,,,,,,2025-11-13,1,,,,,,0
1159,5040003028922,新規,0,2025-11-13,2025-11-13,合同会社つなぐ,,合同会社,千葉県,成田市,中台４丁目１番地４４,,12,211,2860015,,,,,,,2025-11-13,1,,,,,ツナグ,0
1161,5040005022956,新規,0,2025-11-13,2025-11-13,税理士法人安蒜会計,,その他の設立登記法人,千葉県,松戸市,西馬橋蔵元町９３番地,,12,207,2710046,,,,,,,2025-11-13,1,,,,,アンビルカイケイ,0
1164,5060003005845,新規,0,2025-11-13,2025-11-13,合同会社ＧＢＪ不動産,,合同会社,栃木県,足利市,鹿島町４２９番地１ラフォーレ鹿島２Ａ２０３,,09,202,3260844,,,,,,,2025-11-13,1,,,,,ジービージェイフドウサン,0
1167,5080001027278,新規,0,2025-11-13,2025-11-13,株式会社中嶋美装,,株式会社,静岡県,静岡市駿河区,東新田２丁目１５番８号リタ東新田ビル１階,,22,102,4210112,,,,,,,2025-11-13,1,,,,,ナカジマビソウ,0
1171,5080101025900,新規,0,2025-11-13,2025-11-13,株式会社Ｐｕｒｅ,,株式会社,静岡県,沼津市,下香貫八重１１８番地の４,,22,203,4100822,,,,,,,2025-11-13,1,,,,,ピュア,0
1178,5110001039716,新規,0,2025-11-13,2025-11-13,株式会社ととや,,株式会社,新潟県,南魚沼市,寺尾３１０番地１５,,15,226,9497104,,,,,,,2025-11-13,1,,,,,トトヤ,0
1189,5120001281754,新規,0,2025-11-13,2025-11-13,株式会社プロリケッド,,株式会社,大阪府,大阪市東成区,大今里２丁目４番１５号,,27,115,5370012,,,,,,,2025-11-13,1,,,,,プロリケッド,0
1190,5120001281952,新規,0,2025-11-13,2025-11-13,株式会社フルール,,株式会社,大阪府,大阪市東淀川区,東中島１丁目１７－５ステュディオ新大阪６３９,,27,114,5330033,,,,,,,2025-11-13,1,,,,,フルール,0
1191,5120001282026,新規,0,2025-11-13,2025-11-13,株式会社ＶＡＬＯＳ,,株式会社,大阪府,大阪市北区,梅田１丁目２番２号大阪駅前第２ビル１２－１２,,27,127,5300001,,,,,,,2025-11-13,1,,,,,ヴァロス,0
1193,5120101072780,新規,0,2025-11-13,2025-11-13,株式会社凛,,株式会社,大阪府,富田林市,向陽台４丁目１番３－２０２号,,27,214,5840082,,,,,,,2025-11-13,1,,,,,リン,0
1194,5120901051777,新規,0,2025-11-13,2025-11-13,株式会社Ｋ３,,株式会社,大阪府,高槻市,塚脇１丁目２５番１４号,,27,207,5691036,,,,,,,2025-11-13,1,,,,,ケースリー,0
1195,5120901051793,新規,0,2025-11-13,2025-11-13,株式会社野木電気,,株式会社,大阪府,箕面市,西宿３丁目１６番１－３０３号,,27,220,5620034,,,,,,,2025-11-13,1,,,,,ノギデンキ,0
1204,5130001081014,新規,0,2025-11-13,2025-11-13,株式会社儀兵衛ホールディングス,,株式会社,京都府,京都市下京区,西七条北衣田町１０番地,,26,106,6008883,,,,,,,2025-11-13,1,,,,,ギヘエホールディングス,0
1205,5130001081022,新規,0,2025-11-13,2025-11-13,株式会社ふくろうインベストメント,,株式会社,京都府,京都市下京区,小稲荷町８５－２Ｇｒａｎｄ－Ｋ京都駅前ビル２０１,,26,106,6008208,,,,,,,2025-11-13,1,,,,,フクロウインベストメント,0
1206,5130003010929,新規,0,2025-11-13,2025-11-13,Ｒｏｃｋ　ｔｏｗｎ合同会社,,合同会社,京都府,城陽市,寺田大谷２６－３,,26,207,6100121,,,,,,,2025-11-13,1,,,,,ロックタウン,0
1213,5140001140735,新規,0,2025-11-13,2025-11-13,株式会社イルテック,,株式会社,兵庫県,加西市,北条町西高室１０６４番地の２,,28,220,6752322,,,,,,,2025-11-13,1,,,,,イルテック,0
1226,5160001027220,新規,0,2025-11-13,2025-11-13,株式会社Ｍｕｒａｄ,,株式会社,滋賀県,近江八幡市,出町４１７番地８,,25,204,5230892,,,,,,,2025-11-13,1,,,,,ムラッド,0
1228,5170001018870,新規,0,2025-11-13,2025-11-13,東勝食品研発工業株式会社,,株式会社,和歌山県,和歌山市,新雑賀町３８,,30,201,6408101,,,,,,,2025-11-13,1,,,,,トウショウショクヒンケンハツコウギョウ,0
1229,5170003002336,新規,0,2025-11-13,2025-11-13,滋味合同会社,,合同会社,和歌山県,和歌山市,内原９７６番地４,,30,201,6410013,,,,,,,2025-11-13,1,,,,,ジミ,0
1242,5180001169416,新規,0,2025-11-13,2025-11-13,ＴＩＳ株式会社,,株式会社,愛知県,弥富市,佐古木１丁目４０番地１,,23,235,4980006,,,,,,,2025-11-13,1,,,,,ティーアイエス,0
1243,5180001169457,新規,0,2025-11-13,2025-11-13,株式会社未来環境パートナーズ,,株式会社,愛知県,名古屋市昭和区,鶴舞４丁目６番１３号グリーンハイツ鶴舞別館３階,,23,107,4660064,,,,,,,2025-11-13,1,,,,,ミライカンキョウパートナーズ,0
1259,5240001065781,新規,0,2025-11-13,2025-11-13,株式会社ＹＡＧＥＮ不動産,,株式会社,広島県,広島市西区,井口５丁目７番３－１２０３号,,34,104,7330842,,,,,,,2025-11-13,1,,,,,ヤゲンフドウサン,0
1261,5240003007484,新規,0,2025-11-13,2025-11-13,合同会社ＲｉｚＲｉｚ,,合同会社,広島県,山県郡北広島町,志路原２１１０,,34,369,7311701,,,,,,,2025-11-13,1,,,,,リズリズ,0
1262,5250003003846,新規,0,2025-11-13,2025-11-13,合同会社Ｎｅｘｉｅ,,合同会社,山口県,山口市,古熊２丁目２番５３号,,35,203,7530031,,,,,,,2025-11-13,1,,,,,ネクシィ,0
1268,5260001040733,新規,0,2025-11-13,2025-11-13,株式会社ＫＯＵＫＥＮ,,株式会社,岡山県,倉敷市,児島上の町３丁目１１番２４号,,33,202,7110907,,,,,,,2025-11-13,1,,,,,コウケン,0
1269,5260001040741,新規,0,2025-11-13,2025-11-13,株式会社ＰＯＲＴ,,株式会社,岡山県,倉敷市,菰池１丁目２番２０－３号,,33,202,7110932,,,,,,,2025-11-13,1,,,,,ポート,0
1282,5290801032027,新規,0,2025-11-13,2025-11-13,株式会社資潜,,株式会社,福岡県,北九州市小倉南区,高野１丁目３番１０号,,40,107,8030275,,,,,,,2025-11-13,1,,,,,シセン,0
1283,5310001019846,新規,0,2025-11-13,2025-11-13,株式会社ＳＡＫ,,株式会社,長崎県,長崎市,上西山町２番１５号,,42,201,8500006,,,,,,,2025-11-13,1,,,,,エスエイケイ,0
1287,5330001033746,新規,0,2025-11-13,2025-11-13,株式会社桃李,,株式会社,熊本県,熊本市中央区,京町１丁目４番２４号,,43,101,8600078,,,,,,,2025-11-13,1,,,,,トウリ,0
1289,5340003005016,新規,0,2025-11-13,2025-11-13,合同会社ブルーマン,,合同会社,鹿児島県,鹿児島市,春日町３番２３号,,46,201,8920804,,,,,,,2025-11-13,1,,,,,ブルーマン,0
1305,5430001095652,新規,0,2025-11-13,2025-11-13,Ｈ＆エイド株式会社,,株式会社,北海道,札幌市清田区,北野七条４丁目１番７号,,01,110,0040867,,,,,,,2025-11-13,1,,,,,エイチアンドエイド,0
1306,5430001095669,新規,0,2025-11-13,2025-11-13,イノビスタ株式会社,,株式会社,北海道,札幌市西区,琴似四条３丁目１番５号,,01,107,0630814,,,,,,,2025-11-13,1,,,,,イノビスタ,0
1307,5430003018322,新規,0,2025-11-13,2025-11-13,合同会社Ｃｕｒｅ　Ｓｔａｔｉｏｎ,,合同会社,北海道,札幌市東区,伏古十一条２丁目４番２６号,,01,103,0070871,,,,,,,2025-11-13,1,,,,,キュアステーション,0
1313,5490005007012,新規,0,2025-11-13,2025-11-13,一般社団法人ライディング・フォー・ライフ,,その他の設立登記法人,高知県,高知市,一宮南町１丁目１番６－１４０６号,,39,201,7818135,,,,,,,2025-11-13,1,,,,,ライディングフォーライフ,0
1314,5500001026617,新規,0,2025-11-13,2025-11-13,株式会社ＵＩＳ,,株式会社,愛媛県,今治市,伯方町木浦甲３５５２番地,,38,202,7942305,,,,,,,2025-11-13,1,,,,,ユーアイエス,0
1321,6010001260314,新規,0,2025-11-13,2025-11-13,インテグラル・グループ株式会社,,株式会社,東京都,千代田区,丸の内１丁目９番２号,,13,101,1000005,,,,,,,2025-11-13,1,,,,,インテグラルグループ,0
1322,6010003049318,新規,0,2025-11-13,2025-11-13,Ｄ’Ａｄｄａｒｉｏ　Ｊａｐａｎ合同会社,,合同会社,東京都,千代田区,丸の内２丁目１番１号明治生命館７階ディーエルエイ・パイパー東京パートナーシップ外国法共同事業法律事務所内,,13,101,1000005,,,,,,,2025-11-13,1,,,,,ダダリオジャパン,0
1323,6010003049359,新規,0,2025-11-13,2025-11-13,合同会社ＫＯＴＯＲＩＣＫＳ,,合同会社,東京都,中央区,銀座１丁目１２―４Ｎ＆ＥＢＬＤ．７階,,13,102,1040061,,,,,,,2025-11-13,1,,,,,コトリックス,0
1328,6010401194269,新規,0,2025-11-13,2025-11-13,株式会社ＬＤＹ,,株式会社,東京都,港区,西麻布１丁目７番１０号タッカービルＢ１Ｆ,,13,103,1060031,,,,,,,2025-11-13,1,,,,,エルディーワイ,0
1329,6010401194459,新規,0,2025-11-13,2025-11-13,株式会社トライコア,,株式会社,東京都,港区,西麻布４丁目１８番２号,,13,103,1060031,,,,,,,2025-11-13,1,,,,,トライコア,0
1332,6010403036584,新規,0,2025-11-13,2025-11-13,合同会社エーレ,,合同会社,東京都,港区,白金１丁目２５番１８－６０１号,,13,103,1080072,,,,,,,2025-11-13,1,,,,,エーレ,0
1333,6010403036601,新規,0,2025-11-13,2025-11-13,合同会社ＷＳ５,,合同会社,東京都,港区,元赤坂１丁目１番７号,,13,103,1070051,,,,,,,2025-11-13,1,,,,,ダブリュエスファイブ,0
1337,6010501055008,新規,0,2025-11-13,2025-11-13,株式会社紅花レストラン,,株式会社,東京都,台東区,浅草２丁目１７番４号,,13,106,1110032,,,,,,,2025-11-13,1,,,,,ベニハナレストラン,0
1352,6011001173308,新規,0,2025-11-13,2025-11-13,株式会社Ｓｈｉｇｕｃｈｉ,,株式会社,東京都,渋谷区,道玄坂１丁目１０番８号渋谷道玄坂東急ビル２Ｆ－Ｃ,,13,113,1500043,,,,,,,2025-11-13,1,,,,,シグチ,0
1353,6011001173415,新規,0,2025-11-13,2025-11-13,株式会社フィットメディア,,株式会社,東京都,渋谷区,広尾５丁目１４番２号,,13,113,1500012,,,,,,,2025-11-13,1,,,,,フィットメディア,0
1354,6011001173571,新規,0,2025-11-13,2025-11-13,株式会社ＮＥＸＴＰＡＧＥ,,株式会社,東京都,渋谷区,道玄坂１丁目１０番８号渋谷道玄坂東急ビル２ＦーＣ,,13,113,1500043,,,,,,,2025-11-13,1,,,,,ネクストページ,0
1357,6011101113857,新規,0,2025-11-13,2025-11-13,ＴＯＲＩＣＯ株式会社,,株式会社,東京都,新宿区,大久保１丁目１番３８号,,13,104,1690072,,,,,,,2025-11-13,1,,,,,トリコ,0
1358,6011101113898,新規,0,2025-11-13,2025-11-13,株式会社Ｍｙｍｅ,,株式会社,東京都,新宿区,西新宿３丁目３番１３号西新宿水間ビル２Ｆ,,13,104,1600023,,,,,,,2025-11-13,1,,,,,マイミ,0
1365,6011701028926,新規,0,2025-11-13,2025-11-13,ワイエムシーデジタル株式会社,,株式会社,東京都,江戸川区,西小岩１丁目３０－１２パレドール小岩４０１,,13,123,1330057,,,,,,,2025-11-13,1,,,,,ワイエムシーデジタル,0
1366,6012401043785,新規,0,2025-11-13,2025-11-13,シマザキ株式会社,,株式会社,東京都,稲城市,東長沼２１５－１０,,13,225,2060802,,,,,,,2025-11-13,1,,,,,シマザキ,0
1368,6012705002487,新規,0,2025-11-13,2025-11-13,特定非営利活動法人むさしの地球村,,その他の設立登記法人,東京都,東村山市,廻田町２丁目１７番５の１０２号,,13,213,1890025,,,,,,,2025-11-13,1,,,,,ムサシノチキュウムラ,0
1372,6012801024352,新規,0,2025-11-13,2025-11-13,Ｒ’ｓＢａｓｅ株式会社,,株式会社,東京都,東大和市,奈良橋５丁目８００番地の３５,,13,220,2070031,,,,,,,2025-11-13,1,,,,,アールズベース,0
1373,6012803003924,新規,0,2025-11-13,2025-11-13,ＫＫＲ合同会社,,合同会社,東京都,日野市,大坂上４丁目６番地の８,,13,212,1910061,,,,,,,2025-11-13,1,,,,,ケーケーアール,0
1377,6013303007960,新規,0,2025-11-13,2025-11-13,奈奈合同会社,,合同会社,東京都,豊島区,池袋本町２丁目１３番１３号,,13,116,1700011,,,,,,,2025-11-13,1,,,,,ナナ,0
1383,6020001165727,新規,0,2025-11-13,2025-11-13,株式会社メルカフェ,,株式会社,神奈川県,横浜市中区,弁天通３丁目４１番地横浜エクセレントＩＩ５階５０３,00141508,14,104,2310007,,,,,,,2025-11-13,1,,,,,メルカフェ,0
1384,6020001165776,新規,0,2025-11-13,2025-11-13,株式会社フェアメーゲン,,株式会社,神奈川県,横浜市緑区,長津田みなみ台１丁目９番地１ライオンズ長津田マークスフォート４２３号,,14,113,2260018,,,,,,,2025-11-13,1,,,,,フェアメーゲン,0
1388,6020003029780,新規,0,2025-11-13,2025-11-13,合同会社ｍｏｍｏ,,合同会社,神奈川県,川崎市多摩区,西生田４丁目３－２１,,14,135,2140037,,,,,,,2025-11-13,1,,,,,モモ,0
1392,6021001086748,新規,0,2025-11-13,2025-11-13,大成企画株式会社,,株式会社,神奈川県,大和市,南林間７丁目２番１１号ロイヤルハイツ南林間１０２号,,14,213,2420006,,,,,,,2025-11-13,1,,,,,タイセイキカク,0
1393,6021003016769,新規,0,2025-11-13,2025-11-13,合同会社ＲＡＮＡＰＬＵＳ,,合同会社,神奈川県,厚木市,飯山南５丁目１０番１８号,,14,212,2430218,,,,,,,2025-11-13,1,,,,,ラナプラス,0
1397,6030001169660,新規,0,2025-11-13,2025-11-13,株式会社ＲＡＩＤＥＮエンジニアリング,,株式会社,埼玉県,鶴ヶ島市,大字藤金８８１番地１８,,11,241,3502206,,,,,,,2025-11-13,1,,,,,ライデンエンジニアリング,0
1402,6030003028047,新規,0,2025-11-13,2025-11-13,合同会社ＡＲコーポレーション,,合同会社,埼玉県,熊谷市,石原２丁目１４番地１,,11,202,3600816,,,,,,,2025-11-13,1,,,,,エーアールコーポレーション,0
1403,6030003028063,新規,0,2025-11-13,2025-11-13,合同会社ＴｏｒｃｈＭａｔｅ,,合同会社,埼玉県,上尾市,大字大谷本郷９０９番地１０,,11,219,3620044,,,,,,,2025-11-13,1,,,,,トーチメイト,0
1406,6040001141370,新規,0,2025-11-13,2025-11-13,株式会社富田,,株式会社,千葉県,千葉市中央区,登戸１丁目１５番２４号,,12,101,2600032,,,,,,,2025-11-13,1,,,,,トミタ,0
1410,6050001057582,新規,0,2025-11-13,2025-11-13,株式会社ピッコラータ,,株式会社,茨城県,つくばみらい市,絹の台１丁目１９－５,,08,235,3002436,,,,,,,2025-11-13,1,,,,,ピッコラータ,0
1415,6060001038763,新規,0,2025-11-13,2025-11-13,株式会社セリエコンチェルト,,株式会社,栃木県,大田原市,山の手１丁目７番７号,,09,210,3240051,,,,,,,2025-11-13,1,,,,,セリエコンチェルト,0
1418,6060003005844,新規,0,2025-11-13,2025-11-13,ｗａｋｕｗａｋｕ合同会社,,合同会社,栃木県,鹿沼市,千渡１６７５番地２９,,09,205,3220002,,,,,,,2025-11-13,1,,,,,ワクワク,0
1420,6070001043548,新規,0,2025-11-13,2025-11-13,翔建築株式会社,,株式会社,群馬県,藤岡市,本郷３８７番地１,,10,209,3750023,,,,,,,2025-11-13,1,,,,,ショウケンチク,0
1422,6080001027269,新規,0,2025-11-13,2025-11-13,株式会社ライフプラン,,株式会社,静岡県,焼津市,東小川６丁目１８番地の６,,22,212,4250035,,,,,,,2025-11-13,1,,,,,ライフプラン,0
1423,6080101025899,新規,0,2025-11-13,2025-11-13,小山タクシー株式会社,,株式会社,静岡県,駿東郡小山町,生土３番地の１,,22,344,4101303,,,,,,,2025-11-13,1,,,,,オヤマタクシー,0
1427,6100003008479,新規,0,2025-11-13,2025-11-13,合同会社ＡＣＤＩＶＥ,,合同会社,長野県,上田市,緑が丘３丁目１８番３２号,,20,203,3860022,,,,,,,2025-11-13,1,,,,,アグディブ,0
1443,6120001281877,新規,0,2025-11-13,2025-11-13,厚徳商事株式会社,,株式会社,大阪府,大阪市住之江区,御崎１丁目１１番１９－３１１号,,27,125,5590013,,,,,,,2025-11-13,1,,,,,コウトクショウジ,0
1444,6120001281927,新規,0,2025-11-13,2025-11-13,株式会社ｐａｓ　ａ　ｐａｓ,,株式会社,大阪府,大阪市住吉区,我孫子東２丁目１０番９号,,27,120,5580013,,,,,,,2025-11-13,1,,,,,パザパ,0
1445,6120001281935,新規,0,2025-11-13,2025-11-13,大和総合建設株式会社,,株式会社,大阪府,大阪市北区,梅田１丁目２番２号大阪駅前第２ビル１２－１２,,27,127,5300001,,,,,,,2025-11-13,1,,,,,ヤマトソウゴウケンセツ,0
1446,6120001281968,新規,0,2025-11-13,2025-11-13,株式会社ＭＳＴ,,株式会社,大阪府,大阪市城東区,今福東１丁目８番３０号,,27,118,5360002,,,,,,,2025-11-13,1,,,,,エムエスティー,0
1452,6120003031124,新規,0,2025-11-13,2025-11-13,合同会社Ｋ＆Ｒ,,合同会社,大阪府,大阪市中央区,東心斎橋１丁目４番地１号オリエンタル東心斎橋ビル７０５号室,,27,128,5420083,,,,,,,2025-11-13,1,,,,,ケイアンドアール,0
1457,6120103006851,新規,0,2025-11-13,2025-11-13,合同会社とりのわ,,合同会社,大阪府,阪南市,尾崎町７丁目２番１８棟５０４号,,27,232,5990201,,,,,,,2025-11-13,1,,,,,トリノワ,0
1458,6120105010083,新規,0,2025-11-13,2025-11-13,一般社団法人社会作業療法士協会,,その他の設立登記法人,大阪府,貝塚市,水間１５８番地,,27,208,5970104,,,,,,,2025-11-13,1,,,,,シャカイサギョウリョウホウシキョウカイ,0
1460,6120903005953,新規,0,2025-11-13,2025-11-13,合同会社ＷａｋｕＷａｋｕ,,合同会社,大阪府,箕面市,小野原東２丁目３番２２号,,27,220,5620031,,,,,,,2025-11-13,1,,,,,ワクワク,0
1461,6122001039867,新規,0,2025-11-13,2025-11-13,ＣＵＯＲＥ株式会社,,株式会社,大阪府,東大阪市,下小阪３丁目１０番１８号,,27,227,5770803,,,,,,,2025-11-13,1,,,,,クオーレ,0
1468,6140001140701,新規,0,2025-11-13,2025-11-13,株式会社愛,,株式会社,兵庫県,加古川市,東神吉町神吉２３７番地の３,,28,210,6750057,,,,,,,2025-11-13,1,,,,,アイ,0
1469,6140001140718,新規,0,2025-11-13,2025-11-13,Ｌ．Ｆ．Ｃ株式会社,,株式会社,兵庫県,姫路市,八代緑ケ丘町１３番２３号,,28,201,6700886,,,,,,,2025-11-13,1,,,,,エルエフシー,0
1470,6140001140726,新規,0,2025-11-13,2025-11-13,株式会社あした,,株式会社,兵庫県,尼崎市,上坂部３丁目３９番１１号,,28,202,6610979,,,,,,,2025-11-13,1,,,,,アシタ,0
1471,6160005011467,新規,0,2025-11-13,2025-11-13,一般社団法人Ｇｌｏｗ　ＷｉｎｇＳ,,その他の設立登記法人,滋賀県,長浜市,木尾町４９４番地,,25,203,5260265,,,,,,,2025-11-13,1,,,,,グローウィングス,0
1482,6180001169480,新規,0,2025-11-13,2025-11-13,１２３株式会社,,株式会社,愛知県,あま市,七宝町伊福新家西８４番地,,23,237,4970005,,,,,,,2025-11-13,1,,,,,イフミイ,0
1483,6180001169555,新規,0,2025-11-13,2025-11-13,Ｃａｎａｒｉａ株式会社,,株式会社,愛知県,東海市,中央町５丁目９番地,,23,222,4760013,,,,,,,2025-11-13,1,,,,,カナリア,0
1492,6180301040416,新規,0,2025-11-13,2025-11-13,ＮＪＣホールディングス株式会社,,株式会社,愛知県,豊橋市,吉川町４番地,,23,201,4418002,,,,,,,2025-11-13,1,,,,,エヌジェイシーホールディングス,0
1499,6200001044433,新規,0,2025-11-13,2025-11-13,Ｆｏｕｒ　Ｃｉｒｃｌｅｓ　Ｊａｐａｎ株式会社,,株式会社,岐阜県,高山市,上三之町２６,,21,203,5060846,,,,,,,2025-11-13,1,,,,,フォーサークルズジャパン,0
1501,6200003007140,新規,0,2025-11-13,2025-11-13,合同会社皆生,,合同会社,岐阜県,大垣市,南若森町４５５番地１１,,21,202,5030976,,,,,,,2025-11-13,1,,,,,カイセイ,0
1503,6210001020383,新規,0,2025-11-13,2025-11-13,株式会社安田商店,,株式会社,福井県,越前市,広瀬町第７８号５７番地の１,,18,209,9150872,,,,,,,2025-11-13,1,,,,,ヤスダショウテン,0
1516,6240001065764,新規,0,2025-11-13,2025-11-13,株式会社ＡＩＷ,,株式会社,広島県,広島市佐伯区,藤垂園５２番９号,,34,108,7315131,,,,,,,2025-11-13,1,,,,,エーアイダブル,0
1517,6240001065772,新規,0,2025-11-13,2025-11-13,ＡＤＶＡＮＣＥ株式会社,,株式会社,広島県,広島市安佐南区,大塚西１丁目５０番７号,,34,105,7313167,,,,,,,2025-11-13,1,,,,,アドバンス,0
1526,6290003017684,新規,0,2025-11-13,2025-11-13,合同会社イケおじ,,合同会社,福岡県,三潴郡大木町,大字前牟田７１８番地９,,40,522,8300406,,,,,,,2025-11-13,1,,,,,イケオジ,0
1527,6290003017692,新規,0,2025-11-13,2025-11-13,合同会社しらいし酒飯,,合同会社,福岡県,福岡市中央区,六本松４丁目１１－２６,,40,133,8100044,,,,,,,2025-11-13,1,,,,,シライシシュハン,0
1529,6310003005125,新規,0,2025-11-13,2025-11-13,合同会社Ａｎｄ　Ｔｏ,,合同会社,長崎県,長崎市,矢上町３番３５－２０１号,,42,201,8510133,,,,,,,2025-11-13,1,,,,,アンドトゥー,0
1530,6320001021437,新規,0,2025-11-13,2025-11-13,株式会社ミライド,,株式会社,大分県,日田市,大字庄手５０２番地１,,44,204,8770000,,,,,,,2025-11-13,1,,,,,ミライド,0
1533,6330001033745,新規,0,2025-11-13,2025-11-13,株式会社桜梅,,株式会社,熊本県,熊本市中央区,京町１丁目４番２４号,,43,101,8600078,,,,,,,2025-11-13,1,,,,,オウバイ,0
1538,6340003005015,新規,0,2025-11-13,2025-11-13,合同会社ソレアードエスペランサ,,合同会社,鹿児島県,鹿児島市,紫原５丁目１９番１２号エヴァーラスティングＫ３０２号,,46,201,8900082,,,,,,,2025-11-13,1,,,,,ソレアードエスペランサ,0
1539,6360001036027,新規,0,2025-11-13,2025-11-13,株式会社ホームクリエイト,,株式会社,沖縄県,宜野湾市,赤道２丁目２番１号２Ｆ,,47,205,9012205,,,,,,,2025-11-13,1,,,,,ホームクリエイト,0
1541,6360003015326,新規,0,2025-11-13,2025-11-13,ＡＩ　Ｔｒａｖｅｌ合同会社,,合同会社,沖縄県,那覇市,牧志２丁目１７－２７,,47,201,9000013,,,,,,,2025-11-13,1,,,,,エーアイトラベル,0
1543,6370001053228,新規,0,2025-11-13,2025-11-13,株式会社ゆきとみ商店,,株式会社,宮城県,大崎市,古川富長字山王１番地１,,04,215,9896266,,,,,,,2025-11-13,1,,,,,ユキトミショウテン,0
1544,6370003007363,新規,0,2025-11-13,2025-11-13,合同会社永井自動車,,合同会社,宮城県,石巻市,桃生町永井字観音下９５番地,,04,202,9860303,,,,,,,2025-11-13,1,,,,,ナガイジドウシャ,0
1546,6400001017229,新規,0,2025-11-13,2025-11-13,株式会社イカ王子,,株式会社,岩手県,宮古市,南町１３番２２号,,03,202,0270051,,,,,,,2025-11-13,1,,,,,イカオウジ,0
1558,6460003001076,新規,0,2025-11-13,2025-11-13,合同会社Ｔ．カンパニー,,合同会社,北海道,川上郡標茶町,字上オソツベツ原野基線４９番地３,,01,664,0882333,,,,,,,2025-11-13,1,,,,,ティーカンパニー,0
1559,6460101007776,新規,0,2025-11-13,2025-11-13,株式会社ＺＥＮ,,株式会社,北海道,帯広市,西十九条南５丁目６番６号,,01,207,0802469,,,,,,,2025-11-13,1,,,,,ゼン,0
1562,6470001020977,新規,0,2025-11-13,2025-11-13,Ｍｉｒａｉ　Ｃａｒｅ株式会社,,株式会社,香川県,三豊市,三野町下高瀬２２７１番地２,,37,208,7670032,,,,,,,2025-11-13,1,,,,,ミライケア,0
1565,6490005007011,新規,0,2025-11-13,2025-11-13,一般社団法人やまもも学園基金,,その他の設立登記法人,高知県,高知市,愛宕町１丁目１０番６号,,39,201,7800051,,,,,,,2025-11-13,1,,,,,ヤマモモガクエンキキン,0
1577,7010001260296,新規,0,2025-11-13,2025-11-13,Ｌｉｂｅｒｔｙ　ＮｅＸｕｓ株式会社,,株式会社,東京都,千代田区,内神田２丁目５－２信交会ビル２Ｆ,,13,101,1010047,,,,,,,2025-11-13,1,,,,,リバティーネクサス,0
1578,7010001260313,新規,0,2025-11-13,2025-11-13,インテグラル分割準備株式会社,,株式会社,東京都,千代田区,丸の内１丁目９番２号,,13,101,1000005,,,,,,,2025-11-13,1,,,,,インテグラルブンカツジュンビ,0
1579,7010001260321,新規,0,2025-11-13,2025-11-13,サマサマコミュニケーションズ株式会社,,株式会社,東京都,中央区,明石町１番２９－４１２号,,13,102,1040044,,,,,,,2025-11-13,1,,,,,サマサマコミュニケーションズ,0
1583,7010003049333,新規,0,2025-11-13,2025-11-13,Ｅｎｅｒｏｎｅ　Ｊａｐａｎ合同会社,,合同会社,東京都,千代田区,丸の内１丁目１１番１号パシフィックセンチュリープレイス丸の内１３Ｆ,,13,101,1000005,,,,,,,2025-11-13,1,,,,,エネワンジャパン,0
1588,7010403036501,新規,0,2025-11-13,2025-11-13,ｏｆｆｉｃｅＫＲ．ＬＬＣ合同会社,,合同会社,東京都,港区,赤坂７丁目６番１１－８０４号,,13,103,1070052,,,,,,,2025-11-13,1,,,,,オフィスケーアールドットエルエルシー,0
1589,7010403036600,新規,0,2025-11-13,2025-11-13,合同会社ワイズ,,合同会社,東京都,港区,南青山３丁目１番３６号青山丸竹ビル６Ｆ,,13,103,1070062,,,,,,,2025-11-13,1,,,,,ワイズ,0
1590,7010405024933,新規,0,2025-11-13,2025-11-13,Ｓｏｕｔｈ　Ｄｏｃｋ特定目的会社,,その他の設立登記法人,東京都,港区,西新橋１丁目２２番５号６階,,13,103,1050003,,,,,,,2025-11-13,1,,,,,サウスドック,0
1599,7010901058451,新規,0,2025-11-13,2025-11-13,株式会社Ｐｉｌｏｔｏｓ,,株式会社,東京都,世田谷区,三宿１丁目８番１０ライオンズマンション三宿４２４号,,13,112,1540005,,,,,,,2025-11-13,1,,,,,ピロトス,0
1600,7011001173463,新規,0,2025-11-13,2025-11-13,株式会社Ｃｈａｐｔｅｒ０,,株式会社,東京都,渋谷区,道玄坂１丁目１６番６号二葉ビル８ｂ,,13,113,1500043,,,,,,,2025-11-13,1,,,,,チャプターゼロ,0
1601,7011001173570,新規,0,2025-11-13,2025-11-13,株式会社バロックトレーディング,,株式会社,東京都,目黒区,青葉台４丁目７番７号,,13,110,1530042,,,,,,,2025-11-13,1,,,,,バロックトレーディング,0
1603,7011003022866,新規,0,2025-11-13,2025-11-13,合同会社ＴＯ,,合同会社,東京都,渋谷区,幡ヶ谷３丁目１２番２号,,13,113,1510072,,,,,,,2025-11-13,1,,,,,,0
1604,7011003022890,新規,0,2025-11-13,2025-11-13,合同会社双喜物産,,合同会社,東京都,渋谷区,恵比寿西２丁目４番８号ウィンド恵比寿ビル８Ｆ,,13,113,1500021,,,,,,,2025-11-13,1,,,,,ソウキブッサン,0
1612,7011503006781,新規,0,2025-11-13,2025-11-13,ＣｏｓｍｏＭａｒｔ合同会社,,合同会社,東京都,荒川区,南千住３丁目２７－２浅草ビル５０８,,13,118,1160003,,,,,,,2025-11-13,1,,,,,コスモマート,0
1614,7011701028917,新規,0,2025-11-13,2025-11-13,株式会社ほっとひと犬,,株式会社,東京都,江戸川区,瑞江４丁目４２番９号,,13,123,1320011,,,,,,,2025-11-13,1,,,,,ホットヒトイヌ,0
1615,7011701028925,新規,0,2025-11-13,2025-11-13,ペング株式会社,,株式会社,東京都,江戸川区,西葛西３丁目３番１３－３０６号バームハイツ西葛西,,13,123,1340088,,,,,,,2025-11-13,1,,,,,ペング,0
1618,7012401043801,新規,0,2025-11-13,2025-11-13,株式会社Ｗｅｌｌ　Ｐｉｎｅ,,株式会社,東京都,三鷹市,下連雀２丁目１６番１６号,,13,204,1810013,,,,,,,2025-11-13,1,,,,,ウェルパイン,0
1620,7012403007457,新規,0,2025-11-13,2025-11-13,合同会社ＥＴＥＲＮＡ,,合同会社,東京都,稲城市,向陽台４丁目３番地の２ビューステージ向陽台６０７号,,13,225,2060803,,,,,,,2025-11-13,1,,,,,エテルナ,0
1621,7012801024351,新規,0,2025-11-13,2025-11-13,株式会社ＯＺ,,株式会社,東京都,武蔵村山市,残堀４丁目５４番地の１４,,13,223,2080034,,,,,,,2025-11-13,1,,,,,オンス,0
1623,7013301055291,新規,0,2025-11-13,2025-11-13,株式会社Ｆ‐Ｓｔｙｌｅ,,株式会社,東京都,豊島区,池袋２丁目３９番１２号日神デュオステージ池袋１１０３,,13,116,1710014,,,,,,,2025-11-13,1,,,,,エフスタイル,0
1626,7020001165651,新規,0,2025-11-13,2025-11-13,株式会社右腕Ｐａｒｔｎｅｒ,,株式会社,神奈川県,横浜市青葉区,青葉台１丁目５番地４－３階３２号室,,14,117,2270062,,,,,,,2025-11-13,1,,,,,ミギウデパートナー,0
1627,7020001165692,新規,0,2025-11-13,2025-11-13,株式会社真鉄工,,株式会社,神奈川県,川崎市川崎区,浜町２丁目８番１２－１０２号アルカサル川崎,,14,131,2100851,,,,,,,2025-11-13,1,,,,,シンテッコウ,0
1634,7021001086747,新規,0,2025-11-13,2025-11-13,株式会社イズル・リゾート,,株式会社,神奈川県,鎌倉市,七里ガ浜東２丁目３２番５号,,14,204,2480025,,,,,,,2025-11-13,1,,,,,イズルリゾート,0
1636,7021003016776,新規,0,2025-11-13,2025-11-13,合同会社北鎌倉ＢＡＳＥ,,合同会社,神奈川県,鎌倉市,台５丁目８番５９号,,14,204,2470061,,,,,,,2025-11-13,1,,,,,キタカマクラベース,0
1640,7030001169676,新規,0,2025-11-13,2025-11-13,株式会社町田管理,,株式会社,埼玉県,さいたま市南区,文蔵３丁目１６番１２号,,11,108,3360025,,,,,,,2025-11-13,1,,,,,マチダカンリ,0
1641,7030001169692,新規,0,2025-11-13,2025-11-13,株式会社ハヤダイ,,株式会社,埼玉県,戸田市,美女木８丁目１９番地の２,,11,224,3350031,,,,,,,2025-11-13,1,,,,,ハヤダイ,0
1642,7030003028062,新規,0,2025-11-13,2025-11-13,合同会社ｃｈｅｂｌｅ,,合同会社,埼玉県,川口市,幸町２丁目２番２４号,,11,203,3320016,,,,,,,2025-11-13,1,,,,,シェブル,0
1649,7040005022938,新規,0,2025-11-13,2025-11-13,一般社団法人スポーツ・空手道コーチングカレッジ,,その他の設立登記法人,千葉県,柏市,光ケ丘４丁目１１番１０号,,12,217,2770065,,,,,,,2025-11-13,1,,,,,スポーツカラテドウコーチングカレッジ,0
1651,7050001057549,新規,0,2025-11-13,2025-11-13,ＭＳＰ株式会社,,株式会社,茨城県,水戸市,泉町２丁目２番１１号大谷ビル２階,,08,201,3100026,,,,,,,2025-11-13,1,,,,,エムエスピーホールディングス,0
1652,7050001057598,新規,0,2025-11-13,2025-11-13,Ｍ‐Ｎｅｘｕｓホールディングス株式会社,,株式会社,茨城県,古河市,小堤２０２６番地２,,08,204,3060231,,,,,,,2025-11-13,1,,,,,エムネクサスホールディングス,0
1653,7050005013721,新規,0,2025-11-13,2025-11-13,一般社団法人つくばＳＴＲＩＸ,,その他の設立登記法人,茨城県,つくば市,みどりの２丁目２番地４９,,08,220,3050881,,,,,,,2025-11-13,1,,,,,ツクバストリクス,0
1656,7060001038762,新規,0,2025-11-13,2025-11-13,株式会社ａｍａｙａコーポレーション,,株式会社,栃木県,宇都宮市,駒生町３３６０番地３４,,09,201,3200065,,,,,,,2025-11-13,1,,,,,アマヤコーポレーション,0
1659,7060003005843,新規,0,2025-11-13,2025-11-13,レオンスマイル合同会社,,合同会社,栃木県,小山市,駅南町６丁目７番１７号,,09,208,3230822,,,,,,,2025-11-13,1,,,,,レオンスマイル,0
1660,7070001043555,新規,0,2025-11-13,2025-11-13,株式会社ＣＯＣＯＲＯコンサルティング,,株式会社,群馬県,北群馬郡吉岡町,大字下野田１０６９番地５,,10,345,3703608,,,,,,,2025-11-13,1,,,,,,0
1661,7070003006188,新規,0,2025-11-13,2025-11-13,合同会社Ｌ‐ＳＴＹＬＥ,,合同会社,群馬県,高崎市,中尾町１２８３番地１ハーモニー１０３号,,10,202,3700001,,,,,,,2025-11-13,1,,,,,,0
1678,7120003031172,新規,0,2025-11-13,2025-11-13,合同会社奈央右衛門,,合同会社,大阪府,大阪市西区,立売堀１丁目９‐１３エアル本町ビル５Ｂ,,27,106,5500012,,,,,,,2025-11-13,1,,,,,ナオエモン,0
1681,7120101072770,新規,0,2025-11-13,2025-11-13,株式会社きたっち,,株式会社,大阪府,和泉市,青葉台２丁目２４番２３号,,27,219,5941153,,,,,,,2025-11-13,1,,,,,キタッチ,0
1686,7122001039908,新規,0,2025-11-13,2025-11-13,ｈｏｒｉｚｏｎ株式会社,,株式会社,大阪府,八尾市,南植松町４丁目１４番地,,27,212,5810091,,,,,,,2025-11-13,1,,,,,ホライズン,0
1695,7130003010919,新規,0,2025-11-13,2025-11-13,合同会社万映舎,,合同会社,京都府,京都市西京区,上桂前田町５０－１桂グランドハイツ１０７,,26,111,6158223,,,,,,,2025-11-13,1,,,,,バンエイシャ,0
1697,7140001140709,新規,0,2025-11-13,2025-11-13,株式会社Ｙ’ｓ,,株式会社,兵庫県,神戸市兵庫区,笠松通７丁目３番２０号,,28,105,6520864,,,,,,,2025-11-13,1,,,,,ワイズ,0
1698,7140001140717,新規,0,2025-11-13,2025-11-13,株式会社ＮＢＩ牧場,,株式会社,兵庫県,神戸市東灘区,住吉浜町１９番地の５,,28,101,6580042,,,,,,,2025-11-13,1,,,,,エヌビーアイボクジョウ,0
1699,7140003022814,新規,0,2025-11-13,2025-11-13,合同会社Ｌｉｎｋ　Ｒｏｏｔｓ,,合同会社,兵庫県,神戸市中央区,磯辺通１丁目１番１８号カサベラ国際プラザビル７０７号室,,28,110,6510084,,,,,,,2025-11-13,1,,,,,リンクルーツ,0
1700,7150001028548,新規,0,2025-11-13,2025-11-13,世界整復株式会社,,株式会社,奈良県,高市郡明日香村,大字雷１３８番地の１,,29,402,6340108,,,,,,,2025-11-13,1,,,,,セカイセイフク,0
1702,7160001027219,新規,0,2025-11-13,2025-11-13,株式会社ｅコネクト,,株式会社,滋賀県,栗東市,小平井１丁目１１番２８号,,25,208,5203034,,,,,,,2025-11-13,1,,,,,イーコネクト,0
1703,7160003003647,新規,0,2025-11-13,2025-11-13,合同会社奏,,合同会社,滋賀県,大津市,弥生町４番５号,,25,201,5200115,,,,,,,2025-11-13,1,,,,,カナデ,0
1711,7180001169488,新規,0,2025-11-13,2025-11-13,株式会社ダイセイ,,株式会社,愛知県,一宮市,伝法寺１１丁目６番地７,,23,203,4910828,,,,,,,2025-11-13,1,,,,,ダイセイ,0
1712,7180001169505,新規,0,2025-11-13,2025-11-13,株式会社ＴＵＢＡＭＥ,,株式会社,愛知県,名古屋市緑区,潮見が丘３丁目１番地の３６,,23,114,4580037,,,,,,,2025-11-13,1,,,,,ツバメ,0
1716,7180003029335,新規,0,2025-11-13,2025-11-13,合同会社幸繁,,合同会社,愛知県,稲沢市,井之口大宮町９６番地１,,23,220,4928152,,,,,,,2025-11-13,1,,,,,コウハン,0
1717,7180003029351,新規,0,2025-11-13,2025-11-13,合同会社テラ企画,,合同会社,愛知県,名古屋市北区,辻本通３丁目１８番地志賀本通シティハウス１１０２,,23,103,4620861,,,,,,,2025-11-13,1,,,,,テラキタク,0
1721,7180301040407,新規,0,2025-11-13,2025-11-13,株式会社ｉｋｉ　ｎｅｘｔ不動産,,株式会社,愛知県,安城市,昭和町１９番地３７,,23,212,4460063,,,,,,,2025-11-13,1,,,,,イキネクストフドウサン,0
1722,7180301040415,新規,0,2025-11-13,2025-11-13,長田装建株式会社,,株式会社,愛知県,刈谷市,東境町焼田３０番地６マンション豊泉１Ｃ,,23,210,4480007,,,,,,,2025-11-13,1,,,,,ナガタソウケン,0
1724,7190001032694,新規,0,2025-11-13,2025-11-13,株式会社福家,,株式会社,三重県,桑名市,大字星川７４２番地１,,24,205,5110912,,,,,,,2025-11-13,1,,,,,フクヤ,0
1727,7200001044416,新規,0,2025-11-13,2025-11-13,おおのでんき株式会社,,株式会社,岐阜県,岐阜市,西改田字若宮１番地,,21,201,5011162,,,,,,,2025-11-13,1,,,,,オオノデンキ,0
1739,7260001040723,新規,0,2025-11-13,2025-11-13,エースリンク株式会社,,株式会社,岡山県,岡山市中区,江並１１０番地２,,33,102,7028004,,,,,,,2025-11-13,1,,,,,エースリンク,0
1740,7270003001805,新規,0,2025-11-13,2025-11-13,ＰＬＯＴ合同会社,,合同会社,鳥取県,境港市,上道町３７０５番地,,31,204,6840033,,,,,,,2025-11-13,1,,,,,プロット,0
1744,7290001112164,新規,0,2025-11-13,2025-11-13,ピーラボ株式会社,,株式会社,福岡県,小郡市,三沢５０１１－１２１,,40,216,8380106,,,,,,,2025-11-13,1,,,,,ピーラボ,0
1747,7290003017700,新規,0,2025-11-13,2025-11-13,合同会社ＬＡＳＣＡ,,合同会社,福岡県,久留米市,御井旗崎１丁目４番１０－１０１号,,40,203,8390841,,,,,,,2025-11-13,1,,,,,ラスカ,0
1748,7290003017733,新規,0,2025-11-13,2025-11-13,合同会社ライトソフト,,合同会社,福岡県,福岡市中央区,天神２丁目２番１２号Ｔ＆Ｊビルディング７Ｆ,,40,133,8100001,,,,,,,2025-11-13,1,,,,,ライトソフト,0
1749,7330001033744,新規,0,2025-11-13,2025-11-13,株式会社山弓,,株式会社,熊本県,熊本市中央区,京町１丁目４番２４号,,43,101,8600078,,,,,,,2025-11-13,1,,,,,サンキュウ,0
1756,7360001036026,新規,0,2025-11-13,2025-11-13,株式会社トラストウェルスパートナーズ,,株式会社,沖縄県,那覇市,古波蔵１丁目７番２－１０２号,,47,201,9000024,,,,,,,2025-11-13,1,,,,,トラストウェルスパートナーズ,0
1757,7360001036034,新規,0,2025-11-13,2025-11-13,株式会社大八汽船,,株式会社,沖縄県,宮古島市,伊良部字池間添２３５番地１,,47,214,9060502,,,,,,,2025-11-13,1,,,,,ダイハチキセン,0
1760,7380001035694,新規,0,2025-11-13,2025-11-13,株式会社エターナルグチエイト,,株式会社,福島県,郡山市,横塚１丁目１０番４号,,07,203,9638803,,,,,,,2025-11-13,1,,,,,エターナルグチエイト,0
1762,7400001017228,新規,0,2025-11-13,2025-11-13,株式会社ＹＮＭ　Ｍｅｄｉｃａｌ　Ｐｒｏｊｅｃｔ,,株式会社,岩手県,盛岡市,中央通３丁目１６番３－１００１号,,03,201,0200021,,,,,,,2025-11-13,1,,,,,ワイエヌエムメディカルプロジェクト,0
1768,7430001095618,新規,0,2025-11-13,2025-11-13,株式会社メイプルパワーホールディングス,,株式会社,北海道,札幌市白石区,南郷通１８丁目南４番１６号大光壱番館３Ｆ,,01,104,0030022,,,,,,,2025-11-13,1,,,,,メイプルパワーホールディングス,0
1769,7430001095667,新規,0,2025-11-13,2025-11-13,株式会社キャッチアップカンパニー,,株式会社,北海道,札幌市北区,拓北一条１丁目１番１号,,01,102,0028061,,,,,,,2025-11-13,1,,,,,キャッチアップカンパニー,0
1774,7460101007775,新規,0,2025-11-13,2025-11-13,株式会社焼肉亭,,株式会社,北海道,足寄郡足寄町,南二条２丁目４番地,,01,647,0893712,,,,,,,2025-11-13,1,,,,,ヤキニクテイ,0
1780,7480001013005,新規,0,2025-11-13,2025-11-13,株式会社ＬＩＮＫＨＯＮＥＹ,,株式会社,徳島県,徳島市,末広４丁目７番３号,,36,201,7700866,,,,,,,2025-11-13,1,,,,,リンクハニー,0
1793,8010001260048,新規,0,2025-11-13,2025-11-13,Ｎｏｉｓｅｔｔｅ株式会社,,株式会社,東京都,中央区,日本橋浜町２丁目１５－５－２０１,,13,102,1030007,,,,,,,2025-11-13,1,,,,,ノアゼット,0
1794,8010001260238,新規,0,2025-11-13,2025-11-13,株式会社プラボード管理,,株式会社,東京都,千代田区,平河町１丁目９番１－７０３号,,13,101,1020093,,,,,,,2025-11-13,1,,,,,プラボードカンリ,0
1795,8010001260279,新規,0,2025-11-13,2025-11-13,Ｙ’ｓ　Ｅｎｒｉｃｈｍｅｎｔ　Ｓｅｒｖｉｃｅｓ株式会社,,株式会社,東京都,中央区,八丁堀２丁目２８番６号,,13,102,1040032,,,,,,,2025-11-13,1,,,,,ワイズエンリッチメントサービス,0
1796,8010001260287,新規,0,2025-11-13,2025-11-13,株式会社郁山,,株式会社,東京都,千代田区,神田佐久間町３丁目３７番地２１山本ビル５階,,13,101,1010025,,,,,,,2025-11-13,1,,,,,イクヤマ,0
1797,8010003049381,新規,0,2025-11-13,2025-11-13,ホワイト・オルツ合同会社,,合同会社,東京都,千代田区,神田神保町２丁目１０－３１ＩＷビル１Ｆ,,13,101,1010051,,,,,,,2025-11-13,1,,,,,ホワイトオルツ,0
1798,8010005040933,新規,0,2025-11-13,2025-11-13,一般社団法人アルギン酸研究会,,その他の設立登記法人,東京都,中央区,八重洲２丁目１番１号,,13,102,1040028,,,,,,,2025-11-13,1,,,,,アルギンサンケンキュウカイ,0
1800,8010101016960,新規,0,2025-11-13,2025-11-13,Ｎｉｃｈｉｗａ株式会社,,株式会社,東京都,八王子市,明神町４丁目６番１号,,13,201,1920046,,,,,,,2025-11-13,1,,,,,ニチワ,0
1801,8010103002694,新規,0,2025-11-13,2025-11-13,ボモリ合同会社,,合同会社,東京都,八王子市,寺町４３－９中銀八王子マンシオン２０２号室,,13,201,1920073,,,,,,,2025-11-13,1,,,,,ボモリ,0
1810,8010401194341,新規,0,2025-11-13,2025-11-13,ＹＵＭＥＩ株式会社,,株式会社,東京都,港区,白金６丁目１６番２５－２７０９号,,13,103,1080072,,,,,,,2025-11-13,1,,,,,ユメイ,0
1811,8010401194382,新規,0,2025-11-13,2025-11-13,株式会社ＫＳＭ,,株式会社,東京都,港区,六本木５丁目１３－９－５０９,,13,103,1060032,,,,,,,2025-11-13,1,,,,,ケーエスエム,0
1812,8010401194399,新規,0,2025-11-13,2025-11-13,株式会社Ｅｍｐｏｏｌ,,株式会社,東京都,港区,虎ノ門４丁目１番３４号,,13,103,1050001,,,,,,,2025-11-13,1,,,,,エンプール,0
1813,8010401194515,新規,0,2025-11-13,2025-11-13,ＪＥＬＬＹ　ＣＯＲＥ株式会社,,株式会社,東京都,港区,北青山１丁目３－３三橋ビル３階,,13,103,1070061,,,,,,,2025-11-13,1,,,,,ジェリーコア,0
1819,8010405024924,新規,0,2025-11-13,2025-11-13,一般社団法人日本経営改善協働機構,,その他の設立登記法人,東京都,港区,南青山３丁目１番３６号青山丸竹ビル６Ｆ,,13,103,1070062,,,,,,,2025-11-13,1,,,,,ニホンケイエイカイゼンキョウドウキコウ,0
1820,8010405025022,新規,0,2025-11-13,2025-11-13,一般社団法人ヘルスケアにいがたファンド,,その他の設立登記法人,東京都,港区,元赤坂１丁目１番７－１２０９号株式会社赤坂国際会計内,,13,103,1070051,,,,,,,2025-11-13,1,,,,,ヘルスケアニイガタファンド,0
1822,8010501054973,新規,0,2025-11-13,2025-11-13,澤栄株式会社,,株式会社,東京都,台東区,柳橋１丁目２－１２－５階ＡＢＳ－Ｅ－６号,,13,106,1110052,,,,,,,2025-11-13,1,,,,,サワエ,0
1833,8010901058450,新規,0,2025-11-13,2025-11-13,株式会社ＺＥＲＯ　ＯＮＥ,,株式会社,東京都,世田谷区,南烏山３丁目１２番１号テラス棟８１５号室,,13,112,1570062,,,,,,,2025-11-13,1,,,,,ゼロワン,0
1834,8010901058459,新規,0,2025-11-13,2025-11-13,株式会社ＪＴＳ,,株式会社,東京都,世田谷区,用賀２丁目３２番２号,,13,112,1580097,,,,,,,2025-11-13,1,,,,,ジェイティーエス,0
1840,8011001173446,新規,0,2025-11-13,2025-11-13,株式会社ｄｏｔｄｏｔ,,株式会社,東京都,渋谷区,恵比寿西２丁目４番８号ウィンド恵比寿ビル８Ｆ,,13,113,1500021,,,,,,,2025-11-13,1,,,,,ドットドット,0
1841,8011001173470,新規,0,2025-11-13,2025-11-13,ダイナミックマッププラットフォームコンサルタンツ株式会社,,株式会社,東京都,渋谷区,渋谷２丁目１２番４号,,13,113,1500002,,,,,,,2025-11-13,1,,,,,ダイナミックマッププラットフォームコンサルタンツ,0
1842,8011001173727,新規,0,2025-11-13,2025-11-13,株式会社エヌプラスワン,,株式会社,東京都,目黒区,八雲５丁目３番８号,,13,110,1520023,,,,,,,2025-11-13,1,,,,,エヌプラスワン,0
1848,8011101113459,新規,0,2025-11-13,2025-11-13,Ｃａｃｔｉｘ株式会社,,株式会社,東京都,新宿区,西新宿３丁目５－１２－２Ｆ,,13,104,1600023,,,,,,,2025-11-13,1,,,,,カクティクス,0
1849,8011101113855,新規,0,2025-11-13,2025-11-13,株式会社テザラト,,株式会社,東京都,新宿区,百人町２丁目５－８料研ビル１Ａ,,13,104,1690073,,,,,,,2025-11-13,1,,,,,テザラト,0
1850,8011103016684,新規,0,2025-11-13,2025-11-13,ＢＹＵＬＢＩＴ合同会社,,合同会社,東京都,新宿区,大久保２丁目１番８号９０Ａ,,13,104,1690072,,,,,,,2025-11-13,1,,,,,ビョルビ,0
1853,8011303005768,新規,0,2025-11-13,2025-11-13,シロヤギｂｎｂ合同会社,,合同会社,東京都,杉並区,高円寺南５丁目２１―７―４０６,,13,115,1660003,,,,,,,2025-11-13,1,,,,,シロヤギビーアンドビー,0
1856,8011503006780,新規,0,2025-11-13,2025-11-13,合同会社ＢＩＪ,,合同会社,東京都,荒川区,町屋１丁目２１番１４号,,13,118,1160001,,,,,,,2025-11-13,1,,,,,ビーアイジェイ,0
1857,8011601029163,新規,0,2025-11-13,2025-11-13,株式会社菊池,,株式会社,東京都,練馬区,富士見台４丁目２３番２１号,,13,120,1770034,,,,,,,2025-11-13,1,,,,,キクチ,0
1859,8011701028916,新規,0,2025-11-13,2025-11-13,株式会社ＬＧＣ,,株式会社,東京都,江戸川区,西葛西６丁目２３番１５－２０３号,,13,123,1340088,,,,,,,2025-11-13,1,,,,,エルジーシー,0
1861,8012403007456,新規,0,2025-11-13,2025-11-13,合同会社Ｃ　Ｃｈｏｒｄ,,合同会社,東京都,三鷹市,下連雀７丁目７－１４－４１８,,13,204,1810013,,,,,,,2025-11-13,1,,,,,シーコード,0
1864,8012803003922,新規,0,2025-11-13,2025-11-13,合同会社ＴＨＥ　ＯＮＥ,,合同会社,東京都,国分寺市,高木町１丁目１０番地１２５,,13,214,1850036,,,,,,,2025-11-13,1,,,,,ザワン,0
1870,8020001165790,新規,0,2025-11-13,2025-11-13,株式会社アルベロ,,株式会社,神奈川県,横浜市緑区,白山３丁目１１番２２－２６号,,14,113,2260006,,,,,,,2025-11-13,1,,,,,アルベロ,0
1871,8020001165799,新規,0,2025-11-13,2025-11-13,株式会社Ｋ＆Ｆ,,株式会社,神奈川県,横浜市磯子区,磯子３丁目１３番Ｉ－８０２号,,14,107,2350016,,,,,,,2025-11-13,1,,,,,ケイアンドエフ,0
1875,8021001086754,新規,0,2025-11-13,2025-11-13,ベスプラ株式会社,,株式会社,神奈川県,厚木市,金田１１４１番地３,,14,212,2430807,,,,,,,2025-11-13,1,,,,,ベスプラ,0
1876,8021001086770,新規,0,2025-11-13,2025-11-13,株式会社リモア建築設計,,株式会社,神奈川県,藤沢市,藤沢９９１番３６,,14,205,2510052,,,,,,,2025-11-13,1,,,,,リモアケンチクセッケイ,0
1892,8040001141352,新規,0,2025-11-13,2025-11-13,株式会社採用ＢＡＳＥ,,株式会社,千葉県,松戸市,三ケ月１３９８－２,,12,207,2700026,,,,,,,2025-11-13,1,,,,,サイヨウベース,0
1902,8060003005842,新規,0,2025-11-13,2025-11-13,ＭＵＧＨＡＬ　ＴＲＡＤＩＮＧ合同会社,,合同会社,栃木県,栃木市,岩舟町新里１３０３番地２,,09,203,3294316,,,,,,,2025-11-13,1,,,,,ムガルトレーディング,0
1903,8070001043554,新規,0,2025-11-13,2025-11-13,群馬ダルマ製造販売株式会社,,株式会社,群馬県,高崎市,下豊岡町３３１番地,,10,202,3700873,,,,,,,2025-11-13,1,,,,,グンマダルマセイゾウハンバイ,0
1906,8080001027267,新規,0,2025-11-13,2025-11-13,株式会社雷強ビジネス,,株式会社,静岡県,焼津市,下江留２６番地,,22,212,4210218,,,,,,,2025-11-13,1,,,,,ライキョウビジネス,0
1928,8120001281628,新規,0,2025-11-13,2025-11-13,唐和造園株式会社,,株式会社,大阪府,大阪市浪速区,大国２丁目１５番１３号,,27,111,5560014,,,,,,,2025-11-13,1,,,,,トウワゾウエン,0
1934,8120003031147,新規,0,2025-11-13,2025-11-13,合同会社Ｎａｂｉａ,,合同会社,大阪府,大阪市北区,梅田１丁目２－２大阪駅前第２ビル１２－１２,,27,127,5300001,,,,,,,2025-11-13,1,,,,,ナビア,0
1935,8120003031205,新規,0,2025-11-13,2025-11-13,合同会社近藤商事,,合同会社,大阪府,大阪市中央区,船場中央２丁目３－６船場センタービル６号館２階２２０号室,,27,128,5410055,,,,,,,2025-11-13,1,,,,,コンドウショウジ,0
1936,8120101072778,新規,0,2025-11-13,2025-11-13,株式会社ＣＢＡ,,株式会社,大阪府,大阪狭山市,半田１丁目６１８－１宮崎ビル２Ｆ,,27,231,5890011,,,,,,,2025-11-13,1,,,,,シービーエー,0
1937,8120101072794,新規,0,2025-11-13,2025-11-13,株式会社リンクストリーム,,株式会社,大阪府,羽曳野市,西浦４丁目４番８号,,27,222,5830861,,,,,,,2025-11-13,1,,,,,リンクストリーム,0
1939,8120901051782,新規,0,2025-11-13,2025-11-13,株式会社ふわり,,株式会社,大阪府,茨木市,真砂３丁目１１番６号の２,,27,211,5670851,,,,,,,2025-11-13,1,,,,,フワリ,0
1941,8120905006808,新規,0,2025-11-13,2025-11-13,一般社団法人日本眼科紀要会,,その他の設立登記法人,大阪府,茨木市,美穂ケ丘３番６－３０２号,,27,211,5670047,,,,,,,2025-11-13,1,,,,,ニホンガンカキヨウカイ,0
1948,8130001081011,新規,0,2025-11-13,2025-11-13,株式会社Ｒｉｒｅ,,株式会社,京都府,京都市東山区,大和大路通四条上る二筋目東入末吉町８８番地３サニービル２階Ｂ号室,,26,105,6050000,,,,,,,2025-11-13,1,,,,,リル,0
1949,8130005017515,新規,0,2025-11-13,2025-11-13,一般社団法人京都大学呼吸器外科支援交流センター,,その他の設立登記法人,京都府,京都市左京区,聖護院川原町５４番地,,26,103,6068397,,,,,,,2025-11-13,1,,,,,キョウトダイガクコキュウキゲカシエンコウリュウセンター,0
1951,8140001140674,新規,0,2025-11-13,2025-11-13,株式会社リツメン神戸,,株式会社,兵庫県,神戸市東灘区,魚崎北町１丁目５番１４号２Ｆ,,28,101,6580082,,,,,,,2025-11-13,1,,,,,リツメンコウベ,0
1952,8140001140757,新規,0,2025-11-13,2025-11-13,株式会社Ｖａｎ　Ｐｒｏｔｅｃｔ,,株式会社,兵庫県,神戸市灘区,城内通４丁目４番５－１０２号,,28,102,6570836,,,,,,,2025-11-13,1,,,,,ヴァンプロテクト,0
1958,8160001027218,新規,0,2025-11-13,2025-11-13,株式会社カイザ,,株式会社,滋賀県,大津市,松が丘１丁目１０番８号,,25,201,5202102,,,,,,,2025-11-13,1,,,,,カイザ,0
1965,8180001169487,新規,0,2025-11-13,2025-11-13,株式会社グレイスコート,,株式会社,愛知県,清須市,土田郷上切１５番地,,23,233,4520945,,,,,,,2025-11-13,1,,,,,グレイスコート,0
1966,8180001169495,新規,0,2025-11-13,2025-11-13,株式会社くすのえ,,株式会社,愛知県,名古屋市中村区,稲葉地町５丁目８９番地の１,,23,105,4530841,,,,,,,2025-11-13,1,,,,,クスノエ,0
1971,8180003029350,新規,0,2025-11-13,2025-11-13,合同会社ＮＡＲＲＡＣＴ,,合同会社,愛知県,名古屋市守山区,西島町１３番３号－１,,23,113,4630015,,,,,,,2025-11-13,1,,,,,ナラクト,0
1972,8180003029367,新規,0,2025-11-13,2025-11-13,合同会社里安,,合同会社,愛知県,名古屋市守山区,大森１丁目１２０４番地,,23,113,4630021,,,,,,,2025-11-13,1,,,,,リアン,0
1976,8180301040406,新規,0,2025-11-13,2025-11-13,株式会社フォトアイズ,,株式会社,愛知県,岡崎市,庄司田３丁目９番地１５,,23,202,4440821,,,,,,,2025-11-13,1,,,,,フォトアイズ,0
1977,8180301040414,新規,0,2025-11-13,2025-11-13,株式会社テクノクリエイト,,株式会社,愛知県,高浜市,八幡町６丁目１０番地４９,,23,227,4441302,,,,,,,2025-11-13,1,,,,,テクノクリエイト,0
1979,8190001032685,新規,0,2025-11-13,2025-11-13,株式会社ＬＶＬ,,株式会社,三重県,度会郡南伊勢町,東宮３０２３,,24,472,5161309,,,,,,,2025-11-13,1,,,,,エルブイエル,0
1981,8200001044415,新規,0,2025-11-13,2025-11-13,カシミヤ紡績株式会社,,株式会社,岐阜県,郡上市,八幡町中坪３丁目３番地２６,,21,219,5014211,,,,,,,2025-11-13,1,,,,,カシミヤボウセキ,0
1985,8210001020381,新規,0,2025-11-13,2025-11-13,株式会社多幸商会,,株式会社,福井県,越前市,下平吹町第２０号４６番地,,18,209,9150855,,,,,,,2025-11-13,1,,,,,タコウショウカイ,0
1988,8230003002533,新規,0,2025-11-13,2025-11-13,木沢商事合同会社,,合同会社,富山県,富山市,五福４１７８番地１０カレッジハイツレインボウ１－３号室,,16,201,9300887,,,,,,,2025-11-13,1,,,,,キザワショウジ,0
1991,8240001065787,新規,0,2025-11-13,2025-11-13,ＡＩ　ｔｏ　ｓｕｐｐｏｒｔ株式会社,,株式会社,広島県,広島市中区,大手町１丁目１‐２０相生橋ビル７階Ａ号室,,34,101,7300051,,,,,,,2025-11-13,1,,,,,エーアイトゥサポート,0
1995,8260001040730,新規,0,2025-11-13,2025-11-13,株式会社ｚｅｒｏ,,株式会社,岡山県,岡山市中区,江崎６４－３,,33,102,7028005,,,,,,,2025-11-13,1,,,,,ゼロ,0
1996,8260001040739,新規,0,2025-11-13,2025-11-13,株式会社週休七日,,株式会社,岡山県,瀬戸内市,長船町西須恵４９２番地,,33,212,7014263,,,,,,,2025-11-13,1,,,,,シュウキュウナノカ,0
2008,8320003004818,新規,0,2025-11-13,2025-11-13,キラキラコーチ合同会社,,合同会社,大分県,佐伯市,新女島２丁目６９５２番地４,,44,205,8760824,,,,,,,2025-11-13,1,,,,,キラキラコーチ,0
2010,8330003011318,新規,0,2025-11-13,2025-11-13,ＲｅｈａｒｍｏＭａｎａｇｅｍｅｎｔ合同会社,,合同会社,熊本県,熊本市南区,富合町杉島５１－２,,43,104,8614142,,,,,,,2025-11-13,1,,,,,リハルモマネジメント,0
2011,8340003005013,新規,0,2025-11-13,2025-11-13,合同会社ひなたぼっこ,,合同会社,鹿児島県,鹿児島市,易居町１０番１６号（アクアストリート１０・６０３号）,,46,201,8920815,,,,,,,2025-11-13,1,,,,,ヒナタボッコ,0
2012,8340005009920,新規,0,2025-11-13,2025-11-13,医療法人幸希会,,その他の設立登記法人,鹿児島県,鹿児島市,田上３丁目１０－２－２０４,,46,201,8900034,,,,,,,2025-11-13,1,,,,,コウキカイ,0
2016,8370001053201,新規,0,2025-11-13,2025-11-13,株式会社ＭＵＳＨＷＯＲＫ,,株式会社,宮城県,仙台市青葉区,立町１６－１６ラ・フォンテ立町３０５,,04,101,9800822,,,,,,,2025-11-13,1,,,,,マッシュワーク,0
2017,8370005011023,新規,0,2025-11-13,2025-11-13,一般社団法人ベースボールアカデミー,,その他の設立登記法人,宮城県,塩竈市,貞山通１丁目２－４,,04,203,9850011,,,,,,,2025-11-13,1,,,,,ベースボールアカデミー,0
2023,8400005008528,新規,0,2025-11-13,2025-11-13,一般社団法人釜石スクラムメディカルネット,,その他の設立登記法人,岩手県,釜石市,小佐野町４丁目３番７号,,03,211,0260052,,,,,,,2025-11-13,1,,,,,カマイシスクラムメディカルネット,0
2030,8440003001729,新規,0,2025-11-13,2025-11-13,合同会社ＷＥＬＩＮＡ,,合同会社,北海道,亀田郡七飯町,字中野９３番地１０,,01,337,0411131,,,,,,,2025-11-13,1,,,,,ウェリナ,0
2035,8470001020975,新規,0,2025-11-13,2025-11-13,株式会社明進,,株式会社,香川県,坂出市,林田町２２４４番地７,,37,203,7620012,,,,,,,2025-11-13,1,,,,,メイシン,0
2038,8700150132928,新規,0,2025-11-13,2025-11-13,ＴＡＩＳＯ　ＬＡＮＫＡ　ＰＲＩＶＡＴＥ　ＬＩＭＩＴＥＤ,,外国会社等,神奈川県,秦野市,南矢名３３０－２コーポサンサンＡ－２０６,,14,211,2570003,スリランカ民主社会主義共和国、キャンディ、アクラナ、ブルゴハテンナ３１７／Ｄ号,,,,,,2025-11-13,1,,,,,タイソランカプライベツトリミテツド,0
2055,9010001260030,新規,0,2025-11-13,2025-11-13,株式会社ツバメ・ステーション,,株式会社,東京都,千代田区,大手町１丁目５番１号大手町ファーストスクエアイーストタワー４階,,13,101,1000004,,,,,,,2025-11-13,1,,,,,ツバメステーション,0
2056,9010001260253,新規,0,2025-11-13,2025-11-13,株式会社エンサルタ,,株式会社,東京都,千代田区,神田須田町２丁目６番地１坂下ビル２階,,13,101,1010041,,,,,,,2025-11-13,1,,,,,エンサルタ,0
2057,9010001260294,新規,0,2025-11-13,2025-11-13,株式会社ＹＭ,,株式会社,東京都,中央区,京橋１丁目１番１０号,,13,102,1040031,,,,,,,2025-11-13,1,,,,,ワイム,0
2059,9010005040949,新規,0,2025-11-13,2025-11-13,ソーン一般社団法人,,その他の設立登記法人,東京都,千代田区,丸の内１丁目４番１号東京共同会計事務所内,,13,101,1000005,,,,,,,2025-11-13,1,,,,,ソーン,0
2067,9010401194464,新規,0,2025-11-13,2025-11-13,株式会社ＧＭＳ,,株式会社,東京都,港区,浜松町２丁目２番１５号浜松町ダイヤビル２Ｆ,,13,103,1050013,,,,,,,2025-11-13,1,,,,,ジーエムエス,0
2068,9010401194489,新規,0,2025-11-13,2025-11-13,株式会社バンブーサラ,,株式会社,東京都,港区,北青山１丁目３－１アールキューブ３階,,13,103,1070061,,,,,,,2025-11-13,1,,,,,,0
2076,9010803005608,新規,0,2025-11-13,2025-11-13,合同会社創和,,合同会社,東京都,大田区,池上８丁目１９番９号カーサビアンカ池上ＩＩ１２３,00141509,13,111,1460082,,,,,,,2025-11-13,1,,,,,ソウワ,0
2079,9010901058425,新規,0,2025-11-13,2025-11-13,Ｂｌｏｏｍ　Ｌｉｆｅ株式会社,,株式会社,東京都,世田谷区,駒沢３丁目２６－７フォレスト桜新町１０１,,13,112,1540012,,,,,,,2025-11-13,1,,,,,ブルームライフ,0
2092,9011001173619,新規,0,2025-11-13,2025-11-13,株式会社ＴＳＫＫＡ,,株式会社,東京都,目黒区,南２丁目８番８号パラッツォＴＲＥ－１３２,,13,110,1520013,,,,,,,2025-11-13,1,,,,,ツッカ,0
2096,9011101113862,新規,0,2025-11-13,2025-11-13,スタークグローバルジャパン株式会社,,株式会社,東京都,新宿区,弁天町２－１６サウスライトＶビル４階,,13,104,1620851,,,,,,,2025-11-13,1,,,,,スタークグローバルジャパン,0
2097,9011101113912,新規,0,2025-11-13,2025-11-13,日本医療学会コンサル株式会社,,株式会社,東京都,新宿区,神楽坂６丁目８－３０,,13,104,1620825,,,,,,,2025-11-13,1,,,,,ニホンイリョウガッカイコンサル,0
2098,9011103016675,新規,0,2025-11-13,2025-11-13,リライアブルＤＸ合同会社,,合同会社,東京都,新宿区,西新宿３丁目３番１３号西新宿水間ビル６階,,13,104,1600023,,,,,,,2025-11-13,1,,,,,リライアブルディーエックス,0
2109,9011803007189,新規,0,2025-11-13,2025-11-13,合同会社ＡＩＳ,,合同会社,東京都,足立区,西伊興１丁目１６番８号２０１,,13,121,1210824,,,,,,,2025-11-13,1,,,,,アイス,0
2110,9012301014594,新規,0,2025-11-13,2025-11-13,株式会社ファーム,,株式会社,東京都,町田市,相原町４８０番地１３１,,13,209,1940211,,,,,,,2025-11-13,1,,,,,ファーム,0
2113,9012401043799,新規,0,2025-11-13,2025-11-13,七尾テクニカ株式会社,,株式会社,東京都,狛江市,中和泉３丁目３０番７号,,13,219,2010012,,,,,,,2025-11-13,1,,,,,ナナオテクニカ,0
2114,9012403007455,新規,0,2025-11-13,2025-11-13,合同会社なつとふゆ,,合同会社,東京都,狛江市,和泉本町１丁目２番５号,,13,219,2010003,,,,,,,2025-11-13,1,,,,,ナツトフユ,0
2115,9012701019185,新規,0,2025-11-13,2025-11-13,ＫＳＫイデア株式会社,,株式会社,東京都,清瀬市,竹丘２丁目２６－１２,,13,221,2040023,,,,,,,2025-11-13,1,,,,,ケーエスケーイデア,0
2124,9020001165682,新規,0,2025-11-13,2025-11-13,株式会社ＬＩＲＹＯ,,株式会社,神奈川県,横浜市西区,北幸２丁目１０番４８号むつみビル３階,,14,103,2200004,,,,,,,2025-11-13,1,,,,,リリョー,0
2125,9020001165732,新規,0,2025-11-13,2025-11-13,株式会社喜多熊材木店,,株式会社,神奈川県,横浜市泉区,中田南４丁目２６番１７号,,14,116,2450014,,,,,,,2025-11-13,1,,,,,キタクマザイモクテン,0
2126,9020001165765,新規,0,2025-11-13,2025-11-13,ＪＧＲ株式会社,,株式会社,神奈川県,川崎市川崎区,四谷上町１２－２,,14,131,2100828,,,,,,,2025-11-13,1,,,,,ジェイジーアール,0
2127,9020003029745,新規,0,2025-11-13,2025-11-13,森一国際商務貿易合同会社,,合同会社,神奈川県,川崎市川崎区,中瀬２丁目１７番１２－１号,,14,131,2100818,,,,,,,2025-11-13,1,,,,,モリイチコクサイショウムボウエキ,0
2130,9021001086753,新規,0,2025-11-13,2025-11-13,株式会社Ｃｈａｐｔｅｒ,,株式会社,神奈川県,横須賀市,三春町２丁目１番地４第一大谷ビル１Ｆ,,14,201,2380014,,,,,,,2025-11-13,1,,,,,チャプター,0
2140,9030001169658,新規,0,2025-11-13,2025-11-13,株式会社フロントライン,,株式会社,埼玉県,さいたま市見沼区,大字大谷１７８０番地１９,,11,104,3370014,,,,,,,2025-11-13,1,,,,,フロントライン,0
2141,9030001169666,新規,0,2025-11-13,2025-11-13,株式会社中山工業,,株式会社,埼玉県,春日部市,上吉妻１２７１番地７,,11,214,3440103,,,,,,,2025-11-13,1,,,,,ナカヤマコウギョウ,0
2142,9030001169690,新規,0,2025-11-13,2025-11-13,株式会社藤花,,株式会社,埼玉県,さいたま市中央区,上落合２丁目４番４号,,11,105,3380001,,,,,,,2025-11-13,1,,,,,トウカ,0
2151,9040001141327,新規,0,2025-11-13,2025-11-13,株式会社サンクレスト,,株式会社,千葉県,大網白里市,みやこ野１丁目３番地２ミオカステ－ロ大網白里５１１号,,12,239,2993236,,,,,,,2025-11-13,1,,,,,サンクレスト,0
2168,9060001038760,新規,0,2025-11-13,2025-11-13,芳賀農事株式会社,,株式会社,栃木県,芳賀郡芳賀町,大字下高根沢３０３５番地,,09,345,3213321,,,,,,,2025-11-13,1,,,,,ハガノウジ,0
2169,9060003005841,新規,0,2025-11-13,2025-11-13,高橋建装合同会社,00141510,合同会社,栃木県,河内郡上三川町,大字上蒲生９２９番地４,,09,301,3290617,,,,,,,2025-11-13,1,,,,,タカハシケンソウ,0
2173,9080001027266,新規,0,2025-11-13,2025-11-13,株式会社ＴＭカンパニー,,株式会社,静岡県,藤枝市,瀬古３丁目１２番１２号,,22,214,4260082,,,,,,,2025-11-13,1,,,,,ティーエムカンパニー,0
2174,9080001027274,新規,0,2025-11-13,2025-11-13,株式会社ループネス,,株式会社,静岡県,静岡市葵区,紺屋町１７番地の１葵タワー１階,,22,101,4200852,,,,,,,2025-11-13,1,,,,,ループネス,0
2176,9080103003470,新規,0,2025-11-13,2025-11-13,合同会社Ｄｉｖｅ４Ｇｏｏｄ　Ｊａｐａｎ,,合同会社,静岡県,下田市,東本郷１丁目１５番１４号Ｋ・ツー３０３号室,,22,219,4150035,,,,,,,2025-11-13,1,,,,,ダイブフォーグッドジャパン,0
2180,9100005013417,新規,0,2025-11-13,2025-11-13,一般社団法人信州中古住宅流通ネットワーク,,その他の設立登記法人,長野県,松本市,大手４丁目７番１３号,,20,202,3900874,,,,,,,2025-11-13,1,,,,,シンシュウチュウコジュウタクリュウツウネットワーク,0
2194,9120001281924,新規,0,2025-11-13,2025-11-13,ＳＨＩＮＥＩ　ＴＯＯＬ株式会社,,株式会社,大阪府,大阪市平野区,長吉長原西３丁目２番５号,,27,126,5470015,,,,,,,2025-11-13,1,,,,,シンエイツール,0
2195,9120001281940,新規,0,2025-11-13,2025-11-13,株式会社Ｌ．Ｂ．Ｃｏｍｐａｎｙ,,株式会社,大阪府,大阪市中央区,南船場３丁目２番２２号おおきに南船場ビル２０５,,27,128,5420081,,,,,,,2025-11-13,1,,,,,エルビーカンパニー,0
2196,9120001281949,新規,0,2025-11-13,2025-11-13,株式会社ＳＯＬ,,株式会社,大阪府,大阪市都島区,大東町２丁目１０－１０フラッツ都島２０１号,,27,102,5340002,,,,,,,2025-11-13,1,,,,,ソル,0
2197,9120001281957,新規,0,2025-11-13,2025-11-13,ウイングス株式会社,,株式会社,大阪府,大阪市都島区,東野田町５丁目１５番８号川口ビル１０５号,,27,102,5340024,,,,,,,2025-11-13,1,,,,,ウイングス,0
2198,9120001281965,新規,0,2025-11-13,2025-11-13,チームエステート株式会社,,株式会社,大阪府,大阪市中央区,瓦町４丁目３番２号,,27,128,5410048,,,,,,,2025-11-13,1,,,,,チームエステート,0
2200,9120003031245,新規,0,2025-11-13,2025-11-13,プライオープン合同会社,,合同会社,大阪府,大阪市北区,梅田１丁目２番２号大阪駅前第２ビル１２‐１２,,27,127,5300001,,,,,,,2025-11-13,1,,,,,プライオープン,0
2205,9120101072777,新規,0,2025-11-13,2025-11-13,株式会社ＨＡＰ　ＪＡＰＡＮ,,株式会社,大阪府,岸和田市,木材町８番５号,,27,202,5960011,,,,,,,2025-11-13,1,,,,,ハップジャパン,0
2206,9120103006832,新規,0,2025-11-13,2025-11-13,Ｆｉｒｓｔ　ＨａｃＱ合同会社,,合同会社,大阪府,貝塚市,半田３丁目９番１６号,,27,208,5970033,,,,,,,2025-11-13,1,,,,,ファーストハック,0
2209,9120901051773,新規,0,2025-11-13,2025-11-13,株式会社ＳＨＯＴ,,株式会社,大阪府,豊中市,南桜塚４丁目３－５－４０５,,27,203,5610882,,,,,,,2025-11-13,1,,,,,ショット,0
2210,9120901051815,新規,0,2025-11-13,2025-11-13,株式会社Ｐｅａｃｅ,,株式会社,大阪府,摂津市,正雀本町１丁目２番２４号,,27,224,5660024,,,,,,,2025-11-13,1,,,,,ピース,0
2213,9120903005942,新規,0,2025-11-13,2025-11-13,マネージングＦＫＣ合同会社,,合同会社,大阪府,高槻市,南松原町１３番２５－２０３号,,27,207,5690085,,,,,,,2025-11-13,1,,,,,マネージングエフケイシ,0
2220,9130001080986,新規,0,2025-11-13,2025-11-13,株式会社ＫＹＮ,,株式会社,京都府,京都市東山区,清本町３５７番地呑太呂ビル４階,,26,105,6050084,,,,,,,2025-11-13,1,,,,,キーン,0
2221,9130003010900,新規,0,2025-11-13,2025-11-13,合同会社Ｏｎｅ　Ｂｒｉｄｇｅ,,合同会社,京都府,京都市中京区,西ノ京栂尾町１０２番地ファミール二条ステーションサイド２１２,,26,104,6048415,,,,,,,2025-11-13,1,,,,,ワンブリッジ,0
2222,9130003010909,新規,0,2025-11-13,2025-11-13,ＭａｇｉｃＤａｔａ合同会社,,合同会社,京都府,京都市下京区,七条通油小路東入大黒町２２７番地第２キョートビル４０２,,26,106,6008223,,,,,,,2025-11-13,1,,,,,マジックデータ,0
2223,9130005017514,新規,0,2025-11-13,2025-11-13,一般社団法人二條文庫,,その他の設立登記法人,京都府,京都市左京区,松ケ崎横縄手町４番地９,,26,103,6060965,,,,,,,2025-11-13,1,,,,,ニジョウブンコ,0
2226,9140003022829,新規,0,2025-11-13,2025-11-13,合同会社嶋田工業,,合同会社,兵庫県,加古川市,志方町志方町１１８９番地の６,,28,210,6750321,,,,,,,2025-11-13,1,,,,,シマダコウギョウ,0
2233,9150003003745,新規,0,2025-11-13,2025-11-13,合同会社ＭＵＳＵＢＩ,,合同会社,奈良県,奈良市,西大寺野神町１丁目１番１９－２０１号,,29,201,6310833,,,,,,,2025-11-13,1,,,,,ムスビ,0
2244,9180001169461,新規,0,2025-11-13,2025-11-13,Ｂｅｙｏｎｄ　Ｎｏｒｍｓ株式会社,,株式会社,愛知県,名古屋市名東区,高針原２丁目５０６番地,,23,115,4650073,,,,,,,2025-11-13,1,,,,,ビヨンドノームス,0
2245,9180001169478,新規,0,2025-11-13,2025-11-13,株式会社Ｖｉｄａ,,株式会社,愛知県,東海市,加木屋町六反田１３１番地,,23,222,4770032,,,,,,,2025-11-13,1,,,,,ヴィーダ,0
2251,9180003029250,新規,0,2025-11-13,2025-11-13,合同会社ＣＲＥＳＴ,,合同会社,愛知県,名古屋市中区,錦３丁目１３‐２５佐藤ビル３階,,23,106,4600003,,,,,,,2025-11-13,1,,,,,クレスト,0
2252,9180003029341,新規,0,2025-11-13,2025-11-13,ａｎｉｍｅｌ合同会社,,合同会社,愛知県,江南市,飛高町泉２３０番地１,,23,217,4838333,,,,,,,2025-11-13,1,,,,,アニメル,0
2253,9180301040405,新規,0,2025-11-13,2025-11-13,株式会社インスム,,株式会社,愛知県,刈谷市,若松町３丁目９番地ＹＦビル３Ｆ,,23,210,4480858,,,,,,,2025-11-13,1,,,,,,0
2261,9200003007146,新規,0,2025-11-13,2025-11-13,合同会社やふや,,合同会社,岐阜県,大垣市,東町２丁目１３０番地８,,21,202,5030802,,,,,,,2025-11-13,1,,,,,ヤフヤ,0
2278,9260005011545,新規,0,2025-11-13,2025-11-13,税理士法人藤井会計,,その他の設立登記法人,岡山県,岡山市北区,桑田町７番２２号,,33,101,7000984,,,,,,,2025-11-13,1,,,,,フジイカイケイ,0
2282,9290001112121,新規,0,2025-11-13,2025-11-13,株式会社ＣＲＡＮＥ　Ｗｏｒｋｓ,,株式会社,福岡県,福岡市博多区,博多駅前１丁目２３番２号ＰａｒｋＦｒｏｎｔ博多駅前１丁目５Ｆ－Ｂ,,40,132,8120011,,,,,,,2025-11-13,1,,,,,クレインワークス,0
2287,9300003002376,新規,0,2025-11-13,2025-11-13,Ｏｖｅｒｆｌｏｗ　Ａｓｓｏｃｉａｔｉｏｎ合同会社,,合同会社,佐賀県,佐賀市,唐人１丁目２－２２,,41,201,8400813,,,,,,,2025-11-13,1,,,,,オーバーフローアソシエーション,0
2288,9310001019850,新規,0,2025-11-13,2025-11-13,株式会社道のえん,,株式会社,長崎県,諫早市,白岩町５番地４,,42,204,8540077,,,,,,,2025-11-13,1,,,,,ミチノエン,0
2295,9340001027776,新規,0,2025-11-13,2025-11-13,株式会社フラット,,株式会社,鹿児島県,鹿児島市,中央町２５番地２フラットＭ８０１号,,46,201,8900053,,,,,,,2025-11-13,1,,,,,フラット,0
2296,9340003005020,新規,0,2025-11-13,2025-11-13,合同会社サリー,,合同会社,鹿児島県,鹿児島市,喜入一倉町５０７９番地２４,,46,201,8910204,,,,,,,2025-11-13,1,,,,,サリー,0
2298,9350001019806,新規,0,2025-11-13,2025-11-13,株式会社ＰＬＥＩＡＤＥＳ　ＣＯＭＰＡＮＹ　ＪＡＰＡＮ,,株式会社,宮崎県,宮崎市,川原町５－１０　８０３号室,,45,201,8800866,,,,,,,2025-11-13,1,,,,,,0
2302,9360003015389,新規,0,2025-11-13,2025-11-13,合同会社ＨＡＩＲＳＡＬＯＮ　ＳＡＫＵＲＡ,,合同会社,沖縄県,国頭郡金武町,字金武１４６番地奥間店舗１０１,,47,314,9041201,,,,,,,2025-11-13,1,,,,,ヘアーサロンサクラ,0
2308,9380001035692,新規,0,2025-11-13,2025-11-13,株式会社ＮＳＫ,,株式会社,福島県,会津若松市,湊町大字静潟字風除林４番地,,07,202,9650203,,,,,,,2025-11-13,1,,,,,エヌエスケー,0
2310,9410001014321,新規,0,2025-11-13,2025-11-13,株式会社雅葦,,株式会社,秋田県,秋田市,下新城小友字中坪７２番地,,05,201,0100143,,,,,,,2025-11-13,1,,,,,ミヤビアシ,0
2319,9440005002807,新規,0,2025-11-13,2025-11-13,一般社団法人ヒーローズ,,その他の設立登記法人,北海道,函館市,住吉町１４番２０号,,01,202,0400045,,,,,,,2025-11-13,1,,,,,ヒーローズ,0
2322,9470003003011,新規,0,2025-11-13,2025-11-13,合同会社ＬＩＮＫＳＹ,,合同会社,香川県,綾歌郡宇多津町,大字東分１６４５番地１,,37,386,7690213,,,,,,,2025-11-13,1,,,,,リンクシー,0
2324,9700150132935,新規,0,2025-11-13,2025-11-13,Ｍ．Ａ．ＡＧＩＬＥ　ＡＵＴＯＭＯＴＩＶＥ,,外国会社等,神奈川県,愛甲郡愛川町,中津１１３９番地２－２０２,,14,401,2430303,スリランカ民主社会主義共和国、コロンボ１０、マラダナ、ディーンズロード、１２６／７,,,,,,2025-11-13,1,,,,,エムエーアギリーオートモーデイブ,0
