sequenceNumber,corporateNumber,process,correct,updateDate,changeDate,name,nameImageId,kind,prefectureName,cityName,streetNumber,addressImageId,prefectureCode,cityCode,postCode,addressOutside,addressOutsideImageId,closeDate,closeCause,successorCorporateNumber,changeCause,assignmentDate,latest,enName,enPrefectureName,enCityName,enAddressOutside,furigana,hihyoji
20,1010001236797,新規,0,2023-07-11,2023-07-11,株式会社智義徳,,株式会社,東京都,中央区,新川１丁目２８番２４号東京ダイヤビル４号館５階Ｂ室,,13,102,1040033,,,,,,,2023-07-11,1,,,,,チギド,0
25,1010005036946,新規,0,2023-07-11,2023-07-11,一般社団法人銀河第６号,,その他の設立登記法人,東京都,中央区,日本橋１丁目４番１号日本橋一丁目ビルディング,,13,102,1030027,,,,,,,2023-07-11,1,,,,,ギンガダイロクゴウ,0
31,1010401175513,新規,0,2023-07-11,2023-07-11,株式会社キズムル,,株式会社,東京都,港区,高輪１丁目２３番２３号,,13,103,1080074,,,,,,,2023-07-11,1,,,,,キズムル,0
32,1010401175554,新規,0,2023-07-11,2023-07-11,株式会社ＳＡＭ,,株式会社,東京都,港区,芝公園２丁目６－１１－６０９,,13,103,1050011,,,,,,,2023-07-11,1,,,,,サム,0
33,1010401175570,新規,0,2023-07-11,2023-07-11,アラン・ドローン株式会社,,株式会社,東京都,港区,南青山４丁目１７番１０号,,13,103,1070062,,,,,,,2023-07-11,1,,,,,アランドローン,0
34,1010401175604,新規,0,2023-07-11,2023-07-11,ＬｕＮＡ株式会社,,株式会社,東京都,港区,南青山１丁目１７－８プレミールコート南青山４０１,,13,103,1070062,,,,,,,2023-07-11,1,,,,,ルーナ,0
35,1010401175645,新規,0,2023-07-11,2023-07-11,株式会社リベラシオン,,株式会社,東京都,港区,北青山１丁目３番１号アールキューブ青山３階,,13,103,1070061,,,,,,,2023-07-11,1,,,,,リベラシオン,0
40,1010403030468,新規,0,2023-07-11,2023-07-11,合同会社ｓｏｒａｎｏｗａ,,合同会社,東京都,港区,北青山１丁目３番１号アールキューブ青山３階,,13,103,1070061,,,,,,,2023-07-11,1,,,,,ソラノワ,0
42,1010501050748,新規,0,2023-07-11,2023-07-11,株式会社宝田タイル工業,,株式会社,東京都,台東区,根岸３丁目１８番５号,,13,106,1100003,,,,,,,2023-07-11,1,,,,,タカラダタイルコウギョウ,0
43,1010503007077,新規,0,2023-07-11,2023-07-11,Ｇ‐Ｓ合同会社,,合同会社,東京都,台東区,上野２丁目１２番４号レインボータワービル２階,,13,106,1100005,,,,,,,2023-07-11,1,,,,,グラッティチュードシーサー,0
47,1010603010245,新規,0,2023-07-11,2023-07-11,合同会社Ｓｅａ‐ｍｅｍｅ,,合同会社,東京都,墨田区,文花１丁目１８番１３号,,13,107,1310044,,,,,,,2023-07-11,1,,,,,シーミーム,0
51,1010901053391,新規,0,2023-07-11,2023-07-11,株式会社アドラ,,株式会社,東京都,世田谷区,粕谷２丁目１８番２３－１０１号,,13,112,1570063,,,,,,,2023-07-11,1,,,,,アドラ,0
52,1010901053400,新規,0,2023-07-11,2023-07-11,株式会社ＦｉＥＸ,,株式会社,東京都,世田谷区,駒沢３丁目２８番１１号,,13,112,1540012,,,,,,,2023-07-11,1,,,,,フィークス,0
57,1011001155500,新規,0,2023-07-11,2023-07-11,株式会社ＬＡＶＩＳＨ,,株式会社,東京都,渋谷区,道玄坂１丁目１５番８号,,13,113,1500043,,,,,,,2023-07-11,1,,,,,ラヴィシュ,0
58,1011001155517,新規,0,2023-07-11,2023-07-11,株式会社アースリング２３,,株式会社,東京都,渋谷区,笹塚１丁目５６番７号笹塚テラスレジデンス９０９,,13,113,1510073,,,,,,,2023-07-11,1,,,,,アースリングトゥエンティースリー,0
59,1011001155632,新規,0,2023-07-11,2023-07-11,株式会社てくてっく,,株式会社,東京都,渋谷区,道玄坂１丁目１０番８号,,13,113,1500043,,,,,,,2023-07-11,1,,,,,テクテック,0
60,1011001155640,新規,0,2023-07-11,2023-07-11,株式会社ＰＬＡＲＩＡ,,株式会社,東京都,渋谷区,渋谷２丁目１９－１５宮益坂ビルディング６０９,,13,113,1500002,,,,,,,2023-07-11,1,,,,,プラリア,0
61,1011003017129,新規,0,2023-07-11,2023-07-11,合同会社バンデスペース,,合同会社,東京都,渋谷区,道玄坂１丁目１０番８号渋谷道玄坂東急ビル２Ｆ－Ｃ,,13,113,1500043,,,,,,,2023-07-11,1,,,,,バンデスペース,0
66,1011101103474,新規,0,2023-07-11,2023-07-11,株式会社セブンスライブマネジメント,,株式会社,東京都,新宿区,新宿１丁目１６番１６号－２０１,,13,104,1600022,,,,,,,2023-07-11,1,,,,,セブンスライブマネジメント,0
69,1011201024760,新規,0,2023-07-11,2023-07-11,株式会社アジアフライ,,株式会社,東京都,中野区,南台３丁目６番２２－１００６号,,13,114,1640014,,,,,,,2023-07-11,1,,,,,アジアフライ,0
70,1011201024769,新規,0,2023-07-11,2023-07-11,株式会社Ｅｒｆ‐ＦｉＳｉｏｎ,,株式会社,東京都,中野区,上鷺宮４丁目１－２９－１０１,,13,114,1650031,,,,,,,2023-07-11,1,,,,,エルフィジョン,0
72,1011203004125,新規,0,2023-07-11,2023-07-11,Ｇｅｒｍｅｌｉｅｒ合同会社,,合同会社,東京都,中野区,中央５丁目１７番６号,,13,114,1640011,,,,,,,2023-07-11,1,,,,,ジェルメリア,0
73,1011401025261,新規,0,2023-07-11,2023-07-11,ベースマネジメント株式会社,,株式会社,東京都,板橋区,三園１丁目４４番１２－３０２号,,13,119,1750091,,,,,,,2023-07-11,1,,,,,ベースマネジメント,0
78,1011701026406,新規,0,2023-07-11,2023-07-11,株式会社大新,,株式会社,東京都,江戸川区,中央４丁目７番５号,,13,123,1320021,,,,,,,2023-07-11,1,,,,,ダイシン,0
80,1012401040705,新規,0,2023-07-11,2023-07-11,株式会社あさひホームプラス,,株式会社,東京都,狛江市,和泉本町３丁目１１番９号,,13,219,2010003,,,,,,,2023-07-11,1,,,,,アサヒホームプラス,0
81,1012401040721,新規,0,2023-07-11,2023-07-11,ＥＭＰ株式会社,,株式会社,東京都,多摩市,鶴牧１丁目２５－２－１００８,,13,224,2060034,,,,,,,2023-07-11,1,,,,,イーエムピー,0
88,1013301051024,新規,0,2023-07-11,2023-07-11,デリバリーファーム株式会社,,株式会社,東京都,豊島区,東池袋５丁目２０－６ＹＴビル１Ｆ,,13,116,1700013,,,,,,,2023-07-11,1,,,,,デリバリーファーム,0
95,1020001152424,新規,0,2023-07-11,2023-07-11,株式会社ＳＵＺＵテック,,株式会社,神奈川県,横浜市金沢区,富岡東２丁目２番１３－２０２号,,14,108,2360051,,,,,,,2023-07-11,1,,,,,スズテック,0
96,1020001152449,新規,0,2023-07-11,2023-07-11,株式会社エルメスゲート,,株式会社,神奈川県,横浜市戸塚区,川上町９１番地１ＢＥＬＩＳＴＡタワー東戸塚２６０７号,,14,110,2440805,,,,,,,2023-07-11,1,,,,,エルメスゲート,0
99,1020003024200,新規,0,2023-07-11,2023-07-11,合同会社東洋の委員長,,合同会社,神奈川県,川崎市幸区,新塚越１番地２サウザンドシティ６－６０１,,14,132,2120027,,,,,,,2023-07-11,1,,,,,トウヨウノイインチョウ,0
100,1020003024209,新規,0,2023-07-11,2023-07-11,合同会社Ｎｉｎｅ２,,合同会社,神奈川県,横浜市青葉区,美しが丘５丁目７番地６,,14,117,2250002,,,,,,,2023-07-11,1,,,,,ナインツー,0
102,1021001079491,新規,0,2023-07-11,2023-07-11,株式会社Ｓｔｒａｎｇｅｌｏｖｅ,,株式会社,神奈川県,藤沢市,辻堂３丁目１３番２０号メゾンドミキ２０２,,14,205,2510047,,,,,,,2023-07-11,1,,,,,ストレンジラブ,0
103,1021001079509,新規,0,2023-07-11,2023-07-11,株式会社ＭＯＡＮＡメディカルケア,,株式会社,神奈川県,小田原市,南鴨宮２丁目４６番１８－１号,,14,206,2500875,,,,,,,2023-07-11,1,,,,,モアナメディカルケア,0
115,1030001154741,新規,0,2023-07-11,2023-07-11,１００ｐｅｒｃｅｎｔ‐ＳＭＩＬＥホールディングス株式会社,,株式会社,埼玉県,さいたま市桜区,町谷３丁目９番２８号,,11,106,3380836,,,,,,,2023-07-11,1,,,,,ヒャクパーセントスマイルホールディングス,0
116,1030001154766,新規,0,2023-07-11,2023-07-11,株式会社Ｙｄ　Ｓｔｙｌｅ,,株式会社,埼玉県,新座市,大和田１丁目１２番２号,,11,230,3520004,,,,,,,2023-07-11,1,,,,,ワイディースタイル,0
117,1030001154790,新規,0,2023-07-11,2023-07-11,株式会社ＹＯＵ,,株式会社,埼玉県,さいたま市緑区,大字中尾１３７４番地,,11,109,3360932,,,,,,,2023-07-11,1,,,,,ユー,0
118,1030001154799,新規,0,2023-07-11,2023-07-11,株式会社新野建設,,株式会社,埼玉県,北足立郡伊奈町,栄１丁目１９番地,,11,301,3620805,,,,,,,2023-07-11,1,,,,,シンノケンセツ,0
119,1030001154898,新規,0,2023-07-11,2023-07-11,株式会社ｍＩｋｏｔｏ,,株式会社,埼玉県,坂戸市,南町４番９号ｂ１タネヤビル,,11,239,3500233,,,,,,,2023-07-11,1,,,,,ミコト,0
126,1030003022087,新規,0,2023-07-11,2023-07-11,クラル合同会社,,合同会社,埼玉県,さいたま市浦和区,領家４丁目２１番１８号,,11,107,3300072,,,,,,,2023-07-11,1,,,,,クラル,0
127,1030003022112,新規,0,2023-07-11,2023-07-11,七左合同会社,,合同会社,埼玉県,越谷市,七左町１丁目３５９番地１,,11,222,3430851,,,,,,,2023-07-11,1,,,,,シチザ,0
132,1040001129164,新規,0,2023-07-11,2023-07-11,株式会社武田工業,,株式会社,千葉県,柏市,千代田３丁目８番４号,,12,217,2770025,,,,,,,2023-07-11,1,,,,,タケダコウギョウ,0
133,1040001129172,新規,0,2023-07-11,2023-07-11,株式会社イチケン,,株式会社,千葉県,千葉市中央区,長洲１丁目２３番５号石渡ビル３０１,,12,101,2600854,,,,,,,2023-07-11,1,,,,,イチケン,0
134,1040001129180,新規,0,2023-07-11,2023-07-11,株式会社リグホーム,,株式会社,千葉県,千葉市緑区,平川町１８１１番地,,12,105,2660004,,,,,,,2023-07-11,1,,,,,リグホーム,0
135,1040001129197,新規,0,2023-07-11,2023-07-11,株式会社コネクト住設,,株式会社,千葉県,船橋市,二和東３丁目２３番５３号,,12,204,2740805,,,,,,,2023-07-11,1,,,,,コネクトジュウセツ,0
140,1040003022937,新規,0,2023-07-11,2023-07-11,合同会社ｅｎｉｓｈｉ,,合同会社,千葉県,松戸市,小金原３丁目２番地の５７,,12,207,2700021,,,,,,,2023-07-11,1,,,,,エニシ,0
143,1050001053099,新規,0,2023-07-11,2023-07-11,ＥＣＫグループ株式会社,,株式会社,茨城県,桜川市,友部１８４５番地２,,08,231,3091453,,,,,,,2023-07-11,1,,,,,イーシーケーグループ,0
144,1050001053116,新規,0,2023-07-11,2023-07-11,株式会社Ｅ・ＭＡＣＳ,,株式会社,茨城県,牛久市,南２丁目１０番地２,,08,219,3001222,,,,,,,2023-07-11,1,,,,,イーマックス,0
150,1060001036136,新規,0,2023-07-11,2023-07-11,株式会社小山レリーフ動物病院,,株式会社,栃木県,小山市,城東４丁目３番７号,,09,208,3230807,,,,,,,2023-07-11,1,,,,,オヤマレリーフドウブツビョウイン,0
153,1070001040632,新規,0,2023-07-11,2023-07-11,ティーエス通信株式会社,,株式会社,群馬県,高崎市,下小鳥町８８番地１１シェイプエル,,10,202,3700074,,,,,,,2023-07-11,1,,,,,ティーエスツウシン,0
154,1070003005030,新規,0,2023-07-11,2023-07-11,ＥＳＰ合同会社,,合同会社,群馬県,吾妻郡嬬恋村,大字鎌原字大カイシコ１０５３番地５４０１,,10,425,3771524,,,,,,,2023-07-11,1,,,,,イーエスピー,0
158,1080001025723,新規,0,2023-07-11,2023-07-11,井村食品株式会社,,株式会社,静岡県,焼津市,小浜２０８番地の９,,22,212,4250011,,,,,,,2023-07-11,1,,,,,イムラショクヒン,0
170,1110001037681,新規,0,2023-07-11,2023-07-11,株式会社プレスト,,株式会社,新潟県,新潟市江南区,天野１丁目１７番４号,,15,104,9501134,,,,,,,2023-07-11,1,,,,,プレスト,0
177,1120001256231,新規,0,2023-07-11,2023-07-11,株式会社ｂｙ．ｓ,,株式会社,大阪府,大阪市西区,靱本町１丁目１９番１６－１２０１号,,27,106,5500004,,,,,,,2023-07-11,1,,,,,バイエス,0
178,1120001256280,新規,0,2023-07-11,2023-07-11,株式会社ＯＰｈｒｓ,,株式会社,大阪府,大阪市中央区,久太郎町１丁目８番２号,,27,128,5410056,,,,,,,2023-07-11,1,,,,,オファーズ,0
179,1120001256322,新規,0,2023-07-11,2023-07-11,恵み株式会社,,株式会社,大阪府,大阪市西区,京町堀２丁目１番１１－４０２号室,,27,106,5500003,,,,,,,2023-07-11,1,,,,,メグミ,0
180,1120001256330,新規,0,2023-07-11,2023-07-11,Ｔｏｍｏ　Ｔｏｍｓ株式会社,,株式会社,大阪府,大阪市中央区,内本町１丁目２－１５谷四スクエアビル５階,,27,128,5400026,,,,,,,2023-07-11,1,,,,,トモトムス,0
181,1120001256355,新規,0,2023-07-11,2023-07-11,Ｉｎｔｅｌｌｉｇｅｎｔ　Ｔｅｃｈｓｏｌ　Ｊａｐａｎ株式会社,,株式会社,大阪府,大阪市阿倍野区,共立通１丁目２番１０号,,27,119,5450041,,,,,,,2023-07-11,1,,,,,インテリジェントテックソールジャパン,0
182,1120001256470,新規,0,2023-07-11,2023-07-11,管理株式会社,,株式会社,大阪府,大阪市天王寺区,寺田町２丁目５番１０号,,27,109,5430045,,,,,,,2023-07-11,1,,,,,カンリ,0
187,1120003024438,新規,0,2023-07-11,2023-07-11,合同会社オオセパートナーズ,,合同会社,大阪府,大阪市中央区,内淡路町１丁目３番７号日宝内淡路ビル３０１号室,,27,128,5400038,,,,,,,2023-07-11,1,,,,,オオセパートナーズ,0
188,1120003024454,新規,0,2023-07-11,2023-07-11,合同会社ＳＨＦ,,合同会社,大阪府,大阪市北区,梅田１丁目１－３大阪駅前第３ビル２９階１－１－１号室,,27,127,5300001,,,,,,,2023-07-11,1,,,,,エフエイチエフ,0
191,1120101067826,新規,0,2023-07-11,2023-07-11,株式会社グローシーズ,,株式会社,大阪府,泉北郡忠岡町,忠岡東２丁目８番５号,,27,341,5950805,,,,,,,2023-07-11,1,,,,,グローシーズ,0
192,1120101067859,新規,0,2023-07-11,2023-07-11,株式会社ＥＸＣ,,株式会社,大阪府,堺市中区,深阪１丁６番１０号,,27,142,5998253,,,,,,,2023-07-11,1,,,,,エクス,0
193,1120101067875,新規,0,2023-07-11,2023-07-11,メタルサーキュレーション株式会社,,株式会社,大阪府,堺市堺区,山本町１丁６番３号,,27,141,5900983,,,,,,,2023-07-11,1,,,,,メタルサーキュレーション,0
195,1120103005321,新規,0,2023-07-11,2023-07-11,合同会社ＣＲＵＳＨ,,合同会社,大阪府,泉大津市,森町１丁目１２番２２号,,27,206,5950005,,,,,,,2023-07-11,1,,,,,クラッシュ,0
204,1130001074681,新規,0,2023-07-11,2023-07-11,ＷＩＫ株式会社,,株式会社,京都府,城陽市,平川中道表１２－２,,26,207,6100101,,,,,,,2023-07-11,1,,,,,ダブリューアイケー,0
219,1140003019295,新規,0,2023-07-11,2023-07-11,Ｌａｂｏｓｅｃ合同会社,,合同会社,兵庫県,西宮市,桜町５番２３号,,28,204,6620071,,,,,,,2023-07-11,1,,,,,ラボセック,0
221,1170001017686,新規,0,2023-07-11,2023-07-11,株式会社ＴＯＭＡＴＳＵ,,株式会社,和歌山県,紀の川市,北勢田１４０番地,,30,208,6496402,,,,,,,2023-07-11,1,,,,,トマツ,0
222,1170005007023,新規,0,2023-07-11,2023-07-11,一般社団法人白鷹院,,その他の設立登記法人,和歌山県,和歌山市,金谷字坂口８７９番地,,30,201,6496274,,,,,,,2023-07-11,1,,,,,ハクオウイン,0
224,1180001157052,新規,0,2023-07-11,2023-07-11,えがおファームビレッジ株式会社,,株式会社,愛知県,常滑市,字椎田口５１番地,,23,216,4790036,,,,,,,2023-07-11,1,,,,,エガオファームビレッジ,0
225,1180001157060,新規,0,2023-07-11,2023-07-11,株式会社ＳＹＣ,,株式会社,愛知県,名古屋市中村区,名駅３丁目１番２号,,23,105,4500002,,,,,,,2023-07-11,1,,,,,エスワイシー,0
226,1180001157069,新規,0,2023-07-11,2023-07-11,株式会社ＴＹアグリシステム,,株式会社,愛知県,丹羽郡大口町,大御堂１丁目１９０番地,,23,361,4800138,,,,,,,2023-07-11,1,,,,,ティーワイアグリシステム,0
227,1180001157077,新規,0,2023-07-11,2023-07-11,株式会社スタートコール,,株式会社,愛知県,名古屋市中区,錦１丁目４番２７号ジェムストーン錦ビル,,23,106,4600003,,,,,,,2023-07-11,1,,,,,スタートコール,0
228,1180001157085,新規,0,2023-07-11,2023-07-11,シェアリングヘルス株式会社,,株式会社,愛知県,名古屋市千種区,東山通５丁目１１３番地－６０２号,,23,101,4640807,,,,,,,2023-07-11,1,,,,,シェアリングヘルス,0
229,1180001157127,新規,0,2023-07-11,2023-07-11,株式会社アスリンク,,株式会社,愛知県,名古屋市中村区,名駅４丁目２４番５号第２森ビル４０１,,23,105,4500002,,,,,,,2023-07-11,1,,,,,アスリンク,0
231,1180003025463,新規,0,2023-07-11,2023-07-11,合同会社星うさぎ,,合同会社,愛知県,知多郡東浦町,大字緒川字西本坪８－１４,,23,442,4702102,,,,,,,2023-07-11,1,,,,,ホシウサギ,0
232,1180003025471,新規,0,2023-07-11,2023-07-11,合同会社青山コンサルタント,,合同会社,愛知県,一宮市,奥町字神田７０番地６,,23,203,4910201,,,,,,,2023-07-11,1,,,,,アオヤマコンサルタント,0
238,1180301037549,新規,0,2023-07-11,2023-07-11,株式会社ＯＧコンサルタント,,株式会社,愛知県,みよし市,三好丘旭３丁目５番地２,,23,236,4700203,,,,,,,2023-07-11,1,,,,,オージーコンサルタント,0
240,1180303005768,新規,0,2023-07-11,2023-07-11,ワイアンドケイ合同会社,,合同会社,愛知県,豊田市,前山町３丁目２番地１０コンフォート２０３号,,23,211,4710828,,,,,,,2023-07-11,1,,,,,ワイアンドケイ,0
242,1190001030571,新規,0,2023-07-11,2023-07-11,株式会社メブケーション,,株式会社,三重県,鈴鹿市,三日市町１９６３番地,,24,207,5130803,,,,,,,2023-07-11,1,,,,,メブケーション,0
243,1200001041484,新規,0,2023-07-11,2023-07-11,武井工業株式会社,,株式会社,岐阜県,関市,東町１丁目３番３４号,,21,205,5013815,,,,,,,2023-07-11,1,,,,,タケイコウギョウ,0
244,1220005008767,新規,0,2023-07-11,2023-07-11,税理士法人クロスアカウンティング,,その他の設立登記法人,石川県,金沢市,広岡１丁目３番１号,,17,201,9200031,,,,,,,2023-07-11,1,,,,,クロスアカウンティング,0
251,1240001061784,新規,0,2023-07-11,2023-07-11,株式会社マルム,,株式会社,広島県,安芸郡府中町,柳ケ丘６６番２２号,,34,302,7350014,,,,,,,2023-07-11,1,,,,,マルム,0
252,1240001061792,新規,0,2023-07-11,2023-07-11,株式会社常進,,株式会社,広島県,福山市,新涯町６丁目１６番９－４号,,34,207,7210955,,,,,,,2023-07-11,1,,,,,ジョウシン,0
267,1290001102179,新規,0,2023-07-11,2023-07-11,ＩＴテック株式会社,,株式会社,福岡県,福岡市中央区,赤坂１丁目１３番２８号ロマネスク赤坂３０８号,,40,133,8100042,,,,,,,2023-07-11,1,,,,,アイティーテック,0
268,1290001102245,新規,0,2023-07-11,2023-07-11,株式会社ＦｌｅｘｉＢｙ,,株式会社,福岡県,福岡市中央区,大名２丁目６番１１号,,40,133,8100041,,,,,,,2023-07-11,1,,,,,フレキシバイ,0
269,1290001102253,新規,0,2023-07-11,2023-07-11,株式会社ブライト,,株式会社,福岡県,福岡市中央区,大名１丁目１０番５－５０３号,,40,133,8100041,,,,,,,2023-07-11,1,,,,,ブライト,0
270,1290003014125,新規,0,2023-07-11,2023-07-11,合同会社Ｌｏｔｕｓ　Ｒｅｃｏｌｌｅｃｔ,,合同会社,福岡県,福岡市中央区,天神２丁目２番１２号Ｔ＆Ｊビルディング７Ｆ,,40,133,8100001,,,,,,,2023-07-11,1,,,,,ロータスリコレクト,0
277,1320001019881,新規,0,2023-07-11,2023-07-11,ｃｏｉｌ株式会社,,株式会社,大分県,宇佐市,大字石田５１番地の５,,44,211,8790444,,,,,,,2023-07-11,1,,,,,コイル,0
280,1340001025705,新規,0,2023-07-11,2023-07-11,株式会社ＨＡＳＨＩＫＵＲＵ,,株式会社,鹿児島県,薩摩川内市,西開聞町１５番１１号,,46,215,8950055,,,,,,,2023-07-11,1,,,,,ハシクル,0
281,1340001025721,新規,0,2023-07-11,2023-07-11,株式会社ＳＫ神乃屋,,株式会社,鹿児島県,鹿児島市,田上３丁目４番１０－２０１号,,46,201,8900034,,,,,,,2023-07-11,1,,,,,エスケーカミノヤ,0
283,1360001032229,新規,0,2023-07-11,2023-07-11,株式会社ＡＡＡ,,株式会社,沖縄県,那覇市,上之屋１丁目３－２５－３０７,,47,201,9000011,,,,,,,2023-07-11,1,,,,,トリプルエー,0
284,1360001032237,新規,0,2023-07-11,2023-07-11,Ｌｏｔｍａｉｍ株式会社,,株式会社,沖縄県,那覇市,宇栄原３丁目１６－４７,,47,201,9010153,,,,,,,2023-07-11,1,,,,,ロトマイム,0
286,1370001050139,新規,0,2023-07-11,2023-07-11,株式会社藤友総建,,株式会社,宮城県,角田市,角田字旭町２６番地１０－１０２号,,04,208,9811505,,,,,,,2023-07-11,1,,,,,フジトモソウケン,0
287,1370001050155,新規,0,2023-07-11,2023-07-11,株式会社加藤板金,,株式会社,宮城県,富谷市,富谷清水仲１１５番地１１,,04,216,9813311,,,,,,,2023-07-11,1,,,,,カトウバンキン,0
288,1370003006196,新規,0,2023-07-11,2023-07-11,合同会社Ｔａｋｅｎｏ　Ｔｒａｄｉｎｇ,,合同会社,宮城県,多賀城市,高橋１丁目１４番２号,,04,209,9850853,,,,,,,2023-07-11,1,,,,,タケノトレーディング,0
289,1370005010659,新規,0,2023-07-11,2023-07-11,一般社団法人Ｓ．Ｅ．Ａ,,その他の設立登記法人,宮城県,仙台市青葉区,柏木１丁目７番２８号,,04,101,9810933,,,,,,,2023-07-11,1,,,,,エスイーエー,0
297,1400003003108,新規,0,2023-07-11,2023-07-11,合同会社盛岡アロニア同盟,,合同会社,岩手県,盛岡市,本宮７丁目８－１６－６０４,,03,201,0200866,,,,,,,2023-07-11,1,,,,,モリオカアロニアドウメイ,0
300,1410001013537,新規,0,2023-07-11,2023-07-11,株式会社武内ＨＤ,,株式会社,秋田県,山本郡八峰町,峰浜高野々字高野々１４４番地の６,,05,349,0182511,,,,,,,2023-07-11,1,,,,,タケウチホールディングス,0
302,1430003015208,新規,0,2023-07-11,2023-07-11,合同会社ＲＯＴＳ,,合同会社,北海道,札幌市中央区,大通西６丁目６－９クリーンハイツ９０６,,01,101,0600042,,,,,,,2023-07-11,1,,,,,アールオーティーエス,0
311,1460103001542,新規,0,2023-07-11,2023-07-11,合同会社向陽,,合同会社,北海道,足寄郡足寄町,茂喜登牛２３４０番地,,01,647,0893875,,,,,,,2023-07-11,1,,,,,コウヨウ,0
314,1490001010527,新規,0,2023-07-11,2023-07-11,株式会社アース,,株式会社,高知県,高知市,神田５９２番地,,39,201,7808040,,,,,,,2023-07-11,1,,,,,アース,0
329,2010001236656,新規,0,2023-07-11,2023-07-11,ＴＷＯＶＡＬＬＥＹ株式会社,,株式会社,東京都,千代田区,神田三崎町３丁目８番１号,,13,101,1010061,,,,,,,2023-07-11,1,,,,,トゥバレー,0
330,2010001236796,新規,0,2023-07-11,2023-07-11,株式会社ＳｔａｒｔＯｖｅｒ,,株式会社,東京都,中央区,銀座５丁目１２番１３号,,13,102,1040061,,,,,,,2023-07-11,1,,,,,スタートオーバー,0
340,2010401175479,新規,0,2023-07-11,2023-07-11,株式会社ＩＴＤＡ　ＪＡＰＡＮ,,株式会社,東京都,港区,虎ノ門４丁目３－２０,,13,103,1050001,,,,,,,2023-07-11,1,,,,,イッタジャパン,0
341,2010401175586,新規,0,2023-07-11,2023-07-11,株式会社Ｎｅｘｔ　Ｄｉｖｉｓｉｏｎ,,株式会社,東京都,港区,北青山２丁目７－２０猪瀬ビル２階,,13,103,1070061,,,,,,,2023-07-11,1,,,,,ネクストディヴィジョン,0
342,2010401175611,新規,0,2023-07-11,2023-07-11,株式会社慶洋ホールディングス,,株式会社,東京都,港区,新橋６丁目１３番１号,,13,103,1050004,,,,,,,2023-07-11,1,,,,,ケイヨウホールディングス,0
343,2010401175644,新規,0,2023-07-11,2023-07-11,株式会社Ｔｏｍｏｐｉｉａ,,株式会社,東京都,港区,北青山３丁目１０番５号ＳｐｒｉｎｇＴｅｒｒａｃｅＯｍｏｔｅｓａｎｄｏ２Ｆ,,13,103,1070061,,,,,,,2023-07-11,1,,,,,トモピイア,0
344,2010403030467,新規,0,2023-07-11,2023-07-11,合同会社ＮｉｎａＶｉｃｔｏｒｉａ,,合同会社,東京都,港区,白金１丁目２５番２０－３０５号,,13,103,1080072,,,,,,,2023-07-11,1,,,,,ニナヴィクトリア,0
348,2010501050739,新規,0,2023-07-11,2023-07-11,ＳＥＴＡ株式会社,,株式会社,東京都,台東区,台東１丁目２４番９号ブライト秋葉原Ｂ１階,,13,106,1100016,,,,,,,2023-07-11,1,,,,,セタ,0
349,2010501050747,新規,0,2023-07-11,2023-07-11,株式会社セイエイ,,株式会社,東京都,台東区,上野１丁目１４－７－２Ｆ,,13,106,1100005,,,,,,,2023-07-11,1,,,,,セイエイ,0
354,2010801034136,新規,0,2023-07-11,2023-07-11,株式会社エンパシー,,株式会社,東京都,大田区,蒲田５丁目２８番４号,,13,111,1440052,,,,,,,2023-07-11,1,,,,,エンパシー,0
356,2010803004599,新規,0,2023-07-11,2023-07-11,合同会社ｃｈｅｅｒｓ,,合同会社,東京都,大田区,大森西３丁目１１番１７号アネックス英１０５,,13,111,1430015,,,,,,,2023-07-11,1,,,,,チアーズ,0
359,2010901053390,新規,0,2023-07-11,2023-07-11,株式会社ＡＶＥ,,株式会社,東京都,世田谷区,桜丘５丁目２１番１１号メゾン千歳１Ｆ,,13,112,1560054,,,,,,,2023-07-11,1,,,,,アヴェ,0
360,2010901053408,新規,0,2023-07-11,2023-07-11,株式会社さあ,,株式会社,東京都,世田谷区,代田５丁目１３番８号,,13,112,1550033,,,,,,,2023-07-11,1,,,,,サア,0
361,2010903008277,新規,0,2023-07-11,2023-07-11,合同会社ＹＡｓｔｕｄｉｏ,,合同会社,東京都,世田谷区,赤堤４丁目２８番６号,,13,112,1560044,,,,,,,2023-07-11,1,,,,,ヤスタジオ,0
364,2011001155540,新規,0,2023-07-11,2023-07-11,Ｐａｄｉｔｅｃｈ　Ｊａｐａｎ株式会社,,株式会社,東京都,渋谷区,神宮前６丁目２３番４号,,13,113,1500001,,,,,,,2023-07-11,1,,,,,パディテックジャパン,0
365,2011001155565,新規,0,2023-07-11,2023-07-11,株式会社グローカルライフエージェンシー,,株式会社,東京都,渋谷区,代々木１丁目２５番５号,,13,113,1510053,,,,,,,2023-07-11,1,,,,,グローカルライフエージェンシー,0
366,2011001155598,新規,0,2023-07-11,2023-07-11,株式会社良運,,株式会社,東京都,目黒区,自由が丘１丁目２７番２号自由ヶ丘ひかり街１５号室,,13,110,1520035,,,,,,,2023-07-11,1,,,,,リョウウン,0
367,2011001155607,新規,0,2023-07-11,2023-07-11,株式会社Ａｙｕｎｉ,,株式会社,東京都,渋谷区,千駄ヶ谷１丁目３１－１１－３０２,,13,113,1510051,,,,,,,2023-07-11,1,,,,,アユニ,0
368,2011101103523,新規,0,2023-07-11,2023-07-11,株式会社ハイホンジャパン,,株式会社,東京都,新宿区,西新宿４丁目１７番１３号,,13,104,1600023,,,,,,,2023-07-11,1,,,,,ハイホンジャパン,0
369,2011101103531,新規,0,2023-07-11,2023-07-11,シンクラウ株式会社,,株式会社,東京都,新宿区,須賀町１０番地８ウェリス四ツ谷３０３,,13,104,1600018,,,,,,,2023-07-11,1,,,,,シンクラウ,0
370,2011101103556,新規,0,2023-07-11,2023-07-11,株式会社ウィットマネジメント,,株式会社,東京都,新宿区,若葉１丁目２１番地４パークハウス四谷３０８,,13,104,1600011,,,,,,,2023-07-11,1,,,,,ウィットマネジメント,0
371,2011101103589,新規,0,2023-07-11,2023-07-11,株式会社ＦＥＲＮＡＶＡＩＬ,,株式会社,東京都,新宿区,西新宿３丁目３番１３号西新宿水間ビル２Ｆ,,13,104,1600023,,,,,,,2023-07-11,1,,,,,フェルナベイル,0
377,2011303004817,新規,0,2023-07-11,2023-07-11,合同会社Ｂａｍｂｏｏ,,合同会社,東京都,杉並区,桃井１丁目１１番１６号マイキャッスル荻窪５０２,,13,115,1670034,,,,,,,2023-07-11,1,,,,,バンブー,0
390,2012403006059,新規,0,2023-07-11,2023-07-11,合同会社Ｇｏｌｄｅｎ　Ｍｏｏｎ,,合同会社,東京都,府中市,紅葉丘１丁目７番地の１,,13,206,1830004,,,,,,,2023-07-11,1,,,,,ゴールデンムーン,0
391,2012701017740,新規,0,2023-07-11,2023-07-11,株式会社内海商事,,株式会社,東京都,東村山市,久米川町２丁目５３番地２,,13,213,1890003,,,,,,,2023-07-11,1,,,,,ウツミショウジ,0
392,2012801022491,新規,0,2023-07-11,2023-07-11,株式会社Ｚａｃｔｏｒｉ,,株式会社,東京都,国立市,谷保６９３７番地の５,,13,215,1860011,,,,,,,2023-07-11,1,,,,,ザコトリ,0
393,2012801022500,新規,0,2023-07-11,2023-07-11,株式会社やぎや,,株式会社,東京都,昭島市,田中町２丁目１１番５号,,13,207,1960014,,,,,,,2023-07-11,1,,,,,ヤギヤ,0
399,2013301051023,新規,0,2023-07-11,2023-07-11,株式会社ＡｓＵ,,株式会社,東京都,豊島区,駒込１丁目３５番６号,,13,116,1700003,,,,,,,2023-07-11,1,,,,,アズユー,0
400,2013301051031,新規,0,2023-07-11,2023-07-11,ＡＵＸ株式会社,,株式会社,東京都,豊島区,南池袋１丁目１６番１５号ダイヤゲート池袋５階,,13,116,1710022,,,,,,,2023-07-11,1,,,,,アウクス,0
401,2013303006702,新規,0,2023-07-11,2023-07-11,ＳＰＩＣＡ合同会社,,合同会社,東京都,豊島区,西巣鴨１丁目２番５号小倉ビル４階Ｂ,,13,116,1700001,,,,,,,2023-07-11,1,,,,,スピカ,0
409,2020001152472,新規,0,2023-07-11,2023-07-11,株式会社オフィスＭＭＳ,,株式会社,神奈川県,横浜市中区,太田町５丁目６１番地１ＢＲＩＣＫＳ馬車道舘３階,,14,104,2310011,,,,,,,2023-07-11,1,,,,,オフィスエムエムエス,0
410,2020001152480,新規,0,2023-07-11,2023-07-11,株式会社Ｐ‐ｒコンサルタント,,株式会社,神奈川県,横浜市磯子区,杉田１丁目１番１－１４０３号,,14,107,2350033,,,,,,,2023-07-11,1,,,,,ピーアールコンサルタント,0
411,2020003024190,新規,0,2023-07-11,2023-07-11,ｏｎｃｅ合同会社,,合同会社,神奈川県,川崎市高津区,二子２丁目７番３８号ウェルビーイング２０２号室,,14,134,2130002,,,,,,,2023-07-11,1,,,,,ワンス,0
412,2020003024199,新規,0,2023-07-11,2023-07-11,合同会社ＧＯＡＴ,,合同会社,神奈川県,横浜市都筑区,見花山１番３０号見花山ビル３Ｆ,,14,118,2240066,,,,,,,2023-07-11,1,,,,,ゴート,0
421,2030001154831,新規,0,2023-07-11,2023-07-11,株式会社ＵＮＩＴＥＤ　ＨＯＯＤ,,株式会社,埼玉県,さいたま市見沼区,大字東門前６５番地２,,11,104,3370016,,,,,,,2023-07-11,1,,,,,ユナイテッドフッド,0
426,2040001129163,新規,0,2023-07-11,2023-07-11,株式会社Ｂｅａｖｅｒ,,株式会社,千葉県,八千代市,島田台７４１番地３９,,12,221,2760004,,,,,,,2023-07-11,1,,,,,ビーバー,0
427,2040001129171,新規,0,2023-07-11,2023-07-11,株式会社ｅ．Ｓｔｙｌｅ．Ｄｅｓｉｇｎ,,株式会社,千葉県,柏市,北柏台８番地３－２０２号,,12,217,2770836,,,,,,,2023-07-11,1,,,,,イースタイルデサイン,0
428,2040001129188,新規,0,2023-07-11,2023-07-11,ＳＴＲ株式会社,,株式会社,千葉県,四街道市,栗山８１３番地１,,12,228,2840027,,,,,,,2023-07-11,1,,,,,エスティアール,0
442,2070005010143,新規,0,2023-07-11,2023-07-11,一般社団法人群馬県パワーリフティング協会,,その他の設立登記法人,群馬県,高崎市,大橋町２９番地１ダイアパレス北高崎ステーションサイドＢ１－Ｅ,,10,202,3700803,,,,,,,2023-07-11,1,,,,,グンマケンパワーリフティングキョウカイ,0
454,2110001037680,新規,0,2023-07-11,2023-07-11,株式会社フジタホールディングス,,株式会社,新潟県,新潟市中央区,白山浦２丁目６４５番地１,,15,103,9518131,,,,,,,2023-07-11,1,,,,,フジタホールディングス,0
455,2110001037689,新規,0,2023-07-11,2023-07-11,株式会社Ｕ．Ｐ,,株式会社,新潟県,新潟市中央区,女池２丁目２番２５号,,15,103,9500941,,,,,,,2023-07-11,1,,,,,ユーピー,0
456,2110003005099,新規,0,2023-07-11,2023-07-11,合同会社ＳＴ　Ｅｇｇ,,合同会社,新潟県,三条市,西裏館２丁目１１‐３２,,15,204,9550082,,,,,,,2023-07-11,1,,,,,エスティーエッグ,0
472,2120001256032,新規,0,2023-07-11,2023-07-11,ＳｕＪＰ株式会社,,株式会社,大阪府,大阪市旭区,今市１丁目２－５カルム千林４０２号室,,27,117,5350011,,,,,,,2023-07-11,1,,,,,エスユージェーピー,0
473,2120001256172,新規,0,2023-07-11,2023-07-11,＿熹株式会社,00131125,株式会社,大阪府,大阪市大正区,三軒家西３丁目４番１６号中山ビル３０２Ｂ,,27,108,5510001,,,,,,,2023-07-11,1,,,,,ケイキ,0
474,2120001256288,新規,0,2023-07-11,2023-07-11,シタミプラン株式会社,,株式会社,大阪府,大阪市北区,長柄東１丁目１番１１－２０２号,,27,127,5310063,,,,,,,2023-07-11,1,,,,,シタミプラン,0
475,2120001256321,新規,0,2023-07-11,2023-07-11,雅安株式会社,,株式会社,大阪府,大阪市中央区,南久宝寺町４丁目５番１５－８０４号,,27,128,5410058,,,,,,,2023-07-11,1,,,,,マサヤス,0
484,2122005003690,新規,0,2023-07-11,2023-07-11,医療法人かおり会,,その他の設立登記法人,大阪府,八尾市,春日町１丁目８番２９号龍華クリニックビル３階,,27,212,5810061,,,,,,,2023-07-11,1,,,,,カオリカイ,0
486,2130001074706,新規,0,2023-07-11,2023-07-11,株式会社ＺｅｓｔＣｈａｉｎ,,株式会社,京都府,京都市下京区,七条通油小路東入大黒町２２７番地第２キョートビル４０２,,26,106,6008223,,,,,,,2023-07-11,1,,,,,ゼストチェーン,0
493,2140001130879,新規,0,2023-07-11,2023-07-11,株式会社白糠ソーラーグレージング発電所,,株式会社,兵庫県,神戸市東灘区,住吉宮町３丁目７番１４号,,28,101,6580053,,,,,,,2023-07-11,1,,,,,シラヌカソーラーグレージングハツデンショ,0
497,2150001026523,新規,0,2023-07-11,2023-07-11,株式会社ＤＯＮ,,株式会社,奈良県,北葛城郡広陵町,馬見南２丁目１０番１０号,,29,426,6350833,,,,,,,2023-07-11,1,,,,,ドン,0
500,2160001025169,新規,0,2023-07-11,2023-07-11,Ｓｕｃｃｅｓｓ株式会社,,株式会社,滋賀県,高島市,今津町今津１６６０番地１,,25,212,5201621,,,,,,,2023-07-11,1,,,,,,0
501,2170001017685,新規,0,2023-07-11,2023-07-11,株式会社太田工業,,株式会社,和歌山県,和歌山市,楠見中１９１番地１ヤマイチＰＬＡＺＡトゥールビヨン３０７号,,30,201,6408463,,,,,,,2023-07-11,1,,,,,オオタコウギョウ,0
506,2180001157068,新規,0,2023-07-11,2023-07-11,株式会社ＭＮエステート,,株式会社,愛知県,名古屋市中川区,尾頭橋３丁目４番３２号プラウド金山１１０４号,,23,110,4540012,,,,,,,2023-07-11,1,,,,,エムエヌエステート,0
507,2180001157076,新規,0,2023-07-11,2023-07-11,株式会社ＧＬＯＣＫＥ,,株式会社,愛知県,名古屋市名東区,高針原２丁目１１０３番地パザパ２Ｅ,,23,115,4650073,,,,,,,2023-07-11,1,,,,,グロック,0
508,2180001157084,新規,0,2023-07-11,2023-07-11,株式会社アカツキ,,株式会社,愛知県,名古屋市名東区,貴船３丁目１５０５番地の４,,23,115,4650058,,,,,,,2023-07-11,1,,,,,アカツキ,0
509,2180001157101,新規,0,2023-07-11,2023-07-11,株式会社ミラエスト,,株式会社,愛知県,名古屋市西区,菊井１丁目１２番７号ＣＡＳＴＥＬＬＯ　ＬＵＳＳＯ４０２号,,23,104,4510044,,,,,,,2023-07-11,1,,,,,ミラエスト,0
512,2180003025470,新規,0,2023-07-11,2023-07-11,合同会社博愛,,合同会社,愛知県,清須市,清洲１丁目８－１６マルヒデコーポ２０１,,23,233,4520942,,,,,,,2023-07-11,1,,,,,ハクアイ,0
514,2180301037548,新規,0,2023-07-11,2023-07-11,株式会社五木産業,,株式会社,愛知県,豊川市,蔵子２丁目１６番地３０,,23,207,4420842,,,,,,,2023-07-11,1,,,,,イツキサンギョウ,0
521,2200001041491,新規,0,2023-07-11,2023-07-11,株式会社エフピープラス,,株式会社,岐阜県,岐阜市,加納長刀堀１丁目２８番地,,21,201,5008487,,,,,,,2023-07-11,1,,,,,エフピープラス,0
525,2220001025501,新規,0,2023-07-11,2023-07-11,オーガニックベース石川株式会社,,株式会社,石川県,珠洲市,正院町川尻１３部８７番地２,,17,205,9271205,,,,,,,2023-07-11,1,,,,,オーガニックベースイシカワ,0
527,2230001019907,新規,0,2023-07-11,2023-07-11,日華産業株式会社,,株式会社,富山県,南砺市,川西１８６番地４,,16,210,9391613,,,,,,,2023-07-11,1,,,,,ニッカサンギョウ,0
541,2290003014124,新規,0,2023-07-11,2023-07-11,ＡＨＫ‐合同会社,,合同会社,福岡県,福岡市中央区,荒戸２丁目２番２５－１２０３号,,40,133,8100062,,,,,,,2023-07-11,1,,,,,エーエイチケー,0
545,2310001018512,新規,0,2023-07-11,2023-07-11,株式会社杉村,,株式会社,長崎県,長崎市,戸石町９０４番地,,42,201,8510113,,,,,,,2023-07-11,1,,,,,スギムラ,0
550,2340001025720,新規,0,2023-07-11,2023-07-11,株式会社ナナフシ,,株式会社,鹿児島県,鹿児島市,千年１丁目２４番４号,,46,201,8900001,,,,,,,2023-07-11,1,,,,,ナナフシ,0
554,2340003004177,新規,0,2023-07-11,2023-07-11,合同会社エムアンド,,合同会社,鹿児島県,鹿児島市,自由ヶ丘１丁目２番２号,,46,201,8910106,,,,,,,2023-07-11,1,,,,,エムアンド,0
557,2360001032244,新規,0,2023-07-11,2023-07-11,株式会社沖縄長沼あいす,,株式会社,沖縄県,那覇市,牧志２丁目１７番２７－４０１号,,47,201,9000013,,,,,,,2023-07-11,1,,,,,オキナワナガヌマアイス,0
558,2360003013110,新規,0,2023-07-11,2023-07-11,合同会社沖縄トソウ,,合同会社,沖縄県,宜野湾市,喜友名２丁目６番１９号,,47,205,9012222,,,,,,,2023-07-11,1,,,,,オキナワトソウ,0
559,2370001050154,新規,0,2023-07-11,2023-07-11,株式会社ＳＴＭ　Ｇｏｏｄ　Ｃｏｍｐａｎｙ,,株式会社,宮城県,石巻市,新成２丁目６番地１,,04,202,9862105,,,,,,,2023-07-11,1,,,,,エスティーエムグッドカンパニー,0
569,2390001017309,新規,0,2023-07-11,2023-07-11,株式会社エムズクリエイト,,株式会社,山形県,鶴岡市,日出２丁目１０番２０号,,06,203,9970025,,,,,,,2023-07-11,1,,,,,エムズクリエイト,0
570,2400001016309,新規,0,2023-07-11,2023-07-11,株式会社ＡＳＫ,,株式会社,岩手県,花巻市,石鳥谷町西中島第１地割３番地１０,,03,205,0283162,,,,,,,2023-07-11,1,,,,,エーエスケー,0
576,2410005006528,新規,0,2023-07-11,2023-07-11,農事組合法人１１２０,,その他の設立登記法人,秋田県,秋田市,飯島飯田１丁目７番８号,,05,201,0110949,,,,,,,2023-07-11,1,,,,,イイジマ,0
587,2430005014743,新規,0,2023-07-11,2023-07-11,一般社団法人未来,,その他の設立登記法人,北海道,札幌市北区,篠路町拓北１６２番地４８,,01,102,0028054,,,,,,,2023-07-11,1,,,,,ミライ,0
597,3010001236762,新規,0,2023-07-11,2023-07-11,株式会社ラフロイグ総研,,株式会社,東京都,中央区,湊２丁目１１番１号,,13,102,1040043,,,,,,,2023-07-11,1,,,,,ラフロイグソウケン,0
598,3010005036911,新規,0,2023-07-11,2023-07-11,弁理士法人創光国際特許事務所,,その他の設立登記法人,東京都,千代田区,内神田１丁目１７番９号ＴＣＵビル８階,,13,101,1010047,,,,,,,2023-07-11,1,,,,,ソウコウコクサイトッキョジムショ,0
607,3010401175528,新規,0,2023-07-11,2023-07-11,株式会社グッドテック,,株式会社,東京都,港区,港南２丁目１６－４品川グランドセントラルタワー１７階,,13,103,1080075,,,,,,,2023-07-11,1,,,,,グッドテック,0
608,3010401175593,新規,0,2023-07-11,2023-07-11,洽隆化学株式会社,,株式会社,東京都,港区,赤坂２丁目８番１４‐５０４号,,13,103,1070052,,,,,,,2023-07-11,1,,,,,コウリュウカガク,0
609,3010401175635,新規,0,2023-07-11,2023-07-11,株式会社Ｖｅｉｌ,,株式会社,東京都,港区,南麻布２丁目９番１７号,,13,103,1060047,,,,,,,2023-07-11,1,,,,,ベール,0
610,3010403030474,新規,0,2023-07-11,2023-07-11,合同会社カリスマ,,合同会社,東京都,港区,南青山３丁目３－３,,13,103,1070062,,,,,,,2023-07-11,1,,,,,カリスマ,0
611,3010501050713,新規,0,2023-07-11,2023-07-11,株式会社らあく,,株式会社,東京都,台東区,蔵前１丁目５－１テクノフレックスビル,,13,106,1110051,,,,,,,2023-07-11,1,,,,,ラアク,0
612,3010501050738,新規,0,2023-07-11,2023-07-11,フリーザロックエージェント株式会社,,株式会社,東京都,台東区,西浅草２丁目２４番１号ＴＫビル８０１,,13,106,1110035,,,,,,,2023-07-11,1,,,,,フリーザロックエージェント,0
614,3010601063400,新規,0,2023-07-11,2023-07-11,株式会社オギ・ジャパン,,株式会社,東京都,墨田区,八広３丁目２０番１５号,,13,107,1310041,,,,,,,2023-07-11,1,,,,,オギジャパン,0
616,3010703006769,新規,0,2023-07-11,2023-07-11,鈴木商事合同会社,,合同会社,東京都,品川区,東大井１丁目１１－２５－１６１０,,13,109,1400011,,,,,,,2023-07-11,1,,,,,スズキショウジ,0
618,3010801034135,新規,0,2023-07-11,2023-07-11,株式会社増上機械,,株式会社,東京都,大田区,西蒲田８丁目２４－１ミマツビル３階,,13,111,1440051,,,,,,,2023-07-11,1,,,,,ゾウジョウキカイ,0
620,3010803004598,新規,0,2023-07-11,2023-07-11,合同会社ａｌｅｘａｎｄｅｒ　Ｊ,,合同会社,東京都,大田区,羽田５丁目１９－６,,13,111,1440043,,,,,,,2023-07-11,1,,,,,アレクサンダージェー,0
630,3011001155449,新規,0,2023-07-11,2023-07-11,株式会社Ａｍｏｕｒ,,株式会社,東京都,渋谷区,神宮前６丁目２３－４桑野ビル２階,,13,113,1500001,,,,,,,2023-07-11,1,,,,,アムール,0
631,3011001155556,新規,0,2023-07-11,2023-07-11,株式会社ジーエス,,株式会社,東京都,目黒区,緑が丘２丁目１番１４号,,13,110,1520034,,,,,,,2023-07-11,1,,,,,ジーエス,0
632,3011001155564,新規,0,2023-07-11,2023-07-11,ＦＲＡＴＥＬＬＯ　ＳＡＲＡＮ株式会社,,株式会社,東京都,渋谷区,恵比寿南１丁目２０－６第２１荒井ビル４階,,13,113,1500022,,,,,,,2023-07-11,1,,,,,フラテッロサラン,0
633,3011001155589,新規,0,2023-07-11,2023-07-11,株式会社ｂｕｂｅｋｉｃｈｉ,,株式会社,東京都,渋谷区,桜丘町２３番１７号シティコート桜丘４０８,,13,113,1500031,,,,,,,2023-07-11,1,,,,,ブベキチ,0
634,3011001155597,新規,0,2023-07-11,2023-07-11,株式会社モバミ,,株式会社,東京都,渋谷区,神山町１０－４菱和パレス代々木公園２０１,,13,113,1500047,,,,,,,2023-07-11,1,,,,,モバミ,0
635,3011001155622,新規,0,2023-07-11,2023-07-11,株式会社ｕｐｈｉｌｌ　ｗｏｒｋｓ,,株式会社,東京都,渋谷区,千駄ヶ谷３丁目５９－８原宿第２コーポ６０８,,13,113,1510051,,,,,,,2023-07-11,1,,,,,,0
637,3011003017135,新規,0,2023-07-11,2023-07-11,ｔ．ｈ．ｅ．合同会社,,合同会社,東京都,渋谷区,千駄ヶ谷１丁目８番１１号日興パレス千駄ヶ谷３０７号室,,13,113,1510051,,,,,,,2023-07-11,1,,,,,ティーエイチイー,0
639,3011101103530,新規,0,2023-07-11,2023-07-11,株式会社ＲＡＯ　Ｃ,,株式会社,東京都,新宿区,西新宿３丁目３番１３号西新宿水間ビル６階,,13,104,1600023,,,,,,,2023-07-11,1,,,,,ラオシー,0
640,3011101103539,新規,0,2023-07-11,2023-07-11,株式会社６・３,,株式会社,東京都,新宿区,改代町２７－４クレスト神楽坂１Ｆ,,13,104,1620802,,,,,,,2023-07-11,1,,,,,シックスポイントスリー,0
641,3011101103555,新規,0,2023-07-11,2023-07-11,株式会社ＮＢ,,株式会社,東京都,新宿区,西新宿７丁目５番５号Ｐｌａｚａ西新宿ＵＣＦ４階,,13,104,1600023,,,,,,,2023-07-11,1,,,,,エヌビー,0
647,3011401025268,新規,0,2023-07-11,2023-07-11,株式会社エディンバラ,,株式会社,東京都,板橋区,蓮根２丁目１９番３２号,,13,119,1740046,,,,,,,2023-07-11,1,,,,,エディンバラ,0
648,3011401025276,新規,0,2023-07-11,2023-07-11,株式会社みその果樹園,,株式会社,東京都,板橋区,成増４丁目１３番３０号,,13,119,1750094,,,,,,,2023-07-11,1,,,,,ミソノカジュエン,0
650,3011801042697,新規,0,2023-07-11,2023-07-11,Ｇ＆Ｑ株式会社,,株式会社,東京都,足立区,扇１丁目１５番７－７０２号,,13,121,1230873,,,,,,,2023-07-11,1,,,,,ジーアンドキュー,0
653,3011803005727,新規,0,2023-07-11,2023-07-11,合同会社スマイルクリーンサービス,,合同会社,東京都,葛飾区,亀有３丁目５５番６号,,13,122,1250061,,,,,,,2023-07-11,1,,,,,スマイルクリーンサービス,0
658,3012401040728,新規,0,2023-07-11,2023-07-11,株式会社オクヤマウッドワークス,,株式会社,東京都,三鷹市,野崎２丁目７番２号,,13,204,1810014,,,,,,,2023-07-11,1,,,,,オクヤマウッドワークス,0
659,3012401040736,新規,0,2023-07-11,2023-07-11,Ｋｏｇｍａ株式会社,,株式会社,東京都,調布市,下石原１丁目２６番地６,,13,208,1820034,,,,,,,2023-07-11,1,,,,,コグマ,0
660,3012703002748,新規,0,2023-07-11,2023-07-11,合同会社ポレポレプロジェクト,,合同会社,東京都,西東京市,南町３丁目１１番４号,,13,229,1880012,,,,,,,2023-07-11,1,,,,,ポレポレプロジェクト,0
663,3012801022499,新規,0,2023-07-11,2023-07-11,株式会社もときざか,,株式会社,東京都,東大和市,清水３丁目７９３番地の１,,13,220,2070004,,,,,,,2023-07-11,1,,,,,モトキザカ,0
668,3013301051022,新規,0,2023-07-11,2023-07-11,株式会社ＳＳパートナーズ,,株式会社,東京都,豊島区,池袋２丁目２０番９号コーポ東豊１０２,,13,116,1710014,,,,,,,2023-07-11,1,,,,,エスエスパートナーズ,0
669,3013303006701,新規,0,2023-07-11,2023-07-11,Ｉｎｔｅｌｌｅｃｔｕａｌ　ｐｒｏｐｅｒｔｙ　Ｆａｒｍ　Ｔｏｋｙｏ合同会社,,合同会社,東京都,豊島区,東池袋１丁目２番９号,,13,116,1700013,,,,,,,2023-07-11,1,,,,,インテレクチュアルプロパティファームトウキョウ,0
678,3020001152439,新規,0,2023-07-11,2023-07-11,株式会社飯塚政博事務所,00131126,株式会社,神奈川県,横浜市緑区,中山１丁目２３番１１号,,14,113,2260019,,,,,,,2023-07-11,1,,,,,イイヅカマサヒロジムショ,0
679,3020001152455,新規,0,2023-07-11,2023-07-11,株式会社ＨｉＬｅｍｏｎ,,株式会社,神奈川県,横浜市緑区,長津田町３１７５番地７,,14,113,2260026,,,,,,,2023-07-11,1,,,,,ハイレモン,0
680,3020003024223,新規,0,2023-07-11,2023-07-11,合同会社Ｒｅｍｏｎｔｅ,,合同会社,神奈川県,横浜市西区,北幸１丁目１１―１水信ビル７Ｆ,,14,103,2200004,,,,,,,2023-07-11,1,,,,,レモンテ,0
683,3021001079507,新規,0,2023-07-11,2023-07-11,株式会社宮川商事,,株式会社,神奈川県,小田原市,久野６３７番地の１８,,14,206,2500055,,,,,,,2023-07-11,1,,,,,ミヤガワショウジ,0
694,3040003022927,新規,0,2023-07-11,2023-07-11,Ｋｕｒｉｓｈｉａ合同会社,,合同会社,千葉県,山武郡九十九里町,片貝３４７４番地１,,12,403,2830104,,,,,,,2023-07-11,1,,,,,クリシア,0
696,3050001053114,新規,0,2023-07-11,2023-07-11,サウステック株式会社,,株式会社,茨城県,東茨城郡城里町,大字下赤沢５０４番地,,08,310,3114406,,,,,,,2023-07-11,1,,,,,サウステック,0
704,3070001040622,新規,0,2023-07-11,2023-07-11,株式会社Ｒｅ’Ｌ,,株式会社,群馬県,高崎市,問屋町西１丁目７番地２アーバンＫ・Ｆ１０３,,10,202,3700007,,,,,,,2023-07-11,1,,,,,リエル,0
708,3070005010142,新規,0,2023-07-11,2023-07-11,特定非営利活動法人ピースフル群馬,,その他の設立登記法人,群馬県,安中市,原市２丁目４番４－２号,,10,211,3790133,,,,,,,2023-07-11,1,,,,,,0
709,3080001025721,新規,0,2023-07-11,2023-07-11,ツボイホールディングス株式会社,,株式会社,静岡県,焼津市,小屋敷１３８番地,,22,212,4250076,,,,,,,2023-07-11,1,,,,,ツボイホールディングス,0
710,3080101024111,新規,0,2023-07-11,2023-07-11,株式会社一膳,,株式会社,静岡県,賀茂郡河津町,下佐ケ野３５１番１,,22,302,4130506,,,,,,,2023-07-11,1,,,,,イチゼン,0
717,3110001037688,新規,0,2023-07-11,2023-07-11,株式会社ｖｉｃｋｅｙ’７２,,株式会社,新潟県,長岡市,成願寺町９８６,,15,202,9400814,,,,,,,2023-07-11,1,,,,,ビッキーナナジュウニ,0
735,3120001256188,新規,0,2023-07-11,2023-07-11,ＷＥＬＬ　ＡＵＴＯ株式会社,,株式会社,大阪府,大阪市東住吉区,杭全２丁目７－１４,,27,121,5460002,,,,,,,2023-07-11,1,,,,,ウェルオート,0
736,3120001256279,新規,0,2023-07-11,2023-07-11,東伸建設株式会社,,株式会社,大阪府,大阪市鶴見区,今津北４丁目８番１０号,,27,124,5380041,,,,,,,2023-07-11,1,,,,,トウシンケンセツ,0
741,3120005023725,新規,0,2023-07-11,2023-07-11,医療法人杉新会,,その他の設立登記法人,大阪府,大阪市福島区,吉野４丁目１４番１５号２階,,27,103,5530006,,,,,,,2023-07-11,1,,,,,スギシンカイ,0
742,3120005023733,新規,0,2023-07-11,2023-07-11,一般社団法人レアライス,,その他の設立登記法人,大阪府,枚方市,出口１丁目９番５－８０７号,,27,210,5730065,,,,,,,2023-07-11,1,,,,,レアライス,0
747,3120101067857,新規,0,2023-07-11,2023-07-11,株式会社尾崎,00131131,株式会社,大阪府,大阪狭山市,狭山４丁目２４５５番地の１,,27,231,5890005,,,,,,,2023-07-11,1,,,,,オザキ,0
748,3120101067865,新規,0,2023-07-11,2023-07-11,トリプルグロー株式会社,,株式会社,大阪府,堺市南区,若松台３丁２３番８号,,27,145,5900116,,,,,,,2023-07-11,1,,,,,トリプルグロー,0
749,3120101067881,新規,0,2023-07-11,2023-07-11,株式会社Ｍｏｒｅ　Ｔ,,株式会社,大阪府,泉北郡忠岡町,馬瀬１丁目２－２０,,27,341,5950804,,,,,,,2023-07-11,1,,,,,モアティー,0
753,3120903004727,新規,0,2023-07-11,2023-07-11,合同会社雅,,合同会社,大阪府,箕面市,箕面５丁目１１番１１－２０３号,,27,220,5620001,,,,,,,2023-07-11,1,,,,,ミヤビ,0
754,3120903004735,新規,0,2023-07-11,2023-07-11,合同会社けやき経営管理事務所,,合同会社,大阪府,高槻市,弥生が丘町１９番５号,,27,207,5691021,,,,,,,2023-07-11,1,,,,,ケヤキケイエイカンリジムショ,0
757,3130001074655,新規,0,2023-07-11,2023-07-11,株式会社小川商店,,株式会社,京都府,長岡京市,奥海印寺火ノ尾１２番地,,26,209,6170853,,,,,,,2023-07-11,1,,,,,オガワショウテン,0
758,3130001074688,新規,0,2023-07-11,2023-07-11,株式会社くらしの伴走者,,株式会社,京都府,京都市上京区,七本松通一条下る三軒町６８番地,,26,102,6028341,,,,,,,2023-07-11,1,,,,,クラシノバンソウシャ,0
759,3130001074705,新規,0,2023-07-11,2023-07-11,株式会社ＰＳＶ,,株式会社,京都府,京都市伏見区,銀座町４丁目２８５番地,,26,109,6128089,,,,,,,2023-07-11,1,,,,,ピーエスブイ,0
770,3160001025168,新規,0,2023-07-11,2023-07-11,Ａｍｅｄｉｏ株式会社,,株式会社,滋賀県,愛知郡愛荘町,豊満８２３番地６,,25,425,5291321,,,,,,,2023-07-11,1,,,,,アメディオ,0
771,3160001025176,新規,0,2023-07-11,2023-07-11,株式会社Ａｓｋ＆Ｃｏ．,,株式会社,滋賀県,草津市,追分南５丁目１０番地７,,25,206,5250048,,,,,,,2023-07-11,1,,,,,エーエスケーアンドカンパニー,0
774,3180001157075,新規,0,2023-07-11,2023-07-11,株式会社一志設備名古屋,,株式会社,愛知県,名古屋市中村区,長筬町６丁目３１番地の２,,23,105,4530839,,,,,,,2023-07-11,1,,,,,イッシセツビナゴヤ,0
775,3180001157083,新規,0,2023-07-11,2023-07-11,光真工業株式会社,,株式会社,愛知県,一宮市,起字河田揚１０１４番地２,,23,203,4940006,,,,,,,2023-07-11,1,,,,,コウシンコウギョウ,0
776,3180001157091,新規,0,2023-07-11,2023-07-11,アクアクリーン株式会社,,株式会社,愛知県,北名古屋市,沖村佐渡６７番地,,23,234,4810043,,,,,,,2023-07-11,1,,,,,アクアクリーン,0
777,3180001157100,新規,0,2023-07-11,2023-07-11,株式会社ケーティーコーポレーション,,株式会社,愛知県,名古屋市天白区,原２丁目１０７番地サウスリバーサイドＫＡＮＯ７０９号,,23,116,4680015,,,,,,,2023-07-11,1,,,,,ケーティーコーポレーション,0
787,3180301037555,新規,0,2023-07-11,2023-07-11,株式会社インテックス,,株式会社,愛知県,安城市,西別所町本郷４１番地２,,23,212,4460012,,,,,,,2023-07-11,1,,,,,インテックス,0
790,3190003004373,新規,0,2023-07-11,2023-07-11,合同会社デジタルズーム,,合同会社,三重県,津市,垂水１２０２－２,,24,201,5140821,,,,,,,2023-07-11,1,,,,,デジタルズーム,0
791,3200001041474,新規,0,2023-07-11,2023-07-11,株式会社サンプロ,,株式会社,岐阜県,恵那市,上矢作町１８３１番地,,21,210,5097521,,,,,,,2023-07-11,1,,,,,サンプロ,0
792,3200001041482,新規,0,2023-07-11,2023-07-11,株式会社アルバトロス,,株式会社,岐阜県,大垣市,領家町３丁目８１番地,,21,202,5030014,,,,,,,2023-07-11,1,,,,,アルバトロス,0
798,3230001019906,新規,0,2023-07-11,2023-07-11,株式会社ＢＲＩＧＨＴ,,株式会社,富山県,富山市,八日町２４７番地１６,,16,201,9398221,,,,,,,2023-07-11,1,,,,,ブライト,0
802,3240001061782,新規,0,2023-07-11,2023-07-11,株式会社美邦建設,,株式会社,広島県,福山市,南手城町２丁目２７－２７,,34,207,7210963,,,,,,,2023-07-11,1,,,,,ミクニケンセツ,0
803,3240001061799,新規,0,2023-07-11,2023-07-11,株式会社吉塗,,株式会社,広島県,福山市,神辺町大字川南２９２番地１パストラーレＢ２０２,,34,207,7202124,,,,,,,2023-07-11,1,,,,,ヨシト,0
804,3240003006208,新規,0,2023-07-11,2023-07-11,ＩＳＬＡＮＤ　ＬＩＦＥ合同会社,,合同会社,広島県,福山市,鞆町後地１４１３番地２,,34,207,7200202,,,,,,,2023-07-11,1,,,,,アイランドライフ,0
807,3260001038110,新規,0,2023-07-11,2023-07-11,Ｋａｌａｂｏ株式会社,,株式会社,岡山県,倉敷市,松江１丁目１３番３１号,,33,202,7128052,,,,,,,2023-07-11,1,,,,,カラボ,0
813,3290001102219,新規,0,2023-07-11,2023-07-11,株式会社益正グループ,,株式会社,福岡県,福岡市中央区,赤坂１丁目４番２７号,,40,133,8100042,,,,,,,2023-07-11,1,,,,,マスマサグループ,0
814,3290001102243,新規,0,2023-07-11,2023-07-11,Ｍｏｕｎｔａｉｎ＆Ｖａｌｌｅｙ株式会社,,株式会社,福岡県,福岡市西区,今宿駅前１丁目１５番９号,,40,135,8190168,,,,,,,2023-07-11,1,,,,,マウンテンアンドバレイ,0
818,3290005019087,新規,0,2023-07-11,2023-07-11,一般社団法人オーパス・イイサ,,その他の設立登記法人,福岡県,福岡市中央区,鳥飼１丁目３番３８－２０２号,,40,133,8100053,,,,,,,2023-07-11,1,,,,,オーパスイイサ,0
819,3290801029685,新規,0,2023-07-11,2023-07-11,株式会社ｍｕｍｕ,,株式会社,福岡県,北九州市若松区,大谷町９番３５号,,40,103,8080051,,,,,,,2023-07-11,1,,,,,ムム,0
820,3300001013372,新規,0,2023-07-11,2023-07-11,株式会社太田農産,,株式会社,佐賀県,唐津市,浜玉町横田上８４０番地,,41,202,8495121,,,,,,,2023-07-11,1,,,,,オオタノウサン,0
823,3310003004600,新規,0,2023-07-11,2023-07-11,合同会社Ａ＆Ｋ,,合同会社,長崎県,長崎市,本河内３丁目３７－１５,,42,201,8500012,,,,,,,2023-07-11,1,,,,,エーアンドケー,0
829,3340001025703,新規,0,2023-07-11,2023-07-11,健康百寿株式会社,,株式会社,鹿児島県,鹿児島市,下荒田２丁目３０－５,,46,201,8900056,,,,,,,2023-07-11,1,,,,,ケンコウヒャクジュ,0
831,3360003013101,新規,0,2023-07-11,2023-07-11,琉球介護福祉コンサルティング合同会社,,合同会社,沖縄県,糸満市,字照屋１８７番地１、２０６,,47,210,9010315,,,,,,,2023-07-11,1,,,,,リュウキュウカイゴフクシコンサルティング,0
832,3370001050145,新規,0,2023-07-11,2023-07-11,ノーステック株式会社,,株式会社,宮城県,白石市,大鷹沢大町字矢ノ口下５１番地の１,,04,206,9890212,,,,,,,2023-07-11,1,,,,,ノーステック,0
833,3370001050153,新規,0,2023-07-11,2023-07-11,株式会社ＩＯＲＩＴ,,株式会社,宮城県,仙台市青葉区,中央２丁目２番３０号日興ビル３Ｆ,,04,101,9800021,,,,,,,2023-07-11,1,,,,,アイオリット,0
834,3370003006203,新規,0,2023-07-11,2023-07-11,合同会社Ｇｉｍｅｌ,,合同会社,宮城県,仙台市青葉区,花京院２丁目１―６１オークツリー仙台,,04,101,9800013,,,,,,,2023-07-11,1,,,,,ギメル,0
838,3380005012727,新規,0,2023-07-11,2023-07-11,一般社団法人発達支援ますと福島,,その他の設立登記法人,福島県,本宮市,和田字大木内７番地２,,07,214,9691205,,,,,,,2023-07-11,1,,,,,ハッタツシエンマストフクシマ,0
839,3390001017308,新規,0,2023-07-11,2023-07-11,大貫土木株式会社,,株式会社,山形県,尾花沢市,若葉町１丁目８番１５号,,06,212,9994225,,,,,,,2023-07-11,1,,,,,オオヌキドボク,0
843,3400001016308,新規,0,2023-07-11,2023-07-11,株式会社ビーアイシーピー・ハナレ,,株式会社,岩手県,気仙郡住田町,世田米字世田米駅６番地２,,03,441,0292311,,,,,,,2023-07-11,1,,,,,ビーアイシーピーハナレ,0
846,3410001013535,新規,0,2023-07-11,2023-07-11,アグリサポート咲株式会社,,株式会社,秋田県,能代市,二ツ井町種字宮ノ下１４０番地１,,05,202,0183132,,,,,,,2023-07-11,1,,,,,アグリサポートサキ,0
852,3430003015271,新規,0,2023-07-11,2023-07-11,合同会社ＺｉｇＺａｇＳａｐｐｏｒｏ,,合同会社,北海道,札幌市中央区,南二条西１０丁目１０００‐２４ＴＡＫＥＴＯビル,,01,101,0600062,,,,,,,2023-07-11,1,,,,,ジグザグサッポロ,0
854,3450001014042,新規,0,2023-07-11,2023-07-11,株式会社三幸,,株式会社,北海道,紋別市,北浜町１丁目８番２４号,,01,219,0940001,,,,,,,2023-07-11,1,,,,,サンコウ,0
855,3450001014050,新規,0,2023-07-11,2023-07-11,株式会社ＳＴＡＲＢＲＥＷ,,株式会社,北海道,旭川市,西神楽一線二十四号４７０番地,,01,204,0788381,,,,,,,2023-07-11,1,,,,,,0
859,3490001010525,新規,0,2023-07-11,2023-07-11,株式会社土佐カーボテック,,株式会社,高知県,土佐郡土佐町,田井字コヲペノ本３１７０番地,,39,363,7813521,,,,,,,2023-07-11,1,,,,,トサカーボテック,0
861,3500001025059,新規,0,2023-07-11,2023-07-11,株式会社ファーストプレイス,,株式会社,愛媛県,宇和島市,京町１番１号,,38,203,7980052,,,,,,,2023-07-11,1,,,,,ファーストプレイス,0
869,4010001236662,新規,0,2023-07-11,2023-07-11,株式会社ｅｎｏｒｅｚ,,株式会社,東京都,中央区,日本橋人形町１丁目２番１２号,,13,102,1030013,,,,,,,2023-07-11,1,,,,,エノレス,0
870,4010001236761,新規,0,2023-07-11,2023-07-11,株式会社涼＿水産,00131127,株式会社,東京都,中央区,銀座１丁目２２番１１号銀座大竹ビジデンス２階,,13,102,1040061,,,,,,,2023-07-11,1,,,,,リョウセイスイサン,0
871,4010001236786,新規,0,2023-07-11,2023-07-11,ＺＯ　ＭＯＴＯＲＳ株式会社,,株式会社,東京都,千代田区,丸の内２丁目２番１号岸本ビルヂング６Ｆ,,13,101,1000005,,,,,,,2023-07-11,1,,,,,ゾウモーターズ,0
872,4010001236811,新規,0,2023-07-11,2023-07-11,株式会社Ｒａｉｓｅ,,株式会社,東京都,中央区,銀座８丁目７番７号４階Ａ室,,13,102,1040061,,,,,,,2023-07-11,1,,,,,レイズ,0
876,4010003041078,新規,0,2023-07-11,2023-07-11,Ｃｏｔｅｃ合同会社,,合同会社,東京都,中央区,銀座１丁目２２番１１号銀座大竹ビジデンス２Ｆ,,13,102,1040061,,,,,,,2023-07-11,1,,,,,コーテック,0
878,4010005036919,新規,0,2023-07-11,2023-07-11,一般社団法人サステナブルファイナンスプラットフォーム運営協会,,その他の設立登記法人,東京都,千代田区,丸の内１丁目６番１号,,13,101,1000005,,,,,,,2023-07-11,1,,,,,サステナブルファイナンスプラットフォームウンエイキョウカイ,0
879,4010005036927,新規,0,2023-07-11,2023-07-11,ＥＳＲ２０１一般社団法人,,その他の設立登記法人,東京都,中央区,日本橋１丁目４番１号日本橋一丁目ビルディング,,13,102,1030027,,,,,,,2023-07-11,1,,,,,イーエスアールニヒャクイチ,0
892,4010401175601,新規,0,2023-07-11,2023-07-11,株式会社Ｃｏｎｄｉｔｉｏｎ１ｓｔ,,株式会社,東京都,港区,南青山３丁目１番３６号青山丸竹ビル６Ｆ,,13,103,1070062,,,,,,,2023-07-11,1,,,,,コンディションファースト,0
893,4010401175683,新規,0,2023-07-11,2023-07-11,株式会社Ｒｉｐｐｌｅ,,株式会社,東京都,港区,南青山２丁目２番１５号,,13,103,1070062,,,,,,,2023-07-11,1,,,,,リップル,0
894,4010401175691,新規,0,2023-07-11,2023-07-11,株式会社ＴＯＢＥ　ＬＩＶＥ　ＪＡＰＡＮ,,株式会社,東京都,港区,南青山４丁目１番１５号ベルテ南青山８０２,,13,103,1070062,,,,,,,2023-07-11,1,,,,,トゥービーライブジャパン,0
898,4010501050729,新規,0,2023-07-11,2023-07-11,株式会社ビードリーム,,株式会社,東京都,台東区,東上野６丁目２７番７－２０２号,,13,106,1100015,,,,,,,2023-07-11,1,,,,,ビードリーム,0
899,4010601063408,新規,0,2023-07-11,2023-07-11,エスジーロボティクス株式会社,,株式会社,東京都,江東区,森下３丁目５番９号,,13,108,1350004,,,,,,,2023-07-11,1,,,,,エスジーロボティクス,0
903,4010801034134,新規,0,2023-07-11,2023-07-11,株式会社エージェントサービス,,株式会社,東京都,大田区,東矢口３丁目６番１８号,,13,111,1460094,,,,,,,2023-07-11,1,,,,,エージェントサービス,0
907,4010901053397,新規,0,2023-07-11,2023-07-11,Ｋｏｚｙ’ｓ　Ｏｆｆｉｃｅ株式会社,,株式会社,東京都,世田谷区,等々力３丁目２０番９号,,13,112,1580082,,,,,,,2023-07-11,1,,,,,コージーズオフィス,0
913,4011001155563,新規,0,2023-07-11,2023-07-11,株式会社アステクト,,株式会社,東京都,渋谷区,渋谷３丁目２５番２１号渋谷ＮＴビル,,13,113,1500002,,,,,,,2023-07-11,1,,,,,アステクト,0
914,4011001155646,新規,0,2023-07-11,2023-07-11,株式会社ａｐｅｘ,,株式会社,東京都,渋谷区,道玄坂１丁目１０番８号渋谷道玄坂東急ビル２Ｆ－Ｃ,,13,113,1500043,,,,,,,2023-07-11,1,,,,,エイペックス,0
915,4011003017150,新規,0,2023-07-11,2023-07-11,合同会社Ｇｌａｄ　Ｏｒｉｇｉｎ,,合同会社,東京都,渋谷区,元代々木町５１‐９,,13,113,1510062,,,,,,,2023-07-11,1,,,,,グラッドオリジン,0
919,4011101103579,新規,0,2023-07-11,2023-07-11,株式会社ＭＹＬＡＢＥＬ,,株式会社,東京都,新宿区,市谷本村町３番２０号新盛堂ビル５Ｆ別館,,13,104,1620845,,,,,,,2023-07-11,1,,,,,マイラベル,0
921,4011201024766,新規,0,2023-07-11,2023-07-11,ｄｅｒａ株式会社,,株式会社,東京都,中野区,弥生町４丁目３６番１３－５０１号,,13,114,1640013,,,,,,,2023-07-11,1,,,,,デラ,0
923,4011401025283,新規,0,2023-07-11,2023-07-11,イエローテイル・ナビゲーション株式会社,,株式会社,東京都,板橋区,板橋４丁目２番１３号,,13,119,1730004,,,,,,,2023-07-11,1,,,,,イエローテイルナビゲーション,0
925,4011503005679,新規,0,2023-07-11,2023-07-11,合同会社ＴＡＫＵＲＡ,,合同会社,東京都,荒川区,町屋６丁目３４－８－１００４,,13,118,1160001,,,,,,,2023-07-11,1,,,,,タクラ,0
926,4011701026403,新規,0,2023-07-11,2023-07-11,株式会社協和ホールディングス,,株式会社,東京都,江戸川区,南葛西７丁目２番３－８１９号,,13,123,1340085,,,,,,,2023-07-11,1,,,,,キョウワホールディングス,0
927,4011701026411,新規,0,2023-07-11,2023-07-11,ＴｗｏＷａｙＰｌａｙｅｒ株式会社,,株式会社,東京都,江戸川区,西小岩３丁目１５番７号,,13,123,1330057,,,,,,,2023-07-11,1,,,,,ツーウェイプレイヤー,0
928,4011801042663,新規,0,2023-07-11,2023-07-11,Ｇ‐ｐｌｕｓ株式会社,,株式会社,東京都,足立区,青井３丁目３３番７号,,13,121,1200012,,,,,,,2023-07-11,1,,,,,ジープラス,0
929,4011801042688,新規,0,2023-07-11,2023-07-11,株式会社シンセリティ,,株式会社,東京都,葛飾区,堀切８丁目２６番２３号,,13,122,1240006,,,,,,,2023-07-11,1,,,,,シンセリティ,0
930,4011801042696,新規,0,2023-07-11,2023-07-11,株式会社龍栄,,株式会社,東京都,葛飾区,お花茶屋２丁目１６番１４号,,13,122,1240003,,,,,,,2023-07-11,1,,,,,リュウエイ,0
935,4012703002747,新規,0,2023-07-11,2023-07-11,高畠としひこ合同会社,00131130,合同会社,東京都,西東京市,北原町２丁目６番１７号,,13,229,1880003,,,,,,,2023-07-11,1,,,,,タカバタケトシヒコ,0
936,4012801022498,新規,0,2023-07-11,2023-07-11,株式会社江戸商人,,株式会社,東京都,国立市,谷保５８８５番地の２,,13,215,1860011,,,,,,,2023-07-11,1,,,,,エドショウニン,0
940,4013301051021,新規,0,2023-07-11,2023-07-11,株式会社イージス,,株式会社,東京都,豊島区,東池袋１丁目３４番５号いちご東池袋ビル６階,,13,116,1700013,,,,,,,2023-07-11,1,,,,,イージス,0
948,4020003024180,新規,0,2023-07-11,2023-07-11,合同会社みなおしハウジング,,合同会社,神奈川県,川崎市川崎区,駅前本町１１番地２川崎フロンティアビル４階,,14,131,2100007,,,,,,,2023-07-11,1,,,,,ミナオシハウジング,0
949,4020003024189,新規,0,2023-07-11,2023-07-11,合同会社ｐｌｕｍｅ,,合同会社,神奈川県,横浜市旭区,鶴ケ峰１丁目９６番地２５号,,14,112,2410022,,,,,,,2023-07-11,1,,,,,プリュム,0
950,4020003024197,新規,0,2023-07-11,2023-07-11,アルツチェック＆リカバー合同会社,,合同会社,神奈川県,横浜市栄区,田谷町２０２５－３,,14,115,2440844,,,,,,,2023-07-11,1,,,,,アルツチェックアンドリカバー,0
958,4021003013297,新規,0,2023-07-11,2023-07-11,オフィスＲ合同会社,,合同会社,神奈川県,相模原市南区,上鶴間５丁目８－１ブリリア東林間２１２,,14,153,2520302,,,,,,,2023-07-11,1,,,,,オフィスアール,0
961,4030001154821,新規,0,2023-07-11,2023-07-11,井形工業株式会社,,株式会社,埼玉県,越谷市,大字大泊６１１番地１４２,,11,222,3430044,,,,,,,2023-07-11,1,,,,,イガタコウギョウ,0
968,4040001129194,新規,0,2023-07-11,2023-07-11,株式会社トライテック,,株式会社,千葉県,富津市,青木３丁目２０番地３１,,12,226,2930012,,,,,,,2023-07-11,1,,,,,トライテック,0
969,4040005022065,新規,0,2023-07-11,2023-07-11,行政書士法人つばさ総合事務所,,その他の設立登記法人,千葉県,千葉市中央区,新宿２丁目１番１６号深山ビル２階,,12,101,2600021,,,,,,,2023-07-11,1,,,,,ツバサソウゴウジムショ,0
970,4070001040489,新規,0,2023-07-11,2023-07-11,ＡＤＩｎｔｅｒｎａｔｉｏｎａｌ株式会社,,株式会社,群馬県,桐生市,梅田町１丁目４６１－５,,10,203,3760601,,,,,,,2023-07-11,1,,,,,エーデイインターナショナル,0
971,4070001040621,新規,0,2023-07-11,2023-07-11,株式会社ほたかや本舗,,株式会社,群馬県,沼田市,上久屋町１２１２番地１,,10,206,3780003,,,,,,,2023-07-11,1,,,,,ホタカヤホンポ,0
973,4070003005028,新規,0,2023-07-11,2023-07-11,ＣＣ．ｊｐ合同会社,,合同会社,群馬県,前橋市,箱田町１０５０－１,,10,201,3710837,,,,,,,2023-07-11,1,,,,,シーシージェーピー,0
975,4070005010141,新規,0,2023-07-11,2023-07-11,一般社団法人シニアプラネット協会,,その他の設立登記法人,群馬県,渋川市,渋川２１０６番地３０,,10,208,3770008,,,,,,,2023-07-11,1,,,,,シニアプラネットキョウカイ,0
1001,4120001256170,新規,0,2023-07-11,2023-07-11,小鵬健康株式会社,,株式会社,大阪府,大阪市大正区,三軒家西３丁目４番１６号中山ビル３０７Ａ,,27,108,5510001,,,,,,,2023-07-11,1,,,,,ショウホウケンコウ,0
1002,4120001256220,新規,0,2023-07-11,2023-07-11,株式会社Ｐｕｒｓｅｎｃｅ,,株式会社,大阪府,大阪市中央区,船場中央１丁目３番２号１０１船場センタービル２号館１階,,27,128,5410055,,,,,,,2023-07-11,1,,,,,パーセンス,0
1003,4120001256261,新規,0,2023-07-11,2023-07-11,株式会社ＭＡＮＪＹＵ,,株式会社,大阪府,大阪市福島区,福島５丁目１６番１５号,,27,103,5530003,,,,,,,2023-07-11,1,,,,,マンジュ,0
1004,4120001256294,新規,0,2023-07-11,2023-07-11,株式会社ストラクトモア,,株式会社,大阪府,寝屋川市,香里北之町２４番１－３０１号,,27,215,5720080,,,,,,,2023-07-11,1,,,,,ストラクトモア,0
1010,4120003024427,新規,0,2023-07-11,2023-07-11,利久水産合同会社,,合同会社,大阪府,大阪市東住吉区,今林１丁目２番６８号大阪市中央卸売市場東部市場内,,27,121,5460001,,,,,,,2023-07-11,1,,,,,リキュウスイサン,0
1011,4120003024443,新規,0,2023-07-11,2023-07-11,Ｓｈｉｚｕｋａ　Ｅｖｅｒｅｓｔ合同会社,,合同会社,大阪府,枚方市,宮之阪３丁目６番２８号,,27,210,5730022,,,,,,,2023-07-11,1,,,,,シズカエベレスト,0
1012,4120005023732,新規,0,2023-07-11,2023-07-11,医療法人よい,,その他の設立登記法人,大阪府,大阪市東成区,大今里南５丁目１番１０号,,27,115,5370013,,,,,,,2023-07-11,1,,,,,ヨイ,0
1014,4120101067815,新規,0,2023-07-11,2023-07-11,千源貿易株式会社,,株式会社,大阪府,泉南郡熊取町,紺屋２丁目１６番９号,,27,361,5900412,,,,,,,2023-07-11,1,,,,,センゲンボウエキ,0
1015,4120101067856,新規,0,2023-07-11,2023-07-11,株式会社Ｖ６３４,,株式会社,大阪府,岸和田市,南上町１丁目３８番４号,,27,202,5960078,,,,,,,2023-07-11,1,,,,,ヴィムサシ,0
1016,4120101067864,新規,0,2023-07-11,2023-07-11,株式会社小笠原電設,,株式会社,大阪府,岸和田市,荒木町２丁目１９番２４号,,27,202,5960004,,,,,,,2023-07-11,1,,,,,オガサハラデンセツ,0
1018,4120903004726,新規,0,2023-07-11,2023-07-11,合同会社コスモ,,合同会社,大阪府,茨木市,中総持寺町４番２５号ラ・メゾンド・ジョワ１０３号,,27,211,5670803,,,,,,,2023-07-11,1,,,,,コスモ,0
1019,4122003002627,新規,0,2023-07-11,2023-07-11,合同会社Ｂｒａｉｎｓ,,合同会社,大阪府,八尾市,佐堂町２丁目２番５２号,,27,212,5810816,,,,,,,2023-07-11,1,,,,,ブレインズ,0
1023,4130001074687,新規,0,2023-07-11,2023-07-11,株式会社ＳＵＲＶＡＳ,,株式会社,京都府,福知山市,字土師１７５番地の５２,,26,201,6200857,,,,,,,2023-07-11,1,,,,,サーヴァス,0
1033,4140001130836,新規,0,2023-07-11,2023-07-11,株式会社Ｔ’ｓ,,株式会社,兵庫県,明石市,本町１丁目２番１８号,,28,203,6730892,,,,,,,2023-07-11,1,,,,,ティーズ,0
1034,4140001130860,新規,0,2023-07-11,2023-07-11,株式会社サンライズ,,株式会社,兵庫県,神戸市北区,唐櫃台２丁目４９番５号,,28,109,6511332,,,,,,,2023-07-11,1,,,,,サンライズ,0
1039,4140005026675,新規,0,2023-07-11,2023-07-11,特定非営利活動法人青い樹,,その他の設立登記法人,兵庫県,神戸市東灘区,青木３丁目１番２１号,,28,101,6580027,,,,,,,2023-07-11,1,,,,,アオイキ,0
1041,4160001025159,新規,0,2023-07-11,2023-07-11,株式会社４４３,,株式会社,滋賀県,長浜市,醍醐町６６番地,,25,203,5260213,,,,,,,2023-07-11,1,,,,,ヨンヨンサン,0
1045,4160003002924,新規,0,2023-07-11,2023-07-11,合同会社サウシード,,合同会社,滋賀県,大津市,打出浜２－１コラボしが２１創業プラザ滋賀Ｂ３６,,25,201,5200806,,,,,,,2023-07-11,1,,,,,サウシード,0
1050,4180001157066,新規,0,2023-07-11,2023-07-11,株式会社ＲＥＩＳＨＩＮ,,株式会社,愛知県,西春日井郡豊山町,大字豊場字流川１５３番地９,,23,342,4800202,,,,,,,2023-07-11,1,,,,,レイシン,0
1051,4180001157074,新規,0,2023-07-11,2023-07-11,株式会社Ｑｕｅｌｌｅ,,株式会社,愛知県,名古屋市西区,名駅１丁目１番１７号名駅ダイヤメイテツビル１１階,,23,104,4510045,,,,,,,2023-07-11,1,,,,,クヴェレ,0
1052,4180001157082,新規,0,2023-07-11,2023-07-11,株式会社楓,,株式会社,愛知県,名古屋市北区,杉栄町５丁目１０５番地,,23,103,4620829,,,,,,,2023-07-11,1,,,,,フウ,0
1053,4180001157090,新規,0,2023-07-11,2023-07-11,株式会社ＳＴＩＣＫ　ＴＩＬＥ,,株式会社,愛知県,名古屋市守山区,鳥羽見３丁目１０番２１号,,23,113,4630076,,,,,,,2023-07-11,1,,,,,スティックタイル,0
1054,4180001157099,新規,0,2023-07-11,2023-07-11,株式会社プラスウェル,,株式会社,愛知県,名古屋市千種区,千種通７丁目２５番１号サンライズ千種５０２号室,,23,101,4640855,,,,,,,2023-07-11,1,,,,,プラスウェル,0
1055,4180001157116,新規,0,2023-07-11,2023-07-11,株式会社ＳＥＬＥＮＥ,,株式会社,愛知県,名古屋市千種区,高見１丁目７番７号,,23,101,4640073,,,,,,,2023-07-11,1,,,,,セレン,0
1056,4180001157124,新規,0,2023-07-11,2023-07-11,株式会社和美屋ひじり,,株式会社,愛知県,名古屋市東区,白壁４丁目６３番地の３・３Ｆ,,23,102,4610011,,,,,,,2023-07-11,1,,,,,ナゴミヤヒジリ,0
1057,4180001157132,新規,0,2023-07-11,2023-07-11,ケータッチホーム株式会社,,株式会社,愛知県,名古屋市東区,東大曽根町４０番２号ヨコタコーポ２０５,,23,102,4610022,,,,,,,2023-07-11,1,,,,,ケータッチホーム,0
1060,4180003025460,新規,0,2023-07-11,2023-07-11,合同会社雅工業,,合同会社,愛知県,名古屋市名東区,高針台１丁目１０２番地,,23,115,4650054,,,,,,,2023-07-11,1,,,,,ミヤビコウギョウ,0
1061,4180003025469,新規,0,2023-07-11,2023-07-11,合同会社Ｒ．Ｊｒ,,合同会社,愛知県,名古屋市東区,東桜１丁目６番３号,,23,102,4610005,,,,,,,2023-07-11,1,,,,,アールジュニア,0
1062,4180005020286,新規,0,2023-07-11,2023-07-11,一般社団法人Ｔｓｕｔｓｕｍｉ　Ｐａｔｈｏｌｏｇｙ　Ｌｉｂｒａｒｙ,,その他の設立登記法人,愛知県,稲沢市,矢合町三吉跡１５５１番地１,,23,220,4928342,,,,,,,2023-07-11,1,,,,,ツツミパソロジーライブラリー,0
1065,4180301037546,新規,0,2023-07-11,2023-07-11,直美株式会社,,株式会社,愛知県,豊川市,御津町赤根前浜１番地,,23,207,4410316,,,,,,,2023-07-11,1,,,,,ナオミ,0
1069,4200001041473,新規,0,2023-07-11,2023-07-11,株式会社黒木板金,,株式会社,岐阜県,高山市,丹生川町法力５４９番地２,,21,203,5062132,,,,,,,2023-07-11,1,,,,,クロキバンキン,0
1070,4200001041481,新規,0,2023-07-11,2023-07-11,株式会社塩野組,,株式会社,岐阜県,可児市,土田５０９９番地,,21,214,5090206,,,,,,,2023-07-11,1,,,,,シオノグミ,0
1071,4200003006012,新規,0,2023-07-11,2023-07-11,合同会社明日葉,,合同会社,岐阜県,岐阜市,真砂町１１丁目１３番地,,21,201,5008864,,,,,,,2023-07-11,1,,,,,アスハ,0
1082,4240001061765,新規,0,2023-07-11,2023-07-11,株式会社ｐｌｕｓ‐ｏｎｅ,,株式会社,広島県,三次市,君田町藤兼１３７番地１,,34,209,7280403,,,,,,,2023-07-11,1,,,,,プラスワン,0
1083,4240001061781,新規,0,2023-07-11,2023-07-11,株式会社マイロケーション,,株式会社,広島県,呉市,焼山東４丁目６番１２－２号,,34,202,7370936,,,,,,,2023-07-11,1,,,,,マイロケーション,0
1084,4240005015610,新規,0,2023-07-11,2023-07-11,一般社団法人育ちの森,,その他の設立登記法人,広島県,広島市中区,江波南１丁目８番１８号,,34,101,7300835,,,,,,,2023-07-11,1,,,,,ソダチノモリ,0
1102,4290001102218,新規,0,2023-07-11,2023-07-11,咲耶株式会社,,株式会社,福岡県,福岡市博多区,築港本町６－５,,40,132,8120021,,,,,,,2023-07-11,1,,,,,サクヤ,0
1103,4290001102226,新規,0,2023-07-11,2023-07-11,株式会社ラクホビ,,株式会社,福岡県,福岡市東区,唐原４丁目７番２９号,,40,131,8130001,,,,,,,2023-07-11,1,,,,,ラクホビ,0
1104,4290003014122,新規,0,2023-07-11,2023-07-11,成弥コーポレーション合同会社,,合同会社,福岡県,福岡市中央区,梅光園２丁目４番１５号,,40,133,8100035,,,,,,,2023-07-11,1,,,,,セイヤコーポレーション,0
1105,4290003014130,新規,0,2023-07-11,2023-07-11,合同会社ブライトウェル,,合同会社,福岡県,大野城市,中２丁目８番１８―２号,,40,219,8160906,,,,,,,2023-07-11,1,,,,,ブライトウェル,0
1106,4290801029692,新規,0,2023-07-11,2023-07-11,株式会社ＣＧＣ,,株式会社,福岡県,北九州市小倉北区,京町３丁目６番１１号京町シンコービル７Ｆ,,40,106,8020002,,,,,,,2023-07-11,1,,,,,シージーシー,0
1109,4300003001993,新規,0,2023-07-11,2023-07-11,合同会社リーベージャルダン,,合同会社,佐賀県,佐賀市,本庄町大字本庄１０番地,,41,201,8400027,,,,,,,2023-07-11,1,,,,,リーベージャルダン,0
1110,4310001018510,新規,0,2023-07-11,2023-07-11,株式会社だしぼんず,,株式会社,長崎県,長崎市,浜町４番２２号,,42,201,8500853,,,,,,,2023-07-11,1,,,,,ダシボンズ,0
1113,4320001019879,新規,0,2023-07-11,2023-07-11,株式会社垣添産業,,株式会社,大分県,宇佐市,大字上時枝５５５番地,,44,211,8790315,,,,,,,2023-07-11,1,,,,,カキゾエサンギョウ,0
1114,4320005010090,新規,0,2023-07-11,2023-07-11,一般社団法人インバウンド全国推進協議会,,その他の設立登記法人,大分県,由布市,湯布院町湯平３０９番地１,,44,213,8795112,,,,,,,2023-07-11,1,,,,,インバウンドゼンコクスイシンキョウギカイ,0
1115,4340001025719,新規,0,2023-07-11,2023-07-11,株式会社ＩＭＯＲＯＣＫ,,株式会社,鹿児島県,鹿児島市,呉服町２番８号ＨＩＴＴＯＢＥ,,46,201,8920826,,,,,,,2023-07-11,1,,,,,イモロック,0
1117,4360001032234,新規,0,2023-07-11,2023-07-11,株式会社Ａｔｒｕｓｔ,,株式会社,沖縄県,南城市,大里字大城２３２９番地３,,47,215,9011203,,,,,,,2023-07-11,1,,,,,アトラスト,0
1118,4360003013109,新規,0,2023-07-11,2023-07-11,合同会社Ｏｋｉ　Ｃｅｙｌｏｎ　Ｔｒａｄｉｎｇ,,合同会社,沖縄県,那覇市,前島３丁目２５番２号・泊ポートビル１Ｆ,,47,201,9000016,,,,,,,2023-07-11,1,,,,,オキセイロントレーディング,0
1119,4370001050160,新規,0,2023-07-11,2023-07-11,株式会社鎌田不動産管理,,株式会社,宮城県,宮城郡利府町,神谷沢字金沢６６番地,,04,406,9810121,,,,,,,2023-07-11,1,,,,,カマタフドウサンカンリ,0
1120,4370003006202,新規,0,2023-07-11,2023-07-11,合同会社優真,,合同会社,宮城県,気仙沼市,本吉町津谷長根５４番地,,04,205,9880305,,,,,,,2023-07-11,1,,,,,ユウマ,0
1124,4380001033841,新規,0,2023-07-11,2023-07-11,株式会社ｓｈｉｎｙ　ｇａｔｅ,,株式会社,福島県,福島市,新町４番２８号,,07,201,9608036,,,,,,,2023-07-11,1,,,,,シャイニーゲート,0
1127,4390001017307,新規,0,2023-07-11,2023-07-11,株式会社べごや金治,,株式会社,山形県,尾花沢市,大字鶴巻田８５１番１,,06,212,9994337,,,,,,,2023-07-11,1,,,,,ベゴヤキンジ,0
1131,4400001016315,新規,0,2023-07-11,2023-07-11,株式会社ＡＤ．ＭＡＸホールディングス,,株式会社,岩手県,盛岡市,東安庭３丁目１番５３号,,03,201,0200824,,,,,,,2023-07-11,1,,,,,アドマックスホールディングス,0
1137,4410001013534,新規,0,2023-07-11,2023-07-11,秋田在宅介護株式会社,,株式会社,秋田県,秋田市,横森１丁目２０番３０号,,05,201,0100044,,,,,,,2023-07-11,1,,,,,アキタザイタクカイゴ,0
1143,4430005014741,新規,0,2023-07-11,2023-07-11,一般社団法人大構想推進会議,,その他の設立登記法人,北海道,札幌市中央区,円山西町７丁目３番１１号,,01,101,0640944,,,,,,,2023-07-11,1,,,,,ダイコウソウスイシンカイギ,0
1149,4450003002358,新規,0,2023-07-11,2023-07-11,合同会社もくもく,,合同会社,北海道,旭川市,八条通２丁目２３０３番地１,,01,204,0700038,,,,,,,2023-07-11,1,,,,,モクモク,0
1166,5010001236777,新規,0,2023-07-11,2023-07-11,オフィスＹＳ株式会社,,株式会社,東京都,文京区,小石川５丁目１７番１０号,,13,105,1120002,,,,,,,2023-07-11,1,,,,,オフィスワイエス,0
1167,5010001236793,新規,0,2023-07-11,2023-07-11,ジュアールジャパン株式会社,,株式会社,東京都,中央区,新富２丁目５番８号,,13,102,1040041,,,,,,,2023-07-11,1,,,,,ジュアールジャパン,0
1171,5010005036926,新規,0,2023-07-11,2023-07-11,ＥＳＲ２００一般社団法人,,その他の設立登記法人,東京都,中央区,日本橋１丁目４番１号日本橋一丁目ビルディング,,13,102,1030027,,,,,,,2023-07-11,1,,,,,イーエスアールニヒャク,0
1172,5010005036934,新規,0,2023-07-11,2023-07-11,一般社団法人ゴールデンシャワー,,その他の設立登記法人,東京都,中央区,日本橋１丁目４番１号,,13,102,1030027,,,,,,,2023-07-11,1,,,,,ゴールデンシャワー,0
1173,5010005036942,新規,0,2023-07-11,2023-07-11,一般社団法人メタバース医療・福祉・教育研究会,,その他の設立登記法人,東京都,千代田区,大手町２丁目６番４号,,13,101,1000004,,,,,,,2023-07-11,1,,,,,メタバースイリョウフクシキョウイクケンキュウカイ,0
1178,5010401175501,新規,0,2023-07-11,2023-07-11,株式会社ＤＡＤＡＣＡアセットマネジメント,,株式会社,東京都,港区,白金台５丁目１８番８号ラ・レジデンス・ド・白金台１０１,,13,103,1080071,,,,,,,2023-07-11,1,,,,,ダダカアセットマネジメント,0
1179,5010401175559,新規,0,2023-07-11,2023-07-11,株式会社メディカルＸ,,株式会社,東京都,港区,芝４丁目５番１０号,,13,103,1080014,,,,,,,2023-07-11,1,,,,,メディカルエックス,0
1180,5010401175575,新規,0,2023-07-11,2023-07-11,株式会社Ｕｐｓｅｔ　Ｂｅａｕｔｙ,,株式会社,東京都,港区,南青山３丁目８番４０号青山センタービル２階,,13,103,1070062,,,,,,,2023-07-11,1,,,,,アップセットビューティ,0
1181,5010401175600,新規,0,2023-07-11,2023-07-11,ｓｙｎｅｒｇｙＴＯＫＹＯ株式会社,,株式会社,東京都,港区,北青山１丁目３番１号,,13,103,1070061,,,,,,,2023-07-11,1,,,,,シナジートウキョウ,0
1182,5010401175609,新規,0,2023-07-11,2023-07-11,Ｍ＆Ｔ株式会社,,株式会社,東京都,港区,海岸１丁目９－１５スカイハウス浜離宮２３１５,,13,103,1050022,,,,,,,2023-07-11,1,,,,,エムアンドティー,0
1183,5010401175682,新規,0,2023-07-11,2023-07-11,ケッセル株式会社,,株式会社,東京都,港区,南青山２丁目２番１５号ウィン青山１２１４号,,13,103,1070062,,,,,,,2023-07-11,1,,,,,ケッセル,0
1186,5010501050736,新規,0,2023-07-11,2023-07-11,株式会社ＥＤＥＮ,,株式会社,東京都,台東区,根岸１丁目１番３２号,,13,106,1100003,,,,,,,2023-07-11,1,,,,,イーデン,0
1188,5010503007065,新規,0,2023-07-11,2023-07-11,合同会社新月芸術,,合同会社,東京都,台東区,北上野２丁目３－１３上野ダイカンプラザ１０２号室,,13,106,1100014,,,,,,,2023-07-11,1,,,,,シンゲツゲイジュツ,0
1195,5010801034125,新規,0,2023-07-11,2023-07-11,株式会社Ｅｓｐｅｒａｎｚａ　Ｅｄｇｅ．,,株式会社,東京都,大田区,西蒲田７丁目６０番８号西蒲田ビル１Ｆ,,13,111,1440051,,,,,,,2023-07-11,1,,,,,エスペランザエッジ,0
1196,5010801034141,新規,0,2023-07-11,2023-07-11,株式会社花恋,,株式会社,東京都,大田区,下丸子４丁目１番３号,,13,111,1460092,,,,,,,2023-07-11,1,,,,,カレン,0
1198,5010901053396,新規,0,2023-07-11,2023-07-11,株式会社Ｐｕｒｐｌｅ　Ｍｅｄｉｔｅｃｈ,,株式会社,東京都,世田谷区,代田６丁目１番２１号,,13,112,1550033,,,,,,,2023-07-11,1,,,,,パープルメディテック,0
1199,5010903008308,新規,0,2023-07-11,2023-07-11,合同会社エクイティエッジ,,合同会社,東京都,世田谷区,上祖師谷１丁目２３－４,,13,112,1570065,,,,,,,2023-07-11,1,,,,,エクイティエッジ,0
1202,5011001155579,新規,0,2023-07-11,2023-07-11,株式会社ＳＭ,,株式会社,東京都,渋谷区,千駄ヶ谷２丁目３番２－２０４号,,13,113,1510051,,,,,,,2023-07-11,1,,,,,エスエム,0
1203,5011003017141,新規,0,2023-07-11,2023-07-11,ａｒｅｖ合同会社,,合同会社,東京都,渋谷区,代官山町８番１９号,,13,113,1500034,,,,,,,2023-07-11,1,,,,,アレヴ,0
1205,5011101103545,新規,0,2023-07-11,2023-07-11,Ｎａｎｏｆｉｂｅｒ　Ｑｕａｎｔｕｍ　Ｔｅｃｈｎｏｌｏｇｉｅｓ株式会社,,株式会社,東京都,新宿区,西早稲田１丁目２２番３号,,13,104,1690051,,,,,,,2023-07-11,1,,,,,ナノファイバークオンタムテクノロジーズ,0
1207,5011103013230,新規,0,2023-07-11,2023-07-11,合同会社ｔｈｒｅｅｒｉｖｅｒ,,合同会社,東京都,新宿区,歌舞伎町２丁目４５番６号エル・グランジュテ新宿８０６,,13,104,1600021,,,,,,,2023-07-11,1,,,,,スリーリバー,0
1225,5012401040692,新規,0,2023-07-11,2023-07-11,府中ＢＡＳＥ株式会社,,株式会社,東京都,府中市,是政２丁目１６番２５号,,13,206,1830014,,,,,,,2023-07-11,1,,,,,フチュウベース,0
1226,5012401040734,新規,0,2023-07-11,2023-07-11,株式会社ぐるてんず,,株式会社,東京都,小金井市,前原町３丁目４０－１小金井スカイコーポラス２１２Ａ号室,,13,210,1840013,,,,,,,2023-07-11,1,,,,,グルテンズ,0
1231,5012703002746,新規,0,2023-07-11,2023-07-11,合同会社ひふみエステート,,合同会社,東京都,西東京市,南町５丁目２８番１３号,,13,229,1880012,,,,,,,2023-07-11,1,,,,,ヒフミエステート,0
1239,5013301051020,新規,0,2023-07-11,2023-07-11,ポケットマン株式会社,,株式会社,東京都,豊島区,東池袋３丁目８－５パレドール池袋５０７室,,13,116,1700013,,,,,,,2023-07-11,1,,,,,ポケットマン,0
1240,5013301051029,新規,0,2023-07-11,2023-07-11,株式会社Ｋプランニング,,株式会社,東京都,豊島区,目白４丁目１９番４－２０４号,,13,116,1710031,,,,,,,2023-07-11,1,,,,,ケープランニング,0
1244,5020001152437,新規,0,2023-07-11,2023-07-11,株式会社エンジョイワークス,,株式会社,神奈川県,横浜市神奈川区,台町６番地５－２０２号,,14,102,2210834,,,,,,,2023-07-11,1,,,,,エンジョイワークス,0
1245,5020001152453,新規,0,2023-07-11,2023-07-11,青木生花株式会社,,株式会社,神奈川県,川崎市幸区,中幸町３丁目７番２号,,14,132,2120012,,,,,,,2023-07-11,1,,,,,アオキセイカ,0
1250,5020003024196,新規,0,2023-07-11,2023-07-11,合同会社だいち,,合同会社,神奈川県,横浜市港北区,新吉田東５丁目６０番８号アネスタＫ１０２号室,,14,109,2230058,,,,,,,2023-07-11,1,,,,,ダイチ,0
1256,5021001079488,新規,0,2023-07-11,2023-07-11,株式会社ケイズ架装整備,,株式会社,神奈川県,綾瀬市,上土棚南４丁目１番２６号,,14,218,2521114,,,,,,,2023-07-11,1,,,,,ケイズカソウセイビ,0
1257,5021001079496,新規,0,2023-07-11,2023-07-11,株式会社スリーナイン,,株式会社,神奈川県,足柄下郡箱根町,強羅１３００－６０１－２０３,,14,382,2500408,,,,,,,2023-07-11,1,,,,,スリーナイン,0
1264,5030001154812,新規,0,2023-07-11,2023-07-11,株式会社ＭＣメンテナンス,,株式会社,埼玉県,三郷市,上彦名１７９番地３Ｂ１ビル２０１,,11,237,3410004,,,,,,,2023-07-11,1,,,,,エムシーメンテナンス,0
1265,5030001154829,新規,0,2023-07-11,2023-07-11,株式会社Ｖａｌｏｒ,,株式会社,埼玉県,さいたま市緑区,大字中尾２９１番地２プラザデルソール３０２,,11,109,3360932,,,,,,,2023-07-11,1,,,,,ヴァロー,0
1266,5030003022109,新規,0,2023-07-11,2023-07-11,合同会社ダブル,,合同会社,埼玉県,草加市,瀬崎６丁目８番４６号,,11,221,3400022,,,,,,,2023-07-11,1,,,,,ダブル,0
1269,5040001129177,新規,0,2023-07-11,2023-07-11,株式会社ケーエスディー,,株式会社,千葉県,千葉市稲毛区,黒砂４丁目１５番６号,,12,103,2630042,,,,,,,2023-07-11,1,,,,,ケーエスディー,0
1276,5050001052972,新規,0,2023-07-11,2023-07-11,株式会社飯田電気,,株式会社,茨城県,つくばみらい市,小島新田６４番地９,,08,235,3002352,,,,,,,2023-07-11,1,,,,,,0
1277,5050001053104,新規,0,2023-07-11,2023-07-11,株式会社中澤造園,,株式会社,茨城県,つくば市,吉沼５３４番地２３,,08,220,3002617,,,,,,,2023-07-11,1,,,,,ナカザワゾウエン,0
1278,5050003007628,新規,0,2023-07-11,2023-07-11,合同会社丸大水産,,合同会社,茨城県,北茨城市,関本町関本上２２８８番地６,,08,215,3191721,,,,,,,2023-07-11,1,,,,,マルダイスイサン,0
1280,5070001040629,新規,0,2023-07-11,2023-07-11,株式会社龍令,,株式会社,群馬県,伊勢崎市,三和町２３０９番地５,,10,204,3720011,,,,,,,2023-07-11,1,,,,,タツレイ,0
1282,5080103002848,新規,0,2023-07-11,2023-07-11,合同会社おおさか,,合同会社,静岡県,伊東市,南町１丁目２番１８号,,22,208,4140035,,,,,,,2023-07-11,1,,,,,オオサカ,0
1296,5110003005113,新規,0,2023-07-11,2023-07-11,合同会社ＴＭＲ,,合同会社,新潟県,見附市,学校町１丁目１５番２２号,,15,211,9540052,,,,,,,2023-07-11,1,,,,,ティーエムアール,0
1306,5120001256252,新規,0,2023-07-11,2023-07-11,東明株式会社,,株式会社,大阪府,大阪市淀川区,田川北２丁目５番３４号Ｄ棟２０２号室,,27,123,5320021,,,,,,,2023-07-11,1,,,,,トメイ,0
1312,5120101067847,新規,0,2023-07-11,2023-07-11,株式会社オールプラン,,株式会社,大阪府,堺市中区,平井８７４番地２３,,27,142,5998251,,,,,,,2023-07-11,1,,,,,オールプラン,0
1313,5120101067863,新規,0,2023-07-11,2023-07-11,株式会社ＰａＬ,,株式会社,大阪府,岸和田市,尾生町４丁目４番２３号,,27,202,5960816,,,,,,,2023-07-11,1,,,,,パル,0
1315,5120103005318,新規,0,2023-07-11,2023-07-11,合同会社ヨーゼフ,,合同会社,大阪府,堺市東区,野尻町４４７番地１１,,27,143,5998116,,,,,,,2023-07-11,1,,,,,ヨーゼフ,0
1320,5120905006488,新規,0,2023-07-11,2023-07-11,一般社団法人北摂循環器支援基金,,その他の設立登記法人,大阪府,高槻市,大字原３３０１番地の１,,27,207,5691051,,,,,,,2023-07-11,1,,,,,ホクセツジュンカンキシエンキキン,0
1324,5130001074686,新規,0,2023-07-11,2023-07-11,株式会社Ｇｔｒａｄｅ,,株式会社,京都府,八幡市,八幡女郎花８６番地の１ハイツ雅Ｂ棟２０１号,,26,210,6148077,,,,,,,2023-07-11,1,,,,,ジートレード,0
1325,5130001074703,新規,0,2023-07-11,2023-07-11,株式会社ＹＵ‐ＦＵＫＵ,,株式会社,京都府,宇治市,小倉町春日森３９番地１,,26,204,6110042,,,,,,,2023-07-11,1,,,,,ユーフク,0
1330,5140003019234,新規,0,2023-07-11,2023-07-11,合同会社神戸ファーマシューティカル,,合同会社,兵庫県,西宮市,名塩南台２丁目１２番１２号,,28,204,6691132,,,,,,,2023-07-11,1,,,,,コウベファーマシューティカル,0
1333,5150003002998,新規,0,2023-07-11,2023-07-11,Ｄｅｌｉｇｈｔ合同会社,,合同会社,奈良県,奈良市,大宮町３丁目２番５０（８０５）,,29,201,6308115,,,,,,,2023-07-11,1,,,,,デライト,0
1341,5180001157065,新規,0,2023-07-11,2023-07-11,株式会社良礼,,株式会社,愛知県,清須市,一場１４４番地３,,23,233,4520931,,,,,,,2023-07-11,1,,,,,リョウレイ,0
1342,5180001157073,新規,0,2023-07-11,2023-07-11,株式会社ｉｒｏｄｏｒｉ　ｗｏｒｋｓ,,株式会社,愛知県,名古屋市中村区,名駅４丁目２４番５号第２森ビル４０１,,23,105,4500002,,,,,,,2023-07-11,1,,,,,イロドリワークス,0
1343,5180001157081,新規,0,2023-07-11,2023-07-11,株式会社ＦＯＯＤＥＬＩＱ,,株式会社,愛知県,名古屋市中村区,豊国通２丁目１１番地の１,,23,105,4530834,,,,,,,2023-07-11,1,,,,,フーデリック,0
1344,5180001157107,新規,0,2023-07-11,2023-07-11,株式会社Ｓ＆Ｋモータース,,株式会社,愛知県,大府市,横根町名高山８４番地の７,,23,223,4740011,,,,,,,2023-07-11,1,,,,,エスアンドケーモータース,0
1347,5180003025468,新規,0,2023-07-11,2023-07-11,合同会社ＮＫＳ,,合同会社,愛知県,名古屋市中区,栄２丁目３番３２号アマノビル２０１,,23,106,4600008,,,,,,,2023-07-11,1,,,,,エヌケーエス,0
1349,5180301037561,新規,0,2023-07-11,2023-07-11,株式会社豊竹,,株式会社,愛知県,豊田市,浄水町伊保原１５５番地,,23,211,4700343,,,,,,,2023-07-11,1,,,,,トヨダケ,0
1351,5190001030568,新規,0,2023-07-11,2023-07-11,株式会社トランクワークス,,株式会社,三重県,桑名市,大字額田２０２８番地１０,,24,205,5110911,,,,,,,2023-07-11,1,,,,,トランクワークス,0
1353,5200001041480,新規,0,2023-07-11,2023-07-11,ＴｒａｃｅＣｏｒｅ株式会社,,株式会社,岐阜県,可児市,下切２７３１番地９,,21,214,5090245,,,,,,,2023-07-11,1,,,,,トレイスコア,0
1354,5200003006011,新規,0,2023-07-11,2023-07-11,合同会社ゆんとも,,合同会社,岐阜県,瑞穂市,別府８３９番地８,,21,216,5010222,,,,,,,2023-07-11,1,,,,,ユントモ,0
1366,5240001061756,新規,0,2023-07-11,2023-07-11,友丸商事株式会社,,株式会社,広島県,広島市西区,井口明神２丁目８番５号,,34,104,7330841,,,,,,,2023-07-11,1,,,,,トモマルショウジ,0
1367,5240001061797,新規,0,2023-07-11,2023-07-11,株式会社新建,,株式会社,広島県,広島市安佐北区,可部東６丁目２０番１号,,34,106,7310222,,,,,,,2023-07-11,1,,,,,ニッケン,0
1368,5250001020174,新規,0,2023-07-11,2023-07-11,株式会社松村左官工務店,,株式会社,山口県,周南市,西松原１丁目１番１１号,,35,215,7450054,,,,,,,2023-07-11,1,,,,,マツムラサカンコウムテン,0
1369,5250001020182,新規,0,2023-07-11,2023-07-11,株式会社ＮＨＰコーポレーション,,株式会社,山口県,防府市,開出西町５８４－２,,35,206,7470054,,,,,,,2023-07-11,1,,,,,エヌエッチピーコーポレーション,0
1376,5290001102209,新規,0,2023-07-11,2023-07-11,株式会社ＨＩＲＵＮＥ,,株式会社,福岡県,福岡市博多区,上呉服町２－２２－４０３,,40,132,8120036,,,,,,,2023-07-11,1,,,,,,0
1377,5290001102217,新規,0,2023-07-11,2023-07-11,株式会社ゼニスブルー,,株式会社,福岡県,福岡市博多区,中洲２丁目６番７号６Ｆ,,40,132,8100801,,,,,,,2023-07-11,1,,,,,ゼニスブルー,0
1378,5290001102225,新規,0,2023-07-11,2023-07-11,株式会社プラスハーツ,,株式会社,福岡県,福岡市博多区,店屋町２番２９号ｉＧＳ博多ビル６階,,40,132,8120025,,,,,,,2023-07-11,1,,,,,プラスハーツ,0
1380,5300003001992,新規,0,2023-07-11,2023-07-11,合同会社ＨＡＲＵ,,合同会社,佐賀県,唐津市,鏡２６５７番地１,,41,202,8470022,,,,,,,2023-07-11,1,,,,,ハル,0
1384,5340001025701,新規,0,2023-07-11,2023-07-11,株式会社クリエーションセキュリティー,,株式会社,鹿児島県,鹿児島市,真砂本町２１番３号,,46,201,8900067,,,,,,,2023-07-11,1,,,,,クリエーションセキュリティー,0
1389,5360001032225,新規,0,2023-07-11,2023-07-11,株式会社ｍｅｏｗ　ｍｅｏｗ,,株式会社,沖縄県,中頭郡北谷町,字美浜９番地１２,,47,326,9040115,,,,,,,2023-07-11,1,,,,,ミャウミャウ,0
1394,5380001033832,新規,0,2023-07-11,2023-07-11,デジタルリンク株式会社,,株式会社,福島県,いわき市,郷ケ丘２丁目１６番地の１０,,07,204,9708045,,,,,,,2023-07-11,1,,,,,デジタルリンク,0
1396,5380003005508,新規,0,2023-07-11,2023-07-11,合同会社ＹＡＩＣ,,合同会社,福島県,須賀川市,新町５３番地１新町貸家Ｄ号,,07,207,9620055,,,,,,,2023-07-11,1,,,,,ユーアイーシー,0
1400,5380005012725,新規,0,2023-07-11,2023-07-11,弁護士法人みちのくの風,,その他の設立登記法人,福島県,南相馬市,原町区高見町２丁目１０３番地,,07,212,9750033,,,,,,,2023-07-11,1,,,,,ミチノクノカゼ,0
1401,5390001017314,新規,0,2023-07-11,2023-07-11,株式会社ｒｏｎｄｅ,,株式会社,山形県,山形市,鈴川町３丁目４番９号,,06,201,9900062,,,,,,,2023-07-11,1,,,,,ロンド,0
1411,5430005014740,新規,0,2023-07-11,2023-07-11,一般社団法人おもいで,,その他の設立登記法人,北海道,札幌市白石区,菊水元町五条１丁目１４番６号,,01,104,0030825,,,,,,,2023-07-11,1,,,,,オモイデ,0
1413,5450001014049,新規,0,2023-07-11,2023-07-11,株式会社加藤林業,,株式会社,北海道,空知郡上富良野町,丘町１丁目６番１１号,,01,460,0710565,,,,,,,2023-07-11,1,,,,,カトウリンギョウ,0
1416,5480001012140,新規,0,2023-07-11,2023-07-11,株式会社Ｗ．ＰＲＯＤＵＣＴ,,株式会社,徳島県,鳴門市,鳴門町三ツ石字江尻山２２７番地２,,36,202,7720052,,,,,,,2023-07-11,1,,,,,ダブルプロダクト,0
1420,5500001025057,新規,0,2023-07-11,2023-07-11,株式会社グラッチェ,,株式会社,愛媛県,松山市,三番町３丁目６－１菅野ビル２階,,38,201,7900003,,,,,,,2023-07-11,1,,,,,グラッチェ,0
1422,5500003003060,新規,0,2023-07-11,2023-07-11,Ａ　Ｌｅｖｅｌ　Ｇｒｏｕｐ合同会社,,合同会社,愛媛県,松山市,三番町６丁目４－２７三番町ハイツ１５３,,38,201,7900003,,,,,,,2023-07-11,1,,,,,,0
1442,6010001236784,新規,0,2023-07-11,2023-07-11,株式会社カイゼント,,株式会社,東京都,中央区,新川１丁目１０番１０号とらい館,,13,102,1040033,,,,,,,2023-07-11,1,,,,,カイゼント,0
1443,6010001236801,新規,0,2023-07-11,2023-07-11,株式会社Ｇａｒａｇｅ＆Ｓｐａ箱根,,株式会社,東京都,中央区,勝どき３丁目４番６号,,13,102,1040054,,,,,,,2023-07-11,1,,,,,ガレージアンドスパハコネ,0
1447,6010005036917,新規,0,2023-07-11,2023-07-11,弁護士法人ＴＯＫＹＯ　ＳＴＡＲＴＵＰ,,その他の設立登記法人,東京都,千代田区,麹町６丁目６番２号番町麹町ビルディング５階,,13,101,1020083,,,,,,,2023-07-11,1,,,,,トウキョウスタートアップ,0
1457,6010401175541,新規,0,2023-07-11,2023-07-11,株式会社Ｗｏｒｋ　Ｉｔ,,株式会社,東京都,港区,新橋６丁目１３番９号３Ｆ,,13,103,1050004,,,,,,,2023-07-11,1,,,,,ワークイット,0
1458,6010401175558,新規,0,2023-07-11,2023-07-11,ＭＳＴマーシュ株式会社,,株式会社,東京都,港区,赤坂９丁目７番１号,,13,103,1070052,,,,,,,2023-07-11,1,,,,,エムエスティマーシュ,0
1459,6010401175574,新規,0,2023-07-11,2023-07-11,株式会社３１０Ｗａｖｅｓ,,株式会社,東京都,港区,南青山３丁目６番４号新幸ビル２４号,,13,103,1070062,,,,,,,2023-07-11,1,,,,,スリーテンウェーブス,0
1460,6010401175599,新規,0,2023-07-11,2023-07-11,ｆａｃｉａｌコルギＨｉｌｏ株式会社,,株式会社,東京都,港区,芝５丁目３０番１－５０２号,,13,103,1080014,,,,,,,2023-07-11,1,,,,,フェイシャルコルギヒロ,0
1462,6010403030463,新規,0,2023-07-11,2023-07-11,合同会社玖染商会,,合同会社,東京都,港区,北青山１丁目３番１号アールキューブ青山３階,,13,103,1070061,,,,,,,2023-07-11,1,,,,,クゼンショウカイ,0
1465,6010501050735,新規,0,2023-07-11,2023-07-11,株式会社人間百年ラブラトリ,,株式会社,東京都,台東区,下谷１丁目４番１０号上野ＳＫビル５階,,13,106,1100004,,,,,,,2023-07-11,1,,,,,ニンゲンヒャクネンラブラトリ,0
1468,6010603010249,新規,0,2023-07-11,2023-07-11,合同会社アトリエ丸山純奈,,合同会社,東京都,墨田区,業平３丁目１番１号,,13,107,1300002,,,,,,,2023-07-11,1,,,,,アトリエマルヤマジュンナ,0
1476,6010801034124,新規,0,2023-07-11,2023-07-11,株式会社ｍｏｌｅ,,株式会社,東京都,大田区,東雪谷１丁目２７番１２号コリノ洗足池４０２,,13,111,1450065,,,,,,,2023-07-11,1,,,,,モール,0
1480,6010901053387,新規,0,2023-07-11,2023-07-11,株式会社ＥＸＰ,,株式会社,東京都,世田谷区,玉川台２丁目３－１０第三ＹＮビル３０２,,13,112,1580096,,,,,,,2023-07-11,1,,,,,イーエックスピー,0
1481,6010903008307,新規,0,2023-07-11,2023-07-11,合同会社つづく,,合同会社,東京都,世田谷区,経堂５丁目３３番１３－５０４号,,13,112,1560052,,,,,,,2023-07-11,1,,,,,ツヅク,0
1486,6011001155545,新規,0,2023-07-11,2023-07-11,株式会社ＡＲＲＯＶＡ,,株式会社,東京都,渋谷区,恵比寿４丁目２０番３号,,13,113,1500013,,,,,,,2023-07-11,1,,,,,アローバ,0
1487,6011001155553,新規,0,2023-07-11,2023-07-11,株式会社ＣｏＰ,,株式会社,東京都,渋谷区,広尾５丁目３－４,,13,113,1500012,,,,,,,2023-07-11,1,,,,,シーオーピー,0
1488,6011001155611,新規,0,2023-07-11,2023-07-11,株式会社３６エージェンシー,,株式会社,東京都,渋谷区,渋谷２丁目１１番５号クロスオフィス渋谷メディオ９－Ｄ号室,,13,113,1500002,,,,,,,2023-07-11,1,,,,,サンロクエージェンシー,0
1494,6011101103528,新規,0,2023-07-11,2023-07-11,株式会社ＳＴＵＤＩＯ　ＤＥＧＰＯ,,株式会社,東京都,新宿区,中落合２丁目２３番４号,,13,104,1610032,,,,,,,2023-07-11,1,,,,,スタジオデジポ,0
1495,6011101103560,新規,0,2023-07-11,2023-07-11,株式会社ナレキシブル東京,,株式会社,東京都,新宿区,市谷仲之町２番１０号合羽坂テラス４号室,,13,104,1620064,,,,,,,2023-07-11,1,,,,,ナレキシブルトウキョウ,0
1499,6011201024764,新規,0,2023-07-11,2023-07-11,ＰＬＡＳ株式会社,,株式会社,東京都,中野区,南台４丁目３０番３号,,13,114,1640014,,,,,,,2023-07-11,1,,,,,プラス,0
1502,6011501029513,新規,0,2023-07-11,2023-07-11,株式会社Ｄｅａｒ　Ｔｅｄｄｙ,,株式会社,東京都,北区,浮間１丁目１番１４号リムジンビル３０３,,13,117,1150051,,,,,,,2023-07-11,1,,,,,,0
1505,6011503005677,新規,0,2023-07-11,2023-07-11,ＦｕｌｌＨｏｕｓｅ合同会社,,合同会社,東京都,北区,田端２丁目３番３号石川荘Ｃ号,,13,117,1140014,,,,,,,2023-07-11,1,,,,,,0
1508,6011701026392,新規,0,2023-07-11,2023-07-11,株式会社ＬＡＦＥＴＥ,,株式会社,東京都,江戸川区,一之江３丁目２番３８－５０５号,,13,123,1320024,,,,,,,2023-07-11,1,,,,,ラフェット,0
1509,6011703003522,新規,0,2023-07-11,2023-07-11,合同会社チームスティールヘッド,,合同会社,東京都,江戸川区,平井７丁目２７－１２,,13,123,1320035,,,,,,,2023-07-11,1,,,,,チームスティールヘッド,0
1514,6012401040725,新規,0,2023-07-11,2023-07-11,株式会社山湧,,株式会社,東京都,府中市,浅間町２丁目９番地の１２,,13,206,1830001,,,,,,,2023-07-11,1,,,,,ヤマユウ,0
1515,6012701017737,新規,0,2023-07-11,2023-07-11,株式会社点,,株式会社,東京都,小平市,たかの台１１番７メゾンソニア２０３,,13,211,1870024,,,,,,,2023-07-11,1,,,,,テン,0
1531,6020001152403,新規,0,2023-07-11,2023-07-11,日本野比貿易株式会社,,株式会社,神奈川県,横浜市金沢区,鳥浜町１６番６,,14,108,2360002,,,,,,,2023-07-11,1,,,,,ニホンノビボウエキ,0
1532,6020001152452,新規,0,2023-07-11,2023-07-11,株式会社ファミリー・カンパニー,,株式会社,神奈川県,横浜市西区,高島２丁目１１番２号－５１９,,14,103,2200011,,,,,,,2023-07-11,1,,,,,ファミリーカンパニー,0
1533,6020001152469,新規,0,2023-07-11,2023-07-11,株式会社ＴＲＩ　ＳＵＰＰＯＲＴ,,株式会社,神奈川県,横浜市戸塚区,舞岡町８４２番地４ココテラス横濱戸塚ヒルトップイーストＥ２０８号,,14,110,2440813,,,,,,,2023-07-11,1,,,,,トリサポート,0
1536,6020003024195,新規,0,2023-07-11,2023-07-11,ＦＫクリーン合同会社,,合同会社,神奈川県,横浜市磯子区,上町４番２２号,,14,107,2350001,,,,,,,2023-07-11,1,,,,,エフケークリーン,0
1541,6021001079487,新規,0,2023-07-11,2023-07-11,株式会社Ｓｔａｎｄ　Ｂｒｉｄｇｅ,,株式会社,神奈川県,茅ヶ崎市,柳島１丁目５番２８号ブライティアＢ１０２,,14,207,2530064,,,,,,,2023-07-11,1,,,,,スタンドブリッジ,0
1553,6040001129176,新規,0,2023-07-11,2023-07-11,３ＤＩ株式会社,,株式会社,千葉県,柏市,関場町６番４２号,,12,217,2770028,,,,,,,2023-07-11,1,,,,,サンディアイ,0
1554,6040001129184,新規,0,2023-07-11,2023-07-11,恵建設株式会社,,株式会社,千葉県,船橋市,金杉８丁目２４番１０号,,12,204,2730853,,,,,,,2023-07-11,1,,,,,メグミケンセツ,0
1558,6050001053103,新規,0,2023-07-11,2023-07-11,テック鍵安株式会社,,株式会社,茨城県,常総市,水海道宝町２７６２番地７,,08,211,3030023,,,,,,,2023-07-11,1,,,,,テックカギヤス,0
1562,6050005013292,新規,0,2023-07-11,2023-07-11,特定非営利活動法人ＮＰＯ人種差別撲滅協会,,その他の設立登記法人,茨城県,つくば市,吾妻１丁目５番７,,08,220,3050031,,,,,,,2023-07-11,1,,,,,ジンシュサベツボクメツキョウカイ,0
1568,6080101024117,新規,0,2023-07-11,2023-07-11,楽ソーシング・ジャパン株式会社,,株式会社,静岡県,富士宮市,中島町３５３番地の２９,,22,207,4180045,,,,,,,2023-07-11,1,,,,,ラクソーシングジャパン,0
1569,6080103002847,新規,0,2023-07-11,2023-07-11,合同会社ｐｕｒｅｂｌｕｅ７７,,合同会社,静岡県,沼津市,香貫が丘１２番５号,,22,203,4100824,,,,,,,2023-07-11,1,,,,,ピュアブルータナバタ,0
1575,6100003007101,新規,0,2023-07-11,2023-07-11,合同会社ミカサナレッジソリューションズ,,合同会社,長野県,上伊那郡箕輪町,大字中箕輪９３５－１,,20,383,3994601,,,,,,,2023-07-11,1,,,,,ミカサナレッジソリューションズ,0
1581,6120001256268,新規,0,2023-07-11,2023-07-11,ＪＭＣ　Ｄａｔａ株式会社,,株式会社,大阪府,大阪市北区,大深町４番２０号グランフロント大阪タワーＡ２９階,,27,127,5300011,,,,,,,2023-07-11,1,,,,,ジェイエムシーデータ,0
1582,6120001256276,新規,0,2023-07-11,2023-07-11,海納株式会社,,株式会社,大阪府,大阪市浪速区,敷津西１丁目１番２８号,,27,111,5560015,,,,,,,2023-07-11,1,,,,,カイノウ,0
1584,6120003024508,新規,0,2023-07-11,2023-07-11,合同会社Ａｎｅｍｏｉ,,合同会社,大阪府,大阪市北区,豊崎４丁目１１番２‐２３０３号,,27,127,5310072,,,,,,,2023-07-11,1,,,,,アネモイ,0
1593,6120101067854,新規,0,2023-07-11,2023-07-11,株式会社ｍｉｌｌｓ,,株式会社,大阪府,富田林市,須賀１丁目３番１３号,,27,214,5840062,,,,,,,2023-07-11,1,,,,,ミルズ,0
1594,6120101067862,新規,0,2023-07-11,2023-07-11,株式会社共伸ツール,,株式会社,大阪府,貝塚市,麻生中１１５６番地１３,,27,208,5970081,,,,,,,2023-07-11,1,,,,,キョウシンツール,0
1595,6120101067870,新規,0,2023-07-11,2023-07-11,株式会社Ａ　ｏｎｅ　ｐｌｕｓ,,株式会社,大阪府,河内長野市,南花台４丁目５番１０号,,27,216,5860077,,,,,,,2023-07-11,1,,,,,エーワンプラス,0
1596,6120103005317,新規,0,2023-07-11,2023-07-11,合同会社ＳｍａｒｔＫｅｅｐ,,合同会社,大阪府,岸和田市,荒木町１丁目４番５３号,,27,202,5960004,,,,,,,2023-07-11,1,,,,,スマートキープ,0
1597,6120901047774,新規,0,2023-07-11,2023-07-11,ＴＭＤｃｒｅｆｂ株式会社,,株式会社,大阪府,豊中市,刀根山２丁目７番６１の２号,,27,203,5600045,,,,,,,2023-07-11,1,,,,,ティエムディクリフブ,0
1598,6122001037136,新規,0,2023-07-11,2023-07-11,誠星株式会社,,株式会社,大阪府,東大阪市,日下町５丁目５番２６号,,27,227,5798003,,,,,,,2023-07-11,1,,,,,セイジョウ,0
1617,6160001025157,新規,0,2023-07-11,2023-07-11,アイポンプ株式会社,,株式会社,滋賀県,長浜市,南高田町９３－５,,25,203,5260032,,,,,,,2023-07-11,1,,,,,アイポンプ,0
1618,6160003002922,新規,0,2023-07-11,2023-07-11,合同会社ヤマモト,,合同会社,滋賀県,大津市,大江８丁目１６４番地の１８,,25,201,5202141,,,,,,,2023-07-11,1,,,,,ヤマモト,0
1621,6180001156925,新規,0,2023-07-11,2023-07-11,ｆｅｍＵｎｉｔｉ株式会社,,株式会社,愛知県,名古屋市千種区,星が丘元町１１番６号,,23,101,4640802,,,,,,,2023-07-11,1,,,,,フェミュニティ,0
1622,6180001157015,新規,0,2023-07-11,2023-07-11,株式会社Ｇｒｅｅｎ８,,株式会社,愛知県,名古屋市西区,歌里町１６６番地の１,,23,104,4520807,,,,,,,2023-07-11,1,,,,,グリーンエイト,0
1623,6180001157072,新規,0,2023-07-11,2023-07-11,株式会社ＭＴＫ,,株式会社,愛知県,名古屋市中川区,清船町１丁目１番地の１２,,23,110,4540832,,,,,,,2023-07-11,1,,,,,エムティケイ,0
1624,6180001157080,新規,0,2023-07-11,2023-07-11,株式会社ヒューマン,,株式会社,愛知県,名古屋市北区,如意２丁目８０番地,,23,103,4620007,,,,,,,2023-07-11,1,,,,,ヒューマン,0
1625,6180001157097,新規,0,2023-07-11,2023-07-11,ＯＤＳ株式会社,,株式会社,愛知県,春日井市,松河戸町３丁目１１番地１０,,23,206,4860932,,,,,,,2023-07-11,1,,,,,オーディーエス,0
1626,6180001157106,新規,0,2023-07-11,2023-07-11,株式会社カルテット,,株式会社,愛知県,大府市,横根町名高山８４番地の７,,23,223,4740011,,,,,,,2023-07-11,1,,,,,カルテット,0
1627,6180001157114,新規,0,2023-07-11,2023-07-11,株式会社ユースフル,,株式会社,愛知県,名古屋市北区,八代町１丁目１１番地,,23,103,4620043,,,,,,,2023-07-11,1,,,,,ユースフル,0
1632,6190003004370,新規,0,2023-07-11,2023-07-11,合同会社ＡＬＬＮＹ,,合同会社,三重県,津市,半田３４２５番地１５４,,24,201,5140823,,,,,,,2023-07-11,1,,,,,オールニー,0
1633,6190005011844,新規,0,2023-07-11,2023-07-11,医療法人ＥＱＭ,,その他の設立登記法人,三重県,度会郡玉城町,岡村４６１番地２,,24,461,5190406,,,,,,,2023-07-11,1,,,,,イーキューエム,0
1640,6230001019911,新規,0,2023-07-11,2023-07-11,株式会社Ｋ‐ＺＥＡＸ,,株式会社,富山県,富山市,田畑１６２３番地３６,,16,201,9318403,,,,,,,2023-07-11,1,,,,,ケージークス,0
1644,6240001061788,新規,0,2023-07-11,2023-07-11,株式会社ＡＮＰｚ,,株式会社,広島県,広島市南区,大須賀町１９番８号,,34,103,7320821,,,,,,,2023-07-11,1,,,,,エーエヌピーズ,0
1652,6260001038108,新規,0,2023-07-11,2023-07-11,株式会社リサイクルショップモンキー,,株式会社,岡山県,岡山市南区,中畦１３４番地,,33,104,7010213,,,,,,,2023-07-11,1,,,,,リサイクルショップモンキー,0
1660,6290001102199,新規,0,2023-07-11,2023-07-11,株式会社宮元電設,,株式会社,福岡県,糸島市,志摩小金丸３０４番地,,40,230,8191323,,,,,,,2023-07-11,1,,,,,ミヤモトデンセツ,0
1661,6290001102224,新規,0,2023-07-11,2023-07-11,株式会社Ａｎｅｌｌｏ筑紫野,,株式会社,福岡県,筑紫野市,塔原南２丁目１５１－１,,40,217,8180074,,,,,,,2023-07-11,1,,,,,アネーロチクシノ,0
1662,6290001102232,新規,0,2023-07-11,2023-07-11,Ｆｏｒｗａｒｄ株式会社,,株式会社,福岡県,福岡市城南区,田島４丁目６番２５－２０３号,,40,136,8140113,,,,,,,2023-07-11,1,,,,,フォワード,0
1663,6290001102240,新規,0,2023-07-11,2023-07-11,株式会社ＦＯＲＥＳＴ　ＣＯＭＰＡＮＹ,,株式会社,福岡県,福岡市東区,唐原１丁目４番２１号,,40,131,8130001,,,,,,,2023-07-11,1,,,,,フォレストカンパニー,0
1668,6320003004126,新規,0,2023-07-11,2023-07-11,合同会社ＣＯＢＢＬＥ,,合同会社,大分県,大分市,大字玉沢６９４番地３,,44,201,8701155,,,,,,,2023-07-11,1,,,,,コブル,0
1669,6320005010089,新規,0,2023-07-11,2023-07-11,一般社団法人日本紅茶アフタヌーンティーアカデミー,,その他の設立登記法人,大分県,別府市,朝見２丁目２番９号,,44,202,8740812,,,,,,,2023-07-11,1,,,,,ニホンコウチャアフタヌーンティーアカデミー,0
1670,6340001025717,新規,0,2023-07-11,2023-07-11,株式会社ＫＡＨＯ,,株式会社,鹿児島県,鹿児島市,小野４丁目５番５号,,46,201,8900021,,,,,,,2023-07-11,1,,,,,カホ,0
1674,6360001032240,新規,0,2023-07-11,2023-07-11,株式会社ＬｉｎＫｌｏｖｅｒ,,株式会社,沖縄県,那覇市,首里末吉町２丁目１４１番地２４,,47,201,9030801,,,,,,,2023-07-11,1,,,,,リンクローバー,0
1675,6360001032249,新規,0,2023-07-11,2023-07-11,株式会社大広産業,,株式会社,沖縄県,宮古島市,平良字松原７７番地,,47,214,9060014,,,,,,,2023-07-11,1,,,,,ダイコウサンギョウ,0
1676,6360001032265,新規,0,2023-07-11,2023-07-11,株式会社総合企画浅海,,株式会社,沖縄県,那覇市,首里末吉町４丁目５番２０号浅海ビル１０１,,47,201,9030801,,,,,,,2023-07-11,1,,,,,ソウゴウキカクセンカイ,0
1677,6360005006876,新規,0,2023-07-11,2023-07-11,一般社団法人マリンヒーローズ沖縄,,その他の設立登記法人,沖縄県,那覇市,前島３丁目２５番２号泊ポートビル１Ｆ,,47,201,9000016,,,,,,,2023-07-11,1,,,,,マリンヒーローズオキナワ,0
1684,6370005010654,新規,0,2023-07-11,2023-07-11,一般社団法人東日本セキュリティセンター,,その他の設立登記法人,宮城県,仙台市青葉区,本町１丁目９番５号,,04,101,9800014,,,,,,,2023-07-11,1,,,,,ヒガシニホンセキュリティセンター,0
1688,6380003005507,新規,0,2023-07-11,2023-07-11,合同会社のびシルベ,,合同会社,福島県,いわき市,常磐上湯長谷町扇田３９ー８,,07,204,9728322,,,,,,,2023-07-11,1,,,,,ノビシルベ,0
1691,6390001017313,新規,0,2023-07-11,2023-07-11,株式会社ＦＥＥＬＳ,,株式会社,山形県,酒田市,こがね町２丁目１９番地の５,,06,204,9980852,,,,,,,2023-07-11,1,,,,,フィールズ,0
1695,6410001013540,新規,0,2023-07-11,2023-07-11,ＦＵＴＡＫＡＴＡ　ＩＴ株式会社,,株式会社,秋田県,秋田市,旭川新藤田西町５番１９号,,05,201,0100832,,,,,,,2023-07-11,1,,,,,フタカタアイティー,0
1696,6410003003820,新規,0,2023-07-11,2023-07-11,合同会社悠希,,合同会社,秋田県,横手市,十文字町睦合字太郎四郎７３２番地１,,05,203,0190514,,,,,,,2023-07-11,1,,,,,ユウキ,0
1698,6420001018332,新規,0,2023-07-11,2023-07-11,Ｋファーム株式会社,,株式会社,青森県,つがる市,稲垣町繁田赤籏７２番地,,02,209,0370102,,,,,,,2023-07-11,1,,,,,ケイファーム,0
1708,6440001009288,新規,0,2023-07-11,2023-07-11,Ｓｅｑｕｅｌ株式会社,,株式会社,北海道,函館市,昭和３丁目５番１２号ベリーハウス昭和２０１号,,01,202,0410812,,,,,,,2023-07-11,1,,,,,,0
1711,6450001014048,新規,0,2023-07-11,2023-07-11,株式会社桜和会,,株式会社,北海道,旭川市,秋月一条２丁目３番８号,,01,204,0798401,,,,,,,2023-07-11,1,,,,,サクラカイ,0
1712,6450003002356,新規,0,2023-07-11,2023-07-11,合同会社スミカロジェスター,,合同会社,北海道,士別市,東二条６丁目３２番地,,01,220,0950012,,,,,,,2023-07-11,1,,,,,スミカロジェスター,0
1716,6490001010522,新規,0,2023-07-11,2023-07-11,株式会社野村建設,,株式会社,高知県,香南市,吉川町古川２９番地１,,39,211,7815242,,,,,,,2023-07-11,1,,,,,ノムラケンセツ,0
1733,7010001236767,新規,0,2023-07-11,2023-07-11,ＫＥＩトラステート株式会社,,株式会社,東京都,千代田区,飯田橋３丁目１番５号６Ｆ,,13,101,1020072,,,,,,,2023-07-11,1,,,,,ケイトラステート,0
1741,7010401175499,新規,0,2023-07-11,2023-07-11,株式会社ＴＳＰ．２０２２,,株式会社,東京都,港区,六本木５丁目１６番５号インペリアル六本木１号館５１０,,13,103,1060032,,,,,,,2023-07-11,1,,,,,ティエスピィドットニゼロニニ,0
1742,7010401175508,新規,0,2023-07-11,2023-07-11,斎藤警備保障株式会社,,株式会社,東京都,港区,西麻布２丁目２４番３２－１０１号,,13,103,1060031,,,,,,,2023-07-11,1,,,,,サイトウケイビホショウ,0
1743,7010401175549,新規,0,2023-07-11,2023-07-11,株式会社Ｂｕｆｆｆ,,株式会社,東京都,港区,赤坂１丁目１２番３２号アーク森ビル３Ｆ,,13,103,1070052,,,,,,,2023-07-11,1,,,,,バフ,0
1744,7010401175557,新規,0,2023-07-11,2023-07-11,バクスター・ジャパン株式会社,,株式会社,東京都,港区,芝浦３丁目４番１号,,13,103,1080023,,,,,,,2023-07-11,1,,,,,バクスタージャパン,0
1745,7010401175607,新規,0,2023-07-11,2023-07-11,Ｋアート株式会社,,株式会社,東京都,港区,元麻布１丁目３番１－２７０１号,,13,103,1060046,,,,,,,2023-07-11,1,,,,,ケイアート,0
1746,7010401175615,新規,0,2023-07-11,2023-07-11,株式会社Ｇ．Ｈ．Ｎｅｓｔ,,株式会社,東京都,港区,北青山１丁目３－１アールキューブ青山３Ｆ,,13,103,1070061,,,,,,,2023-07-11,1,,,,,ジーエイチネスト,0
1747,7010401175697,新規,0,2023-07-11,2023-07-11,株式会社ペティーナ,,株式会社,東京都,港区,赤坂２丁目５番８号ヒューリックＪＰ赤坂ビル,,13,103,1070052,,,,,,,2023-07-11,1,,,,,ペティーナ,0
1752,7010501050734,新規,0,2023-07-11,2023-07-11,株式会社ＴＪＦ,,株式会社,東京都,台東区,蔵前２丁目９－１２－８０１,,13,106,1110051,,,,,,,2023-07-11,1,,,,,ティージェイエフ,0
1753,7010501050742,新規,0,2023-07-11,2023-07-11,株式会社東京血流循環研究所,,株式会社,東京都,台東区,上野１丁目８－１０－３階,,13,106,1100005,,,,,,,2023-07-11,1,,,,,トウキョウケツリュウジュンカンケンキュウショ,0
1756,7010603010248,新規,0,2023-07-11,2023-07-11,ｕｎｉｔｅｎｓｅ合同会社,,合同会社,東京都,墨田区,堤通１丁目１９番８号,,13,107,1310034,,,,,,,2023-07-11,1,,,,,ユニテンス,0
1765,7010901053403,新規,0,2023-07-11,2023-07-11,株式会社ｔｏ　Ｂｅ,,株式会社,東京都,世田谷区,三軒茶屋２丁目５６番７号,,13,112,1540024,,,,,,,2023-07-11,1,,,,,トゥービー,0
1766,7010901053411,新規,0,2023-07-11,2023-07-11,株式会社ＳＨＩＫＡＫＵ,,株式会社,東京都,世田谷区,赤堤４丁目４８番８号Ｋビル３Ｆ,,13,112,1560044,,,,,,,2023-07-11,1,,,,,シカク,0
1768,7010903008306,新規,0,2023-07-11,2023-07-11,合同会社福岡秀敏写真事務所,,合同会社,東京都,世田谷区,砧３丁目３１番３号,,13,112,1570073,,,,,,,2023-07-11,1,,,,,フクオカヒデトシシャシンジムショ,0
1769,7010903008314,新規,0,2023-07-11,2023-07-11,合同会社Ｏｎｂｕ,,合同会社,東京都,世田谷区,北烏山３丁目２５番２０号,,13,112,1570061,,,,,,,2023-07-11,1,,,,,オンブ,0
1778,7011001155560,新規,0,2023-07-11,2023-07-11,ＩＧＭ株式会社,,株式会社,東京都,渋谷区,本町１丁目２１番１号ＳＨ小林ビル１０Ｆ,,13,113,1510071,,,,,,,2023-07-11,1,,,,,アイジーエム,0
1779,7011001155569,新規,0,2023-07-11,2023-07-11,株式会社ＢＩＯＴＥＣＨＷＯＲＫＳ‐Ｈ２,,株式会社,東京都,渋谷区,神宮前６丁目１８－３,,13,113,1500001,,,,,,,2023-07-11,1,,,,,バイオテックワークスエイチツー,0
1780,7011001155577,新規,0,2023-07-11,2023-07-11,株式会社ＷＡＶＥ,,株式会社,東京都,渋谷区,神宮前３丁目２１番２２号,,13,113,1500001,,,,,,,2023-07-11,1,,,,,ウェーブ,0
1786,7011101103535,新規,0,2023-07-11,2023-07-11,株式会社かだれ,,株式会社,東京都,新宿区,西新宿３丁目３番１３号西新宿水間ビル６階,,13,104,1600023,,,,,,,2023-07-11,1,,,,,カダレ,0
1787,7011101103568,新規,0,2023-07-11,2023-07-11,株式会社六環,,株式会社,東京都,新宿区,西新宿３丁目３番１３号西新宿水間ビル２Ｆ,,13,104,1600023,,,,,,,2023-07-11,1,,,,,ロッカン,0
1788,7011103013245,新規,0,2023-07-11,2023-07-11,合同会社Ｃｈｅｅｒ　ｆｏｒ　ＹＯＵ,,合同会社,東京都,新宿区,西落合１丁目５番８号,,13,104,1610031,,,,,,,2023-07-11,1,,,,,チアフォーユー,0
1796,7012303001849,新規,0,2023-07-11,2023-07-11,合同会社ＣＬＣ,,合同会社,東京都,町田市,野津田町１８６３番地４,,13,209,1950063,,,,,,,2023-07-11,1,,,,,シーエルシー,0
1814,7020001152344,新規,0,2023-07-11,2023-07-11,株式会社ユニ機工ホールディングス,,株式会社,神奈川県,横浜市旭区,若葉台１丁目８番６１４号,,14,112,2410801,,,,,,,2023-07-11,1,,,,,,0
1815,7020001152484,新規,0,2023-07-11,2023-07-11,株式会社鈴乃企画,,株式会社,神奈川県,横浜市神奈川区,六角橋５丁目１２番１４号,,14,102,2210802,,,,,,,2023-07-11,1,,,,,スズノキカク,0
1820,7020003024194,新規,0,2023-07-11,2023-07-11,合同会社サワダコーポレーション,,合同会社,神奈川県,川崎市宮前区,有馬６丁目５番１号カワノストア２０２,,14,136,2160003,,,,,,,2023-07-11,1,,,,,サワダコーポレーション,0
1827,7021001079511,新規,0,2023-07-11,2023-07-11,Ｐｒｏｇｒｅｓｓ株式会社,,株式会社,神奈川県,海老名市,今里２丁目７番３号,,14,215,2430423,,,,,,,2023-07-11,1,,,,,プログレス,0
1828,7021001079528,新規,0,2023-07-11,2023-07-11,小田塗装工業株式会社,,株式会社,神奈川県,足柄下郡箱根町,箱根５７２－３８,,14,382,2500521,,,,,,,2023-07-11,1,,,,,オダトソウコウギョウ,0
1836,7030001154777,新規,0,2023-07-11,2023-07-11,株式会社ハシビロ,,株式会社,埼玉県,富士見市,針ケ谷１丁目３番地２佐藤貸店舗Ｂ,,11,235,3540017,,,,,,,2023-07-11,1,,,,,ハシビロ,0
1837,7030001154810,新規,0,2023-07-11,2023-07-11,株式会社ワークマンズ,,株式会社,埼玉県,吉川市,大字上内川１９２６番地１,,11,243,3420001,,,,,,,2023-07-11,1,,,,,ワークマンズ,0
1845,7040001129175,新規,0,2023-07-11,2023-07-11,株式会社太基,,株式会社,千葉県,千葉市美浜区,真砂２丁目２２番１号ライオンズマンション検見川浜１１４号,,12,106,2610011,,,,,,,2023-07-11,1,,,,,タイキ,0
1847,7050001053119,新規,0,2023-07-11,2023-07-11,ジャパンエンジ株式会社,,株式会社,茨城県,土浦市,中村南４丁目１１番４０号,,08,203,3000843,,,,,,,2023-07-11,1,,,,,ジャパンエンジ,0
1852,7060001036147,新規,0,2023-07-11,2023-07-11,株式会社みかた,,株式会社,栃木県,小山市,大字千駄塚３８２番地４,,09,208,3290202,,,,,,,2023-07-11,1,,,,,ミカタ,0
1853,7060003004630,新規,0,2023-07-11,2023-07-11,合同会社７６ＰＬＡＮＴ,,合同会社,栃木県,宇都宮市,下荒井針町２４２９番地１,,09,201,3210000,,,,,,,2023-07-11,1,,,,,ナルプラント,0
1859,7070001040619,新規,0,2023-07-11,2023-07-11,花澤不動産株式会社,,株式会社,群馬県,高崎市,下中居町２５３番地７,,10,202,3700853,,,,,,,2023-07-11,1,,,,,ハナザワフドウサン,0
1860,7070001040635,新規,0,2023-07-11,2023-07-11,株式会社今井工業,,株式会社,群馬県,高崎市,沖町１６３番地１,,10,202,3700086,,,,,,,2023-07-11,1,,,,,イマイコウギョウ,0
1861,7070003005025,新規,0,2023-07-11,2023-07-11,合同会社令和農業,,合同会社,群馬県,甘楽郡甘楽町,大字白倉３３６４番地１,,10,384,3702213,,,,,,,2023-07-11,1,,,,,,0
1863,7080001025726,新規,0,2023-07-11,2023-07-11,株式会社ＡＹＡ‐ａｌｉｖｅ,,株式会社,静岡県,静岡市駿河区,高松３３２８番地の１,,22,102,4228034,,,,,,,2023-07-11,1,,,,,アヤアライブ,0
1865,7080103002846,新規,0,2023-07-11,2023-07-11,合同会社屋久島プロジェクト,,合同会社,静岡県,三島市,文教町１丁目５番１５号,,22,206,4110033,,,,,,,2023-07-11,1,,,,,ヤクシマプロジェクト,0
1880,7120001256036,新規,0,2023-07-11,2023-07-11,理査株式会社,00131135,株式会社,大阪府,大阪市旭区,今市１丁目２－５カルム千林４０６号室,,27,117,5350011,,,,,,,2023-07-11,1,,,,,リサ,0
1881,7120001256259,新規,0,2023-07-11,2023-07-11,株式会社レクト,,株式会社,大阪府,大阪市生野区,巽中２丁目１４番１８号,,27,116,5440013,,,,,,,2023-07-11,1,,,,,レクト,0
1882,7120001256283,新規,0,2023-07-11,2023-07-11,株式会社ロイス,,株式会社,大阪府,大阪市中央区,南船場３丁目４番２６号ザ・ピーク１Ｆ,,27,128,5420081,,,,,,,2023-07-11,1,,,,,ロイス,0
1883,7120001256374,新規,0,2023-07-11,2023-07-11,株式会社Ｃ．Ｊブリッジ,,株式会社,大阪府,大阪市東成区,深江北１丁目１４番１８－７０４号,,27,115,5370001,,,,,,,2023-07-11,1,,,,,シージェイブリッジ,0
1886,7120003024457,新規,0,2023-07-11,2023-07-11,Ｖｉｃｔｏｒｙ合同会社,,合同会社,大阪府,大阪市此花区,酉島３丁目１６番１７－２１１号,,27,104,5540051,,,,,,,2023-07-11,1,,,,,ビクトリー,0
1899,7120101067853,新規,0,2023-07-11,2023-07-11,株式会社ランディス,,株式会社,大阪府,泉南郡熊取町,七山３丁目９９６－３,,27,361,5900421,,,,,,,2023-07-11,1,,,,,ランディス,0
1905,7130001074734,新規,0,2023-07-11,2023-07-11,株式会社Ｍ＆Ｍ　Ｈｏｔｅｌ　Ｍａｎａｇｅｍｅｎｔ,,株式会社,京都府,京都市中京区,両替町通御池上る龍池町４４９番地１,,26,104,6048176,,,,,,,2023-07-11,1,,,,,エムアンドエムホテルマネジメント,0
1906,7130003008839,新規,0,2023-07-11,2023-07-11,合同会社Ｋ＆Ｋ,,合同会社,京都府,京都市下京区,朱雀宝蔵町４４番地協栄ビル２階京都朱雀スタジオＴ－２０２,,26,106,6008846,,,,,,,2023-07-11,1,,,,,ケーアンドケー,0
1907,7130005016807,新規,0,2023-07-11,2023-07-11,一般社団法人Ｍｉｉｔｕｓ　Ｓｏｃｉａｌ　Ｄｅｓｉｇｎ．,,その他の設立登記法人,京都府,京都市右京区,京北比賀江町亀ノ甲２１,,26,108,6010316,,,,,,,2023-07-11,1,,,,,ミータスソーシャルデザイン,0
1912,7150001026527,新規,0,2023-07-11,2023-07-11,株式会社匡城紙工,,株式会社,奈良県,北葛城郡広陵町,大字中２８８－１,,29,426,6350816,,,,,,,2023-07-11,1,,,,,コウセイシコウ,0
1914,7160001025156,新規,0,2023-07-11,2023-07-11,ア．イ．設備株式会社,,株式会社,滋賀県,長浜市,高月町高月７３２番地３,,25,203,5290241,,,,,,,2023-07-11,1,,,,,アイセツビ,0
1915,7160001025164,新規,0,2023-07-11,2023-07-11,株式会社ＴＡＫＥ２,,株式会社,滋賀県,草津市,追分南３丁目７－２２,,25,206,5250048,,,,,,,2023-07-11,1,,,,,テイクツー,0
1916,7160001025172,新規,0,2023-07-11,2023-07-11,株式会社花の淡海,,株式会社,滋賀県,栗東市,御園１７０６番地１,,25,208,5203005,,,,,,,2023-07-11,1,,,,,ハナノオウミ,0
1920,7180001156981,新規,0,2023-07-11,2023-07-11,株式会社ＤＶＮ　Ｃｏｍｐａｎｙ,,株式会社,愛知県,津島市,金柳町字北脇２０５番地ニューコーポ金柳一番館１００８号,,23,208,4960014,,,,,,,2023-07-11,1,,,,,ディーブイエヌカンパニー,0
1921,7180001157039,新規,0,2023-07-11,2023-07-11,株式会社ＩＫＥＮ,,株式会社,愛知県,江南市,河野町一色１２０番地,,23,217,4838365,,,,,,,2023-07-11,1,,,,,イケン,0
1922,7180001157063,新規,0,2023-07-11,2023-07-11,株式会社あおいろＴ．Ｓ,,株式会社,愛知県,名古屋市東区,大幸１丁目３番８号,,23,102,4610043,,,,,,,2023-07-11,1,,,,,アオイロティーエス,0
1923,7180001157071,新規,0,2023-07-11,2023-07-11,株式会社ＷＯＲＫＳ,,株式会社,愛知県,一宮市,大和町妙興寺字天神１０番地１４,,23,203,4910922,,,,,,,2023-07-11,1,,,,,ワークス,0
1924,7180001157088,新規,0,2023-07-11,2023-07-11,株式会社ＢＬＯＯＤ,,株式会社,愛知県,名古屋市東区,葵２丁目１４番５号,,23,102,4610004,,,,,,,2023-07-11,1,,,,,ブラッド,0
1925,7180001157105,新規,0,2023-07-11,2023-07-11,株式会社ＴＨＥ　ＷＯＯＤ,,株式会社,愛知県,半田市,田代町１０２－２,,23,205,4750948,,,,,,,2023-07-11,1,,,,,ザウッド,0
1926,7180001157121,新規,0,2023-07-11,2023-07-11,株式会社プロフィット・パートナーズ,,株式会社,愛知県,名古屋市西区,南堀越２丁目５番５号－１,,23,104,4510054,,,,,,,2023-07-11,1,,,,,プロフィットパートナーズ,0
1929,7180303005762,新規,0,2023-07-11,2023-07-11,合同会社Ｙ’ｓ　Ｏｎｅ,,合同会社,愛知県,知立市,南陽１丁目２３３番地ダイアパレス知立７１１,,23,225,4720004,,,,,,,2023-07-11,1,,,,,ワイズワン,0
1931,7190001030566,新規,0,2023-07-11,2023-07-11,株式会社Ｆｉｎｅｓｓｅ,,株式会社,三重県,いなべ市,大安町南金井２７８４番地７,,24,214,5110283,,,,,,,2023-07-11,1,,,,,フィネス,0
1933,7190005011843,新規,0,2023-07-11,2023-07-11,医療法人きらり歯科,,その他の設立登記法人,三重県,桑名市,陽だまりの丘７丁目１５１２番地,,24,205,5110867,,,,,,,2023-07-11,1,,,,,キラリシカ,0
1935,7200001041487,新規,0,2023-07-11,2023-07-11,株式会社Ｒ,,株式会社,岐阜県,可児郡御嵩町,上恵土４５４番地２,,21,521,5050126,,,,,,,2023-07-11,1,,,,,アール,0
1940,7220001025496,新規,0,2023-07-11,2023-07-11,株式会社アベニール,,株式会社,石川県,金沢市,北町丁８８番地,,17,201,9200055,,,,,,,2023-07-11,1,,,,,アベニール,0
1941,7220003003541,新規,0,2023-07-11,2023-07-11,合同会社Ｓ‐ＺＥＲＯ,,合同会社,石川県,金沢市,松村４丁目５５８番地４,,17,201,9200348,,,,,,,2023-07-11,1,,,,,エスゼロ,0
1942,7230001019910,新規,0,2023-07-11,2023-07-11,株式会社祐信工会,,株式会社,富山県,富山市,新庄町１７番地１４,,16,201,9300992,,,,,,,2023-07-11,1,,,,,ユウシンコウカイ,0
1948,7240001061787,新規,0,2023-07-11,2023-07-11,エムエージャパン株式会社,,株式会社,広島県,広島市安佐北区,可部東３丁目２番１９号,,34,106,7310222,,,,,,,2023-07-11,1,,,,,エムエージャパン,0
1949,7240001061795,新規,0,2023-07-11,2023-07-11,つばき工業株式会社,,株式会社,広島県,広島市南区,上東雲町１９番６号,,34,103,7340021,,,,,,,2023-07-11,1,,,,,ツバキコウギョウ,0
1953,7260001038115,新規,0,2023-07-11,2023-07-11,株式会社セントラルＳＵＧＩ,,株式会社,岡山県,倉敷市,西富井１２１８番地２,,33,202,7100845,,,,,,,2023-07-11,1,,,,,セントラルスギ,0
1959,7290001102207,新規,0,2023-07-11,2023-07-11,株式会社オープンテック,,株式会社,福岡県,福岡市中央区,薬院３丁目１６番２６号西鉄薬院ビル５Ｆ,,40,133,8100022,,,,,,,2023-07-11,1,,,,,オープンテック,0
1973,7340001025708,新規,0,2023-07-11,2023-07-11,株式会社ＬＥＥＷＡＹ,,株式会社,鹿児島県,姶良市,加治木町木田４９５－６,,46,225,8995241,,,,,,,2023-07-11,1,,,,,リーウェイ,0
1974,7340001025716,新規,0,2023-07-11,2023-07-11,株式会社ｅｓｔ,,株式会社,鹿児島県,鹿児島市,郡元１丁目１３番６８号,,46,201,8900065,,,,,,,2023-07-11,1,,,,,エスト,0
1981,7370003006199,新規,0,2023-07-11,2023-07-11,合同会社ＨＲＫコンサルティング,,合同会社,宮城県,仙台市泉区,七北田字東裏６５番地の６,,04,105,9813131,,,,,,,2023-07-11,1,,,,,エイチアールケイコンサルティング,0
1985,7390003002122,新規,0,2023-07-11,2023-07-11,合同会社可力,,合同会社,山形県,酒田市,観音寺字町後３１番地の２４,,06,204,9998235,,,,,,,2023-07-11,1,,,,,カリキ,0
1987,7400001016312,新規,0,2023-07-11,2023-07-11,株式会社ＣｒｏｓｓＨａｎｄｓ,,株式会社,岩手県,滝沢市,湯舟沢５３６番地３１,,03,216,0200617,,,,,,,2023-07-11,1,,,,,クロスハンズ,0
1988,7400003003110,新規,0,2023-07-11,2023-07-11,合同会社げんき,,合同会社,岩手県,九戸郡九戸村,大字江刺家第１５地割１５番地２,,03,506,0286505,,,,,,,2023-07-11,1,,,,,ゲンキ,0
1991,7420001018331,新規,0,2023-07-11,2023-07-11,株式会社Ｒｅ’ｇｒａｍ　ｐｌａｃｅ,,株式会社,青森県,青森市,大字新城字平岡８６５番地,,02,201,0380042,,,,,,,2023-07-11,1,,,,,リグラムプレイス,0
1999,7450001014047,新規,0,2023-07-11,2023-07-11,株式会社クリエイト,,株式会社,北海道,旭川市,神楽岡一条５丁目２番２号,,01,204,0788311,,,,,,,2023-07-11,1,,,,,,0
2010,7500005008626,新規,0,2023-07-11,2023-07-11,一般社団法人すみっこ工房,,その他の設立登記法人,愛媛県,南宇和郡愛南町,城辺甲２５４２番地,,38,506,7984131,,,,,,,2023-07-11,1,,,,,スミッココウボウ,0
2034,8010001236782,新規,0,2023-07-11,2023-07-11,株式会社ファンエイトコンサルティング,,株式会社,東京都,中央区,銀座１丁目１２番４号Ｎ＆ＥＢＬＤ．７階,,13,102,1040061,,,,,,,2023-07-11,1,,,,,ファンエイトコンサルティング,0
2037,8010005036923,新規,0,2023-07-11,2023-07-11,一般社団法人むすひ会,,その他の設立登記法人,東京都,千代田区,霞が関３丁目２番５号霞が関ビルディング５階,,13,101,1000013,,,,,,,2023-07-11,1,,,,,ムスヒカイ,0
2043,8010401175498,新規,0,2023-07-11,2023-07-11,ＳＴＧ　Ｅｎｅｒｇｙ株式会社,,株式会社,東京都,港区,赤坂９丁目６番２８号アルベルゴ乃木坂２０７号室,,13,103,1070052,,,,,,,2023-07-11,1,,,,,エスティージーエナジー,0
2044,8010401175580,新規,0,2023-07-11,2023-07-11,株式会社Ｃｒｅｄｏｓマスターリース,,株式会社,東京都,港区,虎ノ門４丁目１番２８号,,13,103,1050001,,,,,,,2023-07-11,1,,,,,クレドスマスターリース,0
2045,8010401175639,新規,0,2023-07-11,2023-07-11,ＡＺ　ＵＮＩＴＥ株式会社,,株式会社,東京都,港区,芝大門２丁目７－１ハイリーフ芝大門１０７,,13,103,1050012,,,,,,,2023-07-11,1,,,,,アズユナイト,0
2046,8010401175655,新規,0,2023-07-11,2023-07-11,Ｄｅｃａｏｃｔｏ株式会社,,株式会社,東京都,港区,浜松町２丁目２番１５号浜松町ダイヤビル２Ｆ,,13,103,1050013,,,,,,,2023-07-11,1,,,,,デカオクト,0
2050,8010405022325,新規,0,2023-07-11,2023-07-11,一般社団法人けやき,,その他の設立登記法人,東京都,港区,元赤坂１丁目１番８号赤坂コミュニティビル４階,,13,103,1070051,,,,,,,2023-07-11,1,,,,,ケヤキ,0
2051,8010501050741,新規,0,2023-07-11,2023-07-11,橙聯物流日本株式会社,,株式会社,東京都,台東区,台東２丁目２７番３号ＮＳＫビル１０Ｆ,,13,106,1100016,,,,,,,2023-07-11,1,,,,,トウレンブツリュウニホン,0
2053,8010503007079,新規,0,2023-07-11,2023-07-11,ハリカル合同会社,,合同会社,東京都,台東区,元浅草３丁目１０番１０号ソルフィエスタ新御徒町,,13,106,1110041,,,,,,,2023-07-11,1,,,,,ハリカル,0
2054,8010505003423,新規,0,2023-07-11,2023-07-11,一般社団法人ルカ基金,,その他の設立登記法人,東京都,台東区,根岸３丁目２番１２－７０１号,,13,106,1100003,,,,,,,2023-07-11,1,,,,,ルカキキン,0
2056,8010601063362,新規,0,2023-07-11,2023-07-11,株式会社ＬａｎｇＣｏｒｅ,,株式会社,東京都,江東区,豊洲３丁目４－２－Ｎ２２１４,,13,108,1350061,,,,,,,2023-07-11,1,,,,,ラングコア,0
2057,8010601063370,新規,0,2023-07-11,2023-07-11,ＬＣ株式会社,,株式会社,東京都,江東区,辰巳１丁目７－２８－７０８,,13,108,1350053,,,,,,,2023-07-11,1,,,,,,0
2060,8010903008305,新規,0,2023-07-11,2023-07-11,合同会社ローカルコモンズ,,合同会社,東京都,世田谷区,深沢５丁目２６番１０号,,13,112,1580081,,,,,,,2023-07-11,1,,,,,ローカルコモンズ,0
2069,8011001155551,新規,0,2023-07-11,2023-07-11,株式会社ウェクセル,,株式会社,東京都,渋谷区,神宮前６丁目２３番４号桑野ビル２階,,13,113,1500001,,,,,,,2023-07-11,1,,,,,ウェクセル,0
2070,8011001155626,新規,0,2023-07-11,2023-07-11,株式会社Ｇｒｏｏｖｅｒ,,株式会社,東京都,渋谷区,道玄坂１丁目１０－８渋谷道玄坂東急ビル２Ｆ－Ｃ,,13,113,1500043,,,,,,,2023-07-11,1,,,,,グルーバー,0
2071,8011001155634,新規,0,2023-07-11,2023-07-11,株式会社Ｐｅｔｅｒ’ｓ　Ｌａｂ,,株式会社,東京都,目黒区,下目黒１丁目８－１アルコタワー７Ｆ,,13,110,1530064,,,,,,,2023-07-11,1,,,,,ピーターズラボ,0
2072,8011003017130,新規,0,2023-07-11,2023-07-11,合同会社エーイーデザインラボ,,合同会社,東京都,渋谷区,道玄坂１丁目１０番８号渋谷道玄坂東急ビル２Ｆ－Ｃ,,13,113,1500043,,,,,,,2023-07-11,1,,,,,エーイーデザインラボ,0
2077,8011103013244,新規,0,2023-07-11,2023-07-11,合同会社サイテクスラボ,,合同会社,東京都,新宿区,西新宿３丁目３番１３号西新宿水間ビル２Ｆ,,13,104,1600023,,,,,,,2023-07-11,1,,,,,サイテクスラボ,0
2085,8011401025271,新規,0,2023-07-11,2023-07-11,株式会社Ｉｔａｇｏ,,株式会社,東京都,板橋区,仲宿４０番１号,,13,119,1730005,,,,,,,2023-07-11,1,,,,,イタゴ,0
2086,8011403004034,新規,0,2023-07-11,2023-07-11,サンセットセラーズジャパン合同会社,,合同会社,東京都,板橋区,成増３丁目５１番５号アドミレー成増６０２,,13,119,1750094,,,,,,,2023-07-11,1,,,,,サンセットセラーズジャパン,0
2087,8011405002250,新規,0,2023-07-11,2023-07-11,一般社団法人Ｘ　ＳＥＥＤ,,その他の設立登記法人,東京都,板橋区,赤塚７丁目２３番１２号,,13,119,1750092,,,,,,,2023-07-11,1,,,,,エックスシード,0
2089,8011801042692,新規,0,2023-07-11,2023-07-11,株式会社ホックコネクト,,株式会社,東京都,葛飾区,東金町５丁目２番４号,,13,122,1250041,,,,,,,2023-07-11,1,,,,,ホックコネクト,0
2090,8012303001848,新規,0,2023-07-11,2023-07-11,Ｔｈｅ　ｌｏｗ合同会社,,合同会社,東京都,町田市,上小山田町３０３５－１,,13,209,1940201,,,,,,,2023-07-11,1,,,,,ザロウ,0
2094,8012701017743,新規,0,2023-07-11,2023-07-11,株式会社ＨＲＡデザイン,,株式会社,東京都,西東京市,保谷町４丁目２番２７号,,13,229,2020015,,,,,,,2023-07-11,1,,,,,エイチアールデザイン,0
2098,8013301051026,新規,0,2023-07-11,2023-07-11,株式会社オムリス,,株式会社,東京都,豊島区,駒込６丁目３３番４号,,13,116,1700003,,,,,,,2023-07-11,1,,,,,オムリス,0
2099,8013303006696,新規,0,2023-07-11,2023-07-11,慎一合同会社,,合同会社,東京都,豊島区,南池袋１丁目２０－１１森下池袋第五ビルＢ１,,13,116,1710022,,,,,,,2023-07-11,1,,,,,シンイチ,0
2108,8020001152426,新規,0,2023-07-11,2023-07-11,株式会社緋美,,株式会社,神奈川県,横浜市中区,元町４丁目１６８番地,,14,104,2310861,,,,,,,2023-07-11,1,,,,,ヒビ,0
2109,8020001152467,新規,0,2023-07-11,2023-07-11,株式会社Ｂｅｅｒ　Ｔｈｉｒｔｙ,,株式会社,神奈川県,横浜市西区,みなとみらい２丁目２番１号ランドマークタワー１２階,,14,103,2200012,,,,,,,2023-07-11,1,,,,,ビアサーティー,0
2110,8020001152475,新規,0,2023-07-11,2023-07-11,株式会社小島組,,株式会社,神奈川県,横浜市戸塚区,上矢部町５６７番地５,,14,110,2450053,,,,,,,2023-07-11,1,,,,,,0
2117,8020003024160,新規,0,2023-07-11,2023-07-11,合同会社Ｇａｔｅ１Ｆｉｅｌｄ,,合同会社,神奈川県,川崎市宮前区,菅生４丁目７番１３－２号,,14,136,2160015,,,,,,,2023-07-11,1,,,,,ゲートワンフィールド,0
2118,8020003024169,新規,0,2023-07-11,2023-07-11,合同会社９代目別府,,合同会社,神奈川県,横浜市旭区,鶴ケ峰本町１丁目５番６－１０５号,,14,112,2410021,,,,,,,2023-07-11,1,,,,,キュウダイメベップ,0
2119,8020003024193,新規,0,2023-07-11,2023-07-11,合同会社ｕｎｃｈｏｒ,,合同会社,神奈川県,横浜市保土ケ谷区,月見台３８番６号,,14,106,2400012,,,,,,,2023-07-11,1,,,,,アンカー,0
2125,8021001079502,新規,0,2023-07-11,2023-07-11,セレスト株式会社,,株式会社,神奈川県,伊勢原市,東大竹７０７番地,,14,214,2591133,,,,,,,2023-07-11,1,,,,,セレスト,0
2134,8030001154801,新規,0,2023-07-11,2023-07-11,Ｒ‐Ｔインベストメント株式会社,,株式会社,埼玉県,行田市,大字北河原８６４番地６,,11,206,3610001,,,,,,,2023-07-11,1,,,,,アールティーインベストメント,0
2138,8030003022106,新規,0,2023-07-11,2023-07-11,Ｒａｆｆｙ合同会社,,合同会社,埼玉県,坂戸市,大字紺屋４３６番地１６,,11,239,3500204,,,,,,,2023-07-11,1,,,,,ラフィー,0
2144,8040001129166,新規,0,2023-07-11,2023-07-11,株式会社イマオカ,,株式会社,千葉県,袖ケ浦市,福王台２丁目４番地９,,12,229,2990261,,,,,,,2023-07-11,1,,,,,イマオカ,0
2145,8040001129174,新規,0,2023-07-11,2023-07-11,松本工業株式会社,,株式会社,千葉県,千葉市若葉区,若松町５３１番地７３９,,12,104,2640021,,,,,,,2023-07-11,1,,,,,マツモトコウギョウ,0
2152,8060003004646,新規,0,2023-07-11,2023-07-11,合同会社よろずや福ちゃん,,合同会社,栃木県,宇都宮市,下河原１丁目１－３,,09,201,3200824,,,,,,,2023-07-11,1,,,,,ヨロズヤフクチャン,0
2156,8070001040618,新規,0,2023-07-11,2023-07-11,株式会社Ｃｕｓｔｏｄｉａｌ,,株式会社,群馬県,高崎市,江木町１００６番地４,,10,202,3700046,,,,,,,2023-07-11,1,,,,,カストーディアル,0
2157,8070001040634,新規,0,2023-07-11,2023-07-11,株式会社ｍｕｕｔｏｕｓ,,株式会社,群馬県,伊勢崎市,境女塚１３８番地５,,10,204,3700121,,,,,,,2023-07-11,1,,,,,ムータス,0
2159,8070003005016,新規,0,2023-07-11,2023-07-11,ホワイトレード合同会社,,合同会社,群馬県,館林市,大島町２２９４番地の３,,10,207,3740001,,,,,,,2023-07-11,1,,,,,ホワイトレード,0
2161,8080001025725,新規,0,2023-07-11,2023-07-11,株式会社千徳工業,,株式会社,静岡県,静岡市清水区,蒲原神沢９５番地の２,,22,103,4213215,,,,,,,2023-07-11,1,,,,,セントクコウギョウ,0
2165,8080403004822,新規,0,2023-07-11,2023-07-11,ＮＫＫ合同会社,,合同会社,静岡県,磐田市,竜洋稗原６４１番地,,22,211,4380213,,,,,,,2023-07-11,1,,,,,エヌケーケー,0
2172,8110001037691,新規,0,2023-07-11,2023-07-11,株式会社小川,,株式会社,新潟県,新潟市秋葉区,川口９２番地５,,15,105,9560015,,,,,,,2023-07-11,1,,,,,オガワ,0
2181,8120001256274,新規,0,2023-07-11,2023-07-11,株式会社Ａｘｉａ,,株式会社,大阪府,大阪市中央区,南船場１丁目１０番１２号ラインビルド４０２,,27,128,5420081,,,,,,,2023-07-11,1,,,,,アクシア,0
2182,8120001256316,新規,0,2023-07-11,2023-07-11,株式会社リエイト,,株式会社,大阪府,大阪市城東区,東中浜６丁目１４番９号,,27,118,5360023,,,,,,,2023-07-11,1,,,,,リエイト,0
2187,8120101067860,新規,0,2023-07-11,2023-07-11,冷和機器株式会社,,株式会社,大阪府,藤井寺市,藤井寺４丁目１３－４４,,27,226,5830024,,,,,,,2023-07-11,1,,,,,レイワキキ,0
2188,8120101067869,新規,0,2023-07-11,2023-07-11,株式会社Ａ．Ｃ　ＲＩＳＥ,,株式会社,大阪府,堺市中区,深井清水町３２８２尾崎ビル２階,,27,142,5998273,,,,,,,2023-07-11,1,,,,,エーシーライズ,0
2192,8120103005315,新規,0,2023-07-11,2023-07-11,合同会社ＲＳＯメディカル,,合同会社,大阪府,和泉市,春木町６７９番地の１,,27,219,5941141,,,,,,,2023-07-11,1,,,,,アールエスオーメディカル,0
2193,8120103005323,新規,0,2023-07-11,2023-07-11,合同会社ＲａｉｓｅＬｅｏｎ,,合同会社,大阪府,堺市美原区,黒山４１２番地３,,27,147,5870002,,,,,,,2023-07-11,1,,,,,レイズレオン,0
2197,8120901047772,新規,0,2023-07-11,2023-07-11,株式会社ＣＲＥＳＴ　ＷＯＲＫＳ,,株式会社,大阪府,豊中市,桜の町６丁目８番５－２０２号,,27,203,5600054,,,,,,,2023-07-11,1,,,,,クレストワークス,0
2201,8120905006485,新規,0,2023-07-11,2023-07-11,一般社団法人水の安全臨床検査機構・子供の水と健康を守る会,,その他の設立登記法人,大阪府,吹田市,江の木町１６番４０－４０１号,,27,205,5640053,,,,,,,2023-07-11,1,,,,,ミズノアンゼンリンショウケンサキコウコドモノミズトケンコウヲマモルカイ,0
2203,8122001037150,新規,0,2023-07-11,2023-07-11,株式会社ＳＴＵＤＩＯ　Ｋ,,株式会社,大阪府,四條畷市,大字清瀧５番地の２,,27,229,5750063,,,,,,,2023-07-11,1,,,,,スタジオケイ,0
2205,8130001074691,新規,0,2023-07-11,2023-07-11,アイドリームズ株式会社,,株式会社,京都府,京都市右京区,西京極午塚町３２番地,00131128,26,108,6150885,,,,,,,2023-07-11,1,,,,,アイドリームズ,0
2206,8130001074700,新規,0,2023-07-11,2023-07-11,ＳＳＲ株式会社,,株式会社,京都府,京都市下京区,中堂寺粟田町９３番地,,26,106,6008815,,,,,,,2023-07-11,1,,,,,エスエスアール,0
2207,8130005016822,新規,0,2023-07-11,2023-07-11,医療法人たなか歯科,,その他の設立登記法人,京都府,相楽郡精華町,祝園西１丁目３０番地３－２Ｆ,,26,366,6190240,,,,,,,2023-07-11,1,,,,,タナカシカ,0
2213,8140003019264,新規,0,2023-07-11,2023-07-11,合同会社Ｓｕｎｂｒｉｇｈｔ　Ｊａｐａｎ　Ｍｙａｎｍａｒ　Ｇａｔｅｗａｙ,,合同会社,兵庫県,芦屋市,西蔵町７－２８－５０２,,28,206,6590026,,,,,,,2023-07-11,1,,,,,サンブライトジャパンミャンマーゲートウェイ,0
2217,8150001026526,新規,0,2023-07-11,2023-07-11,株式会社Ｐａｇｅ　Ｏｎｅ,,株式会社,奈良県,北葛城郡上牧町,大字上牧３８８４番地南１－１１号,,29,424,6390214,,,,,,,2023-07-11,1,,,,,ページワン,0
2221,8160001025163,新規,0,2023-07-11,2023-07-11,株式会社Ｒｅａｌ　Ａｓｓｅｔ　Ｍａｎａｇｅｍｅｎｔ,,株式会社,滋賀県,守山市,吉身２丁目４番１２号２Ｆ,,25,207,5240021,,,,,,,2023-07-11,1,,,,,リアルアセットマネジメント,0
2226,8180001157070,新規,0,2023-07-11,2023-07-11,和田電工株式会社,,株式会社,愛知県,名古屋市緑区,旭出３丁目９０８番地,,23,114,4580031,,,,,,,2023-07-11,1,,,,,ワダデンコウ,0
2227,8180001157087,新規,0,2023-07-11,2023-07-11,株式会社折戸会計事務所,,株式会社,愛知県,半田市,大和町２丁目３３番地５,,23,205,4750841,,,,,,,2023-07-11,1,,,,,オリトカイケイジムショ,0
2228,8180001157104,新規,0,2023-07-11,2023-07-11,株式会社ＮＥＥＴＳ,,株式会社,愛知県,名古屋市守山区,大字上志段味字東谷２０８５－２,,23,113,4630001,,,,,,,2023-07-11,1,,,,,ニーツ,0
2229,8180001157112,新規,0,2023-07-11,2023-07-11,ミロクプランニング株式会社,,株式会社,愛知県,名古屋市瑞穂区,新開町２５番１８号,,23,108,4670856,,,,,,,2023-07-11,1,,,,,ミロクプランニング,0
2230,8180001157129,新規,0,2023-07-11,2023-07-11,株式会社ＴＵＫＵＲＵ,,株式会社,愛知県,名古屋市緑区,潮見が丘３丁目１番地の３６,,23,114,4580037,,,,,,,2023-07-11,1,,,,,ツクル,0
2240,8180303005761,新規,0,2023-07-11,2023-07-11,ＳＡＹＵＭＩ　ＩＮＴＥＲＮＡＴＩＯＮＡＬ合同会社,,合同会社,愛知県,豊田市,浄水町伊保原１番地６２,,23,211,4700343,,,,,,,2023-07-11,1,,,,,サユミインターナショナル,0
2243,8200001041478,新規,0,2023-07-11,2023-07-11,丸源商事株式会社,,株式会社,岐阜県,可児郡御嵩町,顔戸１１０７番地１３,,21,521,5050122,,,,,,,2023-07-11,1,,,,,マルゲンショウジ,0
2244,8200001041486,新規,0,2023-07-11,2023-07-11,株式会社ＭＲ,,株式会社,岐阜県,瑞穂市,別府１３１７番地１,,21,216,5010222,,,,,,,2023-07-11,1,,,,,エムアール,0
2253,8240001061778,新規,0,2023-07-11,2023-07-11,株式会社ＴＹ　ＬＩＮＥ,,株式会社,広島県,呉市,押込１丁目１０番２１号,,34,202,7370915,,,,,,,2023-07-11,1,,,,,ティーワイライン,0
2254,8240001061786,新規,0,2023-07-11,2023-07-11,株式会社グランアルブル,,株式会社,広島県,安芸郡府中町,青崎東１１番８－１４１３号Ａ棟,,34,302,7350015,,,,,,,2023-07-11,1,,,,,グランアルブル,0
2255,8240001061794,新規,0,2023-07-11,2023-07-11,株式会社ＳＥＥＫ,,株式会社,広島県,広島市南区,出島２丁目３０番５号,,34,103,7340013,,,,,,,2023-07-11,1,,,,,シーク,0
2259,8260001038114,新規,0,2023-07-11,2023-07-11,株式会社Ｑ’ｚ　ｅｘｔｅｒｉｏｒ,,株式会社,岡山県,岡山市南区,藤田２１１５番地５,,33,104,7010221,,,,,,,2023-07-11,1,,,,,キューズエクステリア,0
2267,8290001102222,新規,0,2023-07-11,2023-07-11,株式会社ＨＡＣＴＯ,,株式会社,福岡県,福岡市南区,屋形原１丁目２３番４号,,40,134,8111351,,,,,,,2023-07-11,1,,,,,ハクト,0
2272,8310001018507,新規,0,2023-07-11,2023-07-11,株式会社隆誠,,株式会社,長崎県,雲仙市,小浜町北野５６８番地,,42,213,8540515,,,,,,,2023-07-11,1,,,,,リュウセイ,0
2274,8310003004604,新規,0,2023-07-11,2023-07-11,合同会社なな,,合同会社,長崎県,佐世保市,江迎町田ノ元３番地４,,42,202,8596134,,,,,,,2023-07-11,1,,,,,ナナ,0
2275,8320001019875,新規,0,2023-07-11,2023-07-11,株式会社Ｍｅｔａ　Ｍｅｄｉｃａｌ,,株式会社,大分県,中津市,大字上宮永２１６番地２,,44,203,8710027,,,,,,,2023-07-11,1,,,,,メタメディカル,0
2280,8340001025715,新規,0,2023-07-11,2023-07-11,星海コーポレーション株式会社,,株式会社,鹿児島県,鹿児島市,玉里団地２丁目３９番１４－２号,,46,201,8920811,,,,,,,2023-07-11,1,,,,,セイカイコーポレーション,0
2287,8360001032239,新規,0,2023-07-11,2023-07-11,株式会社伊佐自動車レッカー,,株式会社,沖縄県,島尻郡南風原町,字新川３２４番地６,,47,350,9011105,,,,,,,2023-07-11,1,,,,,イサジドウシャレッカー,0
2289,8360003013113,新規,0,2023-07-11,2023-07-11,合同会社コミュラボ,,合同会社,沖縄県,那覇市,宇栄原２丁目１番１３号テラス花１０２号室,,47,201,9010153,,,,,,,2023-07-11,1,,,,,コミュラボ,0
2296,8380003005505,新規,0,2023-07-11,2023-07-11,合同会社みどりファイブ,,合同会社,福島県,河沼郡会津坂下町,大字青津字田中１０番地,,07,421,9696518,,,,,,,2023-07-11,1,,,,,ミドリファイブ,0
2299,8390001017311,新規,0,2023-07-11,2023-07-11,株式会社Ｃｏｎｎｅｃｔ,,株式会社,山形県,山形市,上桜田４丁目１０番２７号セゾン・ヴェールＫＥ号,,06,201,9902421,,,,,,,2023-07-11,1,,,,,コネクト,0
2320,8500001025062,新規,0,2023-07-11,2023-07-11,株式会社癒しのサロンふうら,,株式会社,愛媛県,新居浜市,新田町２丁目１番５号,,38,205,7920003,,,,,,,2023-07-11,1,,,,,,0
2334,9010001236757,新規,0,2023-07-11,2023-07-11,株式会社ＫＭプランナー,,株式会社,東京都,文京区,大塚５丁目７番１１－１００３号,,13,105,1120012,,,,,,,2023-07-11,1,,,,,ケイエムプランナー,0
2344,9010401175472,新規,0,2023-07-11,2023-07-11,株式会社エバーグリーン,,株式会社,東京都,港区,芝４丁目１２番２号本芝ビル２０１号室,,13,103,1080014,,,,,,,2023-07-11,1,,,,,エバーグリーン,0
2345,9010401175547,新規,0,2023-07-11,2023-07-11,株式会社ＫＪ　ＥＳＳ,,株式会社,東京都,港区,六本木３丁目１６番１９－３０２号,,13,103,1060032,,,,,,,2023-07-11,1,,,,,ケイジェイイーエスエス,0
2346,9010401175555,新規,0,2023-07-11,2023-07-11,株式会社ＫＢＪ,,株式会社,東京都,港区,浜松町２丁目２番１５号浜松町ダイヤビル２Ｆ,,13,103,1050013,,,,,,,2023-07-11,1,,,,,ケービージェー,0
2347,9010401175646,新規,0,2023-07-11,2023-07-11,怪獣プロレス株式会社,,株式会社,東京都,港区,南青山５丁目４番３５号,,13,103,1070062,,,,,,,2023-07-11,1,,,,,カイジュウプロレス,0
2349,9010403030485,新規,0,2023-07-11,2023-07-11,エースクエア合同会社,,合同会社,東京都,港区,南麻布１丁目７－２４－３０４,,13,103,1060047,,,,,,,2023-07-11,1,,,,,エースクエア,0
2350,9010405022308,新規,0,2023-07-11,2023-07-11,一般社団法人ハイ・マウンテン,,その他の設立登記法人,東京都,港区,元赤坂１丁目１番７号,,13,103,1070051,,,,,,,2023-07-11,1,,,,,ハイマウンテン,0
2355,9010501050740,新規,0,2023-07-11,2023-07-11,株式会社Ｃｅｒｃｈｉｏ,,株式会社,東京都,台東区,小島１丁目１６番９号３０３,,13,106,1110056,,,,,,,2023-07-11,1,,,,,チェルキオ,0
2357,9010601063411,新規,0,2023-07-11,2023-07-11,株式会社ビジョナライズ,,株式会社,東京都,墨田区,東向島２丁目４８番１４－５０４号,,13,107,1310032,,,,,,,2023-07-11,1,,,,,ビジョナライズ,0
2364,9010903008270,新規,0,2023-07-11,2023-07-11,ＳｕｎＦａｒｍ合同会社,,合同会社,東京都,世田谷区,北沢５丁目３４番１１号,,13,112,1550031,,,,,,,2023-07-11,1,,,,,サンファーム,0
2372,9011001155559,新規,0,2023-07-11,2023-07-11,ＴＱ株式会社,,株式会社,東京都,渋谷区,道玄坂１丁目１０番８号渋谷道玄坂東急ビル２Ｆ－Ｃ,,13,113,1500043,,,,,,,2023-07-11,1,,,,,ティーキュー,0
2373,9011001155567,新規,0,2023-07-11,2023-07-11,株式会社Ｇｌｉｍｍｅｒ　Ｐｉｃｔｕｒｅｓ,,株式会社,東京都,渋谷区,代々木４丁目２３番１６－６０６号,,13,113,1510053,,,,,,,2023-07-11,1,,,,,グリマーピクチャーズ,0
2374,9011001155591,新規,0,2023-07-11,2023-07-11,ｉＦＩＮＤ株式会社,,株式会社,東京都,渋谷区,千駄ヶ谷５丁目１３－９－３０５,,13,113,1510051,,,,,,,2023-07-11,1,,,,,アイファインド,0
2375,9011001155625,新規,0,2023-07-11,2023-07-11,日本サイバー・サイエンス・テクノロジー株式会社,,株式会社,東京都,渋谷区,円山町５番５号Ｎａｖｉ渋谷Ｖ３階,,13,113,1500044,,,,,,,2023-07-11,1,,,,,ニホンサイバーサイエンステクノロジー,0
2376,9011003017138,新規,0,2023-07-11,2023-07-11,ＡＶＥＮＯＮ合同会社,,合同会社,東京都,渋谷区,神泉町１０番１５号,,13,113,1500045,,,,,,,2023-07-11,1,,,,,アベノン,0
2380,9011101103533,新規,0,2023-07-11,2023-07-11,株式会社Ｌｉｂｅｒｔｙ,,株式会社,東京都,新宿区,西新宿３丁目３番１３号西新宿水間ビル２Ｆ,,13,104,1600023,,,,,,,2023-07-11,1,,,,,リバティ,0
2381,9011101103558,新規,0,2023-07-11,2023-07-11,富敷コーポレーション株式会社,,株式会社,東京都,新宿区,西新宿３丁目３番１３号西新宿水間ビル６階,,13,104,1600023,,,,,,,2023-07-11,1,,,,,トミシキコーポレーション,0
2389,9011401025270,新規,0,2023-07-11,2023-07-11,ＴＯＹＯ　Ｂｕｉｌｄｓ株式会社,,株式会社,東京都,板橋区,仲町１４番１３号,,13,119,1730022,,,,,,,2023-07-11,1,,,,,トーヨービルズ,0
2394,9011801042691,新規,0,2023-07-11,2023-07-11,株式会社Ｌｅａｆ　Ｐａｃ,,株式会社,東京都,葛飾区,東四つ木４丁目４９番９号,,13,122,1240014,,,,,,,2023-07-11,1,,,,,リーフパック,0
2398,9012301013514,新規,0,2023-07-11,2023-07-11,株式会社戸山流備前会,,株式会社,東京都,町田市,原町田３丁目１１番７号ビューハイム１０１,,13,209,1940013,,,,,,,2023-07-11,1,,,,,トヤマリュウビゼンカイ,0
2399,9012401040730,新規,0,2023-07-11,2023-07-11,株式会社Ｆｏｒｇｅｒｓ,,株式会社,東京都,三鷹市,牟礼６丁目２３－９－５０８,,13,204,1810002,,,,,,,2023-07-11,1,,,,,フォージャーズ,0
2407,9013301051017,新規,0,2023-07-11,2023-07-11,株式会社ＡＬＬ　ＯＮＥ,,株式会社,東京都,豊島区,南池袋１丁目１６番１５号ダイヤゲート池袋４階５階,,13,116,1710022,,,,,,,2023-07-11,1,,,,,オールワン,0
2408,9013301051033,新規,0,2023-07-11,2023-07-11,新野吉株式会社,,株式会社,東京都,豊島区,南長崎２丁目３番３号,,13,116,1710052,,,,,,,2023-07-11,1,,,,,シンヤキチ,0
2415,9020001152342,新規,0,2023-07-11,2023-07-11,株式会社ＩＷＡＳＥ,,株式会社,神奈川県,川崎市川崎区,藤崎２丁目９番８号,,14,131,2100804,,,,,,,2023-07-11,1,,,,,イワセ,0
2416,9020001152433,新規,0,2023-07-11,2023-07-11,株式会社Ｍ　ＣＡＬＩＮ,,株式会社,神奈川県,横浜市港北区,仲手原１丁目１０番１６号ライオンズガーデン妙蓮寺カルムヒルズ３０４,,14,109,2220023,,,,,,,2023-07-11,1,,,,,エムカラン,0
2417,9020001152499,新規,0,2023-07-11,2023-07-11,株式会社Ｂｒｉｇｈｔ　Ｈａｒｂｏｒ,,株式会社,神奈川県,横浜市神奈川区,鶴屋町３丁目２９番地４,,14,102,2210835,,,,,,,2023-07-11,1,,,,,ブライトハーバー,0
2421,9020003024119,新規,0,2023-07-11,2023-07-11,Ｌａｎａ　Ｌｉｆｅ合同会社,,合同会社,神奈川県,横浜市港南区,港南台３丁目２２番１９号Ａｒｏｍａ２０１号室,,14,111,2340054,,,,,,,2023-07-11,1,,,,,ラナライフ,0
2422,9020003024143,新規,0,2023-07-11,2023-07-11,合同会社未来創造商事,,合同会社,神奈川県,川崎市多摩区,枡形２丁目１２番９号,,14,135,2140032,,,,,,,2023-07-11,1,,,,,ミライソウゾウショウジ,0
2423,9020003024192,新規,0,2023-07-11,2023-07-11,合同会社Ｂ＆ＭＳＳ,,合同会社,神奈川県,川崎市麻生区,栗木台２丁目６番１８号,,14,137,2150032,,,,,,,2023-07-11,1,,,,,ビーアンドエムス,0
2426,9021001079492,新規,0,2023-07-11,2023-07-11,株式会社桂興業,,株式会社,神奈川県,相模原市南区,上鶴間本町４丁目５２番２８号,,14,153,2520318,,,,,,,2023-07-11,1,,,,,カツラコウギョウ,0
2427,9021001079575,新規,0,2023-07-11,2023-07-11,株式会社ＲＳＴ,,株式会社,神奈川県,藤沢市,鵠沼石上２丁目４番１１号ＨＰＳビル１０１,,14,205,2510025,,,,,,,2023-07-11,1,,,,,アールエスティ,0
2431,9021005012854,新規,0,2023-07-11,2023-07-11,一般社団法人こはるや,,その他の設立登記法人,神奈川県,大和市,福田１丁目１７番地３第１明智ビル１０１,,14,213,2420024,,,,,,,2023-07-11,1,,,,,コハルヤ,0
2443,9030003022105,新規,0,2023-07-11,2023-07-11,ａｏｙｓ合同会社,,合同会社,埼玉県,志木市,館２丁目１番８－４０５号,,11,228,3530006,,,,,,,2023-07-11,1,,,,,アオイズ,0
2444,9030003022113,新規,0,2023-07-11,2023-07-11,ＩＮＤＲＥＳ　ＦＯＲＭＡＴＩＯＮ合同会社,,合同会社,埼玉県,加須市,北小浜１１９４番地２,,11,210,3470011,,,,,,,2023-07-11,1,,,,,インダレスフォーメーション,0
2450,9040001129165,新規,0,2023-07-11,2023-07-11,東海住宅ＭＴＣ株式会社,,株式会社,千葉県,八千代市,八千代台南１丁目６番６号,,12,221,2760033,,,,,,,2023-07-11,1,,,,,トウカイジュウタクエムティーシー,0
2451,9040001129207,新規,0,2023-07-11,2023-07-11,株式会社ＲＥＰＬＡＹ,,株式会社,千葉県,柏市,北柏２丁目１２番地７,,12,217,2770832,,,,,,,2023-07-11,1,,,,,リプレイ,0
2454,9040005022077,新規,0,2023-07-11,2023-07-11,一般社団法人ＴＨＥ　ＭＡＧＡＲＩＧＡＷＡ　ＣＬＵＢ,,その他の設立登記法人,千葉県,南房総市,富浦町大津字鍛冶屋沢１０１５番地,,12,234,2992412,,,,,,,2023-07-11,1,,,,,ザマガリガワクラブ,0
2459,9060001036145,新規,0,2023-07-11,2023-07-11,しもつけ測量株式会社,,株式会社,栃木県,下野市,川中子４番地１４４,,09,216,3290415,,,,,,,2023-07-11,1,,,,,シモツケソクリョウ,0
2460,9060003004645,新規,0,2023-07-11,2023-07-11,合同会社Ｓｅａｓｏｎｓ,,合同会社,栃木県,小山市,東城南２丁目３２番地５,,09,208,3230829,,,,,,,2023-07-11,1,,,,,シーズンズ,0
2462,9070001040633,新規,0,2023-07-11,2023-07-11,株式会社ガレージマッハ,,株式会社,群馬県,高崎市,中尾町３８６番地２,,10,202,3700001,,,,,,,2023-07-11,1,,,,,ガレージマッハ,0
2465,9080101024114,新規,0,2023-07-11,2023-07-11,オーバーサイク株式会社,,株式会社,静岡県,三島市,西若町５番１８号,,22,206,4110038,,,,,,,2023-07-11,1,,,,,オーバーサイク,0
2466,9080401026594,新規,0,2023-07-11,2023-07-11,株式会社メイアップ,,株式会社,静岡県,浜松市南区,渡瀬町８０８番地の１号メルスィ－曙３０２号,,22,134,4350036,,,,,,,2023-07-11,1,,,,,メイアップ,0
2494,9120001256158,新規,0,2023-07-11,2023-07-11,ＲＯＫＵ商事株式会社,,株式会社,大阪府,大阪市中央区,島之内２丁目９－２第二岩見マンション３０５室,,27,128,5420082,,,,,,,2023-07-11,1,,,,,ロクショウジ,0
2495,9120001256323,新規,0,2023-07-11,2023-07-11,友誠株式会社,,株式会社,大阪府,大阪市港区,市岡１丁目２３－１２,,27,107,5520012,,,,,,,2023-07-11,1,,,,,ユウセイ,0
2497,9120003024439,新規,0,2023-07-11,2023-07-11,合同会社タカノワーク,,合同会社,大阪府,大阪市中央区,道修町３丁目３番１０号日宝道修町ビル６１０号室,,27,128,5410045,,,,,,,2023-07-11,1,,,,,タカノワーク,0
2501,9120101067868,新規,0,2023-07-11,2023-07-11,株式会社ＳＹ商会,,株式会社,大阪府,堺市堺区,松屋町２丁９２番地１,,27,141,5900903,,,,,,,2023-07-11,1,,,,,エスワイショウカイ,0
2508,9130001074682,新規,0,2023-07-11,2023-07-11,望南楼株式会社,,株式会社,京都府,京都市中京区,西ノ京樋ノ口町６０番地,,26,104,6048424,,,,,,,2023-07-11,1,,,,,ボウナンロウ,0
2509,9130001074690,新規,0,2023-07-11,2023-07-11,株式会社ｓｅａ,,株式会社,京都府,京都市山科区,音羽前出町３１番地,,26,110,6078079,,,,,,,2023-07-11,1,,,,,シー,0
2512,9140001130724,新規,0,2023-07-11,2023-07-11,鹿島興産ＨＤ株式会社,,株式会社,兵庫県,高砂市,春日野町２番６０号,,28,216,6760814,,,,,,,2023-07-11,1,,,,,カシマコウサンホールディングス,0
2514,9140005026679,新規,0,2023-07-11,2023-07-11,あさひ司法書士法人,,その他の設立登記法人,兵庫県,神戸市中央区,江戸町９５番地井門神戸ビル５階,,28,110,6500033,,,,,,,2023-07-11,1,,,,,アサヒ,0
2517,9160003002928,新規,0,2023-07-11,2023-07-11,クレエ合同会社,,合同会社,滋賀県,米原市,須川１４４,,25,214,5210245,,,,,,,2023-07-11,1,,,,,クレエ,0
2518,9170001017687,新規,0,2023-07-11,2023-07-11,株式会社ＴＯＰ１,,株式会社,和歌山県,和歌山市,塩屋５丁目５番２０号シアラ塩屋ＩＩＩＡ号室,00131134,30,201,6410054,,,,,,,2023-07-11,1,,,,,トップワン,0
2521,9180001157004,新規,0,2023-07-11,2023-07-11,株式会社シロノ,,株式会社,愛知県,名古屋市守山区,幸心２丁目４１６番地,,23,113,4630079,,,,,,,2023-07-11,1,,,,,シロノ,0
2522,9180001157078,新規,0,2023-07-11,2023-07-11,株式会社エイチスリー,,株式会社,愛知県,名古屋市守山区,瀬古１丁目７０１番地の１（ラドーニ守山風の館５０４号）,,23,113,4630068,,,,,,,2023-07-11,1,,,,,エイチスリー,0
2523,9180001157086,新規,0,2023-07-11,2023-07-11,株式会社エスダッシュ,,株式会社,愛知県,名古屋市千種区,春岡１丁目７番１２号－１５０３,,23,101,4640848,,,,,,,2023-07-11,1,,,,,エスダッシュ,0
2529,9180003025456,新規,0,2023-07-11,2023-07-11,合同会社加藤,,合同会社,愛知県,名古屋市名東区,本郷３丁目１１３ブライト本郷１０１号,,23,115,4650024,,,,,,,2023-07-11,1,,,,,カトウ,0
2533,9180303005769,新規,0,2023-07-11,2023-07-11,合同会社家守,,合同会社,愛知県,豊川市,東曙町２７３東曙ビル２Ｄ,,23,207,4420011,,,,,,,2023-07-11,1,,,,,ヤモリ,0
2536,9190005011841,新規,0,2023-07-11,2023-07-11,医療法人ふかつ歯科,,その他の設立登記法人,三重県,四日市市,富田３丁目１－１,,24,202,5108014,,,,,,,2023-07-11,1,,,,,フカツシカ,0
2537,9200001041477,新規,0,2023-07-11,2023-07-11,株式会社Ｋ‐ｐｌｕｓｔ,,株式会社,岐阜県,岐阜市,菅生１丁目６番１,,21,201,5020914,,,,,,,2023-07-11,1,,,,,ケープラスト,0
2538,9200001041485,新規,0,2023-07-11,2023-07-11,株式会社ＭＯＲＳＥ,,株式会社,岐阜県,岐阜市,光樹町９番地,,21,201,5008254,,,,,,,2023-07-11,1,,,,,モールス,0
2548,9240001061793,新規,0,2023-07-11,2023-07-11,株式会社Ｃｈｅｒｉ,,株式会社,広島県,広島市中区,胡町２番１３号,,34,101,7300021,,,,,,,2023-07-11,1,,,,,シェリ,0
2559,9290001102196,新規,0,2023-07-11,2023-07-11,株式会社Ａｒｋｔｕｓ　Ｔｈｅｒａｐｅｕｔｉｃｓ,,株式会社,福岡県,福岡市早良区,百道浜４丁目１０番３号,,40,137,8140001,,,,,,,2023-07-11,1,,,,,アルクタスセラピューティクス,0
2560,9290001102213,新規,0,2023-07-11,2023-07-11,株式会社Ｖａｌｔｙｒｉｖｅ,,株式会社,福岡県,福岡市西区,今津１１３２－１,,40,135,8190165,,,,,,,2023-07-11,1,,,,,バルティライブ,0
2564,9310003004603,新規,0,2023-07-11,2023-07-11,合同会社ツイてる,,合同会社,長崎県,諫早市,小川町１１６番地２,,42,204,8540053,,,,,,,2023-07-11,1,,,,,ツイテル,0
2566,9320001019882,新規,0,2023-07-11,2023-07-11,株式会社ヒラヌマ・ホールディングス,,株式会社,大分県,大分市,大字一の洲３番地の１２,,44,201,8700112,,,,,,,2023-07-11,1,,,,,ヒラヌマホールディングス,0
2568,9330003009897,新規,0,2023-07-11,2023-07-11,合同会社阿蘇アグリリングス,,合同会社,熊本県,阿蘇郡産山村,大字山鹿１３４２番地１,,43,425,8692703,,,,,,,2023-07-11,1,,,,,アソアグリリングス,0
2570,9360001032221,新規,0,2023-07-11,2023-07-11,株式会社シーバブル,,株式会社,沖縄県,石垣市,八島町２丁目４番地２八島市営住宅１０３,,47,207,9070011,,,,,,,2023-07-11,1,,,,,シーバブル,0
2571,9360001032246,新規,0,2023-07-11,2023-07-11,株式会社焼肉なかお,,株式会社,沖縄県,宮古島市,平良字西里１１番地１奥平ビル１階,,47,214,9060012,,,,,,,2023-07-11,1,,,,,ヤキニクナカオ,0
2573,9360003013112,新規,0,2023-07-11,2023-07-11,合同会社Ｋａｈｏｏ,,合同会社,沖縄県,うるま市,字田場９８７－１美姫センチュリーＶ１１２,,47,213,9042213,,,,,,,2023-07-11,1,,,,,カフウ,0
2575,9370001050156,新規,0,2023-07-11,2023-07-11,株式会社２ｎｄ　Ａｃｅ,,株式会社,宮城県,宮城郡松島町,幡谷字蝦穴５７番地の１,,04,401,9810205,,,,,,,2023-07-11,1,,,,,セカンドエース,0
2576,9370001050164,新規,0,2023-07-11,2023-07-11,東北ライス株式会社,,株式会社,宮城県,黒川郡大衡村,大瓜字下南沢１３４番地３,,04,424,9813601,,,,,,,2023-07-11,1,,,,,トウホクライス,0
2579,9370003006197,新規,0,2023-07-11,2023-07-11,合同会社ＨＹＰＨＥＮ,,合同会社,宮城県,仙台市青葉区,本町１丁目５番２８号カーニープレイス仙台駅前通６０３号室,,04,101,9800014,,,,,,,2023-07-11,1,,,,,ハイフン,0
2586,9380003005504,新規,0,2023-07-11,2023-07-11,合同会社桑原会計事務所,,合同会社,福島県,郡山市,柏山町２２番地の２,,07,203,9630202,,,,,,,2023-07-11,1,,,,,クワハラカイケイジムショ,0
2589,9400001016310,新規,0,2023-07-11,2023-07-11,株式会社志田美装,,株式会社,岩手県,花巻市,石鳥谷町新堀第３０地割３８番地１,,03,205,0283111,,,,,,,2023-07-11,1,,,,,シダビソウ,0
2592,9410001013538,新規,0,2023-07-11,2023-07-11,株式会社小松美装,,株式会社,秋田県,仙北郡美郷町,六郷字西高方町７７番地２０,,05,434,0191404,,,,,,,2023-07-11,1,,,,,コマツビソウ,0
2598,9460001005811,新規,0,2023-07-11,2023-07-11,株式会社ｆｉｒｅｗｏｒｋｓ,,株式会社,北海道,釧路市,若松町５番６号,,01,206,0850033,,,,,,,2023-07-11,1,,,,,ファイアワークス,0
2599,9460005001575,新規,0,2023-07-11,2023-07-11,一般社団法人せきしん会,,その他の設立登記法人,北海道,釧路市,花園町３番１２号,,01,206,0850038,,,,,,,2023-07-11,1,,,,,セキシンカイ,0
2603,9490001010528,新規,0,2023-07-11,2023-07-11,株式会社ＶＩＬＵＣＥ,,株式会社,高知県,高知市,帯屋町１丁目７番１４号３階,,39,201,7800841,,,,,,,2023-07-11,1,,,,,ヴィルチェ,0
2604,9500001025061,新規,0,2023-07-11,2023-07-11,株式会社ｋｅｅｅｅｌ,,株式会社,愛媛県,今治市,別宮町８丁目２番３５号,,38,202,7940026,,,,,,,2023-07-11,1,,,,,キール,0
