sequenceNumber,corporateNumber,process,correct,updateDate,changeDate,name,nameImageId,kind,prefectureName,cityName,streetNumber,addressImageId,prefectureCode,cityCode,postCode,addressOutside,addressOutsideImageId,closeDate,closeCause,successorCorporateNumber,changeCause,assignmentDate,latest,enName,enPrefectureName,enCityName,enAddressOutside,furigana,hihyoji
29,1010401089952,登記記録の閉鎖等,0,2023-02-10,2023-02-07,株式会社ＴＳホテルズ,,株式会社,東京都,新宿区,高田馬場４丁目３８番２４号,,13,104,1690075,,,2023-02-07,合併による解散等,3130001051365,令和５年２月１日京都市南区東九条烏丸町１番地１株式会社サクラテラス（3130001051365）に合併し解散,2015-10-05,1,,,,,,0
34,1010401163716,登記記録の閉鎖等,0,2023-02-10,2023-01-30,株式会社Ｗｏｌｖｅｓ,,株式会社,東京都,港区,芝５丁目１３番１３号つるやビル５階,,13,103,1080014,,,2023-01-30,清算の結了等,,,2021-11-10,1,,,,,ウルブス,0
37,1010403013729,登記記録の閉鎖等,0,2023-02-10,2023-01-30,Ａｐｔｔｕｓ　Ｊａｐａｎ合同会社,,合同会社,東京都,港区,虎ノ門４丁目３番１号城山トラストタワー東京赤坂法律事務所内,,13,103,1050001,,,2023-01-30,清算の結了等,,,2015-10-05,1,,,,,アプタスジャパン,0
77,1011801025506,登記記録の閉鎖等,0,2023-02-10,2023-02-03,株式会社ディーランゲージ,,株式会社,東京都,足立区,皿沼３丁目２４番１１号,,13,121,1230862,,,2023-02-03,清算の結了等,,,2015-10-05,1,,,,,ディーランゲージ,0
85,1020001083628,登記記録の閉鎖等,0,2023-02-10,2023-02-07,株式会社Ｔｏｔａｌ　Ｅｃｌｉｐｓｅ,,株式会社,神奈川県,川崎市幸区,大宮町２８番地２,,14,132,2120014,,,2023-02-07,清算の結了等,,,2015-10-05,1,,,,,トータルイクリプス,0
88,1020001135734,登記記録の閉鎖等,0,2023-02-10,2023-02-08,株式会社日月アソシエイツ,,株式会社,神奈川県,川崎市幸区,鹿島田２丁目１６番１５号,,14,132,2120058,,,2023-02-08,清算の結了等,,,2020-04-10,1,,,,,ニチゲツアソシエイツ,0
101,1021001072736,登記記録の閉鎖等,0,2023-02-10,2023-02-06,サンコーホームズ株式会社,,株式会社,神奈川県,大和市,柳橋５丁目７番地の１０,,14,213,2420022,,,2023-02-06,清算の結了等,,,2021-06-23,1,,,,,サンコーホームズ,0
107,1030003015248,登記記録の閉鎖等,0,2023-02-10,2023-02-02,ＬｉｖｅＦｏｒＯｔｈｅｒｓ合同会社,,合同会社,埼玉県,さいたま市浦和区,岸町７丁目７－２３－７０３,,11,107,3300064,,,2023-02-02,清算の結了等,,,2020-05-11,1,,,,,ライブフォーアザーズ,0
117,1040001103598,登記記録の閉鎖等,0,2023-02-10,2023-02-08,株式会社ＪＣＮ,,株式会社,千葉県,千葉市稲毛区,天台１丁目９番１号,,12,103,2630016,,,2023-02-08,清算の結了等,,,2018-02-23,1,,,,,ジェーシーエヌ,0
128,1060002029048,登記記録の閉鎖等,0,2023-02-10,2023-02-07,有限会社西脇電気管理,,有限会社,栃木県,小山市,駅南町２丁目１番９号,,09,208,3230822,,,2023-02-07,清算の結了等,,,2015-10-05,1,,,,,ニシワキデンキカンリ,0
131,1070001024924,登記記録の閉鎖等,0,2023-02-10,2023-02-03,ワイ・システム企画株式会社,,株式会社,群馬県,高崎市,足門町７２２番地７,,10,202,3703531,,,2023-02-03,清算の結了等,,,2015-10-05,1,,,,,ワイシステムキカク,0
136,1090001011581,登記記録の閉鎖等,0,2023-02-10,2023-02-02,株式会社八ヶ岳建築工房,,株式会社,山梨県,北杜市,大泉町西井出８２４０番地８１９１,,19,209,4091501,,,2023-02-02,清算の結了等,,,2015-10-05,1,,,,,,0
138,1090002010525,登記記録の閉鎖等,0,2023-02-10,2023-02-03,有限会社村松電気,,有限会社,山梨県,都留市,上谷６丁目１２番８号,,19,204,4020053,,,2023-02-03,清算の結了等,,,2015-10-05,1,,,,,ムラマツデンキ,0
143,1110003004663,登記記録の閉鎖等,0,2023-02-10,2023-02-09,合同会社ぐれち,,合同会社,新潟県,胎内市,築地２０４１番地,,15,227,9592712,,,2023-02-09,清算の結了等,,,2021-12-27,1,,,,,グレチ,0
150,1120001241489,登記記録の閉鎖等,0,2023-02-10,2023-02-08,株式会社Ｓｋｙ　Ｓｕｎ,,株式会社,大阪府,大阪市福島区,野田２丁目１２番１０号,,27,103,5530005,,,2023-02-08,清算の結了等,,,2021-10-29,1,,,,,スカイサン,0
155,1120002000101,登記記録の閉鎖等,0,2023-02-10,2023-02-08,有限会社梅田建築設計,,有限会社,大阪府,大阪市旭区,高殿７丁目７番２３号,,27,117,5350031,,,2023-02-08,清算の結了等,,,2015-10-05,1,,,,,ウメダケンチクセッケイ,0
184,1140002040970,登記記録の閉鎖等,0,2023-02-10,2023-02-06,有限会社さくらい文具店,,有限会社,兵庫県,尼崎市,塚口町１丁目１３番１０号,,28,202,6610002,,,2023-02-06,清算の結了等,,,2015-10-05,1,,,,,サクライブングテン,0
186,1150001011071,登記記録の閉鎖等,0,2023-02-10,2023-02-01,株式会社ヨシハラ,,株式会社,奈良県,橿原市,西池尻町２９番地６,,29,205,6340821,,,2023-02-01,清算の結了等,,,2015-10-05,1,,,,,ヨシハラ,0
207,1250002002968,登記記録の閉鎖等,0,2023-02-10,2023-02-01,有限会社カービート山口,,有限会社,山口県,防府市,新橋町１４番２７号,,35,206,7470047,,,2023-02-01,清算の結了等,,,2015-10-05,1,,,,,カービートヤマグチ,0
227,1360001014474,登記記録の閉鎖等,0,2023-02-10,2023-02-06,株式会社ＫＥＮＴインターナショナル,,株式会社,沖縄県,那覇市,宇栄原１丁目２番３号,,47,201,9010153,,,2023-02-06,清算の結了等,,,2015-10-05,1,,,,,,0
240,1440002008946,登記記録の閉鎖等,0,2023-02-10,2023-02-06,有限会社三共エンジニア,,有限会社,北海道,瀬棚郡今金町,字今金６１番地の１,,01,370,0494308,,,2023-02-06,清算の結了等,,,2015-10-05,1,,,,,サンキョウエンジニア,0
241,1450001005737,登記記録の閉鎖等,0,2023-02-10,2023-02-09,株式会社石山工業,,株式会社,北海道,旭川市,永山五条２丁目４番１６号,,01,204,0798415,,,2023-02-09,清算の結了等,,,2015-10-05,1,,,,,イシヤマコウギョウ,0
246,1500002022882,登記記録の閉鎖等,0,2023-02-10,2023-02-08,有限会社タナカ．ハウスサービス,,有限会社,愛媛県,宇和島市,川内甲７５０番地１,,38,203,7980075,,,2023-02-08,清算の結了等,,,2015-10-05,1,,,,,タナカハウスサービス,0
279,2010701020351,登記記録の閉鎖等,0,2023-02-10,2023-02-07,才特国際株式会社,,株式会社,東京都,品川区,西大井１丁目１－２－２０６（Ｊタワー西大井）,,13,109,1400015,,,2023-02-07,清算の結了等,,,2015-10-05,1,,,,,サイトクコクサイ,0
287,2011001056813,登記記録の閉鎖等,0,2023-02-10,2023-02-07,株式会社ヴァリアーチ,,株式会社,東京都,世田谷区,太子堂３丁目３６－１アイビーテラス１１４,,13,112,1540004,,,2023-02-07,清算の結了等,,,2015-10-05,1,,,,,ヴァリアーチ,0
288,2011001070525,登記記録の閉鎖等,0,2023-02-10,2023-02-01,株式会社ＳｐｉｎＡｐｐＪａｐａｎ,,株式会社,東京都,渋谷区,桜丘町２９－３３渋谷三信マンション５０２,,13,113,1500031,,,2023-02-01,合併による解散等,3010401067114,令和５年２月１日東京都渋谷区桜丘町２９番３３号株式会社マスターゲイツ（3010401067114）に合併し解散,2015-10-05,1,,,,,スピンアップジャパン,0
323,2013101000444,登記記録の閉鎖等,0,2023-02-10,2023-02-08,株式会社ローザ,,株式会社,東京都,西多摩郡瑞穂町,箱根ケ崎東松原２７番地９,,13,303,1901222,,,2023-02-08,清算の結了等,,,2015-10-05,1,,,,,,0
332,2020001141401,登記記録の閉鎖等,0,2023-02-10,2023-02-02,株式会社アジャスターランド,,株式会社,神奈川県,横浜市保土ケ谷区,新桜ケ丘１丁目１４番地１４,,14,106,2400036,,,2023-02-02,清算の結了等,,,2021-05-24,1,,,,,アジャスターランド,0
337,2020003000092,登記記録の閉鎖等,0,2023-02-10,2023-02-07,合名会社田中屋,,合名会社,神奈川県,横浜市鶴見区,鶴見中央４丁目１６番２号,,14,101,2300051,,,2023-02-07,清算の結了等,,,2015-10-05,1,,,,,タナカヤ,0
353,2030002114727,登記記録の閉鎖等,0,2023-02-10,2023-02-07,有限会社丸山建材,,有限会社,埼玉県,熊谷市,西城６９９番地１７,,11,202,3600214,,,2023-02-07,清算の結了等,,,2015-10-05,1,,,,,マルヤマケンザイ,0
361,2040001075390,登記記録の閉鎖等,0,2023-02-10,2023-01-27,株式会社テックマーク・ジャパン,,株式会社,千葉県,勝浦市,小羽戸４８５番地２,,12,218,2995218,,,2023-01-27,清算の結了等,,,2015-10-05,1,,,,,テックマークジャパン,0
374,2060002017472,登記記録の閉鎖等,0,2023-02-10,2023-02-07,有限会社栃木ハウジング,,有限会社,栃木県,真岡市,高勢町１丁目６９番地,,09,209,3214341,,,2023-02-07,清算の結了等,,,2015-10-05,1,,,,,トチギハウジング,0
378,2080002013908,登記記録の閉鎖等,0,2023-02-10,2023-02-07,有限会社松屋家具センター,,有限会社,静岡県,島田市,中央町１５番の９,,22,209,4270042,,,2023-02-07,清算の結了等,,,2015-10-05,1,,,,,マツヤカグセンター,0
385,2100001009821,登記記録の閉鎖等,0,2023-02-10,2023-02-07,城南電機株式会社,,株式会社,長野県,上田市,上田原１７４０番地,,20,203,3861102,,,2023-02-07,清算の結了等,,,2015-10-05,1,,,,,ジョウナンデンキ,0
397,2120001155515,登記記録の閉鎖等,0,2023-02-10,2023-02-09,株式会社カワニシ食品,,株式会社,大阪府,守口市,大久保町３丁目５番２号,,27,209,5700012,,,2023-02-09,清算の結了等,,,2015-10-05,1,,,,,,0
441,2180002074502,登記記録の閉鎖等,0,2023-02-10,2023-02-06,有限会社ナカショウ,,有限会社,愛知県,犬山市,長者町５丁目８０番地,,23,215,4840041,,,2023-02-06,清算の結了等,,,2015-10-05,1,,,,,ナカショウ,0
456,2200002005017,登記記録の閉鎖等,0,2023-02-10,2023-02-08,有限会社山本,,有限会社,岐阜県,岐阜市,六条東１丁目２番３号,,21,201,5008353,,,2023-02-08,清算の結了等,,,2015-10-05,1,,,,,ヤマモト,0
458,2240001059241,登記記録の閉鎖等,0,2023-02-10,2023-02-09,株式会社小泉組,,株式会社,広島県,府中市,鵜飼町２２番地,,34,208,7260002,,,2023-02-09,清算の結了等,,,2022-01-28,1,,,,,コイズミグミ,0
484,2400002007760,登記記録の閉鎖等,0,2023-02-10,2023-02-09,有限会社宮田自動車整備工場,,有限会社,岩手県,岩手郡岩手町,大字五日市第８地割９７番地,,03,303,0284307,,,2023-02-09,清算の結了等,,,2015-10-05,1,,,,,ミヤタジドウシャセイビコウジョウ,0
491,2450001012682,登記記録の閉鎖等,0,2023-02-10,2023-02-07,旭川さかえ株式会社,,株式会社,北海道,旭川市,一条通６丁目３８番地４４,,01,204,0700031,,,2023-02-07,合併による解散等,8013301018842,令和５年２月１日東京都豊島区南長崎一丁目１７番１７号川村ビル３階株式会社スリーファイブ（8013301018842）に合併し解散,2019-03-27,1,,,,,アサヒカワサカエ,0
518,3010101009944,登記記録の閉鎖等,0,2023-02-10,2023-02-09,カシオ情報サービス株式会社,,株式会社,東京都,渋谷区,本町１丁目６番２号,,13,113,1510071,,,2023-02-09,清算の結了等,,,2015-10-05,1,,,,,カシオジョウホウサービス,0
547,3011101026252,登記記録の閉鎖等,0,2023-02-10,2023-02-06,株式会社プレイオヘルスサポートシステムズ,,株式会社,東京都,新宿区,四谷３丁目１３番７号,,13,104,1600004,,,2023-02-06,合併による解散等,5011101025343,令和５年２月１日東京都新宿区四谷三丁目１３番７号株式会社ヘスコインターナショナル（5011101025343）に合併し解散,2015-10-05,1,,,,,プレイオヘルスサポートシステムズ,0
559,3011603003559,登記記録の閉鎖等,0,2023-02-10,2022-12-15,ＧｏｌｄｅｎＥｎｔｒａｎｃｅ合同会社,,合同会社,東京都,練馬区,旭町２丁目２６番３号,,13,120,1790071,,,2022-12-15,清算の結了等,,,2022-03-31,1,,,,,ゴールデンエントランス,0
568,3011805002607,登記記録の閉鎖等,0,2023-02-10,2023-02-01,あおぞら事業協同組合,,その他の設立登記法人,東京都,葛飾区,高砂７丁目２３番１号,,13,122,1250054,,,2023-02-01,清算の結了等,,,2016-09-02,1,,,,,アオゾラ,0
574,3020001071250,登記記録の閉鎖等,0,2023-02-10,2023-02-07,東洋石油企業株式会社,,株式会社,神奈川県,川崎市幸区,小倉４丁目１番１９号,,14,132,2120054,,,2023-02-07,清算の結了等,,,2015-10-05,1,,,,,トウヨウセキユキギョウ,0
575,3020001071309,登記記録の閉鎖等,0,2023-02-10,2023-02-01,株式会社ナンバーワン,,株式会社,神奈川県,川崎市幸区,南幸町２丁目７６番地,,14,132,2120016,,,2023-02-01,合併による解散等,2020001077125,令和５年２月１日川崎市幸区南幸町二丁目７６番地Ｆ－ＯＮＥ株式会社（2020001077125）に合併し解散,2015-10-05,1,,,,,ナンバーワン,0
612,3040001074037,登記記録の閉鎖等,0,2023-02-10,2023-02-06,株式会社マサキ電設,,株式会社,千葉県,安房郡鋸南町,下佐久間２８３４番地の６,,12,463,2992115,,,2023-02-06,清算の結了等,,,2015-10-05,1,,,,,マサキデンセツ,0
628,3060002039879,登記記録の閉鎖等,0,2023-02-10,2023-02-07,有限会社大清鉄工,,有限会社,栃木県,佐野市,船越町９１３番地,,09,204,3270305,,,2023-02-07,清算の結了等,,,2015-10-05,1,,,,,タイセイテッコウ,0
636,3100001021552,登記記録の閉鎖等,0,2023-02-10,2023-02-06,株式会社天竜工業,,株式会社,長野県,上伊那郡箕輪町,大字中箕輪８８７４番地１,,20,383,3994601,,,2023-02-06,清算の結了等,,,2015-10-05,1,,,,,テンリュウコウギョウ,0
638,3100002038026,登記記録の閉鎖等,0,2023-02-10,2023-02-07,有限会社生東建設,,有限会社,長野県,下伊那郡松川町,生田５９０８番地,,20,402,3993302,,,2023-02-07,清算の結了等,,,2015-10-05,1,,,,,イクトウケンセツ,0
665,3130001018934,登記記録の閉鎖等,0,2023-02-10,2023-02-08,株式会社丸万水産,,株式会社,京都府,京都市下京区,朱雀宝蔵町１９番地,,26,106,6008846,,,2023-02-08,清算の結了等,,,2015-10-05,1,,,,,マルマンスイサン,0
686,3180002041088,登記記録の閉鎖等,0,2023-02-10,2023-02-06,有限会社平野商事,,有限会社,愛知県,北名古屋市,徳重米野９７番地,,23,234,4810038,,,2023-02-06,清算の結了等,,,2015-10-05,1,,,,,ヒラノショウジ,0
688,3180002075631,登記記録の閉鎖等,0,2023-02-10,2023-02-06,イオナ有限会社,,有限会社,愛知県,一宮市,緑４丁目１０番２号,,23,203,4910862,,,2023-02-06,清算の結了等,,,2015-10-05,1,,,,,イオナ,0
695,3220002008850,登記記録の閉鎖等,0,2023-02-10,2023-02-08,北陸食品有限会社,,有限会社,石川県,白山市,鹿島町２９番地３,,17,210,9290201,,,2023-02-08,清算の結了等,,,2015-10-05,1,,,,,ホクリクショクヒン,0
698,3240002021876,登記記録の閉鎖等,0,2023-02-10,2023-02-08,有限会社フリースタイル,,有限会社,広島県,広島市安佐南区,伴中央５丁目２９番９号,,34,105,7313165,,,2023-02-08,清算の結了等,,,2015-10-05,1,,,,,,0
718,3320001002349,登記記録の閉鎖等,0,2023-02-10,2023-02-08,株式会社ファルス,,株式会社,大分県,大分市,今津留３丁目１５番２５号,,44,201,8700938,,,2023-02-08,清算の結了等,,,2015-10-05,1,,,,,ファルス,0
733,3360002014315,登記記録の閉鎖等,0,2023-02-10,2023-02-07,有限会社高江洲工業,,有限会社,沖縄県,沖縄市,泡瀬６丁目９番３６号,,47,211,9042172,,,2023-02-07,清算の結了等,,,2015-10-05,1,,,,,タカエスコウギョウ,0
756,4010001089020,登記記録の閉鎖等,0,2023-02-10,2023-02-03,ジー・エム・ジー株式会社,,株式会社,東京都,中央区,新川１丁目２５番９号,,13,102,1040033,,,2023-02-03,清算の結了等,,,2015-10-05,1,,,,,ジーエムジー,0
809,4011802009050,登記記録の閉鎖等,0,2023-02-10,2023-02-06,有限会社アケボノ薬局,,有限会社,東京都,足立区,伊興１丁目２０番９号,,13,121,1210823,,,2023-02-06,清算の結了等,,,2015-10-05,1,,,,,アケボノヤッキョク,0
810,4012401012263,登記記録の閉鎖等,0,2023-02-10,2023-02-01,株式会社エトワール,,株式会社,東京都,調布市,深大寺東町１丁目２９番地４,,13,208,1820012,,,2023-02-01,清算の結了等,,,2015-10-05,1,,,,,エトワール,0
834,4020003022515,登記記録の閉鎖等,0,2023-02-10,2023-02-08,合同会社ＤＭＳ,,合同会社,神奈川県,横浜市中区,桜木町１丁目１０１番地１クロスゲート７階,,14,104,2310062,,,2023-02-08,清算の結了等,,,2022-10-06,1,,,,,ディーエムエス,0
842,4021002058756,登記記録の閉鎖等,0,2023-02-10,2023-02-07,茅ヶ崎製作所有限会社,,有限会社,神奈川県,中郡大磯町,西小磯８８２番地の２,,14,341,2550005,,,2023-02-07,清算の結了等,,,2015-10-05,1,,,,,チガサキセイサクジョ,0
843,4021003005385,登記記録の閉鎖等,0,2023-02-10,2023-02-08,合同会社坂管理,,合同会社,神奈川県,小田原市,中村原１８６番地の２ダイアパレス西湘橘５０１号,,14,206,2560803,,,2023-02-08,清算の結了等,,,2015-10-05,1,,,,,バンカンリ,0
848,4030001066967,登記記録の閉鎖等,0,2023-02-10,2023-02-06,株式会社三賢商事,,株式会社,埼玉県,越谷市,赤山町１丁目２７９番地２ヴィラ赤山１０１,,11,222,3430807,,,2023-02-06,清算の結了等,,,2015-10-05,1,,,,,サンケンショウジ,0
861,4030003016367,登記記録の閉鎖等,0,2023-02-10,2023-02-09,本色合同会社,,合同会社,埼玉県,越谷市,大字大林２５３番３５メゾンドミール２０２号室,,11,222,3430021,,,2023-02-09,清算の結了等,,,2020-12-16,1,,,,,ホンショク,0
864,4040001034502,登記記録の閉鎖等,0,2023-02-10,2023-02-06,株式会社エアープラン,,株式会社,千葉県,市川市,大洲２丁目１４番１号高橋コーポ１０３,,12,203,2720032,,,2023-02-06,清算の結了等,,,2015-10-05,1,,,,,エアープラン,0
872,4040001113470,登記記録の閉鎖等,0,2023-02-10,2023-02-06,株式会社ミツイ,,株式会社,千葉県,我孫子市,新木野１丁目５番２６号,,12,222,2701114,,,2023-02-06,清算の結了等,,,2020-04-27,1,,,,,ミツイ,0
896,4080101018863,登記記録の閉鎖等,0,2023-02-10,2023-02-07,株式会社重庵,,株式会社,静岡県,伊豆市,修善寺３４５１番地の４０朴念仁,,22,222,4102416,,,2023-02-07,清算の結了等,,,2016-01-19,1,,,,,シゲアン,0
905,4110001003557,登記記録の閉鎖等,0,2023-02-10,2023-02-08,株式会社東和開発,,株式会社,新潟県,新潟市中央区,弥生町４番５号,,15,103,9518147,,,2023-02-08,清算の結了等,,,2015-10-05,1,,,,,トウワカイハツ,0
928,4120905005994,登記記録の閉鎖等,0,2023-02-10,2023-02-07,一般社団法人Ｍｕｒａｉ,,その他の設立登記法人,大阪府,吹田市,朝日町１３番８－９０１号,,27,205,5640027,,,2023-02-07,清算の結了等,,,2020-03-06,1,,,,,ムライ,0
934,4130001032744,登記記録の閉鎖等,0,2023-02-10,2023-02-07,積和建設近畿株式会社,,株式会社,京都府,京都市下京区,堀川通綾小路下る綾堀川町２９３番地１,,26,106,6008482,,,2023-02-07,合併による解散等,6120101028195,令和５年２月１日大阪市中央区西心斎橋二丁目３番２号積水ハウス建設関西株式会社（6120101028195）に合併し解散,2015-10-05,1,,,,,セキワケンセツキンキ,0
940,4140001018800,登記記録の閉鎖等,0,2023-02-10,2023-02-09,舞子温泉株式会社,,株式会社,兵庫県,神戸市垂水区,西舞子２丁目１２番２２号,,28,108,6550048,,,2023-02-09,清算の結了等,,,2015-10-05,1,,,,,マイコオンセン,0
941,4140001061998,登記記録の閉鎖等,0,2023-02-10,2023-02-07,株式会社八家製作所,,株式会社,兵庫県,姫路市,八家１２８５番地,,28,201,6728015,,,2023-02-07,清算の結了等,,,2015-10-05,1,,,,,,0
967,4220002004353,登記記録の閉鎖等,0,2023-02-10,2023-02-08,有限会社ナック通商,,有限会社,石川県,金沢市,三口町火３番地,,17,201,9200018,,,2023-02-08,清算の結了等,,,2015-10-05,1,,,,,ナックツウショウ,0
974,4240001041024,登記記録の閉鎖等,0,2023-02-10,2023-02-08,株式会社タカノ,,株式会社,広島県,廿日市市,下平良１丁目５－２３,,34,213,7380023,,,2023-02-08,清算の結了等,,,2015-10-05,1,,,,,タカノ,0
977,4260001030256,登記記録の閉鎖等,0,2023-02-10,2023-02-08,永光海運株式会社,,株式会社,岡山県,備前市,日生町寒河２６４４番地の８,,33,211,7013202,,,2023-02-08,清算の結了等,,,2016-12-12,1,,,,,エイコウカイウン,0
998,4340003003061,登記記録の閉鎖等,0,2023-02-10,2023-02-09,英企画合同会社,,合同会社,鹿児島県,日置市,東市来町湯田２６３４番地第一ストーンマンション４０１号室,,46,216,8992201,,,2023-02-09,清算の結了等,,,2020-04-03,1,,,,,ハナブサキカク,0
1007,4420001008789,登記記録の閉鎖等,0,2023-02-10,2023-02-07,株式会社ヘルパーステーショントラスト,,株式会社,青森県,青森市,篠田１丁目８番７号,,02,201,0380011,,,2023-02-07,清算の結了等,,,2015-10-05,1,,,,,ヘルパーステーショントラスト,0
1019,4700150109797,削除,,2023-02-10,,,,,,,,,,,,,,,,,,,,,,,,,
1042,5010403018237,登記記録の閉鎖等,0,2023-02-10,2023-02-08,合同会社Ａｔｒｉａ,,合同会社,東京都,品川区,西五反田２丁目１８番３号,,13,109,1410031,,,2023-02-08,清算の結了等,,,2018-03-14,1,,,,,アトリア,0
1054,5010802006965,登記記録の閉鎖等,0,2023-02-10,2023-02-02,有限会社志太商事,,有限会社,東京都,大田区,蒲田４丁目１５番１２－３０６号,,13,111,1440052,,,2023-02-02,清算の結了等,,,2015-10-05,1,,,,,ヨシダショウジ,0
1099,5020001136027,登記記録の閉鎖等,0,2023-02-10,2023-02-08,株式会社ｃｒａｓＲ,,株式会社,神奈川県,横浜市中区,山手町６８番地１４,,14,104,2310862,,,2023-02-08,清算の結了等,,,2020-05-11,1,,,,,クラスアール,0
1107,5020005011754,登記記録の閉鎖等,0,2023-02-10,2023-02-08,一般社団法人Ｄｉａｌｏｇｕｅ,,その他の設立登記法人,神奈川県,横浜市都筑区,中川５丁目２３番１０号,,14,118,2240001,,,2023-02-08,清算の結了等,,,2015-10-05,1,,,,,ダイアログ,0
1108,5021001036076,登記記録の閉鎖等,0,2023-02-10,2023-02-06,株式会社ホンダプリモ神奈川南,,株式会社,神奈川県,平塚市,四之宮５丁目２９番７号,,14,203,2540014,,,2023-02-06,合併による解散等,6020001004439,令和５年２月１日横浜市港南区下永谷六丁目４番３０号ホンダカーズ神奈川中株式会社（6020001004439）に合併し解散,2015-10-05,1,,,,,,0
1126,5040001121357,登記記録の閉鎖等,0,2023-02-10,2023-02-06,株式会社市東,,株式会社,千葉県,東金市,押堀１２２番地,,12,213,2830065,,,2023-02-06,清算の結了等,,,2021-12-15,1,,,,,シトウ,0
1146,5100003005353,登記記録の閉鎖等,0,2023-02-10,2023-02-08,合同会社昇龍,,合同会社,長野県,長野市,中御所４丁目９－５,,20,201,3800935,,,2023-02-08,清算の結了等,,,2019-06-24,1,,,,,ショウリュウ,0
1154,5120001090783,登記記録の閉鎖等,0,2023-02-10,2023-02-09,株式会社メディア・ネットワーク,,株式会社,大阪府,大阪市中央区,内本町２丁目４番１６号,,27,128,5400026,,,2023-02-09,清算の結了等,,,2015-10-05,1,,,,,,0
1158,5120001131190,登記記録の閉鎖等,0,2023-02-10,2023-02-09,株式会社リソウズ,,株式会社,大阪府,大阪市浪速区,日本橋東１丁目４番１３号,,27,111,5560006,,,2023-02-09,清算の結了等,,,2015-10-05,1,,,,,,0
1172,5130001030045,登記記録の閉鎖等,0,2023-02-10,2023-02-06,黒田電機株式会社,,株式会社,京都府,向日市,物集女町クヅ子６番地の２,,26,208,6170001,,,2023-02-06,清算の結了等,,,2015-10-05,1,,,,,クロダデンキ,0
1188,5180001077081,登記記録の閉鎖等,0,2023-02-10,2023-02-02,日本メドック株式会社,,株式会社,愛知県,春日井市,白山町６丁目３番地３,,23,206,4870034,,,2023-02-02,合併による解散等,6180001077080,令和４年１２月２３日愛知県春日井市白山町六丁目３番地３株式会社サンヴオーレ（6180001077080）に合併し解散,2015-10-05,1,,,,,ニホンメドック,0
1200,5190002007631,登記記録の閉鎖等,0,2023-02-10,2023-02-08,石田動物病院有限会社,,有限会社,三重県,鈴鹿市,高塚町２０２１番地の３,,24,207,5130011,,,2023-02-08,清算の結了等,,,2015-10-05,1,,,,,イシダドウブツビョウイン,0
1219,5270002006344,登記記録の閉鎖等,0,2023-02-10,2023-02-01,有限会社竹本商事,,有限会社,鳥取県,米子市,皆生新田１丁目６番１号,,31,202,6830002,,,2023-02-01,清算の結了等,,,2015-10-05,1,,,,,,0
1227,5290801005379,登記記録の閉鎖等,0,2023-02-10,2023-02-06,門司メタルプロダクツ株式会社,,株式会社,福岡県,北九州市門司区,小森江２丁目２番１号,,40,101,8000007,,,2023-02-06,合併による解散等,2010001215164,令和５年１月１日東京都新宿区西新宿二丁目７番１号株式会社ＫＭＣＴ（2010001215164）に合併し解散,2015-10-05,1,,,,,モジメタルプロダクツ,0
1236,5320005004422,登記記録の閉鎖等,0,2023-02-10,2023-02-08,農事組合法人明時みかん組合,,その他の設立登記法人,大分県,杵築市,大字杵築７４０番地の１,,44,210,8730001,,,2023-02-08,清算の結了等,,,2015-10-05,1,,,,,ミョウトキミカンクミアイ,0
1287,6010001105923,登記記録の閉鎖等,0,2023-02-10,2023-02-06,株式会社ツイストブレインズ,,株式会社,東京都,中央区,日本橋堀留町２丁目５番７－１００４号,,13,102,1030012,,,2023-02-06,清算の結了等,,,2015-10-05,1,,,,,ツイストブレインズ,0
1289,6010001114916,登記記録の閉鎖等,0,2023-02-10,2023-01-30,ＹＯ１株式会社,,株式会社,東京都,港区,浜松町２丁目４番１号,,13,103,1050013,,,2023-01-30,清算の結了等,,,2015-10-05,1,,,,,ワイオーワン,0
1358,6011302006595,登記記録の閉鎖等,0,2023-02-10,2023-02-06,東京マリンサービス有限会社,,有限会社,東京都,杉並区,成田東１丁目６番８号,,13,115,1660015,,,2023-02-06,清算の結了等,,,2015-10-05,1,,,,,,0
1363,6011701004555,登記記録の閉鎖等,0,2023-02-10,2023-02-08,株式会社瑞結,,株式会社,東京都,江戸川区,東瑞江２丁目３２番３３号,,13,123,1320014,,,2023-02-08,清算の結了等,,,2015-10-05,1,,,,,ズイケイ,0
1388,6020001108834,登記記録の閉鎖等,0,2023-02-10,2023-02-08,株式会社ケーティー・ラボ,,株式会社,神奈川県,横浜市瀬谷区,阿久和西１丁目１１番地６,,14,114,2460025,,,2023-02-08,清算の結了等,,,2015-10-05,1,,,,,ケーティーラボ,0
1397,6021001027611,登記記録の閉鎖等,0,2023-02-10,2023-02-07,ポリエステル工業株式会社,,株式会社,神奈川県,綾瀬市,吉岡東２丁目２番１５号,,14,218,2521125,,,2023-02-07,清算の結了等,,,2015-10-05,1,,,,,ポリエステルコウギョウ,0
1404,6021002062310,登記記録の閉鎖等,0,2023-02-10,2023-02-07,有限会社はなぶさ,,有限会社,神奈川県,平塚市,浅間町１１番２－３０７号,,14,203,2540041,,,2023-02-07,清算の結了等,,,2015-10-05,1,,,,,ハナブサ,0
1409,6030001115813,登記記録の閉鎖等,0,2023-02-10,2023-02-08,タカハシ・イー株式会社,,株式会社,埼玉県,さいたま市見沼区,大字蓮沼１６７７番地２０,,11,104,3370015,,,2023-02-08,清算の結了等,,,2016-08-05,1,,,,,タカハシイー,0
1421,6030005014788,登記記録の閉鎖等,0,2023-02-10,2023-02-07,日高団地管理組合法人,,その他の設立登記法人,埼玉県,日高市,高萩東２丁目１２番１６号,,11,242,3501215,,,2023-02-07,清算の結了等,,,2015-10-05,1,,,,,ヒダカダンチ,0
1431,6040003005111,登記記録の閉鎖等,0,2023-02-10,2023-02-07,合同会社オフィス八木,,合同会社,千葉県,佐倉市,宮ノ台２丁目１８番１４号,,12,212,2850857,,,2023-02-07,清算の結了等,,,2015-10-05,1,,,,,オフィスヤギ,0
1434,6050002036676,登記記録の閉鎖等,0,2023-02-10,2023-02-07,有限会社丸正興業,,有限会社,茨城県,取手市,取手１丁目２番１号,,08,217,3020004,,,2023-02-07,清算の結了等,,,2015-10-05,1,,,,,マルショウコウギョウ,0
1437,6060003002461,登記記録の閉鎖等,0,2023-02-10,2023-02-07,合同会社ユア・リーチ,,合同会社,栃木県,小山市,大字小山２８番地８,,09,208,3230825,,,2023-02-07,清算の結了等,,,2017-01-10,1,,,,,ユアリーチ,0
1453,6120001104344,登記記録の閉鎖等,0,2023-02-10,2023-02-07,株式会社ワイズクリエイト,,株式会社,大阪府,大阪市北区,同心１丁目４番１６号パインフォレスト５０３号室,,27,127,5300035,,,2023-02-07,清算の結了等,,,2015-10-05,1,,,,,ワイズクリエイト,0
1476,6122001012155,登記記録の閉鎖等,0,2023-02-10,2023-02-08,株式会社ライクリホード,,株式会社,大阪府,東大阪市,俊徳町５丁目８番２８号,,27,227,5770831,,,2023-02-08,清算の結了等,,,2015-10-05,1,,,,,ライクリホード,0
1508,6180002071867,登記記録の閉鎖等,0,2023-02-10,2023-02-03,有限会社伸栄工業,,有限会社,愛知県,瀬戸市,東寺山町１７２番地,,23,204,4890928,,,2023-02-03,清算の結了等,,,2015-10-05,1,,,,,シンエイコウギョウ,0
1510,6180002072840,登記記録の閉鎖等,0,2023-02-10,2023-02-01,有限会社タニグチエンタープライズ,,有限会社,愛知県,尾張旭市,三郷町栄４２番地,,23,226,4880015,,,2023-02-01,合併による解散等,8180002073226,令和５年２月１日愛知県尾張旭市三郷町中井田５５番地の１株式会社ＡＧＰ建物（8180002073226）に合併し解散,2015-10-05,1,,,,,タニグチエンタープライズ,0
1514,6190001018901,登記記録の閉鎖等,0,2023-02-10,2023-02-08,河田アパレル株式会社,,株式会社,三重県,多気郡明和町,大字大淀甲１３１番地,,24,442,5150302,,,2023-02-08,合併による解散等,6180001029924,令和５年２月１日名古屋市中村区草薙町一丁目３１番地河田フェザー株式会社（6180001029924）に合併し解散,2015-10-05,1,,,,,カワダアパレル,0
1564,6400002002436,登記記録の閉鎖等,0,2023-02-10,2023-02-09,有限会社南部屋,,有限会社,岩手県,盛岡市,厨川３丁目３番２号,,03,201,0200124,,,2023-02-09,清算の結了等,,,2015-10-05,1,,,,,ナンブヤ,0
1567,6402702000116,登記記録の閉鎖等,0,2023-02-10,2023-02-08,有限会社川村鉄筋工業,,有限会社,岩手県,気仙郡住田町,上有住字中沢１９３番地２,,03,441,0292501,,,2023-02-08,清算の結了等,,,2015-10-05,1,,,,,カワムラテッキンコウギョウ,0
1574,6700150103385,削除,,2023-02-10,,,,,,,,,,,,,,,,,,,,,,,,,
1600,7010401105786,登記記録の閉鎖等,0,2023-02-10,2023-01-30,株式会社ウィズアス,,株式会社,東京都,港区,麻布台１丁目１１番１０号,,13,103,1060041,,,2023-01-30,清算の結了等,,,2015-10-05,1,,,,,ウィズアス,0
1606,7010403026519,登記記録の閉鎖等,0,2023-02-10,2023-01-30,合同会社下村技販,,合同会社,東京都,港区,浜松町２丁目２番１５号浜松町ダイヤビル２Ｆ,,13,103,1050013,,,2023-01-30,清算の結了等,,,2021-11-16,1,,,,,シモムラギハン,0
1615,7010701042614,登記記録の閉鎖等,0,2023-02-10,2023-02-07,株式会社グロリアス,,株式会社,東京都,品川区,西五反田８丁目２番１２号アール五反田７Ａ,,13,109,1410031,,,2023-02-07,清算の結了等,,,2022-05-10,1,,,,,グロリアス,0
1616,7010801000232,登記記録の閉鎖等,0,2023-02-10,2023-02-02,株式会社Ｃａｒｉｃｏ,,株式会社,東京都,大田区,千鳥３丁目２０番６号,,13,111,1460083,,,2023-02-02,清算の結了等,,,2015-10-05,1,,,,,キャリコ,0
1625,7011001038625,登記記録の閉鎖等,0,2023-02-10,2023-02-01,株式会社タアコバ,,株式会社,東京都,渋谷区,千駄ヶ谷２丁目１１番１号,,13,113,1510051,,,2023-02-01,清算の結了等,,,2015-10-05,1,,,,,タアコバ,0
1649,7011802007159,登記記録の閉鎖等,0,2023-02-10,2023-02-03,有限会社マスヤマ製作所,,有限会社,東京都,葛飾区,東立石１丁目１０番２号,,13,122,1240013,,,2023-02-03,清算の結了等,,,2015-10-05,1,,,,,マスヤマセイサクショ,0
1690,7050001006299,登記記録の閉鎖等,0,2023-02-10,2023-02-06,株式会社アムス,,株式会社,茨城県,水戸市,大塚町１８８６番地の１,,08,201,3114143,,,2023-02-06,清算の結了等,,,2015-10-05,1,,,,,アムス,0
1695,7060002030388,登記記録の閉鎖等,0,2023-02-10,2023-02-07,有限会社エヌ・コーポレーション,,有限会社,栃木県,下野市,薬師寺３３８３番地,,09,216,3290431,,,2023-02-07,清算の結了等,,,2015-10-05,1,,,,,エヌコーポレーション,0
1702,7080402009641,登記記録の閉鎖等,0,2023-02-10,2023-02-09,有限会社三勇養魚,,有限会社,静岡県,湖西市,新居町新居２２５９番地の２,,22,221,4310302,,,2023-02-09,清算の結了等,,,2015-10-05,1,,,,,,0
1705,7100001008430,登記記録の閉鎖等,0,2023-02-10,2023-02-07,株式会社サンハウジング,,株式会社,長野県,小諸市,大字八満９３番地３９,,20,208,3840051,,,2023-02-07,清算の結了等,,,2015-10-05,1,,,,,サンハウジング,0
1713,7120001084825,登記記録の閉鎖等,0,2023-02-10,2023-02-08,株式会社ディスカ,,株式会社,大阪府,大阪市中央区,東心斎橋１丁目１９番２２号,,27,128,5420083,,,2023-02-08,清算の結了等,,,2015-10-05,1,,,,,ディスカ,0
1715,7120001239189,登記記録の閉鎖等,0,2023-02-10,2023-02-03,株式会社イーエイチアイ,,株式会社,大阪府,大阪市福島区,福島３丁目１番６５号,,27,103,5530003,,,2023-02-03,合併による解散等,9120001111742,令和５年２月１日大阪市北区堂島浜一丁目４番１９号マニュライフプレイス堂島４階株式会社タイズ（9120001111742）に合併し解散,2021-07-21,1,,,,,イーエイチアイ,0
1726,7120105000331,登記記録の閉鎖等,0,2023-02-10,2023-02-08,ひかり事業協同組合,,その他の設立登記法人,大阪府,堺市南区,豊田６２５番地,,27,145,5900106,,,2023-02-08,清算の結了等,,,2015-10-05,1,,,,,ヒカリ,0
1740,7170005000113,登記記録の閉鎖等,0,2023-02-10,2023-02-09,協同組合堀止専門店会,,その他の設立登記法人,和歌山県,和歌山市,堀止西２丁目１０番４８号,,30,201,6410045,,,2023-02-09,清算の結了等,,,2015-10-05,1,,,,,ホリドメセンモンテンカイ,0
1741,7180001080091,登記記録の閉鎖等,0,2023-02-10,2023-02-09,株式会社ＷＩＮ　ＧＲＯＵＰ,,株式会社,岐阜県,岐阜市,下川手５７番地５,,21,201,5008246,,,2023-02-09,清算の結了等,,,2015-10-05,1,,,,,ウイングループ,0
1742,7180001099330,登記記録の閉鎖等,0,2023-02-10,2023-02-03,株式会社リアライズ,,株式会社,愛知県,名古屋市中川区,長良町２丁目１０９グラシア４０３,,23,110,4540815,,,2023-02-03,清算の結了等,,,2015-10-05,1,,,,,リアライズ,0
1759,7200001012521,登記記録の閉鎖等,0,2023-02-10,2023-02-08,コアプランニング株式会社,,株式会社,岐阜県,岐阜市,粟野台３０７番地１３,,21,201,5020007,,,2023-02-08,清算の結了等,,,2015-10-05,1,,,,,コアプランニング,0
1762,7210002013939,登記記録の閉鎖等,0,2023-02-10,2023-02-09,有限会社宮口運輸,,有限会社,福井県,小浜市,竹原第２９号２７番地の１,,18,204,9170021,,,2023-02-09,清算の結了等,,,2015-10-05,1,,,,,ミヤグチウンユ,0
1765,7240002024545,登記記録の閉鎖等,0,2023-02-10,2023-02-08,有限会社ウタニ興業,,有限会社,広島県,広島市安佐南区,長楽寺２丁目１７番２９号,,34,105,7310143,,,2023-02-08,清算の結了等,,,2015-10-05,1,,,,,,0
1768,7260003003100,登記記録の閉鎖等,0,2023-02-10,2023-02-07,合同会社センターウエスト,,合同会社,岡山県,岡山市北区,岡町１１番４号１０１号室,,33,101,7000867,,,2023-02-07,清算の結了等,,,2020-02-06,1,,,,,センターウエスト,0
1785,7290801028824,登記記録の閉鎖等,0,2023-02-10,2023-02-09,株式会社高木産業,00127547,株式会社,福岡県,北九州市小倉北区,緑ケ丘１丁目１５番１４号,,40,106,8030827,,,2023-02-09,清算の結了等,,,2022-08-17,1,,,,,タカギサンギョウ,0
1793,7350002008636,登記記録の閉鎖等,0,2023-02-10,2023-02-07,有限会社サンライフジャパン,,有限会社,宮崎県,宮崎市,桜ケ丘町８番１９号,,45,201,8800955,,,2023-02-07,清算の結了等,,,2015-10-05,1,,,,,サンライフジャパン,0
1797,7380001003032,登記記録の閉鎖等,0,2023-02-10,2023-02-07,シラサワ株式会社,,株式会社,福島県,福島市,飯野町字原田６番地,,07,201,9601301,,,2023-02-07,清算の結了等,,,2015-10-05,1,,,,,シラサワ,0
1804,7420001011682,登記記録の閉鎖等,0,2023-02-10,2023-02-07,スタイル美山株式会社,,株式会社,青森県,上北郡野辺地町,字昼場１４番地１,,02,401,0393128,,,2023-02-07,清算の結了等,,,2015-10-05,1,,,,,スタイルミヤマ,0
1827,8010001081857,登記記録の閉鎖等,0,2023-02-10,2023-02-06,商工サービス株式会社,,株式会社,東京都,中央区,銀座２丁目８番９号,,13,102,1040061,,,2023-02-06,合併による解散等,9010001076047,令和５年２月１日東京都千代田区神田駿河台二丁目２番地ＭＳＫ保険センター株式会社（9010001076047）に合併し解散,2015-10-05,1,,,,,ショウコウサービス,0
1863,8011001052740,登記記録の閉鎖等,0,2023-02-10,2023-02-02,株式会社三彩,,株式会社,東京都,渋谷区,千駄ヶ谷４丁目２９番１２号ダイヤモンドパレス１０８号,,13,113,1510051,,,2023-02-02,清算の結了等,,,2015-10-05,1,,,,,サンサイ,0
1908,8020001061957,登記記録の閉鎖等,0,2023-02-10,2023-02-08,日本レジャーホテル経営研究所株式会社,,株式会社,神奈川県,横浜市旭区,中白根１丁目２９番６号,,14,112,2410004,,,2023-02-08,清算の結了等,,,2015-10-05,1,,,,,ニホンレジャーホテルケイエイケンキュウジョ,0
1922,8021001055940,登記記録の閉鎖等,0,2023-02-10,2023-02-07,株式会社日本ＶＭセンター,,株式会社,神奈川県,相模原市緑区,二本松２丁目５０番８号,,14,151,2520137,,,2023-02-07,清算の結了等,,,2015-10-05,1,,,,,ニホンブイエムセンター,0
1926,8030001141907,登記記録の閉鎖等,0,2023-02-10,2023-02-06,子寅科貿株式会社,,株式会社,埼玉県,蕨市,中央３丁目１４－１５,,11,223,3350004,,,2023-02-06,清算の結了等,,,2021-04-23,1,,,,,シインカボウ,0
1947,8060002026385,登記記録の閉鎖等,0,2023-02-10,2023-02-06,須賀川林産有限会社,,有限会社,栃木県,大田原市,須賀川７８２番地２,,09,210,3240211,,,2023-02-06,清算の結了等,,,2015-10-05,1,,,,,スカガワリンサン,0
1949,8080101012796,登記記録の閉鎖等,0,2023-02-10,2023-02-08,ニッショー設備株式会社,,株式会社,静岡県,熱海市,紅葉ガ丘町１１番１２号,,22,205,4130027,,,2023-02-08,清算の結了等,,,2015-10-05,1,,,,,ニッショーセツビ,0
1956,8100002023295,登記記録の閉鎖等,0,2023-02-10,2023-02-07,有限会社アズミツーワン,,有限会社,長野県,安曇野市,豊科１７８６番地,,20,220,3998205,,,2023-02-07,清算の結了等,,,2015-10-05,1,,,,,アズミツーワン,0
1959,8100005010927,登記記録の閉鎖等,0,2023-02-10,2023-02-07,特定非営利活動法人しいある倶楽部,,その他の設立登記法人,長野県,北佐久郡軽井沢町,大字長倉３６７９番地１８,,20,321,3890111,,,2023-02-07,清算の結了等,,,2015-10-05,1,,,,,シイアルクラブ,0
1964,8120001128845,登記記録の閉鎖等,0,2023-02-10,2023-02-08,株式会社テーラ,,株式会社,大阪府,大阪市北区,天神橋６丁目６番１１号,,27,127,5300041,,,2023-02-08,清算の結了等,,,2015-10-05,1,,,,,,0
1994,8130002001612,登記記録の閉鎖等,0,2023-02-10,2023-02-08,有限会社三重生染料店,,有限会社,京都府,京都市右京区,西院南井御料町２番地,,26,108,6150037,,,2023-02-08,清算の結了等,,,2015-10-05,1,,,,,ミエブセンリョウテン,0
2034,8240005003685,登記記録の閉鎖等,0,2023-02-10,2023-02-07,河内町商工協同組合,,その他の設立登記法人,広島県,東広島市,河内町中河内１２３５番地２商工会館内,,34,212,7392201,,,2023-02-07,清算の結了等,,,2015-10-05,1,,,,,コウチチョウショウコウ,0
2068,8360002018815,登記記録の閉鎖等,0,2023-02-10,2023-02-06,ベーカリーソレイユ有限会社,,有限会社,沖縄県,浦添市,前田１丁目４８番１ー１０１号コーポ石川,,47,208,9012102,,,2023-02-06,清算の結了等,,,2015-10-05,1,,,,,ベーカリーソレイユ,0
2089,8500002018370,登記記録の閉鎖等,0,2023-02-10,2023-02-06,有限会社篠原金網製作所,,有限会社,愛媛県,今治市,北高下町２丁目１番３３号,,38,202,7940812,,,2023-02-06,清算の結了等,,,2015-10-05,1,,,,,シノハラカナアミセイサクショ,0
2101,9010001120085,登記記録の閉鎖等,0,2023-02-10,2023-02-03,ランパス株式会社,,株式会社,東京都,千代田区,岩本町３丁目９番５号,,13,101,1010032,,,2023-02-03,合併による解散等,7010001013976,令和５年２月１日東京都千代田区岩本町三丁目９番５号貝印株式会社（7010001013976）に合併し解散,2015-10-05,1,,,,,ランパス,0
2105,9010001162805,登記記録の閉鎖等,0,2023-02-10,2023-02-06,株式会社五鈴精工硝子,,株式会社,大阪府,泉佐野市,りんくう往来北１番地の５３,,27,213,5980048,,,2023-02-06,合併による解散等,5010001224352,令和５年２月１日東京都中央区京橋二丁目２番１号株式会社五鈴精工硝子（5010001224352）に合併し解散,2015-10-05,1,,,,,イスズセイコウガラス,0
2111,9010003034795,登記記録の閉鎖等,0,2023-02-10,2023-02-03,アンド・サステイナビリティ合同会社,,合同会社,東京都,中央区,日本橋３丁目２番１４号新槇町ビル別館第一２階,,13,102,1030027,,,2023-02-03,清算の結了等,,,2021-05-07,1,,,,,アンドサステイナビリティ,0
2125,9010403012038,登記記録の閉鎖等,0,2023-02-10,2023-01-30,ＡｉｒＦｒｅｉｇｈｔ　Ｌｏｇｉｓｔｉｃｓ　Ｎｏｒｔｈ　Ａｓｉａ合同会社,,合同会社,東京都,港区,虎ノ門３丁目７番８号ランディック第２虎ノ門ビル,,13,103,1050001,,,2023-01-30,清算の結了等,,,2015-10-05,1,,,,,エアフレートロジスティクスノースアジア,0
2126,9010403019603,登記記録の閉鎖等,0,2023-02-10,2023-01-30,ＤＳグリーン発電飯山合同会社,,合同会社,東京都,港区,西新橋１丁目１３番５号,,13,103,1050003,,,2023-01-30,清算の結了等,,,2018-11-05,1,,,,,ディーエスグリーンハツデンイイヤマ,0
2146,9011001094063,登記記録の閉鎖等,0,2023-02-10,2023-02-07,株式会社アビストＨ＆Ｆ,,株式会社,熊本県,菊池市,七城町蘇崎字十三部１３６５番地８,,43,210,8611344,,,2023-02-07,合併による解散等,8011001065412,令和５年２月１日東京都三鷹市下連雀三丁目３６番１号株式会社アビスト（8011001065412）に合併し解散,2015-10-05,1,,,,,アビストエイチアンドエフ,0
2171,9011102011966,登記記録の閉鎖等,0,2023-02-10,2023-02-08,有限会社正清商店,,有限会社,東京都,新宿区,愛住町４番地,,13,104,1600005,,,2023-02-08,清算の結了等,,,2015-10-05,1,,,,,マサキヨショウテン,0
2186,9011802013106,登記記録の閉鎖等,0,2023-02-10,2023-02-08,有限会社酒田機工,,有限会社,東京都,足立区,千住龍田町３０番１１号,,13,121,1200042,,,2023-02-08,清算の結了等,,,2015-10-05,1,,,,,サカタキコウ,0
2197,9013401006432,登記記録の閉鎖等,0,2023-02-10,2023-02-08,株式会社リバティ,,株式会社,東京都,稲城市,若葉台１丁目４０番地の１９,,13,225,2060824,,,2023-02-08,清算の結了等,,,2015-10-05,1,,,,,リバティ,0
2212,9021002014630,登記記録の閉鎖等,0,2023-02-10,2023-02-08,有限会社コムサット,,有限会社,神奈川県,鎌倉市,今泉台７丁目１１番７号,,14,204,2470053,,,2023-02-08,清算の結了等,,,2015-10-05,1,,,,,コムサット,0
2249,9060001007303,登記記録の閉鎖等,0,2023-02-10,2023-02-06,株式会社バーン,,株式会社,栃木県,宇都宮市,西川田本町３丁目１番１号,,09,201,3210158,,,2023-02-06,合併による解散等,8060001001208,令和５年２月１日栃木県宇都宮市西川田本町三丁目１番１号株式会社カンセキ（8060001001208）に合併し解散,2015-10-05,1,,,,,バーン,0
2261,9080401012099,登記記録の閉鎖等,0,2023-02-10,2023-02-09,株式会社サックス,,株式会社,静岡県,浜松市中区,葵東２丁目１５番２８号,,22,131,4338114,,,2023-02-09,清算の結了等,,,2015-10-05,1,,,,,サックス,0
2281,9120001123886,登記記録の閉鎖等,0,2023-02-10,2023-01-30,アンドモワ株式会社,,株式会社,東京都,港区,芝２丁目１２番１５号芝大一ビル４階,,13,103,1050014,,,2023-01-30,清算の結了等,,,2015-10-05,1,,,,,アンドモワ,0
2306,9120903002618,登記記録の閉鎖等,0,2023-02-10,2023-02-02,Ｂｉｇｒｉｖｅｒ合同会社,,合同会社,大阪府,交野市,東倉治４丁目２４番１２号,,27,230,5760061,,,2023-02-02,清算の結了等,,,2018-09-25,1,,,,,ビッグリバー,0
2309,9122001028009,登記記録の閉鎖等,0,2023-02-10,2023-02-08,株式会社プロファイン,,株式会社,大阪府,大阪市平野区,喜連東２丁目２番４６号,,27,126,5470021,,,2023-02-08,清算の結了等,,,2015-10-05,1,,,,,プロファイン,0
2335,9180302010010,登記記録の閉鎖等,0,2023-02-10,2023-02-06,東海マネジメントネットワーク有限会社,,有限会社,愛知県,豊橋市,仲ノ町８１番地の１,,23,201,4400046,,,2023-02-06,清算の結了等,,,2015-10-05,1,,,,,トウカイマネジメントネットワーク,0
2346,9240001050615,登記記録の閉鎖等,0,2023-02-10,2023-02-08,株式会社池宮建設,,株式会社,広島県,広島市西区,庚午南２丁目３７番３０－４０２号,,34,104,7330823,,,2023-02-08,清算の結了等,,,2017-02-09,1,,,,,,0
2368,9360002005754,登記記録の閉鎖等,0,2023-02-10,2023-02-07,有限会社コンサルタントケイ,,有限会社,沖縄県,那覇市,久茂地２丁目２１番２２号,,47,201,9000015,,,2023-02-07,清算の結了等,,,2015-10-05,1,,,,,コンサルタントケイ,0
