sequenceNumber,corporateNumber,process,correct,updateDate,changeDate,name,nameImageId,kind,prefectureName,cityName,streetNumber,addressImageId,prefectureCode,cityCode,postCode,addressOutside,addressOutsideImageId,closeDate,closeCause,successorCorporateNumber,changeCause,assignmentDate,latest,enName,enPrefectureName,enCityName,enAddressOutside,furigana,hihyoji
5,1010001098940,登記記録の閉鎖等,0,2021-12-23,2021-12-20,株式会社アダプト,,株式会社,東京都,中央区,銀座７丁目１６番１５号,,13,102,1040061,,,2021-12-20,清算の結了等,,,2015-10-05,1,,,,,アダプト,0
13,1010101012330,登記記録の閉鎖等,0,2021-12-23,2021-12-17,株式会社Ｉｎｃｅｐｔｉｏｎ,,株式会社,東京都,八王子市,大横町１番１７号ヴィレッジ・ヒル２０１,,13,201,1920062,,,2021-12-17,清算の結了等,,,2016-05-10,1,,,,,インセプション,0
36,1010701019799,登記記録の閉鎖等,0,2021-12-23,2021-12-20,株式会社ＡＧＩ,,株式会社,東京都,品川区,東五反田４丁目１番３号,,13,109,1410022,,,2021-12-20,清算の結了等,,,2015-10-05,1,,,,,エージーアイ,0
39,1010801030895,登記記録の閉鎖等,0,2021-12-23,2021-12-20,株式会社コミキュー,,株式会社,東京都,大田区,南馬込５丁目４２番３号,,13,111,1430025,,,2021-12-20,清算の結了等,,,2020-05-20,1,,,,,コミキュー,0
52,1011103005693,登記記録の閉鎖等,0,2021-12-23,2021-12-20,合同会社ＣＯＭ,,合同会社,東京都,新宿区,高田馬場４丁目１番６号,,13,104,1690075,,,2021-12-20,清算の結了等,,,2015-10-05,1,,,,,コム,0
57,1011402007671,登記記録の閉鎖等,0,2021-12-23,2021-12-17,有限会社福榮コンクリート工業所,,有限会社,東京都,板橋区,仲町２６番１３号,,13,119,1730022,,,2021-12-17,清算の結了等,,,2015-10-05,1,,,,,フクエイコンクリートコウギョウショ,0
58,1011502006540,登記記録の閉鎖等,0,2021-12-23,2021-12-16,有限会社若色計器製作所,,有限会社,東京都,北区,滝野川１丁目４４番１２号,,13,117,1140023,,,2021-12-16,清算の結了等,,,2015-10-05,1,,,,,,0
67,1011803000317,登記記録の閉鎖等,0,2021-12-23,2021-12-17,合資会社立原産業,,合資会社,東京都,葛飾区,堀切３丁目１０番１５号,,13,122,1240006,,,2021-12-17,清算の結了等,,,2015-10-05,1,,,,,タチハラ,0
68,1011805002674,登記記録の閉鎖等,0,2021-12-23,2021-12-22,一般社団法人シニア住環境研究所,,その他の設立登記法人,東京都,足立区,扇１丁目５１番１５号,,13,121,1230873,,,2021-12-22,清算の結了等,,,2017-04-28,1,,,,,シニアジュウカンキョウケンキュウジョ,0
99,1021001023391,登記記録の閉鎖等,0,2021-12-23,2021-12-21,株式会社ドルチェ,,株式会社,神奈川県,厚木市,下依知３丁目９番１号,,14,212,2430806,,,2021-12-21,清算の結了等,,,2015-10-05,1,,,,,ドルチェ,0
109,1030001052623,登記記録の閉鎖等,0,2021-12-23,2021-12-21,株式会社エイ・アンド・ジェイ・インターナショナル,,株式会社,埼玉県,春日部市,増田新田４６７番地８６,,11,214,3440025,,,2021-12-21,清算の結了等,,,2015-10-05,1,,,,,エイアンドジェイインターナショナル,0
118,1050001001405,登記記録の閉鎖等,0,2021-12-23,2021-12-20,株式会社スズキ通商,,株式会社,茨城県,水戸市,見和３丁目１３９８番地の１８,,08,201,3100911,,,2021-12-20,清算の結了等,,,2015-10-05,1,,,,,スズキツウショウ,0
123,1060002009768,登記記録の閉鎖等,0,2021-12-23,2021-12-20,有限会社リスクマネジメント東神,,有限会社,栃木県,宇都宮市,清原台５丁目２８番１号,,09,201,3213223,,,2021-12-20,清算の結了等,,,2015-10-05,1,,,,,リスクマネジメントトウシン,0
142,1120001011594,登記記録の閉鎖等,0,2021-12-23,2021-12-17,朝日テクノ株式会社,,株式会社,大阪府,大阪市東成区,深江南２丁目１番２１号ハイツ２１,,27,115,5370002,,,2021-12-17,清算の結了等,,,2015-10-05,1,,,,,,0
173,1120902017624,登記記録の閉鎖等,0,2021-12-23,2021-12-22,岩崎木材有限会社,,有限会社,大阪府,豊中市,城山町２丁目９番２０号,,27,203,5610803,,,2021-12-22,清算の結了等,,,2015-10-05,1,,,,,イワサキモクザイ,0
193,1140001064327,登記記録の閉鎖等,0,2021-12-23,2021-12-17,丸徳産業株式会社,,株式会社,兵庫県,姫路市,大津区真砂町１番地２,,28,201,6711134,,,2021-12-17,清算の結了等,,,2015-10-05,1,,,,,マルトクサンギョウ,0
222,1180001097538,登記記録の閉鎖等,0,2021-12-23,2021-12-21,愛西サービス株式会社,,株式会社,愛知県,愛西市,大井町宮新田３番地の８,,23,232,4960921,,,2021-12-21,清算の結了等,,,2015-10-05,1,,,,,アイサイサービス,0
223,1180001103989,登記記録の閉鎖等,0,2021-12-23,2021-12-21,ホワイ・ナット・コンサルティング株式会社,,株式会社,愛知県,犬山市,大字橋爪字五反田１８番地７,,23,215,4840076,,,2021-12-21,清算の結了等,,,2015-10-05,1,,,,,ホワイナットコンサルティング,0
224,1180001129803,登記記録の閉鎖等,0,2021-12-23,2021-12-20,株式会社ロテレ,,株式会社,愛知県,名古屋市西区,中小田井１丁目３８６番地,,23,104,4520822,,,2021-12-20,清算の結了等,,,2017-10-19,1,,,,,ロテレ,0
231,1180003010399,登記記録の閉鎖等,0,2021-12-23,2021-12-21,合同会社プレジールプラス,,合同会社,愛知県,春日井市,高山町１丁目２１番地４リリーハイム５０２号,,23,206,4860912,,,2021-12-21,清算の結了等,,,2015-10-05,1,,,,,プレジールプラス,0
246,1210001011503,登記記録の閉鎖等,0,2021-12-23,2021-12-16,株式会社大つか,,株式会社,福井県,越前市,蓬莱町３番１２号,00081192,18,209,9150074,,,2021-12-16,清算の結了等,,,2015-10-05,1,,,,,オオツカ,0
251,1240002051330,登記記録の閉鎖等,0,2021-12-23,2021-12-21,有限会社藤井商店,,有限会社,広島県,尾道市,美ノ郷町三成３１７３番地,,34,205,7220215,,,2021-12-21,清算の結了等,,,2015-10-05,1,,,,,フジイショウテン,0
256,1250002020334,登記記録の閉鎖等,0,2021-12-23,2021-12-20,有限会社ほむら,,有限会社,山口県,大島郡周防大島町,大字久賀４２６２番地,,35,305,7422301,,,2021-12-20,清算の結了等,,,2015-10-05,1,,,,,ホムラ,0
261,1260001030523,登記記録の閉鎖等,0,2021-12-23,2021-12-22,ＪＢＥＣインターナショナル株式会社,,株式会社,岡山県,岡山市北区,駅元町１５番１号,,33,101,7000024,,,2021-12-22,清算の結了等,,,2017-03-02,1,,,,,ジェイベックインターナショナル,0
265,1260003003279,登記記録の閉鎖等,0,2021-12-23,2021-12-22,合同会社Ｎスリー,,合同会社,岡山県,倉敷市,大島６４６番地,,33,202,7100047,,,2021-12-22,清算の結了等,,,2020-08-04,1,,,,,エヌスリー,0
267,1280001000466,登記記録の閉鎖等,0,2021-12-23,2021-12-21,株式会社玉屋,,株式会社,島根県,松江市,平成町１８２番地７,,32,201,6900038,,,2021-12-21,清算の結了等,,,2015-10-05,1,,,,,タマヤ,0
287,1330001014568,登記記録の閉鎖等,0,2021-12-23,2021-12-20,株式会社テンダー,,株式会社,熊本県,八代市,鏡町有佐２２６番地,,43,202,8694213,,,2021-12-20,清算の結了等,,,2015-10-05,1,,,,,テンダー,0
290,1330005010134,登記記録の閉鎖等,0,2021-12-23,2021-12-14,一般社団法人Ｃｕｏｒｅ　ｒｉｃｃｏ,,その他の設立登記法人,熊本県,宇城市,松橋町松橋２８番８号,,43,213,8690502,,,2021-12-14,清算の結了等,,,2020-01-27,1,,,,,クオーレリッコ,0
294,1340002022255,登記記録の閉鎖等,0,2021-12-23,2021-12-21,有限会社大久保養鶏社,,有限会社,鹿児島県,出水市,高尾野町下水流３１９２番地,,46,208,8990405,,,2021-12-21,清算の結了等,,,2015-10-05,1,,,,,,0
298,1360003000803,登記記録の閉鎖等,0,2021-12-23,2021-12-20,合資会社平良紙商会,,合資会社,沖縄県,那覇市,壺屋２丁目２３番４号,,47,201,9020065,,,2021-12-20,清算の結了等,,,2015-10-05,1,,,,,タイラカミショウカイ,0
325,1460101004258,登記記録の閉鎖等,0,2021-12-23,2021-12-22,北王テクノ株式会社,,株式会社,北海道,帯広市,西七条北１丁目１１番地,,01,207,0800037,,,2021-12-22,清算の結了等,,,2015-10-05,1,,,,,ホクオウテクノ,0
326,1470001011312,登記記録の閉鎖等,0,2021-12-23,2021-12-21,株式会社有馬工務店,,株式会社,香川県,東かがわ市,西村６９９番地１,,37,207,7692604,,,2021-12-21,清算の結了等,,,2015-10-05,1,,,,,アリマコウムテン,0
329,1480002008182,登記記録の閉鎖等,0,2021-12-23,2021-12-21,撫養木材有限会社,,有限会社,徳島県,小松島市,大林町字金島５７番地８,,36,203,7730022,,,2021-12-21,清算の結了等,,,2015-10-05,1,,,,,ムヤモクザイ,0
339,2010001092471,登記記録の閉鎖等,0,2021-12-23,2021-12-16,株式会社日本農林協会,,株式会社,東京都,狛江市,中和泉１丁目２０番１５号,,13,219,2010012,,,2021-12-16,清算の結了等,,,2015-10-05,1,,,,,ニホンノウリンキョウカイ,0
353,2010401148682,登記記録の閉鎖等,0,2021-12-23,2021-12-15,株式会社ファースト東京,,株式会社,東京都,港区,南麻布２丁目７番３１－４０３号,,13,103,1060047,,,2021-12-15,清算の結了等,,,2019-10-16,1,,,,,ファーストトウキョウ,0
383,2011702001258,登記記録の閉鎖等,0,2021-12-23,2021-12-20,有限会社稲葉製作所,,有限会社,東京都,江戸川区,平井１丁目２４番１９号,,13,123,1320035,,,2021-12-20,清算の結了等,,,2015-10-05,1,,,,,イナバセイサクショ,0
393,2012801006759,登記記録の閉鎖等,0,2021-12-23,2021-12-22,株式会社いずみホーム,,株式会社,東京都,立川市,柏町４丁目６２番地の８,,13,202,1900004,,,2021-12-22,清算の結了等,,,2015-10-05,1,,,,,,0
402,2020001037582,登記記録の閉鎖等,0,2021-12-23,2021-12-21,株式会社パシフィックプレス,,株式会社,神奈川県,横浜市青葉区,荏子田２丁目１５番地３３,,14,117,2250005,,,2021-12-21,清算の結了等,,,2015-10-05,1,,,,,パシフィックプレス,0
403,2020001047862,登記記録の閉鎖等,0,2021-12-23,2021-12-08,ドッヂエンジニアリング株式会社,,株式会社,神奈川県,横浜市港北区,樽町３丁目１０番５号アムール１０１号室,,14,109,2220001,,,2021-12-08,清算の結了等,,,2015-10-05,1,,,,,ドッヂエンジニアリング,0
410,2021001018928,登記記録の閉鎖等,0,2021-12-23,2021-12-21,ホットアイ株式会社,,株式会社,神奈川県,相模原市南区,大野台４丁目６番８号,,14,153,2520331,,,2021-12-21,清算の結了等,,,2015-10-05,1,,,,,ホットアイ,0
415,2030002056597,登記記録の閉鎖等,0,2021-12-23,2021-12-21,有限会社田中商事,,有限会社,埼玉県,北足立郡伊奈町,大字小室２９７５番地,,11,301,3620806,,,2021-12-21,清算の結了等,,,2015-10-05,1,,,,,タナカショウジ,0
420,2040002087030,登記記録の閉鎖等,0,2021-12-23,2021-12-17,有限会社東京屋,,有限会社,千葉県,香取市,磯山３３７番地,,12,236,2870803,,,2021-12-17,清算の結了等,,,2015-10-05,1,,,,,トウキョウヤ,0
421,2040002101914,登記記録の閉鎖等,0,2021-12-23,2021-12-17,有限会社房総興産,,有限会社,千葉県,いすみ市,若山１１９２番地６,,12,238,2980001,,,2021-12-17,清算の結了等,,,2015-10-05,1,,,,,,0
438,2080401022542,登記記録の閉鎖等,0,2021-12-23,2021-12-15,株式会社アクティバル,,株式会社,静岡県,浜松市中区,鴨江３丁目１１番３号,,22,131,4328023,,,2021-12-15,合併による解散等,1080401022543,令和３年１２月１日静岡県浜松市中区高丘東一丁目１番３２号株式会社松本不動産（1080401022543）に合併し解散,2017-11-09,1,,,,,アクティバル,0
442,2100001019564,登記記録の閉鎖等,0,2021-12-23,2021-12-20,株式会社ジェイツアー,,株式会社,長野県,岡谷市,本町４丁目６番１号,,20,204,3940028,,,2021-12-20,合併による解散等,2100001022700,令和３年１２月２０日長野県飯田市上郷黒田７９２番地株式会社日の出ジェイツアー（2100001022700）に合併し解散,2015-10-05,1,,,,,ジェイツアー,0
447,2100001025083,登記記録の閉鎖等,0,2021-12-23,2021-12-20,シートゥアジャパン株式会社,,株式会社,長野県,大町市,大町２０５７番１６号,,20,212,3980002,,,2021-12-20,清算の結了等,,,2015-10-05,1,,,,,シートゥアジャパン,0
451,2120001041211,登記記録の閉鎖等,0,2021-12-23,2021-12-20,エクストレーディング株式会社,,株式会社,大阪府,大阪市北区,堂島１丁目１番５号梅田新道ビルディング８階,,27,127,5300003,,,2021-12-20,清算の結了等,,,2021-10-07,1,,,,,,0
453,2120001079838,登記記録の閉鎖等,0,2021-12-23,2021-12-16,株式会社さくら不動産,,株式会社,大阪府,大阪市北区,中之島３丁目５番８－１００１号,,27,127,5300005,,,2021-12-16,清算の結了等,,,2015-10-05,1,,,,,サクラフドウサン,0
477,2120101042712,登記記録の閉鎖等,0,2021-12-23,2021-12-17,三鈴興産株式会社,,株式会社,大阪府,泉大津市,東豊中町３丁目１８番４号,,27,206,5950021,,,2021-12-17,清算の結了等,,,2015-10-05,1,,,,,ミスズコウサン,0
478,2120101043850,登記記録の閉鎖等,0,2021-12-23,2021-12-17,みーなるフーズ株式会社,,株式会社,大阪府,泉大津市,虫取町２丁目１－２２,,27,206,5950037,,,2021-12-17,清算の結了等,,,2015-10-05,1,,,,,ミーナルフーズ,0
484,2120102026243,登記記録の閉鎖等,0,2021-12-23,2021-12-20,有限会社和田商店,,有限会社,大阪府,泉北郡忠岡町,忠岡南３丁目１７番５１号,,27,341,5950813,,,2021-12-20,清算の結了等,,,2015-10-05,1,,,,,ワダショウテン,0
512,2180002091209,登記記録の閉鎖等,0,2021-12-23,2021-12-14,有限会社グローバル,,有限会社,愛知県,弥富市,前ケ須町南本田５２６番地の２,,23,235,4980017,,,2021-12-14,清算の結了等,,,2015-10-05,1,,,,,グローバル,0
519,2190001018921,登記記録の閉鎖等,0,2021-12-23,2021-12-22,ＴＫコンサルタント株式会社,,株式会社,三重県,松阪市,小片野町９９４番地１,,24,204,5151204,,,2021-12-22,清算の結了等,,,2015-10-05,1,,,,,,0
524,2220002006203,登記記録の閉鎖等,0,2021-12-23,2021-12-20,有限会社吉田昭鉄工所,,有限会社,石川県,金沢市,湊１丁目１０９番地,,17,201,9200211,,,2021-12-20,清算の結了等,,,2015-10-05,1,,,,,ヨシダアキテッコウショ,0
526,2240001027124,登記記録の閉鎖等,0,2021-12-23,2021-12-21,田口工業株式会社,,株式会社,広島県,江田島市,江田島町切串１丁目１６番８号,,34,215,7372111,,,2021-12-21,清算の結了等,,,2015-10-05,1,,,,,タグチコウギョウ,0
534,2260001016637,登記記録の閉鎖等,0,2021-12-23,2021-12-22,株式会社人形会館,,株式会社,岡山県,総社市,門田３００番地１,,33,208,7191156,,,2021-12-22,清算の結了等,,,2015-10-05,1,,,,,ニンギョウカイカン,0
562,2380002035657,登記記録の閉鎖等,0,2021-12-23,2021-12-20,有限会社緑屋,,有限会社,福島県,南会津郡南会津町,田島字上町甲４０５０番地,,07,368,9670004,,,2021-12-20,清算の結了等,,,2015-10-05,1,,,,,ミドリヤ,0
566,2420002010119,登記記録の閉鎖等,0,2021-12-23,2021-12-21,有限会社スガライン,,有限会社,青森県,八戸市,大字新井田字松山１８番地３,,02,203,0310813,,,2021-12-21,清算の結了等,,,2015-10-05,1,,,,,スガライン,0
568,2430002058157,登記記録の閉鎖等,0,2021-12-23,2021-12-22,有限会社ＦＴＴ建設,,有限会社,北海道,勇払郡むかわ町,春日２４２番地,,01,586,0540002,,,2021-12-22,清算の結了等,,,2015-10-05,1,,,,,エフティティケンセツ,0
571,2430005006385,登記記録の閉鎖等,0,2021-12-23,2021-12-20,特定非営利活動法人女性のお口の健康を守る会,,その他の設立登記法人,北海道,札幌市中央区,大通西３丁目１１番地,,01,101,0600042,,,2021-12-20,清算の結了等,,,2015-10-05,1,,,,,ジョセイノオクチノケンコウヲマモルカイ,0
572,2450001005777,登記記録の閉鎖等,0,2021-12-23,2021-12-21,株式会社シンコー冷熱,,株式会社,北海道,旭川市,東八条６丁目５番４号富士スカイハイツ２０２号室,,01,204,0700028,,,2021-12-21,清算の結了等,,,2015-10-05,1,,,,,シンコーレイネツ,0
573,2450001009126,登記記録の閉鎖等,0,2021-12-23,2021-12-21,株式会社暑寒観光,,株式会社,北海道,増毛郡増毛町,畠中町１丁目２７番地,,01,481,0770214,,,2021-12-21,清算の結了等,,,2015-10-05,1,,,,,ショカンカンコウ,0
588,3010001195117,登記記録の閉鎖等,0,2021-12-23,2021-12-17,菱高化学株式会社,,株式会社,東京都,港区,虎ノ門１丁目３番１号,,13,103,1050001,,,2021-12-17,清算の結了等,,,2018-10-05,1,,,,,リョウコウカガク,0
596,3010005012697,登記記録の閉鎖等,0,2021-12-23,2021-12-21,名古屋デベロップメント特定目的会社,,その他の設立登記法人,東京都,千代田区,丸の内２丁目２番３号,,13,101,1000005,,,2021-12-21,清算の結了等,,,2015-10-05,1,,,,,ナゴヤデベロップメント,0
620,3010405016562,登記記録の閉鎖等,0,2021-12-23,2021-12-16,ジャカルタ特定目的会社,,その他の設立登記法人,東京都,港区,六本木１丁目６番１号泉ガーデンタワー,,13,103,1060032,,,2021-12-16,清算の結了等,,,2018-03-19,1,,,,,ジャカルタ,0
625,3010701021472,登記記録の閉鎖等,0,2021-12-23,2021-12-20,株式会社マーメイドベーカリーパートナーズ東日本,,株式会社,広島県,広島市中区,鶴見町２番１９号,,34,101,7300045,,,2021-12-20,清算の結了等,,,2015-10-05,1,,,,,マーメイドベーカリーパートナーズヒガシニホン,0
641,3011001063602,登記記録の閉鎖等,0,2021-12-23,2021-12-10,株式会社ラストライド,,株式会社,東京都,渋谷区,桜丘町３０－４渋谷アジアマンション２０６,,13,113,1500031,,,2021-12-10,清算の結了等,,,2015-10-05,1,,,,,ラストライド,0
643,3011001119759,登記記録の閉鎖等,0,2021-12-23,2021-11-11,株式会社ｂｉｔｓ＆ｂｏｂｓ,,株式会社,東京都,渋谷区,恵比寿西１丁目１７番１号えびす第一ビル８階,,13,113,1500021,,,2021-11-11,清算の結了等,,,2017-12-18,1,,,,,ビッツアンドボブス,0
650,3011102007524,登記記録の閉鎖等,0,2021-12-23,2021-12-20,有限会社タイガー不動産,,有限会社,東京都,新宿区,中落合３丁目１６番３号,,13,104,1610032,,,2021-12-20,清算の結了等,,,2015-10-05,1,,,,,タイガーフドウサン,0
656,3011601000657,登記記録の閉鎖等,0,2021-12-23,2021-12-21,伊藤木材株式会社,,株式会社,東京都,練馬区,豊玉北４丁目４番１号,,13,120,1760012,,,2021-12-21,清算の結了等,,,2015-10-05,1,,,,,イトウモクザイ,0
677,3012403001785,登記記録の閉鎖等,0,2021-12-23,2021-12-13,ＩＴＳパブリッシング合同会社,,合同会社,東京都,三鷹市,下連雀７丁目３番１号,,13,204,1810013,,,2021-12-13,清算の結了等,,,2015-10-05,1,,,,,アイティエスパブリッシング,0
685,3013102007859,登記記録の閉鎖等,0,2021-12-23,2021-12-22,有限会社ノエル,,有限会社,東京都,八王子市,上野町２２番地５リライアンス金井２０２号,,13,201,1920902,,,2021-12-22,清算の結了等,,,2015-10-05,1,,,,,,0
693,3020001075730,登記記録の閉鎖等,0,2021-12-23,2021-12-21,サンヨー住宅株式会社,,株式会社,神奈川県,川崎市高津区,久本２丁目４番１５号,,14,134,2130011,,,2021-12-21,清算の結了等,,,2015-10-05,1,,,,,サンヨージュウタク,0
702,3021001007236,登記記録の閉鎖等,0,2021-12-23,2021-12-17,仲屋乳業株式会社,,株式会社,神奈川県,茅ヶ崎市,柳島海岸１番１０号,,14,207,2530063,,,2021-12-17,清算の結了等,,,2015-10-05,1,,,,,ナカヤニュウギョウ,0
706,3021002051844,登記記録の閉鎖等,0,2021-12-23,2021-12-20,栄町共同ビル有限会社,,有限会社,神奈川県,小田原市,栄町２丁目９番４６号,,14,206,2500011,,,2021-12-20,清算の結了等,,,2015-10-05,1,,,,,サカエチョウキョウドウビル,0
713,3030002057966,登記記録の閉鎖等,0,2021-12-23,2021-12-20,有限会社フューチャープロジェクト,,有限会社,埼玉県,桶川市,大字加納８６番地の１８,,11,231,3630001,,,2021-12-20,清算の結了等,,,2015-10-05,1,,,,,フューチャープロジェクト,0
737,3080101017817,登記記録の閉鎖等,0,2021-12-23,2021-12-21,株式会社ＭＹＳ企画,,株式会社,静岡県,伊東市,宇佐美１１３１番地の１,,22,208,4140001,,,2021-12-21,清算の結了等,,,2015-10-05,1,,,,,エムワイエスキカク,0
743,3100002002683,登記記録の閉鎖等,0,2021-12-23,2021-12-21,有限会社森のうた,,有限会社,長野県,長野市,若里６丁目１２番１号,,20,201,3800928,,,2021-12-21,清算の結了等,,,2015-10-05,1,,,,,モリノウタ,0
752,3120001081784,登記記録の閉鎖等,0,2021-12-23,2021-12-17,伸興産業株式会社,,株式会社,大阪府,大阪市中央区,本町４丁目８番８号,,27,128,5410053,,,2021-12-17,清算の結了等,,,2015-10-05,1,,,,,シンコウサンギョウ,0
753,3120001095933,登記記録の閉鎖等,0,2021-12-23,2021-12-17,南海アミューズメント株式会社,,株式会社,大阪府,大阪市中央区,難波５丁目１番６０号,,27,128,5420076,,,2021-12-17,清算の結了等,,,2015-10-05,1,,,,,ナンカイアミューズメント,0
794,3150002011028,登記記録の閉鎖等,0,2021-12-23,2021-12-20,有限会社よしだストアー,,有限会社,奈良県,五條市,野原西２丁目７番３号,,29,207,6370036,,,2021-12-20,清算の結了等,,,2015-10-05,1,,,,,ヨシダストアー,0
805,3180001112880,登記記録の閉鎖等,0,2021-12-23,2021-12-20,日本エアフォトグラフ株式会社,,株式会社,愛知県,名古屋市名東区,牧の里１丁目２０６番地,,23,115,4650068,,,2021-12-20,清算の結了等,,,2015-10-05,1,,,,,,0
813,3180002081646,登記記録の閉鎖等,0,2021-12-23,2021-12-21,有限会社いしい,,有限会社,愛知県,一宮市,苅安賀１丁目１７番２４号,,23,203,4910933,,,2021-12-21,清算の結了等,,,2015-10-05,1,,,,,イシイ,0
815,3180003009398,登記記録の閉鎖等,0,2021-12-23,2021-12-17,クローバーフレーバー合同会社,,合同会社,愛知県,名古屋市西区,枇杷島３丁目２１番２９号,,23,104,4510053,,,2021-12-17,清算の結了等,,,2015-10-05,1,,,,,クローバーフレーバー,0
827,3220002001673,登記記録の閉鎖等,0,2021-12-23,2021-12-21,有限会社オケタニ,,有限会社,石川県,金沢市,鳴和２丁目１０番３７号,,17,201,9200804,,,2021-12-21,清算の結了等,,,2015-10-05,1,,,,,オケタニ,0
830,3250001001985,登記記録の閉鎖等,0,2021-12-23,2021-12-20,サンライト株式会社,,株式会社,山口県,防府市,大字新田４３３番地の４,,35,206,7470825,,,2021-12-20,清算の結了等,,,2015-10-05,1,,,,,サンライト,0
832,3250005008201,登記記録の閉鎖等,0,2021-12-23,2021-12-15,特定非営利活動法人虹,,その他の設立登記法人,山口県,山口市,後河原２３－３,,35,203,7530083,,,2021-12-15,清算の結了等,,,2016-02-09,1,,,,,ニジ,0
834,3260001006942,登記記録の閉鎖等,0,2021-12-23,2021-12-22,株式会社ワイ構造建築研究所,,株式会社,岡山県,岡山市北区,大供２丁目１２番１３号,,33,101,7000913,,,2021-12-22,清算の結了等,,,2015-10-05,1,,,,,ワイコウゾウケンチクケンキュウショ,0
835,3260001018252,登記記録の閉鎖等,0,2021-12-23,2021-12-21,株式会社セノオ・フォージング,,株式会社,岡山県,井原市,高屋町５丁目１番地の１１,,33,207,7150024,,,2021-12-21,清算の結了等,,,2015-10-05,1,,,,,セノオフォージング,0
836,3260002007444,登記記録の閉鎖等,0,2021-12-23,2021-12-22,有限会社西野興業,,有限会社,岡山県,岡山市北区,野田３丁目１９番５号,,33,101,7000971,,,2021-12-22,清算の結了等,,,2015-10-05,1,,,,,ニシノコウギョウ,0
841,3290001024917,登記記録の閉鎖等,0,2021-12-23,2021-12-17,株式会社トクナガデザイン研究所,,株式会社,福岡県,福岡市城南区,樋井川２丁目５番２０号,00092301,40,136,8140153,,,2021-12-17,清算の結了等,,,2015-10-05,1,,,,,トクナガデザインケンキュウショ,0
853,3330003000333,登記記録の閉鎖等,0,2021-12-23,2021-12-21,合資会社彩美堂,,合資会社,熊本県,熊本市中央区,新大江２丁目２番２０号,,43,101,8620972,,,2021-12-21,清算の結了等,,,2015-10-05,1,,,,,サイビドウ,0
859,3370001003243,登記記録の閉鎖等,0,2021-12-23,2021-12-21,スガイ塗料商事株式会社,,株式会社,宮城県,仙台市若林区,志波町５番７号,,04,103,9840041,,,2021-12-21,清算の結了等,,,2015-10-05,1,,,,,,0
864,3370003004438,登記記録の閉鎖等,0,2021-12-23,2021-12-16,合同会社Ｆｒｅａｋｓ,,合同会社,福岡県,福岡市早良区,西新４丁目６番１２号レジディア西新７０５号,,40,137,8140002,,,2021-12-16,清算の結了等,,,2019-04-08,1,,,,,フリークス,0
870,3400002000211,登記記録の閉鎖等,0,2021-12-23,2021-12-22,アレン有限会社,,有限会社,岩手県,盛岡市,厨川２丁目６番３号,,03,201,0200124,,,2021-12-22,清算の結了等,,,2015-10-05,1,,,,,アレン,0
884,3450002005651,登記記録の閉鎖等,0,2021-12-23,2021-12-21,柳川製菓有限会社,,有限会社,北海道,旭川市,東鷹栖東一条４丁目６３７番地１４０,,01,204,0718111,,,2021-12-21,清算の結了等,,,2015-10-05,1,,,,,ヤナガワセイカ,0
886,3490001000096,登記記録の閉鎖等,0,2021-12-23,2021-12-22,マークエンタープライズ株式会社,,株式会社,高知県,高知市,高須新町３丁目１０番８号,,39,201,7818122,,,2021-12-22,清算の結了等,,,2015-10-05,1,,,,,マークエンタープライズ,0
887,3490001008395,登記記録の閉鎖等,0,2021-12-23,2021-12-20,株式会社矢野工務店一級建築士事務所,,株式会社,高知県,須崎市,浜町２丁目３番５号,,39,206,7850006,,,2021-12-20,清算の結了等,,,2016-07-06,1,,,,,ヤノコウムテンイッキュウケンチクシジムショ,0
890,4010001129189,登記記録の閉鎖等,0,2021-12-23,2021-12-20,株式会社流通工学研究所,,株式会社,静岡県,静岡市清水区,清開１丁目５番１０号,,22,103,4240924,,,2021-12-20,清算の結了等,,,2015-10-05,1,,,,,リュウツウコウガクケンキュウジョ,0
896,4010001211789,登記記録の閉鎖等,0,2021-12-23,2021-12-13,株式会社医経環境研究所,,株式会社,東京都,文京区,本郷３丁目４番３号ヒルズ８８４お茶ノ水ビル５階,,13,105,1130033,,,2021-12-13,清算の結了等,,,2020-08-20,1,,,,,イケイカンキョウケンキュウジョ,0
951,4011001041474,登記記録の閉鎖等,0,2021-12-23,2021-12-09,株式会社デイトナ・インターナショナル,,株式会社,東京都,渋谷区,神宮前３丁目２５番１５号,,13,113,1500001,,,2021-12-09,合併による解散等,1010001216832,令和３年１２月１日東京都渋谷区神宮前三丁目２５番１５号株式会社Ｍｕｓｔａｎｇ（1010001216832）に合併し解散,2015-10-05,1,,,,,デイトナインターナショナル,0
954,4011001068765,登記記録の閉鎖等,0,2021-12-23,2021-12-16,トロールビーズジャパン株式会社,,株式会社,東京都,港区,芝４丁目９番１号,,13,103,1080014,,,2021-12-16,清算の結了等,,,2015-10-05,1,,,,,トロールビーズジャパン,0
973,4011802029899,登記記録の閉鎖等,0,2021-12-23,2021-12-20,有限会社北進架設,,有限会社,東京都,足立区,千住関屋町１７番１５－１－９１３号,,13,121,1200024,,,2021-12-20,清算の結了等,,,2015-10-05,1,,,,,ホクシンカセツ,0
976,4012401033334,登記記録の閉鎖等,0,2021-12-23,2021-12-14,ｐｏｒｕｃｌｅ株式会社,,株式会社,東京都,調布市,仙川町１丁目２７番地８,,13,208,1820002,,,2021-12-14,清算の結了等,,,2017-11-07,1,,,,,ポルクル,0
981,4013302005513,登記記録の閉鎖等,0,2021-12-23,2021-12-17,有限会社セイブ精気,,有限会社,東京都,豊島区,長崎３丁目１６番１２号,,13,116,1710051,,,2021-12-17,清算の結了等,,,2015-10-05,1,,,,,セイブセイキ,0
982,4013303004324,登記記録の閉鎖等,0,2021-12-23,2021-12-16,合同会社Ｆｒｉｅｎｄｓ,,合同会社,東京都,豊島区,千早３丁目４１番１１号,,13,116,1710044,,,2021-12-16,清算の結了等,,,2018-09-25,1,,,,,フレンズ,0
1000,4030001043207,登記記録の閉鎖等,0,2021-12-23,2021-12-21,株式会社ケーオーエス,,株式会社,埼玉県,上尾市,大字原市３５８３番地１１,,11,219,3620021,,,2021-12-21,清算の結了等,,,2015-10-05,1,,,,,ケーオーエス,0
1009,4040001106895,登記記録の閉鎖等,0,2021-12-23,2021-12-17,株式会社味菜つくば,,株式会社,茨城県,つくば市,上横場２０３０番地３,,08,220,3050854,,,2021-12-17,合併による解散等,6040001101985,令和３年１２月１日千葉県市川市市川二丁目２８番１３号アイ・シービル１階株式会社味菜（6040001101985）に合併し解散,2018-11-16,1,,,,,アジサイツクバ,0
1012,4040002019741,登記記録の閉鎖等,0,2021-12-23,2021-12-20,有限会社Ｍｅｒｒｙ　Ｇａｔｅ,,有限会社,東京都,中央区,勝どき３丁目４番１－２０２号,,13,102,1040054,,,2021-12-20,清算の結了等,,,2015-10-05,1,,,,,メリーゲイト,0
1067,4130001061727,登記記録の閉鎖等,0,2021-12-23,2021-12-20,株式会社ホテルマネジメント京都,,株式会社,京都府,京都市下京区,西木屋町通松原下る難波町４０３番地１,,26,106,6008027,,,2021-12-20,清算の結了等,,,2018-03-19,1,,,,,ホテルマネジメントキョウト,0
1068,4130002033460,登記記録の閉鎖等,0,2021-12-23,2021-12-20,有限会社ファイン,,有限会社,京都府,綾部市,田野町風久呂６番地の３２,,26,203,6230034,,,2021-12-20,清算の結了等,,,2015-10-05,1,,,,,ファイン,0
1069,4140001027719,登記記録の閉鎖等,0,2021-12-23,2021-12-20,キタノ株式会社,,株式会社,兵庫県,神戸市中央区,山本通２丁目１２番１６号,,28,110,6500003,,,2021-12-20,清算の結了等,,,2015-10-05,1,,,,,キタノ,0
1081,4180001001050,登記記録の閉鎖等,0,2021-12-23,2021-12-21,株式会社根岸建築,,株式会社,愛知県,名古屋市守山区,川宮町１５８番地,,23,113,4630081,,,2021-12-21,清算の結了等,,,2015-10-05,1,,,,,ネギシケンチク,0
1087,4180001119776,登記記録の閉鎖等,0,2021-12-23,2021-12-21,エムグループコンサルティング株式会社,,株式会社,愛知県,名古屋市中区,丸の内２丁目１７－１３ＮＫ丸の内ビル４Ｆ,,23,106,4600002,,,2021-12-21,清算の結了等,,,2015-10-05,1,,,,,,0
1093,4180301028330,登記記録の閉鎖等,0,2021-12-23,2021-12-22,株式会社加藤施工,,株式会社,愛知県,豊川市,御津町広石新宮山３番地１２,,23,207,4410321,,,2021-12-22,清算の結了等,,,2015-10-05,1,,,,,カトウセコウ,0
1103,4210002011474,登記記録の閉鎖等,0,2021-12-23,2021-12-17,有限会社アトリエヤマダ,,有限会社,福井県,越前市,北山町第５８号２２番地の１７,,18,209,9150897,,,2021-12-17,清算の結了等,,,2015-10-05,1,,,,,アトリエヤマダ,0
1106,4220005007080,登記記録の閉鎖等,0,2021-12-23,2021-12-20,特定非営利活動法人ガフ,,その他の設立登記法人,石川県,かほく市,内高松未２７番地１,,17,209,9291214,,,2021-12-20,清算の結了等,,,2015-10-05,1,,,,,ガフ,0
1109,4230001005525,登記記録の閉鎖等,0,2021-12-23,2021-12-21,株式会社ティピーエス西インター,,株式会社,富山県,富山市,中川原６５番地３７藤田第一ビル１０３,,16,201,9398015,,,2021-12-21,清算の結了等,,,2015-10-05,1,,,,,,0
1119,4290001008902,登記記録の閉鎖等,0,2021-12-23,2021-12-16,株式会社テスワールド,,株式会社,福岡県,福岡市中央区,港３丁目１番７３－６０５号室,,40,133,8100075,,,2021-12-16,清算の結了等,,,2015-10-05,1,,,,,テスワールド,0
1120,4290001033545,登記記録の閉鎖等,0,2021-12-23,2021-12-15,株式会社アーキテクト憧,,株式会社,福岡県,福岡市中央区,大名１丁目８番１８号ロイヤルパークス大名３０２,,40,133,8100041,,,2021-12-15,清算の結了等,,,2015-10-05,1,,,,,アーキテクトショウ,0
1128,4320002002958,登記記録の閉鎖等,0,2021-12-23,2021-12-22,有限会社桜通信工業,,有限会社,大分県,大分市,王子町３番１号,,44,201,8700009,,,2021-12-22,清算の結了等,,,2015-10-05,1,,,,,サクラツウシンコウギョウ,0
1130,4340001001686,登記記録の閉鎖等,0,2021-12-23,2021-12-22,株式会社コスモ知能開発センター,,株式会社,鹿児島県,鹿児島市,鴨池１丁目５５番１号,,46,201,8900063,,,2021-12-22,清算の結了等,,,2015-10-05,1,,,,,,0
1135,4370002000560,登記記録の閉鎖等,0,2021-12-23,2021-12-21,有限会社カワシマコーポレーション,,有限会社,宮城県,仙台市泉区,八乙女中央１丁目４番２０号,,04,105,9813135,,,2021-12-21,清算の結了等,,,2021-09-15,1,,,,,カワシマコーポレーション,0
1142,4380002001913,登記記録の閉鎖等,0,2021-12-23,2021-12-20,有限会社摺上レジヤーフアーム,,有限会社,福島県,福島市,宮代字瀬戸川２７番地,,07,201,9600116,,,2021-12-20,清算の結了等,,,2015-10-05,1,,,,,,0
1156,4460103001093,登記記録の閉鎖等,0,2021-12-23,2021-12-21,合同会社ＷＯＲＫＦＯＲ,,合同会社,北海道,帯広市,西十八条南４１丁目１番地２,,01,207,0800028,,,2021-12-21,清算の結了等,,,2017-11-08,1,,,,,,0
1185,5010103000478,登記記録の閉鎖等,0,2021-12-23,2021-12-22,合同会社福祉本舗ヒシヤマ,,合同会社,東京都,八王子市,横川町４２５番地,,13,201,1930823,,,2021-12-22,清算の結了等,,,2015-10-05,1,,,,,,0
1194,5010403009558,登記記録の閉鎖等,0,2021-12-23,2021-12-20,合同会社ＣＲＴ立川,,合同会社,東京都,千代田区,丸の内３丁目１番１号東京共同会計事務所内,,13,101,1000005,,,2021-12-20,清算の結了等,,,2015-10-05,1,,,,,シーアールティータチカワ,0
1203,5010503004707,登記記録の閉鎖等,0,2021-12-23,2021-12-15,合同会社伊豆総合企画,,合同会社,東京都,台東区,北上野２丁目１３番８号,,13,106,1100014,,,2021-12-15,清算の結了等,,,2016-06-21,1,,,,,イズソウゴウキカク,0
1229,5011801003846,登記記録の閉鎖等,0,2021-12-23,2021-12-22,株式会社ノア,,株式会社,東京都,葛飾区,亀有３丁目５６番６号,,13,122,1250061,,,2021-12-22,清算の結了等,,,2015-10-05,1,,,,,ノア,0
1230,5011801008234,登記記録の閉鎖等,0,2021-12-23,2021-12-21,株式会社サンヒット,,株式会社,東京都,足立区,神明３丁目２８番１５号,,13,121,1210051,,,2021-12-21,清算の結了等,,,2015-10-05,1,,,,,サンヒット,0
1231,5011801012178,登記記録の閉鎖等,0,2021-12-23,2021-12-22,マルサン三上商事株式会社,,株式会社,東京都,足立区,千住橋戸町６３番地２,,13,121,1200038,,,2021-12-22,清算の結了等,,,2015-10-05,1,,,,,マルサンミカミショウジ,0
1239,5012701013571,登記記録の閉鎖等,0,2021-12-23,2021-12-20,株式会社アンティカ,,株式会社,東京都,西東京市,保谷町２丁目８番５号,,13,229,2020015,,,2021-12-20,清算の結了等,,,2016-01-29,1,,,,,アンティカ,0
1241,5012702001930,登記記録の閉鎖等,0,2021-12-23,2021-12-22,有限会社山崎設備工業所,,有限会社,東京都,小平市,学園東町４９６番地,,13,211,1870043,,,2021-12-22,清算の結了等,,,2015-10-05,1,,,,,,0
1261,5021002019427,登記記録の閉鎖等,0,2021-12-23,2021-12-20,有限会社木村測量設計,,有限会社,神奈川県,相模原市南区,大野台６丁目４番６－１０３号,,14,153,2520331,,,2021-12-20,清算の結了等,,,2015-10-05,1,,,,,キムラソクリョウセッケイ,0
1263,5030001018141,登記記録の閉鎖等,0,2021-12-23,2021-12-20,ハギワラ家庭電器株式会社,,株式会社,埼玉県,さいたま市岩槻区,本町１丁目１５番７号,,11,110,3390057,,,2021-12-20,清算の結了等,,,2015-10-05,1,,,,,ハギワラカテイデンキ,0
1267,5030002067286,登記記録の閉鎖等,0,2021-12-23,2021-12-22,有限会社アスリート,,有限会社,埼玉県,和光市,白子２丁目９番２４－Ｄ９０３号,,11,229,3510101,,,2021-12-22,清算の結了等,,,2015-10-05,1,,,,,アスリート,0
1270,5040001006161,登記記録の閉鎖等,0,2021-12-23,2021-12-20,シリウス株式会社,,株式会社,千葉県,千葉市若葉区,金親町２０２番地８９,,12,104,2640001,,,2021-12-20,清算の結了等,,,2015-10-05,1,,,,,シリウス,0
1276,5040002049218,登記記録の閉鎖等,0,2021-12-23,2021-12-17,有限会社ヤギサワ,,有限会社,千葉県,柏市,緑ケ丘８番６号,,12,217,2770082,,,2021-12-17,清算の結了等,,,2015-10-05,1,,,,,ヤギサワ,0
1280,5050001000403,登記記録の閉鎖等,0,2021-12-23,2021-12-16,株式会社伊藤製作所,,株式会社,茨城県,水戸市,堀町１２７５番地,,08,201,3100903,,,2021-12-16,清算の結了等,,,2015-10-05,1,,,,,イトウセイサクショ,0
1285,5050002003347,登記記録の閉鎖等,0,2021-12-23,2021-12-20,有限会社やまご商会,,有限会社,茨城県,水戸市,姫子２丁目６６５番地の４６,,08,201,3114151,,,2021-12-20,清算の結了等,,,2015-10-05,1,,,,,ヤマゴショウカイ,0
1286,5050002011861,登記記録の閉鎖等,0,2021-12-23,2021-12-17,有限会社タニザキ,,有限会社,茨城県,土浦市,港町３丁目２９番３０号,,08,203,3000034,,,2021-12-17,清算の結了等,,,2015-10-05,1,,,,,タニザキ,0
1300,5080402016912,登記記録の閉鎖等,0,2021-12-23,2021-12-15,有限会社ｅｎ,,有限会社,静岡県,浜松市中区,鴨江３丁目１１番３号,,22,131,4328023,,,2021-12-15,合併による解散等,1080401022543,令和３年１２月１日静岡県浜松市中区高丘東一丁目１番３２号株式会社松本不動産（1080401022543）に合併し解散,2015-10-05,1,,,,,エン,0
1305,5100003005205,登記記録の閉鎖等,0,2021-12-23,2021-12-21,合同会社地域問題研究所,,合同会社,長野県,松本市,大字島内３７７７番地７,,20,202,3900851,,,2021-12-21,清算の結了等,,,2019-01-15,1,,,,,チイキモンダイケンキュウジョ,0
1322,5122001001910,登記記録の閉鎖等,0,2021-12-23,2021-12-21,株式会社ギフト関西,,株式会社,大阪府,東大阪市,西堤西１番２１号,,27,227,5770048,,,2021-12-21,清算の結了等,,,2015-10-05,1,,,,,,0
1324,5122001021751,登記記録の閉鎖等,0,2021-12-23,2021-12-20,大東倉庫株式会社,,株式会社,大阪府,柏原市,本郷４丁目２７番地,,27,221,5820001,,,2021-12-20,合併による解散等,4120001018884,令和３年１２月１日大阪市生野区舎利寺三丁目１１番１号マルニ工業株式会社（4120001018884）に合併し解散,2015-10-05,1,,,,,,0
1351,5180003009438,登記記録の閉鎖等,0,2021-12-23,2021-12-21,合同会社荒木企画,,合同会社,愛知県,名古屋市緑区,元徳重１丁目１０７番地,,23,114,4580852,,,2021-12-21,清算の結了等,,,2015-10-05,1,,,,,アラキキカク,0
1359,5200001005485,登記記録の閉鎖等,0,2021-12-23,2021-12-21,株式会社モネ,,株式会社,岐阜県,岐阜市,茜部野瀬２丁目３番地の１,,21,201,5008283,,,2021-12-21,清算の結了等,,,2015-10-05,1,,,,,モネ,0
1362,5200005013154,登記記録の閉鎖等,0,2021-12-23,2021-12-20,特定非営利活動法人南濃福祉事業支援友の会,,その他の設立登記法人,岐阜県,海津市,海津町高須町８４３番地４,,21,221,5030653,,,2021-12-20,清算の結了等,,,2021-02-12,1,,,,,ナンノウフクシジギョウシエントモノカイ,0
1365,5220003002173,登記記録の閉鎖等,0,2021-12-23,2021-12-21,Ｆｅｅｌ　ｗａｒｍ合同会社,,合同会社,石川県,河北郡津幡町,北中条２丁目１８番地,,17,361,9290342,,,2021-12-21,清算の結了等,,,2016-09-08,1,,,,,フィールウォーム,0
1390,5290801003696,登記記録の閉鎖等,0,2021-12-23,2021-12-16,株式会社明専,,株式会社,福岡県,北九州市戸畑区,仙水町１番１号,,40,105,8040015,,,2021-12-16,清算の結了等,,,2015-10-05,1,,,,,メイセン,0
1399,5340002027333,登記記録の閉鎖等,0,2021-12-23,2021-12-21,有限会社三幸ハーネス,,有限会社,鹿児島県,曽於市,大隅町月野１９００番地１,,46,217,8998212,,,2021-12-21,清算の結了等,,,2015-10-05,1,,,,,サンコウハーネス,0
1402,5380001004544,登記記録の閉鎖等,0,2021-12-23,2021-12-17,五十鈴商亊株式会社,,株式会社,福島県,郡山市,富田町字中亀田３５番地の４５,,07,203,9638041,,,2021-12-17,清算の結了等,,,2015-10-05,1,,,,,,0
1413,5400002003559,登記記録の閉鎖等,0,2021-12-23,2021-12-21,有限会社ゆり商事,,有限会社,岩手県,盛岡市,月が丘３丁目３２番５号,,03,201,0200121,,,2021-12-21,清算の結了等,,,2015-10-05,1,,,,,ユリショウジ,0
1418,5430001083384,登記記録の閉鎖等,0,2021-12-23,2021-12-17,株式会社アクアウェルフェア,,株式会社,北海道,札幌市西区,八軒十条東４丁目２番１８号アクア八軒東ビル３階,,01,107,0630870,,,2021-12-17,清算の結了等,,,2021-02-09,1,,,,,アクアウェルフェア,0
1432,6010001061687,登記記録の閉鎖等,0,2021-12-23,2021-12-20,東京山喜株式会社,,株式会社,東京都,中央区,日本橋人形町３丁目５番９号,,13,102,1030013,,,2021-12-20,清算の結了等,,,2015-10-05,1,,,,,トウキョウヤマキ,0
1444,6010002013092,登記記録の閉鎖等,0,2021-12-23,2021-12-20,有限会社菜々,,有限会社,東京都,千代田区,大手町１丁目６番１号,,13,101,1000004,,,2021-12-20,清算の結了等,,,2015-10-05,1,,,,,ナナ,0
1445,6010002044724,登記記録の閉鎖等,0,2021-12-23,2021-12-21,有限会社ビービードットコム,,有限会社,東京都,練馬区,石神井町４丁目１４番１７号,,13,120,1770041,,,2021-12-21,清算の結了等,,,2015-10-05,1,,,,,,0
1449,6010005029697,登記記録の閉鎖等,0,2021-12-23,2021-12-21,ＥＳＲ２２・１一般社団法人,,その他の設立登記法人,東京都,中央区,日本橋１丁目４番１号日本橋一丁目ビルディング,,13,102,1030027,,,2021-12-21,清算の結了等,,,2019-02-06,1,,,,,イーエスアールトゥエンティツーワン,0
1479,6010702010802,登記記録の閉鎖等,0,2021-12-23,2021-12-22,有限会社不動庵,,有限会社,東京都,品川区,西五反田２丁目２４番７号,,13,109,1410031,,,2021-12-22,清算の結了等,,,2015-10-05,1,,,,,フドウアン,0
1483,6010802003838,登記記録の閉鎖等,0,2021-12-23,2021-12-17,有限会社川井精密,,有限会社,東京都,大田区,池上２丁目１８番３号,,13,111,1460082,,,2021-12-17,清算の結了等,,,2015-10-05,1,,,,,カワイセイミツ,0
1493,6011005002834,登記記録の閉鎖等,0,2021-12-23,2021-12-15,監査法人元和,,その他の設立登記法人,東京都,渋谷区,猿楽町９番８号,,13,113,1500033,,,2021-12-15,清算の結了等,,,2015-10-05,1,,,,,ゲンワ,0
1496,6011102001425,登記記録の閉鎖等,0,2021-12-23,2021-12-20,有限会社ヴィンセント,,有限会社,東京都,新宿区,新宿６丁目２６番２号,,13,104,1600022,,,2021-12-20,清算の結了等,,,2015-10-05,1,,,,,ビンセント,0
1518,6020001081742,登記記録の閉鎖等,0,2021-12-23,2021-12-20,株式会社古橋工業,,株式会社,東京都,大田区,西糀谷２丁目３１番２０－１階,,13,111,1440034,,,2021-12-20,清算の結了等,,,2015-10-05,1,,,,,フルハシコウギョウ,0
1538,6040001116554,登記記録の閉鎖等,0,2021-12-23,2021-12-16,株式会社東和貿易,,株式会社,東京都,豊島区,池袋本町３丁目３１番６号コーポ富士２０１号,,13,116,1700011,,,2021-12-16,清算の結了等,,,2021-01-05,1,,,,,トウワボウエキ,0
1546,6040005003716,登記記録の閉鎖等,0,2021-12-23,2021-12-20,特定非営利活動法人トータルバランス療法普及協会,,その他の設立登記法人,千葉県,船橋市,本町５丁目１２番２０号,,12,204,2730005,,,2021-12-20,清算の結了等,,,2015-10-05,1,,,,,トータルバランスリョウホウフキュウキョウカイ,0
1559,6080101022038,登記記録の閉鎖等,0,2021-12-23,2021-12-22,株式会社みとな,,株式会社,静岡県,駿東郡清水町,長沢２４９番地の１３シーズＡ２０２,,22,341,4110905,,,2021-12-22,清算の結了等,,,2020-09-18,1,,,,,ミトナ,0
1571,6110002022538,登記記録の閉鎖等,0,2021-12-23,2021-12-21,有限会社カワセ,,有限会社,新潟県,上越市,春日山町１丁目１８番１１号,,15,222,9430807,,,2021-12-21,清算の結了等,,,2015-10-05,1,,,,,カワセ,0
1606,6140005023951,登記記録の閉鎖等,0,2021-12-23,2021-12-21,特定非営利活動法人学習支援ＨＡＮＤＥＲ,,その他の設立登記法人,兵庫県,芦屋市,業平町２番１０号,,28,206,6590068,,,2021-12-21,清算の結了等,,,2018-02-06,1,,,,,ガクシュウシエンハンダー,0
1611,6170001015966,登記記録の閉鎖等,0,2021-12-23,2021-12-21,テック・ケア株式会社,,株式会社,和歌山県,和歌山市,紀三井寺１０６３番地,,30,201,6410012,,,2021-12-21,清算の結了等,,,2020-02-21,1,,,,,テックケア,0
1624,6180302020846,登記記録の閉鎖等,0,2021-12-23,2021-12-22,有限会社あおみホールディングス,,有限会社,愛知県,安城市,昭和町１９－３９波ビル２Ｂ,,23,212,4460063,,,2021-12-22,清算の結了等,,,2015-10-05,1,,,,,,0
1633,6230002012790,登記記録の閉鎖等,0,2021-12-23,2021-12-20,有限会社川田研工,,有限会社,富山県,氷見市,窪１９７２番地５,,16,205,9350024,,,2021-12-20,清算の結了等,,,2015-10-05,1,,,,,カワタケンコウ,0
1634,6240001006132,登記記録の閉鎖等,0,2021-12-23,2021-12-21,株式会社太友,,株式会社,広島県,広島市安芸区,船越５丁目１番１８号,,34,107,7360081,,,2021-12-21,清算の結了等,,,2015-10-05,1,,,,,ダイトモ,0
1643,6260002024404,登記記録の閉鎖等,0,2021-12-23,2021-12-22,有限会社西央,,有限会社,岡山県,倉敷市,児島下の町５丁目６番３６号,,33,202,7110906,,,2021-12-22,清算の結了等,,,2015-10-05,1,,,,,,0
1648,6290001007506,登記記録の閉鎖等,0,2021-12-23,2021-12-17,株式会社コスモ・コーポレーション,,株式会社,福岡県,福岡市早良区,飯倉４丁目１０番２２号,,40,137,8140161,,,2021-12-17,清算の結了等,,,2015-10-05,1,,,,,コスモコーポレーション,0
1652,6290001062006,登記記録の閉鎖等,0,2021-12-23,2021-12-17,エネストグローバル株式会社,,株式会社,福岡県,福岡市西区,姪の浜５丁目２２番２８号,,40,135,8190002,,,2021-12-17,清算の結了等,,,2015-10-05,1,,,,,エネストグローバル,0
1654,6290001065842,登記記録の閉鎖等,0,2021-12-23,2021-12-16,リーボンズジャパン株式会社,,株式会社,福岡県,福岡市博多区,博多駅前２丁目１５番３号,,40,132,8120011,,,2021-12-16,清算の結了等,,,2015-10-05,1,,,,,,0
1671,6340001012070,登記記録の閉鎖等,0,2021-12-23,2021-12-21,大久保ファーム株式会社,,株式会社,鹿児島県,阿久根市,脇本６３００番地３,,46,206,8991131,,,2021-12-21,清算の結了等,,,2015-10-05,1,,,,,,0
1690,6470002012354,登記記録の閉鎖等,0,2021-12-23,2021-12-20,有限会社マリンテクノトレード,,有限会社,香川県,綾歌郡宇多津町,１９１２番地第２,,37,386,7690210,,,2021-12-20,合併による解散等,2470001008786,令和３年１２月２０日香川県綾歌郡宇多津町１９１２番地４株式会社シーテック（2470001008786）に合併し解散,2015-10-05,1,,,,,マリンテクノトレード,0
1691,6470002017097,登記記録の閉鎖等,0,2021-12-23,2021-12-21,有限会社丸富商店,,有限会社,香川県,三豊市,詫間町詫間６８７番地,,37,208,7691101,,,2021-12-21,清算の結了等,,,2015-10-05,1,,,,,マルトミショウテン,0
1713,7010005014657,登記記録の閉鎖等,0,2021-12-23,2021-12-21,一般財団法人大久保泉社会福祉協議会,,その他の設立登記法人,東京都,千代田区,神田鍛冶町３丁目２番４号,,13,101,1010045,,,2021-12-21,清算の結了等,,,2015-10-05,1,,,,,オオクボイズミシャカイフクシキョウギカイ,0
1714,7010005029696,登記記録の閉鎖等,0,2021-12-23,2021-12-21,ＥＳＲ２２・２一般社団法人,,その他の設立登記法人,東京都,中央区,日本橋１丁目４番１号日本橋一丁目ビルディング,,13,102,1030027,,,2021-12-21,清算の結了等,,,2019-02-06,1,,,,,イーエスアールトゥエンティツーツー,0
1717,7010102007885,登記記録の閉鎖等,0,2021-12-23,2021-12-22,有限会社吉田総合解体興業,00050470,有限会社,東京都,八王子市,明神町４丁目１番１７号フェミネ八王子９０３,,13,201,1920046,,,2021-12-22,清算の結了等,,,2015-10-05,1,,,,,ヨシダソウゴウカイタイコウギョウ,0
1735,7010602016691,登記記録の閉鎖等,0,2021-12-23,2021-12-21,有限会社鈴源編織,,有限会社,静岡県,伊東市,八幡野１１０３番地の１７９,,22,208,4130232,,,2021-12-21,清算の結了等,,,2015-10-05,1,,,,,スズゲンヘンショク,0
1736,7010701037069,登記記録の閉鎖等,0,2021-12-23,2021-12-10,株式会社スタートアップデザイン,,株式会社,東京都,品川区,東五反田１丁目２５番１２号クレール島津山４０３号室,,13,109,1410022,,,2021-12-10,清算の結了等,,,2019-02-05,1,,,,,スタートアップデザイン,0
1740,7010802014495,登記記録の閉鎖等,0,2021-12-23,2021-12-20,メザンジュ・ジャポン有限会社,,有限会社,東京都,大田区,山王１丁目１９番１５号,,13,111,1430023,,,2021-12-20,清算の結了等,,,2015-10-05,1,,,,,メザンジュジャポン,0
1763,7011701015527,登記記録の閉鎖等,0,2021-12-23,2021-12-20,株式会社ＨＭＳ,,株式会社,東京都,江戸川区,篠崎町５丁目３番１９号,,13,123,1330061,,,2021-12-20,清算の結了等,,,2015-10-05,1,,,,,エイチエムエス,0
1770,7012301001669,登記記録の閉鎖等,0,2021-12-23,2021-12-14,株式会社テクノ電機,,株式会社,東京都,町田市,金井ヶ丘４丁目３８番６号,,13,209,1950076,,,2021-12-14,清算の結了等,,,2015-10-05,1,,,,,テクノデンキ,0
1789,7013301033900,登記記録の閉鎖等,0,2021-12-23,2021-12-21,株式会社ｚａｋｕｒｏ,,株式会社,神奈川県,川崎市宮前区,神木本町３丁目４番３０号,,14,136,2160031,,,2021-12-21,清算の結了等,,,2015-10-05,1,,,,,ザクロ,0
1803,7021002029102,登記記録の閉鎖等,0,2021-12-23,2021-12-20,有限会社二光,,有限会社,神奈川県,相模原市緑区,上九沢４番地上九沢団地Ｈ－２０５,,14,151,2520136,,,2021-12-20,清算の結了等,,,2015-10-05,1,,,,,ニコウ,0
1806,7030001027371,登記記録の閉鎖等,0,2021-12-23,2021-12-21,株式会社ユニテック,,株式会社,埼玉県,入間市,大字下藤沢字下原５６９番１,,11,225,3580011,,,2021-12-21,清算の結了等,,,2015-10-05,1,,,,,ユニテック,0
1834,7100002003810,登記記録の閉鎖等,0,2021-12-23,2021-12-20,有限会社中村製菓場,,有限会社,長野県,長野市,三輪２丁目１番１４号,,20,201,3800803,,,2021-12-20,清算の結了等,,,2015-10-05,1,,,,,ナカムラセイカジョウ,0
1836,7110002011952,登記記録の閉鎖等,0,2021-12-23,2021-12-16,有限会社ライズトップ,,有限会社,新潟県,新潟市西区,松海が丘１丁目７番２２号,,15,107,9502075,,,2021-12-16,清算の結了等,,,2015-10-05,1,,,,,ライズトップ,0
1839,7120001014105,登記記録の閉鎖等,0,2021-12-23,2021-12-17,日本実務出版株式会社,,株式会社,大阪府,大阪市東成区,中本５丁目２７番１９号,,27,115,5370022,,,2021-12-17,清算の結了等,,,2015-10-05,1,,,,,ニホンジツムシュッパン,0
1840,7120001027627,登記記録の閉鎖等,0,2021-12-23,2021-12-16,株式会社鈴金,,株式会社,大阪府,大阪市大正区,泉尾１丁目２３番１５号,,27,108,5510031,,,2021-12-16,清算の結了等,,,2021-12-14,1,,,,,スズキン,0
1874,7120902012801,登記記録の閉鎖等,0,2021-12-23,2021-12-21,有限会社うさぎや,,有限会社,大阪府,吹田市,山田西４丁目４番２３－５０１号,,27,205,5650824,,,2021-12-21,清算の結了等,,,2015-10-05,1,,,,,ウサギヤ,0
1891,7140002014069,登記記録の閉鎖等,0,2021-12-23,2021-12-21,有限会社櫻井,,有限会社,兵庫県,神戸市中央区,港島中町６丁目１４番地ポートピアプラザＦ棟５０２号,,28,110,6500046,,,2021-12-21,清算の結了等,,,2015-10-05,1,,,,,サクライ,0
1903,7180002053360,登記記録の閉鎖等,0,2021-12-23,2021-12-20,有限会社禄英社,,有限会社,愛知県,名古屋市中村区,名駅１丁目１番４号,,23,105,4500002,,,2021-12-20,清算の結了等,,,2015-10-05,1,,,,,ロクエイシャ,0
1904,7180003015236,登記記録の閉鎖等,0,2021-12-23,2021-12-21,合同会社ＭＩＥ,,合同会社,愛知県,名古屋市東区,徳川２丁目１５番８号,,23,102,4610025,,,2021-12-21,清算の結了等,,,2015-10-05,1,,,,,エムアイイー,0
1905,7180005017131,登記記録の閉鎖等,0,2021-12-23,2021-12-08,一般社団法人日本疾病予防教育協会,,その他の設立登記法人,愛知県,名古屋市中区,錦１丁目１０番１２号,,23,106,4600003,,,2021-12-08,清算の結了等,,,2017-01-31,1,,,,,ニホンシッペイヨボウキョウイクキョウカイ,0
1908,7180303003205,登記記録の閉鎖等,0,2021-12-23,2021-12-21,サングロウオフィス合資会社,,合資会社,愛知県,豊橋市,菰口町２丁目６０番地,,23,201,4418011,,,2021-12-21,清算の結了等,,,2015-10-05,1,,,,,サングロウオフィス,0
1914,7200002020911,登記記録の閉鎖等,0,2021-12-23,2021-12-21,有限会社リガード,,有限会社,愛知県,春日井市,大手町１２２５番地７,,23,206,4860807,,,2021-12-21,清算の結了等,,,2015-10-05,1,,,,,リガード,0
1927,7240001022070,登記記録の閉鎖等,0,2021-12-23,2021-12-20,株式会社ベーカリークリエイション,,株式会社,広島県,広島市中区,袋町３番２８号,,34,101,7300036,,,2021-12-20,清算の結了等,,,2015-10-05,1,,,,,ベーカリークリエイション,0
1928,7240001043983,登記記録の閉鎖等,0,2021-12-23,2021-12-20,Ｍｉｎ－Ｓａｉ株式会社,,株式会社,広島県,広島市中区,舟入本町１３－１７リーガルポイント１Ｆ,,34,101,7300843,,,2021-12-20,清算の結了等,,,2015-10-05,1,,,,,ミンサイ,0
1940,7290001056477,登記記録の閉鎖等,0,2021-12-23,2021-12-17,株式会社あかね建築,,株式会社,福岡県,飯塚市,大分１３１９－９,,40,205,8200712,,,2021-12-17,清算の結了等,,,2015-10-05,1,,,,,アカネケンチク,0
1943,7290002033839,登記記録の閉鎖等,0,2021-12-23,2021-12-17,中野商事有限会社,,有限会社,福岡県,古賀市,小竹７４７番地,,40,223,8113135,,,2021-12-17,清算の結了等,,,2015-10-05,1,,,,,ナカノショウジ,0
1944,7290002046865,登記記録の閉鎖等,0,2021-12-23,2021-12-17,有限会社昭英テクノ,,有限会社,福岡県,飯塚市,口原９８０番地,,40,205,8201114,,,2021-12-17,清算の結了等,,,2015-10-05,1,,,,,ショウエイテクノ,0
1957,7330001023365,登記記録の閉鎖等,0,2021-12-23,2021-12-20,熊本家庭薬株式会社,,株式会社,熊本県,玉名郡和水町,江田４３９１番地２,,43,369,8650136,,,2021-12-20,清算の結了等,,,2016-10-25,1,,,,,クマモトカテイヤク,0
1959,7330002009941,登記記録の閉鎖等,0,2021-12-23,2021-12-21,有限会社丸愛企業,,有限会社,熊本県,熊本市中央区,大江５丁目２番２１号,,43,101,8620971,,,2021-12-21,清算の結了等,,,2015-10-05,1,,,,,マルアイキギョウ,0
1964,7330003007259,登記記録の閉鎖等,0,2021-12-23,2021-12-21,合同会社吉村農園,,合同会社,熊本県,玉名市,横島町横島２０８９番地,,43,206,8650072,,,2021-12-21,清算の結了等,,,2017-10-31,1,,,,,ヨシムラノウエン,0
1985,7370002008964,登記記録の閉鎖等,0,2021-12-23,2021-12-17,有限会社米本新聞店,,有限会社,宮城県,仙台市青葉区,南吉成５丁目１７番地の４,,04,101,9893204,,,2021-12-17,清算の結了等,,,2015-10-05,1,,,,,ヨネモトシンブンテン,0
1986,7370003003989,登記記録の閉鎖等,0,2021-12-23,2021-12-21,ＴＮＦ合同会社,,合同会社,宮城県,仙台市青葉区,一番町２丁目６番１号シティハウス一番町中央２Ｆ,,04,101,9800811,,,2021-12-21,清算の結了等,,,2017-11-07,1,,,,,ティーエヌエフ,0
1993,7390001001753,登記記録の閉鎖等,0,2021-12-23,2021-12-20,株式会社丸八やたら漬,,株式会社,山形県,山形市,旅篭町２丁目１番５号,,06,201,9900047,,,2021-12-20,清算の結了等,,,2015-10-05,1,,,,,マルハチヤタラヅケ,0
2000,7430003009286,登記記録の閉鎖等,0,2021-12-23,2021-12-20,赤帽げんき運送合同会社,,合同会社,北海道,苫小牧市,見山町３丁目６番１４号,,01,213,0530855,,,2021-12-20,清算の結了等,,,2018-04-16,1,,,,,アカボウゲンキウンソウ,0
2012,8010001177011,登記記録の閉鎖等,0,2021-12-23,2021-12-17,株式会社ＰＴＳ,,株式会社,東京都,中央区,築地６丁目４番５－６０２号,,13,102,1040045,,,2021-12-17,清算の結了等,,,2016-07-20,1,,,,,ピーティーエス,0
2020,8010002039318,登記記録の閉鎖等,0,2021-12-23,2021-12-20,有限会社Ｔｅａｍ　ＫＭ,,有限会社,東京都,大田区,上池台４丁目２５番１２号,,13,111,1450064,,,2021-12-20,清算の結了等,,,2015-10-05,1,,,,,チームケイエム,0
2026,8010005020217,登記記録の閉鎖等,0,2021-12-23,2021-11-18,特定非営利活動法人Ｙｏｕｔｈ　ｆｏｒ３．１１,,その他の設立登記法人,東京都,杉並区,南荻窪１丁目３３番２１号,,13,115,1670052,,,2021-11-18,清算の結了等,,,2015-10-05,1,,,,,,0
2051,8010705001854,登記記録の閉鎖等,0,2021-12-23,2021-12-21,特定非営利活動法人ネイバーズミーティング,,その他の設立登記法人,東京都,品川区,西五反田８丁目２番１２号,,13,109,1410031,,,2021-12-21,清算の結了等,,,2015-10-05,1,,,,,ネイバーズミーティング,0
2054,8011001121165,登記記録の閉鎖等,0,2021-12-23,2021-12-20,ＭＫ株式会社,,株式会社,東京都,新宿区,四谷４丁目２１番８７号トレス四谷１Ｆ,,13,104,1600004,,,2021-12-20,清算の結了等,,,2018-03-15,1,,,,,エムケー,0
2066,8011702016498,登記記録の閉鎖等,0,2021-12-23,2021-12-21,Ｂｏｎｎｅ　Ｆｏｒｔｕｎｅ有限会社,,有限会社,東京都,江戸川区,春江町５丁目２４番地１５６,,13,123,1340003,,,2021-12-21,清算の結了等,,,2015-10-05,1,,,,,,0
2083,8021001030506,登記記録の閉鎖等,0,2021-12-23,2021-12-20,株式会社ケイプランニング,,株式会社,神奈川県,海老名市,上今泉５丁目１８番２９号,,14,215,2430431,,,2021-12-20,清算の結了等,,,2015-10-05,1,,,,,ケイプランニング,0
2102,8030002098873,登記記録の閉鎖等,0,2021-12-23,2021-12-21,有限会社幸南インテリア,,有限会社,埼玉県,川口市,鳩ヶ谷本町１丁目９番２１－１００９号,,11,203,3340002,,,2021-12-21,清算の結了等,,,2015-10-05,1,,,,,コウナンインテリア,0
2107,8030003011785,登記記録の閉鎖等,0,2021-12-23,2021-12-22,合同会社ｍｏｍｏ,,合同会社,埼玉県,川越市,大字萱沼２７０３番地１,,11,201,3500012,,,2021-12-22,清算の結了等,,,2018-04-20,1,,,,,モモ,0
2114,8040002043580,登記記録の閉鎖等,0,2021-12-23,2021-12-20,有限会社ケイ・エス・イー,,有限会社,千葉県,浦安市,高洲１丁目６番１号,,12,227,2790023,,,2021-12-20,清算の結了等,,,2015-10-05,1,,,,,ケイエスイー,0
2115,8040005003821,登記記録の閉鎖等,0,2021-12-23,2021-12-17,特定非営利活動法人コーチズ千葉,,その他の設立登記法人,千葉県,船橋市,夏見２丁目３２番８号,,12,204,2730865,,,2021-12-17,清算の結了等,,,2015-10-05,1,,,,,コーチズチバ,0
2129,8080001004010,登記記録の閉鎖等,0,2021-12-23,2021-12-20,株式会社日新堂,,株式会社,静岡県,静岡市駿河区,西脇４４３番地,,22,102,4228044,,,2021-12-20,清算の結了等,,,2015-10-05,1,,,,,ニッシンドウ,0
2167,8120902019341,登記記録の閉鎖等,0,2021-12-23,2021-12-21,有限会社日産発條製作所,,有限会社,大阪府,豊中市,庄内幸町１丁目８番２号,,27,203,5610833,,,2021-12-21,清算の結了等,,,2015-10-05,1,,,,,ニッサンハツジョウセイサクショ,0
2168,8122001009538,登記記録の閉鎖等,0,2021-12-23,2021-12-21,アイ建設株式会社,,株式会社,大阪府,東大阪市,森河内東１丁目３０番３号,,27,227,5770062,,,2021-12-21,清算の結了等,,,2015-10-05,1,,,,,,0
2188,8140002014373,登記記録の閉鎖等,0,2021-12-23,2021-12-20,有限会社清水商店,,有限会社,兵庫県,神戸市中央区,北野町３丁目３番９号,,28,110,6500002,,,2021-12-20,清算の結了等,,,2015-10-05,1,,,,,シミズショウテン,0
2199,8180001075470,登記記録の閉鎖等,0,2021-12-23,2021-12-20,アサヒ電気設備株式会社,,株式会社,愛知県,小牧市,小木３丁目３４７番地,,23,219,4850058,,,2021-12-20,清算の結了等,,,2015-10-05,1,,,,,アサヒデンキセツビ,0
2205,8180002026539,登記記録の閉鎖等,0,2021-12-23,2021-12-20,有限会社前田工業,,有限会社,愛知県,名古屋市緑区,大高町字砂畑２２番地,,23,114,4598001,,,2021-12-20,清算の結了等,,,2015-10-05,1,,,,,マエダコウギョウ,0
2210,8180301008898,登記記録の閉鎖等,0,2021-12-23,2021-12-21,株式会社ジーダッシュ,,株式会社,愛知県,豊橋市,吉前町字東吉前新田２２番地,,23,201,4418004,,,2021-12-21,清算の結了等,,,2015-10-05,1,,,,,ジーダッシュ,0
2219,8200001020829,登記記録の閉鎖等,0,2021-12-23,2021-12-21,陶都プロパン株式会社,,株式会社,岐阜県,多治見市,上山町２丁目１１番地,,21,204,5070022,,,2021-12-21,清算の結了等,,,2015-10-05,1,,,,,トウトプロパン,0
2234,8240003001138,登記記録の閉鎖等,0,2021-12-23,2021-12-22,Ｏｆｆｉｃｅ・Ｔ－ｔｉｍｅ合同会社,,合同会社,岡山県,岡山市北区,小山６０１番地２,,33,101,7011352,,,2021-12-22,清算の結了等,,,2015-10-05,1,,,,,オフィスティータイム,0
2265,8340001009024,登記記録の閉鎖等,0,2021-12-23,2021-12-17,丸園冷蔵株式会社,,株式会社,鹿児島県,いちき串木野市,西薩町１７番地２１,,46,219,8960046,,,2021-12-17,清算の結了等,,,2015-10-05,1,,,,,マルエンレイゾウ,0
2274,8370302002402,登記記録の閉鎖等,0,2021-12-23,2021-12-16,有限会社明正社印刷所,,有限会社,宮城県,石巻市,相野谷字旧屋敷１８３番地,,04,202,9860101,,,2021-12-16,清算の結了等,,,2015-10-05,1,,,,,,0
2278,8380005011930,登記記録の閉鎖等,0,2021-12-23,2021-12-21,一般社団法人里山生活,,その他の設立登記法人,福島県,南会津郡南会津町,針生字駒戸山１７２５番１５号,,07,368,9670026,,,2021-12-21,清算の結了等,,,2017-10-19,1,,,,,サトヤマセイカツ,0
2283,8410005004039,登記記録の閉鎖等,0,2021-12-23,2021-12-17,特定非営利活動法人地産地消を進める会,,その他の設立登記法人,秋田県,秋田市,下新城中野字街道端西２４１－４３８秋田県立大学環境社会学研究室,,05,201,0100146,,,2021-12-17,清算の結了等,,,2015-10-05,1,,,,,チサンチショウヲススメルカイ,0
2298,8490002005726,登記記録の閉鎖等,0,2021-12-23,2021-12-20,有限会社渡辺ハウス工業,,有限会社,高知県,高知市,十津１丁目１番９５号,,39,201,7810114,,,2021-12-20,清算の結了等,,,2015-10-05,1,,,,,ワタナベハウスコウギョウ,0
2321,9010005029521,登記記録の閉鎖等,0,2021-12-23,2021-12-21,ＥＳＲ２２特定目的会社,,その他の設立登記法人,東京都,中央区,日本橋１丁目４番１号日本橋一丁目ビルディング,,13,102,1030027,,,2021-12-21,清算の結了等,,,2018-12-20,1,,,,,イーエスアールニジュウニ,0
2322,9010005031601,登記記録の閉鎖等,0,2021-12-23,2021-12-21,ヤマトロジスティクス労働組合,,その他の設立登記法人,東京都,中央区,銀座２丁目１２－１８ヤマト銀座ビル,,13,102,1040061,,,2021-12-21,清算の結了等,,,2020-03-18,1,,,,,ヤマトロジスティクス,0
2336,9010602009314,登記記録の閉鎖等,0,2021-12-23,2021-12-16,有限会社大越商店,,有限会社,東京都,墨田区,東向島５丁目２９番２号,,13,107,1310032,,,2021-12-16,清算の結了等,,,2015-10-05,1,,,,,オオコシショウテン,0
2341,9010801016648,登記記録の閉鎖等,0,2021-12-23,2021-12-20,サンプラス・コーポレーション株式会社,,株式会社,東京都,大田区,千鳥３丁目１８番３号ソレイユ千鳥町３階,,13,111,1460083,,,2021-12-20,清算の結了等,,,2015-10-05,1,,,,,サンプラスコーポレーション,0
2343,9010905003096,登記記録の閉鎖等,0,2021-12-23,2021-12-20,一般社団法人心身美健セルフケア普及協会,,その他の設立登記法人,東京都,世田谷区,桜１丁目５０番７号,,13,112,1560053,,,2021-12-20,清算の結了等,,,2015-10-05,1,,,,,シンシンビケンセルフケアフキュウキョウカイ,0
2354,9011401006262,登記記録の閉鎖等,0,2021-12-23,2021-12-21,株式会社睦電設,,株式会社,東京都,練馬区,錦２丁目９番１２号,,13,120,1790082,,,2021-12-21,清算の結了等,,,2015-10-05,1,,,,,,0
2359,9011701001351,登記記録の閉鎖等,0,2021-12-23,2021-12-16,株式会社アイウォーク,,株式会社,東京都,江戸川区,西瑞江３丁目４０番地５３,,13,123,1320015,,,2021-12-16,清算の結了等,,,2015-10-05,1,,,,,アイウォーク,0
2361,9011701019600,登記記録の閉鎖等,0,2021-12-23,2021-12-17,株式会社ワールドプランニング東京,,株式会社,東京都,江戸川区,西葛西６丁目５番１４号,,13,123,1340088,,,2021-12-17,清算の結了等,,,2016-02-05,1,,,,,,0
2375,9020001054951,登記記録の閉鎖等,0,2021-12-23,2021-12-21,株式会社モリジャパン,,株式会社,神奈川県,横浜市中区,本牧満坂１８７番地１６２,,14,104,2310833,,,2021-12-21,清算の結了等,,,2015-10-05,1,,,,,モリジャパン,0
2388,9021001013633,登記記録の閉鎖等,0,2021-12-23,2021-12-21,長谷川建材土木株式会社,,株式会社,神奈川県,相模原市中央区,星が丘１丁目１５番２２号,,14,152,2520238,,,2021-12-21,清算の結了等,,,2015-10-05,1,,,,,ハセガワケンザイドボク,0
2400,9040002007452,登記記録の閉鎖等,0,2021-12-23,2021-12-20,知脇建設有限会社,,有限会社,千葉県,千葉市若葉区,若松町２１７３番地１７,,12,104,2640021,,,2021-12-20,清算の結了等,,,2015-10-05,1,,,,,チワキケンセツ,0
2401,9040002047309,登記記録の閉鎖等,0,2021-12-23,2021-12-17,有限会社ディスタンス,,有限会社,千葉県,松戸市,下矢切２００番地,,12,207,2710096,,,2021-12-17,清算の結了等,,,2015-10-05,1,,,,,ディスタンス,0
2402,9040005009818,登記記録の閉鎖等,0,2021-12-23,2021-12-20,市原あんしんタクシー協同組合,,その他の設立登記法人,千葉県,市原市,潤井戸１０５８番地,,12,219,2900171,,,2021-12-20,清算の結了等,,,2015-10-05,1,,,,,,0
2405,9050001020983,登記記録の閉鎖等,0,2021-12-23,2021-12-16,大晴商事株式会社,,株式会社,茨城県,神栖市,土合北２丁目９８８１番１２４,,08,232,3140342,,,2021-12-16,清算の結了等,,,2015-10-05,1,,,,,タイセイショウジ,0
2411,9070002019255,登記記録の閉鎖等,0,2021-12-23,2021-12-21,有限会社タイム塗装,,有限会社,群馬県,伊勢崎市,上諏訪町１７４９番地５,,10,204,3720021,,,2021-12-21,清算の結了等,,,2015-10-05,1,,,,,タイムトソウ,0
2423,9100002037410,登記記録の閉鎖等,0,2021-12-23,2021-12-13,丸宮産業有限会社,,有限会社,長野県,下伊那郡下條村,睦沢８７６９番地１,,20,411,3992101,,,2021-12-13,清算の結了等,,,2015-10-05,1,,,,,マルミヤサンギョウ,0
2427,9110002034282,登記記録の閉鎖等,0,2021-12-23,2021-12-21,有限会社安東商店,,有限会社,新潟県,佐渡市,水渡田６５７番地１,,15,224,9521205,,,2021-12-21,清算の結了等,,,2015-10-05,1,,,,,アンドウショウテン,0
2445,9120002049445,登記記録の閉鎖等,0,2021-12-23,2021-12-17,有限会社トラッシュ,,有限会社,大阪府,大阪市西区,西本町１丁目６番９川田ビル,,27,106,5500005,,,2021-12-17,清算の結了等,,,2015-10-05,1,,,,,,0
2471,9140001105759,登記記録の閉鎖等,0,2021-12-23,2021-12-20,株式会社ＡＺＵＫＥＮ,,株式会社,兵庫県,神戸市西区,玉津町上池３４９番地の２,,28,111,6512126,,,2021-12-20,清算の結了等,,,2017-04-13,1,,,,,アズケン,0
2476,9170001002210,登記記録の閉鎖等,0,2021-12-23,2021-12-21,栂野産業株式会社,,株式会社,和歌山県,和歌山市,田尻４９９番地,,30,201,6410005,,,2021-12-21,清算の結了等,,,2015-10-05,1,,,,,トガノサンギョウ,0
2478,9170001002499,登記記録の閉鎖等,0,2021-12-23,2021-12-20,西政工業株式会社,,株式会社,和歌山県,和歌山市,栗栖２７３番地の１７,,30,201,6408305,,,2021-12-20,清算の結了等,,,2015-10-05,1,,,,,ニシマサコウギョウ,0
2480,9170001007861,登記記録の閉鎖等,0,2021-12-23,2021-12-21,株式会社トータス技研,,株式会社,和歌山県,岩出市,野上野４３１番地の９,,30,209,6496216,,,2021-12-21,清算の結了等,,,2015-10-05,1,,,,,トータスギケン,0
2485,9180002047583,登記記録の閉鎖等,0,2021-12-23,2021-12-20,有限会社ステーキの神戸屋,,有限会社,愛知県,名古屋市熱田区,大宝１丁目２番８号シティコーポひびの２０２,,23,109,4560062,,,2021-12-20,清算の結了等,,,2015-10-05,1,,,,,ステーキノコウベヤ,0
2487,9180301016751,登記記録の閉鎖等,0,2021-12-23,2021-12-22,株式会社三陽,,株式会社,愛知県,安城市,昭和町１９番３９号波ビル,,23,212,4460063,,,2021-12-22,清算の結了等,,,2015-10-05,1,,,,,,0
2488,9180302019183,登記記録の閉鎖等,0,2021-12-23,2021-12-22,有限会社愛知屋総本店,,有限会社,愛知県,知立市,弘栄１丁目２０番地,,23,225,4720034,,,2021-12-22,清算の結了等,,,2015-10-05,1,,,,,,0
2497,9200003000274,登記記録の閉鎖等,0,2021-12-23,2021-12-22,大橋生麺合資会社,00077182,合資会社,岐阜県,岐阜市,寺町２番地,,21,201,5008118,,,2021-12-22,清算の結了等,,,2015-10-05,1,,,,,オオハシセイメン,0
2500,9220005004445,登記記録の閉鎖等,0,2021-12-23,2021-12-17,一般財団法人金沢鉄道友愛会,,その他の設立登記法人,石川県,金沢市,堀川新町１１番１７号,,17,201,9200849,,,2021-12-17,清算の結了等,,,2015-10-05,1,,,,,カナザワテツドウユウアイカイ,0
2502,9240001034337,登記記録の閉鎖等,0,2021-12-23,2021-12-14,株式会社中本鉄工所,,株式会社,広島県,府中市,栗柄町３１６７番地,,34,208,7260023,,,2021-12-14,清算の結了等,,,2015-10-05,1,,,,,ナカモトテッコウショ,0
2503,9240001035062,登記記録の閉鎖等,0,2021-12-23,2021-12-17,総合インテリア松建内装株式会社,,株式会社,広島県,福山市,神辺町川南１００９番地７,,34,207,7210000,,,2021-12-17,清算の結了等,,,2015-10-05,1,,,,,ソウゴウインテリアマツケンナイソウ,0
2506,9240001049608,登記記録の閉鎖等,0,2021-12-23,2021-12-17,株式会社リード中国販売,,株式会社,広島県,広島市西区,南観音３丁目１番２６号,,34,104,7330035,,,2021-12-17,清算の結了等,,,2016-07-06,1,,,,,,0
2513,9270001000427,登記記録の閉鎖等,0,2021-12-23,2021-12-10,株式会社タケタスポーツ,,株式会社,鳥取県,鳥取市,興南町３３番地,,31,201,6800844,,,2021-12-10,清算の結了等,,,2015-10-05,1,,,,,タケタスポーツ,0
2527,9310002002211,登記記録の閉鎖等,0,2021-12-23,2021-12-21,有限会社ジーアンドエム建築設計室,,有限会社,長崎県,諫早市,馬渡町７番地６８,,42,204,8540075,,,2021-12-21,清算の結了等,,,2015-10-05,1,,,,,ジーアンドエムケンチクセッケイシツ,0
2545,9370801001671,登記記録の閉鎖等,0,2021-12-23,2021-12-17,株式会社東創企画,,株式会社,宮城県,名取市,増田５丁目１番５号－２階,,04,207,9811224,,,2021-12-17,清算の結了等,,,2015-10-05,1,,,,,トウソウキカク,0
2554,9390001014976,登記記録の閉鎖等,0,2021-12-23,2021-12-17,リエス東北株式会社,,株式会社,山形県,米沢市,アルカディア１丁目８０８－１８,,06,202,9920119,,,2021-12-17,清算の結了等,,,2017-07-12,1,,,,,リエストウホク,0
2555,9390002009488,登記記録の閉鎖等,0,2021-12-23,2021-12-20,有限会社スタディ,,有限会社,山形県,鶴岡市,三瀬字宮ノ前５４番３,,06,203,9997463,,,2021-12-20,清算の結了等,,,2015-10-05,1,,,,,スタディ,0
2556,9400001003754,登記記録の閉鎖等,0,2021-12-23,2021-12-22,エビー株式会社,,株式会社,岩手県,紫波郡矢巾町,流通センター南１丁目６番１６号,,03,322,0200891,,,2021-12-22,清算の結了等,,,2015-10-05,1,,,,,エビー,0
2557,9402701000634,登記記録の閉鎖等,0,2021-12-23,2021-12-22,株式会社五十集屋,,株式会社,岩手県,大船渡市,三陸町越喜来字仲崎浜１４番地１,,03,203,0220101,,,2021-12-22,清算の結了等,,,2015-10-05,1,,,,,イサバヤ,0
2563,9430002011547,登記記録の閉鎖等,0,2021-12-23,2021-12-21,有限会社タイセイ,,有限会社,北海道,札幌市白石区,川下三条３丁目２番１２号,,01,104,0030863,,,2021-12-21,清算の結了等,,,2015-10-05,1,,,,,タイセイ,0
2567,9470001010348,登記記録の閉鎖等,0,2021-12-23,2021-12-15,株式会社フォー・サイト,,株式会社,香川県,三豊市,豊中町本山甲２０９番地１,,37,208,7691506,,,2021-12-15,清算の結了等,,,2015-10-05,1,,,,,フォーサイト,0
