sequenceNumber,corporateNumber,process,correct,updateDate,changeDate,name,nameImageId,kind,prefectureName,cityName,streetNumber,addressImageId,prefectureCode,cityCode,postCode,addressOutside,addressOutsideImageId,closeDate,closeCause,successorCorporateNumber,changeCause,assignmentDate,latest,enName,enPrefectureName,enCityName,enAddressOutside,furigana,hihyoji
30,1011001136541,登記記録の閉鎖等,0,2022-04-27,2022-04-12,株式会社アビリオ,,株式会社,東京都,渋谷区,猿楽町３０番８－１０１号,,13,113,1500033,,,2022-04-12,清算の結了等,,,2020-10-22,1,,,,,アビリオ,0
38,1011103008630,登記記録の閉鎖等,0,2022-04-27,2022-04-26,ココレカ合同会社,,合同会社,東京都,新宿区,新宿５丁目１０番１０号海老沢ビル２０２,,13,104,1600022,,,2022-04-26,清算の結了等,,,2019-03-05,1,,,,,ココレカ,0
47,1011502013446,登記記録の閉鎖等,0,2022-04-27,2022-04-22,明和印刷有限会社,,有限会社,東京都,北区,桐ケ丘１丁目２０番８－２０６号,,13,117,1150054,,,2022-04-22,清算の結了等,,,2015-10-05,1,,,,,メイワインサツ,0
90,1021002063957,登記記録の閉鎖等,0,2022-04-27,2022-04-22,有限会社倉沢工務店,,有限会社,神奈川県,横須賀市,平作２丁目２１番８号,,14,201,2380032,,,2022-04-22,清算の結了等,,,2015-10-05,1,,,,,クラサワコウムテン,0
97,1030005004281,登記記録の閉鎖等,0,2022-04-27,2022-04-01,医療法人真賛会,,その他の設立登記法人,埼玉県,入間市,久保稲荷１丁目２９番地３イルマム内３階,,11,225,3580024,,,2022-04-01,合併による解散等,8021005009562,令和４年３月２５日神奈川県藤沢市湘南台一丁目２４番地の７医療法人社団桐杏会（8021005009562）に合併し解散,2015-10-05,1,,,,,シンサンカイ,0
106,1040001076729,登記記録の閉鎖等,0,2022-04-27,2022-04-20,株式会社Ｒｏｃｈ’ｅ,,株式会社,千葉県,千葉市美浜区,幸町１丁目１１番７号,,12,106,2610001,,,2022-04-20,清算の結了等,,,2015-10-05,1,,,,,ロシェ,0
113,1040005006087,登記記録の閉鎖等,0,2022-04-27,2022-04-19,成田青果卸売協同組合,,その他の設立登記法人,千葉県,成田市,飯仲４２番地２,,12,211,2860046,,,2022-04-19,清算の結了等,,,2015-10-05,1,,,,,ナリタセイカオロシウリ,0
123,1080001012143,登記記録の閉鎖等,0,2022-04-27,2022-04-25,株式会社ライトプラン,,株式会社,静岡県,静岡市駿河区,鎌田４０３番地の１７,,22,102,4210133,,,2022-04-25,清算の結了等,,,2015-10-05,1,,,,,ライトプラン,0
141,1120001044628,登記記録の閉鎖等,0,2022-04-27,2022-04-18,株式会社瀬田鉄工所,00045943,株式会社,大阪府,大阪市西区,九條南三丁目６番１６号,,27,106,5500000,,,2022-04-18,清算の結了等,,,2015-10-05,1,,,,,セタテッコウショ,1
156,1120002013152,登記記録の閉鎖等,0,2022-04-27,2022-04-22,有限会社セントラルエステートサービス,,有限会社,大阪府,大阪市天王寺区,玉造元町１８番１７号,,27,109,5430014,,,2022-04-22,清算の結了等,,,2015-10-05,1,,,,,セントラルエステトサビス,0
160,1120003016988,登記記録の閉鎖等,0,2022-04-27,2022-04-22,合同会社ＯＫ,,合同会社,大阪府,大阪市中央区,心斎橋筋２丁目３番２号,,27,128,5420085,,,2022-04-22,清算の結了等,,,2020-02-14,1,,,,,オーケー,0
169,1122001029963,登記記録の閉鎖等,0,2022-04-27,2022-04-21,和トータルリーブス株式会社,,株式会社,大阪府,東大阪市,西鴻池町１丁目１１番８号,,27,227,5780976,,,2022-04-21,清算の結了等,,,2016-09-21,1,,,,,,0
196,1140003013471,登記記録の閉鎖等,0,2022-04-27,2022-04-22,合同会社ネコノテ,,合同会社,兵庫県,三田市,高次１丁目１番１０号ホワイトヒルＣ棟３０１号,,28,219,6691512,,,2022-04-22,清算の結了等,,,2018-11-28,1,,,,,ネコノテ,0
201,1160001017547,登記記録の閉鎖等,0,2022-04-27,2022-04-20,株式会社結工房,,株式会社,滋賀県,大津市,本堅田４丁目２２－３－１０６,,25,201,5200242,,,2022-04-20,清算の結了等,,,2015-10-05,1,,,,,ユイコウボウ,0
204,1180001011515,登記記録の閉鎖等,0,2022-04-27,2022-04-18,株式会社阿部東,,株式会社,愛知県,春日井市,坂下町７丁目７８３番地５,,23,206,4800305,,,2022-04-18,清算の結了等,,,2015-10-05,1,,,,,アベトウ,0
205,1180001013742,登記記録の閉鎖等,0,2022-04-27,2022-04-21,株式会社保秀理化硝子製作所,,株式会社,愛知県,名古屋市北区,清水３丁目１番８号,,23,103,4620844,,,2022-04-21,清算の結了等,,,2015-10-05,1,,,,,ホシュウリカガラスセイサクショ,0
218,1180002054422,登記記録の閉鎖等,0,2022-04-27,2022-04-20,有限会社キョウシン,,有限会社,愛知県,名古屋市千種区,千代が丘５番Ｎ－８０７号,,23,101,4640005,,,2022-04-20,清算の結了等,,,2015-10-05,1,,,,,キョウシン,0
233,1210001008466,登記記録の閉鎖等,0,2022-04-27,2022-04-06,株式会社メディア・テクノ・サービス,,株式会社,福井県,福井市,大土呂町第２号４番地の１,,18,201,9190327,,,2022-04-06,合併による解散等,1220001002138,令和４年４月１日石川県金沢市観法寺町ろ１１番地北話エンジニアリング株式会社（1220001002138）に合併し解散,2015-10-05,1,,,,,メディアテクノサービス,0
234,1210001015578,登記記録の閉鎖等,0,2022-04-27,2022-04-25,株式会社ＬＢダイナー,,株式会社,福井県,坂井市,春江町江留下屋敷７４番地,,18,210,9190414,,,2022-04-25,清算の結了等,,,2015-10-05,1,,,,,エルビーダイナー,0
244,1230002001757,登記記録の閉鎖等,0,2022-04-27,2022-04-25,有限会社砂田工務店,,有限会社,富山県,富山市,栄町１丁目８番１６号,,16,201,9300032,,,2022-04-25,清算の結了等,,,2015-10-05,1,,,,,,0
269,1290002017021,登記記録の閉鎖等,0,2022-04-27,2022-04-21,有限会社原田工業,,有限会社,福岡県,福岡市博多区,竹下１丁目１６番２２号,,40,132,8120895,,,2022-04-21,清算の結了等,,,2015-10-05,1,,,,,ハラダコウギョウ,0
273,1290002053388,登記記録の閉鎖等,0,2022-04-27,2022-04-21,有限会社サン綜合企画,,有限会社,福岡県,みやま市,瀬高町小川３９８番地の５,,40,229,8350023,,,2022-04-21,清算の結了等,,,2015-10-05,1,,,,,サンソウゴウキカク,0
284,1320002018255,登記記録の閉鎖等,0,2022-04-27,2022-04-20,株式会社岡本薬局,,株式会社,大分県,大分市,大字三芳１０５２番地,,44,201,8700030,,,2022-04-20,清算の結了等,,,2015-10-05,1,,,,,オカモトヤッキョク,0
315,1470002002475,登記記録の閉鎖等,0,2022-04-27,2022-04-22,有限会社熊井不動産鑑定事務所,,有限会社,香川県,高松市,西内町８番５－３０３号,,37,201,7600022,,,2022-04-22,清算の結了等,,,2015-10-05,1,,,,,クマイフドウサンカンテイジムショ,0
324,2010001156862,登記記録の閉鎖等,0,2022-04-27,2022-04-19,株式会社ケーアールシー,,株式会社,東京都,千代田区,東神田２丁目９番６号ヒラノ本社ビル２Ｆ,,13,101,1010031,,,2022-04-19,清算の結了等,,,2015-10-05,1,,,,,ケーアールシー,0
331,2010401022334,登記記録の閉鎖等,0,2022-04-27,2022-04-01,日本アドバンス・テクノロジー株式会社,,株式会社,東京都,港区,浜松町２丁目４番１号,,13,103,1050013,,,2022-04-01,合併による解散等,9010401028746,令和４年４月１日東京都港区浜松町二丁目４番１号三菱電機ソフトウエア株式会社（9010401028746）に合併し解散,2015-10-05,1,,,,,ニホンアドバンステクノロジー,0
384,2011601010459,登記記録の閉鎖等,0,2022-04-27,2022-04-25,東京舗道株式会社,,株式会社,東京都,練馬区,富士見台４丁目４９番１２号,,13,120,1770034,,,2022-04-25,清算の結了等,,,2015-10-05,1,,,,,トウキョウホドウ,0
385,2011605002262,登記記録の閉鎖等,0,2022-04-27,2022-04-26,ふわふわたまご事業協同組合,,その他の設立登記法人,東京都,練馬区,高野台１丁目１２番１８号,,13,120,1770033,,,2022-04-26,清算の結了等,,,2019-08-02,1,,,,,フワフワタマゴ,0
415,2020005000330,登記記録の閉鎖等,0,2022-04-27,2022-04-01,天理教日芝分教会,,その他の設立登記法人,神奈川県,横浜市鶴見区,潮田町２丁目１３０番地の３,,14,101,2300041,,,2022-04-01,合併による解散等,2011105000675,令和４年３月２９日東京都新宿区西新宿五丁目１８番４号天理教東日之宮分教会（2011105000675）に合併し解散,2015-10-05,1,,,,,テンリキョウニチシバブンキョウカイ,0
457,2040001065879,登記記録の閉鎖等,0,2022-04-27,2022-04-21,株式会社創友,,株式会社,千葉県,柏市,十余二２９７番地,,12,217,2770872,,,2022-04-21,合併による解散等,1030001073850,令和４年４月１日東京都新宿区西新宿八丁目１７番１号ＳＢＳフレックネット株式会社（1030001073850）に合併し解散,2015-10-05,1,,,,,ソウユウ,0
458,2040001093938,登記記録の閉鎖等,0,2022-04-27,2022-04-19,株式会社フライト,,株式会社,千葉県,千葉市美浜区,磯辺７丁目２８番５号,,12,106,2610012,,,2022-04-19,清算の結了等,,,2016-02-05,1,,,,,フライト,0
494,2120001112821,登記記録の閉鎖等,0,2022-04-27,2022-04-18,株式会社アインソフ,,株式会社,大阪府,大阪市中央区,南久宝寺町４丁目６番１０号南久宝寺ＦＵＫＵＥＢｌｄ．３階,,27,128,5410058,,,2022-04-18,清算の結了等,,,2015-10-05,1,,,,,,0
520,2122001007530,登記記録の閉鎖等,0,2022-04-27,2022-04-20,ＭＱ整理株式会社,,株式会社,大阪府,東大阪市,稲田新町３丁目４番１１号,,27,227,5770004,,,2022-04-20,清算の結了等,,,2015-10-05,1,,,,,エムキューセイリ,0
527,2130001017318,登記記録の閉鎖等,0,2022-04-27,2022-04-22,五光プラスチックス株式会社,,株式会社,京都府,京都市伏見区,深草山村町１０２１番地,,26,109,6120082,,,2022-04-22,清算の結了等,,,2015-10-05,1,,,,,ゴコウプラスチックス,0
535,2130005014658,登記記録の閉鎖等,0,2022-04-27,2022-04-22,一般社団法人ディープブルー,,その他の設立登記法人,京都府,京都市東山区,三条大橋東六丁目今小路町８６番地１京洛舎東山三条１階,,26,105,6050000,,,2022-04-22,清算の結了等,,,2016-07-11,1,,,,,ディープブルー,0
536,2140001004620,登記記録の閉鎖等,0,2022-04-27,2022-04-25,株式会社川崎興産,,株式会社,兵庫県,神戸市西区,福吉台２丁目７番地の４,,28,111,6512413,,,2022-04-25,清算の結了等,,,2015-10-05,1,,,,,カワサキコウサン,0
548,2160001017769,登記記録の閉鎖等,0,2022-04-27,2022-04-20,株式会社京都リニュー,,株式会社,京都府,京都市山科区,音羽八ノ坪町３４番地の１５,,26,110,6078064,,,2022-04-20,清算の結了等,,,2015-10-05,1,,,,,キョウトリニュー,0
554,2180001017486,登記記録の閉鎖等,0,2022-04-27,2022-04-20,株式会社テクノクリエート,,株式会社,愛知県,名古屋市名東区,香坂１８２１番地,,23,115,4650007,,,2022-04-20,清算の結了等,,,2015-10-05,1,,,,,テクノクリエート,0
556,2180001069016,登記記録の閉鎖等,0,2022-04-27,2022-04-20,株式会社明興テクノ,,株式会社,愛知県,名古屋市瑞穂区,市丘町２丁目２３番地,,23,108,4670063,,,2022-04-20,清算の結了等,,,2015-10-05,1,,,,,メイコウテクノ,0
574,2180301027045,登記記録の閉鎖等,0,2022-04-27,2022-04-20,望月貿易商事株式会社,,株式会社,愛知県,豊川市,本野ケ原１丁目２１８番地の２,,23,207,4420005,,,2022-04-20,清算の結了等,,,2015-10-05,1,,,,,モチヅキボウエキショウジ,0
606,2270002009011,登記記録の閉鎖等,0,2022-04-27,2022-04-18,有限会社エヌアールシー,,有限会社,鳥取県,米子市,富益町２８３８番地の２,,31,202,6830103,,,2022-04-18,清算の結了等,,,2015-10-05,1,,,,,エヌアールシー,0
609,2290001037894,登記記録の閉鎖等,0,2022-04-27,2022-04-21,株式会社齋藤,,株式会社,福岡県,福岡市早良区,城西２丁目７番７号,,40,137,8140003,,,2022-04-21,清算の結了等,,,2015-10-05,1,,,,,サイトウ,0
621,2290005007613,登記記録の閉鎖等,0,2022-04-27,2022-03-30,天理教立石分教会,,その他の設立登記法人,福岡県,朝倉市,堤１７４８番地の２,,40,228,8380062,,,2022-03-30,合併による解散等,4290005007611,令和４年３月３０日福岡県朝倉市甘木７４番地天理教甘木分教会（4290005007611）に合併し解散,2015-10-05,1,,,,,テンリキョウタテイシブンキョウカイ,0
623,2300002006186,登記記録の閉鎖等,0,2022-04-27,2022-04-22,有限会社グランド鳳陽,,有限会社,佐賀県,嬉野市,嬉野町大字岩屋川内甲３３８番地１,,41,209,8430304,,,2022-04-22,清算の結了等,,,2015-10-05,1,,,,,グランドホウヨウ,0
631,2340001004328,登記記録の閉鎖等,0,2022-04-27,2022-04-26,株式会社メガネの大学堂,,株式会社,鹿児島県,鹿児島市,吉野町８７３９番地１３,,46,201,8920871,,,2022-04-26,清算の結了等,,,2015-10-05,1,,,,,メガネノダイガクドウ,0
655,2430001038589,登記記録の閉鎖等,0,2022-04-27,2022-04-25,エノシステムインテグレーション株式会社,,株式会社,北海道,札幌市中央区,南四条西６丁目１３番地１,,01,101,0640804,,,2022-04-25,清算の結了等,,,2015-10-05,1,,,,,エノシステムインテグレーション,0
662,2470002006293,登記記録の閉鎖等,0,2022-04-27,2022-04-25,有限会社ＳＢＣ,,有限会社,香川県,高松市,飯田町１２３７番地１,,37,201,7618033,,,2022-04-25,清算の結了等,,,2015-10-05,1,,,,,エスビーシー,0
683,3010003033092,登記記録の閉鎖等,0,2022-04-27,2022-04-11,マリンブルーエナジー太陽光発電合同会社,,合同会社,東京都,千代田区,丸の内３丁目１番１号東京共同会計事務所内,,13,101,1000005,,,2022-04-11,清算の結了等,,,2020-09-24,1,,,,,マリンブルーエナジータイヨウコウハツデン,0
702,3010601016275,登記記録の閉鎖等,0,2022-04-27,2022-04-14,ＮＳＴ三鋼販株式会社,,株式会社,東京都,江東区,亀戸１丁目５番７号,,13,108,1360071,,,2022-04-14,合併による解散等,4010001030603,令和４年４月１日東京都江東区木場二丁目１７番１２号ＮＳ建材販売株式会社（4010001030603）に合併し解散,2015-10-05,1,,,,,エヌエスティーサンコウハン,0
706,3010801003585,登記記録の閉鎖等,0,2022-04-27,2022-04-20,株式会社ケー・ディー・イー,,株式会社,東京都,大田区,南蒲田２丁目１５番１２号,,13,111,1440035,,,2022-04-20,清算の結了等,,,2015-10-05,1,,,,,ケーディーイー,0
715,3011001057983,登記記録の閉鎖等,0,2022-04-27,2022-04-12,株式会社日本リワーク,,株式会社,東京都,渋谷区,渋谷１丁目１０番７号,,13,113,1500002,,,2022-04-12,清算の結了等,,,2015-10-05,1,,,,,ニホンリワーク,0
737,3011802013978,登記記録の閉鎖等,0,2022-04-27,2022-04-22,有限会社島谷汽缶工業所,,有限会社,東京都,足立区,千住龍田町３０番１０号,,13,121,1200042,,,2022-04-22,清算の結了等,,,2015-10-05,1,,,,,,0
806,3040003018941,登記記録の閉鎖等,0,2022-04-27,2022-04-19,オフィスプルメリア合同会社,,合同会社,千葉県,習志野市,谷津３丁目２９番６－３０５号,,12,216,2750026,,,2022-04-19,清算の結了等,,,2021-11-15,1,,,,,オフィスプルメリア,0
825,3080402007772,登記記録の閉鎖等,0,2022-04-27,2022-04-19,有限会社丸大商店,,有限会社,静岡県,浜松市東区,西ケ崎町７１５番地の１,,22,132,4313115,,,2022-04-19,清算の結了等,,,2015-10-05,1,,,,,マルダイショウテン,0
829,3110005002936,登記記録の閉鎖等,0,2022-04-27,2022-04-01,新潟みらい農業協同組合,,その他の設立登記法人,新潟県,新潟市南区,七軒字前２１１番地１,,15,106,9501212,,,2022-04-01,合併による解散等,7110005016775,令和４年４月１日新潟県阿賀野市土橋２９７番地北蒲みなみ農業協同組合（9110005003697）、新潟県阿賀野市山崎５８番地ささかみ農業協同組合（8110005003698）、新潟県新潟市秋葉区小戸下組２２２４番地新津さつき農業協同組合（9110005001908）、新潟県新潟市西蒲区漆山８８３３番地越後中央農業協同組合（9110005002690）と合併して新潟県新潟市西蒲区漆山８８３３番地新潟かがやき農業協同組合（7110005016775）を設立し解散,2015-10-05,1,,,,,ニイガタミライ,0
833,3120001046481,登記記録の閉鎖等,0,2022-04-27,2022-04-15,株式会社バイオ・メデイカ,,株式会社,大阪府,大阪市西区,京町堀２丁目２番１０号,,27,106,5500003,,,2022-04-15,清算の結了等,,,2015-10-05,1,,,,,バイオメデイカ,0
837,3120001072528,登記記録の閉鎖等,0,2022-04-27,2022-04-18,株式会社大阪商事,,株式会社,大阪府,大阪市北区,天神橋１丁目１７番２号辻ビル４０３,00114137,27,127,5300041,,,2022-04-18,清算の結了等,,,2015-10-05,1,,,,,,0
840,3120001095842,登記記録の閉鎖等,0,2022-04-27,2022-04-21,株式会社和,,株式会社,大阪府,大阪市北区,芝田１丁目１２番７号,,27,127,5300012,,,2022-04-21,清算の結了等,,,2015-10-05,1,,,,,ナゴミ,0
845,3120001192061,登記記録の閉鎖等,0,2022-04-27,2022-04-18,株式会社Ｓ＆Ｄ,,株式会社,大阪府,大阪市淀川区,東三国４丁目４番１１号東明ビル６Ｆ,,27,123,5320002,,,2022-04-18,清算の結了等,,,2015-10-05,1,,,,,,0
893,3170001007248,登記記録の閉鎖等,0,2022-04-27,2022-04-25,株式会社榎本石油店,,株式会社,和歌山県,有田郡有田川町,大字中野２８５番地,,30,366,6430143,,,2022-04-25,清算の結了等,,,2015-10-05,1,,,,,エノモトセキユテン,0
894,3170001013072,登記記録の閉鎖等,0,2022-04-27,2022-04-22,株式会社ワイ・エム,,株式会社,和歌山県,和歌山市,北新２丁目５番地の２,,30,201,6408002,,,2022-04-22,清算の結了等,,,2015-10-05,1,,,,,ワイエム,0
896,3170005003730,登記記録の閉鎖等,0,2022-04-27,2022-03-30,天理教上南部分教会,,その他の設立登記法人,和歌山県,日高郡みなべ町,西本庄７５２番地の１,,30,391,6450027,,,2022-03-30,合併による解散等,2170005003780,令和４年３月３０日和歌山県日高郡みなべ町東吉田２４３番地天理教鷲南紀分教会（2170005003780）に合併し解散,2015-10-05,1,,,,,テンリキョウカミミナベブンキョウカイ,0
898,3180001069766,登記記録の閉鎖等,0,2022-04-27,2022-04-18,株式会社フロンティア,,株式会社,愛知県,豊明市,栄町南舘３番地２１７３,,23,229,4701168,,,2022-04-18,清算の結了等,,,2015-10-05,1,,,,,フロンティア,0
906,3180001149130,登記記録の閉鎖等,0,2022-04-27,2022-04-01,株式会社パオ王寺,,株式会社,愛知県,名古屋市守山区,幸心２丁目１３３８番地,,23,113,4630079,,,2022-04-01,合併による解散等,8180001102068,令和４年４月１日名古屋市守山区幸心二丁目１３３８番地株式会社山忠観光（8180001102068）に合併し解散,2021-12-15,1,,,,,パオオウジ,0
924,3240001025696,登記記録の閉鎖等,0,2022-04-27,2022-04-25,株式会社木本組,,株式会社,広島県,呉市,焼山ひばりヶ丘町１２番２号,,34,202,7370901,,,2022-04-25,清算の結了等,,,2015-10-05,1,,,,,キモトグミ,0
928,3250001006398,登記記録の閉鎖等,0,2022-04-27,2022-04-07,株式会社まいづる,,株式会社,山口県,下関市,彦島西山町５丁目４番６号,,35,201,7500093,,,2022-04-07,合併による解散等,3180301004951,令和４年４月１日愛知県豊橋市柳生町４４番地株式会社あつみ（3180301004951）に合併し解散,2015-10-05,1,,,,,マイヅル,0
938,3290001051151,登記記録の閉鎖等,0,2022-04-27,2022-04-21,株式会社ベルカイト,,株式会社,福岡県,久留米市,上津町２２２８番地１７３０,,40,203,8300052,,,2022-04-21,清算の結了等,,,2015-10-05,1,,,,,ベルカイト,0
994,3460102000320,登記記録の閉鎖等,0,2022-04-27,2022-04-21,有限会社魚誠,,有限会社,北海道,帯広市,新町西４丁目３０番地２,,01,207,0800053,,,2022-04-21,清算の結了等,,,2015-10-05,1,,,,,ウオセイ,0
995,3470002015269,登記記録の閉鎖等,0,2022-04-27,2022-04-25,繁栄海運有限会社,,有限会社,香川県,坂出市,与島町２４１番地,,37,203,7620071,,,2022-04-25,清算の結了等,,,2015-10-05,1,,,,,ハンエイカイウン,0
998,3500001015456,登記記録の閉鎖等,0,2022-04-27,2022-04-25,東洋開発株式会社,,株式会社,愛媛県,宇和島市,和霊中町２丁目２番３０号,,38,203,7980016,,,2022-04-25,清算の結了等,,,2015-10-05,1,,,,,トウヨウカイハツ,0
999,3500001018211,登記記録の閉鎖等,0,2022-04-27,2022-04-25,株式会社ともにＬｉｆｅ,,株式会社,愛媛県,伊予市,下吾川１７４０番地１１,,38,210,7993111,,,2022-04-25,清算の結了等,,,2015-10-05,1,,,,,,0
1015,4010003022078,登記記録の閉鎖等,0,2022-04-27,2022-04-11,合同会社新潟新発田,,合同会社,東京都,千代田区,一番町９番地８ノザワビルディング６階税理士法人シリウス内,,13,101,1020082,,,2022-04-11,清算の結了等,,,2015-10-05,1,,,,,ニイガタシバタ,0
1016,4010401007291,登記記録の閉鎖等,0,2022-04-27,2022-04-22,株式会社カメラ情報社,,株式会社,東京都,葛飾区,白鳥４丁目６番１－２２０号,,13,122,1250063,,,2022-04-22,清算の結了等,,,2015-10-05,1,,,,,カメラジョウホウシャ,0
1035,4010801014482,登記記録の閉鎖等,0,2022-04-27,2022-04-20,株式会社愛光,,株式会社,東京都,大田区,南千束２丁目１１番１３－１０５号,,13,111,1450063,,,2022-04-20,清算の結了等,,,2015-10-05,1,,,,,アイコウ,0
1042,4010903005594,登記記録の閉鎖等,0,2022-04-27,2022-04-26,合同会社ワンス,,合同会社,東京都,世田谷区,上馬２丁目３５番１２号エスポワールＫ２０２,,13,112,1540011,,,2022-04-26,清算の結了等,,,2020-03-23,1,,,,,ワンス,0
1060,4011301016192,登記記録の閉鎖等,0,2022-04-27,2022-04-21,株式会社ＡＯＩ企画,,株式会社,東京都,杉並区,高円寺南４丁目１２番３号鳥切ビル２階,,13,115,1660003,,,2022-04-21,清算の結了等,,,2015-10-05,1,,,,,,0
1063,4011602002263,登記記録の閉鎖等,0,2022-04-27,2022-04-25,有限会社音の絵文庫,,有限会社,東京都,練馬区,大泉学園町６丁目９番１１号,,13,120,1780061,,,2022-04-25,清算の結了等,,,2015-10-05,1,,,,,オトノエブンコ,0
1071,4012701001577,登記記録の閉鎖等,0,2022-04-27,2022-04-21,株式会社ツルヲ製作所,,株式会社,東京都,東村山市,秋津町５丁目４番地１３,,13,213,1890001,,,2022-04-21,清算の結了等,,,2015-10-05,1,,,,,ツルヲセイサクジョ,0
1073,4012801017028,登記記録の閉鎖等,0,2022-04-27,2022-04-21,株式会社ＲＩＤＥ　ＯＮ　ＴＨＲＥＥ,,株式会社,埼玉県,川越市,大字南田島８番地,,11,201,3500027,,,2022-04-21,清算の結了等,,,2016-01-21,1,,,,,ライズオンスリー,0
1087,4020001018168,登記記録の閉鎖等,0,2022-04-27,2022-04-18,株式会社東光,,株式会社,神奈川県,横浜市鶴見区,梶山１丁目８番９号,,14,101,2300072,,,2022-04-18,清算の結了等,,,2015-10-05,1,,,,,トウコウ,0
1101,4021001009545,登記記録の閉鎖等,0,2022-04-27,2022-04-22,株式会社マスクリーン,,株式会社,神奈川県,鎌倉市,小町１丁目５番７号,,14,204,2480006,,,2022-04-22,清算の結了等,,,2015-10-05,1,,,,,マスクリーン,0
1107,4021003009287,登記記録の閉鎖等,0,2022-04-27,2022-04-22,ＳＤＧｓ－Ｈａｉｒ合同会社,,合同会社,神奈川県,藤沢市,辻堂東海岸１丁目１０番２０号,00119575,14,205,2510045,,,2022-04-22,清算の結了等,,,2020-04-23,1,,,,,エスディージーズヘア,0
1111,4030001110238,登記記録の閉鎖等,0,2022-04-27,2022-04-19,株式会社とよしま,,株式会社,埼玉県,秩父郡長瀞町,大字長瀞４５４番地９,,11,363,3691305,,,2022-04-19,清算の結了等,,,2015-10-05,1,,,,,トヨシマ,0
1156,4110001017020,登記記録の閉鎖等,0,2022-04-27,2022-04-25,株式会社フレッシュマートライフ,,株式会社,新潟県,新潟市西区,五十嵐２の町８３０９番地５,,15,107,9502102,,,2022-04-25,清算の結了等,,,2015-10-05,1,,,,,フレッシュマートライフ,0
1163,4120001053659,登記記録の閉鎖等,0,2022-04-27,2022-04-18,株式会社阿部建具店,,株式会社,大阪府,大阪市淀川区,十三東１丁目１８番２８号,,27,123,5320023,,,2022-04-18,清算の結了等,,,2015-10-05,1,,,,,,0
1164,4120001062222,登記記録の閉鎖等,0,2022-04-27,2022-04-19,株式会社柏木,,株式会社,大阪府,大阪市北区,曾根崎新地１丁目６番２４号,,27,127,5300002,,,2022-04-19,清算の結了等,,,2015-10-05,1,,,,,カシワギ,0
1176,4120001242633,登記記録の閉鎖等,0,2022-04-27,2022-04-21,ジェットグループ株式会社,,株式会社,大阪府,大阪市淀川区,塚本２丁目１６番１３－１０１号,,27,123,5320026,,,2022-04-21,清算の結了等,,,2021-12-21,1,,,,,ジェットグループ,0
1183,4120901010057,登記記録の閉鎖等,0,2022-04-27,2022-04-25,丸通倉庫株式会社,,株式会社,大阪府,摂津市,鳥飼本町４丁目２番２０号,,27,224,5660052,,,2022-04-25,清算の結了等,,,2015-10-05,1,,,,,マルツウソウコ,0
1193,4130001039847,登記記録の閉鎖等,0,2022-04-27,2022-04-21,株式会社エスポワール弐壱,,株式会社,京都府,八幡市,橋本狩尾１番地の３４２,,26,210,6148322,,,2022-04-21,清算の結了等,,,2015-10-05,1,,,,,エスポワールニーイチ,0
1197,4140001041224,登記記録の閉鎖等,0,2022-04-27,2022-04-22,日新株式会社,,株式会社,兵庫県,丹波市,春日町黒井１５８１番地の３,,28,223,6694141,,,2022-04-22,清算の結了等,,,2015-10-05,1,,,,,ニッシン,0
1203,4140005005332,登記記録の閉鎖等,0,2022-04-27,2022-04-22,一般社団法人コーチングパートナー,,その他の設立登記法人,兵庫県,神戸市中央区,中山手通７丁目１０番２号,,28,110,6500004,,,2022-04-22,清算の結了等,,,2015-10-05,1,,,,,コーチングパートナー,0
1213,4180001095968,登記記録の閉鎖等,0,2022-04-27,2022-04-20,株式会社第一工業,,株式会社,愛知県,東海市,名和町上大廻間４番地の１,,23,222,4760002,,,2022-04-20,清算の結了等,,,2015-10-05,1,,,,,ダイイチコウギョウ,0
1221,4180302012647,登記記録の閉鎖等,0,2022-04-27,2022-04-20,有限会社アキラ工業,,有限会社,愛知県,豊川市,川花町３丁目４０番地の３,,23,207,4420837,,,2022-04-20,清算の結了等,,,2015-10-05,1,,,,,アキラコウギョウ,0
1228,4230001017157,登記記録の閉鎖等,0,2022-04-27,2022-03-30,株式会社リビングセンター・とやま,,株式会社,富山県,富山市,婦中町塚原１１７７番地,,16,201,9392712,,,2022-03-30,合併による解散等,1220001005520,令和４年３月２５日石川県金沢市新保本四丁目６６番地６株式会社ひまわりほーむ（1220001005520）に合併し解散,2017-10-05,1,,,,,リビングセンタートヤマ,0
1232,4240002016090,登記記録の閉鎖等,0,2022-04-27,2022-04-25,水野厚生有限会社,,有限会社,広島県,広島市中区,紙屋町１丁目６番７号,,34,101,7300031,,,2022-04-25,清算の結了等,,,2015-10-05,1,,,,,ミズノコウセイ,0
1241,4290001003424,登記記録の閉鎖等,0,2022-04-27,2022-04-21,大稲自動車株式会社,,株式会社,福岡県,福岡市東区,二又瀬新町１１番３０号,,40,131,8120065,,,2022-04-21,清算の結了等,,,2015-10-05,1,,,,,ダイトウジドウシャ,0
1242,4290001004083,登記記録の閉鎖等,0,2022-04-27,2022-04-21,丸和運輸梱包株式会社,,株式会社,福岡県,福岡市東区,社領３丁目１７番２０号,,40,131,8120068,,,2022-04-21,清算の結了等,,,2015-10-05,1,,,,,マルワウンユコンポウ,0
1244,4290001088077,登記記録の閉鎖等,0,2022-04-27,2022-04-22,ＣＩＡ株式会社,,株式会社,福岡県,久留米市,東町３３番地１,,40,203,8300032,,,2022-04-22,清算の結了等,,,2020-02-14,1,,,,,シーアイエー,0
1246,4290002050424,登記記録の閉鎖等,0,2022-04-27,2022-04-21,有限会社判田鉄工所,,有限会社,福岡県,久留米市,三潴町高三潴１３１２番地,,40,203,8300103,,,2022-04-21,清算の結了等,,,2015-10-05,1,,,,,,0
1255,4300002008437,登記記録の閉鎖等,0,2022-04-27,2022-04-25,有限会社大日窯,,有限会社,佐賀県,西松浦郡有田町,古木場甲１３００番地１,,41,401,8440015,,,2022-04-25,清算の結了等,,,2015-10-05,1,,,,,ダイニチガマ,0
1262,4340002010001,登記記録の閉鎖等,0,2022-04-27,2022-04-26,有限会社山之内印刷,,有限会社,鹿児島県,鹿児島市,城山１丁目２９番７号,,46,201,8900013,,,2022-04-26,清算の結了等,,,2015-10-05,1,,,,,ヤマノウチインサツ,0
1292,4450001000297,登記記録の閉鎖等,0,2022-04-27,2022-04-25,旭川空港ビル株式会社,,株式会社,北海道,上川郡東神楽町,東２線十六号９８番地,,01,453,0711562,,,2022-04-25,合併による解散等,7430001079728,令和４年４月１日北海道千歳市美々９８７番地２２北海道エアポート株式会社（7430001079728）に合併し解散,2015-10-05,1,,,,,アサヒカワクウコウビル,0
1295,4450002012960,登記記録の閉鎖等,0,2022-04-27,2022-04-25,有限会社旭ストアー,,有限会社,北海道,紋別郡滝上町,字滝ノ上市街地三条通３丁目１６番地,,01,560,0995600,,,2022-04-25,清算の結了等,,,2015-10-05,1,,,,,アサヒストアー,0
1296,4460001004487,登記記録の閉鎖等,0,2022-04-27,2022-04-26,株式会社レフコ,,株式会社,北海道,釧路市,鳥取北４丁目２１番６号,,01,206,0840907,,,2022-04-26,清算の結了等,,,2015-10-05,1,,,,,レフコ,0
1361,5011102026695,登記記録の閉鎖等,0,2022-04-27,2022-04-25,有限会社静茶園,,有限会社,東京都,新宿区,信濃町３４番地,,13,104,1600016,,,2022-04-25,清算の結了等,,,2015-10-05,1,,,,,セイチャエン,0
1375,5011702003838,登記記録の閉鎖等,0,2022-04-27,2022-04-25,有限会社恵啓商事,,有限会社,東京都,江戸川区,松島３丁目２５番１７号マートルコート４０５新小岩グラン,,13,123,1320031,,,2022-04-25,清算の結了等,,,2015-10-05,1,,,,,ケイケイショウジ,0
1382,5012401017682,登記記録の閉鎖等,0,2022-04-27,2022-04-21,株式会社ケイエス管理,,株式会社,東京都,三鷹市,牟礼４丁目１２番１３号,,13,204,1810002,,,2022-04-21,清算の結了等,,,2015-10-05,1,,,,,ケイエスカンリ,0
1393,5020001079408,登記記録の閉鎖等,0,2022-04-27,2022-04-20,株式会社ティーアールファースト,,株式会社,神奈川県,川崎市宮前区,水沢３丁目２番４１号－２０６,,14,136,2160012,,,2022-04-20,清算の結了等,,,2015-10-05,1,,,,,ティーアールファースト,0
1394,5020001127199,登記記録の閉鎖等,0,2022-04-27,2022-04-19,株式会社ＯＣＴ,,株式会社,神奈川県,横浜市西区,高島２丁目１１番２号スカイメナー横浜４２２,,14,103,2200011,,,2022-04-19,清算の結了等,,,2018-07-18,1,,,,,オクト,0
1407,5021001058450,登記記録の閉鎖等,0,2022-04-27,2022-04-20,ＡＭＴＴ株式会社,,株式会社,神奈川県,高座郡寒川町,一之宮１丁目１８番１９号,,14,321,2530111,,,2022-04-20,清算の結了等,,,2016-02-03,1,,,,,エーエムティーティー,0
1412,5030002001121,登記記録の閉鎖等,0,2022-04-27,2022-04-21,有限会社イトイプラント工業,,有限会社,埼玉県,さいたま市南区,鹿手袋６丁目１５番２１号,,11,108,3360031,,,2022-04-21,清算の結了等,,,2015-10-05,1,,,,,イトイプラントコウギョウ,0
1427,5050005002379,登記記録の閉鎖等,0,2022-04-27,2022-03-30,天理教常磯分教会,,その他の設立登記法人,茨城県,東茨城郡大洗町,桜道９４番地,,08,309,3111307,,,2022-03-30,合併による解散等,9060005005674,令和４年３月２３日栃木県栃木市木野地町１７８番地２天理教栃木分教会（9060005005674）に合併し解散,2015-10-05,1,,,,,テンリキョウジョウイソブンキョウカイ,0
1448,5100001025964,登記記録の閉鎖等,0,2022-04-27,2022-04-20,ＨＳプラ株式会社,,株式会社,長野県,上田市,真田町本原５５８番地１,,20,203,3862202,,,2022-04-20,合併による解散等,5100001010388,令和４年４月２０日長野県上田市材木町二丁目９番４号横澤化学株式会社（5100001010388）に合併し解散,2015-10-05,1,,,,,エッチエスプラ,0
1454,5110005003478,登記記録の閉鎖等,0,2022-04-27,2022-04-01,鹿瀬商工会,,その他の設立登記法人,新潟県,東蒲原郡阿賀町,向鹿瀬１７７７番地,,15,385,9594301,,,2022-04-01,合併による解散等,6110005016784,令和４年４月１日新潟県東蒲原郡阿賀町両郷甲２１５０番地上川商工会（9110005003490）と合併して新潟県東蒲原郡阿賀町両郷甲２１５０番地鹿瀬上川商工会（6110005016784）を設立し解散,2015-10-05,1,,,,,カノセ,0
1487,5122002014820,登記記録の閉鎖等,0,2022-04-27,2022-04-25,有限会社マンドウ,,有限会社,大阪府,八尾市,山本町南４丁目１番３号岩田ビル,,27,212,5810013,,,2022-04-25,清算の結了等,,,2015-10-05,1,,,,,マンドウ,0
1504,5180001088450,登記記録の閉鎖等,0,2022-04-27,2022-04-18,株式会社フォレスト,,株式会社,愛知県,一宮市,桜２丁目１０番３１号,,23,203,4910036,,,2022-04-18,清算の結了等,,,2015-10-05,1,,,,,,0
1510,5180002074103,登記記録の閉鎖等,0,2022-04-27,2022-04-19,有限会社ハヤカワ,,有限会社,愛知県,瀬戸市,坂上町２９４番地,,23,204,4890977,,,2022-04-19,清算の結了等,,,2015-10-05,1,,,,,ハヤカワ,0
1511,5180003019429,登記記録の閉鎖等,0,2022-04-27,2022-04-20,Ｌ＆Ｒ合同会社,,合同会社,愛知県,名古屋市西区,南川町１２１番地の３,,23,104,4520814,,,2022-04-20,清算の結了等,,,2018-11-08,1,,,,,エルアンドアール,0
1521,5230001017156,登記記録の閉鎖等,0,2022-04-27,2022-03-30,株式会社ひまわりほーむ・とやま,,株式会社,富山県,富山市,婦中町塚原１１７７番地,,16,201,9392712,,,2022-03-30,合併による解散等,1220001005520,令和４年３月２５日石川県金沢市新保本四丁目６６番地６株式会社ひまわりほーむ（1220001005520）に合併し解散,2017-10-05,1,,,,,ヒマワリホームトヤマ,0
1524,5240001021272,登記記録の閉鎖等,0,2022-04-27,2022-04-08,新広島ヤクルト販売株式会社,,株式会社,広島県,広島市西区,福島町１丁目２３番１３号,,34,104,7330024,,,2022-04-08,合併による解散等,6240001021214,令和４年４月１日広島市西区福島町一丁目２３番１３号株式会社ヤクルト山陽（6240001021214）に合併し解散,2015-10-05,1,,,,,シンヒロシマヤクルトハンバイ,0
1530,5260001008953,登記記録の閉鎖等,0,2022-04-27,2022-04-01,株式会社ハップ,,株式会社,岡山県,岡山市東区,西大寺浜４６０番地,,33,103,7048126,,,2022-04-01,合併による解散等,4260001005539,令和４年４月１日岡山市東区松新町６７８番地の１１ヒカリ産業株式会社（4260001005539）に合併し解散,2015-10-05,1,,,,,ハップ,0
1545,5310005003846,登記記録の閉鎖等,0,2022-04-27,2022-04-01,社会福祉法人お告げのマリア会,,その他の設立登記法人,長崎県,南松浦郡新上五島町,奈摩郷１２４２番地５,,42,411,8574402,,,2022-04-01,合併による解散等,6310005003845,令和４年４月１日長崎県南松浦郡新上五島町鯛ノ浦郷３０３番地６社会福祉法人ブレル会（6310005003845）に合併し解散,2015-10-05,1,,,,,オツゲノマリアカイ,0
1555,5360003010468,登記記録の閉鎖等,0,2022-04-27,2022-04-14,合同会社ＮＬＩ３号,,合同会社,沖縄県,石垣市,字真栄里２５４番地１９,,47,207,9070002,,,2022-04-14,清算の結了等,,,2020-07-31,1,,,,,エヌエルアイサンゴウ,0
1581,5470001011886,登記記録の閉鎖等,0,2022-04-27,2022-04-22,株式会社さぬき合掌殿,,株式会社,香川県,三豊市,豊中町笠田笠岡２３１１番地１,,37,208,7691502,,,2022-04-22,清算の結了等,,,2015-10-05,1,,,,,サヌキガッショウデン,0
1588,5500005004833,登記記録の閉鎖等,0,2022-04-27,2022-04-25,医療法人武内産婦人科,,その他の設立登記法人,愛媛県,今治市,北日吉町１丁目１８番７号,,38,202,7940054,,,2022-04-25,清算の結了等,,,2015-10-05,1,,,,,タケウチサンフジンカ,0
1611,6010401154017,登記記録の閉鎖等,0,2022-04-27,2022-04-14,ライフグランド株式会社,,株式会社,千葉県,市川市,田尻３丁目６－２１ブライト・ベルウッド５０５号,,12,203,2720014,,,2022-04-14,清算の結了等,,,2020-07-16,1,,,,,ライフグランド,0
1615,6010401165328,登記記録の閉鎖等,0,2022-04-27,2022-04-21,株式会社マリン・プロフーズ,,株式会社,東京都,港区,西新橋２丁目１番１号,,13,103,1050003,,,2022-04-21,合併による解散等,8010001222485,令和４年４月１日東京都千代田区丸の内一丁目９番１号株式会社マリン・プロフーズ（8010001222485）に合併し解散,2022-02-02,1,,,,,マリンプロフーズ,0
1639,6011005002306,登記記録の閉鎖等,0,2022-04-27,2022-04-22,一般社団法人アタミ・ビーチライン・ファンディング,,その他の設立登記法人,東京都,中央区,新富１丁目１５番３号ジパングアウトソーシングサービス株式会社内,,13,102,1040041,,,2022-04-22,清算の結了等,,,2015-10-05,1,,,,,アタミビーチラインファンディング,0
1649,6011501026832,商号の登記の抹消,0,2022-04-27,2022-04-15,Ｎｕｐｑｕａ株式会社,,株式会社,東京都,荒川区,西日暮里２丁目４５－１４ＴＫビル１階,,13,118,1160013,,,,,,,2021-04-14,0,,,,,ヌプカ,0
1652,6011502006081,登記記録の閉鎖等,0,2022-04-27,2022-04-25,有限会社ヤシマ薬局,,有限会社,東京都,北区,赤羽１丁目２８番４号,,13,117,1150045,,,2022-04-25,清算の結了等,,,2015-10-05,1,,,,,ヤシマヤッキョク,0
1666,6013402000809,登記記録の閉鎖等,0,2022-04-27,2022-04-08,有限会社セラブロス,,有限会社,東京都,日野市,南平２丁目４３番１号,,13,212,1910041,,,2022-04-08,清算の結了等,,,2015-10-05,1,,,,,セラブロス,0
1669,6020001035681,登記記録の閉鎖等,0,2022-04-27,2022-04-21,株式会社環境セラミックスリサーチ,,株式会社,神奈川県,横浜市栄区,本郷台２丁目２２番１３号,,14,115,2470008,,,2022-04-21,清算の結了等,,,2015-10-05,1,,,,,カンキョウセラミックスリサーチ,0
1688,6021005008079,登記記録の閉鎖等,0,2022-04-27,2022-03-31,天理教相模分教会,,その他の設立登記法人,神奈川県,横須賀市,佐野町５丁目３番地,,14,201,2380052,,,2022-03-31,合併による解散等,8080405005827,令和４年３月２８日静岡県袋井市三門町７番地の１天理教山名大教会（8080405005827）に合併し解散,2015-10-05,1,,,,,,0
1721,6070002029034,登記記録の閉鎖等,0,2022-04-27,2022-04-18,有限会社栗原製作所,,有限会社,群馬県,太田市,岩瀬川町２３番地,,10,205,3730841,,,2022-04-18,清算の結了等,,,2015-10-05,1,,,,,クリハラセイサクショ,0
1746,6120001227830,登記記録の閉鎖等,0,2022-04-27,2022-04-21,株式会社アキム,,株式会社,大阪府,枚方市,楠葉花園町３番１３－２０２号,,27,210,5731121,,,2022-04-21,清算の結了等,,,2020-03-13,1,,,,,アキム,0
1750,6120002012100,登記記録の閉鎖等,0,2022-04-27,2022-04-18,有限会社丸金商会,,有限会社,大阪府,大阪市平野区,加美正覚寺１丁目６番２５号,,27,126,5470006,,,2022-04-18,清算の結了等,,,2015-10-05,1,,,,,,0
1751,6120002031843,登記記録の閉鎖等,0,2022-04-27,2022-04-19,有限会社東西建物サービス,,有限会社,大阪府,大阪市北区,（大阪市大淀区本庄東三丁目９番３号）,,27,127,5300000,,,2022-04-19,清算の結了等,,,2015-10-05,1,,,,,トウザイタテモノサービス,1
1752,6120002072409,登記記録の閉鎖等,0,2022-04-27,2022-04-22,有限会社サンテクノ・小野,,有限会社,大阪府,寝屋川市,成田東町１１番１８号,,27,215,5720001,,,2022-04-22,清算の結了等,,,2015-10-05,1,,,,,サンテクノオノ,0
1754,6120005008814,登記記録の閉鎖等,0,2022-04-27,2022-04-04,特定非営利活動法人メディスンヘルパー,,その他の設立登記法人,大阪府,大阪市住吉区,我孫子２丁目４番３号,,27,120,5580014,,,2022-04-04,清算の結了等,,,2015-10-05,1,,,,,メディスンヘルパー,0
1784,6140002056839,登記記録の閉鎖等,0,2022-04-27,2022-04-25,シャンリー有限会社,,有限会社,兵庫県,神戸市東灘区,深江南町４丁目１４－１７ＡＸＩＳブールバールメゾン東灘１００３,,28,101,6580022,,,2022-04-25,清算の結了等,,,2015-10-05,1,,,,,シャンリー,0
1791,6170005005278,登記記録の閉鎖等,0,2022-04-27,2022-04-25,医療法人かなめ会,,その他の設立登記法人,和歌山県,新宮市,井の沢９番１０号,,30,207,6470045,,,2022-04-25,清算の結了等,,,2015-10-05,1,,,,,,0
1799,6180305004747,登記記録の閉鎖等,0,2022-04-27,2022-03-31,天理教愛碧分教会,,その他の設立登記法人,愛知県,刈谷市,寺横町２丁目６６番地,,23,210,4480846,,,2022-03-31,合併による解散等,7180005012108,令和４年３月２８日愛知県大府市共和町茶屋４７番地の６６天理教有松分教会（7180005012108）に合併し解散,2015-10-05,1,,,,,テンリキョウアイヘキブンキョウカイ,0
1805,6210002003197,登記記録の閉鎖等,0,2022-04-27,2022-04-15,有限会社フクイ加工,,有限会社,福井県,福井市,高屋町２４番４３号,,18,201,9100107,,,2022-04-15,清算の結了等,,,2015-10-05,1,,,,,フクイカコウ,0
1807,6210005008441,登記記録の閉鎖等,0,2022-04-27,2022-04-14,医療法人田中整形外科医院,,その他の設立登記法人,福井県,小浜市,千種１丁目８－２４,,18,204,9170072,,,2022-04-14,清算の結了等,,,2015-10-05,1,,,,,タナカセイケイゲカイイン,0
1874,6410001011453,登記記録の閉鎖等,0,2022-04-27,2022-04-15,株式会社ウィンドミル,,株式会社,秋田県,大仙市,花館中町６番４５号,,05,212,0140006,,,2022-04-15,合併による解散等,8410001009660,令和４年４月１５日秋田県大仙市上鴬野字田向１１番地２株式会社すいせん（8410001009660）に合併し解散,2017-02-27,1,,,,,ウィンドミル,0
1880,6430001045359,登記記録の閉鎖等,0,2022-04-27,2022-04-07,株式会社新栄防災,,株式会社,北海道,札幌市東区,伏古十三条５丁目６番４号,,01,103,0070873,,,2022-04-07,合併による解散等,5440001000909,令和４年３月２８日北海道函館市西桔梗町８５０番地７８三和防災株式会社（5440001000909）に合併し解散,2015-10-05,1,,,,,シンエイボウサイ,0
1888,6430002013694,登記記録の閉鎖等,0,2022-04-27,2022-04-19,有限会社道拓不動産,,有限会社,北海道,札幌市南区,川沿六条３丁目１１番２５号,,01,106,0050806,,,2022-04-19,清算の結了等,,,2015-10-05,1,,,,,ドウタクフドウサン,0
1894,6450005002429,登記記録の閉鎖等,0,2022-04-27,2022-04-25,光明寺,,その他の設立登記法人,北海道,名寄市,風連町大町１１１番地,,01,221,0980503,,,2022-04-25,清算の結了等,,,2015-10-05,1,,,,,コウミョウジ,0
1906,7010001087104,登記記録の閉鎖等,0,2022-04-27,2022-04-22,ファイドン株式会社,,株式会社,東京都,世田谷区,松原２丁目４１番１１号明治安田生命明大前ビル４階,,13,112,1560043,,,2022-04-22,清算の結了等,,,2015-10-05,1,,,,,ファイドン,0
1937,7010702001008,登記記録の閉鎖等,0,2022-04-27,2022-04-19,有限会社ウサミ商店,,有限会社,東京都,品川区,西品川１丁目１０番１４号,,13,109,1410033,,,2022-04-19,清算の結了等,,,2015-10-05,1,,,,,ウサミショウテン,0
1984,7020001075818,登記記録の閉鎖等,0,2022-04-27,2022-04-21,ナイス物流株式会社,,株式会社,神奈川県,横浜市鶴見区,鶴見中央４丁目３３番１号,,14,101,2300051,,,2022-04-21,合併による解散等,2020001137390,令和４年４月１日埼玉県越谷市流通団地二丁目３番７号ＳＤロジ株式会社（2020001137390）に合併し解散,2015-10-05,1,,,,,ナイスブツリュウ,0
1988,7020002048368,登記記録の閉鎖等,0,2022-04-27,2022-04-21,有限会社旭重設,,有限会社,神奈川県,横浜市旭区,左近山１５７番地３０左近山団地３街区７棟２０１号,,14,112,2410831,,,2022-04-21,清算の結了等,,,2015-10-05,1,,,,,アサヒジュウセツ,0
1989,7020002051033,登記記録の閉鎖等,0,2022-04-27,2022-04-21,有限会社アイムコーポレーション,,有限会社,神奈川県,横浜市神奈川区,平川町２６番地１３,,14,102,2210812,,,2022-04-21,清算の結了等,,,2015-10-05,1,,,,,アイムコーポレーション,0
1996,7020005001927,登記記録の閉鎖等,0,2022-04-27,2022-04-01,宗教法人天理教日常分教会,,その他の設立登記法人,神奈川県,横浜市神奈川区,上反町２丁目２５番地の２,,14,102,2210831,,,2022-04-01,合併による解散等,2011105000675,令和４年３月２９日東京都新宿区西新宿五丁目１８番４号天理教東日之宮分教会（2011105000675）に合併し解散,2015-10-05,1,,,,,テンリキョウニチジョウブンキョウカイ,0
2017,7030003012867,登記記録の閉鎖等,0,2022-04-27,2022-04-20,リンガコム合同会社,,合同会社,埼玉県,所沢市,北有楽町３番１４－２１４号所沢ガーデンホームズ,,11,208,3591114,,,2022-04-20,清算の結了等,,,2019-01-04,1,,,,,リンガコム,0
2027,7040003002966,登記記録の閉鎖等,0,2022-04-27,2022-04-20,合同会社ストロベリー・イン・シーズン,,合同会社,千葉県,市原市,野毛１１８,,12,219,2900033,,,2022-04-20,清算の結了等,,,2015-10-05,1,,,,,ストロベリーインシーズン,0
2040,7070002027714,登記記録の閉鎖等,0,2022-04-27,2022-04-18,新和工業有限会社,,有限会社,群馬県,北群馬郡榛東村,大字広馬場５０９番地,,10,344,3703504,,,2022-04-18,清算の結了等,,,2015-10-05,1,,,,,シンワコウギョウ,0
2045,7110001002226,登記記録の閉鎖等,0,2022-04-27,2022-04-25,笹川陶器株式会社,,株式会社,新潟県,新潟市中央区,上大川前通５番町５５番地８,,15,103,9518068,,,2022-04-25,清算の結了等,,,2015-10-05,1,,,,,ササガワトウキ,0
2051,7110002031249,登記記録の閉鎖等,0,2022-04-27,2022-04-25,有限会社中沢企画,,有限会社,新潟県,長岡市,滝の下町８番３０号,,15,202,9400226,,,2022-04-25,清算の結了等,,,2015-10-05,1,,,,,ナカザワキカク,0
2076,7122005001475,登記記録の閉鎖等,0,2022-04-27,2022-04-21,東大阪酒販協同組合,,その他の設立登記法人,大阪府,東大阪市,荒川３丁目６番６号,,27,227,5770843,,,2022-04-21,清算の結了等,,,2015-10-05,1,,,,,ヒガシオオサカシュハン,0
2077,7130001000888,登記記録の閉鎖等,0,2022-04-27,2022-04-20,三鋼機械工業株式会社,,株式会社,京都府,京都市右京区,太秦御所ノ内町２６番地,00035032,26,108,6168157,,,2022-04-20,清算の結了等,,,2015-10-05,1,,,,,サンコウキカイコウギョウ,0
2078,7130001003445,登記記録の閉鎖等,0,2022-04-27,2022-04-22,株式会社鳥原商店,,株式会社,京都府,京都市上京区,今小路通御前通東入西今小路町７９９番地の２,,26,102,6028383,,,2022-04-22,清算の結了等,,,2015-10-05,1,,,,,トリハラショウテン,0
2081,7130001041494,登記記録の閉鎖等,0,2022-04-27,2022-04-22,株式会社キヨスクオペレーションサービス福知山,,株式会社,京都府,福知山市,駅前町４２２番地Ｌｉｎｋ駅北２号,,26,201,6200045,,,2022-04-22,合併による解散等,6140001055008,令和４年４月１日兵庫県尼崎市潮江一丁目２番１２号株式会社ジェイアール西日本デイリーサービスネット（6140001055008）に合併し解散,2015-10-05,1,,,,,キヨスクオペレーションサービスフクチヤマ,0
2082,7130001053721,登記記録の閉鎖等,0,2022-04-27,2022-04-21,ラストワンピース株式会社,,株式会社,京都府,京都市南区,西九条菅田町２４番地パデシオン京都洛南７０３号,,26,107,6018445,,,2022-04-21,清算の結了等,,,2015-10-05,1,,,,,ラストワンピース,0
2086,7130002033697,登記記録の閉鎖等,0,2022-04-27,2022-04-20,有限会社エー・エス・プランニング,,有限会社,京都府,京丹後市,大宮町河辺２３９９番地,,26,212,6292502,,,2022-04-20,合併による解散等,3130002032208,令和４年４月２０日京都市下京区南不動堂町８０５番地４０３号株式会社ＫＭプランニング（3130002032208）に合併し解散,2015-10-05,1,,,,,エーエスプランニング,0
2102,7150001013574,登記記録の閉鎖等,0,2022-04-27,2022-04-22,株式会社ヤマト商店,,株式会社,奈良県,大和高田市,神楽２丁目４番４４号,,29,202,6350025,,,2022-04-22,清算の結了等,,,2015-10-05,1,,,,,,0
2106,7170005003735,登記記録の閉鎖等,0,2022-04-27,2022-03-30,天理教紀田分教会,,その他の設立登記法人,和歌山県,田辺市,古尾１９番１８号,,30,206,6460059,,,2022-03-30,合併による解散等,2170005003780,令和４年３月３０日和歌山県日高郡みなべ町東吉田２４３番地天理教鷲南紀分教会（2170005003780）に合併し解散,2015-10-05,1,,,,,テンリキョウキダブンキョウカイ,0
2118,7200001027239,登記記録の閉鎖等,0,2022-04-27,2022-04-20,株式会社Ｐ＆Ｊコーポレーション,,株式会社,愛知県,名古屋市瑞穂区,石川町３丁目８番地の６,,23,108,4670005,,,2022-04-20,清算の結了等,,,2015-10-05,1,,,,,ピーアンドジェイコーポレーション,0
2125,7220001016248,登記記録の閉鎖等,0,2022-04-27,2022-04-21,株式会社ウエストコースト,,株式会社,石川県,七尾市,中島町外イ部１７番地,,17,202,9292213,,,2022-04-21,清算の結了等,,,2015-10-05,1,,,,,ウエストコースト,0
2138,7250002001345,登記記録の閉鎖等,0,2022-04-27,2022-04-22,有限会社プランメンテ,,有限会社,山口県,山口市,平井４９２番地１,,35,203,7530831,,,2022-04-22,清算の結了等,,,2015-10-05,1,,,,,プランメンテ,0
2139,7250005001672,登記記録の閉鎖等,0,2022-04-27,2022-03-28,天理教須賀分教会,,その他の設立登記法人,山口県,防府市,大字新田１１３２番地,,35,206,7470825,,,2022-03-28,合併による解散等,1250005001678,令和４年３月２８日山口県防府市大字浜方第１９８番地の３７天理教中関分教会（1250005001678）に合併し解散,2015-10-05,1,,,,,,0
2140,7250005001680,登記記録の閉鎖等,0,2022-04-27,2022-03-28,天理教波奈城分教會,,その他の設立登記法人,山口県,防府市,大字仁井令７７６番地,,35,206,7470845,,,2022-03-28,合併による解散等,8250005001688,令和４年３月２８日山口県防府市桑山一丁目２番３１号天理教防府大教会（8250005001688）に合併し解散,2015-10-05,1,,,,,,0
2145,7290001048796,登記記録の閉鎖等,0,2022-04-27,2022-04-21,香田株式会社,,株式会社,福岡県,久留米市,日吉町１２番地の１０,,40,203,8300017,,,2022-04-21,清算の結了等,,,2015-10-05,1,,,,,コウダ,0
2150,7290001083604,登記記録の閉鎖等,0,2022-04-27,2022-04-21,株式会社帆帆ｌａｎａ,,株式会社,福岡県,福岡市中央区,六本松３丁目１６番２７－１３０１号,,40,133,8100044,,,2022-04-21,清算の結了等,,,2018-12-13,1,,,,,ホホラナ,0
2159,7290805008483,登記記録の閉鎖等,0,2022-04-27,2022-04-22,特定非営利活動法人キャリア応援ｎｅｔ．アヴァンス,,その他の設立登記法人,福岡県,北九州市小倉北区,清水３丁目１３番３９－５０６号,,40,106,8030841,,,2022-04-22,清算の結了等,,,2015-10-05,1,,,,,キャリアオウエンネットアヴァンス,0
2170,7330002009875,登記記録の閉鎖等,0,2022-04-27,2022-04-15,有限会社松本商会,,有限会社,熊本県,熊本市南区,日吉２丁目１４番６号,,43,104,8614109,,,2022-04-15,清算の結了等,,,2015-10-05,1,,,,,マツモトショウカイ,0
2175,7350005001340,登記記録の閉鎖等,0,2022-04-27,2022-04-01,社会福祉法人国富福祉会,,その他の設立登記法人,宮崎県,東諸県郡国富町,大字木脇１４６２番地,,45,382,8801113,,,2022-04-01,合併による解散等,8350005000597,令和４年４月１日宮崎市原町２番２２号社会福祉法人宮崎県社会福祉事業団（8350005000597）に合併し解散,2015-10-05,1,,,,,クニトミフクシカイ,0
2177,7370001021803,登記記録の閉鎖等,0,2022-04-27,2022-04-18,株式会社アルプスフロンティア,,株式会社,宮城県,黒川郡大和町,杜の丘３丁目９番地の２２,,04,421,9813628,,,2022-04-18,清算の結了等,,,2015-10-05,1,,,,,アルプスフロンティア,0
2183,7380001026537,登記記録の閉鎖等,0,2022-04-27,2022-04-22,株式会社アサヒリノベーション,,株式会社,福島県,須賀川市,馬町１０４番地,,07,207,9620833,,,2022-04-22,清算の結了等,,,2016-03-01,1,,,,,,0
2221,8010003022198,登記記録の閉鎖等,0,2022-04-27,2022-04-11,合同会社福岡桂川,,合同会社,東京都,千代田区,一番町９番地８ノザワビルディング６階税理士法人シリウス内,,13,101,1020082,,,2022-04-11,清算の結了等,,,2015-10-05,1,,,,,フクオカケイセン,0
2246,8010903004304,登記記録の閉鎖等,0,2022-04-27,2022-03-31,カリヨン代田合同会社,,合同会社,東京都,世田谷区,千歳台４丁目８番９号アクアマリン希望ヶ丘３０２,,13,112,1570071,,,2022-03-31,清算の結了等,,,2018-05-21,1,,,,,カリヨンダイタ,0
2248,8011001054407,登記記録の閉鎖等,0,2022-04-27,2022-04-21,株式会社スティルフィッシュ,,株式会社,東京都,渋谷区,代々木１丁目５５番１４号内海ビル３０１,,13,113,1510053,,,2022-04-21,清算の結了等,,,2015-10-05,1,,,,,スティルフィッシュ,0
2264,8011201014185,登記記録の閉鎖等,0,2022-04-27,2022-04-15,株式会社インバウンド,,株式会社,東京都,中野区,上高田５丁目１５番１１－１２５号,,13,114,1640002,,,2022-04-15,清算の結了等,,,2015-10-05,1,,,,,インバウンド,0
2309,8021001034226,登記記録の閉鎖等,0,2022-04-27,2022-03-24,株式会社リペアエスエス,,株式会社,神奈川県,足柄上郡山北町,山北１３７８番地,,14,364,2580113,,,2022-03-24,合併による解散等,6021001034178,令和４年３月２１日神奈川県足柄上郡山北町山北１３７８番地株式会社サトー（6021001034178）に合併し解散,2015-10-05,1,,,,,リペアエスエス,0
2330,8040001045090,登記記録の閉鎖等,0,2022-04-27,2022-04-20,株式会社エコテック・エム,,株式会社,千葉県,富里市,日吉台４丁目１７番地の１,,12,233,2860201,,,2022-04-20,清算の結了等,,,2015-10-05,1,,,,,エコテックエム,0
2356,8110005003698,登記記録の閉鎖等,0,2022-04-27,2022-04-01,ささかみ農業協同組合,,その他の設立登記法人,新潟県,阿賀野市,山崎５８番地,,15,223,9591919,,,2022-04-01,合併による解散等,7110005016775,令和４年４月１日新潟県阿賀野市土橋２９７番地北蒲みなみ農業協同組合（9110005003697）、新潟市南区七軒字前２１１番地１新潟みらい農業協同組合（3110005002936）、新潟県新潟市秋葉区小戸下組２２２４番地新津さつき農業協同組合（9110005001908）、新潟県新潟市西蒲区漆山８８３３番地越後中央農業協同組合（9110005002690）と合併して新潟県新潟市西蒲区漆山８８３３番地新潟かがやき農業協同組合（7110005016775）を設立し解散,2015-10-05,1,,,,,ササカミ,0
2361,8120001077737,登記記録の閉鎖等,0,2022-04-27,2022-04-20,株式会社ディアコーポレーション,,株式会社,大阪府,大阪市中央区,南船場２丁目１２番１６号,,27,128,5420081,,,2022-04-20,清算の結了等,,,2015-10-05,1,,,,,,0
2378,8120001240468,登記記録の閉鎖等,0,2022-04-27,2022-04-07,株式会社ＦＴＦ,,株式会社,大阪府,大阪市中央区,北久宝寺町１丁目５番６号堺筋本町アーバンライフ７１２号,,27,128,5410057,,,2022-04-07,清算の結了等,,,2021-09-16,1,,,,,エフティーエフ,0
2385,8120002057374,登記記録の閉鎖等,0,2022-04-27,2022-04-21,有限会社ＯＨ断熱工業,,有限会社,大阪府,大阪市西淀川区,姫島５丁目１６番３０号,,27,113,5550033,,,2022-04-21,清算の結了等,,,2015-10-05,1,,,,,オーエイチダンネツコウギョウ,0
2400,8120902019283,登記記録の閉鎖等,0,2022-04-27,2022-04-25,有限会社中村企画,,有限会社,大阪府,豊中市,本町１丁目１１番１－１０４号,,27,203,5600021,,,2022-04-25,清算の結了等,,,2015-10-05,1,,,,,ナカムラキカク,0
2415,8140001111279,登記記録の閉鎖等,0,2022-04-27,2022-04-25,ＵＳＵＩ　ＥＮＴＥＲＴＡＩＮＭＥＮＴ株式会社,,株式会社,兵庫県,神戸市中央区,港島中町６丁目２番３号,,28,110,6500046,,,2022-04-25,清算の結了等,,,2018-09-25,1,,,,,ウスイエンターテイメント,0
2420,8140002061779,登記記録の閉鎖等,0,2022-04-27,2022-04-21,有限会社高瀬藤吉織布工場,,有限会社,兵庫県,西脇市,西脇１０４番地,,28,213,6770015,,,2022-04-21,清算の結了等,,,2015-10-05,1,,,,,タカセトウキチショクフコウジョウ,0
2429,8180001080504,登記記録の閉鎖等,0,2022-04-27,2022-04-18,株式会社コジ建,,株式会社,愛知県,瀬戸市,見付町１０６番地の１,,23,204,4890808,,,2022-04-18,清算の結了等,,,2015-10-05,1,,,,,,0
2450,8190005000250,登記記録の閉鎖等,0,2022-04-27,2022-03-31,三重県酪農業協同組合連合会,,その他の設立登記法人,三重県,松阪市,嬉野下之庄町７５３番地,,24,204,5152354,,,2022-03-31,合併による解散等,4190005011540,令和４年３月３１日三重県松阪市嬉野下之庄町７５３番地三重県酪農農業協同組合（4190005011540）に権利義務を承継し解散,2015-10-05,1,,,,,ミエケンラクノウギョウ,0
2471,8240002038032,登記記録の閉鎖等,0,2022-04-27,2022-04-21,有限会社ふじの屋,,有限会社,広島県,廿日市市,宮島口西２丁目３番３６号,,34,213,7390412,,,2022-04-21,清算の結了等,,,2015-10-05,1,,,,,フジノヤ,0
2474,8250005001671,登記記録の閉鎖等,0,2022-04-27,2022-03-28,天理教新田分教会,,その他の設立登記法人,山口県,防府市,大字新田１１２６番地の１,,35,206,7470825,,,2022-03-28,合併による解散等,1250005001678,令和４年３月２８日山口県防府市大字浜方第１９８番地の３７天理教中関分教会（1250005001678）に合併し解散,2015-10-05,1,,,,,,0
2491,8290802020366,登記記録の閉鎖等,0,2022-04-27,2022-04-26,有限会社セタカ産業,,有限会社,福岡県,直方市,大字頓野字谷３４９番地の６,,40,204,8220002,,,2022-04-26,清算の結了等,,,2015-10-05,1,,,,,セタカサンギョウ,0
2497,8330002000734,登記記録の閉鎖等,0,2022-04-27,2022-04-15,有限会社礒道建設,,有限会社,熊本県,熊本市東区,長嶺南４丁目７番６８号,,43,102,8618039,,,2022-04-15,清算の結了等,,,2015-10-05,1,,,,,イソミチケンセツ,0
2498,8330002023405,登記記録の閉鎖等,0,2022-04-27,2022-04-18,萬屋建設有限会社,,有限会社,熊本県,阿蘇郡南小国町,大字満願寺５９８５番地４,,43,423,8692402,,,2022-04-18,清算の結了等,,,2015-10-05,1,,,,,ヨロズヤケンセツ,0
2499,8340001015848,登記記録の閉鎖等,0,2022-04-27,2022-04-25,株式会社アップルミント,,株式会社,鹿児島県,鹿児島市,照国町１番２３－７０７号,,46,201,8920841,,,2022-04-25,清算の結了等,,,2015-10-05,1,,,,,アップルミント,0
2504,8370001021802,登記記録の閉鎖等,0,2022-04-27,2022-04-18,株式会社新生,,株式会社,宮城県,仙台市青葉区,中山吉成１丁目４番１３号,,04,101,9893203,,,2022-04-18,清算の結了等,,,2015-10-05,1,,,,,,0
2512,8370305000881,登記記録の閉鎖等,0,2022-04-27,2022-04-01,宮城県中部施設保有漁業協同組合,,その他の設立登記法人,宮城県,石巻市,開成１番２７,,04,202,9860032,,,2022-04-01,合併による解散等,3370305000837,令和４年４月１日宮城県石巻市開成１番２７宮城県漁業協同組合（3370305000837）に合併し解散,2015-10-05,1,,,,,ミヤギケンチュウブシセツホユウ,0
2513,8370505000459,登記記録の閉鎖等,0,2022-04-27,2022-04-01,宮城県北部施設保有漁業協同組合,,その他の設立登記法人,宮城県,気仙沼市,港町５０３番地６,,04,205,9880021,,,2022-04-01,合併による解散等,3370305000837,令和４年４月１日宮城県石巻市開成１番２７宮城県漁業協同組合（3370305000837）に合併し解散,2015-10-05,1,,,,,ミヤギケンホクブシセツホユウ,0
2517,8380002029380,登記記録の閉鎖等,0,2022-04-27,2022-04-18,有限会社小畑自動車整備工場,,有限会社,福島県,南相馬市,小高区耳谷字露ノ内３４番地,,07,212,9792151,,,2022-04-18,清算の結了等,,,2015-10-05,1,,,,,オバタジドウシャセイビコウジョウ,0
2542,8480001007014,登記記録の閉鎖等,0,2022-04-27,2022-04-22,相生ウッディ株式会社,,株式会社,徳島県,那賀郡那賀町,吉野字弥八かへ２８番地の２,,36,368,7715408,,,2022-04-22,清算の結了等,,,2015-10-05,1,,,,,アイオイウッディ,0
2544,8490002008241,登記記録の閉鎖等,0,2022-04-27,2022-04-19,有限会社イケダ,,有限会社,高知県,四万十市,右山字明治３６６番地,,39,210,7870015,,,2022-04-19,清算の結了等,,,2015-10-05,1,,,,,,0
2557,9010003022296,登記記録の閉鎖等,0,2022-04-27,2022-04-11,合同会社福岡桂川２,,合同会社,東京都,千代田区,一番町９番地８ノザワビルディング６階税理士法人シリウス内,,13,101,1020082,,,2022-04-11,清算の結了等,,,2015-10-05,1,,,,,フクオカケイセンニ,0
2563,9010005023714,登記記録の閉鎖等,0,2022-04-27,2022-04-22,一般社団法人ジェイアイシー・ジャパン,,その他の設立登記法人,東京都,千代田区,内神田１丁目７番１号,,13,101,1010047,,,2022-04-22,清算の結了等,,,2015-10-05,1,,,,,ジェイアイシージャパン,0
2568,9010403026194,登記記録の閉鎖等,0,2022-04-27,2022-04-11,合同会社Ｊコーポレーション,,合同会社,東京都,港区,南青山２丁目２９番６－５０３号,,13,103,1070062,,,2022-04-11,清算の結了等,,,2021-09-29,1,,,,,ジェイコーポレーション,0
2577,9010901026159,登記記録の閉鎖等,0,2022-04-27,2022-03-31,株式会社Ｎ．Ｗ．Ｏ．ＨＯＬＤＩＮＧＳ,,株式会社,東京都,世田谷区,下馬６丁目２５番５号,,13,112,1540002,,,2022-03-31,合併による解散等,9010901009460,令和４年３月３１日東京都世田谷区下馬六丁目２５番５号ＮＷＯ学芸大ビル株式会社ネットワーク・オフイス（9010901009460）に合併し解散,2015-10-05,1,,,,,エヌダブリューオーホールディングス,0
2578,9010901045860,登記記録の閉鎖等,0,2022-04-27,2022-04-25,株式会社Ｗｒｉｔｉｎｇ　Ｗｏｒｋｓ,,株式会社,東京都,世田谷区,深沢２丁目１０番１２号,,13,112,1580081,,,2022-04-25,清算の結了等,,,2020-03-10,1,,,,,ライティングワークス,0
2580,9010902002332,登記記録の閉鎖等,0,2022-04-27,2022-04-18,有限会社エイミー・アンド・リサーチ,,有限会社,神奈川県,横浜市神奈川区,菅田町６２０－３松崎方,00119776,14,102,2210864,,,2022-04-18,清算の結了等,,,2015-10-05,1,,,,,エイミーアンドリサーチ,0
2586,9011001105992,登記記録の閉鎖等,0,2022-04-27,2022-04-18,株式会社アニマルファーマ,,株式会社,大阪府,大阪市東淀川区,豊新３丁目８番２号,,27,114,5330014,,,2022-04-18,清算の結了等,,,2015-10-05,1,,,,,アニマルファーマ,0
2597,9011101078321,登記記録の閉鎖等,0,2022-04-27,2022-04-22,株式会社Ｒａイノベーション,,株式会社,東京都,新宿区,西早稲田２丁目１１番１３号,,13,104,1690051,,,2022-04-22,合併による解散等,9010401096181,令和４年４月１日東京都中央区日本橋久松町１３番３株式会社ヒカリッチアソシエイツ（9010401096181）に合併し解散,2016-09-28,1,,,,,アールエーイノベーション,0
2610,9011701022182,登記記録の閉鎖等,0,2022-04-27,2022-04-22,ダヴィンチライン株式会社,,株式会社,東京都,江戸川区,西小岩３丁目２１番２２号,,13,123,1330057,,,2022-04-22,清算の結了等,,,2018-10-19,1,,,,,ダヴィンチライン,0
2612,9011801022842,登記記録の閉鎖等,0,2022-04-27,2022-04-22,株式会社孔,,株式会社,東京都,足立区,一ツ家２丁目１３番２号第２２新井ビル５０２号,,13,121,1210075,,,2022-04-22,清算の結了等,,,2015-10-05,1,,,,,,0
2614,9012305001424,登記記録の閉鎖等,0,2022-04-27,2022-04-20,特定非営利活動法人キ・アフリカ,,その他の設立登記法人,東京都,町田市,金井町１９３６番地５,,13,209,1950071,,,2022-04-20,清算の結了等,,,2015-10-05,1,,,,,キアフリカ,0
2615,9012401002243,登記記録の閉鎖等,0,2022-04-27,2022-04-21,株式会社十全,,株式会社,東京都,国分寺市,泉町３丁目３５番２６号,,13,214,1850024,,,2022-04-21,清算の結了等,,,2015-10-05,1,,,,,ジュウゼン,0
2647,9021001057226,登記記録の閉鎖等,0,2022-04-27,2022-04-20,株式会社ハピネス,,株式会社,神奈川県,相模原市南区,相模大野６丁目８番８号,,14,153,2520303,,,2022-04-20,清算の結了等,,,2015-10-05,1,,,,,ハピネス,0
2654,9021005001502,登記記録の閉鎖等,0,2022-04-27,2022-03-31,天理教色川分教會,00014167,その他の設立登記法人,神奈川県,茅ヶ崎市,中島１１１０番地５,,14,207,2530073,,,2022-03-31,合併による解散等,3170005005520,令和４年３月３０日和歌山県東牟婁郡那智勝浦町大字中の川５９６番地天理教太田分教会（3170005005520）に合併し解散,2015-10-05,1,,,,,,0
2670,9040001114431,登記記録の閉鎖等,0,2022-04-27,2022-04-20,株式会社ゴール,,株式会社,千葉県,松戸市,小金原１丁目２８番地の２１,,12,207,2700021,,,2022-04-20,清算の結了等,,,2020-07-28,1,,,,,ゴール,0
2673,9040002061301,登記記録の閉鎖等,0,2022-04-27,2022-04-19,有限会社中村水産,,有限会社,千葉県,八街市,八街ろ７９番地１,,12,230,2891144,,,2022-04-19,清算の結了等,,,2015-10-05,1,,,,,ナカムラスイサン,0
2674,9040002069253,登記記録の閉鎖等,0,2022-04-27,2022-04-20,株式会社トライ・シティエンタープライズ,,株式会社,千葉県,君津市,南子安５丁目１５番２号,,12,225,2991162,,,2022-04-20,清算の結了等,,,2015-10-05,1,,,,,トライシティエンタープライズ,0
2696,9110001017701,登記記録の閉鎖等,0,2022-04-27,2022-04-22,株式会社リセ,,株式会社,新潟県,柏崎市,新橋７番３号,,15,205,9450056,,,2022-04-22,清算の結了等,,,2015-10-05,1,,,,,リセ,0
2699,9110002011843,登記記録の閉鎖等,0,2022-04-27,2022-04-26,有限会社巻クリーン,,有限会社,新潟県,新潟市西蒲区,鷲ノ木１６４７番地２５,,15,108,9530072,,,2022-04-26,清算の結了等,,,2015-10-05,1,,,,,マキクリーン,0
2700,9110005001908,登記記録の閉鎖等,0,2022-04-27,2022-04-01,新津さつき農業協同組合,,その他の設立登記法人,新潟県,新潟市秋葉区,小戸下組２２２４番地,,15,105,9560007,,,2022-04-01,合併による解散等,7110005016775,令和４年４月１日新潟県阿賀野市土橋２９７番地北蒲みなみ農業協同組合（9110005003697）、新潟県阿賀野市山崎５８番地ささかみ農業協同組合（8110005003698）、新潟市南区七軒字前２１１番地１新潟みらい農業協同組合（3110005002936）、新潟県新潟市西蒲区漆山８８３３番地越後中央農業協同組合（9110005002690）と合併して新潟県新潟市西蒲区漆山８８３３番地新潟かがやき農業協同組合（7110005016775）を設立し解散,2015-10-05,1,,,,,ニイツサツキ,0
2701,9110005002690,登記記録の閉鎖等,0,2022-04-27,2022-04-01,越後中央農業協同組合,,その他の設立登記法人,新潟県,新潟市西蒲区,漆山８８３３番地,,15,108,9530054,,,2022-04-01,合併による解散等,7110005016775,令和４年４月１日新潟県阿賀野市土橋２９７番地北蒲みなみ農業協同組合（9110005003697）、新潟県阿賀野市山崎５８番地ささかみ農業協同組合（8110005003698）、新潟市南区七軒字前２１１番地１新潟みらい農業協同組合（3110005002936）、新潟県新潟市秋葉区小戸下組２２２４番地新津さつき農業協同組合（9110005001908）と合併して新潟県新潟市西蒲区漆山８８３３番地新潟かがやき農業協同組合（7110005016775）を設立し解散,2015-10-05,1,,,,,エチゴチュウオウ,0
2702,9110005003490,登記記録の閉鎖等,0,2022-04-27,2022-04-01,上川商工会,,その他の設立登記法人,新潟県,東蒲原郡阿賀町,両郷甲２１５０番地,,15,385,9594507,,,2022-04-01,合併による解散等,6110005016784,令和４年４月１日新潟県東蒲原郡阿賀町向鹿瀬１７７７番地鹿瀬商工会（5110005003478）と合併して新潟県東蒲原郡阿賀町両郷甲２１５０番地鹿瀬上川商工会（6110005016784）を設立し解散,2015-10-05,1,,,,,カミカワ,0
2703,9110005003697,登記記録の閉鎖等,0,2022-04-27,2022-04-01,北蒲みなみ農業協同組合,,その他の設立登記法人,新潟県,阿賀野市,土橋２９７番地,,15,223,9592063,,,2022-04-01,合併による解散等,7110005016775,令和４年４月１日新潟県阿賀野市山崎５８番地ささかみ農業協同組合（8110005003698）、新潟市南区七軒字前２１１番地１新潟みらい農業協同組合（3110005002936）、新潟県新潟市秋葉区小戸下組２２２４番地新津さつき農業協同組合（9110005001908）、新潟県新潟市西蒲区漆山８８３３番地越後中央農業協同組合（9110005002690）と合併して新潟県新潟市西蒲区漆山８８３３番地新潟かがやき農業協同組合（7110005016775）を設立し解散,2015-10-05,1,,,,,キタカンミナミ,0
2708,9120001044240,登記記録の閉鎖等,0,2022-04-27,2022-04-21,システム・プロダクツ・サービス株式会社,,株式会社,大阪府,大阪市西淀川区,中島１丁目３４番４４号,,27,113,5550041,,,2022-04-21,清算の結了等,,,2015-10-05,1,,,,,システムプロダクツサービス,0
2710,9120001063216,登記記録の閉鎖等,0,2022-04-27,2022-04-21,株式会社エアテック・エンジニアリング,,株式会社,大阪府,大阪市北区,西天満３丁目５番１２号,,27,127,5300047,,,2022-04-21,清算の結了等,,,2015-10-05,1,,,,,エアテックエンジニアリング,0
2714,9120001072398,登記記録の閉鎖等,0,2022-04-27,2022-04-18,株式会社ワールド・リズム・ジャパン,,株式会社,大阪府,大阪市淀川区,西宮原２丁目２番２号,,27,123,5320004,,,2022-04-18,清算の結了等,,,2015-10-05,1,,,,,ワールドリズムジャパン,0
2761,9140001099992,登記記録の閉鎖等,0,2022-04-27,2022-04-18,株式会社ＨＡＮＢ留学センター,,株式会社,大阪府,大阪市東淀川区,豊新３丁目８番２号,,27,114,5330014,,,2022-04-18,清算の結了等,,,2015-11-26,1,,,,,ハンブリュウガクセンター,0
2767,9140002032630,登記記録の閉鎖等,0,2022-04-27,2022-04-21,有限会社宍粟部品,,有限会社,兵庫県,宍粟市,山崎町今宿２７７番地の５,,28,227,6712573,,,2022-04-21,清算の結了等,,,2015-10-05,1,,,,,シソウブヒン,0
2768,9140002049055,登記記録の閉鎖等,0,2022-04-27,2022-04-21,有限会社赤藤瓦店,,有限会社,兵庫県,姫路市,四郷町明田８２７番地,,28,201,6710245,,,2022-04-21,清算の結了等,,,2015-10-05,1,,,,,シャクトウカワラテン,0
2779,9180001018949,登記記録の閉鎖等,0,2022-04-27,2022-04-19,株式会社岩月商店,,株式会社,愛知県,名古屋市中川区,小本本町１丁目５６番地,,23,110,4540826,,,2022-04-19,清算の結了等,,,2015-10-05,1,,,,,イワツキショウテン,0
2783,9180001138631,登記記録の閉鎖等,0,2022-04-27,2022-04-20,株式会社オフィスエム,,株式会社,愛知県,半田市,白山町１丁目５３番地の１ライオンズヒルズ半田白山町弐番館１０９号,,23,205,4750912,,,2022-04-20,清算の結了等,,,2019-10-28,1,,,,,オフィスエム,0
2787,9180002012513,登記記録の閉鎖等,0,2022-04-27,2022-04-20,有限会社古田鉄工所,,有限会社,愛知県,名古屋市北区,清水５丁目３３番８号,,23,103,4620844,,,2022-04-20,清算の結了等,,,2015-10-05,1,,,,,フルタテッコウショ,0
2819,9250005001687,登記記録の閉鎖等,0,2022-04-27,2022-03-28,天理教防中分教會,,その他の設立登記法人,山口県,防府市,大字浜方９２６番地,,35,206,7470833,,,2022-03-28,合併による解散等,8250005001688,令和４年３月２８日山口県防府市桑山一丁目２番３１号天理教防府大教会（8250005001688）に合併し解散,2015-10-05,1,,,,,,0
2858,9370002006396,登記記録の閉鎖等,0,2022-04-27,2022-04-19,有限会社宮城研商,,有限会社,宮城県,仙台市若林区,遠見塚東１４番２４号,,04,103,9840824,,,2022-04-19,清算の結了等,,,2015-10-05,1,,,,,ミヤギケンショウ,0
2860,9370605000696,登記記録の閉鎖等,0,2022-04-27,2022-04-01,宮城県南部施設保有漁業協同組合,,その他の設立登記法人,宮城県,塩竈市,新浜町３丁目６番２７号,,04,203,9850001,,,2022-04-01,合併による解散等,3370305000837,令和４年４月１日宮城県石巻市開成１番２７宮城県漁業協同組合（3370305000837）に合併し解散,2015-10-05,1,,,,,ミヤギケンナンブシセツホユウ,0
2874,9470001000539,登記記録の閉鎖等,0,2022-04-27,2022-04-13,出雲興産株式会社,,株式会社,香川県,高松市,室新町１１７４番地１,,37,201,7618062,,,2022-04-13,清算の結了等,,,2022-03-08,1,,,,,イズモコウサン,0
2880,9480003001666,登記記録の閉鎖等,0,2022-04-27,2022-04-26,合同会社然と朔,,合同会社,徳島県,美馬市,美馬町字中横尾３６番地,,36,207,7712102,,,2022-04-26,清算の結了等,,,2021-04-30,1,,,,,ゼントサク,0
