sequenceNumber,corporateNumber,process,correct,updateDate,changeDate,name,nameImageId,kind,prefectureName,cityName,streetNumber,addressImageId,prefectureCode,cityCode,postCode,addressOutside,addressOutsideImageId,closeDate,closeCause,successorCorporateNumber,changeCause,assignmentDate,latest,enName,enPrefectureName,enCityName,enAddressOutside,furigana,hihyoji
12,1010001223093,新規,0,2021-12-10,2021-12-10,株式会社Ｎａｌｕ,,株式会社,東京都,千代田区,神田三崎町３丁目５番９号,,13,101,1010061,,,,,,,2021-12-10,1,,,,,ナル,0
13,1010001223110,新規,0,2021-12-10,2021-12-10,株式会社ＨＹＭ,,株式会社,東京都,千代田区,三番町５番地１９ザ・パークハウスグラン三番町３０４号,,13,101,1020075,,,,,,,2021-12-10,1,,,,,エイチワイエム,0
14,1010001223143,新規,0,2021-12-10,2021-12-10,フェローテック・セミコンダクター・マテリアル株式会社,,株式会社,東京都,中央区,日本橋２丁目３番４号,,13,102,1030027,,,,,,,2021-12-10,1,,,,,フェローテックセミコンダクターマテリアル,0
16,1010003036510,新規,0,2021-12-10,2021-12-10,ＬＵＣＩＡＮ１４合同会社,,合同会社,東京都,千代田区,丸の内１丁目８番２号,,13,101,1000005,,,,,,,2021-12-10,1,,,,,ルシアンジュウヨン,0
17,1010003036527,新規,0,2021-12-10,2021-12-10,ＳＯＭファンド合同会社,,合同会社,東京都,中央区,銀座４丁目６番１号,,13,102,1040061,,,,,,,2021-12-10,1,,,,,エスオーエムファンド,0
25,1010401164276,新規,0,2021-12-10,2021-12-10,Ｂｅａｔ２Ｃａｐｉｔａｌ株式会社,,株式会社,東京都,港区,浜松町２丁目２番１５号浜松町ダイヤビル２Ｆ,,13,103,1050013,,,,,,,2021-12-10,1,,,,,ビートトゥキャピタル,0
26,1010401164334,新規,0,2021-12-10,2021-12-10,株式会社ダイサンエネルギー１２,,株式会社,東京都,港区,浜松町１丁目２番１２号,,13,103,1050013,,,,,,,2021-12-10,1,,,,,ダイサンエネルギートゥエルブ,0
27,1010401164367,新規,0,2021-12-10,2021-12-10,株式会社ＷＡＹＡ,,株式会社,東京都,港区,南青山４丁目２番１２号,,13,103,1070062,,,,,,,2021-12-10,1,,,,,ワヤ,0
28,1010401164383,新規,0,2021-12-10,2021-12-10,株式会社Ｂｌａｃｋｂｏｘ,,株式会社,東京都,港区,南青山５丁目１７番２号,,13,103,1070062,,,,,,,2021-12-10,1,,,,,ブラックボックス,0
33,1010601060341,新規,0,2021-12-10,2021-12-10,株式会社Ｓ．Ｐ　ＣＯＲＰＯＲＡＴＩＯＮ,,株式会社,東京都,江東区,大島８丁目４番３号,,13,108,1360072,,,,,,,2021-12-10,1,,,,,エスピーコーポレーション,0
49,1011001144486,新規,0,2021-12-10,2021-12-10,株式会社Ｓｔｏｃｋｆｏｒｄ,,株式会社,東京都,渋谷区,恵比寿１丁目１５番９号日宝恵比寿ビル４０３,,13,113,1500013,,,,,,,2021-12-10,1,,,,,ストックフォード,0
55,1011101096933,新規,0,2021-12-10,2021-12-10,株式会社エペソ,,株式会社,東京都,新宿区,北新宿３丁目２番１号,,13,104,1690074,,,,,,,2021-12-10,1,,,,,エペソ,0
62,1011501027554,新規,0,2021-12-10,2021-12-10,ルンベラ株式会社,,株式会社,東京都,荒川区,西日暮里６丁目３５番１０号中島ビル２０１,,13,118,1160013,,,,,,,2021-12-10,1,,,,,ルンベラ,0
74,1013301048367,新規,0,2021-12-10,2021-12-10,ＷＨＯ　ＳＥＥＫ　ＨＲ株式会社,,株式会社,東京都,豊島区,高田３丁目１０番２４号第二大島ビル３０３号,,13,116,1710033,,,,,,,2021-12-10,1,,,,,フーシークエイチアール,0
84,1020001144256,新規,0,2021-12-10,2021-12-10,株式会社翔武,,株式会社,神奈川県,川崎市麻生区,向原１丁目１０番２１号,,14,137,2150007,,,,,,,2021-12-10,1,,,,,ショウブ,0
90,1020003020942,新規,0,2021-12-10,2021-12-10,合同会社ＭＴコーポレーション,,合同会社,神奈川県,横浜市港北区,新羽町１００２番地,,14,109,2230057,,,,,,,2021-12-10,1,,,,,エムティーコーポレーション,0
91,1020003020967,新規,0,2021-12-10,2021-12-10,ファイブピア合同会社,,合同会社,神奈川県,横浜市保土ケ谷区,峰沢町３０７番地２桜美林ハイツＤ－１０５号,,14,106,2400061,,,,,,,2021-12-10,1,,,,,ファイブピア,0
95,1021001074724,新規,0,2021-12-10,2021-12-10,健誠ｓｐｏｒｔｓ株式会社,,株式会社,神奈川県,足柄上郡中井町,松本１４６９－１,,14,361,2590155,,,,,,,2021-12-10,1,,,,,ケンセイスポーツ,0
97,1021003011171,新規,0,2021-12-10,2021-12-10,リベラルアーツ合同会社,,合同会社,神奈川県,相模原市南区,相模大野２丁目５番８号フォーシーズン２０２,,14,153,2520303,,,,,,,2021-12-10,1,,,,,リベラルアーツ,0
98,1021005012382,新規,0,2021-12-10,2021-12-10,医療法人社団ニューロフロンティア,,その他の設立登記法人,神奈川県,厚木市,中町３丁目１２番１６号厚木中町メディカルビル２階,,14,212,2430018,,,,,,,2021-12-10,1,,,,,ニューロフロンティア,0
109,1030001145765,新規,0,2021-12-10,2021-12-10,株式会社ベルティング,,株式会社,埼玉県,所沢市,三ケ島１丁目１６９番地の１,,11,208,3591164,,,,,,,2021-12-10,1,,,,,ベルティング,0
113,1030003018473,新規,0,2021-12-10,2021-12-10,合同会社愛和仮設,,合同会社,埼玉県,川越市,川鶴１丁目９番地１０（サンエイトＣ棟２０１号室）,,11,201,3501176,,,,,,,2021-12-10,1,,,,,アイワカセツ,0
124,1040003019082,新規,0,2021-12-10,2021-12-10,合同会社ＳＫＭ,,合同会社,千葉県,千葉市中央区,登戸１丁目２３番１６号アクアガーデン六羊３０２,,12,101,2600032,,,,,,,2021-12-10,1,,,,,エスケイエム,0
125,1040003019090,新規,0,2021-12-10,2021-12-10,ＡＴＩＴＨＩ合同会社,,合同会社,千葉県,市川市,行徳駅前１丁目３番１６－３０１号（ＷＩＮＤＳ行徳ＩＩ番館）,00125114,12,203,2720133,,,,,,,2021-12-10,1,,,,,アティシー,0
126,1040003019099,新規,0,2021-12-10,2021-12-10,合同会社ＥＰＩＣ,,合同会社,千葉県,千葉市中央区,春日１丁目８番１１号,,12,101,2600033,,,,,,,2021-12-10,1,,,,,エピック,0
131,1050001050286,新規,0,2021-12-10,2021-12-10,株式会社光コーポレーション,,株式会社,茨城県,水戸市,姫子１丁目８４６番地の８サンシャイン姫子Ｃ棟３０３号,,08,201,3114151,,,,,,,2021-12-10,1,,,,,ヒカリコーポレーション,0
144,1080401025513,新規,0,2021-12-10,2021-12-10,株式会社ＫＡＧＵＲＡ,,株式会社,静岡県,浜松市南区,白羽町７３４番地の２,,22,134,4300846,,,,,,,2021-12-10,1,,,,,カグラ,0
166,1120001242413,新規,0,2021-12-10,2021-12-10,株式会社ブルー・ジーン,,株式会社,大阪府,大阪市中央区,南本町２丁目６番５号,,27,128,5410054,,,,,,,2021-12-10,1,,,,,ブルージーン,0
167,1120001242421,新規,0,2021-12-10,2021-12-10,株式会社Ｍ’ｓＨＯＭＥ,,株式会社,大阪府,大阪市北区,天神橋２丁目５番１８号,,27,127,5300041,,,,,,,2021-12-10,1,,,,,エムズホーム,0
175,1120003020734,新規,0,2021-12-10,2021-12-10,合同会社ＬＤＡ,,合同会社,大阪府,大阪市東淀川区,淡路１丁目１９番１０号,,27,114,5330032,,,,,,,2021-12-10,1,,,,,エルディーエー,0
176,1120003020750,新規,0,2021-12-10,2021-12-10,合同会社ウィッシングウェル,,合同会社,大阪府,大阪市中央区,南本町１丁目５番１５－４０５号,,27,128,5410054,,,,,,,2021-12-10,1,,,,,ウィッシングウェル,0
177,1120101064765,新規,0,2021-12-10,2021-12-10,株式会社コットンハウス,,株式会社,大阪府,貝塚市,北町２９番３号,,27,208,5970011,,,,,,,2021-12-10,1,,,,,コットンハウス,0
178,1120101064773,新規,0,2021-12-10,2021-12-10,株式会社グラウクス,,株式会社,大阪府,堺市北区,蔵前町３丁１０番５２号,,27,146,5918004,,,,,,,2021-12-10,1,,,,,グラウクス,0
188,1130001070680,新規,0,2021-12-10,2021-12-10,株式会社こころキッチンＪＰ,,株式会社,京都府,京都市左京区,下鴨上川原町１３番地６,,26,103,6060812,,,,,,,2021-12-10,1,,,,,ココロキッチンジェーピー,0
190,1130005016333,新規,0,2021-12-10,2021-12-10,一般社団法人Ｗｅ,,その他の設立登記法人,京都府,京都市南区,西九条比永城町５９番地,,26,107,6018437,,,,,,,2021-12-10,1,,,,,ウィー,0
193,1140001124155,新規,0,2021-12-10,2021-12-10,エーデル開発株式会社,,株式会社,兵庫県,伊丹市,荒牧１丁目１８番２２ー２号,,28,207,6640001,,,,,,,2021-12-10,1,,,,,エーデルカイハツ,0
202,1180001149082,新規,0,2021-12-10,2021-12-10,丸福産業株式会社,,株式会社,愛知県,一宮市,萩原町朝宮字上平４番地１,,23,203,4910354,,,,,,,2021-12-10,1,,,,,マルフクサンギョウ,0
204,1180005019546,新規,0,2021-12-10,2021-12-10,一般社団法人年金ポイントシステム,,その他の設立登記法人,愛知県,名古屋市東区,徳川２丁目１８番３号,,23,102,4610025,,,,,,,2021-12-10,1,,,,,ネンキンポイントシステム,0
208,1200001039520,新規,0,2021-12-10,2021-12-10,株式会社ききょうや,,株式会社,岐阜県,岐阜市,則武東３丁目１３番１号,,21,201,5020929,,,,,,,2021-12-10,1,,,,,キキョウヤ,0
212,1220003003167,新規,0,2021-12-10,2021-12-10,ＬｉｉＡ合同会社,,合同会社,石川県,金沢市,錦町ミ９番地１５,,17,201,9200952,,,,,,,2021-12-10,1,,,,,リーア,0
219,1250001019294,新規,0,2021-12-10,2021-12-10,株式会社ｋａｋｅ,,株式会社,山口県,光市,中島田１丁目２１番２１号,,35,210,7430064,,,,,,,2021-12-10,1,,,,,カケ,0
222,1260001036306,新規,0,2021-12-10,2021-12-10,株式会社優栄ホーム,,株式会社,岡山県,倉敷市,児島赤崎２丁目２番１０号,,33,202,7110931,,,,,,,2021-12-10,1,,,,,ユウエイホーム,0
225,1270001008411,新規,0,2021-12-10,2021-12-10,株式会社八瀬河建材,,株式会社,鳥取県,八頭郡八頭町,稲荷２２２番地８,,31,329,6800424,,,,,,,2021-12-10,1,,,,,ハセガワケンザイ,0
240,1290001095704,新規,0,2021-12-10,2021-12-10,ＭＢＩＺＡ株式会社,,株式会社,福岡県,福岡市中央区,天神２丁目３番１０号,,40,133,8100001,,,,,,,2021-12-10,1,,,,,エムビザ,0
246,1290003011931,新規,0,2021-12-10,2021-12-10,合同会社Ｔｒｉｎｉｔｙ,,合同会社,福岡県,福岡市城南区,七隈２丁目２１番１９号,,40,136,8140133,,,,,,,2021-12-10,1,,,,,トリニティー,0
263,1360001029720,新規,0,2021-12-10,2021-12-10,株式会社西崎パークＳＳ,,株式会社,沖縄県,糸満市,西崎町３丁目２２２番地,,47,210,9010306,,,,,,,2021-12-10,1,,,,,ニシザキパークエスエス,0
264,1360001029737,新規,0,2021-12-10,2021-12-10,株式会社ＩＤＥＡ,,株式会社,沖縄県,那覇市,識名３丁目３番２５号１３０２,,47,201,9020078,,,,,,,2021-12-10,1,,,,,イデア,0
265,1360003011635,新規,0,2021-12-10,2021-12-10,合同会社くらしデザイン,,合同会社,沖縄県,浦添市,港川２丁目３２番２－５０２号サザンパレス浦添港川１号棟,,47,208,9012134,,,,,,,2021-12-10,1,,,,,クラシデザイン,0
267,1370001047928,新規,0,2021-12-10,2021-12-10,株式会社Ｔｒａｄｅ　ＬｉｎＸ,,株式会社,宮城県,仙台市太白区,緑ケ丘４丁目３番１５号,,04,104,9820021,,,,,,,2021-12-10,1,,,,,トレードリンクス,0
268,1370001047936,新規,0,2021-12-10,2021-12-10,エスプラス株式会社,,株式会社,宮城県,仙台市青葉区,大町２丁目１０番１３号,,04,101,9800804,,,,,,,2021-12-10,1,,,,,エスプラス,0
295,1430001085541,新規,0,2021-12-10,2021-12-10,株式会社ＣＨＩＬＬ＆ＳＴＡＹ,,株式会社,北海道,札幌市東区,北三十二条東４丁目２－１０－３０１,,01,103,0650032,,,,,,,2021-12-10,1,,,,,チルアンドステイ,0
296,1430001085558,新規,0,2021-12-10,2021-12-10,株式会社Ｈａｍｍｙ’ｓ,,株式会社,北海道,砂川市,西四条南４丁目１番５号,,01,226,0730144,,,,,,,2021-12-10,1,,,,,ハミーズ,0
298,1430003013434,新規,0,2021-12-10,2021-12-10,合同会社おん,,合同会社,北海道,江別市,野幌末広町３９番地５の１０６,,01,217,0690815,,,,,,,2021-12-10,1,,,,,オン,0
299,1430003013442,新規,0,2021-12-10,2021-12-10,合同会社サークル,,合同会社,北海道,札幌市手稲区,西宮の沢一条３丁目５番１１号,,01,109,0060001,,,,,,,2021-12-10,1,,,,,サークル,0
300,1440005002715,新規,0,2021-12-10,2021-12-10,一般社団法人Ｒｏｏｔｓ,,その他の設立登記法人,北海道,函館市,山の手２丁目２５番１４号,,01,202,0410836,,,,,,,2021-12-10,1,,,,,ルーツ,0
308,1700150106203,新規,0,2021-12-10,2021-12-10,専光寺新町会,,その他,石川県,金沢市,専光寺町ハ６２番地３,,17,201,9200356,,,,,,,2021-12-10,1,,,,,センコウジシンチヨウカイ,0
322,2010001223027,新規,0,2021-12-10,2021-12-10,株式会社Ｇｅｍｓ　Ａｓｓｅｔ,,株式会社,東京都,千代田区,平河町１丁目１番８号,,13,101,1020093,,,,,,,2021-12-10,1,,,,,ジェムズアセット,0
323,2010001223118,新規,0,2021-12-10,2021-12-10,株式会社ライズセミコン,,株式会社,東京都,中央区,日本橋３丁目６番２号１階,,13,102,1030027,,,,,,,2021-12-10,1,,,,,ライズセミコン,0
324,2010001223126,新規,0,2021-12-10,2021-12-10,株式会社千代田インベスト,,株式会社,東京都,千代田区,丸の内３丁目１番１号,,13,101,1000005,,,,,,,2021-12-10,1,,,,,チヨダインベスト,0
325,2010001223150,新規,0,2021-12-10,2021-12-10,株式会社ミナミ,,株式会社,東京都,千代田区,鍛冶町２丁目３番１４号フェリスビル１階,,13,101,1010044,,,,,,,2021-12-10,1,,,,,ミナミ,0
330,2010003036419,新規,0,2021-12-10,2021-12-10,合同会社Ｄａｉｋｉｃｈｉ,,合同会社,東京都,文京区,千石２丁目３２番６－４０３号,,13,105,1120011,,,,,,,2021-12-10,1,,,,,ダイキチ,0
331,2010003036518,新規,0,2021-12-10,2021-12-10,合同会社すわんびゅうてぃ,,合同会社,東京都,中央区,銀座１丁目２２番１１号銀座大竹ビジデンス２階,,13,102,1040061,,,,,,,2021-12-10,1,,,,,スワンビュウティ,0
338,2010401164333,新規,0,2021-12-10,2021-12-10,株式会社ダイサンエネルギー１１,,株式会社,東京都,港区,浜松町１丁目２番１２号,,13,103,1050013,,,,,,,2021-12-10,1,,,,,ダイサンエネルギーイレブン,0
339,2010401164374,新規,0,2021-12-10,2021-12-10,株式会社Ｖｃａｓｔ,,株式会社,東京都,港区,芝２丁目３０番６号ファインラック芝６０１,,13,103,1050014,,,,,,,2021-12-10,1,,,,,ブイキャスト,0
340,2010401164382,新規,0,2021-12-10,2021-12-10,株式会社ＹＩＮＳＴＡＮＴ,,株式会社,東京都,港区,南青山２丁目２番１５号,,13,103,1070062,,,,,,,2021-12-10,1,,,,,インスタント,0
343,2010403026688,新規,0,2021-12-10,2021-12-10,合同会社４０２,,合同会社,東京都,港区,南青山２丁目２－１５,,13,103,1070062,,,,,,,2021-12-10,1,,,,,ヨンマルニ,0
357,2010901049975,新規,0,2021-12-10,2021-12-10,株式会社アソシアル,,株式会社,東京都,世田谷区,桜３丁目１６番７ドウェルフジ５０３号,,13,112,1560053,,,,,,,2021-12-10,1,,,,,,0
360,2010905004233,新規,0,2021-12-10,2021-12-10,一般社団法人ピックアッププレイグラウンド,,その他の設立登記法人,東京都,世田谷区,駒沢４丁目１９番１３号ヴェルデール駒沢１階,,13,112,1540012,,,,,,,2021-12-10,1,,,,,ピックアッププレイグラウンド,0
365,2011001144345,新規,0,2021-12-10,2021-12-10,Ｄｅｏｒｙ株式会社,,株式会社,東京都,目黒区,五本木３丁目２６番４号,,13,110,1530053,,,,,,,2021-12-10,1,,,,,デオリー,0
366,2011001144452,新規,0,2021-12-10,2021-12-10,株式会社ＢＯＳＳ,,株式会社,東京都,目黒区,柿の木坂３丁目８番１７号ＢｌｏｅｍｅｎＫａｋｉｎｏｋｉｚａｋａ－１１,,13,110,1520022,,,,,,,2021-12-10,1,,,,,ボス,0
376,2011201023472,新規,0,2021-12-10,2021-12-10,株式会社Ｒｅｘｐｅｒｔ,,株式会社,東京都,中野区,新井２丁目４－８－１Ｂ,,13,114,1650026,,,,,,,2021-12-10,1,,,,,レクスパート,0
379,2011403003520,新規,0,2021-12-10,2021-12-10,８ｆｉｎｉｔｙ合同会社,,合同会社,東京都,板橋区,東新町１丁目２２番８－３０３号,,13,119,1740074,,,,,,,2021-12-10,1,,,,,エンフィニティ,0
386,2012805003075,新規,0,2021-12-10,2021-12-10,たまらん坂税理士法人,,その他の設立登記法人,東京都,国立市,東２丁目８番地２,,13,215,1860002,,,,,,,2021-12-10,1,,,,,タマランザカ,0
399,2020001144255,新規,0,2021-12-10,2021-12-10,株式会社ユリズン,,株式会社,神奈川県,横浜市鶴見区,市場大和町５番３号３０１,,14,101,2300025,,,,,,,2021-12-10,1,,,,,ユリズン,0
400,2020001144263,新規,0,2021-12-10,2021-12-10,株式会社ＤＳＳ　Ｃｏｎｎｅｃｔｉｏｎｓ,,株式会社,神奈川県,川崎市川崎区,浜町３丁目６番５号,,14,131,2100851,,,,,,,2021-12-10,1,,,,,ディーエスエスコネクションズ,0
407,2020003020966,新規,0,2021-12-10,2021-12-10,ＡＮＳＣＣ　ＬＴＤ合同会社,,合同会社,神奈川県,横浜市西区,平沼１丁目１３番１９号,,14,103,2200023,,,,,,,2021-12-10,1,,,,,アンシーエルティディ,0
412,2021001074715,新規,0,2021-12-10,2021-12-10,森久保ＣＡメディカル株式会社,,株式会社,神奈川県,厚木市,中町３丁目１１番１８号,,14,212,2430018,,,,,,,2021-12-10,1,,,,,モリクボシーエーメディカル,0
418,2021003011170,新規,0,2021-12-10,2021-12-10,合同会社アイソトープグラウンド,,合同会社,神奈川県,中郡二宮町,山西２６９番地,,14,342,2590124,,,,,,,2021-12-10,1,,,,,アイソトープグラウンド,0
419,2021005012373,新規,0,2021-12-10,2021-12-10,医療法人社団有心会,,その他の設立登記法人,神奈川県,三浦市,栄町８番５,,14,210,2380236,,,,,,,2021-12-10,1,,,,,ユウシンカイ,0
420,2021005012381,新規,0,2021-12-10,2021-12-10,医療法人社団慶悠会,,その他の設立登記法人,神奈川県,茅ヶ崎市,幸町２０番１号茅ヶ崎三紫ビル１０１号室,,14,207,2530052,,,,,,,2021-12-10,1,,,,,ケイユウカイ,0
425,2030001145715,新規,0,2021-12-10,2021-12-10,株式会社大菊コーポレーション,,株式会社,埼玉県,吉川市,大字拾壱軒８２番,,11,243,3420007,,,,,,,2021-12-10,1,,,,,オオギクコーポレーション,0
426,2030001145797,新規,0,2021-12-10,2021-12-10,株式会社ｉＮＯＴＯＱ,,株式会社,埼玉県,さいたま市浦和区,北浦和３丁目２番１０号,,11,107,3300074,,,,,,,2021-12-10,1,,,,,,0
435,2040001121319,新規,0,2021-12-10,2021-12-10,株式会社イグニスディ,,株式会社,千葉県,市原市,姉崎９７２番地,,12,219,2990111,,,,,,,2021-12-10,1,,,,,イグニスディ,0
438,2040005021457,新規,0,2021-12-10,2021-12-10,財団法人松戸市開発協会,,その他の設立登記法人,千葉県,松戸市,根本３６３番地,,12,207,2710077,,,,,,,2021-12-10,1,,,,,,0
452,2080103002479,新規,0,2021-12-10,2021-12-10,合同会社ｒｉｖｅｒ‐ｐａｒｔｎｅｒｓ,,合同会社,静岡県,熱海市,咲見町７‐２２‐Ｂ８０６,,22,205,4130019,,,,,,,2021-12-10,1,,,,,リバーパートナーズ,0
473,2120001242362,新規,0,2021-12-10,2021-12-10,株式会社Ｌｏｖｅ＆Ｂｅｅｆ,,株式会社,大阪府,大阪市中央区,日本橋２丁目２０番１１－９０３号,,27,128,5420073,,,,,,,2021-12-10,1,,,,,ラブアンドビーフ,0
482,2120905006243,新規,0,2021-12-10,2021-12-10,一般社団法人ＳｕｉｔａＳＳＴタウンマネジメント,,その他の設立登記法人,大阪府,吹田市,岸部中５丁目２番２号,,27,205,5640002,,,,,,,2021-12-10,1,,,,,スイタエスエスティタウンマネジメント,0
489,2130003007630,新規,0,2021-12-10,2021-12-10,西枝ファミリー合同会社,00125117,合同会社,京都府,京都市上京区,寺町通今出川上る五丁目西入桜木町３９４,,26,102,6020000,,,,,,,2021-12-10,1,,,,,ニシエダファミリー,0
497,2140001124154,新規,0,2021-12-10,2021-12-10,株式会社ＵｎｉｃｏｒｎＨｏｕｓｉｎｇ,,株式会社,兵庫県,神戸市東灘区,森北町２丁目２番２４号１Ｆ,,28,101,6580001,,,,,,,2021-12-10,1,,,,,ユニコーンハウジング,0
499,2140003017075,新規,0,2021-12-10,2021-12-10,合同会社明栄,,合同会社,兵庫県,尼崎市,七松町２丁目７番８号,,28,202,6600052,,,,,,,2021-12-10,1,,,,,メイエイ,0
500,2140003017083,新規,0,2021-12-10,2021-12-10,合同会社マカロニ,,合同会社,兵庫県,尼崎市,善法寺町２２－６,,28,202,6610973,,,,,,,2021-12-10,1,,,,,マカロニ,0
504,2160001023866,新規,0,2021-12-10,2021-12-10,株式会社本間工業,,株式会社,滋賀県,草津市,南笠町１９０４番地３６,,25,206,5250056,,,,,,,2021-12-10,1,,,,,ホンマコウギョウ,0
515,2190003003839,新規,0,2021-12-10,2021-12-10,合同会社あのつ不動産,,合同会社,三重県,津市,豊が丘３丁目１４番１０号,,24,201,5142222,,,,,,,2021-12-10,1,,,,,アノツフドウサン,0
520,2220001024585,新規,0,2021-12-10,2021-12-10,株式会社ｌｕｘ,,株式会社,石川県,鳳珠郡能登町,字松波１１字３番地２,,17,463,9270602,,,,,,,2021-12-10,1,,,,,ルークス,0
526,2230003001771,新規,0,2021-12-10,2021-12-10,キトシマ合同会社,,合同会社,富山県,富山市,若竹町６丁目３８番地,,16,201,9398181,,,,,,,2021-12-10,1,,,,,キトシマ,0
539,2250001019293,新規,0,2021-12-10,2021-12-10,株式会社ＬＣ総研,,株式会社,山口県,美祢市,大嶺町北分９３８番地,,35,213,7592211,,,,,,,2021-12-10,1,,,,,エルシーソウケン,0
555,2350001017460,新規,0,2021-12-10,2021-12-10,株式会社石田電業,,株式会社,宮崎県,宮崎市,大字本郷北方２５９９番地４,,45,201,8800925,,,,,,,2021-12-10,1,,,,,イシダデンギョウ,0
557,2350003003987,新規,0,2021-12-10,2021-12-10,ワールドトレードホールディングス合同会社,,合同会社,宮崎県,宮崎市,大橋２丁目１７５番地グランべレオ大橋１０３号,,45,201,8800022,,,,,,,2021-12-10,1,,,,,ワールドトレードホールディングス,0
561,2360001029703,新規,0,2021-12-10,2021-12-10,株式会社ｙｉｎｋ,,株式会社,沖縄県,那覇市,字田原８６番地－２０３号,,47,201,9010156,,,,,,,2021-12-10,1,,,,,インク,0
562,2360001029736,新規,0,2021-12-10,2021-12-10,株式会社ａｃｅ　ｅｓｔａｔｅ,,株式会社,沖縄県,沖縄市,東２丁目１番１０号照喜名ビル２０２号室,,47,211,9042154,,,,,,,2021-12-10,1,,,,,エースエステート,0
567,2370005010410,新規,0,2021-12-10,2021-12-10,医療法人あかま皮膚科クリニック,,その他の設立登記法人,宮城県,岩沼市,桜２丁目４番１号,,04,211,9892433,,,,,,,2021-12-10,1,,,,,アカマヒフカクリニック,0
585,2430003013441,新規,0,2021-12-10,2021-12-10,合同会社あそびざかり,,合同会社,北海道,千歳市,支笏湖温泉番外地市営住宅湖畔団地６号棟１９号,,01,224,0660281,,,,,,,2021-12-10,1,,,,,アソビザカリ,0
595,2480003001771,新規,0,2021-12-10,2021-12-10,合同会社きり組,,合同会社,徳島県,徳島市,川内町竹須賀１６１番地,,36,201,7710141,,,,,,,2021-12-10,1,,,,,キリグミ,0
596,2490003001606,新規,0,2021-12-10,2021-12-10,合同会社エステート３３,,合同会社,高知県,高知市,中秦泉寺２２５－１,,39,201,7800021,,,,,,,2021-12-10,1,,,,,エステートサンジュウサン,0
602,2700150106185,新規,0,2021-12-10,2021-12-10,ピー・エイ・イー・ガバメント・サービシズ・インク,,外国会社等,東京都,港区,芝公園１丁目３番１０号,,13,103,1050011,アメリカ合衆国バージニア州アーリントン市ノースコートハウスロード１３２０スイート７００,,,,,,2021-12-10,1,,,,,ピーエイイーガバメントサービシズインク,0
610,3010001223001,新規,0,2021-12-10,2021-12-10,Ｒｅｉｔｅｃｈ株式会社,,株式会社,東京都,千代田区,岩本町３丁目１番５号スミトー神田岩本町ビル,,13,101,1010032,,,,,,,2021-12-10,1,,,,,レイテック,0
611,3010001223075,新規,0,2021-12-10,2021-12-10,Ａｂｃａｄｏ株式会社,,株式会社,東京都,千代田区,大手町１丁目７番２号東京サンケイビル２７階,,13,101,1000004,,,,,,,2021-12-10,1,,,,,アボカド,0
613,3010003036491,新規,0,2021-12-10,2021-12-10,合同会社ＣＡＮＮＡＬＡＢＯ,,合同会社,東京都,千代田区,神田佐久間町３丁目２１番地５ヒガシカンダビル３０７号,,13,101,1010025,,,,,,,2021-12-10,1,,,,,カンナラボ,0
614,3010003036509,新規,0,2021-12-10,2021-12-10,ＬＵＣＩＡＮ１３合同会社,,合同会社,東京都,千代田区,丸の内１丁目８番２号,,13,101,1000005,,,,,,,2021-12-10,1,,,,,ルシアンジュウサン,0
615,3010003036517,新規,0,2021-12-10,2021-12-10,合同会社ＣＡＴ,,合同会社,東京都,文京区,本郷６丁目２４番９－１２０３号,,13,105,1130033,,,,,,,2021-12-10,1,,,,,シーエーティー,0
626,3010401164175,新規,0,2021-12-10,2021-12-10,株式会社三葉,,株式会社,東京都,港区,赤坂２丁目１３－１８コリンズ３３ビル５Ｆ－Ｍ室,,13,103,1070052,,,,,,,2021-12-10,1,,,,,ミツバ,0
627,3010401164349,新規,0,2021-12-10,2021-12-10,株式会社エウテニア,,株式会社,東京都,港区,六本木３丁目２番１号,,13,103,1060032,,,,,,,2021-12-10,1,,,,,エウテニア,0
628,3010401164373,新規,0,2021-12-10,2021-12-10,悠翔株式会社,,株式会社,東京都,港区,西新橋３丁目９番１号,,13,103,1050003,,,,,,,2021-12-10,1,,,,,ユウショウ,0
637,3010601060372,新規,0,2021-12-10,2021-12-10,株式会社オー・アイ,,株式会社,東京都,墨田区,東墨田２丁目９番７号,,13,107,1310042,,,,,,,2021-12-10,1,,,,,オーアイ,0
642,3010703006034,新規,0,2021-12-10,2021-12-10,合同会社せと,,合同会社,東京都,品川区,北品川１丁目２３番１７号,,13,109,1400001,,,,,,,2021-12-10,1,,,,,セト,0
653,3011001144427,新規,0,2021-12-10,2021-12-10,スタイルウォッチ株式会社,,株式会社,東京都,渋谷区,恵比寿西１丁目３－５,,13,113,1500021,,,,,,,2021-12-10,1,,,,,スタイルウォッチ,0
654,3011001144468,新規,0,2021-12-10,2021-12-10,株式会社ＴＡＭＥＳＥＲＵ,,株式会社,東京都,渋谷区,神宮前６丁目２３番４号桑野ビル２階,,13,113,1500001,,,,,,,2021-12-10,1,,,,,タメセル,0
657,3011301027406,新規,0,2021-12-10,2021-12-10,株式会社むすびクリエイション,,株式会社,東京都,杉並区,浜田山３丁目３２番３号,,13,115,1680065,,,,,,,2021-12-10,1,,,,,ムスビクリエイション,0
659,3011401023899,新規,0,2021-12-10,2021-12-10,株式会社ブリッジ,,株式会社,東京都,板橋区,坂下３丁目３２番２号,,13,119,1740043,,,,,,,2021-12-10,1,,,,,ブリッジ,0
665,3011801040049,新規,0,2021-12-10,2021-12-10,株式会社末広商会,,株式会社,東京都,足立区,青井２丁目２８番１８号,,13,121,1200012,,,,,,,2021-12-10,1,,,,,スエヒロショウカイ,0
678,3020001144295,新規,0,2021-12-10,2021-12-10,株式会社ラペズホース,,株式会社,神奈川県,横浜市鶴見区,駒岡３丁目３－４３,,14,101,2300071,,,,,,,2021-12-10,1,,,,,ラペズホース,0
682,3020003020949,新規,0,2021-12-10,2021-12-10,ＳＴＡＢＬＥＲ　ＥＣ合同会社,,合同会社,神奈川県,横浜市青葉区,あざみ野４丁目３７番地５ミルクリークあざみ野Ｂ－２０２,,14,117,2250011,,,,,,,2021-12-10,1,,,,,ステイブラーイーシー,0
683,3020003020957,新規,0,2021-12-10,2021-12-10,合同会社ＪＯＩＮ　Ｘ　ＵＳ,,合同会社,神奈川県,横浜市鶴見区,東寺尾中台１－１１－４０１,,14,101,2300017,,,,,,,2021-12-10,1,,,,,ジョイナス,0
685,3020005015303,新規,0,2021-12-10,2021-12-10,一般社団法人計算機と自然,,その他の設立登記法人,神奈川県,川崎市高津区,溝口２丁目１３番５号,,14,134,2130001,,,,,,,2021-12-10,1,,,,,ケイサンキトシゼン,0
697,3030003018471,新規,0,2021-12-10,2021-12-10,合同会社心,,合同会社,埼玉県,川口市,在家町３－１０－１０２,,11,203,3330863,,,,,,,2021-12-10,1,,,,,ココロ,0
705,3040001121268,新規,0,2021-12-10,2021-12-10,株式会社ｍｉｒａｉｋｕ,,株式会社,千葉県,浦安市,入船１丁目５番２号プライムタワー新浦安５Ｆ,,12,227,2790012,,,,,,,2021-12-10,1,,,,,ミライク,0
706,3040001121318,新規,0,2021-12-10,2021-12-10,株式会社アーベルワン,,株式会社,千葉県,市原市,姉崎９７２番地,,12,219,2990111,,,,,,,2021-12-10,1,,,,,アーベルワン,0
707,3040001121326,新規,0,2021-12-10,2021-12-10,株式会社木と冬,,株式会社,千葉県,柏市,若柴１７８番地４柏の葉キャンパス１４８街区２ショップ＆オフィス棟６Ｆ,,12,217,2770871,,,,,,,2021-12-10,1,,,,,キトフユ,0
720,3060001034360,新規,0,2021-12-10,2021-12-10,株式会社グロー,,株式会社,栃木県,小山市,大字羽川８３４番地４３,,09,208,3230012,,,,,,,2021-12-10,1,,,,,グロー,0
727,3070001038724,新規,0,2021-12-10,2021-12-10,ＺＳ株式会社,,株式会社,群馬県,伊勢崎市,境中島３６１番地１１,,10,204,3700133,,,,,,,2021-12-10,1,,,,,ゼットエス,0
746,3110001036260,新規,0,2021-12-10,2021-12-10,株式会社スポーツヘルスコミュニケーション,,株式会社,新潟県,新潟市中央区,万代島５－１万代島ビル１１Ｆ,,15,103,9500078,,,,,,,2021-12-10,1,,,,,スポーツヘルスコミュニケーション,0
775,3120101064763,新規,0,2021-12-10,2021-12-10,株式会社ＷＨＩＴＥ　ＣＯＬＬＡＲ,,株式会社,大阪府,堺市西区,鳳東町７丁７６０番地１２,,27,144,5938324,,,,,,,2021-12-10,1,,,,,ホワイトカラー,0
796,3140001124129,新規,0,2021-12-10,2021-12-10,株式会社ｔｅｅｏ,,株式会社,兵庫県,神戸市東灘区,御影郡家２丁目８番３７号,,28,101,6580048,,,,,,,2021-12-10,1,,,,,ティーオ,0
797,3140001124145,新規,0,2021-12-10,2021-12-10,Ａｎ　ｇａｌ－ｔａ株式会社,,株式会社,兵庫県,西宮市,甲陽園日之出町６番６３－２０１号,,28,204,6620014,,,,,,,2021-12-10,1,,,,,アンガルタ,0
799,3140003017090,新規,0,2021-12-10,2021-12-10,シャーウッド・フォレスト合同会社,,合同会社,兵庫県,明石市,東朝霧丘４番１０号,,28,203,6730854,,,,,,,2021-12-10,1,,,,,シャーウッドフォレスト,0
810,3180001149031,新規,0,2021-12-10,2021-12-10,株式会社新興,,株式会社,愛知県,春日井市,関田町１丁目３５番地,,23,206,4860855,,,,,,,2021-12-10,1,,,,,シンコウ,0
811,3180001149080,新規,0,2021-12-10,2021-12-10,株式会社ファクトリー,,株式会社,愛知県,名古屋市昭和区,福江３丁目５番１５－２１１号,,23,107,4660059,,,,,,,2021-12-10,1,,,,,ファクトリー,0
812,3180001149089,新規,0,2021-12-10,2021-12-10,株式会社ＳＩＮＳＥＩ,,株式会社,愛知県,名古屋市緑区,水広３丁目３０６,,23,114,4580848,,,,,,,2021-12-10,1,,,,,シンセイ,0
814,3180005019544,新規,0,2021-12-10,2021-12-10,一般社団法人誰もが永遠に輝くプロジェクト,,その他の設立登記法人,愛知県,名古屋市守山区,松坂町１５３番地グリーン松坂３Ａ,,23,113,4630007,,,,,,,2021-12-10,1,,,,,ダレモガトワニカガヤクプロジェクト,0
826,3200003005394,新規,0,2021-12-10,2021-12-10,合同会社オレンジがーねっと,,合同会社,岐阜県,岐阜市,野一色２丁目１４番１４号,,21,201,5008226,,,,,,,2021-12-10,1,,,,,オレンジガーネット,0
842,3280001008581,新規,0,2021-12-10,2021-12-10,株式会社ＳＯＰＨＩＡ　ＷＩＮＤ,,株式会社,島根県,松江市,東出雲町出雲郷１７１５番地３,,32,201,6990108,,,,,,,2021-12-10,1,,,,,ソフィアウインド,0
854,3290003011921,新規,0,2021-12-10,2021-12-10,合同会社ＧＨカンパニー,,合同会社,福岡県,福岡市中央区,渡辺通３丁目３番１５－３０２号シャルマン天神南,,40,133,8100004,,,,,,,2021-12-10,1,,,,,ジーエイチカンパニー,0
855,3290005018444,新規,0,2021-12-10,2021-12-10,ＪＲ九州プライベートリート投資法人,,その他の設立登記法人,福岡県,福岡市博多区,博多駅前２丁目８番１２号,,40,132,8120011,,,,,,,2021-12-10,1,,,,,ジェイアールキュウシュウプライベートリート,0
856,3290005018452,新規,0,2021-12-10,2021-12-10,医療法人仙道会,,その他の設立登記法人,福岡県,福岡市中央区,桜坂２丁目９番２１号栗山ビル１Ｆ,,40,133,8100024,,,,,,,2021-12-10,1,,,,,センドウカイ,0
866,3350003003986,新規,0,2021-12-10,2021-12-10,アンドハナ合同会社,,合同会社,宮崎県,都城市,妻ケ丘町７街区１号,,45,202,8850033,,,,,,,2021-12-10,1,,,,,アンドハナ,0
868,3360001029727,新規,0,2021-12-10,2021-12-10,Ｆｅｒｉｓａ株式会社,,株式会社,沖縄県,那覇市,首里赤平町１丁目５０番地３知念方４階,,47,201,9030811,,,,,,,2021-12-10,1,,,,,フェリサ,0
869,3360001029735,新規,0,2021-12-10,2021-12-10,株式会社ＳＩＡ,,株式会社,沖縄県,那覇市,前島３丁目２５番２号泊ポートビル５Ｆ,,47,201,9000016,,,,,,,2021-12-10,1,,,,,エスアイエー,0
870,3360003011625,新規,0,2021-12-10,2021-12-10,合同会社グランシヤトー,,合同会社,沖縄県,那覇市,首里石嶺町３丁目８３番地２パレスキャッスルＹＯＵ４－Ｂ,,47,201,9030804,,,,,,,2021-12-10,1,,,,,グランシヤトー,0
871,3360003011641,新規,0,2021-12-10,2021-12-10,Ｓｕｎｒｉｓｅ　Ｓｅｒｖｉｃｅｓ合同会社,,合同会社,沖縄県,沖縄市,胡屋５丁目２６－１６丸中アパートＢ－３０１,,47,211,9040021,,,,,,,2021-12-10,1,,,,,サンライズサービシス,0
877,3370001047892,新規,0,2021-12-10,2021-12-10,株式会社畠山興業,,株式会社,宮城県,仙台市青葉区,国見ケ丘３丁目１７番地の３,,04,101,9893201,,,,,,,2021-12-10,1,,,,,ハタケヤマコウギョウ,0
878,3370001047926,新規,0,2021-12-10,2021-12-10,Ｉ’ｌｌ　Ｒｅｂｏｒｎ株式会社,,株式会社,宮城県,大崎市,古川大幡字月蔵４６番地２,,04,215,9896114,,,,,,,2021-12-10,1,,,,,アイルリボーン,0
905,3430003013440,新規,0,2021-12-10,2021-12-10,合同会社Ｂｅｉｊｕ,,合同会社,北海道,千歳市,北陽６丁目１８番３号,,01,224,0660032,,,,,,,2021-12-10,1,,,,,ベイジュ,0
911,3700150106168,新規,0,2021-12-10,2021-12-10,Ｉｎｔｅｒｎａｔｉｏｎａｌ　Ｐｈａｒｍａｃｅｕｔｉｃａｌ　Ｓｅｒｖｉｃｅｓ，　Ｉｎｃ．,,外国会社等,東京都,渋谷区,本町３丁目５１番３号,,13,113,1510071,アメリカ合衆国カリフォルニア州サンマテオ市ウェスト３７ｔｈアベニュー３番１２号,,,,,,2021-12-10,1,,,,,インターナショナルファーマシューティカルサービシズインク,0
925,4010001223116,新規,0,2021-12-10,2021-12-10,株式会社Ｒｅｓｕｍｅ,,株式会社,東京都,千代田区,岩本町３丁目１１番８－４０１号,,13,101,1010032,,,,,,,2021-12-10,1,,,,,レジューム,0
926,4010003036516,新規,0,2021-12-10,2021-12-10,Ｎｕｐｕｒｉ　Ｈｏｌｄｉｎｇｓ合同会社,,合同会社,東京都,千代田区,丸の内３丁目１番１号東京共同会計事務所内,,13,101,1000005,,,,,,,2021-12-10,1,,,,,ヌプリホールディングス,0
933,4010401164199,新規,0,2021-12-10,2021-12-10,シュテルクスト株式会社,,株式会社,東京都,港区,赤坂４丁目８番１９号赤坂フロントタウン３階,,13,103,1070052,,,,,,,2021-12-10,1,,,,,シュテルクスト,0
934,4010403026686,新規,0,2021-12-10,2021-12-10,Ｇｌｏｂａｌ　Ｃｏｍｍｕｎｉｃａｔｉｏｎ合同会社,,合同会社,東京都,港区,赤坂９丁目２－１４－３０３,,13,103,1070052,,,,,,,2021-12-10,1,,,,,グローバルコミュニケーション,0
938,4010501048186,新規,0,2021-12-10,2021-12-10,株式会社Ｌｕｃｙ,,株式会社,東京都,台東区,上野６丁目８番１９号,,13,106,1100005,,,,,,,2021-12-10,1,,,,,ルーシー,0
951,4010703006033,新規,0,2021-12-10,2021-12-10,合同会社ウィズアース,,合同会社,東京都,品川区,北品川１丁目２３番１７号,,13,109,1400001,,,,,,,2021-12-10,1,,,,,ウィズアース,0
953,4010801032567,新規,0,2021-12-10,2021-12-10,株式会社うか,,株式会社,東京都,大田区,東六郷３丁目１２番８号,,13,111,1440046,,,,,,,2021-12-10,1,,,,,ウカ,0
958,4010901049940,新規,0,2021-12-10,2021-12-10,ＵＤｅｓｉｇｎ株式会社,,株式会社,東京都,世田谷区,深沢３丁目１１番７号,,13,112,1580081,,,,,,,2021-12-10,1,,,,,ユーデザイン,0
959,4010901049973,新規,0,2021-12-10,2021-12-10,株式会社ＯＨＡＮＡ,,株式会社,東京都,世田谷区,経堂１丁目１６番１２号,,13,112,1560052,,,,,,,2021-12-10,1,,,,,オハナ,0
965,4011001144450,新規,0,2021-12-10,2021-12-10,株式会社ネクストリンク,,株式会社,東京都,渋谷区,渋谷３丁目１番９号ＹＡＺＡＷＡビル３階,,13,113,1500002,,,,,,,2021-12-10,1,,,,,ネクストリンク,0
975,4011201023470,新規,0,2021-12-10,2021-12-10,株式会社ＡＮＧＥ,,株式会社,東京都,中野区,中野５丁目１７番７号,,13,114,1640001,,,,,,,2021-12-10,1,,,,,アンジェ,0
976,4011403003519,新規,0,2021-12-10,2021-12-10,斉藤商事合同会社,,合同会社,東京都,板橋区,東山町２３番１５号,,13,119,1740073,,,,,,,2021-12-10,1,,,,,サイトウショウジ,0
988,4012401038639,新規,0,2021-12-10,2021-12-10,株式会社Ｓａｎｄ　Ｂａｎｋ,,株式会社,東京都,多摩市,桜ヶ丘１丁目６０番地３３号,,13,224,2060013,,,,,,,2021-12-10,1,,,,,サンドバンク,0
1002,4020001144286,新規,0,2021-12-10,2021-12-10,株式会社ロゼッタビーム,,株式会社,神奈川県,横浜市泉区,和泉町５６２７番地１,,14,116,2450016,,,,,,,2021-12-10,1,,,,,ロゼッタビーム,0
1003,4020001144294,新規,0,2021-12-10,2021-12-10,株式会社ＧＯＥＮ,,株式会社,神奈川県,横浜市神奈川区,新浦島町１丁目１番地１号ベイステージ横浜４３２－３３２号室,,14,102,2210031,,,,,,,2021-12-10,1,,,,,ゴエン,0
1008,4020003020948,新規,0,2021-12-10,2021-12-10,フロンティアジャパン合同会社,,合同会社,神奈川県,横浜市中区,桜木町１丁目１０１番地１クロスゲート７Ｆ,,14,104,2310062,,,,,,,2021-12-10,1,,,,,フロンティアジャパン,0
1009,4020003020964,新規,0,2021-12-10,2021-12-10,ＳＡＭＡＮＩ　ＴＲＡＤＩＮＧ合同会社,,合同会社,神奈川県,川崎市宮前区,野川本町２丁目４－５１,,14,136,2160041,,,,,,,2021-12-10,1,,,,,サマニトレーデイング,0
1026,4030001145779,新規,0,2021-12-10,2021-12-10,株式会社ケイショウ,,株式会社,埼玉県,飯能市,南町３番３号,,11,209,3570036,,,,,,,2021-12-10,1,,,,,ケイショウ,0
1037,4040001121317,新規,0,2021-12-10,2021-12-10,笑顔のコミュニティー株式会社,,株式会社,千葉県,千葉市中央区,今井２丁目１３番５号,,12,101,2600834,,,,,,,2021-12-10,1,,,,,エガオノコミュニティー,0
1040,4040003019096,新規,0,2021-12-10,2021-12-10,タートル合同会社,,合同会社,千葉県,柏市,旭町１丁目３番１４号第３東和ビル３Ｆ,,12,217,2770852,,,,,,,2021-12-10,1,,,,,タートル,0
1043,4060001034368,新規,0,2021-12-10,2021-12-10,株式会社日光園藝,,株式会社,栃木県,日光市,木和田島１７５５,,09,206,3212345,,,,,,,2021-12-10,1,,,,,,0
1057,4110001036251,新規,0,2021-12-10,2021-12-10,ＩＭパレス株式会社,,株式会社,新潟県,南魚沼市,黒土１０１番地７,,15,226,9497242,,,,,,,2021-12-10,1,,,,,アイエムパレス,0
1075,4120001242435,新規,0,2021-12-10,2021-12-10,宏華貿易株式会社,,株式会社,大阪府,大阪市浪速区,下寺２丁目４番１６号,,27,111,5560001,,,,,,,2021-12-10,1,,,,,ヒロカボウエキ,0
1076,4120001242451,新規,0,2021-12-10,2021-12-10,株式会社三起工業製作所,,株式会社,大阪府,大阪市城東区,東中浜６丁目９番２０号三起工業製作所,,27,118,5360023,,,,,,,2021-12-10,1,,,,,サンキコウギョウセイサクショ,0
1080,4120005022651,新規,0,2021-12-10,2021-12-10,一般社団法人キャン・イット,,その他の設立登記法人,大阪府,大阪市中央区,南本町２丁目６番５号,,27,128,5410054,,,,,,,2021-12-10,1,,,,,キャンイット,0
1081,4120101064770,新規,0,2021-12-10,2021-12-10,ＵＫ開拓株式会社,,株式会社,大阪府,藤井寺市,大井３丁目１２番１２号,,27,226,5830008,,,,,,,2021-12-10,1,,,,,ユーケーカイタク,0
1088,4130001070686,新規,0,2021-12-10,2021-12-10,株式会社石原泰西堂,,株式会社,京都府,京都市伏見区,桃山毛利長門西町４７番地１,,26,109,6120064,,,,,,,2021-12-10,1,,,,,イシハラタイセイドウ,0
1089,4130001070694,新規,0,2021-12-10,2021-12-10,株式会社片桐写真型,,株式会社,京都府,京都市南区,吉祥院長田町４２番地２,,26,107,6018362,,,,,,,2021-12-10,1,,,,,カタギリシャシンカタ,0
1099,4140001124144,新規,0,2021-12-10,2021-12-10,株式会社和,,株式会社,兵庫県,西宮市,甲子園網引町２番３－１０８号,,28,204,6638156,,,,,,,2021-12-10,1,,,,,ナゴミ,0
1100,4140001124152,新規,0,2021-12-10,2021-12-10,株式会社ｏｆｆｉｃｅ　ｔａｎａｋａ,,株式会社,兵庫県,神戸市東灘区,甲南台３番１５－２号,,28,101,6580002,,,,,,,2021-12-10,1,,,,,オフィスタナカ,0
1102,4160001023864,新規,0,2021-12-10,2021-12-10,株式会社ｂｌｏｏｍ,,株式会社,滋賀県,大津市,長等３丁目１番１２号ジョイプレイス浜大津３０２号,,25,201,5200046,,,,,,,2021-12-10,1,,,,,ブルーム,0
1115,4180001149088,新規,0,2021-12-10,2021-12-10,株式会社東海ワーク,,株式会社,愛知県,半田市,中午町３番地の３－１００２号,,23,205,4750037,,,,,,,2021-12-10,1,,,,,トウカイワーク,0
1118,4180003023274,新規,0,2021-12-10,2021-12-10,合同会社くらら,,合同会社,愛知県,名古屋市北区,西味鋺３丁目２２１番地の４,,23,103,4620016,,,,,,,2021-12-10,1,,,,,クララ,0
1126,4180305009269,新規,0,2021-12-10,2021-12-10,一般社団法人アクアテクニカルアカデミー,,その他の設立登記法人,愛知県,豊橋市,西幸町字浜池３３２番５,,23,201,4418113,,,,,,,2021-12-10,1,,,,,アクアテクニカルアカデミー,0
1154,4290003011929,新規,0,2021-12-10,2021-12-10,合同会社アクア,,合同会社,福岡県,福岡市南区,塩原３丁目１７番１４号ウエストヒルズ３０１,,40,134,8150032,,,,,,,2021-12-10,1,,,,,アクア,0
1156,4290005018451,新規,0,2021-12-10,2021-12-10,医療法人尚志会,,その他の設立登記法人,福岡県,福岡市早良区,次郎丸４丁目４番４１号,,40,137,8140165,,,,,,,2021-12-10,1,,,,,ショウシカイ,0
1167,4330001029266,新規,0,2021-12-10,2021-12-10,ムライチ株式会社,,株式会社,熊本県,八代市,鏡町中島１００６番地,,43,202,8694214,,,,,,,2021-12-10,1,,,,,ムライチ,0
1172,4350001017459,新規,0,2021-12-10,2021-12-10,株式会社ＣＣＳ,,株式会社,宮崎県,宮崎市,大字本郷南方３２３１番地３,,45,201,8800921,,,,,,,2021-12-10,1,,,,,シーシーエス,0
1178,4360003011624,新規,0,2021-12-10,2021-12-10,合同会社仁開発,,合同会社,沖縄県,沖縄市,泡瀬４丁目１３番６号メゾンかりゆし２０２,,47,211,9042172,,,,,,,2021-12-10,1,,,,,ジンカイハツ,0
1179,4370001047917,新規,0,2021-12-10,2021-12-10,株式会社ＧＥＮＯＤＡＳ,,株式会社,宮城県,仙台市青葉区,荒巻字青葉４６８－１東北大学マテリアル・イノベーション・センター青葉山ガレージ内,,04,101,9800845,,,,,,,2021-12-10,1,,,,,ゲノダス,0
1195,4380003005070,新規,0,2021-12-10,2021-12-10,合同会社ＷＡ‐ＷＡ,,合同会社,福島県,相馬市,中村字塚田６２－７２,,07,209,9760042,,,,,,,2021-12-10,1,,,,,ワーワ,0
1211,4430003013423,新規,0,2021-12-10,2021-12-10,合同会社中野渡清掃,,合同会社,北海道,札幌市南区,藤野三条７丁目２－１８伊藤ビル２０５号,,01,106,0612283,,,,,,,2021-12-10,1,,,,,ナカノワタリセイソウ,0
1235,5010001223107,新規,0,2021-12-10,2021-12-10,株式会社アイエスシーシー,,株式会社,東京都,千代田区,神田駿河台２丁目１番１９号,,13,101,1010062,,,,,,,2021-12-10,1,,,,,アイエスシーシー,0
1236,5010001223115,新規,0,2021-12-10,2021-12-10,Ｍ’ｓＳ　ｃｕｂｅ株式会社,,株式会社,東京都,文京区,向丘２丁目２３番１号,,13,105,1130023,,,,,,,2021-12-10,1,,,,,エムエスキューブ,0
1237,5010001223123,新規,0,2021-12-10,2021-12-10,アイ・エル・シー株式会社,,株式会社,東京都,千代田区,丸の内１丁目９番１号,,13,101,1000005,,,,,,,2021-12-10,1,,,,,アイエルシー,0
1242,5010003036507,新規,0,2021-12-10,2021-12-10,合同会社Ｏａｋｗｏｏｄ　Ｓｕｉｔｅｓ　Ｙｏｋｏｈａｍａ,,合同会社,東京都,千代田区,丸の内３丁目１番１号東京共同会計事務所内,,13,101,1000005,,,,,,,2021-12-10,1,,,,,オークウッドスイーツヨコハマ,0
1243,5010005034319,新規,0,2021-12-10,2021-12-10,ジェイコアレジ４一般社団法人,,その他の設立登記法人,東京都,千代田区,丸の内３丁目１番１号東京共同会計事務所内,,13,101,1000005,,,,,,,2021-12-10,1,,,,,ジェイコアレジフォー,0
1254,5010401164090,新規,0,2021-12-10,2021-12-10,株式会社Ｚｅｐｏｃｈ,,株式会社,東京都,港区,赤坂９丁目６－４２パレドール乃木坂２０２,,13,103,1070052,,,,,,,2021-12-10,1,,,,,ゼポック,0
1255,5010401164272,新規,0,2021-12-10,2021-12-10,サン共同アセットマネジメント株式会社,,株式会社,東京都,港区,南青山１丁目１番１号新青山ビル東館１５階,,13,103,1070062,,,,,,,2021-12-10,1,,,,,サンキョウドウアセットマネジメント,0
1256,5010401164355,新規,0,2021-12-10,2021-12-10,ＮＥＫＵＴ株式会社,,株式会社,東京都,港区,北青山３丁目６－７青山パラシオタワー１１Ｆ,,13,103,1070061,,,,,,,2021-12-10,1,,,,,ネクト,0
1267,5010803003978,新規,0,2021-12-10,2021-12-10,合同会社ノファ,,合同会社,東京都,大田区,北嶺町３１番１６号,,13,111,1450073,,,,,,,2021-12-10,1,,,,,ノファ,0
1269,5010903006988,新規,0,2021-12-10,2021-12-10,合同会社ＦＩＲＥ,,合同会社,東京都,世田谷区,松原１丁目４１－１０エトワール明大前１０７,,13,112,1560043,,,,,,,2021-12-10,1,,,,,ファイア,0
1276,5011001144458,新規,0,2021-12-10,2021-12-10,株式会社３ｄｉｇ,,株式会社,東京都,渋谷区,代官山町１番１号グラバ代官山Ｂ１,,13,113,1500034,,,,,,,2021-12-10,1,,,,,スリーディグ,0
1277,5011001144532,新規,0,2021-12-10,2021-12-10,ＥＫＣ株式会社,,株式会社,東京都,渋谷区,神宮前２丁目１３番１８号,,13,113,1500001,,,,,,,2021-12-10,1,,,,,イーケーシー,0
1279,5011101097102,新規,0,2021-12-10,2021-12-10,株式会社クロス・ワン,,株式会社,東京都,新宿区,西新宿４丁目２番３号タイセイ西新宿ビル２階,,13,104,1600023,,,,,,,2021-12-10,1,,,,,クロスワン,0
1286,5011303004244,新規,0,2021-12-10,2021-12-10,合同会社Ｔ．Ｉ．Ｔ,,合同会社,東京都,杉並区,高円寺南５丁目３９番１２号メールハイツ３０３,,13,115,1660003,,,,,,,2021-12-10,1,,,,,ティーアイティー,0
1318,5020001144285,新規,0,2021-12-10,2021-12-10,株式会社ネクステージ榎本,,株式会社,神奈川県,横浜市港南区,日野２丁目１番１３号,,14,111,2340051,,,,,,,2021-12-10,1,,,,,ネクステージエノモト,0
1319,5020001144293,新規,0,2021-12-10,2021-12-10,株式会社エターシア,,株式会社,神奈川県,横浜市港北区,新吉田東７丁目１７番２４号漆原ライブコーポ綱島２０１,,14,109,2230058,,,,,,,2021-12-10,1,,,,,エターシア,0
1327,5021001074720,新規,0,2021-12-10,2021-12-10,株式会社スパイス,,株式会社,神奈川県,相模原市南区,東林間２丁目２２番１２号２Ｆ,,14,153,2520311,,,,,,,2021-12-10,1,,,,,スパイス,0
1341,5040003019095,新規,0,2021-12-10,2021-12-10,合同会社小田嶋総合設備,,合同会社,千葉県,市川市,相之川１丁目１０番４号,,12,203,2720143,,,,,,,2021-12-10,1,,,,,オダジマソウゴウセツビ,0
1352,5050001050282,新規,0,2021-12-10,2021-12-10,株式会社マルコ興産,,株式会社,茨城県,常総市,新石下１６１番地,,08,211,3002706,,,,,,,2021-12-10,1,,,,,マルココウサン,0
1360,5060001034367,新規,0,2021-12-10,2021-12-10,井出株式会社,,株式会社,栃木県,小山市,大字出井８２４番地１,,09,208,3230808,,,,,,,2021-12-10,1,,,,,イデ,0
1366,5080001024622,新規,0,2021-12-10,2021-12-10,Ｋ２マネジメント株式会社,,株式会社,静岡県,静岡市葵区,東１丁目１１番８号,,22,101,4200962,,,,,,,2021-12-10,1,,,,,ケイツーマネジメント,0
1370,5080105006203,新規,0,2021-12-10,2021-12-10,一般社団法人静岡富士山ガイド協会,,その他の設立登記法人,静岡県,富士宮市,山宮９４８番地５１,,22,207,4180111,,,,,,,2021-12-10,1,,,,,シズオカフジサンガイドキョウカイ,0
1403,5120001242319,新規,0,2021-12-10,2021-12-10,株式会社Ｍｓ,,株式会社,大阪府,寝屋川市,萱島信和町２９番２３号,,27,215,5720829,,,,,,,2021-12-10,1,,,,,エムズ,0
1404,5120001242418,新規,0,2021-12-10,2021-12-10,株式会社西洋茶館,,株式会社,大阪府,大阪市北区,天神橋４丁目６番１４号,,27,127,5300041,,,,,,,2021-12-10,1,,,,,セイヨウサカン,0
1405,5120001242442,新規,0,2021-12-10,2021-12-10,株式会社ＷＥＥＴＨ,,株式会社,大阪府,大阪市東住吉区,今林２丁目８番２９号,,27,121,5460001,,,,,,,2021-12-10,1,,,,,ウィズ,0
1406,5120001242450,新規,0,2021-12-10,2021-12-10,株式会社アイコム総研,,株式会社,大阪府,大阪市東成区,大今里西１丁目６－３３直井ハイツ４０３,,27,115,5370014,,,,,,,2021-12-10,1,,,,,アイコムソウケン,0
1412,5120005022650,新規,0,2021-12-10,2021-12-10,一般社団法人ジャパンアイブロウライセンス協会,,その他の設立登記法人,大阪府,大阪市中央区,安土町２丁目３－１３大阪国際ビルディング３１階,,27,128,5410052,,,,,,,2021-12-10,1,,,,,ジャパンアイブロウライセンスキョウカイ,0
1420,5122001035421,新規,0,2021-12-10,2021-12-10,ＥＩＮＳ株式会社,,株式会社,大阪府,東大阪市,日下町６丁目７番９号,,27,227,5798003,,,,,,,2021-12-10,1,,,,,エインス,0
1433,5140001124127,新規,0,2021-12-10,2021-12-10,ＴｒｕｓｔＩｎｎｏｖａｔｉｏｎ株式会社,,株式会社,兵庫県,神戸市長田区,庄田町３丁目１番１８号,,28,106,6530035,,,,,,,2021-12-10,1,,,,,トラストイノベーション,0
1434,5140001124143,新規,0,2021-12-10,2021-12-10,株式会社ＳＴＭ,,株式会社,兵庫県,川西市,多田院１丁目８番１号,,28,217,6660126,,,,,,,2021-12-10,1,,,,,エスティーエム,0
1440,5150003002560,新規,0,2021-12-10,2021-12-10,パインヒルトラベル合同会社,,合同会社,奈良県,生駒市,東旭ケ丘１６－５３、１階南２,,29,209,6300254,,,,,,,2021-12-10,1,,,,,パインヒルトラベル,0
1446,5180001149054,新規,0,2021-12-10,2021-12-10,ＮＴＰ名古屋トヨペット株式会社,,株式会社,愛知県,名古屋市熱田区,尾頭町２番２２号,,23,109,4560017,,,,,,,2021-12-10,1,,,,,エヌティーピーナゴヤトヨペット,0
1447,5180001149095,新規,0,2021-12-10,2021-12-10,株式会社ｇｏｏｄ　ｅｆｆｅｃｔ,,株式会社,愛知県,名古屋市東区,東片端町３３番地の１,,23,102,4610015,,,,,,,2021-12-10,1,,,,,グッドエフェクト,0
1459,5200001039517,新規,0,2021-12-10,2021-12-10,Ｎｉｋｋｏ－Ｅｓｔａｔｅ株式会社,,株式会社,岐阜県,岐阜市,柳津町上佐波４丁目６５番地,,21,201,5016121,,,,,,,2021-12-10,1,,,,,ニッコーエステート,0
1464,5220001024590,新規,0,2021-12-10,2021-12-10,株式会社中川,,株式会社,石川県,加賀市,松が丘１丁目２０番地の２２,,17,206,9220436,,,,,,,2021-12-10,1,,,,,ナカガワ,0
1468,5240001059040,新規,0,2021-12-10,2021-12-10,株式会社ミナミ建設,,株式会社,広島県,広島市西区,己斐上３丁目５２番２５号,,34,104,7330815,,,,,,,2021-12-10,1,,,,,ミナミケンセツ,0
1481,5290005018442,新規,0,2021-12-10,2021-12-10,久留米藍草生産者協同組合,,その他の設立登記法人,福岡県,久留米市,高良内町１０６番地の１５,,40,203,8390852,,,,,,,2021-12-10,1,,,,,クルメアイグサセイサンシャ,0
1495,5340001024323,新規,0,2021-12-10,2021-12-10,向日葵株式会社,,株式会社,鹿児島県,指宿市,湯の浜１丁目２－３,,46,210,8910406,,,,,,,2021-12-10,1,,,,,ヒマワリ,0
1538,5470001018865,新規,0,2021-12-10,2021-12-10,株式会社オカシス,,株式会社,香川県,仲多度郡琴平町,川東１６３番地９,,37,403,7660002,,,,,,,2021-12-10,1,,,,,オカシス,0
1541,5480003001769,新規,0,2021-12-10,2021-12-10,合同会社ひな組,,合同会社,徳島県,徳島市,川内町竹須賀１６１番地,,36,201,7710141,,,,,,,2021-12-10,1,,,,,ヒナグミ,0
1542,5500005008438,新規,0,2021-12-10,2021-12-10,一般社団法人潮の鳴る丘,,その他の設立登記法人,愛媛県,今治市,伯方町叶浦甲７８０番地,,38,202,7942302,,,,,,,2021-12-10,1,,,,,シオノナルオカ,0
1544,5700150106199,新規,0,2021-12-10,2021-12-10,Ｕｎｉｏｎ　Ｈａｒｄｗａｒｅ　Ｓｔｏｒｅｓ,,外国会社等,千葉県,木更津市,羽鳥野５丁目４番地１２－１階,,12,206,2920819,スリランカ民主社会主義共和国、マダワラバザール、キャンディロード、２２５－２Ａ,,,,,,2021-12-10,1,,,,,ユニオンハードウエアストアーズ,0
1553,6010001223155,新規,0,2021-12-10,2021-12-10,株式会社Ｆｏｒｔｙ－Ｅｉｇｈｔ,,株式会社,東京都,千代田区,神田和泉町一丁目１３番５号,,13,101,1010024,,,,,,,2021-12-10,1,,,,,フォーティーエイト,0
1557,6010003036497,新規,0,2021-12-10,2021-12-10,合同会社４９,,合同会社,東京都,中央区,築地１丁目９番１２号今里ビル３階,,13,102,1040045,,,,,,,2021-12-10,1,,,,,ヨンキュー,0
1558,6010003036514,新規,0,2021-12-10,2021-12-10,ＧＵＲ合同会社,,合同会社,東京都,千代田区,大手町１丁目５番１号,,13,101,1000004,,,,,,,2021-12-10,1,,,,,ジーユーアール,0
1564,6010401164354,新規,0,2021-12-10,2021-12-10,株式会社ＭＡＲＩＮ,,株式会社,東京都,港区,虎ノ門１丁目１６番４号,,13,103,1050001,,,,,,,2021-12-10,1,,,,,マリン,0
1567,6010403026692,新規,0,2021-12-10,2021-12-10,合同会社ゴールドＪ,,合同会社,東京都,港区,虎ノ門３丁目２２番１０－２０１号,,13,103,1050001,,,,,,,2021-12-10,1,,,,,ゴールドジェイ,0
1570,6010601060361,新規,0,2021-12-10,2021-12-10,株式会社ｃａｎ,,株式会社,東京都,墨田区,京島１丁目４３番４号,,13,107,1310046,,,,,,,2021-12-10,1,,,,,カン,0
1583,6011001144498,新規,0,2021-12-10,2021-12-10,株式会社ジャパンリンクエステート,,株式会社,東京都,渋谷区,千駄ヶ谷３丁目３番８号第５スカイビル５０４号,,13,113,1510051,,,,,,,2021-12-10,1,,,,,ジャパンリンクエステート,0
1594,6011401023896,新規,0,2021-12-10,2021-12-10,酒とひなた株式会社,,株式会社,東京都,板橋区,上板橋１丁目６番９号荻原ビル１Ｆ,,13,119,1740076,,,,,,,2021-12-10,1,,,,,サケトヒナタ,0
1601,6011601025593,新規,0,2021-12-10,2021-12-10,株式会社Ｍ’Ｓサービス,,株式会社,東京都,練馬区,北町２丁目３１番３号,,13,120,1790081,,,,,,,2021-12-10,1,,,,,エムズサービス,0
1602,6011603003465,新規,0,2021-12-10,2021-12-10,合同会社ｓｏｒａ,,合同会社,東京都,練馬区,土支田３丁目２０－１７カサベルデ１０３号室,,13,120,1790076,,,,,,,2021-12-10,1,,,,,ソラ,0
1603,6011701024900,新規,0,2021-12-10,2021-12-10,株式会社宏昇,,株式会社,東京都,江戸川区,西小岩１丁目２９－２－２Ｆ,,13,123,1330057,,,,,,,2021-12-10,1,,,,,コウショウ,0
1615,6013301048404,新規,0,2021-12-10,2021-12-10,株式会社イットホールディングス,,株式会社,東京都,豊島区,南池袋３丁目７番８号,,13,116,1710022,,,,,,,2021-12-10,1,,,,,イットホールディングス,0
1623,6020001144160,新規,0,2021-12-10,2021-12-10,ＴｏｋｏＳｏｆｔ株式会社,,株式会社,神奈川県,横浜市鶴見区,鶴見中央２丁目１１番１－１１８号,,14,101,2300051,,,,,,,2021-12-10,1,,,,,トコソフト,0
1624,6020001144301,新規,0,2021-12-10,2021-12-10,株式会社Ｙ－Ｓｔｙｌｅ,,株式会社,神奈川県,横浜市鶴見区,元宮１丁目８番９－３０３号,,14,101,2300004,,,,,,,2021-12-10,1,,,,,ワイスタイル,0
1626,6020003020962,新規,0,2021-12-10,2021-12-10,合同会社石井工務店,,合同会社,神奈川県,横浜市都筑区,荏田南４丁目１番９－２０４号,,14,118,2240007,,,,,,,2021-12-10,1,,,,,イシイコウムテン,0
1629,6021001074728,新規,0,2021-12-10,2021-12-10,ｋｉｎｇｓｍａｎ株式会社,,株式会社,神奈川県,相模原市南区,上鶴間本町７丁目３番３６号,,14,153,2520318,,,,,,,2021-12-10,1,,,,,キングスマン,0
1632,6021003011175,新規,0,2021-12-10,2021-12-10,合同会社一二三商会,,合同会社,神奈川県,茅ヶ崎市,高田４丁目５－６ミルクハウス３０１,,14,207,2530002,,,,,,,2021-12-10,1,,,,,ヒフミショウカイ,0
1651,6040001121323,新規,0,2021-12-10,2021-12-10,株式会社服部急送,,株式会社,千葉県,流山市,東初石２丁目７８番地の１,,12,220,2700114,,,,,,,2021-12-10,1,,,,,ハットリキュウソウ,0
1653,6040003019086,新規,0,2021-12-10,2021-12-10,Ｆａｒｆａｌｌａ合同会社,,合同会社,千葉県,成田市,玉造５丁目２２番地５,,12,211,2860011,,,,,,,2021-12-10,1,,,,,ファルファラ,0
1668,6080105006202,新規,0,2021-12-10,2021-12-10,一般社団法人つなひろ企画,,その他の設立登記法人,静岡県,三島市,芝本町５番３２号野田ビル３Ｆ,,22,206,4110857,,,,,,,2021-12-10,1,,,,,ツナヒロキカク,0
1691,6120001242433,新規,0,2021-12-10,2021-12-10,株式会社ＪＯＵＲＮＥＹ,,株式会社,大阪府,大阪市北区,梅田１丁目１番３号大阪駅前第３ビル２３０７,,27,127,5300001,,,,,,,2021-12-10,1,,,,,ジャーニー,0
1697,6120003020738,新規,0,2021-12-10,2021-12-10,ＬＩＮＥ　ＳＴＡＧＥ合同会社,,合同会社,大阪府,大阪市中央区,本町２丁目３－４アソルティ本町４階,,27,128,5410053,,,,,,,2021-12-10,1,,,,,ラインステージ,0
1698,6120003020754,新規,0,2021-12-10,2021-12-10,合同会社Ｃ．Ｇ．Ｈ,,合同会社,大阪府,大阪市北区,長柄東３丁目２－３－３０８,,27,127,5310063,,,,,,,2021-12-10,1,,,,,シージーエイチ,0
1699,6120003020762,新規,0,2021-12-10,2021-12-10,合同会社グランコラボ,,合同会社,大阪府,大阪市此花区,梅香３丁目２０－６－１００１,,27,104,5540013,,,,,,,2021-12-10,1,,,,,グランコラボ,0
1703,6120101064760,新規,0,2021-12-10,2021-12-10,株式会社森電工,,株式会社,大阪府,堺市美原区,さつき野西２丁目１９番地６,,27,147,5870031,,,,,,,2021-12-10,1,,,,,モリデンコウ,0
1705,6120103004475,新規,0,2021-12-10,2021-12-10,平田照樹堂合同会社,,合同会社,大阪府,堺市西区,鳳南町５丁６００－２松田ビル４階,,27,144,5938325,,,,,,,2021-12-10,1,,,,,ヒラタショウジュドウ,0
1707,6120901045316,新規,0,2021-12-10,2021-12-10,株式会社ＫＩＮＡ,,株式会社,大阪府,高槻市,南平台４丁目３５番１号,,27,207,5691042,,,,,,,2021-12-10,1,,,,,ケーアイエヌエー,0
1726,6140003017088,新規,0,2021-12-10,2021-12-10,バレットエンジニアリング合同会社,,合同会社,兵庫県,神戸市西区,井吹台東町５丁目７２番地の２０,,28,111,6512242,,,,,,,2021-12-10,1,,,,,バレットエンジニアリング,0
1730,6180001148955,新規,0,2021-12-10,2021-12-10,伸宏貿易株式会社,,株式会社,愛知県,名古屋市千種区,丘上町２丁目３４番地の４ハイネスビレッジ４０４号,,23,101,4640837,,,,,,,2021-12-10,1,,,,,ノブヒロボウエキ,0
1733,6180003023280,新規,0,2021-12-10,2021-12-10,合同会社スタープラチナム,,合同会社,愛知県,名古屋市中区,栄５丁目６番２６号いづもビル４Ｆ,,23,106,4600008,,,,,,,2021-12-10,1,,,,,スタープラチナム,0
1736,6180301035696,新規,0,2021-12-10,2021-12-10,株式会社あいやホールディングス,,株式会社,愛知県,西尾市,上町横町屋敷１５番地,,23,213,4450894,,,,,,,2021-12-10,1,,,,,アイヤホールディングス,0
1737,6180301035713,新規,0,2021-12-10,2021-12-10,北戸電機株式会社,,株式会社,愛知県,豊橋市,新栄町字汐焼１５番地５,,23,201,4418016,,,,,,,2021-12-10,1,,,,,ホクトデンキ,0
1739,6190003003843,新規,0,2021-12-10,2021-12-10,ひとみ合同会社,,合同会社,三重県,鳥羽市,池上町２２番１０号,,24,211,5170012,,,,,,,2021-12-10,1,,,,,ヒトミ,0
1745,6210001018725,新規,0,2021-12-10,2021-12-10,株式会社カトー,,株式会社,福井県,福井市,北四ツ居１丁目２１番１０号,,18,201,9188205,,,,,,,2021-12-10,1,,,,,カトー,0
1757,6260001036301,新規,0,2021-12-10,2021-12-10,株式会社ＦＪＮグループ,,株式会社,岡山県,岡山市北区,原２４９番地２,,33,101,7012154,,,,,,,2021-12-10,1,,,,,エフジェイエヌグループ,0
1760,6270005005490,新規,0,2021-12-10,2021-12-10,一般社団法人アフリカの風ＨａｋｕｎａＭａｔａｔａ,,その他の設立登記法人,鳥取県,西伯郡大山町,平田３番地６,,31,386,6893336,,,,,,,2021-12-10,1,,,,,アフリカノカゼハクナマタタ,0
1761,6280001008579,新規,0,2021-12-10,2021-12-10,株式会社Ｎａｎｏ　ｓｈｉｎｅ　Ｃｒｅａｔｉｏｎ,,株式会社,島根県,出雲市,枝大津町１９番地１,,32,203,6930017,,,,,,,2021-12-10,1,,,,,ナノシャインクリエーション,0
1791,6380001032387,新規,0,2021-12-10,2021-12-10,株式会社アーティザン,,株式会社,福島県,耶麻郡猪苗代町,字新上村東３７番地,,07,408,9693100,,,,,,,2021-12-10,1,,,,,アーティザン,0
1801,6430001085553,新規,0,2021-12-10,2021-12-10,株式会社無限商会,,株式会社,北海道,苫小牧市,美原町２丁目８番１５号,,01,213,0591262,,,,,,,2021-12-10,1,,,,,ムゲンショウカイ,0
1818,7010001223088,新規,0,2021-12-10,2021-12-10,株式会社ＲＨ,,株式会社,東京都,中央区,日本橋堀留町１丁目１０番１号２Ｆ,,13,102,1030012,,,,,,,2021-12-10,1,,,,,アールエイチ,0
1819,7010001223105,新規,0,2021-12-10,2021-12-10,株式会社Ｋｏｔｏｄａｍａ,,株式会社,東京都,中央区,勝どき３丁目１２番１２－３０８号,,13,102,1040054,,,,,,,2021-12-10,1,,,,,コトダマ,0
1820,7010001223154,新規,0,2021-12-10,2021-12-10,東京仙貨株式会社,,株式会社,東京都,中央区,東日本橋２丁目２８番５号５０８,,13,102,1030004,,,,,,,2021-12-10,1,,,,,トウキョウセンカ,0
1824,7010003036513,新規,0,2021-12-10,2021-12-10,ＴａｓｋＵｓ　Ｏｕｔｓｏｕｒｃｉｎｇ　Ｊａｐａｎ合同会社,,合同会社,東京都,中央区,日本橋室町４丁目３番９号,,13,102,1030022,,,,,,,2021-12-10,1,,,,,タスクアスアウトソーシングジャパン,0
1834,7010401164378,新規,0,2021-12-10,2021-12-10,株式会社グラン,,株式会社,東京都,港区,赤坂４丁目１３－５赤坂オフィスハイツ１Ｆ２８号室,,13,103,1070052,,,,,,,2021-12-10,1,,,,,グラン,0
1835,7010405020494,新規,0,2021-12-10,2021-12-10,旧九条山浄水場跡地活用特定目的会社,,その他の設立登記法人,東京都,港区,虎ノ門５丁目１番４号,,13,103,1050001,,,,,,,2021-12-10,1,,,,,キュウクジョウヤマジョウスイジョウアトチカツヨウ,0
1837,7010501048200,新規,0,2021-12-10,2021-12-10,株式会社Ｂｅ－Ｄｏ,,株式会社,東京都,台東区,上野６丁目１番６号御徒町グリーンハイツ１００５号,,13,106,1100005,,,,,,,2021-12-10,1,,,,,ビィードゥ,0
1838,7010601060369,新規,0,2021-12-10,2021-12-10,株式会社巻島,,株式会社,東京都,墨田区,太平２丁目９番１２－７０１号,,13,107,1300012,,,,,,,2021-12-10,1,,,,,マキシマ,0
1845,7010901049970,新規,0,2021-12-10,2021-12-10,株式会社ランダム,,株式会社,東京都,世田谷区,太子堂２丁目２番１８－１０１号,,13,112,1540004,,,,,,,2021-12-10,1,,,,,ランダム,0
1847,7010903007002,新規,0,2021-12-10,2021-12-10,合同会社垣外,,合同会社,東京都,世田谷区,代田１丁目２９番４号,,13,112,1550033,,,,,,,2021-12-10,1,,,,,カイト,0
1852,7011001144423,新規,0,2021-12-10,2021-12-10,株式会社ロミクス,,株式会社,東京都,渋谷区,神宮前６丁目２３番４号桑野ビル２階,,13,113,1500001,,,,,,,2021-12-10,1,,,,,ロミクス,0
1853,7011001144448,新規,0,2021-12-10,2021-12-10,株式会社ｋｉｎｇｍａｎ　ｉｎｖｅｓｔｍｅｎｔ　ｐａｒｔｎｅｒｓ,,株式会社,東京都,目黒区,下目黒３丁目２４番１４－６０５号目黒コーポラス,,13,110,1530064,,,,,,,2021-12-10,1,,,,,キングマンインベストメントパートナーズ,0
1854,7011001144472,新規,0,2021-12-10,2021-12-10,株式会社ミンガコ,,株式会社,東京都,渋谷区,神宮前６丁目２３番４号桑野ビル２Ｆ,,13,113,1500001,,,,,,,2021-12-10,1,,,,,ミンガコ,0
1860,7011301027410,新規,0,2021-12-10,2021-12-10,ＴＵＫＡＹＡクリエイト株式会社,,株式会社,東京都,杉並区,浜田山４丁目１４番１６号２０３号室,,13,115,1680065,,,,,,,2021-12-10,1,,,,,ツカヤクリエイト,0
1861,7011303004242,新規,0,2021-12-10,2021-12-10,トクリン合同会社,,合同会社,東京都,杉並区,下井草２丁目３９番７号,,13,115,1670022,,,,,,,2021-12-10,1,,,,,トクリン,0
1863,7011401023895,新規,0,2021-12-10,2021-12-10,株式会社ＮＥＫＯＮＯＴＥ,,株式会社,東京都,板橋区,成増１丁目３５－２５,,13,119,1750094,,,,,,,2021-12-10,1,,,,,ネコノテ,0
1870,7011601025601,新規,0,2021-12-10,2021-12-10,株式会社行政革新,,株式会社,東京都,練馬区,大泉学園町７丁目１４番３４号,,13,120,1780061,,,,,,,2021-12-10,1,,,,,ユキマサカクシン,0
1871,7011701024899,新規,0,2021-12-10,2021-12-10,株式会社浅野輪業,,株式会社,東京都,江戸川区,一之江３丁目２４番３号,,13,123,1320024,,,,,,,2021-12-10,1,,,,,アサノリンギョウ,0
1878,7012403005147,新規,0,2021-12-10,2021-12-10,合同会社ｓａｓａｅ,,合同会社,東京都,調布市,深大寺東町４丁目１番地３９,,13,208,1820012,,,,,,,2021-12-10,1,,,,,ササエ,0
1879,7013101008796,新規,0,2021-12-10,2021-12-10,沿線まるごと株式会社,,株式会社,東京都,西多摩郡奥多摩町,棚澤３９０番地,,13,308,1980106,,,,,,,2021-12-10,1,,,,,エンセンマルゴト,0
1885,7013303005947,新規,0,2021-12-10,2021-12-10,Ｍ２Ｍ合同会社,,合同会社,東京都,豊島区,東池袋５丁目８番５－９０５号,,13,116,1700013,,,,,,,2021-12-10,1,,,,,エムトゥーエム,0
1892,7020001144275,新規,0,2021-12-10,2021-12-10,蘭勝株式会社,,株式会社,神奈川県,横浜市鶴見区,元宮２丁目４－１４リストレジデンス鶴見カレンコート４０７,,14,101,2300004,,,,,,,2021-12-10,1,,,,,ランショウ,0
1893,7020001144291,新規,0,2021-12-10,2021-12-10,Ｋｉｅｗｉｔ　Ｊａｐａｎ株式会社,,株式会社,神奈川県,横浜市西区,北幸１丁目１１番５号相鉄ＫＳビル,,14,103,2200004,,,,,,,2021-12-10,1,,,,,キーウィットジャパン,0
1898,7021001074727,新規,0,2021-12-10,2021-12-10,株式会社草＿工業,00125112,株式会社,神奈川県,綾瀬市,深谷上２丁目１０番２３号サンハイムＦ２０２,,14,218,2521108,,,,,,,2021-12-10,1,,,,,クサナギコウギョウ,0
1905,7021005012377,新規,0,2021-12-10,2021-12-10,一般社団法人インタナティブ・スクール協会,,その他の設立登記法人,神奈川県,藤沢市,片瀬４丁目１６番地２２号,,14,205,2510032,,,,,,,2021-12-10,1,,,,,インタナティブスクールキョウカイ,0
1919,7030003018468,新規,0,2021-12-10,2021-12-10,合同会社ａ＆ｂ,,合同会社,埼玉県,さいたま市北区,東大成町１丁目８３番地１スカイシャイン１０２,,11,102,3310814,,,,,,,2021-12-10,1,,,,,エーアンドビー,0
1930,7040001121306,新規,0,2021-12-10,2021-12-10,株式会社ＥＸＴＥＲＩＯＲ史,,株式会社,千葉県,茂原市,茂原１５５０番地８,,12,210,2970026,,,,,,,2021-12-10,1,,,,,エクステリアフミ,0
1931,7040001121322,新規,0,2021-12-10,2021-12-10,株式会社ＯＮＥ－ＴＯ－ＯＮＥ　Ｐｌｕｓ,,株式会社,千葉県,浦安市,富岡４丁目３番１０号,,12,227,2790021,,,,,,,2021-12-10,1,,,,,ワントゥーワンプラス,0
1932,7040001121330,新規,0,2021-12-10,2021-12-10,株式会社雅ｍｉｙａｂｉ,,株式会社,千葉県,船橋市,夏見５丁目１３番３８号,,12,204,2730865,,,,,,,2021-12-10,1,,,,,ミヤビ,0
1938,7040003018970,新規,0,2021-12-10,2021-12-10,ＶＹＳ　Ｃｅｙｌｏｎｉｃ合同会社,,合同会社,千葉県,野田市,桐ケ作４１５－４,,12,208,2700213,,,,,,,2021-12-10,1,,,,,ブイワイエスセイロニック,0
1975,7120003020729,新規,0,2021-12-10,2021-12-10,Ｎ．ｓｅｅ　ｙｏｕ合同会社,,合同会社,大阪府,枚方市,山之上４丁目６番１１号,,27,210,5730047,,,,,,,2021-12-10,1,,,,,エヌドットシーユー,0
1977,7120101064768,新規,0,2021-12-10,2021-12-10,株式会社オフィスＫ,,株式会社,大阪府,和泉市,いぶき野４丁目１番３－５０８号,,27,219,5940041,,,,,,,2021-12-10,1,,,,,オフィスケイ,0
1978,7120103004474,新規,0,2021-12-10,2021-12-10,合同会社Ｓ－Ｋ－ＪＡＰＡＮ,,合同会社,大阪府,南河内郡太子町,大字太子１５０７番地の１,,27,381,5830995,,,,,,,2021-12-10,1,,,,,エスケージャパン,0
1982,7130001070683,新規,0,2021-12-10,2021-12-10,株式会社ＡＧＩＦＴ,,株式会社,京都府,京都市下京区,新町通四条下る四条町３４７番地の１,,26,106,6008441,,,,,,,2021-12-10,1,,,,,アギフト,0
1992,7140001124133,新規,0,2021-12-10,2021-12-10,株式会社アドティブ,,株式会社,兵庫県,姫路市,町坪５５９－２,,28,201,6700984,,,,,,,2021-12-10,1,,,,,アドティブ,0
1998,7150003002559,新規,0,2021-12-10,2021-12-10,合同会社ｇｏｏｄｎｅｉｇｈｂｏｒｓ　ｎａｒａ,,合同会社,奈良県,生駒市,谷田町８７６－３,,29,209,6300251,,,,,,,2021-12-10,1,,,,,グッドネイバーズナラ,0
2003,7180001149052,新規,0,2021-12-10,2021-12-10,株式会社クレアル,,株式会社,愛知県,常滑市,字長峰四ノ切５番地の６,,23,216,4790049,,,,,,,2021-12-10,1,,,,,クレアル,0
2004,7180001149085,新規,0,2021-12-10,2021-12-10,株式会社ＫＲ＆ＣＯ,,株式会社,愛知県,名古屋市北区,志賀南通２丁目５０番１号クレス黒川７階Ａ号,,23,103,4620842,,,,,,,2021-12-10,1,,,,,ケイアールアンドシーオー,0
2038,7250001019297,新規,0,2021-12-10,2021-12-10,株式会社ヘリオス,,株式会社,山口県,宇部市,大字西岐波１０１３番地,,35,202,7550151,,,,,,,2021-12-10,1,,,,,ヘリオス,0
2052,7290001095599,新規,0,2021-12-10,2021-12-10,株式会社ＴＫ工業,,株式会社,福岡県,大牟田市,山上町４番地１－４０７号,,40,202,8360833,,,,,,,2021-12-10,1,,,,,ティーケイコウギョウ,0
2053,7290001095707,新規,0,2021-12-10,2021-12-10,株式会社Ｍｂｕｉｌｄ,,株式会社,福岡県,八女市,鵜池８２番地２,,40,210,8340055,,,,,,,2021-12-10,1,,,,,エムビルド,0
2058,7290003011926,新規,0,2021-12-10,2021-12-10,Ｋ．Ｋプランニング合同会社,,合同会社,福岡県,古賀市,舞の里３丁目４番６号,,40,223,8113114,,,,,,,2021-12-10,1,,,,,ケイケイプランニング,0
2059,7290005018449,新規,0,2021-12-10,2021-12-10,医療法人医仁会,,その他の設立登記法人,福岡県,福岡市南区,柳河内１丁目２－２,,40,134,8150063,,,,,,,2021-12-10,1,,,,,イジンカイ,0
2068,7330003009164,新規,0,2021-12-10,2021-12-10,合同会社ＡＲＷＩＮ,,合同会社,熊本県,玉名市,繁根木７５番地,,43,206,8650051,,,,,,,2021-12-10,1,,,,,アーウィン,0
2069,7360001029731,新規,0,2021-12-10,2021-12-10,Ｒ＆ＤＧｓ株式会社,,株式会社,沖縄県,沖縄市,池原１丁目６番２９号,,47,211,9042141,,,,,,,2021-12-10,1,,,,,アールアンドディージーズ,0
2070,7360003011646,新規,0,2021-12-10,2021-12-10,合同会社ＳＤＳ,,合同会社,沖縄県,石垣市,字大浜３１８番地,,47,207,9070001,,,,,,,2021-12-10,1,,,,,エスディーエス,0
2074,7370001047930,新規,0,2021-12-10,2021-12-10,株式会社ぽらりす,,株式会社,宮城県,登米市,迫町新田字外沢田３１番地１７,,04,212,9894601,,,,,,,2021-12-10,1,,,,,ポラリス,0
2075,7370005010414,新規,0,2021-12-10,2021-12-10,医療法人佳美会,,その他の設立登記法人,宮城県,仙台市若林区,なないろの里１丁目１９番４号メデルなないろの里１階,,04,103,9840017,,,,,,,2021-12-10,1,,,,,ヨシミカイ,0
2079,7380001032394,新規,0,2021-12-10,2021-12-10,株式会社丸投げ記帳代行,,株式会社,福島県,南相馬市,原町区橋本町３丁目１９番地１,,07,212,9750006,,,,,,,2021-12-10,1,,,,,マルナゲキチョウダイコウ,0
2084,7400005008198,新規,0,2021-12-10,2021-12-10,一般社団法人なないろ,,その他の設立登記法人,岩手県,紫波郡矢巾町,流通センター南４丁目８番１３号,,03,322,0200891,,,,,,,2021-12-10,1,,,,,ナナイロ,0
2088,7430001085544,新規,0,2021-12-10,2021-12-10,株式会社ユニティファーム,,株式会社,北海道,樺戸郡月形町,３８９２番地,,01,430,0610500,,,,,,,2021-12-10,1,,,,,ユニティファーム,0
2102,7470003002089,新規,0,2021-12-10,2021-12-10,合同会社訪問看護ステーション和楽,,合同会社,香川県,さぬき市,大川町富田中３１４２番地２,,37,206,7610902,,,,,,,2021-12-10,1,,,,,ホウモンカンゴステーションワラク,0
2115,8010001223062,新規,0,2021-12-10,2021-12-10,株式会社ＰＬＵＳ　ＩＳＬＡＮＤ,,株式会社,東京都,中央区,京橋３丁目３番２号,,13,102,1040031,,,,,,,2021-12-10,1,,,,,プラスアイランド,0
2116,8010001223087,新規,0,2021-12-10,2021-12-10,株式会社ＰＯＲＴＡＬＦＩＥＬＤ,,株式会社,東京都,千代田区,神田神保町２丁目１３番地神保町藤和ビル６階１０号室,,13,101,1010051,,,,,,,2021-12-10,1,,,,,ポータルフィールド,0
2124,8010401164352,新規,0,2021-12-10,2021-12-10,株式会社サンラサー,,株式会社,東京都,港区,西麻布五丁目２－４０日興パレス南麻布４０１号室,,13,103,1050000,,,,,,,2021-12-10,1,,,,,サンラサー,0
2125,8010401164377,新規,0,2021-12-10,2021-12-10,株式会社Ｊｅｌｌｙ,,株式会社,東京都,港区,東麻布３丁目８－２麻布マルカビル４Ｆ,,13,103,1060044,,,,,,,2021-12-10,1,,,,,ジェリー,0
2127,8010403026617,新規,0,2021-12-10,2021-12-10,ＩＳＭ合同会社,,合同会社,東京都,港区,南青山４丁目１６－１１－１０８号,,13,103,1070062,,,,,,,2021-12-10,1,,,,,イズム,0
2131,8010903007001,新規,0,2021-12-10,2021-12-10,Ｕｎｉ　Ｑｕｅｅｎ　Ａｉｒ合同会社,,合同会社,東京都,世田谷区,駒沢公園１番１号Ｔｏｔｅ駒沢公園３Ｆ,,13,112,1540013,,,,,,,2021-12-10,1,,,,,ユニクイーンエアー,0
2142,8011803004889,新規,0,2021-12-10,2021-12-10,高橋電動自転車研究所合同会社,,合同会社,東京都,葛飾区,西新小岩３丁目８番１３号,,13,122,1240025,,,,,,,2021-12-10,1,,,,,タカハシデンドウジテンシャケンキュウジョ,0
2155,8013303005946,新規,0,2021-12-10,2021-12-10,合同会社ＬＩＮＫ,,合同会社,東京都,豊島区,北大塚１丁目１３番２号ザ・タワーレジデンス大塚,,13,116,1700004,,,,,,,2021-12-10,1,,,,,リンク,0
2168,8020001144274,新規,0,2021-12-10,2021-12-10,Ａ．Ｉ－ＰＬＵＳ株式会社,,株式会社,神奈川県,横浜市神奈川区,菅田町１０１６番地,,14,102,2210864,,,,,,,2021-12-10,1,,,,,エーアイプラス,0
2173,8020003020952,新規,0,2021-12-10,2021-12-10,合同会社日吉史,,合同会社,神奈川県,川崎市中原区,苅宿２０番１２－２０５号,,14,133,2110022,,,,,,,2021-12-10,1,,,,,ヒヨシ,0
2177,8021001074726,新規,0,2021-12-10,2021-12-10,株式会社やまびと,,株式会社,神奈川県,相模原市緑区,青山９１６番地１,,14,151,2520156,,,,,,,2021-12-10,1,,,,,ヤマビト,0
2183,8021005012384,新規,0,2021-12-10,2021-12-10,医療法人社団健創会,,その他の設立登記法人,神奈川県,海老名市,中央３丁目３番１号駅前クリニックモール・ビル２階－Ｂ,,14,215,2430432,,,,,,,2021-12-10,1,,,,,ケンソウカイ,0
2198,8040001121305,新規,0,2021-12-10,2021-12-10,株式会社グラソル,,株式会社,千葉県,長生郡一宮町,東浪見７２６８番地８,,12,421,2994303,,,,,,,2021-12-10,1,,,,,グラソル,0
2199,8040001121321,新規,0,2021-12-10,2021-12-10,株式会社サボイスリー,,株式会社,千葉県,木更津市,富士見２丁目８番１４号,,12,206,2920831,,,,,,,2021-12-10,1,,,,,サボイスリー,0
2224,8080003002697,新規,0,2021-12-10,2021-12-10,Ｃ４Ｃ　ｐｌｕｓ合同会社,,合同会社,静岡県,静岡市駿河区,丸子６丁目４－３５,,22,102,4210103,,,,,,,2021-12-10,1,,,,,シーフォーシープラス,0
2225,8080101022960,新規,0,2021-12-10,2021-12-10,株式会社ＯＳＤ－ＰＲＯ,,株式会社,静岡県,御殿場市,竈１１３７番地の５,,22,215,4120039,,,,,,,2021-12-10,1,,,,,オーエスディープロ,0
2229,8080403004426,新規,0,2021-12-10,2021-12-10,合同会社エマージュ,,合同会社,静岡県,浜松市中区,高丘東５丁目１２番２８号,,22,131,4338117,,,,,,,2021-12-10,1,,,,,エマージュ,0
2244,8120001242431,新規,0,2021-12-10,2021-12-10,株式会社Ｓ＆Ｓメディカルコンサルタント,,株式会社,大阪府,大阪市中央区,瓦町３丁目２番１６号,,27,128,5410048,,,,,,,2021-12-10,1,,,,,エスアンドエスメディカルコンサルタント,0
2245,8120001242448,新規,0,2021-12-10,2021-12-10,株式会社ＹＥＬＬＡＧＥＮＴ,,株式会社,大阪府,大阪市中央区,久太郎町４丁目１番３号大阪センタービル６階１６７,,27,128,5410056,,,,,,,2021-12-10,1,,,,,エールエージェント,0
2249,8120105009487,新規,0,2021-12-10,2021-12-10,行政書士法人アーク法務事務所,,その他の設立登記法人,大阪府,泉南市,樽井１丁目４番６号,,27,228,5900521,,,,,,,2021-12-10,1,,,,,アークホウムジムショ,0
2257,8130005016327,新規,0,2021-12-10,2021-12-10,一般社団法人森緑会,,その他の設立登記法人,京都府,京都市中京区,御幸町通竹屋町上る毘沙門町５５７番地２ＡＣＴ－Ｋビル２階,,26,104,6040981,,,,,,,2021-12-10,1,,,,,シンリョクカイ,0
2258,8130005016335,新規,0,2021-12-10,2021-12-10,アローズ司法書士法人,,その他の設立登記法人,京都府,京都市中京区,西ノ京上平町９番１,,26,104,6048494,,,,,,,2021-12-10,1,,,,,アローズ,0
2269,8140001124132,新規,0,2021-12-10,2021-12-10,株式会社北神圧送,,株式会社,兵庫県,神戸市北区,藤原台南町４丁目２８番１－２０１号,,28,109,6511303,,,,,,,2021-12-10,1,,,,,ホクシンアッソウ,0
2274,8140003017086,新規,0,2021-12-10,2021-12-10,合同会社ふたがみ,,合同会社,兵庫県,神戸市西区,井吹台東町１丁目３番地エリオ西神南２号棟５０４号室,,28,111,6512242,,,,,,,2021-12-10,1,,,,,フタガミ,0
2275,8140003017094,新規,0,2021-12-10,2021-12-10,合同会社Ｓｔａｒｓ,,合同会社,兵庫県,姫路市,東山２１１番地１６,,28,201,6728014,,,,,,,2021-12-10,1,,,,,スターズ,0
2277,8150001025156,新規,0,2021-12-10,2021-12-10,株式会社ファースト,,株式会社,奈良県,生駒郡斑鳩町,龍田北１丁目９番１９号,00125108,29,344,6360151,,,,,,,2021-12-10,1,,,,,ファースト,0
2290,8180001148986,新規,0,2021-12-10,2021-12-10,株式会社ｓｍｉｌｅ,,株式会社,愛知県,名古屋市千種区,四谷通１丁目２２番地,,23,101,4640819,,,,,,,2021-12-10,1,,,,,スマイル,0
2292,8180001149027,新規,0,2021-12-10,2021-12-10,株式会社インセプト,,株式会社,愛知県,日進市,梅森町株山１３５番地,,23,230,4700132,,,,,,,2021-12-10,1,,,,,インセプト,0
2299,8180305009273,新規,0,2021-12-10,2021-12-10,医療法人上医会,,その他の設立登記法人,愛知県,豊田市,和会町稲葉２８番地１,,23,211,4701216,,,,,,,2021-12-10,1,,,,,ジョウイカイ,0
2301,8200001039514,新規,0,2021-12-10,2021-12-10,エバーアクティブ株式会社,,株式会社,岐阜県,郡上市,白鳥町阿多岐１２０４番地,,21,219,5015111,,,,,,,2021-12-10,1,,,,,エバーアクティブ,0
2326,8290001095680,新規,0,2021-12-10,2021-12-10,株式会社レクセルヤマト,,株式会社,福岡県,福岡市博多区,博多駅東３丁目１０番１５号３階,,40,132,8120013,,,,,,,2021-12-10,1,,,,,レクセルヤマト,0
2327,8290001095697,新規,0,2021-12-10,2021-12-10,株式会社ひよねこ,,株式会社,福岡県,久留米市,南１丁目２４番１０号,,40,203,8300051,,,,,,,2021-12-10,1,,,,,ヒヨネコ,0
2328,8290001095706,新規,0,2021-12-10,2021-12-10,株式会社福田商事,,株式会社,福岡県,久留米市,六ツ門町２番地２９ルネッサンス２１久留米六ツ門１４０７号,,40,203,8300031,,,,,,,2021-12-10,1,,,,,フクダショウジ,0
2339,8350001017455,新規,0,2021-12-10,2021-12-10,靖光株式会社,,株式会社,宮崎県,宮崎市,波島１丁目４３番３－８号,,45,201,8800826,,,,,,,2021-12-10,1,,,,,セイコウ,0
2343,8360001029739,新規,0,2021-12-10,2021-12-10,沖悠子株式会社,,株式会社,沖縄県,那覇市,前島３丁目２５番２号泊ポートビル５Ｆ,,47,201,9000016,,,,,,,2021-12-10,1,,,,,オキユウコ,0
2345,8360003011629,新規,0,2021-12-10,2021-12-10,合同会社ＴＡＫＥ３,,合同会社,沖縄県,浦添市,港川２丁目３１番１号,,47,208,9012134,,,,,,,2021-12-10,1,,,,,テイクスリー,0
2346,8360003011645,新規,0,2021-12-10,2021-12-10,合同会社Ｈｅｉｄｉ　Ｈｅｉｄｉ,,合同会社,沖縄県,石垣市,字川平１２１６番地６２１,,47,207,9070453,,,,,,,2021-12-10,1,,,,,ハイディーハイディー,0
2350,8370001047921,新規,0,2021-12-10,2021-12-10,株式会社キンエイ,,株式会社,宮城県,仙台市泉区,北中山１丁目１番地の１７北中山一丁目アパート２０１号,,04,105,9813215,,,,,,,2021-12-10,1,,,,,キンエイ,0
2352,8370005010413,新規,0,2021-12-10,2021-12-10,一般社団法人子育てプラットフォームＭａＲＵ,,その他の設立登記法人,宮城県,仙台市青葉区,大手町２－１０－１３０４,,04,101,9800805,,,,,,,2021-12-10,1,,,,,コソダテプラットフォームマアル,0
2360,8410001013035,新規,0,2021-12-10,2021-12-10,アビオ株式会社,,株式会社,秋田県,仙北郡美郷町,六郷字西高方町１０２番地６０,,05,434,0191404,,,,,,,2021-12-10,1,,,,,アビオ,0
2365,8430001085543,新規,0,2021-12-10,2021-12-10,株式会社涎,,株式会社,北海道,札幌市豊平区,平岸三条３丁目１番２９号,,01,105,0620933,,,,,,,2021-12-10,1,,,,,ヨダレ,0
2376,8700150106205,新規,0,2021-12-10,2021-12-10,ラッキーエンタープライセス,,外国会社等,茨城県,結城市,大字上山川大久保５７１６－２,,08,207,3070021,スリランカ民主社会主義共和国、バダルガマ、ケヘレラ、７０シー,,,,,,2021-12-10,1,,,,,ラツキーエンタープライセス,0
2390,9010001223053,新規,0,2021-12-10,2021-12-10,株式会社ＪＥＫ,,株式会社,東京都,中央区,日本橋人形町１丁目１番５－５０３号,,13,102,1030013,,,,,,,2021-12-10,1,,,,,ジェイイーケー,0
2391,9010001223094,新規,0,2021-12-10,2021-12-10,株式会社Ｓｅｎｓｅ　ｏｆ　Ｗｏｎｄｅｒ,,株式会社,東京都,中央区,銀座７丁目１３番６号サガミビル２Ｆ,,13,102,1040061,,,,,,,2021-12-10,1,,,,,センスオブワンダー,0
2392,9010001223136,新規,0,2021-12-10,2021-12-10,株式会社ＩＫＫＡＮ,,株式会社,東京都,中央区,銀座４丁目１０番１４号ＡＣＮ銀座４ビルディング１１階,,13,102,1040061,,,,,,,2021-12-10,1,,,,,,0
2394,9010003036511,新規,0,2021-12-10,2021-12-10,合同会社Ｄｉｍｐｌｅ,,合同会社,東京都,中央区,新川１丁目９番９号ｄｅ－ｚａｙ５０１,,13,102,1040033,,,,,,,2021-12-10,1,,,,,ディンプル,0
2400,9010403026673,新規,0,2021-12-10,2021-12-10,ｕ’ｉ合同会社,,合同会社,東京都,港区,西麻布２丁目８番２号,,13,103,1060031,,,,,,,2021-12-10,1,,,,,ウイ,0
2414,9010901049952,新規,0,2021-12-10,2021-12-10,株式会社ＨＥＤＩ　ＳＴＵＤＩＯ,,株式会社,東京都,世田谷区,駒沢１丁目５番１６号ＧｒａｎＤｕｏ駒沢ＶＩＩＩ２Ｆ,00125111,13,112,1540012,,,,,,,2021-12-10,1,,,,,エディスタジオ,0
2445,9011701024889,新規,0,2021-12-10,2021-12-10,株式会社クォロ,,株式会社,東京都,江戸川区,西小岩５丁目１１－２２－１１０１,,13,123,1330057,,,,,,,2021-12-10,1,,,,,クォロ,0
2447,9011703003016,新規,0,2021-12-10,2021-12-10,合同会社心成,,合同会社,東京都,江戸川区,東葛西４丁目３３番１号,,13,123,1340084,,,,,,,2021-12-10,1,,,,,シンセイ,0
2452,9011801040051,新規,0,2021-12-10,2021-12-10,株式会社ＢＬＵＥ,,株式会社,東京都,葛飾区,堀切２丁目６６番４号,,13,122,1240006,,,,,,,2021-12-10,1,,,,,ブルー,0
2459,9013301048401,新規,0,2021-12-10,2021-12-10,株式会社ステラセス,,株式会社,東京都,豊島区,南池袋１丁目１６－１５ダイヤゲート池袋５Ｆ,,13,116,1710022,,,,,,,2021-12-10,1,,,,,ステラセス,0
2463,9020003020927,新規,0,2021-12-10,2021-12-10,合同会社ぎゃぷー,,合同会社,神奈川県,横浜市青葉区,奈良３丁目１４番地１あおば山の手台グラン・ジャルダン八番館１００２,,14,117,2270038,,,,,,,2021-12-10,1,,,,,ギャプー,0
2464,9020003020968,新規,0,2021-12-10,2021-12-10,エレナフローラ合同会社,,合同会社,神奈川県,横浜市金沢区,富岡東２丁目５番３０号,,14,108,2360051,,,,,,,2021-12-10,1,,,,,エレナフローラ,0
2467,9021001074691,新規,0,2021-12-10,2021-12-10,株式会社増保,,株式会社,神奈川県,茅ヶ崎市,柳島海岸８番１号４０５号室,,14,207,2530063,,,,,,,2021-12-10,1,,,,,,0
2468,9021001074725,新規,0,2021-12-10,2021-12-10,株式会社Ａｚ,,株式会社,神奈川県,大和市,深見台４丁目１０番１３号・１０６,,14,213,2420013,,,,,,,2021-12-10,1,,,,,アズ,0
2469,9021001074733,新規,0,2021-12-10,2021-12-10,株式会社アイテック,,株式会社,神奈川県,横須賀市,大矢部３丁目３４番１４号,,14,201,2380024,,,,,,,2021-12-10,1,,,,,アイテック,0
2471,9021003011172,新規,0,2021-12-10,2021-12-10,ビセント合同会社,,合同会社,神奈川県,藤沢市,片瀬海岸２丁目１３－１２,,14,205,2510035,,,,,,,2021-12-10,1,,,,,ビセント,0
2478,9030001145766,新規,0,2021-12-10,2021-12-10,株式会社ホヌリード,,株式会社,埼玉県,所沢市,三ケ島１丁目１６９番地の１,,11,208,3591164,,,,,,,2021-12-10,1,,,,,ホヌリード,0
2480,9040001121304,新規,0,2021-12-10,2021-12-10,株式会社ＫＪクリエイト,,株式会社,千葉県,柏市,大津ケ丘１丁目５２－２,,12,217,2770921,,,,,,,2021-12-10,1,,,,,ケイジェークリエイト,0
2481,9040001121320,新規,0,2021-12-10,2021-12-10,株式会社ケーステーション,,株式会社,千葉県,木更津市,富士見２丁目８番１４号,,12,206,2920831,,,,,,,2021-12-10,1,,,,,ケーステーション,0
2486,9040005021459,新規,0,2021-12-10,2021-12-10,ＮＰＯ法人ＳＨＩＮＷＡ,,その他の設立登記法人,千葉県,千葉市中央区,中央１丁目２番１２号,,12,101,2600013,,,,,,,2021-12-10,1,,,,,シンワ,0
2496,9090001017316,新規,0,2021-12-10,2021-12-10,株式会社プレイガーデン,,株式会社,山梨県,中央市,若宮７番地６,,19,214,4093803,,,,,,,2021-12-10,1,,,,,,0
2503,9110005016740,新規,0,2021-12-10,2021-12-10,特定非営利活動法人ほっと犬,,その他の設立登記法人,新潟県,新潟市東区,逢谷内５丁目１５番１０号,00125110,15,102,9500814,,,,,,,2021-12-10,1,,,,,ホットケン,0
2524,9120001242447,新規,0,2021-12-10,2021-12-10,株式会社フォワデザイン,,株式会社,大阪府,大阪市福島区,海老江１丁目５番３０－１４０６号,,27,103,5530001,,,,,,,2021-12-10,1,,,,,フォワデザイン,0
2526,9120003020743,新規,0,2021-12-10,2021-12-10,合同会社トランキット,,合同会社,大阪府,枚方市,三栗２丁目１８－７,,27,210,5731171,,,,,,,2021-12-10,1,,,,,トランキット,0
2527,9120003020751,新規,0,2021-12-10,2021-12-10,合同会社ｉｚｕｍｏ,,合同会社,大阪府,大阪市浪速区,難波中３丁目１４番１６号靖安ビル２０３号室,,27,111,5560011,,,,,,,2021-12-10,1,,,,,イズモ,0
2529,9120103004472,新規,0,2021-12-10,2021-12-10,合同会社はと,,合同会社,大阪府,岸和田市,畑町４丁目３番７号,,27,202,5960831,,,,,,,2021-12-10,1,,,,,ハト,0
2532,9122001035426,新規,0,2021-12-10,2021-12-10,ＡＢＣＷＯＲＬＤＷＩＤＥ株式会社,,株式会社,大阪府,大東市,御領３丁目５番２４号,,27,218,5740064,,,,,,,2021-12-10,1,,,,,エービーシーワールドワイド,0
2538,9130001070632,新規,0,2021-12-10,2021-12-10,株式会社正隆,,株式会社,京都府,京都市左京区,高野西開町３８番地１高野川ハイツ５０２号,,26,103,6068103,,,,,,,2021-12-10,1,,,,,ショウリュウ,0
2541,9140001124131,新規,0,2021-12-10,2021-12-10,株式会社宇宙叶Ｑ,,株式会社,兵庫県,西宮市,高松町１１番１７号パルティール北口４０２,,28,204,6638204,,,,,,,2021-12-10,1,,,,,ソラトーク,0
2542,9140001124148,新規,0,2021-12-10,2021-12-10,株式会社Ｋｃ,,株式会社,兵庫県,神戸市兵庫区,松原通２丁目３－５,,28,105,6520881,,,,,,,2021-12-10,1,,,,,ケイシ,0
2547,9140005025945,新規,0,2021-12-10,2021-12-10,医療法人社団メディテラス,,その他の設立登記法人,兵庫県,尼崎市,南武庫之荘１丁目１２番１号松弥サウスモール１０１号室,,28,202,6610033,,,,,,,2021-12-10,1,,,,,メディテラス,0
2552,9160005011019,新規,0,2021-12-10,2021-12-10,一般社団法人近江シンフォニエッタ,,その他の設立登記法人,滋賀県,大津市,杉浦町４番１号,,25,201,5200836,,,,,,,2021-12-10,1,,,,,オウミシンフォニエッタ,0
2560,9180001149059,新規,0,2021-12-10,2021-12-10,株式会社ＧＯＯＤＹＳ,,株式会社,愛知県,名古屋市中川区,富田町大字榎津字西ナコラ３０３番地の４,,23,110,4540953,,,,,,,2021-12-10,1,,,,,グッディーズ,0
2561,9180001149083,新規,0,2021-12-10,2021-12-10,株式会社ヤマカワ,,株式会社,愛知県,名古屋市西区,山木２丁目１３番地,,23,104,4520833,,,,,,,2021-12-10,1,,,,,ヤマカワ,0
2562,9180003023278,新規,0,2021-12-10,2021-12-10,合同会社ＫＡＰＰＥＲ,,合同会社,愛知県,名古屋市守山区,森孝１丁目１１２８番地の２（ＦｅｌｉｃｅＮ１０２号）,,23,113,4630035,,,,,,,2021-12-10,1,,,,,カッパー,0
2575,9220003003168,新規,0,2021-12-10,2021-12-10,合同会社ＨＧＪ,,合同会社,石川県,河北郡内灘町,字大根布９丁目４６番地,,17,365,9200266,,,,,,,2021-12-10,1,,,,,エイチジージェイ,0
2593,9270001008412,新規,0,2021-12-10,2021-12-10,株式会社由コーポレーション,,株式会社,鳥取県,米子市,河崎３４１６番地２,,31,202,6830852,,,,,,,2021-12-10,1,,,,,ユイコーポレーション,0
2606,9290001095705,新規,0,2021-12-10,2021-12-10,株式会社大成,,株式会社,福岡県,糟屋郡宇美町,桜原１丁目２７番１６号,,40,341,8112109,,,,,,,2021-12-10,1,,,,,タイセイ,0
2611,9310001017623,新規,0,2021-12-10,2021-12-10,株式会社ＳＩＭ,,株式会社,長崎県,諫早市,栄田町２０番３３号,,42,204,8540081,,,,,,,2021-12-10,1,,,,,エスアイエム,0
2621,9360001012339,新規,0,2021-12-10,2021-12-10,株式会社マリブセラーズ,,株式会社,沖縄県,国頭郡恩納村,字山田３０８６番地の１,,47,311,9040416,,,,,,,2021-12-10,1,,,,,マリブセラーズ,0
2623,9360001029738,新規,0,2021-12-10,2021-12-10,株式会社大底,,株式会社,沖縄県,石垣市,字新川４４０番地３,,47,207,9070024,,,,,,,2021-12-10,1,,,,,オオソコ,0
2632,9380001032392,新規,0,2021-12-10,2021-12-10,岩沢工業株式会社,,株式会社,福島県,会津若松市,門田町大字一ノ堰字村西５４８番地の１１,,07,202,9650844,,,,,,,2021-12-10,1,,,,,イワサワコウギョウ,0
2643,9430001085468,新規,0,2021-12-10,2021-12-10,株式会社トレスト,,株式会社,北海道,札幌市西区,琴似二条７丁目２番３５‐３０２号,,01,107,0630812,,,,,,,2021-12-10,1,,,,,トレスト,0
2647,9700150106204,新規,0,2021-12-10,2021-12-10,伊達市堂ノ内地区土地区画整理組合,,その他,福島県,伊達市,原島１０５番地,,07,213,9600404,,,,,,,2021-12-10,1,,,,,ダテシドウノウチチクトチクカクセイリクミアイ,0
