sequenceNumber,corporateNumber,process,correct,updateDate,changeDate,name,nameImageId,kind,prefectureName,cityName,streetNumber,addressImageId,prefectureCode,cityCode,postCode,addressOutside,addressOutsideImageId,closeDate,closeCause,successorCorporateNumber,changeCause,assignmentDate,latest,enName,enPrefectureName,enCityName,enAddressOutside,furigana,hihyoji
7,1010003028086,登記記録の閉鎖等,0,2021-10-25,2021-10-18,チェントミリアルド合同会社,,合同会社,東京都,中央区,日本橋１丁目４番１号日本橋一丁目ビルディング,,13,102,1030027,,,2021-10-18,清算の結了等,,,2018-08-15,1,,,,,チェントミリアルド,0
12,1010401043975,登記記録の閉鎖等,0,2021-10-25,2021-10-21,エムティーシー株式会社,,株式会社,東京都,品川区,東品川３丁目３１番８号,,13,109,1400002,,,2021-10-21,清算の結了等,,,2015-10-05,1,,,,,エムティーシー,0
20,1010501026252,登記記録の閉鎖等,0,2021-10-25,2021-10-22,株式会社イーディーエス,,株式会社,東京都,台東区,池之端２丁目９番４号,,13,106,1100008,,,2021-10-22,清算の結了等,,,2015-10-05,1,,,,,イーディーエス,0
23,1010601026516,登記記録の閉鎖等,0,2021-10-25,2021-10-21,有明マテリアル株式会社,,株式会社,福岡県,大牟田市,西港町１丁目２１番地１,,40,202,8360062,,,2021-10-21,合併による解散等,3290801009910,令和３年１０月１日北九州市八幡西区東浜町１番１号黒崎播磨株式会社（3290801009910）に合併し解散,2015-10-05,1,,,,,アリアケマテリアル,0
30,1010703004246,登記記録の閉鎖等,0,2021-10-25,2021-10-21,合同会社ｍｕｍ,,合同会社,東京都,品川区,荏原３丁目８番１４－１１０４号,,13,109,1420063,,,2021-10-21,清算の結了等,,,2018-05-08,1,,,,,マム,0
39,1010805000325,登記記録の閉鎖等,0,2021-10-25,2021-08-23,天理教大與分教会,,その他の設立登記法人,東京都,大田区,千鳥２丁目１２番１９号,,13,111,1460083,,,2021-08-23,合併による解散等,8010805000335,令和３年８月２３日東京都大田区大森西四丁目４番１０号天理教大森町大教会（8010805000335）に合併し解散,2015-10-05,1,,,,,,0
57,1011202006139,登記記録の閉鎖等,0,2021-10-25,2021-10-06,有限会社エス・シー・コーポレーション,,有限会社,東京都,中野区,中野４丁目４番１１号,,13,114,1640001,,,2021-10-06,清算の結了等,,,2015-10-05,1,,,,,エスシーコーポレーション,0
61,1011501024964,登記記録の閉鎖等,0,2021-10-25,2021-10-08,株式会社２ＦＲ,,株式会社,東京都,渋谷区,渋谷３丁目１番９号ＹＡＺＡＷＡビル３階,,13,113,1500002,,,2021-10-08,清算の結了等,,,2019-07-19,1,,,,,トゥーエフアール,0
75,1020001060701,登記記録の閉鎖等,0,2021-10-25,2021-10-20,株式会社大日建物,,株式会社,神奈川県,横浜市南区,高根町３丁目１７番地２８－５０２号,,14,105,2320022,,,2021-10-20,清算の結了等,,,2015-10-05,1,,,,,ダイニチタテモノ,0
79,1020002061616,登記記録の閉鎖等,0,2021-10-25,2021-10-20,有限会社アイエムエートレードコーポレーション,,有限会社,神奈川県,横浜市栄区,桂台東１３－２７,,14,115,2470032,,,2021-10-20,清算の結了等,,,2015-10-05,1,,,,,アイエムエートレードコーポレーション,0
97,1030001125684,登記記録の閉鎖等,0,2021-10-25,2021-10-14,株式会社ココア,,株式会社,埼玉県,三郷市,東町３７０番地１三郷マンション４０７号,,11,237,3410036,,,2021-10-14,清算の結了等,,,2018-05-15,1,,,,,ココア,0
106,1030002043753,登記記録の閉鎖等,0,2021-10-25,2021-10-15,有限会社加藤商会,,有限会社,埼玉県,草加市,遊馬町１３６番地７,,11,221,3400032,,,2021-10-15,清算の結了等,,,2015-10-05,1,,,,,,0
107,1040001029711,登記記録の閉鎖等,0,2021-10-25,2021-10-18,株式会社ダイワ,,株式会社,千葉県,浦安市,当代島２丁目８番８－１０９号,,12,227,2790001,,,2021-10-18,清算の結了等,,,2015-10-05,1,,,,,ダイワ,0
110,1040001045956,登記記録の閉鎖等,0,2021-10-25,2021-10-15,株式会社フロリアード,,株式会社,千葉県,富里市,十倉３４４番地６,,12,233,2860212,,,2021-10-15,清算の結了等,,,2015-10-05,1,,,,,フロリアード,0
120,1050001011817,登記記録の閉鎖等,0,2021-10-25,2021-10-19,ぱれっと商事株式会社,,株式会社,茨城県,石岡市,石岡２７５２番地１,,08,205,3150001,,,2021-10-19,清算の結了等,,,2015-10-05,1,,,,,パレットショウジ,0
132,1080402005415,登記記録の閉鎖等,0,2021-10-25,2021-10-20,有限会社遠江ブロック,,有限会社,静岡県,浜松市東区,上石田町２６３０番地の１,,22,132,4350001,,,2021-10-20,清算の結了等,,,2015-10-05,1,,,,,トオトウミブロック,0
165,1120101053116,登記記録の閉鎖等,0,2021-10-25,2021-10-21,美速通日本株式会社,,株式会社,大阪府,大阪市中央区,高津３丁目１４番２３号１階,,27,128,5420072,,,2021-10-21,清算の結了等,,,2015-10-05,1,,,,,,0
169,1120901038497,登記記録の閉鎖等,0,2021-10-25,2021-10-21,株式会社大日本建築,,株式会社,大阪府,守口市,橋波西之町２丁目９番１１－５０２号,,27,209,5700039,,,2021-10-21,清算の結了等,,,2017-05-23,1,,,,,,0
192,1140005008511,登記記録の閉鎖等,0,2021-10-25,2021-09-28,天理教大志郷分教会,,その他の設立登記法人,兵庫県,丹波市,山南町谷川１５１８番地,,28,223,6693131,,,2021-09-28,合併による解散等,8140005017134,令和３年９月２８日兵庫県西脇市比延町３１番地天理教比延分教会（8140005017134）に合併し解散,2015-10-05,1,,,,,テンリキョウオオシゴウブンキョウカイ,0
203,1180002017560,登記記録の閉鎖等,0,2021-10-25,2021-10-19,有限会社エムアンドエムズ,,有限会社,愛知県,名古屋市中川区,前並町４０番地の３,,23,110,4540025,,,2021-10-19,清算の結了等,,,2015-10-05,1,,,,,エムアンドエムズ,0
208,1190002018533,登記記録の閉鎖等,0,2021-10-25,2021-10-21,有限会社プラステン,,有限会社,三重県,桑名市,元赤須賀１１４番地,,24,205,5110037,,,2021-10-21,清算の結了等,,,2015-10-05,1,,,,,プラステン,0
213,1220001008696,登記記録の閉鎖等,0,2021-10-25,2021-10-21,ワールド・リユース株式会社,,株式会社,石川県,羽咋郡志賀町,町ヘ１番地２５６,,17,384,9250167,,,2021-10-21,清算の結了等,,,2015-10-05,1,,,,,ワールドリユース,0
214,1220001015825,登記記録の閉鎖等,0,2021-10-25,2021-10-20,ハクイ電材株式会社,,株式会社,石川県,羽咋郡宝達志水町,敷浪四号７６番地２,,17,386,9291415,,,2021-10-20,清算の結了等,,,2015-10-05,1,,,,,ハクイデンザイ,0
217,1230005002273,登記記録の閉鎖等,0,2021-10-25,2021-10-19,淨教寺,,その他の設立登記法人,富山県,中新川郡上市町,神田４９９番地,,16,322,9300365,,,2021-10-19,清算の結了等,,,2015-10-05,1,,,,,ジョウキョウジ,0
219,1240001002318,登記記録の閉鎖等,0,2021-10-25,2021-10-21,株式会社かなもり,,株式会社,広島県,広島市西区,高須３丁目８番１３－５号,,34,104,7330871,,,2021-10-21,清算の結了等,,,2015-10-05,1,,,,,カナモリ,0
228,1260002011167,登記記録の閉鎖等,0,2021-10-25,2021-10-22,有限会社ひラたきかく社,,有限会社,岡山県,赤磐市,桜が丘西１丁目３１番６号,,33,213,7090802,,,2021-10-22,清算の結了等,,,2015-10-05,1,,,,,,0
267,1370805000116,登記記録の閉鎖等,0,2021-10-25,2021-10-15,医療法人社団青木神経科内科クリニック,,その他の設立登記法人,宮城県,岩沼市,中央１丁目４番１３号,,04,211,9892432,,,2021-10-15,清算の結了等,,,2015-10-05,1,,,,,シャダンアオキシンケイカナイカクリニック,0
276,1430002051352,登記記録の閉鎖等,0,2021-10-25,2021-10-21,有限会社古川建業,,有限会社,北海道,夕張郡長沼町,宮下１丁目６番１号,,01,428,0691341,,,2021-10-21,清算の結了等,,,2015-10-05,1,,,,,フルカワケンギョウ,0
277,1430002054603,登記記録の閉鎖等,0,2021-10-25,2021-10-22,有限会社すし徳,,有限会社,北海道,小樽市,花園１丁目４番２３号,,01,203,0470024,,,2021-10-22,清算の結了等,,,2015-10-05,1,,,,,,0
294,2010101003865,登記記録の閉鎖等,0,2021-10-25,2021-10-21,宮本運送株式会社,,株式会社,東京都,八王子市,大和田町５丁目２６番１１号,,13,201,1920045,,,2021-10-21,清算の結了等,,,2015-10-05,1,,,,,,0
296,2010401105452,登記記録の閉鎖等,0,2021-10-25,2021-10-22,株式会社ＤＭＳ,,株式会社,東京都,中央区,銀座７丁目１５番８号タウンハイツ銀座４０６,,13,102,1040061,,,2021-10-22,清算の結了等,,,2015-10-05,1,,,,,ディーエムエス,0
304,2010501019148,登記記録の閉鎖等,0,2021-10-25,2021-10-21,株式会社ＫＳ,,株式会社,東京都,台東区,入谷２丁目３６番１０号,,13,106,1100013,,,2021-10-21,清算の結了等,,,2015-10-05,1,,,,,ケイエス,0
312,2010801016811,登記記録の閉鎖等,0,2021-10-25,2021-10-18,竹丸産業株式会社,,株式会社,鹿児島県,曽於市,財部町下財部５０９８番地,,46,217,8994103,,,2021-10-18,清算の結了等,,,2015-10-05,1,,,,,タケマルサンギョウ,0
317,2010803003246,登記記録の閉鎖等,0,2021-10-25,2021-10-18,えびす物産合同会社,,合同会社,東京都,大田区,蒲田本町１丁目１番４－４１３号,,13,111,1440053,,,2021-10-18,清算の結了等,,,2020-01-27,1,,,,,エビスブッサン,0
323,2011001073214,登記記録の閉鎖等,0,2021-10-25,2021-10-22,株式会社ロイ・オーガナイゼーション,,株式会社,東京都,渋谷区,広尾５丁目１番２０号七星舎ビル１階,,13,113,1500012,,,2021-10-22,清算の結了等,,,2015-10-05,1,,,,,ロイオーガナイゼーション,0
325,2011001125469,登記記録の閉鎖等,0,2021-10-25,2021-10-21,株式会社ＭｉｌｋｙＷａｙ,,株式会社,東京都,世田谷区,代田５丁目２７番４号,,13,112,1550033,,,2021-10-21,清算の結了等,,,2018-12-04,1,,,,,ミルキーウェイ,0
351,2012401032338,登記記録の閉鎖等,0,2021-10-25,2021-10-18,株式会社いたれりつくせり,,株式会社,東京都,武蔵野市,境２丁目６番４３号,,13,203,1800022,,,2021-10-18,合併による解散等,3012401011984,令和３年１０月１日東京都武蔵野市境二丁目６番４３号株式会社武蔵境自動車教習所（3012401011984）に合併し解散,2017-02-03,1,,,,,イタレリツクセリ,0
379,2030001035008,登記記録の閉鎖等,0,2021-10-25,2021-10-15,三洲自動車工業株式会社,,株式会社,埼玉県,草加市,新里町７２４番地,,11,221,3400031,,,2021-10-15,清算の結了等,,,2015-10-05,1,,,,,,0
385,2030001122482,登記記録の閉鎖等,0,2021-10-25,2021-10-15,健株式会社,,株式会社,埼玉県,朝霞市,東弁財１丁目２番２６－６０１号,,11,227,3510022,,,2021-10-15,清算の結了等,,,2017-10-17,1,,,,,,0
392,2030002059385,登記記録の閉鎖等,0,2021-10-25,2021-10-15,有限会社吹野ネーム店,,有限会社,埼玉県,朝霞市,幸町２丁目１４番１１号,,11,227,3510015,,,2021-10-15,清算の結了等,,,2015-10-05,1,,,,,フキノネームテン,0
393,2030002068717,登記記録の閉鎖等,0,2021-10-25,2021-10-15,有限会社大栄製作所,,有限会社,埼玉県,春日部市,南栄町１２番地１８,,11,214,3440057,,,2021-10-15,清算の結了等,,,2015-10-05,1,,,,,,0
399,2040001023416,登記記録の閉鎖等,0,2021-10-25,2021-10-15,株式会社サン・テクノワーク,,株式会社,千葉県,八千代市,勝田台１丁目２６番地２２,,12,221,2760023,,,2021-10-15,清算の結了等,,,2015-10-05,1,,,,,サンテクノワーク,0
409,2040002047901,登記記録の閉鎖等,0,2021-10-25,2021-10-15,有限会社野村運送店,,有限会社,千葉県,松戸市,古ケ崎１６６番地１,,12,207,2710068,,,2021-10-15,清算の結了等,,,2015-10-05,1,,,,,ノムラウンソウテン,0
411,2040002086305,登記記録の閉鎖等,0,2021-10-25,2021-10-14,有限会社つばき,,有限会社,千葉県,銚子市,清川町２丁目６番地の８,,12,202,2880817,,,2021-10-14,清算の結了等,,,2015-10-05,1,,,,,ツバキ,0
418,2050002031103,登記記録の閉鎖等,0,2021-10-25,2021-10-18,有限会社中野塩化ビニール工業,,有限会社,茨城県,日立市,小木津町１０２８番の１,,08,202,3191413,,,2021-10-18,清算の結了等,,,2015-10-05,1,,,,,,0
422,2080402002130,登記記録の閉鎖等,0,2021-10-25,2021-10-13,有限会社カネ七,,有限会社,静岡県,浜松市西区,村櫛町２５８０番地の１２,,22,133,4311207,,,2021-10-13,清算の結了等,,,2015-10-05,1,,,,,,0
425,2100002013483,登記記録の閉鎖等,0,2021-10-25,2021-10-19,有限会社ジェイエコーズ,,有限会社,長野県,北佐久郡軽井沢町,大字長倉４７１５番地２,,20,321,3890111,,,2021-10-19,清算の結了等,,,2015-10-05,1,,,,,ジェイエコーズ,0
433,2110002009019,登記記録の閉鎖等,0,2021-10-25,2021-10-20,有限会社吉野防水,,有限会社,新潟県,新潟市東区,大形本町６丁目２０番２１号,,15,102,9500813,,,2021-10-20,清算の結了等,,,2015-10-05,1,,,,,ヨシノボウスイ,0
478,2140002011260,登記記録の閉鎖等,0,2021-10-25,2021-10-20,有限会社近藤合金鋳造所,,有限会社,兵庫県,神戸市兵庫区,東出町２丁目２番２１号,,28,105,6520823,,,2021-10-20,清算の結了等,,,2015-10-05,1,,,,,コンドウゴウキンチュウゾウジョ,0
499,2200002009892,登記記録の閉鎖等,0,2021-10-25,2021-10-22,有限会社和晃,,有限会社,岐阜県,瑞穂市,穂積１７７６番地１,,21,216,5010223,,,2021-10-22,清算の結了等,,,2015-10-05,1,,,,,ワコウ,0
500,2200002018472,登記記録の閉鎖等,0,2021-10-25,2021-10-21,有限会社魚天,,有限会社,岐阜県,関市,本町８丁目１８番地,,21,205,5013886,,,2021-10-21,清算の結了等,,,2015-10-05,1,,,,,ウオテン,0
503,2220001024288,登記記録の閉鎖等,0,2021-10-25,2021-10-19,高岡株式会社,,株式会社,石川県,金沢市,森山１丁目３０番４号,,17,201,9200843,,,2021-10-19,合併による解散等,2220001003985,令和３年１０月１日石川県金沢市森山一丁目３０番４号高岡製箔株式会社（2220001003985）に合併し解散,2021-07-13,1,,,,,タカオカ,0
518,2290001042993,登記記録の閉鎖等,0,2021-10-25,2021-10-13,株式会社高橋建設,,株式会社,福岡県,春日市,下白水南６丁目１４４番地,,40,218,8160846,,,2021-10-13,清算の結了等,,,2015-10-05,1,,,,,タカハシケンセツ,0
525,2290005018057,登記記録の閉鎖等,0,2021-10-25,2021-10-21,税理士法人Ｆａｍｓ,,その他の設立登記法人,福岡県,福岡市中央区,大名１丁目７番３号－２０２号,,40,133,8100041,,,2021-10-21,清算の結了等,,,2021-01-26,1,,,,,ファムズ,0
531,2310005002743,登記記録の閉鎖等,0,2021-10-25,2021-09-07,天理教福石分教会,,その他の設立登記法人,長崎県,佐世保市,日宇町１９７４番地,,42,202,8571151,,,2021-09-07,合併による解散等,8150005000510,令和３年９月１日奈良市今市町２８５番地の１天理教治道大教会（8150005000510）に合併し解散,2015-10-05,1,,,,,テンリキョウフクイシブンキョウカイ,0
550,2430001057077,登記記録の閉鎖等,0,2021-10-25,2021-10-22,丸果室蘭青果株式会社,,株式会社,北海道,室蘭市,日の出町２丁目３番１号,,01,205,0500081,,,2021-10-22,清算の結了等,,,2015-10-05,1,,,,,マルカムロランセイカ,0
552,2430001072200,登記記録の閉鎖等,0,2021-10-25,2021-10-22,株式会社東成住建,,株式会社,北海道,札幌市南区,真駒内柏丘５丁目１０番７０号テラスピア真駒内,,01,106,0050022,,,2021-10-22,清算の結了等,,,2016-08-22,1,,,,,トウセイジュウケン,0
557,2450002009835,登記記録の閉鎖等,0,2021-10-25,2021-10-19,有限会社システムマシンよしおか,,有限会社,北海道,名寄市,西四条南２丁目１６番地,,01,221,0960014,,,2021-10-19,清算の結了等,,,2015-10-05,1,,,,,システムマシンヨシオカ,0
559,2460001000389,登記記録の閉鎖等,0,2021-10-25,2021-10-19,釧路空港ビル株式会社,,株式会社,北海道,釧路市,鶴丘２番地,,01,206,0840926,,,2021-10-19,合併による解散等,7430001079728,令和３年１０月１日北海道千歳市美々９８７番地２２北海道エアポート株式会社（7430001079728）に合併し解散,2015-10-05,1,,,,,クシロクウコウビル,0
571,3010001121056,登記記録の閉鎖等,0,2021-10-25,2021-10-18,株式会社ユーサイド,,株式会社,東京都,千代田区,九段南１丁目５－６りそな九段ビル５階,,13,101,1020074,,,2021-10-18,清算の結了等,,,2015-10-05,1,,,,,ユーサイド,0
577,3010001205247,登記記録の閉鎖等,0,2021-10-25,2021-09-07,ロンザ株式会社,,株式会社,東京都,中央区,明石町８番１号聖路加タワー,,13,102,1040044,,,2021-09-07,合併による解散等,6021001046108,令和３年９月１日神奈川県相模原市中央区南橋本四丁目３番３６号カプスゲル・ジャパン株式会社（6021001046108）に合併し解散,2019-11-12,1,,,,,ロンザ,0
581,3010003031609,登記記録の閉鎖等,0,2021-10-25,2021-10-18,偶成興産合同会社,,合同会社,東京都,千代田区,丸の内３丁目１番１号東京共同会計事務所内,,13,101,1000005,,,2021-10-18,清算の結了等,,,2020-02-12,1,,,,,グウセイコウサン,0
606,3010802009499,登記記録の閉鎖等,0,2021-10-25,2021-10-18,有限会社つるのや,,有限会社,東京都,大田区,西蒲田８丁目２４番６号,,13,111,1440051,,,2021-10-18,清算の結了等,,,2015-10-05,1,,,,,ツルノヤ,0
645,3013201018781,登記記録の閉鎖等,0,2021-10-25,2021-10-22,ＴＨＥ　ＲＩＶＥＲ株式会社,,株式会社,東京都,目黒区,青葉台１丁目３０－８ＣＡＳＡ青葉台２０１号,,13,110,1530042,,,2021-10-22,清算の結了等,,,2015-10-05,1,,,,,,0
685,3050001025402,登記記録の閉鎖等,0,2021-10-25,2021-10-18,竜ケ崎生コン株式会社,,株式会社,茨城県,龍ケ崎市,板橋町字西山１４１番地,,08,208,3010801,,,2021-10-18,清算の結了等,,,2015-10-05,1,,,,,リュウガサキナマコン,0
695,3070002031884,登記記録の閉鎖等,0,2021-10-25,2021-10-20,有限会社もりた,,有限会社,群馬県,太田市,由良町１６７８番地１８,,10,205,3730036,,,2021-10-20,清算の結了等,,,2015-10-05,1,,,,,モリタ,0
702,3100002002295,登記記録の閉鎖等,0,2021-10-25,2021-10-21,有限会社志賀建設,,有限会社,長野県,長野市,大字稲葉南俣２５９２番地５,,20,201,3800917,,,2021-10-21,清算の結了等,,,2015-10-05,1,,,,,シガケンセツ,0
709,3110002004778,登記記録の閉鎖等,0,2021-10-25,2021-10-20,有限会社新潟紙工社,,有限会社,新潟県,新潟市中央区,信濃町１７番２４号,,15,103,9518152,,,2021-10-20,清算の結了等,,,2015-10-05,1,,,,,,0
711,3120001074524,登記記録の閉鎖等,0,2021-10-25,2021-10-22,株式会社イソップ,,株式会社,大阪府,大阪市中央区,心斎橋筋１丁目３番１５号,,27,128,5420085,,,2021-10-22,清算の結了等,,,2015-10-05,1,,,,,イソップ,0
739,3140002056040,登記記録の閉鎖等,0,2021-10-25,2021-10-08,有限会社カオス,,有限会社,兵庫県,西宮市,甲子園口４丁目８番１７号,,28,204,6638113,,,2021-10-08,清算の結了等,,,2015-10-05,1,,,,,カオス,0
758,3180003011445,登記記録の閉鎖等,0,2021-10-25,2021-10-20,合資会社柴田殖産,,合資会社,愛知県,一宮市,泉２丁目２番３号,,23,203,4910861,,,2021-10-20,清算の結了等,,,2015-10-05,1,,,,,シバタショクサン,0
764,3180003019364,登記記録の閉鎖等,0,2021-10-25,2021-10-19,はぴＫＡＭ合同会社,,合同会社,愛知県,名古屋市緑区,鳴海町字柳長８番地の６ユニーブル鳴海イースト２０１,,23,114,4580801,,,2021-10-19,清算の結了等,,,2018-10-17,1,,,,,ハピカム,0
767,3190001005126,登記記録の閉鎖等,0,2021-10-25,2021-10-21,すずかプラスチック株式会社,,株式会社,三重県,鈴鹿市,南若松町７１８番地,,24,207,5100227,,,2021-10-21,清算の結了等,,,2015-10-05,1,,,,,,0
770,3200002022151,登記記録の閉鎖等,0,2021-10-25,2021-10-20,有限会社マル九小島,,有限会社,岐阜県,瑞浪市,樽上町１丁目３９番地,00077057,21,208,5096123,,,2021-10-20,清算の結了等,,,2015-10-05,1,,,,,マルクコジマ,0
776,3240001020648,登記記録の閉鎖等,0,2021-10-25,2021-10-21,株式会社ＡＲＩＥＮＣＥ,,株式会社,広島県,広島市安佐北区,可部町大字南原２０１番地４,,34,106,7310215,,,2021-10-21,清算の結了等,,,2015-10-05,1,,,,,アリエンス,0
780,3250001001911,登記記録の閉鎖等,0,2021-10-25,2021-10-22,オーエヌマリン株式会社,,株式会社,山口県,防府市,大字新田１６６０番地の３,,35,206,7470825,,,2021-10-22,清算の結了等,,,2015-10-05,1,,,,,オーエヌマリン,0
783,3260001017320,登記記録の閉鎖等,0,2021-10-25,2021-10-20,三輪産業株式会社,,株式会社,岡山県,倉敷市,上富井５９４番地８,,33,202,7100846,,,2021-10-20,清算の結了等,,,2015-10-05,1,,,,,サンワサンギョウ,0
786,3260005001304,登記記録の閉鎖等,0,2021-10-25,2021-10-22,協同組合岡山県設計技術センター,,その他の設立登記法人,岡山県,岡山市北区,内山下１丁目３番１９号,,33,101,7000824,,,2021-10-22,清算の結了等,,,2015-10-05,1,,,,,オカヤマケンセッケイギジュツセンター,0
790,3290001036937,登記記録の閉鎖等,0,2021-10-25,2021-10-11,株式会社オフコース,,株式会社,福岡県,宗像市,三郎丸１丁目１番４６号,,40,220,8114143,,,2021-10-11,清算の結了等,,,2015-10-05,1,,,,,オフコース,0
827,3370002003069,登記記録の閉鎖等,0,2021-10-25,2021-10-13,有限会社東海林建具製作所,,有限会社,宮城県,仙台市太白区,長町２丁目９番３９号,,04,104,9820011,,,2021-10-13,清算の結了等,,,2015-10-05,1,,,,,ショウジタテグセイサクショ,0
841,3420002005415,登記記録の閉鎖等,0,2021-10-25,2021-10-21,有限会社ＮＳマテリアル,,有限会社,青森県,青森市,松原２丁目６番１５号,,02,201,0300813,,,2021-10-21,清算の結了等,,,2015-10-05,1,,,,,エヌエフマテリアル,0
842,3420002006256,登記記録の閉鎖等,0,2021-10-25,2021-10-22,有限会社食堂喜代志,,有限会社,青森県,八戸市,大字湊町字柳町５４番地９号,,02,203,0310812,,,2021-10-22,清算の結了等,,,2015-10-05,1,,,,,,0
852,3470002009056,登記記録の閉鎖等,0,2021-10-25,2021-10-22,有限会社タカサゴ建築,,有限会社,香川県,高松市,庵治町１８０６番地３,,37,201,7610130,,,2021-10-22,清算の結了等,,,2015-10-05,1,,,,,タカサゴケンチク,0
857,4010001095737,登記記録の閉鎖等,0,2021-10-25,2021-10-12,株式会社ササクラ・アルク・エーイー,,株式会社,東京都,千代田区,神田錦町３丁目１９番地,,13,101,1010054,,,2021-10-12,合併による解散等,6010001195345,令和３年１０月１日大阪市西淀川区竹島四丁目７番３２号株式会社ササクラ・エーイー（6010001195345）に合併し解散,2015-10-05,1,,,,,ササクラアルクエーイー,0
858,4010001146267,登記記録の閉鎖等,0,2021-10-25,2021-10-18,株式会社ＹＩＳＧ投資,,株式会社,東京都,千代田区,四番町８番地９ルクセンブルグハウス１００１号,,13,101,1020081,,,2021-10-18,清算の結了等,,,2015-10-05,1,,,,,ワイアイエスジートウシ,0
874,4010501043435,登記記録の閉鎖等,0,2021-10-25,2021-10-20,株式会社ＧＯＯＤ　ＴＡＢＬＥ,,株式会社,東京都,台東区,小島２丁目２０番１１号,,13,106,1110056,,,2021-10-20,清算の結了等,,,2018-12-11,1,,,,,グッドテーブル,0
890,4011001010594,登記記録の閉鎖等,0,2021-10-25,2021-10-20,芝浦測量株式会社,,株式会社,東京都,渋谷区,代々木３丁目３３番１０号の２０２,,13,113,1510053,,,2021-10-20,清算の結了等,,,2015-10-05,1,,,,,シバウラソクリョウ,0
911,4012402018086,登記記録の閉鎖等,0,2021-10-25,2021-10-18,有限会社綿帽子,,有限会社,東京都,武蔵野市,境１丁目２５番２０号,,13,203,1800022,,,2021-10-18,清算の結了等,,,2015-10-05,1,,,,,ワタボウシ,0
919,4013402006279,登記記録の閉鎖等,0,2021-10-25,2021-10-14,有限会社田近建設,,有限会社,東京都,日野市,落川５７９番地,,13,212,1910034,,,2021-10-14,清算の結了等,,,2015-10-05,1,,,,,,0
922,4020001024843,登記記録の閉鎖等,0,2021-10-25,2021-10-20,株式会社横浜ベイブリッジビジネスセンター,,株式会社,神奈川県,横浜市神奈川区,七島町１１８番地第二高橋ビル,,14,102,2210061,,,2021-10-20,清算の結了等,,,2015-10-05,1,,,,,ヨコハマベイブリッジビジネスセンター,0
923,4020001054056,登記記録の閉鎖等,0,2021-10-25,2021-10-20,株式会社ＭＣ,,株式会社,神奈川県,横浜市港北区,日吉本町５丁目６７番２３号,,14,109,2230062,,,2021-10-20,清算の結了等,,,2015-10-05,1,,,,,エムシー,0
930,4020002083368,登記記録の閉鎖等,0,2021-10-25,2021-10-20,有限会社三高製作所,,有限会社,神奈川県,川崎市中原区,上丸子山王町１丁目１３４７番地,,14,133,2110002,,,2021-10-20,清算の結了等,,,2015-10-05,1,,,,,サンコウセイサクショ,0
933,4021002009965,登記記録の閉鎖等,0,2021-10-25,2021-10-21,有限会社和北商事,,有限会社,神奈川県,高座郡寒川町,倉見７７０番地,,14,321,2530101,,,2021-10-21,清算の結了等,,,2015-10-05,1,,,,,ワホクショウジ,0
941,4030001104628,登記記録の閉鎖等,0,2021-10-25,2021-10-15,株式会社Ｆａｍ,,株式会社,埼玉県,越谷市,東越谷１丁目４番地８,,11,222,3430023,,,2021-10-15,清算の結了等,,,2015-10-05,1,,,,,,0
947,4030002014207,登記記録の閉鎖等,0,2021-10-25,2021-10-15,有限会社ユニメイト,,有限会社,埼玉県,さいたま市桜区,道場２丁目１７番１４号,,11,106,3380835,,,2021-10-15,清算の結了等,,,2015-10-05,1,,,,,ユニメイト,0
953,4040001046191,登記記録の閉鎖等,0,2021-10-25,2021-10-20,ヤマト化学工業株式会社,,株式会社,千葉県,成田市,新泉１３番地１,,12,211,2860825,,,2021-10-20,合併による解散等,2010001216815,令和３年１０月１日東京都中央区明石町８番１号ウェーブロック・アセットマネジメント株式会社（2010001216815）に合併し解散,2015-10-05,1,,,,,ヤマトカガクコウギョウ,0
983,4110005007018,登記記録の閉鎖等,0,2021-10-25,2021-09-08,神明社,,その他の設立登記法人,新潟県,柏崎市,西山町北野字五十刈２０７１番地,,15,205,9494145,,,2021-09-08,合併による解散等,2110005007192,令和３年９月８日新潟県柏崎市西山町北野字宮田１５３１番地八幡神社（2110005007192）に合併し解散,2015-10-05,1,,,,,シンメイシャ,0
1001,4120901022481,登記記録の閉鎖等,0,2021-10-25,2021-10-22,株式会社ママ・ケア,,株式会社,大阪府,池田市,神田４丁目２２番１５号,,27,204,5630043,,,2021-10-22,清算の結了等,,,2015-10-05,1,,,,,ママケア,0
1018,4150002008254,登記記録の閉鎖等,0,2021-10-25,2021-10-21,有限会社花てまり,,有限会社,奈良県,橿原市,山之坊町４３４番地の３７,,29,205,6340071,,,2021-10-21,清算の結了等,,,2015-10-05,1,,,,,ハナテマリ,0
1029,4220003002471,登記記録の閉鎖等,0,2021-10-25,2021-10-20,シュシュラテ合同会社,,合同会社,石川県,金沢市,久安５丁目２３番地ユニステイ参番館１０２号,,17,201,9218164,,,2021-10-20,清算の結了等,,,2018-08-10,1,,,,,シュシュラテ,0
1054,4290002056792,登記記録の閉鎖等,0,2021-10-25,2021-10-14,有限会社山崎木材,00093645,有限会社,福岡県,うきは市,浮羽町朝田４０７番地,,40,225,8391401,,,2021-10-14,清算の結了等,,,2015-10-05,1,,,,,ヤマサキモクザイ,0
1057,4320002018707,登記記録の閉鎖等,0,2021-10-25,2021-10-21,有限会社石田工作所,,有限会社,大分県,日田市,淡窓２丁目１番６号,,44,204,8770012,,,2021-10-21,清算の結了等,,,2015-10-05,1,,,,,イシダコウサクショ,0
1059,4320005001759,登記記録の閉鎖等,0,2021-10-25,2021-10-19,税理士法人亀井税務会計事務所,,その他の設立登記法人,大分県,大分市,新町１６番２号,,44,201,8700028,,,2021-10-19,清算の結了等,,,2015-10-05,1,,,,,カメイゼイムカイケイジムショ,0
1068,4360003010007,登記記録の閉鎖等,0,2021-10-25,2021-10-19,合同会社Ｐｒｉｍｅ　Ｖａｃａｔｉｏｎ,,合同会社,沖縄県,那覇市,金城５丁目１２番地１６センチュリー２１－３０２,,47,201,9010155,,,2021-10-19,清算の結了等,,,2020-01-14,1,,,,,プライムバケーション,0
1073,4370302001259,登記記録の閉鎖等,0,2021-10-25,2021-10-13,有限会社庄司薬局,,有限会社,宮城県,東松島市,矢本字河戸１３番地,,04,214,9810503,,,2021-10-13,清算の結了等,,,2015-10-05,1,,,,,ショウジヤッキョク,0
1080,4410002002874,登記記録の閉鎖等,0,2021-10-25,2021-10-20,有限会社アダム販売,,有限会社,秋田県,秋田市,高陽幸町９番１９号,,05,201,0100967,,,2021-10-20,合併による解散等,8410001000116,令和３年１０月２０日秋田市高陽幸町９番１９号株式会社アダム企画（8410001000116）に合併し解散,2015-10-05,1,,,,,アダムハンバイ,0
1081,4420002002460,登記記録の閉鎖等,0,2021-10-25,2021-10-21,有限会社ＭＭＳ,,有限会社,青森県,青森市,松原２丁目６番１５号,,02,201,0300813,,,2021-10-21,清算の結了等,,,2015-10-05,1,,,,,エムエムエス,0
1093,4470002000278,登記記録の閉鎖等,0,2021-10-25,2021-10-21,有限会社オガタコーポレーション,,有限会社,香川県,高松市,牟礼町大町２０９２番地２４,,37,201,7610122,,,2021-10-21,清算の結了等,,,2015-10-05,1,,,,,オガタコーポレーション,0
1118,5010401135216,登記記録の閉鎖等,0,2021-10-25,2021-10-11,株式会社ビズサクセス,,株式会社,東京都,港区,麻布十番２丁目１０番３号,,13,103,1060045,,,2021-10-11,清算の結了等,,,2017-11-29,1,,,,,ビズサクセス,0
1135,5010805001385,登記記録の閉鎖等,0,2021-10-25,2021-10-19,特定非営利活動法人雇用支援センター,,その他の設立登記法人,東京都,大田区,大森東４丁目３８番１７号,,13,111,1430012,,,2021-10-19,清算の結了等,,,2015-10-05,1,,,,,コヨウシエンセンター,0
1212,5040002102190,登記記録の閉鎖等,0,2021-10-25,2021-10-15,有限会社岡田商店,,有限会社,千葉県,勝浦市,串浜１２６３番地,,12,218,2995226,,,2021-10-15,清算の結了等,,,2015-10-05,1,,,,,オカダショウテン,0
1234,5120001192893,登記記録の閉鎖等,0,2021-10-25,2021-10-20,株式会社アラシ,,株式会社,大阪府,大阪市中央区,農人橋３丁目２番７－２０１号,,27,128,5400011,,,2021-10-20,清算の結了等,,,2015-10-05,1,,,,,アラシ,0
1242,5120003016282,登記記録の閉鎖等,0,2021-10-25,2021-10-19,合同会社ＲＯＤＡ,,合同会社,大阪府,大阪市浪速区,敷津西２丁目１６番２４号,,27,111,5560015,,,2021-10-19,清算の結了等,,,2019-09-18,1,,,,,ロダ,0
1251,5130001000188,登記記録の閉鎖等,0,2021-10-25,2021-10-21,株式会社一条,,株式会社,京都府,京都市右京区,嵯峨大覚寺門前六道町３８番地の１,,26,108,6168417,,,2021-10-21,清算の結了等,,,2015-10-05,1,,,,,イチジョウ,0
1261,5140001062509,登記記録の閉鎖等,0,2021-10-25,2021-10-20,太基建材株式会社,,株式会社,兵庫県,姫路市,家島町真浦２２４６番地の１,,28,201,6720101,,,2021-10-20,清算の結了等,,,2015-10-05,1,,,,,タイキケンザイ,0
1282,5180001135509,登記記録の閉鎖等,0,2021-10-25,2021-10-21,株式会社モン・ペシェ・ミニョン,,株式会社,愛知県,名古屋市名東区,照が丘１２３番地,,23,115,4650042,,,2021-10-21,清算の結了等,,,2019-02-20,1,,,,,モンペシェミニョン,0
1300,5200001019576,登記記録の閉鎖等,0,2021-10-25,2021-10-21,株式会社増田塗装,,株式会社,岐阜県,関市,巾２丁目３６番地の４,,21,205,5013256,,,2021-10-21,清算の結了等,,,2015-10-05,1,,,,,マスダトソウ,0
1310,5240002012527,登記記録の閉鎖等,0,2021-10-25,2021-10-21,有限会社覚和,,有限会社,広島県,広島市安佐南区,高取北１丁目６番１号,,34,105,7310144,,,2021-10-21,清算の結了等,,,2015-10-05,1,,,,,カクワ,0
1314,5260001004597,登記記録の閉鎖等,0,2021-10-25,2021-10-22,東陽化成株式会社,,株式会社,岡山県,岡山市東区,藤井２３８番地の１,,33,103,7038213,,,2021-10-22,清算の結了等,,,2015-10-05,1,,,,,トウヨウカセイ,0
1321,5280005002678,登記記録の閉鎖等,0,2021-10-25,2021-10-21,医療法人尾添産科婦人科医院,,その他の設立登記法人,島根県,出雲市,大津新崎町４丁目４６番地,,32,203,6930012,,,2021-10-21,清算の結了等,,,2015-10-05,1,,,,,オゾエサンカフジンカイイン,0
1328,5290002031191,登記記録の閉鎖等,0,2021-10-25,2021-10-11,有限会社まなざし,,有限会社,福岡県,福岡市博多区,元町２丁目２番１－８３９号,,40,132,8120877,,,2021-10-11,清算の結了等,,,2015-10-05,1,,,,,マナザシ,0
1333,5310002005829,登記記録の閉鎖等,0,2021-10-25,2021-10-22,有限会社九建,,有限会社,長崎県,長崎市,多以良町２０６９番地３,,42,201,8512213,,,2021-10-22,清算の結了等,,,2015-10-05,1,,,,,キュウケン,0
1342,5370001003200,登記記録の閉鎖等,0,2021-10-25,2021-10-12,株式会社庄司保険事務所,,株式会社,宮城県,仙台市若林区,沖野５丁目９番５７号,,04,103,9840831,,,2021-10-12,清算の結了等,,,2015-10-05,1,,,,,ショウジホケンジムショ,0
1356,5430001010561,登記記録の閉鎖等,0,2021-10-25,2021-10-19,株式会社ツーリストサービス北海道,,株式会社,北海道,札幌市中央区,北三条西２丁目２番地１,,01,101,0600003,,,2021-10-19,合併による解散等,4010001050700,令和３年１０月１日東京都文京区本郷一丁目２４番１号株式会社ツーリストエキスパーツ（4010001050700）に合併し解散,2015-10-05,1,,,,,ツーリストサービスホッカイドウ,0
1368,5470001009278,登記記録の閉鎖等,0,2021-10-25,2021-09-01,株式会社麺工房なかお,00005114,株式会社,香川県,坂出市,大屋冨町３０９１番地９,,37,203,7620015,,,2021-09-01,合併による解散等,9470001008994,令和３年９月１日香川県坂出市加茂町１３７０番地さぬき丸一製麺株式会社（9470001008994）に合併し解散,2015-10-05,1,,,,,メンコウボウナカオ,0
1394,6010501029572,登記記録の閉鎖等,0,2021-10-25,2021-10-20,株式会社ＬＩＧ　Ｈｏｌｄｉｎｇｓ,,株式会社,東京都,台東区,小島２丁目２０番１１号,,13,106,1110056,,,2021-10-20,清算の結了等,,,2015-10-05,1,,,,,リグホールディングス,0
1434,6013202005264,登記記録の閉鎖等,0,2021-10-25,2021-10-08,有限会社東川商店,,有限会社,東京都,目黒区,碑文谷１丁目１７番４号,,13,110,1520003,,,2021-10-08,清算の結了等,,,2015-10-05,1,,,,,ヒガシガワショウテン,0
1439,6020001031994,登記記録の閉鎖等,0,2021-10-25,2021-10-21,株式会社みなとみらい東急スクエア,,株式会社,神奈川県,横浜市西区,みなとみらい２丁目３番２号,,14,103,2200012,,,2021-10-21,合併による解散等,9011001014450,令和３年１０月１日東京都渋谷区道玄坂一丁目１０番７号株式会社東急モールズデベロップメント（9011001014450）に合併し解散,2015-10-05,1,,,,,ミナトミライトウキュウスクエア,0
1446,6020001127520,登記記録の閉鎖等,0,2021-10-25,2021-10-20,トーリク株式会社,,株式会社,神奈川県,横浜市中区,扇町２丁目４番地４,,14,104,2310027,,,2021-10-20,清算の結了等,,,2018-08-09,1,,,,,トーリク,0
1456,6021002067929,登記記録の閉鎖等,0,2021-10-25,2021-10-20,有限会社アクト,,有限会社,神奈川県,逗子市,逗子２丁目６番３１号,,14,208,2490006,,,2021-10-20,清算の結了等,,,2015-10-05,1,,,,,アクト,0
1481,6040001009535,登記記録の閉鎖等,0,2021-10-25,2021-10-15,株式会社ネオノーツ,,株式会社,千葉県,千葉市若葉区,多部田町７５３番地の２６,,12,104,2650066,,,2021-10-15,清算の結了等,,,2015-10-05,1,,,,,ネオノーツ,0
1486,6040002055900,登記記録の閉鎖等,0,2021-10-25,2021-10-15,有限会社旅館ひしや,,有限会社,千葉県,成田市,仲町３６５番地,,12,211,2860027,,,2021-10-15,清算の結了等,,,2015-10-05,1,,,,,,0
1492,6060001010326,登記記録の閉鎖等,0,2021-10-25,2021-10-19,株式会社鹿沼教材社,,株式会社,栃木県,鹿沼市,貝島町５７３番地８,,09,205,3220027,,,2021-10-19,清算の結了等,,,2015-10-05,1,,,,,カヌマキョウザイシャ,0
1493,6060001023583,登記記録の閉鎖等,0,2021-10-25,2021-08-30,株式会社滝沢会本社,,株式会社,東京都,杉並区,荻窪４丁目５番７号,,13,115,1670051,,,2021-08-30,清算の結了等,,,2015-10-05,1,,,,,タキザワカイホンシャ,0
1498,6080102008309,登記記録の閉鎖等,0,2021-10-25,2021-10-15,有限会社静岡スパーク薬品,,有限会社,静岡県,伊豆の国市,北江間１７２６番地の２１,,22,225,4102223,,,2021-10-15,清算の結了等,,,2015-10-05,1,,,,,シズオカスパークヤクヒン,0
1511,6100002019980,登記記録の閉鎖等,0,2021-10-25,2021-10-20,有限会社壽百瀬組,,有限会社,長野県,松本市,寿北４丁目４番６号,,20,202,3990011,,,2021-10-20,清算の結了等,,,2015-10-05,1,,,,,コトブキモモセグミ,0
1526,6120003010466,登記記録の閉鎖等,0,2021-10-25,2021-10-14,合同会社ケイ,,合同会社,奈良県,生駒市,南田原町１０７３番地６,,29,209,6300135,,,2021-10-14,清算の結了等,,,2015-10-05,1,,,,,ケイ,0
1527,6120003018328,登記記録の閉鎖等,0,2021-10-25,2021-10-20,オフィスＺＥＲＯ合同会社,,合同会社,大阪府,大阪市大正区,鶴町１丁目６－２,,27,108,5510023,,,2021-10-20,清算の結了等,,,2020-11-04,1,,,,,オフィスゼロ,0
1533,6120101054456,登記記録の閉鎖等,0,2021-10-25,2021-10-01,株式会社ガジュマル,,株式会社,大阪府,松原市,田井城４丁目４０番地の３１,,27,217,5800044,,,2021-10-01,合併による解散等,9120101061111,令和３年１０月１日大阪府松原市田井城四丁目４０番地の３１サンリスペクト株式会社（9120101061111）に合併し解散,2016-03-11,1,,,,,ガジュマル,0
1543,6130001016480,登記記録の閉鎖等,0,2021-10-25,2021-10-20,株式会社池上,,株式会社,京都府,京都市下京区,五条通油小路西入上金仏町２４５番地,,26,106,6008457,,,2021-10-20,清算の結了等,,,2015-10-05,1,,,,,イケガミ,0
1560,6170001009480,登記記録の閉鎖等,0,2021-10-25,2021-10-22,株式会社タカオ,,株式会社,和歌山県,西牟婁郡上富田町,朝来３５２０番地の１３,,30,404,6492105,,,2021-10-22,清算の結了等,,,2015-10-05,1,,,,,タカオ,0
1582,6190005004914,登記記録の閉鎖等,0,2021-10-25,2021-09-28,天理教玉城分教会,,その他の設立登記法人,三重県,度会郡玉城町,田丸５２番地,,24,461,5190415,,,2021-09-28,合併による解散等,5190005004915,令和３年９月２８日三重県度会郡玉城町佐田９９０番地天理教田丸分教会（5190005004915）に合併し解散,2015-10-05,1,,,,,,0
1585,6200002015334,登記記録の閉鎖等,0,2021-10-25,2021-10-21,有限会社栄輪整備,,有限会社,岐阜県,揖斐郡池田町,八幡中道１７３５番地の１,,21,404,5032426,,,2021-10-21,清算の結了等,,,2015-10-05,1,,,,,エイリンセイビ,0
1589,6230005005809,登記記録の閉鎖等,0,2021-10-25,2021-10-15,特定非営利活動法人コーポラティブハウス木の実,,その他の設立登記法人,富山県,富山市,小杉２６２番地,,16,201,9398063,,,2021-10-15,清算の結了等,,,2015-10-05,1,,,,,コーポラティブハウスキノミ,0
1599,6270005000731,登記記録の閉鎖等,0,2021-10-25,2021-09-01,天理教生樺分教会,,その他の設立登記法人,鳥取県,鳥取市,面影１丁目１３番１５号,,31,201,6800855,,,2021-09-01,合併による解散等,8270005000746,令和３年９月１日鳥取県鳥取市国府町町屋２５２番地２天理教恩美分教会（8270005000746）に合併し解散,2015-10-05,1,,,,,テンリキョウセイカブンキョウカイ,0
1606,6290802006020,登記記録の閉鎖等,0,2021-10-25,2021-10-12,有限会社マルセイ商店,,有限会社,福岡県,北九州市小倉北区,井堀３丁目１番１７号,,40,106,8030835,,,2021-10-12,清算の結了等,,,2015-10-05,1,,,,,マルセイショウテン,0
1613,6340001006659,登記記録の閉鎖等,0,2021-10-25,2021-10-13,株式会社サポート鹿児島,,株式会社,鹿児島県,日置市,伊集院町徳重４４７番地,,46,216,8992502,,,2021-10-13,清算の結了等,,,2015-10-05,1,,,,,,0
1630,6400002007419,登記記録の閉鎖等,0,2021-10-25,2021-10-22,有限会社熊谷技術サービス,,有限会社,岩手県,岩手郡岩手町,大字川口第１４地割２６番地５,,03,303,0284211,,,2021-10-22,清算の結了等,,,2015-10-05,1,,,,,クマガイギジュツサービス,0
1636,6430001046927,登記記録の閉鎖等,0,2021-10-25,2021-10-21,和鋼産業株式会社,,株式会社,北海道,美唄市,字美唄１２０８番地１４,,01,215,0720000,,,2021-10-21,清算の結了等,,,2015-10-05,1,,,,,ワコウサンギョウ,0
1643,6470002016355,登記記録の閉鎖等,0,2021-10-25,2021-10-20,有限会社合田建設,,有限会社,香川県,観音寺市,大野原町大野原６２５９番地２,,37,205,7691611,,,2021-10-20,清算の結了等,,,2015-10-05,1,,,,,ゴウダケンセツ,0
1652,7010001189156,登記記録の閉鎖等,0,2021-10-25,2021-10-22,セブンシーズトラスト設立準備株式会社,,株式会社,東京都,千代田区,内幸町２丁目２番２号セブンシーズアドバイザーズ株式会社内,,13,101,1000011,,,2021-10-22,清算の結了等,,,2018-01-24,1,,,,,セブンシーズトラストセツリツジュンビ,0
1655,7010001213163,登記記録の閉鎖等,0,2021-10-25,2021-10-18,ＳＫＴホールディングス株式会社,,株式会社,東京都,千代田区,大手町１丁目５番１号,,13,101,1000004,,,2021-10-18,合併による解散等,4010401013769,令和３年１０月１日東京都港区芝公園二丁目４番１号昭光通商株式会社（4010401013769）に合併し解散,2020-10-21,1,,,,,エスケーティーホールディングス,0
1667,7010101011112,登記記録の閉鎖等,0,2021-10-25,2021-10-21,エスエス・ライフ株式会社,,株式会社,東京都,八王子市,椚田町２９９番地２,,13,201,1930942,,,2021-10-21,清算の結了等,,,2015-10-05,1,,,,,エスエスライフ,0
1675,7010802012648,登記記録の閉鎖等,0,2021-10-25,2021-10-19,有限会社フタバ製作所,,有限会社,東京都,大田区,西六郷３丁目１７番２号,,13,111,1440056,,,2021-10-19,清算の結了等,,,2015-10-05,1,,,,,フタバセイサクショ,0
1678,7010902002870,登記記録の閉鎖等,0,2021-10-25,2021-10-21,有限会社エムアンドケイ,,有限会社,東京都,世田谷区,野毛３丁目１６番５号,,13,112,1580092,,,2021-10-21,清算の結了等,,,2015-10-05,1,,,,,エムアンドケイ,0
1680,7011001004073,登記記録の閉鎖等,0,2021-10-25,2021-10-08,エヌビーエステクノロジー株式会社,,株式会社,東京都,渋谷区,南平台町２番６号南平台ヒルス３０４号,,13,113,1500036,,,2021-10-08,清算の結了等,,,2015-10-05,1,,,,,エヌビーエステクノロジー,0
1698,7011701008984,登記記録の閉鎖等,0,2021-10-25,2021-10-20,株式会社マイダスタッチ,,株式会社,東京都,江戸川区,西葛西２丁目１９番１３－５０６号,,13,123,1340088,,,2021-10-20,清算の結了等,,,2015-10-05,1,,,,,マイダスタッチ,0
1709,7013205000212,登記記録の閉鎖等,0,2021-10-25,2021-10-11,医療法人社団ひがしやま会,,その他の設立登記法人,東京都,港区,元赤坂１丁目５番２０号２０２,,13,103,1070051,,,2021-10-11,清算の結了等,,,2015-10-05,1,,,,,ヒガシヤマカイ,0
1710,7013301025716,登記記録の閉鎖等,0,2021-10-25,2021-10-18,株式会社日本情報能力研究所,,株式会社,東京都,豊島区,南池袋４丁目１６番６号,,13,116,1710022,,,2021-10-18,清算の結了等,,,2015-10-05,1,,,,,,0
1719,7020001115920,登記記録の閉鎖等,0,2021-10-25,2021-10-21,株式会社Ｉｍａｇｉｎｇ　Ｄｅｖｉｃｅ　Ｔｅｃｈｎｏｌｏｇｉｅｓ,,株式会社,神奈川県,横浜市港北区,新横浜１丁目１７番１２号,,14,109,2220033,,,2021-10-21,清算の結了等,,,2016-04-26,1,,,,,,0
1720,7020001116324,登記記録の閉鎖等,0,2021-10-25,2021-10-21,株式会社ジュエルボディメイク,,株式会社,神奈川県,横浜市神奈川区,鶴屋町２丁目２７番７－３０３号,,14,102,2210835,,,2021-10-21,清算の結了等,,,2016-05-25,1,,,,,ジュエルボディメイク,0
1737,7030001124573,登記記録の閉鎖等,0,2021-10-25,2021-10-15,株式会社ＰＲＩＶＥＥ,,株式会社,埼玉県,さいたま市中央区,大字下落合１７２２番地ＳＷ－１２０５号,,11,105,3380002,,,2021-10-15,清算の結了等,,,2018-03-05,1,,,,,プリヴェ,0
1742,7030002051296,登記記録の閉鎖等,0,2021-10-25,2021-10-15,有限会社Ｓ．Ｔ．Ｉ．,,有限会社,埼玉県,草加市,新里町６２４番地,,11,221,3400031,,,2021-10-15,清算の結了等,,,2015-10-05,1,,,,,,0
1751,7040001074470,登記記録の閉鎖等,0,2021-10-25,2021-10-19,株式会社アデュー,,株式会社,千葉県,南房総市,市部３４１番地,,12,234,2992226,,,2021-10-19,清算の結了等,,,2015-10-05,1,,,,,アデュー,0
1769,7080002003466,登記記録の閉鎖等,0,2021-10-25,2021-10-22,有限会社創美商工,,有限会社,静岡県,静岡市葵区,車町２番地の２,,22,101,4200022,,,2021-10-22,清算の結了等,,,2015-10-05,1,,,,,ソウビショウコウ,0
1775,7100003005905,登記記録の閉鎖等,0,2021-10-25,2021-10-21,合同会社ＥＳＴ,,合同会社,長野県,茅野市,豊平３２２８番地７,,20,214,3910213,,,2021-10-21,清算の結了等,,,2020-12-14,1,,,,,イーエスティー,0
1777,7110005009878,登記記録の閉鎖等,0,2021-10-25,2021-10-19,明道寺,,その他の設立登記法人,新潟県,妙高市,大字十日市４１０番地１,,15,217,9440095,,,2021-10-19,清算の結了等,,,2015-10-05,1,,,,,ミョウドウジ,0
1789,7120005009126,登記記録の閉鎖等,0,2021-10-25,2021-10-21,医療法人晃柾会,,その他の設立登記法人,大阪府,大阪市西成区,千本南１丁目３番２号タイホウスクエアビル,,27,122,5570055,,,2021-10-21,清算の結了等,,,2015-10-05,1,,,,,コウセイカイ,0
1798,7130001023988,登記記録の閉鎖等,0,2021-10-25,2021-10-19,株式会社エール薬局,,株式会社,京都府,京都市伏見区,桃山町泰長老１１１番地,,26,109,6128034,,,2021-10-19,合併による解散等,5180001122358,令和３年１０月１日名古屋市中村区平池町四丁目６０番地の１２グローバルゲート１１階ＧＯＯＤ　ＡＩＤ株式会社（5180001122358）に合併し解散,2015-10-05,1,,,,,エールヤッキョク,0
1810,7160002013886,登記記録の閉鎖等,0,2021-10-25,2021-10-21,有限会社京都石造,,有限会社,滋賀県,守山市,播磨田町６８４番地の９７,,25,207,5240012,,,2021-10-21,清算の結了等,,,2015-10-05,1,,,,,キョウトセキゾウ,0
1823,7200002012735,登記記録の閉鎖等,0,2021-10-25,2021-10-20,有限会社スリーアロー,,有限会社,岐阜県,大垣市,外渕２丁目１５４番地,,21,202,5030934,,,2021-10-20,清算の結了等,,,2015-10-05,1,,,,,スリーアロー,0
1826,7200005007831,登記記録の閉鎖等,0,2021-10-25,2021-09-24,神明神社,,その他の設立登記法人,岐阜県,美濃市,乙狩字小家ヶ洞２４３０番地,,21,207,5013786,,,2021-09-24,合併による解散等,9200005007846,令和３年９月２４日岐阜県美濃市乙狩字クエタテ２２１８番地瀧神社（9200005007846）に合併し解散,2015-10-05,1,,,,,,0
1831,7220003001925,登記記録の閉鎖等,0,2021-10-25,2021-10-20,合同会社ＴＥＡＭーＨＯＳＰＥＳ・ＮＥＫＯＮＯＴＥ,,合同会社,石川県,河北郡内灘町,白帆台２丁目１９４番地,,17,365,9200269,,,2021-10-20,清算の結了等,,,2015-10-05,1,,,,,チームホープズネコノテ,0
1837,7250002007103,登記記録の閉鎖等,0,2021-10-25,2021-10-22,有限会社出海建設,,有限会社,山口県,宇部市,大字際波２４４番地の３５,,35,202,7590207,,,2021-10-22,清算の結了等,,,2015-10-05,1,,,,,イヅミケンセツ,0
1842,7280002011977,登記記録の閉鎖等,0,2021-10-25,2021-10-21,有限会社フィット,,有限会社,島根県,仁多郡奥出雲町,八代２５８番地１,,32,343,6991433,,,2021-10-21,清算の結了等,,,2015-10-05,1,,,,,フィット,0
1852,7290002029663,登記記録の閉鎖等,0,2021-10-25,2021-10-15,有限会社近藤コンタクト,,有限会社,福岡県,福岡市中央区,薬院２丁目１２番２２－７０３号,,40,133,8100022,,,2021-10-15,清算の結了等,,,2015-10-05,1,,,,,コンドウコンタクト,0
1865,7320001006552,登記記録の閉鎖等,0,2021-10-25,2021-10-25,平和商事株式会社,,株式会社,大分県,別府市,亀川東町６番４号,,44,202,8740022,,,2021-10-25,清算の結了等,,,2015-10-05,1,,,,,ヘイワショウジ,0
1867,7330001003730,登記記録の閉鎖等,0,2021-10-25,2021-10-20,株式会社ハート不動産,,株式会社,熊本県,熊本市東区,東野３丁目１４番８号,,43,102,8612106,,,2021-10-20,清算の結了等,,,2015-10-05,1,,,,,ハートフドウサン,0
1881,7370802001739,登記記録の閉鎖等,0,2021-10-25,2021-10-12,有限会社エフテック,,有限会社,宮城県,亘理郡山元町,山寺字町下１２番地,,04,362,9892201,,,2021-10-12,清算の結了等,,,2015-10-05,1,,,,,エフテック,0
1894,7430002028576,登記記録の閉鎖等,0,2021-10-25,2021-10-22,有限会社花の北フラワー,,有限会社,北海道,札幌市東区,北十三条東１丁目３番１号,,01,103,0650013,,,2021-10-22,清算の結了等,,,2015-10-05,1,,,,,,0
1906,8010001017332,登記記録の閉鎖等,0,2021-10-25,2021-10-19,櫻井建設株式会社,,株式会社,東京都,千代田区,外神田６丁目１５番７号,,13,101,1010021,,,2021-10-19,清算の結了等,,,2015-10-05,1,,,,,サクライケンセツ,0
1915,8010003025416,登記記録の閉鎖等,0,2021-10-25,2021-10-18,合同会社ニシオカテクノ,,合同会社,東京都,文京区,本郷２丁目１６番１２－４０１号,,13,105,1130033,,,2021-10-18,清算の結了等,,,2017-06-01,1,,,,,ニシオカテクノ,0
1935,8010801018777,登記記録の閉鎖等,0,2021-10-25,2021-10-18,株式会社クリスタル,,株式会社,東京都,大田区,中馬込１丁目１４番４号,,13,111,1430027,,,2021-10-18,清算の結了等,,,2015-10-05,1,,,,,クリスタル,0
1940,8011001021514,登記記録の閉鎖等,0,2021-10-25,2021-10-21,株式会社豊生堂青山薬局,,株式会社,東京都,杉並区,浜田山３丁目２４番７号,,13,115,1680065,,,2021-10-21,清算の結了等,,,2015-10-05,1,,,,,,0
1941,8011001124201,登記記録の閉鎖等,0,2021-10-25,2021-10-11,株式会社水インフラ,,株式会社,東京都,渋谷区,元代々木町３０番１３号,,13,113,1510062,,,2021-10-11,合併による解散等,3011301004875,令和３年１０月１日東京都杉並区南荻窪四丁目２０番１７号株式会社東京スペックス（3011301004875）に合併し解散,2018-09-19,1,,,,,ミズインフラ,0
1949,8011101086770,登記記録の閉鎖等,0,2021-10-25,2021-10-19,株式会社マイナビ地域創生,,株式会社,東京都,新宿区,新宿４丁目１番６号,,13,104,1600022,,,2021-10-19,合併による解散等,3010001029968,令和３年１０月１日東京都千代田区一ツ橋一丁目１番１号株式会社マイナビ（3010001029968）に合併し解散,2019-02-08,1,,,,,マイナビチイキソウセイ,0
1951,8011102027880,登記記録の閉鎖等,0,2021-10-25,2021-10-21,有限会社鈴木折本所,,有限会社,東京都,新宿区,山吹町３５３番地,,13,104,1620801,,,2021-10-21,清算の結了等,,,2015-10-05,1,,,,,スズキオリホンジョ,0
1953,8011202002552,登記記録の閉鎖等,0,2021-10-25,2021-10-20,有限会社笹原工務店,,有限会社,東京都,中野区,中央５丁目２１番２号,,13,114,1640011,,,2021-10-20,清算の結了等,,,2015-10-05,1,,,,,ササハラコウムテン,0
1968,8013201011393,登記記録の閉鎖等,0,2021-10-25,2021-10-21,株式会社未来創薬研究所,,株式会社,神奈川県,鎌倉市,梶原２００番地,,14,204,2470063,,,2021-10-21,清算の結了等,,,2015-10-05,1,,,,,ミライソウヤクケンキュウジョ,0
1969,8013202003472,登記記録の閉鎖等,0,2021-10-25,2021-10-08,有限会社菅谷工務店,,有限会社,東京都,目黒区,洗足１丁目６番７号,,13,110,1520012,,,2021-10-08,清算の結了等,,,2015-10-05,1,,,,,スガヤコウムテン,0
1977,8020001118154,登記記録の閉鎖等,0,2021-10-25,2021-10-21,ＨＲＫ株式会社,,株式会社,神奈川県,川崎市宮前区,神木本町１丁目９番１７号ＲＳトゥインクル２０２,,14,136,2160031,,,2021-10-21,清算の結了等,,,2016-10-06,1,,,,,,0
1985,8020002069405,登記記録の閉鎖等,0,2021-10-25,2021-10-20,有限会社ＥＨＧデザイン企画,,有限会社,神奈川県,横浜市港北区,高田東１丁目７番３３号,,14,109,2230065,,,2021-10-20,清算の結了等,,,2015-10-05,1,,,,,イーエイチジーデザインキカク,0
2013,8040002080649,登記記録の閉鎖等,0,2021-10-25,2021-10-15,有限会社ふしみや,,有限会社,千葉県,長生郡長柄町,刑部７６４番地,,12,426,2970225,,,2021-10-15,清算の結了等,,,2015-10-05,1,,,,,フシミヤ,0
2024,8080101001361,登記記録の閉鎖等,0,2021-10-25,2021-10-20,株式会社ナサ流通システムズ,,株式会社,静岡県,沼津市,大岡１００１番地の８,,22,203,4100022,,,2021-10-20,清算の結了等,,,2015-10-05,1,,,,,ナサリュウツウシステムズ,0
2028,8100002014419,登記記録の閉鎖等,0,2021-10-25,2021-10-21,有限会社ドゥー,,有限会社,長野県,上田市,吉田１６２番地２９,,20,203,3861105,,,2021-10-21,清算の結了等,,,2015-10-05,1,,,,,ドゥー,0
2031,8120001022577,登記記録の閉鎖等,0,2021-10-25,2021-10-21,株式会社青木商店,,株式会社,大阪府,大阪市天王寺区,餌差町９番１０号,,27,109,5430016,,,2021-10-21,清算の結了等,,,2015-10-05,1,,,,,アオキショウテン,0
2046,8120101007809,登記記録の閉鎖等,0,2021-10-25,2021-09-24,和光金属工業株式会社,,株式会社,大阪府,堺市中区,伏尾７１７番地,,27,142,5998254,,,2021-09-24,清算の結了等,,,2015-10-05,1,,,,,ワコウキンゾクコウギョウ,0
2079,8150005008314,登記記録の閉鎖等,0,2021-10-25,2021-10-20,一般社団法人たびだち,,その他の設立登記法人,奈良県,生駒市,壱分町５８３番地１０,,29,209,6300222,,,2021-10-20,清算の結了等,,,2015-10-05,1,,,,,タビダチ,0
2083,8180001132222,登記記録の閉鎖等,0,2021-10-25,2021-10-20,株式会社サンフラワーファミリー,,株式会社,愛知県,名古屋市緑区,南大高１丁目１９０３番地,,23,114,4598016,,,2021-10-20,清算の結了等,,,2018-05-09,1,,,,,サンフラワーファミリー,0
2091,8200005007847,登記記録の閉鎖等,0,2021-10-25,2021-09-24,津島神社,,その他の設立登記法人,岐阜県,美濃市,乙狩字小家ヶ洞２４０９番地,,21,207,5013786,,,2021-09-24,合併による解散等,9200005007846,令和３年９月２４日岐阜県美濃市乙狩字クエタテ２２１８番地瀧神社（9200005007846）に合併し解散,2015-10-05,1,,,,,,0
2093,8210005006897,登記記録の閉鎖等,0,2021-10-25,2021-10-20,医療法人整形外科大城医院,,その他の設立登記法人,福井県,丹生郡越前町,江波第７６号８７番地,,18,423,9160255,,,2021-10-20,清算の結了等,,,2015-10-05,1,,,,,セイケイゲカオオシロイイン,0
2095,8230002010578,登記記録の閉鎖等,0,2021-10-25,2021-10-20,有限会社アップル,,有限会社,富山県,高岡市,井口本江２１番地の１,,16,202,9330807,,,2021-10-20,清算の結了等,,,2015-10-05,1,,,,,アップル,0
2103,8250001013126,登記記録の閉鎖等,0,2021-10-25,2021-10-22,新日本貿易株式会社,,株式会社,山口県,山陽小野田市,大字西高泊１３３９番地の６,,35,216,7560057,,,2021-10-22,清算の結了等,,,2015-10-05,1,,,,,シンニホンボウエキ,0
2111,8290001009418,登記記録の閉鎖等,0,2021-10-25,2021-10-14,西日本パイピング株式会社,,株式会社,福岡県,福岡市中央区,薬院２丁目２番４号,,40,133,8100022,,,2021-10-14,清算の結了等,,,2015-10-05,1,,,,,ニシニホンパイビング,0
2116,8290001072143,登記記録の閉鎖等,0,2021-10-25,2021-10-14,トラストフォーム株式会社,,株式会社,福岡県,春日市,昇町３丁目２２６番地－６０１号,,40,218,8160851,,,2021-10-14,清算の結了等,,,2015-12-03,1,,,,,トラストフォーム,0
2128,8350002016183,登記記録の閉鎖等,0,2021-10-25,2021-10-20,有限会社都城学習館,,有限会社,宮崎県,都城市,広原町１５号１番２,,45,202,8850036,,,2021-10-20,清算の結了等,,,2015-10-05,1,,,,,ミヤコノジョウガクシュウカン,0
2142,8390001007849,登記記録の閉鎖等,0,2021-10-25,2021-10-20,ミラノキング株式会社,,株式会社,山形県,鶴岡市,西茅原町１４番１２号,,06,203,9970039,,,2021-10-20,合併による解散等,4390001007539,令和３年１０月２０日山形県鶴岡市宝田一丁目１９番１５号株式会社共栄（4390001007539）に合併し解散,2015-10-05,1,,,,,ミラノキング,0
2144,8400002006914,登記記録の閉鎖等,0,2021-10-25,2021-10-22,有限会社だいぼう,,有限会社,岩手県,紫波郡矢巾町,大字室岡第３地割９番地,,03,322,0283625,,,2021-10-22,清算の結了等,,,2015-10-05,1,,,,,ダイボウ,0
2151,8430003010573,登記記録の閉鎖等,0,2021-10-25,2021-10-15,合同会社ゼロ,,合同会社,北海道,石狩市,樽川八条２丁目７０番地,,01,235,0613258,,,2021-10-15,清算の結了等,,,2019-06-24,1,,,,,ゼロ,0
2175,9010002046461,登記記録の閉鎖等,0,2021-10-25,2021-10-19,有限会社ミリオンアセットコンサルティング,,有限会社,東京都,中央区,日本橋兜町１７番１号,,13,102,1030026,,,2021-10-19,清算の結了等,,,2015-10-05,1,,,,,ミリオンアセットコンサルティング,0
2177,9010003030299,登記記録の閉鎖等,0,2021-10-25,2021-10-18,るれれび商店合同会社,,合同会社,東京都,文京区,向丘１丁目１４番４号,,13,105,1130023,,,2021-10-18,清算の結了等,,,2019-07-29,1,,,,,ルレレビショウテン,0
2182,9010403022689,登記記録の閉鎖等,0,2021-10-25,2021-10-11,ウィンザーファイナンス合同会社,,合同会社,東京都,港区,海岸１丁目７番１号,,13,103,1050022,,,2021-10-11,清算の結了等,,,2020-03-23,1,,,,,ウィンザーファイナンス,0
2185,9010502005941,登記記録の閉鎖等,0,2021-10-25,2021-10-21,有限会社すずらん調剤薬局,,有限会社,東京都,台東区,浅草４丁目３３番７号,,13,106,1110032,,,2021-10-21,清算の結了等,,,2015-10-05,1,,,,,,0
2193,9010801017885,登記記録の閉鎖等,0,2021-10-25,2021-10-19,株式会社アトリエリラクシー,,株式会社,東京都,大田区,上池台２丁目２３番８号ユニティ洗足池１階,,13,111,1450064,,,2021-10-19,清算の結了等,,,2015-10-05,1,,,,,アトリエリラクシー,0
2201,9011001006266,登記記録の閉鎖等,0,2021-10-25,2021-10-20,株式会社ケービーエフ,,株式会社,東京都,世田谷区,北烏山９丁目２３番３１号,,13,112,1570061,,,2021-10-20,清算の結了等,,,2015-10-05,1,,,,,ケービーエフ,0
2213,9011101018888,登記記録の閉鎖等,0,2021-10-25,2021-10-20,株式会社布論亭,,株式会社,東京都,渋谷区,代々木１丁目４５番３号,,13,113,1510053,,,2021-10-20,清算の結了等,,,2015-10-05,1,,,,,フロンテイ,0
2214,9011105005610,登記記録の閉鎖等,0,2021-10-25,2021-10-11,パブリックアセット特定目的会社,,その他の設立登記法人,東京都,新宿区,新宿４丁目１番６号ＪＲ新宿ミライナタワー２８階辻・本郷税理士法人内,00107326,13,104,1600022,,,2021-10-11,清算の結了等,,,2015-10-05,1,,,,,パブリックアセット,0
2236,9013303004443,登記記録の閉鎖等,0,2021-10-25,2021-10-18,東京開発合同会社,,合同会社,東京都,豊島区,南大塚３丁目１７番２－１０４号クレヴィア新大塚,,13,116,1700005,,,2021-10-18,清算の結了等,,,2019-01-09,1,,,,,トウキョウカイハツ,0
2241,9020001105267,登記記録の閉鎖等,0,2021-10-25,2021-10-21,株式会社Ｋ－Ｔ　ＬＩＮＥ,,株式会社,神奈川県,川崎市幸区,古川町５４番地４１号第３コアタツミビル１Ｆ,,14,132,2120025,,,2021-10-21,清算の結了等,,,2015-10-05,1,,,,,,0
2258,9030002120355,登記記録の閉鎖等,0,2021-10-25,2021-10-14,有限会社ナカジマ工業,,有限会社,埼玉県,日高市,大字上鹿山３１９番地３,,11,242,3501234,,,2021-10-14,清算の結了等,,,2015-10-05,1,,,,,,0
2262,9040001072563,登記記録の閉鎖等,0,2021-10-25,2021-10-15,株式会社シンセイ,,株式会社,千葉県,野田市,目吹１６３６番地,,12,208,2780001,,,2021-10-15,清算の結了等,,,2015-10-05,1,,,,,シンセイ,0
2270,9050001011256,登記記録の閉鎖等,0,2021-10-25,2021-10-14,株式会社旭建材興業,,株式会社,茨城県,石岡市,上曽１４０８番地１,,08,205,3150157,,,2021-10-14,清算の結了等,,,2015-10-05,1,,,,,アサヒケンザイコウギョウ,0
2271,9050001013376,登記記録の閉鎖等,0,2021-10-25,2021-10-18,つくば紙工株式会社,,株式会社,茨城県,下妻市,小野子町２丁目３０番,,08,210,3040063,,,2021-10-18,清算の結了等,,,2015-10-05,1,,,,,ツクバシコウ,0
2297,9100002014723,登記記録の閉鎖等,0,2021-10-25,2021-10-21,有限会社堀内,,有限会社,長野県,上田市,御所７１８番地,,20,203,3860033,,,2021-10-21,清算の結了等,,,2015-10-05,1,,,,,ホリウチ,0
2298,9100002034234,登記記録の閉鎖等,0,2021-10-25,2021-10-21,有限会社津野興業,,有限会社,長野県,駒ヶ根市,赤穂１６５５８番地５,,20,210,3994117,,,2021-10-21,清算の結了等,,,2015-10-05,1,,,,,ツノコウギョウ,0
2302,9110005010132,登記記録の閉鎖等,0,2021-10-25,2021-10-19,医療法人社団阿部歯科医院,,その他の設立登記法人,新潟県,十日町市,新座甲４６９番地,,15,210,9480000,,,2021-10-19,清算の結了等,,,2015-10-05,1,,,,,アベシカイイン,0
2308,9120002043472,登記記録の閉鎖等,0,2021-10-25,2021-10-21,有限会社コンストラクション・プランニング,,有限会社,大阪府,大阪市中央区,東高麗橋２－１ルート中之島ビル４０６号,,27,128,5400039,,,2021-10-21,清算の結了等,,,2015-10-05,1,,,,,,0
2309,9120003014489,登記記録の閉鎖等,0,2021-10-25,2021-10-20,合同会社マリアージュ,,合同会社,大阪府,守口市,金下町２丁目２番３号,,27,209,5700079,,,2021-10-20,清算の結了等,,,2018-07-09,1,,,,,マリアージュ,0
2327,9130005003976,登記記録の閉鎖等,0,2021-10-25,2021-10-19,医療法人橋本医院,,その他の設立登記法人,京都府,京都市左京区,吉田神楽岡町７０番地の３,,26,103,6068311,,,2021-10-19,清算の結了等,,,2015-10-05,1,,,,,ハシモトイイン,0
2329,9140001027433,登記記録の閉鎖等,0,2021-10-25,2021-10-21,株式会社信和工業所,,株式会社,兵庫県,神戸市長田区,御蔵通６丁目６番地,,28,106,6530014,,,2021-10-21,清算の結了等,,,2015-10-05,1,,,,,シンワコウギョウショ,0
2330,9140001031187,登記記録の閉鎖等,0,2021-10-25,2021-10-19,株式会社エム・アンド・エス・ティ社,,株式会社,兵庫県,芦屋市,岩園町４９番３５号,,28,206,6590013,,,2021-10-19,清算の結了等,,,2015-10-05,1,,,,,エムアンドエスティシャ,0
2331,9140001036608,登記記録の閉鎖等,0,2021-10-25,2021-10-19,丸和金属株式会社,,株式会社,兵庫県,三田市,学園７丁目２１番９,,28,219,6691337,,,2021-10-19,清算の結了等,,,2015-10-05,1,,,,,マルワキンゾク,0
2332,9150001019371,登記記録の閉鎖等,0,2021-10-25,2021-10-20,株式会社まほろば保険センター,,株式会社,奈良県,奈良市,北之庄町７３６番地の１奈良事務機ビルＣ－０２,,29,201,6308451,,,2021-10-20,清算の結了等,,,2015-10-05,1,,,,,マホロバホケンセンター,0
2353,9230002001469,登記記録の閉鎖等,0,2021-10-25,2021-10-20,新星テント装飾有限会社,,有限会社,富山県,富山市,金代３７３番地,,16,201,9300926,,,2021-10-20,清算の結了等,,,2015-10-05,1,,,,,シンセイテントソウショク,0
2355,9240001038437,登記記録の閉鎖等,0,2021-10-25,2021-10-21,日野組塗装株式会社,,株式会社,広島県,尾道市,向島町７１８５番地１,,34,205,7220073,,,2021-10-21,清算の結了等,,,2015-10-05,1,,,,,ヒノグミトソウ,0
2356,9240001047702,登記記録の閉鎖等,0,2021-10-25,2021-10-21,株式会社Ａｓｔｒａｌ,,株式会社,広島県,広島市中区,幟町２番１９号ライブ・オーク幟町２０４号,,34,101,7300016,,,2021-10-21,清算の結了等,,,2015-10-05,1,,,,,,0
2358,9260001002176,登記記録の閉鎖等,0,2021-10-25,2021-10-22,クリオス株式会社,,株式会社,岡山県,岡山市東区,藤井２３８番地の１,,33,103,7038213,,,2021-10-22,清算の結了等,,,2015-10-05,1,,,,,クリオス,0
2367,9290001055543,登記記録の閉鎖等,0,2021-10-25,2021-10-14,株式会社木楽建築工房,,株式会社,福岡県,久留米市,三潴町清松３７８番地１,,40,203,8300116,,,2021-10-14,清算の結了等,,,2015-10-05,1,,,,,キラクケンチクコウボウ,0
2368,9290001055873,登記記録の閉鎖等,0,2021-10-25,2021-10-14,株式会社アイランド合人社サービス,,株式会社,福岡県,福岡市博多区,博多駅前３丁目２２番８号,,40,132,8120011,,,2021-10-14,清算の結了等,,,2015-10-05,1,,,,,アイランドゴウジンシャサービス,0
2389,9330005005663,登記記録の閉鎖等,0,2021-10-25,2021-10-19,熊本未来テクノロジー事業協同組合,,その他の設立登記法人,熊本県,宇城市,松橋町松橋６６０番地１,,43,213,8690502,,,2021-10-19,清算の結了等,,,2015-10-05,1,,,,,クマモトミライテクノロジー,0
2404,9380002028745,登記記録の閉鎖等,0,2021-10-25,2021-10-21,有限会社ニチエイプランニング,,有限会社,福島県,相馬市,本笑字馬場添１５４番地,,07,209,9760024,,,2021-10-21,清算の結了等,,,2015-10-05,1,,,,,,0
2419,9480001000224,登記記録の閉鎖等,0,2021-10-25,2021-10-20,一宮自動車販売株式会社,,株式会社,徳島県,徳島市,応神町西貞方字小島８２番地,,36,201,7711155,,,2021-10-20,清算の結了等,,,2015-10-05,1,,,,,イチミヤジドウシャハンバイ,0
2421,9480002002376,登記記録の閉鎖等,0,2021-10-25,2021-10-22,有限会社芝田商店,,有限会社,徳島県,徳島市,佐古六番町８番２号,,36,201,7700026,,,2021-10-22,清算の結了等,,,2015-10-05,1,,,,,シバタショウテン,0
