sequenceNumber,corporateNumber,process,correct,updateDate,changeDate,name,nameImageId,kind,prefectureName,cityName,streetNumber,addressImageId,prefectureCode,cityCode,postCode,addressOutside,addressOutsideImageId,closeDate,closeCause,successorCorporateNumber,changeCause,assignmentDate,latest,enName,enPrefectureName,enCityName,enAddressOutside,furigana,hihyoji
7,1010001253181,新規,0,2025-03-24,2025-03-24,株式会社Ｖｔｏｌｙ,,株式会社,東京都,中央区,日本橋堀留町１丁目１０番１号カクタビル２Ｆ,,13,102,1030012,,,,,,,2025-03-24,1,,,,,ブイトライ,0
8,1010001253223,新規,0,2025-03-24,2025-03-24,ＭＯＬＵＲＩＣＡ株式会社,,株式会社,東京都,千代田区,東神田２丁目８番９－７０２号,,13,101,1010031,,,,,,,2025-03-24,1,,,,,モルリカ,0
9,1010001253371,新規,0,2025-03-24,2025-03-24,瑞穗辰星株式会社,,株式会社,東京都,千代田区,富士見２丁目１－９プライムアーバン千代田富士見２０３号室,,13,101,1020071,,,,,,,2025-03-24,1,,,,,ミズホシンセイ,0
21,1010401188894,新規,0,2025-03-24,2025-03-24,Ｇｒｉｐｌｉｎｃ株式会社,,株式会社,東京都,港区,六本木７丁目１７番２２号,,13,103,1060032,,,,,,,2025-03-24,1,,,,,グリップリンク,0
22,1010401189034,新規,0,2025-03-24,2025-03-24,クルマーケット株式会社,,株式会社,東京都,港区,元麻布３丁目１番３５号,,13,103,1060046,,,,,,,2025-03-24,1,,,,,クルマーケット,0
23,1010401189059,新規,0,2025-03-24,2025-03-24,株式会社ＸＹＺ,,株式会社,東京都,港区,新橋６丁目５番４号,,13,103,1050004,,,,,,,2025-03-24,1,,,,,エックスワイゼット,0
26,1010403034675,新規,0,2025-03-24,2025-03-24,合同会社ＨｉＪｏＪｏ　Ｆｕｎｄ４４,,合同会社,東京都,港区,西新橋１丁目７番２号,,13,103,1050003,,,,,,,2025-03-24,1,,,,,ヒジョージョーファンドヨンジュウヨン,0
28,1010503007770,新規,0,2025-03-24,2025-03-24,５ＷＡＹメディカル合同会社,,合同会社,東京都,台東区,竜泉２丁目２０番７号３階,,13,106,1100012,,,,,,,2025-03-24,1,,,,,ファイブウェイメディカル,0
37,1010801035944,新規,0,2025-03-24,2025-03-24,渓嶺科技株式会社,,株式会社,東京都,大田区,東海３丁目７番３号東海ビル３１４室,,13,111,1430001,,,,,,,2025-03-24,1,,,,,ケイレイカギ,0
38,1010901057046,新規,0,2025-03-24,2025-03-24,株式会社ＮＡＫＡＳＵ,,株式会社,東京都,世田谷区,松原２丁目４０番１１－３０１号,,13,112,1560043,,,,,,,2025-03-24,1,,,,,ナカス,0
41,1010905004754,新規,0,2025-03-24,2025-03-24,一般社団法人あんていく,,その他の設立登記法人,東京都,世田谷区,経堂２丁目５番１５号プリンセスガーデンズ２Ｆ,,13,112,1560052,,,,,,,2025-03-24,1,,,,,アンテイク,0
46,1011001167801,新規,0,2025-03-24,2025-03-24,株式会社ＸＸＸ　Ｃｏｎｓｕｌｔｉｎｇ,,株式会社,東京都,渋谷区,渋谷２丁目１９－１５宮益坂ビルディング６０９,,13,113,1500002,,,,,,,2025-03-24,1,,,,,スリーエックスコンサルティング,0
47,1011001168428,新規,0,2025-03-24,2025-03-24,株式会社Ａ‐ＢＬＯＯＭ,,株式会社,東京都,渋谷区,神南１丁目１１番４号ＦＰＧリンクス神南５階,,13,113,1500041,,,,,,,2025-03-24,1,,,,,エーブルーム,0
48,1011001168436,新規,0,2025-03-24,2025-03-24,株式会社Ｂｌｕｅ　Ｔｈｕｎｄｅｒ　Ｊａｐａｎ,,株式会社,東京都,渋谷区,渋谷３丁目５番５号ＨＡＫＫＡビル３Ｆ,,13,113,1500002,,,,,,,2025-03-24,1,,,,,ブルーサンダージャパン,0
49,1011001168469,新規,0,2025-03-24,2025-03-24,株式会社Ｍｅｄｉｔｉｅ,,株式会社,東京都,渋谷区,道玄坂１丁目１０番８号渋谷道玄坂東京ビル２Ｆ－Ｃ,,13,113,1500043,,,,,,,2025-03-24,1,,,,,メディタイ,0
50,1011001168576,新規,0,2025-03-24,2025-03-24,株式会社Ｈａｌｆａ,,株式会社,東京都,目黒区,目黒１丁目９番２２号,,13,110,1530063,,,,,,,2025-03-24,1,,,,,アルファ,0
51,1011001168642,新規,0,2025-03-24,2025-03-24,株式会社ｆｉｌｌ,,株式会社,東京都,目黒区,中目黒１丁目３番８号渡辺ビル６階,,13,110,1530061,,,,,,,2025-03-24,1,,,,,フィル,0
52,1011003021205,新規,0,2025-03-24,2025-03-24,合同会社７７,,合同会社,東京都,目黒区,上目黒２丁目１４番２号橋爪ビル２Ｆ,,13,110,1530051,,,,,,,2025-03-24,1,,,,,ナナナナ,0
53,1011005010916,新規,0,2025-03-24,2025-03-24,一般社団法人Ａｆｒｉｃａ　Ａｓｉａ　Ｙｏｕｔｈ　Ｎｅｓｔ,,その他の設立登記法人,東京都,目黒区,下目黒２丁目１０番１６－５０１号,,13,110,1530064,,,,,,,2025-03-24,1,,,,,アフリカアジアユースネスト,0
57,1011103015684,新規,0,2025-03-24,2025-03-24,合同会社ＵＮＩＳＥＥＤ,,合同会社,東京都,新宿区,新宿１丁目３６－２新宿第七葉山ビル３Ｆ,,13,104,1600022,,,,,,,2025-03-24,1,,,,,ユニシード,0
58,1011103015692,新規,0,2025-03-24,2025-03-24,Ｈｉｎｏｗａ．Ｊａｐａｎ合同会社,,合同会社,東京都,新宿区,西新宿３丁目３番１３号西新宿水間ビル２Ｆ,,13,104,1600023,,,,,,,2025-03-24,1,,,,,ヒノワジャパン,0
59,1011105011376,新規,0,2025-03-24,2025-03-24,医療法人社団桃青会,,その他の設立登記法人,東京都,新宿区,中井２丁目２０番１４号,,13,104,1610035,,,,,,,2025-03-24,1,,,,,トウセイカイ,0
61,1011303005469,新規,0,2025-03-24,2025-03-24,ＴＩＤ合同会社,,合同会社,東京都,杉並区,宮前３丁目１３番１９号ドウェル西荻窪１０５号,,13,115,1680081,,,,,,,2025-03-24,1,,,,,ティーアイディー,0
64,1011503006457,新規,0,2025-03-24,2025-03-24,永望合同会社,,合同会社,東京都,北区,王子１丁目２２－１１－１１０５,,13,117,1140002,,,,,,,2025-03-24,1,,,,,エイボウ,0
68,1011701028179,新規,0,2025-03-24,2025-03-24,株式会社かや,,株式会社,東京都,江戸川区,江戸川３丁目３４番地２８,,13,123,1320013,,,,,,,2025-03-24,1,,,,,カヤ,0
72,1011803006751,新規,0,2025-03-24,2025-03-24,七合同会社,,合同会社,東京都,足立区,千住５丁目１５番１７号,,13,121,1200034,,,,,,,2025-03-24,1,,,,,ナナ,0
75,1012401042908,新規,0,2025-03-24,2025-03-24,株式会社ひつじコミュニケーションズ,,株式会社,東京都,多摩市,連光寺２丁目６２－９－３０１,,13,224,2060021,,,,,,,2025-03-24,1,,,,,ヒツジコミュニケーションズ,0
80,1013303007585,新規,0,2025-03-24,2025-03-24,中部第一蓄電池発電所合同会社,,合同会社,東京都,豊島区,北大塚２丁目１２番８号,,13,116,1700004,,,,,,,2025-03-24,1,,,,,チュウブダイイチチクデンチハツデンショ,0
88,1020001161870,新規,0,2025-03-24,2025-03-24,株式会社ＬＡＤＹ　ＬＵＣＫ,,株式会社,神奈川県,川崎市宮前区,神木２丁目１番地２０,,14,136,2160032,,,,,,,2025-03-24,1,,,,,レディラック,0
89,1020001161879,新規,0,2025-03-24,2025-03-24,株式会社ＹＳｂｏｘｉｎｇ,,株式会社,神奈川県,川崎市宮前区,菅生ケ丘１６－１５,,14,136,2160014,,,,,,,2025-03-24,1,,,,,ワイエスボクシング,0
94,1021001084780,新規,0,2025-03-24,2025-03-24,ＰＬＵＳＯＮＥ株式会社,,株式会社,神奈川県,厚木市,長谷１３３１－９,,14,212,2430036,,,,,,,2025-03-24,1,,,,,プラスワン,0
95,1021003015775,新規,0,2025-03-24,2025-03-24,合同会社Ｖｉｊｕ,,合同会社,神奈川県,座間市,入谷東３丁目８―２３,,14,216,2520028,,,,,,,2025-03-24,1,,,,,ビジュー,0
102,1030001165557,新規,0,2025-03-24,2025-03-24,株式会社ガレージアルファ,,株式会社,埼玉県,鴻巣市,原馬室７８８番地１,,11,217,3650043,,,,,,,2025-03-24,1,,,,,ガレージアルファ,0
105,1030003026377,新規,0,2025-03-24,2025-03-24,ＳＵＧＡＴＨ　ＩＮＤＵＳＴＲＩＥＳ合同会社,,合同会社,埼玉県,入間市,豊岡１丁目３番２５号半田ビル２階ＫＩＶオフィス入間Ｄ号室,,11,225,3580003,,,,,,,2025-03-24,1,,,,,スガスインダストリーズ,0
106,1030003026393,新規,0,2025-03-24,2025-03-24,ＳＨＡＬＩＡＫＴＥＲ合同会社,,合同会社,埼玉県,越谷市,宮前１丁目４－６,,11,222,3430014,,,,,,,2025-03-24,1,,,,,サリアクトラ,0
108,1040001137951,新規,0,2025-03-24,2025-03-24,Ｃａｒ　ｄｅｔａｉｌｉｎｇ　Ｊａｐａｎ株式会社,,株式会社,千葉県,松戸市,五香４丁目２５番地の１８,,12,207,2702213,,,,,,,2025-03-24,1,,,,,カーディテイリングジャパン,0
109,1040001137992,新規,0,2025-03-24,2025-03-24,ＥｍｏｔｉｏｎＡＩ　Ｃｏｎｓｕｌｔｉｎｇ株式会社,,株式会社,千葉県,千葉市美浜区,中瀬１丁目３番地幕張テクノガーデンＣＢ棟３階ＭＢＰ,,12,106,2610023,,,,,,,2025-03-24,1,,,,,エモーションエイアイコンサルティング,0
110,1040003027143,新規,0,2025-03-24,2025-03-24,自動販売機設置サービス合同会社,,合同会社,千葉県,山武市,横田５１８―１００,,12,237,2891226,,,,,,,2025-03-24,1,,,,,ジドウハンバイキセッチサービス,0
112,1050001056374,新規,0,2025-03-24,2025-03-24,欧源商事株式会社,,株式会社,茨城県,守谷市,高野２０３０,,08,224,3020125,,,,,,,2025-03-24,1,,,,,オウゲンショウジ,0
118,1080101025391,新規,0,2025-03-24,2025-03-24,株式会社Ｋ＆Ｓマネジメント,,株式会社,静岡県,沼津市,足高２８７番地８,,22,203,4100001,,,,,,,2025-03-24,1,,,,,ケイアンドエスマネジメント,0
120,1080103003271,新規,0,2025-03-24,2025-03-24,香和軒合同会社,,合同会社,静岡県,富士宮市,ひばりが丘５番地,,22,207,4180003,,,,,,,2025-03-24,1,,,,,,0
123,1080403005232,新規,0,2025-03-24,2025-03-24,合同会社ホーム,,合同会社,静岡県,袋井市,宇刈５５１番地の５,,22,216,4370121,,,,,,,2025-03-24,1,,,,,ホーム,0
124,1100001038425,新規,0,2025-03-24,2025-03-24,株式会社ＢＥＲＮＡ,,株式会社,長野県,上田市,上田原８７２番地７,,20,203,3861102,,,,,,,2025-03-24,1,,,,,ベルナ,0
131,1120001273838,新規,0,2025-03-24,2025-03-24,巨華株式会社,,株式会社,大阪府,大阪市中央区,平野町１丁目１８番１３号平野町八千代ビル３階,,27,128,5410046,,,,,,,2025-03-24,1,,,,,キョカ,0
137,1120003028901,新規,0,2025-03-24,2025-03-24,合同会社あおいかぜ,,合同会社,大阪府,大阪市東成区,大今里南１丁目１８番２２号,,27,115,5370013,,,,,,,2025-03-24,1,,,,,アオイカゼ,0
139,1120103006344,新規,0,2025-03-24,2025-03-24,合同会社浅野商会,,合同会社,大阪府,堺市中区,深井東町３１８４番地２,,27,142,5998235,,,,,,,2025-03-24,1,,,,,アサノショウカイ,0
142,1120905006707,新規,0,2025-03-24,2025-03-24,一般社団法人ｌａｔｅｒ　ｏｎ,,その他の設立登記法人,大阪府,高槻市,芥川町４丁目１４番４号,,27,207,5691123,,,,,,,2025-03-24,1,,,,,レイターオン,0
150,1140001137842,新規,0,2025-03-24,2025-03-24,ＩＭＴＩＡＺ　ＴＲＡＤＩＮＧ株式会社,,株式会社,兵庫県,神戸市長田区,寺池町２丁目２番１３号寺池文化２０４,,28,106,6530804,,,,,,,2025-03-24,1,,,,,イムティアズトレーディング,0
161,1180001165996,新規,0,2025-03-24,2025-03-24,株式会社Ｆｒｏｎｔｉｅｒ　Ｓｐｉｒｉｔｓ,,株式会社,愛知県,名古屋市東区,葵２丁目３番２２号ハウスアベニュー２Ｃ,,23,102,4610004,,,,,,,2025-03-24,1,,,,,フロンティアスピリッツ,0
165,1210001020108,新規,0,2025-03-24,2025-03-24,株式会社ヒロセ,,株式会社,福井県,大野市,中野４７－１１－５,,18,205,9120021,,,,,,,2025-03-24,1,,,,,ヒロセ,0
169,1240001064696,新規,0,2025-03-24,2025-03-24,株式会社白神商店,,株式会社,広島県,尾道市,長江２丁目２１番３３号,,34,205,7220046,,,,,,,2025-03-24,1,,,,,シラカミショウテン,0
174,1280001009383,新規,0,2025-03-24,2025-03-24,由志園デザインシステム株式会社,,株式会社,島根県,松江市,八束町波入１２６０番地の２,,32,201,6901404,,,,,,,2025-03-24,1,,,,,ユウシエンデザインシステム,0
177,1290001109307,新規,0,2025-03-24,2025-03-24,株式会社ＴＲＹ　ＷＡＶＥ,,株式会社,福岡県,福岡市中央区,天神４丁目６－２８天神ファーストビル７Ｆ,,40,133,8100001,,,,,,,2025-03-24,1,,,,,トライウェーブ,0
179,1290005019683,新規,0,2025-03-24,2025-03-24,一般社団法人アニマートピカソ,,その他の設立登記法人,福岡県,福岡市南区,塩原３丁目１７番１４号ウエストヒルズ塩原３０１,,40,134,8150032,,,,,,,2025-03-24,1,,,,,アニマートピカソ,0
180,1320001021004,新規,0,2025-03-24,2025-03-24,株式会社ＫＳインベストメント,,株式会社,大分県,国東市,国東町見地１４１９番地,,44,214,8730533,,,,,,,2025-03-24,1,,,,,ケーエスインベストメント,0
181,1330001032999,新規,0,2025-03-24,2025-03-24,株式会社くまたか不動産,,株式会社,熊本県,熊本市中央区,上水前寺２丁目６番６号,,43,101,8620951,,,,,,,2025-03-24,1,,,,,クマタカフドウサン,0
182,1360001034951,新規,0,2025-03-24,2025-03-24,株式会社Ｂ２Ｎ　ＯＫＩＮＡＷＡ,,株式会社,沖縄県,名護市,城２丁目１５－６,,47,209,9050013,,,,,,,2025-03-24,1,,,,,ビーツーエヌオキナワ,0
188,1370003006997,新規,0,2025-03-24,2025-03-24,合同会社Ｉｎｓｐｉｒｅ　Ｇｒｏｗｔｈ,,合同会社,宮城県,宮城郡利府町,神谷沢字館ノ内５５番地１,,04,406,9810121,,,,,,,2025-03-24,1,,,,,インスパイアグロース,0
192,1400001016978,新規,0,2025-03-24,2025-03-24,株式会社水沢大豆センター,,株式会社,岩手県,奥州市,水沢字樋渡５７番地,,03,215,0230072,,,,,,,2025-03-24,1,,,,,ミズサワダイズセンター,0
201,1430001093965,新規,0,2025-03-24,2025-03-24,ａｉｍサポート株式会社,,株式会社,北海道,札幌市西区,発寒十二条１丁目２番１２号,,01,107,0630832,,,,,,,2025-03-24,1,,,,,エイムサポート,0
219,2010001253387,新規,0,2025-03-24,2025-03-24,株式会社ＭＡホールディングス,,株式会社,東京都,千代田区,富士見２丁目１０番２号飯田橋グラン・ブルーム４階,,13,101,1020071,,,,,,,2025-03-24,1,,,,,エムエーホールディングス,0
220,2010001253453,新規,0,2025-03-24,2025-03-24,アポロテクノロジー株式会社,,株式会社,東京都,中央区,銀座７丁目８番１９号東京ビルディング６階,,13,102,1040061,,,,,,,2025-03-24,1,,,,,アポロテクノロジー,0
227,2010401189058,新規,0,2025-03-24,2025-03-24,Ｒａｎａｌｙｓｅ株式会社,,株式会社,東京都,港区,六本木６丁目１６番１１号,,13,103,1060032,,,,,,,2025-03-24,1,,,,,ラナリス,0
228,2010403034690,新規,0,2025-03-24,2025-03-24,アルーマ合同会社,,合同会社,東京都,港区,南青山２丁目２番地１５号,,13,103,1070062,,,,,,,2025-03-24,1,,,,,アルーマ,0
229,2010403034699,新規,0,2025-03-24,2025-03-24,ＥＶＯＬＶＡＮＣＥ合同会社,,合同会社,東京都,港区,南麻布３丁目９番１４－２０２号,,13,103,1060047,,,,,,,2025-03-24,1,,,,,エボルヴァンス,0
230,2010405024161,新規,0,2025-03-24,2025-03-24,一般社団法人日本タコグラフ製造事業者工業会,,その他の設立登記法人,東京都,港区,港南１丁目８番１５号Ｗビル６Ｆ矢崎エナジーシステム株式会社内,,13,103,1080075,,,,,,,2025-03-24,1,,,,,ニホンタコグラフセイゾウジギョウシャコウギョウカイ,0
232,2010501053824,新規,0,2025-03-24,2025-03-24,タエンエマイユ株式会社,,株式会社,東京都,台東区,松が谷１丁目５番１６号,,13,106,1110036,,,,,,,2025-03-24,1,,,,,タエンエマイユ,0
234,2010503007761,新規,0,2025-03-24,2025-03-24,合同会社サイトサイタ,,合同会社,東京都,台東区,東上野３丁目３５番地１０クレイシア上野１Ｆ,,13,106,1100015,,,,,,,2025-03-24,1,,,,,サイトサイタ,0
238,2010601067006,新規,0,2025-03-24,2025-03-24,株式会社メタトレ,,株式会社,東京都,江東区,平野１丁目３番１６号シャンノール清澄公園３０１号室,,13,108,1350023,,,,,,,2025-03-24,1,,,,,メタトレ,0
239,2010701047403,新規,0,2025-03-24,2025-03-24,めろことの木株式会社,,株式会社,東京都,品川区,荏原２丁目３番１０－１００１号,,13,109,1420063,,,,,,,2025-03-24,1,,,,,メロコトノキ,0
240,2010801035943,新規,0,2025-03-24,2025-03-24,株式会社ＪＨ,,株式会社,東京都,大田区,千鳥１丁目２０番７号,,13,111,1460083,,,,,,,2025-03-24,1,,,,,ジェイエイチ,0
243,2010903009787,新規,0,2025-03-24,2025-03-24,ｔａｉｇｉ合同会社,,合同会社,東京都,世田谷区,太子堂４丁目２８番２号サンフェル三軒茶屋４０１,,13,112,1540004,,,,,,,2025-03-24,1,,,,,タイギ,0
244,2010905004753,新規,0,2025-03-24,2025-03-24,一般社団法人全国子ども支援リスタート協会,,その他の設立登記法人,東京都,世田谷区,北沢２丁目４０－１６－１Ｆ,,13,112,1550031,,,,,,,2025-03-24,1,,,,,ゼンコクコドモシエンリスタートキョウカイ,0
250,2011001168360,新規,0,2025-03-24,2025-03-24,株式会社ＰｏｎｄｅｒＳｃｏｒｅ,,株式会社,東京都,渋谷区,渋谷２丁目１９－１５宮益坂ビルディング６０９,,13,113,1500002,,,,,,,2025-03-24,1,,,,,ポンダースコア,0
251,2011003021204,新規,0,2025-03-24,2025-03-24,合同会社晴々,,合同会社,東京都,渋谷区,上原２丁目２４番６号,,13,113,1510064,,,,,,,2025-03-24,1,,,,,ハレバレ,0
252,2011003021212,新規,0,2025-03-24,2025-03-24,合同会社ＷｉｚＯｚ,,合同会社,東京都,渋谷区,道玄坂１丁目１６番地６二葉ビル８ｂ,,13,113,1500043,,,,,,,2025-03-24,1,,,,,ウィゾズ,0
255,2011101111039,新規,0,2025-03-24,2025-03-24,株式会社ｔｏｗｎ田,,株式会社,東京都,新宿区,西新宿７丁目５番５号Ｐｌａｚａ西新宿ＵＣＦ４０６,,13,104,1600023,,,,,,,2025-03-24,1,,,,,タウンダ,0
256,2011101111055,新規,0,2025-03-24,2025-03-24,株式会社ＲＥＬホールディングス,,株式会社,東京都,新宿区,西新宿８丁目１番２号,,13,104,1600023,,,,,,,2025-03-24,1,,,,,レルホールディングス,0
257,2011103015683,新規,0,2025-03-24,2025-03-24,Ａ　ＢＲＡＮＤ　ＮＥＷ　ＳＴＯＲＹ合同会社,,合同会社,東京都,新宿区,西早稲田１丁目１４番７－１０１号,,13,104,1690051,,,,,,,2025-03-24,1,,,,,アブランドニューストーリー,0
259,2011105011375,新規,0,2025-03-24,2025-03-24,医療法人社団碧光会,,その他の設立登記法人,東京都,新宿区,百人町１丁目１１番２号ＭＯＭＯ１百人町２階,,13,104,1690073,,,,,,,2025-03-24,1,,,,,ヘキコウカイ,0
265,2011801045809,新規,0,2025-03-24,2025-03-24,ＩＴＡＧ株式会社,,株式会社,東京都,足立区,東保木間１丁目３番１－９０２号,,13,121,1210063,,,,,,,2025-03-24,1,,,,,アイティーエイジー,0
266,2011803006750,新規,0,2025-03-24,2025-03-24,合同会社ＫＳＮ,,合同会社,東京都,足立区,梅田６丁目２番１３号,,13,121,1230851,,,,,,,2025-03-24,1,,,,,ケーエスエヌ,0
273,2012703003227,新規,0,2025-03-24,2025-03-24,ＥＮＩＳＨＩ合同会社,,合同会社,東京都,東村山市,恩多町５丁目１３番地４,,13,213,1890011,,,,,,,2025-03-24,1,,,,,エニシ,0
276,2013105001868,新規,0,2025-03-24,2025-03-24,特定非営利活動法人ＨＡＩＪＩＭＡ　ＩＮＴＥＲＮＡＴＩＯＮＡＬ　ＣＯＭＭＵＮＩＴＹ　ＣＥＮＴＥＲ,,その他の設立登記法人,東京都,福生市,大字熊川１６５５番地３白鳥第２ビル１０２号,,13,218,1970003,,,,,,,2025-03-24,1,,,,,ハイジマインターナショナルコミュニティセンター,0
278,2013301053936,新規,0,2025-03-24,2025-03-24,雅豊建設株式会社,,株式会社,東京都,豊島区,北大塚２丁目１２番８号大星ビル５０２,,13,116,1700004,,,,,,,2025-03-24,1,,,,,マサトヨケンセツ,0
279,2013301053977,新規,0,2025-03-24,2025-03-24,株式会社笠原歯工,,株式会社,東京都,豊島区,池袋４丁目２９番２号メゾン藤１０２,,13,116,1710014,,,,,,,2025-03-24,1,,,,,カサハラシコウ,0
293,2021001084747,新規,0,2025-03-24,2025-03-24,アイコニック株式会社,,株式会社,神奈川県,相模原市中央区,横山台１丁目４５番２号,,14,152,2520241,,,,,,,2025-03-24,1,,,,,アイコニック,0
294,2021001084763,新規,0,2025-03-24,2025-03-24,株式会社ＮＥＷ　ＶＩＤＥＯ　ＳＹＳＴＥＭ,,株式会社,神奈川県,厚木市,愛甲東１丁目７－３ＳＥＪＯＵＲＡＩＫＯＵ２０１,,14,212,2430027,,,,,,,2025-03-24,1,,,,,ニュービデオシステム,0
308,2030001165548,新規,0,2025-03-24,2025-03-24,株式会社ＫＲＭ,,株式会社,埼玉県,戸田市,美女木７丁目１８番地１３,,11,224,3350031,,,,,,,2025-03-24,1,,,,,ケーアールエム,0
309,2030001165556,新規,0,2025-03-24,2025-03-24,株式会社テクノリング,,株式会社,埼玉県,川越市,大字池辺３８０番地６,,11,201,3501171,,,,,,,2025-03-24,1,,,,,テクノリング,0
313,2030003026376,新規,0,2025-03-24,2025-03-24,ワイズ工業合同会社,,合同会社,埼玉県,白岡市,上野田６０４番地,,11,246,3490221,,,,,,,2025-03-24,1,,,,,ワイズコウギョウ,0
314,2030003026401,新規,0,2025-03-24,2025-03-24,合同会社大満足,,合同会社,埼玉県,吉川市,大字上内川３５２番地１３,,11,243,3420001,,,,,,,2025-03-24,1,,,,,ダイマンゾク,0
316,2040001137934,新規,0,2025-03-24,2025-03-24,株式会社ＳＤ,,株式会社,千葉県,八千代市,大和田新田８６０,,12,221,2760046,,,,,,,2025-03-24,1,,,,,エスディー,0
317,2040001137950,新規,0,2025-03-24,2025-03-24,ＳＵＣＣＥＥＤＳ株式会社,,株式会社,千葉県,千葉市花見川区,幕張本郷４丁目１５番５号,,12,102,2620033,,,,,,,2025-03-24,1,,,,,サクシーズ,0
323,2040003027142,新規,0,2025-03-24,2025-03-24,合同会社ＩＯＦ　ＲＡＣＩＮＧ,,合同会社,千葉県,市川市,妙典５丁目１３－３３Ａ＆Ｙビル３Ｆ,,12,203,2720111,,,,,,,2025-03-24,1,,,,,アイオーエフレーシング,0
324,2050003009098,新規,0,2025-03-24,2025-03-24,ＭＡＲＩＡ　ＴＲＡＤＥ　ＨＵＢ合同会社,,合同会社,茨城県,行方市,麻生１２５４－１－２－１Ｆ,,08,233,3113832,,,,,,,2025-03-24,1,,,,,マリアトレードハブ,0
325,2050005013585,新規,0,2025-03-24,2025-03-24,医療法人ＤＥＮＴＡＬ　ＴＥＣＮＩＣＡ,,その他の設立登記法人,茨城県,水戸市,上水戸１丁目１１番７号,,08,201,3100041,,,,,,,2025-03-24,1,,,,,デンタルテクニカ,0
326,2060003005484,新規,0,2025-03-24,2025-03-24,合同会社Ｋａｍｉ‐Ｏｎｅ,,合同会社,栃木県,宇都宮市,清原台６丁目３６番７号,,09,201,3213223,,,,,,,2025-03-24,1,,,,,カミワン,0
335,2080003003420,新規,0,2025-03-24,2025-03-24,合同会社ＮａｔｓＯｎｌｉｎｅ,,合同会社,静岡県,静岡市清水区,草薙３５０番地の９９,,22,103,4240886,,,,,,,2025-03-24,1,,,,,ナッツオンライン,0
339,2080101025390,新規,0,2025-03-24,2025-03-24,株式会社強羅花壇富士,,株式会社,静岡県,駿東郡小山町,須走１１０番地の１,,22,344,4101431,,,,,,,2025-03-24,1,,,,,ゴウラカダンフジ,0
341,2080103003279,新規,0,2025-03-24,2025-03-24,合同会社Ａｖａ,,合同会社,静岡県,伊豆の国市,寺家１８４番地ストークハウス守山１０３号,,22,225,4102122,,,,,,,2025-03-24,1,,,,,アヴァ,0
343,2090001019186,新規,0,2025-03-24,2025-03-24,株式会社まもりて,,株式会社,山梨県,甲府市,相生１丁目２－３１ドムス相生２０１,,19,201,4000858,,,,,,,2025-03-24,1,,,,,マモリテ,0
347,2100003008045,新規,0,2025-03-24,2025-03-24,合同会社ＲＡＳＥＮ,,合同会社,長野県,松本市,梓川梓８５６番地２６,,20,202,3901702,,,,,,,2025-03-24,1,,,,,ラセン,0
348,2100003008053,新規,0,2025-03-24,2025-03-24,合同会社サニーフィールド,,合同会社,長野県,上水内郡信濃町,大字柏原字中島２７１１番地１９,,20,583,3891305,,,,,,,2025-03-24,1,,,,,サニーフィールド,0
357,2120001273911,新規,0,2025-03-24,2025-03-24,九猿商事株式会社,,株式会社,大阪府,大阪市住吉区,清水丘２丁目３番２号,,27,120,5580033,,,,,,,2025-03-24,1,,,,,キュウエンショウジ,0
360,2120003028917,新規,0,2025-03-24,2025-03-24,サーフピッチ合同会社,,合同会社,大阪府,大阪市浪速区,日本橋５丁目６番１９－２０２号,,27,111,5560005,,,,,,,2025-03-24,1,,,,,サーフピッチ,0
364,2120105009988,新規,0,2025-03-24,2025-03-24,一般社団法人Ｇｒｅｅｎ　Ｅｎｅｒｇｙ　Ｓｏｌｕｔｉｏｎｓ,,その他の設立登記法人,大阪府,堺市中区,福田９２２番地３,,27,142,5998241,,,,,,,2025-03-24,1,,,,,グリーンエナジーソリューションズ,0
368,2130001079250,新規,0,2025-03-24,2025-03-24,株式会社ソング,,株式会社,京都府,京都市南区,吉祥院池ノ内町４６番地１,,26,107,6018316,,,,,,,2025-03-24,1,,,,,ソング,0
369,2130001079259,新規,0,2025-03-24,2025-03-24,陸華株式会社,,株式会社,京都府,京都市伏見区,深草キトロ町３３－１３－４０３,,26,109,6120025,,,,,,,2025-03-24,1,,,,,リクカ,0
371,2130003010304,新規,0,2025-03-24,2025-03-24,合同会社ＭＳＧ,,合同会社,京都府,京都市伏見区,深草大亀谷八島町６番地の３,,26,109,6120046,,,,,,,2025-03-24,1,,,,,エムエスジー,0
375,2140001137783,新規,0,2025-03-24,2025-03-24,ＡＮＮＡ　ＣＡＮＥ株式会社,,株式会社,兵庫県,小野市,本町５６番地の１５,,28,218,6751372,,,,,,,2025-03-24,1,,,,,アンナカーネ,0
384,2190001032071,新規,0,2025-03-24,2025-03-24,株式会社Ｈａｘｉｏ,,株式会社,三重県,鈴鹿市,住吉町６７８６番地の１１,,24,207,5130825,,,,,,,2025-03-24,1,,,,,ハクシオ,0
385,2200003006732,新規,0,2025-03-24,2025-03-24,合同会社ＲＳＣ,,合同会社,岐阜県,多治見市,旭ケ丘１０丁目６番地の１３４,,21,204,5070071,,,,,,,2025-03-24,1,,,,,アールエスシー,0
387,2200005013735,新規,0,2025-03-24,2025-03-24,プレサンスロジェ岐阜長良橋通り管理組合法人,,その他の設立登記法人,岐阜県,岐阜市,神田町４丁目１６番地,,21,201,5008833,,,,,,,2025-03-24,1,,,,,プレサンスロジェギフナガラバシドオリ,0
389,2210001020107,新規,0,2025-03-24,2025-03-24,株式会社ふへん,,株式会社,福井県,坂井市,三国町神明３丁目７番地１０号,,18,210,9130047,,,,,,,2025-03-24,1,,,,,フヘン,0
390,2210003001897,新規,0,2025-03-24,2025-03-24,合同会社よろづやすてっち,,合同会社,福井県,坂井市,丸岡町西瓜屋第３号１３番地,,18,210,9100246,,,,,,,2025-03-24,1,,,,,ヨロヅヤステッチ,0
404,2240001064646,新規,0,2025-03-24,2025-03-24,株式会社ＭＫ　ＣＯＭＰＡＮＹ,,株式会社,広島県,福山市,西町１丁目１番１号エフピコＲｉＭ１階コーワーキングスペースｔｏｖｉｏ内,,34,207,7200067,,,,,,,2025-03-24,1,,,,,エムケイカンパニー,0
405,2240001064679,新規,0,2025-03-24,2025-03-24,株式会社七八,,株式会社,広島県,三次市,三良坂町三良坂５０４０番地１１,,34,209,7294304,,,,,,,2025-03-24,1,,,,,ナナハチ,0
406,2240001064687,新規,0,2025-03-24,2025-03-24,株式会社ＶＥＳＳＥＬＳ　ＯＮＯＭＩＣＨＩ,,株式会社,広島県,尾道市,土堂２丁目１０番２４号,,34,205,7220035,,,,,,,2025-03-24,1,,,,,ベッセルズオノミチ,0
415,2290003016475,新規,0,2025-03-24,2025-03-24,デライトフル合同会社,,合同会社,福岡県,福岡市南区,大橋３丁目２２－３,,40,134,8150033,,,,,,,2025-03-24,1,,,,,デライトフル,0
420,2300003002250,新規,0,2025-03-24,2025-03-24,ＭＩＲＲＯＲ　ＣＨＡＩＮ合同会社,,合同会社,佐賀県,武雄市,北方町志久１９４３－４,,41,206,8430000,,,,,,,2025-03-24,1,,,,,ミラーチェーン,0
421,2320001021011,新規,0,2025-03-24,2025-03-24,ＣｉｒｃｌｅＴ株式会社,,株式会社,大分県,豊後高田市,呉崎１２５０番地５,,44,209,8790608,,,,,,,2025-03-24,1,,,,,サークルティ,0
425,2360001034942,新規,0,2025-03-24,2025-03-24,株式会社琉球Ｃｒｅａｔｏｒｓ,,株式会社,沖縄県,豊見城市,字高安５７６－１,,47,212,9010242,,,,,,,2025-03-24,1,,,,,リュウキュウクリエイターズ,0
428,2420001019061,新規,0,2025-03-24,2025-03-24,株式会社アイ・プランニング,,株式会社,青森県,平川市,光城７丁目４９番地１,,02,210,0360102,,,,,,,2025-03-24,1,,,,,アイプランニング,0
436,2430003017426,新規,0,2025-03-24,2025-03-24,合同会社ネステルクリエーション,,合同会社,北海道,札幌市南区,澄川五条１３丁目１０番６号,,01,106,0050005,,,,,,,2025-03-24,1,,,,,ネステルクリエーション,0
447,3010401188934,新規,0,2025-03-24,2025-03-24,株式会社Ａｉｍａｂｌｅ,,株式会社,東京都,港区,六本木４丁目２－３５ＶＯＲＴ六本木Ｄｕａｌ’ｓ３０２号,,13,103,1060032,,,,,,,2025-03-24,1,,,,,エマーブル,0
448,3010401189040,新規,0,2025-03-24,2025-03-24,株式会社世現,,株式会社,東京都,港区,麻布十番１丁目３番２号４階,,13,103,1060045,,,,,,,2025-03-24,1,,,,,セヒョン,0
450,3010403034681,新規,0,2025-03-24,2025-03-24,Ｎｏｎ‐ｃｏｇｎｉｔｉｖｅ　ｓｋｉｌｌｓ合同会社,,合同会社,東京都,港区,南青山３丁目１番３６号青山丸竹ビル６Ｆ,,13,103,1070062,,,,,,,2025-03-24,1,,,,,ノンコグニティブスキルス,0
457,3010603011456,新規,0,2025-03-24,2025-03-24,オアシス合同会社,,合同会社,東京都,墨田区,江東橋４丁目２１番６号錦糸町ハイタウン７１９,,13,107,1300022,,,,,,,2025-03-24,1,,,,,オアシス,0
461,3010605004433,新規,0,2025-03-24,2025-03-24,特定非営利活動法人東京都パワーリフティング協会,,その他の設立登記法人,東京都,江東区,東陽２丁目２番２０号３階ゴールドジム事業部内,,13,108,1350016,,,,,,,2025-03-24,1,,,,,トウキョウトパワーリフティングキョウカイ,0
463,3010801035942,新規,0,2025-03-24,2025-03-24,アンバートラスト株式会社,,株式会社,東京都,大田区,南雪谷３丁目１８番１９－２０３号,,13,111,1450066,,,,,,,2025-03-24,1,,,,,アンバートラスト,0
466,3010901057052,新規,0,2025-03-24,2025-03-24,株式会社ｓｉｎｃｅ,,株式会社,東京都,世田谷区,玉川３丁目２３番１８号ＴＨＥＣＩＴＹ３Ｆ,,13,112,1580094,,,,,,,2025-03-24,1,,,,,シンス,0
469,3011001168434,新規,0,2025-03-24,2025-03-24,株式会社Ｒａｖｉｇａ,,株式会社,東京都,渋谷区,道玄坂１丁目１０番８号渋谷道玄坂東急ビル２Ｆ－Ｃ,,13,113,1500043,,,,,,,2025-03-24,1,,,,,ラビーガ,0
474,3011003021145,新規,0,2025-03-24,2025-03-24,Ｗｉｔｈねこ合同会社,,合同会社,東京都,渋谷区,道玄坂１丁目１０－８渋谷道玄坂東急ビル２Ｆ－Ｃ,,13,113,1500043,,,,,,,2025-03-24,1,,,,,ウィズネコ,0
475,3011003021186,新規,0,2025-03-24,2025-03-24,合同会社サクラリュウセイ,,合同会社,東京都,渋谷区,渋谷２丁目１９－１５宮益坂ビルディング６０９,,13,113,1500002,,,,,,,2025-03-24,1,,,,,サクラリュウセイ,0
478,3011101111038,新規,0,2025-03-24,2025-03-24,株式会社ＫＳＴ,,株式会社,東京都,新宿区,大久保２丁目１７番１０号ベアハイム１０２,,13,104,1690072,,,,,,,2025-03-24,1,,,,,ケイエスティー,0
479,3011101111087,新規,0,2025-03-24,2025-03-24,株式会社キスメット・オリザジャパン,,株式会社,東京都,新宿区,四谷３丁目７番,,13,104,1600004,,,,,,,2025-03-24,1,,,,,キスメットオリザジャパン,0
480,3011101111095,新規,0,2025-03-24,2025-03-24,株式会社ＰｕｌｓｅＤｒｉｖｅ,,株式会社,東京都,新宿区,西新宿３丁目３―１３西新宿水間ビル２Ｆ,,13,104,1600023,,,,,,,2025-03-24,1,,,,,パルスドライブ,0
484,3011303005467,新規,0,2025-03-24,2025-03-24,合同会社ＣＯＬＯＲ,,合同会社,東京都,杉並区,西荻北３丁目１７番３号ＣＩＭＡビル２階,,13,115,1670042,,,,,,,2025-03-24,1,,,,,カラー,0
485,3011501031851,新規,0,2025-03-24,2025-03-24,株式会社ＥＸ　Ｓｕｐｐｏｒｔ,,株式会社,東京都,北区,田端３丁目１９番２０号,,13,117,1140014,,,,,,,2025-03-24,1,,,,,イーエックスサポート,0
486,3011703004176,新規,0,2025-03-24,2025-03-24,合同会社ＥｘＳｅｅｄ,,合同会社,東京都,江戸川区,西小松川町４―４,,13,123,1320032,,,,,,,2025-03-24,1,,,,,エクシード,0
490,3011801045832,新規,0,2025-03-24,2025-03-24,株式会社ｅｌａｔｅ,,株式会社,東京都,足立区,関原１丁目６番５号,,13,121,1230852,,,,,,,2025-03-24,1,,,,,エラート,0
494,3012403007031,新規,0,2025-03-24,2025-03-24,合同会社すすむ,,合同会社,東京都,小金井市,貫井南町１丁目１１‐１３,,13,210,1840014,,,,,,,2025-03-24,1,,,,,ススム,0
497,3013301053976,新規,0,2025-03-24,2025-03-24,株式会社ＡＳＳＩＳ,,株式会社,東京都,豊島区,北大塚１丁目１４番５号,,13,116,1700004,,,,,,,2025-03-24,1,,,,,アシス,0
505,3020005016739,新規,0,2025-03-24,2025-03-24,一般社団法人Ｖａｌｏｒ　Ｉｎｔｅｒｎａｔｉｏｎａｌ　Ｓｃｈｏｏｌ,,その他の設立登記法人,神奈川県,横浜市金沢区,能見台通１０番１３号,,14,108,2360053,,,,,,,2025-03-24,1,,,,,ヴァラーインターナショナルスクール,0
510,3021001084762,新規,0,2025-03-24,2025-03-24,株式会社翔貴建設,,株式会社,神奈川県,小田原市,栢山３７５番地４,,14,206,2500852,,,,,,,2025-03-24,1,,,,,ショウキケンセツ,0
511,3021001084779,新規,0,2025-03-24,2025-03-24,ランドコネクト株式会社,,株式会社,神奈川県,藤沢市,藤沢５５９番地３８,,14,205,2510052,,,,,,,2025-03-24,1,,,,,ランドコネクト,0
514,3021003015757,新規,0,2025-03-24,2025-03-24,合同会社ＢＬＥＳＳＩＮＧ,,合同会社,神奈川県,大和市,中央林間４丁目２４番１号メゾンブランシェ１０１号,,14,213,2420007,,,,,,,2025-03-24,1,,,,,ブレッシング,0
515,3021003015781,新規,0,2025-03-24,2025-03-24,うちだい合同会社,,合同会社,神奈川県,藤沢市,柄沢２丁目２８番地の１１,,14,205,2510003,,,,,,,2025-03-24,1,,,,,ウチダイ,0
522,3030001165506,新規,0,2025-03-24,2025-03-24,株式会社ＫＹコンサルティング,,株式会社,埼玉県,所沢市,緑町１丁目１８番８号,,11,208,3591111,,,,,,,2025-03-24,1,,,,,ケイワイコンサルティング,0
523,3030001165514,新規,0,2025-03-24,2025-03-24,株式会社ＭＡＳ　ＪＡＰＡＮ,,株式会社,埼玉県,羽生市,大字藤井上組８９１番地９,,11,216,3480064,,,,,,,2025-03-24,1,,,,,エムエーエスジャパン,0
524,3030001165555,新規,0,2025-03-24,2025-03-24,株式会社セイドウジャパン,,株式会社,埼玉県,桶川市,北１丁目８－１３,,11,231,3630011,,,,,,,2025-03-24,1,,,,,セイドウジャパン,0
540,3040003027117,新規,0,2025-03-24,2025-03-24,合同会社ＥｄｅｌＮｅｓｔ,,合同会社,千葉県,鴨川市,東町１００９番地３０,,12,223,2960041,,,,,,,2025-03-24,1,,,,,エーデルネスト,0
541,3040003027133,新規,0,2025-03-24,2025-03-24,合同会社アンカー,,合同会社,千葉県,松戸市,新松戸７丁目７番地サンライトパストラル五番街Ｂ－２０１,,12,207,2700034,,,,,,,2025-03-24,1,,,,,アンカー,0
543,3050001056364,新規,0,2025-03-24,2025-03-24,株式会社ＭＳ　ＴＲＡＤＩＮＧ,,株式会社,茨城県,坂東市,山２６６８番地６,,08,228,3060502,,,,,,,2025-03-24,1,,,,,エムエストレーディング,0
556,3080402004233,新規,0,2025-03-24,2025-03-24,有限会社鈴木製材所,,有限会社,静岡県,浜松市中央区,海老塚１丁目２０番３１号,,22,138,4328033,,,,,,,2025-03-24,1,,,,,スズキセイザイショ,0
557,3080403005230,新規,0,2025-03-24,2025-03-24,合同会社絆,,合同会社,静岡県,磐田市,松之木島４９５番地１,,22,211,4380125,,,,,,,2025-03-24,1,,,,,キズナ,0
573,3120003028841,新規,0,2025-03-24,2025-03-24,Ｒｉｓｉｎｇ　Ｓｔａｒ　Ｔｒａｄｉｎｇ合同会社,,合同会社,大阪府,大阪市大正区,北村１丁目４－３,,27,108,5510032,,,,,,,2025-03-24,1,,,,,ライジングスタートレーディング,0
578,3120905006705,新規,0,2025-03-24,2025-03-24,特定非営利活動法人道の子,,その他の設立登記法人,大阪府,高槻市,大字原９８９番地,,27,207,5691051,,,,,,,2025-03-24,1,,,,,ミチノコ,0
579,3122001038987,新規,0,2025-03-24,2025-03-24,金尚株式会社,,株式会社,大阪府,東大阪市,新鴻池町１４－２１－３０１,,27,227,5780967,,,,,,,2025-03-24,1,,,,,キンショウ,0
592,3140001137849,新規,0,2025-03-24,2025-03-24,洋洋株式会社,,株式会社,兵庫県,三田市,つつじが丘南４丁目９番地２,,28,219,6691347,,,,,,,2025-03-24,1,,,,,ヨウヨウ,0
593,3140001137881,新規,0,2025-03-24,2025-03-24,株式会社ＮＳサポート,,株式会社,兵庫県,神戸市東灘区,西岡本３丁目２番１－５０１号,,28,101,6580073,,,,,,,2025-03-24,1,,,,,エヌエスサポート,0
599,3140003021828,新規,0,2025-03-24,2025-03-24,テイスターズコーヒージャパン合同会社,,合同会社,兵庫県,芦屋市,涼風町１４番３号,,28,206,6590036,,,,,,,2025-03-24,1,,,,,テイスターズコーヒージャパン,0
602,3170001018542,新規,0,2025-03-24,2025-03-24,株式会社Ｐｏｌａｒｉｓ,,株式会社,和歌山県,西牟婁郡白浜町,内ノ川７５５番地の１,,30,401,6492322,,,,,,,2025-03-24,1,,,,,ポラリス,0
610,3180003028175,新規,0,2025-03-24,2025-03-24,Ｓ＆Ｍ合同会社,,合同会社,愛知県,愛西市,勝幡町元池７９,,23,232,4968001,,,,,,,2025-03-24,1,,,,,エスアンドエム,0
611,3180005020997,新規,0,2025-03-24,2025-03-24,医療法人凜那万会,,その他の設立登記法人,愛知県,名古屋市中区,栄３丁目２７番１号ＳＡＫＡＥＰＬＡＣＥ３階,,23,106,4600008,,,,,,,2025-03-24,1,,,,,リナマカイ,0
615,3200001043561,新規,0,2025-03-24,2025-03-24,株式会社土手商事,,株式会社,岐阜県,羽島郡岐南町,若宮地２丁目２３３番地の１,,21,302,5016005,,,,,,,2025-03-24,1,,,,,ドテショウジ,0
619,3210003001896,新規,0,2025-03-24,2025-03-24,合同会社ＳＩＤＥ,,合同会社,福井県,あわら市,横垣第２０号１５番地９,,18,208,9104113,,,,,,,2025-03-24,1,,,,,サイド,0
627,3240003007123,新規,0,2025-03-24,2025-03-24,合同会社ＳＧ技研,,合同会社,広島県,広島市安佐北区,深川１丁目４５番２２－１０号,,34,106,7391751,,,,,,,2025-03-24,1,,,,,エスジーギケン,0
632,3260005011451,新規,0,2025-03-24,2025-03-24,一般社団法人一刀,,その他の設立登記法人,岡山県,瀬戸内市,長船町福岡７７８番地,,33,212,7014265,,,,,,,2025-03-24,1,,,,,イットウ,0
639,3290001109354,新規,0,2025-03-24,2025-03-24,美声株式会社,,株式会社,福岡県,福岡市博多区,博多駅中央街５番１１号,,40,132,8120012,,,,,,,2025-03-24,1,,,,,ビセイ,0
645,3320001021010,新規,0,2025-03-24,2025-03-24,Ｏｂａ株式会社,,株式会社,大分県,大分市,生石港町２丁目１０番１０号,,44,201,8700001,,,,,,,2025-03-24,1,,,,,オオバ,0
668,3450003002623,新規,0,2025-03-24,2025-03-24,合同会社Ｌｉｎｋ,,合同会社,北海道,留萌市,寿町１丁目２７番地の５,,01,212,0770038,,,,,,,2025-03-24,1,,,,,リンク,0
687,4010003046853,新規,0,2025-03-24,2025-03-24,合同会社ＳＧＢ００１,,合同会社,東京都,千代田区,丸の内３丁目２番２号丸の内二重橋ビル２階,,13,101,1000005,,,,,,,2025-03-24,1,,,,,エスジービーゼロゼロワン,0
688,4010005039789,新規,0,2025-03-24,2025-03-24,一般社団法人ＣＪファンド・Ｂ,,その他の設立登記法人,東京都,千代田区,神田錦町１丁目２１番１号,,13,101,1010054,,,,,,,2025-03-24,1,,,,,シージェーファンドビー,0
703,4010403034656,新規,0,2025-03-24,2025-03-24,Ｔｈｅ　Ｂａｕｈｉｎｉａ　Ｈｏｔｅｌｓ　Ｇｒｏｕｐ　Ｊａｐａｎ６合同会社,,合同会社,東京都,港区,赤坂３丁目２番２号日総第２４ビル,,13,103,1070052,,,,,,,2025-03-24,1,,,,,ザバウヒニアホテルズグループジャパンシックス,0
704,4010403034672,新規,0,2025-03-24,2025-03-24,Ｆｊｏｒｄ　Ａｂｙｓｓ合同会社,,合同会社,東京都,港区,新橋４丁目１４番１号新橋ＡＵＮＢＬＤＧ４階,,13,103,1050004,,,,,,,2025-03-24,1,,,,,フィヨルドアビス,0
705,4010405024226,新規,0,2025-03-24,2025-03-24,一般財団法人サムワン基金,,その他の設立登記法人,東京都,港区,赤坂３丁目９番４号扇やビル５Ｆ,,13,103,1070052,,,,,,,2025-03-24,1,,,,,サムワンキキン,0
708,4010601066947,新規,0,2025-03-24,2025-03-24,株式会社ｉｍｐｒｅｓｓ,,株式会社,東京都,江東区,白河４丁目６番１５号,,13,108,1350021,,,,,,,2025-03-24,1,,,,,インプレス,0
728,4011003021185,新規,0,2025-03-24,2025-03-24,Ｑｕｒｉｏ合同会社,,合同会社,東京都,目黒区,八雲２丁目２０番２号,,13,110,1520023,,,,,,,2025-03-24,1,,,,,クリオ,0
729,4011003021193,新規,0,2025-03-24,2025-03-24,ＥＣＯ　ＢＲＯＳ合同会社,,合同会社,東京都,目黒区,上目黒４丁目３６番１９号サンコート上目黒２０３,,13,110,1530051,,,,,,,2025-03-24,1,,,,,エコブロス,0
734,4011101111029,新規,0,2025-03-24,2025-03-24,ＲＥＧＥＮＥＭＥＤ　ＴＯＫＹＯ株式会社,,株式会社,東京都,新宿区,北新宿２丁目５番２２号,,13,104,1690074,,,,,,,2025-03-24,1,,,,,リジェネメッドトウキョウ,0
735,4011101111045,新規,0,2025-03-24,2025-03-24,株式会社雄志,,株式会社,東京都,新宿区,歌舞伎町２丁目４２－３林ビル４Ｆ,,13,104,1600021,,,,,,,2025-03-24,1,,,,,ユウシ,0
736,4011101111061,新規,0,2025-03-24,2025-03-24,Ｃｉｒｃｕｌａｒ　Ｃｅｌｌ　Ｃｕｌｔｕｒｅ株式会社,,株式会社,東京都,新宿区,河田町８番１号東京女子医科大学先端生命医科学研究所,,13,104,1620054,,,,,,,2025-03-24,1,,,,,サーキュラーセルカルチャー,0
739,4011501031850,新規,0,2025-03-24,2025-03-24,上東株式会社,,株式会社,東京都,荒川区,東尾久２丁目２番９号三祥ビル２４１,,13,118,1160012,,,,,,,2025-03-24,1,,,,,ジョウトウ,0
743,4011803006749,新規,0,2025-03-24,2025-03-24,Ｌｅｘ‐Ｆｕｎｄ合同会社,,合同会社,東京都,葛飾区,西亀有４丁目１８－７,,13,122,1250002,,,,,,,2025-03-24,1,,,,,レックスファンド,0
744,4012401042896,新規,0,2025-03-24,2025-03-24,株式会社アミューズネイト,,株式会社,東京都,稲城市,平尾１丁目３２番地の９リンジュドゥプリムＧ－３,,13,225,2060823,,,,,,,2025-03-24,1,,,,,アミューズネイト,0
755,4021001084761,新規,0,2025-03-24,2025-03-24,Ｔｅｅ　Ｔｉｍｅｓ株式会社,,株式会社,神奈川県,綾瀬市,上土棚南２丁目８番１号,,14,218,2521114,,,,,,,2025-03-24,1,,,,,ティータイムス,0
759,4021003015772,新規,0,2025-03-24,2025-03-24,合同会社増井設備,,合同会社,神奈川県,大和市,上和田１７１６番地１４,,14,213,2420014,,,,,,,2025-03-24,1,,,,,マスイセツビ,0
765,4030001165521,新規,0,2025-03-24,2025-03-24,金辰株式会社,,株式会社,埼玉県,川口市,芝２丁目２２番６－２号,,11,203,3330866,,,,,,,2025-03-24,1,,,,,カネタツ,0
769,4030003026399,新規,0,2025-03-24,2025-03-24,合同会社炉炉,,合同会社,埼玉県,川越市,連雀町２５番地７号２０１号室,,11,201,3500066,,,,,,,2025-03-24,1,,,,,ロロ,0
773,4040003027140,新規,0,2025-03-24,2025-03-24,合同会社バトンライフ,,合同会社,千葉県,香取市,沢２３０１番地３,,12,236,2870105,,,,,,,2025-03-24,1,,,,,バトンライフ,0
776,4050005013583,新規,0,2025-03-24,2025-03-24,医療法人神榮会,,その他の設立登記法人,茨城県,神栖市,須田２３４０番地１８６,,08,232,3140253,,,,,,,2025-03-24,1,,,,,シンエイカイ,0
781,4080101025389,新規,0,2025-03-24,2025-03-24,恭真空調株式会社,,株式会社,静岡県,伊東市,吉田７４７番地の２４０,,22,208,4140051,,,,,,,2025-03-24,1,,,,,キョウシンクウチョウ,0
790,4110001039130,新規,0,2025-03-24,2025-03-24,株式会社ＨＡＲＵＫＩ建設,,株式会社,新潟県,新潟市西区,善久６９７―１,,15,107,9501102,,,,,,,2025-03-24,1,,,,,ハルキケンセツ,0
803,4120001273918,新規,0,2025-03-24,2025-03-24,株式会社スカラベ,,株式会社,大阪府,大阪市城東区,関目２丁目１２‐３７ザパークハウス関目１３０４,,27,118,5360008,,,,,,,2025-03-24,1,,,,,スカラベ,0
804,4120001274098,新規,0,2025-03-24,2025-03-24,株式会社メトリクス,,株式会社,大阪府,大阪市北区,梅田１丁目２番２号大阪駅前第２ビル１２‐１２,,27,127,5300001,,,,,,,2025-03-24,1,,,,,メトリクス,0
824,4140001137716,新規,0,2025-03-24,2025-03-24,株式会社Ｇｌｏｂａｌ　Ｂｏｎｄ　Ｅｎｇｉｎｅｅｒｉｎｇ,,株式会社,兵庫県,尼崎市,武庫元町３丁目５番１４－１０３号,,28,202,6610043,,,,,,,2025-03-24,1,,,,,グローバルボンドエンジニアリング,0
835,4180001166018,新規,0,2025-03-24,2025-03-24,株式会社サポートワークス,,株式会社,愛知県,北名古屋市,徳重本郷１１番地,,23,234,4810038,,,,,,,2025-03-24,1,,,,,サポートワークス,0
841,4210001020105,新規,0,2025-03-24,2025-03-24,株式会社すてっぷｉ,,株式会社,福井県,福井市,新田塚２丁目１６番１号,,18,201,9100067,,,,,,,2025-03-24,1,,,,,ステップアイ,0
849,4240001064685,新規,0,2025-03-24,2025-03-24,株式会社ハビニティ,,株式会社,広島県,廿日市市,峠３５５番地１４,,34,213,7380202,,,,,,,2025-03-24,1,,,,,ハビニティ,0
850,4240001064693,新規,0,2025-03-24,2025-03-24,株式会社ＫＳＫ,,株式会社,広島県,廿日市市,地御前１丁目１１番１４号,,34,213,7380042,,,,,,,2025-03-24,1,,,,,ケーエスケー,0
853,4240005015916,新規,0,2025-03-24,2025-03-24,医療法人みのる会,,その他の設立登記法人,広島県,広島市東区,牛田本町６丁目１番２７号５階,,34,102,7320066,,,,,,,2025-03-24,1,,,,,ミノルカイ,0
861,4290003016580,新規,0,2025-03-24,2025-03-24,ＫＴ　Ａｃｃｏｕｎｔｉｎｇ合同会社,,合同会社,福岡県,福岡市中央区,天神２丁目２番１２号７階,,40,133,8100001,,,,,,,2025-03-24,1,,,,,ケイティアカウンティング,0
863,4290005019664,新規,0,2025-03-24,2025-03-24,医療法人輝翔会,,その他の設立登記法人,福岡県,福岡市東区,香椎照葉５丁目１番１４号ラクレイス香椎照葉１階,,40,131,8130017,,,,,,,2025-03-24,1,,,,,キショウカイ,0
871,4320003004607,新規,0,2025-03-24,2025-03-24,合同会社たからばこ,,合同会社,大分県,大分市,ふじが丘山手３丁目４番４号,,44,201,8701184,,,,,,,2025-03-24,1,,,,,タカラバコ,0
876,4360001034949,新規,0,2025-03-24,2025-03-24,キセイ株式会社,,株式会社,沖縄県,那覇市,首里桃原町２丁目１番地６（１階）,,47,201,9030822,,,,,,,2025-03-24,1,,,,,キセイ,0
878,4360003014791,新規,0,2025-03-24,2025-03-24,合同会社レイワオート,,合同会社,沖縄県,国頭郡恩納村,字仲泊８１５番地１,,47,311,9040415,,,,,,,2025-03-24,1,,,,,レイワオート,0
895,4390005009110,新規,0,2025-03-24,2025-03-24,一般社団法人遊佐町総合型クラブゆず,,その他の設立登記法人,山形県,飽海郡遊佐町,遊佐字鶴田２９番地の２,,06,461,9998301,,,,,,,2025-03-24,1,,,,,ユザマチソウゴウガタクラブユズ,0
901,4430001093962,新規,0,2025-03-24,2025-03-24,Ｍｒ．Ｃｏｎｆｌｕｅｎｃｅ　Ｍａｋｅｒｓ株式会社,,株式会社,北海道,札幌市中央区,北四条西４丁目１番地７,,01,101,0600004,,,,,,,2025-03-24,1,,,,,ミスターコンフルエンスメイカーズ,0
903,4430003017424,新規,0,2025-03-24,2025-03-24,合同会社ＫＫ総合サービス,,合同会社,北海道,苫小牧市,日吉町２丁目９－１３,,01,213,0530816,,,,,,,2025-03-24,1,,,,,ケーケーソウゴウサービス,0
904,4430005015186,新規,0,2025-03-24,2025-03-24,一般社団法人日本野球の杜,,その他の設立登記法人,北海道,北広島市,共栄町４丁目１－１２,,01,234,0611113,,,,,,,2025-03-24,1,,,,,ニッポンヤキュウノモリ,0
905,4450003002622,新規,0,2025-03-24,2025-03-24,ＭｙＰｅｔＢｕｄｄｙ合同会社,,合同会社,北海道,上川郡当麻町,緑郷２区,,01,454,0781335,,,,,,,2025-03-24,1,,,,,マイペットバディ,0
915,5010001253392,新規,0,2025-03-24,2025-03-24,株式会社ＨＡＭ,,株式会社,東京都,文京区,湯島３丁目４１番１２号,,13,105,1130034,,,,,,,2025-03-24,1,,,,,ハム,0
916,5010001253401,新規,0,2025-03-24,2025-03-24,株式会社設立準備法人第３号,,株式会社,東京都,千代田区,九段南１丁目６番５号九段会館テラス,,13,101,1020074,,,,,,,2025-03-24,1,,,,,セツリツジュンビホウジンダイサンゴウ,0
919,5010005039788,新規,0,2025-03-24,2025-03-24,一般社団法人雇用助成金活用プランナーズ協会,,その他の設立登記法人,東京都,文京区,本郷３丁目３番１５号,,13,105,1130033,,,,,,,2025-03-24,1,,,,,コヨウジョセイキンカツヨウプランナーズキョウカイ,0
923,5010401189055,新規,0,2025-03-24,2025-03-24,株式会社ポイントネモ,,株式会社,東京都,港区,浜松町２丁目２番１５号浜松町ダイヤビル２階,,13,103,1050013,,,,,,,2025-03-24,1,,,,,ポイントネモ,0
924,5010403034671,新規,0,2025-03-24,2025-03-24,Ｒ’ｓ　Ａｓｓｅｔ合同会社,,合同会社,東京都,港区,西麻布３丁目５番２３号クアトロＤ,,13,103,1060031,,,,,,,2025-03-24,1,,,,,アールズアセット,0
926,5010501053771,新規,0,2025-03-24,2025-03-24,Ｍａｌａｍａ株式会社,,株式会社,東京都,台東区,西浅草３丁目２９番１８号１１０１,,13,106,1110035,,,,,,,2025-03-24,1,,,,,マラマ,0
927,5010501053821,新規,0,2025-03-24,2025-03-24,万盈株式会社,,株式会社,東京都,台東区,東上野１丁目２２番１号宝華ビル３階Ａ室,,13,106,1100015,,,,,,,2025-03-24,1,,,,,バンエイ,0
929,5010703007609,新規,0,2025-03-24,2025-03-24,合同会社Ａｄｖａｎｃｅ　ｉｎ　ｕｎｉｓｏｎ,,合同会社,東京都,品川区,西五反田３丁目１５番９－３０２号,,13,109,1410031,,,,,,,2025-03-24,1,,,,,アドバンスインユニゾン,0
931,5010803005330,新規,0,2025-03-24,2025-03-24,合同会社ＣＲＩＥＨＴ,,合同会社,東京都,大田区,山王２丁目１９番１１号,,13,111,1430023,,,,,,,2025-03-24,1,,,,,クリエイト,0
933,5011001168390,新規,0,2025-03-24,2025-03-24,ｉｍｐ株式会社,,株式会社,東京都,渋谷区,道玄坂１丁目１０番８号渋谷道玄坂東急ビル２Ｆ－Ｃ,,13,113,1500043,,,,,,,2025-03-24,1,,,,,インプ,0
934,5011001168589,新規,0,2025-03-24,2025-03-24,株式会社Ｂｅｃａｌｍ,,株式会社,東京都,渋谷区,道玄坂１丁目１０番８号渋谷道玄坂東急ビル２Ｆ‐Ｃ,,13,113,1500043,,,,,,,2025-03-24,1,,,,,ビーカルム,0
935,5011001168639,新規,0,2025-03-24,2025-03-24,株式会社インファリー,,株式会社,東京都,渋谷区,道玄坂１丁目１０番８号渋谷道玄坂東急ビル２Ｆ－Ｃ,,13,113,1500043,,,,,,,2025-03-24,1,,,,,インファリー,0
938,5011003021028,新規,0,2025-03-24,2025-03-24,合同会社Ｕｎｉｃｏ,,合同会社,東京都,目黒区,自由が丘２丁目１６－１２ＬＣ１Ｆ,,13,110,1520035,,,,,,,2025-03-24,1,,,,,ウニコ,0
941,5011101111036,新規,0,2025-03-24,2025-03-24,ＦｒｅｏＭｏｔｔｏ株式会社,,株式会社,東京都,新宿区,北新宿１丁目７番２０号アルテビル北新宿,,13,104,1690074,,,,,,,2025-03-24,1,,,,,フレオモット,0
942,5011101111044,新規,0,2025-03-24,2025-03-24,株式会社ｉｎｔｅｌｅｘ,,株式会社,東京都,新宿区,四谷三栄町１１番１６号,,13,104,1600008,,,,,,,2025-03-24,1,,,,,インテレクス,0
943,5011101111052,新規,0,2025-03-24,2025-03-24,株式会社ＫＥＮＺＯ探偵事務所,,株式会社,東京都,新宿区,西新宿４丁目２９番１０号エクセル１－１Ｆ,,13,104,1600023,,,,,,,2025-03-24,1,,,,,ケンゾータンテイジムショ,0
944,5011101111060,新規,0,2025-03-24,2025-03-24,ＭＯＴ　Ｊａｐａｎ株式会社,,株式会社,東京都,新宿区,四谷４丁目２番地１,,13,104,1600004,,,,,,,2025-03-24,1,,,,,エムオーティージャパン,0
945,5011101111069,新規,0,2025-03-24,2025-03-24,株式会社ＧＬＯＢＡＬ　ＪＯＢＳ,,株式会社,東京都,新宿区,下宮比町２番２８号飯田橋ハイタウン１０２７,,13,104,1620822,,,,,,,2025-03-24,1,,,,,グローバルジョブズ,0
946,5011103015672,新規,0,2025-03-24,2025-03-24,新之港インターナショナル合同会社,,合同会社,東京都,新宿区,西新宿５丁目８番２－４１６号,,13,104,1600023,,,,,,,2025-03-24,1,,,,,シンノミナトインターナショナル,0
947,5011105011372,新規,0,2025-03-24,2025-03-24,一般社団法人日本医師事務作業補助者育成機構,,その他の設立登記法人,東京都,新宿区,新宿７丁目２６番７－５０９号,,13,104,1600022,,,,,,,2025-03-24,1,,,,,ニホンイシジムサギョウホジョシャイクセイキコウ,0
948,5011105011380,新規,0,2025-03-24,2025-03-24,医療法人社団誠豊会,,その他の設立登記法人,東京都,新宿区,住吉町５番１号吉村ビル１階,,13,104,1620065,,,,,,,2025-03-24,1,,,,,セイホウカイ,0
953,5011503006461,新規,0,2025-03-24,2025-03-24,ＷＡＲＯＯＭ合同会社,,合同会社,東京都,北区,志茂５丁目１１番１７号,,13,117,1150042,,,,,,,2025-03-24,1,,,,,ワルーム,0
956,5011801045830,新規,0,2025-03-24,2025-03-24,Ｆｌａｍｅｐｅａｋ株式会社,,株式会社,東京都,足立区,西綾瀬１丁目８番１１号サンハイツ綾瀬１０４,,13,121,1200014,,,,,,,2025-03-24,1,,,,,フレームピーク,0
959,5011803006748,新規,0,2025-03-24,2025-03-24,合同会社ビューティーコラボ,,合同会社,東京都,葛飾区,四つ木５丁目１９番１２－２０２号レーベンハイムお花茶屋フレイス,,13,122,1240011,,,,,,,2025-03-24,1,,,,,ビューティーコラボ,0
973,5021001084752,新規,0,2025-03-24,2025-03-24,株式会社五覚社,,株式会社,神奈川県,厚木市,寿町２丁目１－１８,,14,212,2430003,,,,,,,2025-03-24,1,,,,,ゴカクシャ,0
974,5021001084769,新規,0,2025-03-24,2025-03-24,Ｒａｉｊｉｎ株式会社,,株式会社,神奈川県,藤沢市,藤沢３丁目１－３,,14,205,2510052,,,,,,,2025-03-24,1,,,,,ライジン,0
976,5021003015771,新規,0,2025-03-24,2025-03-24,合同会社癒し処Ｓａｒａ,,合同会社,神奈川県,小田原市,東町３丁目３－１６,,14,206,2500003,,,,,,,2025-03-24,1,,,,,イヤシドコロ,0
980,5030001165504,新規,0,2025-03-24,2025-03-24,ＬＬＴ株式会社,,株式会社,埼玉県,草加市,遊馬町７３３－２０５号室,,11,221,3400032,,,,,,,2025-03-24,1,,,,,エルエルティー,0
981,5030001165520,新規,0,2025-03-24,2025-03-24,味勝株式会社,,株式会社,埼玉県,坂戸市,大字厚川５４番地３ＫＩＶオフィス一本松Ｄ号室,,11,239,3500242,,,,,,,2025-03-24,1,,,,,アジカツ,0
984,5030003026381,新規,0,2025-03-24,2025-03-24,合同会社フルサポート,,合同会社,埼玉県,新座市,畑中１丁目４番２７号,,11,230,3520012,,,,,,,2025-03-24,1,,,,,フルサポート,0
985,5030003026398,新規,0,2025-03-24,2025-03-24,合同会社崇千,,合同会社,埼玉県,さいたま市大宮区,北袋町２丁目２３８番地１５,,11,103,3300835,,,,,,,2025-03-24,1,,,,,タカセン,0
999,5040003027057,新規,0,2025-03-24,2025-03-24,沙羅トレーディング合同会社,,合同会社,千葉県,野田市,古布内１４８５番地４－１Ｆ,,12,208,2700221,,,,,,,2025-03-24,1,,,,,サラトレーディング,0
1001,5040005022700,新規,0,2025-03-24,2025-03-24,農事組合法人みのりファーム,,その他の設立登記法人,千葉県,市川市,下貝塚１丁目３－３２Ａ室,,12,203,2720821,,,,,,,2025-03-24,1,,,,,ミノリファーム,0
1005,5050003009129,新規,0,2025-03-24,2025-03-24,合同会社なる,,合同会社,茨城県,つくば市,並木４丁目７番地４０号,,08,220,3050044,,,,,,,2025-03-24,1,,,,,ナル,0
1006,5050003009137,新規,0,2025-03-24,2025-03-24,エヴァント合同会社,,合同会社,茨城県,石岡市,大谷津４番２５号,,08,205,3150036,,,,,,,2025-03-24,1,,,,,エヴァント,0
1008,5050005013582,新規,0,2025-03-24,2025-03-24,一般社団法人日中観光交流促進協会,,その他の設立登記法人,茨城県,ひたちなか市,湊本町１８番２５号,,08,221,3111221,,,,,,,2025-03-24,1,,,,,ニッチュウカンコウコウリュウソクシンキョウカイ,0
1010,5060003005481,新規,0,2025-03-24,2025-03-24,ＳＫＲ合同会社,,合同会社,栃木県,佐野市,大橋町３２－５１－８,,09,204,3270003,,,,,,,2025-03-24,1,,,,,エスケイアール,0
1017,5090003002781,新規,0,2025-03-24,2025-03-24,合同会社サンベリージャパン,,合同会社,山梨県,中巨摩郡昭和町,西条新田６８番地２４,,19,384,4093865,,,,,,,2025-03-24,1,,,,,サンベリージャパン,0
1019,5100001038405,新規,0,2025-03-24,2025-03-24,株式会社ＲＥＶＥＲＹ,,株式会社,長野県,長野市,桜新町８０１番地２７,,20,201,3810013,,,,,,,2025-03-24,1,,,,,レベリー,0
1020,5100001038421,新規,0,2025-03-24,2025-03-24,株式会社０十,,株式会社,長野県,上高井郡小布施町,大字小布施１１１１番地,,20,541,3810201,,,,,,,2025-03-24,1,,,,,マルット,0
1028,5120001273842,新規,0,2025-03-24,2025-03-24,株式会社日晟鴻図,,株式会社,大阪府,大阪市住吉区,長居２丁目１０番３－１０８号,,27,120,5580003,,,,,,,2025-03-24,1,,,,,ニッセイコウト,0
1029,5120005024845,新規,0,2025-03-24,2025-03-24,一般社団法人ＴＫＣ,,その他の設立登記法人,大阪府,大阪市東成区,大今里南２丁目１３－３８－３０４,,27,115,5370013,,,,,,,2025-03-24,1,,,,,ティーケーシー,0
1035,5130003010301,新規,0,2025-03-24,2025-03-24,合同会社ピリカ,,合同会社,京都府,相楽郡南山城村,大字北大河原小字釜ノ子２９－１７５,,26,367,6191411,,,,,,,2025-03-24,1,,,,,ピリカ,0
1048,5180001166041,新規,0,2025-03-24,2025-03-24,Ｗａｎｈｏｍｅ株式会社,,株式会社,愛知県,名古屋市中川区,中島新町２丁目１００３番地,,23,110,4540932,,,,,,,2025-03-24,1,,,,,ワンホーム,0
1052,5180003028181,新規,0,2025-03-24,2025-03-24,合同会社ルクシア,,合同会社,愛知県,名古屋市中村区,東宿町３丁目８７番地,,23,105,4530063,,,,,,,2025-03-24,1,,,,,ルクシア,0
1060,5190001032093,新規,0,2025-03-24,2025-03-24,株式会社イーグルテック,,株式会社,三重県,津市,栗真中山町３８２番地１,,24,201,5140103,,,,,,,2025-03-24,1,,,,,イーグルテック,0
1063,5200001043551,新規,0,2025-03-24,2025-03-24,Ｍｉｎｏｒｉｔｙ　ｔｏ　Ｍａｊｏｒ株式会社,,株式会社,岐阜県,羽島郡岐南町,三宅４丁目２１６,,21,302,5016002,,,,,,,2025-03-24,1,,,,,マイノリティトゥメジャー,0
1066,5220001026488,新規,0,2025-03-24,2025-03-24,株式会社元気の源,,株式会社,石川県,能美市,佐野町甲３番地,,17,211,9231112,,,,,,,2025-03-24,1,,,,,ゲンキノミナモト,0
1071,5240001064676,新規,0,2025-03-24,2025-03-24,株式会社ＡＢＷ,,株式会社,広島県,広島市南区,大須賀町１３番１７号,,34,103,7320821,,,,,,,2025-03-24,1,,,,,エービーダブリュー,0
1072,5240001064684,新規,0,2025-03-24,2025-03-24,株式会社オーシャン,,株式会社,広島県,広島市西区,己斐大迫２丁目１９番９号,,34,104,7330816,,,,,,,2025-03-24,1,,,,,オーシャン,0
1074,5240005015915,新規,0,2025-03-24,2025-03-24,一般社団法人高次脳機能障害友の会ひろしま,,その他の設立登記法人,広島県,廿日市市,阿品３丁目１３番８－１号,,34,213,7380054,,,,,,,2025-03-24,1,,,,,コウジノウキノウショウガイトモノカイヒロシマ,0
1088,5260001040031,新規,0,2025-03-24,2025-03-24,株式会社頼人,,株式会社,岡山県,津山市,紫保井９４６番地１,,33,203,7080805,,,,,,,2025-03-24,1,,,,,ライト,0
1091,5270003001724,新規,0,2025-03-24,2025-03-24,合同会社ＨＡＣＨＩ,,合同会社,鳥取県,鳥取市,永楽温泉町５５５番地４フローレンス永楽通りグランドアーク２０５号,,31,201,6800834,,,,,,,2025-03-24,1,,,,,ハチ,0
1094,5290801031383,新規,0,2025-03-24,2025-03-24,株式会社アットウィル,,株式会社,福岡県,北九州市小倉北区,井堀４丁目５番６－９０５号,,40,106,8030835,,,,,,,2025-03-24,1,,,,,アットウィル,0
1095,5290803004998,新規,0,2025-03-24,2025-03-24,合同会社ｕｎ　ｔｒｅｓｏｒ,,合同会社,福岡県,京都郡苅田町,大字提３７６４－２,,40,621,8000364,,,,,,,2025-03-24,1,,,,,アントレゾール,0
1104,5320003004606,新規,0,2025-03-24,2025-03-24,合同会社野田商店,,合同会社,大分県,大分市,大字竹矢２４５２番地の３,,44,201,8701211,,,,,,,2025-03-24,1,,,,,ノダショウテン,0
1105,5330001033003,新規,0,2025-03-24,2025-03-24,株式会社爽岐設備,,株式会社,熊本県,合志市,須屋２３５１－６６,,43,216,8611102,,,,,,,2025-03-24,1,,,,,ソウキセツビ,0
1108,5340003004785,新規,0,2025-03-24,2025-03-24,合同会社ＩＳガレージ,,合同会社,鹿児島県,鹿児島市,慈眼寺町８番３号メゾン・ラ・シェル２０２号,,46,201,8910146,,,,,,,2025-03-24,1,,,,,アイエスガレージ,0
1119,5430001093978,新規,0,2025-03-24,2025-03-24,株式会社めちゃくちゃホワイト企業,,株式会社,北海道,札幌市中央区,南二条西５丁目３１－１ＲＭＢｌｄ．７０１,,01,101,0600062,,,,,,,2025-03-24,1,,,,,メチャクチャホワイトキギョウ,0
1120,5430005015185,新規,0,2025-03-24,2025-03-24,医療法人社団なつい胃腸内科・歯科クリニック,,その他の設立登記法人,北海道,小樽市,梅ケ枝町２４番１３号,,01,203,0470044,,,,,,,2025-03-24,1,,,,,ナツイイチョウナイカシカクリニック,0
1123,5460101007686,新規,0,2025-03-24,2025-03-24,株式会社Ｙｏｒｉ,,株式会社,北海道,河東郡上士幌町,字上士幌東２線２４０番地２２５,,01,633,0801408,,,,,,,2025-03-24,1,,,,,ヨリ,0
1143,6010001253391,新規,0,2025-03-24,2025-03-24,株式会社ＷＷＢ,,株式会社,東京都,千代田区,内神田３丁目１２番５号渡辺住研ビル４階,,13,101,1010047,,,,,,,2025-03-24,1,,,,,ダブリューダブリュービー,0
1146,6010003046752,新規,0,2025-03-24,2025-03-24,合同会社ベンガル・ワン,,合同会社,東京都,千代田区,内幸町２丁目１番６号,,13,101,1000011,,,,,,,2025-03-24,1,,,,,ベンガルワン,0
1147,6010005039787,新規,0,2025-03-24,2025-03-24,司法書士法人アレスコ事務所,,その他の設立登記法人,東京都,千代田区,平河町１丁目５番１５号ＶＯＲＴ平河町１００２,,13,101,1020093,,,,,,,2025-03-24,1,,,,,アレスコジムショ,0
1151,6010401188493,新規,0,2025-03-24,2025-03-24,ＬＩＳＥＩ株式会社,,株式会社,東京都,港区,東新橋１丁目２番１０号,,13,103,1050021,,,,,,,2025-03-24,1,,,,,リセイ,0
1152,6010401189129,新規,0,2025-03-24,2025-03-24,Ｓｅｎｔｉｎｅｌｓ株式会社,,株式会社,東京都,港区,北青山１丁目３－３三橋ビル３階,,13,103,1070061,,,,,,,2025-03-24,1,,,,,センチネルズ,0
1166,6011001168357,新規,0,2025-03-24,2025-03-24,コンプル株式会社,,株式会社,東京都,目黒区,大岡山１丁目１２番１４号,,13,110,1520033,,,,,,,2025-03-24,1,,,,,コンプル,0
1167,6011001168365,新規,0,2025-03-24,2025-03-24,株式会社ＳＨＡＵＮ,,株式会社,東京都,目黒区,下目黒２丁目２１－２７カーサ目黒９０４,,13,110,1530064,,,,,,,2025-03-24,1,,,,,ショーン,0
1169,6011003021225,新規,0,2025-03-24,2025-03-24,合同会社代官山ホームズアドバンス,,合同会社,東京都,渋谷区,代官山町９番１３号,,13,113,1500034,,,,,,,2025-03-24,1,,,,,ダイカンアヤホームアドバンス,0
1172,6011101111068,新規,0,2025-03-24,2025-03-24,株式会社アクトアース,,株式会社,東京都,新宿区,西新宿１丁目６番１号,,13,104,1600023,,,,,,,2025-03-24,1,,,,,アクトアース,0
1174,6011201026208,新規,0,2025-03-24,2025-03-24,ＷＡＳＨＩＮコンサルタンツ株式会社,,株式会社,東京都,中野区,中野１丁目３９番１０号ハイデンス中野２０６,,13,114,1640001,,,,,,,2025-03-24,1,,,,,ワシンコンサルタンツ,0
1177,6011501031857,新規,0,2025-03-24,2025-03-24,株式会社紅うらら,,株式会社,東京都,荒川区,西日暮里１丁目１３番１２号,,13,118,1160013,,,,,,,2025-03-24,1,,,,,ベニウララ,0
1178,6011503006460,新規,0,2025-03-24,2025-03-24,ＶＵＲＡＩ　ＴＲＡＤＩＮＧ合同会社,,合同会社,東京都,荒川区,南千住２丁目３－５,,13,118,1160003,,,,,,,2025-03-24,1,,,,,,0
1179,6011701028133,新規,0,2025-03-24,2025-03-24,藤森商事株式会社,,株式会社,東京都,江戸川区,本一色２丁目１８－２,,13,123,1330044,,,,,,,2025-03-24,1,,,,,フジモリショウジ,0
1183,6011801045796,新規,0,2025-03-24,2025-03-24,株式会社Ｒｅ．Ｚｅｒｏｓｚ,,株式会社,東京都,葛飾区,西新小岩４丁目２６番５号,,13,122,1240025,,,,,,,2025-03-24,1,,,,,リゼローズ,0
1184,6011803006739,新規,0,2025-03-24,2025-03-24,梓木合同会社,,合同会社,東京都,葛飾区,東堀切１丁目１２－６,,13,122,1240004,,,,,,,2025-03-24,1,,,,,アズキ,0
1185,6012401042903,新規,0,2025-03-24,2025-03-24,株式会社Ｌｏｋａｈｉ,,株式会社,東京都,調布市,緑ケ丘２丁目６０番８号三和ビル３Ｆ,,13,208,1820001,,,,,,,2025-03-24,1,,,,,ロカヒ,0
1187,6012703003223,新規,0,2025-03-24,2025-03-24,合同会社Ｌｉｌｌ,,合同会社,東京都,清瀬市,下宿２丁目４３９番地３,,13,221,2040001,,,,,,,2025-03-24,1,,,,,リル,0
1190,6013301053973,新規,0,2025-03-24,2025-03-24,ＥＭＩ株式会社,,株式会社,東京都,豊島区,北大塚２丁目１２番３号ドルミ大塚３０１号室,,13,116,1700004,,,,,,,2025-03-24,1,,,,,エミ,0
1196,6020005016736,新規,0,2025-03-24,2025-03-24,生田グリーンハイツ管理組合法人,,その他の設立登記法人,神奈川県,川崎市多摩区,生田６丁目３番生田グリーンハイツ管理事務室,,14,135,2140038,,,,,,,2025-03-24,1,,,,,イクタグリーンハイツ,0
1205,6021005013310,新規,0,2025-03-24,2025-03-24,医療法人あさい内科クリニック,,その他の設立登記法人,神奈川県,三浦市,初声町入江７６番地１サトウビル１Ｆ,,14,210,2380113,,,,,,,2025-03-24,1,,,,,アサイナイカクリニック,0
1208,6030001165544,新規,0,2025-03-24,2025-03-24,ワイアックス株式会社,,株式会社,埼玉県,草加市,氷川町２１０４番地１７,,11,221,3400034,,,,,,,2025-03-24,1,,,,,ワイアックス,0
1215,6030003026397,新規,0,2025-03-24,2025-03-24,合同会社ＭｉｎｄＳｙｎｃ,,合同会社,埼玉県,さいたま市南区,大字大谷口２００７－１４,,11,108,3360042,,,,,,,2025-03-24,1,,,,,マインドシンク,0
1221,6040001137930,新規,0,2025-03-24,2025-03-24,株式会社ＺＡＩＣＯＳ,,株式会社,千葉県,木更津市,江川６８８－２７,,12,206,2920063,,,,,,,2025-03-24,1,,,,,ザイコス,0
1222,6040001137947,新規,0,2025-03-24,2025-03-24,株式会社ＳＫライフ,,株式会社,千葉県,習志野市,秋津１丁目４番７－２０１号,,12,216,2750025,,,,,,,2025-03-24,1,,,,,エスケイライフ,0
1223,6040001137963,新規,0,2025-03-24,2025-03-24,株式会社ＧＲＥＥＮ　ＬＩＧＨＴ,,株式会社,千葉県,松戸市,馬橋２８５５－７０１,,12,207,2710051,,,,,,,2025-03-24,1,,,,,,0
1226,6040003027122,新規,0,2025-03-24,2025-03-24,合同会社ＣＰコンサルティング,,合同会社,千葉県,松戸市,本町１７－１１芹澤ビル６Ｆ,,12,207,2710091,,,,,,,2025-03-24,1,,,,,シーピーコンサルティング,0
1228,6050001056345,新規,0,2025-03-24,2025-03-24,伸和産業株式会社,,株式会社,茨城県,水戸市,酒門町３０２６番地１東原住宅１－１－４,,08,201,3100841,,,,,,,2025-03-24,1,,,,,シンワサンギョウ,0
1229,6050005013581,新規,0,2025-03-24,2025-03-24,医療法人悠江会,,その他の設立登記法人,茨城県,牛久市,ひたち野東１丁目１９番地８,,08,219,3001207,,,,,,,2025-03-24,1,,,,,ユウコウカイ,0
1230,6060003005480,新規,0,2025-03-24,2025-03-24,Ｂａｌｍｙ合同会社,,合同会社,栃木県,那須郡那須町,大字高久乙６０３番地,,09,407,3250303,,,,,,,2025-03-24,1,,,,,バルミー,0
1232,6070001042748,新規,0,2025-03-24,2025-03-24,ＡＫｃｏｎｎｅｃｔ株式会社,,株式会社,群馬県,前橋市,住吉町１丁目１３番２３号住吉ビル３０２号,,10,201,3710021,,,,,,,2025-03-24,1,,,,,エーケーコネクト,0
1233,6080101025387,新規,0,2025-03-24,2025-03-24,南伊豆リゾート開発株式会社,,株式会社,静岡県,下田市,東本郷１丁目４番１１号,,22,219,4150035,,,,,,,2025-03-24,1,,,,,ミナミイズリゾートカイハツ,0
1236,6090003002772,新規,0,2025-03-24,2025-03-24,合同会社Ｃａｌｉｆａｓ,,合同会社,山梨県,都留市,法能９７０－１,,19,204,4020025,,,,,,,2025-03-24,1,,,,,カリファス,0
1237,6090003002780,新規,0,2025-03-24,2025-03-24,合同会社Ｍｙ　ｔｅｃｈ,,合同会社,山梨県,甲州市,塩山上於曽２０３９,,19,213,4040042,,,,,,,2025-03-24,1,,,,,マイテック,0
1249,6120101071328,新規,0,2025-03-24,2025-03-24,株式会社蒲牟田ホールディングス,,株式会社,大阪府,堺市北区,大豆塚町１丁２３番１１号,,27,146,5918042,,,,,,,2025-03-24,1,,,,,カマムタホールディングス,0
1257,6130003010309,新規,0,2025-03-24,2025-03-24,合同会社Ａ．Ｍ．Ｆ．,,合同会社,京都府,京都市東山区,本町６－１４－２Ｆ,,26,105,6050000,,,,,,,2025-03-24,1,,,,,エーエムエフ,0
1258,6130005017310,新規,0,2025-03-24,2025-03-24,一般社団法人あるもにぃでざぁる,,その他の設立登記法人,京都府,京都市下京区,塩小路通堀川西入志水町１２８番地２,,26,106,6008241,,,,,,,2025-03-24,1,,,,,アルモニィデザァル,0
1264,6140001137813,新規,0,2025-03-24,2025-03-24,フェニックス株式会社,,株式会社,兵庫県,西宮市,田代町１５番６号,,28,204,6638201,,,,,,,2025-03-24,1,,,,,フェニックス,0
1265,6140001137838,新規,0,2025-03-24,2025-03-24,株式会社ハリマ農産,,株式会社,兵庫県,神戸市中央区,山本通３丁目１４番１４号トーアハイツ３０３,,28,110,6500003,,,,,,,2025-03-24,1,,,,,ハリマノウサン,0
1266,6140001137846,新規,0,2025-03-24,2025-03-24,知楽楽株式会社,,株式会社,兵庫県,神戸市兵庫区,南仲町１番－５号－３０６号室,,28,105,6520841,,,,,,,2025-03-24,1,,,,,チラクラク,0
1270,6140003021809,新規,0,2025-03-24,2025-03-24,合同会社ミーアラクシュ,,合同会社,兵庫県,神戸市須磨区,西落合１丁目１番２－１００８号,,28,107,6540155,,,,,,,2025-03-24,1,,,,,ミーアラクシュ,0
1271,6140003021817,新規,0,2025-03-24,2025-03-24,合同会社リコルディ,,合同会社,兵庫県,神戸市北区,藤原台中町６丁目１４番４号,,28,109,6511302,,,,,,,2025-03-24,1,,,,,リコルディ,0
1277,6180003028172,新規,0,2025-03-24,2025-03-24,合同会社銀匠,,合同会社,愛知県,名古屋市東区,泉３丁目４番６号（野村ステイツ橦木町南６０３号）,,23,102,4610001,,,,,,,2025-03-24,1,,,,,ギンショウ,0
1280,6190001032092,新規,0,2025-03-24,2025-03-24,株式会社伊賀城東ファーム,,株式会社,三重県,伊賀市,西明寺７８７,,24,216,5180809,,,,,,,2025-03-24,1,,,,,イガジョウトウファーム,0
1290,6240001064683,新規,0,2025-03-24,2025-03-24,株式会社ｎｉｃｏ＆ｃｈｏｕｅｔｔｅ．,,株式会社,広島県,広島市南区,皆実町５丁目６番１６号,,34,103,7340007,,,,,,,2025-03-24,1,,,,,ニコアンドシュエット,0
1301,6290001109269,新規,0,2025-03-24,2025-03-24,株式会社ＷＡＲＡＳＩ‐Ｂｅ,,株式会社,福岡県,福岡市中央区,長浜２丁目３－１８ドゥーエ赤坂１２０１,,40,133,8100072,,,,,,,2025-03-24,1,,,,,ワラシベ,0
1303,6290801031374,新規,0,2025-03-24,2025-03-24,株式会社Ｍｙｓｉｇ　ｏｃｈ　Ｒｅｎｏｖｅｒｉｎｇ,,株式会社,福岡県,北九州市八幡西区,鷹の巣１丁目１４番５－５０５号,,40,109,8060047,,,,,,,2025-03-24,1,,,,,ミューシグオックリノベリング,0
1304,6290801031382,新規,0,2025-03-24,2025-03-24,株式会社七彩コーポレーション,,株式会社,福岡県,北九州市八幡東区,石坪町１３‐２１,,40,108,8050021,,,,,,,2025-03-24,1,,,,,ナナイロコーポレーション,0
1305,6290805009813,新規,0,2025-03-24,2025-03-24,特定非営利活動法人ＫａＷａＲａ,,その他の設立登記法人,福岡県,田川郡香春町,大字香春２９３番地,,40,601,8221406,,,,,,,2025-03-24,1,,,,,カワラ,0
1307,6310001019507,新規,0,2025-03-24,2025-03-24,株式会社ケーワイダクト,,株式会社,長崎県,佐世保市,下本山町１１０３番地３,,42,202,8580905,,,,,,,2025-03-24,1,,,,,ケーワイダクト,0
1308,6320001021016,新規,0,2025-03-24,2025-03-24,株式会社山豊環境,,株式会社,大分県,大分市,古ケ鶴１丁目５番２８号ホワイトテラス１１０,,44,201,8700935,,,,,,,2025-03-24,1,,,,,サンホウカンキョウ,0
1310,6330001032994,新規,0,2025-03-24,2025-03-24,株式会社ナナイロプランニング,,株式会社,熊本県,宇土市,栄町２２７－７,,43,211,8690453,,,,,,,2025-03-24,1,,,,,ナナイロプランニング,0
1312,6350001019445,新規,0,2025-03-24,2025-03-24,株式会社えびのファーム,,株式会社,宮崎県,えびの市,大字大河平３３８番地,,45,209,8894314,,,,,,,2025-03-24,1,,,,,エビノファーム,0
1321,6370003006992,新規,0,2025-03-24,2025-03-24,エヌワイプラス合同会社,,合同会社,宮城県,仙台市太白区,ひより台５１番６号,,04,104,9820811,,,,,,,2025-03-24,1,,,,,エヌワイプラス,0
1323,6370005010927,新規,0,2025-03-24,2025-03-24,一般社団法人いしのまき災害支援ネットワーク,,その他の設立登記法人,宮城県,石巻市,鹿又字学校前１９２番地２,,04,202,9861111,,,,,,,2025-03-24,1,,,,,イシノマキサイガイシエンネットワーク,0
1327,6380001035175,新規,0,2025-03-24,2025-03-24,一田株式会社,,株式会社,福島県,いわき市,中央台高久１丁目２２番地の３,,07,204,9708047,,,,,,,2025-03-24,1,,,,,イチタ,0
1332,6430005015184,新規,0,2025-03-24,2025-03-24,一般社団法人北海道メープル,,その他の設立登記法人,北海道,石狩郡当別町,獅子内７０８番地３８,,01,303,0613772,,,,,,,2025-03-24,1,,,,,ホッカイドウメープル,0
1333,6450001014568,新規,0,2025-03-24,2025-03-24,株式会社ｆｒｏｍ　Ｈｏｋｋａｉｄｏ,,株式会社,北海道,中川郡音威子府村,字咲来８３９番地１,,01,470,0982502,,,,,,,2025-03-24,1,,,,,フロムホッカイドウ,0
1335,6470003002841,新規,0,2025-03-24,2025-03-24,合同会社ＪＯＳＨＩ,,合同会社,香川県,高松市,藤塚町３丁目１－４,,37,201,7600071,,,,,,,2025-03-24,1,,,,,ジョシ,0
1348,7010001253382,新規,0,2025-03-24,2025-03-24,株式会社キマリー,,株式会社,東京都,千代田区,岩本町３丁目２番９号,,13,101,1010032,,,,,,,2025-03-24,1,,,,,キマリー,0
1352,7010003046875,新規,0,2025-03-24,2025-03-24,合同会社ジダイノベーション,,合同会社,東京都,文京区,本郷６丁目１９番１４号,,13,105,1130033,,,,,,,2025-03-24,1,,,,,ジダイノベーション,0
1354,7010005039786,新規,0,2025-03-24,2025-03-24,一般社団法人食文化地域資源振興機構,,その他の設立登記法人,東京都,中央区,銀座１丁目１４番１３号カスタリア銀座１００１号,,13,102,1040061,,,,,,,2025-03-24,1,,,,,ショクブンカチイキシゲンシンコウキコウ,0
1362,7010401189020,新規,0,2025-03-24,2025-03-24,ＢｉｚＳｈａｒｅ株式会社,,株式会社,東京都,港区,赤坂４丁目８番１９号赤坂フロントタウン３階,,13,103,1070052,,,,,,,2025-03-24,1,,,,,ビズシェア,0
1363,7010401189053,新規,0,2025-03-24,2025-03-24,株式会社成,,株式会社,東京都,港区,芝４丁目７番６号芝ビルディング７０４,,13,103,1080014,,,,,,,2025-03-24,1,,,,,セイ,0
1364,7010401189061,新規,0,2025-03-24,2025-03-24,Ｂｒｉｌｌｅｒ株式会社,,株式会社,東京都,港区,南青山２丁目１５－５ＦＡＲＯ青山,,13,103,1070062,,,,,,,2025-03-24,1,,,,,ブリエ,0
1366,7010405024165,新規,0,2025-03-24,2025-03-24,一般社団法人ＡＩモデル普及推進協会,,その他の設立登記法人,東京都,港区,虎ノ門２丁目２番１号住友不動産虎ノ門タワー１３階,,13,103,1050001,,,,,,,2025-03-24,1,,,,,エーアイモデルフキュウスイシンキョウカイ,0
1367,7010503007773,新規,0,2025-03-24,2025-03-24,合同会社ＳＫＰ１,,合同会社,東京都,台東区,東上野６丁目１８番１９号,,13,106,1100015,,,,,,,2025-03-24,1,,,,,エスケーピーワン,0
1368,7010603011460,新規,0,2025-03-24,2025-03-24,恵比寿合同会社,,合同会社,東京都,江東区,住吉１丁目６番１,,13,108,1350002,,,,,,,2025-03-24,1,,,,,エビス,0
1369,7010803005329,新規,0,2025-03-24,2025-03-24,合同会社櫻澤会計,,合同会社,東京都,大田区,山王２丁目１５‐６,,13,111,1430023,,,,,,,2025-03-24,1,,,,,サクラザワカイケイ,0
1370,7010901057040,新規,0,2025-03-24,2025-03-24,株式会社ＥＫＯＬＡ,,株式会社,東京都,世田谷区,赤堤２丁目３４番１２号,,13,112,1560044,,,,,,,2025-03-24,1,,,,,エコラ,0
1371,7010903009790,新規,0,2025-03-24,2025-03-24,ｎｏａｈ合同会社,,合同会社,東京都,世田谷区,上北沢４丁目１９番１２シャンボール上北沢１０７号,,13,112,1560057,,,,,,,2025-03-24,1,,,,,ノア,0
1376,7011001168414,新規,0,2025-03-24,2025-03-24,株式会社ＳＴＹＬＥ,,株式会社,東京都,渋谷区,神宮前６丁目２３番４号桑野ビル２階,,13,113,1500001,,,,,,,2025-03-24,1,,,,,スタイル,0
1377,7011003021182,新規,0,2025-03-24,2025-03-24,合同会社萩原アセットマネジメント,,合同会社,東京都,渋谷区,道玄坂１丁目１６番６号二葉ビル８ｂ,,13,113,1500043,,,,,,,2025-03-24,1,,,,,ハギワラアセットマネジメント,0
1378,7011003021199,新規,0,2025-03-24,2025-03-24,合同会社ＫＬＡＸＯＮ　ＢＡＢＹ,,合同会社,東京都,目黒区,祐天寺２丁目１４－２１カスタリア祐天寺５０１,,13,110,1530052,,,,,,,2025-03-24,1,,,,,クラクションベイビー,0
1379,7011003021224,新規,0,2025-03-24,2025-03-24,合同会社クレイディオ,,合同会社,東京都,渋谷区,恵比寿西１丁目３２番２９号代官山風の館３０５,,13,113,1500021,,,,,,,2025-03-24,1,,,,,クレイディオ,0
1384,7011101111042,新規,0,2025-03-24,2025-03-24,株式会社Ｊ＆Ｊ　ＧＬＯＢＡＬ,,株式会社,東京都,新宿区,西新宿６丁目１０番１号日土地西新宿ビル８階,,13,104,1600023,,,,,,,2025-03-24,1,,,,,ジェイアンドジェイグローバル,0
1385,7011101111050,新規,0,2025-03-24,2025-03-24,株式会社ＡＳ,,株式会社,東京都,新宿区,新宿７丁目２７番１６号第一清水ビル１０３号室,,13,104,1600022,,,,,,,2025-03-24,1,,,,,エーエス,0
1386,7011103015670,新規,0,2025-03-24,2025-03-24,ＭＭＫパートナーズ合同会社,,合同会社,東京都,新宿区,西新宿７丁目４番７号,,13,104,1600023,,,,,,,2025-03-24,1,,,,,エムエムケーパートナーズ,0
1387,7011103015695,新規,0,2025-03-24,2025-03-24,ＭＩＪＵ合同会社,,合同会社,東京都,新宿区,西新宿３丁目３番１３号西新宿水間ビル６階,,13,104,1600023,,,,,,,2025-03-24,1,,,,,ミジュ,0
1388,7011105011379,新規,0,2025-03-24,2025-03-24,医療法人社団ＳＯＲＡ,,その他の設立登記法人,東京都,新宿区,北新宿４丁目８番１６号北新宿君嶋ビル５階Ａ室,,13,104,1690074,,,,,,,2025-03-24,1,,,,,ソラ,0
1390,7011303005463,新規,0,2025-03-24,2025-03-24,合同会社ＳＥＶＥＮ　ＴＩＤＥ　ＴＲＵＥ　ＦＩＥＬＤ,,合同会社,東京都,杉並区,清水３丁目３１番１０号ＹＡＳＨＩＭＡビル３Ｆ－Ｂ,,13,115,1670033,,,,,,,2025-03-24,1,,,,,セブンタイドトゥルーフィールド,0
1391,7011501031815,新規,0,2025-03-24,2025-03-24,株式会社ＭＯＭＩＪＩ,,株式会社,東京都,荒川区,西日暮里１丁目６１番２３－８０１号西日暮里フラワーマンション,,13,118,1160013,,,,,,,2025-03-24,1,,,,,モミジ,0
1392,7011501031848,新規,0,2025-03-24,2025-03-24,ＡＮＥ　ＨＯＬＤＩＮＧＳ株式会社,,株式会社,東京都,北区,豊島４丁目６－６,,13,117,1140003,,,,,,,2025-03-24,1,,,,,エイニーホールディングス,0
1395,7011701028181,新規,0,2025-03-24,2025-03-24,源円株式会社,,株式会社,東京都,江戸川区,平井５丁目４４番６号ＣＷＨ平井ビルディング３０６号室,,13,123,1320035,,,,,,,2025-03-24,1,,,,,ゲンエン,0
1398,7011801045812,新規,0,2025-03-24,2025-03-24,株式会社ＥＮＩＳＨＩ‐８,,株式会社,東京都,葛飾区,お花茶屋１丁目１９－８,,13,122,1240003,,,,,,,2025-03-24,1,,,,,エニシエイト,0
1399,7011803006746,新規,0,2025-03-24,2025-03-24,合同会社ＣＸ　Ｔｒａｎｓｐｏｒｔ,,合同会社,東京都,葛飾区,白鳥２丁目４番４号セザールお花茶屋４１５号室,,13,122,1250063,,,,,,,2025-03-24,1,,,,,シーエックストランスポート,0
1402,7012703003222,新規,0,2025-03-24,2025-03-24,ごろとめぐ合同会社,,合同会社,東京都,小平市,学園東町２丁目７番１－５０６号,,13,211,1870043,,,,,,,2025-03-24,1,,,,,ゴロトメグ,0
1407,7013301053980,新規,0,2025-03-24,2025-03-24,株式会社黒雨,,株式会社,東京都,豊島区,駒込１丁目１６番８号アクサス駒込ラクシーズ３０３号,,13,116,1700003,,,,,,,2025-03-24,1,,,,,コクウ,0
1416,7021001084759,新規,0,2025-03-24,2025-03-24,株式会社タカボウ,,株式会社,神奈川県,厚木市,林４丁目８番９号成瀬マンション３０５,,14,212,2430816,,,,,,,2025-03-24,1,,,,,タカボウ,0
1425,7040001137962,新規,0,2025-03-24,2025-03-24,ＢＡＢＳ株式会社,,株式会社,千葉県,浦安市,高洲４丁目３－１プラウド新浦安１６２６号室,,12,227,2790023,,,,,,,2025-03-24,1,,,,,バブズ,0
1426,7040005022698,新規,0,2025-03-24,2025-03-24,農事組合法人ひだまり農園,,その他の設立登記法人,千葉県,市川市,下貝塚１丁目３－３２Ｂ室,,12,203,2720821,,,,,,,2025-03-24,1,,,,,ヒダマリノウエン,0
1428,7050005013580,新規,0,2025-03-24,2025-03-24,一般社団法人フリーランス共創会,,その他の設立登記法人,茨城県,水戸市,大工町２丁目１番１８号飯村不動産第一ビル１０２,,08,201,3100031,,,,,,,2025-03-24,1,,,,,フリーランスキョウソウカイ,0
1434,7070003005826,新規,0,2025-03-24,2025-03-24,合同会社ｎｏＢ,,合同会社,群馬県,伊勢崎市,喜多町４７番地（２Ｆ）,,10,204,3720056,,,,,,,2025-03-24,1,,,,,ノブ,0
1442,7100003008032,新規,0,2025-03-24,2025-03-24,合同会社すずき商店,,合同会社,長野県,上水内郡飯綱町,大字豊野１４２８番地１１ＧＲＡＮＰＡＳＥＯ飯綱２０２号室,,20,590,3891212,,,,,,,2025-03-24,1,,,,,スズキショウテン,0
1444,7110002000369,新規,0,2025-03-24,2025-03-24,有限会社青山商会,,有限会社,新潟県,新潟市西区,東青山１丁目７番地２,,15,107,9502003,,,,,,,2025-03-24,1,,,,,アオヤマショウカイ,0
1445,7110003005697,新規,0,2025-03-24,2025-03-24,ＳＴＹＲＡＳ合同会社,,合同会社,新潟県,新潟市西区,小針上山５番５号ルミエール青山１－Ｃ,,15,107,9502011,,,,,,,2025-03-24,1,,,,,スタイラス,0
1448,7120003028912,新規,0,2025-03-24,2025-03-24,合同会社Ｇｉｖｅｒ,,合同会社,大阪府,大阪市中央区,南船場３丁目２番２２号おおきに南船場ビル２０５,,27,128,5420081,,,,,,,2025-03-24,1,,,,,ギバー,0
1456,7120903005580,新規,0,2025-03-24,2025-03-24,Ｂｉａｎｃｈｉ合同会社,,合同会社,大阪府,豊中市,南桜塚３丁目９番２５号フォレストメゾン南桜塚２０２号室,,27,203,5610882,,,,,,,2025-03-24,1,,,,,ビアンチ,0
1463,7140001137812,新規,0,2025-03-24,2025-03-24,株式会社ヴァントワ,,株式会社,兵庫県,西宮市,田代町１５番６号,,28,204,6638201,,,,,,,2025-03-24,1,,,,,ヴァントワ,0
1467,7140003021799,新規,0,2025-03-24,2025-03-24,ＣＨＯＨＡＮ　ＢＲＯＴＨＥＲＳ合同会社,,合同会社,兵庫県,神戸市須磨区,禅昌寺町１丁目８番１号,,28,107,6540001,,,,,,,2025-03-24,1,,,,,チョーハンブラザーズ,0
1473,7180001166007,新規,0,2025-03-24,2025-03-24,株式会社ＡｉｒＣｏｎｎｅｃｔ,,株式会社,愛知県,名古屋市天白区,植田南１丁目３０３柊三番間Ｂ２０７,,23,116,4680053,,,,,,,2025-03-24,1,,,,,エアコネクト,0
1474,7180001166023,新規,0,2025-03-24,2025-03-24,株式会社アテナコーポレーション,,株式会社,愛知県,春日井市,出川町８丁目２７番地５サンルガールＡ１０１号,,23,206,4870025,,,,,,,2025-03-24,1,,,,,アテナコーポレーション,0
1475,7180001166031,新規,0,2025-03-24,2025-03-24,シーマジェネレーター株式会社,,株式会社,愛知県,名古屋市名東区,勢子坊４丁目１５０８番地,,23,115,4650055,,,,,,,2025-03-24,1,,,,,シーマジェネレーター,0
1479,7180003028188,新規,0,2025-03-24,2025-03-24,リ・ルーシュ合同会社,,合同会社,愛知県,東海市,大田町後田１０５４番地太田川ビル２０２,,23,222,4770031,,,,,,,2025-03-24,1,,,,,リルーシュ,0
1487,7240001064682,新規,0,2025-03-24,2025-03-24,株式会社ダイヤホームホールディングス,,株式会社,広島県,広島市安佐南区,西原５丁目１３番１４号,,34,105,7310113,,,,,,,2025-03-24,1,,,,,ダイヤホームホールディングス,0
1501,7290801031373,新規,0,2025-03-24,2025-03-24,株式会社シンセイ,,株式会社,福岡県,田川市,大字伊田３４２８オーシャンベガスβ１０３,,40,206,8250002,,,,,,,2025-03-24,1,,,,,シンセイ,0
1503,7310003004968,新規,0,2025-03-24,2025-03-24,合同会社パルカ,,合同会社,長崎県,佐世保市,鹿町町大屋３３８,,42,202,8596201,,,,,,,2025-03-24,1,,,,,パルカ,0
1505,7340003004783,新規,0,2025-03-24,2025-03-24,藺牟田エール合同会社,,合同会社,鹿児島県,薩摩川内市,祁答院町藺牟田９５０,00138420,46,215,8951502,,,,,,,2025-03-24,1,,,,,イムタエール,0
1508,7360003014780,新規,0,2025-03-24,2025-03-24,島幸合同会社,,合同会社,沖縄県,宜野湾市,野嵩２丁目１２番３２号１０２,,47,205,9012203,,,,,,,2025-03-24,1,,,,,シマユキ,0
1514,7370003006991,新規,0,2025-03-24,2025-03-24,合同会社Ｂｒｉｄｇｅ,,合同会社,宮城県,仙台市宮城野区,福住町１６番地の８４,,04,102,9830033,,,,,,,2025-03-24,1,,,,,ブリッジ,0
1518,7380003005992,新規,0,2025-03-24,2025-03-24,合同会社ローリングウェーブ,,合同会社,福島県,いわき市,久之浜町田之網字浜田３２,,07,204,9790335,,,,,,,2025-03-24,1,,,,,ローリングウェーブ,0
1529,7430001093951,新規,0,2025-03-24,2025-03-24,株式会社Ｃｌｏｖｅｒ,,株式会社,北海道,恵庭市,有明町２丁目１番９号,,01,231,0611431,,,,,,,2025-03-24,1,,,,,クローバー,0
1533,7430005015183,新規,0,2025-03-24,2025-03-24,医療法人社団和寿会,,その他の設立登記法人,北海道,札幌市清田区,平岡一条５丁目３番５号,,01,110,0040871,,,,,,,2025-03-24,1,,,,,ワジュカイ,0
1536,7470003002840,新規,0,2025-03-24,2025-03-24,合同会社西村商会,,合同会社,香川県,高松市,田村町７０７番地,,37,201,7618057,,,,,,,2025-03-24,1,,,,,ニシムラショウカイ,0
1548,8010001253357,新規,0,2025-03-24,2025-03-24,株式会社日本介護センター,,株式会社,東京都,千代田区,内神田２丁目４番２号一広グローバルビル１００１号,,13,101,1010047,,,,,,,2025-03-24,1,,,,,ニホンカイゴセンター,0
1551,8010003046841,新規,0,2025-03-24,2025-03-24,東通レジデンス合同会社,,合同会社,東京都,中央区,新川１丁目１７番１８号,,13,102,1040033,,,,,,,2025-03-24,1,,,,,トウツウレジデンス,0
1552,8010005039785,新規,0,2025-03-24,2025-03-24,一般社団法人ＹＯＲＩＴＯＭＯ,,その他の設立登記法人,東京都,千代田区,丸の内１丁目４番１号東京共同会計事務所内,,13,101,1000005,,,,,,,2025-03-24,1,,,,,ヨリトモ,0
1556,8010401189044,新規,0,2025-03-24,2025-03-24,株式会社グローバルコネクトサービス,,株式会社,東京都,港区,南青山６丁目８番６号,,13,103,1070062,,,,,,,2025-03-24,1,,,,,グローバルコネクトサービス,0
1557,8010401189052,新規,0,2025-03-24,2025-03-24,ＦＵＳＳＹ株式会社,,株式会社,東京都,港区,新橋５丁目５番３号ル・グラシエルＢＬＤＧ２５号館１階,,13,103,1050004,,,,,,,2025-03-24,1,,,,,フッシー,0
1560,8010403034669,新規,0,2025-03-24,2025-03-24,テイカレスト合同会社,,合同会社,東京都,港区,南青山３丁目１番３６号青山丸竹ビル６Ｆ,,13,103,1070062,,,,,,,2025-03-24,1,,,,,テイカレスト,0
1561,8010405024164,新規,0,2025-03-24,2025-03-24,一般社団法人ＴＳＭ　ＳＨＤ５,,その他の設立登記法人,東京都,港区,元赤坂１丁目１番７号,,13,103,1070051,,,,,,,2025-03-24,1,,,,,ティーエスエムエスエイチディーゴ,0
1571,8010803005328,新規,0,2025-03-24,2025-03-24,ＣＨＡＮＤＩＫＡ合同会社,,合同会社,東京都,大田区,中央３丁目２２番４号和田アパート８号,,13,111,1430024,,,,,,,2025-03-24,1,,,,,チャンディカ,0
1572,8010901057048,新規,0,2025-03-24,2025-03-24,株式会社ＴＥＲＲＡＳＩＳ,,株式会社,東京都,世田谷区,松原５丁目３０－１,,13,112,1560043,,,,,,,2025-03-24,1,,,,,テラシス,0
1573,8010905004756,新規,0,2025-03-24,2025-03-24,一般社団法人マンション修繕適正化推進機構,,その他の設立登記法人,東京都,世田谷区,三軒茶屋２丁目４０番３号,,13,112,1540024,,,,,,,2025-03-24,1,,,,,マンションシュウゼンテキセイカスイシンキコウ,0
1578,8011001168405,新規,0,2025-03-24,2025-03-24,Ｗａｇａｓｈｉ株式会社,,株式会社,東京都,渋谷区,渋谷１丁目２０番１１－１４０７号,,13,113,1500002,,,,,,,2025-03-24,1,,,,,ワガシ,0
1579,8011001168454,新規,0,2025-03-24,2025-03-24,株式会社ＫＧＭ,,株式会社,東京都,目黒区,上目黒２丁目３２番３３号,,13,110,1530051,,,,,,,2025-03-24,1,,,,,ケージーエム,0
1580,8011001168578,新規,0,2025-03-24,2025-03-24,株式会社０・８１８８,,株式会社,東京都,渋谷区,宇田川町３番１２号,,13,113,1500042,,,,,,,2025-03-24,1,,,,,ゼロポイントハチイチハチハチ,0
1583,8011101111009,新規,0,2025-03-24,2025-03-24,ＨＵＡＫＥ　ＪＡＰＡＮ株式会社,,株式会社,東京都,新宿区,百人町１丁目１８－８大久保カドビルＬｉｎｋＳｐａｃｅ百人町Ａ０１,,13,104,1690073,,,,,,,2025-03-24,1,,,,,ファクジャパン,0
1584,8011101111066,新規,0,2025-03-24,2025-03-24,株式会社ＫＯＭＩ,,株式会社,東京都,新宿区,早稲田鶴巻町５１４番地,,13,104,1620041,,,,,,,2025-03-24,1,,,,,コミ,0
1585,8011103015678,新規,0,2025-03-24,2025-03-24,ＲＰ２合同会社,,合同会社,東京都,新宿区,西新宿３丁目３番１３号西新宿水間ビル,,13,104,1600023,,,,,,,2025-03-24,1,,,,,アールピーツー,0
1586,8011301030421,新規,0,2025-03-24,2025-03-24,株式会社高建,,株式会社,東京都,杉並区,高円寺南３丁目４２番７号第６泉マンション３０２,,13,115,1660003,,,,,,,2025-03-24,1,,,,,タカケン,0
1587,8011303005470,新規,0,2025-03-24,2025-03-24,ＭＢＯＸ合同会社,,合同会社,東京都,杉並区,高円寺南１丁目３１－８ｐｒｅｍｉｕｍｃｕｂｅ東高円寺３０９,,13,115,1660003,,,,,,,2025-03-24,1,,,,,エムボックス,0
1597,8011503006459,新規,0,2025-03-24,2025-03-24,Ｐ．ｆｌｙ合同会社,,合同会社,東京都,北区,浮間３丁目２９番１０－２０１号ライブ赤羽,,13,117,1150051,,,,,,,2025-03-24,1,,,,,ピードットフライ,0
1600,8011701028180,新規,0,2025-03-24,2025-03-24,曼傑株式会社,,株式会社,東京都,江戸川区,南小岩３丁目１－１４プランドールＭ１２３室,,13,123,1330056,,,,,,,2025-03-24,1,,,,,マンケツ,0
1601,8011703004163,新規,0,2025-03-24,2025-03-24,合同会社遊工房アートベースキャンプ,,合同会社,東京都,江戸川区,東葛西１丁目２９－１６,,13,123,1340084,,,,,,,2025-03-24,1,,,,,ユウコウボウアートベースキャンプ,0
1608,8011805003435,新規,0,2025-03-24,2025-03-24,医療法人社団香咲,,その他の設立登記法人,東京都,葛飾区,亀有２丁目６６番６号ヤマヒロヤビル１階,,13,122,1250061,,,,,,,2025-03-24,1,,,,,カエ,0
1616,8013303007570,新規,0,2025-03-24,2025-03-24,合同会社プランプライス,,合同会社,東京都,豊島区,東池袋１丁目３０番１４－１２０２,,13,116,1700013,,,,,,,2025-03-24,1,,,,,プランプライス,0
1617,8013305003700,新規,0,2025-03-24,2025-03-24,ＮＰＯ法人ＦＳＨＤ　ＪＡＰＡＮ,,その他の設立登記法人,東京都,豊島区,南大塚３丁目４３番１１号福祉財団ビル６階,,13,116,1700005,,,,,,,2025-03-24,1,,,,,エフエスエイチディジャパン,0
1627,8020003028095,新規,0,2025-03-24,2025-03-24,合同会社ユーエーワン,,合同会社,神奈川県,川崎市中原区,木月伊勢町９‐３５ＭＨ１０１,,14,133,2110032,,,,,,,2025-03-24,1,,,,,ユーエーワン,0
1632,8021001084790,新規,0,2025-03-24,2025-03-24,株式会社ＡｇｅｎｔＳｙｎｃ,,株式会社,神奈川県,藤沢市,湘南台２丁目３８―２４プライムビレッジＷＥＳＴ１２６,,14,205,2520804,,,,,,,2025-03-24,1,,,,,エージェントシンク,0
1635,8021003015769,新規,0,2025-03-24,2025-03-24,合同会社Ｐｕ’ｕｗａｉ,,合同会社,神奈川県,厚木市,山際９５２番地１９,,14,212,2430803,,,,,,,2025-03-24,1,,,,,プーパイ,0
1639,8030001165451,新規,0,2025-03-24,2025-03-24,株式会社ＮＬＶａｌｕｅ,,株式会社,埼玉県,上尾市,弁財１丁目５－２５,,11,219,3620076,,,,,,,2025-03-24,1,,,,,エヌエルバリュー,0
1640,8030001165550,新規,0,2025-03-24,2025-03-24,株式会社ＡＩＯＮＥＸ,,株式会社,埼玉県,草加市,瀬崎２丁目２番１－５１３号,,11,221,3400022,,,,,,,2025-03-24,1,,,,,アイオネクス,0
1646,8040001137961,新規,0,2025-03-24,2025-03-24,株式会社ＣＴＣＲ,,株式会社,千葉県,柏市,五條谷１４－５１,,12,217,2770913,,,,,,,2025-03-24,1,,,,,シーティーシーアール,0
1653,8070001042746,新規,0,2025-03-24,2025-03-24,株式会社Ｎｅｏ　Ｅｒａ,,株式会社,群馬県,太田市,新田村田町２１２６番地１,,10,205,3700312,,,,,,,2025-03-24,1,,,,,ネオエラ,0
1668,8120003028886,新規,0,2025-03-24,2025-03-24,合同会社ＴＳＵＢＡＭＥ,,合同会社,大阪府,大阪市北区,梅田１丁目２番２号大阪駅前第２ビル１２－１２,,27,127,5300001,,,,,,,2025-03-24,1,,,,,ツバメ,0
1686,8130001079237,新規,0,2025-03-24,2025-03-24,株式会社レンスク,,株式会社,京都府,京都市伏見区,醍醐京道町１３番地１７,,26,109,6011317,,,,,,,2025-03-24,1,,,,,レンスク,0
1687,8130001079253,新規,0,2025-03-24,2025-03-24,株式会社渕上クラフト,,株式会社,京都府,京都市伏見区,久我石原町３番地１６１,,26,109,6128491,,,,,,,2025-03-24,1,,,,,フチガミクラフト,0
1694,8140001137844,新規,0,2025-03-24,2025-03-24,株式会社Ｍ　ＰＬＵＳ,,株式会社,兵庫県,神戸市東灘区,魚崎南町５丁目９番４５－３０９号,,28,101,6580025,,,,,,,2025-03-24,1,,,,,エムプラス,0
1701,8180001166014,新規,0,2025-03-24,2025-03-24,飛島興産株式会社,,株式会社,愛知県,東海市,南柴田町ヲノ割４５７番地の１４,,23,222,4760001,,,,,,,2025-03-24,1,,,,,トビシマコウサン,0
1702,8180001166022,新規,0,2025-03-24,2025-03-24,株式会社Ｐａｃｈｉｒａ,,株式会社,愛知県,名古屋市港区,泰明町３丁目５‐３ベルアンジュ２０２号,,23,111,4550069,,,,,,,2025-03-24,1,,,,,パキラ,0
1711,8200001043557,新規,0,2025-03-24,2025-03-24,シー・エム・テック株式会社,,株式会社,岐阜県,加茂郡坂祝町,取組５９０番地４,,21,501,5050075,,,,,,,2025-03-24,1,,,,,シーエムテック,0
1717,8240001064681,新規,0,2025-03-24,2025-03-24,株式会社トラストワン,,株式会社,広島県,広島市安佐北区,狩留家町５０２番地１,,34,106,7391753,,,,,,,2025-03-24,1,,,,,トラストワン,0
1718,8240001064698,新規,0,2025-03-24,2025-03-24,株式会社ＯＭＣ,,株式会社,広島県,山県郡北広島町,大朝３８１７番地の１０,,34,369,7312104,,,,,,,2025-03-24,1,,,,,オーエムシー,0
1719,8240003007110,新規,0,2025-03-24,2025-03-24,合同会社ＥＦＦＥＣ,,合同会社,広島県,安芸郡坂町,横浜東２丁目４番１６号,,34,309,7314322,,,,,,,2025-03-24,1,,,,,,0
1729,8290801031364,新規,0,2025-03-24,2025-03-24,バスコ株式会社,,株式会社,福岡県,北九州市小倉北区,昭和町２０－６,,40,106,8020075,,,,,,,2025-03-24,1,,,,,バスコ,0
1731,8290803005003,新規,0,2025-03-24,2025-03-24,合同会社ナイア,,合同会社,福岡県,行橋市,泉中央５丁目１４番７６号,,40,213,8240034,,,,,,,2025-03-24,1,,,,,ナイア,0
1732,8310001019505,新規,0,2025-03-24,2025-03-24,株式会社田尾礦山,,株式会社,長崎県,五島市,富江町田尾郷１３９０番地,,42,211,8530203,,,,,,,2025-03-24,1,,,,,,0
1733,8320001021006,新規,0,2025-03-24,2025-03-24,株式会社ツギテ,,株式会社,大分県,大分市,中島中央１丁目４番１２号,,44,201,8700049,,,,,,,2025-03-24,1,,,,,ツギテ,0
1735,8330001033000,新規,0,2025-03-24,2025-03-24,株式会社藤建工業,,株式会社,熊本県,熊本市北区,龍田１丁目２２番１２号,,43,105,8618006,,,,,,,2025-03-24,1,,,,,フジケンコウギョウ,0
1741,8370001052376,新規,0,2025-03-24,2025-03-24,株式会社オフィス石森,,株式会社,宮城県,仙台市宮城野区,中野字柳原１４番地,,04,102,9830013,,,,,,,2025-03-24,1,,,,,オフィスイシモリ,0
1744,8410001014099,新規,0,2025-03-24,2025-03-24,ＮＸフロンティア株式会社,,株式会社,秋田県,能代市,字機織轌ノ目２２７,,05,202,0160116,,,,,,,2025-03-24,1,,,,,,0
1749,8430001093942,新規,0,2025-03-24,2025-03-24,日之光株式会社,,株式会社,北海道,虻田郡倶知安町,南四条東４丁目１番地２６,,01,400,0440014,,,,,,,2025-03-24,1,,,,,ニチノヒカリ,0
1750,8430001093983,新規,0,2025-03-24,2025-03-24,株式会社いち幸商会,,株式会社,北海道,札幌市中央区,北八条西２０丁目１番３－５０８号,,01,101,0600008,,,,,,,2025-03-24,1,,,,,イチコウショウカイ,0
1776,9010001253372,新規,0,2025-03-24,2025-03-24,開朗株式会社,,株式会社,東京都,中央区,日本橋室町１丁目１１番１２号日本橋水野ビル７階,,13,102,1030022,,,,,,,2025-03-24,1,,,,,カイロウ,0
1777,9010001253406,新規,0,2025-03-24,2025-03-24,株式会社Ｎｅｗ　Ａｔｅｍ,,株式会社,東京都,中央区,銀座１丁目１２番４号Ｎ＆Ｅ・ＢＬＤ．６Ｆ,,13,102,1040061,,,,,,,2025-03-24,1,,,,,ニューアーテム,0
1779,9010003046849,新規,0,2025-03-24,2025-03-24,ＴＩＭ合同会社,,合同会社,東京都,中央区,日本橋浜町２丁目５５番５号,,13,102,1030007,,,,,,,2025-03-24,1,,,,,ティーアイエム,0
1780,9010005039784,新規,0,2025-03-24,2025-03-24,ニンジャ特定目的会社,,その他の設立登記法人,東京都,千代田区,霞が関３丁目２番６号東京倶楽部ビルディング１１階,,13,101,1000013,,,,,,,2025-03-24,1,,,,,ニンジャ,0
1782,9010103002537,新規,0,2025-03-24,2025-03-24,合同会社エムクロップ,,合同会社,東京都,八王子市,美山町１８３９番地１５,,13,201,1920152,,,,,,,2025-03-24,1,,,,,エムクロップ,0
1788,9010401188631,新規,0,2025-03-24,2025-03-24,株式会社黒田,,株式会社,東京都,港区,芝１丁目２番１号,,13,103,1050014,,,,,,,2025-03-24,1,,,,,クロダ,0
1789,9010401189002,新規,0,2025-03-24,2025-03-24,株式会社ＭＡＴＴ,,株式会社,東京都,港区,赤坂７丁目１０番９号第４文成ビル７０２,,13,103,1070052,,,,,,,2025-03-24,1,,,,,マット,0
1793,9010403034676,新規,0,2025-03-24,2025-03-24,合同会社ＨｉＪｏＪｏ　Ｆｕｎｄ４５,,合同会社,東京都,港区,西新橋１丁目７番２号,,13,103,1050003,,,,,,,2025-03-24,1,,,,,ヒジョージョーファンドヨンジュウゴ,0
1794,9010501053826,新規,0,2025-03-24,2025-03-24,株式会社良薇技術発展,,株式会社,東京都,台東区,東上野６丁目１番１７号東上野中央ビル８０４号室,,13,106,1100015,,,,,,,2025-03-24,1,,,,,リョウビギジュツハッテン,0
1795,9010503007771,新規,0,2025-03-24,2025-03-24,合同会社花花世界,,合同会社,東京都,台東区,東上野５丁目７番,,13,106,1100015,,,,,,,2025-03-24,1,,,,,ハナハナセカイ,0
1797,9010601067008,新規,0,2025-03-24,2025-03-24,株式会社アップ,,株式会社,東京都,墨田区,八広３丁目９－１３トップ曳舟３０７号,,13,107,1310041,,,,,,,2025-03-24,1,,,,,アップ,0
1804,9010901057055,新規,0,2025-03-24,2025-03-24,株式会社ＴＩＳ,,株式会社,東京都,世田谷区,玉川１丁目９－５－１００１,,13,112,1580094,,,,,,,2025-03-24,1,,,,,ティーアイエス,0
1807,9011001168354,新規,0,2025-03-24,2025-03-24,アイミー株式会社,,株式会社,東京都,渋谷区,恵比寿西１丁目１０番１１号フジワラビルディング２階,,13,113,1500021,,,,,,,2025-03-24,1,,,,,アイミー,0
1808,9011001168362,新規,0,2025-03-24,2025-03-24,ＥＡＴＳＬＡＢＳ株式会社,,株式会社,東京都,渋谷区,恵比寿西２丁目８番４号ＥＸ恵比寿西ビル５階,,13,113,1500021,,,,,,,2025-03-24,1,,,,,イーツラブズ,0
1809,9011001168404,新規,0,2025-03-24,2025-03-24,株式会社Ｒｅａｄｙ　Ｇｏ,,株式会社,東京都,渋谷区,神宮前６丁目３５番３－３０２号,,13,113,1500001,,,,,,,2025-03-24,1,,,,,レディゴー,0
1810,9011001168412,新規,0,2025-03-24,2025-03-24,株式会社ブラウンインク,,株式会社,東京都,渋谷区,東２丁目２０－２,,13,113,1500011,,,,,,,2025-03-24,1,,,,,ブラウンインク,0
1811,9011001168437,新規,0,2025-03-24,2025-03-24,株式会社和々ｎａｎａ,,株式会社,東京都,渋谷区,広尾３丁目５番２９号,,13,113,1500012,,,,,,,2025-03-24,1,,,,,ナナ,0
1812,9011001168461,新規,0,2025-03-24,2025-03-24,株式会社宇野映像,,株式会社,東京都,渋谷区,道玄坂１丁目１０番８号渋谷道玄坂東急ビル２Ｆ－Ｃ,,13,113,1500043,,,,,,,2025-03-24,1,,,,,ウノエイゾウ,0
1819,9011003020983,新規,0,2025-03-24,2025-03-24,合同会社ＰＥＳ,,合同会社,東京都,渋谷区,道玄坂１丁目１０番８号渋谷道玄坂東急ビル２Ｆ－Ｃ,,13,113,1500043,,,,,,,2025-03-24,1,,,,,ペス,0
1820,9011003021206,新規,0,2025-03-24,2025-03-24,ＰａｗＬｉｆｔコンサルティング合同会社,,合同会社,東京都,渋谷区,神宮前６丁目２３－４桑野ビル２階,,13,113,1500001,,,,,,,2025-03-24,1,,,,,パーリフトコンサルティング,0
1821,9011003021214,新規,0,2025-03-24,2025-03-24,合同会社ＭｙＤｒ,,合同会社,東京都,渋谷区,恵比寿西２丁目８番４号ＥＸ恵比寿西ビル５階,,13,113,1500021,,,,,,,2025-03-24,1,,,,,マイドクター,0
1822,9011101111040,新規,0,2025-03-24,2025-03-24,高輪産業株式会社,,株式会社,東京都,新宿区,北新宿４丁目３５番２号ザ・パームス東中野エアリィタワー５０７,,13,104,1690074,,,,,,,2025-03-24,1,,,,,タカナワサンギョウ,0
1824,9011103015677,新規,0,2025-03-24,2025-03-24,ＯＲ合同会社,,合同会社,東京都,新宿区,歌舞伎町２丁目４２番１３号アゼリア東広ビル,,13,104,1600021,,,,,,,2025-03-24,1,,,,,オーアール,0
1825,9011103015685,新規,0,2025-03-24,2025-03-24,合同会社Ｌｉｎｏ,,合同会社,東京都,新宿区,新宿２丁目９番２２号多摩川新宿ビル４階,,13,104,1600022,,,,,,,2025-03-24,1,,,,,リノ,0
1832,9011703004170,新規,0,2025-03-24,2025-03-24,合同会社ＳＥＩ,,合同会社,東京都,江戸川区,篠崎町７丁目２６番１１－２６２号ピアＮＯ．２,,13,123,1330061,,,,,,,2025-03-24,1,,,,,セイ,0
1834,9011803006736,新規,0,2025-03-24,2025-03-24,合同会社ＬＩＮＫ　ＵＰ,,合同会社,東京都,足立区,保木間１丁目８－７ナイスアーバン竹ノ塚元淵江公園１０１,,13,121,1210064,,,,,,,2025-03-24,1,,,,,リンクアップ,0
1835,9011803006752,新規,0,2025-03-24,2025-03-24,合同会社フラッグシップ,,合同会社,東京都,足立区,綾瀬４丁目２０－２１,,13,121,1200005,,,,,,,2025-03-24,1,,,,,フラッグシップ,0
1836,9011805003442,新規,0,2025-03-24,2025-03-24,医療法人社団遠武内科小児科,,その他の設立登記法人,東京都,葛飾区,立石６丁目３４番１２号,,13,122,1240012,,,,,,,2025-03-24,1,,,,,トオタケナイカショウニカ,0
1845,9013303007586,新規,0,2025-03-24,2025-03-24,関西第一蓄電池発電所合同会社,,合同会社,東京都,豊島区,北大塚２丁目１２番８号,,13,116,1700004,,,,,,,2025-03-24,1,,,,,カンサイダイイチチクデンチハツデンショ,0
1857,9030001165541,新規,0,2025-03-24,2025-03-24,ＫＴＬ株式会社,,株式会社,埼玉県,春日部市,緑町６丁目１番４０－２号,,11,214,3440063,,,,,,,2025-03-24,1,,,,,ケイティーエル,0
1862,9040001137944,新規,0,2025-03-24,2025-03-24,株式会社Ｋｅｙ　Ｓｕｐｐｏｒｔ　Ｋａｚｏｏ,,株式会社,千葉県,市原市,米沢３４４番地６,,12,219,2900501,,,,,,,2025-03-24,1,,,,,キーサポートカズー,0
1863,9040001137960,新規,0,2025-03-24,2025-03-24,株式会社Ｗａｋｕ　Ｗａ,,株式会社,千葉県,茂原市,鷲巣７７－３,,12,210,2970051,,,,,,,2025-03-24,1,,,,,ワクワ,0
1867,9040003027144,新規,0,2025-03-24,2025-03-24,ＦＡＮＰＵＳＨ合同会社,,合同会社,千葉県,流山市,東初石１丁目５３７番地の３５,,12,220,2700114,,,,,,,2025-03-24,1,,,,,ファンプッシュ,0
1868,9040005022696,新規,0,2025-03-24,2025-03-24,農事組合法人あおぞら,,その他の設立登記法人,千葉県,市川市,下貝塚１丁目３－３２Ｄ室,,12,203,2720821,,,,,,,2025-03-24,1,,,,,アオゾラ,0
1878,9080103003280,新規,0,2025-03-24,2025-03-24,合同会社食楽平和,,合同会社,静岡県,伊東市,広野２丁目４番８号,,22,208,4140038,,,,,,,2025-03-24,1,,,,,,0
1881,9080401027816,新規,0,2025-03-24,2025-03-24,いっぽ株式会社,,株式会社,静岡県,浜松市中央区,田町３１６番地の３０ブルーノアビル２Ｆ,,22,138,4300944,,,,,,,2025-03-24,1,,,,,イッポ,0
1883,9110005017202,新規,0,2025-03-24,2025-03-24,一般社団法人上越ＳＣネット,,その他の設立登記法人,新潟県,上越市,三和区島倉２３８２番地の３三和スポーツセンター内,,15,222,9430311,,,,,,,2025-03-24,1,,,,,ジョウエツエスシーネット,0
1887,9120001273913,新規,0,2025-03-24,2025-03-24,株式会社中尚,,株式会社,大阪府,大阪市淀川区,西宮原１丁目８番２４号新大阪第３ドイビル６階,,27,123,5320004,,,,,,,2025-03-24,1,,,,,チュウショウ,0
1888,9120001273921,新規,0,2025-03-24,2025-03-24,株式会社こがぷろもーと,,株式会社,大阪府,大阪市城東区,古市３丁目２０番２６号１０２,,27,118,5360001,,,,,,,2025-03-24,1,,,,,コガプロモート,0
1891,9120003028910,新規,0,2025-03-24,2025-03-24,徐氏国際合同会社,,合同会社,大阪府,大阪市東淀川区,東中島４丁目１番１１－４０８号,,27,114,5330033,,,,,,,2025-03-24,1,,,,,ジョシコクサイ,0
1897,9120101071309,新規,0,2025-03-24,2025-03-24,大協興産株式会社,,株式会社,大阪府,岸和田市,下松町１１５２番地２９,,27,202,5960823,,,,,,,2025-03-24,1,,,,,ダイキョウコウサン,0
1903,9120903005595,新規,0,2025-03-24,2025-03-24,合同会社サツキヤマ,,合同会社,大阪府,池田市,栄本町１２番１６号,,27,204,5630058,,,,,,,2025-03-24,1,,,,,サツキヤマ,0
1905,9130001079244,新規,0,2025-03-24,2025-03-24,株式会社燕チェーン,,株式会社,京都府,京都市北区,上賀茂大柳町５番地３,,26,101,6038037,,,,,,,2025-03-24,1,,,,,ツバメチェーン,0
1914,9140003021814,新規,0,2025-03-24,2025-03-24,ＭＹＳ合同会社,,合同会社,兵庫県,尼崎市,武庫之荘９丁目２９番１４号,,28,202,6610035,,,,,,,2025-03-24,1,,,,,エムワイエス,0
1926,9180001165948,新規,0,2025-03-24,2025-03-24,株式会社ＬＩＬ　ＷＯＲＫＳ,,株式会社,愛知県,長久手市,蟹原２３０２サンハウス長久手１２Ｈ,,23,238,4801142,,,,,,,2025-03-24,1,,,,,リルワークス,0
1931,9240001064680,新規,0,2025-03-24,2025-03-24,株式会社Ｔｏｗａ,,株式会社,広島県,広島市佐伯区,五日市中央１丁目４番８号,,34,108,7315128,,,,,,,2025-03-24,1,,,,,トワ,0
1932,9240001064697,新規,0,2025-03-24,2025-03-24,ＡｑｕａＮｅｘｕｓ　Ｅｎｅｒｇｙ株式会社,,株式会社,広島県,福山市,沼隈町大字常石１０８３番地,,34,207,7200313,,,,,,,2025-03-24,1,,,,,アクアネクサスエナジー,0
1933,9240003007118,新規,0,2025-03-24,2025-03-24,合同会社Ｔ．ｓａｐｏ,,合同会社,広島県,広島市安佐北区,亀山南２丁目６９－１６,,34,106,7310232,,,,,,,2025-03-24,1,,,,,ティサポ,0
1934,9240003007126,新規,0,2025-03-24,2025-03-24,Ｓｈｉｎｉｎｇ　ａｒｃ合同会社,,合同会社,広島県,広島市中区,中町１番１３号,,34,101,7300037,,,,,,,2025-03-24,1,,,,,シャイニングアーク,0
1942,9290001109398,新規,0,2025-03-24,2025-03-24,Ｐｅｎｔａ　Ｊａｐａｎ株式会社,,株式会社,福岡県,福岡市中央区,赤坂３丁目１３番３号ＡｋａｓａｋａＳａｎａｓ,,40,133,8100042,,,,,,,2025-03-24,1,,,,,ペンタジャパン,0
1955,9360001034952,新規,0,2025-03-24,2025-03-24,株式会社スリーエム,,株式会社,沖縄県,那覇市,前島３丁目１６－１８国吉ビル２０２号,,47,201,9000016,,,,,,,2025-03-24,1,,,,,スリーエム,0
1959,9410001014098,新規,0,2025-03-24,2025-03-24,株式会社ビーアセット,,株式会社,秋田県,仙北郡美郷町,千屋字狐森１１４番地,,05,434,0191502,,,,,,,2025-03-24,1,,,,,ビーアセット,0
1960,9420001019063,新規,0,2025-03-24,2025-03-24,株式会社ＴｏｈｓｈｉｎＥｓｔｅｅｍ,,株式会社,青森県,青森市,新町２丁目７番１６号３Ｆ,,02,201,0300801,,,,,,,2025-03-24,1,,,,,トーシンエスティーム,0
