sequenceNumber,corporateNumber,process,correct,updateDate,changeDate,name,nameImageId,kind,prefectureName,cityName,streetNumber,addressImageId,prefectureCode,cityCode,postCode,addressOutside,addressOutsideImageId,closeDate,closeCause,successorCorporateNumber,changeCause,assignmentDate,latest,enName,enPrefectureName,enCityName,enAddressOutside,furigana,hihyoji
6,1010003038564,新規,0,2022-09-02,2022-09-02,合同会社ヘルスＭ＆Ｓ,,合同会社,東京都,文京区,千石４丁目３３番５号,,13,105,1120011,,,,,,,2022-09-02,1,,,,,ヘルスエムアンドエス,0
7,1010005035519,新規,0,2022-09-02,2022-09-02,医療法人社団Ｎ,,その他の設立登記法人,東京都,中央区,銀座７丁目１３番１号ステージ銀座６階,,13,102,1040061,,,,,,,2022-09-02,1,,,,,エヌ,0
17,1010405021283,新規,0,2022-09-02,2022-09-02,代々木ホールディング１一般社団法人,,その他の設立登記法人,東京都,港区,虎ノ門３丁目２２番１０－２０１号,,13,103,1050001,,,,,,,2022-09-02,1,,,,,ヨヨギホールディングワン,0
19,1010503006707,新規,0,2022-09-02,2022-09-02,オプティポ合同会社,,合同会社,東京都,台東区,東上野４丁目１－８－６０１,,13,106,1100015,,,,,,,2022-09-02,1,,,,,オプティポ,0
20,1010601061760,新規,0,2022-09-02,2022-09-02,ＣＳ　Ｉｎｔｅｒｎａｔｉｏｎａｌ株式会社,,株式会社,東京都,江東区,門前仲町１丁目８番８号（門前仲町海老原ビル）,,13,108,1350048,,,,,,,2022-09-02,1,,,,,シーエスインターナショナル,0
22,1010701043163,新規,0,2022-09-02,2022-09-02,株式会社Ｌｉｉｉｉｆ,,株式会社,東京都,品川区,東大井４丁目１５－２,,13,109,1400011,,,,,,,2022-09-02,1,,,,,リーフ,0
31,1011001149527,新規,0,2022-09-02,2022-09-02,株式会社ＧＣ,,株式会社,東京都,渋谷区,道玄坂１丁目１０番８号渋谷道玄坂東急ビル２Ｆ－Ｃ,,13,113,1500043,,,,,,,2022-09-02,1,,,,,ジーシー,0
32,1011001149576,新規,0,2022-09-02,2022-09-02,株式会社ＨＣＡ,,株式会社,東京都,渋谷区,神宮前６丁目１５番１３号２階,,13,113,1500001,,,,,,,2022-09-02,1,,,,,エイチシーエー,0
36,1011003015289,新規,0,2022-09-02,2022-09-02,合同会社Ｔｈｅ　Ｓａｉｌ,,合同会社,東京都,目黒区,下目黒５丁目３２番１―３０２号サンクレイドル目黒林試の森,,13,110,1530064,,,,,,,2022-09-02,1,,,,,ザセイル,0
37,1011101100018,新規,0,2022-09-02,2022-09-02,株式会社Ａｔｈｅｎａ　Ｊａｐａｎ,,株式会社,東京都,新宿区,新宿６丁目２７番２９コンフォリア新宿イーストサイドタワー,,13,104,1600022,,,,,,,2022-09-02,1,,,,,アテナジャパン,0
38,1011101100026,新規,0,2022-09-02,2022-09-02,株式会社ＳＫ,,株式会社,東京都,新宿区,若宮町３０番地８－４０２号,,13,104,1620827,,,,,,,2022-09-02,1,,,,,エスケイ,0
44,1011603003692,新規,0,2022-09-02,2022-09-02,Ｐｒｉｍｅ　Ｂｕｓｉｎｅｓｓ合同会社,,合同会社,東京都,練馬区,光が丘３丁目３番５－８１２号,,13,120,1790072,,,,,,,2022-09-02,1,,,,,プライムビジネス,0
47,1011701025572,新規,0,2022-09-02,2022-09-02,株式会社ＨＩＮＯＩＲＩ,,株式会社,東京都,江戸川区,東葛西６丁目２番１１－６０１号エステート吉田,,13,123,1340084,,,,,,,2022-09-02,1,,,,,ヒノイリ,0
62,1020001148059,新規,0,2022-09-02,2022-09-02,株式会社エフテック・エス・アンド・エフ,,株式会社,神奈川県,横浜市港北区,富士塚２丁目１８番１７号,,14,109,2220012,,,,,,,2022-09-02,1,,,,,エフテックエスアンドエフ,0
63,1020001148083,新規,0,2022-09-02,2022-09-02,株式会社アイレクス,,株式会社,神奈川県,横浜市中区,松影町２丁目５番地９アークＫビル２１０号室,,14,104,2310025,,,,,,,2022-09-02,1,,,,,アイレクス,0
73,1021003012095,新規,0,2022-09-02,2022-09-02,ＦＬＹＳＯＵＮＤ合同会社,,合同会社,神奈川県,平塚市,老松町５番８－４０２号,,14,203,2540033,,,,,,,2022-09-02,1,,,,,フライサウンド,0
74,1021005012606,新規,0,2022-09-02,2022-09-02,司法書士法人あつめ木法務,,その他の設立登記法人,神奈川県,厚木市,寿町３丁目６番２号,,14,212,2430003,,,,,,,2022-09-02,1,,,,,アツメギホウム,0
77,1030001149824,新規,0,2022-09-02,2022-09-02,株式会社五十嵐工業,,株式会社,埼玉県,さいたま市桜区,大字大久保領家６２４番地,,11,106,3380826,,,,,,,2022-09-02,1,,,,,イガラシコウギョウ,0
78,1030001149915,新規,0,2022-09-02,2022-09-02,株式会社ハミングバード,,株式会社,埼玉県,草加市,両新田東町９６番地６,,11,221,3400026,,,,,,,2022-09-02,1,,,,,ハミングバード,0
79,1030001149923,新規,0,2022-09-02,2022-09-02,青和實業株式会社,,株式会社,埼玉県,所沢市,小手指町４丁目２５番地の２０共栄ビル２０１,,11,208,3591141,,,,,,,2022-09-02,1,,,,,セイワジツギョウ,0
83,1030003020099,新規,0,2022-09-02,2022-09-02,クラフトヒッテコ合同会社,,合同会社,埼玉県,比企郡嵐山町,大字鎌形１３０８番地１,,11,342,3550225,,,,,,,2022-09-02,1,,,,,クラフトヒッテコ,0
84,1040001124891,新規,0,2022-09-02,2022-09-02,ＳＵＥＭＡＲＵ　ＨＯＬＤＩＮＧＳ株式会社,,株式会社,千葉県,野田市,中根１６０番地の２,,12,208,2780031,,,,,,,2022-09-02,1,,,,,スエマルホールディングス,0
89,1040003020742,新規,0,2022-09-02,2022-09-02,合同会社ＡＵ　ＥＮＴＥＲＰＲＩＳＥＳ,,合同会社,千葉県,富里市,十倉１８５－５０２,,12,233,2860212,,,,,,,2022-09-02,1,,,,,エーユーエンタープライゼス,0
90,1040005021722,新規,0,2022-09-02,2022-09-02,弁護士法人シンカ法律事務所,,その他の設立登記法人,千葉県,千葉市中央区,中央３丁目９番９号エレル千葉中央ビル６階,,12,101,2600013,,,,,,,2022-09-02,1,,,,,シンカホウリツジムショ,0
97,1080105006280,新規,0,2022-09-02,2022-09-02,特定非営利活動法人ブルーカーボン・ネットワーク,,その他の設立登記法人,静岡県,熱海市,渚町７番５号,,22,205,4130014,,,,,,,2022-09-02,1,,,,,ブルーカーボンネットワーク,0
99,1080401026024,新規,0,2022-09-02,2022-09-02,株式会社昂丸水産,,株式会社,静岡県,浜松市西区,舞阪町舞阪５１３６番地の１,,22,133,4310211,,,,,,,2022-09-02,1,,,,,コウマルスイサン,0
100,1090003002158,新規,0,2022-09-02,2022-09-02,合同会社パイパーデザイン,,合同会社,山梨県,中巨摩郡昭和町,紙漉阿原１９１９番地７,,19,384,4093861,,,,,,,2022-09-02,1,,,,,,0
106,1110001036923,新規,0,2022-09-02,2022-09-02,株式会社ウェルビーイング,,株式会社,新潟県,新潟市中央区,網川原２丁目３１番１６号,,15,103,9500964,,,,,,,2022-09-02,1,,,,,ウェルビーイング,0
116,1120001248550,新規,0,2022-09-02,2022-09-02,株式会社叶創建,,株式会社,大阪府,枚方市,西船橋１丁目２６番１１号,,27,210,5731122,,,,,,,2022-09-02,1,,,,,カナウソウケン,0
117,1120001248559,新規,0,2022-09-02,2022-09-02,株式会社Ｂｅａｕｐｌｕｓ,,株式会社,大阪府,大阪市中央区,島之内２丁目６－５第三エクセルビル３９号,,27,128,5420082,,,,,,,2022-09-02,1,,,,,ビュープラス,0
118,1120001248583,新規,0,2022-09-02,2022-09-02,吉花設計株式会社,,株式会社,大阪府,大阪市西成区,天下茶屋１丁目４番１０号天下茶屋ＩＩ番館１０１号室,00127707,27,122,5570014,,,,,,,2022-09-02,1,,,,,ヨシハナセッケイ,0
119,1120001248600,新規,0,2022-09-02,2022-09-02,ａｎｄ９６５株式会社,,株式会社,大阪府,大阪市阿倍野区,晴明通１２番３１号,,27,119,5450032,,,,,,,2022-09-02,1,,,,,アンドクロコ,0
120,1120003022400,新規,0,2022-09-02,2022-09-02,合同会社Ｈ２Ｄｅｓｉｇｎ．ｌａｂ,,合同会社,大阪府,大阪市港区,波除４丁目１番１４―６０１号,,27,107,5520001,,,,,,,2022-09-02,1,,,,,エイチツーデザインラボ,0
121,1120101066159,新規,0,2022-09-02,2022-09-02,株式会社辻田建設,00127698,株式会社,大阪府,堺市西区,上１０番地１,,27,144,5938311,,,,,,,2022-09-02,1,,,,,ツジタケンセツ,0
128,1130003008159,新規,0,2022-09-02,2022-09-02,合同会社フジプル,,合同会社,京都府,宮津市,字惣３８番地の１,,26,205,6260043,,,,,,,2022-09-02,1,,,,,フジプル,0
131,1140001127224,新規,0,2022-09-02,2022-09-02,三輪持株会株式会社,,株式会社,兵庫県,神戸市中央区,脇浜町２丁目１番１６号,,28,110,6510072,,,,,,,2022-09-02,1,,,,,ミワモチカブカイ,0
132,1140001127232,新規,0,2022-09-02,2022-09-02,株式会社メディアレンジ,,株式会社,兵庫県,伊丹市,美鈴町３丁目６６番地２,,28,207,6640884,,,,,,,2022-09-02,1,,,,,メディアレンジ,0
137,1140005026307,新規,0,2022-09-02,2022-09-02,トラスト社会保険労務士法人,,その他の設立登記法人,兵庫県,神戸市中央区,栄町通１丁目１番２４号,,28,110,6500023,,,,,,,2022-09-02,1,,,,,トラスト,0
139,1160001024477,新規,0,2022-09-02,2022-09-02,株式会社ＳＵＰＲＥＭＥ　ＦＯＯＤＳ,,株式会社,滋賀県,栗東市,辻６６８番地４０２,,25,208,5203042,,,,,,,2022-09-02,1,,,,,シュプリームフーズ,0
143,1170001017265,新規,0,2022-09-02,2022-09-02,株式会社ＫＡＨ,,株式会社,和歌山県,海南市,重根７１番地３,,30,202,6420023,,,,,,,2022-09-02,1,,,,,ケイエーエイチ,0
148,1180001152838,新規,0,2022-09-02,2022-09-02,株式会社サポートサービス,,株式会社,愛知県,名古屋市緑区,有松三丁山５０８番地,,23,114,4580902,,,,,,,2022-09-02,1,,,,,サポートサービス,0
149,1180001152846,新規,0,2022-09-02,2022-09-02,尽空調株式会社,,株式会社,愛知県,江南市,寄木町白山５８番地２,,23,217,4838151,,,,,,,2022-09-02,1,,,,,ジンクウチョウ,0
156,1180301036583,新規,0,2022-09-02,2022-09-02,株式会社板倉不動産販売,,株式会社,愛知県,豊田市,浄水町伊保原３２９番地,,23,211,4700343,,,,,,,2022-09-02,1,,,,,イタクラフドウサンハンバイ,0
165,1200001040404,新規,0,2022-09-02,2022-09-02,株式会社Ｒｏｃｋ＆Ｒｉｖｅｒ’ｓ,,株式会社,岐阜県,羽島市,江吉良町江中５丁目３７番地,,21,209,5016238,,,,,,,2022-09-02,1,,,,,ロックアンドリバーズ,0
168,1210001019067,新規,0,2022-09-02,2022-09-02,ＫＰＣ株式会社,,株式会社,福井県,越前市,向陽町５１番地,,18,209,9150874,,,,,,,2022-09-02,1,,,,,ケイピーシー,0
175,1240001060290,新規,0,2022-09-02,2022-09-02,株式会社エルギ,,株式会社,広島県,広島市安佐南区,祇園７丁目１２番２８－１２号,,34,105,7310138,,,,,,,2022-09-02,1,,,,,エルギ,0
176,1240001060308,新規,0,2022-09-02,2022-09-02,株式会社フレンドリースポーツ,,株式会社,広島県,広島市中区,本川町２丁目１番７号,,34,101,7300802,,,,,,,2022-09-02,1,,,,,フレンドリースポーツ,0
177,1240001060324,新規,0,2022-09-02,2022-09-02,株式会社セレンディピティ・コンサルティング,,株式会社,広島県,広島市佐伯区,吉見園１５番１７号,,34,108,7315132,,,,,,,2022-09-02,1,,,,,セレディピティコンサルティング,0
185,1260001037196,新規,0,2022-09-02,2022-09-02,株式会社フォレストヒューマン,,株式会社,岡山県,高梁市,川面町１８１０番地,,33,209,7192121,,,,,,,2022-09-02,1,,,,,フォレストヒューマン,0
196,1290003012905,新規,0,2022-09-02,2022-09-02,合同会社アーバンリゾートシティ,,合同会社,福岡県,大牟田市,原山町８番６,,40,202,8360862,,,,,,,2022-09-02,1,,,,,アーバンリゾートシティ,0
199,1290803004192,新規,0,2022-09-02,2022-09-02,合同会社ＲＬＩ,,合同会社,福岡県,北九州市小倉北区,大手町８－１リヴィエール大手町１１０３号,,40,106,8030814,,,,,,,2022-09-02,1,,,,,アールエルアイ,0
201,1310001018018,新規,0,2022-09-02,2022-09-02,株式会社森内,,株式会社,長崎県,諫早市,貝津町２４３９番地,,42,204,8540063,,,,,,,2022-09-02,1,,,,,モリウチ,0
206,1330001030078,新規,0,2022-09-02,2022-09-02,株式会社ＤＯＵＯ,,株式会社,熊本県,熊本市西区,池田３丁目３３番２０号,,43,103,8600082,,,,,,,2022-09-02,1,,,,,ドウオ,0
207,1330003009500,新規,0,2022-09-02,2022-09-02,合同会社ｆｅｌｉｘ,,合同会社,熊本県,熊本市中央区,新町２丁目１１番３３－１２０３号,,43,101,8600004,,,,,,,2022-09-02,1,,,,,フィリックス,0
209,1340001024995,新規,0,2022-09-02,2022-09-02,株式会社ＢＡＵＭ,,株式会社,鹿児島県,姶良市,蒲生町上久徳２５５７番地,,46,225,8995302,,,,,,,2022-09-02,1,,,,,バウム,0
210,1340001025003,新規,0,2022-09-02,2022-09-02,ＮＢフード株式会社,,株式会社,鹿児島県,鹿児島市,中山２丁目２３番１号,,46,201,8910108,,,,,,,2022-09-02,1,,,,,エヌビーフード,0
211,1340001025011,新規,0,2022-09-02,2022-09-02,株式会社ＭＫＧ,,株式会社,鹿児島県,鹿児島市,東千石町１ー２６フォリス観光ビル天文館地下１階,,46,201,8920842,,,,,,,2022-09-02,1,,,,,エムケージー,0
216,1350003004160,新規,0,2022-09-02,2022-09-02,合同会社ＲＧ　ＳＰＯＲＴＳ,,合同会社,宮崎県,宮崎市,大字本郷北方２５３３番地４１,,45,201,8800925,,,,,,,2022-09-02,1,,,,,アールジースポーツ,0
226,1380001033101,新規,0,2022-09-02,2022-09-02,ＢＯＮＩＬＥＭＯ　Ｃｒｅａｔｅ株式会社,,株式会社,福島県,いわき市,植田町中央３丁目４番地１６,,07,204,9748261,,,,,,,2022-09-02,1,,,,,ボニレモクリエイト,0
236,1450003002245,新規,0,2022-09-02,2022-09-02,合同会社華丸,,合同会社,北海道,旭川市,春光五条８丁目７番９号,,01,204,0700875,,,,,,,2022-09-02,1,,,,,ハナマル,0
245,1500001024442,新規,0,2022-09-02,2022-09-02,株式会社日光塗料店,,株式会社,愛媛県,松山市,愛光町１番１０号,,38,201,7900064,,,,,,,2022-09-02,1,,,,,ニッコウトリョウテン,0
249,1700150108975,新規,0,2022-09-02,2022-05-24,日本産業理学療法研究会,,その他,東京都,港区,六本木７丁目１１番１０号,,13,103,1060032,,,,,,,2022-05-24,1,,,,,ニホンサンギヨウリガクリヨウホウケンキユウカイ,0
250,1700150111590,新規,0,2022-09-02,2022-09-02,北京佰聯建築設計有限公司,,外国会社等,東京都,台東区,千束３丁目２１－１２キートスビル３０１号室,,13,106,1110031,北京市海淀区西三環北路５０号院８号楼豪柏大厦１７０１,00127696,,,,,2022-09-02,1,,,,,ペキンバイレンケンチクセツケイユウゲンコウシ,0
256,2010001229115,新規,0,2022-09-02,2022-09-02,株式会社みたらしだんご,,株式会社,東京都,文京区,大塚４丁目４８番５,,13,105,1120012,,,,,,,2022-09-02,1,,,,,ミタラシダンゴ,0
257,2010001229239,新規,0,2022-09-02,2022-09-02,株式会社ほむすび,,株式会社,東京都,千代田区,九段南１丁目５番６号りそな九段ビル５ＦＫＳフロア,,13,101,1020074,,,,,,,2022-09-02,1,,,,,ホムスビ,0
261,2010003038514,新規,0,2022-09-02,2022-09-02,東京行楽日和旅行合同会社,,合同会社,東京都,中央区,銀座１丁目２２番１１号銀座大竹ビジデンス２階,,13,102,1040061,,,,,,,2022-09-02,1,,,,,トウキョウコウラクビヨリリョコウ,0
262,2010003038522,新規,0,2022-09-02,2022-09-02,麻布十番合同会社,,合同会社,東京都,千代田区,神田小川町３丁目２６番８号神田小川町三丁目ビル６階,,13,101,1010052,,,,,,,2022-09-02,1,,,,,アザブジュウバン,0
271,2010401169340,新規,0,2022-09-02,2022-09-02,株式会社ＡＩＵＴＯｍｅｄｉｃｏ,,株式会社,東京都,港区,南青山２丁目２番１５号,,13,103,1070062,,,,,,,2022-09-02,1,,,,,アイウートメディコ,0
273,2010403028404,新規,0,2022-09-02,2022-09-02,イオインフラファンド合同会社,,合同会社,東京都,港区,虎ノ門３丁目２２番１０－２０１号,,13,103,1050001,,,,,,,2022-09-02,1,,,,,イオインフラファンド,0
275,2010601061776,新規,0,2022-09-02,2022-09-02,株式会社スターライト,,株式会社,東京都,江東区,亀戸５丁目３２番４－１０１号,,13,108,1360071,,,,,,,2022-09-02,1,,,,,スターライト,0
280,2010905004365,新規,0,2022-09-02,2022-09-02,医療法人社団ＷＨＭ,,その他の設立登記法人,東京都,世田谷区,北沢２丁目２４番５号シモキタフロント２階,,13,112,1550031,,,,,,,2022-09-02,1,,,,,ダブリュエイチエム,0
294,2011001149526,新規,0,2022-09-02,2022-09-02,株式会社ＩＳインベストメント,,株式会社,東京都,渋谷区,渋谷３丁目９番９号東京建物渋谷ビル８階,,13,113,1500002,,,,,,,2022-09-02,1,,,,,アイエスインベストメント,0
295,2011001149575,新規,0,2022-09-02,2022-09-02,株式会社Ｔｏｋｙｏ　Ｄｅｌｉｃｉｏｕｓ,,株式会社,東京都,目黒区,上目黒５丁目３０番１２号,,13,110,1530051,,,,,,,2022-09-02,1,,,,,トーキョーデリシャス,0
300,2011101100041,新規,0,2022-09-02,2022-09-02,ＬＷＩＮ株式会社,,株式会社,東京都,新宿区,下落合２丁目１番８号三栄ビル５０５,,13,104,1610033,,,,,,,2022-09-02,1,,,,,ルィン,0
305,2011701025571,新規,0,2022-09-02,2022-09-02,株式会社すずらん画廊,,株式会社,東京都,江戸川区,平井５丁目２７番１号松山荘２０１号室,,13,123,1320035,,,,,,,2022-09-02,1,,,,,スズランガロウ,0
306,2011703003245,新規,0,2022-09-02,2022-09-02,ｕｐｐｅｒｃａｓｅ合同会社,,合同会社,東京都,江戸川区,西小岩１丁目２１番８号望月ビル２階,,13,123,1330057,,,,,,,2022-09-02,1,,,,,アッパーケース,0
309,2012301013116,新規,0,2022-09-02,2022-09-02,株式会社ＰＲＩＭＥ,,株式会社,東京都,町田市,中町１丁目３番１号,,13,209,1940021,,,,,,,2022-09-02,1,,,,,プライム,0
316,2013303006280,新規,0,2022-09-02,2022-09-02,合同会社グローバルスチューデントパートナーズ,,合同会社,東京都,豊島区,南長崎１丁目２４番地４エスターテ２０１,,13,116,1710052,,,,,,,2022-09-02,1,,,,,グローバルスチューデントパートナーズ,0
320,2020001148025,新規,0,2022-09-02,2022-09-02,フリースタイル株式会社,,株式会社,神奈川県,横浜市西区,北軽井沢４番地１３７,,14,103,2200001,,,,,,,2022-09-02,1,,,,,フリースタイル,0
322,2020003022327,新規,0,2022-09-02,2022-09-02,合同会社ランドプランナ,,合同会社,神奈川県,横浜市鶴見区,北寺尾１丁目８番２８号,,14,101,2300074,,,,,,,2022-09-02,1,,,,,ランドプランナ,0
325,2021001076926,新規,0,2022-09-02,2022-09-02,ジグデザインオフィス株式会社,,株式会社,神奈川県,相模原市中央区,上溝３８２０番地１６,,14,152,2520243,,,,,,,2022-09-02,1,,,,,ジグデザインオフィス,0
329,2030001149864,新規,0,2022-09-02,2022-09-02,株式会社ライジング,,株式会社,埼玉県,新座市,畑中２丁目１３番１６号,,11,230,3520012,,,,,,,2022-09-02,1,,,,,ライジング,0
330,2030001149889,新規,0,2022-09-02,2022-09-02,株式会社バーディーズ,,株式会社,埼玉県,川口市,並木元町１番６６－６１７号,,11,203,3320033,,,,,,,2022-09-02,1,,,,,バーディーズ,0
331,2030001149914,新規,0,2022-09-02,2022-09-02,株式会社Ｇａｏｏｈ,,株式会社,埼玉県,さいたま市北区,土呂町２丁目５７－１,,11,102,3310804,,,,,,,2022-09-02,1,,,,,ガオウ,0
342,2040005021721,新規,0,2022-09-02,2022-09-02,一般社団法人佛教美術協会,,その他の設立登記法人,千葉県,佐倉市,山王２丁目４０番地１５,,12,212,2850807,,,,,,,2022-09-02,1,,,,,ブッキョウビジュツキョウカイ,0
345,2060001035228,新規,0,2022-09-02,2022-09-02,株式会社ＣＨＡＵＤＨＲＹ　ＴＲＡＤＩＮＧ,,株式会社,栃木県,小山市,大字出井４４１番地２,,09,208,3230808,,,,,,,2022-09-02,1,,,,,チョウドゥリトレーディング,0
348,2070002037750,新規,0,2022-09-02,2022-09-02,有限会社周和製作所,,有限会社,群馬県,邑楽郡板倉町,大字板倉３４１１番地の２７６,,10,521,3740132,,,,,,,2022-09-02,1,,,,,シュウワセイサクジョ,0
349,2080001025160,新規,0,2022-09-02,2022-09-02,株式会社小柳津工業,,株式会社,静岡県,藤枝市,志太３丁目１４番２８－１号,,22,214,4260071,,,,,,,2022-09-02,1,,,,,オヤイヅコウギョウ,0
354,2110001036922,新規,0,2022-09-02,2022-09-02,株式会社一進社,,株式会社,新潟県,新潟市秋葉区,竜玄６８８番地,,15,105,9560111,,,,,,,2022-09-02,1,,,,,イッシンシャ,0
355,2110001036930,新規,0,2022-09-02,2022-09-02,株式会社ワイド,,株式会社,新潟県,新潟市中央区,寄附町４９８４番地１,,15,103,9518081,,,,,,,2022-09-02,1,,,,,ワイド,0
356,2110001036939,新規,0,2022-09-02,2022-09-02,株式会社ＭＩＲＡ　ＴＥＲＡＳ,,株式会社,新潟県,新潟市西蒲区,橋本１０３７番地１,,15,108,9530103,,,,,,,2022-09-02,1,,,,,ミラテラス,0
363,2120001248582,新規,0,2022-09-02,2022-09-02,Ｔｏｐ　Ｃｒｅａｔｉｏｎ株式会社,,株式会社,大阪府,大阪市西区,九条南２丁目１６番１３号九条南ビル３０６号室,,27,106,5500025,,,,,,,2022-09-02,1,,,,,トップクリエーション,0
364,2120001248590,新規,0,2022-09-02,2022-09-02,株式会社ＴＫ　Ｇｌｏｂａｌ,,株式会社,大阪府,枚方市,春日野１丁目３番１６号,,27,210,5730131,,,,,,,2022-09-02,1,,,,,ティーケーグローバル,0
367,2120003022382,新規,0,2022-09-02,2022-09-02,合同会社ＭＬＳ　Ｊａｐａｎ,,合同会社,大阪府,大阪市西区,江戸堀２丁目１－１江戸堀センタービル９階,,27,106,5500002,,,,,,,2022-09-02,1,,,,,エムエルエスジャパン,0
375,2120101066182,新規,0,2022-09-02,2022-09-02,株式会社ウエイ,,株式会社,大阪府,堺市美原区,南余部６４番地１－３０１号,,27,147,5870052,,,,,,,2022-09-02,1,,,,,ウエイ,0
376,2120901046441,新規,0,2022-09-02,2022-09-02,株式会社幸せ心,,株式会社,大阪府,高槻市,土室町９番５号,,27,207,5691147,,,,,,,2022-09-02,1,,,,,シアワセゴコロ,0
378,2122003002414,新規,0,2022-09-02,2022-09-02,合同会社ｍｒｂ,,合同会社,大阪府,東大阪市,額田町４番１２号２０１号室,,27,227,5798021,,,,,,,2022-09-02,1,,,,,エムアールビー,0
386,2130001072536,新規,0,2022-09-02,2022-09-02,株式会社Ｎｏ　Ｌｉｍｉｔｓ,,株式会社,京都府,京都市南区,吉祥院八反田町２６番地,,26,107,6018325,,,,,,,2022-09-02,1,,,,,ノーリミッツ,0
387,2130001072544,新規,0,2022-09-02,2022-09-02,株式会社ＤＥＣＯＲＥＬ,,株式会社,京都府,舞鶴市,字行永２０２１－５,,26,202,6250052,,,,,,,2022-09-02,1,,,,,デコレル,0
390,2140001127231,新規,0,2022-09-02,2022-09-02,株式会社Ｈａｊｉｍｅ,,株式会社,兵庫県,芦屋市,大原町１９番１－２０４号,,28,206,6590092,,,,,,,2022-09-02,1,,,,,ハジメ,0
391,2140001127272,新規,0,2022-09-02,2022-09-02,株式会社エクセルフェア,,株式会社,兵庫県,神戸市垂水区,福田１丁目９－２４－２,,28,108,6550013,,,,,,,2022-09-02,1,,,,,エクセルフェア,0
395,2140003018081,新規,0,2022-09-02,2022-09-02,合同会社Ｒｉｍｉｋｋ,,合同会社,兵庫県,神戸市北区,緑町８丁目１番２－３０６号,,28,109,6511221,,,,,,,2022-09-02,1,,,,,リミック,0
397,2150005009417,新規,0,2022-09-02,2022-09-02,日本商工企業協同組合,,その他の設立登記法人,奈良県,奈良市,高天市町４９－３池田ビル２０１,,29,201,6308238,,,,,,,2022-09-02,1,,,,,ニホンショウコウキギョウ,0
406,2180001152829,新規,0,2022-09-02,2022-09-02,株式会社Ｌｅ　Ｐｉｇｅｏｎ,,株式会社,愛知県,名古屋市中区,栄３丁目８番２５号ＧＳ栄ビル３階,,23,106,4600008,,,,,,,2022-09-02,1,,,,,ルピジョン,0
407,2180001152845,新規,0,2022-09-02,2022-09-02,株式会社ミルフィオリ,,株式会社,愛知県,名古屋市中区,丸の内１丁目１７番１９号キリックス丸の内ビル８階,,23,106,4600002,,,,,,,2022-09-02,1,,,,,ミルフィオリ,0
408,2180001152853,新規,0,2022-09-02,2022-09-02,株式会社スリーアローズジャパン,,株式会社,愛知県,名古屋市東区,葵１丁目２番６号,,23,102,4610004,,,,,,,2022-09-02,1,,,,,スリーアローズジャパン,0
409,2180001152861,新規,0,2022-09-02,2022-09-02,株式会社ＲＳＭ　Ｔｒａｄｉｎｇ　Ｊａｐａｎ,,株式会社,愛知県,春日井市,東野町７丁目９番地９エアリーレジデンス１０６号,,23,206,4860817,,,,,,,2022-09-02,1,,,,,アールエスエムトレーディングジャパン,0
415,2190001029729,新規,0,2022-09-02,2022-09-02,株式会社珠玉,,株式会社,三重県,松阪市,南町１８２番地２０,,24,204,5150034,,,,,,,2022-09-02,1,,,,,シュギョク,0
423,2220001025006,新規,0,2022-09-02,2022-09-02,株式会社ナイナイホーム,,株式会社,石川県,金沢市,古府３丁目７０番地澤田ビル３階２号室,,17,201,9200362,,,,,,,2022-09-02,1,,,,,ナイナイホーム,0
428,2240001060307,新規,0,2022-09-02,2022-09-02,株式会社ＢＯＳボス,,株式会社,広島県,東広島市,西条町寺家７３９２番地１７,,34,212,7390041,,,,,,,2022-09-02,1,,,,,ビーオーエスボス,0
432,2250001019748,新規,0,2022-09-02,2022-09-02,株式会社新和,,株式会社,山口県,周南市,桜木２丁目３番７号,,35,215,7450806,,,,,,,2022-09-02,1,,,,,シンワ,0
433,2260001037204,新規,0,2022-09-02,2022-09-02,株式会社コットンローズ,,株式会社,岡山県,倉敷市,浜ノ茶屋３１２番地９,,33,202,7100061,,,,,,,2022-09-02,1,,,,,コットンローズ,0
436,2260003004020,新規,0,2022-09-02,2022-09-02,合同会社Ｏｍｏｔｅ,,合同会社,岡山県,岡山市北区,天神町１‐１６ロイヤルガーデン桃太郎通り１０２,,33,101,7000814,,,,,,,2022-09-02,1,,,,,オモテ,0
444,2290001098747,新規,0,2022-09-02,2022-09-02,株式会社ヨロコビムラ,,株式会社,福岡県,福岡市西区,野方３丁目５１番１４号,,40,135,8190043,,,,,,,2022-09-02,1,,,,,ヨロコビムラ,0
450,2290003012904,新規,0,2022-09-02,2022-09-02,Ｈｕｌａ　Ｈｏｏｐ’ｓ合同会社,,合同会社,福岡県,福岡市中央区,荒戸３丁目５番１３－３０１号,,40,133,8100062,,,,,,,2022-09-02,1,,,,,フラフープス,0
453,2310001018017,新規,0,2022-09-02,2022-09-02,株式会社真,,株式会社,長崎県,長崎市,城栄町２７番１０号,,42,201,8528034,,,,,,,2022-09-02,1,,,,,シン,0
454,2310003004436,新規,0,2022-09-02,2022-09-02,合同会社ＮＮＥＴ不動産,,合同会社,長崎県,長崎市,戸町２丁目２４番１１号,,42,201,8500952,,,,,,,2022-09-02,1,,,,,ネットフドウサン,0
457,2330001030060,新規,0,2022-09-02,2022-09-02,株式会社ＨＩＲＯＭＩ不動産,,株式会社,熊本県,熊本市東区,戸島西２丁目２番５号,,43,102,8618043,,,,,,,2022-09-02,1,,,,,ヒロミフドウサン,0
458,2330001030069,新規,0,2022-09-02,2022-09-02,株式会社リフスマイル,,株式会社,熊本県,阿蘇市,竹原４６１番地２,,43,214,8692223,,,,,,,2022-09-02,1,,,,,リフスマイル,0
468,2360001030909,新規,0,2022-09-02,2022-09-02,株式会社樹,,株式会社,沖縄県,南城市,大里字稲嶺２１２７番地４１９,,47,215,9011204,,,,,,,2022-09-02,1,,,,,タツキ,0
471,2370001048990,新規,0,2022-09-02,2022-09-02,株式会社創作意欲が沸いてくる,,株式会社,宮城県,刈田郡蔵王町,大字円田字川原畑１４－１,,04,301,9890821,,,,,,,2022-09-02,1,,,,,ソウサクイヨクガワイテクル,0
473,2370003005817,新規,0,2022-09-02,2022-09-02,ＨＡＲＵ‐ＫＩＣＨＩ合同会社,,合同会社,宮城県,仙台市青葉区,本町１丁目５番２８号カーニープレイス仙台駅前通６０３号室,,04,101,9800014,,,,,,,2022-09-02,1,,,,,ハルキチ,0
483,2430001087396,新規,0,2022-09-02,2022-09-02,株式会社ＣＯＮＥＪＯ　ＣＯＲＰＯＲＡＴＩＯＮ,,株式会社,北海道,札幌市中央区,南五条西３丁目１１番地４るりビル,,01,101,0640805,,,,,,,2022-09-02,1,,,,,コネホコーポレーション,0
484,2430001087405,新規,0,2022-09-02,2022-09-02,株式会社オフィスティー,,株式会社,北海道,札幌市東区,北四十七条東１３丁目４番１０号,,01,103,0070847,,,,,,,2022-09-02,1,,,,,オフィスティー,0
490,2450003002244,新規,0,2022-09-02,2022-09-02,合同会社Ｚｅａｒｔｈ,,合同会社,北海道,旭川市,流通団地二条３丁目４３,,01,204,0798442,,,,,,,2022-09-02,1,,,,,ザース,0
493,2470001019247,新規,0,2022-09-02,2022-09-02,株式会社Ａｎｙｔｈｉｎｇ,,株式会社,香川県,坂出市,富士見町２丁目７番２３号,,37,203,7620046,,,,,,,2022-09-02,1,,,,,エニシング,0
494,2480001011847,新規,0,2022-09-02,2022-09-02,株式会社ｐａｃｅ,,株式会社,徳島県,徳島市,城南町２丁目７番２５号,,36,201,7708064,,,,,,,2022-09-02,1,,,,,パーチェ,0
503,2500001024441,新規,0,2022-09-02,2022-09-02,株式会社野口商店,,株式会社,愛媛県,伊予市,上野４５５番地３２,,38,210,7993103,,,,,,,2022-09-02,1,,,,,ノグチショウテン,0
509,3010003038488,新規,0,2022-09-02,2022-09-02,Ｋａｊｉｂｏｓｈｉ合同会社,,合同会社,東京都,中央区,日本橋本町１丁目８－１３日本橋滄浪閣ビル２階西,,13,102,1030023,,,,,,,2022-09-02,1,,,,,カジボシ,0
510,3010003038546,新規,0,2022-09-02,2022-09-02,四谷三栄町プロジェクト合同会社,,合同会社,東京都,千代田区,丸の内２丁目３番２号,,13,101,1000005,,,,,,,2022-09-02,1,,,,,ヨツヤサンエイチョウプロジェクト,0
511,3010003038562,新規,0,2022-09-02,2022-09-02,石神井台インベストメントワン合同会社,,合同会社,東京都,千代田区,九段南３丁目７番７号成和綜合会計事務所内,,13,101,1020074,,,,,,,2022-09-02,1,,,,,シャクジイダイインベストメントワン,0
520,3010403028329,新規,0,2022-09-02,2022-09-02,ＥＳＱＵＩＲＥ合同会社,,合同会社,東京都,港区,六本木７丁目１４－２３,,13,103,1060032,,,,,,,2022-09-02,1,,,,,エスクワイア,0
521,3010405021356,新規,0,2022-09-02,2022-09-02,イオインフラホールディングス一般社団法人,,その他の設立登記法人,東京都,港区,虎ノ門３丁目２２番１０－２０１号,,13,103,1050001,,,,,,,2022-09-02,1,,,,,イオインフラホールディングス,0
522,3010501049318,新規,0,2022-09-02,2022-09-02,株式会社Ｏｆｆｉｃｅ笠原,,株式会社,東京都,台東区,下谷２丁目４番９号,,13,106,1100004,,,,,,,2022-09-02,1,,,,,オフィスカサハラ,0
523,3010503006705,新規,0,2022-09-02,2022-09-02,ＨＴＨ合同会社,,合同会社,東京都,台東区,竜泉２丁目１９番１４号金竜コーポ９０２,,13,106,1100012,,,,,,,2022-09-02,1,,,,,エイチティエイチ,0
531,3010901051542,新規,0,2022-09-02,2022-09-02,株式会社ｐｏｏｌ,,株式会社,東京都,世田谷区,北沢２丁目５番２号下北沢ビッグベン４Ｆ,,13,112,1550031,,,,,,,2022-09-02,1,,,,,プール,0
537,3011001149450,新規,0,2022-09-02,2022-09-02,株式会社リアーテ,,株式会社,東京都,渋谷区,神宮前６丁目２３番４号桑野ビル２階,,13,113,1500001,,,,,,,2022-09-02,1,,,,,,0
538,3011001149517,新規,0,2022-09-02,2022-09-02,株式会社ｍｅｌａ,,株式会社,東京都,渋谷区,恵比寿南３丁目１－１いちご恵比寿グリーングラス８Ｆ,,13,113,1500022,,,,,,,2022-09-02,1,,,,,メラ,0
539,3011001149525,新規,0,2022-09-02,2022-09-02,株式会社ワタナベ企画,,株式会社,東京都,渋谷区,渋谷２丁目１９－１５宮益坂ビルディング６０９,,13,113,1500002,,,,,,,2022-09-02,1,,,,,ワタナベキカク,0
546,3011101100024,新規,0,2022-09-02,2022-09-02,株式会社ＳＥＶＡＳ,,株式会社,東京都,新宿区,西新宿３丁目３番１３号西新宿水間ビル６階,,13,104,1600023,,,,,,,2022-09-02,1,,,,,セバス,0
547,3011101100032,新規,0,2022-09-02,2022-09-02,株式会社Ｇｒｒｏｗ,,株式会社,東京都,新宿区,新宿７丁目２７番９－１７０７号,,13,104,1600022,,,,,,,2022-09-02,1,,,,,グロー,0
552,3011701025579,新規,0,2022-09-02,2022-09-02,株式会社すみれホーム,,株式会社,東京都,江戸川区,南篠崎町４丁目８番２－４０８号,,13,123,1330065,,,,,,,2022-09-02,1,,,,,スミレホーム,0
554,3011703003244,新規,0,2022-09-02,2022-09-02,アヤスＨＲ合同会社,,合同会社,東京都,江戸川区,南小岩８丁目１１番８号ウィルコート小岩１階,,13,123,1330056,,,,,,,2022-09-02,1,,,,,アヤスエイチアール,0
555,3012401039596,新規,0,2022-09-02,2022-09-02,株式会社ブリジット,,株式会社,東京都,三鷹市,大沢６丁目１０番２８号,,13,204,1810015,,,,,,,2022-09-02,1,,,,,ブリジット,0
558,3012405004778,新規,0,2022-09-02,2022-09-02,医療法人社団Ｔｅａｍ　ａｃｕｒｅ,,その他の設立登記法人,東京都,稲城市,東長沼１２１２番地イオンタウン稲城長沼１Ｆ,,13,225,2060802,,,,,,,2022-09-02,1,,,,,チームアキュア,0
567,3020001148040,新規,0,2022-09-02,2022-09-02,株式会社ＱＵＩＣＫ　ＳＨＯＰ,,株式会社,神奈川県,横浜市戸塚区,上倉田町８８４番地１－７２２号室,,14,110,2440816,,,,,,,2022-09-02,1,,,,,クイックショップ,0
568,3020001148057,新規,0,2022-09-02,2022-09-02,株式会社サイテラス,,株式会社,神奈川県,横浜市中区,相生町６丁目１０４番地,,14,104,2310012,,,,,,,2022-09-02,1,,,,,サイテラス,0
570,3020003022326,新規,0,2022-09-02,2022-09-02,エンデザイン合同会社,,合同会社,神奈川県,横浜市中区,花咲町１丁目４８番３号ロゼ桜木町４０６号,,14,104,2310063,,,,,,,2022-09-02,1,,,,,エンデザイン,0
573,3021001076900,新規,0,2022-09-02,2022-09-02,株式会社山口,,株式会社,神奈川県,足柄上郡開成町,金井島１１２７番地４,,14,366,2580028,,,,,,,2022-09-02,1,,,,,ヤマグチ,0
574,3021001076909,新規,0,2022-09-02,2022-09-02,株式会社ＩＣＥＭＡＮ,,株式会社,神奈川県,鎌倉市,大船１丁目２０番５号,,14,204,2470056,,,,,,,2022-09-02,1,,,,,アイスマン,0
576,3021003012085,新規,0,2022-09-02,2022-09-02,合同会社ＣＯＧ,,合同会社,神奈川県,海老名市,国分北２丁目１８番２８－１０１号,,14,215,2430406,,,,,,,2022-09-02,1,,,,,シオージー,0
577,3021005012604,新規,0,2022-09-02,2022-09-02,一般社団法人Ｙｏｋｏｓｕｋａ　Ｂａｐｔｉｓｔ　Ｃｈｕｒｃｈ,,その他の設立登記法人,神奈川県,横須賀市,上町３丁目４１番地５,,14,201,2380017,,,,,,,2022-09-02,1,,,,,ヨコスカバプテストチャーチ,0
580,3030001149797,新規,0,2022-09-02,2022-09-02,株式会社ＳＫカンパニー,,株式会社,埼玉県,川口市,西川口２丁目１１番１２号（ハセガワハイツ２０３号室）,,11,203,3320021,,,,,,,2022-09-02,1,,,,,エスケーカンパニー,0
588,3040001124857,新規,0,2022-09-02,2022-09-02,株式会社２４８,,株式会社,千葉県,印旛郡栄町,安食２３８０番地１２,,12,329,2701516,,,,,,,2022-09-02,1,,,,,ニシヤ,0
593,3040003020740,新規,0,2022-09-02,2022-09-02,千葉稲毛ビール合同会社,,合同会社,千葉県,千葉市中央区,中央２丁目５－１千葉中央ツインビル２号館７階ＣＨＩＢＡ－ＬＡＢＯ内,,12,101,2600013,,,,,,,2022-09-02,1,,,,,チバイナゲビール,0
598,3070005010035,新規,0,2022-09-02,2022-09-02,特定非営利活動法人介護難民救済センターきらら,,その他の設立登記法人,群馬県,伊勢崎市,市場町２丁目１１４７番地２,,10,204,3792211,,,,,,,2022-09-02,1,,,,,カイゴナンミンキュウサイセンターキララ,0
600,3080001025168,新規,0,2022-09-02,2022-09-02,岡本美装株式会社,,株式会社,静岡県,静岡市葵区,東鷹匠町５番６号,,22,101,4200833,,,,,,,2022-09-02,1,,,,,オカモトビソウ,0
601,3080001025176,新規,0,2022-09-02,2022-09-02,株式会社ティーズフロンティア,,株式会社,静岡県,静岡市葵区,平和１丁目１６－４,,22,101,4200876,,,,,,,2022-09-02,1,,,,,ティーズフロンティア,0
620,3120001248499,新規,0,2022-09-02,2022-09-02,千盈株式会社,,株式会社,大阪府,大阪市中央区,松屋町９番２０号ローレルステート松屋町６０２Ａ,,27,128,5420067,,,,,,,2022-09-02,1,,,,,センエイ,0
621,3120001248549,新規,0,2022-09-02,2022-09-02,株式会社ＳＴＥＭ,,株式会社,大阪府,大阪市都島区,友渕町１丁目５番１－７０２号,,27,102,5340016,,,,,,,2022-09-02,1,,,,,ステム,0
625,3120101066165,新規,0,2022-09-02,2022-09-02,株式会社東匠,,株式会社,大阪府,堺市堺区,三条通６番１７号２０１号,,27,141,5900046,,,,,,,2022-09-02,1,,,,,トウショウ,0
628,3120901046432,新規,0,2022-09-02,2022-09-02,株式会社ＲＵＮ　ＦＩＥＬＤ,,株式会社,大阪府,豊中市,走井１丁目１８番５号,,27,203,5610891,,,,,,,2022-09-02,1,,,,,ランフィールド,0
629,3120903004280,新規,0,2022-09-02,2022-09-02,合同会社サクシードファミリー,,合同会社,大阪府,吹田市,千里山竹園２丁目２５番５号マンション南千里２０２,,27,205,5650852,,,,,,,2022-09-02,1,,,,,サクシードファミリー,0
643,3130001072493,新規,0,2022-09-02,2022-09-02,積亜国際貿易株式会社,,株式会社,京都府,京都市中京区,壬生森前町８番地２７,,26,104,6048831,,,,,,,2022-09-02,1,,,,,セキアコクサイボウエキ,0
644,3130001072527,新規,0,2022-09-02,2022-09-02,株式会社ＡＬＥＧＲＥ,,株式会社,京都府,京都市東山区,本町３丁目９４－１２,,26,105,6050981,,,,,,,2022-09-02,1,,,,,アレグレ,0
649,3140001127230,新規,0,2022-09-02,2022-09-02,株式会社ＡＺ,,株式会社,兵庫県,宝塚市,山手台東３丁目２番１号,,28,214,6650887,,,,,,,2022-09-02,1,,,,,エージー,0
650,3140001127239,新規,0,2022-09-02,2022-09-02,株式会社フェローズ,,株式会社,兵庫県,宝塚市,仁川高台１丁目２番２５－３０２号,,28,214,6650062,,,,,,,2022-09-02,1,,,,,フェローズ,0
655,3140005026305,新規,0,2022-09-02,2022-09-02,一般社団法人ｎｅｏ‐ｗａｖｅ,,その他の設立登記法人,兵庫県,明石市,大明石町１丁目１３番３３号,,28,203,6730891,,,,,,,2022-09-02,1,,,,,ネオウェーブ,0
663,3180001152844,新規,0,2022-09-02,2022-09-02,株式会社ＡＤＳ,,株式会社,愛知県,名古屋市緑区,曽根３丁目３０８番地フレスト左京山２０３号,,23,114,4580035,,,,,,,2022-09-02,1,,,,,エイディーエス,0
669,3180301036573,新規,0,2022-09-02,2022-09-02,株式会社ティムロード,,株式会社,愛知県,安城市,箕輪町東山８５番地１,,23,212,4460051,,,,,,,2022-09-02,1,,,,,ティムロード,0
670,3180301036581,新規,0,2022-09-02,2022-09-02,株式会社マナクラウド,,株式会社,愛知県,知立市,西中町北吹戸５６番地３,,23,225,4720016,,,,,,,2022-09-02,1,,,,,マナクラウド,0
683,3240001060297,新規,0,2022-09-02,2022-09-02,株式会社ＴＨＥ　ＳＥＡＭＳ,,株式会社,広島県,安芸郡府中町,宮の町４丁目１９番１６号宮の町タウンハウス６号,,34,302,7350005,,,,,,,2022-09-02,1,,,,,ザシームズ,0
684,3240001060322,新規,0,2022-09-02,2022-09-02,株式会社アニメホビー,,株式会社,広島県,福山市,東深津町３丁目２３番２０号,,34,207,7210974,,,,,,,2022-09-02,1,,,,,アニメホビー,0
687,3240003005779,新規,0,2022-09-02,2022-09-02,合同会社Ｍｏｔｏ　Ｓａｔｅｌｌｉｔｅ　Ｏｆｆｉｃｅ,,合同会社,広島県,廿日市市,大野中央４丁目５番２０－７号,,34,213,7390437,,,,,,,2022-09-02,1,,,,,モトサテライトオフィス,0
689,3260001037211,新規,0,2022-09-02,2022-09-02,株式会社ａｏｉｒｏ,,株式会社,岡山県,岡山市北区,表町１丁目７番１５号,,33,101,7000822,,,,,,,2022-09-02,1,,,,,アオイロ,0
698,3290001098754,新規,0,2022-09-02,2022-09-02,株式会社スマイル・プラス不動産,,株式会社,福岡県,福岡市中央区,鳥飼１丁目３番６－２号,,40,133,8100053,,,,,,,2022-09-02,1,,,,,スマイルプラスフドウサン,0
699,3290801028852,新規,0,2022-09-02,2022-09-02,ネストライブＢｉｚ株式会社,,株式会社,福岡県,北九州市若松区,響町１丁目４４番地３,,40,103,8080021,,,,,,,2022-09-02,1,,,,,ネストライブビズ,0
701,3310003004435,新規,0,2022-09-02,2022-09-02,ＹＳＪ合同会社,,合同会社,長崎県,長崎市,北浦町２７３２番地７１,,42,201,8510242,,,,,,,2022-09-02,1,,,,,ワイエスジェイ,0
705,3330001030084,新規,0,2022-09-02,2022-09-02,株式会社Ｓ．Ｅ．Ｌ,,株式会社,熊本県,菊池郡大津町,大字大津１４７７番地１２,,43,403,8691233,,,,,,,2022-09-02,1,,,,,エスイーエル,0
711,3340003003896,新規,0,2022-09-02,2022-09-02,トラストアレンジ合同会社,,合同会社,鹿児島県,鹿児島市,自由ヶ丘２丁目３１番１０号,,46,201,8910106,,,,,,,2022-09-02,1,,,,,トラストアレンジ,0
715,3360005006706,新規,0,2022-09-02,2022-09-02,特定非営利活動法人いちへき７８６,,その他の設立登記法人,沖縄県,中頭郡読谷村,字喜名２３４６－１１（読谷村地域振興センター３Ｆ）,,47,324,9040302,,,,,,,2022-09-02,1,,,,,イチヘキナナハチロク,0
716,3370001048998,新規,0,2022-09-02,2022-09-02,株式会社和田建業,,株式会社,宮城県,栗原市,若柳字川北中文字７５番地,,04,213,9895501,,,,,,,2022-09-02,1,,,,,ワダケンギョウ,0
717,3370003005816,新規,0,2022-09-02,2022-09-02,トヒード合同会社,,合同会社,宮城県,大崎市,岩出山字浦小路１６番地岩出山オフィスビルＤ－１号室,,04,215,9896435,,,,,,,2022-09-02,1,,,,,トヒード,0
727,3400001015986,新規,0,2022-09-02,2022-09-02,株式会社テントテン,,株式会社,岩手県,盛岡市,本宮字荒屋２５番８,,03,201,0200866,,,,,,,2022-09-02,1,,,,,テントテン,0
731,3420001017989,新規,0,2022-09-02,2022-09-02,株式会社弘前保温,,株式会社,青森県,北津軽郡鶴田町,大字沖字岡田３０１番地,,02,384,0383513,,,,,,,2022-09-02,1,,,,,ヒロサキホオン,0
732,3420005007821,新規,0,2022-09-02,2022-09-02,一般社団法人ひらないまちなかオフィス,,その他の設立登記法人,青森県,東津軽郡平内町,大字小湊字後萢２番地１０,00127706,02,301,0393321,,,,,,,2022-09-02,1,,,,,ヒラナイマチナカオフィス,0
737,3430001087412,新規,0,2022-09-02,2022-09-02,株式会社Ａｒｃｈ‐Ｂｌｕｅ,,株式会社,北海道,札幌市北区,北三十五条西６丁目１番５－６０７号,,01,102,0010035,,,,,,,2022-09-02,1,,,,,アーチブルー,0
748,3450001013787,新規,0,2022-09-02,2022-09-02,株式会社クリムソン・グローバル,,株式会社,北海道,旭川市,三条通１３丁目ヤナギヤビル１Ｆ,,01,204,0700033,,,,,,,2022-09-02,1,,,,,クリムソングローバル,0
749,3450003002243,新規,0,2022-09-02,2022-09-02,合同会社ジンギスカンの博,,合同会社,北海道,旭川市,永山三条１９丁目３番９号,,01,204,0798413,,,,,,,2022-09-02,1,,,,,ジンギスカンノヒロ,0
757,3500001024440,新規,0,2022-09-02,2022-09-02,株式会社門屋堂,,株式会社,愛媛県,松山市,湯の山１丁目２番地９,,38,201,7910121,,,,,,,2022-09-02,1,,,,,カドヤドウ,0
763,3700150108973,新規,0,2022-09-02,2022-05-24,日本精神・心理領域理学療法研究会,,その他,東京都,港区,六本木７丁目１１番１０号,,13,103,1060032,,,,,,,2022-05-24,1,,,,,ニホンセイシンシンリリヨウイキリガクリヨウホウケンキユウカイ,0
764,3700150109022,新規,0,2022-09-02,2022-05-26,日本ウィメンズヘルス・メンズヘルス理学療法研究会,,その他,東京都,港区,六本木７丁目１１番１０号,,13,103,1060032,,,,,,,2022-05-26,1,,,,,ニホンウイメンズヘルスメンズヘルスリガクリヨウホウケンキユウカイ,0
765,3700150109864,新規,0,2022-09-02,2022-06-16,百傾繚乱実行委員会,,その他,山梨県,北杜市,高根町上黒澤１６５３－４１,,19,209,4080016,,,,,,,2022-06-16,1,,,,,ヒヤツカリヨウランジツコウイインカイ,0
766,3700150111589,新規,0,2022-09-02,2022-09-02,上海美芝時装有限公司,,外国会社等,東京都,台東区,千束３丁目２１番１２号キートスビル４０８号室,,13,106,1110031,上海市長寧区天山路７８０号１１９幢５０６室,00127695,,,,,2022-09-02,1,,,,,シヤンハイメイジージソウユウゲンコウシ,0
783,4010403028360,新規,0,2022-09-02,2022-09-02,ＬｅＡＤＩＮＧ　ＨｅＲＯ合同会社,,合同会社,東京都,港区,港南１丁目９番３６号１３階,,13,103,1080075,,,,,,,2022-09-02,1,,,,,リーディングヒーロー,0
784,4010403028369,新規,0,2022-09-02,2022-09-02,合同会社Ｐｅａｃｈｅｓ,,合同会社,東京都,港区,六本木３丁目１６－５－３０２六本木ライズハウス,,13,103,1060032,,,,,,,2022-09-02,1,,,,,ピーチズ,0
785,4010403028393,新規,0,2022-09-02,2022-09-02,Ｓｅｎｓｉｂｌｅ４Ｊａｐａｎ合同会社,,合同会社,東京都,港区,虎ノ門４丁目３番１号城山トラストタワー,,13,103,1050001,,,,,,,2022-09-02,1,,,,,センシブルフォージャパン,0
786,4010501049309,新規,0,2022-09-02,2022-09-02,ｌｉｆｅｗｉｔ株式会社,,株式会社,東京都,台東区,台東２丁目２７番３号ＮＳＫビル１０Ｆ,,13,106,1100016,,,,,,,2022-09-02,1,,,,,ライフウィット,0
787,4010503006704,新規,0,2022-09-02,2022-09-02,おれんじ貿易合同会社,,合同会社,東京都,台東区,上野３丁目２０番８号小島ビル６階,,13,106,1100005,,,,,,,2022-09-02,1,,,,,オレンジボウエキ,0
789,4010601061758,新規,0,2022-09-02,2022-09-02,株式会社ｎｅｇａｂａｒｏ,,株式会社,東京都,江東区,大島１丁目１－１４メゾンシャルム６０３号室,,13,108,1360072,,,,,,,2022-09-02,1,,,,,ネガバロ,0
791,4010705003409,新規,0,2022-09-02,2022-09-02,一般社団法人徳志会,,その他の設立登記法人,東京都,品川区,西五反田７丁目１７番５号,,13,109,1410031,,,,,,,2022-09-02,1,,,,,トクシカイ,0
794,4010901051541,新規,0,2022-09-02,2022-09-02,エーレック株式会社,,株式会社,東京都,世田谷区,経堂４丁目１番４号,,13,112,1560052,,,,,,,2022-09-02,1,,,,,エーレック,0
796,4010903007616,新規,0,2022-09-02,2022-09-02,Ｖｉｅｗ　Ｆｒｏｍ　Ｔｈｅ　Ｋｉｔｃｈｅｎ合同会社,,合同会社,東京都,世田谷区,梅丘１丁目３４番４－２０１号,,13,112,1540022,,,,,,,2022-09-02,1,,,,,ビューフロムザキッチン,0
800,4011001149499,新規,0,2022-09-02,2022-09-02,Ｓｕｎ．Ｗｏｒｋｓ株式会社,,株式会社,東京都,渋谷区,神宮前６丁目２３番４号桑野ビル２階,,13,113,1500001,,,,,,,2022-09-02,1,,,,,サンワークス,0
801,4011001149540,新規,0,2022-09-02,2022-09-02,株式会社Ｔｗｏ‐ｆｏｏｏｏ,,株式会社,東京都,目黒区,中根１丁目６番地１０号,,13,110,1520031,,,,,,,2022-09-02,1,,,,,ツーフー,0
802,4011001149565,新規,0,2022-09-02,2022-09-02,株式会社ＹＨ　ＪＡＰＡＮ,,株式会社,東京都,渋谷区,恵比寿３丁目３９番９ー６０１号,,13,113,1500013,,,,,,,2022-09-02,1,,,,,ワイエイチジャパン,0
803,4011003015311,新規,0,2022-09-02,2022-09-02,合同会社アシスト,,合同会社,東京都,渋谷区,神宮前６丁目２９－４原宿ｋｏｍｉｙａビル,,13,113,1500001,,,,,,,2022-09-02,1,,,,,アシスト,0
805,4011101100023,新規,0,2022-09-02,2022-09-02,Ｃａｔｈａｙ　Ｎｉｐｐｏｎ　Ｍａｒｋｅｔｉｎｇ株式会社,,株式会社,東京都,新宿区,北新宿１丁目２０番１３－１００５号,,13,104,1690074,,,,,,,2022-09-02,1,,,,,キャセイニッポンマーケティング,0
806,4011101100056,新規,0,2022-09-02,2022-09-02,株式会社ＲＥＷ,,株式会社,東京都,新宿区,歌舞伎町２丁目４２番１６号２階Ａ号室,,13,104,1600021,,,,,,,2022-09-02,1,,,,,アールイーダブリュー,0
808,4011103012126,新規,0,2022-09-02,2022-09-02,ルクシオンソフト合同会社,,合同会社,東京都,新宿区,西新宿３丁目３番１３号西新宿水間ビル２Ｆ,,13,104,1600023,,,,,,,2022-09-02,1,,,,,ルクシオンソフト,0
810,4011203003900,新規,0,2022-09-02,2022-09-02,合同会社ｂｏｏｓｔ　ｖｅｒｓｅ,,合同会社,東京都,中野区,弥生町３丁目１－１５－２０２,,13,114,1640013,,,,,,,2022-09-02,1,,,,,ブーストバース,0
812,4011503005274,新規,0,2022-09-02,2022-09-02,ＣＦＧ合同会社,,合同会社,東京都,荒川区,南千住５丁目２６－１６,,13,118,1160003,,,,,,,2022-09-02,1,,,,,シーエフジー,0
821,4012401039612,新規,0,2022-09-02,2022-09-02,株式会社彦田工業,,株式会社,東京都,小金井市,貫井北町３丁目２６番１４号,,13,210,1840015,,,,,,,2022-09-02,1,,,,,ヒコタコウギョウ,0
825,4012705002324,新規,0,2022-09-02,2022-09-02,医療法人社団つな,,その他の設立登記法人,東京都,東村山市,栄町３丁目２９番地２１ミレ栄町１,,13,213,1890013,,,,,,,2022-09-02,1,,,,,ツナ,0
830,4013301049602,新規,0,2022-09-02,2022-09-02,株式会社全力集客,,株式会社,東京都,豊島区,上池袋１丁目３５番１２－４０６号,,13,116,1700012,,,,,,,2022-09-02,1,,,,,ゼンリョクシュウキャク,0
836,4020001148023,新規,0,2022-09-02,2022-09-02,さくらヘルス＆ビューティー・サイエンス株式会社,,株式会社,神奈川県,横浜市西区,北幸２丁目１０番２７号,,14,103,2200004,,,,,,,2022-09-02,1,,,,,サクラヘルスアンドビューティーサイエンス,0
837,4020001148064,新規,0,2022-09-02,2022-09-02,株式会社Ｈａｒｕ,,株式会社,神奈川県,横浜市保土ケ谷区,天王町１丁目３１番地１５メグミビル４階,,14,106,2400003,,,,,,,2022-09-02,1,,,,,ハル,0
845,4021001076899,新規,0,2022-09-02,2022-09-02,コトカラ株式会社,,株式会社,神奈川県,逗子市,久木３丁目７番１５号,,14,208,2490001,,,,,,,2022-09-02,1,,,,,コトカラ,0
851,4030001149879,新規,0,2022-09-02,2022-09-02,株式会社長者丸,,株式会社,埼玉県,川口市,朝日１丁目１番３２－６０９号,,11,203,3320001,,,,,,,2022-09-02,1,,,,,チョウジャマル,0
852,4030001149895,新規,0,2022-09-02,2022-09-02,晨隆商事株式会社,,株式会社,埼玉県,北葛飾郡杉戸町,大字椿４０７番地１,,11,464,3450013,,,,,,,2022-09-02,1,,,,,シンリュウショウジ,0
853,4030001149912,新規,0,2022-09-02,2022-09-02,株式会社いんから,,株式会社,埼玉県,戸田市,上戸田２丁目２７番７－１０２号,,11,224,3350022,,,,,,,2022-09-02,1,,,,,インカラ,0
856,4030003020113,新規,0,2022-09-02,2022-09-02,合同会社ＳＢＹ,,合同会社,埼玉県,川口市,金山町１２番１－１８０６号,,11,203,3320014,,,,,,,2022-09-02,1,,,,,エスビーワイ,0
858,4040001124889,新規,0,2022-09-02,2022-09-02,トランクＳｔｙｌｅ株式会社,,株式会社,千葉県,鎌ケ谷市,南初富３丁目４番３３号,,12,224,2730123,,,,,,,2022-09-02,1,,,,,トランクスタイル,0
868,4050003006812,新規,0,2022-09-02,2022-09-02,合同会社ＡＢＧＤ,,合同会社,茨城県,つくば市,栗原１５５１番,,08,220,3050001,,,,,,,2022-09-02,1,,,,,エイビージーディ,0
872,4080001025167,新規,0,2022-09-02,2022-09-02,株式会社ＫＡ‐ＺＵ,,株式会社,静岡県,静岡市駿河区,下川原南２１番３４号,,22,102,4210117,,,,,,,2022-09-02,1,,,,,カーズ,0
877,4080103002642,新規,0,2022-09-02,2022-09-02,合同会社大澤事務所,,合同会社,静岡県,裾野市,稲荷７２番地の２,,22,220,4101113,,,,,,,2022-09-02,1,,,,,オオサワジムショ,0
895,4120001248580,新規,0,2022-09-02,2022-09-02,株式会社かなで,,株式会社,大阪府,大阪市都島区,友渕町２丁目１０番２５－１５０３号,,27,102,5340016,,,,,,,2022-09-02,1,,,,,カナデ,0
896,4120001248589,新規,0,2022-09-02,2022-09-02,株式会社ヤスオー,,株式会社,大阪府,大阪市此花区,西九条３丁目４番３４号１００８号室,,27,104,5540012,,,,,,,2022-09-02,1,,,,,ヤスオー,0
897,4120001248606,新規,0,2022-09-02,2022-09-02,株式会社プラスフォワーディング,,株式会社,大阪府,大阪市西区,新町１丁目２３番５号新町森村ビル３０１,,27,106,5500013,,,,,,,2022-09-02,1,,,,,プラスフォワーディング,0
898,4120001248614,新規,0,2022-09-02,2022-09-02,株式会社オフィス・エムズ,,株式会社,大阪府,大阪市東淀川区,淡路５丁目９番２２号,,27,114,5330032,,,,,,,2022-09-02,1,,,,,オフィスエムズ,0
904,4120003022380,新規,0,2022-09-02,2022-09-02,合同会社Ｂｅｌｌｅ,,合同会社,大阪府,大阪市淀川区,西中島３丁目１６番１５号,,27,123,5320011,,,,,,,2022-09-02,1,,,,,ベル,0
906,4120101066180,新規,0,2022-09-02,2022-09-02,株式会社江川自動車,,株式会社,大阪府,松原市,大堀１丁目３番１０号,,27,217,5800006,,,,,,,2022-09-02,1,,,,,エガワジドウシャ,0
907,4120103004832,新規,0,2022-09-02,2022-09-02,合同会社いちょうの樹,,合同会社,大阪府,松原市,南新町５丁目１番４０号,,27,217,5800023,,,,,,,2022-09-02,1,,,,,イチョウノキ,0
910,4122001036214,新規,0,2022-09-02,2022-09-02,株式会社イルム,,株式会社,大阪府,東大阪市,足代北２丁目１３番７号ミュゼ布施３０１号室,,27,227,5770058,,,,,,,2022-09-02,1,,,,,イルム,0
919,4130001072526,新規,0,2022-09-02,2022-09-02,株式会社大八木,,株式会社,京都府,京都市下京区,立売東町１４ー４,,26,106,6008005,,,,,,,2022-09-02,1,,,,,オオヤギ,0
936,4180001152835,新規,0,2022-09-02,2022-09-02,ＫＳＬ　Ｃｏｒｐｏｒａｔｉｏｎ株式会社,,株式会社,愛知県,名古屋市港区,小碓１丁目５０９番地,,23,111,4550801,,,,,,,2022-09-02,1,,,,,ケイエスエルコーポレーション,0
937,4180001152843,新規,0,2022-09-02,2022-09-02,株式会社ｐｕｒｅｐｕｒｅ,,株式会社,愛知県,名古屋市中村区,松重町４番５１号ＫＡＫＯビル２階,,23,105,4500004,,,,,,,2022-09-02,1,,,,,ピュアピュア,0
938,4180001152851,新規,0,2022-09-02,2022-09-02,株式会社カムイ,,株式会社,愛知県,名古屋市昭和区,萩原町３丁目２５番地の１Ｂ棟,,23,107,4660852,,,,,,,2022-09-02,1,,,,,カムイ,0
940,4180301036580,新規,0,2022-09-02,2022-09-02,株式会社ニットーエイテック,,株式会社,愛知県,豊田市,寿町３丁目３１番地,,23,211,4710834,,,,,,,2022-09-02,1,,,,,ニットーエイテック,0
947,4200001040426,新規,0,2022-09-02,2022-09-02,株式会社サン・ドリーム,,株式会社,岐阜県,岐阜市,正木北町１番地１ロックスビル,,21,201,5020881,,,,,,,2022-09-02,1,,,,,サンドリーム,0
954,4230001019509,新規,0,2022-09-02,2022-09-02,株式会社くすのき,,株式会社,富山県,富山市,五福４５５８番１号Ｇ－ＢＡＳＥ３０１,,16,201,9300887,,,,,,,2022-09-02,1,,,,,クスノキ,0
961,4240001060288,新規,0,2022-09-02,2022-09-02,株式会社ＡＶＲＬＯ,,株式会社,広島県,福山市,長者町１番１５号,,34,207,7200075,,,,,,,2022-09-02,1,,,,,アベロ,0
968,4260001037219,新規,0,2022-09-02,2022-09-02,ユナイテッド・エフォーツ株式会社,,株式会社,岡山県,岡山市北区,西古松２丁目２６番２２号,,33,101,7000927,,,,,,,2022-09-02,1,,,,,ユナイテッドエフォーツ,0
977,4290001098720,新規,0,2022-09-02,2022-09-02,株式会社ＣＲＭ,,株式会社,福岡県,福岡市城南区,松山２丁目３３－１１ゆるり店舗２階,,40,136,8140131,,,,,,,2022-09-02,1,,,,,シーアールエム,0
978,4290001098753,新規,0,2022-09-02,2022-09-02,株式会社ベジビューティークリエイトＦＵＫＵＯＫＡ,,株式会社,福岡県,福岡市博多区,博多駅中央街１－１アミュプラザ博多地下１階「Ｑ」,,40,132,8120012,,,,,,,2022-09-02,1,,,,,ベジビューティークリエイトフクオカ,0
981,4290003012877,新規,0,2022-09-02,2022-09-02,ジャパンホームサポート合同会社,,合同会社,福岡県,福岡市博多区,博多駅南５丁目４－１,,40,132,8120016,,,,,,,2022-09-02,1,,,,,ジャパンホームサポート,0
982,4290003012902,新規,0,2022-09-02,2022-09-02,合同会社ノックリーガル＆アカウンティング,,合同会社,福岡県,宗像市,くりえいと２丁目３番１号くりえいと会館２Ｆ,,40,220,8114184,,,,,,,2022-09-02,1,,,,,ノックリーガルアンドアカウンティング,0
993,4320003003889,新規,0,2022-09-02,2022-09-02,合同会社ファインデイズ,,合同会社,大分県,豊後大野市,三重町久田４０２１番地１,,44,212,8797143,,,,,,,2022-09-02,1,,,,,ファインデイズ,0
997,4340001025000,新規,0,2022-09-02,2022-09-02,株式会社誠電サポート,,株式会社,鹿児島県,薩摩川内市,尾白江町３５２１番地５,,46,215,8950035,,,,,,,2022-09-02,1,,,,,セイデンサポート,0
1000,4340003003895,新規,0,2022-09-02,2022-09-02,合同会社隊友ふるさとおたすけ隊,,合同会社,鹿児島県,霧島市,国分福島２丁目１０番２５号,,46,218,8994322,,,,,,,2022-09-02,1,,,,,タイユウフルサトオタスケタイ,0
1002,4360001030923,新規,0,2022-09-02,2022-09-02,株式会社嘉祥,,株式会社,沖縄県,浦添市,城間３丁目１６番１号コーポ久場川５０３,,47,208,9012133,,,,,,,2022-09-02,1,,,,,カショウ,0
1017,4430001087386,新規,0,2022-09-02,2022-09-02,株式会社みずき商事,,株式会社,北海道,千歳市,北斗１丁目２４番１１号,,01,224,0660073,,,,,,,2022-09-02,1,,,,,ミズキショウジ,0
1018,4430001087394,新規,0,2022-09-02,2022-09-02,株式会社ＳＩＧＭＡ　ＧＲＯＵＰ,,株式会社,北海道,札幌市中央区,南五条西４丁目１３番地４号,,01,101,0640805,,,,,,,2022-09-02,1,,,,,シグマグループ,0
1019,4430001087403,新規,0,2022-09-02,2022-09-02,株式会社道栄,,株式会社,北海道,札幌市清田区,真栄四条４丁目１０番７号,,01,110,0040834,,,,,,,2022-09-02,1,,,,,ドウエイ,0
1020,4430001087411,新規,0,2022-09-02,2022-09-02,株式会社シェレバウム,,株式会社,北海道,札幌市中央区,南十三条西１７丁目２番２８号,,01,101,0640913,,,,,,,2022-09-02,1,,,,,シェレバウム,0
1027,4470005006462,新規,0,2022-09-02,2022-09-02,医療法人社団池上歯科医院,,その他の設立登記法人,香川県,高松市,西山崎町１８２番地７,,37,201,7618045,,,,,,,2022-09-02,1,,,,,イケウエシカイイン,0
1028,4490001010268,新規,0,2022-09-02,2022-09-02,株式会社西岡会計事務所,,株式会社,高知県,高知市,桜井町１丁目７番１６号,,39,201,7800821,,,,,,,2022-09-02,1,,,,,ニシオカカイケイジムショ,0
1035,4700150111200,新規,0,2022-09-02,2022-08-12,クイーン,,その他,福島県,いわき市,平字白銀町３－１,,07,204,9708026,,,,,,,2022-08-12,1,,,,,クイーン,0
1036,4700150111588,新規,0,2022-09-02,2022-09-02,スウェイシュア技術株式会社駐在員事務所,,外国会社等,東京都,港区,港南２丁目１６－１品川イーストワンタワー７Ｆ,,13,103,1080075,中国深＿市羅湖区桂＿街道華訊中心６楼,00127694,,,,,2022-09-02,1,,,,,スウエイシユアギジユツカブシキガイシヤチユウザイイインジムシヨ,0
1037,4700150111613,新規,0,2022-09-02,2022-09-02,ＡＩＫＯ　ＬＡＮＫＡ　ＰＶＴ　ＬＴＤ,,外国会社等,神奈川県,藤沢市,藤沢５３５番地,,14,205,2510052,スリランカ民主社会主義共和国、アヌラダプラ、ガンリガスウェワ、キウレカダ,,,,,,2022-09-02,1,,,,,アイコランカピーヴイテイ,0
1045,5010001229129,新規,0,2022-09-02,2022-09-02,株式会社ネオステージ,,株式会社,東京都,文京区,小石川１丁目５番１－３６０９号,,13,105,1120002,,,,,,,2022-09-02,1,,,,,ネオステージ,0
1046,5010001229203,新規,0,2022-09-02,2022-09-02,株式会社シー・エクス,,株式会社,東京都,中央区,銀座２丁目１６番１６号オープンレジデンシア銀座二丁目６０２,,13,102,1040061,,,,,,,2022-09-02,1,,,,,シーエクス,0
1048,5010003038560,新規,0,2022-09-02,2022-09-02,Ｄ．Ｔｅｃｈソリューションズ合同会社,,合同会社,東京都,千代田区,丸の内２丁目３－２郵船ビルディング１階,,13,101,1000005,,,,,,,2022-09-02,1,,,,,ディーテックソリューションズ,0
1059,5010401169370,新規,0,2022-09-02,2022-09-02,株式会社ダブルス,,株式会社,東京都,港区,三田１丁目３－４０－３０７－Ｈ,,13,103,1080073,,,,,,,2022-09-02,1,,,,,ダブルス,0
1063,5010405021305,新規,0,2022-09-02,2022-09-02,Ｕｒａｎｕｓ特定目的会社,,その他の設立登記法人,東京都,港区,虎ノ門５丁目１番４号,,13,103,1050001,,,,,,,2022-09-02,1,,,,,ウラヌス,0
1067,5010501049308,新規,0,2022-09-02,2022-09-02,三和株式会社,,株式会社,東京都,台東区,台東３丁目３９番５号,,13,106,1100016,,,,,,,2022-09-02,1,,,,,サンワ,0
1069,5010601061773,新規,0,2022-09-02,2022-09-02,ＳｔａｒｔｉｎｇＯｖｅｒ株式会社,,株式会社,東京都,江東区,亀戸７丁目３７番１５号クレストフォルム亀戸ビュータワー２階,,13,108,1360071,,,,,,,2022-09-02,1,,,,,スターティングオーバー,0
1081,5011003015302,新規,0,2022-09-02,2022-09-02,合同会社結月,,合同会社,東京都,目黒区,平町１丁目２２番１７－２１１号,,13,110,1520032,,,,,,,2022-09-02,1,,,,,ユズキ,0
1083,5011101100063,新規,0,2022-09-02,2022-09-02,ＩＣＨＩＲＯ株式会社,,株式会社,東京都,新宿区,百人町１丁目１６番１５号,,13,104,1690073,,,,,,,2022-09-02,1,,,,,イチロ,0
1087,5011503005273,新規,0,2022-09-02,2022-09-02,メディアフリック合同会社,,合同会社,東京都,荒川区,荒川１丁目５２番５－７０２号ザ・レジデンス・オブ・トーキョーＨ１９,,13,118,1160002,,,,,,,2022-09-02,1,,,,,メディアフリック,0
1089,5011701025577,新規,0,2022-09-02,2022-09-02,株式会社ＡＴＥＣＨ,,株式会社,東京都,江戸川区,南篠崎町５丁目８番１０号,,13,123,1330065,,,,,,,2022-09-02,1,,,,,エーテック,0
1100,5012703002531,新規,0,2022-09-02,2022-09-02,ＷＫＭ合同会社,,合同会社,東京都,西東京市,芝久保町５丁目１０番１３号,,13,229,1880014,,,,,,,2022-09-02,1,,,,,ダブリューケーエム,0
1110,5021003012075,新規,0,2022-09-02,2022-09-02,Ａ＆Ａ　ＳＣＨＯＯＬ合同会社,,合同会社,神奈川県,海老名市,社家２丁目１－１５,,14,215,2430424,,,,,,,2022-09-02,1,,,,,エーアンドエースクール,0
1111,5021003012100,新規,0,2022-09-02,2022-09-02,桜の城合同会社,,合同会社,神奈川県,相模原市中央区,淵野辺３丁目１８番４号クリオ淵野辺壱番街２０３号室,,14,152,2520206,,,,,,,2022-09-02,1,,,,,,0
1124,5030001149845,新規,0,2022-09-02,2022-09-02,株式会社ＬＩＮＣＯＬＮ　ＥＸＴＥＲＩＯＲ,,株式会社,埼玉県,上尾市,富士見１丁目１番１４－６号,,11,219,3620041,,,,,,,2022-09-02,1,,,,,リンコンエクステリア,0
1125,5030001149894,新規,0,2022-09-02,2022-09-02,株式会社ＴＳＵＮＡＧＵ,,株式会社,埼玉県,春日部市,梅田本町２丁目２９番地２,,11,214,3440053,,,,,,,2022-09-02,1,,,,,ツナグ,0
1134,5050001051586,新規,0,2022-09-02,2022-09-02,双葉不動産株式会社,,株式会社,茨城県,鹿嶋市,大字宮中２０８０番７号,,08,222,3140031,,,,,,,2022-09-02,1,,,,,,0
1138,5080001025174,新規,0,2022-09-02,2022-09-02,株式会社マルエス菜園,,株式会社,静岡県,牧之原市,坂部４４７２番地,,22,226,4210412,,,,,,,2022-09-02,1,,,,,マルエスサイエン,0
1143,5080101023508,新規,0,2022-09-02,2022-09-02,株式会社小野建材興業,,株式会社,静岡県,沼津市,大岡３５５３番地の３３,,22,203,4100022,,,,,,,2022-09-02,1,,,,,オノケンザイコウギョウ,0
1145,5080103002641,新規,0,2022-09-02,2022-09-02,偉業合同会社,,合同会社,静岡県,沼津市,白銀町９番９号富創第三ビル４階,,22,203,4100805,,,,,,,2022-09-02,1,,,,,イギョウ,0
1146,5090001017765,新規,0,2022-09-02,2022-09-02,株式会社Ｃｏｔａｃａ,,株式会社,山梨県,中巨摩郡昭和町,上河東９０６番地,,19,384,4093862,,,,,,,2022-09-02,1,,,,,コタカ,0
1168,5120001247482,新規,0,2022-09-02,2022-09-02,株式会社ネストアップ,,株式会社,大阪府,大阪市大正区,鶴町３丁目９番１６号,,27,108,5510023,,,,,,,2022-09-02,1,,,,,ネストアップ,0
1169,5120001248506,新規,0,2022-09-02,2022-09-02,株式会社リープクリエーション,,株式会社,大阪府,大阪市淀川区,野中北２丁目１番２７号,,27,123,5320034,,,,,,,2022-09-02,1,,,,,リープクリエーション,0
1170,5120001248539,新規,0,2022-09-02,2022-09-02,Ｔｏｒｕｓ　Ｆｕｌｌｅｒ　Ｃｒｅａｔｉｏｎ株式会社,,株式会社,大阪府,大阪市北区,芝田２丁目８番１１号共栄ビル３階,,27,127,5300012,,,,,,,2022-09-02,1,,,,,トーラスフラークリエイション,0
1171,5120001248588,新規,0,2022-09-02,2022-09-02,ルーツファクトリー株式会社,,株式会社,大阪府,大阪市中央区,谷町４丁目８番１８号,,27,128,5400012,,,,,,,2022-09-02,1,,,,,ルーツファクトリー,0
1173,5120003022388,新規,0,2022-09-02,2022-09-02,合同会社アイ,,合同会社,大阪府,大阪市中央区,船越町１丁目５番２号,,27,128,5400036,,,,,,,2022-09-02,1,,,,,アイ,0
1200,5140003018087,新規,0,2022-09-02,2022-09-02,北はりま農業青年団合同会社,,合同会社,兵庫県,多可郡多可町,加美区的場２３４番地,,28,365,6791214,,,,,,,2022-09-02,1,,,,,キタハリマノウギョウセイネンダン,0
1219,5180001152850,新規,0,2022-09-02,2022-09-02,株式会社Ｍｅｌｉａ,,株式会社,愛知県,名古屋市北区,安井４丁目４番１１号,,23,103,4620023,,,,,,,2022-09-02,1,,,,,メリア,0
1220,5180001152859,新規,0,2022-09-02,2022-09-02,ｌｉｂ株式会社,,株式会社,愛知県,名古屋市港区,辰巳町３６番１７号コンフォート東海通３Ｆ,,23,111,4550003,,,,,,,2022-09-02,1,,,,,リブ,0
1226,5180003024214,新規,0,2022-09-02,2022-09-02,合同会社Ｆｒ事務所,,合同会社,愛知県,東海市,加木屋町仲新田５２番地,,23,222,4770032,,,,,,,2022-09-02,1,,,,,エフアールジムショ,0
1233,5200001040417,新規,0,2022-09-02,2022-09-02,株式会社ＬＩＮＫ,,株式会社,岐阜県,各務原市,蘇原新栄町１丁目７８番地５,,21,213,5040855,,,,,,,2022-09-02,1,,,,,リンク,0
1237,5210001019063,新規,0,2022-09-02,2022-09-02,株式会社憩い処みなみ,,株式会社,福井県,坂井市,三国町山王３丁目５番２６号,,18,210,9130044,,,,,,,2022-09-02,1,,,,,イコイドコロミナミ,0
1239,5220001025011,新規,0,2022-09-02,2022-09-02,株式会社ＥＡＲＴＨＥＮ,,株式会社,石川県,金沢市,橋場町２番１７号,,17,201,9200911,,,,,,,2022-09-02,1,,,,,アースン,0
1248,5240001060287,新規,0,2022-09-02,2022-09-02,株式会社なかハウス,,株式会社,広島県,広島市安佐南区,西原３丁目２２番１０－３０１号,,34,105,7310113,,,,,,,2022-09-02,1,,,,,ナカハウス,0
1249,5240001060295,新規,0,2022-09-02,2022-09-02,株式会社プルメリア,,株式会社,広島県,広島市中区,東平塚町７番１４－５０２号,,34,101,7300025,,,,,,,2022-09-02,1,,,,,プルメリア,0
1250,5240001060312,新規,0,2022-09-02,2022-09-02,株式会社多田建設,,株式会社,広島県,広島市中区,光南１丁目１２番３号トゥーランドット５０４,,34,101,7300825,,,,,,,2022-09-02,1,,,,,タダケンセツ,0
1251,5240001060329,新規,0,2022-09-02,2022-09-02,株式会社Ｓｈａｒｅｄ　Ｖａｌｕｅ,,株式会社,広島県,広島市東区,戸坂山根２丁目１０番１０号,,34,102,7320002,,,,,,,2022-09-02,1,,,,,シェアードバリュー,0
1252,5240003005777,新規,0,2022-09-02,2022-09-02,合同会社サンクビジョン,,合同会社,広島県,広島市西区,大宮３丁目９番８号,,34,104,7330007,,,,,,,2022-09-02,1,,,,,サンクビジョン,0
1256,5270001008622,新規,0,2022-09-02,2022-09-02,株式会社米澤商店,,株式会社,鳥取県,鳥取市,西品治６１６番地７,,31,201,6800811,,,,,,,2022-09-02,1,,,,,ヨネザワショウテン,0
1269,5290801028867,新規,0,2022-09-02,2022-09-02,株式会社ＳＤＣ,,株式会社,福岡県,遠賀郡岡垣町,大字手野１８３番地,,40,383,8114204,,,,,,,2022-09-02,1,,,,,エスディシー,0
1270,5310001018014,新規,0,2022-09-02,2022-09-02,江添クレーン株式会社,,株式会社,長崎県,長崎市,新地町６番５６－１０２号,,42,201,8500842,,,,,,,2022-09-02,1,,,,,エゾエクレーン,0
1271,5310001018022,新規,0,2022-09-02,2022-09-02,株式会社フジヤ,,株式会社,長崎県,諫早市,松里町３９８番地１,,42,204,8540126,,,,,,,2022-09-02,1,,,,,フジヤ,0
1272,5330001030074,新規,0,2022-09-02,2022-09-02,株式会社アテナ,,株式会社,熊本県,熊本市中央区,世安３丁目６番４８－１０８号,,43,101,8600827,,,,,,,2022-09-02,1,,,,,アテナ,0
1276,5340001025008,新規,0,2022-09-02,2022-09-02,株式会社Ｔｒａｎｓｐｏｒｔ,,株式会社,鹿児島県,鹿児島市,吉野１丁目１３－１５,,46,201,8920877,,,,,,,2022-09-02,1,,,,,トランスポート,0
1280,5340003003894,新規,0,2022-09-02,2022-09-02,合同会社ＭＯＮＡ,,合同会社,鹿児島県,薩摩川内市,天辰町５６９番地,,46,215,8950011,,,,,,,2022-09-02,1,,,,,モナ,0
1287,5360003012274,新規,0,2022-09-02,2022-09-02,合同会社尚興業,,合同会社,沖縄県,島尻郡八重瀬町,字小城５７８番地１,,47,362,9010415,,,,,,,2022-09-02,1,,,,,ナオコウギョウ,0
1288,5360005006712,新規,0,2022-09-02,2022-09-02,一般社団法人王の風オーシャン,,その他の設立登記法人,沖縄県,那覇市,西２丁目２０－１７,,47,201,9000036,,,,,,,2022-09-02,1,,,,,オウノカゼオーシャン,0
1289,5370001048996,新規,0,2022-09-02,2022-09-02,株式会社イーピース,,株式会社,宮城県,仙台市青葉区,本町１丁目５番２８号カーニープレイス仙台駅前通６０３,,04,101,9800014,,,,,,,2022-09-02,1,,,,,イーピース,0
1292,5370003005822,新規,0,2022-09-02,2022-09-02,合同会社千葉事務所,,合同会社,宮城県,仙台市青葉区,荒巻神明町１７番１１号神明レジデンス１階,,04,101,9810965,,,,,,,2022-09-02,1,,,,,チバジムショ,0
1297,5380001033097,新規,0,2022-09-02,2022-09-02,株式会社サウステック,,株式会社,福島県,郡山市,緑ケ丘西３丁目１６番地の５,,07,203,9630701,,,,,,,2022-09-02,1,,,,,サウステック,0
1311,5430001087410,新規,0,2022-09-02,2022-09-02,株式会社メイプルパワー,,株式会社,北海道,北広島市,西の里北３丁目４番地１４,,01,234,0611104,,,,,,,2022-09-02,1,,,,,メイプルパワー,0
1312,5430003014239,新規,0,2022-09-02,2022-09-02,合同会社ＢＳＪ,,合同会社,北海道,札幌市中央区,北五条西２５丁目１番２２号東和ビル３階,,01,101,0640825,,,,,,,2022-09-02,1,,,,,ビーエスジェイ,0
1324,5700150109664,新規,0,2022-09-02,2022-06-14,日本筋骨格系徒手理学療法研究会,,その他,東京都,港区,六本木７丁目１１番１０号,,13,103,1060032,,,,,,,2022-06-14,1,,,,,ニホンキンコツカクケイトシユリガクリヨウホウケンキユウカイ,0
1325,5700150111587,新規,0,2022-09-02,2022-09-02,ＫＩＮＡＲＡ　ＩＮＴＥＲＮＡＴＩＯＮＡＬ　ＬＩＭＩＴＥＤ,,外国会社等,,,,,,,,ＲＭ８０１　ＳＥＡＶＩＥＷ　ＣＯＭＭ　ＢＬＤＧ　２１－２４　ＣＯＮＮＡＵＧＨＴ　ＲＤ　ＷＥＳＴ，ＨＫ,,,,,,2022-09-02,1,,,,,キナラインターナシヨナルリミテツド,0
1329,6010001229128,新規,0,2022-09-02,2022-09-02,グレースアンドワークス株式会社,,株式会社,東京都,中央区,銀座１丁目１２番４号Ｎ＆ＥＢＬＤ．６Ｆ,,13,102,1040061,,,,,,,2022-09-02,1,,,,,グレースアンドワークス,0
1332,6010003038551,新規,0,2022-09-02,2022-09-02,合同会社ごっぱち,,合同会社,東京都,千代田区,霞が関３丁目２番１号,,13,101,1000013,,,,,,,2022-09-02,1,,,,,ゴッパチ,0
1339,6010401169329,新規,0,2022-09-02,2022-09-02,株式会社ｓｐｈｅｒｅ　ｇａｒｄｅｎ,,株式会社,東京都,港区,南青山４丁目１７番３３号,,13,103,1070062,,,,,,,2022-09-02,1,,,,,スフィアガーデン,0
1345,6010403028359,新規,0,2022-09-02,2022-09-02,大阪ロジスティクス２合同会社,,合同会社,東京都,港区,六本木１丁目６番１号泉ガーデンタワー,,13,103,1060032,,,,,,,2022-09-02,1,,,,,オオサカロジスティクスツー,0
1347,6010405021304,新規,0,2022-09-02,2022-09-02,Ｓａｔｕｒｎ特定目的会社,,その他の設立登記法人,東京都,港区,虎ノ門５丁目１番４号,,13,103,1050001,,,,,,,2022-09-02,1,,,,,サターン,0
1349,6010601061780,新規,0,2022-09-02,2022-09-02,株式会社ＳＴＲＵＳ,,株式会社,東京都,江東区,千石１丁目１２番１４号手塚ビル３０１,,13,108,1350015,,,,,,,2022-09-02,1,,,,,ストラス,0
1351,6010701043134,新規,0,2022-09-02,2022-09-02,ＳＯＴＯ株式会社,,株式会社,東京都,品川区,西五反田１丁目１１番１号,,13,109,1410031,,,,,,,2022-09-02,1,,,,,ソト,0
1352,6010705003415,新規,0,2022-09-02,2022-09-02,医療法人社団ハピコワ会,,その他の設立登記法人,東京都,品川区,東五反田１丁目２２番６号五反田さくらビル５Ｆ,,13,109,1410022,,,,,,,2022-09-02,1,,,,,ハピコワカイ,0
1355,6010803004273,新規,0,2022-09-02,2022-09-02,合同会社ＮＹＫパートナーズ,,合同会社,東京都,大田区,萩中２丁目７－７－４０７,,13,111,1440047,,,,,,,2022-09-02,1,,,,,,0
1360,6011003015301,新規,0,2022-09-02,2022-09-02,合同会社Ｆａｂｌｅ　Ｇｒｏｕｐ,,合同会社,東京都,渋谷区,富ヶ谷２丁目４－３アンドゲートＢ１Ｆ,,13,113,1510063,,,,,,,2022-09-02,1,,,,,ファブルグループ,0
1365,6011201024062,新規,0,2022-09-02,2022-09-02,株式会社Ｅｓｔｌａｕｇｈｔｉｖｅ,,株式会社,東京都,中野区,新井１丁目１６番１４号ＣＩＣＡＤＡＮＡＫＡＮＯ２０３,,13,114,1650026,,,,,,,2022-09-02,1,,,,,エストラフティヴ,0
1375,6012401039602,新規,0,2022-09-02,2022-09-02,株式会社建助,,株式会社,東京都,稲城市,矢野口３８７番地の１ステーションサイドビル５０３,,13,225,2060812,,,,,,,2022-09-02,1,,,,,ケンスケ,0
1376,6012703002530,新規,0,2022-09-02,2022-09-02,合同会社ＴＢＤ,,合同会社,東京都,東久留米市,本町１丁目３番４８号,,13,222,2030053,,,,,,,2022-09-02,1,,,,,ティービーディー,0
1377,6012801021812,新規,0,2022-09-02,2022-09-02,ハイランド企画株式会社,,株式会社,東京都,国立市,富士見台１丁目１７番地の１７信和第２ビル２０４,,13,215,1860003,,,,,,,2022-09-02,1,,,,,ハイランドキカク,0
1378,6012803002868,新規,0,2022-09-02,2022-09-02,合同会社ファーストキャリー,,合同会社,東京都,武蔵村山市,本町５丁目３番地の２２,,13,223,2080004,,,,,,,2022-09-02,1,,,,,ファーストキャリー,0
1386,6020001147972,新規,0,2022-09-02,2022-09-02,株式会社ＬＦＹ,,株式会社,神奈川県,横浜市西区,みなとみらい４丁目７番１－２３２０号,,14,103,2200012,,,,,,,2022-09-02,1,,,,,エルフィ,0
1390,6020003022323,新規,0,2022-09-02,2022-09-02,合同会社Ｔａｋｅ,,合同会社,神奈川県,川崎市川崎区,大師河原１丁目１番１０－１０５号リヴィエマーレ,,14,131,2100811,,,,,,,2022-09-02,1,,,,,テイク,0
1391,6020003022331,新規,0,2022-09-02,2022-09-02,Ｙｉｌｄｉｚ合同会社,,合同会社,神奈川県,横浜市鶴見区,佃野町２８番１３号,,14,101,2300061,,,,,,,2022-09-02,1,,,,,イルデズ,0
1392,6020005015647,新規,0,2022-09-02,2022-09-02,一般社団法人次世代福祉協会,,その他の設立登記法人,神奈川県,横浜市港北区,新横浜２丁目５番地１４ＷＩＳＥＮＥＸＴ新横浜３階,,14,109,2220033,,,,,,,2022-09-02,1,,,,,ジセダイフクシキョウカイ,0
1394,6021001076897,新規,0,2022-09-02,2022-09-02,株式会社ひいらぎ,,株式会社,神奈川県,厚木市,妻田西３丁目１９番１０号,,14,212,2430815,,,,,,,2022-09-02,1,,,,,ヒイラギ,0
1395,6021001076906,新規,0,2022-09-02,2022-09-02,株式会社小林塗装技能士事務所,,株式会社,神奈川県,綾瀬市,早川城山３丁目８番９号,,14,218,2521127,,,,,,,2022-09-02,1,,,,,コバヤシトソウギノウシジムショ,0
1398,6021003012099,新規,0,2022-09-02,2022-09-02,合同会社Ｒシステム,,合同会社,神奈川県,相模原市南区,磯部１２２１番地１７,,14,153,2520327,,,,,,,2022-09-02,1,,,,,アールシステム,0
1400,6030001149860,新規,0,2022-09-02,2022-09-02,株式会社Ａｒｉｓｔ,,株式会社,埼玉県,川越市,大字南田島１７３０番地１２,,11,201,3500027,,,,,,,2022-09-02,1,,,,,アリスト,0
1401,6030001149910,新規,0,2022-09-02,2022-09-02,株式会社秩父シーエフダイニング,,株式会社,埼玉県,秩父市,宮側町３番３号,,11,207,3680046,,,,,,,2022-09-02,1,,,,,チチブシーエフダイニング,0
1402,6030001149919,新規,0,2022-09-02,2022-09-02,株式会社ライフ・サポーター・エターナル,,株式会社,埼玉県,飯能市,美杉台６丁目３番地５５,,11,209,3570041,,,,,,,2022-09-02,1,,,,,ライフサポーターエターナル,0
1405,6030003020094,新規,0,2022-09-02,2022-09-02,ＹＦＰクレア合同会社,,合同会社,埼玉県,さいたま市南区,南本町１丁目１７番８号ＰＡＲＫＶＩＥＷ一ツ木２階,,11,108,3360018,,,,,,,2022-09-02,1,,,,,ワイエフピークレア,0
1406,6030003020144,新規,0,2022-09-02,2022-09-02,ＳＴＡＲＢＯＯＫＳ合同会社,,合同会社,埼玉県,川口市,本蓮２丁目１０―９,,11,203,3340076,,,,,,,2022-09-02,1,,,,,スターブックス,0
1410,6040001124854,新規,0,2022-09-02,2022-09-02,株式会社ＳＭＲ,,株式会社,千葉県,市原市,西国吉１６９６番地３,,12,219,2900231,,,,,,,2022-09-02,1,,,,,エスエムアール,0
1415,6040003020738,新規,0,2022-09-02,2022-09-02,Ｚｅｎ合同会社,,合同会社,千葉県,船橋市,前原西２丁目３０番１７号ウエストヒルズ１０１号,,12,204,2740825,,,,,,,2022-09-02,1,,,,,ゼン,0
1416,6040005021726,新規,0,2022-09-02,2022-09-02,ＢＥＳＴ　ＰＬＡＮ協同組合,,その他の設立登記法人,千葉県,長生郡一宮町,東浪見７３９１－２３４,,12,421,2994303,,,,,,,2022-09-02,1,,,,,ベストプラン,0
1418,6050003006802,新規,0,2022-09-02,2022-09-02,合同会社Ｓ・Ｍ・Ａ,,合同会社,茨城県,守谷市,美園４丁目１２番地２,,08,224,3020124,,,,,,,2022-09-02,1,,,,,エスエムエー,0
1419,6060001035224,新規,0,2022-09-02,2022-09-02,株式会社メイクエクスプレス,,株式会社,栃木県,栃木市,岩舟町下津原４１８番地７,,09,203,3294308,,,,,,,2022-09-02,1,,,,,メイクエクスプレス,0
1421,6060003004210,新規,0,2022-09-02,2022-09-02,合同会社スピナンザ,,合同会社,栃木県,小山市,西城南１丁目１０番地１３ガーディアンハウス１０２号室,,09,208,3230820,,,,,,,2022-09-02,1,,,,,スピナンザ,0
1425,6080001025157,新規,0,2022-09-02,2022-09-02,株式会社東正産業,,株式会社,静岡県,静岡市清水区,三保７３７番地の１,,22,103,4240901,,,,,,,2022-09-02,1,,,,,トウセイサンギョウ,0
1426,6080001025173,新規,0,2022-09-02,2022-09-02,株式会社ＴＨＩＮＫ,,株式会社,静岡県,島田市,川根町身成４６９３番地,,22,209,4280103,,,,,,,2022-09-02,1,,,,,シンク,0
1427,6080003002864,新規,0,2022-09-02,2022-09-02,合同会社ＫＩＴミクスト,,合同会社,静岡県,藤枝市,駅前１丁目２番１０号ＪＡサービスビル３階,,22,214,4260034,,,,,,,2022-09-02,1,,,,,ケーアイティミクスト,0
1428,6080101023507,新規,0,2022-09-02,2022-09-02,株式会社野中建設,,株式会社,静岡県,駿東郡清水町,徳倉２６２７番地,,22,341,4110917,,,,,,,2022-09-02,1,,,,,ノナカケンセツ,0
1430,6110001036927,新規,0,2022-09-02,2022-09-02,株式会社ｍ,,株式会社,新潟県,新潟市中央区,女池南３丁目５番１号,,15,103,9500948,,,,,,,2022-09-02,1,,,,,エム,0
1443,6120001248554,新規,0,2022-09-02,2022-09-02,株式会社クボタデータグラウンド,,株式会社,大阪府,大阪市浪速区,敷津東１丁目２番４７号,,27,111,5560012,,,,,,,2022-09-02,1,,,,,クボタデータグラウンド,0
1444,6120001248587,新規,0,2022-09-02,2022-09-02,三星電機サービス株式会社,,株式会社,大阪府,大阪市平野区,西脇４丁目４番２１－１１０２号,,27,126,5470035,,,,,,,2022-09-02,1,,,,,サンセイデンキサービス,0
1445,6120001248604,新規,0,2022-09-02,2022-09-02,ＴＨＲＥＥ．ＳＣ株式会社,,株式会社,大阪府,大阪市東住吉区,湯里２丁目６番１３－１０５号,,27,121,5460013,,,,,,,2022-09-02,1,,,,,スリーエスシー,0
1449,6120003022387,新規,0,2022-09-02,2022-09-02,フル・エナジー合同会社,,合同会社,大阪府,大阪市西区,北堀江１丁目１３番１６号１４０１,,27,106,5500014,,,,,,,2022-09-02,1,,,,,フルエナジー,0
1455,6120101066170,新規,0,2022-09-02,2022-09-02,株式会社アンビシャス,,株式会社,大阪府,泉大津市,末広町１丁目１番２４号,,27,206,5950002,,,,,,,2022-09-02,1,,,,,アンビシャス,0
1456,6120101066179,新規,0,2022-09-02,2022-09-02,テツノ株式会社,,株式会社,大阪府,貝塚市,加治２４番地８,,27,208,5970074,,,,,,,2022-09-02,1,,,,,テツノ,0
1457,6120101066187,新規,0,2022-09-02,2022-09-02,株式会社クラージュ,,株式会社,大阪府,泉南市,信達牧野１４番地の２,,27,228,5900522,,,,,,,2022-09-02,1,,,,,クラージュ,0
1463,6130003008162,新規,0,2022-09-02,2022-09-02,ＦＩＴ合同会社,,合同会社,京都府,京都市伏見区,桃山町因幡３１番地７パデシオン桃山５０８号,,26,109,6128007,,,,,,,2022-09-02,1,,,,,フィット,0
1473,6140003018078,新規,0,2022-09-02,2022-09-02,合同会社ＥＭｉＥ‐Ｌｅ,,合同会社,兵庫県,加古郡播磨町,本荘２丁目９番１号,,28,382,6750154,,,,,,,2022-09-02,1,,,,,エミエール,0
1489,6180001152809,新規,0,2022-09-02,2022-09-02,東海機器産業株式会社,,株式会社,愛知県,名古屋市港区,春田野１丁目３２０９番地,,23,111,4550873,,,,,,,2022-09-02,1,,,,,トウカイキキサンギョウ,0
1490,6180001152841,新規,0,2022-09-02,2022-09-02,株式会社建心,,株式会社,愛知県,名古屋市港区,油屋町３丁目１７番地の２第三光ハイツ４０３号,,23,111,4550815,,,,,,,2022-09-02,1,,,,,ケンシン,0
1497,6180003024213,新規,0,2022-09-02,2022-09-02,合同会社石田家,,合同会社,愛知県,丹羽郡扶桑町,大字斎藤字座敷野１６５番地,,23,362,4800104,,,,,,,2022-09-02,1,,,,,イシダケ,0
1498,6180301036579,新規,0,2022-09-02,2022-09-02,株式会社テルイノベーション,,株式会社,愛知県,みよし市,三好丘３丁目１番地１３メゾン藤１０２号,,23,236,4700202,,,,,,,2022-09-02,1,,,,,,0
1500,6180303005433,新規,0,2022-09-02,2022-09-02,Ｋ＆Ｕ合同会社,,合同会社,愛知県,西尾市,国森町稲場１３番地１９,,23,213,4440312,,,,,,,2022-09-02,1,,,,,ケイアンドユー,0
1501,6200001040416,新規,0,2022-09-02,2022-09-02,吉野組株式会社,,株式会社,岐阜県,大垣市,築捨町１丁目３００番地１１,,21,202,5030854,,,,,,,2022-09-02,1,,,,,ヨシノグミ,0
1504,6200003005656,新規,0,2022-09-02,2022-09-02,合同会社アップライト,,合同会社,岐阜県,揖斐郡揖斐川町,三輪２７４４番地２６,,21,401,5010619,,,,,,,2022-09-02,1,,,,,アップライト,0
1511,6240001060286,新規,0,2022-09-02,2022-09-02,株式会社ＯＫＮ,,株式会社,広島県,福山市,神辺町字東中条２４２１番地１,,34,207,7202102,,,,,,,2022-09-02,1,,,,,オーケーエヌ,0
1529,6290003012900,新規,0,2022-09-02,2022-09-02,合同会社Ｂｉｇ　Ｓｃａｌｅ　Ｗｏｒｌｄ　Ｊａｐａｎ,,合同会社,福岡県,福岡市早良区,南庄２丁目２２番１７号,,40,137,8140031,,,,,,,2022-09-02,1,,,,,ビッグスケールワールドジャパン,0
1530,6290005018796,新規,0,2022-09-02,2022-09-02,一般社団法人ｔｈａｎｋｓ　ｌｏｖｅ　ｃｉｒｃｌｅ,,その他の設立登記法人,福岡県,福岡市東区,若宮４丁目１２番１２－６号若宮グリーンコーポ,,40,131,8130036,,,,,,,2022-09-02,1,,,,,サンクスラブサークル,0
1532,6290801028858,新規,0,2022-09-02,2022-09-02,株式会社ＦＬＡＴ,,株式会社,福岡県,北九州市小倉北区,山門町１０番４５号,,40,106,8020024,,,,,,,2022-09-02,1,,,,,フラット,0
1533,6290801028866,新規,0,2022-09-02,2022-09-02,株式会社首藤建設工業,,株式会社,福岡県,北九州市八幡西区,楠木１丁目７番９号,,40,109,8070827,,,,,,,2022-09-02,1,,,,,シュトウケンセツコウギョウ,0
1542,6310001018021,新規,0,2022-09-02,2022-09-02,株式会社さくらファーム,,株式会社,長崎県,雲仙市,千々石町丙１２０３番地,,42,213,8540403,,,,,,,2022-09-02,1,,,,,サクラファーム,0
1543,6310003004432,新規,0,2022-09-02,2022-09-02,合同会社ＮｉｋｏＡ,,合同会社,長崎県,佐世保市,大野町９６－１１,,42,202,8570131,,,,,,,2022-09-02,1,,,,,ニコア,0
1544,6320001019299,新規,0,2022-09-02,2022-09-02,ＫＴフォレスト株式会社,,株式会社,大分県,日田市,大字三和字長渕２６０３番１,,44,204,8770000,,,,,,,2022-09-02,1,,,,,ケイティフォレスト,0
1546,6320005010015,新規,0,2022-09-02,2022-09-02,一般社団法人大分ネパール友好協会,,その他の設立登記法人,大分県,別府市,駅前本町１番４号,,44,202,8740934,,,,,,,2022-09-02,1,,,,,オオイタネパールユウコウキョウカイ,0
1550,6330003009504,新規,0,2022-09-02,2022-09-02,Ｆａｒｍ　ｔｅｃｈ合同会社,,合同会社,熊本県,山鹿市,菊鹿町木野２８３３番地,,43,208,8610426,,,,,,,2022-09-02,1,,,,,ファームテック,0
1555,6340001024999,新規,0,2022-09-02,2022-09-02,株式会社加治木ＶＣ,,株式会社,鹿児島県,姶良市,加治木町木田２１０１番地２,,46,225,8995241,,,,,,,2022-09-02,1,,,,,カジキブイシー,0
1562,6360001030913,新規,0,2022-09-02,2022-09-02,株式会社ＧＬＯＢＡＬ,,株式会社,沖縄県,石垣市,字石垣１７７６番地１０,,47,207,9070023,,,,,,,2022-09-02,1,,,,,グローバル,0
1565,6370001048987,新規,0,2022-09-02,2022-09-02,株式会社ＲＩＯＮ,,株式会社,宮城県,仙台市若林区,三本塚字権太２７５番地の３,,04,103,9840841,,,,,,,2022-09-02,1,,,,,リオン,0
1566,6370001048995,新規,0,2022-09-02,2022-09-02,ＳＳＴ株式会社,,株式会社,宮城県,仙台市青葉区,国分町２丁目１３番１号セブンコートビル５０８,,04,101,9800803,,,,,,,2022-09-02,1,,,,,エスエスティー,0
1567,6370001049003,新規,0,2022-09-02,2022-09-02,株式会社アタッチメント森田,,株式会社,宮城県,黒川郡大衡村,大衡字萱刈場２２８番地６,,04,424,9813602,,,,,,,2022-09-02,1,,,,,アタッチメントモリタ,0
1575,6410001013268,新規,0,2022-09-02,2022-09-02,Ｈ・Ｅマネジメント株式会社,,株式会社,秋田県,秋田市,山王５丁目１４番９号,,05,201,0100951,,,,,,,2022-09-02,1,,,,,エイチイーマネジメント,0
1580,6430001087401,新規,0,2022-09-02,2022-09-02,株式会社Ｒｉｎｇｓ,,株式会社,北海道,札幌市白石区,川北一条３丁目１番３号,,01,104,0030851,,,,,,,2022-09-02,1,,,,,リングス,0
1585,6430003014238,新規,0,2022-09-02,2022-09-02,合同会社ＡＫＡＮＥ＆かんぱにー,,合同会社,北海道,札幌市白石区,栄通６丁目１０番６号２階,,01,104,0030021,,,,,,,2022-09-02,1,,,,,アカネアンドカンパニー,0
1600,6480001011843,新規,0,2022-09-02,2022-09-02,株式会社幸生,,株式会社,徳島県,徳島市,山城西３丁目２６,,36,201,7708054,,,,,,,2022-09-02,1,,,,,コウセイ,0
1604,6500001024438,新規,0,2022-09-02,2022-09-02,テレポート運輸株式会社,,株式会社,愛媛県,伊予郡砥部町,宮内２３０７番地４,,38,402,7912120,,,,,,,2022-09-02,1,,,,,テレポートウンユ,0
1608,6700150111347,新規,0,2022-09-02,2022-08-19,セントラルコート武蔵小杉管理組合,,その他,神奈川県,川崎市中原区,市ノ坪３４－１,,14,133,2110016,,,,,,,2022-08-19,1,,,,,セントラルコートムサシコスギカンリクミアイ,0
1621,7010401169245,新規,0,2022-09-02,2022-09-02,株式会社ｃａｒｎｅｔ,,株式会社,東京都,港区,西麻布１丁目３番２３－１００１号,,13,103,1060031,,,,,,,2022-09-02,1,,,,,カルネ,0
1622,7010401169410,新規,0,2022-09-02,2022-09-02,株式会社ＨＵＵＭ,,株式会社,東京都,港区,赤坂５丁目３番１号,,13,103,1070052,,,,,,,2022-09-02,1,,,,,フーム,0
1625,7010403028358,新規,0,2022-09-02,2022-09-02,大阪ロジスティクス１合同会社,,合同会社,東京都,港区,六本木１丁目６番１号泉ガーデンタワー,,13,103,1060032,,,,,,,2022-09-02,1,,,,,オオサカロジスティクスワン,0
1643,7010801033240,新規,0,2022-09-02,2022-09-02,ａ．ｓｍｉｌｅ株式会社,,株式会社,東京都,大田区,矢口３丁目３２番１号,,13,111,1460093,,,,,,,2022-09-02,1,,,,,エースマイル,0
1645,7010901051539,新規,0,2022-09-02,2022-09-02,株式会社ＲＡＫＲＡＳ,,株式会社,東京都,世田谷区,玉川３丁目１番１８－２４０１号,,13,112,1580094,,,,,,,2022-09-02,1,,,,,ラクラス,0
1646,7010903007621,新規,0,2022-09-02,2022-09-02,合同会社Ａ＆Ａ,,合同会社,東京都,世田谷区,上野毛３丁目２番７－２０４号,,13,112,1580093,,,,,,,2022-09-02,1,,,,,エイエンデイ,0
1664,7011001149513,新規,0,2022-09-02,2022-09-02,株式会社ＴＲＵＳＴＡＴＥ・ＡＲＣ,,株式会社,東京都,渋谷区,道玄坂２丁目１５番１号,,13,113,1500043,,,,,,,2022-09-02,1,,,,,トラステートアーク,0
1670,7011101100020,新規,0,2022-09-02,2022-09-02,株式会社ＧＶＤ,,株式会社,東京都,新宿区,新宿３丁目４番８号京王フレンテ新宿三丁目４階,,13,104,1600022,,,,,,,2022-09-02,1,,,,,ジーブイディー,0
1671,7011103012123,新規,0,2022-09-02,2022-09-02,合同会社ヒューマンインサイト・トラスト,,合同会社,東京都,新宿区,新宿２丁目１２番１３号新宿アントレサロンビル２階,,13,104,1600022,,,,,,,2022-09-02,1,,,,,ヒューマンインサイトトラスト,0
1673,7011203003906,新規,0,2022-09-02,2022-09-02,アクロヒューマン合同会社,,合同会社,東京都,中野区,鷺宮６丁目５番５号,,13,114,1650032,,,,,,,2022-09-02,1,,,,,アクロヒューマン,0
1682,7011603003687,新規,0,2022-09-02,2022-09-02,ビアス合同会社,,合同会社,東京都,練馬区,西大泉３丁目３２番８号,,13,120,1780065,,,,,,,2022-09-02,1,,,,,ビアス,0
1686,7011801041209,新規,0,2022-09-02,2022-09-02,株式会社マキナ,,株式会社,東京都,葛飾区,小菅１丁目３７番１－１０７号ソライエ葛飾小菅,,13,122,1240001,,,,,,,2022-09-02,1,,,,,マキナ,0
1691,7012403005568,新規,0,2022-09-02,2022-09-02,合同会社Ｕ　ａｎｄ　Ｙ,,合同会社,東京都,府中市,幸町２丁目１０番地の２ウィル２０３,,13,206,1830054,,,,,,,2022-09-02,1,,,,,ユーアンドワイ,0
1698,7013301049608,新規,0,2022-09-02,2022-09-02,株式会社蘊怡,,株式会社,東京都,豊島区,東池袋１丁目４８－１０、２５山京ビル６２８室,,13,116,1700013,,,,,,,2022-09-02,1,,,,,ウンイ,0
1730,7030003020093,新規,0,2022-09-02,2022-09-02,合同会社ネクスト,,合同会社,埼玉県,さいたま市中央区,本町西３丁目１０番１０号グランディール本町西７０１,,11,105,3380004,,,,,,,2022-09-02,1,,,,,ネクスト,0
1731,7030003020119,新規,0,2022-09-02,2022-09-02,合同会社ＳＯＲＡ,,合同会社,埼玉県,蕨市,北町５丁目６番３号タキハイツＢ１０１号,,11,223,3350001,,,,,,,2022-09-02,1,,,,,ソラ,0
1735,7040001124894,新規,0,2022-09-02,2022-09-02,株式会社川上興業,,株式会社,千葉県,我孫子市,南青山２２番地の３８,,12,222,2701178,,,,,,,2022-09-02,1,,,,,カワカミコウギョウ,0
1736,7040001124911,新規,0,2022-09-02,2022-09-02,株式会社ＲＥ‐Ｘ,,株式会社,千葉県,流山市,駒木１０８６－４８,,12,220,2700132,,,,,,,2022-09-02,1,,,,,リエックス,0
1737,7040003020729,新規,0,2022-09-02,2022-09-02,弘順合同会社,,合同会社,千葉県,市川市,新井３丁目２５－１７メゾンアサヒ１０５号室,,12,203,2720144,,,,,,,2022-09-02,1,,,,,コウジュン,0
1745,7050003006801,新規,0,2022-09-02,2022-09-02,合同会社クイーンズ,,合同会社,茨城県,龍ケ崎市,長山３丁目１４番地５,,08,208,3010042,,,,,,,2022-09-02,1,,,,,クイーンズ,0
1746,7060001035223,新規,0,2022-09-02,2022-09-02,株式会社柴原建築塗装工業,,株式会社,栃木県,真岡市,上高間木１丁目１１番地３,,09,209,3214337,,,,,,,2022-09-02,1,,,,,シバハラケンチクトソウコウギョウ,0
1749,7080001025164,新規,0,2022-09-02,2022-09-02,株式会社Ｍａｌｉｂｕ　Ｃｏｒｐｏｒａｔｉｏｎ,,株式会社,静岡県,静岡市清水区,興津井上町３８２番地の１３,,22,103,4240202,,,,,,,2022-09-02,1,,,,,マリブコーポレーション,0
1753,7110001036926,新規,0,2022-09-02,2022-09-02,株式会社トライトップ,,株式会社,新潟県,新潟市江南区,西町１丁目２番４号,,15,104,9500165,,,,,,,2022-09-02,1,,,,,トライトップ,0
1763,7120001248504,新規,0,2022-09-02,2022-09-02,新導ハウジング株式会社,,株式会社,大阪府,大阪市都島区,都島南通１丁目１７番１１号,,27,102,5340023,,,,,,,2022-09-02,1,,,,,シンドウハウジング,0
1764,7120001248545,新規,0,2022-09-02,2022-09-02,株式会社ＬＡＵＧＨ　ＳＨＡＲＥ　ＷＥＳＴ,,株式会社,大阪府,大阪市中央区,平野町２丁目５番８号平野町センチュリービル３Ｆ,,27,128,5410046,,,,,,,2022-09-02,1,,,,,ラフシェアウエスト,0
1765,7120001248553,新規,0,2022-09-02,2022-09-02,株式会社一利,,株式会社,大阪府,大阪市中央区,森ノ宮中央１丁目１４番１７号ＩＣＢ森ノ宮ビル,,27,128,5400003,,,,,,,2022-09-02,1,,,,,イチリ,0
1766,7120001248586,新規,0,2022-09-02,2022-09-02,株式会社フィルハーモニー,,株式会社,大阪府,大阪市福島区,福島６丁目２２番１５号,,27,103,5530003,,,,,,,2022-09-02,1,,,,,フィルハーモニー,0
1768,7120003022386,新規,0,2022-09-02,2022-09-02,合同会社Ｍｙｕ　Ｐｌｕｓ,,合同会社,大阪府,大阪市中央区,南船場４丁目８番４号,,27,128,5420081,,,,,,,2022-09-02,1,,,,,ミュープラス,0
1770,7120005023168,新規,0,2022-09-02,2022-09-02,常翔税理士法人,,その他の設立登記法人,大阪府,大阪市天王寺区,寺田町１丁目１番２号ＴＣビル３０３号室,,27,109,5430045,,,,,,,2022-09-02,1,,,,,ジョウショウ,0
1772,7120101066161,新規,0,2022-09-02,2022-09-02,株式会社牟田貿易,,株式会社,大阪府,阪南市,貝掛６３番地の１（Ｄ棟５１５号）,,27,232,5990231,,,,,,,2022-09-02,1,,,,,ムタボウエキ,0
1774,7120901046429,新規,0,2022-09-02,2022-09-02,株式会社Ｂｒｏｔｈｅｒｈｏｏｄ,,株式会社,大阪府,吹田市,桃山台５丁目４番２－６０２号,,27,205,5650854,,,,,,,2022-09-02,1,,,,,ブラザーフッド,0
1779,7130001072531,新規,0,2022-09-02,2022-09-02,株式会社あづき総合研究所,,株式会社,京都府,京都市南区,吉祥院池ノ内町３２番地,,26,107,6018316,,,,,,,2022-09-02,1,,,,,アヅキソウゴウケンキュウショ,0
1788,7140001127235,新規,0,2022-09-02,2022-09-02,ＢＬＥＳＳホールディングス株式会社,,株式会社,兵庫県,西宮市,西宮浜１丁目１４番地,,28,204,6620934,,,,,,,2022-09-02,1,,,,,ブレスホールディングス,0
1789,7140001127276,新規,0,2022-09-02,2022-09-02,株式会社プラナーツ,,株式会社,兵庫県,神戸市東灘区,魚崎中町３丁目１番１１号,,28,101,6580083,,,,,,,2022-09-02,1,,,,,プラナーツ,0
1796,7170003001765,新規,0,2022-09-02,2022-09-02,小川建築合同会社,,合同会社,和歌山県,和歌山市,布施屋９３０番地１７,,30,201,6496321,,,,,,,2022-09-02,1,,,,,オガワケンチク,0
1805,7180001152840,新規,0,2022-09-02,2022-09-02,株式会社徳川浪漫,,株式会社,愛知県,名古屋市中村区,名駅１丁目１番１号ＪＰタワー名古屋２１Ｆ,,23,105,4500002,,,,,,,2022-09-02,1,,,,,トクガワロマン,0
1806,7180001152857,新規,0,2022-09-02,2022-09-02,株式会社山城社中,,株式会社,愛知県,名古屋市名東区,極楽２丁目７２番地,,23,115,4650053,,,,,,,2022-09-02,1,,,,,ヤマシロシャチュウ,0
1810,7180003024212,新規,0,2022-09-02,2022-09-02,合同会社ＨＯＮＵ,,合同会社,愛知県,あま市,甚目寺権現１１１番地６,,23,237,4901111,,,,,,,2022-09-02,1,,,,,ホヌ,0
1813,7180301036578,新規,0,2022-09-02,2022-09-02,ティー・カーゴ株式会社,,株式会社,愛知県,豊田市,元城町４丁目１９番１号名古庄ビル２０３号室,,23,211,4710024,,,,,,,2022-09-02,1,,,,,ティーカーゴ,0
1814,7180301036586,新規,0,2022-09-02,2022-09-02,株式会社アクティ,,株式会社,愛知県,刈谷市,新栄町３丁目２１０－３０１号,,23,210,4480843,,,,,,,2022-09-02,1,,,,,アクティ,0
1827,7200003005655,新規,0,2022-09-02,2022-09-02,合同会社ｗａｒａｂｅｅ,,合同会社,岐阜県,美濃市,蕨生７２６,,21,207,5013788,,,,,,,2022-09-02,1,,,,,ワラビー,0
1832,7240001060319,新規,0,2022-09-02,2022-09-02,株式会社オキハウス,,株式会社,広島県,広島市中区,住吉町１番５号,,34,101,7300813,,,,,,,2022-09-02,1,,,,,オキハウス,0
1835,7260001037199,新規,0,2022-09-02,2022-09-02,株式会社クラフトマンワークス,,株式会社,岡山県,岡山市北区,下中野３２８番地１１３,,33,101,7000973,,,,,,,2022-09-02,1,,,,,クワフトマンワークス,0
1841,7290001098767,新規,0,2022-09-02,2022-09-02,株式会社スマイルサポート,,株式会社,福岡県,福岡市博多区,元町１丁目５－２５カーザビアンカ元町１０１,,40,132,8120877,,,,,,,2022-09-02,1,,,,,スマイルサポート,0
1849,7290003012899,新規,0,2022-09-02,2022-09-02,合同会社熊本県人吉発電所１,,合同会社,福岡県,久留米市,本町２番地２３栗原ビルディング４Ｆ,,40,203,8300044,,,,,,,2022-09-02,1,,,,,クマモトケンヒトヨシハツデンショイチ,0
1850,7290005018795,新規,0,2022-09-02,2022-09-02,一般社団法人企業型ＤＣセンター,,その他の設立登記法人,福岡県,福岡市中央区,大宮１丁目７番１７－２０１号,,40,133,8100013,,,,,,,2022-09-02,1,,,,,キギョウガタディーシーセンター,0
1855,7290801028857,新規,0,2022-09-02,2022-09-02,株式会社ハクマル,,株式会社,福岡県,北九州市小倉北区,吉野町２番４－５０２号,,40,106,8020085,,,,,,,2022-09-02,1,,,,,ハクマル,0
1857,7310001018012,新規,0,2022-09-02,2022-09-02,株式会社Ｆｉｒｓｔ,,株式会社,長崎県,長崎市,戸町１丁目５番８－９０５号,,42,201,8500952,,,,,,,2022-09-02,1,,,,,ファースト,0
1870,7330003009503,新規,0,2022-09-02,2022-09-02,Ｒ・Ｎ・Ａ合同会社,,合同会社,熊本県,荒尾市,荒尾４１６０番地２７７,,43,204,8640041,,,,,,,2022-09-02,1,,,,,アールエヌエー,0
1875,7360001030904,新規,0,2022-09-02,2022-09-02,株式会社宮古島建築,,株式会社,沖縄県,宮古島市,平良字下里２１６番地１、１０３号,,47,214,9060013,,,,,,,2022-09-02,1,,,,,ミヤコジマケンチク,0
1878,7360005006710,新規,0,2022-09-02,2022-09-02,一般社団法人ＹＵＵ,,その他の設立登記法人,沖縄県,宮古島市,平良字下里３０２３番地３,,47,214,9060013,,,,,,,2022-09-02,1,,,,,ユウ,0
1888,7390003001990,新規,0,2022-09-02,2022-09-02,合同会社ミクロック,,合同会社,山形県,山形市,十日町４丁目１‐３２‐７０４朝日プラザ山形中央,,06,201,9900031,,,,,,,2022-09-02,1,,,,,ミクロック,0
1899,7430001087391,新規,0,2022-09-02,2022-09-02,ＣＢＬインダストリーズ株式会社,,株式会社,北海道,札幌市手稲区,稲穂二条１丁目５番１号,,01,109,0060032,,,,,,,2022-09-02,1,,,,,シービーエルインダストリーズ,0
1900,7430001087409,新規,0,2022-09-02,2022-09-02,株式会社Ａｔｌａｓ‐Ｋｉｎｇ,,株式会社,北海道,札幌市中央区,北一条西２２丁目３番３－６０５号,,01,101,0640821,,,,,,,2022-09-02,1,,,,,アトラスキング,0
1901,7430001087417,新規,0,2022-09-02,2022-09-02,株式会社ボーラーメディア,,株式会社,北海道,伊達市,山下町１４７番地,,01,233,0520032,,,,,,,2022-09-02,1,,,,,ボーラーメディア,0
1902,7430003014237,新規,0,2022-09-02,2022-09-02,合同会社ＭＡＫ,,合同会社,北海道,札幌市東区,中沼町７２番地５,,01,103,0070890,,,,,,,2022-09-02,1,,,,,マック,0
1906,7490005006739,新規,0,2022-09-02,2022-09-02,高南開拓農業協同組合,,その他の設立登記法人,高知県,高岡郡四万十町,志和峰１５７の３番地,,39,412,7860055,,,,,,,2022-09-02,1,,,,,,0
1911,7700150108978,新規,0,2022-09-02,2022-05-24,日本物理療法研究会,,その他,東京都,港区,六本木７丁目１１番１０号,,13,103,1060032,,,,,,,2022-05-24,1,,,,,ニホンブツリリヨウホウケンキユウカイ,0
1912,7700150110117,新規,0,2022-09-02,2022-06-20,日本がん・リンパ浮腫理学療法研究会,,その他,東京都,港区,六本木７丁目１１番１０号,,13,103,1060032,,,,,,,2022-06-20,1,,,,,ニホンガンリンパフシユリガクリヨウホウケンキユウカイ,0
1913,7700150111461,新規,0,2022-09-02,2022-08-23,熊本市立総合ビジネス専門学校　後援会,,その他,熊本県,熊本市西区,上熊本３丁目２５－５,,43,103,8600079,,,,,,,2022-08-23,1,,,,,クマモトシリツソウゴウビジネスセンモンガツコウコウエンカイ,0
1914,7700150111585,新規,0,2022-09-02,2022-09-02,ＢＩＲＤＩＥ　ＭＡＲＩＮＥ　Ｓ．Ａ．,,外国会社等,東京都,千代田区,内幸町２丁目１－１飯野ビル２４Ｆ　双日株式会社内,,13,101,1000011,Ｐａｓｃｏ　ｄｅｌ　Ｍａｒ　ａｎｄ　Ｐａｃｉｆｉｃ　Ａｖｅ．　Ｃｏｓｔａ　ｄｅｌ　Ｅｓｔｅ　ＭＭＧ　Ｔｏｗｅｒ　２３ｒｄ　Ｆｌ　Ｐａｎａｍａ　Ｃｉｔｙ，Ｐａｎａｍａ,,,,,,2022-09-02,1,,,,,バーデイーマリンエスエー,0
1915,7700150111602,新規,0,2022-09-02,2022-09-02,ＭＥＥＮＡＮＦＡＺ　ＭＯＴＯＲＳ　ＰＶＴ　ＬＴＤ,,外国会社等,神奈川県,伊勢原市,高森１０９０－１高森サンハイツ１０３号室,,14,214,2591114,スリランカ民主社会主義共和国、ホロウポタナ市，ムッカラウェワＮｏ．１６３／Ａ,,,,,,2022-09-02,1,,,,,ミーナンフアズモーターズ,0
1920,8010001229209,新規,0,2022-09-02,2022-09-02,ＥＴＯＭＡＲＳ　ＪＡＰＡＮ株式会社,,株式会社,東京都,千代田区,神田富山町２５番地サンクス神田ビル２階,,13,101,1010043,,,,,,,2022-09-02,1,,,,,イトマスジャパン,0
1922,8010003038517,新規,0,2022-09-02,2022-09-02,心宇合同会社,,合同会社,東京都,千代田区,岩本町２丁目１７番４号泰合ビルＩＩ３階３Ｄ室,00127700,13,101,1010032,,,,,,,2022-09-02,1,,,,,シンウ,0
1924,8010403028373,新規,0,2022-09-02,2022-09-02,ブラシカンパニー合同会社,,合同会社,東京都,港区,南青山２丁目２番１５号,,13,103,1070062,,,,,,,2022-09-02,1,,,,,ブラシカンパニー,0
1927,8010501049321,新規,0,2022-09-02,2022-09-02,株式会社リオ・エステート,,株式会社,東京都,台東区,蔵前４丁目３７番５号,,13,106,1110051,,,,,,,2022-09-02,1,,,,,リオエステート,0
1937,8011001149578,新規,0,2022-09-02,2022-09-02,株式会社Ｕ＆Ａ,,株式会社,東京都,渋谷区,宇田川町２５番２号４Ｆ,,13,113,1500042,,,,,,,2022-09-02,1,,,,,ユーアンドエー,0
1941,8011101100044,新規,0,2022-09-02,2022-09-02,インターパス株式会社,,株式会社,東京都,新宿区,新小川町５番２号,,13,104,1620814,,,,,,,2022-09-02,1,,,,,インターパス,0
1942,8011101100052,新規,0,2022-09-02,2022-09-02,株式会社トッケン,,株式会社,東京都,新宿区,四谷４丁目４番地７,,13,104,1600004,,,,,,,2022-09-02,1,,,,,トッケン,0
1951,8011701025574,新規,0,2022-09-02,2022-09-02,株式会社ＥＶＩＤＥＮＣＥ,,株式会社,東京都,江戸川区,江戸川６丁目１２番地３９,,13,123,1340013,,,,,,,2022-09-02,1,,,,,エビデンス,0
1952,8011801041232,新規,0,2022-09-02,2022-09-02,辰康株式会社,,株式会社,東京都,足立区,西伊興３丁目１８－１４－２０３号,,13,121,1210824,,,,,,,2022-09-02,1,,,,,タツコウ,0
1953,8012401039591,新規,0,2022-09-02,2022-09-02,株式会社フロンティアパワー,,株式会社,東京都,調布市,東つつじケ丘２丁目２２番地３２,,13,208,1820005,,,,,,,2022-09-02,1,,,,,フロンティアパワー,0
1954,8012803002874,新規,0,2022-09-02,2022-09-02,合同会社Ｒｅ　Ａｃｔｉｏｎ,,合同会社,東京都,立川市,錦町１丁目４番４号Ｃｓ－１５０,,13,202,1900022,,,,,,,2022-09-02,1,,,,,リアクション,0
1957,8013301049598,新規,0,2022-09-02,2022-09-02,株式会社いのちの種,,株式会社,東京都,豊島区,駒込６丁目１８番１４号,,13,116,1700003,,,,,,,2022-09-02,1,,,,,イノチノタネ,0
1961,8020001148069,新規,0,2022-09-02,2022-09-02,株式会社シミズホールディングス,,株式会社,神奈川県,横浜市中区,松影町３丁目９番地３,,14,104,2310025,,,,,,,2022-09-02,1,,,,,シミズホールディングス,0
1963,8020003022321,新規,0,2022-09-02,2022-09-02,ジョイフラワー合同会社,,合同会社,神奈川県,横浜市港北区,綱島西５丁目４番５号７１２,,14,109,2230053,,,,,,,2022-09-02,1,,,,,ジョイフラワー,0
1964,8021003012097,新規,0,2022-09-02,2022-09-02,ＳＡＭＰＩＮＯＮＧ合同会社,,合同会社,神奈川県,伊勢原市,沼目１丁目９５番地の１マンション幸栄３０５号,,14,214,2591126,,,,,,,2022-09-02,1,,,,,サームピノーン,0
1969,8030001149909,新規,0,2022-09-02,2022-09-02,株式会社イルミナフォーチュン,,株式会社,埼玉県,秩父市,番場町１７－１４,,11,207,3680041,,,,,,,2022-09-02,1,,,,,イルミナフォーチュン,0
1975,8030005020982,新規,0,2022-09-02,2022-09-02,特定非営利活動法人文化部活動の地域移行支援ネットワーク,,その他の設立登記法人,埼玉県,新座市,野火止７丁目９番４号レガーレ田園２号棟１号室,,11,230,3520011,,,,,,,2022-09-02,1,,,,,ブンカブカツドウノチイキイコウシエンネットワーク,0
1979,8040001124869,新規,0,2022-09-02,2022-09-02,株式会社ＡＬＬ　ｔｏ　ＯＮＥ,,株式会社,千葉県,柏市,今谷上町４０番地２ＡＤ南柏,,12,217,2770074,,,,,,,2022-09-02,1,,,,,オールトゥワン,0
1980,8040001124893,新規,0,2022-09-02,2022-09-02,株式会社和興業,,株式会社,千葉県,野田市,上花輪１０８８番地,,12,208,2780033,,,,,,,2022-09-02,1,,,,,カズコウギョウ,0
1981,8040001124910,新規,0,2022-09-02,2022-09-02,株式会社インター,,株式会社,千葉県,千葉市花見川区,幕張町３丁目１６９２番地１幕張ハウス１２０９号,,12,102,2620032,,,,,,,2022-09-02,1,,,,,インター,0
1988,8050001051625,新規,0,2022-09-02,2022-09-02,株式会社サン・オーク,,株式会社,茨城県,笠間市,旭町２５３番地４,,08,216,3091717,,,,,,,2022-09-02,1,,,,,サンオーク,0
1989,8050001051633,新規,0,2022-09-02,2022-09-02,わづくる株式会社,,株式会社,茨城県,東茨城郡大洗町,磯浜町２８９９番地の４,,08,309,3111301,,,,,,,2022-09-02,1,,,,,ワヅクル,0
1999,8080101023505,新規,0,2022-09-02,2022-09-02,株式会社ディスクリテック,,株式会社,静岡県,沼津市,岡一色７２５番地の１沼津インキュベートセンターＢ－２,,22,203,4100012,,,,,,,2022-09-02,1,,,,,ディスクリテック,0
2011,8120001248552,新規,0,2022-09-02,2022-09-02,ｍａｖｅｒｉｃｋ株式会社,,株式会社,大阪府,大阪市北区,西天満３丁目９番３－１４０１号,,27,127,5300047,,,,,,,2022-09-02,1,,,,,マーヴェリック,0
2012,8120001248593,新規,0,2022-09-02,2022-09-02,株式会社フォルティール,,株式会社,大阪府,大阪市北区,曾根崎２丁目８－５,,27,127,5300057,,,,,,,2022-09-02,1,,,,,フォルティール,0
2013,8120001248602,新規,0,2022-09-02,2022-09-02,株式会社辻野防災,00127699,株式会社,大阪府,大阪市旭区,新森１丁目７番１２－１００３号,,27,117,5350022,,,,,,,2022-09-02,1,,,,,ツジノボウサイ,0
2016,8120003022377,新規,0,2022-09-02,2022-09-02,エムエー合同会社,,合同会社,大阪府,大阪市淀川区,三津屋南２丁目２０番６号,,27,123,5320035,,,,,,,2022-09-02,1,,,,,エムエー,0
2017,8120101066160,新規,0,2022-09-02,2022-09-02,株式会社ヤマトコンサルタンツ,,株式会社,大阪府,松原市,上田３丁目６番２０－６１０号,,27,217,5800016,,,,,,,2022-09-02,1,,,,,ヤマトコンサルタンツ,0
2018,8120101066177,新規,0,2022-09-02,2022-09-02,株式会社Ｌａｃｏ,,株式会社,大阪府,堺市美原区,多治井３８７番地１,,27,147,5870012,,,,,,,2022-09-02,1,,,,,ラコ,0
2019,8120901046428,新規,0,2022-09-02,2022-09-02,箕面株式会社,,株式会社,大阪府,箕面市,小野原西６丁目２０番２０号,,27,220,5620032,,,,,,,2022-09-02,1,,,,,ミノオ,0
2025,8130001072547,新規,0,2022-09-02,2022-09-02,株式会社ＦＴＮ,,株式会社,京都府,京都市中京区,西ノ京笠殿町２３番地,,26,104,6048482,,,,,,,2022-09-02,1,,,,,エフティーエヌ,0
2027,8130003008160,新規,0,2022-09-02,2022-09-02,合同会社タクヘル,,合同会社,京都府,京都市山科区,音羽沢町２２－３６,,26,110,6078077,,,,,,,2022-09-02,1,,,,,タクヘル,0
2036,8140001126681,新規,0,2022-09-02,2022-09-02,株式会社ＪＧ,,株式会社,兵庫県,伊丹市,野間７丁目１１番４－２０２号,,28,207,6640873,,,,,,,2022-09-02,1,,,,,ジェージー,0
2039,8140003018076,新規,0,2022-09-02,2022-09-02,ＤＡ合同会社,,合同会社,兵庫県,神戸市中央区,花隈町９番１１号ラフォーレ花隈３０１,,28,110,6500013,,,,,,,2022-09-02,1,,,,,ディーエー,0
2051,8180001152823,新規,0,2022-09-02,2022-09-02,ＮＴＣホールディングス株式会社,,株式会社,愛知県,名古屋市天白区,八事天道３２３番地１,,23,116,4680061,,,,,,,2022-09-02,1,,,,,エヌティーシーホールディングス,0
2052,8180001152848,新規,0,2022-09-02,2022-09-02,株式会社タスメディック,,株式会社,愛知県,名古屋市中区,大須３丁目３０番４０号,,23,106,4600011,,,,,,,2022-09-02,1,,,,,タスメディック,0
2057,8180003024211,新規,0,2022-09-02,2022-09-02,合同会社ひいな,,合同会社,愛知県,一宮市,栄４丁目７番１４号,,23,203,4910858,,,,,,,2022-09-02,1,,,,,ヒイナ,0
2059,8180301036577,新規,0,2022-09-02,2022-09-02,ケイアンドエスＡＲＴＩＳＡＮ株式会社,,株式会社,愛知県,豊橋市,新本町１０１番地杉田ビル１階,,23,201,4400892,,,,,,,2022-09-02,1,,,,,ケイアンドエスアーティザン,0
2062,8190001029731,新規,0,2022-09-02,2022-09-02,株式会社安濃工業,,株式会社,三重県,松阪市,荒木町３７番地３,,24,204,5150007,,,,,,,2022-09-02,1,,,,,アノウコウギョウ,0
2069,8210001019069,新規,0,2022-09-02,2022-09-02,株式会社ｓｍｋ,,株式会社,福井県,福井市,羽水２丁目３０８番地,,18,201,9188114,,,,,,,2022-09-02,1,,,,,エスエムケイ,0
2074,8240001060318,新規,0,2022-09-02,2022-09-02,株式会社Ｓ‐ＩＮ,,株式会社,広島県,広島市西区,井口３丁目１３－１５－３リサイヤ井口１０７号室,,34,104,7330842,,,,,,,2022-09-02,1,,,,,シン,0
2075,8240003005782,新規,0,2022-09-02,2022-09-02,合同会社シンコウ,,合同会社,広島県,廿日市市,宮園５丁目８番地１５,,34,213,7380035,,,,,,,2022-09-02,1,,,,,シンコウ,0
2089,8290003012907,新規,0,2022-09-02,2022-09-02,ＶＴ合同会社,,合同会社,福岡県,福岡市南区,三宅２丁目７－２６－２０１号室,,40,134,8111344,,,,,,,2022-09-02,1,,,,,ブイティー,0
2094,8300001013054,新規,0,2022-09-02,2022-09-02,株式会社みらいワークス,,株式会社,佐賀県,佐賀市,水ヶ江１丁目１番１１号,,41,201,8400054,,,,,,,2022-09-02,1,,,,,ミライワークス,0
2101,8330001030071,新規,0,2022-09-02,2022-09-02,株式会社みずほ２１,,株式会社,熊本県,熊本市東区,健軍２丁目１３番７号,,43,102,8620911,,,,,,,2022-09-02,1,,,,,ミズホニジュウイチ,0
2103,8330003009502,新規,0,2022-09-02,2022-09-02,合同会社ファーム美々,,合同会社,熊本県,熊本市東区,尾ノ上４丁目１２番５３号ボヌール尾ノ上４０３号,,43,102,8620913,,,,,,,2022-09-02,1,,,,,ファームビビ,0
2110,8340001025005,新規,0,2022-09-02,2022-09-02,株式会社前田いちご園,,株式会社,鹿児島県,南九州市,知覧町永里３３１９番地２,,46,223,8970303,,,,,,,2022-09-02,1,,,,,マエダイチゴエン,0
2113,8350001017926,新規,0,2022-09-02,2022-09-02,株式会社Ｆｒａｍｅｗｏｒｋ,,株式会社,宮崎県,宮崎市,鶴島２丁目９－６ＮＰＯハウス,,45,201,8800014,,,,,,,2022-09-02,1,,,,,フレームワーク,0
2115,8360001030894,新規,0,2022-09-02,2022-09-02,株式会社石垣,,株式会社,沖縄県,石垣市,字大川１９２－１石垣ビル１階,,47,207,9070022,,,,,,,2022-09-02,1,,,,,イシガキ,0
2132,8430001087408,新規,0,2022-09-02,2022-09-02,株式会社ＮｏａｈＧｉｆｔ,,株式会社,北海道,札幌市白石区,菊水一条２丁目１０番１８－４０１号,,01,104,0030801,,,,,,,2022-09-02,1,,,,,ノアギフト,0
2134,8430003014236,新規,0,2022-09-02,2022-09-02,合同会社エムズビーンズ,,合同会社,北海道,札幌市中央区,北十条西１５丁目１番地ＳＯＥＮＷＥＳＴ　ＰＬＡＺＡ,,01,101,0600010,,,,,,,2022-09-02,1,,,,,エムズビーンズ,0
2147,8500003002885,新規,0,2022-09-02,2022-09-02,合同会社ＯｎｅＶｏｉｃｅ,,合同会社,愛媛県,松山市,本町７丁目２４番地,,38,201,7900811,,,,,,,2022-09-02,1,,,,,ワンボイス,0
2149,8700150110116,新規,0,2022-09-02,2022-06-20,日本栄養・嚥下理学療法研究会,,その他,東京都,港区,六本木７丁目１１番１０号,,13,103,1060032,,,,,,,2022-06-20,1,,,,,ニホンエイヨウエンゲリガクリヨウホウケンキユウカイ,0
2150,8700150111254,新規,0,2022-09-02,2022-08-15,Ｅｎｓｅｍｂｌｅ　Ｓｏｗｅｒ,,その他,京都府,京都市西京区,川島滑樋町３３－９川島滑樋町テラスハウス２号室,,26,111,6158106,,,,,,,2022-08-15,1,,,,,アンサンブルソワー,0
2157,9010001229224,新規,0,2022-09-02,2022-09-02,株式会社平河町オートリース,,株式会社,東京都,千代田区,平河町１丁目６番１５号,,13,101,1020093,,,,,,,2022-09-02,1,,,,,ヒラカワチョウオートリース,0
2158,9010003038532,新規,0,2022-09-02,2022-09-02,ＮＯＷ　ＣＲＹＰＴＯＳ合同会社,,合同会社,東京都,千代田区,富士見１丁目３－１１富士見デュープレックスＢ’ｓ４Ｆ,,13,101,1020071,,,,,,,2022-09-02,1,,,,,ナウクリプトス,0
2168,9010401169284,新規,0,2022-09-02,2022-09-02,Ｒｉｓｋｉｆｉｅｄ　Ｊａｐａｎ株式会社,,株式会社,東京都,港区,赤坂２丁目１１番７号ＡＴＴ新館１１階Ｍａｚａｒｓ・Ｊａｐａｎ株式会社内,,13,103,1070052,,,,,,,2022-09-02,1,,,,,リスキファイドジャパン,0
2169,9010401169350,新規,0,2022-09-02,2022-09-02,株式会社かずのこ,,株式会社,東京都,港区,南麻布１丁目９番５号,,13,103,1060047,,,,,,,2022-09-02,1,,,,,カズノコ,0
2170,9010401169441,新規,0,2022-09-02,2022-09-02,株式会社輝佳,,株式会社,東京都,港区,赤坂３丁目１７番８号,,13,103,1070052,,,,,,,2022-09-02,1,,,,,アキヨシ,0
2172,9010405021284,新規,0,2022-09-02,2022-09-02,代々木ホールディング２一般社団法人,,その他の設立登記法人,東京都,港区,虎ノ門３丁目２２番１０－２０１号,,13,103,1050001,,,,,,,2022-09-02,1,,,,,ヨヨギホールディングツー,0
2177,9010601061786,新規,0,2022-09-02,2022-09-02,株式会社ＦＵＮＦＡＭＩ,,株式会社,東京都,江東区,永代２丁目１０番１０号,,13,108,1350034,,,,,,,2022-09-02,1,,,,,ファンファミ,0
2178,9010705003412,新規,0,2022-09-02,2022-09-02,一般社団法人日本ＥＣ協会,,その他の設立登記法人,東京都,品川区,北品川３丁目１１番５号１３０６,,13,109,1400001,,,,,,,2022-09-02,1,,,,,ニホンイーシーキョウカイ,0
2180,9010901051545,新規,0,2022-09-02,2022-09-02,Ａｅｒｏｐｏｒｔｏ株式会社,,株式会社,東京都,世田谷区,羽根木１丁目４－１８,,13,112,1560042,,,,,,,2022-09-02,1,,,,,アエロポルト,0
2184,9011001149528,新規,0,2022-09-02,2022-09-02,株式会社日広フリーダム,,株式会社,東京都,渋谷区,神宮前６丁目２３番４号桑野ビル２階,,13,113,1500001,,,,,,,2022-09-02,1,,,,,ニッコウフリーダム,0
2185,9011001149619,新規,0,2022-09-02,2022-09-02,ＰＦ少額短期設立準備株式会社,,株式会社,東京都,目黒区,目黒１丁目２４番１２号,,13,110,1530063,,,,,,,2022-09-02,1,,,,,ピーエフショウガクタンキセツリツジュンビ,0
2187,9011003015307,新規,0,2022-09-02,2022-09-02,コエロ合同会社,,合同会社,東京都,目黒区,碑文谷２丁目１１番６号,,13,110,1520003,,,,,,,2022-09-02,1,,,,,コエロ,0
2191,9011101100043,新規,0,2022-09-02,2022-09-02,株式会社ＳＳＳ,,株式会社,東京都,新宿区,西新宿７丁目４番７号６階Ｂ,,13,104,1600023,,,,,,,2022-09-02,1,,,,,トリプルエス,0
2199,9011501028438,新規,0,2022-09-02,2022-09-02,ＭＯＮＯ株式会社,,株式会社,東京都,北区,昭和町２丁目１番２０ルイシャトレ尾久２０１号,,13,117,1140011,,,,,,,2022-09-02,1,,,,,モノ,0
2209,9012703002528,新規,0,2022-09-02,2022-09-02,合同会社サンドリーム,,合同会社,東京都,東村山市,本町４丁目１０番地１９－２０７,,13,213,1890014,,,,,,,2022-09-02,1,,,,,サンドリーム,0
2218,9013301049606,新規,0,2022-09-02,2022-09-02,ＬＩＮＫ株式会社,,株式会社,東京都,豊島区,目白２丁目４－８,,13,116,1710031,,,,,,,2022-09-02,1,,,,,リンク,0
2222,9020001148027,新規,0,2022-09-02,2022-09-02,株式会社オクタゴン,,株式会社,神奈川県,横浜市旭区,鶴ケ峰本町２丁目２９－１７,,14,112,2410021,,,,,,,2022-09-02,1,,,,,オクタゴン,0
2228,9020003022329,新規,0,2022-09-02,2022-09-02,合同会社ＰＡＤＤＬＩＮＧ,,合同会社,神奈川県,川崎市中原区,木月伊勢町６番２８号,,14,133,2110032,,,,,,,2022-09-02,1,,,,,パドリング,0
2236,9030001149800,新規,0,2022-09-02,2022-09-02,スティミュラス株式会社,,株式会社,埼玉県,さいたま市浦和区,上木崎２丁目７番２７－１２０号,,11,107,3300071,,,,,,,2022-09-02,1,,,,,スティミュラス,0
2237,9030001149890,新規,0,2022-09-02,2022-09-02,双景株式会社,,株式会社,埼玉県,川口市,西川口３丁目３３番３５号若葉荘１０３,,11,203,3320021,,,,,,,2022-09-02,1,,,,,ソウケイ,0
2238,9030001149924,新規,0,2022-09-02,2022-09-02,株式会社ＯｇｉｅｎＣｏｒｐｏｒａｔｉｏｎ,,株式会社,埼玉県,入間郡毛呂山町,岩井西１丁目１１番地３,,11,326,3500465,,,,,,,2022-09-02,1,,,,,オギエンコーポレーション,0
2242,9040001124884,新規,0,2022-09-02,2022-09-02,株式会社ワイシステムエンジ,,株式会社,千葉県,八街市,吉倉２０７番地８９,,12,230,2891133,,,,,,,2022-09-02,1,,,,,エンジエンジ,0
2243,9040001124901,新規,0,2022-09-02,2022-09-02,株式会社Ｂｌｉｓｓｈｏｍｅ,,株式会社,千葉県,野田市,関宿台町２０６０番地９,,12,208,2700202,,,,,,,2022-09-02,1,,,,,ブリスホーム,0
2248,9040003020735,新規,0,2022-09-02,2022-09-02,合同会社ちひろ,,合同会社,千葉県,松戸市,五香７丁目９番５号北丘サニービル１階,,12,207,2702213,,,,,,,2022-09-02,1,,,,,チヒロ,0
2252,9050001051616,新規,0,2022-09-02,2022-09-02,株式会社ＨＮＢ　ＴＲＡＤＩＮＧ,,株式会社,茨城県,下妻市,皆葉９６４番地１,,08,210,3040822,,,,,,,2022-09-02,1,,,,,エチエンビトレーディング,0
2257,9080001025170,新規,0,2022-09-02,2022-09-02,株式会社ヤマケイ塗装,,株式会社,静岡県,島田市,東町１７３番地の２,,22,209,4270011,,,,,,,2022-09-02,1,,,,,ヤマケイトソウ,0
2269,9120001248551,新規,0,2022-09-02,2022-09-02,株式会社ｔａＱｏｓ,,株式会社,大阪府,大阪市西区,立売堀１丁目６番１３号南本町天祥ビル２号館２１４,,27,106,5500012,,,,,,,2022-09-02,1,,,,,タコス,0
2270,9120001248584,新規,0,2022-09-02,2022-09-02,コージーテック株式会社,,株式会社,大阪府,大阪市東住吉区,駒川３丁目１３番１７－２０５,,27,121,5460043,,,,,,,2022-09-02,1,,,,,コージーテック,0
2272,9120003022376,新規,0,2022-09-02,2022-09-02,Ａｃｈｉｅｖｅ合同会社,,合同会社,大阪府,大阪市北区,同心２丁目２－７－６０２号,,27,127,5300035,,,,,,,2022-09-02,1,,,,,アチーブ,0
2275,9120103004836,新規,0,2022-09-02,2022-09-02,合同会社ＵＬＵ,,合同会社,大阪府,堺市中区,平井８７４番地２０,,27,142,5998251,,,,,,,2022-09-02,1,,,,,ウル,0
2277,9120901046435,新規,0,2022-09-02,2022-09-02,株式会社Ｄ．Ｂｕｙｅｒ,,株式会社,大阪府,茨木市,永代町７番１２号フジタビル２階,,27,211,5670816,,,,,,,2022-09-02,1,,,,,ディバイヤー,0
2278,9120903004291,新規,0,2022-09-02,2022-09-02,合同会社トラスト,,合同会社,大阪府,茨木市,太田２丁目１１番２号の１,,27,211,5670018,,,,,,,2022-09-02,1,,,,,トラスト,0
2280,9122003002416,新規,0,2022-09-02,2022-09-02,合同会社ＣＯＣＯＮ,,合同会社,大阪府,四條畷市,岡山東５丁目５番３２号,,27,229,5750003,,,,,,,2022-09-02,1,,,,,ココン,0
2288,9130001072538,新規,0,2022-09-02,2022-09-02,株式会社京きもの花日和,,株式会社,京都府,京都市左京区,高野東開町１番地２３第三住宅３６－３０６,,26,103,6068107,,,,,,,2022-09-02,1,,,,,キョウキモノハナビヨリ,0
2296,9140001127217,新規,0,2022-09-02,2022-09-02,マトリックス株式会社,,株式会社,兵庫県,神戸市中央区,下山手通２丁目１３－３,,28,110,6500011,,,,,,,2022-09-02,1,,,,,マトリックス,0
2297,9140001127225,新規,0,2022-09-02,2022-09-02,株式会社ファン・ファン,,株式会社,兵庫県,明石市,大明石町１丁目７－１１,,28,203,6730891,,,,,,,2022-09-02,1,,,,,ファンファン,0
2298,9140001127241,新規,0,2022-09-02,2022-09-02,株式会社Ｌｅｉ　Ｔｅｃ,,株式会社,兵庫県,神戸市垂水区,舞多聞西７丁目４番８号,,28,108,6550051,,,,,,,2022-09-02,1,,,,,レイテック,0
2299,9140001127274,新規,0,2022-09-02,2022-09-02,株式会社シーフィールド,,株式会社,兵庫県,加古川市,尾上町池田３８４番地,,28,210,6750023,,,,,,,2022-09-02,1,,,,,,0
2303,9160001024478,新規,0,2022-09-02,2022-09-02,株式会社ＴＹ,,株式会社,滋賀県,長浜市,余呉町川並１４０８番地,,25,203,5290523,,,,,,,2022-09-02,1,,,,,ティーワイ,0
2305,9170001017266,新規,0,2022-09-02,2022-09-02,株式会社いとうふぁーむ,,株式会社,和歌山県,有田郡広川町,大字井関７３５番地の１,,30,362,6430055,,,,,,,2022-09-02,1,,,,,イトウファーム,0
2309,9180001152839,新規,0,2022-09-02,2022-09-02,株式会社ＢＩＢＩ　ｓｏｅｕｒｓ．,,株式会社,愛知県,清須市,西枇杷島町大黒８番地,,23,233,4520004,,,,,,,2022-09-02,1,,,,,ビビスール,0
2310,9180001152855,新規,0,2022-09-02,2022-09-02,株式会社滝野自動車,,株式会社,愛知県,瀬戸市,坂上町７４５－３,,23,204,4890977,,,,,,,2022-09-02,1,,,,,タキノジドウシャ,0
2313,9180005019910,新規,0,2022-09-02,2022-09-02,神の家キリスト教会,,その他の設立登記法人,愛知県,大府市,大東町１丁目１６０番地,,23,223,4740023,,,,,,,2022-09-02,1,,,,,カミノイエキリストキョウカイ,0
2314,9180301036584,新規,0,2022-09-02,2022-09-02,株式会社Ｂｉｇ　Ｋｉｄ　Ｂｌｏｃｋｓ　ＪＡＰＡＮ,,株式会社,愛知県,新城市,富岡字三ツ合４０番地,,23,221,4411335,,,,,,,2022-09-02,1,,,,,ビッグキッドブロックスジャパン,0
2319,9190001029730,新規,0,2022-09-02,2022-09-02,アシスト株式会社,,株式会社,三重県,亀山市,阿野田町１６７９番地１,,24,210,5190137,,,,,,,2022-09-02,1,,,,,アシスト,0
2325,9210001019068,新規,0,2022-09-02,2022-09-02,ルネッタバダインターナショナル株式会社,,株式会社,福井県,坂井市,三国町米ケ脇２丁目３－１４－４,,18,210,9130057,,,,,,,2022-09-02,1,,,,,ルネッタバダインターナショナル,0
2331,9240001060283,新規,0,2022-09-02,2022-09-02,株式会社Ｌｕｃｉａ,,株式会社,広島県,福山市,東深津町５丁目１－９,,34,207,7210974,,,,,,,2022-09-02,1,,,,,ルシア,0
2340,9260003004022,新規,0,2022-09-02,2022-09-02,ＳＵＮＮＹ　ＢＬＵＥ　ＪＥＡＮＳ合同会社,,合同会社,岡山県,岡山市南区,大福２０８－１６,,33,104,7010204,,,,,,,2022-09-02,1,,,,,サニーブルージーンズ,0
2346,9290001098765,新規,0,2022-09-02,2022-09-02,株式会社Ｌｕｃｅ,,株式会社,福岡県,福岡市博多区,中洲５丁目５番１６－７０８号,,40,132,8100801,,,,,,,2022-09-02,1,,,,,ルーチェ,0
2347,9290001098773,新規,0,2022-09-02,2022-09-02,パラソル企画株式会社,,株式会社,福岡県,福岡市西区,福重３丁目８番１７－３０９号,,40,135,8190022,,,,,,,2022-09-02,1,,,,,パラソルキカク,0
2354,9290801028855,新規,0,2022-09-02,2022-09-02,株式会社ユニークス,,株式会社,福岡県,直方市,大字畑２８９番地１イーリス虹の丘１０８号,,40,204,8220004,,,,,,,2022-09-02,1,,,,,ユニークス,0
2357,9290803004193,新規,0,2022-09-02,2022-09-02,優誠合同会社,,合同会社,福岡県,北九州市若松区,塩屋１丁目２１番１４号,,40,103,8080131,,,,,,,2022-09-02,1,,,,,ユウセイ,0
2361,9330001030062,新規,0,2022-09-02,2022-09-02,株式会社まつむら,,株式会社,熊本県,熊本市中央区,南坪井町５－１８サウスファイブセカンドビル１Ｆ,,43,101,8600848,,,,,,,2022-09-02,1,,,,,マツムラ,0
2362,9330001030070,新規,0,2022-09-02,2022-09-02,株式会社光華,,株式会社,熊本県,熊本市中央区,新市街７番２０号ヴィレラ辛島６０４,,43,101,8600803,,,,,,,2022-09-02,1,,,,,コウカ,0
2367,9350001017933,新規,0,2022-09-02,2022-09-02,株式会社エムアンドティー,,株式会社,宮崎県,都城市,祝吉３丁目８番地４,,45,202,8850019,,,,,,,2022-09-02,1,,,,,エムアンドティー,0
2369,9360005006709,新規,0,2022-09-02,2022-09-02,一般社団法人価値マーケティング協会,,その他の設立登記法人,沖縄県,国頭郡今帰仁村,字古宇利２３１６番地１,,47,306,9050406,,,,,,,2022-09-02,1,,,,,カチマーケティングキョウカイ,0
2376,9380001033085,新規,0,2022-09-02,2022-09-02,マルイズミ株式会社,,株式会社,福島県,須賀川市,大町２３１番地,,07,207,9620839,,,,,,,2022-09-02,1,,,,,マルイズミ,0
2380,9400003002969,新規,0,2022-09-02,2022-09-02,ユーフォリア合同会社,,合同会社,岩手県,盛岡市,月が丘３丁目５１番２２号,,03,201,0200121,,,,,,,2022-09-02,1,,,,,ユーフォリア,0
2383,9430001087407,新規,0,2022-09-02,2022-09-02,株式会社Ｌｕｎａｊｅｒｕｓａｌｅｍ,,株式会社,北海道,札幌市中央区,南八条西１丁目５番地２－６０２号,,01,101,0640808,,,,,,,2022-09-02,1,,,,,ルナエルサレム,0
2385,9430003014243,新規,0,2022-09-02,2022-09-02,合同会社ＯＭＣＹ,,合同会社,北海道,札幌市北区,北二十三条西４丁目２番３号,,01,102,0010023,,,,,,,2022-09-02,1,,,,,オーエムシーワイ,0
2390,9460103001477,新規,0,2022-09-02,2022-09-02,合同会社ＲＡＤＩＣＡＬ　ＩＮＤＵＳＴＲＩＥＳ,,合同会社,北海道,帯広市,東三条南１０丁目４ソレイユ３１０　３－２,,01,207,0800803,,,,,,,2022-09-02,1,,,,,ラジカルインダストリーズ,0
2394,9500001024435,新規,0,2022-09-02,2022-09-02,株式会社カワバタ宅建,,株式会社,愛媛県,松山市,衣山１丁目１５７番地１,,38,201,7918025,,,,,,,2022-09-02,1,,,,,カワバタタッケン,0
2398,9700150108976,新規,0,2022-09-02,2022-05-24,日本理学療法管理研究会,,その他,東京都,港区,六本木７丁目１１番１０号,,13,103,1060032,,,,,,,2022-05-24,1,,,,,ニホンリガクリヨウホウカンリケンキユウカイ,0
2399,9700150111591,新規,0,2022-09-02,2022-09-02,ＨｅｂｅｉＫｕａｎｇｐａｉＭａｏｙｉＹｏｕｘｉａｎＧｏｎｇｓｉ,,外国会社等,,,,,,,,ＨＥＢＥＩＳＨＥＮＧＳＨＩＪＩＡＺＨＵＡＮＧＺＯＮＧＨＥＢＡＯＳＨＵＩＱＵＧＵＡＮＷＥＩＨＵＩＺＯＮＧＨＥＬＯＵ１＃１６０４,,,,,,2022-09-02,1,,,,,ホーペイクアンパイマオイユウゲンコウシ,0
2400,9700150111600,新規,0,2022-09-02,2022-09-02,ＯＭＭＩ　ＰＲＯＤＵＣＴＳ,,外国会社等,千葉県,柏市,逆井２丁目５番９号プチメゾンミキ－１０１,,12,217,2770042,スリランカ民主社会主義共和国コッタワ州ハイレベル・ロードＮｏ．１５,,,,,,2022-09-02,1,,,,,オンミプロダクツ,0
