sequenceNumber,corporateNumber,process,correct,updateDate,changeDate,name,nameImageId,kind,prefectureName,cityName,streetNumber,addressImageId,prefectureCode,cityCode,postCode,addressOutside,addressOutsideImageId,closeDate,closeCause,successorCorporateNumber,changeCause,assignmentDate,latest,enName,enPrefectureName,enCityName,enAddressOutside,furigana,hihyoji
10,1010001259220,新規,0,2025-10-14,2025-10-14,株式会社ＣＯＲＥ,,株式会社,東京都,千代田区,麹町２丁目５番４号第二押田ビル２階,,13,101,1020083,,,,,,,2025-10-14,1,,,,,コア,0
11,1010001259286,新規,0,2025-10-14,2025-10-14,株式会社ウィライト,,株式会社,東京都,千代田区,神田多町２丁目６－２,,13,101,1010046,,,,,,,2025-10-14,1,,,,,ウィライト,0
12,1010001259328,新規,0,2025-10-14,2025-10-14,ＭｉｒｅａＬｉｎｋ株式会社,,株式会社,東京都,千代田区,神田和泉町１番地６－１６ヤマトビル４０５,,13,101,1010024,,,,,,,2025-10-14,1,,,,,ミレアリンク,0
13,1010001259369,新規,0,2025-10-14,2025-10-14,株式会社ＨＡＲＥＲＵ,,株式会社,東京都,中央区,銀座６丁目１０番１号ＧＩＮＺＡＳＩＸ１３Ｆ,,13,102,1040061,,,,,,,2025-10-14,1,,,,,ハレル,0
16,1010003048968,新規,0,2025-10-14,2025-10-14,合同会社あかつき,,合同会社,東京都,中央区,日本橋室町１丁目１１番１２号日本橋水野ビル７階,,13,102,1030022,,,,,,,2025-10-14,1,,,,,アカツキ,0
17,1010003049017,新規,0,2025-10-14,2025-10-14,リョーマ合同会社３,,合同会社,東京都,千代田区,霞が関３丁目２番５号,,13,101,1000013,,,,,,,2025-10-14,1,,,,,リョーマスリー,0
18,1010003049025,新規,0,2025-10-14,2025-10-14,合同会社聖橋メディカルアセット,,合同会社,東京都,文京区,湯島１丁目９番１４－６０３号プチモンドお茶の水,,13,105,1130034,,,,,,,2025-10-14,1,,,,,ヒジリバシメディカルアセット,0
20,1010101016901,新規,0,2025-10-14,2025-10-14,ＫＲＳコンサルティング株式会社,,株式会社,東京都,八王子市,楢原町３６１番地４、３Ｆ,,13,201,1930803,,,,,,,2025-10-14,1,,,,,ケーアールエスコンサルティング,0
28,1010401193440,新規,0,2025-10-14,2025-10-14,株式会社メディパ,,株式会社,東京都,港区,南青山２丁目２番１５号,,13,103,1070062,,,,,,,2025-10-14,1,,,,,メディパ,0
29,1010401193457,新規,0,2025-10-14,2025-10-14,株式会社Ｖａｌｕｓｔｅｃｈ,,株式会社,東京都,港区,芝３丁目１３番８号ＷＯＷＫ芝公園ビル５Ｆ,,13,103,1050014,,,,,,,2025-10-14,1,,,,,バリュステック,0
30,1010401193647,新規,0,2025-10-14,2025-10-14,メタルフォージ株式会社,,株式会社,東京都,港区,北青山２丁目７番１３号プラセオ青山ビル３Ｆ,,13,103,1070061,,,,,,,2025-10-14,1,,,,,メタルフォージ,0
31,1010401193671,新規,0,2025-10-14,2025-10-14,株式会社ＳＡＬＴ,,株式会社,東京都,港区,南青山２丁目１５番５号ＦＡＲＯ青山,,13,103,1070062,,,,,,,2025-10-14,1,,,,,ソルト,0
32,1010401193705,新規,0,2025-10-14,2025-10-14,株式会社リアース,,株式会社,東京都,港区,浜松町２丁目３番８号１１階,,13,103,1050013,,,,,,,2025-10-14,1,,,,,リアース,0
36,1010403036168,新規,0,2025-10-14,2025-10-14,日米不動産ゲートウェイ合同会社,,合同会社,東京都,港区,南青山１丁目２０番２号,,13,103,1070062,,,,,,,2025-10-14,1,,,,,ニチベイフドウサンゲートウェイ,0
39,1010501054848,新規,0,2025-10-14,2025-10-14,株式会社ロータスリフティング,,株式会社,東京都,台東区,上野６丁目１－６御徒町グリーンハイツ１００５号,,13,106,1100005,,,,,,,2025-10-14,1,,,,,ロータスリフティング,0
40,1010501054864,新規,0,2025-10-14,2025-10-14,株式会社ＩＧＯ,,株式会社,東京都,台東区,清川２丁目１４番３号,,13,106,1110022,,,,,,,2025-10-14,1,,,,,アイジーオー,0
41,1010501054872,新規,0,2025-10-14,2025-10-14,株式会社モスモス,,株式会社,東京都,台東区,浅草橋５丁目１―３１ロッキービル３Ｆ,,13,106,1110053,,,,,,,2025-10-14,1,,,,,モスモス,0
42,1010503008034,新規,0,2025-10-14,2025-10-14,合同会社ＳＯＬＡＥＲ　ＪＡＰＡＮ,,合同会社,東京都,台東区,上野７丁目３－９－４１０アルベルゴ上野,,13,106,1100005,,,,,,,2025-10-14,1,,,,,ソラエルジャパン,0
47,1010803005565,新規,0,2025-10-14,2025-10-14,Ａ．Ｃ．Ｅ．Ｅｎｔｅｒｔａｉｎｍｅｎｔ合同会社,,合同会社,東京都,大田区,蒲田５丁目３４番５号,,13,111,1440052,,,,,,,2025-10-14,1,,,,,エースエンターテイメント,0
48,1010903010333,新規,0,2025-10-14,2025-10-14,合同会社べるテンポ,,合同会社,東京都,世田谷区,成城２丁目５番１３―２０７号,,13,112,1570066,,,,,,,2025-10-14,1,,,,,ベルテンポ,0
51,1011001173147,新規,0,2025-10-14,2025-10-14,未来構想コンサルティング株式会社,,株式会社,東京都,目黒区,青葉台２丁目１３番９号,,13,110,1530042,,,,,,,2025-10-14,1,,,,,ミライコウソウコンサルティング,0
53,1011003022491,新規,0,2025-10-14,2025-10-14,合同会社アンドリンク,,合同会社,東京都,渋谷区,神泉町２４番１－５０１号,,13,113,1500045,,,,,,,2025-10-14,1,,,,,アンドリンク,0
63,1011201026690,新規,0,2025-10-14,2025-10-14,介護タクシーぷらすはーと株式会社,,株式会社,東京都,中野区,本町３丁目２８－１６ＯＭＳビル２Ｆ,,13,114,1640012,,,,,,,2025-10-14,1,,,,,カイゴタクシープラスハート,0
64,1011203004843,新規,0,2025-10-14,2025-10-14,合同会社Ｙ’ｓ　Ｖｏｉｃｅ　Ｌａｂｏ,,合同会社,東京都,中野区,中央４丁目２１番１号ラシクラス新中野８０１,,13,114,1640011,,,,,,,2025-10-14,1,,,,,ワイズボイスラボ,0
65,1011301030956,新規,0,2025-10-14,2025-10-14,アップフォワードＷＳ株式会社,,株式会社,東京都,杉並区,和泉２丁目３３－２２山川ビル３０３,,13,115,1680063,,,,,,,2025-10-14,1,,,,,アップフォワードワークショップ,0
66,1011301030964,新規,0,2025-10-14,2025-10-14,スコープン株式会社,,株式会社,東京都,杉並区,和泉２丁目１３番３０号,,13,115,1680063,,,,,,,2025-10-14,1,,,,,スコープン,0
73,1011501032694,新規,0,2025-10-14,2025-10-14,株式会社大吉地所,,株式会社,東京都,北区,神谷３丁目５６番７－２０５号,,13,117,1150043,,,,,,,2025-10-14,1,,,,,ダイキチジショ,0
77,1011601029070,新規,0,2025-10-14,2025-10-14,株式会社クレイデン,,株式会社,東京都,練馬区,上石神井１丁目３３番２４号,,13,120,1770044,,,,,,,2025-10-14,1,,,,,クレイデン,0
78,1011601029079,新規,0,2025-10-14,2025-10-14,株式会社サザンソフト,,株式会社,東京都,練馬区,大泉町１丁目２８－４７,,13,120,1780062,,,,,,,2025-10-14,1,,,,,サザンソフト,0
83,1012405005175,新規,0,2025-10-14,2025-10-14,一般社団法人新化茶法文化協会,,その他の設立登記法人,東京都,小金井市,中町１丁目８番２０号,,13,210,1840012,,,,,,,2025-10-14,1,,,,,シンカチャホウブンカキョウカイ,0
84,1012701019127,新規,0,2025-10-14,2025-10-14,株式会社ＡＺＡＬＥＡ,,株式会社,東京都,東久留米市,中央町３丁目２２番４１号,,13,222,2030054,,,,,,,2025-10-14,1,,,,,アザリア,0
99,1020001165269,新規,0,2025-10-14,2025-10-14,グリーンスタイル株式会社,,株式会社,神奈川県,横浜市戸塚区,矢部町１３７１番地７ベルハイツ神明台２０１号,,14,110,2440002,,,,,,,2025-10-14,1,,,,,グリーンスタイル,0
104,1020003029554,新規,0,2025-10-14,2025-10-14,合同会社プチフレール,,合同会社,神奈川県,川崎市川崎区,東田町１－１,,14,131,2100005,,,,,,,2025-10-14,1,,,,,プチフレール,0
106,1021001086562,新規,0,2025-10-14,2025-10-14,株式会社ガイモンリビルド,,株式会社,神奈川県,相模原市中央区,宮下本町１丁目３２番２８－４号,,14,152,2520211,,,,,,,2025-10-14,1,,,,,ガイモンリビルド,0
112,1030001168972,新規,0,2025-10-14,2025-10-14,株式会社マミーマート,,株式会社,埼玉県,東松山市,本町２丁目２番４７号,,11,212,3550015,,,,,,,2025-10-14,1,,,,,マミーマート,0
113,1030001169194,新規,0,2025-10-14,2025-10-14,株式会社ＳＵＲ,,株式会社,埼玉県,川口市,戸塚２丁目７番１６－２０１号ロイヤルヒルズ,,11,203,3330811,,,,,,,2025-10-14,1,,,,,スル,0
116,1030003027846,新規,0,2025-10-14,2025-10-14,合同会社ＧＫＫ,,合同会社,埼玉県,鴻巣市,宮前４１番地３,,11,217,3650051,,,,,,,2025-10-14,1,,,,,,0
118,1040001140732,新規,0,2025-10-14,2025-10-14,株式会社石井興業,,株式会社,千葉県,四街道市,みそら１丁目４番７号,,12,228,2840023,,,,,,,2025-10-14,1,,,,,イシイコウギョウ,0
121,1050005013710,新規,0,2025-10-14,2025-10-14,一般社団法人古河防災士ネットワーク,,その他の設立登記法人,茨城県,古河市,女沼１７４３番地１３,,08,204,3060226,,,,,,,2025-10-14,1,,,,,コガボウサイシネットワーク,0
123,1060003005808,新規,0,2025-10-14,2025-10-14,ＴＵＦＡＩＬ　ＴＲＡＤＩＮＧ合同会社,,合同会社,栃木県,小山市,若木町２丁目１３番９号,,09,208,3230028,,,,,,,2025-10-14,1,,,,,トゥフェイルトレーディング,0
124,1070001043437,新規,0,2025-10-14,2025-10-14,株式会社斉藤設備工事,,株式会社,群馬県,伊勢崎市,境伊与久２４１７番地８,,10,204,3700105,,,,,,,2025-10-14,1,,,,,サイトウセツビコウジ,0
129,1070005010433,新規,0,2025-10-14,2025-10-14,一般社団法人藍ＬＯＶＥ,,その他の設立登記法人,群馬県,高崎市,中大類町３６２番地１２,,10,202,3700033,,,,,,,2025-10-14,1,,,,,アイラブ,0
144,1120001280727,新規,0,2025-10-14,2025-10-14,心和株式会社,,株式会社,大阪府,大阪市東成区,大今里南１丁目２２番１４号今里ビル３０５,,27,115,5370013,,,,,,,2025-10-14,1,,,,,シンワ,0
145,1120001280743,新規,0,2025-10-14,2025-10-14,ＦＬＹＫＳ株式会社,,株式会社,大阪府,大阪市北区,梅田１丁目１－３大阪駅前第３ビル２９階１－１－１号室,,27,127,5300001,,,,,,,2025-10-14,1,,,,,フライクス,0
146,1120001280826,新規,0,2025-10-14,2025-10-14,Ｎｅｏｎ　Ｍｉｒａｇｅ　Ｅｎｔｅｒｔａｉｎｍｅｎｔ株式会社,,株式会社,大阪府,大阪市大正区,三軒家東１丁目６－１４－１００６,,27,108,5510002,,,,,,,2025-10-14,1,,,,,ネオンミラージュエンターテインメント,0
147,1120001281089,新規,0,2025-10-14,2025-10-14,天奥株式会社,,株式会社,大阪府,大阪市東住吉区,中野４丁目１番１６号サラオリエンテ中野６０５Ａ,,27,121,5460012,,,,,,,2025-10-14,1,,,,,テンオク,0
148,1120001281196,新規,0,2025-10-14,2025-10-14,南井商事株式会社,,株式会社,大阪府,大阪市北区,中崎２丁目５番８－１４０５号,,27,127,5300016,,,,,,,2025-10-14,1,,,,,ミナミイショウジ,0
151,1120003030824,新規,0,2025-10-14,2025-10-14,合同会社Ｍ＆Ｔ,,合同会社,大阪府,大阪市生野区,鶴橋４丁目５番１号クレイン発春２０８号,,27,116,5440031,,,,,,,2025-10-14,1,,,,,エムアンドティー,0
152,1120003030881,新規,0,2025-10-14,2025-10-14,ヒロキ合同会社,,合同会社,大阪府,大阪市中央区,高津２丁目３－１６－３０４室,,27,128,5420072,,,,,,,2025-10-14,1,,,,,ヒロキ,0
153,1120005025211,新規,0,2025-10-14,2025-10-14,一般社団法人ＮＩＫＫＥＮ　ＮＥＸＴ,,その他の設立登記法人,大阪府,大阪市北区,梅田１丁目１－３大阪駅前第３ビル２９階１－１－１号室,,27,127,5300001,,,,,,,2025-10-14,1,,,,,ニッケンネクスト,0
156,1120101072628,新規,0,2025-10-14,2025-10-14,株式会社ＧＳ,,株式会社,大阪府,堺市堺区,三条通１番２号,,27,141,5900046,,,,,,,2025-10-14,1,,,,,ジーエス,0
158,1120901051599,新規,0,2025-10-14,2025-10-14,株式会社Ｒ．Ｅ．Ｕｅｄａ,,株式会社,大阪府,摂津市,鳥飼下３丁目４５番１８号,,27,224,5660071,,,,,,,2025-10-14,1,,,,,アールイーウエダ,0
159,1120901051649,新規,0,2025-10-14,2025-10-14,株式会社サンリュミエール,,株式会社,大阪府,高槻市,沢良木町１６番２７号,,27,207,5690084,,,,,,,2025-10-14,1,,,,,サンリュミエール,0
161,1120903005900,新規,0,2025-10-14,2025-10-14,行和サービス合同会社,,合同会社,大阪府,池田市,旭丘２丁目８番１９号,,27,204,5630022,,,,,,,2025-10-14,1,,,,,コウワサービス,0
167,1130001080746,新規,0,2025-10-14,2025-10-14,Ｂｅａｕｔｉｆｕｌ　Ｈｕｍａｎｓ株式会社,,株式会社,京都府,京都市中京区,御池通東洞院東入笹屋町４３６永和御池ビル６０６号,,26,104,6048187,,,,,,,2025-10-14,1,,,,,ビューティフルヒューマンズ,0
168,1130001080787,新規,0,2025-10-14,2025-10-14,株式会社ＭＡＫＵＲＩ　ＤＩＲＥＣＴＩＯＮ,,株式会社,京都府,京都市下京区,松原通烏丸西入ル玉津島町２９４番地,,26,106,6000000,,,,,,,2025-10-14,1,,,,,マクリディレクション,0
175,1140001140359,新規,0,2025-10-14,2025-10-14,株式会社ＩＫＣ,,株式会社,兵庫県,神戸市中央区,中山手通２丁目２１番９号,,28,110,6500004,,,,,,,2025-10-14,1,,,,,アイケーシー,0
179,1140003022712,新規,0,2025-10-14,2025-10-14,合同会社ＡＭＡＧＯＯ,,合同会社,兵庫県,尼崎市,東大物町２丁目５番１２号,,28,202,6600828,,,,,,,2025-10-14,1,,,,,,0
183,1160001027109,新規,0,2025-10-14,2025-10-14,株式会社ソバエル,,株式会社,滋賀県,近江八幡市,桜宮町２８９番地,,25,204,5230893,,,,,,,2025-10-14,1,,,,,ソバエル,0
184,1170002008916,新規,0,2025-10-14,2025-10-14,有限会社太郎の店,,有限会社,和歌山県,田辺市,湊１０７３番地,,30,206,6460031,,,,,,,2025-10-14,1,,,,,タロウノミセ,0
185,1170003002323,新規,0,2025-10-14,2025-10-14,Ｋｕｍａｎｏ　Ｋｏｄｏ　Ｔｒｅｋｋｉｎｇ　ａｎｄ　Ｂｅｙｏｎｄ合同会社,,合同会社,和歌山県,田辺市,中辺路町高原８０７番地,,30,206,6461416,,,,,,,2025-10-14,1,,,,,クマノコドウトレッキングアンドビヨンド,0
197,1180001168909,新規,0,2025-10-14,2025-10-14,Ｋｅｌｉ　Ａｕｔｏｍｏｔｉｖｅ　Ｐａｒｔｓ　Ｊａｐａｎ株式会社,,株式会社,愛知県,名古屋市西区,名駅２丁目３４番１７号セントラル名古屋１１０１号,,23,104,4510045,,,,,,,2025-10-14,1,,,,,クーリーオートモーティブパーツジャパン,0
198,1180001169015,新規,0,2025-10-14,2025-10-14,日本＿氏株式会社,00141072,株式会社,愛知県,名古屋市港区,藤前４丁目２１３番地,,23,111,4550855,,,,,,,2025-10-14,1,,,,,ニホンコウシ,0
204,1180003029200,新規,0,2025-10-14,2025-10-14,ＹＲプランニング合同会社,,合同会社,愛知県,名古屋市天白区,表山３丁目１４０４番地の６,,23,116,4680069,,,,,,,2025-10-14,1,,,,,ワイアールプランニング,0
209,1200001044339,新規,0,2025-10-14,2025-10-14,株式会社Ｓ＆Ｐ,,株式会社,岐阜県,大垣市,万石３丁目５９番地,,21,202,5030812,,,,,,,2025-10-14,1,,,,,エスアンドピー,0
217,1220001026970,新規,0,2025-10-14,2025-10-14,かるみ不動産管理株式会社,,株式会社,石川県,加賀市,潮津町チ１１番地,,17,206,9220411,,,,,,,2025-10-14,1,,,,,カルミフドウサンカンリ,0
218,1220003004140,新規,0,2025-10-14,2025-10-14,合同会社和心ｎｉｃｏ,,合同会社,石川県,白山市,道法寺町ニ２９番地７,,17,210,9202162,,,,,,,2025-10-14,1,,,,,ニコ,0
219,1230003002515,新規,0,2025-10-14,2025-10-14,Ｂｌｕｅ　Ｈｏｒｉｚｏｎ　Ｓｋｙｗａｒｄ合同会社,,合同会社,富山県,射水市,緑町８番６号,,16,211,9340014,,,,,,,2025-10-14,1,,,,,ブルーホライズンスカイワード,0
223,1240005016000,新規,0,2025-10-14,2025-10-14,一般社団法人いじめ・ハラスメント被害保護者会ヨリドコロの会,,その他の設立登記法人,広島県,広島市西区,上天満町１０番６－３０１号,,34,104,7330021,,,,,,,2025-10-14,1,,,,,イジメハラスメントヒガイホゴシャカイヨリドコロノカイ,0
226,1280003001999,新規,0,2025-10-14,2025-10-14,合同会社山登,,合同会社,島根県,松江市,八束町波入６１９番地,,32,201,6901404,,,,,,,2025-10-14,1,,,,,ヤマト,0
228,1290001111915,新規,0,2025-10-14,2025-10-14,株式会社アレックス,,株式会社,福岡県,福岡市博多区,博多駅中央街８－１ＪＲＪＰ博多ビル３Ｆ,,40,132,8120012,,,,,,,2025-10-14,1,,,,,アレックス,0
231,1290801031949,新規,0,2025-10-14,2025-10-14,株式会社新成,,株式会社,福岡県,京都郡苅田町,大字谷３７３番地,,40,621,8000335,,,,,,,2025-10-14,1,,,,,シンセイ,0
232,1300003002359,新規,0,2025-10-14,2025-10-14,Ｓ＆Ｃ合同会社,,合同会社,佐賀県,鳥栖市,本鳥栖町６３３番地１０ＴＨＥＴＯＳＵＴＯＷＥＲＴＷＥＮＴＹ３０５,,41,203,8410026,,,,,,,2025-10-14,1,,,,,エスアンドシー,0
235,1320001021383,新規,0,2025-10-14,2025-10-14,株式会社ルルテラス,,株式会社,大分県,別府市,野口中町１１３４番地１,,44,202,8740932,,,,,,,2025-10-14,1,,,,,ルルテラス,0
236,1340001027718,新規,0,2025-10-14,2025-10-14,株式会社美導,,株式会社,鹿児島県,霧島市,隼人町内山田１丁目８番１０号２Ｆ,,46,218,8995106,,,,,,,2025-10-14,1,,,,,ビドウ,0
238,1350001019763,新規,0,2025-10-14,2025-10-14,株式会社Ｓｅｒｅｎｄｉｐｉｔｙ,,株式会社,宮崎県,延岡市,富美山町５２５番地４メイシャンロード３０２,,45,203,8820051,,,,,,,2025-10-14,1,,,,,セレンディピティ,0
244,1370003007335,新規,0,2025-10-14,2025-10-14,合同会社中島電気エンジニアリング,,合同会社,宮城県,仙台市若林区,大和町５丁目２５番２５－８０５号,,04,103,9840042,,,,,,,2025-10-14,1,,,,,ナカジマデンキエンジニアリング,0
249,1410001014295,新規,0,2025-10-14,2025-10-14,株式会社天洋酒店,,株式会社,秋田県,能代市,大町８番１６号,,05,202,0160803,,,,,,,2025-10-14,1,,,,,テンヨウサケテン,0
253,1430001095425,新規,0,2025-10-14,2025-10-14,株式会社シビル・サポ,,株式会社,北海道,札幌市白石区,北郷四条１２丁目４番４号,,01,104,0030834,,,,,,,2025-10-14,1,,,,,シビルサポ,0
265,1500001026579,新規,0,2025-10-14,2025-10-14,株式会社新和アセットマネジメント,,株式会社,愛媛県,松山市,北吉田町２３９番地,,38,201,7918041,,,,,,,2025-10-14,1,,,,,シンワアセットマネジメント,0
283,2010001259302,新規,0,2025-10-14,2025-10-14,Ｌｕｍｉｅｕｒ株式会社,,株式会社,東京都,中央区,銀座１丁目２２番１１号銀座大竹ビジデンス２Ｆ,,13,102,1040061,,,,,,,2025-10-14,1,,,,,ルミュール,0
284,2010001259319,新規,0,2025-10-14,2025-10-14,株式会社レザンビジーブル,,株式会社,東京都,中央区,晴海１丁目８番１０号晴海アイランドトリトンスクエアオフィスタワーＸ棟５階,00141094,13,102,1040053,,,,,,,2025-10-14,1,,,,,レザンビジーブル,0
285,2010001259368,新規,0,2025-10-14,2025-10-14,楽昌株式会社,,株式会社,東京都,千代田区,神田佐久間町３丁目２８番地星野ビル,,13,101,1010025,,,,,,,2025-10-14,1,,,,,ラクショウ,0
286,2010001259376,新規,0,2025-10-14,2025-10-14,ＩＢＯマネジメント株式会社,,株式会社,東京都,中央区,日本橋浜町２丁目６０番３号グローリー日本橋１０１,,13,102,1030007,,,,,,,2025-10-14,1,,,,,アイビーオーマネジメント,0
287,2010001259384,新規,0,2025-10-14,2025-10-14,ＡＲＩＡ　Ａｎｎｅｘ株式会社,,株式会社,東京都,中央区,銀座７丁目７番６号,,13,102,1040061,,,,,,,2025-10-14,1,,,,,アリアアネックス,0
288,2010001259392,新規,0,2025-10-14,2025-10-14,駿馬株式会社,,株式会社,東京都,中央区,日本橋浜町２丁目５５－７の５Ｆ,,13,102,1030007,,,,,,,2025-10-14,1,,,,,シュンメ,0
290,2010003048975,新規,0,2025-10-14,2025-10-14,合同会社ネイビーワン,,合同会社,東京都,中央区,日本橋蛎殻町１丁目１９番８－１００３号,,13,102,1030014,,,,,,,2025-10-14,1,,,,,ネイビーワン,0
291,2010003049032,新規,0,2025-10-14,2025-10-14,ＴＴＲＭ合同会社,,合同会社,東京都,中央区,勝どき４丁目６番１－４８２２号,,13,102,1040054,,,,,,,2025-10-14,1,,,,,ティティアールエム,0
292,2010003049040,新規,0,2025-10-14,2025-10-14,函館寅沢ウインド合同会社,,合同会社,東京都,千代田区,永田町２丁目１１番１号山王パークタワー２１階,,13,101,1000014,,,,,,,2025-10-14,1,,,,,ハコダテトラサワウインド,0
297,2010401193571,新規,0,2025-10-14,2025-10-14,Ｅｄｇｅ　ｏｎ　Ｍｏｖｅ株式会社,,株式会社,東京都,港区,北青山１丁目３番１号アールキューブ青山３階,,13,103,1070061,,,,,,,2025-10-14,1,,,,,エッジオンムーブ,0
298,2010401193588,新規,0,2025-10-14,2025-10-14,Ｔｏｐ　Ｓｅｌｌｅｒ　Ａｄｖａｎｃｅ株式会社,,株式会社,東京都,港区,新橋２丁目１６番１号ニュー新橋ビル９０３Ｂ,,13,103,1050004,,,,,,,2025-10-14,1,,,,,トップセラーアドバンス,0
299,2010401193638,新規,0,2025-10-14,2025-10-14,青山堀不動産株式会社,,株式会社,東京都,港区,北青山３丁目５番１８号,,13,103,1070061,,,,,,,2025-10-14,1,,,,,アオヤマホリフドウサン,0
300,2010401193679,新規,0,2025-10-14,2025-10-14,株式会社ｎｅｏｒａ,,株式会社,東京都,港区,南青山１丁目１５番９号第４５興和ビルＢ１Ｆ,,13,103,1070062,,,,,,,2025-10-14,1,,,,,ネオラ,0
302,2010403036183,新規,0,2025-10-14,2025-10-14,Ａｕｇｕｓｔａ　Ｌｉｆｅ　Ｓｃｉｅｎｃｅｓ　Ｊａｐａｎ合同会社,,合同会社,東京都,港区,赤坂４丁目１５番１号,,13,103,1070052,,,,,,,2025-10-14,1,,,,,オーガスタライフサイエンシズジャパン,0
303,2010403036274,新規,0,2025-10-14,2025-10-14,栄インベストメント合同会社,,合同会社,東京都,港区,元赤坂１丁目１番７－１２０９号株式会社赤坂国際会計内,,13,103,1070051,,,,,,,2025-10-14,1,,,,,サカエインベストメント,0
305,2010601068111,新規,0,2025-10-14,2025-10-14,ｋｔｓｓ株式会社,,株式会社,東京都,江東区,東雲１丁目９番３１－３７０８号,,13,108,1350062,,,,,,,2025-10-14,1,,,,,キス,0
307,2010603011853,新規,0,2025-10-14,2025-10-14,ＨＣコンサルティング合同会社,,合同会社,東京都,江東区,有明１丁目３－１－１０１９,,13,108,1350063,,,,,,,2025-10-14,1,,,,,エイチシーコンサルティング,0
313,2010805003211,新規,0,2025-10-14,2025-10-14,一般社団法人ＯｗｎｅｒｓＣｌｕｂ,,その他の設立登記法人,東京都,大田区,東糀谷３丁目４番９号,,13,111,1440033,,,,,,,2025-10-14,1,,,,,オーナーズクラブ,0
314,2010901058241,新規,0,2025-10-14,2025-10-14,レゴリスコンサルティング株式会社,,株式会社,東京都,世田谷区,太子堂４丁目１８番１５号マガザン三軒茶屋２－３Ｆ－３,,13,112,1540004,,,,,,,2025-10-14,1,,,,,レゴリスコンサルティング,0
320,2011001172635,新規,0,2025-10-14,2025-10-14,株式会社再生子,,株式会社,東京都,目黒区,中目黒３丁目６番２号,,13,110,1530061,,,,,,,2025-10-14,1,,,,,サイセイコ,0
321,2011001172668,新規,0,2025-10-14,2025-10-14,株式会社メディエーター,,株式会社,東京都,渋谷区,広尾１丁目１３番１号フジキカイ広尾ビル５Ｆ,,13,113,1500012,,,,,,,2025-10-14,1,,,,,メディエーター,0
322,2011001172874,新規,0,2025-10-14,2025-10-14,株式会社ＲＩＯ,,株式会社,東京都,目黒区,自由が丘１丁目２６番１３号キューブ自由が丘４階,,13,110,1520035,,,,,,,2025-10-14,1,,,,,リオ,0
324,2011003022540,新規,0,2025-10-14,2025-10-14,合同会社スカイシェル,,合同会社,東京都,目黒区,碑文谷５丁目２０番７号,,13,110,1520003,,,,,,,2025-10-14,1,,,,,スカイシェル,0
325,2011005011194,新規,0,2025-10-14,2025-10-14,一般社団法人こっこぴあ,,その他の設立登記法人,東京都,渋谷区,恵比寿西２丁目４ウィンド恵比寿ビル８Ｆ,,13,113,1500021,,,,,,,2025-10-14,1,,,,,コッコピア,0
330,2011101113456,新規,0,2025-10-14,2025-10-14,株式会社ＭＹＳＩＧ,,株式会社,東京都,新宿区,西新宿３丁目３番１３号西新宿水間ビル２Ｆ,,13,104,1600023,,,,,,,2025-10-14,1,,,,,ミューシグ,0
331,2011101113489,新規,0,2025-10-14,2025-10-14,株式会社メタワークス,,株式会社,東京都,新宿区,西新宿３丁目２番７号ＫＤＸ新宿ビル,,13,104,1600023,,,,,,,2025-10-14,1,,,,,メタワークス,0
332,2011101113605,新規,0,2025-10-14,2025-10-14,ＳＡＢＲ　ＲＩＳＥ株式会社,,株式会社,東京都,新宿区,百人町２丁目２１番２８号クラ３３ビル１０１,,13,104,1690073,,,,,,,2025-10-14,1,,,,,サブルライズ,0
334,2011103016459,新規,0,2025-10-14,2025-10-14,合同会社Ｔｏｋｙｏ　Ｔｏｔａｌ　Ｍａｎａｇｅｍｅｎｔ,,合同会社,東京都,新宿区,西新宿５丁目６番１号パークタワー西新宿３９０７号室,,13,104,1600023,,,,,,,2025-10-14,1,,,,,トウキョウトータルマネジメント,0
339,2011301030955,新規,0,2025-10-14,2025-10-14,株式会社はらだ,,株式会社,東京都,杉並区,和田３丁目３０番２５号,,13,115,1660012,,,,,,,2025-10-14,1,,,,,ハラダ,0
340,2011301030963,新規,0,2025-10-14,2025-10-14,一級建築士事務所エスアンドエス株式会社,,株式会社,東京都,杉並区,成田東５丁目３９番１１号,,13,115,1660015,,,,,,,2025-10-14,1,,,,,イッキュケンチクシジムショエスアンドエス,0
344,2011503006737,新規,0,2025-10-14,2025-10-14,合同会社結楽,,合同会社,東京都,北区,昭和町１丁目１番９号アーリアシティ尾久３０１,,13,117,1140011,,,,,,,2025-10-14,1,,,,,ユラク,0
348,2011801046889,新規,0,2025-10-14,2025-10-14,山口工業株式会社,,株式会社,東京都,足立区,関原２丁目１１番１１号,,13,121,1230852,,,,,,,2025-10-14,1,,,,,ヤマクチコウギョウ,0
350,2012401043698,新規,0,2025-10-14,2025-10-14,株式会社ＡＵＲＡ,,株式会社,東京都,狛江市,猪方２丁目５番７号,,13,219,2010015,,,,,,,2025-10-14,1,,,,,アウラ,0
355,2012403007395,新規,0,2025-10-14,2025-10-14,合同会社Ｂｅｇｉｎ,,合同会社,東京都,府中市,府中町１丁目８－１府中駅前ビルＢ１,,13,206,1830055,,,,,,,2025-10-14,1,,,,,ビギン,0
356,2012701019126,新規,0,2025-10-14,2025-10-14,株式会社英管財,,株式会社,東京都,西東京市,下保谷４丁目１番２５－２０４号,,13,229,2020004,,,,,,,2025-10-14,1,,,,,ハナブサカンザイ,0
357,2012803003903,新規,0,2025-10-14,2025-10-14,合同会社Ｍｕｓｈｉａ　Ｇｒｅｅｎ,,合同会社,東京都,立川市,幸町３丁目３４番地の３ラ・ベレッツァフェリオ５０５,,13,202,1900002,,,,,,,2025-10-14,1,,,,,ムシアグリーン,0
368,2020003029553,新規,0,2025-10-14,2025-10-14,ＢＬＵＫＥ合同会社,,合同会社,神奈川県,横浜市西区,北幸２丁目１０－４８むつみビル３階,,14,103,2200004,,,,,,,2025-10-14,1,,,,,ブルーク,0
369,2020003029561,新規,0,2025-10-14,2025-10-14,合同会社グランフォレスト,,合同会社,神奈川県,横浜市都筑区,中川５丁目１４番４号セントラルヴィラＡ２０２,,14,118,2240001,,,,,,,2025-10-14,1,,,,,グランフォレスト,0
370,2020003029628,新規,0,2025-10-14,2025-10-14,合同会社ＥＡＳＥ,,合同会社,神奈川県,川崎市多摩区,三田１丁目１２番地１号‐ネオグリーンヒルズ１０１,,14,135,2140034,,,,,,,2025-10-14,1,,,,,イーズ,0
374,2021003016698,新規,0,2025-10-14,2025-10-14,合同会社縁,,合同会社,神奈川県,横須賀市,米が浜通２丁目３番,,14,201,2380011,,,,,,,2025-10-14,1,,,,,エニシ,0
381,2030001169061,新規,0,2025-10-14,2025-10-14,株式会社ＰｒｏｓＰｅｃｔ,,株式会社,埼玉県,川口市,大字安行吉蔵３０１番地の３３,,11,203,3340053,,,,,,,2025-10-14,1,,,,,プロスペクト,0
382,2030001169111,新規,0,2025-10-14,2025-10-14,株式会社わらしべ,,株式会社,埼玉県,所沢市,くすのき台１丁目１０－７肥沼ビル３Ｆ,,11,208,3590037,,,,,,,2025-10-14,1,,,,,ワラシベ,0
383,2030001169185,新規,0,2025-10-14,2025-10-14,里美ファーム株式会社,,株式会社,埼玉県,行田市,大字埼玉１１２５番地,,11,206,3610025,,,,,,,2025-10-14,1,,,,,サトミファーム,0
384,2030001169193,新規,0,2025-10-14,2025-10-14,ハックトレーディング株式会社,,株式会社,埼玉県,八潮市,大字鶴ケ曽根８２２－５町田荘Ｂ２０２,,11,234,3400802,,,,,,,2025-10-14,1,,,,,ハックトレーディング,0
385,2030001169202,新規,0,2025-10-14,2025-10-14,縁住設株式会社,,株式会社,埼玉県,さいたま市見沼区,大字小深作５０２番地７,,11,104,3370005,,,,,,,2025-10-14,1,,,,,ユカリジュウセツ,0
394,2040001140863,新規,0,2025-10-14,2025-10-14,株式会社Ａｅｒｅ,,株式会社,千葉県,千葉市稲毛区,弥生町１番３３号千葉大学総合学生支援センターＣ棟１階,,12,103,2630022,,,,,,,2025-10-14,1,,,,,アエレ,0
395,2040001140871,新規,0,2025-10-14,2025-10-14,株式会社ジュンドット,,株式会社,千葉県,匝瑳市,飯倉１６９０番地,,12,235,2892147,,,,,,,2025-10-14,1,,,,,ジュンドット,0
396,2040001140905,新規,0,2025-10-14,2025-10-14,株式会社岩崎商店,00141082,株式会社,千葉県,習志野市,東習志野５丁目１１番１０－４号,,12,216,2750001,,,,,,,2025-10-14,1,,,,,イワサキショウテン,0
401,2040003028719,新規,0,2025-10-14,2025-10-14,合同会社大雅興業,,合同会社,千葉県,袖ケ浦市,今井３丁目９番地８,,12,229,2990264,,,,,,,2025-10-14,1,,,,,タイガコウギョウ,0
407,2050001057438,新規,0,2025-10-14,2025-10-14,株式会社メディリンク,,株式会社,茨城県,水戸市,平須町１９２７番地の６７,,08,201,3100853,,,,,,,2025-10-14,1,,,,,メディリンク,0
411,2060001038668,新規,0,2025-10-14,2025-10-14,株式会社あおな自動車,,株式会社,栃木県,芳賀郡芳賀町,大字西高橋３７９３番地１,,09,345,3213315,,,,,,,2025-10-14,1,,,,,アオナジドウシャ,0
413,2060005010383,新規,0,2025-10-14,2025-10-14,一般社団法人Ｓａｌｌｉｅｒ,,その他の設立登記法人,栃木県,宇都宮市,戸祭町２６３８番地１２,,09,201,3200053,,,,,,,2025-10-14,1,,,,,サリエ,0
420,2090001019558,新規,0,2025-10-14,2025-10-14,株式会社空間計測,,株式会社,山梨県,甲府市,下石田２丁目１４番７号,,19,201,4000046,,,,,,,2025-10-14,1,,,,,クウカンケイソク,0
423,2100003008433,新規,0,2025-10-14,2025-10-14,合同会社ｂｌｏｏｍ　ｏｆ,,合同会社,長野県,松本市,大字内田９０－３,,20,202,3990023,,,,,,,2025-10-14,1,,,,,ブルームオブ,0
425,2100005013398,新規,0,2025-10-14,2025-10-14,一般社団法人ああああ,,その他の設立登記法人,長野県,上水内郡信濃町,大字野尻矢保利１２００番地２５１,,20,583,3891303,,,,,,,2025-10-14,1,,,,,アアアア,0
431,2110003005925,新規,0,2025-10-14,2025-10-14,合同会社Ｈ＆Ｓ,,合同会社,新潟県,新潟市南区,中塩俵１４５７番地,,15,106,9501242,,,,,,,2025-10-14,1,,,,,エイチアンドエス,0
439,2120001280437,新規,0,2025-10-14,2025-10-14,株式会社Ｄｒａｆｔ　Ｃｏｃｋｔａｉｌ　Ｌａｂ,,株式会社,大阪府,大阪市中央区,南船場２丁目１０番２２号大阪宝石センタービル５０１号,,27,128,5420081,,,,,,,2025-10-14,1,,,,,ドラフトカクテルラボ,0
440,2120001280701,新規,0,2025-10-14,2025-10-14,日中未来株式会社,,株式会社,大阪府,大阪市生野区,田島６丁目２番２８号２０９号室,,27,116,5440011,,,,,,,2025-10-14,1,,,,,ニッチュウミライ,0
441,2120001280718,新規,0,2025-10-14,2025-10-14,株式会社和信,,株式会社,大阪府,大阪市東成区,東中本２丁目６－８－７０５号室,,27,115,5370021,,,,,,,2025-10-14,1,,,,,ワシン,0
442,2120001280750,新規,0,2025-10-14,2025-10-14,シーツーエム株式会社,,株式会社,大阪府,大阪市中央区,西心斎橋２丁目１０番２９号ヲリタビル１階,,27,128,5420086,,,,,,,2025-10-14,1,,,,,シーツーエム,0
443,2120001280759,新規,0,2025-10-14,2025-10-14,益泓暢株式会社,,株式会社,大阪府,大阪市東淀川区,豊新５丁目１２番５５号ビルディングＶＩＩ３０１室,00141085,27,114,5330014,,,,,,,2025-10-14,1,,,,,エキコウチョウ,0
444,2120001280783,新規,0,2025-10-14,2025-10-14,アストラバーナー株式会社,,株式会社,大阪府,交野市,星田９丁目４６番７号,,27,230,5760016,,,,,,,2025-10-14,1,,,,,アストラバーナー,0
445,2120001280817,新規,0,2025-10-14,2025-10-14,呉系通販株式会社,,株式会社,大阪府,大阪市西区,江戸堀１丁目８番２２号３Ｆ,,27,106,5500002,,,,,,,2025-10-14,1,,,,,ゴケイツウハン,0
446,2120001280882,新規,0,2025-10-14,2025-10-14,株式会社Ｍ’ｓホールディングス,,株式会社,大阪府,大阪市淀川区,西中島４丁目７番４号新大阪生原ビル６階,,27,123,5320011,,,,,,,2025-10-14,1,,,,,エムズホールディングス,0
447,2120001281088,新規,0,2025-10-14,2025-10-14,和松家商貿株式会社,,株式会社,大阪府,大阪市東住吉区,中野４丁目１番１６号サラオリエンテ中野７０３Ａ,,27,121,5460012,,,,,,,2025-10-14,1,,,,,ワショウカショウボウ,0
451,2120003030773,新規,0,2025-10-14,2025-10-14,ティーケーテック合同会社,,合同会社,大阪府,大阪市中央区,農人橋２丁目１－３１第６松屋ビル１１６３号室,,27,128,5400011,,,,,,,2025-10-14,1,,,,,ティーケーテック,0
452,2120003030906,新規,0,2025-10-14,2025-10-14,Ｓｉｌｖｅｒ　Ｆａｓｈｉｏｎ合同会社,,合同会社,大阪府,大阪市生野区,巽北１丁目２０－２下野マンション４０２,,27,116,5440004,,,,,,,2025-10-14,1,,,,,シルバーファッション,0
453,2120003030922,新規,0,2025-10-14,2025-10-14,合同会社ローラ教育研究所,,合同会社,大阪府,枚方市,南楠葉１丁目３１番７,,27,210,5731105,,,,,,,2025-10-14,1,,,,,ローラキョウイクケンキュウジョ,0
457,2120901051598,新規,0,2025-10-14,2025-10-14,株式会社ｗａｍｉｃａｆｅ,,株式会社,大阪府,箕面市,新稲４丁目１１番３２－１０１号,,27,220,5620005,,,,,,,2025-10-14,1,,,,,ワミカフェ,0
458,2120901051607,新規,0,2025-10-14,2025-10-14,株式会社ｉｎ　ｔｈｅ　ｆｕｔｕｒｅ,,株式会社,大阪府,豊中市,庄内西町２丁目４番３号,,27,203,5610832,,,,,,,2025-10-14,1,,,,,インザフューチャー,0
462,2130001080745,新規,0,2025-10-14,2025-10-14,株式会社ａｎｄＫ,,株式会社,京都府,京都市右京区,西京極西川町３７番地１１,,26,108,6150852,,,,,,,2025-10-14,1,,,,,アンドケー,0
463,2130001080786,新規,0,2025-10-14,2025-10-14,株式会社南丹リンクス,,株式会社,京都府,南丹市,園部町小桜町４７番地,,26,213,6220004,,,,,,,2025-10-14,1,,,,,ナンタンリンクス,0
475,2140001140341,新規,0,2025-10-14,2025-10-14,株式会社典志,,株式会社,兵庫県,宝塚市,長寿ガ丘１７番２号,,28,214,6650001,,,,,,,2025-10-14,1,,,,,テンシ,0
476,2140001140358,新規,0,2025-10-14,2025-10-14,株式会社アーキアシュビ,,株式会社,兵庫県,明石市,明南町１丁目３番３２号,,28,203,6730001,,,,,,,2025-10-14,1,,,,,アーキアシュビ,0
477,2140001140408,新規,0,2025-10-14,2025-10-14,株式会社Ａｒｓ,,株式会社,兵庫県,西宮市,大屋町１４番５－３０７号,,28,204,6638106,,,,,,,2025-10-14,1,,,,,アルス,0
484,2150001028445,新規,0,2025-10-14,2025-10-14,株式会社職場研究所,,株式会社,奈良県,磯城郡田原本町,大字大木２２２－２,,29,363,6360242,,,,,,,2025-10-14,1,,,,,ショクバケンキュウジョ,0
485,2160005011446,新規,0,2025-10-14,2025-10-14,特定非営利活動法人福祉ネイル善,,その他の設立登記法人,滋賀県,大津市,坂本５丁目２７番２１号,,25,201,5200113,,,,,,,2025-10-14,1,,,,,フクシネイルゼン,0
492,2180001168998,新規,0,2025-10-14,2025-10-14,宏昇株式会社,,株式会社,愛知県,愛西市,草平町新開２８番地１,,23,232,4968015,,,,,,,2025-10-14,1,,,,,コウショウ,0
493,2180001169006,新規,0,2025-10-14,2025-10-14,株式会社ＳＲＢ,,株式会社,愛知県,一宮市,深坪町６番地２,,23,203,4910908,,,,,,,2025-10-14,1,,,,,エスアールビー,0
494,2180001169030,新規,0,2025-10-14,2025-10-14,株式会社ＢＲＩＧＨＴ,,株式会社,愛知県,春日井市,割塚町２１４番地シャーメゾン割塚１０１号,,23,206,4860824,,,,,,,2025-10-14,1,,,,,ブライト,0
497,2180003029216,新規,0,2025-10-14,2025-10-14,合同会社ＮＡＣ,,合同会社,愛知県,犬山市,字焼野２０番地,,23,215,4840906,,,,,,,2025-10-14,1,,,,,ナック,0
512,2230001021128,新規,0,2025-10-14,2025-10-14,一穂測量株式会社,,株式会社,富山県,魚津市,天神野新８９９番地１６,,16,204,9370013,,,,,,,2025-10-14,1,,,,,イッスイソクリョウ,0
517,2240001065644,新規,0,2025-10-14,2025-10-14,株式会社縁徳,,株式会社,広島県,広島市佐伯区,楽々園５丁目９番１５号６階,,34,108,7315136,,,,,,,2025-10-14,1,,,,,エントク,0
519,2260001040629,新規,0,2025-10-14,2025-10-14,Ｅ’ｏｒｒａ株式会社,,株式会社,岡山県,岡山市北区,磨屋町３番１０号２ＦＴＯＧＩＴＯＧＩ,,33,101,7000826,,,,,,,2025-10-14,1,,,,,エオラ,0
524,2300001014388,新規,0,2025-10-14,2025-10-14,ＧＥＮＫＩ　ＬＩＮＫＳ株式会社,,株式会社,佐賀県,鳥栖市,宿町１１０４－１,,41,203,8410052,,,,,,,2025-10-14,1,,,,,ゲンキリンクス,0
525,2320001021390,新規,0,2025-10-14,2025-10-14,株式会社高村林業,,株式会社,大分県,玖珠郡九重町,大字野上４２３８番地の６２,,44,461,8794802,,,,,,,2025-10-14,1,,,,,タカムラリンギョウ,0
528,2330001033658,新規,0,2025-10-14,2025-10-14,Ｆ‐ＧＡＲＡＧＥ株式会社,,株式会社,熊本県,熊本市東区,保田窪本町１６番２９号,,43,102,8620925,,,,,,,2025-10-14,1,,,,,エフガレージ,0
532,2340003004978,新規,0,2025-10-14,2025-10-14,拓新合同会社,,合同会社,鹿児島県,大島郡伊仙町,大字糸木名６９７番地４,,46,532,8918324,,,,,,,2025-10-14,1,,,,,タクシン,0
539,2360003015321,新規,0,2025-10-14,2025-10-14,合同会社イーザット,,合同会社,沖縄県,宮古島市,平良字西里１６５番地,,47,214,9060012,,,,,,,2025-10-14,1,,,,,イーザット,0
540,2370001053132,新規,0,2025-10-14,2025-10-14,株式会社ＬｉｉＭ,,株式会社,宮城県,仙台市青葉区,上杉１丁目７番１３号上杉ＫＫビル２００,,04,101,9800011,,,,,,,2025-10-14,1,,,,,リーム,0
541,2370001053140,新規,0,2025-10-14,2025-10-14,株式会社Ｔ‐Ａ,,株式会社,宮城県,角田市,花島字里前１８３番地,,04,208,9811511,,,,,,,2025-10-14,1,,,,,ティーエー,0
542,2370005011012,新規,0,2025-10-14,2025-10-14,仙台朝市創生協同組合,,その他の設立登記法人,宮城県,仙台市青葉区,中央３丁目８番５号,,04,101,9800021,,,,,,,2025-10-14,1,,,,,センダイアサイチソウセイ,0
547,2380001035617,新規,0,2025-10-14,2025-10-14,ＳＲＣ株式会社,,株式会社,福島県,相馬郡新地町,駒ケ嶺字新林１２１,,07,561,9792611,,,,,,,2025-10-14,1,,,,,エスアールシー,0
550,2380005013016,新規,0,2025-10-14,2025-10-14,医療法人福島かがやき会,,その他の設立登記法人,福島県,福島市,南沢又字舘ノ内６６番地２,,07,201,9608254,,,,,,,2025-10-14,1,,,,,フクシマカガヤキカイ,0
554,2430003018176,新規,0,2025-10-14,2025-10-14,ドウグノモリ合同会社,,合同会社,北海道,札幌市豊平区,平岸六条９丁目２番２５－４０１号,,01,105,0620936,,,,,,,2025-10-14,1,,,,,ドウグノモリ,0
563,2700150132504,新規,0,2025-10-14,2025-10-14,Ｓａｙｕｒｉ　Ｅｎｔｅｒｐｒｉｓｅｓ,,外国会社等,千葉県,千葉市若葉区,中野町１４０９番地８,,12,104,2650051,スリランカ民主社会主義共和国、パンゴッラマダロード、ドゥヌウィラ、Ｎｏ．２６８／３Ａ／４,,,,,,2025-10-14,1,,,,,サユリエンタープライズ,0
580,3010001259227,新規,0,2025-10-14,2025-10-14,Ｉｎｎｅｒ　Ｓｔｒｅｎｇｔｈ株式会社,,株式会社,東京都,中央区,銀座７丁目１３番２０号銀座ＴＨビル９階,,13,102,1040061,,,,,,,2025-10-14,1,,,,,インナーストレングス,0
581,3010001259235,新規,0,2025-10-14,2025-10-14,株式会社ブローノブラザーズ,,株式会社,東京都,千代田区,鍛冶町１丁目１０番６号ＢＩＺＳＭＡＲＴ神田,,13,101,1010044,,,,,,,2025-10-14,1,,,,,ブローノブラザーズ,0
582,3010001259276,新規,0,2025-10-14,2025-10-14,株式会社ＡＣ‐１１,,株式会社,東京都,千代田区,麹町３丁目５番地２,,13,101,1020083,,,,,,,2025-10-14,1,,,,,エーシーイレブン,0
583,3010003048990,新規,0,2025-10-14,2025-10-14,合同会社Ｅｌｉｊａｈ,,合同会社,東京都,中央区,八丁堀２丁目２９－１６－３０２,,13,102,1040032,,,,,,,2025-10-14,1,,,,,エリヤ,0
584,3010003049007,新規,0,2025-10-14,2025-10-14,合同会社オフィスＲＭ,,合同会社,東京都,中央区,銀座６丁目１３番７－６１２号,,13,102,1040061,,,,,,,2025-10-14,1,,,,,オフィスアールエム,0
585,3010003049023,新規,0,2025-10-14,2025-10-14,ａｕｒｕｍ合同会社,,合同会社,東京都,中央区,晴海３丁目１３番１号ＤＥＵＸＴＯＵＲＳ４５１２,,13,102,1040053,,,,,,,2025-10-14,1,,,,,オーラム,0
588,3010101016890,新規,0,2025-10-14,2025-10-14,アポロロボティックス株式会社,,株式会社,東京都,八王子市,椚田町５３７－１４,,13,201,1930942,,,,,,,2025-10-14,1,,,,,アポロロボティックス,0
589,3010105002350,新規,0,2025-10-14,2025-10-14,一般社団法人政宏医歯会,,その他の設立登記法人,東京都,八王子市,鑓水２丁目１０８番地１やりみず歯科,,13,201,1920375,,,,,,,2025-10-14,1,,,,,セイコウイシカイ,0
595,3010401193447,新規,0,2025-10-14,2025-10-14,株式会社ＢＵＮＧＥＥ　ＧＵＭ,,株式会社,東京都,港区,西麻布３丁目１３－３カスタリア広尾３０３,,13,103,1060031,,,,,,,2025-10-14,1,,,,,バンジーガム,0
596,3010401193546,新規,0,2025-10-14,2025-10-14,株式会社Ｂａｃｋｔｏｗｎ　Ｃｌｏｓｅｔ,,株式会社,東京都,港区,南青山７丁目８番４号,,13,103,1070062,,,,,,,2025-10-14,1,,,,,バックタウンクローゼット,0
597,3010401193554,新規,0,2025-10-14,2025-10-14,株式会社ｍｅｅ,,株式会社,東京都,港区,赤坂６丁目２番５号方栄ビル２０１号室,,13,103,1070052,,,,,,,2025-10-14,1,,,,,ミー,0
598,3010401193579,新規,0,2025-10-14,2025-10-14,株式会社ＭＩＲＡＩＳＥ,,株式会社,東京都,港区,虎ノ門４丁目１番１０号青木ビル２階,,13,103,1050001,,,,,,,2025-10-14,1,,,,,ミライズ,0
599,3010401193637,新規,0,2025-10-14,2025-10-14,株式会社ＵＮＦＡＤＥ,,株式会社,東京都,港区,赤坂７丁目１０番９号赤坂伊藤ビル２階,,13,103,1070052,,,,,,,2025-10-14,1,,,,,アンフェイド,0
600,3010401193678,新規,0,2025-10-14,2025-10-14,バックテック株式会社,,株式会社,東京都,港区,浜松町２丁目２番１５号浜松町ダイヤビル２Ｆ,,13,103,1050013,,,,,,,2025-10-14,1,,,,,バックテック,0
609,3010503008040,新規,0,2025-10-14,2025-10-14,合同会社つくる,,合同会社,東京都,台東区,西浅草３丁目２２－３－２７２１,,13,106,1110035,,,,,,,2025-10-14,1,,,,,ツクル,0
610,3010505003650,新規,0,2025-10-14,2025-10-14,一般社団法人日中経済文化交流促進協会,,その他の設立登記法人,東京都,台東区,上野５丁目１２－９第三江波戸ビル５０２,,13,106,1100005,,,,,,,2025-10-14,1,,,,,ニッチュウケイザイブンカコウリュウソクシンキョウカイ,0
614,3010603011852,新規,0,2025-10-14,2025-10-14,合同会社ＣｈｉＭａｒｉｅ,,合同会社,東京都,江東区,深川２丁目５番１１－２０９号,,13,108,1350033,,,,,,,2025-10-14,1,,,,,チマリー,0
616,3010701048433,新規,0,2025-10-14,2025-10-14,ＧＨＯＳＴ　ＭＯＶＥＭＥＮＴ株式会社,,株式会社,東京都,品川区,西五反田８丁目１番１３号ＧＢＳ・Ａ－３,,13,109,1410031,,,,,,,2025-10-14,1,,,,,ゴーストムーブメント,0
619,3010901058240,新規,0,2025-10-14,2025-10-14,株式会社Ｔｈｒｅｅ　Ｃｏｄｅ,,株式会社,東京都,世田谷区,若林２丁目３７番９－１０６号,,13,112,1540023,,,,,,,2025-10-14,1,,,,,スリーコード,0
621,3010903010323,新規,0,2025-10-14,2025-10-14,合同会社結拓,,合同会社,東京都,世田谷区,上馬２丁目３３－１３－１０３,,13,112,1540011,,,,,,,2025-10-14,1,,,,,ケッタク,0
626,3011001172667,新規,0,2025-10-14,2025-10-14,秋月株式会社,,株式会社,東京都,渋谷区,千駄ヶ谷３丁目５番１５号４０１,,13,113,1510051,,,,,,,2025-10-14,1,,,,,アキツキ,0
627,3011001172774,新規,0,2025-10-14,2025-10-14,株式会社Ｃｌｏｖｅｒ　Ｎｏｔｅ,,株式会社,東京都,渋谷区,道玄坂２丁目２０番２６－２０６号,,13,113,1500043,,,,,,,2025-10-14,1,,,,,クローバーノート,0
628,3011001172824,新規,0,2025-10-14,2025-10-14,株式会社テックミィ,,株式会社,東京都,渋谷区,東３丁目１７－１２クインテット恵比寿４０４,,13,113,1500011,,,,,,,2025-10-14,1,,,,,テックミィ,0
629,3011001172832,新規,0,2025-10-14,2025-10-14,ネクストイン・ジャパン株式会社,,株式会社,東京都,渋谷区,道玄坂１丁目１２番１号渋谷マークシティウエストオフィス２２階,,13,113,1500043,,,,,,,2025-10-14,1,,,,,ネクストインジャパン,0
635,3011101113637,新規,0,2025-10-14,2025-10-14,株式会社Ｓｐａｒｔａｘ,,株式会社,東京都,新宿区,西新宿３丁目３番１３号西新宿水間ビル２Ｆ,,13,104,1600023,,,,,,,2025-10-14,1,,,,,スパルタクス,0
636,3011105011630,新規,0,2025-10-14,2025-10-14,一般社団法人ジェイ・ピー・エー,,その他の設立登記法人,東京都,新宿区,下宮比町１番４号,,13,104,1620822,,,,,,,2025-10-14,1,,,,,ジェイピーエー,0
640,3011401027479,新規,0,2025-10-14,2025-10-14,株式会社ネクストバリュー,,株式会社,東京都,板橋区,徳丸７丁目２４番１０－２０５号,,13,119,1750083,,,,,,,2025-10-14,1,,,,,ネクストバリュー,0
642,3011501032684,新規,0,2025-10-14,2025-10-14,株式会社オールラウンドインフィニティ,,株式会社,東京都,北区,上十条１丁目１７番２１号,,13,117,1140034,,,,,,,2025-10-14,1,,,,,オールラウンドインフィニティ,0
650,3011603004870,新規,0,2025-10-14,2025-10-14,合同会社ノーフェイス,,合同会社,東京都,練馬区,谷原４丁目７番６－２０２号,,13,120,1770032,,,,,,,2025-10-14,1,,,,,ノーフェイス,0
651,3011603004879,新規,0,2025-10-14,2025-10-14,合同会社おとだまひふみ,,合同会社,東京都,練馬区,豊玉北５丁目３－１１ブランズ練馬６０６,,13,120,1760012,,,,,,,2025-10-14,1,,,,,オトダマヒフミ,0
654,3012401043680,新規,0,2025-10-14,2025-10-14,ＡＳＯＢＩＹＡ株式会社,,株式会社,東京都,調布市,小島町２丁目５１番地２寿ビル２階,,13,208,1820026,,,,,,,2025-10-14,1,,,,,アソビヤ,0
655,3012401043697,新規,0,2025-10-14,2025-10-14,Ｏｖｅｒｒｉｄｅ株式会社,,株式会社,東京都,三鷹市,上連雀２丁目５番６号アーバンフラッツ１０２,,13,204,1810012,,,,,,,2025-10-14,1,,,,,オーバーライド,0
658,3012803003902,新規,0,2025-10-14,2025-10-14,合同会社クレジェス,,合同会社,東京都,立川市,砂川町１丁目４５番地の２６,,13,202,1900031,,,,,,,2025-10-14,1,,,,,クレジェス,0
659,3012805003371,新規,0,2025-10-14,2025-10-14,立川福音自由教会,,その他の設立登記法人,東京都,立川市,高松町３丁目３０番２４号,,13,202,1900011,,,,,,,2025-10-14,1,,,,,タチカワフクインジユウキョウカイ,0
673,3020001165250,新規,0,2025-10-14,2025-10-14,株式会社Ａ＆Ｒパートナーズ,,株式会社,神奈川県,横浜市港北区,大曽根台１１番１４－７号,,14,109,2220004,,,,,,,2025-10-14,1,,,,,エイアンドアールパートナーズ,0
674,3020001165309,新規,0,2025-10-14,2025-10-14,株式会社道建設,,株式会社,神奈川県,横浜市戸塚区,舞岡町３６９４番地,,14,110,2440813,,,,,,,2025-10-14,1,,,,,ミチケンセツ,0
678,3021001086585,新規,0,2025-10-14,2025-10-14,和み創建株式会社,,株式会社,神奈川県,高座郡寒川町,一之宮３丁目２６番１号,,14,321,2530111,,,,,,,2025-10-14,1,,,,,,0
687,3030001169184,新規,0,2025-10-14,2025-10-14,株式会社池山重機,,株式会社,埼玉県,久喜市,菖蒲町新堀２５３９番地２９,,11,232,3460105,,,,,,,2025-10-14,1,,,,,イケヤマジュウキ,0
697,3040001140895,新規,0,2025-10-14,2025-10-14,株式会社ＳＡＹＯＭＩ,,株式会社,千葉県,鎌ケ谷市,東道野辺５丁目１０番２４号,,12,224,2730115,,,,,,,2025-10-14,1,,,,,サヨミ,0
698,3040001140904,新規,0,2025-10-14,2025-10-14,株式会社ＴＫ,,株式会社,千葉県,山武郡横芝光町,鳥喰下１０６６番地７,,12,410,2891737,,,,,,,2025-10-14,1,,,,,ティーケー,0
704,3040003028734,新規,0,2025-10-14,2025-10-14,合同会社アイエヌ会計,,合同会社,千葉県,千葉市緑区,おゆみ野５丁目２２番地１０,,12,105,2660031,,,,,,,2025-10-14,1,,,,,アイエヌカイケイ,0
711,3060003005806,新規,0,2025-10-14,2025-10-14,合同会社オレンジ陸送,,合同会社,栃木県,栃木市,藤岡町藤岡１５４７－１,,09,203,3231104,,,,,,,2025-10-14,1,,,,,オレンジリクソウ,0
722,3080403005362,新規,0,2025-10-14,2025-10-14,合同会社シャムロック,,合同会社,静岡県,浜松市中央区,高丘東２丁目１５‐２５,,22,138,4338117,,,,,,,2025-10-14,1,,,,,シャムロック,0
723,3090001019549,新規,0,2025-10-14,2025-10-14,株式会社ツリーワークミヤジ,,株式会社,山梨県,富士吉田市,向原４丁目１５番１４号,,19,202,4030018,,,,,,,2025-10-14,1,,,,,ツリーワークミヤジ,0
724,3090001019557,新規,0,2025-10-14,2025-10-14,株式会社ＤＭ　Ｆａｃｔｏｒｙ,,株式会社,山梨県,都留市,田野倉１００６番地１,,19,204,4020001,,,,,,,2025-10-14,1,,,,,ディーエムファクトリー,0
728,3090003002916,新規,0,2025-10-14,2025-10-14,合同会社ｔｏｉ　ｔｏｉ　ｔｏｉ,,合同会社,山梨県,北杜市,大泉町西井出６９８番地１,,19,209,4091501,,,,,,,2025-10-14,1,,,,,トイトイトイ,0
738,3110003005924,新規,0,2025-10-14,2025-10-14,合同会社Ｎａｔｕｒａｌ,,合同会社,新潟県,魚沼市,吉田１１５６－１１セジュールグリーンヴィラ１０３号,,15,225,9460075,,,,,,,2025-10-14,1,,,,,ナチュラル,0
749,3120001280725,新規,0,2025-10-14,2025-10-14,株式会社夜市,,株式会社,大阪府,大阪市鶴見区,緑１丁目５番７号,,27,124,5380054,,,,,,,2025-10-14,1,,,,,ヨイチ,0
750,3120001280741,新規,0,2025-10-14,2025-10-14,ＵＨＡエジュテック株式会社,,株式会社,大阪府,大阪市中央区,神崎町４番１２号,,27,128,5400016,,,,,,,2025-10-14,1,,,,,ユーハエジュテック,0
751,3120001280758,新規,0,2025-10-14,2025-10-14,ＲｅｂｅｌＣｏｄｅ株式会社,,株式会社,大阪府,大阪市福島区,福島１丁目４番４号,,27,103,5530003,,,,,,,2025-10-14,1,,,,,レベルコード,0
752,3120001280824,新規,0,2025-10-14,2025-10-14,株式会社菅野プランニング,,株式会社,大阪府,大阪市中央区,南久宝寺町２丁目５－１５－１３０４,,27,128,5410058,,,,,,,2025-10-14,1,,,,,スガノプランニング,0
753,3120001280840,新規,0,2025-10-14,2025-10-14,和光教育株式会社,,株式会社,大阪府,大阪市淀川区,宮原２丁目１２番１４号,,27,123,5320003,,,,,,,2025-10-14,1,,,,,ワコウキョウイク,0
754,3120001280997,新規,0,2025-10-14,2025-10-14,尾坂興産株式会社,,株式会社,大阪府,大阪市阿倍野区,播磨町１丁目８番２２－１３０５号,,27,119,5450022,,,,,,,2025-10-14,1,,,,,オサカコウサン,0
755,3120001281104,新規,0,2025-10-14,2025-10-14,億嘉株式会社,,株式会社,大阪府,大阪市東住吉区,中野４丁目１番１６号リベラルオリエンテ中野３０３Ａ,,27,121,5460012,,,,,,,2025-10-14,1,,,,,オクカ,0
759,3120003030839,新規,0,2025-10-14,2025-10-14,合同会社未来,,合同会社,大阪府,大阪市東淀川区,豊新２丁目１１番１９号,,27,114,5330014,,,,,,,2025-10-14,1,,,,,ミライ,0
760,3120003031003,新規,0,2025-10-14,2025-10-14,ＴＨＡＮＨ　ＨＡ合同会社,,合同会社,大阪府,大阪市西成区,長橋３丁目７－２４アワーハウス１０２号,,27,122,5570025,,,,,,,2025-10-14,1,,,,,タンハ,0
761,3120003031011,新規,0,2025-10-14,2025-10-14,ｌｕｍｅｎ合同会社,,合同会社,大阪府,大阪市浪速区,幸町２丁目２番４０号グラスホッパー４０５号,,27,111,5560021,,,,,,,2025-10-14,1,,,,,ルーメン,0
766,3120901051597,新規,0,2025-10-14,2025-10-14,株式会社Ｔ‐コネクト,,株式会社,大阪府,茨木市,学園町３番１－２０６号,,27,211,5670833,,,,,,,2025-10-14,1,,,,,ティコネクト,0
767,3120901051606,新規,0,2025-10-14,2025-10-14,株式会社Ｐａｒａ　ｍｉ,,株式会社,大阪府,吹田市,垂水町３丁目１４番１９号,,27,205,5640062,,,,,,,2025-10-14,1,,,,,パラミ,0
768,3120901051614,新規,0,2025-10-14,2025-10-14,ＫＴシステムソリューションズ株式会社,,株式会社,大阪府,茨木市,島４丁目２３番７号,,27,211,5670854,,,,,,,2025-10-14,1,,,,,ケイティシステムソリューションズ,0
787,3140001140324,新規,0,2025-10-14,2025-10-14,ＲＥＬＡＩＲ株式会社,,株式会社,兵庫県,加古川市,西神吉町岸６４７番地の４,,28,210,6750045,,,,,,,2025-10-14,1,,,,,リレア,0
788,3140001140349,新規,0,2025-10-14,2025-10-14,Ｇｏ　Ｐｒｉｍｅ株式会社,,株式会社,兵庫県,西宮市,川東町１１番１９号,,28,204,6620945,,,,,,,2025-10-14,1,,,,,ゴープライム,0
791,3140003022702,新規,0,2025-10-14,2025-10-14,合同会社正博商事,,合同会社,兵庫県,神戸市灘区,赤坂通８丁目１番１８号,,28,102,6570821,,,,,,,2025-10-14,1,,,,,セイハクショウジ,0
792,3140003022710,新規,0,2025-10-14,2025-10-14,合同会社カラフル・ステップ,,合同会社,兵庫県,神戸市東灘区,本山北町３丁目４－１１ポコアポコ本山ハウス３０３号室,,28,101,6580003,,,,,,,2025-10-14,1,,,,,カラフルステップ,0
802,3180001168972,新規,0,2025-10-14,2025-10-14,ジャパリク株式会社,,株式会社,愛知県,名古屋市中区,伊勢山２丁目７番２３号,,23,106,4600026,,,,,,,2025-10-14,1,,,,,ジャパリク,0
803,3180001168997,新規,0,2025-10-14,2025-10-14,旭成国際株式会社,,株式会社,愛知県,名古屋市南区,要町２丁目２３番地の５,,23,112,4570802,,,,,,,2025-10-14,1,,,,,キョクセイコクサイ,0
804,3180001169021,新規,0,2025-10-14,2025-10-14,株式会社Ｃ・Ｈ・Ｏ,,株式会社,愛知県,名古屋市中村区,宿跡町２丁目４５番地の５,,23,105,4530067,,,,,,,2025-10-14,1,,,,,シーエイチオー,0
807,3180003029207,新規,0,2025-10-14,2025-10-14,御国エロヒム合同会社,,合同会社,愛知県,名古屋市熱田区,野立町２丁目９８番地野立ハイツＢ棟１０６号,,23,109,4560066,,,,,,,2025-10-14,1,,,,,ミクニエロヒム,0
809,3180005021277,新規,0,2025-10-14,2025-10-14,医療法人ＵＲＣ,,その他の設立登記法人,愛知県,名古屋市天白区,元植田２丁目２４０５,,23,116,4680009,,,,,,,2025-10-14,1,,,,,ユーアールシー,0
813,3200001044329,新規,0,2025-10-14,2025-10-14,株式会社もふりっず,,株式会社,岐阜県,瑞穂市,稲里８１４番地,,21,216,5010224,,,,,,,2025-10-14,1,,,,,モフリッズ,0
815,3210001020353,新規,0,2025-10-14,2025-10-14,株式会社Ｓｈａｐｅｒ,,株式会社,福井県,敦賀市,松原町１９番１号,,18,202,9140806,,,,,,,2025-10-14,1,,,,,シェイパー,0
820,3220001026969,新規,0,2025-10-14,2025-10-14,株式会社ＲＥＬＡＸＩＮＧ,,株式会社,石川県,金沢市,新神田４丁目４番４号アラキ新神田ビル１階,,17,201,9218013,,,,,,,2025-10-14,1,,,,,リラクシング,0
824,3230001021127,新規,0,2025-10-14,2025-10-14,ララ株式会社,,株式会社,富山県,魚津市,石垣２６９番地,,16,204,9370814,,,,,,,2025-10-14,1,,,,,ララ,0
825,3230001021143,新規,0,2025-10-14,2025-10-14,株式会社菊仁,,株式会社,富山県,富山市,三室荒屋４１５,,16,201,9301314,,,,,,,2025-10-14,1,,,,,キクジン,0
827,3230005009498,新規,0,2025-10-14,2025-10-14,税理士法人広野会計,,その他の設立登記法人,富山県,富山市,丸の内２丁目７番３号田中ビル,,16,201,9300085,,,,,,,2025-10-14,1,,,,,ヒロノカイケイ,0
829,3240001065651,新規,0,2025-10-14,2025-10-14,株式会社しんすけ,,株式会社,広島県,広島市中区,紙屋町１丁目６番１号紙屋町ガレリア３０１,,34,101,7300031,,,,,,,2025-10-14,1,,,,,シンスケ,0
830,3240005015999,新規,0,2025-10-14,2025-10-14,一般社団法人日本こども家庭支援協会,,その他の設立登記法人,広島県,広島市中区,本通３－１０,,34,101,7300035,,,,,,,2025-10-14,1,,,,,ニホンコドモカテイシエンキョウカイ,0
847,3310001019823,新規,0,2025-10-14,2025-10-14,Ａｓａｌｉｓ　Ｌｉｆｅ株式会社,,株式会社,長崎県,大村市,沖田町６９４番地５,,42,205,8560809,,,,,,,2025-10-14,1,,,,,アサリスライフ,0
853,3350001019761,新規,0,2025-10-14,2025-10-14,株式会社三輪建築設計,,株式会社,宮崎県,宮崎市,東大宮３丁目１２番３号,,45,201,8800825,,,,,,,2025-10-14,1,,,,,ミワケンチクセッケイ,0
858,3360001035907,新規,0,2025-10-14,2025-10-14,ユインチホテル株式会社,,株式会社,沖縄県,南城市,佐敷字新里１６８８番地,,47,215,9011412,,,,,,,2025-10-14,1,,,,,ユインチホテル,0
862,3380001035616,新規,0,2025-10-14,2025-10-14,ＴＢＨホールディングス株式会社,,株式会社,福島県,郡山市,富久山町久保田字我妻８４番地７,,07,203,9638071,,,,,,,2025-10-14,1,,,,,ティービーエイチホールディングス,0
863,3380005013015,新規,0,2025-10-14,2025-10-14,医療法人三澤整形外科スポーツクリニック,,その他の設立登記法人,福島県,南相馬市,原町区日の出町５４１番地の１,,07,212,9750038,,,,,,,2025-10-14,1,,,,,ミサワセイケイゲカスポーツクリニック,0
873,3430001095381,新規,0,2025-10-14,2025-10-14,ＩＧＮＩＴＥ株式会社,,株式会社,北海道,札幌市豊平区,月寒東二条７丁目１４番６号,,01,105,0620052,,,,,,,2025-10-14,1,,,,,イグナイト,0
877,3430003018183,新規,0,2025-10-14,2025-10-14,Ｈｉｄａｋａ　ＳｐｒｏｕＴ合同会社,,合同会社,北海道,北広島市,輪厚中央３丁目１０番地２４,,01,234,0611268,,,,,,,2025-10-14,1,,,,,ヒダカスプラウト,0
878,3430003018191,新規,0,2025-10-14,2025-10-14,合同会社Ｍａｉｓｏｎ　Ｅｃｌａｔ,,合同会社,北海道,札幌市中央区,南十三条西２１丁目１番３－９０１号,,01,101,0640913,,,,,,,2025-10-14,1,,,,,メゾンエクラ,0
883,3490001011184,新規,0,2025-10-14,2025-10-14,株式会社Ｍｉｇｎｏｎ・Ｃｏｅｕｒ,,株式会社,高知県,南国市,大＿乙１５８９番地３,00141081,39,204,7830005,,,,,,,2025-10-14,1,,,,,ミニョンクー,0
887,3700150132503,新規,0,2025-10-14,2025-10-14,ＦＡＴＨＡ　ＬＡＮＫＡ　ＭＯＴＯＲＳ,,外国会社等,神奈川県,相模原市南区,西大沼３丁目１２－２９,,14,153,2520332,スリランカ民主社会主義共和国，ＮＯ７０－Ａ、カティリヤロード、アッカライパッテゥ－１３,,,,,,2025-10-14,1,,,,,フアタランカモータース,0
900,4010001259242,新規,0,2025-10-14,2025-10-14,株式会社ＳＹＬｉｆｅ,,株式会社,東京都,中央区,日本橋室町１丁目１１番１２号日本橋水野ビル７階,,13,102,1030022,,,,,,,2025-10-14,1,,,,,エスワイライフ,0
901,4010001259259,新規,0,2025-10-14,2025-10-14,株式会社ＭＩＵＲＡＮＤ,,株式会社,東京都,千代田区,平河町２丁目１６番２－１４０６号,,13,101,1020093,,,,,,,2025-10-14,1,,,,,ミウランド,0
902,4010001259374,新規,0,2025-10-14,2025-10-14,株式会社縁ｆｉｏｒｅ,,株式会社,東京都,中央区,日本橋浜町２丁目６２番６号日本橋浜町Ｋビル１階,,13,102,1030007,,,,,,,2025-10-14,1,,,,,エンフィオーレ,0
906,4010003048957,新規,0,2025-10-14,2025-10-14,合同会社つなぐ,,合同会社,東京都,中央区,日本橋２丁目１６－４ｒｅｍｉｘ日本橋６階,,13,102,1030027,,,,,,,2025-10-14,1,,,,,ツナグ,0
907,4010003049014,新規,0,2025-10-14,2025-10-14,合同会社ＬＵＮＥ,,合同会社,東京都,中央区,勝どき４丁目６番１号,,13,102,1040054,,,,,,,2025-10-14,1,,,,,ルネ,0
913,4010401193462,新規,0,2025-10-14,2025-10-14,株式会社グローブリッジ,,株式会社,東京都,港区,南青山３丁目３－３リビエラ南青山ビルＡ館４Ｆ,,13,103,1070062,,,,,,,2025-10-14,1,,,,,グローブリッジ,0
914,4010401193545,新規,0,2025-10-14,2025-10-14,株式会社グロース・キー,,株式会社,東京都,港区,三田３丁目２番１号,,13,103,1080073,,,,,,,2025-10-14,1,,,,,グロースキー,0
915,4010401193578,新規,0,2025-10-14,2025-10-14,株式会社ハウスアップ,,株式会社,東京都,港区,赤坂５丁目４番１１号ポルトボヌール８０１,,13,103,1070052,,,,,,,2025-10-14,1,,,,,ハウスアップ,0
916,4010401193669,新規,0,2025-10-14,2025-10-14,株式会社ＡＰＥＸ　Ｖｅｎｔｕｒｅ　Ｈｏｌｄｉｎｇｓ,,株式会社,東京都,港区,南麻布３丁目２０番１号Ｄａｉｗａ麻布テラス５Ｆ５４８号室,,13,103,1060047,,,,,,,2025-10-14,1,,,,,エーペックスベンチャーホールディングス,0
919,4010403036165,新規,0,2025-10-14,2025-10-14,合同会社先端医療経営研究所,,合同会社,東京都,港区,南青山３丁目１番３６号青山丸竹ビル６Ｆ,,13,103,1070062,,,,,,,2025-10-14,1,,,,,センタンイリョウケイエイケンキュウジョ,0
920,4010503008007,新規,0,2025-10-14,2025-10-14,ＩＳＨＩＲＡ合同会社,,合同会社,東京都,台東区,浅草橋１丁目３２－６長尾第二ビル４Ｆ,,13,106,1110053,,,,,,,2025-10-14,1,,,,,イシラ,0
926,4010701048449,新規,0,2025-10-14,2025-10-14,ＴｈｉｎｋＤｏｃｋ株式会社,,株式会社,東京都,品川区,北品川５丁目５番１５号大崎ブライトコア４階,,13,109,1410001,,,,,,,2025-10-14,1,,,,,シンクドック,0
927,4010703007956,新規,0,2025-10-14,2025-10-14,合同会社ハニーバース,,合同会社,東京都,品川区,戸越１丁目１９番３号戸越ポイント１０４,,13,109,1420041,,,,,,,2025-10-14,1,,,,,ハニーバース,0
933,4010901058231,新規,0,2025-10-14,2025-10-14,株式会社ｃａｎａｃｏ,,株式会社,東京都,世田谷区,上馬４丁目３２―１佐々木ビル１Ｆ,,13,112,1540011,,,,,,,2025-10-14,1,,,,,カナコ,0
934,4010901058248,新規,0,2025-10-14,2025-10-14,株式会社Ｇｒａｃｅｓｔ,,株式会社,東京都,世田谷区,桜２丁目１０番４７－２０４号,,13,112,1560053,,,,,,,2025-10-14,1,,,,,グレイセスト,0
939,4010903010322,新規,0,2025-10-14,2025-10-14,合同会社ことトコ,,合同会社,東京都,世田谷区,中町４丁目１７－２１上野方,,13,112,1580091,,,,,,,2025-10-14,1,,,,,コトトコ,0
946,4011001172831,新規,0,2025-10-14,2025-10-14,Ｂａｍｂｏｏ株式会社,,株式会社,東京都,渋谷区,恵比寿４丁目２０番４号,,13,113,1500013,,,,,,,2025-10-14,1,,,,,バンブー,0
947,4011001172856,新規,0,2025-10-14,2025-10-14,Ｗａｎｚｈｏｕ　Ｊａｐａｎ株式会社,,株式会社,東京都,渋谷区,道玄坂１丁目２２番１号ＳＨＩＢＵＹＡＨＩＬＬＴＯＰ１０１,,13,113,1500043,,,,,,,2025-10-14,1,,,,,ワンジョウジャパン,0
948,4011001172872,新規,0,2025-10-14,2025-10-14,株式会社ｍｏｕｂｉＳ,,株式会社,東京都,渋谷区,渋谷２丁目１０番６号山田青山ビル３階,,13,113,1500002,,,,,,,2025-10-14,1,,,,,メビウズ,0
949,4011003022638,新規,0,2025-10-14,2025-10-14,合同会社たいがいなんでもやる,,合同会社,東京都,目黒区,中目黒５丁目２２－１３,,13,110,1530061,,,,,,,2025-10-14,1,,,,,タイガイナンデモヤル,0
957,4011301030961,新規,0,2025-10-14,2025-10-14,株式会社ｅｃｌａｔ　ｐｕｒ,,株式会社,東京都,杉並区,西荻北３丁目２５番４号ＷＩＫＫＳＮＩＳＨＩＯＧＩ１０１,,13,115,1670042,,,,,,,2025-10-14,1,,,,,エクラピュール,0
958,4011303005747,新規,0,2025-10-14,2025-10-14,カーサトテ合同会社,,合同会社,東京都,杉並区,堀ノ内２丁目２６番６号,,13,115,1660013,,,,,,,2025-10-14,1,,,,,,0
962,4011501032691,新規,0,2025-10-14,2025-10-14,株式会社ｔｅｆｕ　Ｍａ,,株式会社,東京都,北区,志茂２丁目５７番１号ナガタビルＩＩ１階,00141083,13,117,1150042,,,,,,,2025-10-14,1,,,,,テフマ,0
967,4011703004431,新規,0,2025-10-14,2025-10-14,合同会社ＹＵＲＡＧＩ１,,合同会社,東京都,江戸川区,松江６丁目１番１９－１５０３号,,13,123,1320025,,,,,,,2025-10-14,1,,,,,ユラギワン,0
969,4011801046870,新規,0,2025-10-14,2025-10-14,株式会社総英ファシリティーズ,,株式会社,東京都,足立区,西新井１丁目１番１５－１１０２号,,13,121,1230841,,,,,,,2025-10-14,1,,,,,ソウエイファシリティーズ,0
972,4012401043705,新規,0,2025-10-14,2025-10-14,株式会社Ｒｏｏｔｕｎｅ,,株式会社,東京都,三鷹市,下連雀４丁目９番４０号,,13,204,1810013,,,,,,,2025-10-14,1,,,,,ルーチューン,0
975,4012405005172,新規,0,2025-10-14,2025-10-14,一般社団法人いこいコワーク,,その他の設立登記法人,東京都,多摩市,豊ヶ丘２丁目３３番地６Ｐハイツ２,,13,224,2060031,,,,,,,2025-10-14,1,,,,,イコイコワーク,0
1000,4020001165209,新規,0,2025-10-14,2025-10-14,株式会社ＡｍｉＶａｌ,,株式会社,神奈川県,川崎市中原区,新丸子東３丁目１１００番地１２Ｍ３４０７,,14,133,2110004,,,,,,,2025-10-14,1,,,,,アミヴァル,0
1001,4020001165241,新規,0,2025-10-14,2025-10-14,Ｍｉｒａｉｓｅｉ株式会社,,株式会社,神奈川県,横浜市中区,長者町ニ丁目５番地１８ピアセントラルビル４０７,,14,104,2310000,,,,,,,2025-10-14,1,,,,,ミライセイ,0
1007,4020003029469,新規,0,2025-10-14,2025-10-14,ＫＡＭＡＬＡ　ＥＮＴＥＲＰＲＩＳＥＳ合同会社,,合同会社,神奈川県,川崎市多摩区,宿河原６丁目２５－１０ランドフォレスト久地２０１,,14,135,2140021,,,,,,,2025-10-14,1,,,,,カマラエンタープライズ,0
1009,4021001086543,新規,0,2025-10-14,2025-10-14,株式会社ナチュレンド,,株式会社,神奈川県,座間市,相模が丘６丁目２１－３５アムザック相模１０１号,,14,216,2520001,,,,,,,2025-10-14,1,,,,,ナチュレンド,0
1010,4021005013452,新規,0,2025-10-14,2025-10-14,一般社団法人ＭＩＮＯＲＩＷＡ,,その他の設立登記法人,神奈川県,小田原市,曽我谷津７２９番地,,14,206,2500204,,,,,,,2025-10-14,1,,,,,ミノリワ,0
1014,4030001169175,新規,0,2025-10-14,2025-10-14,株式会社都丸家,,株式会社,埼玉県,東松山市,大字石橋１７６５番地４５,,11,212,3550072,,,,,,,2025-10-14,1,,,,,トマルヤ,0
1030,4040001140845,新規,0,2025-10-14,2025-10-14,株式会社木霊,,株式会社,千葉県,市原市,上原３８番地,,12,219,2900222,,,,,,,2025-10-14,1,,,,,コダマ,0
1031,4040001140903,新規,0,2025-10-14,2025-10-14,羽中株式会社,,株式会社,千葉県,四街道市,みそら４丁目２番７,,12,228,2840023,,,,,,,2025-10-14,1,,,,,ハネナカ,0
1032,4040001140911,新規,0,2025-10-14,2025-10-14,株式会社カヤタケ,,株式会社,千葉県,松戸市,上矢切１４６２番地の１６,,12,207,2710094,,,,,,,2025-10-14,1,,,,,カヤタケ,0
1043,4060001038674,新規,0,2025-10-14,2025-10-14,株式会社ＡＵＴＯ　ＴＲＡＤＥ　ＪＡＰＡＮ,,株式会社,栃木県,小山市,大字東野田１３００番地２,,09,208,3230817,,,,,,,2025-10-14,1,,,,,オートトレードジャパン,0
1045,4060003005805,新規,0,2025-10-14,2025-10-14,ＴＮＴ　ＩＮＴＥＲＮＡＴＩＯＮＡＬ　ＣＯＭＰＡＮＹ合同会社,,合同会社,栃木県,栃木市,大平町伯仲１８８６番地２,,09,203,3294424,,,,,,,2025-10-14,1,,,,,ティエヌティインターナショナルカンパニー,0
1048,4080001027196,新規,0,2025-10-14,2025-10-14,クイックパルス株式会社,,株式会社,静岡県,牧之原市,細江６０４番地７,,22,226,4210421,,,,,,,2025-10-14,1,,,,,クイックパルス,0
1052,4080101025851,新規,0,2025-10-14,2025-10-14,株式会社Ｅｖｅｒ＆Ｍａｉｄｓ,,株式会社,静岡県,伊東市,池８９３番地の８２,,22,208,4130234,,,,,,,2025-10-14,1,,,,,エバーアンドメイド,0
1055,4090001019556,新規,0,2025-10-14,2025-10-14,ＫＥＩＴＥＣＨ　ＨＤ株式会社,,株式会社,山梨県,南都留郡富士河口湖町,船津２６６１番地１,,19,430,4010301,,,,,,,2025-10-14,1,,,,,ケイテックエイチディー,0
1060,4110001039650,新規,0,2025-10-14,2025-10-14,株式会社ＷＡＴＡふぁーむ,,株式会社,新潟県,上越市,頸城区浮島２７番地,,15,222,9420152,,,,,,,2025-10-14,1,,,,,ワタファーム,0
1073,4120001280286,新規,0,2025-10-14,2025-10-14,健之初株式会社,,株式会社,大阪府,大阪市中央区,谷町７丁目３－４新谷町第３ビル３階,,27,128,5420012,,,,,,,2025-10-14,1,,,,,スコヤカノハジメ,0
1074,4120001280443,新規,0,2025-10-14,2025-10-14,株式会社Ｍｉｏｌａ,,株式会社,大阪府,大阪市北区,梅田１丁目２番２号大阪駅前第２ビル１２－１２,,27,127,5300001,,,,,,,2025-10-14,1,,,,,ミオラ,0
1075,4120001280666,新規,0,2025-10-14,2025-10-14,Ｋ‐１７株式会社,,株式会社,大阪府,大阪市鶴見区,今津南３丁目１番８号シャトーサンパークスクエア１４１６号,,27,124,5380043,,,,,,,2025-10-14,1,,,,,ケーセブンティーン,0
1076,4120001280699,新規,0,2025-10-14,2025-10-14,株式会社Ｆ．Ｗ．Ｈ,,株式会社,大阪府,大阪市浪速区,幸町１丁目１番１０号,,27,111,5560021,,,,,,,2025-10-14,1,,,,,エフダブルエイチ,0
1077,4120001280749,新規,0,2025-10-14,2025-10-14,株式会社ダイコクインク,,株式会社,大阪府,大阪市浪速区,敷津西１丁目５番３号２階,,27,111,5560015,,,,,,,2025-10-14,1,,,,,ダイコクインク,0
1078,4120001281086,新規,0,2025-10-14,2025-10-14,ＫＲＫＣ株式会社,,株式会社,大阪府,大阪市東住吉区,中野４丁目１番１６号リベラルオリエンテ中野３１１Ｂ,,27,121,5460012,,,,,,,2025-10-14,1,,,,,ケーアルケーシー,0
1079,4120001281094,新規,0,2025-10-14,2025-10-14,納凱株式会社,,株式会社,大阪府,大阪市中央区,松屋町９番２０号ローレルステート松屋町６０２Ｂ,,27,128,5420067,,,,,,,2025-10-14,1,,,,,ノウカイ,0
1080,4120001281111,新規,0,2025-10-14,2025-10-14,株式会社リトルモーメンツ,,株式会社,大阪府,大阪市生野区,小路３丁目１０番２号,,27,116,5440002,,,,,,,2025-10-14,1,,,,,リトルモーメンツ,0
1081,4120001281169,新規,0,2025-10-14,2025-10-14,ツイーグ株式会社,,株式会社,大阪府,大阪市淀川区,西中島４丁目２番２６号,,27,123,5320011,,,,,,,2025-10-14,1,,,,,ツイーグ,0
1082,4120001281219,新規,0,2025-10-14,2025-10-14,万三株式会社,,株式会社,大阪府,大阪市西成区,萩之茶屋２丁目６－４ニューかめや１２６号室,,27,122,5570004,,,,,,,2025-10-14,1,,,,,バンサン,0
1088,4120003030912,新規,0,2025-10-14,2025-10-14,合同会社ルミナンスＰＬＵＳ,,合同会社,大阪府,大阪市西区,千代崎２丁目１３番６号ハイムルミナンス５Ｆ,,27,106,5500023,,,,,,,2025-10-14,1,,,,,ルミナンスプラス,0
1089,4120003030937,新規,0,2025-10-14,2025-10-14,Ｙｏｋａｉ　Ｗａｎｄｅｒｅｒｓ合同会社,,合同会社,大阪府,大阪市淀川区,西中島５丁目１番８号,,27,123,5320011,,,,,,,2025-10-14,1,,,,,ヨウカイワンダラーズ,0
1093,4120901051605,新規,0,2025-10-14,2025-10-14,Ａ＆Ｒ株式会社,,株式会社,大阪府,豊中市,北桜塚４丁目８番３号,,27,203,5600022,,,,,,,2025-10-14,1,,,,,エーアンドアール,0
1094,4120901051613,新規,0,2025-10-14,2025-10-14,ＬＩＮＫＯＮＥ株式会社,,株式会社,大阪府,箕面市,瀬川５丁目１３－６ファミール１０１,,27,220,5620045,,,,,,,2025-10-14,1,,,,,リンクワン,0
1095,4120901051621,新規,0,2025-10-14,2025-10-14,株式会社ＦＥＳＴ,,株式会社,大阪府,茨木市,彩都あさぎ１丁目３番６－１０２３号,,27,211,5670085,,,,,,,2025-10-14,1,,,,,フェスト,0
1100,4130001080743,新規,0,2025-10-14,2025-10-14,トラゲットパートナーズ株式会社,,株式会社,京都府,京都市下京区,烏丸通七条下る東塩小路町７３５－１京阪京都ビル８階,,26,106,6008216,,,,,,,2025-10-14,1,,,,,トラゲットパートナーズ,0
1101,4130003010855,新規,0,2025-10-14,2025-10-14,合同会社ｓａｎｅｅｓｅ,,合同会社,京都府,宇治市,伊勢田町砂田６７番地の１９,,26,204,6110043,,,,,,,2025-10-14,1,,,,,サニーズ,0
1114,4140001140331,新規,0,2025-10-14,2025-10-14,株式会社とんとん,,株式会社,兵庫県,神戸市中央区,磯辺通２丁目２番１０－１００６号,,28,110,6510084,,,,,,,2025-10-14,1,,,,,トントン,0
1119,4160005011444,新規,0,2025-10-14,2025-10-14,一般社団法人ＫＩＺＵＮＡＧｒｏｕｐエンターテイメント,,その他の設立登記法人,滋賀県,甲賀市,甲南町希望ケ丘２丁目３４番地４,,25,209,5203333,,,,,,,2025-10-14,1,,,,,キズナグループエンターテイメント,0
1121,4170003002320,新規,0,2025-10-14,2025-10-14,ＬＯＴＵＳ　ＳＹＳＴＥＭＳ合同会社,,合同会社,和歌山県,和歌山市,美園町５丁目７番８号パーク美園町ビル２Ｆ－Ｄ,,30,201,6408331,,,,,,,2025-10-14,1,,,,,ロータスシステムズ,0
1132,4180001169045,新規,0,2025-10-14,2025-10-14,株式会社ＬｉＢｒａｖｅ,,株式会社,愛知県,名古屋市中村区,名駅３丁目４番１０号アルティメイト名駅１ｓｔ２階,,23,105,4500002,,,,,,,2025-10-14,1,,,,,リブレイブ,0
1133,4180301040327,新規,0,2025-10-14,2025-10-14,株式会社ＳＪ　ＰＲＩＭＵＳ,,株式会社,愛知県,豊田市,永覚町百間圦１番地１,,23,211,4701205,,,,,,,2025-10-14,1,,,,,エスジェイプリムズ,0
1139,4220001026968,新規,0,2025-10-14,2025-10-14,株式会社ＶＮＬ　Ｗｏｒｋｓ,,株式会社,石川県,小松市,八日市町４４番地３サンクラシック小松八日市５０３号,,17,203,9230925,,,,,,,2025-10-14,1,,,,,バニラワークス,0
1156,4290801031946,新規,0,2025-10-14,2025-10-14,株式会社ＫＡＷＡＴＡ,,株式会社,福岡県,北九州市八幡西区,千代１丁目１０番８号,,40,109,8071112,,,,,,,2025-10-14,1,,,,,カワタ,0
1160,4310001019822,新規,0,2025-10-14,2025-10-14,株式会社味味屋,,株式会社,長崎県,大村市,松並１丁目２９３番地２,,42,205,8560814,,,,,,,2025-10-14,1,,,,,アジミヤ,0
1168,4360003015294,新規,0,2025-10-14,2025-10-14,東禹合同会社,,合同会社,沖縄県,石垣市,字新川３６２－１２,,47,207,9070024,,,,,,,2025-10-14,1,,,,,ドンイー,0
1171,4370003007332,新規,0,2025-10-14,2025-10-14,合同会社ぽしろ,,合同会社,宮城県,大崎市,古川穂波８丁目１０番１号,,04,215,9896136,,,,,,,2025-10-14,1,,,,,ポシロ,0
1172,4370201000502,新規,0,2025-10-14,2025-10-14,株式会社米城本店,,株式会社,宮城県,大崎市,古川七日町１番８号,,04,215,9896153,,,,,,,2025-10-14,1,,,,,,0
1176,4380001035615,新規,0,2025-10-14,2025-10-14,和工電業株式会社,,株式会社,福島県,石川郡平田村,大字東山字宮ノ田和１１７番地,,07,503,9638111,,,,,,,2025-10-14,1,,,,,ワコウデンギョウ,0
1177,4380001035631,新規,0,2025-10-14,2025-10-14,コアノーツ株式会社,,株式会社,福島県,郡山市,緑町９－１２,,07,203,9638023,,,,,,,2025-10-14,1,,,,,コアノーツ,0
1185,4430003018190,新規,0,2025-10-14,2025-10-14,ＦＩＳ農場合同会社,,合同会社,北海道,夕張郡長沼町,西４線北７番地,,01,428,0691318,,,,,,,2025-10-14,1,,,,,フィズノウジョウ,0
1186,4430005015327,新規,0,2025-10-14,2025-10-14,一般社団法人ＪＡＰＡＮ民泊ネットワーク,,その他の設立登記法人,北海道,札幌市中央区,南五条東２丁目３番地ＭＯＤＥＮＡ　ＦＩＮＥＳＴ１４０１号,,01,101,0600055,,,,,,,2025-10-14,1,,,,,ジャパンミンパクネットワーク,0
1193,4480001012983,新規,0,2025-10-14,2025-10-14,アゲハ産業株式会社,,株式会社,徳島県,吉野川市,鴨島町鴨島３７０番地１,,36,205,7760010,,,,,,,2025-10-14,1,,,,,,0
1194,4480003002330,新規,0,2025-10-14,2025-10-14,ケイエスＮＥＣＴ合同会社,,合同会社,徳島県,海部郡海陽町,浅川字入口１番地８,,36,388,7750101,,,,,,,2025-10-14,1,,,,,ケイエスネクト,0
1220,5010001259241,新規,0,2025-10-14,2025-10-14,株式会社ｕｋ,,株式会社,東京都,文京区,目白台１丁目１１番１４号,,13,105,1120015,,,,,,,2025-10-14,1,,,,,ユーケー,0
1221,5010001259274,新規,0,2025-10-14,2025-10-14,ミズノキ不動産株式会社,,株式会社,東京都,千代田区,霞が関３丁目２番５号,,13,101,1000013,,,,,,,2025-10-14,1,,,,,ミズノキフドウサン,0
1222,5010001259299,新規,0,2025-10-14,2025-10-14,Ｐｉｘｅｌ　Ｚｉｐｐｅｒ　Ｊａｐａｎ株式会社,,株式会社,東京都,中央区,日本橋３丁目２番１４号新槇町ビル別館第一１階,,13,102,1030027,,,,,,,2025-10-14,1,,,,,ピクセルジッパージャパン,0
1223,5010001259316,新規,0,2025-10-14,2025-10-14,株式会社ＶｉｔａｌＯｒｂ,,株式会社,東京都,千代田区,内神田２丁目１０番７号プレミアステージ内神田３０６,,13,101,1010047,,,,,,,2025-10-14,1,,,,,バイタルオーブ,0
1226,5010003048980,新規,0,2025-10-14,2025-10-14,和拓合同会社,,合同会社,東京都,千代田区,神田和泉町１番地６－１６ヤマトビル４０５,,13,101,1010024,,,,,,,2025-10-14,1,,,,,ワタク,0
1227,5010003049013,新規,0,2025-10-14,2025-10-14,合同会社ＮＳ,,合同会社,東京都,千代田区,紀尾井町４番１号ニューオータニガーデンコート１２階,,13,101,1020094,,,,,,,2025-10-14,1,,,,,エヌエス,0
1236,5010401193379,新規,0,2025-10-14,2025-10-14,ＪＢＡｏｘｉｎ　Ｈｅａｌｔｈ株式会社,,株式会社,東京都,港区,北青山２丁目７番１３号プラセオ青山ビル３Ｆ,,13,103,1070061,,,,,,,2025-10-14,1,,,,,ジェービーアオシンヘルス,0
1237,5010401193635,新規,0,2025-10-14,2025-10-14,株式会社ＲＭＤ,,株式会社,東京都,港区,六本木６丁目１６番１１－２０１号,,13,103,1060032,,,,,,,2025-10-14,1,,,,,アールエムディ,0
1238,5010401193676,新規,0,2025-10-14,2025-10-14,株式会社Ｌｉｏｒａ,,株式会社,東京都,港区,元麻布３丁目５番１１号マジェス元麻布Ｃ－５０１,,13,103,1060046,,,,,,,2025-10-14,1,,,,,リオラ,0
1243,5010501054844,新規,0,2025-10-14,2025-10-14,株式会社ＳＴＵＤＩＯ　ＵＡＭＯＵ,,株式会社,東京都,台東区,上野５丁目９番２ｋ５４０ＡＫＩ－ＯＫＡＡＲＴＩＳＡＮＮ－５,,13,106,1100005,,,,,,,2025-10-14,1,,,,,スタジオウアモウ,0
1244,5010501054877,新規,0,2025-10-14,2025-10-14,株式会社ＯｎｅＤｅａｌ,,株式会社,東京都,台東区,竜泉３丁目３１番１３号鈴木ビル３０２,,13,106,1100012,,,,,,,2025-10-14,1,,,,,ワンディール,0
1245,5010601068125,新規,0,2025-10-14,2025-10-14,株式会社亀戸システムズ,,株式会社,東京都,江東区,亀戸９丁目３４－１,,13,108,1360071,,,,,,,2025-10-14,1,,,,,カメイドシステムズ,0
1246,5010603011834,新規,0,2025-10-14,2025-10-14,子計合同会社,,合同会社,東京都,墨田区,八広６丁目２－１－６０２,,13,107,1310041,,,,,,,2025-10-14,1,,,,,コケイ,0
1248,5010703007955,新規,0,2025-10-14,2025-10-14,合同会社フォース,,合同会社,東京都,品川区,東大井３丁目８－１２エスタート大井町フォレスト５０４号室,,13,109,1400011,,,,,,,2025-10-14,1,,,,,フォース,0
1253,5011001172839,新規,0,2025-10-14,2025-10-14,株式会社泥,,株式会社,東京都,渋谷区,恵比寿西１丁目３４番１５号,,13,113,1500021,,,,,,,2025-10-14,1,,,,,ドロ,0
1254,5011001172871,新規,0,2025-10-14,2025-10-14,株式会社ＴＡＲＵＩＴＡＢＬＥＳ,,株式会社,東京都,渋谷区,千駄ヶ谷４丁目２２－６,,13,113,1510051,,,,,,,2025-10-14,1,,,,,タルイテーブルズ,0
1255,5011003022587,新規,0,2025-10-14,2025-10-14,ＥＶＯＬＡ合同会社,,合同会社,東京都,渋谷区,恵比寿１丁目２５－２－６０３,,13,113,1500013,,,,,,,2025-10-14,1,,,,,エボラ,0
1256,5011003022637,新規,0,2025-10-14,2025-10-14,ＬＶＬ３７合同会社,,合同会社,東京都,渋谷区,道玄坂１丁目１０番８号渋谷道玄坂東急ビル２Ｆ－Ｃ,,13,113,1500043,,,,,,,2025-10-14,1,,,,,レベルサンジュウナナ,0
1257,5011003022645,新規,0,2025-10-14,2025-10-14,合同会社Ｌｅｇｅｎｄａｒｙ　Ｍｉｎｄｓ,,合同会社,東京都,渋谷区,恵比寿西２丁目４－８ウィンド恵比寿ビル８Ｆ,,13,113,1500021,,,,,,,2025-10-14,1,,,,,レジェンダリーマインズ,0
1261,5011103016555,新規,0,2025-10-14,2025-10-14,合同会社ジェイ・ジー・ユー,,合同会社,東京都,新宿区,下宮比町１番４号,,13,104,1620822,,,,,,,2025-10-14,1,,,,,ジェイジーユー,0
1262,5011201026695,新規,0,2025-10-14,2025-10-14,日本星光株式会社,,株式会社,東京都,中野区,上高田２丁目３０番１号ブレス多賀２０３号室,,13,114,1640002,,,,,,,2025-10-14,1,,,,,ニホンセイコウ,0
1263,5011303005746,新規,0,2025-10-14,2025-10-14,合同会社真世企画,,合同会社,東京都,杉並区,今川４丁目１９番１６号クレスタ今川２０１,,13,115,1670035,,,,,,,2025-10-14,1,,,,,マセキカク,0
1270,5012703003389,新規,0,2025-10-14,2025-10-14,Ｐｒｏｖｅ合同会社,,合同会社,東京都,西東京市,東町２丁目１－８－２０２,,13,229,2020012,,,,,,,2025-10-14,1,,,,,プロヴァ,0
1272,5013301055070,新規,0,2025-10-14,2025-10-14,株式会社ＬｉｎｑＣｏｒｅ,,株式会社,東京都,豊島区,南大塚３丁目３６番７号南大塚Ｔ＆Ｔビル６階,,13,116,1700005,,,,,,,2025-10-14,1,,,,,リンクコア,0
1273,5013301055104,新規,0,2025-10-14,2025-10-14,株式会社ＬｅＯＮＥ,,株式会社,東京都,豊島区,池袋２丁目１１番９号ＢＬＯＣＫＳＩＫＥＢＵＫＵＲＯ３１２,,13,116,1710014,,,,,,,2025-10-14,1,,,,,エルイーワン,0
1278,5020001165042,新規,0,2025-10-14,2025-10-14,株式会社きずなプラス,,株式会社,神奈川県,横浜市港北区,大倉山３丁目１番２５号大倉山アーバンライフ１０８号,,14,109,2220037,,,,,,,2025-10-14,1,,,,,キズナプラス,0
1279,5020001165323,新規,0,2025-10-14,2025-10-14,株式会社ＰＣＷ,,株式会社,神奈川県,川崎市麻生区,万福寺１丁目１６番６号,,14,137,2150004,,,,,,,2025-10-14,1,,,,,ピーシーダブリュー,0
1283,5020003029501,新規,0,2025-10-14,2025-10-14,Ｌｕｚｅｒｎ　Ｇｒｏｕｐ合同会社,,合同会社,神奈川県,横浜市金沢区,柴町７－１４,,14,108,2360012,,,,,,,2025-10-14,1,,,,,ルシェルングループ,0
1284,5020003029625,新規,0,2025-10-14,2025-10-14,合同会社ユータイエステート,,合同会社,神奈川県,川崎市高津区,新作６丁目１番１７ー４０１号,,14,134,2130014,,,,,,,2025-10-14,1,,,,,ユータイエステート,0
1288,5021001086550,新規,0,2025-10-14,2025-10-14,株式会社ＺＯＯＭＩＥ,,株式会社,神奈川県,茅ヶ崎市,東海岸南２丁目１１番２１－１１０号ＮｉｓｓｈｉｎＧｒａｎｄｐａｌａｃｅ茅ヶ崎東海岸,,14,207,2530054,,,,,,,2025-10-14,1,,,,,ズーミー,0
1299,5030001169125,新規,0,2025-10-14,2025-10-14,株式会社フジアドクリエイト,,株式会社,埼玉県,和光市,丸山台１丁目４番４号２Ｆ,,11,229,3510112,,,,,,,2025-10-14,1,,,,,フジアドクリエイト,0
1301,5030005022296,新規,0,2025-10-14,2025-10-14,医療法人社団智仁会,,その他の設立登記法人,埼玉県,志木市,本町５丁目１５番２１号１階,,11,228,3530004,,,,,,,2025-10-14,1,,,,,チジンカイ,0
1313,5040003028724,新規,0,2025-10-14,2025-10-14,合同会社カトウ防水,,合同会社,千葉県,市川市,柏井町２丁目１４２３番地４,,12,203,2720802,,,,,,,2025-10-14,1,,,,,カトウボウスイ,0
1314,5040003028749,新規,0,2025-10-14,2025-10-14,Ｋａｔｔａ合同会社,,合同会社,千葉県,東金市,田間２１５７番地,,12,213,2830005,,,,,,,2025-10-14,1,,,,,カタ,0
1315,5040003028773,新規,0,2025-10-14,2025-10-14,合同会社Ｂｅ‐ｆｉｔ,,合同会社,千葉県,市川市,行徳駅前２丁目１７番５－２０３号（青山ビル）,,12,203,2720133,,,,,,,2025-10-14,1,,,,,ビーフィット,0
1319,5050001057451,新規,0,2025-10-14,2025-10-14,株式会社ｚｅｒａｓ,,株式会社,茨城県,筑西市,嘉家佐和２１１９番地５,,08,227,3080837,,,,,,,2025-10-14,1,,,,,ゼラス,0
1335,5100001039023,新規,0,2025-10-14,2025-10-14,株式会社ＧＥＭ,,株式会社,長野県,松本市,並柳１丁目１６番２４号,,20,202,3900825,,,,,,,2025-10-14,1,,,,,ジェム,0
1337,5110003005930,新規,0,2025-10-14,2025-10-14,合同会社ＮＡＬＵ,,合同会社,新潟県,長岡市,古正寺３丁目３７５－２０１,,15,202,9402106,,,,,,,2025-10-14,1,,,,,ナル,0
1352,5120001280285,新規,0,2025-10-14,2025-10-14,ＯＴＯＭＯ株式会社,,株式会社,大阪府,大阪市北区,本庄西２丁目２－４,,27,127,5310073,,,,,,,2025-10-14,1,,,,,オトモ,0
1353,5120001280509,新規,0,2025-10-14,2025-10-14,株式会社ＭＯＵＳＥ,,株式会社,大阪府,大阪市福島区,吉野１丁目２１番１４号,,27,103,5530006,,,,,,,2025-10-14,1,,,,,マウス,0
1354,5120001280533,新規,0,2025-10-14,2025-10-14,染矢組ホールディングス株式会社,,株式会社,大阪府,大阪市西区,南堀江１丁目７番４号,,27,106,5500015,,,,,,,2025-10-14,1,,,,,ソメヤグミホールディングス,0
1355,5120001280541,新規,0,2025-10-14,2025-10-14,株式会社Ｌｉｎｋ,,株式会社,大阪府,大阪市北区,松ケ枝町６番１号グロウビル６０３号,,27,127,5300037,,,,,,,2025-10-14,1,,,,,リンク,0
1356,5120001280566,新規,0,2025-10-14,2025-10-14,株式会社バッカス,,株式会社,大阪府,大阪市中央区,宗右衛門町２番３号美松ビル２階,,27,128,5420084,,,,,,,2025-10-14,1,,,,,バッカス,0
1357,5120001280574,新規,0,2025-10-14,2025-10-14,太陽株式会社,,株式会社,大阪府,守口市,藤田町１丁目３７番６号ロイヤルオーディン藤田町１０５Ｂ号室,,27,209,5700014,,,,,,,2025-10-14,1,,,,,タイヨウ,0
1358,5120001280665,新規,0,2025-10-14,2025-10-14,シングルオート株式会社,,株式会社,大阪府,大阪市西淀川区,御幣島２丁目２０番８号,,27,113,5550012,,,,,,,2025-10-14,1,,,,,シングルオート,0
1359,5120001280673,新規,0,2025-10-14,2025-10-14,株式会社ＲＥＳＰＥＣＴＩＡ,,株式会社,大阪府,大阪市中央区,南本町１丁目４番１０号,,27,128,5410054,,,,,,,2025-10-14,1,,,,,リスペクティア,0
1360,5120001280764,新規,0,2025-10-14,2025-10-14,株式会社ＣＥｓｔ　ｒａ　ｖｉ,,株式会社,大阪府,大阪市北区,長柄中２丁目７番８号,,27,127,5310062,,,,,,,2025-10-14,1,,,,,セラヴィ,0
1361,5120001280839,新規,0,2025-10-14,2025-10-14,株式会社タニワチ,,株式会社,大阪府,寝屋川市,河北中町２６－１,,27,215,5720816,,,,,,,2025-10-14,1,,,,,タニワチ,0
1362,5120001281093,新規,0,2025-10-14,2025-10-14,東云国際株式会社,,株式会社,大阪府,大阪市東成区,大今里３丁目１５番６号ＩｍａｚａｔｏＴｏｗｅｒ３１０Ｂ,,27,115,5370012,,,,,,,2025-10-14,1,,,,,トウウンコクサイ,0
1363,5120001281119,新規,0,2025-10-14,2025-10-14,商夏株式会社,,株式会社,大阪府,大阪市東住吉区,中野４丁目１番１６号サラオリエンテ中野６０６Ａ,,27,121,5460012,,,,,,,2025-10-14,1,,,,,ショウカ,0
1365,5120003030878,新規,0,2025-10-14,2025-10-14,合同会社サポリンク,,合同会社,大阪府,大阪市生野区,小路東４丁目１６番１４号メゾンクロワール３０６,,27,116,5440003,,,,,,,2025-10-14,1,,,,,サポリンク,0
1366,5120003030886,新規,0,2025-10-14,2025-10-14,合同会社Ｓｕｒｆ,,合同会社,大阪府,大阪市北区,本庄西１丁目３番２２号,,27,127,5310073,,,,,,,2025-10-14,1,,,,,サーフ,0
1368,5120005025208,新規,0,2025-10-14,2025-10-14,一般社団法人ＡＰＥＣインターン協会,,その他の設立登記法人,大阪府,大阪市北区,梅田１丁目１－３大阪駅前第３ビル２９階１－１－１号,,27,127,5300001,,,,,,,2025-10-14,1,,,,,エイペックインターンキョウカイ,0
1375,5120901051595,新規,0,2025-10-14,2025-10-14,株式会社キヌガワ電機Ｈ．Ｃ．Ｓ,,株式会社,大阪府,高槻市,郡家本町４３番１４号,,27,207,5691131,,,,,,,2025-10-14,1,,,,,キヌガワデンキエイチシーエス,0
1376,5120901051612,新規,0,2025-10-14,2025-10-14,株式会社椅子屋Ｓｈｅｅｐ,,株式会社,大阪府,池田市,伏尾町７２番地の９６,,27,204,5630011,,,,,,,2025-10-14,1,,,,,イスヤシープ,0
1377,5120903005896,新規,0,2025-10-14,2025-10-14,合同会社ソフィア,,合同会社,大阪府,吹田市,桃山台３丁目２番１１号,,27,205,5650854,,,,,,,2025-10-14,1,,,,,ソフィア,0
1380,5130001080684,新規,0,2025-10-14,2025-10-14,株式会社美肌ＡＩコネクト,,株式会社,京都府,京都市左京区,松ケ崎西桜木町３１番地,,26,103,6060903,,,,,,,2025-10-14,1,,,,,ビハダエーアイコネクト,0
1381,5130001080750,新規,0,2025-10-14,2025-10-14,株式会社ＰＡＲＶＨＥＪ　ＩＮＴＥＲＮＡＴＩＯＮＡＬ,,株式会社,京都府,宇治市,木幡西中３３番地,,26,204,6110002,,,,,,,2025-10-14,1,,,,,パルヴェシュインターナショナル,0
1382,5130001080759,新規,0,2025-10-14,2025-10-14,東昇日本株式会社,,株式会社,京都府,京都市上京区,河原町通広小路下る東桜町２５－３ローレルコート京都御所東２０５,,26,102,6020858,,,,,,,2025-10-14,1,,,,,トウショウニホン,0
1383,5130001080767,新規,0,2025-10-14,2025-10-14,ｅコミュニティ株式会社,,株式会社,京都府,京都市下京区,朱雀宝蔵町４４番地協栄ビル２階京都朱雀スタジオＡＳ－４０７,,26,106,6008846,,,,,,,2025-10-14,1,,,,,イーコミュニティ,0
1384,5130001080791,新規,0,2025-10-14,2025-10-14,ＦＵＬＬ　ＨＯＵＳＥ株式会社,,株式会社,京都府,京都市中京区,一之船入町５３７番地２０ＦＩＳ御池ビル,,26,104,6040924,,,,,,,2025-10-14,1,,,,,フルハウス,0
1402,5140001140371,新規,0,2025-10-14,2025-10-14,ニシプロパティマネジメント株式会社,,株式会社,兵庫県,姫路市,城東町野田１番地８ワコーレ姫路京口マークス３０３,,28,201,6700844,,,,,,,2025-10-14,1,,,,,ニシプロパティマネジメント,0
1408,5140005027656,新規,0,2025-10-14,2025-10-14,あいみらい社会保険労務士法人,,その他の設立登記法人,兵庫県,三木市,大塚２４４番地の５メディカルコート３階３０２号,,28,215,6730413,,,,,,,2025-10-14,1,,,,,アイミライ,0
1410,5150005009728,新規,0,2025-10-14,2025-10-14,一般社団法人二樺,,その他の設立登記法人,奈良県,生駒郡安堵町,大字かしの木台１丁目３番地の４,,29,345,6391063,,,,,,,2025-10-14,1,,,,,ニカ,0
1413,5160003003624,新規,0,2025-10-14,2025-10-14,合同会社Ｅｚａａ,,合同会社,滋賀県,守山市,石田町２番７号,,25,207,5240014,,,,,,,2025-10-14,1,,,,,エザー,0
1419,5180001168806,新規,0,2025-10-14,2025-10-14,株式会社角亀甲,,株式会社,愛知県,名古屋市名東区,よもぎ台３丁目７１２番地,,23,115,4650091,,,,,,,2025-10-14,1,,,,,ツノキッコウ,0
1420,5180001168995,新規,0,2025-10-14,2025-10-14,ホワイトベアー株式会社,,株式会社,愛知県,一宮市,宮地２丁目１－９,,23,203,4910915,,,,,,,2025-10-14,1,,,,,ホワイトベアー,0
1421,5180001169060,新規,0,2025-10-14,2025-10-14,株式会社Ｃｏｌｉｎｅ,,株式会社,愛知県,名古屋市北区,田幡２丁目４番１４号,,23,103,4620843,,,,,,,2025-10-14,1,,,,,カライン,0
1439,5250001021395,新規,0,2025-10-14,2025-10-14,株式会社ＲＥＯ企画,,株式会社,山口県,宇部市,大字西岐波５７７番地６,,35,202,7550151,,,,,,,2025-10-14,1,,,,,レオキカク,0
1451,5290001111787,新規,0,2025-10-14,2025-10-14,Ｓｐｅａｒｈｅａｄ株式会社,,株式会社,福岡県,久留米市,天神町１－１米城ビルディング９階,,40,203,8300033,,,,,,,2025-10-14,1,,,,,,0
1452,5290001111820,新規,0,2025-10-14,2025-10-14,株式会社ＥＧＡＬ,,株式会社,福岡県,久留米市,津福本町１７０番地１０ルネックス花畑１－３,,40,203,8300047,,,,,,,2025-10-14,1,,,,,,0
1463,5310005008878,新規,0,2025-10-14,2025-10-14,医療法人しらかわ内科クリニック,,その他の設立登記法人,長崎県,壱岐市,芦辺町諸吉仲触４番地１,,42,210,8115313,,,,,,,2025-10-14,1,,,,,シラカワナイカクリニック,0
1466,5320003004795,新規,0,2025-10-14,2025-10-14,合同会社ＫＡＮＥＫＡ商会,,合同会社,大分県,別府市,中島町１３番５号グリーンヒル別府中島２０２号,,44,202,8740901,,,,,,,2025-10-14,1,,,,,カネカショウカイ,0
1478,5350001019768,新規,0,2025-10-14,2025-10-14,株式会社レイヤ,,株式会社,宮崎県,宮崎市,恒久２丁目１番地２５,,45,201,8800913,,,,,,,2025-10-14,1,,,,,レイヤ,0
1479,5360001035905,新規,0,2025-10-14,2025-10-14,わなきお販店株式会社,,株式会社,沖縄県,豊見城市,字豊見城４７７番地１－２０６号室,,47,212,9010241,,,,,,,2025-10-14,1,,,,,ワナキオハンテン,0
1480,5360003015293,新規,0,2025-10-14,2025-10-14,蕚非営利合同会社,,合同会社,沖縄県,中頭郡北中城村,字安谷屋９５３－１,,47,327,9012316,,,,,,,2025-10-14,1,,,,,ウテナヒエイリ,0
1482,5370001053138,新規,0,2025-10-14,2025-10-14,株式会社ＧＬＯＷ　ＵＰ,,株式会社,宮城県,石巻市,中里７丁目２番６号アルパンコーポＢ棟１０８,,04,202,9860815,,,,,,,2025-10-14,1,,,,,グロウアップ,0
1483,5370001053146,新規,0,2025-10-14,2025-10-14,株式会社ＬｉＪｕ,,株式会社,宮城県,仙台市青葉区,中央１丁目６番２３号鹿島ビル６階,,04,101,9800021,,,,,,,2025-10-14,1,,,,,リジュ,0
1487,5370003007315,新規,0,2025-10-14,2025-10-14,合同会社くりこま高原,,合同会社,宮城県,栗原市,志波姫八樟谷地１４０番地,,04,213,9895622,,,,,,,2025-10-14,1,,,,,クリコマコウゲン,0
1488,5370003007331,新規,0,2025-10-14,2025-10-14,ＪｏｙＢｉｚ合同会社,,合同会社,宮城県,東松島市,赤井字鷲塚２６,,04,214,9810501,,,,,,,2025-10-14,1,,,,,ジョイビズ,0
1492,5380003006167,新規,0,2025-10-14,2025-10-14,合同会社うぶすな緑化,,合同会社,福島県,双葉郡大熊町,大字下野上字清水２３０,,07,545,9791308,,,,,,,2025-10-14,1,,,,,ウブスナリョッカ,0
1493,5390003002454,新規,0,2025-10-14,2025-10-14,Ｃａｐｔｕｒｅ　Ｗｏｒｋｓ合同会社,,合同会社,山形県,山形市,末広町１６―３　アパートメントハウス末広町２Ｆ,,06,201,9902494,,,,,,,2025-10-14,1,,,,,キャプチャーワークス,0
1495,5410003004167,新規,0,2025-10-14,2025-10-14,合同会社Ｓｏｌｅｇｅｏ,,合同会社,秋田県,秋田市,広面字樋ノ沖４３番地３モーニンググローリーＢ１０１,,05,201,0100041,,,,,,,2025-10-14,1,,,,,ソレジオ,0
1496,5420005007976,新規,0,2025-10-14,2025-10-14,一般社団法人下北むつ不動産協議会,,その他の設立登記法人,青森県,むつ市,下北町１４番３号,,02,208,0350061,,,,,,,2025-10-14,1,,,,,シモキタムツフドウサンキョウギカイ,0
1499,5430001095388,新規,0,2025-10-14,2025-10-14,株式会社山内工業,,株式会社,北海道,札幌市北区,屯田十条３丁目１番２３号,,01,102,0020860,,,,,,,2025-10-14,1,,,,,ヤマウチコウギョウ,0
1500,5430003018157,新規,0,2025-10-14,2025-10-14,ＴＡＨＡ　ＴＲＡＤＩＮＧ合同会社,,合同会社,北海道,石狩郡当別町,蕨岱２３１番地４,,01,303,0610214,,,,,,,2025-10-14,1,,,,,タハトレーディング,0
1501,5430003018198,新規,0,2025-10-14,2025-10-14,合同会社やまねこ,,合同会社,北海道,虻田郡ニセコ町,字ニセコ３５６番地１,,01,395,0481511,,,,,,,2025-10-14,1,,,,,ヤマネコ,0
1503,5430005015326,新規,0,2025-10-14,2025-10-14,一般社団法人いいいろ,,その他の設立登記法人,北海道,札幌市東区,伏古十四条４丁目３番６号,,01,103,0070874,,,,,,,2025-10-14,1,,,,,イイイロ,0
1504,5430005015334,新規,0,2025-10-14,2025-10-14,アームズ行政書士法人,,その他の設立登記法人,北海道,虻田郡倶知安町,字比羅夫５番地５,,01,400,0440077,,,,,,,2025-10-14,1,,,,,アームズ,0
1506,5450001014759,新規,0,2025-10-14,2025-10-14,株式会社Ｊａｐａｎ　Ｔｅｃｈｎｉｃａｌ　Ｃｏｍｐａｎｙ,,株式会社,北海道,旭川市,永山六条１４丁目７番９号,,01,204,0798416,,,,,,,2025-10-14,1,,,,,ジャパンテクニカルカンパニー,0
1513,5480001012982,新規,0,2025-10-14,2025-10-14,Ｓホールディングス株式会社,,株式会社,徳島県,徳島市,東船場町２丁目２１番地の２阿波銀住友生命ビル３階,,36,201,7700911,,,,,,,2025-10-14,1,,,,,エスホールディングス,0
1514,5480003002338,新規,0,2025-10-14,2025-10-14,Ｈａｌａｌ　Ｔｅｒｍｉｎａｌ合同会社,,合同会社,徳島県,徳島市,東吉野町２丁目２５番地１ハイツフジタ,,36,201,7700811,,,,,,,2025-10-14,1,,,,,ハラールターミナル,0
1515,5490003002056,新規,0,2025-10-14,2025-10-14,合同会社Ｂｅｌｌｅ　Ｃｈａｔｏｎ,,合同会社,高知県,高知市,桜馬場２番３号,,39,201,7800929,,,,,,,2025-10-14,1,,,,,ベルシャトン,0
1519,5700150132492,新規,0,2025-10-14,2025-10-14,紅雲数字網絡（深セン）有限公司,,外国会社等,,,,,,,,深セン市宝安区福海街道橋頭社区同泰総部産業園廠房３棟同泰時代中心３棟Ｂ座９０１,,,,,,2025-10-14,1,,,,,コウウンスウジモウラクシンセンユウゲンコウシ,0
1536,6010001259232,新規,0,2025-10-14,2025-10-14,株式会社Ｑｕｅｅｎ,,株式会社,東京都,中央区,銀座１丁目１２番４号Ｎ＆ＥＢＬＤ．７Ｆ,,13,102,1040061,,,,,,,2025-10-14,1,,,,,クイーン,0
1537,6010001259240,新規,0,2025-10-14,2025-10-14,ウォーターゲートコンサルティング株式会社,,株式会社,東京都,中央区,日本橋室町１丁目１１番１２号日本橋水野ビル７階,,13,102,1030022,,,,,,,2025-10-14,1,,,,,ウォーターゲートコンサルティング,0
1538,6010001259257,新規,0,2025-10-14,2025-10-14,株式会社Ａ　ｎｅｓｔ,,株式会社,東京都,中央区,銀座１丁目２２番１１号銀座大竹ビジデンス２Ｆ,,13,102,1040061,,,,,,,2025-10-14,1,,,,,エーネスト,0
1539,6010001259298,新規,0,2025-10-14,2025-10-14,ヒューマンリンクス株式会社,,株式会社,東京都,千代田区,神田錦町３丁目１５番地錦精社神田ビル１１９号,,13,101,1010054,,,,,,,2025-10-14,1,,,,,ヒューマンリンクス,0
1541,6010003048988,新規,0,2025-10-14,2025-10-14,合同会社ブル管理サービス,,合同会社,東京都,中央区,銀座１丁目１２番４号Ｎ＆ＥＢＬＤ．６Ｆ,,13,102,1040061,,,,,,,2025-10-14,1,,,,,ブルカンリサービス,0
1542,6010003049012,新規,0,2025-10-14,2025-10-14,合同会社Ｓｉｎｃｅｒｅｌｙ,,合同会社,東京都,中央区,銀座１丁目１２番４号Ｎ＆ＥＢＬＤ．６Ｆ,,13,102,1040061,,,,,,,2025-10-14,1,,,,,シンシアリー,0
1543,6010003049045,新規,0,2025-10-14,2025-10-14,合同会社ＬＩＢＥＲ,,合同会社,東京都,千代田区,神田神保町１丁目１０３番地４１１号,,13,101,1010051,,,,,,,2025-10-14,1,,,,,リベル,0
1544,6010003049053,新規,0,2025-10-14,2025-10-14,ＪＰ＆Ｃｏ．合同会社,,合同会社,東京都,中央区,銀座１丁目２２番１１号銀座大竹ビジデンス２Ｆ,,13,102,1040061,,,,,,,2025-10-14,1,,,,,ジェイピーアンドカンパニー,0
1553,6010401193477,新規,0,2025-10-14,2025-10-14,メタルカルチャー株式会社,,株式会社,東京都,港区,麻布十番１丁目５番９号,,13,103,1060045,,,,,,,2025-10-14,1,,,,,メタルカルチャー,0
1554,6010401193626,新規,0,2025-10-14,2025-10-14,ブルーブルームキャピタル株式会社,,株式会社,東京都,港区,北青山１丁目３番１号,,13,103,1070061,,,,,,,2025-10-14,1,,,,,ブルーブルームキャピタル,0
1555,6010401193667,新規,0,2025-10-14,2025-10-14,株式会社Ｌｉｍｂ,,株式会社,東京都,港区,北青山３丁目１番６号３１６青山３０３,,13,103,1070061,,,,,,,2025-10-14,1,,,,,リム,0
1559,6010403036254,新規,0,2025-10-14,2025-10-14,Ｉｎｓｉｇｈｔ　Ｃｏｎｓｕｌｔｉｎｇ合同会社,,合同会社,東京都,港区,東麻布２丁目５番３－６０３号,,13,103,1060044,,,,,,,2025-10-14,1,,,,,インサイトコンサルティング,0
1564,6010601068116,新規,0,2025-10-14,2025-10-14,雲本株式会社,,株式会社,東京都,江東区,木場５丁目１－５メイプルハイム木場Ｂ－１１２号室,,13,108,1350042,,,,,,,2025-10-14,1,,,,,クモモト,0
1567,6010701048471,新規,0,2025-10-14,2025-10-14,株式会社ＧｉｖｅｒＬｉｎｋ,,株式会社,東京都,品川区,小山２丁目１７－１６ＳＴＡＲＨＯＵＳＥ２０２号,,13,109,1420062,,,,,,,2025-10-14,1,,,,,ギバーリンク,0
1574,6010901058254,新規,0,2025-10-14,2025-10-14,ＣＯＲＥ　ＵＮＩＴ株式会社,,株式会社,東京都,世田谷区,桜２丁目１６番１６号,,13,112,1560053,,,,,,,2025-10-14,1,,,,,コアユニット,0
1577,6010903010329,新規,0,2025-10-14,2025-10-14,合同会社Ｃｌｏｕｄ　Ｎｉｎｅ,,合同会社,東京都,世田谷区,池尻２丁目２６―１０,,13,112,1540001,,,,,,,2025-10-14,1,,,,,クラウドナイン,0
1583,6011001172697,新規,0,2025-10-14,2025-10-14,株式会社Ｋｉｙ,,株式会社,東京都,渋谷区,道玄坂１丁目１０番８号渋谷道玄坂東急ビル２Ｆ－Ｃ,,13,113,1500043,,,,,,,2025-10-14,1,,,,,キー,0
1584,6011001172846,新規,0,2025-10-14,2025-10-14,Ｍｅｔａ　Ｃａｒｅｅｒ株式会社,,株式会社,東京都,渋谷区,笹塚１丁目５９番１０号ＡＣＴＳＯＨＯ４Ｆ,,13,113,1510073,,,,,,,2025-10-14,1,,,,,メタキャリア,0
1595,6011501032657,新規,0,2025-10-14,2025-10-14,晶晨国際株式会社,,株式会社,東京都,北区,浮間１丁目１番１４号リムジンビル３５４,,13,117,1150051,,,,,,,2025-10-14,1,,,,,ショウシンコクサイ,0
1597,6011601029099,新規,0,2025-10-14,2025-10-14,株式会社一ノ日,,株式会社,東京都,練馬区,高松１丁目１８番７号,,13,120,1790075,,,,,,,2025-10-14,1,,,,,イチノヒ,0
1600,6011701028835,新規,0,2025-10-14,2025-10-14,株式会社アイカラソリューションズ,,株式会社,東京都,江戸川区,南小岩７丁目３１番１３－８０１号,,13,123,1330056,,,,,,,2025-10-14,1,,,,,アイカラソリューションズ,0
1604,6011703004421,新規,0,2025-10-14,2025-10-14,合同会社ウェブトレイン,,合同会社,東京都,江戸川区,中葛西５丁目４１－７,,13,123,1340083,,,,,,,2025-10-14,1,,,,,ウェブトレイン,0
1608,6012401043686,新規,0,2025-10-14,2025-10-14,株式会社Ｃｙｌｂｒａｉｌｌｅ,,株式会社,東京都,府中市,宮西町２丁目８番地の２,,13,206,1830022,,,,,,,2025-10-14,1,,,,,シルブレイユ,0
1610,6012703003388,新規,0,2025-10-14,2025-10-14,合同会社ＦＲＯＮＴ　ＴＨＲＥＥ,,合同会社,東京都,東久留米市,小山１丁目１４－７,,13,222,2030051,,,,,,,2025-10-14,1,,,,,フロントスリー,0
1611,6012801024278,新規,0,2025-10-14,2025-10-14,株式会社ＧＴＮＨＤセカンド,,株式会社,東京都,立川市,錦町１丁目８番７号立川錦町ビル,,13,202,1900022,,,,,,,2025-10-14,1,,,,,ジーティエヌホールディングスセカンド,0
1612,6012801024303,新規,0,2025-10-14,2025-10-14,美和グループ株式会社,,株式会社,東京都,国分寺市,東恋ヶ窪１丁目２８０番地４ザ・パークハウス国分寺四季の森ＩＩ－５１２,00141093,13,214,1850014,,,,,,,2025-10-14,1,,,,,ミワグループ,0
1623,6020001165074,新規,0,2025-10-14,2025-10-14,株式会社真情,,株式会社,神奈川県,川崎市中原区,新城中町１１番１－１０５号ステイツ武蔵新城モールサイド,,14,133,2110043,,,,,,,2025-10-14,1,,,,,シンジョウ,0
1624,6020001165099,新規,0,2025-10-14,2025-10-14,ケアウィーブ株式会社,,株式会社,神奈川県,横浜市西区,北幸１丁目１１番１号水信ビル７階,,14,103,2200004,,,,,,,2025-10-14,1,,,,,ケアウィーブ,0
1631,6021001086558,新規,0,2025-10-14,2025-10-14,株式会社ＳＨＯＮＡＮ　ＢＡＬＥＡＲＩＣ,,株式会社,神奈川県,藤沢市,鵠沼海岸１丁目１６番８号ＫｕｇｅｎｕｍａＩｎｎ＆ｓｕｉｔｅｓ１０３,00141076,14,205,2510037,,,,,,,2025-10-14,1,,,,,ショウナンバレアリック,0
1643,6030003027866,新規,0,2025-10-14,2025-10-14,合同会社Ｖｅｓｔａ,,合同会社,埼玉県,さいたま市岩槻区,美園東１丁目１７番地６,,11,110,3390028,,,,,,,2025-10-14,1,,,,,ヴェスタ,0
1648,6040001140851,新規,0,2025-10-14,2025-10-14,株式会社菊地建設,,株式会社,千葉県,千葉市花見川区,花見川６番６棟５０３号,,12,102,2620046,,,,,,,2025-10-14,1,,,,,キクチケンセツ,0
1649,6040001140884,新規,0,2025-10-14,2025-10-14,ＳＺ株式会社,,株式会社,千葉県,我孫子市,布佐１丁目１３番地の１０,,12,222,2701101,,,,,,,2025-10-14,1,,,,,エスゼット,0
1650,6040001140901,新規,0,2025-10-14,2025-10-14,株式会社Ｐｒｉｍｅｖｉｔａｓ,,株式会社,千葉県,千葉市中央区,弁天２丁目２１番１０号,,12,101,2600045,,,,,,,2025-10-14,1,,,,,プライムヴィタス,0
1651,6040001141024,新規,0,2025-10-14,2025-10-14,株式会社ポムルージュ,,株式会社,千葉県,柏市,若葉町１番地１,,12,217,2770024,,,,,,,2025-10-14,1,,,,,ポムルージュ,0
1660,6060001038680,新規,0,2025-10-14,2025-10-14,株式会社ｕｎｉｏｎ,,株式会社,栃木県,宇都宮市,若草２丁目１番５０号,,09,201,3200072,,,,,,,2025-10-14,1,,,,,ユニオン,0
1663,6060003005803,新規,0,2025-10-14,2025-10-14,合同会社ＦＴ電気,,合同会社,栃木県,下野市,上古山字明内６５４番地２０,,09,216,3290501,,,,,,,2025-10-14,1,,,,,エフティーデンキ,0
1675,6080401028214,新規,0,2025-10-14,2025-10-14,株式会社ＳＯＦ,,株式会社,静岡県,浜松市中央区,肴町３２２番地２０ＷＡＶＥＢＬＤＧ７階,,22,138,4300932,,,,,,,2025-10-14,1,,,,,ソフ,0
1676,6090001019562,新規,0,2025-10-14,2025-10-14,株式会社美生道,,株式会社,山梨県,富士吉田市,新西原４丁目６番１号,,19,202,4030017,,,,,,,2025-10-14,1,,,,,ビセイドウ,0
1677,6100001039030,新規,0,2025-10-14,2025-10-14,株式会社ミヤモーター,,株式会社,長野県,中野市,大字片塩４５７番地３,,20,211,3830046,,,,,,,2025-10-14,1,,,,,ミヤモーター,0
1691,6120001280565,新規,0,2025-10-14,2025-10-14,佐倉マネジメント株式会社,,株式会社,大阪府,大阪市西成区,津守３丁目５－５２,,27,122,5570062,,,,,,,2025-10-14,1,,,,,サクラマネジメント,0
1692,6120001280656,新規,0,2025-10-14,2025-10-14,エクセレントハート株式会社,,株式会社,大阪府,大阪市東淀川区,豊里６丁目６番１６号,,27,114,5330013,,,,,,,2025-10-14,1,,,,,エクセレントハート,0
1693,6120001280689,新規,0,2025-10-14,2025-10-14,株式会社Ｋａｔ’ｓ,,株式会社,大阪府,大阪市阿倍野区,阪南町１丁目５２番１１－１００３号,,27,119,5450021,,,,,,,2025-10-14,1,,,,,カッツ,0
1694,6120001280706,新規,0,2025-10-14,2025-10-14,株式会社アサヒクレスト,,株式会社,大阪府,大阪市旭区,新森６丁目５番１２号,,27,117,5350022,,,,,,,2025-10-14,1,,,,,アサヒクレスト,0
1695,6120001280714,新規,0,2025-10-14,2025-10-14,株式会社まっちゃん,,株式会社,大阪府,大阪市此花区,春日出南２丁目５番１８号,,27,104,5540023,,,,,,,2025-10-14,1,,,,,マッチャン,0
1696,6120001280747,新規,0,2025-10-14,2025-10-14,株式会社はるひ,,株式会社,大阪府,大阪市西成区,萩之茶屋１丁目８番１１号,,27,122,5570004,,,,,,,2025-10-14,1,,,,,ハルヒ,0
1697,6120001280763,新規,0,2025-10-14,2025-10-14,株式会社メイレンス,,株式会社,大阪府,大阪市北区,梅田１丁目２番２号大阪駅前第２ビル１２－１２,,27,127,5300001,,,,,,,2025-10-14,1,,,,,メイレンス,0
1698,6120001280912,新規,0,2025-10-14,2025-10-14,＿銘株式会社,00141074,株式会社,大阪府,大阪市都島区,中野町２丁目５番１３号プレアール都島ＩＩＩ３０３号室,00141075,27,102,5340027,,,,,,,2025-10-14,1,,,,,キンメイ,0
1699,6120001281010,新規,0,2025-10-14,2025-10-14,株式会社Ｓｕｐｐｌｙ　Ｗｏｒｋｓ,,株式会社,大阪府,大阪市中央区,南船場３丁目２番２２－２０５号,,27,128,5420081,,,,,,,2025-10-14,1,,,,,サプライワークス,0
1700,6120001281027,新規,0,2025-10-14,2025-10-14,千山水科技株式会社,,株式会社,大阪府,大阪市東住吉区,中野４丁目１番１６号サラオリエンテ中野７０３Ｂ,,27,121,5460012,,,,,,,2025-10-14,1,,,,,センサンスイカギ,0
1701,6120001281084,新規,0,2025-10-14,2025-10-14,一鳴未来アカデミー株式会社,,株式会社,大阪府,大阪市東住吉区,中野４丁目１番１６号リベラルオリエンテ中野３０７Ａ,,27,121,5460012,,,,,,,2025-10-14,1,,,,,イチメイミライアカデミー,0
1702,6120001281092,新規,0,2025-10-14,2025-10-14,華得利株式会社,,株式会社,大阪府,大阪市東住吉区,中野４丁目１番１６号サラオリエンテ中野５０７Ｂ,,27,121,5460012,,,,,,,2025-10-14,1,,,,,カトクリ,0
1704,6120003030893,新規,0,2025-10-14,2025-10-14,合同会社ＹＨ,,合同会社,大阪府,守口市,藤田町１丁目３７番６号１０５Ａ,,27,209,5700014,,,,,,,2025-10-14,1,,,,,ワイエイチ,0
1705,6120003030902,新規,0,2025-10-14,2025-10-14,ＣＡＯ　ＴＩＥＰ合同会社,,合同会社,大阪府,大阪市淀川区,田川北１丁目１３－３８ピオネー一番館３Ｆ号,,27,123,5320021,,,,,,,2025-10-14,1,,,,,カオティエップ,0
1706,6120003030919,新規,0,2025-10-14,2025-10-14,本吉商会合同会社,,合同会社,大阪府,大阪市東住吉区,照ケ丘矢田１丁目８－９,,27,121,5460021,,,,,,,2025-10-14,1,,,,,モトヨシショウカイ,0
1707,6120003030927,新規,0,2025-10-14,2025-10-14,ＴＲＡＮＧ合同会社,,合同会社,大阪府,大阪市東住吉区,湯里２丁目１３－２－４０１,,27,121,5460013,,,,,,,2025-10-14,1,,,,,チャン,0
1708,6120005025207,新規,0,2025-10-14,2025-10-14,一般社団法人日本住環境防音協会,,その他の設立登記法人,大阪府,大阪市中央区,南船場１丁目１８番１１号,,27,128,5420081,,,,,,,2025-10-14,1,,,,,ニホンジュウカンキョウボウオンキョウカイ,0
1711,6120101072557,新規,0,2025-10-14,2025-10-14,ＵＬＴ株式会社,,株式会社,大阪府,堺市堺区,百舌鳥夕雲町２丁２５２番地１０１号室,,27,141,5900802,,,,,,,2025-10-14,1,,,,,ユーエルティー,0
1712,6120105010075,新規,0,2025-10-14,2025-10-14,一般社団法人英明会アトラスクリニック,,その他の設立登記法人,大阪府,羽曳野市,羽曳が丘４丁目１４番１７号,,27,222,5830864,,,,,,,2025-10-14,1,,,,,エイメイカイアトラスクリニック,0
1714,6120901051586,新規,0,2025-10-14,2025-10-14,グローバルライフパートナーズ株式会社,,株式会社,大阪府,豊中市,新千里東町３丁目３番１２０－１１０７号,,27,203,5600082,,,,,,,2025-10-14,1,,,,,グローバルライフパートナーズ,0
1715,6120901051594,新規,0,2025-10-14,2025-10-14,株式会社Ｎプランニング,,株式会社,大阪府,茨木市,彩都あさぎ５丁目６番７号,,27,211,5670085,,,,,,,2025-10-14,1,,,,,エヌプランニング,0
1716,6120901051611,新規,0,2025-10-14,2025-10-14,株式会社Ｌｉｂｅｒｔａ,,株式会社,大阪府,茨木市,沢良宜西１丁目７番６号,,27,211,5670868,,,,,,,2025-10-14,1,,,,,リベルタ,0
1717,6120901051628,新規,0,2025-10-14,2025-10-14,株式会社ａｙｕｄａｒ,,株式会社,大阪府,吹田市,山田西３丁目５２番Ｂ－２０９号,,27,205,5650824,,,,,,,2025-10-14,1,,,,,アユダル,0
1719,6120905006801,新規,0,2025-10-14,2025-10-14,一般社団法人アシスト＆コーチング,,その他の設立登記法人,大阪府,高槻市,真上町６丁目２７番１号,,27,207,5691121,,,,,,,2025-10-14,1,,,,,アシストアンドコーチング,0
1721,6130001080824,新規,0,2025-10-14,2025-10-14,Ｃｈａｃｈａ　Ｌｉｎｋ　Ｊａｐａｎ株式会社,,株式会社,京都府,京都市下京区,七条通油小路東入大黒町２２７番地第２キョートビル４０２,,26,106,6008223,,,,,,,2025-10-14,1,,,,,チャチャリンクジャパン,0
1722,6130001080840,新規,0,2025-10-14,2025-10-14,株式会社ＲＴＫ,,株式会社,京都府,八幡市,八幡吉野垣内１２番地２,,26,210,6148013,,,,,,,2025-10-14,1,,,,,アールティーケイ,0
1723,6130003010845,新規,0,2025-10-14,2025-10-14,合同会社ｙａｒｄ,,合同会社,京都府,長岡京市,長岡１丁目２６番１号,,26,209,6170823,,,,,,,2025-10-14,1,,,,,ヤード,0
1727,6140001140263,新規,0,2025-10-14,2025-10-14,ぶたのほし株式会社,,株式会社,兵庫県,尼崎市,長洲西通１丁目１６－７,,28,202,6600807,,,,,,,2025-10-14,1,,,,,ブタノホシ,0
1728,6140001140313,新規,0,2025-10-14,2025-10-14,株式会社和信,,株式会社,兵庫県,神戸市須磨区,妙法寺字蓮池３６６－１０－１００８,,28,107,6540121,,,,,,,2025-10-14,1,,,,,ワシン,0
1729,6140001140346,新規,0,2025-10-14,2025-10-14,株式会社清水製作所,,株式会社,兵庫県,姫路市,飾磨区今在家１１２８番地４,,28,201,6728079,,,,,,,2025-10-14,1,,,,,シミズセイサクショ,0
1731,6150005009727,新規,0,2025-10-14,2025-10-14,特定非営利活動法人地域つながりプロジェクト,,その他の設立登記法人,奈良県,奈良市,二名３丁目１０９６番地の１７,,29,201,6310072,,,,,,,2025-10-14,1,,,,,チイキツナガリプロジェクト,0
1732,6160005011442,新規,0,2025-10-14,2025-10-14,谷口税理士法人,,その他の設立登記法人,滋賀県,草津市,野村３丁目１６番９号,,25,206,5250027,,,,,,,2025-10-14,1,,,,,タニグチ,0
1733,6160005011450,新規,0,2025-10-14,2025-10-14,医療法人青蘭会,,その他の設立登記法人,滋賀県,守山市,二町町１９５番地４,,25,207,5240043,,,,,,,2025-10-14,1,,,,,セイランカイ,0
1745,6180001168904,新規,0,2025-10-14,2025-10-14,株式会社ファクトリンクス,,株式会社,愛知県,名古屋市中村区,名駅３丁目４番１０号アルティメイト名駅１ｓｔ２階,,23,105,4500002,,,,,,,2025-10-14,1,,,,,ファクトリンクス,0
1746,6180001169035,新規,0,2025-10-14,2025-10-14,佐藤フードサービス株式会社,,株式会社,愛知県,名古屋市中区,大須３丁目１２番２６号グランドメゾン大須ザ・タワー１５０５号,,23,106,4600011,,,,,,,2025-10-14,1,,,,,サトウフードサービス,0
1747,6180001169043,新規,0,2025-10-14,2025-10-14,株式会社仮名算,,株式会社,愛知県,名古屋市南区,前浜通３丁目２１番地,,23,112,4570058,,,,,,,2025-10-14,1,,,,,カナサン,0
1748,6180001169051,新規,0,2025-10-14,2025-10-14,株式会社高一工業,,株式会社,愛知県,一宮市,今伊勢町馬寄字上畑田５０番地３,,23,203,4910051,,,,,,,2025-10-14,1,,,,,タカイチコウギョウ,0
1749,6180001169068,新規,0,2025-10-14,2025-10-14,ニューロ・スマイルラボ株式会社,,株式会社,愛知県,名古屋市守山区,深沢１丁目１９１７番地,,23,113,4630811,,,,,,,2025-10-14,1,,,,,ニューロスマイルラボ,0
1750,6180001169076,新規,0,2025-10-14,2025-10-14,株式会社ＩＷ,,株式会社,愛知県,稲沢市,下津北山１丁目１４番地９,,23,220,4928094,,,,,,,2025-10-14,1,,,,,アイダブリュー,0
1762,6200001044342,新規,0,2025-10-14,2025-10-14,ＹＵＵＫＡ　ＩＮＴＥＲＮＡＴＩＯＮＡＬ株式会社,,株式会社,岐阜県,瑞穂市,本田２０２０番地クローバーハウス２０６号,,21,216,5010236,,,,,,,2025-10-14,1,,,,,ユーカインターナショナル,0
1767,6210001020350,新規,0,2025-10-14,2025-10-14,株式会社Ｒｅｌｉｅｒ　Ｌ’Ａｍｏｕｒ,,株式会社,福井県,福井市,月見３丁目３番７号,,18,201,9188011,,,,,,,2025-10-14,1,,,,,ルリエラムール,0
1785,6290801031944,新規,0,2025-10-14,2025-10-14,株式会社凛穏,,株式会社,福岡県,北九州市小倉北区,上富野２丁目２番１２－３０１号,,40,106,8020022,,,,,,,2025-10-14,1,,,,,リオン,0
1790,6330005010963,新規,0,2025-10-14,2025-10-14,一般社団法人球磨ねこステーションＬｉｎｏ,,その他の設立登記法人,熊本県,球磨郡あさぎり町,免田東１９８２番地,,43,514,8680408,,,,,,,2025-10-14,1,,,,,クマネコステーションリノ,0
1794,6350001019767,新規,0,2025-10-14,2025-10-14,株式会社稲本畜産,,株式会社,宮崎県,串間市,大字本城９４４４番地,,45,207,8880008,,,,,,,2025-10-14,1,,,,,イナモトチクサン,0
1797,6370001053137,新規,0,2025-10-14,2025-10-14,株式会社真輝,,株式会社,宮城県,富谷市,太子堂２丁目９番１０号,,04,216,9813303,,,,,,,2025-10-14,1,,,,,シンキ,0
1800,6380003006158,新規,0,2025-10-14,2025-10-14,合同会社マルユウ,,合同会社,福島県,伊達市,保原町上保原字上ノ原４８番地５,,07,213,9600684,,,,,,,2025-10-14,1,,,,,マルユウ,0
1803,6400005008521,新規,0,2025-10-14,2025-10-14,社会保険労務士法人大内事務所,,その他の設立登記法人,岩手県,奥州市,水沢上姉体５丁目８番地８,,03,215,0230833,,,,,,,2025-10-14,1,,,,,オオウチジムショ,0
1810,6430001095429,新規,0,2025-10-14,2025-10-14,株式会社ＹＭ,,株式会社,北海道,札幌市東区,伏古十条２丁目９番３－１０１号,,01,103,0070870,,,,,,,2025-10-14,1,,,,,ワイエム,0
1814,6430003018197,新規,0,2025-10-14,2025-10-14,Ｂｌｕｅ　Ｃｏｗ合同会社,,合同会社,北海道,虻田郡真狩村,字共明１１８番地,,01,396,0481603,,,,,,,2025-10-14,1,,,,,ブルーカウ,0
1822,6700150132491,新規,0,2025-10-14,2025-10-14,中山市蕾諾電子有限公司,,外国会社等,,,,,,,,中山市東鳳鎮小瀝社区益隆一街二巷（李雄秋商舗首層之三）,,,,,,2025-10-14,1,,,,,チュウザンシライダクデンシユウゲンコウシ,0
1837,7010001259198,新規,0,2025-10-14,2025-10-14,和誠商事株式会社,,株式会社,東京都,千代田区,神田須田町２丁目１５－３２１５ビル２階２１０号,,13,101,1010041,,,,,,,2025-10-14,1,,,,,ワセイショウジ,0
1838,7010001259231,新規,0,2025-10-14,2025-10-14,ＧＸイノベーションズ株式会社,,株式会社,東京都,千代田区,神田須田町１丁目７番地８ＶＯＲＴ秋葉原ＩＶ２階,00141084,13,101,1010041,,,,,,,2025-10-14,1,,,,,ジーエックスイノベーションズ,0
1839,7010001259306,新規,0,2025-10-14,2025-10-14,株式会社Ｔ３,,株式会社,東京都,中央区,銀座１丁目１２番４号Ｎ＆ＥＢＬＤ．６Ｆ,,13,102,1040061,,,,,,,2025-10-14,1,,,,,ティースリー,0
1842,7010003049036,新規,0,2025-10-14,2025-10-14,グリーンリンク合同会社,,合同会社,東京都,中央区,銀座２丁目１５番２号,,13,102,1040061,,,,,,,2025-10-14,1,,,,,グリーンリンク,0
1854,7010401193146,新規,0,2025-10-14,2025-10-14,株式会社国際人材共創基盤,,株式会社,東京都,港区,赤坂２丁目１６番地６号ＢＩＺＭＡＲＫＳ赤坂,,13,103,1070052,,,,,,,2025-10-14,1,,,,,コクサイジンザイキョウソウキバン,0
1855,7010401193336,新規,0,2025-10-14,2025-10-14,株式会社Ｍ＆Ｙ,,株式会社,東京都,港区,東麻布２丁目３２－１０－５Ｆ,,13,103,1060044,,,,,,,2025-10-14,1,,,,,エムアンドワイ,0
1856,7010401193468,新規,0,2025-10-14,2025-10-14,株式会社オンフォワード,,株式会社,東京都,港区,港南２丁目１６－４品川グランドセントラルタワ―８Ｆ,,13,103,1080075,,,,,,,2025-10-14,1,,,,,オンフォワード,0
1857,7010401193674,新規,0,2025-10-14,2025-10-14,株式会社Ｖｉｃｔｏｒ　Ａｒｔｈｕｒｓ,,株式会社,東京都,港区,北青山１丁目３番３号三橋ビル３階,,13,103,1070061,,,,,,,2025-10-14,1,,,,,ビクターアーサーズ,0
1859,7010403036162,新規,0,2025-10-14,2025-10-14,合同会社コンパッションユニヴァース,,合同会社,東京都,港区,六本木３丁目１６番１２号六本木ＫＳビル５Ｆ,,13,103,1060032,,,,,,,2025-10-14,1,,,,,コンパッションユニヴァース,0
1860,7010403036170,新規,0,2025-10-14,2025-10-14,合同会社ＨＥＩＣＨ,,合同会社,東京都,港区,赤坂４丁目２番３号ディアシティ赤坂ーツ木館３０３,,13,103,1070052,,,,,,,2025-10-14,1,,,,,エイチ,0
1861,7010405024776,新規,0,2025-10-14,2025-10-14,一般社団法人コア・コーポレートガバナンス研究機構,,その他の設立登記法人,東京都,港区,虎ノ門３丁目４番７号虎ノ門３６森ビル,,13,103,1050001,,,,,,,2025-10-14,1,,,,,コアコーポレートガバナンスケンキュウキコウ,0
1862,7010405024875,新規,0,2025-10-14,2025-10-14,一般社団法人Ｏｎｅ　Ｓｅｅｄ,,その他の設立登記法人,東京都,港区,虎ノ門３丁目１８番６号朝日虎ノ門マンション６１４号室,,13,103,1050001,,,,,,,2025-10-14,1,,,,,ワンシード,0
1863,7010405024883,新規,0,2025-10-14,2025-10-14,一般社団法人栄インベストメント,,その他の設立登記法人,東京都,港区,元赤坂１丁目１番７－１２０９号株式会社赤坂国際会計内,,13,103,1070051,,,,,,,2025-10-14,1,,,,,サカエインベストメント,0
1864,7010501054826,新規,0,2025-10-14,2025-10-14,株式会社ネオスカイ,,株式会社,東京都,台東区,東上野３丁目２１番２号３０２,,13,106,1100015,,,,,,,2025-10-14,1,,,,,ネオスカイ,0
1865,7010501054842,新規,0,2025-10-14,2025-10-14,株式会社Ｂｕｚｚ　Ｌｅａｄ,,株式会社,東京都,台東区,根岸２丁目１５番１－４０２号コンフォリア・リヴ根岸二丁目,,13,106,1100003,,,,,,,2025-10-14,1,,,,,バズリード,0
1866,7010601068107,新規,0,2025-10-14,2025-10-14,株式会社ＮＯＶＡＲＥ,,株式会社,東京都,江東区,北砂３丁目５番２－７０８号,,13,108,1360073,,,,,,,2025-10-14,1,,,,,ノヴァーレ,0
1868,7010701048470,新規,0,2025-10-14,2025-10-14,株式会社金添,,株式会社,東京都,品川区,豊町６丁目１６番１２号,,13,109,1420042,,,,,,,2025-10-14,1,,,,,カナゾエ,0
1872,7010803005568,新規,0,2025-10-14,2025-10-14,Ａｋｉｓｈ　Ｃｏｎｓｕｌｔｉｎｇ合同会社,,合同会社,東京都,大田区,下丸子２丁目１３番５－７２０号,,13,111,1460092,,,,,,,2025-10-14,1,,,,,アキッシュコンサルティング,0
1876,7010901058245,新規,0,2025-10-14,2025-10-14,クレミエール株式会社,,株式会社,東京都,世田谷区,粕谷４丁目１７番３号ドルミー幸栄２０６,,13,112,1570063,,,,,,,2025-10-14,1,,,,,クレミエール,0
1879,7010903010328,新規,0,2025-10-14,2025-10-14,合同会社Ｄａｍａｐｈｙ,,合同会社,東京都,世田谷区,下馬２丁目２６－７－６０２,,13,112,1540002,,,,,,,2025-10-14,1,,,,,ダマフィー,0
1884,7011001172820,新規,0,2025-10-14,2025-10-14,株式会社ヴンダー,,株式会社,東京都,渋谷区,神泉町２３－１ＭＥビル５Ｆ,,13,113,1500045,,,,,,,2025-10-14,1,,,,,ヴンダー,0
1885,7011001172845,新規,0,2025-10-14,2025-10-14,株式会社ＬＩＶ　ＬＵＣ,,株式会社,東京都,渋谷区,桜丘町２３番１７号シティコート桜丘４０４,,13,113,1500031,,,,,,,2025-10-14,1,,,,,リブラック,0
1886,7011001172886,新規,0,2025-10-14,2025-10-14,ｓｏｌｍａｒｅ株式会社,,株式会社,東京都,渋谷区,神南１丁目１１―４ＦＰＧリンクス神南５階,,13,113,1500041,,,,,,,2025-10-14,1,,,,,ソルマーレ,0
1887,7011003022668,新規,0,2025-10-14,2025-10-14,ｕｕｕ　Ｓｔｕｄｉｏ合同会社,,合同会社,東京都,渋谷区,桜丘町２３番１７号シティコート桜丘４０４,,13,113,1500031,,,,,,,2025-10-14,1,,,,,ユースタジオ,0
1889,7011101113427,新規,0,2025-10-14,2025-10-14,株式会社ＺＩＯＮ,,株式会社,東京都,新宿区,歌舞伎町１丁目７番１号Ｊ２ビルディング３階,,13,104,1600021,,,,,,,2025-10-14,1,,,,,ザイオン,0
1890,7011101113526,新規,0,2025-10-14,2025-10-14,株式会社ウィンテッド,,株式会社,東京都,新宿区,新宿５丁目１７番１７号,,13,104,1600022,,,,,,,2025-10-14,1,,,,,ウィンテッド,0
1893,7011201026693,新規,0,2025-10-14,2025-10-14,株式会社ＦＩＲＳＴ　ＰＬＡＮＮＩＮＧ,,株式会社,東京都,中野区,本町６丁目２７番１２号２０２号室,,13,114,1640012,,,,,,,2025-10-14,1,,,,,ファーストプランニング,0
1900,7011403004893,新規,0,2025-10-14,2025-10-14,小島エンタープライズ東京合同会社,,合同会社,東京都,板橋区,大門５番３号,,13,119,1750085,,,,,,,2025-10-14,1,,,,,コジマエンタープライズトウキョウ,0
1902,7011603004883,新規,0,2025-10-14,2025-10-14,合同会社磨屋東京,,合同会社,東京都,練馬区,高松６丁目２３－１３,,13,120,1790075,,,,,,,2025-10-14,1,,,,,ミガキヤトウキョウ,0
1903,7011701028818,新規,0,2025-10-14,2025-10-14,Ｗｏｒｌｄ　Ａｉ　Ａｇｅｎｔ株式会社,,株式会社,東京都,江戸川区,瑞江２丁目２６番１０号ＭＩＺＵＥＩＩ５０２,00141073,13,123,1320011,,,,,,,2025-10-14,1,,,,,ワールドエーアイエージェント,0
1905,7011803007133,新規,0,2025-10-14,2025-10-14,合同会社ＨＯＧＡＮ,,合同会社,東京都,足立区,西伊興３丁目１８番２２号,,13,121,1210824,,,,,,,2025-10-14,1,,,,,ホーガン,0
1910,7012403007399,新規,0,2025-10-14,2025-10-14,クルーズ合同会社,,合同会社,東京都,府中市,晴見町２丁目３番地の２サンクタスミュゼ府中５１１,,13,206,1830057,,,,,,,2025-10-14,1,,,,,クルーズ,0
1912,7012803003898,新規,0,2025-10-14,2025-10-14,Ａｃｔｙ．合同会社,,合同会社,東京都,立川市,富士見町４丁目１３番２６号,,13,202,1900013,,,,,,,2025-10-14,1,,,,,アクティ,0
1913,7013301055085,新規,0,2025-10-14,2025-10-14,ブライト株式会社,,株式会社,東京都,豊島区,池袋４丁目３番８号,,13,116,1710014,,,,,,,2025-10-14,1,,,,,ブライト,0
1920,7020001165081,新規,0,2025-10-14,2025-10-14,乾田株式会社,,株式会社,神奈川県,横浜市南区,平楽３５番地３５,,14,105,2320035,,,,,,,2025-10-14,1,,,,,カンダ,0
1921,7020001165230,新規,0,2025-10-14,2025-10-14,株式会社みらいストック,,株式会社,神奈川県,川崎市中原区,上新城２丁目６－１１石井ビル２階新城ＷＯＲＫ,,14,133,2110045,,,,,,,2025-10-14,1,,,,,ミライストック,0
1927,7021001086557,新規,0,2025-10-14,2025-10-14,株式会社ＭＡＲＢＬＡＺＥ,,株式会社,神奈川県,横須賀市,公郷町２丁目５番地,,14,201,2380022,,,,,,,2025-10-14,1,,,,,,0
1930,7021003016710,新規,0,2025-10-14,2025-10-14,合同会社そしえ商会,,合同会社,神奈川県,平塚市,山下３丁目５‐４１,,14,203,2540911,,,,,,,2025-10-14,1,,,,,ソシエショウカイ,0
1939,7030001169049,新規,0,2025-10-14,2025-10-14,Ｔｅａ　Ｐｌａｎｎｉｎｇ　ＳＡＹＡＭＡ株式会社,,株式会社,埼玉県,狭山市,狭山１９,,11,215,3501334,,,,,,,2025-10-14,1,,,,,ティープランニングサヤマ,0
1940,7030001169206,新規,0,2025-10-14,2025-10-14,株式会社ＰｌａｎＥ,,株式会社,埼玉県,所沢市,有楽町１４－１５,,11,208,3591117,,,,,,,2025-10-14,1,,,,,プレイン,0
1947,7030003027865,新規,0,2025-10-14,2025-10-14,ＫＣ　ＴＥＣＨ合同会社,,合同会社,埼玉県,ふじみ野市,上福岡１丁目１４－１０関口コーポ２０１号室,,11,245,3560004,,,,,,,2025-10-14,1,,,,,ケーシーテック,0
1952,7040001140867,新規,0,2025-10-14,2025-10-14,株式会社メネックスト,,株式会社,千葉県,市川市,中山１丁目１３番１９号,,12,203,2720813,,,,,,,2025-10-14,1,,,,,メネックスト,0
1953,7040001140900,新規,0,2025-10-14,2025-10-14,株式会社チャッピーｔｏチョコ,,株式会社,千葉県,千葉市若葉区,大宮台１丁目１２番１号,,12,104,2640015,,,,,,,2025-10-14,1,,,,,チャッピートチョコ,0
1956,7040003028739,新規,0,2025-10-14,2025-10-14,合同会社木言堂,,合同会社,千葉県,松戸市,東平賀５４７－１２,,12,207,2700003,,,,,,,2025-10-14,1,,,,,モクゲンドウ,0
1957,7040003028755,新規,0,2025-10-14,2025-10-14,ダイヤモンドヘッド合同会社,,合同会社,千葉県,松戸市,二ツ木二葉町２０６－２２,,12,207,2700028,,,,,,,2025-10-14,1,,,,,ダイヤモンドヘッド,0
1959,7050001057433,新規,0,2025-10-14,2025-10-14,株式会社ガレージＤＯＭ,,株式会社,茨城県,筑西市,川連９２番地,,08,227,3080814,,,,,,,2025-10-14,1,,,,,ガレージドム,0
1964,7050003009696,新規,0,2025-10-14,2025-10-14,合同会社ｓｔａｙ　ｏｎ,,合同会社,茨城県,ひたちなか市,大字田彦１３９３番地１,,08,221,3120063,,,,,,,2025-10-14,1,,,,,ステイオン,0
1974,7080005007729,新規,0,2025-10-14,2025-10-14,一般社団法人言語習得研究機構,,その他の設立登記法人,静岡県,静岡市駿河区,大坪町７番２１号,,22,102,4228075,,,,,,,2025-10-14,1,,,,,ゲンゴシュウトクケンキュウキコウ,0
1976,7080401028213,新規,0,2025-10-14,2025-10-14,株式会社大石屋,,株式会社,静岡県,周智郡森町,中川３５６番地,,22,461,4370223,,,,,,,2025-10-14,1,,,,,オオイシヤ,0
1977,7080405007774,新規,0,2025-10-14,2025-10-14,ほほえみ協同組合,,その他の設立登記法人,静岡県,浜松市中央区,湖東町８７５番地の１,,22,138,4311103,,,,,,,2025-10-14,1,,,,,ホホエミ,0
2000,7120001280341,新規,0,2025-10-14,2025-10-14,株式会社ＳＨＩＮＡＩ,,株式会社,大阪府,大阪市北区,梅田１丁目１番３号大阪駅前第三ビル２階１８号２,,27,127,5300001,,,,,,,2025-10-14,1,,,,,シンアイ,0
2001,7120001280449,新規,0,2025-10-14,2025-10-14,真誠株式会社,,株式会社,大阪府,大阪市北区,池田町１番７５－８０３号,,27,127,5300033,,,,,,,2025-10-14,1,,,,,シンセイ,0
2002,7120001280721,新規,0,2025-10-14,2025-10-14,株式会社ユナティス,,株式会社,大阪府,大阪市北区,梅田１丁目２番２号大阪駅前第２ビル１２－１２,,27,127,5300001,,,,,,,2025-10-14,1,,,,,ユナティス,0
2003,7120001280795,新規,0,2025-10-14,2025-10-14,株式会社ＧＬＯＢＥＡ,,株式会社,大阪府,大阪市浪速区,浪速西２丁目１２－１８,,27,111,5560026,,,,,,,2025-10-14,1,,,,,グロービー,0
2004,7120001280804,新規,0,2025-10-14,2025-10-14,Ｑｕｉｎｔｅｘｉａ株式会社,,株式会社,大阪府,大阪市北区,梅田１丁目１－３大阪駅前第３ビル２９階１－１－１号室,,27,127,5300001,,,,,,,2025-10-14,1,,,,,クインテクシア,0
2005,7120001281182,新規,0,2025-10-14,2025-10-14,株式会社ＲＩＳＥＡ,,株式会社,大阪府,大阪市北区,大深町３番４０－６０３号,,27,127,5300011,,,,,,,2025-10-14,1,,,,,リセア,0
2007,7120003030926,新規,0,2025-10-14,2025-10-14,合同会社リーフ,,合同会社,大阪府,門真市,深田町９番２号,,27,223,5710042,,,,,,,2025-10-14,1,,,,,リーフ,0
2008,7120003030950,新規,0,2025-10-14,2025-10-14,合同会社サザビーワークス,,合同会社,大阪府,大阪市淀川区,西中島１丁目１３‐６ＡＸＩＳ新大阪ビル‐１‐２Ｆ‐Ａ,,27,123,5320011,,,,,,,2025-10-14,1,,,,,サザビーワークス,0
2011,7120101072630,新規,0,2025-10-14,2025-10-14,株式会社ＹＳ,,株式会社,大阪府,堺市堺区,三条通１番２号,,27,141,5900046,,,,,,,2025-10-14,1,,,,,ワイエス,0
2012,7120901051602,新規,0,2025-10-14,2025-10-14,株式会社Ｒｅｎｏｒ,,株式会社,大阪府,吹田市,津雲台７丁目５番Ｄ－１３１号,,27,205,5650862,,,,,,,2025-10-14,1,,,,,リノル,0
2013,7120901051619,新規,0,2025-10-14,2025-10-14,株式会社Ｌｉｎｋ５,,株式会社,大阪府,吹田市,広芝町１９番２４－１０３号,,27,205,5640052,,,,,,,2025-10-14,1,,,,,リンクファイブ,0
2015,7122001039800,新規,0,2025-10-14,2025-10-14,株式会社ＸＰＥＲＴ　ＣＡＲＥ,,株式会社,大阪府,東大阪市,小阪２丁目１０－２９アリーヴェデルチ小阪３０６,,27,227,5770801,,,,,,,2025-10-14,1,,,,,エキスパートケア,0
2016,7130001043425,新規,0,2025-10-14,2025-10-14,株式会社松月,,株式会社,京都府,舞鶴市,字浜１７番地の２,,26,202,6250036,,,,,,,2025-10-14,1,,,,,ショウゲツ,0
2023,7130003010844,新規,0,2025-10-14,2025-10-14,合同会社鴨,,合同会社,京都府,京都市下京区,東洞院通五条上る深草町５８０番地６アスヴェル京都烏丸五条７０５号室,,26,106,6008408,,,,,,,2025-10-14,1,,,,,カモ,0
2024,7140001140337,新規,0,2025-10-14,2025-10-14,株式会社ＦＬＡＶＩＥＲ,,株式会社,兵庫県,加古川市,東神吉町神吉１５９－１,,28,210,6750057,,,,,,,2025-10-14,1,,,,,フラヴィエール,0
2025,7140001140428,新規,0,2025-10-14,2025-10-14,株式会社柊キャピタル,,株式会社,兵庫県,神戸市須磨区,中落合２丁目３番２－１５０９,,28,107,6540154,,,,,,,2025-10-14,1,,,,,ヒイラギキャピタル,0
2029,7140003022707,新規,0,2025-10-14,2025-10-14,合同会社夢,,合同会社,兵庫県,神戸市西区,伊川谷町有瀬１１５２番地の１０,,28,111,6512113,,,,,,,2025-10-14,1,,,,,ユメ,0
2031,7140005027662,新規,0,2025-10-14,2025-10-14,ＮＰＯ法人成年後見たちばな,,その他の設立登記法人,兵庫県,尼崎市,立花町４丁目３番２３号,,28,202,6610025,,,,,,,2025-10-14,1,,,,,セイネンコウケンタチバナ,0
2033,7150005009726,新規,0,2025-10-14,2025-10-14,行政書士法人奈良登録事務所,,その他の設立登記法人,奈良県,大和郡山市,額田部北町９８１番地８,,29,203,6391037,,,,,,,2025-10-14,1,,,,,ナラトウロクジムショ,0
2034,7160003003630,新規,0,2025-10-14,2025-10-14,合同会社トリプル,,合同会社,滋賀県,大津市,柳川２丁目８番３－１０７号,,25,201,5200014,,,,,,,2025-10-14,1,,,,,トリプル,0
2044,7180001169018,新規,0,2025-10-14,2025-10-14,株式会社ルネサンス,,株式会社,愛知県,東海市,高横須賀町５丁目５４番地,,23,222,4770037,,,,,,,2025-10-14,1,,,,,ルネサンス,0
2045,7180001169034,新規,0,2025-10-14,2025-10-14,株式会社Ｌｕｍｏｓ,,株式会社,愛知県,東海市,富木島町新石根６０番地の３,,23,222,4760011,,,,,,,2025-10-14,1,,,,,ルーモス,0
2046,7180001169067,新規,0,2025-10-14,2025-10-14,まちづくり開発株式会社,,株式会社,愛知県,名古屋市千種区,朝岡町３丁目５４番地の１,,23,101,4640811,,,,,,,2025-10-14,1,,,,,マチヅクリカイハツ,0
2052,7180003029178,新規,0,2025-10-14,2025-10-14,合同会社Ｓｏｒａ,,合同会社,愛知県,一宮市,緑１丁目２番１－２０３号,,23,203,4910862,,,,,,,2025-10-14,1,,,,,ソラ,0
2058,7200001044341,新規,0,2025-10-14,2025-10-14,株式会社メディライド,,株式会社,岐阜県,岐阜市,加納新本町３丁目１番地ＳＰＡＺＩＯ３０３号室,,21,201,5008463,,,,,,,2025-10-14,1,,,,,メディライド,0
2065,7240003007441,新規,0,2025-10-14,2025-10-14,合同会社ＲｅＶｉａ,,合同会社,広島県,広島市中区,西白島町２番２－１３０２号,,34,101,7300005,,,,,,,2025-10-14,1,,,,,リヴィア,0
2067,7250001021393,新規,0,2025-10-14,2025-10-14,株式会社こぼちゃん,,株式会社,山口県,岩国市,麻里布町６丁目９番１号,,35,208,7400018,,,,,,,2025-10-14,1,,,,,コボチャン,0
2084,7320003004785,新規,0,2025-10-14,2025-10-14,Ｒｏｄｄｏｎ合同会社,,合同会社,大分県,別府市,駅前本町９－７コモールカフェ別府８０８号,,44,202,8740934,,,,,,,2025-10-14,1,,,,,ロッドオン,0
2088,7330001033629,新規,0,2025-10-14,2025-10-14,株式会社ＡＩ　Ｓｔｒａｔｅｇｙ　Ｐａｒｔｎｅｒｓ,,株式会社,熊本県,山鹿市,鹿央町千田４１８７番地,,43,208,8610563,,,,,,,2025-10-14,1,,,,,エーアイストラテジーパートナーズ,0
2090,7340003004981,新規,0,2025-10-14,2025-10-14,合同会社よりそい,,合同会社,鹿児島県,鹿児島市,桜ヶ丘６丁目１５番４号寿アパート２０３号,,46,201,8910175,,,,,,,2025-10-14,1,,,,,ヨリソイ,0
2096,7350001019766,新規,0,2025-10-14,2025-10-14,株式会社源水,,株式会社,宮崎県,宮崎市,東宮１丁目２０３番地,,45,201,8800928,,,,,,,2025-10-14,1,,,,,ゲンスイ,0
2102,7360001035911,新規,0,2025-10-14,2025-10-14,株式会社水工舎,,株式会社,沖縄県,中頭郡北谷町,字桑江５２６,,47,326,9040103,,,,,,,2025-10-14,1,,,,,スイコウシャ,0
2106,7370001053144,新規,0,2025-10-14,2025-10-14,株式会社Ｎ．Ｉ．Ｓ,,株式会社,宮城県,仙台市青葉区,一番町１丁目１４番３５号,,04,101,9800811,,,,,,,2025-10-14,1,,,,,エヌアイエス,0
2123,7430003018155,新規,0,2025-10-14,2025-10-14,合同会社ラッド,,合同会社,北海道,札幌市南区,澄川三条５丁目２－５－３０５,,01,106,0050003,,,,,,,2025-10-14,1,,,,,ラッド,0
2126,7450001014757,新規,0,2025-10-14,2025-10-14,株式会社雄武マリーン工業,,株式会社,北海道,紋別郡雄武町,字沢木４０番地の１,,01,563,0981703,,,,,,,2025-10-14,1,,,,,オウムマリーンコウギョウ,0
2128,7450003002727,新規,0,2025-10-14,2025-10-14,合同会社レパレ旭川,,合同会社,北海道,旭川市,南八条通２６丁目５８１番地の３０,,01,204,0788338,,,,,,,2025-10-14,1,,,,,レパレアサビカワ,0
2140,8010001259230,新規,0,2025-10-14,2025-10-14,お母産業株式会社,,株式会社,東京都,文京区,千駄木２丁目４３番５号,,13,105,1130022,,,,,,,2025-10-14,1,,,,,オカアサンギョウ,0
2141,8010001259255,新規,0,2025-10-14,2025-10-14,エイギョウノミカタ株式会社,,株式会社,東京都,文京区,白山４丁目２４番１１号,,13,105,1120001,,,,,,,2025-10-14,1,,,,,エイギョウノミカタ,0
2142,8010001259346,新規,0,2025-10-14,2025-10-14,株式会社橘,,株式会社,東京都,千代田区,外神田３丁目６番５号外神田永谷タウンプラザ９０６,,13,101,1010021,,,,,,,2025-10-14,1,,,,,タチバナ,0
2143,8010001259370,新規,0,2025-10-14,2025-10-14,Ｇａｋｕ株式会社,,株式会社,東京都,中央区,勝どき４丁目６－２－２５１４,,13,102,1040054,,,,,,,2025-10-14,1,,,,,ガク,0
2147,8010003049019,新規,0,2025-10-14,2025-10-14,リョーマ合同会社１,,合同会社,東京都,千代田区,霞が関３丁目２番５号,,13,101,1000013,,,,,,,2025-10-14,1,,,,,リョーマワン,0
2148,8010003049027,新規,0,2025-10-14,2025-10-14,合同会社アスリンク,,合同会社,東京都,千代田区,神田和泉町１番地の１６ヤマトビル４０５,,13,101,1010024,,,,,,,2025-10-14,1,,,,,アスリンク,0
2149,8010005040727,新規,0,2025-10-14,2025-10-14,一般財団法人日印ビジネスリーダーズ財団,,その他の設立登記法人,東京都,千代田区,霞が関３丁目６番１４号三久ビル７階,,13,101,1000013,,,,,,,2025-10-14,1,,,,,ニチインビジネスリーダーズザイダン,0
2150,8010005040776,新規,0,2025-10-14,2025-10-14,司法書士法人赤川・円山事務所,,その他の設立登記法人,東京都,中央区,築地４丁目３番４号リッツ銀座,,13,102,1040045,,,,,,,2025-10-14,1,,,,,アカガワマルヤマジムショ,0
2160,8010401193566,新規,0,2025-10-14,2025-10-14,リテラム株式会社,,株式会社,東京都,港区,南青山５丁目４番３５号,,13,103,1070062,,,,,,,2025-10-14,1,,,,,リテラム,0
2161,8010401193582,新規,0,2025-10-14,2025-10-14,株式会社Ｔｏｍｏｗｏｏｄ,,株式会社,東京都,港区,南青山４丁目１番１０－４０３号,,13,103,1070062,,,,,,,2025-10-14,1,,,,,トモウッド,0
2162,8010401193608,新規,0,2025-10-14,2025-10-14,株式会社Ｍ．Ｆｅｌｉｃｅ,,株式会社,東京都,港区,西麻布３丁目２１番２２－３０１号,,13,103,1060031,,,,,,,2025-10-14,1,,,,,エムドットフェリーチェ,0
2163,8010401193616,新規,0,2025-10-14,2025-10-14,株式会社レイニーデイ,,株式会社,東京都,港区,東麻布２丁目３２番８号西桜ビル５階,,13,103,1060044,,,,,,,2025-10-14,1,,,,,レイニーデイ,0
2164,8010401193772,新規,0,2025-10-14,2025-10-14,Ｇ＆Ｌエンゲージメント株式会社,,株式会社,東京都,港区,南青山３丁目１番３６号青山丸竹ビル６Ｆ,,13,103,1070062,,,,,,,2025-10-14,1,,,,,ジーアンドエルエンゲージメント,0
2165,8010403036203,新規,0,2025-10-14,2025-10-14,合同会社Ａ　ＤＥＳＩＧＮ,,合同会社,東京都,港区,麻布十番２丁目１２番１２号アーバンパーク麻布十番３０３号室,,13,103,1060045,,,,,,,2025-10-14,1,,,,,エーデザイン,0
2166,8010403036260,新規,0,2025-10-14,2025-10-14,合同会社ＭＪＭ,,合同会社,東京都,港区,三田３丁目９－１１ＦＤ－１４,,13,103,1080073,,,,,,,2025-10-14,1,,,,,エムジェイエム,0
2170,8010601068106,新規,0,2025-10-14,2025-10-14,株式会社ワンバック,,株式会社,東京都,江東区,大島９丁目４番１－１３１４号,,13,108,1360072,,,,,,,2025-10-14,1,,,,,ワンバック,0
2171,8010601068114,新規,0,2025-10-14,2025-10-14,シエロパラシオ株式会社,,株式会社,東京都,江東区,亀戸１丁目４－９－１１０３,,13,108,1360071,,,,,,,2025-10-14,1,,,,,シエロパラシオ,0
2172,8010603011864,新規,0,2025-10-14,2025-10-14,ＣＨＯＫＨＬＥＩ合同会社,,合同会社,東京都,墨田区,錦糸１丁目７番２－５０２号ベルガーデンハイツ,,13,107,1300013,,,,,,,2025-10-14,1,,,,,チョッレイ,0
2185,8010903010319,新規,0,2025-10-14,2025-10-14,合同会社Ｓｉｌｅｎｔ　Ｌｉｇｈｔ　Ｓｔｕｄｉｏ,,合同会社,東京都,世田谷区,奥沢１丁目２２番地７号,,13,112,1580083,,,,,,,2025-10-14,1,,,,,サイレントライトスタジオ,0
2186,8010903010327,新規,0,2025-10-14,2025-10-14,合同会社ｏｖｅｒｔａｋｅ,,合同会社,東京都,世田谷区,太子堂４丁目１８番１５号マガザン三軒茶屋２－３Ｆ－３,,13,112,1540004,,,,,,,2025-10-14,1,,,,,オーバーテイク,0
2193,8011001172811,新規,0,2025-10-14,2025-10-14,株式会社ＴＩプロモーション,,株式会社,東京都,目黒区,青葉台３丁目６番２８号,,13,110,1530042,,,,,,,2025-10-14,1,,,,,ティーアイプロモーション,0
2195,8011003022642,新規,0,2025-10-14,2025-10-14,ユナイトアセット合同会社,,合同会社,東京都,渋谷区,恵比寿西２丁目４番８号ウィンド恵比寿ビル８Ｆ,,13,113,1500021,,,,,,,2025-10-14,1,,,,,ユナイトアセット,0
2204,8011301030966,新規,0,2025-10-14,2025-10-14,ｍｉｌｌｎａ株式会社,,株式会社,東京都,杉並区,高円寺南３丁目４９番１２号セブンハウス２０５,,13,115,1660003,,,,,,,2025-10-14,1,,,,,ミルナ,0
2205,8011401027474,新規,0,2025-10-14,2025-10-14,捷順達貿易運輸コンサルティング株式会社,,株式会社,東京都,板橋区,板橋２丁目６３番４－５０１号,,13,119,1730004,,,,,,,2025-10-14,1,,,,,ショウジュンタツボウエキウンユコンサルティング,0
2210,8011501032688,新規,0,2025-10-14,2025-10-14,株式会社ブックフル,,株式会社,東京都,荒川区,東日暮里４丁目１９番２号日刊プロスポーツ新聞社ビル３階,,13,118,1160014,,,,,,,2025-10-14,1,,,,,ブックフル,0
2213,8011603004882,新規,0,2025-10-14,2025-10-14,合同会社ＮＭＲ,,合同会社,東京都,練馬区,関町南４丁目１９番６－５１２号,,13,120,1770053,,,,,,,2025-10-14,1,,,,,エヌエムアール,0
2217,8011803007132,新規,0,2025-10-14,2025-10-14,合同会社Ｚａｍ　Ｚａｍ　Ｇｌｏｂａｌ,,合同会社,東京都,葛飾区,青戸４丁目２０番２８あやめ荘１号,,13,122,1250062,,,,,,,2025-10-14,1,,,,,ザムザムグローバル,0
2221,8013101009835,新規,0,2025-10-14,2025-10-14,ＳｃｕｄｅｒｉＡｄａｙ株式会社,,株式会社,東京都,青梅市,河辺町１０丁目６－１トミタワー３０２,,13,205,1980036,,,,,,,2025-10-14,1,,,,,スクーデリアデイ,0
2223,8013301055084,新規,0,2025-10-14,2025-10-14,リベルダ株式会社,,株式会社,東京都,豊島区,千早１丁目２７－９オーキッドコート要町２０４,,13,116,1710044,,,,,,,2025-10-14,1,,,,,リベルダ,0
2230,8020001165015,新規,0,2025-10-14,2025-10-14,いぎカイロプラクティック株式会社,,株式会社,神奈川県,横浜市港北区,綱島西３丁目１－１８－１Ｆ,,14,109,2230053,,,,,,,2025-10-14,1,,,,,イギカイロプラクティック,0
2231,8020001165089,新規,0,2025-10-14,2025-10-14,株式会社サンライフパートナー,,株式会社,神奈川県,横浜市港北区,新羽町２２６３,,14,109,2230057,,,,,,,2025-10-14,1,,,,,サンライフパートナー,0
2233,8020003029564,新規,0,2025-10-14,2025-10-14,ＬＡＸＭＩ合同会社,,合同会社,神奈川県,横浜市南区,大岡１丁目２４番１３号コーポ大岡２０１,,14,105,2320061,,,,,,,2025-10-14,1,,,,,ラクシミ,0
2234,8021001086548,新規,0,2025-10-14,2025-10-14,株式会社大栄建装,,株式会社,神奈川県,平塚市,中堂１２番３２号,,14,203,2540026,,,,,,,2025-10-14,1,,,,,ダイエイケンソウ,0
2235,8021001086556,新規,0,2025-10-14,2025-10-14,Ｇｐｌｕｓ株式会社,,株式会社,神奈川県,横須賀市,平作３丁目４番１１号,,14,201,2380032,,,,,,,2025-10-14,1,,,,,,0
2236,8021001086580,新規,0,2025-10-14,2025-10-14,株式会社ＵＴＳＵＷＡ,,株式会社,神奈川県,大和市,中央林間１丁目１２番３号,,14,213,2420007,,,,,,,2025-10-14,1,,,,,ウツワ,0
2241,8021003016701,新規,0,2025-10-14,2025-10-14,ＳｔａｒＣｒｏｓｓ合同会社,,合同会社,神奈川県,藤沢市,打戻２７８１番地の２,,14,205,2520824,,,,,,,2025-10-14,1,,,,,スタークロス,0
2245,8030001168999,新規,0,2025-10-14,2025-10-14,関根興業株式会社,,株式会社,埼玉県,久喜市,菖蒲町上栢間２８３５番地４,,11,232,3460114,,,,,,,2025-10-14,1,,,,,,0
2246,8030001169238,新規,0,2025-10-14,2025-10-14,株式会社Ｒｉｔａ,,株式会社,埼玉県,さいたま市緑区,大字大間木４９６番地１,,11,109,3360923,,,,,,,2025-10-14,1,,,,,リタ,0
2257,8040001140866,新規,0,2025-10-14,2025-10-14,株式会社竹沢自動車,,株式会社,千葉県,野田市,木間ケ瀬４４９７－１,,12,208,2700222,,,,,,,2025-10-14,1,,,,,タケザワジドウシャ,0
2258,8040001140899,新規,0,2025-10-14,2025-10-14,株式会社ティーシーエムホールディングス,,株式会社,千葉県,千葉市若葉区,大宮台１丁目１２番１号,,12,104,2640015,,,,,,,2025-10-14,1,,,,,ティーシーエムホールディングス,0
2259,8040001140908,新規,0,2025-10-14,2025-10-14,株式会社Ｇ．Ｆ．Ｙ,,株式会社,千葉県,四街道市,鹿渡９５９番地１（メゾンアトラス２０３）,,12,228,2840003,,,,,,,2025-10-14,1,,,,,ジーエフワイ,0
2260,8040001140924,新規,0,2025-10-14,2025-10-14,株式会社ＲＥＢＯＯＴ,,株式会社,千葉県,柏市,あかね町１－１７ベリーハイツ２０２,,12,217,2770027,,,,,,,2025-10-14,1,,,,,リブート,0
2262,8040003028647,新規,0,2025-10-14,2025-10-14,合同会社金さんの家,,合同会社,千葉県,千葉市稲毛区,園生町１１０７番地１グリーンプラザ園生４号棟３０７号,,12,103,2630051,,,,,,,2025-10-14,1,,,,,キムサンノウチ,0
2263,8040003028754,新規,0,2025-10-14,2025-10-14,合同会社アリモラ,,合同会社,千葉県,印西市,竹袋７３番地６,,12,231,2701325,,,,,,,2025-10-14,1,,,,,アリモラ,0
2269,8050001057440,新規,0,2025-10-14,2025-10-14,株式会社豊永工業,,株式会社,茨城県,古河市,葛生１１３１番地２,,08,204,3060211,,,,,,,2025-10-14,1,,,,,ホウエイコウギョウ,0
2270,8050005013712,新規,0,2025-10-14,2025-10-14,一般社団法人桜の風,,その他の設立登記法人,茨城県,東茨城郡城里町,大字石塚１４２３－２,,08,310,3114303,,,,,,,2025-10-14,1,,,,,サクラノカゼ,0
2271,8060001038679,新規,0,2025-10-14,2025-10-14,株式会社エルテック,,株式会社,栃木県,那須郡那須町,大字寺子丙１番地１４６,,09,407,3293222,,,,,,,2025-10-14,1,,,,,エルテック,0
2274,8060003005776,新規,0,2025-10-14,2025-10-14,合同会社魂　ＦＯＯＤ　ＣＯＭＰＡＮＹ,,合同会社,栃木県,宇都宮市,兵庫塚１丁目８－１１,,09,201,3210138,,,,,,,2025-10-14,1,,,,,ソウルフードカンパニー,0
2280,8080103003447,新規,0,2025-10-14,2025-10-14,合同会社山口商会,,合同会社,静岡県,御殿場市,東田中２丁目１４－１６,,22,215,4120026,,,,,,,2025-10-14,1,,,,,ヤマグチショウカイ,0
2290,8090003002894,新規,0,2025-10-14,2025-10-14,合同会社あさのわ,,合同会社,山梨県,上野原市,大曽根１７６,,19,212,4090131,,,,,,,2025-10-14,1,,,,,アサノワ,0
2297,8100005013401,新規,0,2025-10-14,2025-10-14,医療法人あや皮フ科クリニック,,その他の設立登記法人,長野県,上田市,神畑２９番地１,,20,203,3861103,,,,,,,2025-10-14,1,,,,,アヤヒフカクリニック,0
2311,8120001280514,新規,0,2025-10-14,2025-10-14,富士山産業株式会社,,株式会社,大阪府,大阪市東住吉区,照ケ丘矢田３丁目１１番９－３０５号,,27,121,5460021,,,,,,,2025-10-14,1,,,,,フジサンサンギョウ,0
2312,8120001280563,新規,0,2025-10-14,2025-10-14,株式会社ＳＹＬＶＩＡ総研,,株式会社,大阪府,大阪市中央区,南船場３丁目２番２２号おおきに南船場ビル２０５,,27,128,5420081,,,,,,,2025-10-14,1,,,,,シルビアソウケン,0
2313,8120001280596,新規,0,2025-10-14,2025-10-14,株式会社Ａｌｔａｍ　Ｅａｓｅ,,株式会社,大阪府,大阪市北区,梅田１丁目１－３大阪駅前第３ビル２９階１－１－１号室,,27,127,5300001,,,,,,,2025-10-14,1,,,,,オルタムイース,0
2314,8120001280695,新規,0,2025-10-14,2025-10-14,株式会社Ｓｏｎｏｅｌ,,株式会社,大阪府,大阪市中央区,平野町３丁目２番７号泰和アルン淀屋橋１００１,,27,128,5410046,,,,,,,2025-10-14,1,,,,,ソノエル,0
2315,8120001280745,新規,0,2025-10-14,2025-10-14,株式会社ＳｉｄｅＷｅｌｌ,,株式会社,大阪府,大阪市北区,梅田１丁目２番２号大阪駅前第２ビル１２－１２,,27,127,5300001,,,,,,,2025-10-14,1,,,,,サイドウェル,0
2316,8120001280778,新規,0,2025-10-14,2025-10-14,荒木電気株式会社,,株式会社,大阪府,大阪市東淀川区,豊里６丁目１番９号２０３号,,27,114,5330013,,,,,,,2025-10-14,1,,,,,アラキデンキ,0
2317,8120001280828,新規,0,2025-10-14,2025-10-14,輝威海株式会社,,株式会社,大阪府,大阪市淀川区,十三元今里２丁目１２番２５－２０３ｂ号,,27,123,5320028,,,,,,,2025-10-14,1,,,,,キイカイ,0
2318,8120001280836,新規,0,2025-10-14,2025-10-14,株式会社メディカルバルチャーホールディングス,,株式会社,大阪府,大阪市淀川区,三津屋南２丁目１７番１２号,,27,123,5320035,,,,,,,2025-10-14,1,,,,,メディカルバルチャーホールディングス,0
2319,8120001280844,新規,0,2025-10-14,2025-10-14,株式会社スマイルキカク,,株式会社,大阪府,大阪市西成区,梅南２丁目５番４０－２０２号,,27,122,5570033,,,,,,,2025-10-14,1,,,,,スマイルキカク,0
2320,8120001281009,新規,0,2025-10-14,2025-10-14,双栄株式会社,,株式会社,大阪府,大阪市中央区,高麗橋１丁目５番１４号,,27,128,5410043,,,,,,,2025-10-14,1,,,,,ソウエイ,0
2321,8120001281090,新規,0,2025-10-14,2025-10-14,微行株式会社,,株式会社,大阪府,大阪市東住吉区,中野４丁目１番１６号サラオリエンテ中野８０１Ｂ,,27,121,5460012,,,,,,,2025-10-14,1,,,,,ビコウ,0
2322,8120001281108,新規,0,2025-10-14,2025-10-14,順勳株式会社,00141079,株式会社,大阪府,大阪市東住吉区,中野４丁目１番１６号リベラルオリエンテ中野２０５Ａ,,27,121,5460012,,,,,,,2025-10-14,1,,,,,ジュンクン,0
2328,8120003030900,新規,0,2025-10-14,2025-10-14,Ｇｅｅｋ　Ｒｏｃｋ　Ｍｅｄｉａ合同会社,,合同会社,大阪府,大阪市中央区,北浜３丁目２番２５号,,27,128,5410041,,,,,,,2025-10-14,1,,,,,ギークロックメディア,0
2331,8120901051626,新規,0,2025-10-14,2025-10-14,ＮＥＯＶＩＡ株式会社,,株式会社,大阪府,茨木市,野々宮１丁目２番７号,,27,211,5670847,,,,,,,2025-10-14,1,,,,,ネオビア,0
2335,8122003003349,新規,0,2025-10-14,2025-10-14,ＬＴＨ合同会社,,合同会社,大阪府,東大阪市,水走１丁目３－４５、２０１室,,27,227,5780921,,,,,,,2025-10-14,1,,,,,エルティーエッチ,0
2338,8130001080780,新規,0,2025-10-14,2025-10-14,株式会社ヘリテージ工務店,,株式会社,京都府,京都市上京区,馬喰町８８７番地３０,,26,102,6028386,,,,,,,2025-10-14,1,,,,,ヘリテージコウムテン,0
2339,8130001080830,新規,0,2025-10-14,2025-10-14,株式会社ほしの建築,,株式会社,京都府,宇治市,小倉町寺内１８番地Ｃ－２０７,,26,204,6110042,,,,,,,2025-10-14,1,,,,,ホシノケンチク,0
2340,8130001080839,新規,0,2025-10-14,2025-10-14,ＳＯＵＳＵＮ　ＢＥＡＵＴＥ株式会社,,株式会社,京都府,京都市伏見区,桃山町鍋島２０番地９,,26,109,6128037,,,,,,,2025-10-14,1,,,,,ソウサンボーテ,0
2341,8130001080847,新規,0,2025-10-14,2025-10-14,西山ホールディングス株式会社,,株式会社,京都府,京都市西京区,大原野小塩町８４２番地,,26,111,6101133,,,,,,,2025-10-14,1,,,,,ニシヤマホールディングス,0
2349,8140001140336,新規,0,2025-10-14,2025-10-14,株式会社ＣＯＬＯＲＳ,,株式会社,兵庫県,神戸市西区,押部谷町木見６７１番地の１,,28,111,6512223,,,,,,,2025-10-14,1,,,,,カラーズ,0
2350,8140001140344,新規,0,2025-10-14,2025-10-14,株式会社ｅｍｐｒｅｓｓａ,,株式会社,兵庫県,神戸市中央区,雲井通３丁目６－９ＨＡＮＡビル１Ｆ,,28,110,6510096,,,,,,,2025-10-14,1,,,,,エンプレッサ,0
2351,8140001140360,新規,0,2025-10-14,2025-10-14,株式会社ＲＩＣＯ　ＤＥＳＩＧＮ,,株式会社,兵庫県,神戸市中央区,磯辺通４丁目１番２８－８１８号,,28,110,6510084,,,,,,,2025-10-14,1,,,,,リコデザイン,0
2354,8140003022656,新規,0,2025-10-14,2025-10-14,Ｔｈｉｒｄ　Ｃｕｌｔｕｒｅ　Ｋｉｄ合同会社,,合同会社,兵庫県,神戸市東灘区,深江本町２丁目５番２５号,,28,101,6580021,,,,,,,2025-10-14,1,,,,,サードカルチャーキッド,0
2366,8180001168902,新規,0,2025-10-14,2025-10-14,株式会社シェアフロ,,株式会社,愛知県,春日井市,廻間町字明知洞３１番地１,,23,206,4870031,,,,,,,2025-10-14,1,,,,,シェアフロ,0
2367,8180001168984,新規,0,2025-10-14,2025-10-14,株式会社きなり,,株式会社,愛知県,名古屋市東区,東大曽根町１６番６号,,23,102,4610022,,,,,,,2025-10-14,1,,,,,キナリ,0
2368,8180001169108,新規,0,2025-10-14,2025-10-14,株式会社クオーツ,,株式会社,愛知県,名古屋市緑区,鳴海町字向田１８０番地,,23,114,4580831,,,,,,,2025-10-14,1,,,,,クオーツ,0
2373,8180003029202,新規,0,2025-10-14,2025-10-14,合同会社ワイエイ,,合同会社,愛知県,名古屋市中村区,名駅４丁目２４番５号第２森ビル４０１,,23,105,4500002,,,,,,,2025-10-14,1,,,,,ワイエイ,0
2374,8180003029243,新規,0,2025-10-14,2025-10-14,合同会社フラデコ,,合同会社,愛知県,名古屋市中村区,名駅４丁目２４番５号第２森ビル４０１,,23,105,4500002,,,,,,,2025-10-14,1,,,,,フラデコ,0
2381,8220001026972,新規,0,2025-10-14,2025-10-14,メモラブルリゾート株式会社,,株式会社,石川県,加賀市,片山津温泉ウ１４番地エトワール１０３号,,17,206,9220412,,,,,,,2025-10-14,1,,,,,メモラブルリゾート,0
2385,8240001065647,新規,0,2025-10-14,2025-10-14,株式会社ｃｏｍｏ,,株式会社,広島県,広島市中区,住吉町２０番７－５０４号,,34,101,7300813,,,,,,,2025-10-14,1,,,,,コモ,0
2388,8240003007440,新規,0,2025-10-14,2025-10-14,華音工房龍聲制作翻訳機構合同会社,,合同会社,広島県,広島市中区,大手町１丁目１－２０相生橋ビル７階Ａ号室,,34,101,7300051,,,,,,,2025-10-14,1,,,,,カノンコウボウリュウセイセイサクホンヤクキコウ,0
2399,8290001111850,新規,0,2025-10-14,2025-10-14,株式会社成和ネクステージ,,株式会社,福岡県,福岡市南区,大橋３丁目１５番３号,,40,134,8150033,,,,,,,2025-10-14,1,,,,,セイワネクステージ,0
2407,8330005010961,新規,0,2025-10-14,2025-10-14,一般社団法人ホンシツカンシュ,,その他の設立登記法人,熊本県,菊池市,袈裟尾５２２番地１,,43,210,8611325,,,,,,,2025-10-14,1,,,,,ホンシツカンシュ,0
2411,8340003004980,新規,0,2025-10-14,2025-10-14,かみぞの施工合同会社,,合同会社,鹿児島県,鹿児島市,吉野町５９４３番地６,,46,201,8920871,,,,,,,2025-10-14,1,,,,,カミゾノセコウ,0
2421,8370003007329,新規,0,2025-10-14,2025-10-14,合同会社ハリュウ,,合同会社,宮城県,東松島市,大曲字筒場４８番地２９,,04,214,9810502,,,,,,,2025-10-14,1,,,,,ハリュウ,0
2424,8410001014297,新規,0,2025-10-14,2025-10-14,湖東印刷株式会社,,株式会社,秋田県,南秋田郡五城目町,東磯ノ目１丁目７番地１１,,05,361,0181724,,,,,,,2025-10-14,1,,,,,コトウインサツ,0
2433,8450001014756,新規,0,2025-10-14,2025-10-14,株式会社ＴＫホールディングス,,株式会社,北海道,深川市,四条１７番１０号,,01,228,0740004,,,,,,,2025-10-14,1,,,,,ティーケーホールディングス,0
2461,9010001259254,新規,0,2025-10-14,2025-10-14,ＧＥＭＩＫＡ株式会社,,株式会社,東京都,中央区,銀座１丁目２２番１１号銀座大竹ビジデンス２Ｆ,,13,102,1040061,,,,,,,2025-10-14,1,,,,,ジミカ,0
2462,9010001259378,新規,0,2025-10-14,2025-10-14,パワー・ストレージ株式会社,,株式会社,東京都,中央区,佃２丁目１番１－３１１４号,,13,102,1040051,,,,,,,2025-10-14,1,,,,,パワーストレージ,0
2463,9010001259394,新規,0,2025-10-14,2025-10-14,株式会社はるひさ,,株式会社,東京都,千代田区,神田須田町１丁目７番８号,,13,101,1010041,,,,,,,2025-10-14,1,,,,,ハルヒサ,0
2466,9010003049018,新規,0,2025-10-14,2025-10-14,リョーマ合同会社２,,合同会社,東京都,千代田区,霞が関３丁目２番５号,,13,101,1000013,,,,,,,2025-10-14,1,,,,,リョーマツー,0
2467,9010003049034,新規,0,2025-10-14,2025-10-14,シルヴァヌス０１合同会社,,合同会社,東京都,中央区,京橋２丁目２番１号京橋エドグラン,,13,102,1040031,,,,,,,2025-10-14,1,,,,,シルヴァヌスゼロイチ,0
2468,9010003049042,新規,0,2025-10-14,2025-10-14,バンピント合同会社,,合同会社,東京都,中央区,八丁堀２丁目１０－５ユニゾ八丁堀ハイツ８０３,,13,102,1040032,,,,,,,2025-10-14,1,,,,,バンピント,0
2470,9010101016885,新規,0,2025-10-14,2025-10-14,ＮＯＶＡＥＬ株式会社,,株式会社,東京都,八王子市,横山町２番７号石川ビル１Ｆ－Ｂ,,13,201,1920081,,,,,,,2025-10-14,1,,,,,ノバエル,0
2474,9010401193458,新規,0,2025-10-14,2025-10-14,デルフィーノアソシエイツリミテッド株式会社,,株式会社,東京都,港区,六本木５丁目１４番２３－３０１号ホーマットコンコード,,13,103,1060032,,,,,,,2025-10-14,1,,,,,,0
2475,9010401193581,新規,0,2025-10-14,2025-10-14,株式会社Ｋ‐Ｂｅａｕｔｙ　Ｊａｐａｎ,,株式会社,東京都,港区,麻布台３丁目１番６号ＢＬＵＥＢＬＤＧ，ＡＺＡＢＵＤＡＩ６階,,13,103,1060041,,,,,,,2025-10-14,1,,,,,ケービューティジャパン,0
2476,9010401193607,新規,0,2025-10-14,2025-10-14,Ｒｏａｄ　Ｃａｐｉｔａｌ株式会社,,株式会社,東京都,港区,六本木１丁目９番４－５０４号,,13,103,1060032,,,,,,,2025-10-14,1,,,,,ロードキャピタル,0
2477,9010401193763,新規,0,2025-10-14,2025-10-14,和みアセット株式会社,,株式会社,東京都,港区,芝浦４丁目１９番１－２９０６号,,13,103,1080023,,,,,,,2025-10-14,1,,,,,ナゴミアセット,0
2479,9010403036227,新規,0,2025-10-14,2025-10-14,グローブ・キャピタル・マネジメント合同会社,,合同会社,東京都,港区,北青山１丁目３番３号,,13,103,1070061,,,,,,,2025-10-14,1,,,,,グローブキャピタルマネジメント,0
2480,9010405024790,新規,0,2025-10-14,2025-10-14,弁護士法人広尾有栖川法律事務所,,その他の設立登記法人,東京都,港区,南麻布４丁目１３番５号麻布矢野ビル４Ｆ,,13,103,1060047,,,,,,,2025-10-14,1,,,,,,0
2488,9010603011855,新規,0,2025-10-14,2025-10-14,合同会社フォルテフォース,,合同会社,東京都,江東区,亀戸１丁目１３番１４号,,13,108,1360071,,,,,,,2025-10-14,1,,,,,フォルテフォース,0
2489,9010701048428,新規,0,2025-10-14,2025-10-14,Ｈａｓｅｇａｗａ株式会社,,株式会社,東京都,品川区,西五反田３丁目１５番６号,,13,109,1410031,,,,,,,2025-10-14,1,,,,,ハセガワ,0
2496,9011003022526,新規,0,2025-10-14,2025-10-14,合同会社ＨＯＤＬ　ＬＯＶＥ,,合同会社,東京都,渋谷区,恵比寿西２丁目４－８号ウィンド恵比寿ビル８階,,13,113,1500021,,,,,,,2025-10-14,1,,,,,ホールドラブ,0
2497,9011003022658,新規,0,2025-10-14,2025-10-14,ｆｕｋｕｒｉｏ合同会社,,合同会社,東京都,渋谷区,恵比寿西２丁目４番８号ウィンド恵比寿ビル８Ｆ,,13,113,1500021,,,,,,,2025-10-14,1,,,,,フクリオ,0
2498,9011005011196,新規,0,2025-10-14,2025-10-14,一般社団法人手技道協会,,その他の設立登記法人,東京都,目黒区,青葉台４丁目４番２６号青葉台ハイツ３０３号,,13,110,1530042,,,,,,,2025-10-14,1,,,,,シュギドウキョウカイ,0
2504,9011101113490,新規,0,2025-10-14,2025-10-14,株式会社ＳＨＩＦＴ,,株式会社,東京都,新宿区,西新宿３丁目２番７号ＫＤＸ新宿ビル,,13,104,1600023,,,,,,,2025-10-14,1,,,,,シフト,0
2507,9011201026691,新規,0,2025-10-14,2025-10-14,株式会社Ｒｉｓｅ　Ｄｅｓｉｇｎ　Ｐａｒｔｎｅｒｓ,,株式会社,東京都,中野区,中野１丁目５３番６号,,13,114,1640001,,,,,,,2025-10-14,1,,,,,ライズデザインパートナーズ,0
2514,9011603004881,新規,0,2025-10-14,2025-10-14,合同会社ＴＡＣＴ,,合同会社,東京都,練馬区,貫井２丁目１－９－１０３,,13,120,1760021,,,,,,,2025-10-14,1,,,,,タクト,0
2515,9011801046817,新規,0,2025-10-14,2025-10-14,株式会社ミレロ,,株式会社,東京都,足立区,新田３丁目３７－１３アクアテラＡ棟１１０１号室,,13,121,1230865,,,,,,,2025-10-14,1,,,,,ミレロ,0
2516,9011801046890,新規,0,2025-10-14,2025-10-14,株式会社ＮＫ　ＪＡＰＡＮ,,株式会社,東京都,足立区,舎人５丁目７番１６号,,13,121,1210831,,,,,,,2025-10-14,1,,,,,エヌケージャパン,0
2518,9012401043683,新規,0,2025-10-14,2025-10-14,株式会社ＮＥＲＥＳＵ,,株式会社,東京都,狛江市,岩戸南３丁目１３番２１－３号,,13,219,2010005,,,,,,,2025-10-14,1,,,,,ネレス,0
2519,9012403007397,新規,0,2025-10-14,2025-10-14,合同会社トリプルエム,,合同会社,東京都,三鷹市,牟礼４丁目１９番１３号,,13,204,1810002,,,,,,,2025-10-14,1,,,,,トリプルエム,0
2520,9012701019128,新規,0,2025-10-14,2025-10-14,株式会社リファイン,,株式会社,東京都,小平市,花小金井４丁目１０番２７号,,13,211,1870002,,,,,,,2025-10-14,1,,,,,リファイン,0
2522,9013301055083,新規,0,2025-10-14,2025-10-14,株式会社ユーステッド,,株式会社,東京都,豊島区,東池袋２丁目６２番８号ＢＩＧオフィスプラザ池袋１２０６,,13,116,1700013,,,,,,,2025-10-14,1,,,,,ユーステッド,0
2526,9020001165055,新規,0,2025-10-14,2025-10-14,株式会社ＮＥＷＬＯＸ,,株式会社,神奈川県,横浜市港北区,師岡町１１８１番地４４,,14,109,2220002,,,,,,,2025-10-14,1,,,,,ニューロックス,0
2530,9020003029472,新規,0,2025-10-14,2025-10-14,合同会社どーなつ,,合同会社,神奈川県,横浜市瀬谷区,下瀬谷３丁目６番地の２,,14,114,2460035,,,,,,,2025-10-14,1,,,,,ドーナツ,0
2531,9020003029539,新規,0,2025-10-14,2025-10-14,合同会社Ｒａｎｇｅ,,合同会社,神奈川県,川崎市多摩区,南生田５丁目１２番４号,,14,135,2140036,,,,,,,2025-10-14,1,,,,,レンジ,0
2534,9021001086555,新規,0,2025-10-14,2025-10-14,ＧＬＪ株式会社,,株式会社,神奈川県,相模原市中央区,田名９９５２番地,,14,152,2520244,,,,,,,2025-10-14,1,,,,,ジーエルジェイ,0
2535,9021001086563,新規,0,2025-10-14,2025-10-14,Ｋ‐ｓｍｉｌｅ株式会社,,株式会社,神奈川県,綾瀬市,深谷中６丁目９番１８号,,14,218,2521107,,,,,,,2025-10-14,1,,,,,ケイスマイル,0
2536,9021001086596,新規,0,2025-10-14,2025-10-14,ＡＲＩＮＡ　ＡＵＴＯ株式会社,,株式会社,神奈川県,高座郡寒川町,小谷４丁目１番３号,,14,321,2530103,,,,,,,2025-10-14,1,,,,,アリナオート,0
2537,9021003016700,新規,0,2025-10-14,2025-10-14,Ｓａｌｍａｎ　ｍ　ｔｒａｄｉｎｇ合同会社,,合同会社,神奈川県,相模原市南区,相模台５丁目６番１号エトワール相模台２０２,,14,153,2520321,,,,,,,2025-10-14,1,,,,,サルマンエムトレーディング,0
2548,9030003027855,新規,0,2025-10-14,2025-10-14,合同会社のどか,,合同会社,埼玉県,飯能市,大字下名栗６０２番地２,,11,209,3570112,,,,,,,2025-10-14,1,,,,,ノドカ,0
2549,9030003027863,新規,0,2025-10-14,2025-10-14,合同会社ミネラルハート,,合同会社,埼玉県,狭山市,大字北入曽７４３－２１,,11,215,3501315,,,,,,,2025-10-14,1,,,,,ミネラルハート,0
2552,9040001140898,新規,0,2025-10-14,2025-10-14,株式会社ＴＺインターナショナル,,株式会社,千葉県,我孫子市,布佐平和台１丁目５番７１０号,,12,222,2701108,,,,,,,2025-10-14,1,,,,,ティーゼットインターナショナル,0
2553,9040003028737,新規,0,2025-10-14,2025-10-14,アンガラ合同会社,,合同会社,千葉県,市川市,宮久保４丁目２２番３４号,,12,203,2720822,,,,,,,2025-10-14,1,,,,,アンガラ,0
2554,9040003028753,新規,0,2025-10-14,2025-10-14,合同会社オレンジ,,合同会社,千葉県,柏市,南柏１丁目５番１０号３階,,12,217,2770855,,,,,,,2025-10-14,1,,,,,オレンジ,0
2557,9050005013711,新規,0,2025-10-14,2025-10-14,医療法人社団共栄会,,その他の設立登記法人,茨城県,稲敷市,沼田字中山２６８７番地３,,08,229,3000506,,,,,,,2025-10-14,1,,,,,キョウエイカイ,0
2576,9100005013400,新規,0,2025-10-14,2025-10-14,医療法人トゥービー,,その他の設立登記法人,長野県,安曇野市,豊科南穂高１２２７番地,,20,220,3998201,,,,,,,2025-10-14,1,,,,,トゥービー,0
2577,9110001039646,新規,0,2025-10-14,2025-10-14,株式会社伊藤地質,,株式会社,新潟県,柏崎市,半田２丁目６番１９－２０１号,,15,205,9450812,,,,,,,2025-10-14,1,,,,,イトウチシツ,0
2580,9110003005927,新規,0,2025-10-14,2025-10-14,葉音パレット合同会社,,合同会社,新潟県,新潟市中央区,弁天橋通１丁目２４番１号Ａ,,15,103,9500925,,,,,,,2025-10-14,1,,,,,ハノンパレット,0
2585,9120001280521,新規,0,2025-10-14,2025-10-14,株式会社キレイズ,,株式会社,大阪府,大阪市西区,立売堀２丁目５番１０－１３０６号,,27,106,5500012,,,,,,,2025-10-14,1,,,,,キレイズ,0
2586,9120001280546,新規,0,2025-10-14,2025-10-14,株式会社ＲＥＡＣＨ,,株式会社,大阪府,大阪市浪速区,恵美須西２丁目９番１６号,,27,111,5560003,,,,,,,2025-10-14,1,,,,,リーチ,0
2587,9120001280554,新規,0,2025-10-14,2025-10-14,京展株式会社,,株式会社,大阪府,大阪市西区,北堀江１丁目２３番１６号堀江アージュ１００２号室,,27,106,5500014,,,,,,,2025-10-14,1,,,,,キョウテン,0
2588,9120001280728,新規,0,2025-10-14,2025-10-14,株式会社竜電工,,株式会社,大阪府,寝屋川市,萱島南町３番１２号,,27,215,5720825,,,,,,,2025-10-14,1,,,,,リュウデンコウ,0
2589,9120001280827,新規,0,2025-10-14,2025-10-14,靈蘭竹石株式会社,,株式会社,大阪府,大阪市鶴見区,緑１丁目１０番２－１０１号,,27,124,5380054,,,,,,,2025-10-14,1,,,,,レイランチクセキ,0
2590,9120001280835,新規,0,2025-10-14,2025-10-14,株式会社柱,,株式会社,大阪府,大阪市城東区,中浜１丁目１６－１２,,27,118,5360024,,,,,,,2025-10-14,1,,,,,ハシラ,0
2592,9120003030890,新規,0,2025-10-14,2025-10-14,合同会社Ｏｆｆｉｃｅ　Ｒｉｎ,,合同会社,大阪府,大阪市中央区,安土町１丁目４－５本町ビル４０４,,27,128,5410052,,,,,,,2025-10-14,1,,,,,オフィスリン,0
2598,9120901051609,新規,0,2025-10-14,2025-10-14,株式会社井関工務店,,株式会社,大阪府,茨木市,美穂ケ丘１２番４３号シャーメゾン美穂ケ丘１０１号,,27,211,5670047,,,,,,,2025-10-14,1,,,,,イセキコウムテン,0
2599,9120901051617,新規,0,2025-10-14,2025-10-14,ネクスティブ株式会社,,株式会社,大阪府,摂津市,鳥飼中１丁目３１番２号,,27,224,5660064,,,,,,,2025-10-14,1,,,,,ネクスティブ,0
2601,9122003003348,新規,0,2025-10-14,2025-10-14,Ｍｉｌｌｅ　Ａｓｓｅｔ合同会社,,合同会社,大阪府,東大阪市,額田町８番１５号,,27,227,5798021,,,,,,,2025-10-14,1,,,,,ミーレアセット,0
2605,9130001080771,新規,0,2025-10-14,2025-10-14,株式会社京都クラフト,,株式会社,京都府,京都市南区,上鳥羽角田町８１番地１ＤＦビル３Ｆ,,26,107,6018104,,,,,,,2025-10-14,1,,,,,キョウトクラフト,0
2620,9140001140335,新規,0,2025-10-14,2025-10-14,株式会社Ｋｅｉ,,株式会社,兵庫県,西宮市,東鳴尾町１丁目１０番８号,,28,204,6638132,,,,,,,2025-10-14,1,,,,,ケイ,0
2632,9160001027134,新規,0,2025-10-14,2025-10-14,株式会社Ｊｏｙ,,株式会社,滋賀県,大津市,松が丘３丁目９番１３号,,25,201,5202102,,,,,,,2025-10-14,1,,,,,ジョイ,0
2634,9160005011448,新規,0,2025-10-14,2025-10-14,一般社団法人スポーツフィールド,,その他の設立登記法人,滋賀県,近江八幡市,北津田町１５９,,25,204,5230087,,,,,,,2025-10-14,1,,,,,スポーツフィールド,0
2639,9180001169024,新規,0,2025-10-14,2025-10-14,株式会社雀,,株式会社,愛知県,名古屋市天白区,焼山２丁目４１４番地ラハイナハイツ焼山,,23,116,4680002,,,,,,,2025-10-14,1,,,,,スズメ,0
2640,9180001169040,新規,0,2025-10-14,2025-10-14,株式会社ｗｉｎｇ,,株式会社,愛知県,日進市,蟹甲町家布２６番地６,,23,230,4700122,,,,,,,2025-10-14,1,,,,,ウィング,0
2644,9180003029143,新規,0,2025-10-14,2025-10-14,Ｌｉｌｙ　Ｆｕｒａ合同会社,,合同会社,愛知県,名古屋市中村区,名駅４丁目２４番５号第２森ビル４０１,,23,105,4500002,,,,,,,2025-10-14,1,,,,,リリーフラ,0
2655,9240001065646,新規,0,2025-10-14,2025-10-14,株式会社佐本構造設計室,,株式会社,広島県,廿日市市,宮園５丁目８番地１２,,34,213,7380035,,,,,,,2025-10-14,1,,,,,サモトコウゾウセッケイシツ,0
2673,9330001033668,新規,0,2025-10-14,2025-10-14,株式会社プレマ,,株式会社,熊本県,熊本市中央区,紺屋町２丁目２８番地,,43,101,8600025,,,,,,,2025-10-14,1,,,,,プレマ,0
2681,9350001019764,新規,0,2025-10-14,2025-10-14,株式会社霧島不動産,,株式会社,宮崎県,宮崎市,大工１丁目７番２３号,,45,201,8800015,,,,,,,2025-10-14,1,,,,,キリシマフドウサン,0
2684,9360003015323,新規,0,2025-10-14,2025-10-14,合同会社ＴＥＮＴＯ,,合同会社,沖縄県,那覇市,楚辺１丁目３番３６－７０７号,,47,201,9000023,,,,,,,2025-10-14,1,,,,,テント,0
2686,9370003007328,新規,0,2025-10-14,2025-10-14,ＦＫ合同会社,,合同会社,宮城県,仙台市太白区,向山１丁目２０番１８号サンハイツ向山１０１号室,,04,104,9820841,,,,,,,2025-10-14,1,,,,,エフケー,0
2689,9410001014296,新規,0,2025-10-14,2025-10-14,株式会社角館アライアンス,,株式会社,秋田県,仙北市,角館町中菅沢９４番地７コワーキングスペースＯＲＥＮＣＨＩ,,05,215,0140368,,,,,,,2025-10-14,1,,,,,カクノダテアライアンス,0
2692,9430001095384,新規,0,2025-10-14,2025-10-14,ルミナス会計株式会社,,株式会社,北海道,札幌市東区,北二十一条東７丁目１番５号,,01,103,0650021,,,,,,,2025-10-14,1,,,,,ルミナスカイケイ,0
2698,9450003002725,新規,0,2025-10-14,2025-10-14,北びえい合同会社,,合同会社,北海道,上川郡美瑛町,字下宇莫別朝日,,01,459,0710226,,,,,,,2025-10-14,1,,,,,キタビエイ,0
