sequenceNumber,corporateNumber,process,correct,updateDate,changeDate,name,nameImageId,kind,prefectureName,cityName,streetNumber,addressImageId,prefectureCode,cityCode,postCode,addressOutside,addressOutsideImageId,closeDate,closeCause,successorCorporateNumber,changeCause,assignmentDate,latest,enName,enPrefectureName,enCityName,enAddressOutside,furigana,hihyoji
6,1010001231245,新規,0,2022-12-05,2022-12-05,株式会社ＢＥＡＣＯＮ,,株式会社,東京都,千代田区,神田神保町１丁目２番１０号,,13,101,1010051,,,,,,,2022-12-05,1,,,,,ビーコン,0
7,1010001231253,新規,0,2022-12-05,2022-12-05,株式会社ＳＴＯＲＹ,,株式会社,東京都,中央区,晴海２丁目３番２－２９０６号,,13,102,1040053,,,,,,,2022-12-05,1,,,,,ストーリー,0
8,1010001231261,新規,0,2022-12-05,2022-12-05,株式会社ＳＴＯＣＫ１１２,,株式会社,東京都,千代田区,永田町２丁目１２番４号,,13,101,1000014,,,,,,,2022-12-05,1,,,,,ストックヒャクジュウニ,0
9,1010001231294,新規,0,2022-12-05,2022-12-05,株式会社ＡＡＩ０１,,株式会社,東京都,中央区,日本橋２丁目１番１８号,,13,102,1030027,,,,,,,2022-12-05,1,,,,,エーエーアイゼロイチ,0
10,1010001231303,新規,0,2022-12-05,2022-12-05,株式会社ＡＡＩ０９,,株式会社,東京都,中央区,日本橋２丁目１番１８号,,13,102,1030027,,,,,,,2022-12-05,1,,,,,エーエーアイゼロキュウ,0
11,1010001231311,新規,0,2022-12-05,2022-12-05,株式会社フレームシンセシス,,株式会社,東京都,中央区,日本橋箱崎町１番２号,,13,102,1030015,,,,,,,2022-12-05,1,,,,,フレームシンセシス,0
12,1010001231328,新規,0,2022-12-05,2022-12-05,ＸＰＬＡＣＥ株式会社,,株式会社,東京都,千代田区,大手町１丁目６－１大手町ビル,,13,101,1000004,,,,,,,2022-12-05,1,,,,,クロスプレイス,0
13,1010003039216,新規,0,2022-12-05,2022-12-05,ＭＩＣ合同会社,,合同会社,東京都,文京区,千石４丁目３３番１４－１０１号,,13,105,1120011,,,,,,,2022-12-05,1,,,,,エムアイシー,0
14,1010003039232,新規,0,2022-12-05,2022-12-05,世論調査センター合同会社,,合同会社,東京都,千代田区,飯田橋２丁目９番３号,,13,101,1020072,,,,,,,2022-12-05,1,,,,,ヨロンチョウサセンター,0
15,1010005035857,新規,0,2022-12-05,2022-12-05,一般社団法人放射・輻射冷暖房協議会,,その他の設立登記法人,東京都,中央区,日本橋本町３丁目７番２号,,13,102,1030023,,,,,,,2022-12-05,1,,,,,ホウシャフクシャレイダンボウキョウギカイ,0
20,1010401171099,新規,0,2022-12-05,2022-12-05,日本サスエネアグリゲーション株式会社,,株式会社,東京都,港区,芝２丁目５番１０号芝公園ＮＤビル,,13,103,1050014,,,,,,,2022-12-05,1,,,,,ニホンサスエネアグリゲーション,0
21,1010401171124,新規,0,2022-12-05,2022-12-05,株式会社トレーディング・フォース,,株式会社,東京都,港区,赤坂２丁目２番２１号永田町法曹ビル９０６号,,13,103,1070052,,,,,,,2022-12-05,1,,,,,トレーディングフォース,0
22,1010403029048,新規,0,2022-12-05,2022-12-05,合同会社マインドスポーツ,,合同会社,東京都,港区,六本木４丁目５番１１号ＳＩＸ,,13,103,1060032,,,,,,,2022-12-05,1,,,,,マインドスポーツ,0
23,1010403029097,新規,0,2022-12-05,2022-12-05,合同会社ランドセル学園,,合同会社,東京都,港区,南青山２丁目２番１５号,,13,103,1070062,,,,,,,2022-12-05,1,,,,,ランドセルガクエン,0
25,1010501049625,新規,0,2022-12-05,2022-12-05,株式会社ばそ,,株式会社,東京都,台東区,雷門２丁目１３番３号,,13,106,1110034,,,,,,,2022-12-05,1,,,,,バソ,0
33,1010803004377,新規,0,2022-12-05,2022-12-05,合同会社Ｐｏｔｅｍｓ,,合同会社,東京都,大田区,東蒲田２丁目１番１３号アストラル・ＨＴＫ１００１,,13,111,1440031,,,,,,,2022-12-05,1,,,,,ポテムス,0
46,1011001151268,新規,0,2022-12-05,2022-12-05,株式会社サラン,,株式会社,東京都,目黒区,大岡山１丁目３１番１５号,,13,110,1520033,,,,,,,2022-12-05,1,,,,,サラン,0
47,1011001151276,新規,0,2022-12-05,2022-12-05,株式会社スタジオグリーントーチ,,株式会社,東京都,渋谷区,神宮前５丁目４６番２号青山イースト＆ウェスト１階,,13,113,1500001,,,,,,,2022-12-05,1,,,,,スタジオグリーントーチ,0
50,1011005009842,新規,0,2022-12-05,2022-12-05,一般社団法人Ｓａｐｉｅｎｔｉａ,,その他の設立登記法人,東京都,渋谷区,猿楽町１６番１１‐１０５号,,13,113,1500033,,,,,,,2022-12-05,1,,,,,サピエンティア,0
55,1011101101049,新規,0,2022-12-05,2022-12-05,株式会社ＳＹ,,株式会社,東京都,新宿区,西新宿７丁目８番１１号美笠ビル１０１,,13,104,1600023,,,,,,,2022-12-05,1,,,,,エスワイ,0
56,1011101101057,新規,0,2022-12-05,2022-12-05,ＴＲＥソリューションズグループ株式会社,,株式会社,東京都,新宿区,西早稲田１丁目８－１２－５０１,,13,104,1690051,,,,,,,2022-12-05,1,,,,,ティーアールイーソリューションズグループ,0
57,1011105010485,新規,0,2022-12-05,2022-12-05,司法書士法人鈴木事務所,,その他の設立登記法人,東京都,新宿区,新宿２丁目１６番８号新宿北斗ビル７階,,13,104,1600022,,,,,,,2022-12-05,1,,,,,スズキジムショ,0
59,1011201024273,新規,0,2022-12-05,2022-12-05,株式会社吉商会,,株式会社,東京都,中野区,上鷺宮４丁目１７番５号ホワイトキャッスル上鷺宮１階－店舗Ｂ号室,,13,114,1650031,,,,,,,2022-12-05,1,,,,,キチショウカイ,0
61,1011403003835,新規,0,2022-12-05,2022-12-05,合同会社えみり健康プロジェクト,,合同会社,東京都,板橋区,幸町３１番１号,,13,119,1730034,,,,,,,2022-12-05,1,,,,,エミリケンコウプロジェクト,0
63,1011505002520,新規,0,2022-12-05,2022-12-05,特定非営利活動法人とっぷくおりてぃ,,その他の設立登記法人,東京都,北区,赤羽北１丁目８番７号,,13,117,1150052,,,,,,,2022-12-05,1,,,,,トップクオリティ,0
66,1011701025829,新規,0,2022-12-05,2022-12-05,株式会社ＡＲ,,株式会社,東京都,江戸川区,東葛西６丁目５番１５号ウツイ商事第１ビル６Ｃ,,13,123,1340084,,,,,,,2022-12-05,1,,,,,エイアール,0
67,1011701025837,新規,0,2022-12-05,2022-12-05,株式会社Ｈｏａｎｇ　Ｐｈｕｃ,,株式会社,東京都,江戸川区,東小松川４丁目９番２号,,13,123,1320033,,,,,,,2022-12-05,1,,,,,ホアンフク,0
73,1012401039929,新規,0,2022-12-05,2022-12-05,株式会社テンショク,,株式会社,東京都,武蔵野市,吉祥寺本町１丁目５番１号吉祥寺ＰＡＲＣＯ８Ｆ、ＳｋｉｉＭａ内,,13,203,1800004,,,,,,,2022-12-05,1,,,,,テンショク,0
74,1012401039937,新規,0,2022-12-05,2022-12-05,株式会社真和コーポレーション,,株式会社,東京都,小金井市,貫井南町３丁目１７番３－６０９号,,13,210,1840014,,,,,,,2022-12-05,1,,,,,シンワコーポレーション,0
76,1012703002592,新規,0,2022-12-05,2022-12-05,合同会社ふわふわおふとんクラブ,,合同会社,東京都,清瀬市,下清戸２丁目５６７番地６,,13,221,2040011,,,,,,,2022-12-05,1,,,,,フワフワオフトンクラブ,0
87,1020003022848,新規,0,2022-12-05,2022-12-05,Ｔ＆Ｒ　Ｐｒｏｊｅｃｔｓ合同会社,,合同会社,神奈川県,横浜市港北区,新横浜２丁目１８番地４レアシス新横浜パークフロント９０１,,14,109,2220033,,,,,,,2022-12-05,1,,,,,ティーアンドアールプロジェクツ,0
91,1021003012442,新規,0,2022-12-05,2022-12-05,ＹＯＵＣＯＭＳ合同会社,,合同会社,神奈川県,逗子市,小坪１丁目１８番４６号,,14,208,2490008,,,,,,,2022-12-05,1,,,,,ユーコムズ,0
92,1021003012467,新規,0,2022-12-05,2022-12-05,千帆合同会社,,合同会社,神奈川県,相模原市中央区,相模原６丁目３－３－３０２,,14,152,2520231,,,,,,,2022-12-05,1,,,,,チホ,0
99,1030001151334,新規,0,2022-12-05,2022-12-05,株式会社榊商会,00128668,株式会社,埼玉県,深谷市,矢島９２６番地１,,11,218,3660839,,,,,,,2022-12-05,1,,,,,サカキショウカイ,0
100,1030001151367,新規,0,2022-12-05,2022-12-05,エリートラスト株式会社,,株式会社,埼玉県,深谷市,桜ケ丘２８０番地,,11,218,3660802,,,,,,,2022-12-05,1,,,,,エリートラスト,0
103,1040001126079,新規,0,2022-12-05,2022-12-05,株式会社藤井内装,,株式会社,千葉県,八千代市,大和田新田１６６番地１８,,12,221,2760046,,,,,,,2022-12-05,1,,,,,フジイナイソウ,0
104,1040001126120,新規,0,2022-12-05,2022-12-05,未来建設株式会社,,株式会社,千葉県,千葉市中央区,新田町７番７号,,12,101,2600027,,,,,,,2022-12-05,1,,,,,ミライケンセツ,0
107,1040003021393,新規,0,2022-12-05,2022-12-05,ＰＲＩＹＡＮＫＡＲＡ　ＩＮＴＥＲＮＡＴＩＯＮＡＬ合同会社,,合同会社,千葉県,松戸市,大谷口６３番地１２ブラッシング１０５,,12,207,2700005,,,,,,,2022-12-05,1,,,,,プリヤンカラインターナショナル,0
108,1050001052035,新規,0,2022-12-05,2022-12-05,株式会社エコロジーパートナー,,株式会社,茨城県,坂東市,冨田７４４番地２,,08,228,3060652,,,,,,,2022-12-05,1,,,,,エコロジーパートナー,0
112,1050005013181,新規,0,2022-12-05,2022-12-05,一般社団法人クリニックサポート,,その他の設立登記法人,茨城県,水戸市,平須町１８２０番地の８０,,08,201,3100853,,,,,,,2022-12-05,1,,,,,クリニックサポート,0
114,1070001039880,新規,0,2022-12-05,2022-12-05,株式会社Ｒ‐ＴＷＯ,,株式会社,群馬県,高崎市,倉賀野町１９６９番地３,,10,202,3701201,,,,,,,2022-12-05,1,,,,,アールツー,0
115,1070001039889,新規,0,2022-12-05,2022-12-05,株式会社伊與久総業,,株式会社,群馬県,太田市,新田金井町４７１番地３,,10,205,3700341,,,,,,,2022-12-05,1,,,,,,0
122,1090001017876,新規,0,2022-12-05,2022-12-05,株式会社ｍａｒｕｍｏｒｉ,,株式会社,山梨県,笛吹市,石和町駅前２番地１８,,19,211,4060028,,,,,,,2022-12-05,1,,,,,マルモリ,0
141,1120001250589,新規,0,2022-12-05,2022-12-05,大水株式会社,,株式会社,大阪府,大阪市西成区,中開１丁目３番２８号,,27,122,5570022,,,,,,,2022-12-05,1,,,,,ダイスイ,0
142,1120001250746,新規,0,2022-12-05,2022-12-05,ｔｊＢＲＯＴＨＥＲＳ株式会社,,株式会社,大阪府,大阪市東淀川区,菅原２丁目１０番１５号,,27,114,5330022,,,,,,,2022-12-05,1,,,,,ティジェイブラザーズ,0
143,1120001250829,新規,0,2022-12-05,2022-12-05,株式会社壱備,,株式会社,大阪府,大阪市平野区,背戸口２丁目６番１１－１０１号,,27,126,5470034,,,,,,,2022-12-05,1,,,,,イチビン,0
144,1120001250837,新規,0,2022-12-05,2022-12-05,ＭＯＫ株式会社,,株式会社,大阪府,大阪市阿倍野区,相生通１丁目３番３１号,,27,119,5450033,,,,,,,2022-12-05,1,,,,,エムオーケー,0
148,1120005023322,新規,0,2022-12-05,2022-12-05,社会保険労務士法人ほほえみ障害年金Ｌａｂｏ,,その他の設立登記法人,大阪府,大阪市天王寺区,南河堀町９番４３天王寺北口ビル８０４,,27,109,5430054,,,,,,,2022-12-05,1,,,,,ホホエミショウガイネンキンラボ,0
150,1120101066605,新規,0,2022-12-05,2022-12-05,株式会社森本工務店,,株式会社,大阪府,堺市中区,堀上町５０２番地,,27,142,5998261,,,,,,,2022-12-05,1,,,,,モリモトコウムテン,0
151,1120101066613,新規,0,2022-12-05,2022-12-05,株式会社リサイクルステーション,,株式会社,大阪府,泉佐野市,高松東１丁目２番３号,,27,213,5980012,,,,,,,2022-12-05,1,,,,,リサイクルステーション,0
152,1120101066621,新規,0,2022-12-05,2022-12-05,株式会社Ａ’ｓ,,株式会社,大阪府,富田林市,大字彼方１３２７番地５０,,27,214,5840058,,,,,,,2022-12-05,1,,,,,アズ,0
154,1120901046814,新規,0,2022-12-05,2022-12-05,株式会社グランツ豊中,,株式会社,大阪府,豊中市,庄内西町２丁目１５番８号,,27,203,5610832,,,,,,,2022-12-05,1,,,,,グランツトヨナカ,0
157,1122001036464,新規,0,2022-12-05,2022-12-05,株式会社Ｉ．Ｇ．Ｓ．,,株式会社,大阪府,八尾市,恩智北町４丁目４８４番地,,27,212,5810882,,,,,,,2022-12-05,1,,,,,アイジーエス,0
162,1130001073205,新規,0,2022-12-05,2022-12-05,ボーグ株式会社,,株式会社,京都府,京都市伏見区,下鳥羽西芹川町５８番地,,26,109,6128394,,,,,,,2022-12-05,1,,,,,ボーグ,0
163,1130001073221,新規,0,2022-12-05,2022-12-05,株式会社ＨＥＲＭ　Ｈｏｔｅｌ　Ｍａｎａｇｅｍｅｎｔ　Ｇｉｏｎ,,株式会社,京都府,京都市東山区,下河原通八坂鳥居前下る清井町４８０,,26,105,6050821,,,,,,,2022-12-05,1,,,,,エルムホテルマネジメントギオン,0
164,1130003008340,新規,0,2022-12-05,2022-12-05,合同会社ＪＡＭＩＥ,,合同会社,京都府,宇治市,宇治妙楽５１－３－２０１,,26,204,6110021,,,,,,,2022-12-05,1,,,,,ジェイミー,0
175,1140001128230,新規,0,2022-12-05,2022-12-05,株式会社トウカ,,株式会社,兵庫県,姫路市,田寺５丁目７番４８号,,28,201,6700086,,,,,,,2022-12-05,1,,,,,トウカ,0
176,1140001128263,新規,0,2022-12-05,2022-12-05,ＭＫエンジニアリング株式会社,,株式会社,兵庫県,姫路市,砥堀６８５番地１,,28,201,6700802,,,,,,,2022-12-05,1,,,,,エムケーエンジニアリング,0
177,1140001128296,新規,0,2022-12-05,2022-12-05,株式会社魚々真,,株式会社,兵庫県,神戸市東灘区,深江南町３丁目１番１３号,,28,101,6580022,,,,,,,2022-12-05,1,,,,,トトシン,0
186,1160001024675,新規,0,2022-12-05,2022-12-05,ＦＩＶＥ‐ＳＴＡＲ　ＪＡＰＡＮ株式会社,,株式会社,滋賀県,守山市,梅田町８５番７号,,25,207,5240037,,,,,,,2022-12-05,1,,,,,ファイブスタージャパン,0
189,1170001017397,新規,0,2022-12-05,2022-12-05,株式会社エステック,,株式会社,和歌山県,和歌山市,つつじが丘６丁目５番地１４,,30,201,6400115,,,,,,,2022-12-05,1,,,,,エステック,0
191,1180001154033,新規,0,2022-12-05,2022-12-05,ＴｒｉＢｌｕｅ株式会社,,株式会社,愛知県,小牧市,大字二重堀字田神１１１０番地３,,23,219,4850021,,,,,,,2022-12-05,1,,,,,トライブルー,0
192,1180001154041,新規,0,2022-12-05,2022-12-05,株式会社アズコミュニケーションズ東海,,株式会社,愛知県,名古屋市東区,泉１丁目１１番６号ミソカビル２Ｆ,,23,102,4610001,,,,,,,2022-12-05,1,,,,,アズコミュニケーションズトウカイ,0
193,1180001154058,新規,0,2022-12-05,2022-12-05,大松不動産株式会社,,株式会社,愛知県,名古屋市北区,楠味鋺３丁目２２２番地,,23,103,4620014,,,,,,,2022-12-05,1,,,,,ダイマツフドウサン,0
194,1180001154082,新規,0,2022-12-05,2022-12-05,株式会社エムサポート,,株式会社,愛知県,名古屋市港区,木場町９番地７,,23,111,4550021,,,,,,,2022-12-05,1,,,,,エムサポート,0
199,1180003024572,新規,0,2022-12-05,2022-12-05,合同会社スターホーム,,合同会社,愛知県,名古屋市天白区,福池１丁目２６－４,,23,116,4680049,,,,,,,2022-12-05,1,,,,,スターホーム,0
207,1200001040726,新規,0,2022-12-05,2022-12-05,佐藤メッキ株式会社,,株式会社,岐阜県,関市,円保通３丁目２番１６号,,21,205,5013804,,,,,,,2022-12-05,1,,,,,サトウメッキ,0
208,1220001025163,新規,0,2022-12-05,2022-12-05,株式会社ＦＵＫＵＭＩＭＩ,,株式会社,石川県,金沢市,鱗町９７番地１,,17,201,9200971,,,,,,,2022-12-05,1,,,,,フクミミ,0
211,1240001060737,新規,0,2022-12-05,2022-12-05,株式会社ＨＩＲＯＧＡＲＩ,,株式会社,広島県,広島市安芸区,中野２丁目２１番６号,,34,107,7390321,,,,,,,2022-12-05,1,,,,,ヒロガリ,0
212,1240001060745,新規,0,2022-12-05,2022-12-05,株式会社Ｐ・Ｒ・Ｏ,,株式会社,広島県,広島市南区,翠４丁目１１番４－２０３号,,34,103,7340005,,,,,,,2022-12-05,1,,,,,ピーアールオー,0
213,1240001060753,新規,0,2022-12-05,2022-12-05,朝日株式会社,,株式会社,広島県,広島市西区,商工センター７丁目５番５２号,,34,104,7330833,,,,,,,2022-12-05,1,,,,,アサヒ,0
215,1240003005913,新規,0,2022-12-05,2022-12-05,Ｍｏｇｕｒａ合同会社,,合同会社,広島県,呉市,望地町８番１８号,,34,202,7370065,,,,,,,2022-12-05,1,,,,,モグラ,0
225,1290001099770,新規,0,2022-12-05,2022-12-05,株式会社ｃｏｂａ＆Ｃｏ．,,株式会社,福岡県,太宰府市,宰府２丁目７番４号,,40,221,8180117,,,,,,,2022-12-05,1,,,,,コバアンドカンパニー,0
226,1290001099787,新規,0,2022-12-05,2022-12-05,株式会社エス内装,,株式会社,福岡県,福岡市西区,上山門２丁目３７番１８号,,40,135,8190054,,,,,,,2022-12-05,1,,,,,エスナイソウ,0
241,1320001019452,新規,0,2022-12-05,2022-12-05,株式会社フットワークス,,株式会社,大分県,豊後大野市,三重町百枝１８５９番地３,,44,212,8797152,,,,,,,2022-12-05,1,,,,,フットワークス,0
253,1350005006122,新規,0,2022-12-05,2022-12-05,一般社団法人高等教育コンソーシアム宮崎,,その他の設立登記法人,宮崎県,宮崎市,学園木花台西１丁目１番地,,45,201,8892155,,,,,,,2022-12-05,1,,,,,コウトウキョウイクコンソーシアムミヤザキ,0
257,1370001049321,新規,0,2022-12-05,2022-12-05,株式会社レディアント,,株式会社,宮城県,仙台市青葉区,中央２丁目８－１１プレミアムグリーンヒルズ３階,,04,101,9800021,,,,,,,2022-12-05,1,,,,,レディアント,0
258,1370003005909,新規,0,2022-12-05,2022-12-05,エンフィールド合同会社,,合同会社,宮城県,仙台市太白区,八木山松波町２番２１－２０２号,,04,104,9820836,,,,,,,2022-12-05,1,,,,,エンフィールド,0
263,1390001017086,新規,0,2022-12-05,2022-12-05,株式会社ｖｕｅ,,株式会社,山形県,山形市,江俣５丁目１番１号シャーメゾンベレオ１０３号室,,06,201,9900861,,,,,,,2022-12-05,1,,,,,ヴュー,0
266,1400001016078,新規,0,2022-12-05,2022-12-05,株式会社ＯＩＫＡＷＡ　ＲＯＯＦ,,株式会社,岩手県,北上市,二子町上川端７８番地３,,03,206,0240104,,,,,,,2022-12-05,1,,,,,オイカワルーフ,0
280,1430003014531,新規,0,2022-12-05,2022-12-05,合同会社ＴＭＧ,,合同会社,北海道,札幌市南区,澄川六条６丁目６番８号,,01,106,0050006,,,,,,,2022-12-05,1,,,,,ティーエムジー,0
282,1460303000781,新規,0,2022-12-05,2022-12-05,合同会社ワイルドライフプロ,,合同会社,北海道,斜里郡斜里町,朝日町７番地５４,,01,545,0994114,,,,,,,2022-12-05,1,,,,,,0
283,1470001019363,新規,0,2022-12-05,2022-12-05,株式会社津田設備,,株式会社,香川県,高松市,香川町川東下１５０５番地５,,37,201,7611705,,,,,,,2022-12-05,1,,,,,ツダセツビ,0
287,1700150113232,新規,0,2022-12-05,2022-12-05,Ｂａｒｒａ　Ｈｅａｄ　Ｌｉｍｉｔｅｄ,,外国会社等,東京都,新宿区,新宿２丁目９番２２号多摩川新宿ビル３階,,13,104,1600022,英領西インド諸島、ケイマン諸島、グランドケイマン、ジョージタウン、エルジン通り１９０、ウォーカーズ・フィデューシャリー・リミテッド,,,,,,2022-12-05,1,,,,,バラヘツドリミテツド,0
288,1700150113249,新規,0,2022-12-05,2022-12-05,Ｊｉｎｊｉａｎｇ　Ａｉａｉ　Ｐｅｔ　Ｐｒｏｄｕｃｔｓ　Ｃｏ．，Ｌｔｄ,,外国会社等,,,,,,,,Ｄｏｎｇｃｈｅｎｇ　Ｉｎｄｕｓｔｒｉａｌ　Ｚｏｎｅ，Ｄｏｎｇｓｈｉ　Ｔｏｗｎ，Ｊｉｎｊｉａｎｇ　Ｃｉｔｙ，Ｃｈｉｎａ,,,,,,2022-12-05,1,,,,,シンコウシアイアイペットヨウヒンユウゲンコウシ,0
297,2010001231260,新規,0,2022-12-05,2022-12-05,株式会社ＳＴＯＣＫ１１１,,株式会社,東京都,千代田区,永田町２丁目１２番４号,,13,101,1000014,,,,,,,2022-12-05,1,,,,,ストックヒャクジュウイチ,0
298,2010001231302,新規,0,2022-12-05,2022-12-05,株式会社ＡＡＩ０８,,株式会社,東京都,中央区,日本橋２丁目１番１８号,,13,102,1030027,,,,,,,2022-12-05,1,,,,,エーエーアイゼロハチ,0
299,2010001231310,新規,0,2022-12-05,2022-12-05,Ｊ．Ｐ．コンサルティング株式会社,,株式会社,東京都,文京区,関口２丁目７－３パレドール目白台２０４号,,13,105,1120014,,,,,,,2022-12-05,1,,,,,ジェイピーコンサルティング,0
300,2010005035856,新規,0,2022-12-05,2022-12-05,一般社団法人ホンマ,,その他の設立登記法人,東京都,文京区,千石１丁目２６番１４号,,13,105,1120011,,,,,,,2022-12-05,1,,,,,ホンマ,0
301,2010005035864,新規,0,2022-12-05,2022-12-05,一般社団法人銀座検定,,その他の設立登記法人,東京都,中央区,銀座７丁目１３番６号サガミビル２階,,13,102,1040061,,,,,,,2022-12-05,1,,,,,ギンザケンテイ,0
305,2010401171123,新規,0,2022-12-05,2022-12-05,ＩＩＩ株式会社,,株式会社,東京都,港区,南青山３丁目１番３６号青山丸竹ビル６Ｆ,,13,103,1070062,,,,,,,2022-12-05,1,,,,,アイスリー,0
306,2010401171148,新規,0,2022-12-05,2022-12-05,株式会社ＡＳＳＵＮ,,株式会社,東京都,港区,東麻布２丁目３５番１号,,13,103,1060044,,,,,,,2022-12-05,1,,,,,アズサン,0
307,2010401171164,新規,0,2022-12-05,2022-12-05,双日レジデンシャルパートナーズ株式会社,,株式会社,東京都,港区,西新橋１丁目２番９号日比谷セントラルビル１７階,,13,103,1050003,,,,,,,2022-12-05,1,,,,,ソウジツレジデンシャルパートナーズ,0
308,2010403029047,新規,0,2022-12-05,2022-12-05,西麻布合同会社,,合同会社,東京都,港区,西麻布２丁目１５番１６号,,13,103,1060031,,,,,,,2022-12-05,1,,,,,ニシアザブ,0
309,2010403029071,新規,0,2022-12-05,2022-12-05,合同会社Ｐｒｏｔｏｔｙｐｅ　Ｌａｂ,,合同会社,東京都,港区,港南３丁目７―２０,,13,103,1080075,,,,,,,2022-12-05,1,,,,,プロトタイプラボ,0
311,2010501049707,新規,0,2022-12-05,2022-12-05,デジタルコンプレックス株式会社,,株式会社,東京都,台東区,上野５丁目１８番１０号,,13,106,1100005,,,,,,,2022-12-05,1,,,,,デジタルコンプレックス,0
312,2010701043575,新規,0,2022-12-05,2022-12-05,株式会社リモフィ,,株式会社,東京都,品川区,西五反田１丁目１３－７マルキビル５０３,,13,109,1410031,,,,,,,2022-12-05,1,,,,,リモフィ,0
317,2010801033484,新規,0,2022-12-05,2022-12-05,株式会社奄美群島ふるさと情報館,,株式会社,東京都,大田区,大森西７丁目７番１６号城南医療ビル,,13,111,1430015,,,,,,,2022-12-05,1,,,,,アマミグントウフルサトジョウホウカン,0
318,2010805002989,新規,0,2022-12-05,2022-12-05,税理士法人クラウド会計,,その他の設立登記法人,東京都,大田区,蒲田５丁目２１番１３号Ｂ２,,13,111,1440052,,,,,,,2022-12-05,1,,,,,クラウドカイケイ,0
321,2010901052070,新規,0,2022-12-05,2022-12-05,株式会社アヴィッドロイド,,株式会社,東京都,世田谷区,三宿２丁目４番１号,,13,112,1540005,,,,,,,2022-12-05,1,,,,,,0
328,2011001151267,新規,0,2022-12-05,2022-12-05,株式会社ＬＩＦＩＸ,,株式会社,東京都,渋谷区,道玄坂１丁目１０番８号渋谷道玄坂東急ビル２Ｆ－Ｃ,,13,113,1500043,,,,,,,2022-12-05,1,,,,,リフィックス,0
329,2011001151275,新規,0,2022-12-05,2022-12-05,株式会社スタジオ１３,,株式会社,東京都,渋谷区,笹塚２丁目２番５号,,13,113,1510073,,,,,,,2022-12-05,1,,,,,スタジオイチサン,0
330,2011003015858,新規,0,2022-12-05,2022-12-05,アールツーインターナショナル合同会社,,合同会社,東京都,渋谷区,恵比寿西２丁目１９－９フランセスビル１階,,13,113,1500021,,,,,,,2022-12-05,1,,,,,アールツーインターナショナル,0
332,2011101101056,新規,0,2022-12-05,2022-12-05,株式会社ｒａｉｓｅ,,株式会社,東京都,新宿区,西新宿３丁目３番１３号西新宿水間ビル２Ｆ,,13,104,1600023,,,,,,,2022-12-05,1,,,,,レイズ,0
333,2011201024272,新規,0,2022-12-05,2022-12-05,株式会社シージュエルズ,,株式会社,東京都,中野区,白鷺３丁目８番１４号カーサグランデ大野Ｂ２,,13,114,1650035,,,,,,,2022-12-05,1,,,,,シージュエルズ,0
337,2011301028289,新規,0,2022-12-05,2022-12-05,株式会社ＨＩＲＯ,,株式会社,東京都,杉並区,西荻南３丁目１６番８号,,13,115,1670053,,,,,,,2022-12-05,1,,,,,ヒロ,0
338,2011303004593,新規,0,2022-12-05,2022-12-05,合同会社ムント,,合同会社,東京都,杉並区,上高井戸１丁目５番１３号パレス八幡山２０３,,13,115,1680074,,,,,,,2022-12-05,1,,,,,ムント,0
339,2011401024741,新規,0,2022-12-05,2022-12-05,株式会社しろくま不動産,,株式会社,東京都,板橋区,熊野町２４番７－５０２号,,13,119,1730025,,,,,,,2022-12-05,1,,,,,シロクマフドウサン,0
341,2011501028725,新規,0,2022-12-05,2022-12-05,大栄商事株式会社,,株式会社,東京都,北区,赤羽２丁目２１番５号,,13,117,1150045,,,,,,,2022-12-05,1,,,,,ダイエイショウジ,0
345,2011601026414,新規,0,2022-12-05,2022-12-05,株式会社ＲＩＳＥ　ＯＮＥ,,株式会社,東京都,練馬区,関町東２丁目１１番６号３Ｆ,,13,120,1770052,,,,,,,2022-12-05,1,,,,,ライズワン,0
346,2011701025836,新規,0,2022-12-05,2022-12-05,株式会社ｉＭａｉｋｉ,,株式会社,東京都,江戸川区,東小岩５丁目１０番１４号,,13,123,1330052,,,,,,,2022-12-05,1,,,,,イマイキ,0
352,2012701017377,新規,0,2022-12-05,2022-12-05,千代田工業株式会社,,株式会社,東京都,東久留米市,八幡町２丁目５番２０号,,13,222,2030042,,,,,,,2022-12-05,1,,,,,チヨダコウギョウ,0
356,2013301050009,新規,0,2022-12-05,2022-12-05,株式会社ＯＲＩＧＩＴ,,株式会社,東京都,豊島区,西池袋３丁目３３番１０号云祥ビル３０１,,13,116,1710021,,,,,,,2022-12-05,1,,,,,オリジット,0
357,2013303006396,新規,0,2022-12-05,2022-12-05,タイゼングループ合同会社,,合同会社,東京都,豊島区,東池袋１丁目３４番５号６階,,13,116,1700013,,,,,,,2022-12-05,1,,,,,タイゼングループ,0
363,2021001077585,新規,0,2022-12-05,2022-12-05,株式会社ＮＫ,,株式会社,神奈川県,横須賀市,須軽谷１０９２番地,,14,201,2380314,,,,,,,2022-12-05,1,,,,,エヌケー,0
364,2021001077635,新規,0,2022-12-05,2022-12-05,株式会社ｆｆｂ,,株式会社,神奈川県,相模原市中央区,田名１３１６番地９,,14,152,2520244,,,,,,,2022-12-05,1,,,,,エフエフビー,0
369,2021003012466,新規,0,2022-12-05,2022-12-05,合同会社Ｓ‐ＦＡＲＭＳ,,合同会社,神奈川県,三浦市,宮川町１６－３３,,14,210,2380231,,,,,,,2022-12-05,1,,,,,エスファームズ,0
370,2021005012679,新規,0,2022-12-05,2022-12-05,医療法人松興会,,その他の設立登記法人,神奈川県,茅ヶ崎市,南湖２丁目１３番３１号１階,,14,207,2530061,,,,,,,2022-12-05,1,,,,,マツオキカイ,0
372,2030001151300,新規,0,2022-12-05,2022-12-05,株式会社ブイスト,,株式会社,埼玉県,さいたま市中央区,鈴谷２丁目７１０番地１サクレリュミエールＩ１０２号室,00128679,11,105,3380013,,,,,,,2022-12-05,1,,,,,ブイスト,0
373,2030001151333,新規,0,2022-12-05,2022-12-05,株式会社Ｐｒｅｓｔｉｇｅ,,株式会社,埼玉県,越谷市,大字砂原１５７２番地１,,11,222,3430803,,,,,,,2022-12-05,1,,,,,プレステージ,0
378,2030003020684,新規,0,2022-12-05,2022-12-05,合同会社バリューリサーチ,,合同会社,埼玉県,越谷市,大字恩間５３２－７,,11,222,3430033,,,,,,,2022-12-05,1,,,,,バリューリサーチ,0
386,2040001126078,新規,0,2022-12-05,2022-12-05,株式会社イデリア,,株式会社,千葉県,市川市,新田３丁目１９番１－２０７号ヴィレッヂ西山Ｎｏ．２,,12,203,2720035,,,,,,,2022-12-05,1,,,,,イデリア,0
395,2080101023667,新規,0,2022-12-05,2022-12-05,株式会社Ｑ＆Ｐ,,株式会社,静岡県,駿東郡清水町,久米田１４０番地の５４,,22,341,4110911,,,,,,,2022-12-05,1,,,,,キューアンドピー,0
396,2080401026188,新規,0,2022-12-05,2022-12-05,株式会社うみくじら,,株式会社,静岡県,袋井市,友永２３番地の１,,22,216,4370004,,,,,,,2022-12-05,1,,,,,ウミクジラ,0
397,2090001017867,新規,0,2022-12-05,2022-12-05,株式会社ＪＯＥＹ,,株式会社,山梨県,南都留郡富士河口湖町,小立７１４７番地４－６１０号スポルシオンＩＩ,00128666,19,430,4010302,,,,,,,2022-12-05,1,,,,,ジョーイ,0
412,2120001250654,新規,0,2022-12-05,2022-12-05,株式会社シャイニングロード,,株式会社,大阪府,大阪市淀川区,西中島３丁目１８番２１号,,27,123,5320011,,,,,,,2022-12-05,1,,,,,シャイニングロード,0
413,2120001250662,新規,0,2022-12-05,2022-12-05,株式会社ＥＭＡ,,株式会社,大阪府,大阪市福島区,福島７丁目２２番９－６０７号,,27,103,5530003,,,,,,,2022-12-05,1,,,,,エマ,0
414,2120001250679,新規,0,2022-12-05,2022-12-05,ＮＦＴトレード株式会社,,株式会社,大阪府,大阪市住吉区,遠里小野６丁目１７－１８－４０１,,27,120,5580032,,,,,,,2022-12-05,1,,,,,エンエフティートレード,0
425,2120101066620,新規,0,2022-12-05,2022-12-05,株式会社ジャパントランスオーシャンフーズ,,株式会社,大阪府,堺市西区,鳳西町１丁８８－８９,,27,144,5938326,,,,,,,2022-12-05,1,,,,,ジャパントランスオーシャンフーズ,0
427,2120901046813,新規,0,2022-12-05,2022-12-05,株式会社Ｍ‐ＳＦＣ,,株式会社,大阪府,豊中市,向丘１丁目７番１５号１２０１号室,,27,203,5600053,,,,,,,2022-12-05,1,,,,,エムエスエフシー,0
428,2122003002463,新規,0,2022-12-05,2022-12-05,彩花合同会社,,合同会社,大阪府,大東市,太子田３丁目２番２６号,,27,218,5740045,,,,,,,2022-12-05,1,,,,,サイカ,0
430,2130001073220,新規,0,2022-12-05,2022-12-05,株式会社ＮＥＸＴ,,株式会社,京都府,舞鶴市,溝尻町６番地５－１,,26,202,6250042,,,,,,,2022-12-05,1,,,,,ネクスト,0
431,2130001073229,新規,0,2022-12-05,2022-12-05,株式会社片山製作所,,株式会社,京都府,宇治市,木幡熊小路１９番地の１１６,,26,204,6110002,,,,,,,2022-12-05,1,,,,,カタヤマセイサクショ,0
432,2130001073237,新規,0,2022-12-05,2022-12-05,株式会社剣劇会,,株式会社,京都府,京都市上京区,中立売通六軒町東入四番町１２３番地柴定ビル・シャトレ西陣７０５号,,26,102,6028347,,,,,,,2022-12-05,1,,,,,ケンゲキカイ,0
444,2140001128295,新規,0,2022-12-05,2022-12-05,株式会社ドリーム企画,,株式会社,兵庫県,伊丹市,山田３丁目１２番５号,,28,207,6640874,,,,,,,2022-12-05,1,,,,,ドリームキカク,0
448,2140005026396,新規,0,2022-12-05,2022-12-05,税理士法人シエル,,その他の設立登記法人,兵庫県,西宮市,馬場町１番４号６Ｆ,,28,204,6620915,,,,,,,2022-12-05,1,,,,,シエル,0
451,2160001024674,新規,0,2022-12-05,2022-12-05,アスミルＩＰサービス株式会社,,株式会社,滋賀県,草津市,北大萱町６０６番地６,,25,206,5250016,,,,,,,2022-12-05,1,,,,,アスミルアイピーサービス,0
452,2160001024682,新規,0,2022-12-05,2022-12-05,株式会社ＴＡＯ,,株式会社,滋賀県,長浜市,木之本町木之本１３６８番地５,,25,203,5290425,,,,,,,2022-12-05,1,,,,,タオ,0
454,2170001017396,新規,0,2022-12-05,2022-12-05,築野オレオケミカルズ株式会社,,株式会社,和歌山県,伊都郡かつらぎ町,大字新田９４番地,,30,341,6497122,,,,,,,2022-12-05,1,,,,,ツノオレオケミカルズ,0
459,2180001154032,新規,0,2022-12-05,2022-12-05,株式会社ベストリベロ,,株式会社,愛知県,稲沢市,下津下町東３丁目８３番地４,,23,220,4928074,,,,,,,2022-12-05,1,,,,,ベストリベロ,0
460,2180001154040,新規,0,2022-12-05,2022-12-05,株式会社ＥＲＳ,,株式会社,愛知県,春日井市,気噴町北１丁目５４番地,,23,206,4870015,,,,,,,2022-12-05,1,,,,,イーアールエス,0
461,2180001154049,新規,0,2022-12-05,2022-12-05,株式会社Ｈｉｎａｔｅｃｈ,,株式会社,愛知県,小牧市,若草町１４５番地４,,23,219,4850031,,,,,,,2022-12-05,1,,,,,ヒナテック,0
462,2180001154057,新規,0,2022-12-05,2022-12-05,株式会社Ｅｒｉｃ,,株式会社,愛知県,名古屋市中川区,好本町３丁目３９番地インカントロト１０３号,,23,110,4540825,,,,,,,2022-12-05,1,,,,,エリック,0
463,2180001154073,新規,0,2022-12-05,2022-12-05,株式会社ｏｄｉｎｎ,,株式会社,愛知県,知多郡武豊町,字前田３４番地１,,23,447,4702338,,,,,,,2022-12-05,1,,,,,オーディン,0
468,2180005020016,新規,0,2022-12-05,2022-12-05,土地家屋調査士法人山村事務所,,その他の設立登記法人,愛知県,一宮市,北小渕字田島４番地１,,23,203,4910013,,,,,,,2022-12-05,1,,,,,ヤマムラジムショ,0
470,2180301036871,新規,0,2022-12-05,2022-12-05,株式会社ＺＡＷＡ屋,,株式会社,愛知県,豊橋市,牛川町字乗小路２８番地５２,,23,201,4400006,,,,,,,2022-12-05,1,,,,,ザワヤ,0
476,2200001040691,新規,0,2022-12-05,2022-12-05,株式会社Ｎｉｇｈｔ　Ｂａｋｅｒｙ,,株式会社,岐阜県,岐阜市,金宝町２丁目４番地,,21,201,5008847,,,,,,,2022-12-05,1,,,,,ナイトベーカリー,0
477,2200003005750,新規,0,2022-12-05,2022-12-05,合同会社ＸＧ,,合同会社,岐阜県,岐阜市,花沢町３丁目３０番地,,21,201,5008142,,,,,,,2022-12-05,1,,,,,エックスジー,0
479,2210001019173,新規,0,2022-12-05,2022-12-05,株式会社ゼオン,,株式会社,福井県,坂井市,春江町江留中第３０号１０番地１３,,18,210,9190412,,,,,,,2022-12-05,1,,,,,ゼオン,0
480,2220001025162,新規,0,2022-12-05,2022-12-05,株式会社ＰＩＸＴＵＲＥ,,株式会社,石川県,珠洲市,上戸町北方４字１７７番地３,,17,205,9271215,,,,,,,2022-12-05,1,,,,,ピクスチャー,0
486,2240001060736,新規,0,2022-12-05,2022-12-05,ＨＴトレーディング株式会社,,株式会社,広島県,広島市中区,広瀬北町２番２４号,,34,101,7300803,,,,,,,2022-12-05,1,,,,,エイチティトレーディング,0
487,2240001060744,新規,0,2022-12-05,2022-12-05,株式会社高垣不動産,,株式会社,広島県,尾道市,東尾道１１番地３,,34,205,7220051,,,,,,,2022-12-05,1,,,,,タカガキフドウサン,0
488,2240001060752,新規,0,2022-12-05,2022-12-05,株式会社プラクリティア,,株式会社,広島県,東広島市,西条中央５丁目５番２１号ハイコンスＩ１０３号,,34,212,7390025,,,,,,,2022-12-05,1,,,,,プラクリティア,0
498,2290003013282,新規,0,2022-12-05,2022-12-05,リアベック合同会社,,合同会社,福岡県,福岡市中央区,大名２丁目６番３１－５０４号,,40,133,8100041,,,,,,,2022-12-05,1,,,,,リアベック,0
501,2290005018866,新規,0,2022-12-05,2022-12-05,一般社団法人くるめＪｒ．ブラスバンド,,その他の設立登記法人,福岡県,久留米市,野中町２５５番地４１,,40,203,8390862,,,,,,,2022-12-05,1,,,,,クルメジュニアブラスバンド,0
509,2320001019451,新規,0,2022-12-05,2022-12-05,株式会社ＢＬＵＥ　ＣＲＥＡＴＩＯＮ,,株式会社,大分県,大分市,富士見が丘西３丁目１７番４号,,44,201,8701177,,,,,,,2022-12-05,1,,,,,ブルークリエイション,0
511,2330001030358,新規,0,2022-12-05,2022-12-05,株式会社木山建築板金,,株式会社,熊本県,上益城郡益城町,大字小池２８０３番地８,,43,443,8612223,,,,,,,2022-12-05,1,,,,,キヤマケンチクバンキン,0
514,2340001025217,新規,0,2022-12-05,2022-12-05,羽月工業株式会社,,株式会社,鹿児島県,姶良市,三拾町１２４８番地１,,46,225,8995412,,,,,,,2022-12-05,1,,,,,ハツキコウギョウ,0
515,2340001025225,新規,0,2022-12-05,2022-12-05,ＢＬＵＥＷＡＹ株式会社,,株式会社,鹿児島県,南九州市,知覧町南別府２６９２０番地,,46,223,8910912,,,,,,,2022-12-05,1,,,,,ブルーウェイ,0
519,2350001018062,新規,0,2022-12-05,2022-12-05,株式会社ｅｃｌｏｒｅ,,株式会社,宮崎県,都城市,蓑原町２４５４番地１５,,45,202,8850095,,,,,,,2022-12-05,1,,,,,エクロール,0
523,2360001031279,新規,0,2022-12-05,2022-12-05,株式会社浦崎設備工業,,株式会社,沖縄県,那覇市,古波蔵１丁目３１番５－３０２号ソーワピア古蔵台,,47,201,9000024,,,,,,,2022-12-05,1,,,,,ウラサキセツビコウギョウ,0
526,2360003012525,新規,0,2022-12-05,2022-12-05,合同会社Ａｔｅｌｉｅｒ　Ｔａｔｓｕｒｏ　Ｔａｉｒａ,,合同会社,沖縄県,那覇市,楚辺２丁目１４番２２号,,47,201,9000023,,,,,,,2022-12-05,1,,,,,アトリエタツロータイラ,0
531,2370001049337,新規,0,2022-12-05,2022-12-05,株式会社ＭＡＲＳ,,株式会社,宮城県,仙台市青葉区,小松島４丁目１６番５－５０３号,,04,101,9810905,,,,,,,2022-12-05,1,,,,,マーズ,0
547,2430001087974,新規,0,2022-12-05,2022-12-05,株式会社イメージスタイル,,株式会社,北海道,札幌市白石区,米里二条３丁目３番３６号,,01,104,0030872,,,,,,,2022-12-05,1,,,,,イメージスタイル,0
548,2430001087982,新規,0,2022-12-05,2022-12-05,サイロ工業株式会社,,株式会社,北海道,札幌市厚別区,厚別西二条４丁目２番１７号,,01,108,0040062,,,,,,,2022-12-05,1,,,,,サイロコウギョウ,0
559,2500001024631,新規,0,2022-12-05,2022-12-05,株式会社ループテック,,株式会社,愛媛県,松山市,小坂４丁目１６番２５号,,38,201,7900963,,,,,,,2022-12-05,1,,,,,ループテック,0
560,2700150047594,新規,0,2022-12-05,2015-10-09,ハイトピア伊賀管理組合,,その他,三重県,伊賀市,上野丸之内５００,,24,216,5180873,,,,,,,2015-10-09,1,,,,,ハイトピアイガカンリクミアイ,0
561,2700150113248,新規,0,2022-12-05,2022-12-05,岡山市野田屋町一丁目２番３番地区市街地再開発組合,,その他,岡山県,岡山市北区,野田屋町１丁目３番３号,,33,101,7000815,,,,,,,2022-12-05,1,,,,,オカヤマシノダヤチヨウイツチヨウメニバンサンバンチクシガイチサイカイハツクミアイ,0
565,3010001231160,新規,0,2022-12-05,2022-12-05,聖発株式会社,,株式会社,東京都,文京区,大塚５丁目８番１２－３０１号,00128671,13,105,1120012,,,,,,,2022-12-05,1,,,,,セイハツ,0
566,3010001231169,新規,0,2022-12-05,2022-12-05,株式会社ソシエテＰＧ,,株式会社,東京都,中央区,銀座７丁目１５番９号,,13,102,1040061,,,,,,,2022-12-05,1,,,,,ソシエテピージー,0
567,3010001231292,新規,0,2022-12-05,2022-12-05,ワークスデザイン株式会社,,株式会社,東京都,中央区,銀座１丁目１２－４Ｎ＆ＥＢＬＤ．７階,,13,102,1040061,,,,,,,2022-12-05,1,,,,,ワークスデザイン,0
568,3010001231301,新規,0,2022-12-05,2022-12-05,株式会社ＡＡＩ０７,,株式会社,東京都,中央区,日本橋２丁目１番１８号,,13,102,1030027,,,,,,,2022-12-05,1,,,,,エーエーアイゼロナナ,0
575,3010401171147,新規,0,2022-12-05,2022-12-05,株式会社ＤｉＰｒｏｔｅ,,株式会社,東京都,港区,赤坂９丁目７番１号ミッドタウン・タワー３５Ｆ,,13,103,1070052,,,,,,,2022-12-05,1,,,,,ディプロテ,0
579,3010403028923,新規,0,2022-12-05,2022-12-05,ピラー・ワン合同会社,,合同会社,東京都,港区,南青山３丁目５番２号南青山第一韮澤ビル３階,,13,103,1070062,,,,,,,2022-12-05,1,,,,,ピラーワン,0
580,3010403029070,新規,0,2022-12-05,2022-12-05,スターエクスペリエンス合同会社,,合同会社,東京都,港区,南青山７丁目１―２７―３１４,,13,103,1070062,,,,,,,2022-12-05,1,,,,,スターエクスペリエンス,0
590,3010701043558,新規,0,2022-12-05,2022-12-05,株式会社Ｓ・ＣＡＰＥ　ＣＯＮＳＵＬＴＩＮＧ,,株式会社,東京都,品川区,大崎２丁目７番１２号３Ｆ,,13,109,1410032,,,,,,,2022-12-05,1,,,,,エスケープコンサルティング,0
591,3010703006496,新規,0,2022-12-05,2022-12-05,合同会社ＴＷインベストメント,,合同会社,東京都,品川区,東品川４丁目１２番１１号,,13,109,1400002,,,,,,,2022-12-05,1,,,,,ティーダブリューインベストメント,0
597,3011001151266,新規,0,2022-12-05,2022-12-05,株式会社ＣｏＬ,,株式会社,東京都,渋谷区,道玄坂１丁目１０番８号渋谷道玄坂東急ビル,,13,113,1500043,,,,,,,2022-12-05,1,,,,,ソル,0
598,3011001151282,新規,0,2022-12-05,2022-12-05,ＳＴＲＡＴＡ株式会社,,株式会社,東京都,渋谷区,神宮前６丁目２３番４号桑野ビル２階,,13,113,1500001,,,,,,,2022-12-05,1,,,,,ストラータ,0
600,3011003015832,新規,0,2022-12-05,2022-12-05,リカージョンジャパン合同会社,,合同会社,東京都,渋谷区,道玄坂１丁目１６－６二葉ビル８Ｂ,,13,113,1500043,,,,,,,2022-12-05,1,,,,,リカージョンジャパン,0
607,3011101101047,新規,0,2022-12-05,2022-12-05,株式会社ＮＥ,,株式会社,東京都,新宿区,大久保２丁目７番１号大久保フジビル３０４,,13,104,1690072,,,,,,,2022-12-05,1,,,,,エヌイー,0
608,3011101101055,新規,0,2022-12-05,2022-12-05,株式会社ティーズエージェンシーホールディングス,,株式会社,東京都,新宿区,西新宿６丁目２５番８－２００３号,,13,104,1600023,,,,,,,2022-12-05,1,,,,,ティーズエージェンシーホールディングス,0
609,3011105010483,新規,0,2022-12-05,2022-12-05,一般社団法人Ｖｅｒｎｏ　Ｍｅｄｉｃａｌ　Ｓｃｉｅｎｃｅ,,その他の設立登記法人,東京都,新宿区,信濃町３５番地慶應義塾大学医学部形成外科学教室内,,13,104,1600016,,,,,,,2022-12-05,1,,,,,ヴェルノメディカルサイエンス,0
617,3011603003765,新規,0,2022-12-05,2022-12-05,合同会社ＩＳＢホールディングス,,合同会社,東京都,練馬区,南大泉１丁目２２番８号,,13,120,1780064,,,,,,,2022-12-05,1,,,,,アイエスビーホールディングス,0
619,3011701025835,新規,0,2022-12-05,2022-12-05,株式会社Ｓａｌｕｓ,,株式会社,東京都,江戸川区,南小岩７丁目２７番１３号,,13,123,1330056,,,,,,,2022-12-05,1,,,,,サルース,0
620,3011703003319,新規,0,2022-12-05,2022-12-05,合同会社フォランド,,合同会社,東京都,江戸川区,中葛西８丁目９番９－２０４号,,13,123,1340083,,,,,,,2022-12-05,1,,,,,フォランド,0
623,3012301013222,新規,0,2022-12-05,2022-12-05,株式会社ｔｈｒｅｅ　ｉｎｎｏｖａｔｉｏｎｓ,,株式会社,東京都,町田市,森野１丁目１３番２２号,,13,209,1940022,,,,,,,2022-12-05,1,,,,,スリーイノベーションズ,0
643,3020001149286,新規,0,2022-12-05,2022-12-05,株式会社バリューアップデート,,株式会社,神奈川県,横浜市神奈川区,松見町２丁目５６９番地１,,14,102,2210005,,,,,,,2022-12-05,1,,,,,バリューアップデート,0
646,3020003022838,新規,0,2022-12-05,2022-12-05,合同会社ｍａｎｏ　ａ　ｍａｎｏ,,合同会社,神奈川県,横浜市神奈川区,羽沢町１３６１番地１,,14,102,2210863,,,,,,,2022-12-05,1,,,,,マノマノ,0
647,3020003022846,新規,0,2022-12-05,2022-12-05,合同会社Ｒａｖｅｎ,,合同会社,神奈川県,横浜市鶴見区,市場富士見町４－２ユナイト市場マハビールの杜２０１号室,,14,101,2300026,,,,,,,2022-12-05,1,,,,,レイヴン,0
654,3021003012424,新規,0,2022-12-05,2022-12-05,合同会社圭ラボ,,合同会社,神奈川県,横須賀市,湘南鷹取６丁目２３番２号,,14,201,2370066,,,,,,,2022-12-05,1,,,,,ケイラボ,0
655,3021003012440,新規,0,2022-12-05,2022-12-05,ケイ・ファーム合同会社,,合同会社,神奈川県,相模原市南区,西大沼１丁目２番３号,,14,153,2520332,,,,,,,2022-12-05,1,,,,,ケイファーム,0
656,3021003012465,新規,0,2022-12-05,2022-12-05,ｄｅａｒ　ｈｕｍａｎｓ合同会社,,合同会社,神奈川県,海老名市,門沢橋２丁目２３番地１２号１０２,,14,215,2430426,,,,,,,2022-12-05,1,,,,,ディアーヒューマンズ,0
662,3030001151340,新規,0,2022-12-05,2022-12-05,株式会社関東ビルド,,株式会社,埼玉県,さいたま市見沼区,春岡１丁目２２番地７,,11,104,3370008,,,,,,,2022-12-05,1,,,,,カントウビルド,0
664,3030003020650,新規,0,2022-12-05,2022-12-05,合同会社ＴＡＬＨＡ　ＩＮＴＥＲＮＡＴＩＯＮＡＬ,,合同会社,埼玉県,所沢市,西狭山ケ丘１丁目２４７５番地の７ベルフラット１－２０３号室,,11,208,3591163,,,,,,,2022-12-05,1,,,,,タルハインターナショナル,0
665,3030003020691,新規,0,2022-12-05,2022-12-05,アクシア合同会社,,合同会社,埼玉県,さいたま市緑区,大字代山８６２番地２,,11,109,3360975,,,,,,,2022-12-05,1,,,,,アクシア,0
670,3040001126077,新規,0,2022-12-05,2022-12-05,株式会社ｇｒａｎｄｉｒ,,株式会社,千葉県,船橋市,前原西２丁目１３番１５号津田沼ニイワラビル３階,,12,204,2740825,,,,,,,2022-12-05,1,,,,,グランディール,0
671,3040001126102,新規,0,2022-12-05,2022-12-05,株式会社ＡＣＳ,,株式会社,千葉県,茂原市,本納２８００番地,,12,210,2994114,,,,,,,2022-12-05,1,,,,,エイシーエス,0
675,3040003021375,新規,0,2022-12-05,2022-12-05,合同会社ＭＹＯカンパニー,,合同会社,千葉県,我孫子市,栄１１番１５号,,12,222,2701141,,,,,,,2022-12-05,1,,,,,エムワイオーカンパニー,0
684,3080001025325,新規,0,2022-12-05,2022-12-05,きずな動物病院株式会社,,株式会社,静岡県,藤枝市,青木２丁目１８番１２号,,22,214,4260037,,,,,,,2022-12-05,1,,,,,キズナドウブツビョウイン,0
688,3100001035924,新規,0,2022-12-05,2022-12-05,株式会社林幸,,株式会社,長野県,長野市,平林１丁目２９番２５号,,20,201,3810036,,,,,,,2022-12-05,1,,,,,リンコウ,0
689,3100001035932,新規,0,2022-12-05,2022-12-05,株式会社ｐｅｎｎａ,,株式会社,長野県,長野市,大字栗田１２４番地１,,20,201,3800921,,,,,,,2022-12-05,1,,,,,ペンナ,0
690,3100003006808,新規,0,2022-12-05,2022-12-05,合同会社Ａｒｔ．３１,,合同会社,長野県,諏訪郡原村,１７２１７番地４１９,,20,363,3910100,,,,,,,2022-12-05,1,,,,,アートサンジュウイチ,0
691,3110005016878,新規,0,2022-12-05,2022-12-05,新潟県板硝子商工協同組合,,その他の設立登記法人,新潟県,新潟市北区,島見町３３９９番地４４,,15,101,9503102,,,,,,,2022-12-05,1,,,,,ニイガタケンイタガラスショウコウ,0
703,3120001250471,新規,0,2022-12-05,2022-12-05,株式会社ＫＹＹ水産,,株式会社,大阪府,交野市,倉治８丁目１１番４号,,27,230,5760051,,,,,,,2022-12-05,1,,,,,ケイワイワイスイサン,0
704,3120001250703,新規,0,2022-12-05,2022-12-05,ＣＥＧＩ株式会社,,株式会社,大阪府,大阪市北区,角田町８番４７号阪急グランドビル２０階,,27,127,5300017,,,,,,,2022-12-05,1,,,,,シーイージーアイ,0
705,3120001250736,新規,0,2022-12-05,2022-12-05,株式会社ＳＫＹ　ＰＯＷＥＲ,,株式会社,大阪府,大阪市天王寺区,上汐４丁目４番２５－１１０３号,,27,109,5430002,,,,,,,2022-12-05,1,,,,,スカイパワー,0
706,3120001250777,新規,0,2022-12-05,2022-12-05,株式会社健電,,株式会社,大阪府,大阪市港区,市岡３丁目８番６号,,27,107,5520012,,,,,,,2022-12-05,1,,,,,ケンデン,0
707,3120001250785,新規,0,2022-12-05,2022-12-05,亀岡テクノ株式会社,,株式会社,大阪府,大阪市港区,波除５丁目８番１０号,,27,107,5520001,,,,,,,2022-12-05,1,,,,,カメオカテクノ,0
713,3120005023329,新規,0,2022-12-05,2022-12-05,一般社団法人グローバル企業研究所,,その他の設立登記法人,大阪府,大阪市北区,西天満２丁目６－８堂島ビルヂング２０４号,,27,127,5300047,,,,,,,2022-12-05,1,,,,,グローバルキギョウケンキュウショ,0
716,3120103004949,新規,0,2022-12-05,2022-12-05,合同会社ホースマンエデュケーション,,合同会社,大阪府,羽曳野市,河原城９９１番地,,27,222,5830867,,,,,,,2022-12-05,1,,,,,ホースマンエデュケーション,0
718,3120901046812,新規,0,2022-12-05,2022-12-05,株式会社ＵＩＳＣ,,株式会社,大阪府,池田市,城南３丁目９番１５－２０１号,,27,204,5630025,,,,,,,2022-12-05,1,,,,,ユーアイエスシー,0
723,3122003002462,新規,0,2022-12-05,2022-12-05,合同会社ＨａｚＰｒｏ,,合同会社,大阪府,東大阪市,六万寺町１丁目１０－１６,,27,227,5798061,,,,,,,2022-12-05,1,,,,,ハズプロ,0
727,3130001073211,新規,0,2022-12-05,2022-12-05,株式会社Ｆ‐ｗｏｒｋｓ,,株式会社,京都府,京都市北区,大北山原谷乾町１９番地１７１パラドール北山６０９,,26,101,6038487,,,,,,,2022-12-05,1,,,,,エフワークス,0
728,3130001073228,新規,0,2022-12-05,2022-12-05,株式会社あだち,,株式会社,京都府,京都市南区,四ツ塚町５８番地,,26,107,6018474,,,,,,,2022-12-05,1,,,,,アダチ,0
729,3130001073236,新規,0,2022-12-05,2022-12-05,株式会社ＬＩＮＯ　ＤＲＥＡＭ　ＷＯＲＫＳ,,株式会社,京都府,京都市中京区,壬生松原町５４番地１０４,,26,104,6048823,,,,,,,2022-12-05,1,,,,,リノドリームワークス,0
737,3140001128245,新規,0,2022-12-05,2022-12-05,真守商会株式会社,,株式会社,兵庫県,西宮市,山口町下山口４丁目７番２９号,,28,204,6511412,,,,,,,2022-12-05,1,,,,,マモルショウカイ,0
742,3140005026395,新規,0,2022-12-05,2022-12-05,まどか社会保険労務士法人,,その他の設立登記法人,兵庫県,尼崎市,南塚口町２丁目６番２７号,,28,202,6610012,,,,,,,2022-12-05,1,,,,,マドカ,0
746,3170001017395,新規,0,2022-12-05,2022-12-05,Ｆｏｒｅｓｔ株式会社,,株式会社,和歌山県,新宮市,王子町１丁目５番１０号,,30,207,6470032,,,,,,,2022-12-05,1,,,,,フォレスト,0
748,3170002011991,新規,0,2022-12-05,2022-12-05,有限会社北山木工所,,有限会社,和歌山県,和歌山市,小倉４３１番地,,30,201,6496261,,,,,,,2022-12-05,1,,,,,キタヤマモッコウショ,0
756,3180001154056,新規,0,2022-12-05,2022-12-05,テックアール株式会社,,株式会社,愛知県,名古屋市北区,辻町１丁目３２番地の１県営辻町住宅５街区２棟１０３号,,23,103,4620032,,,,,,,2022-12-05,1,,,,,テックアール,0
757,3180001154064,新規,0,2022-12-05,2022-12-05,株式会社四季桜,,株式会社,愛知県,名古屋市緑区,大高町字丸根６２番地,,23,114,4598001,,,,,,,2022-12-05,1,,,,,シキザクラ,0
758,3180001154080,新規,0,2022-12-05,2022-12-05,株式会社いずみ,,株式会社,愛知県,名古屋市中区,富士見町１３－１９,,23,106,4600014,,,,,,,2022-12-05,1,,,,,イズミ,0
759,3180001154097,新規,0,2022-12-05,2022-12-05,株式会社ナナイロ・エンタープライズ,,株式会社,愛知県,名古屋市中区,錦２丁目５番２４号,,23,106,4600003,,,,,,,2022-12-05,1,,,,,ナナイロエンタープライズ,0
762,3180005020015,新規,0,2022-12-05,2022-12-05,一般社団法人アンケン奨学会,,その他の設立登記法人,愛知県,名古屋市中区,新栄２丁目１番９号,,23,106,4600007,,,,,,,2022-12-05,1,,,,,アンケンショウガクカイ,0
763,3180301036879,新規,0,2022-12-05,2022-12-05,内田工業株式会社,,株式会社,愛知県,額田郡幸田町,大字菱池字農基２６番地３,,23,501,4440113,,,,,,,2022-12-05,1,,,,,ウチダコウギョウ,0
774,3220001025153,新規,0,2022-12-05,2022-12-05,アクアサポート株式会社,,株式会社,石川県,小松市,安宅新町ナ３５番地,,17,203,9230995,,,,,,,2022-12-05,1,,,,,アクアサポート,0
778,3240001060743,新規,0,2022-12-05,2022-12-05,プレインデンキ株式会社,,株式会社,広島県,広島市安佐南区,八木８丁目５番３０－３０１号,,34,105,7310101,,,,,,,2022-12-05,1,,,,,プレインデンキ,0
779,3240001060751,新規,0,2022-12-05,2022-12-05,株式会社ＷＡＮｓｔｏｒｙ,,株式会社,広島県,広島市南区,京橋町１－７アスティ広島京橋ビルディング,,34,103,7320828,,,,,,,2022-12-05,1,,,,,ワンストーリー,0
784,3240003005911,新規,0,2022-12-05,2022-12-05,合同会社ビルサポート西日本,,合同会社,広島県,安芸郡府中町,石井城２丁目１１番１０号,,34,302,7350007,,,,,,,2022-12-05,1,,,,,ビルサポートニシニホン,0
788,3260005011170,新規,0,2022-12-05,2022-12-05,医療法人社団五樟会,,その他の設立登記法人,岡山県,岡山市東区,西大寺中野９２８番地６,,33,103,7048191,,,,,,,2022-12-05,1,,,,,ゴショウカイ,0
793,3290001099785,新規,0,2022-12-05,2022-12-05,株式会社ＳＴＡＲＳ,,株式会社,福岡県,福岡市博多区,祇園町１番２０号,,40,132,8120038,,,,,,,2022-12-05,1,,,,,スターズ,0
795,3290005018865,新規,0,2022-12-05,2022-12-05,一般財団法人三吉発明商品化協会,00128672,その他の設立登記法人,福岡県,福岡市中央区,地行２丁目１０番３３号,,40,133,8100064,,,,,,,2022-12-05,1,,,,,ミヨシハツメイショウヒンカキョウカイ,0
796,3290801029090,新規,0,2022-12-05,2022-12-05,アンドウクラフトワークス株式会社,,株式会社,福岡県,田川郡香春町,大字柿下６４８－４,,40,601,8221404,,,,,,,2022-12-05,1,,,,,アンドウクラフトワークス,0
798,3310001018148,新規,0,2022-12-05,2022-12-05,株式会社Ａｍｕｌｅｔ,,株式会社,長崎県,長崎市,平野町１５番１１－３０８号,,42,201,8528117,,,,,,,2022-12-05,1,,,,,アミュレット,0
799,3330001030365,新規,0,2022-12-05,2022-12-05,株式会社原田,,株式会社,熊本県,宇土市,栄町１９４番地１,,43,211,8690453,,,,,,,2022-12-05,1,,,,,ハラダ,0
802,3340001025224,新規,0,2022-12-05,2022-12-05,株式会社大誠,,株式会社,鹿児島県,鹿児島市,桜ヶ丘６丁目５番地２５,,46,201,8910175,,,,,,,2022-12-05,1,,,,,タイセイ,0
806,3350001018061,新規,0,2022-12-05,2022-12-05,宮崎サンシャインズ株式会社,,株式会社,宮崎県,宮崎市,清武町正手１丁目８０番地１黒木貸家５号,,45,201,8891603,,,,,,,2022-12-05,1,,,,,ミヤザキサンシャインズ,0
808,3360001031278,新規,0,2022-12-05,2022-12-05,株式会社Ｅ．Ｙ　ＣＯＮ　ＴＥＣＨ,,株式会社,沖縄県,那覇市,字与儀３６４－１、２０３号,,47,201,9020076,,,,,,,2022-12-05,1,,,,,イーワイコンテック,0
812,3360003012540,新規,0,2022-12-05,2022-12-05,リスタ合同会社,,合同会社,沖縄県,那覇市,おもろまち４丁目７－１１－４０７号,,47,201,9000006,,,,,,,2022-12-05,1,,,,,リスタ,0
818,3380001033306,新規,0,2022-12-05,2022-12-05,株式会社ことのは,,株式会社,福島県,会津若松市,宮町１０番１号,,07,202,9650801,,,,,,,2022-12-05,1,,,,,コトノハ,0
820,3390001017092,新規,0,2022-12-05,2022-12-05,株式会社ジン・エンタープライズ,,株式会社,山形県,山形市,元木２丁目１３番２３号,,06,201,9902447,,,,,,,2022-12-05,1,,,,,ジンエンタープライズ,0
822,3400003002999,新規,0,2022-12-05,2022-12-05,合同会社Ｋ＆Ｆ,,合同会社,岩手県,九戸郡洋野町,大野第７地割１１番地９,,03,507,0288802,,,,,,,2022-12-05,1,,,,,ケイアンドエフ,0
824,3410001008923,新規,0,2022-12-05,2022-12-05,株式会社ヤマダイ石油,,株式会社,秋田県,横手市,前郷字外不瀬５番の１,,05,203,0130042,,,,,,,2022-12-05,1,,,,,ヤマダイセキユ,0
825,3410001013337,新規,0,2022-12-05,2022-12-05,レジリエンスケア秋田株式会社,,株式会社,秋田県,秋田市,金足小泉字潟向３９番地１,,05,201,0100116,,,,,,,2022-12-05,1,,,,,レジリエンスケアアキタ,0
831,3430003014513,新規,0,2022-12-05,2022-12-05,合同会社ＯｎｅＮｅｘｔ,,合同会社,北海道,札幌市中央区,南一条西２８丁目１番６号３０３,,01,101,0640801,,,,,,,2022-12-05,1,,,,,ワンネクスト,0
835,3490001010351,新規,0,2022-12-05,2022-12-05,株式会社ＳＨＩＮアシスト,,株式会社,高知県,土佐市,高岡町乙８７５番地２２,,39,205,7811102,,,,,,,2022-12-05,1,,,,,シンアシスト,0
839,3700150113247,新規,0,2022-12-05,2022-12-05,Ｉｎｉｇｏ　Ｃｏｒｐｏｒａｔｅ　Ｍｅｍｂｅｒ　Ｌｉｍｉｔｅｄ,,外国会社等,東京都,千代田区,霞が関３丁目２－６東京倶楽部ビルディング６階　ロイズジャパン株式会社内,,13,101,1000013,Ｏｎｅ　Ｌｉｍｅ　Ｓｔｒｅｅｔ　Ｌｏｎｄｏｎ　ＥＣ３Ｍ　７ＨＡ　ＵＫ,,,,,,2022-12-05,1,,,,,イニゴコーポレートメンバーリミテツド,0
844,4010001231226,新規,0,2022-12-05,2022-12-05,株式会社とあるライフ,,株式会社,東京都,中央区,日本橋兜町１７番２号,,13,102,1030026,,,,,,,2022-12-05,1,,,,,トアルライフ,0
845,4010001231242,新規,0,2022-12-05,2022-12-05,株式会社アース,,株式会社,東京都,中央区,日本橋２丁目１６番３号,,13,102,1030027,,,,,,,2022-12-05,1,,,,,アース,0
846,4010001231259,新規,0,2022-12-05,2022-12-05,株式会社ＳＴＯＣＫ１１０,,株式会社,東京都,千代田区,永田町２丁目１２番４号,,13,101,1000014,,,,,,,2022-12-05,1,,,,,ストックヒャクジュウ,0
847,4010001231283,新規,0,2022-12-05,2022-12-05,株式会社ＢｉＳＵＳ,,株式会社,東京都,千代田区,平河町２丁目７番５号,,13,101,1020093,,,,,,,2022-12-05,1,,,,,ビーサス,0
848,4010001231300,新規,0,2022-12-05,2022-12-05,株式会社ＡＡＩ０６,,株式会社,東京都,中央区,日本橋２丁目１番１８号,,13,102,1030027,,,,,,,2022-12-05,1,,,,,エーエーアイゼロロク,0
849,4010001231309,新規,0,2022-12-05,2022-12-05,株式会社ＡＡＩ１５,,株式会社,東京都,中央区,日本橋２丁目１番１８号,,13,102,1030027,,,,,,,2022-12-05,1,,,,,エーエーアイイチゴ,0
850,4010001231317,新規,0,2022-12-05,2022-12-05,株式会社野村国際商貿,,株式会社,東京都,千代田区,東神田２丁目８番３号Ｐｓビル４Ｆ,,13,101,1010031,,,,,,,2022-12-05,1,,,,,ノムラコクサイショウボウ,0
851,4010003039196,新規,0,2022-12-05,2022-12-05,合同会社ｉｎｖｅｎｔｉｏｎ,,合同会社,東京都,中央区,銀座１丁目１２番４号Ｎ＆ＥＢＬＤ．６Ｆ,,13,102,1040061,,,,,,,2022-12-05,1,,,,,インベンション,0
854,4010005035870,新規,0,2022-12-05,2022-12-05,ナンキョク２一般社団法人,,その他の設立登記法人,東京都,千代田区,丸の内３丁目１番１号東京共同会計事務所内,,13,101,1000005,,,,,,,2022-12-05,1,,,,,ナンキョクツー,0
862,4010401171071,新規,0,2022-12-05,2022-12-05,株式会社Ａｙｅ,,株式会社,東京都,港区,赤坂８丁目１２番１６号ＮＯＺＹ赤坂５０１,,13,103,1070052,,,,,,,2022-12-05,1,,,,,アイ,0
863,4010401171121,新規,0,2022-12-05,2022-12-05,千代田工建ＨＤ株式会社,,株式会社,東京都,港区,新橋５丁目１４番４号,,13,103,1050004,,,,,,,2022-12-05,1,,,,,チヨダコウケンエイチディー,0
864,4010401171179,新規,0,2022-12-05,2022-12-05,９１９ＬＡＮＤ株式会社,,株式会社,東京都,港区,新橋１丁目１６番９号,,13,103,1050004,,,,,,,2022-12-05,1,,,,,クイックランド,0
868,4010405021652,新規,0,2022-12-05,2022-12-05,宇治田原ファシリティ２一般社団法人,,その他の設立登記法人,東京都,港区,六本木１丁目６番１号泉ガーデンタワー,,13,103,1060032,,,,,,,2022-12-05,1,,,,,ウジタワラファシリティツー,0
871,4010501049705,新規,0,2022-12-05,2022-12-05,株式会社ＥＰＣ,,株式会社,東京都,台東区,千束１丁目２番９－１１０１号,,13,106,1110031,,,,,,,2022-12-05,1,,,,,エプシー,0
876,4010701043557,新規,0,2022-12-05,2022-12-05,株式会社ＥＭＯＴＩＯＮ　ＬＩＦＥ,,株式会社,東京都,品川区,大崎３丁目１番５号ルミネ五反田第２・２０２号室,,13,109,1410032,,,,,,,2022-12-05,1,,,,,エモーションライフ,0
877,4010701043565,新規,0,2022-12-05,2022-12-05,株式会社Ｅｓ．ｔｒｕｓｔ,,株式会社,東京都,品川区,西大井５丁目４番１９号,,13,109,1400015,,,,,,,2022-12-05,1,,,,,エストラスト,0
879,4010903007822,新規,0,2022-12-05,2022-12-05,合同会社Ｐｏｌａｒｉｓ,,合同会社,東京都,世田谷区,八幡山２丁目４番９号,,13,112,1560056,,,,,,,2022-12-05,1,,,,,ポラリス,0
882,4011001151265,新規,0,2022-12-05,2022-12-05,株式会社ｊ＆ｅ,,株式会社,東京都,渋谷区,神南１丁目２０番１６号,,13,113,1500041,,,,,,,2022-12-05,1,,,,,ジェイアンドイー,0
886,4011101101046,新規,0,2022-12-05,2022-12-05,株式会社Ｌ’ＡＲＣＨＥＳＴＥ,,株式会社,東京都,新宿区,神楽坂３丁目６番地５３とぎやレジデンス２Ｆ,,13,104,1620825,,,,,,,2022-12-05,1,,,,,ラルケスト,0
887,4011101101062,新規,0,2022-12-05,2022-12-05,ＢＡＳＥＤ　ＤＥＳＩＧＮ株式会社,,株式会社,東京都,新宿区,西新宿３丁目３番１３号西新宿水間ビル２Ｆ,,13,104,1600023,,,,,,,2022-12-05,1,,,,,ベイスドデザイン,0
888,4011103012456,新規,0,2022-12-05,2022-12-05,合同会社エルムンド,,合同会社,東京都,新宿区,西新宿３丁目３番１３号西新宿水間ビル６階,,13,104,1600023,,,,,,,2022-12-05,1,,,,,エルムンド,0
891,4011501028723,新規,0,2022-12-05,2022-12-05,シロクマ株式会社,,株式会社,東京都,北区,浮間１丁目１番１４号リムジンビル３３８号室,,13,117,1150051,,,,,,,2022-12-05,1,,,,,シロクマ,0
893,4011601026412,新規,0,2022-12-05,2022-12-05,株式会社ｂｌｏｏｍ,,株式会社,東京都,練馬区,豊玉南３丁目３２番３８号,,13,120,1760014,,,,,,,2022-12-05,1,,,,,ブルーム,0
894,4011603003764,新規,0,2022-12-05,2022-12-05,合同会社リーバル,,合同会社,東京都,練馬区,大泉学園町５丁目３２番１３号,,13,120,1780061,,,,,,,2022-12-05,1,,,,,リーバル,0
896,4011703003318,新規,0,2022-12-05,2022-12-05,合同会社Ｋｕｎｐｕｕ,,合同会社,東京都,江戸川区,西小岩３丁目３８番１３－６１０号,,13,123,1330057,,,,,,,2022-12-05,1,,,,,クンプウ,0
897,4011803005370,新規,0,2022-12-05,2022-12-05,合同会社ＬＵＫＥ,,合同会社,東京都,足立区,梅田５丁目１８‐４,,13,121,1230851,,,,,,,2022-12-05,1,,,,,ルーク,0
902,4013305003415,新規,0,2022-12-05,2022-12-05,一般財団法人榎本種苗歴史文化財団,,その他の設立登記法人,東京都,豊島区,西巣鴨３丁目１９番２号,,13,116,1700001,,,,,,,2022-12-05,1,,,,,エノモトシュビョウレキシブンカザイダン,0
910,4021001077600,新規,0,2022-12-05,2022-12-05,株式会社マシプラ,,株式会社,神奈川県,愛甲郡愛川町,中津１０３８番地の１３,,14,401,2430303,,,,,,,2022-12-05,1,,,,,マシプラ,0
912,4021003012464,新規,0,2022-12-05,2022-12-05,合同会社タックイン,,合同会社,神奈川県,横須賀市,岩戸５丁目１９番１１号,,14,201,2390844,,,,,,,2022-12-05,1,,,,,タックイン,0
913,4021005012677,新規,0,2022-12-05,2022-12-05,医療法人社団大成会,,その他の設立登記法人,神奈川県,伊勢原市,東大竹１１０８番地の５,,14,214,2591133,,,,,,,2022-12-05,1,,,,,タイセイカイ,0
920,4030001151307,新規,0,2022-12-05,2022-12-05,株式会社ＴＷＣ,,株式会社,埼玉県,飯能市,大字阿須５００番地１,,11,209,3570046,,,,,,,2022-12-05,1,,,,,ティーダブリューシー,0
921,4030001151331,新規,0,2022-12-05,2022-12-05,株式会社Ｒ＆Ｒ,,株式会社,埼玉県,さいたま市南区,四谷１丁目１番５－５０７号,,11,108,3360032,,,,,,,2022-12-05,1,,,,,アールアンドアール,0
922,4030001151356,新規,0,2022-12-05,2022-12-05,株式会社翔栄電設,,株式会社,埼玉県,川口市,大字安行吉蔵５番地の１８,,11,203,3340053,,,,,,,2022-12-05,1,,,,,ショウエイデンセツ,0
925,4030003020690,新規,0,2022-12-05,2022-12-05,合同会社ＫＵ‐ＮＥＲＵ,,合同会社,埼玉県,さいたま市浦和区,東高砂町９番２０号,,11,107,3300055,,,,,,,2022-12-05,1,,,,,クウネル,0
929,4040001126076,新規,0,2022-12-05,2022-12-05,株式会社庄司生コン,,株式会社,千葉県,南房総市,和田町松田８番地１,,12,234,2992713,,,,,,,2022-12-05,1,,,,,ショウジナマコン,0
930,4040001126084,新規,0,2022-12-05,2022-12-05,株式会社馬車馬,,株式会社,千葉県,市川市,本行徳２２－７,,12,203,2720103,,,,,,,2022-12-05,1,,,,,バシャウマ,0
931,4040001126092,新規,0,2022-12-05,2022-12-05,株式会社電太郎,,株式会社,千葉県,千葉市中央区,赤井町７５７番地３０,,12,101,2600804,,,,,,,2022-12-05,1,,,,,デンタロウ,0
934,4040003021390,新規,0,2022-12-05,2022-12-05,合同会社ＢＲＩＬＬＥＲ,,合同会社,千葉県,千葉市緑区,誉田町２丁目２番地５０２,,12,105,2660005,,,,,,,2022-12-05,1,,,,,ブリエ,0
937,4050001052032,新規,0,2022-12-05,2022-12-05,ＨＡＭＤＡＮ　ＴＲＡＤＩＮＧ株式会社,,株式会社,茨城県,坂東市,岩井４４０８番地１ベルハイムＩＩ―１０７号,00128670,08,228,3060631,,,,,,,2022-12-05,1,,,,,ハムダントレーディング,0
938,4060001035507,新規,0,2022-12-05,2022-12-05,株式会社小鳩,,株式会社,栃木県,宇都宮市,西川田町４８２番地１１０,,09,201,3210151,,,,,,,2022-12-05,1,,,,,コバト,0
953,4100001035915,新規,0,2022-12-05,2022-12-05,株式会社シューマンズハウスジャパン,,株式会社,長野県,北佐久郡軽井沢町,大字追分１３７２番地６,,20,321,3890115,,,,,,,2022-12-05,1,,,,,シューマンズハウスジャパン,0
958,4110001037159,新規,0,2022-12-05,2022-12-05,株式会社小林電装,,株式会社,新潟県,南蒲原郡田上町,大字湯川１４９４番地８,,15,361,9591501,,,,,,,2022-12-05,1,,,,,コバヤシデンソウ,0
980,4120001250685,新規,0,2022-12-05,2022-12-05,株式会社Ｔｒｏｉｓ　Ｆｌｅｃｈｅｓ,,株式会社,大阪府,大阪市西淀川区,御幣島４丁目１９番１１１号,,27,113,5550012,,,,,,,2022-12-05,1,,,,,トロワフレーシュ,0
981,4120001250727,新規,0,2022-12-05,2022-12-05,株式会社ＭＩＮＹＯＵＮＧ,,株式会社,大阪府,大阪市天王寺区,生玉前町２番２２－１２０３号,,27,109,5430072,,,,,,,2022-12-05,1,,,,,ミニョン,0
985,4120103004948,新規,0,2022-12-05,2022-12-05,合同会社ガーデンストーンオーク,,合同会社,大阪府,河内長野市,小塩町６０２番地の１４,,27,216,5860035,,,,,,,2022-12-05,1,,,,,ガーデンストーンオーク,0
987,4120105009648,新規,0,2022-12-05,2022-12-05,一般社団法人五家の会,,その他の設立登記法人,大阪府,羽曳野市,羽曳が丘４丁目１８番３号,,27,222,5830864,,,,,,,2022-12-05,1,,,,,ゴケノカイ,0
988,4120901046811,新規,0,2022-12-05,2022-12-05,株式会社ＭＫＳｓｔｙｌｅ,,株式会社,大阪府,茨木市,東福井１丁目１２番１３号,,27,211,5670062,,,,,,,2022-12-05,1,,,,,エムケーエススタイル,0
990,4120903004404,新規,0,2022-12-05,2022-12-05,合同会社ＹａｎｄＡ,,合同会社,大阪府,茨木市,真砂玉島台６－１６,,27,211,5670850,,,,,,,2022-12-05,1,,,,,ワイアンドエー,0
994,4130001073243,新規,0,2022-12-05,2022-12-05,ＨＡＮＧＡＷＡ　ＩＮＴＥＲＮＡＴＩＯＮＡＬ株式会社,,株式会社,京都府,京都市伏見区,向島二ノ丸町４番地１４,,26,109,6128141,,,,,,,2022-12-05,1,,,,,ハンガワインターナショナル,0
1003,4140001128236,新規,0,2022-12-05,2022-12-05,株式会社ベルン,,株式会社,兵庫県,西宮市,両度町３番１－４１６号,,28,204,6620841,,,,,,,2022-12-05,1,,,,,ベルン,0
1004,4140001128285,新規,0,2022-12-05,2022-12-05,株式会社ＮａＶＹ,,株式会社,兵庫県,明石市,大蔵中町２４－９－６０６,,28,203,6730873,,,,,,,2022-12-05,1,,,,,ネイビイ,0
1005,4140001128293,新規,0,2022-12-05,2022-12-05,Ｄｒｅａｍ　Ａｇｅｎｔ株式会社,,株式会社,兵庫県,三木市,志染町西自由が丘１丁目３８６番地,,28,215,6730551,,,,,,,2022-12-05,1,,,,,ドリームエージェント,0
1006,4140003018427,新規,0,2022-12-05,2022-12-05,合同会社ｌｉｂ,,合同会社,兵庫県,神戸市垂水区,塩屋町１丁目５番１１号１０１,,28,108,6550872,,,,,,,2022-12-05,1,,,,,リブ,0
1007,4140003018435,新規,0,2022-12-05,2022-12-05,合同会社ディライト,,合同会社,兵庫県,姫路市,城見台３丁目９番地１６,,28,201,6700803,,,,,,,2022-12-05,1,,,,,ディライト,0
1018,4160001024680,新規,0,2022-12-05,2022-12-05,株式会社滋賀帝産ホールディングス,,株式会社,滋賀県,草津市,山寺町１８８番地,,25,206,5250042,,,,,,,2022-12-05,1,,,,,シガテイサンホールディングス,0
1033,4180001154039,新規,0,2022-12-05,2022-12-05,天の川宇宙株式会社,,株式会社,愛知県,江南市,高屋町八幡２９番地１,,23,217,4838063,,,,,,,2022-12-05,1,,,,,アマノガワウチュウ,0
1034,4180001154063,新規,0,2022-12-05,2022-12-05,株式会社ｉＮａｈｏ,,株式会社,愛知県,海部郡蟹江町,桜３丁目６０２番地,,23,425,4970038,,,,,,,2022-12-05,1,,,,,イナホ,0
1036,4180003024561,新規,0,2022-12-05,2022-12-05,ＫＲＭ建設合同会社,,合同会社,愛知県,小牧市,大字大草字年上坂５９９６番地１５,,23,219,4850802,,,,,,,2022-12-05,1,,,,,ケーアールエムケンセツ,0
1045,4200001040723,新規,0,2022-12-05,2022-12-05,株式会社ロジカ,,株式会社,岐阜県,高山市,一之宮町３５３１番地１,,21,203,5093505,,,,,,,2022-12-05,1,,,,,ロジカ,0
1046,4200001040731,新規,0,2022-12-05,2022-12-05,Ｋ＆Ａテクノス株式会社,,株式会社,岐阜県,羽島郡岐南町,石原瀬１丁目４０番地の４,,21,302,5016015,,,,,,,2022-12-05,1,,,,,ケイアンドエイテクノス,0
1049,4220001025152,新規,0,2022-12-05,2022-12-05,株式会社ライフウッド,,株式会社,石川県,加賀市,山代温泉幸町７３番地,,17,206,9220255,,,,,,,2022-12-05,1,,,,,ライフウッド,0
1051,4230001019624,新規,0,2022-12-05,2022-12-05,株式会社タケガマ産業,,株式会社,富山県,富山市,辰尾２７１番地６,,16,201,9398172,,,,,,,2022-12-05,1,,,,,タケガマサンギョウ,0
1068,4290001099784,新規,0,2022-12-05,2022-12-05,株式会社Ｐａｇｅ　Ｃｏｎｎｅｃｔ,,株式会社,福岡県,福岡市中央区,高砂１丁目７番２４号１Ｆ,,40,133,8100011,,,,,,,2022-12-05,1,,,,,ページコネクト,0
1071,4290003013272,新規,0,2022-12-05,2022-12-05,Ｓｃｈｉｆｆ　Ｆａｍｉｌｙ　Ｏｆｆｉｃｅ合同会社,,合同会社,福岡県,福岡市中央区,舞鶴２丁目２番３号８Ｆ,,40,133,8100073,,,,,,,2022-12-05,1,,,,,シフファミリーオフィス,0
1077,4290803004280,新規,0,2022-12-05,2022-12-05,合同会社Ｔｈｉｍ,,合同会社,福岡県,北九州市八幡西区,大字本城２９４９番地１,,40,109,8070801,,,,,,,2022-12-05,1,,,,,ティム,0
1081,4330001030356,新規,0,2022-12-05,2022-12-05,株式会社クロミキ,,株式会社,熊本県,熊本市中央区,大江４丁目７番１０－１号,,43,101,8620971,,,,,,,2022-12-05,1,,,,,クロミキ,0
1089,4360001031277,新規,0,2022-12-05,2022-12-05,ロイヤルハウス株式会社,,株式会社,沖縄県,名護市,字為又１２２０番地７－２ロイヤルテラス１０７号室,,47,209,9050005,,,,,,,2022-12-05,1,,,,,ロイヤルハウス,0
1091,4360003012515,新規,0,2022-12-05,2022-12-05,合同会社ＩｔｕｍｏＹｏ,,合同会社,沖縄県,島尻郡南風原町,字宮平１２２番地ＬａＡｉｒｙ２０２,,47,350,9011104,,,,,,,2022-12-05,1,,,,,イツモヨ,0
1094,4370001049343,新規,0,2022-12-05,2022-12-05,株式会社リグレ,,株式会社,宮城県,仙台市青葉区,郷六字久保５３番地の３,,04,101,9893121,,,,,,,2022-12-05,1,,,,,リグレ,0
1095,4370005010565,新規,0,2022-12-05,2022-12-05,医療法人敬秀会,,その他の設立登記法人,宮城県,宮城郡利府町,中央２丁目７番地７,,04,406,9810104,,,,,,,2022-12-05,1,,,,,ケイシュウカイ,0
1098,4380001033305,新規,0,2022-12-05,2022-12-05,株式会社関跡のおいしいお米,,株式会社,福島県,白河市,旗宿茂ヶ崎１３番地,,07,205,9610038,,,,,,,2022-12-05,1,,,,,セキアトノオイシイオコメ,0
1105,4410001013336,新規,0,2022-12-05,2022-12-05,株式会社ＳＨＯＣＨＡＮＧ,,株式会社,秋田県,秋田市,大町５丁目２－７,,05,201,0100921,,,,,,,2022-12-05,1,,,,,,0
1111,4430001087972,新規,0,2022-12-05,2022-12-05,クウカン株式会社,,株式会社,北海道,札幌市豊平区,豊平四条３丁目１番１号,,01,105,0620904,,,,,,,2022-12-05,1,,,,,クウカン,0
1117,4450001013844,新規,0,2022-12-05,2022-12-05,株式会社トマムプロパティ,,株式会社,北海道,勇払郡占冠村,字中トマム２１７１番地２,,01,463,0792204,,,,,,,2022-12-05,1,,,,,トマムプロパティ,0
1118,4450001013852,新規,0,2022-12-05,2022-12-05,株式会社テラス不動産,,株式会社,北海道,旭川市,豊岡九条４丁目２番５号,,01,204,0788239,,,,,,,2022-12-05,1,,,,,テラスフドウサン,0
1119,4460301005111,新規,0,2022-12-05,2022-12-05,株式会社エクセルパートナー,,株式会社,北海道,紋別郡遠軽町,若咲内１３１番地,,01,555,0990346,,,,,,,2022-12-05,1,,,,,エクセルパートナー,0
1124,4480005006932,新規,0,2022-12-05,2022-12-05,税理士法人ビアンサ,,その他の設立登記法人,徳島県,徳島市,佐古四番町４番１９号,,36,201,7700024,,,,,,,2022-12-05,1,,,,,ビアンサ,0
1125,4490001010350,新規,0,2022-12-05,2022-12-05,株式会社金子漢方,,株式会社,高知県,高知市,桜井町１丁目５番３３号ペトリコール２,,39,201,7800821,,,,,,,2022-12-05,1,,,,,,0
1134,4500005008538,新規,0,2022-12-05,2022-12-05,医療法人遍会,,その他の設立登記法人,愛媛県,東温市,北野田８２０番地１,,38,215,7910215,,,,,,,2022-12-05,1,,,,,アマネカイ,0
1136,4700150113246,新規,0,2022-12-05,2022-12-05,Ｄａｍａｖａｎｄ　ＬＬＰ,,外国会社等,東京都,千代田区,霞が関３丁目２－６東京倶楽部ビルディング６階　ロイズジャパン株式会社内,,13,101,1000013,Ｏｎｅ　Ｌｉｍｅ　Ｓｔｒｅｅｔ　Ｌｏｎｄｏｎ　ＥＣ３Ｍ　７ＨＡ　ＵＫ,,,,,,2022-12-05,1,,,,,ダマバンドエルエルピー,0
1143,5010001231290,新規,0,2022-12-05,2022-12-05,ＪＰＴトレーディング株式会社,,株式会社,東京都,千代田区,神田美土代町９番地１,,13,101,1010053,,,,,,,2022-12-05,1,,,,,ジェイピーティートレーディング,0
1144,5010001231299,新規,0,2022-12-05,2022-12-05,株式会社ＡＡＩ０５,,株式会社,東京都,中央区,日本橋２丁目１番１８号,,13,102,1030027,,,,,,,2022-12-05,1,,,,,エーエーアイゼロゴ,0
1145,5010001231308,新規,0,2022-12-05,2022-12-05,株式会社ＡＡＩ１４,,株式会社,東京都,中央区,日本橋２丁目１番１８号,,13,102,1030027,,,,,,,2022-12-05,1,,,,,エーエーアイイチヨン,0
1147,5010003039195,新規,0,2022-12-05,2022-12-05,Ｓａｌｔｏ　Ｓｙｓｔｅｍｓ合同会社,,合同会社,東京都,中央区,日本橋３丁目９番１号日本橋三丁目スクエア１１階,,13,102,1030027,,,,,,,2022-12-05,1,,,,,サルトシステムズ,0
1150,5010005035861,新規,0,2022-12-05,2022-12-05,一般社団法人インパクトスタートアップ協会,,その他の設立登記法人,東京都,千代田区,一番町８住友不動産一番町ビル７階,,13,101,1020082,,,,,,,2022-12-05,1,,,,,インパクトスタートアップキョウカイ,0
1157,5010401171104,新規,0,2022-12-05,2022-12-05,アパレルＡＩファンド株式会社,,株式会社,東京都,港区,六本木７丁目３番１２号六本木インターナショナルビル６Ｆ,,13,103,1060032,,,,,,,2022-12-05,1,,,,,アパレルエーアイファンド,0
1158,5010401171120,新規,0,2022-12-05,2022-12-05,株式会社森口石材,,株式会社,東京都,港区,西麻布１丁目１５番４号,,13,103,1060031,,,,,,,2022-12-05,1,,,,,,0
1159,5010401171129,新規,0,2022-12-05,2022-12-05,サンマネジメント株式会社,,株式会社,東京都,港区,浜松町２丁目２番１５号,,13,103,1050013,,,,,,,2022-12-05,1,,,,,サンマネジメント,0
1160,5010401171137,新規,0,2022-12-05,2022-12-05,株式会社Ａｋｕａ　Ｊａｐａｎ,,株式会社,東京都,港区,南青山２丁目１２－１５南青山２丁目ビル３Ｆ,,13,103,1070062,,,,,,,2022-12-05,1,,,,,アクアジャパン,0
1162,5010403029069,新規,0,2022-12-05,2022-12-05,ＣＦＧＳ合同会社,,合同会社,東京都,港区,高輪１丁目８‐１１,,13,103,1080074,,,,,,,2022-12-05,1,,,,,シーエフジーエス,0
1165,5010405021627,新規,0,2022-12-05,2022-12-05,一般社団法人Ｍｅｄｉｃａｌ　Ｗｅｌｌｎｅｓｓ　Ａｓｓｏｃｉａｔｅｓ,,その他の設立登記法人,東京都,港区,新橋１丁目８番４号丸忠ビル７階Ｂ号室,,13,103,1050004,,,,,,,2022-12-05,1,,,,,メディカルウェルネスアソシエイツ,0
1168,5010501049712,新規,0,2022-12-05,2022-12-05,日本海山商事株式会社,,株式会社,東京都,台東区,東上野３丁目１７番９号,,13,106,1100015,,,,,,,2022-12-05,1,,,,,ニホンカイザンショウジ,0
1169,5010503006802,新規,0,2022-12-05,2022-12-05,元騰合同会社,,合同会社,東京都,台東区,上野６丁目７番１６号川久保ビル７０３号,,13,106,1100005,,,,,,,2022-12-05,1,,,,,ガンドウ,0
1176,5010801033481,新規,0,2022-12-05,2022-12-05,株式会社欧周コネクト,,株式会社,東京都,大田区,京浜島２丁目８番４号,,13,111,1430003,,,,,,,2022-12-05,1,,,,,オウシュウコネクト,0
1178,5010901052092,新規,0,2022-12-05,2022-12-05,株式会社エスエスアール,,株式会社,東京都,世田谷区,深沢６丁目２７番１２号,,13,112,1580081,,,,,,,2022-12-05,1,,,,,エスエスアール,0
1186,5011001151272,新規,0,2022-12-05,2022-12-05,株式会社ＱＲＥＡＴＩＯＮ,,株式会社,東京都,渋谷区,恵比寿１丁目１９番１９号恵比寿ビジネスタワー,,13,113,1500013,,,,,,,2022-12-05,1,,,,,キュリエーション,0
1188,5011005009847,新規,0,2022-12-05,2022-12-05,一般社団法人日本リファインメタル協会,,その他の設立登記法人,東京都,渋谷区,富ヶ谷２丁目２９番５号グランドメゾン代々木上原３０１,,13,113,1510063,,,,,,,2022-12-05,1,,,,,ニホンリファインメタルキョウカイ,0
1192,5011101101045,新規,0,2022-12-05,2022-12-05,株式会社サイバーグループマネジメント,,株式会社,東京都,新宿区,高田馬場３丁目２３番３号,,13,104,1690075,,,,,,,2022-12-05,1,,,,,サイバーグループマネジメント,0
1195,5011103012455,新規,0,2022-12-05,2022-12-05,ＣＨＣ合同会社,,合同会社,東京都,新宿区,新宿２丁目１２番１３号新宿アントレサロンビル２階,,13,104,1600022,,,,,,,2022-12-05,1,,,,,シーエイチシー,0
1199,5011601026411,新規,0,2022-12-05,2022-12-05,桜木株式会社,,株式会社,東京都,練馬区,桜台１丁目７番７－４２２号,,13,120,1760002,,,,,,,2022-12-05,1,,,,,サクラギ,0
1203,5012301013229,新規,0,2022-12-05,2022-12-05,株式会社かいと,,株式会社,東京都,町田市,常盤町３２２５番地２,,13,209,1940213,,,,,,,2022-12-05,1,,,,,カイト,0
1204,5012701017382,新規,0,2022-12-05,2022-12-05,ＮＦＵ株式会社,,株式会社,東京都,東久留米市,柳窪１丁目７番１１号,,13,222,2030044,,,,,,,2022-12-05,1,,,,,エヌエフユー,0
1207,5013301049997,新規,0,2022-12-05,2022-12-05,海星ジャパン株式会社,,株式会社,東京都,豊島区,北大塚２丁目２－１３大塚シャトレー・トーコー３０７号室,,13,116,1700004,,,,,,,2022-12-05,1,,,,,カイセイジャパン,0
1210,5020001149227,新規,0,2022-12-05,2022-12-05,株式会社不動産ＣｏｌｌｅｃｔｉｏＮ,,株式会社,神奈川県,横浜市鶴見区,鶴見中央３丁目１１番４－２０６号,,14,101,2300051,,,,,,,2022-12-05,1,,,,,フドウサンコレクション,0
1212,5020005015747,新規,0,2022-12-05,2022-12-05,ＮＰＯ法人学舎こころ星,,その他の設立登記法人,神奈川県,横浜市保土ケ谷区,和田２丁目４番１９号,,14,106,2400065,,,,,,,2022-12-05,1,,,,,マナビヤココロボシ,0
1216,5021001077608,新規,0,2022-12-05,2022-12-05,鎌倉和工房株式会社,,株式会社,神奈川県,鎌倉市,西鎌倉１丁目１８番４号,,14,204,2480035,,,,,,,2022-12-05,1,,,,,カマクラナゴミコウボウ,0
1217,5021001077616,新規,0,2022-12-05,2022-12-05,株式会社眞工業,,株式会社,神奈川県,横須賀市,根岸町４丁目１９番２０号,,14,201,2390807,,,,,,,2022-12-05,1,,,,,シンコウギョウ,0
1218,5021001077632,新規,0,2022-12-05,2022-12-05,ＳＴＹＬＥ株式会社,,株式会社,神奈川県,厚木市,旭町１丁目１番１号,,14,212,2430014,,,,,,,2022-12-05,1,,,,,スタイル,0
1230,5030001151306,新規,0,2022-12-05,2022-12-05,ゴルト・ブルネン株式会社,,株式会社,埼玉県,熊谷市,大字原島１１８５番地１,,11,202,3600000,,,,,,,2022-12-05,1,,,,,ゴルトブルネン,0
1234,5040001126001,新規,0,2022-12-05,2022-12-05,信龍株式会社,,株式会社,千葉県,柏市,南柏１丁目２－７プラザビル４０６,,12,217,2770855,,,,,,,2022-12-05,1,,,,,ノブリュウ,0
1235,5040001126075,新規,0,2022-12-05,2022-12-05,株式会社蘇生,,株式会社,千葉県,市原市,八幡２０８５番地５８,,12,219,2900062,,,,,,,2022-12-05,1,,,,,ソセイ,0
1236,5040001126091,新規,0,2022-12-05,2022-12-05,株式会社ｆｉｒｓｔ,,株式会社,千葉県,市川市,南大野３丁目２４番１２－８０８号,,12,203,2720804,,,,,,,2022-12-05,1,,,,,ファースト,0
1238,5050001052031,新規,0,2022-12-05,2022-12-05,ＬＡＬＡ　ＴＲＡＤＩＮＧ株式会社,,株式会社,茨城県,古河市,静町７－３,,08,204,3060001,,,,,,,2022-12-05,1,,,,,ララトレーディング,0
1243,5060001035506,新規,0,2022-12-05,2022-12-05,株式会社Ｌｉｆｅ　ｏｎ　Ｓｕｒｆ,,株式会社,栃木県,栃木市,大塚町３３０番地７,,09,203,3280007,,,,,,,2022-12-05,1,,,,,ライフオンサーフ,0
1244,5060003004327,新規,0,2022-12-05,2022-12-05,合同会社ＴｏｎａＲｉｎｏ,,合同会社,栃木県,真岡市,東大島６０６番地２,,09,209,3214322,,,,,,,2022-12-05,1,,,,,トナリノ,0
1246,5070001039885,新規,0,2022-12-05,2022-12-05,タイフォン株式会社,,株式会社,群馬県,伊勢崎市,美茂呂町３２７７番地１０,,10,204,3720037,,,,,,,2022-12-05,1,,,,,タイフォン,0
1253,5100001035922,新規,0,2022-12-05,2022-12-05,株式会社Ｎｌｉｌｙ,,株式会社,長野県,飯田市,小伝馬町２丁目３４８８番地１１,,20,205,3950013,,,,,,,2022-12-05,1,,,,,エヌリリー,0
1257,5100003006806,新規,0,2022-12-05,2022-12-05,合同会社ＡＧＥＭＡＴＳＵ　ＬＩＶＩＮＧ　Ｌａｂｏｒａｔｏｒｙ,,合同会社,長野県,木曽郡上松町,本町通り４丁目２０番地,,20,422,3995602,,,,,,,2022-12-05,1,,,,,アゲマツリビングラボラトリー,0
1268,5120001250742,新規,0,2022-12-05,2022-12-05,株式会社プレアデスコンストラクション,,株式会社,大阪府,大阪市北区,芝田２丁目８番１１号共栄ビル３階,,27,127,5300012,,,,,,,2022-12-05,1,,,,,プレアデスコンストラクション,0
1269,5120001250750,新規,0,2022-12-05,2022-12-05,株式会社ＫＬエステート,,株式会社,大阪府,大阪市福島区,野田２丁目１７番２９号ファーストメゾン千成２０３号,,27,103,5530005,,,,,,,2022-12-05,1,,,,,ケーエルエステート,0
1270,5120001250759,新規,0,2022-12-05,2022-12-05,株式会社ＳＯＡＲコーポレーション,,株式会社,大阪府,大阪市淀川区,宮原１丁目１９番２３号ステュディオ新御堂１１０３号,,27,123,5320003,,,,,,,2022-12-05,1,,,,,ソーアコーポレーション,0
1273,5120003022999,新規,0,2022-12-05,2022-12-05,合同会社ｋｏｋｕａ会,,合同会社,大阪府,大阪市福島区,福島４丁目２番６６号,,27,103,5530003,,,,,,,2022-12-05,1,,,,,コクアカイ,0
1274,5120003023015,新規,0,2022-12-05,2022-12-05,ＭｏｖｅＭｏｖｉｅ合同会社,,合同会社,大阪府,枚方市,津田南町１丁目７－１５,,27,210,5730124,,,,,,,2022-12-05,1,,,,,ムーブムービー,0
1276,5120005023327,新規,0,2022-12-05,2022-12-05,税理士法人大西中野事務所,,その他の設立登記法人,大阪府,大阪市中央区,瓦町４丁目４番７号京阪神淀屋橋ビル,,27,128,5410048,,,,,,,2022-12-05,1,,,,,オオニシナカノジムショ,0
1278,5120101066618,新規,0,2022-12-05,2022-12-05,株式会社リボネ,,株式会社,大阪府,和泉市,春木町１０５０番地の２,,27,219,5941141,,,,,,,2022-12-05,1,,,,,リボネ,0
1279,5120103004955,新規,0,2022-12-05,2022-12-05,合同会社こころデザイン研究所,,合同会社,大阪府,堺市西区,浜寺昭和町１丁１３４番地２,,27,144,5928345,,,,,,,2022-12-05,1,,,,,ココロデザインケンキュウジョ,0
1289,5120901046810,新規,0,2022-12-05,2022-12-05,株式会社ショルマート建物管理,,株式会社,大阪府,吹田市,山田西２丁目１９番７号,,27,205,5650824,,,,,,,2022-12-05,1,,,,,ショルマートタテモノカンリ,0
1290,5120901046819,新規,0,2022-12-05,2022-12-05,株式会社岡村塾,,株式会社,大阪府,茨木市,西太田町２８番７号,,27,211,5670015,,,,,,,2022-12-05,1,,,,,オカムラジュク,0
1291,5120903004403,新規,0,2022-12-05,2022-12-05,ＬａＬａＬｕ合同会社,,合同会社,大阪府,茨木市,西駅前町１０－８２６,,27,211,5670032,,,,,,,2022-12-05,1,,,,,ララルー,0
1297,5130001073218,新規,0,2022-12-05,2022-12-05,株式会社ジャスベルメディカルサービス,,株式会社,京都府,京都市北区,紫竹下梅ノ木町６７番地,,26,101,6038178,,,,,,,2022-12-05,1,,,,,ジャスベルメディカルサービス,0
1298,5130001073234,新規,0,2022-12-05,2022-12-05,株式会社さいこうちょう,,株式会社,京都府,宇治市,小倉町蓮池１７１－１１,,26,204,6110042,,,,,,,2022-12-05,1,,,,,サイコウチョウ,0
1299,5130003008361,新規,0,2022-12-05,2022-12-05,合同会社ＭＡＹ,,合同会社,京都府,京都市上京区,七本松通一条下る三軒町６９番地８小山マンション１０２,,26,102,6028341,,,,,,,2022-12-05,1,,,,,メイ,0
1303,5140001128276,新規,0,2022-12-05,2022-12-05,大輝株式会社,,株式会社,兵庫県,尼崎市,杭瀬南新町１丁目１２番１号,,28,202,6600822,,,,,,,2022-12-05,1,,,,,ダイキ,0
1307,5140003018434,新規,0,2022-12-05,2022-12-05,合同会社ＤｒｅａｍＯｎｅ,,合同会社,兵庫県,豊岡市,中央町５番４２号,,28,209,6680033,,,,,,,2022-12-05,1,,,,,ドリームワン,0
1311,5150003002825,新規,0,2022-12-05,2022-12-05,合同会社くらしと,,合同会社,奈良県,宇陀市,榛原萩乃里６２,,29,212,6330221,,,,,,,2022-12-05,1,,,,,クラシト,0
1313,5160005011146,新規,0,2022-12-05,2022-12-05,一般財団法人いきいきつながる会ＳＤＧｓ財団,,その他の設立登記法人,滋賀県,大津市,御殿浜１１番１３号,,25,201,5200834,,,,,,,2022-12-05,1,,,,,イキイキツナガルカイエスディージーズザイダン,0
1314,5170003001800,新規,0,2022-12-05,2022-12-05,合同会社稲垣建築,,合同会社,和歌山県,御坊市,藤田町吉田６４７,,30,205,6491342,,,,,,,2022-12-05,1,,,,,イナガキケンチク,0
1321,5180001154038,新規,0,2022-12-05,2022-12-05,株式会社ＯＴＣ設計,,株式会社,愛知県,一宮市,篭屋１丁目８番２２号サンシャイン高橋２０２,00128678,23,203,4940002,,,,,,,2022-12-05,1,,,,,オーティーシーセッケイ,0
1322,5180001154046,新規,0,2022-12-05,2022-12-05,株式会社沖ドキ,,株式会社,愛知県,名古屋市東区,泉１丁目２２番３５号チサンマンション桜通久屋４０７,,23,102,4610001,,,,,,,2022-12-05,1,,,,,オキドキ,0
1323,5180001154054,新規,0,2022-12-05,2022-12-05,株式会社ｓｉｓｕ,,株式会社,愛知県,名古屋市東区,東桜１丁目９ー３６曽田第一ビル２階,,23,102,4610005,,,,,,,2022-12-05,1,,,,,シス,0
1324,5180001154062,新規,0,2022-12-05,2022-12-05,Ｈｏｂｏ　Ｔｒａｄｉｎｇ　Ｃｏｍｐａｎｙ株式会社,,株式会社,愛知県,犬山市,四季の丘６丁目２番地,,23,215,4840019,,,,,,,2022-12-05,1,,,,,ホボトレーディングカンパニー,0
1325,5180001154079,新規,0,2022-12-05,2022-12-05,株式会社スギテック,,株式会社,愛知県,知多郡武豊町,字向陽４丁目１番地２,,23,447,4702357,,,,,,,2022-12-05,1,,,,,スギテック,0
1326,5180001154087,新規,0,2022-12-05,2022-12-05,株式会社エルコレ東海,,株式会社,愛知県,名古屋市中区,栄４丁目１３番１５号,,23,106,4600008,,,,,,,2022-12-05,1,,,,,エルコレトウカイ,0
1336,5200001040706,新規,0,2022-12-05,2022-12-05,株式会社あゆ不動産,,株式会社,岐阜県,中津川市,加子母８２５番地,,21,206,5080421,,,,,,,2022-12-05,1,,,,,アユフドウサン,0
1343,5220001025151,新規,0,2022-12-05,2022-12-05,株式会社ひさでん,,株式会社,石川県,鹿島郡中能登町,新庄１７部１６番地,,17,407,9291712,,,,,,,2022-12-05,1,,,,,ヒサデン,0
1352,5240001060741,新規,0,2022-12-05,2022-12-05,株式会社カメリアブルーム,,株式会社,広島県,広島市中区,江波南２丁目１番２８－１９号,,34,101,7300835,,,,,,,2022-12-05,1,,,,,カメリアブルーム,0
1356,5260001037457,新規,0,2022-12-05,2022-12-05,株式会社Ｚｅｐｈｙｒ,,株式会社,岡山県,岡山市北区,新屋敷町３丁目１６番２５号,,33,101,7000986,,,,,,,2022-12-05,1,,,,,ゼファー,0
1357,5260005011169,新規,0,2022-12-05,2022-12-05,一般社団法人ふじ,,その他の設立登記法人,岡山県,岡山市北区,平和町１番１号,,33,101,7000827,,,,,,,2022-12-05,1,,,,,フジ,0
1366,5290001099759,新規,0,2022-12-05,2022-12-05,株式会社ＡＫ　ＳＳ,,株式会社,福岡県,福岡市中央区,天神３丁目９番１０号天神松井ビル５０１,,40,133,8100001,,,,,,,2022-12-05,1,,,,,エーケーエスエス,0
1367,5290001099767,新規,0,2022-12-05,2022-12-05,ＹＦ‐ＴＲＡＤＩＮＧ株式会社,,株式会社,福岡県,福岡市東区,箱崎ふ頭３丁目３番２０号,,40,131,8120051,,,,,,,2022-12-05,1,,,,,ワイエフトレイディング,0
1368,5290001099783,新規,0,2022-12-05,2022-12-05,株式会社ＳＴＥＰ,,株式会社,福岡県,福岡市南区,井尻２丁目３２番２５号,,40,134,8111302,,,,,,,2022-12-05,1,,,,,ステップ,0
1369,5290001099791,新規,0,2022-12-05,2022-12-05,株式会社ＳＨＵＦＦ,,株式会社,福岡県,福岡市早良区,室見５丁目９番１号エクセレント室見１０５号,,40,137,8140015,,,,,,,2022-12-05,1,,,,,シャフ,0
1381,5320001019449,新規,0,2022-12-05,2022-12-05,株式会社プロパス,,株式会社,大分県,大分市,富士見が丘東１丁目１６番１４号,,44,201,8701176,,,,,,,2022-12-05,1,,,,,プロパス,0
1383,5330001030355,新規,0,2022-12-05,2022-12-05,株式会社Ａｔｈｅｎａ　Ｆｌｏｒａ,,株式会社,熊本県,人吉市,瓦屋町１１１４番地４,,43,203,8680025,,,,,,,2022-12-05,1,,,,,アテナフローラ,0
1384,5330001030363,新規,0,2022-12-05,2022-12-05,株式会社末広,,株式会社,熊本県,八代市,南平和町３６番地２,,43,202,8695165,,,,,,,2022-12-05,1,,,,,スエヒロ,0
1392,5370001049342,新規,0,2022-12-05,2022-12-05,株式会社くりはら介護塾,,株式会社,宮城県,仙台市泉区,友愛町１番地の１,,04,105,9813114,,,,,,,2022-12-05,1,,,,,クリハラカイゴジュク,0
1395,5380003005334,新規,0,2022-12-05,2022-12-05,グリーンヒート＆パワー合同会社,,合同会社,福島県,いわき市,平赤井字畑子沢１番地の６２,,07,204,9793131,,,,,,,2022-12-05,1,,,,,グリーンヒートアンドパワー,0
1402,5410005006491,新規,0,2022-12-05,2022-12-05,社会保険労務士法人すずけん事務所,,その他の設立登記法人,秋田県,潟上市,昭和大久保字堤の上４５番地,,05,211,0181401,,,,,,,2022-12-05,1,,,,,スズケンジムショ,0
1404,5420001018093,新規,0,2022-12-05,2022-12-05,株式会社フリージア,,株式会社,青森県,青森市,自由ケ丘１丁目１４番地１６,,02,201,0300941,,,,,,,2022-12-05,1,,,,,フリージア,0
1405,5420003002608,新規,0,2022-12-05,2022-12-05,合同会社Ｙ’ｓプラン,,合同会社,青森県,青森市,古川３丁目１５番１７号,,02,201,0300862,,,,,,,2022-12-05,1,,,,,ワイズプラン,0
1409,5430001087971,新規,0,2022-12-05,2022-12-05,株式会社Ｔｅｎｃｏｌｏ,,株式会社,北海道,札幌市厚別区,厚別東一条４丁目５番２２号,,01,108,0040001,,,,,,,2022-12-05,1,,,,,テンコロ,0
1412,5450001013851,新規,0,2022-12-05,2022-12-05,株式会社まるこう,,株式会社,北海道,雨竜郡北竜町,字碧水３７番地１,,01,437,0782503,,,,,,,2022-12-05,1,,,,,マルコウ,0
1413,5460001005749,新規,0,2022-12-05,2022-12-05,株式会社ハイブリッチカンパニー,,株式会社,北海道,釧路市,松浦町１４番１２号,,01,206,0850005,,,,,,,2022-12-05,1,,,,,ハイブリッチカンパニー,0
1425,5700150113245,新規,0,2022-12-05,2022-12-05,Ｃｉｎｃｉｎｎａｔｉ　Ｇｌｏｂａｌ　Ｄｅｄｉｃａｔｅｄ　Ｎｏ　２　Ｌｉｍｉｔｅｄ,,外国会社等,東京都,千代田区,霞が関３丁目２－６東京倶楽部ビルディング６階　ロイズジャパン株式会社内,,13,101,1000013,Ｏｎｅ　Ｌｉｍｅ　Ｓｔｒｅｅｔ　Ｌｏｎｄｏｎ　ＥＣ３Ｍ　７ＨＡ　ＵＫ,,,,,,2022-12-05,1,,,,,シンシナテイグローバルデデイケイテツドナンバーツーリミテツド,0
1431,6010001231224,新規,0,2022-12-05,2022-12-05,株式会社三洋堂,,株式会社,東京都,文京区,千駄木２丁目２３番１号,,13,105,1130022,,,,,,,2022-12-05,1,,,,,サンヨウドウ,0
1432,6010001231249,新規,0,2022-12-05,2022-12-05,株式会社Ｙ’Ｓ．ａ,,株式会社,東京都,中央区,勝どき５丁目３番１－５１０５号,,13,102,1040054,,,,,,,2022-12-05,1,,,,,ワイズドットエー,0
1433,6010001231273,新規,0,2022-12-05,2022-12-05,株式会社プログリット,,株式会社,東京都,中央区,日本橋小伝馬町２番８号新小伝馬町ビル４階,,13,102,1030001,,,,,,,2022-12-05,1,,,,,プログリット,0
1434,6010001231298,新規,0,2022-12-05,2022-12-05,株式会社ＡＡＩ０４,,株式会社,東京都,中央区,日本橋２丁目１番１８号,,13,102,1030027,,,,,,,2022-12-05,1,,,,,エーエーアイゼロヨン,0
1435,6010001231307,新規,0,2022-12-05,2022-12-05,株式会社ＡＡＩ１３,,株式会社,東京都,中央区,日本橋２丁目１番１８号,,13,102,1030027,,,,,,,2022-12-05,1,,,,,エーエーアイイチサン,0
1436,6010001231356,新規,0,2022-12-05,2022-12-05,日本リユース株式会社,,株式会社,東京都,千代田区,内神田１丁目１８番１１号東京ロイヤルプラザ７２０号,,13,101,1010047,,,,,,,2022-12-05,1,,,,,ニホンリユース,0
1439,6010003039228,新規,0,2022-12-05,2022-12-05,ＰＬＵＭＥ　ＥＮＴＥＲＴＡＩＮＭＥＮＴ合同会社,,合同会社,東京都,中央区,銀座１丁目２２－１１,,13,102,1040061,,,,,,,2022-12-05,1,,,,,プリュムエンターテインメント,0
1443,6010005035869,新規,0,2022-12-05,2022-12-05,ナンキョク１一般社団法人,,その他の設立登記法人,東京都,千代田区,丸の内３丁目１番１号東京共同会計事務所内,,13,101,1000005,,,,,,,2022-12-05,1,,,,,ナンキョクワン,0
1446,6010401171136,新規,0,2022-12-05,2022-12-05,株式会社プログレス,,株式会社,東京都,港区,浜松町１丁目２０番１０号,,13,103,1050013,,,,,,,2022-12-05,1,,,,,プログレス,0
1449,6010403029068,新規,0,2022-12-05,2022-12-05,Ａｌｐｉｎｅ　Ｉｎｖｅｓｔｍｅｎｔ合同会社,,合同会社,東京都,港区,北青山２丁目１４番４号ジ・アーガイル・アオヤマ６階,,13,103,1070061,,,,,,,2022-12-05,1,,,,,アルパインインベストメント,0
1450,6010405021626,新規,0,2022-12-05,2022-12-05,一般社団法人日本フリーランス支援協会,,その他の設立登記法人,東京都,港区,赤坂４丁目８－１９フロントタウン３階,,13,103,1070052,,,,,,,2022-12-05,1,,,,,ニホンフリーランスシエンキョウカイ,0
1452,6010501049703,新規,0,2022-12-05,2022-12-05,株式会社ユニカラ不動産,,株式会社,東京都,台東区,上野１丁目６番８号岸ビル３０２,,13,106,1100005,,,,,,,2022-12-05,1,,,,,ユニカラフドウサン,0
1453,6010503006801,新規,0,2022-12-05,2022-12-05,合同会社Ｔ＆Ｋ総合マネジメント,,合同会社,東京都,台東区,浅草橋３丁目１８番１号,,13,106,1110053,,,,,,,2022-12-05,1,,,,,ティアンドケイソウゴウマネジメント,0
1461,6010701043555,新規,0,2022-12-05,2022-12-05,株式会社オーバーザムーン,,株式会社,東京都,品川区,東品川４丁目１１－３６－３２８,,13,109,1400002,,,,,,,2022-12-05,1,,,,,オーバーザムーン,0
1462,6010701043571,新規,0,2022-12-05,2022-12-05,株式会社ＡｕｔｏＦｉｎｅ,,株式会社,東京都,品川区,南品川１丁目５番１号塩原ビル３０１,,13,109,1400004,,,,,,,2022-12-05,1,,,,,オートファイン,0
1463,6010703006493,新規,0,2022-12-05,2022-12-05,合同会社ＢｏＳｕｉｔ,,合同会社,東京都,品川区,大崎２丁目９－１－３３０５,,13,109,1410032,,,,,,,2022-12-05,1,,,,,ボスイット,0
1464,6010705003456,新規,0,2022-12-05,2022-12-05,一般社団法人アジャイル経営カンファレンス実行委員会,,その他の設立登記法人,東京都,品川区,西五反田３丁目１３番２号,,13,109,1410031,,,,,,,2022-12-05,1,,,,,アジャイルケイエイカンファレンスジッコウイインカイ,0
1466,6010901052075,新規,0,2022-12-05,2022-12-05,株式会社Ｖｉｖａ　Ｔｒａｉｌ,,株式会社,東京都,世田谷区,玉川３丁目１３番１号柳小路錦町２Ｆ,,13,112,1580094,,,,,,,2022-12-05,1,,,,,ビバトレイル,0
1467,6010901052083,新規,0,2022-12-05,2022-12-05,株式会社ＡＳＡ大蔵,,株式会社,東京都,世田谷区,砧１丁目１９番６号,,13,112,1570073,,,,,,,2022-12-05,1,,,,,エーエスエーオオクラ,0
1468,6010901052091,新規,0,2022-12-05,2022-12-05,株式会社フューチャートラディショナル,,株式会社,東京都,世田谷区,等々力６丁目２０番１０号ドミールデュオ自由が丘１０５,,13,112,1580082,,,,,,,2022-12-05,1,,,,,フューチャートラディショナル,0
1475,6011003015813,新規,0,2022-12-05,2022-12-05,合同会社ＢＡＳＳ,,合同会社,東京都,目黒区,碑文谷１丁目２３番１２－４０１号クレヴィア碑文谷一丁目,,13,110,1520003,,,,,,,2022-12-05,1,,,,,ベース,0
1476,6011005009862,新規,0,2022-12-05,2022-12-05,一般社団法人Ｂｒｉｄｇｅ　Ｂｏｏｋ,,その他の設立登記法人,東京都,目黒区,大岡山１丁目２０番１５－１０２号,,13,110,1520033,,,,,,,2022-12-05,1,,,,,ブリッジブック,0
1477,6011101012448,新規,0,2022-12-05,2022-12-05,株式会社高柳商会,,株式会社,東京都,新宿区,歌舞伎町２丁目４２番１３号,,13,104,1600021,,,,,,,2022-12-05,1,,,,,タカヤナギショウカイ,0
1479,6011101101044,新規,0,2022-12-05,2022-12-05,株式会社新軌道,,株式会社,東京都,新宿区,百人町１丁目２３番１０号,,13,104,1690073,,,,,,,2022-12-05,1,,,,,シンキドウ,0
1480,6011101101052,新規,0,2022-12-05,2022-12-05,アレクシードプラス株式会社,,株式会社,東京都,新宿区,西新宿３丁目３番１３号西新宿水間ビル６階,,13,104,1600023,,,,,,,2022-12-05,1,,,,,アレクシードプラス,0
1481,6011101101060,新規,0,2022-12-05,2022-12-05,株式会社ＬｅｇａｌＸ,,株式会社,東京都,新宿区,新宿２丁目１２番１３号新宿アントレサロンビル２階,,13,104,1600022,,,,,,,2022-12-05,1,,,,,リーガルエックス,0
1482,6011201024269,新規,0,2022-12-05,2022-12-05,株式会社ブロードビーン,,株式会社,東京都,中野区,東中野１丁目２８番２号アニコフローラ東中野２０２,,13,114,1640003,,,,,,,2022-12-05,1,,,,,ブロードビーン,0
1483,6011201024277,新規,0,2022-12-05,2022-12-05,株式会社ヒサトシ,,株式会社,東京都,中野区,弥生町６丁目２番２０号,,13,114,1640013,,,,,,,2022-12-05,1,,,,,ヒサトシ,0
1484,6011203003956,新規,0,2022-12-05,2022-12-05,合同会社ＬＯＮＤＯ　ＢＥＬＬ,,合同会社,東京都,中野区,上高田４丁目５番３号－２,,13,114,1640002,,,,,,,2022-12-05,1,,,,,ロンドベル,0
1487,6011601026410,新規,0,2022-12-05,2022-12-05,百合株式会社,,株式会社,東京都,練馬区,桜台１丁目７番７－４１２号,,13,120,1760002,,,,,,,2022-12-05,1,,,,,ユリ,0
1490,6011701025832,新規,0,2022-12-05,2022-12-05,株式会社日本メディカル,,株式会社,東京都,江戸川区,西葛西７丁目２１番２２号,,13,123,1340088,,,,,,,2022-12-05,1,,,,,ニホンメディカル,0
1493,6011801041630,新規,0,2022-12-05,2022-12-05,みなと株式会社,,株式会社,東京都,足立区,西新井本町４丁目２番１０－３０５号,,13,121,1230845,,,,,,,2022-12-05,1,,,,,ミナト,0
1495,6011803005419,新規,0,2022-12-05,2022-12-05,合同会社ＴＫ,,合同会社,東京都,足立区,新田３丁目３５－３２ハートアイランド新田四番街３２棟１２０６号,,13,121,1230865,,,,,,,2022-12-05,1,,,,,ティーケー,0
1496,6012301013228,新規,0,2022-12-05,2022-12-05,株式会社ＳＥＳＳＩＯＮ,,株式会社,東京都,町田市,野津田町９７９番地１,,13,209,1950063,,,,,,,2022-12-05,1,,,,,セッション,0
1515,6020001149218,新規,0,2022-12-05,2022-12-05,株式会社縁周,,株式会社,神奈川県,川崎市川崎区,桜本１丁目１１番１９号,,14,131,2100833,,,,,,,2022-12-05,1,,,,,エンシュウ,0
1519,6021001077631,新規,0,2022-12-05,2022-12-05,株式会社アクト,,株式会社,神奈川県,横須賀市,山科台２４番１７号,,14,201,2380312,,,,,,,2022-12-05,1,,,,,アクト,0
1521,6021003012454,新規,0,2022-12-05,2022-12-05,合同会社愛ＤＯＧ,,合同会社,神奈川県,大和市,桜森２丁目２７－１,,14,213,2420028,,,,,,,2022-12-05,1,,,,,アイドッグ,0
1522,6021003012470,新規,0,2022-12-05,2022-12-05,ＡＧＵＭＩ　ＬＡＮＫＡ合同会社,,合同会社,神奈川県,厚木市,三田南２丁目２５番６号サニーサイドＢ２０８,,14,212,2430217,,,,,,,2022-12-05,1,,,,,アグミランカ,0
1527,6030001151288,新規,0,2022-12-05,2022-12-05,株式会社ｈｏｍｉｅ,,株式会社,埼玉県,東松山市,大字下唐子２０１４番地１３,,11,212,3550076,,,,,,,2022-12-05,1,,,,,ホーミー,0
1528,6030001151305,新規,0,2022-12-05,2022-12-05,株式会社将武興業,,株式会社,埼玉県,草加市,松江１丁目２４番３－３０３号,,11,221,3400013,,,,,,,2022-12-05,1,,,,,ショウブコウギョウ,0
1532,6030003020689,新規,0,2022-12-05,2022-12-05,合同会社おちゃのこさいさい,,合同会社,埼玉県,和光市,白子２丁目２４番２４－７０６号和光パークファミリア,,11,229,3510101,,,,,,,2022-12-05,1,,,,,オチャノコサイサイ,0
1536,6040001126082,新規,0,2022-12-05,2022-12-05,株式会社むすび,,株式会社,千葉県,市原市,北国分寺台１丁目５番地３,,12,219,2900071,,,,,,,2022-12-05,1,,,,,ムスビ,0
1538,6050001052039,新規,0,2022-12-05,2022-12-05,ＬＩＣＯ住商株式会社,,株式会社,茨城県,つくば市,上広岡６９９番地８,,08,220,3050041,,,,,,,2022-12-05,1,,,,,リコージュウショウ,0
1543,6060001035505,新規,0,2022-12-05,2022-12-05,株式会社ＰＡＬＳ,,株式会社,栃木県,宇都宮市,戸祭町２６３８番地１２,,09,201,3200053,,,,,,,2022-12-05,1,,,,,パルズ,0
1545,6060003004326,新規,0,2022-12-05,2022-12-05,合同会社エンワークス,,合同会社,栃木県,下都賀郡野木町,大字友沼６４２９番地４,,09,364,3290101,,,,,,,2022-12-05,1,,,,,エンワークス,0
1548,6070001039876,新規,0,2022-12-05,2022-12-05,関東建設工業ホールディングス株式会社,,株式会社,群馬県,太田市,飯田町１５４７番地ＯＴＡスクエアビル７Ｆ,,10,205,3730851,,,,,,,2022-12-05,1,,,,,カントウケンセツコウギョウホールディングス,0
1551,6080005007498,新規,0,2022-12-05,2022-12-05,一般社団法人ミニロボ,,その他の設立登記法人,静岡県,静岡市清水区,尾羽５７７番地の１,,22,103,4240103,,,,,,,2022-12-05,1,,,,,ミニロボ,0
1552,6080101023671,新規,0,2022-12-05,2022-12-05,令和工業株式会社,,株式会社,静岡県,富士市,中里２５４６番地の４６,,22,210,4170826,,,,,,,2022-12-05,1,,,,,レイワコウギョウ,0
1556,6090001017871,新規,0,2022-12-05,2022-12-05,ブルークロスファーム株式会社,,株式会社,山梨県,南巨摩郡富士川町,長澤２３４９番地１－２０３号,,19,368,4000505,,,,,,,2022-12-05,1,,,,,ブルークロスファーム,0
1559,6100001035921,新規,0,2022-12-05,2022-12-05,株式会社ｍｅｅｔｓｕ,,株式会社,長野県,飯田市,主税町４番地３吉川ビル１Ｆ,,20,205,3950032,,,,,,,2022-12-05,1,,,,,ミーツ,0
1560,6100001035938,新規,0,2022-12-05,2022-12-05,株式会社木村興業,,株式会社,長野県,千曲市,大字森８７６番地,,20,218,3870005,,,,,,,2022-12-05,1,,,,,キムラコウギョウ,0
1573,6120001250725,新規,0,2022-12-05,2022-12-05,ＫＩＤＯホールディングス株式会社,,株式会社,大阪府,大阪市中央区,和泉町２丁目４番７号,,27,128,5400019,,,,,,,2022-12-05,1,,,,,ケイアイディーオーホールディングス,0
1574,6120003022998,新規,0,2022-12-05,2022-12-05,ミギリデザイン合同会社,,合同会社,大阪府,大阪市中央区,北浜２丁目１番１４号,,27,128,5410041,,,,,,,2022-12-05,1,,,,,ミギリデザイン,0
1577,6120101066617,新規,0,2022-12-05,2022-12-05,株式会社エムワイビルテック,,株式会社,大阪府,岸和田市,下松町５０５８番地ＭＭ８８ビル２０１号室,,27,202,5960823,,,,,,,2022-12-05,1,,,,,エムワイビルテック,0
1582,6122001036468,新規,0,2022-12-05,2022-12-05,株式会社ボヌール,,株式会社,大阪府,東大阪市,横沼町３丁目１４番２９号,,27,227,5770808,,,,,,,2022-12-05,1,,,,,ボヌール,0
1583,6130001000220,新規,0,2022-12-05,2022-12-05,今井住宅株式会社,,株式会社,京都府,京都市右京区,太秦樋ノ内町１１番地の３,00128624,26,108,6168142,,,,,,,2022-12-05,1,,,,,イマイジュウタク,0
1585,6130001073225,新規,0,2022-12-05,2022-12-05,株式会社藤田電気,,株式会社,京都府,京都市伏見区,桃山町因幡１６７番地,,26,109,6128007,,,,,,,2022-12-05,1,,,,,フジタデンキ,0
1586,6130001073241,新規,0,2022-12-05,2022-12-05,株式会社サンパティ,,株式会社,京都府,京都市左京区,岩倉三笠町２６６番地,,26,103,6060008,,,,,,,2022-12-05,1,,,,,サンパティ,0
1588,6130003008360,新規,0,2022-12-05,2022-12-05,合同会社フロー,,合同会社,京都府,京都市南区,吉祥院高畑町５番地１,,26,107,6018332,,,,,,,2022-12-05,1,,,,,フロー,0
1593,6140001128250,新規,0,2022-12-05,2022-12-05,株式会社ＧＲＯＮＩＴＹ,,株式会社,兵庫県,宝塚市,小浜２丁目１番２号,,28,214,6650827,,,,,,,2022-12-05,1,,,,,グロニティー,0
1594,6140001128259,新規,0,2022-12-05,2022-12-05,株式会社Ｔｏｒｔｏｉｓｅ,,株式会社,兵庫県,神戸市須磨区,車字竹ノ下１２９７番地,,28,107,6540111,,,,,,,2022-12-05,1,,,,,トータス,0
1595,6140001128291,新規,0,2022-12-05,2022-12-05,株式会社ベルツリー,,株式会社,兵庫県,揖保郡太子町,糸井８２番地８,,28,464,6711532,,,,,,,2022-12-05,1,,,,,ベルツリー,0
1597,6140003018425,新規,0,2022-12-05,2022-12-05,合同会社流麗,,合同会社,兵庫県,姫路市,大津区天満３５０番地８,,28,201,6711143,,,,,,,2022-12-05,1,,,,,リュウレイ,0
1603,6160001024679,新規,0,2022-12-05,2022-12-05,株式会社オウミリゾート,,株式会社,滋賀県,近江八幡市,鷹飼町１４８１番地,,25,204,5230891,,,,,,,2022-12-05,1,,,,,オウミリゾート,0
1604,6160003002749,新規,0,2022-12-05,2022-12-05,横田産業合同会社,,合同会社,滋賀県,長浜市,高月町馬上９８７番地,,25,203,5290223,,,,,,,2022-12-05,1,,,,,ヨコタサンギョウ,0
1610,6180001154037,新規,0,2022-12-05,2022-12-05,株式会社ＫＧＣエナジー,,株式会社,愛知県,名古屋市東区,相生町８３番地,,23,102,4610012,,,,,,,2022-12-05,1,,,,,ケージーシーエナジー,0
1611,6180001154045,新規,0,2022-12-05,2022-12-05,株式会社ゴルフ中尾友力新後藤塾,,株式会社,愛知県,一宮市,新生２丁目７番４号,,23,203,4910912,,,,,,,2022-12-05,1,,,,,ゴルフナカオユウキシンゴトウジュク,0
1612,6180001154086,新規,0,2022-12-05,2022-12-05,ホガエンターテインメント株式会社,,株式会社,愛知県,名古屋市中村区,名駅４丁目２４番５号第２森ビル４０１,,23,105,4500002,,,,,,,2022-12-05,1,,,,,ホガエンターテインメント,0
1616,6180003024568,新規,0,2022-12-05,2022-12-05,合同会社アップ建材,,合同会社,愛知県,名古屋市南区,鶴田１丁目２番２号Ｋビル１階,,23,112,4570003,,,,,,,2022-12-05,1,,,,,アップケンザイ,0
1618,6180301036876,新規,0,2022-12-05,2022-12-05,株式会社ＮＱＣ,,株式会社,愛知県,西尾市,徳次町九伝１８番地レオパレス九伝１１２号室,,23,213,4450072,,,,,,,2022-12-05,1,,,,,エヌキューシー,0
1623,6220001025159,新規,0,2022-12-05,2022-12-05,株式会社Ｓ＆Ａ,,株式会社,石川県,小松市,鵜川町へ２７５番地１,,17,203,9230063,,,,,,,2022-12-05,1,,,,,エスアンドエー,0
1628,6240001060740,新規,0,2022-12-05,2022-12-05,横川シネマ株式会社,,株式会社,広島県,広島市西区,横川町３丁目１番１２号,,34,104,7330011,,,,,,,2022-12-05,1,,,,,ヨコガワシネマ,0
1629,6240001060749,新規,0,2022-12-05,2022-12-05,ＫＩＺＵＮＡ商事株式会社,,株式会社,広島県,広島市中区,舟入本町１４番３－９０２号,,34,101,7300843,,,,,,,2022-12-05,1,,,,,キズナショウジ,0
1633,6240005015492,新規,0,2022-12-05,2022-12-05,コネクト協同組合,,その他の設立登記法人,広島県,福山市,駅家町大字江良１５４番地１,,34,207,7201141,,,,,,,2022-12-05,1,,,,,コネクト,0
1637,6260001037464,新規,0,2022-12-05,2022-12-05,株式会社加川産業,,株式会社,岡山県,倉敷市,生坂２２３１番地１,,33,202,7100002,,,,,,,2022-12-05,1,,,,,カガワサンギョウ,0
1648,6290003013279,新規,0,2022-12-05,2022-12-05,合同会社Ｗｄｏｕｂｌｙ,,合同会社,福岡県,福岡市中央区,薬院４丁目５番３号,,40,133,8100022,,,,,,,2022-12-05,1,,,,,ダブルダブリー,0
1650,6290801029096,新規,0,2022-12-05,2022-12-05,株式会社ＨＩＮＡＴＡコンサルティング,,株式会社,福岡県,北九州市若松区,棚田町１２番４７号,,40,103,8080042,,,,,,,2022-12-05,1,,,,,ヒナタコンサルティング,0
1651,6290801029105,新規,0,2022-12-05,2022-12-05,株式会社Ｊｅａｌｏｕｓ　Ｇｒｏｕｐ,,株式会社,福岡県,北九州市小倉北区,堺町１丁目９番１０号アースコート堺町ＢＬＤ,,40,106,8020005,,,,,,,2022-12-05,1,,,,,ジェロスグループ,0
1652,6290805009607,新規,0,2022-12-05,2022-12-05,一般社団法人北九州ＮＦＴネクサス,,その他の設立登記法人,福岡県,北九州市八幡西区,熊手１丁目１番２５号,,40,109,8060028,,,,,,,2022-12-05,1,,,,,キタキュウシュウエヌエフティーネクサス,0
1657,6320001019448,新規,0,2022-12-05,2022-12-05,三和船舶工業株式会社,,株式会社,大分県,佐伯市,大字海崎８４２番地の１４,,44,205,8761105,,,,,,,2022-12-05,1,,,,,サンワセンパクコウギョウ,0
1658,6320001019456,新規,0,2022-12-05,2022-12-05,体力学校株式会社,,株式会社,大分県,大分市,賀来北１丁目１８番１１号,,44,201,8700848,,,,,,,2022-12-05,1,,,,,タイリョクガッコウ,0
1668,6360003012521,新規,0,2022-12-05,2022-12-05,合同会社サンフィッシュ,,合同会社,沖縄県,石垣市,字真栄里３９３番地３２,,47,207,9070002,,,,,,,2022-12-05,1,,,,,サンフィッシュ,0
1670,6370005010563,新規,0,2022-12-05,2022-12-05,医療法人俊英智会,,その他の設立登記法人,宮城県,仙台市宮城野区,小田原１丁目６番４０号,,04,102,9830803,,,,,,,2022-12-05,1,,,,,シュンエイチカイ,0
1677,6410001013334,新規,0,2022-12-05,2022-12-05,株式会社ブレインスクラッチ,,株式会社,秋田県,潟上市,天王字上江川４７番地１６１１,,05,211,0100201,,,,,,,2022-12-05,1,,,,,ブレインスクラッチ,0
1681,6430001087962,新規,0,2022-12-05,2022-12-05,株式会社Ｌｅ　Ｑｕｉａ,,株式会社,北海道,登別市,千歳町４丁目５－６１,,01,230,0590003,,,,,,,2022-12-05,1,,,,,ルキア,0
1685,6430003014510,新規,0,2022-12-05,2022-12-05,合同会社ノースグリーン,,合同会社,北海道,江別市,大麻西町６－６,,01,217,0690844,,,,,,,2022-12-05,1,,,,,ノースグリーン,0
1694,6460103001496,新規,0,2022-12-05,2022-12-05,合同会社ＧｒｏｗｉｎＧ,,合同会社,北海道,河東郡音更町,宝来北一条４丁目１番地,,01,631,0800141,,,,,,,2022-12-05,1,,,,,グローウィング,0
1700,6500001024628,新規,0,2022-12-05,2022-12-05,ＡＳＧアース株式会社,,株式会社,愛媛県,四国中央市,下柏町１３４５番地１,,38,213,7990411,,,,,,,2022-12-05,1,,,,,エーエスジーアース,0
1701,6500003002929,新規,0,2022-12-05,2022-12-05,ＥＩＳｕｒｖｉｖｏｒ合同会社,,合同会社,愛媛県,西条市,三津屋南２番３－２Ｆ,,38,206,7991353,,,,,,,2022-12-05,1,,,,,イーアイサバイバー,0
1702,6700150112997,新規,0,2022-12-05,2022-11-22,木曽地域文化遺産活性化協議会,,その他,長野県,木曽郡木曽町,日義４８９８－３７,,20,432,3996101,,,,,,,2022-11-22,1,,,,,キソチイキブンカイサンカツセイカキヨウギカイ,0
1703,6700150113244,新規,0,2022-12-05,2022-12-05,Ａｔｒｉｕｍ　Ｃｏｒｐｏｒａｔｅ　Ｃａｐｉｔａｌ　Ｌｉｍｉｔｅｄ,,外国会社等,東京都,千代田区,霞が関３丁目２－６東京倶楽部ビルディング６階　ロイズジャパン株式会社内,,13,101,1000013,Ｏｎｅ　Ｌｉｍｅ　Ｓｔｒｅｅｔ　Ｌｏｎｄｏｎ　ＥＣ３Ｍ　７ＨＡ　ＵＫ,,,,,,2022-12-05,1,,,,,アトリウムコーポレートキヤピタルリミテツド,0
1704,6700150113252,新規,0,2022-12-05,2022-12-05,ｚｉｂｏｙｅｑｕａｎｄｉａｎｑｉｙｏｕｘｉａｎｇｏｎｇｓｉ,,外国会社等,,,,,,,,Ｂａｃｋｙａｒｄ　ｗｏｒｋｓｈｏｐ，Ｆｏｒｅｉｇｎ　Ｉｎｄｕｓｔｒｉａｌ　Ｐａｒｋ，Ｈｉ　ｔｅｃｈ　Ｚｏｎｅ，Ｚｉｂｏ　Ｃｉｔｙ，Ｓｈａｎｄｏｎｇ　Ｐｒｏｖｉｎｃｅ，Ｃｈｉｎａ（ｉｎｓｉｄｅ　Ｓｈａｎｄｏｎｇ　Ｈｕａｌｉ　Ｆａｓｈｉｏｎ　Ｃｏ．，Ｌｔｄ．）,,,,,,2022-12-05,1,,,,,ジボヨウセンデンキユウシィアンゴンスー,0
1706,7010001231223,新規,0,2022-12-05,2022-12-05,株式会社スリーエスジャパン,,株式会社,東京都,千代田区,永田町２丁目４番７号,,13,101,1000014,,,,,,,2022-12-05,1,,,,,スリーエスジャパン,0
1707,7010001231256,新規,0,2022-12-05,2022-12-05,株式会社ココノビ,,株式会社,東京都,中央区,銀座１丁目１２番４号Ｎ＆Ｅ－ＢＬＤ．６Ｆ,,13,102,1040061,,,,,,,2022-12-05,1,,,,,ココノビ,0
1708,7010001231297,新規,0,2022-12-05,2022-12-05,株式会社ＡＡＩ０３,,株式会社,東京都,中央区,日本橋２丁目１番１８号,,13,102,1030027,,,,,,,2022-12-05,1,,,,,エーエーアイゼロサン,0
1709,7010001231306,新規,0,2022-12-05,2022-12-05,株式会社ＡＡＩ１２,,株式会社,東京都,中央区,日本橋２丁目１番１８号,,13,102,1030027,,,,,,,2022-12-05,1,,,,,エーエーアイイチニ,0
1710,7010001231314,新規,0,2022-12-05,2022-12-05,株式会社ウィズインテグリティ,,株式会社,東京都,中央区,銀座１丁目１２番４号Ｎ＆ＥＢＬＤ．７階,,13,102,1040061,,,,,,,2022-12-05,1,,,,,ウィズインテグリティ,0
1711,7010003039235,新規,0,2022-12-05,2022-12-05,合同会社異世界不動産,,合同会社,東京都,文京区,本郷１丁目３５番１２－３０１号,,13,105,1130033,,,,,,,2022-12-05,1,,,,,イセカイフドウサン,0
1715,7010005035868,新規,0,2022-12-05,2022-12-05,ジェネシススリー一般社団法人,,その他の設立登記法人,東京都,千代田区,丸の内３丁目１番１号東京共同会計事務所内,,13,101,1000005,,,,,,,2022-12-05,1,,,,,ジェネシススリー,0
1722,7010403029091,新規,0,2022-12-05,2022-12-05,合同会社Ｇｒｅｅｎ　Ｂｕｉｌｄｉｎｇ,,合同会社,東京都,港区,赤坂９丁目１番７号,,13,103,1070052,,,,,,,2022-12-05,1,,,,,グリーンビルディング,0
1725,7010501049702,新規,0,2022-12-05,2022-12-05,京開株式会社,,株式会社,東京都,台東区,上野３丁目１１番５号,,13,106,1100005,,,,,,,2022-12-05,1,,,,,キョウカイ,0
1731,7010701043554,新規,0,2022-12-05,2022-12-05,株式会社エトワールＭ．Ｉ,,株式会社,東京都,品川区,東五反田２丁目７番７号エルシア五反田１階,,13,109,1410022,,,,,,,2022-12-05,1,,,,,エトワールエムアイ,0
1732,7010701043570,新規,0,2022-12-05,2022-12-05,株式会社ジェムズリンクス,,株式会社,東京都,品川区,南大井３丁目１９－８－７０５,,13,109,1400013,,,,,,,2022-12-05,1,,,,,ジェムズリンクス,0
1734,7010801033488,新規,0,2022-12-05,2022-12-05,株式会社ヤスダイ,,株式会社,東京都,大田区,西蒲田７丁目５番１２号,,13,111,1440051,,,,,,,2022-12-05,1,,,,,ヤスダイ,0
1752,7011001151287,新規,0,2022-12-05,2022-12-05,Ｊ＆Ｐ株式会社,,株式会社,東京都,渋谷区,幡ヶ谷１丁目６番３－１０４号,,13,113,1510072,,,,,,,2022-12-05,1,,,,,ジェイアンドピー,0
1762,7011101101035,新規,0,2022-12-05,2022-12-05,株式会社ＰＪＷＣ,,株式会社,東京都,新宿区,新宿１丁目２４番７号ルネ御苑プラザ１１２０,,13,104,1600022,,,,,,,2022-12-05,1,,,,,ピージェイダブリューシー,0
1763,7011101101051,新規,0,2022-12-05,2022-12-05,株式会社リラクト,,株式会社,東京都,新宿区,下落合３丁目１５番２２号ランドール目白６０１,,13,104,1610033,,,,,,,2022-12-05,1,,,,,リラクト,0
1764,7011103012453,新規,0,2022-12-05,2022-12-05,合同会社ＡＹＣＥ,,合同会社,東京都,新宿区,西新宿３丁目３番１３号西新宿水間ビル２Ｆ,,13,104,1600023,,,,,,,2022-12-05,1,,,,,エーユーシーイー,0
1771,7011401024745,新規,0,2022-12-05,2022-12-05,株式会社エスポワール,,株式会社,東京都,板橋区,坂下１丁目３番２６号スカイコート板橋五番館６０１室,,13,119,1740043,,,,,,,2022-12-05,1,,,,,エスポワール,0
1773,7011501028729,新規,0,2022-12-05,2022-12-05,株式会社自由教育,,株式会社,東京都,北区,浮間１丁目１番６号ＫＭＰ北赤羽駅前ビル３Ｆ,,13,117,1150051,,,,,,,2022-12-05,1,,,,,ジユウキョウイク,0
1774,7011601026418,新規,0,2022-12-05,2022-12-05,智海株式会社,,株式会社,東京都,練馬区,北町５丁目５番７－１０１号,,13,120,1790081,,,,,,,2022-12-05,1,,,,,チカイ,0
1782,7012301013235,新規,0,2022-12-05,2022-12-05,リアン株式会社,,株式会社,東京都,町田市,原町田４丁目１１番１３号天野ビル４Ｆ,,13,209,1940013,,,,,,,2022-12-05,1,,,,,リアン,0
1784,7012401039915,新規,0,2022-12-05,2022-12-05,株式会社Ａｍｏｌ,,株式会社,東京都,調布市,仙川町３丁目２番地１８エクセル仙川２０３,,13,208,1820002,,,,,,,2022-12-05,1,,,,,アモル,0
1791,7012701017380,新規,0,2022-12-05,2022-12-05,株式会社いっぴゃく堂,,株式会社,東京都,東村山市,美住町２丁目２番地３１ネオコーポ武蔵野１０６,,13,213,1890023,,,,,,,2022-12-05,1,,,,,イッピャクドウ,0
1792,7012801022000,新規,0,2022-12-05,2022-12-05,株式会社ＷＡＮ‐ＷＯＲＫＳ,,株式会社,東京都,東大和市,南街１丁目３９番地３１,,13,220,2070014,,,,,,,2022-12-05,1,,,,,ワンワークス,0
1795,7013301050037,新規,0,2022-12-05,2022-12-05,株式会社ＧＲＯＷＴＨ,,株式会社,東京都,豊島区,上池袋４丁目１０番８号ソネット上池袋１０３号室,,13,116,1700012,,,,,,,2022-12-05,1,,,,,グロウス,0
1801,7020001149241,新規,0,2022-12-05,2022-12-05,株式会社Ｓｍｉｌｅ,,株式会社,神奈川県,横浜市磯子区,上中里町１０２８番地,,14,107,2350042,,,,,,,2022-12-05,1,,,,,スマイル,0
1806,7021001077580,新規,0,2022-12-05,2022-12-05,株式会社あそぶちから,,株式会社,神奈川県,小田原市,永塚９９,,14,206,2500214,,,,,,,2022-12-05,1,,,,,アソブチカラ,0
1807,7021001077614,新規,0,2022-12-05,2022-12-05,株式会社ＩＤＯＢＡＴＡ,,株式会社,神奈川県,横須賀市,秋谷１丁目１５番８号,,14,201,2400105,,,,,,,2022-12-05,1,,,,,イドバタ,0
1808,7021001077630,新規,0,2022-12-05,2022-12-05,株式会社杜松堂,,株式会社,神奈川県,藤沢市,辻堂元町５丁目１２番２５号,,14,205,2510043,,,,,,,2022-12-05,1,,,,,トショウドウ,0
1811,7021003012445,新規,0,2022-12-05,2022-12-05,ファソラ合同会社,,合同会社,神奈川県,相模原市中央区,田名５３４４番地１,,14,152,2520244,,,,,,,2022-12-05,1,,,,,ファソラ,0
1812,7021003012453,新規,0,2022-12-05,2022-12-05,合同会社ＩＵ,,合同会社,神奈川県,茅ヶ崎市,赤松町５番２９号,,14,207,2530013,,,,,,,2022-12-05,1,,,,,アイユウ,0
1813,7021003012461,新規,0,2022-12-05,2022-12-05,アズモア合同会社,,合同会社,神奈川県,藤沢市,南藤沢２１番９号３階,,14,205,2510055,,,,,,,2022-12-05,1,,,,,アズモア,0
1822,7030001151329,新規,0,2022-12-05,2022-12-05,株式会社スノードロップ,,株式会社,埼玉県,越谷市,赤山町５丁目３番２９号,,11,222,3430807,,,,,,,2022-12-05,1,,,,,スノードロップ,0
1823,7030001151353,新規,0,2022-12-05,2022-12-05,株式会社ドバシ,,株式会社,埼玉県,さいたま市桜区,大字宿１１０番地４,,11,106,3380814,,,,,,,2022-12-05,1,,,,,ドバシ,0
1834,7040001126073,新規,0,2022-12-05,2022-12-05,リバイバルハウス株式会社,,株式会社,千葉県,大網白里市,駒込１５０番地１東洋ハイツ１０１号室,,12,239,2993235,,,,,,,2022-12-05,1,,,,,リバイバルハウス,0
1840,7050003007048,新規,0,2022-12-05,2022-12-05,ブルースカイ合同会社,,合同会社,茨城県,古河市,鴻巣７７０番地３,,08,204,3060041,,,,,,,2022-12-05,1,,,,,ブルースカイ,0
1847,7060001035504,新規,0,2022-12-05,2022-12-05,株式会社サンテック,,株式会社,栃木県,真岡市,亀山２６６番地２,,09,209,3214363,,,,,,,2022-12-05,1,,,,,サンテック,0
1850,7070005010056,新規,0,2022-12-05,2022-12-05,ＮＰＯ．Ｍｉｎｈａｊ　Ｕｌ　Ｑｕｒａｎ　Ｊａｐａｎ,,その他の設立登記法人,群馬県,北群馬郡榛東村,大字山子田８６２番地１０,,10,344,3703502,,,,,,,2022-12-05,1,,,,,エヌピーオーミンハージウルクルアーンジャパン,0
1855,7080003002905,新規,0,2022-12-05,2022-12-05,合同会社ＹｏｕＤｏＹｏｕ,,合同会社,静岡県,静岡市葵区,紺屋町１７番地の１葵タワー１Ｆ,,22,101,4200852,,,,,,,2022-12-05,1,,,,,ユードゥーユー,0
1858,7090001017870,新規,0,2022-12-05,2022-12-05,細川工業株式会社,,株式会社,山梨県,甲府市,屋形３丁目５番３５号,,19,201,4000017,,,,,,,2022-12-05,1,,,,,ホソカワコウギョウ,0
1859,7100001035920,新規,0,2022-12-05,2022-12-05,株式会社結,,株式会社,長野県,下伊那郡高森町,牛牧１５３３番地２,,20,403,3993105,,,,,,,2022-12-05,1,,,,,ユイ,0
1860,7100001035929,新規,0,2022-12-05,2022-12-05,株式会社善光,,株式会社,長野県,長野市,桐原２丁目１９－８－８,,20,201,3810045,,,,,,,2022-12-05,1,,,,,ゼンコウ,0
1862,7110001037148,新規,0,2022-12-05,2022-12-05,株式会社ウィンアゲイン,,株式会社,新潟県,南魚沼市,六日町２６０３番地１,,15,226,9496680,,,,,,,2022-12-05,1,,,,,ウィンアゲイン,0
1863,7110001037156,新規,0,2022-12-05,2022-12-05,株式会社ひなた,,株式会社,新潟県,三条市,東本成寺１５３番地５,,15,204,9550823,,,,,,,2022-12-05,1,,,,,ヒナタ,0
1873,7120001250617,新規,0,2022-12-05,2022-12-05,三本株式会社,,株式会社,大阪府,大阪市中央区,千日前１丁目５－１９寿楽ビル９０４号室,,27,128,5420074,,,,,,,2022-12-05,1,,,,,サンボン,0
1874,7120001250690,新規,0,2022-12-05,2022-12-05,株式会社エムロジ,,株式会社,大阪府,大阪市旭区,中宮５丁目１１番１５号,,27,117,5350003,,,,,,,2022-12-05,1,,,,,エムロジ,0
1875,7120001250749,新規,0,2022-12-05,2022-12-05,株式会社住吉エナジー,00128667,株式会社,大阪府,大阪市住吉区,住吉２丁目１２番１号,,27,120,5580045,,,,,,,2022-12-05,1,,,,,スミヨシエナジー,0
1876,7120001250765,新規,0,2022-12-05,2022-12-05,株式会社橋本工芸,,株式会社,大阪府,大阪市城東区,今福西６丁目３番７号,,27,118,5360004,,,,,,,2022-12-05,1,,,,,ハシモトコウゲイ,0
1877,7120001250773,新規,0,2022-12-05,2022-12-05,ＲｅＣｒｅａｔｉｏｎ株式会社,,株式会社,大阪府,大阪市北区,角田町８番４７号梅田阪急グランドビルビジネスセンター２０Ｆ,,27,127,5300017,,,,,,,2022-12-05,1,,,,,リクリエーション,0
1882,7120005023325,新規,0,2022-12-05,2022-12-05,一般社団法人英語プレゼンテーション検定協会,,その他の設立登記法人,大阪府,大阪市天王寺区,生玉寺町３－３アイリス大阪ビル６Ｆ,,27,109,5430073,,,,,,,2022-12-05,1,,,,,エイゴプレゼンテーションケンテイキョウカイ,0
1890,7120905006395,新規,0,2022-12-05,2022-12-05,一般社団法人ＯｎｅＳｅｌｆ,,その他の設立登記法人,大阪府,豊中市,東豊中町６丁目１３番１－１０１９号,,27,203,5600003,,,,,,,2022-12-05,1,,,,,ワンセルフ,0
1899,7140001128225,新規,0,2022-12-05,2022-12-05,株式会社ＴＷＩＮ,,株式会社,兵庫県,神戸市北区,西大池２丁目２－８,,28,109,6511201,,,,,,,2022-12-05,1,,,,,ツイン,0
1900,7140001128266,新規,0,2022-12-05,2022-12-05,株式会社ＦＯＲ‐ＹＯＵ,,株式会社,兵庫県,養父市,八鹿町八鹿１８０８番地１,,28,222,6670021,,,,,,,2022-12-05,1,,,,,フォーユー,0
1901,7140001128274,新規,0,2022-12-05,2022-12-05,Ｆｌｙｉｎｇ　Ｃａｒｐｅｔ株式会社,,株式会社,兵庫県,神戸市垂水区,海岸通４番３１号,,28,108,6550036,,,,,,,2022-12-05,1,,,,,フライングカーペット,0
1906,7150001025990,新規,0,2022-12-05,2022-12-05,株式会社ｄａｔｅ,,株式会社,奈良県,奈良市,橋本町３番地の１,,29,201,6308217,,,,,,,2022-12-05,1,,,,,ダテ,0
1908,7160001024686,新規,0,2022-12-05,2022-12-05,株式会社ぎんしゃり亭ヤマモト米穀,,株式会社,滋賀県,長浜市,高月町高月１７０番地,,25,203,5290241,,,,,,,2022-12-05,1,,,,,ギンシャリテイヤマモトベイコク,0
1909,7160003002748,新規,0,2022-12-05,2022-12-05,合同会社ａｎｄｓｔｅｐ,,合同会社,滋賀県,長浜市,八幡中山町１７５番３,,25,203,5260021,,,,,,,2022-12-05,1,,,,,アンドステップ,0
1915,7180001154003,新規,0,2022-12-05,2022-12-05,株式会社テルエスト,,株式会社,愛知県,名古屋市中村区,名駅４丁目２４番５号第２森ビル４０１,,23,105,4500002,,,,,,,2022-12-05,1,,,,,テルエスト,0
1916,7180001154028,新規,0,2022-12-05,2022-12-05,株式会社こはるびより,,株式会社,愛知県,春日井市,稲口町４丁目２４番地１３番,,23,206,4860905,,,,,,,2022-12-05,1,,,,,コハルビヨリ,0
1917,7180001154060,新規,0,2022-12-05,2022-12-05,株式会社ＩＯ,,株式会社,愛知県,名古屋市南区,観音町７丁目６０番地の２,,23,112,4570845,,,,,,,2022-12-05,1,,,,,アイオー,0
1918,7180001154069,新規,0,2022-12-05,2022-12-05,株式会社隼栄,,株式会社,愛知県,尾張旭市,瀬戸川町２丁目７１番地２,,23,226,4880023,,,,,,,2022-12-05,1,,,,,シュンエイ,0
1919,7180001154085,新規,0,2022-12-05,2022-12-05,株式会社真愛,,株式会社,愛知県,稲沢市,日下部中町４丁目３５番地,,23,220,4928182,,,,,,,2022-12-05,1,,,,,シンアイ,0
1920,7180001154102,新規,0,2022-12-05,2022-12-05,株式会社エイトスリー,,株式会社,愛知県,名古屋市名東区,一社４丁目４７番地の３,,23,115,4650093,,,,,,,2022-12-05,1,,,,,エイトスリー,0
1925,7180003024542,新規,0,2022-12-05,2022-12-05,ＢＹＵＵＵＭ合同会社,,合同会社,愛知県,名古屋市中村区,名駅４丁目２４番５号第２森ビル４０１,,23,105,4500002,,,,,,,2022-12-05,1,,,,,ビューン,0
1926,7180003024559,新規,0,2022-12-05,2022-12-05,合同会社ＳＭＥコンサルティング,,合同会社,愛知県,名古屋市北区,清水２丁目１９番９号１Ｆ,,23,103,4620844,,,,,,,2022-12-05,1,,,,,エスエムイーコンサルティング,0
1927,7180003024567,新規,0,2022-12-05,2022-12-05,合同会社ＴＭコネクト,,合同会社,愛知県,名古屋市港区,川間町１丁目１２０番地,,23,111,4550076,,,,,,,2022-12-05,1,,,,,ティエムコネクト,0
1929,7180303005531,新規,0,2022-12-05,2022-12-05,ＡＩＣ企画合同会社,,合同会社,愛知県,豊川市,大木新町通５丁目７５番地,,23,207,4411207,,,,,,,2022-12-05,1,,,,,エーアイシーキカク,0
1930,7190001029971,新規,0,2022-12-05,2022-12-05,株式会社井山エンタープライズ,,株式会社,三重県,松阪市,垣鼻町５１８番地２カーサ・アルコバレーノ１０１号室,,24,204,5150033,,,,,,,2022-12-05,1,,,,,イヤマエンタープライズ,0
1932,7200001040720,新規,0,2022-12-05,2022-12-05,瑞祥商事株式会社,,株式会社,岐阜県,岐阜市,問屋町４丁目１７番地３Ｆ,,21,201,5008845,,,,,,,2022-12-05,1,,,,,ズイショウショウジ,0
1943,7240001060748,新規,0,2022-12-05,2022-12-05,株式会社アウトパフォーマンス,,株式会社,広島県,広島市西区,打越町１２番１９号朝日プラザ横川駅前３０３号室,,34,104,7330004,,,,,,,2022-12-05,1,,,,,アウトパフォーマンス,0
1945,7240003005916,新規,0,2022-12-05,2022-12-05,合同会社ＨＩＭＡＬＡＹＡ　ＢＲＥＷＩＮＧ＆ＣＯ,,合同会社,広島県,山県郡北広島町,長笹１４９,,34,369,7311713,,,,,,,2022-12-05,1,,,,,ヒマラヤブリューイングアンドカンパニー,0
1960,7290001099781,新規,0,2022-12-05,2022-12-05,株式会社ブリッジコア九州,,株式会社,福岡県,福岡市中央区,渡辺通５丁目１５番１５－８０４号,,40,133,8100004,,,,,,,2022-12-05,1,,,,,ブリッジコアキュウシュウ,0
1967,7320001019455,新規,0,2022-12-05,2022-12-05,株式会社ＣＯＭＲＡＤＥ,,株式会社,大分県,由布市,湯布院町川上３０６４番地１,,44,213,8795102,,,,,,,2022-12-05,1,,,,,コムラッド,0
1970,7330005010590,新規,0,2022-12-05,2022-12-05,ステップ国際協同組合,,その他の設立登記法人,熊本県,熊本市東区,新生２丁目２番１０号ＢＩＬＬＣＯＭ健軍南棟２階２０１号,,43,102,8620908,,,,,,,2022-12-05,1,,,,,ステップコクサイ,0
1975,7340003003983,新規,0,2022-12-05,2022-12-05,合同会社あさひ,,合同会社,鹿児島県,薩摩川内市,勝目町６２７０番地,,46,215,8950031,,,,,,,2022-12-05,1,,,,,アサヒ,0
1980,7370005010562,新規,0,2022-12-05,2022-12-05,医療法人こがね雅会,,その他の設立登記法人,宮城県,塩竈市,旭町５番１０号,,04,203,9850026,,,,,,,2022-12-05,1,,,,,コガネミヤビカイ,0
1985,7410001013333,新規,0,2022-12-05,2022-12-05,ＫＩエステート株式会社,,株式会社,秋田県,秋田市,中通３丁目２番３８号スカイパーク１０２－６０１号,,05,201,0100001,,,,,,,2022-12-05,1,,,,,ケイアイエステート,0
1992,7430001087978,新規,0,2022-12-05,2022-12-05,株式会社Ｋ’ｓ　ＢＩＫＥ　ＢＡＳＥ,,株式会社,北海道,札幌市手稲区,西宮の沢四条３丁目１番２０号,,01,109,0060004,,,,,,,2022-12-05,1,,,,,ケーズバイクベース,0
1993,7430001087986,新規,0,2022-12-05,2022-12-05,株式会社ＡＰＩＣ,,株式会社,北海道,札幌市中央区,南十三条西１丁目２番１０－６０４号,,01,101,0640913,,,,,,,2022-12-05,1,,,,,エーピーアイシー,0
2001,7470001019366,新規,0,2022-12-05,2022-12-05,株式会社水月鏡花,,株式会社,香川県,高松市,多賀町３丁目８番７号,,37,201,7600063,,,,,,,2022-12-05,1,,,,,スイゲツキョウカ,0
2006,7700150113160,新規,0,2022-12-05,2022-11-30,いわせふるさとづくり実行委員会,,その他,福島県,須賀川市,柱田字中地２５,,07,207,9620302,,,,,,,2022-11-30,1,,,,,イワセフルサトヅクリジツコウイインカイ,0
2007,7700150113243,新規,0,2022-12-05,2022-12-05,ＡＲＣＨ　ＣＯＲＰＯＲＡＴＥ　ＭＥＭＢＥＲ（ＮＯ．４）ＬＩＭＩＴＥＤ,,外国会社等,東京都,千代田区,霞が関３丁目２－６東京倶楽部ビルディング６階　ロイズジャパン株式会社内,,13,101,1000013,Ｏｎｅ　Ｌｉｍｅ　Ｓｔｒｅｅｔ　Ｌｏｎｄｏｎ　ＥＣ３Ｍ　７ＨＡ　ＵＫ,,,,,,2022-12-05,1,,,,,アーチコーポレートメンバーナンバーフオーリミテツド,0
2008,7700150113251,新規,0,2022-12-05,2022-12-05,ｓｈｅｎｚｈｅｎｗａｎｓｈｉｔｏｎｇｋｅｊｉｙｏｕｘｉａｎｇｏｎｇｓｉ,,外国会社等,,,,,,,,Ｒｏｏｍ　１４６０，Ｈａｎｇｄｕ　Ｂｕｉｌｄｉｎｇ，Ｎｏ．１００６，Ｈｕａｆｕ　Ｒｏａｄ，Ｈｕａｑｉａｎｇｂｅｉ　Ｓｔｒｅｅｔ，Ｆｕｔｉａｎ　Ｄｉｓｔｒｉｃｔ，Ｓｈｅｎｚｈｅｎ，Ｇｕａｎｇｄｏｎｇ，Ｃｈｉｎａ,,,,,,2022-12-05,1,,,,,シンセンワンシトンケイジユウシィアンゴンスー,0
2015,8010001231247,新規,0,2022-12-05,2022-12-05,株式会社ＭＨＭホールディングス,,株式会社,東京都,中央区,新川２丁目６番４号,,13,102,1040033,,,,,,,2022-12-05,1,,,,,エムエイチエムホールディングス,0
2016,8010001231263,新規,0,2022-12-05,2022-12-05,株式会社ＳＴＯＣＫ１１４,,株式会社,東京都,千代田区,永田町２丁目１２番４号,,13,101,1000014,,,,,,,2022-12-05,1,,,,,ストックヒャクジュウヨン,0
2017,8010001231271,新規,0,2022-12-05,2022-12-05,株式会社Ｐｉｅｒｒｅ　Ｂｒｕｔ,,株式会社,東京都,中央区,日本橋中洲２番１号ミスモ水天宮５０３号室,,13,102,1030008,,,,,,,2022-12-05,1,,,,,ピュアブルーツ,0
2018,8010001231288,新規,0,2022-12-05,2022-12-05,株式会社平河町オートリースアルファ,,株式会社,東京都,千代田区,平河町１丁目６番１５号株式会社シルスフィア会計事務所内,,13,101,1020093,,,,,,,2022-12-05,1,,,,,ヒラカワチョウオートリースアルファ,0
2019,8010001231296,新規,0,2022-12-05,2022-12-05,株式会社ＡＡＩ０２,,株式会社,東京都,中央区,日本橋２丁目１番１８号,,13,102,1030027,,,,,,,2022-12-05,1,,,,,エーエーアイゼロニ,0
2020,8010001231305,新規,0,2022-12-05,2022-12-05,株式会社ＡＡＩ１１,,株式会社,東京都,中央区,日本橋２丁目１番１８号,,13,102,1030027,,,,,,,2022-12-05,1,,,,,エーエーアイイチイチ,0
2027,8010003039201,新規,0,2022-12-05,2022-12-05,Ａ‐Ｔａｂｉｊｉ合同会社,,合同会社,東京都,中央区,銀座１丁目１２番４号Ｎ＆ＥＢＬＤ．７階,,13,102,1040061,,,,,,,2022-12-05,1,,,,,エータビジ,0
2036,8010401171126,新規,0,2022-12-05,2022-12-05,株式会社リバイバルグッドフード,,株式会社,東京都,港区,高輪４丁目１９番８－３０２号,,13,103,1080074,,,,,,,2022-12-05,1,,,,,リバイバルグッドフード,0
2037,8010401171150,新規,0,2022-12-05,2022-12-05,株式会社ＤＥＬＩＳＨ,,株式会社,東京都,港区,南青山３丁目１番３６号青山丸竹ビル６Ｆ,,13,103,1070062,,,,,,,2022-12-05,1,,,,,デリッシュ,0
2039,8010403029058,新規,0,2022-12-05,2022-12-05,合同会社ワイエイチ,,合同会社,東京都,港区,芝２丁目１番２５－４０３号,,13,103,1050014,,,,,,,2022-12-05,1,,,,,ワイエイチ,0
2040,8010403029066,新規,0,2022-12-05,2022-12-05,ライズツー合同会社,,合同会社,東京都,港区,虎ノ門３丁目２２番１０－２０１号,,13,103,1050001,,,,,,,2022-12-05,1,,,,,ライズツー,0
2043,8010501049701,新規,0,2022-12-05,2022-12-05,株式会社ＨＫＭ,,株式会社,東京都,台東区,浅草橋２丁目１３番８号,,13,106,1110053,,,,,,,2022-12-05,1,,,,,エイチケイエム,0
2044,8010503006799,新規,0,2022-12-05,2022-12-05,合同会社ＸＥＮＯ　ｓｔａｒｔｕｐ　ｓｔｕｄｉｏ　Ｊａｐａｎ　ｔｗｅｎｔｙ　ｔｈｉｒｔｙ　Ｅｘｐｉｒｅ,,合同会社,東京都,台東区,上野１丁目１１番９号イマスサニービル７階ＪＴＡ内,,13,106,1100005,,,,,,,2022-12-05,1,,,,,ゼノスタートアップスタジオジャパントゥエンティサーティイクスパイア,0
2048,8010701043553,新規,0,2022-12-05,2022-12-05,株式会社Ｈ．Ｗ．,,株式会社,東京都,品川区,大崎５丁目７番３号,,13,109,1410032,,,,,,,2022-12-05,1,,,,,エイチダブル,0
2049,8010701043561,新規,0,2022-12-05,2022-12-05,株式会社ビズリンクウェルビーイング,,株式会社,東京都,品川区,西五反田７丁目１番１０号Ｕ’ｓ－１ビル８階,,13,109,1410031,,,,,,,2022-12-05,1,,,,,ビズリンクウェルビーイング,0
2050,8010801033479,新規,0,2022-12-05,2022-12-05,城南住設株式会社,,株式会社,東京都,大田区,中央１丁目４番１７号リビングフィールド２Ｆ,,13,111,1430024,,,,,,,2022-12-05,1,,,,,ジョウナンジュウセツ,0
2057,8011001151261,新規,0,2022-12-05,2022-12-05,株式会社ＡＬＥＸ　Ａｄｖｉｓｏｒｙ,,株式会社,東京都,渋谷区,恵比寿西１丁目２１番３－３０１号,,13,113,1500021,,,,,,,2022-12-05,1,,,,,アレックスアドバイザリー,0
2058,8011001151278,新規,0,2022-12-05,2022-12-05,株式会社ＷＥＬＬＰＯＲＴ,,株式会社,東京都,渋谷区,本町４丁目１０番７号キャピタル西新宿１号棟２０２,,13,113,1510071,,,,,,,2022-12-05,1,,,,,ウェルポート,0
2061,8011101101026,新規,0,2022-12-05,2022-12-05,株式会社トラストフォラル,,株式会社,東京都,新宿区,西新宿２丁目１番１号新宿三井ビルディング４９階,,13,104,1600023,,,,,,,2022-12-05,1,,,,,トラストフォラル,0
2062,8011101101059,新規,0,2022-12-05,2022-12-05,ライズエンスターク株式会社,,株式会社,東京都,新宿区,愛住町４－２４前川荘２－Ａ,,13,104,1600005,,,,,,,2022-12-05,1,,,,,ライズエンスターク,0
2063,8011101101067,新規,0,2022-12-05,2022-12-05,株式会社ＳＯＬＡＲ,,株式会社,東京都,新宿区,歌舞伎町１丁目２番３号,,13,104,1600021,,,,,,,2022-12-05,1,,,,,ソラール,0
2064,8011103012452,新規,0,2022-12-05,2022-12-05,合同会社ワンイースト,,合同会社,東京都,新宿区,改代町３３番地１,,13,104,1620802,,,,,,,2022-12-05,1,,,,,ワンイースト,0
2065,8011103012460,新規,0,2022-12-05,2022-12-05,合同会社シグナルレッド,,合同会社,東京都,新宿区,西新宿３丁目３番１３号西新宿水間ビル２Ｆ,,13,104,1600023,,,,,,,2022-12-05,1,,,,,シグナルレッド,0
2066,8011301028283,新規,0,2022-12-05,2022-12-05,日本光譜科技株式会社,,株式会社,東京都,杉並区,梅里２丁目２５番１３号高円寺プラザ２１１号,,13,115,1660011,,,,,,,2022-12-05,1,,,,,ニホンコウフカギ,0
2068,8011401024744,新規,0,2022-12-05,2022-12-05,株式会社隼建設,,株式会社,東京都,板橋区,四葉２丁目１１番３号,,13,119,1750084,,,,,,,2022-12-05,1,,,,,ハヤブサケンセツ,0
2071,8011601026409,新規,0,2022-12-05,2022-12-05,株式会社ＡＮＣＥ,,株式会社,東京都,練馬区,関町南１丁目４番５０号,,13,120,1770053,,,,,,,2022-12-05,1,,,,,アンス,0
2072,8011603003760,新規,0,2022-12-05,2022-12-05,合同会社エヴァンス,,合同会社,東京都,練馬区,富士見台２丁目２６－１４アーバンステージ富士見台１０３号,,13,120,1770034,,,,,,,2022-12-05,1,,,,,エヴァンス,0
2074,8011701025839,新規,0,2022-12-05,2022-12-05,コネクト株式会社,,株式会社,東京都,江戸川区,中葛西８丁目１３番２７号第２アーバンホームアラタ１０２,,13,123,1340083,,,,,,,2022-12-05,1,,,,,コネクト,0
2082,8012803002940,新規,0,2022-12-05,2022-12-05,Ｗ‐ＬＩＮＫ合同会社,,合同会社,東京都,日野市,多摩平２丁目１２－２山崎ビル,,13,212,1910062,,,,,,,2022-12-05,1,,,,,ダブルリンク,0
2092,8021001077613,新規,0,2022-12-05,2022-12-05,アクセル株式会社,,株式会社,神奈川県,三浦市,初声町和田１６６０番地１２,,14,210,2380114,,,,,,,2022-12-05,1,,,,,アクセル,0
2093,8021001077621,新規,0,2022-12-05,2022-12-05,株式会社ｂｒｏａｄ,,株式会社,神奈川県,藤沢市,鵠沼花沢町１番１６号,,14,205,2510023,,,,,,,2022-12-05,1,,,,,ブロード,0
2094,8021001077638,新規,0,2022-12-05,2022-12-05,株式会社かなちょく,,株式会社,神奈川県,大和市,上草柳６丁目２１番８号,,14,213,2420029,,,,,,,2022-12-05,1,,,,,カナチョク,0
2097,8021003012444,新規,0,2022-12-05,2022-12-05,合同会社つきよコネクト,,合同会社,神奈川県,相模原市緑区,橋本６丁目２７番１号,,14,151,2520143,,,,,,,2022-12-05,1,,,,,ツキヨコネクト,0
2098,8021003012460,新規,0,2022-12-05,2022-12-05,７．２０合同会社,,合同会社,神奈川県,綾瀬市,落合南１丁目３番２４号ゴールドスター１０２,,14,218,2521115,,,,,,,2022-12-05,1,,,,,ナナガツハツカ,0
2099,8021003012469,新規,0,2022-12-05,2022-12-05,アブーリン合同会社,,合同会社,神奈川県,厚木市,三田南３丁目１５番地２７スマイルハウス第２－１１０号室,,14,212,2430217,,,,,,,2022-12-05,1,,,,,アブーリン,0
2108,8040001126080,新規,0,2022-12-05,2022-12-05,株式会社ＬＩＫＥ　ＦＯＲ　ＬＩＫＥ,,株式会社,千葉県,市川市,堀之内３丁目１３番１２号,,12,203,2720837,,,,,,,2022-12-05,1,,,,,ライクフォアライク,0
2109,8040001126106,新規,0,2022-12-05,2022-12-05,ＭＺＹクリエイション株式会社,,株式会社,千葉県,船橋市,本郷町５９８番地１パークホームズ西船橋本郷町５０４号,,12,204,2730033,,,,,,,2022-12-05,1,,,,,エムズィーワイクリエイション,0
2114,8050003007063,新規,0,2022-12-05,2022-12-05,ＳＡＤ　ＡＶＩＮＤＩ　ＭＯＲＴＯＲＳ合同会社,,合同会社,茨城県,稲敷郡阿見町,うずら野２丁目３０－６０・２階３室,,08,443,3000341,,,,,,,2022-12-05,1,,,,,エスエーディーアビンディモータース,0
2115,8060001035511,新規,0,2022-12-05,2022-12-05,株式会社ＣＯＲＥ,,株式会社,栃木県,栃木市,野中町６６０番地１７,,09,203,3280124,,,,,,,2022-12-05,1,,,,,コア,0
2116,8070003004736,新規,0,2022-12-05,2022-12-05,合同会社上野山瑶泉院不動寺,,合同会社,群馬県,高崎市,飯塚町７４５番地１３,,10,202,3700069,,,,,,,2022-12-05,1,,,,,ジョウヤサンヨウゼンインフドウジ,0
2118,8080001025329,新規,0,2022-12-05,2022-12-05,株式会社タカホ,,株式会社,静岡県,静岡市清水区,江尻東３丁目３番１６号,,22,103,4240815,,,,,,,2022-12-05,1,,,,,タカホ,0
2121,8080103002696,新規,0,2022-12-05,2022-12-05,合同会社創美健,,合同会社,静岡県,富士市,今泉２６６４番地の１７,,22,210,4170001,,,,,,,2022-12-05,1,,,,,ソウビケン,0
2124,8100001035928,新規,0,2022-12-05,2022-12-05,Ｏｇｒｉｃｕｌｔｕｒｅ株式会社,,株式会社,長野県,諏訪市,岡村１丁目１３－８,,20,206,3920005,,,,,,,2022-12-05,1,,,,,オグリカルチャー,0
2126,8110001037155,新規,0,2022-12-05,2022-12-05,株式会社ギム,,株式会社,新潟県,新発田市,新栄町２丁目５番２５号,,15,206,9570063,,,,,,,2022-12-05,1,,,,,ギム,0
2138,8120001250657,新規,0,2022-12-05,2022-12-05,株式会社君和,,株式会社,大阪府,大阪市東住吉区,湯里５丁目１６番地５号３Ｆ－Ａ,,27,121,5460013,,,,,,,2022-12-05,1,,,,,クンワ,0
2139,8120001250748,新規,0,2022-12-05,2022-12-05,Ｐｅｒｆｅｃｔ　Ｖｉｂｅｓ株式会社,,株式会社,大阪府,大阪市西区,新町１丁目１４番２１－３００３号,,27,106,5500013,,,,,,,2022-12-05,1,,,,,パーフェクトバイブス,0
2140,8120001250756,新規,0,2022-12-05,2022-12-05,株式会社ＭＲホールディングス,,株式会社,大阪府,大阪市都島区,都島北通１丁目１番２０号,,27,102,5340014,,,,,,,2022-12-05,1,,,,,エムアールホールディングス,0
2141,8120001250764,新規,0,2022-12-05,2022-12-05,株式会社ｎａｎａ’ｓ　ｃｈｏｉｃｅ,,株式会社,大阪府,大阪市淀川区,三国本町２丁目１３番１４号,,27,123,5320005,,,,,,,2022-12-05,1,,,,,ナナズチョイス,0
2142,8120001250780,新規,0,2022-12-05,2022-12-05,ＤＦＧ株式会社,,株式会社,大阪府,大阪市北区,天神橋５丁目８番２号,,27,127,5300041,,,,,,,2022-12-05,1,,,,,ディーエフジー,0
2145,8120003023012,新規,0,2022-12-05,2022-12-05,振永合同会社,,合同会社,大阪府,大阪市旭区,新森５丁目３番２４号ヴィラース旭４００号室,,27,117,5350022,,,,,,,2022-12-05,1,,,,,シンエイ,0
2148,8120901046816,新規,0,2022-12-05,2022-12-05,株式会社デンスリー,,株式会社,大阪府,高槻市,富田丘町２６番９号,,27,207,5691145,,,,,,,2022-12-05,1,,,,,デンスリー,0
2149,8120903004400,新規,0,2022-12-05,2022-12-05,合同会社ＨＩエステート,,合同会社,大阪府,茨木市,駅前１丁目２番１０号７階,,27,211,5670888,,,,,,,2022-12-05,1,,,,,ハイエステート,0
2152,8122001036441,新規,0,2022-12-05,2022-12-05,トトロ株式会社,,株式会社,大阪府,八尾市,本町５丁目３番１６号シャーメゾン朔２０１号,,27,212,5810003,,,,,,,2022-12-05,1,,,,,トトロ,0
2159,8130001073207,新規,0,2022-12-05,2022-12-05,慕芝株式会社,,株式会社,京都府,京都市中京区,壬生坊城町３３－５－２０１,,26,104,6048804,,,,,,,2022-12-05,1,,,,,ボシ,0
2165,8140001128232,新規,0,2022-12-05,2022-12-05,株式会社ヨシズミ,,株式会社,兵庫県,伊丹市,鴻池５丁目１０番１７号,,28,207,6640006,,,,,,,2022-12-05,1,,,,,ヨシズミ,0
2168,8160001024677,新規,0,2022-12-05,2022-12-05,株式会社Ｍ．Ｍ．Ｃ,,株式会社,滋賀県,大津市,横木２丁目９番１０号,,25,201,5200063,,,,,,,2022-12-05,1,,,,,エムツーコーポレーション,0
2169,8160001024685,新規,0,2022-12-05,2022-12-05,株式会社マル新グループ,,株式会社,滋賀県,草津市,木川町８３５番地３,,25,206,5250051,,,,,,,2022-12-05,1,,,,,マルシングループ,0
2170,8160003002747,新規,0,2022-12-05,2022-12-05,合同会社Ｆｏｒｃｅ,,合同会社,滋賀県,大津市,際川２丁目２０－６,,25,201,5200002,,,,,,,2022-12-05,1,,,,,フォース,0
2177,8180001154019,新規,0,2022-12-05,2022-12-05,株式会社リモーネ,,株式会社,愛知県,名古屋市中区,栄４丁目９番１０号愛信プラザビル２階１２号室,,23,106,4600008,,,,,,,2022-12-05,1,,,,,リモーネ,0
2178,8180001154035,新規,0,2022-12-05,2022-12-05,株式会社ステラ,,株式会社,愛知県,名古屋市中村区,鳥居通２丁目３８番地,,23,105,4530044,,,,,,,2022-12-05,1,,,,,ステラ,0
2179,8180001154043,新規,0,2022-12-05,2022-12-05,株式会社森鋼,,株式会社,愛知県,名古屋市南区,本城町３丁目３４番地の３,,23,112,4570053,,,,,,,2022-12-05,1,,,,,モリコウ,0
2180,8180001154051,新規,0,2022-12-05,2022-12-05,株式会社Ｌｉｆｅ　ｉｓ,,株式会社,愛知県,名古屋市中村区,名楽町２丁目３４番地,,23,105,4530024,,,,,,,2022-12-05,1,,,,,ライフイズ,0
2181,8180001154068,新規,0,2022-12-05,2022-12-05,晴陽デンキ株式会社,,株式会社,愛知県,稲沢市,天池金山町５４番地１,,23,220,4928278,,,,,,,2022-12-05,1,,,,,セイヨウデンキ,0
2182,8180001154076,新規,0,2022-12-05,2022-12-05,株式会社ＡＮＮグループ,,株式会社,愛知県,海部郡蟹江町,宝２丁目２５２番地,,23,425,4970030,,,,,,,2022-12-05,1,,,,,エイエヌエヌグループ,0
2183,8180001154092,新規,0,2022-12-05,2022-12-05,五勝工業株式会社,,株式会社,愛知県,名古屋市中区,千代田１丁目５番１１号,,23,106,4600012,,,,,,,2022-12-05,1,,,,,ゴショウコウギョウ,0
2190,8180003024566,新規,0,2022-12-05,2022-12-05,ＢＡＮ　ＤＥＳＩＧＮ合同会社,,合同会社,愛知県,尾張旭市,緑町緑ケ丘１００番地２６４,,23,226,4880822,,,,,,,2022-12-05,1,,,,,バンデザイン,0
2191,8180301036874,新規,0,2022-12-05,2022-12-05,株式会社ＡＢコンサルタント,,株式会社,愛知県,刈谷市,東刈谷町３丁目１２番地８,,23,210,4480807,,,,,,,2022-12-05,1,,,,,エイビーコンサルタント,0
2192,8190001029979,新規,0,2022-12-05,2022-12-05,株式会社メイショウ,,株式会社,三重県,四日市市,別名４丁目１０番１９号,,24,202,5100007,,,,,,,2022-12-05,1,,,,,メイショウ,0
2193,8190001029987,新規,0,2022-12-05,2022-12-05,ＬｏｔＷｉｄｅ株式会社,,株式会社,三重県,四日市市,富田一色町８番１０号,,24,202,5108004,,,,,,,2022-12-05,1,,,,,ロットワイド,0
2202,8220001025157,新規,0,2022-12-05,2022-12-05,株式会社ＭＯＲＩＳＯ,,株式会社,石川県,金沢市,三ツ屋町イ２２番地４,,17,201,9200214,,,,,,,2022-12-05,1,,,,,モリソウ,0
2206,8240001060730,新規,0,2022-12-05,2022-12-05,株式会社ドアフィールド,,株式会社,広島県,広島市南区,稲荷町１番１１号,,34,103,7320827,,,,,,,2022-12-05,1,,,,,,0
2207,8240001060747,新規,0,2022-12-05,2022-12-05,株式会社ＹＯＵ　ＳＴＹＬＥ,,株式会社,広島県,広島市南区,南大河町３番２２－１０２号,,34,103,7340043,,,,,,,2022-12-05,1,,,,,ユースタイル,0
2208,8240003005907,新規,0,2022-12-05,2022-12-05,合同会社ジーウォールガーデン,,合同会社,広島県,広島市佐伯区,五月が丘５丁目１９番１０号,,34,108,7315101,,,,,,,2022-12-05,1,,,,,ジーウォールガーデン,0
2209,8240003005915,新規,0,2022-12-05,2022-12-05,ｉＬｏｏＰ合同会社,,合同会社,広島県,広島市中区,橋本町３－２１－６０１,,34,101,7300015,,,,,,,2022-12-05,1,,,,,アイループ,0
2213,8280003001670,新規,0,2022-12-05,2022-12-05,合同会社フルスロットル,,合同会社,島根県,松江市,東出雲町春日１８２番２号,,32,201,6990106,,,,,,,2022-12-05,1,,,,,,0
2216,8290001099780,新規,0,2022-12-05,2022-12-05,アクセスオオホリ株式会社,,株式会社,福岡県,福岡市中央区,草香江２丁目１１番２７号,,40,133,8100045,,,,,,,2022-12-05,1,,,,,アクセスオオホリ,0
2217,8290003013285,新規,0,2022-12-05,2022-12-05,合同会社ＦＵＮＯＲ,,合同会社,福岡県,福岡市城南区,別府３丁目１２番７－３０８号,,40,136,8140104,,,,,,,2022-12-05,1,,,,,ファノア,0
2219,8290801029103,新規,0,2022-12-05,2022-12-05,株式会社ＳＨＩＮＳＥＩ,,株式会社,福岡県,遠賀郡芦屋町,船頭町９番３６号,,40,381,8070121,,,,,,,2022-12-05,1,,,,,シンセイ,0
2226,8320001019438,新規,0,2022-12-05,2022-12-05,株式会社大興商会,,株式会社,大分県,別府市,汐見町３番２０号,,44,202,8740918,,,,,,,2022-12-05,1,,,,,ダイコウショウカイ,0
2227,8320001019454,新規,0,2022-12-05,2022-12-05,株式会社Ｆｉｅｌｄｓ,,株式会社,大分県,由布市,湯布院町川上３０６４番地１,,44,213,8795102,,,,,,,2022-12-05,1,,,,,フィールズ,0
2229,8340001025211,新規,0,2022-12-05,2022-12-05,株式会社ベリーのおうち,,株式会社,鹿児島県,鹿屋市,札元２丁目３７５８番地２１,,46,203,8930013,,,,,,,2022-12-05,1,,,,,ベリーノオウチ,0
2230,8340005009532,新規,0,2022-12-05,2022-12-05,一般社団法人鹿児島県空手道連盟,,その他の設立登記法人,鹿児島県,鹿児島市,鴨池２丁目３０番８号,,46,201,8900063,,,,,,,2022-12-05,1,,,,,カゴシマケンカラテドウレンメイ,0
2231,8350001018065,新規,0,2022-12-05,2022-12-05,株式会社ＯＬＣ,,株式会社,宮崎県,西都市,妻町１丁目９番,,45,208,8810034,,,,,,,2022-12-05,1,,,,,オーエルシー,0
2233,8360001031281,新規,0,2022-12-05,2022-12-05,株式会社沖縄テクノ,,株式会社,沖縄県,沖縄市,泡瀬２丁目５番２１号,,47,211,9042172,,,,,,,2022-12-05,1,,,,,オキナワテクノ,0
2236,8370001049323,新規,0,2022-12-05,2022-12-05,創新株式会社,,株式会社,宮城県,塩竈市,藤倉３丁目１６番３６号藤倉アパートＢ号,,04,203,9850004,,,,,,,2022-12-05,1,,,,,ソウシン,0
2243,8410001013332,新規,0,2022-12-05,2022-12-05,株式会社コンフィディンス,,株式会社,秋田県,秋田市,大住南３丁目１６番１７号,,05,201,0101420,,,,,,,2022-12-05,1,,,,,コンフィディンス,0
2245,8430001087944,新規,0,2022-12-05,2022-12-05,株式会社Ｈ２ｏｎｅ,,株式会社,北海道,札幌市中央区,南十五条西１２丁目１番１８－４０２号,,01,101,0640915,,,,,,,2022-12-05,1,,,,,エイチツーワン,0
2246,8430001087977,新規,0,2022-12-05,2022-12-05,Ｃ．Ｓシンシア株式会社,,株式会社,北海道,小樽市,稲穂３丁目１１番１号小樽中央市場ビル１棟,,01,203,0470032,,,,,,,2022-12-05,1,,,,,シーエスシンシア,0
2249,8430003014509,新規,0,2022-12-05,2022-12-05,鵜山クリエイティブ合同会社,,合同会社,北海道,札幌市豊平区,豊平四条３丁目１番１号,,01,105,0620904,,,,,,,2022-12-05,1,,,,,ウヤマクリエイティブ,0
2251,8700150029513,新規,0,2022-12-05,2015-10-09,山田区収益事業部,,その他,兵庫県,豊岡市,日高町山田７１０,,28,209,6695377,,,,,,,2015-10-09,1,,,,,ヤマタクシユウエキジギヨウブ,0
2252,8700150113242,新規,0,2022-12-05,2022-12-05,Ａｓｅｎｓｕｓ　Ｓｕｒｇｉｃａｌ　Ｅｕｒｏｐｅ　Ｓ．ａ．ｒ．ｌ．　Ｓｗｉｓｓ　Ｂｒａｎｃｈ,,外国会社等,東京都,千代田区,麹町１丁目３番地５,,13,101,1020083,Ｖｉａ　Ｓｅｒａｆｉｎｏ　Ｂａｌｅｓｔｒａ　１２，６９００　Ｌｕｇａｎｏ，Ｓｗｉｔｚｅｒｌａｎｄ,,,,,,2022-12-05,1,,,,,アセンサスサージカルヨーロツパサールスイスブランチ,0
2253,8700150113250,新規,0,2022-12-05,2022-12-05,ｇｕａｎｇｚｈｏｕｓｈｉｊｉｓｈｅｎｇｍａｏｙｉｙｏｕｘｉａｎｇｏｎｇｓｉ,,外国会社等,,,,,,,,Ｘｉｎｔａｎｇ　Ｔｏｗｎ，Ｒｏｏｍ　５１６，５ｔｈ　Ｆｌｏｏｒ，Ｎｏ．６２－２，Ｍａｏｓｈａｎ　Ａｖｅｎｕｅ（Ｐｌａｎｔ　Ａ２），Ｇｕａｎｇｚｈｏｕ　Ｃｉｔｙ，Ｚｈｅｎｇｃｈｅｎｇ　Ｄｉｓｔｒｉｃｔ，Ｇｕａｎｇｄｏｎｇ　Ｐｒｏｖｉｎｃｅ，Ｃｈｉｎａ,,,,,,2022-12-05,1,,,,,コウシュウセキセイマオイユウシィアンゴンスー,0
2262,9010001231130,新規,0,2022-12-05,2022-12-05,株式会社ベルミーリレーション,,株式会社,東京都,千代田区,神田錦町３丁目１９番５号廣瀬第３ビル７階,,13,101,1010054,,,,,,,2022-12-05,1,,,,,ベルミーリレーション,0
2263,9010001231246,新規,0,2022-12-05,2022-12-05,アンジェリカラボラトリー株式会社,,株式会社,東京都,千代田区,飯田橋１丁目１２－１６福岡ビル３階,,13,101,1020072,,,,,,,2022-12-05,1,,,,,アンジェリカラボラトリー,0
2264,9010001231254,新規,0,2022-12-05,2022-12-05,株式会社Ｒｅ．ＮＥＸＡＣＥ,,株式会社,東京都,中央区,入船３丁目９番５号Ｋｕｎｓｈｉ－ｒＡｎ００４号,,13,102,1040042,,,,,,,2022-12-05,1,,,,,リネクサス,0
2265,9010001231262,新規,0,2022-12-05,2022-12-05,株式会社ＳＴＯＣＫ１１３,,株式会社,東京都,千代田区,永田町２丁目１２番４号,,13,101,1000014,,,,,,,2022-12-05,1,,,,,ストックヒャクジュウサン,0
2266,9010001231270,新規,0,2022-12-05,2022-12-05,株式会社ＴＢ　ｉｎｖｅｓｔｍｅｎｔｓ,,株式会社,東京都,文京区,目白台１丁目８番５－２０１号,,13,105,1120015,,,,,,,2022-12-05,1,,,,,ティービーインベストメンツ,0
2267,9010001231287,新規,0,2022-12-05,2022-12-05,株式会社Ｊ３,,株式会社,東京都,千代田区,平河町１丁目４番１４号ＶＯＲＴ麹町ＩＩ３階,00128677,13,101,1020093,,,,,,,2022-12-05,1,,,,,ジェイスリー,0
2268,9010001231304,新規,0,2022-12-05,2022-12-05,株式会社ＡＡＩ１０,,株式会社,東京都,中央区,日本橋２丁目１番１８号,,13,102,1030027,,,,,,,2022-12-05,1,,,,,エーエーアイイチゼロ,0
2269,9010001231329,新規,0,2022-12-05,2022-12-05,株式会社ｉｃｏｍｐａｎｉｅｓ,,株式会社,東京都,中央区,日本橋人形町２丁目３２－９－７０１,,13,102,1030013,,,,,,,2022-12-05,1,,,,,アイカンパニーズ,0
2270,9010005035858,新規,0,2022-12-05,2022-12-05,東京オフィス・アイヴィー１一般社団法人,,その他の設立登記法人,東京都,千代田区,丸の内３丁目１番１号東京共同会計事務所内,,13,101,1000005,,,,,,,2022-12-05,1,,,,,トウキョウオフィスアイヴィーワン,0
2283,9010401171083,新規,0,2022-12-05,2022-12-05,ＡＴＥＬＡＳ株式会社,,株式会社,東京都,港区,白金台４丁目８－７－１１０６,,13,103,1080071,,,,,,,2022-12-05,1,,,,,アテラス,0
2284,9010401171141,新規,0,2022-12-05,2022-12-05,株式会社Ｐｒｅｃｉｏｕｓ　ｒｅｎｏｖａｔｉｏｎ,,株式会社,東京都,港区,南麻布４丁目１４番２号ＬＡＺ南麻布ビル４階,,13,103,1060047,,,,,,,2022-12-05,1,,,,,プレシャスリノベーション,0
2286,9010403029065,新規,0,2022-12-05,2022-12-05,ライズワン合同会社,,合同会社,東京都,港区,虎ノ門３丁目２２番１０－２０１号,,13,103,1050001,,,,,,,2022-12-05,1,,,,,ライズワン,0
2289,9010701043544,新規,0,2022-12-05,2022-12-05,株式会社ゲッチュ,,株式会社,東京都,品川区,東大井２丁目２８番２号野口ビル３０２,,13,109,1400011,,,,,,,2022-12-05,1,,,,,ゲッチュ,0
2290,9010701043569,新規,0,2022-12-05,2022-12-05,ワールドブリッジ株式会社,,株式会社,東京都,品川区,西五反田２丁目１３番１－６０６号,,13,109,1410031,,,,,,,2022-12-05,1,,,,,ワールドブリッジ,0
2291,9010701043577,新規,0,2022-12-05,2022-12-05,株式会社ＵＴＴＡ,,株式会社,東京都,品川区,旗の台６丁目７番１２－２０６号,,13,109,1420064,,,,,,,2022-12-05,1,,,,,ウッタ,0
2294,9010801033478,新規,0,2022-12-05,2022-12-05,株式会社ベジＯＮＥ,,株式会社,東京都,大田区,東海３丁目９番１１号ＳＲＫビル３階Ｂ,,13,111,1430001,,,,,,,2022-12-05,1,,,,,ベジワン,0
2296,9010805002990,新規,0,2022-12-05,2022-12-05,社会保険労務士法人コントレイル,,その他の設立登記法人,東京都,大田区,山王２丁目１番８号アーバンライフ３Ｆ,,13,111,1430023,,,,,,,2022-12-05,1,,,,,コントレイル,0
2301,9011001151269,新規,0,2022-12-05,2022-12-05,株式会社ＪＩＫＩＴＡ２,,株式会社,東京都,渋谷区,渋谷３丁目１５番３号,,13,113,1500002,,,,,,,2022-12-05,1,,,,,ジキタツー,0
2302,9011001151302,新規,0,2022-12-05,2022-12-05,ＬＡＰＩＴＡ株式会社,,株式会社,東京都,渋谷区,鶯谷町７番１－７０７号,,13,113,1500032,,,,,,,2022-12-05,1,,,,,ラピタ,0
2306,9011103012451,新規,0,2022-12-05,2022-12-05,ｓａｎｄｓｔｏｒｍ合同会社,,合同会社,東京都,新宿区,西新宿１丁目４－１１全研プラザ,,13,104,1600023,,,,,,,2022-12-05,1,,,,,サンドストーム,0
2307,9011201024266,新規,0,2022-12-05,2022-12-05,株式会社Ｒａｍｂｏ,,株式会社,東京都,中野区,鷺宮４丁目３１番２号,,13,114,1650032,,,,,,,2022-12-05,1,,,,,ランボー,0
2312,9011403003836,新規,0,2022-12-05,2022-12-05,ステラリスクコンサルティング合同会社,,合同会社,東京都,板橋区,東坂下１丁目１４番２－３０７号レクセルガーデン志村坂上,,13,119,1740042,,,,,,,2022-12-05,1,,,,,ステラリスクコンサルティング,0
2314,9011501028727,新規,0,2022-12-05,2022-12-05,株式会社シーライオン,,株式会社,東京都,荒川区,西尾久４丁目８番９－７０１号,,13,118,1160011,,,,,,,2022-12-05,1,,,,,シーライオン,0
2318,9012401039938,新規,0,2022-12-05,2022-12-05,株式会社ＨＩＣ,,株式会社,東京都,稲城市,百村１６０７番地の１,,13,225,2060804,,,,,,,2022-12-05,1,,,,,エイチアイシー,0
2319,9012703002593,新規,0,2022-12-05,2022-12-05,ＲＡ＆Ｃｏｍｐａｎｙ合同会社,,合同会社,東京都,清瀬市,下清戸５丁目７９８番地２４,,13,221,2040011,,,,,,,2022-12-05,1,,,,,アールエーアンドカンパニー,0
2320,9013101009066,新規,0,2022-12-05,2022-12-05,株式会社聖翔,,株式会社,東京都,西多摩郡瑞穂町,長岡４丁目６番地１３,,13,303,1901232,,,,,,,2022-12-05,1,,,,,セイショウ,0
2325,9020001149207,新規,0,2022-12-05,2022-12-05,株式会社ホテルモリノ,,株式会社,神奈川県,川崎市麻生区,上麻生１丁目１番１号,,14,137,2150021,,,,,,,2022-12-05,1,,,,,ホテルモリノ,0
2326,9020001149223,新規,0,2022-12-05,2022-12-05,スカイ株式会社,,株式会社,神奈川県,川崎市幸区,小向西町４丁目１３５番地,,14,132,2120004,,,,,,,2022-12-05,1,,,,,スカイ,0
2327,9020001149264,新規,0,2022-12-05,2022-12-05,株式会社まほろば,,株式会社,神奈川県,横浜市栄区,飯島町９４番地の１飯島第一ビル２０５号室,,14,115,2440842,,,,,,,2022-12-05,1,,,,,マホロバ,0
2328,9020003022840,新規,0,2022-12-05,2022-12-05,合同会社水野デザイン,,合同会社,神奈川県,横浜市緑区,鴨居町２６３２番地２１,,14,113,2260004,,,,,,,2022-12-05,1,,,,,ミズノデザイン,0
2332,9021001077595,新規,0,2022-12-05,2022-12-05,株式会社ＳＴＵＤＩＯ　ＰＬＵＳ　ＬＡＢ．,,株式会社,神奈川県,鎌倉市,大船２丁目１８番３２号、２Ｆ,,14,204,2470056,,,,,,,2022-12-05,1,,,,,スタジオプラスラボ,0
2333,9021001077604,新規,0,2022-12-05,2022-12-05,株式会社ヤジルシ,,株式会社,神奈川県,逗子市,小坪１丁目８番１１号,,14,208,2490008,,,,,,,2022-12-05,1,,,,,ヤジルシ,0
2334,9021001077612,新規,0,2022-12-05,2022-12-05,株式会社ＬａｎｇｕａｇｅＥＹＥ,,株式会社,神奈川県,足柄上郡大井町,山田７１番地１,,14,362,2580015,,,,,,,2022-12-05,1,,,,,ランゲージアイ,0
2336,9021003012443,新規,0,2022-12-05,2022-12-05,Ｒｉｔａ　ｃｌｕｅ合同会社,,合同会社,神奈川県,藤沢市,南藤沢１２番１２～７０２号,,14,205,2510055,,,,,,,2022-12-05,1,,,,,リタクルー,0
2347,9030001151319,新規,0,2022-12-05,2022-12-05,ＨＥＡＬメディカル株式会社,,株式会社,埼玉県,ふじみ野市,上福岡３丁目３番８号,,11,245,3560004,,,,,,,2022-12-05,1,,,,,ヒールメディカル,0
2348,9030001151335,新規,0,2022-12-05,2022-12-05,株式会社ゼノ・スパーク,,株式会社,埼玉県,三郷市,早稲田２丁目２０番地１１,,11,237,3410018,,,,,,,2022-12-05,1,,,,,ゼノスパーク,0
2356,9040001126105,新規,0,2022-12-05,2022-12-05,株式会社Ｅｌｌｅｎ　Ｂｒａｎｄｉｎｇ　Ｌａｂｏ,,株式会社,千葉県,市原市,八幡１２６３－８ＳＩＥＳＴＡ仲町１０１,,12,219,2900062,,,,,,,2022-12-05,1,,,,,エレンブランディングラボ,0
2366,9060001035502,新規,0,2022-12-05,2022-12-05,株式会社ジャムアンドオハナ,,株式会社,栃木県,宇都宮市,さつき２丁目１４番１号,,09,201,3210141,,,,,,,2022-12-05,1,,,,,ジャムアンドオハナ,0
2372,9080401026181,新規,0,2022-12-05,2022-12-05,耐成株式会社,,株式会社,静岡県,浜松市東区,原島町２９０番地の５,,22,132,4350047,,,,,,,2022-12-05,1,,,,,タイセイ,0
2373,9080403004672,新規,0,2022-12-05,2022-12-05,リプロニーズ合同会社,,合同会社,静岡県,浜松市中区,富塚町９１９番地の１５５,,22,131,4328002,,,,,,,2022-12-05,1,,,,,リプロニーズ,0
2374,9090003002209,新規,0,2022-12-05,2022-12-05,ペリカンオフィス合同会社,,合同会社,山梨県,北杜市,小淵沢町９２５番地１,,19,209,4080044,,,,,,,2022-12-05,1,,,,,ペリカンオフィス,0
2379,9100001035893,新規,0,2022-12-05,2022-12-05,追分商事株式会社,,株式会社,長野県,北佐久郡軽井沢町,大字長倉４５８８番地１,,20,321,3890111,,,,,,,2022-12-05,1,,,,,オイワケショウジ,0
2380,9100001035927,新規,0,2022-12-05,2022-12-05,株式会社ｈａｌｆ　ａｎｄ　ｈａｌｆ,,株式会社,長野県,長野市,大字高田１１４２番地１０,,20,201,3810034,,,,,,,2022-12-05,1,,,,,ハーフアンドハーフ,0
2382,9110001037154,新規,0,2022-12-05,2022-12-05,株式会社ＩＭＡ,,株式会社,新潟県,新潟市北区,太田甲２８６４番地,,15,101,9503313,,,,,,,2022-12-05,1,,,,,アイエムエー,0
2389,9120001250706,新規,0,2022-12-05,2022-12-05,サワナミソリューションズジャパン株式会社,,株式会社,大阪府,大阪市中央区,北久宝寺町３丁目６番１号本町南ガーデンシティ７階,,27,128,5410057,,,,,,,2022-12-05,1,,,,,サワナミソリューションズジャパン,0
2390,9120001250796,新規,0,2022-12-05,2022-12-05,株式会社ＧＡＮ,,株式会社,大阪府,大阪市淀川区,西中島６丁目２番３号チサンマンション第７新大阪１０２１号,,27,123,5320011,,,,,,,2022-12-05,1,,,,,ジーエーエヌ,0
2391,9120001250813,新規,0,2022-12-05,2022-12-05,株式会社オールケアプロ,,株式会社,大阪府,守口市,本町１丁目６番１３号,,27,209,5700028,,,,,,,2022-12-05,1,,,,,オールケアプロ,0
2397,9120101066622,新規,0,2022-12-05,2022-12-05,株式会社よくつく,,株式会社,大阪府,堺市南区,豊田７２３番地９,,27,145,5900106,,,,,,,2022-12-05,1,,,,,ヨクツク,0
2402,9120901046815,新規,0,2022-12-05,2022-12-05,株式会社フォーリライズ,,株式会社,大阪府,茨木市,藤の里１丁目８番５０３号,,27,211,5670054,,,,,,,2022-12-05,1,,,,,フォーリライズ,0
2403,9120901046823,新規,0,2022-12-05,2022-12-05,ＡＴＳＵＫＩ　ＦＯＲＴＵＮＥ株式会社,,株式会社,大阪府,吹田市,泉町５丁目９番１５号,,27,205,5640041,,,,,,,2022-12-05,1,,,,,アツキフォーチュン,0
2406,9122001036473,新規,0,2022-12-05,2022-12-05,株式会社三共建設,,株式会社,大阪府,大東市,灰塚５丁目７番１５号－２０５号室,,27,218,5740043,,,,,,,2022-12-05,1,,,,,サンキョウケンセツ,0
2413,9140001128264,新規,0,2022-12-05,2022-12-05,株式会社るっかぁ,,株式会社,兵庫県,相生市,大石町１３番５号ふこさビル１Ｆ,,28,208,6780005,,,,,,,2022-12-05,1,,,,,ルッカァ,0
2416,9140003018430,新規,0,2022-12-05,2022-12-05,合同会社Ｖｉｇｒａｃｅ,,合同会社,兵庫県,神戸市兵庫区,荒田町１丁目１６－８－Ａ８０３,,28,105,6520032,,,,,,,2022-12-05,1,,,,,ビグレース,0
2425,9160001024676,新規,0,2022-12-05,2022-12-05,大五環整株式会社,,株式会社,滋賀県,草津市,若竹町８番３８号,,25,206,5250031,,,,,,,2022-12-05,1,,,,,ダイゴカンセイ,0
2426,9160001024684,新規,0,2022-12-05,2022-12-05,株式会社バイオサービス,,株式会社,滋賀県,長浜市,西上坂町３５５番地,,25,203,5260803,,,,,,,2022-12-05,1,,,,,バイオサービス,0
2427,9160003002746,新規,0,2022-12-05,2022-12-05,合同会社辻リプラ,,合同会社,滋賀県,高島市,マキノ町中庄２８５番地９,,25,212,5201823,,,,,,,2022-12-05,1,,,,,ツジリプラ,0
2435,9180001154042,新規,0,2022-12-05,2022-12-05,株式会社ＭＪ　Ｃｏｒｐｏｒａｔｉｏｎ,,株式会社,愛知県,一宮市,森本１丁目１番１１号ポテトハイム２０３号,,23,203,4910831,,,,,,,2022-12-05,1,,,,,エムジェイコーポレーション,0
2436,9180001154059,新規,0,2022-12-05,2022-12-05,株式会社Ｈｉｒｏｖａｎｎａ,,株式会社,愛知県,名古屋市中村区,名駅３丁目５番１４号,,23,105,4500002,,,,,,,2022-12-05,1,,,,,ヒロヴァーナ,0
2437,9180001154067,新規,0,2022-12-05,2022-12-05,株式会社ブロッサム・ＩＰ,,株式会社,愛知県,名古屋市中川区,笈瀬町２丁目５８番地の１,,23,110,4540026,,,,,,,2022-12-05,1,,,,,ブロッサムアイピー,0
2438,9180001154083,新規,0,2022-12-05,2022-12-05,株式会社Ｔｈｒｅｅ,,株式会社,愛知県,一宮市,花池２丁目１番３５号４Ｆ,,23,203,4910914,,,,,,,2022-12-05,1,,,,,スリー,0
2439,9180001154100,新規,0,2022-12-05,2022-12-05,株式会社愛弁協サービス,,株式会社,愛知県,名古屋市中区,三の丸１丁目４番２号,,23,106,4600001,,,,,,,2022-12-05,1,,,,,アイベンキョウサービス,0
2446,9180003024557,新規,0,2022-12-05,2022-12-05,ＮＤＩ合同会社,,合同会社,愛知県,稲沢市,祖父江町桜方善四跡８０６番地８,,23,220,4950015,,,,,,,2022-12-05,1,,,,,エヌディーアイ,0
2447,9180003024565,新規,0,2022-12-05,2022-12-05,イージーホールディングス合同会社,,合同会社,愛知県,小牧市,応時１丁目１４１番地２３,,23,219,4850832,,,,,,,2022-12-05,1,,,,,イージーホールディングス,0
2451,9190001029994,新規,0,2022-12-05,2022-12-05,株式会社高瀬農園,00128673,株式会社,三重県,松阪市,小野江町１１３３番地,,24,204,5152109,,,,,,,2022-12-05,1,,,,,タカセノウエン,0
2452,9200001040727,新規,0,2022-12-05,2022-12-05,株式会社Ｙ＆Ｋ,,株式会社,岐阜県,本巣市,上真桑１６９９番地３,,21,218,5010461,,,,,,,2022-12-05,1,,,,,ワイアンドケー,0
2456,9220001025156,新規,0,2022-12-05,2022-12-05,株式会社ＴＡＭ,,株式会社,石川県,金沢市,近岡町１０３番地１,,17,201,9208217,,,,,,,2022-12-05,1,,,,,タム,0
2463,9240001060738,新規,0,2022-12-05,2022-12-05,株式会社ステラ,,株式会社,広島県,広島市佐伯区,坪井１丁目５番４７‐１‐２０２号,,34,108,7315142,,,,,,,2022-12-05,1,,,,,ステラ,0
2464,9240001060754,新規,0,2022-12-05,2022-12-05,株式会社Ｇｒｏｗ‐ｕｐ,,株式会社,広島県,東広島市,八本松飯田７丁目２番３９－９号,,34,212,7390146,,,,,,,2022-12-05,1,,,,,グローアップ,0
2469,9260001037461,新規,0,2022-12-05,2022-12-05,株式会社良心,,株式会社,岡山県,岡山市北区,柳町２丁目４番６号（柳町ビル）２０３,,33,101,7000904,,,,,,,2022-12-05,1,,,,,リョウシン,0
2481,9290003013284,新規,0,2022-12-05,2022-12-05,ネオアストラ合同会社,,合同会社,福岡県,福岡市博多区,博多駅東１丁目１番３３号,,40,132,8120013,,,,,,,2022-12-05,1,,,,,ネオアストラ,0
2483,9290801029093,新規,0,2022-12-05,2022-12-05,ブルーウェーブ株式会社,,株式会社,福岡県,田川郡香春町,大字香春１００３番地,,40,601,8221406,,,,,,,2022-12-05,1,,,,,ブルーウェーブ,0
2493,9320001019453,新規,0,2022-12-05,2022-12-05,株式会社Ｌｏｃａｌ　Ｆｕｔｕｒｅ　Ｐｌａｎｎｉｎｇ,,株式会社,大分県,由布市,庄内町龍原３６４番地２,,44,213,8795411,,,,,,,2022-12-05,1,,,,,ローカルフューチャープランニング,0
2499,9350001018056,新規,0,2022-12-05,2022-12-05,株式会社ｃａｒｐｅ　ｄｉｅｍ,,株式会社,宮崎県,宮崎市,橘通東４丁目１－４河北ビル１Ｆ,,45,201,8800805,,,,,,,2022-12-05,1,,,,,カルペディエム,0
2500,9350001018064,新規,0,2022-12-05,2022-12-05,株式会社ＧＯＬＤレザー,,株式会社,宮崎県,宮崎市,佐土原町下田島９４４８番地,,45,201,8800211,,,,,,,2022-12-05,1,,,,,ゴールドレザー,0
2508,9370001049347,新規,0,2022-12-05,2022-12-05,株式会社ＭＡＲＯＮ　ＣＡＲＭＥＬ　ＣＯＭＰＡＮＹ,,株式会社,宮城県,仙台市青葉区,花京院２丁目１番６１号オークツリー仙台１Ｆ,,04,101,9800013,,,,,,,2022-12-05,1,,,,,マロンカーメルカンパニー,0
2509,9370005010560,新規,0,2022-12-05,2022-12-05,医療法人リベルラ,,その他の設立登記法人,宮城県,仙台市青葉区,中央２丁目４番１１号水晶堂ビル２Ｆ,,04,101,9800021,,,,,,,2022-12-05,1,,,,,リベルラ,0
2518,9400003003001,新規,0,2022-12-05,2022-12-05,合同会社真樹施工,,合同会社,岩手県,岩手郡雫石町,長山麁台久保１３番地１５,,03,301,0200585,,,,,,,2022-12-05,1,,,,,マサキセコウ,0
2530,9430003014508,新規,0,2022-12-05,2022-12-05,合同会社Ｎｉｃｏ,,合同会社,北海道,札幌市厚別区,もみじ台北２丁目５番１号,,01,108,0040014,,,,,,,2022-12-05,1,,,,,ニコ,0
2532,9440001009194,新規,0,2022-12-05,2022-12-05,株式会社ビリーヴ,,株式会社,北海道,函館市,湯川町２丁目４３番４号,,01,202,0420932,,,,,,,2022-12-05,1,,,,,ビリーヴ,0
2536,9470001019364,新規,0,2022-12-05,2022-12-05,株式会社ＭＤ＆アソシエイツ,,株式会社,香川県,高松市,林町２２１７番地１５香川産業頭脳化センタービル３１６号,,37,201,7610301,,,,,,,2022-12-05,1,,,,,エムディアンドアソシエイツ,0
2537,9470003002293,新規,0,2022-12-05,2022-12-05,ＫＭカンパニー合同会社,,合同会社,香川県,丸亀市,八番丁２９番地２５,,37,202,7630028,,,,,,,2022-12-05,1,,,,,ケーエムカンパニー,0
2544,9700150108101,新規,0,2022-12-05,2022-04-19,あ・うん・ぐるーぷ,,その他,東京都,中央区,日本橋浜町３丁目２０－１１－９０３,,13,102,1030007,,,,,,,2022-04-19,1,,,,,アウングループ,0
2545,9700150112375,新規,0,2022-12-05,2022-10-31,正調津軽三味線プロジェクト,,その他,東京都,品川区,東品川２丁目５－６天王洲ビュータワー１９０８,,13,109,1400002,,,,,,,2022-10-31,1,,,,,セイチヨウツガルジヤミセンプロジエクト,0
