sequenceNumber,corporateNumber,process,correct,updateDate,changeDate,name,nameImageId,kind,prefectureName,cityName,streetNumber,addressImageId,prefectureCode,cityCode,postCode,addressOutside,addressOutsideImageId,closeDate,closeCause,successorCorporateNumber,changeCause,assignmentDate,latest,enName,enPrefectureName,enCityName,enAddressOutside,furigana,hihyoji
9,1010001233803,新規,0,2023-03-23,2023-03-23,株式会社ＫＡＮＡＴＡ,,株式会社,東京都,中央区,銀座１丁目１２番４号Ｎ＆ＥＢＬＤ．７階,,13,102,1040061,,,,,,,2023-03-23,1,,,,,カナタ,0
10,1010001233877,新規,0,2023-03-23,2023-03-23,株式会社ＭＩＧＩＵＤＥ,,株式会社,東京都,中央区,日本橋人形町３丁目３番５号４階,,13,102,1030013,,,,,,,2023-03-23,1,,,,,ミギウデ,0
11,1010001233902,新規,0,2023-03-23,2023-03-23,株式会社Ｋｉｅｌｉ,,株式会社,東京都,中央区,日本橋室町１丁目１１番１２号日本橋水野ビル７階,,13,102,1030022,,,,,,,2023-03-23,1,,,,,キエリ,0
13,1010003040116,新規,0,2023-03-23,2023-03-23,合同会社アルバ,,合同会社,東京都,中央区,新川２丁目２１番１０号,,13,102,1040033,,,,,,,2023-03-23,1,,,,,アルバ,0
14,1010003040124,新規,0,2023-03-23,2023-03-23,ピスケス合同会社,,合同会社,東京都,千代田区,丸の内２丁目７番３号東京ビルディング,,13,101,1000005,,,,,,,2023-03-23,1,,,,,ピスケス,0
21,1010403029774,新規,0,2023-03-23,2023-03-23,ヴィダエルモサ合同会社,,合同会社,東京都,港区,虎ノ門１丁目１７番１号虎ノ門ヒルズビジネスタワー１５階,,13,103,1050001,,,,,,,2023-03-23,1,,,,,ヴィダエルモサ,0
26,1010601062791,新規,0,2023-03-23,2023-03-23,株式会社Ｓａｉ,,株式会社,東京都,墨田区,錦糸１丁目５番１６号レジディア錦糸町１２０４,,13,107,1300013,,,,,,,2023-03-23,1,,,,,サイ,0
28,1010801033799,新規,0,2023-03-23,2023-03-23,株式会社ＯＣＯ,,株式会社,東京都,大田区,大森南４丁目１１－１４,,13,111,1430013,,,,,,,2023-03-23,1,,,,,オーシーオー,0
44,1011001153157,新規,0,2023-03-23,2023-03-23,株式会社Ｏｆｆｉｃｅ３１０,,株式会社,東京都,渋谷区,神宮前６丁目２３番４号桑野ビル２階,,13,113,1500001,,,,,,,2023-03-23,1,,,,,オフィスサンイチマル,0
45,1011001153223,新規,0,2023-03-23,2023-03-23,株式会社Ｆ２Ｅｎｔｅｒｐｒｉｓｅ,,株式会社,東京都,渋谷区,渋谷３丁目１５－５,,13,113,1500002,,,,,,,2023-03-23,1,,,,,エフツーエンタープライズ,0
46,1011001153280,新規,0,2023-03-23,2023-03-23,株式会社ＡＤＤＲＩＶＥ,,株式会社,東京都,渋谷区,宇田川町１１番１号柳光ビル別館１Ｆ,,13,113,1500042,,,,,,,2023-03-23,1,,,,,アドライブ,0
52,1011101102245,新規,0,2023-03-23,2023-03-23,株式会社ベストコード,,株式会社,東京都,新宿区,西新宿７丁目１番７号新宿ダイカンプラザＡ１０１８,,13,104,1600023,,,,,,,2023-03-23,1,,,,,ベストコード,0
53,1011103012830,新規,0,2023-03-23,2023-03-23,合同会社ＲＥＤ　ＨＡＷＫ,,合同会社,東京都,新宿区,西新宿３丁目５番１２号トーカン新宿第二キャステール３１０号室,,13,104,1600023,,,,,,,2023-03-23,1,,,,,レッドホーク,0
54,1011103012839,新規,0,2023-03-23,2023-03-23,ＶＡＬＵＥ　ＣＲＥＡＴＥ合同会社,,合同会社,東京都,新宿区,山吹町３４０－２２ＨＪｐｌａｃｅ神楽坂４０６,,13,104,1620801,,,,,,,2023-03-23,1,,,,,バリュークリエイト,0
55,1011105010592,新規,0,2023-03-23,2023-03-23,一般社団法人民間学童保育協会,,その他の設立登記法人,東京都,新宿区,四谷１丁目２番地サンパウロビル６階,,13,104,1600004,,,,,,,2023-03-23,1,,,,,ミンカンガクドウホイクキョウカイ,0
60,1011601026679,新規,0,2023-03-23,2023-03-23,泰和住建株式会社,,株式会社,東京都,練馬区,豊玉北４丁目１３番２－７０３号,,13,120,1760012,,,,,,,2023-03-23,1,,,,,タイワジュウケン,0
61,1011605002503,新規,0,2023-03-23,2023-03-23,一般社団法人レクレーションボッチャ協会,,その他の設立登記法人,東京都,練馬区,桜台４丁目１７－５、２階,,13,120,1760002,,,,,,,2023-03-23,1,,,,,レクレーションボッチャキョウカイ,0
62,1011701026100,新規,0,2023-03-23,2023-03-23,株式会社東信産業,,株式会社,東京都,江戸川区,西小岩１丁目２３番９号,,13,123,1330057,,,,,,,2023-03-23,1,,,,,トウシンサンギョウ,0
68,1013301050471,新規,0,2023-03-23,2023-03-23,株式会社ライフサポート,,株式会社,東京都,豊島区,南池袋２丁目８－１２－１Ｆ・Ａ－４,,13,116,1710022,,,,,,,2023-03-23,1,,,,,ライフサポート,0
69,1013301050488,新規,0,2023-03-23,2023-03-23,マキ投資株式会社,,株式会社,東京都,豊島区,池袋４丁目２９番１１号,,13,116,1710014,,,,,,,2023-03-23,1,,,,,マキトウシ,0
71,1013305003450,新規,0,2023-03-23,2023-03-23,一般社団法人中小企業ＤＣ推進会,,その他の設立登記法人,東京都,豊島区,南池袋２丁目４７番６号パレス南池袋３０７,,13,116,1710022,,,,,,,2023-03-23,1,,,,,チュウショウキギョウディーシースイシンカイ,0
77,1020001150725,新規,0,2023-03-23,2023-03-23,株式会社リテックジャパン,,株式会社,神奈川県,横浜市都筑区,池辺町１５８８番地,,14,118,2240053,,,,,,,2023-03-23,1,,,,,リテックジャパン,0
78,1020001150733,新規,0,2023-03-23,2023-03-23,株式会社Ｎファーム,,株式会社,神奈川県,横浜市都筑区,池辺町１５８８番地,,14,118,2240053,,,,,,,2023-03-23,1,,,,,エヌファーム,0
79,1020001150790,新規,0,2023-03-23,2023-03-23,株式会社バウンシー,,株式会社,神奈川県,横浜市神奈川区,神奈川１丁目４番地１９,,14,102,2210045,,,,,,,2023-03-23,1,,,,,バウンシー,0
82,1020003023573,新規,0,2023-03-23,2023-03-23,合同会社しんともり,,合同会社,神奈川県,横浜市神奈川区,松見町２丁目４１９－３１,,14,102,2210005,,,,,,,2023-03-23,1,,,,,シントモリ,0
84,1020005015899,新規,0,2023-03-23,2023-03-23,医療法人社団ＡＡＤＣ,,その他の設立登記法人,神奈川県,横浜市青葉区,あざみ野２丁目３０番地あざみ野三規庭２Ｆ,,14,117,2250011,,,,,,,2023-03-23,1,,,,,エーエーディーシー,0
88,1021001078460,新規,0,2023-03-23,2023-03-23,株式会社ＵＮＩＴＥＤ‐ＳＰＯＲＴＳ‐ＩＳＬＡＮＤ,,株式会社,神奈川県,横須賀市,湘南国際村１丁目２３番１８号,,14,201,2400107,,,,,,,2023-03-23,1,,,,,ユナイテッドスポーツアイランド,0
89,1021001078502,新規,0,2023-03-23,2023-03-23,エイト就労支援サービス株式会社,,株式会社,神奈川県,藤沢市,湘南台１丁目７番地の９,,14,205,2520804,,,,,,,2023-03-23,1,,,,,エイトシュウロウシエンサービス,0
90,1021001078510,新規,0,2023-03-23,2023-03-23,株式会社解決Ｒ＆Ｄ,,株式会社,神奈川県,相模原市中央区,上溝２４０６番地２２,,14,152,2520243,,,,,,,2023-03-23,1,,,,,カイケツアールアンドディー,0
93,1021003012905,新規,0,2023-03-23,2023-03-23,ＭＩＫＵ　ＱＵＡＮ合同会社,,合同会社,神奈川県,綾瀬市,上土棚南４丁目３番１３号,,14,218,2521114,,,,,,,2023-03-23,1,,,,,ミククアン,0
107,1040001127580,新規,0,2023-03-23,2023-03-23,株式会社森智商会,,株式会社,千葉県,市川市,下貝塚１丁目１３番２９号,00129821,12,203,2720821,,,,,,,2023-03-23,1,,,,,モリサトショウカイ,0
108,1040001127614,新規,0,2023-03-23,2023-03-23,株式会社ＭＤ　ＥＮＴＥＲＰＲＩＳＥＳ,,株式会社,千葉県,白井市,十余一１４番地の１,,12,232,2701411,,,,,,,2023-03-23,1,,,,,エムディエンタープライゼズ,0
109,1040001127622,新規,0,2023-03-23,2023-03-23,株式会社コンサーツ・ホライズン,,株式会社,千葉県,千葉市稲毛区,稲毛東５丁目１０番２号,,12,103,2630031,,,,,,,2023-03-23,1,,,,,コンサーツホライズン,0
113,1040003022251,新規,0,2023-03-23,2023-03-23,合同会社Ｌｅｆｋｏｓ,,合同会社,千葉県,千葉市美浜区,若葉３丁目１－１－２６１７,,12,106,2610014,,,,,,,2023-03-23,1,,,,,レフコス,0
121,1060001035815,新規,0,2023-03-23,2023-03-23,リズフォーム株式会社,,株式会社,栃木県,足利市,上渋垂町９２７番地５,,09,202,3260335,,,,,,,2023-03-23,1,,,,,リズフォーム,0
123,1070001040252,新規,0,2023-03-23,2023-03-23,株式会社櫻井工務店,,株式会社,群馬県,高崎市,上小塙町８４８番地１０,,10,202,3700077,,,,,,,2023-03-23,1,,,,,サクライコウムテン,0
127,1080401026387,新規,0,2023-03-23,2023-03-23,株式会社Ｅｎ,,株式会社,静岡県,湖西市,新居町中之郷３２番地の１８,,22,221,4310301,,,,,,,2023-03-23,1,,,,,エン,0
130,1100003006933,新規,0,2023-03-23,2023-03-23,神津装業合同会社,,合同会社,長野県,佐久市,塩名田７９３番地３６,,20,217,3842102,,,,,,,2023-03-23,1,,,,,コウヅソウギョウ,0
145,1120001253294,新規,0,2023-03-23,2023-03-23,ワンズ・アセット株式会社,,株式会社,大阪府,門真市,打越町６番１５号,,27,223,5710029,,,,,,,2023-03-23,1,,,,,ワンズテンアセット,0
146,1120001253402,新規,0,2023-03-23,2023-03-23,沐牧株式会社,,株式会社,大阪府,大阪市東淀川区,相川３丁目３－９北野第２ハイツ４Ｃ,,27,114,5330007,,,,,,,2023-03-23,1,,,,,モクマキ,0
149,1120003023670,新規,0,2023-03-23,2023-03-23,合同会社アスリード,,合同会社,大阪府,大阪市東淀川区,西淡路１丁目１番９号ビジネス新大阪７２０号,,27,114,5330031,,,,,,,2023-03-23,1,,,,,アスリード,0
152,1120101067173,新規,0,2023-03-23,2023-03-23,株式会社クラフトスピリッツ,,株式会社,大阪府,大阪狭山市,東野中２丁目３８番地の１,,27,231,5890002,,,,,,,2023-03-23,1,,,,,クラフトスピリッツ,0
154,1120103005131,新規,0,2023-03-23,2023-03-23,結叶住設合同会社,,合同会社,大阪府,松原市,三宅中２丁目７番８号,,27,217,5800046,,,,,,,2023-03-23,1,,,,,ユウキジュウセツ,0
155,1120901047291,新規,0,2023-03-23,2023-03-23,株式会社アースリッチ,,株式会社,大阪府,高槻市,須賀町３５－１,,27,207,5690022,,,,,,,2023-03-23,1,,,,,アースリッチ,0
160,1130001073915,新規,0,2023-03-23,2023-03-23,株式会社ＩＳＨＩＤＡ,,株式会社,京都府,京都市上京区,今出川通大宮東入上る北猪熊町３１６番地,,26,102,6028432,,,,,,,2023-03-23,1,,,,,イシダ,0
164,1140001129518,新規,0,2023-03-23,2023-03-23,株式会社ＫＢＭ配送,,株式会社,兵庫県,加古川市,尾上町養田１４８９番地,,28,210,6750025,,,,,,,2023-03-23,1,,,,,ケイビーエムハイソウ,0
165,1140001129534,新規,0,2023-03-23,2023-03-23,株式会社Ａｍａｓｉａ,,株式会社,兵庫県,神戸市中央区,御幸通８丁目１番６号神戸国際会館２２階,,28,110,6510087,,,,,,,2023-03-23,1,,,,,アメイジア,0
168,1140003018875,新規,0,2023-03-23,2023-03-23,エクテック合同会社,,合同会社,兵庫県,西宮市,櫨塚町２番３２ブラームス西宮６０２号,,28,204,6620854,,,,,,,2023-03-23,1,,,,,エクテック,0
173,1160001024907,新規,0,2023-03-23,2023-03-23,株式会社ＡＧＯＲＡＬＹ,,株式会社,滋賀県,大津市,大江１丁目３７番４号,,25,201,5202141,,,,,,,2023-03-23,1,,,,,アゴラリー,0
180,1180003025018,新規,0,2023-03-23,2023-03-23,万永不動産合同会社,,合同会社,愛知県,名古屋市中村区,名駅南１丁目１９番５号,,23,105,4500003,,,,,,,2023-03-23,1,,,,,マンナガフドウサン,0
184,1200001041096,新規,0,2023-03-23,2023-03-23,株式会社岐阜サービス,,株式会社,岐阜県,岐阜市,西中島４丁目２番３０号,,21,201,5020916,,,,,,,2023-03-23,1,,,,,ギフサービス,0
190,1240001061198,新規,0,2023-03-23,2023-03-23,福山金属株式会社,,株式会社,広島県,福山市,蔵王町１５２５番地,,34,207,7210971,,,,,,,2023-03-23,1,,,,,フクヤマキンゾク,0
191,1240001061223,新規,0,2023-03-23,2023-03-23,株式会社広島アライン,,株式会社,広島県,広島市西区,打越町１２番１９号朝日プラザ横川駅前３０３号室,,34,104,7330004,,,,,,,2023-03-23,1,,,,,ヒロシマアライン,0
192,1240001061248,新規,0,2023-03-23,2023-03-23,弥生工業株式会社,,株式会社,広島県,広島市佐伯区,旭園１８番２４－３号,,34,108,7315133,,,,,,,2023-03-23,1,,,,,ヤヨイコウギョウ,0
193,1240003006052,新規,0,2023-03-23,2023-03-23,フェリックス合同会社,,合同会社,広島県,廿日市市,阿品３丁目１－２－９０４,,34,213,7380054,,,,,,,2023-03-23,1,,,,,フェリックス,0
196,1260005011197,新規,0,2023-03-23,2023-03-23,保證責任占見信用販賣購買利用組合,,その他の設立登記法人,岡山県,浅口市,金光町占見１３５１番地,,33,216,7190105,,,,,,,2023-03-23,1,,,,,ウラミシンヨウハンバイコウバイリヨウクミアイ,0
209,1290001100967,新規,0,2023-03-23,2023-03-23,株式会社グッドホープ,,株式会社,福岡県,福岡市東区,御島崎２丁目１６番２４－５１１号,,40,131,8130005,,,,,,,2023-03-23,1,,,,,グッドホープ,0
213,1290005018982,新規,0,2023-03-23,2023-03-23,ＮＰＯ法人風の時代学校,,その他の設立登記法人,福岡県,糸島市,志摩久家４４３,,40,230,8191331,,,,,,,2023-03-23,1,,,,,カゼノジダイガッコウ,0
216,1310001018323,新規,0,2023-03-23,2023-03-23,株式会社Ｋ．Ｇ　ＦＡＲＭ,,株式会社,長崎県,諫早市,森山町田尻１０５１番地,,42,204,8540204,,,,,,,2023-03-23,1,,,,,ケージーファーム,0
217,1320001019642,新規,0,2023-03-23,2023-03-23,株式会社フレッシュフーズファクトリー,,株式会社,大分県,大分市,古国府４丁目７番１３号,,44,201,8700844,,,,,,,2023-03-23,1,,,,,フレッシュフーズファクトリー,0
220,1330001030697,新規,0,2023-03-23,2023-03-23,株式会社ニライカナイ,,株式会社,熊本県,人吉市,鬼木町字芦原６９９番地１,00129840,43,203,8680021,,,,,,,2023-03-23,1,,,,,ニライカナイ,0
226,1350003004326,新規,0,2023-03-23,2023-03-23,合同会社キュリアスファーム,,合同会社,宮崎県,都城市,年見町２１号６番地１１,,45,202,8850017,,,,,,,2023-03-23,1,,,,,キュリアスファーム,0
243,1420001018188,新規,0,2023-03-23,2023-03-23,株式会社宝来ハウス,,株式会社,青森県,八戸市,小中野１丁目１番２７号,,02,203,0310802,,,,,,,2023-03-23,1,,,,,ホウライハウス,0
247,1430001088692,新規,0,2023-03-23,2023-03-23,株式会社ここもあ,,株式会社,北海道,札幌市豊平区,豊平六条１０丁目５番８－２０１号,,01,105,0620906,,,,,,,2023-03-23,1,,,,,ココモア,0
248,1430005014661,新規,0,2023-03-23,2023-03-23,特定非営利活動法人小樽市ラグビーフットボール協会,,その他の設立登記法人,北海道,小樽市,花園３丁目１１番１号,,01,203,0470024,,,,,,,2023-03-23,1,,,,,オタルシラグビーフットボールキョウカイ,0
256,1480003001954,新規,0,2023-03-23,2023-03-23,合同会社ＴＬＧ,,合同会社,徳島県,美馬郡つるぎ町,貞光字皆瀬川向１２２番地,,36,468,7794106,,,,,,,2023-03-23,1,,,,,ティーエルジー,0
259,1500001024822,新規,0,2023-03-23,2023-03-23,株式会社ＯＡＲ,,株式会社,愛媛県,東温市,上村甲５２２番地,,38,215,7910221,,,,,,,2023-03-23,1,,,,,オーエーアール,0
261,1700150114866,新規,0,2023-03-23,2023-03-23,ｈｕｎａｎ　ｙｕｎｘｉｄｉａｎｚｉｓｈａｎｇｗｕ　ｙｏｕｘｉａｎｇｏｎｇｓｉ,,外国会社等,,,,,,,,９９ｈａｏｆａｎｇ，Ａ２ｄｏｎｇｄｉ３ｃｅｎｇ，ｃｈｕａｎｇｇｕｃｈａｎ　ｙｅｙｕａｎ，ｑｕｅｙｕａｎｌｕ，ｔｉａｎｘｉｎｑｕ，ｃｈａｎｇｓｈａ，ｈｕｎａｎ，ＣＮ,,,,,,2023-03-23,1,,,,,ヒュナンユンシデンシショウムユウゲンコウシ,0
262,1700150114874,新規,0,2023-03-23,2023-03-23,ｓｈｅｎｚｈｅｎｓｈｉ　ｑｉｓｈａｎｇｚｈａｎｌａｎｚｈａｎｓｈｉ　ｙｏｕｘｉａｎｇｏｎｇｓｉ,,外国会社等,,,,,,,,ＦＬ４，Ｂｌｄｇ１，Ｎｏ．９，Ｊｉｎｇｔｉａｎ　Ｒｄ，Ｘｉｎｇｓｈｅｎｇ　Ｃｏｍｍｕｎｉｔｙ，ｓｈｅｎｚｈｅｎ，Ｇｕａｎｇｄｏｎｇ，ＣＮ,,,,,,2023-03-23,1,,,,,シンセンシキシャンザンランザンシユウゲンコウシ,0
263,1700150114908,新規,0,2023-03-23,2023-03-23,ＱｉｎｇＤａｏＹｉｎＸｉａｎｇ　ＳｈｅｎｇＨｕｏＹｏｎｇＰｉｎ　ＹｏｕＸｉａｎＧｏｎｇＳｉ,,外国会社等,,,,,,,,ＬＩＧＥＺＨＵＡＮＧＺＨＥＮ，ＧＵＨＥＤＡＪＩＥ１７７ＨＡＯ　ＱＩＮＧＤＡＯＪＩＡＯＺＨＯＵ，ＳＨＡＮＤＯＮＧ，ＣＨＩＮＡ,,,,,,2023-03-23,1,,,,,キンダオインシャンシェンフオヨンピンユウゲンコウシ,0
264,1700150114916,新規,0,2023-03-23,2023-03-23,ｘｉａｍｅｎｘｉｓｈｕｏｍａｏｙｉｙｏｕｘｉａｎｇｏｎｇｓｉ,,外国会社等,,,,,,,,ｓｉｍｉｎｇｑｕｙｉｌａｎｌｕ５ｈａｏ１９０３ｓｈｉＢｄａｎｙｕａｎｘｉａｍｅｎ　ｆｕｊｉａｎ,,,,,,2023-03-23,1,,,,,アモイキセキボウエキユウゲンコウシ,0
265,1700150114924,新規,0,2023-03-23,2023-03-23,ＪＡＹＡＴＨＵＮＧＥ　ＡＵＴＯ　ＴＲＡＤＥＲ,,外国会社等,千葉県,香取郡神崎町,神崎本宿１１３１－１０－１０１号室,,12,342,2890221,スリランカ民主社会主義共和国、タンガルラ、ベリアッタロード、１０４,,,,,,2023-03-23,1,,,,,ジヤヤトウンゲオートトレーダー,0
278,2010001233562,新規,0,2023-03-23,2023-03-23,株式会社リリーブハーツ,,株式会社,東京都,千代田区,神田神保町１丁目１０１番,,13,101,1010051,,,,,,,2023-03-23,1,,,,,リリーブハーツ,0
279,2010001233686,新規,0,2023-03-23,2023-03-23,株式会社よそ見,,株式会社,東京都,文京区,目白台２丁目９番３－６０２号,,13,105,1120015,,,,,,,2023-03-23,1,,,,,ヨソミ,0
280,2010001233827,新規,0,2023-03-23,2023-03-23,エーコンセプト株式会社,,株式会社,東京都,千代田区,神田紺屋町８番地ＮＣＯ神田紺屋町７Ｆ－７,,13,101,1010035,,,,,,,2023-03-23,1,,,,,エーコンセプト,0
281,2010001233851,新規,0,2023-03-23,2023-03-23,株式会社財務アソシエイト,,株式会社,東京都,千代田区,九段南１丁目５番６号りそな九段ビル５ＦＫＳフロア,,13,101,1020074,,,,,,,2023-03-23,1,,,,,ザイムアソシエイト,0
282,2010001233876,新規,0,2023-03-23,2023-03-23,株式会社ナムクリエイション,,株式会社,東京都,中央区,銀座８丁目１２番６号,,13,102,1040061,,,,,,,2023-03-23,1,,,,,ナムクリエイション,0
283,2010001233918,新規,0,2023-03-23,2023-03-23,海沃瑪精密工業株式会社,,株式会社,東京都,中央区,銀座４丁目１３番８号岩藤ビル５階,,13,102,1040061,,,,,,,2023-03-23,1,,,,,カイヨクバセイミツコウギョウ,0
288,2010003040123,新規,0,2023-03-23,2023-03-23,美沢太陽光発電合同会社,,合同会社,東京都,中央区,京橋２丁目２番１号京橋エドグラン,,13,102,1040031,,,,,,,2023-03-23,1,,,,,ミサワタイヨウコウハツデン,0
289,2010003040148,新規,0,2023-03-23,2023-03-23,ＳｕｎＲｉｓｅＳｙｓｔｅｍ合同会社,,合同会社,東京都,中央区,銀座１丁目１２－４Ｎ＆ＥＢＬＤ．７階,,13,102,1040061,,,,,,,2023-03-23,1,,,,,サンライズシステム,0
292,2010005036409,新規,0,2023-03-23,2023-03-23,一般社団法人ｍｉｋＯｓｉ,,その他の設立登記法人,東京都,文京区,小石川３丁目２８番１４号ワコーレ小石川１０１,,13,105,1120002,,,,,,,2023-03-23,1,,,,,ミコシ,0
304,2010401173235,新規,0,2023-03-23,2023-03-23,株式会社Ｃｏｌｏｒｆｕｌ,,株式会社,東京都,港区,六本木４丁目１２－１２穂高ビル５階,,13,103,1060032,,,,,,,2023-03-23,1,,,,,カラフル,0
313,2010503006912,新規,0,2023-03-23,2023-03-23,ギメグリジャポン合同会社,,合同会社,東京都,台東区,松が谷３丁目２１番地５号,,13,106,1110036,,,,,,,2023-03-23,1,,,,,ギメグリジャポン,0
316,2010803004483,新規,0,2023-03-23,2023-03-23,ノット・サティスファイド合同会社,,合同会社,東京都,大田区,多摩川１丁目２６番１号綱島園ビル２０２号,,13,111,1460095,,,,,,,2023-03-23,1,,,,,ノットサティスファイド,0
317,2010901052756,新規,0,2023-03-23,2023-03-23,株式会社Ｅｎｓｅｍｂｌｙ,,株式会社,東京都,世田谷区,奥沢２丁目１７番１７号レジデンス自由ヶ丘Ｅ棟１０１,,13,112,1580083,,,,,,,2023-03-23,1,,,,,アンセンブリー,0
329,2011001153271,新規,0,2023-03-23,2023-03-23,株式会社ＨＩＧＨＥＲ　ＣＯＲＰＯＲＡＴＩＯＮ,,株式会社,東京都,渋谷区,神宮前６丁目２３番４号,,13,113,1500001,,,,,,,2023-03-23,1,,,,,ハイアーコーポレーション,0
332,2011003016492,新規,0,2023-03-23,2023-03-23,合同会社デザイナズ,,合同会社,東京都,渋谷区,道玄坂１丁目１０番８号渋谷道玄坂東急ビル２Ｆ－Ｃ,,13,113,1500043,,,,,,,2023-03-23,1,,,,,デザイナズ,0
336,2011103012838,新規,0,2023-03-23,2023-03-23,合同会社モリミツコンサルティング,,合同会社,東京都,新宿区,西新宿３丁目３番１３号西新宿水間ビル６階,,13,104,1600023,,,,,,,2023-03-23,1,,,,,モリミツコンサルティング,0
340,2011601026678,新規,0,2023-03-23,2023-03-23,株式会社ジャムエリアマネジメント,,株式会社,東京都,練馬区,東大泉６丁目９番２７号,,13,120,1780063,,,,,,,2023-03-23,1,,,,,ジャムエリアマネジメント,0
343,2011801042120,新規,0,2023-03-23,2023-03-23,株式会社ＴＡＭＢＯ,,株式会社,東京都,葛飾区,四つ木３丁目４番２５号,,13,122,1240011,,,,,,,2023-03-23,1,,,,,タンボ,0
347,2012703002658,新規,0,2023-03-23,2023-03-23,合同会社エース,,合同会社,東京都,西東京市,下保谷３丁目１８番２号,,13,229,2020004,,,,,,,2023-03-23,1,,,,,エース,0
348,2012805003182,新規,0,2023-03-23,2023-03-23,一般社団法人ＥＡメディカル研究会,,その他の設立登記法人,東京都,国立市,中１丁目２０番地の２６,,13,215,1860004,,,,,,,2023-03-23,1,,,,,イーエーメディカルケンキュウカイ,0
351,2013301050454,新規,0,2023-03-23,2023-03-23,株式会社シーキューブトーキョー,,株式会社,東京都,豊島区,千川１丁目３２番１５号,,13,116,1710041,,,,,,,2023-03-23,1,,,,,シーキューブトーキョー,0
352,2013301050487,新規,0,2023-03-23,2023-03-23,株式会社Ｙ,,株式会社,東京都,豊島区,東池袋１丁目３６番７号アルテール池袋６１４,,13,116,1700013,,,,,,,2023-03-23,1,,,,,ワイ,0
353,2013303006545,新規,0,2023-03-23,2023-03-23,合同会社Ｆｒｅｅ,,合同会社,東京都,豊島区,南大塚１丁目６０番２０号天翔大塚駅前ビル７０８号室,,13,116,1700005,,,,,,,2023-03-23,1,,,,,フリー,0
354,2013303006553,新規,0,2023-03-23,2023-03-23,合同会社フラット,,合同会社,東京都,豊島区,池袋３丁目４４－９－４０３号,,13,116,1710014,,,,,,,2023-03-23,1,,,,,フラット,0
362,2020001150807,新規,0,2023-03-23,2023-03-23,株式会社ｔｚｕ,,株式会社,神奈川県,横浜市磯子区,磯子２丁目２番１１号,,14,107,2350016,,,,,,,2023-03-23,1,,,,,ヅー,0
365,2020003023564,新規,0,2023-03-23,2023-03-23,合同会社健康＆安全Ｄｅｓｉｇｎ,,合同会社,神奈川県,横浜市中区,山下町８８番地７０３号室,,14,104,2310023,,,,,,,2023-03-23,1,,,,,ケンコウアンドアンゼンデザイン,0
371,2021003012904,新規,0,2023-03-23,2023-03-23,合同会社Ｈ＆Ｈ,,合同会社,神奈川県,藤沢市,本鵠沼１丁目７－３５－２,,14,205,2510028,,,,,,,2023-03-23,1,,,,,エイチアンドエイチ,0
382,2030001152678,新規,0,2023-03-23,2023-03-23,株式会社ヒトノワホールディングス,,株式会社,埼玉県,草加市,花栗４丁目２４番１８号,,11,221,3400044,,,,,,,2023-03-23,1,,,,,ヒトノワホールディングス,0
392,2040001127596,新規,0,2023-03-23,2023-03-23,株式会社オン・コーポレーション,,株式会社,千葉県,富津市,絹３２番地の１,,12,226,2930034,,,,,,,2023-03-23,1,,,,,オンコーポレーション,0
393,2040001127621,新規,0,2023-03-23,2023-03-23,Ｂ・Ａ商事株式会社,,株式会社,千葉県,八千代市,下高野５０２－２,,12,221,2760021,,,,,,,2023-03-23,1,,,,,ビーエーショウジ,0
399,2050003007333,新規,0,2023-03-23,2023-03-23,合同会社ピアチェ,,合同会社,茨城県,常総市,内守谷町２４５１番地７,,08,211,3030043,,,,,,,2023-03-23,1,,,,,ピアチェ,0
402,2070001040251,新規,0,2023-03-23,2023-03-23,株式会社キャリアライフ,,株式会社,群馬県,高崎市,新町３２６４番地３,,10,202,3701301,,,,,,,2023-03-23,1,,,,,キャリアライフ,0
409,2080401026386,新規,0,2023-03-23,2023-03-23,株式会社ＳＳＣ,,株式会社,静岡県,湖西市,新居町中之郷３７２６番地の３８,,22,221,4310301,,,,,,,2023-03-23,1,,,,,エスエスシー,0
411,2080403004761,新規,0,2023-03-23,2023-03-23,Ｏｎｅ　ｍａｋｅ合同会社,,合同会社,静岡県,浜松市中区,板屋町１０２番地の１５,,22,131,4300928,,,,,,,2023-03-23,1,,,,,ワンメイク,0
413,2100001036238,新規,0,2023-03-23,2023-03-23,株式会社ナナテット,,株式会社,長野県,長野市,大字赤沼１５６７番地,,20,201,3810001,,,,,,,2023-03-23,1,,,,,ナナテット,0
414,2100003006932,新規,0,2023-03-23,2023-03-23,合同会社マコット,,合同会社,長野県,小諸市,大字西原４８８番地１,,20,208,3840044,,,,,,,2023-03-23,1,,,,,マコット,0
416,2110003005009,新規,0,2023-03-23,2023-03-23,Ｄ＆Ｄ　ＧＬＯＢＡＬ合同会社,,合同会社,新潟県,上越市,大字東中島１５４８番地１,,15,222,9420036,,,,,,,2023-03-23,1,,,,,ディーアンドディーグローバル,0
426,2120001253376,新規,0,2023-03-23,2023-03-23,Ｐｏｓｅｉｄｏｎ株式会社,,株式会社,大阪府,大阪市東成区,深江北３丁目４番２１号エクラ深江橋６１５Ｃ,,27,115,5370001,,,,,,,2023-03-23,1,,,,,ポセイドン,0
427,2120001253418,新規,0,2023-03-23,2023-03-23,株式会社ＢｒｏｔｈｅｒＢｏｎｄ,,株式会社,大阪府,大阪市西区,南堀江１丁目１１番９号ＳＯＮＯ四ツ橋ビル５０２,,27,106,5500015,,,,,,,2023-03-23,1,,,,,ブラザーボンド,0
428,2120001253450,新規,0,2023-03-23,2023-03-23,株式会社ｗｉｌｌ,,株式会社,大阪府,大阪市大正区,南恩加島６丁目９番２７号,,27,108,5510021,,,,,,,2023-03-23,1,,,,,ウィル,0
433,2120101067180,新規,0,2023-03-23,2023-03-23,株式会社堺機械設備,,株式会社,大阪府,堺市中区,新家町４９３番地１０,,27,142,5998232,,,,,,,2023-03-23,1,,,,,サカイキカイセツビ,0
434,2122001036810,新規,0,2023-03-23,2023-03-23,ホウエイ株式会社,,株式会社,大阪府,東大阪市,俊徳町５丁目１０番１２号,,27,227,5770831,,,,,,,2023-03-23,1,,,,,ホウエイ,0
439,2130001073914,新規,0,2023-03-23,2023-03-23,日本天成株式会社,,株式会社,京都府,京都市中京区,福長町１０７番地２グランドール滝川４０４号室,,26,104,6048084,,,,,,,2023-03-23,1,,,,,ニホンテンセイ,0
446,2140001129541,新規,0,2023-03-23,2023-03-23,株式会社ひとてまひとてま,,株式会社,兵庫県,神戸市西区,狩場台５丁目９番地の１６,,28,111,6512272,,,,,,,2023-03-23,1,,,,,ヒトテマヒトテマ,0
464,2180001155468,新規,0,2023-03-23,2023-03-23,ＤＲＥＡＭ　ＧＲＯＶＥ株式会社,,株式会社,愛知県,津島市,下新田町１丁目１８２番地,,23,208,4960875,,,,,,,2023-03-23,1,,,,,ドリームグローブ,0
465,2180001155476,新規,0,2023-03-23,2023-03-23,株式会社ＴＯＹＯＫＵＮＩ,,株式会社,愛知県,北名古屋市,鍛治ケ一色西一丁目１番地,,23,234,4810000,,,,,,,2023-03-23,1,,,,,トヨクニ,0
468,2180003025000,新規,0,2023-03-23,2023-03-23,合同会社トリニティマザー,,合同会社,愛知県,日進市,藤枝町奥廻間１２３７番地８７,,23,230,4700112,,,,,,,2023-03-23,1,,,,,トリニティマザー,0
473,2200001041095,新規,0,2023-03-23,2023-03-23,ティーブライト株式会社,,株式会社,岐阜県,羽島郡笠松町,北及１８０番地,,21,303,5016064,,,,,,,2023-03-23,1,,,,,ティーブライト,0
476,2230003001986,新規,0,2023-03-23,2023-03-23,合同会社一福,,合同会社,富山県,南砺市,高儀３１２番地,,16,210,9391506,,,,,,,2023-03-23,1,,,,,イチフク,0
481,2240003006068,新規,0,2023-03-23,2023-03-23,合同会社ハブシステム,,合同会社,広島県,広島市西区,天満町１６番７号,,34,104,7330022,,,,,,,2023-03-23,1,,,,,ハブシステム,0
482,2240005015546,新規,0,2023-03-23,2023-03-23,一般社団法人ＲＥＡＲＶ,,その他の設立登記法人,広島県,広島市西区,井口２丁目１６－１３第二酒井ビル１０２,,34,104,7330842,,,,,,,2023-03-23,1,,,,,リアーヴ,0
485,2260001037757,新規,0,2023-03-23,2023-03-23,株式会社ＯＮＥ,,株式会社,岡山県,真庭市,勝山８９３番地８,,33,214,7170013,,,,,,,2023-03-23,1,,,,,ワン,0
500,2330001030696,新規,0,2023-03-23,2023-03-23,株式会社伊佐商事,,株式会社,熊本県,上益城郡甲佐町,大字麻生原６８５番地,,43,444,8614618,,,,,,,2023-03-23,1,,,,,イサショウジ,0
502,2340003004078,新規,0,2023-03-23,2023-03-23,合同会社紡ぐ,,合同会社,鹿児島県,霧島市,国分敷根１２５７番地３,,46,218,8994462,,,,,,,2023-03-23,1,,,,,ツムグ,0
503,2340005009570,新規,0,2023-03-23,2023-03-23,一般社団法人鹿児島県ソフトボール協会,,その他の設立登記法人,鹿児島県,鹿児島市,永吉１丁目８番５号,,46,201,8900023,,,,,,,2023-03-23,1,,,,,カゴシマケンソフトボールキョウカイ,0
506,2360001008608,新規,0,2023-03-23,2023-03-23,沖繩住発株式会社,00129800,株式会社,沖縄県,宜野湾市,新城１丁目７番１号,,47,205,9012201,,,,,,,2023-03-23,1,,,,,,0
510,2360005006806,新規,0,2023-03-23,2023-03-23,一般社団法人ほっぷすてっぷくらぶ,,その他の設立登記法人,沖縄県,沖縄市,宮里４丁目３０番２９レジデンス野原ＩＩ１０１,00129824,47,211,9042165,,,,,,,2023-03-23,1,,,,,ホップステップクラブ,0
516,2390003002069,新規,0,2023-03-23,2023-03-23,アドバンテージ山形合同会社,,合同会社,山形県,山形市,陣場２丁目１１番１７号,,06,201,9900864,,,,,,,2023-03-23,1,,,,,アドバンテージヤマガタ,0
517,2400001016184,新規,0,2023-03-23,2023-03-23,株式会社互大ホールディングス,,株式会社,岩手県,花巻市,石鳥谷町八幡第７地割３０番地２,,03,205,0283163,,,,,,,2023-03-23,1,,,,,ゴダイホールディングス,0
519,2410001013429,新規,0,2023-03-23,2023-03-23,株式会社リムクラフト,,株式会社,秋田県,大仙市,橋本字中井村１７１番地２,,05,212,0140804,,,,,,,2023-03-23,1,,,,,リムクラフト,0
524,2430005014669,新規,0,2023-03-23,2023-03-23,医療法人さつび会,,その他の設立登記法人,北海道,札幌市中央区,北四条西２丁目１番２５号札幌ＴＲビル９階,,01,101,0600004,,,,,,,2023-03-23,1,,,,,サツビカイ,0
529,2460303000789,新規,0,2023-03-23,2023-03-23,ＴＳＫ合同会社,,合同会社,北海道,常呂郡訓子府町,東幸町２５０番地,,01,549,0991403,,,,,,,2023-03-23,1,,,,,ティーエスケー,0
533,2700150114865,新規,0,2023-03-23,2023-03-23,Ｓｈｅｎｚｈｅｎ　Ｓｈｕｎｓｈｉ　Ｅｌｅｃｔｒｏｎｉｃｓ　Ｃｏｍｐａｎｙ　Ｌｉｍｉｔｅｄ,,外国会社等,,,,,,,,１２Ｆ，Ｔｏｗｅｒ　２，Ｈｅｎｇｙｕ　Ｑｉａｎｈａｉ　Ｆｉｎａｎｃｉａｌ　Ｃｅｎｔｅｒ，Ｓｈｅｎｚｈｅｎ，Ｇｕａｎｇｄｏｎｇ，Ｃｈｉｎａ,,,,,,2023-03-23,1,,,,,シンセンシュンスイエレクトロニクスカンパニーリミテッド,0
534,2700150114873,新規,0,2023-03-23,2023-03-23,ＳＨＥＮＺＨＥＮ　ＹＡＯＳＴＥ　ＴＥＣＨＮＯＬＯＧＹ　ＣＯ．，ＬＴＤ．,,外国会社等,,,,,,,,ＬｏｎｇＨｕａ　ｎｅｗ　Ｄｉｓｔ．ＧｕａｎＬａｎ　Ｓｔ，ＸｉｎＳｈｉＱｉａｏ　ｎｅｗ　ｖｉｌｌａｇｅ　１－４０２，ＳｈｅｎＺｈｅｎ，ＧｕａｎｇＤｏｎｇ，Ｃｈｉｎａ,,,,,,2023-03-23,1,,,,,シンセンヤオステテクノロジーカンパニーリミテッド,0
535,2700150114881,新規,0,2023-03-23,2023-03-23,日本橋室町一丁目地区市街地再開発組合,,その他,東京都,中央区,日本橋室町１丁目８－３,,13,102,1030022,,,,,,,2023-03-23,1,,,,,ニホンバシムロマチイツチヨウメチクシガイチサイカイハツクミアイ,0
536,2700150114907,新規,0,2023-03-23,2023-03-23,Ｂｏｎｉｓｋｉｓｓ　Ｇｒｏｕｐ　Ｃｏｒｐｏｒａｔｉｏｎ,,外国会社等,,,,,,,,５０１　Ｓｉｌｖｅｒｓｉｄｅ　Ｒｄ，Ｓｕｉｔｅ　１０５，＃３３５４，Ｗｉｌｍｉｎｇｔｏｎ，ＤＥ，Ｕｎｉｔｅｄ　Ｓｔａｔｅｓ,,,,,,2023-03-23,1,,,,,ボニスキスグループコーポレーション,0
537,2700150114915,新規,0,2023-03-23,2023-03-23,ｘｉａｍｅｎｑｉａｎｓｉｃａｎｇｋｅｊｉｙｏｕｘｉａｎｇｏｎｇｓｉ,,外国会社等,,,,,,,,ｙｉｌａｎｌｕ５ｈａｏ１９０３ｄａｎｙｕａｎｚｈｉｓａｎｘｉａｍｅｎｆｕｊｉａｎｓｉｍｉｎｇ,,,,,,2023-03-23,1,,,,,アモイチエンシソウカギユウゲンコウシ,0
538,2700150114923,新規,0,2023-03-23,2023-03-23,ＩＮＶＥＮＴＥＣ　ＰＥＲＦＯＲＭＡＮＣＥ　ＣＨＥＭＩＣＡＬＳ　ＳＡＳ,,外国会社等,東京都,中央区,日本橋本町２丁目２－２日本橋本町ＹＳビル２階在日フランス商工会議所内,,13,102,1030023,フランス共和国、ブリ・シュル・マルヌ、クロン通り２６,,,,,,2023-03-23,1,,,,,インベンテツクパフオーマンスケミカルズエスエーエス,0
546,3010001233792,新規,0,2023-03-23,2023-03-23,ＴＫ株式会社,,株式会社,東京都,千代田区,岩本町２丁目１７－４,,13,101,1010032,,,,,,,2023-03-23,1,,,,,ティーケイ,0
547,3010001233834,新規,0,2023-03-23,2023-03-23,ＰＯＷＡＲＵＴＯＫＹＯ株式会社,,株式会社,東京都,中央区,銀座８丁目４番２３号,,13,102,1040061,,,,,,,2023-03-23,1,,,,,ポワルトウキョウ,0
548,3010001233883,新規,0,2023-03-23,2023-03-23,株式会社ＬＷ　ＰＬＡＮＮＩＮＧ,,株式会社,東京都,文京区,千駄木２丁目１１番８－４０５号,,13,105,1130022,,,,,,,2023-03-23,1,,,,,エルダブルプランニング,0
549,3010001233891,新規,0,2023-03-23,2023-03-23,ランバンジャパンサービス株式会社,,株式会社,東京都,中央区,銀座５丁目４番７号,,13,102,1040061,,,,,,,2023-03-23,1,,,,,ランバンジャパンサービス,0
551,3010003040114,新規,0,2023-03-23,2023-03-23,合同会社発酵クラブ,,合同会社,東京都,中央区,銀座１丁目２２番１１号銀座大竹ビジデンス２階,,13,102,1040061,,,,,,,2023-03-23,1,,,,,ハッコウクラブ,0
579,3010903008045,新規,0,2023-03-23,2023-03-23,ＡＹカンパニー合同会社,,合同会社,東京都,世田谷区,祖師谷４丁目１８番２４号,,13,112,1570072,,,,,,,2023-03-23,1,,,,,エーワイカンパニー,0
584,3011001153254,新規,0,2023-03-23,2023-03-23,株式会社たなからぼたもち,,株式会社,東京都,渋谷区,道玄坂１丁目１０番８号渋谷道玄坂東急ビル２Ｆ‐Ｃ,,13,113,1500043,,,,,,,2023-03-23,1,,,,,タナカラボタモチ,0
585,3011001153287,新規,0,2023-03-23,2023-03-23,株式会社ＫＡＩＭＯＮ　ＪＰ,,株式会社,東京都,渋谷区,神宮前６丁目２３番４号桑野ビル２階,,13,113,1500001,,,,,,,2023-03-23,1,,,,,カイモンジェイピー,0
586,3011001153312,新規,0,2023-03-23,2023-03-23,株式会社Ｄｏｗｎ　Ｂｅｌｌ,,株式会社,東京都,目黒区,目黒本町５丁目３３番２５－２０１号,,13,110,1520002,,,,,,,2023-03-23,1,,,,,ダウンベル,0
588,3011003016483,新規,0,2023-03-23,2023-03-23,合同会社ＫＯＳＨＩＲＡＥ,,合同会社,東京都,渋谷区,道玄坂１丁目１０番８号渋谷道玄坂東急ビル２Ｆ－Ｃ,,13,113,1500043,,,,,,,2023-03-23,1,,,,,コシラエ,0
589,3011005009997,新規,0,2023-03-23,2023-03-23,一般社団法人全国中小企業経営能力認定協会,,その他の設立登記法人,東京都,渋谷区,恵比寿南１丁目５番２号,,13,113,1500022,,,,,,,2023-03-23,1,,,,,ゼンコクチュウショウキギョウケイエイノウリョクニンテイキョウカイ,0
597,3011101102243,新規,0,2023-03-23,2023-03-23,株式会社ＳＡＮＮＹ　ＦＡＭＩＬＹ,,株式会社,東京都,新宿区,高田馬場２丁目１９番７－１００３号,,13,104,1690075,,,,,,,2023-03-23,1,,,,,サニーファミリー,0
599,3011103012829,新規,0,2023-03-23,2023-03-23,合同会社Ｔ＆Ｍ,,合同会社,東京都,新宿区,西新宿３丁目５番１２号トーカン新宿第二キャステール３１０号室,,13,104,1600023,,,,,,,2023-03-23,1,,,,,ティーアンドエム,0
600,3011103012837,新規,0,2023-03-23,2023-03-23,ＭＯＵＣＨＡＢｏｏｏＫ合同会社,,合同会社,東京都,新宿区,下宮比町２－１８－９０２,,13,104,1620822,,,,,,,2023-03-23,1,,,,,モチャブク,0
601,3011103012845,新規,0,2023-03-23,2023-03-23,合同会社Ｕｎｉ　Ａｓｉａ　Ｃｏｒｐ,,合同会社,東京都,新宿区,榎町３４－３榎町ビル７階－０９室,,13,104,1620806,,,,,,,2023-03-23,1,,,,,ユニアジアコープ,0
607,3011601026677,新規,0,2023-03-23,2023-03-23,株式会社ストロングロード,,株式会社,東京都,練馬区,南大泉４丁目２２番２５号,,13,120,1780064,,,,,,,2023-03-23,1,,,,,ストロングロード,0
610,3011801042053,新規,0,2023-03-23,2023-03-23,株式会社ａｍ,,株式会社,東京都,葛飾区,奥戸３丁目１６番１９号ローレルコートエスタ新小岩４０１号室,,13,122,1240022,,,,,,,2023-03-23,1,,,,,アウン,0
611,3012301013354,新規,0,2023-03-23,2023-03-23,株式会社Ｏｎｅｗｌｄ,,株式会社,東京都,町田市,原町田３丁目２－９エルムビル１階,,13,209,1940013,,,,,,,2023-03-23,1,,,,,ワンワールド,0
612,3012301013362,新規,0,2023-03-23,2023-03-23,株式会社ＣＬＩＭＤ　ＥＤＧＥ,,株式会社,東京都,町田市,小山町１７３７番地８,,13,209,1940212,,,,,,,2023-03-23,1,,,,,,0
613,3012303001794,新規,0,2023-03-23,2023-03-23,合同会社つむぐ,,合同会社,東京都,町田市,原町田４丁目１１－１３天野ビル４Ｆ,,13,209,1940013,,,,,,,2023-03-23,1,,,,,ツムグ,0
615,3013103001217,新規,0,2023-03-23,2023-03-23,アースソリッド合同会社,,合同会社,東京都,青梅市,野上町２丁目２７９番地の４,,13,205,1980032,,,,,,,2023-03-23,1,,,,,アースソリッド,0
616,3013301050486,新規,0,2023-03-23,2023-03-23,株式会社ＴＲＯＤＵＣＴＳ,,株式会社,東京都,豊島区,上池袋１丁目１１番４号Ｍ１ビル１階,,13,116,1700012,,,,,,,2023-03-23,1,,,,,トロダクツ,0
617,3013301050494,新規,0,2023-03-23,2023-03-23,株式会社Ｇｌｏｂａｌ　Ｔａｌｅｎｔ　Ｒｅｃｒｕｉｔｅｒ,,株式会社,東京都,豊島区,南長崎４丁目２９番３号ロアパルム３－Ｂ号室,,13,116,1710052,,,,,,,2023-03-23,1,,,,,グローバルタレントリクルーター,0
620,3020001150780,新規,0,2023-03-23,2023-03-23,株式会社新井,,株式会社,神奈川県,横浜市金沢区,富岡東６丁目１１番６－２号,,14,108,2360051,,,,,,,2023-03-23,1,,,,,アライ,0
622,3020003023571,新規,0,2023-03-23,2023-03-23,合同会社朱堂,,合同会社,神奈川県,横浜市神奈川区,白幡仲町２６－７,,14,102,2210071,,,,,,,2023-03-23,1,,,,,スドウ,0
624,3020005015897,新規,0,2023-03-23,2023-03-23,医療法人社団新勝会,,その他の設立登記法人,神奈川県,横浜市栄区,小菅ケ谷１丁目５番１号本郷台駅前メディカルモールＣ区画,,14,115,2470007,,,,,,,2023-03-23,1,,,,,シンショウカイ,0
629,3021001078509,新規,0,2023-03-23,2023-03-23,株式会社あんみつ,,株式会社,神奈川県,相模原市南区,大野台１丁目９番４９号,,14,153,2520331,,,,,,,2023-03-23,1,,,,,アンミツ,0
630,3021001078525,新規,0,2023-03-23,2023-03-23,株式会社全国校友会支援機構,,株式会社,神奈川県,横須賀市,武３丁目１７番１２－３１１号,,14,201,2380313,,,,,,,2023-03-23,1,,,,,ゼンコクコウユウカイシエンキコウ,0
632,3021003012903,新規,0,2023-03-23,2023-03-23,合同会社ＨＯＭ,,合同会社,神奈川県,大和市,下鶴間２丁目１２番３３－１００２号,,14,213,2420001,,,,,,,2023-03-23,1,,,,,エイチオーエム,0
636,3030001152982,新規,0,2023-03-23,2023-03-23,ヒロ・ホールディングス株式会社,,株式会社,埼玉県,川口市,芝２丁目２９番１４号,,11,203,3330866,,,,,,,2023-03-23,1,,,,,ヒロホールディングス,0
641,3040001127579,新規,0,2023-03-23,2023-03-23,ＫＥＡ‐ＮＥＴ株式会社,,株式会社,千葉県,船橋市,丸山４丁目２７番２９号,,12,204,2730048,,,,,,,2023-03-23,1,,,,,ケアネット,0
642,3040001127620,新規,0,2023-03-23,2023-03-23,株式会社ねこやま,,株式会社,千葉県,千葉市若葉区,若松台３丁目１６番１４号,,12,104,2640027,,,,,,,2023-03-23,1,,,,,ネコヤマ,0
643,3040001127637,新規,0,2023-03-23,2023-03-23,株式会社ＨＤＳホールディングス,,株式会社,千葉県,船橋市,本郷町７２０番地,,12,204,2730033,,,,,,,2023-03-23,1,,,,,エイチディーエスホールディングス,0
646,3050003007332,新規,0,2023-03-23,2023-03-23,Ｎ＆Ｔ合同会社,,合同会社,茨城県,結城市,大字田間１２７９,,08,207,3070044,,,,,,,2023-03-23,1,,,,,エヌアンドティ,0
647,3050003007340,新規,0,2023-03-23,2023-03-23,合同会社Ｅ．Ｔ．ＡＧＥＮＣＹ　ＪＡＰＡＮ,,合同会社,茨城県,つくば市,春日２丁目２０番地３苅間ハイツＡ棟２０３号,,08,220,3050821,,,,,,,2023-03-23,1,,,,,イーティーエージェンシージャパン,0
653,3070001040242,新規,0,2023-03-23,2023-03-23,株式会社Ｎａｄａプロダクト,,株式会社,群馬県,伊勢崎市,市場町１丁目１３９７番地,,10,204,3792211,,,,,,,2023-03-23,1,,,,,ナダプロダクト,0
654,3080105006320,新規,0,2023-03-23,2023-03-23,協同組合ヒューマントラスト,,その他の設立登記法人,静岡県,三島市,大宮町３丁目２番３号,,22,206,4110035,,,,,,,2023-03-23,1,,,,,ヒューマントラスト,0
655,3080401026385,新規,0,2023-03-23,2023-03-23,Ｒｙｏｚｅｎ　Ｈｏｌｄｉｎｇｓ株式会社,,株式会社,静岡県,浜松市東区,和田町６８番地の１,,22,132,4350016,,,,,,,2023-03-23,1,,,,,リョーゼンホールディングス,0
661,3120001253375,新規,0,2023-03-23,2023-03-23,全正株式会社,,株式会社,大阪府,大阪市大正区,三軒家西３丁目４番１６号中山ビル２１２Ａ,,27,108,5510001,,,,,,,2023-03-23,1,,,,,ゼンショウ,0
662,3120001253391,新規,0,2023-03-23,2023-03-23,株式会社ＭＡＲＯ貿易,,株式会社,大阪府,大阪市天王寺区,生玉町２－３小出ビル１０６号,,27,109,5430071,,,,,,,2023-03-23,1,,,,,マロボウエキ,0
663,3120001253400,新規,0,2023-03-23,2023-03-23,裕程株式会社,,株式会社,大阪府,大阪市東成区,玉津１丁目１番２２号（１０２号室）,,27,115,5370023,,,,,,,2023-03-23,1,,,,,ユウテイ,0
664,3120001253409,新規,0,2023-03-23,2023-03-23,株式会社テクタク,,株式会社,大阪府,大阪市中央区,安土町２丁目５番５号,,27,128,5410052,,,,,,,2023-03-23,1,,,,,テクタク,0
665,3120001253441,新規,0,2023-03-23,2023-03-23,シンジョンジャパン株式会社,,株式会社,大阪府,大阪市中央区,谷町６丁目１５番２０号ソレイユ谷町４０１号室,,27,128,5420012,,,,,,,2023-03-23,1,,,,,シンジョンジャパン,0
667,3120003023669,新規,0,2023-03-23,2023-03-23,合同会社ＬＩＮＫ,,合同会社,大阪府,守口市,大宮通４丁目７番７号,,27,209,5700033,,,,,,,2023-03-23,1,,,,,リンク,0
668,3120003023685,新規,0,2023-03-23,2023-03-23,ＪｕｓｔＦｉｔ合同会社,,合同会社,大阪府,大阪市北区,梅田１丁目２番２号大阪駅前第２ビル１２‐１２,,27,127,5300001,,,,,,,2023-03-23,1,,,,,ジャストフィット,0
669,3120005023519,新規,0,2023-03-23,2023-03-23,一般社団法人福祉でつながる会,,その他の設立登記法人,大阪府,守口市,大久保町２丁目２―１２,,27,209,5700012,,,,,,,2023-03-23,1,,,,,フクシデツナガルカイ,0
673,3122001036818,新規,0,2023-03-23,2023-03-23,インデザ株式会社,,株式会社,大阪府,柏原市,玉手町２０－５７,,27,221,5820028,,,,,,,2023-03-23,1,,,,,インデザ,0
676,3130003008603,新規,0,2023-03-23,2023-03-23,合同会社ｉｓｍ,,合同会社,京都府,京都市西京区,川島三重町１０７番地２,,26,111,6158118,,,,,,,2023-03-23,1,,,,,イズム,0
679,3140001129524,新規,0,2023-03-23,2023-03-23,株式会社Ｗａｔａｓｈｉ,,株式会社,兵庫県,芦屋市,業平町１－１２サニーガーデン６０１,,28,206,6590068,,,,,,,2023-03-23,1,,,,,ワタシ,0
681,3140003018873,新規,0,2023-03-23,2023-03-23,合同会社ＬＥＧＲＥＴ,,合同会社,兵庫県,姫路市,花田町高木３８１番地１,,28,201,6710256,,,,,,,2023-03-23,1,,,,,レグレット,0
687,3180001155459,新規,0,2023-03-23,2023-03-23,株式会社ＢＩＫＵ,,株式会社,愛知県,名古屋市東区,白壁２丁目８番２０号白壁リンクス８０３号,,23,102,4610011,,,,,,,2023-03-23,1,,,,,ビク,0
691,3180301037217,新規,0,2023-03-23,2023-03-23,株式会社熊達磨,,株式会社,愛知県,田原市,田原町上八軒家４８番地２,,23,231,4413421,,,,,,,2023-03-23,1,,,,,クマダルマ,0
694,3200001041094,新規,0,2023-03-23,2023-03-23,株式会社フジマ,,株式会社,岐阜県,郡上市,八幡町島谷４０２番地,,21,219,5014222,,,,,,,2023-03-23,1,,,,,フジマ,0
695,3200001041103,新規,0,2023-03-23,2023-03-23,株式会社エクステリア西尾,,株式会社,岐阜県,可児市,久々利１７４９番地,,21,214,5090224,,,,,,,2023-03-23,1,,,,,エクステリアニシオ,0
699,3200003005907,新規,0,2023-03-23,2023-03-23,合同会社ｇｒａｔｉｆｙ,,合同会社,岐阜県,岐阜市,茜部菱野４丁目８７番地１（コスモグランデ３０３）,,21,201,5008268,,,,,,,2023-03-23,1,,,,,グラティファイ,0
702,3220001025319,新規,0,2023-03-23,2023-03-23,株式会社ＫＯ,,株式会社,石川県,金沢市,片町２丁目２１番２７号オーロラビル７Ｆ３号室,,17,201,9200981,,,,,,,2023-03-23,1,,,,,ケーオー,0
705,3250001020028,新規,0,2023-03-23,2023-03-23,株式会社コダカ,,株式会社,山口県,宇部市,大字善和１３０３番地,,35,202,7590134,,,,,,,2023-03-23,1,,,,,コダカ,0
718,3300001013249,新規,0,2023-03-23,2023-03-23,株式会社森商会,,株式会社,佐賀県,多久市,東多久町大字納所７９０番地１,,41,204,8460014,,,,,,,2023-03-23,1,,,,,モリショウカイ,0
721,3310003004526,新規,0,2023-03-23,2023-03-23,合同会社Ａｔｈｅｎａ,,合同会社,長崎県,佐世保市,吉岡町７９２－２,,42,202,8570143,,,,,,,2023-03-23,1,,,,,,0
722,3310003004534,新規,0,2023-03-23,2023-03-23,キラングループ合同会社,,合同会社,長崎県,長崎市,上戸石町２１３０－１０１,,42,201,8510111,,,,,,,2023-03-23,1,,,,,キラングループ,0
725,3320003004046,新規,0,2023-03-23,2023-03-23,合同会社優翔,,合同会社,大分県,宇佐市,大字上田９５２番地の８,,44,211,8790453,,,,,,,2023-03-23,1,,,,,,0
726,3330001030695,新規,0,2023-03-23,2023-03-23,株式会社こころ,,株式会社,熊本県,熊本市北区,植木町広住４６１番地１２,,43,105,8610131,,,,,,,2023-03-23,1,,,,,ココロ,0
733,3350005006145,新規,0,2023-03-23,2023-03-23,一般社団法人ミナミヴィレワークス,,その他の設立登記法人,宮崎県,宮崎市,佐土原町下田島２１６１９番地９４,,45,201,8800211,,,,,,,2023-03-23,1,,,,,ミナミヴィレワークス,0
734,3360001031732,新規,0,2023-03-23,2023-03-23,株式会社飛翔の風,,株式会社,沖縄県,中頭郡読谷村,字比謝４８３番地Ａ棟,,47,324,9040311,,,,,,,2023-03-23,1,,,,,ヒショウノカゼ,0
737,3370001049749,新規,0,2023-03-23,2023-03-23,株式会社アルト,,株式会社,宮城県,仙台市青葉区,落合３丁目７番１１号,,04,101,9893126,,,,,,,2023-03-23,1,,,,,アルト,0
738,3370003006046,新規,0,2023-03-23,2023-03-23,エムオーエル合同会社,,合同会社,宮城県,岩沼市,南長谷字角方４番地の３－１０３,,04,211,9892454,,,,,,,2023-03-23,1,,,,,エムオーエル,0
740,3390003002068,新規,0,2023-03-23,2023-03-23,合同会社オレンジベースカンパニー,,合同会社,山形県,寒河江市,西根２丁目５番２１号,,06,206,9910003,,,,,,,2023-03-23,1,,,,,オレンジベースカンパニー,0
742,3400001016183,新規,0,2023-03-23,2023-03-23,株式会社３ｒｄ　ＴＩＭＥ,,株式会社,岩手県,一関市,大東町摺沢字鳥啼沢１０２,,03,209,0290523,,,,,,,2023-03-23,1,,,,,サードタイム,0
748,3430001088690,新規,0,2023-03-23,2023-03-23,株式会社グローアップ,,株式会社,北海道,札幌市中央区,南四条西１２丁目１２９５番地６南４条セントラルハイツ４０３号,,01,101,0640804,,,,,,,2023-03-23,1,,,,,グローアップ,0
749,3430003014851,新規,0,2023-03-23,2023-03-23,合同会社満留珈,,合同会社,北海道,札幌市中央区,北二条東８丁目９０番地２２,,01,101,0600032,,,,,,,2023-03-23,1,,,,,マルカ,0
750,3430005014668,新規,0,2023-03-23,2023-03-23,一般社団法人いきいきライフ協会札幌宮の森,,その他の設立登記法人,北海道,札幌市中央区,宮の森二条１７丁目７番７号,,01,101,0640952,,,,,,,2023-03-23,1,,,,,,0
753,3460303000788,新規,0,2023-03-23,2023-03-23,合同会社みのり,,合同会社,北海道,斜里郡清里町,羽衣町５８番地,,01,546,0994405,,,,,,,2023-03-23,1,,,,,ミノリ,0
757,3470001019527,新規,0,2023-03-23,2023-03-23,株式会社スターフォート,,株式会社,香川県,高松市,太田下町２０３９番地８,,37,201,7618073,,,,,,,2023-03-23,1,,,,,スターフォート,0
761,3470003002373,新規,0,2023-03-23,2023-03-23,合同会社バイデン,,合同会社,香川県,高松市,香川町浅野２１１０番地１１,,37,201,7611703,,,,,,,2023-03-23,1,,,,,バイデン,0
764,3700150114864,新規,0,2023-03-23,2023-03-23,ｓｈｅｎ　ｚｈｅｎ　ｓｈｉ　ｚｈｏｎｇ　ｙｉ　ｘｉｎ　ｋｅ　ｊｉ　ｙｏｕ　ｘｉａｎ　ｇｏｎｇ　ｓｉ,,外国会社等,,,,,,,,ＮＯ．４１２　１　ｈａｏ　ｄｏｎｇｓａｎｘｉａｎｇ　ｓｈｕｉｋｏｕ　ｈｕａｙｕａｎ　３１　ｑｕ　ｓｈａｎｇｃｈｕａｎ　ｓｈｅｑｕ　ｘｉｎａｎｊｉｅｄａｏ　ｂａｏａｎｑｕ　Ｓｈｅｎｚｈｅｎ　ｇｕａｎｇｄｏｎｇ　５１８０００　Ｃｈｉｎａ,,,,,,2023-03-23,1,,,,,シンセンシゾンジシンケジユウゲンコウシ,0
765,3700150114872,新規,0,2023-03-23,2023-03-23,Ｓｈｅｎｚｈｅｎ　Ｉｎｔｅｌａｍｐ　Ｌｉｇｈｔｉｎｇ　Ｔｅｃｈｎｏｌｏｇｙ　ＣＯ．，ＬＴＤ,,外国会社等,,,,,,,,ｂａｏ’ａｎｑｕ　ｓｏｎｇｇａｎｇｊｉｅｄａｏ　ｄｏｎｇｆａｎｇｓｈｅｑｕ　ｔｉａｎｙａｎｙｉｌｕ　９ｈａｏ　３０１，Ｓｈｅｎｚｈｅｎ　Ｃｉｔｙ　Ｇｕａｎｇｄｏｎｇ　Ｐｒｏｖｉｎｃｅ，Ｃｈｉｎａ,,,,,,2023-03-23,1,,,,,シンセンインテランプライトニングテクノロジーカンパニーリミテッド,0
766,3700150114880,新規,0,2023-03-23,2023-03-23,Ｎｕｓｓｌｉ　Ｓｗｉｔｚｅｒｌａｎｄ　Ｌｔｄ．,,外国会社等,大阪府,大阪市北区,豊崎３丁目１６番１６－１１０１号,,27,127,5310072,スイス連邦トゥールガウ州フラウエンフェルト地区ヒュットウィレン、ハウプト通り３６,,,,,,2023-03-23,1,,,,,ニユスリスイツツランドエルテイーデイー,0
767,3700150114906,新規,0,2023-03-23,2023-03-23,ＶＡＬＵＥ　ＰＲＩＮＣＩＰＡＬＳ　ＬＩＭＩＴＥＤ,,外国会社等,東京都,港区,芝浦２丁目９－１－２００３,,13,103,1080023,Ｒｏｏｍ　Ａ，５６１Ｆ，Ｂｌｏｃｋ　５，ＩＳＬＡＮＤ　ＲＥＳＯＲＴ，２６　ＳＩＵ　ＳＡＩ　ＷＡＮ，ＨＯＮＧ　ＫＯＮＧ，ＣＨＩＮＡ,,,,,,2023-03-23,1,,,,,バリユープリンシパルリミテツド,0
768,3700150114914,新規,0,2023-03-23,2023-03-23,ｘｉａｍｅｎｃｈｅｎｑｕｎｋｅｊｉｙｏｕｘｉａｎｇｏｎｇｓｉ,,外国会社等,,,,,,,,５　Ｙｉｌａｎ　Ｒｏａｄ　ＮＯ　１，Ｕｎｉｔ　１９０３　Ｓｉｍｉｎｇ　Ｄｉｓｔｒｉｃｔ，Ｘｉａｍｅｎ　Ｃｉｔｙ，Ｆｕｊｉａｎ　Ｐｒｏｖｉｎｃｅ　Ｃｈｉｎａ,,,,,,2023-03-23,1,,,,,アモイシングンカギカンパニーリミテツド,0
777,4010001233866,新規,0,2023-03-23,2023-03-23,株式会社ＨａｓｈＦｏｒｋ,,株式会社,東京都,中央区,銀座１丁目２２番１１号銀座大竹ビジデンス２Ｆ,,13,102,1040061,,,,,,,2023-03-23,1,,,,,ハッシュフォーク,0
781,4010003040138,新規,0,2023-03-23,2023-03-23,合同会社Ｊエナジー,,合同会社,東京都,千代田区,丸の内３丁目１番１号東京共同会計事務所内,,13,101,1000005,,,,,,,2023-03-23,1,,,,,ジェイエナジー,0
787,4010403029771,新規,0,2023-03-23,2023-03-23,ココラボーテ合同会社,,合同会社,東京都,港区,芝浦４丁目２１番１－７１７号,,13,103,1080023,,,,,,,2023-03-23,1,,,,,ココラボーテ,0
799,4011001153220,新規,0,2023-03-23,2023-03-23,株式会社空と海の設計図,,株式会社,東京都,渋谷区,道玄坂１丁目１０番８号渋谷道玄坂東急ビル２Ｆ－Ｃ,,13,113,1500043,,,,,,,2023-03-23,1,,,,,ソラトウミノセッケイズ,0
800,4011001153245,新規,0,2023-03-23,2023-03-23,株式会社ビズデザイン,,株式会社,東京都,渋谷区,道玄坂１丁目１６番６号二葉ビル８ｂ,,13,113,1500043,,,,,,,2023-03-23,1,,,,,ビズデザイン,0
801,4011001153311,新規,0,2023-03-23,2023-03-23,東駿交通株式会社,,株式会社,東京都,渋谷区,道玄坂１丁目１５番３－７１５号,,13,113,1500043,,,,,,,2023-03-23,1,,,,,トウシュンコウツウ,0
803,4011003016490,新規,0,2023-03-23,2023-03-23,合同会社ライトパートナーズ,,合同会社,東京都,渋谷区,道玄坂１丁目１６－６二葉ビル８ｂ,,13,113,1500043,,,,,,,2023-03-23,1,,,,,ライトパートナーズ,0
804,4011003016499,新規,0,2023-03-23,2023-03-23,ＦＭＴＣ合同会社,,合同会社,東京都,渋谷区,代官山町８－７,,13,113,1500034,,,,,,,2023-03-23,1,,,,,エフエムティーシー,0
810,4011103012828,新規,0,2023-03-23,2023-03-23,合同会社ＶａｒｉｏｕｓＶｅｒｓｅ,,合同会社,東京都,新宿区,新宿１丁目３６番２号新宿第七葉山ビル３階,,13,104,1600022,,,,,,,2023-03-23,1,,,,,バリアスバース,0
811,4011103012836,新規,0,2023-03-23,2023-03-23,合同会社ＦｏｒＡｍｉｇｏ,,合同会社,東京都,新宿区,市谷台町１－３－３０２,,13,104,1620066,,,,,,,2023-03-23,1,,,,,フォーアミーゴ,0
817,4011801042119,新規,0,2023-03-23,2023-03-23,株式会社ＲＡＶＥＲＳ,,株式会社,東京都,葛飾区,青戸１丁目９－２３ジュネパレス葛飾第一１階,,13,122,1250062,,,,,,,2023-03-23,1,,,,,レイバース,0
822,4013303006551,新規,0,2023-03-23,2023-03-23,合同会社ＬＩＺＡＲＩＡ,,合同会社,東京都,豊島区,東池袋１丁目３４番５号いちご東池袋ビル６階,,13,116,1700013,,,,,,,2023-03-23,1,,,,,リザリア,0
826,4020001150722,新規,0,2023-03-23,2023-03-23,株式会社中央メンテナンス,,株式会社,神奈川県,横浜市神奈川区,菅田町１５４８番地１０１,,14,102,2210864,,,,,,,2023-03-23,1,,,,,チュウオウメンテナンス,0
827,4020001150730,新規,0,2023-03-23,2023-03-23,株式会社Ｎタス,,株式会社,神奈川県,横浜市港北区,富士塚１丁目８番１４号,,14,109,2220012,,,,,,,2023-03-23,1,,,,,エヌタス,0
828,4020001150755,新規,0,2023-03-23,2023-03-23,株式会社アンソレイエ,,株式会社,神奈川県,川崎市高津区,北見方１丁目１８番１７号,,14,134,2130005,,,,,,,2023-03-23,1,,,,,アンソレイエ,0
829,4020001150771,新規,0,2023-03-23,2023-03-23,ＫＭＳ株式会社,,株式会社,神奈川県,横浜市中区,尾上町４丁目５７番地横浜尾上町ビルディング８Ｆ,,14,104,2310015,,,,,,,2023-03-23,1,,,,,ケイエムエス,0
836,4020005015896,新規,0,2023-03-23,2023-03-23,医療法人社団結,,その他の設立登記法人,神奈川県,川崎市高津区,坂戸１丁目６番２０号ハイランド・ベイ溝の口１階,,14,134,2130012,,,,,,,2023-03-23,1,,,,,ユイ,0
838,4021001078499,新規,0,2023-03-23,2023-03-23,株式会社イエローハウスカンパニー,,株式会社,神奈川県,平塚市,田村５丁目２７番１号,,14,203,2540013,,,,,,,2023-03-23,1,,,,,イエローハウスカンパニー,0
855,4040001127578,新規,0,2023-03-23,2023-03-23,株式会社ＫＡＭＩＫＡＺＥ,,株式会社,千葉県,市川市,新浜１丁目５番３号,,12,203,2720136,,,,,,,2023-03-23,1,,,,,カミカゼ,0
856,4040001127603,新規,0,2023-03-23,2023-03-23,株式会社ライジング・サン,,株式会社,千葉県,柏市,松葉町６丁目２８番地３,,12,217,2770827,,,,,,,2023-03-23,1,,,,,ライジングサン,0
858,4040003022216,新規,0,2023-03-23,2023-03-23,合同会社くじらのもり,,合同会社,千葉県,南房総市,和田町松田６８６－１,,12,234,2992713,,,,,,,2023-03-23,1,,,,,クジラノモリ,0
859,4040003022240,新規,0,2023-03-23,2023-03-23,合同会社ＫＩＴ＆Ｃｏ．,,合同会社,千葉県,木更津市,大久保４丁目２１番７号,,12,206,2920815,,,,,,,2023-03-23,1,,,,,キットアンドコー,0
865,4060003004484,新規,0,2023-03-23,2023-03-23,合同会社Ｇａｒａｇｅ　ＡＳＳＩＳＴ,,合同会社,栃木県,宇都宮市,宝木本町１７０２番地１２,,09,201,3200075,,,,,,,2023-03-23,1,,,,,ガレージアシスト,0
866,4080103002766,新規,0,2023-03-23,2023-03-23,ベルキ合同会社,,合同会社,静岡県,伊東市,富戸１３１７番地４９５８大室高原八丁目１２７,,22,208,4130231,,,,,,,2023-03-23,1,,,,,ベルキ,0
868,4100001036236,新規,0,2023-03-23,2023-03-23,ヴェルヌアクア株式会社,,株式会社,長野県,長野市,若里４丁目１７番１号,,20,201,3800928,,,,,,,2023-03-23,1,,,,,ヴェルヌアクア,0
882,4120001253374,新規,0,2023-03-23,2023-03-23,ＴＹＣＨＥＳ株式会社,,株式会社,大阪府,大阪市大正区,三軒家西３丁目４番１６号中山ビル２１６Ｂ,,27,108,5510001,,,,,,,2023-03-23,1,,,,,タイチェス,0
883,4120001253390,新規,0,2023-03-23,2023-03-23,株式会社エスランス,,株式会社,大阪府,大阪市住吉区,万代４丁目１７番１４号,,27,120,5580055,,,,,,,2023-03-23,1,,,,,エスランス,0
884,4120001253465,新規,0,2023-03-23,2023-03-23,株式会社アイエムエム,,株式会社,大阪府,大阪市中央区,北浜３丁目１番２２号,,27,128,5410041,,,,,,,2023-03-23,1,,,,,アイエムエム,0
885,4120001253473,新規,0,2023-03-23,2023-03-23,株式会社コネクト,,株式会社,大阪府,大阪市西区,西本町３丁目１番４３号,,27,106,5500005,,,,,,,2023-03-23,1,,,,,コネクト,0
888,4120003023668,新規,0,2023-03-23,2023-03-23,合同会社みらいのおと,,合同会社,大阪府,寝屋川市,明徳１丁目１番４３号,,27,215,5720011,,,,,,,2023-03-23,1,,,,,ミライノオト,0
889,4120003023676,新規,0,2023-03-23,2023-03-23,ＲＩＮＮＡ合同会社,,合同会社,大阪府,大阪市東成区,中本３丁目１５番８－６０１,,27,115,5370022,,,,,,,2023-03-23,1,,,,,リンナ,0
890,4120005023526,新規,0,2023-03-23,2023-03-23,一般社団法人東洋医学保健室,,その他の設立登記法人,大阪府,大阪市中央区,安土町１丁目６番７－１２０２号,,27,128,5410052,,,,,,,2023-03-23,1,,,,,トウヨウイガクホケンシツ,0
893,4120101067170,新規,0,2023-03-23,2023-03-23,株式会社永井,,株式会社,大阪府,堺市北区,百舌鳥赤畑町４丁３１７番地１,,27,146,5918037,,,,,,,2023-03-23,1,,,,,ナガイ,0
894,4120101067179,新規,0,2023-03-23,2023-03-23,株式会社ＮＡＮＡＩＲＯ　ＨＯＭＥ,,株式会社,大阪府,松原市,三宅東５丁目１３６６－１三宅東ＣＵＢＥＳＰＡＣＥ－Ａ号,,27,217,5800041,,,,,,,2023-03-23,1,,,,,ナナイロホーム,0
907,4140001129523,新規,0,2023-03-23,2023-03-23,三田環境機材株式会社,,株式会社,兵庫県,三田市,駅前町１８番２５号,,28,219,6691528,,,,,,,2023-03-23,1,,,,,サンダカンキョウキザイ,0
909,4140005026535,新規,0,2023-03-23,2023-03-23,一般社団法人しんしんスポーツ・ＫＯＢＥ,,その他の設立登記法人,兵庫県,神戸市垂水区,清玄町２９番地の６,,28,108,6550865,,,,,,,2023-03-23,1,,,,,シンシンスポーツコウベ,0
912,4160003002825,新規,0,2023-03-23,2023-03-23,合同会社Ｍｉｒａｃｈ,,合同会社,滋賀県,草津市,南草津１丁目２－７１６,,25,206,5250050,,,,,,,2023-03-23,1,,,,,ミラク,0
917,4180001155441,新規,0,2023-03-23,2023-03-23,株式会社椿,,株式会社,愛知県,名古屋市守山区,大字上志段味字中屋敷１５６２番地の４,,23,113,4630001,,,,,,,2023-03-23,1,,,,,ツバキ,0
920,4180003025007,新規,0,2023-03-23,2023-03-23,合同会社フロッグパーク,,合同会社,愛知県,名古屋市中村区,太閤１丁目２０番１０号名古屋プレミアム医療モール太閤４階,,23,105,4530801,,,,,,,2023-03-23,1,,,,,フロッグパーク,0
924,4200001041102,新規,0,2023-03-23,2023-03-23,アートマウンテン株式会社,,株式会社,岐阜県,岐阜市,金町６丁目２１岐阜ステーションビル３０４,,21,201,5008842,,,,,,,2023-03-23,1,,,,,アートマウンテン,0
937,4240001061229,新規,0,2023-03-23,2023-03-23,株式会社富田商事,,株式会社,広島県,福山市,春日池３番１６号,,34,207,7210917,,,,,,,2023-03-23,1,,,,,トミタショウジ,0
943,4250001020019,新規,0,2023-03-23,2023-03-23,飯田工業株式会社,,株式会社,山口県,周南市,新田２丁目７番１７号,,35,215,7460043,,,,,,,2023-03-23,1,,,,,イイダコウギョウ,0
948,4280001008903,新規,0,2023-03-23,2023-03-23,株式会社大和永昌堂,,株式会社,島根県,松江市,学園南１丁目２０番１５号,,32,201,6900826,,,,,,,2023-03-23,1,,,,,ダイワエイショウドウ,0
953,4290001100956,新規,0,2023-03-23,2023-03-23,株式会社ＳＯＳＨＩＮ工務店,,株式会社,福岡県,福岡市早良区,東入部７丁目３５番１号,,40,137,8111102,,,,,,,2023-03-23,1,,,,,ソーシンコウムテン,0
959,4290803004371,新規,0,2023-03-23,2023-03-23,合同会社うてもり,,合同会社,福岡県,北九州市八幡西区,東鳴水４丁目８番１１号,,40,109,8060051,,,,,,,2023-03-23,1,,,,,ウテモリウテモリ,0
962,4300005007130,新規,0,2023-03-23,2023-03-23,一般社団法人ＷＥＳ　ｆａｃｔｏｒｙ　ｋａｓｈｉｍａ,,その他の設立登記法人,佐賀県,鹿島市,大字中村１８３６番地イ,,41,207,8491304,,,,,,,2023-03-23,1,,,,,ウェスファクトリーカシマ,0
971,4340003004076,新規,0,2023-03-23,2023-03-23,合同会社ＡＬＢＡ,,合同会社,鹿児島県,曽於郡大崎町,菱田２９６９番地１,,46,468,8997301,,,,,,,2023-03-23,1,,,,,アルバ,0
978,4430001088649,新規,0,2023-03-23,2023-03-23,株式会社Ｅｎ‐Ｌｏｏｐ,,株式会社,北海道,札幌市手稲区,新発寒四条５丁目１５番１７号,,01,109,0060804,,,,,,,2023-03-23,1,,,,,エンループ,0
979,4430001088665,新規,0,2023-03-23,2023-03-23,北良株式会社,,株式会社,北海道,札幌市北区,拓北三条４丁目１番５号,,01,102,0028063,,,,,,,2023-03-23,1,,,,,ホクリョウ,0
980,4430001088681,新規,0,2023-03-23,2023-03-23,フットスタッフ株式会社,,株式会社,北海道,江別市,大麻晴美町８番地の１４,,01,217,0690866,,,,,,,2023-03-23,1,,,,,フットスタッフ,0
988,4700150114863,新規,0,2023-03-23,2023-03-23,Ｆｏｓｈａｎ　Ｘｉｗｅｉ　Ｔｅｃｈｎｏｌｏｇｙ　Ｃｏ　Ｌｔｄ,,外国会社等,,,,,,,,Ｎｏ．４１９，Ｂｕｉｌｄｉｎｇ　Ｄ，Ｓｈｕｎｄｅ　Ｃｒｅａｔｉｖｅ　Ｉｎｄｕｓｔｒｙ　Ｐａｒｋ，Ｎｏ．４１　Ｆｅｎｇｘｉａｎｇ　Ｒｏａｄ，Ｄａｌｉａｎｇ　Ｘｉｎｊｉａｏ　Ｎｅｉｇｈｂｏｒｈｏｏｄ　Ｃｏｍｍｉｔｔｅｅ，Ｓｈｕｎｄｅ　Ｄｉｓｔｒｉｃｔ，Ｆｏｓｈａｎ　Ｃｉｔｙ，Ｃｈｉｎａ,,,,,,2023-03-23,1,,,,,フォシャンシーウェイテクノロジーカンパニーリミテッド,0
989,4700150114871,新規,0,2023-03-23,2023-03-23,Ｈａｎｇｚｈｏｕ　Ｚｈｏｎｇｒｕｉ　Ｔｒａｄｉｎｇ　Ｃｏ．Ｌｔｄ．,,外国会社等,,,,,,,,Ｑｉｕｊｉａｎｇ　Ｎｅｗ　Ｖｉｌｌａｇｅ，Ｘｉｎｔａｎｇ　Ｓｔｒｅｅｔ，Ｘｉａｏｓｈａｎ，Ｈａｎｇｚｈｏｕ，Ｚｈｅｊｉａｎｇ　Ｐｒｏｖｉｎｃｅ，Ｃｈｉｎａ,,,,,,2023-03-23,1,,,,,ハンゾウゾングルイトレーディングカンパニーリミテッド,0
990,4700150114896,新規,0,2023-03-23,2023-03-23,Ｔｏｙｏ　Ｓｅｍｉｃｏｎｄｕｃｔｏｒ　Ｔｅｃｈｎｏｌｏｇｙ　Ｃｏ．，Ｌｔｄ,,外国会社等,大阪府,大阪市中央区,安土町３丁目４番９号クレヴィアタワー御堂筋本町２１０１,,27,128,5410052,Ｉｎｔｅｒｓｈｏｒｅ　Ｃｈａｍｂｅｒｓ，Ｒｏａｄ　Ｔｏｗｎ，Ｔｏｒｔｏｌａ，Ｂｒｉｔｉｓｈ　Ｖｉｒｇｉｎ　Ｉｓｌａｎｄｓ,,,,,,2023-03-23,1,,,,,トヨセミコンダクターテクノロジーカンパニーリミテツド,0
991,4700150114905,新規,0,2023-03-23,2023-03-23,ＮＥＳＴ　ＨＯＬＤＣＯ　ＰＴＥ，ＬＴＤ．,,外国会社等,東京都,渋谷区,恵比寿１丁目２１－３恵比寿ＮＲビル６Ｆ,,13,113,1500013,８８　Ｍａｒｋｅｔ　Ｓｔｒｅｅｔ　＃４３－０１，Ｓｉｎｇａｐｏｒｅ　０４８９４８,,,,,,2023-03-23,1,,,,,ネストホールドコピーテイーイーリミテツド,0
992,4700150114913,新規,0,2023-03-23,2023-03-23,Ｘｉａｍｅｎｂｏｘｉａｎｇｔａｉｆｕｓｈｉｙｏｕｘｉａｎｇｏｎｇｓｉ,,外国会社等,,,,,,,,Ｎｉｎｇｈａｉ　Ｅｒｌｉ　６ＮＯ．２　Ｕｎｉｔ　４６５Ｊｉｍｅｉ　Ｄｉｓｔｒｉｃｔ，Ｘｉａｍｅｎ，Ｆｕｊｉａｎ　ＰｒｏｖｉｎｃｅＣｈｉｎａ,,,,,,2023-03-23,1,,,,,アモイハクシヨウタイフクシーカンパニーリミテツド,0
993,4700150114921,新規,0,2023-03-23,2023-03-23,Ｖｉｚｏｒ　Ａｐｐｓ　Ｌｉｍｉｔｅｄ,,外国会社等,,,,,,,,Ａｒｃｈｉｅｐｉｓｋｏｐｏｕ　Ｍａｋａｒｉｏｕ　ＩＩＩ，１６９　３，Ｆｌａｔ　３０１，３０２７，Ｌｉｍａｓｓｏｌ，Ｃｙｐｒｕｓ,00129836,,,,,2023-03-23,1,,,,,バイザーアプスリミテツド,0
1004,5010001233725,新規,0,2023-03-23,2023-03-23,株式会社アクセラレート・バイオ,,株式会社,東京都,中央区,京橋２丁目７番８号,,13,102,1040031,,,,,,,2023-03-23,1,,,,,アクセラレートバイオ,0
1005,5010001233832,新規,0,2023-03-23,2023-03-23,株式会社ＴＴ‐ＮＥＸＴホールディングス,,株式会社,東京都,千代田区,麹町４丁目７番５号麹町ロイヤルビル２０１,,13,101,1020083,,,,,,,2023-03-23,1,,,,,ティーティーネクストホールディングス,0
1006,5010001233849,新規,0,2023-03-23,2023-03-23,アマテラスコンサルティング株式会社,,株式会社,東京都,千代田区,丸の内３丁目４番１号新国際ビル８階８２２区,,13,101,1000005,,,,,,,2023-03-23,1,,,,,アマテラスコンサルティング,0
1007,5010001233865,新規,0,2023-03-23,2023-03-23,株式会社ウォンミー,,株式会社,東京都,中央区,銀座１丁目１２番４号Ｎ＆ＥＢＬＤ．７階,,13,102,1040061,,,,,,,2023-03-23,1,,,,,ウォンミー,0
1008,5010001233923,新規,0,2023-03-23,2023-03-23,ＹＨ　Ｒｅｓｅａｒｃｈ株式会社,,株式会社,東京都,中央区,勝どき５丁目１２番４－１２０３号,,13,102,1040054,,,,,,,2023-03-23,1,,,,,ワイエイチリサーチ,0
1013,5010003040137,新規,0,2023-03-23,2023-03-23,シャケフレーク合同会社,,合同会社,東京都,千代田区,外神田１丁目１６番１０号ニュー秋葉原センター３２号,,13,101,1010021,,,,,,,2023-03-23,1,,,,,シャケフレーク,0
1016,5010005036406,新規,0,2023-03-23,2023-03-23,一般社団法人ＡＩリーガルテクノロジー機構,,その他の設立登記法人,東京都,千代田区,九段北４丁目１－１４ＴＬビル３Ｆ,,13,101,1020073,,,,,,,2023-03-23,1,,,,,エーアイリーガルテクノロジーキコウ,0
1025,5010401173208,新規,0,2023-03-23,2023-03-23,Ｍｏｎｔｅｓｓｏｒｉ　Ｌｅａｒｎｉｎｇ　Ｔｅｃｈｎｏｌｏｇｙ株式会社,,株式会社,東京都,港区,芝公園４丁目２番８号,,13,103,1050011,,,,,,,2023-03-23,1,,,,,モンテッソーリラーニングテクノロジー,0
1030,5010501050182,新規,0,2023-03-23,2023-03-23,株式会社Ｖｏｏ‐Ｄｏｏ,,株式会社,東京都,台東区,上野６丁目１番６号御徒町グリーンハイツ１００５号,,13,106,1100005,,,,,,,2023-03-23,1,,,,,ブードゥー,0
1031,5010503006926,新規,0,2023-03-23,2023-03-23,ＴＡＳＫＳ合同会社,,合同会社,東京都,台東区,浅草橋５丁目２７番１１号,,13,106,1110053,,,,,,,2023-03-23,1,,,,,タスクス,0
1036,5010701044018,新規,0,2023-03-23,2023-03-23,ＲＥＡＣＨ２４Ｈ　ＪＡＰＡＮ株式会社,,株式会社,東京都,品川区,西五反田８丁目２番１０－６０２号,,13,109,1410031,,,,,,,2023-03-23,1,,,,,リーチトゥエンティフォーエイチジャパン,0
1044,5010903008043,新規,0,2023-03-23,2023-03-23,オールオーダー合同会社,,合同会社,東京都,世田谷区,代沢５丁目１１番６号,,13,112,1550032,,,,,,,2023-03-23,1,,,,,オールオーダー,0
1055,5011003016498,新規,0,2023-03-23,2023-03-23,合同会社キラキラ,,合同会社,東京都,渋谷区,笹塚２丁目１３番２号ソラーレ笹塚２０１,00129828,13,113,1510073,,,,,,,2023-03-23,1,,,,,キラキラ,0
1059,5011103012835,新規,0,2023-03-23,2023-03-23,合同会社トライフォース,,合同会社,東京都,新宿区,新宿２丁目１３番１０号武蔵野ビル５Ｆ,,13,104,1600022,,,,,,,2023-03-23,1,,,,,トライフォース,0
1064,5011603003862,新規,0,2023-03-23,2023-03-23,合同会社イザベラ,,合同会社,東京都,練馬区,石神井町１丁目２１番７－１０２号,,13,120,1770041,,,,,,,2023-03-23,1,,,,,イザベラ,0
1072,5011803005568,新規,0,2023-03-23,2023-03-23,合同会社ＹＭＳＡ,,合同会社,東京都,足立区,東和３丁目１０番２６号,,13,121,1200003,,,,,,,2023-03-23,1,,,,,ワイエムエスエー,0
1075,5012403005891,新規,0,2023-03-23,2023-03-23,レスパス合同会社,,合同会社,東京都,武蔵野市,吉祥寺南町２丁目２４番１３号,,13,203,1800003,,,,,,,2023-03-23,1,,,,,レスパス,0
1078,5013301050492,新規,0,2023-03-23,2023-03-23,株式会社シーンクラフト,,株式会社,東京都,豊島区,東池袋１丁目１７番１１号パークハイツ池袋１１０５号,,13,116,1700013,,,,,,,2023-03-23,1,,,,,シーンクラフト,0
1080,5020001150754,新規,0,2023-03-23,2023-03-23,株式会社シバタ,,株式会社,神奈川県,横浜市保土ケ谷区,新桜ケ丘１丁目１４番１２号,,14,106,2400036,,,,,,,2023-03-23,1,,,,,シバタ,0
1081,5020001150762,新規,0,2023-03-23,2023-03-23,株式会社ＣＵＲＩＯＵＳ　ＣＯＬＯＲＳ,,株式会社,神奈川県,川崎市川崎区,宮本町６番地１,,14,131,2100004,,,,,,,2023-03-23,1,,,,,キュリアスカラーズ,0
1083,5020003023553,新規,0,2023-03-23,2023-03-23,合同会社ＳＳライフスタイル,,合同会社,神奈川県,横浜市都筑区,牛久保３丁目６番１５－１０３号,,14,118,2240012,,,,,,,2023-03-23,1,,,,,エスエスライフスタイル,0
1084,5020003023561,新規,0,2023-03-23,2023-03-23,合同会社キウイ,,合同会社,神奈川県,横浜市港南区,日野中央３丁目９番１－７０２号,,14,111,2340053,,,,,,,2023-03-23,1,,,,,キウイ,0
1090,5021001078515,新規,0,2023-03-23,2023-03-23,Ｇ　ＣＩＴＹ　ＡＧＥＮＣＹ株式会社,,株式会社,神奈川県,藤沢市,善行坂１丁目１番４１～５０３号,,14,205,2510876,,,,,,,2023-03-23,1,,,,,ジーシティーエイジェンシー,0
1092,5030001152956,新規,0,2023-03-23,2023-03-23,株式会社ＴＯＰ　ＧＥＡＲ　ＡＵＴＯ,,株式会社,埼玉県,蕨市,中央５丁目４番１０号,,11,223,3350004,,,,,,,2023-03-23,1,,,,,トップギアオート,0
1095,5030003021399,新規,0,2023-03-23,2023-03-23,ＳＭＲ　ＪＡＰＡＮ合同会社,,合同会社,埼玉県,川口市,上青木西５丁目２番１９号コーポアイ１０１号,,11,203,3330845,,,,,,,2023-03-23,1,,,,,エスエムアルジャパン,0
1100,5040001127619,新規,0,2023-03-23,2023-03-23,株式会社煌希菜,,株式会社,千葉県,市原市,有秋台東３丁目２－１３,,12,219,2990124,,,,,,,2023-03-23,1,,,,,アキナ,0
1101,5040003022231,新規,0,2023-03-23,2023-03-23,ＫＫＢ合同会社,,合同会社,千葉県,柏市,東３丁目１－１９,,12,217,2770014,,,,,,,2023-03-23,1,,,,,ケーケービー,0
1102,5050003007330,新規,0,2023-03-23,2023-03-23,合同会社ＮＯＲＴＨＷＥＳＴ　ＰＡＳＳＡＧＥ,,合同会社,茨城県,つくば市,天久保３丁目２１番３号星谷ビル２―Ａ,,08,220,3050005,,,,,,,2023-03-23,1,,,,,ノースウェストパッセージ,0
1103,5050003007339,新規,0,2023-03-23,2023-03-23,Ｓｕｋａｉ７コーポレーション合同会社,,合同会社,茨城県,水戸市,渡里町３３６４,,08,201,3100902,,,,,,,2023-03-23,1,,,,,スカイセブンコーポレーション,0
1108,5080003002948,新規,0,2023-03-23,2023-03-23,駿河社中合同会社,,合同会社,静岡県,静岡市葵区,紺屋町１７番地の１葵タワー１階,,22,101,4200852,,,,,,,2023-03-23,1,,,,,スルガシャチュウ,0
1113,5100001036235,新規,0,2023-03-23,2023-03-23,ヴェルヌエナジー株式会社,,株式会社,長野県,長野市,若里４丁目１７番１号,,20,201,3800928,,,,,,,2023-03-23,1,,,,,ヴェルヌエナジー,0
1114,5100001036243,新規,0,2023-03-23,2023-03-23,株式会社コネクト,,株式会社,長野県,飯田市,松尾城４３７０－１,,20,205,3950825,,,,,,,2023-03-23,1,,,,,コネクト,0
1131,5120001253209,新規,0,2023-03-23,2023-03-23,大勝株式会社,,株式会社,大阪府,大阪市中央区,松屋町９番２０号ローレルステート松屋町６０１Ｂ,,27,128,5420067,,,,,,,2023-03-23,1,,,,,ダイショウ,0
1132,5120001253316,新規,0,2023-03-23,2023-03-23,ベスト株式会社,,株式会社,大阪府,大阪市阿倍野区,丸山通１丁目５番１号,,27,119,5450042,,,,,,,2023-03-23,1,,,,,ベスト,0
1133,5120001253357,新規,0,2023-03-23,2023-03-23,株式会社４８,,株式会社,大阪府,大阪市淀川区,西宮原１丁目８番３８－１３０３号,,27,123,5320004,,,,,,,2023-03-23,1,,,,,フォーティーエイト,0
1134,5120001253373,新規,0,2023-03-23,2023-03-23,浦櫻株式会社,,株式会社,大阪府,大阪市大正区,三軒家西３丁目４番１６号中山ビル２１７Ｂ,,27,108,5510001,,,,,,,2023-03-23,1,,,,,ホオウ,0
1135,5120001253431,新規,0,2023-03-23,2023-03-23,株式会社ととのい,,株式会社,大阪府,交野市,私市５丁目７番９号,,27,230,5760033,,,,,,,2023-03-23,1,,,,,トトノイ,0
1138,5120003023667,新規,0,2023-03-23,2023-03-23,瀚陽合同会社,00129839,合同会社,大阪府,大阪市住吉区,南住吉１丁目８番２２－３０２号,,27,120,5580041,,,,,,,2023-03-23,1,,,,,カンヨウ,0
1139,5120003023675,新規,0,2023-03-23,2023-03-23,合同会社ウィルシード,,合同会社,大阪府,大阪市東淀川区,西淡路１丁目１番９号ビジネス新大阪６１６号,,27,114,5330031,,,,,,,2023-03-23,1,,,,,ウィルシード,0
1150,5120901047288,新規,0,2023-03-23,2023-03-23,株式会社Ｍｙ．,,株式会社,大阪府,箕面市,小野原東３丁目８番１０号,,27,220,5620031,,,,,,,2023-03-23,1,,,,,マイ,0
1153,5122001036808,新規,0,2023-03-23,2023-03-23,威幟株式会社,,株式会社,大阪府,八尾市,竹渕西４丁目１４９番地,,27,212,5810051,,,,,,,2023-03-23,1,,,,,イシ,0
1168,5140001129522,新規,0,2023-03-23,2023-03-23,Ａｃｔｉｖｅ　Ｉｎｔｅｒｎａｔｉｏｎａｌ株式会社,,株式会社,兵庫県,神戸市中央区,三宮町２丁目２－２Ｂ１Ｆ,,28,110,6500021,,,,,,,2023-03-23,1,,,,,アクティブインターナショナル,0
1176,5180001155473,新規,0,2023-03-23,2023-03-23,株式会社ｖａｌｏ,,株式会社,愛知県,名古屋市名東区,梅森坂３丁目３８０８番地,,23,115,4650065,,,,,,,2023-03-23,1,,,,,ヴァロ,0
1177,5180001155481,新規,0,2023-03-23,2023-03-23,株式会社ＡｌＬ,,株式会社,愛知県,東海市,富木島町東長口２５番地の１７,,23,222,4760011,,,,,,,2023-03-23,1,,,,,オール,0
1180,5200001041101,新規,0,2023-03-23,2023-03-23,株式会社グリーンビジョン,,株式会社,岐阜県,各務原市,川島松倉町２４１番地１,,21,213,5016022,,,,,,,2023-03-23,1,,,,,グリーンビジョン,0
1183,5200003005905,新規,0,2023-03-23,2023-03-23,斉藤商会合同会社,,合同会社,岐阜県,可児市,瀬田６１３－１,,21,214,5090213,,,,,,,2023-03-23,1,,,,,サイトウショウカイ,0
1193,5240001061244,新規,0,2023-03-23,2023-03-23,Ｗｈｙ　ｎｏｔ株式会社,,株式会社,広島県,広島市南区,宇品西３丁目８番４１号,,34,103,7340014,,,,,,,2023-03-23,1,,,,,ワイノット,0
1195,5260001037762,新規,0,2023-03-23,2023-03-23,株式会社Ｂｉｏ　Ｇｒｅｎｚｅ,,株式会社,岡山県,岡山市北区,下中野７０６番地１２０ファインヴィーブル参番館１０２,,33,101,7000973,,,,,,,2023-03-23,1,,,,,ビオグレンゼ,0
1201,5290001100947,新規,0,2023-03-23,2023-03-23,株式会社鼎誠商事,,株式会社,福岡県,福岡市東区,原田４丁目３０番１２号,,40,131,8120063,,,,,,,2023-03-23,1,,,,,テイセイショウジ,0
1203,5290003013692,新規,0,2023-03-23,2023-03-23,合同会社ＨＩＫＡＲＩ．,,合同会社,福岡県,福岡市中央区,清川３丁目２６番１０号,,40,133,8100005,,,,,,,2023-03-23,1,,,,,ヒカリ,0
1207,5310003004532,新規,0,2023-03-23,2023-03-23,合同会社フラワーヘルパーステーション,,合同会社,長崎県,佐世保市,権常寺町１１０９－２１,,42,202,8593213,,,,,,,2023-03-23,1,,,,,フラワーヘルパーステーション,0
1211,5330003009769,新規,0,2023-03-23,2023-03-23,ワークアウト合同会社,,合同会社,熊本県,人吉市,西間上町２５０５番地の１別府アパート２Ｆ,,43,203,8680071,,,,,,,2023-03-23,1,,,,,ワークアウト,0
1212,5340001025445,新規,0,2023-03-23,2023-03-23,株式会社Ｒｉｓｅ,,株式会社,鹿児島県,大島郡徳之島町,亀津３６６２番地,,46,530,8917101,,,,,,,2023-03-23,1,,,,,ライズ,0
1217,5350001018241,新規,0,2023-03-23,2023-03-23,株式会社アカンパニー文武まんま,,株式会社,宮崎県,宮崎市,霧島４丁目４０番地,,45,201,8800032,,,,,,,2023-03-23,1,,,,,アカンパニームンムマンマ,0
1218,5350003004322,新規,0,2023-03-23,2023-03-23,Ｆｕｊｉ技研工業合同会社,,合同会社,宮崎県,宮崎市,吉村町別府原甲１７５７番地３,,45,201,8800841,,,,,,,2023-03-23,1,,,,,フジギケンコウギョウ,0
1225,5370003006044,新規,0,2023-03-23,2023-03-23,合同会社シンシアプラス,,合同会社,宮城県,名取市,那智が丘２丁目５番１１,,04,207,9811244,,,,,,,2023-03-23,1,,,,,シンシアプラス,0
1237,5430001088689,新規,0,2023-03-23,2023-03-23,株式会社ビルドワーク,,株式会社,北海道,札幌市東区,北十七条東１７丁目３－１２,,01,103,0650017,,,,,,,2023-03-23,1,,,,,ビルドワーク,0
1238,5430005014666,新規,0,2023-03-23,2023-03-23,医療法人社団成嶺会,,その他の設立登記法人,北海道,札幌市北区,北二十二条西４丁目２－１２コモド２２　１Ｆ,,01,102,0010022,,,,,,,2023-03-23,1,,,,,セイレイカイ,0
1239,5460103001522,新規,0,2023-03-23,2023-03-23,合同会社Ｋ．Ｐ．Ｄ,,合同会社,北海道,帯広市,西九条北２丁目１番地３８,,01,207,0800039,,,,,,,2023-03-23,1,,,,,ケーピーディー,0
1245,5700150114870,新規,0,2023-03-23,2023-03-23,ｈｕｉ　ｚｈｏｕ　ｓｈｉ　ｙｕａｎ　ｘｉｎｇ　ｋｅ　ｊｉ　ｙｏｕ　ｘｉａｎ　ｇｏｎｇ　ｓｉ,,外国会社等,,,,,,,,Ｎｏ．３　ｆａｎｇ，７　ｃｅｎｇ，ｑｉａｏｓｈｅｎｇ　ｇｏｎｇｇｕａｎ，Ｙ３　ｄｏｎｇ，ＨＱ－２　ｑｕ，ｐｉｎｇｓｈａｎ　ｑｉａｏｃｈｅｎｇ　ｋａｉｆａｑｕ，ｈｕｉｄｏｎｇ　ｃｏｕｎｔｙ，Ｃｈｉｎａ,,,,,,2023-03-23,1,,,,,フイゾウシユアンシングケジユウゲンコウシ,0
1246,5700150114904,新規,0,2023-03-23,2023-03-23,Ｋｋｄａｙ．ｃｏｍ　Ｉｎｔｅｒｎａｔｉｏｎａｌ　Ｃｏｍｐａｎｙ　Ｌｉｍｉｔｅｄ,,外国会社等,,,,,,,,Ｓｕｉｔｅ　１０２，Ｃａｎｎｏｎ　Ｐｌａｃｅ，Ｎｏｒｔｈ　Ｓｏｕｎｄ　Ｒｄ．，Ｇｅｏｒｇｅ　Ｔｏｗｎ，Ｇｒａｎｄ　Ｃａｙｍａｎ．,,,,,,2023-03-23,1,,,,,ケイケイデイドツトコムインターナシヨナルカンパニーリミテツド,0
1247,5700150114912,新規,0,2023-03-23,2023-03-23,ｘｉａｍｅｎｘｉａｏｓａｎｋｅｊｉｙｏｕｘｉａｎｇｏｎｇｓｉ,,外国会社等,,,,,,,,ｓｉｍｉｎｇｑｕｇｕａｎｙｉｎｓｈａｎｙｉｌａｎｌｕ５ｈａｏｔｉａｎｒｕｉ９９ｓｈａｎｇｗｕｚｈｏｎｇｘｉｎ１９０２ｄａｎｙｕａｎｘｉａｍｅｎｆｕｊｉａｎ,,,,,,2023-03-23,1,,,,,アモイシヨウサンテクノロジーカンパニーリミテツド,0
1248,5700150114920,新規,0,2023-03-23,2023-03-23,匯僑室内装修設計股斌有限公司,00129835,外国会社等,,,,,,,,台湾台北市松山區南京東路４段７５號１２樓,,,,,,2023-03-23,1,,,,,ホエチヤオシツナイソウシユウセツケイコフンユウゲンコウシ,0
1256,6010001233641,新規,0,2023-03-23,2023-03-23,株式会社シーガル＆アソシエイツ,,株式会社,東京都,中央区,勝どき５丁目５－１４－３２０,,13,102,1040054,,,,,,,2023-03-23,1,,,,,シーガルアンドアソシエイツ,0
1257,6010001233864,新規,0,2023-03-23,2023-03-23,株式会社カヒコル,,株式会社,東京都,中央区,日本橋２丁目１６番３号,,13,102,1030027,,,,,,,2023-03-23,1,,,,,カヒコル,0
1258,6010001233880,新規,0,2023-03-23,2023-03-23,株式会社ＩＳＳＯ,,株式会社,東京都,千代田区,神田神保町３丁目１７番地２９－８０１号,,13,101,1010051,,,,,,,2023-03-23,1,,,,,イッソ,0
1259,6010001233889,新規,0,2023-03-23,2023-03-23,株式会社アズウェルマネジメント,,株式会社,東京都,中央区,明石町６番４号ニチレイ明石町ビル,,13,102,1040044,,,,,,,2023-03-23,1,,,,,アズウェルマネジメント,0
1260,6010001233897,新規,0,2023-03-23,2023-03-23,Ｒｕｄｄｅｒ株式会社,,株式会社,東京都,中央区,京橋１丁目３番１号八重洲口大栄ビル１２階,,13,102,1040031,,,,,,,2023-03-23,1,,,,,ラダー,0
1261,6010001233922,新規,0,2023-03-23,2023-03-23,阿波羅テクノロジー株式会社,,株式会社,東京都,中央区,勝どき５丁目１２番４－１２０３号,,13,102,1040054,,,,,,,2023-03-23,1,,,,,アハラテクノロジー,0
1265,6010003040128,新規,0,2023-03-23,2023-03-23,キール合同会社,,合同会社,東京都,中央区,日本橋室町１丁目１１番１２号日本橋水野ビル７階,,13,102,1030022,,,,,,,2023-03-23,1,,,,,キール,0
1271,6010401173207,新規,0,2023-03-23,2023-03-23,株式会社ネット風評被害対策,,株式会社,東京都,港区,北青山２丁目７番１３号プラセオ青山ビル３階,,13,103,1070061,,,,,,,2023-03-23,1,,,,,ネットフウヒョウヒガイタイサク,0
1272,6010401173256,新規,0,2023-03-23,2023-03-23,株式会社パークアシスト,,株式会社,東京都,港区,浜松町２丁目２番１５号浜松町ダイヤビル２Ｆ,,13,103,1050013,,,,,,,2023-03-23,1,,,,,パークアシスト,0
1273,6010401173264,新規,0,2023-03-23,2023-03-23,株式会社オルタナティブテクノロジー＆プロダクツ,,株式会社,東京都,港区,虎ノ門３丁目７番５号,,13,103,1050001,,,,,,,2023-03-23,1,,,,,オルタナティブテクノロジーアンドプロダクツ,0
1276,6010403029729,新規,0,2023-03-23,2023-03-23,Ｒｅｖｅｌｉｓ合同会社,,合同会社,東京都,港区,六本木７丁目１２－２Ｒ７ビルディングＳＰＡＣＥＳ六本木,,13,103,1060032,,,,,,,2023-03-23,1,,,,,レヴェリス,0
1278,6010501050157,新規,0,2023-03-23,2023-03-23,株式会社Ｒ２Ｍ,,株式会社,東京都,台東区,雷門２丁目３番１１号,,13,106,1110034,,,,,,,2023-03-23,1,,,,,アールツーエム,0
1279,6010501050181,新規,0,2023-03-23,2023-03-23,長楽株式会社,,株式会社,東京都,台東区,浅草橋５丁目１番３１号ロッキービル３０５,,13,106,1110053,,,,,,,2023-03-23,1,,,,,チョウラク,0
1280,6010503006925,新規,0,2023-03-23,2023-03-23,森田合同会社,,合同会社,東京都,台東区,千束３丁目１９－９,,13,106,1110031,,,,,,,2023-03-23,1,,,,,モリタ,0
1284,6010701044017,新規,0,2023-03-23,2023-03-23,株式会社ＯＬＹＭＰＵＳ,,株式会社,東京都,品川区,西五反田３丁目４番１０号目黒ＭＡＲＣレジデンスタワー１２１０号室,,13,109,1410031,,,,,,,2023-03-23,1,,,,,オリンパス,0
1292,6010903008034,新規,0,2023-03-23,2023-03-23,合同会社ＭＡＸＩＳ,,合同会社,東京都,世田谷区,上馬１丁目４番９－７０３号,,13,112,1540011,,,,,,,2023-03-23,1,,,,,マクシス,0
1293,6010903008050,新規,0,2023-03-23,2023-03-23,合同会社スーパーチューンズ,,合同会社,東京都,世田谷区,給田３丁目３０番６号ルグランヴェル烏山２１０１,,13,112,1570064,,,,,,,2023-03-23,1,,,,,スーパーチューンズ,0
1298,6011001153227,新規,0,2023-03-23,2023-03-23,株式会社Ｆｌｕｆｆｙ　Ｋｅｔ,,株式会社,東京都,渋谷区,円山町５番５号Ｎａｖｉ渋谷Ｖ３階,,13,113,1500044,,,,,,,2023-03-23,1,,,,,フラッフィーケット,0
1299,6011001153235,新規,0,2023-03-23,2023-03-23,株式会社ＳＴＩＤＥ,,株式会社,東京都,目黒区,五本木１丁目１３番４号Ｃｏｌｌｉｎｅ－３０１,,13,110,1530053,,,,,,,2023-03-23,1,,,,,スタイド,0
1300,6011001153276,新規,0,2023-03-23,2023-03-23,株式会社ネクステイル,,株式会社,東京都,渋谷区,神宮前６丁目２３番４号桑野ビル２階,,13,113,1500001,,,,,,,2023-03-23,1,,,,,ネクステイル,0
1301,6011001153284,新規,0,2023-03-23,2023-03-23,株式会社Ｓ．Ｄ．Ｂ．Ｔ,,株式会社,東京都,渋谷区,代々木３丁目１５番７号,,13,113,1510053,,,,,,,2023-03-23,1,,,,,エスディービーティー,0
1307,6011101102240,新規,0,2023-03-23,2023-03-23,株式会社Ｐｒｏｌｄ,,株式会社,東京都,新宿区,早稲田鶴巻町５７４－２２ＭＢＳ江戸川橋ビル２階,,13,104,1620041,,,,,,,2023-03-23,1,,,,,プロルド,0
1308,6011101102257,新規,0,2023-03-23,2023-03-23,株式会社ＭＵＲＡＴＡＸ,,株式会社,東京都,新宿区,西新宿３丁目３番１３号西新宿水間ビル６階,,13,104,1600023,,,,,,,2023-03-23,1,,,,,ムラタックス,0
1309,6011103012834,新規,0,2023-03-23,2023-03-23,合同会社ゴールディー,,合同会社,東京都,新宿区,四谷４丁目２４コンシェリア新宿御苑１２０１,,13,104,1600004,,,,,,,2023-03-23,1,,,,,ゴールディー,0
1314,6011401024993,新規,0,2023-03-23,2023-03-23,株式会社裕泰商事,,株式会社,東京都,板橋区,相生町２５番１９号,,13,119,1740044,,,,,,,2023-03-23,1,,,,,ユウタイショウジ,0
1316,6011405002236,新規,0,2023-03-23,2023-03-23,医療法人社団ＳＩＮ,,その他の設立登記法人,東京都,板橋区,赤塚２丁目３番１７号ルフォンプログレ赤塚１階,,13,119,1750092,,,,,,,2023-03-23,1,,,,,シン,0
1318,6011501029083,新規,0,2023-03-23,2023-03-23,株式会社小澤商会,,株式会社,東京都,荒川区,町屋４丁目２番９号メゾン・ド・リビエール１０１,,13,118,1160001,,,,,,,2023-03-23,1,,,,,オザワショウカイ,0
1335,6020001150786,新規,0,2023-03-23,2023-03-23,株式会社古垣直久事務所,,株式会社,神奈川県,横浜市西区,浅間町４丁目３４９番地３高城ビルＩ－２階,00129823,14,103,2200072,,,,,,,2023-03-23,1,,,,,フルガキナオヒサジムショ,0
1336,6020001150803,新規,0,2023-03-23,2023-03-23,株式会社アミエル,,株式会社,神奈川県,横浜市港北区,新横浜２丁目５番地９,,14,109,2220033,,,,,,,2023-03-23,1,,,,,アミエル,0
1337,6020003023560,新規,0,2023-03-23,2023-03-23,栄華合同会社,,合同会社,神奈川県,横浜市戸塚区,名瀬町７９１番地２棟３０２号,,14,110,2450051,,,,,,,2023-03-23,1,,,,,エイカ,0
1338,6020003023569,新規,0,2023-03-23,2023-03-23,合同会社セントラルｉ,,合同会社,神奈川県,横浜市泉区,上飯田町２１２１番地２８,,14,116,2450018,,,,,,,2023-03-23,1,,,,,セントラルアイ,0
1342,6021001078497,新規,0,2023-03-23,2023-03-23,株式会社ＮＫＣパートナーズ,,株式会社,神奈川県,逗子市,久木３丁目１２番１６号,,14,208,2490001,,,,,,,2023-03-23,1,,,,,エヌケーシーパートナーズ,0
1343,6021001078506,新規,0,2023-03-23,2023-03-23,株式会社Ｌａｕｌｅ’ａ,,株式会社,神奈川県,相模原市中央区,光が丘２丁目２６番５号,,14,152,2520227,,,,,,,2023-03-23,1,,,,,ラウレア,0
1344,6021001078514,新規,0,2023-03-23,2023-03-23,株式会社ライ商会,,株式会社,神奈川県,伊勢原市,上粕屋３４３番地の１６,,14,214,2591141,,,,,,,2023-03-23,1,,,,,ライショウカイ,0
1346,6021003012900,新規,0,2023-03-23,2023-03-23,合同会社インセンスリーズン,,合同会社,神奈川県,藤沢市,石川５丁目５番４号ダイアパレス湘南台３０５,,14,205,2520815,,,,,,,2023-03-23,1,,,,,インセンスリーズン,0
1348,6030001152922,新規,0,2023-03-23,2023-03-23,株式会社ダズリング,,株式会社,埼玉県,所沢市,宮本町１丁目４番２３号,,11,208,3591143,,,,,,,2023-03-23,1,,,,,ダズリング,0
1351,6030003021407,新規,0,2023-03-23,2023-03-23,合同会社ＢＵＳＩＮＥＳＳ,,合同会社,埼玉県,朝霞市,膝折町３丁目５－１８－２Ｆ,,11,227,3510014,,,,,,,2023-03-23,1,,,,,ビジネス,0
1355,6040001127502,新規,0,2023-03-23,2023-03-23,株式会社にっぱち,,株式会社,千葉県,山武市,松尾町田越８２２,,12,237,2891516,,,,,,,2023-03-23,1,,,,,ニッパチ,0
1356,6040001127576,新規,0,2023-03-23,2023-03-23,株式会社エレガント産業,,株式会社,千葉県,千葉市稲毛区,小仲台８丁目２９番２５－２０６号,,12,103,2630043,,,,,,,2023-03-23,1,,,,,エレガントサンギョウ,0
1357,6040001127592,新規,0,2023-03-23,2023-03-23,株式会社エンジェルジャポン,,株式会社,千葉県,東金市,小野１０１番地１,,12,213,2830821,,,,,,,2023-03-23,1,,,,,エンジェルジャポン,0
1358,6040001127601,新規,0,2023-03-23,2023-03-23,株式会社Ｈｕｍｏｒ　Ｌｅｇａｍｅ,,株式会社,千葉県,山武市,成東２３４３,,12,237,2891326,,,,,,,2023-03-23,1,,,,,ユーモアリゲーム,0
1361,6040003022239,新規,0,2023-03-23,2023-03-23,エバーグリーン合同会社,,合同会社,千葉県,市川市,大洲３丁目１７番１７－４０５号,,12,203,2720032,,,,,,,2023-03-23,1,,,,,エバーグリーン,0
1366,6060003004482,新規,0,2023-03-23,2023-03-23,合同会社ＭａＮａ,,合同会社,栃木県,日光市,土沢１３７９番地１１,,09,206,3211274,,,,,,,2023-03-23,1,,,,,マナ,0
1369,6080001025529,新規,0,2023-03-23,2023-03-23,ＩＳ管理株式会社,,株式会社,静岡県,静岡市清水区,上清水町６番１７－２号,,22,103,4240835,,,,,,,2023-03-23,1,,,,,アイエスカンリ,0
1371,6090001018036,新規,0,2023-03-23,2023-03-23,株式会社道しるべ,,株式会社,山梨県,笛吹市,石和町山崎２７番地１,,19,211,4060022,,,,,,,2023-03-23,1,,,,,ミチシルベ,0
1373,6100001036242,新規,0,2023-03-23,2023-03-23,株式会社ｍａｎｄｏｒｅ,,株式会社,長野県,諏訪市,大字上諏訪大字上諏訪１７５３番地３,,20,206,3920003,,,,,,,2023-03-23,1,,,,,マンドール,0
1381,6120001253315,新規,0,2023-03-23,2023-03-23,松創国際株式会社,,株式会社,大阪府,大阪市住之江区,東加賀屋２丁目７番１６号,,27,125,5590012,,,,,,,2023-03-23,1,,,,,マツソウコクサイ,0
1382,6120001253372,新規,0,2023-03-23,2023-03-23,ＡＴＥＮ　ＦＡＳＨＩＯＮ株式会社,,株式会社,大阪府,大阪市大正区,三軒家西３丁目４番１６号中山ビル２１１Ｃ,,27,108,5510001,,,,,,,2023-03-23,1,,,,,アテンファッション,0
1383,6120001253389,新規,0,2023-03-23,2023-03-23,株式会社デジタルキット,,株式会社,大阪府,大阪市淀川区,東三国２丁目２６－７,,27,123,5320002,,,,,,,2023-03-23,1,,,,,デジタルキット,0
1384,6120001253430,新規,0,2023-03-23,2023-03-23,金木株式会社,,株式会社,大阪府,大阪市城東区,諏訪２丁目３番２４号１Ａ,,27,118,5360021,,,,,,,2023-03-23,1,,,,,キンキ,0
1386,6120003023674,新規,0,2023-03-23,2023-03-23,合同会社クロップ,,合同会社,大阪府,大阪市東淀川区,西淡路１丁目１番９号ビジネス新大阪６１６号,,27,114,5330031,,,,,,,2023-03-23,1,,,,,クロップ,0
1387,6120003023682,新規,0,2023-03-23,2023-03-23,ｉＤｅｓｉｇｎ合同会社,,合同会社,大阪府,大阪市阿倍野区,阿倍野筋３丁目１２番２－１３０２号,,27,119,5450052,,,,,,,2023-03-23,1,,,,,アイデザイン,0
1394,6120101067185,新規,0,2023-03-23,2023-03-23,株式会社インフィルコーポレーション,,株式会社,大阪府,堺市南区,富蔵５９６番地５,,27,145,5900127,,,,,,,2023-03-23,1,,,,,インフィルコーポレーション,0
1398,6120901047287,新規,0,2023-03-23,2023-03-23,株式会社えにし,,株式会社,大阪府,豊中市,西緑丘３丁目２２番２５号,,27,203,5600005,,,,,,,2023-03-23,1,,,,,エニシ,0
1402,6122003002542,新規,0,2023-03-23,2023-03-23,合同会社ＷＡＮＴ,,合同会社,大阪府,八尾市,久宝寺４丁目３番５２号,,27,212,5810072,,,,,,,2023-03-23,1,,,,,ウォント,0
1406,6130001073910,新規,0,2023-03-23,2023-03-23,株式会社服部,,株式会社,京都府,木津川市,兜台４丁目１５番地１２,,26,214,6190224,,,,,,,2023-03-23,1,,,,,ハットリ,0
1407,6130003008591,新規,0,2023-03-23,2023-03-23,乙訓一宝工房合同会社,,合同会社,京都府,乙訓郡大山崎町,字大山崎小字鏡田１８－３８,,26,303,6180071,,,,,,,2023-03-23,1,,,,,オトクニヒトタカラコウボウ,0
1408,6130005016725,新規,0,2023-03-23,2023-03-23,ＳＧＳ社会保険労務士法人,,その他の設立登記法人,京都府,京都市伏見区,深草森吉町２４－３０フォワード１０１号,,26,109,6120005,,,,,,,2023-03-23,1,,,,,エスジーエス,0
1412,6140001129488,新規,0,2023-03-23,2023-03-23,株式会社ＨＩＹ,,株式会社,兵庫県,明石市,大明石町１丁目６番１－８０４号,,28,203,6730891,,,,,,,2023-03-23,1,,,,,エイチアイワイ,0
1413,6140003018821,新規,0,2023-03-23,2023-03-23,合同会社Ｍｒ．ｓｏｕｒｃｅ,,合同会社,兵庫県,尼崎市,金楽寺町２丁目２６番１２号,,28,202,6600806,,,,,,,2023-03-23,1,,,,,ミスターソース,0
1414,6140005026509,新規,0,2023-03-23,2023-03-23,特定非営利活動法人日本温熱健康協会,,その他の設立登記法人,兵庫県,尼崎市,東初島町２番４０,,28,202,6600832,,,,,,,2023-03-23,1,,,,,ニホンオンネツケンコウキョウカイ,0
1416,6160003002823,新規,0,2023-03-23,2023-03-23,合同会社及川工業,,合同会社,滋賀県,大津市,一里山２丁目１５番１５号新向陽ハイツ１０５,,25,201,5202153,,,,,,,2023-03-23,1,,,,,オイカワコウギョウ,0
1417,6170003001849,新規,0,2023-03-23,2023-03-23,合同会社橋本不動産,,合同会社,和歌山県,橋本市,山田４７１,,30,203,6480081,,,,,,,2023-03-23,1,,,,,ハシモトフドウサン,0
1422,6180001155464,新規,0,2023-03-23,2023-03-23,ルチル株式会社,,株式会社,愛知県,名古屋市中村区,則武２丁目１４番１１号名駅富士ビル,,23,105,4530014,,,,,,,2023-03-23,1,,,,,ルチル,0
1424,6180005020144,新規,0,2023-03-23,2023-03-23,あゆむ協同組合,,その他の設立登記法人,愛知県,名古屋市中村区,亀島２丁目８番５号,,23,105,4530013,,,,,,,2023-03-23,1,,,,,アユム,0
1428,6200001041100,新規,0,2023-03-23,2023-03-23,株式会社ＲＩＴＡ,,株式会社,岐阜県,大垣市,荒川町３９７番地１３,,21,202,5030993,,,,,,,2023-03-23,1,,,,,リタ,0
1429,6200003005904,新規,0,2023-03-23,2023-03-23,合同会社ＧＯＩＣＨＩ,,合同会社,岐阜県,恵那市,笠置町毛呂窪中田３２９番１,,21,210,5097209,,,,,,,2023-03-23,1,,,,,ゴイチ,0
1430,6210003001621,新規,0,2023-03-23,2023-03-23,合同会社オフィスＫＡＺ,,合同会社,福井県,吉田郡永平寺町,松岡芝原３丁目３番地,,18,322,9101134,,,,,,,2023-03-23,1,,,,,オフィスカズ,0
1434,6230001019754,新規,0,2023-03-23,2023-03-23,株式会社鳳,,株式会社,富山県,富山市,横内４０５番地,,16,201,9398033,,,,,,,2023-03-23,1,,,,,ホウ,0
1437,6250001020025,新規,0,2023-03-23,2023-03-23,株式会社アクアス,,株式会社,山口県,下関市,武久町１丁目３１番１号,,35,201,7510833,,,,,,,2023-03-23,1,,,,,アクアス,0
1439,6260001037761,新規,0,2023-03-23,2023-03-23,株式会社岩崎建設,00129822,株式会社,岡山県,岡山市北区,葵町１‐４‐１０８,,33,101,7000045,,,,,,,2023-03-23,1,,,,,イワサキケンセツ,0
1440,6260003004248,新規,0,2023-03-23,2023-03-23,合同会社ＨＫ,,合同会社,岡山県,岡山市北区,白石２２８番地１１,,33,101,7010143,,,,,,,2023-03-23,1,,,,,エイチケー,0
1445,6290001100946,新規,0,2023-03-23,2023-03-23,ＹＯＥＮ株式会社,,株式会社,福岡県,福岡市中央区,白金２丁目４－２８ロマネスク白金４０５室,,40,133,8100012,,,,,,,2023-03-23,1,,,,,ヨエン,0
1446,6290001100970,新規,0,2023-03-23,2023-03-23,ジオバンブー株式会社,,株式会社,福岡県,福岡市城南区,七隈７丁目２番４５号,,40,136,8140133,,,,,,,2023-03-23,1,,,,,ジオバンブー,0
1449,6290003013700,新規,0,2023-03-23,2023-03-23,合同会社ＡｉｒＡｃｔ,,合同会社,福岡県,春日市,上白水１丁目１８番地１,,40,218,8160844,,,,,,,2023-03-23,1,,,,,エアアクト,0
1452,6310003004531,新規,0,2023-03-23,2023-03-23,Ｎｕｍｂｅｒ　Ｏｎｅ合同会社,,合同会社,長崎県,長崎市,岩川町１５番２０サンガーデン浦上アトモス６０２号,,42,201,8528106,,,,,,,2023-03-23,1,,,,,ナンバーワン,0
1461,6370001049738,新規,0,2023-03-23,2023-03-23,株式会社共和通商サービス,,株式会社,宮城県,宮城郡利府町,澤乙字深山８６番地カーサ・ソレアードＫ２０２号室,,04,406,9810100,,,,,,,2023-03-23,1,,,,,キョウワツウショウサービス,0
1468,6400005008315,新規,0,2023-03-23,2023-03-23,医療法人小野寺内科医院,,その他の設立登記法人,岩手県,二戸郡一戸町,一戸字向町１４８番地１,,03,524,0285312,,,,,,,2023-03-23,1,,,,,オノデラナイカイイン,0
1469,6410001013425,新規,0,2023-03-23,2023-03-23,日本ダカマコーポレーション株式会社,,株式会社,秋田県,秋田市,四ツ小屋字笹葉３３４番地,,05,201,0101417,,,,,,,2023-03-23,1,,,,,ニホンダカマコーポレーション,0
1474,6430001088671,新規,0,2023-03-23,2023-03-23,株式会社Ｓｉｓｕ　Ｒ,,株式会社,北海道,札幌市豊平区,月寒東一条１７丁目１番３号,,01,105,0620051,,,,,,,2023-03-23,1,,,,,シスアール,0
1475,6430001088688,新規,0,2023-03-23,2023-03-23,六花重工株式会社,,株式会社,北海道,滝川市,東滝川町１丁目３番７６号,,01,225,0730027,,,,,,,2023-03-23,1,,,,,ムツノハナジュウコウ,0
1477,6430005014665,新規,0,2023-03-23,2023-03-23,医療法人和,,その他の設立登記法人,北海道,札幌市厚別区,上野幌三条４丁目１９番２６号ホクノー上野幌ビル２階,,01,108,0040033,,,,,,,2023-03-23,1,,,,,ワ,0
1479,6460301005134,新規,0,2023-03-23,2023-03-23,株式会社成田自動車整備工場,,株式会社,北海道,紋別郡遠軽町,清川５５番地１２,,01,555,0990422,,,,,,,2023-03-23,1,,,,,ナリタジドウシャセイビコウジョウ,0
1481,6470001019524,新規,0,2023-03-23,2023-03-23,桜香電気株式会社,,株式会社,香川県,高松市,香川町大野２１９０番地１４,,37,201,7611701,,,,,,,2023-03-23,1,,,,,オウカデンキ,0
1482,6700150114911,新規,0,2023-03-23,2023-03-23,Ｗｕｈａｎ　ｔａｋｅ　ｍｅ　ｆｌｙ　Ｔｅｃｈｎｏｌｏｇｙ　Ｃｏ．，Ｌｔｄ．,,外国会社等,,,,,,,,Ｎｏ．９，Ｆｌｏｏｒ　２１，Ｕｎｉｔ　３，Ｐｈａｓｅ　Ｉ，Ｍｏｄｅｒｎ　Ｉｎｔｅｒｎａｔｉｏｎａｌ　Ｄｅｓｉｇｎ　Ｃｉｔｙ，Ｇｕａｎｎａｎ　Ｓｃｉｅｎｃｅ　ａｎｄ　Ｔｅｃｈｎｏｌｏｇｙ　Ｉｎｄｕｓｔｒｉａｌ　Ｐａｒｋ，Ｄｏｎｇｈｕ　Ｎｅｗ　Ｔｅｃｈｎｏｌｏｇｙ　Ｄｅｖｅｌｏｐｍｅｎｔ　Ｚｏｎｅ，Ｗｕｈａｎ,00129834,,,,,2023-03-23,1,,,,,ブカンテイクミーフライテクノロジーカンパニーリミテド,0
1484,7010001233789,新規,0,2023-03-23,2023-03-23,Ｍ＆Ｉホールディングス株式会社,,株式会社,東京都,中央区,銀座１丁目１２番４号Ｎ＆Ｅ・ＢＬＤ．６Ｆ,,13,102,1040061,,,,,,,2023-03-23,1,,,,,エムアンドアイホールディングス,0
1485,7010001233806,新規,0,2023-03-23,2023-03-23,ティーエスアイパートナーズ株式会社,,株式会社,東京都,中央区,日本橋堀留町１丁目２番１３号,,13,102,1030012,,,,,,,2023-03-23,1,,,,,ティーエスアイパートナーズ,0
1486,7010001233822,新規,0,2023-03-23,2023-03-23,ＧＦアセット株式会社,,株式会社,東京都,中央区,日本橋箱崎町１－２ＴＨＥＳＨＯＲＥ日本橋茅場町２Ｆ,,13,102,1030015,,,,,,,2023-03-23,1,,,,,ジーエフアセット,0
1487,7010001233830,新規,0,2023-03-23,2023-03-23,株式会社Ｗｏｒｌｄ　Ｌｉｆｅ,,株式会社,東京都,中央区,銀座１丁目２２番１１号銀座大竹ビジデンス２Ｆ,,13,102,1040061,,,,,,,2023-03-23,1,,,,,ワールドライフ,0
1488,7010001233888,新規,0,2023-03-23,2023-03-23,株式会社ｕｐｂｅａｔ,,株式会社,東京都,文京区,小石川５丁目１９番１２－１０８号,,13,105,1120002,,,,,,,2023-03-23,1,,,,,アップビート,0
1492,7010003040077,新規,0,2023-03-23,2023-03-23,合同会社橋本商店,,合同会社,東京都,中央区,東日本橋２丁目２８番４号日本橋ＣＥＴビル２階,,13,102,1030004,,,,,,,2023-03-23,1,,,,,ハシモトショウテン,0
1493,7010003040119,新規,0,2023-03-23,2023-03-23,合同会社アリスマ,,合同会社,東京都,中央区,銀座１丁目１２番４号Ｎ＆ＥＢＬＤ．６Ｆ,,13,102,1040061,,,,,,,2023-03-23,1,,,,,アリスマ,0
1494,7010003040127,新規,0,2023-03-23,2023-03-23,ＯＰＥＮ　ＣＬＯＺＥ合同会社,,合同会社,東京都,千代田区,神田佐久間町３丁目２８星野ビル５０８号室,,13,101,1010025,,,,,,,2023-03-23,1,,,,,オープンクローズ,0
1495,7010003040143,新規,0,2023-03-23,2023-03-23,福岡西浦ホテルマネジメント合同会社,,合同会社,東京都,千代田区,霞が関３丁目２番１号,,13,101,1000013,,,,,,,2023-03-23,1,,,,,フクオカニシノウラホテルマネジメント,0
1505,7010401173230,新規,0,2023-03-23,2023-03-23,株式会社ヤマザキ,,株式会社,東京都,港区,赤坂４丁目８番１９号赤坂フロントタウン３階,,13,103,1070052,,,,,,,2023-03-23,1,,,,,ヤマザキ,0
1506,7010401173239,新規,0,2023-03-23,2023-03-23,ｘＢｏｕｎｄ株式会社,,株式会社,東京都,港区,高輪３丁目１番１４－６０２号,,13,103,1080074,,,,,,,2023-03-23,1,,,,,クロスバウンド,0
1510,7010501050156,新規,0,2023-03-23,2023-03-23,株式会社ＪＯＨＮＮＹ,,株式会社,東京都,台東区,松が谷１丁目８－１２,,13,106,1110036,,,,,,,2023-03-23,1,,,,,ジョニー,0
1511,7010503006924,新規,0,2023-03-23,2023-03-23,ＤＡＮＧ　ＳＡＮＧ合同会社,,合同会社,東京都,台東区,東上野２丁目２２番１０号,,13,106,1100015,,,,,,,2023-03-23,1,,,,,ダンサン,0
1512,7010601062794,新規,0,2023-03-23,2023-03-23,盛華株式会社,,株式会社,東京都,墨田区,横川３丁目６番７号２－Ｉ,,13,107,1300003,,,,,,,2023-03-23,1,,,,,セイカ,0
1513,7010603010074,新規,0,2023-03-23,2023-03-23,合同会社ｈａｃｏ,,合同会社,東京都,江東区,扇橋２丁目１０番３－７１２号,,13,108,1350011,,,,,,,2023-03-23,1,,,,,ハコ,0
1521,7010903008041,新規,0,2023-03-23,2023-03-23,合同会社ザ・マナア,,合同会社,東京都,世田谷区,経堂１丁目３０番２３号,,13,112,1560052,,,,,,,2023-03-23,1,,,,,ザマナア,0
1523,7011001153234,新規,0,2023-03-23,2023-03-23,株式会社さくら相談,,株式会社,東京都,渋谷区,道玄坂１丁目１６番６号二葉ビル７階Ｂ号室,,13,113,1500043,,,,,,,2023-03-23,1,,,,,サクラソウダン,0
1524,7011001153250,新規,0,2023-03-23,2023-03-23,株式会社Ｐｙｘｉｓ,,株式会社,東京都,渋谷区,渋谷１丁目３番１８号,,13,113,1500002,,,,,,,2023-03-23,1,,,,,ピクシス,0
1526,7011003016488,新規,0,2023-03-23,2023-03-23,合同会社ビットバレージャパン,,合同会社,東京都,渋谷区,富ヶ谷１丁目５１－１,,13,113,1510063,,,,,,,2023-03-23,1,,,,,ビットバレージャパン,0
1531,7011101102223,新規,0,2023-03-23,2023-03-23,株式会社ＫＧ,,株式会社,東京都,新宿区,神楽坂３丁目６番地,,13,104,1620825,,,,,,,2023-03-23,1,,,,,ケージー,0
1532,7011101102231,新規,0,2023-03-23,2023-03-23,株式会社ｍｉｓｅｒｕ,,株式会社,東京都,新宿区,西新宿３丁目３番１３号,,13,104,1600023,,,,,,,2023-03-23,1,,,,,ミセル,0
1533,7011101102256,新規,0,2023-03-23,2023-03-23,Ａｄｖａｎｃｙ株式会社,,株式会社,東京都,新宿区,百人町２丁目２５－８大久保ハウス３０３号室,,13,104,1690073,,,,,,,2023-03-23,1,,,,,アドバンシ,0
1535,7011201024516,新規,0,2023-03-23,2023-03-23,株式会社Ｐｙｒｏ,,株式会社,東京都,中野区,新井１丁目２３－１９ヒグチビル１－３０２号室,,13,114,1650026,,,,,,,2023-03-23,1,,,,,ピロ,0
1536,7011301028549,新規,0,2023-03-23,2023-03-23,筱薈科技控股株式会社,,株式会社,東京都,杉並区,天沼２丁目７番７号マンション大竹３０１,,13,115,1670032,,,,,,,2023-03-23,1,,,,,ショウワイカギコウコ,0
1537,7011601002245,新規,0,2023-03-23,2023-03-23,株式会社ゴコー,,株式会社,東京都,練馬区,貫井４丁目４７番４６号,,13,120,1760021,,,,,,,2023-03-23,1,,,,,ゴコー,0
1539,7011601026681,新規,0,2023-03-23,2023-03-23,ＩＴＵ株式会社,,株式会社,東京都,練馬区,高松５丁目１１番３０号加瀬ビル１９０Ｎｏ．１００１,,13,120,1790075,,,,,,,2023-03-23,1,,,,,アイティーユー,0
1549,7013301050474,新規,0,2023-03-23,2023-03-23,株式会社澤,,株式会社,東京都,豊島区,池袋２丁目４３番７号ダイチツムラビル３階,,13,116,1710014,,,,,,,2023-03-23,1,,,,,サワ,0
1550,7013301050482,新規,0,2023-03-23,2023-03-23,ＭＡＮＤ株式会社,,株式会社,東京都,豊島区,南池袋１丁目９番１８号３２１号室,,13,116,1710022,,,,,,,2023-03-23,1,,,,,マンダ,0
1555,7020001150703,新規,0,2023-03-23,2023-03-23,株式会社遠水商事,,株式会社,神奈川県,川崎市幸区,幸町１丁目９８７番３号,,14,132,2120011,,,,,,,2023-03-23,1,,,,,エンスイショウジ,0
1556,7020001150728,新規,0,2023-03-23,2023-03-23,株式会社Ｎスポ,,株式会社,神奈川県,横浜市都筑区,池辺町１５８８番地,,14,118,2240053,,,,,,,2023-03-23,1,,,,,エヌスポ,0
1557,7020001150744,新規,0,2023-03-23,2023-03-23,Ｆｕｋｕｉｎｎ株式会社,,株式会社,神奈川県,横浜市西区,高島２丁目１１番２号スカイメナー横浜５１９,,14,103,2200011,,,,,,,2023-03-23,1,,,,,フクイン,0
1563,7020005015893,新規,0,2023-03-23,2023-03-23,一般社団法人大空福祉会,,その他の設立登記法人,神奈川県,横浜市瀬谷区,二ツ橋町２２３番地１つゆきの森Ｅ棟５－２,,14,114,2460021,,,,,,,2023-03-23,1,,,,,オオゾラフクシカイ,0
1567,7021001078521,新規,0,2023-03-23,2023-03-23,Ｍ２Ｓ株式会社,,株式会社,神奈川県,鎌倉市,関谷３５１,,14,204,2470075,,,,,,,2023-03-23,1,,,,,エムツーエス,0
1570,7021003012899,新規,0,2023-03-23,2023-03-23,イー管理サービス合同会社,,合同会社,神奈川県,足柄下郡湯河原町,鍛冶屋５７０－１,,14,384,2590313,,,,,,,2023-03-23,1,,,,,イーカンリサービス,0
1580,7030001152946,新規,0,2023-03-23,2023-03-23,株式会社トライスター,,株式会社,埼玉県,本庄市,銀座２丁目５番２３号レインボー本庄７０５,,11,211,3670052,,,,,,,2023-03-23,1,,,,,トライスター,0
1581,7030001152954,新規,0,2023-03-23,2023-03-23,株式会社モアフロント,,株式会社,埼玉県,さいたま市浦和区,瀬ヶ崎５丁目２５番１３号,,11,107,3300044,,,,,,,2023-03-23,1,,,,,モアフロント,0
1586,7030003021414,新規,0,2023-03-23,2023-03-23,合同会社ＡＺ,,合同会社,埼玉県,上尾市,仲町２丁目１１－３－Ａ,,11,219,3620035,,,,,,,2023-03-23,1,,,,,エーゼット,0
1592,7040001127575,新規,0,2023-03-23,2023-03-23,株式会社ワイエル商事,,株式会社,千葉県,東金市,南上宿１１番地４１,,12,213,2830066,,,,,,,2023-03-23,1,,,,,ワイエルショウジ,0
1593,7040001127617,新規,0,2023-03-23,2023-03-23,株式会社マグリブ,,株式会社,千葉県,船橋市,松が丘２丁目３９－２,,12,204,2740064,,,,,,,2023-03-23,1,,,,,マグリブ,0
1596,7060001035818,新規,0,2023-03-23,2023-03-23,株式会社三業,,株式会社,栃木県,宇都宮市,江曽島１丁目１番７号,,09,201,3210107,,,,,,,2023-03-23,1,,,,,サンギョウ,0
1598,7070003004869,新規,0,2023-03-23,2023-03-23,合同会社Ｐｌｕｓ１Ｓｕｒｐｒｉｓｅ,,合同会社,群馬県,吾妻郡高山村,大字中山３５１９番地５,,10,428,3770702,,,,,,,2023-03-23,1,,,,,プラスワンサプライズ,0
1599,7080001025528,新規,0,2023-03-23,2023-03-23,株式会社富士山ワールドツアーズ,,株式会社,静岡県,静岡市駿河区,南町１１番２９号,,22,102,4228067,,,,,,,2023-03-23,1,,,,,フジサンワールドツアーズ,0
1602,7080103002763,新規,0,2023-03-23,2023-03-23,オーストラリ屋合同会社,,合同会社,静岡県,熱海市,伊豆山３０５番地３,,22,205,4130002,,,,,,,2023-03-23,1,,,,,オーストラリヤ,0
1608,7100003006936,新規,0,2023-03-23,2023-03-23,合同会社からり,,合同会社,長野県,長野市,上松４丁目２８番２０号,,20,201,3800802,,,,,,,2023-03-23,1,,,,,カラリ,0
1630,7120001253371,新規,0,2023-03-23,2023-03-23,瑞騏株式会社,,株式会社,大阪府,大阪市大正区,三軒家西３丁目４番１６号中山ビル２０９,,27,108,5510001,,,,,,,2023-03-23,1,,,,,ズイキ,0
1631,7120001253388,新規,0,2023-03-23,2023-03-23,株式会社ＣＬＡＲＡＳ,,株式会社,大阪府,大阪市淀川区,西中島６丁目２番３号チサンマンション新大阪８０１号室,,27,123,5320011,,,,,,,2023-03-23,1,,,,,クララス,0
1633,7120003023590,新規,0,2023-03-23,2023-03-23,合同会社草,,合同会社,大阪府,大阪市中央区,南船場１丁目３番１０号,,27,128,5420081,,,,,,,2023-03-23,1,,,,,クサ,0
1634,7120003023673,新規,0,2023-03-23,2023-03-23,合同会社エクステージ,,合同会社,大阪府,大阪市東淀川区,西淡路１丁目１番９号ビジネス新大阪６１６号,,27,114,5330031,,,,,,,2023-03-23,1,,,,,エクステージ,0
1636,7120005023515,新規,0,2023-03-23,2023-03-23,一般財団法人ＢＯＴＡＮＩＳＴ財団,,その他の設立登記法人,大阪府,大阪市北区,中之島６丁目１番２１号,,27,127,5300005,,,,,,,2023-03-23,1,,,,,ボタニストザイダン,0
1637,7120005023523,新規,0,2023-03-23,2023-03-23,一般社団法人ドローンみらい推進協議会,,その他の設立登記法人,大阪府,大阪市中央区,船越町１丁目６番６号,,27,128,5400036,,,,,,,2023-03-23,1,,,,,ドローンミライスイシンキョウギカイ,0
1641,7120101067184,新規,0,2023-03-23,2023-03-23,ＴＥＳＯＲＯ株式会社,,株式会社,大阪府,羽曳野市,古市４丁目２番２号,,27,222,5830852,,,,,,,2023-03-23,1,,,,,テゾーロ,0
1642,7120103005134,新規,0,2023-03-23,2023-03-23,三田商事合同会社,,合同会社,大阪府,阪南市,舞４丁目３７－２３,,27,232,5990224,,,,,,,2023-03-23,1,,,,,サンダショウジ,0
1645,7120901047286,新規,0,2023-03-23,2023-03-23,株式会社テックマン,,株式会社,大阪府,箕面市,桜井２丁目１４番１７－１０１号,,27,220,5620043,,,,,,,2023-03-23,1,,,,,テックマン,0
1647,7120903004541,新規,0,2023-03-23,2023-03-23,ＬＩｓｂｌａｎｃ合同会社,,合同会社,大阪府,豊中市,岡上の町２丁目１番１－８０１号,,27,203,5600023,,,,,,,2023-03-23,1,,,,,リスブラン,0
1651,7130001073835,新規,0,2023-03-23,2023-03-23,株式会社フジユウ,,株式会社,京都府,長岡京市,馬場川原４１番地２２,,26,209,6170828,,,,,,,2023-03-23,1,,,,,フジユウ,0
1663,7160005011177,新規,0,2023-03-23,2023-03-23,医療法人社団オウル,,その他の設立登記法人,滋賀県,近江八幡市,鷹飼町５７７,,25,204,5230891,,,,,,,2023-03-23,1,,,,,オウル,0
1670,7180001155439,新規,0,2023-03-23,2023-03-23,株式会社Ｂ．Ｂ．ｋｅｎｓｅｔｓｕ,,株式会社,愛知県,春日井市,上野町４９９番地１,,23,206,4800306,,,,,,,2023-03-23,1,,,,,ビービーケンセツ,0
1671,7180001155447,新規,0,2023-03-23,2023-03-23,株式会社アーカム農園,,株式会社,愛知県,海部郡飛島村,大字新政成１１丁目２７番地,,23,427,4901443,,,,,,,2023-03-23,1,,,,,アーカムノウエン,0
1672,7180001155471,新規,0,2023-03-23,2023-03-23,株式会社絹川,,株式会社,愛知県,海部郡蟹江町,桜３丁目１４５番地メゾンＮＥＯ２０２号,,23,425,4970038,,,,,,,2023-03-23,1,,,,,キヌカワ,0
1675,7180003025004,新規,0,2023-03-23,2023-03-23,合同会社スリーエフ,,合同会社,愛知県,名古屋市千種区,富士見台１丁目１６番地の１,,23,101,4640015,,,,,,,2023-03-23,1,,,,,スリーエフ,0
1681,7210003001620,新規,0,2023-03-23,2023-03-23,合同会社ミツ・エイ興業,,合同会社,福井県,越前市,小松１丁目１番３１号,,18,209,9150816,,,,,,,2023-03-23,1,,,,,ミツエイコウギョウ,0
1684,7220001025323,新規,0,2023-03-23,2023-03-23,株式会社Ｒｅｌｕｍ,,株式会社,石川県,金沢市,西金沢新町１９５番地,,17,201,9218055,,,,,,,2023-03-23,1,,,,,リルム,0
1686,7230001019753,新規,0,2023-03-23,2023-03-23,株式会社ＲＥｔｉｍｅ,,株式会社,富山県,高岡市,木津２５１９番地,,16,202,9330857,,,,,,,2023-03-23,1,,,,,リタイム,0
1689,7240001061242,新規,0,2023-03-23,2023-03-23,ワイエス空調サービス株式会社,,株式会社,広島県,呉市,焼山東３丁目６番８号,,34,202,7370936,,,,,,,2023-03-23,1,,,,,ワイエスクウチョウサービス,0
1690,7240003006063,新規,0,2023-03-23,2023-03-23,プロ・エンタープライズ合同会社,,合同会社,広島県,広島市中区,大手町３丁目１番３号,,34,101,7300051,,,,,,,2023-03-23,1,,,,,プロエンタープライズ,0
1691,7240003006071,新規,0,2023-03-23,2023-03-23,合同会社ｐｒｏｐｏｎｉ,,合同会社,広島県,広島市安佐南区,相田６丁目２番１０―２０４号,,34,105,7310141,,,,,,,2023-03-23,1,,,,,プロポーニ,0
1697,7260001037760,新規,0,2023-03-23,2023-03-23,株式会社ＡＮＣ．ｏｒｇ,,株式会社,岡山県,岡山市北区,三門東町５番２７号グレースハイツ５０１,,33,101,7000042,,,,,,,2023-03-23,1,,,,,アンカオーグ,0
1708,7290001100961,新規,0,2023-03-23,2023-03-23,株式会社ＡＬＬ’０,,株式会社,福岡県,福岡市南区,長丘３丁目１１番２７号,,40,134,8150075,,,,,,,2023-03-23,1,,,,,オールゼロ,0
1714,7320001019645,新規,0,2023-03-23,2023-03-23,株式会社Ｓ‐Ｒｉｎｇ,,株式会社,大分県,大分市,大字野津原７３８番地の１ヴァンベールＡ２０３号,,44,201,8701203,,,,,,,2023-03-23,1,,,,,エスリング,0
1720,7370005010604,新規,0,2023-03-23,2023-03-23,社会福祉法人歩みの会,,その他の設立登記法人,宮城県,石巻市,鹿又字学校前４３番地１,,04,202,9861111,,,,,,,2023-03-23,1,,,,,アユミノカイ,0
1725,7400003003044,新規,0,2023-03-23,2023-03-23,合同会社北岩手ファーム,,合同会社,岩手県,二戸市,浄法寺町袖小又６３番４,,03,213,0286100,,,,,,,2023-03-23,1,,,,,キタイワテファーム,0
1730,7430001088687,新規,0,2023-03-23,2023-03-23,コールスタッフ株式会社,,株式会社,北海道,札幌市北区,北七条西６丁目２番地３４ＳＫビル８階８０１,,01,102,0600807,,,,,,,2023-03-23,1,,,,,コールスタッフ,0
1731,7430001088695,新規,0,2023-03-23,2023-03-23,株式会社カンナ,,株式会社,北海道,札幌市白石区,菊水七条３丁目１番７－８０３号,,01,104,0030807,,,,,,,2023-03-23,1,,,,,カンナ,0
1733,7430003014831,新規,0,2023-03-23,2023-03-23,合同会社Ｍ．Ｅ．Ｓ,,合同会社,北海道,札幌市白石区,北郷一条９丁目２―１２フォース１―２０７,,01,104,0030831,,,,,,,2023-03-23,1,,,,,エムイーエス,0
1741,7480003001957,新規,0,2023-03-23,2023-03-23,合同会社Ｅｄｔｅｃｈ‐Ｇｕｉｌｄ,,合同会社,徳島県,徳島市,下助任町３丁目３４番地１,,36,201,7700805,,,,,,,2023-03-23,1,,,,,エドテックギルド,0
1744,7700150114869,新規,0,2023-03-23,2023-03-23,ｈｕｉ　ｚｈｏｕ　ｓｈｉ　ｙｉ　ｂｏ　ｙｕａｎ　ｙｉ　ｋｅ　ｊｉ　ｙｏｕ　ｘｉａｎ　ｇｏｎｇ　ｓｉ,,外国会社等,,,,,,,,Ｎｏ．０２　Ｆａｎｇ，２６　ｃｅｎｇ，Ｎｏ．１　ｄａｎｙｕａｎ，Ｎｏ．６１　ｂｕｉｌｄｉｎｇ　Ｚｈｏｎｇｈａｎｇｗｅｉｌａｚｈｕａｎｇｙｕａｎ，ｚｈｕｃｈａｎｇｄｉｄｕａｎ，ｐｉｎｇｓｈａｎ　ｃｈｅｎ　ｔａｎｇｇｕａｎｌｉｑｕ，ｈｕｉｄｏｎｇ　ｃｏｕｎｔｙ，Ｃｈｉｎａ,,,,,,2023-03-23,1,,,,,フイゾウシイボユアンイケジユウゲンコウシ,0
1745,7700150114902,新規,0,2023-03-23,2023-03-23,新小岩駅南口地区市街地再開発組合,,その他,東京都,葛飾区,新小岩１丁目５１番１７号第一スゴービル２階Ａ号室,,13,122,1240024,,,,,,,2023-03-23,1,,,,,シンコイワエキミナミグチチクシガイチサイカイハツクミアイ,0
1746,7700150114919,新規,0,2023-03-23,2023-03-23,Ｌｅｔａｏ　Ｉｎｔｅｒｎａｔｉｏｎａｌ　Ｎｅｔｗｏｒｋ　Ｔｅｃｈｎｏｌｏｇｙ（Ｓｈｅｎｚｈｅｎ）Ｃｏ．，Ｌｔｄ,,外国会社等,,,,,,,,Ｓｈｅｎ　ｚｈｅｎ　ｓｈｉ　ｌｏｎｇ　ｇａｎｇ　ｑｕ　ｐｉｎｇ　ｈｕ　ｊｉｅ　ｄａｏ　ｐｉｎｇ　ｈｕ　ｓｈｅ　ｑｕ　ｚｈｏｎｇ　ｈｅ　ｊｉｅ　５６，５８　ｈａｏ　２０１,,,,,,2023-03-23,1,,,,,ライトウインターナシヨンナルネツトワークテクノロジーカンパニーリミテツド,0
1751,8010001233846,新規,0,2023-03-23,2023-03-23,Ａｍｅｒｉｃａｎ　Ｒｕｒｉ　Ｆｏｕｎｄａｔｉｏｎ株式会社,,株式会社,東京都,千代田区,飯田橋２丁目４－１０－５Ｆ,,13,101,1020072,,,,,,,2023-03-23,1,,,,,アメリカンルリファウンデイション,0
1752,8010001233862,新規,0,2023-03-23,2023-03-23,ｏｎｅｓａｌｔ株式会社,,株式会社,東京都,文京区,弥生２丁目２０－１２－１０６,,13,105,1130032,,,,,,,2023-03-23,1,,,,,ワンソルト,0
1753,8010001233929,新規,0,2023-03-23,2023-03-23,株式会社Ｐｅｒｒｕｃｈｅ,,株式会社,東京都,中央区,東日本橋２丁目２８番４号日本橋ＣＥＴビル２階,,13,102,1030004,,,,,,,2023-03-23,1,,,,,ペルーシェ,0
1755,8010003040118,新規,0,2023-03-23,2023-03-23,トレジャーアイランド合同会社,,合同会社,東京都,文京区,大塚５丁目１６－４ＭａｉｓｏｎｄｅＣｉＥＬＶ４０１,,13,105,1120012,,,,,,,2023-03-23,1,,,,,トレジャーアイランド,0
1756,8010003040142,新規,0,2023-03-23,2023-03-23,匠美合同会社,,合同会社,東京都,中央区,日本橋兜町１７番２号兜町第６葉山ビル４階,,13,102,1030026,,,,,,,2023-03-23,1,,,,,タクミ,0
1761,8010401172719,新規,0,2023-03-23,2023-03-23,ニューランドＡＩＤＣジャパン株式会社,,株式会社,東京都,港区,港南１丁目９－３６アレア品川ビル１３階４０７,,13,103,1080075,,,,,,,2023-03-23,1,,,,,ニューランドエーアイディーシージャパン,0
1763,8010401173031,新規,0,2023-03-23,2023-03-23,株式会社ＱＵＥＥＳ,,株式会社,東京都,港区,新橋３丁目４－１０,,13,103,1050004,,,,,,,2023-03-23,1,,,,,クイーズ,0
1764,8010401173221,新規,0,2023-03-23,2023-03-23,株式会社ＨＥＬＭ,,株式会社,東京都,港区,南青山３丁目１番３６号青山丸竹ビル６Ｆ,,13,103,1070062,,,,,,,2023-03-23,1,,,,,ヘルム,0
1776,8011003016487,新規,0,2023-03-23,2023-03-23,合同会社シドアンドナンシー,,合同会社,東京都,渋谷区,代々木５丁目９番７－３０７号代々木の杜緑邸,,13,113,1510053,,,,,,,2023-03-23,1,,,,,シドアンドナンシー,0
1777,8011003016495,新規,0,2023-03-23,2023-03-23,葵ビジネスアドバイザリー合同会社,,合同会社,東京都,目黒区,平町２丁目９番１８号,,13,110,1520032,,,,,,,2023-03-23,1,,,,,アオイビジネスアドバイザリー,0
1778,8011003016512,新規,0,2023-03-23,2023-03-23,合同会社クロイツェル,,合同会社,東京都,渋谷区,神宮前６丁目２３番４号桑野ビル２階,,13,113,1500001,,,,,,,2023-03-23,1,,,,,,0
1785,8011101102255,新規,0,2023-03-23,2023-03-23,ミライズ株式会社,,株式会社,東京都,新宿区,上落合１丁目１６番７号エヌケイビル９階,,13,104,1610034,,,,,,,2023-03-23,1,,,,,ミライズ,0
1787,8011103012832,新規,0,2023-03-23,2023-03-23,合同会社Ｂｏｎｈｅｕｒ,,合同会社,東京都,新宿区,西新宿３丁目５番１２号トーカン新宿第二キャステール３１０号室,,13,104,1600023,,,,,,,2023-03-23,1,,,,,ボンヌール,0
1788,8011103012849,新規,0,2023-03-23,2023-03-23,ＭＡＴＥＳコンサルティング合同会社,,合同会社,東京都,新宿区,納戸町２８番地１－４０１,,13,104,1620837,,,,,,,2023-03-23,1,,,,,メイツコンサルティング,0
1795,8011701026102,新規,0,2023-03-23,2023-03-23,グランツ警備保障株式会社,,株式会社,東京都,江戸川区,西小岩１丁目３０番１１号,,13,123,1330057,,,,,,,2023-03-23,1,,,,,グランツケイビホショウ,0
1797,8011801042115,新規,0,2023-03-23,2023-03-23,志茂株式会社,,株式会社,東京都,葛飾区,亀有４丁目５－１２橋川ビル１０３号室,,13,122,1250061,,,,,,,2023-03-23,1,,,,,シモ,0
1798,8011803005565,新規,0,2023-03-23,2023-03-23,博田合同会社,,合同会社,東京都,足立区,梅島３丁目３６－２２白金ビル４０２,,13,121,1210816,,,,,,,2023-03-23,1,,,,,ヒロタ,0
1799,8012301013358,新規,0,2023-03-23,2023-03-23,株式会社ＡＲＩＫＡ,,株式会社,東京都,町田市,原町田４丁目１１番１４号コロンブスビル３Ｆ－０７,,13,209,1940013,,,,,,,2023-03-23,1,,,,,アリカ,0
1802,8012801022214,新規,0,2023-03-23,2023-03-23,日本デジタルバイオサイエンス株式会社,,株式会社,東京都,立川市,錦町１丁目１９番４号,,13,202,1900022,,,,,,,2023-03-23,1,,,,,ニホンデジタルバイオサイエンス,0
1812,8020001150768,新規,0,2023-03-23,2023-03-23,株式会社ｓｋＤＡＳＨ,,株式会社,神奈川県,横浜市金沢区,富岡東２丁目５－９－３０４,,14,108,2360051,,,,,,,2023-03-23,1,,,,,エスケーダッシュ,0
1813,8020003023575,新規,0,2023-03-23,2023-03-23,ＴＥＭＰＵＳ合同会社,,合同会社,神奈川県,横浜市瀬谷区,本郷２丁目５番地４１,,14,114,2460015,,,,,,,2023-03-23,1,,,,,テンプス,0
1817,8021003012907,新規,0,2023-03-23,2023-03-23,ＬＳＡ合同会社,,合同会社,神奈川県,茅ヶ崎市,矢畑７８２番地３－２－１０２５号ライオンズ茅ヶ崎ザ・アイランズ,,14,207,2530085,,,,,,,2023-03-23,1,,,,,エルエスエー,0
1818,8021005012764,新規,0,2023-03-23,2023-03-23,医療法人晴耕会,,その他の設立登記法人,神奈川県,相模原市南区,古淵２丁目３番７号Ｔ＆Ｔ第２ビル１０５号室,,14,153,2520344,,,,,,,2023-03-23,1,,,,,セイコウカイ,0
1821,8030001153002,新規,0,2023-03-23,2023-03-23,ＹＣ株式会社,,株式会社,埼玉県,川口市,西川口１丁目３０番２０－３０２号,,11,203,3320021,,,,,,,2023-03-23,1,,,,,ワイシー,0
1824,8030003021413,新規,0,2023-03-23,2023-03-23,クリアボディ合同会社,,合同会社,埼玉県,さいたま市南区,南浦和２丁目１２番４号,,11,108,3360017,,,,,,,2023-03-23,1,,,,,クリアボディ,0
1827,8040001127574,新規,0,2023-03-23,2023-03-23,株式会社ＨＫ開発,,株式会社,千葉県,八千代市,大学町２丁目７－１８,,12,221,2760003,,,,,,,2023-03-23,1,,,,,エイチケーカイハツ,0
1828,8040001127582,新規,0,2023-03-23,2023-03-23,株式会社エントラージュ,,株式会社,千葉県,千葉市中央区,富士見２丁目７番９号富士見ビル６０９号,,12,101,2600015,,,,,,,2023-03-23,1,,,,,エントラージュ,0
1829,8040001127599,新規,0,2023-03-23,2023-03-23,株式会社カカポ,,株式会社,千葉県,茂原市,早野２４０７番地１３,,12,210,2970037,,,,,,,2023-03-23,1,,,,,カカポ,0
1832,8040005021939,新規,0,2023-03-23,2023-03-23,一般社団法人よ・つ・ば親愛信託チバ,,その他の設立登記法人,千葉県,柏市,旭町１丁目３番３号ＳＫヴィラＩＩ－１００２,00129826,12,217,2770852,,,,,,,2023-03-23,1,,,,,ヨツバシンアイシンタクチバ,0
1833,8050001001621,新規,0,2023-03-23,2023-03-23,株式会社タクマル,,株式会社,茨城県,水戸市,平須町字原山１７１番地の４１,,08,201,3100853,,,,,,,2023-03-23,1,,,,,タクマル,0
1835,8050001052532,新規,0,2023-03-23,2023-03-23,株式会社Ｔドローン,,株式会社,茨城県,取手市,小文間４３９７番地１,,08,217,3020001,,,,,,,2023-03-23,1,,,,,ティドローン,0
1836,8050001052557,新規,0,2023-03-23,2023-03-23,株式会社オートグラスＹ’ｚ,,株式会社,茨城県,東茨城郡茨城町,大字前田１７０７番地１２,,08,302,3113115,,,,,,,2023-03-23,1,,,,,オートグラスワイズ,0
1838,8050003007336,新規,0,2023-03-23,2023-03-23,ＧＲＥＥＮ　ＪＡＰＡＮ合同会社,,合同会社,茨城県,古河市,高野５６３番地１,,08,204,3060214,,,,,,,2023-03-23,1,,,,,グリーンジャパン,0
1844,8060001035809,新規,0,2023-03-23,2023-03-23,ＴＡＳ　ＴＲＡＤＩＮＧ株式会社,,株式会社,栃木県,真岡市,熊倉１丁目９番地１みどりヶ丘ハイツＶＩ１０６号,00129837,09,209,3214369,,,,,,,2023-03-23,1,,,,,ティーエーエストレーディング,0
1845,8060001035817,新規,0,2023-03-23,2023-03-23,株式会社ＮＩＫ,,株式会社,栃木県,日光市,松原町１７番地１,,09,206,3211406,,,,,,,2023-03-23,1,,,,,ニック,0
1847,8070003004868,新規,0,2023-03-23,2023-03-23,エスティ合同会社,,合同会社,群馬県,太田市,藤久良町６１番地９,,10,205,3730035,,,,,,,2023-03-23,1,,,,,エスティ,0
1857,8100003006927,新規,0,2023-03-23,2023-03-23,合同会社ホソダ総合サービス,,合同会社,長野県,駒ヶ根市,中央１６番１７号興進ビル３階,,20,210,3994112,,,,,,,2023-03-23,1,,,,,ホソダソウゴウサービス,0
1858,8100003006935,新規,0,2023-03-23,2023-03-23,合同会社マディ商會,,合同会社,長野県,大町市,美麻９０６１番地１,,20,212,3999101,,,,,,,2023-03-23,1,,,,,マディショウカイ,0
1877,8120001253206,新規,0,2023-03-23,2023-03-23,辰宏株式会社,,株式会社,大阪府,大阪市大正区,三軒家西３丁目４番１６号中山ビル２１５Ａ,,27,108,5510001,,,,,,,2023-03-23,1,,,,,シンコウ,0
1878,8120001253387,新規,0,2023-03-23,2023-03-23,株式会社グッドアイ,,株式会社,大阪府,大阪市淀川区,西中島４丁目６番３０号,,27,123,5320011,,,,,,,2023-03-23,1,,,,,グッドアイ,0
1879,8120001253404,新規,0,2023-03-23,2023-03-23,株式会社サラサホールディングス,,株式会社,大阪府,大阪市北区,西天満４丁目１５番１８号プラザ梅新１５０５号室,,27,127,5300047,,,,,,,2023-03-23,1,,,,,サラサホールディングス,0
1880,8120001253429,新規,0,2023-03-23,2023-03-23,宝瀛万成株式会社,,株式会社,大阪府,大阪市東住吉区,鷹合２丁目１番２５号,,27,121,5460014,,,,,,,2023-03-23,1,,,,,ホウエイマンセイ,0
1881,8120001253437,新規,0,2023-03-23,2023-03-23,株式会社Ｉ　ｆｏｏｄｓ,,株式会社,大阪府,大阪市阿倍野区,松崎町４丁目１１番４号アンシャンテ松崎町６０３号,,27,119,5450053,,,,,,,2023-03-23,1,,,,,アイフーズ,0
1884,8120003023631,新規,0,2023-03-23,2023-03-23,合同会社ＰＡＫＡ２Ｋ’ｚ,,合同会社,大阪府,大阪市中央区,農人橋２丁目１番２４－２０２号,,27,128,5400011,,,,,,,2023-03-23,1,,,,,パカパカケイジ,0
1885,8120003023656,新規,0,2023-03-23,2023-03-23,合同会社萬明,,合同会社,大阪府,大阪市生野区,鶴橋５丁目２１番１９号,,27,116,5440031,,,,,,,2023-03-23,1,,,,,マンメイ,0
1886,8120003023672,新規,0,2023-03-23,2023-03-23,合同会社エイリンク,,合同会社,大阪府,大阪市東淀川区,西淡路１丁目１番９号ビジネス新大阪７２０号,,27,114,5330031,,,,,,,2023-03-23,1,,,,,エイリンク,0
1887,8120003023680,新規,0,2023-03-23,2023-03-23,ＳＥＮ　ＧＲＯＵＰ合同会社,,合同会社,大阪府,大阪市中央区,日本橋１丁目２１－２０九富日本橋パールビル６０２Ｂ,,27,128,5420073,,,,,,,2023-03-23,1,,,,,セングループ,0
1892,8120101067092,新規,0,2023-03-23,2023-03-23,株式会社日栄,,株式会社,大阪府,松原市,河合１丁目５番３４号,,27,217,5800022,,,,,,,2023-03-23,1,,,,,ニチエイ,0
1895,8120901047293,新規,0,2023-03-23,2023-03-23,株式会社ケセラ,,株式会社,大阪府,茨木市,別院町６番２号,,27,211,5670817,,,,,,,2023-03-23,1,,,,,ケセラ,0
1900,8122001036805,新規,0,2023-03-23,2023-03-23,株式会社ＤＯＮＧ・ＮＨＡＮ,,株式会社,大阪府,東大阪市,中小阪１丁目７番１６号１Ｆ,,27,227,5770804,,,,,,,2023-03-23,1,,,,,ドンニャン,0
1910,8160005011176,新規,0,2023-03-23,2023-03-23,特定非営利活動法人ナイマゼ,,その他の設立登記法人,滋賀県,大津市,丸の内町９番２１－３０４号,,25,201,5200813,,,,,,,2023-03-23,1,,,,,ナイマゼ,0
1922,8180003025011,新規,0,2023-03-23,2023-03-23,合同会社つくし,,合同会社,愛知県,津島市,愛宕町４丁目７番地１,,23,208,4960036,,,,,,,2023-03-23,1,,,,,ツクシ,0
1928,8220001025322,新規,0,2023-03-23,2023-03-23,株式会社紫宸,,株式会社,石川県,金沢市,増泉２丁目２１番２５号３０１号室,,17,201,9218025,,,,,,,2023-03-23,1,,,,,シシン,0
1931,8240005015540,新規,0,2023-03-23,2023-03-23,一般社団法人しまなみコネクト,,その他の設立登記法人,広島県,尾道市,向東町３８９６,,34,205,7220062,,,,,,,2023-03-23,1,,,,,シマナミコネクト,0
1936,8290001100787,新規,0,2023-03-23,2023-03-23,株式会社Ｇａｄ　Ｅｄｇｅ,,株式会社,福岡県,福岡市中央区,大名１丁目８－２７ニューリバー大名８０１,,40,133,8100041,,,,,,,2023-03-23,1,,,,,ガッドエッジ,0
1937,8290001100960,新規,0,2023-03-23,2023-03-23,株式会社ｚｅｒｏソリューション,,株式会社,福岡県,久留米市,蛍川町２番地１１,,40,203,8390000,,,,,,,2023-03-23,1,,,,,ゼロソリューション,0
1939,8290801029391,新規,0,2023-03-23,2023-03-23,株式会社Ｌａ　ｎｅｉｇｅ,,株式会社,福岡県,北九州市八幡西区,熊西２丁目５番４０－１０５号,,40,109,8060031,,,,,,,2023-03-23,1,,,,,ラネージュ,0
1943,8310001018325,新規,0,2023-03-23,2023-03-23,株式会社Ｔ’ｓコーポレーション,,株式会社,長崎県,佐世保市,下京町７番２７号,,42,202,8570875,,,,,,,2023-03-23,1,,,,,ティーズコーポレーション,0
1945,8320001019644,新規,0,2023-03-23,2023-03-23,株式会社くすりの樹,,株式会社,大分県,玖珠郡玖珠町,大字四日市３８７番地の７,,44,462,8794301,,,,,,,2023-03-23,1,,,,,クスリノキ,0
1950,8340005009573,新規,0,2023-03-23,2023-03-23,特定非営利活動法人あまみむすび,,その他の設立登記法人,鹿児島県,大島郡龍郷町,芦徳１９２８番地,00129827,46,527,8940412,,,,,,,2023-03-23,1,,,,,,0
1951,8350003004328,新規,0,2023-03-23,2023-03-23,合同会社石山牧場,,合同会社,宮崎県,西諸県郡高原町,大字広原５９９８番地３２,,45,361,8894411,,,,,,,2023-03-23,1,,,,,イシヤマボクジョウ,0
1952,8360001031736,新規,0,2023-03-23,2023-03-23,株式会社やまぐすくコンサルティング,,株式会社,沖縄県,那覇市,久茂地３丁目２８番８号１階左,,47,201,9000015,,,,,,,2023-03-23,1,,,,,ヤマグスクコンサルティング,0
1954,8360003012817,新規,0,2023-03-23,2023-03-23,合同会社ルート,,合同会社,沖縄県,豊見城市,宜保４丁目９番地８エスポワール１－Ａ,,47,212,9010244,,,,,,,2023-03-23,1,,,,,ルート,0
1955,8370001049744,新規,0,2023-03-23,2023-03-23,株式会社Ｄ,,株式会社,宮城県,塩竈市,母子沢町１０番２号,,04,203,9850044,,,,,,,2023-03-23,1,,,,,ディー,0
1964,8430003014855,新規,0,2023-03-23,2023-03-23,合同会社オートクオリティ,,合同会社,北海道,札幌市手稲区,手稲前田５７３番地７４,,01,109,0060829,,,,,,,2023-03-23,1,,,,,オートクオリティ,0
1968,8500001024824,新規,0,2023-03-23,2023-03-23,株式会社ＡＰＯＬＬＯ,,株式会社,愛媛県,松山市,鴨川１丁目６‐１５カーサ井上Ｃ棟１０１,,38,201,7918004,,,,,,,2023-03-23,1,,,,,アポロ,0
1969,8700150114868,新規,0,2023-03-23,2023-03-23,ＳｈｅｎＺｈｅｎ　Ｑｉａｎｈａｉ　Ｖｅｎｔｕｒｅ　Ｃｏ．，Ｌｔｄ．,,外国会社等,,,,,,,,Ｒｏｏｍ　２０１，Ｂｕｉｌｄｉｎｇ　Ａ，Ｎｏ．１，Ｑｉａｎｗａｎ　１ｓｔ　Ｒｏａｄ，Ｑｉａｎｈａｉ　Ｓｈｅｎｚｈｅｎ－Ｈｏｎｇ　Ｋｏｎｇ　Ｃｏｏｐｅｒａｔｉｏｎ　Ｚｏｎｅ，Ｓｈｅｎｚｈｅｎ，Ｇｕａｎｇｄｏｎｇ，Ｃｈｉｎａ,,,,,,2023-03-23,1,,,,,シンセンカンハイベンチャーカンパニーリミテッド,0
1970,8700150114876,新規,0,2023-03-23,2023-03-23,ｓｈｅｎｚｈｅｎｓｈｉ　ｎｕｏｒａｎｋｅｊｉ　ｙｏｕｘｉａｎｇｏｎｇｓｉ,,外国会社等,,,,,,,,Ｎｏ．１０８８，７Ｌ，Ｎａｎｙｕａｎ　Ｍａｐｌｅ　Ｌｅａｆ　Ｂｕｉｌｄｉｎｇ，Ｎａｎｓｈａｎ　Ａｖｅｎｕｅ，Ｎａｎｓｈａｎ　Ｄｉｓｔｒｉｃｔ，Ｓｈｅｎｚｈｅｎ　Ｃｉｔｙ，ＰＲＣ,,,,,,2023-03-23,1,,,,,シンセンシノウランケジユウゲンコウシ,0
1971,8700150114918,新規,0,2023-03-23,2023-03-23,ｓｈｅｎ　ｚｈｅｎ　ｓｈｉ　ｓｈｕ　ｘｉｎ　ｂａｎ　ｋｅ　ｊｉ　ｙｏｕ　ｘｉａｎ　ｇｏｎｇ　ｓｉ,,外国会社等,,,,,,,,ｓｈｅｎ　ｚｈｅｎ　ｓｈｉ　ｌｏｎｇ　ｇａｎｇ　ｑｕ　ｈｅｎｇ　ｇａｎｇ　ｊｉｅ　ｄａｏ　ｚｈｉ　ｓｈｅｎｇ　ｓｈｅ　ｑｕ　ｌｏｎｇ　ｓｈｅｎｇ　ｈｕａ　ｙｕａｎ　Ｚ９　ｄｏｎｇ　ｊｉ　ｌｏｎｇ　ｇｅ　１０Ｂ．,,,,,,2023-03-23,1,,,,,シンセンシユウシンハンテクノロジーユウゲンコウシ,0
1977,9010001233804,新規,0,2023-03-23,2023-03-23,株式会社Ｗｉｚ,,株式会社,東京都,中央区,銀座１丁目１２番４号,,13,102,1040061,,,,,,,2023-03-23,1,,,,,ウィズ,0
1978,9010001233928,新規,0,2023-03-23,2023-03-23,Ｍｅｔａ‐Ｉｎｔｅｇｒａｔｅ株式会社,,株式会社,東京都,中央区,銀座１丁目１２番４号Ｎ＆ＥＢＬＤ．６Ｆ,,13,102,1040061,,,,,,,2023-03-23,1,,,,,メタインテグレート,0
1983,9010003040100,新規,0,2023-03-23,2023-03-23,合同会社ＥＬＭＩＲＩＺＥ,,合同会社,東京都,文京区,水道２丁目１番３－２０４号,,13,105,1120005,,,,,,,2023-03-23,1,,,,,エルミライズ,0
1984,9010003040117,新規,0,2023-03-23,2023-03-23,合同会社ＯＱ,,合同会社,東京都,千代田区,九段南１丁目５－６りそな九段ビル５ＦＫＳフロア,,13,101,1020074,,,,,,,2023-03-23,1,,,,,オーキュー,0
1985,9010003040125,新規,0,2023-03-23,2023-03-23,プロロジスファンドマスターリース合同会社,,合同会社,東京都,千代田区,丸の内２丁目７番３号東京ビルディング,,13,101,1000005,,,,,,,2023-03-23,1,,,,,プロロジスファンドマスターリース,0
1986,9010003040141,新規,0,2023-03-23,2023-03-23,合同会社ｐａｙｆｏｒｗａｒｄ,,合同会社,東京都,中央区,日本橋兜町１７－２,,13,102,1030026,,,,,,,2023-03-23,1,,,,,ペイフォワード,0
1997,9010401173030,新規,0,2023-03-23,2023-03-23,株式会社ＫＩＮＧ　ＬＵＣＫＹ,,株式会社,東京都,港区,新橋３丁目４－１０,,13,103,1050004,,,,,,,2023-03-23,1,,,,,キングラッキー,0
1998,9010401173253,新規,0,2023-03-23,2023-03-23,Ｎａｖｙ株式会社,,株式会社,東京都,港区,赤坂９丁目４番１号パークコート赤坂檜町ザタワー４００３号,,13,103,1070052,,,,,,,2023-03-23,1,,,,,ネイビー,0
2001,9010601062792,新規,0,2023-03-23,2023-03-23,株式会社リベルボーナ,,株式会社,東京都,江東区,豊洲６丁目２番３１－１９２４号,,13,108,1350061,,,,,,,2023-03-23,1,,,,,リベルボーナ,0
2004,9010801033800,新規,0,2023-03-23,2023-03-23,トイキューブ株式会社,,株式会社,東京都,大田区,上池台３丁目３８－４－１０３,,13,111,1450064,,,,,,,2023-03-23,1,,,,,トイキューブ,0
2006,9010901052717,新規,0,2023-03-23,2023-03-23,ケイジェイ株式会社,,株式会社,東京都,世田谷区,北沢３丁目７番５号ＨＩＧＡＳＨＩＫＩＴＡＺＡＷＡＴＥＲＲＡＣＥ１Ｆ,,13,112,1550031,,,,,,,2023-03-23,1,,,,,ケイジェイ,0
2010,9011001153190,新規,0,2023-03-23,2023-03-23,Ｙホールディングス株式会社,,株式会社,東京都,目黒区,東山１丁目５番４号,,13,110,1530043,,,,,,,2023-03-23,1,,,,,ワイホールディングス,0
2011,9011001153224,新規,0,2023-03-23,2023-03-23,株式会社テツモッチ,,株式会社,東京都,渋谷区,神泉町１０番１５号,,13,113,1500045,,,,,,,2023-03-23,1,,,,,テツモッチ,0
2012,9011001153232,新規,0,2023-03-23,2023-03-23,株式会社ＳＵＰＥＲ　ＰＲＩＭＥ,,株式会社,東京都,目黒区,自由が丘１丁目８番１９号メルサＩＩ４Ｆ,00129829,13,110,1520035,,,,,,,2023-03-23,1,,,,,スーパープライム,0
2013,9011001153281,新規,0,2023-03-23,2023-03-23,株式会社ＣＲＥＳＳＩＴＡ,,株式会社,東京都,渋谷区,桜丘町１４番６号黒松ビル４０２,,13,113,1500031,,,,,,,2023-03-23,1,,,,,クレシータ,0
2014,9011003016511,新規,0,2023-03-23,2023-03-23,合同会社イーグルエース,,合同会社,東京都,渋谷区,初台１丁目２２番１２号,,13,113,1510061,,,,,,,2023-03-23,1,,,,,イーグルエース,0
2018,9011103012831,新規,0,2023-03-23,2023-03-23,合同会社Ｆｌｏｗｅｒ,,合同会社,東京都,新宿区,西新宿３丁目５番１２号トーカン新宿第二キャステール３１０号室,,13,104,1600023,,,,,,,2023-03-23,1,,,,,フラワー,0
2019,9011103012848,新規,0,2023-03-23,2023-03-23,合同会社エイプリル,,合同会社,東京都,新宿区,高田馬場２丁目７番１７－３号,,13,104,1690075,,,,,,,2023-03-23,1,,,,,エイプリル,0
2021,9011201024514,新規,0,2023-03-23,2023-03-23,株式会社ＭＡＲＡ,,株式会社,東京都,中野区,本町６丁目２０番１２号,,13,114,1640012,,,,,,,2023-03-23,1,,,,,マーラ,0
2023,9011303004703,新規,0,2023-03-23,2023-03-23,時任デザイン合同会社,,合同会社,東京都,杉並区,宮前２丁目２４番３８号プルミエ宮前Ｃ,,13,115,1680081,,,,,,,2023-03-23,1,,,,,トキトウデザイン,0
2025,9011501029080,新規,0,2023-03-23,2023-03-23,株式会社アドバンスファシリティーズ,,株式会社,東京都,北区,西ケ原４丁目６１番１０号小野田ビル,,13,117,1140024,,,,,,,2023-03-23,1,,,,,アドバンスファシリティーズ,0
2028,9011801042114,新規,0,2023-03-23,2023-03-23,株式会社グランド東瀛,,株式会社,東京都,足立区,西新井本町５丁目２番４－１０５号,,13,121,1230845,,,,,,,2023-03-23,1,,,,,グランドトウエイ,0
2033,9012701017536,新規,0,2023-03-23,2023-03-23,株式会社吉川工業,,株式会社,東京都,東村山市,栄町３丁目１７番地３４,,13,213,1890013,,,,,,,2023-03-23,1,,,,,キッカワコウギョウ,0
2035,9012801022213,新規,0,2023-03-23,2023-03-23,株式会社大和住設,,株式会社,東京都,武蔵村山市,残堀１丁目８９番地の１,,13,223,2080034,,,,,,,2023-03-23,1,,,,,ヤマトジュウセツ,0
2047,9020001150759,新規,0,2023-03-23,2023-03-23,株式会社ＫＩＦＵＫＵカレー,,株式会社,神奈川県,横浜市中区,真砂町２丁目１２関内駅前第一ビルＢ１,,14,104,2310016,,,,,,,2023-03-23,1,,,,,キフクカレー,0
2051,9020003023558,新規,0,2023-03-23,2023-03-23,ＤａｙＯｎｅ　Ａｃｃｏｕｎｔｉｎｇ合同会社,,合同会社,神奈川県,横浜市港北区,新横浜３丁目７－７新横浜アリーナ通りビル３Ｆ,,14,109,2220033,,,,,,,2023-03-23,1,,,,,デイワンアカウンティング,0
2052,9020003023566,新規,0,2023-03-23,2023-03-23,コープランドジャパン合同会社,,合同会社,神奈川県,横浜市港北区,新横浜３丁目９番地５新横浜第３東昇ビル,,14,109,2220033,,,,,,,2023-03-23,1,,,,,コープランドジャパン,0
2055,9021003012906,新規,0,2023-03-23,2023-03-23,合同会社Ｈｏｎｅｓｔ　Ｒｅａｌ　Ｅｓｔａｔｅ,,合同会社,神奈川県,海老名市,今里３丁目１８－１７アルコイーリス２０５,,14,215,2430423,,,,,,,2023-03-23,1,,,,,アネストリアルエステート,0
2065,9040001127581,新規,0,2023-03-23,2023-03-23,株式会社ギアーズ,,株式会社,千葉県,船橋市,丸山１丁目４２番１０号,,12,204,2730048,,,,,,,2023-03-23,1,,,,,ギアーズ,0
2066,9040001127598,新規,0,2023-03-23,2023-03-23,株式会社Ｒｉ．ｓｔａｒｔ,,株式会社,千葉県,船橋市,前原西２丁目２１番１０号渡辺ビル８０１号室,,12,204,2740825,,,,,,,2023-03-23,1,,,,,リスタート,0
2067,9040001127607,新規,0,2023-03-23,2023-03-23,Ｃクラフト株式会社,,株式会社,千葉県,八千代市,大和田新田６６３－１００,,12,221,2760046,,,,,,,2023-03-23,1,,,,,シークラフト,0
2069,9040003022228,新規,0,2023-03-23,2023-03-23,合同会社ＮＩＣＯＬ　ＩＮＴＥＲＮＡＴＩＯＮＡＬ,,合同会社,千葉県,白井市,復１４５７番地３－１６号ハイツ２０１号室,,12,232,2701422,,,,,,,2023-03-23,1,,,,,ニコルインターナショナル,0
2072,9050001052548,新規,0,2023-03-23,2023-03-23,株式会社信建,,株式会社,茨城県,日立市,千石町３丁目１３番４号,,08,202,3160013,,,,,,,2023-03-23,1,,,,,シンケン,0
2073,9050001052556,新規,0,2023-03-23,2023-03-23,株式会社ＢＬＡＺＥ　ＪＡＰＡＮ,,株式会社,茨城県,筑西市,小川１１７２番地,,08,227,3080857,,,,,,,2023-03-23,1,,,,,ブレイズジャパン,0
2074,9050001052564,新規,0,2023-03-23,2023-03-23,株式会社坤川農園,,株式会社,茨城県,下妻市,五箇２２０番地８２,,08,210,3040823,,,,,,,2023-03-23,1,,,,,コンガワノウエン,0
2079,9080403004763,新規,0,2023-03-23,2023-03-23,イープラス合同会社,,合同会社,静岡県,浜松市西区,古人見町１４３２番地の１０,,22,133,4311113,,,,,,,2023-03-23,1,,,,,イープラス,0
2091,9120001253386,新規,0,2023-03-23,2023-03-23,株式会社Ｌ・ｍｉｎｄ,,株式会社,大阪府,大阪市生野区,中川４丁目１７番１８号,,27,116,5440005,,,,,,,2023-03-23,1,,,,,エルマインド,0
2092,9120001253428,新規,0,2023-03-23,2023-03-23,株式会社ベクトルテック,,株式会社,大阪府,大阪市中央区,南本町３丁目３番２３号,,27,128,5410054,,,,,,,2023-03-23,1,,,,,ベクトルテック,0
2095,9120003023671,新規,0,2023-03-23,2023-03-23,合同会社コネスト,,合同会社,大阪府,大阪市東淀川区,西淡路１丁目１番９号ビジネス新大阪７２０号,,27,114,5330031,,,,,,,2023-03-23,1,,,,,コネスト,0
2096,9120101067174,新規,0,2023-03-23,2023-03-23,株式会社観音寺コーポレーション,,株式会社,大阪府,貝塚市,橋本１０７８番地３,,27,208,5970043,,,,,,,2023-03-23,1,,,,,カンノンジコーポレーション,0
2097,9120101067182,新規,0,2023-03-23,2023-03-23,株式会社ＳＹＯ,,株式会社,大阪府,堺市西区,北条町１丁７番３４号,,27,144,5938302,,,,,,,2023-03-23,1,,,,,ショウ,0
2106,9140001129543,新規,0,2023-03-23,2023-03-23,株式会社ユウシンカンパニー,,株式会社,兵庫県,神戸市兵庫区,出在家町２丁目６番２０号,,28,105,6520846,,,,,,,2023-03-23,1,,,,,ユウシンカンパニー,0
2107,9150001026244,新規,0,2023-03-23,2023-03-23,株式会社エスティーワン,,株式会社,奈良県,奈良市,大安寺西３丁目１１番１５号,,29,201,6308135,,,,,,,2023-03-23,1,,,,,エスティーワン,0
2115,9180001155445,新規,0,2023-03-23,2023-03-23,株式会社ＭＵＰＩ,,株式会社,愛知県,東海市,名和町１丁目８５番地,,23,222,4760002,,,,,,,2023-03-23,1,,,,,エムユーピーアイ,0
2122,9220001025321,新規,0,2023-03-23,2023-03-23,株式会社ＺＯＩＮＥ,,株式会社,石川県,金沢市,新神田１丁目８番１４号,,17,201,9218013,,,,,,,2023-03-23,1,,,,,ゾイネ,0
2127,9250001020022,新規,0,2023-03-23,2023-03-23,株式会社Ｋ‐ＴＥＣＨ,,株式会社,山口県,岩国市,多田２丁目１０１番地１,,35,208,7410092,,,,,,,2023-03-23,1,,,,,ケイテック,0
2129,9290001100968,新規,0,2023-03-23,2023-03-23,株式会社ＧＲＡＴＩＡ,,株式会社,福岡県,古賀市,薬王寺１２９３番地４,,40,223,8113124,,,,,,,2023-03-23,1,,,,,グラティア,0
2132,9290003013689,新規,0,2023-03-23,2023-03-23,＿檍合同会社,00129838,合同会社,福岡県,福岡市早良区,西新４丁目６番６号ロマネスク西新第５・１３０４号室,,40,137,8140002,,,,,,,2023-03-23,1,,,,,シャクイ,0
2137,9310001018324,新規,0,2023-03-23,2023-03-23,株式会社レガシーイノベーション,,株式会社,長崎県,平戸市,木引町３２２番地,,42,207,8595151,,,,,,,2023-03-23,1,,,,,レガシーイノベーション,0
2138,9320001019643,新規,0,2023-03-23,2023-03-23,株式会社リージョナル・プロダクション,,株式会社,大分県,大分市,古国府４丁目７番１３号,,44,201,8700844,,,,,,,2023-03-23,1,,,,,リージョナルプロダクション,0
2143,9330003009765,新規,0,2023-03-23,2023-03-23,合同会社笑・むカンパニー,,合同会社,熊本県,宇城市,松橋町きらら３丁目１１番地１２,,43,213,8690503,,,,,,,2023-03-23,1,,,,,エムカンパニー,0
2150,9380001033564,新規,0,2023-03-23,2023-03-23,アールワークス株式会社,,株式会社,福島県,郡山市,安積町日出山２丁目６８番地,,07,203,9630101,,,,,,,2023-03-23,1,,,,,アールワークス,0
2161,9420003002678,新規,0,2023-03-23,2023-03-23,合同会社ＳＯＲＡ,,合同会社,青森県,南津軽郡田舎館村,大字田舎舘字東田１７４番地２,,02,367,0381113,,,,,,,2023-03-23,1,,,,,ソラ,0
2164,9430003014854,新規,0,2023-03-23,2023-03-23,合同会社Ｍ＆Ｈ北海道,,合同会社,北海道,札幌市手稲区,稲穂一条１丁目１２－５ペルル稲穂８０１号,,01,109,0060031,,,,,,,2023-03-23,1,,,,,エムアンドエイチホッカイドウ,0
2166,9450003002312,新規,0,2023-03-23,2023-03-23,合同会社拓生不動産,,合同会社,北海道,旭川市,一条通１５丁目１９１番地リ―セント１条通９０６,,01,204,0700031,,,,,,,2023-03-23,1,,,,,タクミフドウサン,0
2167,9460105002259,新規,0,2023-03-23,2023-03-23,豊頃町維持補修協同組合,,その他の設立登記法人,北海道,中川郡豊頃町,礼作別６８２番地２,,01,645,0895302,,,,,,,2023-03-23,1,,,,,,0
2170,9480001012038,新規,0,2023-03-23,2023-03-23,株式会社アクア,,株式会社,徳島県,徳島市,中島田町３丁目５８番地の１,,36,201,7700052,,,,,,,2023-03-23,1,,,,,アクア,0
2171,9480003001955,新規,0,2023-03-23,2023-03-23,合同会社ＡＷＡ,,合同会社,徳島県,阿波市,土成町吉田字笹草の二２５番地,,36,206,7711507,,,,,,,2023-03-23,1,,,,,アワ,0
2176,9700150114867,新規,0,2023-03-23,2023-03-23,Ｓｈｅｎｚｈｅｎｓｈｉ　Ｚｈｉｈｕａｈｅｎｇｃｈｕａｎｇ　Ｋｅｊｉｙｏｕｘｉａｎｇｏｎｇｓｉ,,外国会社等,,,,,,,,ＮＯ．１４Ｄ，Ｕｎｉｔ　Ｇ，Ｂｕｉｌｄｉｎｇ　３，Ｙａｎｇｇｕａｎｇｘｉｎｊｉｎｇｙｕａｎ，Ｘｉｎｎｉｕ　Ｃｏｍｍｕｎｉｔｙ，Ｍｉｎｚｈｉ　Ｓｔｒｅｅｔ，Ｌｏｎｇｈｕａ　Ｄｉｓｔｒｉｃｔ，Ｓｈｅｎｚｈｅｎ，Ｇｕａｎｇｄｏｎｇ　Ｐｒｏｖｉｎｃｅ，Ｃｈｉｎａ,,,,,,2023-03-23,1,,,,,シンセンシジフアヘングチャンケジユウゲンコウシ,0
2177,9700150114875,新規,0,2023-03-23,2023-03-23,Ａｎｊｉ　Ｂｏｌａｎｔｅ　Ｆｕｒｎｉｔｕｒｅ　Ｃｏ．，Ｌｔｄ．,,外国会社等,,,,,,,,Ｎｏ．９９，Ｔｉａｎｈｕａｎｇｐｉｎｇ　Ｓｏｕｔｈ　Ｒｏａｄ（Ｓｈａｎｇｈｕｉ　Ｍａｎｓｉｏｎ　Ｃ－２１－Ｆｌｏｏｒ），Ｃｈａｎｇｓｈｕｏ　Ｓｔｒｅｅｔ，Ａｎｊｉ　Ｃｏｕｎｔｙ，Ｈｕｚｈｏｕ，Ｚｈｅｊｉａｎｇ　Ｐｒｏｖｉｎｃｅ，Ｃｈｉｎａ,,,,,,2023-03-23,1,,,,,アンジボランテファニチャーカンパニーリミテッド,0
2178,9700150114917,新規,0,2023-03-23,2023-03-23,Ｓｈａｎｇｈａｉ　ＱＩＡＮＰＡＩ　ＴＲＡＤＩＮＧ　ＬＴＤ,,外国会社等,,,,,,,,Ｎｏ．１５８６，Ｅａｓｔ　Ｃｈａｎｇｘｉｎｇ　ｒｏａｄ，Ｓｉｊｉｎｇ　ｔｏｗｎ，Ｓｏｎｇｊｉａｎｇ　ｄｉｓｔｒｉｃｔ，Ｓｈａｎｇｈａｉ　ｃｉｔｙ,,,,,,2023-03-23,1,,,,,シヤンハイチエンパイトレーデイングリミテツド,0
