sequenceNumber,corporateNumber,process,correct,updateDate,changeDate,name,nameImageId,kind,prefectureName,cityName,streetNumber,addressImageId,prefectureCode,cityCode,postCode,addressOutside,addressOutsideImageId,closeDate,closeCause,successorCorporateNumber,changeCause,assignmentDate,latest,enName,enPrefectureName,enCityName,enAddressOutside,furigana,hihyoji
5,1010001078587,登記記録の閉鎖等,0,2022-10-05,2022-09-26,株式会社日枝あかさか料理部,,株式会社,東京都,千代田区,永田町２丁目１０番５号,,13,101,1000014,,,2022-09-26,清算の結了等,,,2015-10-05,1,,,,,ヒエアカサカリョウリブ,0
18,1010102007825,登記記録の閉鎖等,0,2022-10-05,2022-10-03,テクノソリューション有限会社,,有限会社,東京都,八王子市,北野台４丁目２９番１４号,,13,201,1920913,,,2022-10-03,清算の結了等,,,2015-10-05,1,,,,,,0
28,1010505002051,登記記録の閉鎖等,0,2022-10-05,2022-09-30,一般社団法人密度技術研究会,,その他の設立登記法人,東京都,台東区,秋葉原３番７号,,13,106,1100006,,,2022-09-30,清算の結了等,,,2015-10-05,1,,,,,ミツドギジュツケンキュウカイ,0
39,1011001121196,登記記録の閉鎖等,0,2022-10-05,2022-09-21,イノベーションネクスト株式会社,,株式会社,東京都,渋谷区,千駄ヶ谷５丁目２７番３号,,13,113,1510051,,,2022-09-21,清算の結了等,,,2018-03-20,1,,,,,イノベーションネクスト,0
54,1011402007449,登記記録の閉鎖等,0,2022-10-05,2022-09-30,有限会社ヒデ・コーポレーション,,有限会社,東京都,板橋区,清水町３８番１－１７０２号,,13,119,1740053,,,2022-09-30,清算の結了等,,,2015-10-05,1,,,,,ヒデコーポレーション,0
69,1012401024113,登記記録の閉鎖等,0,2022-10-05,2022-09-29,株式会社生山事務所,,株式会社,東京都,府中市,紅葉丘２丁目４番地の６４,,13,206,1830004,,,2022-09-29,清算の結了等,,,2015-10-05,1,,,,,イクヤマジムショ,0
80,1013301027593,登記記録の閉鎖等,0,2022-10-05,2022-10-03,株式会社ユニバーサルコミュニケーション,,株式会社,東京都,豊島区,南池袋１丁目３番８号,,13,116,1710022,,,2022-10-03,清算の結了等,,,2015-10-05,1,,,,,ユニバーサルコミュニケーション,0
85,1013302005920,登記記録の閉鎖等,0,2022-10-05,2022-09-30,有限会社多か良園,,有限会社,東京都,豊島区,池袋３丁目４４番１７号,,13,116,1710014,,,2022-09-30,清算の結了等,,,2015-10-05,1,,,,,タカラエン,0
87,1013305001859,登記記録の閉鎖等,0,2022-10-05,2022-09-30,特定非営利活動法人和華楽,,その他の設立登記法人,東京都,豊島区,南大塚１丁目４９番２－４０２号,,13,116,1700005,,,2022-09-30,清算の結了等,,,2015-10-05,1,,,,,ワカラク,0
110,1021005011517,登記記録の閉鎖等,0,2022-10-05,2022-10-03,一般社団法人エイコーン,,その他の設立登記法人,神奈川県,海老名市,柏ケ谷６１１番地の１スカイヒル海老名１－Ｂ,,14,215,2430402,,,2022-10-03,清算の結了等,,,2019-02-22,1,,,,,エイコーン,0
123,1040001077933,登記記録の閉鎖等,0,2022-10-05,2022-09-27,株式会社ＧＯ,,株式会社,千葉県,船橋市,東船橋４丁目１１番地３号ＰＡＲＫ・ＦＲＯＮＴ・Ｔ－Ｄ号室,,12,204,2730002,,,2022-09-27,清算の結了等,,,2015-10-05,1,,,,,ゴー,0
134,1040002046846,登記記録の閉鎖等,0,2022-10-05,2022-09-26,有限会社第一石材,,有限会社,千葉県,松戸市,串崎南町３番地の４,,12,207,2702215,,,2022-09-26,清算の結了等,,,2015-10-05,1,,,,,ダイイチセキザイ,0
151,1060002032191,登記記録の閉鎖等,0,2022-10-05,2022-09-30,有限会社大成産業,,有限会社,栃木県,栃木市,大町１０番１７号,,09,203,3280071,,,2022-09-30,清算の結了等,,,2015-10-05,1,,,,,タイセイサンギョウ,0
169,1100002026313,登記記録の閉鎖等,0,2022-10-05,2022-09-29,有限会社北沢土地,,有限会社,長野県,大町市,大町５８３０番地１０,,20,212,3980002,,,2022-09-29,清算の結了等,,,2015-10-05,1,,,,,キタザワトチ,0
229,1180001128219,登記記録の閉鎖等,0,2022-10-05,2022-09-30,株式会社加藤治具,,株式会社,愛知県,名古屋市熱田区,六番３丁目３番１６号（メイツ六番町アクトタワー１３０１号）,,23,109,4560058,,,2022-09-30,清算の結了等,,,2017-06-09,1,,,,,カトウグジ,0
235,1180301011116,登記記録の閉鎖等,0,2022-10-05,2022-09-20,大栄工業株式会社,,株式会社,愛知県,蒲郡市,三谷町諏訪東３５番地の２０,,23,214,4430021,,,2022-09-20,清算の結了等,,,2015-10-05,1,,,,,ダイエイコウギョウ,0
240,1190001010177,登記記録の閉鎖等,0,2022-10-05,2022-09-28,カトウ・キカイ株式会社,,株式会社,三重県,松阪市,新町９３８番地,,24,204,5150075,,,2022-09-28,清算の結了等,,,2015-10-05,1,,,,,カトウキカイ,0
254,1220001005545,登記記録の閉鎖等,0,2022-10-05,2022-10-03,株式会社廣瀬与志雄建築設計事務所,,株式会社,石川県,金沢市,四十万町リ３５２番地,,17,201,9218133,,,2022-10-03,清算の結了等,,,2015-10-05,1,,,,,ヒロセヨシオケンチクセッケイジムショ,0
256,1220002002566,登記記録の閉鎖等,0,2022-10-05,2022-10-03,有限会社コーラルキャビン,,有限会社,石川県,金沢市,東兼六町１３番８号,,17,201,9200933,,,2022-10-03,清算の結了等,,,2015-10-05,1,,,,,コーラルキャビン,0
259,1230001015774,登記記録の閉鎖等,0,2022-10-05,2022-10-03,株式会社アイリンク,,株式会社,富山県,富山市,婦中町下轡田８１番地１リッツビルＣ号室,,16,201,9392716,,,2022-10-03,清算の結了等,,,2015-10-05,1,,,,,アイリンク,0
268,1240005007569,登記記録の閉鎖等,0,2022-10-05,2022-09-29,私鉄中国地方労働組合中国バス支部,,その他の設立登記法人,広島県,福山市,多治米町６丁目１２番１０号,,34,207,7200824,,,2022-09-29,清算の結了等,,,2015-10-05,1,,,,,シテツチュウゴクチホウチュウゴクバスシブ,0
284,1300003001121,登記記録の閉鎖等,0,2022-10-05,2022-09-29,合同会社めぐみ,,合同会社,佐賀県,武雄市,武雄町大字昭和１４番地８,,41,206,8430023,,,2022-09-29,清算の結了等,,,2015-10-05,1,,,,,メグミ,0
322,1430002005465,登記記録の閉鎖等,0,2022-10-05,2022-09-21,有限会社かわなみ商事,,有限会社,北海道,札幌市手稲区,稲穂二条６丁目４番７号,,01,109,0060032,,,2022-09-21,清算の結了等,,,2015-10-05,1,,,,,カワナミショウジ,0
328,1460102001114,登記記録の閉鎖等,0,2022-10-05,2022-09-30,有限会社後藤木型製作所,,有限会社,北海道,帯広市,東二条南２３丁目１１番地,,01,207,0800802,,,2022-09-30,清算の結了等,,,2015-10-05,1,,,,,ゴトウキガタセイサクショ,0
332,1490002002812,登記記録の閉鎖等,0,2022-10-05,2022-09-29,三洋スラブ有限会社,,有限会社,高知県,高知市,鏡大利２７０番地,,39,201,7813103,,,2022-09-29,清算の結了等,,,2015-10-05,1,,,,,サンヨウスラブ,0
370,2010701028725,登記記録の閉鎖等,0,2022-10-05,2022-09-26,株式会社ｕｎｉｔｅ,,株式会社,東京都,江東区,住吉２丁目２４番６－１０２号,,13,108,1350002,,,2022-09-26,清算の結了等,,,2015-10-05,1,,,,,ユナイト,0
385,2011101038083,登記記録の閉鎖等,0,2022-10-05,2022-09-27,株式会社メタライブ,,株式会社,東京都,港区,西新橋２丁目９番１号ＰＭＯ西新橋ビル５階,,13,103,1050003,,,2022-09-27,合併による解散等,8180001056958,令和４年９月２６日東京都港区西新橋二丁目９番１号ＰＭＯ西新橋ビル５階株式会社ピアズ（8180001056958）に合併し解散,2015-10-05,1,,,,,メタライブ,0
409,2013301004666,登記記録の閉鎖等,0,2022-10-05,2022-10-04,株式会社笹や一文字,,株式会社,東京都,豊島区,北大塚２丁目２７番１０号,,13,116,1700004,,,2022-10-04,清算の結了等,,,2015-10-05,1,,,,,ササヤイチモンジ,0
422,2020002010183,登記記録の閉鎖等,0,2022-10-05,2022-09-27,有限会社滝沢商事,,有限会社,神奈川県,横浜市磯子区,洋光台１丁目２番１２号,,14,107,2350045,,,2022-09-27,清算の結了等,,,2015-10-05,1,,,,,タキザワショウジ,0
441,2030002107532,登記記録の閉鎖等,0,2022-10-05,2022-09-21,有限会社宮川川口店,,有限会社,埼玉県,川口市,栄町３丁目５番１号川口そごう１０Ｆ,,11,203,3320017,,,2022-09-21,清算の結了等,,,2015-10-05,1,,,,,ミヤガワカワグチテン,0
450,2040005005930,登記記録の閉鎖等,0,2022-10-05,2022-09-02,流山商業協同組合,,その他の設立登記法人,千葉県,流山市,流山２丁目３１２番地,,12,220,2700164,,,2022-09-02,清算の結了等,,,2015-10-05,1,,,,,,0
456,2080001021779,登記記録の閉鎖等,0,2022-10-05,2022-10-03,株式会社スルガフードサービス,,株式会社,静岡県,榛原郡吉田町,川尻４５４番地の１,,22,424,4210302,,,2022-10-03,合併による解散等,4080002014747,令和４年１０月１日静岡県榛原郡吉田町住吉７１４番地の２みどり牧場株式会社（4080002014747）に合併し解散,2017-08-29,1,,,,,スルガフードサービス,0
458,2080002011498,登記記録の閉鎖等,0,2022-10-05,2022-10-03,有限会社山田建材,,有限会社,静岡県,静岡市清水区,宍原１１６９番地１,,22,103,4240301,,,2022-10-03,清算の結了等,,,2015-10-05,1,,,,,,0
463,2080102017123,登記記録の閉鎖等,0,2022-10-05,2022-10-03,有限会社エッチ・ケー・シー,,有限会社,静岡県,富士宮市,舞々木町６８８番地,,22,207,4180015,,,2022-10-03,合併による解散等,3080101011654,令和４年１０月１日静岡県富士宮市舞々木町６８８番地日正電子株式会社（3080101011654）に合併し解散,2015-10-05,1,,,,,エッチケーシー,0
475,2110001025917,登記記録の閉鎖等,0,2022-10-05,2022-09-29,ＹＳＫ株式会社,,株式会社,新潟県,長岡市,仲子町３番３１号,,15,202,9400225,,,2022-09-29,清算の結了等,,,2015-10-05,1,,,,,,0
506,2130002029064,登記記録の閉鎖等,0,2022-10-05,2022-09-30,有限会社西垣塗装店,,有限会社,京都府,亀岡市,大井町土田２丁目５番５号,,26,206,6210011,,,2022-09-30,清算の結了等,,,2015-10-05,1,,,,,ニシガキトソウテン,0
510,2140001083623,登記記録の閉鎖等,0,2022-10-05,2022-09-30,株式会社ナカモリ,,株式会社,兵庫県,宝塚市,光明町１５番３１号,,28,214,6650045,,,2022-09-30,清算の結了等,,,2015-10-05,1,,,,,ナカモリ,0
523,2170002005573,登記記録の閉鎖等,0,2022-10-05,2022-10-04,有限会社市小路鍼灸院,,有限会社,和歌山県,和歌山市,市小路１９４番地の４ビビッドステージ１Ｆ,,30,201,6408464,,,2022-10-04,清算の結了等,,,2015-10-05,1,,,,,イチショウジシンキュウイン,0
526,2180001000252,登記記録の閉鎖等,0,2022-10-05,2022-09-29,株式会社加古井建設,,株式会社,愛知県,名古屋市守山区,大谷町１番３７号,,23,113,4630041,,,2022-09-29,清算の結了等,,,2015-10-05,1,,,,,カコイケンセツ,0
535,2180302024479,登記記録の閉鎖等,0,2022-10-05,2022-09-26,安藤鉄工有限会社,,有限会社,愛知県,豊田市,足助町八万３４番地６,,23,211,4442424,,,2022-09-26,清算の結了等,,,2015-10-05,1,,,,,アンドウテッコウ,0
537,2190001004178,登記記録の閉鎖等,0,2022-10-05,2022-10-03,株式会社オートサロン熊野ホンダ,,株式会社,三重県,熊野市,有馬町５１３１番地,,24,212,5194325,,,2022-10-03,合併による解散等,8190001010427,令和４年１０月１日三重県松阪市大塚町３８１番地の１株式会社ホンダカーズ三重（8190001010427）に合併し解散,2015-10-05,1,,,,,オートサロンクマノホンダ,0
546,2220002012812,登記記録の閉鎖等,0,2022-10-05,2022-10-03,有限会社北商,,有限会社,石川県,加賀市,動橋町ム３２番地１,,17,206,9220331,,,2022-10-03,合併による解散等,1220002012342,令和４年１０月１日石川県加賀市動橋町ム３２番地１株式会社ケイコーポレート（1220002012342）に合併し解散,2015-10-05,1,,,,,ホクショウ,0
570,2300001005230,登記記録の閉鎖等,0,2022-10-05,2022-09-29,株式会社久我酒店,,株式会社,佐賀県,鹿島市,大字高津原３６０５番地３,,41,207,8491311,,,2022-09-29,清算の結了等,,,2015-10-05,1,,,,,クガサケテン,0
597,2410003003171,登記記録の閉鎖等,0,2022-10-05,2022-09-30,合同会社コズミックウェブ,,合同会社,秋田県,秋田市,外旭川八柳２丁目１５番１号,,05,201,0100803,,,2022-09-30,清算の結了等,,,2018-06-07,1,,,,,コズミックウェブ,0
600,2420001005425,登記記録の閉鎖等,0,2022-10-05,2022-09-30,株式会社オザワキカイ,,株式会社,青森県,青森市,八重田４丁目１番１４号,,02,201,0300912,,,2022-09-30,清算の結了等,,,2015-10-05,1,,,,,オザワキカイ,0
601,2430001071169,登記記録の閉鎖等,0,2022-10-05,2022-09-22,株式会社Ｊ－ＴｅｌｅＣ遠隔医療研究所,,株式会社,北海道,札幌市中央区,北一条西２７丁目１番１ー１０１号,,01,101,0640821,,,2022-09-22,清算の結了等,,,2016-03-28,1,,,,,ジェイテレックエンカクイリョウケンキュウショ,0
663,3011001096429,登記記録の閉鎖等,0,2022-10-05,2022-09-22,株式会社セミハン,,株式会社,東京都,目黒区,中根１丁目３－３,,13,110,1520031,,,2022-09-22,清算の結了等,,,2015-10-05,1,,,,,セミハン,0
715,3021001014331,登記記録の閉鎖等,0,2022-10-05,2022-09-30,吉澤住器株式会社,,株式会社,神奈川県,相模原市中央区,矢部２丁目３番１２号,,14,152,2520232,,,2022-09-30,清算の結了等,,,2015-10-05,1,,,,,ヨシザワジュウキ,0
743,3040001055994,登記記録の閉鎖等,0,2022-10-05,2022-09-27,ライトシステム株式会社,,株式会社,千葉県,市原市,潤井戸２２７７番地,,12,219,2900171,,,2022-09-27,清算の結了等,,,2015-10-05,1,,,,,ライトシステム,0
749,3040005003454,登記記録の閉鎖等,0,2022-10-05,2022-09-22,天理教谷澄分教会,,その他の設立登記法人,千葉県,八千代市,大和田新田５１４番地６４,,12,221,2760046,,,2022-09-22,合併による解散等,4011605000173,令和４年９月２０日東京都練馬区大泉学園町六丁目１８番２６号天理教都大教会（4011605000173）に合併し解散,2015-10-05,1,,,,,テンリキョウタニスミブンキョウカイ,0
755,3050002028627,登記記録の閉鎖等,0,2022-10-05,2022-09-28,有限会社パドック潮来,,有限会社,茨城県,潮来市,辻３９６番地２,00023025,08,223,3112421,,,2022-09-28,清算の結了等,,,2015-10-05,1,,,,,パドックイタコ,0
758,3050002039698,登記記録の閉鎖等,0,2022-10-05,2022-09-28,有限会社グリーンスタッフ,,有限会社,茨城県,常総市,水海道森下町３８２８番地,,08,211,3030005,,,2022-09-28,清算の結了等,,,2015-10-05,1,,,,,グリーンスタッフ,0
781,3110002002484,登記記録の閉鎖等,0,2022-10-05,2022-09-30,有限会社小針商事,,有限会社,新潟県,新潟市西区,松美台１５番２５号,,15,107,9502072,,,2022-09-30,清算の結了等,,,2015-10-05,1,,,,,コバリショウジ,0
785,3120001121929,登記記録の閉鎖等,0,2022-10-05,2022-10-03,アイテックソフトウェア株式会社,,株式会社,大阪府,大阪市福島区,福島５丁目６番１６号,,27,103,5530003,,,2022-10-03,合併による解散等,8120001034119,令和４年１０月１日大阪市福島区海老江一丁目１番３１号アイテック阪急阪神株式会社（8120001034119）に合併し解散,2015-10-05,1,,,,,アイテックソフトウェア,0
798,3120005017495,登記記録の閉鎖等,0,2022-10-05,2022-09-29,特定非営利活動法人アワ・サイエンス・ファクトリー,,その他の設立登記法人,大阪府,枚方市,北山１丁目４７番９号,,27,210,5730171,,,2022-09-29,清算の結了等,,,2015-10-05,1,,,,,アワサイエンスファクトリー,0
801,3120101009446,登記記録の閉鎖等,0,2022-10-05,2022-09-30,南大阪いづみ運輸株式会社,,株式会社,大阪府,高石市,高砂２丁目２番７号,,27,225,5920001,,,2022-09-30,清算の結了等,,,2015-10-05,1,,,,,ミナミオオサカイヅミ,0
829,3180003018143,登記記録の閉鎖等,0,2022-10-05,2022-09-30,合同会社Ｉ．Ｔ．Ｆ,,合同会社,愛知県,名古屋市天白区,久方１丁目１４４番地,,23,116,4680034,,,2022-09-30,清算の結了等,,,2017-08-01,1,,,,,アイティーエフ,0
840,3200002016905,登記記録の閉鎖等,0,2022-10-05,2022-10-03,有限会社可児塩化ビニール工業所,,有限会社,岐阜県,加茂郡八百津町,八百津１８０５番地１,,21,505,5050301,,,2022-10-03,清算の結了等,,,2015-10-05,1,,,,,カニエンカビニールコウギョウショ,0
849,3240001038021,登記記録の閉鎖等,0,2022-10-05,2022-10-03,黒飛印刷株式会社,,株式会社,広島県,尾道市,栗原町９３１１番地の６,,34,205,7220022,,,2022-10-03,清算の結了等,,,2015-10-05,1,,,,,クロトビインサツ,0
853,3240002050330,登記記録の閉鎖等,0,2022-10-05,2022-10-03,有限会社神田墓石店,,有限会社,広島県,尾道市,美ノ郷町本郷１１０３番地の２,,34,205,7220212,,,2022-10-03,清算の結了等,,,2015-10-05,1,,,,,カンダボセキテン,0
856,3250001000351,登記記録の閉鎖等,0,2022-10-05,2022-09-29,綜合印刷株式会社,,株式会社,山口県,山口市,大市町１番１５号,,35,203,7530033,,,2022-09-29,清算の結了等,,,2015-10-05,1,,,,,ソウゴウインサツ,0
860,3260001002322,登記記録の閉鎖等,0,2022-10-05,2022-10-03,株式会社剛正,,株式会社,岡山県,岡山市東区,金岡東町２丁目１４番３３号,,33,103,7048194,,,2022-10-03,合併による解散等,4260001005299,令和４年１０月１日岡山市東区金岡東町二丁目１４番３３号野崎産業株式会社（4260001005299）に合併し解散,2015-10-05,1,,,,,ゴウセイ,0
867,3270002008796,登記記録の閉鎖等,0,2022-10-05,2022-09-30,有限会社てらもと薬局,,有限会社,鳥取県,境港市,渡町１４４７番地４,,31,204,6840072,,,2022-09-30,清算の結了等,,,2015-10-05,1,,,,,テラモトヤッキョク,0
901,3420001014292,登記記録の閉鎖等,0,2022-10-05,2022-09-30,株式会社ワールドウィンズ,,株式会社,青森県,弘前市,大字城東中央３丁目５番地１４,,02,202,0368093,,,2022-09-30,清算の結了等,,,2015-10-05,1,,,,,ワールドウィンズ,0
935,4010002039718,登記記録の閉鎖等,0,2022-10-05,2022-09-30,有限会社セイバー,,有限会社,東京都,中央区,日本橋小伝馬町７番１２号セントラルビル９階,,13,102,1030001,,,2022-09-30,清算の結了等,,,2015-10-05,1,,,,,セイバー,0
970,4011001096329,登記記録の閉鎖等,0,2022-10-05,2022-09-14,富士システムサービス株式会社,,株式会社,東京都,渋谷区,神宮前２丁目３０番２２－２０１号,,13,113,1500001,,,2022-09-14,清算の結了等,,,2015-10-05,1,,,,,フジシステムサービス,0
1002,4013305001781,登記記録の閉鎖等,0,2022-10-05,2022-10-04,特定非営利活動法人みちのくふる里ネットワーク,,その他の設立登記法人,東京都,豊島区,池袋本町１丁目１５番４号ヴィエール山本２０３号,,13,116,1700011,,,2022-10-04,清算の結了等,,,2015-10-05,1,,,,,ミチノクフルサトネットワーク,0
1028,4040001099009,登記記録の閉鎖等,0,2022-10-05,2022-10-03,キューディーアセット株式会社,,株式会社,福岡県,福岡市博多区,博多駅前４丁目３番１８号,,40,132,8120011,,,2022-10-03,合併による解散等,8290001019854,令和４年１０月１日福岡市博多区博多駅前三丁目４番８号株式会社ケイ・エル・アイ（8290001019854）に合併し解散,2017-03-01,1,,,,,キューディーアセット,0
1052,4120001211811,登記記録の閉鎖等,0,2022-10-05,2022-09-30,株式会社ＲＲＫ,,株式会社,大阪府,大阪市福島区,海老江７丁目１８－１８高山ビル２０２,,27,103,5530001,,,2022-09-30,清算の結了等,,,2018-03-13,1,,,,,アールアールケー,0
1076,4130001035350,登記記録の閉鎖等,0,2022-10-05,2022-09-26,株式会社関西ホーム,,株式会社,京都府,船井郡京丹波町,須知荒堀２０－４,,26,407,6220213,,,2022-09-26,清算の結了等,,,2015-10-05,1,,,,,カンサイホーム,0
1084,4140002008172,登記記録の閉鎖等,0,2022-10-05,2022-09-29,有限会社いづみ,,有限会社,兵庫県,神戸市長田区,滝谷町１丁目６番８１９号,,28,106,6530881,,,2022-09-29,清算の結了等,,,2015-10-05,1,,,,,イヅミ,0
1093,4180001010902,登記記録の閉鎖等,0,2022-10-05,2022-09-30,浜田電気通信株式会社,,株式会社,愛知県,名古屋市瑞穂区,汐路町４丁目１２番地の５,,23,108,4670003,,,2022-09-30,清算の結了等,,,2015-10-05,1,,,,,ハマダデンキツウシン,0
1109,4200001029898,登記記録の閉鎖等,0,2022-10-05,2022-10-04,株式会社ベネックス,,株式会社,岐阜県,中津川市,駒場１１８１番地の１,,21,206,5080011,,,2022-10-04,合併による解散等,1200001023433,令和４年１０月１日岐阜県中津川市桃山町３番２０号株式会社トキワ（1200001023433）に合併し解散,2015-10-05,1,,,,,ベネックス,0
1117,4240002037095,登記記録の閉鎖等,0,2022-10-05,2022-10-03,有限会社ケイ・エム・シー,,有限会社,広島県,廿日市市,永原５番地の６３,,34,213,7380201,,,2022-10-03,清算の結了等,,,2015-10-05,1,,,,,ケイエムシー,0
1119,4250001011265,登記記録の閉鎖等,0,2022-10-05,2022-09-30,株式会社神田,,株式会社,山口県,岩国市,尾津町５丁目１１番１号,,35,208,7400032,,,2022-09-30,清算の結了等,,,2015-10-05,1,,,,,カンダ,0
1143,4290805005401,登記記録の閉鎖等,0,2022-10-05,2022-10-03,税理士法人富下会計事務所,,その他の設立登記法人,福岡県,北九州市八幡東区,西本町１丁目１２番１３号,,40,108,8050061,,,2022-10-03,清算の結了等,,,2015-10-05,1,,,,,トミシタカイケイジムショ,0
1162,4380002003190,登記記録の閉鎖等,0,2022-10-05,2022-09-27,有限会社福島測量設計社,,有限会社,福島県,福島市,瀬上町字五月田５１番地,,07,201,9600101,,,2022-09-27,清算の結了等,,,2015-10-05,1,,,,,フクシマソクリョウセッケイシャ,0
1169,4420001004490,登記記録の閉鎖等,0,2022-10-05,2022-09-29,株式会社古村商会,,株式会社,青森県,青森市,浪岡大字浪岡字細田１番地の１,,02,201,0381311,,,2022-09-29,清算の結了等,,,2015-10-05,1,,,,,コムラショウカイ,0
1172,4420005004025,登記記録の閉鎖等,0,2022-10-05,2022-09-28,青森県高齢者住宅事業協同組合,,その他の設立登記法人,青森県,つがる市,柏下古川鶴山８９番地１０,,02,209,0383102,,,2022-09-28,清算の結了等,,,2015-10-05,1,,,,,アオモリケンコウレイシャジュウタク,0
1179,4430003006419,登記記録の閉鎖等,0,2022-10-05,2022-09-27,合同会社カペラクルーズ,,合同会社,北海道,札幌市中央区,南十三条西５丁目１番１２－２１０号,,01,101,0640913,,,2022-09-27,清算の結了等,,,2015-10-05,1,,,,,カペラクルーズ,0
1181,4430005004619,登記記録の閉鎖等,0,2022-10-05,2022-09-26,天理教幌北分教会,,その他の設立登記法人,北海道,石狩市,花川南十条３丁目４０番地１,,01,235,0613210,,,2022-09-26,合併による解散等,9430005009786,令和４年９月２６日北海道虻田郡豊浦町字船見町１０７番地の７天理教虻田分教会（9430005009786）に合併し解散,2015-10-05,1,,,,,,0
1188,4462502000246,登記記録の閉鎖等,0,2022-10-05,2022-09-30,有限会社栗田工務店,,有限会社,北海道,標津郡中標津町,西十二条北１３丁目５番地,,01,692,0861132,,,2022-09-30,清算の結了等,,,2015-10-05,1,,,,,クリタコウムテン,0
1207,5010001141093,登記記録の閉鎖等,0,2022-10-05,2022-09-14,ＮＥＳＴ　ＦＵＴＵＲＥ株式会社,,株式会社,東京都,港区,西麻布２丁目１３番８－１１０４号,,13,103,1060031,,,2022-09-14,清算の結了等,,,2015-10-05,1,,,,,ネストフューチャー,0
1216,5010005033948,登記記録の閉鎖等,0,2022-10-05,2022-10-03,一般社団法人所沢山口,,その他の設立登記法人,東京都,中央区,日本橋１丁目４番１号日本橋一丁目ビルディング,,13,102,1030027,,,2022-10-03,清算の結了等,,,2021-09-10,1,,,,,トコロザワヤマグチ,0
1253,5011001111821,登記記録の閉鎖等,0,2022-10-05,2022-09-26,株式会社エヌ商店,,株式会社,東京都,目黒区,碑文谷４丁目６番９号,,13,110,1520003,,,2022-09-26,清算の結了等,,,2016-07-13,1,,,,,エヌショウテン,0
1261,5011101075363,登記記録の閉鎖等,0,2022-10-05,2022-09-14,ＭＥＧＵＭＩ株式会社,,株式会社,東京都,港区,浜松町２丁目２番１５号２Ｆ,,13,103,1050013,,,2022-09-14,清算の結了等,,,2015-12-11,1,,,,,メグミ,0
1269,5011201015517,登記記録の閉鎖等,0,2022-10-05,2022-10-03,明興地所株式会社,,株式会社,東京都,新宿区,新宿６丁目２９番３号新宿桑原ビル６階,,13,104,1600022,,,2022-10-03,合併による解散等,3011102017176,令和４年１０月１日東京都新宿区新宿五丁目１８番１６号新宿伊藤ビル８階株式会社北光情報システム（3011102017176）に合併し解散,2015-10-05,1,,,,,メイコウジショ,0
1270,5011203003420,登記記録の閉鎖等,0,2022-10-05,2022-09-22,ＳＥＮＪＹＵ　ＷＯＲＫＳ合同会社,,合同会社,東京都,中野区,沼袋３丁目１２番１８号志田荘２０２,,13,114,1650025,,,2022-09-22,清算の結了等,,,2020-11-05,1,,,,,センジュワークス,0
1276,5011302010466,登記記録の閉鎖等,0,2022-10-05,2022-09-15,有限会社大陸交通燃料サービス,,有限会社,東京都,杉並区,堀ノ内１丁目８番２３号,,13,115,1660013,,,2022-09-15,合併による解散等,9011301004093,令和４年９月１５日東京都杉並区堀ノ内一丁目８番２３号株式会社タイリク（9011301004093）に合併し解散,2015-10-05,1,,,,,タイリクコウツウネンリョウサービス,0
1279,5011403001125,登記記録の閉鎖等,0,2022-10-05,2022-10-03,合同会社ペルトラン,,合同会社,東京都,板橋区,幸町１５番１号,,13,119,1730034,,,2022-10-03,清算の結了等,,,2015-10-05,1,,,,,ペルトラン,0
1291,5011801016583,登記記録の閉鎖等,0,2022-10-05,2022-10-04,株式会社ツダカズ,,株式会社,東京都,葛飾区,白鳥４丁目６番１－２０３号白鳥スカイマンション,,13,122,1250063,,,2022-10-04,清算の結了等,,,2015-10-05,1,,,,,ツダカズ,0
1314,5030001068483,登記記録の閉鎖等,0,2022-10-05,2022-09-26,株式会社オフィス岩切,,株式会社,埼玉県,吉川市,新栄２丁目７番地１９,,11,243,3420059,,,2022-09-26,清算の結了等,,,2015-10-05,1,,,,,オフィスイワキリ,0
1334,5050002002646,登記記録の閉鎖等,0,2022-10-05,2022-09-28,有限会社ビーエス,,有限会社,茨城県,水戸市,笠原町６００番地９０,,08,201,3100852,,,2022-09-28,清算の結了等,,,2015-10-05,1,,,,,ビーエス,0
1350,5120001120441,登記記録の閉鎖等,0,2022-10-05,2022-09-30,株式会社ダイクロ,,株式会社,大阪府,大阪市中央区,平野町１丁目８番１３号平野町八千代ビル５階,,27,128,5410046,,,2022-09-30,清算の結了等,,,2015-10-05,1,,,,,ダイクロ,0
1380,5130001044441,登記記録の閉鎖等,0,2022-10-05,2022-09-30,株式会社大慎,,株式会社,兵庫県,西宮市,北六甲台１丁目９番１５号,,28,204,6511413,,,2022-09-30,清算の結了等,,,2015-10-05,1,,,,,ダイシン,0
1401,5180305003270,登記記録の閉鎖等,0,2022-10-05,2022-09-22,医療法人クリニック豊橋,,その他の設立登記法人,愛知県,豊橋市,平川南町４６番地,,23,201,4400035,,,2022-09-22,清算の結了等,,,2015-10-05,1,,,,,クリニックトヨハシ,0
1406,5190002021715,登記記録の閉鎖等,0,2022-10-05,2022-09-30,有限会社ファーマシーヒラタ,,有限会社,三重県,四日市市,北浜田町１０番６号,,24,202,5100062,,,2022-09-30,清算の結了等,,,2015-10-05,1,,,,,,0
1408,5200001005163,登記記録の閉鎖等,0,2022-10-05,2022-10-05,株式会社丸裕,,株式会社,岐阜県,岐阜市,五坪２丁目３番４－５０２号,,21,201,5008157,,,2022-10-05,清算の結了等,,,2015-10-05,1,,,,,マルヒロ,0
1411,5200001014825,登記記録の閉鎖等,0,2022-10-05,2022-10-03,株式会社辻川,00076567,株式会社,岐阜県,不破郡垂井町,２３１１番地の２７,,21,361,5032121,,,2022-10-03,清算の結了等,,,2015-10-05,1,,,,,ツジカワ,0
1420,5210001014980,登記記録の閉鎖等,0,2022-10-05,2022-10-03,株式会社さくらリース,,株式会社,福井県,福井市,和田東１丁目９０３番地Ｋ２ビル１階,,18,201,9188237,,,2022-10-03,合併による解散等,5210001008784,令和４年１０月１日福井市北四ツ居三丁目５番１号株式会社高木コーポレーション（5210001008784）に合併し解散,2015-10-05,1,,,,,サクラリース,0
1422,5220001003974,登記記録の閉鎖等,0,2022-10-05,2022-10-03,大和商事株式会社,,株式会社,石川県,金沢市,進和町３２番地,,17,201,9218006,,,2022-10-03,合併による解散等,5220001007439,令和４年１０月１日石川県金沢市進和町３２番地米沢電気工事株式会社（5220001007439）に合併し解散,2015-10-05,1,,,,,ダイワショウジ,0
1426,5220002001671,登記記録の閉鎖等,0,2022-10-05,2022-10-03,有限会社沖津食品,,有限会社,石川県,金沢市,上近江町３６番地の２,,17,201,9200905,,,2022-10-03,清算の結了等,,,2015-10-05,1,,,,,オキツショクヒン,0
1437,5250002019190,登記記録の閉鎖等,0,2022-10-05,2022-09-30,有限会社中川電気工事,,有限会社,山口県,岩国市,玖珂町４１１１番地７,,35,208,7420344,,,2022-09-30,清算の結了等,,,2015-10-05,1,,,,,ナカガワデンキコウジ,0
1442,5290001062989,登記記録の閉鎖等,0,2022-10-05,2022-09-29,福岡ドリーム株式会社,,株式会社,東京都,千代田区,内幸町１丁目３番３号内幸町ダイビル６階,,13,101,1000011,,,2022-09-29,清算の結了等,,,2015-10-05,1,,,,,フクオカドリーム,0
1470,5330005009899,登記記録の閉鎖等,0,2022-10-05,2022-09-30,特定非営利活動法人はなみずき,,その他の設立登記法人,熊本県,天草市,浜崎町１１番３５号モントレ妙見１－Ｄ,,43,215,8630018,,,2022-09-30,清算の結了等,,,2018-08-15,1,,,,,ハナミズキ,0
1489,5390002006992,登記記録の閉鎖等,0,2022-10-05,2022-09-30,有限会社イシカワ印刷,,有限会社,山形県,酒田市,中町１丁目１番１３号,,06,204,9980044,,,2022-09-30,清算の結了等,,,2015-10-05,1,,,,,イシカワインサツ,0
1503,5430001052323,登記記録の閉鎖等,0,2022-10-05,2022-09-26,アップテクノ株式会社,,株式会社,北海道,札幌市東区,本町一条２丁目５番３４号,,01,103,0650041,,,2022-09-26,清算の結了等,,,2015-10-05,1,,,,,アップテクノ,0
1506,5450005000078,登記記録の閉鎖等,0,2022-10-05,2022-10-03,旭川家具類輸送事業協同組合,,その他の設立登記法人,北海道,旭川市,永山北三条７丁目３番地の１,,01,204,0798453,,,2022-10-03,清算の結了等,,,2015-10-05,1,,,,,アサヒカワカグルイユソウ,0
1516,5500002010108,登記記録の閉鎖等,0,2022-10-05,2022-10-04,有限会社アップリンク,,有限会社,愛媛県,伊予市,下吾川１７１３番地１,,38,210,7993111,,,2022-10-04,清算の結了等,,,2015-10-05,1,,,,,アップリンク,0
1546,6010403014251,登記記録の閉鎖等,0,2022-10-05,2022-09-14,蒲田・ホテル・インベストメンツ合同会社,,合同会社,東京都,港区,虎ノ門３丁目２２番１０－２０１号,,13,103,1050001,,,2022-09-14,清算の結了等,,,2016-01-06,1,,,,,カマタホテルインベストメンツ,0
1567,6011001021937,登記記録の閉鎖等,0,2022-10-05,2022-09-30,株式会社まいづる,,株式会社,東京都,足立区,東和４丁目１５番２２号,,13,121,1200003,,,2022-09-30,清算の結了等,,,2015-10-05,1,,,,,マイヅル,0
1570,6011001102101,登記記録の閉鎖等,0,2022-10-05,2022-09-22,株式会社グッドノット,,株式会社,東京都,目黒区,下目黒１丁目６番３－４０５,,13,110,1530064,,,2022-09-22,清算の結了等,,,2015-10-05,1,,,,,グッドノット,0
1593,6011401010531,登記記録の閉鎖等,0,2022-10-05,2022-09-30,株式会社ユニライト,,株式会社,東京都,板橋区,栄町２１番１０号,,13,119,1730015,,,2022-09-30,合併による解散等,1010801008231,令和４年８月２１日東京都大田区東糀谷三丁目１３番７号株式会社リテラ（1010801008231）に合併し解散,2015-10-05,1,,,,,,0
1607,6020001088085,登記記録の閉鎖等,0,2022-10-05,2022-09-28,株式会社ＡＴＣ,,株式会社,神奈川県,川崎市中原区,中丸子１３番地１７－１４１１,,14,133,2110012,,,2022-09-28,清算の結了等,,,2015-10-05,1,,,,,エーティーシー,0
1641,6040002037262,登記記録の閉鎖等,0,2022-10-05,2022-09-27,有限会社吉田洋服店,,有限会社,千葉県,市川市,富浜３丁目１５番１２号,,12,203,2720115,,,2022-09-27,清算の結了等,,,2015-10-05,1,,,,,ヨシダヨウフクテン,0
1659,6100001009917,登記記録の閉鎖等,0,2022-10-05,2022-10-03,創生ワールド株式会社,,株式会社,長野県,上田市,秋和２０１番地２,,20,203,3860041,,,2022-10-03,清算の結了等,,,2015-10-05,1,,,,,,0
1671,6120001208789,登記記録の閉鎖等,0,2022-10-05,2022-09-30,株式会社旭ネクサス,,株式会社,大阪府,大阪市生野区,巽西３丁目１３－１,00115944,27,116,5440012,,,2022-09-30,清算の結了等,,,2017-10-16,1,,,,,アサヒネクサス,0
1676,6120005003030,登記記録の閉鎖等,0,2022-10-05,2022-10-03,一般社団法人化学繊維振興会,,その他の設立登記法人,大阪府,大阪市中央区,道修町１丁目５番１８号,,27,128,5410045,,,2022-10-03,清算の結了等,,,2015-10-05,1,,,,,カガクセンイシンコウカイ,0
1679,6120101040159,登記記録の閉鎖等,0,2022-10-05,2022-09-30,株式会社ホーセン,,株式会社,大阪府,泉佐野市,湊２丁目３番８号,,27,213,5980063,,,2022-09-30,清算の結了等,,,2015-10-05,1,,,,,ホーセン,0
1692,6140002013237,登記記録の閉鎖等,0,2022-10-05,2022-10-03,オーシャンキャリヤーズ株式会社,,株式会社,兵庫県,神戸市中央区,明石町１８番地,,28,110,6500037,,,2022-10-03,合併による解散等,6140001009070,令和４年１０月１日神戸市中央区明石町１８番地大日インベスト株式会社（6140001009070）に合併し解散,2015-10-05,1,,,,,オーシャンキャリヤーズ,0
1697,6160001008186,登記記録の閉鎖等,0,2022-10-05,2022-09-30,カーコム・トガワ株式会社,,株式会社,滋賀県,愛知郡愛荘町,蚊野１８７５番地の３,,25,425,5291206,,,2022-09-30,清算の結了等,,,2015-10-05,1,,,,,カーコムトガワ,0
1700,6160002006684,登記記録の閉鎖等,0,2022-10-05,2022-09-30,有限会社宗谷亭,,有限会社,滋賀県,米原市,上丹生１４８７番地,,25,214,5210033,,,2022-09-30,清算の結了等,,,2015-10-05,1,,,,,ソウヤテイ,0
1721,6190002010130,登記記録の閉鎖等,0,2022-10-05,2022-09-28,有限会社オフィスグローバル,,有限会社,三重県,度会郡度会町,立岡８３番地１,,24,470,5162107,,,2022-09-28,清算の結了等,,,2015-10-05,1,,,,,オフィスグローバル,0
1728,6200002015656,登記記録の閉鎖等,0,2022-10-05,2022-10-03,有限会社林グリーンワークス,,有限会社,岐阜県,揖斐郡揖斐川町,極楽寺字松原１１６番地の１,,21,401,5010605,,,2022-10-03,合併による解散等,7200001014146,令和４年１０月１日岐阜県大垣市馬場町２番地林工業株式会社（7200001014146）に合併し解散,2015-10-05,1,,,,,ハヤシグリーンワークス,0
1734,6240001011710,登記記録の閉鎖等,0,2022-10-05,2022-10-04,明和自動車工業株式会社,,株式会社,広島県,広島市西区,南観音町１６番８号,,34,104,7330034,,,2022-10-04,清算の結了等,,,2015-10-05,1,,,,,メイワジドウシャコウギョウ,0
1739,6240005014395,登記記録の閉鎖等,0,2022-10-05,2022-09-30,一般社団法人美寿庵,,その他の設立登記法人,広島県,呉市,焼山松ヶ丘１丁目１０番２０号,,34,202,7370932,,,2022-09-30,清算の結了等,,,2017-05-19,1,,,,,ビジュアン,0
1742,6250001005232,登記記録の閉鎖等,0,2022-10-05,2022-09-30,株式会社甲斐商会,,株式会社,山口県,下関市,竹崎町２丁目７番６号,,35,201,7500025,,,2022-09-30,清算の結了等,,,2015-10-05,1,,,,,カイショウカイ,0
1756,6320001013450,登記記録の閉鎖等,0,2022-10-05,2022-09-30,株式会社九州クリーンスペース,,株式会社,大分県,別府市,北浜３丁目１１番２５号,,44,202,8740920,,,2022-09-30,清算の結了等,,,2015-10-05,1,,,,,キュウシュウクリーンスペース,0
1785,6400002004408,登記記録の閉鎖等,0,2022-10-05,2022-10-03,株式会社イワテックサービス,,株式会社,岩手県,滝沢市,篠木黒畑１３５番地６,,03,216,0200735,,,2022-10-03,合併による解散等,7400001004366,令和４年１０月１日岩手県滝沢市篠木黒畑１３５番地６株式会社イワテック（7400001004366）に合併し解散,2015-10-05,1,,,,,イワテックサービス,0
1787,6420001011493,登記記録の閉鎖等,0,2022-10-05,2022-09-30,株式会社丸中,,株式会社,青森県,三沢市,中央町３丁目１０番１４号,,02,207,0330001,,,2022-09-30,清算の結了等,,,2015-10-05,1,,,,,マルナカ,0
1788,6430001001048,登記記録の閉鎖等,0,2022-10-05,2022-09-27,株式会社アルトン,,株式会社,北海道,札幌市北区,北二十七条西１３丁目３番２８号,,01,102,0010027,,,2022-09-27,清算の結了等,,,2015-10-05,1,,,,,アルトン,0
1789,6430001021376,登記記録の閉鎖等,0,2022-10-05,2022-09-27,株式会社富士見屋茶舗,,株式会社,北海道,札幌市東区,北八条東１丁目１番１５号,,01,103,0600908,,,2022-09-27,清算の結了等,,,2015-10-05,1,,,,,フジミヤチャホ,0
1794,6430001064482,登記記録の閉鎖等,0,2022-10-05,2022-09-26,株式会社ラウレア,,株式会社,北海道,札幌市中央区,南十三条西１丁目３－３０－４０５,,01,101,0640913,,,2022-09-26,清算の結了等,,,2015-10-05,1,,,,,ラウレア,0
1799,6430002004355,登記記録の閉鎖等,0,2022-10-05,2022-09-22,有限会社オフィス・エム,,有限会社,北海道,札幌市豊平区,月寒西三条７丁目２番７号,,01,105,0620023,,,2022-09-22,清算の結了等,,,2015-10-05,1,,,,,オフィスエム,0
1814,6500002011278,登記記録の閉鎖等,0,2022-10-05,2022-10-03,有限会社グランデファミリア,,有限会社,愛媛県,伊予郡砥部町,外山１５番地,,38,402,7912134,,,2022-10-03,清算の結了等,,,2015-10-05,1,,,,,グランデファミリア,0
1821,7010001061769,登記記録の閉鎖等,0,2022-10-05,2022-09-30,シーイージャパン株式会社,,株式会社,東京都,中央区,八丁堀４丁目２番１０号第二後関ビル,,13,102,1040032,,,2022-09-30,清算の結了等,,,2015-10-05,1,,,,,シーイージャパン,0
1822,7010001085974,登記記録の閉鎖等,0,2022-10-05,2022-09-29,株式会社クアレ,,株式会社,東京都,中央区,日本橋室町４丁目３番１３号,,13,102,1030022,,,2022-09-29,清算の結了等,,,2015-10-05,1,,,,,クアレ,0
1824,7010001110848,登記記録の閉鎖等,0,2022-10-05,2022-09-28,株式会社アミダスパートナーズ,,株式会社,東京都,千代田区,有楽町１丁目９番１号,,13,101,1000006,,,2022-09-28,清算の結了等,,,2015-10-05,1,,,,,アミダスパートナーズ,0
1825,7010001123370,登記記録の閉鎖等,0,2022-10-05,2022-09-14,ＥＢＳ株式会社,,株式会社,東京都,港区,港南１丁目２番７０号,,13,103,1080075,,,2022-09-14,清算の結了等,,,2015-10-05,1,,,,,イービーエス,0
1826,7010001165801,登記記録の閉鎖等,0,2022-10-05,2022-09-28,株式会社飯能水と緑の連携推進機構,,株式会社,東京都,千代田区,丸の内３丁目１番１号東京共同会計事務所内,,13,101,1000005,,,2022-09-28,清算の結了等,,,2015-10-05,1,,,,,ハンノウミズトミドリノレンケイスイシンキコウ,0
1840,7010401066252,登記記録の閉鎖等,0,2022-10-05,2022-09-14,フュージョンブレーン株式会社,,株式会社,東京都,港区,芝２丁目３０番１３号,,13,103,1050014,,,2022-09-14,清算の結了等,,,2015-10-05,1,,,,,フュージョンブレーン,0
1849,7010405011048,登記記録の閉鎖等,0,2022-10-05,2022-09-14,高効率モーター用磁性材料技術研究組合,,その他の設立登記法人,東京都,港区,西新橋１丁目５番１１号,,13,103,1050003,,,2022-09-14,清算の結了等,,,2015-10-05,1,,,,,コウコウリツモーターヨウジセイザイリョウ,0
1854,7010601049610,登記記録の閉鎖等,0,2022-10-05,2022-09-28,株式会社仲田塗装,,株式会社,東京都,江東区,東砂６丁目６－５－１０１,,13,108,1360074,,,2022-09-28,清算の結了等,,,2016-04-26,1,,,,,ナカタトソウ,0
1894,7011801017159,登記記録の閉鎖等,0,2022-10-05,2022-09-30,株式会社アオヤギ,,株式会社,東京都,葛飾区,奥戸７丁目２番１４号,,13,122,1240022,,,2022-09-30,清算の結了等,,,2015-10-05,1,,,,,アオヤギ,0
1901,7012805002683,登記記録の閉鎖等,0,2022-10-05,2022-09-26,一般社団法人富ヶ谷再開発,,その他の設立登記法人,東京都,日野市,大字上田３３９番地の５,,13,212,1910014,,,2022-09-26,清算の結了等,,,2017-07-14,1,,,,,トミガヤサイカイハツ,0
1952,7100001016747,登記記録の閉鎖等,0,2022-10-05,2022-10-03,マサツネ商事株式会社,,株式会社,長野県,松本市,寿北７丁目１２番２０号,,20,202,3990011,,,2022-10-03,清算の結了等,,,2015-10-05,1,,,,,マサツネショウジ,0
1954,7110001011607,登記記録の閉鎖等,0,2022-10-05,2022-09-30,株式会社川藤洋品店,,株式会社,新潟県,五泉市,土深２４番地の２,,15,218,9591853,,,2022-09-30,清算の結了等,,,2015-10-05,1,,,,,カワトウヨウヒンテン,0
1960,7120001045975,登記記録の閉鎖等,0,2022-10-05,2022-10-03,株式会社ＨＳ電材,,株式会社,大阪府,大阪市西区,九条南４丁目１５番２１号,,27,106,5500025,,,2022-10-03,合併による解散等,7260001002558,令和４年１０月１日岡山市北区下中野１２２２番地７コムパス株式会社（7260001002558）に合併し解散,2015-10-05,1,,,,,,0
2008,7190005009565,登記記録の閉鎖等,0,2022-10-05,2022-09-29,特定非営利活動法人四日市市スポーツ協会,,その他の設立登記法人,三重県,四日市市,日永東１丁目３番２１号,,24,202,5100886,,,2022-09-29,清算の結了等,,,2015-10-05,1,,,,,ヨッカイチシスポーツキョウカイ,0
2012,7200001028179,登記記録の閉鎖等,0,2022-10-05,2022-10-03,西濃北陸エキスプレス株式会社,,株式会社,岐阜県,関市,池田町１番地,,21,205,5013247,,,2022-10-03,合併による解散等,1200001019464,令和４年１０月１日岐阜県関市池田町１番地濃飛西濃運輸株式会社（1200001019464）に合併し解散,2015-10-05,1,,,,,セイノウホクリクエキスプレス,0
2013,7200001037238,登記記録の閉鎖等,0,2022-10-05,2022-10-04,株式会社エムスタッフ,,株式会社,岐阜県,大垣市,荒尾玉池２丁目２１番地,,21,202,5030035,,,2022-10-04,清算の結了等,,,2020-03-13,1,,,,,エムスタッフ,0
2015,7200002010326,登記記録の閉鎖等,0,2022-10-05,2022-10-04,有限会社浅野木工所,,有限会社,岐阜県,岐阜市,芋島４丁目１番２号,,21,201,5008234,,,2022-10-04,清算の結了等,,,2015-10-05,1,,,,,アサノモッコウショ,0
2023,7240002052554,登記記録の閉鎖等,0,2022-10-05,2022-10-04,有限会社アグリーセラ,,有限会社,広島県,世羅郡世羅町,大字重永２２７番地の２,,34,462,7221625,,,2022-10-04,清算の結了等,,,2015-10-05,1,,,,,アグリーセラ,0
2024,7240002053123,登記記録の閉鎖等,0,2022-10-05,2022-09-30,幸伸工業有限会社,,有限会社,広島県,三原市,幸崎能地７丁目４番８号,,34,204,7292252,,,2022-09-30,清算の結了等,,,2015-10-05,1,,,,,コウシンコウギョウ,0
2035,7280001000527,登記記録の閉鎖等,0,2022-10-05,2022-10-03,株式会社中村松太郎工務店,,株式会社,島根県,松江市,灘町１５０番地,00004583,32,201,6900065,,,2022-10-03,清算の結了等,,,2015-10-05,1,,,,,ナカムラマツタロウコウムテン,0
2052,7310001008590,登記記録の閉鎖等,0,2022-10-05,2022-10-03,株式会社衛研花丘,,株式会社,長崎県,長崎市,柿泊町２２９０番地,,42,201,8511134,,,2022-10-03,合併による解散等,2310001001385,令和４年１０月１日長崎市清水町５番７１号株式会社長崎消毒社（2310001001385）に合併し解散,2015-10-05,1,,,,,エイケンハナオカ,0
2083,7410002003168,登記記録の閉鎖等,0,2022-10-05,2022-10-03,有限会社福地永昌堂,,有限会社,秋田県,秋田市,大町５丁目４番５３号,,05,201,0100921,,,2022-10-03,清算の結了等,,,2015-10-05,1,,,,,フクチエイショウドウ,0
2093,7430002053681,登記記録の閉鎖等,0,2022-10-05,2022-09-26,有限会社サトープランニング,,有限会社,北海道,小樽市,桜５丁目２５番４号,,01,203,0470156,,,2022-09-26,清算の結了等,,,2015-10-05,1,,,,,サトープランニング,0
2104,7460102006792,登記記録の閉鎖等,0,2022-10-05,2022-09-30,有限会社おくむら,,有限会社,北海道,広尾郡広尾町,本通１３丁目７番地,,01,642,0892615,,,2022-09-30,清算の結了等,,,2015-10-05,1,,,,,オクムラ,0
2108,7470002014556,登記記録の閉鎖等,0,2022-10-05,2022-10-03,吉田建設有限会社,,有限会社,香川県,丸亀市,飯山町下法軍寺１６６８番地８,,37,202,7620083,,,2022-10-03,清算の結了等,,,2015-10-05,1,,,,,ヨシダケンセツ,0
2128,8010401026420,登記記録の閉鎖等,0,2022-10-05,2022-09-22,株式会社プレストコーポレーション,,株式会社,東京都,渋谷区,道玄坂１丁目１２番１号渋谷マークシティＷ２２階,,13,113,1500043,,,2022-09-22,清算の結了等,,,2015-10-05,1,,,,,プレストコーポレーション,0
2133,8010401143892,登記記録の閉鎖等,0,2022-10-05,2022-09-28,ウルフクレストファイナンス株式会社,,株式会社,東京都,港区,六本木６丁目１０番１号六本木ヒルズ森タワー３７階,,13,103,1060032,,,2022-09-28,清算の結了等,,,2019-02-20,1,,,,,ウルフクレストファイナンス,0
2146,8010601047539,登記記録の閉鎖等,0,2022-10-05,2022-09-28,ブレイブロード株式会社,,株式会社,東京都,江東区,新砂１丁目６－３５,,13,108,1360075,,,2022-09-28,清算の結了等,,,2015-10-05,1,,,,,,0
2178,8012401013563,登記記録の閉鎖等,0,2022-10-05,2022-10-03,株式会社高匠,,株式会社,東京都,武蔵野市,中町１丁目１３番８号高匠ビル,,13,203,1800006,,,2022-10-03,清算の結了等,,,2015-10-05,1,,,,,タカショウ,0
2189,8020001029054,登記記録の閉鎖等,0,2022-10-05,2022-09-27,株式会社ミナト山田屋,,株式会社,神奈川県,横浜市西区,戸部町５丁目１９８番地１－４０１号,,14,103,2200042,,,2022-09-27,清算の結了等,,,2015-10-05,1,,,,,ミナトヤマダヤ,0
2212,8030002047665,登記記録の閉鎖等,0,2022-10-05,2022-09-20,有限会社林製作所,,有限会社,埼玉県,八潮市,大字南川崎５７５番地,,11,234,3400814,,,2022-09-20,清算の結了等,,,2015-10-05,1,,,,,ハヤシセイサクショ,0
2224,8040002061764,登記記録の閉鎖等,0,2022-10-05,2022-09-26,有限会社らいすぼうい,,有限会社,千葉県,佐倉市,青菅２７２番地,,12,212,2850852,,,2022-09-26,清算の結了等,,,2015-10-05,1,,,,,ライスボウイ,0
2229,8040005013003,登記記録の閉鎖等,0,2022-10-05,2022-09-22,天理教龍羽分教会,,その他の設立登記法人,千葉県,香取市,高萩字上ノ台９３４番地,,12,236,2870101,,,2022-09-22,合併による解散等,8010505000420,令和４年９月７日東京都台東区入谷二丁目２５番９号天理教東龍分教会（8010505000420）に合併し解散,2015-10-05,1,,,,,,0
2230,8050001046245,登記記録の閉鎖等,0,2022-10-05,2022-09-28,株式会社令和貿易,,株式会社,茨城県,守谷市,けやき台５丁目１３番地１６,,08,224,3020128,,,2022-09-28,清算の結了等,,,2019-07-12,1,,,,,レイワボウエキ,0
2249,8100001005996,登記記録の閉鎖等,0,2022-10-05,2022-10-03,株式会社それいゆコーポレーション,,株式会社,長野県,長野市,三輪１丁目１６番１７号,,20,201,3800803,,,2022-10-03,清算の結了等,,,2015-10-05,1,,,,,ソレイユコーポレーション,0
2252,8100002019921,登記記録の閉鎖等,0,2022-10-05,2022-10-03,有限会社公和商会,,有限会社,長野県,松本市,大字島内２１９５番地,,20,202,3900851,,,2022-10-03,清算の結了等,,,2015-10-05,1,,,,,コウワショウカイ,0
2266,8120001231830,登記記録の閉鎖等,0,2022-10-05,2022-09-30,株式会社リスタート,,株式会社,大阪府,大阪市北区,兎我野町１１番１９－６０３号,,27,127,5300056,,,2022-09-30,清算の結了等,,,2020-09-16,1,,,,,リスタート,0
2289,8140002028167,登記記録の閉鎖等,0,2022-10-05,2022-09-30,有限会社明石検診所,,有限会社,兵庫県,明石市,藤江６５番地,,28,203,6730044,,,2022-09-30,清算の結了等,,,2015-10-05,1,,,,,アカシケンシンショ,0
2306,8180302010614,登記記録の閉鎖等,0,2022-10-05,2022-09-22,有限会社渡辺ビル,,有限会社,愛知県,豊橋市,花園町４８番地,,23,201,4400895,,,2022-09-22,清算の結了等,,,2015-10-05,1,,,,,ワタナベビル,0
2314,8200002011835,登記記録の閉鎖等,0,2022-10-05,2022-10-03,ガード自動車有限会社,,有限会社,岐阜県,羽島郡笠松町,米野字高瀬６２９番地１,,21,303,5016031,,,2022-10-03,清算の結了等,,,2015-10-05,1,,,,,ガードジドウシャ,0
2322,8230002013738,登記記録の閉鎖等,0,2022-10-05,2022-09-30,有限会社菅谷チップ工業,,有限会社,富山県,射水市,二の丸町１７番４号,,16,211,9340026,,,2022-09-30,清算の結了等,,,2015-10-05,1,,,,,スガタニチップコウギョウ,0
2332,8260001012449,登記記録の閉鎖等,0,2022-10-05,2022-10-04,浅口タクシー株式会社,,株式会社,岡山県,倉敷市,玉島１３６９番地の１,,33,202,7138102,,,2022-10-04,合併による解散等,9260001000972,令和４年１０月１日岡山市南区豊成一丁目１４番１２号岡山交通株式会社（9260001000972）に合併し解散,2015-10-05,1,,,,,アサクチタクシー,0
2352,8300003001206,登記記録の閉鎖等,0,2022-10-05,2022-09-29,合同会社Ｍ－ＦＬＯＷ,,合同会社,佐賀県,唐津市,鎮西町名護屋６０８番地,,41,202,8470401,,,2022-09-29,清算の結了等,,,2016-08-19,1,,,,,エムフロー,0
2354,8320002012763,登記記録の閉鎖等,0,2022-10-05,2022-10-03,有限会社吉田薬品,,有限会社,大分県,別府市,大字鶴見２４６０番地の１,,44,202,8740840,,,2022-10-03,清算の結了等,,,2015-10-05,1,,,,,,0
2360,8330005006654,登記記録の閉鎖等,0,2022-10-05,2022-09-30,農事組合法人めいとくファーム,,その他の設立登記法人,熊本県,熊本市北区,明徳町７０５番地１,,43,105,8615503,,,2022-09-30,清算の結了等,,,2015-10-05,1,,,,,メイトクファーム,0
2365,8350003003032,登記記録の閉鎖等,0,2022-10-05,2022-10-03,品質住宅合同会社,,合同会社,宮崎県,小林市,本町１３番地鶴丸ビル１０１,,45,205,8860008,,,2022-10-03,清算の結了等,,,2018-01-12,1,,,,,,0
2369,8370001022841,登記記録の閉鎖等,0,2022-10-05,2022-09-26,株式会社フォーネクスト,,株式会社,宮城県,仙台市青葉区,堤通雨宮町２番３号,,04,101,9810914,,,2022-09-26,合併による解散等,6370001008033,令和４年８月１日仙台市青葉区堤通雨宮町２番２６号コセキ株式会社（6370001008033）に合併し解散,2015-10-05,1,,,,,フォーネクスト,0
2384,8430001015616,登記記録の閉鎖等,0,2022-10-05,2022-09-27,株式会社北菱シティサービス,,株式会社,北海道,札幌市中央区,北二条西４丁目１番地,,01,101,0600002,,,2022-09-27,清算の結了等,,,2015-10-05,1,,,,,ホクリョウシティサービス,0
2414,9010001220406,登記記録の閉鎖等,0,2022-10-05,2022-09-29,日光ベンチャー株式会社,,株式会社,大阪府,大阪市中央区,瓦屋町２丁目３番２１号,,27,128,5420066,,,2022-09-29,清算の結了等,,,2021-08-18,1,,,,,ニッコウベンチャー,0
2424,9010005015455,登記記録の閉鎖等,0,2022-10-05,2022-09-30,特許業務法人山口国際特許事務所,,その他の設立登記法人,東京都,台東区,上野３丁目３番８号,,13,106,1100005,,,2022-09-30,清算の結了等,,,2015-10-05,1,,,,,ヤマグチコクサイトッキョジムショ,0
2435,9010601036540,登記記録の閉鎖等,0,2022-10-05,2022-09-28,トフトカ株式会社,,株式会社,東京都,江東区,亀戸２丁目３６番９－１００１号,,13,108,1360071,,,2022-09-28,清算の結了等,,,2015-10-05,1,,,,,トフトカ,0
2470,9012702009417,登記記録の閉鎖等,0,2022-10-05,2022-09-30,有限会社カット・ショップジュン,,有限会社,東京都,西東京市,保谷町５丁目３番１８号,,13,229,2020015,,,2022-09-30,清算の結了等,,,2015-10-05,1,,,,,カットショップジュン,0
2472,9013101007499,登記記録の閉鎖等,0,2022-10-05,2022-10-03,株式会社フジライフ,,株式会社,東京都,福生市,志茂２０７番地,,13,218,1970023,,,2022-10-03,合併による解散等,8013101008903,令和４年１０月１日東京都福生市志茂２０７番地株式会社フジライフ（8013101008903）に合併し解散,2017-01-04,1,,,,,フジライフ,0
2484,9021002064741,登記記録の閉鎖等,0,2022-10-05,2022-10-03,有限会社芝岡船舶整備工業所,,有限会社,神奈川県,横須賀市,長坂３丁目８番１３号,,14,201,2400101,,,2022-10-03,清算の結了等,,,2015-10-05,1,,,,,シバオカセンパクセイビコウギョウショ,0
2490,9030001124811,登記記録の閉鎖等,0,2022-10-05,2022-09-26,株式会社ケイ・エヌ企画,,株式会社,埼玉県,比企郡ときがわ町,大字玉川２６８番地３,,11,349,3550342,,,2022-09-26,清算の結了等,,,2018-03-23,1,,,,,ケイエヌキカク,0
2495,9030002042987,登記記録の閉鎖等,0,2022-10-05,2022-09-22,有限会社ミワ技研,,有限会社,埼玉県,戸田市,上戸田３丁目２１番７号,,11,224,3350022,,,2022-09-22,清算の結了等,,,2015-10-05,1,,,,,ミワギケン,0
2508,9050001009374,登記記録の閉鎖等,0,2022-10-05,2022-09-28,株式会社クリエイト,,株式会社,茨城県,土浦市,虫掛３３３８番地,,08,203,3000066,,,2022-09-28,清算の結了等,,,2015-10-05,1,,,,,クリエイト,0
2516,9080001001849,登記記録の閉鎖等,0,2022-10-05,2022-10-03,株式会社三和地所開発,,株式会社,静岡県,静岡市葵区,梅屋町４番地の８,,22,101,4200038,,,2022-10-03,合併による解散等,8080001003177,令和４年１０月１日静岡市葵区梅屋町４番地の８株式会社大和建材（8080001003177）に合併し解散,2015-10-05,1,,,,,サンワチショカイハツ,0
2527,9100002010227,登記記録の閉鎖等,0,2022-10-05,2022-10-03,有限会社山岸金物店,,有限会社,長野県,長野市,大字鶴賀南千歳町８８０番地,,20,201,3800822,,,2022-10-03,清算の結了等,,,2015-10-05,1,,,,,ヤマギシカナモノテン,0
2538,9120001237075,登記記録の閉鎖等,0,2022-10-05,2022-10-03,株式会社西日本ヘルスケア,,株式会社,東京都,千代田区,神田駿河台４丁目６番地,,13,101,1010062,,,2022-10-03,合併による解散等,3010001113664,令和４年１０月１日東京都千代田区神田駿河台四丁目６番地株式会社ニチイケアパレス（3010001113664）に合併し解散,2021-04-22,1,,,,,ニシニホンヘルスケア,0
2548,9120101046946,登記記録の閉鎖等,0,2022-10-05,2022-09-30,株式会社インフューズ,,株式会社,大阪府,岸和田市,上町３９番４号,,27,202,5960077,,,2022-09-30,清算の結了等,,,2015-10-05,1,,,,,インフューズ,0
2568,9150001006477,登記記録の閉鎖等,0,2022-10-05,2022-09-30,株式会社興亜製作所,,株式会社,奈良県,天理市,長柄町４４５番地,,29,204,6320062,,,2022-09-30,合併による解散等,6150001006488,令和４年９月３０日奈良県天理市長柄町４３５番地興亜商事株式会社（6150001006488）に合併し解散,2015-10-05,1,,,,,コウアセイサクショ,0
2574,9180001083522,登記記録の閉鎖等,0,2022-10-05,2022-09-30,株式会社羽島電機製作所,,株式会社,愛知県,一宮市,千秋町浮野字屋敷１７０番地の７,,23,203,4910806,,,2022-09-30,清算の結了等,,,2015-10-05,1,,,,,ハシマデンキセイサクショ,0
2586,9180005010753,登記記録の閉鎖等,0,2022-10-05,2022-09-21,豊禅寺,,その他の設立登記法人,愛知県,稲沢市,祖父江町二俣上瀬古７２番地,,23,220,4950013,,,2022-09-21,合併による解散等,4180005005683,令和４年９月２１日愛知県西春日井郡豊山町大字青山１７５６番地千松寺（4180005005683）に合併し解散,2015-10-05,1,,,,,ホウゼンジ,0
2589,9180301026008,登記記録の閉鎖等,0,2022-10-05,2022-09-26,株式会社インテルカンビオデルムンド,,株式会社,愛知県,岡崎市,羽根西１丁目８番地８,,23,202,4440838,,,2022-09-26,清算の結了等,,,2015-10-05,1,,,,,インテルカンビオデルムンド,0
2594,9190002002224,登記記録の閉鎖等,0,2022-10-05,2022-09-30,有限会社濱村製作所,,有限会社,三重県,津市,香良洲町字新開地６３４２番地,,24,201,5140315,,,2022-09-30,清算の結了等,,,2015-10-05,1,,,,,ハマムラセイサクショ,0
2595,9190002015259,登記記録の閉鎖等,0,2022-10-05,2022-09-28,有限会社のんきほうて,,有限会社,三重県,松阪市,垣鼻町１６３８番地２１,,24,204,5150033,,,2022-09-28,清算の結了等,,,2015-10-05,1,,,,,ノンキホウテ,0
2599,9200001027179,登記記録の閉鎖等,0,2022-10-05,2022-10-03,株式会社住タス,,株式会社,岐阜県,岐阜市,茜部本郷１丁目６３番地３,,21,201,5008262,,,2022-10-03,合併による解散等,9200001001638,令和４年１０月１日岐阜市茜部本郷一丁目６３番地の３株式会社希望社（9200001001638）に合併し解散,2015-10-05,1,,,,,ジュウタス,0
2616,9240005010185,登記記録の閉鎖等,0,2022-10-05,2022-09-30,広島地区タクシー事業協同組合,,その他の設立登記法人,広島県,広島市安芸区,船越南３丁目６番５号,,34,107,7360082,,,2022-09-30,清算の結了等,,,2015-10-05,1,,,,,ヒロシマチクタクシー,0
2623,9280001008295,登記記録の閉鎖等,0,2022-10-05,2022-09-05,株式会社Ｒ’ｓ　Ｆｉｅｌｄ,,株式会社,島根県,雲南市,大東町大東２４０６番地７,,32,209,6991251,,,2022-09-05,清算の結了等,,,2020-11-09,1,,,,,アールズフィールド,0
2660,9350002007842,登記記録の閉鎖等,0,2022-10-05,2022-10-03,有限会社朝國工房Ｎ．Ａ．Ｃデザイン,,有限会社,宮崎県,宮崎市,阿波岐原町前浜４２７６番地１９１,,45,201,8800835,,,2022-10-03,清算の結了等,,,2015-10-05,1,,,,,アサクニコウボウナックデザイン,0
2661,9360001010409,登記記録の閉鎖等,0,2022-10-05,2022-09-27,ひよし株式会社,,株式会社,沖縄県,宜野湾市,上原２丁目１０番９号,,47,205,9012204,,,2022-09-27,清算の結了等,,,2015-10-05,1,,,,,ヒヨシ,0
2672,9400002001006,登記記録の閉鎖等,0,2022-10-05,2022-09-30,有限会社協和自動車工業,,有限会社,岩手県,盛岡市,茶畑１丁目１２番１７号,,03,201,0200822,,,2022-09-30,清算の結了等,,,2015-10-05,1,,,,,キョウワジドウシャコウギョウ,0
2674,9400002011896,登記記録の閉鎖等,0,2022-10-05,2022-10-03,ワイエー商事有限会社,,有限会社,岩手県,釜石市,只越町１丁目１番４号,,03,211,0260021,,,2022-10-03,清算の結了等,,,2015-10-05,1,,,,,,0
2676,9410001002152,登記記録の閉鎖等,0,2022-10-05,2022-10-03,カトレア株式会社,,株式会社,秋田県,秋田市,山王沼田町２番１号,,05,201,0100954,,,2022-10-03,清算の結了等,,,2015-10-05,1,,,,,カトレア,0
2678,9420002006589,登記記録の閉鎖等,0,2022-10-05,2022-09-30,有限会社加藤整備工場,,有限会社,青森県,八戸市,西白山台１丁目５番２７号,,02,203,0391113,,,2022-09-30,清算の結了等,,,2015-10-05,1,,,,,カトウセイビコウジョウ,0
2684,9430002061204,登記記録の閉鎖等,0,2022-10-05,2022-09-26,有限会社福寿,,有限会社,北海道,苫小牧市,沼ノ端中央４丁目１２番７号,,01,213,0591305,,,2022-09-26,清算の結了等,,,2015-10-05,1,,,,,フクジュ,0
2686,9430003004954,登記記録の閉鎖等,0,2022-10-05,2022-09-22,合同会社ルーエ,,合同会社,北海道,札幌市清田区,清田七条１丁目１０番２０号,,01,110,0040847,,,2022-09-22,清算の結了等,,,2015-10-05,1,,,,,ルーエ,0
2704,9480001006626,登記記録の閉鎖等,0,2022-10-05,2022-10-03,カタタ薬品工業株式会社,,株式会社,徳島県,阿南市,下大野町小野９５番地の１,,36,204,7740047,,,2022-10-03,清算の結了等,,,2015-10-05,1,,,,,カタタヤクヒンコウギョウ,0
2707,9500001005451,登記記録の閉鎖等,0,2022-10-05,2022-10-03,株式会社松山スタッフサービス,,株式会社,愛媛県,松山市,道後一万７－６,,38,201,7900844,,,2022-10-03,合併による解散等,6500001000629,令和４年１０月１日愛媛県松山市余戸南一丁目２０番３３号株式会社ウエストコンサルタント（6500001000629）に合併し解散,2015-10-05,1,,,,,マツヤマスタッフサービス,0
