sequenceNumber,corporateNumber,process,correct,updateDate,changeDate,name,nameImageId,kind,prefectureName,cityName,streetNumber,addressImageId,prefectureCode,cityCode,postCode,addressOutside,addressOutsideImageId,closeDate,closeCause,successorCorporateNumber,changeCause,assignmentDate,latest,enName,enPrefectureName,enCityName,enAddressOutside,furigana,hihyoji
11,1010001228803,新規,0,2022-08-17,2022-08-17,シャイノール株式会社,,株式会社,東京都,中央区,銀座１丁目２２番１１号銀座大竹ビジデンス２階,,13,102,1040061,,,,,,,2022-08-17,1,,,,,シャイノール,0
12,1010001228836,新規,0,2022-08-17,2022-08-17,株式会社メディックスアーム,,株式会社,東京都,千代田区,神田淡路町１丁目１番１号,,13,101,1010063,,,,,,,2022-08-17,1,,,,,メディックスアーム,0
14,1010005035411,新規,0,2022-08-17,2022-08-17,弁理士法人鍛冶橋通りＩＰ　Ｆｉｒｍ,,その他の設立登記法人,東京都,中央区,京橋３丁目１０番１号ＮＥＷＳ京橋６階,,13,102,1040031,,,,,,,2022-08-17,1,,,,,カジバシドオリアイピーファーム,0
21,1010401169011,新規,0,2022-08-17,2022-08-17,株式会社ＶＲ　Ｈｅａｌｔｈｃａｒｅ,,株式会社,東京都,港区,芝２丁目１７番１１号１２０２,,13,103,1050014,,,,,,,2022-08-17,1,,,,,ブイアールヘルスケア,0
22,1010401169151,新規,0,2022-08-17,2022-08-17,株式会社Ｔｈｅ　Ｂｒｉｄｇｅ　Ｇｒｏｕｐ,,株式会社,東京都,港区,北青山３丁目４番３－１１０１号,,13,103,1070061,,,,,,,2022-08-17,1,,,,,ザブリッジグループ,0
31,1010605004113,新規,0,2022-08-17,2022-08-17,一般社団法人ペットと共に生きる共済会,,その他の設立登記法人,東京都,江東区,大島４丁目１２番６－３０１号,,13,108,1360072,,,,,,,2022-08-17,1,,,,,ペットトトモニイキルキョウサイカイ,0
42,1010901051453,新規,0,2022-08-17,2022-08-17,株式会社ＳｏＷｈａｔ,,株式会社,東京都,世田谷区,太子堂５丁目１７番１５号ルネサンスコート三軒茶屋茶沢通り２０２,,13,112,1540004,,,,,,,2022-08-17,1,,,,,ソーワット,0
43,1010903007585,新規,0,2022-08-17,2022-08-17,ｋｏｍｏｒｉｅｉｔｏ合同会社,,合同会社,東京都,世田谷区,松原３丁目２３－２８－１０６,,13,112,1560043,,,,,,,2022-08-17,1,,,,,コモリエイト,0
45,1011001149163,新規,0,2022-08-17,2022-08-17,株式会社ＷｉｔｈＵＳ,,株式会社,東京都,目黒区,青葉台３丁目２２－１,,13,110,1530042,,,,,,,2022-08-17,1,,,,,ウィズアス,0
47,1011003015215,新規,0,2022-08-17,2022-08-17,トッピーバードサプライズ合同会社,,合同会社,東京都,渋谷区,初台１丁目５１番１号初台センタービル６０１号室,,13,113,1510061,,,,,,,2022-08-17,1,,,,,トッピーバードサプライズ,0
48,1011005009685,新規,0,2022-08-17,2022-08-17,一般社団法人Ｆｅｍｔｅｃｈ　Ｃｏｍｍｕｎｉｔｙ　Ｊａｐａｎ,,その他の設立登記法人,東京都,渋谷区,渋谷２丁目１９番１５号宮益坂ビルディング６０９,,13,113,1500002,,,,,,,2022-08-17,1,,,,,フェムテックコミュニティジャパン,0
53,1011101099878,新規,0,2022-08-17,2022-08-17,Ｅａｔ　Ｓｍｉｌｅ　Ｃｏｍｐａｎｙ株式会社,,株式会社,東京都,新宿区,四谷３丁目１１番地４,,13,104,1600004,,,,,,,2022-08-17,1,,,,,イートスマイルカンパニー,0
58,1011403003752,新規,0,2022-08-17,2022-08-17,合同会社ＴＤＮホールディングス,,合同会社,東京都,板橋区,小茂根３丁目４番１７号,,13,119,1730037,,,,,,,2022-08-17,1,,,,,ティーディーエヌホールディングス,0
73,1011801041156,新規,0,2022-08-17,2022-08-17,向陽株式会社,,株式会社,東京都,葛飾区,細田３丁目９番１５－６０３号,,13,122,1240021,,,,,,,2022-08-17,1,,,,,コウヨウ,0
87,1020001147812,新規,0,2022-08-17,2022-08-17,ｓｏｌホールディングス株式会社,,株式会社,神奈川県,川崎市高津区,下作延４丁目２８番２９号メイプルガーデン溝の口３０１,,14,134,2130033,,,,,,,2022-08-17,1,,,,,ソルホールディングス,0
92,1020005015627,新規,0,2022-08-17,2022-08-17,特定非営利活動法人悠渚,,その他の設立登記法人,神奈川県,横浜市金沢区,高舟台２丁目３９番１５号第二久栄荘１０１,,14,108,2360044,,,,,,,2022-08-17,1,,,,,ユウナギ,0
94,1021001076794,新規,0,2022-08-17,2022-08-17,株式会社ＦＲＧ‐Ｒ,,株式会社,神奈川県,相模原市中央区,東淵野辺２丁目１０番２号,,14,152,2520203,,,,,,,2022-08-17,1,,,,,エフアールジーアール,0
110,1040001124660,新規,0,2022-08-17,2022-08-17,ペン輝株式会社,,株式会社,千葉県,鎌ケ谷市,丸山１丁目１８番４５号,,12,224,2730103,,,,,,,2022-08-17,1,,,,,ペンキ,0
111,1040001124693,新規,0,2022-08-17,2022-08-17,株式会社Ｓｈｉｐ　Ｍａｓｔｅｒ,,株式会社,千葉県,成田市,本城２５８番地,,12,211,2860114,,,,,,,2022-08-17,1,,,,,シップマスター,0
112,1040001124702,新規,0,2022-08-17,2022-08-17,株式会社ＩｌｕｍｉｎａｒＥｒａ,,株式会社,千葉県,流山市,西初石５丁目２３番地の５カスティージョＡ－２０２,,12,220,2700121,,,,,,,2022-08-17,1,,,,,イルミナルエラ,0
116,1040003020643,新規,0,2022-08-17,2022-08-17,Ｍ．Ｍ．ＭＯＴＯＲＳ合同会社,,合同会社,千葉県,船橋市,古和釜町４０７番地１,,12,204,2740061,,,,,,,2022-08-17,1,,,,,エムエムモータース,0
122,1050003006773,新規,0,2022-08-17,2022-08-17,合同会社Ｐｏｔｏｍａｃ,,合同会社,茨城県,つくば市,千現１丁目１８番地１８コンフォール千現Ｂ棟１０１号,,08,220,3050047,,,,,,,2022-08-17,1,,,,,ポトマック,0
123,1050003006781,新規,0,2022-08-17,2022-08-17,合同会社ＤｅｖｅＰａｎ,,合同会社,茨城県,つくば市,苅間１４４８－４グリーンコートＢ１０３,,08,220,3050822,,,,,,,2022-08-17,1,,,,,デベパン,0
133,1080001025137,新規,0,2022-08-17,2022-08-17,ＳＥＮＡ　ＣＨＥＭＩＣＡＬ株式会社,,株式会社,静岡県,牧之原市,細江１３３３番地１,,22,226,4210421,,,,,,,2022-08-17,1,,,,,セナケミカル,0
140,1100005012905,新規,0,2022-08-17,2022-08-17,一般社団法人ＲａｉｎｂｏＷ　Ｗａｌｋｉｎｇ,,その他の設立登記法人,長野県,佐久市,新子田１９３４番地,,20,217,3850007,,,,,,,2022-08-17,1,,,,,レインボーウォーキング,0
152,1120001248179,新規,0,2022-08-17,2022-08-17,株式会社ＮＥＸＴ　ＩＮＮＯＶＡＴＩＯＮ,,株式会社,大阪府,枚方市,香里ケ丘８丁目２２番地の１７,,27,210,5730084,,,,,,,2022-08-17,1,,,,,ネクストイノベーション,0
153,1120001248187,新規,0,2022-08-17,2022-08-17,株式会社Ｙｏｒｏｚｕｙａ,,株式会社,大阪府,大阪市中央区,内平野町２丁目２－７大阪文化会館４０３,,27,128,5400037,,,,,,,2022-08-17,1,,,,,ヨロズヤ,0
154,1120001248204,新規,0,2022-08-17,2022-08-17,株式会社ツリートランク,,株式会社,大阪府,大阪市鶴見区,浜５丁目南１－２４－３０５,,27,124,5380035,,,,,,,2022-08-17,1,,,,,ツリートランク,0
155,1120001248212,新規,0,2022-08-17,2022-08-17,ＬＯＧＩＳ　ＩＮＮＯＶＡＴＩＯＮ　ＪＡＰＡＮ株式会社,,株式会社,大阪府,大阪市西成区,天下茶屋１丁目４番１８号ＳＵＮ生一番館２０１号室,,27,122,5570014,,,,,,,2022-08-17,1,,,,,ロジスイノベーションジャパン,0
161,1120101066101,新規,0,2022-08-17,2022-08-17,清英機電工業株式会社,,株式会社,大阪府,堺市美原区,南余部３８２番地２,,27,147,5870052,,,,,,,2022-08-17,1,,,,,セイエイキデンコウギョウ,0
173,1130001072462,新規,0,2022-08-17,2022-08-17,株式会社グリーンハウス,,株式会社,京都府,京都市中京区,高倉通錦小路上る貝屋町５６５番地１四条高倉スカイハイツ３１２,,26,104,6048126,,,,,,,2022-08-17,1,,,,,グリーンハウス,0
177,1130003008134,新規,0,2022-08-17,2022-08-17,合同会社エスクルーグループ,,合同会社,京都府,京都市伏見区,深草西伊達町８７－９２,,26,109,6120876,,,,,,,2022-08-17,1,,,,,エスクルーグループ,0
185,1140001127075,新規,0,2022-08-17,2022-08-17,株式会社ＳＥＬＦ　ＤＥＳＩＧＮ,,株式会社,兵庫県,尼崎市,水堂町３丁目１番２１号,,28,202,6610026,,,,,,,2022-08-17,1,,,,,セルフデザイン,0
186,1140001127125,新規,0,2022-08-17,2022-08-17,株式会社未来アンテナ,,株式会社,兵庫県,西宮市,甲子園口北町１９－１６パインレーン２Ｆ,,28,204,6638112,,,,,,,2022-08-17,1,,,,,ミライアンテナ,0
191,1180001152656,新規,0,2022-08-17,2022-08-17,株式会社ベストキャリア・ストラテジー,,株式会社,愛知県,名古屋市中区,新栄２丁目２番１号イノフィス４階,,23,106,4600007,,,,,,,2022-08-17,1,,,,,ベストキャリアストラテジー,0
192,1180001152680,新規,0,2022-08-17,2022-08-17,株式会社ＳＯＧＡＤＥＮ,,株式会社,愛知県,名古屋市守山区,向台３丁目２１１０番地,,23,113,4630036,,,,,,,2022-08-17,1,,,,,ソガデン,0
202,1180005019892,新規,0,2022-08-17,2022-08-17,一般社団法人リメイクデザイナー協会,,その他の設立登記法人,愛知県,一宮市,南小渕字屋敷１２９番地,,23,203,4910014,,,,,,,2022-08-17,1,,,,,リメイクデザイナーキョウカイ,0
214,1290001098640,新規,0,2022-08-17,2022-08-17,株式会社ｓｔｒａｉｇｈｔ,,株式会社,福岡県,福岡市中央区,天神４丁目６－２８天神ファーストビル７階,,40,133,8100001,,,,,,,2022-08-17,1,,,,,ストレート,0
221,1290005018776,新規,0,2022-08-17,2022-08-17,一般社団法人Ａｚｕｒｅ　ｓｋｙ,,その他の設立登記法人,福岡県,福岡市中央区,笹丘１丁目２０番１号フリーデンス笹丘１０４号,,40,133,8100034,,,,,,,2022-08-17,1,,,,,アズールスカイ,0
222,1300001013036,新規,0,2022-08-17,2022-08-17,株式会社ＮＪ企画,,株式会社,佐賀県,佐賀市,兵庫北６丁目１番１０号,,41,201,8490919,,,,,,,2022-08-17,1,,,,,エヌジェイキカク,0
228,1330001030020,新規,0,2022-08-17,2022-08-17,株式会社トワメーム,,株式会社,熊本県,山鹿市,中７７５番地１２,,43,208,8610531,,,,,,,2022-08-17,1,,,,,トワメーム,0
233,1350001017908,新規,0,2022-08-17,2022-08-17,株式会社ｋｏｂｕｎｅ,,株式会社,宮崎県,宮崎市,南高松町１番３０号ディアス三井２０２号,,45,201,8800005,,,,,,,2022-08-17,1,,,,,コブネ,0
235,1360001030835,新規,0,2022-08-17,2022-08-17,ＤＹＬ株式会社,,株式会社,沖縄県,沖縄市,比屋根１丁目１２番２７号、１０５号室,,47,211,9042173,,,,,,,2022-08-17,1,,,,,ディーワイエル,0
237,1360003012237,新規,0,2022-08-17,2022-08-17,合同会社ＢＯＵＳＨ,,合同会社,沖縄県,沖縄市,明道１丁目２４番７号,,47,211,9042152,,,,,,,2022-08-17,1,,,,,ボウシュ,0
245,1430001087315,新規,0,2022-08-17,2022-08-17,Ｇｒｏｏｎｙ情報サービス株式会社,,株式会社,北海道,札幌市中央区,北二条東３丁目２番地２マルタビル札幌８階,,01,101,0600032,,,,,,,2022-08-17,1,,,,,グルーニージョウホウサービス,0
246,1430001087348,新規,0,2022-08-17,2022-08-17,株式会社リアラ,,株式会社,北海道,札幌市厚別区,厚別東三条６丁目４番８号,,01,108,0040003,,,,,,,2022-08-17,1,,,,,リアラ,0
248,1430003014192,新規,0,2022-08-17,2022-08-17,合同会社ビス,,合同会社,北海道,雨竜郡雨竜町,字尾白利加９１番地２８,,01,436,0782600,,,,,,,2022-08-17,1,,,,,ビス,0
254,1700150111293,新規,0,2022-08-17,2022-08-17,ＷＯＲＬＤ　ＣＬＡＳＳ　ＥＦＦＥＣＴＳ　ＰＲＩＶＡＴＥ　ＬＩＭＩＴＥＤ,,外国会社等,神奈川県,厚木市,関口１０１３番地１コーポ一心２号棟２０３号室,,14,212,2430804,スリランカ民主社会主義共和国西部州コロンボ県コロンボ０９市マワサ、スリ・ヴァジラグナナ１３８／２５Ａ,,,,,,2022-08-17,1,,,,,ワールドクラスイフエクツプライベートリミテツド,0
264,2010001228802,新規,0,2022-08-17,2022-08-17,野村リアルアセット・インベストメント株式会社,,株式会社,東京都,千代田区,大手町２丁目２番２号アーバンネット大手町ビル,,13,101,1000004,,,,,,,2022-08-17,1,,,,,ノムラリアルアセットインベストメント,0
265,2010001228843,新規,0,2022-08-17,2022-08-17,株式会社ルチエ,,株式会社,東京都,中央区,勝どき６丁目３番１－３７２２号,,13,102,1040054,,,,,,,2022-08-17,1,,,,,ルチエ,0
266,2010001228851,新規,0,2022-08-17,2022-08-17,ＴＢＪホールディングス株式会社,,株式会社,東京都,千代田区,丸の内２丁目１番１号,,13,101,1000005,,,,,,,2022-08-17,1,,,,,ティービージェイホールディングス,0
267,2010001228884,新規,0,2022-08-17,2022-08-17,株式会社五十嵐商店,,株式会社,東京都,中央区,新富２丁目１０－７ＭＭガーデン１００３,,13,102,1040041,,,,,,,2022-08-17,1,,,,,イガラシショウテン,0
268,2010003038407,新規,0,2022-08-17,2022-08-17,白浜ＭＬ合同会社,,合同会社,東京都,千代田区,丸の内３丁目１番１号東京共同会計事務所内,,13,101,1000005,,,,,,,2022-08-17,1,,,,,シラハマエムエル,0
269,2010003038415,新規,0,2022-08-17,2022-08-17,Ｇ‐ＵＰ合同会社,,合同会社,東京都,中央区,日本橋富沢町７番１８－９０５号,,13,102,1030006,,,,,,,2022-08-17,1,,,,,ジーアップ,0
277,2010401169051,新規,0,2022-08-17,2022-08-17,株式会社セキュリティサンキュー,,株式会社,東京都,港区,浜松町２丁目２番１５号浜松町ダイヤビル２Ｆ,,13,103,1050013,,,,,,,2022-08-17,1,,,,,セキュリティサンキュー,0
278,2010401169068,新規,0,2022-08-17,2022-08-17,株式会社Ｂｅｙｏｎｄ　Ｓｑｕａｒｅ　Ｓｏｌｕｔｉｏｎｓ,,株式会社,東京都,港区,赤坂４丁目８番１９号赤坂フロントタウン３階,,13,103,1070052,,,,,,,2022-08-17,1,,,,,ビヨンドスクエアソリューションズ,0
279,2010401169118,新規,0,2022-08-17,2022-08-17,株式会社モリアゲ,,株式会社,東京都,港区,芝５丁目３６番４号札の辻スクエア９階,,13,103,1080014,,,,,,,2022-08-17,1,,,,,モリアゲ,0
280,2010401169159,新規,0,2022-08-17,2022-08-17,株式会社スイーミークローゼット,,株式会社,東京都,港区,東新橋１丁目６番３号２４Ｆ,,13,103,1050021,,,,,,,2022-08-17,1,,,,,スイーミークローゼット,0
283,2010501049244,新規,0,2022-08-17,2022-08-17,株式会社リンクス,,株式会社,東京都,台東区,上野１丁目１１番９号イマスサニービル５階,,13,106,1100005,,,,,,,2022-08-17,1,,,,,リンクス,0
291,2010805002964,新規,0,2022-08-17,2022-08-17,一般社団法人Ｍｙｃｉｎ,,その他の設立登記法人,東京都,大田区,大森西３丁目１番３８号マチノマ大森３階,,13,111,1430015,,,,,,,2022-08-17,1,,,,,マイシン,0
293,2010901051436,新規,0,2022-08-17,2022-08-17,株式会社ＢＬＩＮＫ,,株式会社,東京都,世田谷区,代沢１丁目２２番６号コーパスクリスティ代沢１０３号,,13,112,1550032,,,,,,,2022-08-17,1,,,,,ブリンク,0
294,2010903007584,新規,0,2022-08-17,2022-08-17,合同会社ＶＥＲＳＡＴＲ,,合同会社,東京都,世田谷区,北沢３丁目２番１１号,,13,112,1550031,,,,,,,2022-08-17,1,,,,,ヴァーサトル,0
298,2011001149195,新規,0,2022-08-17,2022-08-17,株式会社ルークユニバース,,株式会社,東京都,渋谷区,神宮前６丁目２３ー４桑野ビル２階,,13,113,1500001,,,,,,,2022-08-17,1,,,,,ルークユニバース,0
299,2011001149245,新規,0,2022-08-17,2022-08-17,マス株式会社,,株式会社,東京都,目黒区,大橋１丁目５番１－２７０１号,,13,110,1530044,,,,,,,2022-08-17,1,,,,,マス,0
300,2011001149253,新規,0,2022-08-17,2022-08-17,株式会社Ｗｅｌｌ　ｕｐ,,株式会社,東京都,渋谷区,神宮前３丁目８番２４号１７５番館別館３０１,,13,113,1500001,,,,,,,2022-08-17,1,,,,,ウェルアップ,0
302,2011005009684,新規,0,2022-08-17,2022-08-17,一般社団法人ＥＴＮＡ,,その他の設立登記法人,東京都,渋谷区,神宮前６丁目３番３５－６１０号,,13,113,1500001,,,,,,,2022-08-17,1,,,,,エトナ,0
309,2011403003751,新規,0,2022-08-17,2022-08-17,合同会社万和,,合同会社,東京都,板橋区,前野町６丁目２６番７号ヴィラサンベルナールときわ台２０１号室,,13,119,1740063,,,,,,,2022-08-17,1,,,,,バンナ,0
314,2011701025539,新規,0,2022-08-17,2022-08-17,株式会社Ｋａｎｖａｓ,,株式会社,東京都,江戸川区,中葛西３丁目２３－１８ＬＥ・ＢＬＡＮＣ５００,,13,123,1340083,,,,,,,2022-08-17,1,,,,,カンバス,0
319,2011803005224,新規,0,2022-08-17,2022-08-17,福寿合同会社,,合同会社,東京都,足立区,南花畑４丁目８番３号,,13,121,1210062,,,,,,,2022-08-17,1,,,,,フクジュ,0
320,2012703002518,新規,0,2022-08-17,2022-08-17,デグー不動産合同会社,,合同会社,東京都,東村山市,富士見町３丁目１０－２,,13,213,1890024,,,,,,,2022-08-17,1,,,,,デグーフドウサン,0
342,2030001149682,新規,0,2022-08-17,2022-08-17,株式会社善輝,,株式会社,埼玉県,三郷市,彦成１丁目３０９番地３,,11,237,3410003,,,,,,,2022-08-17,1,,,,,ゼンキ,0
343,2030001149699,新規,0,2022-08-17,2022-08-17,株式会社あけぼの陸運,,株式会社,埼玉県,幸手市,大字天神島４７３番地９,,11,240,3400152,,,,,,,2022-08-17,1,,,,,アケボノリクウン,0
347,2030003019999,新規,0,2022-08-17,2022-08-17,合同会社Ｍｅｉｋｉｃｋ’ａ,,合同会社,埼玉県,さいたま市中央区,上落合５丁目１５番８号シスＤ,,11,105,3380001,,,,,,,2022-08-17,1,,,,,メイキッカ,0
356,2040001124528,新規,0,2022-08-17,2022-08-17,株式会社杉浦企画,,株式会社,千葉県,松戸市,東平賀２４０番地,,12,207,2700003,,,,,,,2022-08-17,1,,,,,スギウラキカク,0
358,2040003020642,新規,0,2022-08-17,2022-08-17,ＭＥＩＪＩ　ＡＵＴＯ合同会社,,合同会社,千葉県,八街市,朝日２２６番地２２コーポ朝日ＩＩ１０３,00127545,12,230,2891101,,,,,,,2022-08-17,1,,,,,メイジオート,0
361,2050003006780,新規,0,2022-08-17,2022-08-17,合同会社Ｔ．Ｎ．Ｓ　ＬＡＮＫＡ,,合同会社,茨城県,水戸市,元石川町８９６番地,,08,201,3100843,,,,,,,2022-08-17,1,,,,,ティーエヌエスランカ,0
363,2060001035186,新規,0,2022-08-17,2022-08-17,Ｌｉｎｏ　Ｐｏｎｏ株式会社,,株式会社,栃木県,宇都宮市,ゆいの杜７丁目２８番１５号,,09,201,3213226,,,,,,,2022-08-17,1,,,,,リノポノ,0
380,2120001248203,新規,0,2022-08-17,2022-08-17,株式会社ＫＡＯＲＵ,,株式会社,大阪府,大阪市福島区,福島６丁目２０番２号,,27,103,5530003,,,,,,,2022-08-17,1,,,,,カオル,0
381,2120001248244,新規,0,2022-08-17,2022-08-17,Ａｌｐｈａ　Ｊａｐａｎ株式会社,,株式会社,大阪府,大阪市西区,阿波座１丁目１４－１５三和ビル阿波座３６号,,27,106,5500011,,,,,,,2022-08-17,1,,,,,アルファジャパン,0
382,2120001248252,新規,0,2022-08-17,2022-08-17,株式会社ＭＲＡ,,株式会社,大阪府,大阪市北区,梅田１丁目１１番４号大阪駅前第４ビル９階９２３－１６４１号,,27,127,5300001,,,,,,,2022-08-17,1,,,,,エムアールエー,0
384,2120003022267,新規,0,2022-08-17,2022-08-17,合同会社悠,,合同会社,大阪府,大阪市旭区,中宮５丁目２番２６号中宮ビル２階,,27,117,5350003,,,,,,,2022-08-17,1,,,,,ユウ,0
385,2120003022283,新規,0,2022-08-17,2022-08-17,合同会社Ｈｏｒｕｓ,,合同会社,大阪府,大阪市天王寺区,小橋町１２番２－３１４号,,27,109,5430028,,,,,,,2022-08-17,1,,,,,ホルス,0
400,2130001072412,新規,0,2022-08-17,2022-08-17,株式会社ＴＥＲＡファーム,,株式会社,京都府,亀岡市,曽我部町寺広畑１２番地,,26,206,6210023,,,,,,,2022-08-17,1,,,,,テラファーム,0
401,2130001072437,新規,0,2022-08-17,2022-08-17,株式会社栞,,株式会社,京都府,城陽市,寺田垣内後５８番地の１,,26,207,6100121,,,,,,,2022-08-17,1,,,,,シオリ,0
404,2130003008133,新規,0,2022-08-17,2022-08-17,合同会社ＸＥＮＯ　ＰＲＯＪＥＣＴ,,合同会社,京都府,京都市伏見区,深草西伊達町８７－９２,,26,109,6120876,,,,,,,2022-08-17,1,,,,,ゼノプロジェクト,0
408,2140001127124,新規,0,2022-08-17,2022-08-17,卉島株式会社,00127548,株式会社,兵庫県,神戸市中央区,海岸通２丁目２番３号サンエービル西館６０５,,28,110,6500024,,,,,,,2022-08-17,1,,,,,キシマ,0
411,2150003002753,新規,0,2022-08-17,2022-08-17,Ａｇａｖｅ　Ｊａｐａｎ合同会社,,合同会社,奈良県,磯城郡田原本町,大字唐古５２８－１,,29,363,6360226,,,,,,,2022-08-17,1,,,,,アガヴェジャパン,0
417,2180001152572,新規,0,2022-08-17,2022-08-17,株式会社アールサポート,,株式会社,愛知県,名古屋市東区,東桜２丁目１３番９号,,23,102,4610005,,,,,,,2022-08-17,1,,,,,アールサポート,0
418,2180001152589,新規,0,2022-08-17,2022-08-17,アイリー建物土地株式会社,,株式会社,愛知県,名古屋市東区,橦木町３丁目５４番地,,23,102,4610014,,,,,,,2022-08-17,1,,,,,アイリータテモノトチ,0
420,2180003024167,新規,0,2022-08-17,2022-08-17,ＢＢＱＩＮＪＡＰＡＮ合同会社,,合同会社,愛知県,豊明市,二村台３丁目１－１第５４号棟１０５号室,,23,229,4701131,,,,,,,2022-08-17,1,,,,,ビビキュウインジャパン,0
421,2180005019891,新規,0,2022-08-17,2022-08-17,一般社団法人Ｂｅ　Ａｍｂｉｔｉｏｕｓ,,その他の設立登記法人,愛知県,名古屋市東区,泉１丁目１１番６号ミソカビル２Ｆ,,23,102,4610001,,,,,,,2022-08-17,1,,,,,ビーアンビシャス,0
434,2280001008764,新規,0,2022-08-17,2022-08-17,株式会社アイリス,,株式会社,島根県,松江市,西津田１０丁目１７番１２号,,32,201,6900017,,,,,,,2022-08-17,1,,,,,,0
439,2290003012854,新規,0,2022-08-17,2022-08-17,しん合同会社,,合同会社,福岡県,福岡市東区,土井４丁目２９番１号今井アパート１階,,40,131,8130032,,,,,,,2022-08-17,1,,,,,シン,0
440,2290005018775,新規,0,2022-08-17,2022-08-17,一般社団法人あんしん相続窓口,,その他の設立登記法人,福岡県,福岡市中央区,天神１丁目１０番２０号天神ビジネスセンター９階,,40,133,8100001,,,,,,,2022-08-17,1,,,,,アンシンソウゾクマドグチ,0
443,2320001019278,新規,0,2022-08-17,2022-08-17,株式会社アプローズ,,株式会社,大分県,大分市,城崎町２丁目２番２９－６０７号アルバクレスタ城崎,,44,201,8700045,,,,,,,2022-08-17,1,,,,,アプローズ,0
459,2430001087297,新規,0,2022-08-17,2022-08-17,株式会社ＲＩＡＭ,,株式会社,北海道,札幌市中央区,北一条西２１丁目２番１－９０８号,,01,101,0640821,,,,,,,2022-08-17,1,,,,,リアム,0
460,2430001087314,新規,0,2022-08-17,2022-08-17,株式会社シマダ,,株式会社,北海道,札幌市白石区,本通３丁目南２番８号,,01,104,0030026,,,,,,,2022-08-17,1,,,,,シマダ,0
463,2430003014191,新規,0,2022-08-17,2022-08-17,合同会社ハーフネイチャー,,合同会社,北海道,札幌市東区,北三十三条東１５丁目２番６号フォーシーズン２－２Ｇ号,,01,103,0650033,,,,,,,2022-08-17,1,,,,,ハーフネイチャー,0
475,2700150111012,新規,0,2022-08-17,2022-08-04,日本キリスト改革派　長丘教会,,その他,福岡県,福岡市南区,長丘１丁目１５－５,,40,134,8150075,,,,,,,2022-08-04,1,,,,,ニホンキリストカイカクハナガオカキヨウカイ,0
484,3010001228504,新規,0,2022-08-17,2022-08-17,株式会社Ｔｅｃｈ０,,株式会社,東京都,中央区,銀座１丁目１２番４号Ｎ＆ＥＢＬＤ．６Ｆ,,13,102,1040061,,,,,,,2022-08-17,1,,,,,,0
485,3010001228842,新規,0,2022-08-17,2022-08-17,Ｂｅ　Ｂｉｏ株式会社,,株式会社,東京都,中央区,佃３丁目６－５－５０９,,13,102,1040051,,,,,,,2022-08-17,1,,,,,ビーバイオ,0
486,3010001228850,新規,0,2022-08-17,2022-08-17,ＩＮＡＭＩ　Ｓｐａｃｅ　Ｌａｂｏｒａｔｏｒｙ株式会社,,株式会社,東京都,中央区,銀座１丁目１２番４号Ｎ＆Ｅ・ＢＬＤ．６Ｆ,,13,102,1040061,,,,,,,2022-08-17,1,,,,,イナミスペースラボラトリー,0
490,3010003038389,新規,0,2022-08-17,2022-08-17,ディーディーインベストメント合同会社,,合同会社,東京都,千代田区,麹町４丁目７番２号,,13,101,1020083,,,,,,,2022-08-17,1,,,,,ディーディーインベストメント,0
491,3010003038414,新規,0,2022-08-17,2022-08-17,Ｍｅｔａｐ　Ｊａｐａｎ合同会社,,合同会社,東京都,中央区,築地１丁目２番１－５１１号,,13,102,1040045,,,,,,,2022-08-17,1,,,,,メタップジャパン,0
492,3010003038439,新規,0,2022-08-17,2022-08-17,Ｂｅｙｏｎｄ　Ｔｈｅ合同会社,,合同会社,東京都,中央区,銀座１丁目１２番４号Ｎ＆Ｅ、ＢＬＤ．６Ｆ,,13,102,1040061,,,,,,,2022-08-17,1,,,,,ビヨンドザ,0
494,3010005035418,新規,0,2022-08-17,2022-08-17,一般社団法人ピアサンクス,,その他の設立登記法人,東京都,中央区,銀座１丁目１２番４号Ｎ＆ＥＢＬＤ．６Ｆ,,13,102,1040061,,,,,,,2022-08-17,1,,,,,ピアサンクス,0
499,3010401169083,新規,0,2022-08-17,2022-08-17,株式会社キーファクト,,株式会社,東京都,港区,南青山２丁目２番１５号,,13,103,1070062,,,,,,,2022-08-17,1,,,,,キーファクト,0
500,3010401169109,新規,0,2022-08-17,2022-08-17,株式会社ととのい,,株式会社,東京都,港区,麻布十番３丁目６番６号麻布十番ハイツ２０４,,13,103,1060045,,,,,,,2022-08-17,1,,,,,トトノイ,0
501,3010401169117,新規,0,2022-08-17,2022-08-17,株式会社Ｅｎｒｉｃｈ,,株式会社,東京都,港区,六本木４丁目５番１１号,,13,103,1060032,,,,,,,2022-08-17,1,,,,,エンリッチ,0
502,3010401169125,新規,0,2022-08-17,2022-08-17,株式会社ＲＩＥＰＬＵＳ,,株式会社,東京都,港区,虎ノ門３丁目１８番６号,,13,103,1050001,,,,,,,2022-08-17,1,,,,,リエプラス,0
504,3010403028287,新規,0,2022-08-17,2022-08-17,Ｋｙｏｄｏ　Ｔｅｃｈ合同会社,,合同会社,東京都,港区,赤坂２丁目２１番５号,,13,103,1070052,,,,,,,2022-08-17,1,,,,,キョードーテック,0
507,3010501049251,新規,0,2022-08-17,2022-08-17,玉九株式会社,,株式会社,東京都,台東区,千束３丁目２１－１２－１０３,,13,106,1110031,,,,,,,2022-08-17,1,,,,,タマキュウ,0
512,3010801033211,新規,0,2022-08-17,2022-08-17,株式会社辰己興業,,株式会社,東京都,大田区,大森北４丁目１３番１４号,,13,111,1430016,,,,,,,2022-08-17,1,,,,,タツミコウギョウ,0
516,3011001149145,新規,0,2022-08-17,2022-08-17,株式会社ＢｉｚＭａｇｉｃ,,株式会社,東京都,渋谷区,幡ヶ谷２丁目２７番７号,,13,113,1510072,,,,,,,2022-08-17,1,,,,,ビズマジック,0
517,3011001149211,新規,0,2022-08-17,2022-08-17,株式会社ＧＥＮＥＲＯＵＳ,,株式会社,東京都,渋谷区,恵比寿南１丁目７番８号ニューライフ恵比寿８０５号室,,13,113,1500022,,,,,,,2022-08-17,1,,,,,ゼネラス,0
518,3011001149302,新規,0,2022-08-17,2022-08-17,株式会社デルクイ総合研究所,,株式会社,東京都,目黒区,八雲３丁目１２番２４－３１０号,,13,110,1520023,,,,,,,2022-08-17,1,,,,,デルクイソウゴウケンキュウジョ,0
519,3011001149319,新規,0,2022-08-17,2022-08-17,株式会社アオイ企画,,株式会社,東京都,目黒区,緑が丘１丁目２２番２１号ＣＡＳＡ・ＢＲＩＣＫＳ自由が丘２０９,,13,110,1520034,,,,,,,2022-08-17,1,,,,,アオイキカク,0
521,3011003015221,新規,0,2022-08-17,2022-08-17,合同会社和,,合同会社,東京都,目黒区,目黒本町５丁目３１－９,,13,110,1520002,,,,,,,2022-08-17,1,,,,,ナゴミ,0
523,3011005009683,新規,0,2022-08-17,2022-08-17,一般社団法人中目黒をさらに良くする連絡会,,その他の設立登記法人,東京都,目黒区,上目黒２丁目１番１号ＧＴタワーＢ１Ｆ株式会社中目黒ジーティー内,,13,110,1530051,,,,,,,2022-08-17,1,,,,,ナカメグロヲサラニヨクスルレンラクカイ,0
525,3011101099901,新規,0,2022-08-17,2022-08-17,株式会社ＡＴＴＥＮＴＩＶＥ,,株式会社,東京都,新宿区,西新宿２丁目４番１号新宿ＮＳビル１４階ＭＥＧＡオフィス,,13,104,1600023,,,,,,,2022-08-17,1,,,,,アテンティブ,0
526,3011103012077,新規,0,2022-08-17,2022-08-17,合同会社ＬＯＴパートナーズ,,合同会社,東京都,新宿区,新宿２丁目１１－７第３３宮庭ビル４１１号室,,13,104,1600022,,,,,,,2022-08-17,1,,,,,エルオーティーパートナーズ,0
533,3011701025538,新規,0,2022-08-17,2022-08-17,株式会社ジェイズ,,株式会社,東京都,江戸川区,東葛西８丁目３２番１３号,,13,123,1340084,,,,,,,2022-08-17,1,,,,,ジェイズ,0
535,3011801041154,新規,0,2022-08-17,2022-08-17,株式会社プレゼンス,,株式会社,東京都,足立区,舎人５丁目５－２,,13,121,1210831,,,,,,,2022-08-17,1,,,,,プレゼンス,0
536,3011803005215,新規,0,2022-08-17,2022-08-17,ＳＩＪ合同会社,,合同会社,東京都,足立区,西保木間２丁目７－４,,13,121,1210812,,,,,,,2022-08-17,1,,,,,エスアイジェイ,0
537,3011803005223,新規,0,2022-08-17,2022-08-17,合同会社滝澤,,合同会社,東京都,足立区,南花畑１丁目２番１８号,,13,121,1210062,,,,,,,2022-08-17,1,,,,,タキザワ,0
539,3012401039547,新規,0,2022-08-17,2022-08-17,株式会社投資のヒント,,株式会社,東京都,多摩市,落合１丁目３６番地ザ・パークハウス多摩センター７０９号,,13,224,2060033,,,,,,,2022-08-17,1,,,,,トウシノヒント,0
541,3012403005547,新規,0,2022-08-17,2022-08-17,合同会社むさしのＳｉｇｎ,,合同会社,東京都,武蔵野市,吉祥寺北町４丁目１１番２６号,,13,203,1800001,,,,,,,2022-08-17,1,,,,,ムサシノサイン,0
543,3013103001159,新規,0,2022-08-17,2022-08-17,合同会社ラリアンス,,合同会社,東京都,あきる野市,草花１６０４番地,,13,228,1970802,,,,,,,2022-08-17,1,,,,,ラリアンス,0
568,3030003019998,新規,0,2022-08-17,2022-08-17,モリト建設合同会社,,合同会社,埼玉県,草加市,稲荷６丁目１５番２０号,,11,221,3400003,,,,,,,2022-08-17,1,,,,,モリトケンセツ,0
576,3040001124667,新規,0,2022-08-17,2022-08-17,古橋不動産株式会社,,株式会社,千葉県,千葉市緑区,おゆみ野中央６丁目９番地２６,,12,105,2660032,,,,,,,2022-08-17,1,,,,,フルハシフドウサン,0
584,3060001035185,新規,0,2022-08-17,2022-08-17,株式会社Ｄｅ‐Ｔｉｅｄ　ＵＰ,,株式会社,栃木県,宇都宮市,今泉３丁目６－１１テック宇都宮ビル２０１,,09,201,3210966,,,,,,,2022-08-17,1,,,,,ディタイドアップ,0
585,3060001035193,新規,0,2022-08-17,2022-08-17,ＪＫＭ株式会社,,株式会社,栃木県,小山市,駅東通り１丁目５番３号田中ビル２階,,09,208,3230022,,,,,,,2022-08-17,1,,,,,ジェイケーエム,0
594,3080005007476,新規,0,2022-08-17,2022-08-17,特定非営利活動法人静岡県音楽コンクール委員会,,その他の設立登記法人,静岡県,静岡市駿河区,丸子新田２８０－１,,22,102,4210111,,,,,,,2022-08-17,1,,,,,シズオカケンオンガクコンクールイインカイ,0
595,3080103002635,新規,0,2022-08-17,2022-08-17,合同会社ＦＳ,,合同会社,静岡県,駿東郡長泉町,上土狩５７－１７グリシーヌ３０３,,22,342,4110941,,,,,,,2022-08-17,1,,,,,エフエス,0
598,3100001035627,新規,0,2022-08-17,2022-08-17,株式会社Ｐ‐ＴＥＣ,,株式会社,長野県,茅野市,米沢１４８番地１,,20,214,3910216,,,,,,,2022-08-17,1,,,,,ピーテック,0
614,3120001248136,新規,0,2022-08-17,2022-08-17,株式会社ＶＵ,,株式会社,大阪府,大阪市平野区,加美北５丁目３番１０号,,27,126,5470001,,,,,,,2022-08-17,1,,,,,ブイユー,0
619,3120003022290,新規,0,2022-08-17,2022-08-17,合同会社Ｆｏｒｔｕｎａ,,合同会社,大阪府,大阪市大正区,三軒家東５丁目１０番９－７０２号,,27,108,5510002,,,,,,,2022-08-17,1,,,,,フォルトゥナ,0
620,3120003022299,新規,0,2022-08-17,2022-08-17,合同会社佑成,,合同会社,大阪府,大阪市西成区,玉出西２丁目１２番１１号チェリーハイツ３０２号室,,27,122,5570045,,,,,,,2022-08-17,1,,,,,ユウセイ,0
625,3122001036173,新規,0,2022-08-17,2022-08-17,株式会社Ｇｏｏｄ　Ｓｈａｐｅ,,株式会社,大阪府,柏原市,玉手町３番２３号,,27,221,5820028,,,,,,,2022-08-17,1,,,,,グッドシェイプ,0
628,3130003008140,新規,0,2022-08-17,2022-08-17,Ｋ．Ｋ．コンサルティング合同会社,,合同会社,京都府,京都市中京区,池須町４１２番地ネバーランド六角６０２号室,,26,104,6048216,,,,,,,2022-08-17,1,,,,,ケイケイコンサルティング,0
630,3140001127081,新規,0,2022-08-17,2022-08-17,株式会社竹内クレーン工業兵庫,,株式会社,兵庫県,加東市,社１００番地の２,,28,228,6731431,,,,,,,2022-08-17,1,,,,,タケウチクレーンコウギョウヒョウゴ,0
631,3140001127131,新規,0,2022-08-17,2022-08-17,ＳＵＮ　ＦＡＣＴＯＲＹ’ｓ株式会社,,株式会社,兵庫県,神戸市中央区,野崎通７丁目３番１４号,,28,110,6510054,,,,,,,2022-08-17,1,,,,,サンファクトリーズ,0
635,3150001025771,新規,0,2022-08-17,2022-08-17,平田不動産株式会社,,株式会社,奈良県,香芝市,五ヶ所３６８番地１,,29,210,6390221,,,,,,,2022-08-17,1,,,,,ヒラタフドウサン,0
636,3150003002760,新規,0,2022-08-17,2022-08-17,ワイアールエス合同会社,,合同会社,奈良県,奈良市,四条大路４丁目１番１５号,,29,201,6308014,,,,,,,2022-08-17,1,,,,,ワイアールエス,0
640,3180001152646,新規,0,2022-08-17,2022-08-17,株式会社ＨＡＣＫ,,株式会社,愛知県,名古屋市中区,千代田１丁目１０番１６号ネスパルドイブ３０４,,23,106,4600012,,,,,,,2022-08-17,1,,,,,ハック,0
650,3180005019890,新規,0,2022-08-17,2022-08-17,社会保険労務士法人いまここ,,その他の設立登記法人,愛知県,名古屋市中区,錦１丁目４番２７号,,23,106,4600003,,,,,,,2022-08-17,1,,,,,イマココ,0
656,3240001060223,新規,0,2022-08-17,2022-08-17,Ｉ‐ｔｅｍホールディングス株式会社,,株式会社,広島県,福山市,御幸町大字中津原１８０８番地１,,34,207,7200004,,,,,,,2022-08-17,1,,,,,アイテムホールディングス,0
657,3240001060231,新規,0,2022-08-17,2022-08-17,ＡＣＲＯＶＩＥＷ　ＪＡＰＡＮ株式会社,,株式会社,広島県,福山市,伊勢丘５丁目３番３６号,,34,207,7210915,,,,,,,2022-08-17,1,,,,,アクロビュージャパン,0
664,3290001098639,新規,0,2022-08-17,2022-08-17,株式会社ユリオプス,,株式会社,福岡県,福岡市西区,今宿駅前１丁目１５－１８マリブ今宿シーサイドテラスＳＡＬＴ内,,40,135,8190168,,,,,,,2022-08-17,1,,,,,ユリオプス,0
677,3370001048949,新規,0,2022-08-17,2022-08-17,株式会社Ａｃｅｓ,,株式会社,宮城県,仙台市宮城野区,鶴ケ谷８丁目８番地の８アスコット鶴ケ谷２０２,,04,102,9830824,,,,,,,2022-08-17,1,,,,,エーシーズ,0
684,3430001087296,新規,0,2022-08-17,2022-08-17,株式会社北道商事,,株式会社,北海道,札幌市手稲区,手稲山口８０４番２,,01,109,0060860,,,,,,,2022-08-17,1,,,,,ホクドウショウジ,0
686,3430003014190,新規,0,2022-08-17,2022-08-17,合同会社和,,合同会社,北海道,日高郡新ひだか町,静内ときわ町３丁目５番１４号,,01,610,0560023,,,,,,,2022-08-17,1,,,,,カズ,0
687,3430005014536,新規,0,2022-08-17,2022-08-17,特定非営利活動法人勇者の会,,その他の設立登記法人,北海道,札幌市西区,発寒八条１１丁目２番２１号,,01,107,0630828,,,,,,,2022-08-17,1,,,,,ユウシャノカイ,0
691,3490003001695,新規,0,2022-08-17,2022-08-17,ＨＲ　ＰＬＵＳ合同会社,,合同会社,高知県,高知市,南はりまや町２丁目１５番１８号,,39,201,7800833,,,,,,,2022-08-17,1,,,,,エイチアールプラス,0
705,4010001228791,新規,0,2022-08-17,2022-08-17,株式会社ｎｅｏＡＩ,,株式会社,東京都,文京区,本郷６丁目２５番１４号,,13,105,1130033,,,,,,,2022-08-17,1,,,,,ネオエーアイ,0
706,4010001228817,新規,0,2022-08-17,2022-08-17,ＭＡＢＥ　Ｊａｐａｎ株式会社,,株式会社,東京都,中央区,日本橋兜町９番１号,,13,102,1030026,,,,,,,2022-08-17,1,,,,,メイブジャパン,0
707,4010001228833,新規,0,2022-08-17,2022-08-17,株式会社山元ホールディングス,,株式会社,東京都,中央区,日本橋本石町１丁目１番４号,,13,102,1030021,,,,,,,2022-08-17,1,,,,,ヤマゲンホールディングス,0
708,4010001228874,新規,0,2022-08-17,2022-08-17,グレープホールディングス株式会社,,株式会社,東京都,千代田区,大手町１丁目５番１号,,13,101,1000004,,,,,,,2022-08-17,1,,,,,グレープホールディングス,0
714,4010003038388,新規,0,2022-08-17,2022-08-17,エフグローバル合同会社,,合同会社,東京都,千代田区,麹町４丁目７番２号,,13,101,1020083,,,,,,,2022-08-17,1,,,,,エフグローバル,0
715,4010003038396,新規,0,2022-08-17,2022-08-17,合同会社サブカル通信社,,合同会社,東京都,中央区,銀座１丁目２２番１１号銀座大竹ビジデンス２階,,13,102,1040061,,,,,,,2022-08-17,1,,,,,サブカルツウシンシャ,0
716,4010003038438,新規,0,2022-08-17,2022-08-17,アルファ合同会社,,合同会社,東京都,千代田区,神田神保町３丁目１１－１安田神保町マンション－２２,,13,101,1010051,,,,,,,2022-08-17,1,,,,,アルファ,0
723,4010403028261,新規,0,2022-08-17,2022-08-17,合同会社ウィンクファイナンス,,合同会社,東京都,港区,赤坂２丁目１８番１３号,,13,103,1070052,,,,,,,2022-08-17,1,,,,,ウィンクファイナンス,0
724,4010403028294,新規,0,2022-08-17,2022-08-17,ジャパンインフラ２５号合同会社,,合同会社,東京都,港区,元赤坂１丁目１番７号,,13,103,1070051,,,,,,,2022-08-17,1,,,,,ジャパンインフラニジュウゴゴウ,0
727,4010405021248,新規,0,2022-08-17,2022-08-17,ジー・ジェイ・レジデンス・イレブン特定目的会社,,その他の設立登記法人,東京都,港区,六本木１丁目９番１０号アークヒルズ仙石山森タワー４０階,,13,103,1060032,,,,,,,2022-08-17,1,,,,,ジージェイレジデンスイレブン,0
734,4010801033210,新規,0,2022-08-17,2022-08-17,株式会社真由美装蹄所,,株式会社,東京都,大田区,山王３丁目４０番３号,,13,111,1430023,,,,,,,2022-08-17,1,,,,,マユミソウテイジョ,0
739,4010901051442,新規,0,2022-08-17,2022-08-17,株式会社ガスパール,,株式会社,東京都,世田谷区,上野毛４丁目３０番１－３０２号,,13,112,1580093,,,,,,,2022-08-17,1,,,,,ガスパール,0
741,4010903007582,新規,0,2022-08-17,2022-08-17,合同会社ｐｅａｃｈ,,合同会社,東京都,世田谷区,北烏山６丁目１１番３－２５０１号,,13,112,1570061,,,,,,,2022-08-17,1,,,,,ピーチ,0
746,4011001149136,新規,0,2022-08-17,2022-08-17,株式会社トーワリコ,,株式会社,東京都,渋谷区,道玄坂２丁目１５番１号ノア道玄坂９０７,,13,113,1500043,,,,,,,2022-08-17,1,,,,,トーワリコ,0
747,4011001149210,新規,0,2022-08-17,2022-08-17,株式会社ＭｙＳａｕｎａ,,株式会社,東京都,渋谷区,神宮前６丁目２３番４号桑野ビル２階,,13,113,1500001,,,,,,,2022-08-17,1,,,,,マイサウナ,0
750,4011003015195,新規,0,2022-08-17,2022-08-17,合同会社ひかるねこ,,合同会社,東京都,渋谷区,渋谷２丁目１９番１５号宮益坂ビルディング６０９,,13,113,1500002,,,,,,,2022-08-17,1,,,,,ヒカルネコ,0
754,4011103012076,新規,0,2022-08-17,2022-08-17,合同会社ＢＰＲ,,合同会社,東京都,新宿区,岩戸町７番地コンフォリア神楽坂ＤＥＵＸ６０２,,13,104,1620832,,,,,,,2022-08-17,1,,,,,ビーピーアール,0
759,4011501028401,新規,0,2022-08-17,2022-08-17,Ｊｏｓｉｅ株式会社,,株式会社,東京都,荒川区,東尾久４丁目４６番１１号,,13,118,1160012,,,,,,,2022-08-17,1,,,,,ジョシー,0
767,4011801041145,新規,0,2022-08-17,2022-08-17,株式会社オフィスタカノ,,株式会社,東京都,足立区,東綾瀬１丁目２０番６－６０２号,,13,121,1200004,,,,,,,2022-08-17,1,,,,,オフィスタカノ,0
768,4011803005222,新規,0,2022-08-17,2022-08-17,合同会社スタジオ・サンク,,合同会社,東京都,葛飾区,堀切３丁目１４番１号堀切三番館１０１,,13,122,1240006,,,,,,,2022-08-17,1,,,,,スタジオサンク,0
791,4030003019997,新規,0,2022-08-17,2022-08-17,合同会社こうじの木,,合同会社,埼玉県,深谷市,国済寺５４８番地１,,11,218,3660033,,,,,,,2022-08-17,1,,,,,コウジノキ,0
792,4030003020006,新規,0,2022-08-17,2022-08-17,合同会社ここよろ,,合同会社,埼玉県,さいたま市南区,沼影１丁目１１番２号Ｃ－２１１１,,11,108,3360027,,,,,,,2022-08-17,1,,,,,ココヨロ,0
793,4030003020014,新規,0,2022-08-17,2022-08-17,合同会社Ｋｅｅｐ　Ｌｉｎｋｉｎｇ,,合同会社,埼玉県,富士見市,ふじみ野西２丁目１番地１アイムふじみ野タワー西館７０２,,11,235,3540035,,,,,,,2022-08-17,1,,,,,キープリンキング,0
802,4060001035192,新規,0,2022-08-17,2022-08-17,パレットワン株式会社,,株式会社,栃木県,佐野市,大橋町１０９５－６－１０１,,09,204,3270003,,,,,,,2022-08-17,1,,,,,パレットワン,0
811,4100003006658,新規,0,2022-08-17,2022-08-17,ＭＣＤＣ合同会社,,合同会社,長野県,北安曇郡白馬村,大字北城字向原２９３７番地４２６,,20,485,3999301,,,,,,,2022-08-17,1,,,,,エムシーディーシー,0
826,4120001248143,新規,0,2022-08-17,2022-08-17,株式会社Ｒ．Ｈ．Ｆ,,株式会社,大阪府,大阪市阿倍野区,旭町１丁目１番１４号,,27,119,5450051,,,,,,,2022-08-17,1,,,,,アールエイチエフ,0
827,4120001248242,新規,0,2022-08-17,2022-08-17,株式会社Ａｒｃｓｐｉｃａ,,株式会社,大阪府,大阪市東住吉区,田辺２丁目１番６号,,27,121,5460031,,,,,,,2022-08-17,1,,,,,アルクスピカ,0
828,4120001248250,新規,0,2022-08-17,2022-08-17,株式会社天福商事,,株式会社,大阪府,大阪市港区,三先２丁目２０番２－５１２号,,27,107,5520016,,,,,,,2022-08-17,1,,,,,テンフクショウジ,0
829,4120001248259,新規,0,2022-08-17,2022-08-17,吉光株式会社,,株式会社,大阪府,大阪市西成区,千本中２丁目３番２３号太平マンション２０５号,,27,122,5570054,,,,,,,2022-08-17,1,,,,,ヨシヒカリ,0
830,4120003022281,新規,0,2022-08-17,2022-08-17,合同会社マイクロドーズ,,合同会社,大阪府,大阪市城東区,関目２丁目１６番２８－４１１号,,27,118,5360008,,,,,,,2022-08-17,1,,,,,マイクロドーズ,0
831,4120003022298,新規,0,2022-08-17,2022-08-17,合同会社有道,,合同会社,大阪府,大阪市西成区,玉出西２丁目１２番１１号チェリーハイツ４０３号室,,27,122,5570045,,,,,,,2022-08-17,1,,,,,ユウドウ,0
835,4120005023138,新規,0,2022-08-17,2022-08-17,一般社団法人建設発生土適正提供協会,,その他の設立登記法人,大阪府,大阪市北区,浪花町１３－３８千代田ビル北館８Ｆ,,27,127,5300022,,,,,,,2022-08-17,1,,,,,ケンセツハッセイドテキセイケイキョウキョウカイ,0
841,4130001072427,新規,0,2022-08-17,2022-08-17,賃貸住宅保証株式会社,,株式会社,京都府,京都市北区,小山南上総町５６番地２ＫＩビル,,26,101,6038149,,,,,,,2022-08-17,1,,,,,チンタイジュウタクホショウ,0
842,4130001072451,新規,0,2022-08-17,2022-08-17,株式会社ソエルテ,,株式会社,京都府,京都市西京区,桂市ノ前町１番地八番館１階,,26,111,6158026,,,,,,,2022-08-17,1,,,,,ソエルテ,0
846,4140005026287,新規,0,2022-08-17,2022-08-17,一般社団法人ＣＬＵＢ　ＨＯＵＳＥ,,その他の設立登記法人,兵庫県,姫路市,白鳥台２丁目１番５号,,28,201,6712245,,,,,,,2022-08-17,1,,,,,クラブハウス,0
848,4160001024458,新規,0,2022-08-17,2022-08-17,株式会社ＧＵＳＳ,,株式会社,滋賀県,大津市,国分１丁目３番２－２号,,25,201,5200844,,,,,,,2022-08-17,1,,,,,グース,0
853,4180001152645,新規,0,2022-08-17,2022-08-17,株式会社ユウシュウグループ,,株式会社,愛知県,名古屋市中村区,大門町２２番地,,23,105,4530027,,,,,,,2022-08-17,1,,,,,ユウシュウグループ,0
855,4180003024165,新規,0,2022-08-17,2022-08-17,合同会社Ｍｉｒｏｋｕ　Ｊａｐａｎ,,合同会社,愛知県,稲沢市,平和町嫁振３２４番地,,23,220,4901323,,,,,,,2022-08-17,1,,,,,ミロクジャパン,0
856,4180003024173,新規,0,2022-08-17,2022-08-17,大連トレーディング合同会社,,合同会社,愛知県,犬山市,大字羽黒字中深田２４番地９,,23,215,4840894,,,,,,,2022-08-17,1,,,,,ダイレントレーディング,0
861,4240005015437,新規,0,2022-08-17,2022-08-17,一般社団法人日本芸術文化発芽塾,,その他の設立登記法人,広島県,広島市東区,光町１丁目１１番５－１１０６号チサンマンション,,34,102,7320052,,,,,,,2022-08-17,1,,,,,ニッポンゲイジュツブンカハツガジュク,0
868,4290001098638,新規,0,2022-08-17,2022-08-17,株式会社ＬＥＲＩＲＯ　Ｃａｐｉｔａｌ,,株式会社,福岡県,うきは市,吉井町１８－１０,,40,225,8391321,,,,,,,2022-08-17,1,,,,,ルリーロキャピタル,0
870,4290003012852,新規,0,2022-08-17,2022-08-17,ＮＩＴＡＯ合同会社,,合同会社,福岡県,古賀市,天神１丁目２５番３３－６０６号,,40,223,8113101,,,,,,,2022-08-17,1,,,,,ニタオ,0
873,4290803004181,新規,0,2022-08-17,2022-08-17,グリーンコンパス合同会社,,合同会社,福岡県,北九州市小倉南区,徳力新町２丁目１３－１０南方ハイツイズミ１０２,,40,107,8020979,,,,,,,2022-08-17,1,,,,,グリーンコンパス,0
874,4300001013033,新規,0,2022-08-17,2022-08-17,株式会社古賀電工,,株式会社,佐賀県,三養基郡みやき町,大字簑原１２３７番地１０２,,41,346,8490102,,,,,,,2022-08-17,1,,,,,コガデンコウ,0
876,4320003003880,新規,0,2022-08-17,2022-08-17,合同会社ＰｉｎｋＰｉｎｅ,,合同会社,大分県,臼杵市,大字臼杵２－１０７－７４３－９０３,,44,206,8750041,,,,,,,2022-08-17,1,,,,,ピンクパイン,0
881,4360001030816,新規,0,2022-08-17,2022-08-17,株式会社タツノオトシゴ,,株式会社,沖縄県,那覇市,銘苅２丁目３番１号なは産業支援センター４１０号室,,47,201,9000004,,,,,,,2022-08-17,1,,,,,タツノオトシゴ,0
882,4360003012242,新規,0,2022-08-17,2022-08-17,合同会社ＡＲ３,,合同会社,沖縄県,沖縄市,中央１丁目１４－２,,47,211,9040004,,,,,,,2022-08-17,1,,,,,エーアールサン,0
883,4370001048948,新規,0,2022-08-17,2022-08-17,株式会社ベストアクティ,,株式会社,宮城県,仙台市宮城野区,福室２丁目８番１７号福室マンション３１４号,,04,102,9830005,,,,,,,2022-08-17,1,,,,,ベストアクティ,0
886,4370005010524,新規,0,2022-08-17,2022-08-17,一般財団法人サウンドハウスこどものみらい財団,,その他の設立登記法人,宮城県,牡鹿郡女川町,女川浜字大原６０１番地,,04,581,9862261,,,,,,,2022-08-17,1,,,,,サウンドハウスコドモノミライザイダン,0
894,4430001087320,新規,0,2022-08-17,2022-08-17,株式会社ＩＲＯＨＡ,,株式会社,北海道,札幌市北区,東茨戸三条１丁目１１番１号,,01,102,0028044,,,,,,,2022-08-17,1,,,,,イロハ,0
902,4462505000284,新規,0,2022-08-17,2022-08-17,一般社団法人ＭＩＬＫＩＤＳ,,その他の設立登記法人,北海道,野付郡別海町,別海緑町１１９番地の２,,01,691,0860214,,,,,,,2022-08-17,1,,,,,ミルキッズ,0
905,4700150027090,新規,0,2022-08-17,2015-10-09,京都薬科大学京薬会,,その他,京都府,京都市山科区,御陵中内町５,,26,110,6078414,,,,,,,2015-10-09,1,,,,,キヨウトヤツカダイガクキヨウヤクカイ,0
911,5010001228790,新規,0,2022-08-17,2022-08-17,株式会社エイチアイ・エンターテインメント,,株式会社,東京都,千代田区,丸の内１丁目６番２号新丸の内センタービルディング２１階,,13,101,1000005,,,,,,,2022-08-17,1,,,,,エイチアイエンターテインメント,0
912,5010001228808,新規,0,2022-08-17,2022-08-17,フェアリードリーム株式会社,,株式会社,東京都,千代田区,飯田橋２丁目１６番４号九段下コート３０１号,,13,101,1020072,,,,,,,2022-08-17,1,,,,,フェアリードリーム,0
913,5010001228849,新規,0,2022-08-17,2022-08-17,株式会社ＫＴＮＭＡ,,株式会社,東京都,千代田区,神田紺屋町４３番地紺屋町共同ビル,,13,101,1010035,,,,,,,2022-08-17,1,,,,,ケーティーエヌエムエー,0
915,5010003038404,新規,0,2022-08-17,2022-08-17,ＭＣ合同会社,,合同会社,東京都,中央区,築地６丁目１２番１－５０２号,,13,102,1040045,,,,,,,2022-08-17,1,,,,,エムシー,0
918,5010005035416,新規,0,2022-08-17,2022-08-17,行政書士法人テラス,,その他の設立登記法人,東京都,中央区,銀座８丁目１７番５号,,13,102,1040061,,,,,,,2022-08-17,1,,,,,テラス,0
919,5010005035424,新規,0,2022-08-17,2022-08-17,税理士法人ポラリス,,その他の設立登記法人,東京都,中央区,銀座１丁目１６番１号東貨ビル３階,,13,102,1040061,,,,,,,2022-08-17,1,,,,,ポラリス,0
920,5010101015296,新規,0,2022-08-17,2022-08-17,株式会社ウォークフリーリー,,株式会社,東京都,八王子市,大和田町２丁目２０番２４号,,13,201,1920045,,,,,,,2022-08-17,1,,,,,ウォークフリーリー,0
926,5010401169032,新規,0,2022-08-17,2022-08-17,株式会社Ａｒｄｅｎｔ,,株式会社,東京都,港区,新橋２丁目４番５号不二ビルディング１０Ｆ,,13,103,1050004,,,,,,,2022-08-17,1,,,,,アーデント,0
927,5010401169164,新規,0,2022-08-17,2022-08-17,株式会社オラパ,,株式会社,東京都,港区,六本木５丁目１２番７－４０６号,,13,103,1060032,,,,,,,2022-08-17,1,,,,,オラパ,0
933,5010403028293,新規,0,2022-08-17,2022-08-17,ジャパンインフラ２４号合同会社,,合同会社,東京都,港区,元赤坂１丁目１番７号,,13,103,1070051,,,,,,,2022-08-17,1,,,,,ジャパンインフラニジュウヨンゴウ,0
936,5010405021230,新規,0,2022-08-17,2022-08-17,一般社団法人Ｍｉｇｒａｔｉｏｎ＆Ｌａｂ,,その他の設立登記法人,東京都,港区,赤坂２丁目１９番８号,,13,103,1070052,,,,,,,2022-08-17,1,,,,,マイグレーションアンドラボ,0
937,5010405021296,新規,0,2022-08-17,2022-08-17,ジャパンインフラホールディングス２５号一般社団法人,,その他の設立登記法人,東京都,港区,元赤坂１丁目１番７号,,13,103,1070051,,,,,,,2022-08-17,1,,,,,ジャパンインフラホールディングスニジュウゴゴウ,0
952,5010901051417,新規,0,2022-08-17,2022-08-17,楽天データソリューションズ株式会社,,株式会社,東京都,世田谷区,玉川１丁目１４番１号,,13,112,1580094,,,,,,,2022-08-17,1,,,,,ラクテンデータソリューションズ,0
957,5011001149300,新規,0,2022-08-17,2022-08-17,ワイホ株式会社,,株式会社,東京都,渋谷区,広尾３丁目１４番２６号広尾シダーコート２０１,,13,113,1500012,,,,,,,2022-08-17,1,,,,,ワイホ,0
958,5011003015211,新規,0,2022-08-17,2022-08-17,ＭＵＳＩＣ　ＨＡＣＫ合同会社,,合同会社,東京都,渋谷区,渋谷２丁目１９－１５宮益坂ビルディング６０９,,13,113,1500002,,,,,,,2022-08-17,1,,,,,ミュージックハック,0
964,5011101099899,新規,0,2022-08-17,2022-08-17,株式会社ワイズプラス,,株式会社,東京都,新宿区,大京町１０－１１四谷中央マンション３０５,,13,104,1600015,,,,,,,2022-08-17,1,,,,,ワイズプラス,0
965,5011103012075,新規,0,2022-08-17,2022-08-17,ＣＶ合同会社,,合同会社,東京都,新宿区,西新宿３丁目３番１３号西新宿水間ビル２Ｆ,,13,104,1600023,,,,,,,2022-08-17,1,,,,,シーブイ,0
968,5011301028030,新規,0,2022-08-17,2022-08-17,株式会社Ｍａｘ＆ｔｈｅ　Ｃｏｍｐａｎｙ,,株式会社,東京都,杉並区,上荻１丁目１８番１６－５０１号,,13,115,1670043,,,,,,,2022-08-17,1,,,,,マックスアンドザカンパニー,0
972,5011703003226,新規,0,2022-08-17,2022-08-17,ＰＭＫ　ＧＬＯＢＡＬ　ＳＯＬＵＴＩＯＮＳ合同会社,,合同会社,東京都,江戸川区,西葛西３丁目９－３５グリーンヒル西葛西２号館９１０号室,,13,123,1340088,,,,,,,2022-08-17,1,,,,,ピーエムケーグローバルソリューションス,0
976,5011801041152,新規,0,2022-08-17,2022-08-17,ＭｅｔａＰｒｏｐｅｒｔｙ株式会社,,株式会社,東京都,足立区,島根３丁目２１－１２,,13,121,1210815,,,,,,,2022-08-17,1,,,,,メタプロパティ,0
977,5011801041160,新規,0,2022-08-17,2022-08-17,株式会社ジェイ・フィールド,,株式会社,東京都,葛飾区,東金町２丁目７番２２号ロッシュ・ブラウン金町２０６号,,13,122,1250041,,,,,,,2022-08-17,1,,,,,ジェイフィールド,0
981,5012303001710,新規,0,2022-08-17,2022-08-17,ＴＭＣ合同会社,,合同会社,東京都,町田市,木曽西４丁目５番３号,,13,209,1940037,,,,,,,2022-08-17,1,,,,,ティーエムシー,0
987,5020001147775,新規,0,2022-08-17,2022-08-17,ＣＬＪＰ　Ｄｅｖｉｃｅ　Ｏｆｆｅｒ株式会社,,株式会社,神奈川県,横浜市中区,元浜町３丁目２１番２号,,14,104,2310004,,,,,,,2022-08-17,1,,,,,シーエルジェイピーデバイスオファー,0
996,5021003012042,新規,0,2022-08-17,2022-08-17,ＨＭＩｐｒｏ合同会社,,合同会社,神奈川県,厚木市,上落合４０６番地１３,,14,212,2430025,,,,,,,2022-08-17,1,,,,,エッチエムアイプロ,0
999,5030001149688,新規,0,2022-08-17,2022-08-17,Ｃ・Ｗ・Ｐ株式会社,,株式会社,埼玉県,熊谷市,上之７１７番地１,,11,202,3600012,,,,,,,2022-08-17,1,,,,,シーダブリュピー,0
1000,5030001149705,新規,0,2022-08-17,2022-08-17,株式会社Ｐａｚｚｏ,,株式会社,埼玉県,戸田市,大字新曽１９９１番地（リノリーゾ４０７号室）,,11,224,3350021,,,,,,,2022-08-17,1,,,,,パッゾ,0
1009,5040001124681,新規,0,2022-08-17,2022-08-17,株式会社ＧＡＲＮＩＥＲ,,株式会社,千葉県,市川市,中山３丁目２番１５号,,12,203,2720813,,,,,,,2022-08-17,1,,,,,ガルニエ,0
1010,5040001124723,新規,0,2022-08-17,2022-08-17,創縁興業株式会社,,株式会社,千葉県,柏市,明原１丁目１１－１７,,12,217,2770843,,,,,,,2022-08-17,1,,,,,ソウエンコウギョウ,0
1019,5080403004602,新規,0,2022-08-17,2022-08-17,合同会社ＡＮＹＵ,,合同会社,静岡県,浜松市西区,舞阪町弁天島２８６９番地の７,,22,133,4310214,,,,,,,2022-08-17,1,,,,,アンユ,0
1033,5120001248217,新規,0,2022-08-17,2022-08-17,株式会社Ｙ’ｓ,,株式会社,大阪府,大阪市都島区,毛馬町４丁目９番７号,,27,102,5340001,,,,,,,2022-08-17,1,,,,,ワイズ,0
1034,5120001248241,新規,0,2022-08-17,2022-08-17,東福興産株式会社,,株式会社,大阪府,大阪市西淀川区,中島２丁目１３番２８号,,27,113,5550041,,,,,,,2022-08-17,1,,,,,トウフクコウサン,0
1039,5120003022289,新規,0,2022-08-17,2022-08-17,合同会社イロトリドリ,,合同会社,大阪府,大阪市中央区,内久宝寺町４丁目１番１４－９０３号,,27,128,5400013,,,,,,,2022-08-17,1,,,,,イロトリドリ,0
1042,5120101066106,新規,0,2022-08-17,2022-08-17,株式会社ａｓｏｂｉｌ,,株式会社,大阪府,岸和田市,土生町３丁目１４番２７号川口ビル２Ｆ,,27,202,5960825,,,,,,,2022-08-17,1,,,,,アソビル,0
1043,5120901046372,新規,0,2022-08-17,2022-08-17,株式会社グリーンアーキテック,,株式会社,大阪府,茨木市,稲葉町６－１１,,27,211,5670827,,,,,,,2022-08-17,1,,,,,グリーンアーキテック,0
1047,5130001072418,新規,0,2022-08-17,2022-08-17,株式会社谷口工業,,株式会社,京都府,宇治市,宇治弐番８２番地７,,26,204,6110021,,,,,,,2022-08-17,1,,,,,タニグチコウギョウ,0
1050,5130003008130,新規,0,2022-08-17,2022-08-17,総和合同会社,,合同会社,京都府,京都市左京区,上高野薩田町４番地の２,,26,103,6060047,,,,,,,2022-08-17,1,,,,,ソウワ,0
1053,5140001127039,新規,0,2022-08-17,2022-08-17,八角コンサルティング株式会社,,株式会社,兵庫県,加古川市,加古川町南備後４５番１号,,28,210,6750033,,,,,,,2022-08-17,1,,,,,ハッカクコンサルティング,0
1066,5180001152553,新規,0,2022-08-17,2022-08-17,株式会社ＳＢＩＣマネジメントパートナーズ,,株式会社,愛知県,名古屋市東区,泉１丁目２１番２９号ＩＺＵＭＩ桜鈴館１０２,,23,102,4610001,,,,,,,2022-08-17,1,,,,,エスビーアイシーマネジメントパートナーズ,0
1067,5180001152636,新規,0,2022-08-17,2022-08-17,ＳＯＡＲＩＣＨＥ株式会社,,株式会社,愛知県,春日井市,出川町２１６７番地２０,,23,206,4870025,,,,,,,2022-08-17,1,,,,,ソアリシュ,0
1068,5180001152660,新規,0,2022-08-17,2022-08-17,株式会社洸寿,,株式会社,愛知県,西春日井郡豊山町,大字豊場字諏訪１１５番地１,,23,342,4800202,,,,,,,2022-08-17,1,,,,,コウジュ,0
1070,5180003024164,新規,0,2022-08-17,2022-08-17,合同会社シエスタ,,合同会社,愛知県,春日井市,東野町５丁目１８番地１１サピースパーブ１０２号,,23,206,4860817,,,,,,,2022-08-17,1,,,,,シエスタ,0
1073,5180303005426,新規,0,2022-08-17,2022-08-17,合同会社ＳＫＹ,,合同会社,愛知県,みよし市,三好丘桜５丁目５番４号,,23,236,4700204,,,,,,,2022-08-17,1,,,,,スカイ,0
1079,5220003003345,新規,0,2022-08-17,2022-08-17,合同会社ＬＡ‐Ｂｏｏ,,合同会社,石川県,能美市,寺井町た４６番地,,17,211,9231121,,,,,,,2022-08-17,1,,,,,ラブー,0
1088,5250003003136,新規,0,2022-08-17,2022-08-17,合同会社長谷川物販,,合同会社,山口県,長門市,東深川１４７１番地１０,,35,211,7594101,,,,,,,2022-08-17,1,,,,,ハセガワブッパン,0
1091,5290001098595,新規,0,2022-08-17,2022-08-17,株式会社ジャイアンと,,株式会社,福岡県,久留米市,東町４９５番地１ツインステートビル２階,,40,203,8300032,,,,,,,2022-08-17,1,,,,,ジャイアント,0
1092,5290001098612,新規,0,2022-08-17,2022-08-17,株式会社ビリオネアクラブ九州,,株式会社,福岡県,福岡市東区,香椎照葉３丁目３番１号アイランドタワースカイクラブ３３０１号,,40,131,8130017,,,,,,,2022-08-17,1,,,,,ビリオネアクラブキュウシュウ,0
1093,5290001098645,新規,0,2022-08-17,2022-08-17,株式会社Ｕｓ　Ｌｉｎｋ,,株式会社,福岡県,福岡市早良区,原６丁目７番３号,,40,137,8140022,,,,,,,2022-08-17,1,,,,,アスリンク,0
1095,5290005018772,新規,0,2022-08-17,2022-08-17,一般社団法人ＡＡＡ,,その他の設立登記法人,福岡県,福岡市中央区,平尾３丁目２６番１３号,,40,133,8100014,,,,,,,2022-08-17,1,,,,,トリプルエー,0
1099,5300001013032,新規,0,2022-08-17,2022-08-17,あーとＥＣＯグループ株式会社,,株式会社,佐賀県,佐賀市,高木瀬町大字東高木１３３１番地１５,,41,201,8490916,,,,,,,2022-08-17,1,,,,,アートエコグループ,0
1112,5360003012241,新規,0,2022-08-17,2022-08-17,合同会社３６９,,合同会社,沖縄県,宮古島市,下地字川満１３７４－６,,47,214,9060301,,,,,,,2022-08-17,1,,,,,ミロク,0
1125,5430001087311,新規,0,2022-08-17,2022-08-17,株式会社コネクションレント,,株式会社,北海道,札幌市白石区,北郷七条３丁目６番１－６０２号,,01,104,0030837,,,,,,,2022-08-17,1,,,,,コネクションレント,0
1128,5430003014189,新規,0,2022-08-17,2022-08-17,合同会社Ｏｒ,,合同会社,北海道,札幌市中央区,南六条西３丁目６番地２２,,01,101,0640806,,,,,,,2022-08-17,1,,,,,オア,0
1129,5430005014534,新規,0,2022-08-17,2022-08-17,一般社団法人根本療法研究会,,その他の設立登記法人,北海道,札幌市北区,新琴似二条１０丁目１番１０号,,01,102,0010902,,,,,,,2022-08-17,1,,,,,コンポンリョウホウケンキュウカイ,0
1136,5500002012822,新規,0,2022-08-17,2022-08-17,米木水産有限会社,,有限会社,愛媛県,西予市,三瓶町下泊１９５２番地１,,38,214,7960915,,,,,,,2022-08-17,1,,,,,ヨネギスイサン,0
1150,6010001228798,新規,0,2022-08-17,2022-08-17,株式会社ＡＩＳ,,株式会社,東京都,千代田区,神田小川町１丁目１１番地,,13,101,1010052,,,,,,,2022-08-17,1,,,,,アイズ,0
1151,6010001228848,新規,0,2022-08-17,2022-08-17,株式会社インフォダム,,株式会社,東京都,千代田区,神田須田町１丁目２－７淡路町駅前ビル３階３５７号室,,13,101,1010041,,,,,,,2022-08-17,1,,,,,インフォダム,0
1152,6010003038403,新規,0,2022-08-17,2022-08-17,オルクスキャピタル合同会社,,合同会社,東京都,千代田区,神田三崎町２丁目１６－８,,13,101,1010061,,,,,,,2022-08-17,1,,,,,オルクスキャピタル,0
1153,6010003038411,新規,0,2022-08-17,2022-08-17,合同会社ＨｉＪｏＪｏ．ｃｏｍ６,,合同会社,東京都,千代田区,霞が関３丁目２番５号,,13,101,1000013,,,,,,,2022-08-17,1,,,,,ヒジョージョードットコムシックス,0
1158,6010005035407,新規,0,2022-08-17,2022-08-17,一般社団法人国連支援ＳＤＧＳ促進協会,,その他の設立登記法人,東京都,千代田区,神田小川町３丁目２４番地１５号,,13,101,1010052,,,,,,,2022-08-17,1,,,,,コクレンシエンエスディージーズソクシンキョウカイ,0
1159,6010005035415,新規,0,2022-08-17,2022-08-17,弁理士法人正林国際特許商標事務所,,その他の設立登記法人,東京都,千代田区,丸の内１丁目７番１２号,,13,101,1000005,,,,,,,2022-08-17,1,,,,,ショウバヤシコクサイトッキョショウヒョウジムショ,0
1160,6010005035423,新規,0,2022-08-17,2022-08-17,一般社団法人スマートフードチェーン推進機構,,その他の設立登記法人,東京都,千代田区,九段南４丁目８番２１号山脇ビル１０Ｆ,,13,101,1020074,,,,,,,2022-08-17,1,,,,,スマートフードチェーンスイシンキコウ,0
1170,6010401168784,新規,0,2022-08-17,2022-08-17,Ｊ　ＧＲＯＵＰ株式会社,,株式会社,東京都,港区,新橋３丁目２番６号杉本ビル３階,,13,103,1050004,,,,,,,2022-08-17,1,,,,,ジェイグループ,0
1171,6010401169072,新規,0,2022-08-17,2022-08-17,株式会社ｍａｋｅ　ｍａｒｋｅ,,株式会社,東京都,港区,高輪１丁目２番１６号フラットウェル高輪２階,,13,103,1080074,,,,,,,2022-08-17,1,,,,,メイクマーケ,0
1172,6010401169106,新規,0,2022-08-17,2022-08-17,株式会社ＬＡＦ,,株式会社,東京都,港区,赤坂６丁目１９番１１号メゾン赤坂２０１,,13,103,1070052,,,,,,,2022-08-17,1,,,,,ラフ,0
1173,6010401169221,新規,0,2022-08-17,2022-08-17,ベターライフエステート株式会社,,株式会社,東京都,港区,白金台３丁目１９番１号,,13,103,1080071,,,,,,,2022-08-17,1,,,,,ベターライフエステート,0
1178,6010403028292,新規,0,2022-08-17,2022-08-17,ＡｔａｒａＱｉ　ｂｙ　Ｑｇｒｏｕｐ合同会社,,合同会社,東京都,港区,六本木１丁目１０番３－９０１号,,13,103,1060032,,,,,,,2022-08-17,1,,,,,アタラキューアイバイキューグループ,0
1179,6010405021295,新規,0,2022-08-17,2022-08-17,ジャパンインフラホールディングス２４号一般社団法人,,その他の設立登記法人,東京都,港区,元赤坂１丁目１番７号,,13,103,1070051,,,,,,,2022-08-17,1,,,,,ジャパンインフラホールディングスニジュウヨンゴウ,0
1186,6010801033209,新規,0,2022-08-17,2022-08-17,株式会社＿清会,00127549,株式会社,東京都,大田区,上池台１丁目１３番１号,,13,111,1450064,,,,,,,2022-08-17,1,,,,,キンセイカイ,0
1190,6010901051440,新規,0,2022-08-17,2022-08-17,Ｊｏｂ’ｓじゃぱん株式会社,,株式会社,東京都,世田谷区,粕谷３丁目１１－１,,13,112,1570063,,,,,,,2022-08-17,1,,,,,ジョブズジャパン,0
1195,6011003015235,新規,0,2022-08-17,2022-08-17,合同会社代々木パートナーズ,,合同会社,東京都,渋谷区,神宮前６丁目２３番４号,,13,113,1500001,,,,,,,2022-08-17,1,,,,,ヨヨギパートナーズ,0
1199,6011103012074,新規,0,2022-08-17,2022-08-17,合同会社アプレミディ,,合同会社,東京都,新宿区,富久町１番９－４０６号,,13,104,1620067,,,,,,,2022-08-17,1,,,,,アプレミディ,0
1208,6011703003233,新規,0,2022-08-17,2022-08-17,ＡＣＥ合同会社,,合同会社,東京都,江戸川区,宇喜田町１００７,,13,123,1340082,,,,,,,2022-08-17,1,,,,,エース,0
1213,6011801041151,新規,0,2022-08-17,2022-08-17,株式会社ソイルデザイン,,株式会社,東京都,葛飾区,東金町７丁目２６番３号,,13,122,1250041,,,,,,,2022-08-17,1,,,,,ソイルデザイン,0
1216,6012401039536,新規,0,2022-08-17,2022-08-17,株式会社美石ファイナンス,,株式会社,東京都,武蔵野市,吉祥寺本町１丁目３３番１６号サンクタス吉祥寺ハートランド３０５号,,13,203,1800004,,,,,,,2022-08-17,1,,,,,ミセキファイナンス,0
1249,6040001124607,新規,0,2022-08-17,2022-08-17,西佑株式会社,,株式会社,千葉県,船橋市,湊町２丁目１番１９号ルミエール船橋１０５－Ｃ,,12,204,2730011,,,,,,,2022-08-17,1,,,,,セイユウ,0
1250,6040001124714,新規,0,2022-08-17,2022-08-17,株式会社北島吉春,,株式会社,千葉県,千葉市中央区,長洲１丁目１６番７号,,12,101,2600854,,,,,,,2022-08-17,1,,,,,キタジマヨシハル,0
1251,6040001124722,新規,0,2022-08-17,2022-08-17,株式会社Ｒｅｌｉｔｉｃｅ,,株式会社,千葉県,佐倉市,染井野６丁目１１－７,,12,212,2850831,,,,,,,2022-08-17,1,,,,,レリティス,0
1253,6040003020614,新規,0,2022-08-17,2022-08-17,合同会社Ｈａｃ　Ｍｅｅ,,合同会社,千葉県,柏市,宿連寺２６１番地２３ブルーハーツ１０２号,,12,217,2770826,,,,,,,2022-08-17,1,,,,,ハックミー,0
1255,6050001051552,新規,0,2022-08-17,2022-08-17,株式会社ＲＵＮＲＵＮオート,,株式会社,茨城県,つくば市,筑穂３丁目１３番地１,,08,220,3003257,,,,,,,2022-08-17,1,,,,,ランランオート,0
1256,6050001051560,新規,0,2022-08-17,2022-08-17,株式会社ＤＡＮＩＳＨ　ＩＮＴＥＲＮＡＴＩＯＮＡＬ,,株式会社,茨城県,下妻市,南原３８番地１,,08,210,3040075,,,,,,,2022-08-17,1,,,,,ダーニッシュインターナショナル,0
1263,6080003002848,新規,0,2022-08-17,2022-08-17,合同会社ヴェルフジャパン,,合同会社,静岡県,静岡市葵区,両替町２丁目２－７第二カドデビル４ｂ,,22,101,4200032,,,,,,,2022-08-17,1,,,,,ヴェルフジャパン,0
1265,6080101023481,新規,0,2022-08-17,2022-08-17,湯屋プランニング株式会社,,株式会社,静岡県,富士市,久沢７８６番地の１,,22,210,4190202,,,,,,,2022-08-17,1,,,,,ユヤプランニング,0
1271,6090003002153,新規,0,2022-08-17,2022-08-17,合同会社ディーメド,,合同会社,山梨県,上野原市,上野原４３１３,,19,212,4090112,,,,,,,2022-08-17,1,,,,,,0
1282,6120001248091,新規,0,2022-08-17,2022-08-17,株式会社ＦＯＯＤＳ　ＳＯＲＡ,,株式会社,大阪府,大阪市都島区,高倉町３丁目１番１０号大和ビル２Ｆ,,27,102,5340011,,,,,,,2022-08-17,1,,,,,フーズソラ,0
1283,6120001248224,新規,0,2022-08-17,2022-08-17,ＫＩＭＩ株式会社,,株式会社,大阪府,大阪市中央区,天満橋京町１番２３号サンシステム天満橋ビル９０１,,27,128,5400032,,,,,,,2022-08-17,1,,,,,キミ,0
1284,6120001248249,新規,0,2022-08-17,2022-08-17,株式会社ＬＥＯＰＡＲＤ,,株式会社,大阪府,大阪市中央区,東心斎橋２丁目４－６,,27,128,5420083,,,,,,,2022-08-17,1,,,,,レオパード,0
1286,6120003022197,新規,0,2022-08-17,2022-08-17,合同会社臨床評価支援コンサルタント,,合同会社,大阪府,大阪市都島区,友渕町２丁目７番１７－２０５号,,27,102,5340016,,,,,,,2022-08-17,1,,,,,リンショウヒョウカシエンコンサルタント,0
1287,6120003022271,新規,0,2022-08-17,2022-08-17,合同会社Ｃｏｎｓｃｉｏｕｓ,,合同会社,大阪府,大阪市平野区,長吉長原西１丁目５番３４号,,27,126,5470015,,,,,,,2022-08-17,1,,,,,コンシャス,0
1290,6122001036179,新規,0,2022-08-17,2022-08-17,株式会社くるみホーム,,株式会社,大阪府,八尾市,太子堂２丁目１番４４号,,27,212,5810063,,,,,,,2022-08-17,1,,,,,クルミホーム,0
1294,6130001072417,新規,0,2022-08-17,2022-08-17,紫達斎商貿株式会社,,株式会社,京都府,京都市中京区,西ノ京北壺井町８８－１二条プラザ３０５室,,26,104,6048472,,,,,,,2022-08-17,1,,,,,シタツサイショウボウ,0
1295,6130001072458,新規,0,2022-08-17,2022-08-17,サイドアテンド株式会社,,株式会社,京都府,京都市伏見区,深草西伊達町８７－９２,,26,109,6120876,,,,,,,2022-08-17,1,,,,,サイドアテンド,0
1302,6140001127120,新規,0,2022-08-17,2022-08-17,株式会社あまい総研,,株式会社,兵庫県,神戸市兵庫区,吉田町２丁目７番２号,,28,105,6520872,,,,,,,2022-08-17,1,,,,,アマイソウケン,0
1303,6140003018045,新規,0,2022-08-17,2022-08-17,合同会社エトオト,,合同会社,兵庫県,神戸市中央区,下山手通２丁目１３番３号９階,,28,110,6500011,,,,,,,2022-08-17,1,,,,,エトオト,0
1310,6180001152684,新規,0,2022-08-17,2022-08-17,株式会社ＫＮＹ　ＴＲＡＤＩＮＧ,,株式会社,愛知県,名古屋市熱田区,五番町２０番１９号５番ビル３０１,,23,109,4560057,,,,,,,2022-08-17,1,,,,,ケーエヌワイトレーディング,0
1312,6180003024163,新規,0,2022-08-17,2022-08-17,合同会社カーム,,合同会社,愛知県,一宮市,花池１丁目１２番２号,,23,203,4910914,,,,,,,2022-08-17,1,,,,,カーム,0
1318,6190003004065,新規,0,2022-08-17,2022-08-17,合同会社しょう五,,合同会社,三重県,多気郡明和町,大字大淀甲１６７番地,,24,442,5150302,,,,,,,2022-08-17,1,,,,,ショウゴ,0
1320,6220001024994,新規,0,2022-08-17,2022-08-17,株式会社秀昌,,株式会社,石川県,羽咋郡志賀町,若葉台１９番地１,,17,384,9250375,,,,,,,2022-08-17,1,,,,,ヒデマサ,0
1324,6250003003135,新規,0,2022-08-17,2022-08-17,合同会社Ａｄｄｌｏｖｅｌｙ,,合同会社,山口県,山口市,米屋町２－７ｍｉｒａｉ３６５内,,35,203,7530087,,,,,,,2022-08-17,1,,,,,アドラブリー,0
1333,6290003012850,新規,0,2022-08-17,2022-08-17,合同会社ＴＰＡ,,合同会社,福岡県,福岡市博多区,博多駅前４丁目１４番２３－１３０４号,,40,132,8120011,,,,,,,2022-08-17,1,,,,,ティーピーエー,0
1334,6290003012859,新規,0,2022-08-17,2022-08-17,合同会社ＡＩ　ＫＡＧｏ　Ｐｒｏｊｅｃｔ,,合同会社,福岡県,久留米市,諏訪野町１９８１－６,,40,203,8300037,,,,,,,2022-08-17,1,,,,,アイカゴプロジェクト,0
1337,6300001013031,新規,0,2022-08-17,2022-08-17,株式会社ＧＡＴＥ,,株式会社,佐賀県,伊万里市,立花町１０３９番地１２－３０６,,41,205,8480027,,,,,,,2022-08-17,1,,,,,ゲート,0
1341,6330003009487,新規,0,2022-08-17,2022-08-17,合同会社キッチンカーネットジャパン,,合同会社,熊本県,阿蘇郡西原村,大字布田１０３８番地８,,43,432,8612403,,,,,,,2022-08-17,1,,,,,キッチンカーネットジャパン,0
1342,6340001024974,新規,0,2022-08-17,2022-08-17,株式会社ハートベース,,株式会社,鹿児島県,鹿児島市,甲突町１９番２０－４０１号,,46,201,8920837,,,,,,,2022-08-17,1,,,,,ハートベース,0
1343,6350001017911,新規,0,2022-08-17,2022-08-17,株式会社ｍａｖｉｅ,,株式会社,宮崎県,宮崎市,中央通６番２３号尾関ビル２階,,45,201,8800002,,,,,,,2022-08-17,1,,,,,メヴィ,0
1344,6360001030839,新規,0,2022-08-17,2022-08-17,株式会社レンタルミックス沖縄,,株式会社,沖縄県,島尻郡南風原町,字津嘉山１７８１番地２,,47,350,9011117,,,,,,,2022-08-17,1,,,,,レンタルミックスオキナワ,0
1345,6370001048954,新規,0,2022-08-17,2022-08-17,株式会社ＹＤテック,,株式会社,宮城県,仙台市泉区,南光台７丁目１番８５－５０３号,,04,105,9818003,,,,,,,2022-08-17,1,,,,,ワイディテック,0
1347,6370003005805,新規,0,2022-08-17,2022-08-17,合同会社インディペンデント,,合同会社,宮城県,仙台市泉区,高森３丁目４番地の２８６,,04,105,9813203,,,,,,,2022-08-17,1,,,,,インディペンデント,0
1352,6430001087319,新規,0,2022-08-17,2022-08-17,株式会社ウェルフーズ,,株式会社,北海道,札幌市白石区,東札幌二条４丁目８番３０－４０１号,,01,104,0030002,,,,,,,2022-08-17,1,,,,,ウェルフーズ,0
1357,6470003002230,新規,0,2022-08-17,2022-08-17,合同会社マエダ,,合同会社,香川県,高松市,木太町５０４６番地２１蓮池マンション２０５,,37,201,7600080,,,,,,,2022-08-17,1,,,,,マエダ,0
1370,7010001228797,新規,0,2022-08-17,2022-08-17,株式会社ライドエステート,,株式会社,東京都,千代田区,一番町３番３号ラシーヌ一番町２Ｆ,,13,101,1020082,,,,,,,2022-08-17,1,,,,,ライドエステート,0
1371,7010001228830,新規,0,2022-08-17,2022-08-17,株式会社ＡＧジャパンリゾーツマネジメント,,株式会社,東京都,千代田区,大手町１丁目５番６号大手町タワー,,13,101,1000004,,,,,,,2022-08-17,1,,,,,エージージャパンリゾーツマネジメント,0
1375,7010003038377,新規,0,2022-08-17,2022-08-17,ＴＯＭＯＺ合同会社,,合同会社,東京都,中央区,銀座１丁目１２番４号Ｎ＆ＥＢＬＤ．６Ｆ,,13,102,1040061,,,,,,,2022-08-17,1,,,,,トモズ,0
1376,7010003038419,新規,0,2022-08-17,2022-08-17,合同会社とらとらとら,,合同会社,東京都,文京区,本駒込４丁目３７番７－８０４号,,13,105,1130021,,,,,,,2022-08-17,1,,,,,トラトラトラ,0
1382,7010005035422,新規,0,2022-08-17,2022-08-17,アポロ弁理士法人,,その他の設立登記法人,東京都,千代田区,神田佐久間町１丁目８番４号アルテール秋葉原７０８,,13,101,1010025,,,,,,,2022-08-17,1,,,,,アポロ,0
1390,7010401169063,新規,0,2022-08-17,2022-08-17,株式会社エンラボ,,株式会社,東京都,港区,南青山３丁目１５－９ＭＩＮＯＷＡ表参道３Ｆ－２４０,,13,103,1070062,,,,,,,2022-08-17,1,,,,,エンラボ,0
1391,7010403028267,新規,0,2022-08-17,2022-08-17,合同会社ラポール,,合同会社,東京都,港区,南青山２丁目２－１５,,13,103,1070062,,,,,,,2022-08-17,1,,,,,ラポール,0
1392,7010403028275,新規,0,2022-08-17,2022-08-17,合同会社スターモール,,合同会社,東京都,港区,赤坂１丁目４番１４号ダイヤモンドビル赤坂３０１,,13,103,1070052,,,,,,,2022-08-17,1,,,,,スターモール,0
1401,7010901051431,新規,0,2022-08-17,2022-08-17,株式会社ｅｃｌａｔ,,株式会社,東京都,世田谷区,北沢２丁目２６番２５号,,13,112,1550031,,,,,,,2022-08-17,1,,,,,エクラ,0
1402,7010901051448,新規,0,2022-08-17,2022-08-17,タイムマシーン株式会社,,株式会社,東京都,世田谷区,松原５丁目２７－１０,,13,112,1560043,,,,,,,2022-08-17,1,,,,,タイムマシーン,0
1403,7011001149298,新規,0,2022-08-17,2022-08-17,株式会社ロジマド,,株式会社,東京都,渋谷区,神宮前６丁目２３番４号桑野ビル２階,,13,113,1500001,,,,,,,2022-08-17,1,,,,,ロジマド,0
1408,7011101099880,新規,0,2022-08-17,2022-08-17,無名ホールディングス株式会社,,株式会社,東京都,新宿区,西新宿６丁目１２番４号コイトビル２０４号室,,13,104,1600023,,,,,,,2022-08-17,1,,,,,ムメイホールディングス,0
1409,7011101099906,新規,0,2022-08-17,2022-08-17,株式会社０８１６,,株式会社,東京都,新宿区,西新宿６丁目１５－１,,13,104,1600023,,,,,,,2022-08-17,1,,,,,ゼロハチイチロク,0
1410,7011205002501,新規,0,2022-08-17,2022-08-17,一般社団法人全日本芸能協会,,その他の設立登記法人,東京都,中野区,本町３丁目２９番１３号－１１０２号,,13,114,1640012,,,,,,,2022-08-17,1,,,,,ゼンニホンゲイノウキョウカイ,0
1413,7011301028029,新規,0,2022-08-17,2022-08-17,ＩＭＩ株式会社,,株式会社,東京都,杉並区,本天沼３丁目２８番１０号,,13,115,1670031,,,,,,,2022-08-17,1,,,,,アイエムアイ,0
1418,7011603003679,新規,0,2022-08-17,2022-08-17,合同会社ＴＰＣ,,合同会社,東京都,練馬区,大泉学園町３丁目１７－６０,,13,120,1780061,,,,,,,2022-08-17,1,,,,,ティピーシー,0
1420,7011703003224,新規,0,2022-08-17,2022-08-17,合同会社ｎｏｎｆｉｃｔｉｏｎ,,合同会社,東京都,江戸川区,中葛西５丁目３５番８アパートメントけやき通り中葛西４０３号,,13,123,1340083,,,,,,,2022-08-17,1,,,,,ノンフィクション,0
1422,7011805003196,新規,0,2022-08-17,2022-08-17,一般社団法人ウイグル難民支援基金,,その他の設立登記法人,東京都,足立区,新田３丁目３７番１１－２２９号,,13,121,1230865,,,,,,,2022-08-17,1,,,,,ウイグルナンミンシエンキキン,0
1425,7012401039543,新規,0,2022-08-17,2022-08-17,株式会社ＴＯＫＫＩ　ＷＯＬＦ,,株式会社,東京都,府中市,八幡町３丁目１８番地の５ユニーブル東府中レジデンシャルステート３０２,,13,206,1830016,,,,,,,2022-08-17,1,,,,,トッキウルフ,0
1456,7021003012049,新規,0,2022-08-17,2022-08-17,ＴＫ合同会社,,合同会社,神奈川県,小田原市,東町４丁目１１番４５－２号,,14,206,2500003,,,,,,,2022-08-17,1,,,,,ティーケー,0
1463,7030001149661,新規,0,2022-08-17,2022-08-17,テラノホールディングス株式会社,,株式会社,埼玉県,鶴ヶ島市,富士見２丁目２１番６号,,11,241,3502201,,,,,,,2022-08-17,1,,,,,テラノホールディングス,0
1464,7030001149711,新規,0,2022-08-17,2022-08-17,鶴柱商事株式会社,,株式会社,埼玉県,新座市,新堀３丁目２番２号レヂオンス清瀬２０５,,11,230,3520032,,,,,,,2022-08-17,1,,,,,ツルハシラショウジ,0
1475,7030003019978,新規,0,2022-08-17,2022-08-17,合同会社アークスター,,合同会社,埼玉県,さいたま市西区,大字内野本郷４２４番地４宮原フラット２０６,,11,101,3310045,,,,,,,2022-08-17,1,,,,,アークスター,0
1480,7030005020967,新規,0,2022-08-17,2022-08-17,特定非営利活動法人慈しみ安住の会,,その他の設立登記法人,埼玉県,朝霞市,根岸台２丁目１４番１５号,,11,227,3510005,,,,,,,2022-08-17,1,,,,,イツクシミアンジュウノカイ,0
1488,7040003020646,新規,0,2022-08-17,2022-08-17,合同会社ＰＦＳ,,合同会社,千葉県,市川市,田尻４丁目９番１６号,,12,203,2720014,,,,,,,2022-08-17,1,,,,,ピーエフエス,0
1520,7120001247844,新規,0,2022-08-17,2022-08-17,緋雲株式会社,,株式会社,大阪府,大阪市福島区,福島７丁目４番２２－４０３号,,27,103,5530003,,,,,,,2022-08-17,1,,,,,ハイウン,0
1521,7120001248157,新規,0,2022-08-17,2022-08-17,株式会社ＭＵＳＩＣ　ＣＩＲＣＵＳ,,株式会社,大阪府,大阪市中央区,久太郎町２丁目５－１９トライハードビル,,27,128,5410056,,,,,,,2022-08-17,1,,,,,ミュージックサーカス,0
1522,7120001248215,新規,0,2022-08-17,2022-08-17,株式会社Ｃａｎ　ｆｌｙ,,株式会社,大阪府,大阪市浪速区,塩草１丁目４番１５－１０４号,,27,111,5560024,,,,,,,2022-08-17,1,,,,,キャンフライ,0
1523,7120001248248,新規,0,2022-08-17,2022-08-17,パインウィンドダイニング株式会社,,株式会社,大阪府,大阪市東淀川区,瑞光１丁目３番１９号,,27,114,5330005,,,,,,,2022-08-17,1,,,,,パインウィンドダイニング,0
1526,7120003022287,新規,0,2022-08-17,2022-08-17,合同会社Ｙｅｌｌｏｗ　Ｌｏｂｓｔｅｒ,,合同会社,大阪府,大阪市天王寺区,上本町５丁目５番６号,,27,109,5430001,,,,,,,2022-08-17,1,,,,,イエローロブスター,0
1527,7120003022295,新規,0,2022-08-17,2022-08-17,合同会社ジェイエーラボラトリー,,合同会社,大阪府,大阪市西区,土佐堀１丁目１－４山内ビル３Ｆ,,27,106,5500001,,,,,,,2022-08-17,1,,,,,ジェイエーラボラトリー,0
1528,7120003022312,新規,0,2022-08-17,2022-08-17,リンリンマネジメント合同会社,,合同会社,大阪府,大阪市港区,夕凪２丁目１６－２－３０１,,27,107,5520004,,,,,,,2022-08-17,1,,,,,リンリンマネジメント,0
1529,7120005023143,新規,0,2022-08-17,2022-08-17,一般社団法人国際労働法務協会,,その他の設立登記法人,大阪府,大阪市北区,芝田２丁目８－１１共栄ビル３階３０１号室,,27,127,5300012,,,,,,,2022-08-17,1,,,,,コクサイロウムホウムキョウカイ,0
1538,7130001072416,新規,0,2022-08-17,2022-08-17,雲邦貿易株式会社,,株式会社,京都府,京都市上京区,大宮通一条下る西側梨木町１９５－３－２Ｆ,,26,102,6020000,,,,,,,2022-08-17,1,,,,,ウンポウボウエキ,0
1539,7130001072449,新規,0,2022-08-17,2022-08-17,株式会社テラバース,,株式会社,京都府,京都市左京区,吉田本町３６番地１京都大学国際科学イノベーション棟,,26,103,6068317,,,,,,,2022-08-17,1,,,,,テラバース,0
1540,7130001072457,新規,0,2022-08-17,2022-08-17,株式会社ゼスト・フーズラボ,,株式会社,京都府,京都市伏見区,淀水垂町３３０番地２７,,26,109,6130902,,,,,,,2022-08-17,1,,,,,ゼストフーズラボ,0
1541,7130003008137,新規,0,2022-08-17,2022-08-17,合同会社育,,合同会社,京都府,京都市伏見区,深草願成町１０番地の１,,26,109,6120809,,,,,,,2022-08-17,1,,,,,ハグクミ,0
1549,7140001127128,新規,0,2022-08-17,2022-08-17,ゲラルディーニジャパン株式会社,,株式会社,兵庫県,神戸市中央区,東町１２３番地１貿易ビル９１２,,28,110,6500031,,,,,,,2022-08-17,1,,,,,ゲラルディーニジャパン,0
1550,7140005026284,新規,0,2022-08-17,2022-08-17,一般社団法人チャイルドＢＡＳＥ,,その他の設立登記法人,兵庫県,三田市,上井沢１５６番地１２,,28,219,6691316,,,,,,,2022-08-17,1,,,,,チャイルドベース,0
1555,7160003002649,新規,0,2022-08-17,2022-08-17,合同会社ＲａｉｎＳｍｉｌｅ,,合同会社,滋賀県,大津市,山百合の丘８番２４号,,25,201,5200357,,,,,,,2022-08-17,1,,,,,レインスマイル,0
1561,7180003024170,新規,0,2022-08-17,2022-08-17,合同会社れもん工作所,,合同会社,愛知県,瀬戸市,窯元町１２１番６,,23,204,4890023,,,,,,,2022-08-17,1,,,,,レモンコウサクショ,0
1567,7220001024993,新規,0,2022-08-17,2022-08-17,株式会社エフシーりんく,,株式会社,石川県,金沢市,額谷１丁目８１番地,,17,201,9218145,,,,,,,2022-08-17,1,,,,,エフシーリンク,0
1573,7240001060228,新規,0,2022-08-17,2022-08-17,株式会社ニューガンボタウン,,株式会社,広島県,広島市西区,草津新町２丁目１６番１号,,34,104,7330834,,,,,,,2022-08-17,1,,,,,ニューガンボタウン,0
1575,7260001037158,新規,0,2022-08-17,2022-08-17,四海商事株式会社,,株式会社,岡山県,瀬戸内市,長船町八日市１０７番地２,,33,212,7014272,,,,,,,2022-08-17,1,,,,,シカイショウジ,0
1583,7290001098602,新規,0,2022-08-17,2022-08-17,株式会社ＢＨＳ,,株式会社,福岡県,福岡市南区,大橋１丁目２－１９伊藤ビルＢ１,,40,134,8150033,,,,,,,2022-08-17,1,,,,,ビーエッチエス,0
1584,7290001098643,新規,0,2022-08-17,2022-08-17,株式会社ソエダ農産,,株式会社,福岡県,那珂川市,大字不入道５５４番地,,40,231,8111231,,,,,,,2022-08-17,1,,,,,ソエダノウサン,0
1585,7290005018770,新規,0,2022-08-17,2022-08-17,一般社団法人交通事故治療の窓口,,その他の設立登記法人,福岡県,福岡市東区,香椎駅前１丁目９番６号４階,,40,131,8130013,,,,,,,2022-08-17,1,,,,,コウツウジコチリョウノマドグチ,0
1586,7290801028824,新規,0,2022-08-17,2022-08-17,株式会社高木産業,00127547,株式会社,福岡県,北九州市小倉北区,緑ケ丘１丁目１５番１４号,,40,106,8030827,,,,,,,2022-08-17,1,,,,,タカギサンギョウ,0
1587,7310001017996,新規,0,2022-08-17,2022-08-17,野崎産業汽船株式会社,,株式会社,長崎県,佐世保市,早岐１丁目６番３１号２階,,42,202,8593215,,,,,,,2022-08-17,1,,,,,ノザキサンギョウキセン,0
1593,7330005010541,新規,0,2022-08-17,2022-08-17,土地家屋調査士法人田尻事務所,,その他の設立登記法人,熊本県,熊本市東区,小峯３丁目１番１８号,,43,102,8620933,,,,,,,2022-08-17,1,,,,,タジリジムショ,0
1599,7360001030846,新規,0,2022-08-17,2022-08-17,株式会社ｄｕｐｌｅｘ,,株式会社,沖縄県,那覇市,字天久７６２番地１４クリアスビル２－Ｂ２,,47,201,9000005,,,,,,,2022-08-17,1,,,,,デュプレックス,0
1603,7370001048953,新規,0,2022-08-17,2022-08-17,株式会社栄伸,,株式会社,宮城県,黒川郡大和町,落合相川字塚越７６番地,00127544,04,421,9813404,,,,,,,2022-08-17,1,,,,,エイシン,0
1604,7370001048961,新規,0,2022-08-17,2022-08-17,東北システムワークス株式会社,,株式会社,宮城県,石巻市,鹿又字学校前７５－９,,04,202,9861111,,,,,,,2022-08-17,1,,,,,トウホクシステムワークス,0
1606,7410001013259,新規,0,2022-08-17,2022-08-17,株式会社Ｍｅｔａ　Ａｋｉｔａ,,株式会社,秋田県,秋田市,横森２丁目１３－１８,,05,201,0100044,,,,,,,2022-08-17,1,,,,,メタアキタ,0
1612,7430001087318,新規,0,2022-08-17,2022-08-17,澤株式会社,,株式会社,北海道,札幌市清田区,里塚二条３丁目３番３８号,,01,110,0040802,,,,,,,2022-08-17,1,,,,,サワ,0
1613,7430003014195,新規,0,2022-08-17,2022-08-17,合同会社ｎｏｒｔｈ２２ＬＬＣ,,合同会社,北海道,札幌市北区,屯田三条２丁目１番１７号アドマーニＤ２号,,01,102,0020853,,,,,,,2022-08-17,1,,,,,ノースツーツー,0
1614,7430005014532,新規,0,2022-08-17,2022-08-17,一般社団法人相続包括支援センター,,その他の設立登記法人,北海道,札幌市東区,北十二条東７丁目１番３５号,,01,103,0650012,,,,,,,2022-08-17,1,,,,,ソウゾクホウカツシエンセンター,0
1618,7500001024404,新規,0,2022-08-17,2022-08-17,株式会社ユキ工業,,株式会社,愛媛県,西条市,樋之口３６９番地８,,38,206,7930043,,,,,,,2022-08-17,1,,,,,ユキコウギョウ,0
1620,7700150110686,新規,0,2022-08-17,2022-07-04,舞踊女方の会,,その他,東京都,杉並区,高円寺北１丁目１０－１１,,13,115,1660002,,,,,,,2022-07-04,1,,,,,ブヨウオンナガタノカイ,0
1627,8010001228846,新規,0,2022-08-17,2022-08-17,株式会社メディックスアーム千葉,,株式会社,東京都,千代田区,神田淡路町１丁目１番１号,,13,101,1010063,,,,,,,2022-08-17,1,,,,,メディックスアームチバ,0
1628,8010001228879,新規,0,2022-08-17,2022-08-17,ＰＥＲＥＧＲＩＮＥ　ＣＯＮＳＵＬＴＩＮＧ株式会社,,株式会社,東京都,中央区,京橋１丁目１４番９号依田忠ビル５階株式会社えいえん堂内,,13,102,1040031,,,,,,,2022-08-17,1,,,,,ペレグリンコンサルティング,0
1629,8010003038401,新規,0,2022-08-17,2022-08-17,合同会社ＹＤＫ,,合同会社,東京都,文京区,後楽２丁目５番１－１４１３号,,13,105,1120004,,,,,,,2022-08-17,1,,,,,ワイディーケー,0
1631,8010005035446,新規,0,2022-08-17,2022-08-17,一般社団法人ＨＮＯ,,その他の設立登記法人,東京都,千代田区,丸の内３丁目１番１号東京共同会計事務所内,,13,101,1000005,,,,,,,2022-08-17,1,,,,,エイチエヌオー,0
1642,8010401169038,新規,0,2022-08-17,2022-08-17,株式会社ＲｅｍｉｔＡｉｄ,,株式会社,東京都,港区,北青山３丁目３－１３共和五番館２階ＧｕｉｌｄＡｏｙａｍａ内,,13,103,1070061,,,,,,,2022-08-17,1,,,,,レミットエイド,0
1643,8010401169137,新規,0,2022-08-17,2022-08-17,ＡＩＸＥ株式会社,,株式会社,東京都,港区,麻布十番３丁目８番６－１２０４号,,13,103,1060045,,,,,,,2022-08-17,1,,,,,アイクシィ,0
1646,8010403028118,新規,0,2022-08-17,2022-08-17,合同会社佐藤・石田国際会計パートナーズ,,合同会社,東京都,港区,港南１丁目９－３６アレア品川１３階,,13,103,1080075,,,,,,,2022-08-17,1,,,,,サトウイシダコクサイカイケイパートナーズ,0
1652,8010801033207,新規,0,2022-08-17,2022-08-17,株式会社ケーフィックス,,株式会社,東京都,大田区,久が原５丁目２２番１３号,,13,111,1460085,,,,,,,2022-08-17,1,,,,,ケーフィックス,0
1655,8010901051414,新規,0,2022-08-17,2022-08-17,イーノ株式会社,,株式会社,東京都,世田谷区,野沢４丁目２番１０号,,13,112,1540003,,,,,,,2022-08-17,1,,,,,イーノ,0
1656,8010901051430,新規,0,2022-08-17,2022-08-17,株式会社Ｔａｋａｈｉｒｏ　Ｓｔｙｌｅ,,株式会社,東京都,世田谷区,祖師谷５丁目２１番９号,,13,112,1570072,,,,,,,2022-08-17,1,,,,,タカヒロスタイル,0
1658,8011001149248,新規,0,2022-08-17,2022-08-17,株式会社チョク,,株式会社,東京都,渋谷区,道玄坂１丁目１０番８号渋谷道玄坂東急ビル２Ｆ－Ｃ,,13,113,1500043,,,,,,,2022-08-17,1,,,,,チョク,0
1659,8011003015225,新規,0,2022-08-17,2022-08-17,合同会社夢と希望,,合同会社,東京都,渋谷区,道玄坂１丁目１０番８号渋谷道玄坂東急ビル２Ｆ－Ｃ,,13,113,1500043,,,,,,,2022-08-17,1,,,,,ユメトキボウ,0
1665,8011301028028,新規,0,2022-08-17,2022-08-17,建築想像株式会社,,株式会社,東京都,杉並区,浜田山４丁目１８番２７号,,13,115,1680065,,,,,,,2022-08-17,1,,,,,ケンチクソウゾウ,0
1669,8011502009966,新規,0,2022-08-17,2022-08-17,東京丸万有限会社,,有限会社,東京都,荒川区,東尾久３丁目３６番７号,,13,118,1160012,,,,,,,2022-08-17,1,,,,,,0
1676,8011703003231,新規,0,2022-08-17,2022-08-17,合同会社Ｍ‐ライフ・コンサルティング,,合同会社,東京都,江戸川区,北小岩６丁目１３番４号コスモビル３階,,13,123,1330051,,,,,,,2022-08-17,1,,,,,エムライフコンサルティング,0
1680,8012401039542,新規,0,2022-08-17,2022-08-17,株式会社利九利,,株式会社,東京都,多摩市,落合１丁目２４番地の１ルミエール４０６,,13,224,2060033,,,,,,,2022-08-17,1,,,,,リクリ,0
1683,8012803002858,新規,0,2022-08-17,2022-08-17,エステートＴＡＯＫＡ合同会社,,合同会社,東京都,国分寺市,東戸倉２丁目２４番４号,,13,214,1850002,,,,,,,2022-08-17,1,,,,,エステートタオカ,0
1706,8030001149586,新規,0,2022-08-17,2022-08-17,株式会社ＨＯＵＳＩＮＧ　ＭＡＲＫＥＴ,,株式会社,埼玉県,富士見市,ふじみ野西１丁目１７番地８カーサ・アンジェロふじみ野３０１,,11,235,3540035,,,,,,,2022-08-17,1,,,,,ハウジングマーケット,0
1712,8030003019928,新規,0,2022-08-17,2022-08-17,ＫＪプロデュース合同会社,,合同会社,埼玉県,戸田市,大字新曽４２３番地,,11,224,3350021,,,,,,,2022-08-17,1,,,,,ケイジェイプロデュース,0
1715,8040001124679,新規,0,2022-08-17,2022-08-17,株式会社ＪＳ,,株式会社,千葉県,市川市,欠真間１丁目９番１５号,,12,203,2720142,,,,,,,2022-08-17,1,,,,,ジェイエス,0
1716,8040001124695,新規,0,2022-08-17,2022-08-17,株式会社ｒｏｂｉｎ,,株式会社,千葉県,船橋市,坪井町１５９番地１１,,12,204,2740062,,,,,,,2022-08-17,1,,,,,ロビン,0
1718,8040003020612,新規,0,2022-08-17,2022-08-17,ソラティオ不動産合同会社,,合同会社,千葉県,木更津市,永井作１丁目６番２４号,,12,206,2920053,,,,,,,2022-08-17,1,,,,,ソラティオフドウサン,0
1723,8050001051559,新規,0,2022-08-17,2022-08-17,株式会社ユナイト,,株式会社,茨城県,日立市,田尻町２丁目７１番,,08,202,3191416,,,,,,,2022-08-17,1,,,,,ユナイト,0
1725,8050003006775,新規,0,2022-08-17,2022-08-17,合同会社ａｃｒｏｗｅｂ,,合同会社,茨城県,水戸市,見川２丁目５０－７ＴＯＭＩ５０Ａ２Ｆ,,08,201,3100912,,,,,,,2022-08-17,1,,,,,アクロウェブ,0
1727,8060003004183,新規,0,2022-08-17,2022-08-17,卓元テクノロジー合同会社,,合同会社,栃木県,宇都宮市,若松原２丁目１０番６号１０１号,,09,201,3210139,,,,,,,2022-08-17,1,,,,,タクゲンテクノロジー,0
1728,8060003004191,新規,0,2022-08-17,2022-08-17,ＤＨ　ＥＮＴＥＲＰＲＩＳＥＳ合同会社,,合同会社,栃木県,下都賀郡壬生町,大字藤井１６００番地１,,09,361,3210221,,,,,,,2022-08-17,1,,,,,ディーエイチエンタープライセス,0
1740,8100003006662,新規,0,2022-08-17,2022-08-17,合同会社エラノラ,,合同会社,長野県,諏訪市,城南２丁目２５２６番地１,,20,206,3920017,,,,,,,2022-08-17,1,,,,,エラノラ,0
1741,8100005012907,新規,0,2022-08-17,2022-08-17,一般社団法人ＤＸＶＣ,,その他の設立登記法人,長野県,東御市,滋野乙２４９３番地１,,20,219,3890512,,,,,,,2022-08-17,1,,,,,ディーエックスヴィシー,0
1752,8120001248040,新規,0,2022-08-17,2022-08-17,建平株式会社,,株式会社,大阪府,大阪市中央区,島之内２丁目１１番６号,,27,128,5420082,,,,,,,2022-08-17,1,,,,,ケンペイ,0
1753,8120001248164,新規,0,2022-08-17,2022-08-17,プラナリアエンターテイメント株式会社,,株式会社,大阪府,大阪市中央区,日本橋２丁目１６－１０－６０１号室,,27,128,5420073,,,,,,,2022-08-17,1,,,,,プラナリアエンターテイメント,0
1754,8120001248206,新規,0,2022-08-17,2022-08-17,株式会社ケージェーワイ,,株式会社,大阪府,寝屋川市,寝屋１丁目２９番１－５０７号,,27,215,5720801,,,,,,,2022-08-17,1,,,,,ケージェーワイ,0
1755,8120001248255,新規,0,2022-08-17,2022-08-17,株式会社ファンタジスタ,,株式会社,大阪府,大阪市平野区,瓜破西１丁目８番１０－９０４号,,27,126,5470025,,,,,,,2022-08-17,1,,,,,ファンタジスタ,0
1767,8140001127127,新規,0,2022-08-17,2022-08-17,株式会社山常,,株式会社,兵庫県,尼崎市,潮江４丁目４番１号,,28,202,6610976,,,,,,,2022-08-17,1,,,,,ヤマツネ,0
1769,8140003018043,新規,0,2022-08-17,2022-08-17,合同会社エーツウ,,合同会社,兵庫県,加東市,東古瀬１３５番地２,,28,228,6731423,,,,,,,2022-08-17,1,,,,,エーツウ,0
1778,8180001152591,新規,0,2022-08-17,2022-08-17,株式会社角屋,,株式会社,愛知県,名古屋市南区,西又兵ヱ町４丁目３１番地の１,,23,112,4570835,,,,,,,2022-08-17,1,,,,,カドヤ,0
1779,8180001152682,新規,0,2022-08-17,2022-08-17,株式会社日心月歩,,株式会社,愛知県,名古屋市名東区,高針１丁目１５２０番地,,23,115,4650061,,,,,,,2022-08-17,1,,,,,ニッシンゲッポ,0
1789,8180305009380,新規,0,2022-08-17,2022-08-17,一般社団法人ゆるしいろ,,その他の設立登記法人,愛知県,豊田市,明和町３丁目１番地１３,,23,211,4710825,,,,,,,2022-08-17,1,,,,,ユルシイロ,0
1791,8190001029698,新規,0,2022-08-17,2022-08-17,Ｉ＆Ａホールディングス株式会社,,株式会社,三重県,熊野市,井戸町４４６番地２３,,24,212,5194324,,,,,,,2022-08-17,1,,,,,アイアンドエーホールディングス,0
1795,8200005013382,新規,0,2022-08-17,2022-08-17,特定非営利活動法人なせばなる,,その他の設立登記法人,岐阜県,岐阜市,金宝町４丁目２番地,,21,201,5008847,,,,,,,2022-08-17,1,,,,,ナセバナル,0
1808,8290005018778,新規,0,2022-08-17,2022-08-17,一般社団法人スマイリージャパン,,その他の設立登記法人,福岡県,糟屋郡粕屋町,大字大隈１０８番地６,,40,349,8112302,,,,,,,2022-08-17,1,,,,,スマイリージャパン,0
1812,8330001030014,新規,0,2022-08-17,2022-08-17,株式会社はっこうファーム,,株式会社,熊本県,宇土市,栗崎町１０９９番地３,,43,211,8690425,,,,,,,2022-08-17,1,,,,,ハッコウファーム,0
1814,8340003003883,新規,0,2022-08-17,2022-08-17,合同会社光栄,,合同会社,鹿児島県,鹿児島市,油須木町５２０番地,,46,201,8911104,,,,,,,2022-08-17,1,,,,,コウエイ,0
1815,8360001030829,新規,0,2022-08-17,2022-08-17,株式会社琉測システム互,,株式会社,沖縄県,うるま市,字赤道３０３番地８,,47,213,9042245,,,,,,,2022-08-17,1,,,,,リュウソクシステムゴ,0
1816,8360001030837,新規,0,2022-08-17,2022-08-17,株式会社ｍａｒｏｗｅ,,株式会社,沖縄県,国頭郡本部町,字瀬底２５９３番地,,47,308,9050227,,,,,,,2022-08-17,1,,,,,マロウェ,0
1817,8360003012239,新規,0,2022-08-17,2022-08-17,舞福合同会社,,合同会社,沖縄県,那覇市,寄宮１丁目１２番５号コーポなかよし２－Ａ,,47,201,9020064,,,,,,,2022-08-17,1,,,,,マイフク,0
1819,8370001048952,新規,0,2022-08-17,2022-08-17,株式会社ダイコー,,株式会社,宮城県,東松島市,矢本字上新沼１２番地２,,04,214,9810503,,,,,,,2022-08-17,1,,,,,ダイコー,0
1826,8410003003694,新規,0,2022-08-17,2022-08-17,合同会社秋田林業,,合同会社,秋田県,由利本荘市,御門２３５番地５,,05,210,0150861,,,,,,,2022-08-17,1,,,,,アキタリンギョウ,0
1830,8430001087317,新規,0,2022-08-17,2022-08-17,ななふく株式会社,,株式会社,北海道,札幌市南区,石山二条３丁目７番１号,,01,106,0050842,,,,,,,2022-08-17,1,,,,,ナナフク,0
1833,8430003014194,新規,0,2022-08-17,2022-08-17,ｂｉｎｃａ合同会社,,合同会社,北海道,虻田郡倶知安町,字山田１８９－１３,,01,400,0440081,,,,,,,2022-08-17,1,,,,,ビンカ,0
1848,9010001228507,新規,0,2022-08-17,2022-08-17,株式会社Ｃｕｐｉｄ,,株式会社,東京都,中央区,湊１丁目１２－１０八丁堀リバーゲート３階,,13,102,1040043,,,,,,,2022-08-17,1,,,,,キューピッド,0
1849,9010001228829,新規,0,2022-08-17,2022-08-17,株式会社ＦＬＯＷ,,株式会社,東京都,中央区,月島３丁目３１番７－７０２号,,13,102,1040052,,,,,,,2022-08-17,1,,,,,フロー,0
1864,9010401169029,新規,0,2022-08-17,2022-08-17,ハービット株式会社,,株式会社,東京都,港区,南青山２丁目２番１５号,,13,103,1070062,,,,,,,2022-08-17,1,,,,,ハービット,0
1865,9010401169061,新規,0,2022-08-17,2022-08-17,ＡＨｉｓ株式会社,,株式会社,東京都,港区,浜松町２丁目２番１５号浜松町ダイヤビル２Ｆ,,13,103,1050013,,,,,,,2022-08-17,1,,,,,アヒス,0
1866,9010401169144,新規,0,2022-08-17,2022-08-17,ピカ株式会社,,株式会社,東京都,港区,元麻布２丁目１４番９－１０２号,,13,103,1060046,,,,,,,2022-08-17,1,,,,,ピカ,0
1867,9010401169152,新規,0,2022-08-17,2022-08-17,ＭＹエステート株式会社,,株式会社,東京都,港区,六本木５丁目１４番２３号ホーマットコンコード５０１,,13,103,1060032,,,,,,,2022-08-17,1,,,,,エムワイエステート,0
1878,9010903007586,新規,0,2022-08-17,2022-08-17,ケイズプラン合同会社,,合同会社,東京都,世田谷区,砧４丁目２７番９号砧ガーデンハイツ２０１号,,13,112,1570073,,,,,,,2022-08-17,1,,,,,ケイズプラン,0
1879,9011001149305,新規,0,2022-08-17,2022-08-17,株式会社Ｄｅｓｉｇｎ　Ｂｏｌｔ,,株式会社,東京都,渋谷区,渋谷１丁目１５番１２号２０４,,13,113,1500002,,,,,,,2022-08-17,1,,,,,デザインボルト,0
1881,9011003015249,新規,0,2022-08-17,2022-08-17,合同会社勇武,,合同会社,東京都,渋谷区,神宮前６丁目２３番４号桑野ビル２階,,13,113,1500001,,,,,,,2022-08-17,1,,,,,ユウブ,0
1882,9011005009678,新規,0,2022-08-17,2022-08-17,一般社団法人防災訓練士協会,,その他の設立登記法人,東京都,目黒区,柿の木坂１丁目７番９号,,13,110,1520022,,,,,,,2022-08-17,1,,,,,ボウサイクンレンシキョウカイ,0
1887,9011303004496,新規,0,2022-08-17,2022-08-17,合同会社ルピナス,,合同会社,東京都,杉並区,井草３丁目２６番１０号,,13,115,1670021,,,,,,,2022-08-17,1,,,,,ルピナス,0
1893,9011601026184,新規,0,2022-08-17,2022-08-17,ドッグリサーチ株式会社,,株式会社,東京都,練馬区,春日町５丁目３３－２９かすがコーポラス１０９,,13,120,1790074,,,,,,,2022-08-17,1,,,,,ドッグリサーチ,0
1898,9011801041149,新規,0,2022-08-17,2022-08-17,キコサム・ジャパン株式会社,,株式会社,東京都,葛飾区,亀有４丁目１３番３－２０４号,,13,122,1250061,,,,,,,2022-08-17,1,,,,,キコサムジャパン,0
1918,9021003012047,新規,0,2022-08-17,2022-08-17,ＡＯＧコンサルティング合同会社,,合同会社,神奈川県,相模原市中央区,上矢部１丁目１６番１３号,,14,152,2520201,,,,,,,2022-08-17,1,,,,,エーオージーコンサルティング,0
1932,9030001149692,新規,0,2022-08-17,2022-08-17,株式会社アールアンドティー,,株式会社,埼玉県,さいたま市岩槻区,南平野５丁目１０番地６,,11,110,3390051,,,,,,,2022-08-17,1,,,,,アールアンドティー,0
1933,9030001149701,新規,0,2022-08-17,2022-08-17,株式会社黒岩商事,,株式会社,埼玉県,さいたま市見沼区,東大宮４丁目５２番地９,,11,104,3370051,,,,,,,2022-08-17,1,,,,,クロイワショウジ,0
1938,9030005020965,新規,0,2022-08-17,2022-08-17,一般社団法人仁福会,,その他の設立登記法人,埼玉県,川越市,野田町２丁目４番地２４,,11,201,3501115,,,,,,,2022-08-17,1,,,,,ニンフクカイ,0
1942,9040001124694,新規,0,2022-08-17,2022-08-17,株式会社イマショウ,,株式会社,千葉県,千葉市花見川区,幕張町６丁目１１７番６号中台ビル１Ｆ,,12,102,2620032,,,,,,,2022-08-17,1,,,,,イマショウ,0
1947,9040003020636,新規,0,2022-08-17,2022-08-17,合同会社佐藤商会,,合同会社,千葉県,野田市,東宝珠花２９２番地,,12,208,2700226,,,,,,,2022-08-17,1,,,,,サトウショウカイ,0
1948,9040003020644,新規,0,2022-08-17,2022-08-17,ＳＨＩＮ　ＥＮＴＥＲＰＲＩＳＥＳ合同会社,,合同会社,千葉県,千葉市若葉区,小倉町１７１７番地,,12,104,2640007,,,,,,,2022-08-17,1,,,,,シンエンタープライズ,0
1952,9060001035188,新規,0,2022-08-17,2022-08-17,株式会社一楽,,株式会社,栃木県,大田原市,南金丸１１５８番地７,,09,210,3240012,,,,,,,2022-08-17,1,,,,,イチラク,0
1955,9060003004190,新規,0,2022-08-17,2022-08-17,ＹＯＨＡＮ　ＥＸＰＯＲＴＳ合同会社,,合同会社,栃木県,栃木市,岩舟町新里１３０３番地２、２５号,,09,203,3294316,,,,,,,2022-08-17,1,,,,,ヨハンエクスポーツ,0
1956,9060005010006,新規,0,2022-08-17,2022-08-17,一般社団法人Ｃｌｏｖｅｒ,,その他の設立登記法人,栃木県,那須塩原市,三区町６５９番地１１０,,09,213,3292745,,,,,,,2022-08-17,1,,,,,クローバー,0
1965,9070005010021,新規,0,2022-08-17,2022-08-17,特定非営利活動法人アニマルホーム・心愛,,その他の設立登記法人,群馬県,館林市,本町２丁目１４番２号,,10,207,3740024,,,,,,,2022-08-17,1,,,,,アニマルホームココア,0
1973,9110001036899,新規,0,2022-08-17,2022-08-17,株式会社黒須鑑定,,株式会社,新潟県,新潟市西区,立仏１４３１,,15,107,9501103,,,,,,,2022-08-17,1,,,,,クロスカンテイ,0
1981,9120001248122,新規,0,2022-08-17,2022-08-17,株式会社メディア・ディレクション,,株式会社,大阪府,大阪市北区,西天満５丁目１３番１６号,,27,127,5300047,,,,,,,2022-08-17,1,,,,,メディアディレクション,0
1982,9120001248163,新規,0,2022-08-17,2022-08-17,Ｍａｋｅ　Ｗｏｒｄ株式会社,,株式会社,大阪府,大阪市西区,新町１丁目１３番１７号再生ビル新町３Ｆ,,27,106,5500013,,,,,,,2022-08-17,1,,,,,メイクワード,0
1983,9120001248213,新規,0,2022-08-17,2022-08-17,株式会社エイトディー,,株式会社,大阪府,大阪市東淀川区,東中島１丁目１７－５－３４１号,,27,114,5330033,,,,,,,2022-08-17,1,,,,,エイトディー,0
1984,9120001248238,新規,0,2022-08-17,2022-08-17,株式会社Ｔｈｉｎｋｅｒ,,株式会社,大阪府,大阪市中央区,久太郎町４丁目１番３号大阪センタービル６Ｆ,,27,128,5410056,,,,,,,2022-08-17,1,,,,,シンカー,0
1987,9120003022302,新規,0,2022-08-17,2022-08-17,Ｇｏｍａ　ｇｌｏｂａｌ合同会社,,合同会社,大阪府,大阪市淀川区,新北野３丁目１１番１８号サンプラザ新北野Ｃ棟５０１号,,27,123,5320025,,,,,,,2022-08-17,1,,,,,ゴマグローバル,0
1993,9120101066110,新規,0,2022-08-17,2022-08-17,株式会社Ｎｏｕｖｅｌｌｅ’ｃ,,株式会社,大阪府,堺市堺区,三国ヶ丘御幸通１０番地,,27,141,5900028,,,,,,,2022-08-17,1,,,,,ヌーベルク,0
1997,9122001036168,新規,0,2022-08-17,2022-08-17,株式会社ＭＳＹホールディングス,,株式会社,大阪府,東大阪市,小若江２丁目１６番１０号,,27,227,5770818,,,,,,,2022-08-17,1,,,,,エムエスワイホールディングス,0
1999,9130001072430,新規,0,2022-08-17,2022-08-17,株式会社ＲＩＳＥＮ,,株式会社,京都府,向日市,物集女町北ノ口１００番地の２９,,26,208,6170001,,,,,,,2022-08-17,1,,,,,ライゼン,0
2002,9130005016549,新規,0,2022-08-17,2022-08-17,一般財団法人ＷＡＤＯＵ,,その他の設立登記法人,京都府,京都市北区,鷹峯上ノ町７,,26,101,6038446,,,,,,,2022-08-17,1,,,,,ワドウ,0
2006,9140001127134,新規,0,2022-08-17,2022-08-17,エイトワイ保険サービス株式会社,,株式会社,兵庫県,加古川市,平岡町つつじ野１－７４,,28,210,6750105,,,,,,,2022-08-17,1,,,,,エイトワイホケンサービス,0
2011,9140003018034,新規,0,2022-08-17,2022-08-17,合同会社プラスワン,,合同会社,兵庫県,宝塚市,山手台東３丁目２５番５号,,28,214,6650887,,,,,,,2022-08-17,1,,,,,プラスワン,0
2012,9140003018042,新規,0,2022-08-17,2022-08-17,合同会社アイドプランニング,,合同会社,兵庫県,尼崎市,梶ケ島２番１２号,,28,202,6600821,,,,,,,2022-08-17,1,,,,,アイドプランニング,0
2017,9180001152665,新規,0,2022-08-17,2022-08-17,株式会社Ｍｙ　Ｆｌａｉｒ,,株式会社,愛知県,常滑市,塩田町２丁目１３５番地,,23,216,4790813,,,,,,,2022-08-17,1,,,,,マイフレア,0
2023,9200005013381,新規,0,2022-08-17,2022-08-17,ＩＭＰ協同組合,,その他の設立登記法人,岐阜県,大垣市,日の出町１丁目１番地,,21,202,5030916,,,,,,,2022-08-17,1,,,,,アイエムピー,0
2026,9230005009253,新規,0,2022-08-17,2022-08-17,特定非営利活動法人さくらの縁,,その他の設立登記法人,富山県,砺波市,矢木８６番地,,16,208,9391317,,,,,,,2022-08-17,1,,,,,サクラノエン,0
2030,9240003005757,新規,0,2022-08-17,2022-08-17,ｔｏｍ’ｓ　ｃｏｌｌｅｃｔｉｏｎ合同会社,,合同会社,広島県,広島市安佐南区,八木９丁目９－５０－１１フローレンス八木駅前３０７,,34,105,7310101,,,,,,,2022-08-17,1,,,,,トムズコレクション,0
2038,9290001098633,新規,0,2022-08-17,2022-08-17,ネクストポケット株式会社,,株式会社,福岡県,福岡市博多区,博多駅南５丁目７番３２号,,40,132,8120016,,,,,,,2022-08-17,1,,,,,ネクストポケット,0
2042,9300001013037,新規,0,2022-08-17,2022-08-17,株式会社ｋｎｏｔ‐ｄｅｓｉｇｎ,,株式会社,佐賀県,佐賀市,今宿町７番１号,,41,201,8400052,,,,,,,2022-08-17,1,,,,,ノットデザイン,0
2051,9340003003882,新規,0,2022-08-17,2022-08-17,合同会社ミモザ,,合同会社,鹿児島県,阿久根市,赤瀬川１１８８番地１３中村アパートＢ棟１０５号,,46,206,8991611,,,,,,,2022-08-17,1,,,,,ミモザ,0
2059,9430001087308,新規,0,2022-08-17,2022-08-17,株式会社エム・ネクスト,,株式会社,北海道,札幌市白石区,北郷六条９丁目７－２４,,01,104,0030836,,,,,,,2022-08-17,1,,,,,エムネクスト,0
2066,9700150110965,新規,0,2022-08-17,2022-07-26,ＷＡＫＡＴＥ能楽っ隊,,その他,福岡県,福岡市中央区,大濠公園１－５（大濠公園能楽堂内）,,40,133,8100051,,,,,,,2022-07-26,1,,,,,ワカテノウガクツタイ,0
