sequenceNumber,corporateNumber,process,correct,updateDate,changeDate,name,nameImageId,kind,prefectureName,cityName,streetNumber,addressImageId,prefectureCode,cityCode,postCode,addressOutside,addressOutsideImageId,closeDate,closeCause,successorCorporateNumber,changeCause,assignmentDate,latest,enName,enPrefectureName,enCityName,enAddressOutside,furigana,hihyoji
7,1010001220033,新規,0,2021-08-26,2021-08-26,株式会社ＢｅＥｌｐｉｓ,,株式会社,東京都,中央区,銀座１丁目２２番１１号,,13,102,1040061,,,,,,,2021-08-26,1,,,,,ビーエルピス,0
8,1010001220487,新規,0,2021-08-26,2021-08-26,株式会社Ｎａ　ｆｏｔｉｓｏｕｎ,,株式会社,東京都,千代田区,西神田２丁目４－１２西神田イノセビル１階,,13,101,1010065,,,,,,,2021-08-26,1,,,,,ナフォティソン,0
9,1010001220652,新規,0,2021-08-26,2021-08-26,ＦＥＦ創薬株式会社,,株式会社,東京都,文京区,本郷１丁目３５番２４号本郷真砂坂ハイツ６０４号,,13,105,1130033,,,,,,,2021-08-26,1,,,,,エフイーエフソウヤク,0
10,1010001220685,新規,0,2021-08-26,2021-08-26,株式会社べアックス,,株式会社,東京都,千代田区,永田町２丁目４番３号永田町ビル９階,,13,101,1000014,,,,,,,2021-08-26,1,,,,,ベアックス,0
11,1010001220719,新規,0,2021-08-26,2021-08-26,株式会社ＳＨＩＰ第２１５号,,株式会社,東京都,千代田区,丸の内２丁目７番２号,,13,101,1000005,,,,,,,2021-08-26,1,,,,,エスエイチアイピーダイニヒャクジュウゴゴウ,0
12,1010001220727,新規,0,2021-08-26,2021-08-26,株式会社ＳＨＩＰ第２２３号,,株式会社,東京都,千代田区,丸の内２丁目７番２号,,13,101,1000005,,,,,,,2021-08-26,1,,,,,エスエイチアイピーダイニヒャクニジュウサンゴウ,0
13,1010001220735,新規,0,2021-08-26,2021-08-26,株式会社ＳＨＩＰ第２３１号,,株式会社,東京都,千代田区,丸の内２丁目７番２号,,13,101,1000005,,,,,,,2021-08-26,1,,,,,エスエイチアイピーダイニヒャクサンジュウイチゴウ,0
18,1010005033844,新規,0,2021-08-26,2021-08-26,一般社団法人未来ＡＩ医療機構,,その他の設立登記法人,東京都,千代田区,平河町１丁目５番１５号ＶＯＬＴ平河町１００２,,13,101,1020093,,,,,,,2021-08-26,1,,,,,,0
19,1010101014830,新規,0,2021-08-26,2021-08-26,山口工業株式会社,,株式会社,東京都,八王子市,暁町１丁目４１番６号,,13,201,1920043,,,,,,,2021-08-26,1,,,,,ヤマグチコウギョウ,0
20,1010103001760,新規,0,2021-08-26,2021-08-26,エスアンドエヌ合同会社,,合同会社,東京都,八王子市,横川町１１１１番地１６,,13,201,1930823,,,,,,,2021-08-26,1,,,,,エスアンドエヌ,0
24,1010401162255,新規,0,2021-08-26,2021-08-26,株式会社Ｔｈｒｅｅ　Ｔｒｅｅｚ,,株式会社,東京都,港区,西麻布２丁目２４番１９号レジェーロ西麻布１０２,,13,103,1060031,,,,,,,2021-08-26,1,,,,,スリーツリーズ,0
25,1010401162288,新規,0,2021-08-26,2021-08-26,株式会社スタジオエイト,,株式会社,東京都,港区,赤坂２丁目１７番４４号,,13,103,1070052,,,,,,,2021-08-26,1,,,,,スタジオエイト,0
26,1010401162321,新規,0,2021-08-26,2021-08-26,Ｊ・Ｉ・ＢＲＩＤＧＥ株式会社,,株式会社,東京都,港区,西新橋２丁目１９番４号,,13,103,1050003,,,,,,,2021-08-26,1,,,,,ジェイアイブリッジ,0
28,1010405020137,新規,0,2021-08-26,2021-08-26,ＪＵＳＤＡ堺ロジスティック特定目的会社,,その他の設立登記法人,東京都,港区,東新橋１丁目５番２号汐留シティセンター,,13,103,1050021,,,,,,,2021-08-26,1,,,,,ジャスダサカイロジスティック,0
40,1010901049316,新規,0,2021-08-26,2021-08-26,ツクルキャリア株式会社,,株式会社,東京都,世田谷区,瀬田４丁目２３番１７号,,13,112,1580095,,,,,,,2021-08-26,1,,,,,ツクルキャリア,0
41,1010901049324,新規,0,2021-08-26,2021-08-26,株式会社リオネルプランニング,,株式会社,東京都,世田谷区,瀬田４丁目２８番１２－５０１号,,13,112,1580095,,,,,,,2021-08-26,1,,,,,リオネルプランニング,0
49,1011001142507,新規,0,2021-08-26,2021-08-26,ＡＲＴＢＲＯＷ株式会社,,株式会社,東京都,渋谷区,神宮前５丁目６番１３号ヴァイス表参道２Ｆ,,13,113,1500001,,,,,,,2021-08-26,1,,,,,アートブロー,0
50,1011001142515,新規,0,2021-08-26,2021-08-26,株式会社ＴＡＭＡＳＴＡＧＥ,,株式会社,東京都,渋谷区,恵比寿２丁目２８番１０号５０８４,,13,113,1500013,,,,,,,2021-08-26,1,,,,,タマステージ,0
51,1011001142556,新規,0,2021-08-26,2021-08-26,株式会社ＺＥＲＯＮＥＸＴ,,株式会社,東京都,渋谷区,神宮前６丁目２３番４号桑野ビル２Ｆ,,13,113,1500001,,,,,,,2021-08-26,1,,,,,ゼロネクスト,0
58,1011301027135,新規,0,2021-08-26,2021-08-26,株式会社マーケティング・クリエイター・コスモス,,株式会社,東京都,杉並区,南荻窪１丁目２５番６号,,13,115,1670052,,,,,,,2021-08-26,1,,,,,マーケティングクリエイターコスモス,0
59,1011501027240,新規,0,2021-08-26,2021-08-26,株式会社ＣＯＬＡＢＯ　ＫＡＮＯＡ,,株式会社,東京都,荒川区,東尾久８丁目３７番１７号,,13,118,1160012,,,,,,,2021-08-26,1,,,,,コラボカノア,0
60,1011701024657,新規,0,2021-08-26,2021-08-26,株式会社後藤工務店,,株式会社,東京都,江戸川区,松江７丁目２１番１８号,,13,123,1320025,,,,,,,2021-08-26,1,,,,,ゴトウコウムテン,0
64,1011801039613,新規,0,2021-08-26,2021-08-26,М’ｓ株式会社,,株式会社,東京都,足立区,大谷田４丁目９番７号,,13,121,1200001,,,,,,,2021-08-26,1,,,,,エムズ,0
66,1012803002583,新規,0,2021-08-26,2021-08-26,合同会社ＹＲ　Ｃｏｎｓｕｌｔｉｎｇ,,合同会社,東京都,昭島市,玉川町３丁目１６番７号,,13,207,1960034,,,,,,,2021-08-26,1,,,,,ワイアールコンサルティング,0
72,1013301047914,新規,0,2021-08-26,2021-08-26,株式会社健康,,株式会社,東京都,豊島区,上池袋２丁目１４番４号,,13,116,1700012,,,,,,,2021-08-26,1,,,,,ケンコウ,0
76,1020001142730,新規,0,2021-08-26,2021-08-26,株式会社ニッポンオートセルズ,,株式会社,神奈川県,横浜市都筑区,東山田３丁目８番４Ｂ－１号,,14,118,2240023,,,,,,,2021-08-26,1,,,,,ニッポンオートセルズ,0
77,1020001142755,新規,0,2021-08-26,2021-08-26,株式会社あおい,,株式会社,神奈川県,横浜市中区,住吉町１丁目１番地,,14,104,2310013,,,,,,,2021-08-26,1,,,,,アオイ,0
78,1020001142771,新規,0,2021-08-26,2021-08-26,株式会社アサイコーポレーション,,株式会社,神奈川県,川崎市宮前区,宮崎６０４番地１グランドゥール宮崎台５０２,,14,136,2160033,,,,,,,2021-08-26,1,,,,,アサイコーポレーション,0
82,1021003010818,新規,0,2021-08-26,2021-08-26,ａｄｄＴＥＮ合同会社,,合同会社,神奈川県,相模原市南区,新磯野３丁目９番６号,,14,153,2520325,,,,,,,2021-08-26,1,,,,,アドテン,0
83,1021003010842,新規,0,2021-08-26,2021-08-26,合同会社００７,,合同会社,神奈川県,大和市,中央林間４丁目２６－１４パークハイム林間１０４,,14,213,2420007,,,,,,,2021-08-26,1,,,,,ゼロゼロセブン,0
99,1030003017822,新規,0,2021-08-26,2021-08-26,合同会社アプロ,,合同会社,埼玉県,三郷市,戸ケ崎３０５７番地,,11,237,3410044,,,,,,,2021-08-26,1,,,,,アプロ,0
105,1040001119875,新規,0,2021-08-26,2021-08-26,株式会社ＰＯＲＴＥＺ　ＭＡＩＮ　ＬＵＸＵＲＹ,,株式会社,千葉県,流山市,名都借２３６番地の１グリーンウェーブⅠ－１０３,00124032,12,220,2700145,,,,,,,2021-08-26,1,,,,,ポルテマンルグジュリー,0
106,1040001119909,新規,0,2021-08-26,2021-08-26,ユミ株式会社,,株式会社,千葉県,市川市,鬼高２丁目１８番１０号１０１,,12,203,2720015,,,,,,,2021-08-26,1,,,,,ユミ,0
107,1040003018381,新規,0,2021-08-26,2021-08-26,ネクソル合同会社,,合同会社,千葉県,千葉市稲毛区,園生町３３７番地１サンクレイドル稲毛４０５号,,12,103,2630051,,,,,,,2021-08-26,1,,,,,ネクソル,0
112,1050001049741,新規,0,2021-08-26,2021-08-26,株式会社ダイナミック・エナジー,,株式会社,茨城県,取手市,野々井１４７２番地１,,08,217,3020032,,,,,,,2021-08-26,1,,,,,ダイナミックエナジー,0
119,1080001024394,新規,0,2021-08-26,2021-08-26,森木農園株式会社,,株式会社,静岡県,牧之原市,東萩間１１５番地,,22,226,4210501,,,,,,,2021-08-26,1,,,,,モリキノウエン,0
126,1110001035990,新規,0,2021-08-26,2021-08-26,株式会社ユニファーム伊藤,,株式会社,新潟県,新潟市北区,新崎２丁目８番５８号,,15,101,9503134,,,,,,,2021-08-26,1,,,,,ユニファームイトウ,0
140,1120001239913,新規,0,2021-08-26,2021-08-26,株式会社星光,,株式会社,大阪府,大阪市淀川区,西宮原１丁目７番５０－２０６号,,27,123,5320004,,,,,,,2021-08-26,1,,,,,セイコウ,0
141,1120001239995,新規,0,2021-08-26,2021-08-26,株式会社ベラモンテ,,株式会社,大阪府,大阪市中央区,淡路町２丁目６番１０号４Ｆ,,27,128,5410047,,,,,,,2021-08-26,1,,,,,ベラモンテ,0
150,1120901044818,新規,0,2021-08-26,2021-08-26,株式会社龍琥堂,,株式会社,大阪府,茨木市,双葉町１０－１茨木東阪急ビル４階,,27,211,5670829,,,,,,,2021-08-26,1,,,,,リュウコドウ,0
152,1122003002159,新規,0,2021-08-26,2021-08-26,アイ・アンド・アール合同会社,,合同会社,大阪府,東大阪市,河内町１１－１７,,27,227,5798044,,,,,,,2021-08-26,1,,,,,アイアンドアール,0
158,1140001122811,新規,0,2021-08-26,2021-08-26,株式会社ｋ．ｍサービス,,株式会社,兵庫県,三木市,加佐２６９番地の１－１０１,,28,215,6730402,,,,,,,2021-08-26,1,,,,,ケーエムサービス,0
160,1140003016664,新規,0,2021-08-26,2021-08-26,合同会社莉杏,,合同会社,兵庫県,西宮市,宮西町１１番３０号,,28,204,6620976,,,,,,,2021-08-26,1,,,,,リアン,0
162,1150001024882,新規,0,2021-08-26,2021-08-26,カスタムリアルエステート株式会社,,株式会社,奈良県,橿原市,内膳町５丁目４番２９－２０４号,,29,205,6340804,,,,,,,2021-08-26,1,,,,,カスタムリアルエステート,0
164,1160003002357,新規,0,2021-08-26,2021-08-26,パセリ京都合同会社,,合同会社,滋賀県,長浜市,勝町８０３番地,,25,203,5260042,,,,,,,2021-08-26,1,,,,,パセリキョウト,0
171,1180001147581,新規,0,2021-08-26,2021-08-26,株式会社協和,,株式会社,愛知県,半田市,協和町２丁目９０番地,,23,205,4750854,,,,,,,2021-08-26,1,,,,,キョウワ,0
174,1180003022898,新規,0,2021-08-26,2021-08-26,合同会社ハピオ,,合同会社,愛知県,名古屋市中川区,万町２４０１番地,,23,110,4540872,,,,,,,2021-08-26,1,,,,,ハピオ,0
176,1180301035288,新規,0,2021-08-26,2021-08-26,株式会社杉浦工業,,株式会社,愛知県,刈谷市,小山町１丁目７１２番地,,23,210,4480043,,,,,,,2021-08-26,1,,,,,スギウラコウギョウ,0
190,1220001024388,新規,0,2021-08-26,2021-08-26,株式会社セベラルエージェンシー,,株式会社,石川県,金沢市,新神田４丁目８番１６号,,17,201,9218013,,,,,,,2021-08-26,1,,,,,セベラルエージェンシー,0
200,1240001058483,新規,0,2021-08-26,2021-08-26,株式会社エコミル,,株式会社,広島県,広島市中区,八丁堀１０番１４号,,34,101,7300013,,,,,,,2021-08-26,1,,,,,エコミル,0
205,1260001035902,新規,0,2021-08-26,2021-08-26,橘プロデュース株式会社,,株式会社,岡山県,笠岡市,小平井５９６番地３,,33,205,7140012,,,,,,,2021-08-26,1,,,,,タチバナプロデュース,0
213,1290001094318,新規,0,2021-08-26,2021-08-26,株式会社ファーストステップ,,株式会社,福岡県,福岡市中央区,港３丁目２番１号,,40,133,8100075,,,,,,,2021-08-26,1,,,,,ファーストステップ,0
214,1290001094326,新規,0,2021-08-26,2021-08-26,株式会社２５ｋｍ,,株式会社,福岡県,福岡市中央区,薬院４丁目６－２２,,40,133,8100022,,,,,,,2021-08-26,1,,,,,ネコケーエム,0
215,1290001094350,新規,0,2021-08-26,2021-08-26,株式会社アルクミライ,,株式会社,福岡県,太宰府市,青山４丁目１６番１６号,,40,221,8180121,,,,,,,2021-08-26,1,,,,,アルクミライ,0
219,1290003011535,新規,0,2021-08-26,2021-08-26,合同会社Ｙｏｕ,,合同会社,福岡県,福岡市城南区,鳥飼７丁目３０番２０３号市営中浜団地３０棟,,40,136,8140103,,,,,,,2021-08-26,1,,,,,ユウ,0
222,1290801027740,新規,0,2021-08-26,2021-08-26,株式会社シュシュ,,株式会社,福岡県,北九州市小倉南区,上石田２丁目２４番２１－２０４号,,40,107,8020833,,,,,,,2021-08-26,1,,,,,シュシュ,0
224,1310003004148,新規,0,2021-08-26,2021-08-26,合同会社Ｌｏｃａｌ　Ｂｏｏｓｔｅｒ,,合同会社,長崎県,諫早市,日の出町３－１７,,42,204,8540002,,,,,,,2021-08-26,1,,,,,ローカルブースター,0
237,1360005006501,新規,0,2021-08-26,2021-08-26,沖縄海事協同組合,,その他の設立登記法人,沖縄県,那覇市,西３丁目８番３０号エレガンテみよし５０２,,47,201,9000036,,,,,,,2021-08-26,1,,,,,オキナワカイジキョウドウクミアイ,0
254,1430001084824,新規,0,2021-08-26,2021-08-26,株式会社アップサイクルホッカイドウ,,株式会社,北海道,札幌市手稲区,富丘一条７丁目２番２号,,01,109,0060011,,,,,,,2021-08-26,1,,,,,アップサイクルホッカイドウ,0
255,1440001008939,新規,0,2021-08-26,2021-08-26,株式会社Ｒ．Ｋ企画,,株式会社,北海道,函館市,桔梗町４０２番地８,,01,202,0410801,,,,,,,2021-08-26,1,,,,,アールケーキカク,0
260,1470003002020,新規,0,2021-08-26,2021-08-26,合同会社ＣＨＲＩＳ,,合同会社,香川県,高松市,庵治町４９４４,,37,201,7610130,,,,,,,2021-08-26,1,,,,,クリス,0
267,1700150104306,新規,0,2021-08-26,2021-08-11,川上まちづくり推進協議会,,その他,岐阜県,中津川市,川上１４２７－６,,21,206,5099201,,,,,,,2021-08-11,1,,,,,カワウエマチヅクリスイシンキヨウギカイ,0
268,1700150104314,新規,0,2021-08-26,2021-08-11,佐伯市健康運動指導者協議会,,その他,大分県,佐伯市,向島１丁目３番８号,,44,205,8760844,,,,,,,2021-08-11,1,,,,,サイキシケンコウウンドウシドウシヤキヨウギカイ,0
277,2010001220692,新規,0,2021-08-26,2021-08-26,新豊国際株式会社,,株式会社,東京都,中央区,銀座１丁目２１番５号銀座ＪＫビル２Ｆ,,13,102,1040061,,,,,,,2021-08-26,1,,,,,シントヨコクサイ,0
278,2010001220718,新規,0,2021-08-26,2021-08-26,株式会社ＳＨＩＰ第２１４号,,株式会社,東京都,千代田区,丸の内２丁目７番２号,,13,101,1000005,,,,,,,2021-08-26,1,,,,,エスエイチアイピーダイニヒャクジュウヨンゴウ,0
279,2010001220726,新規,0,2021-08-26,2021-08-26,株式会社ＳＨＩＰ第２２２号,,株式会社,東京都,千代田区,丸の内２丁目７番２号,,13,101,1000005,,,,,,,2021-08-26,1,,,,,エスエイチアイピーダイニヒャクニジュウニゴウ,0
280,2010001220734,新規,0,2021-08-26,2021-08-26,株式会社ＳＨＩＰ第２３０号,,株式会社,東京都,千代田区,丸の内２丁目７番２号,,13,101,1000005,,,,,,,2021-08-26,1,,,,,エスエイチアイピーダイニヒャクサンジュウゴウ,0
291,2010401162287,新規,0,2021-08-26,2021-08-26,株式会社Ｄｏｐｐｅｌｋｏｐｆ,,株式会社,東京都,港区,南青山６丁目６－２０－３Ｆ,,13,103,1070062,,,,,,,2021-08-26,1,,,,,ドッペルカフ,0
293,2010403025970,新規,0,2021-08-26,2021-08-26,Ｓａｋｕｒａ２合同会社,,合同会社,東京都,港区,南麻布３丁目１９番２３号オーク南麻布ビル２階,,13,103,1060047,,,,,,,2021-08-26,1,,,,,サクラニ,0
294,2010403025987,新規,0,2021-08-26,2021-08-26,合同会社ＳＡ　ＰＲＯＰＥＲＴＹ６,,合同会社,東京都,港区,虎ノ門５丁目１番４号,,13,103,1050001,,,,,,,2021-08-26,1,,,,,エスエープロパティシックス,0
297,2010601059853,新規,0,2021-08-26,2021-08-26,株式会社Ｍａｎｕｆａｃ,,株式会社,東京都,江東区,青海２丁目５番１０号テレコムセンタービル東棟１４階,,13,108,1350064,,,,,,,2021-08-26,1,,,,,マニュファク,0
300,2010701041430,新規,0,2021-08-26,2021-08-26,株式会社ＵＳ３,,株式会社,東京都,品川区,西五反田２丁目９－７ドルミ五反田４０７号,,13,109,1410031,,,,,,,2021-08-26,1,,,,,ユーエススリー,0
301,2010803003865,新規,0,2021-08-26,2021-08-26,千乃屋合同会社,,合同会社,東京都,大田区,田園調布本町２８－７,,13,111,1450072,,,,,,,2021-08-26,1,,,,,センノヤ,0
308,2011001142489,新規,0,2021-08-26,2021-08-26,株式会社ＤＢＳ,,株式会社,東京都,渋谷区,神泉町５番９号－１０３号室,,13,113,1500045,,,,,,,2021-08-26,1,,,,,ディービーエス,0
316,2011501027256,新規,0,2021-08-26,2021-08-26,株式会社ｉクラフト,,株式会社,東京都,荒川区,町屋２丁目１８－６光陽荘Ｂ－２０１,,13,118,1160001,,,,,,,2021-08-26,1,,,,,アイクラフト,0
329,2012401038244,新規,0,2021-08-26,2021-08-26,株式会社ジェイアイ,,株式会社,東京都,調布市,緑ケ丘２丁目４２番地４９,,13,208,1820001,,,,,,,2021-08-26,1,,,,,ジェイアイ,0
338,2013301047913,新規,0,2021-08-26,2021-08-26,Ａ＆Ａエステートサービス株式会社,,株式会社,東京都,豊島区,東池袋４丁目３－９,,13,116,1700013,,,,,,,2021-08-26,1,,,,,エーアンドエーエステートサービス,0
339,2013303005803,新規,0,2021-08-26,2021-08-26,合同会社結城,,合同会社,東京都,豊島区,池袋２丁目２番５号ゴールデン池袋ビル３階,,13,116,1710014,,,,,,,2021-08-26,1,,,,,ユウキ,0
348,2020001142770,新規,0,2021-08-26,2021-08-26,ＭＹエヌシー株式会社,,株式会社,神奈川県,横浜市港南区,港南台７丁目３番１１号,,14,111,2340054,,,,,,,2021-08-26,1,,,,,マイエヌシー,0
357,2020003020388,新規,0,2021-08-26,2021-08-26,ＨＭＣ合同会社,,合同会社,神奈川県,川崎市中原区,木月３丁目２６番１５号,,14,133,2110025,,,,,,,2021-08-26,1,,,,,エイチエムシー,0
361,2030001143966,新規,0,2021-08-26,2021-08-26,株式会社ＸＲＯＳ,,株式会社,埼玉県,川越市,大字鯨井１３４４番地１,,11,201,3500815,,,,,,,2021-08-26,1,,,,,クロス,0
366,2040001119908,新規,0,2021-08-26,2021-08-26,株式会社ＦＢＩホールディングス,,株式会社,千葉県,浦安市,明海４丁目２番２－７０５号望海の街,,12,227,2790014,,,,,,,2021-08-26,1,,,,,エフビーアイホールディングス,0
370,2040003018380,新規,0,2021-08-26,2021-08-26,合同会社ＬＥＸ－ＨＩＮ　ＨＯＬＤＩＮＧＳ,,合同会社,千葉県,大網白里市,木崎７２番地１,,12,239,2993217,,,,,,,2021-08-26,1,,,,,レックスヒンホールディングス,0
376,2050003006046,新規,0,2021-08-26,2021-08-26,ＴＨ　ＭＡＲＴ合同会社,,合同会社,茨城県,坂東市,岩井２９４１番地３,,08,228,3060631,,,,,,,2021-08-26,1,,,,,ティーエイチマート,0
415,2120001239887,新規,0,2021-08-26,2021-08-26,株式会社ＮＫＣ,,株式会社,大阪府,大阪市北区,天満橋３丁目３番５号,,27,127,5300042,,,,,,,2021-08-26,1,,,,,エヌケイシー,0
416,2120001239912,新規,0,2021-08-26,2021-08-26,ＲＮＤ　ＪＡＰＡＮ株式会社,,株式会社,大阪府,大阪市中央区,南船場４丁目１０番２０号グランドメゾン西心斎橋１００３号,,27,128,5420081,,,,,,,2021-08-26,1,,,,,アールエヌディージャパン,0
422,2120003020080,新規,0,2021-08-26,2021-08-26,合同会社八尾工業,,合同会社,大阪府,大阪市平野区,長吉出戸２丁目５番１３－２０５号,,27,126,5470011,,,,,,,2021-08-26,1,,,,,ヤオコウギョウ,0
423,2120003020097,新規,0,2021-08-26,2021-08-26,合同会社ＮＡＴＩ,,合同会社,大阪府,大阪市北区,豊崎１丁目５－２３サンハイツ園部２０２号室,,27,127,5310072,,,,,,,2021-08-26,1,,,,,ナティ,0
425,2120103004314,新規,0,2021-08-26,2021-08-26,合同会社増昌,,合同会社,大阪府,堺市中区,深井北町３２０７番地１２,,27,142,5998271,,,,,,,2021-08-26,1,,,,,マスショウ,0
426,2120901044817,新規,0,2021-08-26,2021-08-26,株式会社ロジコムフル,,株式会社,大阪府,摂津市,鳥飼上３丁目１９番２８号,,27,224,5660062,,,,,,,2021-08-26,1,,,,,ロジコムフル,0
427,2120903003795,新規,0,2021-08-26,2021-08-26,合同会社ふるさと納税総合研究所,,合同会社,大阪府,高槻市,城西町５番２７号,,27,207,5690065,,,,,,,2021-08-26,1,,,,,フルサトノウゼイソウゴウケンキュウジョ,0
431,2130001069994,新規,0,2021-08-26,2021-08-26,株式会社Ｍ’Ｓ,,株式会社,京都府,京都市山科区,厨子奥苗代元町１番地１グランスタ花山２０５,,26,110,6078454,,,,,,,2021-08-26,1,,,,,エムズ,0
437,2140003016663,新規,0,2021-08-26,2021-08-26,合同会社しん,,合同会社,兵庫県,宝塚市,今里町１４番１６号,,28,214,6650862,,,,,,,2021-08-26,1,,,,,シン,0
438,2150001024881,新規,0,2021-08-26,2021-08-26,上浬株式会社,,株式会社,奈良県,橿原市,膳夫町１９６番地の７,,29,205,6340012,,,,,,,2021-08-26,1,,,,,ジョウリ,0
446,2180003022897,新規,0,2021-08-26,2021-08-26,合同会社瀧本商店,,合同会社,愛知県,名古屋市西区,上小田井２丁目１０１番地グランドール緑地公園１０５号室,,23,104,4520821,,,,,,,2021-08-26,1,,,,,タキモトショウテン,0
473,2290001094325,新規,0,2021-08-26,2021-08-26,株式会社マークワン,,株式会社,福岡県,宗像市,朝町２３００番地３,,40,220,8114161,,,,,,,2021-08-26,1,,,,,マークワン,0
474,2290001094366,新規,0,2021-08-26,2021-08-26,シンモリタホールディングス株式会社,,株式会社,福岡県,糟屋郡篠栗町,大字津波黒６２５,,40,342,8112415,,,,,,,2021-08-26,1,,,,,シンモリタホールディングス,0
487,2310003004147,新規,0,2021-08-26,2021-08-26,合同会社光星,,合同会社,長崎県,長崎市,鶴見台２丁目１５番７号,,42,201,8500984,,,,,,,2021-08-26,1,,,,,コウセイ,0
494,2360003011394,新規,0,2021-08-26,2021-08-26,ＣＥＳ　ＢＩＯ九州２合同会社,,合同会社,沖縄県,那覇市,松尾１丁目１０番２４号ホークシティ那覇ビル１階,,47,201,9000014,,,,,,,2021-08-26,1,,,,,シーエイーエスバイオキュウシュウツー,0
495,2370001047514,新規,0,2021-08-26,2021-08-26,株式会社ハウスカスタム,,株式会社,宮城県,岩沼市,あさひ野１丁目１３番地の４,,04,211,9892478,,,,,,,2021-08-26,1,,,,,ハウスカスタム,0
498,2380001032143,新規,0,2021-08-26,2021-08-26,株式会社ＳＴＡＲＫ　ＩＮＤＵＳＴＲＩＥＳ,,株式会社,福島県,西白河郡西郷村,大字真船字高清水５番地４,,07,461,9618071,,,,,,,2021-08-26,1,,,,,スタークインダストリーズ,0
502,2410001012942,新規,0,2021-08-26,2021-08-26,株式会社Ｔｉｍｅ　Ｃｏｌｏｒｓ,,株式会社,秋田県,男鹿市,船川港増川字小田４番地,,05,206,0100522,,,,,,,2021-08-26,1,,,,,タイムカラーズ,0
508,2430001084807,新規,0,2021-08-26,2021-08-26,株式会社フォレスト,,株式会社,北海道,札幌市手稲区,曙十一条１丁目９番５,,01,109,0060841,,,,,,,2021-08-26,1,,,,,フォレスト,0
509,2430001084815,新規,0,2021-08-26,2021-08-26,上川大雪酒造地方創生コンサルティング株式会社,,株式会社,北海道,小樽市,緑３丁目５番２１号小樽商科大学内,,01,203,0470034,,,,,,,2021-08-26,1,,,,,カミカワタイセツシュゾウチホウソウセイコンサルティング,0
518,2460003000858,新規,0,2021-08-26,2021-08-26,合同会社ぱらだいす,,合同会社,北海道,釧路市,中園町７番１２号,,01,206,0850052,,,,,,,2021-08-26,1,,,,,パラダイス,0
519,2460103001392,新規,0,2021-08-26,2021-08-26,合同会社ＬＩＮＫＳ,,合同会社,北海道,帯広市,西十五条南３５丁目２４－７,,01,207,0800025,,,,,,,2021-08-26,1,,,,,リンクス,0
525,2500001023641,新規,0,2021-08-26,2021-08-26,株式会社シトラスガーデン,,株式会社,愛媛県,西宇和郡伊方町,九町１番耕地１８５０番地,,38,442,7960421,,,,,,,2021-08-26,1,,,,,シトラスガーデン,0
529,2700150006897,新規,0,2021-08-26,2015-10-09,日本神経科学大会,,その他,東京都,文京区,本郷７丁目２番２号本郷ビル９階,,13,105,1130033,,,,,,,2015-10-09,1,,,,,ニホンシンケイカガクタイカイ,0
530,2700150104305,新規,0,2021-08-26,2021-08-11,稲穂二丁目会,,その他,北海道,小樽市,稲穂２丁目１２－２稲穂二丁目会館,,01,203,0470032,,,,,,,2021-08-11,1,,,,,イナホニチヨウメカイ,0
535,3010001220717,新規,0,2021-08-26,2021-08-26,株式会社ＳＨＩＰ第２１３号,,株式会社,東京都,千代田区,丸の内２丁目７番２号,,13,101,1000005,,,,,,,2021-08-26,1,,,,,エスエイチアイピーダイニヒャクジュウサンゴウ,0
538,3010003035675,新規,0,2021-08-26,2021-08-26,合同会社ＣＬＥＡＲＮＥＳＳ,,合同会社,東京都,中央区,日本橋堀留町２丁目７番２－４１１号,,13,102,1030012,,,,,,,2021-08-26,1,,,,,クリアネス,0
547,3010403025978,新規,0,2021-08-26,2021-08-26,ＳＡＧＬ１－２合同会社,,合同会社,東京都,港区,虎ノ門５丁目１番４号,,13,103,1050001,,,,,,,2021-08-26,1,,,,,エスエージーエルイチノニ,0
548,3010403026002,新規,0,2021-08-26,2021-08-26,合同会社トリクミ,,合同会社,東京都,港区,赤坂３丁目１１番１４号ベルゴ赤坂７１１号室,,13,103,1070052,,,,,,,2021-08-26,1,,,,,トリクミ,0
552,3010501047742,新規,0,2021-08-26,2021-08-26,株式会社ｍｅｌｏｄｉａｍ,,株式会社,東京都,台東区,浅草６丁目１９番４号,,13,106,1110032,,,,,,,2021-08-26,1,,,,,メロディアム,0
565,3011001142488,新規,0,2021-08-26,2021-08-26,株式会社ｍｅｒｃｉ１９７６,,株式会社,東京都,目黒区,上目黒５丁目２６番２１号ロイヤルパレス上目黒,,13,110,1530051,,,,,,,2021-08-26,1,,,,,メルシーナインティーンセブンティシックス,0
566,3011003013282,新規,0,2021-08-26,2021-08-26,合同会社フロントライン,,合同会社,東京都,目黒区,下目黒２丁目２０番２３－１３０２号,,13,110,1530064,,,,,,,2021-08-26,1,,,,,フロントライン,0
571,3011101096106,新規,0,2021-08-26,2021-08-26,株式会社満天,,株式会社,東京都,新宿区,下落合３丁目１２番２３－９０２号,,13,104,1610033,,,,,,,2021-08-26,1,,,,,マンテン,0
572,3011101096122,新規,0,2021-08-26,2021-08-26,株式会社Ｎ’ｏｓｔｅｒｉａ,,株式会社,東京都,新宿区,神楽坂３丁目１番地,,13,104,1620825,,,,,,,2021-08-26,1,,,,,ノステリア,0
578,3011501027255,新規,0,2021-08-26,2021-08-26,株式会社グラスト,,株式会社,東京都,北区,堀船３丁目２６番２号,,13,117,1140004,,,,,,,2021-08-26,1,,,,,グラスト,0
580,3011601025349,新規,0,2021-08-26,2021-08-26,株式会社サンエイ・ライフサービス,,株式会社,東京都,練馬区,東大泉１丁目１１番１９－１０６号,,13,120,1780063,,,,,,,2021-08-26,1,,,,,サンエイライフサービス,0
581,3011701024647,新規,0,2021-08-26,2021-08-26,ＵＳ・Ｂｅｓｔ株式会社,,株式会社,東京都,江戸川区,松江２丁目２０番３号レインボーハウス１０１,,13,123,1320025,,,,,,,2021-08-26,1,,,,,アスベスト,0
583,3011703002923,新規,0,2021-08-26,2021-08-26,合同会社ＩＮＢ,,合同会社,東京都,江戸川区,東葛西１丁目４１番１６号,,13,123,1340084,,,,,,,2021-08-26,1,,,,,アイエヌビー,0
586,3012401038243,新規,0,2021-08-26,2021-08-26,株式会社Ａｂｈａｉｎｎ　Ａｂｈａｉｎｎ,,株式会社,東京都,小金井市,貫井南町３丁目１３番１５号,,13,210,1840014,,,,,,,2021-08-26,1,,,,,アビンアビン,0
591,3013303005802,新規,0,2021-08-26,2021-08-26,イーシージー合同会社,,合同会社,東京都,豊島区,西池袋１丁目２９番地１９号９階,,13,116,1710021,,,,,,,2021-08-26,1,,,,,イーシージー,0
592,3013305003250,新規,0,2021-08-26,2021-08-26,一般社団法人ライベリー,,その他の設立登記法人,東京都,豊島区,東池袋１丁目３４番５号いちご東池袋ビル６階,,13,116,1700013,,,,,,,2021-08-26,1,,,,,ライベリー,0
597,3021001073781,新規,0,2021-08-26,2021-08-26,株式会社Ｍａｕｉ　Ｇｏｌｄ,,株式会社,神奈川県,逗子市,桜山８丁目１４番１号,,14,208,2490005,,,,,,,2021-08-26,1,,,,,マウイゴールド,0
598,3021003010840,新規,0,2021-08-26,2021-08-26,ＴＡＦ工務店合同会社,,合同会社,神奈川県,茅ヶ崎市,小和田３丁目１６番１５号－１０６号,,14,207,2530012,,,,,,,2021-08-26,1,,,,,タフコウムテン,0
605,3030001143957,新規,0,2021-08-26,2021-08-26,株式会社ＫＥＩＳＥＩ,,株式会社,埼玉県,川口市,本町４丁目３番１４号小峰第一ビル５Ｆ－Ｍ７,,11,203,3320012,,,,,,,2021-08-26,1,,,,,ケイセイ,0
606,3030001143981,新規,0,2021-08-26,2021-08-26,株式会社ワンエイト,,株式会社,埼玉県,和光市,新倉２丁目２３番８６－３号,,11,229,3510115,,,,,,,2021-08-26,1,,,,,ワンエイト,0
611,3030003017820,新規,0,2021-08-26,2021-08-26,パール環境開発合同会社,,合同会社,埼玉県,所沢市,大字日比田３４０,,11,208,3590015,,,,,,,2021-08-26,1,,,,,パールカンキョウカイハツ,0
612,3030005020491,新規,0,2021-08-26,2021-08-26,一般社団法人埼玉脳神経外科ソサイエティ,,その他の設立登記法人,埼玉県,日高市,大字山根１３９７番地１,,11,242,3501241,,,,,,,2021-08-26,1,,,,,サイタマノウシンケイゲカソサイエティ,0
619,3040001119865,新規,0,2021-08-26,2021-08-26,株式会社齋藤設備,,株式会社,千葉県,松戸市,古ケ崎３丁目３２８９番地の１,,12,207,2710068,,,,,,,2021-08-26,1,,,,,サイトウセツビ,0
620,3040001119873,新規,0,2021-08-26,2021-08-26,株式会社長久住宅,,株式会社,千葉県,船橋市,坪井東５丁目２１番１３号,,12,204,2740060,,,,,,,2021-08-26,1,,,,,ナガヒサジュウタク,0
621,3040001119881,新規,0,2021-08-26,2021-08-26,株式会社ＴＥＮＳＨＩＮ,,株式会社,千葉県,千葉市若葉区,若松町９４６番地５Ｋ．ＫビルＤ号室,,12,104,2640021,,,,,,,2021-08-26,1,,,,,テンシン,0
622,3040001119898,新規,0,2021-08-26,2021-08-26,株式会社ケーエー,,株式会社,千葉県,南房総市,和田町海発１４４９番地３,,12,234,2992712,,,,,,,2021-08-26,1,,,,,ケーエー,0
623,3040001119915,新規,0,2021-08-26,2021-08-26,株式会社リエイトホーム,,株式会社,千葉県,八千代市,大和田新田６５３番地２カーサベニーレＣ２０１号室,,12,221,2760046,,,,,,,2021-08-26,1,,,,,リエイトホーム,0
642,3110001035997,新規,0,2021-08-26,2021-08-26,ｅ・ワーク株式会社,,株式会社,新潟県,村上市,堀野９３１番地子,,15,212,9580234,,,,,,,2021-08-26,1,,,,,イーワーク,0
651,3120001239928,新規,0,2021-08-26,2021-08-26,幾簡商事株式会社,,株式会社,大阪府,大阪市中央区,南船場４丁目９－１２朝日プラザ心斎橋北３０９号室,,27,128,5420081,,,,,,,2021-08-26,1,,,,,イクヒロショウジ,0
653,3120003020055,新規,0,2021-08-26,2021-08-26,合同会社Ａｍｂｉｔｉｏｕｓ,,合同会社,大阪府,大阪市平野区,背戸口４丁目７番４,,27,126,5470034,,,,,,,2021-08-26,1,,,,,アンビシャス,0
654,3120003020088,新規,0,2021-08-26,2021-08-26,合同会社ＮＳＣ,,合同会社,大阪府,大阪市北区,大淀中４丁目２番８号,,27,127,5310076,,,,,,,2021-08-26,1,,,,,エヌエスシー,0
660,3120101064202,新規,0,2021-08-26,2021-08-26,株式会社ＣＳＣ,,株式会社,大阪府,堺市美原区,太井４９７番地２,,27,147,5870062,,,,,,,2021-08-26,1,,,,,シーエスシー,0
663,3120903003794,新規,0,2021-08-26,2021-08-26,合同会社やまぶき,,合同会社,大阪府,吹田市,岸部南１丁目１９番１０号,,27,205,5640011,,,,,,,2021-08-26,1,,,,,ヤマブキ,0
676,3140001122801,新規,0,2021-08-26,2021-08-26,株式会社深輪緑化創美,,株式会社,兵庫県,神戸市須磨区,平田町１丁目１番１９号,,28,107,6540021,,,,,,,2021-08-26,1,,,,,シンリンリョッカソウビ,0
679,3150001024880,新規,0,2021-08-26,2021-08-26,株式会社ソレーユ,,株式会社,奈良県,吉野郡川上村,大字高原８９８－３,,29,452,6393554,,,,,,,2021-08-26,1,,,,,ソレーユ,0
681,3160001023576,新規,0,2021-08-26,2021-08-26,株式会社マツコウ,,株式会社,滋賀県,東近江市,湯屋町１００９番地１０,,25,213,5270103,,,,,,,2021-08-26,1,,,,,マツコウ,0
691,3180001147588,新規,0,2021-08-26,2021-08-26,ＳＩＮＣＥＲＩＴＹ株式会社,,株式会社,愛知県,名古屋市西区,名駅２丁目４番１０号,,23,104,4510045,,,,,,,2021-08-26,1,,,,,シンセリティ,0
696,3190001028630,新規,0,2021-08-26,2021-08-26,株式会社ＫＯＳＡＮＪＩ,,株式会社,三重県,四日市市,日永３丁目７番１０号,,24,202,5100885,,,,,,,2021-08-26,1,,,,,コサンジ,0
719,3290001094324,新規,0,2021-08-26,2021-08-26,株式会社ｐｈｙｔｏｎｃｉｄｅ,,株式会社,福岡県,福岡市博多区,中洲２丁目４－２０第２１ポールスタービル１階１０９号,,40,132,8100801,,,,,,,2021-08-26,1,,,,,フィトンチッド,0
727,3300001012606,新規,0,2021-08-26,2021-08-26,株式会社ＰＡＮＲＩＳＨ,,株式会社,佐賀県,小城市,小城町２８１番地１の２,,41,208,8450001,,,,,,,2021-08-26,1,,,,,パンリッシュ,0
730,3310001017430,新規,0,2021-08-26,2021-08-26,リハプライム九州株式会社,,株式会社,長崎県,東彼杵郡波佐見町,折敷瀬郷１７４２番地９２,,42,323,8593701,,,,,,,2021-08-26,1,,,,,リハプライムキュウシュウ,0
739,3340001024052,新規,0,2021-08-26,2021-08-26,株式会社アレクサンドリア,,株式会社,鹿児島県,姶良市,加治木町反土４番１５番地３３みやじマンション３０３号,,46,225,8995231,,,,,,,2021-08-26,1,,,,,アレクサンドリア,0
750,3360003011393,新規,0,2021-08-26,2021-08-26,ＣＥＳ　ＢＩＯ中国１合同会社,,合同会社,沖縄県,那覇市,松尾１丁目１０番２４号ホークシティ那覇ビル１階,,47,201,9000014,,,,,,,2021-08-26,1,,,,,シーイーエスバイオチュウゴクワン,0
755,3380001032134,新規,0,2021-08-26,2021-08-26,ネットアセットマネジメント株式会社,,株式会社,福島県,郡山市,久留米６丁目４５番地の７,,07,203,9638846,,,,,,,2021-08-26,1,,,,,ネットアセットマネジメント,0
768,3430001084822,新規,0,2021-08-26,2021-08-26,株式会社コマツクリエーション,,株式会社,北海道,勇払郡むかわ町,福住２丁目１８６番地,,01,586,0540032,,,,,,,2021-08-26,1,,,,,コマツクリエーション,0
771,3430003013085,新規,0,2021-08-26,2021-08-26,合同会社ボースサイド,,合同会社,北海道,伊達市,梅本町２９－７２,,01,233,0520022,,,,,,,2021-08-26,1,,,,,ボースサイド,0
772,3470003002019,新規,0,2021-08-26,2021-08-26,Ｏｎｅ’ｓ　ｔｒｕｅ　ｃｏｌｏｒｓ合同会社,,合同会社,香川県,高松市,伏石町２１７６番地２９,,37,201,7618071,,,,,,,2021-08-26,1,,,,,ワンズトゥルーカラーズ,0
779,3500001023640,新規,0,2021-08-26,2021-08-26,株式会社シティ総研,,株式会社,愛媛県,松山市,桑原１丁目６番３号ステラルーチェ２０３号,,38,201,7900911,,,,,,,2021-08-26,1,,,,,シティソウケン,0
789,3700150089074,新規,0,2021-08-26,2018-05-31,横越コミュニティ協議会,,その他,新潟県,新潟市江南区,横越中央１丁目１－２老人福祉センター横雲荘内,,15,104,9500208,,,,,,,2018-05-31,1,,,,,ヨコゴシコミユニテイキヨウギカイ,0
794,4010001220179,新規,0,2021-08-26,2021-08-26,グレイシフト株式会社,,株式会社,東京都,千代田区,丸の内２丁目１番１号明治生命館７階ディーエルエイ・パイパー東京パートナーシップ外国法共同事業法律事務所内,,13,101,1000005,,,,,,,2021-08-26,1,,,,,グレイシフト,0
795,4010001220716,新規,0,2021-08-26,2021-08-26,株式会社ＳＨＩＰ第２１２号,,株式会社,東京都,千代田区,丸の内２丁目７番２号,,13,101,1000005,,,,,,,2021-08-26,1,,,,,エスエイチアイピーダイニヒャクジュウニゴウ,0
796,4010001220732,新規,0,2021-08-26,2021-08-26,株式会社ＳＨＩＰ第２２８号,,株式会社,東京都,千代田区,丸の内２丁目７番２号,,13,101,1000005,,,,,,,2021-08-26,1,,,,,エスエイチアイピーダイニヒャクニジュウハチゴウ,0
798,4010003035674,新規,0,2021-08-26,2021-08-26,Ｔ．Ｙ．ｅｓｔａｔｅ合同会社,,合同会社,東京都,文京区,大塚１丁目４番１５－９１０号,,13,105,1120012,,,,,,,2021-08-26,1,,,,,ティーワイエステート,0
802,4010103001758,新規,0,2021-08-26,2021-08-26,合同会社トラスト・ループ,,合同会社,東京都,八王子市,越野２２番地１２－４０３号,,13,201,1920361,,,,,,,2021-08-26,1,,,,,トラストループ,0
815,4010405020142,新規,0,2021-08-26,2021-08-26,一般社団法人Ｌｉｖｅｌｙ,,その他の設立登記法人,東京都,港区,虎ノ門３丁目２２番１０－２０１号,,13,103,1050001,,,,,,,2021-08-26,1,,,,,ライブリィ,0
831,4010801032261,新規,0,2021-08-26,2021-08-26,株式会社Ｄｉｓｃｏｖｅｒｙ,,株式会社,東京都,大田区,田園調布３丁目４番１６号,,13,111,1450071,,,,,,,2021-08-26,1,,,,,ディスカバリー,0
832,4010803003863,新規,0,2021-08-26,2021-08-26,合同会社ＢＵＢＵ,,合同会社,東京都,大田区,南六郷３丁目１番１７号,,13,111,1440045,,,,,,,2021-08-26,1,,,,,ブブ,0
835,4010901049321,新規,0,2021-08-26,2021-08-26,Ｇｏｌｄ　Ｄａｙｓ株式会社,,株式会社,東京都,世田谷区,松原２丁目１３－１２,,13,112,1560043,,,,,,,2021-08-26,1,,,,,ゴールドデイズ,0
846,4011001141869,新規,0,2021-08-26,2021-08-26,株式会社クライムゲート,,株式会社,東京都,渋谷区,神宮前６丁目１２－１８,,13,113,1500001,,,,,,,2021-08-26,1,,,,,クライムゲート,0
847,4011001142462,新規,0,2021-08-26,2021-08-26,株式会社アンビション・ベンチャーズ,,株式会社,東京都,渋谷区,神宮前２丁目３４番１７号,,13,113,1500001,,,,,,,2021-08-26,1,,,,,アンビションベンチャーズ,0
848,4011001142512,新規,0,2021-08-26,2021-08-26,株式会社ＬＭ,,株式会社,東京都,渋谷区,神山町４番１８号,,13,113,1500047,,,,,,,2021-08-26,1,,,,,エルエム,0
849,4011003013265,新規,0,2021-08-26,2021-08-26,合同会社ＳＵＭ,,合同会社,東京都,目黒区,中目黒５丁目１９番９号,,13,110,1530061,,,,,,,2021-08-26,1,,,,,サム,0
856,4011303004146,新規,0,2021-08-26,2021-08-26,合同会社ＨＡＧＩＲＥ,,合同会社,東京都,杉並区,南荻窪４丁目３２番４号伊東ハイツ２０１,,13,115,1670052,,,,,,,2021-08-26,1,,,,,ハギレ,0
858,4011505002419,新規,0,2021-08-26,2021-08-26,社会保険労務士法人赤岩,,その他の設立登記法人,東京都,北区,王子５丁目２番５－７１６号,,13,117,1140002,,,,,,,2021-08-26,1,,,,,アカイワ,0
859,4011601025348,新規,0,2021-08-26,2021-08-26,株式会社Ａｋａｌｕｋｅ,,株式会社,東京都,練馬区,春日町５丁目５番９号,,13,120,1790074,,,,,,,2021-08-26,1,,,,,アカルーク,0
860,4011701024662,新規,0,2021-08-26,2021-08-26,株式会社ａｎｄｉＬＬ,,株式会社,東京都,江戸川区,東葛西６丁目１５－１９ラ・ヴェール多喜５０３号,,13,123,1340084,,,,,,,2021-08-26,1,,,,,アンドイル,0
864,4012401038242,新規,0,2021-08-26,2021-08-26,株式会社ストリーモ,,株式会社,東京都,府中市,是政５丁目１１番地の３,,13,206,1830014,,,,,,,2021-08-26,1,,,,,ストリーモ,0
866,4012403005001,新規,0,2021-08-26,2021-08-26,聖蹟ファミリー動物病院合同会社,,合同会社,東京都,多摩市,乞田９５６番地の１メゾンフルール２０２,,13,224,2060014,,,,,,,2021-08-26,1,,,,,セイセキファミリードウブツビョウイン,0
871,4012803002580,新規,0,2021-08-26,2021-08-26,合同会社平和堂,,合同会社,東京都,立川市,幸町４丁目５７番地の２三昭パークヒルズ４０６号,,13,202,1900002,,,,,,,2021-08-26,1,,,,,ヘイワドウ,0
880,4020001142760,新規,0,2021-08-26,2021-08-26,株式会社ファイントライズ,,株式会社,神奈川県,横浜市神奈川区,金港町１－１１－９１１,,14,102,2210056,,,,,,,2021-08-26,1,,,,,ファイントライズ,0
881,4020001142769,新規,0,2021-08-26,2021-08-26,株式会社楽一,,株式会社,神奈川県,横浜市神奈川区,鶴屋町２丁目１９番地山本ビル３Ｆ,,14,102,2210835,,,,,,,2021-08-26,1,,,,,ラクイチ,0
882,4020001142777,新規,0,2021-08-26,2021-08-26,株式会社ＦＲＯＧＬＥＸ,,株式会社,神奈川県,川崎市川崎区,大島１丁目３０番１０号,,14,131,2100834,,,,,,,2021-08-26,1,,,,,フログレックス,0
885,4021001073780,新規,0,2021-08-26,2021-08-26,株式会社水晶縁,,株式会社,神奈川県,平塚市,出縄２１番地の９,,14,203,2540915,,,,,,,2021-08-26,1,,,,,スイショウエン,0
896,4030001143980,新規,0,2021-08-26,2021-08-26,株式会社ＯＺＵ・Ｅ,,株式会社,埼玉県,新座市,西堀１丁目６－２０,,11,230,3520031,,,,,,,2021-08-26,1,,,,,オズイー,0
899,4030003017687,新規,0,2021-08-26,2021-08-26,合同会社元商事,,合同会社,埼玉県,久喜市,樋ノ口３７２－１,,11,232,3460025,,,,,,,2021-08-26,1,,,,,モトショウジ,0
908,4040001119906,新規,0,2021-08-26,2021-08-26,株式会社ＩＧＮＩＴＩＯＮ,,株式会社,千葉県,袖ケ浦市,袖ケ浦駅前１丁目３９番地７－７０２号,,12,229,2990269,,,,,,,2021-08-26,1,,,,,イグニション,0
918,4040005021323,新規,0,2021-08-26,2021-08-26,特定非営利活動法人ＰＨＩ,,その他の設立登記法人,千葉県,木更津市,井尻９１１番地１号,,12,206,2920026,,,,,,,2021-08-26,1,,,,,ピーエイチアイ,0
924,4060003003791,新規,0,2021-08-26,2021-08-26,メジロ合同会社,,合同会社,栃木県,足利市,今福町４３番１号,,09,202,3260842,,,,,,,2021-08-26,1,,,,,,0
927,4070001038376,新規,0,2021-08-26,2021-08-26,株式会社にこにこリフォーム,,株式会社,群馬県,高崎市,沖町２３３番地４,,10,202,3700086,,,,,,,2021-08-26,1,,,,,ニコニコリフォーム,0
929,4070005009893,新規,0,2021-08-26,2021-08-26,医療法人社団とりの森デンタルケア,,その他の設立登記法人,群馬県,太田市,鳥山中町２７１番地１,,10,205,3730062,,,,,,,2021-08-26,1,,,,,トリノモリデンタルケア,0
930,4080001024400,新規,0,2021-08-26,2021-08-26,株式会社豊真,,株式会社,静岡県,静岡市清水区,七ツ新屋４３７番地の４,,22,103,4240066,,,,,,,2021-08-26,1,,,,,ホウシン,0
939,4110001035996,新規,0,2021-08-26,2021-08-26,株式会社ＬＥＡＰ企画．Ｋ,,株式会社,新潟県,新潟市北区,木崎１１３３番地２４,,15,101,9503304,,,,,,,2021-08-26,1,,,,,リープキカクドットケー,0
940,4110003004561,新規,0,2021-08-26,2021-08-26,合同会社プライム,,合同会社,新潟県,新潟市江南区,曽川乙１５０番地２５,,15,104,9501136,,,,,,,2021-08-26,1,,,,,プライム,0
949,4120001239753,新規,0,2021-08-26,2021-08-26,株式会社ランス・プロパティ,,株式会社,大阪府,大阪市淀川区,十八条３丁目４番１号,,27,123,5320001,,,,,,,2021-08-26,1,,,,,ランスプロパティ,0
950,4120001239919,新規,0,2021-08-26,2021-08-26,株式会社綺麗,,株式会社,大阪府,大阪市淀川区,木川東３丁目８番２８号,,27,123,5320012,,,,,,,2021-08-26,1,,,,,キレイ,0
951,4120001239927,新規,0,2021-08-26,2021-08-26,株式会社ＯＫＩＮＩ菓子工房,,株式会社,大阪府,大阪市淀川区,西中島５丁目１３番１２号谷ビル４階,,27,123,5320011,,,,,,,2021-08-26,1,,,,,オキニカシコウボウ,0
952,4120001239943,新規,0,2021-08-26,2021-08-26,綾石株式会社,,株式会社,大阪府,大阪市北区,豊崎３丁目１５番地５号ＴＫビル２Ｆ,,27,127,5310072,,,,,,,2021-08-26,1,,,,,アヤイシ,0
953,4120001239992,新規,0,2021-08-26,2021-08-26,株式会社Ｆｒｉｈｅｔ,,株式会社,大阪府,大阪市東成区,中道１丁目４番２－５０３号,,27,115,5370025,,,,,,,2021-08-26,1,,,,,フリーヘット,0
954,4120001240001,新規,0,2021-08-26,2021-08-26,株式会社エレクトライン,,株式会社,大阪府,大阪市平野区,平野東１丁目３番１２号,,27,126,5470043,,,,,,,2021-08-26,1,,,,,エレクトライン,0
957,4120003020095,新規,0,2021-08-26,2021-08-26,合同会社ＳＫＢ,,合同会社,大阪府,大阪市淀川区,西中島３丁目１３番４号,,27,123,5320011,,,,,,,2021-08-26,1,,,,,エスケービー,0
963,4122001035117,新規,0,2021-08-26,2021-08-26,株式会社ｍｉｒａｉ,,株式会社,大阪府,八尾市,東本町１丁目７番２号,,27,212,5810004,,,,,,,2021-08-26,1,,,,,ミライ,0
968,4130001069992,新規,0,2021-08-26,2021-08-26,株式会社Ｑｒｅｔｈｏｎ,,株式会社,京都府,京都市南区,吉祥院観音堂町８－２８,,26,107,6018348,,,,,,,2021-08-26,1,,,,,クレソン,0
970,4140001122809,新規,0,2021-08-26,2021-08-26,株式会社スタジオｍｉｎａｔｏ,,株式会社,兵庫県,神戸市長田区,長田町１丁目３番１号サンドール長田南館２０３,,28,106,6530812,,,,,,,2021-08-26,1,,,,,スタジオミナト,0
971,4140001122817,新規,0,2021-08-26,2021-08-26,株式会社バロン,,株式会社,兵庫県,加古川市,志方町細工所１０９６番地の１８,,28,210,6750303,,,,,,,2021-08-26,1,,,,,バロン,0
972,4140001122825,新規,0,2021-08-26,2021-08-26,株式会社ＳＫＹ　ｉｎｎｏｖａｔｉｏｎｓ,,株式会社,兵庫県,西宮市,高松町１１番２号ピアン西宮２０１号室,,28,204,6638204,,,,,,,2021-08-26,1,,,,,スカイイノベーションズ,0
973,4140005025792,新規,0,2021-08-26,2021-08-26,特定非営利活動法人夢絆,,その他の設立登記法人,兵庫県,姫路市,南条１丁目５番地,,28,201,6700952,,,,,,,2021-08-26,1,,,,,キズナ,0
976,4150003002462,新規,0,2021-08-26,2021-08-26,合同会社ＬＵＧＥＮＤ,,合同会社,奈良県,生駒市,さつき台２丁目４５４番地８,,29,209,6300221,,,,,,,2021-08-26,1,,,,,ルジェンド,0
984,4180001147521,新規,0,2021-08-26,2021-08-26,株式会社ラッシュシェア,,株式会社,愛知県,名古屋市中川区,尾頭橋１丁目１番３５号,,23,110,4540012,,,,,,,2021-08-26,1,,,,,ラッシュシェア,0
998,4240003005258,新規,0,2021-08-26,2021-08-26,ａｔｅｌｉｅｒ　ａｌｔｒｕｅ合同会社,,合同会社,広島県,安芸郡熊野町,石神２番６号,,34,307,7314225,,,,,,,2021-08-26,1,,,,,アトリエアルトュル,0
1012,4290001094307,新規,0,2021-08-26,2021-08-26,株式会社ＢＴＲ,,株式会社,福岡県,福岡市博多区,比恵町１－１８東カン第二キャステール６１８号,,40,132,8120014,,,,,,,2021-08-26,1,,,,,ビーティーアール,0
1013,4290001094348,新規,0,2021-08-26,2021-08-26,株式会社桃坂重設,,株式会社,福岡県,大野城市,大池１丁目５番１０号,,40,219,8160904,,,,,,,2021-08-26,1,,,,,モモサカジュウセツ,0
1017,4290801027713,新規,0,2021-08-26,2021-08-26,株式会社Ｅｌｕｄｅ,,株式会社,福岡県,北九州市門司区,社ノ木１丁目１７番１０－６０７号,,40,101,8000054,,,,,,,2021-08-26,1,,,,,イルード,0
1027,4360003011392,新規,0,2021-08-26,2021-08-26,ＣＥＳ　ＢＩＯ九州１合同会社,,合同会社,沖縄県,那覇市,松尾１丁目１０番２４号ホークシティ那覇ビル１階,,47,201,9000014,,,,,,,2021-08-26,1,,,,,シーイーエスバイオキュウシュウワン,0
1028,4370001047512,新規,0,2021-08-26,2021-08-26,株式会社ＣＨＩＢＡＰＬＡＮ,,株式会社,宮城県,仙台市若林区,白萩町１４番１号,,04,103,9840048,,,,,,,2021-08-26,1,,,,,チバプラン,0
1034,4390001016572,新規,0,2021-08-26,2021-08-26,株式会社インテレック,,株式会社,山形県,鶴岡市,茅原町１９番地１８,,06,203,9970018,,,,,,,2021-08-26,1,,,,,インテレック,0
1039,4430001084813,新規,0,2021-08-26,2021-08-26,株式会社まんまじょ,,株式会社,北海道,虻田郡真狩村,字社８７番地１,,01,396,0481605,,,,,,,2021-08-26,1,,,,,マンマジョ,0
1043,4430003013084,新規,0,2021-08-26,2021-08-26,合同会社チーム,,合同会社,北海道,札幌市東区,北三十六条東１丁目７番６号,,01,103,0070836,,,,,,,2021-08-26,1,,,,,チーム,0
1048,4460001005584,新規,0,2021-08-26,2021-08-26,不動産専門株式会社,,株式会社,北海道,釧路市,新栄町１４番１０号,,01,206,0850032,,,,,,,2021-08-26,1,,,,,フドウサンセンモン,0
1051,4480001011465,新規,0,2021-08-26,2021-08-26,ＣＵＯＮＧ　ＰＨＡＴ株式会社,,株式会社,徳島県,徳島市,かちどき橋２丁目４６番地３,,36,201,7700939,,,,,,,2021-08-26,1,,,,,クオンファット,0
1052,4490001009970,新規,0,2021-08-26,2021-08-26,株式会社タカラエステート,,株式会社,高知県,高知市,旭町２丁目２２番地５７サーパス第２旭町４０５号室,,39,201,7800935,,,,,,,2021-08-26,1,,,,,タカラエステート,0
1058,4700150104402,新規,0,2021-08-26,2021-08-16,防府市幼稚園連盟,,その他,山口県,防府市,平和町６－２０佐波幼稚園内,,35,206,7470043,,,,,,,2021-08-16,1,,,,,ホウフシヨウチエンレンメイ,0
1059,4700150104534,新規,0,2021-08-26,2021-08-26,ＡＬ　ＭＡＩＤＡＮ　ＥＮＴＥＲＰＲＩＳＥＳ　ＰＲＩＶＡＴＥ　ＬＩＭＩＴＥＤ,,外国会社等,千葉県,茂原市,清水２２４０－１５清水オフィス５,,12,210,2994101,スリランカ民主社会主義共和国、キャンディ、ガラゲダラ、ランブッカナロード、マディゲＮｏ．２２２／１,,,,,,2021-08-26,1,,,,,アルマイダンエンタープライセスプライベートリミテツド,0
1062,5010001220599,新規,0,2021-08-26,2021-08-26,鴻慧株式会社,,株式会社,東京都,中央区,新川１丁目６番１２号,,13,102,1040033,,,,,,,2021-08-26,1,,,,,コウエ,0
1063,5010001220681,新規,0,2021-08-26,2021-08-26,株式会社Ｄｒ．Ｌａｂ,,株式会社,東京都,文京区,本郷３丁目２３番１４号,,13,105,1130033,,,,,,,2021-08-26,1,,,,,ドクターラボ,0
1064,5010001220715,新規,0,2021-08-26,2021-08-26,株式会社ＳＨＩＰ第２１１号,,株式会社,東京都,千代田区,丸の内２丁目７番２号,,13,101,1000005,,,,,,,2021-08-26,1,,,,,エスエイチアイピーダイニヒャクジュウイチゴウ,0
1065,5010001220731,新規,0,2021-08-26,2021-08-26,株式会社ＳＨＩＰ第２２７号,,株式会社,東京都,千代田区,丸の内２丁目７番２号,,13,101,1000005,,,,,,,2021-08-26,1,,,,,エスエイチアイピーダイニヒャクニジュウナナゴウ,0
1069,5010005033782,新規,0,2021-08-26,2021-08-26,一般社団法人山元式新頭針療法学会,,その他の設立登記法人,東京都,千代田区,麹町４丁目５－２０ＫＳビル６階,,13,101,1020083,,,,,,,2021-08-26,1,,,,,ヤマモトシキシントウシンリョウホウガッカイ,0
1070,5010103001757,新規,0,2021-08-26,2021-08-26,合同会社ネオン,,合同会社,東京都,八王子市,北野町５６２番地１１フィカーサ北野２０３号,,13,201,1920906,,,,,,,2021-08-26,1,,,,,ネオン,0
1081,5010401162144,新規,0,2021-08-26,2021-08-26,綱ホールディングス株式会社,,株式会社,東京都,港区,芝２丁目１番３０号,,13,103,1050014,,,,,,,2021-08-26,1,,,,,ツナホールディングス,0
1082,5010401162284,新規,0,2021-08-26,2021-08-26,株式会社ＧＬＯＲＹ,,株式会社,東京都,港区,赤坂２丁目８番１１－３０２号,,13,103,1070052,,,,,,,2021-08-26,1,,,,,グローリー,0
1084,5010403025968,新規,0,2021-08-26,2021-08-26,Ｓａｋｕｒａ１合同会社,,合同会社,東京都,港区,南麻布３丁目１９番２３号オーク南麻布ビル２階,,13,103,1060047,,,,,,,2021-08-26,1,,,,,サクライチ,0
1087,5010801032260,新規,0,2021-08-26,2021-08-26,株式会社オーケーワン,,株式会社,東京都,大田区,下丸子２丁目１２番１５－１３１６号,,13,111,1460092,,,,,,,2021-08-26,1,,,,,オーケーワン,0
1088,5010803003862,新規,0,2021-08-26,2021-08-26,合同会社ハート電気,,合同会社,東京都,大田区,山王２丁目３７番４－６０３号,,13,111,1430023,,,,,,,2021-08-26,1,,,,,ハートデンキ,0
1090,5010901049329,新規,0,2021-08-26,2021-08-26,株式会社Ｕｎｉｔｙ,,株式会社,東京都,世田谷区,太子堂３丁目３７番１号,,13,112,1540004,,,,,,,2021-08-26,1,,,,,ユニティ,0
1093,5011001142569,新規,0,2021-08-26,2021-08-26,株式会社イートワイズ・ラボ,,株式会社,東京都,渋谷区,大山町３８番１８号,,13,113,1510065,,,,,,,2021-08-26,1,,,,,イートワイズラボ,0
1100,5011203003627,新規,0,2021-08-26,2021-08-26,ＴｏｔａｌＥｎｅｒｇｉｅｓ　ＤＧ　Ｄｅｖｅｌｏｐｍｅｎｔ　Ｊａｐａｎ合同会社,,合同会社,東京都,中野区,中央５丁目２３番１０－３０１号,,13,114,1640011,,,,,,,2021-08-26,1,,,,,トタルエナジーズディージーデベロップメントジャパン,0
1102,5011401023625,新規,0,2021-08-26,2021-08-26,株式会社ライフシステム,,株式会社,東京都,板橋区,中台３丁目１１番１０－５２２号ハイネス上板橋,,13,119,1740064,,,,,,,2021-08-26,1,,,,,ライフシステム,0
1103,5011403003427,新規,0,2021-08-26,2021-08-26,大尚合同会社,,合同会社,東京都,板橋区,西台１丁目１番１４－１０２号,,13,119,1740045,,,,,,,2021-08-26,1,,,,,ダイショウ,0
1105,5011701024661,新規,0,2021-08-26,2021-08-26,株式会社スミックティー,,株式会社,東京都,江戸川区,船堀１丁目１番２６－８２５号,,13,123,1340091,,,,,,,2021-08-26,1,,,,,スミックティー,0
1107,5011801039626,新規,0,2021-08-26,2021-08-26,昼間株式会社,,株式会社,東京都,足立区,綾瀬４丁目３１番１９号,,13,121,1200005,,,,,,,2021-08-26,1,,,,,ヒルマ,0
1122,5020003020385,新規,0,2021-08-26,2021-08-26,チーズワークス合同会社,,合同会社,神奈川県,横浜市緑区,台村町６４５番地４３,,14,113,2260014,,,,,,,2021-08-26,1,,,,,チーズワークス,0
1136,5030001143963,新規,0,2021-08-26,2021-08-26,株式会社エンブレイス・オリーブ,,株式会社,埼玉県,北葛飾郡松伏町,大字大川戸９３７番地１,,11,465,3430106,,,,,,,2021-08-26,1,,,,,エンブレイスオリーブ,0
1155,5040005021330,新規,0,2021-08-26,2021-08-26,ＮＰＯ法人日ロ経済文化交流会,,その他の設立登記法人,千葉県,松戸市,新作１０５５番地,,12,207,2710052,,,,,,,2021-08-26,1,,,,,ニチロケイザイブンカコウリュウカイ,0
1160,5050001049746,新規,0,2021-08-26,2021-08-26,ひろせ株式会社,,株式会社,茨城県,土浦市,乙戸５５番地の１,,08,203,3000844,,,,,,,2021-08-26,1,,,,,ヒロセ,0
1161,5050001049754,新規,0,2021-08-26,2021-08-26,楽倉株式会社,,株式会社,茨城県,取手市,小文間３７８２,,08,217,3020001,,,,,,,2021-08-26,1,,,,,ラクラ,0
1165,5060001034020,新規,0,2021-08-26,2021-08-26,株式会社ＢＬＡＣＫ　ＨＯＲＳＥ,,株式会社,栃木県,栃木市,藤岡町富吉１５００－６,,09,203,3290311,,,,,,,2021-08-26,1,,,,,ブラックフォース,0
1169,5080001024399,新規,0,2021-08-26,2021-08-26,ＹＯＫＯＹＡＭＡ貿易株式会社,,株式会社,静岡県,牧之原市,坂部４１６番地,,22,226,4210412,,,,,,,2021-08-26,1,,,,,ヨコヤマボウエキ,0
1173,5080401025286,新規,0,2021-08-26,2021-08-26,株式会社ぶんぶん,,株式会社,静岡県,浜松市西区,入野町２００２０番地の５,,22,133,4328061,,,,,,,2021-08-26,1,,,,,ブンブン,0
1181,5120001239918,新規,0,2021-08-26,2021-08-26,株式会社英,,株式会社,大阪府,大阪市阿倍野区,天王寺町南３丁目５番１４－９０７号,,27,119,5450002,,,,,,,2021-08-26,1,,,,,ハナブサ,0
1183,5120003020094,新規,0,2021-08-26,2021-08-26,合同会社ＳＡＲＡＳＡ,,合同会社,大阪府,大阪市東淀川区,大桐１丁目５番７号,,27,114,5330011,,,,,,,2021-08-26,1,,,,,サラサ,0
1191,5130003007446,新規,0,2021-08-26,2021-08-26,合同会社イズプロジェクト,,合同会社,京都府,木津川市,州見台４丁目１９－２,,26,214,6190216,,,,,,,2021-08-26,1,,,,,イズプロジェクト,0
1197,5140003016636,新規,0,2021-08-26,2021-08-26,合同会社ＨＡｃｏＮＩＷＡ工房,,合同会社,兵庫県,宝塚市,末成町２３番５号,,28,214,6650044,,,,,,,2021-08-26,1,,,,,ハコニワコウボウ,0
1198,5140003016669,新規,0,2021-08-26,2021-08-26,合同会社グロー,,合同会社,兵庫県,川西市,緑台７丁目５番地の１７,,28,217,6660129,,,,,,,2021-08-26,1,,,,,グロー,0
1199,5150003002461,新規,0,2021-08-26,2021-08-26,合同会社Ｊｒ,,合同会社,奈良県,生駒郡安堵町,大字東安堵１４４番地の７,,29,345,6391061,,,,,,,2021-08-26,1,,,,,ジェイアール,0
1200,5160001023574,新規,0,2021-08-26,2021-08-26,株式会社大生警備,,株式会社,滋賀県,大津市,大萱５丁目７番４号Ａ棟１０１,,25,201,5202144,,,,,,,2021-08-26,1,,,,,タイセイケイビ,0
1207,5180001147520,新規,0,2021-08-26,2021-08-26,北澤総合商事株式会社,,株式会社,愛知県,名古屋市中区,丸の内３丁目１５番３４号第１６ＫＴビル２階,,23,106,4600002,,,,,,,2021-08-26,1,,,,,キタザワソウゴウショウジ,0
1212,5190001028629,新規,0,2021-08-26,2021-08-26,株式会社カームズホーム,,株式会社,三重県,伊勢市,小木町５１２番地１,,24,203,5160007,,,,,,,2021-08-26,1,,,,,カームズホーム,0
1213,5200001039046,新規,0,2021-08-26,2021-08-26,株式会社ＨＳＳ,,株式会社,岐阜県,高山市,中山町５８１番地,,21,203,5060051,,,,,,,2021-08-26,1,,,,,エイチエスエス,0
1216,5220001024392,新規,0,2021-08-26,2021-08-26,株式会社ＣＯＮＴＩＮＥＮＴ,,株式会社,石川県,金沢市,駅西本町１丁目８‐２２‐５０２,,17,201,9200025,,,,,,,2021-08-26,1,,,,,コンティネント,0
1231,5260001035898,新規,0,2021-08-26,2021-08-26,株式会社トリプルギブ,,株式会社,岡山県,岡山市南区,福吉町２４番１１号,,33,104,7028048,,,,,,,2021-08-26,1,,,,,トリプルギブ,0
1233,5260003003655,新規,0,2021-08-26,2021-08-26,ＤｕｃｔＤｅｓｉｇｎ合同会社,,合同会社,岡山県,津山市,平福６０１番地１,,33,203,7080872,,,,,,,2021-08-26,1,,,,,ダクトデザイン,0
1234,5270001008341,新規,0,2021-08-26,2021-08-26,株式会社イーサポート,,株式会社,鳥取県,米子市,陽田町８１－１０,,31,202,6830032,,,,,,,2021-08-26,1,,,,,イーサポート,0
1241,5290001094330,新規,0,2021-08-26,2021-08-26,中村建設株式会社,,株式会社,福岡県,柳川市,三橋町江曲２０６番地１,,40,207,8320825,,,,,,,2021-08-26,1,,,,,ナカムラケンセツ,0
1242,5290001094347,新規,0,2021-08-26,2021-08-26,株式会社テクノクロスファシリティ,,株式会社,福岡県,福岡市博多区,空港前５丁目１４番６号,,40,132,8120002,,,,,,,2021-08-26,1,,,,,テクノクロスファシリティ,0
1250,5290003011548,新規,0,2021-08-26,2021-08-26,出水ソーラー合同会社,,合同会社,福岡県,飯塚市,有安１０３９番地１,,40,205,8200111,,,,,,,2021-08-26,1,,,,,イズミソーラー,0
1253,5290801027737,新規,0,2021-08-26,2021-08-26,株式会社ヤマグチ,,株式会社,福岡県,京都郡苅田町,大字上片島１２５０番地,,40,621,8000343,,,,,,,2021-08-26,1,,,,,ヤマグチ,0
1271,5360003011391,新規,0,2021-08-26,2021-08-26,ＣＥＳ中国１太陽光発電所合同会社,,合同会社,沖縄県,那覇市,松尾１丁目１０番２４号ホークシティ那覇ビル１階,,47,201,9000014,,,,,,,2021-08-26,1,,,,,シーイーエスチュウゴクワンタイヨウコウハツデンショ,0
1272,5360005006497,新規,0,2021-08-26,2021-08-26,一般社団法人ゆがふ道,,その他の設立登記法人,沖縄県,糸満市,字兼城５２１番地の２１,,47,210,9010303,,,,,,,2021-08-26,1,,,,,ユガフドウ,0
1276,5380001032140,新規,0,2021-08-26,2021-08-26,株式会社矢内商會,,株式会社,福島県,いわき市,金山町朝日台１０番地,,07,204,9748211,,,,,,,2021-08-26,1,,,,,ヤナイショウカイ,0
1279,5380003004988,新規,0,2021-08-26,2021-08-26,合同会社いわき先憂会,,合同会社,福島県,いわき市,鹿島町米田字沼田２２,,07,204,9718133,,,,,,,2021-08-26,1,,,,,,0
1280,5380003005004,新規,0,2021-08-26,2021-08-26,里山再生合同会社,,合同会社,福島県,二本松市,針道字五反田６番地,,07,210,9640202,,,,,,,2021-08-26,1,,,,,サトヤマサイセイ,0
1290,5420001017566,新規,0,2021-08-26,2021-08-26,コーチ株式会社,,株式会社,青森県,上北郡六戸町,大字折茂字上折茂９０番地３,,02,405,0330072,,,,,,,2021-08-26,1,,,,,コーチ,0
1298,5430001084820,新規,0,2021-08-26,2021-08-26,谷内興業株式会社,,株式会社,北海道,札幌市白石区,北郷六条９丁目３番１３号,,01,104,0030836,,,,,,,2021-08-26,1,,,,,タニウチコウギョウ,0
1302,5430003013083,新規,0,2021-08-26,2021-08-26,合同会社練工業,,合同会社,北海道,札幌市中央区,南十一条西１丁目１番１１－３０７号,,01,101,0640811,,,,,,,2021-08-26,1,,,,,レンコウギョウ,0
1314,5490003001578,新規,0,2021-08-26,2021-08-26,合同会社デイジー,,合同会社,高知県,高知市,日の出町１番１１号,,39,201,7810804,,,,,,,2021-08-26,1,,,,,デイジー,0
1320,5500001023639,新規,0,2021-08-26,2021-08-26,株式会社谷出組,,株式会社,愛媛県,宇和島市,丸穂町４丁目１番２７号,,38,203,7980037,,,,,,,2021-08-26,1,,,,,タニデグミ,0
1323,5700150104533,新規,0,2021-08-26,2021-08-26,ＧＬＯＢＡＬ　ＣＨＡＲＭＳ,,外国会社等,埼玉県,北本市,石戸宿７丁目１２２番地,,11,233,3640025,スリランカ民主社会主義共和国セントラル州マータレー県ウクウェラ、エルカドゥア街３５番地,,,,,,2021-08-26,1,,,,,グローバルチヤームス,0
1327,6010001220598,新規,0,2021-08-26,2021-08-26,株式会社ＪＶＸ,,株式会社,東京都,千代田区,外神田６丁目１５番４号ＯｗｌｓｏｍｅＢｕｉｌｄｉｎｇ２階・Ａｉｒ－Ｅｒａ,,13,101,1010021,,,,,,,2021-08-26,1,,,,,ジェーブイエックス,0
1328,6010001220714,新規,0,2021-08-26,2021-08-26,株式会社ＳＨＩＰ第２１０号,,株式会社,東京都,千代田区,丸の内２丁目７番２号,,13,101,1000005,,,,,,,2021-08-26,1,,,,,エスエイチアイピーダイニヒャクジュウゴウ,0
1329,6010001220730,新規,0,2021-08-26,2021-08-26,株式会社ＳＨＩＰ第２２６号,,株式会社,東京都,千代田区,丸の内２丁目７番２号,,13,101,1000005,,,,,,,2021-08-26,1,,,,,エスエイチアイピーダイニヒャクニジュウロクゴウ,0
1333,6010003035697,新規,0,2021-08-26,2021-08-26,シャインプロモート合同会社,,合同会社,東京都,文京区,本駒込３丁目１５－１０第２榎ビル２Ｆ,,13,105,1130021,,,,,,,2021-08-26,1,,,,,シャインプロモート,0
1334,6010005033872,新規,0,2021-08-26,2021-08-26,文京小石川一般社団法人,,その他の設立登記法人,東京都,千代田区,神田小川町３丁目２６番８号神田小川町三丁目ビル６階,,13,101,1010052,,,,,,,2021-08-26,1,,,,,ブンキョウコイシカワ,0
1346,6010503006363,新規,0,2021-08-26,2021-08-26,ＭＳＴＣ合同会社,,合同会社,東京都,台東区,寿３丁目９番３号丸大ビル３Ｆ－０７,,13,106,1110042,,,,,,,2021-08-26,1,,,,,エムエスティーシー,0
1354,6010803003861,新規,0,2021-08-26,2021-08-26,合同会社ＨＭＫコンサルティング,,合同会社,東京都,大田区,久が原１丁目２１番３号エクセルシオール２１－１０４,,13,111,1460085,,,,,,,2021-08-26,1,,,,,エイチエムケイコンサルティング,0
1362,6011001142551,新規,0,2021-08-26,2021-08-26,株式会社ｍｏｐｉ,,株式会社,東京都,渋谷区,神泉町２２番３－１６０２号ピアース渋谷ＷＥＳＴ,,13,113,1500045,,,,,,,2021-08-26,1,,,,,モピ,0
1363,6011003013263,新規,0,2021-08-26,2021-08-26,合同会社ＫＡＴＡＨＡＢＡ,,合同会社,東京都,目黒区,碑文谷１丁目１０番９号,,13,110,1520003,,,,,,,2021-08-26,1,,,,,カタハバ,0
1373,6011403003426,新規,0,2021-08-26,2021-08-26,合同会社ブランシュネイジュ,,合同会社,東京都,板橋区,仲宿１２－９,,13,119,1730005,,,,,,,2021-08-26,1,,,,,ブランシュネイジュ,0
1378,6011701024652,新規,0,2021-08-26,2021-08-26,株式会社キメズ工業,,株式会社,東京都,江戸川区,鹿骨４丁目２４番２号プレジール１Ｆ,,13,123,1330073,,,,,,,2021-08-26,1,,,,,キメズコウギョウ,0
1384,6012701016623,新規,0,2021-08-26,2021-08-26,株式会社ｉｎｃｙｃｌｅ,,株式会社,東京都,東村山市,野口町４丁目７番３８号,,13,213,1890022,,,,,,,2021-08-26,1,,,,,インサイクル,0
1392,6013301047918,新規,0,2021-08-26,2021-08-26,株式会社教育同人社準備会社,,株式会社,東京都,豊島区,東池袋４丁目２１番１号アウルタワー２Ｆ,,13,116,1700013,,,,,,,2021-08-26,1,,,,,キョウイクドウジンシャジュンビカイシャ,0
1398,6020001142635,新規,0,2021-08-26,2021-08-26,株式会社リアンホーム,,株式会社,神奈川県,川崎市中原区,中丸子１３番地１０－３３１２,,14,133,2110012,,,,,,,2021-08-26,1,,,,,リアンホーム,0
1399,6020001142767,新規,0,2021-08-26,2021-08-26,Ｙ’ｓ株式会社,,株式会社,神奈川県,川崎市川崎区,四谷上町１２番９号,,14,131,2100828,,,,,,,2021-08-26,1,,,,,ワイズ,0
1404,6021001073779,新規,0,2021-08-26,2021-08-26,株式会社ペイフォワード,,株式会社,神奈川県,相模原市南区,新戸２５２２番地２,,14,153,2520326,,,,,,,2021-08-26,1,,,,,ペイフォワード,0
1405,6021003010813,新規,0,2021-08-26,2021-08-26,合同会社ＳＩＸ　ＰＬＵＳ,,合同会社,神奈川県,藤沢市,鵠沼石上１丁目４番１３号ロコテラス湘南１０２,,14,205,2510025,,,,,,,2021-08-26,1,,,,,シックスプラス,0
1414,6030003017776,新規,0,2021-08-26,2021-08-26,朝起きたくない合同会社,,合同会社,埼玉県,所沢市,大字上山口１８２－９ウィンベルソロ西武球場第二２０１,,11,208,3591153,,,,,,,2021-08-26,1,,,,,アサオキタクナイ,0
1415,6030003017834,新規,0,2021-08-26,2021-08-26,合同会社ＹＳプレシジョン,,合同会社,埼玉県,越谷市,大間野町１丁目３６番地６,,11,222,3430844,,,,,,,2021-08-26,1,,,,,ワイエスプレシジョン,0
1421,6040001119904,新規,0,2021-08-26,2021-08-26,京鵬商事株式会社,,株式会社,千葉県,印旛郡酒々井町,中川１１－３足立ビル３Ｆ,,12,322,2850921,,,,,,,2021-08-26,1,,,,,キョウホウショウジ,0
1422,6040001119912,新規,0,2021-08-26,2021-08-26,株式会社ぺいぱお,,株式会社,千葉県,松戸市,串崎新田１７０番地の９,,12,207,2702216,,,,,,,2021-08-26,1,,,,,ペイパオ,0
1427,6040003018385,新規,0,2021-08-26,2021-08-26,合同会社マルヤス酒場本八幡,,合同会社,千葉県,市川市,八幡２丁目５番２０号２Ｆ,,12,203,2720021,,,,,,,2021-08-26,1,,,,,マルヤスサカバモトヤワタ,0
1430,6050001049753,新規,0,2021-08-26,2021-08-26,株式会社カヤニ商会,,株式会社,茨城県,古河市,水海３００４番地フォレスト１０１号室,,08,204,3060215,,,,,,,2021-08-26,1,,,,,,0
1448,6110001035994,新規,0,2021-08-26,2021-08-26,株式会社富建組,,株式会社,新潟県,燕市,吉田東栄町４２番３３号,,15,213,9590232,,,,,,,2021-08-26,1,,,,,トミケングミ,0
1453,6120001239974,新規,0,2021-08-26,2021-08-26,ＭＩクリエーションズ株式会社,,株式会社,大阪府,大阪市城東区,中央２丁目１５番２０号,,27,118,5360005,,,,,,,2021-08-26,1,,,,,エムアイクリエーションズ,0
1455,6120003020085,新規,0,2021-08-26,2021-08-26,ＢＩＮＪＵ　ＧＲＯＵＰ合同会社,,合同会社,大阪府,大阪市都島区,東野田町５丁目１番１９－２０９号,,27,102,5340024,,,,,,,2021-08-26,1,,,,,ビンジュグループ,0
1460,6120101064199,新規,0,2021-08-26,2021-08-26,株式会社オレンジコーポレーション,,株式会社,大阪府,堺市北区,中百舌鳥町５丁７７５番地１５,,27,146,5918023,,,,,,,2021-08-26,1,,,,,オレンジコーポレーション,0
1468,6140001122807,新規,0,2021-08-26,2021-08-26,株式会社ラージフレンド,,株式会社,兵庫県,西宮市,西平町１０－１１,,28,204,6620093,,,,,,,2021-08-26,1,,,,,ラージフレンド,0
1469,6140001122815,新規,0,2021-08-26,2021-08-26,株式会社ＬＬＡ,,株式会社,兵庫県,芦屋市,朝日ケ丘町６番２１－５０３号,,28,206,6590012,,,,,,,2021-08-26,1,,,,,エルエルエー,0
1482,6180001147577,新規,0,2021-08-26,2021-08-26,株式会社１５ｄｅｓｉｇｎ,,株式会社,愛知県,名古屋市北区,上飯田東町４丁目３３番地（クレア上飯田３０１号）,,23,103,4620803,,,,,,,2021-08-26,1,,,,,フィフティーンデザイン,0
1491,6190001028636,新規,0,2021-08-26,2021-08-26,株式会社やまぜんファーム,,株式会社,三重県,桑名市,多度町下野代９００番地,,24,205,5110117,,,,,,,2021-08-26,1,,,,,ヤマゼンファーム,0
1492,6200001039045,新規,0,2021-08-26,2021-08-26,安謙産業株式会社,,株式会社,岐阜県,羽島市,桑原町前野９６３番地,,21,209,5016322,,,,,,,2021-08-26,1,,,,,アンケンサンギョウ,0
1497,6220001024391,新規,0,2021-08-26,2021-08-26,株式会社シュクレプラージュ,,株式会社,石川県,羽咋郡志賀町,高浜町ノの８１番地７,,17,384,9250141,,,,,,,2021-08-26,1,,,,,シュクレプラージュ,0
1504,6240005015261,新規,0,2021-08-26,2021-08-26,一般社団法人里山環境資源循環研究所,,その他の設立登記法人,広島県,安芸高田市,高宮町川根３４６０番地１,,34,214,7391801,,,,,,,2021-08-26,1,,,,,サトヤマカンキョウシゲンジュンカンケンキュウショ,0
1511,6290001094321,新規,0,2021-08-26,2021-08-26,株式会社ビズリンク不動産,,株式会社,福岡県,福岡市中央区,天神３丁目１２番２４号,,40,133,8100001,,,,,,,2021-08-26,1,,,,,ビズリンクフドウサン,0
1515,6290003011547,新規,0,2021-08-26,2021-08-26,グリーンベース合同会社,,合同会社,福岡県,福岡市中央区,平尾５丁目４番９号,,40,133,8100014,,,,,,,2021-08-26,1,,,,,グリーンベース,0
1522,6300001012603,新規,0,2021-08-26,2021-08-26,株式会社建築の西山,,株式会社,佐賀県,伊万里市,立花町通谷１６０４－２１,,41,205,8480027,,,,,,,2021-08-26,1,,,,,ケンチクノニシヤマ,0
1531,6330005010385,新規,0,2021-08-26,2021-08-26,ノーサイド行政書士法人,,その他の設立登記法人,熊本県,熊本市中央区,帯山４丁目４５－１ＣＰＫⅡビル３０１号室,00124030,43,101,8620924,,,,,,,2021-08-26,1,,,,,ノーサイド,0
1537,6360003011382,新規,0,2021-08-26,2021-08-26,合同会社Ｋ’ｚマリン倶楽部,,合同会社,沖縄県,宮古島市,平良字下里７５１番地１,,47,214,9060013,,,,,,,2021-08-26,1,,,,,ケーズマリンクラブ,0
1538,6360003011390,新規,0,2021-08-26,2021-08-26,ＣＥＳ九州５太陽光発電所合同会社,,合同会社,沖縄県,那覇市,松尾１丁目１０番２４号ホークシティ那覇ビル１階,,47,201,9000014,,,,,,,2021-08-26,1,,,,,シーイーエスキュウシュウファイブタイヨウコウハツデンショ,0
1541,6380001032148,新規,0,2021-08-26,2021-08-26,株式会社ＡＩ・グローバル,,株式会社,福島県,南相馬市,原町区本町１丁目１０１番,,07,212,9750008,,,,,,,2021-08-26,1,,,,,アイグローバル,0
1543,6380005012468,新規,0,2021-08-26,2021-08-26,一般社団法人ｈａｃｃｏｂａ,,その他の設立登記法人,福島県,南相馬市,小高区田町２丁目５０番６,,07,212,9792112,,,,,,,2021-08-26,1,,,,,,0
1567,6490001009969,新規,0,2021-08-26,2021-08-26,株式会社ＤＳ,,株式会社,高知県,高知市,稲荷町３番１３－６０３号,,39,201,7810814,,,,,,,2021-08-26,1,,,,,ディーエス,0
1571,6500005008412,新規,0,2021-08-26,2021-08-26,特定非営利活動法人しまなみアートファーム,,その他の設立登記法人,愛媛県,今治市,大三島町野々江１２２６番地,,38,202,7941306,,,,,,,2021-08-26,1,,,,,シマナミアートファーム,0
1572,6700150038623,新規,0,2021-08-26,2015-10-09,大館市放課後子ども教室実行委員会,,その他,秋田県,大館市,清水２丁目１－５３コーポひまわり２Ｆ,,05,204,0170046,,,,,,,2015-10-09,1,,,,,オオダテシホウカゴコドモキヨウシツジツコウイインカイ,0
1575,6700150104342,新規,0,2021-08-26,2021-08-13,大阪ＡＳＴ研究会,,その他,大阪府,大阪市住吉区,万代東３丁目１－５６大阪急性期・総合医療センター感染症内科内,,27,120,5580056,,,,,,,2021-08-13,1,,,,,オオサカエイエステイーケンキユウカイ,0
1587,7010001220639,新規,0,2021-08-26,2021-08-26,ＯｎｅＣｉｔｙＨｏｌｄｉｎｇｓ株式会社,,株式会社,東京都,中央区,銀座６丁目１３番１６号銀座ＷａｌｌビルＵＣＦ５階,,13,102,1040061,,,,,,,2021-08-26,1,,,,,ワンシティホールディングス,0
1588,7010001220738,新規,0,2021-08-26,2021-08-26,株式会社ＳＨＩＰ第２３４号,,株式会社,東京都,千代田区,丸の内２丁目７番２号,,13,101,1000005,,,,,,,2021-08-26,1,,,,,エスエイチアイピーダイニヒャクサンジュウヨンゴウ,0
1597,7010003035696,新規,0,2021-08-26,2021-08-26,合同会社ＣｏｒｅＭａｎｙＳｋｉｌｌ,,合同会社,東京都,中央区,八重洲１丁目８番１７号新槇町ビル６階,,13,102,1030028,,,,,,,2021-08-26,1,,,,,コアメニースキル,0
1598,7010005033847,新規,0,2021-08-26,2021-08-26,一般財団法人デジタル資産管理機構,,その他の設立登記法人,東京都,千代田区,二番町１－２番町ハイム７１３号,,13,101,1020084,,,,,,,2021-08-26,1,,,,,デジタルシサンカンリキコウ,0
1599,7010101014825,新規,0,2021-08-26,2021-08-26,株式会社Ｄ－Ｍａｙ,,株式会社,東京都,八王子市,台町１丁目１３番５号,,13,201,1930931,,,,,,,2021-08-26,1,,,,,ディーメイ,0
1605,7010401162266,新規,0,2021-08-26,2021-08-26,株式会社パラドックス・ホールディングス,,株式会社,東京都,港区,北青山３丁目５番１５号,,13,103,1070061,,,,,,,2021-08-26,1,,,,,パラドックスホールディングス,0
1606,7010401162282,新規,0,2021-08-26,2021-08-26,株式会社ＢＲＡＣＹ,,株式会社,東京都,港区,元赤坂１丁目７番地１８,,13,103,1070051,,,,,,,2021-08-26,1,,,,,ブレイシー,0
1607,7010401162290,新規,0,2021-08-26,2021-08-26,Ｓｈｅｒｒｙ　Ｓｔｅａｍ　Ｔｅｃｈ株式会社,,株式会社,東京都,港区,六本木７丁目１５－７新六本木ビル９階,,13,103,1060032,,,,,,,2021-08-26,1,,,,,シェリースチームテック,0
1608,7010401162324,新規,0,2021-08-26,2021-08-26,株式会社ミライサイテキグループ,,株式会社,東京都,港区,虎ノ門４丁目１番２８号虎ノ門タワーズオフィス１７階,,13,103,1050001,,,,,,,2021-08-26,1,,,,,ミライサイテキグループ,0
1611,7010403025999,新規,0,2021-08-26,2021-08-26,合同会社お金の道具箱,,合同会社,東京都,港区,白金台１丁目３番５号ファーストビレッジ白金台４０４,,13,103,1080071,,,,,,,2021-08-26,1,,,,,オカネノドウグバコ,0
1623,7011001142492,新規,0,2021-08-26,2021-08-26,株式会社ＷＡＴＯＳＡ　ＧＬＯＢＡＬ,,株式会社,東京都,渋谷区,渋谷３丁目５番５号,,13,113,1500002,,,,,,,2021-08-26,1,,,,,ワトゥサグローバル,0
1624,7011001142518,新規,0,2021-08-26,2021-08-26,ＴｈｒｅｅＦｉｖｅ株式会社,,株式会社,東京都,渋谷区,神宮前６丁目２３番４号桑野ビル２Ｆ,,13,113,1500001,,,,,,,2021-08-26,1,,,,,スリーファイブ,0
1628,7011003013262,新規,0,2021-08-26,2021-08-26,Ｃｙｃｌｉｎｇ　Ｆｏｒｅｖｅｒ合同会社,,合同会社,東京都,目黒区,下目黒５丁目５番１２号,,13,110,1530064,,,,,,,2021-08-26,1,,,,,サイクリングフォーエバー,0
1635,7011101096085,新規,0,2021-08-26,2021-08-26,Ｙトラスト株式会社,,株式会社,東京都,新宿区,四谷２丁目１１番地大村ビル７階,,13,104,1600004,,,,,,,2021-08-26,1,,,,,ワイトラスト,0
1638,7011105009927,新規,0,2021-08-26,2021-08-26,社会保険労務士法人ｊ．ｕｎｉｏｎ,,その他の設立登記法人,東京都,新宿区,西新宿６丁目５番１号,,13,104,1600023,,,,,,,2021-08-26,1,,,,,ジェイユニオン,0
1650,7013301047909,新規,0,2021-08-26,2021-08-26,株式会社東祥,,株式会社,東京都,豊島区,東池袋３丁目１番４－１０２０号,,13,116,1700013,,,,,,,2021-08-26,1,,,,,トウショウ,0
1653,7013303005798,新規,0,2021-08-26,2021-08-26,合同会社アビコ,,合同会社,東京都,豊島区,長崎４丁目３５番１号,,13,116,1710051,,,,,,,2021-08-26,1,,,,,アビコ,0
1656,7020001142733,新規,0,2021-08-26,2021-08-26,株式会社Ａｓｔ　Ｌｉｎｋｓ,,株式会社,神奈川県,川崎市中原区,市ノ坪６３１番地,,14,133,2110016,,,,,,,2021-08-26,1,,,,,アストリンクス,0
1665,7020005015183,新規,0,2021-08-26,2021-08-26,土地家屋調査士法人アドフィールド登記測量事務所,,その他の設立登記法人,神奈川県,横浜市保土ケ谷区,上星川１丁目４番１６－２号ぷらす上星川１Ｆ,,14,106,2400042,,,,,,,2021-08-26,1,,,,,アドフィールドトウキソクリョウジムショ,0
1684,7040001119903,新規,0,2021-08-26,2021-08-26,株式会社ロク,,株式会社,千葉県,千葉市花見川区,幕張本郷５丁目７番３号,,12,102,2620033,,,,,,,2021-08-26,1,,,,,ロク,0
1685,7040001119911,新規,0,2021-08-26,2021-08-26,株式会社ＧＥＲ,,株式会社,千葉県,流山市,大字鰭ケ崎１６８３番地の２２,,12,220,2700161,,,,,,,2021-08-26,1,,,,,ジーイーアール,0
1691,7040003018392,新規,0,2021-08-26,2021-08-26,合同会社ＢａｍｂｏｏＳｔｒｅａｍ,,合同会社,千葉県,野田市,上花輪６６１番地の６,,12,208,2780033,,,,,,,2021-08-26,1,,,,,バンブーストリーム,0
1692,7040003018401,新規,0,2021-08-26,2021-08-26,合同会社喜喜,,合同会社,千葉県,船橋市,芝山５丁目５３番２１号,,12,204,2740816,,,,,,,2021-08-26,1,,,,,キキ,0
1696,7050001049752,新規,0,2021-08-26,2021-08-26,株式会社喜良良,,株式会社,茨城県,水戸市,泉町３丁目１番９号,,08,201,3100026,,,,,,,2021-08-26,1,,,,,キララ,0
1708,7080401025284,新規,0,2021-08-26,2021-08-26,株式会社再起,,株式会社,静岡県,磐田市,見付５０６２番地３,,22,211,4380086,,,,,,,2021-08-26,1,,,,,サイキ,0
1714,7100001034550,新規,0,2021-08-26,2021-08-26,株式会社８Ｐｅａｋｓ　ｆａｍｉｌｙ,,株式会社,長野県,茅野市,ちの３５０６番地,,20,214,3910001,,,,,,,2021-08-26,1,,,,,エイトピークスファミリー,0
1728,7120105009439,新規,0,2021-08-26,2021-08-26,一般社団法人つかさ会,,その他の設立登記法人,大阪府,堺市堺区,北瓦町２丁１番２８号ヤングタウン１０３ビル４階,,27,141,5900076,,,,,,,2021-08-26,1,,,,,ツカサカイ,0
1730,7122003002161,新規,0,2021-08-26,2021-08-26,合同会社ｆｒｅｅリース,,合同会社,大阪府,東大阪市,御厨１丁目２番８－３０６号,,27,227,5770032,,,,,,,2021-08-26,1,,,,,フリーリース,0
1732,7130001069981,新規,0,2021-08-26,2021-08-26,株式会社Ｈｉｇｕｃｈｉ,,株式会社,京都府,京都市右京区,山越東町２６番地６５,,26,108,6168194,,,,,,,2021-08-26,1,,,,,ヒグチ,0
1738,7130003007436,新規,0,2021-08-26,2021-08-26,カンジ合同会社,,合同会社,京都府,京都市山科区,竹鼻立原町５番地５ライブタウン山科４０９号,,26,110,6078084,,,,,,,2021-08-26,1,,,,,カンジ,0
1740,7140001122789,新規,0,2021-08-26,2021-08-26,ＥＰ株式会社,,株式会社,兵庫県,神崎郡福崎町,高岡１９２１番地３６,,28,443,6792217,,,,,,,2021-08-26,1,,,,,イーピー,0
1743,7160001023580,新規,0,2021-08-26,2021-08-26,株式会社ＪＰＳ,,株式会社,滋賀県,大津市,湖城が丘１６番３８号,,25,201,5200821,,,,,,,2021-08-26,1,,,,,ジェイピーエス,0
1752,7180001147510,新規,0,2021-08-26,2021-08-26,株式会社ＬｉｇｈｔＶ,,株式会社,愛知県,名古屋市中区,丸の内２丁目１３番１６号－２,,23,106,4600002,,,,,,,2021-08-26,1,,,,,ライトヴィー,0
1753,7180001147568,新規,0,2021-08-26,2021-08-26,株式会社ＴＨＥ　ＣＡＲ,,株式会社,愛知県,名古屋市名東区,八前２丁目１２１番地,,23,115,4650018,,,,,,,2021-08-26,1,,,,,ザカー,0
1756,7220001024390,新規,0,2021-08-26,2021-08-26,株式会社杉永工建,,株式会社,石川県,河北郡津幡町,字緑が丘２丁目９２番地,,17,361,9290322,,,,,,,2021-08-26,1,,,,,スギナガコウケン,0
1757,7220005008588,新規,0,2021-08-26,2021-08-26,特定非営利活動法人高齢者生活支援グループ百薬庵,,その他の設立登記法人,石川県,金沢市,長町２丁目３番２３－２号,,17,201,9200865,,,,,,,2021-08-26,1,,,,,コウレイシャセイカツシエングループヒャクヤクアン,0
1768,7250001019082,新規,0,2021-08-26,2021-08-26,株式会社グローアップ,,株式会社,山口県,宇部市,西平原３丁目４番１６号,,35,202,7550808,,,,,,,2021-08-26,1,,,,,グローアップ,0
1769,7260001035896,新規,0,2021-08-26,2021-08-26,青木キャピタルファンド株式会社,,株式会社,岡山県,浅口市,鴨方町益坂１３７７番地１青木ビル３階,,33,216,7190234,,,,,,,2021-08-26,1,,,,,アオキキャピタルファンド,0
1773,7280003001523,新規,0,2021-08-26,2021-08-26,菊栄・松田漁業合同会社,,合同会社,島根県,隠岐郡隠岐の島町,港町天神原１１番地５３,,32,528,6850015,,,,,,,2021-08-26,1,,,,,キクエイマツダギョギョウ,0
1774,7290001094337,新規,0,2021-08-26,2021-08-26,株式会社ＡＤＨＶＡＮ,,株式会社,福岡県,福岡市東区,青葉５丁目２２番１１号,,40,131,8130025,,,,,,,2021-08-26,1,,,,,アドワン,0
1775,7290001094353,新規,0,2021-08-26,2021-08-26,株式会社カルテット・ラボ,,株式会社,福岡県,福岡市博多区,青木１丁目１３番２６号,,40,132,8120851,,,,,,,2021-08-26,1,,,,,カルテットラボ,0
1777,7290003011546,新規,0,2021-08-26,2021-08-26,合同会社ＳＹドリーム,,合同会社,福岡県,福岡市博多区,博多駅前２丁目１９番１７号トーカン博多第５ビル３１２号室,,40,132,8120011,,,,,,,2021-08-26,1,,,,,エスワイドリーム,0
1790,7370003005366,新規,0,2021-08-26,2021-08-26,合同会社ＮＭＥＧ,,合同会社,宮城県,仙台市青葉区,国見１丁目１３－１４－１０３,,04,101,9810943,,,,,,,2021-08-26,1,,,,,エヌメッグ,0
1799,7430001084802,新規,0,2021-08-26,2021-08-26,株式会社北奏社,,株式会社,北海道,小樽市,東雲町２番５号,,01,203,0470026,,,,,,,2021-08-26,1,,,,,ホクソウシャ,0
1800,7430001084810,新規,0,2021-08-26,2021-08-26,株式会社エムエスワーク,,株式会社,北海道,札幌市豊平区,美園四条５丁目３番１０号,,01,105,0620004,,,,,,,2021-08-26,1,,,,,エムエスワーク,0
1808,7450001013461,新規,0,2021-08-26,2021-08-26,アグレスメント株式会社,,株式会社,北海道,旭川市,東旭川町忠別６４５番地の１,,01,204,0788206,,,,,,,2021-08-26,1,,,,,アグレスメント,0
1811,7470001018673,新規,0,2021-08-26,2021-08-26,株式会社三輝,,株式会社,香川県,高松市,西山崎町６９０番地１７,,37,201,7618045,,,,,,,2021-08-26,1,,,,,サンキ,0
1812,7470005006377,新規,0,2021-08-26,2021-08-26,一般社団法人香川県ネコソギ・イノベーション推進協議会,,その他の設立登記法人,香川県,高松市,上林町５１０番地３９エニシア高松内,,37,201,7610302,,,,,,,2021-08-26,1,,,,,カガワケンネコソギイノベーションスイシンキョウギカイ,0
1818,7490001009968,新規,0,2021-08-26,2021-08-26,株式会社Ｂ・Ｆ・Ｃ・Ｃ,,株式会社,高知県,高知市,瀬戸２丁目１２番１５号,,39,201,7810250,,,,,,,2021-08-26,1,,,,,ビーエフシーシー,0
1821,7500001023637,新規,0,2021-08-26,2021-08-26,株式会社Ｆｉｅｌｄ　Ｂｌｏｏｍ　Ｋａｒｅｎ,,株式会社,愛媛県,松山市,湊町７丁目２番地４カーサ市駅ビル２階,,38,201,7900012,,,,,,,2021-08-26,1,,,,,フィールドブルームカレン,0
1837,8010001220448,新規,0,2021-08-26,2021-08-26,ノーサイドジャパン株式会社,,株式会社,東京都,千代田区,九段南４丁目６番１０号,,13,101,1020074,,,,,,,2021-08-26,1,,,,,ノーサイドジャパン,0
1838,8010001220670,新規,0,2021-08-26,2021-08-26,Ｙ’ｓホールディングス株式会社,,株式会社,東京都,千代田区,丸の内１丁目９番１号,,13,101,1000005,,,,,,,2021-08-26,1,,,,,ワイズホールディングス,0
1839,8010001220729,新規,0,2021-08-26,2021-08-26,株式会社ＳＨＩＰ第２２５号,,株式会社,東京都,千代田区,丸の内２丁目７番２号,,13,101,1000005,,,,,,,2021-08-26,1,,,,,エスエイチアイピーダイニヒャクニジュウゴゴウ,0
1840,8010001220737,新規,0,2021-08-26,2021-08-26,株式会社ＳＨＩＰ第２３３号,,株式会社,東京都,千代田区,丸の内２丁目７番２号,,13,101,1000005,,,,,,,2021-08-26,1,,,,,エスエイチアイピーダイニヒャクサンジュウサンゴウ,0
1847,8010401162265,新規,0,2021-08-26,2021-08-26,株式会社ＴＤ総合研究所,,株式会社,東京都,港区,三田３丁目２番２２－３０５号,,13,103,1080073,,,,,,,2021-08-26,1,,,,,ティディソウゴウケンキュウジョ,0
1851,8010403025981,新規,0,2021-08-26,2021-08-26,合同会社Ｌｉｖｅｌｙ,,合同会社,東京都,港区,虎ノ門３丁目２２番１０－２０１号,,13,103,1050001,,,,,,,2021-08-26,1,,,,,ライブリィ,0
1852,8010405020147,新規,0,2021-08-26,2021-08-26,一般社団法人ＳＡ　ＰＲＯＰＥＲＴＹ６,,その他の設立登記法人,東京都,港区,虎ノ門５丁目１番４号,,13,103,1050001,,,,,,,2021-08-26,1,,,,,エスエープロパティシックス,0
1863,8010903006754,新規,0,2021-08-26,2021-08-26,合同会社Ｏｌｄ　ｒｉｃｅ　ｆｉｅｌｄ,,合同会社,東京都,世田谷区,赤堤４丁目９番４号ＰｔｉＢｏｎａｎ．ｓ１０２,,13,112,1560044,,,,,,,2021-08-26,1,,,,,オールドライスフィールド,0
1870,8011001142426,新規,0,2021-08-26,2021-08-26,株式会社Ｗｅ　Ｃｒｅａｔｅ,,株式会社,東京都,渋谷区,神宮前６丁目２３番４号桑野ビル２階,,13,113,1500001,,,,,,,2021-08-26,1,,,,,ウィークリエイト,0
1871,8011001142509,新規,0,2021-08-26,2021-08-26,株式会社５Ｈａｎｄｓ,,株式会社,東京都,渋谷区,代々木４丁目２６番９－１０２号,,13,113,1510053,,,,,,,2021-08-26,1,,,,,ファイブハンズ,0
1872,8011001142517,新規,0,2021-08-26,2021-08-26,株式会社テリオット,,株式会社,東京都,渋谷区,富ヶ谷１丁目９番２０号,,13,113,1510063,,,,,,,2021-08-26,1,,,,,テリオット,0
1874,8011003013286,新規,0,2021-08-26,2021-08-26,合同会社まちづくりせいさく研究所,,合同会社,東京都,渋谷区,代々木１丁目３７番６号三栄ビル４階,,13,113,1510053,,,,,,,2021-08-26,1,,,,,マチヅクリセイサクケンキュウショ,0
1875,8011005009175,新規,0,2021-08-26,2021-08-26,一般財団法人増田冨美記念財団,,その他の設立登記法人,東京都,目黒区,青葉台２丁目７番１３号,,13,110,1530042,,,,,,,2021-08-26,1,,,,,マスダフミキネンザイダン,0
1878,8011105009934,新規,0,2021-08-26,2021-08-26,ＹＵＫＩ行政書士法人,,その他の設立登記法人,東京都,新宿区,百人町２丁目２１－４渡辺ビル２階Ａ号室,,13,104,1690073,,,,,,,2021-08-26,1,,,,,,0
1889,8012401038247,新規,0,2021-08-26,2021-08-26,株式会社Ｅｌｅｆｔｈｅｒｉａ,,株式会社,東京都,調布市,下石原１丁目３２番地４プランドールＴ２０１,,13,208,1820034,,,,,,,2021-08-26,1,,,,,エレフセリア,0
1894,8013301047916,新規,0,2021-08-26,2021-08-26,株式会社Ｌａ　ｓｃａｌａ,,株式会社,東京都,豊島区,目白３丁目１３番１号コトブキビル２Ｆ,,13,116,1710031,,,,,,,2021-08-26,1,,,,,ラスカラ,0
1916,8021001073777,新規,0,2021-08-26,2021-08-26,株式会社比嘉興業,,株式会社,神奈川県,綾瀬市,深谷中５丁目３２２９番１１,,14,218,2521107,,,,,,,2021-08-26,1,,,,,ヒガコウギョウ,0
1935,8030001143969,新規,0,2021-08-26,2021-08-26,株式会社アクティブイースト,,株式会社,埼玉県,行田市,長野１丁目９番７号,,11,206,3610023,,,,,,,2021-08-26,1,,,,,アクティブイースト,0
1937,8030003017832,新規,0,2021-08-26,2021-08-26,合同会社Ｓｍｉｌｅ,,合同会社,埼玉県,さいたま市大宮区,三橋１丁目３６１番地２０,,11,103,3300856,,,,,,,2021-08-26,1,,,,,スマイル,0
1942,8040003018375,新規,0,2021-08-26,2021-08-26,合同会社Ａｎｇｋｏｒ,,合同会社,千葉県,我孫子市,我孫子２丁目６番９２３号エールの丘,,12,222,2701166,,,,,,,2021-08-26,1,,,,,アンコール,0
1948,8050001049751,新規,0,2021-08-26,2021-08-26,株式会社五郎助農場,,株式会社,茨城県,筑西市,関本中３３６番地１,,08,227,3080126,,,,,,,2021-08-26,1,,,,,ゴロウスケノウジョウ,0
1957,8060001034026,新規,0,2021-08-26,2021-08-26,日本山林再生株式会社,,株式会社,栃木県,宇都宮市,大谷町１２４０番地,,09,201,3210345,,,,,,,2021-08-26,1,,,,,ニホンサンリンサイセイ,0
1977,8110001035992,新規,0,2021-08-26,2021-08-26,株式会社ＮＴフーズ,,株式会社,新潟県,上越市,日之出町４５番地１,,15,222,9420014,,,,,,,2021-08-26,1,,,,,エヌティフーズ,0
1985,8120001239964,新規,0,2021-08-26,2021-08-26,株式会社Ｓｏｗｅｒ,,株式会社,大阪府,大阪市西区,立売堀４丁目５番１１－５０５号,,27,106,5500012,,,,,,,2021-08-26,1,,,,,ソワー,0
1995,8130003007443,新規,0,2021-08-26,2021-08-26,ピオニー合同会社,,合同会社,京都府,京都市伏見区,深草北蓮池町９１５－２－７０１,,26,109,6120035,,,,,,,2021-08-26,1,,,,,ピオニー,0
1997,8140001122805,新規,0,2021-08-26,2021-08-26,株式会社ラインエレクト,,株式会社,兵庫県,高砂市,曽根町１１１１番地の８,,28,216,6760082,,,,,,,2021-08-26,1,,,,,ラインエレクト,0
2000,8140003016666,新規,0,2021-08-26,2021-08-26,合同会社アイ・デザイン,,合同会社,兵庫県,西宮市,苦楽園二番町１６番２２号２,,28,204,6620082,,,,,,,2021-08-26,1,,,,,アイデザイン,0
2025,8190001028634,新規,0,2021-08-26,2021-08-26,ＹＭ　ＴＲＡＤＩＮＧ株式会社,,株式会社,三重県,桑名市,多度町御衣野字奥ノ谷１４５６番９,,24,205,5110118,,,,,,,2021-08-26,1,,,,,ワイエムトレーディング,0
2048,8260001035895,新規,0,2021-08-26,2021-08-26,株式会社岡和,,株式会社,岡山県,岡山市東区,城東台東１丁目２番３号,,33,103,7090622,,,,,,,2021-08-26,1,,,,,コウワ,0
2061,8290003011545,新規,0,2021-08-26,2021-08-26,レインボーパーツ合同会社,,合同会社,福岡県,福岡市早良区,原３丁目１９番１０－４０１号,,40,137,8140022,,,,,,,2021-08-26,1,,,,,レインボーパーツ,0
2066,8300005007028,新規,0,2021-08-26,2021-08-26,一般社団法人シルバーすけっと,,その他の設立登記法人,佐賀県,鳥栖市,弥生が丘１丁目２１番地,,41,203,8410005,,,,,,,2021-08-26,1,,,,,シルバースケット,0
2068,8320001018555,新規,0,2021-08-26,2021-08-26,仟易達株式会社,,株式会社,大分県,由布市,湯布院町川上２９８９番地１,,44,213,8795102,,,,,,,2021-08-26,1,,,,,センイタツ,0
2072,8340003003529,新規,0,2021-08-26,2021-08-26,ｈａｃｏ合同会社,,合同会社,鹿児島県,鹿児島市,東千石町１８－１０第一照国ビル１階,,46,201,8920842,,,,,,,2021-08-26,1,,,,,ハコ,0
2074,8360001029284,新規,0,2021-08-26,2021-08-26,株式会社はちれん,,株式会社,沖縄県,中頭郡読谷村,字喜名２３４６番地１１読谷村地域振興センター３階,,47,324,9040302,,,,,,,2021-08-26,1,,,,,ハチレン,0
2077,8360003011389,新規,0,2021-08-26,2021-08-26,合同会社中部米飯,,合同会社,沖縄県,中頭郡北谷町,字桑江４３７番地,,47,326,9040103,,,,,,,2021-08-26,1,,,,,チュウブベイハン,0
2079,8370001047525,新規,0,2021-08-26,2021-08-26,株式会社アストライア,,株式会社,宮城県,登米市,迫町新田字山崎１８０－８,,04,212,9894601,,,,,,,2021-08-26,1,,,,,アストライア,0
2088,8400001015577,新規,0,2021-08-26,2021-08-26,株式会社ＹＭＣ,,株式会社,岩手県,盛岡市,向中野６丁目３番５４号,,03,201,0200851,,,,,,,2021-08-26,1,,,,,ワイエムシー,0
2093,8430001084818,新規,0,2021-08-26,2021-08-26,株式会社ナノジャ,,株式会社,北海道,札幌市豊平区,平岸五条１３丁目２番１９号,,01,105,0620935,,,,,,,2021-08-26,1,,,,,ナノジャ,0
2094,8440001008940,新規,0,2021-08-26,2021-08-26,株式会社澤田塗装,,株式会社,北海道,北斗市,東浜１丁目１番１６号,,01,236,0490122,,,,,,,2021-08-26,1,,,,,サワダトソウ,0
2099,8470001018672,新規,0,2021-08-26,2021-08-26,香川モビリティサービス株式会社,,株式会社,香川県,高松市,香西本町３６番地１,,37,201,7618012,,,,,,,2021-08-26,1,,,,,カガワモビリティサービス,0
2100,8470005006376,新規,0,2021-08-26,2021-08-26,医療法人社団加地医院,,その他の設立登記法人,香川県,高松市,牟礼町牟礼２２番地１,,37,201,7610121,,,,,,,2021-08-26,1,,,,,カジイイン,0
2117,9010001220703,新規,0,2021-08-26,2021-08-26,株式会社ＦＴＲ,,株式会社,東京都,中央区,銀座４丁目１３－８岩藤ビル５Ｆ,,13,102,1040061,,,,,,,2021-08-26,1,,,,,エフティーアール,0
2118,9010001220728,新規,0,2021-08-26,2021-08-26,株式会社ＳＨＩＰ第２２４号,,株式会社,東京都,千代田区,丸の内２丁目７番２号,,13,101,1000005,,,,,,,2021-08-26,1,,,,,エスエイチアイピーダイニヒャクニジュウヨンゴウ,0
2119,9010001220736,新規,0,2021-08-26,2021-08-26,株式会社ＳＨＩＰ第２３２号,,株式会社,東京都,千代田区,丸の内２丁目７番２号,,13,101,1000005,,,,,,,2021-08-26,1,,,,,エスエイチアイピーダイニヒャクサンジュウニゴウ,0
2123,9010003035686,新規,0,2021-08-26,2021-08-26,合同会社ル・クール,,合同会社,東京都,千代田区,神田神保町２丁目１９番地１－９０５号,,13,101,1010051,,,,,,,2021-08-26,1,,,,,ルクール,0
2124,9010005033853,新規,0,2021-08-26,2021-08-26,地域リノベーション協同組合,,その他の設立登記法人,東京都,千代田区,神田松永町７番地ヤマリビル,,13,101,1010023,,,,,,,2021-08-26,1,,,,,,0
2125,9010101014831,新規,0,2021-08-26,2021-08-26,株式会社プレサイド,,株式会社,東京都,八王子市,大横町７番２号,,13,201,1920062,,,,,,,2021-08-26,1,,,,,プレサイド,0
2137,9010401162289,新規,0,2021-08-26,2021-08-26,株式会社Ｔ－ＬＡＮＤ,,株式会社,東京都,港区,南麻布１丁目２７番２０号,,13,103,1060047,,,,,,,2021-08-26,1,,,,,ティランド,0
2144,9010701041432,新規,0,2021-08-26,2021-08-26,株式会社スカイアイ,,株式会社,東京都,品川区,小山３丁目１５番２－２８０８号,,13,109,1420062,,,,,,,2021-08-26,1,,,,,スカイアイ,0
2157,9011001142474,新規,0,2021-08-26,2021-08-26,原宿研究所株式会社,,株式会社,東京都,渋谷区,神宮前６丁目２８番５号,,13,113,1500001,,,,,,,2021-08-26,1,,,,,ハラジュクケンキュウジョ,0
2158,9011001142516,新規,0,2021-08-26,2021-08-26,株式会社Ａｎｃｈｅｒｉ,,株式会社,東京都,目黒区,青葉台１丁目１４番４号,,13,110,1530042,,,,,,,2021-08-26,1,,,,,アンシェリー,0
2159,9011001142557,新規,0,2021-08-26,2021-08-26,株式会社ＴＡＭＡＭＳＢｉ．Ｃｏ．,,株式会社,東京都,渋谷区,神南１丁目５番１９号,,13,113,1500041,,,,,,,2021-08-26,1,,,,,タマムスビ,0
2160,9011003013269,新規,0,2021-08-26,2021-08-26,Ｈｉ　Ｐｒｏｊｅｃｔ合同会社,,合同会社,東京都,渋谷区,桜丘町１４－５,,13,113,1500031,,,,,,,2021-08-26,1,,,,,エイチアイプロジェクト,0
2173,9011601025351,新規,0,2021-08-26,2021-08-26,株式会社Ｔ－Ｓｔａｇｅ,,株式会社,東京都,練馬区,大泉学園町５丁目１４番７号,,13,120,1780061,,,,,,,2021-08-26,1,,,,,ティーステージ,0
2179,9012803002584,新規,0,2021-08-26,2021-08-26,ゼッタ・コアソリューションズ合同会社,,合同会社,東京都,日野市,多摩平４丁目８番地の２オハナ豊田多摩平の森１０７,,13,212,1910062,,,,,,,2021-08-26,1,,,,,ゼッタコアソリューションズ,0
2180,9013101008704,新規,0,2021-08-26,2021-08-26,日本レッツケア株式会社,,株式会社,東京都,羽村市,富士見平２丁目１４番５号１,,13,227,2050013,,,,,,,2021-08-26,1,,,,,ニホンレッツケア,0
2183,9013103001070,新規,0,2021-08-26,2021-08-26,ＺＩＭＺＡＩ　ＴＲＡＤＩＮＧ合同会社,,合同会社,東京都,青梅市,今井２丁目７６１番地の３,,13,205,1980023,,,,,,,2021-08-26,1,,,,,ジムザイトレーディング,0
2188,9013301047915,新規,0,2021-08-26,2021-08-26,株式会社Ａｌｗａｙｓ,,株式会社,東京都,豊島区,池袋２丁目３７番５号,,13,116,1710014,,,,,,,2021-08-26,1,,,,,オールウェイズ,0
2194,9020001142764,新規,0,2021-08-26,2021-08-26,株式会社アイズ,,株式会社,神奈川県,横浜市港北区,新横浜３丁目１８番５号,,14,109,2220033,,,,,,,2021-08-26,1,,,,,アイズ,0
2208,9030001143968,新規,0,2021-08-26,2021-08-26,株式会社ＡＫＢＡＢＡ,,株式会社,埼玉県,さいたま市岩槻区,大字笹久保新田８８４番地１,,11,110,3390035,,,,,,,2021-08-26,1,,,,,アクババ,0
2209,9030001143984,新規,0,2021-08-26,2021-08-26,Ｆ．Ｉ．Ｐｅｔｅｒ　Ａｅｒｔｓ株式会社,,株式会社,埼玉県,蕨市,南町２丁目７番８号,,11,223,3350003,,,,,,,2021-08-26,1,,,,,エフアイピーターアーツ,0
2213,9030003017823,新規,0,2021-08-26,2021-08-26,合同会社ＩＮＳ,,合同会社,埼玉県,さいたま市大宮区,桜木町２丁目３番地大宮マルイ７階,,11,103,3300854,,,,,,,2021-08-26,1,,,,,インス,0
2223,9040001119901,新規,0,2021-08-26,2021-08-26,株式会社くろこアシスト,,株式会社,千葉県,習志野市,大久保２丁目１番１７号丸山ビル３０４号室,,12,216,2750011,,,,,,,2021-08-26,1,,,,,クロコアシスト,0
2224,9040003018374,新規,0,2021-08-26,2021-08-26,合同会社ラズール,,合同会社,千葉県,市原市,北国分寺台５丁目１１番地１,,12,219,2900071,,,,,,,2021-08-26,1,,,,,ラズール,0
2225,9040003018382,新規,0,2021-08-26,2021-08-26,ＧＥＶＩＮ　ＩＮＴＥＲＮＡＴＩＯＮＡＬ合同会社,,合同会社,千葉県,東金市,丹尾２１０番地４１,,12,213,2830824,,,,,,,2021-08-26,1,,,,,ゲビンインターナショナル,0
2226,9040003018390,新規,0,2021-08-26,2021-08-26,合同会社ＥＧ　Ｔｅｃｈ,,合同会社,千葉県,船橋市,馬込町８９５番地１３,,12,204,2730851,,,,,,,2021-08-26,1,,,,,イージーテック,0
2239,9080001024387,新規,0,2021-08-26,2021-08-26,株式会社サンライズガード,,株式会社,静岡県,藤枝市,高柳１５３５番地,,22,214,4260041,,,,,,,2021-08-26,1,,,,,サンライズガード,0
2249,9110001035942,新規,0,2021-08-26,2021-08-26,株式会社吉右衛門,,株式会社,新潟県,佐渡市,畑野６５１番地５,,15,224,9520206,,,,,,,2021-08-26,1,,,,,キチエモン,0
2250,9110001035991,新規,0,2021-08-26,2021-08-26,株式会社小川鋼作所,,株式会社,新潟県,長岡市,福島町１６２８番地,,15,202,9400896,,,,,,,2021-08-26,1,,,,,オガワコウサクショ,0
2257,9120001239922,新規,0,2021-08-26,2021-08-26,株式会社ＡＣＭＥＴＨＲＥＥ,,株式会社,大阪府,大阪市浪速区,大国１丁目６番８－１０５号,,27,111,5560014,,,,,,,2021-08-26,1,,,,,アクメスリー,0
2258,9120001239955,新規,0,2021-08-26,2021-08-26,株式会社武翔,,株式会社,大阪府,門真市,岸和田３丁目４６番１,,27,223,5710002,,,,,,,2021-08-26,1,,,,,タケショウ,0
2261,9120901044793,新規,0,2021-08-26,2021-08-26,株式会社アマンス,,株式会社,大阪府,箕面市,船場西３丁目２番７号,,27,220,5620036,,,,,,,2021-08-26,1,,,,,アマンス,0
2278,9140001122804,新規,0,2021-08-26,2021-08-26,イカワ商事株式会社,,株式会社,兵庫県,神戸市長田区,西尻池町３丁目１番１９号,,28,106,6530031,,,,,,,2021-08-26,1,,,,,イカワショウジ,0
2279,9140001122812,新規,0,2021-08-26,2021-08-26,株式会社ＲＥＧＡＬＯ．,,株式会社,兵庫県,姫路市,小川１１３４番地３,,28,201,6700000,,,,,,,2021-08-26,1,,,,,レガーロ,0
2282,9140003016665,新規,0,2021-08-26,2021-08-26,合同会社ネクストＹ,,合同会社,兵庫県,神戸市東灘区,本山南町５丁目４番２５－１００６号,,28,101,6580015,,,,,,,2021-08-26,1,,,,,ネクストワイ,0
2284,9150001024883,新規,0,2021-08-26,2021-08-26,株式会社ＢＬＵＥ　ＰＯＲＴインターナショナル,,株式会社,奈良県,大和高田市,大東町７番１号,,29,202,6350016,,,,,,,2021-08-26,1,,,,,ブルーポートインターナショナル,0
2288,9160003002358,新規,0,2021-08-26,2021-08-26,レイクサウス合同会社,,合同会社,滋賀県,湖南市,サイドタウン４丁目１０番３号,,25,211,5203244,,,,,,,2021-08-26,1,,,,,レイクサウス,0
2295,9180001147558,新規,0,2021-08-26,2021-08-26,株式会社キタノチカラ,,株式会社,愛知県,名古屋市中区,栄３丁目２２番２９号,,23,106,4600008,,,,,,,2021-08-26,1,,,,,キタノチカラ,0
2296,9180001147574,新規,0,2021-08-26,2021-08-26,株式会社Ｃｉｅｌｏ　ｂｌｕ,,株式会社,愛知県,一宮市,今伊勢町本神戸字牛洗３８番地８,,23,203,4910053,,,,,,,2021-08-26,1,,,,,シエロブリュ,0
2297,9180003022899,新規,0,2021-08-26,2021-08-26,合同会社ヴェルメ,,合同会社,愛知県,名古屋市中区,栄５丁目２６番３９号,,23,106,4600008,,,,,,,2021-08-26,1,,,,,ヴェルメ,0
2300,9190001028633,新規,0,2021-08-26,2021-08-26,株式会社幸建,,株式会社,三重県,津市,下弁財町津興７５３－１,,24,201,5140805,,,,,,,2021-08-26,1,,,,,コウケン,0
2308,9220001024389,新規,0,2021-08-26,2021-08-26,株式会社ＴＲＥＡＴ,,株式会社,石川県,金沢市,平和町２丁目１７番２８号,,17,201,9218105,,,,,,,2021-08-26,1,,,,,トリート,0
2319,9260001035903,新規,0,2021-08-26,2021-08-26,株式会社吉川建設,,株式会社,岡山県,瀬戸内市,邑久町下笠加６５番地１,,33,212,7014247,,,,,,,2021-08-26,1,,,,,キッカワケンセツ,0
2331,9290001094302,新規,0,2021-08-26,2021-08-26,株式会社ＳＰＩＮ,,株式会社,福岡県,福岡市中央区,今泉１丁目９番２号３Ｆ,,40,133,8100021,,,,,,,2021-08-26,1,,,,,スピン,0
2332,9290001094319,新規,0,2021-08-26,2021-08-26,株式会社ＡＳＯ創研,,株式会社,福岡県,福岡市中央区,渡辺通５丁目２５番１５号,,40,133,8100004,,,,,,,2021-08-26,1,,,,,アソオソウケン,0
2333,9290001094327,新規,0,2021-08-26,2021-08-26,株式会社リプラス,,株式会社,福岡県,福岡市中央区,天神１丁目９－１７福岡天神フコク生命ビル１５階,,40,133,8100001,,,,,,,2021-08-26,1,,,,,リプラス,0
2334,9290001094335,新規,0,2021-08-26,2021-08-26,株式会社Ｃｏｌｏｒ　ｏｆ　Ｌｉｆｅ,,株式会社,福岡県,福岡市早良区,次郎丸５丁目１４番１７号１階,,40,137,8140165,,,,,,,2021-08-26,1,,,,,カラーオブライフ,0
2335,9290001094343,新規,0,2021-08-26,2021-08-26,株式会社晴光農産,,株式会社,福岡県,久留米市,三潴町高三潴５３１番地,,40,203,8300103,,,,,,,2021-08-26,1,,,,,セイコウノウサン,0
2336,9290001094351,新規,0,2021-08-26,2021-08-26,株式会社森島興業,,株式会社,福岡県,福岡市東区,多の津４丁目１２番３５号４０１,,40,131,8130034,,,,,,,2021-08-26,1,,,,,モリシマコウギョウ,0
2337,9290003011511,新規,0,2021-08-26,2021-08-26,合同会社ＣＩＡＲＡ,,合同会社,福岡県,福岡市城南区,友丘６丁目５番２号,,40,136,8140112,,,,,,,2021-08-26,1,,,,,シアラ,0
2338,9290003011552,新規,0,2021-08-26,2021-08-26,合同会社鑫和,00124033,合同会社,福岡県,福岡市博多区,吉塚本町７－１６プラッツ吉塚１階１０１号室,,40,132,8120046,,,,,,,2021-08-26,1,,,,,シンワ,0
2350,9350001017272,新規,0,2021-08-26,2021-08-26,株式会社１Ｃｈａｎｃｅ,,株式会社,宮崎県,宮崎市,新別府町城元１７５番地,,45,201,8800834,,,,,,,2021-08-26,1,,,,,ワンチャンス,0
2352,9360001029291,新規,0,2021-08-26,2021-08-26,株式会社シンリョウ興業,,株式会社,沖縄県,うるま市,石川曙２丁目１１番５６号伊波興正アパートＢ－１,,47,213,9041107,,,,,,,2021-08-26,1,,,,,シンリョウコウギョウ,0
2353,9360005006502,新規,0,2021-08-26,2021-08-26,一般社団法人沖縄県感染症予防協会,,その他の設立登記法人,沖縄県,浦添市,仲西３丁目１５番５号６Ｆ,,47,208,9012125,,,,,,,2021-08-26,1,,,,,オキナワケンカンセンショウヨボウキョウカイ,0
2355,9380001032145,新規,0,2021-08-26,2021-08-26,株式会社カワケン,,株式会社,福島県,福島市,郷野目字金込町５番地の３,,07,201,9608161,,,,,,,2021-08-26,1,,,,,カワケン,0
2358,9380003005000,新規,0,2021-08-26,2021-08-26,合同会社ｂｅｌｌｅ　ｆｌｅｕｒ,,合同会社,福島県,郡山市,若葉町９番２１号,,07,203,9638011,,,,,,,2021-08-26,1,,,,,ベレフルール,0
2359,9390001016568,新規,0,2021-08-26,2021-08-26,株式会社絆空社,,株式会社,山形県,米沢市,舘山５丁目２番１－２号,,06,202,9920072,,,,,,,2021-08-26,1,,,,,ハンクウシャ,0
2363,9420003002372,新規,0,2021-08-26,2021-08-26,合同会社ＪＰ　ＵＳＥＤ　ＣＡＲＳ,,合同会社,青森県,三沢市,東岡三沢１丁目１４３番地３号,,02,207,0330024,,,,,,,2021-08-26,1,,,,,ジェイピーユーズドカーズ,0
2366,9430001084791,新規,0,2021-08-26,2021-08-26,株式会社北ゼミ,,株式会社,北海道,札幌市中央区,大通西１５丁目３番地５ニューライフ大通弐番館３０２,,01,101,0600042,,,,,,,2021-08-26,1,,,,,キタゼミ,0
2371,9470001018671,新規,0,2021-08-26,2021-08-26,株式会社ＲＥＧＡＬＯ,,株式会社,香川県,高松市,瓦町１丁目１２番地２４,,37,201,7600052,,,,,,,2021-08-26,1,,,,,レガロ,0
2374,9470005006375,新規,0,2021-08-26,2021-08-26,社会福祉法人にこにこ福祉会,,その他の設立登記法人,香川県,高松市,林町２９４番地１,,37,201,7610301,,,,,,,2021-08-26,1,,,,,ニコニコフクシカイ,0
2382,9700150006890,新規,0,2021-08-26,2015-10-09,日本神経科学学会,,その他,東京都,文京区,本郷７丁目２－２本郷ビル９階,,13,105,1130033,,,,,,,2015-10-09,1,,,,,ニホンシンケイカガクガツカイ,0
