sequenceNumber,corporateNumber,process,correct,updateDate,changeDate,name,nameImageId,kind,prefectureName,cityName,streetNumber,addressImageId,prefectureCode,cityCode,postCode,addressOutside,addressOutsideImageId,closeDate,closeCause,successorCorporateNumber,changeCause,assignmentDate,latest,enName,enPrefectureName,enCityName,enAddressOutside,furigana,hihyoji
9,1010001016299,登記記録の閉鎖等,0,2023-08-24,2023-08-01,株式会社高陵社書店,,株式会社,東京都,港区,白金台３丁目１－１－４０２,,13,103,1080071,,,2023-08-01,合併による解散等,2010401133775,令和５年８月１日東京都港区白金台３－１－１－４０２株式会社スピーディ（2010401133775）に合併し解散,2015-10-05,1,,,,,コウリョウシャショエン,0
43,1010603007951,登記記録の閉鎖等,0,2023-08-24,2023-07-28,ＤＮＥＸＴ合同会社,,合同会社,埼玉県,さいたま市中央区,上峰２丁目２０番１７号,,11,105,3380014,,,2023-07-28,清算の結了等,,,2019-08-16,1,,,,,ディーネクスト,0
55,1011001113490,登記記録の閉鎖等,0,2023-08-24,2023-08-15,株式会社ｎａｇｏｍｉ,,株式会社,東京都,中央区,銀座１丁目２２番１１号銀座大竹ビジデンス,,13,102,1040061,,,2023-08-15,清算の結了等,,,2016-11-07,1,,,,,ナゴミ,0
62,1011002036006,登記記録の閉鎖等,0,2023-08-24,2023-08-15,有限会社ノアズ,,有限会社,東京都,渋谷区,東２丁目２０番１３号,,13,113,1500011,,,2023-08-15,清算の結了等,,,2015-10-05,1,,,,,ノアズ,0
63,1011003008193,登記記録の閉鎖等,0,2023-08-24,2023-08-16,合同会社Ｆ－Ｃｏｎｎｅｃｔ,,合同会社,東京都,渋谷区,渋谷２丁目１０番１５号エキスパートオフィス渋谷１０１号室,,13,113,1500002,,,2023-08-16,清算の結了等,,,2017-11-06,1,,,,,フーコネクト,0
81,1020002083684,登記記録の閉鎖等,0,2023-08-24,2023-08-15,有限会社駿河,,有限会社,神奈川県,川崎市中原区,下小田中１丁目６番１９号,,14,133,2110041,,,2023-08-15,清算の結了等,,,2015-10-05,1,,,,,スルガ,0
88,1030002028044,登記記録の閉鎖等,0,2023-08-24,2023-07-31,有限会社朝日商事,,有限会社,埼玉県,所沢市,大字山口２４３番地の１,,11,208,3591145,,,2023-07-31,清算の結了等,,,2015-10-05,1,,,,,アサヒショウジ,0
89,1030002095225,登記記録の閉鎖等,0,2023-08-24,2023-07-28,玄洋社有限会社,,有限会社,埼玉県,比企郡鳩山町,大字小用１２３０番地１１,,11,348,3500323,,,2023-07-28,清算の結了等,,,2015-10-05,1,,,,,ゲンヨウシャ,0
91,1030002119727,登記記録の閉鎖等,0,2023-08-24,2023-07-31,有限会社半田自動車商会,,有限会社,埼玉県,飯能市,大字中居７５番地の５,,11,209,3570002,,,2023-07-31,清算の結了等,,,2015-10-05,1,,,,,ハンダジドウシャショウカイ,0
97,1040001059196,登記記録の閉鎖等,0,2023-08-24,2023-08-01,三央工業株式会社,,株式会社,千葉県,茂原市,高師５９０番地１,,12,210,2970029,,,2023-08-01,合併による解散等,3040001059384,令和５年８月１日千葉県茂原市高師５８５番地日東造機株式会社（3040001059384）に合併し解散,2015-10-05,1,,,,,サンオウコウギョウ,0
99,1040002001306,登記記録の閉鎖等,0,2023-08-24,2023-07-31,有限会社イマック,,有限会社,千葉県,千葉市稲毛区,小仲台２丁目６番１０号木下ビル１Ｆ,,12,103,2630043,,,2023-07-31,清算の結了等,,,2015-10-05,1,,,,,イマック,0
106,1050001037440,登記記録の閉鎖等,0,2023-08-24,2023-08-18,株式会社サミュ,,株式会社,茨城県,つくば市,大曽根８６３番地１,,08,220,3003253,,,2023-08-18,清算の結了等,,,2015-10-05,1,,,,,サミュ,0
112,1060002021335,登記記録の閉鎖等,0,2023-08-24,2023-08-10,有限会社北山木工所,,有限会社,栃木県,鹿沼市,緑町３丁目４番２１号,,09,205,3220025,,,2023-08-10,清算の結了等,,,2015-10-05,1,,,,,キタヤマモッコウショ,0
137,1120001246901,登記記録の閉鎖等,0,2023-08-24,2023-08-22,株式会社アクウェル,,株式会社,大阪府,大阪市中央区,南船場３丁目２－２８－５１１,,27,128,5420081,,,2023-08-22,清算の結了等,,,2022-06-23,1,,,,,アクウェル,0
142,1120003017631,登記記録の閉鎖等,0,2023-08-24,2023-08-18,合同会社ＭＩＮＵＴＥＳ,,合同会社,大阪府,大阪市中央区,谷町９丁目５番１６号ウエムラバロンヴェールビル２０１号,,27,128,5420012,,,2023-08-18,清算の結了等,,,2020-06-18,1,,,,,ミニッツ,0
168,1150001025658,登記記録の閉鎖等,0,2023-08-24,2023-08-22,株式会社リラックスリビング,,株式会社,奈良県,生駒市,南田原町１０５１番地２３,,29,209,6300135,,,2023-08-22,合併による解散等,3120001223816,令和５年８月４日大阪市天王寺区石ケ辻町１２番３８号株式会社黒澤産業（3120001223816）に合併し解散,2022-06-29,1,,,,,リラックスリビング,0
179,1180301015587,登記記録の閉鎖等,0,2023-08-24,2023-08-15,ヤマ清瓦工業株式会社,,株式会社,愛知県,碧南市,浜尾町１丁目３２番地,,23,209,4470055,,,2023-08-15,清算の結了等,,,2015-10-05,1,,,,,ヤマキヨカワラコウギョウ,0
180,1190005008630,登記記録の閉鎖等,0,2023-08-24,2023-08-21,医療法人はやかわ矯正歯科,,その他の設立登記法人,三重県,四日市市,八田２丁目１番２号,,24,202,5100001,,,2023-08-21,清算の結了等,,,2015-10-05,1,,,,,ハヤカワキョウセイシカ,0
189,1210002012005,登記記録の閉鎖等,0,2023-08-24,2023-08-22,有限会社ユー・ケー・クラハシ,,有限会社,福井県,越前市,村国２丁目９番１１号,,18,209,9150084,,,2023-08-22,清算の結了等,,,2015-10-05,1,,,,,ユーケークラハシ,0
191,1220001016303,登記記録の閉鎖等,0,2023-08-24,2023-08-21,建宅ササイ株式会社,,株式会社,石川県,七尾市,万行町参部６９番地２,,17,202,9260012,,,2023-08-21,清算の結了等,,,2015-10-05,1,,,,,ケンタクササイ,0
200,1260001007810,登記記録の閉鎖等,0,2023-08-24,2023-08-01,エクセル株式会社,,株式会社,岡山県,岡山市北区,駅元町１５番１号,,33,101,7000024,,,2023-08-01,合併による解散等,2260001015663,令和５年８月１日岡山市北区駅元町１５番１号ＫＡＮＫＯエステート株式会社（2260001015663）に合併し解散,2015-10-05,1,,,,,エクセル,0
201,1260002027683,登記記録の閉鎖等,0,2023-08-24,2023-08-22,有限会社イースタンハイツ,,有限会社,岡山県,津山市,小原６１番地１１,,33,203,7080001,,,2023-08-22,清算の結了等,,,2015-10-05,1,,,,,イースタンハイツ,0
208,1290001070748,登記記録の閉鎖等,0,2023-08-24,2023-08-08,大正株式会社,,株式会社,福岡県,福岡市東区,名島１丁目３０番３０号,,40,131,8130043,,,2023-08-08,清算の結了等,,,2015-10-05,1,,,,,タイショウ,0
220,1320002019138,登記記録の閉鎖等,0,2023-08-24,2023-08-22,有限会社木乃鞍,,有限会社,大分県,日田市,本町１２番１２号フレグランス・アン１０３号,,44,204,8770014,,,2023-08-22,清算の結了等,,,2015-10-05,1,,,,,,0
245,1380002025774,登記記録の閉鎖等,0,2023-08-24,2023-08-18,有限会社フジシン,,有限会社,福島県,いわき市,平下高久字川和久１２５番地の２,,07,204,9700221,,,2023-08-18,清算の結了等,,,2015-10-05,1,,,,,フジシン,0
246,1380002033496,登記記録の閉鎖等,0,2023-08-24,2023-08-17,有限会社ワールド企画,,有限会社,福島県,会津若松市,飯盛２丁目３番６号,,07,202,9650007,,,2023-08-17,清算の結了等,,,2015-10-05,1,,,,,ワールドキカク,0
247,1400002009254,登記記録の閉鎖等,0,2023-08-24,2023-08-10,有限会社キミカシステムズ,,有限会社,岩手県,北上市,鳩岡崎３地割５３番地２１３,,03,206,0240076,,,2023-08-10,清算の結了等,,,2015-10-05,1,,,,,キミカシステムズ,0
249,1430001030654,登記記録の閉鎖等,0,2023-08-24,2023-08-01,株式会社ロイズコンフェクト,,株式会社,北海道,札幌市北区,あいの里四条９丁目１番１号,,01,102,0028074,,,2023-08-01,合併による解散等,5430001018670,令和５年８月１日札幌市北区あいの里四条九丁目１番１号株式会社ロイズコンフェクト（5430001018670）に合併し解散,2015-10-05,1,,,,,ロイズコンフェクト,0
260,1500001024748,登記記録の閉鎖等,0,2023-08-24,2023-08-22,株式会社エナジーストレージＹＳＣ,,株式会社,愛媛県,松山市,湊町６丁目６番地２,,38,201,7900012,,,2023-08-22,清算の結了等,,,2023-02-03,1,,,,,エナジーストレージワイエスシー,0
277,2010401159622,登記記録の閉鎖等,0,2023-08-24,2023-08-01,株式会社Ｎａｔｕｒｅｐａｃｅ,,株式会社,東京都,港区,南青山３丁目１５番９号ＭＩＮＯＷＡ表参道３階１５２,,13,103,1070062,,,2023-08-01,清算の結了等,,,2021-04-22,1,,,,,ネイチャースペース,0
294,2011001126830,登記記録の閉鎖等,0,2023-08-24,2023-08-15,Ｇｉｓｅｌｌｅ＆Ｍｏｍｏ株式会社,,株式会社,東京都,目黒区,目黒本町１丁目５番２号,,13,110,1520002,,,2023-08-15,清算の結了等,,,2019-03-04,1,,,,,ジゼルアンドモモ,0
299,2011003014802,登記記録の閉鎖等,0,2023-08-24,2023-08-15,合同会社Ｓｍａｌｌ　Ｈａｎｄｓ,,合同会社,東京都,渋谷区,神宮前６丁目２３番４号桑野ビル２階,,13,113,1500001,,,2023-08-15,清算の結了等,,,2022-06-09,1,,,,,スモールハンズ,0
332,2021002044816,登記記録の閉鎖等,0,2023-08-24,2023-08-22,門倉商事有限会社,,有限会社,神奈川県,海老名市,国分南１丁目１３番４８号１０１,,14,215,2430405,,,2023-08-22,清算の結了等,,,2015-10-05,1,,,,,カドクラショウジ,0
360,2040001077156,登記記録の閉鎖等,0,2023-08-24,2023-08-02,株式会社鶴乃寿し,,株式会社,千葉県,夷隅郡御宿町,浜４３６番地,,12,443,2995107,,,2023-08-02,清算の結了等,,,2015-10-05,1,,,,,ツルノズシ,0
362,2040001117110,登記記録の閉鎖等,0,2023-08-24,2023-08-01,株式会社ベジファーム,,株式会社,千葉県,山武郡九十九里町,西野６７２番地７,,12,403,2830116,,,2023-08-01,合併による解散等,6040001057930,令和５年８月１日千葉県山武郡九十九里町西野１５９５番地１株式会社チヤフルキョウエイ（6040001057930）に合併し解散,2021-02-10,1,,,,,ベジファーム,0
369,2040003015048,登記記録の閉鎖等,0,2023-08-24,2023-08-01,ＣＩアセット合同会社,,合同会社,千葉県,木更津市,請西東３丁目２番地２,,12,206,2920806,,,2023-08-01,合併による解散等,1040003010371,令和５年８月１日千葉県木更津市請西東三丁目２番地２ＲＩアセット合同会社（1040003010371）に合併し解散,2020-03-13,1,,,,,シーアイアセット,0
374,2070001030847,登記記録の閉鎖等,0,2023-08-24,2023-08-01,株式会社ＨＡＰＰＹ　ＰＲＯＪＥＣＴ,,株式会社,群馬県,高崎市,緑町１丁目２８番地２,,10,202,3700073,,,2023-08-01,合併による解散等,3070002013461,令和５年８月１日群馬県高崎市緑町一丁目２８番地２株式会社ＧＧＣ（3070002013461）に合併し解散,2015-10-05,1,,,,,ハッピープロジェクト,0
388,2120001010686,登記記録の閉鎖等,0,2023-08-24,2023-08-21,株式会社日華商会,,株式会社,大阪府,大阪市東住吉区,公園南矢田４丁目１１番１号,,27,121,5460024,,,2023-08-21,清算の結了等,,,2015-10-05,1,,,,,,0
396,2120003017515,登記記録の閉鎖等,0,2023-08-24,2023-08-18,合同会社ＫＲ,,合同会社,大阪府,大阪市淀川区,西中島３丁目１９番２号三ツ矢ビル２０３号,,27,123,5320011,,,2023-08-18,清算の結了等,,,2020-05-28,1,,,,,ケイアール,0
407,2140001102837,登記記録の閉鎖等,0,2023-08-24,2023-08-18,株式会社ケーアイティー,,株式会社,兵庫県,神戸市兵庫区,材木町１番４号,,28,105,6520851,,,2023-08-18,清算の結了等,,,2016-07-26,1,,,,,ケーアイティー,0
409,2140002002152,登記記録の閉鎖等,0,2023-08-24,2023-08-18,有限会社パル,,有限会社,兵庫県,神戸市中央区,元町通６丁目１番１号,,28,110,6500022,,,2023-08-18,清算の結了等,,,2015-10-05,1,,,,,パル,0
423,2180002010738,登記記録の閉鎖等,0,2023-08-24,2023-08-21,有限会社イッツ,,有限会社,愛知県,名古屋市北区,八龍町１丁目１９番地,,23,103,4620805,,,2023-08-21,清算の結了等,,,2015-10-05,1,,,,,イッツ,0
424,2180002028276,登記記録の閉鎖等,0,2023-08-24,2023-08-22,有限会社大誠,,有限会社,愛知県,名古屋市西区,見寄町１８４番地,,23,104,4520839,,,2023-08-22,清算の結了等,,,2015-10-05,1,,,,,タイセイ,0
425,2180002075715,登記記録の閉鎖等,0,2023-08-24,2023-08-21,有限会社糸小商店,,有限会社,愛知県,一宮市,本町２丁目４番３７号,,23,203,4910859,,,2023-08-21,清算の結了等,,,2015-10-05,1,,,,,イトコショウテン,0
428,2180302022648,登記記録の閉鎖等,0,2023-08-24,2023-08-16,有限会社忠正,,有限会社,愛知県,豊田市,中町申待塚３０番地１,,23,211,4730904,,,2023-08-16,清算の結了等,,,2015-10-05,1,,,,,チュウショウ,0
443,2270002009151,登記記録の閉鎖等,0,2023-08-24,2023-08-17,有限会社プラーナ,,有限会社,鳥取県,西伯郡伯耆町,大殿１０４２番地６,,31,390,6894121,,,2023-08-17,清算の結了等,,,2015-10-05,1,,,,,プラーナ,0
463,2370005002481,登記記録の閉鎖等,0,2023-08-24,2023-08-21,特定非営利活動法人来夢,,その他の設立登記法人,宮城県,仙台市若林区,荒町１２２番地,,04,103,9840073,,,2023-08-21,清算の結了等,,,2015-10-05,1,,,,,コム,0
472,2410001008370,登記記録の閉鎖等,0,2023-08-24,2023-08-18,株式会社Ａ・パートナーズ,,株式会社,秋田県,大仙市,神宮寺字八石７２番地,,05,212,0191701,,,2023-08-18,清算の結了等,,,2015-10-05,1,,,,,エーパートナーズ,0
473,2420001002265,登記記録の閉鎖等,0,2023-08-24,2023-08-16,株式会社久慈ブル,,株式会社,青森県,東津軽郡蓬田村,大字瀬辺地字山田３５番地の３,,02,304,0301202,,,2023-08-16,清算の結了等,,,2015-10-05,1,,,,,クジブル,0
482,2450001010100,登記記録の閉鎖等,0,2023-08-24,2023-08-23,株式会社クローバー,,株式会社,北海道,旭川市,末広東二条１２丁目３番１１号,,01,204,0718122,,,2023-08-23,清算の結了等,,,2015-10-05,1,,,,,クローバー,0
483,2450001012047,登記記録の閉鎖等,0,2023-08-24,2023-08-22,株式会社Ｂｅｌｌｅ,,株式会社,北海道,旭川市,錦町１５丁目２９６０番地の５４,,01,204,0700824,,,2023-08-22,清算の結了等,,,2017-04-12,1,,,,,ベル,0
486,2500001021819,登記記録の閉鎖等,0,2023-08-24,2023-08-03,株式会社バードランド松山,,株式会社,愛媛県,伊予郡砥部町,拾町３番地１,,38,402,7912113,,,2023-08-03,合併による解散等,5300001006498,令和５年７月３１日佐賀県鳥栖市養父町４８８番地９株式会社バードランド（5300001006498）に合併し解散,2019-01-28,1,,,,,バードランドマツヤマ,0
489,3010001141896,登記記録の閉鎖等,0,2023-08-24,2023-08-18,言問株式会社,,株式会社,東京都,大田区,下丸子４丁目２６番２－３０４号,,13,111,1460092,,,2023-08-18,清算の結了等,,,2015-10-05,1,,,,,コトトイ,0
496,3010002022922,登記記録の閉鎖等,0,2023-08-24,2023-08-18,有限会社富貴,,有限会社,東京都,中央区,八丁堀４丁目１０番９号,,13,102,1040032,,,2023-08-18,清算の結了等,,,2015-10-05,1,,,,,フウキ,0
506,3010005030617,登記記録の閉鎖等,0,2023-08-24,2023-08-22,一般社団法人ＡＰ１号,,その他の設立登記法人,東京都,千代田区,霞が関３丁目２番１号霞が関コモンゲート西館２０階,,13,101,1000013,,,2023-08-22,清算の結了等,,,2019-08-19,1,,,,,エーピーイチゴウ,0
509,3010401025377,登記記録の閉鎖等,0,2023-08-24,2023-07-27,株式会社広島屋ランドリー,,株式会社,東京都,港区,南麻布１丁目５番９号,,13,103,1060047,,,2023-07-27,清算の結了等,,,2015-10-05,1,,,,,ヒロシマヤランドリー,0
511,3010401091519,登記記録の閉鎖等,0,2023-08-24,2023-07-31,株式会社Ｊｕｎｃａ,,株式会社,東京都,港区,高輪１丁目１４番１５－５０４号,,13,103,1080074,,,2023-07-31,合併による解散等,5010401051388,令和５年７月３１日東京都港区高輪一丁目１４番１５－５０４号アイオイクス株式会社（5010401051388）に合併し解散,2015-10-05,1,,,,,ジュンカ,0
529,3010605001216,登記記録の閉鎖等,0,2023-08-24,2023-08-22,特定非営利活動法人まちづくりネットワーク協議会,,その他の設立登記法人,東京都,江東区,東陽２丁目４番２９号,,13,108,1350016,,,2023-08-22,清算の結了等,,,2015-10-05,1,,,,,マチヅクリネットワークキョウギカイ,0
531,3010801023261,登記記録の閉鎖等,0,2023-08-24,2023-08-01,ディ・ハット株式会社,,株式会社,千葉県,柏市,北柏４丁目１番地２,,12,217,2770832,,,2023-08-01,清算の結了等,,,2015-10-05,1,,,,,ディハット,0
532,3010901021660,登記記録の閉鎖等,0,2023-08-24,2023-08-08,株式会社Ｂｌｕｅ　Ｌｉｌｙ,,株式会社,青森県,青森市,柳川１丁目２番１１－１５０５号,,02,201,0380012,,,2023-08-08,清算の結了等,,,2015-10-05,1,,,,,ブルーリリィ,0
534,3010901036205,登記記録の閉鎖等,0,2023-08-24,2023-08-17,株式会社ＭＲＧＳ,,株式会社,東京都,世田谷区,上北沢４丁目４番８号,,13,112,1560057,,,2023-08-17,清算の結了等,,,2015-10-05,1,,,,,エムアールジーエス,0
546,3011101041094,登記記録の閉鎖等,0,2023-08-24,2023-08-16,ゼニス羽田テクノ株式会社,,株式会社,東京都,千代田区,麹町５丁目７番地２,,13,101,1020083,,,2023-08-16,清算の結了等,,,2015-10-05,1,,,,,ゼニスハネダテクノ,0
552,3011402002927,登記記録の閉鎖等,0,2023-08-24,2023-08-22,有限会社グローバル設備,,有限会社,東京都,板橋区,高島平７丁目１２番１－５０１号,,13,119,1750082,,,2023-08-22,清算の結了等,,,2015-10-05,1,,,,,グローバルセツビ,0
553,3011402017702,登記記録の閉鎖等,0,2023-08-24,2023-08-14,有限会社酒見書店,,有限会社,東京都,板橋区,蓮根３丁目２０番３－７０１号,00055477,13,119,1740046,,,2023-08-14,清算の結了等,,,2015-10-05,1,,,,,,0
565,3012302005664,登記記録の閉鎖等,0,2023-08-24,2023-08-22,有限会社村田設備工業,,有限会社,東京都,町田市,金森７丁目１５番２５号,,13,209,1940012,,,2023-08-22,清算の結了等,,,2015-10-05,1,,,,,ムラタセツビコウギョウ,0
567,3012405002889,登記記録の閉鎖等,0,2023-08-24,2023-08-21,特定非営利活動法人健康スマイル,,その他の設立登記法人,東京都,国分寺市,本町４丁目１２番１４号三多摩医療生協会館内,,13,214,1850012,,,2023-08-21,清算の結了等,,,2015-10-05,1,,,,,ケンコウスマイル,0
576,3020002093715,登記記録の閉鎖等,0,2023-08-24,2023-08-14,有限会社吉村設備,,有限会社,神奈川県,川崎市多摩区,長尾７丁目３番１８－１２０１号,,14,135,2140023,,,2023-08-14,清算の結了等,,,2015-10-05,1,,,,,ヨシムラセツビ,0
614,3050001031152,登記記録の閉鎖等,0,2023-08-24,2023-08-18,晃里株式会社,,株式会社,茨城県,つくば市,島名諏訪Ｃ１９街区１,,08,220,3002658,,,2023-08-18,清算の結了等,,,2015-10-05,1,,,,,,0
618,3050003003703,登記記録の閉鎖等,0,2023-08-24,2023-08-21,ＷＡＬＩ株式会社,,株式会社,茨城県,古河市,大和田１２６０番地８,,08,204,3060111,,,2023-08-21,清算の結了等,,,2017-04-27,1,,,,,ワリ,0
620,3050005002109,登記記録の閉鎖等,0,2023-08-24,2023-08-17,特定非営利活動法人環境ＮＰＯいばらき,,その他の設立登記法人,茨城県,守谷市,美園４丁目１１番２号シャトンミョル２０４,,08,224,3020124,,,2023-08-17,清算の結了等,,,2015-10-05,1,,,,,カンキョウエヌピーオーイバラキ,0
621,3060001024411,登記記録の閉鎖等,0,2023-08-24,2023-08-17,アペックス株式会社,,株式会社,栃木県,那須郡那須町,大字湯本字ツムジヶ平２１３番９４０,,09,407,3250301,,,2023-08-17,清算の結了等,,,2015-10-05,1,,,,,アペックス,0
625,3060003004584,登記記録の閉鎖等,0,2023-08-24,2023-08-10,合資会社山下商店,,合資会社,栃木県,塩谷郡塩谷町,大字大宮１９８８番地,,09,384,3292332,,,2023-08-10,清算の結了等,,,2023-06-12,1,,,,,ヤマシタショウテン,0
647,3120101064482,登記記録の閉鎖等,0,2023-08-24,2023-08-22,株式会社大阪グリーンサポート,,株式会社,大阪府,堺市北区,南花田町３７４番地,,27,146,5918011,,,2023-08-22,清算の結了等,,,2021-10-13,1,,,,,オオサカグリーンサポート,0
654,3140001115037,登記記録の閉鎖等,0,2023-08-24,2023-08-21,株式会社ＩＫＵＳＬ,,株式会社,兵庫県,姫路市,網干区浜田４０３番地モーメントスフェリセス１６、１０５号室,,28,201,6711242,,,2023-08-21,清算の結了等,,,2019-10-07,1,,,,,イクスル,0
667,3180002006801,登記記録の閉鎖等,0,2023-08-24,2023-08-21,有限会社中村屋,,有限会社,愛知県,名古屋市港区,錦町１１番２２号,,23,111,4550843,,,2023-08-21,清算の結了等,,,2015-10-05,1,,,,,ナカムラヤ,0
679,3240001060140,登記記録の閉鎖等,0,2023-08-24,2023-08-22,ＧＥＩＨＯＫＵ　ＥＳＴ株式会社,,株式会社,広島県,三次市,十日市南１丁目４番５号,,34,209,7280014,,,2023-08-22,清算の結了等,,,2022-08-02,1,,,,,ゲイホクエスト,0
699,3320002017387,登記記録の閉鎖等,0,2023-08-24,2023-08-22,有限会社モア・グループ,,有限会社,大分県,佐伯市,内町７番１５号,,44,205,8760845,,,2023-08-22,清算の結了等,,,2015-10-05,1,,,,,モアグループ,0
706,3360005003884,登記記録の閉鎖等,0,2023-08-24,2023-08-09,宮古島マリンリゾート協同組合,,その他の設立登記法人,沖縄県,宮古島市,平良字下里３９７番地５,,47,214,9060013,,,2023-08-09,清算の結了等,,,2015-10-05,1,,,,,ミヤコジママリンリゾート,0
707,3370001006502,登記記録の閉鎖等,0,2023-08-24,2023-08-21,東北プランバー株式会社,,株式会社,宮城県,仙台市宮城野区,鶴ケ谷字京原９８番地,,04,102,9830824,,,2023-08-21,清算の結了等,,,2015-10-05,1,,,,,,0
716,3380002002557,登記記録の閉鎖等,0,2023-08-24,2023-08-21,有限会社中澤測量設計事務所,,有限会社,福島県,福島市,北中川原１２番地の３,,07,201,9608221,,,2023-08-21,清算の結了等,,,2015-10-05,1,,,,,ナカザワソクリョウセッケイジムショ,0
726,3430001042821,登記記録の閉鎖等,0,2023-08-24,2023-08-01,株式会社ロイズホールディングス,,株式会社,北海道,札幌市北区,あいの里四条９丁目１番１号,,01,102,0028074,,,2023-08-01,合併による解散等,5430001018670,令和５年８月１日札幌市北区あいの里四条九丁目１番１号株式会社ロイズコンフェクト（5430001018670）に合併し解散,2015-10-05,1,,,,,ロイズホールディングス,0
727,3430001062027,登記記録の閉鎖等,0,2023-08-24,2023-08-03,株式会社ラウンドコーポレーション,,株式会社,北海道,札幌市白石区,本通３丁目南４番３５号,,01,104,0030026,,,2023-08-03,清算の結了等,,,2015-10-05,1,,,,,ラウンドコーポレーション,0
730,3470005006001,登記記録の閉鎖等,0,2023-08-24,2023-08-21,ｅｎ一般社団法人,,その他の設立登記法人,香川県,高松市,三谷町４３４８番地８,,37,201,7610450,,,2023-08-21,清算の結了等,,,2017-04-19,1,,,,,エン,0
731,3480005004219,登記記録の閉鎖等,0,2023-08-24,2023-08-23,医療法人高橋内科クリニック,,その他の設立登記法人,徳島県,阿南市,羽ノ浦町宮倉前田３番地の７,,36,204,7791102,,,2023-08-23,清算の結了等,,,2015-10-05,1,,,,,タカハシナイカクリニック,0
738,4010001128868,登記記録の閉鎖等,0,2023-08-24,2023-08-16,株式会社偉人伝社,,株式会社,東京都,中央区,日本橋小網町１３番８号,,13,102,1030016,,,2023-08-16,清算の結了等,,,2015-10-05,1,,,,,イジンデンシャ,0
751,4010003022623,登記記録の閉鎖等,0,2023-08-24,2023-08-18,Ｂｒｙａｎ　Ｄｅｓｉｇｎ　Ｍａｎａｇｅｍｅｎｔ　Ｐｌａｎｎｉｎｇ合同会社,,合同会社,東京都,中央区,日本橋浜町３丁目２６番１１号,,13,102,1030007,,,2023-08-18,清算の結了等,,,2015-11-10,1,,,,,ブライアンデザインマネジメントプランニング,0
752,4010005032802,登記記録の閉鎖等,0,2023-08-24,2023-08-23,ＳＫＤ１３特定目的会社,,その他の設立登記法人,東京都,千代田区,丸の内３丁目１番１号東京共同会計事務所内,,13,101,1000005,,,2023-08-23,清算の結了等,,,2021-01-20,1,,,,,エスケイディサーティーン,0
775,4010701008741,登記記録の閉鎖等,0,2023-08-24,2023-08-21,株式会社ブテイツクおりえんたる,,株式会社,東京都,品川区,東中延２丁目６番１７号,,13,109,1420052,,,2023-08-21,清算の結了等,,,2015-10-05,1,,,,,ブティックオリエンタル,0
800,4011405002171,登記記録の閉鎖等,0,2023-08-24,2023-08-21,一般社団法人経営改善板橋モデル支援協会,,その他の設立登記法人,東京都,板橋区,舟渡１丁目１３－１０アイタワー２階,,13,119,1740041,,,2023-08-21,清算の結了等,,,2021-12-08,1,,,,,ケイエイカイゼンイタバシモデルシエンキョウカイ,0
801,4011501018360,登記記録の閉鎖等,0,2023-08-24,2023-07-31,株式会社嘉祥,,株式会社,埼玉県,さいたま市桜区,栄和２丁目５番２号,,11,106,3380823,,,2023-07-31,清算の結了等,,,2015-10-05,1,,,,,カショウ,0
811,4011805002226,登記記録の閉鎖等,0,2023-08-24,2023-08-23,特定非営利活動法人Ｈｅａｒｔ　Ｂｒｉｄｇｅ,,その他の設立登記法人,東京都,葛飾区,亀有５丁目４６番１－２０１号コスモ亀有５,,13,122,1250061,,,2023-08-23,清算の結了等,,,2015-10-05,1,,,,,ハートブリッジ,0
819,4013301026972,登記記録の閉鎖等,0,2023-08-24,2023-08-18,株式会社ゴンベエジェーピー,,株式会社,東京都,豊島区,東池袋１丁目１７番１１号パークハイツ池袋１１０５号,,13,116,1700013,,,2023-08-18,清算の結了等,,,2015-10-05,1,,,,,,0
827,4020002063667,登記記録の閉鎖等,0,2023-08-24,2023-08-07,有限会社シーサー,,有限会社,神奈川県,横浜市泉区,新橋町１３７９番地２,,14,116,2450009,,,2023-08-07,清算の結了等,,,2015-10-05,1,,,,,シーサー,0
830,4021003005906,登記記録の閉鎖等,0,2023-08-24,2023-08-22,フォーエムプラン合同会社,,合同会社,神奈川県,厚木市,愛名９９３番地２,,14,212,2430038,,,2023-08-22,清算の結了等,,,2016-04-07,1,,,,,フォーエムプラン,0
835,4030001084325,登記記録の閉鎖等,0,2023-08-24,2023-07-31,株式会社ボックス,,株式会社,埼玉県,新座市,野火止７丁目１１番８号４６,,11,230,3520011,,,2023-07-31,清算の結了等,,,2015-10-05,1,,,,,ボックス,0
841,4030002045722,登記記録の閉鎖等,0,2023-08-24,2023-07-28,有限会社程塚商事,,有限会社,埼玉県,草加市,金明町２７６番地,,11,221,3400052,,,2023-07-28,清算の結了等,,,2018-03-02,1,,,,,ホドヅカショウジ,0
848,4040001061620,登記記録の閉鎖等,0,2023-08-24,2023-07-31,石川商事株式会社,,株式会社,千葉県,旭市,ロの１２４７番地,,12,215,2892516,,,2023-07-31,合併による解散等,7040001061618,令和５年７月３１日千葉県旭市ロの１２４７番地株式会社石川商会（7040001061618）に合併し解散,2015-10-05,1,,,,,イシカワショウジ,0
850,4040001094075,登記記録の閉鎖等,0,2023-08-24,2023-08-02,株式会社吉田工業,,株式会社,千葉県,市原市,君塚２丁目２０番地２５,,12,219,2900051,,,2023-08-02,清算の結了等,,,2016-02-17,1,,,,,ヨシダコウギョウ,0
852,4040001124708,登記記録の閉鎖等,0,2023-08-24,2023-08-01,ウェルフェア・イノベーション株式会社,,株式会社,千葉県,市川市,大野町３丁目２６８番４号,,12,203,2720805,,,2023-08-01,合併による解散等,6013301038719,令和５年８月１日千葉県松戸市日暮八丁目１７番地２号プレジール松戸Ｋ’ｓ－ｉｎｖｅｓｔｍｅｎｔ株式会社（6013301038719）に合併し解散,2022-08-16,1,,,,,ウェルフェアイノベーション,0
871,4110002032761,登記記録の閉鎖等,0,2023-08-24,2023-08-21,有限会社小川製作所,,有限会社,新潟県,南魚沼市,水尾９４１番地,,15,226,9497252,,,2023-08-21,清算の結了等,,,2015-10-05,1,,,,,オガワセイサクショ,0
875,4120001203255,登記記録の閉鎖等,0,2023-08-24,2023-08-21,株式会社エタニティリンクマネジメント,,株式会社,大阪府,大阪市西区,立売堀１丁目４番１０号,,27,106,5500012,,,2023-08-21,清算の結了等,,,2017-01-27,1,,,,,エタニティリンクマネジメント,0
884,4120002016318,登記記録の閉鎖等,0,2023-08-24,2023-08-21,株式会社協進,,株式会社,大阪府,大阪市住之江区,西加賀屋２丁目４番２号,,27,125,5590016,,,2023-08-21,清算の結了等,,,2015-10-05,1,,,,,キョウシン,0
891,4120102018874,登記記録の閉鎖等,0,2023-08-24,2023-08-22,有限会社山下商会,,有限会社,大阪府,藤井寺市,西古室２丁目４番１５号,,27,226,5830018,,,2023-08-22,清算の結了等,,,2015-10-05,1,,,,,ヤマシタショウカイ,0
898,4130001017497,登記記録の閉鎖等,0,2023-08-24,2023-08-07,株式会社シェアーズ,,株式会社,京都府,京都市下京区,七条御所ノ内中町４６番地,,26,106,6008862,,,2023-08-07,清算の結了等,,,2015-10-05,1,,,,,,0
912,4140003010986,登記記録の閉鎖等,0,2023-08-24,2023-08-21,布袋クリエイティブ合同会社,,合同会社,兵庫県,豊岡市,日高町堀２３６番地,,28,209,6695325,,,2023-08-21,清算の結了等,,,2015-10-23,1,,,,,ホテイクリエイティブ,0
914,4180002005819,登記記録の閉鎖等,0,2023-08-24,2023-08-23,有限会社エイトフォーサービス,,有限会社,愛知県,名古屋市港区,七反野１丁目２１０７番地,,23,111,4550884,,,2023-08-23,清算の結了等,,,2015-10-05,1,,,,,エイトフォーサービス,0
916,4180003003482,登記記録の閉鎖等,0,2023-08-24,2023-08-21,合名会社丸宮タイヤセンター,,合名会社,愛知県,名古屋市中川区,八神町１丁目７２番地,,23,110,4540041,,,2023-08-21,清算の結了等,,,2015-10-05,1,,,,,マルミヤタイヤセンター,0
918,4180003020189,登記記録の閉鎖等,0,2023-08-24,2023-08-21,合同会社ＫＭＫ,,合同会社,愛知県,名古屋市北区,天道町５丁目１番地,,23,103,4620034,,,2023-08-21,清算の結了等,,,2019-07-17,1,,,,,ケーエムケー,0
938,4250002015158,登記記録の閉鎖等,0,2023-08-24,2023-08-16,有限会社博愛,,有限会社,山口県,周南市,周陽１丁目３番３９号,,35,215,7450823,,,2023-08-16,清算の結了等,,,2015-10-05,1,,,,,,0
953,4350002015107,登記記録の閉鎖等,0,2023-08-24,2023-08-17,有限会社メディアワン,,有限会社,宮崎県,都城市,前田町７街区２４号,,45,202,8850025,,,2023-08-17,清算の結了等,,,2015-10-05,1,,,,,メディアワン,0
961,4400001009921,登記記録の閉鎖等,0,2023-08-24,2023-08-14,株式会社ＮＥＸＵＳ,,株式会社,岩手県,盛岡市,中野１丁目１６番５－２０２号,,03,201,0200816,,,2023-08-14,清算の結了等,,,2015-10-05,1,,,,,,0
963,4410002013913,登記記録の閉鎖等,0,2023-08-24,2023-08-14,有限会社ティーアンドエフ,,有限会社,秋田県,横手市,増田町増田字上川原１１番地９,,05,203,0190701,,,2023-08-14,清算の結了等,,,2015-10-05,1,,,,,ティーアンドエフ,0
972,4480005002378,登記記録の閉鎖等,0,2023-08-24,2023-08-01,医療法人ふじのクリニック,,その他の設立登記法人,徳島県,小松島市,坂野町字平田１８番地４,,36,203,7730023,,,2023-08-01,合併による解散等,8480005002374,令和５年８月１日徳島県小松島市坂野町字平田１８番地の２医療法人敬和会（8480005002374）に合併し解散,2015-10-05,1,,,,,フジノクリニック,0
989,5010001184497,登記記録の閉鎖等,0,2023-08-24,2023-07-13,Ｓｇｒｕｍ株式会社,,株式会社,東京都,千代田区,六番町５番地５飯田ビル２Ｆ,,13,101,1020085,,,2023-07-13,合併による解散等,4010001119594,令和５年７月１日東京都千代田区六番町５番地５株式会社ユーフォリア（4010001119594）に合併し解散,2017-06-30,1,,,,,スグラム,0
1001,5010005033634,登記記録の閉鎖等,0,2023-08-24,2023-08-21,一般社団法人東京レジデンシャル５,,その他の設立登記法人,東京都,中央区,日本橋１丁目４番１号,,13,102,1030027,,,2023-08-21,清算の結了等,,,2021-07-12,1,,,,,トウキョウレジデンシャルファイブ,0
1022,5010601027444,登記記録の閉鎖等,0,2023-08-24,2023-08-21,探海船舶株式会社,,株式会社,東京都,江東区,常盤１丁目１４番５号,,13,108,1350006,,,2023-08-21,清算の結了等,,,2015-10-05,1,,,,,タンカイセンパク,0
1027,5010701044372,登記記録の閉鎖等,0,2023-08-24,2023-08-21,株式会社バイオＸ,,株式会社,東京都,品川区,東五反田１丁目２番１５号,,13,109,1410022,,,2023-08-21,清算の結了等,,,2023-06-06,1,,,,,バイオエックス,0
1030,5010901041830,登記記録の閉鎖等,0,2023-08-24,2023-08-21,株式会社リライトマーケティング,,株式会社,東京都,世田谷区,新町１丁目７番１３号,,13,112,1540014,,,2023-08-21,清算の結了等,,,2018-04-09,1,,,,,リライトマーケティング,0
1044,5011302016298,登記記録の閉鎖等,0,2023-08-24,2023-08-16,有限会社ワッテン,,有限会社,東京都,杉並区,永福２丁目３番２３号,,13,115,1680064,,,2023-08-16,清算の結了等,,,2015-10-05,1,,,,,ワッテン,0
1051,5011701018449,登記記録の閉鎖等,0,2023-08-24,2023-08-01,株式会社京葉エクスプレス,,株式会社,千葉県,習志野市,茜浜１丁目８番２号,,12,216,2750024,,,2023-08-01,合併による解散等,3040001083070,令和５年８月１日千葉県習志野市茜浜一丁目８番２号株式会社グロットパス（3040001083070）に合併し解散,2015-10-05,1,,,,,ケイヨウエクスプレス,0
1062,5020001106780,登記記録の閉鎖等,0,2023-08-24,2023-08-01,株式会社テックエム,,株式会社,東京都,港区,西麻布２丁目１１番３－３０２号,,13,103,1060031,,,2023-08-01,合併による解散等,2011001137118,令和５年８月１日東京都港区西麻布二丁目１１番３－３０２号株式会社エステック（2011001137118）に合併し解散,2015-10-05,1,,,,,テックエム,0
1063,5020001126597,登記記録の閉鎖等,0,2023-08-24,2023-08-14,株式会社ちとせバイオロジクス,,株式会社,神奈川県,川崎市高津区,坂戸３丁目２番１号,,14,134,2130012,,,2023-08-14,清算の結了等,,,2018-06-07,1,,,,,チトセバイオロジクス,0
1075,5030001109097,登記記録の閉鎖等,0,2023-08-24,2023-08-18,株式会社神山設備,,株式会社,東京都,世田谷区,喜多見１丁目１７番４号,,13,112,1570067,,,2023-08-18,清算の結了等,,,2015-10-05,1,,,,,カミヤマセツビ,0
1085,5030005003585,登記記録の閉鎖等,0,2023-08-24,2023-07-31,所沢給食施設協同組合,,その他の設立登記法人,埼玉県,所沢市,大字下富字武野８６６番３,,11,208,3590001,,,2023-07-31,清算の結了等,,,2015-10-05,1,,,,,トコロザワキュウショクシセツ,0
1092,5040003005491,登記記録の閉鎖等,0,2023-08-24,2023-08-02,合同会社ＧＰｓ,,合同会社,千葉県,市川市,市川南４丁目１０番７号,,12,203,2720033,,,2023-08-02,清算の結了等,,,2015-10-05,1,,,,,ジーピーエス,0
1103,5080001014895,登記記録の閉鎖等,0,2023-08-24,2023-08-22,株式会社篠宮工業所,,株式会社,静岡県,焼津市,小土５８７番地の８,,22,212,4250086,,,2023-08-22,清算の結了等,,,2015-10-05,1,,,,,シノミヤコウギョウショ,0
1144,5180001003731,登記記録の閉鎖等,0,2023-08-24,2023-08-21,株式会社亀屋,,株式会社,愛知県,名古屋市千種区,京命１丁目８番２号,,23,101,4640004,,,2023-08-21,清算の結了等,,,2015-10-05,1,,,,,カメヤ,0
1149,5180003023843,登記記録の閉鎖等,0,2023-08-24,2023-08-18,安吉貿易合同会社,,合同会社,愛知県,春日井市,中新町１丁目２９番地２,,23,206,4860956,,,2023-08-18,清算の結了等,,,2022-05-18,1,,,,,アンキチボウエキ,0
1150,5180301015410,登記記録の閉鎖等,0,2023-08-24,2023-08-17,株式会社トーワスポーツ,,株式会社,愛知県,碧南市,作塚町１丁目８８番地,,23,209,4470874,,,2023-08-17,清算の結了等,,,2015-10-05,1,,,,,トーワスポーツ,0
1152,5180305009029,登記記録の閉鎖等,0,2023-08-24,2023-08-18,一般社団法人日本健康意識向上協会,,その他の設立登記法人,愛知県,田原市,谷熊町栗生４８,,23,231,4413412,,,2023-08-18,清算の結了等,,,2020-03-05,1,,,,,ニホンケンコウイシキコウジョウキョウカイ,0
1176,5340002019058,登記記録の閉鎖等,0,2023-08-24,2023-08-22,有限会社丸大小川商店,,有限会社,鹿児島県,指宿市,山川山下町４７番地,,46,210,8910505,,,2023-08-22,清算の結了等,,,2015-10-05,1,,,,,マルダイオガワショウテン,0
1181,5370001000908,登記記録の閉鎖等,0,2023-08-24,2023-08-21,株式会社ダックス,,株式会社,宮城県,仙台市泉区,北中山２丁目３３番地の１,,04,105,9813215,,,2023-08-21,清算の結了等,,,2015-10-05,1,,,,,,0
1184,5370001047775,登記記録の閉鎖等,0,2023-08-24,2023-08-24,ＳＩＩＫ株式会社,,株式会社,宮城県,仙台市青葉区,本町１丁目５番２８号カーニープレイス仙台駅前通６０３,,04,101,9800014,,,2023-08-24,清算の結了等,,,2021-11-02,1,,,,,シーク,0
1195,5410002005199,登記記録の閉鎖等,0,2023-08-24,2023-08-17,有限会社カミウチサービス秋田,,有限会社,秋田県,秋田市,太平黒沢字稲荷６４番地の２,,05,201,0101105,,,2023-08-17,清算の結了等,,,2015-10-05,1,,,,,カミウチサービスアキタ,0
1222,6010003019964,登記記録の閉鎖等,0,2023-08-24,2023-08-16,合同会社アオイインベストメント,,合同会社,東京都,渋谷区,広尾１丁目１１番２号嶋本公認会計士事務所気付,,13,113,1500012,,,2023-08-16,清算の結了等,,,2015-10-05,1,,,,,アオイインベストメント,0
1229,6010401111281,登記記録の閉鎖等,0,2023-08-24,2023-07-31,株式会社デジタルスカイジャパン,,株式会社,東京都,港区,新橋６丁目１６番８号ＳＥＣレックスビル,,13,103,1050004,,,2023-07-31,清算の結了等,,,2015-10-05,1,,,,,デジタルスカイジャパン,0
1273,6011501026790,登記記録の閉鎖等,0,2023-08-24,2023-08-10,小山産業株式会社,,株式会社,栃木県,小山市,大字中久喜１１２７－１,,09,208,3230806,,,2023-08-10,清算の結了等,,,2021-04-01,1,,,,,オヤマサンギョウ,0
1288,6020002100385,登記記録の閉鎖等,0,2023-08-24,2023-08-14,有限会社オフィス・アンドゥ,,有限会社,神奈川県,川崎市高津区,久本３丁目６番地２号８０７,,14,134,2130011,,,2023-08-14,清算の結了等,,,2015-10-05,1,,,,,オフィスアンドゥ,0
1294,6021001029054,登記記録の閉鎖等,0,2023-08-24,2023-08-22,株式会社ダイヤモンド,,株式会社,神奈川県,藤沢市,獺郷１２９９番地１,,14,205,2520825,,,2023-08-22,合併による解散等,3021001018811,令和５年８月１４日神奈川県藤沢市獺郷字大道緑１２９９番地１株式会社インパクト（3021001018811）に合併し解散,2015-10-05,1,,,,,,0
1302,6030001086682,登記記録の閉鎖等,0,2023-08-24,2023-07-28,岩岡株式会社,,株式会社,埼玉県,行田市,大字白川戸２９３番地,,11,206,3610006,,,2023-07-28,清算の結了等,,,2015-10-05,1,,,,,イワオカ,0
1308,6030002102637,登記記録の閉鎖等,0,2023-08-24,2023-07-31,有限会社近藤運送店,,有限会社,埼玉県,川口市,本町２丁目５番２７号,,11,203,3320012,,,2023-07-31,清算の結了等,,,2015-10-05,1,,,,,コンドウウンソウテン,0
1311,6040001043419,登記記録の閉鎖等,0,2023-08-24,2023-07-31,株式会社中央エンジニアリング,,株式会社,千葉県,富里市,七栄５７５番地２８,,12,233,2860221,,,2023-07-31,合併による解散等,3040001113406,令和５年７月３１日千葉県茂原市大芝１８５番地２４株式会社朝水技研（3040001113406）に合併し解散,2015-10-05,1,,,,,チュウオウエンジニアリング,0
1313,6040001093232,登記記録の閉鎖等,0,2023-08-24,2023-08-02,株式会社ナガタ工業,,株式会社,千葉県,千葉市若葉区,みつわ台５丁目１０番２号,,12,104,2640032,,,2023-08-02,清算の結了等,,,2015-12-14,1,,,,,ナガタコウギョウ,0
1320,6040002030630,登記記録の閉鎖等,0,2023-08-24,2023-08-01,有限会社ワイエスシー八千代台,,有限会社,千葉県,習志野市,大久保３丁目７番１０号,,12,216,2750011,,,2023-08-01,合併による解散等,1040002019018,令和５年８月１日千葉県習志野市大久保三丁目７番１０号株式会社松川新聞舗（1040002019018）に合併し解散,2015-10-05,1,,,,,ワイエスシーヤチヨダイ,0
1355,6120101036041,登記記録の閉鎖等,0,2023-08-24,2023-08-22,株式会社秀花園,,株式会社,大阪府,岸和田市,神須屋町１３７番地の６,,27,202,5960833,,,2023-08-22,清算の結了等,,,2015-10-05,1,,,,,シュウカエン,0
1363,6122001003716,登記記録の閉鎖等,0,2023-08-24,2023-08-18,ステップ産業株式会社,,株式会社,大阪府,東大阪市,横沼町１丁目１２番５号,,27,227,5770808,,,2023-08-18,清算の結了等,,,2015-10-05,1,,,,,ステップサンギョウ,0
1379,6160001017014,登記記録の閉鎖等,0,2023-08-24,2023-08-23,株式会社空色,,株式会社,滋賀県,草津市,南笠町１０８８番地３０,,25,206,5250056,,,2023-08-23,清算の結了等,,,2015-10-05,1,,,,,ソライロ,0
1387,6180002043131,登記記録の閉鎖等,0,2023-08-24,2023-08-22,株式会社ニューコム,,株式会社,愛知県,名古屋市守山区,川宮町４６１番地１,,23,113,4630081,,,2023-08-22,清算の結了等,,,2015-10-05,1,,,,,ニューコム,0
1404,6240002027094,登記記録の閉鎖等,0,2023-08-24,2023-08-24,有限会社慶Ｄｉｎｉｎｇ,,有限会社,広島県,広島市東区,光町１丁目７－９－１３０２,,34,102,7320052,,,2023-08-24,清算の結了等,,,2015-10-05,1,,,,,ケイダイニング,0
1411,6280002008371,登記記録の閉鎖等,0,2023-08-24,2023-08-18,有限会社チエ美容室,,有限会社,島根県,浜田市,朝日町１１６番地２,,32,202,6970033,,,2023-08-18,清算の結了等,,,2015-10-05,1,,,,,チエビヨウシツ,0
1424,6290002046759,登記記録の閉鎖等,0,2023-08-24,2023-08-08,有限会社ハーブ＆農材,,有限会社,福岡県,飯塚市,横田２２番地１７,,40,205,8200044,,,2023-08-08,清算の結了等,,,2015-10-05,1,,,,,ハーブアンドノウザイ,0
1430,6320002022855,登記記録の閉鎖等,0,2023-08-24,2023-08-22,有限会社宝和住研,,有限会社,大分県,日田市,大字庄手４７４番地の６,,44,204,8770000,,,2023-08-22,清算の結了等,,,2022-10-19,1,,,,,ホウワジュウケン,0
1448,6370002017297,登記記録の閉鎖等,0,2023-08-24,2023-08-22,有限会社ＡＭＩ,,有限会社,宮城県,仙台市青葉区,鷺ケ森２丁目２８番１５号,,04,101,9810922,,,2023-08-22,清算の結了等,,,2015-10-05,1,,,,,エーエムアイ,0
1465,6460305001526,登記記録の閉鎖等,0,2023-08-24,2023-08-22,オホーツクカード事業協同組合,,その他の設立登記法人,北海道,常呂郡訓子府町,元町９２番地,,01,549,0991437,,,2023-08-22,清算の結了等,,,2015-10-05,1,,,,,,0
1468,6500002003300,登記記録の閉鎖等,0,2023-08-24,2023-08-23,有限会社新光住宅,,有限会社,愛媛県,松山市,河原町２番地１４,,38,201,7900013,,,2023-08-23,清算の結了等,,,2015-10-05,1,,,,,シンコウジュウタク,0
1502,7010602011940,登記記録の閉鎖等,0,2023-08-24,2023-08-21,有限会社佐藤製作所,,有限会社,東京都,墨田区,八広６丁目３０番９号,,13,107,1310041,,,2023-08-21,清算の結了等,,,2015-10-05,1,,,,,サトウセイサクショ,0
1517,7011002013338,登記記録の閉鎖等,0,2023-08-24,2023-08-21,有限会社森電気商会,,有限会社,東京都,渋谷区,元代々木町４番１号,,13,113,1510062,,,2023-08-21,清算の結了等,,,2015-10-05,1,,,,,モリデンキショウカイ,0
1583,7080001016849,登記記録の閉鎖等,0,2023-08-24,2023-08-23,株式会社望月販売,,株式会社,静岡県,藤枝市,善左衛門２丁目１４番地の３３,,22,214,4260053,,,2023-08-23,清算の結了等,,,2015-10-05,1,,,,,モチヅキハンバイ,0
1585,7080002016055,登記記録の閉鎖等,0,2023-08-24,2023-08-22,有限会社東海ポンプ工務所,,有限会社,静岡県,焼津市,駅北２丁目１８番９号,,22,212,4250028,,,2023-08-22,清算の結了等,,,2015-10-05,1,,,,,トウカイポンプコウムショ,0
1593,7110005007287,登記記録の閉鎖等,0,2023-08-24,2023-07-24,弥彦神社,,その他の設立登記法人,新潟県,柏崎市,大字石曽根５６６２番地,,15,205,9451436,,,2023-07-24,合併による解散等,7110005007048,令和５年７月２４日新潟県柏崎市大字石曽根字勝俣８２５番地ノ子諏訪神社（7110005007048）に合併し解散,2015-10-05,1,,,,,ヤヒコジンジャ,0
1595,7120001036553,登記記録の閉鎖等,0,2023-08-24,2023-08-18,株式会社松本製本,,株式会社,大阪府,大阪市福島区,福島１丁目６番２７号,,27,103,5530003,,,2023-08-18,清算の結了等,,,2015-10-05,1,,,,,,0
1596,7120001064629,登記記録の閉鎖等,0,2023-08-24,2023-08-18,三徳電子株式会社,,株式会社,大阪府,大阪市北区,大淀中２丁目９番１０号,,27,127,5310076,,,2023-08-18,清算の結了等,,,2015-10-05,1,,,,,サントクデンシ,0
1626,7140001095647,登記記録の閉鎖等,0,2023-08-24,2023-08-21,株式会社Ｋ　Ｔｕｒｅｉｓ,,株式会社,兵庫県,神戸市北区,東有野台１丁目１７番１号,,28,109,6511322,,,2023-08-21,清算の結了等,,,2015-10-05,1,,,,,ケートゥレイス,0
1632,7160001018481,登記記録の閉鎖等,0,2023-08-24,2023-08-22,ＹＭＩＴ　Ｓｅｒｖｉｃｅ株式会社,,株式会社,滋賀県,野洲市,吉地６２８番地,,25,210,5202413,,,2023-08-22,清算の結了等,,,2015-10-05,1,,,,,ワイミットサービス,0
1637,7180001140358,登記記録の閉鎖等,0,2023-08-24,2023-08-22,株式会社叶庄不動産,,株式会社,愛知県,名古屋市港区,知多３丁目３１６番地,,23,111,4550883,,,2023-08-22,清算の結了等,,,2020-03-09,1,,,,,カノショウフドウサン,0
1642,7180301001326,登記記録の閉鎖等,0,2023-08-24,2023-08-16,株式会社ツカサ電設,,株式会社,愛知県,岡崎市,鴨田町字山畔１番地,,23,202,4442121,,,2023-08-16,清算の結了等,,,2015-10-05,1,,,,,ツカサデンセツ,0
1648,7190001006194,登記記録の閉鎖等,0,2023-08-24,2023-08-04,ａ－ｕｎ．ｂｒｅｄ株式会社,,株式会社,愛知県,名古屋市東区,東桜２丁目３番７号東カン名古屋キャステール５１１号,,23,102,4610005,,,2023-08-04,清算の結了等,,,2015-10-05,1,,,,,アウンブレッド,0
1655,7250002009818,登記記録の閉鎖等,0,2023-08-24,2023-08-16,高島建設有限会社,,有限会社,山口県,下関市,彦島迫町５丁目５番３０号,,35,201,7500092,,,2023-08-16,清算の結了等,,,2015-10-05,1,,,,,タカシマケンセツ,0
1670,7360001013157,登記記録の閉鎖等,0,2023-08-24,2023-08-18,株式会社大晃,,株式会社,沖縄県,石垣市,字登野城５９５番地の５,,47,207,9070004,,,2023-08-18,清算の結了等,,,2015-10-05,1,,,,,タイコウ,0
1677,7380002009937,登記記録の閉鎖等,0,2023-08-24,2023-08-21,有限会社新星技研,,有限会社,福島県,郡山市,安積町荒井字柴宮山５５番地の４８,,07,203,9630111,,,2023-08-21,清算の結了等,,,2015-10-05,1,,,,,シンセイギケン,0
1683,7420001006212,登記記録の閉鎖等,0,2023-08-24,2023-08-10,株式会社東和ヂーゼル商会,,株式会社,青森県,八戸市,沼館２丁目１１番１８号,,02,203,0310071,,,2023-08-10,清算の結了等,,,2015-10-05,1,,,,,トウワヂーゼルショウカイ,0
1684,7430001075388,登記記録の閉鎖等,0,2023-08-24,2023-08-23,株式会社ＩＲＣ,,株式会社,北海道,札幌市中央区,南四条東４丁目５番地１,,01,101,0600054,,,2023-08-23,清算の結了等,,,2017-11-24,1,,,,,アイアールシー,0
1687,7430002046462,登記記録の閉鎖等,0,2023-08-24,2023-08-03,有限会社ｍｏｎＯＦａｃｔａ,,有限会社,北海道,石狩郡当別町,園生２９４番地,,01,303,0610227,,,2023-08-03,清算の結了等,,,2015-10-05,1,,,,,モノファクタ,0
1691,7460101001126,登記記録の閉鎖等,0,2023-08-24,2023-08-23,十勝太陽食品株式会社,,株式会社,北海道,河西郡芽室町,北伏古南８線１０番地,,01,637,0820072,,,2023-08-23,清算の結了等,,,2015-10-05,1,,,,,トカチタイヨウショクヒン,0
1697,8010001150100,登記記録の閉鎖等,0,2023-08-24,2023-08-22,株式会社アールメディアム,,株式会社,神奈川県,中郡大磯町,国府本郷９４８番地の４,,14,341,2590111,,,2023-08-22,清算の結了等,,,2015-10-05,1,,,,,,0
1705,8010003018915,登記記録の閉鎖等,0,2023-08-24,2023-08-16,合同会社ＧＪＤＰインベストメント,,合同会社,東京都,渋谷区,広尾１丁目１１番２号嶋本公認会計士事務所気付,,13,113,1500012,,,2023-08-16,清算の結了等,,,2015-10-05,1,,,,,ジージェイディーピーインベストメント,0
1713,8010401098872,登記記録の閉鎖等,0,2023-08-24,2023-08-21,株式会社トレジャー・ハント,,株式会社,東京都,江東区,亀戸６丁目５５番１８－９０２号,,13,108,1360071,,,2023-08-21,清算の結了等,,,2015-10-05,1,,,,,トレジャーハント,0
1746,8011102007107,登記記録の閉鎖等,0,2023-08-24,2023-08-22,有限会社星月,,有限会社,東京都,新宿区,西落合２丁目７番１４号,,13,104,1610031,,,2023-08-22,清算の結了等,,,2015-10-05,1,,,,,セイゲツ,0
1753,8012302001840,登記記録の閉鎖等,0,2023-08-24,2023-08-22,有限会社小林商事,,有限会社,東京都,町田市,旭町１丁目７番５号,,13,209,1940023,,,2023-08-22,清算の結了等,,,2015-10-05,1,,,,,コバヤシショウジ,0
1772,8020003015845,登記記録の閉鎖等,0,2023-08-24,2023-08-14,合同会社みらい不動産,,合同会社,神奈川県,横浜市港南区,芹が谷５丁目１１番３５号,,14,111,2330006,,,2023-08-14,清算の結了等,,,2019-04-04,1,,,,,ミライフドウサン,0
1782,8030002005210,登記記録の閉鎖等,0,2023-08-24,2023-07-31,有限会社近藤特殊金網製作所,00015973,有限会社,埼玉県,さいたま市北区,宮原町４丁目７番地３,,11,102,3310812,,,2023-07-31,清算の結了等,,,2015-10-05,1,,,,,コンドウトクシュカナアミセイサクジョ,0
1784,8030002035422,登記記録の閉鎖等,0,2023-08-24,2023-07-31,有限会社車崎,,有限会社,埼玉県,入間市,大字下藤沢５５０番３号,,11,225,3580011,,,2023-07-31,清算の結了等,,,2015-10-05,1,,,,,,0
1785,8030002075690,登記記録の閉鎖等,0,2023-08-24,2023-07-28,有限会社レストランユートピア,,有限会社,埼玉県,川越市,大字鹿飼１５７番地２,,11,201,3500834,,,2023-07-28,清算の結了等,,,2015-10-05,1,,,,,レストランユートピア,0
1786,8030002082992,登記記録の閉鎖等,0,2023-08-24,2023-07-31,有限会社守谷電設,,有限会社,埼玉県,鴻巣市,箕田４６３番地の６,,11,217,3650062,,,2023-07-31,清算の結了等,,,2015-10-05,1,,,,,モリヤデンセツ,0
1790,8030003017287,登記記録の閉鎖等,0,2023-08-24,2023-07-26,合同会社緑成会,,合同会社,埼玉県,草加市,北谷１丁目２２－５臼倉北谷ビル２階,,11,221,3400046,,,2023-07-26,清算の結了等,,,2021-05-26,1,,,,,,0
1798,8040002062614,登記記録の閉鎖等,0,2023-08-24,2023-08-01,有限会社松企画,,有限会社,千葉県,四街道市,和良比２６９番３５,,12,228,2840044,,,2023-08-01,合併による解散等,1040002019018,令和５年８月１日千葉県習志野市大久保三丁目７番１０号株式会社松川新聞舗（1040002019018）に合併し解散,2015-10-05,1,,,,,マツキカク,0
1805,8050002028977,登記記録の閉鎖等,0,2023-08-24,2023-08-17,有限会社ミゾグチ,,有限会社,茨城県,行方市,山田３６２４番地１８,,08,233,3111704,,,2023-08-17,清算の結了等,,,2015-10-05,1,,,,,ミゾグチ,0
1808,8060001031758,登記記録の閉鎖等,0,2023-08-24,2023-08-10,とちぎ福祉コンサルティング株式会社,,株式会社,栃木県,大田原市,中田原６３３番地６,,09,210,3240062,,,2023-08-10,清算の結了等,,,2019-07-24,1,,,,,トチギフクシコンサルティグ,0
1811,8070002020718,登記記録の閉鎖等,0,2023-08-24,2023-08-22,有限会社クロサワ設計,,有限会社,群馬県,佐波郡玉村町,大字上之手１５９７番地１０,,10,464,3701127,,,2023-08-22,清算の結了等,,,2015-10-05,1,,,,,クロサワセッケイ,0
1818,8110001016530,登記記録の閉鎖等,0,2023-08-24,2023-08-22,株式会社朝日テック,,株式会社,新潟県,燕市,佐渡山６８９４番地２,,15,213,9590202,,,2023-08-22,清算の結了等,,,2015-10-05,1,,,,,アサヒテック,0
1819,8110005002907,登記記録の閉鎖等,0,2023-08-24,2023-08-21,特定非営利活動法人新潟市精神障害者地域家族会,,その他の設立登記法人,新潟県,新潟市西区,坂井６００番地２,,15,107,9502042,,,2023-08-21,清算の結了等,,,2015-10-05,1,,,,,ニイガタシセイシンショウガイシャチイキカゾクカイ,0
1826,8120001227853,登記記録の閉鎖等,0,2023-08-24,2023-08-22,株式会社ピクシーダスト,,株式会社,大阪府,大阪市浪速区,難波中２丁目１０番７０号なんばパークスタワー１９階,,27,111,5560011,,,2023-08-22,清算の結了等,,,2020-03-13,1,,,,,ピクシーダスト,0
1840,8120005016526,登記記録の閉鎖等,0,2023-08-24,2023-08-22,一般社団法人リコネクトテレビジョン,,その他の設立登記法人,大阪府,大阪市中央区,城見１丁目３番５０号読売テレビ本社ｅａｓｔｂａｓｅ２Ｆ株式会社ｒｔｖ内,,27,128,5400001,,,2023-08-22,清算の結了等,,,2015-10-05,1,,,,,リコネクトテレビジョン,0
1841,8120102003294,登記記録の閉鎖等,0,2023-08-24,2023-08-22,有限会社トックフェニックストラベル,,有限会社,大阪府,堺市西区,浜寺石津町中３丁８番２８号,,27,144,5928334,,,2023-08-22,清算の結了等,,,2015-10-05,1,,,,,トックフェニックストラベル,0
1848,8140002001388,登記記録の閉鎖等,0,2023-08-24,2023-08-21,有限会社神内運送,,有限会社,兵庫県,神戸市東灘区,深江浜町８６番地,,28,101,6580023,,,2023-08-21,清算の結了等,,,2015-10-05,1,,,,,カミウチウンソウ,0
1856,8160002012318,登記記録の閉鎖等,0,2023-08-24,2023-08-22,有限会社日新警備保障,,有限会社,滋賀県,草津市,野路２丁目１４番１１号,,25,206,5250059,,,2023-08-22,清算の結了等,,,2015-10-05,1,,,,,ニッシンケイビホショウ,0
1866,8180002084512,登記記録の閉鎖等,0,2023-08-24,2023-08-21,有限会社富士マーク,,有限会社,愛知県,半田市,南大矢知町４丁目２０３番地の２,,23,205,4750006,,,2023-08-21,清算の結了等,,,2015-10-05,1,,,,,フジマーク,0
1873,8180302006273,登記記録の閉鎖等,0,2023-08-24,2023-08-17,有限会社荒木米穀店,,有限会社,愛知県,豊橋市,植田町字向新切９６番地の３０,,23,201,4418134,,,2023-08-17,清算の結了等,,,2015-10-05,1,,,,,アラキベイコクテン,0
1874,8180303004706,登記記録の閉鎖等,0,2023-08-24,2023-08-18,ＶＩＥＴ　ＮＡＭ　ＤＥＬＩ合同会社,,合同会社,愛知県,名古屋市中区,松原２丁目６番３号,,23,106,4600017,,,2023-08-18,清算の結了等,,,2020-08-13,1,,,,,ベトナムデリ,0
1880,8210002003344,登記記録の閉鎖等,0,2023-08-24,2023-08-23,有限会社宝泉鉄筋工業,,有限会社,福井県,福井市,大森町第１９号４番地の１,,18,201,9103634,,,2023-08-23,清算の結了等,,,2015-10-05,1,,,,,ホウセンテッキンコウギョウ,0
1884,8230002011733,登記記録の閉鎖等,0,2023-08-24,2023-08-18,日進実業有限会社,,有限会社,富山県,高岡市,下関町１番１８号,,16,202,9330021,,,2023-08-18,清算の結了等,,,2015-10-05,1,,,,,ニッシンジツギョウ,0
1896,8270005002882,登記記録の閉鎖等,0,2023-08-24,2023-08-14,医療法人社団藤井外科医院,,その他の設立登記法人,鳥取県,米子市,奥谷１１５７番地,,31,202,6830016,,,2023-08-14,清算の結了等,,,2015-10-05,1,,,,,フジイゲカイイン,0
1897,8270005004367,登記記録の閉鎖等,0,2023-08-24,2023-08-01,天理教東伯耆分教会,,その他の設立登記法人,鳥取県,倉吉市,福本１８２番地,,31,203,6820604,,,2023-08-01,合併による解散等,1140005016786,令和５年７月２６日兵庫県加東市山国２００４番地の４５天理教社大教会（1140005016786）に合併し解散,2015-10-05,1,,,,,,0
1899,8290005008531,登記記録の閉鎖等,0,2023-08-24,2023-08-04,ＮＰＯ法人こすみんず,,その他の設立登記法人,福岡県,飯塚市,伊川７８４番地１,,40,205,8200054,,,2023-08-04,清算の結了等,,,2015-10-05,1,,,,,コスミンズ,0
1901,8290801017388,登記記録の閉鎖等,0,2023-08-24,2023-08-23,株式会社ＴＭ総合サービス,,株式会社,福岡県,北九州市小倉北区,片野新町１丁目１２番２１号片野トランクスＮ号,,40,106,8020062,,,2023-08-23,清算の結了等,,,2015-10-05,1,,,,,,0
1904,8320005009344,登記記録の閉鎖等,0,2023-08-24,2023-08-23,特定非営利活動法人大分県学生交流等協力支援協会,,その他の設立登記法人,大分県,大分市,城崎町２丁目１番２号,,44,201,8700045,,,2023-08-23,清算の結了等,,,2016-03-02,1,,,,,オオイタケンガクセイコウリュウトウキョウリョクシエンキョウカイ,0
1909,8360002010383,登記記録の閉鎖等,0,2023-08-24,2023-08-17,有限会社諸見里ブロック工業,,有限会社,沖縄県,島尻郡与那原町,字与那原７２番地４,,47,348,9011303,,,2023-08-17,清算の結了等,,,2015-10-05,1,,,,,モロミザトブロックコウギョウ,0
1912,8370001048390,登記記録の閉鎖等,0,2023-08-24,2023-08-21,イースメリング株式会社,,株式会社,宮城県,石巻市,大街道南５丁目９番４６号,,04,202,9860856,,,2023-08-21,清算の結了等,,,2022-04-08,1,,,,,イースメリング,0
1914,8370002017650,登記記録の閉鎖等,0,2023-08-24,2023-08-22,有限会社ライフプランナーズ,,有限会社,宮城県,仙台市青葉区,鷺ケ森２丁目２８番１５号,,04,101,9810922,,,2023-08-22,清算の結了等,,,2015-10-05,1,,,,,ライフプランナーズ,0
1919,8370301003252,登記記録の閉鎖等,0,2023-08-24,2023-08-23,おながわオーシャンフーズ株式会社,,株式会社,宮城県,牡鹿郡女川町,市場通り６番地３,,04,581,9862283,,,2023-08-23,清算の結了等,,,2015-10-05,1,,,,,,0
1925,8410002000420,登記記録の閉鎖等,0,2023-08-24,2023-08-17,有限会社秋田通産,,有限会社,秋田県,秋田市,卸町２丁目１番８号,,05,201,0100061,,,2023-08-17,清算の結了等,,,2015-10-05,1,,,,,アキタツウサン,0
1947,9010003031917,登記記録の閉鎖等,0,2023-08-24,2023-08-16,Ｃｒｅｄｉｆｙ合同会社,,合同会社,東京都,千代田区,神田錦町３丁目７番２号東京堂錦町ビルディング７階・８階・９階,,13,101,1010054,,,2023-08-16,清算の結了等,,,2020-03-19,1,,,,,クレディファイ,0
1971,9011001011704,登記記録の閉鎖等,0,2023-08-24,2023-08-21,株式会社杉本商店,,株式会社,東京都,渋谷区,西原３丁目１１番６号,,13,113,1510066,,,2023-08-21,清算の結了等,,,2015-10-05,1,,,,,スギモトショウテン,0
1987,9011502001749,登記記録の閉鎖等,0,2023-08-24,2023-08-17,有限会社協信建工,,有限会社,東京都,北区,赤羽２丁目１９番８－２０３号伊沢ビル,,13,117,1150045,,,2023-08-17,清算の結了等,,,2015-10-05,1,,,,,キョウシンケンコウ,0
1991,9012401014395,登記記録の閉鎖等,0,2023-08-24,2023-08-22,株式会社シロイアソシエイツ,,株式会社,東京都,三鷹市,下連雀１丁目３０番１１号木谷方,,13,204,1810013,,,2023-08-22,清算の結了等,,,2015-10-05,1,,,,,シロイアソシエイツ,0
2002,9020001105787,登記記録の閉鎖等,0,2023-08-24,2023-08-14,アシスト・ウイズ株式会社,,株式会社,神奈川県,横浜市戸塚区,俣野町１４０３番地,,14,110,2450066,,,2023-08-14,清算の結了等,,,2015-10-05,1,,,,,アシストウイズ,0
2006,9020002057854,登記記録の閉鎖等,0,2023-08-24,2023-08-14,有限会社エーステクノ,,有限会社,神奈川県,横浜市港南区,下永谷５丁目３６番３５号,,14,111,2330016,,,2023-08-14,清算の結了等,,,2015-10-05,1,,,,,エーステクノ,0
2040,9060002032738,登記記録の閉鎖等,0,2023-08-24,2023-08-10,有限会社本島工務店,,有限会社,栃木県,栃木市,大森町１７４番地３,,09,203,3280133,,,2023-08-10,清算の結了等,,,2015-10-05,1,,,,,モトジマコウムテン,0
2043,9080103001961,登記記録の閉鎖等,0,2023-08-24,2023-08-22,ハイランドインベストメント合同会社,,合同会社,静岡県,伊東市,新井４８６,,22,208,4140043,,,2023-08-22,清算の結了等,,,2019-03-18,1,,,,,ハイランドインベストメント,0
2050,9110002018046,登記記録の閉鎖等,0,2023-08-24,2023-08-21,有限会社よしだ工房,,有限会社,新潟県,三条市,鶴田４丁目５番３１号,,15,204,9550051,,,2023-08-21,清算の結了等,,,2015-10-05,1,,,,,ヨシダコウボウ,0
2077,9140002047802,登記記録の閉鎖等,0,2023-08-24,2023-08-22,オオカワ出版有限会社,,有限会社,兵庫県,姫路市,町坪２２２番地２,,28,201,6700984,,,2023-08-22,清算の結了等,,,2015-10-05,1,,,,,オオカワシュッパン,0
2078,9140005009493,登記記録の閉鎖等,0,2023-08-24,2023-08-01,天理教佐加川分教会,,その他の設立登記法人,兵庫県,加古川市,別府町元町９８番地,,28,210,6750134,,,2023-08-01,合併による解散等,7300005000776,令和５年７月２１日佐賀市成章町５番６号天理教佐賀分教会（7300005000776）に合併し解散,2015-10-05,1,,,,,,0
2088,9180002072128,登記記録の閉鎖等,0,2023-08-24,2023-08-21,有限会社梅松陶苑,,有限会社,愛知県,瀬戸市,品野町５丁目３４９番地,,23,204,4801207,,,2023-08-21,清算の結了等,,,2015-10-05,1,,,,,ウメマツトウエン,0
2095,9220001015058,登記記録の閉鎖等,0,2023-08-24,2023-08-01,Ａ＆Ｅシステムズジャパン株式会社,,株式会社,石川県,金沢市,湊２丁目１２０番地１５,,17,201,9200211,,,2023-08-01,合併による解散等,2220001000677,令和５年８月１日石川県金沢市湊二丁目１２０番地１５株式会社アクセス（2220001000677）に合併し解散,2015-10-05,1,,,,,エーアンドイーシステムズジャパン,0
2102,9230005007595,登記記録の閉鎖等,0,2023-08-24,2023-08-21,ＪＦＥマテリアル富山労働組合,,その他の設立登記法人,富山県,射水市,庄西町２丁目１０番５号,,16,211,9340001,,,2023-08-21,清算の結了等,,,2015-10-05,1,,,,,ジェイエフイーマテリアルトヤマ,0
2111,9260002010054,登記記録の閉鎖等,0,2023-08-24,2023-08-23,有限会社モモ・コーポレーション,,有限会社,岡山県,岡山市北区,足守３７９番地１,,33,101,7011463,,,2023-08-23,清算の結了等,,,2015-10-05,1,,,,,モモコーポレーション,0
2123,9340005003641,登記記録の閉鎖等,0,2023-08-24,2023-08-21,黒木生産森林組合,,その他の設立登記法人,鹿児島県,薩摩川内市,祁答院町黒木８４番地,00100218,46,215,8951504,,,2023-08-21,清算の結了等,,,2015-10-05,1,,,,,クロキ,0
2131,9370001044983,登記記録の閉鎖等,0,2023-08-24,2023-08-21,株式会社蔵茂,,株式会社,宮城県,仙台市太白区,茂庭字大沢２９番地の３、１０６号,,04,104,9820251,,,2023-08-21,清算の結了等,,,2019-10-25,1,,,,,,0
2132,9380002000415,登記記録の閉鎖等,0,2023-08-24,2023-08-21,有限会社Ｖｉｓｉоｎ,,有限会社,福島県,福島市,宮下町１４番２８号,,07,201,9608011,,,2023-08-21,清算の結了等,,,2015-10-05,1,,,,,ビジョン,0
