sequenceNumber,corporateNumber,process,correct,updateDate,changeDate,name,nameImageId,kind,prefectureName,cityName,streetNumber,addressImageId,prefectureCode,cityCode,postCode,addressOutside,addressOutsideImageId,closeDate,closeCause,successorCorporateNumber,changeCause,assignmentDate,latest,enName,enPrefectureName,enCityName,enAddressOutside,furigana,hihyoji
2,1010001061659,登記記録の閉鎖等,0,2024-04-10,2024-04-02,株式会社東京桝定,,株式会社,千葉県,船橋市,印内２丁目５番２７－５０３号,,12,204,2730039,,,2024-04-02,清算の結了等,,,2015-10-05,1,,,,,トウキョウマスサダ,0
6,1010001169213,登記記録の閉鎖等,0,2024-04-10,2024-04-01,ユニデンジャパン株式会社,,株式会社,東京都,中央区,日本橋室町２丁目３番１号,,13,102,1030022,,,2024-04-01,合併による解散等,4010001059816,令和６年４月１日東京都中央区日本橋室町二丁目３番１号ユニデンホールディングス株式会社（4010001059816）に合併し解散,2015-10-05,1,,,,,ユニデンジャパン,0
25,1010401173145,登記記録の閉鎖等,0,2024-04-10,2024-03-28,ＨＩＢパートナーズ株式会社,,株式会社,東京都,港区,麻布台１丁目１１番９号,,13,103,1060041,,,2024-03-28,合併による解散等,8011001104401,令和６年３月１日東京都港区麻布台一丁目１１番９号ハイブリィド株式会社（8011001104401）に合併し解散,2023-03-17,1,,,,,エイチアイビーパートナーズ,0
31,1010501000190,登記記録の閉鎖等,0,2024-04-10,2024-03-29,株式会社曙,00051082,株式会社,東京都,渋谷区,神泉町９番６号明和地所渋谷神泉ビル,,13,113,1500045,,,2024-03-29,清算の結了等,,,2015-10-05,1,,,,,アケボノ,0
33,1010601055779,登記記録の閉鎖等,0,2024-04-10,2024-04-03,株式会社ｄｉｇｇｉｎ,,株式会社,東京都,墨田区,江東橋１丁目４番５号ハイツ錦糸町１階,,13,107,1300022,,,2024-04-03,清算の結了等,,,2019-07-04,1,,,,,ディギン,0
46,1011001070666,登記記録の閉鎖等,0,2024-04-10,2024-04-01,株式会社ゼネティックス,,株式会社,東京都,渋谷区,渋谷３丁目８番１２号,,13,113,1500002,,,2024-04-01,合併による解散等,1011001056599,令和６年３月３１日東京都渋谷区渋谷三丁目８番１２号株式会社日本サーバ（1011001056599）に合併し解散,2015-10-05,1,,,,,ゼネティックス,0
60,1011202000265,登記記録の閉鎖等,0,2024-04-10,2024-04-08,有限会社あずさ企画,,有限会社,東京都,中野区,中野５丁目５８番９号,,13,114,1640001,,,2024-04-08,清算の結了等,,,2015-10-05,1,,,,,アズサキカク,0
78,1013301049794,登記記録の閉鎖等,0,2024-04-10,2024-04-04,株式会社クオリア・リレーションズ,,株式会社,東京都,豊島区,南大塚３丁目４６番３号,,13,116,1700005,,,2024-04-04,合併による解散等,7010001238103,令和６年３月２２日東京都千代田区丸の内三丁目１番１号国際ビルＴＣ３１株式会社（7010001238103）に合併し解散,2022-10-18,1,,,,,クオリアリレーションズ,0
85,1020001149189,登記記録の閉鎖等,0,2024-04-10,2024-04-02,株式会社ｎｅｕｅｍｅ,,株式会社,神奈川県,川崎市高津区,下作延２丁目５－４３アールエービル２０３,,14,134,2130033,,,2024-04-02,清算の結了等,,,2022-11-30,1,,,,,ノイミー,0
88,1020002088452,登記記録の閉鎖等,0,2024-04-10,2024-04-03,有限会社尾形電設,,有限会社,神奈川県,川崎市高津区,東野川１丁目２８番２６号,,14,134,2130029,,,2024-04-03,清算の結了等,,,2015-10-05,1,,,,,オガタデンセツ,0
93,1021002047563,登記記録の閉鎖等,0,2024-04-10,2024-04-05,有限会社夢スタジオ,,有限会社,神奈川県,座間市,相武台２丁目４０番９号,,14,216,2520011,,,2024-04-05,清算の結了等,,,2015-10-05,1,,,,,ユメスタジオ,0
94,1021002060979,登記記録の閉鎖等,0,2024-04-10,2024-04-08,有限会社吉見時計店,00013814,有限会社,神奈川県,中郡二宮町,二宮８８３番地,,14,342,2590123,,,2024-04-08,清算の結了等,,,2015-10-05,1,,,,,ヨシミトケイテン,0
105,1040001066358,登記記録の閉鎖等,0,2024-04-10,2024-04-02,株式会社光総合研究所,,株式会社,千葉県,柏市,富里３丁目１番３号,,12,217,2770081,,,2024-04-02,清算の結了等,,,2015-10-05,1,,,,,ヒカリソウゴウケンキュウショ,0
112,1050001034074,登記記録の閉鎖等,0,2024-04-10,2024-04-05,株式会社よつば,,株式会社,茨城県,龍ケ崎市,白羽２丁目６番地２,,08,208,3010841,,,2024-04-05,清算の結了等,,,2015-10-05,1,,,,,ヨツバ,0
116,1050002025361,登記記録の閉鎖等,0,2024-04-10,2024-04-08,株式会社関東エコロ,,株式会社,茨城県,猿島郡五霞町,大字小手指５７７番地３,,08,542,3060315,,,2024-04-08,清算の結了等,,,2015-10-05,1,,,,,カントウエコロ,0
119,1050003001361,登記記録の閉鎖等,0,2024-04-10,2024-04-05,合資会社オーエム環境整備,,合資会社,茨城県,行方市,麻生１１０９番地３,,08,233,3113832,,,2024-04-05,清算の結了等,,,2015-10-05,1,,,,,オーエムカンキョウセイビ,0
131,1080101005377,登記記録の閉鎖等,0,2024-04-10,2024-04-05,株式会社エアテック,,株式会社,静岡県,駿東郡清水町,卸団地３７番地,,22,341,4110912,,,2024-04-05,清算の結了等,,,2024-02-15,1,,,,,エアテック,0
135,1090002011655,登記記録の閉鎖等,0,2024-04-10,2024-04-04,有限会社池田,,有限会社,山梨県,南都留郡富士河口湖町,大石１３７２番地２,,19,430,4010305,,,2024-04-04,清算の結了等,,,2015-10-05,1,,,,,イケダ,0
141,1120001111774,登記記録の閉鎖等,0,2024-04-10,2024-04-01,太洋ヒロセ株式会社,,株式会社,大阪府,大阪市中央区,平野町２丁目６番６号,,27,128,5410046,,,2024-04-01,合併による解散等,7120001205067,令和６年４月１日大阪市西淀川区中島二丁目３番８７号ヒロセ株式会社（7120001205067）に合併し解散,2015-10-05,1,,,,,タイヨウヒロセ,0
142,1120001160978,登記記録の閉鎖等,0,2024-04-10,2024-04-01,ビジョン株式会社,,株式会社,大阪府,大阪市中央区,久太郎町４丁目２番１５号,,27,128,5410056,,,2024-04-01,合併による解散等,7120001161707,令和６年４月１日大阪市中央区島之内一丁目２１番１９号ハート株式会社（7120001161707）に合併し解散,2015-10-05,1,,,,,ビジョン,0
148,1120002072834,登記記録の閉鎖等,0,2024-04-10,2024-04-01,有限会社西玉製作所,,有限会社,大阪府,寝屋川市,中神田町９番２１号,,27,215,5720053,,,2024-04-01,清算の結了等,,,2015-10-05,1,,,,,ニシタマセイサクショ,0
153,1120003019677,登記記録の閉鎖等,0,2024-04-10,2024-04-02,合同会社Ｃ－ｅｌａｎ,,合同会社,大阪府,大阪市北区,中之島６丁目１番３８－２３１６号,,27,127,5300005,,,2024-04-02,清算の結了等,,,2021-06-23,1,,,,,シーエレン,0
177,1140001060532,登記記録の閉鎖等,0,2024-04-10,2024-04-08,株式会社日進サーベー,,株式会社,兵庫県,姫路市,山田町西山田１８４番地２,,28,201,6792115,,,2024-04-08,清算の結了等,,,2015-10-05,1,,,,,ニッシンサーベー,0
191,1160002011367,登記記録の閉鎖等,0,2024-04-10,2024-04-02,有限会社大金,,有限会社,滋賀県,高島市,朽木市場６０９番地の２,,25,212,5201401,,,2024-04-02,清算の結了等,,,2015-10-05,1,,,,,ダイキン,0
199,1180002010532,登記記録の閉鎖等,0,2024-04-10,2024-04-01,有限会社若どりのシバタ,,有限会社,愛知県,名古屋市瑞穂区,田辺通４丁目２７番地,,23,108,4670027,,,2024-04-01,清算の結了等,,,2015-10-05,1,,,,,ワカドリノシバタ,0
207,1200001021346,登記記録の閉鎖等,0,2024-04-10,2024-04-01,株式会社ＣａＮ－ＴＥＣ,,株式会社,岐阜県,土岐市,肥田町肥田２２４７番地の２,,21,212,5095115,,,2024-04-01,合併による解散等,3200001001197,令和６年４月１日岐阜市北島二丁目３番２３号岐阜ＮＤＳ株式会社（3200001001197）に合併し解散,2015-10-05,1,,,,,キャンテック,0
223,1280003000365,登記記録の閉鎖等,0,2024-04-10,2024-04-05,合資会社齋藤疊製作所,,合資会社,島根県,浜田市,三隅町三隅１０７２番地３,,32,202,6993211,,,2024-04-05,清算の結了等,,,2015-10-05,1,,,,,サイトウタタミセイサクショ,0
228,1290002051540,登記記録の閉鎖等,0,2024-04-10,2024-03-25,有限会社ジェイ・プラス,,有限会社,福岡県,小郡市,寺福童４９６番地の１１,,40,216,8380138,,,2024-03-25,清算の結了等,,,2015-10-05,1,,,,,,0
237,1310002017745,登記記録の閉鎖等,0,2024-04-10,2024-04-02,有限会社長崎新聞東諫早販売センター,,有限会社,長崎県,諫早市,幸町５６番２２号,,42,204,8540022,,,2024-04-02,清算の結了等,,,2015-10-05,1,,,,,ナガサキシンブンヒガシイサハヤハンバイセンター,0
246,1330005001918,登記記録の閉鎖等,0,2024-04-10,2024-04-02,特定非営利活動法人子どもアシストセンターわくわく,,その他の設立登記法人,熊本県,熊本市北区,鹿子木町３５６番地,,43,105,8615521,,,2024-04-02,清算の結了等,,,2015-10-05,1,,,,,コドモアシストセンターワクワク,0
283,1500002023162,登記記録の閉鎖等,0,2024-04-10,2024-04-03,有限会社みよし,,有限会社,愛媛県,宇和島市,新町２丁目６番６号,,38,203,7980035,,,2024-04-03,清算の結了等,,,2015-10-05,1,,,,,ミヨシ,0
313,2010801002233,登記記録の閉鎖等,0,2024-04-10,2024-04-01,株式会社オクト電気,,株式会社,東京都,大田区,矢口２丁目２５番８号,,13,111,1460093,,,2024-04-01,清算の結了等,,,2015-10-05,1,,,,,オクトデンキ,0
317,2011001070946,登記記録の閉鎖等,0,2024-04-10,2024-04-08,株式会社サンベンド,,株式会社,東京都,江東区,東砂７丁目１９番９号,,13,108,1360074,,,2024-04-08,合併による解散等,3070001013818,令和６年４月１日群馬県伊勢崎市堀口町９２番地１株式会社ユニオントラスト（3070001013818）に合併し解散,2015-10-05,1,,,,,サンベンド,0
363,2040001016295,登記記録の閉鎖等,0,2024-04-10,2024-04-02,株式会社モイスティーヌ千葉販売,,株式会社,千葉県,千葉市中央区,新町３番地７,,12,101,2600028,,,2024-04-02,合併による解散等,7040002082811,令和６年４月１日千葉県長生郡長生村薮塚６０４番地２株式会社モイスティーヌ千葉販売（7040002082811）に合併し解散,2015-10-05,1,,,,,モイスティーヌチバハンバイ,0
370,2040002069862,登記記録の閉鎖等,0,2024-04-10,2024-04-01,株式会社花穂,00119150,株式会社,千葉県,君津市,泉２７８番地１,,12,225,2991112,,,2024-04-01,合併による解散等,8040001112691,令和６年４月１日千葉県木更津市潮浜二丁目１番地５１株式会社穴太ホールディングス（8040001112691）に合併し解散,2015-10-05,1,,,,,カスイ,0
371,2040002099785,登記記録の閉鎖等,0,2024-04-10,2024-04-01,有限会社鳳翔里見庵,,有限会社,千葉県,館山市,北条１８８２番地,,12,205,2940045,,,2024-04-01,清算の結了等,,,2015-10-05,1,,,,,ホウショウサトミアン,0
377,2050002033818,登記記録の閉鎖等,0,2024-04-10,2024-04-05,有限会社日正自動車,,有限会社,茨城県,稲敷郡河内町,長竿３８７８番地の４,,08,447,3001312,,,2024-04-05,清算の結了等,,,2015-10-05,1,,,,,ニッショウジドウシャ,0
383,2070002019121,登記記録の閉鎖等,0,2024-04-10,2024-04-05,有限会社下山製作所,,有限会社,群馬県,伊勢崎市,田中町５８９番地,,10,204,3720814,,,2024-04-05,清算の結了等,,,2015-10-05,1,,,,,シモヤマセイサクジョ,0
393,2120001078311,登記記録の閉鎖等,0,2024-04-10,2024-04-01,銀泉興産株式会社,,株式会社,大阪府,大阪市中央区,高麗橋４丁目６番２号,,27,128,5410043,,,2024-04-01,合併による解散等,5120001078309,令和６年４月１日大阪市中央区高麗橋四丁目６番２号銀泉株式会社（5120001078309）に合併し解散,2015-10-05,1,,,,,ギンセンコウサン,0
397,2120001181206,登記記録の閉鎖等,0,2024-04-10,2024-03-29,株式会社ガツン,,株式会社,東京都,杉並区,天沼３丁目１番１号,,13,115,1670032,,,2024-03-29,清算の結了等,,,2015-10-05,1,,,,,,0
431,2140003016176,登記記録の閉鎖等,0,2024-04-10,2024-04-04,合同会社ＡＲＵＨＡＺＵ,,合同会社,兵庫県,神戸市長田区,若松町１丁目４－８カニビル２Ｆ,,28,106,6530038,,,2024-04-04,清算の結了等,,,2021-04-16,1,,,,,アルハズ,0
452,2180005013515,登記記録の閉鎖等,0,2024-04-10,2024-04-02,尾張南部自動車販売整備協同組合,,その他の設立登記法人,愛知県,津島市,埋田町５丁目１２２番地,,23,208,4960031,,,2024-04-02,清算の結了等,,,2015-10-05,1,,,,,オワリナンブジドウシャハンバイ,0
453,2180302010330,登記記録の閉鎖等,0,2024-04-10,2024-04-01,有限会社ヤマト,,有限会社,愛知県,豊橋市,菰口町２丁目４５番地,,23,201,4418011,,,2024-04-01,清算の結了等,,,2015-10-05,1,,,,,ヤマト,0
461,2230001000692,登記記録の閉鎖等,0,2024-04-10,2024-04-04,北陸東邦株式会社,,株式会社,富山県,富山市,新庄町４４番地５,,16,201,9300992,,,2024-04-04,合併による解散等,5010901023507,令和６年４月１日東京都世田谷区代沢五丁目２番１号東邦薬品株式会社（5010901023507）に合併し解散,2015-10-05,1,,,,,ホクリクトウホウ,0
466,2290001065251,登記記録の閉鎖等,0,2024-04-10,2024-03-25,株式会社オブグリーン,,株式会社,福岡県,福岡市中央区,平尾２丁目１５番１６号,,40,133,8100014,,,2024-03-25,清算の結了等,,,2015-10-05,1,,,,,オブグリーン,0
478,2330001007513,登記記録の閉鎖等,0,2024-04-10,2024-03-25,株式会社ＡＰＩ,,株式会社,福岡県,福岡市博多区,博多駅前２丁目１９番１７号トーカン博多第５ビル３１２号室,,40,132,8120011,,,2024-03-25,清算の結了等,,,2015-10-05,1,,,,,,0
492,2370003003498,登記記録の閉鎖等,0,2024-04-10,2024-04-02,ほほえみ合同会社,,合同会社,宮城県,大崎市,古川南町３丁目１番８－１号,,04,215,9896155,,,2024-04-02,清算の結了等,,,2016-05-16,1,,,,,ホホエミ,0
507,2430001031354,登記記録の閉鎖等,0,2024-04-10,2024-04-03,株式会社大洋建設,,株式会社,北海道,札幌市東区,北四十三条東１９丁目２番２号,,01,103,0070843,,,2024-04-03,合併による解散等,2030001032649,令和６年４月１日東京都千代田区丸の内一丁目８番３号丸の内トラストタワー本館株式会社ヒノキヤグループ（2030001032649）に合併し解散,2015-10-05,1,,,,,タイヨウケンセツ,0
514,2440001002123,登記記録の閉鎖等,0,2024-04-10,2024-04-04,北海冷研興業株式会社,,株式会社,北海道,函館市,北浜町５番１４号,,01,202,0400078,,,2024-04-04,清算の結了等,,,2015-10-05,1,,,,,ホッカイレイケンコウギョウ,0
532,3010001036130,登記記録の閉鎖等,0,2024-04-10,2024-04-05,株式会社アルタ・ケミカル,,株式会社,東京都,港区,新橋２丁目１３番５号,,13,103,1050004,,,2024-04-05,合併による解散等,4230001009872,令和６年４月１日富山県高岡市昭和町一丁目４番１号金森産業株式会社（4230001009872）に合併し解散,2015-10-05,1,,,,,アルタケミカル,0
548,3010401116928,登記記録の閉鎖等,0,2024-04-10,2024-04-01,株式会社ＰＯＰＭｅ,,株式会社,東京都,港区,六本木７丁目１１番９号,,13,103,1060032,,,2024-04-01,清算の結了等,,,2015-10-05,1,,,,,ポップミー,0
550,3010401178885,登記記録の閉鎖等,0,2024-04-10,2024-04-08,ＫＳＪ７株式会社,,株式会社,東京都,港区,麻布台１丁目７番２号,,13,103,1060041,,,2024-04-08,合併による解散等,8021001019895,令和６年３月３１日福島県南会津郡南会津町田島字田部原１５８番地株式会社ショウエー（8021001019895）に合併し解散,2023-12-05,1,,,,,ケイエスジェーセブン,0
554,3010501040689,登記記録の閉鎖等,0,2024-04-10,2024-04-02,株式会社ＭＡＸリスタート,,株式会社,東京都,江東区,豊洲６丁目２番３１－３２１７号,,13,108,1350061,,,2024-04-02,清算の結了等,,,2017-02-24,1,,,,,マックスリスタート,0
555,3010601003166,登記記録の閉鎖等,0,2024-04-10,2024-04-02,ジャパンデータ株式会社,,株式会社,東京都,墨田区,菊川３丁目２３番２号,,13,107,1300024,,,2024-04-02,清算の結了等,,,2015-10-05,1,,,,,ジャパンデータ,0
563,3010701003586,登記記録の閉鎖等,0,2024-04-10,2024-03-29,産愛電設株式会社,,株式会社,東京都,品川区,小山６丁目１０番９号,,13,109,1420062,,,2024-03-29,清算の結了等,,,2015-10-05,1,,,,,サンアイデンセツ,0
568,3010902014671,登記記録の閉鎖等,0,2024-04-10,2024-04-04,有限会社みすゞ商事,,有限会社,東京都,世田谷区,上用賀１丁目５番１３号,,13,112,1580098,,,2024-04-04,清算の結了等,,,2015-10-05,1,,,,,ミスズショウジ,0
585,3011201007169,登記記録の閉鎖等,0,2024-04-10,2024-04-08,カナース・データー株式会社,,株式会社,東京都,中野区,松が丘２丁目２８番１号,,13,114,1650024,,,2024-04-08,清算の結了等,,,2015-10-05,1,,,,,カナースデーター,0
593,3011601017271,登記記録の閉鎖等,0,2024-04-10,2024-04-05,株式会社セコニック電子,,株式会社,東京都,練馬区,大泉学園町７丁目２４番１４号,,13,120,1780061,,,2024-04-05,合併による解散等,8011601003630,令和６年４月１日東京都世田谷区池尻三丁目１番３号株式会社セコニック（8011601003630）に合併し解散,2015-10-05,1,,,,,セコニックデンシ,0
596,3011803003722,登記記録の閉鎖等,0,2024-04-10,2024-04-01,合同会社ＩＥＭＡＣＨＩ,,合同会社,東京都,荒川区,西日暮里２丁目１７－７大石ビル４Ｆ,,13,118,1160013,,,2024-04-01,清算の結了等,,,2019-06-04,1,,,,,イエマチ,0
597,3011803004373,登記記録の閉鎖等,0,2024-04-10,2024-04-03,合同会社ＴＴＳ,,合同会社,東京都,葛飾区,東水元２丁目１２－２－１０１,,13,122,1250033,,,2024-04-03,清算の結了等,,,2020-11-17,1,,,,,ティーティーエス,0
610,3020001072637,登記記録の閉鎖等,0,2024-04-10,2024-04-03,株式会社銀座・ラ・フェーム,,株式会社,神奈川県,川崎市川崎区,砂子２丁目４番１８号,,14,131,2100006,,,2024-04-03,清算の結了等,,,2015-10-05,1,,,,,ギンザラフェーム,0
611,3020001095043,登記記録の閉鎖等,0,2024-04-10,2024-04-03,住まいる耐震システム株式会社,,株式会社,神奈川県,横浜市金沢区,釜利谷東４丁目２番１号,,14,108,2360042,,,2024-04-03,清算の結了等,,,2015-10-05,1,,,,,スマイルタイシンシステム,0
612,3020001097031,登記記録の閉鎖等,0,2024-04-10,2024-04-04,東横不動産株式会社,,株式会社,神奈川県,川崎市幸区,矢上１番７号レンタルオフィスマックス２０７,,14,132,2120056,,,2024-04-04,清算の結了等,,,2015-10-05,1,,,,,トウヨコフドウサン,0
625,3030002119403,登記記録の閉鎖等,0,2024-04-10,2024-04-01,有限会社クボタスポーツマーケティング研究所,,有限会社,埼玉県,飯能市,大字平戸２４０番地１,,11,209,3570211,,,2024-04-01,清算の結了等,,,2015-10-05,1,,,,,クボタスポーツマーケティングケンキュウジョ,0
642,3050001008869,登記記録の閉鎖等,0,2024-04-10,2024-04-05,株式会社あくろすフードシステム,,株式会社,茨城県,土浦市,神立町３６２８番地の６３,,08,203,3000013,,,2024-04-05,清算の結了等,,,2015-10-05,1,,,,,アクロスフードシステム,0
644,3050001022878,登記記録の閉鎖等,0,2024-04-10,2024-04-08,株式会社朝日精機製作所,,株式会社,茨城県,日立市,諏訪町１丁目１９番１５号,,08,202,3160001,,,2024-04-08,清算の結了等,,,2015-10-05,1,,,,,アサヒセイキセイサクショ,0
652,3050005002505,登記記録の閉鎖等,0,2024-04-10,2024-04-04,大洗ものづくり協同組合,,その他の設立登記法人,茨城県,東茨城郡大洗町,磯浜町１２６３番地の１,,08,309,3111301,,,2024-04-04,清算の結了等,,,2015-10-05,1,,,,,オオアライモノヅクリ,0
665,3080102009318,登記記録の閉鎖等,0,2024-04-10,2024-04-08,有限会社浅倉商店,,有限会社,静岡県,三島市,栄町４番１９号,,22,206,4110846,,,2024-04-08,清算の結了等,,,2015-10-05,1,,,,,アサクラショウテン,0
669,3080402010388,登記記録の閉鎖等,0,2024-04-10,2024-04-03,有限会社ベル繊維,,有限会社,静岡県,浜松市中央区,領家３丁目１３番１９号,,22,138,4300852,,,2024-04-03,清算の結了等,,,2015-10-05,1,,,,,ベルセンイ,0
671,3090002010746,登記記録の閉鎖等,0,2024-04-10,2024-04-04,有限会社甲信機材,,有限会社,山梨県,山梨市,上岩下１１７番地,,19,205,4050034,,,2024-04-04,清算の結了等,,,2015-10-05,1,,,,,コウシンキザイ,0
674,3110001012872,登記記録の閉鎖等,0,2024-04-10,2024-04-03,福井陶器建材株式会社,,株式会社,新潟県,新発田市,大手町１丁目１番６号,,15,206,9570052,,,2024-04-03,清算の結了等,,,2015-10-05,1,,,,,フクイトウキケンザイ,0
678,3120001033100,登記記録の閉鎖等,0,2024-04-10,2024-04-03,株式会社プロポーネント,,株式会社,大阪府,大阪市阿倍野区,昭和町５丁目９－１－７Ｆ,,27,119,5450011,,,2024-04-03,清算の結了等,,,2015-10-05,1,,,,,プロポーネント,0
680,3120001151645,登記記録の閉鎖等,0,2024-04-10,2024-04-05,株式会社星医療酸器関西,,株式会社,大阪府,交野市,私部西５丁目３２番２５号,,27,230,5760041,,,2024-04-05,合併による解散等,2011801011868,令和６年４月１日東京都足立区入谷七丁目１１番１８号株式会社星医療酸器（2011801011868）に合併し解散,2015-10-05,1,,,,,ホシイリョウサンキカンサイ,0
713,3140002008363,登記記録の閉鎖等,0,2024-04-10,2024-04-04,有限会社金城機械産業,,有限会社,兵庫県,神戸市長田区,菅原通２丁目４番地の１,,28,106,6530015,,,2024-04-04,清算の結了等,,,2015-10-05,1,,,,,カネシロキカイサンギョウ,0
728,3180001149460,登記記録の閉鎖等,0,2024-04-10,2024-04-01,せと丸ビル本社株式会社,,株式会社,愛知県,瀬戸市,西原町２丁目１番地１,,23,204,4890972,,,2024-04-01,清算の結了等,,,2022-01-12,1,,,,,セトマルビルホンシャ,0
738,3180005016244,登記記録の閉鎖等,0,2024-04-10,2024-04-01,一般社団法人愛知県現任保育士研修運営協議会,,その他の設立登記法人,愛知県,日進市,本郷町鴻土５番地１,,23,230,4700121,,,2024-04-01,清算の結了等,,,2015-10-05,1,,,,,アイチケンゲンニンホイクシケンシュウウンエイキョウギカイ,0
743,3190001025727,登記記録の閉鎖等,0,2024-04-10,2024-03-29,株式会社スクラブステクノロジー,,株式会社,長野県,塩尻市,大門三番町１０番１９号,,20,215,3990733,,,2024-03-29,清算の結了等,,,2018-07-24,1,,,,,スクラブステクノロジー,0
748,3200002001221,登記記録の閉鎖等,0,2024-04-10,2024-04-03,有限会社岐阜長尺,,有限会社,岐阜県,岐阜市,則松３丁目１６１番地の１,,21,201,5011183,,,2024-04-03,清算の結了等,,,2015-10-05,1,,,,,ギフチョウジャク,0
763,3270001000044,登記記録の閉鎖等,0,2024-04-10,2024-04-05,株式会社イーエイシー分析センター,,株式会社,鳥取県,鳥取市,吉成南町２丁目１３番１１号,,31,201,6800871,,,2024-04-05,清算の結了等,,,2015-10-05,1,,,,,イーエイシーブンセキセンター,0
771,3320005005892,登記記録の閉鎖等,0,2024-04-10,2024-04-01,竹田市米尾生産森林組合,,その他の設立登記法人,大分県,竹田市,大字城原１７２５番地７,,44,208,8780143,,,2024-04-01,清算の結了等,,,2015-10-05,1,,,,,タケタシコメオセイサン,0
776,3330001023559,登記記録の閉鎖等,0,2024-04-10,2024-04-01,株式会社プチブラン,,株式会社,熊本県,熊本市中央区,世安１丁目４番１号,,43,101,8600827,,,2024-04-01,合併による解散等,9330001026663,令和６年４月１日熊本市中央区上水前寺二丁目１番６３号株式会社オージャスプラス（9330001026663）に合併し解散,2016-12-27,1,,,,,プチブラン,0
780,3340001013071,登記記録の閉鎖等,0,2024-04-10,2024-04-04,株式会社ＵＴＯ九州,,株式会社,鹿児島県,鹿児島市,紫原７丁目２７番３１号,,46,201,8900082,,,2024-04-04,清算の結了等,,,2015-10-05,1,,,,,ウトキュウシュウ,0
787,3370001043958,登記記録の閉鎖等,0,2024-04-10,2024-04-01,株式会社ＡＦＵＴＯ,,株式会社,宮城県,仙台市若林区,荒井４丁目７番地の１４,,04,103,9840032,,,2024-04-01,清算の結了等,,,2019-02-06,1,,,,,アフト,0
789,3370003004157,登記記録の閉鎖等,0,2024-04-10,2024-04-02,合同会社ふじ造園,,合同会社,宮城県,大崎市,古川南町３丁目２番４７号,,04,215,9896155,,,2024-04-02,清算の結了等,,,2018-06-08,1,,,,,フジゾウエン,0
805,3430002063569,登記記録の閉鎖等,0,2024-04-10,2024-04-02,有限会社赤羽商店,,有限会社,北海道,虻田郡洞爺湖町,洞爺湖温泉３６番地の２,,01,584,0495721,,,2024-04-02,清算の結了等,,,2015-10-05,1,,,,,アカバネショウテン,0
807,3440002004464,登記記録の閉鎖等,0,2024-04-10,2024-04-09,有限会社丸千佐々木工務店,,有限会社,北海道,函館市,陣川１丁目１８番１５号,,01,202,0410837,,,2024-04-09,清算の結了等,,,2015-10-05,1,,,,,マルセンササキコウムテン,0
810,3460002003844,登記記録の閉鎖等,0,2024-04-10,2024-04-08,有限会社宝来フーズ,,有限会社,北海道,厚岸郡厚岸町,港町２丁目４０番地,,01,662,0881128,,,2024-04-08,清算の結了等,,,2015-10-05,1,,,,,ホウライフーズ,0
820,4010001009993,登記記録の閉鎖等,0,2024-04-10,2024-04-01,株式会社アド・エイト,,株式会社,東京都,千代田区,神田松永町１０番地,,13,101,1010023,,,2024-04-01,清算の結了等,,,2015-10-05,1,,,,,アドエイト,0
835,4010001120255,登記記録の閉鎖等,0,2024-04-10,2024-04-02,株式会社ＬａｉｎＺ,,株式会社,東京都,中央区,新川１丁目６番１１号,,13,102,1040033,,,2024-04-02,合併による解散等,4010001100819,令和６年４月１日東京都中央区八丁堀一丁目１０番７号ＣＬＩＮＫＳ株式会社（4010001100819）に合併し解散,2015-10-05,1,,,,,レインズ,0
868,4010702010911,登記記録の閉鎖等,0,2024-04-10,2024-03-28,有限会社ステージ,,有限会社,東京都,品川区,旗の台３丁目１６番９号,,13,109,1420064,,,2024-03-28,清算の結了等,,,2015-10-05,1,,,,,ステージ,0
895,4011301002358,登記記録の閉鎖等,0,2024-04-10,2024-04-04,株式会社煌翔,,株式会社,東京都,杉並区,阿佐谷南３丁目２番２９号,,13,115,1660004,,,2024-04-04,清算の結了等,,,2015-10-05,1,,,,,コウショウ,0
923,4020002003755,登記記録の閉鎖等,0,2024-04-10,2024-04-03,有限会社アライプレス工業,,有限会社,神奈川県,横浜市緑区,長津田町２５６５番地５,,14,113,2260026,,,2024-04-03,清算の結了等,,,2015-10-05,1,,,,,アライプレスコウギョウ,0
927,4021002036984,登記記録の閉鎖等,0,2024-04-10,2024-04-08,有限会社今村サイエンスコンサルト,,有限会社,神奈川県,厚木市,森の里４丁目２１番１１号,,14,212,2430122,,,2024-04-08,清算の結了等,,,2015-10-05,1,,,,,,0
940,4040001051588,登記記録の閉鎖等,0,2024-04-10,2024-04-02,株式会社ベイ・エレックス,,株式会社,千葉県,君津市,北子安２丁目１６番３３号,,12,225,2991161,,,2024-04-02,清算の結了等,,,2015-10-05,1,,,,,ベイエレックス,0
941,4040001067114,登記記録の閉鎖等,0,2024-04-10,2024-04-01,株式会社伊藤商事,,株式会社,千葉県,柏市,高柳４７２番地の１０,,12,217,2770941,,,2024-04-01,清算の結了等,,,2015-10-05,1,,,,,イトウショウジ,0
955,4050005011348,登記記録の閉鎖等,0,2024-04-10,2024-03-29,特定非営利活動法人環境保全推進協会,,その他の設立登記法人,茨城県,つくば市,下広岡１０９１番地の２,,08,220,3050042,,,2024-03-29,清算の結了等,,,2015-10-05,1,,,,,カンキョウホゼンスイシンキョウカイ,0
963,4080001008782,登記記録の閉鎖等,0,2024-04-10,2024-04-01,株式会社トライツナプロダクト,,株式会社,静岡県,静岡市清水区,清開２丁目２番９号,,22,103,4240924,,,2024-04-01,合併による解散等,4080001008774,令和６年４月１日静岡市清水区清開二丁目２番９号トライ産業株式会社（4080001008774）に合併し解散,2015-10-05,1,,,,,トライツナプロダクト,0
992,4120005009797,登記記録の閉鎖等,0,2024-04-10,2024-04-08,特定非営利活動法人キャリア・インディペンデンス,,その他の設立登記法人,兵庫県,尼崎市,南塚口町８丁目１４番３１－１号,,28,202,6610012,,,2024-04-08,清算の結了等,,,2015-10-05,1,,,,,キャリアインディペンデンス,0
995,4122001014013,登記記録の閉鎖等,0,2024-04-10,2024-04-03,株式会社西尾倉庫,,株式会社,大阪府,東大阪市,本庄中２丁目１０７番地,,27,227,5780957,,,2024-04-03,清算の結了等,,,2015-10-05,1,,,,,ニシオソウコ,0
1004,4130002020384,登記記録の閉鎖等,0,2024-04-10,2024-04-08,有限会社ビアンカ,,有限会社,京都府,京都市山科区,安朱桟敷町２３番地ラクト－Ａ－Ｂ２Ｆ,,26,110,6078012,,,2024-04-08,清算の結了等,,,2015-10-05,1,,,,,ビアンカ,0
1014,4150001012868,登記記録の閉鎖等,0,2024-04-10,2024-04-05,株式会社七福産業,,株式会社,奈良県,香芝市,穴虫８５番地の８,,29,210,6390252,,,2024-04-05,清算の結了等,,,2024-02-07,1,,,,,シチフクサンギョウ,0
1019,4180001142282,登記記録の閉鎖等,0,2024-04-10,2024-04-01,株式会社Ｌｉｆｅ．ｉｎｄｕｓｔｒｙ,,株式会社,愛知県,名古屋市南区,鳴尾１丁目３４３番地の１,,23,112,4570066,,,2024-04-01,清算の結了等,,,2020-08-14,1,,,,,ライフインダストリー,0
1026,4180301016186,登記記録の閉鎖等,0,2024-04-10,2024-04-05,株式会社クリニカルサポート,,株式会社,愛知県,安城市,三河安城町２丁目２８番地２,,23,212,4460056,,,2024-04-05,清算の結了等,,,2015-10-05,1,,,,,クリニカルサポート,0
1028,4180302006616,登記記録の閉鎖等,0,2024-04-10,2024-04-01,有限会社英友,,有限会社,愛知県,豊橋市,八町通５丁目９０番地,,23,201,4400806,,,2024-04-01,合併による解散等,7010002050770,令和６年４月１日愛知県豊橋市八町通五丁目９０番地株式会社鋒柳（7010002050770）に合併し解散,2015-10-05,1,,,,,エイユウ,0
1039,4230001012447,登記記録の閉鎖等,0,2024-04-10,2024-04-01,株式会社新湊製作所,,株式会社,富山県,射水市,新堀３４番地,,16,211,9340035,,,2024-04-01,合併による解散等,6230001007882,令和６年４月１日富山県滑川市法花寺２３３番地北陸電機製造株式会社（6230001007882）に合併し解散,2015-10-05,1,,,,,シンミナトセイサクショ,0
1048,4240002048142,登記記録の閉鎖等,0,2024-04-10,2024-04-04,有限会社三基工業,,有限会社,広島県,安芸郡海田町,南本町４番１４号,,34,304,7360033,,,2024-04-04,清算の結了等,,,2015-10-05,1,,,,,サンキコウギョウ,0
1054,4250002005670,登記記録の閉鎖等,0,2024-04-10,2024-04-02,有限会社ホープカラー販売,,有限会社,山口県,宇部市,厚南中央１丁目７番６２号,,35,202,7590212,,,2024-04-02,合併による解散等,4250001004062,令和６年４月１日山口県宇部市大字東岐波１１７６番地の２株式会社リカースペース太陽（4250001004062）に合併し解散,2015-10-05,1,,,,,ホープカラーハンバイ,0
1067,4290802024726,登記記録の閉鎖等,0,2024-04-10,2024-04-01,有限会社フクノーグレイン,,有限会社,福岡県,田川郡川崎町,大字川崎３９９２番地,,40,605,8270003,,,2024-04-01,清算の結了等,,,2015-10-05,1,,,,,フクノーグレイン,0
1068,4300002001375,登記記録の閉鎖等,0,2024-04-10,2024-04-08,有限会社北部,,有限会社,佐賀県,佐賀市,開成２丁目１７番３５号,,41,201,8490934,,,2024-04-08,清算の結了等,,,2015-10-05,1,,,,,ホクブ,0
1091,4430001004655,登記記録の閉鎖等,0,2024-04-10,2024-04-01,共同交通株式会社,,株式会社,北海道,札幌市厚別区,厚別中央一条１丁目１番２５号,,01,108,0040051,,,2024-04-01,合併による解散等,7430001020501,令和６年４月１日札幌市厚別区厚別中央一条一丁目１番２５号札幌交通株式会社（7430001020501）に合併し解散,2015-10-05,1,,,,,キョウドウコウツウ,0
1095,4430005000205,登記記録の閉鎖等,0,2024-04-10,2024-04-03,浄峰寺,,その他の設立登記法人,北海道,札幌市北区,篠路三条３丁目８番１８号,,01,102,0028023,,,2024-04-03,清算の結了等,,,2015-10-05,1,,,,,ジョウホウジ,0
1108,4490002009887,登記記録の閉鎖等,0,2024-04-10,2024-04-03,有限会社高知新聞宇佐販売所,,有限会社,高知県,土佐市,宇佐町宇佐４４１番地９,,39,205,7811161,,,2024-04-03,清算の結了等,,,2015-10-05,1,,,,,,0
1120,5010001229987,登記記録の閉鎖等,0,2024-04-10,2024-04-01,株式会社マルジューホールディングス,,株式会社,東京都,板橋区,仲宿６０番１６号,,13,119,1730005,,,2024-04-01,合併による解散等,6011401015786,令和６年４月１日東京都板橋区仲宿６０番１６号株式会社セントラル管財（6011401015786）に合併し解散,2022-10-06,1,,,,,マルジューホールディングス,0
1142,5010801011314,登記記録の閉鎖等,0,2024-04-10,2024-04-01,丸正樹脂工業株式会社,,株式会社,東京都,大田区,久が原１丁目７番２０号,,13,111,1460085,,,2024-04-01,合併による解散等,7010801011312,令和６年４月１日東京都大田区久が原一丁目７番２０号株式会社丸正工機（7010801011312）に合併し解散,2015-10-05,1,,,,,マルショウジュシコウギョウ,0
1149,5011001060878,登記記録の閉鎖等,0,2024-04-10,2024-04-03,株式会社ナチュリオ,,株式会社,神奈川県,横浜市鶴見区,平安町１丁目４８番地１０,,14,101,2300031,,,2024-04-03,清算の結了等,,,2015-10-05,1,,,,,ナチュリオ,0
1160,5011101010691,登記記録の閉鎖等,0,2024-04-10,2024-04-04,株式会社スバルＩＴクリエーションズ,,株式会社,埼玉県,さいたま市北区,宮原町１丁目８５４番地１,,11,102,3310812,,,2024-04-04,合併による解散等,5011101019196,令和６年４月１日東京都渋谷区恵比寿一丁目２０番８号株式会社ＳＵＢＡＲＵ（5011101019196）に合併し解散,2015-10-05,1,,,,,スバルアイティークリエーションズ,0
1171,5011801001882,登記記録の閉鎖等,0,2024-04-10,2024-04-03,株式会社サン、フエニックス,,株式会社,神奈川県,横浜市青葉区,美しが丘２丁目１番１号,,14,117,2250002,,,2024-04-03,清算の結了等,,,2015-10-05,1,,,,,サンフエニックス,0
1188,5021002058490,登記記録の閉鎖等,0,2024-04-10,2024-04-08,有限会社セイケン,,有限会社,神奈川県,平塚市,御殿４丁目６番４号,,14,203,2540061,,,2024-04-08,清算の結了等,,,2015-10-05,1,,,,,セイケン,0
1202,5040001057155,登記記録の閉鎖等,0,2024-04-10,2024-04-01,株式会社カネハン商店,,株式会社,千葉県,東金市,田間２２２７番地,,12,213,2830005,,,2024-04-01,清算の結了等,,,2015-10-05,1,,,,,カネハンショウテン,0
1209,5040002048995,登記記録の閉鎖等,0,2024-04-10,2024-04-01,有限会社美の屋商事,,有限会社,千葉県,松戸市,松飛台５９６番地７,,12,207,2702214,,,2024-04-01,清算の結了等,,,2015-10-05,1,,,,,ミノヤショウジ,0
1217,5050002030779,登記記録の閉鎖等,0,2024-04-10,2024-04-05,有限会社菅原工務店,,有限会社,茨城県,日立市,水木町２丁目４２番７号,,08,202,3160024,,,2024-04-05,清算の結了等,,,2015-10-05,1,,,,,スガワラコウムテン,0
1231,5080402018693,登記記録の閉鎖等,0,2024-04-10,2024-04-04,有限会社トウカネ化粧品店,,有限会社,静岡県,菊川市,本所１４１３番地の３,,22,224,4390018,,,2024-04-04,清算の結了等,,,2015-10-05,1,,,,,トウカネケショウヒンテン,0
1249,5120001228367,登記記録の閉鎖等,0,2024-04-10,2024-04-05,株式会社ｆｒａｉｇｅ,,株式会社,東京都,港区,新橋２丁目２０番１５号新橋駅前ビル１号館６０１号室,,13,103,1050004,,,2024-04-05,合併による解散等,7120001240782,令和６年３月２９日大阪市中央区上汐二丁目３番５号株式会社フレスカ（7120001240782）に合併し解散,2020-04-06,1,,,,,フレージュ,0
1263,5120102023691,登記記録の閉鎖等,0,2024-04-10,2024-04-08,有限会社スズキ泉州販売,,有限会社,大阪府,泉佐野市,南中安松１４７１番地の１,,27,213,5980033,,,2024-04-08,清算の結了等,,,2015-10-05,1,,,,,スズキセンシュウハンバイ,0
1285,5170002001660,登記記録の閉鎖等,0,2024-04-10,2024-04-05,有限会社三栄,,有限会社,奈良県,五條市,釜窪町１０２７番地,,29,207,6370084,,,2024-04-05,清算の結了等,,,2015-10-05,1,,,,,サンエイ,0
1286,5180001045030,登記記録の閉鎖等,0,2024-04-10,2024-04-01,株式会社メイリュウ,,株式会社,愛知県,名古屋市昭和区,鶴舞２丁目１８番１号,,23,107,4660064,,,2024-04-01,合併による解散等,8180001031878,令和６年４月１日名古屋市昭和区鶴舞二丁目１８番１号中部三菱電機機器販売株式会社（8180001031878）に合併し解散,2015-10-05,1,,,,,メイリュウ,0
1290,5180001094028,登記記録の閉鎖等,0,2024-04-10,2024-04-01,株式会社玄創工務店,,株式会社,愛知県,知多郡武豊町,字多賀１丁目２７番地３,,23,447,4702361,,,2024-04-01,清算の結了等,,,2015-10-05,1,,,,,,0
1292,5180001118389,登記記録の閉鎖等,0,2024-04-10,2024-04-01,メニック鈑金株式会社,,株式会社,愛知県,名古屋市名東区,上社１丁目２０６番地の１,,23,115,4650025,,,2024-04-01,合併による解散等,8180001090940,令和６年４月１日名古屋市名東区上社一丁目２０６番地の１株式会社メニックス（8180001090940）に合併し解散,2015-10-05,1,,,,,メニックバンキン,0
1305,5230002010614,登記記録の閉鎖等,0,2024-04-10,2024-04-03,有限会社アルプス金属,,有限会社,富山県,高岡市,三女子４３番地の３,,16,202,9330013,,,2024-04-03,清算の結了等,,,2015-10-05,1,,,,,アルプスキンゾク,0
1332,5310002008947,登記記録の閉鎖等,0,2024-04-10,2024-04-02,有限会社杉本住建,,有限会社,長崎県,東彼杵郡波佐見町,鬼木郷１４３５番地,,42,323,8593713,,,2024-04-02,清算の結了等,,,2015-10-05,1,,,,,スギモトジュウケン,0
1359,5450001003539,登記記録の閉鎖等,0,2024-04-10,2024-04-03,株式会社旭川ビルブレイン,,株式会社,北海道,旭川市,一条通７丁目４８番地２,,01,204,0700031,,,2024-04-03,清算の結了等,,,2015-10-05,1,,,,,アサヒカワビルブレイン,0
1375,6010001134154,登記記録の閉鎖等,0,2024-04-10,2024-04-05,株式会社こころケアプラン,,株式会社,東京都,港区,港南２丁目１５番３号,,13,103,1080075,,,2024-04-05,合併による解散等,3010001032864,令和６年４月１日東京都港区港南二丁目１５番３号株式会社ソラスト（3010001032864）に合併し解散,2015-10-05,1,,,,,ココロケアプラン,0
1403,6010601033103,登記記録の閉鎖等,0,2024-04-10,2024-04-04,エスケイ工事株式会社,,株式会社,東京都,千代田区,外神田４丁目１４番１号,,13,101,1010021,,,2024-04-04,合併による解散等,4010001030603,令和６年４月１日東京都江東区木場二丁目１７番１２号ＮＳ建材販売株式会社（4010001030603）に合併し解散,2015-10-05,1,,,,,エスケイコウジ,0
1438,6011802028313,登記記録の閉鎖等,0,2024-04-10,2024-04-05,母の手介護有限会社,,有限会社,東京都,足立区,伊興２丁目１５番１８号,,13,121,1210823,,,2024-04-05,清算の結了等,,,2015-10-05,1,,,,,ハハノテカイゴ,0
1443,6012401034058,登記記録の閉鎖等,0,2024-04-10,2024-04-02,株式会社モバイルドリーム,,株式会社,東京都,府中市,宮町２丁目１５番１３号,,13,206,1830023,,,2024-04-02,清算の結了等,,,2018-06-15,1,,,,,モバイルドリーム,0
1464,6020002103652,登記記録の閉鎖等,0,2024-04-10,2024-04-01,有限会社ノーブルホーム,,有限会社,神奈川県,川崎市中原区,上丸子山王町１丁目１４３１番地,,14,133,2110002,,,2024-04-01,清算の結了等,,,2015-10-05,1,,,,,ノーブルホーム,0
1472,6030001040301,登記記録の閉鎖等,0,2024-04-10,2024-04-02,株式会社ＵＤスペース,,株式会社,埼玉県,三郷市,さつき平２丁目２番２－９０５号,,11,237,3410021,,,2024-04-02,清算の結了等,,,2015-10-05,1,,,,,ユーディースペース,0
1473,6030001110715,登記記録の閉鎖等,0,2024-04-10,2024-03-07,株式会社神谷ホールディングス,,株式会社,埼玉県,越谷市,蒲生１丁目５番１号,,11,222,3430838,,,2024-03-07,清算の結了等,,,2015-10-05,1,,,,,カミヤホールディングス,0
1479,6040001004610,登記記録の閉鎖等,0,2024-04-10,2024-04-02,ちばぎんジェーシービーカード株式会社,,株式会社,千葉県,千葉市美浜区,中瀬２丁目６番地１,,12,106,2610023,,,2024-04-02,合併による解散等,7040001004626,令和６年４月１日千葉市美浜区中瀬二丁目６番地１ちばぎんカード株式会社（7040001004626）に合併し解散,2015-10-05,1,,,,,チバギンジェーシービーカード,0
1487,6040002095558,登記記録の閉鎖等,0,2024-04-10,2024-04-01,有限会社ＴＢＭサービス,,有限会社,千葉県,柏市,北柏３丁目５番１号,,12,217,2770832,,,2024-04-01,清算の結了等,,,2015-10-05,1,,,,,ティービーエムサービス,0
1500,6060002024333,登記記録の閉鎖等,0,2024-04-10,2024-04-03,有限会社吉田テレビ,,有限会社,栃木県,那須塩原市,一区町２８１番地,,09,213,3292732,,,2024-04-03,清算の結了等,,,2015-10-05,1,,,,,ヨシダテレビ,0
1511,6090002014876,登記記録の閉鎖等,0,2024-04-10,2024-04-04,有限会社三栄電設,,有限会社,山梨県,南巨摩郡富士川町,鰍沢１２番地,,19,368,4000601,,,2024-04-04,清算の結了等,,,2015-10-05,1,,,,,サンエイデンセツ,0
1534,6120103004038,登記記録の閉鎖等,0,2024-04-10,2024-04-02,合同会社ＣＰ,,合同会社,大阪府,堺市西区,北条町１丁４１番４０－４号,,27,144,5938302,,,2024-04-02,清算の結了等,,,2021-02-15,1,,,,,シーピー,0
1538,6130001000385,登記記録の閉鎖等,0,2024-04-10,2024-04-05,株式会社大矢鉄工所,,株式会社,京都府,京都市右京区,西院東今田町１５番地の１,,26,108,6150002,,,2024-04-05,清算の結了等,,,2015-10-05,1,,,,,オオヤテッコウショ,0
1541,6130005007757,登記記録の閉鎖等,0,2024-04-10,2024-04-04,広瀬生産森林組合,,その他の設立登記法人,京都府,船井郡京丹波町,広瀬谷口２３番２４番合地,,26,407,6291134,,,2024-04-04,清算の結了等,,,2015-10-05,1,,,,,ヒロセ,0
1559,6180305006801,登記記録の閉鎖等,0,2024-04-10,2024-04-01,吉田漁業協同組合,,その他の設立登記法人,愛知県,西尾市,吉良町吉田須原１１２番地,,23,213,4440516,,,2024-04-01,合併による解散等,4180305007256,令和６年４月１日愛知県西尾市一色町松木島中切２１５番地衣崎漁業協同組合（4180305007256）に合併し解散,2015-10-05,1,,,,,ヨシダ,0
1618,6410002005974,登記記録の閉鎖等,0,2024-04-10,2024-04-01,有限会社フレンズ,,有限会社,宮城県,仙台市泉区,泉中央１丁目７番地の１,,04,105,9813133,,,2024-04-01,合併による解散等,4370001013217,令和６年４月１日仙台市泉区泉中央一丁目７番地の１シップヘルスケアファーマシー東日本株式会社（4370001013217）に合併し解散,2015-10-05,1,,,,,フレンズ,0
1622,6430001053171,登記記録の閉鎖等,0,2024-04-10,2024-04-02,株式会社装新,,株式会社,北海道,苫小牧市,明野新町６丁目３０番１７号,,01,213,0530054,,,2024-04-02,清算の結了等,,,2015-10-05,1,,,,,ソウシン,0
1626,6430002035904,登記記録の閉鎖等,0,2024-04-10,2024-04-03,イゼッチハウス北海道株式会社,,株式会社,北海道,札幌市東区,北四十三条東１９丁目２番２号,,01,103,0070843,,,2024-04-03,合併による解散等,2030001032649,令和６年４月１日東京都千代田区丸の内一丁目８番３号丸の内トラストタワー本館株式会社ヒノキヤグループ（2030001032649）に合併し解散,2015-10-05,1,,,,,イゼッチハウスホッカイドウ,0
1627,6430003004247,登記記録の閉鎖等,0,2024-04-10,2024-04-09,株式会社エムリンクヒューマンズ,,株式会社,北海道,札幌市豊平区,中の島一条２丁目２－２５－３０２,,01,105,0620921,,,2024-04-09,清算の結了等,,,2015-10-05,1,,,,,エムリンクヒューマンズ,0
1667,7010401106116,登記記録の閉鎖等,0,2024-04-10,2024-04-05,株式会社バリス,,株式会社,東京都,港区,高輪２丁目１６番２号高輪－Ｕ３０１号,,13,103,1080074,,,2024-04-05,合併による解散等,7120002037427,令和６年４月１日大阪市中央区備後町一丁目４番８号ＦＤ備後町ビル株式会社ＥＲＡＲＥ（7120002037427）に合併し解散,2015-10-05,1,,,,,,0
1674,7010403009184,登記記録の閉鎖等,0,2024-04-10,2024-04-01,合同会社愛と絆,,合同会社,東京都,港区,芝浦４丁目１３番３－１２０９号,,13,103,1080023,,,2024-04-01,清算の結了等,,,2015-10-05,1,,,,,アイトキズナ,0
1676,7010501012313,登記記録の閉鎖等,0,2024-04-10,2024-04-08,ＮＳＧインテリア株式会社,,株式会社,東京都,台東区,松が谷３丁目１３番５号,,13,106,1110036,,,2024-04-08,合併による解散等,3010501030079,令和６年４月１日東京都墨田区本所四丁目１９番３号本所吾妻橋ＤＪビル４階日本板硝子Ｓ＆Ｓ株式会社（3010501030079）に合併し解散,2015-10-05,1,,,,,エヌエスジーインテリア,0
1683,7010601016973,登記記録の閉鎖等,0,2024-04-10,2024-04-05,両国ホンダモーター販売株式会社,,株式会社,東京都,葛飾区,高砂１丁目２５番２３号青砥東パーク・ホームズ３０３,,13,122,1250054,,,2024-04-05,清算の結了等,,,2015-10-05,1,,,,,リョウゴクホンダモーター,0
1701,7011001152194,登記記録の閉鎖等,0,2024-04-10,2024-04-01,株式会社ＳｍａｒｔＡｐｐｒｏａｃｈ,,株式会社,東京都,渋谷区,円山町２８番１号渋谷道玄坂スカイビル１１Ｆ,,13,113,1500044,,,2024-04-01,清算の結了等,,,2023-01-26,1,,,,,スマートアプローチ,0
1709,7011401023508,登記記録の閉鎖等,0,2024-04-10,2024-04-02,株式会社ＲＩＧＨＴ,,株式会社,東京都,新宿区,北新宿１丁目８番２１号鴨石ビル４階,,13,104,1690074,,,2024-04-02,清算の結了等,,,2021-07-06,1,,,,,ライト,0
1714,7011402008615,登記記録の閉鎖等,0,2024-04-10,2024-04-01,有限会社みどり薬局,,有限会社,東京都,板橋区,板橋４丁目２５番１４号,,13,119,1730004,,,2024-04-01,清算の結了等,,,2015-10-05,1,,,,,ミドリヤッキョク,0
1728,7012701008223,登記記録の閉鎖等,0,2024-04-10,2024-04-01,東光電波株式会社,,株式会社,東京都,西東京市,田無町１丁目７番１６号,,13,229,1880011,,,2024-04-01,合併による解散等,2012701009754,令和６年４月１日東京都西東京市田無町一丁目７番１６号東光電子株式会社（2012701009754）に合併し解散,2015-10-05,1,,,,,トウコウデンパ,0
1730,7012701015236,登記記録の閉鎖等,0,2024-04-10,2024-04-02,株式会社ＳＵＮＲＩＳＥ　ＢＥＹＯＮＤ,,株式会社,東京都,杉並区,荻窪４丁目３０番１６号,,13,115,1670051,,,2024-04-02,合併による解散等,9011301002956,令和６年４月１日東京都杉並区荻窪四丁目３０番１６号株式会社バンダイナムコフィルムワークス（9011301002956）に合併し解散,2019-03-05,1,,,,,サンライズビヨンド,0
1744,7020001137964,登記記録の閉鎖等,0,2024-04-10,2024-04-05,ラピステクノロジー株式会社,,株式会社,神奈川県,横浜市港北区,新横浜２丁目４番地８,,14,109,2220033,,,2024-04-05,合併による解散等,9130001000052,令和６年４月１日京都市右京区西院溝崎町２１番地ローム株式会社（9130001000052）に合併し解散,2020-10-05,1,,,,,ラピステクノロジー,0
1759,7030001089172,登記記録の閉鎖等,0,2024-04-10,2024-04-05,株式会社エヌティ,,株式会社,埼玉県,鴻巣市,松原１丁目３番１８号,,11,217,3650042,,,2024-04-05,合併による解散等,8110001001714,令和６年４月１日新潟市中央区上大川前通六番町１２１４番地２株式会社キャリアステーション（8110001001714）に合併し解散,2015-10-05,1,,,,,エヌティ,0
1795,7050001007999,登記記録の閉鎖等,0,2024-04-10,2024-04-08,株式会社菅谷商店,,株式会社,茨城県,笠間市,東平４丁目７番３８号,,08,216,3091705,,,2024-04-08,清算の結了等,,,2015-10-05,1,,,,,スガヤショウテン,0
1799,7050001037765,登記記録の閉鎖等,0,2024-04-10,2024-03-21,株式会社ＡＳＭ,,株式会社,茨城県,古河市,尾崎６６９番地,,08,204,3060101,,,2024-03-21,清算の結了等,,,2015-10-05,1,,,,,,0
1813,7070001019968,登記記録の閉鎖等,0,2024-04-10,2024-04-03,株式会社ハートフル・サトウ,,株式会社,群馬県,太田市,藤阿久町９１４番地の２,,10,205,3730034,,,2024-04-03,清算の結了等,,,2015-10-05,1,,,,,ハートフルサトウ,0
1822,7080101002443,登記記録の閉鎖等,0,2024-04-10,2024-04-05,株式会社ＫＮＫホームサプライ,,株式会社,静岡県,沼津市,柳澤２０７番地の５,,22,203,4100000,,,2024-04-05,合併による解散等,8180301000285,令和６年４月１日愛知県岡崎市竜美台二丁目８番地８株式会社インテルグロー（8180301000285）に合併し解散,2015-10-05,1,,,,,ケーエヌケーホームサプライ,0
1826,7090001006015,登記記録の閉鎖等,0,2024-04-10,2024-04-01,株式会社三和工業,,株式会社,山梨県,笛吹市,御坂町成田２４３６番地,,19,211,4060801,,,2024-04-01,合併による解散等,8090001006014,令和６年４月１日山梨県笛吹市御坂町成田２４３６番地株式会社三和リース（8090001006014）に合併し解散,2015-10-05,1,,,,,サンワコウギョウ,0
1829,7090002010412,登記記録の閉鎖等,0,2024-04-10,2024-04-03,有限会社野澤書店,,有限会社,山梨県,都留市,上谷３丁目３番２９号,,19,204,4020053,,,2024-04-03,清算の結了等,,,2015-10-05,1,,,,,ノザワショテン,0
1833,7120001052939,登記記録の閉鎖等,0,2024-04-10,2024-04-01,株式会社松本ハイテック,,株式会社,大阪府,大阪市東淀川区,瑞光３丁目６番３０号,,27,114,5330005,,,2024-04-01,合併による解散等,9120001011736,令和６年４月１日大阪市東成区東今里三丁目９番２１号今永電機産業株式会社（9120001011736）に合併し解散,2015-10-05,1,,,,,マツモトハイテック,0
1835,7120001083785,登記記録の閉鎖等,0,2024-04-10,2024-04-04,ディー・エフ・エル・リース株式会社,,株式会社,大阪府,大阪市中央区,伏見町４丁目１番１号,,27,128,5410044,,,2024-04-04,合併による解散等,7010001036597,令和６年４月１日東京都千代田区神田美土代町９番地１りそなリース株式会社（7010001036597）に合併し解散,2015-10-05,1,,,,,ディーエフエルリース,0
1850,7120005008004,登記記録の閉鎖等,0,2024-04-10,2024-04-01,特定非営利活動法人ガーデニングヘルパーズ倶楽部花と緑の救援隊,,その他の設立登記法人,大阪府,高槻市,神内２丁目３番５号,,27,207,5690007,,,2024-04-01,清算の結了等,,,2015-10-05,1,,,,,ガーデニングヘルパーズクラブハナトミドリノキュウエンタイ,0
1877,7140005023397,登記記録の閉鎖等,0,2024-04-10,2024-04-08,一般社団法人ウルノス,,その他の設立登記法人,兵庫県,西宮市,甲陽園本庄町６－５０－１０５５,,28,204,6620015,,,2024-04-08,清算の結了等,,,2017-02-22,1,,,,,ウルノス,0
1886,7180001089199,登記記録の閉鎖等,0,2024-04-10,2024-04-01,株式会社セントラルステイツ,,株式会社,愛知県,名古屋市中区,丸の内３丁目１０番１２号,,23,106,4600002,,,2024-04-01,合併による解散等,4180002043505,令和６年４月１日名古屋市中区丸の内三丁目１０番１２号株式会社サントピア（4180002043505）に合併し解散,2015-10-05,1,,,,,セントラルステイツ,0
1905,7240001001958,登記記録の閉鎖等,0,2024-04-10,2024-04-04,株式会社小川博美堂,,株式会社,広島県,広島市中区,舟入本町５番１０号,,34,101,7300843,,,2024-04-04,清算の結了等,,,2015-10-05,1,,,,,オガワハクビドウ,0
1910,7240002010801,登記記録の閉鎖等,0,2024-04-10,2024-04-04,有限会社デンコウ,,有限会社,広島県,広島市安佐北区,あさひが丘１丁目８番４号,,34,106,7313361,,,2024-04-04,清算の結了等,,,2015-10-05,1,,,,,デンコウ,0
1929,7290801022513,登記記録の閉鎖等,0,2024-04-10,2024-04-01,株式会社ベストクオリティー,,株式会社,福岡県,北九州市門司区,西新町２丁目４番２１号,,40,101,8000056,,,2024-04-01,清算の結了等,,,2016-05-12,1,,,,,,0
1982,8010001025665,登記記録の閉鎖等,0,2024-04-10,2024-04-08,日新エアカーゴ株式会社,,株式会社,東京都,千代田区,麹町１丁目６番４号,,13,101,1020083,,,2024-04-08,合併による解散等,2020001028235,令和６年４月１日横浜市中区尾上町六丁目８１番地株式会社日新（2020001028235）に合併し解散,2015-10-05,1,,,,,ニッシンエアカーゴ,0
1992,8010001197414,登記記録の閉鎖等,0,2024-04-10,2024-04-01,株式会社Ｏｒｃｈｉｄ,,株式会社,東京都,渋谷区,上原２丁目１９番１９号,,13,113,1510064,,,2024-04-01,合併による解散等,4011101071792,令和６年３月３１日東京都渋谷区上原二丁目１９番１９号株式会社ｉＢｅ　Ｍｅｄｉａ（4011101071792）に合併し解散,2018-12-28,1,,,,,オーキッド,0
1993,8010001207313,登記記録の閉鎖等,0,2024-04-10,2024-04-01,株式会社洋菓子連合準備会社,,株式会社,東京都,中央区,銀座１丁目２２番１１号銀座大竹ビジデンス２Ｆ,,13,102,1040061,,,2024-04-01,清算の結了等,,,2020-02-06,1,,,,,ヨウガシレンゴウジュンビカイシャ,0
1994,8010001209375,登記記録の閉鎖等,0,2024-04-10,2024-04-01,株式会社どうぶつでんき,,株式会社,東京都,豊島区,東池袋１丁目２５番８号,,13,116,1700013,,,2024-04-01,合併による解散等,6013301050120,令和６年４月１日東京都豊島区東池袋一丁目２５番９号株式会社アイ・ステーション（6013301050120）に合併し解散,2020-05-07,1,,,,,ドウブツデンキ,0
1999,8010003023741,登記記録の閉鎖等,0,2024-04-10,2024-04-01,合同会社ハナミズキ・キャピタル,,合同会社,東京都,千代田区,二番町５番地２麹町駅プラザ９０１,,13,101,1020084,,,2024-04-01,清算の結了等,,,2016-06-24,1,,,,,ハナミズキキャピタル,0
2003,8010005029563,登記記録の閉鎖等,0,2024-04-10,2024-04-02,一般社団法人トランクハウス２４,,その他の設立登記法人,東京都,千代田区,平河町１丁目６番１５号シルスフィア会計事務所内,,13,101,1020093,,,2024-04-02,清算の結了等,,,2019-01-04,1,,,,,トランクハウスニジュウヨン,0
2014,8010501008475,登記記録の閉鎖等,0,2024-04-10,2024-04-01,株式会社デザインメイト,,株式会社,東京都,台東区,東上野３丁目１８番７号,,13,106,1100015,,,2024-04-01,合併による解散等,9010501005273,令和６年４月１日東京都台東区東上野三丁目１８番７号株式会社サブマリン（9010501005273）に合併し解散,2015-10-05,1,,,,,デザインメイト,0
2028,8010801009223,登記記録の閉鎖等,0,2024-04-10,2024-04-01,西野工業株式会社,,株式会社,東京都,大田区,下丸子１丁目１１番１２号,,13,111,1460092,,,2024-04-01,合併による解散等,1010801001673,令和６年４月１日東京都大田区下丸子一丁目１１番１２号エヌ・ピー産業株式会社（1010801001673）に合併し解散,2015-10-05,1,,,,,ニシノコウギョウ,0
2029,8010801016467,登記記録の閉鎖等,0,2024-04-10,2024-04-01,株式会社プログリーン東京,,株式会社,東京都,大田区,中馬込１丁目１４番２６号,,13,111,1430027,,,2024-04-01,清算の結了等,,,2015-10-05,1,,,,,,0
2034,8011001052162,登記記録の閉鎖等,0,2024-04-10,2024-04-01,株式会社Ｓ,,株式会社,東京都,新宿区,西新宿６丁目１５番１号,,13,104,1600023,,,2024-04-01,合併による解散等,7011001065636,令和６年４月１日東京都新宿区西新宿六丁目１５番１号株式会社アリア・エンターテインメント（7011001065636）に合併し解散,2015-10-05,1,,,,,エス,0
2060,8012402018685,登記記録の閉鎖等,0,2024-04-10,2024-04-02,有限会社黒澤コーポレーション,,有限会社,東京都,三鷹市,深大寺２丁目４０番１７号,,13,204,1810016,,,2024-04-02,清算の結了等,,,2015-10-05,1,,,,,クロサワコーポレーション,0
2061,8013101000777,登記記録の閉鎖等,0,2024-04-10,2024-04-05,松菱エンジニアリング株式会社,,株式会社,埼玉県,飯能市,茜台２丁目６番,,11,209,3570069,,,2024-04-05,合併による解散等,4013101000780,令和６年４月１日大阪府堺市堺区熊野町西三丁２番７号日鉄プロセッシング株式会社（4013101000780）に合併し解散,2015-10-05,1,,,,,マツビシエンジニアリング,0
2063,8013302004619,登記記録の閉鎖等,0,2024-04-10,2024-03-28,有限会社新川屋塚本長藏商店,00060014,有限会社,東京都,豊島区,巣鴨３丁目３８番１号,,13,116,1700002,,,2024-03-28,清算の結了等,,,2015-10-05,1,,,,,シンカワヤツカモトチョウゾウショウテン,0
2078,8030001092142,登記記録の閉鎖等,0,2024-04-10,2024-04-04,島田資材工業株式会社,,株式会社,埼玉県,入間郡毛呂山町,大字毛呂本郷１４２０番地３,,11,326,3500451,,,2024-04-04,清算の結了等,,,2015-10-05,1,,,,,シマダシザイコウギョウ,0
2079,8030001126148,登記記録の閉鎖等,0,2024-04-10,2024-04-02,株式会社Ｍ,,株式会社,埼玉県,さいたま市西区,大字島根６７１番地２,,11,101,3310054,,,2024-04-02,清算の結了等,,,2018-06-14,1,,,,,エム,0
2081,8030001150973,登記記録の閉鎖等,0,2024-04-10,2024-04-03,株式会社陽翔,,株式会社,埼玉県,戸田市,中町２丁目１７番２５,,11,224,3350012,,,2024-04-03,清算の結了等,,,2022-11-08,1,,,,,ヨウショウ,0
2083,8030002022858,登記記録の閉鎖等,0,2024-04-10,2024-03-29,有限会社サングリーングループ,,有限会社,埼玉県,さいたま市岩槻区,大字小溝１１４７番地,,11,110,3390003,,,2024-03-29,合併による解散等,4030001154037,令和６年３月２９日埼玉県さいたま市岩槻区小溝８０７番地株式会社サングリーングループ（4030001154037）に合併し解散,2015-10-05,1,,,,,サングリーングループ,0
2086,8030005016056,登記記録の閉鎖等,0,2024-04-10,2024-04-02,特定非営利活動法人アジア・アフリカと共に歩む会,,その他の設立登記法人,埼玉県,さいたま市大宮区,上小町１３２７－２０８,,11,103,3300855,,,2024-04-02,清算の結了等,,,2015-10-05,1,,,,,アジアアフリカトトモニアユムカイ,0
2109,8080101007838,登記記録の閉鎖等,0,2024-04-10,2024-04-04,株式会社現代環境設計,,株式会社,静岡県,伊豆市,柳瀬５８１番地５,,22,222,4102508,,,2024-04-04,清算の結了等,,,2015-10-05,1,,,,,ゲンダイカンキョウセッケイ,0
2113,8080105003040,登記記録の閉鎖等,0,2024-04-10,2024-04-03,白葉会,,その他の設立登記法人,静岡県,富士市,原田１４８５番地,,22,210,4170852,,,2024-04-03,清算の結了等,,,2015-10-05,1,,,,,ハクバカイ,0
2119,8110002034671,登記記録の閉鎖等,0,2024-04-10,2024-04-03,有限会社茅原工務店,,有限会社,新潟県,佐渡市,栗野江１５０９番地１,,15,224,9520202,,,2024-04-03,清算の結了等,,,2015-10-05,1,,,,,チハラコウムテン,0
2157,8140001085085,登記記録の閉鎖等,0,2024-04-10,2024-04-03,株式会社太耀電化商會,,株式会社,兵庫県,淡路市,志筑３２９３番地,,28,226,6562131,,,2024-04-03,清算の結了等,,,2015-10-05,1,,,,,タイヨウデンカショウカイ,0
2160,8150002001973,登記記録の閉鎖等,0,2024-04-10,2024-04-09,有限会社ワイヱス商会,,有限会社,奈良県,奈良市,菩提山町１３９番地,,29,201,6308413,,,2024-04-09,清算の結了等,,,2015-10-05,1,,,,,ワイエスショウカイ,0
2166,8180001095857,登記記録の閉鎖等,0,2024-04-10,2024-04-01,株式会社富田薬局,,株式会社,愛知県,知多市,南粕谷東坂１丁目２４２番地,,23,224,4780023,,,2024-04-01,清算の結了等,,,2015-10-05,1,,,,,トミタヤッキョク,0
2208,8280001000773,登記記録の閉鎖等,0,2024-04-10,2024-04-09,株式会社ミュージア,,株式会社,島根県,松江市,矢田町１３６番地７,,32,201,6900021,,,2024-04-09,清算の結了等,,,2015-10-05,1,,,,,ミュージア,0
2220,8290801020747,登記記録の閉鎖等,0,2024-04-10,2024-04-01,株式会社ブルーリング,,株式会社,福岡県,北九州市戸畑区,中原新町２番１－５０１号,,40,105,8040003,,,2024-04-01,清算の結了等,,,2015-10-05,1,,,,,ブルーリング,0
2232,8370001017585,登記記録の閉鎖等,0,2024-04-10,2024-04-08,日本板硝子東北株式会社,,株式会社,宮城県,黒川郡大郷町,中村字西浦３番１号,,04,422,9813521,,,2024-04-08,合併による解散等,3010501030079,令和６年４月１日東京都墨田区本所四丁目１９番３号本所吾妻橋ＤＪビル４階日本板硝子Ｓ＆Ｓ株式会社（3010501030079）に合併し解散,2015-10-05,1,,,,,ニホンイタガラストウホク,0
2235,8380001019597,登記記録の閉鎖等,0,2024-04-10,2024-04-01,株式会社常交タクシー,,株式会社,福島県,いわき市,平上荒川字長尾７４番地の８,,07,204,9708034,,,2024-04-01,合併による解散等,7380001019598,令和６年４月１日福島県いわき市平上荒川字長尾７４番地の８株式会社常交タクシー（7380001019598）に合併し解散,2015-10-05,1,,,,,ジョウコウタクシー,0
2243,8420001005023,登記記録の閉鎖等,0,2024-04-10,2024-04-01,株式会社冨士谷,,株式会社,青森県,青森市,栄町１丁目１２番７号,,02,201,0300903,,,2024-04-01,清算の結了等,,,2015-10-05,1,,,,,フジヤ,0
2293,9010401048190,登記記録の閉鎖等,0,2024-04-10,2024-04-02,株式会社オムニベント,,株式会社,東京都,世田谷区,用賀３丁目２５番１８－７０３号,,13,112,1580097,,,2024-04-02,合併による解散等,4010401151346,令和６年４月１日東京都世田谷区用賀三丁目２５番１８－７０３号株式会社デュオプロジェクト（4010401151346）に合併し解散,2015-10-05,1,,,,,オムニベント,0
2300,9010601028950,登記記録の閉鎖等,0,2024-04-10,2024-04-01,エクセディア・コンサルティング株式会社,,株式会社,東京都,江東区,深川１丁目１番２号協和ビル３０２号,,13,108,1350033,,,2024-04-01,合併による解散等,1010602007110,令和６年３月３１日東京都江東区深川一丁目１番２号エクセディア・コンサルティング株式会社（1010602007110）に合併し解散,2015-10-05,1,,,,,エクセディアコンサルティング,0
2351,9011802004063,登記記録の閉鎖等,0,2024-04-10,2024-04-03,有限会社スギン,,有限会社,東京都,葛飾区,金町３丁目３９番２号,,13,122,1250042,,,2024-04-03,清算の結了等,,,2015-10-05,1,,,,,,0
2365,9020005007039,登記記録の閉鎖等,0,2024-04-10,2024-03-27,特定非営利活動法人未来に残そう青い海,,その他の設立登記法人,神奈川県,横浜市港北区,岸根町５４４－１,,14,109,2220034,,,2024-03-27,清算の結了等,,,2015-10-05,1,,,,,ミライニノコソウアオイウミ,0
2386,9040002069410,登記記録の閉鎖等,0,2024-04-10,2024-04-01,株式会社スラタン,,株式会社,千葉県,君津市,泉２７８番地１,,12,225,2991112,,,2024-04-01,合併による解散等,8040001112691,令和６年４月１日千葉県木更津市潮浜二丁目１番地５１株式会社穴太ホールディングス（8040001112691）に合併し解散,2015-10-05,1,,,,,スラタン,0
2398,9050002012170,登記記録の閉鎖等,0,2024-04-10,2024-04-05,藤森商店有限会社,,有限会社,茨城県,土浦市,並木２丁目１８番１３号,,08,203,3000061,,,2024-04-05,清算の結了等,,,2015-10-05,1,,,,,フジモリショウテン,0
2410,9060002032052,登記記録の閉鎖等,0,2024-04-10,2024-04-03,有限会社秀瑛工業,,有限会社,栃木県,栃木市,今泉町１丁目１４番６号,,09,203,3280027,,,2024-04-03,清算の結了等,,,2015-10-05,1,,,,,シュウエイコウギョウ,0
2432,9120001164187,登記記録の閉鎖等,0,2024-04-10,2024-04-01,株式会社Ｂ・Ｆミート,,株式会社,大阪府,大阪市中央区,道修町２丁目５番９号,,27,128,5410045,,,2024-04-01,合併による解散等,3122001012199,令和６年４月１日大阪市中央区道修町二丁目５番９号株式会社ブリッジフォー（3122001012199）に合併し解散,2015-10-05,1,,,,,ビーエフミート,0
2443,9120002043142,登記記録の閉鎖等,0,2024-04-10,2024-04-03,有限会社トータル関西,,有限会社,大阪府,大阪市東住吉区,中野３丁目９番２５号,,27,121,5460012,,,2024-04-03,清算の結了等,,,2015-10-05,1,,,,,トータルカンサイ,0
2449,9120102003789,登記記録の閉鎖等,0,2024-04-10,2024-04-02,有限会社阪和エレベーター,,有限会社,大阪府,泉南郡熊取町,南山の手台８番３号,,27,361,5900453,,,2024-04-02,清算の結了等,,,2015-10-05,1,,,,,ハンワエレベーター,0
2473,9180001086392,登記記録の閉鎖等,0,2024-04-10,2024-04-05,株式会社新生都市開発,,株式会社,岐阜県,岐阜市,芥見１丁目１６０番地,,21,201,5013134,,,2024-04-05,清算の結了等,,,2015-10-05,1,,,,,シンセイトシカイハツ,0
2485,9190001020722,登記記録の閉鎖等,0,2024-04-10,2024-04-01,株式会社いしばし,,株式会社,愛知県,名古屋市天白区,原２丁目２７０２番地,,23,116,4680015,,,2024-04-01,清算の結了等,,,2015-10-05,1,,,,,イシバシ,0
2488,9210001016726,登記記録の閉鎖等,0,2024-04-10,2024-04-04,株式会社オーイズミフーズ北陸,,株式会社,福井県,越前市,横市町第３９号８番地３,,18,209,9150094,,,2024-04-04,合併による解散等,9021001020992,令和６年４月１日神奈川県伊勢原市伊勢原二丁目５番４３号株式会社オーイズミフーズ（9021001020992）に合併し解散,2017-04-21,1,,,,,オーイズミフーズホクリク,0
2501,9290801009203,登記記録の閉鎖等,0,2024-04-10,2024-04-01,株式会社新和建設,,株式会社,福岡県,北九州市八幡東区,中央３丁目７番１５号,,40,108,8050019,,,2024-04-01,清算の結了等,,,2015-10-05,1,,,,,シンワケンセツ,0
2509,9310002012755,登記記録の閉鎖等,0,2024-04-10,2024-03-25,有限会社ハート保険,,有限会社,長崎県,佐世保市,有福町５７９番地１０,,42,202,8593241,,,2024-03-25,清算の結了等,,,2015-10-05,1,,,,,ハートホケン,0
2519,9360001006349,登記記録の閉鎖等,0,2024-04-10,2024-04-05,株式会社レキオスインターナショナル,,株式会社,沖縄県,那覇市,久茂地３丁目３番２０号,,47,201,9000015,,,2024-04-05,清算の結了等,,,2015-10-05,1,,,,,レキオスインターナショナル,0
2535,9400001001056,登記記録の閉鎖等,0,2024-04-10,2024-04-01,東北銀ソフトウエアサービス株式会社,,株式会社,岩手県,盛岡市,茶畑２丁目２５番４６号,,03,201,0200822,,,2024-04-01,合併による解散等,7400001001891,令和６年４月１日岩手県盛岡市内丸３番１号株式会社東北銀行（7400001001891）に合併し解散,2015-10-05,1,,,,,トウホクギンソフトウエアサービス,0
2538,9420002002555,登記記録の閉鎖等,0,2024-04-10,2024-04-01,有限会社平成建設,,有限会社,青森県,青森市,蛍沢１丁目１８番８号,,02,201,0300957,,,2024-04-01,清算の結了等,,,2015-10-05,1,,,,,ヘイセイケンセツ,0
2548,9440001009104,登記記録の閉鎖等,0,2024-04-10,2024-04-01,七飯木材株式会社,,株式会社,北海道,亀田郡七飯町,本町７丁目６５７番地,,01,337,0411111,,,2024-04-01,合併による解散等,9440001008989,令和６年４月１日北海道亀田郡七飯町本町七丁目６５７番地北海道相馬山林株式会社（9440001008989）に合併し解散,2022-06-20,1,,,,,,0
