sequenceNumber,corporateNumber,process,correct,updateDate,changeDate,name,nameImageId,kind,prefectureName,cityName,streetNumber,addressImageId,prefectureCode,cityCode,postCode,addressOutside,addressOutsideImageId,closeDate,closeCause,successorCorporateNumber,changeCause,assignmentDate,latest,enName,enPrefectureName,enCityName,enAddressOutside,furigana,hihyoji
3,1010001261143,新規,0,2025-12-24,2025-12-24,株式会社Ａｄｎｏｗａ,,株式会社,東京都,千代田区,神田須田町１丁目７番地８ＶＯＲＴ秋葉原ＩＶ２Ｆ,00141988,13,101,1010041,,,,,,,2025-12-24,1,,,,,アドノワ,0
11,1010003049826,新規,0,2025-12-24,2025-12-24,合同会社上福岡駅前ファンド,,合同会社,東京都,中央区,日本橋１丁目４番１号日本橋一丁目ビルディング,,13,102,1030027,,,,,,,2025-12-24,1,,,,,カミフクオカエキマエファンド,0
18,1010401195354,新規,0,2025-12-24,2025-12-24,ＮＭＢオーキッド株式会社,,株式会社,東京都,港区,新橋４丁目３０番６号京急中はらビル５Ｆ,,13,103,1050004,,,,,,,2025-12-24,1,,,,,エヌエムビーオーキッド,0
22,1010501055219,新規,0,2025-12-24,2025-12-24,ＮｅｘｕｓＰｏｗｅｒ株式会社,,株式会社,東京都,台東区,台東４丁目２番９号掛川ビル１０１室,,13,106,1100016,,,,,,,2025-12-24,1,,,,,ネクサスパワー,0
28,1010603011978,新規,0,2025-12-24,2025-12-24,合同会社Ｉｍｐｒｏｖｅ,,合同会社,東京都,江東区,三好２丁目８－１３村田ビル１０１,,13,108,1350022,,,,,,,2025-12-24,1,,,,,インプルーブ,0
29,1010603011986,新規,0,2025-12-24,2025-12-24,合同会社善永,,合同会社,東京都,江東区,亀戸５丁目６番２１号ＵＩＷ９ＢＬＤＧ４Ｆ２０号,,13,108,1360071,,,,,,,2025-12-24,1,,,,,ゼンエイ,0
41,1011001174260,新規,0,2025-12-24,2025-12-24,株式会社ＡＭＵ,,株式会社,東京都,渋谷区,神山町６番１１号パークフラッツ７０１,,13,113,1500047,,,,,,,2025-12-24,1,,,,,アム,0
42,1011001174558,新規,0,2025-12-24,2025-12-24,株式会社Ｃａｌ,,株式会社,東京都,渋谷区,猿楽町２番３号５０１,,13,113,1500033,,,,,,,2025-12-24,1,,,,,カル,0
43,1011001174566,新規,0,2025-12-24,2025-12-24,株式会社ＮＥＸＵＳ　ＬＡＮＤ,,株式会社,東京都,渋谷区,代々木５丁目２７番１０号レーヴレジデンス代々木４０３,,13,113,1510053,,,,,,,2025-12-24,1,,,,,ネクサスランド,0
44,1011001174608,新規,0,2025-12-24,2025-12-24,ＥｎｓｏＭ株式会社,,株式会社,東京都,目黒区,中央町２丁目３９番１号,,13,110,1520001,,,,,,,2025-12-24,1,,,,,エンソム,0
45,1011001174657,新規,0,2025-12-24,2025-12-24,ＬｕｘＲｙｕ株式会社,,株式会社,東京都,渋谷区,富ヶ谷１丁目９―１８―５０２,,13,113,1510063,,,,,,,2025-12-24,1,,,,,ルクスリュウ,0
52,1011205002721,新規,0,2025-12-24,2025-12-24,一般社団法人ＬＰＰＯＭ‐ＹＡＮＯハラール協会,,その他の設立登記法人,東京都,中野区,本町２丁目４６番２号中野坂上セントラルビル,,13,114,1640012,,,,,,,2025-12-24,1,,,,,エルピーポムヤノハラールキョウカイ,0
55,1011301031145,新規,0,2025-12-24,2025-12-24,株式会社ＴＮ,,株式会社,東京都,杉並区,阿佐谷南１丁目６番２７号,,13,115,1660004,,,,,,,2025-12-24,1,,,,,ティーエヌ,0
60,1011601029252,新規,0,2025-12-24,2025-12-24,株式会社ＯＷＬホールディングス,,株式会社,東京都,練馬区,春日町６丁目７番３３号,,13,120,1790074,,,,,,,2025-12-24,1,,,,,オウルホールディングス,0
61,1011601029260,新規,0,2025-12-24,2025-12-24,株式会社クリームパイ,,株式会社,東京都,練馬区,大泉学園町７丁目１４番２９号スターフィールドシティー５０１,,13,120,1780061,,,,,,,2025-12-24,1,,,,,クリームパイ,0
65,1011803007238,新規,0,2025-12-24,2025-12-24,合同会社風彩堂,,合同会社,東京都,葛飾区,細田３丁目１４番１２号,,13,122,1240021,,,,,,,2025-12-24,1,,,,,フウサイドウ,0
67,1012801024431,新規,0,2025-12-24,2025-12-24,株式会社ＴｒｅｅＬｉｎｅ,,株式会社,東京都,国分寺市,東元町２丁目１８番１６号吉野ビル１０３,,13,214,1850022,,,,,,,2025-12-24,1,,,,,ツリーライン,0
76,1020001166424,新規,0,2025-12-24,2025-12-24,株式会社Ｂｒａｉｎ　Ｃｏｍｐａｎｙ,,株式会社,神奈川県,横浜市金沢区,寺前２丁目１７番２８－２０２号,,14,108,2360014,,,,,,,2025-12-24,1,,,,,ブレインカンパニー,0
77,1020001166449,新規,0,2025-12-24,2025-12-24,株式会社ＢＨ,,株式会社,神奈川県,横浜市鶴見区,東寺尾２丁目７－１０,,14,101,2300077,,,,,,,2025-12-24,1,,,,,ビーエイチ,0
79,1020003030041,新規,0,2025-12-24,2025-12-24,ハコスタンダード合同会社,,合同会社,神奈川県,横浜市中区,福富町東通３９番地１ＲＥＳＩＤＥＮＣＥ１８７０－２０２号,,14,104,2310044,,,,,,,2025-12-24,1,,,,,ハコスタンダード,0
91,1021003016963,新規,0,2025-12-24,2025-12-24,潤和国際合同会社,,合同会社,神奈川県,伊勢原市,高森２丁目４番１２号,,14,214,2591114,,,,,,,2025-12-24,1,,,,,ジュンワコクサイ,0
96,1030001170243,新規,0,2025-12-24,2025-12-24,小江戸電装設備株式会社,,株式会社,埼玉県,川越市,四都野台３３番地１４,,11,201,3501163,,,,,,,2025-12-24,1,,,,,コエドデンソウセツビ,0
97,1030001170292,新規,0,2025-12-24,2025-12-24,株式会社Ｐｈｏｔｅｌｉｅｒ,,株式会社,埼玉県,さいたま市浦和区,上木崎６丁目１１－３７,,11,107,3300071,,,,,,,2025-12-24,1,,,,,フォトリエ,0
103,1040001141813,新規,0,2025-12-24,2025-12-24,株式会社ＳＨＡＴＡ,,株式会社,千葉県,千葉市若葉区,西都賀３丁目８番７号センチュリーＫＩビルディング２階,,12,104,2640026,,,,,,,2025-12-24,1,,,,,シャタ,0
104,1040001141912,新規,0,2025-12-24,2025-12-24,オリエントシッピング株式会社,,株式会社,千葉県,印西市,原３丁目２番地１３０７号,,12,231,2701335,,,,,,,2025-12-24,1,,,,,オリエントシッピング,0
105,1040003029148,新規,0,2025-12-24,2025-12-24,合同会社ノーリミット,,合同会社,千葉県,船橋市,三山２丁目３３番１５号,,12,204,2740072,,,,,,,2025-12-24,1,,,,,ノーリミット,0
106,1040003029172,新規,0,2025-12-24,2025-12-24,合同会社プラントルーティング,,合同会社,千葉県,四街道市,栗山１０００番地５５,,12,228,2840027,,,,,,,2025-12-24,1,,,,,プラントルーティング,0
107,1040003029206,新規,0,2025-12-24,2025-12-24,合同会社Ｔａｋｅ　ＵＰ,,合同会社,千葉県,市川市,八幡２丁目６番地１８号,,12,203,2720021,,,,,,,2025-12-24,1,,,,,テイクアップ,0
111,1060001038875,新規,0,2025-12-24,2025-12-24,ユニレント株式会社,,株式会社,栃木県,さくら市,喜連川１１７５番地,,09,214,3291412,,,,,,,2025-12-24,1,,,,,ユニレント,0
112,1060001038883,新規,0,2025-12-24,2025-12-24,ラーメン小林株式会社,,株式会社,栃木県,下都賀郡壬生町,本丸１丁目１０番７１号,,09,361,3210225,,,,,,,2025-12-24,1,,,,,ラーメンコバヤシ,0
113,1060003005898,新規,0,2025-12-24,2025-12-24,ＴＡＲＩＱトレーディング合同会社,,合同会社,栃木県,小山市,駅南町４丁目８番８号ハジメハイツ２０１号室,,09,208,3230822,,,,,,,2025-12-24,1,,,,,タリクトレーディング,0
117,1080401028342,新規,0,2025-12-24,2025-12-24,あんこ株式会社,,株式会社,静岡県,浜松市中央区,田町３１５番地の３４,,22,138,4300944,,,,,,,2025-12-24,1,,,,,アンコ,0
118,1090003002950,新規,0,2025-12-24,2025-12-24,合同会社Ｌｕｃｉａ,,合同会社,山梨県,甲府市,中央１丁目６－４花月ビル１Ｆ,,19,201,4000032,,,,,,,2025-12-24,1,,,,,ルチア,0
130,1120001282392,新規,0,2025-12-24,2025-12-24,五光商事株式会社,,株式会社,大阪府,大阪市浪速区,大国１丁目３－１９－３０４,,27,111,5560014,,,,,,,2025-12-24,1,,,,,ゴコウショウジ,0
131,1120001282888,新規,0,2025-12-24,2025-12-24,株式会社日本標準育苗,,株式会社,大阪府,大阪市淀川区,塚本５丁目９番１８号３Ｆ,,27,123,5320026,,,,,,,2025-12-24,1,,,,,ニホンヒョウジュンイクビョウ,0
132,1120001282954,新規,0,2025-12-24,2025-12-24,日環ハイテク株式会社,,株式会社,大阪府,大阪市旭区,森小路１丁目１４番２１号１０１号,,27,117,5350013,,,,,,,2025-12-24,1,,,,,ニチカンハイテク,0
133,1120001282962,新規,0,2025-12-24,2025-12-24,株式会社ＢＡＫＯ,,株式会社,大阪府,大阪市東淀川区,瑞光１丁目２－１１ＲＥＺＯＮＥ上新庄０１－３１０号,,27,114,5330005,,,,,,,2025-12-24,1,,,,,ベコ,0
134,1120001283011,新規,0,2025-12-24,2025-12-24,株式会社大阪府建築設計協会ホールディングス,,株式会社,大阪府,大阪市北区,天神西町８番１４号,,27,127,5300045,,,,,,,2025-12-24,1,,,,,オオサカフケンチクセッケイキョウカイホールディングス,0
135,1120003031517,新規,0,2025-12-24,2025-12-24,合同会社Ｒｉｎｏｃａ,,合同会社,大阪府,大阪市淀川区,西中島４丁目２番２６号４０１Ｂ,,27,123,5320011,,,,,,,2025-12-24,1,,,,,リノカ,0
140,1120005025319,新規,0,2025-12-24,2025-12-24,一般社団法人ＡＰＣウエルビーイング協会,,その他の設立登記法人,大阪府,大阪市北区,梅田１丁目２番２号大阪駅前第二ビル１２－１２,,27,127,5300001,,,,,,,2025-12-24,1,,,,,エーピーシーウエルビーイングキョウカイ,0
146,1120101072966,新規,0,2025-12-24,2025-12-24,Ａｅｇｉｓ　Ｏｎｅ株式会社,,株式会社,大阪府,堺市北区,百舌鳥本町３丁２番地７,,27,146,5918036,,,,,,,2025-12-24,1,,,,,イージスワン,0
149,1120901052011,新規,0,2025-12-24,2025-12-24,株式会社リアクト,,株式会社,大阪府,豊中市,服部本町１丁目５番７の２号,,27,203,5610852,,,,,,,2025-12-24,1,,,,,リアクト,0
154,1130001081232,新規,0,2025-12-24,2025-12-24,株式会社ポラリス,,株式会社,京都府,城陽市,富野乾垣内８６番地の５,,26,207,6100111,,,,,,,2025-12-24,1,,,,,ポラリス,0
155,1130001081240,新規,0,2025-12-24,2025-12-24,株式会社ＡＲＣＳ,,株式会社,京都府,長岡京市,友岡４丁目１９番１２号１０１号室,,26,209,6170843,,,,,,,2025-12-24,1,,,,,アークス,0
156,1130001081281,新規,0,2025-12-24,2025-12-24,株式会社ＦＵＴＵＲＥ総合研究所,,株式会社,京都府,京都市伏見区,治部町１０５番地,,26,109,6128374,,,,,,,2025-12-24,1,,,,,フューチャーソウゴウケンキュウジョ,0
158,1130005017546,新規,0,2025-12-24,2025-12-24,一般社団法人瓜生山同窓会,,その他の設立登記法人,京都府,京都市左京区,北白川瓜生山２－１１６京都芸術大学内,,26,103,6060000,,,,,,,2025-12-24,1,,,,,ウリュウヤマドウソウカイ,0
187,1180001169980,新規,0,2025-12-24,2025-12-24,株式会社ＴＳＵＮＡＣＡＮ,,株式会社,愛知県,知多郡武豊町,字上山２丁目４３番地１１チッタ上山ＩＩ１０５号,00141991,23,447,4702387,,,,,,,2025-12-24,1,,,,,ツナカン,0
188,1180001170022,新規,0,2025-12-24,2025-12-24,株式会社りんどう,,株式会社,愛知県,名古屋市南区,赤坪町５番地,,23,112,4570024,,,,,,,2025-12-24,1,,,,,リンドウ,0
189,1180001170030,新規,0,2025-12-24,2025-12-24,株式会社Ａｉｖａｎｃｅ,,株式会社,愛知県,名古屋市中区,錦１丁目５番１１号名古屋伊藤忠ビル２階,,23,106,4600003,,,,,,,2025-12-24,1,,,,,アイバンス,0
190,1180001170047,新規,0,2025-12-24,2025-12-24,愛知多の大地株式会社,,株式会社,愛知県,名古屋市中村区,平池町４丁目６０番地９,,23,105,4530872,,,,,,,2025-12-24,1,,,,,アイチタノダイチ,0
191,1180003029530,新規,0,2025-12-24,2025-12-24,ベスト合同会社,,合同会社,愛知県,大府市,若草町２丁目１９０番地１,,23,223,4740022,,,,,,,2025-12-24,1,,,,,ベスト,0
194,1180301040544,新規,0,2025-12-24,2025-12-24,株式会社ＬＡＫＲＯＡ,,株式会社,愛知県,西尾市,吉良町小牧郷中５６番地２,,23,213,4440535,,,,,,,2025-12-24,1,,,,,,0
221,1290001112558,新規,0,2025-12-24,2025-12-24,株式会社ラムナーリンク,,株式会社,福岡県,福岡市中央区,天神４丁目４－２６吉柳ビル７Ｆ,,40,133,8100001,,,,,,,2025-12-24,1,,,,,ラムナーリンク,0
229,1310001019890,新規,0,2025-12-24,2025-12-24,Ａｌｉｎｅ　Ｍａｒｋｅｔ株式会社,,株式会社,長崎県,佐世保市,白岳町１４９９番地６－１,,42,202,8571164,,,,,,,2025-12-24,1,,,,,アラインマーケット,0
232,1320001021508,新規,0,2025-12-24,2025-12-24,はなちゃん株式会社,,株式会社,大分県,杵築市,大字杵築６６５番地６３ロフティ杵築シーサイド７０６号,,44,210,8730001,,,,,,,2025-12-24,1,,,,,ハナチャン,0
237,1380001035774,新規,0,2025-12-24,2025-12-24,Ｍドリームエッジ株式会社,,株式会社,福島県,いわき市,平沼ノ内字諏訪原一丁目２番３,,07,204,9700222,,,,,,,2025-12-24,1,,,,,エムドリームエッジ,0
242,1430001095912,新規,0,2025-12-24,2025-12-24,株式会社メクロニクス,,株式会社,北海道,札幌市豊平区,美園一条８丁目１番１号ＳＥＭＡＢｌｄｇ．２Ｆ２０５,,01,105,0620001,,,,,,,2025-12-24,1,,,,,メクロニクス,0
243,1430001095920,新規,0,2025-12-24,2025-12-24,株式会社ＭＩＰ,,株式会社,北海道,札幌市中央区,南十六条西１２丁目１番３号,,01,101,0640916,,,,,,,2025-12-24,1,,,,,エムアイピー,0
244,1430001095937,新規,0,2025-12-24,2025-12-24,ＫＡＷＡ‐ＰＲＯパートナーズ株式会社,,株式会社,北海道,札幌市手稲区,前田二条１１丁目５番１２号エミネント前田１０１号室,,01,109,0060812,,,,,,,2025-12-24,1,,,,,カワプロパートナーズ,0
248,1430005015379,新規,0,2025-12-24,2025-12-24,一般社団法人みんなの家,,その他の設立登記法人,北海道,室蘭市,水元町５３番１２号,,01,205,0500071,,,,,,,2025-12-24,1,,,,,ミンナノイエ,0
251,1470005006671,新規,0,2025-12-24,2025-12-24,一般社団法人マンション管理組合支援機構,,その他の設立登記法人,香川県,高松市,木太町３８６１番地４,,37,201,7600080,,,,,,,2025-12-24,1,,,,,マンションカンリクミアイシエンキコウ,0
255,1480001013043,新規,0,2025-12-24,2025-12-24,株式会社Ｙｏｕ　ｔｏ　Ｒｅ,,株式会社,徳島県,海部郡美波町,北河内字大戸５３４番地２,,36,387,7792302,,,,,,,2025-12-24,1,,,,,,0
258,1700150133767,新規,0,2025-12-24,2025-12-24,ＬＡＭ　Ｔｒａｄｅ　Ｆｉｎａｎｃｅ　Ｇｒｏｕｐ　ＩＩＩ　ＬＬＣ,00142002,外国会社等,,,,,,,,５２０　Ｍａｄｉｓｏｎ　Ａｖｅｎｕｅ－Ａｔｔｎ：Ｔａｘ　Ｄｅｐｔ，Ｎｅｗ　Ｙｏｒｋ，ＮＹ　１００２２,,,,,,2025-12-24,1,,,,,エルエーエムトレードフアイアンスグループスリーエルエルシー,0
259,1700150133775,新規,0,2025-12-24,2025-12-24,ウエスト・ストリート・アジア・エクイティ・パートナーズ・Ｉ・イーイー・ホールドコ・ＩＶ・エルエルシー,,外国会社等,東京都,港区,虎ノ門２丁目６番１号　虎ノ門ヒルズステーションタワー,,13,103,1050001,ケイマン諸島ＫＹ１－１１０４グランド・ケイマン、ウグランド・ハウス、ピーオー・ボックス３０９、メープルズ・コーポレイト・サービセス・リミテッド気付,,,,,,2025-12-24,1,,,,,ウエストストリートアジアエクイテイパートナーズワンイーイーホールドコフオーエルエルシー,0
271,2010001261431,新規,0,2025-12-24,2025-12-24,Ｘａｎｔｈｅ株式会社,,株式会社,東京都,千代田区,永田町２丁目１４番２号山王グランドビル３階スリーアイズキャピタル株式会社内,,13,101,1000014,,,,,,,2025-12-24,1,,,,,ザンテ,0
276,2010401195262,新規,0,2025-12-24,2025-12-24,株式会社ＯＫＵ,,株式会社,東京都,港区,芝５丁目３６番４号札の辻スクエア９階,,13,103,1080014,,,,,,,2025-12-24,1,,,,,オク,0
277,2010401195411,新規,0,2025-12-24,2025-12-24,Ｂａｌｔｉｃ　ＡＧＲＩ　ＪＡＰＡＮ株式会社,,株式会社,東京都,港区,北青山１丁目３―３三橋ビル３階,,13,103,1070061,,,,,,,2025-12-24,1,,,,,バルティックアグリジャパン,0
285,2010601068474,新規,0,2025-12-24,2025-12-24,株式会社ほっぺたカンパニー,,株式会社,東京都,江東区,亀戸６丁目５７番２２号平塚ビル３０１号室,,13,108,1360071,,,,,,,2025-12-24,1,,,,,ホッペタカンパニー,0
287,2010703008056,新規,0,2025-12-24,2025-12-24,ＦＵＲＵＹＡ　ＣＡＰＩＴＡＬ合同会社,,合同会社,東京都,品川区,東品川４丁目１１－３６－４０９,,13,109,1400002,,,,,,,2025-12-24,1,,,,,フルヤキャピタル,0
292,2010903010522,新規,0,2025-12-24,2025-12-24,合同会社ｓｑＵａｒｅ,,合同会社,東京都,世田谷区,上祖師谷１丁目２３番１６号,,13,112,1570065,,,,,,,2025-12-24,1,,,,,スクエア,0
297,2011001174565,新規,0,2025-12-24,2025-12-24,株式会社ＷＩＺＡＩ,,株式会社,東京都,渋谷区,渋谷２丁目２４番１２号渋谷スクランブルスクエア３９Ｆ,,13,113,1500002,,,,,,,2025-12-24,1,,,,,ウィズエーアイ,0
298,2011001174623,新規,0,2025-12-24,2025-12-24,Ａｌｕｍｎｉ　Ｖｅｎｔｕｒｅｓ　Ｊａｐａｎ株式会社,,株式会社,東京都,渋谷区,宇田川町３番５号ＳｐａｒｋＳＨＩＢＵＹＡ７階,,13,113,1500042,,,,,,,2025-12-24,1,,,,,アラムナイベンチャーズジャパン,0
309,2011201026871,新規,0,2025-12-24,2025-12-24,Ａｘｉｍ株式会社,,株式会社,東京都,中野区,本町４丁目１３番１８ＰＩＥＲ新中野１０２号室,,13,114,1640012,,,,,,,2025-12-24,1,,,,,アクシム,0
314,2011301031144,新規,0,2025-12-24,2025-12-24,株式会社Ｍａｒｓ　Ｃｏｒｐｏｒａｔｉｏｎ,,株式会社,東京都,杉並区,井草４丁目１８番２６号リーフィアレジデンス杉並井草森公園８０７,,13,115,1670021,,,,,,,2025-12-24,1,,,,,マーズコーポレーション,0
315,2011303005807,新規,0,2025-12-24,2025-12-24,合同会社ＯＲＢＡ,,合同会社,東京都,杉並区,南荻窪４丁目３９－１３サザンリヴァー３０１,,13,115,1670052,,,,,,,2025-12-24,1,,,,,オルバ,0
333,2011703004490,新規,0,2025-12-24,2025-12-24,ＢｅｓｔＷａｙ　Ｌｉｖｉｎｇ合同会社,,合同会社,東京都,江戸川区,平井６丁目５２番５－８０２号,,13,123,1320035,,,,,,,2025-12-24,1,,,,,ベストウェイリビング,0
340,2012403007528,新規,0,2025-12-24,2025-12-24,合同会社ＢＵＤＤＹ　ＬＩＦＥ,,合同会社,東京都,稲城市,東長沼２４１６番地プラウドシティ南山３０８,,13,225,2060802,,,,,,,2025-12-24,1,,,,,バディライフ,0
344,2020001166448,新規,0,2025-12-24,2025-12-24,株式会社Ｅ２,,株式会社,神奈川県,横浜市西区,高島１丁目２－５横濱ゲートタワー３Ｆ,,14,103,2200011,,,,,,,2025-12-24,1,,,,,イーツー,0
345,2021001087114,新規,0,2025-12-24,2025-12-24,株式会社雄建,,株式会社,神奈川県,綾瀬市,深谷中６丁目９番１７号,,14,218,2521107,,,,,,,2025-12-24,1,,,,,ユウケン,0
349,2030001170259,新規,0,2025-12-24,2025-12-24,株式会社鈴敏,,株式会社,埼玉県,越谷市,大字大道１０４番地,,11,222,3430035,,,,,,,2025-12-24,1,,,,,スズトシ,0
350,2030001170283,新規,0,2025-12-24,2025-12-24,盈麗株式会社,,株式会社,埼玉県,蕨市,塚越７丁目１３－６,,11,223,3350002,,,,,,,2025-12-24,1,,,,,,0
358,2040003029205,新規,0,2025-12-24,2025-12-24,合同会社Ｉａｍ,,合同会社,千葉県,市川市,市川南１丁目１番１－２７０４号（ザタワーズイースト）,,12,203,2720033,,,,,,,2025-12-24,1,,,,,アイアム,0
359,2040005022983,新規,0,2025-12-24,2025-12-24,一般社団法人フロイデ,,その他の設立登記法人,千葉県,習志野市,奏の杜１丁目３番１１号,,12,216,2750028,,,,,,,2025-12-24,1,,,,,フロイデ,0
360,2050001057792,新規,0,2025-12-24,2025-12-24,株式会社Ｒｉｓｅ　ｏｎ,,株式会社,茨城県,水戸市,宮町１丁目８番４１－１１１０号,,08,201,3100015,,,,,,,2025-12-24,1,,,,,ライズオン,0
364,2080001027347,新規,0,2025-12-24,2025-12-24,アオイリンクス株式会社,,株式会社,静岡県,静岡市葵区,沓谷３丁目８番２－１号,,22,101,4200816,,,,,,,2025-12-24,1,,,,,アオイリンクス,0
374,2120001282986,新規,0,2025-12-24,2025-12-24,Ｃ‐ｃｒｅｔ株式会社,,株式会社,大阪府,大阪市北区,梅田１丁目２番２号大阪駅前第２ビル１２－１２,,27,127,5300001,,,,,,,2025-12-24,1,,,,,シークレット,0
381,2120903006006,新規,0,2025-12-24,2025-12-24,合同会社ｔｗｉｎｋｌｅ,,合同会社,大阪府,豊中市,岡町南３丁目５番５号ＭＩＮＥＲＶＡＣａｓａ３０１号,,27,203,5610883,,,,,,,2025-12-24,1,,,,,トゥインクル,0
383,2130001081207,新規,0,2025-12-24,2025-12-24,株式会社山福,,株式会社,京都府,京都市山科区,西野左義長町２６番地５８,,26,110,6078347,,,,,,,2025-12-24,1,,,,,ヤマフク,0
384,2130001081264,新規,0,2025-12-24,2025-12-24,浩洋株式会社,,株式会社,京都府,京都市山科区,大宅御所田町４８番地４,,26,110,6078179,,,,,,,2025-12-24,1,,,,,コウヨウ,0
387,2130003011021,新規,0,2025-12-24,2025-12-24,合同会社Ｌｉｂｒａ,,合同会社,京都府,亀岡市,下矢田町２丁目７番２号エンジェリア２０００－１０３,,26,206,6210854,,,,,,,2025-12-24,1,,,,,リブラ,0
393,2140001141190,新規,0,2025-12-24,2025-12-24,ＡＤＥＲ株式会社,,株式会社,兵庫県,丹波市,氷上町鴨内２４７－１,,28,223,6693645,,,,,,,2025-12-24,1,,,,,アーダー,0
401,2180001170021,新規,0,2025-12-24,2025-12-24,株式会社Ｕｎｉｔｙｗｏｒｋｓ　ｉｎｃ．,,株式会社,愛知県,春日井市,六軒屋町西３丁目５番地７,,23,206,4860839,,,,,,,2025-12-24,1,,,,,ユニティワークス,0
413,2190001032781,新規,0,2025-12-24,2025-12-24,伊賀畜産株式会社,,株式会社,三重県,伊賀市,楯岡３１３４番地,,24,216,5191411,,,,,,,2025-12-24,1,,,,,イガチクサン,0
417,2210005010244,新規,0,2025-12-24,2025-12-24,一般社団法人ＦＵＫＵＩ　Ｓｐｏｒｔｓ　Ｆｏｕｎｄａｔｉｏｎ,,その他の設立登記法人,福井県,福井市,高木中央２丁目２７１４番地２,,18,201,9100804,,,,,,,2025-12-24,1,,,,,フクイスポーツファンデーション,0
423,2240001065958,新規,0,2025-12-24,2025-12-24,株式会社ＢＬ西日本,,株式会社,広島県,広島市南区,東雲３丁目７番１８号,,34,103,7340022,,,,,,,2025-12-24,1,,,,,ビーエルニシニホン,0
437,2290001112532,新規,0,2025-12-24,2025-12-24,株式会社ジチタイキャリア,,株式会社,福岡県,福岡市中央区,天神２丁目３番３６号ｉｂｂｆｕｋｕｏｋａビル,,40,133,8100001,,,,,,,2025-12-24,1,,,,,ジチタイキャリア,0
438,2290001112598,新規,0,2025-12-24,2025-12-24,株式会社デジキュー福岡,,株式会社,福岡県,福岡市博多区,博多駅前２丁目１９番１７号トーカン博多第５ビル３１２号室,,40,132,8120011,,,,,,,2025-12-24,1,,,,,デジキューフクオカ,0
441,2330001033864,新規,0,2025-12-24,2025-12-24,株式会社平和商事,,株式会社,熊本県,熊本市中央区,国府２丁目１番２２号,,43,101,8620949,,,,,,,2025-12-24,1,,,,,ヘイワショウジ,0
445,2340005009926,新規,0,2025-12-24,2025-12-24,コアマンション郡元ネクステージ管理組合法人,,その他の設立登記法人,鹿児島県,鹿児島市,郡元町２５－１０,,46,201,8900084,,,,,,,2025-12-24,1,,,,,コアマンションコオリモトネクステージ,0
449,2360001036179,新規,0,2025-12-24,2025-12-24,株式会社かりゆしガーデン,,株式会社,沖縄県,中頭郡読谷村,字座喜味２７５３番地２２８,,47,324,9040301,,,,,,,2025-12-24,1,,,,,カリユシガーデン,0
452,2370001053339,新規,0,2025-12-24,2025-12-24,ＳＨＡＨＺＡＤ　ＴＲＡＤＩＮＧ株式会社,,株式会社,宮城県,仙台市太白区,八木山松波町２－２１アカデミックハイツ２０３,,04,104,9820836,,,,,,,2025-12-24,1,,,,,シャフザドトレーディング,0
455,2370005011053,新規,0,2025-12-24,2025-12-24,国鉄労働組合東北地方本部,,その他の設立登記法人,宮城県,仙台市宮城野区,小田原１丁目１番２号２Ｆ,,04,102,9830803,,,,,,,2025-12-24,1,,,,,コクテツロウドウクミアイトウホクチホウホンブ,0
460,2380003006211,新規,0,2025-12-24,2025-12-24,ＭＳＫ合同会社,,合同会社,福島県,いわき市,常磐長孫町岩崎２７‐６,,07,204,9728315,,,,,,,2025-12-24,1,,,,,エムエスケイ,0
464,2420001019375,新規,0,2025-12-24,2025-12-24,株式会社オッコカンパニー,,株式会社,青森県,つがる市,木造赤根１３番地７７,,02,209,0383142,,,,,,,2025-12-24,1,,,,,オッコカンパニー,0
466,2430001095928,新規,0,2025-12-24,2025-12-24,株式会社ＦＦＦＦ,,株式会社,北海道,札幌市手稲区,新発寒七条１０丁目１番２４号,,01,109,0060807,,,,,,,2025-12-24,1,,,,,エフフォー,0
467,2430001095936,新規,0,2025-12-24,2025-12-24,株式会社日天,,株式会社,北海道,札幌市西区,西町南２丁目４番１０号,,01,107,0630062,,,,,,,2025-12-24,1,,,,,ニッテン,0
472,2450003002756,新規,0,2025-12-24,2025-12-24,合同会社ファニー,,合同会社,北海道,旭川市,東旭川町共栄３５番地の２,,01,204,0788340,,,,,,,2025-12-24,1,,,,,ファニー,0
476,2700150015205,新規,0,2025-12-24,2015-10-09,市原市立国分寺公民館運営委員会,,その他,千葉県,市原市,南国分寺台１丁目２－６市原市立　国分寺公民館内,,12,219,2900075,,,,,,,2015-10-09,1,,,,,イチハラシリツコクブンジコウミンカンウンエイイインカイ,0
479,2700150133766,新規,0,2025-12-24,2025-12-24,ＡＳＡｉｒＬｅａｓｅ　１９０（Ｉｒｅｌａｎｄ）Ｌｉｍｉｔｅｄ,,外国会社等,,,,,,,,１ｓｔ　Ｆｌｏｏｒ，２　Ｃｕｍｂｅｒｌａｎｄ　Ｐｌａｃｅ，Ｆｅｎｉａｎ　Ｓｔｒｅｅｔ，Ｄｕｂｌｉｎ　２，ＤＵＢＬＩＮ，Ｉｒｅｌａｎｄ，ＤＯ２　ＨＯＶ５,,,,,,2025-12-24,1,,,,,エーエスエアリースアイルランドリミテツド,0
480,2700150133774,新規,0,2025-12-24,2025-12-24,ウエスト・ストリート・アジア・エクイティ・パートナーズ・Ｉ・イーイー・ホールドコ・ＩＩＩ・エルエルシー,,外国会社等,東京都,港区,虎ノ門２丁目６番１号虎ノ門ヒルズステーションタワー,,13,103,1050001,ケイマン諸島ＫＹ１－１１０４グランド・ケイマン、ウグランド・ハウス、ピーオー・ボックス３０９、メープルズ・コーポレイト・サービセス・リミテッド気付,,,,,,2025-12-24,1,,,,,ウエストストリートアジアエクイテイパートナーズワンイーイーホールドコスリーエルエルシー,0
492,3010001261315,新規,0,2025-12-24,2025-12-24,ＹＯＪＯ　Ｈｏｓｐｉｔａｌｉｔｙ株式会社,,株式会社,東京都,千代田区,丸の内１丁目１１番１号,,13,101,1000005,,,,,,,2025-12-24,1,,,,,ヨウジョウホスピタリティ,0
493,3010001261422,新規,0,2025-12-24,2025-12-24,三悦株式会社,,株式会社,東京都,中央区,明石町１番１号匯金・中央ビル５Ｆ,,13,102,1040044,,,,,,,2025-12-24,1,,,,,サンエツ,0
494,3010001261430,新規,0,2025-12-24,2025-12-24,雅悦ホールディングス株式会社,,株式会社,東京都,千代田区,神田須田町１丁目１４番１号ヒューリック神田須田町ビル１階,,13,101,1010041,,,,,,,2025-12-24,1,,,,,ガエツホールディングス,0
498,3010401195328,新規,0,2025-12-24,2025-12-24,株式会社ＮＥＸＴ　ＬＩＦＥ　ＧＲＯＵＰ,,株式会社,東京都,港区,北青山１丁目３番１号,,13,103,1070061,,,,,,,2025-12-24,1,,,,,ネクストライフグループ,0
502,3010405025076,新規,0,2025-12-24,2025-12-24,一般社団法人日華企業懇談会,,その他の設立登記法人,東京都,港区,新橋６丁目５番４号２階,,13,103,1050004,,,,,,,2025-12-24,1,,,,,ニッカキギョウコンダンカイ,0
503,3010501055175,新規,0,2025-12-24,2025-12-24,株式会社ＣＡＭＥ　ＴＲＵＥ,,株式会社,東京都,台東区,上野１丁目１７番６号広小路ビル８Ｆ－Ｂ,,13,106,1100005,,,,,,,2025-12-24,1,,,,,カメツル,0
504,3010601068465,新規,0,2025-12-24,2025-12-24,株式会社ＧｒｅｅｎＧｒｅｅｎ,,株式会社,東京都,墨田区,太平４丁目４番１号,,13,107,1300012,,,,,,,2025-12-24,1,,,,,グリーングリーン,0
506,3010703008055,新規,0,2025-12-24,2025-12-24,合同会社煙,,合同会社,東京都,品川区,荏原３丁目８番７号ロイヤル武蔵小山２Ｆ,,13,109,1420063,,,,,,,2025-12-24,1,,,,,エン,0
515,3011001174449,新規,0,2025-12-24,2025-12-24,Ｎａｔｕｒｅ’ｓ　Ｇｏｌｄ　Ｊａｐａｎ株式会社,,株式会社,東京都,目黒区,目黒１丁目３番２１－３０４号朝日目黒マンション,,13,110,1530063,,,,,,,2025-12-24,1,,,,,ネイチャーズゴールドジャパン,0
516,3011001174564,新規,0,2025-12-24,2025-12-24,Ｈａｙａｍａ　Ｃａｐｉｔａｌ　Ｐａｒｔｎｅｒｓ株式会社,,株式会社,東京都,渋谷区,恵比寿西２丁目３番１２号恵比寿オークビレッジビル３階,,13,113,1500021,,,,,,,2025-12-24,1,,,,,ハヤマキャピタルパートナーズ,0
527,3011601029259,新規,0,2025-12-24,2025-12-24,株式会社門福,,株式会社,東京都,練馬区,石神井町７丁目１３－５,,13,120,1770041,,,,,,,2025-12-24,1,,,,,カドフク,0
530,3011801047226,新規,0,2025-12-24,2025-12-24,サンジョイント株式会社,,株式会社,東京都,葛飾区,四つ木４丁目１８番１７号,,13,122,1240011,,,,,,,2025-12-24,1,,,,,サンジョイント,0
539,3013301055460,新規,0,2025-12-24,2025-12-24,株式会社ピコナノテック,,株式会社,東京都,豊島区,巣鴨４丁目２３番８号,,13,116,1700002,,,,,,,2025-12-24,1,,,,,ピコナノテック,0
546,3020001166125,新規,0,2025-12-24,2025-12-24,株式会社ｕｎ,,株式会社,神奈川県,川崎市多摩区,西生田４丁目１番８号,,14,135,2140037,,,,,,,2025-12-24,1,,,,,アン,0
547,3020001166439,新規,0,2025-12-24,2025-12-24,株式会社Ｆａｎｉｌｌｏｎ,,株式会社,神奈川県,川崎市多摩区,堰１丁目２２番１－１２４号,,14,135,2140022,,,,,,,2025-12-24,1,,,,,ファニヨン,0
551,3030001170299,新規,0,2025-12-24,2025-12-24,株式会社Ｕｎｌｏｃｋ　Ｓｈｉｆｔ,,株式会社,埼玉県,桶川市,大字上日出谷１２４５―２８,,11,231,3630026,,,,,,,2025-12-24,1,,,,,アンロックシフト,0
552,3030001170308,新規,0,2025-12-24,2025-12-24,株式会社ＲＩＭＡ,,株式会社,埼玉県,さいたま市桜区,大字神田５９４－７,,11,106,3380812,,,,,,,2025-12-24,1,,,,,リマ,0
561,3040001141910,新規,0,2025-12-24,2025-12-24,興和株式会社,,株式会社,千葉県,千葉市美浜区,高浜１丁目７番６棟４０４号,,12,106,2610003,,,,,,,2025-12-24,1,,,,,コウワ,0
562,3040001141927,新規,0,2025-12-24,2025-12-24,株式会社ＳＲインターナショナル,,株式会社,千葉県,市原市,海士有木５５８－１,,12,219,2900207,,,,,,,2025-12-24,1,,,,,エスアールインターナショナル,0
566,3040003029138,新規,0,2025-12-24,2025-12-24,合同会社Ｋｅｙ　Ｍａｋｅｕｐ,,合同会社,千葉県,市川市,曽谷５丁目１５番４号（百合台ハイツ２０３号）,,12,203,2720832,,,,,,,2025-12-24,1,,,,,キーメイクアップ,0
571,3060001038881,新規,0,2025-12-24,2025-12-24,ｐｓｙｔｅｃｈ．ｌｉｆｅ株式会社,,株式会社,栃木県,那須塩原市,三区町５３７番地９３,,09,213,3292745,,,,,,,2025-12-24,1,,,,,サイテックライフ,0
582,3080005007749,新規,0,2025-12-24,2025-12-24,一般社団法人ＣＳＺホールディングス,,その他の設立登記法人,静岡県,静岡市葵区,東静岡１丁目１番１４号,,22,101,4200817,,,,,,,2025-12-24,1,,,,,シーエスゼットホールディングス,0
585,3080401028340,新規,0,2025-12-24,2025-12-24,株式会社ピースアップ,,株式会社,静岡県,浜松市中央区,大久保町６９６２番地,,22,138,4328006,,,,,,,2025-12-24,1,,,,,ピースアップ,0
603,3120003031580,新規,0,2025-12-24,2025-12-24,ＫＥＹＮ合同会社,,合同会社,大阪府,大阪市城東区,成育２丁目５番２１号,,27,118,5360007,,,,,,,2025-12-24,1,,,,,キーン,0
606,3120101072964,新規,0,2025-12-24,2025-12-24,伊登株式会社,,株式会社,大阪府,堺市堺区,竜神橋町２丁３番１号ステュディオ堺フェニックス５１６,,27,141,5900972,,,,,,,2025-12-24,1,,,,,イトウ,0
608,3120901052018,新規,0,2025-12-24,2025-12-24,株式会社咲翔,,株式会社,大阪府,豊中市,豊南町東３丁目８番２５－１０３号,,27,203,5610814,,,,,,,2025-12-24,1,,,,,サキガケ,0
609,3120903006005,新規,0,2025-12-24,2025-12-24,合同会社グリンサイト,,合同会社,大阪府,茨木市,彩都あさぎ２丁目６番１８号,,27,211,5670085,,,,,,,2025-12-24,1,,,,,グリンサイト,0
613,3122001040043,新規,0,2025-12-24,2025-12-24,株式会社真,,株式会社,大阪府,柏原市,国分本町７丁目４番７７号,,27,221,5820021,,,,,,,2025-12-24,1,,,,,マコト,0
614,3130001081296,新規,0,2025-12-24,2025-12-24,株式会社Ｎｕｒｔｕｒｅｓ,,株式会社,京都府,京都市北区,大宮南山ノ前町３１－７,,26,101,6038473,,,,,,,2025-12-24,1,,,,,ナーチャーズ,0
615,3130003011029,新規,0,2025-12-24,2025-12-24,平和レジデンス合同会社,,合同会社,京都府,京都市左京区,吉田神楽岡町１０８番地,,26,103,6068311,,,,,,,2025-12-24,1,,,,,ヘイワレジデンス,0
620,3140005027740,新規,0,2025-12-24,2025-12-24,医療法人社団あい歯科,,その他の設立登記法人,兵庫県,神戸市兵庫区,駅南通１丁目２番３４号兵庫駅前クリニックビル２Ｆ,,28,105,6520897,,,,,,,2025-12-24,1,,,,,アイシカ,0
630,3180001170004,新規,0,2025-12-24,2025-12-24,株式会社ルナクレスト,,株式会社,愛知県,名古屋市東区,葵１丁目２番１１号,,23,102,4610004,,,,,,,2025-12-24,1,,,,,ルナクレスト,0
631,3180001170045,新規,0,2025-12-24,2025-12-24,株式会社氣鳥,,株式会社,愛知県,春日井市,篠木町６丁目２４４４番地１,,23,206,4860851,,,,,,,2025-12-24,1,,,,,キチョウ,0
635,3180003029537,新規,0,2025-12-24,2025-12-24,合同会社Ａｓｓｉｓｔ　ｔａｘｉ,,合同会社,愛知県,海部郡大治町,大字砂子字柳原２４７４番地の１２,,23,424,4901143,,,,,,,2025-12-24,1,,,,,アシストタクシー,0
636,3180003029545,新規,0,2025-12-24,2025-12-24,合同会社ウィルネスト,,合同会社,愛知県,名古屋市港区,千鳥１丁目１３番１２号－７０３号,,23,111,4550031,,,,,,,2025-12-24,1,,,,,ウィルネスト,0
639,3180301040534,新規,0,2025-12-24,2025-12-24,株式会社小椋ワークス,,株式会社,愛知県,西尾市,吉良町八幡川田上４９－１,,23,213,4440526,,,,,,,2025-12-24,1,,,,,,0
640,3180301040542,新規,0,2025-12-24,2025-12-24,ビヨンドセンス株式会社,,株式会社,愛知県,岡崎市,滝町字根張沢４８番地３,,23,202,4443173,,,,,,,2025-12-24,1,,,,,ビヨンドセンス,0
642,3190001032780,新規,0,2025-12-24,2025-12-24,株式会社清水,,株式会社,三重県,四日市市,平津町３０５番地,,24,202,5128042,,,,,,,2025-12-24,1,,,,,シミズ,0
648,3200003007176,新規,0,2025-12-24,2025-12-24,合同会社ＥＮ,,合同会社,岐阜県,岐阜市,茶屋新田１４１番地１,,21,201,5016135,,,,,,,2025-12-24,1,,,,,エン,0
650,3230001021218,新規,0,2025-12-24,2025-12-24,株式会社笑美,,株式会社,富山県,富山市,中市１丁目４番５－２０２号,,16,201,9398005,,,,,,,2025-12-24,1,,,,,,0
654,3240001065965,新規,0,2025-12-24,2025-12-24,株式会社アトレ興産,,株式会社,広島県,広島市安佐南区,中筋２丁目１７番５９号,,34,105,7310122,,,,,,,2025-12-24,1,,,,,アトレコウサン,0
663,3250003003864,新規,0,2025-12-24,2025-12-24,合同会社Ｈｏｐｉａ．,,合同会社,山口県,宇部市,大字東岐波６３７－１５,,35,202,7550241,,,,,,,2025-12-24,1,,,,,ホピア,0
668,3260001040842,新規,0,2025-12-24,2025-12-24,株式会社Ｅｍｏｔｉｏｎ　Ｗｏｒｋｓ,,株式会社,岡山県,岡山市中区,国富２丁目５番１１号,,33,102,7038236,,,,,,,2025-12-24,1,,,,,エモーションワークス,0
670,3270001009358,新規,0,2025-12-24,2025-12-24,株式会社芸術棟,,株式会社,鳥取県,米子市,両三柳３６番地３,,31,202,6830853,,,,,,,2025-12-24,1,,,,,ゲイジュツトウ,0
677,3290003017869,新規,0,2025-12-24,2025-12-24,合同会社ＨＫ,,合同会社,福岡県,福岡市東区,和白３丁目１３番２２号,,40,131,8110202,,,,,,,2025-12-24,1,,,,,,0
678,3290003017877,新規,0,2025-12-24,2025-12-24,合同会社リリララオフィス,,合同会社,福岡県,糟屋郡宇美町,ゆりが丘６丁目９番１６号,,40,341,8112108,,,,,,,2025-12-24,1,,,,,リリララオフィス,0
679,3290005019888,新規,0,2025-12-24,2025-12-24,ＮＰＯ法人ボランチア,,その他の設立登記法人,福岡県,福岡市博多区,須崎町１３－１３－４０３,,40,132,8120028,,,,,,,2025-12-24,1,,,,,ボランチア,0
684,3300001014453,新規,0,2025-12-24,2025-12-24,株式会社一ノ瀬工業,,株式会社,佐賀県,唐津市,山本１５２２番地１０プチマンション山本１０１号,,41,202,8470002,,,,,,,2025-12-24,1,,,,,イチノセコウギョウ,0
687,3320005010281,新規,0,2025-12-24,2025-12-24,一般社団法人Ｋｉｄｓ　Ｌｏｕｎｇｅ　Ｊａｐａｎ,,その他の設立登記法人,大分県,速見郡日出町,大字豊岡３４１７番地１,,44,341,8791507,,,,,,,2025-12-24,1,,,,,キッズラウンジジャパン,0
701,3390003002480,新規,0,2025-12-24,2025-12-24,合同会社松籟庵,,合同会社,山形県,酒田市,光ケ丘１丁目４番２２号,,06,204,9980061,,,,,,,2025-12-24,1,,,,,ショウライアン,0
709,3430001095919,新規,0,2025-12-24,2025-12-24,株式会社Ｕｎｉｔｅｄ　ｍｉｘ　Ｃｒｅａｔｉｏｎ,,株式会社,北海道,札幌市手稲区,星置三条１丁目２８番２４号,,01,109,0060853,,,,,,,2025-12-24,1,,,,,ユナイテッドミックスクリエーション,0
717,3470003003041,新規,0,2025-12-24,2025-12-24,ＡＳＴＲＯＨ合同会社,,合同会社,香川県,高松市,太田下町２６８８番地５,,37,201,7618073,,,,,,,2025-12-24,1,,,,,アストロ,0
719,3500001026692,新規,0,2025-12-24,2025-12-24,株式会社奈幸庵,,株式会社,愛媛県,新居浜市,久保田町２丁目１番３７号,,38,205,7920026,,,,,,,2025-12-24,1,,,,,ナコウアン,0
728,3700150133765,新規,0,2025-12-24,2025-12-24,ＴＯＰ　ＴＲＡＤＩＮＧ　ＬＩＭＩＴＥＤ,,外国会社等,,,,,,,,Ｔｒｕｓｔ　Ｃｏｍｐａｎｙ　Ｃｏｍｐｌｅｘ，Ａｊｅｌｔａｋｅ　Ｒｏａｄ，Ａｊｅｌｔａｋｅ　Ｉｓｌａｎｄ，Ｍａｊｕｒｏ，Ｍａｒｓｈａｌｌ　Ｉｓｌａｎｄｓ　ＭＨ９６９６０,,,,,,2025-12-24,1,,,,,トツプトレーデイングリミテツド,0
729,3700150133773,新規,0,2025-12-24,2025-12-24,ＴＭＡ　Ｃｏｒｐｏｒａｔｉｏｎ　Ｐｔｙ　Ｌｔｄ,,外国会社等,,,,,,,,４８　ｃｅｎｔｕｒｙ　Ｒｏａｄ，Ｍａｌａｇａ　ＷＡ６０９０，Ａｕｓｔｒａｌｉａ,,,,,,2025-12-24,1,,,,,テイーエムエーコーポレーシヨン,0
737,4010001261421,新規,0,2025-12-24,2025-12-24,Ｖｉｔａｌｉｓ　Ｇｒｏｕｐ　Ｈｏｌｄｉｎｇｓ株式会社,,株式会社,東京都,中央区,日本橋茅場町２丁目１６番１２号,,13,102,1030025,,,,,,,2025-12-24,1,,,,,ヴァイタリスグループホールディングス,0
738,4010001261438,新規,0,2025-12-24,2025-12-24,株式会社ＡＩ　Ｉｎｖａｌｕａｂｌｅ,,株式会社,東京都,千代田区,平河町２丁目１１番１号,,13,101,1020093,,,,,,,2025-12-24,1,,,,,エーアイインヴァリュアブル,0
739,4010001261487,新規,0,2025-12-24,2025-12-24,株式会社ｅｍｐｉｒｅ,,株式会社,東京都,中央区,勝どき３丁目２番１０－２０３号,,13,102,1040054,,,,,,,2025-12-24,1,,,,,エンパイア,0
763,4010705003838,新規,0,2025-12-24,2025-12-24,一般社団法人日本音楽体操士協会,,その他の設立登記法人,東京都,品川区,南大井１丁目１３番１６－７０４号,,13,109,1400013,,,,,,,2025-12-24,1,,,,,ニホンオンガクタイソウシキョウカイ,0
766,4010901058710,新規,0,2025-12-24,2025-12-24,株式会社ｄｏｔｇｅａｒ,,株式会社,東京都,世田谷区,北烏山８丁目２７番１５号,,13,112,1570061,,,,,,,2025-12-24,1,,,,,ドットギア,0
771,4011001174480,新規,0,2025-12-24,2025-12-24,Ａｕｒａ株式会社,,株式会社,東京都,渋谷区,恵比寿西２丁目８番４号ＥＸ恵比寿西ビル５階,,13,113,1500021,,,,,,,2025-12-24,1,,,,,アウラ,0
772,4011001174563,新規,0,2025-12-24,2025-12-24,ニュートリテックジャパン株式会社,,株式会社,東京都,渋谷区,広尾１丁目６番３号広尾大和マンション１０３,,13,113,1500012,,,,,,,2025-12-24,1,,,,,ニュートリテックジャパン,0
773,4011001174638,新規,0,2025-12-24,2025-12-24,ノマド紀行株式会社,,株式会社,東京都,渋谷区,代々木２丁目２３－１－１１２１,,13,113,1510053,,,,,,,2025-12-24,1,,,,,ノマドキコウ,0
776,4011003023132,新規,0,2025-12-24,2025-12-24,合同会社ｉｎ　ｃｒｅａｔｉｖｅ　ｓｔｕｄｉｏ,,合同会社,東京都,渋谷区,千駄ヶ谷３丁目４１－７,,13,113,1510051,,,,,,,2025-12-24,1,,,,,インクリエイティブスタジオ,0
790,4011703004489,新規,0,2025-12-24,2025-12-24,合同会社介護のコタロー,,合同会社,東京都,江戸川区,中葛西２丁目７番１２号,,13,123,1340083,,,,,,,2025-12-24,1,,,,,カイゴノコタロー,0
794,4012403007534,新規,0,2025-12-24,2025-12-24,合同会社ＲＥＴＩＡ,,合同会社,東京都,狛江市,元和泉１丁目５－１７白井方１０２,,13,219,2010013,,,,,,,2025-12-24,1,,,,,レティア,0
795,4012701019248,新規,0,2025-12-24,2025-12-24,ＴｏｋｙｏＲｅＬｉｆｅ株式会社,,株式会社,東京都,西東京市,田無町７丁目３―２３―１Ｂ,,13,229,1880011,,,,,,,2025-12-24,1,,,,,トウキョウリライフ,0
801,4020001068460,新規,0,2025-12-24,2025-12-24,株式会社福井工務店,,株式会社,神奈川県,川崎市宮前区,野川７６４番地６,,14,136,2160001,,,,,,,2025-12-24,1,,,,,フクイコウムテン,0
805,4020001166462,新規,0,2025-12-24,2025-12-24,株式会社Ｒｅｎｎ,,株式会社,神奈川県,川崎市高津区,梶ケ谷５丁目８番地７１,,14,134,2130015,,,,,,,2025-12-24,1,,,,,レン,0
819,4030001170208,新規,0,2025-12-24,2025-12-24,スミダホールディングス株式会社,,株式会社,埼玉県,さいたま市浦和区,前地３丁目１４番１２号,,11,107,3300053,,,,,,,2025-12-24,1,,,,,スミダホールディングス,0
820,4030001170307,新規,0,2025-12-24,2025-12-24,株式会社Ｏｆｆｉｃｅ　ＳＴ,,株式会社,埼玉県,さいたま市緑区,大字大門２９１６番地２,,11,109,3360963,,,,,,,2025-12-24,1,,,,,オフィスエスティ,0
824,4030003028346,新規,0,2025-12-24,2025-12-24,合同会社ＫＥＮＫＯＵ,,合同会社,埼玉県,深谷市,秋元町２８番地２,,11,218,3660053,,,,,,,2025-12-24,1,,,,,ケンコウ,0
826,4040001141793,新規,0,2025-12-24,2025-12-24,三裕株式会社,,株式会社,千葉県,八街市,八街ろ１４７番地１５６,,12,230,2891144,,,,,,,2025-12-24,1,,,,,サンユウ,0
830,4040003029203,新規,0,2025-12-24,2025-12-24,合同会社ＳＴＥＬＬＡ,,合同会社,千葉県,流山市,おおたかの森西４丁目２１－１３,,12,220,2700128,,,,,,,2025-12-24,1,,,,,ステラ,0
832,4050003009831,新規,0,2025-12-24,2025-12-24,えんの杜合同会社,,合同会社,茨城県,神栖市,平泉４３８－２９,,08,232,3140146,,,,,,,2025-12-24,1,,,,,エンノモリ,0
852,4120001282893,新規,0,2025-12-24,2025-12-24,株式会社ＳＯＭＮＩＡ　ＪＡＰＡＮ,,株式会社,大阪府,大阪市中央区,瓦町４丁目５－９,,27,128,5410048,,,,,,,2025-12-24,1,,,,,ソムニアジャパン,0
853,4120001282968,新規,0,2025-12-24,2025-12-24,ｄａｍｉ株式会社,,株式会社,大阪府,大阪市西成区,花園南１丁目６番１０号花園ハイツ３０１号,,27,122,5570015,,,,,,,2025-12-24,1,,,,,ダミ,0
854,4120001282992,新規,0,2025-12-24,2025-12-24,誠旭貿易株式会社,,株式会社,大阪府,大阪市平野区,加美東５丁目３番５７－２０１号,,27,126,5470002,,,,,,,2025-12-24,1,,,,,セイアサヒボウエキ,0
855,4120001283009,新規,0,2025-12-24,2025-12-24,日本旅彩企画株式会社,,株式会社,大阪府,大阪市中央区,瓦町１丁目２－１２－４０７室,,27,128,5410048,,,,,,,2025-12-24,1,,,,,ニホンタビイロキカク,0
859,4120003031530,新規,0,2025-12-24,2025-12-24,合同会社ＣＴちくでん,,合同会社,大阪府,大阪市西区,新町１丁目５番７号,,27,106,5500013,,,,,,,2025-12-24,1,,,,,シーティーチクデン,0
866,4120901052009,新規,0,2025-12-24,2025-12-24,株式会社ｓｔｕｄｉｏ　ｈｕｅ,,株式会社,大阪府,吹田市,津雲台５丁目１８－３０－１１１１,,27,205,5650862,,,,,,,2025-12-24,1,,,,,スタジオヒュー,0
872,4150001028617,新規,0,2025-12-24,2025-12-24,株式会社ＫＵＲＩＳＵ,,株式会社,奈良県,北葛城郡広陵町,大字三吉４２３番地,,29,426,6350823,,,,,,,2025-12-24,1,,,,,クリス,0
883,4180003029503,新規,0,2025-12-24,2025-12-24,合同会社Ｐｉｘｉ,,合同会社,愛知県,名古屋市中区,栄５丁目５番３５号プレサンスロジェ栄パークサウス８０１号,,23,106,4600008,,,,,,,2025-12-24,1,,,,,ピクシー,0
890,4200001044559,新規,0,2025-12-24,2025-12-24,株式会社ＯＲＴＵＳ,,株式会社,岐阜県,多治見市,生田町１丁目１２番地の１,,21,204,5070807,,,,,,,2025-12-24,1,,,,,オルタス,0
893,4220005009028,新規,0,2025-12-24,2025-12-24,一般社団法人白米千枚田愛耕会,,その他の設立登記法人,石川県,輪島市,白米町ニ部３６番地,,17,204,9280256,,,,,,,2025-12-24,1,,,,,シロヨネセンマイダアイコウカイ,0
896,4240001065956,新規,0,2025-12-24,2025-12-24,株式会社ミッシェル,,株式会社,広島県,福山市,南蔵王町３丁目５番１０号,,34,207,7210973,,,,,,,2025-12-24,1,,,,,ミッシェル,0
897,4240001065964,新規,0,2025-12-24,2025-12-24,株式会社ＰＨＯＥＮＩＸ,,株式会社,広島県,広島市安佐南区,大町東１丁目１１番１８－２０８号,,34,105,7310124,,,,,,,2025-12-24,1,,,,,フェニックス,0
899,4240003007535,新規,0,2025-12-24,2025-12-24,合同会社Ｍｅｄｉｃａｌ　Ｎｅｘｔ　Ｓｔｅｐ,,合同会社,広島県,広島市中区,西十日市町３番３０－５０２号,,34,101,7300806,,,,,,,2025-12-24,1,,,,,メディカルネクストステップ,0
901,4250001021479,新規,0,2025-12-24,2025-12-24,株式会社ｗｅｌｌ‐ｂｅｉｎｇ,,株式会社,山口県,宇部市,床波１丁目２２番１７号,,35,202,7550153,,,,,,,2025-12-24,1,,,,,ウェルビーイング,0
914,4290003017876,新規,0,2025-12-24,2025-12-24,合同会社なるい,,合同会社,福岡県,久留米市,国分町１２９番地３８,,40,203,8390863,,,,,,,2025-12-24,1,,,,,ナルイ,0
915,4290005019937,新規,0,2025-12-24,2025-12-24,医療法人ＩＣＣ,,その他の設立登記法人,福岡県,福岡市東区,千早５丁目１３番１号香椎パサージュ２階,,40,131,8130044,,,,,,,2025-12-24,1,,,,,アイシーシー,0
921,4290803005238,新規,0,2025-12-24,2025-12-24,合同会社レオン,,合同会社,福岡県,北九州市小倉北区,船頭町３番１７号,,40,106,8020008,,,,,,,2025-12-24,1,,,,,レオン,0
927,4320001021505,新規,0,2025-12-24,2025-12-24,ＣＡＲＥＥＲＪＯＢ株式会社,,株式会社,大分県,大分市,大州浜１丁目５番１４－１０２号,,44,201,8700906,,,,,,,2025-12-24,1,,,,,キャリアジョブ,0
939,4370003007431,新規,0,2025-12-24,2025-12-24,合同会社Ｓ’Ｌｉａ,,合同会社,宮城県,仙台市宮城野区,小田原弓ノ町１０２ー１０ピュアナ弓ノ町１１０７,,04,102,9830812,,,,,,,2025-12-24,1,,,,,エスリア,0
947,4430001095892,新規,0,2025-12-24,2025-12-24,株式会社百,,株式会社,北海道,札幌市手稲区,富丘六条７丁目４番７号,,01,109,0060016,,,,,,,2025-12-24,1,,,,,モモ,0
949,4430003018447,新規,0,2025-12-24,2025-12-24,合同会社かね安,,合同会社,北海道,夕張市,末広２丁目１番地６,,01,209,0680411,,,,,,,2025-12-24,1,,,,,カネヤス,0
952,4430005015376,新規,0,2025-12-24,2025-12-24,法務テーラー行政書士法人,,その他の設立登記法人,北海道,札幌市西区,二十四軒四条５丁目１番８号,,01,107,0630804,,,,,,,2025-12-24,1,,,,,ホウムテーラー,0
959,4700150133764,新規,0,2025-12-24,2025-12-24,Ｎｕｖｅｒｓｅ　Ｐｔｅ．Ｌｔｄ．,,外国会社等,,,,,,,,１　Ｒａｆｆｌｅｓ　Ｑｕａｙ，♯２６－１０，Ｓｉｎｇａｐｏｒｅ　０４８５８３,,,,,,2025-12-24,1,,,,,ヌヴアースプライベートリミテツド,0
960,4700150133772,新規,0,2025-12-24,2025-12-24,Ｓｈｅｎｚｈｅｎｓｈｉｆｅｎｇｌｉａｎｇｋｅｊｉｙｏｕｘｉａｎｇｏｎｇｓｉ,,外国会社等,,,,,,,,ｆｕｔｉａｎｊｉｅｄａｏｋｏｕａｎｓｈｅｑｕｆｕｔｉａｎｎａｎｌｕ７ｈａｏ，ｈｕａｎｇｃｈｅｎｇｇｕａｎｇｃｈａｎｇｑｕｎｌｏｕ３００２－Ｅ１０，Ｓｈｅｎｚｈｅｎｓｈｉ，Ｆｕｔｉａｎｑｕ，Ｇｕａｎｇｄｏｎｇｓｈｅｎｇ，Ｃｈｉｎａ,,,,,,2025-12-24,1,,,,,シンセンシフオンリヤンテクノロジーカンパニーリミテツド,0
971,5010001261271,新規,0,2025-12-24,2025-12-24,玉悠堂東京株式会社,,株式会社,東京都,千代田区,神田佐久間町３丁目２８星野ビル４Ｆ３９号,,13,101,1010025,,,,,,,2025-12-24,1,,,,,ユウヨウタントウキョウ,0
972,5010001261429,新規,0,2025-12-24,2025-12-24,Ｓｐａｃｅ　Ｙ　Ｄｙｎａｍｉｃｓ株式会社,,株式会社,東京都,文京区,本郷６丁目８－１６セントラルマンション本郷１０８号室,,13,105,1130033,,,,,,,2025-12-24,1,,,,,スペースワイダイナミクス,0
973,5010003049822,新規,0,2025-12-24,2025-12-24,Ｎｅｗ　ＥＲＡ　Ｄｅｖｅｌｏｐｍｅｎｔ合同会社,,合同会社,東京都,中央区,新川１丁目１７番１８号,,13,102,1040033,,,,,,,2025-12-24,1,,,,,ニューエラディベロップメント,0
989,5010401195301,新規,0,2025-12-24,2025-12-24,Ｎｅｗ　Ｒｅｖｉｖｅ　Ｊａｐａｎ株式会社,,株式会社,東京都,港区,北青山１丁目３番１号アールキューブ青山３階,,13,103,1070061,,,,,,,2025-12-24,1,,,,,ニューリバイブジャパン,0
994,5010403036874,新規,0,2025-12-24,2025-12-24,合同会社Ｓｉｅｔｅ　Ｇｏｔａｓ,,合同会社,東京都,港区,六本木２丁目３番７－６０５号,,13,103,1060032,,,,,,,2025-12-24,1,,,,,シエテゴタス,0
1005,5010701048828,新規,0,2025-12-24,2025-12-24,ＢｉｚＴａｌｅｎｔ株式会社,,株式会社,東京都,品川区,東品川２丁目２－４天王洲ファーストタワー７１８,,13,109,1400002,,,,,,,2025-12-24,1,,,,,ビズタレント,0
1013,5011001174554,新規,0,2025-12-24,2025-12-24,ＲＡＹ株式会社,,株式会社,東京都,渋谷区,神南１丁目１１番４号ＦＰＧリンクス神南５階,,13,113,1500041,,,,,,,2025-12-24,1,,,,,レイ,0
1030,5012303002262,新規,0,2025-12-24,2025-12-24,合同会社サンファースト,,合同会社,東京都,町田市,小山町３３１０番地３１,,13,209,1940212,,,,,,,2025-12-24,1,,,,,サンファースト,0
1033,5012403007533,新規,0,2025-12-24,2025-12-24,合同会社Ｍａｇｎｕｓ,,合同会社,東京都,狛江市,元和泉１丁目５－１７白井方１０２,,13,219,2010013,,,,,,,2025-12-24,1,,,,,マグナス,0
1038,5013305003810,新規,0,2025-12-24,2025-12-24,一般社団法人ライフサポートパートナーズ,,その他の設立登記法人,東京都,豊島区,巣鴨１丁目９－１グランド東邦ビル,,13,116,1700002,,,,,,,2025-12-24,1,,,,,ライフサポートパートナーズ,0
1044,5020001166395,新規,0,2025-12-24,2025-12-24,株式会社いろどり,,株式会社,神奈川県,川崎市中原区,上小田中５丁目２番５－３０３号ラウム武蔵中原,,14,133,2110053,,,,,,,2025-12-24,1,,,,,イロドリ,0
1045,5020001166445,新規,0,2025-12-24,2025-12-24,Ｌｕｘｉａ　Ｈｏｌｄｉｎｇｓ株式会社,,株式会社,神奈川県,横浜市中区,本牧大里町３３番８ー２０８号,,14,104,2310823,,,,,,,2025-12-24,1,,,,,ルクシアホールディングス,0
1046,5020001166461,新規,0,2025-12-24,2025-12-24,光晟商事株式会社,,株式会社,神奈川県,川崎市川崎区,駅前本町１１番地２川崎フロンティアビル４階,,14,131,2100007,,,,,,,2025-12-24,1,,,,,コウセイショウジ,0
1055,5021003016943,新規,0,2025-12-24,2025-12-24,ＮＥＷ　ＶＯＹＡＧＥ合同会社,,合同会社,神奈川県,鎌倉市,西鎌倉１丁目３番２１号,,14,204,2480035,,,,,,,2025-12-24,1,,,,,ニューヴォイエッジ,0
1056,5021003016951,新規,0,2025-12-24,2025-12-24,合同会社Ａｌｉａｎｚａ,,合同会社,神奈川県,厚木市,妻田北３丁目１番１９号,,14,212,2430812,,,,,,,2025-12-24,1,,,,,アリアンサ,0
1057,5021005013492,新規,0,2025-12-24,2025-12-24,Ｃｒｕｘ社会保険労務士法人アーチス,,その他の設立登記法人,神奈川県,足柄上郡中井町,古怒田１１０番地,,14,361,2590146,,,,,,,2025-12-24,1,,,,,クルックスアーチス,0
1058,5021005013501,新規,0,2025-12-24,2025-12-24,一般社団法人いのちの教室,,その他の設立登記法人,神奈川県,藤沢市,片瀬３９０－１０５パークハイム藤沢鵠沼２０５,,14,205,2510032,,,,,,,2025-12-24,1,,,,,イノチノキョウシツ,0
1067,5030001170306,新規,0,2025-12-24,2025-12-24,フォローステップ株式会社,,株式会社,埼玉県,さいたま市緑区,大字中尾１６１５－６,,11,109,3360932,,,,,,,2025-12-24,1,,,,,フォローステップ,0
1068,5030003028345,新規,0,2025-12-24,2025-12-24,合同会社ぽりぽり,,合同会社,埼玉県,さいたま市緑区,馬場１丁目２２番地３,,11,109,3360912,,,,,,,2025-12-24,1,,,,,ポリポリ,0
1072,5040001141693,新規,0,2025-12-24,2025-12-24,株式会社かとたくインテリア,,株式会社,千葉県,東金市,上谷３３３６番４２号,,12,213,2830046,,,,,,,2025-12-24,1,,,,,カトタクインテリア,0
1074,5040003029144,新規,0,2025-12-24,2025-12-24,ガッツファクトリー柏合同会社,,合同会社,千葉県,松戸市,新松戸３丁目７２番関口第１０ビル１０１号室,,12,207,2700034,,,,,,,2025-12-24,1,,,,,ガッツファクトリーカシワ,0
1075,5040003029169,新規,0,2025-12-24,2025-12-24,合同会社Ｃｏｒａｌｉｏ,,合同会社,千葉県,千葉市若葉区,みつわ台２丁目２１番９号Ｂｅｌｐａ－Ｅ１０２号,,12,104,2640032,,,,,,,2025-12-24,1,,,,,コーラリオ,0
1076,5040003029202,新規,0,2025-12-24,2025-12-24,合同会社紫明居ケアサポート,,合同会社,千葉県,柏市,東台本町７番１７号サニーコーポ２０２号,,12,217,2770013,,,,,,,2025-12-24,1,,,,,シメイキョケアサポート,0
1085,5080401028330,新規,0,2025-12-24,2025-12-24,富塚興業株式会社,,株式会社,静岡県,浜松市中央区,田町２２３番地の２１ビオラ田町２階,,22,138,4300944,,,,,,,2025-12-24,1,,,,,トミツカコウギョウ,0
1089,5110003006012,新規,0,2025-12-24,2025-12-24,ＩＬＳＡ合同会社,,合同会社,新潟県,燕市,灰方５９５番地２,,15,213,9591201,,,,,,,2025-12-24,1,,,,,イルサ,0
1097,5120001282496,新規,0,2025-12-24,2025-12-24,株式会社ステラ,,株式会社,大阪府,大阪市西区,南堀江１丁目１４番２９号,,27,106,5500015,,,,,,,2025-12-24,1,,,,,ステラ,0
1098,5120001282991,新規,0,2025-12-24,2025-12-24,株式会社勝,,株式会社,大阪府,守口市,河原町１４番３号,,27,209,5700038,,,,,,,2025-12-24,1,,,,,カツ,0
1101,5120003031546,新規,0,2025-12-24,2025-12-24,合同会社リ・トレジャー,,合同会社,大阪府,門真市,舟田町３２番１号,,27,223,5710021,,,,,,,2025-12-24,1,,,,,リトレジャー,0
1102,5120003031562,新規,0,2025-12-24,2025-12-24,ＡＣＴＩＶＡ合同会社,,合同会社,大阪府,大阪市東淀川区,豊里１丁目１－１５－７０５,,27,114,5330013,,,,,,,2025-12-24,1,,,,,アクティバ,0
1113,5120901052008,新規,0,2025-12-24,2025-12-24,株式会社ＴＰＢ,,株式会社,大阪府,高槻市,北園町３－３,,27,207,5690802,,,,,,,2025-12-24,1,,,,,ティーピービー,0
1115,5122001040025,新規,0,2025-12-24,2025-12-24,株式会社ファミリエ,,株式会社,大阪府,柏原市,法善寺３丁目８６４番地の７,,27,221,5820005,,,,,,,2025-12-24,1,,,,,ファミリエ,0
1118,5130001081286,新規,0,2025-12-24,2025-12-24,株式会社ＦｏｏｄＮｉｃｈｅ,,株式会社,京都府,京都市下京区,七条通油小路東入大黒町２２７番地第２キョートビル４０２,,26,106,6008223,,,,,,,2025-12-24,1,,,,,フードニッチ,0
1134,5180001170010,新規,0,2025-12-24,2025-12-24,株式会社ＫＷスタッフ,,株式会社,愛知県,名古屋市中区,栄１丁目２３番２９号,,23,106,4600008,,,,,,,2025-12-24,1,,,,,ケイダブリュスタッフ,0
1135,5180001170043,新規,0,2025-12-24,2025-12-24,Ｐｒｅｍａ株式会社,,株式会社,愛知県,名古屋市中村区,十王町６番１７号,,23,105,4530035,,,,,,,2025-12-24,1,,,,,プレマ,0
1139,5180003029535,新規,0,2025-12-24,2025-12-24,合同会社理研電具,,合同会社,愛知県,名古屋市昭和区,檀溪通１丁目２０番地,,23,107,4660842,,,,,,,2025-12-24,1,,,,,リケンデング,0
1140,5190001032779,新規,0,2025-12-24,2025-12-24,東海再資源株式会社,,株式会社,三重県,伊賀市,西之澤１３８４番地の６,,24,216,5191426,,,,,,,2025-12-24,1,,,,,トウカイサイシゲン,0
1155,5240003007534,新規,0,2025-12-24,2025-12-24,合同会社にゃいおんず,,合同会社,広島県,呉市,本通５丁目１番３１号,,34,202,7370045,,,,,,,2025-12-24,1,,,,,ニャイオンズ,0
1157,5250001021478,新規,0,2025-12-24,2025-12-24,ヘリテージファミリーオフィス株式会社,,株式会社,山口県,柳井市,柳井津４８９番地,,35,212,7420022,,,,,,,2025-12-24,1,,,,,ヘリテージファミリーオフィス,0
1169,5290003017875,新規,0,2025-12-24,2025-12-24,Ｓａｔｏｓｈｉ　Ｎａｋａｍｏｔｏ合同会社,,合同会社,福岡県,福岡市中央区,今泉１丁目２０番２２号中島ビル３０１号,,40,133,8100021,,,,,,,2025-12-24,1,,,,,サトシナカモト,0
1170,5290005019936,新規,0,2025-12-24,2025-12-24,医療法人泰誉会,,その他の設立登記法人,福岡県,福岡市早良区,西新２丁目７番８号,,40,137,8140002,,,,,,,2025-12-24,1,,,,,タイヨカイ,0
1171,5290803005229,新規,0,2025-12-24,2025-12-24,合同会社Ｊａｓｍｉｎｅ,,合同会社,福岡県,北九州市八幡西区,本城東６丁目９－２６（１０４号）,,40,109,8070815,,,,,,,2025-12-24,1,,,,,ジャスミン,0
1172,5290803005237,新規,0,2025-12-24,2025-12-24,合同会社ｃｅｒｅｊｅｉｒａ,,合同会社,福岡県,北九州市戸畑区,中原西１丁目１３番１６号,,40,105,8040011,,,,,,,2025-12-24,1,,,,,セレジェイラ,0
1174,5310001019895,新規,0,2025-12-24,2025-12-24,株式会社ｕｎｉｔｙ,,株式会社,長崎県,大村市,松並２丁目１１９５番地７,,42,205,8560814,,,,,,,2025-12-24,1,,,,,ユニティ,0
1177,5320001021504,新規,0,2025-12-24,2025-12-24,株式会社Ｋａｗａｎｏ,,株式会社,大分県,大分市,羽屋２丁目２番１３号,,44,201,8700854,,,,,,,2025-12-24,1,,,,,カワノ,0
1182,5330001033861,新規,0,2025-12-24,2025-12-24,株式会社ロジステ,,株式会社,熊本県,熊本市中央区,渡鹿６丁目９－７８スクエア渡鹿Ｃ号室,,43,101,8620970,,,,,,,2025-12-24,1,,,,,ロジステ,0
1198,5380001035770,新規,0,2025-12-24,2025-12-24,株式会社ＲｅＮｕ　Ｉｎｄｕｓｔｒｉｅｓ,,株式会社,福島県,双葉郡大熊町,大字下野上字清水２３０,,07,545,9791308,,,,,,,2025-12-24,1,,,,,リニューインダストリーズ,0
1202,5380005013046,新規,0,2025-12-24,2025-12-24,一般社団法人ｈｉｌｏ,,その他の設立登記法人,福島県,郡山市,富田東３丁目６５,,07,203,9638047,,,,,,,2025-12-24,1,,,,,ヒロ,0
1208,5430001095925,新規,0,2025-12-24,2025-12-24,株式会社ＣＯＮＳＴＲＵＣＴ,,株式会社,北海道,札幌市東区,北四十三条東２丁目１番３２－４０３号,,01,103,0070843,,,,,,,2025-12-24,1,,,,,コンストラクト,0
1220,5480003002362,新規,0,2025-12-24,2025-12-24,合同会社ＳｏｒａＢａｓｅ,,合同会社,徳島県,徳島市,丈六町山根１１－１,,36,201,7714261,,,,,,,2025-12-24,1,,,,,ソラベース,0
1223,5500003003647,新規,0,2025-12-24,2025-12-24,合同会社タルト,,合同会社,愛媛県,松山市,久万ノ台１８８－４－４０３,,38,201,7918016,,,,,,,2025-12-24,1,,,,,タルト,0
1225,5700150133763,新規,0,2025-12-24,2025-12-24,Ｓｈｅｎｚｈｅｎ　Ｙｉｎｇｃｈｅｎｇ　Ｔｅｃｈｎｏｌｏｇｙ　Ｃｏ．，Ｌｔｄ．,,外国会社等,,,,,,,,６Ｃ，Ｂｌｏｃｋ　Ａｑｕａｒｉｕｓ，Ｂｕｉｌｄｉｎｇ　２，Ａｐｐｌｅ　Ｇａｒｄｅｎ，Ｘｉｎｎｉｕ　Ｃｏｍｍｕｎｉｔｙ，Ｍｉｎｚｈｉ　Ｓｔｒｅｅｔ，Ｌｏｎｇｈｕａ　Ｄｉｓｔｒｉｃｔ，Ｓｈｅｎｚｈｅｎ　５１８０００　ＣＮ,,,,,,2025-12-24,1,,,,,シンセンインセンテクノロジーカンパニーリミテッド,0
1226,5700150133771,新規,0,2025-12-24,2025-12-24,ｎａｎｔｏｎｇｍａｏｘｉａｏｍａｏｙｉｙｏｕｘｉａｎｇｏｎｇｓｉ,,外国会社等,,,,,,,,ｃｈｏｎｇｃｈｕａｎｑｕｄａｄａｇｕｏｊｉｓｈａｎｇｙｅｇｕａｎｇｃｈａｎｇ１３ｚｈｕａｎｇ１１２ｓｈｉｎａｎｔｏｎｇｓｈｉｊｉａｎｇｓｕｓｈｅｎｇ,,,,,,2025-12-24,1,,,,,ナントンマオシヤオマオイカンパニーリミテツト,0
1232,6010001261428,新規,0,2025-12-24,2025-12-24,株式会社Ｊ．Ｄ　ｅｎｔｅｒｔａｉｎｍｅｎｔ,,株式会社,東京都,千代田区,神田三崎町３丁目４番１０号２階,,13,101,1010061,,,,,,,2025-12-24,1,,,,,ジェーディーエンターテイメント,0
1233,6010001261519,新規,0,2025-12-24,2025-12-24,ＡＩ　Ｉｎｔｅｌｌｉｇｅｎｃｅ株式会社,,株式会社,東京都,千代田区,神田須田町１丁目７－８,,13,101,1010041,,,,,,,2025-12-24,1,,,,,エーアイインテリジェンス,0
1243,6010103002721,新規,0,2025-12-24,2025-12-24,合同会社ＧＯ,,合同会社,東京都,八王子市,明神町２丁目２０－２ＡＱＵＡレジデンス八王子第５５－２０１号室,,13,201,1920046,,,,,,,2025-12-24,1,,,,,ジーオー,0
1244,6010105002356,新規,0,2025-12-24,2025-12-24,特定非営利活動法人アスキップ,,その他の設立登記法人,東京都,八王子市,下柚木２丁目１０－２,,13,201,1920372,,,,,,,2025-12-24,1,,,,,,0
1247,6010401195283,新規,0,2025-12-24,2025-12-24,株式会社ＨｏｎｅｙＢｅｅ,,株式会社,東京都,港区,南青山３丁目１番３６号青山丸竹ビル６Ｆ,,13,103,1070062,,,,,,,2025-12-24,1,,,,,ハニービー,0
1248,6010401195300,新規,0,2025-12-24,2025-12-24,株式会社こおう,,株式会社,東京都,港区,南青山３丁目１番３６号青山丸竹ビル６Ｆ,,13,103,1070062,,,,,,,2025-12-24,1,,,,,コオウ,0
1249,6010401195432,新規,0,2025-12-24,2025-12-24,エスタティクス株式会社,,株式会社,東京都,港区,南青山３丁目１番３６号青山丸竹ビル６Ｆ,,13,103,1070062,,,,,,,2025-12-24,1,,,,,エスタティクス,0
1250,6010403036857,新規,0,2025-12-24,2025-12-24,合同会社Ｅｓｐｅｒａｎｚａ,,合同会社,東京都,港区,六本木７丁目１４－２,,13,103,1060032,,,,,,,2025-12-24,1,,,,,エスペランサ,0
1251,6010405025172,新規,0,2025-12-24,2025-12-24,一般社団法人みなと０１０,,その他の設立登記法人,東京都,港区,虎ノ門３丁目２２番１０－２０１号,,13,103,1050001,,,,,,,2025-12-24,1,,,,,ミナトゼロワンゼロ,0
1257,6010505003664,新規,0,2025-12-24,2025-12-24,一般社団法人日本中国ワイン協会,,その他の設立登記法人,東京都,台東区,日本堤２丁目３２番５号,,13,106,1110021,,,,,,,2025-12-24,1,,,,,ニホンチュウゴクワインキョウカイ,0
1258,6010505003672,新規,0,2025-12-24,2025-12-24,一般社団法人東京文化ライオンズ,,その他の設立登記法人,東京都,台東区,上野４丁目２番４号,,13,106,1100005,,,,,,,2025-12-24,1,,,,,トウキョウブンカライオンズ,0
1266,6010901058709,新規,0,2025-12-24,2025-12-24,株式会社Ｂｒｉｇｈｔ　Ｃｏｆｆｅｅ,,株式会社,東京都,世田谷区,駒沢４丁目１９番地１２号プレール・ドゥーク駒沢公園７０１,,13,112,1540012,,,,,,,2025-12-24,1,,,,,ブライトコーヒー,0
1274,6011001174330,新規,0,2025-12-24,2025-12-24,株式会社ＨＩｒＯＬＩｎＫ,,株式会社,東京都,渋谷区,恵比寿西２丁目４番８号ウィンド恵比寿ビル８Ｆ,,13,113,1500021,,,,,,,2025-12-24,1,,,,,ヒロリンク,0
1275,6011001174405,新規,0,2025-12-24,2025-12-24,株式会社Ｌｉｂｅｒｔｙ　Ｃｒｅａｔｅ,,株式会社,東京都,渋谷区,渋谷２丁目１９番１５号宮益坂ビルディング６０９,,13,113,1500002,,,,,,,2025-12-24,1,,,,,リバティクリエイト,0
1290,6011603004959,新規,0,2025-12-24,2025-12-24,合同会社マルテル,,合同会社,東京都,練馬区,豊玉北４丁目３１－１２,,13,120,1760012,,,,,,,2025-12-24,1,,,,,マルテル,0
1294,6011801047223,新規,0,2025-12-24,2025-12-24,株式会社集稀,,株式会社,東京都,葛飾区,水元３丁目１９番２０号,,13,122,1250032,,,,,,,2025-12-24,1,,,,,シュウキ,0
1300,6012403007532,新規,0,2025-12-24,2025-12-24,ＳＩＤＤＨＩＶＩＮＡＹＡＫ合同会社,,合同会社,東京都,狛江市,駒井町１丁目１５－１７ラポール狛江２０１号室,,13,219,2010016,,,,,,,2025-12-24,1,,,,,シッディヴィナヤク,0
1304,6013301055490,新規,0,2025-12-24,2025-12-24,株式会社ＫＹＯＤＯリース,,株式会社,東京都,豊島区,東池袋１丁目４４－３池袋ＩＳＰタマビル８Ｆ,,13,116,1700013,,,,,,,2025-12-24,1,,,,,キョードーリース,0
1309,6020001166270,新規,0,2025-12-24,2025-12-24,株式会社Ｄａｌｅ,,株式会社,神奈川県,横浜市保土ケ谷区,仏向町１４１６番地１７,,14,106,2400044,,,,,,,2025-12-24,1,,,,,デール,0
1310,6020001166312,新規,0,2025-12-24,2025-12-24,株式会社ゼロベイト,,株式会社,神奈川県,横浜市西区,北幸２丁目１０番４８号むつみビル３階,,14,103,2200004,,,,,,,2025-12-24,1,,,,,ゼロベイト,0
1311,6020001166428,新規,0,2025-12-24,2025-12-24,株式会社ＣＤＳ,,株式会社,神奈川県,川崎市川崎区,砂子２丁目４番１７号ＫａｗａｓａｋｉＲｅｓｉｄｅｎｃｅＣａｓｓｉａ５０２,,14,131,2100006,,,,,,,2025-12-24,1,,,,,シーディーエス,0
1329,6040001141866,新規,0,2025-12-24,2025-12-24,隆和工業株式会社,,株式会社,千葉県,千葉市花見川区,幕張町５丁目３６５番地１Ｖｉｓｔａ幕張２０５,,12,102,2620032,,,,,,,2025-12-24,1,,,,,リュウワコウギョウ,0
1334,6050003009813,新規,0,2025-12-24,2025-12-24,合同会社ヨシキエンジニアリング,,合同会社,茨城県,つくば市,二の宮２丁目２番地３パークサイドマンション１１２号,,08,220,3050051,,,,,,,2025-12-24,1,,,,,ヨシキエンジニアリング,0
1336,6060003005902,新規,0,2025-12-24,2025-12-24,合同会社ＳＥＲＥＮＡ,,合同会社,栃木県,下都賀郡壬生町,表町１６番地６２ハイツＺＺ２０２号室,,09,361,3210224,,,,,,,2025-12-24,1,,,,,セレナ,0
1343,6080401028346,新規,0,2025-12-24,2025-12-24,ＹＰＫ株式会社,,株式会社,静岡県,磐田市,国府台７番地８,,22,211,4380077,,,,,,,2025-12-24,1,,,,,ワイピーケイ,0
1355,6120001282900,新規,0,2025-12-24,2025-12-24,株式会社Ｒｅｂｉｒｔｈ,,株式会社,大阪府,大阪市北区,同心２丁目１３－１８ノンデンハイム同心５０２号室,,27,127,5300035,,,,,,,2025-12-24,1,,,,,リバース,0
1356,6120001282999,新規,0,2025-12-24,2025-12-24,ビジレンホールディングス株式会社,,株式会社,大阪府,大阪市北区,大淀南１丁目１０番９号,,27,127,5310075,,,,,,,2025-12-24,1,,,,,ビジレンホールディングス,0
1357,6120001283007,新規,0,2025-12-24,2025-12-24,株式会社ブミプトラ・ジャパン,,株式会社,大阪府,大阪市中央区,安堂寺町２丁目３番５号第１８松屋ビル３０１号,,27,128,5420061,,,,,,,2025-12-24,1,,,,,ブミプトラジャパン,0
1359,6120003031529,新規,0,2025-12-24,2025-12-24,合同会社ＣＴ２,,合同会社,大阪府,大阪市西区,新町１丁目５番７号,,27,106,5500013,,,,,,,2025-12-24,1,,,,,シーティーツー,0
1360,6120103006901,新規,0,2025-12-24,2025-12-24,ＩＮＪ合同会社,,合同会社,大阪府,貝塚市,地藏堂１６７－４,,27,208,5970053,,,,,,,2025-12-24,1,,,,,アイエヌジェー,0
1361,6120901052023,新規,0,2025-12-24,2025-12-24,株式会社細川住設,,株式会社,大阪府,吹田市,南吹田３丁目１５番地４,,27,205,5640043,,,,,,,2025-12-24,1,,,,,ホソカワジュウセツ,0
1362,6120903006010,新規,0,2025-12-24,2025-12-24,合同会社ＪＰＳ,,合同会社,大阪府,豊中市,若竹町１丁目４―１０―６,,27,203,5610811,,,,,,,2025-12-24,1,,,,,ジェイピーエス,0
1367,6130001081252,新規,0,2025-12-24,2025-12-24,株式会社ＲＩＳＥ　ＯＦ　ＳＵＮ,,株式会社,京都府,綴喜郡宇治田原町,大字禅定寺小字庄地４２番地の１,,26,344,6100201,,,,,,,2025-12-24,1,,,,,ライズオブサン,0
1382,6180001170026,新規,0,2025-12-24,2025-12-24,株式会社コールミー,,株式会社,愛知県,名古屋市南区,鶴田２丁目５番Ｅ１－１０６号鶴田荘,,23,112,4570003,,,,,,,2025-12-24,1,,,,,コールミー,0
1389,6190001032778,新規,0,2025-12-24,2025-12-24,金森電工株式会社,,株式会社,三重県,三重郡朝日町,大字柿３１４６番地,,24,343,5108103,,,,,,,2025-12-24,1,,,,,カナモリデンコウ,0
1390,6190003005303,新規,0,2025-12-24,2025-12-24,合同会社和心リンク,,合同会社,三重県,鈴鹿市,平田新町２番４１号ガーネット２０７号,,24,207,5130845,,,,,,,2025-12-24,1,,,,,ワゴコロリンク,0
1391,6200001044540,新規,0,2025-12-24,2025-12-24,株式会社リンクス,,株式会社,岐阜県,本巣市,三橋２丁目１０３番地,,21,218,5010406,,,,,,,2025-12-24,1,,,,,リンクス,0
1394,6200003007181,新規,0,2025-12-24,2025-12-24,林田工業合同会社,,合同会社,岐阜県,恵那市,長島町永田３７３番地３大洞５１住宅１２６号,,21,210,5097204,,,,,,,2025-12-24,1,,,,,ハヤシダコウギョウ,0
1402,6240001065962,新規,0,2025-12-24,2025-12-24,山根みのる建築工房株式会社,,株式会社,広島県,呉市,海岸２丁目９番１６号,,34,202,7370823,,,,,,,2025-12-24,1,,,,,ヤマネミノルケンチクコウボウ,0
1410,6280003002019,新規,0,2025-12-24,2025-12-24,合同会社小林環境安全支援室,,合同会社,島根県,益田市,久城町２６７番地６,,32,204,6980001,,,,,,,2025-12-24,1,,,,,コバヤシカンキョウアンゼンシエンシツ,0
1417,6290005019935,新規,0,2025-12-24,2025-12-24,一般社団法人ケアライブ,,その他の設立登記法人,福岡県,飯塚市,長尾２２番地１０９,,40,205,8200701,,,,,,,2025-12-24,1,,,,,ケアライブ,0
1418,6290005019943,新規,0,2025-12-24,2025-12-24,ＪＤＩＰファンド九州１号特定目的会社,,その他の設立登記法人,福岡県,福岡市中央区,天神１丁目１３番２号,,40,133,8100001,,,,,,,2025-12-24,1,,,,,ジェイディーアイピーファンドキュウシュウイチゴウ,0
1420,6310001019894,新規,0,2025-12-24,2025-12-24,株式会社ハシモト企画,,株式会社,長崎県,雲仙市,国見町多比良乙２８０番地,,42,213,8591322,,,,,,,2025-12-24,1,,,,,ハシモトキカク,0
1423,6330001033860,新規,0,2025-12-24,2025-12-24,飛世株式会社,,株式会社,熊本県,熊本市南区,城南町隈庄３５０－１,,43,104,8614203,,,,,,,2025-12-24,1,,,,,トビセ,0
1425,6340001027861,新規,0,2025-12-24,2025-12-24,株式会社みちたび,,株式会社,鹿児島県,姶良市,中津野４１３番地,,46,225,8995402,,,,,,,2025-12-24,1,,,,,ミチタビ,0
1431,6370001053335,新規,0,2025-12-24,2025-12-24,株式会社輝くえん・そらえと,,株式会社,宮城県,仙台市宮城野区,小鶴字羽山８０番１,,04,102,9830031,,,,,,,2025-12-24,1,,,,,カガヤクエンソラエト,0
1434,6380003006216,新規,0,2025-12-24,2025-12-24,合同会社ヤギちゃんネオンサイン,,合同会社,福島県,岩瀬郡鏡石町,蒲之沢町２４５番地１,,07,342,9690401,,,,,,,2025-12-24,1,,,,,ヤギチャンネオンサイン,0
1438,6400001017261,新規,0,2025-12-24,2025-12-24,ＩＵＲ株式会社,,株式会社,岩手県,滝沢市,葉の木沢山５５５－５,,03,216,0200625,,,,,,,2025-12-24,1,,,,,アイユーアール,0
1445,6430001095882,新規,0,2025-12-24,2025-12-24,ＲＩＲ株式会社,,株式会社,北海道,岩見沢市,岡山町１８番地９,,01,210,0790181,,,,,,,2025-12-24,1,,,,,アールアイアール,0
1446,6430001095932,新規,0,2025-12-24,2025-12-24,株式会社ＳＴＯＲＹ,,株式会社,北海道,札幌市中央区,南二条西５丁目３１－１ＲＭＢｌｄ．７０１,,01,101,0600062,,,,,,,2025-12-24,1,,,,,ストーリー,0
1452,6480003002361,新規,0,2025-12-24,2025-12-24,ＳＨＩＮＥ合同会社,,合同会社,徳島県,美馬市,脇町字拝原２７４５－１．２Ｆ,,36,207,7793601,,,,,,,2025-12-24,1,,,,,,0
1458,6700150133762,新規,0,2025-12-24,2025-12-24,Ｆｕｊｉａｎ　Ｊｏｙｕｓｉｎｇ　Ｔｅｃｈｎｏｌｏｇｙ　Ｃｏ．，Ｌｔｄ,,外国会社等,,,,,,,,Ｍｉｎｈｏｕ　Ｘｉａｎ　Ｎａｎｙｕ　Ｚｈｅｎ　Ｙａｏｘｉ　Ｌｕ　３　ｈａｏ　Ｗｕｈａｏ　Ｃｈａｎｇｆａｎｇ　４　Ｃｅｎｇ　Ｘｉｃｅ　４０１　Ｄａｎｙｕａｎ　Ｆｕｊｉａｎ　Ｓｈｅｎｇ　ＣＮ　３５０１０９,,,,,,2025-12-24,1,,,,,フジェンジョイユーシングテクノロジーカンパニーリミテッド,0
1459,6700150133770,新規,0,2025-12-24,2025-12-24,ＨａｎｇｚｈｏｕＷａｎｆｅｎｇＳｈａｎｇｍａｏＹｏｕｘｉａｎＧｏｎｇｓｉ,,外国会社等,,,,,,,,Ｒｍ２３６，２Ｆ，ＵｎｉｔＥ，Ｂｌｏｃｋ２，Ｎｏ．６８８ＢｉｎａｎＲｄ，ＣｈａｎｇｈｅＳｔｒｅｅｔ，Ｂｉｎｊｉａｎｇ，Ｈａｎｇｚｈｏｕ,,,,,,2025-12-24,1,,,,,コウシユウワンフエンシヤンマオカンパニーリミテツド,0
1460,6700150133779,新規,0,2025-12-24,2025-12-24,ライオン健康保険組合,,その他,東京都,台東区,蔵前１丁目３番２８号,,13,106,1110051,,,,,,,2025-12-24,1,,,,,ライオンケンコウホケンクミアイ,0
1475,7010001261253,新規,0,2025-12-24,2025-12-24,株式会社Ｊａｐａｎ　Ａｎｉｍａｌ　Ｃａｒｅ　Ｈｏｌｄｉｎｇｓ,,株式会社,東京都,千代田区,丸の内１丁目９番２号,,13,101,1000005,,,,,,,2025-12-24,1,,,,,ジャパンアニマルケアホールディングス,0
1476,7010001261328,新規,0,2025-12-24,2025-12-24,株式会社Ｃ＆Ｋコーポレーション,,株式会社,東京都,千代田区,神田小川町３丁目１１番Ｅ／Ｆｒｏｎｔビル６階,,13,101,1010052,,,,,,,2025-12-24,1,,,,,シーアンドケイコーポレーション,0
1477,7010001261377,新規,0,2025-12-24,2025-12-24,ＬｉＮｉ株式会社,,株式会社,東京都,中央区,銀座１丁目２２番１１号銀座大竹ビジデンス２Ｆ,,13,102,1040061,,,,,,,2025-12-24,1,,,,,リニ,0
1487,7010005041115,新規,0,2025-12-24,2025-12-24,ＮＰＯ法人教育実践研究会,,その他の設立登記法人,東京都,中央区,晴海１丁目６番１－３７０７号室,,13,102,1040053,,,,,,,2025-12-24,1,,,,,キョウイクジッセンケンキュウカイ,0
1488,7010103002720,新規,0,2025-12-24,2025-12-24,ＲＳＫアセット合同会社,,合同会社,東京都,八王子市,久保山町２丁目３９番地９,,13,201,1920023,,,,,,,2025-12-24,1,,,,,アールエスケイアセット,0
1494,7010401195407,新規,0,2025-12-24,2025-12-24,Ｌｉｆｅ　Ｉｎｎｏｖａｔｉｏｎ　Ｈｏｌｄｉｎｇｓ株式会社,,株式会社,東京都,港区,南青山４丁目１５番２９号,,13,103,1070062,,,,,,,2025-12-24,1,,,,,ライフイノベーションホールディングス,0
1498,7010405025122,新規,0,2025-12-24,2025-12-24,一般社団法人生涯あんしん保証協会,,その他の設立登記法人,東京都,港区,芝大門２丁目１０番７号,,13,103,1050012,,,,,,,2025-12-24,1,,,,,ショウガイアンシンホショウキョウカイ,0
1508,7010505003671,新規,0,2025-12-24,2025-12-24,一般財団法人山櫻会,,その他の設立登記法人,東京都,台東区,東上野１丁目１８番６号タカラ第三ビル２Ｆ,,13,106,1100015,,,,,,,2025-12-24,1,,,,,サンオウカイ,0
1517,7010901058682,新規,0,2025-12-24,2025-12-24,株式会社青葉会,,株式会社,東京都,世田谷区,桜上水１丁目１７番２１号,,13,112,1560045,,,,,,,2025-12-24,1,,,,,アオバカイ,0
1535,7011101114136,新規,0,2025-12-24,2025-12-24,グレイシス株式会社,,株式会社,東京都,新宿区,西新宿３丁目３番１３号西新宿水間ビル６階,,13,104,1600023,,,,,,,2025-12-24,1,,,,,グレイシス,0
1539,7011503006815,新規,0,2025-12-24,2025-12-24,合同会社ヒーローズ,,合同会社,東京都,荒川区,南千住５丁目３７番６号,,13,118,1160003,,,,,,,2025-12-24,1,,,,,ヒーローズ,0
1560,7020001166427,新規,0,2025-12-24,2025-12-24,株式会社プレティオラス,,株式会社,神奈川県,横浜市西区,浅間町１丁目４番３号ウィザードビル４０２,,14,103,2200072,,,,,,,2025-12-24,1,,,,,プレティオラス,0
1564,7020003030044,新規,0,2025-12-24,2025-12-24,合同会社スマイルデジタル,,合同会社,神奈川県,川崎市川崎区,昭和１丁目５番２３－３０５号ライオンズマンション川崎大師第３,,14,131,2100813,,,,,,,2025-12-24,1,,,,,スマイルデジタル,0
1565,7021001087118,新規,0,2025-12-24,2025-12-24,株式会社エコアクティブ,,株式会社,神奈川県,藤沢市,大庭５５６４番地の５,,14,205,2510861,,,,,,,2025-12-24,1,,,,,エコアクティブ,0
1566,7021003016917,新規,0,2025-12-24,2025-12-24,合同会社ＬＵＣＫＹ,,合同会社,神奈川県,藤沢市,善行３丁目１５番地の４６,,14,205,2510871,,,,,,,2025-12-24,1,,,,,ラッキー,0
1579,7040001141907,新規,0,2025-12-24,2025-12-24,株式会社後藤建材,,株式会社,千葉県,白井市,神々廻８７５番地の３,,12,232,2701416,,,,,,,2025-12-24,1,,,,,ゴトウケンザイ,0
1580,7040003029175,新規,0,2025-12-24,2025-12-24,合同会社Ｋ　ＳＥＲＥＮＩＴＹ旅行日本,,合同会社,千葉県,四街道市,大日１００５番地７,,12,228,2840001,,,,,,,2025-12-24,1,,,,,ケイセレニティリョコウニッポン,0
1589,7060003005901,新規,0,2025-12-24,2025-12-24,合同会社ズハイル幸福コーポレーション,,合同会社,栃木県,栃木市,藤岡町藤岡１８０４番地２－１０１,,09,203,3231104,,,,,,,2025-12-24,1,,,,,ズハイルコウフクコーポレーション,0
1592,7080401028337,新規,0,2025-12-24,2025-12-24,株式会社Ｓｅｍｅａｄｏｒ,,株式会社,静岡県,浜松市中央区,三島町１５０３番地,,22,138,4300853,,,,,,,2025-12-24,1,,,,,セメアドール,0
1595,7100001039186,新規,0,2025-12-24,2025-12-24,株式会社片倉兼太郎商会,,株式会社,長野県,諏訪市,湯の脇１丁目９－１,,20,206,3920002,,,,,,,2025-12-24,1,,,,,カタクラカネタロウショウカイ,0
1596,7100001039211,新規,0,2025-12-24,2025-12-24,株式会社Ｓｉｍｐｌｅ．,,株式会社,長野県,松本市,大字島立１０５４－１５吉沢ビル１０３号室,,20,202,3900852,,,,,,,2025-12-24,1,,,,,シンプル,0
1609,7120001282998,新規,0,2025-12-24,2025-12-24,ＴＢＪ・Ｉｎｖｅｓｔｍｅｎｔ株式会社,,株式会社,大阪府,大阪市北区,西天満４丁目３番１号,,27,127,5300047,,,,,,,2025-12-24,1,,,,,ティービージェイインベストメント,0
1610,7120001283006,新規,0,2025-12-24,2025-12-24,株式会社ＲｅｉＨａｗｋ,,株式会社,大阪府,大阪市北区,梅田１丁目２番２号大阪駅前第２ビル１２－１２,,27,127,5300001,,,,,,,2025-12-24,1,,,,,レイホーク,0
1613,7120003031528,新規,0,2025-12-24,2025-12-24,合同会社ＣＴ‐１,,合同会社,大阪府,大阪市西区,新町１丁目５番７号,,27,106,5500013,,,,,,,2025-12-24,1,,,,,シーティーワン,0
1624,7120901052014,新規,0,2025-12-24,2025-12-24,株式会社ＯＲＩＡ,,株式会社,大阪府,吹田市,津雲台３丁目４番Ａ２２－１００１号,,27,205,5650862,,,,,,,2025-12-24,1,,,,,オリア,0
1632,7140001141211,新規,0,2025-12-24,2025-12-24,株式会社ウェルネクサス,,株式会社,兵庫県,尼崎市,西難波町４丁目６－３０－２１３,,28,202,6600893,,,,,,,2025-12-24,1,,,,,ウェルネクサス,0
1646,7180001170009,新規,0,2025-12-24,2025-12-24,株式会社加藤ホールディングス,,株式会社,愛知県,半田市,花園町６丁目２８番地の１０,,23,205,4750833,,,,,,,2025-12-24,1,,,,,カトウホールディングス,0
1647,7180001170025,新規,0,2025-12-24,2025-12-24,ＳＥＡ　ＲＥＭＥＭＢＥＲ株式会社,,株式会社,愛知県,常滑市,大谷字道向６６番地の５,,23,216,4790806,,,,,,,2025-12-24,1,,,,,シーリメンバー,0
1651,7180003029525,新規,0,2025-12-24,2025-12-24,合同会社アムライズ,,合同会社,愛知県,名古屋市西区,上名古屋３丁目２２番６号,,23,104,4510025,,,,,,,2025-12-24,1,,,,,アムライズ,0
1656,7180301040539,新規,0,2025-12-24,2025-12-24,株式会社ＹＭＳ,,株式会社,愛知県,豊田市,八幡町３丁目７番地１アクアフィールド１０５,,23,211,4710861,,,,,,,2025-12-24,1,,,,,,0
1664,7240001065953,新規,0,2025-12-24,2025-12-24,株式会社Ｍｉｒａｙｄｉａ,,株式会社,広島県,広島市南区,宇品海岸２丁目２３番３６号４０３,,34,103,7340011,,,,,,,2025-12-24,1,,,,,ミライディア,0
1666,7250003003869,新規,0,2025-12-24,2025-12-24,合同会社アオテック,,合同会社,山口県,宇部市,明神町２丁目９－２７,,35,202,7550008,,,,,,,2025-12-24,1,,,,,,0
1677,7290001112619,新規,0,2025-12-24,2025-12-24,株式会社みどりとリキ,,株式会社,福岡県,福岡市中央区,大名１丁目６番１３号２Ｆ,,40,133,8100041,,,,,,,2025-12-24,1,,,,,ミドリトリキ,0
1678,7290005019934,新規,0,2025-12-24,2025-12-24,医療法人たまえ耳鼻咽喉科,,その他の設立登記法人,福岡県,宗像市,平井１丁目１－３７,,40,220,8113430,,,,,,,2025-12-24,1,,,,,タマエジビインコウカ,0
1679,7290803005235,新規,0,2025-12-24,2025-12-24,合同会社Ｓｙｍｐｈｏｎｙ　ｆｏｏｄｓ,,合同会社,福岡県,中間市,大辻町２－１,,40,215,8090026,,,,,,,2025-12-24,1,,,,,シンフォニーフーズ,0
1682,7320005010278,新規,0,2025-12-24,2025-12-24,ＮＰＯ法人笑顔の種おおいた,,その他の設立登記法人,大分県,豊後高田市,加礼川６３５番地,,44,209,8790721,,,,,,,2025-12-24,1,,,,,エガオノタネオオイタ,0
1683,7330003011368,新規,0,2025-12-24,2025-12-24,合同会社ｆｕｔｕｒｅ　ｓｋｙ,,合同会社,熊本県,菊池郡菊陽町,大字津久礼２６９２番地４プラネスト菊陽ＩＩ６０１号,00141987,43,404,8691101,,,,,,,2025-12-24,1,,,,,フューチャースカイ,0
1689,7360001036182,新規,0,2025-12-24,2025-12-24,株式会社ＨＩＳＨＩＮ　ＪＡＰＡＮ　ＴＲＡＶＥＬ,,株式会社,沖縄県,糸満市,字武富土地区画整理組合保留地８街区１０画地,,47,210,9010311,,,,,,,2025-12-24,1,,,,,ヒシンジャパントラベル,0
1692,7370003007429,新規,0,2025-12-24,2025-12-24,合同会社ＫＴＢ,,合同会社,宮城県,仙台市若林区,新寺３丁目７番４０－４０２号,,04,103,9840051,,,,,,,2025-12-24,1,,,,,ケーティービー,0
1696,7380001035760,新規,0,2025-12-24,2025-12-24,株式会社ＦＬＩＧＨＴ　ＷＯＲＫＳ,,株式会社,福島県,郡山市,田村町谷田川字石塚２番地の１,,07,203,9631246,,,,,,,2025-12-24,1,,,,,フライトワークス,0
1697,7380003006215,新規,0,2025-12-24,2025-12-24,合同会社ＳＡＫＵＲＡ,,合同会社,福島県,郡山市,朝日２丁目１１番８－１０８号,,07,203,9638024,,,,,,,2025-12-24,1,,,,,サクラ,0
1700,7400001017260,新規,0,2025-12-24,2025-12-24,山口電子株式会社,,株式会社,岩手県,下閉伊郡山田町,荒川第１０地割４５番地,,03,482,0281303,,,,,,,2025-12-24,1,,,,,ヤマグチデンシ,0
1702,7410001014348,新規,0,2025-12-24,2025-12-24,秋田活版印刷株式会社,,株式会社,秋田県,秋田市,山王臨海町１番１号,,05,201,0100956,,,,,,,2025-12-24,1,,,,,アキタカッパンインサツ,0
1706,7430001095915,新規,0,2025-12-24,2025-12-24,株式会社グランソレイユ,,株式会社,北海道,札幌市中央区,南二十一条西１２丁目１番２５号,,01,101,0640921,,,,,,,2025-12-24,1,,,,,グランソレイユ,0
1707,7430001095923,新規,0,2025-12-24,2025-12-24,株式会社山道機械店,,株式会社,北海道,小樽市,梅ケ枝町１０番１８号,,01,203,0470044,,,,,,,2025-12-24,1,,,,,ヤマミチキカイテン,0
1708,7430001095931,新規,0,2025-12-24,2025-12-24,株式会社ルナクル,,株式会社,北海道,札幌市清田区,北野二条１丁目３番４５号,,01,110,0040862,,,,,,,2025-12-24,1,,,,,ルナクル,0
1710,7430003018444,新規,0,2025-12-24,2025-12-24,合同会社０１,,合同会社,北海道,札幌市豊平区,平岸二条１２丁目５番１７‐１１０５号室,,01,105,0620932,,,,,,,2025-12-24,1,,,,,ゼロワン,0
1711,7430005015373,新規,0,2025-12-24,2025-12-24,北斗ＭＳ税理士法人,,その他の設立登記法人,北海道,札幌市中央区,北一条西７丁目３番地北１条大和田ビル６階Ｆ室,,01,101,0600001,,,,,,,2025-12-24,1,,,,,ホクトエムエス,0
1714,7460101007791,新規,0,2025-12-24,2025-12-24,株式会社田畑産業,,株式会社,北海道,足寄郡足寄町,上利別本町４番地２,,01,647,0894141,,,,,,,2025-12-24,1,,,,,タバタサンギョウ,0
1715,7470001011158,新規,0,2025-12-24,2025-12-24,株式会社乙井建設,,株式会社,香川県,さぬき市,津田町津田１５９３番地３,,37,206,7692401,,,,,,,2025-12-24,1,,,,,オトイケンセツ,0
1720,7500001026689,新規,0,2025-12-24,2025-12-24,悠遊四国株式会社,,株式会社,愛媛県,松山市,枝松４丁目７番６号,,38,201,7900962,,,,,,,2025-12-24,1,,,,,ユウユウシコク,0
1724,7700150133761,新規,0,2025-12-24,2025-12-24,Ｇｕａｎｇｚｈｏｕ　Ｔｏｎｇｚｈｏｕ　Ｉｎｄｕｓｔｒｉａｌ　Ｃｏ．，ＬＴＤ,,外国会社等,,,,,,,,Ｒｏｏｍ　９０５，Ｎｏ．１０１，Ｄｅｘｉｎｇ　Ｒｏａｄ，Ｗａｎｇｇａｎｇ，Ｊｉａｈｅ　Ｓｔｒｅｅｔ，Ｂａｉｙｕｎ　Ｄｉｓｔｒｉｃｔ，Ｇｕａｎｇｚｈｏｕ　Ｃｉｔｙ　５５００００　ＣＮ,,,,,,2025-12-24,1,,,,,グアンジョウトンヂョウインダストリアルカンパニーリミテッド,0
1725,7700150133778,新規,0,2025-12-24,2025-12-24,住友大阪セメント健康保険組合,,その他,東京都,港区,東新橋１丁目９番２号,,13,103,1050021,,,,,,,2025-12-24,1,,,,,スミトモオオサカセメントケンコウホケンクミアイ,0
1728,8010001261434,新規,0,2025-12-24,2025-12-24,株式会社ＫＮＤ５,,株式会社,東京都,千代田区,紀尾井町４番１号ニューオータニガーデンコート９階,,13,101,1020094,,,,,,,2025-12-24,1,,,,,ケイエヌディーファイブ,0
1730,8010005041114,新規,0,2025-12-24,2025-12-24,一般社団法人日本希少疾患研究基金,,その他の設立登記法人,東京都,中央区,日本橋本町２丁目３番１１号,,13,102,1030023,,,,,,,2025-12-24,1,,,,,ニホンキショウシッカンケンキュウキキン,0
1731,8010005041122,新規,0,2025-12-24,2025-12-24,一般社団法人国際すし文化・技術認証機構,,その他の設立登記法人,東京都,中央区,銀座１丁目２８番１１－１１０５号セントラル銀座,,13,102,1040061,,,,,,,2025-12-24,1,,,,,コクサイスシブンカギジュツニンショウキコウ,0
1732,8010101017018,新規,0,2025-12-24,2025-12-24,伊藤幸彦建築設計事務所株式会社,,株式会社,東京都,八王子市,鑓水２丁目８２番地６－９０６,,13,201,1920375,,,,,,,2025-12-24,1,,,,,イトウサチヒコケンチクセッケイジムショ,0
1737,8010401195406,新規,0,2025-12-24,2025-12-24,株式会社ＭＯＵＳＥ,,株式会社,東京都,港区,南麻布４丁目９番３４－６０２号,,13,103,1060047,,,,,,,2025-12-24,1,,,,,マウス,0
1738,8010403036913,新規,0,2025-12-24,2025-12-24,ＡＲＫＴＯＮＥ合同会社,,合同会社,東京都,港区,高輪３丁目１４番３１―１１０１号,,13,103,1080074,,,,,,,2025-12-24,1,,,,,アークトーン,0
1739,8010405025121,新規,0,2025-12-24,2025-12-24,一般社団法人生涯あんしんセンター,,その他の設立登記法人,東京都,港区,芝大門２丁目１０番７号,,13,103,1050012,,,,,,,2025-12-24,1,,,,,ショウガイアンシンセンター,0
1763,8011305003084,新規,0,2025-12-24,2025-12-24,一般社団法人中小企業ＡＩ経営協会,,その他の設立登記法人,東京都,杉並区,下高井戸１丁目１１番１５号,,13,115,1680073,,,,,,,2025-12-24,1,,,,,チュウショウキギョウエーアイケイエイキョウカイ,0
1767,8011601029270,新規,0,2025-12-24,2025-12-24,株式会社ＨＥ‐ＬＯＷ　ＷＯＲＫＳ,,株式会社,東京都,練馬区,田柄３丁目１１番２０号,,13,120,1790073,,,,,,,2025-12-24,1,,,,,ヒーロウワークス,0
1781,8012403007530,新規,0,2025-12-24,2025-12-24,合同会社ＴＲＩＬＩＮＫ,,合同会社,東京都,府中市,天神町１丁目５－２２,,13,206,1830053,,,,,,,2025-12-24,1,,,,,トライリンク,0
1783,8013301055497,新規,0,2025-12-24,2025-12-24,株式会社シンタックスワン,,株式会社,東京都,豊島区,東池袋２丁目６２番地８号ＢＩＧオフィスプラザ池袋１２０６,,13,116,1700013,,,,,,,2025-12-24,1,,,,,シンタックスワン,0
1795,8021001087125,新規,0,2025-12-24,2025-12-24,株式会社プロップドックス,,株式会社,神奈川県,藤沢市,鵠沼１５８０番地の１藤沢鵠沼ホームズ３０５号,00142003,14,205,2510022,,,,,,,2025-12-24,1,,,,,プロップドックス,0
1800,8021005013498,新規,0,2025-12-24,2025-12-24,医療法人光風会,,その他の設立登記法人,神奈川県,藤沢市,鵠沼藤が谷２丁目７番２１号１階,,14,205,2510031,,,,,,,2025-12-24,1,,,,,コウフウカイ,0
1805,8030001170154,新規,0,2025-12-24,2025-12-24,株式会社Ｙ．ｓｅｌｅｃｔｉｏｎ,,株式会社,埼玉県,狭山市,大字上奥富１１６番地の９,,11,215,3501333,,,,,,,2025-12-24,1,,,,,ワイセレクション,0
1806,8030001170294,新規,0,2025-12-24,2025-12-24,株式会社イハシアグリカルチャー,,株式会社,埼玉県,吉川市,三輪野江１丁目８０番１,,11,243,3420027,,,,,,,2025-12-24,1,,,,,イハシアグリカルチャー,0
1807,8030001170303,新規,0,2025-12-24,2025-12-24,株式会社Ｓｅｒｅｎｔｙ,,株式会社,埼玉県,さいたま市南区,別所５丁目１５－２,,11,108,3360021,,,,,,,2025-12-24,1,,,,,セレンティ,0
1810,8030003028342,新規,0,2025-12-24,2025-12-24,合同会社ＳＵ,,合同会社,埼玉県,さいたま市緑区,宮本２丁目１８番地３８,,11,109,3360916,,,,,,,2025-12-24,1,,,,,エスユー,0
1814,8040001141781,新規,0,2025-12-24,2025-12-24,株式会社まちとこれから,,株式会社,千葉県,松戸市,二ツ木２００１－１４,,12,207,2700027,,,,,,,2025-12-24,1,,,,,マチトコレカラ,0
1815,8040001141914,新規,0,2025-12-24,2025-12-24,ＮＵＴＲＥＶＯ株式会社,,株式会社,千葉県,佐倉市,ユーカリが丘４丁目１番１号スカイプラザ・モール３Ｆ,,12,212,2850858,,,,,,,2025-12-24,1,,,,,ニュートレボ,0
1823,8060001038877,新規,0,2025-12-24,2025-12-24,アイビーデザイン株式会社,,株式会社,栃木県,栃木市,大平町西水代３５１４番地３メゾン柏２０３号室,,09,203,3294423,,,,,,,2025-12-24,1,,,,,アイビーデザイン,0
1827,8070003006229,新規,0,2025-12-24,2025-12-24,合同会社Ｍｅｄ　Ｌｉｎｅ　Ｉｎｔｅｒｎａｔｉｏｎａｌ,,合同会社,群馬県,太田市,下浜田町１７９番地４リバーサイドホーム下浜田１０３号,,10,205,3730821,,,,,,,2025-12-24,1,,,,,メジライネインターナショナル,0
1835,8090003002952,新規,0,2025-12-24,2025-12-24,合同会社総合画材ぺきん堂,,合同会社,山梨県,甲府市,中央２丁目９番１８号,,19,201,4000032,,,,,,,2025-12-24,1,,,,,ソウゴウガザイペキンドウ,0
1836,8100003008535,新規,0,2025-12-24,2025-12-24,合同会社セルフビルドパートナーズ,,合同会社,長野県,北佐久郡軽井沢町,大字長倉１２３８－１,,20,321,3890111,,,,,,,2025-12-24,1,,,,,セルフビルドパートナーズ,0
1838,8110005017302,新規,0,2025-12-24,2025-12-24,一般社団法人糸魚川ふれあい基金,,その他の設立登記法人,新潟県,糸魚川市,大字今村新田６６６番地,,15,216,9490302,,,,,,,2025-12-24,1,,,,,イトイガワフレアイキキン,0
1850,8120001282972,新規,0,2025-12-24,2025-12-24,グレイス・コンサルティング株式会社,,株式会社,大阪府,大阪市福島区,福島３丁目１‐６１リバーサイドタワー中之島１１０４,,27,103,5530003,,,,,,,2025-12-24,1,,,,,グレイスコンサルティング,0
1851,8120001282997,新規,0,2025-12-24,2025-12-24,株式会社スポーツフィールド京都,,株式会社,大阪府,大阪市都島区,善源寺町１丁目５番４５号ＭＧ都島ビル５０２号,,27,102,5340015,,,,,,,2025-12-24,1,,,,,スポーツフィールドキョウト,0
1852,8120001283013,新規,0,2025-12-24,2025-12-24,株式会社ＩＤＥＸＩＡＬ,,株式会社,大阪府,大阪市北区,大淀南２丁目２番４３－９０６号,,27,127,5310075,,,,,,,2025-12-24,1,,,,,イデシアル,0
1857,8120901052013,新規,0,2025-12-24,2025-12-24,株式会社Ａｃｈｔ,,株式会社,大阪府,箕面市,小野原東６丁目１５番３９号,,27,220,5620031,,,,,,,2025-12-24,1,,,,,アハト,0
1858,8120901052021,新規,0,2025-12-24,2025-12-24,株式会社ＢＯＤＡＬＥＳＳ,,株式会社,大阪府,高槻市,庄所町１－２１・３Ｆ,,27,207,5690064,,,,,,,2025-12-24,1,,,,,ボダレス,0
1862,8130001081275,新規,0,2025-12-24,2025-12-24,株式会社ＫＩＮＫＡＺＵ　Ｃｅｌｌａｒ,,株式会社,京都府,京都市西京区,桂久方町６２番地８,,26,111,6158016,,,,,,,2025-12-24,1,,,,,キンカズセラー,0
1863,8130001081283,新規,0,2025-12-24,2025-12-24,株式会社みんな建設,,株式会社,京都府,八幡市,男山金振２５－５－Ｂ１０２,,26,210,6148365,,,,,,,2025-12-24,1,,,,,ミンナケンセツ,0
1864,8130001081300,新規,0,2025-12-24,2025-12-24,ＡＴｅｃｈ株式会社,,株式会社,京都府,京都市左京区,岩倉長谷町１９２８番地シエルガーデン２０５,,26,103,6060026,,,,,,,2025-12-24,1,,,,,エイテック,0
1869,8140003023002,新規,0,2025-12-24,2025-12-24,合同会社スローライフ,,合同会社,兵庫県,伊丹市,山田６丁目５－４０,,28,207,6640874,,,,,,,2025-12-24,1,,,,,スローライフ,0
1873,8160001027309,新規,0,2025-12-24,2025-12-24,株式会社ＡＲＮＯＬ,,株式会社,滋賀県,守山市,吉身４丁目７番２７号,,25,207,5240021,,,,,,,2025-12-24,1,,,,,アーノル,0
1885,8210001020431,新規,0,2025-12-24,2025-12-24,株式会社ＬＩＧＡＲＥ,,株式会社,福井県,福井市,西谷３丁目６２３番地１,,18,201,9188023,,,,,,,2025-12-24,1,,,,,リガーレ,0
1893,8240001065960,新規,0,2025-12-24,2025-12-24,株式会社エイチワイシールズ,,株式会社,広島県,広島市中区,昭和町６番９号,,34,101,7300046,,,,,,,2025-12-24,1,,,,,エイチワイシールズ,0
1895,8240003007531,新規,0,2025-12-24,2025-12-24,合同会社ゆびに,,合同会社,広島県,呉市,倉橋町７２９９番地,,34,202,7371377,,,,,,,2025-12-24,1,,,,,ユビニ,0
1904,8290001112618,新規,0,2025-12-24,2025-12-24,中尾自動車株式会社,,株式会社,福岡県,糟屋郡宇美町,大字井野４１１番地１,,40,341,8112104,,,,,,,2025-12-24,1,,,,,ナカオジドウシャ,0
1905,8290003017880,新規,0,2025-12-24,2025-12-24,合同会社高岡,00141989,合同会社,福岡県,筑紫野市,二日市北４丁目２３－３２,,40,217,8180056,,,,,,,2025-12-24,1,,,,,タカオカ,0
1906,8290005019933,新規,0,2025-12-24,2025-12-24,一般社団法人ますえの里,,その他の設立登記法人,福岡県,朝倉市,杷木星丸１１７３番地１,,40,228,8381504,,,,,,,2025-12-24,1,,,,,マスエノサト,0
1927,8430001095922,新規,0,2025-12-24,2025-12-24,株式会社ＯＦＦＩＣＥ　Ｔ,,株式会社,北海道,札幌市北区,北六条西１丁目４‐２ファーストプラザビル１Ｆ,,01,102,0600806,,,,,,,2025-12-24,1,,,,,オフィスティー,0
1928,8430001095930,新規,0,2025-12-24,2025-12-24,株式会社ＡＲＣ　ＣＯＮＮＥＣＴ,,株式会社,北海道,札幌市西区,琴似二条２丁目５番１０号,,01,107,0630812,,,,,,,2025-12-24,1,,,,,アークコネクト,0
1932,8430003018443,新規,0,2025-12-24,2025-12-24,合同会社Ｍｅｌｙ,,合同会社,北海道,札幌市西区,山の手四条１１丁目２‐２０‐１０１,,01,107,0630004,,,,,,,2025-12-24,1,,,,,メリー,0
1936,8470001021032,新規,0,2025-12-24,2025-12-24,株式会社コネクト,,株式会社,香川県,仲多度郡まんのう町,長尾２６６６番地１,,37,406,7660015,,,,,,,2025-12-24,1,,,,,,0
1944,8700150133769,新規,0,2025-12-24,2025-12-24,Ｇｌｏｂａｌ　Ｉｎｔｅｒｎａｔｉｏｎａｌ　Ｈｏｌｄｉｎｇ　Ｌｉｍｉｔｅｄ,,外国会社等,,,,,,,,Ｖｉｓｔｒａ　Ｃｏｒｐｏｒａｔｅ　Ｓｅｒｖｉｃｅｓ　Ｃｅｎｔｒｅ，Ｇｒｏｕｎｄ　Ｆｌｏｏｒ　ＮＰＦ　Ｂｕｉｌｄｉｎｇ，Ｂｅａｃｈ　Ｒｏａｄ，Ａｐｉａ，Ｓａｍｏａ,,,,,,2025-12-24,1,,,,,グローバルインターナシヨナルホールデイングリミテツド,0
1945,8700150133777,新規,0,2025-12-24,2025-12-24,三井倉庫ホールディングス健康保険組合,,その他,東京都,中央区,日本橋箱崎町１９番２１号,,13,102,1030015,,,,,,,2025-12-24,1,,,,,ミツイソウコホールディングスケンコウホケンクミアイ,0
1953,9010001261383,新規,0,2025-12-24,2025-12-24,アド・アストラ・キャピタル株式会社,,株式会社,東京都,千代田区,大手町１丁目６－１大手町ビルＳＰＡＣＥＳ大手町ビル内２５８,,13,101,1000004,,,,,,,2025-12-24,1,,,,,アドアストラキャピタル,0
1957,9010003049686,新規,0,2025-12-24,2025-12-24,カイヴァルヤ・パーニーワークス合同会社,,合同会社,東京都,中央区,銀座１丁目１２番４号Ｎ＆ＥＢＬＤ．６Ｆ,,13,102,1040061,,,,,,,2025-12-24,1,,,,,カイヴァルヤパーニーワークス,0
1958,9010003049835,新規,0,2025-12-24,2025-12-24,合同会社ＳＧＮアセット,,合同会社,東京都,中央区,銀座１丁目２３番１０－８１０号,,13,102,1040061,,,,,,,2025-12-24,1,,,,,エスジーネヌアセット,0
1967,9010403036895,新規,0,2025-12-24,2025-12-24,合同会社みなと０１０,,合同会社,東京都,港区,虎ノ門３丁目２２番１０－２０１号,,13,103,1050001,,,,,,,2025-12-24,1,,,,,ミナトゼロワンゼロ,0
1968,9010403036904,新規,0,2025-12-24,2025-12-24,１ＰｏｉｎｔＦｉｖｅ　Ｉｎｔｅｒｎａｔｉｏｎａｌ合同会社,,合同会社,東京都,港区,六本木１丁目４番５号アークヒルズ・サウスタワー１６階,,13,103,1060032,,,,,,,2025-12-24,1,,,,,ワンポイントファイブインターナショナル,0
1969,9010501055211,新規,0,2025-12-24,2025-12-24,日本宝石科学協会株式会社,,株式会社,東京都,台東区,上野５丁目２２番１号東鈴ビル６階,,13,106,1100005,,,,,,,2025-12-24,1,,,,,ニホンホウセキカガクキョウカイ,0
1973,9010701048816,新規,0,2025-12-24,2025-12-24,株式会社セコカン,,株式会社,東京都,品川区,北品川３丁目６番９号５階,,13,109,1400001,,,,,,,2025-12-24,1,,,,,セコカン,0
1986,9011001174278,新規,0,2025-12-24,2025-12-24,アトプレ株式会社,,株式会社,東京都,渋谷区,道玄坂１丁目１０番８号渋谷道玄坂東急ビル２Ｆ－Ｃ,,13,113,1500043,,,,,,,2025-12-24,1,,,,,アトプレ,0
1999,9011201026865,新規,0,2025-12-24,2025-12-24,日本住よし株式会社,,株式会社,東京都,中野区,新井１丁目１７番１３号,,13,114,1650026,,,,,,,2025-12-24,1,,,,,ニホンスミヨシ,0
2002,9011205002722,新規,0,2025-12-24,2025-12-24,特定非営利活動法人ＡＮＹコンサート,,その他の設立登記法人,東京都,中野区,若宮３丁目１４番１１号,,13,114,1650033,,,,,,,2025-12-24,1,,,,,エニーコンサート,0
2007,9011303005809,新規,0,2025-12-24,2025-12-24,合同会社ＮＯＮＡＭＥＤＥＳＩＧＮ,,合同会社,東京都,杉並区,天沼１丁目３９－５イトウハイツ２０２,,13,115,1670032,,,,,,,2025-12-24,1,,,,,ノーネームデザイン,0
2016,9011801047229,新規,0,2025-12-24,2025-12-24,株式会社ＥＮＧＩＮＥ,,株式会社,東京都,足立区,西新井本町５丁目９番２０号３０１号室,,13,121,1230845,,,,,,,2025-12-24,1,,,,,エンジン,0
2018,9012401043948,新規,0,2025-12-24,2025-12-24,株式会社Ａｓｓｉｓｔ,,株式会社,東京都,多摩市,落合６丁目１４番地３リヴェール多摩センター５０６,,13,224,2060033,,,,,,,2025-12-24,1,,,,,アシスト,0
2019,9012405005201,新規,0,2025-12-24,2025-12-24,一般社団法人桜田倶楽部,,その他の設立登記法人,東京都,調布市,深大寺元町２丁目２４番地２,,13,208,1820017,,,,,,,2025-12-24,1,,,,,サクラダクラブ,0
2021,9013103001517,新規,0,2025-12-24,2025-12-24,合同会社Ｓｏｔｅｒａ,,合同会社,東京都,福生市,大字福生８８０番地１７第二山西ビル１０１,,13,218,1970011,,,,,,,2025-12-24,1,,,,,ソテラ,0
2024,9013301055505,新規,0,2025-12-24,2025-12-24,ネットアセット株式会社,,株式会社,東京都,豊島区,東池袋２丁目６２番８号ＢＩＧオフィスプラザ池袋１２０６,,13,116,1700013,,,,,,,2025-12-24,1,,,,,ネットアセット,0
2028,9020001166425,新規,0,2025-12-24,2025-12-24,エクステンド株式会社,,株式会社,神奈川県,横浜市西区,久保町６番１５号,,14,103,2200061,,,,,,,2025-12-24,1,,,,,エクステンド,0
2029,9020001166433,新規,0,2025-12-24,2025-12-24,株式会社ユキ・アセットマネジメント,,株式会社,神奈川県,川崎市中原区,木月４丁目３９番６－３０１号,,14,133,2110025,,,,,,,2025-12-24,1,,,,,ユキアセットマネジメント,0
2033,9021001087124,新規,0,2025-12-24,2025-12-24,株式会社フォルマエッジ,,株式会社,神奈川県,藤沢市,藤沢９６８番地の１ラインズプラザ湘南藤沢５０４号,,14,205,2510052,,,,,,,2025-12-24,1,,,,,フォルマエッジ,0
2043,9040001141913,新規,0,2025-12-24,2025-12-24,株式会社Ａｔｅｌｉｅｒ　Ｙ,,株式会社,千葉県,八千代市,ゆりのき台１丁目１１番地５ソフィアグレース八千代１階,,12,221,2760042,,,,,,,2025-12-24,1,,,,,アトリエワイ,0
2055,9060005010402,新規,0,2025-12-24,2025-12-24,栃木クラフトビール協同組合,,その他の設立登記法人,栃木県,宇都宮市,新里町丙２５４番地,,09,201,3212118,,,,,,,2025-12-24,1,,,,,トチギクラフトビール,0
2065,9080401028343,新規,0,2025-12-24,2025-12-24,ＨＩ電機株式会社,,株式会社,静岡県,磐田市,森下９８番地１伊藤ハイツ１０２,,22,211,4380834,,,,,,,2025-12-24,1,,,,,エイチアイデンキ,0
2072,9110003006009,新規,0,2025-12-24,2025-12-24,合同会社Ｋ‐ｆａｒｍ,,合同会社,新潟県,小千谷市,高梨町３２３４番地,,15,208,9470102,,,,,,,2025-12-24,1,,,,,ケイファーム,0
2079,9120001282922,新規,0,2025-12-24,2025-12-24,株式会社ＡＰＥＸ,,株式会社,大阪府,大阪市淀川区,西中島４丁目２番２６号４０１Ｂ,,27,123,5320011,,,,,,,2025-12-24,1,,,,,エイペックス,0
2080,9120001283029,新規,0,2025-12-24,2025-12-24,株式会社ハラ建装,,株式会社,大阪府,寝屋川市,点野５丁目４番３８号,,27,215,5720077,,,,,,,2025-12-24,1,,,,,ハラケンソウ,0
2084,9120003031559,新規,0,2025-12-24,2025-12-24,合同会社ＤＡＬＴ,,合同会社,大阪府,大阪市淀川区,西中島３丁目１４－７ＴＭＩＩ新大阪ステーションビル,00141993,27,123,5320011,,,,,,,2025-12-24,1,,,,,ダルト,0
2085,9120005025311,新規,0,2025-12-24,2025-12-24,税理士法人ゆづりは,,その他の設立登記法人,大阪府,大阪市天王寺区,堀越町１１番１１号天王寺ガーデンスクエア８階,,27,109,5430056,,,,,,,2025-12-24,1,,,,,ユヅリハ,0
2089,9120901052020,新規,0,2025-12-24,2025-12-24,株式会社純,,株式会社,大阪府,茨木市,春日３丁目８番２１号,,27,211,5670031,,,,,,,2025-12-24,1,,,,,ジュン,0
2091,9120903006008,新規,0,2025-12-24,2025-12-24,合同会社ＭＡＳＡＫＩＣＨＩ,,合同会社,大阪府,豊中市,大黒町３丁目１８番５５号２０１号,,27,203,5610827,,,,,,,2025-12-24,1,,,,,マサキチ,0
2094,9130001081266,新規,0,2025-12-24,2025-12-24,株式会社Ｓｙｎａ　Ｓｔｕｄｉｏ,,株式会社,京都府,京都市北区,紫野西野町２９－４サンシャイン北大路,,26,101,6038233,,,,,,,2025-12-24,1,,,,,シナスタジオ,0
2095,9130001081282,新規,0,2025-12-24,2025-12-24,ＩＭＳ株式会社,,株式会社,京都府,京都市東山区,七軒町１４エクセレンス東山２０２,,26,105,6050011,,,,,,,2025-12-24,1,,,,,イムズ,0
2098,9130003011031,新規,0,2025-12-24,2025-12-24,合同会社ＣＩＶＡ,,合同会社,京都府,京都市伏見区,車町２７２龍馬通り弐番館１号,,26,109,6128365,,,,,,,2025-12-24,1,,,,,シーヴァ,0
2102,9140003022993,新規,0,2025-12-24,2025-12-24,合同会社サリエ,,合同会社,兵庫県,神戸市中央区,相生町４丁目３番１号神戸ストークビル９０３,,28,110,6500025,,,,,,,2025-12-24,1,,,,,サリエ,0
2104,9150001028604,新規,0,2025-12-24,2025-12-24,株式会社ゆいまーる,,株式会社,奈良県,葛城市,當麻８４番地２,,29,211,6390276,,,,,,,2025-12-24,1,,,,,ユイマール,0
2119,9180001170048,新規,0,2025-12-24,2025-12-24,カスタム名宝株式会社,,株式会社,愛知県,あま市,七宝町沖之島宮前５６番地１,,23,237,4970001,,,,,,,2025-12-24,1,,,,,カスタムメイホウ,0
2121,9180301040529,新規,0,2025-12-24,2025-12-24,株式会社円,,株式会社,愛知県,豊橋市,牟呂市場町２２番地２８クレール壱番館（１０１）,,23,201,4418088,,,,,,,2025-12-24,1,,,,,マドカ,0
2125,9190001032775,新規,0,2025-12-24,2025-12-24,アイナス株式会社,,株式会社,三重県,津市,長岡町８００番地６０９,,24,201,5140064,,,,,,,2025-12-24,1,,,,,アイナス,0
2126,9190003005309,新規,0,2025-12-24,2025-12-24,合同会社ワンプレート,,合同会社,三重県,松阪市,嬉野中川新町２丁目１０８番地,,24,204,5152325,,,,,,,2025-12-24,1,,,,,ワンプレート,0
2127,9210001020430,新規,0,2025-12-24,2025-12-24,デプロイ株式会社,,株式会社,福井県,福井市,恐神町１７－７１,,18,201,9188071,,,,,,,2025-12-24,1,,,,,デプロイ,0
2137,9240005016018,新規,0,2025-12-24,2025-12-24,一般社団法人広島県終活支援協会,,その他の設立登記法人,広島県,広島市中区,白島北町１６番２３号,,34,101,7300001,,,,,,,2025-12-24,1,,,,,ヒロシマケンシュウカツシエンキョウカイ,0
2143,9290005019932,新規,0,2025-12-24,2025-12-24,医療法人よこやま内科,,その他の設立登記法人,福岡県,福岡市南区,野間２丁目２番２号,,40,134,8150041,,,,,,,2025-12-24,1,,,,,ヨコヤマナイカ,0
2152,9360001036180,新規,0,2025-12-24,2025-12-24,株式会社Ｃｏｒａｌｅｏｎ,,株式会社,沖縄県,沖縄市,中央１丁目７－８－２Ｆ,,47,211,9040004,,,,,,,2025-12-24,1,,,,,コラレオン,0
2157,9370003007419,新規,0,2025-12-24,2025-12-24,三丁目合同会社,,合同会社,宮城県,栗原市,志波姫刈敷三丁目１４番地,,04,213,9895601,,,,,,,2025-12-24,1,,,,,サンジョノメ,0
2160,9380001035750,新規,0,2025-12-24,2025-12-24,株式会社商和,,株式会社,福島県,郡山市,栄町８番１２号,,07,203,9638872,,,,,,,2025-12-24,1,,,,,,0
2183,9700150133768,新規,0,2025-12-24,2025-12-24,Ｐｈｏｅｎｉｘ　Ｃａｐｉｔａｌ　Ｍａｎａｇｅｍｅｎｔ　Ｃｏ．,,外国会社等,,,,,,,,Ｃｏｒｐｏｒａｔｅ　Ｆｉｌｉｎｇ　Ｓｅｒｖｉｃｅｓ　Ｌｔｄ，Ｐ．Ｏ．Ｂｏｘ　６１，Ｈａｒｂｏｕｒ　Ｃｅｎｔｒｅ，Ｇｒａｎｄ　Ｃａｙｍａｎ，ＫＹ１－１１,,,,,,2025-12-24,1,,,,,フエニツクスキヤピタルマネジメント,0
2184,9700150133776,新規,0,2025-12-24,2025-12-24,コムシスホールディングス健康保険組合,,その他,東京都,品川区,東五反田２丁目１７番１号,,13,109,1410022,,,,,,,2025-12-24,1,,,,,コムシスホールディングスケンコウホケンクミアイ,0
