sequenceNumber,corporateNumber,process,correct,updateDate,changeDate,name,nameImageId,kind,prefectureName,cityName,streetNumber,addressImageId,prefectureCode,cityCode,postCode,addressOutside,addressOutsideImageId,closeDate,closeCause,successorCorporateNumber,changeCause,assignmentDate,latest,enName,enPrefectureName,enCityName,enAddressOutside,furigana,hihyoji
10,1010102000887,登記記録の閉鎖等,0,2021-08-19,2021-08-11,有限会社医療化学,,有限会社,東京都,八王子市,緑町１９５番地の１２,,13,201,1930932,,,2021-08-11,清算の結了等,,,2015-10-05,1,,,,,,0
13,1010401054907,登記記録の閉鎖等,0,2021-08-19,2021-08-12,株式会社リスタート,,株式会社,東京都,千代田区,紀尾井町３番２９号,,13,101,1020094,,,2021-08-12,清算の結了等,,,2015-10-05,1,,,,,リスタート,0
16,1010401112805,登記記録の閉鎖等,0,2021-08-19,2021-08-12,株式会社アールシェア,,株式会社,東京都,千代田区,一番町１０－８一番ウエストビル５階,,13,101,1020082,,,2021-08-12,清算の結了等,,,2015-10-05,1,,,,,アールシェア,0
30,1010801000700,登記記録の閉鎖等,0,2021-08-19,2021-08-06,アルフアー工業株式会社,,株式会社,東京都,大田区,蒲田５丁目４８番４号,,13,111,1440052,,,2021-08-06,清算の結了等,,,2015-10-05,1,,,,,アルフアーコウギョウ,0
42,1011105006723,登記記録の閉鎖等,0,2021-08-19,2021-08-02,一般社団法人低炭素エネルギー技術事業組合,,その他の設立登記法人,東京都,新宿区,北新宿４丁目８番１６号,,13,104,1690074,,,2021-08-02,清算の結了等,,,2015-10-05,1,,,,,テイタンソエネルギーギジュツジギョウクミアイ,0
55,1013105001456,登記記録の閉鎖等,0,2021-08-19,2021-08-16,特定非営利活動法人レインボー,,その他の設立登記法人,東京都,青梅市,今井３丁目３４番地の１６,,13,205,1980023,,,2021-08-16,清算の結了等,,,2015-10-05,1,,,,,レインボー,0
60,1020001000483,登記記録の閉鎖等,0,2021-08-19,2021-08-11,株式会社アトラスサービス,,株式会社,神奈川県,横浜市泉区,領家３丁目１８番１１,,14,116,2450004,,,2021-08-11,清算の結了等,,,2015-10-05,1,,,,,アトラスサービス,0
77,1030001077463,登記記録の閉鎖等,0,2021-08-19,2021-08-04,村上商事株式会社,,株式会社,埼玉県,川口市,本町２丁目１０番２２号,,11,203,3320012,,,2021-08-04,清算の結了等,,,2015-10-05,1,,,,,ムラカミショウジ,0
92,1040003016047,登記記録の閉鎖等,0,2021-08-19,2021-08-06,合同会社ＳＩＳＴＥＲＳＣＯＬＬＥＣＴＩＯＮ,,合同会社,千葉県,市原市,君塚５丁目２６番地８,,12,219,2900051,,,2021-08-06,清算の結了等,,,2020-09-09,1,,,,,シスターズコレクション,0
106,1060005006390,登記記録の閉鎖等,0,2021-08-19,2021-08-04,学校法人坂西学園,,その他の設立登記法人,栃木県,足利市,山下町２６９２番地１,,09,202,3260846,,,2021-08-04,清算の結了等,,,2021-08-03,1,,,,,サカニシガクエン,0
111,1120001079475,登記記録の閉鎖等,0,2021-08-19,2021-08-13,株式会社コード,,株式会社,兵庫県,丹波市,春日町東中３８４番,,28,223,6694272,,,2021-08-13,清算の結了等,,,2015-10-05,1,,,,,コード,0
123,1122002003546,登記記録の閉鎖等,0,2021-08-19,2021-08-18,有限会社西崎青果,,有限会社,大阪府,東大阪市,本町８番２２号,,27,227,5798045,,,2021-08-18,清算の結了等,,,2015-10-05,1,,,,,ニシザキセイカ,0
133,1130005011540,登記記録の閉鎖等,0,2021-08-19,2021-08-13,舞鶴西米穀協同組合,,その他の設立登記法人,京都府,舞鶴市,字福来９１２番地の１,,26,202,6240905,,,2021-08-13,清算の結了等,,,2015-10-05,1,,,,,マイヅルニシベイコク,0
138,1140002028982,登記記録の閉鎖等,0,2021-08-19,2021-08-13,有限会社神西工業所,,有限会社,兵庫県,明石市,大久保町江井島１３０４番地の８,,28,203,6740064,,,2021-08-13,清算の結了等,,,2015-10-05,1,,,,,シンセイコウギョウショ,0
150,1180003013105,登記記録の閉鎖等,0,2021-08-19,2021-07-20,合同会社中野商店,,合同会社,愛知県,常滑市,久米字東郷１７０番地,,23,216,4790002,,,2021-07-20,清算の結了等,,,2015-10-05,1,,,,,ナカノショウテン,0
167,1290001031023,登記記録の閉鎖等,0,2021-08-19,2021-07-27,株式会社メディクス,,株式会社,福岡県,福岡市博多区,博多駅南３丁目１３番１７号,,40,132,8120016,,,2021-07-27,清算の結了等,,,2015-10-05,1,,,,,メディクス,0
183,1340005004119,登記記録の閉鎖等,0,2021-08-19,2021-08-11,特定非営利活動法人縄文の森をつくろう会,,その他の設立登記法人,鹿児島県,指宿市,大牟礼１丁目３番１４号,,46,210,8910401,,,2021-08-11,清算の結了等,,,2015-10-05,1,,,,,ジョウモンノモリヲツクロウカイ,0
193,1390002010362,登記記録の閉鎖等,0,2021-08-19,2021-08-13,有限会社加藤園芸,,有限会社,山形県,鶴岡市,三瀬丙５２番地,,06,203,9997463,,,2021-08-13,清算の結了等,,,2015-10-05,1,,,,,カトウエンゲイ,0
197,1390005008429,登記記録の閉鎖等,0,2021-08-19,2021-08-10,特定非営利活動法人花くらぶ,,その他の設立登記法人,山形県,山形市,大字中野２８１番地１１,,06,201,9900892,,,2021-08-10,清算の結了等,,,2015-10-05,1,,,,,ハナクラブ,0
198,1400005002628,登記記録の閉鎖等,0,2021-08-19,2021-08-17,農事組合法人薬師酪農生産組合,,その他の設立登記法人,岩手県,八幡平市,平笠第２４地割１６４番地,,03,214,0287113,,,2021-08-17,清算の結了等,,,2015-10-05,1,,,,,ヤクシラクノウセイサンクミアイ,0
201,1420002008510,登記記録の閉鎖等,0,2021-08-19,2021-08-12,有限会社ピエロ,,有限会社,青森県,八戸市,根城７丁目４番９号,,02,203,0391166,,,2021-08-12,清算の結了等,,,2015-10-05,1,,,,,ピエロ,0
235,2010401141084,登記記録の閉鎖等,0,2021-08-19,2021-08-02,株式会社ｒｅｐｏｒｕ,,株式会社,東京都,千代田区,麹町１丁目４番地４,,13,101,1020083,,,2021-08-02,合併による解散等,1010001193898,令和３年６月３０日東京都千代田区麹町一丁目４番４号株式会社ＦＡＣＴＯＲＩＵＭ（1010001193898）に合併し解散,2018-09-28,1,,,,,レポル,0
263,2011601005673,登記記録の閉鎖等,0,2021-08-19,2021-08-18,株式会社早野マイクロシステム,,株式会社,東京都,練馬区,下石神井５丁目１７番３１号,,13,120,1770042,,,2021-08-18,清算の結了等,,,2015-10-05,1,,,,,ハヤノマイクロシステム,0
273,2012401023634,登記記録の閉鎖等,0,2021-08-19,2021-08-05,株式会社リライアンス,,株式会社,東京都,国立市,青柳１丁目３５番地の１,,13,215,1860013,,,2021-08-05,清算の結了等,,,2015-10-05,1,,,,,リライアンス,0
279,2013102007406,登記記録の閉鎖等,0,2021-08-19,2021-08-17,有限会社増田工務店,,有限会社,東京都,西多摩郡奥多摩町,小丹波４０７番地,,13,308,1980105,,,2021-08-17,清算の結了等,,,2015-10-05,1,,,,,マスダコウムテン,0
317,2040002000364,登記記録の閉鎖等,0,2021-08-19,2021-08-06,安西競走馬有限会社,,有限会社,千葉県,千葉市中央区,長洲１丁目２６番５号,,12,101,2600854,,,2021-08-06,清算の結了等,,,2015-10-05,1,,,,,,0
333,2060001026730,登記記録の閉鎖等,0,2021-08-19,2021-08-04,サイノジャパン株式会社,,株式会社,埼玉県,羽生市,西５丁目４番地２９,,11,216,3480054,,,2021-08-04,清算の結了等,,,2015-10-05,1,,,,,サイノジャパン,0
339,2100001022766,登記記録の閉鎖等,0,2021-08-19,2021-08-13,丸井醸造株式会社,,株式会社,長野県,飯田市,座光寺６６２８番地３１７,,20,205,3950001,,,2021-08-13,清算の結了等,,,2015-10-05,1,,,,,,0
340,2100002031147,登記記録の閉鎖等,0,2021-08-19,2021-08-13,有限会社協和,,有限会社,長野県,岡谷市,加茂町１丁目６番６号,,20,204,3940003,,,2021-08-13,清算の結了等,,,2015-10-05,1,,,,,キョウワ,0
341,2100005009495,登記記録の閉鎖等,0,2021-08-19,2021-08-12,医療法人飯田整形外科,,その他の設立登記法人,長野県,飯田市,上郷別府３３４９番地９,,20,205,3950003,,,2021-08-12,清算の結了等,,,2015-10-05,1,,,,,イイダセイケイゲカ,0
344,2120001083773,登記記録の閉鎖等,0,2021-08-19,2021-08-06,株式会社大和設計,,株式会社,大阪府,大阪市中央区,（大阪市南区上汐一丁目２番１４号）,,27,128,5390000,,,2021-08-06,清算の結了等,,,2015-10-05,1,,,,,ダイワセッケイ,1
357,2120101054690,登記記録の閉鎖等,0,2021-08-19,2021-08-16,株式会社ねくすと,,株式会社,大阪府,堺市中区,深井北町３３０６番地,,27,142,5998271,,,2021-08-16,清算の結了等,,,2016-04-26,1,,,,,ネクスト,0
359,2130001059616,登記記録の閉鎖等,0,2021-08-19,2021-08-13,株式会社ＰＲＯ－ＧＲＥＳＳ,,株式会社,京都府,京都市中京区,三条通東洞院東入菱屋町４４番地三条高倉アーバンライフ２０２号室,,26,104,6048131,,,2021-08-13,清算の結了等,,,2017-04-19,1,,,,,プログレス,0
363,2140001006096,登記記録の閉鎖等,0,2021-08-19,2021-08-18,イカワスポーツ用品株式会社,,株式会社,兵庫県,神戸市中央区,三宮町２丁目８番９号,,28,110,6500021,,,2021-08-18,清算の結了等,,,2015-10-05,1,,,,,イカワスポーツヨウヒン,0
376,2140003010625,登記記録の閉鎖等,0,2021-08-19,2021-08-16,合同会社Ｔｒｉａｄ,,合同会社,兵庫県,神戸市灘区,日尾町３丁目１番２４－１０４号,,28,102,6570029,,,2021-08-16,清算の結了等,,,2015-10-05,1,,,,,,0
383,2170002003008,登記記録の閉鎖等,0,2021-08-19,2021-08-18,有限会社羽根エンジニアリング,,有限会社,和歌山県,和歌山市,大谷１５番地の１１,,30,201,6408472,,,2021-08-18,清算の結了等,,,2015-10-05,1,,,,,ハネエンジニアリング,0
394,2180001127987,登記記録の閉鎖等,0,2021-08-19,2021-08-13,株式会社クレビア,,株式会社,愛知県,名古屋市中村区,十王町３番２３号,,23,105,4530035,,,2021-08-13,清算の結了等,,,2017-05-30,1,,,,,クレビア,0
440,2390002008240,登記記録の閉鎖等,0,2021-08-19,2021-08-13,東和鉄工有限会社,,有限会社,山形県,飽海郡遊佐町,比子字白木１０番１０２,,06,461,9998438,,,2021-08-13,清算の結了等,,,2015-10-05,1,,,,,トウワテッコウ,0
450,2430001069840,登記記録の閉鎖等,0,2021-08-19,2021-08-16,四季菜園株式会社,,株式会社,東京都,品川区,東品川４丁目１３番１４号,,13,109,1400002,,,2021-08-16,合併による解散等,4010101000976,令和３年８月１日東京都八王子市越野２４番地の１株式会社九州屋（4010101000976）に合併し解散,2015-10-05,1,,,,,シキサイエン,0
476,3010002025537,登記記録の閉鎖等,0,2021-08-19,2021-08-06,みくに商事有限会社,,有限会社,東京都,中央区,日本橋堀留町１丁目１０番地１,,13,102,1030012,,,2021-08-06,清算の結了等,,,2015-10-05,1,,,,,ミクニショウジ,0
479,3010005030575,登記記録の閉鎖等,0,2021-08-19,2021-08-06,税理士法人葵,,その他の設立登記法人,東京都,千代田区,神田錦町３丁目１７番地ＨＫパークビル３階,,13,101,1010054,,,2021-08-06,清算の結了等,,,2019-08-06,1,,,,,アオイ,0
516,3011105007521,登記記録の閉鎖等,0,2021-08-19,2021-08-04,一般社団法人２２世紀日本の家協会,,その他の設立登記法人,東京都,新宿区,西新宿６丁目１２番７－５０６号,,13,104,1600023,,,2021-08-04,清算の結了等,,,2016-12-02,1,,,,,ニジュウニセイキニッポンノイエキョウカイ,0
521,3011301015963,登記記録の閉鎖等,0,2021-08-19,2021-08-12,株式会社エヌ・エム・エス,,株式会社,東京都,杉並区,成田東５丁目１番３０号,,13,115,1660015,,,2021-08-12,清算の結了等,,,2015-10-05,1,,,,,エヌエムエス,0
545,3020002020891,登記記録の閉鎖等,0,2021-08-19,2021-08-12,有限会社カナガワルブメンテナンス,,有限会社,神奈川県,海老名市,大谷北３丁目２番２２号,,14,215,2430419,,,2021-08-12,清算の結了等,,,2015-10-05,1,,,,,カナガワルブメンテナンス,0
547,3020002105288,登記記録の閉鎖等,0,2021-08-19,2021-08-10,有限会社ヨシダ,,有限会社,神奈川県,川崎市高津区,梶ケ谷２丁目１３番地４,,14,134,2130015,,,2021-08-10,清算の結了等,,,2015-10-05,1,,,,,ヨシダ,0
552,3021001020362,登記記録の閉鎖等,0,2021-08-19,2021-08-10,原島住宅設備株式会社,,株式会社,神奈川県,厚木市,愛甲東２丁目５番５号,,14,212,2430027,,,2021-08-10,清算の結了等,,,2015-10-05,1,,,,,,0
553,3021001035253,登記記録の閉鎖等,0,2021-08-19,2021-08-16,株式会社リ・ライズ,,株式会社,神奈川県,小田原市,小八幡３丁目８番５４号,,14,206,2560815,,,2021-08-16,清算の結了等,,,2015-10-05,1,,,,,リライズ,0
564,3030002011279,登記記録の閉鎖等,0,2021-08-19,2021-08-05,有限会社ひがし野,,有限会社,埼玉県,さいたま市見沼区,東大宮４丁目２７番地の１０,,11,104,3370051,,,2021-08-05,清算の結了等,,,2015-10-05,1,,,,,,0
566,3030002061670,登記記録の閉鎖等,0,2021-08-19,2021-08-05,有限会社田内工務店,,有限会社,埼玉県,新座市,あたご１丁目１０１番１,,11,230,3520021,,,2021-08-05,清算の結了等,,,2015-10-05,1,,,,,タウチコウムテン,0
572,3040001062413,登記記録の閉鎖等,0,2021-08-19,2021-08-06,株式会社藤本設備,,株式会社,千葉県,銚子市,栄町１丁目１４５６番地,,12,202,2880812,,,2021-08-06,清算の結了等,,,2015-10-05,1,,,,,,0
594,3060003000955,登記記録の閉鎖等,0,2021-08-19,2021-08-06,合資会社武井商店,,合資会社,栃木県,栃木市,岩舟町畳岡７１３番地,,09,203,3294309,,,2021-08-06,清算の結了等,,,2015-10-05,1,,,,,タケイショウテン,0
596,3060005000136,登記記録の閉鎖等,0,2021-08-19,2021-08-06,神理教教会,,その他の設立登記法人,栃木県,宇都宮市,桜２丁目１番４３号,,09,201,3200043,,,2021-08-06,清算の結了等,,,2015-10-05,1,,,,,シンリキョウキョウカイ,0
612,3120001015560,登記記録の閉鎖等,0,2021-08-19,2021-08-06,株式会社チームイージー,,株式会社,大阪府,大阪市都島区,東野田町１丁目１３番３号,,27,102,5340024,,,2021-08-06,清算の結了等,,,2015-10-05,1,,,,,チームイージー,0
613,3120001025452,登記記録の閉鎖等,0,2021-08-19,2021-08-03,株式会社三口商店,,株式会社,大阪府,大阪市天王寺区,大道２丁目１０番２０号,,27,109,5430052,,,2021-08-03,清算の結了等,,,2015-10-05,1,,,,,ミクチショウテン,0
630,3140001001807,登記記録の閉鎖等,0,2021-08-19,2021-08-16,株式会社青峰,,株式会社,兵庫県,神戸市東灘区,岡本１丁目４番１８号,,28,101,6580072,,,2021-08-16,清算の結了等,,,2015-10-05,1,,,,,,0
639,3140002021614,登記記録の閉鎖等,0,2021-08-19,2021-08-16,有限会社下昇,,有限会社,兵庫県,神戸市垂水区,塩屋町６丁目４番１７号,,28,108,6550872,,,2021-08-16,清算の結了等,,,2015-10-05,1,,,,,シモショウ,0
649,3170001015969,登記記録の閉鎖等,0,2021-08-19,2021-08-18,ＳＧマーケティング株式会社,,株式会社,和歌山県,和歌山市,松島２２２番地,,30,201,6408304,,,2021-08-18,清算の結了等,,,2020-03-02,1,,,,,エスジーマーケティング,0
662,3180302005651,登記記録の閉鎖等,0,2021-08-19,2021-08-17,有限会社ワイン蔵のむら,,有限会社,愛知県,岡崎市,藤川町字河原１８番地,,23,202,4443523,,,2021-08-17,清算の結了等,,,2015-10-05,1,,,,,ワインクラノムラ,0
663,3190001016239,登記記録の閉鎖等,0,2021-08-19,2021-08-18,株式会社マイム三重,,株式会社,三重県,四日市市,笹川７丁目５０番地の１,,24,202,5100944,,,2021-08-18,清算の結了等,,,2015-10-05,1,,,,,マイムミエ,0
667,3210001010684,登記記録の閉鎖等,0,2021-08-19,2021-08-11,日幸建設株式会社,,株式会社,福井県,敦賀市,桜町４番１４号,,18,202,9140078,,,2021-08-11,清算の結了等,,,2021-08-03,1,,,,,ニッコウケンセツ,0
685,3290001056175,登記記録の閉鎖等,0,2021-08-19,2021-07-28,株式会社河上建築事務所,,株式会社,福岡県,福岡市博多区,博多駅東３丁目５番１６号神山ビル４０１,,40,132,8120013,,,2021-07-28,清算の結了等,,,2015-10-05,1,,,,,カワカミケンチクジムショ,0
687,3290001074318,登記記録の閉鎖等,0,2021-08-19,2021-07-26,株式会社Ｓｅｑｄｉｏ,,株式会社,福岡県,福岡市博多区,下呉服町４－３１ハンドレッドビル２階,,40,132,8120034,,,2021-07-26,清算の結了等,,,2016-06-20,1,,,,,,0
702,3340005007193,登記記録の閉鎖等,0,2021-08-19,2021-08-12,協同組合地産ウッドセンター,,その他の設立登記法人,鹿児島県,鹿児島市,田上台２丁目４３番１号,,46,201,8900036,,,2021-08-12,清算の結了等,,,2015-10-05,1,,,,,,0
706,3350001009143,登記記録の閉鎖等,0,2021-08-19,2021-08-12,株式会社デルソル,,株式会社,東京都,千代田区,平河町１丁目３番６号,,13,101,1020093,,,2021-08-12,清算の結了等,,,2015-10-05,1,,,,,デルソル,0
737,3500001014482,登記記録の閉鎖等,0,2021-08-19,2021-08-16,宮崎汽船株式会社,,株式会社,愛媛県,四国中央市,三島中央１丁目１番３５号,,38,213,7990405,,,2021-08-16,清算の結了等,,,2015-10-05,1,,,,,ミヤザキキセン,0
739,3500002021123,登記記録の閉鎖等,0,2021-08-19,2021-08-16,新合海運有限会社,,有限会社,愛媛県,四国中央市,三島中央１丁目１番３５号,,38,213,7990405,,,2021-08-16,清算の結了等,,,2015-10-05,1,,,,,シンゴウカイウン,0
748,4010001128554,登記記録の閉鎖等,0,2021-08-19,2021-08-05,山佐ＢＡＷ６リース株式会社,,株式会社,東京都,千代田区,丸の内３丁目１番１号東京共同会計事務所内,,13,101,1000005,,,2021-08-05,清算の結了等,,,2015-10-05,1,,,,,ヤマサビーエーダブリューロクリース,0
764,4010401152014,登記記録の閉鎖等,0,2021-08-19,2021-08-05,株式会社キューブアソシエイツ,,株式会社,東京都,港区,赤坂２丁目１７番７号,,13,103,1070052,,,2021-08-05,清算の結了等,,,2020-04-01,1,,,,,キューブアソシエイツ,0
772,4010405011810,登記記録の閉鎖等,0,2021-08-19,2021-08-04,一般社団法人ＴＩＦ０２号,,その他の設立登記法人,東京都,港区,六本木１丁目４番５号アークヒルズサウスタワー３階,,13,103,1060032,,,2021-08-04,清算の結了等,,,2015-10-05,1,,,,,ティーアイエフゼロニゴウ,0
773,4010405015968,登記記録の閉鎖等,0,2021-08-19,2021-08-05,弁護士法人星野・長塚・木川法律事務所,00110969,その他の設立登記法人,東京都,港区,西新橋１丁目２１番８号弁護士ビル３階,,13,103,1050003,,,2021-08-05,清算の結了等,,,2017-08-02,1,,,,,ホシノナガツカキカワホウリツジムショ,0
782,4010901002825,登記記録の閉鎖等,0,2021-08-19,2021-08-06,カネキ興産株式会社,00120451,株式会社,東京都,世田谷区,南烏山５丁目４番７号,,13,112,1570062,,,2021-08-06,清算の結了等,,,2020-08-20,1,,,,,カネキコウサン,0
793,4011001125310,登記記録の閉鎖等,0,2021-08-19,2021-08-16,株式会社ＲＡＤＩＣＡＬ,,株式会社,東京都,港区,浜松町２丁目２番１５号浜松町ダイヤビル２Ｆ,,13,103,1050013,,,2021-08-16,合併による解散等,4010901036575,令和３年７月３１日東京都新宿区西新宿七丁目４番４号武蔵ビル２Ｆ－Ｂ号室株式会社Ｔ’ｓ　ａｇｅｎｃｙ（4010901036575）に合併し解散,2018-11-21,1,,,,,ラジカル,0
802,4011102001138,登記記録の閉鎖等,0,2021-08-19,2021-08-05,有限会社一一一カンパニー,,有限会社,埼玉県,新座市,片山３丁目６番１０号,,11,230,3520025,,,2021-08-05,清算の結了等,,,2015-10-05,1,,,,,イチイチイチカンパニー,0
826,4020001018853,登記記録の閉鎖等,0,2021-08-19,2021-08-10,株式会社滿洲園,,株式会社,神奈川県,横浜市鶴見区,豊岡町２番２号,,14,101,2300062,,,2021-08-10,清算の結了等,,,2015-10-05,1,,,,,マンシュウエン,0
846,4021001043073,登記記録の閉鎖等,0,2021-08-19,2021-08-12,株式会社下平製作所,,株式会社,神奈川県,逗子市,小坪６丁目７番２０－３７号,,14,208,2490008,,,2021-08-12,清算の結了等,,,2015-10-05,1,,,,,シモヒラセイサクショ,0
853,4030001093078,登記記録の閉鎖等,0,2021-08-19,2021-08-05,株式会社ＴＣオートサービス,,株式会社,埼玉県,越谷市,大成町８丁目２５２０－５,,11,222,3430825,,,2021-08-05,清算の結了等,,,2015-10-05,1,,,,,ティーシーオートサービス,0
855,4030001125426,登記記録の閉鎖等,0,2021-08-19,2021-08-06,バイヤー株式会社,,株式会社,埼玉県,越谷市,大字下間久里５８７番地２５,,11,222,3430045,,,2021-08-06,清算の結了等,,,2018-04-27,1,,,,,バイヤー,0
895,4120001000157,登記記録の閉鎖等,0,2021-08-19,2021-08-10,宇野設備工業株式会社,,株式会社,大阪府,大阪市旭区,中宮５丁目４番２４号,,27,117,5350003,,,2021-08-10,清算の結了等,,,2015-10-05,1,,,,,ウノセツビコウギョウ,0
910,4120902013224,登記記録の閉鎖等,0,2021-08-19,2021-08-18,有限会社ミニットマン,,有限会社,大阪府,摂津市,千里丘東１丁目２０番１３号,,27,224,5660011,,,2021-08-18,清算の結了等,,,2015-10-05,1,,,,,,0
939,4180302006681,登記記録の閉鎖等,0,2021-08-19,2021-08-18,有限会社エムアイヘルスプランニング,,有限会社,愛知県,豊橋市,山田二番町５番地の１,,23,201,4418104,,,2021-08-18,清算の結了等,,,2015-10-05,1,,,,,エムアイヘルスプランニング,0
962,4290801023943,登記記録の閉鎖等,0,2021-08-19,2021-08-04,株式会社ソヨシ健康科学研究所,,株式会社,福岡県,北九州市小倉北区,三萩野１丁目１－８プリンセス三萩野６Ｆ－Ａ,,40,106,8020065,,,2021-08-04,清算の結了等,,,2017-08-30,1,,,,,ソヨシケンコウカガクケンキュウショ,0
967,4320002015679,登記記録の閉鎖等,0,2021-08-19,2021-08-17,有限会社是永精研,,有限会社,大分県,杵築市,山香町大字野原２３５４番地の１,,44,210,8791307,,,2021-08-17,清算の結了等,,,2015-10-05,1,,,,,コレナガセイケン,0
977,4380002033188,登記記録の閉鎖等,0,2021-08-19,2021-08-11,有限会社丸共佐々木商店,,有限会社,福島県,会津若松市,日新町１０番２８号,,07,202,9650861,,,2021-08-11,清算の結了等,,,2015-10-05,1,,,,,マルキョウササキショウテン,0
979,4390005008236,登記記録の閉鎖等,0,2021-08-19,2021-08-13,かねやま旬菜倶楽部企業組合,,その他の設立登記法人,山形県,最上郡金山町,大字金山１５４６番地,,06,361,9995402,,,2021-08-13,清算の結了等,,,2015-10-05,1,,,,,,0
992,4500001015190,登記記録の閉鎖等,0,2021-08-19,2021-08-10,ベストワークス株式会社,,株式会社,愛媛県,四国中央市,妻鳥町２０１９番地の７,,38,213,7990113,,,2021-08-10,清算の結了等,,,2015-10-05,1,,,,,ベストワークス,0
999,5010001128553,登記記録の閉鎖等,0,2021-08-19,2021-08-05,山佐ＢＡＷ５リース株式会社,,株式会社,東京都,千代田区,丸の内３丁目１番１号東京共同会計事務所内,,13,101,1000005,,,2021-08-05,清算の結了等,,,2015-10-05,1,,,,,ヤマサビーエーダブリューゴリース,0
1023,5010701019622,登記記録の閉鎖等,0,2021-08-19,2021-08-16,株式会社ケイエヌコーポレーション,,株式会社,東京都,品川区,南大井６丁目２４番１０号カドヤ第１０ビル７Ｆ,,13,109,1400013,,,2021-08-16,清算の結了等,,,2015-10-05,1,,,,,ケイエヌコーポレーション,0
1046,5011301014105,登記記録の閉鎖等,0,2021-08-19,2021-08-11,株式会社健康教育研究所,,株式会社,東京都,杉並区,善福寺３丁目１３番４号,,13,115,1670041,,,2021-08-11,清算の結了等,,,2015-10-05,1,,,,,ケンコウキョウイクケンキュウショ,0
1073,5020002010783,登記記録の閉鎖等,0,2021-08-19,2021-08-11,有限会社宮野商店,,有限会社,神奈川県,横浜市磯子区,丸山２丁目２１番１０号,,14,107,2350011,,,2021-08-11,清算の結了等,,,2015-10-05,1,,,,,,0
1082,5021003002464,登記記録の閉鎖等,0,2021-08-19,2021-08-12,合同会社ＣＤＳ,,合同会社,神奈川県,小田原市,上曽我１４８５番地の６,,14,206,2500202,,,2021-08-12,清算の結了等,,,2015-10-05,1,,,,,シーディーエス,0
1092,5030002029286,登記記録の閉鎖等,0,2021-08-19,2021-08-06,有限会社コヤノ,,有限会社,埼玉県,所沢市,日吉町１３番２号,,11,208,3591123,,,2021-08-06,清算の結了等,,,2015-10-05,1,,,,,コヤノ,0
1114,5080101006850,登記記録の閉鎖等,0,2021-08-19,2021-08-17,株式会社カキタ,,株式会社,静岡県,沼津市,千本港町１２８番地の１,,22,203,4100845,,,2021-08-17,清算の結了等,,,2015-10-05,1,,,,,カキタ,0
1120,5090001013987,登記記録の閉鎖等,0,2021-08-19,2021-08-16,株式会社シャリテ,,株式会社,山梨県,南都留郡鳴沢村,１０４４３番地３６５,,19,429,4010320,,,2021-08-16,清算の結了等,,,2015-10-05,1,,,,,シャリテ,0
1125,5110002013827,登記記録の閉鎖等,0,2021-08-19,2021-08-17,有限会社フォルツニット,,有限会社,新潟県,五泉市,寺沢４丁目２番６号,,15,218,9591837,,,2021-08-17,清算の結了等,,,2015-10-05,1,,,,,,0
1138,5120005020720,登記記録の閉鎖等,0,2021-08-19,2021-08-13,一般社団法人ＯＳＫ発達支援室,,その他の設立登記法人,大阪府,大阪市東成区,大今里４丁目１０番５号,,27,115,5370012,,,2021-08-13,清算の結了等,,,2019-02-08,1,,,,,,0
1148,5140001105812,登記記録の閉鎖等,0,2021-08-19,2021-08-13,株式会社ＳＫＣ,,株式会社,兵庫県,淡路市,釜口２２５７番地,,28,226,6562334,,,2021-08-13,清算の結了等,,,2017-04-14,1,,,,,エスケイシー,0
1173,5230002007899,登記記録の閉鎖等,0,2021-08-19,2021-08-12,有限会社山崎建設,,有限会社,富山県,魚津市,出１１１８番地,,16,204,9370821,,,2021-08-12,清算の結了等,,,2015-10-05,1,,,,,ヤマザキケンセツ,0
1185,5280002009346,登記記録の閉鎖等,0,2021-08-19,2021-08-17,有限会社森口技研,,有限会社,島根県,江津市,嘉久志町イ６３４番地１,,32,207,6950016,,,2021-08-17,清算の結了等,,,2015-10-05,1,,,,,モリグチギケン,0
1210,5370001009791,登記記録の閉鎖等,0,2021-08-19,2021-08-06,株式会社板東薬品,,株式会社,宮城県,仙台市青葉区,国分町３丁目１番１８号,,04,101,9800803,,,2021-08-06,清算の結了等,,,2015-10-05,1,,,,,バンドウヤクヒン,0
1217,5370801001527,登記記録の閉鎖等,0,2021-08-19,2021-08-06,株式会社グランド,,株式会社,宮城県,亘理郡亘理町,字新町３１番地,,04,361,9892351,,,2021-08-06,清算の結了等,,,2015-10-05,1,,,,,グランド,0
1221,5380002017256,登記記録の閉鎖等,0,2021-08-19,2021-08-11,有限会社正春商店,,有限会社,福島県,本宮市,糠沢字原５７番地の２,,07,214,9691204,,,2021-08-11,清算の結了等,,,2015-10-05,1,,,,,マサハルショウテン,0
1225,5390002013824,登記記録の閉鎖等,0,2021-08-19,2021-08-11,有限会社アライ,,有限会社,山形県,東置賜郡高畠町,大字夏茂２０４番地の１,,06,381,9992172,,,2021-08-11,清算の結了等,,,2015-10-05,1,,,,,アライ,0
1228,5390005005496,登記記録の閉鎖等,0,2021-08-19,2021-08-17,農事組合法人大豊肉用牛生産組合,,その他の設立登記法人,山形県,最上郡鮭川村,大字石名坂８０６番地の２,,06,366,9995208,,,2021-08-17,清算の結了等,,,2015-10-05,1,,,,,オオトヨニクヨウギュウセイサンクミアイ,0
1230,5430001076082,登記記録の閉鎖等,0,2021-08-19,2021-08-05,株式会社Ｎ　Ｗｏｒｋｓ,,株式会社,北海道,札幌市中央区,北一条西３丁目３番１１号桂和北１条ビル８階,,01,101,0600001,,,2021-08-05,清算の結了等,,,2018-03-12,1,,,,,エヌワークス,0
1231,5430001082584,登記記録の閉鎖等,0,2021-08-19,2021-08-05,株式会社ＮＰＳ,,株式会社,北海道,札幌市清田区,平岡公園東８丁目４番６号,,01,110,0040882,,,2021-08-05,清算の結了等,,,2020-10-22,1,,,,,エヌピーエス,0
1233,5430003006764,登記記録の閉鎖等,0,2021-08-19,2021-08-16,合同会社Ａ＆Ｋ,,合同会社,北海道,札幌市手稲区,前田二条１２丁目１番１－１０６号,,01,109,0060812,,,2021-08-16,清算の結了等,,,2015-10-05,1,,,,,エーアンドケー,0
1236,5450002007258,登記記録の閉鎖等,0,2021-08-19,2021-08-18,有限会社キムラ硝子,,有限会社,北海道,旭川市,永山四条５丁目２番５号,,01,204,0798414,,,2021-08-18,清算の結了等,,,2015-10-05,1,,,,,キムラガラス,0
1269,6010401152697,登記記録の閉鎖等,0,2021-08-19,2021-08-05,スターソレイユ株式会社,,株式会社,東京都,港区,麻布十番１丁目２番７－７０１号,,13,103,1060045,,,2021-08-05,清算の結了等,,,2020-05-11,1,,,,,スターソレイユ,0
1275,6010405011809,登記記録の閉鎖等,0,2021-08-19,2021-08-04,一般社団法人ＴＩＦ０１号,,その他の設立登記法人,東京都,港区,六本木１丁目４番５号アークヒルズサウスタワー３階,,13,103,1060032,,,2021-08-04,清算の結了等,,,2015-10-05,1,,,,,ティーアイエフゼロイチゴウ,0
1286,6011001097003,登記記録の閉鎖等,0,2021-08-19,2021-08-06,株式会社Ｍｏｌｙ,,株式会社,東京都,千代田区,霞が関１丁目４番１号,,13,101,1000013,,,2021-08-06,清算の結了等,,,2015-10-05,1,,,,,モリー,0
1301,6011201015202,登記記録の閉鎖等,0,2021-08-19,2021-08-13,株式会社日本福祉介護研究所,,株式会社,東京都,中野区,本町３丁目１２番２３号,,13,114,1640012,,,2021-08-13,清算の結了等,,,2015-10-05,1,,,,,,0
1308,6011501020496,登記記録の閉鎖等,0,2021-08-19,2021-08-13,ＣｏＣｏ　ＡＺＵＭＡ株式会社,,株式会社,東京都,荒川区,荒川２丁目１番５号セントラル荒川ビルディング８階１号室,,13,118,1160002,,,2021-08-13,清算の結了等,,,2015-10-05,1,,,,,,0
1314,6011701014876,登記記録の閉鎖等,0,2021-08-19,2021-08-17,株式会社日本パブリック・センター,,株式会社,東京都,江戸川区,西小岩１丁目１６番２号,,13,123,1330057,,,2021-08-17,清算の結了等,,,2015-10-05,1,,,,,ニホンパブリックセンター,0
1316,6011801002731,登記記録の閉鎖等,0,2021-08-19,2021-08-17,株式会社高砂メディカル,,株式会社,東京都,葛飾区,高砂２丁目３０番２１号,,13,122,1250054,,,2021-08-17,清算の結了等,,,2015-10-05,1,,,,,タカサゴメディカル,0
1324,6020001023736,登記記録の閉鎖等,0,2021-08-19,2021-08-10,中央機工株式会社,,株式会社,神奈川県,横浜市神奈川区,神之木台１５番１２号,,14,102,2210011,,,2021-08-10,清算の結了等,,,2015-10-05,1,,,,,チュウオウキコウ,0
1335,6021001025243,登記記録の閉鎖等,0,2021-08-19,2021-08-16,坂田綜合電設株式会社,,株式会社,神奈川県,大和市,南林間６丁目１９番２２号,,14,213,2420006,,,2021-08-16,清算の結了等,,,2015-10-05,1,,,,,サカタソウゴウデンセツ,0
1336,6021001043501,登記記録の閉鎖等,0,2021-08-19,2021-08-13,株式会社三崎水産会館,,株式会社,神奈川県,三浦市,三崎２丁目２２番１０号,,14,210,2380243,,,2021-08-13,清算の結了等,,,2015-10-05,1,,,,,ミサキスイサンカイカン,0
1342,6030001010782,登記記録の閉鎖等,0,2021-08-19,2021-08-02,株式会社ザクス・ユナイテッド,,株式会社,埼玉県,さいたま市桜区,新開２丁目２２番１号,,11,106,3380834,,,2021-08-02,清算の結了等,,,2015-10-05,1,,,,,ザクスユナイテッド,0
1346,6030001089231,登記記録の閉鎖等,0,2021-08-19,2021-07-28,株式会社さくら結婚相談所,,株式会社,埼玉県,大里郡寄居町,大字用土５２０７番地２,,11,408,3691201,,,2021-07-28,清算の結了等,,,2015-10-05,1,,,,,サクラケッコンソウダンショ,0
1347,6030001103181,登記記録の閉鎖等,0,2021-08-19,2021-08-05,ケイテック株式会社,,株式会社,埼玉県,比企郡小川町,東小川３丁目１８番地４,,11,343,3550322,,,2021-08-05,清算の結了等,,,2015-10-05,1,,,,,ケイテック,0
1370,6060001000054,登記記録の閉鎖等,0,2021-08-19,2021-08-02,上河内建設株式会社,,株式会社,栃木県,宇都宮市,下小倉町３６６７番地,,09,201,3210403,,,2021-08-02,合併による解散等,9060002012723,令和３年８月１日栃木県宇都宮市下小倉町３６６７番地株式会社大日商事（9060002012723）に合併し解散,2015-10-05,1,,,,,カミカワチケンセツ,0
1390,6130002025142,登記記録の閉鎖等,0,2021-08-19,2021-08-16,有限会社サンウインドセンター,,有限会社,京都府,向日市,物集女町豆尾２０番地の８,,26,208,6170001,,,2021-08-16,清算の結了等,,,2015-10-05,1,,,,,サンウインドセンター,0
1391,6130005004993,登記記録の閉鎖等,0,2021-08-19,2021-08-18,和光織物企業組合,,その他の設立登記法人,京都府,京都市中京区,両替町通丸太町下る西方寺町１７２番地,,26,104,6040866,,,2021-08-18,清算の結了等,,,2015-10-05,1,,,,,ワコウオリモノ,0
1401,6140001106719,登記記録の閉鎖等,0,2021-08-19,2021-08-16,株式会社リトルヒル,,株式会社,兵庫県,神戸市中央区,伊藤町１１０番２号,,28,110,6500032,,,2021-08-16,清算の結了等,,,2017-07-03,1,,,,,リトルヒル,0
1404,6140002002504,登記記録の閉鎖等,0,2021-08-19,2021-08-17,本山中古車有限会社,,有限会社,兵庫県,神戸市東灘区,住吉山手９丁目４番１７号,,28,101,6580063,,,2021-08-17,清算の結了等,,,2015-10-05,1,,,,,モトヤマチュウコシャ,0
1405,6140002050651,登記記録の閉鎖等,0,2021-08-19,2021-08-17,有限会社不二元商店,,有限会社,兵庫県,姫路市,網干区新在家１２９０番地,,28,201,6711234,,,2021-08-17,清算の結了等,,,2015-10-05,1,,,,,フジゲンショウテン,0
1412,6180302013024,登記記録の閉鎖等,0,2021-08-19,2021-08-17,有限会社亀家寿司,,有限会社,愛知県,豊川市,蔵子４丁目２番地３,,23,207,4420842,,,2021-08-17,清算の結了等,,,2015-10-05,1,,,,,カメヤズシ,0
1434,6270001007326,登記記録の閉鎖等,0,2021-08-19,2021-08-12,株式会社舛谷建設,,株式会社,鳥取県,米子市,淀江町淀江６９０番地５４,,31,202,6893402,,,2021-08-12,清算の結了等,,,2017-08-17,1,,,,,,0
1448,6290802025549,登記記録の閉鎖等,0,2021-08-19,2021-08-04,有限会社愛ネット,,有限会社,福岡県,田川郡福智町,金田１１２７番地２,,40,610,8221201,,,2021-08-04,清算の結了等,,,2015-10-05,1,,,,,アイネット,0
1452,6340001002286,登記記録の閉鎖等,0,2021-08-19,2021-08-16,株式会社スタイロジャパン,,株式会社,鹿児島県,鹿児島市,祇園之洲町３４番地,,46,201,8920803,,,2021-08-16,清算の結了等,,,2015-10-05,1,,,,,,0
1454,6340001019215,登記記録の閉鎖等,0,2021-08-19,2021-08-11,オフィスかけはし株式会社,,株式会社,鹿児島県,薩摩川内市,天辰町２２１１番地１,,46,215,8950011,,,2021-08-11,清算の結了等,,,2016-04-11,1,,,,,オフィスカケハシ,0
1463,6380002017726,登記記録の閉鎖等,0,2021-08-19,2021-08-12,有限会社クニイ模型,,有限会社,福島県,白河市,大信増見字外面８４番地,,07,205,9690308,,,2021-08-12,清算の結了等,,,2015-10-05,1,,,,,クニイモケイ,0
1464,6380002033178,登記記録の閉鎖等,0,2021-08-19,2021-08-12,有限会社マルヨシ,,有限会社,福島県,会津若松市,天神町１３番２７号,,07,202,9650832,,,2021-08-12,清算の結了等,,,2015-10-05,1,,,,,マルヨシ,0
1468,6400002011858,登記記録の閉鎖等,0,2021-08-19,2021-08-17,有限会社メゾン,,有限会社,東京都,足立区,西新井１丁目３８番８号,,13,121,1230841,,,2021-08-17,清算の結了等,,,2015-10-05,1,,,,,メゾン,0
1469,6400005004933,登記記録の閉鎖等,0,2021-08-19,2021-08-04,医療法人しらいわ会,,その他の設立登記法人,岩手県,久慈市,川崎町１０番３０号,,03,207,0280051,,,2021-08-04,清算の結了等,,,2015-10-05,1,,,,,シライワカイ,0
1472,6430001057528,登記記録の閉鎖等,0,2021-08-19,2021-08-04,株式会社渋木組,,株式会社,北海道,伊達市,北黄金町４９番地,,01,233,0590272,,,2021-08-04,清算の結了等,,,2015-10-05,1,,,,,シブキグミ,0
1479,6430005001779,登記記録の閉鎖等,0,2021-08-19,2021-07-28,医療法人社団島田歯科医院,,その他の設立登記法人,北海道,札幌市豊平区,平岸一条１丁目８番３号,,01,105,0620931,,,2021-07-28,清算の結了等,,,2015-10-05,1,,,,,シマダシカイイン,0
1501,7010101000180,登記記録の閉鎖等,0,2021-08-19,2021-08-13,東企画株式会社,,株式会社,東京都,八王子市,横川町４２５番地,,13,201,1930823,,,2021-08-13,清算の結了等,,,2015-10-05,1,,,,,アズマキカク,0
1502,7010101009230,登記記録の閉鎖等,0,2021-08-19,2021-08-10,株式会社シャガレリ,,株式会社,東京都,八王子市,松が谷８番地１レクセル多摩センターマークレジデンス１２３号,,13,201,1920354,,,2021-08-10,清算の結了等,,,2015-10-05,1,,,,,,0
1504,7010102004404,登記記録の閉鎖等,0,2021-08-19,2021-08-11,有限会社タバタ美容室,,有限会社,東京都,八王子市,横山町２５番４号クワタビル４Ｆ,,13,201,1920081,,,2021-08-11,清算の結了等,,,2015-10-05,1,,,,,タバタビヨウシツ,0
1508,7010401117014,登記記録の閉鎖等,0,2021-08-19,2021-08-04,株式会社ＴＩＦ０６号,,株式会社,東京都,港区,六本木１丁目４番５号アークヒルズサウスタワー３階,,13,103,1060032,,,2021-08-04,清算の結了等,,,2015-10-05,1,,,,,ティーアイエフゼロロクゴウ,0
1524,7010701019620,登記記録の閉鎖等,0,2021-08-19,2021-08-16,株式会社食育デモンストレーション研究所,,株式会社,東京都,品川区,南大井６丁目２４番１０号カドヤ第１０ビル７Ｆ,,13,109,1400013,,,2021-08-16,清算の結了等,,,2015-10-05,1,,,,,ショクイクデモンストレーションケンキュウジョ,0
1537,7011001070223,登記記録の閉鎖等,0,2021-08-19,2021-07-29,株式会社ドリームキッド,,株式会社,東京都,渋谷区,神宮前３丁目１５番１１号,,13,113,1500001,,,2021-07-29,合併による解散等,4011001104999,令和３年７月２９日東京都渋谷区神宮前三丁目１５番１１号株式会社ドリームキッド（4011001104999）に合併し解散,2015-10-05,1,,,,,ドリームキッド,0
1541,7011001134119,登記記録の閉鎖等,0,2021-08-19,2021-08-11,株式会社ジョブアップ,,株式会社,神奈川県,川崎市高津区,下野毛３丁目２番２１－３０３号,,14,134,2130006,,,2021-08-11,清算の結了等,,,2020-06-08,1,,,,,ジョブアップ,0
1554,7011201004889,登記記録の閉鎖等,0,2021-08-19,2021-08-12,株式会社プランナ総合サービス,,株式会社,東京都,中野区,沼袋３丁目７番２号,,13,114,1650025,,,2021-08-12,清算の結了等,,,2015-10-05,1,,,,,プランナソウゴウサービス,0
1563,7012401015362,登記記録の閉鎖等,0,2021-08-19,2021-08-12,株式会社スパントレジャー,,株式会社,東京都,多摩市,永山５丁目３３番地８,,13,224,2060025,,,2021-08-12,清算の結了等,,,2015-10-05,1,,,,,スパントレジャー,0
1567,7013103000660,登記記録の閉鎖等,0,2021-08-19,2021-08-16,合同会社Ｐｏｏｒｎｉｍａ,,合同会社,東京都,青梅市,新町５丁目１０番地の１５ラークバーレィ１０８,,13,205,1980024,,,2021-08-16,清算の結了等,,,2015-10-05,1,,,,,プルニマ,0
1588,7021001042015,登記記録の閉鎖等,0,2021-08-19,2021-08-13,株式会社エスケーワイ,,株式会社,神奈川県,三浦郡葉山町,長柄１６４２番地の１５５,,14,301,2400113,,,2021-08-13,清算の結了等,,,2015-10-05,1,,,,,エスケーワイ,0
1617,7040002041651,登記記録の閉鎖等,0,2021-08-19,2021-08-05,有限会社ペットブティックワン,,有限会社,千葉県,浦安市,今川２丁目５番２８号,,12,227,2790022,,,2021-08-05,清算の結了等,,,2015-10-05,1,,,,,ペットブティックワン,0
1623,7040002069957,登記記録の閉鎖等,0,2021-08-19,2021-08-06,有限会社山葉電気工事,,有限会社,千葉県,君津市,大和田１丁目２番地１４,,12,225,2991146,,,2021-08-06,清算の結了等,,,2015-10-05,1,,,,,サンヨウデンキコウジ,0
1666,7120101024383,登記記録の閉鎖等,0,2021-08-19,2021-08-16,株式会社四季,,株式会社,大阪府,堺市西区,平岡町２７５番３,,27,144,5938307,,,2021-08-16,清算の結了等,,,2015-10-05,1,,,,,シキ,0
1670,7120103001471,登記記録の閉鎖等,0,2021-08-19,2021-08-16,合同会社ヴィタビーン,,合同会社,大阪府,泉南郡熊取町,青葉台２丁目７番５号,,27,361,5900407,,,2021-08-16,清算の結了等,,,2015-10-05,1,,,,,ヴィタビーン,0
1707,7200002023831,登記記録の閉鎖等,0,2021-08-19,2021-08-13,有限会社親愛,,有限会社,岐阜県,中津川市,蛭川１０６６番地１,,21,206,5098301,,,2021-08-13,清算の結了等,,,2015-10-05,1,,,,,シンアイ,0
1712,7240001024505,登記記録の閉鎖等,0,2021-08-19,2021-08-02,ホンダ精工株式会社,,株式会社,広島県,三次市,四拾貫町２６７番地の１,,34,209,7280016,,,2021-08-02,清算の結了等,,,2015-10-05,1,,,,,ホンダセイコウ,0
1752,7380001021793,登記記録の閉鎖等,0,2021-08-19,2021-08-11,株式会社Ｍ’ｓグロース,,株式会社,福島県,いわき市,好間町下好間字叶田２７番地の３,,07,204,9701151,,,2021-08-11,清算の結了等,,,2015-10-05,1,,,,,エムズグロース,0
1758,7390002008707,登記記録の閉鎖等,0,2021-08-19,2021-08-12,有限会社小林土建,,有限会社,山形県,酒田市,浜中丁１番地,,06,204,9980112,,,2021-08-12,清算の結了等,,,2015-10-05,1,,,,,,0
1759,7390005002145,登記記録の閉鎖等,0,2021-08-19,2021-08-12,農事組合法人天童産直センター,,その他の設立登記法人,山形県,天童市,大字寺津高道３３５１,,06,210,9940073,,,2021-08-12,清算の結了等,,,2015-10-05,1,,,,,テンドウサンチョクセンター,0
1760,7410002003234,登記記録の閉鎖等,0,2021-08-19,2021-08-16,有限会社エーワイ企画,,有限会社,秋田県,秋田市,山王６丁目２番１号,,05,201,0100951,,,2021-08-16,清算の結了等,,,2015-10-05,1,,,,,エーワイキカク,0
1771,7500002004470,登記記録の閉鎖等,0,2021-08-19,2021-08-17,有限会社津田演奏堂,,有限会社,愛媛県,松山市,湊町４丁目１１番地５,,38,201,7900012,,,2021-08-17,清算の結了等,,,2015-10-05,1,,,,,ツダエンソウドウ,0
1775,8010001102084,登記記録の閉鎖等,0,2021-08-19,2021-08-12,株式会社ＡＤＷＩＮ,,株式会社,東京都,千代田区,内幸町２丁目２番３号日比谷国際ビル１８階,,13,101,1000011,,,2021-08-12,合併による解散等,9010401043968,令和３年８月１日東京都千代田区内幸町二丁目２番３号日比谷国際ビル１８階ヴィップシステム株式会社（9010401043968）に合併し解散,2015-10-05,1,,,,,アドウィン,0
1784,8010401063926,登記記録の閉鎖等,0,2021-08-19,2021-08-04,株式会社ジャトレ,,株式会社,東京都,港区,港南２丁目１５番１号品川インターシティＡ棟２８階,,13,103,1080075,,,2021-08-04,清算の結了等,,,2015-10-05,1,,,,,ジャトレ,0
1793,8010502015867,登記記録の閉鎖等,0,2021-08-19,2021-08-13,有限会社ヨシカワ,,有限会社,東京都,台東区,浅草４丁目４０番４号,,13,106,1110032,,,2021-08-13,清算の結了等,,,2015-10-05,1,,,,,ヨシカワ,0
1827,8011501023349,登記記録の閉鎖等,0,2021-08-19,2021-08-13,ナイトー興業株式会社,,株式会社,東京都,北区,志茂１丁目２９番２－２０２号,,13,117,1150042,,,2021-08-13,清算の結了等,,,2018-01-12,1,,,,,,0
1832,8011602009940,登記記録の閉鎖等,0,2021-08-19,2021-08-18,有限会社メディエイト,,有限会社,東京都,練馬区,旭町１丁目３３番３号,,13,120,1790071,,,2021-08-18,清算の結了等,,,2015-10-05,1,,,,,メディエイト,0
1839,8012402021004,登記記録の閉鎖等,0,2021-08-19,2021-08-12,有限会社ケイエムエスプロデュース,,有限会社,東京都,三鷹市,上連雀３丁目１３番１５号,,13,204,1810012,,,2021-08-12,清算の結了等,,,2015-10-05,1,,,,,ケイエムエスプロデュース,0
1848,8020001031159,登記記録の閉鎖等,0,2021-08-19,2021-08-06,パックリムリサーチ株式会社,,株式会社,神奈川県,横浜市中区,山下町１番地,,14,104,2310023,,,2021-08-06,清算の結了等,,,2015-10-05,1,,,,,パックリムリサーチ,0
1859,8020005005778,登記記録の閉鎖等,0,2021-08-19,2021-08-11,特定非営利活動法人ゆう・青空,,その他の設立登記法人,神奈川県,横浜市神奈川区,片倉１丁目５番８－３０７号,,14,102,2210865,,,2021-08-11,清算の結了等,,,2015-10-05,1,,,,,,0
1879,8040001041255,登記記録の閉鎖等,0,2021-08-19,2021-08-06,株式会社奈部川化学,,株式会社,千葉県,流山市,駒木台４９３番地の３６,,12,220,2700113,,,2021-08-06,清算の結了等,,,2015-10-05,1,,,,,ナベカワカガク,0
1892,8070001014076,登記記録の閉鎖等,0,2021-08-19,2021-08-13,株式会社京屋建設,,株式会社,群馬県,伊勢崎市,境三ツ木２２７番地１１,,10,204,3700113,,,2021-08-13,清算の結了等,,,2015-10-05,1,,,,,キョウヤケンセツ,0
1893,8070002028901,登記記録の閉鎖等,0,2021-08-19,2021-08-06,有限会社きりや商店,,有限会社,群馬県,太田市,浜町２２番１５号,,10,205,3730853,,,2021-08-06,清算の結了等,,,2015-10-05,1,,,,,キリヤショウテン,0
1935,8140005021904,登記記録の閉鎖等,0,2021-08-19,2021-08-12,特定非営利活動法人すぎな,,その他の設立登記法人,兵庫県,姫路市,砥堀９９１番地４ロワイヤル砥堀６０３,,28,201,6700802,,,2021-08-12,清算の結了等,,,2015-10-05,1,,,,,スギナ,0
1954,8250002000197,登記記録の閉鎖等,0,2021-08-19,2021-08-17,稻田建設有限会社,,有限会社,山口県,山口市,阿東徳佐上３６３６番地,,35,203,7591511,,,2021-08-17,清算の結了等,,,2015-10-05,1,,,,,イナダケンセツ,0
1982,8380002020851,登記記録の閉鎖等,0,2021-08-19,2021-08-12,有限会社石川高原鹿牧場,,有限会社,福島県,石川郡石川町,大字母畑字鳥喰１０９番地,,07,501,9637831,,,2021-08-12,清算の結了等,,,2015-10-05,1,,,,,,0
1986,8390002001520,登記記録の閉鎖等,0,2021-08-19,2021-08-17,有限会社施工図センター,,有限会社,山形県,山形市,小白川町４丁目１番５号,,06,201,9900021,,,2021-08-17,清算の結了等,,,2015-10-05,1,,,,,セコウズセンター,0
1988,8410001009314,登記記録の閉鎖等,0,2021-08-19,2021-08-17,株式会社アドバーンス,,株式会社,秋田県,横手市,安田字堰端５２番地１,,05,203,0130043,,,2021-08-17,清算の結了等,,,2015-10-05,1,,,,,アドバーンス,0
2020,9010003019631,登記記録の閉鎖等,0,2021-08-19,2021-08-13,合同会社天神レジデンス,,合同会社,東京都,千代田区,丸の内３丁目１番１号,,13,101,1000005,,,2021-08-13,清算の結了等,,,2015-10-05,1,,,,,テンジンレジデンス,0
2044,9010405013604,登記記録の閉鎖等,0,2021-08-19,2021-08-04,一般社団法人ＴＩＦ０５号,,その他の設立登記法人,東京都,港区,六本木１丁目４番５号アークヒルズサウスタワー３階,,13,103,1060032,,,2021-08-04,清算の結了等,,,2015-10-05,1,,,,,ティーアイエフゼロゴゴウ,0
2046,9010601020924,登記記録の閉鎖等,0,2021-08-19,2021-08-11,株式会社アイ・アイ・シー・ジャパン,,株式会社,東京都,調布市,深大寺南町３丁目１７番地１深大寺レジデンスＧ４０６,,13,208,1820013,,,2021-08-11,清算の結了等,,,2015-10-05,1,,,,,アイアイシージャパン,0
2077,9012401031647,登記記録の閉鎖等,0,2021-08-19,2021-08-13,株式会社ＪＤＰ,,株式会社,東京都,三鷹市,北野２丁目４番５号,,13,204,1810003,,,2021-08-13,清算の結了等,,,2016-07-15,1,,,,,ジェイディーピー,0
2085,9020001022223,登記記録の閉鎖等,0,2021-08-19,2021-08-10,株式会社アーバンデザイン,,株式会社,神奈川県,横浜市神奈川区,片倉１丁目２番７－５０８号,,14,102,2210865,,,2021-08-10,清算の結了等,,,2015-10-05,1,,,,,アーバンデザイン,0
2101,9021001014326,登記記録の閉鎖等,0,2021-08-19,2021-08-13,株式会社ヨコヤマ,,株式会社,神奈川県,相模原市中央区,中央３丁目１１番１９号榎本第２ビル２０１,,14,152,2520239,,,2021-08-13,清算の結了等,,,2015-10-05,1,,,,,ヨコヤマ,0
2106,9021002046467,登記記録の閉鎖等,0,2021-08-19,2021-08-16,有限会社しゅくや食品,,有限会社,神奈川県,綾瀬市,深谷上８丁目２５番１０号,,14,218,2521108,,,2021-08-16,清算の結了等,,,2015-10-05,1,,,,,シュクヤショクヒン,0
2107,9021002053967,登記記録の閉鎖等,0,2021-08-19,2021-08-16,有限会社城山オフィスアカデミー,,有限会社,神奈川県,小田原市,城山４丁目１番３号,,14,206,2500045,,,2021-08-16,清算の結了等,,,2015-10-05,1,,,,,シロヤマオフィスアカデミー,0
2122,9030002122153,登記記録の閉鎖等,0,2021-08-19,2021-08-04,飯野造園土木有限会社,,有限会社,埼玉県,秩父郡皆野町,大字皆野１１８０番地,,11,362,3691412,,,2021-08-04,清算の結了等,,,2015-10-05,1,,,,,イイノゾウエンドボク,0
2125,9030005009315,登記記録の閉鎖等,0,2021-08-19,2021-08-05,医療法人高橋外科整形外科,,その他の設立登記法人,埼玉県,本庄市,千代田１丁目４番２２号,,11,211,3670054,,,2021-08-05,清算の結了等,,,2015-10-05,1,,,,,タカハシゲカセイケイゲカ,0
2144,9100002004732,登記記録の閉鎖等,0,2021-08-19,2021-08-19,有限会社松倉産業松風園,,有限会社,長野県,長野市,大字上駒沢１０１４番地ロの１,,20,201,3810082,,,2021-08-19,清算の結了等,,,2015-10-05,1,,,,,マツクラサンギョウショウフウエン,0
2158,9120103001602,登記記録の閉鎖等,0,2021-08-19,2021-08-16,合同会社ＡＫＪ,,合同会社,大阪府,藤井寺市,東藤井寺町９番１８号,,27,226,5830022,,,2021-08-16,清算の結了等,,,2015-10-05,1,,,,,エーケージェー,0
2159,9130001007849,登記記録の閉鎖等,0,2021-08-19,2021-08-17,株式会社一の井,,株式会社,京都府,京都市西京区,御陵峰ケ堂町２丁目３０番地４６,,26,111,6101103,,,2021-08-17,清算の結了等,,,2015-10-05,1,,,,,,0
2169,9130003003334,登記記録の閉鎖等,0,2021-08-19,2021-08-16,合同会社ピクセルエンジン,,合同会社,京都府,京都市左京区,田中上玄京町４７番地,,26,103,6068215,,,2021-08-16,清算の結了等,,,2015-10-05,1,,,,,ピクセルエンジン,0
2170,9140001012443,登記記録の閉鎖等,0,2021-08-19,2021-08-17,阿部建材株式会社,,株式会社,兵庫県,神戸市兵庫区,塚本通２丁目１番１１号,,28,105,6520804,,,2021-08-17,清算の結了等,,,2015-10-05,1,,,,,アベケンザイ,0
2180,9150005007117,登記記録の閉鎖等,0,2021-08-19,2021-08-16,一般財団法人大塔ふる里センター,,その他の設立登記法人,奈良県,五條市,大塔町宇井９４番地,,29,207,6370405,,,2021-08-16,清算の結了等,,,2015-10-05,1,,,,,オオトウフルサトセンター,0
2186,9180002081806,登記記録の閉鎖等,0,2021-08-19,2021-08-13,有限会社クリエイテイブ・プロモーション,,有限会社,愛知県,江南市,島宮町巡見９７番地,,23,217,4838269,,,2021-08-13,清算の結了等,,,2015-10-05,1,,,,,クリエイテイブプロモーション,0
2192,9180301029596,登記記録の閉鎖等,0,2021-08-19,2021-08-18,株式会社宮健ライン,,株式会社,愛知県,安城市,大東町１９番２９号,,23,212,4460065,,,2021-08-18,清算の結了等,,,2016-09-07,1,,,,,ミヤケンライン,0
2219,9330001020278,登記記録の閉鎖等,0,2021-08-19,2021-08-17,株式会社スターズ,,株式会社,熊本県,菊池市,泗水町永２８３４番地６０,,43,210,8611204,,,2021-08-17,清算の結了等,,,2015-10-05,1,,,,,,0
2238,9380001004383,登記記録の閉鎖等,0,2021-08-19,2021-08-12,株式会社上石,,株式会社,福島県,郡山市,大町１丁目１１番１１号,,07,203,9638001,,,2021-08-12,清算の結了等,,,2015-10-05,1,,,,,アゲイシ,0
2256,9470002000562,登記記録の閉鎖等,0,2021-08-19,2021-08-17,有限会社アキ,,有限会社,香川県,高松市,番町２丁目４番１号,,37,201,7600017,,,2021-08-17,清算の結了等,,,2015-10-05,1,,,,,アキ,0
