sequenceNumber,corporateNumber,process,correct,updateDate,changeDate,name,nameImageId,kind,prefectureName,cityName,streetNumber,addressImageId,prefectureCode,cityCode,postCode,addressOutside,addressOutsideImageId,closeDate,closeCause,successorCorporateNumber,changeCause,assignmentDate,latest,enName,enPrefectureName,enCityName,enAddressOutside,furigana,hihyoji
4,1010001204465,登記記録の閉鎖等,0,2025-10-30,2025-10-01,株式会社プラット,,株式会社,東京都,港区,虎ノ門３丁目１８－６朝日虎ノ門マンション５０７,,13,103,1050001,,,2025-10-01,清算の結了等,,,2019-10-08,1,,,,,プラット,0
5,1010001248314,登記記録の閉鎖等,0,2025-10-30,2025-10-20,株式会社アカサイスキーム,,株式会社,東京都,中央区,日本橋堀留町１丁目３番１６号ＪＳＢレジデンス＆オフィス日本橋６２３号,,13,102,1030012,,,2025-10-20,清算の結了等,,,2024-09-19,1,,,,,アカサイスキーム,0
17,1010401148493,登記記録の閉鎖等,0,2025-10-30,2025-10-01,株式会社旅行綜研東日本,,株式会社,東京都,港区,虎ノ門１丁目１３番３号,,13,103,1050001,,,2025-10-01,合併による解散等,9010401031683,令和７年１０月１日東京都港区虎ノ門一丁目１３番３号株式会社旅行綜研（9010401031683）に合併し解散,2019-10-07,1,,,,,リョコウソウケンヒガシニホン,0
24,1010405022595,登記記録の閉鎖等,0,2025-10-30,2025-10-01,一般社団法人ＨＤＧ３９,,その他の設立登記法人,東京都,港区,虎ノ門３丁目２２番１０－２０１号,,13,103,1050001,,,2025-10-01,清算の結了等,,,2023-10-25,1,,,,,エイチディージースリーナイン,0
32,1011001093477,登記記録の閉鎖等,0,2025-10-30,2025-10-01,株式会社ゴールドラッシュフーズ,,株式会社,東京都,渋谷区,宇田川町４番７号トウセン宇田川ビル４階,,13,113,1500042,,,2025-10-01,清算の結了等,,,2015-10-05,1,,,,,ゴールドラッシュフーズ,0
40,1011101081869,登記記録の閉鎖等,0,2025-10-30,2025-09-01,ＭＡＣＫＥＶＩＳＩＯＮ　Ｊａｐａｎ株式会社,,株式会社,東京都,港区,三田１丁目４番１号,,13,103,1080073,,,2025-09-01,合併による解散等,7010401001556,令和７年９月１日東京都港区赤坂一丁目８番１号アクセンチュア株式会社（7010401001556）に合併し解散,2017-09-29,1,,,,,マッケヴィジョンジャパン,0
43,1011401022696,登記記録の閉鎖等,0,2025-10-30,2025-10-24,株式会社マッスル,,株式会社,東京都,板橋区,若木２丁目１８番５号,,13,119,1740065,,,2025-10-24,清算の結了等,,,2020-07-20,1,,,,,マッスル,0
54,1011801020440,登記記録の閉鎖等,0,2025-10-30,2025-10-27,株式会社ＢＩＫＥＮ,,株式会社,東京都,足立区,神明３丁目２５番５号,,13,121,1210051,,,2025-10-27,清算の結了等,,,2015-10-05,1,,,,,ビケン,0
61,1013301037295,登記記録の閉鎖等,0,2025-10-30,2025-10-01,ＨＩＴＯＷＡライフパートナー株式会社,,株式会社,東京都,港区,港南２丁目１５番３号,,13,103,1080075,,,2025-10-01,合併による解散等,8010003032214,令和７年１０月１日東京都港区港南二丁目１５番３号ＨＩＴＯＷＡホールディングス株式会社（8010003032214）に合併し解散,2015-10-05,1,,,,,ヒトワライフパートナー,0
66,1020001141138,登記記録の閉鎖等,0,2025-10-30,2025-10-02,株式会社昂進,,株式会社,千葉県,柏市,豊四季６０８番地４シンプラ－ナ２０１号,,12,217,2770863,,,2025-10-02,清算の結了等,,,2021-05-06,1,,,,,コウシン,0
73,1020002096604,登記記録の閉鎖等,0,2025-10-30,2025-10-15,有限会社黒尾製作所,,有限会社,神奈川県,川崎市川崎区,中瀬３丁目１５番５号,,14,131,2100818,,,2025-10-15,清算の結了等,,,2015-10-05,1,,,,,クロオセイサクショ,0
75,1020005014224,登記記録の閉鎖等,0,2025-10-30,2025-10-10,特定非営利活動法人伊勢山キッズクラブ,,その他の設立登記法人,神奈川県,横浜市泉区,和泉中央南２丁目１３番５４号,,14,116,2450023,,,2025-10-10,清算の結了等,,,2019-07-09,1,,,,,イセヤマキッズクラブ,0
81,1030001053910,登記記録の閉鎖等,0,2025-10-30,2025-10-22,株式会社ビーワン,,株式会社,埼玉県,春日部市,豊野町２丁目３０番地１２,,11,214,3440014,,,2025-10-22,清算の結了等,,,2015-10-05,1,,,,,ビーワン,0
88,1070002022869,登記記録の閉鎖等,0,2025-10-30,2025-10-24,尾池電業有限会社,,有限会社,群馬県,桐生市,新里町新川３８７４番地,,10,203,3760121,,,2025-10-24,清算の結了等,,,2015-10-05,1,,,,,オイケデンギョウ,0
89,1080103002439,登記記録の閉鎖等,0,2025-10-30,2025-10-21,合同会社ＤＲＥＡＭ　ＦＡＣＴＯＲＹ,,合同会社,静岡県,伊東市,銀座元町３－３,,22,208,4140028,,,2025-10-21,合併による解散等,5010503005291,令和７年９月３０日静岡県伊東市銀座元町３－３ＯＮＥ　ＷＩＮＧ合同会社（5010503005291）に合併し解散,2021-10-25,1,,,,,ドリームファクトリー,0
92,1120001022872,登記記録の閉鎖等,0,2025-10-30,2025-10-20,カズワ商事株式会社,,株式会社,大阪府,大阪市中央区,谷町５丁目３番１９号,,27,128,5400012,,,2025-10-20,清算の結了等,,,2015-10-05,1,,,,,カズワショウジ,0
98,1120001127283,登記記録の閉鎖等,0,2025-10-30,2025-10-27,株式会社ザ・グロース,,株式会社,兵庫県,宝塚市,中山桜台２丁目３番２号,,28,214,6650877,,,2025-10-27,合併による解散等,6120002066971,令和７年１０月２６日兵庫県宝塚市中山桜台二丁目３番２号株式会社ファイン・ロード（6120002066971）に合併し解散,2015-10-05,1,,,,,ザグロース,0
109,1120002075333,登記記録の閉鎖等,0,2025-10-30,2025-10-21,有限会社豊工業,,有限会社,大阪府,枚方市,田口山２丁目２８番５号,,27,210,5730001,,,2025-10-21,清算の結了等,,,2015-10-05,1,,,,,ユタカコウギョウ,0
111,1120901010828,登記記録の閉鎖等,0,2025-10-30,2025-10-14,京阪ガスマイニング株式会社,,株式会社,大阪府,高槻市,真上町２丁目５番１７号,,27,207,5691121,,,2025-10-14,清算の結了等,,,2015-10-05,1,,,,,ケイハンガスマイニング,0
121,1140001057181,登記記録の閉鎖等,0,2025-10-30,2025-10-23,株式会社ＨＫＢ,,株式会社,兵庫県,神戸市東灘区,向洋町中６丁目９番地,,28,101,6580032,,,2025-10-23,清算の結了等,,,2015-10-05,1,,,,,,0
122,1140001067206,登記記録の閉鎖等,0,2025-10-30,2025-10-23,株式会社さくら,,株式会社,兵庫県,三田市,大原７１２番地８,,28,219,6691515,,,2025-10-23,清算の結了等,,,2015-10-05,1,,,,,サクラ,0
129,1140002035962,登記記録の閉鎖等,0,2025-10-30,2025-10-23,有限会社昇豊,,有限会社,兵庫県,加古川市,尾上町長田５０９番地,,28,210,6750024,,,2025-10-23,清算の結了等,,,2015-10-05,1,,,,,ショウホウ,0
144,1180002091523,登記記録の閉鎖等,0,2025-10-30,2025-10-27,有限会社カトーセイコー,,有限会社,愛知県,あま市,上萱津矢台２番地の２,,23,237,4901112,,,2025-10-27,清算の結了等,,,2015-10-05,1,,,,,カトーセイコー,0
156,1220001023522,登記記録の閉鎖等,0,2025-10-30,2025-10-27,株式会社住宅の窓口,,株式会社,石川県,金沢市,彦三町１丁目２番１号アソルティ金沢彦三,,17,201,9200901,,,2025-10-27,清算の結了等,,,2020-05-01,1,,,,,,0
157,1240001036893,登記記録の閉鎖等,0,2025-10-30,2025-10-23,株式会社宝電社,,株式会社,広島県,安芸郡坂町,横浜中央１丁目３番１６号,,34,309,7314323,,,2025-10-23,清算の結了等,,,2015-10-05,1,,,,,ホウデンシャ,0
161,1240002011986,登記記録の閉鎖等,0,2025-10-30,2025-10-27,有限会社七代目坂田印房,,有限会社,広島県,広島市中区,幟町６番１１号,,34,101,7300016,,,2025-10-27,清算の結了等,,,2015-10-05,1,,,,,ナナダイメサカタインボウ,0
168,1260001027098,登記記録の閉鎖等,0,2025-10-30,2025-10-27,株式会社エープロテクト,,株式会社,岡山県,井原市,井原町２９２８番地１,,33,207,7150019,,,2025-10-27,清算の結了等,,,2015-10-05,1,,,,,エープロテクト,0
174,1290001034678,登記記録の閉鎖等,0,2025-10-30,2025-10-14,株式会社中谷,,株式会社,福岡県,糟屋郡粕屋町,内橋東３丁目１４番１８－２０３号レジデンス内橋,,40,349,8112320,,,2025-10-14,清算の結了等,,,2015-10-05,1,,,,,ナカタニ,0
175,1290001049230,登記記録の閉鎖等,0,2025-10-30,2025-10-03,株式会社東広,,株式会社,福岡県,久留米市,荘島町１４番地２４,,40,203,8300042,,,2025-10-03,清算の結了等,,,2015-10-05,1,,,,,トーコー,0
176,1290001050915,登記記録の閉鎖等,0,2025-10-30,2025-10-15,株式会社タカトモ,,株式会社,福岡県,柳川市,金納４番地６,,40,207,8320007,,,2025-10-15,清算の結了等,,,2015-10-05,1,,,,,タカトモ,0
181,1290001066531,登記記録の閉鎖等,0,2025-10-30,2025-10-10,株式会社ジーエル構造,,株式会社,福岡県,福岡市中央区,大名１丁目２番２０－４０８号,,40,133,8100041,,,2025-10-10,清算の結了等,,,2015-10-05,1,,,,,ジーエルコウゾウ,0
196,1340005007352,登記記録の閉鎖等,0,2025-10-30,2025-10-29,医療法人牧瀬内科クリニック,,その他の設立登記法人,鹿児島県,曽於郡大崎町,神領２３９４番地１,,46,468,8997302,,,2025-10-29,清算の結了等,,,2015-10-05,1,,,,,マキセナイカクリニック,0
202,1400001008892,登記記録の閉鎖等,0,2025-10-30,2025-10-16,サンライツ株式会社,,株式会社,岩手県,盛岡市,東桜山３２番１０号,,03,201,0200804,,,2025-10-16,清算の結了等,,,2015-10-05,1,,,,,サンライツ,0
206,1420002007891,登記記録の閉鎖等,0,2025-10-30,2025-10-21,有限会社東北計測工業,,有限会社,青森県,八戸市,八太郎２丁目１番３０号,,02,203,0391168,,,2025-10-21,清算の結了等,,,2015-10-05,1,,,,,トウホクケイソクコウギョウ,0
214,1440002004573,登記記録の閉鎖等,0,2025-10-30,2025-10-24,有限会社丸仁及能興産,,有限会社,北海道,函館市,湯浜町７番２０号,,01,202,0420933,,,2025-10-24,清算の結了等,,,2015-10-05,1,,,,,マルニキュウノコウサン,0
223,2010001096448,登記記録の閉鎖等,0,2025-10-30,2025-10-01,ＨＩＴＯＷＡフードサービス株式会社,,株式会社,東京都,港区,港南２丁目１５番３号,,13,103,1080075,,,2025-10-01,合併による解散等,8010003032214,令和７年１０月１日東京都港区港南二丁目１５番３号ＨＩＴＯＷＡホールディングス株式会社（8010003032214）に合併し解散,2015-10-05,1,,,,,ヒトワフードサービス,0
233,2010003042029,登記記録の閉鎖等,0,2025-10-30,2025-10-17,合同会社ＳＰＣ　Ｔｏｋｙｏ,,合同会社,東京都,千代田区,平河町１丁目６番１５号シルスフィア会計事務所内,,13,101,1020093,,,2025-10-17,清算の結了等,,,2023-10-25,1,,,,,エスピーシートウキョウ,0
240,2010401061217,登記記録の閉鎖等,0,2025-10-30,2025-10-01,シュアラスター株式会社,,株式会社,東京都,港区,新橋５丁目７番１２号,,13,103,1050004,,,2025-10-01,合併による解散等,7010401013972,令和７年１０月１日東京都港区新橋五丁目７番１２号シュアラスター株式会社（7010401013972）に合併し解散,2015-10-05,1,,,,,シュアラスター,0
253,2010501012425,登記記録の閉鎖等,0,2025-10-30,2025-10-20,株式会社姫山商事,,株式会社,東京都,台東区,台東３丁目１８番４号,,13,106,1100016,,,2025-10-20,清算の結了等,,,2015-10-05,1,,,,,ヒメヤマショウジ,0
254,2010501044369,登記記録の閉鎖等,0,2025-10-30,2025-10-01,株式会社虎い＆ｔｒｙ,,株式会社,東京都,港区,虎ノ門３丁目１８－６朝日虎ノ門マンション５０７,,13,103,1050001,,,2025-10-01,清算の結了等,,,2019-07-11,1,,,,,トライアンドトライ,0
262,2010903004284,登記記録の閉鎖等,0,2025-10-30,2025-10-15,エステイトアルケミスト合同会社,,合同会社,東京都,渋谷区,神宮前６丁目２３番４号桑野ビル２階,,13,113,1500001,,,2025-10-15,合併による解散等,1010003023896,令和７年９月１日東京都中央区銀座一丁目２２番１１号銀座大竹ビジデンス２階ハイブリッドインベストメント合同会社（1010003023896）に合併し解散,2018-05-10,1,,,,,エステイトアルケミスト,0
284,2011601022611,登記記録の閉鎖等,0,2025-10-30,2025-10-22,アロマ・スクール香楽株式会社,,株式会社,東京都,練馬区,豊玉北５丁目３２番１３号菱新ビル５０１,,13,120,1760012,,,2025-10-22,清算の結了等,,,2018-06-04,1,,,,,アロマスクールコウラク,0
287,2011701001812,登記記録の閉鎖等,0,2025-10-30,2025-10-21,株式会社大久工務店,,株式会社,東京都,江戸川区,北小岩１丁目１８番７号,,13,123,1330051,,,2025-10-21,清算の結了等,,,2015-10-05,1,,,,,ダイキュウコウムテン,0
289,2011703002569,登記記録の閉鎖等,0,2025-10-30,2025-10-24,合同会社ギブリッヂ,,合同会社,東京都,江戸川区,船堀３丁目５番２６－２０２号,,13,123,1340091,,,2025-10-24,清算の結了等,,,2020-06-12,1,,,,,ギブリッヂ,0
303,2021002001593,登記記録の閉鎖等,0,2025-10-30,2025-10-09,有限会社クリーニングすずらん,,有限会社,神奈川県,藤沢市,高倉５９６番地１,,14,205,2520802,,,2025-10-09,清算の結了等,,,2015-10-05,1,,,,,クリーニングスズラン,0
315,2060002002879,登記記録の閉鎖等,0,2025-10-30,2025-10-28,有限会社カネマル虎屋,,有限会社,栃木県,宇都宮市,南大通り１丁目２番２２号,,09,201,3210963,,,2025-10-28,清算の結了等,,,2015-10-05,1,,,,,カネマルトラヤ,0
319,2070001019733,登記記録の閉鎖等,0,2025-10-30,2025-10-22,サコス株式会社,,株式会社,群馬県,太田市,石原町４５６番地の１,,10,205,3730808,,,2025-10-22,清算の結了等,,,2015-10-05,1,,,,,サコス,0
322,2070002020715,登記記録の閉鎖等,0,2025-10-30,2025-10-22,有限会社グリーンエステートハラダ,,有限会社,群馬県,佐波郡玉村町,大字八幡原１７７０番地４,,10,464,3701125,,,2025-10-22,清算の結了等,,,2015-10-05,1,,,,,グリーンエステートハラダ,0
325,2080401014283,登記記録の閉鎖等,0,2025-10-30,2025-10-22,株式会社掛川戸田書店,,株式会社,静岡県,掛川市,中央３丁目１６１番地,,22,213,4360056,,,2025-10-22,清算の結了等,,,2015-10-05,1,,,,,カケガワトダショテン,0
369,2130001023687,登記記録の閉鎖等,0,2025-10-30,2025-10-27,株式会社メディカルコミュー,,株式会社,京都府,京都市南区,上鳥羽北塔ノ本町２番地ＳＭＧビル２Ｆ,,26,107,6018122,,,2025-10-27,清算の結了等,,,2015-10-05,1,,,,,,0
372,2130002034213,登記記録の閉鎖等,0,2025-10-30,2025-10-27,有限会社舞鶴ライフプランニング,,有限会社,京都府,舞鶴市,京月町１００番地の４０,,26,202,6250076,,,2025-10-27,清算の結了等,,,2015-10-05,1,,,,,マイヅルライフプランニング,0
375,2140001063749,登記記録の閉鎖等,0,2025-10-30,2025-10-27,株式会社ＣＳ管理会社,,株式会社,兵庫県,姫路市,呉服町７０番地,,28,201,6700923,,,2025-10-27,清算の結了等,,,2015-10-05,1,,,,,シーエスカンリガイシャ,0
390,2180001001341,登記記録の閉鎖等,0,2025-10-30,2025-10-16,株式会社守山製作所,,株式会社,愛知県,尾張旭市,下井町はねうち２３４５番地の１,,23,226,4880000,,,2025-10-16,合併による解散等,6180001016360,令和７年１０月１６日愛知県尾張旭市下井町はねうち２３４５番地の１尾張精機株式会社（6180001016360）に合併し解散,2015-10-05,1,,,,,モリヤマセイサクジョ,0
394,2180001112444,登記記録の閉鎖等,0,2025-10-30,2025-10-17,株式会社ふぇりちった,,株式会社,愛知県,名古屋市中区,栄１丁目４番１号,,23,106,4600008,,,2025-10-17,清算の結了等,,,2015-10-05,1,,,,,フェリチッタ,0
401,2180002003601,登記記録の閉鎖等,0,2025-10-30,2025-10-17,有限会社伊勢屋,,有限会社,愛知県,名古屋市千種区,大久手町５丁目８番地の４,,23,101,4640854,,,2025-10-17,清算の結了等,,,2015-10-05,1,,,,,イセヤ,0
407,2210002011195,登記記録の閉鎖等,0,2025-10-30,2025-10-28,有限会社シテイ不動産,,有限会社,福井県,敦賀市,三島町１丁目３番２５号,,18,202,9140058,,,2025-10-28,清算の結了等,,,2015-10-05,1,,,,,シテイフドウサン,0
409,2220002004215,登記記録の閉鎖等,0,2025-10-30,2025-10-27,有限会社ナカケン,,有限会社,石川県,金沢市,花里町１０番３号,,17,201,9200951,,,2025-10-27,清算の結了等,,,2015-10-05,1,,,,,,0
416,2260002033243,登記記録の閉鎖等,0,2025-10-30,2025-10-22,藤正工業有限会社,,有限会社,岡山県,玉野市,宇野２丁目２９番１９号,,33,204,7060011,,,2025-10-22,清算の結了等,,,2015-10-05,1,,,,,フジマサコウギョウ,0
422,2290001023903,登記記録の閉鎖等,0,2025-10-30,2025-10-08,株式会社内田合同,,株式会社,福岡県,福岡市南区,長丘４丁目４番１９号,,40,134,8150075,,,2025-10-08,清算の結了等,,,2015-10-05,1,,,,,ウチダゴウドウ,0
424,2290001053231,登記記録の閉鎖等,0,2025-10-30,2025-10-01,株式会社丸仙工業,,株式会社,福岡県,柳川市,間字門ノ町６９０番地の２,,40,207,8320088,,,2025-10-01,清算の結了等,,,2015-10-05,1,,,,,マルセンコウギョウ,0
430,2290002047645,登記記録の閉鎖等,0,2025-10-30,2025-10-03,有限会社光益食料品店,,有限会社,福岡県,八女市,本町１番地の２４５,,40,210,8340031,,,2025-10-03,清算の結了等,,,2015-10-05,1,,,,,ミツマスショクリョウヒンテン,0
431,2290003003060,登記記録の閉鎖等,0,2025-10-30,2025-10-01,かんながら合同会社,,合同会社,福岡県,久留米市,長門石２丁目４番３９号,,40,203,8300027,,,2025-10-01,清算の結了等,,,2015-10-05,1,,,,,カンナガラ,0
440,2340001020639,登記記録の閉鎖等,0,2025-10-30,2025-10-23,株式会社ほいで,,株式会社,鹿児島県,鹿児島市,中央町６番地１,,46,201,8900053,,,2025-10-23,清算の結了等,,,2017-10-04,1,,,,,ホイデ,0
441,2350002011017,登記記録の閉鎖等,0,2025-10-30,2025-10-27,有限会社村山商事,,有限会社,宮崎県,日向市,江良町３丁目１２１番地１０,,45,206,8830012,,,2025-10-27,清算の結了等,,,2015-10-05,1,,,,,,0
446,2380001017350,登記記録の閉鎖等,0,2025-10-30,2025-10-21,株式会社金川屋星商店,,株式会社,福島県,会津若松市,日新町１番２３号,,07,202,9650861,,,2025-10-21,清算の結了等,,,2015-10-05,1,,,,,カナガワヤホシショウテン,0
448,2390002007143,登記記録の閉鎖等,0,2025-10-30,2025-10-27,有限会社小沢彦太郎商店,,有限会社,山形県,酒田市,本町３丁目１２番１５号,,06,204,9980043,,,2025-10-27,清算の結了等,,,2015-10-05,1,,,,,オザワヒコタロウショウテン,0
456,2420002013377,登記記録の閉鎖等,0,2025-10-30,2025-10-20,有限会社さらしな,,有限会社,青森県,弘前市,大字新里字東里見１１２番地３,,02,202,0368083,,,2025-10-20,清算の結了等,,,2015-10-05,1,,,,,サラシナ,0
464,2440002001248,登記記録の閉鎖等,0,2025-10-30,2025-10-17,有限会社北日本消毒,,有限会社,北海道,北斗市,七重浜７丁目１１番１号,,01,236,0490111,,,2025-10-17,清算の結了等,,,2015-10-05,1,,,,,キタニホンショウドク,0
468,2470001000446,登記記録の閉鎖等,0,2025-10-30,2025-10-27,株式会社アビーム,,株式会社,香川県,高松市,西山崎町４８９番地７,,37,201,7618045,,,2025-10-27,清算の結了等,,,2015-10-05,1,,,,,アビーム,0
485,3010003031030,登記記録の閉鎖等,0,2025-10-30,2025-10-17,札幌ホテル２ＴＫ合同会社,,合同会社,東京都,千代田区,九段南３丁目７番７号成和綜合会計事務所内,,13,101,1020074,,,2025-10-17,清算の結了等,,,2019-11-12,1,,,,,サッポロホテルツーティーケー,0
492,3010005024016,登記記録の閉鎖等,0,2025-10-30,2025-10-23,一般社団法人スパ＆ウエルネスウィーク,,その他の設立登記法人,東京都,中央区,佃１丁目１１番６号,,13,102,1040051,,,2025-10-23,清算の結了等,,,2015-10-05,1,,,,,スパアンドウェルネスウィーク,0
495,3010401047124,登記記録の閉鎖等,0,2025-10-30,2025-10-01,株式会社Ｔ＆ＣＯＭＰＡＮＹ,,株式会社,東京都,港区,芝浦２丁目３番３１号,,13,103,1080023,,,2025-10-01,合併による解散等,4010401010790,令和７年１０月１日東京都港区芝浦二丁目３番３１号第２高取ビル高取ロジスティクス株式会社（4010401010790）に合併し解散,2015-10-05,1,,,,,ティーアンドカンパニー,0
503,3010402016978,登記記録の閉鎖等,0,2025-10-30,2025-10-02,有限会社スタジオ写堂,,有限会社,東京都,港区,西麻布２丁目１３番１２号早野ビル４０４,,13,103,1060031,,,2025-10-02,清算の結了等,,,2015-10-05,1,,,,,スタジオシャドウ,0
504,3010403023016,登記記録の閉鎖等,0,2025-10-30,2025-10-01,合同会社ＹＯＡＫＥ,,合同会社,東京都,港区,高輪４丁目１５番９号,,13,103,1080074,,,2025-10-01,合併による解散等,6010703003053,令和７年１０月１日東京都港区高輪四丁目１５番９号株式会社Ｓａｒｔｏ　Ｉｎｖｅｓｔｍｅｎｔ（6010703003053）に合併し解散,2020-05-26,1,,,,,ヨアケ,0
540,3011502000211,登記記録の閉鎖等,0,2025-10-30,2025-10-27,有限会社赤羽増田屋,,有限会社,東京都,北区,赤羽２丁目２３番７号,,13,117,1150045,,,2025-10-27,清算の結了等,,,2015-10-05,1,,,,,アカバネマスダヤ,0
543,3011601017123,登記記録の閉鎖等,0,2025-10-30,2025-10-23,株式会社ＸＲＥＥ,,株式会社,東京都,練馬区,石神井町７丁目２７－６,,13,120,1770041,,,2025-10-23,清算の結了等,,,2015-10-05,1,,,,,エクスリー,0
544,3011605002451,登記記録の閉鎖等,0,2025-10-30,2025-10-22,一般社団法人活気村宣言,,その他の設立登記法人,東京都,練馬区,西大泉１丁目３２番１２号,,13,120,1780065,,,2025-10-22,清算の結了等,,,2022-05-17,1,,,,,カッキムラセンゲン,0
547,3012702003581,登記記録の閉鎖等,0,2025-10-30,2025-10-24,有限会社マルワスーパー,,有限会社,東京都,東村山市,富士見町２丁目２番地４８,,13,213,1890024,,,2025-10-24,清算の結了等,,,2015-10-05,1,,,,,マルワスーパー,0
552,3020001052894,登記記録の閉鎖等,0,2025-10-30,2025-10-17,株式会社ＡＺ－ＪＡＰＡＮ,,株式会社,神奈川県,横浜市港北区,新横浜１丁目１４番地２０光正第二ビル４０４号室,,14,109,2220033,,,2025-10-17,清算の結了等,,,2015-10-05,1,,,,,アズジャパン,0
557,3020003026038,登記記録の閉鎖等,0,2025-10-30,2025-10-17,蘭天合同会社,00134607,合同会社,神奈川県,川崎市川崎区,渡田１丁目１６番２－２０８号コアメゾン川崎,,14,131,2100837,,,2025-10-17,清算の結了等,,,2024-05-02,1,,,,,ランテン,0
570,3021002070489,登記記録の閉鎖等,0,2025-10-30,2025-10-10,有限会社エフテック,,有限会社,神奈川県,横須賀市,ハイランド２丁目４８番１４号,,14,201,2390833,,,2025-10-10,清算の結了等,,,2015-10-05,1,,,,,エフテック,0
581,3050001041696,登記記録の閉鎖等,0,2025-10-30,2025-10-20,株式会社田中興業,,株式会社,茨城県,鹿嶋市,大字下津２６４番地４９,,08,222,3140004,,,2025-10-20,清算の結了等,,,2016-10-12,1,,,,,タナカコウギョウ,0
586,3060005004310,登記記録の閉鎖等,0,2025-10-30,2025-10-28,一般財団法人大田原市管理公社,,その他の設立登記法人,栃木県,大田原市,本町１丁目２７１６番地５,,09,210,3240041,,,2025-10-28,清算の結了等,,,2015-10-05,1,,,,,オオタワラシカンリコウシャ,0
599,3110002000926,登記記録の閉鎖等,0,2025-10-30,2025-10-17,有限会社インプツト新潟,,有限会社,新潟県,新潟市中央区,米山４丁目１番２３号,,15,103,9500916,,,2025-10-17,清算の結了等,,,2015-10-05,1,,,,,インプットニイガタ,0
604,3120001271897,登記記録の閉鎖等,0,2025-10-30,2025-10-27,盛高株式会社,,株式会社,大阪府,大阪市旭区,高殿７丁目３番４号,,27,117,5350031,,,2025-10-27,清算の結了等,,,2025-01-15,1,,,,,モリタカ,0
612,3120002028074,登記記録の閉鎖等,0,2025-10-30,2025-10-29,有限会社日置化学工業所,,有限会社,大阪府,大阪市淀川区,田川２丁目１番２４号,,27,123,5320027,,,2025-10-29,清算の結了等,,,2015-10-05,1,,,,,ヒオキカガクコウギョウショ,0
614,3120101051638,登記記録の閉鎖等,0,2025-10-30,2025-10-24,ジェイリビング株式会社,,株式会社,大阪府,堺市北区,長曽根町３０００番地２２,,27,146,5918025,,,2025-10-24,清算の結了等,,,2015-10-05,1,,,,,ジェイリビング,0
622,3122001018543,登記記録の閉鎖等,0,2025-10-30,2025-10-15,株式会社サカイレディスショップ,,株式会社,大阪府,八尾市,東久宝寺１丁目４番７号,,27,212,5810002,,,2025-10-15,清算の結了等,,,2015-10-05,1,,,,,サカイレディスショップ,0
634,3140001065505,登記記録の閉鎖等,0,2025-10-30,2025-10-24,株式会社ロトス,,株式会社,兵庫県,姫路市,東山２０９番地１,,28,201,6728014,,,2025-10-24,清算の結了等,,,2015-10-05,1,,,,,ロトス,0
637,3140002068184,登記記録の閉鎖等,0,2025-10-30,2025-10-08,有限会社ダイコー,,有限会社,兵庫県,宝塚市,末成町３９番２３号３－１,,28,214,6650044,,,2025-10-08,清算の結了等,,,2015-10-05,1,,,,,ダイコー,0
659,3180003027400,登記記録の閉鎖等,0,2025-10-30,2025-10-20,合同会社樹媽,,合同会社,愛知県,名古屋市中村区,中島町３丁目２１番地セントラルマンション１－Ａ,,23,105,4530022,,,2025-10-20,清算の結了等,,,2024-09-30,1,,,,,キボ,0
660,3180301006493,登記記録の閉鎖等,0,2025-10-30,2025-10-22,東海水道株式会社,,株式会社,愛知県,豊橋市,石巻本町字中屋敷２５番地,,23,201,4411115,,,2025-10-22,清算の結了等,,,2015-10-05,1,,,,,トウカイスイドウ,0
664,3190001014102,登記記録の閉鎖等,0,2025-10-30,2025-10-27,株式会社営繕,,株式会社,三重県,松阪市,嬉野一志町３１２番地１００,,24,204,5152305,,,2025-10-27,清算の結了等,,,2015-10-05,1,,,,,エイゼン,0
667,3200001037043,登記記録の閉鎖等,0,2025-10-30,2025-10-22,株式会社サトウ畜産,,株式会社,岐阜県,飛騨市,宮川町戸谷１７５番地,,21,217,5094544,,,2025-10-22,清算の結了等,,,2020-01-10,1,,,,,サトウチクサン,0
673,3220001026003,登記記録の閉鎖等,0,2025-10-30,2025-10-24,大洋繊維工業株式会社,,株式会社,石川県,加賀市,大聖寺観音町１０番地,,17,206,9220046,,,2025-10-24,清算の結了等,,,2024-05-31,1,,,,,,0
682,3280003000462,登記記録の閉鎖等,0,2025-10-30,2025-10-27,合名会社佐々木林業,,合名会社,島根県,益田市,高津７丁目３番２４号,,32,204,6980041,,,2025-10-27,清算の結了等,,,2015-10-05,1,,,,,ササキリンギョウ,0
683,3290001006064,登記記録の閉鎖等,0,2025-10-30,2025-10-06,株式会社アサカ,,株式会社,福岡県,福岡市中央区,唐人町１丁目３番４号,,40,133,8100063,,,2025-10-06,清算の結了等,,,2015-10-05,1,,,,,アサカ,0
684,3290001008399,登記記録の閉鎖等,0,2025-10-30,2025-10-14,総和不動産鑑定株式会社,,株式会社,福岡県,福岡市中央区,渡辺通５丁目２３番３－９０１号,,40,133,8100004,,,2025-10-14,清算の結了等,,,2015-10-05,1,,,,,ソウワフドウサンカンテイ,0
696,3290002028388,登記記録の閉鎖等,0,2025-10-30,2025-10-01,有限会社みどり屋本舗,,有限会社,福岡県,福岡市博多区,井相田２丁目２番１３号,,40,132,8120881,,,2025-10-01,清算の結了等,,,2015-10-05,1,,,,,,0
712,3360003014140,登記記録の閉鎖等,0,2025-10-30,2025-10-28,合同会社Ｂｕｎｎｙ,,合同会社,沖縄県,中頭郡西原町,字嘉手苅８８番地、２Ｆ,,47,329,9030102,,,2025-10-28,清算の結了等,,,2024-07-17,1,,,,,バニー,0
713,3360003015048,登記記録の閉鎖等,0,2025-10-30,2025-10-27,Ｒｏｏｔｅｄ　Ｗｅｌｌｎｅｓｓ合同会社,,合同会社,沖縄県,那覇市,久茂地３丁目２６番３２号ＹＳＣビル２０２,,47,201,9000015,,,2025-10-27,清算の結了等,,,2025-06-26,1,,,,,ルーティドウェルネス,0
723,3450005004312,登記記録の閉鎖等,0,2025-10-30,2025-10-17,特定非営利活動法人かむいクロカン情報局,,その他の設立登記法人,北海道,旭川市,旭神二条５丁目９－４－１０６,,01,204,0788372,,,2025-10-17,清算の結了等,,,2021-10-19,1,,,,,カムイクロカンジョウホウキョク,0
729,4010001031394,登記記録の閉鎖等,0,2025-10-30,2025-10-01,雄興産業株式会社,,株式会社,東京都,港区,西新橋１丁目２番９号,,13,103,1050003,,,2025-10-01,合併による解散等,7010401006646,令和７年１０月１日東京都港区西新橋一丁目２番９号鶴洋商事株式会社（7010401006646）に合併し解散,2015-10-05,1,,,,,ユウコウサンギョウ,0
732,4010001102063,登記記録の閉鎖等,0,2025-10-30,2025-10-14,株式会社日本ダイレクトマーケティング,,株式会社,東京都,中央区,日本橋茅場町１丁目１０番８号,,13,102,1030025,,,2025-10-14,清算の結了等,,,2015-10-05,1,,,,,ニホンダイレクトマーケティング,0
739,4010001188862,登記記録の閉鎖等,0,2025-10-30,2025-10-15,株式会社オズファクトリー,,株式会社,東京都,千代田区,西神田３丁目１番２号,,13,101,1010065,,,2025-10-15,清算の結了等,,,2018-01-11,1,,,,,オズファクトリー,0
755,4010401019527,登記記録の閉鎖等,0,2025-10-30,2025-10-01,Ｔ＆Ｍクリエイティブ株式会社,,株式会社,東京都,港区,麻布台２丁目３番５号,,13,103,1060041,,,2025-10-01,合併による解散等,7010401091151,令和７年１０月１日東京都港区麻布台二丁目３番５号メモリーテック株式会社（7010401091151）に合併し解散,2015-10-05,1,,,,,ティーアンドエムクリエイティブ,0
760,4010401107827,登記記録の閉鎖等,0,2025-10-30,2025-10-28,株式会社ＧＥＮアセットマネジメント,,株式会社,東京都,世田谷区,玉堤１丁目８番３号,,13,112,1580087,,,2025-10-28,合併による解散等,6010402036478,令和７年１０月１日東京都渋谷区神宮前六丁目３４番２０号株式会社麻布ビルディング（6010402036478）に合併し解散,2015-10-05,1,,,,,ゲンアセットマネジメント,0
779,4010801034976,登記記録の閉鎖等,0,2025-10-30,2025-10-17,クレアス・リーベル株式会社,,株式会社,神奈川県,横浜市神奈川区,西大口８３番３４号,,14,102,2210004,,,2025-10-17,清算の結了等,,,2024-04-17,1,,,,,クレアスリーベル,0
783,4010902010249,登記記録の閉鎖等,0,2025-10-30,2025-10-27,有限会社手銭事務所,,有限会社,東京都,世田谷区,南烏山２丁目３０－１７－８０８,,13,112,1570062,,,2025-10-27,清算の結了等,,,2015-10-05,1,,,,,テゼニジムショ,0
787,4011001071793,登記記録の閉鎖等,0,2025-10-30,2025-10-01,株式会社アライバー,,株式会社,東京都,渋谷区,渋谷３丁目５番１６号渋谷三丁目スクエアビル２階,,13,113,1500002,,,2025-10-01,清算の結了等,,,2015-10-05,1,,,,,アライバー,0
804,4011605001840,登記記録の閉鎖等,0,2025-10-30,2025-10-22,特定非営利活動法人きよせの森白内障センター,,その他の設立登記法人,東京都,練馬区,東大泉１丁目３６番１０号ライオンズプラザ大泉学園８０６,,13,120,1780063,,,2025-10-22,清算の結了等,,,2015-10-05,1,,,,,キヨセノモリハクナイショウセンター,0
821,4021001025906,登記記録の閉鎖等,0,2025-10-30,2025-10-10,細田産業株式会社,,株式会社,神奈川県,大和市,深見３９１９番地,,14,213,2420011,,,2025-10-10,清算の結了等,,,2015-10-05,1,,,,,ホソダサンギョウ,0
831,4021003005658,登記記録の閉鎖等,0,2025-10-30,2025-10-15,合同会社海の手庭園管理,,合同会社,神奈川県,横須賀市,馬堀海岸３丁目１８番９号,,14,201,2390801,,,2025-10-15,清算の結了等,,,2015-12-03,1,,,,,ウミノテテイエンカンリ,0
832,4021005001804,登記記録の閉鎖等,0,2025-10-30,2025-09-12,特定非営利活動法人かながわフィールドスタッフクラブ,,その他の設立登記法人,神奈川県,伊勢原市,東成瀬４番地の２・１－５０７,,14,214,2591117,,,2025-09-12,清算の結了等,,,2015-10-05,1,,,,,カナガワフィールドスタッフクラブ,0
849,4080001013618,登記記録の閉鎖等,0,2025-10-30,2025-10-27,株式会社おしゃれの店,,株式会社,静岡県,牧之原市,相良９８番地,,22,226,4210522,,,2025-10-27,清算の結了等,,,2015-10-05,1,,,,,オシャレノミセ,0
853,4080401004150,登記記録の閉鎖等,0,2025-10-30,2025-10-22,株式会社浜松戸田書店,,株式会社,静岡県,浜松市中央区,志都呂町５２５６番地の１,,22,138,4328066,,,2025-10-22,清算の結了等,,,2015-10-05,1,,,,,ハママツトダショテン,0
869,4120101049747,登記記録の閉鎖等,0,2025-10-30,2025-10-27,株式会社ヒロ建,,株式会社,大阪府,岸和田市,西之内町５１番２７号,,27,202,5960044,,,2025-10-27,清算の結了等,,,2015-10-05,1,,,,,,0
873,4122002000870,登記記録の閉鎖等,0,2025-10-30,2025-10-29,有限会社オーピーエス,,有限会社,大阪府,東大阪市,御厨南３丁目２番３３号,,27,227,5770034,,,2025-10-29,清算の結了等,,,2015-10-05,1,,,,,オーピーエス,0
874,4122002011067,登記記録の閉鎖等,0,2025-10-30,2025-10-15,有限会社尾川印刷所,,有限会社,大阪府,大東市,御領３丁目１２番１７号,,27,218,5740064,,,2025-10-15,清算の結了等,,,2015-10-05,1,,,,,オガワインサツショ,0
875,4122002011595,登記記録の閉鎖等,0,2025-10-30,2025-10-14,有限会社前島製作所,,有限会社,大阪府,大東市,御領３丁目１０番１２号,,27,218,5740064,,,2025-10-14,清算の結了等,,,2015-10-05,1,,,,,マエジマセイサクショ,0
890,4160002001506,登記記録の閉鎖等,0,2025-10-30,2025-10-27,有限会社広田ビル,,有限会社,滋賀県,大津市,末広町１０番７号,,25,201,5200056,,,2025-10-27,清算の結了等,,,2015-10-05,1,,,,,ヒロタビル,0
897,4180001096470,登記記録の閉鎖等,0,2025-10-30,2025-10-20,鈴木製缶株式会社,,株式会社,愛知県,愛西市,日置町髭田９７番地１,,23,232,4960906,,,2025-10-20,清算の結了等,,,2015-10-05,1,,,,,スズキセイカン,0
900,4180001117251,登記記録の閉鎖等,0,2025-10-30,2025-10-17,株式会社東海建創,,株式会社,愛知県,名古屋市熱田区,六野２丁目７番１８－３０３号,,23,109,4560023,,,2025-10-17,清算の結了等,,,2015-10-05,1,,,,,トウカイケンソウ,0
907,4180001150145,登記記録の閉鎖等,0,2025-10-30,2025-10-21,株式会社ＲＥＴＲＩＳＥ,,株式会社,愛知県,名古屋市天白区,中平３丁目２０２番地　２Ｆ,,23,116,4680014,,,2025-10-21,清算の結了等,,,2022-02-28,1,,,,,リトライズ,0
908,4180002025057,登記記録の閉鎖等,0,2025-10-30,2025-10-21,有限会社ヨシムラエンジニアリング,,有限会社,愛知県,名古屋市西区,菊井１丁目２０番１６号,,23,104,4510044,,,2025-10-21,清算の結了等,,,2015-10-05,1,,,,,ヨシムラエンジニアリング,0
909,4180002086553,登記記録の閉鎖等,0,2025-10-30,2025-10-21,有限会社あすか不動産,,有限会社,愛知県,半田市,銀座本町２丁目５番地,,23,205,4750874,,,2025-10-21,清算の結了等,,,2015-10-05,1,,,,,アスカフドウサン,0
918,4230001006936,登記記録の閉鎖等,0,2025-10-30,2025-10-27,株式会社ベント,,株式会社,富山県,富山市,新庄町３丁目７番４６号,,16,201,9300992,,,2025-10-27,清算の結了等,,,2015-10-05,1,,,,,ベント,0
938,4290002043774,登記記録の閉鎖等,0,2025-10-30,2025-10-10,有限会社半田瓦商店,,有限会社,福岡県,朝倉市,烏集院７２９番地７,,40,228,8381301,,,2025-10-10,清算の結了等,,,2015-10-05,1,,,,,ハンダカワラショウテン,0
939,4290003013719,登記記録の閉鎖等,0,2025-10-30,2025-10-08,Ｏｐｅｎ　Ｐｌｕｓ合同会社,,合同会社,福岡県,福岡市中央区,輝国２丁目４番２号,,40,133,8100032,,,2025-10-08,清算の結了等,,,2023-03-31,1,,,,,オープンプラス,0
948,4310002002983,登記記録の閉鎖等,0,2025-10-30,2025-10-28,有限会社ダイヤ電機工業,,有限会社,長崎県,長崎市,戸町１丁目３番１２号,,42,201,8500952,,,2025-10-28,清算の結了等,,,2015-10-05,1,,,,,ダイヤデンキコウギョウ,0
952,4340005001798,登記記録の閉鎖等,0,2025-10-30,2025-10-23,医療法人こいのぼり会,,その他の設立登記法人,鹿児島県,鹿児島市,中央町１０番,,46,201,8900053,,,2025-10-23,清算の結了等,,,2015-10-05,1,,,,,コイノボリカイ,0
958,4370002000651,登記記録の閉鎖等,0,2025-10-30,2025-10-17,株式会社クマガイ建工,,株式会社,宮城県,仙台市泉区,根白石字上ノ宿３８番地,,04,105,9813221,,,2025-10-17,清算の結了等,,,2015-10-05,1,,,,,クマガイケンコウ,0
964,4380002009667,登記記録の閉鎖等,0,2025-10-30,2025-10-20,有限会社三辰建設,,有限会社,福島県,郡山市,喜久田町字松ケ作１７番地２４,,07,203,9630551,,,2025-10-20,清算の結了等,,,2015-10-05,1,,,,,サンシンケンセツ,0
965,4380003005450,登記記録の閉鎖等,0,2025-10-30,2025-10-21,合同会社ＯＮＥ’Ｓ,,合同会社,福島県,福島市,黒岩字榎平１５番地の２、２階,,07,201,9608153,,,2025-10-21,清算の結了等,,,2023-04-27,1,,,,,ワンズ,0
967,4390002013750,登記記録の閉鎖等,0,2025-10-30,2025-10-27,有限会社東北総業,,有限会社,山形県,米沢市,城南２丁目３番２４号,,06,202,9920038,,,2025-10-27,清算の結了等,,,2015-10-05,1,,,,,トウホクソウギョウ,0
968,4400001005301,登記記録の閉鎖等,0,2025-10-30,2025-10-27,株式会社坂田建材,,株式会社,岩手県,花巻市,卸町１６番地,,03,205,0250311,,,2025-10-27,合併による解散等,6370001019658,令和７年１０月１日仙台市宮城野区仙台港北一丁目６番地の１８株式会社ブルケン東日本（6370001019658）に合併し解散,2015-10-05,1,,,,,サカタケンザイ,0
971,4400502000032,登記記録の閉鎖等,0,2025-10-30,2025-10-17,有限会社荻荘商会,,有限会社,岩手県,一関市,山目字大槻４９番地５,,03,209,0210063,,,2025-10-17,清算の結了等,,,2015-10-05,1,,,,,オギショウショウカイ,0
976,4420002012220,登記記録の閉鎖等,0,2025-10-30,2025-10-17,有限会社やまだ,,有限会社,青森県,五所川原市,中央１丁目９番地,,02,205,0370036,,,2025-10-17,清算の結了等,,,2015-10-05,1,,,,,ヤマダ,0
989,4450002000164,登記記録の閉鎖等,0,2025-10-30,2025-10-24,有限会社阿部電工,,有限会社,北海道,旭川市,神楽岡十四条３丁目５番３号,,01,204,0788324,,,2025-10-24,清算の結了等,,,2015-10-05,1,,,,,アベデンコウ,0
999,5010001216952,登記記録の閉鎖等,0,2025-10-30,2025-10-14,Ｃｏｌｏｒ　ｉｎ　Ｌｉｆｅ株式会社,,株式会社,東京都,千代田区,平河町２丁目５番３号,,13,101,1020093,,,2025-10-14,清算の結了等,,,2021-04-05,1,,,,,カラーインライフ,0
1009,5010401037131,登記記録の閉鎖等,0,2025-10-30,2025-10-01,株式会社パワーベース,,株式会社,東京都,港区,東麻布２丁目３０番９号,,13,103,1060044,,,2025-10-01,清算の結了等,,,2015-10-05,1,,,,,パワーベース,0
1010,5010401104006,登記記録の閉鎖等,0,2025-10-30,2025-10-01,株式会社Ｄ２ＣＲ,,株式会社,東京都,港区,東新橋１丁目９番１号,,13,103,1050021,,,2025-10-01,合併による解散等,7010401055008,令和７年１０月１日東京都港区東新橋一丁目９番１号株式会社Ｄ２Ｃ（7010401055008）に合併し解散,2015-10-05,1,,,,,ディーツーシーアール,0
1011,5010401105730,登記記録の閉鎖等,0,2025-10-30,2025-10-14,データクック株式会社,,株式会社,東京都,千代田区,神田錦町１丁目８番地伊藤ビル４階,,13,101,1010054,,,2025-10-14,清算の結了等,,,2015-10-05,1,,,,,データクック,0
1020,5010502007561,登記記録の閉鎖等,0,2025-10-30,2025-10-21,有限会社柴川印刷所,,有限会社,東京都,台東区,三筋２丁目６番１１号,,13,106,1110055,,,2025-10-21,清算の結了等,,,2015-10-05,1,,,,,シバガワインサツショ,0
1022,5010601003107,登記記録の閉鎖等,0,2025-10-30,2025-10-20,株式会社木村商店,,株式会社,東京都,江東区,三好２丁目１０番８号,,13,108,1350022,,,2025-10-20,清算の結了等,,,2015-10-05,1,,,,,キムラショウテン,0
1024,5010803002823,登記記録の閉鎖等,0,2025-10-30,2025-10-20,合同会社関西ＦＥＳ,,合同会社,東京都,台東区,雷門２丁目１９番１７号雷一ビル４１２,,13,106,1110034,,,2025-10-20,清算の結了等,,,2018-10-11,1,,,,,カンサイエフイーエス,0
1029,5011001097549,登記記録の閉鎖等,0,2025-10-30,2025-10-16,株式会社まわりとしん,,株式会社,神奈川県,鎌倉市,佐助２丁目１４番８－１号,,14,204,2480017,,,2025-10-16,清算の結了等,,,2015-10-05,1,,,,,マワリトシン,0
1030,5011001113504,登記記録の閉鎖等,0,2025-10-30,2025-09-30,株式会社メリー,,株式会社,東京都,目黒区,自由が丘１丁目２４番２５号,,13,110,1520035,,,2025-09-30,合併による解散等,7011001106563,令和７年９月３０日東京都目黒区自由が丘一丁目２４番２５号Ｍ２ＫＧＲＯＵＰ株式会社（7011001106563）に合併し解散,2016-11-08,1,,,,,メリー,0
1035,5011001156049,登記記録の閉鎖等,0,2025-10-30,2025-10-17,山根木材株式会社,,株式会社,東京都,江東区,新木場３丁目５番１０号,,13,108,1360082,,,2025-10-17,清算の結了等,,,2023-08-15,1,,,,,ヤマネモクザイ,0
1038,5011002035193,登記記録の閉鎖等,0,2025-10-30,2025-10-28,ペイパーウェイト・ブックス有限会社,,有限会社,東京都,世田谷区,玉川台１丁目２番６－７０２号,,13,112,1580096,,,2025-10-28,清算の結了等,,,2015-10-05,1,,,,,ペイパーウェイトブックス,0
1059,5011801045574,登記記録の閉鎖等,0,2025-10-30,2025-10-22,株式会社ＡｄＷｏｒｋ,,株式会社,東京都,葛飾区,新小岩１丁目１７－１３ＳＥＥＬＥ新小岩２０１,,13,122,1240024,,,2025-10-22,清算の結了等,,,2025-02-04,1,,,,,アドワーク,0
1072,5021001008050,登記記録の閉鎖等,0,2025-10-30,2025-10-07,株式会社テクノコンサルティング,,株式会社,神奈川県,茅ヶ崎市,共恵２丁目４番１７号,,14,207,2530056,,,2025-10-07,清算の結了等,,,2015-10-05,1,,,,,テクノコンサルティング,0
1074,5021001032331,登記記録の閉鎖等,0,2025-10-30,2025-10-16,株式会社市兵衛,,株式会社,神奈川県,小田原市,堀之内４４８番地,,14,206,2500853,,,2025-10-16,清算の結了等,,,2015-10-05,1,,,,,イチベエ,0
1075,5021001035128,登記記録の閉鎖等,0,2025-10-30,2025-10-14,株式会社ＧｒｏＷｉｎ,,株式会社,神奈川県,足柄下郡箱根町,湯本３８６番地の６７,,14,382,2500311,,,2025-10-14,清算の結了等,,,2015-10-05,1,,,,,グローウィン,0
1094,5040002055249,登記記録の閉鎖等,0,2025-10-30,2025-10-01,有限会社システムエイト,,有限会社,千葉県,成田市,十余三１５１番地４２８,,12,211,2860101,,,2025-10-01,清算の結了等,,,2015-10-05,1,,,,,システムエイト,0
1098,5050001044425,登記記録の閉鎖等,0,2025-10-30,2025-10-20,株式会社ＮＡＬＡＫＡ,,株式会社,茨城県,取手市,小泉５６７番地１,,08,217,3001539,,,2025-10-20,清算の結了等,,,2018-05-16,1,,,,,ナラカ,0
1100,5060003003857,登記記録の閉鎖等,0,2025-10-30,2025-10-27,合同会社佐藤,,合同会社,栃木県,足利市,葉鹿町５５８番地２アキハウスＩ１０２号室,00124793,09,202,3260143,,,2025-10-27,清算の結了等,,,2021-11-08,1,,,,,サトウ,0
1101,5070002000334,登記記録の閉鎖等,0,2025-10-30,2025-10-27,有限会社アピア,,有限会社,群馬県,前橋市,上沖町５２９番地３,,10,201,3710052,,,2025-10-27,清算の結了等,,,2015-10-05,1,,,,,アピア,0
1107,5080101017781,登記記録の閉鎖等,0,2025-10-30,2025-10-28,株式会社レイホーサカエ,,株式会社,静岡県,沼津市,西沢田９０９番地の２,,22,203,4100007,,,2025-10-28,清算の結了等,,,2015-10-05,1,,,,,レイホーサカエ,0
1116,5100002034790,登記記録の閉鎖等,0,2025-10-30,2025-10-09,有限会社コジマエンジニアリング,,有限会社,長野県,上伊那郡箕輪町,大字中箕輪１０５００番地３３５,,20,383,3994601,,,2025-10-09,合併による解散等,3100001022170,令和７年９月２９日長野県上伊那郡箕輪町大字中箕輪１０５００番地３３５株式会社コジマエンジニアリング（3100001022170）に合併し解散,2015-10-05,1,,,,,コジマエンジニアリング,0
1136,5120101000931,登記記録の閉鎖等,0,2025-10-30,2025-10-27,内田管工設備株式会社,,株式会社,大阪府,堺市堺区,東湊町２丁１４１番地の２,,27,141,5900829,,,2025-10-27,清算の結了等,,,2015-10-05,1,,,,,ウチダカンコウセツビ,0
1139,5120105007634,登記記録の閉鎖等,0,2025-10-30,2025-10-23,ＮＰＯ法人ゴールドファーム,,その他の設立登記法人,大阪府,岸和田市,尾生町４００５番地岸和田市神於山土地改良区内,,27,202,5960816,,,2025-10-23,清算の結了等,,,2015-10-05,1,,,,,ゴールドファーム,0
1142,5122001007321,登記記録の閉鎖等,0,2025-10-30,2025-10-15,元川工業株式会社,,株式会社,大阪府,東大阪市,稲田新町３丁目７番１０号,,27,227,5770004,,,2025-10-15,清算の結了等,,,2015-10-05,1,,,,,モトカワコウギョウ,0
1155,5140001097595,登記記録の閉鎖等,0,2025-10-30,2025-10-23,株式会社岡田左官,,株式会社,兵庫県,姫路市,書写２５４１番地５,,28,201,6712201,,,2025-10-23,清算の結了等,,,2015-10-05,1,,,,,オカダサカン,0
1160,5140005021510,登記記録の閉鎖等,0,2025-10-30,2025-10-16,一般社団法人神戸書院,,その他の設立登記法人,兵庫県,神戸市垂水区,塩屋町５丁目１１番３号,,28,108,6550872,,,2025-10-16,清算の結了等,,,2015-10-05,1,,,,,コウベショイン,0
1161,5140005023151,登記記録の閉鎖等,0,2025-10-30,2025-10-24,一般社団法人児童養護応援団ともに,,その他の設立登記法人,兵庫県,姫路市,広畑区蒲田３８３番地３,,28,201,6711102,,,2025-10-24,清算の結了等,,,2016-09-06,1,,,,,ジドウヨウゴオウエンダントモニ,0
1170,5180001040634,登記記録の閉鎖等,0,2025-10-30,2025-10-20,株式会社堀田石油店,,株式会社,愛知県,名古屋市瑞穂区,彌富町字月見ケ岡４５番地,,23,108,4670035,,,2025-10-20,清算の結了等,,,2015-10-05,1,,,,,ホッタセキユテン,0
1175,5180002034008,登記記録の閉鎖等,0,2025-10-30,2025-10-21,有限会社湧丹考房,,有限会社,愛知県,名古屋市瑞穂区,汐路町１丁目４番地,,23,108,4670003,,,2025-10-21,清算の結了等,,,2015-10-05,1,,,,,ユウタンコウボウ,0
1176,5180003013076,登記記録の閉鎖等,0,2025-10-30,2025-10-20,合資会社サカエ堂,,合資会社,愛知県,常滑市,大野町４丁目６４番地,,23,216,4790866,,,2025-10-20,清算の結了等,,,2015-10-05,1,,,,,サカエドウ,0
1193,5240002000151,登記記録の閉鎖等,0,2025-10-30,2025-10-24,有限会社青木工務店,,有限会社,広島県,広島市東区,上温品４丁目１９番３６号,,34,102,7320032,,,2025-10-24,清算の結了等,,,2015-10-05,1,,,,,アオキコウムテン,0
1194,5240002026155,登記記録の閉鎖等,0,2025-10-30,2025-10-24,有限会社タンテマリア,,有限会社,広島県,広島市佐伯区,美鈴が丘西１丁目５番１２号,,34,108,7315114,,,2025-10-24,清算の結了等,,,2015-10-05,1,,,,,タンテマリア,0
1197,5260001010967,登記記録の閉鎖等,0,2025-10-30,2025-10-27,株式会社オーシャン・アイランド,,株式会社,岡山県,岡山市北区,京橋町６番２２号,,33,101,7000831,,,2025-10-27,清算の結了等,,,2015-10-05,1,,,,,オーシャンアイランド,0
1199,5260002032944,登記記録の閉鎖等,0,2025-10-30,2025-10-24,有限会社葛本建工,,有限会社,岡山県,玉野市,槌ケ原１１２３番地の１１,,33,204,7060141,,,2025-10-24,清算の結了等,,,2015-10-05,1,,,,,クズモトケンコウ,0
1226,5360001016491,登記記録の閉鎖等,0,2025-10-30,2025-10-08,株式会社未来,,株式会社,沖縄県,沖縄市,山内３丁目１１番１号,,47,211,9040034,,,2025-10-08,合併による解散等,3360001014522,令和７年１０月１日沖縄県浦添市字経塚７４５番地７株式会社ユース（3360001014522）に合併し解散,2015-10-05,1,,,,,ミライ,0
1240,5430001019355,登記記録の閉鎖等,0,2025-10-30,2025-10-21,株式会社ＭＯＮＳＩＥＵＲ,,株式会社,北海道,札幌市中央区,南一条西９丁目６－１南一条グランドハイツ３０１号室,,01,101,0600061,,,2025-10-21,清算の結了等,,,2015-10-05,1,,,,,ムッシュー,0
1248,5430005013081,登記記録の閉鎖等,0,2025-10-30,2025-10-29,一般社団法人終活マイライフ,,その他の設立登記法人,北海道,札幌市西区,発寒四条６丁目１番１２号,,01,107,0630824,,,2025-10-29,清算の結了等,,,2017-03-21,1,,,,,シュウカツマイライフ,0
1265,6010003029575,登記記録の閉鎖等,0,2025-10-30,2025-10-09,合同会社Ｔｈｅ　Ｔａｉｌｏｒ,,合同会社,東京都,千代田区,二番町９番３号,,13,101,1020084,,,2025-10-09,清算の結了等,,,2019-03-29,1,,,,,ザテイラー,0
1271,6010102000206,登記記録の閉鎖等,0,2025-10-30,2025-10-23,有限会社あかしや商事,,有限会社,東京都,八王子市,めじろ台１丁目８番２５号アゴラビル,,13,201,1930833,,,2025-10-23,清算の結了等,,,2015-10-05,1,,,,,アカシヤショウジ,0
1272,6010401042279,登記記録の閉鎖等,0,2025-10-30,2025-10-01,アスタ石油株式会社,,株式会社,東京都,港区,西新橋１丁目２番９号,,13,103,1050003,,,2025-10-01,合併による解散等,7010401006646,令和７年１０月１日東京都港区西新橋一丁目２番９号鶴洋商事株式会社（7010401006646）に合併し解散,2015-10-05,1,,,,,アスタセキユ,0
1274,6010401147697,登記記録の閉鎖等,0,2025-10-30,2025-10-14,プロパティホーム株式会社,,株式会社,東京都,千代田区,永田町２丁目１７番１７号,,13,101,1000014,,,2025-10-14,清算の結了等,,,2019-08-27,1,,,,,プロパティホーム,0
1289,6010902023579,登記記録の閉鎖等,0,2025-10-30,2025-10-27,有限会社寅象商会,,有限会社,東京都,世田谷区,深沢８丁目１３番３３号,,13,112,1580081,,,2025-10-27,清算の結了等,,,2015-10-05,1,,,,,トラゾウショウカイ,0
1314,6011701022838,登記記録の閉鎖等,0,2025-10-30,2025-10-27,山弘商事株式会社,,株式会社,東京都,江戸川区,松江２丁目１９番１５－７０８号,,13,123,1320025,,,2025-10-27,合併による解散等,5010903009826,令和７年９月２５日東京都世田谷区北沢四丁目２６番１号合同会社業平開発（5010903009826）に合併し解散,2019-07-31,1,,,,,ヤマコウショウジ,0
1318,6013201019042,登記記録の閉鎖等,0,2025-10-30,2025-10-01,株式会社リアライブ,,株式会社,東京都,港区,三田１丁目４－２８,,13,103,1080073,,,2025-10-01,合併による解散等,7010701023374,令和７年１０月１日東京都港区三田１－４－２８ブティックス株式会社（7010701023374）に合併し解散,2015-10-05,1,,,,,リアライブ,0
1332,6020005008056,登記記録の閉鎖等,0,2025-10-30,2025-10-15,特定非営利活動法人たすけあい多摩,,その他の設立登記法人,神奈川県,川崎市多摩区,登戸５１０番地アメニティ・ミシマＢ棟,,14,135,2140014,,,2025-10-15,清算の結了等,,,2015-10-05,1,,,,,タスケアイタマ,0
1335,6021002056535,登記記録の閉鎖等,0,2025-10-30,2025-10-16,有限会社相和プリント,,有限会社,神奈川県,平塚市,田村１丁目１６番１７号,,14,203,2540013,,,2025-10-16,清算の結了等,,,2015-10-05,1,,,,,アイワプリント,0
1352,6040002061254,登記記録の閉鎖等,0,2025-10-30,2025-10-01,有限会社トーケン工業,,有限会社,千葉県,佐倉市,臼井田１１５４番地５,,12,212,2850861,,,2025-10-01,清算の結了等,,,2015-10-05,1,,,,,トーケンコウギョウ,0
1361,6060002006736,登記記録の閉鎖等,0,2025-10-30,2025-10-28,有限会社虎屋醸造店,,有限会社,栃木県,宇都宮市,南大通り１丁目２番２２号,,09,201,3210963,,,2025-10-28,清算の結了等,,,2015-10-05,1,,,,,トラヤジョウゾウテン,0
1363,6070002006396,登記記録の閉鎖等,0,2025-10-30,2025-10-24,有限会社ヘルシーディライト,,有限会社,群馬県,前橋市,富士見町米野９６９番地,,10,201,3710111,,,2025-10-24,清算の結了等,,,2015-10-05,1,,,,,ヘルシーディライト,0
1372,6100002025252,登記記録の閉鎖等,0,2025-10-30,2025-10-27,有限会社ホリウチ精機,,有限会社,長野県,塩尻市,大字北小野１３４０５番地１,,20,215,3990651,,,2025-10-27,清算の結了等,,,2015-10-05,1,,,,,ホリウチセイキ,0
1374,6120001096367,登記記録の閉鎖等,0,2025-10-30,2025-10-20,株式会社ミズシマ,,株式会社,大阪府,大阪市大正区,小林西２丁目１４番１０号,,27,108,5510013,,,2025-10-20,清算の結了等,,,2015-10-05,1,,,,,ミズシマ,0
1388,6120101029185,登記記録の閉鎖等,0,2025-10-30,2025-10-21,株式会社ＡＳＫ　ＭＥ,,株式会社,大阪府,堺市西区,上野芝町５丁１番２９号,,27,144,5938301,,,2025-10-21,清算の結了等,,,2015-10-05,1,,,,,アスクミー,0
1396,6122001025586,登記記録の閉鎖等,0,2025-10-30,2025-10-14,フレキソ資材株式会社,,株式会社,大阪府,東大阪市,吉田下島１３番６号,,27,227,5780983,,,2025-10-14,清算の結了等,,,2015-10-05,1,,,,,フレキソシザイ,0
1414,6170001000233,登記記録の閉鎖等,0,2025-10-30,2025-10-29,株式会社市川ビル,,株式会社,和歌山県,和歌山市,新高町７番３０号,,30,201,6410034,,,2025-10-29,清算の結了等,,,2015-10-05,1,,,,,イチカワビル,0
1417,6180001066356,登記記録の閉鎖等,0,2025-10-30,2025-10-01,株式会社日本利達,,株式会社,東京都,港区,西新橋２丁目１１番６号,,13,103,1050003,,,2025-10-01,合併による解散等,9010001122981,令和７年１０月１日東京都港区西新橋二丁目１１番６号株式会社海隆利達（9010001122981）に合併し解散,2015-10-05,1,,,,,ニホンリタツ,0
1418,6180001070861,登記記録の閉鎖等,0,2025-10-30,2025-10-17,株式会社アクアシステム,,株式会社,愛知県,愛知郡東郷町,大字和合字北蚊谷１７８番地,,23,302,4700153,,,2025-10-17,清算の結了等,,,2015-10-05,1,,,,,アクアシステム,0
1422,6180001145060,登記記録の閉鎖等,0,2025-10-30,2025-10-21,株式会社ＳＲＴ,,株式会社,愛知県,名古屋市中村区,城主町５丁目１５番地,,23,105,4530819,,,2025-10-21,清算の結了等,,,2021-03-08,1,,,,,エスアールティー,0
1424,6180002062651,登記記録の閉鎖等,0,2025-10-30,2025-10-17,有限会社ニッシン商事,,有限会社,愛知県,日進市,岩崎町北高上１３１番地,,23,230,4700131,,,2025-10-17,清算の結了等,,,2015-10-05,1,,,,,ニッシンショウジ,0
1425,6180002088300,登記記録の閉鎖等,0,2025-10-30,2025-10-21,有限会社タケモリ,,有限会社,愛知県,知多市,岡田字平地５７番地,,23,224,4780021,,,2025-10-21,清算の結了等,,,2015-10-05,1,,,,,タケモリ,0
1439,6200005001397,登記記録の閉鎖等,0,2025-10-30,2025-10-22,医療法人社団東クリニック,,その他の設立登記法人,岐阜県,岐阜市,又丸宮東２０番地の１,,21,201,5011155,,,2025-10-22,清算の結了等,,,2015-10-05,1,,,,,アズマクリニック,0
1443,6230001003056,登記記録の閉鎖等,0,2025-10-30,2025-10-28,株式会社北陸マシキ,,株式会社,富山県,富山市,有沢５４番地２,,16,201,9300862,,,2025-10-28,清算の結了等,,,2015-10-05,1,,,,,ホクリクマシキ,0
1453,6240002032292,登記記録の閉鎖等,0,2025-10-30,2025-10-24,有限会社大島屋,,有限会社,広島県,呉市,広末広１丁目１番４１号,,34,202,7370133,,,2025-10-24,清算の結了等,,,2015-10-05,1,,,,,オオシマヤ,0
1461,6270003001327,登記記録の閉鎖等,0,2025-10-30,2025-10-28,サニー合同会社,,合同会社,鳥取県,西伯郡南部町,大木屋１６１番地,,31,389,6830345,,,2025-10-28,清算の結了等,,,2021-07-29,1,,,,,サニー,0
1479,6350001004819,登記記録の閉鎖等,0,2025-10-30,2025-10-27,株式会社アミナコーポレーション,,株式会社,宮崎県,宮崎市,大字本郷南方２８６１番１０号,,45,201,8800921,,,2025-10-27,清算の結了等,,,2015-10-05,1,,,,,アミナコーポレーション,0
1485,6370002009047,登記記録の閉鎖等,0,2025-10-30,2025-10-16,有限会社我妻鉄筋工業,,有限会社,宮城県,仙台市宮城野区,栄３丁目６番９号,,04,102,9830011,,,2025-10-16,清算の結了等,,,2015-10-05,1,,,,,ワガツマテッキンコウギョウ,0
1491,6400001009317,登記記録の閉鎖等,0,2025-10-30,2025-10-17,株式会社東北コンストラクション,,株式会社,岩手県,遠野市,新町４番１５号,,03,208,0280524,,,2025-10-17,清算の結了等,,,2015-10-05,1,,,,,トウホクコンストラクション,0
1495,6420002008340,登記記録の閉鎖等,0,2025-10-30,2025-10-20,有限会社八戸緑化,,有限会社,青森県,八戸市,大字櫛引字一日市２１番地１０,,02,203,0391107,,,2025-10-20,清算の結了等,,,2015-10-05,1,,,,,ハチノヘリョクカ,0
1501,6430002046736,登記記録の閉鎖等,0,2025-10-30,2025-10-22,有限会社ティーアイ企画,,有限会社,北海道,江別市,東野幌３９９番地の９,,01,217,0690822,,,2025-10-22,清算の結了等,,,2015-10-05,1,,,,,ティーアイキカク,0
1511,7010001245355,登記記録の閉鎖等,0,2025-10-30,2025-09-09,ＩｄｅａＢａｎｋｓ株式会社,,株式会社,東京都,文京区,小日向４丁目４－１４－７０２,,13,105,1120006,,,2025-09-09,清算の結了等,,,2024-06-03,1,,,,,アイディアバンクス,0
1527,7010101013959,登記記録の閉鎖等,0,2025-10-30,2025-10-28,株式会社あざみ,,株式会社,東京都,八王子市,七国２丁目３１番１０号,,13,201,1920919,,,2025-10-28,清算の結了等,,,2019-11-28,1,,,,,,0
1534,7010401149057,登記記録の閉鎖等,0,2025-10-30,2025-10-28,株式会社ＬＯＧＩＣ＆ＭＡＧＩＣ,,株式会社,東京都,品川区,東品川２丁目２番２０号,,13,109,1400002,,,2025-10-28,合併による解散等,2430001077100,令和７年１０月１日東京都中央区銀座四丁目１２番１５号株式会社バーチャルキャスト（2430001077100）に合併し解散,2019-11-12,1,,,,,ロジックアンドマジック,0
1543,7010405020750,登記記録の閉鎖等,0,2025-10-30,2025-10-01,一般社団法人ＨＤＧ３２,,その他の設立登記法人,東京都,港区,虎ノ門３丁目２２番１０－２０１号,,13,103,1050001,,,2025-10-01,清算の結了等,,,2022-02-28,1,,,,,エイチディージースリーツー,0
1546,7010601055609,登記記録の閉鎖等,0,2025-10-30,2025-10-01,ＡＰＯＧＥＥ　ＧＬＯＢＡＬ株式会社,,株式会社,千葉県,長生郡長生村,入山津６６番地１,,12,423,2994321,,,2025-10-01,清算の結了等,,,2019-06-13,1,,,,,アポジーグローバル,0
1547,7010601067637,登記記録の閉鎖等,0,2025-10-30,2025-10-28,株式会社Ｊ‐ＦＵＮ１６．５,,株式会社,東京都,江東区,福住２丁目２番９号,,13,108,1350032,,,2025-10-28,合併による解散等,1010001253339,令和７年９月３０日東京都千代田区丸の内一丁目８番２号株式会社Ｊ‐ＦＵＮ１６（1010001253339）に合併し解散,2025-08-01,1,,,,,ジェイファンジュウロクポイントゴ,0
1561,7011201011737,登記記録の閉鎖等,0,2025-10-30,2025-10-01,ａｄｄＡｓｓｉｓｔ株式会社,,株式会社,東京都,渋谷区,幡ヶ谷３丁目２９－１０,,13,113,1510072,,,2025-10-01,清算の結了等,,,2015-10-05,1,,,,,アドアシスト,0
1580,7020002012588,登記記録の閉鎖等,0,2025-10-30,2025-10-17,有限会社早川工業,,有限会社,神奈川県,横浜市泉区,中田南４丁目７番地２４号ラマージュ泉２０１号室,,14,116,2450014,,,2025-10-17,清算の結了等,,,2015-10-05,1,,,,,ハヤカワコウギョウ,0
1583,7021001076153,登記記録の閉鎖等,0,2025-10-30,2025-10-15,株式会社ＫＡＢＥ　ＪＡＰＡＮ,,株式会社,神奈川県,厚木市,中町３丁目３番９号アーバンプラザ４Ｆ,,14,212,2430018,,,2025-10-15,清算の結了等,,,2022-06-06,1,,,,,カーベジャパン,0
1593,7030002035605,登記記録の閉鎖等,0,2025-10-30,2025-10-21,有限会社東松工業,,有限会社,埼玉県,狭山市,柏原２５２０番地２０１,,11,215,3501335,,,2025-10-21,清算の結了等,,,2015-10-05,1,,,,,トウショウコウギョウ,0
1614,7070002024521,登記記録の閉鎖等,0,2025-10-30,2025-10-24,有限会社廣瀬紋工,,有限会社,群馬県,桐生市,東２丁目９番２８号,,10,203,3760034,,,2025-10-24,清算の結了等,,,2015-10-05,1,,,,,ヒロセモンコウ,0
1622,7120001223597,登記記録の閉鎖等,0,2025-10-30,2025-10-24,株式会社ＰＲＯＮＥＸＴ,,株式会社,大阪府,堺市中区,土師町５丁１５番２９－１号,,27,142,5998238,,,2025-10-24,清算の結了等,,,2019-09-05,1,,,,,プロネクスト,0
1635,7120101054975,登記記録の閉鎖等,0,2025-10-30,2025-10-23,株式会社統心,,株式会社,大阪府,高石市,取石４丁目１４－３４,,27,225,5920013,,,2025-10-23,清算の結了等,,,2016-06-24,1,,,,,トウシン,0
1645,7130001012314,登記記録の閉鎖等,0,2025-10-30,2025-10-28,アロー印刷株式会社,,株式会社,京都府,京都市山科区,西野山中鳥井町３９番地の２８,,26,110,6078306,,,2025-10-28,清算の結了等,,,2015-10-05,1,,,,,アローインサツ,0
1650,7140001101363,登記記録の閉鎖等,0,2025-10-30,2025-10-23,株式会社グランドワークス,,株式会社,兵庫県,姫路市,苫編南２丁目４１番地,,28,201,6700987,,,2025-10-23,清算の結了等,,,2016-03-10,1,,,,,グランドワークス,0
1656,7140003018985,登記記録の閉鎖等,0,2025-10-30,2025-10-03,ＫＫ　Ｃｏｎｓｕｌｔａｎｃｙ合同会社,,合同会社,千葉県,千葉市緑区,おゆみ野１丁目３５番地２はるのみち公園前３棟３０３号,,12,105,2660031,,,2025-10-03,清算の結了等,,,2023-04-17,1,KK Consultancy LLC,Chiba,"3-303,1-35-2,Oyumino, Midori-ku Chiba-shi",,ケイケイコンサルタンシー,0
1664,7180001099594,登記記録の閉鎖等,0,2025-10-30,2025-10-16,株式会社高山商事,,株式会社,愛知県,名古屋市港区,大西１丁目８１番地,,23,111,4550861,,,2025-10-16,合併による解散等,1180001139554,令和７年１０月１６日名古屋市港区大西一丁目８１番地株式会社ソワン（1180001139554）に合併し解散,2015-10-05,1,,,,,タカヤマショウジ,0
1670,7180001168556,登記記録の閉鎖等,0,2025-10-30,2025-10-21,株式会社モガ,,株式会社,愛知県,瀬戸市,緑町２丁目６４番地の１,,23,204,4890875,,,2025-10-21,清算の結了等,,,2025-09-12,1,,,,,モガ,0
1680,7230001003303,登記記録の閉鎖等,0,2025-10-30,2025-10-17,又市運輸機業株式会社,,株式会社,富山県,富山市,針原中町９６７番地の１,,16,201,9318431,,,2025-10-17,清算の結了等,,,2015-10-05,1,,,,,マタイチウンユキギョウ,0
1695,7290001084973,登記記録の閉鎖等,0,2025-10-30,2025-09-29,株式会社コスモ環境リノベーション,,株式会社,福岡県,飯塚市,椿２８７番２２,,40,205,8200084,,,2025-09-29,合併による解散等,9290001046195,令和７年９月２７日福岡県嘉麻市桑野２１２４番地株式会社コスモ環境グリーンサービス（9290001046195）に合併し解散,2019-04-25,1,,,,,コスモカンキョウリノベーション,0
1723,7380001018534,登記記録の閉鎖等,0,2025-10-30,2025-10-17,株式会社ヴィレッヂＹ,,株式会社,福島県,会津若松市,山見町２４３番地４,,07,202,9650021,,,2025-10-17,清算の結了等,,,2015-10-05,1,,,,,ビレッジワイ,0
1728,7400001003624,登記記録の閉鎖等,0,2025-10-30,2025-10-17,株式会社長榮舘,,株式会社,岩手県,岩手郡雫石町,鶯宿第６地割７番地,,03,301,0200500,,,2025-10-17,清算の結了等,,,2015-10-05,1,,,,,チョウエイカン,0
1743,7460302004885,登記記録の閉鎖等,0,2025-10-30,2025-10-28,有限会社永田製作所,,有限会社,北海道,斜里郡斜里町,朝日町２３番地１３,,01,545,0994114,,,2025-10-28,清算の結了等,,,2015-10-05,1,,,,,ナガタセイサクショ,0
1771,8010401096174,登記記録の閉鎖等,0,2025-10-30,2025-10-01,株式会社Ｄ２Ｃ　ＩＤ,,株式会社,東京都,港区,東新橋１丁目９番１号,,13,103,1050021,,,2025-10-01,合併による解散等,7010401055008,令和７年１０月１日東京都港区東新橋一丁目９番１号株式会社Ｄ２Ｃ（7010401055008）に合併し解散,2015-10-05,1,,,,,ディーツーシーアイディー,0
1772,8010401157645,登記記録の閉鎖等,0,2025-10-30,2025-10-01,Ａプランニング株式会社,,株式会社,東京都,港区,港南１丁目９番３６号,,13,103,1080075,,,2025-10-01,清算の結了等,,,2021-01-20,1,,,,,エープランニング,0
1785,8010405015865,登記記録の閉鎖等,0,2025-10-30,2025-10-01,ＮＰＯ法人日本スマートドライバー機構,,その他の設立登記法人,東京都,港区,虎ノ門３丁目１０番１１号,,13,103,1050001,,,2025-10-01,清算の結了等,,,2017-06-26,1,,,,,ニホンスマートドライバーキコウ,0
1791,8010601002741,登記記録の閉鎖等,0,2025-10-30,2025-10-20,株式会社信盛社印刷所,,株式会社,東京都,江東区,東陽４丁目５番９号,,13,108,1350016,,,2025-10-20,清算の結了等,,,2015-10-05,1,,,,,シンセイシャインサツショ,0
1792,8010601056639,登記記録の閉鎖等,0,2025-10-30,2025-10-17,株式会社福源,,株式会社,東京都,墨田区,錦糸２丁目１２番１号日豊ビル１階,,13,107,1300013,,,2025-10-17,清算の結了等,,,2019-12-26,1,,,,,フクゲン,0
1794,8010602009975,登記記録の閉鎖等,0,2025-10-30,2025-10-21,有限会社吾妻,,有限会社,東京都,墨田区,墨田５丁目５番３号,,13,107,1310031,,,2025-10-21,清算の結了等,,,2015-10-05,1,,,,,アヅマ,0
1797,8010605003323,登記記録の閉鎖等,0,2025-10-30,2025-10-21,一般社団法人ベイサイドカウンシル,,その他の設立登記法人,東京都,江東区,枝川２丁目１８番１６号,,13,108,1350051,,,2025-10-21,清算の結了等,,,2016-12-22,1,,,,,ベイサイドカウンシル,0
1805,8011001130835,登記記録の閉鎖等,0,2025-10-30,2025-09-30,株式会社ベネプラス,,株式会社,東京都,渋谷区,恵比寿４丁目２２番１０号,,13,113,1500013,,,2025-09-30,清算の結了等,,,2019-11-12,1,,,,,ベネプラス,0
1808,8011002030877,登記記録の閉鎖等,0,2025-10-30,2025-09-30,有限会社エスエーアイ,,有限会社,東京都,渋谷区,渋谷３丁目１番１０号,,13,113,1500002,,,2025-09-30,合併による解散等,1011001037079,令和７年９月３０日東京都渋谷区渋谷三丁目１番１０号株式会社メディアアトリエ（1011001037079）に合併し解散,2015-10-05,1,,,,,エスエーアイ,0
1813,8011101067993,登記記録の閉鎖等,0,2025-10-30,2025-10-16,株式会社スマイルカンパニー,,株式会社,宮城県,仙台市青葉区,二日町２番１号,,04,101,9800802,,,2025-10-16,清算の結了等,,,2015-10-05,1,,,,,スマイルカンパニー,0
1830,8012802010548,登記記録の閉鎖等,0,2025-10-30,2025-10-20,有限会社ＤＡＴＥプランニングアソシエイツ,,有限会社,東京都,立川市,若葉町２丁目８番地の８７,,13,202,1900001,,,2025-10-20,清算の結了等,,,2015-10-05,1,,,,,ダテプランニングアソシエイツ,0
1836,8020002062954,登記記録の閉鎖等,0,2025-10-30,2025-10-14,有限会社山電シティサーブ,,有限会社,神奈川県,横浜市旭区,左近山４４８番地３左近山団地９街区４棟４０２号,,14,112,2410831,,,2025-10-14,清算の結了等,,,2015-10-05,1,,,,,ヤマデンシティサーブ,0
1843,8021002045206,登記記録の閉鎖等,0,2025-10-30,2025-10-15,有限会社清祥,,有限会社,神奈川県,海老名市,大谷北２丁目２６番７号,,14,215,2430419,,,2025-10-15,清算の結了等,,,2015-10-05,1,,,,,セイショウ,0
1856,8040001001754,登記記録の閉鎖等,0,2025-10-30,2025-10-01,京和興業株式会社,,株式会社,千葉県,市川市,菅野４丁目１３番８号,,12,203,2720824,,,2025-10-01,清算の結了等,,,2015-10-05,1,,,,,キョウワコウギョウ,0
1862,8040001112213,登記記録の閉鎖等,0,2025-10-30,2025-10-03,イオン・シグナ・スポーツ・ユナイテッド株式会社,,株式会社,千葉県,千葉市美浜区,中瀬１丁目５番地１,,12,106,2610023,,,2025-10-03,清算の結了等,,,2020-01-17,1,,,,,イオンシグナスポーツユナイテッド,0
1865,8040002021628,登記記録の閉鎖等,0,2025-10-30,2025-10-27,有限会社共栄ハウジング,,有限会社,千葉県,船橋市,習志野台４丁目３９番１－３０２号,,12,204,2740063,,,2025-10-27,清算の結了等,,,2015-10-05,1,,,,,キョウエイハウジング,0
1869,8050002034380,登記記録の閉鎖等,0,2025-10-30,2025-10-09,有限会社賃貸専科,,有限会社,茨城県,龍ケ崎市,２８１３番地３,,08,208,3010000,,,2025-10-09,合併による解散等,3050002034658,令和７年１０月９日茨城県龍ケ崎市２８１３番地３株式会社オオツカ（3050002034658）に合併し解散,2015-10-05,1,,,,,チンタイセンカ,0
1873,8070001023936,登記記録の閉鎖等,0,2025-10-30,2025-10-27,坂東コンクリート工業株式会社,,株式会社,群馬県,吾妻郡東吾妻町,大字小泉２６４番地の１,,10,429,3770806,,,2025-10-27,清算の結了等,,,2015-10-05,1,,,,,バンドウコンクリートコウギョウ,0
1896,8120901006002,登記記録の閉鎖等,0,2025-10-30,2025-10-15,株式会社河北,,株式会社,大阪府,吹田市,岸部南２丁目３８番３号,,27,205,5640011,,,2025-10-15,清算の結了等,,,2015-10-05,1,,,,,,0
1898,8122001002939,登記記録の閉鎖等,0,2025-10-30,2025-10-15,株式会社酒井鉄工所,,株式会社,大阪府,東大阪市,足代３丁目４番６号,,27,227,5770841,,,2025-10-15,清算の結了等,,,2015-10-05,1,,,,,サカイテッコウショ,0
1900,8122002011071,登記記録の閉鎖等,0,2025-10-30,2025-10-14,有限会社海幸,,有限会社,大阪府,大東市,赤井１丁目３番１４号,,27,218,5740046,,,2025-10-14,清算の結了等,,,2015-10-05,1,,,,,カイコウ,0
1904,8140001110470,登記記録の閉鎖等,0,2025-10-30,2025-10-27,株式会社エムズクリーン,,株式会社,兵庫県,神戸市北区,甲栄台１丁目９番１－３０４号,,28,109,6511142,,,2025-10-27,清算の結了等,,,2018-06-29,1,,,,,エムズクリーン,0
1906,8140001129222,登記記録の閉鎖等,0,2025-10-30,2025-10-27,株式会社Ｋクラフト,,株式会社,兵庫県,神戸市西区,富士見が丘４丁目２番地の９,,28,111,6512214,,,2025-10-27,清算の結了等,,,2023-02-22,1,,,,,ケイクラフト,0
1917,8180001119005,登記記録の閉鎖等,0,2025-10-30,2025-10-21,株式会社ユニオーク,,株式会社,愛知県,名古屋市瑞穂区,駒場町５丁目９番地駒場コープＧ,,23,108,4670807,,,2025-10-21,清算の結了等,,,2015-10-05,1,,,,,ユニオーク,0
1925,8180002056338,登記記録の閉鎖等,0,2025-10-30,2025-10-20,有限会社さはし保険事務所,,有限会社,愛知県,名古屋市東区,車道町２丁目２８番地の７,,23,102,4610036,,,2025-10-20,清算の結了等,,,2015-10-05,1,,,,,サハシホケンジムショ,0
1941,8220002010991,登記記録の閉鎖等,0,2025-10-30,2025-10-24,有限会社中村建設,,有限会社,石川県,小松市,安宅町タ５０番地,,17,203,9230003,,,2025-10-24,清算の結了等,,,2015-10-05,1,,,,,ナカムラケンセツ,0
1946,8240003004025,登記記録の閉鎖等,0,2025-10-30,2025-10-24,ＬＡＧＧソリューションズ合同会社,,合同会社,広島県,呉市,広古新開９丁目３１番１８号,,34,202,7370112,,,2025-10-24,清算の結了等,,,2018-10-10,1,,,,,ラッグソリューションズ,0
1948,8260002000023,登記記録の閉鎖等,0,2025-10-30,2025-10-27,有限会社旭商会,,有限会社,岡山県,岡山市北区,津島福居２丁目１１番１９号,,33,101,7000080,,,2025-10-27,清算の結了等,,,2015-10-05,1,,,,,アサヒショウカイ,0
1950,8280003001588,登記記録の閉鎖等,0,2025-10-30,2025-10-27,合同会社シーラック,,合同会社,島根県,大田市,久手町波根西２２２７番地,,32,205,6940051,,,2025-10-27,清算の結了等,,,2022-03-03,1,,,,,シーラック,0
1954,8290001094526,登記記録の閉鎖等,0,2025-10-30,2025-10-07,Ａ‐ＴＲＵＳＴ　ＰＬＡＮＮＩＮＧ株式会社,,株式会社,福岡県,久留米市,善導寺町木塚１０７－２,,40,203,8390822,,,2025-10-07,清算の結了等,,,2021-09-15,1,,,,,エートラストプランニング,0
1981,8380002000309,登記記録の閉鎖等,0,2025-10-30,2025-10-21,有限会社アロエベラオブ福島,,有限会社,福島県,福島市,御山字大木７番地,,07,201,9608252,,,2025-10-21,清算の結了等,,,2015-10-05,1,,,,,アロエベラオブフクシマ,0
1995,8450002012206,登記記録の閉鎖等,0,2025-10-30,2025-10-23,有限会社吉本電装工業,,有限会社,北海道,苫前郡羽幌町,南二条１丁目２０番地４,,01,484,0784102,,,2025-10-23,清算の結了等,,,2015-10-05,1,,,,,,0
2001,9010001098999,登記記録の閉鎖等,0,2025-10-30,2025-10-02,Ａｐａｍａｎ　Ｎｅｔｗｏｒｋ株式会社,,株式会社,東京都,千代田区,丸の内１丁目８番１号丸の内トラストタワーＮ館,,13,101,1000005,,,2025-10-02,合併による解散等,4010001078337,令和７年９月３０日東京都千代田区丸の内一丁目８番１号丸の内トラストタワーＮ館ＡＰＡＭＡＮ株式会社（4010001078337）に合併し解散,2015-10-05,1,,,,,アパマンネットワーク,0
2007,9010001187496,登記記録の閉鎖等,0,2025-10-30,2025-10-14,株式会社ａｃｔｕａｌｌｙ,,株式会社,東京都,中央区,銀座６丁目１３番１６号銀座ＷａｌｌビルＵＣＦ５０１,,13,102,1040061,,,2025-10-14,清算の結了等,,,2017-11-07,1,,,,,アクチュアリー,0
2009,9010001212683,登記記録の閉鎖等,0,2025-10-30,2025-10-01,株式会社Ｍｉｙｕｋｉ,,株式会社,東京都,港区,港南２丁目１６番１号,,13,103,1080075,,,2025-10-01,清算の結了等,,,2020-10-07,1,,,,,ミユキ,0
2017,9010003034671,登記記録の閉鎖等,0,2025-10-30,2025-10-23,Ｇ‐ｓｔａｒｔ合同会社,,合同会社,兵庫県,神戸市中央区,江戸町９８番地の１,,28,110,6500033,,,2025-10-23,清算の結了等,,,2021-04-22,1,,,,,ジースタート,0
2027,9010401022567,登記記録の閉鎖等,0,2025-10-30,2025-10-01,ケミカルビル株式会社,,株式会社,東京都,港区,新橋５丁目７番１２号,,13,103,1050004,,,2025-10-01,合併による解散等,7010401013972,令和７年１０月１日東京都港区新橋五丁目７番１２号シュアラスター株式会社（7010401013972）に合併し解散,2015-10-05,1,,,,,ケミカルビル,0
2067,9013301004222,登記記録の閉鎖等,0,2025-10-30,2025-10-20,株式会社五番街,,株式会社,東京都,豊島区,西池袋１丁目１番２５号,,13,116,1710021,,,2025-10-20,清算の結了等,,,2015-10-05,1,,,,,ゴバンガイ,0
2070,9013301048913,登記記録の閉鎖等,0,2025-10-30,2025-10-20,株式会社カンシャス,,株式会社,東京都,豊島区,東池袋４丁目３番３号５Ｆ,,13,116,1700013,,,2025-10-20,清算の結了等,,,2022-04-07,1,,,,,カンシャス,0
2077,9020002106223,登記記録の閉鎖等,0,2025-10-30,2025-10-15,有限会社イースト,,有限会社,神奈川県,川崎市川崎区,南町１４番地１,,14,131,2100015,,,2025-10-15,清算の結了等,,,2015-10-05,1,,,,,イースト,0
2087,9040001065807,登記記録の閉鎖等,0,2025-10-30,2025-10-01,株式会社スカイプラザ柏,,株式会社,千葉県,柏市,柏１丁目１番２０号,,12,217,2770005,,,2025-10-01,合併による解散等,7040001065404,令和７年１０月１日千葉県柏市柏一丁目１番２０号株式会社柏駅前ビル開発（7040001065404）に合併し解散,2015-10-05,1,,,,,スカイプラザカシワ,0
2089,9040001113573,登記記録の閉鎖等,0,2025-10-30,2025-10-01,株式会社ヴィガーホールディングス,,株式会社,千葉県,船橋市,高根台７丁目１４番１号,,12,204,2740065,,,2025-10-01,合併による解散等,8040001094063,令和７年１０月１日千葉県船橋市高根台七丁目１４番１号株式会社ヴィガーコーポレーション（8040001094063）に合併し解散,2020-05-11,1,,,,,ヴィガーホールディングス,0
2097,9070003004132,登記記録の閉鎖等,0,2025-10-30,2025-10-27,宗栄工業合同会社,,合同会社,群馬県,富岡市,上高瀬７２番地,,10,210,3702334,,,2025-10-27,清算の結了等,,,2021-06-07,1,,,,,ソウエイコウギョウ,0
2103,9080405005719,登記記録の閉鎖等,0,2025-10-30,2025-10-16,特定非営利活動法人いきいき・いわた,,その他の設立登記法人,静岡県,磐田市,加茂９６１番地,,22,211,4380804,,,2025-10-16,清算の結了等,,,2015-10-05,1,,,,,イキイキイワタ,0
2105,9120001016082,登記記録の閉鎖等,0,2025-10-30,2025-10-27,不二パウダル株式会社,,株式会社,大阪府,東大阪市,中石切町７丁目１番４５号,,27,227,5798014,,,2025-10-27,合併による解散等,8011101012660,令和７年１０月１日東京都中央区築地五丁目６番１０号株式会社ダルトン（8011101012660）に合併し解散,2015-10-05,1,,,,,フジパウダル,0
2107,9120001087388,登記記録の閉鎖等,0,2025-10-30,2025-10-28,浜町株式会社,,株式会社,大阪府,大阪市中央区,北浜３丁目３番１５号,,27,128,5410041,,,2025-10-28,清算の結了等,,,2015-10-05,1,,,,,ハマチョウ,0
2109,9120001202269,登記記録の閉鎖等,0,2025-10-30,2025-10-17,パナソニックファイナンスソリューションズ株式会社,,株式会社,東京都,中央区,銀座８丁目２１番１号,,13,102,1040061,,,2025-10-17,清算の結了等,,,2016-12-05,1,,,,,パナソニックファイナンスソリューションズ,0
2118,9120005023190,登記記録の閉鎖等,0,2025-10-30,2025-10-24,一般社団法人エスフォルソ,,その他の設立登記法人,大阪府,枚方市,藤阪元町２丁目５４番３号,,27,210,5730157,,,2025-10-24,清算の結了等,,,2022-09-15,1,,,,,エスフォルソ,0
2123,9122001002797,登記記録の閉鎖等,0,2025-10-30,2025-10-16,佐藤タックス工業株式会社,,株式会社,大阪府,東大阪市,川俣１丁目９番３４号,,27,227,5770063,,,2025-10-16,清算の結了等,,,2015-10-05,1,,,,,サトウタックスコウギョウ,0
2126,9122002005295,登記記録の閉鎖等,0,2025-10-30,2025-10-14,有限会社関西経理,,有限会社,大阪府,東大阪市,足代南１丁目５番９号,,27,227,5770842,,,2025-10-14,清算の結了等,,,2015-10-05,1,,,,,カンサイケイリ,0
2131,9130001022286,登記記録の閉鎖等,0,2025-10-30,2025-10-27,株式会社ＢＴＸ,,株式会社,京都府,京都市中京区,西ノ京東中合町５６,,26,104,6048437,,,2025-10-27,清算の結了等,,,2015-10-05,1,,,,,,0
2146,9150001015057,登記記録の閉鎖等,0,2025-10-30,2025-10-10,株式会社ヘルシーライフ２１,,株式会社,奈良県,香芝市,逢坂８丁目２０８番地の４,00043048,29,210,6390251,,,2025-10-10,清算の結了等,,,2015-10-05,1,,,,,ヘルシーライフニジュウイチ,0
2159,9180002083769,登記記録の閉鎖等,0,2025-10-30,2025-10-21,有限会社ニューライト不動産,,有限会社,愛知県,半田市,銀座本町２丁目５番地,,23,205,4750874,,,2025-10-21,清算の結了等,,,2015-10-05,1,,,,,ニューライトフドウサン,0
2167,9220001017310,登記記録の閉鎖等,0,2025-10-30,2025-10-27,株式会社丸井,,株式会社,石川県,河北郡内灘町,字鶴ケ丘１丁目７１番地１,,17,365,9200271,,,2025-10-27,合併による解散等,6220001017255,令和７年１０月２７日石川県河北郡内灘町字鶴ケ丘一丁目７１番地１株式会社表井建設（6220001017255）に合併し解散,2015-10-05,1,,,,,マルイ,0
2174,9230003000809,登記記録の閉鎖等,0,2025-10-30,2025-10-21,合同会社スマイルハートかどや,,合同会社,富山県,射水市,新片町５丁目２５番地,,16,211,9340033,,,2025-10-21,清算の結了等,,,2015-10-05,1,,,,,,0
2181,9260001011029,登記記録の閉鎖等,0,2025-10-30,2025-10-27,株式会社Ｎ．ｃｏｍｐａｎｙ,,株式会社,岡山県,倉敷市,藤戸町藤戸１８２４番地２,,33,202,7100133,,,2025-10-27,清算の結了等,,,2015-10-05,1,,,,,エヌカンパニー,0
2200,9320001010643,登記記録の閉鎖等,0,2025-10-30,2025-10-29,株式会社天ケ瀬五馬,,株式会社,大分県,日田市,天瀬町五馬市２９６７番地２３,,44,204,8770111,,,2025-10-29,清算の結了等,,,2015-10-05,1,,,,,アマガセイツマ,0
2208,9370401000479,登記記録の閉鎖等,0,2025-10-30,2025-10-14,昭龍観光開発株式会社,,株式会社,宮城県,登米市,迫町新田字舘林６２番地の１,,04,212,9894601,,,2025-10-14,清算の結了等,,,2015-10-05,1,,,,,ショウリュウカンコウカイハツ,0
2217,9420001012935,登記記録の閉鎖等,0,2025-10-30,2025-10-20,株式会社フジサキ設計事務所,,株式会社,青森県,青森市,長島２丁目１３番１号アクア青森スクエアビル６Ｆ,,02,201,0300861,,,2025-10-20,清算の結了等,,,2015-10-05,1,,,,,,0
2220,9420001013272,登記記録の閉鎖等,0,2025-10-30,2025-10-22,株式会社双葉建設,,株式会社,青森県,北津軽郡中泊町,大字薄市字玉清水５０番地１,,02,387,0370302,,,2025-10-22,清算の結了等,,,2015-10-05,1,,,,,フタバケンセツ,0
