sequenceNumber,corporateNumber,process,correct,updateDate,changeDate,name,nameImageId,kind,prefectureName,cityName,streetNumber,addressImageId,prefectureCode,cityCode,postCode,addressOutside,addressOutsideImageId,closeDate,closeCause,successorCorporateNumber,changeCause,assignmentDate,latest,enName,enPrefectureName,enCityName,enAddressOutside,furigana,hihyoji
14,1010001230354,新規,0,2022-10-26,2022-10-26,大盛不動産株式会社,,株式会社,東京都,千代田区,神田三崎町３丁目３番３号太陽ビル４０３,,13,101,1010061,,,,,,,2022-10-26,1,,,,,オオモリフドウサン,0
22,1010401170480,新規,0,2022-10-26,2022-10-26,株式会社Ｓｔｕｄｙ,,株式会社,東京都,港区,港南２丁目１６番７－９０５号,,13,103,1080075,,,,,,,2022-10-26,1,,,,,スタディー,0
24,1010403028768,新規,0,2022-10-26,2022-10-26,ＢＬＳＴ合同会社,,合同会社,東京都,港区,六本木６丁目１０番１号,,13,103,1060032,,,,,,,2022-10-26,1,,,,,ビーエルエスティー,0
29,1010701043378,新規,0,2022-10-26,2022-10-26,株式会社ミスワン,,株式会社,東京都,品川区,西五反田１丁目１３番７号,,13,109,1410031,,,,,,,2022-10-26,1,,,,,ミスワン,0
42,1011003015594,新規,0,2022-10-26,2022-10-26,合同会社ＳＴＣごか町,,合同会社,東京都,目黒区,洗足２丁目１６番１９号,,13,110,1520012,,,,,,,2022-10-26,1,,,,,エスティーシーゴカマチ,0
43,1011005009801,新規,0,2022-10-26,2022-10-26,一般社団法人シャロンテックごか町,,その他の設立登記法人,東京都,目黒区,洗足２丁目１６番１９号,,13,110,1520012,,,,,,,2022-10-26,1,,,,,シャロンテックゴカマチ,0
50,1011101100629,新規,0,2022-10-26,2022-10-26,株式会社リネア,,株式会社,東京都,新宿区,矢来町８６番地,,13,104,1620805,,,,,,,2022-10-26,1,,,,,リネア,0
52,1011201024182,新規,0,2022-10-26,2022-10-26,株式会社ＭＩＲＡＳ,,株式会社,東京都,中野区,弥生町５丁目２番６－７０１号,,13,114,1640013,,,,,,,2022-10-26,1,,,,,ミラス,0
58,1011403003802,新規,0,2022-10-26,2022-10-26,Ｓｕｇａｒｓ合同会社,,合同会社,東京都,板橋区,板橋１丁目４５－５清水邸貸店舗１階,,13,119,1730004,,,,,,,2022-10-26,1,,,,,シュガーズ,0
59,1011501028593,新規,0,2022-10-26,2022-10-26,聚聚株式会社,,株式会社,東京都,荒川区,南千住１丁目２８番８号,,13,118,1160003,,,,,,,2022-10-26,1,,,,,ジュジュ,0
63,1011603003734,新規,0,2022-10-26,2022-10-26,合同会社ダブルエイト,,合同会社,東京都,練馬区,練馬１丁目２０―８日建練馬ビル２Ｆ,,13,120,1760001,,,,,,,2022-10-26,1,,,,,ダブルエイト,0
65,1011801041445,新規,0,2022-10-26,2022-10-26,株式会社稲穂,,株式会社,東京都,足立区,千住１丁目３４番８号,,13,121,1200034,,,,,,,2022-10-26,1,,,,,イナホ,0
66,1011803005324,新規,0,2022-10-26,2022-10-26,龍勝合同会社,,合同会社,東京都,足立区,六月１丁目１５番７号－２０２室,,13,121,1210814,,,,,,,2022-10-26,1,,,,,リュウショウ,0
68,1012405004796,新規,0,2022-10-26,2022-10-26,一般社団法人子どもプライマリーケアサポートセンター,,その他の設立登記法人,東京都,調布市,小島町１丁目３３番地４,,13,208,1820026,,,,,,,2022-10-26,1,,,,,コドモプライマリーケアサポートセンター,0
73,1013301049844,新規,0,2022-10-26,2022-10-26,株式会社パトリエ,,株式会社,東京都,豊島区,長崎１丁目３－１１並木園ビル２０２,,13,116,1710051,,,,,,,2022-10-26,1,,,,,パトリエ,0
82,1020001148694,新規,0,2022-10-26,2022-10-26,株式会社Ｎｉｓｅｃｏ　ｂａｓｅ,,株式会社,神奈川県,横浜市磯子区,西町１１番８号根岸駅前ビル２－Ｉ,,14,107,2350007,,,,,,,2022-10-26,1,,,,,ニセコベース,0
107,1030005021046,新規,0,2022-10-26,2022-10-26,医療法人社団竹世会,,その他の設立登記法人,埼玉県,三郷市,中央１丁目２番地１ザ・ライオンズ三郷中央１０２,,11,237,3410038,,,,,,,2022-10-26,1,,,,,チクセイカイ,0
117,1050001051854,新規,0,2022-10-26,2022-10-26,株式会社青木食品,,株式会社,茨城県,つくばみらい市,板橋２２７７番地,,08,235,3002307,,,,,,,2022-10-26,1,,,,,アオキショクヒン,0
118,1050003006947,新規,0,2022-10-26,2022-10-26,ＨＪＰ合同会社,,合同会社,茨城県,取手市,台宿２丁目３番４号ＭＥシャトー１０１号,,08,217,3020013,,,,,,,2022-10-26,1,,,,,エイチジェイピー,0
128,1080403004639,新規,0,2022-10-26,2022-10-26,ＳＭ　ＴＲＡＤＩＮＧ合同会社,,合同会社,静岡県,掛川市,杉谷１丁目１１番２０号,,22,213,4360017,,,,,,,2022-10-26,1,,,,,エスエムトレーディング,0
130,1110001037062,新規,0,2022-10-26,2022-10-26,株式会社＿美,00128243,株式会社,新潟県,柏崎市,東長浜町１０番４６号,,15,205,9450033,,,,,,,2022-10-26,1,,,,,トミ,0
143,1120001249755,新規,0,2022-10-26,2022-10-26,ｖｒｉｊｈｅｉｄ株式会社,,株式会社,大阪府,守口市,大久保町３丁目３６－６,,27,209,5700012,,,,,,,2022-10-26,1,,,,,フライハイ,0
144,1120001249763,新規,0,2022-10-26,2022-10-26,株式会社Ｂｒｉｄｇｅ　ｏｆ　Ｇｒａｃｅ,,株式会社,大阪府,大阪市西成区,旭１丁目９番４号カトレアマンション３０２号室,,27,122,5570032,,,,,,,2022-10-26,1,,,,,ブリッジオブグレイス,0
145,1120001249771,新規,0,2022-10-26,2022-10-26,得龍株式会社,,株式会社,大阪府,大阪市中央区,堀越町二丁目４番５号堀越ハイツ２Ｆ,,27,128,5390000,,,,,,,2022-10-26,1,,,,,トクリュウ,0
150,1120003022730,新規,0,2022-10-26,2022-10-26,Ｌａｎｃｅｒ合同会社,,合同会社,大阪府,大阪市鶴見区,安田１丁目４番３１号,,27,124,5380032,,,,,,,2022-10-26,1,,,,,ランサー,0
167,1140001127785,新規,0,2022-10-26,2022-10-26,株式会社サントリーニ,,株式会社,兵庫県,芦屋市,大桝町２番２０－４０２号,,28,206,6590066,,,,,,,2022-10-26,1,,,,,サントリーニ,0
168,1140001127810,新規,0,2022-10-26,2022-10-26,株式会社Ｓｏｐｈｉａ,,株式会社,兵庫県,神戸市兵庫区,西多聞通１丁目３番２０号,,28,105,6520035,,,,,,,2022-10-26,1,,,,,ソフィア,0
182,1190001029853,新規,0,2022-10-26,2022-10-26,株式会社ＷＥＤＤ,,株式会社,三重県,名張市,元町４３３番地７,,24,208,5180725,,,,,,,2022-10-26,1,,,,,ウエッド,0
183,1190001029861,新規,0,2022-10-26,2022-10-26,株式会社Ｒｅ‐Ｆｉｎｅ．Ｕ,,株式会社,三重県,松阪市,大黒田町１４４５番地２,,24,204,5150063,,,,,,,2022-10-26,1,,,,,リファインユー,0
186,1200001040577,新規,0,2022-10-26,2022-10-26,株式会社２５,,株式会社,岐阜県,岐阜市,河渡３丁目２５番地１,,21,201,5010105,,,,,,,2022-10-26,1,,,,,ニコ,0
212,1290001099341,新規,0,2022-10-26,2022-10-26,株式会社Ｆ,,株式会社,福岡県,福岡市博多区,冷泉町１０－２３博多冷泉町ビル２階,,40,132,8120039,,,,,,,2022-10-26,1,,,,,エフ,0
213,1290003013102,新規,0,2022-10-26,2022-10-26,田中商店合同会社,,合同会社,福岡県,大牟田市,天道町１９３番地１４,,40,202,8360896,,,,,,,2022-10-26,1,,,,,タナカショウテン,0
214,1290803004234,新規,0,2022-10-26,2022-10-26,Ｓｈｏｐ　ｘｅ　ｄｉｅｎ　ＴＴ合同会社,,合同会社,福岡県,北九州市小倉北区,字佐町二丁目１４番４号,,40,106,8020000,,,,,,,2022-10-26,1,,,,,ショップセイディエンティーティー,0
221,1340001025110,新規,0,2022-10-26,2022-10-26,株式会社きりしま美装,,株式会社,鹿児島県,霧島市,隼人町小田３１５４番地３,,46,218,8995105,,,,,,,2022-10-26,1,,,,,キリシマビソウ,0
224,1360001031107,新規,0,2022-10-26,2022-10-26,株式会社バックアップワークス,,株式会社,沖縄県,浦添市,西原５丁目１番２－１３０１号,,47,208,9012101,,,,,,,2022-10-26,1,,,,,バックアップワークス,0
225,1360003012402,新規,0,2022-10-26,2022-10-26,やまもと合同会社,,合同会社,沖縄県,宜野湾市,大山６丁目４４番３号,,47,205,9012223,,,,,,,2022-10-26,1,,,,,ヤマモト,0
227,1370001049172,新規,0,2022-10-26,2022-10-26,株式会社ｙａｍａｔｏ,,株式会社,宮城県,柴田郡大河原町,字錦町７番地２６,,04,321,9891217,,,,,,,2022-10-26,1,,,,,ヤマト,0
236,1380001019141,新規,0,2022-10-26,2022-10-26,金井建設工業株式会社,,株式会社,福島県,南会津郡下郷町,大字豊成字下川原１６０番地,,07,362,9695311,,,,,,,2022-10-26,1,,,,,カナイケンセツコウギョウ,0
239,1430001087711,新規,0,2022-10-26,2022-10-26,株式会社Ｓ　Ｖｅｎｔｕｒｅｓ,,株式会社,北海道,札幌市東区,北八条東４丁目１番２０号,,01,103,0600908,,,,,,,2022-10-26,1,,,,,エスベンチャーズ,0
240,1430001087728,新規,0,2022-10-26,2022-10-26,Ｇｒｏｗｔｈ　ｈａｃｋ株式会社,,株式会社,北海道,札幌市東区,北三十一条東６丁目３番１号,,01,103,0650031,,,,,,,2022-10-26,1,,,,,グロースハック,0
241,1430003014399,新規,0,2022-10-26,2022-10-26,エスアール合同会社,,合同会社,北海道,札幌市北区,北十八条西３丁目２番１－７０６号,,01,102,0010018,,,,,,,2022-10-26,1,,,,,エスアール,0
242,1430003014408,新規,0,2022-10-26,2022-10-26,合同会社Ｐ．２,,合同会社,北海道,札幌市中央区,北一条西１０丁目１番地２７共同ビル２階,,01,101,0600001,,,,,,,2022-10-26,1,,,,,ピーツー,0
245,1480005006927,新規,0,2022-10-26,2022-10-26,一般社団法人阿波忌部麁服保存会,,その他の設立登記法人,徳島県,吉野川市,山川町天神８０番地,,36,205,7793402,,,,,,,2022-10-26,1,,,,,アワインベアラタエホゾンカイ,0
248,1700150036516,新規,0,2022-10-26,2015-10-09,盛岡青色申告会,,その他,岩手県,盛岡市,大通３丁目２－８岩手県金属工業会館４Ｆ,,03,201,0200022,,,,,,,2015-10-09,1,,,,,モリオカアオイロシンコクカイ,0
249,1700150112102,新規,0,2022-10-26,2022-10-26,Ｐｏｗｅｒ　Ｓｙｓｔｅｍｓ　Ｍｆｇ．，ＬＬＣ,,外国会社等,,,,,,,,１４４０　Ｗ．Ｉｎｄｉａｎｔｏｗｎ　Ｒｄ．，Ｊｕｐｉｔｅｒ，Ｆｌｏｒｉｄａ　３３４５８，ＵＳＡ,,,,,,2022-10-26,1,,,,,パワーシステムエムエフジーエルエルシー,0
250,1700150112291,新規,0,2022-10-26,2022-10-26,ＣＲＯＯＳ　ＥＮＴＥＲＰＲＩＳＥＳ,,外国会社等,千葉県,山武市,木原１４０２番地５Ａ,,12,237,2891212,スリランカ民主社会主義共和国、バダルガマ、コシェナ、３１０Ａ－４,,,,,,2022-10-26,1,,,,,クルースエンタープライズ,0
256,2010001230345,新規,0,2022-10-26,2022-10-26,センチュリー・ビクター投資株式会社,,株式会社,東京都,中央区,入船２丁目３番７号６階,,13,102,1040042,,,,,,,2022-10-26,1,,,,,センチュリービクタートウシ,0
257,2010001230378,新規,0,2022-10-26,2022-10-26,株式会社ＥＣＶＰ,,株式会社,東京都,中央区,日本橋兜町６－７,,13,102,1030026,,,,,,,2022-10-26,1,,,,,イーシーヴィーピー,0
268,2010401170439,新規,0,2022-10-26,2022-10-26,株式会社八意,,株式会社,東京都,港区,六本木４丁目８番７号,,13,103,1060032,,,,,,,2022-10-26,1,,,,,ヤゴコロ,0
272,2010405021472,新規,0,2022-10-26,2022-10-26,一般社団法人ポジティブ子育て協会,,その他の設立登記法人,東京都,港区,南青山２丁目２番１５号,,13,103,1070062,,,,,,,2022-10-26,1,,,,,ポジティブコソダテキョウカイ,0
286,2010901051840,新規,0,2022-10-26,2022-10-26,株式会社ＪＡＣＫ,,株式会社,東京都,世田谷区,代沢５丁目１６番２３号,,13,112,1550032,,,,,,,2022-10-26,1,,,,,ジャック,0
291,2011001150426,新規,0,2022-10-26,2022-10-26,株式会社ＭｅｄＰｌｕｓ,,株式会社,東京都,渋谷区,円山町５番５号Ｎａｖｉ渋谷Ｖ３階,,13,113,1500044,,,,,,,2022-10-26,1,,,,,メドプラス,0
292,2011001150491,新規,0,2022-10-26,2022-10-26,株式会社みらいと舎,,株式会社,東京都,目黒区,南２丁目１０番３号,,13,110,1520013,,,,,,,2022-10-26,1,,,,,ミライトシャ,0
293,2011003015585,新規,0,2022-10-26,2022-10-26,合同会社バトラヴォ,,合同会社,東京都,渋谷区,代々木５丁目６４番４号,,13,113,1510053,,,,,,,2022-10-26,1,,,,,バトラヴォ,0
299,2011101100628,新規,0,2022-10-26,2022-10-26,ＷＡＤ株式会社,,株式会社,東京都,新宿区,西新宿３丁目３番１３号西新宿水間ビル６階,,13,104,1600023,,,,,,,2022-10-26,1,,,,,ワド,0
300,2011201024181,新規,0,2022-10-26,2022-10-26,株式会社ｔｒｉｗｅｅｋｌｙ,,株式会社,東京都,中野区,本町３丁目２５番１０号,,13,114,1640012,,,,,,,2022-10-26,1,,,,,トゥライウィークリィ,0
308,2011603003733,新規,0,2022-10-26,2022-10-26,合同会社ＫＭオフィス,,合同会社,東京都,練馬区,西大泉１丁目２５－７,,13,120,1780065,,,,,,,2022-10-26,1,,,,,ケイエムオフィス,0
313,2011801041436,新規,0,2022-10-26,2022-10-26,株式会社大秦商事,,株式会社,東京都,足立区,六月２丁目２７－３－２０４,,13,121,1210814,,,,,,,2022-10-26,1,,,,,ダイシンショウジ,0
318,2012803002905,新規,0,2022-10-26,2022-10-26,永栄合同会社,,合同会社,東京都,日野市,程久保３丁目３番１９－１０２号,,13,212,1910042,,,,,,,2022-10-26,1,,,,,エイエイ,0
326,2020001011752,新規,0,2022-10-26,2022-10-26,株式会社テッラリブラ,,株式会社,神奈川県,横浜市青葉区,あざみ野４丁目９番地２１,,14,117,2250011,,,,,,,2022-10-26,1,,,,,テッラリブラ,0
337,2020001148660,新規,0,2022-10-26,2022-10-26,ディー・ソリューションズ株式会社,,株式会社,神奈川県,横浜市保土ケ谷区,鎌谷町３７番地３７,,14,106,2400063,,,,,,,2022-10-26,1,,,,,ディーソリューションズ,0
349,2021003012292,新規,0,2022-10-26,2022-10-26,合同会社ｍｙｓｉｇ,,合同会社,神奈川県,鎌倉市,常盤１０２４番地８レオパレス常盤１０３,,14,204,2480022,,,,,,,2022-10-26,1,,,,,ミューシグ,0
353,2030001150657,新規,0,2022-10-26,2022-10-26,株式会社Ｍ・Ｍ・Ｓ,,株式会社,埼玉県,上尾市,二ツ宮９５８－４,,11,219,3620017,,,,,,,2022-10-26,1,,,,,エムエムエス,0
354,2030001150707,新規,0,2022-10-26,2022-10-26,グランストローム商事株式会社,,株式会社,埼玉県,東松山市,六軒町２１－４,,11,212,3550024,,,,,,,2022-10-26,1,,,,,グランストロームショウジ,0
367,2040001125435,新規,0,2022-10-26,2022-10-26,株式会社Ｌｏｇｒｏｓ,,株式会社,千葉県,浦安市,堀江１丁目３５番１－３号,,12,227,2790041,,,,,,,2022-10-26,1,,,,,ログロス,0
368,2040001125484,新規,0,2022-10-26,2022-10-26,ＪＣＣ株式会社,,株式会社,千葉県,柏市,明原４丁目５番２４号,,12,217,2770843,,,,,,,2022-10-26,1,,,,,ジェイシーシー,0
374,2040005021795,新規,0,2022-10-26,2022-10-26,一般社団法人竹門書会,,その他の設立登記法人,千葉県,流山市,こうのす台６３３番地の３６,,12,220,2700102,,,,,,,2022-10-26,1,,,,,チクモンショカイ,0
375,2050001051853,新規,0,2022-10-26,2022-10-26,株式会社ＴＭＰ,,株式会社,茨城県,龍ケ崎市,馴馬町５８５番地６竜ケ崎第一グリーンコーポ４０１号室,,08,208,3010004,,,,,,,2022-10-26,1,,,,,ティーエムピー,0
377,2060001035384,新規,0,2022-10-26,2022-10-26,株式会社Ｇ‐ｏｎｅ,,株式会社,栃木県,足利市,迫間町４４１番地５,,09,202,3294216,,,,,,,2022-10-26,1,,,,,ジーワン,0
415,2120001249762,新規,0,2022-10-26,2022-10-26,株式会社ドーンネクスト,,株式会社,大阪府,大阪市福島区,鷺洲４丁目１番７号,,27,103,5530002,,,,,,,2022-10-26,1,,,,,ドーンネクスト,0
416,2120001249770,新規,0,2022-10-26,2022-10-26,大吉商事株式会社,,株式会社,大阪府,大阪市浪速区,大国１丁目１０番２１－３０１号,,27,111,5560014,,,,,,,2022-10-26,1,,,,,ダイキチショウジ,0
417,2120001249779,新規,0,2022-10-26,2022-10-26,Ｎｅｗ　Ｗｏｒｋｓ株式会社,,株式会社,大阪府,大阪市北区,鶴野町４－１１朝日プラザ梅田２ＦｂｉｌｌａｇｅＯＳＡＫＡ朝日プラザ梅田内,,27,127,5300014,,,,,,,2022-10-26,1,,,,,ニューワークス,0
418,2120001249820,新規,0,2022-10-26,2022-10-26,株式会社リベ大工務店,,株式会社,大阪府,大阪市福島区,福島７丁目４番２２号福島Ｍビル,,27,103,5530003,,,,,,,2022-10-26,1,,,,,リベダイコウムテン,0
432,2130001072908,新規,0,2022-10-26,2022-10-26,ＨＯＭＥＹ株式会社,,株式会社,京都府,京田辺市,田辺１２番地,,26,211,6100331,,,,,,,2022-10-26,1,,,,,ホーミー,0
473,2290001099340,新規,0,2022-10-26,2022-10-26,株式会社アサヒグループＫＤ,,株式会社,福岡県,福岡市博多区,下川端町１０番１６－１４０２号,,40,132,8120027,,,,,,,2022-10-26,1,,,,,アサヒグループケイディー,0
481,2290801028985,新規,0,2022-10-26,2022-10-26,株式会社ＪＯ,,株式会社,福岡県,北九州市八幡西区,船越２丁目３１番１０号,,40,109,8071111,,,,,,,2022-10-26,1,,,,,ジョー,0
485,2330001030218,新規,0,2022-10-26,2022-10-26,株式会社ＲＩＶＥＲ　ＵＰ　ＰＬＵＳ,,株式会社,熊本県,上益城郡益城町,大字宮園７５７番地１,,43,443,8612241,,,,,,,2022-10-26,1,,,,,リバーアッププラス,0
492,2360001031106,新規,0,2022-10-26,2022-10-26,双建物産株式会社,,株式会社,沖縄県,宮古島市,平良字久貝６６８番地５－１階,,47,214,9060015,,,,,,,2022-10-26,1,,,,,ソウケンブッサン,0
520,2470001019305,新規,0,2022-10-26,2022-10-26,和田会計コンサルティング株式会社,,株式会社,香川県,綾歌郡宇多津町,２３４９番地１,,37,386,7690210,,,,,,,2022-10-26,1,,,,,ワダカイケイコンサルティング,0
521,2480001011896,新規,0,2022-10-26,2022-10-26,三昇国際貿易株式会社,,株式会社,徳島県,徳島市,南庄町５丁目１番地の５８,,36,201,7700045,,,,,,,2022-10-26,1,,,,,サンショウコクサイボウエキ,0
522,2480005006926,新規,0,2022-10-26,2022-10-26,社会福祉法人幸結福祉会,,その他の設立登記法人,徳島県,阿南市,那賀川町原２６１番,,36,204,7791231,,,,,,,2022-10-26,1,,,,,,0
524,2500003002908,新規,0,2022-10-26,2022-10-26,合同会社バレイストン,,合同会社,愛媛県,西予市,野村町阿下６号５３番地,,38,214,7971211,,,,,,,2022-10-26,1,,,,,バレイストン,0
539,3010001230360,新規,0,2022-10-26,2022-10-26,株式会社ＩＣＯＬＡ,,株式会社,東京都,千代田区,東神田２丁目６番２号タカラビル７Ｆ,,13,101,1010031,,,,,,,2022-10-26,1,,,,,イコラ,0
541,3010003038918,新規,0,2022-10-26,2022-10-26,ＧＯＺ‐ＡＮＩＭＡ合同会社,,合同会社,東京都,中央区,銀座１丁目２２番１１号銀座大竹ビジデンス２階,,13,102,1040061,,,,,,,2022-10-26,1,,,,,ゴズアニマ,0
546,3010401170438,新規,0,2022-10-26,2022-10-26,株式会社ミランドホールディングス,,株式会社,東京都,港区,南青山２丁目２番１５号,,13,103,1070062,,,,,,,2022-10-26,1,,,,,ミランドホールディングス,0
547,3010403028766,新規,0,2022-10-26,2022-10-26,合同会社ＢＧＳサポートシステム,,合同会社,東京都,港区,浜松町２丁目２－１５浜松町ダイヤビル２Ｆ,,13,103,1050013,,,,,,,2022-10-26,1,,,,,ビージーエスサポートシステム,0
553,3010601062039,新規,0,2022-10-26,2022-10-26,株式会社ｌｉｔ,,株式会社,東京都,江東区,亀戸５丁目２番６号,,13,108,1360071,,,,,,,2022-10-26,1,,,,,リット,0
554,3010601062047,新規,0,2022-10-26,2022-10-26,株式会社アークブレイン,,株式会社,東京都,墨田区,横川１丁目１２番１０号,,13,107,1300003,,,,,,,2022-10-26,1,,,,,アークブレイン,0
558,3010801033368,新規,0,2022-10-26,2022-10-26,株式会社パペラッテ,,株式会社,東京都,大田区,上池台１丁目７番１６号,,13,111,1450064,,,,,,,2022-10-26,1,,,,,パペラッテ,0
559,3010803004326,新規,0,2022-10-26,2022-10-26,合同会社素敵な未来,,合同会社,東京都,大田区,上池台５丁目２９－４,,13,111,1450064,,,,,,,2022-10-26,1,,,,,ステキナミライ,0
560,3010901014895,新規,0,2022-10-26,2022-10-26,株式会社オートウエスト,,株式会社,東京都,世田谷区,桜丘４丁目２４番２３－４０５号,,13,112,1560054,,,,,,,2022-10-26,1,,,,,オートウエスト,0
563,3010903007732,新規,0,2022-10-26,2022-10-26,合同会社ＳＴＯＮＥＳ,,合同会社,東京都,世田谷区,中町５丁目９－６ブランズシティ世田谷中町２０６,,13,112,1580091,,,,,,,2022-10-26,1,,,,,ストーンズ,0
564,3010903007740,新規,0,2022-10-26,2022-10-26,合同会社ＰＤＡ,,合同会社,東京都,世田谷区,玉川２丁目１０番２０号,,13,112,1580094,,,,,,,2022-10-26,1,,,,,,0
569,3011001150482,新規,0,2022-10-26,2022-10-26,ＧＧＧＧＧ株式会社,,株式会社,東京都,渋谷区,渋谷２丁目１９－１５宮益坂ビルディング６０９,,13,113,1500002,,,,,,,2022-10-26,1,,,,,ファイブジー,0
570,3011001150524,新規,0,2022-10-26,2022-10-26,株式会社イデアルハーツ,,株式会社,東京都,渋谷区,神宮前６丁目２３番４号桑野ビル２階,,13,113,1500001,,,,,,,2022-10-26,1,,,,,イデアルハーツ,0
571,3011003015584,新規,0,2022-10-26,2022-10-26,合同会社ｒｏｎｄ,,合同会社,東京都,渋谷区,代々木５丁目６４番４号,,13,113,1510053,,,,,,,2022-10-26,1,,,,,ロンド,0
579,3011103012309,新規,0,2022-10-26,2022-10-26,合同会社Ｇｏ　ｏＮ,,合同会社,東京都,新宿区,西早稲田３丁目８－１４－６０２号,,13,104,1690051,,,,,,,2022-10-26,1,,,,,ゴーオン,0
589,3011803005322,新規,0,2022-10-26,2022-10-26,合同会社ＨＭＳワークス,,合同会社,東京都,足立区,小台２丁目１５番７号,,13,121,1200046,,,,,,,2022-10-26,1,,,,,エイチエムエスワークス,0
592,3012801021914,新規,0,2022-10-26,2022-10-26,株式会社Ｒｅ．メイク,,株式会社,東京都,昭島市,拝島町３丁目１１－６１０３,,13,207,1960002,,,,,,,2022-10-26,1,,,,,リメイク,0
599,3013301049850,新規,0,2022-10-26,2022-10-26,株式会社メディアサード,,株式会社,東京都,豊島区,東池袋３丁目７番８号セントヒルズ池袋７０４,,13,116,1700013,,,,,,,2022-10-26,1,,,,,メディアサード,0
616,3020005015699,新規,0,2022-10-26,2022-10-26,一般社団法人バトンパーク,,その他の設立登記法人,神奈川県,横浜市都筑区,池辺町４６５３番地,,14,118,2240053,,,,,,,2022-10-26,1,,,,,バトンパーク,0
619,3021001077221,新規,0,2022-10-26,2022-10-26,株式会社Ｕｔｓｕｔｓｕ,,株式会社,神奈川県,茅ヶ崎市,下町屋２丁目１０－３１シエロ湘南２０１号,,14,207,2530087,,,,,,,2022-10-26,1,,,,,ウツツ,0
623,3021003012291,新規,0,2022-10-26,2022-10-26,ｉｎｖｉｔｅ合同会社,,合同会社,神奈川県,茅ヶ崎市,松浪１丁目８番１８号,,14,207,2530022,,,,,,,2022-10-26,1,,,,,,0
642,3030003020452,新規,0,2022-10-26,2022-10-26,合同会社ウェネバー,,合同会社,埼玉県,三郷市,茂田井６３４番地１豊田コーポ２号室,,11,237,3410025,,,,,,,2022-10-26,1,,,,,ウェネバー,0
643,3030005021044,新規,0,2022-10-26,2022-10-26,医療法人社団世隼会,,その他の設立登記法人,埼玉県,川口市,戸塚東１丁目２番２８号東川口フロンティアビル１０１,,11,203,3330802,,,,,,,2022-10-26,1,,,,,セシュンカイ,0
648,3040003021103,新規,0,2022-10-26,2022-10-26,合同会社ＲＯＹＡＬ　ＳＴＡＲ　ＬＩＧＨＴ,,合同会社,千葉県,山武市,上横地３３５－１みやぎのハイツ２０５,,12,237,2891313,,,,,,,2022-10-26,1,,,,,ローヤルイスターライト,0
649,3040003021136,新規,0,2022-10-26,2022-10-26,アイ・ネットワーク合同会社,,合同会社,千葉県,鎌ケ谷市,東中沢１丁目８－７エクセルＢ棟１０１,,12,224,2730112,,,,,,,2022-10-26,1,,,,,アイネットワーク,0
650,3040005021794,新規,0,2022-10-26,2022-10-26,医療法人社団朋悠会,,その他の設立登記法人,千葉県,千葉市花見川区,幕張町５丁目４１７番地２２２幕張グリーンハイツ地下１階,,12,102,2620032,,,,,,,2022-10-26,1,,,,,ホウユウカイ,0
656,3050003006953,新規,0,2022-10-26,2022-10-26,合同会社Ｅａｇｌｅ　Ｅｎｔｅｒｐｒｉｓｅｓ,,合同会社,茨城県,鉾田市,上幡木１６２７番地２,,08,234,3112113,,,,,,,2022-10-26,1,,,,,イーグルエンタープライゼズ,0
657,3060001035383,新規,0,2022-10-26,2022-10-26,ＮＯＭＡＮ　ＩＮＴＥＲＮＡＴＩＯＮＡＬ株式会社,,株式会社,栃木県,小山市,大字中久喜４２７番地６アンビション中久喜１階１０６号室,,09,208,3230806,,,,,,,2022-10-26,1,,,,,ノマンインターナショナル,0
658,3060003004279,新規,0,2022-10-26,2022-10-26,ＳＡＮＤＡＲＵＷＡＮ　ＩＮＴＥＲＮＡＴＩＯＮＡＬ合同会社,,合同会社,栃木県,那須郡那珂川町,馬頭１１３９番地,,09,411,3240613,,,,,,,2022-10-26,1,,,,,サンドルワンインターナショナル,0
678,3120001249786,新規,0,2022-10-26,2022-10-26,株式会社ＴＭＫ　ＩＮＴＥＲＮＡＴＩＯＮＡＬ,,株式会社,大阪府,大阪市西成区,玉出東１丁目１３番１８号,,27,122,5570043,,,,,,,2022-10-26,1,,,,,ティーエムケーインターナショナル,0
703,3140001021689,新規,0,2022-10-26,2022-10-26,株式会社みどりホーム,,株式会社,兵庫県,神戸市西区,森友４丁目１２番地,,28,111,6512132,,,,,,,2022-10-26,1,,,,,ミドリホーム,0
709,3140003018279,新規,0,2022-10-26,2022-10-26,合同会社Ｌａｎｉｓｏａｒ,,合同会社,兵庫県,神戸市垂水区,高丸６丁目５－１・２０５号,,28,108,6550016,,,,,,,2022-10-26,1,,,,,ラソニア,0
711,3150003002785,新規,0,2022-10-26,2022-10-26,合同会社Ｓｗｉｔｃｈ　ＯＮ　Ｅｎｇｌｉｓｈ　Ｓｃｈｏｏｌ,,合同会社,奈良県,橿原市,葛本町１５３番－２号３Ｆ,,29,205,6340007,,,,,,,2022-10-26,1,,,,,スイッチオンイングリッシュスクール,0
727,3180301036755,新規,0,2022-10-26,2022-10-26,株式会社アトリエ３３,,株式会社,愛知県,碧南市,千福町３丁目９６－７－１,,23,209,4470056,,,,,,,2022-10-26,1,,,,,アトリエサンジュウサン,0
752,3260001037343,新規,0,2022-10-26,2022-10-26,株式会社オフィスグレース,,株式会社,岡山県,岡山市北区,青江２丁目６番１１号アルファスマート青江６０３号,,33,101,7000941,,,,,,,2022-10-26,1,,,,,オフィスグレース,0
755,3260003004077,新規,0,2022-10-26,2022-10-26,合同会社フォレスト４号,,合同会社,岡山県,岡山市北区,西古松５３番地１（８０２）,,33,101,7000927,,,,,,,2022-10-26,1,,,,,フォレストヨンゴウ,0
759,3290001099331,新規,0,2022-10-26,2022-10-26,株式会社ＲＩＴＡ,,株式会社,福岡県,大牟田市,大字白川５３４番地７,,40,202,8370925,,,,,,,2022-10-26,1,,,,,リタ,0
761,3290003013100,新規,0,2022-10-26,2022-10-26,合同会社ｒｉｔａ,,合同会社,福岡県,糟屋郡篠栗町,大字乙犬９９７番地１門松駅前イーストサイド７０６号,,40,342,8112412,,,,,,,2022-10-26,1,,,,,リタ,0
762,3290005018840,新規,0,2022-10-26,2022-10-26,一般社団法人日本生活スタイル支援協会,,その他の設立登記法人,福岡県,福岡市中央区,天神２丁目３番１０号天神パインクレスト７１９号,,40,133,8100001,,,,,,,2022-10-26,1,,,,,ニホンセイカツスタイルシエンキョウカイ,0
775,3320001019392,新規,0,2022-10-26,2022-10-26,株式会社イザワ塗装,,株式会社,大分県,大分市,大字皆春３７３番地の５,,44,201,8700131,,,,,,,2022-10-26,1,,,,,イザワトソウ,0
782,3360003012391,新規,0,2022-10-26,2022-10-26,Ｅａｒｔｈ　Ｂｌｏｏｍｓ合同会社,,合同会社,沖縄県,中頭郡北谷町,字桑江３６４番地１１・１Ｆ,,47,326,9040103,,,,,,,2022-10-26,1,,,,,アースブルームス,0
786,3370001049170,新規,0,2022-10-26,2022-10-26,株式会社高橋建設,00128246,株式会社,宮城県,仙台市太白区,大塒町６番１０－２０１号,,04,104,9820027,,,,,,,2022-10-26,1,,,,,タカハシケンセツ,0
798,3500001024548,新規,0,2022-10-26,2022-10-26,株式会社妍心,,株式会社,愛媛県,新居浜市,西の土居町２丁目１番１１号,,38,205,7920035,,,,,,,2022-10-26,1,,,,,ケンシン,0
799,3700150110260,新規,0,2022-10-26,2022-06-22,原泉アートプロジェクト,,その他,静岡県,掛川市,萩間７０２,,22,213,4360336,,,,,,,2022-06-22,1,,,,,ハライズミアートプロジエクト,0
800,3700150112257,新規,0,2022-10-26,2022-10-26,ＶｉｅｗＳｏｎｉｃ　Ｉｎｔｅｒｎａｔｉｏｎａｌ　Ｃｏｒｐｏｒａｔｉｏｎ,,外国会社等,,,,,,,,９Ｆ，Ｎｏ．１９２，Ｌｉｅｎ　Ｃｈｅｎ　Ｒｏａｄ，Ｚｈｏｎｇｈｅ　Ｄｉｓｔｒｉｃｔ，Ｎｅｗ　Ｔａｉｐｅｉ　Ｃｉｔｙ，Ｔａｉｗａｎ．Ｒ．Ｏ．Ｃ．,,,,,,2022-10-26,1,,,,,ビューソニックインターナショナルコーポレーション,0
811,4010001230376,新規,0,2022-10-26,2022-10-26,株式会社Ｓｔｕｄｉｏ　Ｔｅｃｈ,,株式会社,東京都,中央区,日本橋浜町２丁目２６－６,,13,102,1030007,,,,,,,2022-10-26,1,,,,,スタジオテック,0
816,4010401170420,新規,0,2022-10-26,2022-10-26,プラスワンホールディングス株式会社,,株式会社,東京都,港区,台場１丁目１番１号,,13,103,1350091,,,,,,,2022-10-26,1,,,,,プラスワンホールディングス,0
823,4010501006458,新規,0,2022-10-26,2022-10-26,株式会社シントミゴルフ,,株式会社,東京都,台東区,上野３丁目１０番１１号,,13,106,1100005,,,,,,,2022-10-26,1,,,,,シントミゴルフ,0
825,4010501049548,新規,0,2022-10-26,2022-10-26,日新株式会社,,株式会社,東京都,台東区,柳橋１丁目３番３号東宏ビル４０６号,,13,106,1110052,,,,,,,2022-10-26,1,,,,,ニッシン,0
836,4010801033375,新規,0,2022-10-26,2022-10-26,リデュース＆コネクト株式会社,,株式会社,東京都,大田区,城南島１丁目１－３,,13,111,1430002,,,,,,,2022-10-26,1,,,,,リデュースアンドコネクト,0
838,4010803004325,新規,0,2022-10-26,2022-10-26,合同会社Ｓｔ．Ｉｎｄｉｇｏ　Ａｓｉａｎ　Ｐｅａｒｓ,,合同会社,東京都,大田区,東雪谷１丁目３０－１１,,13,111,1450065,,,,,,,2022-10-26,1,,,,,セイントインディゴアジアンペアーズ,0
842,4010901051748,新規,0,2022-10-26,2022-10-26,株式会社ＢＯＯＴＳＹＯＲＫ,,株式会社,東京都,世田谷区,深沢２丁目１７番２４号,,13,112,1580081,,,,,,,2022-10-26,1,,,,,ブーツヨーク,0
862,4011001150481,新規,0,2022-10-26,2022-10-26,株式会社スターワン,,株式会社,東京都,渋谷区,本町３丁目３８－１－９０３号,,13,113,1510071,,,,,,,2022-10-26,1,,,,,スターワン,0
863,4011001150515,新規,0,2022-10-26,2022-10-26,株式会社ＭＴＫ,,株式会社,東京都,目黒区,目黒本町６丁目９番１７－４０２号,,13,110,1520002,,,,,,,2022-10-26,1,,,,,エムティケー,0
866,4011003015583,新規,0,2022-10-26,2022-10-26,合同会社ＡＺＵＬ,,合同会社,東京都,目黒区,大岡山１丁目３１番３７号－２０６号ヒルサイドコート,,13,110,1520033,,,,,,,2022-10-26,1,,,,,アズール,0
867,4011003015591,新規,0,2022-10-26,2022-10-26,ＹＭＣ　Ｔｒａｄｉｎｇ合同会社,,合同会社,東京都,渋谷区,神泉町１０番１５号,,13,113,1500045,,,,,,,2022-10-26,1,,,,,ワイエムシートレーディング,0
879,4011701025727,新規,0,2022-10-26,2022-10-26,株式会社ａｄｒａｂｌｅ,,株式会社,東京都,江戸川区,西葛西６丁目１２番８号,,13,123,1340088,,,,,,,2022-10-26,1,,,,,アドラブル,0
882,4011801041434,新規,0,2022-10-26,2022-10-26,株式会社Ｐｒｉｎｃｅ　Ｇｒｏｕｐ,,株式会社,東京都,足立区,栗原３丁目２６番１号２Ｆ,,13,121,1230842,,,,,,,2022-10-26,1,,,,,プリンスグループ,0
887,4012801021913,新規,0,2022-10-26,2022-10-26,株式会社ストレングス,,株式会社,東京都,国分寺市,本町２丁目２番１１号,,13,214,1850012,,,,,,,2022-10-26,1,,,,,ストレングス,0
890,4013301049841,新規,0,2022-10-26,2022-10-26,株式会社ＬＡＸＭＩ,,株式会社,東京都,豊島区,池袋本町２丁目３８番８小暮荘２０３,,13,116,1700011,,,,,,,2022-10-26,1,,,,,ラクシミ,0
893,4013303006345,新規,0,2022-10-26,2022-10-26,合同会社ＣＡＢＡａ,,合同会社,東京都,豊島区,長崎５丁目１４番８号コート・ミクティ２０２号,,13,116,1710051,,,,,,,2022-10-26,1,,,,,カバー,0
901,4020001148626,新規,0,2022-10-26,2022-10-26,ＭＩＬＩＬＡＢ株式会社,,株式会社,神奈川県,川崎市多摩区,登戸１６６４番地河興マンション７１０,,14,135,2140014,,,,,,,2022-10-26,1,,,,,ミリラボ,0
904,4021001013778,新規,0,2022-10-26,2022-10-26,フェスタレジャービル管理株式会社,,株式会社,神奈川県,相模原市南区,相模大野３丁目３番２７号,,14,153,2520303,,,,,,,2022-10-26,1,,,,,,0
910,4021001077278,新規,0,2022-10-26,2022-10-26,Ｔｕｒｔｌｅ　ｇａｒａｇｅ株式会社,,株式会社,神奈川県,厚木市,岡田１丁目３番１号,,14,212,2430021,,,,,,,2022-10-26,1,,,,,タートルガレージ,0
911,4021001077286,新規,0,2022-10-26,2022-10-26,株式会社たま,,株式会社,神奈川県,平塚市,中堂１７－１４,,14,203,2540026,,,,,,,2022-10-26,1,,,,,タマ,0
917,4021003012274,新規,0,2022-10-26,2022-10-26,合同会社サガフ管理,,合同会社,神奈川県,相模原市南区,旭町９番３号ハウス８５－１０２,,14,153,2520304,,,,,,,2022-10-26,1,,,,,サガフカンリ,0
923,4030001150738,新規,0,2022-10-26,2022-10-26,株式会社ハートフル,,株式会社,埼玉県,深谷市,西大沼４０４番地２０３号,,11,218,3660829,,,,,,,2022-10-26,1,,,,,ハートフル,0
936,4040001125565,新規,0,2022-10-26,2022-10-26,株式会社テックリンクス,,株式会社,千葉県,柏市,根戸１０３番地１０パークレジナス８０９号,,12,217,2770831,,,,,,,2022-10-26,1,,,,,テックリンクス,0
939,4040003021135,新規,0,2022-10-26,2022-10-26,合同会社ラヌラジャパン,,合同会社,千葉県,富里市,十倉８６８番地６,,12,233,2860212,,,,,,,2022-10-26,1,,,,,ラヌラジャパン,0
945,4050003006952,新規,0,2022-10-26,2022-10-26,鉄美ソリューション合同会社,,合同会社,茨城県,猿島郡境町,大字染谷１４９８番地,,08,546,3060421,,,,,,,2022-10-26,1,,,,,テツミソリューション,0
952,4060003004278,新規,0,2022-10-26,2022-10-26,ｓ．ｋ　ｉｎｔｅｒｎａｔｉｏｎａｌ合同会社,,合同会社,栃木県,那須塩原市,塩原６２７番地１,,09,213,3292921,,,,,,,2022-10-26,1,,,,,エスケーインターナショナル,0
962,4080405007496,新規,0,2022-10-26,2022-10-26,医療法人社団勇心会,,その他の設立登記法人,静岡県,浜松市西区,志都呂１丁目４番１６号,,22,133,4328069,,,,,,,2022-10-26,1,,,,,ユウシンカイ,0
975,4120001249752,新規,0,2022-10-26,2022-10-26,龍天株式会社,,株式会社,大阪府,大阪市生野区,巽東１丁目３番４号フォーゼ北巽レジデンス２０２,00128247,27,116,5440014,,,,,,,2022-10-26,1,,,,,リュウテン,0
976,4120001249760,新規,0,2022-10-26,2022-10-26,北開ＰＪ株式会社,,株式会社,大阪府,大阪市西区,江戸堀１丁目２５番３０号,,27,106,5500002,,,,,,,2022-10-26,1,,,,,キタビラピージェー,0
977,4120001249769,新規,0,2022-10-26,2022-10-26,株式会社ライフ・ワン,,株式会社,大阪府,大阪市中央区,平野町３丁目１番２号,,27,128,5410046,,,,,,,2022-10-26,1,,,,,ライフワン,0
978,4120001249810,新規,0,2022-10-26,2022-10-26,Ｓｉｑｍｉ　Ｇａｍｅｓ株式会社,,株式会社,大阪府,大阪市住吉区,万代東２丁目１番１４号,,27,120,5580056,,,,,,,2022-10-26,1,,,,,シクミゲームズ,0
979,4120001249819,新規,0,2022-10-26,2022-10-26,株式会社放デイ集客のプロ,,株式会社,大阪府,大阪市西区,北堀江１丁目２２番２５号プレジール北堀江１１階,,27,106,5500014,,,,,,,2022-10-26,1,,,,,ホウデイシュウキャクノプロ,0
983,4120003022728,新規,0,2022-10-26,2022-10-26,ＵＴ合同会社,,合同会社,大阪府,守口市,大久保町１丁目１１－１５－３０１,,27,209,5700012,,,,,,,2022-10-26,1,,,,,ユーティ,0
998,4130001072815,新規,0,2022-10-26,2022-10-26,株式会社ＭＧＨ,,株式会社,京都府,京都市東山区,清井町４９３－８,,26,105,6050821,,,,,,,2022-10-26,1,,,,,エムジーエイチ,0
999,4130001072897,新規,0,2022-10-26,2022-10-26,株式会社佐建,,株式会社,京都府,京都市伏見区,向島津田町１４２番地４,,26,109,6128154,,,,,,,2022-10-26,1,,,,,サケン,0
1000,4130001072914,新規,0,2022-10-26,2022-10-26,株式会社津崎塗装,,株式会社,京都府,京都市山科区,上花山桜谷１－２パデシオン山科夢ケ丘２０３号,,26,110,6078466,,,,,,,2022-10-26,1,,,,,ツザキトソウ,0
1009,4140001127808,新規,0,2022-10-26,2022-10-26,株式会社ＦＵＮＧＯ,,株式会社,兵庫県,西宮市,甲子園口３丁目２４番６－１０９号,,28,204,6638113,,,,,,,2022-10-26,1,,,,,ファンゴ,0
1017,4170001017345,新規,0,2022-10-26,2022-10-26,株式会社リメイク総合コンサルティング,,株式会社,和歌山県,和歌山市,雑賀町１０１スネイクビル２Ｆ,,30,201,6408108,,,,,,,2022-10-26,1,,,,,リメイクソウゴウコンサルティング,0
1042,4190005011747,新規,0,2022-10-26,2022-10-26,特定非営利活動法人バディカフェ,,その他の設立登記法人,三重県,四日市市,西日野町３２６４番地２,,24,202,5100943,,,,,,,2022-10-26,1,,,,,バディカフェ,0
1046,4200001040582,新規,0,2022-10-26,2022-10-26,株式会社アンピレ,,株式会社,岐阜県,岐阜市,琴塚２丁目１４番１２号,,21,201,5008222,,,,,,,2022-10-26,1,,,,,アンピレ,0
1055,4250001019820,新規,0,2022-10-26,2022-10-26,クオーツプレシジョン株式会社,,株式会社,山口県,周南市,大字鹿野下１３８５番３,,35,215,7450304,,,,,,,2022-10-26,1,,,,,クオーツプレシジョン,0
1059,4260001037342,新規,0,2022-10-26,2022-10-26,株式会社ＳＨＯＷＡ　ＢＯＵＥＫＩ,,株式会社,岡山県,赤磐市,福田６４５番地,,33,213,7012504,,,,,,,2022-10-26,1,,,,,ショウワボウエキ,0
1060,4280001008804,新規,0,2022-10-26,2022-10-26,株式会社Ｍプラス,,株式会社,島根県,江津市,二宮町神主２２０２番地１８,,32,207,6950024,,,,,,,2022-10-26,1,,,,,エムプラス,0
1071,4290001099330,新規,0,2022-10-26,2022-10-26,株式会社ＯＫ，キャップ,,株式会社,福岡県,古賀市,花見東７丁目３番７号,,40,223,8113112,,,,,,,2022-10-26,1,,,,,オーケーキャップ,0
1075,4300005007106,新規,0,2022-10-26,2022-10-26,一般社団法人佐賀県食でつながるネットワーク協議会,,その他の設立登記法人,佐賀県,佐賀市,唐人２丁目５番１５号ＴＯＪＩＮ館,,41,201,8400813,,,,,,,2022-10-26,1,,,,,サガケンショクデツナガルネットワークキョウギカイ,0
1077,4320001019391,新規,0,2022-10-26,2022-10-26,オーエムデザイン株式会社,,株式会社,大分県,大分市,大字津守３２０－１熊野ビル１－７,,44,201,8700945,,,,,,,2022-10-26,1,,,,,オーエムデザイン,0
1082,4360001031104,新規,0,2022-10-26,2022-10-26,株式会社平石工業,,株式会社,沖縄県,国頭郡金武町,字屋嘉１６２番地,,47,314,9041203,,,,,,,2022-10-26,1,,,,,ヒライシコウギョウ,0
1105,4460105002247,新規,0,2022-10-26,2022-10-26,一般社団法人ｍａｃｈｉ　Ｌａｂ,,その他の設立登記法人,北海道,帯広市,東二条南６丁目１番地,,01,207,0800802,,,,,,,2022-10-26,1,,,,,マチラボ,0
1107,4470001019303,新規,0,2022-10-26,2022-10-26,株式会社佐藤工業,,株式会社,香川県,高松市,下田井町１９８番地５フロル高松Ｂ１０３,,37,201,7610313,,,,,,,2022-10-26,1,,,,,サトウコウギョウ,0
1108,4480001011894,新規,0,2022-10-26,2022-10-26,株式会社ｇｉｖｃａｌ,,株式会社,徳島県,吉野川市,山川町前川２０１番地３,,36,205,7793403,,,,,,,2022-10-26,1,,,,,ギブカル,0
1110,4700150110656,新規,0,2022-10-26,2022-07-01,ＢＬＵＥＦＩＶＥ音楽事務所,,その他,神奈川県,川崎市宮前区,西野川３丁目４４－２２,,14,136,2160044,,,,,,,2022-07-01,1,,,,,ブルーフアイブオンガクジムシヨ,0
1111,4700150111712,新規,0,2022-10-26,2022-09-16,上西すこやか児童クラブ,,その他,鹿児島県,西之表市,西之表８７９－１,,46,213,8913101,,,,,,,2022-09-16,1,,,,,カミニシスコヤカジドウクラブ,0
1112,4700150112289,新規,0,2022-10-26,2022-10-26,ＬＡＹＡ　ＨＯＬＤＩＮＧ　ＰＶＴ　ＬＴＤ,,外国会社等,千葉県,山武郡九十九里町,西野１４０４番地１１０－Ｄ,,12,403,2830116,スリランカ民主社会主義共和国、コロンボ－０６、ウェラワッタ、ラジャシンゲロードＮｏ．０３,,,,,,2022-10-26,1,,,,,ラヤホールデイングプライベートリミテツド,0
1118,5010001230251,新規,0,2022-10-26,2022-10-26,ＦａｎｔａｓｉａＸ株式会社,,株式会社,東京都,中央区,日本橋茅場町２丁目１７－３,,13,102,1030025,,,,,,,2022-10-26,1,,,,,ファンタジアエックス,0
1119,5010001230400,新規,0,2022-10-26,2022-10-26,キックスリー株式会社,,株式会社,東京都,千代田区,鍛冶町２丁目１０番１１号,,13,101,1010044,,,,,,,2022-10-26,1,,,,,キックスリー,0
1122,5010003038908,新規,0,2022-10-26,2022-10-26,合同会社田端,,合同会社,東京都,千代田区,霞が関３丁目２番５号,,13,101,1000013,,,,,,,2022-10-26,1,,,,,タバタ,0
1125,5010005035705,新規,0,2022-10-26,2022-10-26,特定非営利活動法人国際和菓子協会,,その他の設立登記法人,東京都,千代田区,九段北１丁目６番７号岡部ビル５階,,13,101,1020073,,,,,,,2022-10-26,1,,,,,コクサイワガシキョウカイ,0
1132,5010401170428,新規,0,2022-10-26,2022-10-26,株式会社ハレミチ,,株式会社,東京都,港区,芝浦２丁目７番１１－１５０２号,,13,103,1080023,,,,,,,2022-10-26,1,,,,,ハレミチ,0
1133,5010403028756,新規,0,2022-10-26,2022-10-26,合同会社ポルト,,合同会社,東京都,港区,港南２丁目１５－１,,13,103,1080075,,,,,,,2022-10-26,1,,,,,ポルト,0
1134,5010403028780,新規,0,2022-10-26,2022-10-26,ＳＢＭジャパン合同会社,,合同会社,東京都,港区,虎ノ門５丁目１１番１号オランダヒルズ森タワー１１階楠・岩崎・澤野法律事務所内,,13,103,1050001,,,,,,,2022-10-26,1,,,,,エスビーエムジャパン,0
1135,5010501049547,新規,0,2022-10-26,2022-10-26,株式会社ＴＯＫＩＮＡ,,株式会社,東京都,台東区,上野４丁目１番５号,,13,106,1100005,,,,,,,2022-10-26,1,,,,,トキナ,0
1136,5010601062037,新規,0,2022-10-26,2022-10-26,株式会社共栄商事,,株式会社,東京都,江東区,枝川１丁目１３番１７号,,13,108,1350051,,,,,,,2022-10-26,1,,,,,キョウエイショウジ,0
1138,5010701043382,新規,0,2022-10-26,2022-10-26,株式会社ＵＨＤ,,株式会社,東京都,品川区,荏原４丁目３番１７号第２アネックス３０３,,13,109,1420063,,,,,,,2022-10-26,1,,,,,ユーエイチディー,0
1148,5011001150489,新規,0,2022-10-26,2022-10-26,株式会社ＬＩＮＵＭ,,株式会社,東京都,渋谷区,道玄坂１丁目１０番８号渋谷道玄坂東急ビル２Ｆ－Ｃ,,13,113,1500043,,,,,,,2022-10-26,1,,,,,リナム,0
1149,5011001150497,新規,0,2022-10-26,2022-10-26,株式会社ＵＡＳ,,株式会社,東京都,渋谷区,神宮前６丁目２３番４号桑野ビル２階,,13,113,1500001,,,,,,,2022-10-26,1,,,,,ユーエース,0
1152,5011101100625,新規,0,2022-10-26,2022-10-26,株式会社メドラック,,株式会社,東京都,新宿区,下落合４丁目２６番２－１３０２号インプレスト目白ヒルズ,,13,104,1610033,,,,,,,2022-10-26,1,,,,,メドラック,0
1153,5011101100641,新規,0,2022-10-26,2022-10-26,株式会社ＧＵＮＫＡＮ,,株式会社,東京都,新宿区,西新宿３丁目３番１３号西新宿水間ビル６階,,13,104,1600023,,,,,,,2022-10-26,1,,,,,グンカン,0
1154,5011103012307,新規,0,2022-10-26,2022-10-26,合同会社エムワイ,,合同会社,東京都,新宿区,北新宿３丁目２９番１－１０１号,,13,104,1690074,,,,,,,2022-10-26,1,,,,,エムワイ,0
1155,5011201024179,新規,0,2022-10-26,2022-10-26,株式会社Ｍａｒｖｅｙ,,株式会社,東京都,中野区,野方２丁目６１－６,,13,114,1650027,,,,,,,2022-10-26,1,,,,,マービー,0
1164,5011803005329,新規,0,2022-10-26,2022-10-26,パリパリ合同会社,,合同会社,東京都,足立区,千住緑町１丁目２１番１０号ジャパンステイ千住１０１号室,,13,121,1200044,,,,,,,2022-10-26,1,,,,,パリパリ,0
1173,5020001148641,新規,0,2022-10-26,2022-10-26,株式会社Ｔｒｙｅｉｇｈｔ,,株式会社,神奈川県,川崎市川崎区,元木１丁目３－１５プレジャーガーデン川崎１１０２号室,,14,131,2100021,,,,,,,2022-10-26,1,,,,,トライエイト,0
1174,5020001148690,新規,0,2022-10-26,2022-10-26,株式会社ＮＫＧ横浜,,株式会社,神奈川県,横浜市神奈川区,六角橋３丁目５５４番地,,14,102,2210802,,,,,,,2022-10-26,1,,,,,エヌケージーヨコハマ,0
1182,5021001077070,新規,0,2022-10-26,2022-10-26,龍興株式会社,,株式会社,神奈川県,相模原市南区,御園２丁目１９番２０－２階２０２号室,,14,153,2520317,,,,,,,2022-10-26,1,,,,,リュウコウ,0
1195,5030001150712,新規,0,2022-10-26,2022-10-26,株式会社Ｃｏｍｐａｓｓ,,株式会社,埼玉県,川口市,並木３丁目２８番６号佐藤ビル３０２,,11,203,3320034,,,,,,,2022-10-26,1,,,,,コンパス,0
1196,5030001150745,新規,0,2022-10-26,2022-10-26,ニューロンダイバーシティ株式会社,,株式会社,埼玉県,久喜市,南栗橋１２丁目５番地１４,,11,232,3491117,,,,,,,2022-10-26,1,,,,,ニューロンダイバーシティ,0
1200,5030003020442,新規,0,2022-10-26,2022-10-26,安達合同会社,,合同会社,埼玉県,三郷市,新和３丁目２１７,,11,237,3410034,,,,,,,2022-10-26,1,,,,,アダチ,0
1203,5040001125564,新規,0,2022-10-26,2022-10-26,株式会社ＮＥＬＡＴＯＮ,,株式会社,千葉県,香取郡多古町,染井５１番地１０,,12,347,2892242,,,,,,,2022-10-26,1,,,,,ネラトン,0
1211,5050003006951,新規,0,2022-10-26,2022-10-26,合同会社ＩＮＶＩ　ＩＮＴＥＲＮＡＴＩＯＮＡＬ,,合同会社,茨城県,稲敷郡阿見町,大字荒川本郷２０３３番地２０３,,08,443,3001152,,,,,,,2022-10-26,1,,,,,インヴィインターナショナル,0
1215,5060001035373,新規,0,2022-10-26,2022-10-26,株式会社プラチナ,,株式会社,栃木県,足利市,上渋垂町１１５１番地１,,09,202,3260335,,,,,,,2022-10-26,1,,,,,プラチナ,0
1217,5080103002674,新規,0,2022-10-26,2022-10-26,合同会社あいうえお,,合同会社,静岡県,伊東市,湯川３６９番地の１２５サンヴェール伊東１０３号,,22,208,4140002,,,,,,,2022-10-26,1,,,,,アイウエオ,0
1220,5090003002187,新規,0,2022-10-26,2022-10-26,合同会社シアターエンジニアリング,,合同会社,山梨県,笛吹市,一宮町南野呂１３０３,,19,211,4050052,,,,,,,2022-10-26,1,,,,,,0
1234,5120001249776,新規,0,2022-10-26,2022-10-26,ラムダ出版株式会社,,株式会社,大阪府,大阪市西区,土佐堀３丁目２－１０Ｃｏｌｌｅｔｃｔｉｏｎ土佐堀６０１号,,27,106,5500001,,,,,,,2022-10-26,1,,,,,ラムダシュッパン,0
1235,5120001249801,新規,0,2022-10-26,2022-10-26,鋳信達株式会社,,株式会社,大阪府,大阪市旭区,高殿７丁目１４－２３－４Ａ号室,,27,117,5350031,,,,,,,2022-10-26,1,,,,,チュウシンダツ,0
1236,5120001249818,新規,0,2022-10-26,2022-10-26,株式会社チノ,,株式会社,大阪府,大阪市生野区,巽中１丁目１９番１６－４１２号,00128249,27,116,5440013,,,,,,,2022-10-26,1,,,,,チノ,0
1242,5120901046645,新規,0,2022-10-26,2022-10-26,株式会社東宝企画サービス,,株式会社,大阪府,豊中市,長興寺北３丁目７番２５－３０３号,,27,203,5610875,,,,,,,2022-10-26,1,,,,,トウホウキカクサービス,0
1243,5130001072896,新規,0,2022-10-26,2022-10-26,株式会社Ｌｕｇｏｌ,,株式会社,京都府,京都市中京区,新町通御池上る中之町５０－１シェモア御池新町１Ｆ,,26,104,6040032,,,,,,,2022-10-26,1,,,,,ルゴール,0
1252,5140001127815,新規,0,2022-10-26,2022-10-26,株式会社パンダ商会,,株式会社,兵庫県,神戸市中央区,熊内橋町一丁目５番１４号,,28,110,6500000,,,,,,,2022-10-26,1,,,,,パンダショウカイ,0
1255,5150001025893,新規,0,2022-10-26,2022-10-26,株式会社ＭＡＩＳＯＮ　ＣＯＣＯ,,株式会社,奈良県,宇陀市,菟田野古市場２８２番地,,29,212,6332226,,,,,,,2022-10-26,1,,,,,メゾンココ,0
1258,5170001017344,新規,0,2022-10-26,2022-10-26,株式会社ＢＥＥ　ｕｎｉｔｅｄ,,株式会社,和歌山県,岩出市,東坂本１１１番地,,30,209,6496211,,,,,,,2022-10-26,1,,,,,ビーユナイテッド,0
1271,5180301036753,新規,0,2022-10-26,2022-10-26,株式会社ティー・キュー・エス,,株式会社,愛知県,岡崎市,上青野町字中屋敷１２３番地,,23,202,4440243,,,,,,,2022-10-26,1,,,,,ティーキューエス,0
1272,5200001040581,新規,0,2022-10-26,2022-10-26,株式会社心咲,,株式会社,岐阜県,各務原市,鵜沼朝日町５丁目７番地１,,21,213,5090145,,,,,,,2022-10-26,1,,,,,ココサ,0
1274,5200003005715,新規,0,2022-10-26,2022-10-26,合同会社藤本デザイン,,合同会社,岐阜県,羽島市,正木町不破一色１９９番地,,21,209,5016228,,,,,,,2022-10-26,1,,,,,フジモトデザイン,0
1277,5210003001572,新規,0,2022-10-26,2022-10-26,合同会社前川フードサービス,,合同会社,福井県,福井市,米松１丁目１２番２６号,,18,201,9100851,,,,,,,2022-10-26,1,,,,,マエガワフードサービス,0
1282,5240005015477,新規,0,2022-10-26,2022-10-26,一般社団法人あんさんぶる,,その他の設立登記法人,広島県,廿日市市,佐方１０４２－１０,,34,213,7380001,,,,,,,2022-10-26,1,,,,,アンサンブル,0
1287,5270003001451,新規,0,2022-10-26,2022-10-26,合同会社ボイジャープロパティマネジメント,,合同会社,鳥取県,倉吉市,幸町５２３－１,,31,203,6820807,,,,,,,2022-10-26,1,,,,,ボイジャープロパティマネジメント,0
1296,5290001099313,新規,0,2022-10-26,2022-10-26,株式会社春風組,,株式会社,福岡県,福岡市南区,弥永４丁目１番７１号,,40,134,8111323,,,,,,,2022-10-26,1,,,,,ハルカグミ,0
1301,5330001030223,新規,0,2022-10-26,2022-10-26,株式会社ｉ,,株式会社,熊本県,阿蘇郡小国町,大字宮原２０１６,,43,424,8692501,,,,,,,2022-10-26,1,,,,,アイ,0
1302,5340001025107,新規,0,2022-10-26,2022-10-26,Ｂｅｆｕｌ株式会社,,株式会社,鹿児島県,伊佐市,大口里１８９９番地５,,46,224,8952511,,,,,,,2022-10-26,1,,,,,ビーフル,0
1308,5360001031111,新規,0,2022-10-26,2022-10-26,株式会社オークラ海事建設,,株式会社,沖縄県,那覇市,曙３丁目１８番１０号森山ビル２階,,47,201,9000002,,,,,,,2022-10-26,1,,,,,オークラカイジケンセツ,0
1314,5370001049169,新規,0,2022-10-26,2022-10-26,株式会社フレーズ,,株式会社,宮城県,亘理郡山元町,山寺字山下４１番地,,04,362,9892201,,,,,,,2022-10-26,1,,,,,フレーズ,0
1315,5370003005871,新規,0,2022-10-26,2022-10-26,合同会社三本木ＮＥエナジー,,合同会社,宮城県,仙台市青葉区,落合１丁目１８番７号,,04,101,9893126,,,,,,,2022-10-26,1,,,,,サンボンギエヌイーエナジー,0
1340,5700150110226,新規,0,2022-10-26,2022-06-22,ルサンチカ,,その他,東京都,杉並区,松ノ木３丁目１４－４コーポＫ１０１,,13,115,1660014,,,,,,,2022-06-22,1,,,,,ルサンチカ,0
1347,6010001230366,新規,0,2022-10-26,2022-10-26,株式会社エクスペリエンサー,,株式会社,東京都,中央区,日本橋小網町１６番１号,,13,102,1030016,,,,,,,2022-10-26,1,,,,,エクスペリエンサー,0
1350,6010003038915,新規,0,2022-10-26,2022-10-26,合同会社ｅｉｇｈｔ,,合同会社,東京都,千代田区,神田須田町２丁目１番地３－５階,,13,101,1010041,,,,,,,2022-10-26,1,,,,,エイト,0
1351,6010003038923,新規,0,2022-10-26,2022-10-26,楽風教育合同会社,,合同会社,東京都,千代田区,岩本町２丁目１７番４－３Ｅ号室,,13,101,1010032,,,,,,,2022-10-26,1,,,,,ラクフウキョウイク,0
1356,6010401170419,新規,0,2022-10-26,2022-10-26,東北大学片平ＰＦＩ株式会社,,株式会社,東京都,港区,虎ノ門１丁目１７番１号,,13,103,1050001,,,,,,,2022-10-26,1,,,,,トウホクダイガクカタヒラピーエフアイ,0
1357,6010401170435,新規,0,2022-10-26,2022-10-26,株式会社Ｕ’ｓ　ｓｅｌｅｃｔｉｏｎ,,株式会社,東京都,港区,高輪２丁目１４番１９号レグノプレミア高輪９０１号,,13,103,1080074,,,,,,,2022-10-26,1,,,,,ユーズセレクション,0
1358,6010401170451,新規,0,2022-10-26,2022-10-26,Ｌｕｃａ株式会社,,株式会社,東京都,港区,新橋６丁目８－１－３０３,,13,103,1050004,,,,,,,2022-10-26,1,,,,,ルカ,0
1359,6010401170484,新規,0,2022-10-26,2022-10-26,Ｓｐｅｃｄｅｓｔ株式会社,,株式会社,東京都,港区,西麻布４丁目１１番２－６０６号,,13,103,1060031,,,,,,,2022-10-26,1,,,,,スペックデスト,0
1363,6010503006768,新規,0,2022-10-26,2022-10-26,ＣＬＹ合同会社,,合同会社,東京都,台東区,北上野１丁目１１番９号,,13,106,1100014,,,,,,,2022-10-26,1,,,,,シーエルワイ,0
1381,6011003015581,新規,0,2022-10-26,2022-10-26,合同会社Ｅｒａｍｉｋａ,,合同会社,東京都,渋谷区,恵比寿３丁目９番３１号,,13,113,1500013,,,,,,,2022-10-26,1,,,,,エラミカ,0
1390,6011101100640,新規,0,2022-10-26,2022-10-26,株式会社東光パートナーズ,,株式会社,東京都,新宿区,西新宿６丁目１０番１号,,13,104,1600023,,,,,,,2022-10-26,1,,,,,トウコウパートナーズ,0
1392,6011301028203,新規,0,2022-10-26,2022-10-26,株式会社ＢＵＴＡＩ,,株式会社,東京都,杉並区,和泉２丁目４５－３８,,13,115,1680063,,,,,,,2022-10-26,1,,,,,ブタイ,0
1393,6011303004557,新規,0,2022-10-26,2022-10-26,合同会社悠久,,合同会社,東京都,杉並区,上荻２丁目４０番９号ハイロード荻窪６０３,,13,115,1670043,,,,,,,2022-10-26,1,,,,,,0
1395,6011501028597,新規,0,2022-10-26,2022-10-26,Ａｓｉｃｅ株式会社,,株式会社,東京都,荒川区,南千住３丁目２７－２浅草ビル５０８号室,,13,118,1160003,,,,,,,2022-10-26,1,,,,,アサイス,0
1398,6011801041440,新規,0,2022-10-26,2022-10-26,ミライバリュー株式会社,,株式会社,東京都,葛飾区,白鳥３丁目１番１－１２０３号ライオンズシティお花茶屋,,13,122,1250063,,,,,,,2022-10-26,1,,,,,ミライバリュー,0
1400,6012401039783,新規,0,2022-10-26,2022-10-26,株式会社プリマオプト,,株式会社,東京都,調布市,国領町３丁目６番地１,,13,208,1820022,,,,,,,2022-10-26,1,,,,,プリマオプト,0
1405,6013301049765,新規,0,2022-10-26,2022-10-26,ＩＮＥＳＴ株式会社,,株式会社,東京都,豊島区,東池袋１丁目２５番９号,,13,116,1700013,,,,,,,2022-10-26,1,,,,,アイネスト,0
1406,6013301049831,新規,0,2022-10-26,2022-10-26,株式会社辻本誠事務所,,株式会社,東京都,豊島区,南池袋２丁目４９番７号池袋パークビル１階,,13,116,1710022,,,,,,,2022-10-26,1,,,,,ツジモトマコトジムショ,0
1407,6013301049848,新規,0,2022-10-26,2022-10-26,株式会社アステル,,株式会社,東京都,豊島区,高松３丁目７番１３号,,13,116,1710042,,,,,,,2022-10-26,1,,,,,アステル,0
1412,6020003022595,新規,0,2022-10-26,2022-10-26,合同会社ＡＬ‐ＷＯＲＫＳ,,合同会社,神奈川県,横浜市鶴見区,江ケ崎町１６番１７－１１２６号,,14,101,2300002,,,,,,,2022-10-26,1,,,,,アルワークス,0
1413,6020003022620,新規,0,2022-10-26,2022-10-26,ラミエル合同会社,,合同会社,神奈川県,横浜市都筑区,大熊町５２８番４号,,14,118,2240042,,,,,,,2022-10-26,1,,,,,ラミエル,0
1429,6021003012289,新規,0,2022-10-26,2022-10-26,ＮＡＯ　ＨＯＬＤＩＮＧＳ合同会社,,合同会社,神奈川県,横須賀市,追浜本町１丁目２番地１ルナタウン追浜９０４,,14,201,2370068,,,,,,,2022-10-26,1,,,,,ナオホールディングス,0
1437,6030001150728,新規,0,2022-10-26,2022-10-26,パンダンリーフ株式会社,,株式会社,埼玉県,新座市,石神４丁目９番１号,,11,230,3520033,,,,,,,2022-10-26,1,,,,,パンダンリーフ,0
1440,6030003020425,新規,0,2022-10-26,2022-10-26,合同会社東隅,,合同会社,埼玉県,熊谷市,弥藤吾１６０－６三合ビル１０１号室,,11,202,3600203,,,,,,,2022-10-26,1,,,,,トウグウ,0
1444,6040001125530,新規,0,2022-10-26,2022-10-26,株式会社ＫＯＫＥＮホールディングス,,株式会社,千葉県,茂原市,長尾２６８３番地２８,,12,210,2970073,,,,,,,2022-10-26,1,,,,,コーケンホールディングス,0
1445,6040001125563,新規,0,2022-10-26,2022-10-26,株式会社Ｌｉｂｅｒａｔｅ　Ｂｅａｕｔｙ,,株式会社,千葉県,松戸市,五香西４丁目３７番地の１２,,12,207,2702218,,,,,,,2022-10-26,1,,,,,リバレイトビューティー,0
1450,6040003021109,新規,0,2022-10-26,2022-10-26,合同会社さくら治療院,,合同会社,千葉県,船橋市,三咲１丁目８番８号,,12,204,2740812,,,,,,,2022-10-26,1,,,,,サクラチリョウイン,0
1451,6040003021117,新規,0,2022-10-26,2022-10-26,合同会社会計サポートコンサルティング,,合同会社,千葉県,松戸市,新松戸４丁目１９５番地,,12,207,2700034,,,,,,,2022-10-26,1,,,,,カイケイサポートコンサルティング,0
1457,6060001035380,新規,0,2022-10-26,2022-10-26,ＭＵＳＨＴＡＱ　ＴＲＡＤＥＲＳ株式会社,,株式会社,栃木県,佐野市,栃本町２２１１番地１栃本フクダハイツ１０７,,09,204,3270312,,,,,,,2022-10-26,1,,,,,ムシュタクトレーダース,0
1459,6060003004276,新規,0,2022-10-26,2022-10-26,合同会社Ｃｏｏ,,合同会社,栃木県,宇都宮市,西川田本町２丁目６番１８号,,09,201,3210158,,,,,,,2022-10-26,1,,,,,クゥ,0
1471,6080401026119,新規,0,2022-10-26,2022-10-26,株式会社エステートカドル,,株式会社,静岡県,浜松市中区,高丘西３丁目３１番７号,,22,131,4338118,,,,,,,2022-10-26,1,,,,,エステートカドル,0
1487,6120001249767,新規,0,2022-10-26,2022-10-26,株式会社十人十色舎,,株式会社,大阪府,大阪市北区,梅田１丁目１－３大阪駅前第３ビル２９階１－１－１号室,,27,127,5300001,,,,,,,2022-10-26,1,,,,,ジュウニントイロシャ,0
1488,6120001249800,新規,0,2022-10-26,2022-10-26,大森工事株式会社,,株式会社,大阪府,大阪市東淀川区,東中島１丁目１１番５－７０７号,,27,114,5330033,,,,,,,2022-10-26,1,,,,,オオモリコウジ,0
1489,6120001249809,新規,0,2022-10-26,2022-10-26,株式会社ウメラボ,,株式会社,大阪府,大阪市中央区,伏見町４丁目４番９号,,27,128,5410044,,,,,,,2022-10-26,1,,,,,ウメラボ,0
1494,6120003022726,新規,0,2022-10-26,2022-10-26,合同会社彩光,,合同会社,大阪府,大阪市西成区,梅南３丁目５番３号,,27,122,5570033,,,,,,,2022-10-26,1,,,,,サイコウ,0
1506,6120103004896,新規,0,2022-10-26,2022-10-26,南大阪グリーンフィールド合同会社,,合同会社,大阪府,泉南郡熊取町,野田２丁目９番２３号美輝ビル３階,,27,361,5900451,,,,,,,2022-10-26,1,,,,,ミナミオオサカグリーンフィールド,0
1510,6120903004344,新規,0,2022-10-26,2022-10-26,合同会社アップフィールズ,,合同会社,大阪府,高槻市,須賀町１２－８,,27,207,5690022,,,,,,,2022-10-26,1,,,,,アップフィールズ,0
1546,6190001029857,新規,0,2022-10-26,2022-10-26,シャンス不動産株式会社,,株式会社,三重県,四日市市,万古町１番１６号,,24,202,5100804,,,,,,,2022-10-26,1,,,,,シャンスフドウサン,0
1568,6290001099337,新規,0,2022-10-26,2022-10-26,トビカ産業株式会社,,株式会社,福岡県,糟屋郡宇美町,ひばりが丘２丁目２９番６号,,40,341,8112106,,,,,,,2022-10-26,1,,,,,トビカサンギョウ,0
1572,6300003001892,新規,0,2022-10-26,2022-10-26,Ｔ＆Ｃ合同会社,,合同会社,佐賀県,佐賀市,大財１丁目１－３号,,41,201,8400811,,,,,,,2022-10-26,1,,,,,テーアンドシー,0
1577,6330001030222,新規,0,2022-10-26,2022-10-26,株式会社スパイクビレッジ,,株式会社,熊本県,熊本市東区,沼山津４丁目１７番１０号,,43,102,8612102,,,,,,,2022-10-26,1,,,,,スパイクビレッジ,0
1600,6430001087723,新規,0,2022-10-26,2022-10-26,株式会社ＭＭコンサルティング,,株式会社,北海道,札幌市清田区,平岡一条１丁目７番１号,,01,110,0040871,,,,,,,2022-10-26,1,,,,,エムエムコンサルティング,0
1601,6430001087731,新規,0,2022-10-26,2022-10-26,ＭＡＲＵＴＡ．ＷＯＲＫＳ株式会社,,株式会社,北海道,札幌市北区,北十一条西１丁目２番１２－６０４号,,01,102,0010011,,,,,,,2022-10-26,1,,,,,マルタワークス,0
1610,6500003002912,新規,0,2022-10-26,2022-10-26,合同会社四国サート,,合同会社,愛媛県,伊予郡砥部町,原町２６６番地,,38,402,7912116,,,,,,,2022-10-26,1,,,,,シコクサート,0
1611,6700150112254,新規,0,2022-10-26,2022-10-26,ＷＥＳＴＰＥＡＫ　ＥＮＴＥＲＰＲＩＳＥ　ＰＲＩＶＡＴＥ　ＬＩＭＩＴＥＤ,,外国会社等,大阪府,大東市,中垣内１丁目１１番地１８号エステートよしみ２－１０２,,27,218,5740013,スリランカ民主社会主義共和国、コロンボ３、ペラヘラマワタ、Ｂ－１１,,,,,,2022-10-26,1,,,,,ウエストピークエンタープライズプライベートリミテツド,0
1626,7010001229952,新規,0,2022-10-26,2022-10-26,株式会社東興洋行,,株式会社,東京都,中央区,日本橋室町１丁目８番１０号,,13,102,1030022,,,,,,,2022-10-26,1,,,,,トウコウヨウコウ,0
1627,7010001230398,新規,0,2022-10-26,2022-10-26,株式会社Ｋｅマネージメント,,株式会社,東京都,千代田区,鍛冶町２丁目１０番１１号,,13,101,1010044,,,,,,,2022-10-26,1,,,,,ケーイーマネージメント,0
1631,7010003038914,新規,0,2022-10-26,2022-10-26,コンパド合同会社,,合同会社,東京都,中央区,日本橋３丁目９番１号日本橋三丁目スクエア１１階,,13,102,1030027,,,,,,,2022-10-26,1,,,,,コンパド,0
1632,7010003038922,新規,0,2022-10-26,2022-10-26,榛名の森太陽光発電所合同会社,,合同会社,東京都,文京区,本郷５丁目３３番１０号,,13,105,1130033,,,,,,,2022-10-26,1,,,,,ハルナノモリタイヨウコウハツデンショ,0
1633,7010101015377,新規,0,2022-10-26,2022-10-26,株式会社ＳＥＣＲＥＴ　ＢＡＳＥ　ＮＩＮＥ,,株式会社,東京都,八王子市,大谷町５５８番地１,,13,201,1920034,,,,,,,2022-10-26,1,,,,,シークレットベースナイン,0
1634,7010401170483,新規,0,2022-10-26,2022-10-26,株式会社ＡｎｙＣ,,株式会社,東京都,港区,赤坂２丁目２２番１９号南部坂アネックス５０１,,13,103,1070052,,,,,,,2022-10-26,1,,,,,エニシ,0
1637,7010501049537,新規,0,2022-10-26,2022-10-26,株式会社ｙａｕ,,株式会社,東京都,台東区,雷門２丁目１３－３,,13,106,1110034,,,,,,,2022-10-26,1,,,,,ヤウ,0
1640,7010601062035,新規,0,2022-10-26,2022-10-26,株式会社ＬｅｎｓＬｉｎｋ,,株式会社,東京都,墨田区,墨田５丁目５番２号Ｒビル墨田２Ｆ－０３号,,13,107,1310031,,,,,,,2022-10-26,1,,,,,レンズリンク,0
1641,7010601062051,新規,0,2022-10-26,2022-10-26,キーストーン・アイエルエス・キャピタル株式会社,,株式会社,東京都,江東区,豊洲５丁目１－１３－１０２１,,13,108,1350061,,,,,,,2022-10-26,1,,,,,キーストーンアイエルエスキャピタル,0
1642,7010701014027,新規,0,2022-10-26,2022-10-26,新日本土地株式会社,,株式会社,東京都,品川区,中延５丁目５番６号,,13,109,1420053,,,,,,,2022-10-26,1,,,,,シンニホントチ,0
1647,7010701043364,新規,0,2022-10-26,2022-10-26,株式会社チィーシィン,,株式会社,東京都,品川区,西五反田５丁目４番５号ライオンズマンション西五反田第二３階３０３号室,,13,109,1410031,,,,,,,2022-10-26,1,,,,,チィーシィン,0
1654,7010901051836,新規,0,2022-10-26,2022-10-26,株式会社アリアＰＬＵＳ,,株式会社,東京都,世田谷区,駒沢３丁目２８番８号,,13,112,1540012,,,,,,,2022-10-26,1,,,,,アリアプラス,0
1656,7010905004385,新規,0,2022-10-26,2022-10-26,一般社団法人日本ろう芸術協会,,その他の設立登記法人,東京都,世田谷区,代田３丁目５番２９号,,13,112,1550033,,,,,,,2022-10-26,1,,,,,ニホンロウゲイジュツキョウカイ,0
1667,7011001150495,新規,0,2022-10-26,2022-10-26,株式会社ＬＯＷＥＹＥ,,株式会社,東京都,渋谷区,千駄ヶ谷５丁目１５番５号ＤＳビル９０５,,13,113,1510051,,,,,,,2022-10-26,1,,,,,ローアイ,0
1668,7011003015589,新規,0,2022-10-26,2022-10-26,合同会社可惜夜,,合同会社,東京都,渋谷区,神宮前６丁目２３番４号桑野ビル２階,,13,113,1500001,,,,,,,2022-10-26,1,,,,,アタラヨ,0
1674,7011701025708,新規,0,2022-10-26,2022-10-26,株式会社Ｖ　ｓｏｌｕｔｉｏｎ,,株式会社,東京都,江戸川区,西葛西３丁目２２番１０号,,13,123,1340088,,,,,,,2022-10-26,1,,,,,ブイソリューション,0
1680,7012401039782,新規,0,2022-10-26,2022-10-26,株式会社ＣＯＣＯＴＯＮＥ,,株式会社,東京都,稲城市,向陽台３丁目２４番地の５,,13,225,2060803,,,,,,,2022-10-26,1,,,,,ココトーン,0
1682,7012801021910,新規,0,2022-10-26,2022-10-26,株式会社臣土木設計事務所,,株式会社,東京都,立川市,錦町１丁目４番２０号,,13,202,1900022,,,,,,,2022-10-26,1,,,,,オミドボクセッケイジムショ,0
1683,7013301049806,新規,0,2022-10-26,2022-10-26,麗人麗粧貿易株式会社,,株式会社,東京都,豊島区,東池袋１丁目３６－７アルテール池袋４１６,,13,116,1700013,,,,,,,2022-10-26,1,,,,,リジンリショウボウエキ,0
1684,7013301049830,新規,0,2022-10-26,2022-10-26,東昇株式会社,,株式会社,東京都,豊島区,南大塚３丁目３７番５－８０９号,,13,116,1700005,,,,,,,2022-10-26,1,,,,,トウショウ,0
1687,7013305003395,新規,0,2022-10-26,2022-10-26,一般社団法人ピクルス,,その他の設立登記法人,東京都,豊島区,南池袋２丁目２７番４号青柳池袋駅前ビル７階,,13,116,1710022,,,,,,,2022-10-26,1,,,,,ピクルス,0
1694,7020001148680,新規,0,2022-10-26,2022-10-26,株式会社ＧＩＬＩＧＩＬＩ,,株式会社,神奈川県,川崎市中原区,新丸子東１丁目８２３－１３ＧＩＬＩＧＩＬＩ４４４,,14,133,2110004,,,,,,,2022-10-26,1,,,,,ギリギリ,0
1695,7020001148689,新規,0,2022-10-26,2022-10-26,株式会社リバティー,,株式会社,神奈川県,川崎市川崎区,堤根３９番１号,,14,131,2100026,,,,,,,2022-10-26,1,,,,,リバティー,0
1717,7030001150727,新規,0,2022-10-26,2022-10-26,ラウンドペッグ投資運用株式会社,,株式会社,埼玉県,新座市,石神４丁目９番１号,,11,230,3520033,,,,,,,2022-10-26,1,,,,,ラウンドペッグトウシウンヨウ,0
1718,7030001150735,新規,0,2022-10-26,2022-10-26,株式会社リョウガピクチャーズ,,株式会社,埼玉県,草加市,中根３丁目６番５号,,11,221,3400005,,,,,,,2022-10-26,1,,,,,リョウガピクチャーズ,0
1719,7030001150743,新規,0,2022-10-26,2022-10-26,桜図書株式会社,,株式会社,埼玉県,さいたま市桜区,大字白鍬１６２番地１７,,11,106,3380811,,,,,,,2022-10-26,1,,,,,サクラトショ,0
1722,7030002125240,新規,0,2022-10-26,2022-10-26,有限会社田部井木工所,,有限会社,埼玉県,深谷市,大字原郷２０８２番地,,11,218,3660000,,,,,,,2022-10-26,1,,,,,,0
1723,7030003020457,新規,0,2022-10-26,2022-10-26,合同会社ＺＯＲＮ,,合同会社,埼玉県,入間市,小谷田１丁目９番４５号,,11,225,3580026,,,,,,,2022-10-26,1,,,,,ゾーン,0
1727,7040001125554,新規,0,2022-10-26,2022-10-26,ＨＮＡ株式会社,,株式会社,千葉県,野田市,目吹１８９８番地の１,,12,208,2780001,,,,,,,2022-10-26,1,,,,,エイチエヌエー,0
1728,7040001125579,新規,0,2022-10-26,2022-10-26,株式会社ＳＵＮ　Ｇａｒｅｇｅ,,株式会社,千葉県,市原市,能満１７８９－３,,12,219,2900011,,,,,,,2022-10-26,1,,,,,サンガレージ,0
1730,7040003021124,新規,0,2022-10-26,2022-10-26,合同会社ＴＳＣ,,合同会社,千葉県,柏市,柏２８８番地７,,12,217,2770005,,,,,,,2022-10-26,1,,,,,ティーエスシー,0
1735,7050001051857,新規,0,2022-10-26,2022-10-26,株式会社ミライズコーポレーション,,株式会社,茨城県,水戸市,緑町１丁目１０番１６号,,08,201,3100034,,,,,,,2022-10-26,1,,,,,ミライズコーポレーション,0
1740,7060001035388,新規,0,2022-10-26,2022-10-26,株式会社ＡＬ　ＡＫＨＴＡＲ　ＴＲＡＤＥＲＳ,,株式会社,栃木県,下都賀郡壬生町,緑町１丁目１６番６号,,09,361,3210204,,,,,,,2022-10-26,1,,,,,アルアクタルトレーダース,0
1750,7080103002672,新規,0,2022-10-26,2022-10-26,合同会社バンブーワン,,合同会社,静岡県,三島市,徳倉３丁目１１番１９号,,22,206,4110044,,,,,,,2022-10-26,1,,,,,バンブーワン,0
1752,7080401026118,新規,0,2022-10-26,2022-10-26,株式会社ｅＺｏｖインターナショナル,,株式会社,静岡県,浜松市中区,城北３丁目５番１号静岡大学インキュベーション施設２１７号室,,22,131,4328011,,,,,,,2022-10-26,1,,,,,イーゾフインターナショナル,0
1755,7080403004641,新規,0,2022-10-26,2022-10-26,ＮＩＨＯＮ　ＬＡＮＫＡ合同会社,,合同会社,静岡県,袋井市,小川町１３番地の１６,,22,216,4370036,,,,,,,2022-10-26,1,,,,,ニホンランカ,0
1760,7090001017821,新規,0,2022-10-26,2022-10-26,リザイズ株式会社,,株式会社,山梨県,南アルプス市,山寺３４８番地５,,19,208,4000308,,,,,,,2022-10-26,1,,,,,,0
1780,7120001249709,新規,0,2022-10-26,2022-10-26,株式会社ＯＰＴ‐ＩＮ,,株式会社,大阪府,大阪市北区,豊崎３丁目１５番５号ＴＫビル２Ｆ,,27,127,5310072,,,,,,,2022-10-26,1,,,,,オプトイン,0
1781,7120001249799,新規,0,2022-10-26,2022-10-26,株式会社メーベル,,株式会社,大阪府,大阪市中央区,東心斎橋１丁目１２番２号江川グリーンビル４０３号室,,27,128,5420083,,,,,,,2022-10-26,1,,,,,メーベル,0
1782,7120001249824,新規,0,2022-10-26,2022-10-26,株式会社Ｎｅｘｔ　Ｆｕｔｕｒｅ,,株式会社,大阪府,大阪市福島区,鷺洲５丁目３－６－６０５,,27,103,5530002,,,,,,,2022-10-26,1,,,,,ネクストフューチャー,0
1785,7120005023259,新規,0,2022-10-26,2022-10-26,一般社団法人文化資産デザイン研究推進機構,,その他の設立登記法人,大阪府,大阪市中央区,伏見町２丁目２番６号青山ビル,,27,128,5410044,,,,,,,2022-10-26,1,,,,,ブンカシサンデザインケンキュウスイシンキコウ,0
1790,7120103004895,新規,0,2022-10-26,2022-10-26,合同会社ＦＥＬＩＺ,,合同会社,大阪府,羽曳野市,恵我之荘４丁目４番１－１０１号,,27,222,5830886,,,,,,,2022-10-26,1,,,,,フェリス,0
1795,7130001072911,新規,0,2022-10-26,2022-10-26,株式会社ＨＯＲＴＯ,,株式会社,京都府,京田辺市,興戸宮ノ前８０番地,,26,211,6100332,,,,,,,2022-10-26,1,,,,,ホルト,0
1801,7140001127788,新規,0,2022-10-26,2022-10-26,株式会社佐工務店,,株式会社,兵庫県,姫路市,山吹２丁目９番１６－１号,,28,201,6700085,,,,,,,2022-10-26,1,,,,,タスクコウムテン,0
1802,7140001127805,新規,0,2022-10-26,2022-10-26,株式会社Ｆｕｎｃｔｉｏｎ,,株式会社,兵庫県,尼崎市,南武庫之荘２丁目７番１０号ピノ武庫之荘１階,,28,202,6610033,,,,,,,2022-10-26,1,,,,,ファンクション,0
1806,7160003002715,新規,0,2022-10-26,2022-10-26,合同会社カーズ,,合同会社,滋賀県,大津市,関津４丁目字上南６９３番１,,25,201,5202277,,,,,,,2022-10-26,1,,,,,カーズ,0
1808,7170001017334,新規,0,2022-10-26,2022-10-26,株式会社リアライズ,,株式会社,和歌山県,岩出市,西国分７８７－１グルワール岩出１－Ｂ,,30,209,6496213,,,,,,,2022-10-26,1,,,,,リアライズ,0
1832,7240003005866,新規,0,2022-10-26,2022-10-26,合同会社スタートレイル,,合同会社,広島県,広島市南区,段原山崎２丁目８番１５号,,34,103,7320819,,,,,,,2022-10-26,1,,,,,スタートレイル,0
1837,7260001037348,新規,0,2022-10-26,2022-10-26,豊山株式会社,,株式会社,岡山県,岡山市中区,山崎３０１番地２４号,,33,102,7038267,,,,,,,2022-10-26,1,,,,,トヤマ,0
1856,7290003013105,新規,0,2022-10-26,2022-10-26,合同会社パナシア,,合同会社,福岡県,福岡市中央区,大名１丁目１－２９,,40,133,8100041,,,,,,,2022-10-26,1,,,,,パナシア,0
1858,7310001018094,新規,0,2022-10-26,2022-10-26,株式会社ベジｃｒｅａｔｅ,,株式会社,長崎県,五島市,三井楽町波砂間１０８番地１,,42,211,8530608,,,,,,,2022-10-26,1,,,,,ベジクリエイト,0
1859,7330003009560,新規,0,2022-10-26,2022-10-26,合同会社Ｏｎｅ　ｓｔｅｐ,,合同会社,熊本県,熊本市北区,楡木３丁目４番３号,,43,105,8618083,,,,,,,2022-10-26,1,,,,,ワンステップ,0
1863,7360001031101,新規,0,2022-10-26,2022-10-26,グリーンテイル株式会社,,株式会社,沖縄県,那覇市,壺屋２丁目１７番９号,,47,201,9020065,,,,,,,2022-10-26,1,,,,,グリーンテイル,0
1869,7370001049167,新規,0,2022-10-26,2022-10-26,株式会社明進工業,,株式会社,宮城県,栗原市,若柳字川北南砂押３８番地,,04,213,9895501,,,,,,,2022-10-26,1,,,,,メイシンコウギョウ,0
1870,7370001049175,新規,0,2022-10-26,2022-10-26,株式会社Ｎ・Ｋ,,株式会社,宮城県,仙台市青葉区,国分町２丁目５番１号,,04,101,9800803,,,,,,,2022-10-26,1,,,,,エヌケー,0
1875,7390001017056,新規,0,2022-10-26,2022-10-26,株式会社イナガキ溶材,,株式会社,山形県,鶴岡市,西新斎町８番７号,,06,203,9970045,,,,,,,2022-10-26,1,,,,,イナガキヨウザイ,0
1879,7420003002589,新規,0,2022-10-26,2022-10-26,合同会社工カンパニー,,合同会社,青森県,青森市,大字三内字稲元１４番地１,,02,201,0380031,,,,,,,2022-10-26,1,,,,,タクミカンパニー,0
1886,7430001087722,新規,0,2022-10-26,2022-10-26,株式会社リムス,,株式会社,北海道,札幌市東区,北四十四条東１５丁目１番１－９０２号,,01,103,0070844,,,,,,,2022-10-26,1,,,,,リムス,0
1887,7450001013825,新規,0,2022-10-26,2022-10-26,奥山産業株式会社,,株式会社,北海道,苫前郡苫前町,字古丹別１７４番地の２２,,01,483,0783621,,,,,,,2022-10-26,1,,,,,オクヤマサンギョウ,0
1894,7500003002911,新規,0,2022-10-26,2022-10-26,合同会社ヤマ,,合同会社,愛媛県,四国中央市,妻鳥町２８２８番地１３,,38,213,7990113,,,,,,,2022-10-26,1,,,,,ヤマ,0
1918,8010403028778,新規,0,2022-10-26,2022-10-26,合同会社ｗａｉｗａｉ,,合同会社,東京都,港区,六本木３丁目２番２号,,13,103,1060032,,,,,,,2022-10-26,1,,,,,ワイワイ,0
1933,8010901051793,新規,0,2022-10-26,2022-10-26,株式会社ＧＯＡＴ,,株式会社,東京都,世田谷区,太子堂３丁目３６番１－２０１号,,13,112,1540004,,,,,,,2022-10-26,1,,,,,ゴート,0
1934,8010901051851,新規,0,2022-10-26,2022-10-26,株式会社ＣＯＣＯＣＡ,,株式会社,東京都,世田谷区,上用賀１丁目２３－１０,,13,112,1580098,,,,,,,2022-10-26,1,,,,,ココカ,0
1941,8011001150453,新規,0,2022-10-26,2022-10-26,株式会社ＡＤＣ,,株式会社,東京都,渋谷区,神宮前６丁目２３－４桑野ビル２Ｆ,,13,113,1500001,,,,,,,2022-10-26,1,,,,,エーディーシー,0
1943,8011003015588,新規,0,2022-10-26,2022-10-26,Ｉｒｉｓ　Ｍｉｎｔ合同会社,,合同会社,東京都,渋谷区,道玄坂１丁目１０番８号渋谷道玄坂東急ビル２Ｆ－Ｃ,,13,113,1500043,,,,,,,2022-10-26,1,,,,,イーリスミント,0
1947,8011101100630,新規,0,2022-10-26,2022-10-26,株式会社ＭＩＲＡ,,株式会社,東京都,新宿区,西新宿３丁目３番１３号西新宿水間ビル２Ｆ,,13,104,1600023,,,,,,,2022-10-26,1,,,,,ミラ,0
1948,8011103012295,新規,0,2022-10-26,2022-10-26,合同会社ニューロード,,合同会社,東京都,新宿区,歌舞伎町２丁目１８番６号日光ビル３階Ｂ室,,13,104,1600021,,,,,,,2022-10-26,1,,,,,ニューロード,0
1949,8011103012304,新規,0,2022-10-26,2022-10-26,合同会社Ｌｉｆｅ　Ｐｒｉｍｅ,,合同会社,東京都,新宿区,荒木町６番地へーベルメゾン四谷３０５,,13,104,1600007,,,,,,,2022-10-26,1,,,,,ライフプライム,0
1957,8011401024629,新規,0,2022-10-26,2022-10-26,株式会社ＨＭＧ,,株式会社,東京都,板橋区,氷川町２３番１－４０６号,,13,119,1730013,,,,,,,2022-10-26,1,,,,,エイチエムジー,0
1960,8011601026318,新規,0,2022-10-26,2022-10-26,株式会社第三空間,,株式会社,東京都,練馬区,東大泉４丁目２８－１１－２０３号室,,13,120,1780063,,,,,,,2022-10-26,1,,,,,ダイサンクウカン,0
1963,8011803005326,新規,0,2022-10-26,2022-10-26,合同会社さんちゃん,,合同会社,東京都,足立区,東和４丁目８番９号,,13,121,1200003,,,,,,,2022-10-26,1,,,,,サンチャン,0
1970,8013301049854,新規,0,2022-10-26,2022-10-26,コーアド・エステート株式会社,,株式会社,東京都,豊島区,東池袋３丁目１番４号,,13,116,1700013,,,,,,,2022-10-26,1,,,,,コーアドエステート,0
1978,8020001148663,新規,0,2022-10-26,2022-10-26,スズ・ランド企画株式会社,,株式会社,神奈川県,川崎市高津区,溝口３丁目１１番６フルウム溝の口１０１号,,14,134,2130001,,,,,,,2022-10-26,1,,,,,スズランドキカク,0
1988,8021001077290,新規,0,2022-10-26,2022-10-26,株式会社Ｃｏｎｎｅｃｔ,,株式会社,神奈川県,大和市,深見３３２９－１,,14,213,2420011,,,,,,,2022-10-26,1,,,,,コネクト,0
1993,8021003012295,新規,0,2022-10-26,2022-10-26,合同会社マノー,,合同会社,神奈川県,小田原市,久野１０８０番地の１,,14,206,2500055,,,,,,,2022-10-26,1,,,,,マノー,0
2002,8030001150734,新規,0,2022-10-26,2022-10-26,株式会社アルバトロス,,株式会社,埼玉県,本庄市,西富田４４８番地１２,,11,211,3670035,,,,,,,2022-10-26,1,,,,,アルバトロス,0
2007,8030003020456,新規,0,2022-10-26,2022-10-26,ＳＩＲＯ合同会社,,合同会社,埼玉県,川口市,西川口３丁目１４番１４－２１３号フドウ西川口ハイツ,,11,203,3320021,,,,,,,2022-10-26,1,,,,,シロ,0
2011,8040001125561,新規,0,2022-10-26,2022-10-26,株式会社ＨＡＲＵＨＩ,,株式会社,千葉県,松戸市,北松戸１丁目５番地の４,,12,207,2710063,,,,,,,2022-10-26,1,,,,,ハルヒ,0
2015,8040003021131,新規,0,2022-10-26,2022-10-26,Ｍｕｕ　ｎａｉｌ＆ｌａｂｏ合同会社,,合同会社,千葉県,市原市,ちはら台東９丁目５番地１,,12,219,2900141,,,,,,,2022-10-26,1,,,,,ムーネイルアンドラボ,0
2017,8050001051848,新規,0,2022-10-26,2022-10-26,ニューライフ不動産株式会社,,株式会社,茨城県,つくば市,研究学園３丁目１１番地２０,,08,220,3050817,,,,,,,2022-10-26,1,,,,,ニューライフフドウサン,0
2022,8060001035379,新規,0,2022-10-26,2022-10-26,新エフエイコム株式会社,,株式会社,栃木県,小山市,大字楢木２９３番地２１,,09,208,3290216,,,,,,,2022-10-26,1,,,,,シンエフエイコム,0
2029,8080401026117,新規,0,2022-10-26,2022-10-26,ＮＴ株式会社,,株式会社,静岡県,袋井市,松原２４８２番地の１,,22,216,4371117,,,,,,,2022-10-26,1,,,,,エヌティー,0
2032,8080403004640,新規,0,2022-10-26,2022-10-26,合同会社Ａｌｌｕｃａ　ｂｅｌｌｅ,,合同会社,静岡県,浜松市北区,初生町８８９番地の６,,22,135,4338112,,,,,,,2022-10-26,1,,,,,アリューカベル,0
2039,8110003004896,新規,0,2022-10-26,2022-10-26,Ｙ＆Ｇ　Ｃｏｒｐｏｒａｔｉｏｎ合同会社,,合同会社,新潟県,新潟市中央区,東堀前通６番町１０６４番地１,,15,103,9518066,,,,,,,2022-10-26,1,,,,,ワイアンドジーコーポレーション,0
2049,8120001249757,新規,0,2022-10-26,2022-10-26,花園北路株式会社,,株式会社,大阪府,大阪市西成区,花園北２丁目１１－７－１０１号室,,27,122,5570016,,,,,,,2022-10-26,1,,,,,カエンホクロ,0
2050,8120001249798,新規,0,2022-10-26,2022-10-26,Ａｔｒａｎｓｅｎ　Ｐｈａｒｍａ株式会社,,株式会社,大阪府,大阪市中央区,瓦町４丁目３番１４号,,27,128,5410048,,,,,,,2022-10-26,1,,,,,アトランセンファーマ,0
2051,8120001249815,新規,0,2022-10-26,2022-10-26,株式会社ＨＤ　ｔｅｃｈｎｏｌｏｇｉｅｓ,,株式会社,大阪府,大阪市北区,鶴野町４－１１朝日プラザ梅田ビル２Ｆ－６,,27,127,5300014,,,,,,,2022-10-26,1,,,,,エイチディーテクノロジーズ,0
2054,8120003022732,新規,0,2022-10-26,2022-10-26,合同会社ｋｏｎｎｙ,,合同会社,大阪府,大阪市中央区,谷町６丁目５番５号,,27,128,5420012,,,,,,,2022-10-26,1,,,,,コニー,0
2058,8120101066417,新規,0,2022-10-26,2022-10-26,株式会社ＦＩＶＥ　ＳＴＡＲ,,株式会社,大阪府,岸和田市,八幡町９番３０号,,27,202,5960023,,,,,,,2022-10-26,1,,,,,ファイブスター,0
2066,8122001036334,新規,0,2022-10-26,2022-10-26,株式会社ＰＲＥＳＩＳＴ,,株式会社,大阪府,東大阪市,足代２丁目３番６号,,27,227,5770841,,,,,,,2022-10-26,1,,,,,プレシスト,0
2070,8130001072836,新規,0,2022-10-26,2022-10-26,居雅宜株式会社,,株式会社,京都府,京都市東山区,大和大路通四条上る二筋目東入末吉町９９番４３楼,,26,105,6050000,,,,,,,2022-10-26,1,,,,,キョガショ,0
2071,8130001072902,新規,0,2022-10-26,2022-10-26,アドバンステクノ株式会社,,株式会社,京都府,京丹後市,丹後町上野８５４番地,,26,212,6270241,,,,,,,2022-10-26,1,,,,,アドバンステクノ,0
2075,8130005016616,新規,0,2022-10-26,2022-10-26,特定非営利活動法人Ｄ‐プロジェクト,,その他の設立登記法人,京都府,木津川市,木津川原田１５番地の１,,26,214,6190214,,,,,,,2022-10-26,1,,,,,ディープロジェクト,0
2084,8150001025908,新規,0,2022-10-26,2022-10-26,株式会社ＳＷＩＴＣＨ,,株式会社,奈良県,磯城郡田原本町,１１４番地の７,,29,363,6360300,,,,,,,2022-10-26,1,,,,,スイッチ,0
2085,8160001024586,新規,0,2022-10-26,2022-10-26,株式会社大福屋ぷらす,,株式会社,滋賀県,草津市,駒井沢町２０９番地３,,25,206,5250014,,,,,,,2022-10-26,1,,,,,ダイフクヤプラス,0
2097,8200001040579,新規,0,2022-10-26,2022-10-26,株式会社Ｓｕｒｐａｓｓ　Ｏｎｅ,,株式会社,岐阜県,瑞浪市,土岐町１８８６番地の１,,21,208,5096101,,,,,,,2022-10-26,1,,,,,サーパスワン,0
2098,8200001040587,新規,0,2022-10-26,2022-10-26,株式会社Ｂｕｉｌｄ　Ｏｎｅ,,株式会社,岐阜県,岐阜市,下西郷３丁目２３番地１０,,21,201,5011175,,,,,,,2022-10-26,1,,,,,ビルドワン,0
2122,8290001099343,新規,0,2022-10-26,2022-10-26,株式会社大吉２４,,株式会社,福岡県,福岡市西区,徳永北３番２１－４０１号,,40,135,8190378,,,,,,,2022-10-26,1,,,,,ダイキチニジュウヨン,0
2132,8340001025104,新規,0,2022-10-26,2022-10-26,株式会社中田運送,,株式会社,鹿児島県,大島郡瀬戸内町,大字古仁屋１２８３番地１３０,,46,525,8941508,,,,,,,2022-10-26,1,,,,,ナカダウンソウ,0
2134,8360001031109,新規,0,2022-10-26,2022-10-26,株式会社アインワークス,,株式会社,沖縄県,那覇市,字国場１１７１番地２,,47,201,9020075,,,,,,,2022-10-26,1,,,,,アインワークス,0
2135,8370001049174,新規,0,2022-10-26,2022-10-26,株式会社高橋建設工業,00128245,株式会社,宮城県,仙台市青葉区,小田原８丁目２－１０－２,,04,101,9800003,,,,,,,2022-10-26,1,,,,,タカハシケンセツコウギョウ,0
2146,8410001013308,新規,0,2022-10-26,2022-10-26,北創プランニング株式会社,,株式会社,秋田県,秋田市,御所野下堤４丁目３番１号,,05,201,0101412,,,,,,,2022-10-26,1,,,,,ホクソウプランニング,0
2156,8500001024551,新規,0,2022-10-26,2022-10-26,株式会社ちばんラボ,,株式会社,愛媛県,松山市,三番町６丁目３番４号,,38,201,7900003,,,,,,,2022-10-26,1,,,,,チバンラボ,0
2157,8700150111840,新規,0,2022-10-26,2022-09-26,ＳＡＭＵＲＡＩ　ＨＵＮＤＲＥＤ,,その他,東京都,墨田区,緑１丁目１４－１０劇酒場忠臣蔵内,,13,107,1300021,,,,,,,2022-09-26,1,,,,,サムライハンドレツド,0
2158,8700150112252,新規,0,2022-10-26,2022-10-26,琿春鴻遡進出口有限公司,,外国会社等,東京都,八王子市,上野町１８－１３－２０８号,,13,201,1920902,中華人民共和国延辺州琿春辺境経済合作区４号小区,,,,,,2022-10-26,1,,,,,コンシユンコウスユシユツニユウユウゲンコウシ,0
2169,9010001230388,新規,0,2022-10-26,2022-10-26,Ｑｕａｎｔｉｆｅｅｄ　Ｊａｐａｎ　Ｌｉｍｉｔｅｄ株式会社,,株式会社,東京都,中央区,日本橋３丁目９番１号日本橋三丁目スクエア１１階,,13,102,1030027,,,,,,,2022-10-26,1,,,,,クアンティフィードジャパンリミテッド,0
2171,9010003038929,新規,0,2022-10-26,2022-10-26,合同会社久喜開発,,合同会社,東京都,中央区,銀座１丁目６番１１号土志田ビルディング３Ｆ,,13,102,1040061,,,,,,,2022-10-26,1,,,,,クキカイハツ,0
2172,9010003038937,新規,0,2022-10-26,2022-10-26,瀬戸内ランドデベロップメント合同会社,,合同会社,東京都,千代田区,丸の内３丁目２番２号丸の内二重橋ビル２階,,13,101,1000005,,,,,,,2022-10-26,1,,,,,セトウチランドデベロップメント,0
2186,9010401170424,新規,0,2022-10-26,2022-10-26,Ｅｖａｎｔｈｉａ株式会社,,株式会社,東京都,港区,六本木５丁目１５番２１－１０５号,,13,103,1060032,,,,,,,2022-10-26,1,,,,,エヴァンシア,0
2187,9010401170432,新規,0,2022-10-26,2022-10-26,株式会社アポロ計画,,株式会社,東京都,港区,西新橋１丁目１６番２号山水ビル２階,,13,103,1050003,,,,,,,2022-10-26,1,,,,,アポロケイカク,0
2188,9010401170440,新規,0,2022-10-26,2022-10-26,株式会社ワザジャパン,,株式会社,東京都,港区,三田５丁目３番１号,,13,103,1080073,,,,,,,2022-10-26,1,,,,,ワザジャパン,0
2189,9010401170457,新規,0,2022-10-26,2022-10-26,株式会社Ｋａｚｅｔｏｒａ,,株式会社,東京都,港区,南青山２丁目２番１５号,,13,103,1070062,,,,,,,2022-10-26,1,,,,,カゼトラ,0
2190,9010401170498,新規,0,2022-10-26,2022-10-26,株式会社レンタルＰＣネット,,株式会社,東京都,港区,高輪３丁目２３番１７号品川センタービルディング４Ｆ,,13,103,1080074,,,,,,,2022-10-26,1,,,,,レンタルピーシーネット,0
2195,9010403028769,新規,0,2022-10-26,2022-10-26,ＳｔｅｐＣＨＡＮＧＥ合同会社,,合同会社,東京都,港区,元麻布３丁目１番６号,,13,103,1060046,,,,,,,2022-10-26,1,,,,,ステップチェンジ,0
2202,9010603009800,新規,0,2022-10-26,2022-10-26,合同会社シロクマ,,合同会社,東京都,墨田区,横川４丁目１番２－４０８号Ｓ－ＦＯＲＴ錦糸町,,13,107,1300003,,,,,,,2022-10-26,1,,,,,シロクマ,0
2212,9010805002982,新規,0,2022-10-26,2022-10-26,一般社団法人ＦＩＯＲＥ,,その他の設立登記法人,東京都,大田区,羽田１丁目１７番３号,,13,111,1440043,,,,,,,2022-10-26,1,,,,,フィオーレ,0
2216,9010903007735,新規,0,2022-10-26,2022-10-26,ソーラーテック１号合同会社,,合同会社,東京都,世田谷区,用賀４丁目１０番３号世田谷ビジネススクエアヒルズＩＩ４Ｆ,00128244,13,112,1580097,,,,,,,2022-10-26,1,,,,,ソーラーテックイチゴウ,0
2217,9010903007743,新規,0,2022-10-26,2022-10-26,柏堯組合同会社,,合同会社,東京都,世田谷区,奥沢２丁目１３－１２,,13,112,1580083,,,,,,,2022-10-26,1,,,,,ハクタカグミ,0
2223,9011001150460,新規,0,2022-10-26,2022-10-26,株式会社睡眠,,株式会社,東京都,渋谷区,神宮前６丁目２３番４号桑野ビル２階,,13,113,1500001,,,,,,,2022-10-26,1,,,,,スイミン,0
2224,9011001150510,新規,0,2022-10-26,2022-10-26,株式会社Ｒｏｃｋｅｔ　Ｓｔａｒｔ,,株式会社,東京都,渋谷区,松濤１丁目２８－２,,13,113,1500046,,,,,,,2022-10-26,1,,,,,ロケットスタート,0
2226,9011101100621,新規,0,2022-10-26,2022-10-26,ＥＢＡテック株式会社,,株式会社,東京都,新宿区,西新宿６丁目１２番７号,,13,104,1600023,,,,,,,2022-10-26,1,,,,,イービーエーテック,0
2227,9011101100638,新規,0,2022-10-26,2022-10-26,株式会社ＴＥＳＬＡ,,株式会社,東京都,新宿区,歌舞伎町２丁目４１－８植木ビル４０１,,13,104,1600021,,,,,,,2022-10-26,1,,,,,テスラ,0
2230,9011401024628,新規,0,2022-10-26,2022-10-26,株式会社Ｂａｎｃｏ,,株式会社,東京都,板橋区,本町１３－８－５Ｆ,,13,119,1730001,,,,,,,2022-10-26,1,,,,,バンコ,0
2233,9011701025730,新規,0,2022-10-26,2022-10-26,株式会社アーチドゥーク・クイナ,,株式会社,東京都,江戸川区,東葛西５丁目１４番６号カサイＮＳビル３０２,,13,123,1340084,,,,,,,2022-10-26,1,,,,,アーチドゥーククイナ,0
2242,9011801041454,新規,0,2022-10-26,2022-10-26,Ｋ．株式会社,,株式会社,東京都,葛飾区,西新小岩５丁目２７番２１号,,13,122,1240025,,,,,,,2022-10-26,1,,,,,ケイ,0
2243,9011803005325,新規,0,2022-10-26,2022-10-26,合同会社Ｆａｓｔ　Ｃａｓｔ,,合同会社,東京都,足立区,西伊興２丁目４番１６号,,13,121,1210824,,,,,,,2022-10-26,1,,,,,ファストキャスト,0
2251,9013301049853,新規,0,2022-10-26,2022-10-26,株式会社Ｅコミュニティ,,株式会社,東京都,豊島区,東池袋１丁目１７番１１号パークハイツ池袋１１０５号,,13,116,1700013,,,,,,,2022-10-26,1,,,,,イーコミュニティ,0
2261,9020001148679,新規,0,2022-10-26,2022-10-26,一級建築士事務所納谷建築設計事務所株式会社,,株式会社,神奈川県,川崎市中原区,市ノ坪１２７ＫＹＯＴＯ－ＹＡビル１Ｆ,,14,133,2110016,,,,,,,2022-10-26,1,,,,,イッキュウケンチクシジムショナヤケンチクセッケイジムショ,0
2272,9020003022618,新規,0,2022-10-26,2022-10-26,合同会社Ｄ’ｓインベストメント,,合同会社,神奈川県,横浜市鶴見区,矢向４丁目９番４－１０３号,,14,101,2300001,,,,,,,2022-10-26,1,,,,,ディーズインベストメント,0
2294,9021003012253,新規,0,2022-10-26,2022-10-26,合同会社ユー・シー・オー,,合同会社,神奈川県,平塚市,唐ケ原１２３－２平塚ガーデンホームズ１－２０２,,14,203,2540826,,,,,,,2022-10-26,1,,,,,ユーシーオー,0
2295,9021003012286,新規,0,2022-10-26,2022-10-26,合同会社ホリーズショップ＆レストラン,,合同会社,神奈川県,藤沢市,辻堂１丁目４番１９～４０５号,,14,205,2510047,,,,,,,2022-10-26,1,,,,,ホリーズショップアンドレストラン,0
2300,9030001150709,新規,0,2022-10-26,2022-10-26,株式会社大成建総,,株式会社,埼玉県,越谷市,蒲生３丁目１１番２８号リブリ・ドリーム楓２０２,,11,222,3430838,,,,,,,2022-10-26,1,,,,,タイセイケンソウ,0
2301,9030001150733,新規,0,2022-10-26,2022-10-26,株式会社Ｒａｙ,,株式会社,埼玉県,さいたま市緑区,大字大門２９０８番地７,,11,109,3360963,,,,,,,2022-10-26,1,,,,,レイ,0
2304,9030003020447,新規,0,2022-10-26,2022-10-26,合同会社ＳｔｅｐＯｎｅ,,合同会社,埼玉県,蓮田市,大字黒浜３８５８番地１４,,11,238,3490101,,,,,,,2022-10-26,1,,,,,ステップワン,0
2311,9040001125577,新規,0,2022-10-26,2022-10-26,株式会社ＬＩＢＥＲＴＡ,,株式会社,千葉県,浦安市,海楽１丁目３番２５号,,12,227,2790003,,,,,,,2022-10-26,1,,,,,リベルタ,0
2314,9040003021130,新規,0,2022-10-26,2022-10-26,合同会社ＣＴ　Ｒａｉｎ,,合同会社,千葉県,千葉市中央区,新千葉１丁目７番２号ペリエ＋ｐｌｕｓビル７０,,12,101,2600031,,,,,,,2022-10-26,1,,,,,シーティーレイン,0
2318,9050003006956,新規,0,2022-10-26,2022-10-26,アヴィドスター・インターナショナル合同会社,,合同会社,茨城県,古河市,東山田５８１番地８,,08,204,3060112,,,,,,,2022-10-26,1,,,,,アヴィドスターインターナショナル,0
2320,9060001035378,新規,0,2022-10-26,2022-10-26,株式会社Ｗ‐ＯＲＩＧＩＮＡＬ,,株式会社,栃木県,宇都宮市,中央３丁目１番４号,,09,201,3200806,,,,,,,2022-10-26,1,,,,,ウオリジナル,0
2328,9080101023586,新規,0,2022-10-26,2022-10-26,ＭＲＴ　Ｉｎｔｅｒｎａｔｉｏｎａｌ株式会社,,株式会社,静岡県,富士市,荒田島町６番２０号,,22,210,4170043,,,,,,,2022-10-26,1,,,,,エムアールティーインターナショナル,0
2349,9120001249756,新規,0,2022-10-26,2022-10-26,株式会社Ｂｅｌｌａｔｙ,,株式会社,大阪府,大阪市中央区,南船場３丁目６番１号,,27,128,5420081,,,,,,,2022-10-26,1,,,,,ベラッティ,0
2350,9120001249764,新規,0,2022-10-26,2022-10-26,まやぺこ株式会社,,株式会社,大阪府,大阪市北区,梅田１丁目２番２号大阪駅前第２ビル１２－１２,,27,127,5300001,,,,,,,2022-10-26,1,,,,,マヤペコ,0
2351,9120001249814,新規,0,2022-10-26,2022-10-26,ＢｏｓａｉＴＵＢＥ株式会社,,株式会社,大阪府,大阪市西区,江戸堀２丁目１－１江戸堀センタービル９階,,27,106,5500002,,,,,,,2022-10-26,1,,,,,ボウサイチューブ,0
2357,9120003022723,新規,0,2022-10-26,2022-10-26,合同会社はまかぜ,,合同会社,大阪府,大阪市西成区,旭３丁目９番３４号,,27,122,5570032,,,,,,,2022-10-26,1,,,,,ハマカゼ,0
2358,9120003022731,新規,0,2022-10-26,2022-10-26,富ＨＤ合同会社,,合同会社,大阪府,大阪市住吉区,東粉浜１丁目１２番８－６０２号,,27,120,5580051,,,,,,,2022-10-26,1,,,,,トミエイチディー,0
2360,9120101066408,新規,0,2022-10-26,2022-10-26,衆＿産業株式会社,00128248,株式会社,大阪府,羽曳野市,東阪田９５番地３－２０３号,,27,222,5830846,,,,,,,2022-10-26,1,,,,,シュウキンサンギョウ,0
2365,9130001072868,新規,0,2022-10-26,2022-10-26,ＭＩＤＡＳＪＰ株式会社,,株式会社,京都府,京都市中京区,麩屋町通夷川上る笹屋町４９５ＹＯビルヂング２階,,26,104,6040983,,,,,,,2022-10-26,1,,,,,マイダスジェイピー,0
2366,9130001072918,新規,0,2022-10-26,2022-10-26,ハッピーホーム株式会社,,株式会社,京都府,京都市伏見区,羽束師鴨川町１１４番地５,,26,109,6128484,,,,,,,2022-10-26,1,,,,,ハッピーホーム,0
2379,9140003018265,新規,0,2022-10-26,2022-10-26,Ｔｈｅ梶原クリエイツ合同会社,,合同会社,兵庫県,朝来市,山東町溝黒１９３番地,,28,225,6695132,,,,,,,2022-10-26,1,,,,,ザカジワラクリエイツ,0
2409,9180303005488,新規,0,2022-10-26,2022-10-26,合同会社ＬＩＶＥ　ＯＮＣＥ,,合同会社,愛知県,豊田市,東山町１丁目１番地２,,23,211,4710014,,,,,,,2022-10-26,1,,,,,リブワンス,0
2410,9190001029854,新規,0,2022-10-26,2022-10-26,株式会社谷商事,,株式会社,三重県,名張市,夏見２８６３番地３,,24,208,5180441,,,,,,,2022-10-26,1,,,,,タニショウジ,0
2411,9190003004120,新規,0,2022-10-26,2022-10-26,ハヌカ合同会社,,合同会社,三重県,多気郡明和町,大字濱田２１８番地,,24,442,5150351,,,,,,,2022-10-26,1,,,,,ハヌカ,0
2413,9200001040578,新規,0,2022-10-26,2022-10-26,株式会社みのや,,株式会社,岐阜県,羽島郡岐南町,伏屋７丁目２１４番地,,21,302,5016006,,,,,,,2022-10-26,1,,,,,ミノヤ,0
2421,9240001060548,新規,0,2022-10-26,2022-10-26,株式会社ＪＯＲＯ　ＦＬＯＲ,,株式会社,広島県,東広島市,八本松東２丁目２１番１号,,34,212,7390142,,,,,,,2022-10-26,1,,,,,ジョロフロール,0
2449,9290001099334,新規,0,2022-10-26,2022-10-26,株式会社才美,,株式会社,福岡県,福岡市中央区,警固２丁目１２－１９アイリス警固ビル３Ｆ,,40,133,8100023,,,,,,,2022-10-26,1,,,,,サイビ,0
2454,9290003013103,新規,0,2022-10-26,2022-10-26,アメノウミ合同会社,,合同会社,福岡県,糸島市,前原西４丁目５番２８号有田クリニック２Ｆ,,40,230,8191117,,,,,,,2022-10-26,1,,,,,アメノウミ,0
2465,9340001025111,新規,0,2022-10-26,2022-10-26,ヤマゼン建設株式会社,,株式会社,鹿児島県,鹿児島市,新屋敷町１９－１０ＪＡウイング新屋敷３０９号,,46,201,8920838,,,,,,,2022-10-26,1,,,,,ヤマゼンケンセツ,0
2483,9400001016038,新規,0,2022-10-26,2022-10-26,株式会社三浦設備,,株式会社,岩手県,一関市,花泉町花泉字東鹿野１８番地４,,03,209,0293101,,,,,,,2022-10-26,1,,,,,ミウラセツビ,0
2493,9430003014400,新規,0,2022-10-26,2022-10-26,きのファームサポート合同会社,,合同会社,北海道,日高郡新ひだか町,三石本桐２０３－５,,01,610,0593231,,,,,,,2022-10-26,1,,,,,キノファームサポート,0
2500,9500001024550,新規,0,2022-10-26,2022-10-26,株式会社明和工業,,株式会社,愛媛県,今治市,近見町４丁目２番１号,,38,202,7940007,,,,,,,2022-10-26,1,,,,,メイワコウギョウ,0
2501,9700150112251,新規,0,2022-10-26,2022-10-26,株式会社デュナムシーアンドエム,,外国会社等,兵庫県,神戸市中央区,八幡通３丁目１番１９号日精ビル８階,,28,110,6510085,大韓民国忠清南道論山市錬武邑古内谷路４０－５５,,,,,,2022-10-26,1,,,,,カブシキガイシヤデユナムシーアンドエム,0
