sequenceNumber,corporateNumber,process,correct,updateDate,changeDate,name,nameImageId,kind,prefectureName,cityName,streetNumber,addressImageId,prefectureCode,cityCode,postCode,addressOutside,addressOutsideImageId,closeDate,closeCause,successorCorporateNumber,changeCause,assignmentDate,latest,enName,enPrefectureName,enCityName,enAddressOutside,furigana,hihyoji
6,1010001226410,新規,0,2022-05-11,2022-05-11,株式会社フィガロ不動産,,株式会社,東京都,千代田区,東神田１丁目２－２,,13,101,1010031,,,,,,,2022-05-11,1,,,,,フィガロフドウサン,0
8,1010003037608,新規,0,2022-05-11,2022-05-11,ＥＳＲ２５合同会社,,合同会社,東京都,中央区,日本橋１丁目４番１号日本橋一丁目ビルディング,,13,102,1030027,,,,,,,2022-05-11,1,,,,,イーエスアールニジュウゴ,0
9,1010003037649,新規,0,2022-05-11,2022-05-11,ハイエナプロダクション合同会社,,合同会社,東京都,千代田区,丸の内１丁目１１番１号パシフィックセンチュリープレイス１３階,,13,101,1000005,,,,,,,2022-05-11,1,,,,,ハイエナプロダクション,0
20,1010401167221,新規,0,2022-05-11,2022-05-11,株式会社ＡＴＴＡ,,株式会社,東京都,港区,港南２丁目１６番１号品川イーストワンタワー４階,,13,103,1080075,,,,,,,2022-05-11,1,,,,,アッタ,0
21,1010401167254,新規,0,2022-05-11,2022-05-11,株式会社ボニット,,株式会社,東京都,港区,北青山２丁目７番１３号プラセオ青山ビル３Ｆ,,13,103,1070061,,,,,,,2022-05-11,1,,,,,ボニット,0
22,1010405020946,新規,0,2022-05-11,2022-05-11,一般社団法人Ｗｏｍｅｎ’ｓ　Ｌｅａｄｅｒｓｈｉｐ　Ｐｉｐｅｌｉｎｅ,,その他の設立登記法人,東京都,港区,北青山２丁目１２番１３号,,13,103,1070061,,,,,,,2022-05-11,1,,,,,ウィメンズリーダーシップパイプライン,0
23,1010405020979,新規,0,2022-05-11,2022-05-11,ＥＳＲ２６・２一般社団法人,,その他の設立登記法人,東京都,港区,浜松町１丁目２０番１０号ライオネス浜松町５０６号室,,13,103,1050013,,,,,,,2022-05-11,1,,,,,イーエスアールニジュウロクニ,0
24,1010405020987,新規,0,2022-05-11,2022-05-11,ＥＳＲ３１・１一般社団法人,,その他の設立登記法人,東京都,港区,浜松町１丁目２０番１０号ライオネス浜松町５０６号室,,13,103,1050013,,,,,,,2022-05-11,1,,,,,イーエスアールサンジュウイチイチ,0
31,1010503006582,新規,0,2022-05-11,2022-05-11,アスカキャピタル合同会社,,合同会社,東京都,台東区,上野６丁目４番１２号アメ横ウェルカムモール内,,13,106,1100005,,,,,,,2022-05-11,1,,,,,アスカキャピタル,0
36,1010601061117,新規,0,2022-05-11,2022-05-11,株式会社ＴＹＴフードサービス,,株式会社,東京都,墨田区,石原２丁目７番３号,,13,107,1300011,,,,,,,2022-05-11,1,,,,,ティーワイティーフードサービス,0
40,1010805002940,新規,0,2022-05-11,2022-05-11,一般社団法人ＯＲＳ,,その他の設立登記法人,東京都,大田区,多摩川２丁目２４番２－１０２号,,13,111,1460095,,,,,,,2022-05-11,1,,,,,オーアールエス,0
41,1010901050819,新規,0,2022-05-11,2022-05-11,ダクト．Ｂａｒ株式会社,,株式会社,東京都,世田谷区,瀬田１丁目９番４号,,13,112,1580095,,,,,,,2022-05-11,1,,,,,ダクトバー,0
42,1010901050835,新規,0,2022-05-11,2022-05-11,株式会社ファイン不動産,,株式会社,東京都,世田谷区,尾山台２丁目１７番１７号,,13,112,1580086,,,,,,,2022-05-11,1,,,,,ファインフドウサン,0
43,1010903007362,新規,0,2022-05-11,2022-05-11,合同会社ＢＵＥＮＯ‐Ｆ,,合同会社,東京都,世田谷区,太子堂４丁目８番２号,,13,112,1540004,,,,,,,2022-05-11,1,,,,,ブエノエフ,0
48,1011001147407,新規,0,2022-05-11,2022-05-11,株式会社ＲＡＭＢＬＥ,,株式会社,東京都,渋谷区,渋谷２丁目１９番１５－６０９号宮益坂ビルディング,,13,113,1500002,,,,,,,2022-05-11,1,,,,,ランブル,0
49,1011001147423,新規,0,2022-05-11,2022-05-11,ＤＲＤ４株式会社,,株式会社,東京都,目黒区,鷹番３丁目６－７,,13,110,1520004,,,,,,,2022-05-11,1,,,,,ディーアールディーフォー,0
50,1011001147431,新規,0,2022-05-11,2022-05-11,株式会社近江寫眞機店,,株式会社,東京都,渋谷区,笹塚３丁目３７番２号,,13,113,1510073,,,,,,,2022-05-11,1,,,,,オウミシャシンキテン,0
52,1011003014654,新規,0,2022-05-11,2022-05-11,Ａｇｅｎｔ　Ｋａｎｓｙａ合同会社,,合同会社,東京都,渋谷区,道玄坂１丁目１０番８号渋谷道玄坂東急ビル２Ｆ－Ｃ,,13,113,1500043,,,,,,,2022-05-11,1,,,,,エージェントカンシャ,0
63,1011303004396,新規,0,2022-05-11,2022-05-11,合同会社ｒｅｓｈａｃｋ,,合同会社,東京都,杉並区,阿佐谷北５丁目４３番３号リブフラットＫＨ１０１,,13,115,1660001,,,,,,,2022-05-11,1,,,,,リシャック,0
71,1011801040678,新規,0,2022-05-11,2022-05-11,船木舗装株式会社,,株式会社,東京都,葛飾区,東新小岩８丁目２７番１９－５０２号イクシア新小岩,,13,122,1240023,,,,,,,2022-05-11,1,,,,,フナキホソウ,0
72,1011801040686,新規,0,2022-05-11,2022-05-11,株式会社ＢＴＭ,,株式会社,東京都,足立区,新田３丁目３６番３１－１４０２号,,13,121,1230865,,,,,,,2022-05-11,1,,,,,ビーティーエム,0
73,1011801040694,新規,0,2022-05-11,2022-05-11,株式会社カレント,,株式会社,東京都,足立区,入谷４丁目７番１２号市川ハイツ１０６,,13,121,1210836,,,,,,,2022-05-11,1,,,,,カレント,0
77,1011803005076,新規,0,2022-05-11,2022-05-11,合同会社ＲＩＳＥ,,合同会社,東京都,足立区,皿沼２丁目１６番１４号,,13,121,1230862,,,,,,,2022-05-11,1,,,,,ライズ,0
78,1011803005084,新規,0,2022-05-11,2022-05-11,ソメイズム合同会社,,合同会社,東京都,葛飾区,四つ木１丁目３３番２２号ル・ペールノエル２０１,,13,122,1240011,,,,,,,2022-05-11,1,,,,,ソメイズム,0
80,1012301012985,新規,0,2022-05-11,2022-05-11,グランツジャパン株式会社,,株式会社,東京都,町田市,つくし野２丁目７番地１７,,13,209,1940001,,,,,,,2022-05-11,1,,,,,グランツジャパン,0
81,1012303001672,新規,0,2022-05-11,2022-05-11,合同会社Ｄｕｎｉａｎ,,合同会社,東京都,町田市,小山ヶ丘４丁目７番地１ルネグランディア５０７,,13,209,1940215,,,,,,,2022-05-11,1,,,,,ドゥニアン,0
82,1012401039193,新規,0,2022-05-11,2022-05-11,株式会社ＲＥＦＬＥＣＴＡ,,株式会社,東京都,武蔵野市,吉祥寺本町３丁目２２番１６－２０７号吉祥寺タウンホーム,,13,203,1800004,,,,,,,2022-05-11,1,,,,,リフレクタ,0
83,1012403005359,新規,0,2022-05-11,2022-05-11,合同会社ＨＳＭＳ,,合同会社,東京都,調布市,染地２丁目８番地２１９パークホームズ調布桜堤通り２３４号,,13,208,1820023,,,,,,,2022-05-11,1,,,,,エイチエスエムズ,0
86,1012801021560,新規,0,2022-05-11,2022-05-11,匠マネジメントサポート株式会社,,株式会社,東京都,立川市,錦町６丁目１６－１３,,13,202,1900022,,,,,,,2022-05-11,1,,,,,タクミマネジメントサポート,0
88,1012805003118,新規,0,2022-05-11,2022-05-11,一般社団法人多摩依存症回復支援研究会,,その他の設立登記法人,東京都,立川市,錦町２丁目６番２１号森内ハイツ１０１号,,13,202,1900022,,,,,,,2022-05-11,1,,,,,タマイゾンショウカイフクシエンケンキュウカイ,0
93,1013301049068,新規,0,2022-05-11,2022-05-11,株式会社ＴａＦ,,株式会社,東京都,豊島区,南長崎２丁目８番１２号,,13,116,1710052,,,,,,,2022-05-11,1,,,,,ティーエイエフ,0
98,1020001146384,新規,0,2022-05-11,2022-05-11,株式会社メディカルツリー,,株式会社,神奈川県,横浜市鶴見区,下末吉１丁目１２番７号コージーハウス１０１号,,14,101,2300012,,,,,,,2022-05-11,1,,,,,メディカルツリー,0
99,1020001146418,新規,0,2022-05-11,2022-05-11,ＲＩＺＥ株式会社,,株式会社,神奈川県,横浜市緑区,白山１丁目８番１－４２１号,,14,113,2260006,,,,,,,2022-05-11,1,,,,,ライズ,0
100,1020001146426,新規,0,2022-05-11,2022-05-11,株式会社凱旋商事,,株式会社,神奈川県,横浜市金沢区,富岡西１丁目１８番９号,,14,108,2360052,,,,,,,2022-05-11,1,,,,,ガイセンショウジ,0
104,1020003021750,新規,0,2022-05-11,2022-05-11,合同会社オプティエ,,合同会社,神奈川県,川崎市川崎区,小田２丁目１１番８号ベイルーム川崎小田１０２,,14,131,2100846,,,,,,,2022-05-11,1,,,,,オプティエ,0
105,1020003021759,新規,0,2022-05-11,2022-05-11,合同会社ミドリーヌ,,合同会社,神奈川県,横浜市鶴見区,元宮２丁目１番８０－２０６号,,14,101,2300004,,,,,,,2022-05-11,1,,,,,ミドリーヌ,0
109,1021001075870,新規,0,2022-05-11,2022-05-11,オザワ企画株式会社,,株式会社,神奈川県,足柄下郡真鶴町,岩８７４番地１９０,,14,383,2590202,,,,,,,2022-05-11,1,,,,,オザワキカク,0
110,1021001075879,新規,0,2022-05-11,2022-05-11,ＭＳソリューションズ株式会社,,株式会社,神奈川県,茅ヶ崎市,松浪１丁目８番１４号松浪ビル３Ｆ,,14,207,2530022,,,,,,,2022-05-11,1,,,,,エムエスソリューションズ,0
111,1021001075904,新規,0,2022-05-11,2022-05-11,株式会社Ｘｅｎｏ,,株式会社,神奈川県,横須賀市,森崎２丁目１９番１０号,,14,201,2380023,,,,,,,2022-05-11,1,,,,,ゼノ,0
115,1021003011675,新規,0,2022-05-11,2022-05-11,ＦＤＡ．ＴｅａｍＳｈｉｎ合同会社,,合同会社,神奈川県,平塚市,岡崎４２７２番地の３,,14,203,2591212,,,,,,,2022-05-11,1,,,,,エフディーエーチームシン,0
121,1030001148082,新規,0,2022-05-11,2022-05-11,株式会社ＧＲＯＷＳ,,株式会社,埼玉県,川越市,大字笠幡１９８６番地３５,,11,201,3501175,,,,,,,2022-05-11,1,,,,,グロウス,0
122,1030001148090,新規,0,2022-05-11,2022-05-11,エイテック株式会社,,株式会社,埼玉県,入間郡三芳町,大字藤久保３１９番地２５,,11,324,3540041,,,,,,,2022-05-11,1,,,,,エイテック,0
123,1030001148124,新規,0,2022-05-11,2022-05-11,株式会社ＳＨＩＭＡＤＡ,,株式会社,埼玉県,東松山市,本町２丁目４番３号,,11,212,3550015,,,,,,,2022-05-11,1,,,,,,0
124,1030001148132,新規,0,2022-05-11,2022-05-11,株式会社ＥＸ,,株式会社,埼玉県,日高市,大字南平沢１０７９番地３－２０３号,,11,242,3501206,,,,,,,2022-05-11,1,,,,,イーエックス,0
125,1030003019348,新規,0,2022-05-11,2022-05-11,合同会社Ｈａｐｐｉｎｅｓｓ,,合同会社,埼玉県,川口市,南鳩ヶ谷２丁目２３番４号,,11,203,3340013,,,,,,,2022-05-11,1,,,,,ハピネス,0
130,1040001123241,新規,0,2022-05-11,2022-05-11,株式会社デザイン工房,,株式会社,千葉県,千葉市中央区,新宿２丁目１０番５－２０４号,,12,101,2600021,,,,,,,2022-05-11,1,,,,,デザインコウボウ,0
131,1040001123258,新規,0,2022-05-11,2022-05-11,株式会社テレマカシー,,株式会社,千葉県,いすみ市,岬町谷上３２１７番地２,,12,238,2994507,,,,,,,2022-05-11,1,,,,,テレマカシー,0
132,1040001123266,新規,0,2022-05-11,2022-05-11,株式会社轟地所,,株式会社,千葉県,千葉市稲毛区,轟町２丁目３番４－１０１号,,12,103,2630021,,,,,,,2022-05-11,1,,,,,,0
133,1040001123349,新規,0,2022-05-11,2022-05-11,Ｇｉｖｉｎｇ株式会社,,株式会社,千葉県,八千代市,村上南２丁目１５番地４０グランドソレーユ１０２号室,,12,221,2760029,,,,,,,2022-05-11,1,,,,,ギビング,0
134,1040001123365,新規,0,2022-05-11,2022-05-11,株式会社塚本ライフ,,株式会社,千葉県,香取郡多古町,十余三３７１－３４,,12,347,2892306,,,,,,,2022-05-11,1,,,,,ツカモトライフ,0
139,1040003019982,新規,0,2022-05-11,2022-05-11,Ｈｉｇｈｅｒ‐Ｇｒａｄｅ　Ｔｒａｓｐｏｒｔｏ合同会社,,合同会社,千葉県,柏市,根戸４６７番地３０,,12,217,2770831,,,,,,,2022-05-11,1,,,,,ハイヤーグレイドトラスポルト,0
140,1040003019999,新規,0,2022-05-11,2022-05-11,合同会社Ｇａｎａｓｓｏ,,合同会社,千葉県,佐倉市,染井野６丁目２９番地６,,12,212,2850831,,,,,,,2022-05-11,1,,,,,ガナッソ,0
141,1040003020016,新規,0,2022-05-11,2022-05-11,ＭＡＹＯ　Ｊａｐａｎ合同会社,,合同会社,千葉県,印西市,高西新田２３４番地２,,12,231,2701365,,,,,,,2022-05-11,1,,,,,マヨジャパン,0
143,1040005021607,新規,0,2022-05-11,2022-05-11,医療法人社団ＭＩＲＡＩ,,その他の設立登記法人,千葉県,市川市,八幡３丁目２３番４号,,12,203,2720021,,,,,,,2022-05-11,1,,,,,ミライ,0
146,1050001051053,新規,0,2022-05-11,2022-05-11,ＥＧエンジニアリング株式会社,,株式会社,茨城県,つくば市,吾妻３丁目１４番地１７細田ビル２階Ｅ号室,,08,220,3050031,,,,,,,2022-05-11,1,,,,,イージーエンジニアリング,0
147,1050005013074,新規,0,2022-05-11,2022-05-11,一般社団法人高次脳機能障害支援センター,,その他の設立登記法人,茨城県,筑西市,乙８２９田中ビル２Ｆ,,08,227,3080041,,,,,,,2022-05-11,1,,,,,コウジノウキノウショウガイシエンセンター,0
151,1060001034841,新規,0,2022-05-11,2022-05-11,株式会社エド・アーム,,株式会社,栃木県,真岡市,下高間木１丁目１４番地５,,09,209,3214335,,,,,,,2022-05-11,1,,,,,エドアーム,0
152,1060001034858,新規,0,2022-05-11,2022-05-11,株式会社ＴＡコーポレーション,,株式会社,栃木県,宇都宮市,上田原町１０１９番地２７,,09,201,3291112,,,,,,,2022-05-11,1,,,,,ティーエーコーポレーション,0
162,1080401025802,新規,0,2022-05-11,2022-05-11,株式会社嶺岡建築事務所,,株式会社,静岡県,掛川市,上土方７０番地,,22,213,4371433,,,,,,,2022-05-11,1,,,,,ミネオカケンチクジムショ,0
169,1100001035323,新規,0,2022-05-11,2022-05-11,株式会社総助,,株式会社,長野県,松本市,新橋３番地１３,,20,202,3900865,,,,,,,2022-05-11,1,,,,,ソウスケ,0
175,1100003006529,新規,0,2022-05-11,2022-05-11,合同会社犀の角,,合同会社,長野県,上田市,中央２丁目１１番２０号,,20,203,3860012,,,,,,,2022-05-11,1,,,,,サイノツノ,0
182,1110005016806,新規,0,2022-05-11,2022-05-11,一般社団法人全日本錦鯉振興会,,その他の設立登記法人,新潟県,小千谷市,大字＿生乙１７４番地１,00126515,15,208,9470003,,,,,,,2022-05-11,1,,,,,ゼンニホンニシキゴイシンコウカイ,0
198,1120001245795,新規,0,2022-05-11,2022-05-11,株式会社柴田組,,株式会社,大阪府,大阪市都島区,内代町２丁目１６番３３号,,27,102,5340013,,,,,,,2022-05-11,1,,,,,シバタグミ,0
199,1120001245812,新規,0,2022-05-11,2022-05-11,天海商事株式会社,,株式会社,大阪府,大阪市中央区,島之内２丁目１２番１５－２０４号,,27,128,5420082,,,,,,,2022-05-11,1,,,,,アマミショウジ,0
200,1120001245820,新規,0,2022-05-11,2022-05-11,株式会社ＬｃＨｃ,,株式会社,大阪府,守口市,大宮通１丁目８番１７号,,27,209,5700033,,,,,,,2022-05-11,1,,,,,エルシーエイチシー,0
206,1120003021641,新規,0,2022-05-11,2022-05-11,合同会社ＴａｎｄＲ,,合同会社,大阪府,大阪市旭区,大宮２丁目１４番２１号,,27,117,5350002,,,,,,,2022-05-11,1,,,,,ティアンドアール,0
207,1120003021658,新規,0,2022-05-11,2022-05-11,コンパストレア合同会社,,合同会社,大阪府,大阪市北区,芝田２丁目８番１１号共栄ビル３階,,27,127,5300012,,,,,,,2022-05-11,1,,,,,コンパストレア,0
209,1120005022943,新規,0,2022-05-11,2022-05-11,一般社団法人巫女文化伝承協会,,その他の設立登記法人,大阪府,大阪市中央区,森ノ宮中央１丁目６番９号,,27,128,5400003,,,,,,,2022-05-11,1,,,,,ミコブンカデンショウキョウカイ,0
211,1120101065565,新規,0,2022-05-11,2022-05-11,株式会社西川工業,,株式会社,大阪府,泉大津市,池浦町３丁目１７番３号,,27,206,5950024,,,,,,,2022-05-11,1,,,,,ニシカワコウギョウ,0
219,1120901045956,新規,0,2022-05-11,2022-05-11,株式会社プロト,,株式会社,大阪府,吹田市,高野台２丁目８番６－１号,,27,205,5650861,,,,,,,2022-05-11,1,,,,,プロト,0
221,1122001035846,新規,0,2022-05-11,2022-05-11,株式会社Ｎ‐ＴＥＫＴ,,株式会社,大阪府,東大阪市,加納５丁目６番２０号,,27,227,5780901,,,,,,,2022-05-11,1,,,,,エヌテクト,0
223,1122003002332,新規,0,2022-05-11,2022-05-11,合同会社ＫＯＴＯＢＵＫＩ,,合同会社,大阪府,八尾市,木の本２丁目１４０番地プレミールたつみ１０１号,,27,212,5810044,,,,,,,2022-05-11,1,,,,,コトブキ,0
230,1130001071737,新規,0,2022-05-11,2022-05-11,株式会社オーエムアイ,,株式会社,京都府,京都市伏見区,久我本町８番地１８０,,26,109,6128492,,,,,,,2022-05-11,1,,,,,オーエムアイ,0
237,1140001125905,新規,0,2022-05-11,2022-05-11,株式会社ＵＮＩ,,株式会社,兵庫県,姫路市,大津区勘兵衛町１丁目２７番地,,28,201,6711132,,,,,,,2022-05-11,1,,,,,ユニ,0
240,1140003017654,新規,0,2022-05-11,2022-05-11,グランドバレエ・コンペティション合同会社,,合同会社,兵庫県,神戸市北区,西大池１丁目１３番１１号,,28,109,6511201,,,,,,,2022-05-11,1,,,,,グランドバレエコンペティション,0
243,1140005026166,新規,0,2022-05-11,2022-05-11,一般社団法人プロテクション,,その他の設立登記法人,兵庫県,神戸市垂水区,高丸４丁目５番２６号,,28,108,6550016,,,,,,,2022-05-11,1,,,,,プロテクション,0
244,1140005026174,新規,0,2022-05-11,2022-05-11,一般社団法人ＫＡＮＯＳＯＫＵ　ＪＡＰＡＮ,,その他の設立登記法人,兵庫県,加古川市,野口町良野１５５９番地,,28,210,6750017,,,,,,,2022-05-11,1,,,,,カノソクジャパン,0
246,1150001025526,新規,0,2022-05-11,2022-05-11,株式会社アップフィールド,,株式会社,奈良県,吉野郡十津川村,大字上野地３４１番地の４,,29,449,6371103,,,,,,,2022-05-11,1,,,,,アップフィールド,0
257,1180001151195,新規,0,2022-05-11,2022-05-11,株式会社ＷＥＳＴ・ＲＯＣＫ,,株式会社,愛知県,名古屋市緑区,元徳重２丁目２０２番地,,23,114,4580852,,,,,,,2022-05-11,1,,,,,ウエストロック,0
258,1180001151261,新規,0,2022-05-11,2022-05-11,株式会社よしだ写真館,,株式会社,愛知県,小牧市,小牧２丁目４０５番地,,23,219,4850041,,,,,,,2022-05-11,1,,,,,ヨシダシャシンカン,0
259,1180001151286,新規,0,2022-05-11,2022-05-11,株式会社ｒｏｍａｎ,,株式会社,愛知県,一宮市,大和町馬引字郷東１番地２９,,23,203,4910931,,,,,,,2022-05-11,1,,,,,ロマン,0
262,1180003023822,新規,0,2022-05-11,2022-05-11,天和合同会社,,合同会社,愛知県,東海市,富木島新山田２７番地１,,23,222,4760000,,,,,,,2022-05-11,1,,,,,テンワ,0
276,1210001018911,新規,0,2022-05-11,2022-05-11,福井モールディング株式会社,,株式会社,福井県,坂井市,丸岡町舟寄第２０号２番地１,,18,210,9100381,,,,,,,2022-05-11,1,,,,,フクイモールディング,0
277,1210001018928,新規,0,2022-05-11,2022-05-11,株式会社Ｍ　Ｃｏｒｐｏｒａｔｉｏｎ,,株式会社,福井県,坂井市,三国町安島６４号１番地６７,,18,210,9130064,,,,,,,2022-05-11,1,,,,,エムコーポレーション,0
280,1220001024826,新規,0,2022-05-11,2022-05-11,旭株式会社,,株式会社,石川県,加賀市,山代温泉１７の９３番地,,17,206,9220242,,,,,,,2022-05-11,1,,,,,アサヒ,0
298,1240001059762,新規,0,2022-05-11,2022-05-11,株式会社ＴＫＷＯＲＫＳ,,株式会社,広島県,福山市,川口町５丁目１５番１５－４号,,34,207,7200822,,,,,,,2022-05-11,1,,,,,ティーケーワークス,0
301,1240003005608,新規,0,2022-05-11,2022-05-11,アスタウ合同会社,,合同会社,広島県,広島市佐伯区,観音台１丁目１６番１７号,,34,108,7315157,,,,,,,2022-05-11,1,,,,,アスタウ,0
303,1240005015398,新規,0,2022-05-11,2022-05-11,一般社団法人わくわく工房あいむらびっと,,その他の設立登記法人,広島県,広島市東区,矢賀２丁目２番２１－１１号,,34,102,7320042,,,,,,,2022-05-11,1,,,,,ワクワクコウボウアイムラビット,0
305,1250001019550,新規,0,2022-05-11,2022-05-11,株式会社松原組,,株式会社,山口県,下関市,菊川町大字田部１１３７番地１６,,35,201,7500313,,,,,,,2022-05-11,1,,,,,マツバラグミ,0
312,1290001097304,新規,0,2022-05-11,2022-05-11,ＪＡＴ株式会社,,株式会社,福岡県,福岡市東区,多の津３丁目３番１号,,40,131,8130034,,,,,,,2022-05-11,1,,,,,ジェイエイティー,0
316,1290801028516,新規,0,2022-05-11,2022-05-11,株式会社清輝,,株式会社,福岡県,田川郡川崎町,大字川崎２５５１－７,,40,605,8270003,,,,,,,2022-05-11,1,,,,,セイコウ,0
318,1300001012921,新規,0,2022-05-11,2022-05-11,株式会社肉のとみなが,,株式会社,佐賀県,西松浦郡有田町,蔵宿丙３９５６番地７,,41,401,8494161,,,,,,,2022-05-11,1,,,,,ニクノトミナガ,0
322,1320001019064,新規,0,2022-05-11,2022-05-11,株式会社おきな,,株式会社,大分県,中津市,耶馬溪町大字柿坂５２５番地４,,44,203,8710405,,,,,,,2022-05-11,1,,,,,オキナ,0
326,1340003003782,新規,0,2022-05-11,2022-05-11,合同会社Ｔ企画,,合同会社,鹿児島県,鹿児島市,武１丁目１３番２号町田ＡＰ１０１,,46,201,8900045,,,,,,,2022-05-11,1,,,,,ティーキカク,0
331,1370001048554,新規,0,2022-05-11,2022-05-11,株式会社リモデルスペース,,株式会社,宮城県,名取市,愛島笠島字西台８３,,04,207,9811238,,,,,,,2022-05-11,1,,,,,リモデルスペース,0
342,1380001032805,新規,0,2022-05-11,2022-05-11,株式会社ＬＧ　ＰＬＡＮ,,株式会社,福島県,郡山市,町東２丁目１１１番地エスハイツ１０１号,,07,203,9638046,,,,,,,2022-05-11,1,,,,,,0
344,1390001016889,新規,0,2022-05-11,2022-05-11,株式会社リブステージ,,株式会社,山形県,山形市,荒楯町２丁目１１番１７号,,06,201,9902432,,,,,,,2022-05-11,1,,,,,リブステージ,0
346,1410003003651,新規,0,2022-05-11,2022-05-11,合同会社Ｆｏｒｅｓｔ山田,,合同会社,秋田県,大仙市,横堀字川戸賀１００番地,,05,212,0140111,,,,,,,2022-05-11,1,,,,,フォレストヤマダ,0
347,1420001017834,新規,0,2022-05-11,2022-05-11,みらいエンジニアリング株式会社,,株式会社,青森県,上北郡おいらせ町,後田３０番地４,,02,412,0392216,,,,,,,2022-05-11,1,,,,,ミライエンジニアリング,0
354,1430002045841,新規,0,2022-05-11,2022-05-11,有限会社手づくりハウス,,有限会社,北海道,江別市,文京台東町１０番地の１４,,01,217,0690834,,,,,,,2022-05-11,1,,,,,テヅクリハウス,0
357,1440001009078,新規,0,2022-05-11,2022-05-11,株式会社アルビー,,株式会社,北海道,函館市,鍛治２丁目４６番１０号,,01,202,0410852,,,,,,,2022-05-11,1,,,,,アルビー,0
358,1470001019066,新規,0,2022-05-11,2022-05-11,株式会社ＦＵＳＩＯＮ,,株式会社,香川県,高松市,南新町１２番地３２Ｆ,,37,201,7600051,,,,,,,2022-05-11,1,,,,,フュージョン,0
359,1480003001830,新規,0,2022-05-11,2022-05-11,ＳｍａｒｔＦｏｒｃｅ合同会社,,合同会社,徳島県,鳴門市,大麻町松村字土井５０番地１,,36,202,7790304,,,,,,,2022-05-11,1,,,,,スマートフォース,0
361,1490001010171,新規,0,2022-05-11,2022-05-11,株式会社クリプトチェーン,,株式会社,高知県,高知市,追手筋１丁目９番１５号山下ビル５Ｆ,,39,201,7800842,,,,,,,2022-05-11,1,,,,,クリプトチェーン,0
364,1700150107853,新規,0,2022-05-11,2022-04-12,つくばマラソン実行委員会,,その他,茨城県,つくば市,研究学園１丁目１－１,,08,220,3050817,,,,,,,2022-04-12,1,,,,,ツクバマラソンジツコウイインカイ,0
365,1700150108042,新規,0,2022-05-11,2022-04-15,オータムプロダクションズ,,その他,東京都,練馬区,豊玉北２丁目４－１１秀和豊玉レジデンス７０５号,,13,120,1760012,,,,,,,2022-04-15,1,,,,,オータムプロダクシヨンズ,0
366,1700150108174,新規,0,2022-05-11,2022-04-20,あすに繋ぐ能の会,,その他,東京都,世田谷区,代田６丁目４－１３,,13,112,1550033,,,,,,,2022-04-20,1,,,,,アスニツナグノウノカイ,0
367,1700150108240,新規,0,2022-05-11,2022-04-22,ベイサイドミュージックカンパニー,,その他,宮城県,本吉郡南三陸町,志津川字田尻畑１２１－４,,04,606,9860779,,,,,,,2022-04-22,1,,,,,ベイサイドミユージツクカンパニー,0
368,1700150108273,新規,0,2022-05-11,2022-04-22,筑紫言の葉舎,,その他,福岡県,筑紫野市,天拝坂１丁目１－８,,40,217,8180053,,,,,,,2022-04-22,1,,,,,チクシコトノハシヤ,0
369,1700150108307,新規,0,2022-05-11,2022-04-25,Ｈｕｍｍｉｎｇ　Ｂｉｒｄｓ,,その他,福岡県,福岡市中央区,春吉２丁目１５－１４－２０５,,40,133,8100003,,,,,,,2022-04-25,1,,,,,ハミングバーズ,0
384,2010001226384,新規,0,2022-05-11,2022-05-11,株式会社レーサム・ホールディングス,,株式会社,東京都,千代田区,霞が関３丁目２番１号,,13,101,1000013,,,,,,,2022-05-11,1,,,,,レーサムホールディングス,0
385,2010001226426,新規,0,2022-05-11,2022-05-11,株式会社Ｔｉｎｅｅｄｓ,,株式会社,東京都,中央区,銀座１丁目２２番１１号銀座大竹ビジデンス２階,,13,102,1040061,,,,,,,2022-05-11,1,,,,,ティニーズ,0
386,2010001226483,新規,0,2022-05-11,2022-05-11,株式会社イボルラボ,,株式会社,東京都,中央区,銀座１丁目１６番７号銀座大栄ビル５階,,13,102,1040061,,,,,,,2022-05-11,1,,,,,イボルラボ,0
387,2010001226491,新規,0,2022-05-11,2022-05-11,日本アイプリントテック株式会社,,株式会社,東京都,千代田区,神田須田町２丁目２５番地,,13,101,1010041,,,,,,,2022-05-11,1,,,,,ニホンアイプリントテック,0
388,2010001226509,新規,0,2022-05-11,2022-05-11,株式会社華金,,株式会社,東京都,文京区,小石川５丁目４番４号六甲小石川ビルＢ１,,13,105,1120002,,,,,,,2022-05-11,1,,,,,ハナキン,0
389,2010001226517,新規,0,2022-05-11,2022-05-11,株式会社ザイエル,,株式会社,東京都,千代田区,丸の内１丁目８－３丸の内トラストタワー本館２０階,,13,101,1000005,,,,,,,2022-05-11,1,,,,,ザイエル,0
391,2010003037615,新規,0,2022-05-11,2022-05-11,Ｄａｐｈｎｅｌ合同会社,,合同会社,東京都,文京区,大塚６丁目３２番１０号,00126525,13,105,1120012,,,,,,,2022-05-11,1,,,,,ダフネル,0
392,2010003037648,新規,0,2022-05-11,2022-05-11,ｆｕｓｉｏｎ合同会社,,合同会社,東京都,文京区,本郷３丁目３９番７－１００２号,,13,105,1130033,,,,,,,2022-05-11,1,,,,,フュージョン,0
395,2010005034973,新規,0,2022-05-11,2022-05-11,一般社団法人日本医療経営職域対策協議会,,その他の設立登記法人,東京都,中央区,八丁堀３丁目２０番５号Ｓ‐ＧＡＴＥ八丁堀,,13,102,1040032,,,,,,,2022-05-11,1,,,,,ニホンイリョウケイエイショクイキタイサクキョウギカイ,0
403,2010401167245,新規,0,2022-05-11,2022-05-11,株式会社神谷元禄堂,,株式会社,東京都,港区,芝大門２丁目８番４号,,13,103,1050012,,,,,,,2022-05-11,1,,,,,カミヤゲンロクドウ,0
404,2010401167253,新規,0,2022-05-11,2022-05-11,株式会社ＣＡＳ,,株式会社,東京都,港区,赤坂２丁目１５番９号石井第三ビル６階,,13,103,1070052,,,,,,,2022-05-11,1,,,,,シーエーエス,0
407,2010405020986,新規,0,2022-05-11,2022-05-11,ＥＳＲ３０・２一般社団法人,,その他の設立登記法人,東京都,港区,浜松町１丁目２０番１０号ライオネス浜松町５０６号室,,13,103,1050013,,,,,,,2022-05-11,1,,,,,イーエスアールサンジュウニ,0
410,2010601061124,新規,0,2022-05-11,2022-05-11,株式会社ＰＲＯＳＰＥＲ,,株式会社,東京都,江東区,北砂４丁目１８番８号,,13,108,1360073,,,,,,,2022-05-11,1,,,,,プロスパー,0
416,2010701042619,新規,0,2022-05-11,2022-05-11,株式会社ｍａｔｉｓｏｉｒ,,株式会社,東京都,品川区,西品川１丁目８番１６－１０６号,,13,109,1410033,,,,,,,2022-05-11,1,,,,,マチソワ,0
417,2010705003352,新規,0,2022-05-11,2022-05-11,一般社団法人みらたん,,その他の設立登記法人,東京都,品川区,東五反田５丁目２８番９号五反田第三花谷ビル１０階建（９階）,,13,109,1410022,,,,,,,2022-05-11,1,,,,,ミラタン,0
419,2010801032932,新規,0,2022-05-11,2022-05-11,株式会社ＭＨＲ・ＪＡＰＡＮ,,株式会社,東京都,大田区,東蒲田２丁目６番２３号,,13,111,1440031,,,,,,,2022-05-11,1,,,,,エムエイチアールジャパン,0
424,2010901050826,新規,0,2022-05-11,2022-05-11,株式会社ギフト,,株式会社,東京都,世田谷区,松原１丁目３４番１６－３０７号,,13,112,1560043,,,,,,,2022-05-11,1,,,,,ギフト,0
425,2010901050842,新規,0,2022-05-11,2022-05-11,株式会社ライズ・Ｋ,,株式会社,東京都,世田谷区,等々力４丁目１６番１１号,,13,112,1580082,,,,,,,2022-05-11,1,,,,,ライズケイ,0
428,2010903007345,新規,0,2022-05-11,2022-05-11,合同会社スモア,,合同会社,東京都,世田谷区,太子堂１丁目４番２８号,,13,112,1540004,,,,,,,2022-05-11,1,,,,,スモア,0
431,2011001147397,新規,0,2022-05-11,2022-05-11,株式会社フォーチュンスナック,,株式会社,東京都,渋谷区,本町２丁目４番１０号,,13,113,1510071,,,,,,,2022-05-11,1,,,,,フォーチュンスナック,0
432,2011001147422,新規,0,2022-05-11,2022-05-11,株式会社ＳＴＴｉＬＬ,,株式会社,東京都,目黒区,青葉台１丁目３０番８号ＣＡＳＡ青葉台１０Ｆ,,13,110,1530042,,,,,,,2022-05-11,1,,,,,スティル,0
440,2011501028023,新規,0,2022-05-11,2022-05-11,広旭商事株式会社,,株式会社,東京都,北区,浮間１丁目１番２１－１００９号クリオレジダンス北赤羽,,13,117,1150051,,,,,,,2022-05-11,1,,,,,ヒロアサヒショウジ,0
442,2011503005152,新規,0,2022-05-11,2022-05-11,アラディン合同会社,,合同会社,東京都,荒川区,町屋３丁目２番１号Ｂ１Ｆ,,13,118,1160001,,,,,,,2022-05-11,1,,,,,アラディン,0
447,2011801040685,新規,0,2022-05-11,2022-05-11,株式会社アミューズ,,株式会社,東京都,足立区,東和４丁目１番１２号,,13,121,1200003,,,,,,,2022-05-11,1,,,,,アミューズ,0
448,2011801040693,新規,0,2022-05-11,2022-05-11,株式会社イーシースピン,,株式会社,東京都,葛飾区,細田１丁目１６番２号,,13,122,1240021,,,,,,,2022-05-11,1,,,,,イーシースピン,0
449,2011801040702,新規,0,2022-05-11,2022-05-11,株式会社Ａｃｅ,,株式会社,東京都,葛飾区,西水元４丁目１４番２号,,13,122,1250031,,,,,,,2022-05-11,1,,,,,エイス,0
450,2012301012976,新規,0,2022-05-11,2022-05-11,株式会社ＨＴＣ,,株式会社,東京都,町田市,広袴３丁目１６番地５,,13,209,1950056,,,,,,,2022-05-11,1,,,,,エイチティーシー,0
457,2012803002772,新規,0,2022-05-11,2022-05-11,合同会社ＫＴ,,合同会社,東京都,日野市,南平７丁目２４番地の８２,,13,212,1910041,,,,,,,2022-05-11,1,,,,,ケイティ,0
462,2013301049083,新規,0,2022-05-11,2022-05-11,株式会社ＲＥＢＯＯＴ,,株式会社,東京都,豊島区,千早１丁目３１番３号,,13,116,1710044,,,,,,,2022-05-11,1,,,,,リブート,0
473,2021001075894,新規,0,2022-05-11,2022-05-11,株式会社住都ＨＯＭＥＳ,,株式会社,神奈川県,足柄下郡湯河原町,土肥５丁目２番地２２,,14,384,2590303,,,,,,,2022-05-11,1,,,,,ジュウトホームズ,0
474,2021001075903,新規,0,2022-05-11,2022-05-11,株式会社ＰＮシステム,,株式会社,神奈川県,足柄上郡山北町,山北５２２番地の２,,14,364,2580113,,,,,,,2022-05-11,1,,,,,ピーエヌシステム,0
475,2021001075928,新規,0,2022-05-11,2022-05-11,湘南佐藤農園株式会社,,株式会社,神奈川県,藤沢市,亀井野２８１８番地の３,,14,205,2520813,,,,,,,2022-05-11,1,,,,,ショウナンサトウノウエン,0
476,2021001075944,新規,0,2022-05-11,2022-05-11,ワンダフル株式会社,,株式会社,神奈川県,相模原市中央区,相模原７丁目４番１－２号,,14,152,2520231,,,,,,,2022-05-11,1,,,,,ワンダフル,0
480,2021003011682,新規,0,2022-05-11,2022-05-11,合同会社ｋｉｎｇ介護事業所,,合同会社,神奈川県,横須賀市,長坂３丁目３０番１号,,14,201,2400101,,,,,,,2022-05-11,1,,,,,キングカイゴジギョウショ,0
487,2030001148049,新規,0,2022-05-11,2022-05-11,株式会社ＦＦＪ,,株式会社,埼玉県,本庄市,前原２丁目１１番８号からこビル２０３,,11,211,3670047,,,,,,,2022-05-11,1,,,,,エフエフジェイ,0
488,2030001148123,新規,0,2022-05-11,2022-05-11,株式会社ＳＧＤ,,株式会社,埼玉県,さいたま市南区,沼影１丁目１１番２号Ａ－７０１,,11,108,3360027,,,,,,,2022-05-11,1,,,,,エスジーディー,0
494,2030003019371,新規,0,2022-05-11,2022-05-11,合同会社エクセルドット,,合同会社,埼玉県,羽生市,南８丁目８番地２２,,11,216,3480053,,,,,,,2022-05-11,1,,,,,エクセルドット,0
495,2030003019388,新規,0,2022-05-11,2022-05-11,合同会社天佑,,合同会社,埼玉県,川口市,芝中田１丁目２番１３号クリアハウス川口２０２号室,,11,203,3330847,,,,,,,2022-05-11,1,,,,,テンユウ,0
499,2040001123216,新規,0,2022-05-11,2022-05-11,Ｅ株式会社,,株式会社,千葉県,柏市,高柳１１３９番地,,12,217,2770941,,,,,,,2022-05-11,1,,,,,イー,0
500,2040001123257,新規,0,2022-05-11,2022-05-11,株式会社煌成工業,,株式会社,千葉県,銚子市,愛宕町３４５７番地の２,,12,202,2880007,,,,,,,2022-05-11,1,,,,,コウセイコウギョウ,0
501,2040001123273,新規,0,2022-05-11,2022-05-11,株式会社ＱＩＳ,,株式会社,千葉県,千葉市中央区,宮崎町４８９番地１７,,12,101,2600805,,,,,,,2022-05-11,1,,,,,キエス,0
502,2040001123281,新規,0,2022-05-11,2022-05-11,ｎｉｃｏ株式会社,,株式会社,千葉県,旭市,イ１４０３番地,,12,215,2892511,,,,,,,2022-05-11,1,,,,,ニコ,0
503,2040001123364,新規,0,2022-05-11,2022-05-11,株式会社Ｇｒａｎｄ　Ｔｒａｄｉｎｇ,,株式会社,千葉県,八千代市,平戸３２４－１,,12,221,2760017,,,,,,,2022-05-11,1,,,,,グランドトレーディング,0
505,2040003019998,新規,0,2022-05-11,2022-05-11,合同会社花笑み製作所,,合同会社,千葉県,山武郡九十九里町,小関７６４番地５,,12,403,2830102,,,,,,,2022-05-11,1,,,,,ハナエミセイサクショ,0
506,2040005021606,新規,0,2022-05-11,2022-05-11,医療法人社団淳徳会,,その他の設立登記法人,千葉県,野田市,山崎１３８５番地の１,,12,208,2780022,,,,,,,2022-05-11,1,,,,,ジュントクカイ,0
507,2050001051052,新規,0,2022-05-11,2022-05-11,ＥＧファーム株式会社,,株式会社,茨城県,つくば市,吾妻３丁目１４番地１７細田ビル２階Ｅ号室,,08,220,3050031,,,,,,,2022-05-11,1,,,,,イージーファーム,0
508,2050001051060,新規,0,2022-05-11,2022-05-11,株式会社ｔｉｉｔ,,株式会社,茨城県,つくば市,吾妻２丁目５番地１つくば市産業振興センター,,08,220,3050031,,,,,,,2022-05-11,1,,,,,ティート,0
509,2050001051069,新規,0,2022-05-11,2022-05-11,株式会社ＮＳフーズ,,株式会社,茨城県,常総市,篠山８８５番地の３,,08,211,3002721,,,,,,,2022-05-11,1,,,,,エヌエスフーズ,0
515,2060005009979,新規,0,2022-05-11,2022-05-11,特定非営利活動法人トライアル研究所,,その他の設立登記法人,栃木県,宇都宮市,西刑部町１９５７番地４０,,09,201,3210917,,,,,,,2022-05-11,1,,,,,トライアルケンキュウジョ,0
523,2080103002586,新規,0,2022-05-11,2022-05-11,ケープビュー合同会社,,合同会社,静岡県,伊東市,川奈１４２７－１２８,,22,208,4140044,,,,,,,2022-05-11,1,,,,,ケープビュー,0
524,2080401025792,新規,0,2022-05-11,2022-05-11,株式会社テクノモーターエンジニアリング,,株式会社,静岡県,磐田市,高見丘１２３１番地１,,22,211,4380801,,,,,,,2022-05-11,1,,,,,テクノモーターエンジニアリング,0
526,2090005007484,新規,0,2022-05-11,2022-05-11,ＮＰＯ法人ＳＧＥ,,その他の設立登記法人,山梨県,北杜市,須玉町若神子５４番地,,19,209,4080112,,,,,,,2022-05-11,1,,,,,エスジーイー,0
527,2100001035306,新規,0,2022-05-11,2022-05-11,株式会社セントラルサービス,,株式会社,長野県,伊那市,境１５９４番地,,20,209,3960010,,,,,,,2022-05-11,1,,,,,セントラルサービス,0
529,2100003006536,新規,0,2022-05-11,2022-05-11,合同会社あんきな日,,合同会社,長野県,中野市,大字赤岩５５６番地の２,,20,211,3830004,,,,,,,2022-05-11,1,,,,,アンキナヒ,0
530,2100003006544,新規,0,2022-05-11,2022-05-11,合同会社栄産業,,合同会社,長野県,塩尻市,大字片丘７３０８番地,,20,215,3990711,,,,,,,2022-05-11,1,,,,,サカエサンギョウ,0
550,2120001245654,新規,0,2022-05-11,2022-05-11,育峰貿易投資株式会社,,株式会社,大阪府,大阪市中央区,本町１丁目５番６号大阪山甚ビル８階,,27,128,5410053,,,,,,,2022-05-11,1,,,,,イーフォンボウエキトウシ,0
551,2120001245695,新規,0,2022-05-11,2022-05-11,株式会社内田工業,,株式会社,大阪府,門真市,千石東町３０番１８号,,27,223,5710013,,,,,,,2022-05-11,1,,,,,,0
552,2120001245729,新規,0,2022-05-11,2022-05-11,ＵＮＩＦＩＦＩ由尓飛飛株式会社,00126516,株式会社,大阪府,大阪市西成区,北津守１丁目４番３７号,,27,122,5570061,,,,,,,2022-05-11,1,,,,,アンフィフィユウジフィフィ,0
557,2120003021649,新規,0,2022-05-11,2022-05-11,合同会社ＢＯＮ,,合同会社,大阪府,大阪市西淀川区,千舟２丁目９番２１－１００４号,,27,113,5550013,,,,,,,2022-05-11,1,,,,,ビーオーエヌ,0
559,2120101065548,新規,0,2022-05-11,2022-05-11,株式会社Ｅｑｕｉ,,株式会社,大阪府,羽曳野市,向野３丁目１０番１０号,,27,222,5830883,,,,,,,2022-05-11,1,,,,,エクイ,0
560,2120101065564,新規,0,2022-05-11,2022-05-11,株式会社めぐみ鉱業,,株式会社,大阪府,羽曳野市,羽曳が丘西５丁目８番７号,,27,222,5830865,,,,,,,2022-05-11,1,,,,,メグミコウギョウ,0
568,2120901045955,新規,0,2022-05-11,2022-05-11,株式会社平田商店,,株式会社,大阪府,池田市,井口堂１丁目１３番３０号,,27,204,5630023,,,,,,,2022-05-11,1,,,,,ヒラタショウテン,0
572,2122001035853,新規,0,2022-05-11,2022-05-11,株式会社和の花,,株式会社,大阪府,東大阪市,神田町１８番２２－１３０６号,,27,227,5798058,,,,,,,2022-05-11,1,,,,,ワノハナ,0
573,2122001035861,新規,0,2022-05-11,2022-05-11,株式会社ＫＴ　ＷＥＳＴ,,株式会社,大阪府,八尾市,桂町６丁目３２番地の２０,,27,212,5810823,,,,,,,2022-05-11,1,,,,,ケイティーウエスト,0
575,2122003002331,新規,0,2022-05-11,2022-05-11,合同会社オフィス嶋村,,合同会社,大阪府,大東市,緑が丘１丁目１３番２号ファミリアル隆樹３０１,,27,218,5740073,,,,,,,2022-05-11,1,,,,,オフィスシマムラ,0
585,2130001071703,新規,0,2022-05-11,2022-05-11,株式会社ホットスタッフ城陽,,株式会社,京都府,城陽市,寺田高田３３番地,,26,207,6100121,,,,,,,2022-05-11,1,,,,,ホットスタッフジョウヨウ,0
586,2130001071728,新規,0,2022-05-11,2022-05-11,株式会社マスター工務店,,株式会社,京都府,京都市中京区,富小路通三条下る朝倉町５３０番地,,26,104,6048074,,,,,,,2022-05-11,1,,,,,マスターコウムテン,0
593,2140001125854,新規,0,2022-05-11,2022-05-11,株式会社ｍｏｍｏｋｉｃｈｉ,,株式会社,兵庫県,神戸市西区,王塚台７丁目１０３番地,,28,111,6512135,,,,,,,2022-05-11,1,,,,,モモキチ,0
599,2140005026165,新規,0,2022-05-11,2022-05-11,一般社団法人播磨里山地域創生協会,,その他の設立登記法人,兵庫県,姫路市,下寺町１１０番地マンション優雅ＩＩＩ７０２号室,00126528,28,201,6700932,,,,,,,2022-05-11,1,,,,,ハリマサトヤマチイキソウセイキョウカイ,0
600,2150001025517,新規,0,2022-05-11,2022-05-11,株式会社Ｇｒｅｅｎｓ,,株式会社,奈良県,生駒市,高山町１３６番地８,,29,209,6300101,,,,,,,2022-05-11,1,,,,,グリーンズ,0
609,2180001151236,新規,0,2022-05-11,2022-05-11,株式会社ＩＭＰＡＣＴ,,株式会社,愛知県,名古屋市中川区,東春田２丁目２７６番地,,23,110,4540983,,,,,,,2022-05-11,1,,,,,インパクト,0
610,2180001151252,新規,0,2022-05-11,2022-05-11,株式会社杏寿,,株式会社,愛知県,名古屋市昭和区,福江２丁目１番３１号,,23,107,4660059,,,,,,,2022-05-11,1,,,,,アンジュ,0
611,2180001151277,新規,0,2022-05-11,2022-05-11,株式会社ステラミラ,,株式会社,愛知県,名古屋市昭和区,隼人町８番地１８,,23,107,4660833,,,,,,,2022-05-11,1,,,,,ステラミラ,0
619,2180003023805,新規,0,2022-05-11,2022-05-11,合同会社Ｙ．Ｓ．Ａ‐３．２,,合同会社,愛知県,半田市,南末広町１２４番地の９,,23,205,4750853,,,,,,,2022-05-11,1,,,,,ワイエスエーサンテンニ,0
621,2180005019768,新規,0,2022-05-11,2022-05-11,一般社団法人ＳＤ＆Ｉ研究所,,その他の設立登記法人,愛知県,名古屋市中区,栄２丁目１３番１号名古屋パークプレイス３階,,23,106,4600008,,,,,,,2022-05-11,1,,,,,エスディーアンドアイケンキュウジョ,0
622,2180301036203,新規,0,2022-05-11,2022-05-11,株式会社ＬＯＯＫ,,株式会社,愛知県,安城市,安城町宮前３番地１１,,23,212,4460026,,,,,,,2022-05-11,1,,,,,ルック,0
628,2190001029398,新規,0,2022-05-11,2022-05-11,株式会社ほっとライフサービス桔梗,,株式会社,三重県,名張市,桔梗が丘５番町九街区１８１２番地１１,,24,208,5180625,,,,,,,2022-05-11,1,,,,,ホットライフサービスキキョウ,0
636,2210001018927,新規,0,2022-05-11,2022-05-11,株式会社ワイズモード,,株式会社,福井県,福井市,文京６丁目４番３５号,,18,201,9100017,,,,,,,2022-05-11,1,,,,,ワイズモード,0
647,2240001059695,新規,0,2022-05-11,2022-05-11,株式会社安部商店,,株式会社,広島県,三原市,古浜２丁目１０番１５号,,34,204,7230013,,,,,,,2022-05-11,1,,,,,アベショウテン,0
648,2240001059761,新規,0,2022-05-11,2022-05-11,株式会社リ・ルーフ,,株式会社,広島県,広島市安佐南区,西原９丁目１８番２２号１Ｆ,,34,105,7310113,,,,,,,2022-05-11,1,,,,,リルーフ,0
658,2240005015389,新規,0,2022-05-11,2022-05-11,一般社団法人湖域生活活性協議会,,その他の設立登記法人,広島県,三次市,吉舎町吉舎３７８番地６,,34,209,7294211,,,,,,,2022-05-11,1,,,,,コイキセイカツカッセイキョウギカイ,0
661,2250003003064,新規,0,2022-05-11,2022-05-11,合同会社小川電工,,合同会社,山口県,下関市,一の宮町２丁目１５番３－４０６号,,35,201,7510806,,,,,,,2022-05-11,1,,,,,オガワデンコウ,0
663,2270001008518,新規,0,2022-05-11,2022-05-11,株式会社キクノ屋,,株式会社,鳥取県,鳥取市,湖山町東５丁目２０４番地,,31,201,6800942,,,,,,,2022-05-11,1,,,,,キクノヤ,0
664,2290001097468,新規,0,2022-05-11,2022-05-11,株式会社Ｄ．Ｓ．ＣＲＥＡ,,株式会社,福岡県,久留米市,津福本町８４６番地３,,40,203,8300047,,,,,,,2022-05-11,1,,,,,ディーエスクレア,0
665,2290001097484,新規,0,2022-05-11,2022-05-11,株式会社ｆｉｌｉａｌ　ｐｉｅｔｙ,,株式会社,福岡県,福岡市早良区,荒江３丁目１１番１５号ざ荒江１２０３号,,40,137,8140021,,,,,,,2022-05-11,1,,,,,フィリアルピエティ,0
670,2290003012499,新規,0,2022-05-11,2022-05-11,Ｇｒａｎｄ　Ｃａｓｔｌｅ合同会社,,合同会社,福岡県,福岡市博多区,博多駅前２丁目１１－２２ライオンズマンションＪＯＹ博多３０３号室,,40,132,8120011,,,,,,,2022-05-11,1,,,,,グランドキャッスル,0
675,2300001012920,新規,0,2022-05-11,2022-05-11,株式会社笠原商事,,株式会社,佐賀県,唐津市,石志４４５９番地１,,41,202,8470832,,,,,,,2022-05-11,1,,,,,カサハラショウジ,0
676,2300001012929,新規,0,2022-05-11,2022-05-11,株式会社Ａｃｔ‐ｓｔａｇｅ,,株式会社,佐賀県,小城市,小城町松尾６３４番地１,,41,208,8450004,,,,,,,2022-05-11,1,,,,,アクトステージ,0
682,2330001029697,新規,0,2022-05-11,2022-05-11,株式会社ウェルフェアファーム,,株式会社,熊本県,八代市,井揚町３１００番地,,43,202,8660011,,,,,,,2022-05-11,1,,,,,ウェルフェアファーム,0
684,2340001024697,新規,0,2022-05-11,2022-05-11,株式会社己義,,株式会社,鹿児島県,出水郡長島町,諸浦８９９番地２３,,46,404,8991403,,,,,,,2022-05-11,1,,,,,ミヨシ,0
689,2370001048553,新規,0,2022-05-11,2022-05-11,株式会社Ｌｉｖｅ　ｌｏｏｓｅｌｙ,,株式会社,宮城県,柴田郡村田町,大字沼辺字学校前６４番地２,,04,322,9891321,,,,,,,2022-05-11,1,,,,,ライブルースリイ,0
698,2380001032804,新規,0,2022-05-11,2022-05-11,柏原株式会社,,株式会社,福島県,郡山市,土瓜１丁目２０番地,,07,203,9630204,,,,,,,2022-05-11,1,,,,,カシワバラ,0
709,2420001017833,新規,0,2022-05-11,2022-05-11,株式会社久保建設,,株式会社,青森県,三沢市,鹿中２丁目５８番地１３２,,02,207,0330133,,,,,,,2022-05-11,1,,,,,クボケンセツ,0
711,2430001086563,新規,0,2022-05-11,2022-05-11,株式会社蔵,,株式会社,北海道,札幌市西区,発寒九条１１丁目５番１５－６０５号,,01,107,0630829,,,,,,,2022-05-11,1,,,,,クラ,0
712,2430001086605,新規,0,2022-05-11,2022-05-11,株式会社アクアテクニカ,,株式会社,北海道,札幌市西区,発寒十四条５丁目２番５号,,01,107,0630834,,,,,,,2022-05-11,1,,,,,アクアテクニカ,0
717,2440001009077,新規,0,2022-05-11,2022-05-11,株式会社友斗工業,,株式会社,北海道,函館市,昭和町１３番地３,,01,202,0410823,,,,,,,2022-05-11,1,,,,,ユウトコウギョウ,0
720,2470001019073,新規,0,2022-05-11,2022-05-11,Ｍ＆Ｓ１１Ｂ２　ＡＩＲＳＯＦＴ株式会社,,株式会社,香川県,坂出市,川津町３７４５－１－２Ｆ,,37,203,7620025,,,,,,,2022-05-11,1,,,,,エムアンドエスイレブンビーツーエアソフト,0
731,2700150053989,新規,0,2022-05-11,2015-10-09,岡山ＳＲ経営労務センター,,その他,岡山県,岡山市北区,西古松西町５－５旭タクシービル２階４号,,33,101,7000926,,,,,,,2015-10-09,1,,,,,オカヤマエスアールケイエイロウムセンター,0
732,2700150107621,新規,0,2022-05-11,2022-04-01,セイザ新宿管理組合,,その他,東京都,新宿区,百人町１丁目１２－２セイザ新宿５０１,,13,104,1690073,,,,,,,2022-04-01,1,,,,,セイザシンジユクカンリクミアイ,0
733,2700150108090,新規,0,2022-05-11,2022-04-18,日本シューマン協会　札幌支部,,その他,北海道,札幌市中央区,南二十六条西８丁目３番３０号,,01,101,0640926,,,,,,,2022-04-18,1,,,,,ニホンシユーマンキヨウカイサツポロシブ,0
734,2700150108215,新規,0,2022-05-11,2022-04-21,カーサアイハラコンサート企画,,その他,東京都,大田区,東嶺町４５－１４,,13,111,1450074,,,,,,,2022-04-21,1,,,,,カーサアイハラコンサートキカク,0
742,3010001226474,新規,0,2022-05-11,2022-05-11,Ｋ．ｒａｓｉｖａｙａ株式会社,,株式会社,東京都,千代田区,外神田３丁目６番４号,,13,101,1010021,,,,,,,2022-05-11,1,,,,,クラシバーヤ,0
743,3010001226482,新規,0,2022-05-11,2022-05-11,株式会社ライデンアクション,,株式会社,東京都,中央区,銀座７丁目１３番６号サガミビル２階,,13,102,1040061,,,,,,,2022-05-11,1,,,,,ライデンアクション,0
744,3010001226499,新規,0,2022-05-11,2022-05-11,小林ホームファニシング株式会社,,株式会社,東京都,中央区,日本橋蛎殻町１丁目３番５号共同ビル２階２３号,,13,102,1030014,,,,,,,2022-05-11,1,,,,,,0
745,3010001226516,新規,0,2022-05-11,2022-05-11,株式会社中出邸,,株式会社,東京都,千代田区,丸の内１丁目８－３丸の内トラストタワー本館２０階,,13,101,1000005,,,,,,,2022-05-11,1,,,,,ナカデテイ,0
746,3010003037639,新規,0,2022-05-11,2022-05-11,合同会社ａｐｐｌｉｃｏｔ,,合同会社,東京都,文京区,白山４丁目３６－１６グランドメゾン白山２０１号室,,13,105,1120001,,,,,,,2022-05-11,1,,,,,アプリコット,0
747,3010003037647,新規,0,2022-05-11,2022-05-11,Ｌｉｎ合同会社,,合同会社,東京都,中央区,銀座８丁目１８番２－８０７号,,13,102,1040061,,,,,,,2022-05-11,1,,,,,リン,0
753,3010005034972,新規,0,2022-05-11,2022-05-11,社会保険労務士法人ＴＥＮ　ｃｏｌｏｒｓ,,その他の設立登記法人,東京都,中央区,新川１丁目６番１５号,,13,102,1040033,,,,,,,2022-05-11,1,,,,,テンカラーズ,0
757,3010401167277,新規,0,2022-05-11,2022-05-11,株式会社ＬｕＣｒｅｓｔａ,,株式会社,東京都,港区,南青山３丁目１番３号,,13,103,1070062,,,,,,,2022-05-11,1,,,,,ルクレスタ,0
758,3010401167351,新規,0,2022-05-11,2022-05-11,株式会社ジョンマスターホールディングス,,株式会社,東京都,港区,赤坂２丁目２３番１号,,13,103,1070052,,,,,,,2022-05-11,1,,,,,ジョンマスターホールディングス,0
759,3010405020985,新規,0,2022-05-11,2022-05-11,ＥＳＲ３０・１一般社団法人,,その他の設立登記法人,東京都,港区,浜松町１丁目２０番１０号ライオネス浜松町５０６号室,,13,103,1050013,,,,,,,2022-05-11,1,,,,,イーエスアールサンジュウイチ,0
764,3010501048823,新規,0,2022-05-11,2022-05-11,株式会社ノヘア,,株式会社,東京都,台東区,上野３丁目２番２号,,13,106,1100005,,,,,,,2022-05-11,1,,,,,ノヘア,0
765,3010505003312,新規,0,2022-05-11,2022-05-11,一般社団法人モリンガの森プロジェクト協会,,その他の設立登記法人,東京都,台東区,根岸２丁目２番４号,,13,106,1100003,,,,,,,2022-05-11,1,,,,,モリンガノモリプロジェクト,0
767,3010601061123,新規,0,2022-05-11,2022-05-11,株式会社コウゾウケイカクロナンナン,,株式会社,東京都,江東区,門前仲町１丁目１３番１２－５０６号,,13,108,1350048,,,,,,,2022-05-11,1,,,,,コウゾウケイカクロナンナン,0
769,3010603009525,新規,0,2022-05-11,2022-05-11,ａｎＪａｐａｎ合同会社,,合同会社,東京都,墨田区,立花５丁目５０番２８－３０１号,,13,107,1310043,,,,,,,2022-05-11,1,,,,,アンジャパン,0
776,3010801032948,新規,0,2022-05-11,2022-05-11,株式会社コノユメ,,株式会社,東京都,大田区,東雪谷２丁目２５番１４号,,13,111,1450065,,,,,,,2022-05-11,1,,,,,コノユメ,0
780,3010901050817,新規,0,2022-05-11,2022-05-11,ＫＳＧ株式会社,,株式会社,東京都,世田谷区,代沢１丁目１５番１２号,,13,112,1550032,,,,,,,2022-05-11,1,,,,,ケーエスジー,0
781,3010901050825,新規,0,2022-05-11,2022-05-11,さくらタウン株式会社,,株式会社,東京都,世田谷区,桜新町２丁目１０番１７号,,13,112,1540015,,,,,,,2022-05-11,1,,,,,サクラタウン,0
782,3010901050833,新規,0,2022-05-11,2022-05-11,株式会社ＫＩＬＤＡＬＴＯＮ,,株式会社,東京都,世田谷区,砧３丁目２５番１７号,,13,112,1570073,,,,,,,2022-05-11,1,,,,,キルダルトン,0
783,3010903007360,新規,0,2022-05-11,2022-05-11,合同会社三茶メディア,,合同会社,東京都,世田谷区,三軒茶屋２丁目５６番７グランドメゾン三軒茶屋の杜８１２,,13,112,1540024,,,,,,,2022-05-11,1,,,,,サンチャメディア,0
784,3010903007369,新規,0,2022-05-11,2022-05-11,ＫＡＩＫＥＮ合同会社,,合同会社,東京都,世田谷区,玉川３丁目２０番２号マノア玉川第３ビル５０１号室,,13,112,1580094,,,,,,,2022-05-11,1,,,,,カイケン,0
787,3011001147388,新規,0,2022-05-11,2022-05-11,株式会社ダウ九萬,,株式会社,東京都,渋谷区,恵比寿南２丁目２３番７号,,13,113,1500022,,,,,,,2022-05-11,1,,,,,ダウキュウマン,0
788,3011001147405,新規,0,2022-05-11,2022-05-11,株式会社Ｇａｔｅ　Ｗｉｎ,,株式会社,東京都,渋谷区,渋谷２丁目２１番１号渋谷ヒカリエ２７階,,13,113,1500002,,,,,,,2022-05-11,1,,,,,ゲートウィン,0
789,3011001147438,新規,0,2022-05-11,2022-05-11,株式会社ｌａ　Ａｌｈａｍｂｒａ,,株式会社,東京都,目黒区,大橋１丁目１０番１－１７０２号,,13,110,1530044,,,,,,,2022-05-11,1,,,,,ラアルハンブラ,0
797,3011103011723,新規,0,2022-05-11,2022-05-11,合同会社Ｂｅｂコーポレーション,,合同会社,東京都,新宿区,新宿７丁目２６番７号パセラ４５,,13,104,1600022,,,,,,,2022-05-11,1,,,,,ベブコーポレーション,0
798,3011105010252,新規,0,2022-05-11,2022-05-11,一般社団法人きらぼし会,,その他の設立登記法人,東京都,新宿区,新宿３丁目２３番１２号新宿パンドラビル６階,,13,104,1600022,,,,,,,2022-05-11,1,,,,,キラボシカイ,0
799,3011301027769,新規,0,2022-05-11,2022-05-11,株式会社ケーイーワイ,,株式会社,東京都,杉並区,浜田山３丁目１２番７－３０８号,,13,115,1680065,,,,,,,2022-05-11,1,,,,,ケーイーワイ,0
800,3011303004403,新規,0,2022-05-11,2022-05-11,合同会社計画積算,,合同会社,東京都,杉並区,高円寺南４丁目２８番１０－５０２号,,13,115,1660003,,,,,,,2022-05-11,1,,,,,ケイカクセキサン,0
805,3011501028030,新規,0,2022-05-11,2022-05-11,株式会社徳誠,,株式会社,東京都,荒川区,東尾久２丁目２番９－２１４号,,13,118,1160012,,,,,,,2022-05-11,1,,,,,トクセイ,0
812,3011801040692,新規,0,2022-05-11,2022-05-11,株式会社ルーツナンバー,,株式会社,東京都,足立区,大谷田４丁目７番４－２０５号,,13,121,1200001,,,,,,,2022-05-11,1,,,,,ルーツナンバー,0
813,3011801040701,新規,0,2022-05-11,2022-05-11,住徳株式会社,,株式会社,東京都,葛飾区,南水元１丁目８－１７ダイアパレス２０８号,,13,122,1250035,,,,,,,2022-05-11,1,,,,,スミトク,0
814,3011803005082,新規,0,2022-05-11,2022-05-11,ＡｎｉＭｅｄｉｃ合同会社,,合同会社,東京都,足立区,千住関屋町１７番１５－１－９１１号,,13,121,1200024,,,,,,,2022-05-11,1,,,,,アニメディック,0
818,3012301012983,新規,0,2022-05-11,2022-05-11,リビングスタイルデベロップメント株式会社,,株式会社,東京都,町田市,森野４丁目１５番１２号,,13,209,1940022,,,,,,,2022-05-11,1,,,,,リビングスタイルデベロップメント,0
828,3012403005357,新規,0,2022-05-11,2022-05-11,合同会社ｌｉｋａｂｌ,,合同会社,東京都,稲城市,東長沼２１３２番地の２イーグル２０２,,13,225,2060802,,,,,,,2022-05-11,1,,,,,ライカブル,0
829,3012405004737,新規,0,2022-05-11,2022-05-11,司法書士法人Ｙ＆Ｕリーガル,,その他の設立登記法人,東京都,府中市,宮西町３丁目６番地１０,,13,206,1830022,,,,,,,2022-05-11,1,,,,,ワイアンドユーリーガル,0
831,3012801021550,新規,0,2022-05-11,2022-05-11,株式会社Ｌ．Ｉ．Ｂ,,株式会社,東京都,国立市,中１丁目８番地の４アレックス国立１３０２,,13,215,1860004,,,,,,,2022-05-11,1,,,,,エルアイビー,0
832,3012801021567,新規,0,2022-05-11,2022-05-11,株式会社ＲＥＭ　ＴＥＣＨ　ＪＡＰＡＮ,,株式会社,東京都,東大和市,奈良橋３丁目４６７番地５０,,13,220,2070031,,,,,,,2022-05-11,1,,,,,レムテックジャパン,0
835,3013301049066,新規,0,2022-05-11,2022-05-11,株式会社ＭＳＤ,,株式会社,東京都,豊島区,要町３丁目７番３号,,13,116,1710043,,,,,,,2022-05-11,1,,,,,エムエスディー,0
839,3020001146416,新規,0,2022-05-11,2022-05-11,株式会社パディントン,,株式会社,神奈川県,川崎市幸区,新川崎３番１－１７０６号イニシア新川崎,,14,132,2120032,,,,,,,2022-05-11,1,,,,,パディントン,0
840,3020001146424,新規,0,2022-05-11,2022-05-11,エフ・システムデザイン株式会社,,株式会社,神奈川県,横浜市泉区,和泉中央北４丁目４２番２３号,,14,116,2450024,,,,,,,2022-05-11,1,,,,,エフシステムデザイン,0
841,3020001146440,新規,0,2022-05-11,2022-05-11,株式会社十花舎,,株式会社,神奈川県,横浜市中区,本牧町１丁目２４５－４ヒルズ横浜山手１０２号室,,14,104,2310806,,,,,,,2022-05-11,1,,,,,,0
842,3020001146457,新規,0,2022-05-11,2022-05-11,株式会社怡川,,株式会社,神奈川県,横浜市金沢区,西柴１丁目９番１９号,,14,108,2360017,,,,,,,2022-05-11,1,,,,,イセン,0
845,3020003021757,新規,0,2022-05-11,2022-05-11,エスエス合同会社,,合同会社,神奈川県,横浜市中区,山下町１１８番地エトワール山下３０７号室,,14,104,2310023,,,,,,,2022-05-11,1,,,,,エスエス,0
847,3021001075893,新規,0,2022-05-11,2022-05-11,株式会社シンエイ,,株式会社,神奈川県,平塚市,大神１８４８番地の１４グレーシアＤ,,14,203,2540012,,,,,,,2022-05-11,1,,,,,シンエイ,0
848,3021001075910,新規,0,2022-05-11,2022-05-11,株式会社サンワイ,,株式会社,神奈川県,小田原市,栄町１丁目５番１号,,14,206,2500011,,,,,,,2022-05-11,1,,,,,サンワイ,0
849,3021001075919,新規,0,2022-05-11,2022-05-11,株式会社ＳＥＩＹＡコーポレーション,,株式会社,神奈川県,平塚市,紅谷町１２番１２号,,14,203,2540043,,,,,,,2022-05-11,1,,,,,セイヤコーポレーション,0
850,3021001075927,新規,0,2022-05-11,2022-05-11,株式会社きずな,,株式会社,神奈川県,相模原市緑区,原宿２丁目１３番３０号,,14,151,2520102,,,,,,,2022-05-11,1,,,,,キズナ,0
857,3021003011673,新規,0,2022-05-11,2022-05-11,ＴＷ合同会社,,合同会社,神奈川県,相模原市中央区,横山１丁目３番１７号,,14,152,2520242,,,,,,,2022-05-11,1,,,,,ティーダブリュー,0
858,3021003011681,新規,0,2022-05-11,2022-05-11,ナイス合同会社,,合同会社,神奈川県,秦野市,南矢名３丁目１３番１５号,,14,211,2570003,,,,,,,2022-05-11,1,,,,,ナイス,0
863,3030001148048,新規,0,2022-05-11,2022-05-11,株式会社ＲＩＳＥ,,株式会社,埼玉県,富士見市,水谷東３丁目３３番５号,,11,235,3540013,,,,,,,2022-05-11,1,,,,,ライズ,0
864,3030001148056,新規,0,2022-05-11,2022-05-11,株式会社太田企画,,株式会社,埼玉県,春日部市,南３丁目１８番１２号,,11,214,3440064,,,,,,,2022-05-11,1,,,,,オオタキカク,0
865,3030001148080,新規,0,2022-05-11,2022-05-11,株式会社アスエイド,,株式会社,埼玉県,川越市,旭町１丁目８－４,,11,201,3501126,,,,,,,2022-05-11,1,,,,,アスエイド,0
866,3030001148089,新規,0,2022-05-11,2022-05-11,株式会社Ｔ‐Ｆａｃｔｏｒｙ,,株式会社,埼玉県,さいたま市見沼区,東大宮７丁目６８番地４,,11,104,3370051,,,,,,,2022-05-11,1,,,,,ティーファクトリー,0
867,3030001148097,新規,0,2022-05-11,2022-05-11,株式会社スリーワイズ,,株式会社,埼玉県,さいたま市見沼区,大字東門前６５番地２－１０２号,,11,104,3370016,,,,,,,2022-05-11,1,,,,,スリーワイズ,0
869,3030003019362,新規,0,2022-05-11,2022-05-11,ＫＣＥＥ合同会社,,合同会社,埼玉県,三郷市,中央５丁目１３番地５－２１５号,,11,237,3410038,,,,,,,2022-05-11,1,,,,,ケイシー,0
870,3030003019387,新規,0,2022-05-11,2022-05-11,合同会社九重,,合同会社,埼玉県,志木市,柏町４丁目１番２５号ＳＴマンション２０２号,,11,228,3530007,,,,,,,2022-05-11,1,,,,,ココノエ,0
871,3030003019395,新規,0,2022-05-11,2022-05-11,合同会社コアエネル,,合同会社,埼玉県,ふじみ野市,大井６４４番地８,,11,245,3560053,,,,,,,2022-05-11,1,,,,,コアエネル,0
876,3040001123272,新規,0,2022-05-11,2022-05-11,株式会社ＶＩＳＩＯホールディングス,,株式会社,千葉県,船橋市,習志野台１丁目１９番１３号,,12,204,2740063,,,,,,,2022-05-11,1,,,,,ビジオホールディングス,0
877,3040001123280,新規,0,2022-05-11,2022-05-11,株式会社上鳶興業,,株式会社,千葉県,松戸市,常盤平双葉町１０番地の１５,,12,207,2702262,,,,,,,2022-05-11,1,,,,,カミトビコウギョウ,0
878,3040001123289,新規,0,2022-05-11,2022-05-11,株式会社ジー・ソイル,,株式会社,千葉県,市川市,下妙典１０８０番地１,,12,203,2720113,,,,,,,2022-05-11,1,,,,,ジーソイル,0
879,3040001123322,新規,0,2022-05-11,2022-05-11,ＴＣ　Ｇｌｏｂａｌ株式会社,,株式会社,千葉県,船橋市,夏見５丁目１０番２７号,,12,204,2730865,,,,,,,2022-05-11,1,,,,,ティーシーグローバル,0
880,3040001123330,新規,0,2022-05-11,2022-05-11,株式会社桜風,,株式会社,千葉県,市原市,島野１７２３番地６,,12,219,2900034,,,,,,,2022-05-11,1,,,,,オウカ,0
881,3040001123347,新規,0,2022-05-11,2022-05-11,株式会社エデュテック,,株式会社,千葉県,浦安市,舞浜３丁目３４番１５号,,12,227,2790031,,,,,,,2022-05-11,1,,,,,エデュテック,0
882,3040001123371,新規,0,2022-05-11,2022-05-11,株式会社隆工業,,株式会社,千葉県,市川市,宮久保５丁目２０番３０号,,12,203,2720822,,,,,,,2022-05-11,1,,,,,タカシコウギョウ,0
885,3040003019989,新規,0,2022-05-11,2022-05-11,ユニバーサルリンク合同会社,,合同会社,千葉県,野田市,尾崎７８６番地の１,,12,208,2700235,,,,,,,2022-05-11,1,,,,,ユニバーサルリンク,0
886,3040003019997,新規,0,2022-05-11,2022-05-11,ｆｏｒＸ合同会社,,合同会社,千葉県,千葉市美浜区,若葉３丁目１番地１幕張ベイパークスカイグランドタワー４２１６号,,12,106,2610014,,,,,,,2022-05-11,1,,,,,フォーエックス,0
892,3070001039210,新規,0,2022-05-11,2022-05-11,株式会社佐藤農研,,株式会社,群馬県,吾妻郡嬬恋村,大字大笹２１２８番地,,10,425,3771613,,,,,,,2022-05-11,1,,,,,サトウノウケン,0
901,3100001035313,新規,0,2022-05-11,2022-05-11,株式会社Ｅｍｉｒａｉ不動産,,株式会社,長野県,松本市,寿北６丁目１１番１号Ｌ－Ｂａｓｅ０３,,20,202,3990011,,,,,,,2022-05-11,1,,,,,イーミライフドウサン,0
902,3100003006543,新規,0,2022-05-11,2022-05-11,Ｈｅｌｖｅｔｉａ　Ｈｏｌｄｉｎｇｓ合同会社,,合同会社,長野県,下高井郡野沢温泉村,大字豊郷９５３５番地,,20,563,3892502,,,,,,,2022-05-11,1,,,,,ヘルベチアホールディングス,0
906,3110001036649,新規,0,2022-05-11,2022-05-11,株式会社エストリー,,株式会社,新潟県,新潟市中央区,万代１丁目５番１号ラブラ万代４０３号室,,15,103,9500088,,,,,,,2022-05-11,1,,,,,エストリー,0
910,3110005016804,新規,0,2022-05-11,2022-05-11,ＮＰＯ法人メビィテール,,その他の設立登記法人,新潟県,新潟市中央区,花園１丁目１－１０－５０５,,15,103,9500086,,,,,,,2022-05-11,1,,,,,メビィテール,0
931,3120001245653,新規,0,2022-05-11,2022-05-11,Ｒ＆Ｔ株式会社,,株式会社,大阪府,大阪市西成区,太子１丁目１１番１号,,27,122,5570002,,,,,,,2022-05-11,1,,,,,アールアンドティー,0
932,3120001245686,新規,0,2022-05-11,2022-05-11,１０‐Ｃｌｏｕｄ株式会社,,株式会社,大阪府,大阪市北区,梅田１丁目１番３号,,27,127,5300001,,,,,,,2022-05-11,1,,,,,テンクラウド,0
933,3120001245769,新規,0,2022-05-11,2022-05-11,株式会社ＨＩＫ,,株式会社,大阪府,大阪市中央区,南本町１丁目６番９号,,27,128,5410054,,,,,,,2022-05-11,1,,,,,エイチアイケー,0
934,3120001245802,新規,0,2022-05-11,2022-05-11,株式会社Ｏｃｅａｎ,,株式会社,大阪府,大阪市平野区,喜連東１丁目２番４４号,,27,126,5470021,,,,,,,2022-05-11,1,,,,,オーシャン,0
935,3120001245819,新規,0,2022-05-11,2022-05-11,株式会社クロス,,株式会社,大阪府,大阪市北区,豊崎３丁目１５番５号ＴＫビル２階,,27,127,5310072,,,,,,,2022-05-11,1,,,,,クロス,0
939,3120101065497,新規,0,2022-05-11,2022-05-11,株式会社鐵ＫＵＲＯＧＡＮＥ,,株式会社,大阪府,河内長野市,加賀田３５３５番地の５,,27,216,5860071,,,,,,,2022-05-11,1,,,,,クロガネクロガネ,0
940,3120101065547,新規,0,2022-05-11,2022-05-11,株式会社Ｚｅａｌ,,株式会社,大阪府,高石市,東羽衣３丁目１５番１４－３０３号,,27,225,5920003,,,,,,,2022-05-11,1,,,,,ジール,0
941,3120101065555,新規,0,2022-05-11,2022-05-11,株式会社Ｕ‐ｓｔｏｒｙ,,株式会社,大阪府,岸和田市,藤井町３丁目２番１１号,,27,202,5960046,,,,,,,2022-05-11,1,,,,,ユーストーリ,0
942,3120101065563,新規,0,2022-05-11,2022-05-11,株式会社ひまわり園,,株式会社,大阪府,南河内郡太子町,大字春日１４番５号,,27,381,5830991,,,,,,,2022-05-11,1,,,,,ヒマワリエン,0
943,3120101065571,新規,0,2022-05-11,2022-05-11,東陽株式会社,,株式会社,大阪府,堺市南区,桃山台１丁３番８－１０７号,,27,145,5900141,,,,,,,2022-05-11,1,,,,,トウヨウ,0
947,3122001035844,新規,0,2022-05-11,2022-05-11,株式会社パルペルーレ,,株式会社,大阪府,大東市,新町１２番６号ビリーブ前田２Ｆ,,27,218,5740037,,,,,,,2022-05-11,1,,,,,パルペルーレ,0
948,3122001035860,新規,0,2022-05-11,2022-05-11,株式会社ＳＯＡＲ,,株式会社,大阪府,東大阪市,御厨中２丁目６－２５,,27,227,5770035,,,,,,,2022-05-11,1,,,,,ソアー,0
960,3140001125894,新規,0,2022-05-11,2022-05-11,株式会社タイヤショップナカガワ,,株式会社,兵庫県,高砂市,米田町米田９４８番地の３,,28,216,6760805,,,,,,,2022-05-11,1,,,,,タイヤショップナカガワ,0
961,3140001125911,新規,0,2022-05-11,2022-05-11,株式会社エイトシステム,,株式会社,兵庫県,姫路市,阿保乙３８６番地１,,28,201,6700944,,,,,,,2022-05-11,1,,,,,エイトシステム,0
962,3140001125969,新規,0,2022-05-11,2022-05-11,株式会社Ｒｉｔｚ．ｂ,,株式会社,兵庫県,神戸市中央区,布引町２丁目１番７号,,28,110,6510097,,,,,,,2022-05-11,1,,,,,リッツビー,0
963,3140005026172,新規,0,2022-05-11,2022-05-11,農事組合法人岡西営農組合,,その他の設立登記法人,兵庫県,加古郡稲美町,岡４６２番地,,28,381,6751113,,,,,,,2022-05-11,1,,,,,オカニシエイノウクミアイ,0
966,3150001025524,新規,0,2022-05-11,2022-05-11,アリーノ株式会社,,株式会社,奈良県,奈良市,学園大和町１丁目１０８番地,,29,201,6310041,,,,,,,2022-05-11,1,,,,,アリーノ,0
967,3170001017107,新規,0,2022-05-11,2022-05-11,株式会社ワンディス,,株式会社,和歌山県,和歌山市,神前１５８番地２,,30,201,6408314,,,,,,,2022-05-11,1,,,,,ワンディス,0
974,3180001151202,新規,0,2022-05-11,2022-05-11,株式会社岩村工業,,株式会社,愛知県,名古屋市港区,西福田５丁目９０９番地の１,,23,111,4550874,,,,,,,2022-05-11,1,,,,,イワムラコウギョウ,0
975,3180001151219,新規,0,2022-05-11,2022-05-11,株式会社ｅｔｅｒｎｏ建築積算,,株式会社,愛知県,名古屋市中区,丸の内３丁目２２番１１号丸の内シンワビル４０１号,,23,106,4600002,,,,,,,2022-05-11,1,,,,,エテルノケンチクセキサン,0
976,3180001151268,新規,0,2022-05-11,2022-05-11,株式会社ＭＫＮ企画,,株式会社,愛知県,名古屋市瑞穂区,船原町３丁目９番地の１さくら２０３号,,23,108,4670878,,,,,,,2022-05-11,1,,,,,エムケイエヌキカク,0
990,3190001029380,新規,0,2022-05-11,2022-05-11,宝船カンパニー株式会社,,株式会社,三重県,津市,下弁財町津興８１３番地１,,24,201,5140805,,,,,,,2022-05-11,1,,,,,タカラブネカンパニー,0
999,3240001059728,新規,0,2022-05-11,2022-05-11,株式会社ＣＯＮＮＥＣＴ　ＧＡＲＡＧＥ,,株式会社,広島県,広島市安佐北区,落合１丁目４１番９号２Ｆ,,34,106,7391731,,,,,,,2022-05-11,1,,,,,コネクトガレージ,0
1000,3240001059736,新規,0,2022-05-11,2022-05-11,株式会社Ｓｕｎｎｙ　Ｂｒｉｄｇｅ,,株式会社,広島県,広島市佐伯区,海老園２丁目３番１０－３０５号,,34,108,7315135,,,,,,,2022-05-11,1,,,,,サニーブリッジ,0
1001,3240001059769,新規,0,2022-05-11,2022-05-11,株式会社広島一善グループ,,株式会社,広島県,広島市中区,堺町２丁目６番１号,,34,101,7300853,,,,,,,2022-05-11,1,,,,,ヒロシマイチゼングループ,0
1002,3240003005614,新規,0,2022-05-11,2022-05-11,合同会社ａｌｆｏ,,合同会社,広島県,広島市安佐北区,可部南１丁目３０番２７－４号,,34,106,7310223,,,,,,,2022-05-11,1,,,,,アルフォ,0
1005,3250001019557,新規,0,2022-05-11,2022-05-11,株式会社グリーンライフプロジェクト,,株式会社,山口県,下関市,大坪本町２５番２８－１０２号,,35,201,7500051,,,,,,,2022-05-11,1,,,,,グリーンライフプロジェクト,0
1018,3290001097500,新規,0,2022-05-11,2022-05-11,株式会社ドリーム,,株式会社,福岡県,糟屋郡須惠町,大字旅石８６－５５,,40,344,8112221,,,,,,,2022-05-11,1,,,,,ドリーム,0
1022,3290803004125,新規,0,2022-05-11,2022-05-11,Ｃｉｒｃｌｅ　Ｈｏｕｓｅ　Ｗｏｒｋｓ合同会社,,合同会社,福岡県,北九州市八幡西区,萩原３丁目４－３,,40,109,8060059,,,,,,,2022-05-11,1,,,,,サークルハウスワークス,0
1023,3300003001838,新規,0,2022-05-11,2022-05-11,マウントマウス合同会社,,合同会社,佐賀県,唐津市,鏡２３０３番地３,,41,202,8470022,,,,,,,2022-05-11,1,,,,,マウントマウス,0
1024,3310003004360,新規,0,2022-05-11,2022-05-11,合同会社ｆｕｋｕｒａ,,合同会社,長崎県,長崎市,三京町８１５番地２７７,,42,201,8512206,,,,,,,2022-05-11,1,,,,,フクラ,0
1035,3360003011988,新規,0,2022-05-11,2022-05-11,にとら合同会社,,合同会社,沖縄県,中頭郡西原町,字我謝７８７番地の１（平良マンション３－Ｄ）,,47,329,9030112,,,,,,,2022-05-11,1,,,,,ニトラ,0
1036,3360003012004,新規,0,2022-05-11,2022-05-11,トリプルエーシステム合同会社,,合同会社,沖縄県,宮古島市,平良字東仲宗根３６５番地,,47,214,9060007,,,,,,,2022-05-11,1,,,,,トリプリエーシステム,0
1037,3360003012012,新規,0,2022-05-11,2022-05-11,愛土地家オーシャン麒麟合同会社,,合同会社,沖縄県,宮古島市,平良字下里９０６番地３,,47,214,9060013,,,,,,,2022-05-11,1,,,,,アイランドヤーオーシャンキリン,0
1045,3380001032786,新規,0,2022-05-11,2022-05-11,株式会社おおみグループ,,株式会社,福島県,いわき市,小名浜中町境２番地の２２,,07,204,9718163,,,,,,,2022-05-11,1,,,,,オオミグループ,0
1046,3380001032803,新規,0,2022-05-11,2022-05-11,株式会社さくら,,株式会社,福島県,双葉郡浪江町,大字田尻字みどりが丘９０番地３,,07,547,9791541,,,,,,,2022-05-11,1,,,,,サクラ,0
1047,3380005012578,新規,0,2022-05-11,2022-05-11,一般社団法人ＴＥＲＡＳ,,その他の設立登記法人,福島県,須賀川市,東町６２－１３,,07,207,9620844,,,,,,,2022-05-11,1,,,,,,0
1050,3400001015879,新規,0,2022-05-11,2022-05-11,株式会社アイエスケーシー,,株式会社,岩手県,花巻市,石神町９３番地１９,,03,205,0250095,,,,,,,2022-05-11,1,,,,,アイエスケーシー,0
1053,3420001017832,新規,0,2022-05-11,2022-05-11,株式会社ノーマライゼーション,,株式会社,青森県,八戸市,大字長苗代字紺屋町８番地４,,02,203,0391103,,,,,,,2022-05-11,1,,,,,ノーマライゼーション,0
1054,3420001017840,新規,0,2022-05-11,2022-05-11,株式会社０３７１,,株式会社,青森県,青森市,大字新城字福田６５番地５,,02,201,0380042,,,,,,,2022-05-11,1,,,,,オサナイ,0
1060,3430001086538,新規,0,2022-05-11,2022-05-11,ＩＮＣＬＵＳＩＶＥ　ＳＰＡＣＥ　ＣＯＮＳＵＬＴＩＮＧ株式会社,,株式会社,北海道,札幌市中央区,大通西３丁目６番地,,01,101,0600042,,,,,,,2022-05-11,1,,,,,インクルーシブスペースコンサルティング,0
1075,3700150051455,新規,0,2022-05-11,2015-10-09,広島県社会保険委員会連合会,,その他,広島県,広島市中区,基町１１－１３合人社広島紙屋町アネクス８階,,34,101,7300011,,,,,,,2015-10-09,1,,,,,ヒロシマケンシヤカイホケンイインカイレンゴウカイ,0
1077,3700150106580,新規,0,2022-05-11,2022-01-12,舞台芸術および古典邦楽に希望を灯す会,,その他,東京都,渋谷区,富ヶ谷１丁目３８－１５フォルム代々木公園３０１,,13,113,1510063,,,,,,,2022-01-12,1,,,,,ブタイゲイジユツオヨビコテンホウガクニキボウヲトモスカイ,0
1078,3700150108338,新規,0,2022-05-11,2022-04-26,ＭＥＧＡＮＥ／メガネ（座）,,その他,東京都,渋谷区,幡ヶ谷３丁目６－５,,13,113,1510072,,,,,,,2022-04-26,1,,,,,メガネメガネザ,0
1085,4010001226366,新規,0,2022-05-11,2022-05-11,株式会社ＶＡＦ　Ｒｏｉｄ,,株式会社,東京都,中央区,銀座２丁目１１－８ラウンドクロス銀座二丁目１２階,,13,102,1040061,,,,,,,2022-05-11,1,,,,,バフロイド,0
1086,4010001226432,新規,0,2022-05-11,2022-05-11,株式会社ブギウギ,,株式会社,東京都,中央区,銀座１丁目１２－４Ｎ＆ＥＢＬＤ．７階,,13,102,1040061,,,,,,,2022-05-11,1,,,,,ブギウギ,0
1087,4010001226515,新規,0,2022-05-11,2022-05-11,株式会社ＹＮカンパニー,,株式会社,東京都,千代田区,神田松永町１番地松屋ビル３階,,13,101,1010023,,,,,,,2022-05-11,1,,,,,ワイエヌカンパニー,0
1088,4010001226548,新規,0,2022-05-11,2022-05-11,ＮＩＭＩＴ　Ｓｔｕｄｉｏ株式会社,,株式会社,東京都,中央区,京橋２丁目２番１号京橋エドグラン２６階,,13,102,1040031,,,,,,,2022-05-11,1,,,,,ニミットスタジオ,0
1092,4010003037539,新規,0,2022-05-11,2022-05-11,合同会社Ｐ・Ｇ・Ｓ,,合同会社,東京都,千代田区,神田多町２丁目２番３号３階,,13,101,1010046,,,,,,,2022-05-11,1,,,,,ピージーエス,0
1095,4010101015157,新規,0,2022-05-11,2022-05-11,Ｔｏｅｐｓ　Ｍｅｄｉａ株式会社,,株式会社,東京都,八王子市,明神町４丁目２９番６号エトワール明神町５０４号,,13,201,1920046,,,,,,,2022-05-11,1,,,,,トープスメディア,0
1101,4010403027437,新規,0,2022-05-11,2022-05-11,合同会社ＲＡＤＬＩＮＥ,,合同会社,東京都,港区,浜松町２丁目２番１５号浜松町ダイヤビル２Ｆ,,13,103,1050013,,,,,,,2022-05-11,1,,,,,ラッドライン,0
1102,4010403027585,新規,0,2022-05-11,2022-05-11,Ｒｙｓｈｍ合同会社,,合同会社,東京都,港区,浜松町２丁目２番１５号ダイヤビル２Ｆ,,13,103,1050013,,,,,,,2022-05-11,1,,,,,リシュム,0
1103,4010403027610,新規,0,2022-05-11,2022-05-11,ＥＳＲ３１合同会社,,合同会社,東京都,港区,浜松町１丁目２０番１０号ライオネス浜松町５０６号室,,13,103,1050013,,,,,,,2022-05-11,1,,,,,イーエスアールサンジュウイチ,0
1105,4010405020984,新規,0,2022-05-11,2022-05-11,ＥＳＲ２９・２一般社団法人,,その他の設立登記法人,東京都,港区,浜松町１丁目２０番１０号ライオネス浜松町５０６号室,,13,103,1050013,,,,,,,2022-05-11,1,,,,,イーエスアールニジュウキュウニ,0
1107,4010501048814,新規,0,2022-05-11,2022-05-11,宇沃国際発展株式会社,,株式会社,東京都,台東区,台東２丁目２７番３号ＮＳＫビル１０Ｆ,,13,106,1100016,,,,,,,2022-05-11,1,,,,,ウヨクコクサイハッテン,0
1108,4010603009524,新規,0,2022-05-11,2022-05-11,ＺＡＫ　ＩＮＳＰＩＲＡＬ合同会社,,合同会社,東京都,江東区,有明１丁目４番１１－１８１３号,,13,108,1350063,,,,,,,2022-05-11,1,,,,,ザックインスパイラル,0
1110,4010701042617,新規,0,2022-05-11,2022-05-11,株式会社ＭＥＴｓ,,株式会社,東京都,品川区,西五反田１丁目２６－２五反田サンハイツビル２階,,13,109,1410031,,,,,,,2022-05-11,1,,,,,メッツ,0
1113,4010801032955,新規,0,2022-05-11,2022-05-11,ＦＣＶ　ＪＡＰＡＮ株式会社,,株式会社,東京都,大田区,蒲田５丁目４６番１０号金親ビル３０１,,13,111,1440052,,,,,,,2022-05-11,1,,,,,エフシーブイジャパン,0
1117,4010901050816,新規,0,2022-05-11,2022-05-11,株式会社フラニー＆Ｃｏ．,,株式会社,東京都,世田谷区,等々力６丁目２１番１２号,,13,112,1580082,,,,,,,2022-05-11,1,,,,,フラニーアンドカンパニー,0
1118,4010901050824,新規,0,2022-05-11,2022-05-11,株式会社アトリエ・トルカ,,株式会社,東京都,世田谷区,代沢２丁目１６－７－１階,,13,112,1550032,,,,,,,2022-05-11,1,,,,,アトリエトルカ,0
1119,4010901050832,新規,0,2022-05-11,2022-05-11,株式会社サカエリビング,,株式会社,東京都,世田谷区,松原２丁目３４番１２－７０６号,,13,112,1560043,,,,,,,2022-05-11,1,,,,,サカエリビング,0
1124,4011001147362,新規,0,2022-05-11,2022-05-11,Ｎｅｔｋｉｌｌｅｒ　Ｊａｐａｎ株式会社,,株式会社,東京都,渋谷区,渋谷２丁目２４番１２号渋谷スクランブルスクエア３９階,,13,113,1500002,,,,,,,2022-05-11,1,,,,,ネットキラージャパン,0
1125,4011001147404,新規,0,2022-05-11,2022-05-11,株式会社ＥＣチーム,,株式会社,東京都,目黒区,下目黒３丁目２４番２０号,,13,110,1530064,,,,,,,2022-05-11,1,,,,,イーシーチーム,0
1138,4011301027768,新規,0,2022-05-11,2022-05-11,株式会社定規屋,,株式会社,東京都,杉並区,高円寺南１丁目２６番１３号ナビウス高円寺南４０３,,13,115,1660003,,,,,,,2022-05-11,1,,,,,ジョウギヤ,0
1139,4011303004402,新規,0,2022-05-11,2022-05-11,合同会社かりゆし,,合同会社,東京都,杉並区,上井草１丁目５番５号エステート柿の木ＩＩ１０３,00126521,13,115,1670023,,,,,,,2022-05-11,1,,,,,カリユシ,0
1141,4011401024211,新規,0,2022-05-11,2022-05-11,北斗ＳＥＶＥＮ株式会社,,株式会社,東京都,板橋区,坂下２丁目１番２－１０４号室,,13,119,1740043,,,,,,,2022-05-11,1,,,,,ホクトセブン,0
1147,4011503005159,新規,0,2022-05-11,2022-05-11,合同会社トランスＶ,,合同会社,東京都,北区,王子５丁目１－３－２１７,,13,117,1140002,,,,,,,2022-05-11,1,,,,,トランスヴィー,0
1149,4011601025926,新規,0,2022-05-11,2022-05-11,株式会社エーツーファイナンス,,株式会社,東京都,練馬区,貫井４丁目２５番２５号,,13,120,1760021,,,,,,,2022-05-11,1,,,,,エーツーファイナンス,0
1153,4011801040683,新規,0,2022-05-11,2022-05-11,株式会社ＩＵＫ,,株式会社,東京都,足立区,東和４丁目６番２２号,,13,121,1200003,,,,,,,2022-05-11,1,,,,,アイユーケー,0
1154,4011801040691,新規,0,2022-05-11,2022-05-11,株式会社ＭＡＲＳＯＵ,,株式会社,東京都,葛飾区,西新小岩３丁目３７番３３号,,13,122,1240025,,,,,,,2022-05-11,1,,,,,マルソウ,0
1155,4011801040700,新規,0,2022-05-11,2022-05-11,株式会社ビーライフ,,株式会社,東京都,足立区,伊興本町１丁目１３番１１号,,13,121,1210807,,,,,,,2022-05-11,1,,,,,ビーライフ,0
1156,4011803005073,新規,0,2022-05-11,2022-05-11,合同会社ペルフィキオ,,合同会社,東京都,足立区,西新井６丁目３９－１３シーダーエクセレント１０３,,13,121,1230841,,,,,,,2022-05-11,1,,,,,ペルフィキオ,0
1157,4012301012982,新規,0,2022-05-11,2022-05-11,株式会社ｉｎｆｏｒｍＨＯＵＺＺ,,株式会社,東京都,町田市,大蔵町３１７０番地３,,13,209,1950062,,,,,,,2022-05-11,1,,,,,インフォームハウズ,0
1160,4012403005356,新規,0,2022-05-11,2022-05-11,合同会社プレインビュー,,合同会社,東京都,武蔵野市,吉祥寺南町４丁目１９番２０号サンファスト吉祥寺１０２,,13,203,1800003,,,,,,,2022-05-11,1,,,,,プレインビュー,0
1161,4012405004736,新規,0,2022-05-11,2022-05-11,一般社団法人多摩福祉振興会,,その他の設立登記法人,東京都,調布市,小島町２丁目３８番地７－９０３,,13,208,1820026,,,,,,,2022-05-11,1,,,,,タマフクシシンコウカイ,0
1163,4012801021558,新規,0,2022-05-11,2022-05-11,株式会社ｐｕｎｃｈｅｏｎ,,株式会社,東京都,日野市,高幡３番地の２０ゼニス高幡２Ｆ,,13,212,1910031,,,,,,,2022-05-11,1,,,,,パンチョン,0
1166,4013303006147,新規,0,2022-05-11,2022-05-11,合同会社ＤＯＫＴＥＲ,,合同会社,東京都,豊島区,池袋２丁目１１番５号,,13,116,1710014,,,,,,,2022-05-11,1,,,,,ドクター,0
1170,4020001146365,新規,0,2022-05-11,2022-05-11,株式会社ＦＹＰｒｏｄｕｃｔ,,株式会社,神奈川県,横浜市都筑区,南山田２丁目８－２１－１０２,,14,118,2240029,,,,,,,2022-05-11,1,,,,,エフワイプロダクト,0
1171,4020001146431,新規,0,2022-05-11,2022-05-11,ＫＯＭＢＩ株式会社,,株式会社,神奈川県,横浜市神奈川区,栄町６番地１ヨコハマポートサイドロア壱番館４０２号,,14,102,2210052,,,,,,,2022-05-11,1,,,,,コンビ,0
1176,4020003021715,新規,0,2022-05-11,2022-05-11,ＴＳＵＹＯＳＨＩ合同会社,,合同会社,神奈川県,横浜市南区,真金町２丁目１９番地２１,,14,105,2320021,,,,,,,2022-05-11,1,,,,,,0
1177,4020003021748,新規,0,2022-05-11,2022-05-11,合同会社１３６フレーミング,,合同会社,神奈川県,横浜市旭区,南本宿町４３番地１,,14,112,2410833,,,,,,,2022-05-11,1,,,,,イサムフレーミング,0
1178,4020003021756,新規,0,2022-05-11,2022-05-11,合同会社アイデアル,,合同会社,神奈川県,横浜市鶴見区,鶴見中央１丁目２１番１１号ニックハイム鶴見渡辺ビル第１－９０４,,14,101,2300051,,,,,,,2022-05-11,1,,,,,アイデアル,0
1179,4021001075298,新規,0,2022-05-11,2022-05-11,株式会社エリアペイ,,株式会社,神奈川県,鎌倉市,材木座６丁目９番２３号,,14,204,2480013,,,,,,,2022-05-11,1,,,,,エリアペイ,0
1180,4021001075901,新規,0,2022-05-11,2022-05-11,株式会社松下建設,,株式会社,神奈川県,南足柄市,沼田４５８番地１,,14,217,2500115,,,,,,,2022-05-11,1,,,,,マツシタケンセツ,0
1181,4021001075918,新規,0,2022-05-11,2022-05-11,株式会社ＤＥＮＮＹ,,株式会社,神奈川県,相模原市中央区,千代田２丁目７番７号,,14,152,2520237,,,,,,,2022-05-11,1,,,,,デニー,0
1183,4021003011648,新規,0,2022-05-11,2022-05-11,合同会社ｗｉｌｌｏｗ,,合同会社,神奈川県,小田原市,酒匂２丁目９番２７号,,14,206,2560816,,,,,,,2022-05-11,1,,,,,,0
1184,4021003011672,新規,0,2022-05-11,2022-05-11,神田装飾合同会社,,合同会社,神奈川県,愛甲郡愛川町,中津７２７５番地の９,,14,401,2430303,,,,,,,2022-05-11,1,,,,,カンダソウショク,0
1186,4021005012520,新規,0,2022-05-11,2022-05-11,一般社団法人ＳＡＳＵ・ＫＥ　ｆｅｌｌｏｗ,,その他の設立登記法人,神奈川県,鎌倉市,佐助１丁目８番４号,,14,204,2480017,,,,,,,2022-05-11,1,,,,,,0
1195,4030001148047,新規,0,2022-05-11,2022-05-11,株式会社服部工務店,,株式会社,埼玉県,さいたま市桜区,道場３丁目２４番１３号,,11,106,3380835,,,,,,,2022-05-11,1,,,,,ハットリコウムテン,0
1196,4030001148096,新規,0,2022-05-11,2022-05-11,株式会社木琳森,,株式会社,埼玉県,八潮市,大字大瀬１６１７番地８,,11,234,3400822,,,,,,,2022-05-11,1,,,,,キリンモリ,0
1201,4030003019353,新規,0,2022-05-11,2022-05-11,合同会社ライフォックス,,合同会社,埼玉県,所沢市,榎町２１番１４号,,11,208,3591104,,,,,,,2022-05-11,1,,,,,ライフォックス,0
1202,4030003019378,新規,0,2022-05-11,2022-05-11,合同会社ＬＥＶＵＲ,,合同会社,埼玉県,坂戸市,薬師町１番地１－１００１号北坂戸駅前ハイツ,,11,239,3500229,,,,,,,2022-05-11,1,,,,,レヴュール,0
1209,4040001123255,新規,0,2022-05-11,2022-05-11,株式会社サンエス,,株式会社,千葉県,船橋市,本町４丁目３－２０モリウチビル５Ｆ,,12,204,2730005,,,,,,,2022-05-11,1,,,,,サンエス,0
1210,4040001123263,新規,0,2022-05-11,2022-05-11,Ｑｌｉｔｅ株式会社,,株式会社,千葉県,松戸市,新松戸１丁目４２６番ＢＥＲＡＥ新松戸ＢＬＤＧ４階Ｂ号室,,12,207,2700034,,,,,,,2022-05-11,1,,,,,キューライト,0
1211,4040001123288,新規,0,2022-05-11,2022-05-11,株式会社ウィズフェイス,,株式会社,千葉県,千葉市花見川区,幕張本郷２丁目１０番１号メゾンルーヴル４０６号,,12,102,2620033,,,,,,,2022-05-11,1,,,,,ウィズフェイス,0
1214,4040003019988,新規,0,2022-05-11,2022-05-11,合同会社ｌａｔｉｔｕｄｅ,,合同会社,千葉県,大網白里市,大網２８７番地３,,12,239,2993251,,,,,,,2022-05-11,1,,,,,ラティテュード,0
1216,4050001051050,新規,0,2022-05-11,2022-05-11,株式会社ＯＮＩＪＡ　ＴＲＡＤＩＮＧ　ＬＡＮＫＡ,,株式会社,茨城県,小美玉市,川戸８１９番地,,08,236,3113412,,,,,,,2022-05-11,1,,,,,オニジャトレーディングランカ,0
1217,4050001051067,新規,0,2022-05-11,2022-05-11,株式会社ＢＳ　ＴＲＡＤＩＮＧ　ＪＡＰＡＮ,,株式会社,茨城県,筑西市,横塚９２１番地２川田店舗１０１,,08,227,3091116,,,,,,,2022-05-11,1,,,,,ビーエストレーディングジャパン,0
1218,4050001051075,新規,0,2022-05-11,2022-05-11,株式会社ＹＲＴ,,株式会社,茨城県,筑西市,茂田１７５６番地８,,08,227,3080811,,,,,,,2022-05-11,1,,,,,ワイアールティー,0
1219,4050003006556,新規,0,2022-05-11,2022-05-11,合同会社ユナイテッドウォーレンブラザーズ,,合同会社,茨城県,稲敷郡阿見町,中央４丁目５番４号,,08,443,3000332,,,,,,,2022-05-11,1,,,,,ユナイテッドウォーレンブラザーズ,0
1223,4060003004071,新規,0,2022-05-11,2022-05-11,合同会社Ｔａｉｎｅ　Ａｓｉａ,,合同会社,栃木県,佐野市,田島町２８１番地２セントニコラス１０３号室,,09,204,3270031,,,,,,,2022-05-11,1,,,,,タインアジア,0
1228,4080101023285,新規,0,2022-05-11,2022-05-11,日本サーモディスク株式会社,,株式会社,静岡県,御殿場市,深沢７３２番地,,22,215,4120023,,,,,,,2022-05-11,1,,,,,ニホンサーモディスク,0
1231,4080405007455,新規,0,2022-05-11,2022-05-11,一般社団法人ＣＣＵＳサポート,,その他の設立登記法人,静岡県,浜松市東区,篠ケ瀬町１３２４番地,,22,132,4350042,,,,,,,2022-05-11,1,,,,,シーシーユーエスサポート,0
1233,4100001035312,新規,0,2022-05-11,2022-05-11,株式会社マコトシーリング,,株式会社,長野県,伊那市,美篶４２８１番地１,,20,209,3960111,,,,,,,2022-05-11,1,,,,,マコトシーリング,0
1234,4100003006542,新規,0,2022-05-11,2022-05-11,Ｋ２ｃｏｍｐａｎｙ合同会社,,合同会社,長野県,埴科郡坂城町,大字網掛９００－４４,,20,521,3890604,,,,,,,2022-05-11,1,,,,,ケーツーカンパニー,0
1260,4120001245644,新規,0,2022-05-11,2022-05-11,日本開発株式会社,,株式会社,大阪府,大阪市中央区,谷町６丁目９－２６－８Ｆ,,27,128,5420012,,,,,,,2022-05-11,1,,,,,ニホンカイハツ,0
1261,4120001245685,新規,0,2022-05-11,2022-05-11,カトーコーギョー株式会社,,株式会社,大阪府,大阪市中央区,東高麗橋２番１号ルート中之島ビル２Ｆ,,27,128,5400039,,,,,,,2022-05-11,1,,,,,カトーコーギョー,0
1262,4120001245818,新規,0,2022-05-11,2022-05-11,株式会社Ｃｏｍｉｃ　Ｎｏｉｓｅ,,株式会社,大阪府,大阪市中央区,久太郎町４丁目１－３大阪センタービル６Ｆ－１７４,,27,128,5410056,,,,,,,2022-05-11,1,,,,,コミックノイズ,0
1263,4120001245834,新規,0,2022-05-11,2022-05-11,株式会社ホソウヤ造園設計,,株式会社,大阪府,大阪市此花区,春日出北３丁目１４番１２号,,27,104,5540021,,,,,,,2022-05-11,1,,,,,ホソウヤゾウエンセッケイ,0
1266,4120003021655,新規,0,2022-05-11,2022-05-11,合同会社ｌｕｎｅ,,合同会社,大阪府,大阪市中央区,上汐１丁目３番１５号,,27,128,5420064,,,,,,,2022-05-11,1,,,,,リュンヌ,0
1267,4120003021663,新規,0,2022-05-11,2022-05-11,合同会社倶蘭堂,,合同会社,大阪府,大阪市天王寺区,生玉前町５番２８－９０３号,,27,109,5430072,,,,,,,2022-05-11,1,,,,,グランドウ,0
1270,4120005022940,新規,0,2022-05-11,2022-05-11,職業訓練法人アーデントビューティーカレッジ,,その他の設立登記法人,大阪府,大阪市中央区,釣鐘町２丁目１－９,,27,128,5400035,,,,,,,2022-05-11,1,,,,,アーデントビューティーカレッジ,0
1279,4122001035843,新規,0,2022-05-11,2022-05-11,株式会社まとまる,,株式会社,大阪府,八尾市,南太子堂２丁目４番７０号,,27,212,5810056,,,,,,,2022-05-11,1,,,,,マトマル,0
1287,4130001071742,新規,0,2022-05-11,2022-05-11,不争堂株式会社,,株式会社,京都府,京都市南区,上鳥羽南唐戸町７番地Ｋビル７０７号室,,26,107,6018107,,,,,,,2022-05-11,1,,,,,フソウドウ,0
1297,4140001125860,新規,0,2022-05-11,2022-05-11,株式会社ＭＴＳ,,株式会社,兵庫県,姫路市,小姓町１６番地,,28,201,6700043,,,,,,,2022-05-11,1,,,,,エムティーエス,0
1298,4140001125902,新規,0,2022-05-11,2022-05-11,株式会社エスプラス,,株式会社,兵庫県,芦屋市,大東町１０番１２－１０２号,,28,206,6590023,,,,,,,2022-05-11,1,,,,,エスプラス,0
1299,4140001125951,新規,0,2022-05-11,2022-05-11,ｍｉｘｗｅｌｌ株式会社,,株式会社,兵庫県,尼崎市,立花町２丁目８番２２号スクエアガーデン立花１０１号室,,28,202,6610025,,,,,,,2022-05-11,1,,,,,ミックスウェル,0
1304,4140003017593,新規,0,2022-05-11,2022-05-11,合同会社牛壱,,合同会社,兵庫県,神戸市長田区,二葉町４丁目７－１４,,28,106,6530042,,,,,,,2022-05-11,1,,,,,ギュウイチ,0
1307,4150001025515,新規,0,2022-05-11,2022-05-11,株式会社ＰＥＡＣＥアカデミー,,株式会社,奈良県,奈良市,学園大和町５丁目５７番地,,29,201,6310041,,,,,,,2022-05-11,1,,,,,ピースアカデミー,0
1308,4150001025523,新規,0,2022-05-11,2022-05-11,たちばな電気保安協会株式会社,,株式会社,奈良県,香芝市,逢坂２丁目６５６番地の１,,29,210,6390251,,,,,,,2022-05-11,1,,,,,タチバナデンキホアンキョウカイ,0
1316,4180001151168,新規,0,2022-05-11,2022-05-11,株式会社ＧＥＮｔｏｓｓ,,株式会社,愛知県,名古屋市東区,黒門町１２５番地－２０２号,,23,102,4610035,,,,,,,2022-05-11,1,,,,,ジェントス,0
1318,4180003023803,新規,0,2022-05-11,2022-05-11,アイオーテック合同会社,,合同会社,愛知県,あま市,花正郷中７１番地５,,23,237,4901205,,,,,,,2022-05-11,1,,,,,アイオーテック,0
1320,4180005019766,新規,0,2022-05-11,2022-05-11,税理士法人伊勢山会計,,その他の設立登記法人,愛知県,名古屋市中区,古渡町１８番９号,,23,106,4600025,,,,,,,2022-05-11,1,,,,,イセヤマカイケイ,0
1322,4190001029388,新規,0,2022-05-11,2022-05-11,サンコーＳＰ株式会社,,株式会社,三重県,鈴鹿市,住吉５丁目７－５,,24,207,5130826,,,,,,,2022-05-11,1,,,,,サンコーエスピー,0
1328,4200003005550,新規,0,2022-05-11,2022-05-11,ピグション合同会社,,合同会社,岐阜県,大垣市,横曽根４丁目５番,,21,202,5030944,,,,,,,2022-05-11,1,,,,,ピグション,0
1330,4200005013345,新規,0,2022-05-11,2022-05-11,一般社団法人リードピラティス協会,,その他の設立登記法人,岐阜県,岐阜市,福住町１丁目１６－２ＡＬＥＸビル３０２,,21,201,5008858,,,,,,,2022-05-11,1,,,,,リードピラティスキョウカイ,0
1346,4240001059727,新規,0,2022-05-11,2022-05-11,株式会社ミヤビ,,株式会社,広島県,福山市,坪生町１丁目１４番１９－３号,,34,207,7210903,,,,,,,2022-05-11,1,,,,,ミヤビ,0
1347,4240001059735,新規,0,2022-05-11,2022-05-11,株式会社ＷＡＴＡＫＵＲＩ,,株式会社,広島県,広島市佐伯区,楽々園５丁目９番１５－５１０号,,34,108,7315136,,,,,,,2022-05-11,1,,,,,ワタクリ,0
1352,4250001019548,新規,0,2022-05-11,2022-05-11,Ｒｅ’ｒａｉｓｅ株式会社,,株式会社,山口県,周南市,城ケ丘３丁目１８番１４号,,35,215,7450807,,,,,,,2022-05-11,1,,,,,リレイズ,0
1356,4260003003904,新規,0,2022-05-11,2022-05-11,ナックカンパニー合同会社,,合同会社,岡山県,浅口市,鴨方町地頭上９９７番地２,,33,216,7190233,,,,,,,2022-05-11,1,,,,,ナックカンパニー,0
1357,4270001008516,新規,0,2022-05-11,2022-05-11,株式会社ノーマンクラフト,,株式会社,鳥取県,米子市,泉７０６番地３８０,,31,202,6893512,,,,,,,2022-05-11,1,,,,,ノーマンクラフト,0
1363,4290001097508,新規,0,2022-05-11,2022-05-11,株式会社ふじわら不動産,,株式会社,福岡県,福岡市東区,香住ヶ丘２丁目１１－３６,,40,131,8130003,,,,,,,2022-05-11,1,,,,,フジワラフドウサン,0
1366,4290003012497,新規,0,2022-05-11,2022-05-11,合同会社Ｋｅｎ‐Ｋｅｎ‐Ｆｉｒｍ　Ｃｏｍｐａｎｙ,,合同会社,福岡県,太宰府市,観世音寺２丁目１３番２９号観世コーポ１０１号,,40,221,8180101,,,,,,,2022-05-11,1,,,,,ケンケンファームカンパニー,0
1373,4300001012927,新規,0,2022-05-11,2022-05-11,株式会社小城自動車整備工場,,株式会社,佐賀県,小城市,小城町畑田２６８７番地７,,41,208,8450002,,,,,,,2022-05-11,1,,,,,オギジドウシャセイビコウジョウ,0
1377,4330001029729,新規,0,2022-05-11,2022-05-11,協同創建株式会社,,株式会社,熊本県,熊本市北区,池田３丁目１番１１号,,43,105,8600082,,,,,,,2022-05-11,1,,,,,キョウドウソウケン,0
1380,4330003009357,新規,0,2022-05-11,2022-05-11,Ｅｍｐｙｒｅ合同会社,,合同会社,熊本県,熊本市西区,島崎２丁目１７－２１－１Ｆ,,43,103,8600073,,,,,,,2022-05-11,1,,,,,エンパイヤ,0
1391,4370003005690,新規,0,2022-05-11,2022-05-11,総合メンテナンス合同会社,,合同会社,宮城県,東松島市,牛網字駅前二丁目１番地２,,04,214,9810301,,,,,,,2022-05-11,1,,,,,ソウゴウメンテナンス,0
1392,4380001032785,新規,0,2022-05-11,2022-05-11,株式会社庭屋,,株式会社,福島県,いわき市,勿来町白米日照田８６番地の６,,07,204,9790143,,,,,,,2022-05-11,1,,,,,ニワヤ,0
1393,4380001032802,新規,0,2022-05-11,2022-05-11,株式会社ワンシェアリング,,株式会社,福島県,郡山市,富田町字豊年田１３番地の５２,,07,203,9638041,,,,,,,2022-05-11,1,,,,,ワンシェアリング,0
1398,4420001017831,新規,0,2022-05-11,2022-05-11,株式会社斗澤林業,,株式会社,青森県,十和田市,西二十三番町５７番４０号,,02,206,0340089,,,,,,,2022-05-11,1,,,,,トザワリンギョウ,0
1411,4500001024209,新規,0,2022-05-11,2022-05-11,株式会社小田原特殊,,株式会社,愛媛県,東温市,北方甲３１１５番地２,,38,215,7910303,,,,,,,2022-05-11,1,,,,,オダワラトクシュ,0
1413,4700150053632,新規,0,2022-05-11,2015-10-09,岡山バプテスト教会,,その他,岡山県,岡山市北区,田町１丁目８－４,,33,101,7000825,,,,,,,2015-10-09,1,,,,,オカヤマバプテストキヨウカイ,0
1414,4700150108080,新規,0,2022-05-11,2022-04-18,南越前町山海里運営協議会,,その他,福井県,南条郡南越前町,牧谷３９－２－２,,18,404,9190203,,,,,,,2022-04-18,1,,,,,ミナミエチゼンチヨウサンカイリウンエイキヨウギカイ,0
1415,4700150108221,新規,0,2022-05-11,2022-04-21,Ｓｔｕｄｉｏ　Ｃａｎｔｏ,,その他,東京都,北区,西ケ原１丁目８－９,,13,117,1140024,,,,,,,2022-04-21,1,,,,,スタジオカント,0
1416,4700150108394,新規,0,2022-05-11,2022-04-27,垂井町連合自治会連絡協議会,,その他,岐阜県,不破郡垂井町,宮代２９５７番地の１１,,21,361,5032124,,,,,,,2022-04-27,1,,,,,タルイチヨウレンゴウジチカイレンラクキヨウギカイ,0
1430,5010001226431,新規,0,2022-05-11,2022-05-11,はじめに相談する株式会社,,株式会社,東京都,千代田区,神田東松下町３７番２号加瀬ビル１３０・３１１号,,13,101,1010042,,,,,,,2022-05-11,1,,,,,ハジメニソウダンスル,0
1431,5010001226464,新規,0,2022-05-11,2022-05-11,エスグラッド株式会社,,株式会社,東京都,中央区,新富１丁目１番７号ＢｉｚＳＱＵＡＲＥ・ＧＩＮＺＡ２Ｆ,,13,102,1040041,,,,,,,2022-05-11,1,,,,,エスグラッド,0
1432,5010003037653,新規,0,2022-05-11,2022-05-11,合同会社パール,,合同会社,東京都,中央区,銀座１丁目２２番１１号銀座大竹ビジデンス２階,,13,102,1040061,,,,,,,2022-05-11,1,,,,,パール,0
1433,5010003037661,新規,0,2022-05-11,2022-05-11,Ｂｌａｃｋ　Ｍｏｏｎ　Ｐｒｏｄｕｃｔｉｏｎ合同会社,,合同会社,東京都,中央区,八丁堀２丁目３０番１６号,,13,102,1040032,,,,,,,2022-05-11,1,,,,,ブラックムーンプロダクション,0
1435,5010005034979,新規,0,2022-05-11,2022-05-11,一般社団法人トキキャピタル,,その他の設立登記法人,東京都,千代田区,霞が関３丁目２番５号,,13,101,1000013,,,,,,,2022-05-11,1,,,,,トキキャピタル,0
1442,5010401167242,新規,0,2022-05-11,2022-05-11,ヒューマンチェーンコンサルティング株式会社,,株式会社,東京都,港区,六本木７丁目７番７号トライセブンロッポンギ８階,,13,103,1060032,,,,,,,2022-05-11,1,,,,,ヒューマンチェーンコンサルティング,0
1450,5010405020942,新規,0,2022-05-11,2022-05-11,弁理士法人芳野国際特許事務所,,その他の設立登記法人,東京都,港区,港南１丁目９番３６号,,13,103,1080075,,,,,,,2022-05-11,1,,,,,ヨシノコクサイトッキョジムショ,0
1451,5010405020983,新規,0,2022-05-11,2022-05-11,ＥＳＲ２９・１一般社団法人,,その他の設立登記法人,東京都,港区,浜松町１丁目２０番１０号ライオネス浜松町５０６号室,,13,103,1050013,,,,,,,2022-05-11,1,,,,,イーエスアールニジュウキュウイチ,0
1453,5010501048813,新規,0,2022-05-11,2022-05-11,佑順国際発展株式会社,,株式会社,東京都,台東区,台東２丁目２７番３号ＮＳＫビル１０Ｆ,,13,106,1100016,,,,,,,2022-05-11,1,,,,,ウジュンコクサイハッテン,0
1454,5010501048821,新規,0,2022-05-11,2022-05-11,株式会社プロトポロス,,株式会社,東京都,台東区,柳橋１丁目１１番５号柳橋ビル３０２号,,13,106,1110052,,,,,,,2022-05-11,1,,,,,プロトポロス,0
1456,5010601061121,新規,0,2022-05-11,2022-05-11,株式会社ＴＨＲＥＥ,,株式会社,東京都,江東区,豊洲２丁目５番１－４２０５号,,13,108,1350061,,,,,,,2022-05-11,1,,,,,スリー,0
1457,5010601061138,新規,0,2022-05-11,2022-05-11,株式会社エフスタイル,,株式会社,東京都,江東区,毛利１丁目１１番１９号グリーンゲイブルズ１０１,,13,108,1350001,,,,,,,2022-05-11,1,,,,,エフスタイル,0
1458,5010603009523,新規,0,2022-05-11,2022-05-11,ＪＭＲ合同会社,,合同会社,東京都,江東区,三好４丁目６番１８号ラサール３０２,,13,108,1350022,,,,,,,2022-05-11,1,,,,,ジェイエムアール,0
1461,5010701042624,新規,0,2022-05-11,2022-05-11,株式会社ｉｎｃｒａｆｔ,,株式会社,東京都,品川区,豊町６丁目５番６号ハイツ石坂１Ｆ,,13,109,1420042,,,,,,,2022-05-11,1,,,,,インクラフト,0
1465,5010901050831,新規,0,2022-05-11,2022-05-11,株式会社秘密基地,,株式会社,東京都,世田谷区,太子堂２丁目２２番８－２０２号,,13,112,1540004,,,,,,,2022-05-11,1,,,,,ヒミツキチ,0
1466,5010901050848,新規,0,2022-05-11,2022-05-11,株式会社ＷＡＫＫＹ,,株式会社,東京都,世田谷区,船橋３丁目４番１５－１０６号,,13,112,1560055,,,,,,,2022-05-11,1,,,,,ワッキー,0
1472,5010903007367,新規,0,2022-05-11,2022-05-11,合同会社ＫＵＲＯＮＯＡ,,合同会社,東京都,世田谷区,等々力８丁目７番１２号,,13,112,1580082,,,,,,,2022-05-11,1,,,,,クロノア,0
1482,5011001147378,新規,0,2022-05-11,2022-05-11,Ｄｅｎｏｒｍ株式会社,,株式会社,東京都,渋谷区,渋谷２丁目１４番６号西田ビル５Ｆ,,13,113,1500002,,,,,,,2022-05-11,1,,,,,ディノーム,0
1483,5011001147394,新規,0,2022-05-11,2022-05-11,ネクストラベラー株式会社,,株式会社,東京都,渋谷区,神宮前２丁目１８番７号外苑ビル５階Ｂ号室,,13,113,1500001,,,,,,,2022-05-11,1,,,,,ネクストラベラー,0
1486,5011003014659,新規,0,2022-05-11,2022-05-11,合同会社さち,,合同会社,東京都,目黒区,自由が丘２丁目１６番１２号ＬＣ１階,,13,110,1520035,,,,,,,2022-05-11,1,,,,,サチ,0
1487,5011005009574,新規,0,2022-05-11,2022-05-11,一般社団法人ビジネスコミュニケーション協会,,その他の設立登記法人,東京都,目黒区,中根２丁目１７番１５号,,13,110,1520031,,,,,,,2022-05-11,1,,,,,ビジネスコミュニケーションキョウカイ,0
1492,5011403003658,新規,0,2022-05-11,2022-05-11,ＮＩＰＰＯＮ　ＴＥＣＨＮＯＬＯＧＹ合同会社,,合同会社,東京都,板橋区,大山東町４５番７号－４０２号室,,13,119,1730014,,,,,,,2022-05-11,1,,,,,ニッポンテクノロジー,0
1498,5011603003598,新規,0,2022-05-11,2022-05-11,合同会社Ｔｏｋｙｏリゾート,,合同会社,東京都,練馬区,豊玉北５丁目２１番１号,,13,120,1760012,,,,,,,2022-05-11,1,,,,,トウキョウリゾート,0
1500,5011801040682,新規,0,2022-05-11,2022-05-11,株式会社城東室内,,株式会社,東京都,葛飾区,新小岩１丁目２４番４号ウィルローズ新小岩２０１号,,13,122,1240024,,,,,,,2022-05-11,1,,,,,ジョウトウシツナイ,0
1501,5011801040690,新規,0,2022-05-11,2022-05-11,株式会社ｉｓｍ,,株式会社,東京都,足立区,六月２丁目１２－１２－１０５,,13,121,1210814,,,,,,,2022-05-11,1,,,,,イズム,0
1504,5011803005080,新規,0,2022-05-11,2022-05-11,合同会社ＡＱＵＡ,,合同会社,東京都,足立区,千住仲町５番３号,,13,121,1200036,,,,,,,2022-05-11,1,,,,,アクア,0
1506,5012801021549,新規,0,2022-05-11,2022-05-11,株式会社リアイディア,,株式会社,東京都,武蔵村山市,伊奈平６丁目４５番地の６,,13,223,2080023,,,,,,,2022-05-11,1,,,,,リアイディア,0
1507,5013101008906,新規,0,2022-05-11,2022-05-11,Ｂ‐ＢＡＳＥ株式会社,,株式会社,東京都,西多摩郡瑞穂町,大字二本木３９４番地Ｂ－０１,,13,303,1901201,,,,,,,2022-05-11,1,,,,,ビーベース,0
1514,5013301049072,新規,0,2022-05-11,2022-05-11,株式会社ビューティートラスト,,株式会社,東京都,豊島区,池袋２丁目４８番８号恩和ビル４Ｆ,,13,116,1710014,,,,,,,2022-05-11,1,,,,,ビューティートラスト,0
1515,5013301049080,新規,0,2022-05-11,2022-05-11,未来株式会社,,株式会社,東京都,豊島区,池袋１丁目４番９－４０１号,,13,116,1700014,,,,,,,2022-05-11,1,,,,,ミライ,0
1517,5013303006146,新規,0,2022-05-11,2022-05-11,合同会社ＳｔａｒｔＰｏｒｔ,,合同会社,東京都,豊島区,東池袋４丁目２４番１３号池袋Ｙ３ビル７階,,13,116,1700013,,,,,,,2022-05-11,1,,,,,スタートポート,0
1523,5020001146397,新規,0,2022-05-11,2022-05-11,株式会社ＫＲＥＳＴ,,株式会社,神奈川県,横浜市磯子区,洋光台６丁目１０番２６号,,14,107,2350045,,,,,,,2022-05-11,1,,,,,クレスト,0
1524,5020001146422,新規,0,2022-05-11,2022-05-11,株式会社ｙ．ｐクラフト,,株式会社,神奈川県,横浜市泉区,上飯田町２５６６番地６,,14,116,2450018,,,,,,,2022-05-11,1,,,,,ワイピークラフト,0
1525,5020001146430,新規,0,2022-05-11,2022-05-11,ＣＨＵＰ株式会社,,株式会社,神奈川県,横浜市港北区,綱島西４丁目１５番８号,,14,109,2230053,,,,,,,2022-05-11,1,,,,,チャップ,0
1527,5020003021722,新規,0,2022-05-11,2022-05-11,合同会社一騎駆,,合同会社,神奈川県,川崎市幸区,南加瀬４丁目２０番２９号パラッツォグリシーネ１０４,,14,132,2120055,,,,,,,2022-05-11,1,,,,,イッキガケ,0
1528,5020003021730,新規,0,2022-05-11,2022-05-11,クフーサポート合同会社,,合同会社,神奈川県,横浜市港北区,菊名３丁目２０番８号,,14,109,2220011,,,,,,,2022-05-11,1,,,,,クフーサポート,0
1529,5020003021755,新規,0,2022-05-11,2022-05-11,合同会社わっしょい,,合同会社,神奈川県,川崎市宮前区,宮崎１丁目５番１号ヴェルドーミール３１３,,14,136,2160033,,,,,,,2022-05-11,1,,,,,ワッショイ,0
1534,5021001075891,新規,0,2022-05-11,2022-05-11,株式会社三上建材,,株式会社,神奈川県,小田原市,国府津２０９６番地の２９,,14,206,2560812,,,,,,,2022-05-11,1,,,,,ミカミケンザイ,0
1535,5021001075909,新規,0,2022-05-11,2022-05-11,株式会社ＭＩＴＳＵＢＡ,,株式会社,神奈川県,平塚市,根坂間２６３番地の１,,14,203,2540904,,,,,,,2022-05-11,1,,,,,ミツバ,0
1536,5021001075941,新規,0,2022-05-11,2022-05-11,株式会社桜建設,,株式会社,神奈川県,小田原市,千代９５８番地の５,,14,206,2500215,,,,,,,2022-05-11,1,,,,,サクラケンセツ,0
1540,5021003011671,新規,0,2022-05-11,2022-05-11,メルカートリベロ合同会社,,合同会社,神奈川県,相模原市南区,相模大野３丁目１２番２０号２Ｆ,,14,153,2520303,,,,,,,2022-05-11,1,,,,,メルカートリベロ,0
1544,5030001148070,新規,0,2022-05-11,2022-05-11,株式会社ＴＩＭＥ　ＧＩＦＴ,,株式会社,埼玉県,南埼玉郡宮代町,百間５丁目４番１８号,,11,442,3450801,,,,,,,2022-05-11,1,,,,,タイムギフト,0
1546,5030003019352,新規,0,2022-05-11,2022-05-11,合同会社ＧＯＡＬ,,合同会社,埼玉県,草加市,新栄２丁目２６番地３,,11,221,3400056,,,,,,,2022-05-11,1,,,,,ゴール,0
1547,5030003019369,新規,0,2022-05-11,2022-05-11,合同会社リライフ,,合同会社,埼玉県,三郷市,彦川戸１丁目１５１番地１レモネード２０２,,11,237,3410005,,,,,,,2022-05-11,1,,,,,リライフ,0
1548,5030003019393,新規,0,2022-05-11,2022-05-11,アクアプリータ合同会社,,合同会社,埼玉県,さいたま市見沼区,卸町１丁目２３番地,,11,104,3370004,,,,,,,2022-05-11,1,,,,,アクアプリータ,0
1552,5040001123254,新規,0,2022-05-11,2022-05-11,高騰株式会社,,株式会社,千葉県,市川市,新田３丁目５番３号－１Ｆ,,12,203,2720035,,,,,,,2022-05-11,1,,,,,コウトウ,0
1553,5040001123287,新規,0,2022-05-11,2022-05-11,ＭＲプランニング株式会社,,株式会社,千葉県,船橋市,湊町２丁目１１番２０－８０２号,,12,204,2730011,,,,,,,2022-05-11,1,,,,,エムアールプランニング,0
1554,5040001123337,新規,0,2022-05-11,2022-05-11,Ｕ．Ｅコンサルティング株式会社,,株式会社,千葉県,四街道市,大日１８８０－４,,12,228,2840001,,,,,,,2022-05-11,1,,,,,ユーイーコンサルティング,0
1555,5040001123345,新規,0,2022-05-11,2022-05-11,株式会社Ｉｎｆｉｎｉｔｙ．ＹＫ,,株式会社,千葉県,松戸市,本町１７番地の７,,12,207,2710091,,,,,,,2022-05-11,1,,,,,インフィニティワイケイ,0
1558,5040003019995,新規,0,2022-05-11,2022-05-11,合同会社喜正,,合同会社,千葉県,柏市,大津ケ丘３丁目１番地６棟３０５号,,12,217,2770921,,,,,,,2022-05-11,1,,,,,キショウ,0
1559,5040003020012,新規,0,2022-05-11,2022-05-11,合同会社ＨＡＴ,,合同会社,千葉県,市川市,南大野３丁目８番２５号,,12,203,2720804,,,,,,,2022-05-11,1,,,,,エイチエイティー,0
1561,5050001051009,新規,0,2022-05-11,2022-05-11,和合興業株式会社,,株式会社,茨城県,つくば市,北中妻３９６番２,,08,220,3050066,,,,,,,2022-05-11,1,,,,,ワゴウコウギョウ,0
1563,5050003006539,新規,0,2022-05-11,2022-05-11,合同会社ＳｏｕｔｈｅｒｎＦｏｒｕｍ,,合同会社,茨城県,つくば市,桜３丁目４番地１ルヴィオ１－１０５,,08,220,3050003,,,,,,,2022-05-11,1,,,,,サザンフォーラム,0
1569,5060001034862,新規,0,2022-05-11,2022-05-11,株式会社ＴＡＬＰＡ　ＪＡＰＡＮ,,株式会社,栃木県,宇都宮市,西川田町２７２番地１,,09,201,3210151,,,,,,,2022-05-11,1,,,,,タルパジャパン,0
1574,5060003004070,新規,0,2022-05-11,2022-05-11,合同会社ＲＡＳＩＢ,,合同会社,栃木県,栃木市,大平町富田大字栄町３９２－９マルベリーオオヒラ２０２号室,,09,203,3294404,,,,,,,2022-05-11,1,,,,,ラシブ,0
1575,5070001039225,新規,0,2022-05-11,2022-05-11,株式会社生方商会,,株式会社,群馬県,沼田市,町田町２９１番地２１,,10,206,3780062,,,,,,,2022-05-11,1,,,,,ウブカタショウカイ,0
1579,5080001024928,新規,0,2022-05-11,2022-05-11,株式会社ＹＫＫツーリスト,,株式会社,静岡県,静岡市葵区,鷹匠２丁目３番１６号ディーベル鷹匠２０１,,22,101,4200839,,,,,,,2022-05-11,1,,,,,ワイケーケーツーリスト,0
1583,5080103002583,新規,0,2022-05-11,2022-05-11,ＯＷＡＫＩ合同会社,,合同会社,静岡県,富士市,天間１０７９番地,,22,210,4190205,,,,,,,2022-05-11,1,,,,,オオワキ,0
1595,5100001035303,新規,0,2022-05-11,2022-05-11,株式会社珀,,株式会社,長野県,東筑摩郡朝日村,大字西洗馬１４８７番地１,,20,451,3901101,,,,,,,2022-05-11,1,,,,,ハク,0
1598,5110001036647,新規,0,2022-05-11,2022-05-11,株式会社Ｒ,,株式会社,新潟県,新潟市秋葉区,草水町１丁目１１番２２号,,15,105,9560833,,,,,,,2022-05-11,1,,,,,アール,0
1604,5110005016802,新規,0,2022-05-11,2022-05-11,一般社団法人宿根木を愛する会,,その他の設立登記法人,新潟県,佐渡市,宿根木４５６番地,,15,224,9520612,,,,,,,2022-05-11,1,,,,,シュクネギヲアイスルカイ,0
1617,5120001245610,新規,0,2022-05-11,2022-05-11,株式会社ミライ,,株式会社,大阪府,大阪市中央区,淡路町１丁目３番６号,,27,128,5410047,,,,,,,2022-05-11,1,,,,,ミライ,0
1618,5120001245734,新規,0,2022-05-11,2022-05-11,株式会社永貞,,株式会社,大阪府,大阪市西成区,北津守４丁目４番７５－７８号,,27,122,5570061,,,,,,,2022-05-11,1,,,,,エイテイ,0
1619,5120001245791,新規,0,2022-05-11,2022-05-11,株式会社ユニバース,,株式会社,大阪府,大阪市中央区,宗右衛門町１番１３号クリスタルビル５階,,27,128,5420084,,,,,,,2022-05-11,1,,,,,ユニバース,0
1620,5120001245858,新規,0,2022-05-11,2022-05-11,ＢＬＵＥ　Ｄｉａｍｏｎｄ株式会社,,株式会社,大阪府,大阪市北区,梅田１丁目２番２号大阪駅前第２ビル２階５‐６,,27,127,5300001,,,,,,,2022-05-11,1,,,,,ブルーダイヤモンド,0
1629,5120101065561,新規,0,2022-05-11,2022-05-11,株式会社ＵＳＥＲ,,株式会社,大阪府,藤井寺市,藤ケ丘２丁目６番１２号,,27,226,5830017,,,,,,,2022-05-11,1,,,,,ユーザー,0
1631,5120103004682,新規,0,2022-05-11,2022-05-11,合同会社和泉屋,,合同会社,大阪府,堺市堺区,今池町５丁３番１６号,,27,141,5900018,,,,,,,2022-05-11,1,,,,,イズミヤ,0
1636,5122001035842,新規,0,2022-05-11,2022-05-11,浩栄電設株式会社,,株式会社,大阪府,柏原市,片山町１３番６１号,,27,221,5820020,,,,,,,2022-05-11,1,,,,,コウエイデンセツ,0
1637,5122001035859,新規,0,2022-05-11,2022-05-11,株式会社建築工房棟梁,,株式会社,大阪府,東大阪市,出雲井本町８番２４号,,27,227,5798034,,,,,,,2022-05-11,1,,,,,ケンチクコウボウトウリョウ,0
1638,5130001071717,新規,0,2022-05-11,2022-05-11,株式会社蓮建,,株式会社,京都府,八幡市,八幡御幸谷３番地の１０,,26,210,6148044,,,,,,,2022-05-11,1,,,,,ハスケン,0
1639,5130001071733,新規,0,2022-05-11,2022-05-11,株式会社織鈴,,株式会社,京都府,京都市伏見区,深草泓ノ壺町１０番地３コーポ清水１０３,,26,109,6128435,,,,,,,2022-05-11,1,,,,,オリスズ,0
1650,5140001125884,新規,0,2022-05-11,2022-05-11,株式会社マプリ,,株式会社,兵庫県,姫路市,辻井８丁目２番１７号,00126530,28,201,6700083,,,,,,,2022-05-11,1,,,,,マプリ,0
1652,5140003017650,新規,0,2022-05-11,2022-05-11,ＴＯＭｂｉｚ合同会社,,合同会社,兵庫県,神戸市兵庫区,上三条町４番１４号ヴィラージュ上三条３０２,,28,105,6520013,,,,,,,2022-05-11,1,,,,,トムビズ,0
1654,5150001025497,新規,0,2022-05-11,2022-05-11,止一株式会社,,株式会社,奈良県,奈良市,横井３丁目１７５番地１０３号室,,29,201,6308422,,,,,,,2022-05-11,1,,,,,シイツ,0
1655,5150001025522,新規,0,2022-05-11,2022-05-11,株式会社リズエイト,,株式会社,奈良県,宇陀市,榛原ひのき坂３丁目１４番地の１,,29,212,6330251,,,,,,,2022-05-11,1,,,,,リズエイト,0
1663,5180001151209,新規,0,2022-05-11,2022-05-11,株式会社Ｋ,,株式会社,愛知県,半田市,花田町２丁目１２番地,,23,205,4750088,,,,,,,2022-05-11,1,,,,,ケイ,0
1664,5180001151290,新規,0,2022-05-11,2022-05-11,マル伊トラスト株式会社,,株式会社,愛知県,知多郡南知多町,大字片名字新師崎１１番地の２,,23,445,4703502,,,,,,,2022-05-11,1,,,,,マルイトラスト,0
1668,5180003023827,新規,0,2022-05-11,2022-05-11,合同会社孝心,,合同会社,愛知県,名古屋市守山区,川上町１３２番地,,23,113,4630091,,,,,,,2022-05-11,1,,,,,コウシン,0
1669,5180003023835,新規,0,2022-05-11,2022-05-11,合同会社東海エステート,,合同会社,愛知県,一宮市,栄１丁目２番１０－５０１号,,23,203,4910858,,,,,,,2022-05-11,1,,,,,トウカイエステート,0
1672,5190001029395,新規,0,2022-05-11,2022-05-11,株式会社長嶋運送,,株式会社,三重県,亀山市,亀田町３３６番地の３亀山マンションＢ－１１６,,24,210,5190163,,,,,,,2022-05-11,1,,,,,ナガシマウンソウ,0
1674,5190003003968,新規,0,2022-05-11,2022-05-11,ＡＨＡＳＡ　ＥＮＴＥＲＰＲＩＳＥＳ合同会社,,合同会社,三重県,桑名市,大字西別所２１３８番地１４７,,24,205,5110851,,,,,,,2022-05-11,1,,,,,アハサエンタープライゼズ,0
1675,5190003003976,新規,0,2022-05-11,2022-05-11,合同会社メイアンドマイ,,合同会社,三重県,桑名市,大字大福３５４番地和の家Ｂ棟１号,,24,205,5110834,,,,,,,2022-05-11,1,,,,,メイアンドマイ,0
1677,5200003005558,新規,0,2022-05-11,2022-05-11,合同会社岐阜県経済研究所,,合同会社,岐阜県,岐阜市,長良７１４－１,,21,201,5020071,,,,,,,2022-05-11,1,,,,,ギフケンケイザイケンキュウジョ,0
1678,5210001018924,新規,0,2022-05-11,2022-05-11,ａｍｉｔｅ株式会社,,株式会社,福井県,福井市,大手１丁目１７番１４号,,18,201,9100005,,,,,,,2022-05-11,1,,,,,アミテ,0
1697,5250003003061,新規,0,2022-05-11,2022-05-11,ＭＳＣ合同会社,,合同会社,山口県,山口市,維新公園１丁目７番１１号Ａ２０１,,35,203,7530815,,,,,,,2022-05-11,1,,,,,エムエスシー,0
1699,5270001008515,新規,0,2022-05-11,2022-05-11,株式会社モリスホーム,,株式会社,鳥取県,倉吉市,河原町１７７０番地,,31,203,6820924,,,,,,,2022-05-11,1,,,,,モリスホーム,0
1707,5290001097399,新規,0,2022-05-11,2022-05-11,株式会社ＬＥＴＧＯＳ,,株式会社,福岡県,福岡市中央区,大名２丁目１０番１号シャンボール大名Ａ棟３階,,40,133,8100041,,,,,,,2022-05-11,1,,,,,レゴーズ,0
1708,5290001097416,新規,0,2022-05-11,2022-05-11,株式会社ＦＬＥＸ,,株式会社,福岡県,那珂川市,大字西畑４３２番地１６,,40,231,8111246,,,,,,,2022-05-11,1,,,,,フレックス,0
1712,5290801028529,新規,0,2022-05-11,2022-05-11,株式会社増田工業,,株式会社,福岡県,田川郡福智町,伊方４０１２番地２,,40,610,8221211,,,,,,,2022-05-11,1,,,,,マスダコウギョウ,0
1730,5370001048526,新規,0,2022-05-11,2022-05-11,株式会社ジェーピーオートメーション,,株式会社,宮城県,仙台市青葉区,台原３丁目１０番１０号,,04,101,9810911,,,,,,,2022-05-11,1,,,,,ジェーピーオートメーション,0
1731,5370001048542,新規,0,2022-05-11,2022-05-11,株式会社かたひら,,株式会社,宮城県,東松島市,赤井字寺４２番地４０,,04,214,9810501,,,,,,,2022-05-11,1,,,,,カタヒラ,0
1732,5370001048550,新規,0,2022-05-11,2022-05-11,リスタート株式会社,,株式会社,宮城県,仙台市青葉区,郷六字屋敷４－２２,,04,101,9893121,,,,,,,2022-05-11,1,,,,,リスタート,0
1737,5380001032784,新規,0,2022-05-11,2022-05-11,株式会社青松,,株式会社,福島県,郡山市,安積４丁目２２２番地,,07,203,9630107,,,,,,,2022-05-11,1,,,,,アオマツ,0
1738,5380001032792,新規,0,2022-05-11,2022-05-11,株式会社京和,,株式会社,福島県,南相馬市,原町区本町１丁目６２番地,,07,212,9750008,,,,,,,2022-05-11,1,,,,,キョウワ,0
1741,5380005012584,新規,0,2022-05-11,2022-05-11,一般社団法人地域ヘルスケアＤＸコンソーシアム,,その他の設立登記法人,福島県,会津若松市,表町１番４８号,,07,202,9650831,,,,,,,2022-05-11,1,,,,,チイキヘルスケアディーエックスコンソーシアム,0
1747,5410003003656,新規,0,2022-05-11,2022-05-11,七滝小水力合同会社,,合同会社,秋田県,鹿角郡小坂町,荒谷字上ノ平２７－１,,05,303,0170204,,,,,,,2022-05-11,1,,,,,ナナタキショウスイリョク,0
1755,5430001086577,新規,0,2022-05-11,2022-05-11,Ｆｏｕｒ　ｓｏｕｔｈ株式会社,,株式会社,北海道,札幌市手稲区,前田三条９丁目４番１５号,,01,109,0060813,,,,,,,2022-05-11,1,,,,,フォーサウス,0
1757,5430003013868,新規,0,2022-05-11,2022-05-11,合同会社福因福果,,合同会社,北海道,札幌市中央区,南八条西１６丁目３番８号ラ・コリーヌＢ１Ｆ,,01,101,0640808,,,,,,,2022-05-11,1,,,,,フクインフッカ,0
1761,5460105002238,新規,0,2022-05-11,2022-05-11,一般社団法人十勝プラス,,その他の設立登記法人,北海道,河西郡芽室町,東五条４丁目６番地２２サニーサイド１０３号室,,01,637,0820015,,,,,,,2022-05-11,1,,,,,トカチプラス,0
1763,5462501000931,新規,0,2022-05-11,2022-05-11,株式会社オアシス武佐ＤＫ,,株式会社,北海道,標津郡中標津町,字武佐二十一線８５番地１,,01,692,0861271,,,,,,,2022-05-11,1,,,,,オアシスムサディーケー,0
1765,5470001019062,新規,0,2022-05-11,2022-05-11,株式会社秘蜜結社,,株式会社,香川県,高松市,屋島西町２４５３番地３３,,37,201,7610113,,,,,,,2022-05-11,1,,,,,ヒミツケッシャ,0
1776,5700150104830,新規,0,2022-05-11,2021-09-21,Ｅｌｙｍｕｓｉａ,,その他,愛知県,名古屋市南区,桜台１丁目１４－２５第３菊屋ビル８Ｄ,,23,112,4570005,,,,,,,2021-09-21,1,,,,,エリミユジア,0
1778,5700150108294,新規,0,2022-05-11,2022-04-22,寒川観光振興会,,その他,新潟県,村上市,寒川４１５,,15,212,9593653,,,,,,,2022-04-22,1,,,,,カンガワカンコウシンコウカイ,0
1779,5700150108303,新規,0,2022-05-11,2022-04-25,ワイヤレス電力伝送運用調整協議会,,その他,神奈川県,横須賀市,光の丘３－４一般社団法人ＹＲＰ研究開発推進協会内,,14,201,2390847,,,,,,,2022-04-25,1,,,,,ワイヤレスデンリヨクデンソウウンヨウチヨウセイキヨウギカイ,0
1795,6010001226430,新規,0,2022-05-11,2022-05-11,イーワンスタイル株式会社,,株式会社,東京都,中央区,日本橋３丁目２番１４号新槇町ビル別館第一２階,,13,102,1030027,,,,,,,2022-05-11,1,,,,,イーワンスタイル,0
1796,6010001226505,新規,0,2022-05-11,2022-05-11,株式会社ハイパーデジタルツイン,,株式会社,東京都,中央区,日本橋２丁目１番１７号丹生ビル２階,,13,102,1030027,,,,,,,2022-05-11,1,,,,,ハイパーデジタルツイン,0
1797,6010001226513,新規,0,2022-05-11,2022-05-11,株式会社Ｓａｆａｒｉ　Ｓｔａｒ,,株式会社,東京都,中央区,日本橋本石町２丁目１－１アスパ日本橋オフィス,,13,102,1030021,,,,,,,2022-05-11,1,,,,,サファリスター,0
1798,6010001226521,新規,0,2022-05-11,2022-05-11,株式会社ＣＨ,,株式会社,東京都,千代田区,丸の内３丁目１番１号東京共同会計事務所内,,13,101,1000005,,,,,,,2022-05-11,1,,,,,シーエイチ,0
1800,6010003037611,新規,0,2022-05-11,2022-05-11,合同会社Ｌｉｔａ　Ｓｔｙｌｅ,,合同会社,東京都,中央区,銀座１丁目２２番１１号銀座大竹ビジデンス２階,,13,102,1040061,,,,,,,2022-05-11,1,,,,,リタスタイル,0
1801,6010003037636,新規,0,2022-05-11,2022-05-11,ＧＩＮＺＡ３合同会社,,合同会社,東京都,中央区,日本橋１丁目４番１号日本橋一丁目ビルディング,,13,102,1030027,,,,,,,2022-05-11,1,,,,,ギンザスリー,0
1802,6010003037652,新規,0,2022-05-11,2022-05-11,Ｉｓｏｎｏメディカルコンサルティング合同会社,,合同会社,東京都,文京区,本駒込６丁目１１番２２号,,13,105,1130021,,,,,,,2022-05-11,1,,,,,イソノメディカルコンサルティング,0
1817,6010401167150,新規,0,2022-05-11,2022-05-11,株式会社Ｎｕｉ,,株式会社,東京都,港区,南青山３丁目１５－９ＭＩＮＯＷＡ表参道３Ｆ－２０３,,13,103,1070062,,,,,,,2022-05-11,1,,,,,ヌイ,0
1820,6010403027609,新規,0,2022-05-11,2022-05-11,ＥＳＲ３０合同会社,,合同会社,東京都,港区,浜松町１丁目２０番１０号ライオネス浜松町５０６号室,,13,103,1050013,,,,,,,2022-05-11,1,,,,,イーエスアールサンジュウ,0
1822,6010405020982,新規,0,2022-05-11,2022-05-11,ＥＳＲ２８・２一般社団法人,,その他の設立登記法人,東京都,港区,浜松町１丁目２０番１０号ライオネス浜松町５０６号室,,13,103,1050013,,,,,,,2022-05-11,1,,,,,イーエスアールニジュウハチニ,0
1827,6010501048820,新規,0,2022-05-11,2022-05-11,株式会社杉宮ＦＣＳ,,株式会社,東京都,台東区,下谷２丁目２１番８号,,13,106,1100004,,,,,,,2022-05-11,1,,,,,スギミヤエフシーエス,0
1832,6010601061120,新規,0,2022-05-11,2022-05-11,株式会社Ｂｒｉｔｅｘ　ＪＰ,,株式会社,東京都,江東区,住吉２丁目５番１９号,,13,108,1350002,,,,,,,2022-05-11,1,,,,,ブリテックスジェーピー,0
1833,6010603009522,新規,0,2022-05-11,2022-05-11,合同会社トリア,,合同会社,東京都,江東区,富岡１丁目８番５－５０５号,,13,108,1350047,,,,,,,2022-05-11,1,,,,,トリア,0
1838,6010703006205,新規,0,2022-05-11,2022-05-11,沁合同会社,,合同会社,東京都,品川区,東五反田２丁目３－２,,13,109,1410022,,,,,,,2022-05-11,1,,,,,シン,0
1840,6010901050822,新規,0,2022-05-11,2022-05-11,株式会社ラトル,,株式会社,東京都,世田谷区,玉堤１丁目２２番１９－２０４号,,13,112,1580087,,,,,,,2022-05-11,1,,,,,ラトル,0
1841,6010901050847,新規,0,2022-05-11,2022-05-11,株式会社プラスコネクト,,株式会社,東京都,世田谷区,世田谷４丁目５番８－２０１号,,13,112,1540017,,,,,,,2022-05-11,1,,,,,プラスコネクト,0
1846,6011001147393,新規,0,2022-05-11,2022-05-11,株式会社ＢＲＩＧＨＴ,,株式会社,東京都,渋谷区,神宮前２丁目３０番９号エスパティオ２０２,,13,113,1500001,,,,,,,2022-05-11,1,,,,,ブライト,0
1847,6011001147419,新規,0,2022-05-11,2022-05-11,株式会社ワクワクファクトリー,,株式会社,東京都,渋谷区,恵比寿南１丁目１番４号恵比寿スカイビル４階,,13,113,1500022,,,,,,,2022-05-11,1,,,,,ワクワクファクトリー,0
1849,6011005009573,新規,0,2022-05-11,2022-05-11,一般社団法人日本頭皮診断協会,,その他の設立登記法人,東京都,渋谷区,神宮前６丁目１９番２１号,,13,113,1500001,,,,,,,2022-05-11,1,,,,,ニホントウヒシンダンキョウカイ,0
1856,6011301027766,新規,0,2022-05-11,2022-05-11,株式会社Ｔ＆Ｒ,,株式会社,東京都,杉並区,高円寺南４丁目１４番５号,,13,115,1660003,,,,,,,2022-05-11,1,,,,,ティーアンドアール,0
1861,6011501028028,新規,0,2022-05-11,2022-05-11,株式会社メタライフ,,株式会社,東京都,荒川区,東尾久４丁目４６番１２号,,13,118,1160012,,,,,,,2022-05-11,1,,,,,メタライフ,0
1864,6011503005157,新規,0,2022-05-11,2022-05-11,誠合同会社,,合同会社,東京都,北区,王子１丁目２－３杉本ビル２０１,,13,117,1140002,,,,,,,2022-05-11,1,,,,,マコト,0
1868,6011601025932,新規,0,2022-05-11,2022-05-11,株式会社スタイルクルーズ,,株式会社,東京都,練馬区,氷川台３丁目７番４－３０３号,,13,120,1790084,,,,,,,2022-05-11,1,,,,,スタイルクルーズ,0
1871,6012305002012,新規,0,2022-05-11,2022-05-11,一般社団法人ＴＲＩＡＮＥＬＬＯ,,その他の設立登記法人,東京都,町田市,大蔵町３０７番地１Ｍａｉｓｏｎ　Ａｐｐｒｉｓ２０７,,13,209,1950062,,,,,,,2022-05-11,1,,,,,トリアネーロ,0
1872,6012703002456,新規,0,2022-05-11,2022-05-11,合同会社オフィスアイリ,,合同会社,東京都,清瀬市,松山２丁目１２－４メゾンドマキ２０２,,13,221,2040022,,,,,,,2022-05-11,1,,,,,オフィスアイリ,0
1875,6012801021548,新規,0,2022-05-11,2022-05-11,エム・ケー青梅ＰＪ株式会社,,株式会社,東京都,日野市,大坂上１丁目３０番地２８ＭＫビル,,13,212,1910061,,,,,,,2022-05-11,1,,,,,エムケーオウメプロジェクト,0
1876,6012801021556,新規,0,2022-05-11,2022-05-11,株式会社Ｔｒｕｓｔ　Ｏｎｅ,,株式会社,東京都,国立市,東３丁目５番地６、１階,,13,215,1860002,,,,,,,2022-05-11,1,,,,,トラストワン,0
1879,6013301049063,新規,0,2022-05-11,2022-05-11,株式会社ＦＯＲＣＥ,,株式会社,東京都,豊島区,南大塚３丁目３２番９号西島ビル７階,,13,116,1700005,,,,,,,2022-05-11,1,,,,,フォース,0
1880,6013301049071,新規,0,2022-05-11,2022-05-11,株式会社ブルーブラックカンパニー,,株式会社,東京都,豊島区,上池袋２丁目７番１３号,,13,116,1700012,,,,,,,2022-05-11,1,,,,,ブルーブラックカンパニー,0
1881,6013303006145,新規,0,2022-05-11,2022-05-11,エムワイ合同会社,,合同会社,東京都,豊島区,長崎１丁目４番８－５０１号,,13,116,1710051,,,,,,,2022-05-11,1,,,,,エムワイ,0
1885,6020001146396,新規,0,2022-05-11,2022-05-11,株式会社ＳＴＩＲ,,株式会社,神奈川県,横浜市保土ケ谷区,川辺町３番地１Ｄ－４０９号室,,14,106,2400001,,,,,,,2022-05-11,1,,,,,ステア,0
1886,6020001146405,新規,0,2022-05-11,2022-05-11,株式会社大栄,,株式会社,神奈川県,横浜市戸塚区,秋葉町４８７番地３１,,14,110,2450052,,,,,,,2022-05-11,1,,,,,ダイエイ,0
1896,6020003021746,新規,0,2022-05-11,2022-05-11,合同会社ＭＯＶＥＭＥＮＴ　ＰＲＯＤＵＣＴＩＯＮ,,合同会社,神奈川県,川崎市高津区,末長１丁目４１番１１－２０３号,,14,134,2130013,,,,,,,2022-05-11,1,,,,,ムーブメントプロダクション,0
1897,6020003021754,新規,0,2022-05-11,2022-05-11,合同会社ＩＮＳＰＩＲＥ,,合同会社,神奈川県,横浜市港北区,菊名５丁目１番６号アイビービル４０２号,,14,109,2220011,,,,,,,2022-05-11,1,,,,,インスパイヤ,0
1899,6021001075866,新規,0,2022-05-11,2022-05-11,株式会社ワイズ,,株式会社,神奈川県,小田原市,成田７０６番地の８シティハイムハウスＭ３、１０３号,,14,206,2500862,,,,,,,2022-05-11,1,,,,,ワイズ,0
1900,6021001075874,新規,0,2022-05-11,2022-05-11,株式会社トータルオフィス,,株式会社,神奈川県,足柄下郡湯河原町,門川４５番地の１,,14,384,2590302,,,,,,,2022-05-11,1,,,,,トータルオフィス,0
1901,6021001075890,新規,0,2022-05-11,2022-05-11,株式会社県央サービス,,株式会社,神奈川県,高座郡寒川町,大曲３丁目２０番１号,,14,321,2530113,,,,,,,2022-05-11,1,,,,,ケンオウサービス,0
1902,6021001075899,新規,0,2022-05-11,2022-05-11,株式会社ＢＡＮＥ,,株式会社,神奈川県,相模原市南区,南台１丁目７番１４号,,14,153,2520314,,,,,,,2022-05-11,1,,,,,バネ,0
1903,6021001075916,新規,0,2022-05-11,2022-05-11,株式会社ＯＮ,,株式会社,神奈川県,逗子市,久木８丁目１９番１５号,,14,208,2490001,,,,,,,2022-05-11,1,,,,,オン,0
1904,6021001075924,新規,0,2022-05-11,2022-05-11,株式会社リライアブルカンパニー,,株式会社,神奈川県,大和市,深見西４丁目７番３１号,,14,213,2420018,,,,,,,2022-05-11,1,,,,,リライアブルカンパニー,0
1905,6021001075940,新規,0,2022-05-11,2022-05-11,株式会社ヴィジュアルアンドリアルデザイン,,株式会社,神奈川県,相模原市緑区,橋本３丁目２７－６,,14,151,2520143,,,,,,,2022-05-11,1,,,,,ヴィジュアルアンドリアルデザイン,0
1908,6021003011679,新規,0,2022-05-11,2022-05-11,合同会社エム・オー・ラボ,,合同会社,神奈川県,藤沢市,片瀬３６０番地の９Ａ３０９,,14,205,2510032,,,,,,,2022-05-11,1,,,,,エムオーラボ,0
1916,6030001148053,新規,0,2022-05-11,2022-05-11,株式会社ラブリーワン,,株式会社,埼玉県,秩父市,大野原２３６３番地１,,11,207,3680005,,,,,,,2022-05-11,1,,,,,ラブリーワン,0
1917,6030001148078,新規,0,2022-05-11,2022-05-11,株式会社遠藤工業,,株式会社,埼玉県,加須市,旗井１丁目２０番地２８,,11,210,3491132,,,,,,,2022-05-11,1,,,,,エンドウコウギョウ,0
1918,6030001148086,新規,0,2022-05-11,2022-05-11,株式会社あずまえん自動車教習所,,株式会社,埼玉県,新座市,堀ノ内２丁目１番４６号,,11,230,3520023,,,,,,,2022-05-11,1,,,,,アズマエンジドウシャキョウシュウジョ,0
1919,6030001148111,新規,0,2022-05-11,2022-05-11,株式会社Ｃａｖａ,,株式会社,埼玉県,秩父市,大野原２００－５２,,11,207,3680005,,,,,,,2022-05-11,1,,,,,カーバ,0
1920,6030001148136,新規,0,2022-05-11,2022-05-11,活石株式会社,,株式会社,埼玉県,本庄市,寿３丁目２－１,,11,211,3670023,,,,,,,2022-05-11,1,,,,,カツセキ,0
1921,6030001148144,新規,0,2022-05-11,2022-05-11,株式会社Ｆｏｒｖｉｔａｓ,,株式会社,埼玉県,さいたま市大宮区,大成町２丁目３５７番地１０,,11,103,3300852,,,,,,,2022-05-11,1,,,,,,0
1922,6030001148160,新規,0,2022-05-11,2022-05-11,株式会社アセットレイズ,,株式会社,埼玉県,さいたま市見沼区,大字丸ヶ崎２０５０番地７,,11,104,3370001,,,,,,,2022-05-11,1,,,,,アセットレイズ,0
1923,6030001148169,新規,0,2022-05-11,2022-05-11,株式会社サードプレイス,,株式会社,埼玉県,さいたま市大宮区,仲町１丁目１１９番地１,,11,103,3300845,,,,,,,2022-05-11,1,,,,,サードプレイス,0
1937,6040001123261,新規,0,2022-05-11,2022-05-11,株式会社ラテラルアーク,,株式会社,千葉県,四街道市,栗山９７７番地,,12,228,2840027,,,,,,,2022-05-11,1,,,,,ラテラルアーク,0
1938,6040001123286,新規,0,2022-05-11,2022-05-11,株式会社シェルズ,,株式会社,千葉県,茂原市,大芝１８５番地１７,,12,210,2970033,,,,,,,2022-05-11,1,,,,,シェルズ,0
1939,6040001123294,新規,0,2022-05-11,2022-05-11,Ｔ＆Ｔ電工株式会社,,株式会社,千葉県,千葉市花見川区,検見川町５丁目２４１０番地１,,12,102,2620023,,,,,,,2022-05-11,1,,,,,ティーアンドティーデンコウ,0
1940,6040001123303,新規,0,2022-05-11,2022-05-11,株式会社ＦＢＰ,,株式会社,千葉県,長生郡長生村,北水口５５９番地１８,,12,423,2994337,,,,,,,2022-05-11,1,,,,,エフビーピー,0
1941,6040001123336,新規,0,2022-05-11,2022-05-11,株式会社輝月,,株式会社,千葉県,松戸市,常盤平５丁目３番地の７田村マンション１０２号,,12,207,2702261,,,,,,,2022-05-11,1,,,,,キヅキ,0
1945,6040003019994,新規,0,2022-05-11,2022-05-11,スペースおにぎりゲーム合同会社,,合同会社,千葉県,八街市,八街ろ５８番地９４,,12,230,2891144,,,,,,,2022-05-11,1,,,,,スペースオニギリゲーム,0
1946,6050003006538,新規,0,2022-05-11,2022-05-11,合同会社ニジン商会,,合同会社,茨城県,つくば市,梅園２丁目１－１５スプリングテックつくばビル４０１,,08,220,3050045,,,,,,,2022-05-11,1,,,,,ニジンショウカイ,0
1947,6060001034812,新規,0,2022-05-11,2022-05-11,株式会社ＨＡＮＤＹ,,株式会社,栃木県,宇都宮市,二荒町５番２号ＳＡＫＡＩビル,,09,201,3200804,,,,,,,2022-05-11,1,,,,,ハンディ,0
1948,6060001034829,新規,0,2022-05-11,2022-05-11,花塚防災株式会社,00126518,株式会社,栃木県,那須塩原市,上厚崎３７７番地３９,,09,213,3250026,,,,,,,2022-05-11,1,,,,,ハナツカボウサイ,0
1949,6060001034845,新規,0,2022-05-11,2022-05-11,株式会社ＡＯＴ,,株式会社,栃木県,下野市,柴１１２０番地２１,,09,216,3290412,,,,,,,2022-05-11,1,,,,,エーオーティー,0
1950,6060001034861,新規,0,2022-05-11,2022-05-11,株式会社塙創建,,株式会社,栃木県,芳賀郡益子町,大字塙２３６３－２１,,09,342,3214216,,,,,,,2022-05-11,1,,,,,ハナワソウケン,0
1952,6060005009983,新規,0,2022-05-11,2022-05-11,一般社団法人タスカル,,その他の設立登記法人,栃木県,芳賀郡益子町,大字七井２４９４番地１,,09,342,3214106,,,,,,,2022-05-11,1,,,,,タスカル,0
1953,6080001024927,新規,0,2022-05-11,2022-05-11,株式会社ダイニチ,,株式会社,静岡県,静岡市清水区,辻１丁目９番３０号,00126531,22,103,4240806,,,,,,,2022-05-11,1,,,,,ダイニチ,0
1956,6080101023267,新規,0,2022-05-11,2022-05-11,Ｆ　ｔｒａｎｓｐｏｒｔ株式会社,,株式会社,静岡県,沼津市,大諏訪７１７番地の２,,22,203,4100873,,,,,,,2022-05-11,1,,,,,エフトランスポート,0
1977,6120001245626,新規,0,2022-05-11,2022-05-11,ｅスタジアム株式会社,,株式会社,大阪府,大阪市中央区,難波５丁目１番６０号,,27,128,5420076,,,,,,,2022-05-11,1,,,,,イースタジアム,0
1978,6120001245808,新規,0,2022-05-11,2022-05-11,株式会社正芳商会,,株式会社,大阪府,大阪市西区,江戸堀３丁目６－２５朝日プラザ江戸堀１０３号,,27,106,5500002,,,,,,,2022-05-11,1,,,,,セイホウショウカイ,0
1979,6120001245824,新規,0,2022-05-11,2022-05-11,株式会社２９商事,,株式会社,大阪府,大阪市淀川区,西中島６丁目５番３号サムティフェイム新大阪１号館８１５号,,27,123,5320011,,,,,,,2022-05-11,1,,,,,ニキュウショウジ,0
1980,6120001245849,新規,0,2022-05-11,2022-05-11,株式会社今井,,株式会社,大阪府,大阪市西区,新町１丁目７－３戎四ツ橋ビル９０３号,,27,106,5500013,,,,,,,2022-05-11,1,,,,,イマイ,0
1987,6120003021653,新規,0,2022-05-11,2022-05-11,Ｂｕｉｌｄｉｎｇ　Ｂｌｏｃｋｓ合同会社,,合同会社,大阪府,大阪市西区,北堀江２丁目４番１１号サンライズビル１０階２３号室,,27,106,5500014,,,,,,,2022-05-11,1,,,,,ビルディングブロックス,0
1990,6120101065536,新規,0,2022-05-11,2022-05-11,株式会社ビクトグレス,,株式会社,大阪府,泉南市,信達大苗代１１２５番地,,27,228,5900505,,,,,,,2022-05-11,1,,,,,ビクトグレス,0
1991,6120101065544,新規,0,2022-05-11,2022-05-11,株式会社ＮｅｗＹｏｒｋ　ＮｅｗＹｏｒｋ,,株式会社,大阪府,堺市西区,鳳南町２丁１６８番地１０,,27,144,5938325,,,,,,,2022-05-11,1,,,,,ニューヨークニューヨーク,0
1992,6120101065569,新規,0,2022-05-11,2022-05-11,株式会社賢勇技建,,株式会社,大阪府,堺市東区,草尾５７５番地１クレインストリート松本４０１号,,27,143,5998127,,,,,,,2022-05-11,1,,,,,ケンユウギケン,0
1997,6120901045943,新規,0,2022-05-11,2022-05-11,株式会社ニーケーハウジング,,株式会社,大阪府,吹田市,元町７番９号,,27,205,5640031,,,,,,,2022-05-11,1,,,,,ニーケーハウジング,0
1998,6122001035858,新規,0,2022-05-11,2022-05-11,株式会社日星商事,,株式会社,大阪府,八尾市,安中町６丁目１２－２３－Ａ,,27,212,5810085,,,,,,,2022-05-11,1,,,,,ニッセイショウジ,0
1999,6122003002336,新規,0,2022-05-11,2022-05-11,合同会社Ｐａｍ,,合同会社,大阪府,大東市,野崎２丁目８番３５号,,27,218,5740015,,,,,,,2022-05-11,1,,,,,パム,0
2001,6130001071708,新規,0,2022-05-11,2022-05-11,株式会社ＰＷ,,株式会社,京都府,京都市上京区,大宮通今出川下る薬師町２２５番地（５０４号）,,26,102,6028442,,,,,,,2022-05-11,1,,,,,ピーダブル,0
2002,6130001071724,新規,0,2022-05-11,2022-05-11,株式会社ＨＩＲＯ,,株式会社,京都府,京都市伏見区,日野野色町５３番地２４,,26,109,6011415,,,,,,,2022-05-11,1,,,,,ヒーロー,0
2004,6130005016477,新規,0,2022-05-11,2022-05-11,一般社団法人京都文化観光資源活用研究所,,その他の設立登記法人,京都府,京都市東山区,大和大路一丁目５３３番地３,,26,105,6050000,,,,,,,2022-05-11,1,,,,,キョウトブンカカンコウシゲンカツヨウケンキュウショ,0
2009,6140001125933,新規,0,2022-05-11,2022-05-11,株式会社ハーモニアス計算センター,,株式会社,兵庫県,加古川市,加古川町粟津５７０番地,,28,210,6750039,,,,,,,2022-05-11,1,,,,,ハーモニアスケイサンセンター,0
2010,6140001125941,新規,0,2022-05-11,2022-05-11,Ｉｓａｋａ＆Ａｓｓｏｃｉａｔｅｓ株式会社,,株式会社,兵庫県,西宮市,羽衣町７番３０号夙川グリーンタウン３階,,28,204,6620051,,,,,,,2022-05-11,1,,,,,イサカアンドアソシエイツ,0
2011,6140001125958,新規,0,2022-05-11,2022-05-11,株式会社芦田建工,00126532,株式会社,兵庫県,丹波市,春日町石才４８番地,,28,223,6693413,,,,,,,2022-05-11,1,,,,,アシダケンコウ,0
2015,6150001025521,新規,0,2022-05-11,2022-05-11,ＡＮＳ株式会社,,株式会社,奈良県,奈良市,三碓５丁目１１番１８号,,29,201,6310061,,,,,,,2022-05-11,1,,,,,エーエヌエス,0
2020,6180001151117,新規,0,2022-05-11,2022-05-11,株式会社ＧＹＭ７６,,株式会社,愛知県,名古屋市東区,泉２丁目１３番１０号,,23,102,4610001,,,,,,,2022-05-11,1,,,,,ジムナナロク,0
2021,6180001151174,新規,0,2022-05-11,2022-05-11,株式会社龍徳太陽光発電所,,株式会社,愛知県,名古屋市東区,相生町８３番地,,23,102,4610012,,,,,,,2022-05-11,1,,,,,リュウトクタイヨウコウハツデンショ,0
2022,6180001151182,新規,0,2022-05-11,2022-05-11,株式会社中部メディカルサービス,,株式会社,愛知県,一宮市,奥町字蘇東５５番地,,23,203,4910201,,,,,,,2022-05-11,1,,,,,チュウブメディカルサービス,0
2023,6180001151199,新規,0,2022-05-11,2022-05-11,株式会社ロジソフト,,株式会社,愛知県,名古屋市東区,黒門町６９番地の１７,,23,102,4610035,,,,,,,2022-05-11,1,,,,,ロジソフト,0
2026,6180003023818,新規,0,2022-05-11,2022-05-11,こびと活動合同会社,,合同会社,愛知県,江南市,古知野町宮前１１５番地,,23,217,4838276,,,,,,,2022-05-11,1,,,,,コビトカツドウ,0
2027,6180003023826,新規,0,2022-05-11,2022-05-11,合同会社Ｂ＆Ｂ,,合同会社,愛知県,名古屋市中村区,太閤１丁目１９番１号（スクエア太閤１０２号）,,23,105,4530801,,,,,,,2022-05-11,1,,,,,ビーアンドビー,0
2032,6190003003975,新規,0,2022-05-11,2022-05-11,合同会社楽来‐る,,合同会社,三重県,志摩市,阿児町鵜方４９５６番地,,24,215,5170501,,,,,,,2022-05-11,1,,,,,ラクール,0
2037,6210001018915,新規,0,2022-05-11,2022-05-11,高岡創建株式会社,00126529,株式会社,福井県,福井市,加茂河原２丁目２０番１５号,,18,201,9188057,,,,,,,2022-05-11,1,,,,,タカオカソウケン,0
2038,6210001018923,新規,0,2022-05-11,2022-05-11,株式会社オーシャンクイーン,,株式会社,福井県,福井市,蒲生町第２号２８番地１,,18,201,9103553,,,,,,,2022-05-11,1,,,,,オーシャンクイーン,0
2046,6240001059725,新規,0,2022-05-11,2022-05-11,株式会社４,,株式会社,広島県,広島市中区,八丁堀３番８号ハイネス白峯ビル４０２,,34,101,7300013,,,,,,,2022-05-11,1,,,,,ヨン,0
2047,6240001059741,新規,0,2022-05-11,2022-05-11,株式会社ＭＡＹＣＥ,,株式会社,広島県,広島市中区,紙屋町１丁目５番６号宮川ビル１Ｆ,,34,101,7300031,,,,,,,2022-05-11,1,,,,,メイス,0
2060,6250001019554,新規,0,2022-05-11,2022-05-11,株式会社石丸工業,,株式会社,山口県,周南市,大字徳山５８４０－５ウォールデン２１Ｄ棟Ｂ,,35,215,7450851,,,,,,,2022-05-11,1,,,,,イシマルコウギョウ,0
2065,6270001008514,新規,0,2022-05-11,2022-05-11,高間商店株式会社,00126517,株式会社,鳥取県,東伯郡北栄町,由良宿５９６番地２９,,31,372,6892221,,,,,,,2022-05-11,1,,,,,タカマショウテン,0
2075,6290001097448,新規,0,2022-05-11,2022-05-11,株式会社研進興業,,株式会社,福岡県,福岡市博多区,吉塚６丁目６番３６号,,40,132,8120041,,,,,,,2022-05-11,1,,,,,ケンシンコウギョウ,0
2076,6290001097489,新規,0,2022-05-11,2022-05-11,株式会社ＫＭＳ,,株式会社,福岡県,太宰府市,青山３丁目７番１０号,,40,221,8180121,,,,,,,2022-05-11,1,,,,,ケイエムエス,0
2083,6300001012909,新規,0,2022-05-11,2022-05-11,株式会社ラドピクシス,,株式会社,佐賀県,佐賀市,唐人１丁目３番１－１００１号,,41,201,8400813,,,,,,,2022-05-11,1,,,,,ラドピクシス,0
2084,6300005007079,新規,0,2022-05-11,2022-05-11,医療法人伊万里井川歯科,,その他の設立登記法人,佐賀県,伊万里市,新天町４８８番地１８,,41,205,8480041,,,,,,,2022-05-11,1,,,,,イマリイガワシカ,0
2086,6310001017840,新規,0,2022-05-11,2022-05-11,久田ホールディングス株式会社,,株式会社,長崎県,松浦市,志佐町里免３１５番地１,,42,208,8594502,,,,,,,2022-05-11,1,,,,,ヒサダホールディングス,0
2090,6330001029727,新規,0,2022-05-11,2022-05-11,らら不動産株式会社,,株式会社,熊本県,熊本市南区,上ノ郷１丁目１２番３－１０１号,,43,104,8614132,,,,,,,2022-05-11,1,,,,,ララフドウサン,0
2106,6370001048525,新規,0,2022-05-11,2022-05-11,株式会社コーシン設備,,株式会社,宮城県,仙台市宮城野区,白鳥２丁目２３番１３号,,04,102,9830006,,,,,,,2022-05-11,1,,,,,コーシンセツビ,0
2107,6370003005689,新規,0,2022-05-11,2022-05-11,合同会社太良衛門,,合同会社,宮城県,角田市,角田字泉町６６番地,,04,208,9811505,,,,,,,2022-05-11,1,,,,,タラエモン,0
2113,6380001032791,新規,0,2022-05-11,2022-05-11,株式会社Ｃ＆Ｒｅ,,株式会社,福島県,福島市,在庭坂字弁天前３１－１,,07,201,9602262,,,,,,,2022-05-11,1,,,,,シーアンドアールイー,0
2117,6410001013185,新規,0,2022-05-11,2022-05-11,株式会社ＡＫＳ,,株式会社,秋田県,湯沢市,川連町字欠上り１４番地１１,,05,207,0120105,,,,,,,2022-05-11,1,,,,,エーケーエス,0
2126,6430003013867,新規,0,2022-05-11,2022-05-11,シタヤジルシプロジェクト合同会社,,合同会社,北海道,札幌市北区,新琴似十一条１２丁目３番１２号,,01,102,0010911,,,,,,,2022-05-11,1,,,,,シタヤジルシプロジェクト,0
2128,6470001019061,新規,0,2022-05-11,2022-05-11,株式会社櫨林工業,,株式会社,香川県,高松市,飯田町１１９６番地１１,,37,201,7618033,,,,,,,2022-05-11,1,,,,,ハゼバヤシコウギョウ,0
2137,6700150104912,新規,0,2022-05-11,2021-09-28,マキエプロジェクト,,その他,埼玉県,さいたま市中央区,本町西３丁目１５－３コスモ与野ガーデンシティ弐番館１０６,,11,105,3380004,,,,,,,2021-09-28,1,,,,,マキエプロジエクト,0
2138,6700150105869,新規,0,2022-05-11,2021-11-18,日本シルク学会,,その他,茨城県,稲敷郡阿見町,大字飯倉１０５３（一財）大日本蚕糸会　蚕糸科学技術研究所内,,08,443,3000324,,,,,,,2021-11-18,1,,,,,ニホンシルクガツカイ,0
2139,6700150108005,新規,0,2022-05-11,2022-04-15,劇団劇作家,,その他,東京都,三鷹市,下連雀３丁目３－５０パークファミリア４０２　吉田様方,,13,204,1810013,,,,,,,2022-04-15,1,,,,,ゲキダンゲキサツカ,0
2145,7010001226421,新規,0,2022-05-11,2022-05-11,株式会社ＡＣＣＡ,,株式会社,東京都,文京区,本郷３丁目３０番１０号本郷Ｋ＆Ｋビル３階,,13,105,1130033,,,,,,,2022-05-11,1,,,,,アッカ,0
2146,7010001226462,新規,0,2022-05-11,2022-05-11,株式会社Ｙ’ｓＦａｃｔｏｒｙ,,株式会社,東京都,中央区,銀座４丁目１４－１５サントル銀座四丁目１０１,,13,102,1040061,,,,,,,2022-05-11,1,,,,,ワイズファクトリー,0
2148,7010003037627,新規,0,2022-05-11,2022-05-11,合同会社Ｏ,,合同会社,東京都,中央区,銀座１丁目２２番１１号銀座大竹ビジデンス２階,,13,102,1040061,,,,,,,2022-05-11,1,,,,,オー,0
2158,7010403027608,新規,0,2022-05-11,2022-05-11,ＥＳＲ２９合同会社,,合同会社,東京都,港区,浜松町１丁目２０番１０号ライオネス浜松町５０６号室,,13,103,1050013,,,,,,,2022-05-11,1,,,,,イーエスアールニジュウキュウ,0
2159,7010405020981,新規,0,2022-05-11,2022-05-11,ＥＳＲ２８・１一般社団法人,,その他の設立登記法人,東京都,港区,浜松町１丁目２０番１０号ライオネス浜松町５０６号室,,13,103,1050013,,,,,,,2022-05-11,1,,,,,イーエスアールニジュウハチイチ,0
2162,7010501048811,新規,0,2022-05-11,2022-05-11,翔瑞国際株式会社,,株式会社,東京都,台東区,台東２丁目２７番３号ＮＳＫビル１０Ｆ,,13,106,1100016,,,,,,,2022-05-11,1,,,,,ショウズイコクサイ,0
2166,7010601061111,新規,0,2022-05-11,2022-05-11,クオーレ株式会社,,株式会社,東京都,江東区,有明２丁目１番２－２４１１号,,13,108,1350063,,,,,,,2022-05-11,1,,,,,クオーレ,0
2168,7010701042622,新規,0,2022-05-11,2022-05-11,株式会社ヒルズ,,株式会社,東京都,品川区,東五反田１丁目１９番１０号,,13,109,1410022,,,,,,,2022-05-11,1,,,,,ヒルズ,0
2169,7010701042630,新規,0,2022-05-11,2022-05-11,株式会社日本就労移行支援センター,,株式会社,東京都,品川区,上大崎３丁目１番３０号,,13,109,1410021,,,,,,,2022-05-11,1,,,,,ニホンシュウロウイコウシエンセンター,0
2180,7010901050821,新規,0,2022-05-11,2022-05-11,株式会社興仁社,,株式会社,東京都,世田谷区,上馬５丁目２５番１６号,,13,112,1540011,,,,,,,2022-05-11,1,,,,,コウジンシャ,0
2181,7010903007365,新規,0,2022-05-11,2022-05-11,合同会社ジャラック,,合同会社,東京都,世田谷区,駒沢４丁目１番１１号,,13,112,1540012,,,,,,,2022-05-11,1,,,,,ジャラック,0
2182,7010903007373,新規,0,2022-05-11,2022-05-11,Ｓ＆Ｐ合同会社,,合同会社,東京都,世田谷区,豪徳寺１丁目３３－３１－２１２,,13,112,1540021,,,,,,,2022-05-11,1,,,,,エスアンドピー,0
2187,7011001147434,新規,0,2022-05-11,2022-05-11,株式会社Ｃ．ＬＩＮＥ,,株式会社,東京都,渋谷区,渋谷２丁目２２番７号渋谷新生ビル９０１号,,13,113,1500002,,,,,,,2022-05-11,1,,,,,シーライン,0
2188,7011003014657,新規,0,2022-05-11,2022-05-11,合同会社ＺＥＴＡ,,合同会社,東京都,渋谷区,本町３丁目２６番１１号西新宿五丁目ＩＩ、１０１,00126523,13,113,1510071,,,,,,,2022-05-11,1,,,,,ゼータ,0
2189,7011003014665,新規,0,2022-05-11,2022-05-11,ＤＲＡＷ　ＤＯＷＮ　ｉｎｖｅｓｔｍｅｎｔ合同会社,,合同会社,東京都,渋谷区,猿楽町４番９号,,13,113,1500033,,,,,,,2022-05-11,1,,,,,ドローダウンインベストメント,0
2200,7011301027765,新規,0,2022-05-11,2022-05-11,株式会社ｚｏｍｉａ,,株式会社,東京都,杉並区,西荻北４丁目３６－６,,13,115,1670042,,,,,,,2022-05-11,1,,,,,ゾミア,0
2210,7011703003141,新規,0,2022-05-11,2022-05-11,合同会社Ｆｏｒ　ｙｏｕ,,合同会社,東京都,江戸川区,西葛西８丁目１２番１７号－２０８,,13,123,1340088,,,,,,,2022-05-11,1,,,,,フォーユー,0
2214,7012305002011,新規,0,2022-05-11,2022-05-11,一般社団法人ライフデザインヘルスコーチ協会,,その他の設立登記法人,東京都,町田市,原町田６丁目１７番１号,,13,209,1940013,,,,,,,2022-05-11,1,,,,,ライフデザインヘルスコーチキョウカイ,0
2215,7012403005361,新規,0,2022-05-11,2022-05-11,Ａｒｉｎｃｏ合同会社,,合同会社,東京都,武蔵野市,吉祥寺北町４丁目１２番１４号サンステージ吉祥寺１０１,,13,203,1800001,,,,,,,2022-05-11,1,,,,,アリンコ,0
2216,7012405004733,新規,0,2022-05-11,2022-05-11,一般社団法人ＬＲＴ協会,,その他の設立登記法人,東京都,三鷹市,深大寺３丁目１－９,,13,204,1810016,,,,,,,2022-05-11,1,,,,,エルアールティーキョウカイ,0
2217,7012801021547,新規,0,2022-05-11,2022-05-11,株式会社たけおか不動産,,株式会社,東京都,昭島市,松原町１丁目３５番２９号,,13,207,1960003,,,,,,,2022-05-11,1,,,,,タケオカフドウサン,0
2218,7012801021555,新規,0,2022-05-11,2022-05-11,株式会社多摩水道サービス,,株式会社,東京都,昭島市,田中町１丁目７番１７－１０５号,,13,207,1960014,,,,,,,2022-05-11,1,,,,,タマスイドウサービス,0
2229,7020001146370,新規,0,2022-05-11,2022-05-11,株式会社柳,,株式会社,神奈川県,川崎市高津区,下作延２丁目９番１１号,,14,134,2130033,,,,,,,2022-05-11,1,,,,,ヤナギ,0
2230,7020001146420,新規,0,2022-05-11,2022-05-11,株式会社アールイー,,株式会社,神奈川県,横浜市金沢区,釜利谷東４丁目５５番１６号,,14,108,2360042,,,,,,,2022-05-11,1,,,,,アールイー,0
2231,7020001146445,新規,0,2022-05-11,2022-05-11,株式会社ロイ,,株式会社,神奈川県,横浜市南区,永楽町２丁目２０番６号,,14,105,2320031,,,,,,,2022-05-11,1,,,,,ロイ,0
2232,7020001146453,新規,0,2022-05-11,2022-05-11,株式会社ミライフィルム,,株式会社,神奈川県,川崎市多摩区,登戸９５２番地ＪｇａｒｄｅｎＩ１０２,00126520,14,135,2140014,,,,,,,2022-05-11,1,,,,,ミライフィルム,0
2237,7021001075898,新規,0,2022-05-11,2022-05-11,株式会社誠湘ホーム,,株式会社,神奈川県,秦野市,寺山８４６番地の１９,,14,211,2570023,,,,,,,2022-05-11,1,,,,,セイショーホーム,0
2238,7021001075923,新規,0,2022-05-11,2022-05-11,株式会社ＹＭＳ,,株式会社,神奈川県,横須賀市,長井５丁目６番２号,,14,201,2380316,,,,,,,2022-05-11,1,,,,,ワイエムエス,0
2240,7021003011678,新規,0,2022-05-11,2022-05-11,合同会社スペース,,合同会社,神奈川県,相模原市南区,相南４丁目３番２８号ルート相模原マンション２Ａ,,14,153,2520312,,,,,,,2022-05-11,1,,,,,スペース,0
2248,7030001148052,新規,0,2022-05-11,2022-05-11,ＡＸＩＳ株式会社,,株式会社,埼玉県,朝霞市,宮戸４丁目１番２５号ドミールソレイユ２０３,,11,227,3510031,,,,,,,2022-05-11,1,,,,,アクシス,0
2249,7030001148093,新規,0,2022-05-11,2022-05-11,株式会社桜和設備,,株式会社,埼玉県,川口市,大字安行吉岡１３６４番地７,,11,203,3340072,,,,,,,2022-05-11,1,,,,,オウワセツビ,0
2250,7030001148143,新規,0,2022-05-11,2022-05-11,株式会社ＦＲＰハマノ,,株式会社,埼玉県,さいたま市岩槻区,大字黒谷１７６３番地１,,11,110,3390033,,,,,,,2022-05-11,1,,,,,エフアールピーハマノ,0
2253,7030003019359,新規,0,2022-05-11,2022-05-11,合同会社Ａｓ,,合同会社,埼玉県,朝霞市,北原２丁目１０番２６号ティアレ１０２,,11,227,3510036,,,,,,,2022-05-11,1,,,,,アス,0
2254,7030003019367,新規,0,2022-05-11,2022-05-11,Ｔｈｉｎｇ　Ｏｎｅ　Ｌｉｋｅｓ合同会社,,合同会社,埼玉県,蓮田市,西新宿３丁目１１３番地１,,11,238,3490141,,,,,,,2022-05-11,1,,,,,スィングワンライクス,0
2255,7030003019375,新規,0,2022-05-11,2022-05-11,合同会社リーシャ,,合同会社,埼玉県,川越市,かすみ野２丁目１２番地１,,11,201,3501174,,,,,,,2022-05-11,1,,,,,リーシャ,0
2268,7040001123277,新規,0,2022-05-11,2022-05-11,株式会社ＯＮＳＩＤＥ,,株式会社,千葉県,船橋市,西船２丁目３４番２１号,,12,204,2730031,,,,,,,2022-05-11,1,,,,,オンサイド,0
2269,7040001123293,新規,0,2022-05-11,2022-05-11,カージオポイントジャパン株式会社,,株式会社,千葉県,千葉市稲毛区,稲毛東４丁目５－１－５１３,,12,103,2630031,,,,,,,2022-05-11,1,,,,,カージオポイントジャパン,0
2274,7040003019993,新規,0,2022-05-11,2022-05-11,合同会社ＭＴＯＣ,,合同会社,千葉県,柏市,若柴１７８番地４柏の葉キャンパス１４８街区２ショップ＆オフィス棟６Ｆ,,12,217,2770871,,,,,,,2022-05-11,1,,,,,エムティーオーシー,0
2275,7040003020019,新規,0,2022-05-11,2022-05-11,コレスクＦｏｒＭｏｏｎ合同会社,,合同会社,千葉県,千葉市中央区,椿森３丁目１４番２９号,,12,101,2600042,,,,,,,2022-05-11,1,,,,,コレスクフォームーン,0
2281,7050001051064,新規,0,2022-05-11,2022-05-11,株式会社キャンバス,,株式会社,茨城県,つくば市,平沢３６４－６,,08,220,3004213,,,,,,,2022-05-11,1,,,,,キャンバス,0
2282,7050001051072,新規,0,2022-05-11,2022-05-11,株式会社Ｏｋｗｉ,,株式会社,茨城県,水戸市,見川２丁目８０番地の４,,08,201,3100912,,,,,,,2022-05-11,1,,,,,オクウィ,0
2284,7050003006553,新規,0,2022-05-11,2022-05-11,合同会社松浦,,合同会社,茨城県,つくば市,みどりの中央２３－１５,,08,220,3050882,,,,,,,2022-05-11,1,,,,,マツウラ,0
2297,7080101023274,新規,0,2022-05-11,2022-05-11,成高園株式会社,,株式会社,静岡県,三島市,栄町４番４号,,22,206,4110846,,,,,,,2022-05-11,1,,,,,セイコウエン,0
2302,7100001035326,新規,0,2022-05-11,2022-05-11,株式会社丸山興業,,株式会社,長野県,上田市,塩川６００番地５７,,20,203,3860401,,,,,,,2022-05-11,1,,,,,マルヤマコウギョウ,0
2305,7110003004757,新規,0,2022-05-11,2022-05-11,合同会社メディオ,,合同会社,新潟県,長岡市,小曽根町１２９８,,15,202,9400883,,,,,,,2022-05-11,1,,,,,メディオ,0
2319,7120001245682,新規,0,2022-05-11,2022-05-11,株式会社プロサングエエンターテインメント,,株式会社,大阪府,大阪市淀川区,東三国４丁目１番１６号,,27,123,5320002,,,,,,,2022-05-11,1,,,,,プロサングエエンターテインメント,0
2320,7120001245732,新規,0,2022-05-11,2022-05-11,株式会社ＨＡビジネスサポート,,株式会社,大阪府,大阪市中央区,平野町４丁目６番１１号,,27,128,5410046,,,,,,,2022-05-11,1,,,,,エイチエービジネスサポート,0
2321,7120001245781,新規,0,2022-05-11,2022-05-11,ワイテック株式会社,,株式会社,大阪府,枚方市,津田元町３丁目１９番１１号,,27,210,5730127,,,,,,,2022-05-11,1,,,,,ワイテック,0
2326,7120003021652,新規,0,2022-05-11,2022-05-11,ｍａｐ合同会社,,合同会社,大阪府,大阪市旭区,中宮１丁目６番１号,,27,117,5350003,,,,,,,2022-05-11,1,,,,,マップ,0
2332,7120101065527,新規,0,2022-05-11,2022-05-11,株式会社大志造園土木,,株式会社,大阪府,堺市東区,引野町２丁１２９番地４,,27,143,5998104,,,,,,,2022-05-11,1,,,,,タイシゾウエンドボク,0
2333,7120101065543,新規,0,2022-05-11,2022-05-11,株式会社廣野商会,,株式会社,大阪府,泉南郡岬町,深日５９５番地の４,,27,366,5990303,,,,,,,2022-05-11,1,,,,,ヒロノショウカイ,0
2334,7120101065551,新規,0,2022-05-11,2022-05-11,株式会社矢野地質,,株式会社,大阪府,羽曳野市,郡戸３００番地の１０６,,27,222,5830874,,,,,,,2022-05-11,1,,,,,ヤノチシツ,0
2335,7120101065568,新規,0,2022-05-11,2022-05-11,株式会社ピンダワールド,,株式会社,大阪府,富田林市,喜志町４丁目６番３５号（１０１）,,27,214,5840005,,,,,,,2022-05-11,1,,,,,ピンダワールド,0
2336,7120103004689,新規,0,2022-05-11,2022-05-11,合同会社ｌｉｅｎ,,合同会社,大阪府,和泉市,府中町１丁目１１番１３号,,27,219,5940071,,,,,,,2022-05-11,1,,,,,リアン,0
2345,7122001035849,新規,0,2022-05-11,2022-05-11,株式会社昌栄,,株式会社,大阪府,大東市,御領４丁目３番１６号,,27,218,5740064,,,,,,,2022-05-11,1,,,,,ショウエイ,0
2346,7122001035857,新規,0,2022-05-11,2022-05-11,株式会社三橋工務店,,株式会社,大阪府,八尾市,桜ヶ丘２丁目４６番地,,27,212,5810869,,,,,,,2022-05-11,1,,,,,ミツハシコウムテン,0
2348,7122003002335,新規,0,2022-05-11,2022-05-11,合同会社ＲｅＬｉｆｅ,,合同会社,大阪府,東大阪市,吉松１丁目９－１９,,27,227,5770821,,,,,,,2022-05-11,1,,,,,リライフ,0
2359,7140001125957,新規,0,2022-05-11,2022-05-11,ＤＮＩ株式会社,,株式会社,兵庫県,芦屋市,宮川町９番２号,,28,206,6590063,,,,,,,2022-05-11,1,,,,,ディーエヌアイ,0
2364,7150001025520,新規,0,2022-05-11,2022-05-11,株式会社ＳＨＩＮ‐ＪＩＧＥＮ,,株式会社,奈良県,奈良市,左京６丁目５－２,,29,201,6310801,,,,,,,2022-05-11,1,,,,,シンジゲン,0
2365,7150001025529,新規,0,2022-05-11,2022-05-11,株式会社ピュア,,株式会社,奈良県,奈良市,杉ヶ町３２番地４,,29,201,6308357,,,,,,,2022-05-11,1,,,,,ピュア,0
2367,7160001024190,新規,0,2022-05-11,2022-05-11,株式会社Ｅｕｄａｉｍｏｎｉｘ,,株式会社,滋賀県,草津市,野路町４４１番地３０５サンクリエートムネ,,25,206,5250055,,,,,,,2022-05-11,1,,,,,ユーダイモニクス,0
2371,7170001017094,新規,0,2022-05-11,2022-05-11,株式会社ヒダカ,,株式会社,和歌山県,日高郡みなべ町,南道３５番地,,30,391,6450005,,,,,,,2022-05-11,1,,,,,ヒダカ,0
2376,7180001151149,新規,0,2022-05-11,2022-05-11,株式会社ＳａｓａＮＱＵＡ　ｇａｉｎ,,株式会社,愛知県,名古屋市千種区,観月町１丁目２０番地の１,,23,101,4640831,,,,,,,2022-05-11,1,,,,,サザンカゲイン,0
2377,7180001151248,新規,0,2022-05-11,2022-05-11,株式会社Ｈ‐ｔｅｃｈ,,株式会社,愛知県,名古屋市中川区,四女子町４丁目４１番地,,23,110,4540822,,,,,,,2022-05-11,1,,,,,エイチテック,0
2378,7180001151264,新規,0,2022-05-11,2022-05-11,株式会社Ａｕｇｍｅｎｔｏｒ,,株式会社,愛知県,名古屋市緑区,上旭１丁目１６１０番地,,23,114,4580016,,,,,,,2022-05-11,1,,,,,オグメンタ,0
2379,7180001151280,新規,0,2022-05-11,2022-05-11,株式会社Ｔｉｅｎ,,株式会社,愛知県,瀬戸市,山手町２８８番地の６０,,23,204,4890989,,,,,,,2022-05-11,1,,,,,ティーエン,0
2383,7180003023809,新規,0,2022-05-11,2022-05-11,バイナルホールディングス合同会社,,合同会社,愛知県,名古屋市中区,錦１丁目４番６号,,23,106,4600003,,,,,,,2022-05-11,1,,,,,バイナルホールディングス,0
2384,7180005019771,新規,0,2022-05-11,2022-05-11,特定非営利活動法人Ｃａｆｕｎｅ,,その他の設立登記法人,愛知県,日進市,岩崎町芦廻間９４番地５グローリアス日進岩崎台２０５,,23,230,4700131,,,,,,,2022-05-11,1,,,,,カフネ,0
2386,7190001029377,新規,0,2022-05-11,2022-05-11,株式会社永田建築,,株式会社,三重県,津市,観音寺町１１２番地６,,24,201,5140062,,,,,,,2022-05-11,1,,,,,ナガタケンチク,0
2387,7190003003982,新規,0,2022-05-11,2022-05-11,合同会社Ｈｅｌｌｏ　Ｅｖｅｒｙｔｈｉｎｇ,,合同会社,三重県,津市,香良洲町３９４３番地,,24,201,5140315,,,,,,,2022-05-11,1,,,,,ハローエブリシング,0
2393,7210001018922,新規,0,2022-05-11,2022-05-11,株式会社椙屋,,株式会社,福井県,福井市,薬師町第１２号２１番地,,18,201,9102339,,,,,,,2022-05-11,1,,,,,スギヤ,0
2394,7210001018930,新規,0,2022-05-11,2022-05-11,株式会社とよしま,,株式会社,福井県,福井市,豊島１丁目６番１４号,,18,201,9100857,,,,,,,2022-05-11,1,,,,,トヨシマ,0
2404,7240001059724,新規,0,2022-05-11,2022-05-11,株式会社ＭＰｌｕｓ,,株式会社,広島県,山県郡北広島町,田原２９５番地,,34,369,7312105,,,,,,,2022-05-11,1,,,,,エムプラス,0
2405,7240001059757,新規,0,2022-05-11,2022-05-11,株式会社ｇｏｊｉ‐ｇｏｊｉ,,株式会社,広島県,広島市中区,三川町６番１３－２０２号,,34,101,7300029,,,,,,,2022-05-11,1,,,,,ゴジゴジ,0
2407,7240005015392,新規,0,2022-05-11,2022-05-11,一般社団法人多文化共生支援団体ＲＥＳＰＥＣＴ,,その他の設立登記法人,広島県,三次市,十日市中２丁目１番３号２階,,34,209,7280012,,,,,,,2022-05-11,1,,,,,タブンカキョウセイシエンダンタイリスペクト,0
2409,7250001019553,新規,0,2022-05-11,2022-05-11,株式会社ｋｏｂａ‐ｙａｓｈｉ,,株式会社,山口県,下関市,新垢田西町１丁目５番６号,,35,201,7510844,,,,,,,2022-05-11,1,,,,,コバヤシ,0
2412,7260001036845,新規,0,2022-05-11,2022-05-11,株式会社ＭＴＹ,,株式会社,岡山県,玉野市,木目２２０番地,,33,204,7060143,,,,,,,2022-05-11,1,,,,,エムティーワイ,0
2421,7290001097496,新規,0,2022-05-11,2022-05-11,ｍｏｔｏｍｏｔｏ株式会社,,株式会社,福岡県,糸島市,志摩芥屋９９６番地,,40,230,8191335,,,,,,,2022-05-11,1,,,,,モトモト,0
2430,7310001017856,新規,0,2022-05-11,2022-05-11,株式会社山田硝子,,株式会社,長崎県,長崎市,田手原町２２番地,,42,201,8510252,,,,,,,2022-05-11,1,,,,,ヤマダガラス,0
2432,7320005009989,新規,0,2022-05-11,2022-05-11,大分県高等学校教職員組合,,その他の設立登記法人,大分県,大分市,大字下郡字長谷４９６－３８大分県教育会館内,,44,201,8700951,,,,,,,2022-05-11,1,,,,,オオイタケンコウトウガッコウ,0
2434,7330001029701,新規,0,2022-05-11,2022-05-11,株式会社ブロッサム不動産管理,,株式会社,熊本県,熊本市中央区,水前寺４丁目５２番４８号,,43,101,8620950,,,,,,,2022-05-11,1,,,,,ブロッサムフドウサンカンリ,0
2435,7330001029726,新規,0,2022-05-11,2022-05-11,株式会社ＣｏｍｍｕｎｉＴ,,株式会社,熊本県,熊本市中央区,大江３丁目７番５号,,43,101,8620971,,,,,,,2022-05-11,1,,,,,コミュニティ,0
2437,7330003009354,新規,0,2022-05-11,2022-05-11,合同会社ＨｕＧｍ,,合同会社,熊本県,合志市,竹迫２２５８番地,,43,216,8611114,,,,,,,2022-05-11,1,,,,,ハグム,0
2438,7330005010517,新規,0,2022-05-11,2022-05-11,一般社団法人翻訳サポート,,その他の設立登記法人,熊本県,熊本市中央区,新屋敷２丁目１０番２６号,,43,101,8620975,,,,,,,2022-05-11,1,,,,,ホンヤクサポート,0
2445,7350001017720,新規,0,2022-05-11,2022-05-11,株式会社Ｌａｄｙ　ｂｕｇ,,株式会社,宮崎県,延岡市,萩町１３１番地１サンネクシオ延岡駅前９０５,,45,203,8820052,,,,,,,2022-05-11,1,,,,,レディバグ,0
2446,7350001017729,新規,0,2022-05-11,2022-05-11,株式会社ＺＡＬＡＹ,,株式会社,宮崎県,東臼杵郡椎葉村,大字下福良１６９２番地,,45,430,8831601,,,,,,,2022-05-11,1,,,,,ザレイ,0
2450,7370001048549,新規,0,2022-05-11,2022-05-11,株式会社つなぐ,,株式会社,宮城県,仙台市泉区,南光台２丁目２３番１５号,,04,105,9818003,,,,,,,2022-05-11,1,,,,,ツナグ,0
2451,7370001048557,新規,0,2022-05-11,2022-05-11,株式会社Ｓａｖｉｏｒ,,株式会社,宮城県,仙台市若林区,木ノ下２丁目１番３０号,,04,103,9840047,,,,,,,2022-05-11,1,,,,,セイバー,0
2460,7380005012582,新規,0,2022-05-11,2022-05-11,一般社団法人ＫＯＴＯＷＡＲＩ,,その他の設立登記法人,福島県,大沼郡会津美里町,杉屋字芦窪乙３６３番地,,07,447,9696253,,,,,,,2022-05-11,1,,,,,コトワリ,0
2464,7410003003654,新規,0,2022-05-11,2022-05-11,ヤシロ合同会社,,合同会社,秋田県,秋田市,飯島字坂道端２８番地６,,05,201,0110911,,,,,,,2022-05-11,1,,,,,ヤシロ,0
2477,7480001011719,新規,0,2022-05-11,2022-05-11,筒井林業株式会社,,株式会社,徳島県,阿波市,市場町尾開字八坂６６番地,,36,206,7711621,,,,,,,2022-05-11,1,,,,,ツツイリンギョウ,0
2478,7480001011735,新規,0,2022-05-11,2022-05-11,株式会社小山肥料店,,株式会社,徳島県,徳島市,入田町内ノ御田１３８番地の５,,36,201,7793133,,,,,,,2022-05-11,1,,,,,コヤマヒリョウテン,0
2479,7500003002829,新規,0,2022-05-11,2022-05-11,合同会社あら波,,合同会社,愛媛県,松山市,千舟町５丁目３－１７,,38,201,7900011,,,,,,,2022-05-11,1,,,,,アラナミ,0
2481,7700150107600,新規,0,2022-05-11,2022-03-31,ＹＹ　ＳＨＯＰ,,その他,東京都,新宿区,新宿６丁目２７－５０ビラ吉川７０２,,13,104,1600022,,,,,,,2022-03-31,1,,,,,ワイワイシヨツプ,0
2482,7700150108359,新規,0,2022-05-11,2022-04-26,Ｅｎｓｅｍｂｌｅ　Ｌｅｎｚ,,その他,神奈川県,逗子市,久木１丁目６－２７,,14,208,2490001,,,,,,,2022-04-26,1,,,,,エンセンブルレンツ,0
2488,8010001226387,新規,0,2022-05-11,2022-05-11,株式会社クリエイツ,,株式会社,東京都,千代田区,神田松永町１３番地ＶＯＲＴ秋葉原ＩＩ,00126522,13,101,1010023,,,,,,,2022-05-11,1,,,,,クリエイツ,0
2492,8010003037642,新規,0,2022-05-11,2022-05-11,合同会社ビエネスタケイ,,合同会社,東京都,文京区,本郷３丁目４３番３－６０２号,,13,105,1130033,,,,,,,2022-05-11,1,,,,,ビエネスタケイ,0
2493,8010005034968,新規,0,2022-05-11,2022-05-11,一般社団法人日本組織培養学会,,その他の設立登記法人,東京都,文京区,大塚５丁目３番１３号,,13,105,1120012,,,,,,,2022-05-11,1,,,,,ニホンソシキバイヨウガッカイ,0
2494,8010005034976,新規,0,2022-05-11,2022-05-11,行政書士法人ＨＯＰ,,その他の設立登記法人,東京都,中央区,日本橋人形町２丁目１３番９号,,13,102,1030013,,,,,,,2022-05-11,1,,,,,ホップ,0
2495,8010005034992,新規,0,2022-05-11,2022-05-11,一般社団法人Ｎｏｔｅ＆Ｋｅｙ,,その他の設立登記法人,東京都,文京区,千石２丁目７－９,,13,105,1120011,,,,,,,2022-05-11,1,,,,,ノーテンキ,0
2507,8010403027607,新規,0,2022-05-11,2022-05-11,ＥＳＲ２８合同会社,,合同会社,東京都,港区,浜松町１丁目２０番１０号ライオネス浜松町５０６号室,,13,103,1050013,,,,,,,2022-05-11,1,,,,,イーエスアールニジュウハチ,0
2508,8010405020980,新規,0,2022-05-11,2022-05-11,ＥＳＲ２７・２一般社団法人,,その他の設立登記法人,東京都,港区,浜松町１丁目２０番１０号ライオネス浜松町５０６号室,,13,103,1050013,,,,,,,2022-05-11,1,,,,,イーエスアールニジュウナナニ,0
2509,8010405020989,新規,0,2022-05-11,2022-05-11,ルイス２一般社団法人,,その他の設立登記法人,東京都,港区,浜松町１丁目２０番１０号ライオネス浜松町５０６号室,,13,103,1050013,,,,,,,2022-05-11,1,,,,,ルイスニ,0
2517,8010601061119,新規,0,2022-05-11,2022-05-11,株式会社ｓｕｎｎｙ　ｐｉｃｔｕｒｅｓ,,株式会社,東京都,江東区,東砂７丁目２番１３号,,13,108,1360074,,,,,,,2022-05-11,1,,,,,サニーピクチャーズ,0
2520,8010603009529,新規,0,2022-05-11,2022-05-11,合同会社ＳＯＵＲＣＥ　ＢＯＯＳＴ,,合同会社,東京都,江東区,南砂４丁目１５番２０号,,13,108,1360076,,,,,,,2022-05-11,1,,,,,ソースブースト,0
2521,8010605004073,新規,0,2022-05-11,2022-05-11,特定非営利活動法人こども応援プロジェクト,,その他の設立登記法人,東京都,江東区,亀戸２丁目４２番６号日神パレステージ亀戸第２－３０３,,13,108,1360071,,,,,,,2022-05-11,1,,,,,,0
2523,8010701042621,新規,0,2022-05-11,2022-05-11,株式会社Ｐｅｎｔａｂｌｅ,,株式会社,東京都,品川区,東五反田１丁目２番４２－４０３号,,13,109,1410022,,,,,,,2022-05-11,1,,,,,ペンダブル,0
2524,8010901050820,新規,0,2022-05-11,2022-05-11,株式会社スタジオＮ,,株式会社,東京都,世田谷区,桜丘５丁目３２番９号,,13,112,1560054,,,,,,,2022-05-11,1,,,,,スタジオエン,0
2525,8010901050829,新規,0,2022-05-11,2022-05-11,株式会社Ｊｏｕｒｎｅｙ＆Ｈｅａｖｅｎｓ,,株式会社,東京都,世田谷区,北沢４丁目１３番８号,,13,112,1550031,,,,,,,2022-05-11,1,,,,,ジャーニーアンドヘブンズ,0
2526,8010901050845,新規,0,2022-05-11,2022-05-11,株式会社Ｌｉｆｉｘ,,株式会社,東京都,世田谷区,松原５丁目８－１２Ａｂｉｅｔｅｆｉｖｅ４０３,,13,112,1560043,,,,,,,2022-05-11,1,,,,,リフィックス,0
2527,8010903007364,新規,0,2022-05-11,2022-05-11,バリュー・クリエーション合同会社,,合同会社,東京都,世田谷区,祖師谷６丁目２２番１号,,13,112,1570072,,,,,,,2022-05-11,1,,,,,バリュークリエーション,0
2528,8010903007372,新規,0,2022-05-11,2022-05-11,ＭＫ合同会社,,合同会社,東京都,世田谷区,下馬２丁目３７番２号,,13,112,1540002,,,,,,,2022-05-11,1,,,,,エムケイ,0
2534,8011001147433,新規,0,2022-05-11,2022-05-11,ＰｒｏＰａｄｅｌ　Ｊａｐａｎ株式会社,,株式会社,東京都,渋谷区,神宮前２丁目２１番１５号,,13,113,1500001,,,,,,,2022-05-11,1,,,,,プロパデルジャパン,0
2536,8011003014656,新規,0,2022-05-11,2022-05-11,合同会社ＲＥＺ　ＤＥＳＩＧＮ,,合同会社,東京都,渋谷区,神宮前３丁目７番１号５Ｆ,,13,113,1500001,,,,,,,2022-05-11,1,,,,,レズデザイン,0
2539,8011301027756,新規,0,2022-05-11,2022-05-11,株式会社ｍｏｎ,,株式会社,東京都,杉並区,本天沼２丁目２３番７号,,13,115,1670031,,,,,,,2022-05-11,1,,,,,モン,0
2540,8011301027764,新規,0,2022-05-11,2022-05-11,株式会社こどもｂｅｉｎｇ,,株式会社,東京都,杉並区,荻窪３丁目３５番５号ハウスＭＭ１０１,,13,115,1670051,,,,,,,2022-05-11,1,,,,,コドモビーイング,0
2546,8011501028026,新規,0,2022-05-11,2022-05-11,株式会社ＪＰＳ,,株式会社,東京都,北区,豊島２丁目６番４号,,13,117,1140003,,,,,,,2022-05-11,1,,,,,ジェイピーエス,0
2548,8011801040688,新規,0,2022-05-11,2022-05-11,株式会社城東,,株式会社,東京都,足立区,保木間２丁目１９番６号リゾホキマ１０１,,13,121,1210064,,,,,,,2022-05-11,1,,,,,ジョウトウ,0
2550,8011803005078,新規,0,2022-05-11,2022-05-11,合同会社総合商社秀幸,,合同会社,東京都,足立区,神明３丁目２４番１４号,,13,121,1210051,,,,,,,2022-05-11,1,,,,,ソウゴウショウシャシュウコウ,0
2552,8012301012979,新規,0,2022-05-11,2022-05-11,株式会社ＭＩＣ　Ｐｒｏｆｅｓｓｉｏｎａｌｓ,,株式会社,東京都,町田市,原町田２丁目２番１号ライオンズマンション町田第６－３０２号室,,13,209,1940013,,,,,,,2022-05-11,1,,,,,エムアイシープロフェッショナルズ,0
2555,8012401039187,新規,0,2022-05-11,2022-05-11,株式会社ＴＮタップス,,株式会社,東京都,府中市,栄町１丁目１０番１６号,,13,206,1830051,,,,,,,2022-05-11,1,,,,,ティーエヌタップス,0
2560,8012801021546,新規,0,2022-05-11,2022-05-11,株式会社ラルナフロール,,株式会社,東京都,立川市,幸町５丁目１番地の４１ＭＣＹ,,13,202,1900002,,,,,,,2022-05-11,1,,,,,ラルナフロール,0
2561,8012801021554,新規,0,2022-05-11,2022-05-11,株式会社Ｆｒｅｚｎｏ,,株式会社,東京都,昭島市,中神町１１５７番地５５,,13,207,1960022,,,,,,,2022-05-11,1,,,,,フレズノ,0
2562,8012801021562,新規,0,2022-05-11,2022-05-11,株式会社ＳＴＡ,,株式会社,東京都,日野市,旭が丘２丁目８番地の１３,,13,212,1910065,,,,,,,2022-05-11,1,,,,,エスティーエー,0
2574,8020001146444,新規,0,2022-05-11,2022-05-11,街づくり関東株式会社,,株式会社,神奈川県,川崎市川崎区,四谷下町２０－１９ベルドミール１０３,,14,131,2100827,,,,,,,2022-05-11,1,,,,,マチヅクリカントウ,0
2577,8020003021752,新規,0,2022-05-11,2022-05-11,合同会社コーギー,,合同会社,神奈川県,横浜市戸塚区,品濃町５１３番地１１東戸塚ガーデニアウエストヒルズ５０１号,,14,110,2440801,,,,,,,2022-05-11,1,,,,,コーギー,0
2583,8021001075906,新規,0,2022-05-11,2022-05-11,株式会社さくら科学,,株式会社,神奈川県,小田原市,堀之内３５,,14,206,2500853,,,,,,,2022-05-11,1,,,,,サクラカガク,0
2584,8021001075939,新規,0,2022-05-11,2022-05-11,株式会社エドラ,,株式会社,神奈川県,相模原市南区,南台３丁目１４番２１－３０８号,,14,153,2520314,,,,,,,2022-05-11,1,,,,,エドラ,0
2585,8021001075947,新規,0,2022-05-11,2022-05-11,株式会社ビアド,,株式会社,神奈川県,藤沢市,鵠沼海岸２丁目１６番２～２０５号,,14,205,2510037,,,,,,,2022-05-11,1,,,,,ビアド,0
2590,8021003011677,新規,0,2022-05-11,2022-05-11,合同会社アドマーニ,,合同会社,神奈川県,横須賀市,芦名１丁目２４－１５,,14,201,2400104,,,,,,,2022-05-11,1,,,,,アドマーニ,0
2592,8030001148076,新規,0,2022-05-11,2022-05-11,コ・クリエイトメディカル株式会社,,株式会社,埼玉県,さいたま市浦和区,皇山町１９番１４号,,11,107,3300045,,,,,,,2022-05-11,1,,,,,コクリエイトメディカル,0
2593,8030001148084,新規,0,2022-05-11,2022-05-11,株式会社ふくしるす,,株式会社,埼玉県,川越市,大字下広谷１１９９番地１２３,,11,201,3500804,,,,,,,2022-05-11,1,,,,,フクシルス,0
2594,8030001148092,新規,0,2022-05-11,2022-05-11,株式会社ｍｙｓ,,株式会社,埼玉県,さいたま市西区,大字中釘２９０番地３８,,11,101,3310077,,,,,,,2022-05-11,1,,,,,マイス,0
2595,8030001148101,新規,0,2022-05-11,2022-05-11,森川商会株式会社,,株式会社,埼玉県,さいたま市見沼区,春野３丁目１８番２－２０３号,,11,104,3370002,,,,,,,2022-05-11,1,,,,,モリカワショウカイ,0
2596,8030001148142,新規,0,2022-05-11,2022-05-11,株式会社左官内藤,,株式会社,埼玉県,北葛飾郡杉戸町,大字本郷１０４６番地２,,11,464,3450023,,,,,,,2022-05-11,1,,,,,サカンナイトウ,0
2600,8030003019358,新規,0,2022-05-11,2022-05-11,合同会社キャプテン外構,,合同会社,埼玉県,坂戸市,大字青木５１７番地１,,11,239,3500207,,,,,,,2022-05-11,1,,,,,キャプテンガイコウ,0
2605,8040001123284,新規,0,2022-05-11,2022-05-11,株式会社ＧＥＮＵＩＮＴＥＲＩＯＲ,,株式会社,千葉県,浦安市,美浜１丁目３番７０３号,,12,227,2790011,,,,,,,2022-05-11,1,,,,,ジェニュインテリア,0
2606,8040001123301,新規,0,2022-05-11,2022-05-11,株式会社ケミスタグ,,株式会社,千葉県,成田市,並木町１４８番地２３,,12,211,2860045,,,,,,,2022-05-11,1,,,,,ケミスタグ,0
2607,8040001123350,新規,0,2022-05-11,2022-05-11,株式会社ジニアス,,株式会社,千葉県,船橋市,習志野台６丁目８番１棟１０１号,,12,204,2740063,,,,,,,2022-05-11,1,,,,,ジニアス,0
2610,8040003019984,新規,0,2022-05-11,2022-05-11,Ｍｉｒａｃｌｅ合同会社,,合同会社,千葉県,白井市,清水口３丁目１７番６号,,12,232,2701435,,,,,,,2022-05-11,1,,,,,ミラクル,0
2611,8040003019992,新規,0,2022-05-11,2022-05-11,合同会社東日本復興支援機構,,合同会社,千葉県,柏市,東上町１番２－２０１号,,12,217,2770011,,,,,,,2022-05-11,1,,,,,ヒガシニホンフッコウシエンキコウ,0
2612,8040005021609,新規,0,2022-05-11,2022-05-11,医療法人社団真久会,,その他の設立登記法人,千葉県,市川市,南八幡４丁目７番１２号ラ・パシフィックビルＢ・Ｂ１階,,12,203,2720023,,,,,,,2022-05-11,1,,,,,シンキュウカイ,0
2617,8050003006528,新規,0,2022-05-11,2022-05-11,合同会社Ｏｄｙｓｓｅｙ,,合同会社,茨城県,鹿嶋市,大字長栖１８７９－２０７,,08,222,3140022,,,,,,,2022-05-11,1,,,,,オデッセイ,0
2621,8060001034835,新規,0,2022-05-11,2022-05-11,ＬＥＮＥＸＡ　ＨＯＬＤＩＮＧＳ株式会社,,株式会社,栃木県,足利市,奥戸町１１９番地１,,09,202,3294215,,,,,,,2022-05-11,1,,,,,レネックサホールディングス,0
2622,8060001034843,新規,0,2022-05-11,2022-05-11,株式会社日和建設,,株式会社,栃木県,栃木市,鍋山町１０８番地,,09,203,3280205,,,,,,,2022-05-11,1,,,,,ニチワケンセツ,0
2627,8080003002796,新規,0,2022-05-11,2022-05-11,合同会社ファストインデックス,,合同会社,静岡県,静岡市清水区,草薙杉道２丁目５番１８号,,22,103,4240885,,,,,,,2022-05-11,1,,,,,ファストインデックス,0
2630,8080401025804,新規,0,2022-05-11,2022-05-11,株式会社ラックアップシナジー,,株式会社,静岡県,浜松市中区,高丘北１丁目４３番２４号,,22,131,4338119,,,,,,,2022-05-11,1,,,,,ラックアップシナジー,0
2635,8090005007487,新規,0,2022-05-11,2022-05-11,一般社団法人北杜山守隊,,その他の設立登記法人,山梨県,北杜市,須玉町若神子新町１２０５－２５,,19,209,4080117,,,,,,,2022-05-11,1,,,,,ホクトヤマモリタイ,0
2637,8100001035309,新規,0,2022-05-11,2022-05-11,株式会社結正,,株式会社,長野県,上伊那郡南箕輪村,２６６７番地１,,20,385,3994511,,,,,,,2022-05-11,1,,,,,ユウセイ,0
2638,8100001035317,新規,0,2022-05-11,2022-05-11,株式会社木下工業,,株式会社,長野県,飯田市,上郷黒田３７３８番地９９,,20,205,3950004,,,,,,,2022-05-11,1,,,,,キノシタコウギョウ,0
2660,8120001245558,新規,0,2022-05-11,2022-05-11,株式会社ＬＥＭ,,株式会社,大阪府,大阪市平野区,喜連２丁目５－５１白鳥ビル５０３,,27,126,5470027,,,,,,,2022-05-11,1,,,,,レム,0
2661,8120001245698,新規,0,2022-05-11,2022-05-11,株式会社ＭＩＲＩＳ不動産,,株式会社,大阪府,大阪市淀川区,西中島４丁目１３－５今川第２ビル１階,,27,123,5320011,,,,,,,2022-05-11,1,,,,,ミリスフドウサン,0
2662,8120001245715,新規,0,2022-05-11,2022-05-11,株式会社ＭｅｎＢＣ,,株式会社,大阪府,大阪市中央区,谷町５丁目５－５、３Ｆ,,27,128,5400012,,,,,,,2022-05-11,1,,,,,メンビーシー,0
2663,8120001245780,新規,0,2022-05-11,2022-05-11,六阿株式会社,,株式会社,大阪府,大阪市生野区,巽北２丁目８番９号,00126519,27,116,5440004,,,,,,,2022-05-11,1,,,,,ロクア,0
2664,8120001245789,新規,0,2022-05-11,2022-05-11,ＨＯＮＥＳＴ株式会社,,株式会社,大阪府,大阪市旭区,高殿６丁目１７番１８号,,27,117,5350031,,,,,,,2022-05-11,1,,,,,オネスト,0
2666,8120003021610,新規,0,2022-05-11,2022-05-11,合同会社ＮＴＳ,,合同会社,大阪府,大阪市中央区,谷町６丁目１４－４ヴィラ谷町６・３０４号室,,27,128,5420012,,,,,,,2022-05-11,1,,,,,エヌティーエス,0
2667,8120003021651,新規,0,2022-05-11,2022-05-11,ＭＩＮＡ　ＧＬＯＢＡＬ合同会社,,合同会社,大阪府,大阪市淀川区,木川東４丁目７番２３－５２１号,,27,123,5320012,,,,,,,2022-05-11,1,,,,,ミナグローバル,0
2670,8120101065542,新規,0,2022-05-11,2022-05-11,ＴＯＴＴＯ株式会社,,株式会社,大阪府,貝塚市,小瀬５３０番地５１,,27,208,5970021,,,,,,,2022-05-11,1,,,,,トット,0
2671,8120101065567,新規,0,2022-05-11,2022-05-11,株式会社ＢＩＧＲＹＯ,,株式会社,大阪府,堺市西区,浜寺南町１丁２番地１（９号）,,27,144,5928344,,,,,,,2022-05-11,1,,,,,ビッグリョウ,0
2678,8120103004688,新規,0,2022-05-11,2022-05-11,合同会社ＣＯＲ,,合同会社,大阪府,和泉市,府中町１丁目２番７号,,27,219,5940071,,,,,,,2022-05-11,1,,,,,コル,0
2679,8120105009561,新規,0,2022-05-11,2022-05-11,一般社団法人山ねこ座,,その他の設立登記法人,大阪府,藤井寺市,岡２丁目８番３７号,,27,226,5830027,,,,,,,2022-05-11,1,,,,,ヤマネコザ,0
2682,8122001035848,新規,0,2022-05-11,2022-05-11,株式会社ヨシカワオート,,株式会社,大阪府,八尾市,太田新町９丁目５９番地１,,27,212,5810039,,,,,,,2022-05-11,1,,,,,ヨシカワオート,0
2683,8122003002334,新規,0,2022-05-11,2022-05-11,合同会社Ｎｒｉｒｙ,,合同会社,大阪府,東大阪市,吉田本町３丁目５番１２－７０１号,,27,227,5780982,,,,,,,2022-05-11,1,,,,,エヌリリィ,0
2690,8130001071722,新規,0,2022-05-11,2022-05-11,株式会社ＶＡＬＫ,,株式会社,京都府,京都市伏見区,醍醐構口町４番地１４,,26,109,6011354,,,,,,,2022-05-11,1,,,,,ヴァルク,0
2694,8140001125972,新規,0,2022-05-11,2022-05-11,株式会社Ｍｅｉｋｉ　Ｈｏｕｓｉｎｇ,,株式会社,兵庫県,加古川市,別府町朝日町６５番２,,28,210,6750123,,,,,,,2022-05-11,1,,,,,メイキハウジング,0
2696,8140003017648,新規,0,2022-05-11,2022-05-11,合同会社ハピネスユウ,,合同会社,兵庫県,西宮市,甲陽園西山町１６番５１号,,28,204,6620017,,,,,,,2022-05-11,1,,,,,ハピネスユウ,0
2697,8140003017656,新規,0,2022-05-11,2022-05-11,合同会社ＪＯＮＹＯＯ,,合同会社,兵庫県,姫路市,飾磨区中浜町１丁目６４番地,,28,201,6728085,,,,,,,2022-05-11,1,,,,,ジョンウ,0
2700,8150001025528,新規,0,2022-05-11,2022-05-11,株式会社孫市,,株式会社,奈良県,生駒郡平群町,初香台５丁目３番２号,,29,342,6360934,,,,,,,2022-05-11,1,,,,,マゴイチ,0
2707,8180001151189,新規,0,2022-05-11,2022-05-11,株式会社ＨＯＳＨＩＮＯ　Ｇ．Ｒ,,株式会社,愛知県,長久手市,市が洞３丁目３０９番地アンジュＩＩＩ２０２,00126524,23,238,4801147,,,,,,,2022-05-11,1,,,,,ホシノジーアール,0
2708,8180001151197,新規,0,2022-05-11,2022-05-11,株式会社クオリテム,,株式会社,愛知県,春日井市,東山町１丁目２－６,,23,206,4860811,,,,,,,2022-05-11,1,,,,,クオリテム,0
2709,8180001151230,新規,0,2022-05-11,2022-05-11,株式会社築炉工房晴,,株式会社,愛知県,愛知郡東郷町,春木台２丁目７番地９,,23,302,4700161,,,,,,,2022-05-11,1,,,,,チクロコウボウハル,0
2710,8180001151263,新規,0,2022-05-11,2022-05-11,株式会社ＣＯＲＳＥＮ,,株式会社,愛知県,名古屋市名東区,望が丘３１０番地（コーポ玉山２０３号）,,23,115,4650046,,,,,,,2022-05-11,1,,,,,コーセン,0
2711,8180001151271,新規,0,2022-05-11,2022-05-11,株式会社Ｐｕｂｌｉｃ　Ａｃｔｉｏｎ　Ｐｌａｎｓ,,株式会社,愛知県,名古屋市中区,金山５丁目１８番６号,,23,106,4600022,,,,,,,2022-05-11,1,,,,,パブリックアクションプランズ,0
2714,8180003023808,新規,0,2022-05-11,2022-05-11,合同会社ラフニーク,,合同会社,愛知県,半田市,柊町５丁目４番地の２５,,23,205,4750916,,,,,,,2022-05-11,1,,,,,ラフニーク,0
2719,8190001029376,新規,0,2022-05-11,2022-05-11,株式会社Ｇｈｏｓｔ　Ｐｏｓｔ,,株式会社,三重県,桑名市,柳原６９,,24,205,5110042,,,,,,,2022-05-11,1,,,,,ゴーストポスト,0
2720,8190003003981,新規,0,2022-05-11,2022-05-11,エフプランテック合同会社,,合同会社,三重県,亀山市,みどり町６番地７,,24,210,5190106,,,,,,,2022-05-11,1,,,,,エフプランテック,0
2722,8210001018921,新規,0,2022-05-11,2022-05-11,竹電工株式会社,,株式会社,福井県,福井市,小羽町第２号３３番地,,18,201,9103621,,,,,,,2022-05-11,1,,,,,タケデンコウ,0
2734,8240001059731,新規,0,2022-05-11,2022-05-11,株式会社夢来ファクトリー,,株式会社,広島県,広島市佐伯区,湯来町大字菅沢７８０番地１,,34,108,7380722,,,,,,,2022-05-11,1,,,,,ユキファクトリー,0
2741,8250001019544,新規,0,2022-05-11,2022-05-11,株式会社東工務店,,株式会社,山口県,防府市,大字仁井令９０８番地の７,,35,206,7470845,,,,,,,2022-05-11,1,,,,,ヒガシコウムテン,0
2742,8260001036844,新規,0,2022-05-11,2022-05-11,株式会社Ｍｏｍｏプランニング,,株式会社,岡山県,岡山市北区,野田屋町２丁目１０番７号ポレスター野田屋町弐番館４０４号,,33,101,7000815,,,,,,,2022-05-11,1,,,,,モモプランニング,0
2744,8270001008512,新規,0,2022-05-11,2022-05-11,株式会社Ｊ‐ｄａｓｈ,,株式会社,鳥取県,米子市,浦津４１１番地,,31,202,6893544,,,,,,,2022-05-11,1,,,,,ジェイダッシュ,0
2750,8290001097479,新規,0,2022-05-11,2022-05-11,株式会社ＴＡＳＵＫＩ,,株式会社,福岡県,福岡市博多区,東比恵３丁目２５番１４－６０１号,,40,132,8120007,,,,,,,2022-05-11,1,,,,,タスキ,0
2753,8290003012477,新規,0,2022-05-11,2022-05-11,合同会社アシタツクリエイツ,,合同会社,福岡県,福岡市早良区,祖原２６番２４号,,40,137,8140005,,,,,,,2022-05-11,1,,,,,アシタツクリエイツ,0
2754,8290003012485,新規,0,2022-05-11,2022-05-11,合同会社さんきゅう,,合同会社,福岡県,福岡市南区,大橋１丁目１８番１－３０２号ダイアパレス大橋,,40,134,8150033,,,,,,,2022-05-11,1,,,,,サンキュウ,0
2755,8290003012502,新規,0,2022-05-11,2022-05-11,合同会社トーエン,,合同会社,福岡県,筑後市,大字熊野１５０２－４,,40,211,8330055,,,,,,,2022-05-11,1,,,,,トーエン,0
2764,8330001029683,新規,0,2022-05-11,2022-05-11,株式会社ランドルグ,,株式会社,熊本県,熊本市中央区,出水１丁目５番３０号,,43,101,8620941,,,,,,,2022-05-11,1,,,,,ランドルグ,0
2778,8370001048548,新規,0,2022-05-11,2022-05-11,株式会社岡澤組,,株式会社,宮城県,塩竈市,大日向町２番１８号,,04,203,9850046,,,,,,,2022-05-11,1,,,,,オカザワグミ,0
2781,8370003005687,新規,0,2022-05-11,2022-05-11,合同会社ＨＦ企画,,合同会社,宮城県,塩竈市,東玉川町６－４ＷＨＩＴＥＳＴＡＴＩＯＮ１Ｆ,,04,203,9850036,,,,,,,2022-05-11,1,,,,,エイチエフキカク,0
2785,8380001032798,新規,0,2022-05-11,2022-05-11,株式会社ＩＴＳＵＫＩ,,株式会社,福島県,福島市,飯坂町平野字檀ノ越１８番地の４,,07,201,9600231,,,,,,,2022-05-11,1,,,,,イツキ,0
2787,8380003005174,新規,0,2022-05-11,2022-05-11,合同会社アプローズ,,合同会社,福島県,いわき市,平字六人町１番地の２２,,07,204,9708026,,,,,,,2022-05-11,1,,,,,アプローズ,0
2793,8420001017836,新規,0,2022-05-11,2022-05-11,株式会社ＭＩＣＣＳ,,株式会社,青森県,青森市,大字新城字平岡２５８－８０,,02,201,0380042,,,,,,,2022-05-11,1,,,,,エムアイシーシーエス,0
2795,8420003002514,新規,0,2022-05-11,2022-05-11,マハロ合同会社,,合同会社,青森県,上北郡東北町,字柳沢５５番地１４,,02,408,0392665,,,,,,,2022-05-11,1,,,,,マハロ,0
2796,8430001086599,新規,0,2022-05-11,2022-05-11,札幌翔栄株式会社,,株式会社,北海道,札幌市東区,東苗穂十条２丁目１６番１３号,,01,103,0070810,,,,,,,2022-05-11,1,,,,,サッポロショウエイ,0
2808,8490003001658,新規,0,2022-05-11,2022-05-11,合同会社ＮＵＩ,,合同会社,高知県,安芸市,井ノ口乙１４１３－２,,39,203,7840052,,,,,,,2022-05-11,1,,,,,ヌイ,0
2812,8700150107467,新規,0,2022-05-11,2022-03-23,ＴＯＫＹＯハンドクラフトギターフェス実行委員会,,その他,神奈川県,茅ヶ崎市,ひばりが丘３－３３,,14,207,2530027,,,,,,,2022-03-23,1,,,,,トウキヨウハンドクラフトギターフエスジツコウイインカイ,0
2813,8700150107500,新規,0,2022-05-11,2022-03-25,ロマンフレンズ,,その他,東京都,中野区,上高田２丁目３１－１０わかば荘１５号,,13,114,1640002,,,,,,,2022-03-25,1,,,,,ロマンフレンズ,0
2814,8700150107574,新規,0,2022-05-11,2022-03-31,鎌倉アクターズワークショップ,,その他,神奈川県,鎌倉市,台１１４３富士見ビル,,14,204,2470061,,,,,,,2022-03-31,1,,,,,カマクラアクターズワークシヨツプ,0
2815,8700150107681,新規,0,2022-05-11,2022-04-05,パフォーマンスプロダクションＣＯＬＯＲＥ,,その他,北海道,札幌市中央区,南十三条西２１丁目１－３－９０３,,01,101,0640913,,,,,,,2022-04-05,1,,,,,パフオーマンスプロダクシヨンコローレ,0
2825,9010001226394,新規,0,2022-05-11,2022-05-11,株式会社ＨＡＴＨＡ,,株式会社,東京都,中央区,銀座１丁目１２－４Ｎ＆ＥＢＬＤ．７階,,13,102,1040061,,,,,,,2022-05-11,1,,,,,ハタ,0
2827,9010003037591,新規,0,2022-05-11,2022-05-11,合同会社Ｓｈｅｅｐ　Ｃｏｎｓｕｌｔｉｎｇ,,合同会社,東京都,文京区,音羽１丁目１４番２－５０１号,,13,105,1120013,,,,,,,2022-05-11,1,,,,,シープコンサルティング,0
2828,9010003037617,新規,0,2022-05-11,2022-05-11,麹町ｓｃｅｎａｒｉｏ合同会社,,合同会社,東京都,千代田区,四番町２－４,,13,101,1020081,,,,,,,2022-05-11,1,,,,,コウジマチシナリオ,0
2834,9010101015177,新規,0,2022-05-11,2022-05-11,株式会社ＯＳＵＰＬＵＳ,,株式会社,東京都,八王子市,元本郷町３丁目７番１４号ホワイトローズマンション３０６号,,13,201,1920051,,,,,,,2022-05-11,1,,,,,オスプラス,0
2841,9010401167247,新規,0,2022-05-11,2022-05-11,フェノエーアイ・ジャパン株式会社,,株式会社,東京都,港区,赤坂１丁目１４番５号アークヒルズエグゼクティブタワーＮ７１１,,13,103,1070052,,,,,,,2022-05-11,1,,,,,フェノエーアイジャパン,0
2842,9010401167255,新規,0,2022-05-11,2022-05-11,株式会社エシカリ,,株式会社,東京都,港区,芝公園１丁目８番１３号源流院ビル５Ｆ,,13,103,1050011,,,,,,,2022-05-11,1,,,,,エシカリ,0
2847,9010405020939,新規,0,2022-05-11,2022-05-11,一般社団法人エンドユーザーコンピューティング協会,,その他の設立登記法人,東京都,港区,浜松町２丁目２番１５号,,13,103,1050013,,,,,,,2022-05-11,1,,,,,エンドユーザーコンピューティングキョウカイ,0
2848,9010405020988,新規,0,2022-05-11,2022-05-11,ＥＳＲ３１・２一般社団法人,,その他の設立登記法人,東京都,港区,浜松町１丁目２０番１０号ライオネス浜松町５０６号室,,13,103,1050013,,,,,,,2022-05-11,1,,,,,イーエスアールサンジュウイチニ,0
2849,9010501048818,新規,0,2022-05-11,2022-05-11,株式会社ｕｌｕ’ｓ,,株式会社,東京都,台東区,柳橋２丁目１番１１号バルクシンソウビル２０１号,,13,106,1110052,,,,,,,2022-05-11,1,,,,,ウルズ,0
2850,9010601061134,新規,0,2022-05-11,2022-05-11,ている舎株式会社,,株式会社,東京都,墨田区,緑１丁目１４番６－１００２号シティポート両国,,13,107,1300021,,,,,,,2022-05-11,1,,,,,テイルシャ,0
2851,9010603009528,新規,0,2022-05-11,2022-05-11,合同会社ＡＬＴＳ,,合同会社,東京都,江東区,森下３丁目１３番１３－１２０２号,,13,108,1350004,,,,,,,2022-05-11,1,,,,,アルツ,0
2853,9010701042604,新規,0,2022-05-11,2022-05-11,株式会社Ｒｏｂｓｏｎ,,株式会社,東京都,品川区,西五反田３丁目８番３号,,13,109,1410031,,,,,,,2022-05-11,1,,,,,ロブソン,0
2854,9010703006227,新規,0,2022-05-11,2022-05-11,ＹＡＭＵ合同会社,,合同会社,東京都,品川区,南大井２丁目６－１４島田荘１,,13,109,1400013,,,,,,,2022-05-11,1,,,,,ヤム,0
2855,9010801032950,新規,0,2022-05-11,2022-05-11,株式会社ｔｅｌｍｅ,,株式会社,東京都,大田区,西蒲田６丁目３２番５号,,13,111,1440051,,,,,,,2022-05-11,1,,,,,テルミー,0
2856,9010805002941,新規,0,2022-05-11,2022-05-11,特定非営利活動法人ド素人スポーツ,,その他の設立登記法人,東京都,大田区,中馬込１丁目１４番１０号リエス馬込４０１,,13,111,1430027,,,,,,,2022-05-11,1,,,,,ドシロウトスポーツ,0
2860,9010901050828,新規,0,2022-05-11,2022-05-11,株式会社Ｅｔｔｅ　Ｄｅｓｉｇｎ　Ｏｆｆｉｃｅ,,株式会社,東京都,世田谷区,等々力６丁目１１番１１号,,13,112,1580082,,,,,,,2022-05-11,1,,,,,エッテデザインオフィス,0
2861,9010903007363,新規,0,2022-05-11,2022-05-11,合同会社なえこ,,合同会社,東京都,世田谷区,野毛２丁目１０番１１－６０４号,,13,112,1580092,,,,,,,2022-05-11,1,,,,,ナエコ,0
2866,9011001147416,新規,0,2022-05-11,2022-05-11,株式会社アシスト,,株式会社,東京都,渋谷区,神宮前６丁目２３番４号桑野ビル２階,,13,113,1500001,,,,,,,2022-05-11,1,,,,,アシスト,0
2867,9011001147424,新規,0,2022-05-11,2022-05-11,Ｗｉｌｄ　Ｔｒａｖｅｌｅｒ＆Ｃｏ．株式会社,,株式会社,東京都,渋谷区,神宮前２丁目３３番５－２０４号,,13,113,1500001,,,,,,,2022-05-11,1,,,,,ワイルドトラベラーアンドカンパニー,0
2868,9011001147440,新規,0,2022-05-11,2022-05-11,株式会社ｅｅｅ,,株式会社,東京都,渋谷区,千駄ヶ谷５丁目１９番１０号１階,,13,113,1510051,,,,,,,2022-05-11,1,,,,,イー,0
2869,9011003014655,新規,0,2022-05-11,2022-05-11,ＰｏｔｓＡｎｄＰａｎｄｓ合同会社,,合同会社,東京都,目黒区,平町１丁目１番８号,,13,110,1520032,,,,,,,2022-05-11,1,,,,,ポッツアンドパンズ,0
2874,9011103011726,新規,0,2022-05-11,2022-05-11,合同会社Ｄａｙｓ,,合同会社,東京都,新宿区,荒木町２１番地４０,,13,104,1600007,,,,,,,2022-05-11,1,,,,,デイズ,0
2875,9011103011734,新規,0,2022-05-11,2022-05-11,合同会社ＲＡＶＥＲ,,合同会社,東京都,新宿区,西新宿３丁目３－１３西新宿水間ビル６Ｆ,,13,104,1600023,,,,,,,2022-05-11,1,,,,,レイバー,0
2877,9011303004406,新規,0,2022-05-11,2022-05-11,合同会社ＥｌｅｍｅｎｔＮｅｔ,,合同会社,東京都,杉並区,上荻１丁目２１－２３パークハイツ３－１０７,,13,115,1670043,,,,,,,2022-05-11,1,,,,,エレメントネット,0
2878,9011401024207,新規,0,2022-05-11,2022-05-11,ナベグラヴィ・ウォータービジネス株式会社,,株式会社,東京都,板橋区,大山東町５８番８号,,13,119,1730014,,,,,,,2022-05-11,1,,,,,ナベグラヴィウォータービジネス,0
2882,9011503005154,新規,0,2022-05-11,2022-05-11,合同会社リバー,,合同会社,東京都,荒川区,東日暮里６丁目５６番１３－３０２号,,13,118,1160014,,,,,,,2022-05-11,1,,,,,リバー,0
2887,9012401039194,新規,0,2022-05-11,2022-05-11,株式会社ＳＡＦＵＪＩ,,株式会社,東京都,三鷹市,井口５丁目６番３５号,,13,204,1810011,,,,,,,2022-05-11,1,,,,,サフジ,0
2890,9012801021561,新規,0,2022-05-11,2022-05-11,株式会社アトリエもみじ．,,株式会社,東京都,立川市,曙町１丁目１２番２０号ＣＯＱＵＩＡビル６－Ａ号,,13,202,1900012,,,,,,,2022-05-11,1,,,,,アトリエモミジ,0
2891,9012805003119,新規,0,2022-05-11,2022-05-11,一般社団法人創生サポート,,その他の設立登記法人,東京都,立川市,幸町４丁目２４番地の１７,,13,202,1900002,,,,,,,2022-05-11,1,,,,,ソウセイサポート,0
2900,9020001146336,新規,0,2022-05-11,2022-05-11,株式会社ＬＥ　ＧＲＡＮＤ,,株式会社,神奈川県,横浜市中区,長者町９丁目１７３番地,,14,104,2310033,,,,,,,2022-05-11,1,,,,,ローケン,0
2901,9020001146402,新規,0,2022-05-11,2022-05-11,株式会社藤が丘駅前薬局,,株式会社,神奈川県,横浜市青葉区,藤が丘２丁目４番地７,,14,117,2270043,,,,,,,2022-05-11,1,,,,,フジガオカエキマエヤッキョク,0
2902,9020001146435,新規,0,2022-05-11,2022-05-11,株式会社ミライ環境カンパニー,,株式会社,神奈川県,横浜市中区,山下町２５２番地グランベル横浜ビル９階４,,14,104,2310023,,,,,,,2022-05-11,1,,,,,,0
2905,9020003021751,新規,0,2022-05-11,2022-05-11,ＧＥＯ　ＧＬＯＢＡＬ　ＬＯＧＩＳＴＩＣＳ合同会社,,合同会社,神奈川県,横浜市中区,本牧大里町３０番８号,,14,104,2310823,,,,,,,2022-05-11,1,,,,,ジオグローバルロジスティクス,0
2913,9021001075913,新規,0,2022-05-11,2022-05-11,株式会社令和電工,,株式会社,神奈川県,茅ヶ崎市,松林２丁目９番１２号,,14,207,2530017,,,,,,,2022-05-11,1,,,,,レイワデンコウ,0
2925,9030001147944,新規,0,2022-05-11,2022-05-11,株式会社彩時記,,株式会社,埼玉県,所沢市,弥生町１７５５番地の１９,,11,208,3590043,,,,,,,2022-05-11,1,,,,,サイジキ,0
2926,9030001148050,新規,0,2022-05-11,2022-05-11,株式会社Ｖｏｉｃｅ,,株式会社,埼玉県,川越市,豊田本４丁目２１番地１７,,11,201,3501118,,,,,,,2022-05-11,1,,,,,ヴォイス,0
2927,9030001148059,新規,0,2022-05-11,2022-05-11,ＡＩＮＡＣ株式会社,,株式会社,埼玉県,さいたま市浦和区,岸町６丁目５番１－１３０４号,,11,107,3300064,,,,,,,2022-05-11,1,,,,,アイナック,0
2928,9030001148075,新規,0,2022-05-11,2022-05-11,株式会社山口林業,,株式会社,埼玉県,秩父市,荒川上田野２１４番地１,,11,207,3691802,,,,,,,2022-05-11,1,,,,,ヤマグチリンギョウ,0
2929,9030001148091,新規,0,2022-05-11,2022-05-11,パラダイス株式会社,,株式会社,埼玉県,川越市,霞ケ関北１丁目２１番地９,,11,201,3501109,,,,,,,2022-05-11,1,,,,,パラダイス,0
2930,9030001148158,新規,0,2022-05-11,2022-05-11,株式会社ｆｅａｃｔｉｖｅ,,株式会社,埼玉県,鴻巣市,天神５丁目８番３号,,11,217,3650036,,,,,,,2022-05-11,1,,,,,フィーアクティブ,0
2933,9030003019349,新規,0,2022-05-11,2022-05-11,合同会社ピース,,合同会社,埼玉県,越谷市,大字船渡１８９８番地,,11,222,3430003,,,,,,,2022-05-11,1,,,,,ピース,0
2934,9030003019365,新規,0,2022-05-11,2022-05-11,合同会社トリプルトゥ,,合同会社,埼玉県,和光市,丸山台２丁目８番１０－２０７号,,11,229,3510112,,,,,,,2022-05-11,1,,,,,トリプルトゥ,0
2935,9030003019381,新規,0,2022-05-11,2022-05-11,合同会社亀さん,,合同会社,埼玉県,さいたま市緑区,大字大門２８９３－２４,,11,109,3360963,,,,,,,2022-05-11,1,,,,,カメサン,0
2939,9040001123366,新規,0,2022-05-11,2022-05-11,株式会社ＵＳＶ,,株式会社,千葉県,千葉市中央区,都町５丁目２番１号,,12,101,2600001,,,,,,,2022-05-11,1,,,,,ユーエスブイ,0
2946,9040003019991,新規,0,2022-05-11,2022-05-11,合同会社伝統料理研究所,,合同会社,千葉県,千葉市若葉区,高品町８９９番地１高品ハイツ２棟６０１号,,12,104,2640024,,,,,,,2022-05-11,1,,,,,デントウリョウリケンキュウジョ,0
2947,9040003020017,新規,0,2022-05-11,2022-05-11,Ｔｓｕｒｅ‐ＬｉＦＥ合同会社,,合同会社,千葉県,白井市,清水口３丁目４番４号,,12,232,2701435,,,,,,,2022-05-11,1,,,,,ツリライフ,0
2954,9050005013075,新規,0,2022-05-11,2022-05-11,一般社団法人茨城県訪問看護事業協議会,,その他の設立登記法人,茨城県,水戸市,緑町３丁目５番３５号（茨城県保健衛生会館内）,,08,201,3100034,,,,,,,2022-05-11,1,,,,,イバラキケンホウモンカンゴジギョウキョウギカイ,0
2957,9060001034867,新規,0,2022-05-11,2022-05-11,株式会社マルタカ工業,,株式会社,栃木県,宇都宮市,川田町８１１番地１リベルテ４０３,,09,201,3210111,,,,,,,2022-05-11,1,,,,,マルタカコウギョウ,0
2980,9110001036635,新規,0,2022-05-11,2022-05-11,株式会社タナカホールディングス,,株式会社,新潟県,新潟市東区,石山５丁目９番１９号,,15,102,9500852,,,,,,,2022-05-11,1,,,,,タナカホールディングス,0
2981,9110001036651,新規,0,2022-05-11,2022-05-11,株式会社渡辺板金工業,,株式会社,新潟県,長岡市,加津保町１９８４番地,,15,202,9400803,,,,,,,2022-05-11,1,,,,,ワタナベバンキンコウギョウ,0
3000,9120001245838,新規,0,2022-05-11,2022-05-11,株式会社エフエス興産,,株式会社,大阪府,大阪市中央区,天満橋京町３番５号,,27,128,5400032,,,,,,,2022-05-11,1,,,,,エフエスコウサン,0
3008,9120101065525,新規,0,2022-05-11,2022-05-11,株式会社小手川工業,,株式会社,大阪府,和泉市,伏屋町３丁目１６番２１－３０１号,,27,219,5940031,,,,,,,2022-05-11,1,,,,,コテガワコウギョウ,0
3009,9120101065533,新規,0,2022-05-11,2022-05-11,株式会社アイエーエス,,株式会社,大阪府,藤井寺市,春日丘３丁目２番９号,,27,226,5830026,,,,,,,2022-05-11,1,,,,,アイエーエス,0
3010,9120101065541,新規,0,2022-05-11,2022-05-11,株式会社エヌハチ,,株式会社,大阪府,堺市南区,原山台２丁３番３－１００６号,,27,145,5900132,,,,,,,2022-05-11,1,,,,,エヌハチ,0
3011,9120101065566,新規,0,2022-05-11,2022-05-11,株式会社ＴＲＵＳＴ,,株式会社,大阪府,高石市,千代田４丁目４番２号,,27,225,5920005,,,,,,,2022-05-11,1,,,,,トラスト,0
3021,9122001035855,新規,0,2022-05-11,2022-05-11,株式会社上村設備,,株式会社,大阪府,八尾市,上之島町南４丁目２番地クレアール山本１０３号,,27,212,5810846,,,,,,,2022-05-11,1,,,,,ウエムラセツビ,0
3022,9122003002333,新規,0,2022-05-11,2022-05-11,ダイコク堂合同会社,,合同会社,大阪府,東大阪市,元町２丁目１番４１号,,27,227,5798005,,,,,,,2022-05-11,1,,,,,ダイコクドウ,0
3023,9122005003619,新規,0,2022-05-11,2022-05-11,特定非営利活動法人生活支援ネットＯｍｕｓｕｂｉ,,その他の設立登記法人,大阪府,東大阪市,岩田町２丁目２番２５号,,27,227,5780941,,,,,,,2022-05-11,1,,,,,セイカツシエンネットオムスビ,0
3028,9130001071696,新規,0,2022-05-11,2022-05-11,株式会社Ｒｅｖｅｕｒ　Ｈｏｍｅ,,株式会社,京都府,京都市西京区,上桂宮ノ後町３８－５上桂アーカス１Ｆ,,26,111,6158227,,,,,,,2022-05-11,1,,,,,レブールホーム,0
3029,9130001071746,新規,0,2022-05-11,2022-05-11,株式会社海設備,,株式会社,京都府,京都市北区,上賀茂音保瀬町８番地５,,26,101,6038038,,,,,,,2022-05-11,1,,,,,カイセツビ,0
3032,9130005016474,新規,0,2022-05-11,2022-05-11,一般社団法人ぼーっとｐｒｏｊｅｃｔ,,その他の設立登記法人,京都府,京都市西京区,大原野北春日町８２７番地３,,26,111,6101152,,,,,,,2022-05-11,1,,,,,ボーットプロジェクト,0
3044,9140001125906,新規,0,2022-05-11,2022-05-11,株式会社ＭＹ企画,,株式会社,兵庫県,尼崎市,大庄川田町５番地の２１,,28,202,6600072,,,,,,,2022-05-11,1,,,,,エムワイキカク,0
3045,9140001125971,新規,0,2022-05-11,2022-05-11,ＢＤｐａｒｔｎｅｒｓ株式会社,,株式会社,兵庫県,神戸市北区,筑紫が丘５丁目１９番地の１４,,28,109,6511212,,,,,,,2022-05-11,1,,,,,ビーディーパートナーズ,0
3062,9180001151188,新規,0,2022-05-11,2022-05-11,株式会社ＭＹナチュラ,,株式会社,愛知県,清須市,西枇杷島町日之出１丁目２番,,23,233,4520034,,,,,,,2022-05-11,1,,,,,マイナチュラ,0
3063,9180001151262,新規,0,2022-05-11,2022-05-11,株式会社ＴｙＰＬＵＳ,,株式会社,愛知県,名古屋市中川区,八熊２丁目２番６号（リーデンススクエア金山ＷＥＳＴ１５０１号）,,23,110,4540013,,,,,,,2022-05-11,1,,,,,ティプラス,0
3064,9180001151295,新規,0,2022-05-11,2022-05-11,ｍｉ企画株式会社,,株式会社,愛知県,名古屋市緑区,大清水西１００３番地の２８,,23,114,4580806,,,,,,,2022-05-11,1,,,,,エムアイキカク,0
3066,9180003023798,新規,0,2022-05-11,2022-05-11,合同会社ロータス,,合同会社,愛知県,名古屋市中区,丸の内１丁目１７番１９号,,23,106,4600002,,,,,,,2022-05-11,1,,,,,ロータス,0
3067,9180003023807,新規,0,2022-05-11,2022-05-11,合同会社みりん工房,,合同会社,愛知県,日進市,赤池町モチロ６１番地９２７,,23,230,4700126,,,,,,,2022-05-11,1,,,,,ミリンコウボウ,0
3077,9190001029391,新規,0,2022-05-11,2022-05-11,株式会社井戸野電気,,株式会社,三重県,伊賀市,ゆめが丘４丁目４番地の１２,,24,216,5180131,,,,,,,2022-05-11,1,,,,,イドノデンキ,0
3078,9190003003980,新規,0,2022-05-11,2022-05-11,合同会社ＣＳレンタル,,合同会社,三重県,鈴鹿市,竹野町１３１番地２,,24,207,5130026,,,,,,,2022-05-11,1,,,,,シーエスレンタル,0
3087,9210001018920,新規,0,2022-05-11,2022-05-11,株式会社Ｂ＆Ｔ　ＭＩＳＨＩＭＡ,,株式会社,福井県,敦賀市,三島町２丁目４番３３号,,18,202,9140058,,,,,,,2022-05-11,1,,,,,ビーアンドティーミシマ,0
3093,9220003003275,新規,0,2022-05-11,2022-05-11,合同会社エストイアグラデシーダ,,合同会社,石川県,白山市,月橋町リ３７番地１２,,17,210,9202104,,,,,,,2022-05-11,1,,,,,エストイアグラデシーダ,0
3104,9240003005617,新規,0,2022-05-11,2022-05-11,合同会社ごはんやつくし,,合同会社,広島県,広島市中区,白島中町１４番３１号,,34,101,7300002,,,,,,,2022-05-11,1,,,,,ゴハンヤツクシ,0
3117,9280003001612,新規,0,2022-05-11,2022-05-11,グリーンアセット合同会社,,合同会社,島根県,益田市,乙吉町イ３４４番地１２（１０１）,,32,204,6980003,,,,,,,2022-05-11,1,,,,,,0
3124,9290001097437,新規,0,2022-05-11,2022-05-11,株式会社山本基礎,,株式会社,福岡県,嘉麻市,山野１２５６番地４,,40,227,8200202,,,,,,,2022-05-11,1,,,,,ヤマモトキソ,0
3125,9290003012484,新規,0,2022-05-11,2022-05-11,合同会社よし屋,,合同会社,福岡県,福岡市博多区,豊１丁目８番１７－１３０１号アソシアテラス博多,,40,132,8120042,,,,,,,2022-05-11,1,,,,,ヨシヤ,0
3128,9300005007076,新規,0,2022-05-11,2022-05-11,医療法人匠双隆,,その他の設立登記法人,佐賀県,佐賀市,鍋島町大字森田４１６番地１,,41,201,8490936,,,,,,,2022-05-11,1,,,,,タクミソウリュウ,0
3136,9350003004079,新規,0,2022-05-11,2022-05-11,合同会社まんてん,,合同会社,宮崎県,宮崎市,大字新名爪８０番地１コーポヤスモト１０１号,,45,201,8800124,,,,,,,2022-05-11,1,,,,,マンテン,0
3137,9370001048555,新規,0,2022-05-11,2022-05-11,株式会社アンブランザ,,株式会社,宮城県,仙台市太白区,長町５丁目１２－１,,04,104,9820011,,,,,,,2022-05-11,1,,,,,アンブランザ,0
3144,9380001032789,新規,0,2022-05-11,2022-05-11,株式会社セディア設計,,株式会社,福島県,いわき市,好間町上好間字馬場１６番地,,07,204,9701153,,,,,,,2022-05-11,1,,,,,セディアセッケイ,0
3145,9380001032797,新規,0,2022-05-11,2022-05-11,株式会社中川建設工業,,株式会社,福島県,南相馬市,原町区本陣前１丁目４０番地の２ひばりグリーンハイツ１０３,,07,212,9750062,,,,,,,2022-05-11,1,,,,,ナカガワケンセツコウギョウ,0
3146,9380003005173,新規,0,2022-05-11,2022-05-11,ｍｅｌｉ‐ｍｅｌｏ合同会社,,合同会社,福島県,いわき市,錦町上中田３６番地,,07,204,9748232,,,,,,,2022-05-11,1,,,,,メリメロ,0
3155,9430001086565,新規,0,2022-05-11,2022-05-11,株式会社ＡＴｐｒｏｊｅｃｔ,,株式会社,北海道,札幌市中央区,南二条西６丁目１４番地大友ビル４Ｆ,,01,101,0600062,,,,,,,2022-05-11,1,,,,,エーティープロジェクト,0
3160,9440001009079,新規,0,2022-05-11,2022-05-11,株式会社田中建築,,株式会社,北海道,北斗市,久根別４丁目１１番５号,,01,236,0490121,,,,,,,2022-05-11,1,,,,,タナカケンチク,0
3174,9700150037341,新規,0,2022-05-11,2015-10-09,福島県厚生連共済組合,,その他,福島県,福島市,飯坂町平野字三枚長１番地１,,07,201,9600231,,,,,,,2015-10-09,1,,,,,フクシマケンコウセイレンキヨウサイクミアイ,0
3175,9700150107854,新規,0,2022-05-11,2022-04-12,Ｈａｒｌｅｍ　Ｇｏｓｐｅｌ　Ｍｉｓｓｉｏｎａｒｙ,,その他,大阪府,大阪市淀川区,塚本５丁目５－８,,27,123,5320026,,,,,,,2022-04-12,1,,,,,ハーレムゴスペルミツシヨナリー,0
3176,9700150108258,新規,0,2022-05-11,2022-04-22,ＡＳＵＫＡエンターテイメント,,その他,神奈川県,横浜市中区,山下町７３－２－２０３,,14,104,2310023,,,,,,,2022-04-22,1,,,,,アスカエンターテイメント,0
