sequenceNumber,corporateNumber,process,correct,updateDate,changeDate,name,nameImageId,kind,prefectureName,cityName,streetNumber,addressImageId,prefectureCode,cityCode,postCode,addressOutside,addressOutsideImageId,closeDate,closeCause,successorCorporateNumber,changeCause,assignmentDate,latest,enName,enPrefectureName,enCityName,enAddressOutside,furigana,hihyoji
12,1010001252530,登記記録の閉鎖等,0,2025-10-21,2025-09-29,ＨＢ株式会社,,株式会社,東京都,千代田区,丸の内２丁目６番１号,,13,101,1000005,,,2025-09-29,清算の結了等,,,2025-02-25,1,,,,,エイチビー,0
16,1010003034951,登記記録の閉鎖等,0,2025-10-21,2025-10-14,メディカルハーブ合同会社,,合同会社,東京都,千代田区,九段南１丁目５番６号りそな九段ビル５階,,13,101,1020074,,,2025-10-14,清算の結了等,,,2021-05-27,1,,,,,メディカルハーブ,0
19,1010003043077,登記記録の閉鎖等,0,2025-10-21,2025-10-01,株式会社Ｂｉｏ　Ｓｙｎｅｒｇｙ　Ｊａｐａｎ,,株式会社,東京都,中央区,銀座１丁目２２－１１銀座大竹ビジデンス２Ｆ,,13,102,1040061,,,2025-10-01,清算の結了等,,,2024-02-29,1,,,,,バイオシナジージャパン,0
20,1010005025536,登記記録の閉鎖等,0,2025-10-21,2025-10-16,一般社団法人適塩・血圧対策推進協会,,その他の設立登記法人,東京都,中央区,日本橋富沢町１０番１４号日本橋ＢＳビル７階,,13,102,1030006,,,2025-10-16,清算の結了等,,,2016-07-06,1,,,,,テキエンケツアツタイサクスイシンキョウカイ,0
21,1010005036450,登記記録の閉鎖等,0,2025-10-21,2025-10-16,経友会社会保険労務士法人,,その他の設立登記法人,東京都,千代田区,有楽町１丁目２番２号,,13,101,1000006,,,2025-10-16,清算の結了等,,,2023-04-07,1,,,,,ケイユウカイ,0
31,1010401046037,登記記録の閉鎖等,0,2025-10-21,2025-10-02,サムトータル・システムズ株式会社,,株式会社,東京都,千代田区,丸の内１丁目６番５号丸の内北口ビルディング９階ＷｅＷｏｒｋ内,,13,101,1000005,,,2025-10-02,合併による解散等,6010401103881,令和７年１０月１日東京都千代田区丸の内一丁目６番５号丸の内北口ビルディング９階ＷｅＷｏｒｋ内Ｃｏｒｎｅｒｓｔｏｎｅ　ＯｎＤｅｍａｎｄ　Ｊａｐａｎ株式会社（6010401103881）に合併し解散,2015-10-05,1,,,,,サムトータルシステムズ,0
37,1010401170076,登記記録の閉鎖等,0,2025-10-21,2025-10-16,株式会社朝日デジタルラボ,,株式会社,東京都,港区,虎ノ門３丁目２２番１号,,13,103,1050001,,,2025-10-16,合併による解散等,7010001127322,令和７年１０月１日東京都千代田区神田神保町二丁目２番地株式会社４Ｘ（7010001127322）に合併し解散,2022-10-07,1,,,,,アサヒデジタルラボ,0
49,1010501041193,登記記録の閉鎖等,0,2025-10-21,2025-10-08,株式会社ＥＭ－Ｄ,,株式会社,東京都,台東区,上野６丁目１番６号御徒町グリーンハイツ１００５号,,13,106,1100005,,,2025-10-08,清算の結了等,,,2017-06-14,1,,,,,イーエムディー,0
56,1010901055719,登記記録の閉鎖等,0,2025-10-21,2025-10-20,オンボード株式会社,,株式会社,東京都,世田谷区,池尻４丁目８番１－１２０３号,,13,112,1540001,,,2025-10-20,清算の結了等,,,2024-07-30,1,,,,,オンボード,0
66,1011101035544,登記記録の閉鎖等,0,2025-10-21,2025-10-16,株式会社東京全通Ｃ＆Ｐ,,株式会社,東京都,新宿区,富久町２番１９号,,13,104,1620067,,,2025-10-16,清算の結了等,,,2015-10-05,1,,,,,トウキョウゼンツウシーアンドピー,0
89,1011803005464,登記記録の閉鎖等,0,2025-10-21,2025-09-24,ａｌｂａ合同会社,,合同会社,千葉県,富里市,七栄５４２番地３２,,12,233,2860221,,,2025-09-24,清算の結了等,,,2023-01-12,1,,,,,アルバ,0
90,1012401002481,登記記録の閉鎖等,0,2025-10-21,2025-10-07,株式会社新田服飾製作所,,株式会社,東京都,国分寺市,東元町３丁目２３番１６号,,13,214,1850022,,,2025-10-07,清算の結了等,,,2015-10-05,1,,,,,ニッタフクショクセイサクショ,0
110,1020002004888,登記記録の閉鎖等,0,2025-10-21,2025-10-03,有限会社ベイ・ブリーズ,,有限会社,神奈川県,横浜市緑区,白山１丁目６番１－１３０８号,,14,113,2260006,,,2025-10-03,清算の結了等,,,2015-10-05,1,,,,,ベイブリーズ,0
117,1021001077933,登記記録の閉鎖等,0,2025-10-21,2025-09-30,株式会社ＯＣＴＡ,,株式会社,神奈川県,大和市,福田６丁目１番地１１リバーサイドハイツＢ２０２号,,14,213,2420024,,,2025-09-30,清算の結了等,,,2023-01-17,1,,,,,オクタ,0
119,1021002055137,登記記録の閉鎖等,0,2025-10-21,2025-09-30,有限会社大坂屋呉服店,,有限会社,神奈川県,足柄上郡松田町,松田惣領１３３８番地,,14,363,2580003,,,2025-09-30,清算の結了等,,,2015-10-05,1,,,,,オオサカヤゴフクテン,0
145,1070001022696,登記記録の閉鎖等,0,2025-10-21,2025-10-16,ローヤルテクノ株式会社,,株式会社,群馬県,太田市,藤阿久町４４６番地７,,10,205,3730034,,,2025-10-16,合併による解散等,6210001008305,令和７年１０月１日東京都港区高輪二丁目１６番３７号ローヤル電機株式会社（6210001008305）に合併し解散,2015-10-05,1,,,,,ローヤルテクノ,0
148,1080001026878,登記記録の閉鎖等,0,2025-10-21,2025-10-14,株式会社友結,,株式会社,静岡県,焼津市,田尻１３３１番地,,22,212,4250052,,,2025-10-14,清算の結了等,,,2025-04-14,1,,,,,ユユ,0
149,1080002018049,登記記録の閉鎖等,0,2025-10-21,2025-10-14,有限会社美乃家,,有限会社,静岡県,藤枝市,駅前２丁目１３番３号,,22,214,4260034,,,2025-10-14,清算の結了等,,,2015-10-05,1,,,,,ミノヤ,0
194,1130001054502,登記記録の閉鎖等,0,2025-10-21,2025-10-17,株式会社京ｃｏｌｏｒ,,株式会社,京都府,京都市下京区,綾小路通烏丸東入竹屋之町２６５番地ヒトミビル１階,,26,106,6008090,,,2025-10-17,清算の結了等,,,2015-10-05,1,,,,,キョウカラー,0
200,1130005013512,登記記録の閉鎖等,0,2025-10-21,2025-10-16,特定非営利活動法人古都空家協会,,その他の設立登記法人,京都府,京都市南区,久世上久世町４７７番地１４株式会社クオリティハウス内,,26,107,6018212,,,2025-10-16,清算の結了等,,,2015-10-05,1,,,,,コトアキヤキョウカイ,0
208,1150002000742,登記記録の閉鎖等,0,2025-10-21,2025-10-15,有限会社サンビレッジ,,有限会社,奈良県,奈良市,鳥見町２丁目２３番地の７,,29,201,6310065,,,2025-10-15,清算の結了等,,,2015-10-05,1,,,,,サンビレッジ,0
229,1200002024612,登記記録の閉鎖等,0,2025-10-21,2025-10-17,有限会社シーエス,,有限会社,岐阜県,中津川市,中津川２４８５番地,,21,206,5080001,,,2025-10-17,清算の結了等,,,2015-10-05,1,,,,,シーエス,0
240,1260001023667,登記記録の閉鎖等,0,2025-10-21,2025-10-14,株式会社エスワンワールド,,株式会社,岡山県,岡山市中区,平井７丁目２０番５６号リバーハイツイシダ１－１,,33,102,7038282,,,2025-10-14,清算の結了等,,,2015-10-05,1,,,,,エスワンワールド,0
251,1290001102039,登記記録の閉鎖等,0,2025-10-21,2025-09-04,株式会社博多屋,,株式会社,福岡県,福岡市東区,多の津１丁目８番３号,,40,131,8130034,,,2025-09-04,清算の結了等,,,2023-06-23,1,,,,,,0
259,1310001009438,登記記録の閉鎖等,0,2025-10-21,2025-10-20,株式会社うぐいすや旅館,,株式会社,長崎県,雲仙市,小浜町北本町９０５番地３５,,42,213,8540514,,,2025-10-20,清算の結了等,,,2015-10-05,1,,,,,,0
263,1320003003677,登記記録の閉鎖等,0,2025-10-21,2025-10-09,合同会社ＢＡＧＤＯＯＭ,,合同会社,大分県,別府市,京町１１番８号２階,,44,202,8740926,,,2025-10-09,清算の結了等,,,2021-12-22,1,,,,,バグドム,0
276,1360005000371,登記記録の閉鎖等,0,2025-10-21,2025-10-09,医療法人神谷医院,,その他の設立登記法人,沖縄県,那覇市,長田１丁目１２番３５号,,47,201,9020077,,,2025-10-09,清算の結了等,,,2015-10-05,1,,,,,,0
277,1370002009571,登記記録の閉鎖等,0,2025-10-21,2025-10-06,有限会社エイチアンドピー,,有限会社,宮城県,仙台市泉区,松森字前ケ沢２－４,,04,105,9813111,,,2025-10-06,清算の結了等,,,2015-10-05,1,,,,,エイチアンドピー,0
279,1370005005980,登記記録の閉鎖等,0,2025-10-21,2025-10-02,一般社団法人Ｆｉｓｈ　Ｍａｒｋｅｔ３８,,その他の設立登記法人,宮城県,気仙沼市,本浜町１丁目３９番２,,04,205,9880003,,,2025-10-02,清算の結了等,,,2015-10-05,1,,,,,フィッシュマーケットサンジュウハチ,0
281,1380001017070,登記記録の閉鎖等,0,2025-10-21,2025-10-06,株式会社菊地輸送システム,,株式会社,福島県,福島市,御山字中川原１１番地の１,,07,201,9608252,,,2025-10-06,清算の結了等,,,2015-10-05,1,,,,,キクチユソウシステム,0
288,1380005002721,登記記録の閉鎖等,0,2025-10-21,2025-10-06,郡山青果商業協同組合,,その他の設立登記法人,福島県,郡山市,大槻町字向原１１４番地,,07,203,9630201,,,2025-10-06,清算の結了等,,,2015-10-05,1,,,,,コオリヤマセイカショウギョウ,0
294,1430001064669,登記記録の閉鎖等,0,2025-10-21,2025-10-16,株式会社空知ワインステーション,,株式会社,北海道,岩見沢市,四条東１丁目６番１号,,01,210,0680004,,,2025-10-16,清算の結了等,,,2015-10-05,1,,,,,ソラチワインステーション,0
305,1490001003324,登記記録の閉鎖等,0,2025-10-21,2025-10-10,株式会社ウイル,,株式会社,高知県,高知市,中久万２３８番地４,,39,201,7800983,,,2025-10-10,合併による解散等,4490001001093,令和７年１０月１日高知市山手町８１番地株式会社サニーマート（4490001001093）に合併し解散,2015-10-05,1,,,,,ウイル,0
308,1700150077502,登記記録の閉鎖等,0,2025-10-21,2025-08-20,あとうスロー・ツーリズム推進協議会,,その他,山口県,山口市,阿東徳佐中３６２８番地,,35,203,7591512,,,2025-08-20,その他の清算の結了等,,,2016-11-18,1,,,,,アトウスローツーリズムスイシンキヨウギカイ,0
312,2010001077761,登記記録の閉鎖等,0,2025-10-21,2025-10-01,株式会社フォートリス,,株式会社,東京都,千代田区,外神田３丁目１１番２号ロックビル,,13,101,1010021,,,2025-10-01,清算の結了等,,,2015-10-05,1,,,,,フォートリス,0
321,2010003026618,登記記録の閉鎖等,0,2025-10-21,2025-10-16,アキムリア合同会社,,合同会社,東京都,中央区,銀座６丁目１３番１６号銀座ＷａｌｌビルＵＣＦ５階,,13,102,1040061,,,2025-10-16,合併による解散等,8010403017715,令和７年１０月１日東京都豊島区目白四丁目１９番１５号ジェイビー合同会社（8010403017715）に合併し解散,2017-12-19,1,,,,,アキムリア,0
326,2010005037885,登記記録の閉鎖等,0,2025-10-21,2025-10-17,Ｂｌｕｅ　Ｍａｐ　Ａｌｐｈａ一般社団法人,,その他の設立登記法人,東京都,千代田区,霞が関３丁目２番５号,,13,101,1000013,,,2025-10-17,清算の結了等,,,2024-02-14,1,,,,,ブルーマップアルファ,0
327,2010005038025,登記記録の閉鎖等,0,2025-10-21,2025-10-15,一般社団法人化成,,その他の設立登記法人,東京都,千代田区,丸の内１丁目４番１号東京共同会計事務所内,,13,101,1000005,,,2025-10-15,清算の結了等,,,2024-03-14,1,,,,,カセイ,0
346,2010403016177,登記記録の閉鎖等,0,2025-10-21,2025-09-17,合同会社ＹＵＭＡＮＡ　ＨＯＬＤＩＮＧＳ,,合同会社,東京都,港区,芝２丁目１２番１３号ＡＳＩＴＩＳ芝ビル２０１,,13,103,1050014,,,2025-09-17,清算の結了等,,,2017-02-23,1,,,,,ユマナホールディングス,0
367,2011002017855,登記記録の閉鎖等,0,2025-10-21,2025-10-17,有限会社アナパ・パシフィック,,有限会社,東京都,新宿区,西新宿８丁目１４番２４号西新宿ＫＦビル５階,,13,104,1600023,,,2025-10-17,清算の結了等,,,2015-10-05,1,,,,,アナパパシフィック,0
386,2011501015459,登記記録の閉鎖等,0,2025-10-21,2025-10-15,株式会社エスワン,,株式会社,東京都,荒川区,西尾久１丁目３１番６－３０２号,,13,118,1160011,,,2025-10-15,清算の結了等,,,2015-10-05,1,,,,,エスワン,0
396,2012303002190,登記記録の閉鎖等,0,2025-10-21,2025-10-02,合同会社ミライバトン,,合同会社,東京都,町田市,金井２丁目３７番地２２,,13,209,1950072,,,2025-10-02,清算の結了等,,,2025-07-07,1,,,,,ミライバトン,0
402,2012705001294,登記記録の閉鎖等,0,2025-10-21,2025-10-14,医療法人社団エバークリーン会,,その他の設立登記法人,東京都,東村山市,恩多町１丁目４０番地３,,13,213,1890011,,,2025-10-14,清算の結了等,,,2015-10-05,1,,,,,エバークリーンカイ,0
403,2013101001145,登記記録の閉鎖等,0,2025-10-21,2025-10-16,平野重機整備株式会社,,株式会社,東京都,あきる野市,山田７７７番地の３,,13,228,1900144,,,2025-10-16,清算の結了等,,,2015-10-05,1,,,,,ヒラノジュウキセイビ,0
404,2013103001201,登記記録の閉鎖等,0,2025-10-21,2025-10-15,合同会社モノリス,,合同会社,東京都,羽村市,羽加美１丁目３８番地２銀杏台マンション３０１,,13,227,2050016,,,2025-10-15,清算の結了等,,,2023-01-11,1,,,,,モノリス,0
409,2020001024845,登記記録の閉鎖等,0,2025-10-21,2025-10-01,株式会社横浜マシナリー,,株式会社,神奈川県,横浜市神奈川区,守屋町１丁目２番２,,14,102,2210022,,,2025-10-01,合併による解散等,3020001030545,令和７年１０月１日横浜市神奈川区守屋町一丁目２番２京浜ドック株式会社（3020001030545）に合併し解散,2015-10-05,1,,,,,ヨコハママシナリー,0
413,2020001126212,登記記録の閉鎖等,0,2025-10-21,2025-10-03,みらいシステム株式会社,,株式会社,神奈川県,横浜市保土ケ谷区,保土ケ谷町１丁目９２番地５－７０３号,,14,106,2400021,,,2025-10-03,清算の結了等,,,2018-05-08,1,,,,,ミライシステム,0
414,2020001140741,登記記録の閉鎖等,0,2025-10-21,2025-10-02,株式会社ネオエフ,,株式会社,神奈川県,横浜市中区,山下町８９番地１,,14,104,2310023,,,2025-10-02,合併による解散等,3020001000366,令和７年１０月１日横浜市中区山下町８９番地１株式会社ファンケル（3020001000366）に合併し解散,2021-04-05,1,,,,,ネオエフ,0
422,2021002025444,登記記録の閉鎖等,0,2025-10-21,2025-09-30,有限会社ワコー・エージェンシー,,有限会社,神奈川県,相模原市中央区,相模原２丁目１３番７号,,14,152,2520231,,,2025-09-30,清算の結了等,,,2015-10-05,1,,,,,ワコーエージェンシー,0
434,2040001018267,登記記録の閉鎖等,0,2025-10-21,2025-09-08,株式会社中臺肉店,00018887,株式会社,千葉県,船橋市,前貝塚町５１１番地４,,12,204,2730042,,,2025-09-08,清算の結了等,,,2015-10-05,1,,,,,ナカダイニクテン,0
435,2040001048917,登記記録の閉鎖等,0,2025-10-21,2025-09-18,株式会社なごみ,,株式会社,千葉県,四街道市,大日２２６番地の９,,12,228,2840001,,,2025-09-18,清算の結了等,,,2015-10-05,1,,,,,ナゴミ,0
441,2040002095438,登記記録の閉鎖等,0,2025-10-21,2025-09-19,桔梗酒販有限会社,,有限会社,千葉県,柏市,柏１丁目１番１１号,,12,217,2770005,,,2025-09-19,清算の結了等,,,2015-10-05,1,,,,,キキョウシュハン,0
454,2070001036398,登記記録の閉鎖等,0,2025-10-21,2025-10-16,株式会社ＫＲＳ,,株式会社,群馬県,太田市,市場町７４８番地２３ふじサイレント２０６,,10,205,3730013,,,2025-10-16,清算の結了等,,,2019-12-16,1,,,,,ケーアールエス,0
456,2070002017892,登記記録の閉鎖等,0,2025-10-21,2025-10-15,有限会社吉田屋食品,,有限会社,群馬県,藤岡市,中６２２番地５,,10,209,3750005,,,2025-10-15,清算の結了等,,,2015-10-05,1,,,,,ヨシダヤショクヒン,0
473,2120001026204,登記記録の閉鎖等,0,2025-10-21,2025-10-14,株式会社カネギ自動車,,株式会社,大阪府,大阪市此花区,伝法４丁目２番２８号,,27,104,5540002,,,2025-10-14,清算の結了等,,,2015-10-05,1,,,,,カネギジドウシャ,0
474,2120001162115,登記記録の閉鎖等,0,2025-10-21,2025-10-07,株式会社エヌ・イー・クリエイト,,株式会社,大阪府,寝屋川市,美井元町２４番３３号,,27,215,5720006,,,2025-10-07,清算の結了等,,,2015-10-05,1,,,,,エヌイークリエイト,0
475,2120001191626,登記記録の閉鎖等,0,2025-10-21,2025-10-08,株式会社ｋｅｉｆｕｎ,,株式会社,大阪府,大阪市北区,中崎西２丁目６番６号,,27,127,5300015,,,2025-10-08,清算の結了等,,,2015-10-05,1,,,,,ケイファン,0
476,2120001191700,登記記録の閉鎖等,0,2025-10-21,2025-10-01,株式会社リットフィールド,,株式会社,大阪府,高槻市,城北町２丁目２番３号,,27,207,5690071,,,2025-10-01,合併による解散等,1120901011826,令和７年１０月１日大阪府高槻市城北町二丁目２番１６号株式会社リットフィールド（1120901011826）に合併し解散,2015-10-05,1,,,,,リットフィールド,0
501,2130001061679,登記記録の閉鎖等,0,2025-10-21,2025-10-17,株式会社グッドウエスト,,株式会社,京都府,京都市下京区,烏丸通仏光寺下る大政所町６８５番地京都四条烏丸ビル３階,,26,106,6008413,,,2025-10-17,清算の結了等,,,2018-03-09,1,,,,,グッドウエスト,0
506,2130005001763,登記記録の閉鎖等,0,2025-10-21,2025-10-16,水心会,,その他の設立登記法人,京都府,京都市北区,紫野南花ノ坊町８番地の３,,26,101,6038305,,,2025-10-16,清算の結了等,,,2015-10-05,1,,,,,スイシンカイ,0
507,2140001000751,登記記録の閉鎖等,0,2025-10-21,2025-10-10,株式会社増一,,株式会社,兵庫県,芦屋市,西芦屋町３番２２号,00039003,28,206,6590085,,,2025-10-10,清算の結了等,,,2015-10-05,1,,,,,マスイチ,0
509,2140001077443,登記記録の閉鎖等,0,2025-10-21,2025-10-08,株式会社泳通,,株式会社,兵庫県,加東市,上三草１１３４番地２１１,,28,228,6731472,,,2025-10-08,清算の結了等,,,2015-10-05,1,,,,,エイツウ,0
512,2140001112902,登記記録の閉鎖等,0,2025-10-21,2025-10-14,株式会社産經新聞武庫之荘販売,,株式会社,兵庫県,尼崎市,武庫元町２丁目１６番１５号,,28,202,6610043,,,2025-10-14,清算の結了等,,,2019-03-07,1,,,,,サンケイシンブンムコノソウハンバイ,0
531,2180003015736,登記記録の閉鎖等,0,2025-10-21,2025-10-07,合同会社聚和源,,合同会社,愛知県,日進市,岩崎台１丁目６０１番地,,23,230,4700135,,,2025-10-07,清算の結了等,,,2015-10-05,1,,,,,シュウワゲン,0
540,2210002014330,登記記録の閉鎖等,0,2025-10-21,2025-10-15,有限会社Ｄ－４エステート,,有限会社,福井県,小浜市,山手１丁目４番３１号,,18,204,9170092,,,2025-10-15,清算の結了等,,,2015-10-05,1,,,,,ディーフォエステート,0
551,2290001040122,登記記録の閉鎖等,0,2025-10-21,2025-09-19,株式会社オフサルミック・アイグラス,,株式会社,福岡県,糸島市,前原北２丁目８番７号,,40,230,8191118,,,2025-09-19,清算の結了等,,,2015-10-05,1,,,,,オフサルミックアイグラス,0
563,2300001006344,登記記録の閉鎖等,0,2025-10-21,2025-10-20,西日本塗料サービス株式会社,,株式会社,佐賀県,三養基郡みやき町,大字江口４８８０番地,,41,346,8490112,,,2025-10-20,合併による解散等,3040001079275,令和７年１０月１日千葉県柏市柏インター東７番地２株式会社カンペカラーセンター（3040001079275）に合併し解散,2015-10-05,1,,,,,ニシニホントリョウサービス,0
565,2320001018676,登記記録の閉鎖等,0,2025-10-21,2025-10-09,株式会社ＭＯＶＡＬＩＮ,,株式会社,大分県,別府市,京町１１番８号２階,,44,202,8740926,,,2025-10-09,清算の結了等,,,2021-10-19,1,,,,,モヴァリン,0
566,2330001011960,登記記録の閉鎖等,0,2025-10-21,2025-10-08,株式会社不動開発,,株式会社,熊本県,玉名市,石貫８１６番地,,43,206,8650008,,,2025-10-08,清算の結了等,,,2015-10-05,1,,,,,フドウカイハツ,0
575,2370002003202,登記記録の閉鎖等,0,2025-10-21,2025-10-06,有限会社スバガット,,有限会社,宮城県,仙台市太白区,西中田５丁目５番５号,,04,104,9811105,,,2025-10-06,清算の結了等,,,2015-10-05,1,,,,,スバガット,0
578,2370202004586,登記記録の閉鎖等,0,2025-10-21,2025-10-03,有限会社後藤技研,,有限会社,宮城県,栗原市,若柳字川北並柳５番地の６,,04,213,9895501,,,2025-10-03,清算の結了等,,,2015-10-05,1,,,,,ゴトウギケン,0
580,2370602002124,登記記録の閉鎖等,0,2025-10-21,2025-10-06,有限会社グッド,,有限会社,宮城県,仙台市宮城野区,萩野町４丁目５番２号,,04,102,9830043,,,2025-10-06,清算の結了等,,,2015-10-05,1,,,,,グッド,0
591,2430001035504,登記記録の閉鎖等,0,2025-10-21,2025-10-01,ハンド＆ハンド株式会社,,株式会社,北海道,札幌市中央区,南一条西２３丁目１番３３号,,01,101,0640801,,,2025-10-01,合併による解散等,5430001085315,令和７年１０月１日札幌市中央区南一条西二十三丁目１番３３号株式会社リバーサル（5430001085315）に合併し解散,2015-10-05,1,,,,,ハンドアンドハンド,0
593,2430001060213,登記記録の閉鎖等,0,2025-10-21,2025-09-24,株式会社ノース工房,,株式会社,北海道,札幌市手稲区,稲穂五条７丁目７番８号,,01,109,0060035,,,2025-09-24,清算の結了等,,,2015-10-05,1,,,,,ノースコウボウ,0
607,2470002000024,登記記録の閉鎖等,0,2025-10-21,2025-10-16,有限会社邦和水産,,有限会社,香川県,香川郡直島町,７３番地９,,37,364,7613110,,,2025-10-16,清算の結了等,,,2015-10-05,1,,,,,ホウワスイサン,0
653,3010703003114,登記記録の閉鎖等,0,2025-10-21,2025-10-09,合同会社粋,,合同会社,茨城県,笠間市,矢野下１２７６番地,,08,216,3091723,,,2025-10-09,清算の結了等,,,2016-05-11,1,,,,,イキ,0
659,3010901029118,登記記録の閉鎖等,0,2025-10-21,2025-10-17,Ｄ．グラント・コンサルティング株式会社,,株式会社,東京都,世田谷区,南烏山３丁目１２番１－Ｔ６０１号,,13,112,1570062,,,2025-10-17,清算の結了等,,,2015-10-05,1,,,,,ディーグラントコンサルティング,0
664,3011001109074,登記記録の閉鎖等,0,2025-10-21,2025-10-14,株式会社ＢＯＮＤＳ,,株式会社,東京都,品川区,東五反田２丁目２番１５号富久屋ニッカ共同ビル６Ｆ,,13,109,1410022,,,2025-10-14,清算の結了等,,,2016-01-14,1,,,,,,0
673,3011101059236,登記記録の閉鎖等,0,2025-10-21,2025-10-17,株式会社お多福,,株式会社,東京都,新宿区,歌舞伎町２丁目２１番５号,,13,104,1600021,,,2025-10-17,清算の結了等,,,2015-10-05,1,,,,,オタフク,0
680,3011102002715,登記記録の閉鎖等,0,2025-10-21,2025-09-17,小野田興業有限会社,,有限会社,東京都,新宿区,中落合４丁目２４番２号,,13,104,1610032,,,2025-09-17,清算の結了等,,,2015-10-05,1,,,,,オノダコウギョウ,0
703,3013201006506,登記記録の閉鎖等,0,2025-10-21,2025-10-01,株式会社ロマナ,,株式会社,東京都,目黒区,自由が丘２丁目９番１５号,,13,110,1520035,,,2025-10-01,合併による解散等,9010801002961,令和７年１０月１日東京都渋谷区恵比寿西一丁目１３番７号株式会社きくや美粧堂（9010801002961）に合併し解散,2015-10-05,1,,,,,ロマナ,0
705,3013301021157,登記記録の閉鎖等,0,2025-10-21,2025-10-07,株式会社オープンセサミ,,株式会社,東京都,豊島区,西池袋２丁目１６番７号,,13,116,1710021,,,2025-10-07,清算の結了等,,,2015-10-05,1,,,,,オープンセサミ,0
717,3020002080465,登記記録の閉鎖等,0,2025-10-21,2025-10-02,有限会社オーシャンフィルム,,有限会社,神奈川県,川崎市幸区,鹿島田１１５３番地,,14,132,2120058,,,2025-10-02,清算の結了等,,,2015-10-05,1,,,,,オーシャンフィルム,0
744,3040002080059,登記記録の閉鎖等,0,2025-10-21,2025-09-18,有限会社アルウッド建材,,有限会社,千葉県,山武市,上横地１１９６番地２,,12,237,2891313,,,2025-09-18,清算の結了等,,,2015-10-05,1,,,,,アルウッドケンザイ,0
745,3040002093960,登記記録の閉鎖等,0,2025-10-21,2025-09-22,有限会社佐原工業,,有限会社,千葉県,柏市,南逆井６丁目４番１２号,,12,217,2770043,,,2025-09-22,清算の結了等,,,2015-10-05,1,,,,,サハラコウギョウ,0
764,3080402016229,登記記録の閉鎖等,0,2025-10-21,2025-10-10,有限会社西遠リサイクルセンター,,有限会社,静岡県,浜松市浜名区,三ヶ日町津々崎３４５番地の１,,22,139,4311405,,,2025-10-10,清算の結了等,,,2015-10-05,1,,,,,セイエンリサイクルセンター,0
770,3110003000925,登記記録の閉鎖等,0,2025-10-21,2025-10-14,合資会社佐藤商店,,合資会社,新潟県,三条市,荒沢１５０８番地,,15,204,9550141,,,2025-10-14,清算の結了等,,,2015-10-05,1,,,,,サトウショウテン,0
772,3120001165249,登記記録の閉鎖等,0,2025-10-21,2025-10-07,株式会社ＳＡＮＷＩＳＥ,,株式会社,大阪府,大阪市北区,堂島１丁目１番２５号新山本ビル,,27,127,5300003,,,2025-10-07,清算の結了等,,,2015-10-05,1,,,,,サンワイズ,0
802,3140002009717,登記記録の閉鎖等,0,2025-10-21,2025-10-10,エヌシーエス有限会社,,有限会社,兵庫県,神戸市北区,西大池１丁目３番１８号,,28,109,6511201,,,2025-10-10,清算の結了等,,,2015-10-05,1,,,,,エヌシーエス,0
803,3140002024971,登記記録の閉鎖等,0,2025-10-21,2025-10-14,クォーターバック有限会社,,有限会社,兵庫県,神戸市垂水区,小束山本町１丁目７番１号,,28,108,6550003,,,2025-10-14,清算の結了等,,,2015-10-05,1,,,,,,0
805,3140005020555,登記記録の閉鎖等,0,2025-10-21,2025-10-14,特定非営利活動法人神戸ＴＡＣ教育研究所,,その他の設立登記法人,兵庫県,神戸市須磨区,多井畑東町９番地の４３,,28,107,6540134,,,2025-10-14,清算の結了等,,,2015-10-05,1,,,,,コウベタックキョウイクケンキュウショ,0
811,3180001056979,登記記録の閉鎖等,0,2025-10-21,2025-10-01,株式会社三光アド,,株式会社,愛知県,名古屋市東区,泉１丁目２３番３０号,,23,102,4610001,,,2025-10-01,合併による解散等,4180001124859,令和７年１０月１日名古屋市東区泉一丁目２３番３０号名古屋パナソニックビル６Ｆ株式会社オーサムエージェント（4180001124859）に合併し解散,2015-10-05,1,,,,,サンコウアド,0
815,3180001136731,登記記録の閉鎖等,0,2025-10-21,2025-10-07,株式会社ｍｅｌｏｎ,,株式会社,愛知県,名古屋市中区,大須４丁目７番１３号大須レジデンス２０８号室,,23,106,4600011,,,2025-10-07,清算の結了等,,,2019-05-30,1,,,,,メロン,0
827,3210002014239,登記記録の閉鎖等,0,2025-10-21,2025-10-16,有限会社でんぶく,,有限会社,福井県,大飯郡高浜町,関屋第７６号７番地３,,18,481,9192386,,,2025-10-16,清算の結了等,,,2015-10-05,1,,,,,デンブク,0
837,3240005007674,登記記録の閉鎖等,0,2025-10-21,2025-10-15,松永木工団地協同組合,,その他の設立登記法人,広島県,福山市,柳津町３丁目３番５７号,,34,207,7290114,,,2025-10-15,清算の結了等,,,2015-10-05,1,,,,,マツナガモッコウダンチ,0
840,3260001033838,登記記録の閉鎖等,0,2025-10-21,2025-10-10,株式会社ＬＵＸ,,株式会社,岡山県,岡山市北区,大安寺南町１丁目１３番２１号,,33,101,7000064,,,2025-10-10,清算の結了等,,,2019-12-11,1,,,,,ルクス,0
854,3290005008610,登記記録の閉鎖等,0,2025-10-21,2025-09-25,一般財団法人ファジィシステム研究所,,その他の設立登記法人,福岡県,飯塚市,川津字君ヶ坂６８０番地４１,,40,205,8200067,,,2025-09-25,清算の結了等,,,2015-10-05,1,,,,,ファジィシステムケンキュウショ,0
858,3290802015726,登記記録の閉鎖等,0,2025-10-21,2025-10-10,有限会社ローヤル和広,,有限会社,福岡県,北九州市八幡西区,力丸町２１番６号,,40,109,8070802,,,2025-10-10,清算の結了等,,,2015-10-05,1,,,,,ローヤルワコウ,0
859,3290802018480,登記記録の閉鎖等,0,2025-10-21,2025-10-17,有限会社貝掛商会,,有限会社,福岡県,北九州市若松区,大字有毛１６３５番地,,40,103,8080123,,,2025-10-17,清算の結了等,,,2015-10-05,1,,,,,カイカケショウカイ,0
860,3300001012192,登記記録の閉鎖等,0,2025-10-21,2025-10-20,株式会社ＲＥＧＡＬＯ　ＨＯＭＥＳ,,株式会社,佐賀県,鳥栖市,蔵上町６６５番地６,,41,203,8410054,,,2025-10-20,清算の結了等,,,2020-09-02,1,,,,,レガロホームズ,0
865,3330002006612,登記記録の閉鎖等,0,2025-10-21,2025-10-03,有限会社忠,,有限会社,熊本県,熊本市西区,戸坂町１番２１号,,43,103,8600045,,,2025-10-03,清算の結了等,,,2015-10-05,1,,,,,タダシ,0
871,3360001031237,登記記録の閉鎖等,0,2025-10-21,2025-10-16,株式会社グレイトフルトレーディング,,株式会社,沖縄県,豊見城市,字豊崎３－５９－４００７,,47,212,9010225,,,2025-10-16,清算の結了等,,,2022-11-24,1,,,,,グレイトフルトレーディング,0
879,3380001026425,登記記録の閉鎖等,0,2025-10-21,2025-10-06,株式会社御伊勢山ゴルフガーデン,,株式会社,福島県,いわき市,勿来町四沢伊勢林１番地,,07,204,9790145,,,2025-10-06,清算の結了等,,,2016-02-01,1,,,,,オイセヤマゴルフガーデン,0
881,3380002026498,登記記録の閉鎖等,0,2025-10-21,2025-10-06,有限会社矢吹自動車整備工場,,有限会社,福島県,いわき市,小名浜大原字甲新地１６番地の１,,07,204,9718111,,,2025-10-06,清算の結了等,,,2015-10-05,1,,,,,ヤブキジドウシャセイビコウジョウ,0
900,3430002038975,登記記録の閉鎖等,0,2025-10-21,2025-10-01,札栄技建株式会社,,株式会社,北海道,札幌市白石区,平和通１１丁目北５番４号,,01,104,0030029,,,2025-10-01,清算の結了等,,,2015-10-05,1,,,,,サツエイギケン,0
907,3490001002010,登記記録の閉鎖等,0,2025-10-21,2025-10-15,富士木材株式会社,,株式会社,高知県,高知市,仁井田４５０２番地,,39,201,7810112,,,2025-10-15,清算の結了等,,,2015-10-05,1,,,,,フジモクザイ,0
921,4010002047605,登記記録の閉鎖等,0,2025-10-21,2025-10-14,ピステジャポン伊吹有限会社,,有限会社,東京都,千代田区,永田町２丁目１０番２号,,13,101,1000014,,,2025-10-14,清算の結了等,,,2015-10-05,1,,,,,ピステジャポンイブキ,0
932,4010401137139,登記記録の閉鎖等,0,2025-10-21,2025-10-14,株式会社ＫＯＪＯ,,株式会社,東京都,千代田区,麹町２丁目１０番地３,,13,101,1020083,,,2025-10-14,清算の結了等,,,2018-03-12,1,,,,,コウジョウ,0
946,4010403013726,登記記録の閉鎖等,0,2025-10-21,2025-09-18,合同会社霞が関インベストメント,,合同会社,東京都,港区,元赤坂１丁目１番８号株式会社赤坂国際会計内,,13,103,1070051,,,2025-09-18,清算の結了等,,,2015-10-05,1,,,,,カスミガセキインベストメント,0
958,4010901026097,登記記録の閉鎖等,0,2025-10-21,2025-10-20,株式会社ＧＥＡＭＯＳＳ,,株式会社,東京都,世田谷区,祖師谷３丁目３８番１７号,,13,112,1570072,,,2025-10-20,清算の結了等,,,2015-10-05,1,,,,,ジーモス,0
961,4011001032762,登記記録の閉鎖等,0,2025-10-21,2025-10-03,ＥＶＯＬＵＴＩＯＮ　ＪＡＰＡＮ株式会社,,株式会社,東京都,千代田区,紀尾井町４番１号,,13,101,1020094,,,2025-10-03,清算の結了等,,,2015-10-05,1,,,,,エボリューションジャパン,0
968,4011002024643,登記記録の閉鎖等,0,2025-10-21,2025-10-02,有限会社バズ・マーケット,,有限会社,神奈川県,横浜市青葉区,田奈町４７番地４－４０２,,14,117,2270064,,,2025-10-02,清算の結了等,,,2015-10-05,1,,,,,バズマーケット,0
970,4011101088663,登記記録の閉鎖等,0,2025-10-21,2025-10-17,株式会社キュライオ,,株式会社,東京都,新宿区,新宿５丁目１８番２０号ルックハイツ新宿８０３号,,13,104,1600022,,,2025-10-17,清算の結了等,,,2019-08-16,1,,,,,キュライオ,0
980,4011205001695,登記記録の閉鎖等,0,2025-10-21,2025-10-06,一般社団法人社会資源再生機構,,その他の設立登記法人,東京都,中野区,南台１丁目６番１５号,,13,114,1640014,,,2025-10-06,清算の結了等,,,2015-10-05,1,,,,,シャカイシゲンサイセイキコウ,0
981,4011401000187,登記記録の閉鎖等,0,2025-10-21,2025-10-15,株式会社曙化成加工製作所,00054630,株式会社,東京都,板橋区,本町１１番１９号,,13,119,1730001,,,2025-10-15,清算の結了等,,,2015-10-05,1,,,,,アケボノカセイカコウセイサクジョ,0
982,4011401003479,登記記録の閉鎖等,0,2025-10-21,2025-10-15,成和光学工業株式会社,,株式会社,東京都,板橋区,徳丸２丁目４番１０号,,13,119,1750083,,,2025-10-15,清算の結了等,,,2015-10-05,1,,,,,セイワコウガクコウギョウ,0
988,4011502003122,登記記録の閉鎖等,0,2025-10-21,2025-10-15,有限会社菅野畳店,,有限会社,東京都,北区,西が丘１丁目３９番４号,,13,117,1150056,,,2025-10-15,清算の結了等,,,2015-10-05,1,,,,,カンノタタミテン,0
1003,4013303003870,登記記録の閉鎖等,0,2025-10-21,2025-10-06,合同会社シンフォニア,,合同会社,東京都,豊島区,池袋３丁目３４－７ビジネスパーク池袋２階,,13,116,1710014,,,2025-10-06,合併による解散等,4010003026120,令和７年１０月１日東京都豊島区南大塚２－１１－１０ミモザビル３階合同会社コンチェルト（4010003026120）に合併し解散,2017-09-27,1,,,,,シンフォニア,0
1006,4020001001215,登記記録の閉鎖等,0,2025-10-21,2025-10-03,株式会社エヌジーティー,,株式会社,神奈川県,横浜市瀬谷区,阿久和東２丁目３９番地２,,14,114,2460023,,,2025-10-03,清算の結了等,,,2015-10-05,1,,,,,,0
1018,4021001056439,登記記録の閉鎖等,0,2025-10-21,2025-09-30,株式会社アレーティア,,株式会社,神奈川県,藤沢市,天神町２丁目４番１号,,14,205,2520814,,,2025-09-30,清算の結了等,,,2015-10-05,1,,,,,アレーティア,0
1044,4080402018686,登記記録の閉鎖等,0,2025-10-21,2025-10-09,有限会社ツルタ電気,,有限会社,静岡県,菊川市,西方５０９番地の１,,22,224,4390037,,,2025-10-09,清算の結了等,,,2015-10-05,1,,,,,ツルタデンキ,0
1045,4090001001571,登記記録の閉鎖等,0,2025-10-21,2025-10-15,那賀都商事株式会社,,株式会社,山梨県,甲府市,中央２丁目５番２７号,,19,201,4000032,,,2025-10-15,清算の結了等,,,2015-10-05,1,,,,,ナガトショウジ,0
1052,4120001094793,登記記録の閉鎖等,0,2025-10-21,2025-10-08,株式会社エスプロット,,株式会社,大阪府,大阪市北区,紅梅町１番６号カザリーノビル,,27,127,5300038,,,2025-10-08,清算の結了等,,,2015-10-05,1,,,,,エスプロット,0
1082,4130001002053,登記記録の閉鎖等,0,2025-10-21,2025-10-16,株式会社森川質店,,株式会社,京都府,京都市右京区,花園木辻南町６番地,00035071,26,108,6168057,,,2025-10-16,清算の結了等,,,2015-10-05,1,,,,,モリカワシチテン,0
1091,4150005003657,登記記録の閉鎖等,0,2025-10-21,2025-10-14,特定非営利活動法人ＮＰＯ都祁,00043895,その他の設立登記法人,奈良県,奈良市,都祁南之庄町１０２９番地,00043896,29,201,6320241,,,2025-10-14,清算の結了等,,,2015-10-05,1,,,,,ツゲ,0
1101,4180002086215,登記記録の閉鎖等,0,2025-10-21,2025-10-07,有限会社ハヤシ商会,,有限会社,愛知県,常滑市,大谷字鴨６０番地の３,,23,216,4790806,,,2025-10-07,清算の結了等,,,2015-10-05,1,,,,,ハヤシショウカイ,0
1104,4180301018694,登記記録の閉鎖等,0,2025-10-21,2025-10-07,月山商事株式会社,,株式会社,愛知県,豊田市,四郷町山畑９２番地,,23,211,4700373,,,2025-10-07,清算の結了等,,,2025-06-09,1,,,,,ツキヤマショウジ,0
1105,4180301021608,登記記録の閉鎖等,0,2025-10-21,2025-10-08,株式会社ありがとう,,株式会社,愛知県,豊田市,喜多町３丁目５５番地２,,23,211,4710027,,,2025-10-08,清算の結了等,,,2015-10-05,1,,,,,アリガトウ,0
1115,4220001006342,登記記録の閉鎖等,0,2025-10-21,2025-10-15,北陸資材株式会社,,株式会社,石川県,金沢市,小坂町西１０４番地１,,17,201,9200811,,,2025-10-15,清算の結了等,,,2015-10-05,1,,,,,,0
1130,4290002013538,登記記録の閉鎖等,0,2025-10-21,2025-09-18,有限会社結城,,有限会社,福岡県,福岡市東区,香住ケ丘３丁目１７番５号,,40,131,8130003,,,2025-09-18,清算の結了等,,,2015-10-05,1,,,,,ユウキ,0
1133,4290801011460,登記記録の閉鎖等,0,2025-10-21,2025-10-10,株式会社山組,,株式会社,福岡県,中間市,中尾２丁目１３番１６号,,40,215,8090032,,,2025-10-10,清算の結了等,,,2015-10-05,1,,,,,ヤマグミ,0
1148,4360001032036,登記記録の閉鎖等,0,2025-10-21,2025-10-15,株式会社琉球ビジョンサポート,,株式会社,東京都,あきる野市,二宮１３００番地４３,,13,228,1970814,,,2025-10-15,清算の結了等,,,2023-05-18,1,,,,,リュウキュウビジョンサポート,0
1151,4370001040789,登記記録の閉鎖等,0,2025-10-21,2025-10-06,株式会社香島園,,株式会社,宮城県,大崎市,鹿島台広長字猪ケ鼻１番地３,,04,215,9894104,,,2025-10-06,清算の結了等,,,2017-01-13,1,,,,,,0
1154,4370301001160,登記記録の閉鎖等,0,2025-10-21,2025-10-03,株式会社丸善リース,,株式会社,宮城県,石巻市,三ツ股１丁目２番３８号,,04,202,9860858,,,2025-10-03,清算の結了等,,,2015-10-05,1,,,,,マルゼンリース,0
1161,4390005005919,登記記録の閉鎖等,0,2025-10-21,2025-10-10,猪野沢生産森林組合,,その他の設立登記法人,山形県,東根市,大字猪野沢３２４番地の２,,06,211,9993726,,,2025-10-10,清算の結了等,,,2015-10-05,1,,,,,イノサワ,0
1169,4430001082073,登記記録の閉鎖等,0,2025-10-21,2025-10-16,ＴＲＵＳＴ　ＡＧＥＮＣＹ株式会社,,株式会社,北海道,札幌市中央区,南五条西２丁目１番地１４,,01,101,0640805,,,2025-10-16,清算の結了等,,,2020-08-12,1,,,,,トラストエージェンシー,0
1198,5010005039945,登記記録の閉鎖等,0,2025-10-21,2025-10-20,一般社団法人ＧＥＭインターナショナル,,その他の設立登記法人,東京都,中央区,日本橋３丁目９番１号,,13,102,1030027,,,2025-10-20,清算の結了等,,,2025-04-21,1,,,,,ジーイーエムインターナショナル,0
1201,5010401143111,登記記録の閉鎖等,0,2025-10-21,2025-09-19,トリア・ビューティ・アジア株式会社,,株式会社,東京都,渋谷区,神宮前５丁目５０－６表参道ＴＷビル５階,,13,113,1500001,,,2025-09-19,清算の結了等,,,2019-01-21,1,,,,,トリアビューティアジア,0
1214,5010602029927,登記記録の閉鎖等,0,2025-10-21,2025-10-09,マークス有限会社,,有限会社,東京都,墨田区,八広１丁目４番４号,,13,107,1310041,,,2025-10-09,清算の結了等,,,2015-10-05,1,,,,,マークス,0
1218,5010803005058,登記記録の閉鎖等,0,2025-10-21,2025-10-14,合同会社ＡＱＵＡ‐Ｍ,,合同会社,東京都,大田区,中馬込３丁目２１番３号,,13,111,1430027,,,2025-10-14,清算の結了等,,,2024-08-16,1,,,,,アクアエム,0
1220,5010901051251,登記記録の閉鎖等,0,2025-10-21,2025-10-10,株式会社トライポーター,,株式会社,東京都,世田谷区,代田３丁目３４番３号ウリッセ梅ヶ丘２０２,,13,112,1550033,,,2025-10-10,清算の結了等,,,2022-07-19,1,,,,,トライポーター,0
1251,5011302003123,登記記録の閉鎖等,0,2025-10-21,2025-10-15,有限会社クレスト,,有限会社,東京都,杉並区,井草５丁目１８番３号,,13,115,1670021,,,2025-10-15,清算の結了等,,,2015-10-05,1,,,,,クレスト,0
1253,5011401022692,登記記録の閉鎖等,0,2025-10-21,2025-10-15,権田工業株式会社,,株式会社,東京都,板橋区,清水町８８番４号,,13,119,1740053,,,2025-10-15,清算の結了等,,,2020-07-20,1,,,,,ゴンダコウギョウ,0
1256,5011502011958,登記記録の閉鎖等,0,2025-10-21,2025-10-15,有限会社渡辺アルバム製作所,,有限会社,東京都,荒川区,東尾久３丁目１４番１１号,,13,118,1160012,,,2025-10-15,清算の結了等,,,2015-10-05,1,,,,,ワタナベアルバムセイサクショ,0
1266,5012401035692,登記記録の閉鎖等,0,2025-10-21,2025-10-10,株式会社Ｔｒｅａｓｕｒｅｓ　Ｉｎ　Ｈｅａｖｅｎ,,株式会社,東京都,調布市,飛田給３丁目２番地１８,,13,208,1820036,,,2025-10-10,清算の結了等,,,2019-08-27,1,,,,,トレジャーズインヘヴン,0
1313,5070001041560,登記記録の閉鎖等,0,2025-10-21,2025-10-15,株式会社ＮＨコンサルティング,,株式会社,群馬県,桐生市,宮前町２丁目７番８号,,10,203,3760046,,,2025-10-15,清算の結了等,,,2024-04-03,1,,,,,エヌエイチコンサルティング,0
1320,5080402002152,登記記録の閉鎖等,0,2025-10-21,2025-10-09,有限会社加寧兵養魚場,,有限会社,静岡県,浜松市中央区,村櫛町３７８８番地,,22,138,4311207,,,2025-10-09,清算の結了等,,,2015-10-05,1,,,,,カネヒョウヨウギョジョウ,0
1338,5120002019831,登記記録の閉鎖等,0,2025-10-21,2025-10-07,有限会社オフィスクニキ,,有限会社,大阪府,大阪市浪速区,難波中１丁目１６番８号,,27,111,5560011,,,2025-10-07,清算の結了等,,,2015-10-05,1,,,,,オフィスクニキ,0
1339,5120003012546,登記記録の閉鎖等,0,2025-10-21,2025-10-08,Ｍａｒｉａｍ合同会社,,合同会社,兵庫県,西宮市,羽衣町７－３０夙川グリーンタウン３階,,28,204,6620051,,,2025-10-08,清算の結了等,,,2017-03-07,1,,,,,マリアム,0
1364,5140001028286,登記記録の閉鎖等,0,2025-10-21,2025-10-14,株式会社マネーリスク研究所,,株式会社,兵庫県,神戸市垂水区,青山台５丁目５番８－５０７号,,28,108,6550873,,,2025-10-14,清算の結了等,,,2015-10-05,1,,,,,,0
1365,5140001035522,登記記録の閉鎖等,0,2025-10-21,2025-10-10,株式会社丸六北店,,株式会社,兵庫県,明石市,二見町東二見４０５番地の５,,28,203,6740092,,,2025-10-10,清算の結了等,,,2015-10-05,1,,,,,マルロクキタミセ,0
1387,5180001101510,登記記録の閉鎖等,0,2025-10-21,2025-10-07,株式会社アンスリール,,株式会社,愛知県,一宮市,小信中島字郷東１６番地１,,23,203,4940007,,,2025-10-07,清算の結了等,,,2015-10-05,1,,,,,アンスリール,0
1408,5180302020814,登記記録の閉鎖等,0,2025-10-21,2025-10-16,有限会社プラザ知立,,有限会社,愛知県,刈谷市,御幸町４丁目２０８番地,,23,210,4480821,,,2025-10-16,合併による解散等,5180301017027,令和７年１０月１６日愛知県刈谷市御幸町四丁目２０８番地アイサンコーポレーション株式会社（5180301017027）に合併し解散,2015-10-05,1,,,,,プラザチリュウ,0
1411,5190002009883,登記記録の閉鎖等,0,2025-10-21,2025-10-14,有限会社モード・トキ,,有限会社,三重県,伊勢市,宮後２丁目２番１７号,,24,203,5160072,,,2025-10-14,清算の結了等,,,2015-10-05,1,,,,,モードトキ,0
1438,5310001018162,登記記録の閉鎖等,0,2025-10-21,2025-10-20,株式会社ＧＥＡＲＳ,,株式会社,長崎県,雲仙市,小浜町北野４９２番地１,,42,213,8540515,,,2025-10-20,清算の結了等,,,2022-12-15,1,,,,,ギアーズ,0
1439,5310002017659,登記記録の閉鎖等,0,2025-10-21,2025-10-20,有限会社ミチゾエ,,有限会社,長崎県,大村市,協和町８３８番地,,42,205,8560820,,,2025-10-20,清算の結了等,,,2015-10-05,1,,,,,ミチゾエ,0
1453,5380001015137,登記記録の閉鎖等,0,2025-10-21,2025-10-06,株式会社サンコープランニング,,株式会社,福島県,いわき市,洋向台３丁目６番地の１３,,07,204,9700314,,,2025-10-06,清算の結了等,,,2015-10-05,1,,,,,サンコープランニング,0
1468,5430001077361,登記記録の閉鎖等,0,2025-10-21,2025-10-16,株式会社モンレーヴ,,株式会社,北海道,札幌市中央区,南五条西２丁目１番地１４,,01,101,0640805,,,2025-10-16,清算の結了等,,,2018-09-14,1,,,,,モンレーヴ,0
1478,5430002035772,登記記録の閉鎖等,0,2025-10-21,2025-10-01,有限会社エスアンドエス企画,,有限会社,北海道,札幌市中央区,伏見１丁目１番１号,,01,101,0640942,,,2025-10-01,清算の結了等,,,2015-10-05,1,,,,,エスアンドエスキカク,0
1482,5470002000038,登記記録の閉鎖等,0,2025-10-21,2025-10-14,有限会社達磨水産,,有限会社,香川県,香川郡直島町,８９０番地４９,,37,364,7613110,,,2025-10-14,清算の結了等,,,2015-10-05,1,,,,,ダルマスイサン,0
1484,5500002024041,登記記録の閉鎖等,0,2025-10-21,2025-10-20,南宇和自動車販売有限会社,,有限会社,愛媛県,南宇和郡愛南町,城辺甲２０１番地１,,38,506,7984131,,,2025-10-20,清算の結了等,,,2015-10-05,1,,,,,ミナミウワジドウシャハンバイ,0
1495,6010002025030,登記記録の閉鎖等,0,2025-10-21,2025-10-14,有限会社松井コンサルタント,,有限会社,東京都,中央区,銀座６丁目６番１号,,13,102,1040061,,,2025-10-14,清算の結了等,,,2015-10-05,1,,,,,マツイコンサルタント,0
1502,6010401107701,登記記録の閉鎖等,0,2025-10-21,2025-10-16,サムライト株式会社,,株式会社,東京都,港区,赤坂１丁目１４番１４号,,13,103,1070052,,,2025-10-16,合併による解散等,7010001127322,令和７年１０月１日東京都千代田区神田神保町二丁目２番地株式会社４Ｘ（7010001127322）に合併し解散,2015-10-05,1,,,,,,0
1516,6010501044431,登記記録の閉鎖等,0,2025-10-21,2025-10-15,Ｈｏｒｉｚｏｎ株式会社,,株式会社,東京都,荒川区,南千住１丁目４５－８カーサケイワイＮｏ．２・４０３Ｆ号,,13,118,1160003,,,2025-10-15,清算の結了等,,,2019-07-30,1,,,,,ホリゾン,0
1527,6010701024737,登記記録の閉鎖等,0,2025-10-21,2025-09-19,トリア・ビューティ・ジャパン株式会社,,株式会社,東京都,渋谷区,神宮前５丁目５０－６表参道ＴＷビル５階,,13,113,1500001,,,2025-09-19,清算の結了等,,,2015-10-05,1,,,,,トリアビューティジャパン,0
1547,6011101071015,登記記録の閉鎖等,0,2025-10-21,2025-10-20,株式会社Ｈａｐｐｙ　Ｃｏｍｐａｎｙ,,株式会社,長崎県,東彼杵郡東彼杵町,八反田郷９１７番地,,42,321,8593922,,,2025-10-20,合併による解散等,9010601050797,令和７年９月１日東京都新宿区西新宿七丁目１９番１０号株式会社Ｈａｐｐｙ　Ｈｏｌｄｉｎｇｓ（9010601050797）に合併し解散,2015-10-05,1,,,,,ハッピーカンパニー,0
1554,6011201001185,登記記録の閉鎖等,0,2025-10-21,2025-10-07,株式会社加藤不動産事務所,,株式会社,東京都,中野区,中野１丁目６０番９号,,13,114,1640001,,,2025-10-07,清算の結了等,,,2015-10-05,1,,,,,カトウフドウサンジムショ,0
1558,6011302000557,登記記録の閉鎖等,0,2025-10-21,2025-10-14,有限会社アトリエトエンティファイブ,,有限会社,東京都,杉並区,久我山４丁目２８番１２号,,13,115,1680082,,,2025-10-14,清算の結了等,,,2015-10-05,1,,,,,アトリエトエンティファイブ,0
1563,6011502008029,登記記録の閉鎖等,0,2025-10-21,2025-10-14,有限会社京美,,有限会社,東京都,荒川区,西日暮里２丁目８番１１号,,13,118,1160013,,,2025-10-14,清算の結了等,,,2015-10-05,1,,,,,キョウビ,0
1564,6011801011229,登記記録の閉鎖等,0,2025-10-21,2025-10-16,株式会社ハナミキ,,株式会社,東京都,足立区,千住緑町３丁目２２番３号,,13,121,1200044,,,2025-10-16,清算の結了等,,,2015-10-05,1,,,,,ハナミキ,0
1570,6012701010196,登記記録の閉鎖等,0,2025-10-21,2025-10-17,株式会社Ｋ・Ｈホーム,,株式会社,東京都,八王子市,南大沢１丁目２０番地１エステート桂３０１号,,13,201,1920364,,,2025-10-17,清算の結了等,,,2015-10-05,1,,,,,,0
1576,6012801019245,登記記録の閉鎖等,0,2025-10-21,2025-10-03,ＰＯＣ株式会社,,株式会社,東京都,国分寺市,本町２丁目９番１２号オリエント丹野１２０３,,13,214,1850012,,,2025-10-03,清算の結了等,,,2019-02-08,1,,,,,ピーオーシー,0
1578,6012802002753,登記記録の閉鎖等,0,2025-10-21,2025-10-03,有限会社猪俣商店,,有限会社,東京都,昭島市,松原町４丁目８番６号,,13,207,1960003,,,2025-10-03,清算の結了等,,,2015-10-05,1,,,,,イノマタショウテン,0
1601,6040001026621,登記記録の閉鎖等,0,2025-10-21,2025-09-22,西武ガス水道株式会社,,株式会社,千葉県,市川市,下貝塚２丁目３４番８号,,12,203,2720821,,,2025-09-22,清算の結了等,,,2015-10-05,1,,,,,セイブガススイドウ,0
1606,6040001082086,登記記録の閉鎖等,0,2025-10-21,2025-09-08,ｆｕｔｕｒｅ　ＱＣＤｆｅ株式会社,,株式会社,千葉県,市原市,泉台２丁目３５番地５,,12,219,2990114,,,2025-09-08,清算の結了等,,,2015-10-05,1,,,,,フューチャークァダフィー,0
1608,6040001086509,登記記録の閉鎖等,0,2025-10-21,2025-09-24,株式会社ビーアールシー,,株式会社,千葉県,船橋市,湊町１丁目１番３号,,12,204,2730011,,,2025-09-24,清算の結了等,,,2015-10-05,1,,,,,ビーアールシー,0
1636,6080002003517,登記記録の閉鎖等,0,2025-10-21,2025-10-14,有限会社大晃商事,,有限会社,静岡県,静岡市駿河区,大谷３８００番地の２３４,,22,102,4228017,,,2025-10-14,清算の結了等,,,2015-10-05,1,,,,,タイコウショウジ,0
1649,6120001022348,登記記録の閉鎖等,0,2025-10-21,2025-10-09,株式会社インテレット,,株式会社,大阪府,大阪市天王寺区,空清町１番２１号,,27,109,5430018,,,2025-10-09,清算の結了等,,,2015-10-05,1,,,,,インテレット,0
1650,6120001072698,登記記録の閉鎖等,0,2025-10-21,2025-10-16,日本アクセス株式会社,,株式会社,大阪府,大阪市中央区,淡路町４丁目２番１３号,,27,128,5410047,,,2025-10-16,合併による解散等,5010601041742,令和７年１０月１日東京都中央区日本橋本石町三丁目３番１０号株式会社ＫＥＬ　ＣＲＥＳＴＩＡ（5010601041742）に合併し解散,2015-10-05,1,,,,,ニホンアクセス,0
1668,6120101043582,登記記録の閉鎖等,0,2025-10-21,2025-10-08,株式会社ルピナス,,株式会社,大阪府,泉大津市,旭町１番１３,,27,206,5950025,,,2025-10-08,清算の結了等,,,2015-10-05,1,,,,,ルピナス,0
1679,6140001030365,登記記録の閉鎖等,0,2025-10-21,2025-10-16,豊栄マリンサービス株式会社,,株式会社,兵庫県,神戸市兵庫区,和田宮通３丁目２番３２号,,28,105,6520863,,,2025-10-16,合併による解散等,9020001044589,令和７年９月３０日横浜市中区本牧間門４３番１８号豊栄マリンサービス株式会社（9020001044589）に合併し解散,2015-10-05,1,,,,,ホウエイマリンサービス,0
1690,6180001012921,登記記録の閉鎖等,0,2025-10-21,2025-10-06,株式会社トスコ,,株式会社,愛知県,名古屋市北区,清水５丁目８番１号,,23,103,4620844,,,2025-10-06,清算の結了等,,,2015-10-05,1,,,,,トスコ,0
1693,6180001115542,登記記録の閉鎖等,0,2025-10-21,2025-10-07,スフィーダ株式会社,,株式会社,愛知県,名古屋市千種区,小松町７丁目８番地グランドメゾン吹上１２０２号,,23,101,4640853,,,2025-10-07,清算の結了等,,,2015-10-05,1,,,,,スフィーダ,0
1705,6180003023727,登記記録の閉鎖等,0,2025-10-21,2025-10-07,合同会社ＳＫＹｔｒａｄｉｎｇ,,合同会社,愛知県,名古屋市瑞穂区,瑞穂通１丁目１７番地プレサンスロジェ桜山１００２,,23,108,4670806,,,2025-10-07,清算の結了等,,,2022-04-14,1,,,,,スカイトレーディング,0
1708,6180301026349,登記記録の閉鎖等,0,2025-10-21,2025-10-17,株式会社西村工業,,株式会社,愛知県,西尾市,矢曽根町東田面３８番地５,,23,213,4450872,,,2025-10-17,清算の結了等,,,2015-10-05,1,,,,,ニシムラコウギョウ,0
1709,6180301028155,登記記録の閉鎖等,0,2025-10-21,2025-10-17,興伸工業株式会社,,株式会社,愛知県,岡崎市,竜泉寺町字百々１９番地３,,23,202,4443524,,,2025-10-17,清算の結了等,,,2015-10-05,1,,,,,,0
1716,6200003005152,登記記録の閉鎖等,0,2025-10-21,2025-10-16,合同会社すたくり,,合同会社,岐阜県,可児市,長坂１丁目１３０番地,,21,214,5090257,,,2025-10-16,清算の結了等,,,2021-04-05,1,,,,,スタクリ,0
1754,6290003014418,登記記録の閉鎖等,0,2025-10-21,2025-09-22,合同会社実国,,合同会社,福岡県,福岡市南区,曰佐４丁目３８番１０号,,40,134,8111313,,,2025-09-22,清算の結了等,,,2023-10-02,1,,,,,ミクニ,0
1760,6300001001168,登記記録の閉鎖等,0,2025-10-21,2025-10-20,松本ツキ板工業株式会社,,株式会社,佐賀県,佐賀市,諸富町大字為重４００番地の４，４００番地の５,,41,201,8402102,,,2025-10-20,清算の結了等,,,2015-10-05,1,,,,,,0
1761,6300001003593,登記記録の閉鎖等,0,2025-10-21,2025-10-01,太宰府丸善運輸株式会社,,株式会社,福岡県,糟屋郡宇美町,平和１丁目１６番１号,,40,341,8112121,,,2025-10-01,合併による解散等,7290001078406,令和７年１０月１日福岡市東区蒲田四丁目１５番５２号株式会社北部輸送（7290001078406）に合併し解散,2015-10-05,1,,,,,ダザイフマルゼンウンユ,0
1770,6340002018042,登記記録の閉鎖等,0,2025-10-21,2025-10-08,平谷船舶工業有限会社,,有限会社,鹿児島県,いちき串木野市,日出町１２８番地,,46,219,8960054,,,2025-10-08,清算の結了等,,,2015-10-05,1,,,,,ヒラタニセンパクコウギョウ,0
1780,6360002012357,登記記録の閉鎖等,0,2025-10-21,2025-10-15,有限会社アプリケーションズ,,有限会社,沖縄県,沖縄市,高原５丁目３番７号３階,,47,211,9042171,,,2025-10-15,清算の結了等,,,2015-10-05,1,,,,,アプリケーションズ,0
1783,6370002016407,登記記録の閉鎖等,0,2025-10-21,2025-10-03,ミュージックエンドレス有限会社,,有限会社,宮城県,仙台市青葉区,立町１７番１４号コーポ沼倉１０２号,,04,101,9800822,,,2025-10-03,清算の結了等,,,2015-10-05,1,,,,,ミュージックエンドレス,0
1788,6430001020865,登記記録の閉鎖等,0,2025-10-21,2025-10-07,日本毛皮株式会社,,株式会社,北海道,札幌市中央区,大通東４丁目４番地,,01,101,0600041,,,2025-10-07,清算の結了等,,,2015-10-05,1,,,,,ニホンケガワ,0
1806,7010001184867,登記記録の閉鎖等,0,2025-10-21,2025-10-06,Ｆａｉｔｈ　Ｆｉｎａｎｃｉａｌ　Ｍａｎａｇｅｍｅｎｔ株式会社,,株式会社,東京都,中央区,日本橋堀留町１丁目３番１６号,,13,102,1030012,,,2025-10-06,清算の結了等,,,2017-07-20,1,,,,,フェイスフィナンシャルマネジメント,0
1808,7010001222321,登記記録の閉鎖等,0,2025-10-21,2025-10-01,株式会社めぐる不動産,,株式会社,東京都,文京区,湯島３丁目３２－１４三王湯島ビル３０２,,13,105,1130034,,,2025-10-01,清算の結了等,,,2021-11-05,1,,,,,メグルフドウサン,0
1811,7010002011649,登記記録の閉鎖等,0,2025-10-21,2025-10-14,有限会社セイフティーガラスサービス,,有限会社,東京都,中央区,日本橋浜町２丁目３８番９号,,13,102,1030007,,,2025-10-14,清算の結了等,,,2015-10-05,1,,,,,セイフティーガラスサービス,0
1825,7010401167075,登記記録の閉鎖等,0,2025-10-21,2025-10-01,株式会社Ｃｒｏｗｅ　ＡＫＨ,,株式会社,東京都,港区,芝大門２丁目１２番１０号Ｔ＆Ｇ浜松町ビル２Ｆ,,13,103,1050012,,,2025-10-01,清算の結了等,,,2022-05-16,1,,,,,クローエーケーエイチ,0
1828,7010403017864,登記記録の閉鎖等,0,2025-10-21,2025-10-16,ノマドフロント合同会社,,合同会社,東京都,港区,虎ノ門１丁目１６番６号虎ノ門ＲＡＰＯ－ＴＯビルＵＣＦ７０３,,13,103,1050001,,,2025-10-16,合併による解散等,8010403017715,令和７年１０月１日東京都豊島区目白四丁目１９番１５号ジェイビー合同会社（8010403017715）に合併し解散,2017-12-25,1,,,,,ノマドフロント,0
1829,7010405011444,登記記録の閉鎖等,0,2025-10-21,2025-10-16,一般社団法人リーダーズエージェント,,その他の設立登記法人,愛知県,名古屋市中区,錦２丁目１６番５号セントレイクレノン錦６階,,23,106,4600003,,,2025-10-16,清算の結了等,,,2015-10-05,1,,,,,リーダーズエージェント,0
1836,7010502009234,登記記録の閉鎖等,0,2025-10-21,2025-10-10,張替製菓有限会社,,有限会社,東京都,台東区,千束３丁目３番９号,,13,106,1110031,,,2025-10-10,清算の結了等,,,2015-10-05,1,,,,,,0
1846,7010901040269,登記記録の閉鎖等,0,2025-10-21,2025-10-17,株式会社Ｔ＆Ｅ,,株式会社,東京都,世田谷区,用賀１丁目１２番３０－３０１号,,13,112,1580097,,,2025-10-17,清算の結了等,,,2017-06-09,1,,,,,ティーアンドイー,0
1857,7011101058696,登記記録の閉鎖等,0,2025-10-21,2025-10-17,株式会社プレシャスアライアンス,,株式会社,東京都,新宿区,愛住町２番地,,13,104,1600005,,,2025-10-17,清算の結了等,,,2015-10-05,1,,,,,プレシャスアライアンス,0
1867,7011202006141,登記記録の閉鎖等,0,2025-10-21,2025-10-08,有限会社山内精肉店,,有限会社,東京都,中野区,若宮３丁目３９番１１号,,13,114,1650033,,,2025-10-08,清算の結了等,,,2015-10-05,1,,,,,ヤマウチセイニクテン,0
1870,7011401005092,登記記録の閉鎖等,0,2025-10-21,2025-10-15,日萬三井株式会社,,株式会社,東京都,板橋区,成増２丁目２５番３号グレースランド３Ｆ,,13,119,1750094,,,2025-10-15,清算の結了等,,,2015-10-05,1,,,,,ニチマンミツイ,0
1878,7011701001452,登記記録の閉鎖等,0,2025-10-21,2025-10-10,株式会社阿久津工業所,,株式会社,東京都,江戸川区,一之江２丁目１８番９号,,13,123,1320024,,,2025-10-10,清算の結了等,,,2015-10-05,1,,,,,,0
1881,7011802006251,登記記録の閉鎖等,0,2025-10-21,2025-10-14,有限会社バンビ,,有限会社,東京都,葛飾区,亀有３丁目２０番６号,,13,122,1250061,,,2025-10-14,清算の結了等,,,2015-10-05,1,,,,,バンビ,0
1884,7012401034833,登記記録の閉鎖等,0,2025-10-21,2025-10-09,株式会社ＹＣ小金井西部,,株式会社,東京都,小金井市,前原町３丁目２番３１号,,13,210,1840013,,,2025-10-09,清算の結了等,,,2019-01-10,1,,,,,ワイシーコガネイセイブ,0
1913,7040001035877,登記記録の閉鎖等,0,2025-10-21,2025-09-18,株式会社関宿屋,,株式会社,千葉県,松戸市,本町７番地の２,,12,207,2710091,,,2025-09-18,清算の結了等,,,2015-10-05,1,,,,,セキヤドヤ,0
1923,7060001003592,登記記録の閉鎖等,0,2025-10-21,2025-10-16,株式会社ネットプラザ栃木,,株式会社,栃木県,宇都宮市,西２丁目２番３５号,,09,201,3200861,,,2025-10-16,清算の結了等,,,2015-10-05,1,,,,,ネットプラザトチギ,0
1924,7060001022246,登記記録の閉鎖等,0,2025-10-21,2025-10-17,東京防災株式会社,,株式会社,栃木県,宇都宮市,平出工業団地４３番地１２９,,09,201,3210905,,,2025-10-17,清算の結了等,,,2015-10-05,1,,,,,トウキョウボウサイ,0
1925,7060001029506,登記記録の閉鎖等,0,2025-10-21,2025-10-16,株式会社川島荷役,,株式会社,栃木県,佐野市,天明町２７３４番地,,09,204,3270014,,,2025-10-16,清算の結了等,,,2017-06-13,1,,,,,カワシマニヤク,0
1931,7060002013582,登記記録の閉鎖等,0,2025-10-21,2025-10-16,エムツー企画有限会社,,有限会社,栃木県,さくら市,きぬの里１丁目１６番地４,,09,214,3291317,,,2025-10-16,合併による解散等,2011001141243,令和７年９月１２日東京都渋谷区恵比寿四丁目２３番９号恵比寿ブルーメ３０１株式会社龍（2011001141243）に合併し解散,2015-10-05,1,,,,,エムツーキカク,0
1935,7100001037702,登記記録の閉鎖等,0,2025-10-21,2025-10-17,南信州薪センター株式会社,,株式会社,長野県,飯田市,龍江９０４３番地２,,20,205,3992221,,,2025-10-17,清算の結了等,,,2024-08-08,1,,,,,ミナミシンシュウマキセンター,0
1938,7110001017950,登記記録の閉鎖等,0,2025-10-21,2025-10-14,株式会社ペットメモリーナ柏崎,,株式会社,新潟県,柏崎市,大字宮川２２８０番地,,15,205,9450402,,,2025-10-14,清算の結了等,,,2015-10-05,1,,,,,ペットメモリーナカシワザキ,0
1939,7110001027363,登記記録の閉鎖等,0,2025-10-21,2025-10-09,近藤ピックル株式会社,,株式会社,新潟県,長岡市,鉄工町２丁目３番４１号,,15,202,9402022,,,2025-10-09,清算の結了等,,,2015-10-05,1,,,,,コンドウピックル,0
1943,7120001104392,登記記録の閉鎖等,0,2025-10-21,2025-10-07,江川設備株式会社,,株式会社,大阪府,大阪市阿倍野区,王子町３丁目５番１４号,,27,119,5450023,,,2025-10-07,清算の結了等,,,2015-10-05,1,,,,,エガワセツビ,0
1979,7140001054000,登記記録の閉鎖等,0,2025-10-21,2025-10-14,株式会社ビッグソリューション,,株式会社,兵庫県,尼崎市,西長洲町２丁目１４番１４号,,28,202,6600805,,,2025-10-14,清算の結了等,,,2015-10-05,1,,,,,ビッグソリューション,0
1992,7170005006886,登記記録の閉鎖等,0,2025-10-21,2025-10-14,特定非営利活動法人古座川無限大,,その他の設立登記法人,和歌山県,東牟婁郡古座川町,高池６２３番地３,,30,424,6494104,,,2025-10-14,清算の結了等,,,2021-03-05,1,,,,,コザガワムゲンダイ,0
1996,7180001064029,登記記録の閉鎖等,0,2025-10-21,2025-10-07,株式会社いとう新聞店,,株式会社,愛知県,名古屋市名東区,赤松台２１３番地,,23,115,4650016,,,2025-10-07,清算の結了等,,,2015-10-05,1,,,,,イトウシンブンテン,0
2011,7190001004149,登記記録の閉鎖等,0,2025-10-21,2025-10-16,株式会社村井冨士園,,株式会社,三重県,亀山市,東町１丁目５番３号,,24,210,5190125,,,2025-10-16,清算の結了等,,,2015-10-05,1,,,,,ムライフジエン,0
2015,7190002022141,登記記録の閉鎖等,0,2025-10-21,2025-10-16,有限会社丸征,,有限会社,三重県,四日市市,桜町２５３４番地,,24,202,5121211,,,2025-10-16,清算の結了等,,,2015-10-05,1,,,,,マルマサ,0
2025,7240003003589,登記記録の閉鎖等,0,2025-10-21,2025-10-14,アセットビズ合同会社,,合同会社,広島県,広島市西区,庚午中３丁目２番１８号,,34,104,7330822,,,2025-10-14,清算の結了等,,,2017-06-06,1,,,,,アセットビズ,0
2028,7260001031301,登記記録の閉鎖等,0,2025-10-21,2025-10-14,株式会社アシスト,,株式会社,岡山県,岡山市北区,中撫川７２１－１,,33,101,7010163,,,2025-10-14,清算の結了等,,,2017-10-03,1,,,,,アシスト,0
2049,7310002011800,登記記録の閉鎖等,0,2025-10-21,2025-10-17,有限会社宮弘,,有限会社,長崎県,佐世保市,潮見町１７番１３号,,42,202,8570834,,,2025-10-17,清算の結了等,,,2015-10-05,1,,,,,ミヤヒロ,0
2053,7340002003183,登記記録の閉鎖等,0,2025-10-21,2025-10-10,有限会社協栄建材,,有限会社,鹿児島県,鹿児島市,大明丘３丁目１３番１号,,46,201,8920872,,,2025-10-10,清算の結了等,,,2015-10-05,1,,,,,キョウエイケンザイ,0
2058,7360003009351,登記記録の閉鎖等,0,2025-10-21,2025-10-15,ＢＵＬＬ　ＰＥＲＦＥＣＴ合同会社,,合同会社,沖縄県,那覇市,三原２丁目１９番２５号,,47,201,9020063,,,2025-10-15,清算の結了等,,,2019-02-08,1,,,,,ブルパーフェクト,0
2067,7380002001539,登記記録の閉鎖等,0,2025-10-21,2025-10-07,有限会社サトー物産,,有限会社,福島県,福島市,渡利字高谷１１番地の３,,07,201,9608141,,,2025-10-07,清算の結了等,,,2015-10-05,1,,,,,サトーブッサン,0
2070,7400001008516,登記記録の閉鎖等,0,2025-10-21,2025-10-06,フィールドプランニング株式会社,,株式会社,岩手県,盛岡市,津志田２６地割３番地,,03,201,0200835,,,2025-10-06,清算の結了等,,,2015-10-05,1,,,,,フィールドプランニング,0
2071,7410002007490,登記記録の閉鎖等,0,2025-10-21,2025-10-20,有限会社三浦米太郎商店,,有限会社,秋田県,にかほ市,平沢字上町４９番地,,05,214,0180402,,,2025-10-20,清算の結了等,,,2015-10-05,1,,,,,ミウラヨネタロウショウテン,0
2081,7450001009071,登記記録の閉鎖等,0,2025-10-21,2025-10-08,株式会社大森,,株式会社,北海道,苫前郡羽幌町,南大通１丁目１２番地,,01,484,0784108,,,2025-10-08,清算の結了等,,,2015-10-05,1,,,,,オオモリ,0
2083,7460002000805,登記記録の閉鎖等,0,2025-10-21,2025-10-16,有限会社熊谷建設工業,,有限会社,北海道,釧路市,緑ケ岡２丁目１０番４号,,01,206,0850814,,,2025-10-16,清算の結了等,,,2015-10-05,1,,,,,クマガイケンセツコウギョウ,0
2092,8010001013125,登記記録の閉鎖等,0,2025-10-21,2025-10-06,株式会社音羽台マンシヨン,,株式会社,東京都,練馬区,早宮３丁目５６番９号,,13,120,1790085,,,2025-10-06,清算の結了等,,,2015-10-05,1,,,,,オトワダイマンション,0
2098,8010001186920,登記記録の閉鎖等,0,2025-10-21,2025-10-06,株式会社ＨＬコーポレーション,,株式会社,東京都,中央区,日本橋箱崎町１７番９号箱崎升喜ビル６Ｆ,,13,102,1030015,,,2025-10-06,清算の結了等,,,2017-10-18,1,,,,,エイチエルコーポレーション,0
2099,8010001206802,登記記録の閉鎖等,0,2025-10-21,2025-10-01,株式会社ノーム,,株式会社,東京都,中央区,日本橋兜町１７番１－７０６号,,13,102,1030026,,,2025-10-01,清算の結了等,,,2020-01-20,1,,,,,ノーム,0
2106,8010003036776,登記記録の閉鎖等,0,2025-10-21,2025-10-06,アストロ・ファイブ合同会社,,合同会社,東京都,中央区,銀座１丁目６番１１号土志田ビルディング３Ｆ,,13,102,1040061,,,2025-10-06,清算の結了等,,,2022-01-19,1,,,,,アストロファイブ,0
2109,8010401081630,登記記録の閉鎖等,0,2025-10-21,2025-09-18,株式会社ＴＭキャピタル１,,株式会社,東京都,港区,元赤坂１丁目１番８号株式会社赤坂国際会計内,,13,103,1070051,,,2025-09-18,清算の結了等,,,2015-10-05,1,,,,,ティーエムキャピタルワン,0
2112,8010401172933,登記記録の閉鎖等,0,2025-10-21,2025-10-01,株式会社ＣＯＷＡ,,株式会社,大分県,津久見市,大字上青江４４７８番地の８,,44,207,8792461,,,2025-10-01,合併による解散等,6320201000224,令和７年１０月１日大分県津久見市大字上青江４４７８番地の８株式会社ｃｏｔｔａ（6320201000224）に合併し解散,2023-03-08,1,,,,,コワ,0
2117,8010403021790,登記記録の閉鎖等,0,2025-10-21,2025-09-05,合同会社Ｂ＆Ｌ健康ビジネスコンサルティング,,合同会社,東京都,港区,浜松町２丁目２番１５号浜松町ダイヤビル２Ｆ,,13,103,1050013,,,2025-09-05,清算の結了等,,,2019-11-14,1,,,,,ビーアンドエルケンコウビジネスコンサルティング,0
2145,8011103009696,登記記録の閉鎖等,0,2025-10-21,2025-09-18,ネットファンディング合同会社,,合同会社,東京都,渋谷区,幡ヶ谷１丁目６番３－２０４号,,13,113,1510072,,,2025-09-18,清算の結了等,,,2020-05-19,1,,,,,ネットファンディング,0
2153,8011601027340,登記記録の閉鎖等,0,2025-10-21,2025-10-09,守合居株式会社,,株式会社,東京都,練馬区,高野台２丁目１１番１５－３０２号,,13,120,1770033,,,2025-10-09,清算の結了等,,,2023-12-07,1,,,,,スゴイ,0
2155,8011602003407,登記記録の閉鎖等,0,2025-10-21,2025-10-09,有限会社ケイ・アンド・キュー,,有限会社,東京都,練馬区,西大泉５丁目１６番２１号,,13,120,1780065,,,2025-10-09,清算の結了等,,,2015-10-05,1,,,,,ケイアンドキュー,0
2168,8012701004543,登記記録の閉鎖等,0,2025-10-21,2025-10-14,株式会社ブレインハウス,,株式会社,東京都,西東京市,緑町２丁目３番９号,,13,229,1880002,,,2025-10-14,清算の結了等,,,2015-10-05,1,,,,,ブレインハウス,0
2170,8013201005858,登記記録の閉鎖等,0,2025-10-21,2025-09-17,目黒食糧販売株式会社,,株式会社,東京都,目黒区,中央町２丁目９番１３号,,13,110,1520001,,,2025-09-17,清算の結了等,,,2015-10-05,1,,,,,メグロショクリョウハンバイ,0
2173,8013302012126,登記記録の閉鎖等,0,2025-10-21,2025-10-06,中野リース有限会社,,有限会社,東京都,豊島区,南長崎２丁目１２番２１号,,13,116,1710052,,,2025-10-06,清算の結了等,,,2015-10-05,1,,,,,ナカノリース,0
2205,8040001035918,登記記録の閉鎖等,0,2025-10-21,2025-10-07,綜合パトロール株式会社,,株式会社,千葉県,松戸市,松戸１１１７番地,,12,207,2710092,,,2025-10-07,合併による解散等,9040001017725,令和７年１０月７日千葉県船橋市習志野台三丁目１７番２１号第一警備保障株式会社（9040001017725）に合併し解散,2015-10-05,1,,,,,ソウゴウパトロール,0
2214,8040002069493,登記記録の閉鎖等,0,2025-10-21,2025-09-24,有限会社相川造園土木,,有限会社,千葉県,君津市,六手１０６８番地,,12,225,2991111,,,2025-09-24,清算の結了等,,,2015-10-05,1,,,,,アイカワゾウエンドボク,0
2215,8040003027640,登記記録の閉鎖等,0,2025-10-21,2025-09-24,ＪＡＶＮ合同会社,,合同会社,千葉県,柏市,柏３丁目８番５号３Ｆ,,12,217,2770005,,,2025-09-24,清算の結了等,,,2025-05-21,1,,,,,ジャブン,0
2225,8050003005604,登記記録の閉鎖等,0,2025-10-21,2025-10-07,合同会社ＫＥＭ,,合同会社,茨城県,かすみがうら市,稲吉３丁目４番３０号,,08,230,3150054,,,2025-10-07,清算の結了等,,,2021-01-27,1,,,,,ケーイーエム,0
2239,8100002020945,登記記録の閉鎖等,0,2025-10-21,2025-10-17,有限会社白雪,,有限会社,長野県,松本市,本庄１丁目１０番２６号,,20,202,3900814,,,2025-10-17,清算の結了等,,,2015-10-05,1,,,,,シラユキ,0
2266,8120101035074,登記記録の閉鎖等,0,2025-10-21,2025-10-08,株式会社アーラエ,,株式会社,大阪府,河内長野市,大矢船南町３５番２号,,27,216,5860074,,,2025-10-08,清算の結了等,,,2015-10-05,1,,,,,アーラエ,0
2276,8140001005506,登記記録の閉鎖等,0,2025-10-21,2025-10-14,株式会社ヨネダハウジング,,株式会社,兵庫県,神戸市西区,樫野台６丁目１６番地の１０,,28,111,6512275,,,2025-10-14,清算の結了等,,,2015-10-05,1,,,,,ヨネダハウジング,0
2279,8140001102022,登記記録の閉鎖等,0,2025-10-21,2025-10-14,株式会社イノウエ,,株式会社,兵庫県,神戸市東灘区,住吉東町４丁目８－１１－８０２,,28,101,6580052,,,2025-10-14,清算の結了等,,,2016-05-17,1,,,,,イノウエ,0
2285,8140003011485,登記記録の閉鎖等,0,2025-10-21,2025-10-14,合同会社ハッピーママス,,合同会社,兵庫県,加古川市,神野町西条５６９番地の６,,28,210,6750009,,,2025-10-14,清算の結了等,,,2016-07-05,1,,,,,ハッピーママス,0
2290,8180001022992,登記記録の閉鎖等,0,2025-10-21,2025-10-06,森井印刷株式会社,,株式会社,愛知県,名古屋市熱田区,千年１丁目２７番１３号,,23,109,4560054,,,2025-10-06,清算の結了等,,,2015-10-05,1,,,,,モリイインサツ,0
2297,8180002077103,登記記録の閉鎖等,0,2025-10-21,2025-10-07,有限会社ナカサダ工業,,有限会社,愛知県,一宮市,奥町字三出２４番地の８,,23,203,4910201,,,2025-10-07,清算の結了等,,,2015-10-05,1,,,,,ナカサダコウギョウ,0
2301,8180005020852,登記記録の閉鎖等,0,2025-10-21,2025-10-14,馬引農事實行組合,,その他の設立登記法人,愛知県,一宮市,（愛知県中島郡大和村）,,23,203,4910000,,,2025-10-14,清算の結了等,,,2024-12-06,1,,,,,マビキ,0
2310,8200002009664,登記記録の閉鎖等,0,2025-10-21,2025-10-15,有限会社二十一番,,有限会社,岐阜県,瑞穂市,穂積１６４１番地の１,,21,216,5010223,,,2025-10-15,清算の結了等,,,2015-10-05,1,,,,,ニジュウイチバン,0
2329,8290001030340,登記記録の閉鎖等,0,2025-10-21,2025-09-19,株式会社ビッグ・ワン,,株式会社,福岡県,糟屋郡志免町,桜丘１丁目４番７号,,40,343,8112201,,,2025-09-19,清算の結了等,,,2015-10-05,1,,,,,ビッグワン,0
2336,8290002044604,登記記録の閉鎖等,0,2025-10-21,2025-09-22,松尾建設有限会社,,有限会社,福岡県,飯塚市,有安４４番地,,40,205,8200111,,,2025-09-22,清算の結了等,,,2015-10-05,1,,,,,マツオケンセツ,0
2361,8360001022792,登記記録の閉鎖等,0,2025-10-21,2025-10-16,エミフルイノベーション株式会社,,株式会社,沖縄県,中頭郡北谷町,桑江１丁目６番２３号,,47,326,9040103,,,2025-10-16,清算の結了等,,,2017-08-22,1,,,,,エミフルイノベーション,0
2372,8380001029695,登記記録の閉鎖等,0,2025-10-21,2025-10-06,株式会社ａｍａｔｅｒａｓ,,株式会社,福島県,福島市,方木田字辻１５番地の４,,07,201,9608163,,,2025-10-06,清算の結了等,,,2019-01-09,1,,,,,アマテラス,0
2386,8430002029037,登記記録の閉鎖等,0,2025-10-21,2025-10-07,有限会社シティライフ,,有限会社,北海道,札幌市清田区,平岡四条６丁目１０番８号,,01,110,0040874,,,2025-10-07,清算の結了等,,,2015-10-05,1,,,,,シティライフ,0
2391,8470002018192,登記記録の閉鎖等,0,2025-10-21,2025-10-16,有限会社和,,有限会社,香川県,さぬき市,大川町富田中７２４番地,,37,206,7610902,,,2025-10-16,清算の結了等,,,2015-10-05,1,,,,,ナゴミ,0
2395,8490002000883,登記記録の閉鎖等,0,2025-10-21,2025-10-20,有限会社オートテクニカ,,有限会社,高知県,高知市,南ノ丸町５８番地６,,39,201,7818016,,,2025-10-20,清算の結了等,,,2015-10-05,1,,,,,オートテクニカ,0
2397,9010001022389,登記記録の閉鎖等,0,2025-10-21,2025-10-07,株式会社ダイイチアソシエイツ,,株式会社,東京都,千代田区,紀尾井町４番１号ニューオータニビジネスコート,,13,101,1020094,,,2025-10-07,清算の結了等,,,2015-10-05,1,,,,,ダイイチアソシエイツ,0
2402,9010001084495,登記記録の閉鎖等,0,2025-10-21,2025-10-02,サバ・ソフトウェア株式会社,,株式会社,東京都,千代田区,丸の内１丁目６番５号丸の内北口ビルディング９階ＷｅＷｏｒｋ内,,13,101,1000005,,,2025-10-02,合併による解散等,6010401103881,令和７年１０月１日東京都千代田区丸の内一丁目６番５号丸の内北口ビルディング９階ＷｅＷｏｒｋ内Ｃｏｒｎｅｒｓｔｏｎｅ　ＯｎＤｅｍａｎｄ　Ｊａｐａｎ株式会社（6010401103881）に合併し解散,2015-10-05,1,,,,,サバソフトウェア,0
2408,9010001124887,登記記録の閉鎖等,0,2025-10-21,2025-10-01,株式会社ｂｕｄｏｒｉ,,株式会社,東京都,千代田区,岩本町２丁目１１番９号,,13,101,1010032,,,2025-10-01,清算の結了等,,,2015-10-05,1,,,,,,0
2415,9010003036775,登記記録の閉鎖等,0,2025-10-21,2025-10-06,アストロ・フォー合同会社,,合同会社,東京都,中央区,銀座１丁目６番１１号土志田ビルディング３Ｆ,,13,102,1040061,,,2025-10-06,清算の結了等,,,2022-01-18,1,,,,,アストロフォー,0
2432,9010401157272,登記記録の閉鎖等,0,2025-10-21,2025-06-02,アルテミラ株式会社,,株式会社,東京都,文京区,後楽１丁目４番２５号,,13,105,1120004,,,2025-06-02,合併による解散等,9010401157223,令和７年６月１日東京都文京区後楽一丁目４番２５号アルテミラ・ホールディングス株式会社（9010401157223）に合併し解散,2020-12-25,1,,,,,アルテミラ,0
2453,9011001131122,登記記録の閉鎖等,0,2025-10-21,2025-10-01,株式会社フェニックス,,株式会社,東京都,千代田区,有楽町２丁目７番１号有楽町イトシアビル１２階,,13,101,1000006,,,2025-10-01,清算の結了等,,,2019-11-28,1,,,,,フェニックス,0
2467,9011202004960,登記記録の閉鎖等,0,2025-10-21,2025-10-07,有限会社東中野音楽学院,,有限会社,東京都,中野区,東中野１丁目３５番４号,,13,114,1640003,,,2025-10-07,清算の結了等,,,2015-10-05,1,,,,,ヒガシナカノオンガクガクイン,0
2475,9012402017273,登記記録の閉鎖等,0,2025-10-21,2025-10-09,有限会社宙,,有限会社,東京都,調布市,東つつじケ丘２丁目５番５号,,13,208,1820005,,,2025-10-09,清算の結了等,,,2015-10-05,1,,,,,テン,0
2498,9021002021387,登記記録の閉鎖等,0,2025-10-21,2025-10-03,有限会社杉本電機,,有限会社,神奈川県,相模原市中央区,上溝４丁目３番１３号,,14,152,2520243,,,2025-10-03,清算の結了等,,,2015-10-05,1,,,,,スギモトデンキ,0
2502,9030001101918,登記記録の閉鎖等,0,2025-10-21,2025-10-16,ハモダ株式会社,,株式会社,栃木県,栃木市,藤岡町大田和２７５番地３,,09,203,3231107,,,2025-10-16,清算の結了等,,,2015-10-05,1,,,,,ハモダ,0
2510,9030003008665,登記記録の閉鎖等,0,2025-10-21,2025-10-01,合同会社ＧＬＯＢＡＬ　ＶＩＳＩＯＮ,,合同会社,東京都,中央区,銀座１丁目２２番１１号銀座大竹ビジデンス２階,,13,102,1040061,,,2025-10-01,清算の結了等,,,2016-04-12,1,,,,,グローバルビジョン,0
2526,9040002053091,登記記録の閉鎖等,0,2025-10-21,2025-09-18,有限会社アイ・メディエイト,,有限会社,千葉県,松戸市,竹ケ花西町３１０番地３７,,12,207,2710071,,,2025-09-18,清算の結了等,,,2015-10-05,1,,,,,アイメディエイト,0
2534,9060002025205,登記記録の閉鎖等,0,2025-10-21,2025-10-20,有限会社オカノムセン,,有限会社,栃木県,大田原市,紫塚２丁目２５６４番地５,,09,210,3240058,,,2025-10-20,清算の結了等,,,2015-10-05,1,,,,,オカノムセン,0
2538,9070002031490,登記記録の閉鎖等,0,2025-10-21,2025-10-14,有限会社和光製作所,,有限会社,群馬県,太田市,東新町７０４番地の２,,10,205,3730015,,,2025-10-14,清算の結了等,,,2015-10-05,1,,,,,ワコウセイサクショ,0
2539,9080001022085,登記記録の閉鎖等,0,2025-10-21,2025-10-10,株式会社Ｌｅ’Ｈｅａｒｔ,,株式会社,静岡県,静岡市駿河区,登呂４丁目２６番４号,,22,102,4228033,,,2025-10-10,清算の結了等,,,2018-02-27,1,,,,,レハート,0
2577,9120101055716,登記記録の閉鎖等,0,2025-10-21,2025-10-08,エムシープランニング株式会社,,株式会社,大阪府,貝塚市,畠中２丁目７番１４号,,27,208,5970072,,,2025-10-08,清算の結了等,,,2016-11-25,1,,,,,エムシープランニング,0
2600,9140003019214,登記記録の閉鎖等,0,2025-10-21,2025-10-10,合同会社大福,,合同会社,兵庫県,神戸市西区,池上４丁目２－１０リバーサイド岡田２０２,,28,111,6512111,,,2025-10-10,清算の結了等,,,2023-06-16,1,,,,,ダイフク,0
2616,9180002069974,登記記録の閉鎖等,0,2025-10-21,2025-10-07,有限会社丸林製土所,,有限会社,愛知県,小牧市,大字林６２０番地,,23,219,4850805,,,2025-10-07,清算の結了等,,,2015-10-05,1,,,,,マルバヤシセイドショ,0
2619,9180301003915,登記記録の閉鎖等,0,2025-10-21,2025-10-17,ウッド・アート・スタジオ株式会社,,株式会社,愛知県,岡崎市,井田町字稲場２番地５,,23,202,4440076,,,2025-10-17,清算の結了等,,,2015-10-05,1,,,,,ウッドアートスタジオ,0
2662,9350001006259,登記記録の閉鎖等,0,2025-10-21,2025-10-15,第一糖業株式会社,,株式会社,宮崎県,日向市,大字日知屋１７３７１番地,,45,206,8830062,,,2025-10-15,合併による解散等,2010001142672,令和７年１０月１日東京都中央区日本橋小網町１４番１号ウェルネオシュガー株式会社（2010001142672）に合併し解散,2015-10-05,1,,,,,ダイイチトウギョウ,0
2682,9420001013875,登記記録の閉鎖等,0,2025-10-21,2025-10-03,株式会社やま長,,株式会社,青森県,弘前市,大字高田２丁目８番地４,,02,202,0368084,,,2025-10-03,清算の結了等,,,2015-10-05,1,,,,,ヤマチョウ,0
2690,9430002042286,登記記録の閉鎖等,0,2025-10-21,2025-10-16,有限会社Ｓプラン,,有限会社,北海道,札幌市中央区,南九条西３丁目１番地２８レジデンスセゾン２０３,,01,101,0640809,,,2025-10-16,清算の結了等,,,2015-10-05,1,,,,,エスプラン,0
2693,9440002002850,登記記録の閉鎖等,0,2025-10-21,2025-10-16,有限会社ティーアンドパルス,,有限会社,北海道,函館市,美原２丁目５２番７号,,01,202,0410806,,,2025-10-16,清算の結了等,,,2015-10-05,1,,,,,ティーアンドパルス,0
2699,9470002017474,登記記録の閉鎖等,0,2025-10-21,2025-10-17,有限会社やまじ,,有限会社,香川県,三豊市,三野町下高瀬９１９番地１,,37,208,7670032,,,2025-10-17,清算の結了等,,,2015-10-05,1,,,,,ヤマジ,0
2700,9470002018274,登記記録の閉鎖等,0,2025-10-21,2025-10-16,章福水産有限会社,,有限会社,香川県,東かがわ市,引田２６８５番地１,,37,207,7692901,,,2025-10-16,清算の結了等,,,2015-10-05,1,,,,,アキトミスイサン,0
2701,9490002007366,登記記録の閉鎖等,0,2025-10-21,2025-10-17,有限会社インテリアこばやし,,有限会社,高知県,高知市,種崎２３１番地,,39,201,7810113,,,2025-10-17,清算の結了等,,,2015-10-05,1,,,,,インテリアコバヤシ,0
