sequenceNumber,corporateNumber,process,correct,updateDate,changeDate,name,nameImageId,kind,prefectureName,cityName,streetNumber,addressImageId,prefectureCode,cityCode,postCode,addressOutside,addressOutsideImageId,closeDate,closeCause,successorCorporateNumber,changeCause,assignmentDate,latest,enName,enPrefectureName,enCityName,enAddressOutside,furigana,hihyoji
5,1010001246202,新規,0,2024-07-04,2024-07-04,株式会社ヤサカ,,株式会社,東京都,千代田区,飯田橋２丁目１１番２号,,13,101,1020072,,,,,,,2024-07-04,1,,,,,ヤサカ,0
6,1010001246219,新規,0,2024-07-04,2024-07-04,株式会社ジェーシーエス・コミュニケーションズ,,株式会社,東京都,千代田区,霞が関１丁目４番２号,,13,101,1000013,,,,,,,2024-07-04,1,,,,,ジェーシーエスコミュニケーションズ,0
7,1010001246326,新規,0,2024-07-04,2024-07-04,エバン株式会社,,株式会社,東京都,文京区,白山１丁目６番４号,,13,105,1130001,,,,,,,2024-07-04,1,,,,,エバン,0
13,1010401183508,新規,0,2024-07-04,2024-07-04,株式会社ＰＩＣＴＥＣ,,株式会社,東京都,港区,南青山２丁目２番８号ＤＦビル１０階,,13,103,1070062,,,,,,,2024-07-04,1,,,,,ピクテック,0
14,1010401183573,新規,0,2024-07-04,2024-07-04,株式会社ＪＵＭＰ,,株式会社,東京都,港区,三田３丁目４番１０号リーラヒジリザカ１Ｆ,,13,103,1080073,,,,,,,2024-07-04,1,,,,,ジャンプ,0
18,1010501052538,新規,0,2024-07-04,2024-07-04,株式会社ＲＥＤＧＥ　ＣＡＰＩＴＡＬ,,株式会社,東京都,台東区,池之端３丁目３番９－３０２号,,13,106,1100008,,,,,,,2024-07-04,1,,,,,レッジキャピタル,0
19,1010501052546,新規,0,2024-07-04,2024-07-04,株式会社ＭＥＮＥＧＩ,,株式会社,東京都,台東区,東上野２丁目１４番１号マルコーセンタービル７階,,13,106,1100015,,,,,,,2024-07-04,1,,,,,メネギ,0
23,1010701046208,新規,0,2024-07-04,2024-07-04,株式会社ミラリスタ,,株式会社,東京都,品川区,大崎１丁目２０番１５号エステムプラザ品川大崎駅前レジデンシャル２０１,,13,109,1410032,,,,,,,2024-07-04,1,,,,,ミラリスタ,0
24,1010701046216,新規,0,2024-07-04,2024-07-04,株式会社ＨｅｘａＫ,,株式会社,東京都,品川区,上大崎３丁目５番２号,,13,109,1410021,,,,,,,2024-07-04,1,,,,,ヘキサク,0
25,1010703007240,新規,0,2024-07-04,2024-07-04,アップス合同会社,,合同会社,東京都,品川区,東五反田１丁目４番１１－３０７号,,13,109,1410022,,,,,,,2024-07-04,1,,,,,アップス,0
29,1010903009193,新規,0,2024-07-04,2024-07-04,合同会社大原,,合同会社,東京都,世田谷区,大原１丁目２３番２２号,,13,112,1560041,,,,,,,2024-07-04,1,,,,,オオハラ,0
36,1011001163115,新規,0,2024-07-04,2024-07-04,株式会社ＬＡＮＤ　ＭＡＲＫ,,株式会社,東京都,渋谷区,恵比寿西２丁目８番４号ＥＸ恵比寿西ビル５階,,13,113,1500021,,,,,,,2024-07-04,1,,,,,ランドマーク,0
37,1011001163156,新規,0,2024-07-04,2024-07-04,株式会社エコーメディア,,株式会社,東京都,渋谷区,渋谷２丁目１９番１５－６０９号宮益坂ビルディング,,13,113,1500002,,,,,,,2024-07-04,1,,,,,エコーメディア,0
38,1011001163164,新規,0,2024-07-04,2024-07-04,株式会社ｉｍｐｒｏｆｔ,,株式会社,東京都,目黒区,駒場４丁目５番５号ヴィラ駒場２０３,,13,110,1530041,,,,,,,2024-07-04,1,,,,,インプロフト,0
39,1011001163197,新規,0,2024-07-04,2024-07-04,株式会社十三番地劇場,,株式会社,東京都,目黒区,青葉台４丁目４番１２号ＴＨＥ・Ｎ３・５０５,,13,110,1530042,,,,,,,2024-07-04,1,,,,,ジュウサンバンチゲキジョウ,0
44,1011201025610,新規,0,2024-07-04,2024-07-04,株式会社ＮＥＷ　ＦＲＯＮＴＩＥＲ,,株式会社,東京都,中野区,東中野１丁目４番４号ＭＴビル３階,,13,114,1640003,,,,,,,2024-07-04,1,,,,,ニューフロンティア,0
48,1011503006135,新規,0,2024-07-04,2024-07-04,ＰＥＩ合同会社,,合同会社,東京都,北区,志茂３丁目４３番１６－１４１８号,,13,117,1150042,,,,,,,2024-07-04,1,,,,,ペイ,0
51,1011801044472,新規,0,2024-07-04,2024-07-04,株式会社ＩＮＧ,,株式会社,東京都,足立区,保木間４丁目３７番１０号,,13,121,1210064,,,,,,,2024-07-04,1,,,,,アイエヌジー,0
52,1011801044480,新規,0,2024-07-04,2024-07-04,ＦＡＬＬ　ＲＩＶＥＲ株式会社,,株式会社,東京都,足立区,南花畑２丁目２０－１２,,13,121,1210062,,,,,,,2024-07-04,1,,,,,フォールリバー,0
53,1011801044497,新規,0,2024-07-04,2024-07-04,株式会社オフィスナーミーズ,,株式会社,東京都,葛飾区,奥戸４丁目２４番１２－５０２号,,13,122,1240022,,,,,,,2024-07-04,1,,,,,オフィスナーミーズ,0
67,1013301052749,新規,0,2024-07-04,2024-07-04,士誠株式会社,,株式会社,東京都,豊島区,東池袋１丁目３１番５号,,13,116,1700013,,,,,,,2024-07-04,1,,,,,シセイ,0
68,1013303007197,新規,0,2024-07-04,2024-07-04,ＶＣＭ　Ｍｏｂｉｌｅ合同会社,,合同会社,東京都,豊島区,南池袋１丁目９番１８号ＧＯＧＯオフィス池袋２３３号室,,13,116,1710022,,,,,,,2024-07-04,1,,,,,ヴィーシーエムモバイル,0
71,1020001157968,新規,0,2024-07-04,2024-07-04,株式会社ｓｉｅｓｔａ,,株式会社,神奈川県,川崎市高津区,久本２丁目８番２２－４０１号,,14,134,2130011,,,,,,,2024-07-04,1,,,,,シエスタ,0
74,1020003026436,新規,0,2024-07-04,2024-07-04,ＴＩＡＴ合同会社,,合同会社,神奈川県,横浜市青葉区,すみよし台７－７０,,14,117,2270035,,,,,,,2024-07-04,1,,,,,ティアット,0
81,1021003014694,新規,0,2024-07-04,2024-07-04,Ｈａｎｖｏｎ　Ｕｇｅｅ　Ｔｅｃｈｎｏｌｏｇｙ　Ｊａｐａｎ合同会社,,合同会社,神奈川県,相模原市南区,相模大野９丁目５番２３号,,14,153,2520303,,,,,,,2024-07-04,1,,,,,ハンボンウージーテクノロジージャパン,0
86,1030001161250,新規,0,2024-07-04,2024-07-04,株式会社ＳＵＮＮＹ,,株式会社,埼玉県,鶴ヶ島市,大字藤金８８０－３,,11,241,3502206,,,,,,,2024-07-04,1,,,,,サニー,0
87,1030001161259,新規,0,2024-07-04,2024-07-04,株式会社ＮＩＡＬ,,株式会社,埼玉県,川口市,赤井４丁目３２番２号,,11,203,3340073,,,,,,,2024-07-04,1,,,,,ニール,0
88,1030001161291,新規,0,2024-07-04,2024-07-04,株式会社ＳＥＲＯＫ,,株式会社,埼玉県,川口市,戸塚２丁目３番２８号,,11,203,3330811,,,,,,,2024-07-04,1,,,,,セロク,0
93,1030003024595,新規,0,2024-07-04,2024-07-04,合同会社カシマオール,,合同会社,埼玉県,川口市,大字木曽呂３２４番地の３グレイスフル２０２号,,11,203,3330831,,,,,,,2024-07-04,1,,,,,カシマオール,0
95,1040001134305,新規,0,2024-07-04,2024-07-04,株式会社ＭＧパートナーズ,,株式会社,千葉県,富里市,七栄６５４番地７１４,,12,233,2860221,,,,,,,2024-07-04,1,,,,,エムジーパートナーズ,0
96,1040001134346,新規,0,2024-07-04,2024-07-04,株式会社小谷設備,,株式会社,千葉県,千葉市中央区,本町１丁目６番８号藤ビル３０２号室,,12,101,2600012,,,,,,,2024-07-04,1,,,,,コタニセツビ,0
97,1040001134362,新規,0,2024-07-04,2024-07-04,株式会社ＮＩＫＡＴＡグループ,,株式会社,千葉県,柏市,高柳１７６６番地２４,,12,217,2770941,,,,,,,2024-07-04,1,,,,,,0
98,1040001134412,新規,0,2024-07-04,2024-07-04,株式会社ハウジングサポーターズ,,株式会社,千葉県,市原市,八幡１９７７番地１９,,12,219,2900062,,,,,,,2024-07-04,1,,,,,ハウジングサポーターズ,0
101,1050001055038,新規,0,2024-07-04,2024-07-04,株式会社小林総建,,株式会社,茨城県,常陸大宮市,姥賀町２９８０番地の６,,08,225,3192251,,,,,,,2024-07-04,1,,,,,コバヤシソウケン,0
110,1080403005050,新規,0,2024-07-04,2024-07-04,合同会社ＣＥ・ＶｅＬＬ,,合同会社,静岡県,掛川市,中央３丁目８２番地,,22,213,4360056,,,,,,,2024-07-04,1,,,,,セヴェール,0
111,1090003002595,新規,0,2024-07-04,2024-07-04,合同会社サンフジプラン,,合同会社,山梨県,中央市,西新居２９６番地,,19,214,4093802,,,,,,,2024-07-04,1,,,,,サンフジプラン,0
114,1110001038531,新規,0,2024-07-04,2024-07-04,株式会社タニカワ,,株式会社,新潟県,燕市,松橋１５５番地６,,15,213,9591202,,,,,,,2024-07-04,1,,,,,タニカワ,0
119,1120001266362,新規,0,2024-07-04,2024-07-04,Ｆｕｎｃｔｉｏｎ　ｐｌｕｓ株式会社,,株式会社,大阪府,大阪市天王寺区,大道２丁目６番１６号,,27,109,5430052,,,,,,,2024-07-04,1,,,,,ファンクションプラス,0
120,1120001266478,新規,0,2024-07-04,2024-07-04,株式会社ホビーラッシュ,,株式会社,大阪府,大阪市東淀川区,豊新４丁目２４番４－８０５号,,27,114,5330014,,,,,,,2024-07-04,1,,,,,ホビーラッシュ,0
121,1120001266544,新規,0,2024-07-04,2024-07-04,エーシーフォー株式会社,,株式会社,大阪府,大阪市西区,江之子島１丁目７番３号,,27,106,5500006,,,,,,,2024-07-04,1,,,,,エーシーフォー,0
122,1120001266552,新規,0,2024-07-04,2024-07-04,株式会社拓源商事,,株式会社,大阪府,大阪市平野区,長吉出戸４丁目１番２４号,,27,126,5470011,,,,,,,2024-07-04,1,,,,,タクゲンショウジ,0
123,1120003026938,新規,0,2024-07-04,2024-07-04,合同会社染丸,,合同会社,大阪府,大阪市東住吉区,北田辺６丁目１４番１８号,,27,121,5460044,,,,,,,2024-07-04,1,,,,,ソメマル,0
126,1120101069896,新規,0,2024-07-04,2024-07-04,株式会社ハラダ化成,,株式会社,大阪府,堺市北区,北花田町３丁４１番地９,,27,146,5918002,,,,,,,2024-07-04,1,,,,,ハラダカセイ,0
127,1120101069905,新規,0,2024-07-04,2024-07-04,ワイエム鋼管株式会社,,株式会社,大阪府,岸和田市,港緑町５番１－１００３号,,27,202,5960014,,,,,,,2024-07-04,1,,,,,ワイエムコウカン,0
128,1120103005932,新規,0,2024-07-04,2024-07-04,合同会社バックアップ,,合同会社,大阪府,松原市,天美我堂４丁目７番６号,,27,217,5800026,,,,,,,2024-07-04,1,,,,,バックアップ,0
129,1120901049404,新規,0,2024-07-04,2024-07-04,株式会社ＷＨ２,,株式会社,大阪府,池田市,畑１丁目１９番３号,,27,204,5630021,,,,,,,2024-07-04,1,,,,,ダブルエイチツー,0
130,1120903005248,新規,0,2024-07-04,2024-07-04,合同会社リアルエステート渡辺ウエスト,,合同会社,大阪府,豊中市,稲津町１丁目６番４３－１０１号,,27,203,5610854,,,,,,,2024-07-04,1,,,,,リアルエステートワタナベウエスト,0
133,1130001077387,新規,0,2024-07-04,2024-07-04,株式会社日野ＩＴコンサルティング,,株式会社,京都府,京都市西京区,桂坤町５０番地３７,,26,111,6158084,,,,,,,2024-07-04,1,,,,,ヒノアイティーコンサルティング,0
134,1130001077404,新規,0,2024-07-04,2024-07-04,株式会社山強,,株式会社,京都府,京都市伏見区,小栗栖森本町２０－９５,,26,109,6011462,,,,,,,2024-07-04,1,,,,,ヤマキョウ,0
136,1130005017125,新規,0,2024-07-04,2024-07-04,医療法人社団ときわ駅前なかむら眼科,,その他の設立登記法人,京都府,京都市右京区,常盤馬塚町１５番地１スギ薬局常盤店２階,00135458,26,108,6168225,,,,,,,2024-07-04,1,,,,,トキワエキマエナカムラガンカ,0
141,1140003020773,新規,0,2024-07-04,2024-07-04,合同会社ＭＡＹＰｏｒｕ,,合同会社,兵庫県,姫路市,新在家中の町１３番１８号,,28,201,6700094,,,,,,,2024-07-04,1,,,,,メイポル,0
145,1150001027407,新規,0,2024-07-04,2024-07-04,株式会社Ａｓｕｍｏ,,株式会社,奈良県,北葛城郡王寺町,南元町２丁目１番２８号,,29,425,6360015,,,,,,,2024-07-04,1,,,,,アスモ,0
146,1160001026052,新規,0,2024-07-04,2024-07-04,想武商事株式会社,,株式会社,滋賀県,守山市,守山６丁目８番９号,,25,207,5240022,,,,,,,2024-07-04,1,,,,,ソブショウジ,0
152,1180001162267,新規,0,2024-07-04,2024-07-04,株式会社山前,,株式会社,愛知県,瀬戸市,東寺山町１２２番地の１,,23,204,4890928,,,,,,,2024-07-04,1,,,,,ヤマゼン,0
153,1180001162300,新規,0,2024-07-04,2024-07-04,株式会社フライトライブ,,株式会社,愛知県,瀬戸市,余床町８２０番地,,23,204,4890002,,,,,,,2024-07-04,1,,,,,フライトライブ,0
154,1180003027039,新規,0,2024-07-04,2024-07-04,合同会社ＨＯＰＥ,,合同会社,愛知県,小牧市,小木南３丁目１７２番地,,23,219,4850056,,,,,,,2024-07-04,1,,,,,ホープ,0
157,1180305009585,新規,0,2024-07-04,2024-07-04,弁護士法人へきかい法律事務所,,その他の設立登記法人,愛知県,知立市,広見３丁目３２番地,,23,225,4720044,,,,,,,2024-07-04,1,,,,,ヘキカイホウリツジムショ,0
160,1190001031454,新規,0,2024-07-04,2024-07-04,山辺伐採サポート株式会社,,株式会社,三重県,尾鷲市,光ヶ丘１１番３８号‐２２,,24,209,5193637,,,,,,,2024-07-04,1,,,,,ヤマベバッサイサポート,0
169,1230001020411,新規,0,2024-07-04,2024-07-04,株式会社ＡＣＥ,,株式会社,富山県,富山市,大町２７６番地１メゾン堀川２１０号,,16,201,9398073,,,,,,,2024-07-04,1,,,,,エース,0
170,1240001063467,新規,0,2024-07-04,2024-07-04,株式会社さつま,,株式会社,広島県,東広島市,安芸津町大田４８１番地３,,34,212,7392404,,,,,,,2024-07-04,1,,,,,サツマ,0
171,1240001063483,新規,0,2024-07-04,2024-07-04,株式会社曽我電設,,株式会社,広島県,呉市,焼山中央４丁目１３番１４号,,34,202,7370935,,,,,,,2024-07-04,1,,,,,ソガデンセツ,0
176,1260001039226,新規,0,2024-07-04,2024-07-04,株式会社鈴木建設,,株式会社,岡山県,浅口郡里庄町,大字里見４３５２番地８,,33,445,7190301,,,,,,,2024-07-04,1,,,,,スズキケンセツ,0
180,1280003001859,新規,0,2024-07-04,2024-07-04,ｙｔコーポレーション合同会社,,合同会社,島根県,大田市,大田町大田ロ１０８７番地１６,,32,205,6940064,,,,,,,2024-07-04,1,,,,,ワイティコーポレーション,0
183,1290001106337,新規,0,2024-07-04,2024-07-04,Ａｌｔｒａｎｖｅｒｇｅ株式会社,,株式会社,福岡県,福岡市中央区,天神４丁目６－２８天神ファーストビル７階,,40,133,8100001,,,,,,,2024-07-04,1,,,,,アルトランバージ,0
184,1290001106394,新規,0,2024-07-04,2024-07-04,株式会社美樹,,株式会社,福岡県,福岡市城南区,松山２丁目２番１５号,,40,136,8140131,,,,,,,2024-07-04,1,,,,,ミキ,0
194,1310001019098,新規,0,2024-07-04,2024-07-04,株式会社ムゲン,,株式会社,長崎県,諫早市,幸町７０番２１号,,42,204,8540022,,,,,,,2024-07-04,1,,,,,ムゲン,0
203,1350001019053,新規,0,2024-07-04,2024-07-04,平島開発株式会社,,株式会社,宮崎県,宮崎市,一の宮町４４番地２,,45,201,8800854,,,,,,,2024-07-04,1,,,,,ヒラシマカイハツ,0
206,1360001033895,新規,0,2024-07-04,2024-07-04,株式会社仲宗根材木店,,株式会社,沖縄県,沖縄市,嘉間良１丁目４番５６号,,47,211,9040005,,,,,,,2024-07-04,1,,,,,ナカソネザイモクテン,0
207,1360001033912,新規,0,2024-07-04,2024-07-04,株式会社ＧＲＩＴ　ＡＵＴＯＭＯＢＩＬＥ,,株式会社,沖縄県,うるま市,字西原５２番地２,,47,213,9042204,,,,,,,2024-07-04,1,,,,,グリットオートモービル,0
209,1360003014118,新規,0,2024-07-04,2024-07-04,合同会社ＡＩＡＩ,,合同会社,沖縄県,うるま市,字平良川１５７番地共栄ビル２０１,,47,213,9042221,,,,,,,2024-07-04,1,,,,,アイアイ,0
210,1360005007061,新規,0,2024-07-04,2024-07-04,一般社団法人Ｃｈａ‐Ａｓｈｉｂｉ,,その他の設立登記法人,沖縄県,中頭郡北谷町,伊平２丁目４番３１号ベアーズコート桑江タウンリゾート５０２,,47,326,9040102,,,,,,,2024-07-04,1,,,,,チャーアシビー,0
221,1410001013859,新規,0,2024-07-04,2024-07-04,株式会社トップギア,,株式会社,秋田県,横手市,婦気大堤字街道下１番地２,,05,203,0130063,,,,,,,2024-07-04,1,,,,,トップギア,0
222,1410003003949,新規,0,2024-07-04,2024-07-04,合同会社ソーシャルサポートあきた,,合同会社,秋田県,秋田市,山王３丁目１番１号,,05,201,0100951,,,,,,,2024-07-04,1,,,,,ソーシャルサポートアキタ,0
223,1420001018782,新規,0,2024-07-04,2024-07-04,株式会社創建,,株式会社,青森県,青森市,大字新町野字菅谷５１番地１,,02,201,0300135,,,,,,,2024-07-04,1,,,,,ソウケン,0
230,1430001092199,新規,0,2024-07-04,2024-07-04,株式会社ＡＭＪ,,株式会社,北海道,苫小牧市,字沼ノ端２番地２８,,01,213,0591364,,,,,,,2024-07-04,1,,,,,エイエムジェイ,0
237,1490001010808,新規,0,2024-07-04,2024-07-04,株式会社ＺＥＲＯ,,株式会社,高知県,高知市,南川添２４番４号,,39,201,7810082,,,,,,,2024-07-04,1,,,,,ゼロ,0
241,1700150126143,新規,0,2024-07-04,2024-06-24,明石市剣道連盟,,その他,兵庫県,明石市,本町１丁目１１－９株式会社平野商店内,,28,203,6730892,,,,,,,2024-06-24,1,,,,,アカシシケンドウレンメイ,0
242,1700150126374,新規,0,2024-07-04,2024-07-04,第５７回東北学校保健大会兼令和６年度青森県学校保健・安全・給食研究大会実行委員会,,その他,青森県,青森市,長島１丁目１－１,,02,201,0300861,,,,,,,2024-07-04,1,,,,,ダイゴジュウナナカイトウホクガッコウホケンタイカイケンレイワロクネンドアオモリケンガッコウホケンアンゼンキュウショクケンキュウタイカイジッコウイインカイ,0
248,2010001246093,新規,0,2024-07-04,2024-07-04,Ｏｒｇａｎｉｃ　Ｓｏｃｉｅｔｙ株式会社,,株式会社,東京都,千代田区,有楽町１丁目９番４号,,13,101,1000006,,,,,,,2024-07-04,1,,,,,オーガニックソサエティ,0
249,2010001246201,新規,0,2024-07-04,2024-07-04,ＯＶＥＲＡＬＬ株式会社,,株式会社,東京都,千代田区,神田神保町２丁目４６赤石建設ビル４階,,13,101,1010051,,,,,,,2024-07-04,1,,,,,オーバーオール,0
251,2010003044223,新規,0,2024-07-04,2024-07-04,ＳＡＫＵ合同会社,,合同会社,東京都,中央区,日本橋箱崎町３０番１号,,13,102,1030015,,,,,,,2024-07-04,1,,,,,サク,0
252,2010005038479,新規,0,2024-07-04,2024-07-04,一般財団法人倭国いろは目安箱研究所,,その他の設立登記法人,東京都,中央区,銀座４丁目５番１号聖書館ビル４０３号,,13,102,1040061,,,,,,,2024-07-04,1,,,,,ワノクニイロハメヤスバコケンキュウジョ,0
253,2010101016223,新規,0,2024-07-04,2024-07-04,株式会社澤田企画,,株式会社,東京都,八王子市,元横山町１丁目１８番５号元横山町マンション６１０号,,13,201,1920063,,,,,,,2024-07-04,1,,,,,サワダキカク,0
256,2010401183556,新規,0,2024-07-04,2024-07-04,株式会社ｅｄｖａｎｃｅＡＩ,,株式会社,東京都,港区,南青山２丁目２番１５号,,13,103,1070062,,,,,,,2024-07-04,1,,,,,エドバンスエーアイ,0
257,2010401183564,新規,0,2024-07-04,2024-07-04,株式会社ＳＰＴ２,,株式会社,東京都,港区,高輪１丁目４番３２号,,13,103,1080074,,,,,,,2024-07-04,1,,,,,エスピーティーツー,0
258,2010401183589,新規,0,2024-07-04,2024-07-04,株式会社ＥｄＴｅｃｈ　ＲＩＳＥ,,株式会社,東京都,港区,港南１丁目８番１５号Ｗビル１３階,,13,103,1080075,,,,,,,2024-07-04,1,,,,,エドテックライズ,0
259,2010401183597,新規,0,2024-07-04,2024-07-04,順能電池株式会社,,株式会社,東京都,港区,新橋１丁目５番６号,,13,103,1050004,,,,,,,2024-07-04,1,,,,,ジュンノウデンチ,0
262,2010501052545,新規,0,2024-07-04,2024-07-04,株式会社ＢＥＬＬ,,株式会社,東京都,台東区,北上野２丁目３２番８号ケンコーハイツ北上野２０１,,13,106,1100014,,,,,,,2024-07-04,1,,,,,ベル,0
263,2010701046207,新規,0,2024-07-04,2024-07-04,ＳＥＬＦ　ＳＵＦＦＩＣＩＥＮＣＹ　ＧＬＯＢＡＬ株式会社,,株式会社,東京都,品川区,上大崎３丁目１番３０－３３０４号,,13,109,1410021,,,,,,,2024-07-04,1,,,,,セルフサフィシェンシーグローバル,0
265,2010903009201,新規,0,2024-07-04,2024-07-04,合同会社ＶＡＮＥＴ,,合同会社,東京都,世田谷区,大蔵１丁目２番１,,13,112,1570074,,,,,,,2024-07-04,1,,,,,ヴァネット,0
270,2011001163155,新規,0,2024-07-04,2024-07-04,株式会社ＢＵＣＨＩ．ＲＥＣＯＲＤＳ,,株式会社,東京都,目黒区,自由が丘２丁目１６番１２号ＲＪ３,,13,110,1520035,,,,,,,2024-07-04,1,,,,,ブチレコーズ,0
271,2011003019504,新規,0,2024-07-04,2024-07-04,リプロデザイン合同会社,,合同会社,東京都,渋谷区,恵比寿西２丁目８番４号ＥＸ恵比寿西ビル５階,,13,113,1500021,,,,,,,2024-07-04,1,,,,,リプロデザイン,0
283,2011801044488,新規,0,2024-07-04,2024-07-04,株式会社星海企画,,株式会社,東京都,足立区,西伊興１丁目１８番２１号,,13,121,1210824,,,,,,,2024-07-04,1,,,,,セイカイキカク,0
290,2012701018326,新規,0,2024-07-04,2024-07-04,昌明投資株式会社,,株式会社,東京都,東村山市,本町３丁目７－６クリーンハイム東村山２０３,,13,213,1890014,,,,,,,2024-07-04,1,,,,,ショウメイトウシ,0
291,2012701018342,新規,0,2024-07-04,2024-07-04,後藤デジタルスタジオ株式会社,,株式会社,東京都,西東京市,谷戸町３丁目２７－２４ひばりが丘プラザＢ１０１,,13,229,1880001,,,,,,,2024-07-04,1,,,,,ゴトウデジタルスタジオ,0
307,2021003014693,新規,0,2024-07-04,2024-07-04,ＲＩＭＡＺＡ商会合同会社,,合同会社,神奈川県,愛甲郡愛川町,三増３４９番地１,,14,401,2430308,,,,,,,2024-07-04,1,,,,,リマザショウカイ,0
312,2030001161225,新規,0,2024-07-04,2024-07-04,株式会社しんあい,,株式会社,埼玉県,北足立郡伊奈町,大字小針新宿７６７番地３,,11,301,3620808,,,,,,,2024-07-04,1,,,,,シンアイ,0
313,2030001161258,新規,0,2024-07-04,2024-07-04,株式会社ＯＫ‐ＨＥＲＯＥＳ,,株式会社,埼玉県,ふじみ野市,福岡５０８番地,,11,245,3560011,,,,,,,2024-07-04,1,,,,,オーケーヒーローズ,0
314,2030001161266,新規,0,2024-07-04,2024-07-04,株式会社アイビックス,,株式会社,埼玉県,さいたま市西区,大字飯田３５４番地１,,11,101,3310058,,,,,,,2024-07-04,1,,,,,アイビックス,0
316,2030003024603,新規,0,2024-07-04,2024-07-04,リプレイフィジオセラピー合同会社,,合同会社,埼玉県,和光市,西大和団地４－５－５０８,,11,229,3510105,,,,,,,2024-07-04,1,,,,,リプレイフィジオセラピー,0
318,2040001134320,新規,0,2024-07-04,2024-07-04,株式会社Ｍａｘｉｍｕｍ　ｅｓｔａｔｅ,,株式会社,千葉県,茂原市,道表８番地１９道表プラザ１０１号,,12,210,2970028,,,,,,,2024-07-04,1,,,,,マキシマムエステート,0
319,2040001134353,新規,0,2024-07-04,2024-07-04,株式会社ニチワ,,株式会社,千葉県,富里市,大和２１１番地２２８,,12,233,2860204,,,,,,,2024-07-04,1,,,,,ニチワ,0
320,2040001134361,新規,0,2024-07-04,2024-07-04,株式会社Ｍｏｎｓｔｅｒａ,,株式会社,千葉県,鎌ケ谷市,西佐津間２丁目１４番１１号,,12,224,2730134,,,,,,,2024-07-04,1,,,,,,0
324,2050001055061,新規,0,2024-07-04,2024-07-04,株式会社ウインドフォール,,株式会社,茨城県,土浦市,桜ケ丘町１３番２,,08,203,3000832,,,,,,,2024-07-04,1,,,,,ウインドフォール,0
326,2050003008505,新規,0,2024-07-04,2024-07-04,合同会社鶴田,,合同会社,茨城県,小美玉市,小岩戸１９６,,08,236,3190107,,,,,,,2024-07-04,1,,,,,ツルタ,0
329,2060001037257,新規,0,2024-07-04,2024-07-04,株式会社ゆめみどり,,株式会社,栃木県,鹿沼市,深津１８８４番地,,09,205,3220013,,,,,,,2024-07-04,1,,,,,ユメミドリ,0
336,2080101024863,新規,0,2024-07-04,2024-07-04,株式会社星崎技術士事務所,,株式会社,静岡県,熱海市,泉１７８番地の７,,22,205,4130001,,,,,,,2024-07-04,1,,,,,ホシザキギジュツシジムショ,0
341,2080103003089,新規,0,2024-07-04,2024-07-04,合同会社クスノキ建築設計事務所,,合同会社,静岡県,熱海市,和田町１４－２６,,22,205,4130024,,,,,,,2024-07-04,1,,,,,クスノキケンチクセッケイジムショ,0
342,2080401027293,新規,0,2024-07-04,2024-07-04,株式会社伊藤土建,,株式会社,静岡県,浜松市中央区,中郡町１６０７番地,,22,138,4313111,,,,,,,2024-07-04,1,,,,,イトウドケン,0
349,2110001038530,新規,0,2024-07-04,2024-07-04,株式会社オートセレクト,,株式会社,新潟県,阿賀野市,北本町１５番９号,,15,223,9592015,,,,,,,2024-07-04,1,,,,,オートセレクト,0
358,2120001266279,新規,0,2024-07-04,2024-07-04,株式会社センバ商事,,株式会社,大阪府,大阪市中央区,南久宝寺町１丁目９番１号ルート船場ビル５０１,,27,128,5410058,,,,,,,2024-07-04,1,,,,,センバショウジ,0
359,2120001266386,新規,0,2024-07-04,2024-07-04,トラストコール株式会社,,株式会社,大阪府,大阪市西区,靱本町１丁目４番１７号ＡＣＮ信濃橋ビル６階,,27,106,5500004,,,,,,,2024-07-04,1,,,,,トラストコール,0
360,2120001266460,新規,0,2024-07-04,2024-07-04,株式会社ｎｏ　ｇｏｏｄ,,株式会社,大阪府,大阪市中央区,南船場４丁目１３番１１号ミフネ南船場ビル４階,,27,128,5420081,,,,,,,2024-07-04,1,,,,,ノーグッド,0
361,2120001266493,新規,0,2024-07-04,2024-07-04,株式会社ＪＯＥＩ,,株式会社,大阪府,大阪市旭区,赤川２丁目２番３３号,,27,117,5350005,,,,,,,2024-07-04,1,,,,,ジョーエイ,0
362,2120001266543,新規,0,2024-07-04,2024-07-04,株式会社古川自動車管理センター,,株式会社,大阪府,大阪市平野区,瓜破西１丁目８番７７－３０７号,,27,126,5470025,,,,,,,2024-07-04,1,,,,,フルカワジドウシャカンリセンター,0
364,2120003026978,新規,0,2024-07-04,2024-07-04,合同会社ＪＳ,,合同会社,大阪府,大阪市西区,九条１丁目１４番１６号,,27,106,5500027,,,,,,,2024-07-04,1,,,,,ジェイエス,0
367,2120005024402,新規,0,2024-07-04,2024-07-04,税理士法人Ｈａｒｖｅｓｔ,,その他の設立登記法人,大阪府,大阪市中央区,内本町１丁目２番８号,,27,128,5400026,,,,,,,2024-07-04,1,,,,,ハーベスト,0
373,2120101069895,新規,0,2024-07-04,2024-07-04,ネクストサービス株式会社,,株式会社,大阪府,和泉市,いぶき野４丁目４番２－１２０７号,,27,219,5940041,,,,,,,2024-07-04,1,,,,,ネクストサービス,0
374,2120101069904,新規,0,2024-07-04,2024-07-04,株式会社石坂,,株式会社,大阪府,羽曳野市,伊賀３丁目１番３号,,27,222,5830876,,,,,,,2024-07-04,1,,,,,イシザカ,0
379,2120901049411,新規,0,2024-07-04,2024-07-04,株式会社ティモーネエステート,,株式会社,大阪府,吹田市,江坂町５丁目１７番１０号,,27,205,5640063,,,,,,,2024-07-04,1,,,,,ティモーネエステート,0
388,2130001077394,新規,0,2024-07-04,2024-07-04,株式会社ｙテック,,株式会社,京都府,京都市伏見区,羽束師古川町１００番２３号,,26,109,6128486,,,,,,,2024-07-04,1,,,,,ワイテック,0
389,2130001077411,新規,0,2024-07-04,2024-07-04,株式会社Ｒ　ＳＴＹＬＥ,,株式会社,京都府,京都市右京区,梅津段町１７番地４プレミール段町４０２,,26,108,6150907,,,,,,,2024-07-04,1,,,,,アールスタイル,0
390,2130003009676,新規,0,2024-07-04,2024-07-04,ＣＡパートナーズ合同会社,,合同会社,京都府,宇治市,木幡大瀬戸３１番地,,26,204,6110002,,,,,,,2024-07-04,1,,,,,シーエーパートナーズ,0
392,2130005017132,新規,0,2024-07-04,2024-07-04,一般社団法人ひろがるエール,,その他の設立登記法人,京都府,京都市上京区,寺町通鞍馬口下る高徳寺町３５５番２１,,26,102,6020801,,,,,,,2024-07-04,1,,,,,ヒロガルエール,0
400,2140001134970,新規,0,2024-07-04,2024-07-04,株式会社ＴＩＬ,,株式会社,兵庫県,神戸市長田区,長田町７丁目１番４号,,28,106,6530812,,,,,,,2024-07-04,1,,,,,ティーアイエル,0
401,2140001134979,新規,0,2024-07-04,2024-07-04,松下水産株式会社,,株式会社,兵庫県,相生市,相生５３８１番地,,28,208,6780041,,,,,,,2024-07-04,1,,,,,マツシタスイサン,0
402,2140001134995,新規,0,2024-07-04,2024-07-04,ＦＵＪＩグローバル人財ＪＡＰＡＮ株式会社,,株式会社,兵庫県,神戸市垂水区,乙木１丁目１０－３－２０１,,28,108,6550882,,,,,,,2024-07-04,1,,,,,フジグローバルジンザイジャパン,0
403,2140001135003,新規,0,2024-07-04,2024-07-04,株式会社奥井書店,,株式会社,兵庫県,洲本市,安乎町古宮７５番地５,,28,205,6562123,,,,,,,2024-07-04,1,,,,,オクイショテン,0
404,2140001135028,新規,0,2024-07-04,2024-07-04,株式会社ＬＡＲＩＭＡＲ,,株式会社,兵庫県,宝塚市,湯本町１－１エグゼ宝塚９０３,00135467,28,214,6650003,,,,,,,2024-07-04,1,,,,,ラリマール,0
405,2140001135036,新規,0,2024-07-04,2024-07-04,株式会社ＳＫファクトリー,,株式会社,兵庫県,尼崎市,食満２丁目２１－１７,,28,202,6610982,,,,,,,2024-07-04,1,,,,,エスケイファクトリー,0
408,2140005027130,新規,0,2024-07-04,2024-07-04,特定非営利活動法人Ｌｏｃａｎｅｅｒ,,その他の設立登記法人,兵庫県,神戸市垂水区,星陵台５丁目８番５号,,28,108,6550038,,,,,,,2024-07-04,1,,,,,,0
409,2140005027139,新規,0,2024-07-04,2024-07-04,弁護士法人竹本・頼富法律事務所,,その他の設立登記法人,兵庫県,神戸市中央区,多聞通２丁目４番４号ブックローン神戸ビル５階,,28,110,6500015,,,,,,,2024-07-04,1,,,,,タケモトヨリトミホウリツジムショ,0
410,2150001027406,新規,0,2024-07-04,2024-07-04,株式会社南都エステート,,株式会社,奈良県,橿原市,新賀町２０１番地２仲川ビル４階Ｃ号室,,29,205,6340006,,,,,,,2024-07-04,1,,,,,ナントエステート,0
412,2160001026043,新規,0,2024-07-04,2024-07-04,株式会社ＴＫＫ大津,,株式会社,滋賀県,大津市,見世１丁目２番３１号,,25,201,5200004,,,,,,,2024-07-04,1,,,,,ティーケーケーオオツ,0
413,2160001026051,新規,0,2024-07-04,2024-07-04,株式会社ゆー空間建築事務所,,株式会社,滋賀県,高島市,今津町今津２０５番地１,,25,212,5201621,,,,,,,2024-07-04,1,,,,,ユークウカンケンチクジムショ,0
415,2160003003222,新規,0,2024-07-04,2024-07-04,合同会社ラキファーム,,合同会社,滋賀県,栗東市,大橋１丁目７番４０号,,25,208,5203046,,,,,,,2024-07-04,1,,,,,ラキファーム,0
421,2170001018205,新規,0,2024-07-04,2024-07-04,株式会社モモタロウ,,株式会社,和歌山県,和歌山市,中島１８５番地１コーポ中島１０３,,30,201,6410006,,,,,,,2024-07-04,1,,,,,モモタロウ,0
422,2170005007088,新規,0,2024-07-04,2024-07-04,特定非営利活動法人和歌山心不全アラート,,その他の設立登記法人,和歌山県,和歌山市,西高松１丁目８番１０号,,30,201,6410051,,,,,,,2024-07-04,1,,,,,ワカヤマシンフゼンアラート,0
441,2220001026086,新規,0,2024-07-04,2024-07-04,株式会社アドフィス,,株式会社,石川県,金沢市,八日市出町７８１番地１,,17,201,9218063,,,,,,,2024-07-04,1,,,,,アドフィス,0
443,2230001020427,新規,0,2024-07-04,2024-07-04,アハメドトレーディング株式会社,,株式会社,富山県,射水市,庄川本町５５番地７,,16,211,9340003,,,,,,,2024-07-04,1,,,,,アハメドトレーディング,0
446,2240001063490,新規,0,2024-07-04,2024-07-04,アロエテイル株式会社,,株式会社,広島県,安芸郡府中町,瀬戸ハイム３丁目１４番２６号,,34,302,7350011,,,,,,,2024-07-04,1,,,,,アロエテイル,0
447,2240001063499,新規,0,2024-07-04,2024-07-04,株式会社ＭＧＫホールディングス,,株式会社,広島県,広島市中区,広瀬町４番１４号,,34,101,7300804,,,,,,,2024-07-04,1,,,,,エムジーケーホールディングス,0
449,2240003006745,新規,0,2024-07-04,2024-07-04,合同会社ＤＰＧ,,合同会社,広島県,広島市佐伯区,利松２丁目９番５,,34,108,7315106,,,,,,,2024-07-04,1,,,,,ディーピージー,0
451,2250001020714,新規,0,2024-07-04,2024-07-04,株式会社ミムラ,,株式会社,山口県,下関市,伊倉町２丁目５番２８号,,35,201,7510864,,,,,,,2024-07-04,1,,,,,ミムラ,0
452,2250001020722,新規,0,2024-07-04,2024-07-04,株式会社ユキ地物,,株式会社,山口県,岩国市,山手町２丁目６番１１号,,35,208,7400022,,,,,,,2024-07-04,1,,,,,ユキチブツ,0
453,2260001039233,新規,0,2024-07-04,2024-07-04,株式会社ユウシン,,株式会社,岡山県,総社市,西郡１４６４－３,,33,208,7191164,,,,,,,2024-07-04,1,,,,,ユウシン,0
461,2290001106360,新規,0,2024-07-04,2024-07-04,株式会社ＴＡＫＳＹＮＣ,,株式会社,福岡県,福岡市中央区,天神４丁目６番２８号天神ファーストビル７階,,40,133,8100001,,,,,,,2024-07-04,1,,,,,タックシンク,0
465,2300001013828,新規,0,2024-07-04,2024-07-04,株式会社ＹｕｍｅＧａｋｕ,,株式会社,佐賀県,鳥栖市,蔵上町６１９番地１,,41,203,8410054,,,,,,,2024-07-04,1,,,,,ユメガク,0
467,2310005008781,新規,0,2024-07-04,2024-07-04,司法書士法人くらしな事務所,,その他の設立登記法人,長崎県,東彼杵郡波佐見町,宿郷６３１番地２,,42,323,8593715,,,,,,,2024-07-04,1,,,,,クラシナジムショ,0
468,2320001020574,新規,0,2024-07-04,2024-07-04,株式会社ＳＩＧ日田,,株式会社,大分県,日田市,大字竹田３９８番地１,,44,204,8770000,,,,,,,2024-07-04,1,,,,,エスアイジーヒタ,0
470,2330001032214,新規,0,2024-07-04,2024-07-04,株式会社エンターテイン,,株式会社,熊本県,合志市,幾久富１７７６番地６,,43,216,8611112,,,,,,,2024-07-04,1,,,,,エンターテイン,0
476,2350001019044,新規,0,2024-07-04,2024-07-04,株式会社時任工務店,,株式会社,宮崎県,宮崎市,大字浮田２２０９番地２,,45,201,8802104,,,,,,,2024-07-04,1,,,,,トキトウコウムテン,0
484,2370001051474,新規,0,2024-07-04,2024-07-04,株式会社アークス,,株式会社,宮城県,大崎市,古川穂波４丁目４番１１号フラット穂波１０１号,,04,215,9896136,,,,,,,2024-07-04,1,,,,,アークス,0
494,2390001017671,新規,0,2024-07-04,2024-07-04,株式会社かなで,,株式会社,山形県,山形市,深町２丁目４番３６号,,06,201,9902462,,,,,,,2024-07-04,1,,,,,カナデ,0
496,2410001013866,新規,0,2024-07-04,2024-07-04,ｙａｍａ設計技術株式会社,,株式会社,秋田県,秋田市,新屋日吉町３１番２５号,,05,201,0101622,,,,,,,2024-07-04,1,,,,,ヤマセッケイギジュツ,0
504,2430001092149,新規,0,2024-07-04,2024-07-04,株式会社ホクインコネクト,,株式会社,北海道,札幌市中央区,南十七条西１２丁目２番３８－４０２号,,01,101,0640917,,,,,,,2024-07-04,1,,,,,ホクインコネクト,0
505,2430001092173,新規,0,2024-07-04,2024-07-04,株式会社勝木組,,株式会社,北海道,札幌市豊平区,西岡四条４丁目１番３５号,,01,105,0620034,,,,,,,2024-07-04,1,,,,,カツキグミ,0
510,2480003002159,新規,0,2024-07-04,2024-07-04,合同会社ｏｆ,,合同会社,徳島県,徳島市,多家良町中筋１８１番地２,,36,201,7714264,,,,,,,2024-07-04,1,,,,,オフ,0
512,2490001010807,新規,0,2024-07-04,2024-07-04,株式会社ＭＡＲＵＳＨＯＵ,,株式会社,高知県,安芸郡芸西村,馬ノ上９２５番地１,,39,307,7815705,,,,,,,2024-07-04,1,,,,,マルショウ,0
513,2490003001903,新規,0,2024-07-04,2024-07-04,合同会社幸運のしっぽ,,合同会社,高知県,高知市,仁井田３５０３番地７,,39,201,7810112,,,,,,,2024-07-04,1,,,,,コウウンノシッポ,0
514,2500001025729,新規,0,2024-07-04,2024-07-04,株式会社ＴＣＳ松山,,株式会社,愛媛県,松山市,西垣生町１１８４番地６,,38,201,7918044,,,,,,,2024-07-04,1,,,,,ティーシーエスマツヤマ,0
523,3010001245813,新規,0,2024-07-04,2024-07-04,大和川株式会社,,株式会社,東京都,中央区,入船２丁目３番７号築地エー・アイ・ユービルアルファ未来オフィス５Ｆ－Ｂ,,13,102,1040042,,,,,,,2024-07-04,1,,,,,ヤマトガワ,0
524,3010001246217,新規,0,2024-07-04,2024-07-04,株式会社Ｘｂｅｅ,,株式会社,東京都,中央区,銀座１丁目２２番１１号銀座大竹ビジデンス２Ｆ,,13,102,1040061,,,,,,,2024-07-04,1,,,,,クロスビー,0
525,3010001246282,新規,0,2024-07-04,2024-07-04,株式会社渡邉交換所,,株式会社,東京都,中央区,京橋２丁目７番８号,,13,102,1040031,,,,,,,2024-07-04,1,,,,,ワタナベコウカンジョ,0
528,3010003044214,新規,0,2024-07-04,2024-07-04,エイアンドエスキャピタルマネジメント合同会社,,合同会社,東京都,中央区,銀座１丁目１２－４Ｎ＆ＥＢＬＤ．７階,,13,102,1040061,,,,,,,2024-07-04,1,,,,,エイアンドエスキャピタルマネジメント,0
529,3010003044230,新規,0,2024-07-04,2024-07-04,シルバー３合同会社,,合同会社,東京都,千代田区,麹町５丁目１番地ＮＫ真和ビル９階,,13,101,1020083,,,,,,,2024-07-04,1,,,,,シルバースリー,0
532,3010401183547,新規,0,2024-07-04,2024-07-04,株式会社ＪＧＭプロパティーズ,,株式会社,東京都,港区,南青山３丁目１番３６号青山丸竹ビル６階,,13,103,1070062,,,,,,,2024-07-04,1,,,,,ジェージーエムプロパティーズ,0
540,3010501052552,新規,0,2024-07-04,2024-07-04,株式会社ＦＫＤアグロテック,,株式会社,東京都,台東区,東上野６丁目２３番５号第二雨宮ビル８０１号室,,13,106,1100015,,,,,,,2024-07-04,1,,,,,エフケーディーアグロテック,0
542,3010601065479,新規,0,2024-07-04,2024-07-04,株式会社ｍａｓａｔａｋａｙａ,,株式会社,東京都,江東区,東雲１丁目１０番１４－８２５号,,13,108,1350062,,,,,,,2024-07-04,1,,,,,マサタカヤ,0
545,3010701046214,新規,0,2024-07-04,2024-07-04,セントラルスパ株式会社,,株式会社,東京都,品川区,東五反田５丁目２７番５号,,13,109,1410022,,,,,,,2024-07-04,1,,,,,セントラルスパ,0
546,3010701046239,新規,0,2024-07-04,2024-07-04,ｓａｋｕｓａｋｕ株式会社,,株式会社,東京都,品川区,荏原１丁目１３番１号アズ荏原ビル３０１号室,,13,109,1420063,,,,,,,2024-07-04,1,,,,,サクサク,0
547,3010703007239,新規,0,2024-07-04,2024-07-04,合同会社堀コーポレーション,,合同会社,東京都,品川区,荏原４丁目１２番６号,,13,109,1420063,,,,,,,2024-07-04,1,,,,,ホリコーポレーション,0
548,3010703007247,新規,0,2024-07-04,2024-07-04,合同会社ガジョフ,,合同会社,東京都,品川区,東品川２丁目２―２５サンウッド品川天王洲タワー,,13,109,1400002,,,,,,,2024-07-04,1,,,,,ガジョフ,0
555,3011001163146,新規,0,2024-07-04,2024-07-04,株式会社Ｊ．Ａ．Ｙ,,株式会社,東京都,渋谷区,東３丁目２５番３－２０２号,,13,113,1500011,,,,,,,2024-07-04,1,,,,,ジェーエーワイ,0
556,3011001163220,新規,0,2024-07-04,2024-07-04,株式会社ＡＳＫ,,株式会社,東京都,渋谷区,神宮前１丁目１２番６号ドヒビル１Ｆ,,13,113,1500001,,,,,,,2024-07-04,1,,,,,エーエスケー,0
563,3011501030878,新規,0,2024-07-04,2024-07-04,株式会社Ｔｈｅ　Ｌｉｇｈｔ,,株式会社,東京都,北区,豊島８丁目８番８号,,13,117,1140003,,,,,,,2024-07-04,1,,,,,ザライト,0
564,3011701027435,新規,0,2024-07-04,2024-07-04,永彙商事株式会社,,株式会社,東京都,江戸川区,江戸川６丁目４０番１４－１０７号室,,13,123,1340013,,,,,,,2024-07-04,1,,,,,ナガイショウジ,0
566,3011801044479,新規,0,2024-07-04,2024-07-04,株式会社ｔｅ．ｌｉｎｋ,,株式会社,東京都,葛飾区,堀切５丁目２４番２号,,13,122,1240006,,,,,,,2024-07-04,1,,,,,ティーイーリンク,0
567,3011801044487,新規,0,2024-07-04,2024-07-04,キルリア株式会社,,株式会社,東京都,葛飾区,亀有３丁目２９番１号,,13,122,1250061,,,,,,,2024-07-04,1,,,,,キルリア,0
577,3012401042039,新規,0,2024-07-04,2024-07-04,株式会社ＦＬＡＶＡ,,株式会社,東京都,武蔵野市,吉祥寺本町３丁目２番３号,,13,203,1800004,,,,,,,2024-07-04,1,,,,,フレイバ,0
578,3012401042055,新規,0,2024-07-04,2024-07-04,株式会社ナインフリー,,株式会社,東京都,狛江市,岩戸南１丁目１番１―１０７号,,13,219,2010005,,,,,,,2024-07-04,1,,,,,ナインフリー,0
586,3013301052755,新規,0,2024-07-04,2024-07-04,株式会社クオーレコミット,,株式会社,東京都,豊島区,南大塚１丁目６０番２０号,,13,116,1700005,,,,,,,2024-07-04,1,,,,,クオーレコミット,0
590,3020003026434,新規,0,2024-07-04,2024-07-04,合同会社日和,,合同会社,神奈川県,川崎市高津区,梶ケ谷２丁目７番地１７Ｂ２０３,,14,134,2130015,,,,,,,2024-07-04,1,,,,,ヒヨリ,0
598,3040001134303,新規,0,2024-07-04,2024-07-04,株式会社佐久間機工,,株式会社,千葉県,市原市,姉崎２５２１番地４,,12,219,2990111,,,,,,,2024-07-04,1,,,,,サクマキコウ,0
599,3040001134435,新規,0,2024-07-04,2024-07-04,セイゴーサン株式会社,,株式会社,千葉県,船橋市,市場４丁目１２―１１―３,,12,204,2730001,,,,,,,2024-07-04,1,,,,,セイゴーサン,0
604,3050001055036,新規,0,2024-07-04,2024-07-04,株式会社ヒラカワアグリサービス,,株式会社,茨城県,稲敷市,浮島５６７８番地１５,,08,229,3000641,,,,,,,2024-07-04,1,,,,,ヒラカワアグリサービス,0
605,3050003008487,新規,0,2024-07-04,2024-07-04,みらい坂ファーム合同会社,,合同会社,茨城県,つくばみらい市,上島９８８番地２,,08,235,3002326,,,,,,,2024-07-04,1,,,,,ミライサカファーム,0
606,3050003008504,新規,0,2024-07-04,2024-07-04,総合メンテ合同会社,,合同会社,茨城県,水戸市,城南２丁目１４番３１－１０１号,,08,201,3100803,,,,,,,2024-07-04,1,,,,,ソウゴウメンテ,0
619,3070005010299,新規,0,2024-07-04,2024-07-04,一般社団法人日本ファシアトレーニング研究会,,その他の設立登記法人,群馬県,高崎市,中尾町６６４番地２０,,10,202,3700001,,,,,,,2024-07-04,1,,,,,ニホンファシアトレーニングケンキュウカイ,0
623,3080101024862,新規,0,2024-07-04,2024-07-04,株式会社栄,,株式会社,静岡県,駿東郡長泉町,下長窪９３５番地の１０４,,22,342,4110934,,,,,,,2024-07-04,1,,,,,サカエ,0
628,3100001037607,新規,0,2024-07-04,2024-07-04,株式会社ＯＶＩＵＭ,,株式会社,長野県,松本市,大字島内８１３５－１,,20,202,3900851,,,,,,,2024-07-04,1,,,,,オビウム,0
629,3100005013190,新規,0,2024-07-04,2024-07-04,一般社団法人マルジョウ,,その他の設立登記法人,長野県,上田市,緑が丘１丁目６番８号,,20,203,3860022,,,,,,,2024-07-04,1,,,,,マルジョウ,0
630,3110001038546,新規,0,2024-07-04,2024-07-04,幸田株式会社,,株式会社,新潟県,燕市,吉田法花堂１４８１番地,,15,213,9590214,,,,,,,2024-07-04,1,,,,,コウダ,0
646,3120001266121,新規,0,2024-07-04,2024-07-04,ＦＦＣ株式会社,,株式会社,大阪府,大阪市住之江区,西住之江３丁目１番２号４０１室,,27,125,5590005,,,,,,,2024-07-04,1,,,,,エフエフシー,0
647,3120001266402,新規,0,2024-07-04,2024-07-04,ＮＯＲＩＳＨＩＯ株式会社,,株式会社,大阪府,大阪市中央区,材木町３－１８ＫＡＩＳＥＩ本町東２０１,,27,128,5400010,,,,,,,2024-07-04,1,,,,,ノリシオ,0
648,3120001266468,新規,0,2024-07-04,2024-07-04,株式会社日本製炭,,株式会社,大阪府,大阪市北区,天神橋８丁目９番３号,,27,127,5310041,,,,,,,2024-07-04,1,,,,,ニホンセイタン,0
649,3120001266542,新規,0,2024-07-04,2024-07-04,株式会社嵐湯,,株式会社,大阪府,大阪市西区,立売堀１丁目１４番２２号シャルマンフジリッツ本町２０２,,27,106,5500012,,,,,,,2024-07-04,1,,,,,アラシユ,0
650,3120001266550,新規,0,2024-07-04,2024-07-04,猫不動産株式会社,,株式会社,大阪府,大阪市西淀川区,野里２丁目１８－１２,,27,113,5550024,,,,,,,2024-07-04,1,,,,,ネコフドウサン,0
653,3120003026977,新規,0,2024-07-04,2024-07-04,Ａｎｔｉｐａｓｔｏ合同会社,,合同会社,大阪府,大阪市住吉区,南住吉３丁目１０番１２号,,27,120,5580041,,,,,,,2024-07-04,1,,,,,アンティパスト,0
659,3120101069886,新規,0,2024-07-04,2024-07-04,株式会社ＢｒｉｇｈｔＨｏｕｓｅ,,株式会社,大阪府,堺市北区,中長尾町４丁５番１０号,,27,146,5918044,,,,,,,2024-07-04,1,,,,,ブライトハウス,0
660,3120101069936,新規,0,2024-07-04,2024-07-04,ＭＯＤｓ　Ｔｅｃｈｎｏ株式会社,,株式会社,大阪府,堺市北区,百舌鳥陵南町１丁１８０,,27,146,5918034,,,,,,,2024-07-04,1,,,,,モッズテクノ,0
661,3120103005922,新規,0,2024-07-04,2024-07-04,ほのぼのくらぶ合同会社,,合同会社,大阪府,富田林市,大字佐備７３９番地,,27,214,5840052,,,,,,,2024-07-04,1,,,,,ホノボノクラブ,0
663,3122001038236,新規,0,2024-07-04,2024-07-04,株式会社ＪｏｙＳｅｌｌ,,株式会社,大阪府,大東市,赤井１丁目１５番５号,,27,218,5740046,,,,,,,2024-07-04,1,,,,,ジョイセル,0
667,3130001077435,新規,0,2024-07-04,2024-07-04,光貴株式会社,,株式会社,京都府,京都市東山区,祇園町南側５７０番地１２５,,26,105,6050074,,,,,,,2024-07-04,1,,,,,コーキ,0
672,3140001134986,新規,0,2024-07-04,2024-07-04,株式会社ＡＫｉＴＡ,,株式会社,兵庫県,加古川市,上荘町国包６１１番地の１,,28,210,6751213,,,,,,,2024-07-04,1,,,,,アキタ,0
673,3140001134994,新規,0,2024-07-04,2024-07-04,株式会社ＬＡＵＮＡ,,株式会社,兵庫県,西宮市,深津町３番２５号深津橋本ビル１０３,,28,204,6638203,,,,,,,2024-07-04,1,,,,,ラウナ,0
674,3140001135035,新規,0,2024-07-04,2024-07-04,株式会社ｋｉｔｉ,,株式会社,兵庫県,明石市,本町１丁目２－３３興生ビル４Ｆ,,28,203,6730892,,,,,,,2024-07-04,1,,,,,キチ,0
676,3150001027405,新規,0,2024-07-04,2024-07-04,株式会社チエノワ,,株式会社,奈良県,北葛城郡王寺町,本町５丁目５番４７号,,29,425,6360012,,,,,,,2024-07-04,1,,,,,チエノワ,0
677,3160001026042,新規,0,2024-07-04,2024-07-04,株式会社トライケア,,株式会社,滋賀県,湖南市,水戸町４番地５,,25,211,5203215,,,,,,,2024-07-04,1,,,,,トライケア,0
678,3160001026050,新規,0,2024-07-04,2024-07-04,ＭＲＭ株式会社,,株式会社,滋賀県,東近江市,林町２９８番地,,25,213,5211224,,,,,,,2024-07-04,1,,,,,エムアールエム,0
683,3170001018204,新規,0,2024-07-04,2024-07-04,株式会社熊野のきつね,,株式会社,和歌山県,田辺市,本宮町請川４２２番地の１,,30,206,6471703,,,,,,,2024-07-04,1,,,,,クマノノキツネ,0
689,3180001162182,新規,0,2024-07-04,2024-07-04,株式会社ＢＤＳ　ＪＡＰＡＮ,,株式会社,愛知県,名古屋市西区,天塚町４丁目６９番地の２グランドメゾン城北Ｎ棟１００２号,,23,104,4510021,,,,,,,2024-07-04,1,,,,,ビーディーエスジャパン,0
690,3180001162190,新規,0,2024-07-04,2024-07-04,東馳株式会社,,株式会社,愛知県,名古屋市東区,白壁３丁目３番３０号ラ・モヴェール白壁鈴木５０２号室,,23,102,4610011,,,,,,,2024-07-04,1,,,,,トウチ,0
691,3180001162240,新規,0,2024-07-04,2024-07-04,ファーストパネル株式会社,,株式会社,愛知県,海部郡蟹江町,宝１丁目４２２番地,,23,425,4970030,,,,,,,2024-07-04,1,,,,,ファーストパネル,0
692,3180001162281,新規,0,2024-07-04,2024-07-04,株式会社青山組,,株式会社,愛知県,名古屋市中川区,戸田４丁目８１３番地の１,,23,110,4540962,,,,,,,2024-07-04,1,,,,,アオヤマグミ,0
701,3240001063473,新規,0,2024-07-04,2024-07-04,ＹＭ不動産株式会社,,株式会社,広島県,廿日市市,駅前１０番９－１０号,,34,213,7380011,,,,,,,2024-07-04,1,,,,,ワイエムフドウサン,0
702,3240001063498,新規,0,2024-07-04,2024-07-04,株式会社ダンパケ,,株式会社,広島県,広島市佐伯区,湯来町大字伏谷２１番地２６７,,34,108,7380513,,,,,,,2024-07-04,1,,,,,ダンパケ,0
704,3240003006744,新規,0,2024-07-04,2024-07-04,合同会社ＭＴＢ,,合同会社,広島県,福山市,東陽台２丁目１５番１３号,,34,207,7210912,,,,,,,2024-07-04,1,,,,,エムティービー,0
707,3260001039224,新規,0,2024-07-04,2024-07-04,株式会社ＷＴＳ,,株式会社,岡山県,和気郡和気町,日笠上１２１７番地１,,33,346,7090402,,,,,,,2024-07-04,1,,,,,ダブルティーエス,0
712,3270005005601,新規,0,2024-07-04,2024-07-04,一般社団法人山陰わくわくストリートダンス協会,,その他の設立登記法人,鳥取県,西伯郡日吉津村,大字日吉津７３１番地の１,,31,384,6893553,,,,,,,2024-07-04,1,,,,,サンインワクワクストリートダンスキョウカイ,0
716,3290001106392,新規,0,2024-07-04,2024-07-04,株式会社ＳＥＡＫ　ＷＯＲＫＳ,,株式会社,福岡県,福岡市中央区,草香江２丁目１３番２０－５０１号,,40,133,8100045,,,,,,,2024-07-04,1,,,,,シークワークス,0
717,3290001106401,新規,0,2024-07-04,2024-07-04,株式会社ＣＲ７,,株式会社,福岡県,久留米市,東町３２番１１号ニュートミタヤビル４０２,,40,203,8300032,,,,,,,2024-07-04,1,,,,,シーアールセブン,0
718,3290003015526,新規,0,2024-07-04,2024-07-04,合同会社サンブレイズ技工,,合同会社,福岡県,春日市,昇町３丁目２３５番地松尾コーポ１０３号,,40,218,8160851,,,,,,,2024-07-04,1,,,,,サンブレイズギコウ,0
724,3310005008780,新規,0,2024-07-04,2024-07-04,道の駅昆虫の里たびら事業協同組合,,その他の設立登記法人,長崎県,平戸市,田平町深月免５２１番地３,,42,207,8594813,,,,,,,2024-07-04,1,,,,,ミチノエキコンチュウノサトタビラ,0
726,3320001020573,新規,0,2024-07-04,2024-07-04,株式会社みか不動産,,株式会社,大分県,大分市,大字南９４番地,,44,201,8700117,,,,,,,2024-07-04,1,,,,,ミカフドウサン,0
728,3330001032213,新規,0,2024-07-04,2024-07-04,株式会社グローバルガレージ,,株式会社,熊本県,山鹿市,津留２５０２番地２,,43,208,8610551,,,,,,,2024-07-04,1,,,,,グローバルガレージ,0
729,3330001032221,新規,0,2024-07-04,2024-07-04,株式会社ＧＬＯＢＡＬ　ＢＲＡＩＮ,,株式会社,熊本県,阿蘇市,黒流町４２５番地,,43,214,8692316,,,,,,,2024-07-04,1,,,,,グローバルブレイン,0
732,3340001026610,新規,0,2024-07-04,2024-07-04,株式会社植九,,株式会社,鹿児島県,鹿児島市,山田町２２７４番地９,,46,201,8910104,,,,,,,2024-07-04,1,,,,,ウエキュウ,0
733,3340003004531,新規,0,2024-07-04,2024-07-04,合同会社Ｋ’ｓＰｒｏｊｅｃｔ,,合同会社,鹿児島県,鹿児島市,下福元町９０５８番地,,46,201,8910144,,,,,,,2024-07-04,1,,,,,ケイズプロジェクト,0
734,3350001019043,新規,0,2024-07-04,2024-07-04,株式会社靖メンテナンス,,株式会社,宮崎県,宮崎市,昭和町３７,,45,201,8800874,,,,,,,2024-07-04,1,,,,,ヤスメンテナンス,0
735,3350001019051,新規,0,2024-07-04,2024-07-04,株式会社サザンカアグリ,,株式会社,宮崎県,宮崎市,田野町乙４３９９番地２,,45,201,8891702,,,,,,,2024-07-04,1,,,,,サザンカアグリ,0
738,3360001033902,新規,0,2024-07-04,2024-07-04,株式会社ｅｎｉｓｈｉ,,株式会社,沖縄県,うるま市,字昆布１０９９番地１,,47,213,9042201,,,,,,,2024-07-04,1,,,,,エニシ,0
741,3390001017670,新規,0,2024-07-04,2024-07-04,株式会社つどい,,株式会社,山形県,山形市,大字漆山１８４１番地９,,06,201,9902161,,,,,,,2024-07-04,1,,,,,ツドイ,0
742,3400001016712,新規,0,2024-07-04,2024-07-04,株式会社苅谷建築,,株式会社,岩手県,九戸郡軽米町,大字高家第４地割５３番地１８,,03,501,0286303,,,,,,,2024-07-04,1,,,,,カリヤケンチク,0
749,3420003002948,新規,0,2024-07-04,2024-07-04,合同会社ほくうた,,合同会社,青森県,八戸市,大字中居林字雷１４番地１季風館Ｄ,,02,203,0310002,,,,,,,2024-07-04,1,,,,,ホクウタ,0
750,3430001092206,新規,0,2024-07-04,2024-07-04,ＢＤＳ株式会社,,株式会社,北海道,札幌市手稲区,稲穂四条４丁目３番６号,,01,109,0060034,,,,,,,2024-07-04,1,,,,,ビーディーエス,0
755,3430003016518,新規,0,2024-07-04,2024-07-04,合同会社ＶＡＬＯＲＡＤＯ,,合同会社,北海道,札幌市中央区,南八条西１４丁目１－１　５０６,,01,101,0640808,,,,,,,2024-07-04,1,,,,,ヴァロラード,0
762,3490001010806,新規,0,2024-07-04,2024-07-04,株式会社岡不動産,,株式会社,高知県,高知市,比島町４丁目１１番１号,,39,201,7800066,,,,,,,2024-07-04,1,,,,,オカフドウサン,0
763,3490003001902,新規,0,2024-07-04,2024-07-04,合同会社４４０,,合同会社,高知県,高知市,仁井田３５０３番地７,,39,201,7810112,,,,,,,2024-07-04,1,,,,,ヨンヨンマル,0
765,3700150126372,新規,0,2024-07-04,2024-07-04,Ｏｔｔｏｃａｓｔ　Ｃｏｒｐｏｒａｔｉｏｎ　Ｌｉｍｉｔｅｄ,,外国会社等,,,,,,,,ＲＯＯＭ　１００２，１０／Ｆ，ＥＡＳＥＹ　ＣＯＭＭＥＲＣＩＡＬ　ＢＵＩＬＤＩＮＧ，２５３－２６１　ＨＥＮＮＥＳＳＹ　ＲＯＡＤ，ＷＡＮ　ＣＨＡＩ，Ｈｏｎｇ　Ｋｏｎｇ,,,,,,2024-07-04,1,,,,,オットキャストコーポレイションリミティッド,0
775,4010001245688,新規,0,2024-07-04,2024-07-04,株式会社Ｐ．Ｊａｂｏｕｌｅｔ,,株式会社,東京都,中央区,月島３丁目１０番１０号,,13,102,1040052,,,,,,,2024-07-04,1,,,,,ピージャブレ,0
776,4010001245812,新規,0,2024-07-04,2024-07-04,富士川株式会社,,株式会社,東京都,中央区,入船２丁目３番７号築地エー・アイ・ユービルアルファ未来オフィス５Ｆ－Ａ,,13,102,1040042,,,,,,,2024-07-04,1,,,,,フジガワ,0
777,4010001246174,新規,0,2024-07-04,2024-07-04,株式会社ステラコンパス,,株式会社,東京都,中央区,銀座１丁目１２番４号６Ｆ,,13,102,1040061,,,,,,,2024-07-04,1,,,,,ステラコンパス,0
778,4010001246208,新規,0,2024-07-04,2024-07-04,ワンヘルス投資株式会社,,株式会社,東京都,中央区,入船２丁目３番７号ＴＳＵＫＩＪＩＥＡＳＴＳＱＵＡＲＥ６階,,13,102,1040042,,,,,,,2024-07-04,1,,,,,ワンヘルストウシ,0
779,4010001246240,新規,0,2024-07-04,2024-07-04,パートナーズダイレクトマーケティング株式会社,,株式会社,東京都,中央区,日本橋茅場町２丁目１２番１０号ＰＭＯＥＸ日本橋茅場町３階,,13,102,1030025,,,,,,,2024-07-04,1,,,,,パートナーズダイレクトマーケティング,0
780,4010001246249,新規,0,2024-07-04,2024-07-04,アルウッドリーリーシング株式会社,,株式会社,東京都,千代田区,丸の内１丁目３番２号,,13,101,1000005,,,,,,,2024-07-04,1,,,,,アルウッドリーリーシング,0
781,4010001246257,新規,0,2024-07-04,2024-07-04,丸一株式会社,,株式会社,東京都,千代田区,神田和泉町１番地６の１６ヤマトビル４０５,,13,101,1010024,,,,,,,2024-07-04,1,,,,,マルイチ,0
782,4010003044213,新規,0,2024-07-04,2024-07-04,ルリエイト合同会社,,合同会社,東京都,千代田区,神田和泉町１番地６－１６ヤマトビル４０５,,13,101,1010024,,,,,,,2024-07-04,1,,,,,ルリエイト,0
791,4010401183570,新規,0,2024-07-04,2024-07-04,株式会社瑠佳,,株式会社,東京都,港区,西麻布１丁目４番１５号西麻布ＢＬＥＳＳ４１０号,,13,103,1060031,,,,,,,2024-07-04,1,,,,,ルカ,0
792,4010401183637,新規,0,2024-07-04,2024-07-04,株式会社ギルディ,,株式会社,東京都,港区,浜松町２丁目２番１５号浜松町ダイヤビル２Ｆ,,13,103,1050013,,,,,,,2024-07-04,1,,,,,ギルディ,0
794,4010403032940,新規,0,2024-07-04,2024-07-04,合同会社ＶＡＬＴＡＴ　ＤＥＳＩＧＮ　ＷＯＲＫＳ,,合同会社,東京都,港区,北青山１丁目３番１号アールキューブ青山３階,,13,103,1070061,,,,,,,2024-07-04,1,,,,,ヴァルタットデザインワークス,0
798,4010605004341,新規,0,2024-07-04,2024-07-04,ＴＫプラス税理士法人,,その他の設立登記法人,東京都,江東区,三好３丁目１０－３,,13,108,1350022,,,,,,,2024-07-04,1,,,,,ティーケープラス,0
804,4010901055559,新規,0,2024-07-04,2024-07-04,株式会社佐衛之門フィルム,,株式会社,東京都,世田谷区,中町４丁目２４－１２,,13,112,1580091,,,,,,,2024-07-04,1,,,,,サエモンフィルム,0
805,4010901055567,新規,0,2024-07-04,2024-07-04,ジャパンヘルスフード株式会社,,株式会社,東京都,世田谷区,桜２丁目１０番３９号,,13,112,1560053,,,,,,,2024-07-04,1,,,,,ジャパンヘルスフード,0
806,4010901055575,新規,0,2024-07-04,2024-07-04,株式会社Ｆｌｙｉｎｇ　Ｆｏｒｅｖｅｒ,,株式会社,東京都,世田谷区,瀬田５丁目３４番２４号,,13,112,1580095,,,,,,,2024-07-04,1,,,,,フライングフォーエバー,0
809,4010903009190,新規,0,2024-07-04,2024-07-04,合同会社およぐひと,,合同会社,東京都,世田谷区,南烏山２丁目２－３,,13,112,1570062,,,,,,,2024-07-04,1,,,,,オヨグヒト,0
813,4011001163129,新規,0,2024-07-04,2024-07-04,株式会社Ｃｕｒｉａ,,株式会社,東京都,渋谷区,神宮前４丁目２番１２号,,13,113,1500001,,,,,,,2024-07-04,1,,,,,キュリア,0
814,4011001163145,新規,0,2024-07-04,2024-07-04,株式会社ＷＡＬＫ　ＴＯＧＥＴＨＥＲ,,株式会社,東京都,目黒区,緑が丘２丁目４番１号,,13,110,1520034,,,,,,,2024-07-04,1,,,,,ウォークトゥギャザー,0
815,4011001163161,新規,0,2024-07-04,2024-07-04,Ｅｘｃｉｔｅｒ株式会社,,株式会社,東京都,渋谷区,幡ヶ谷３丁目３８番１８号,,13,113,1510072,,,,,,,2024-07-04,1,,,,,エキサイター,0
819,4011003019535,新規,0,2024-07-04,2024-07-04,合同会社ＳｈｏｋｕｍＳ,,合同会社,東京都,目黒区,碑文谷３丁目３番１９－１０５号パークホームズ碑文谷ロジュマン,,13,110,1520003,,,,,,,2024-07-04,1,,,,,ショクムス,0
824,4011101107902,新規,0,2024-07-04,2024-07-04,株式会社Ｊ＆Ａ,,株式会社,東京都,新宿区,高田馬場１丁目９番２号,,13,104,1690075,,,,,,,2024-07-04,1,,,,,ジェイアンドエー,0
825,4011101107919,新規,0,2024-07-04,2024-07-04,株式会社Ｕｔｉｐ,,株式会社,東京都,新宿区,西新宿３丁目３番１３号西新宿水間ビル６階,,13,104,1600023,,,,,,,2024-07-04,1,,,,,ユーチップ,0
826,4011101107984,新規,0,2024-07-04,2024-07-04,株式会社先進テックコンサルティング,,株式会社,東京都,新宿区,西新宿３丁目３番１３号西新宿水間ビル２Ｆ,,13,104,1600023,,,,,,,2024-07-04,1,,,,,センシンテックコンサルティング,0
830,4011201025608,新規,0,2024-07-04,2024-07-04,株式会社ＫＳ　Ｃｏｍｐａｎｙ,,株式会社,東京都,中野区,中野１丁目１６番１０－２０２号,,13,114,1640001,,,,,,,2024-07-04,1,,,,,ケーエスカンパニー,0
831,4011203004436,新規,0,2024-07-04,2024-07-04,合同会社ユアセルフ,,合同会社,東京都,中野区,沼袋１丁目２０番４号,,13,114,1650025,,,,,,,2024-07-04,1,,,,,ユアセルフ,0
834,4011501030877,新規,0,2024-07-04,2024-07-04,株式会社Ｍｏｒｎｉｎｇ　Ｇｌｏｗ　Ｊａｐａｎ,,株式会社,東京都,北区,赤羽２丁目４９番６号丸久５ビル６階,,13,117,1150045,,,,,,,2024-07-04,1,,,,,モーニンググロージャパン,0
842,4012301013980,新規,0,2024-07-04,2024-07-04,株式会社ＲＡＹＴＥＫ,,株式会社,東京都,町田市,中町１丁目４番２号２階４号室,,13,209,1940021,,,,,,,2024-07-04,1,,,,,レイテック,0
843,4012303002016,新規,0,2024-07-04,2024-07-04,ＥＮ合同会社,,合同会社,東京都,町田市,つくし野４丁目２９番地３５,,13,209,1940001,,,,,,,2024-07-04,1,,,,,エン,0
847,4012703003035,新規,0,2024-07-04,2024-07-04,合同会社ＹＵＫＩＴＡＳ,,合同会社,東京都,東久留米市,本町３丁目１４－３,,13,222,2030053,,,,,,,2024-07-04,1,,,,,ユキタス,0
849,4013103001356,新規,0,2024-07-04,2024-07-04,合同会社Ｕｌｕ,,合同会社,東京都,福生市,大字熊川９５番地熊川住宅１１６,,13,218,1970003,,,,,,,2024-07-04,1,,,,,,0
851,4013301052754,新規,0,2024-07-04,2024-07-04,株式会社Ｈａｎｄ　Ｏｖｅｒ,,株式会社,東京都,豊島区,東池袋４丁目３６番６号３０３,,13,116,1700013,,,,,,,2024-07-04,1,,,,,ハンドオーバー,0
872,4021003014709,新規,0,2024-07-04,2024-07-04,合同会社タカトー,,合同会社,神奈川県,藤沢市,葛原２４７２番地,,14,205,2520822,,,,,,,2024-07-04,1,,,,,タカトー,0
879,4030003024642,新規,0,2024-07-04,2024-07-04,ＭＹ　ＳＰＩＲＩＴ合同会社,,合同会社,埼玉県,入間郡毛呂山町,大字葛貫６９４番地１,,11,326,3500445,,,,,,,2024-07-04,1,,,,,マイスピリット,0
884,4040001134319,新規,0,2024-07-04,2024-07-04,株式会社豆ナカノ,,株式会社,千葉県,千葉市中央区,弁天１丁目１番２号,,12,101,2600045,,,,,,,2024-07-04,1,,,,,マメナカノ,0
885,4040001134327,新規,0,2024-07-04,2024-07-04,株式会社ライトワークス,,株式会社,千葉県,八千代市,大和田新田５１３番地１１６,,12,221,2760046,,,,,,,2024-07-04,1,,,,,ライトワークス,0
886,4040001134343,新規,0,2024-07-04,2024-07-04,株式会社フォエル,,株式会社,千葉県,市川市,曽谷２丁目１９番１１号,,12,203,2720832,,,,,,,2024-07-04,1,,,,,フォエル,0
887,4040001134351,新規,0,2024-07-04,2024-07-04,株式会社結社,,株式会社,千葉県,千葉市中央区,大森町５７番地５,,12,101,2600811,,,,,,,2024-07-04,1,,,,,ユウシャ,0
888,4040001134368,新規,0,2024-07-04,2024-07-04,株式会社ＧＲＥＥＮ　ＤＡＹＳ,,株式会社,千葉県,柏市,中原２丁目１１－３４,,12,217,2770085,,,,,,,2024-07-04,1,,,,,グリーンデイズ,0
891,4040003025326,新規,0,2024-07-04,2024-07-04,合同会社ＲＥＶＥＲＳＥ　ＣＡＳＴＬＥ　ＣＩＴＹ,,合同会社,千葉県,船橋市,咲が丘３丁目７番１号,,12,204,2740807,,,,,,,2024-07-04,1,,,,,リバースキャッスルシティ,0
893,4050001055051,新規,0,2024-07-04,2024-07-04,ＧＩＮＧＥＲ　ＦＡＲＭ　ＪＡＰＡＮ株式会社,,株式会社,茨城県,石岡市,東石岡４丁目１１番２９号,,08,205,3150037,,,,,,,2024-07-04,1,,,,,ジンジャーファームジャパン,0
896,4050003008494,新規,0,2024-07-04,2024-07-04,うずらコネクト合同会社,,合同会社,茨城県,稲敷郡阿見町,うずら野４丁目２０番地４パストラル宮岡３０８号,,08,443,3000341,,,,,,,2024-07-04,1,,,,,ウズラコネクト,0
901,4070005010298,新規,0,2024-07-04,2024-07-04,税理士法人高橋会計事務所,,その他の設立登記法人,群馬県,太田市,新道町１３８６番地２,,10,205,3730037,,,,,,,2024-07-04,1,,,,,タカハシカイケイジムショ,0
910,4090001018806,新規,0,2024-07-04,2024-07-04,富士百花株式会社,,株式会社,山梨県,南都留郡富士河口湖町,船津１４５７－１－６１７,,19,430,4010301,,,,,,,2024-07-04,1,,,,,フジヒャッカ,0
913,4100001037606,新規,0,2024-07-04,2024-07-04,株式会社福家,,株式会社,長野県,北佐久郡軽井沢町,軽井沢字境新田亀原１０１９番地３２５,,20,321,3890103,,,,,,,2024-07-04,1,,,,,フクヤ,0
916,4110003005444,新規,0,2024-07-04,2024-07-04,Ｍｙｏｋｏ　Ｋｅｓｓｈｏ　Ｒｅｔｒｅａｔｓ合同会社,,合同会社,新潟県,妙高市,大字関川１６８５番地１,,15,217,9492112,,,,,,,2024-07-04,1,,,,,ミョウコウケッショウリトリーツ,0
929,4120001266525,新規,0,2024-07-04,2024-07-04,株式会社トップクリエーション,,株式会社,大阪府,大阪市中央区,道頓堀１丁目東５番３号カマルグ道頓堀ビル５０１,,27,128,5420071,,,,,,,2024-07-04,1,,,,,トップクリエーション,0
930,4120001266541,新規,0,2024-07-04,2024-07-04,臻瑪株式会社,,株式会社,大阪府,大阪市淀川区,西三国１丁目１１番２－４０３号,,27,123,5320006,,,,,,,2024-07-04,1,,,,,シンバ,0
932,4120101069893,新規,0,2024-07-04,2024-07-04,Ｗｉｌｌ株式会社,,株式会社,大阪府,河内長野市,中片添町１４番２２－１１４号,,27,216,5860046,,,,,,,2024-07-04,1,,,,,ウィル,0
934,4120901049418,新規,0,2024-07-04,2024-07-04,Ｂ．ＴＥＣ株式会社,,株式会社,大阪府,吹田市,南吹田５丁目１１番２２号,,27,205,5640043,,,,,,,2024-07-04,1,,,,,ビーテック,0
935,4122001038235,新規,0,2024-07-04,2024-07-04,株式会社一颯,,株式会社,大阪府,八尾市,美園町２丁目２５番地の４,,27,212,5810818,,,,,,,2024-07-04,1,,,,,イブキ,0
936,4122001038243,新規,0,2024-07-04,2024-07-04,株式会社ヒムロ,,株式会社,大阪府,八尾市,大竹５丁目６７,,27,212,5810854,,,,,,,2024-07-04,1,,,,,ヒムロ,0
944,4130001077418,新規,0,2024-07-04,2024-07-04,株式会社ＢｉｚＭｏ,,株式会社,京都府,相楽郡精華町,精華台２丁目１０番地１０５,,26,366,6190238,,,,,,,2024-07-04,1,,,,,ビジモ,0
945,4130003009690,新規,0,2024-07-04,2024-07-04,合同会社ＶＨＭ,,合同会社,京都府,京都市伏見区,久我石原町１－６６,,26,109,6128491,,,,,,,2024-07-04,1,,,,,ブイエイチエム,0
946,4130005017130,新規,0,2024-07-04,2024-07-04,一般社団法人地域まるごと大家族,,その他の設立登記法人,京都府,京都市右京区,鳴滝泉谷町１番地１８,,26,108,6168253,,,,,,,2024-07-04,1,,,,,チイキマルゴトダイカゾク,0
948,4140001134985,新規,0,2024-07-04,2024-07-04,株式会社Ｇｏ‐ｏｎ,,株式会社,兵庫県,明石市,朝霧南町１丁目１８０番地の１リードサザンビル１Ｆ,,28,203,6730870,,,,,,,2024-07-04,1,,,,,ゴーオン,0
949,4140001135018,新規,0,2024-07-04,2024-07-04,ツヅラノエンジニアリング株式会社,,株式会社,兵庫県,神戸市東灘区,御影３丁目２－１１－７８,,28,101,6580047,,,,,,,2024-07-04,1,,,,,ツヅラノエンジニアリング,0
950,4140003020770,新規,0,2024-07-04,2024-07-04,上村昇降設備合同会社,,合同会社,兵庫県,神戸市須磨区,菅の台７丁目２１番地の５,,28,107,6540143,,,,,,,2024-07-04,1,,,,,ウエムラショウコウセツビ,0
961,4170001018203,新規,0,2024-07-04,2024-07-04,大信塗工株式会社,,株式会社,和歌山県,有田市,初島町浜１７６９番地１６,,30,204,6490306,,,,,,,2024-07-04,1,,,,,ダイシントコウ,0
972,4180001162256,新規,0,2024-07-04,2024-07-04,株式会社アートイトウ,,株式会社,愛知県,名古屋市北区,楠味鋺３丁目２７０１番地,,23,103,4620014,,,,,,,2024-07-04,1,,,,,アートイトウ,0
973,4180001162289,新規,0,2024-07-04,2024-07-04,株式会社名成,,株式会社,愛知県,名古屋市東区,代官町３０番１号,,23,102,4610002,,,,,,,2024-07-04,1,,,,,メイセイ,0
974,4180001162297,新規,0,2024-07-04,2024-07-04,株式会社祐徳商事,,株式会社,愛知県,名古屋市東区,大松町６番９号,,23,102,4610033,,,,,,,2024-07-04,1,,,,,ユウトクショウジ,0
982,4180303006169,新規,0,2024-07-04,2024-07-04,合同会社Ｌｕａｎａ　Ｈａｉｒ,,合同会社,愛知県,豊田市,日南町３丁目５３番地１ライオンズ豊田ヒルトップコート９０３号,,23,211,4710032,,,,,,,2024-07-04,1,,,,,ルアナヘアー,0
987,4200005013642,新規,0,2024-07-04,2024-07-04,税理士法人岐阜中央会計,,その他の設立登記法人,岐阜県,岐阜市,吾妻町１丁目５番地,,21,201,5008883,,,,,,,2024-07-04,1,,,,,ギフチュウオウカイケイ,0
988,4230001020417,新規,0,2024-07-04,2024-07-04,株式会社赤座創研,,株式会社,富山県,富山市,楡原３６１番地１,,16,201,9392184,,,,,,,2024-07-04,1,,,,,アカザソウケン,0
989,4230001020425,新規,0,2024-07-04,2024-07-04,株式会社スマート卓球ジム,,株式会社,富山県,氷見市,窪１２２６番地,,16,205,9350024,,,,,,,2024-07-04,1,,,,,スマートタッキュウジム,0
992,4240001063480,新規,0,2024-07-04,2024-07-04,新愛工業株式会社,,株式会社,広島県,尾道市,向島町５９５６番地３,,34,205,7220073,,,,,,,2024-07-04,1,,,,,シンアイコウギョウ,0
993,4240001063497,新規,0,2024-07-04,2024-07-04,格林株式会社,,株式会社,広島県,三原市,沼田東町釜山９１８－８,,34,204,7230143,,,,,,,2024-07-04,1,,,,,カクリン,0
996,4240003006743,新規,0,2024-07-04,2024-07-04,合同会社ＪＡＧＥＬ,,合同会社,広島県,広島市中区,大手町２丁目９番６号１０２号室,,34,101,7300051,,,,,,,2024-07-04,1,,,,,ジェイグル,0
999,4260001039215,新規,0,2024-07-04,2024-07-04,株式会社Ｋａｊｉｏｋａ　ＨＤ　Ｃｏ．,,株式会社,岡山県,津山市,山北７７０番地１４,,33,203,7080004,,,,,,,2024-07-04,1,,,,,カジオカホールディングスコーポレーション,0
1000,4260001039223,新規,0,2024-07-04,2024-07-04,金多多商事株式会社,,株式会社,岡山県,新見市,大佐小阪部２４８０番地２,,33,210,7193503,,,,,,,2024-07-04,1,,,,,キンタタショウジ,0
1001,4260001039231,新規,0,2024-07-04,2024-07-04,ＥｎｉＶｅｒｓｅ株式会社,,株式会社,岡山県,倉敷市,藤戸町天城２４０１番地１０６,,33,202,7100132,,,,,,,2024-07-04,1,,,,,エニバース,0
1005,4260005011376,新規,0,2024-07-04,2024-07-04,一般社団法人つなぐ映画蔵のある街実行委員会,,その他の設立登記法人,岡山県,倉敷市,阿知２丁目２３番１０号,,33,202,7100055,,,,,,,2024-07-04,1,,,,,ツナグエイガクラノアルマチジッコウイインカイ,0
1012,4290001106375,新規,0,2024-07-04,2024-07-04,株式会社石建,,株式会社,福岡県,福岡市城南区,七隈４丁目２２番３５－２号,,40,136,8140133,,,,,,,2024-07-04,1,,,,,イシケン,0
1014,4290003015525,新規,0,2024-07-04,2024-07-04,合同会社Ｒ‐ＤＥＳＩＧＮ,,合同会社,福岡県,福岡市中央区,天神４丁目６－２８天神ファーストビル７階,,40,133,8100001,,,,,,,2024-07-04,1,,,,,アールデザイン,0
1017,4290803004768,新規,0,2024-07-04,2024-07-04,合同会社ドワーナ,,合同会社,福岡県,田川市,大字夏吉２５３－２６,,40,206,8250004,,,,,,,2024-07-04,1,,,,,ドワーナ,0
1018,4320001020572,新規,0,2024-07-04,2024-07-04,株式会社ＴＲＹＮＤ,,株式会社,大分県,臼杵市,大字臼杵７２番地の２１５,,44,206,8750041,,,,,,,2024-07-04,1,,,,,トラインド,0
1023,4340003004530,新規,0,2024-07-04,2024-07-04,合同会社浅野工作所,,合同会社,鹿児島県,鹿屋市,串良町細山田５１５２番地１,,46,203,8931601,,,,,,,2024-07-04,1,,,,,アサノコウサクショ,0
1025,4350001019050,新規,0,2024-07-04,2024-07-04,株式会社井上畜産,,株式会社,宮崎県,児湯郡高鍋町,大字蚊口浦４番地８,,45,401,8840004,,,,,,,2024-07-04,1,,,,,イノウエチクサン,0
1026,4350001019059,新規,0,2024-07-04,2024-07-04,キャリアライズ株式会社,,株式会社,宮崎県,宮崎市,城ケ崎４丁目１０番地１２,,45,201,8800917,,,,,,,2024-07-04,1,,,,,キャリアライズ,0
1027,4350003004686,新規,0,2024-07-04,2024-07-04,合同会社ＢＦＥ,,合同会社,宮崎県,都城市,中町１２街区２２号,,45,202,8850071,,,,,,,2024-07-04,1,,,,,ビーエフイー,0
1028,4360001033892,新規,0,2024-07-04,2024-07-04,株式会社Ｕｍａｉファーム,,株式会社,沖縄県,宮古島市,平良字東仲宗根６９３番地１１,,47,214,9060007,,,,,,,2024-07-04,1,,,,,ウマイファーム,0
1037,4410003003954,新規,0,2024-07-04,2024-07-04,合同会社鳥ぎん,,合同会社,秋田県,秋田市,卸町２丁目２番７号秋田まるごと市場内,,05,201,0100061,,,,,,,2024-07-04,1,,,,,トリギン,0
1045,4430003016517,新規,0,2024-07-04,2024-07-04,合同会社ｃｏｎｎｅｃｔ,,合同会社,北海道,札幌市東区,本町二条３丁目４番１９号,,01,103,0650042,,,,,,,2024-07-04,1,,,,,コネクト,0
1049,4460301005235,新規,0,2024-07-04,2024-07-04,大伸重機サービス株式会社,,株式会社,北海道,北見市,常川４３５番地,,01,208,0991584,,,,,,,2024-07-04,1,,,,,ダイシンジュウキサービス,0
1050,4462503000220,新規,0,2024-07-04,2024-07-04,ＫＯＢＵＳＴＡＹ合同会社,,合同会社,北海道,目梨郡羅臼町,春日町９番地,,01,694,0861843,,,,,,,2024-07-04,1,,,,,コブステイ,0
1052,4490001010805,新規,0,2024-07-04,2024-07-04,株式会社ブルーティット,,株式会社,高知県,高知市,升形１０番１２号１階東,,39,201,7800861,,,,,,,2024-07-04,1,,,,,ブルーティット,0
1057,4700150126371,新規,0,2024-07-04,2024-07-04,ＭＹＴＥＫ　ＣＯＲＰ．,,外国会社等,,,,,,,,６Ｆ．，Ｎｏ．６５９，Ｂａｎｎａｎ　Ｒｄ．，Ｚｈｏｎｇｈｅ　Ｄｉｓｔ．，Ｎｅｗ　Ｔａｉｐｅｉ　Ｃｉｔｙ，Ｔａｉｗａｎ　（Ｒ．Ｏ．Ｃ．）,,,,,,2024-07-04,1,,,,,マイテックコーポレイション,0
1061,5010001246149,新規,0,2024-07-04,2024-07-04,株式会社フェアプラッツ,,株式会社,東京都,千代田区,五番町１２番地７－２０４３,,13,101,1020076,,,,,,,2024-07-04,1,,,,,フェアプラッツ,0
1062,5010001246207,新規,0,2024-07-04,2024-07-04,株式会社Ｆａｂｂｉ　Ｈｏｌｄｉｎｇｓ,,株式会社,東京都,文京区,本郷４丁目１６－６－１１階,,13,105,1130033,,,,,,,2024-07-04,1,,,,,ファッビホールディングス,0
1063,5010001246215,新規,0,2024-07-04,2024-07-04,株式会社Ｆｕｎ　Ｍｕｓｉｃ　Ｐｒｏｄｕｃｔｉｏｎ,,株式会社,東京都,千代田区,九段南２丁目３番２６号井関ビル５Ｆ,,13,101,1020074,,,,,,,2024-07-04,1,,,,,ファンミュージックプロダクション,0
1064,5010001246231,新規,0,2024-07-04,2024-07-04,株式会社ＤＩＳＣＯＭ,,株式会社,東京都,千代田区,麹町５丁目３番２３号,,13,101,1020083,,,,,,,2024-07-04,1,,,,,ディスコム,0
1065,5010001246297,新規,0,2024-07-04,2024-07-04,株式会社ＥｒｕｄＡｉｔｅ,,株式会社,東京都,中央区,銀座１丁目２２番１１号,,13,102,1040061,,,,,,,2024-07-04,1,,,,,エルダイト,0
1066,5010001246306,新規,0,2024-07-04,2024-07-04,ＫＵＲＩＫＥＩ株式会社,,株式会社,東京都,中央区,日本橋兜町１７番２号兜町第６葉山ビル４階,,13,102,1030026,,,,,,,2024-07-04,1,,,,,クリケイ,0
1070,5010003044154,新規,0,2024-07-04,2024-07-04,合同会社Ｕｔａｎ,,合同会社,東京都,中央区,勝どき６丁目３番１－３５０５号,,13,102,1040054,,,,,,,2024-07-04,1,,,,,ウータン,0
1071,5010003044187,新規,0,2024-07-04,2024-07-04,合同会社ＫＲＦ１０９,,合同会社,東京都,千代田区,内幸町２丁目１番６号,,13,101,1000011,,,,,,,2024-07-04,1,,,,,ケイアールエフヒャクキュウ,0
1072,5010003044220,新規,0,2024-07-04,2024-07-04,オーケストラ合同会社,,合同会社,東京都,千代田区,丸の内３丁目１番１号東京共同会計事務所内,,13,101,1000005,,,,,,,2024-07-04,1,,,,,オーケストラ,0
1080,5010405023367,新規,0,2024-07-04,2024-07-04,一般社団法人対外労働移民庁在日事務所,,その他の設立登記法人,東京都,港区,浜松町１丁目２８番４号,,13,103,1050013,,,,,,,2024-07-04,1,,,,,タイガイロウドウイミンチョウザイニチジムショ,0
1081,5010501052550,新規,0,2024-07-04,2024-07-04,ウッディ株式会社,,株式会社,東京都,台東区,池之端３丁目３番１９号,,13,106,1100008,,,,,,,2024-07-04,1,,,,,ウッディ,0
1082,5010601065477,新規,0,2024-07-04,2024-07-04,株式会社Ｍａｒｂｌｅ　Ｖｉｓｉｏｎｓ,,株式会社,東京都,江東区,豊洲３丁目３番３号,,13,108,1350061,,,,,,,2024-07-04,1,,,,,マーブルビジョンズ,0
1083,5010701046212,新規,0,2024-07-04,2024-07-04,株式会社ＬＰＭ,,株式会社,東京都,品川区,大井１丁目１１番４号,,13,109,1400014,,,,,,,2024-07-04,1,,,,,エルピーエム,0
1086,5010901055582,新規,0,2024-07-04,2024-07-04,ａｍａｔｏｒａ株式会社,,株式会社,東京都,世田谷区,瀬田１丁目３０番３１号瀬田ハイツ１０４,,13,112,1580095,,,,,,,2024-07-04,1,,,,,アマトラ,0
1090,5011001163128,新規,0,2024-07-04,2024-07-04,ビジョナル・パートナーズ株式会社,,株式会社,東京都,渋谷区,渋谷２丁目１５番１号,,13,113,1500002,,,,,,,2024-07-04,1,,,,,ビジョナルパートナーズ,0
1091,5011001163160,新規,0,2024-07-04,2024-07-04,株式会社Ｐａｒｓａｖｅ,,株式会社,東京都,渋谷区,代々木５丁目４２番８号,,13,113,1510053,,,,,,,2024-07-04,1,,,,,パーセーブ,0
1097,5011101107942,新規,0,2024-07-04,2024-07-04,株式会社青い海とひまわり,,株式会社,東京都,新宿区,西新宿３丁目３－１３－６Ｆ,,13,104,1600023,,,,,,,2024-07-04,1,,,,,アオイウミトヒマワリ,0
1098,5011101107950,新規,0,2024-07-04,2024-07-04,株式会社Ｓｐｏｔ　Ｏｎ,,株式会社,東京都,新宿区,西新宿３丁目３番１３号西新宿水間ビル２Ｆ,,13,104,1600023,,,,,,,2024-07-04,1,,,,,スポットオン,0
1100,5011103014633,新規,0,2024-07-04,2024-07-04,エイチケーエンタープライズ合同会社,,合同会社,東京都,新宿区,西新宿３丁目３番１３号西新宿水間ビル６階,,13,104,1600023,,,,,,,2024-07-04,1,,,,,エイチケーエンタープライズ,0
1131,5021005013138,新規,0,2024-07-04,2024-07-04,一般社団法人ＣＡＲＢ,,その他の設立登記法人,神奈川県,座間市,相模が丘１丁目２番５号,,14,216,2520001,,,,,,,2024-07-04,1,,,,,カーブ,0
1139,5030001161123,新規,0,2024-07-04,2024-07-04,株式会社Ｄｅｔａｉｌｓ,,株式会社,埼玉県,川口市,上青木西１丁目１９番３９号,,11,203,3330845,,,,,,,2024-07-04,1,,,,,ディテイルズ,0
1140,5030001161214,新規,0,2024-07-04,2024-07-04,ＣＯ２エンジニアリング株式会社,,株式会社,埼玉県,白岡市,下大崎９１２番地１,,11,246,3490203,,,,,,,2024-07-04,1,,,,,シーオーツーエンジニアリング,0
1141,5030001161239,新規,0,2024-07-04,2024-07-04,株式会社天壇,,株式会社,埼玉県,坂戸市,緑町１番５号ミタカビル２Ｆ,,11,239,3500234,,,,,,,2024-07-04,1,,,,,テンダン,0
1142,5030001161247,新規,0,2024-07-04,2024-07-04,株式会社横田,,株式会社,埼玉県,東松山市,大字石橋１６９７番地５,,11,212,3550072,,,,,,,2024-07-04,1,,,,,ヨコタ,0
1147,5030003024633,新規,0,2024-07-04,2024-07-04,合同会社ＺＥＫＵＵ,,合同会社,埼玉県,川口市,芝新町３番１３号,,11,203,3330851,,,,,,,2024-07-04,1,,,,,ゼクウ,0
1148,5030003024641,新規,0,2024-07-04,2024-07-04,合同会社テックホールド,,合同会社,埼玉県,比企郡川島町,大字上八ツ林２５３番地１,,11,346,3500121,,,,,,,2024-07-04,1,,,,,テックホールド,0
1149,5030003024666,新規,0,2024-07-04,2024-07-04,合同会社２５ｍｉｌｅ,,合同会社,埼玉県,南埼玉郡宮代町,宮代台１丁目２０番８号,,11,442,3450835,,,,,,,2024-07-04,1,,,,,ニジュウゴマイル,0
1150,5030005021752,新規,0,2024-07-04,2024-07-04,一般社団法人さいたま傾聴研究所深いごみばこ,,その他の設立登記法人,埼玉県,さいたま市浦和区,針ヶ谷４丁目７番４号,,11,107,3300075,,,,,,,2024-07-04,1,,,,,サイタマケイチョウケンキュウジョフカイゴミバコ,0
1152,5040001134326,新規,0,2024-07-04,2024-07-04,ＹＢＦ　ＴＥＣＨ株式会社,,株式会社,千葉県,千葉市美浜区,中瀬１丁目６エムベイポイント幕張,,12,106,2610023,,,,,,,2024-07-04,1,,,,,ワイビーエフテック,0
1153,5040001134334,新規,0,2024-07-04,2024-07-04,株式会社ピノサービス,,株式会社,千葉県,野田市,山崎２４５３番地の８２,,12,208,2780022,,,,,,,2024-07-04,1,,,,,ピノサービス,0
1154,5040001134342,新規,0,2024-07-04,2024-07-04,株式会社ＡＫＥＲＳ,,株式会社,千葉県,千葉市若葉区,小倉台３丁目７番３号,,12,104,2640006,,,,,,,2024-07-04,1,,,,,エイカーズ,0
1155,5040001134350,新規,0,2024-07-04,2024-07-04,株式会社ほたるの里,,株式会社,千葉県,袖ケ浦市,野里１８５２番地９,,12,229,2990211,,,,,,,2024-07-04,1,,,,,ホタルノサト,0
1156,5040001134391,新規,0,2024-07-04,2024-07-04,株式会社ｍｏｒｅ,,株式会社,千葉県,流山市,南流山２丁目３番地の９,,12,220,2700163,,,,,,,2024-07-04,1,,,,,モア,0
1157,5040003025317,新規,0,2024-07-04,2024-07-04,合同会社ヴァレイベアー,,合同会社,千葉県,松戸市,新松戸４丁目１８２,,12,207,2700034,,,,,,,2024-07-04,1,,,,,ヴァレイベアー,0
1158,5060001037254,新規,0,2024-07-04,2024-07-04,株式会社フローリック,,株式会社,栃木県,足利市,宮北町２０番地６,,09,202,3260027,,,,,,,2024-07-04,1,,,,,フローリック,0
1161,5060003005143,新規,0,2024-07-04,2024-07-04,合同会社とちぎバレエアカデミー,,合同会社,栃木県,栃木市,沼和田町７番１８号,,09,203,3280042,,,,,,,2024-07-04,1,,,,,トチギバレエアカデミー,0
1170,5080401027290,新規,0,2024-07-04,2024-07-04,株式会社Ｏ．Ｇ．Ｍ,,株式会社,静岡県,浜松市中央区,常光町２１６番地の４,,22,138,4313103,,,,,,,2024-07-04,1,,,,,オージーエム,0
1174,5090005007639,新規,0,2024-07-04,2024-07-04,ＮＰＯ法人かけはし,,その他の設立登記法人,山梨県,北杜市,大泉町西井出８２４０番地７９５０,,19,209,4091501,,,,,,,2024-07-04,1,,,,,カケハシ,0
1176,5110001038528,新規,0,2024-07-04,2024-07-04,株式会社ｍ．ｌｉｎｋ．ｃｏｎｔｅ,,株式会社,新潟県,燕市,井土巻５丁目２１２番地,,15,213,9591232,,,,,,,2024-07-04,1,,,,,エムリンクコンテ,0
1177,5110001038536,新規,0,2024-07-04,2024-07-04,株式会社ＦＲＥＥ＆ＳＴＹＬＥ,,株式会社,新潟県,新潟市中央区,長潟３丁目１４番３号,,15,103,9500932,,,,,,,2024-07-04,1,,,,,フリーアンドスタイル,0
1178,5110001038544,新規,0,2024-07-04,2024-07-04,株式会社フォレストチーム,,株式会社,新潟県,南魚沼市,六日町４７９番地ＯＦＦＩＣＥ、９ｂｔ０５室,,15,226,9496680,,,,,,,2024-07-04,1,,,,,フォレストチーム,0
1179,5110001038552,新規,0,2024-07-04,2024-07-04,株式会社Ｓｔｕｄｉｏ　ｂｏｎ　ｂｏｎ,,株式会社,新潟県,新潟市南区,小蔵子１５６番地２,,15,106,9501414,,,,,,,2024-07-04,1,,,,,スタジオボンボン,0
1185,5120001266425,新規,0,2024-07-04,2024-07-04,リーガレックス株式会社,,株式会社,大阪府,大阪市淀川区,宮原１丁目１番１号阪急新大阪ビル,,27,123,5320003,,,,,,,2024-07-04,1,,,,,リーガレックス,0
1186,5120001266466,新規,0,2024-07-04,2024-07-04,株式会社ノーベルリンク,,株式会社,大阪府,大阪市住之江区,南港北２丁目１番１０号,,27,125,5590034,,,,,,,2024-07-04,1,,,,,ノーベルリンク,0
1187,5120001266540,新規,0,2024-07-04,2024-07-04,Ｓｅｖｅｎ　Ｐａｌｍ　Ｔｒｅｅｓ株式会社,,株式会社,大阪府,大阪市住吉区,遠里小野３丁目３－２５ロイヤル遠里小野２０１室,,27,120,5580032,,,,,,,2024-07-04,1,,,,,セブンパームツリーズ,0
1188,5120903005244,新規,0,2024-07-04,2024-07-04,ライフアートラボ合同会社,,合同会社,大阪府,吹田市,桃山台１丁目１番６－１００５号,,27,205,5650854,,,,,,,2024-07-04,1,,,,,ライフアートラボ,0
1192,5122001038234,新規,0,2024-07-04,2024-07-04,株式会社エキタ,,株式会社,大阪府,四條畷市,大字上田原１５２５番地,,27,229,5750014,,,,,,,2024-07-04,1,,,,,エキタ,0
1193,5122001038242,新規,0,2024-07-04,2024-07-04,株式会社ＹＳコーポレーション,,株式会社,大阪府,東大阪市,近江堂２丁目６番４０号,,27,227,5770817,,,,,,,2024-07-04,1,,,,,ワイエスコーポレーション,0
1195,5130001077383,新規,0,2024-07-04,2024-07-04,株式会社ウイング,,株式会社,京都府,京都市上京区,御前通下立売上る仲之町２８４番地山鹿ハイツ３００,,26,102,6028362,,,,,,,2024-07-04,1,,,,,ウイング,0
1204,5140001134976,新規,0,2024-07-04,2024-07-04,株式会社エコアット,,株式会社,兵庫県,たつの市,揖西町南山７４０番地,,28,229,6794016,,,,,,,2024-07-04,1,,,,,エコアット,0
1205,5140001134984,新規,0,2024-07-04,2024-07-04,株式会社ｇｏ‐ｗｉｔｈ,,株式会社,兵庫県,明石市,和坂１３番地６号プラスパ西明石１０３,,28,203,6730012,,,,,,,2024-07-04,1,,,,,ゴーウイズ,0
1206,5140001134992,新規,0,2024-07-04,2024-07-04,株式会社ＢＩＧ　Ｍ　ＳＮＯＷ　ＰＬＡＮ,,株式会社,兵庫県,川西市,見野２丁目８番８－１号,,28,217,6660105,,,,,,,2024-07-04,1,,,,,ビッグエムスノウプラン,0
1208,5140003020761,新規,0,2024-07-04,2024-07-04,ＡＮＤＯＷＳ合同会社,,合同会社,兵庫県,西宮市,北六甲台３丁目２０番７号,,28,204,6511413,,,,,,,2024-07-04,1,,,,,アンドウズ,0
1211,5160001026049,新規,0,2024-07-04,2024-07-04,株式会社ｆａｗ’ｓ,,株式会社,滋賀県,彦根市,旭町６番２２－１０２号,,25,202,5220073,,,,,,,2024-07-04,1,,,,,ファウズ,0
1223,5180001162214,新規,0,2024-07-04,2024-07-04,株式会社Ｎｉｃｏｔｔｏ,,株式会社,愛知県,岩倉市,神野町平久田７３,,23,228,4820033,,,,,,,2024-07-04,1,,,,,ニコット,0
1233,5210001019815,新規,0,2024-07-04,2024-07-04,株式会社谷川商店,,株式会社,福井県,あわら市,国影第３９号７４番地,,18,208,9104115,,,,,,,2024-07-04,1,,,,,タニカワショウテン,0
1234,5210003001812,新規,0,2024-07-04,2024-07-04,ＮＴホールディングス合同会社,,合同会社,福井県,坂井市,丸岡町高瀬２字１０番１,,18,210,9100355,,,,,,,2024-07-04,1,,,,,エヌティホールディングス,0
1239,5240001063471,新規,0,2024-07-04,2024-07-04,株式会社ＢＣＴＣ　ＪＡＰＡＮ,,株式会社,広島県,福山市,松永町４丁目１６番５６号グリーンマンション５０３号,,34,207,7290104,,,,,,,2024-07-04,1,,,,,ビーシーティーシージャパン,0
1240,5240001063496,新規,0,2024-07-04,2024-07-04,株式会社ＹＫＹ,,株式会社,広島県,安芸郡海田町,南幸町１０番２５号,,34,304,7360032,,,,,,,2024-07-04,1,,,,,ワイケイワイ,0
1258,5290003015524,新規,0,2024-07-04,2024-07-04,合同会社つながり,,合同会社,福岡県,福岡市博多区,寿町３丁目５番１９－８０７号,,40,132,8120884,,,,,,,2024-07-04,1,,,,,ツナガリ,0
1260,5290801030682,新規,0,2024-07-04,2024-07-04,株式会社ＧＴＢ,,株式会社,福岡県,鞍手郡小竹町,大字御徳１３５－４８,,40,401,8201101,,,,,,,2024-07-04,1,,,,,ジーティービー,0
1261,5290803004767,新規,0,2024-07-04,2024-07-04,合同会社甚,,合同会社,福岡県,北九州市戸畑区,新池２丁目１３番１４－５０１号,,40,105,8040082,,,,,,,2024-07-04,1,,,,,ジン,0
1267,5320001020571,新規,0,2024-07-04,2024-07-04,株式会社宮崎興業,,株式会社,大分県,由布市,挾間町来鉢１３４３番地２,,44,213,8795512,,,,,,,2024-07-04,1,,,,,,0
1268,5320003004408,新規,0,2024-07-04,2024-07-04,合同会社セットアップ,,合同会社,大分県,大分市,大字三佐２２８４番地の１,,44,201,8700108,,,,,,,2024-07-04,1,,,,,セットアップ,0
1269,5330001032236,新規,0,2024-07-04,2024-07-04,株式会社ブーケストック,,株式会社,熊本県,熊本市南区,馬渡１丁目１５－８,,43,104,8620968,,,,,,,2024-07-04,1,,,,,ブーケストック,0
1277,5340001026609,新規,0,2024-07-04,2024-07-04,城建築設計株式会社,,株式会社,鹿児島県,奄美市,笠利町須野２０番地,,46,222,8940000,,,,,,,2024-07-04,1,,,,,キズキケンチクセッケイ,0
1279,5350001019058,新規,0,2024-07-04,2024-07-04,株式会社ｄｏｕｇｈ．,,株式会社,宮崎県,宮崎市,橘通西３丁目１０番３２号８階,,45,201,8800001,,,,,,,2024-07-04,1,,,,,ドウ,0
1281,5350003004693,新規,0,2024-07-04,2024-07-04,合同会社ロングフィールド,,合同会社,宮崎県,宮崎市,千草町２番２号アクアビル１０２,,45,201,8800006,,,,,,,2024-07-04,1,,,,,ロングフィールド,0
1283,5360001033891,新規,0,2024-07-04,2024-07-04,株式会社ＮＲバクステック,,株式会社,沖縄県,那覇市,首里桃原町１丁目１１番地６ＬＭ首里桃原４０６,,47,201,9030822,,,,,,,2024-07-04,1,,,,,エヌアールバクステック,0
1286,5380001034649,新規,0,2024-07-04,2024-07-04,ハウス食品グループ東北工場株式会社,,株式会社,福島県,福島市,佐倉下字一本杉１番１,,07,201,9602154,,,,,,,2024-07-04,1,,,,,ハウスショクヒングループトウホクコウジョウ,0
1300,5430001092170,新規,0,2024-07-04,2024-07-04,株式会社シンワ管工,,株式会社,北海道,札幌市北区,屯田七条１丁目１２番１２号,,01,102,0020857,,,,,,,2024-07-04,1,,,,,シンワカンコウ,0
1301,5430001092187,新規,0,2024-07-04,2024-07-04,株式会社恵成電工,,株式会社,北海道,美唄市,東五条北１丁目２番１号,,01,215,0720006,,,,,,,2024-07-04,1,,,,,ケイセイデンコウ,0
1304,5460003001003,新規,0,2024-07-04,2024-07-04,合同会社小夏,,合同会社,北海道,釧路市,昭和中央５丁目２０番４号,,01,206,0840910,,,,,,,2024-07-04,1,,,,,コナツ,0
1308,5500001025742,新規,0,2024-07-04,2024-07-04,株式会社堀江技研,,株式会社,愛媛県,松山市,新浜町乙４９番地２９,,38,201,7918083,,,,,,,2024-07-04,1,,,,,ホリエギケン,0
1310,5700150126156,新規,0,2024-07-04,2024-07-04,中山市小欖鎮邁拓五金厰,00135465,外国会社等,,,,,,,,中国中山市小欖鎮同楽社区同興東路２号Ｂ幢５＿,00135466,,,,,2024-07-04,1,,,,,チュウザンシコランチンマイタクゴキンショウ,0
1311,5700150126370,新規,0,2024-07-04,2024-07-04,ＬｉｎｇＤｕＺｈｉＬｉａｎ（ＨａｎｇＺｈｏｕ）ＫｅＪｉＦａＺｈａｎＹｏｕＸｉａｎＧｏｎｇＳｉ,,外国会社等,,,,,,,,Ｚｈｅ　Ｊｉａｎｇ，Ｈａｎｇ　Ｚｈｏｕ，ＧｏｎｇＳｈｕＱｕ，Ｃｈｕ　Ｘｉｎ　Ｌｕ　１７－１Ｈａｏ，１Ｚｈｕａｎｇ７Ｌｏｕ７２７Ｓｈｉ，Ｃｈｉｎａ,,,,,,2024-07-04,1,,,,,レイドチレンハンゾウカギハッテンユウゲンコウシ,0
1324,6010001246206,新規,0,2024-07-04,2024-07-04,株式会社ＢＯＭ,,株式会社,東京都,千代田区,神田神保町３丁目１０番地宝栄ビル３０１,,13,101,1010051,,,,,,,2024-07-04,1,,,,,ビーオーエム,0
1325,6010001246230,新規,0,2024-07-04,2024-07-04,ＫＬＭホールディングス株式会社,,株式会社,東京都,千代田区,永田町２丁目１０番３号,,13,101,1000014,,,,,,,2024-07-04,1,,,,,ケイエルエムホールデイングス,0
1326,6010001246271,新規,0,2024-07-04,2024-07-04,株式会社スターシア,,株式会社,東京都,千代田区,丸の内１丁目６番５号丸の内北口ビルディング８階,,13,101,1000005,,,,,,,2024-07-04,1,,,,,スターシア,0
1332,6010003044186,新規,0,2024-07-04,2024-07-04,合同会社ＫＲＦ１１１,,合同会社,東京都,千代田区,内幸町２丁目１番６号,,13,101,1000011,,,,,,,2024-07-04,1,,,,,ケイアールエフヒャクジュウイチ,0
1333,6010003044236,新規,0,2024-07-04,2024-07-04,合同会社ＡＺｗｏｒｋｓ,,合同会社,東京都,中央区,銀座７丁目１３番２１号銀座ｓｉｎｒｏｋｕｓｙｕビル２階,,13,102,1040061,,,,,,,2024-07-04,1,,,,,アズワークス,0
1341,6010401183536,新規,0,2024-07-04,2024-07-04,株式会社ＶＣＡＴ　ＡＩ,,株式会社,東京都,港区,浜松町２丁目７番１７号イーグル浜松町５３８号室,,13,103,1050013,,,,,,,2024-07-04,1,,,,,ブイキャットアイ,0
1342,6010401183569,新規,0,2024-07-04,2024-07-04,株式会社ボン・ヴォヤージュ・コンサルティング,,株式会社,東京都,港区,南青山２丁目２番１５号ＷｉｎＡｏｙａｍａビル・ＵＣＦ６階,,13,103,1070062,,,,,,,2024-07-04,1,,,,,ボンヴォヤージュコンサルティング,0
1345,6010403032947,新規,0,2024-07-04,2024-07-04,スターストーン合同会社,,合同会社,東京都,港区,赤坂１丁目８番５－９０４号,,13,103,1070052,,,,,,,2024-07-04,1,,,,,スターストーン,0
1346,6010403032963,新規,0,2024-07-04,2024-07-04,フィル・パーク鎌倉プロジェクト合同会社,,合同会社,東京都,港区,元赤坂１丁目１番８号株式会社赤坂国際会計内,,13,103,1070051,,,,,,,2024-07-04,1,,,,,フィルパークカマクラプロジェクト,0
1347,6010501052558,新規,0,2024-07-04,2024-07-04,大有株式会社,,株式会社,東京都,台東区,浅草５丁目６３番３号１階,,13,106,1110032,,,,,,,2024-07-04,1,,,,,ダイユウ,0
1349,6010703007244,新規,0,2024-07-04,2024-07-04,エレベイションジャパン合同会社,,合同会社,東京都,品川区,豊町４丁目３番１０号洋光３Ｆ,,13,109,1420042,,,,,,,2024-07-04,1,,,,,エレベイションジャパン,0
1351,6010901055565,新規,0,2024-07-04,2024-07-04,株式会社うちわ,,株式会社,東京都,世田谷区,若林４丁目２４番１９－３０５号,,13,112,1540023,,,,,,,2024-07-04,1,,,,,ウチワ,0
1352,6010901055573,新規,0,2024-07-04,2024-07-04,株式会社ＶＩＮＫ,,株式会社,東京都,世田谷区,三軒茶屋１丁目９番９号,,13,112,1540024,,,,,,,2024-07-04,1,,,,,ヴァンク,0
1353,6010903009197,新規,0,2024-07-04,2024-07-04,合同会社ｎｕｉｔ　ｂｌａｎｃｈｅ,,合同会社,東京都,世田谷区,若林３丁目３１番１６号フォレスト１－１０１号,,13,112,1540023,,,,,,,2024-07-04,1,,,,,ニュイブランシュ,0
1364,6011101107917,新規,0,2024-07-04,2024-07-04,株式会社アイ・タクト,,株式会社,東京都,新宿区,東五軒町一丁目９番地ＳＢＳ－Ｅ－３号,,13,104,1620813,,,,,,,2024-07-04,1,,,,,アイタクト,0
1365,6011101107941,新規,0,2024-07-04,2024-07-04,株式会社マノス,,株式会社,東京都,新宿区,歌舞伎町２丁目９番１８号ライオンズプラザ新宿Ｂ１－１２,,13,104,1600021,,,,,,,2024-07-04,1,,,,,,0
1366,6011103014632,新規,0,2024-07-04,2024-07-04,Ａｃｃｉｔ　ｗｏｒｋｓ合同会社,,合同会社,東京都,新宿区,西新宿３丁目３番１３号西新宿水間ビル２Ｆ,,13,104,1600023,,,,,,,2024-07-04,1,,,,,アシットアークス,0
1368,6011503006114,新規,0,2024-07-04,2024-07-04,合同会社Ｊ　Ｓｔｕｄｉｏ,,合同会社,東京都,荒川区,荒川７丁目２２－６フロンティアワン２階,,13,118,1160002,,,,,,,2024-07-04,1,,,,,ジェイスタジオ,0
1376,6012801023296,新規,0,2024-07-04,2024-07-04,株式会社ＲＡＭＥＮ　ＳＡＶＥ　ＴＨＥ　ＷＯＲＬＤ,,株式会社,東京都,昭島市,福島町１０１１番地１３,,13,207,1960031,,,,,,,2024-07-04,1,,,,,ラーメンセーブザワールド,0
1377,6012801023305,新規,0,2024-07-04,2024-07-04,株式会社ＫＵＭＩＫＡ,,株式会社,東京都,昭島市,拝島町４丁目１６番３９号,,13,207,1960002,,,,,,,2024-07-04,1,,,,,クミカ,0
1386,6021003014707,新規,0,2024-07-04,2024-07-04,合同会社ｈａｃｃａ,,合同会社,神奈川県,厚木市,寿町２丁目１番１８号ＢＩＺｃｏｍｆｏｒｔ本厚木１階,,14,212,2430003,,,,,,,2024-07-04,1,,,,,ハッカ,0
1390,6030001161279,新規,0,2024-07-04,2024-07-04,株式会社小暮グループ,,株式会社,埼玉県,幸手市,大字権現堂４５６番地５,,11,240,3400112,,,,,,,2024-07-04,1,,,,,コグレグループ,0
1391,6030001161304,新規,0,2024-07-04,2024-07-04,株式会社ＳＩＲコンサルティング,,株式会社,埼玉県,さいたま市見沼区,大和田町２丁目１７８番地７,,11,104,3370053,,,,,,,2024-07-04,1,,,,,エスアイアールコンサルティング,0
1393,6030003024649,新規,0,2024-07-04,2024-07-04,合同会社トラストセーフティー,,合同会社,埼玉県,和光市,丸山台１丁目４番４号,,11,229,3510112,,,,,,,2024-07-04,1,,,,,トラストセーフティー,0
1395,6040001134333,新規,0,2024-07-04,2024-07-04,エコーリッジ株式会社,,株式会社,千葉県,千葉市美浜区,若葉３丁目１－１８幕張ベイパーククロスレジデンスＳ２－１,,12,106,2610014,,,,,,,2024-07-04,1,,,,,エコーリッジ,0
1396,6040001134374,新規,0,2024-07-04,2024-07-04,株式会社ＨＯＭ,,株式会社,千葉県,船橋市,三山５丁目２５番６号シティハイツ近藤ＩＩ－１０１号,00135468,12,204,2740072,,,,,,,2024-07-04,1,,,,,ホム,0
1397,6040001134390,新規,0,2024-07-04,2024-07-04,アットテクノ株式会社,,株式会社,千葉県,八街市,山田台２８２番地,,12,230,2891124,,,,,,,2024-07-04,1,,,,,アットテクノ,0
1399,6060001037237,新規,0,2024-07-04,2024-07-04,株式会社みふじ物産,,株式会社,栃木県,那須塩原市,石林３１７番地９,,09,213,3292711,,,,,,,2024-07-04,1,,,,,ミフジブッサン,0
1400,6060001037261,新規,0,2024-07-04,2024-07-04,株式会社ＢＡＳＥ０９,,株式会社,栃木県,宇都宮市,宝井町４０３番地,,09,201,3291114,,,,,,,2024-07-04,1,,,,,ベースナイン,0
1401,6060003005142,新規,0,2024-07-04,2024-07-04,合同会社アクト,,合同会社,栃木県,下都賀郡壬生町,大字国谷８０７番地１,,09,361,3210211,,,,,,,2024-07-04,1,,,,,アクト,0
1403,6080003003243,新規,0,2024-07-04,2024-07-04,合同会社Ｍ＆Ｈ,,合同会社,静岡県,静岡市清水区,由比町屋原５８番地,,22,103,4213105,,,,,,,2024-07-04,1,,,,,エムアンドエイチ,0
1410,6090001018804,新規,0,2024-07-04,2024-07-04,ラクーンロック株式会社,,株式会社,山梨県,都留市,中津森９７８番地,,19,204,4020046,,,,,,,2024-07-04,1,,,,,ラクーンロック,0
1417,6110001038527,新規,0,2024-07-04,2024-07-04,Ｈ．Ｃ．コミュニケーションズ株式会社,,株式会社,新潟県,新潟市中央区,東大通２丁目３番７号ハイエスト新潟ビル５階,,15,103,9500087,,,,,,,2024-07-04,1,,,,,エイチシーコミュニケーションズ,0
1418,6110001038535,新規,0,2024-07-04,2024-07-04,株式会社ｐｒｅｄａｗｎ,,株式会社,新潟県,新潟市中央区,鳥屋野１丁目８番１５号３,,15,103,9500951,,,,,,,2024-07-04,1,,,,,プレドーン,0
1419,6110003005442,新規,0,2024-07-04,2024-07-04,フィーカ合同会社,,合同会社,新潟県,長岡市,城岡３丁目１番３３号,,15,202,9400021,,,,,,,2024-07-04,1,,,,,フィーカ,0
1421,6110005017106,新規,0,2024-07-04,2024-07-04,農事組合法人ぴおねーろ,,その他の設立登記法人,新潟県,新潟市西区,五十嵐３の町１０８００－１,,15,107,9502171,,,,,,,2024-07-04,1,,,,,,0
1429,6120001266432,新規,0,2024-07-04,2024-07-04,株式会社１０１,,株式会社,大阪府,大阪市中央区,南本町２丁目４番８号ミズワンビル２Ｆ,,27,128,5410054,,,,,,,2024-07-04,1,,,,,ヒャクイチ,0
1430,6120001266473,新規,0,2024-07-04,2024-07-04,株式会社ＹＤ,,株式会社,大阪府,大阪市北区,東天満２丁目２番５号,,27,127,5300044,,,,,,,2024-07-04,1,,,,,ワイディー,0
1431,6120001266531,新規,0,2024-07-04,2024-07-04,株式会社ストアツリー,,株式会社,大阪府,大阪市北区,梅田１丁目２番２号大阪駅前第２ビル１２－１２,,27,127,5300001,,,,,,,2024-07-04,1,,,,,ストアツリー,0
1432,6120001266548,新規,0,2024-07-04,2024-07-04,株式会社ＩＤ　ＳＴＹＬＥ,,株式会社,大阪府,大阪市北区,曾根崎１丁目７－１３レイソル曽根崎ビル３階,,27,127,5300057,,,,,,,2024-07-04,1,,,,,アイディスタイル,0
1437,6120101069900,新規,0,2024-07-04,2024-07-04,株式会社Ｓｙｎｅｒｇｙ,,株式会社,大阪府,大阪狭山市,西山台３丁目９番３号,,27,231,5890022,,,,,,,2024-07-04,1,,,,,シナジー,0
1441,6120901049408,新規,0,2024-07-04,2024-07-04,株式会社鶴亀,,株式会社,大阪府,茨木市,元町６番３号,,27,211,5670882,,,,,,,2024-07-04,1,,,,,ツルカメ,0
1442,6120901049424,新規,0,2024-07-04,2024-07-04,株式会社ビサイド,,株式会社,大阪府,豊中市,原田元町３丁目１１番７号,,27,203,5610808,,,,,,,2024-07-04,1,,,,,ビサイド,0
1444,6120903005243,新規,0,2024-07-04,2024-07-04,合同会社ＭＡＣ,,合同会社,大阪府,茨木市,郡３丁目２－３,,27,211,5670072,,,,,,,2024-07-04,1,,,,,マック,0
1445,6122001038233,新規,0,2024-07-04,2024-07-04,株式会社加美研磨,,株式会社,大阪府,東大阪市,衣摺６丁目２番８号,,27,227,5770827,,,,,,,2024-07-04,1,,,,,カミケンマ,0
1446,6122003002930,新規,0,2024-07-04,2024-07-04,合同会社ＳＪＷ,,合同会社,大阪府,東大阪市,玉串元町２丁目１３番１０号,,27,227,5780933,,,,,,,2024-07-04,1,,,,,エスジェイダブル,0
1450,6130005017129,新規,0,2024-07-04,2024-07-04,一般社団法人貝合貝覆文化協会,,その他の設立登記法人,京都府,京都市北区,小山西玄以町１８番地１,,26,101,6038105,,,,,,,2024-07-04,1,,,,,カイアワセカイオオイブンカキョウカイ,0
1456,6140001135016,新規,0,2024-07-04,2024-07-04,株式会社Ｅｎ　Ｄｅｓｉｇｎ,,株式会社,兵庫県,姫路市,花田町一本松９０番地１,,28,201,6710253,,,,,,,2024-07-04,1,,,,,エンデザイン,0
1458,6140003020760,新規,0,2024-07-04,2024-07-04,ＡＪ　ＣＥＹＬＯＮ　ＥＸＰＯＲＴＥＲＳ合同会社,,合同会社,兵庫県,尼崎市,西長洲町２丁目３０番１１－４０１号,,28,202,6600805,,,,,,,2024-07-04,1,,,,,エージェーセイロンエクスポーターズ,0
1459,6140003020769,新規,0,2024-07-04,2024-07-04,ＱＭＯＣ合同会社,,合同会社,兵庫県,芦屋市,三条町２３番１４号,,28,206,6590087,,,,,,,2024-07-04,1,,,,,クモック,0
1460,6140003020777,新規,0,2024-07-04,2024-07-04,ＣＡＵ　ＶＯＮＧ　ＤＯ合同会社,,合同会社,兵庫県,明石市,林崎町１丁目７番８号３階,,28,203,6730033,,,,,,,2024-07-04,1,,,,,カウヴォンド,0
1462,6150001027402,新規,0,2024-07-04,2024-07-04,株式会社ＲＡＣＣＡＲ,,株式会社,奈良県,奈良市,日笠町４５９,,29,201,6302173,,,,,,,2024-07-04,1,,,,,ラッカー,0
1464,6160001026056,新規,0,2024-07-04,2024-07-04,株式会社ａ‐ＴＥＣ,,株式会社,滋賀県,東近江市,小八木町１０２０番地,,25,213,5270108,,,,,,,2024-07-04,1,,,,,エーテック,0
1469,6180001162213,新規,0,2024-07-04,2024-07-04,株式会社インフルエンサーマーケティング＆コミュニケーションズ,,株式会社,愛知県,名古屋市西区,笹塚町２丁目９０番地,,23,104,4510077,,,,,,,2024-07-04,1,,,,,インフルエンサーマーケティングアンドコミュニケーションズ,0
1470,6180001162238,新規,0,2024-07-04,2024-07-04,株式会社リンク,,株式会社,愛知県,一宮市,浅井町尾関字奥屋敷３番地１サンハイツルナＩＩ１０３号,00135469,23,203,4910101,,,,,,,2024-07-04,1,,,,,リンク,0
1471,6180001162254,新規,0,2024-07-04,2024-07-04,株式会社創美企画,,株式会社,愛知県,名古屋市守山区,大森八龍１丁目２２１９番地,,23,113,4630028,,,,,,,2024-07-04,1,,,,,ソウビキカク,0
1472,6180001162279,新規,0,2024-07-04,2024-07-04,ｓｍｉｌｅ　Ｒｅｃｒｕｉｔｍｅｎｔ株式会社,,株式会社,愛知県,一宮市,丹陽町三ツ井字平山１５番地１,,23,203,4910826,,,,,,,2024-07-04,1,,,,,スマイルリクルートメント,0
1480,6180003027042,新規,0,2024-07-04,2024-07-04,エピカリス合同会社,,合同会社,愛知県,名古屋市中村区,名駅３丁目４番１０号アルティメイト名駅１ｓｔ２階,,23,105,4500002,,,,,,,2024-07-04,1,,,,,エピカリス,0
1483,6190001031458,新規,0,2024-07-04,2024-07-04,株式会社ＭｃＰａｇｅ,,株式会社,三重県,四日市市,大字西阿倉川１４１５番地７,,24,202,5100812,,,,,,,2024-07-04,1,,,,,マクペイジ,0
1484,6190005011968,新規,0,2024-07-04,2024-07-04,一般社団法人エコツーリズム伊勢志摩,,その他の設立登記法人,三重県,度会郡南伊勢町,五ケ所浦１００７番地１７,,24,472,5160101,,,,,,,2024-07-04,1,,,,,エコツーリズムイセシマ,0
1487,6210001019814,新規,0,2024-07-04,2024-07-04,株式会社ＫＤセコカン,,株式会社,福井県,福井市,日之出２丁目２番１３号,,18,201,9100859,,,,,,,2024-07-04,1,,,,,ケイディセコカン,0
1488,6210003001811,新規,0,2024-07-04,2024-07-04,合同会社ひといき,,合同会社,福井県,坂井市,丸岡町玄女第３１号１６番地１,,18,210,9100276,,,,,,,2024-07-04,1,,,,,ヒトイキ,0
1491,6230001020415,新規,0,2024-07-04,2024-07-04,株式会社エリアコミュニティネット,,株式会社,富山県,南砺市,福光栄町１０２６－６,,16,210,9391654,,,,,,,2024-07-04,1,,,,,エリアコミュニティネット,0
1492,6230001020423,新規,0,2024-07-04,2024-07-04,株式会社エヌケイシステム,,株式会社,富山県,富山市,住吉町１丁目２番１３号,,16,201,9300031,,,,,,,2024-07-04,1,,,,,エヌケイシステム,0
1495,6240001063470,新規,0,2024-07-04,2024-07-04,株式会社高橋工業,,株式会社,広島県,福山市,神辺町大字川南４８１番地７,,34,207,7202124,,,,,,,2024-07-04,1,,,,,タカハシコウギョウ,0
1500,6250001020719,新規,0,2024-07-04,2024-07-04,株式会社ズカズカプラスエヌ,,株式会社,山口県,山口市,湯田温泉２丁目３番２２号,,35,203,7530056,,,,,,,2024-07-04,1,,,,,ズカズカプラスエヌ,0
1502,6260001039213,新規,0,2024-07-04,2024-07-04,株式会社Ｂａｌｓ,,株式会社,岡山県,岡山市南区,泉田２１番地１昭和住宅５０２号,,33,104,7000944,,,,,,,2024-07-04,1,,,,,バルス,0
1503,6260001039221,新規,0,2024-07-04,2024-07-04,株式会社やまと本舗,,株式会社,岡山県,倉敷市,玉島八島１３０２番地,,33,202,7138113,,,,,,,2024-07-04,1,,,,,ヤマトホンポ,0
1508,6270003001640,新規,0,2024-07-04,2024-07-04,合同会社ＥＮＫＮＯＴ,,合同会社,鳥取県,米子市,淀江町淀江７９４番地８,,31,202,6893402,,,,,,,2024-07-04,1,,,,,エンノット,0
1510,6280005007619,新規,0,2024-07-04,2024-07-04,一般社団法人道川地域づくりの会,,その他の設立登記法人,島根県,益田市,匹見町道川イ１３３番地１,,32,204,6981201,,,,,,,2024-07-04,1,,,,,ミチカワチイキヅクリノカイ,0
1516,6290001106357,新規,0,2024-07-04,2024-07-04,九電都市開発投資顧問株式会社,,株式会社,福岡県,福岡市中央区,天神２丁目１２番１号,,40,133,8100001,,,,,,,2024-07-04,1,,,,,キュウデントシカイハツトウシコモン,0
1517,6290001106365,新規,0,2024-07-04,2024-07-04,株式会社ｓｉｎｃｅｒｅ　ｇｒｏｗｔｈ,,株式会社,福岡県,福岡市早良区,南庄１丁目１番１７号,,40,137,8140031,,,,,,,2024-07-04,1,,,,,シンシアグロウス,0
1518,6290001106373,新規,0,2024-07-04,2024-07-04,株式会社末次商店,,株式会社,福岡県,福岡市博多区,店屋町４番３２号１Ｆ,,40,132,8120025,,,,,,,2024-07-04,1,,,,,スエツグショウテン,0
1519,6290001106398,新規,0,2024-07-04,2024-07-04,株式会社Ｓｕｋｉｍａｎｉ,,株式会社,福岡県,福岡市中央区,荒戸１丁目８－１３荒戸池見ビル３０１,,40,133,8100062,,,,,,,2024-07-04,1,,,,,スキマニ,0
1522,6310001019093,新規,0,2024-07-04,2024-07-04,株式会社美波,,株式会社,長崎県,大村市,池田２丁目９６８番地１,,42,205,8560026,,,,,,,2024-07-04,1,,,,,ミナミ,0
1523,6320001020570,新規,0,2024-07-04,2024-07-04,株式会社東和テスターセンター,,株式会社,大分県,大分市,西新地２丁目２番４号,,44,201,8700901,,,,,,,2024-07-04,1,,,,,トウワテスターセンター,0
1524,6330003010461,新規,0,2024-07-04,2024-07-04,合同会社Ｏｏｒｅｄａｙ,,合同会社,熊本県,熊本市西区,出町７－２４ロマネスク出町２０３号,,43,103,8600074,,,,,,,2024-07-04,1,,,,,オーレディ,0
1528,6360003014121,新規,0,2024-07-04,2024-07-04,合同会社ＮＯＢＯＲＩＥＮフードサービス,,合同会社,沖縄県,宜野湾市,嘉数３丁目１８番１５－１号,,47,205,9012226,,,,,,,2024-07-04,1,,,,,ノボリエンフードサービス,0
1532,6380001034648,新規,0,2024-07-04,2024-07-04,ミカガク株式会社,,株式会社,福島県,福島市,太田町３３番５号１０３,,07,201,9608068,,,,,,,2024-07-04,1,,,,,,0
1536,6380005012848,新規,0,2024-07-04,2024-07-04,税理士法人庄司会計事務所,,その他の設立登記法人,福島県,いわき市,平字大町７番地の１平セントラルビル６階,,07,204,9708026,,,,,,,2024-07-04,1,,,,,ショウジカイケイジムショ,0
1538,6410001013862,新規,0,2024-07-04,2024-07-04,株式会社佐藤勘六商店,,株式会社,秋田県,にかほ市,大竹字下後２６番地,,05,214,0180322,,,,,,,2024-07-04,1,,,,,サトウカンロクショウテン,0
1539,6410003003952,新規,0,2024-07-04,2024-07-04,秋田県高齢者・障害者生活合同会社,,合同会社,秋田県,秋田市,寺内蛭根３丁目５番１１号,,05,201,0110904,,,,,,,2024-07-04,1,,,,,アキタケンコウレイシャショウガイシャセイカツ,0
1547,6430001092178,新規,0,2024-07-04,2024-07-04,株式会社ＫＳＲ,,株式会社,北海道,札幌市手稲区,新発寒五条８丁目９番１４号,,01,109,0060805,,,,,,,2024-07-04,1,,,,,ケーエスアール,0
1548,6430001092211,新規,0,2024-07-04,2024-07-04,株式会社札幌心理支援オフィス,,株式会社,北海道,札幌市手稲区,前田三条３丁目２番１７号,,01,109,0060813,,,,,,,2024-07-04,1,,,,,サッポロシンリシエンオフィス,0
1549,6430003016507,新規,0,2024-07-04,2024-07-04,リィテック合同会社,,合同会社,北海道,札幌市東区,伏古一条５丁目１番１－３０３号,,01,103,0070861,,,,,,,2024-07-04,1,,,,,リィテック,0
1550,6430003016515,新規,0,2024-07-04,2024-07-04,合同会社ニセコボディーワークス,,合同会社,北海道,虻田郡ニセコ町,字本通６番地３,,01,395,0481502,,,,,,,2024-07-04,1,,,,,ニセコボディーワークス,0
1551,6430003016523,新規,0,2024-07-04,2024-07-04,合同会社グローアップカンパニー,,合同会社,北海道,北広島市,輪厚５５０番地８,,01,234,0611264,,,,,,,2024-07-04,1,,,,,グローアップカンパニー,0
1560,6490001010811,新規,0,2024-07-04,2024-07-04,中西厩舎ＴＡＴＳＵＹＡ・ＲＡＣＩＮＧ株式会社,,株式会社,高知県,高知市,長浜宮田２０００番地３５号,,39,201,7810271,,,,,,,2024-07-04,1,,,,,ナカニシキュウシャタツヤレーシング,0
1566,6500001025741,新規,0,2024-07-04,2024-07-04,わたがみ株式会社,,株式会社,愛媛県,松山市,湊町４丁目５番地６,,38,201,7900012,,,,,,,2024-07-04,1,,,,,ワタガミ,0
1573,7010001246188,新規,0,2024-07-04,2024-07-04,株式会社ＢＡＩＺ,,株式会社,東京都,千代田区,神田淡路町２丁目３淡路町トーセイビル４Ｆ,,13,101,1010063,,,,,,,2024-07-04,1,,,,,バイズ,0
1574,7010001246205,新規,0,2024-07-04,2024-07-04,株式会社フリージアール,,株式会社,東京都,中央区,銀座１丁目２２番１１号銀座大竹ビジデンス２Ｆ,,13,102,1040061,,,,,,,2024-07-04,1,,,,,フリージアール,0
1575,7010001246213,新規,0,2024-07-04,2024-07-04,ＲＩＤＩ　ＪＡＰＡＮ株式会社,,株式会社,東京都,千代田区,内幸町２丁目２番２号富国生命ビル渥美坂井法律事務所・外国法共同事業内,,13,101,1000011,,,,,,,2024-07-04,1,,,,,リディジャパン,0
1576,7010001246246,新規,0,2024-07-04,2024-07-04,カプタスリーシング株式会社,,株式会社,東京都,千代田区,丸の内１丁目３番２号,,13,101,1000005,,,,,,,2024-07-04,1,,,,,カプタスリーシング,0
1577,7010001246254,新規,0,2024-07-04,2024-07-04,Ｒａｐｙｕｔａ　Ｒｏｂｏｔｉｃｓ　Ｓｕｂｓｃｒｉｐｔｉｏｎ　Ｓｅｒｖｉｃｅｓ株式会社,,株式会社,東京都,中央区,銀座８丁目１３番１号,,13,102,1040061,,,,,,,2024-07-04,1,,,,,ラピュタロボティクスサブスクリプションサービス,0
1578,7010001246279,新規,0,2024-07-04,2024-07-04,株式会社マレ,,株式会社,東京都,千代田区,一番町２７番地,,13,101,1020082,,,,,,,2024-07-04,1,,,,,マレ,0
1579,7010001246287,新規,0,2024-07-04,2024-07-04,ＭＩＮＡＭＯ株式会社,,株式会社,東京都,中央区,銀座１丁目１２－４Ｎ＆ＥＢＬＤ．７階,,13,102,1040061,,,,,,,2024-07-04,1,,,,,ミナモ,0
1582,7010003044185,新規,0,2024-07-04,2024-07-04,合同会社ＫＲＦ１０８,,合同会社,東京都,千代田区,内幸町２丁目１番６号,,13,101,1000011,,,,,,,2024-07-04,1,,,,,ケイアールエフヒャクハチ,0
1583,7010003044235,新規,0,2024-07-04,2024-07-04,合同会社Ｓａｋｕｒａ　Ｆｕｔｕｒｅ,,合同会社,東京都,中央区,銀座１丁目１２番４号Ｎ＆ＥＢＬＤ．６Ｆ,,13,102,1040061,,,,,,,2024-07-04,1,,,,,サクラフューチャー,0
1596,7010401183568,新規,0,2024-07-04,2024-07-04,株式会社スタジオイチキュウサンゼロ,,株式会社,東京都,港区,北青山１丁目３番１号アールキューブ青山３階,,13,103,1070061,,,,,,,2024-07-04,1,,,,,スタジオイチキュウサンゼロ,0
1603,7010501052549,新規,0,2024-07-04,2024-07-04,株式会社Ｖｅｎｔｕｎｏ　Ｊａｐａｎ,,株式会社,東京都,台東区,東上野６丁目１９番１７号石田ビル３Ｆ,,13,106,1100015,,,,,,,2024-07-04,1,,,,,ヴェントウーノジャパン,0
1606,7010601065475,新規,0,2024-07-04,2024-07-04,株式会社ロックス,,株式会社,東京都,江東区,有明１丁目２番１１－２７０７号,,13,108,1350063,,,,,,,2024-07-04,1,,,,,ロックス,0
1607,7010605004339,新規,0,2024-07-04,2024-07-04,一般社団法人フリープロパートナーズ,,その他の設立登記法人,東京都,江東区,亀戸１丁目３６番４号,,13,108,1360071,,,,,,,2024-07-04,1,,,,,フリープロパートナーズ,0
1608,7010701046202,新規,0,2024-07-04,2024-07-04,ベニー商事株式会社,,株式会社,東京都,品川区,西大井４丁目１３番１２号,,13,109,1400015,,,,,,,2024-07-04,1,,,,,ベニーショウジ,0
1609,7010701046210,新規,0,2024-07-04,2024-07-04,株式会社ＵＳＥＮ　ＦＩＥＬＤＩＮＧ,,株式会社,東京都,品川区,上大崎３丁目１番１号,,13,109,1410021,,,,,,,2024-07-04,1,,,,,ユウセンフィールディング,0
1618,7010901055564,新規,0,2024-07-04,2024-07-04,株式会社エトスコンサルティング,,株式会社,東京都,世田谷区,下馬６丁目３１番３号,,13,112,1540002,,,,,,,2024-07-04,1,,,,,エトスコンサルティング,0
1619,7010903009205,新規,0,2024-07-04,2024-07-04,合同会社ＳＪ,,合同会社,東京都,世田谷区,砧５丁目１９番１１号,,13,112,1570073,,,,,,,2024-07-04,1,,,,,エスジェイ,0
1621,7011001163118,新規,0,2024-07-04,2024-07-04,株式会社Ｕｐ　Ｔｏ　Ｙｏｕ,,株式会社,東京都,渋谷区,渋谷３丁目２番４号,,13,113,1500002,,,,,,,2024-07-04,1,,,,,アップトゥーユー,0
1622,7011001163142,新規,0,2024-07-04,2024-07-04,株式会社クリエイティブストア,,株式会社,東京都,渋谷区,神宮前３丁目１６番５－４０３号,,13,113,1500001,,,,,,,2024-07-04,1,,,,,クリエイティブストア,0
1623,7011001163167,新規,0,2024-07-04,2024-07-04,Ｃ‐ｄｅｓｉｇｎ株式会社,,株式会社,東京都,渋谷区,恵比寿西２丁目４番８号ウィンド恵比寿ビル８Ｆ,,13,113,1500021,,,,,,,2024-07-04,1,,,,,シーデザイン,0
1624,7011001163183,新規,0,2024-07-04,2024-07-04,ＫＮ株式会社,,株式会社,東京都,渋谷区,宇田川町１番１２－２９０８号パークコート渋谷ザタワー,,13,113,1500042,,,,,,,2024-07-04,1,,,,,ケーエヌ,0
1631,7011101107841,新規,0,2024-07-04,2024-07-04,ＰＥＡＣＥ　ＳＴＯＣＫ　ＷＯＲＬＤ株式会社,,株式会社,東京都,新宿区,西新宿２丁目６番１号,,13,104,1600023,,,,,,,2024-07-04,1,,,,,ピースストックワールド,0
1632,7011101107899,新規,0,2024-07-04,2024-07-04,ＳＪＣＪ日本株式会社,,株式会社,東京都,新宿区,西新宿７丁目２番６号西新宿Ｋ－１ビル３階,,13,104,1600023,,,,,,,2024-07-04,1,,,,,エスジェイシージェイニホン,0
1633,7011101107916,新規,0,2024-07-04,2024-07-04,株式会社Ｉ　ＬＯＶＥ　ＹＯＵ　ＥＮＴＥＲＴＡＩＮＭＥＮＴ　ＭＵＳＩＣ,,株式会社,東京都,新宿区,西新宿７丁目１９－７サンローゼ新宿４０１号室,,13,104,1600023,,,,,,,2024-07-04,1,,,,,アイラブユーエンターテイメントミュージック,0
1634,7011101107940,新規,0,2024-07-04,2024-07-04,株式会社住湘プロパティ,,株式会社,東京都,新宿区,歌舞伎町２丁目４番１１号,,13,104,1600021,,,,,,,2024-07-04,1,,,,,ジュウショウプロパティ,0
1635,7011203004433,新規,0,2024-07-04,2024-07-04,ＴＥＴＲＡＳ合同会社,,合同会社,東京都,中野区,弥生町５丁目８番４号メゾンドオピュール,,13,114,1640013,,,,,,,2024-07-04,1,,,,,テトラス,0
1638,7011501030874,新規,0,2024-07-04,2024-07-04,株式会社ストリートロック,,株式会社,東京都,荒川区,東日暮里５丁目７番８－６０９号,,13,118,1160014,,,,,,,2024-07-04,1,,,,,ストリートロック,0
1644,7011703003892,新規,0,2024-07-04,2024-07-04,合同会社ミタマ,,合同会社,東京都,江戸川区,篠崎町２丁目７番１－１３０２号イーストハイム篠崎,,13,123,1330061,,,,,,,2024-07-04,1,,,,,ミタマ,0
1645,7011801044475,新規,0,2024-07-04,2024-07-04,株式会社Ｏｖｅｒ　ｔｈｅ　ｍｏｏｎ,,株式会社,東京都,葛飾区,新宿６丁目２番１号,,13,122,1250051,,,,,,,2024-07-04,1,,,,,オーバーザムーン,0
1646,7011801044491,新規,0,2024-07-04,2024-07-04,株式会社木之縁,,株式会社,東京都,足立区,六月２丁目５番１２号第３清孝荘２０１,,13,121,1210814,,,,,,,2024-07-04,1,,,,,キノエン,0
1650,7011803006317,新規,0,2024-07-04,2024-07-04,合同会社ｙｚトランス,,合同会社,東京都,足立区,青井５丁目１番１４号,,13,121,1210012,,,,,,,2024-07-04,1,,,,,ワイゼットトランス,0
1652,7012403006649,新規,0,2024-07-04,2024-07-04,合同会社Ｒｅｍｏｎｔ‐Ｌａｂ,,合同会社,東京都,狛江市,和泉本町１丁目１－２０,,13,219,2010003,,,,,,,2024-07-04,1,,,,,レモントラボ,0
1653,7012405005013,新規,0,2024-07-04,2024-07-04,一般社団法人ココペリ,,その他の設立登記法人,東京都,小金井市,梶野町１丁目２番３６号,,13,210,1840002,,,,,,,2024-07-04,1,,,,,ココペリ,0
1655,7013301052751,新規,0,2024-07-04,2024-07-04,株式会社ケイエスアイティージャパン,,株式会社,東京都,豊島区,東池袋５丁目７番３号アゼリア東池袋４０１,,13,116,1700013,,,,,,,2024-07-04,1,,,,,ケイエスアイティージャパン,0
1659,7020003026439,新規,0,2024-07-04,2024-07-04,合同会社熱量,,合同会社,神奈川県,川崎市川崎区,南町３番２ジェノヴィア川崎駅グリーンヴェール２０４号室,,14,131,2100015,,,,,,,2024-07-04,1,,,,,ネツリョウ,0
1669,7030001161237,新規,0,2024-07-04,2024-07-04,高橋化成工業株式会社,00135470,株式会社,埼玉県,川口市,上青木６丁目３２番５号,,11,203,3330844,,,,,,,2024-07-04,1,,,,,タカハシカセイコウギョウ,0
1670,7030001161294,新規,0,2024-07-04,2024-07-04,株式会社レッカーサービス２４,,株式会社,埼玉県,春日部市,椚５３５－２,,11,214,3440133,,,,,,,2024-07-04,1,,,,,レッカーサービスニジュウヨン,0
1673,7030003024441,新規,0,2024-07-04,2024-07-04,合同会社コンフィデンス,,合同会社,埼玉県,戸田市,大字新曽１６１６番地の３ＦＯＲＰＥＳＣＡ１０２号室,,11,224,3350021,,,,,,,2024-07-04,1,,,,,コンフィデンス,0
1674,7030003024656,新規,0,2024-07-04,2024-07-04,合同会社ゴッド,,合同会社,埼玉県,入間郡毛呂山町,岩井東１丁目１７－４フォレストファミリー毛呂山２０３号室,,11,326,3500467,,,,,,,2024-07-04,1,,,,,ゴッド,0
1675,7030005021750,新規,0,2024-07-04,2024-07-04,一般社団法人クロノス科学研究所,,その他の設立登記法人,埼玉県,鴻巣市,神明１丁目６番２０号,,11,217,3650074,,,,,,,2024-07-04,1,,,,,クロノスカガクケンキュウジョ,0
1677,7040001134290,新規,0,2024-07-04,2024-07-04,日本東海一帆株式会社,,株式会社,千葉県,船橋市,印内２丁目３番１５号ＴＯＰ西船橋第一１０３,,12,204,2730039,,,,,,,2024-07-04,1,,,,,ニホントウカイイチホ,0
1678,7040001134332,新規,0,2024-07-04,2024-07-04,株式会社カーショップＫＩＮＧ,,株式会社,千葉県,八街市,八街へ１９９番地１８９２,,12,230,2891113,,,,,,,2024-07-04,1,,,,,カーショップキング,0
1680,7050001055065,新規,0,2024-07-04,2024-07-04,株式会社ｉｎｎｏｖａｔｉｏｎ,,株式会社,茨城県,水戸市,下野町７８０番地,,08,201,3190322,,,,,,,2024-07-04,1,,,,,イノベーション,0
1684,7060001037252,新規,0,2024-07-04,2024-07-04,株式会社カワサキ断熱工業,,株式会社,栃木県,足利市,助戸３丁目１８０１番地５,,09,202,3260044,,,,,,,2024-07-04,1,,,,,カワサキダンネツコウギョウ,0
1692,7080101024867,新規,0,2024-07-04,2024-07-04,株式会社ＴＡＭＵＲＯ,,株式会社,静岡県,三島市,一番町２０番３号青木ビル１Ｆ,,22,206,4110036,,,,,,,2024-07-04,1,,,,,タムロ,0
1699,7100001037611,新規,0,2024-07-04,2024-07-04,株式会社ニーズテック,,株式会社,長野県,塩尻市,大字洗馬５４２番地１,,20,215,3996462,,,,,,,2024-07-04,1,,,,,ニーズテック,0
1702,7110001038526,新規,0,2024-07-04,2024-07-04,株式会社ファインド・ザ・ウェイ,,株式会社,新潟県,新潟市東区,海老ケ瀬４１４番地,,15,102,9500806,,,,,,,2024-07-04,1,,,,,ファインドザウェイ,0
1710,7120001266415,新規,0,2024-07-04,2024-07-04,ＨＴＭＳ株式会社,,株式会社,大阪府,大阪市東住吉区,鷹合４丁目１２番２０－４０３号,,27,121,5460014,,,,,,,2024-07-04,1,,,,,エイチティーエムエス,0
1711,7120001266456,新規,0,2024-07-04,2024-07-04,株式会社吉田構造設計,,株式会社,大阪府,大阪市中央区,谷町９丁目２番２７号谷九ビル,,27,128,5420012,,,,,,,2024-07-04,1,,,,,ヨシダコウゾウセッケイ,0
1712,7120001266464,新規,0,2024-07-04,2024-07-04,株式会社岩谷整骨院,,株式会社,大阪府,大阪市淀川区,三津屋北１丁目２番２１号,,27,123,5320032,,,,,,,2024-07-04,1,,,,,イワタニセイコツイン,0
1713,7120001266547,新規,0,2024-07-04,2024-07-04,株式会社オールインワン,,株式会社,大阪府,大阪市平野区,加美東３丁目１６番２２号,,27,126,5470002,,,,,,,2024-07-04,1,,,,,オールインワン,0
1714,7120003026973,新規,0,2024-07-04,2024-07-04,合同会社Ａｌｌ　Ｂｅｔｓ,,合同会社,大阪府,大阪市淀川区,東三国５丁目１３番１５号マンションコンドル５０３号,,27,123,5320002,,,,,,,2024-07-04,1,,,,,オールベッツ,0
1718,7120101069908,新規,0,2024-07-04,2024-07-04,株式会社Ｆ．Ｔ．Ｃ,,株式会社,大阪府,藤井寺市,藤井寺１丁目７番２５号,,27,226,5830024,,,,,,,2024-07-04,1,,,,,エフティーシー,0
1720,7120901049407,新規,0,2024-07-04,2024-07-04,株式会社Ｋ企画,,株式会社,大阪府,吹田市,藤白台４丁目２７番１１号,,27,205,5650873,,,,,,,2024-07-04,1,,,,,ケイキカク,0
1721,7120901049423,新規,0,2024-07-04,2024-07-04,株式会社まんなかクリエイト,,株式会社,大阪府,高槻市,松が丘３丁目６番１０号,,27,207,5691031,,,,,,,2024-07-04,1,,,,,マンナカクリエイト,0
1723,7122001038240,新規,0,2024-07-04,2024-07-04,株式会社ｗｉｓｈ,,株式会社,大阪府,東大阪市,横枕１２番３５号,,27,227,5780954,,,,,,,2024-07-04,1,,,,,ウィッシュ,0
1729,7140001134974,新規,0,2024-07-04,2024-07-04,株式会社エムアンドシー,,株式会社,兵庫県,三田市,高次１丁目６－１４,,28,219,6691512,,,,,,,2024-07-04,1,,,,,エムアンドシー,0
1730,7140001134990,新規,0,2024-07-04,2024-07-04,株式会社ボディショップ共進,,株式会社,兵庫県,丹波篠山市,小原５０３番地,,28,221,6692604,,,,,,,2024-07-04,1,,,,,ボディショップキョウシン,0
1731,7140001134999,新規,0,2024-07-04,2024-07-04,サクラエステート株式会社,,株式会社,兵庫県,西宮市,越水町２番６－１０１号,,28,204,6620864,,,,,,,2024-07-04,1,,,,,サクラエステート,0
1732,7140001135007,新規,0,2024-07-04,2024-07-04,大同株式会社,,株式会社,兵庫県,三田市,ゆりのき台５丁目８番地９５,,28,219,6691324,,,,,,,2024-07-04,1,,,,,ダイドウ,0
1733,7140001135031,新規,0,2024-07-04,2024-07-04,株式会社ＴｏｋｅｉＭｅｄｉｃ,,株式会社,兵庫県,尼崎市,東園田町４丁目１４８－５,,28,202,6610953,,,,,,,2024-07-04,1,,,,,トケイメディック,0
1734,7140005027142,新規,0,2024-07-04,2024-07-04,弁護士法人あわじみらい法律会計事務所,,その他の設立登記法人,兵庫県,南あわじ市,市福永５６３－２２,,28,224,6560478,,,,,,,2024-07-04,1,,,,,アワジミライホウリツカイケイジムショ,0
1736,7160001026047,新規,0,2024-07-04,2024-07-04,株式会社ＭＲＳ,,株式会社,滋賀県,近江八幡市,西生来町７８２番地,,25,204,5230004,,,,,,,2024-07-04,1,,,,,エムアールエス,0
1737,7160001026055,新規,0,2024-07-04,2024-07-04,株式会社ペルビスラボ,,株式会社,滋賀県,大津市,湖城が丘２８番７号,,25,201,5200821,,,,,,,2024-07-04,1,,,,,ペルビスラボ,0
1741,7170001018209,新規,0,2024-07-04,2024-07-04,株式会社大聡工業,,株式会社,和歌山県,和歌山市,梅原１０４番地４０,,30,201,6408452,,,,,,,2024-07-04,1,,,,,ダイソウコウギョウ,0
1746,7180003027033,新規,0,2024-07-04,2024-07-04,合同会社オルカ,,合同会社,愛知県,名古屋市千種区,萱場２丁目７番１３号,,23,101,4640086,,,,,,,2024-07-04,1,,,,,オルカ,0
1748,7180305009588,新規,0,2024-07-04,2024-07-04,一般社団法人休耕地ハッピープロジェクト,,その他の設立登記法人,愛知県,豊川市,一宮町大池１０８番地１,,23,207,4411231,,,,,,,2024-07-04,1,,,,,キュウコウチハッピープロジェクト,0
1749,7190001031449,新規,0,2024-07-04,2024-07-04,株式会社ＬｉａｉｓｏｎＦａｒｍ２１,,株式会社,三重県,津市,高茶屋小森町９９１番地１,,24,201,5140817,,,,,,,2024-07-04,1,,,,,リエゾンファームニジュウイチ,0
1750,7190001031465,新規,0,2024-07-04,2024-07-04,株式会社ｂｌｕｅ　ｇｒａｄａｔｉｏｎ,,株式会社,三重県,桑名市,大山田３丁目７番地１３,,24,205,5110903,,,,,,,2024-07-04,1,,,,,ブルーグラデーション,0
1754,7200001042659,新規,0,2024-07-04,2024-07-04,株式会社ＧＴ,,株式会社,岐阜県,羽島郡岐南町,八剣６丁目５３番地,,21,302,5016012,,,,,,,2024-07-04,1,,,,,ジーティー,0
1756,7210001019813,新規,0,2024-07-04,2024-07-04,株式会社ホーリック,,株式会社,福井県,小浜市,遠敷８丁目３１０番地の１,,18,204,9170241,,,,,,,2024-07-04,1,,,,,ホーリック,0
1760,7230001020414,新規,0,2024-07-04,2024-07-04,株式会社ＡＲＭ,,株式会社,富山県,小矢部市,七社１２４番地４７,,16,209,9320802,,,,,,,2024-07-04,1,,,,,エーアールエム,0
1761,7230001020422,新規,0,2024-07-04,2024-07-04,株式会社濱岡商店,,株式会社,富山県,魚津市,末広町２番２０号,,16,204,9370059,,,,,,,2024-07-04,1,,,,,ハマオカショウテン,0
1763,7240001063461,新規,0,2024-07-04,2024-07-04,株式会社ダイクレ商事,,株式会社,広島県,呉市,築地町１番２４号,,34,202,7370822,,,,,,,2024-07-04,1,,,,,ダイクレショウジ,0
1764,7240001063478,新規,0,2024-07-04,2024-07-04,株式会社ネクストバリュークリエイト,,株式会社,広島県,呉市,広吉松１丁目１番２７号,,34,202,7370121,,,,,,,2024-07-04,1,,,,,,0
1771,7260001039237,新規,0,2024-07-04,2024-07-04,株式会社Ｇｒｏｗ,,株式会社,岡山県,岡山市中区,祇園５９０番地５,00135460,33,102,7038207,,,,,,,2024-07-04,1,,,,,グロウ,0
1775,7280001009205,新規,0,2024-07-04,2024-07-04,株式会社Ｓ‐ＦＩＥＬＤ,,株式会社,島根県,雲南市,三刀屋町古城１１９０番地,,32,209,6902405,,,,,,,2024-07-04,1,,,,,エスフィールド,0
1780,7290001106356,新規,0,2024-07-04,2024-07-04,株式会社光橋工業,,株式会社,福岡県,八女市,蒲原２２５番地１,,40,210,8340064,,,,,,,2024-07-04,1,,,,,ミツハシコウギョウ,0
1781,7290001106389,新規,0,2024-07-04,2024-07-04,株式会社ＯＥＮＳ,,株式会社,福岡県,福岡市中央区,天神４丁目６番２８号天神ファーストビル７階,,40,133,8100001,,,,,,,2024-07-04,1,,,,,オーエンス,0
1788,7320003004406,新規,0,2024-07-04,2024-07-04,合同会社ＬＩＮＫ,,合同会社,大分県,大分市,豊饒３丁目１１番１７号,,44,201,8700855,,,,,,,2024-07-04,1,,,,,,0
1791,7340001026615,新規,0,2024-07-04,2024-07-04,扶桑建設株式会社,,株式会社,鹿児島県,鹿児島市,上之園町２６番２２号,,46,201,8900052,,,,,,,2024-07-04,1,,,,,フソウケンセツ,0
1792,7340001026623,新規,0,2024-07-04,2024-07-04,株式会社笠工業,,株式会社,鹿児島県,薩摩川内市,平佐町２１４８番地,,46,215,8950012,,,,,,,2024-07-04,1,,,,,リュウコウギョウ,0
1793,7340001026631,新規,0,2024-07-04,2024-07-04,株式会社協水工業,,株式会社,鹿児島県,姶良市,加治木町木田４６３０番地７ヴィラナリーあいら１－４３,,46,225,8995241,,,,,,,2024-07-04,1,,,,,キョウスイコウギョウ,0
1796,7360001033873,新規,0,2024-07-04,2024-07-04,株式会社ＢｅＡｕｔｈ,,株式会社,沖縄県,那覇市,銘苅３丁目９番２２号キャンディービル２階,,47,201,9000004,,,,,,,2024-07-04,1,,,,,ビオース,0
1797,7360001033898,新規,0,2024-07-04,2024-07-04,株式会社創美,,株式会社,沖縄県,浦添市,牧港５丁目１７番１号,,47,208,9012131,,,,,,,2024-07-04,1,,,,,ソウビ,0
1800,7360003014120,新規,0,2024-07-04,2024-07-04,合同会社ＦＷＣ,,合同会社,沖縄県,中頭郡北谷町,伊平２丁目４番３１号ベアーズコート桑江タウンリゾート５０２,,47,326,9040102,,,,,,,2024-07-04,1,,,,,エフダブリューシー,0
1811,7410003003951,新規,0,2024-07-04,2024-07-04,すてっぷ合同会社,,合同会社,秋田県,仙北市,角館町小勝田下村１番地１５,,05,215,0140347,,,,,,,2024-07-04,1,,,,,ステップ,0
1815,7430001092152,新規,0,2024-07-04,2024-07-04,株式会社グローカルラボ,,株式会社,北海道,札幌市東区,北七条東３丁目２番地３,,01,103,0600907,,,,,,,2024-07-04,1,,,,,グローカルラボ,0
1816,7430001092210,新規,0,2024-07-04,2024-07-04,ＳＴＲＳ株式会社,,株式会社,北海道,札幌市北区,東茨戸三条１丁目１０番１３号,,01,102,0028044,,,,,,,2024-07-04,1,,,,,エスティーアールエス,0
1818,7430003016514,新規,0,2024-07-04,2024-07-04,合同会社グッドライフ,,合同会社,北海道,札幌市豊平区,月寒東四条１７丁目４番５－２号,,01,105,0620054,,,,,,,2024-07-04,1,,,,,グッドライフ,0
1830,7500001025732,新規,0,2024-07-04,2024-07-04,株式会社東家,,株式会社,愛媛県,松山市,山西町６７１番地２,,38,201,7918026,,,,,,,2024-07-04,1,,,,,アズマヤ,0
1831,7500001025740,新規,0,2024-07-04,2024-07-04,株式会社創笑,,株式会社,愛媛県,松山市,下伊台町乙７４番地８１,,38,201,7910112,,,,,,,2024-07-04,1,,,,,ソウショウ,0
1833,7700150059412,新規,0,2024-07-04,2015-10-09,岬地区コミュニティ運営協議会,,その他,福岡県,宗像市,鐘崎７７６－４,,40,220,8113512,,,,,,,2015-10-09,1,,,,,ミサキチクコミユニテイウンエイキヨウギカイ,0
1834,7700150126369,新規,0,2024-07-04,2024-07-04,海老名市中新田丸太地区土地区画整理組合,,その他,神奈川県,海老名市,中新田１７６２番地,,14,215,2430422,,,,,,,2024-07-04,1,,,,,エビナシナカシンデンマルタチクトチクカクセイリクミアイ,0
1835,7700150126377,新規,0,2024-07-04,2024-07-04,ＨＥＡＬＴＨＣＡＲＥ　ＳＵＰＰＯＲＴ　ＣＯＲＰ．ＦＺＥ,,外国会社等,東京都,中央区,八重洲２丁目１番１号ＹＡＮＭＡＲＴＯＫＹＯ１２階,,13,102,1040028,アラブ首長国連邦フジャイラ首長国私書箱５１１３５,,,,,,2024-07-04,1,,,,,ヘルスケアサポートコープエフゼットイー,0
1839,8010001245949,新規,0,2024-07-04,2024-07-04,株式会社ＮＯＡＣＲＥＡＴＥ,,株式会社,東京都,中央区,銀座１丁目１２－４Ｎ＆ＥＢＬＤ．７階,,13,102,1040061,,,,,,,2024-07-04,1,,,,,ノアクリエイト,0
1840,8010001246170,新規,0,2024-07-04,2024-07-04,株式会社Ｄ４Ａｌｌ,,株式会社,東京都,千代田区,丸の内１丁目６番５号丸の内北口ビルディング９階,,13,101,1000005,,,,,,,2024-07-04,1,,,,,ディフォール,0
1841,8010001246204,新規,0,2024-07-04,2024-07-04,平安瑞穂株式会社,,株式会社,東京都,千代田区,岩本町２丁目１７番４号,,13,101,1010032,,,,,,,2024-07-04,1,,,,,ヘイアンミズホ,0
1842,8010001246245,新規,0,2024-07-04,2024-07-04,ギョベクリテペリーシング株式会社,,株式会社,東京都,千代田区,丸の内１丁目３番２号,,13,101,1000005,,,,,,,2024-07-04,1,,,,,ギョベクリテペリーシング,0
1843,8010001246261,新規,0,2024-07-04,2024-07-04,株式会社ＦｉｅｌｄＣｏｍｐａｓｓ,,株式会社,東京都,千代田区,岩本町２丁目１３番６号ミツボシ第３ビル,,13,101,1010032,,,,,,,2024-07-04,1,,,,,フィールドコンパス,0
1846,8010003044234,新規,0,2024-07-04,2024-07-04,ＬＥＧＡＬ‐ＡＤ．ＴＥＣＨ合同会社,,合同会社,東京都,中央区,銀座１丁目２２番１１号銀座大竹ビジデンス２階,,13,102,1040061,,,,,,,2024-07-04,1,,,,,リーガルアドテック,0
1847,8010003044242,新規,0,2024-07-04,2024-07-04,ＲＥＤ　ＰＡＮ合同会社,,合同会社,東京都,千代田区,岩本町３丁目１１－７滝上ビル１Ｆ,,13,101,1010032,,,,,,,2024-07-04,1,,,,,レッドパン,0
1848,8010101016226,新規,0,2024-07-04,2024-07-04,株式会社青木組,,株式会社,東京都,八王子市,南町６番１０号,,13,201,1920072,,,,,,,2024-07-04,1,,,,,アオキグミ,0
1859,8010401183550,新規,0,2024-07-04,2024-07-04,株式会社ウィズダム,,株式会社,東京都,港区,芝２丁目２９番７－３０２号,,13,103,1050014,,,,,,,2024-07-04,1,,,,,ウィズダム,0
1860,8010401183567,新規,0,2024-07-04,2024-07-04,レイエイトエナジー株式会社,,株式会社,東京都,港区,虎ノ門１丁目１７番１号,,13,103,1050001,,,,,,,2024-07-04,1,,,,,レイエイトエナジー,0
1863,8010403032870,新規,0,2024-07-04,2024-07-04,ｐｏｒｔｅｒｃｏｅｕｒ合同会社,,合同会社,東京都,港区,麻布台３丁目５番５－６０１号,,13,103,1060041,,,,,,,2024-07-04,1,,,,,ポーターク,0
1865,8010701046218,新規,0,2024-07-04,2024-07-04,株式会社ピーオーグローバル,,株式会社,東京都,品川区,西五反田２丁目２番３号,,13,109,1410031,,,,,,,2024-07-04,1,,,,,ピーオーグローバル,0
1868,8010901055563,新規,0,2024-07-04,2024-07-04,株式会社ギアプロダクション,,株式会社,東京都,世田谷区,奥沢４丁目５番１－６０２号,,13,112,1580083,,,,,,,2024-07-04,1,,,,,ギアプロダクション,0
1869,8010901055571,新規,0,2024-07-04,2024-07-04,光リフォーム株式会社,,株式会社,東京都,世田谷区,船橋４丁目１番６号,,13,112,1560055,,,,,,,2024-07-04,1,,,,,ヒカリリフォーム,0
1870,8010901055588,新規,0,2024-07-04,2024-07-04,株式会社山幸,,株式会社,東京都,世田谷区,等々力７丁目１４番２－２０３号,,13,112,1580082,,,,,,,2024-07-04,1,,,,,ヤマコウ,0
1871,8010903009179,新規,0,2024-07-04,2024-07-04,合同会社Ｆｒｏｎｔ　Ｒｏｗ,,合同会社,東京都,世田谷区,祖師谷５丁目４２番８号,,13,112,1570072,,,,,,,2024-07-04,1,,,,,フロントロー,0
1875,8011001163158,新規,0,2024-07-04,2024-07-04,株式会社瘢痕削り,,株式会社,東京都,渋谷区,恵比寿１丁目１３番６号第２伊藤ビル２０２,,13,113,1500013,,,,,,,2024-07-04,1,,,,,ハンコンケズリ,0
1876,8011001163224,新規,0,2024-07-04,2024-07-04,ｇｕｔｓ株式会社,,株式会社,東京都,渋谷区,宇田川町２番１－３１３Ｈ号,,13,113,1500042,,,,,,,2024-07-04,1,,,,,ガッツ,0
1877,8011003019515,新規,0,2024-07-04,2024-07-04,ドミナントエモーション合同会社,,合同会社,東京都,渋谷区,神宮前６丁目２３番４号桑野ビル２階,,13,113,1500001,,,,,,,2024-07-04,1,,,,,ドミナントエモーション,0
1879,8011101107972,新規,0,2024-07-04,2024-07-04,株式会社たいこうや,,株式会社,東京都,新宿区,新宿１丁目２８－１７－１３０５,,13,104,1600022,,,,,,,2024-07-04,1,,,,,タイコウヤ,0
1881,8011501030881,新規,0,2024-07-04,2024-07-04,董和株式会社,,株式会社,東京都,北区,滝野川７丁目４９番１８号ＴＫ滝野川１０１号室,,13,117,1140023,,,,,,,2024-07-04,1,,,,,トウワ,0
1882,8011503006137,新規,0,2024-07-04,2024-07-04,合同会社Ｈ．Ｍ．Ｙ,,合同会社,東京都,荒川区,荒川１丁目８番４号,,13,118,1160002,,,,,,,2024-07-04,1,,,,,エイチエムワイ,0
1883,8011505002638,新規,0,2024-07-04,2024-07-04,一般社団法人日本鉄道接触力学会,,その他の設立登記法人,東京都,北区,西ケ原１丁目３８番１３号,,13,117,1140024,,,,,,,2024-07-04,1,,,,,ニホンテツドウセッショクリキガッカイ,0
1885,8011801044474,新規,0,2024-07-04,2024-07-04,株式会社関九興業,,株式会社,東京都,葛飾区,小菅１丁目９番５号,,13,122,1240001,,,,,,,2024-07-04,1,,,,,カンキュウコウギョウ,0
1889,8011803006316,新規,0,2024-07-04,2024-07-04,コバヤシ国際貿易合同会社,,合同会社,東京都,足立区,東伊興１丁目８番７－１０５号,,13,121,1210801,,,,,,,2024-07-04,1,,,,,コバヤシコクサイボウエキ,0
1893,8012701018337,新規,0,2024-07-04,2024-07-04,株式会社Ａｒｅａｆｒｅｅ,,株式会社,東京都,東久留米市,下里３丁目１１番１９号ホワイトシャトレー２０５号室,,13,222,2030043,,,,,,,2024-07-04,1,,,,,エリアフリー,0
1894,8012801023286,新規,0,2024-07-04,2024-07-04,株式会社ソフトスペース,,株式会社,東京都,国分寺市,富士本１丁目２１－２３―２０３,,13,214,1850031,,,,,,,2024-07-04,1,,,,,ソフトスペース,0
1904,8021001082638,新規,0,2024-07-04,2024-07-04,株式会社Ｆクリーン,,株式会社,神奈川県,厚木市,寿町３丁目１５番１８号,,14,212,2430003,,,,,,,2024-07-04,1,,,,,エフクリーン,0
1907,8021003014713,新規,0,2024-07-04,2024-07-04,アルセア合同会社,,合同会社,神奈川県,小田原市,栄町２丁目１２番４１－２号,,14,206,2500011,,,,,,,2024-07-04,1,,,,,アルセア,0
1916,8030003024630,新規,0,2024-07-04,2024-07-04,もにもに合同会社,,合同会社,埼玉県,所沢市,大字山口６６０番地の１０,,11,208,3591145,,,,,,,2024-07-04,1,,,,,モニモニ,0
1917,8040001134307,新規,0,2024-07-04,2024-07-04,株式会社Ｍ＆Ｋ　ＪＡＰＡＮ,,株式会社,千葉県,千葉市美浜区,若葉３丁目１番地１１－２５０７号,,12,106,2610014,,,,,,,2024-07-04,1,,,,,エムアンドケイジャパン,0
1918,8040001134331,新規,0,2024-07-04,2024-07-04,株式会社徳ます,,株式会社,千葉県,浦安市,堀江２丁目２０番３６－１０１号エクセレンテ,,12,227,2790041,,,,,,,2024-07-04,1,,,,,トクマス,0
1919,8040001134348,新規,0,2024-07-04,2024-07-04,ＱＡＤＩＲ株式会社,,株式会社,千葉県,千葉市若葉区,野呂町７８０番地,,12,104,2650053,,,,,,,2024-07-04,1,,,,,カディール,0
1920,8040001134380,新規,0,2024-07-04,2024-07-04,ハピネスケアー株式会社,,株式会社,千葉県,松戸市,松戸新田５４０番地の８,,12,207,2702241,,,,,,,2024-07-04,1,,,,,ハピネスケアー,0
1923,8040003025306,新規,0,2024-07-04,2024-07-04,合同会社祥の葉,,合同会社,千葉県,四街道市,めいわ３丁目２２番１９号,,12,228,2840043,,,,,,,2024-07-04,1,,,,,サチノハ,0
1924,8040003025322,新規,0,2024-07-04,2024-07-04,合同会社ブルースカイ,,合同会社,千葉県,船橋市,本中山３丁目６番１５号ヒルクレスト下総中山２０７号室,,12,204,2730035,,,,,,,2024-07-04,1,,,,,ブルースカイ,0
1925,8040003025330,新規,0,2024-07-04,2024-07-04,黄石合同会社,,合同会社,千葉県,松戸市,上本郷２９２２番地北松戸第二京葉ハイツ５０４,,12,207,2710064,,,,,,,2024-07-04,1,,,,,コウセキ,0
1930,8050001054933,新規,0,2024-07-04,2024-07-04,株式会社ＡＤＤＬｉｖ,,株式会社,茨城県,久慈郡大子町,大字大子３５４番地１１,,08,364,3193526,,,,,,,2024-07-04,1,,,,,アドリヴ,0
1931,8050001055056,新規,0,2024-07-04,2024-07-04,アイワ防災株式会社,,株式会社,茨城県,つくば市,栗原４１０２番地５,,08,220,3050001,,,,,,,2024-07-04,1,,,,,アイワボウサイ,0
1933,8070003005494,新規,0,2024-07-04,2024-07-04,合同会社テン・エイティ,,合同会社,群馬県,前橋市,総社町３丁目２番地９プランタン２０３号,,10,201,3710853,,,,,,,2024-07-04,1,,,,,テンエイティ,0
1938,8080101024866,新規,0,2024-07-04,2024-07-04,ブロックス株式会社,,株式会社,静岡県,沼津市,大岡１１９０番地の１メゾン白滝１０２,,22,203,4100022,,,,,,,2024-07-04,1,,,,,ブロックス,0
1940,8080401027296,新規,0,2024-07-04,2024-07-04,株式会社ＨＳＫ,,株式会社,静岡県,浜松市天竜区,水窪町奥領家３４２５番地の１６,,22,140,4314101,,,,,,,2024-07-04,1,,,,,エイチエスケイ,0
1945,8100001037610,新規,0,2024-07-04,2024-07-04,ＡＪサービス株式会社,,株式会社,長野県,北佐久郡軽井沢町,軽井沢１０５７番地７３,,20,321,3890103,,,,,,,2024-07-04,1,,,,,エイジェイサービス,0
1948,8110001038533,新規,0,2024-07-04,2024-07-04,株式会社ＰＮＴＥＣソリューション,,株式会社,新潟県,新潟市北区,島見町３３９９番地９,,15,101,9503102,,,,,,,2024-07-04,1,,,,,ピーエヌテックソリューション,0
1958,8120001266488,新規,0,2024-07-04,2024-07-04,Ｓａｓｓ　Ｊａｐａｎ株式会社,,株式会社,大阪府,大阪市住吉区,山之内元町１３番４号,,27,120,5580024,,,,,,,2024-07-04,1,,,,,サスジャパン,0
1959,8120001266496,新規,0,2024-07-04,2024-07-04,株式会社ＳＳＣ,,株式会社,大阪府,大阪市東成区,東今里３丁目２２番２６号,,27,115,5370011,,,,,,,2024-07-04,1,,,,,エスエスシー,0
1960,8120001266513,新規,0,2024-07-04,2024-07-04,株式会社Ｒｅｇｕｌｕｓ,,株式会社,大阪府,大阪市中央区,北浜３丁目５番２２号オリックス淀屋橋ビル３階３０２号,,27,128,5410041,,,,,,,2024-07-04,1,,,,,レグルス,0
1961,8120001266546,新規,0,2024-07-04,2024-07-04,株式会社ｅｎｕ,,株式会社,大阪府,大阪市北区,芝田２丁目７－１８－６階,,27,127,5300012,,,,,,,2024-07-04,1,,,,,エヌ,0
1966,8120101069873,新規,0,2024-07-04,2024-07-04,株式会社ＳＵＮＲＩＳＥ,,株式会社,大阪府,堺市中区,深井清水町３２８２尾崎ビル３階,,27,142,5998273,,,,,,,2024-07-04,1,,,,,サンライズ,0
1967,8120101069898,新規,0,2024-07-04,2024-07-04,株式会社ａｔ,,株式会社,大阪府,岸和田市,土生町６丁目４番４０－２０３号,,27,202,5960825,,,,,,,2024-07-04,1,,,,,アット,0
1968,8120103005926,新規,0,2024-07-04,2024-07-04,合同会社夢工房,,合同会社,大阪府,和泉市,納花町５４番地の１２３,,27,219,5941116,,,,,,,2024-07-04,1,,,,,ユメコウボウ,0
1971,8120901049414,新規,0,2024-07-04,2024-07-04,株式会社百式,,株式会社,大阪府,豊中市,服部豊町１丁目１１番１０－６０５号,,27,203,5610859,,,,,,,2024-07-04,1,,,,,ヒャクシキ,0
1972,8120901049422,新規,0,2024-07-04,2024-07-04,株式会社ＦＯＲＴＩＦＹ,,株式会社,大阪府,吹田市,片山町１丁目２５番６号,,27,205,5640082,,,,,,,2024-07-04,1,,,,,フォーティファイ,0
1974,8122003002929,新規,0,2024-07-04,2024-07-04,合同会社みらい,,合同会社,大阪府,大東市,諸福２丁目８番１０号１階,,27,218,5740044,,,,,,,2024-07-04,1,,,,,ミライ,0
1978,8130005017127,新規,0,2024-07-04,2024-07-04,一般社団法人ショクアカ,,その他の設立登記法人,京都府,京都市左京区,岡崎西天王町８４番地１,,26,103,6068341,,,,,,,2024-07-04,1,,,,,ショクアカ,0
1980,8140001134981,新規,0,2024-07-04,2024-07-04,株式会社月待舎,,株式会社,兵庫県,神戸市東灘区,鴨子ヶ原３丁目２８番３号ビバアルファ２０１,,28,101,6580064,,,,,,,2024-07-04,1,,,,,ツキマチシャ,0
1981,8140001135014,新規,0,2024-07-04,2024-07-04,株式会社フロリッシュ,,株式会社,兵庫県,伊丹市,南野北１丁目５番１０号,,28,207,6640887,,,,,,,2024-07-04,1,,,,,フロリッシュ,0
1984,8160001026046,新規,0,2024-07-04,2024-07-04,ｎ．ｈｏｕｓｅ株式会社,,株式会社,滋賀県,近江八幡市,金剛寺町５９６番地２,,25,204,5230001,,,,,,,2024-07-04,1,,,,,エヌハウス,0
1986,8170001018208,新規,0,2024-07-04,2024-07-04,株式会社ヒロヨシ工務店,,株式会社,和歌山県,新宮市,新宮２６４７番地６,,30,207,6470081,,,,,,,2024-07-04,1,,,,,ヒロヨシコウムテン,0
1987,8170005007090,新規,0,2024-07-04,2024-07-04,一般社団法人Ｓ．Ｉ．Ｓ,,その他の設立登記法人,和歌山県,御坊市,荊木１８４番地,,30,205,6440015,,,,,,,2024-07-04,1,,,,,エスアイエス,0
1989,8180001162252,新規,0,2024-07-04,2024-07-04,株式会社橦木町しみず,,株式会社,愛知県,名古屋市東区,橦木町３丁目２４番地プランドール橦木１階東,,23,102,4610014,,,,,,,2024-07-04,1,,,,,シュモクチョウシミズ,0
1990,8180001162285,新規,0,2024-07-04,2024-07-04,株式会社和み屋ユニット,,株式会社,愛知県,一宮市,大和町毛受字東屋敷７５番地１,,23,203,4910932,,,,,,,2024-07-04,1,,,,,ナゴミヤユニット,0
1991,8180001162302,新規,0,2024-07-04,2024-07-04,株式会社シャインピオニー,,株式会社,愛知県,名古屋市中川区,富田町大字千音寺字供木４４２７番地の１,,23,110,4540971,,,,,,,2024-07-04,1,,,,,シャインピオニー,0
1995,8180003027024,新規,0,2024-07-04,2024-07-04,合同会社ＮＧＴＭ,,合同会社,愛知県,名古屋市中区,松原１丁目１２番５号リュクステージ大須ウエスト５０３,,23,106,4600017,,,,,,,2024-07-04,1,,,,,エヌジーティーエム,0
2000,8190001031456,新規,0,2024-07-04,2024-07-04,株式会社加藤農場,,株式会社,三重県,四日市市,上海老町６８０番地,,24,202,5121201,,,,,,,2024-07-04,1,,,,,カトウノウジョウ,0
2001,8190003004732,新規,0,2024-07-04,2024-07-04,合同会社Ｂｅ　Ｓｅａ,,合同会社,三重県,度会郡玉城町,勝田２２０４‐１２６,,24,461,5190433,,,,,,,2024-07-04,1,,,,,ビーシー,0
2002,8190005011966,新規,0,2024-07-04,2024-07-04,土地家屋調査士法人いしずえ,,その他の設立登記法人,三重県,松阪市,宮町７３番地１,,24,204,5150015,,,,,,,2024-07-04,1,,,,,イシズエ,0
2004,8210001019812,新規,0,2024-07-04,2024-07-04,株式会社Ｋ,,株式会社,福井県,福井市,中野町第１１号２６番地,,18,201,9188185,,,,,,,2024-07-04,1,,,,,ケイ,0
2007,8230001020413,新規,0,2024-07-04,2024-07-04,株式会社Ｔｗｉｎｓ,,株式会社,富山県,高岡市,新横町１２５７番地１,,16,202,9330035,,,,,,,2024-07-04,1,,,,,ツインズ,0
2008,8230003002244,新規,0,2024-07-04,2024-07-04,合同会社ＮＡＰＡ＆ＮＯＭＵＲＡ　ＡＳＳＯＣＩＡＴＩＯＮＳ,,合同会社,富山県,高岡市,野村３５４番地１１,,16,202,9330014,,,,,,,2024-07-04,1,,,,,ナパアンドノムラアソシエイションズ,0
2009,8240001063460,新規,0,2024-07-04,2024-07-04,株式会社ＳＨＯＳＥＩ,,株式会社,広島県,福山市,神辺町大字新湯野３８番地４（Ｄ１０３）,,34,207,7202122,,,,,,,2024-07-04,1,,,,,ショウセイ,0
2010,8240001063477,新規,0,2024-07-04,2024-07-04,株式会社ＤＲＥＳＳ,,株式会社,広島県,福山市,水呑町三新田２丁目２６３番地,,34,207,7200830,,,,,,,2024-07-04,1,,,,,ドレス,0
2013,8240003006748,新規,0,2024-07-04,2024-07-04,小さな家合同会社,,合同会社,広島県,呉市,苗代町３３０番地の２,,34,202,7370921,,,,,,,2024-07-04,1,,,,,チイサナイエ,0
2021,8290001106355,新規,0,2024-07-04,2024-07-04,リンエーホールディングス株式会社,,株式会社,福岡県,福岡市中央区,荒戸２丁目４番４５－６０３号,,40,133,8100062,,,,,,,2024-07-04,1,,,,,リンエーホールディングス,0
2032,8310001019091,新規,0,2024-07-04,2024-07-04,株式会社蜜山畜産,,株式会社,長崎県,平戸市,生月町南免３６２３番地１,,42,207,8595706,,,,,,,2024-07-04,1,,,,,ミツヤマチクサン,0
2033,8320001020577,新規,0,2024-07-04,2024-07-04,株式会社虎所,,株式会社,大分県,別府市,石垣西１０丁目５番７号ウェスティンやまなみビル１Ｆ,,44,202,8740910,,,,,,,2024-07-04,1,,,,,トラドコロ,0
2038,8330003010451,新規,0,2024-07-04,2024-07-04,合同会社映像制作子猫の手,,合同会社,熊本県,八代市,古城町２３５６－１,,43,202,8660043,,,,,,,2024-07-04,1,,,,,エイゾウセイサクコネコノテ,0
2039,8340001026606,新規,0,2024-07-04,2024-07-04,株式会社しったれ,,株式会社,鹿児島県,奄美市,名瀬大字浦上１３２４番地３,,46,222,8940008,,,,,,,2024-07-04,1,,,,,シッタレ,0
2040,8340001026614,新規,0,2024-07-04,2024-07-04,株式会社Ａｌｖａ,,株式会社,鹿児島県,薩摩川内市,大王町４番２号,,46,215,8950062,,,,,,,2024-07-04,1,,,,,アルバ,0
2041,8340005009755,新規,0,2024-07-04,2024-07-04,特定非営利活動法人日本犬愛護会,,その他の設立登記法人,鹿児島県,鹿児島市,東坂元１丁目１番１５号,,46,201,8920861,,,,,,,2024-07-04,1,,,,,ニホンケンアイゴカイ,0
2042,8350001019047,新規,0,2024-07-04,2024-07-04,株式会社水寿,,株式会社,宮崎県,西諸県郡高原町,大字広原５４１４番地２７,,45,361,8894411,,,,,,,2024-07-04,1,,,,,スイジュ,0
2045,8360001033880,新規,0,2024-07-04,2024-07-04,株式会社沖縄アジア結人材センター,,株式会社,沖縄県,石垣市,字新川４１４番地１,,47,207,9070024,,,,,,,2024-07-04,1,,,,,オキナワアジアユイジンザイセンター,0
2046,8370001051493,新規,0,2024-07-04,2024-07-04,ＮｅｘｕｓＶｉｓｉｏｎ株式会社,,株式会社,宮城県,仙台市宮城野区,福室２丁目８番１７号福室マンション３１４号,,04,102,9830005,,,,,,,2024-07-04,1,,,,,ネクサスヴィジョン,0
2051,8380001034654,新規,0,2024-07-04,2024-07-04,株式会社ルーチェコート,,株式会社,福島県,郡山市,田村町徳定字下河原１７７番地の２,,07,203,9631165,,,,,,,2024-07-04,1,,,,,ルーチェコート,0
2057,8390003002261,新規,0,2024-07-04,2024-07-04,合同会社ＡＯ‐Ｚ,,合同会社,山形県,山形市,蔵王成沢４５番地１,,06,201,9902334,,,,,,,2024-07-04,1,,,,,アオーズ,0
2059,8410001013860,新規,0,2024-07-04,2024-07-04,株式会社ＡＲＣＡＤＩＡ,,株式会社,秋田県,横手市,増田町増田字縫殿９０番地２,,05,203,0190701,,,,,,,2024-07-04,1,,,,,アーケーディア,0
2060,8410003003950,新規,0,2024-07-04,2024-07-04,モールズカンパニー合同会社,,合同会社,秋田県,横手市,安田原町１６番２号,,05,203,0130048,,,,,,,2024-07-04,1,,,,,モールズカンパニー,0
2069,8430001092168,新規,0,2024-07-04,2024-07-04,西島塗装工業株式会社,,株式会社,北海道,岩見沢市,日の出北２丁目５番７号,,01,210,0680824,,,,,,,2024-07-04,1,,,,,ニシジマトソウコウギョウ,0
2070,8430001092192,新規,0,2024-07-04,2024-07-04,株式会社ＮｉＴｅｃ,,株式会社,北海道,北広島市,大曲工業団地２丁目５番地１,,01,234,0611274,,,,,,,2024-07-04,1,,,,,ニーテック,0
2071,8430001092201,新規,0,2024-07-04,2024-07-04,株式会社ＯｉｍｏＸ,,株式会社,北海道,札幌市北区,北八条西１丁目３番地ＯＮＥ札幌ステーションタワー３８１２号,,01,102,0600808,,,,,,,2024-07-04,1,,,,,オイモックス,0
2073,8440003001605,新規,0,2024-07-04,2024-07-04,合同会社鶴乃,,合同会社,北海道,函館市,本町１１番１号,,01,202,0400011,,,,,,,2024-07-04,1,,,,,ツルノ,0
2077,8460303000833,新規,0,2024-07-04,2024-07-04,合同会社ＪＵＵＲＩ,,合同会社,北海道,北見市,泉町２丁目５番４号,,01,208,0900811,,,,,,,2024-07-04,1,,,,,ユーリ,0
2078,8480001012534,新規,0,2024-07-04,2024-07-04,株式会社エスケー企画,,株式会社,徳島県,阿南市,羽ノ浦町岩脇上平６２番地１,,36,204,7791106,,,,,,,2024-07-04,1,,,,,エスケーキカク,0
2082,8500001025731,新規,0,2024-07-04,2024-07-04,株式会社優進電気,,株式会社,愛媛県,松山市,来住町１１９１番地１第２コーポ富士見Ｅ号,,38,201,7911102,,,,,,,2024-07-04,1,,,,,ユウシンデンキ,0
2084,8700150045683,新規,0,2024-07-04,2015-10-09,富士開拓酪農ヘルパー利用組合,,その他,静岡県,富士宮市,上井出２２３３,,22,207,4180103,,,,,,,2015-10-09,1,,,,,フジカイタクラクノウヘルパーリヨウクミアイ,0
2086,8700150126376,新規,0,2024-07-04,2024-07-04,晉利投資發展有限公司,,外国会社等,,,,,,,,中華人民共和国香港特別行政区灣仔摩利臣山道８０－８２號柏餘中心５楼５０１室,,,,,,2024-07-04,1,,,,,シンリトウシハツテンユウゲンコウス,0
2091,9010001245964,新規,0,2024-07-04,2024-07-04,株式会社ＴｒａｎｓＰｒｏｐ,,株式会社,東京都,中央区,日本橋２丁目２番３号ＲＩＳＨＥビルＵＣＦ４０２,,13,102,1030027,,,,,,,2024-07-04,1,,,,,トランスプロップ,0
2092,9010001246260,新規,0,2024-07-04,2024-07-04,株式会社ｒｉｒｕ,,株式会社,東京都,千代田区,大手町２丁目６番４号常盤橋タワー９階,,13,101,1000004,,,,,,,2024-07-04,1,,,,,リル,0
2095,9010003044225,新規,0,2024-07-04,2024-07-04,ユーナイト・ジャパン合同会社,,合同会社,東京都,中央区,銀座７丁目１３番２０号銀座ＴＨビル９階,,13,102,1040061,,,,,,,2024-07-04,1,,,,,ユーナイトジャパン,0
2096,9010003044233,新規,0,2024-07-04,2024-07-04,ロハスコミュニティ合同会社,,合同会社,東京都,千代田区,東神田２丁目４－１２ＫＶＴビル２－７階,,13,101,1010031,,,,,,,2024-07-04,1,,,,,,0
2100,9010101016225,新規,0,2024-07-04,2024-07-04,株式会社クラフトオーエン,,株式会社,東京都,八王子市,上壱分方町３５３番地７７,,13,201,1930811,,,,,,,2024-07-04,1,,,,,クラフトオーエン,0
2107,9010401183533,新規,0,2024-07-04,2024-07-04,ＡＧソリューションテクノロジー株式会社,,株式会社,東京都,港区,芝２丁目３１番１９号バンザイビル,,13,103,1050014,,,,,,,2024-07-04,1,,,,,エージーソリューションテクノロジー,0
2109,9010403032944,新規,0,2024-07-04,2024-07-04,合同会社青木美沙子,,合同会社,東京都,港区,北青山２丁目７番２０号猪瀬ビル２Ｆ,,13,103,1070061,,,,,,,2024-07-04,1,,,,,アオキミサコ,0
2111,9010501052514,新規,0,2024-07-04,2024-07-04,株式会社ＤＡＴＡ統合研究所,,株式会社,東京都,台東区,北上野２丁目８番７号,,13,106,1100014,,,,,,,2024-07-04,1,,,,,データートウゴウケンキュウジョトウゴウ,0
2112,9010501052539,新規,0,2024-07-04,2024-07-04,三木株式会社,,株式会社,東京都,台東区,東上野１丁目６－１０コージーコート上野御徒町Ｉ－６０３号,00135459,13,106,1100015,,,,,,,2024-07-04,1,,,,,ミッキ,0
2117,9010701046225,新規,0,2024-07-04,2024-07-04,株式会社ブラントンベッツ,,株式会社,東京都,品川区,勝島２丁目２番３４号,,13,109,1400012,,,,,,,2024-07-04,1,,,,,ブラントンベッツ,0
2120,9010901055562,新規,0,2024-07-04,2024-07-04,株式会社テト,,株式会社,東京都,世田谷区,駒沢４丁目１番２０号駒沢公園テラスハウス１０２,,13,112,1540012,,,,,,,2024-07-04,1,,,,,テト,0
2125,9011001163140,新規,0,2024-07-04,2024-07-04,タナカヒロカズ株式会社,,株式会社,東京都,渋谷区,道玄坂１丁目１０番８号渋谷道玄坂東急ビル２Ｆ－Ｃ,,13,113,1500043,,,,,,,2024-07-04,1,,,,,タナカヒロカズ,0
2126,9011001163149,新規,0,2024-07-04,2024-07-04,株式会社ＳｋｙＣｌｅａｒ,,株式会社,東京都,渋谷区,道玄坂１丁目１０番８号渋谷道玄坂東急ビル２Ｆ－Ｃ,,13,113,1500043,,,,,,,2024-07-04,1,,,,,スカイクリア,0
2127,9011001163157,新規,0,2024-07-04,2024-07-04,株式会社Ｎｅｗ　Ｓｅｎｓａｔｉｏｎ,,株式会社,東京都,渋谷区,恵比寿２丁目２５番１９－７０３号ザ・サンメゾン広尾エルド,,13,113,1500013,,,,,,,2024-07-04,1,,,,,ニューセンセーション,0
2128,9011001163181,新規,0,2024-07-04,2024-07-04,株式会社Ｋａｒｅｎ,,株式会社,東京都,目黒区,下目黒１丁目１番１４号コノトラビル７Ｆ,,13,110,1530064,,,,,,,2024-07-04,1,,,,,カレン,0
2129,9011001163198,新規,0,2024-07-04,2024-07-04,ロッソビルテクノ株式会社,,株式会社,東京都,渋谷区,道玄坂１丁目１６－６二葉ビル８ｂ,,13,113,1500043,,,,,,,2024-07-04,1,,,,,ロッソビルテクノ,0
2131,9011003019539,新規,0,2024-07-04,2024-07-04,ＩＴｚｏｏ．ｊｐ合同会社,,合同会社,東京都,渋谷区,道玄坂１丁目１０番８号,,13,113,1500043,,,,,,,2024-07-04,1,,,,,アイティーズードットジェイピー,0
2133,9011101107939,新規,0,2024-07-04,2024-07-04,株式会社ソニックビート,,株式会社,東京都,新宿区,西新宿３丁目３番１３号西新宿水間ビル６階,,13,104,1600023,,,,,,,2024-07-04,1,,,,,ソニックビート,0
2137,9011401026236,新規,0,2024-07-04,2024-07-04,株式会社ＳｏＦｕｎ,,株式会社,東京都,板橋区,成増１丁目３５番２５－４０２号,,13,119,1750094,,,,,,,2024-07-04,1,,,,,ソファン,0
2142,9011501030872,新規,0,2024-07-04,2024-07-04,ＪＵＮＴＯＳ株式会社,,株式会社,東京都,荒川区,東日暮里５丁目１５番１１－１００４号,,13,118,1160014,,,,,,,2024-07-04,1,,,,,ジュントス,0
2143,9011501030880,新規,0,2024-07-04,2024-07-04,株式会社ＭＡＣ,,株式会社,東京都,荒川区,西日暮里１丁目６２番２３号ムーンヒルズ３０１,,13,118,1160013,,,,,,,2024-07-04,1,,,,,マック,0
2145,9011503006136,新規,0,2024-07-04,2024-07-04,レガーレ合同会社,,合同会社,東京都,北区,王子１丁目１４番１２号,,13,117,1140002,,,,,,,2024-07-04,1,,,,,レガーレ,0
2148,9011801044473,新規,0,2024-07-04,2024-07-04,株式会社角丸,,株式会社,東京都,足立区,千住寿町６番１５－１７０３号,,13,121,1200033,,,,,,,2024-07-04,1,,,,,カクマル,0
2149,9011801044481,新規,0,2024-07-04,2024-07-04,株式会社ＳＲＫ,,株式会社,東京都,足立区,竹の塚２丁目１０番１３号,,13,121,1210813,,,,,,,2024-07-04,1,,,,,エスアールケー,0
2150,9011803006315,新規,0,2024-07-04,2024-07-04,タケウチ興業商事合同会社,,合同会社,東京都,足立区,江北６丁目２５番８号メゾンドソレイユ２０１,,13,121,1230872,,,,,,,2024-07-04,1,,,,,タケウチコウギョウショウジ,0
2155,9012401042033,新規,0,2024-07-04,2024-07-04,株式会社ｎｕｇｅｎｔ,,株式会社,東京都,武蔵野市,吉祥寺東町２丁目１番２号メゾン・ド・エルヴェ吉祥寺３０２号,,13,203,1800002,,,,,,,2024-07-04,1,,,,,ヌゲント,0
2159,9012701018344,新規,0,2024-07-04,2024-07-04,株式会社Ｂｉｓｈｏｐ,,株式会社,東京都,小平市,学園東町３８７－４,,13,211,1870043,,,,,,,2024-07-04,1,,,,,ビショップ,0
2167,9020001157960,新規,0,2024-07-04,2024-07-04,株式会社ＳＩＭ,,株式会社,神奈川県,横浜市泉区,領家３丁目１０番地１２,,14,116,2450004,,,,,,,2024-07-04,1,,,,,シム,0
2185,9040001134306,新規,0,2024-07-04,2024-07-04,株式会社ＳＴＯＲＹ,,株式会社,千葉県,佐倉市,稲荷台１丁目１７番地２６,,12,212,2850864,,,,,,,2024-07-04,1,,,,,ストーリー,0
2186,9040001134330,新規,0,2024-07-04,2024-07-04,株式会社ＲＭＳ,,株式会社,千葉県,市川市,田尻４丁目２番１９－３０９号,,12,203,2720014,,,,,,,2024-07-04,1,,,,,アールエムエス,0
2187,9040001134347,新規,0,2024-07-04,2024-07-04,株式会社アウトワードワークス,,株式会社,千葉県,浦安市,高洲８丁目１番Ａ－４０２号プラウド新浦安パームコート,,12,227,2790023,,,,,,,2024-07-04,1,,,,,アウトワードワークス,0
2188,9040001134355,新規,0,2024-07-04,2024-07-04,株式会社大和内装,,株式会社,千葉県,四街道市,鷹の台２丁目２５番１２号,,12,228,2840033,,,,,,,2024-07-04,1,,,,,ダイワナイソウ,0
2189,9040001134388,新規,0,2024-07-04,2024-07-04,株式会社大川建設,,株式会社,千葉県,千葉市稲毛区,園生町４００番地２３,,12,103,2630051,,,,,,,2024-07-04,1,,,,,オオカワケンセツ,0
2190,9040003025354,新規,0,2024-07-04,2024-07-04,合同会社ニシノマジョ,,合同会社,千葉県,千葉市中央区,汐見丘町１５番９号,,12,101,2600034,,,,,,,2024-07-04,1,,,,,ニシノマジョ,0
2195,9050001055063,新規,0,2024-07-04,2024-07-04,Ｗａｒｄｉａｎ　Ｃａｓｅ　Ｓｔｕｄｉｏ株式会社,,株式会社,茨城県,常陸太田市,西河内下町１５５番地,,08,212,3110312,,,,,,,2024-07-04,1,,,,,ワーディアンケーススタジオ,0
2197,9060001037259,新規,0,2024-07-04,2024-07-04,株式会社ＵＢＩＱＵＩＴＡ,,株式会社,栃木県,佐野市,植野町１８７３番地１－１Ｆ,,09,204,3270837,,,,,,,2024-07-04,1,,,,,ユビキタ,0
2202,9080403005051,新規,0,2024-07-04,2024-07-04,ＵＭ合同会社,,合同会社,静岡県,浜松市中央区,篠ケ瀬町３１５－１,,22,138,4350042,,,,,,,2024-07-04,1,,,,,アム,0
2205,9090003002596,新規,0,2024-07-04,2024-07-04,ライズコーポレーション合同会社,,合同会社,山梨県,甲斐市,富竹新田７７５番地１４,,19,210,4000113,,,,,,,2024-07-04,1,,,,,ライズコーポレーション,0
2215,9110001038540,新規,0,2024-07-04,2024-07-04,株式会社ＩＳＡＯ,,株式会社,新潟県,新潟市西区,寺尾西３丁目４番４５号,,15,107,9502064,,,,,,,2024-07-04,1,,,,,イサオ,0
2223,9120001266082,新規,0,2024-07-04,2024-07-04,九龍生物医薬株式会社,,株式会社,大阪府,大阪市北区,天満３丁目３－１８－７階,,27,127,5300043,,,,,,,2024-07-04,1,,,,,クリュウセイブツイヤク,0
2224,9120001266421,新規,0,2024-07-04,2024-07-04,株式会社マコトホールディングス,,株式会社,大阪府,大阪市福島区,福島７丁目２０番１号,,27,103,5530003,,,,,,,2024-07-04,1,,,,,マコトホールディングス,0
2225,9120001266504,新規,0,2024-07-04,2024-07-04,株式会社ＴＡＫ,,株式会社,大阪府,大阪市福島区,福島６丁目３－１０エスリード福島駅前,,27,103,5530003,,,,,,,2024-07-04,1,,,,,タック,0
2226,9120001266512,新規,0,2024-07-04,2024-07-04,株式会社Ｅａｒｔｈ,,株式会社,大阪府,大阪市中央区,北浜３丁目５番２２号オリックス淀屋橋ビル３階３０２号,,27,128,5410041,,,,,,,2024-07-04,1,,,,,アース,0
2227,9120005024404,新規,0,2024-07-04,2024-07-04,一般社団法人日本ゲーム展示協会,,その他の設立登記法人,大阪府,大阪市天王寺区,上本町６丁目８番１７号,,27,109,5430001,,,,,,,2024-07-04,1,,,,,ニホンゲームテンジキョウカイ,0
2229,9120101069889,新規,0,2024-07-04,2024-07-04,株式会社コネクス,,株式会社,大阪府,堺市東区,日置荘北町３丁２７番８号,,27,143,5998111,,,,,,,2024-07-04,1,,,,,コネクス,0
2230,9120101069897,新規,0,2024-07-04,2024-07-04,株式会社ＭＳ　ａｒｃｈｉ,,株式会社,大阪府,堺市堺区,香ヶ丘町５丁６番４号ジーメゾン香ヶ丘１０２号室,,27,141,5900011,,,,,,,2024-07-04,1,,,,,エムエスアーキ,0
2231,9120101069906,新規,0,2024-07-04,2024-07-04,株式会社ソラ,,株式会社,大阪府,富田林市,小金台１丁目１８番８号,,27,214,5840083,,,,,,,2024-07-04,1,,,,,ソラ,0
2232,9120101069914,新規,0,2024-07-04,2024-07-04,株式会社無限,,株式会社,大阪府,富田林市,寿町２丁目５番４３号,,27,214,5840031,,,,,,,2024-07-04,1,,,,,ムゲン,0
2233,9120103005933,新規,0,2024-07-04,2024-07-04,合同会社イノオウル,,合同会社,大阪府,松原市,上田１丁目４番６７号,,27,217,5800016,,,,,,,2024-07-04,1,,,,,イノオウル,0
2234,9120105009874,新規,0,2024-07-04,2024-07-04,一般財団法人りんくう医療技術国際交流財団,,その他の設立登記法人,大阪府,泉佐野市,りんくう往来南３番地の４１,,27,213,5980047,,,,,,,2024-07-04,1,,,,,リンクウイリョウギジュツコクサイコウリュウザイダン,0
2237,9120901049405,新規,0,2024-07-04,2024-07-04,Ｍ＆Ｈ株式会社,,株式会社,大阪府,吹田市,江坂町５丁目１１番１０号サンシャイン緑地公園３０３号室,,27,205,5640063,,,,,,,2024-07-04,1,,,,,エムアンドエイチ,0
2239,9122003002928,新規,0,2024-07-04,2024-07-04,合同会社ＬＩＧＨＴ,,合同会社,大阪府,東大阪市,日下町８丁目１番３号石切ｗｏｒｋｓｐａｃｅ２０１号室,,27,227,5798003,,,,,,,2024-07-04,1,,,,,ライト,0
2241,9130001077405,新規,0,2024-07-04,2024-07-04,株式会社ＷＩＳＥ　ＢＡＳＥ,,株式会社,京都府,京都市中京区,夷川通柳馬場西入ル百足屋町１４６ＹｓＢｌｄｇ６Ｆ,,26,104,6040000,,,,,,,2024-07-04,1,,,,,ワイズベース,0
2248,9140001134989,新規,0,2024-07-04,2024-07-04,株式会社プラス,,株式会社,兵庫県,西宮市,大屋町３０番９号,,28,204,6638106,,,,,,,2024-07-04,1,,,,,プラス,0
2249,9140001135013,新規,0,2024-07-04,2024-07-04,株式会社ＵＰＡコンサルティング,,株式会社,兵庫県,加古川市,加古川町本町４１７番地の７,,28,210,6750037,,,,,,,2024-07-04,1,,,,,ウーパーコンサルティング,0
2250,9140001135021,新規,0,2024-07-04,2024-07-04,株式会社ＭＰＫ,,株式会社,兵庫県,神戸市中央区,割塚通７丁目２番２１号,,28,110,6510065,,,,,,,2024-07-04,1,,,,,エムピーケー,0
2254,9140003020774,新規,0,2024-07-04,2024-07-04,合同会社エムズサービス,,合同会社,兵庫県,川西市,清和台東４丁目３－２－３－５０６,,28,217,6660142,,,,,,,2024-07-04,1,,,,,エムズサービス,0
2255,9140005027132,新規,0,2024-07-04,2024-07-04,特定非営利活動法人Ｍｅｔｕｓ,,その他の設立登記法人,兵庫県,三田市,ゆりのき台５丁目２５－１３,,28,219,6691324,,,,,,,2024-07-04,1,,,,,,0
2260,9160001026053,新規,0,2024-07-04,2024-07-04,ｇｒｅｅｎ　ｄｏｔ株式会社,,株式会社,滋賀県,草津市,東草津２丁目７番７号,,25,206,5250033,,,,,,,2024-07-04,1,,,,,グリーンドット,0
2267,9180001162219,新規,0,2024-07-04,2024-07-04,株式会社ＡＵＮ,,株式会社,愛知県,名古屋市北区,北久手町１７８番地,,23,103,4620001,,,,,,,2024-07-04,1,,,,,アウン,0
2268,9180001162268,新規,0,2024-07-04,2024-07-04,株式会社ほほえみケアサポート,,株式会社,愛知県,あま市,坂牧向江７０番地,,23,237,4901115,,,,,,,2024-07-04,1,,,,,ホホエミケアサポート,0
2277,9200001042649,新規,0,2024-07-04,2024-07-04,株式会社ＴＳＵＮＡＧＵ,,株式会社,岐阜県,各務原市,那加甥田町１６番地,,21,213,5040837,,,,,,,2024-07-04,1,,,,,ツナグ,0
2281,9230003002243,新規,0,2024-07-04,2024-07-04,合同会社ＰＭＫ,,合同会社,富山県,中新川郡舟橋村,竹内３０６番地,,16,321,9300289,,,,,,,2024-07-04,1,,,,,ピーエムケー,0
2283,9240001063468,新規,0,2024-07-04,2024-07-04,株式会社オーバルポート,,株式会社,広島県,庄原市,東城町粟田１２６５番地,,34,210,7295127,,,,,,,2024-07-04,1,,,,,オーバルポート,0
2284,9240001063476,新規,0,2024-07-04,2024-07-04,株式会社ジャパンクリエイト,,株式会社,広島県,福山市,御船町２丁目７番５号,,34,207,7200042,,,,,,,2024-07-04,1,,,,,ジャパンクリエイト,0
2285,9240001063484,新規,0,2024-07-04,2024-07-04,株式会社ＳＥＣＴ,,株式会社,広島県,広島市南区,東雲１丁目３番２３号,,34,103,7340022,,,,,,,2024-07-04,1,,,,,セクト,0
2287,9260001039243,新規,0,2024-07-04,2024-07-04,株式会社スム,,株式会社,岡山県,岡山市北区,今３丁目２５番２５号,,33,101,7000975,,,,,,,2024-07-04,1,,,,,スム,0
2289,9280005007616,新規,0,2024-07-04,2024-07-04,一般社団法人まちづくりとうほん,,その他の設立登記法人,島根県,松江市,末次本町６４,,32,201,6900843,,,,,,,2024-07-04,1,,,,,マチヅクリトウホン,0
2299,9320003004404,新規,0,2024-07-04,2024-07-04,合同会社ＩＴＵＷＡ,,合同会社,大分県,大分市,大字東上野２０５６番地の３,,44,201,8700306,,,,,,,2024-07-04,1,,,,,イツワ,0
2300,9320003004412,新規,0,2024-07-04,2024-07-04,ＭＡＳコーポレーション合同会社,,合同会社,大分県,大分市,松原町１丁目１番１０号,,44,201,8700913,,,,,,,2024-07-04,1,,,,,マスコーポレーション,0
2303,9340001026613,新規,0,2024-07-04,2024-07-04,株式会社ららら商会,,株式会社,鹿児島県,鹿屋市,寿５丁目１６番２９号,,46,203,8930014,,,,,,,2024-07-04,1,,,,,ラララショウカイ,0
2304,9340001026621,新規,0,2024-07-04,2024-07-04,株式会社東村総樹,,株式会社,鹿児島県,曽於市,財部町南俣４３７０番地１,,46,217,8994101,,,,,,,2024-07-04,1,,,,,ヒガシムラソウキ,0
2311,9360003014119,新規,0,2024-07-04,2024-07-04,合同会社ＬａＺｏ,,合同会社,沖縄県,中頭郡北谷町,字吉原９５５番地,,47,326,9040105,,,,,,,2024-07-04,1,,,,,ラソ,0
2313,9380001034645,新規,0,2024-07-04,2024-07-04,株式会社東北トレーディング,,株式会社,福島県,福島市,二子塚字萱場３８番地の１,,07,201,9602263,,,,,,,2024-07-04,1,,,,,トウホクトレーディング,0
2314,9380003005801,新規,0,2024-07-04,2024-07-04,合同会社Ｈ＆Ｗ,,合同会社,福島県,福島市,森合字台ノ前２５－１カーサカスタネア１Ｆ,,07,201,9608003,,,,,,,2024-07-04,1,,,,,エイチアンドダブリュー,0
2315,9410001013868,新規,0,2024-07-04,2024-07-04,株式会社秋田米ファーム,,株式会社,秋田県,大館市,比内町新館字屋布７９番地１,,05,204,0185712,,,,,,,2024-07-04,1,,,,,アキタライスファーム,0
2316,9420003002950,新規,0,2024-07-04,2024-07-04,合同会社荒巻電業,,合同会社,青森県,三戸郡階上町,大字道仏字天当平１番地３４４,,02,446,0391201,,,,,,,2024-07-04,1,,,,,アラマキデンギョウ,0
2319,9430001092183,新規,0,2024-07-04,2024-07-04,株式会社シンセイ,,株式会社,北海道,札幌市厚別区,もみじ台南１丁目１１番１２号,,01,108,0040012,,,,,,,2024-07-04,1,,,,,シンセイ,0
2320,9430001092209,新規,0,2024-07-04,2024-07-04,株式会社神鹿,,株式会社,北海道,日高郡新ひだか町,静内木場町１丁目２番２８号,,01,610,0560025,,,,,,,2024-07-04,1,,,,,シンカ,0
2323,9430003016512,新規,0,2024-07-04,2024-07-04,合同会社Ａｓｏｂｌｅｎｄ,,合同会社,北海道,恵庭市,黄金北４丁目１１番地１３,,01,231,0611407,,,,,,,2024-07-04,1,,,,,アソブレンド,0
2325,9450003002510,新規,0,2024-07-04,2024-07-04,合同会社幻影旅団,,合同会社,北海道,空知郡中富良野町,字中富良野１３１８６番地,,01,461,0710700,,,,,,,2024-07-04,1,,,,,ゲンエイリョダン,0
2326,9460001005919,新規,0,2024-07-04,2024-07-04,株式会社翔,,株式会社,北海道,釧路市,文苑１丁目３６番６号,,01,206,0850063,,,,,,,2024-07-04,1,,,,,ショウ,0
2329,9480001012533,新規,0,2024-07-04,2024-07-04,株式会社ＣＲＯＣＨＵ,,株式会社,徳島県,徳島市,末広３丁目２番１７－２号,,36,201,7700866,,,,,,,2024-07-04,1,,,,,クロチュウ,0
