sequenceNumber,corporateNumber,process,correct,updateDate,changeDate,name,nameImageId,kind,prefectureName,cityName,streetNumber,addressImageId,prefectureCode,cityCode,postCode,addressOutside,addressOutsideImageId,closeDate,closeCause,successorCorporateNumber,changeCause,assignmentDate,latest,enName,enPrefectureName,enCityName,enAddressOutside,furigana,hihyoji
6,1010001221097,新規,0,2021-09-13,2021-09-13,株式会社Ｂｒｉｇｈｔ８,,株式会社,東京都,千代田区,九段南１丁目５番６号りそな九段ビル,,13,101,1020074,,,,,,,2021-09-13,1,,,,,ブライトエイティ,0
12,1010003035776,新規,0,2021-09-13,2021-09-13,合同会社クォーツ,,合同会社,東京都,千代田区,霞が関３丁目２番５号,,13,101,1000013,,,,,,,2021-09-13,1,,,,,クォーツ,0
23,1010401162643,新規,0,2021-09-13,2021-09-13,株式会社１Ｗ,,株式会社,東京都,港区,赤坂１丁目３番５号赤坂アビタシオン３Ｆ,,13,103,1070052,,,,,,,2021-09-13,1,,,,,,0
24,1010401162651,新規,0,2021-09-13,2021-09-13,株式会社ＭｅｄｉＥ,,株式会社,東京都,港区,新橋２丁目１６－１ニュー新橋ビル７０２Ｃ室,,13,103,1050004,,,,,,,2021-09-13,1,,,,,メディエ,0
28,1010405020194,新規,0,2021-09-13,2021-09-13,一般社団法人玉の緒会,,その他の設立登記法人,東京都,港区,浜松町２丁目２番１５号浜松町ダイヤビル２Ｆ,,13,103,1050013,,,,,,,2021-09-13,1,,,,,タマノオカイ,0
41,1010901049448,新規,0,2021-09-13,2021-09-13,株式会社Ｃｈａｉｎｏｎ,,株式会社,東京都,世田谷区,砧１丁目３２－２３,,13,112,1570073,,,,,,,2021-09-13,1,,,,,シェノン,0
52,1011001142696,新規,0,2021-09-13,2021-09-13,株式会社ｆｉｔｎｅｓｓ　ｌｉｆｅ　ｐｌａｎ,,株式会社,東京都,目黒区,目黒１丁目４番１６号目黒Ｇビル７Ｆ,,13,110,1530063,,,,,,,2021-09-13,1,,,,,フィットネスライフプラン,0
53,1011001142721,新規,0,2021-09-13,2021-09-13,株式会社Ｌｉｅｎ,,株式会社,東京都,渋谷区,広尾５丁目１４番２号,,13,113,1500012,,,,,,,2021-09-13,1,,,,,リアン,0
54,1011001142754,新規,0,2021-09-13,2021-09-13,ＴＧＦホールディングス株式会社,,株式会社,東京都,目黒区,平町１丁目１６番１７号,,13,110,1520032,,,,,,,2021-09-13,1,,,,,ティージーエフホールディングス,0
55,1011003013334,新規,0,2021-09-13,2021-09-13,ＬＡＮＤＬＯＲＤ匣園合同会社,,合同会社,東京都,渋谷区,神宮前６丁目２３番４号桑野ビル２階,,13,113,1500001,,,,,,,2021-09-13,1,,,,,ランドロードハコソノ,0
56,1011003013342,新規,0,2021-09-13,2021-09-13,合同会社ＳａｓａＴｅｃｈ,,合同会社,東京都,渋谷区,渋谷２丁目１９－１５宮益坂ビルディング６０９,,13,113,1500002,,,,,,,2021-09-13,1,,,,,ササテック,0
76,1011701024698,新規,0,2021-09-13,2021-09-13,株式会社ＪＡＰＡＮ　ＡＦＲＩＣＡ　ＢＵＳＩＮＥＳＳ　ＢＡＳＮＥＲＥ,,株式会社,東京都,江戸川区,松島４丁目１３番１号プラーズ松島３０３号室,,13,123,1320031,,,,,,,2021-09-13,1,,,,,ジャパンアフリカビジネスバスネレ,0
92,1020001142986,新規,0,2021-09-13,2021-09-13,ＴＯＮＡＲＩ　ＬＡＢＯ株式会社,,株式会社,神奈川県,横浜市磯子区,滝頭１丁目１番１９－１号,,14,107,2350012,,,,,,,2021-09-13,1,,,,,トナリラボ,0
103,1021001073924,新規,0,2021-09-13,2021-09-13,ラストヘルパー株式会社,,株式会社,神奈川県,相模原市緑区,橋本４丁目１１－４２,,14,151,2520143,,,,,,,2021-09-13,1,,,,,ラストヘルパー,0
110,1021003010867,新規,0,2021-09-13,2021-09-13,Ｇｒｉｐ　ｔｈｅ　Ｒｅｉｎ合同会社,,合同会社,神奈川県,相模原市中央区,淵野辺２丁目１－３０－４３０,,14,152,2520206,,,,,,,2021-09-13,1,,,,,グリップザレイン,0
118,1030001144288,新規,0,2021-09-13,2021-09-13,株式会社柳工業,,株式会社,埼玉県,さいたま市浦和区,木崎４丁目２１番１３号,,11,107,3300042,,,,,,,2021-09-13,1,,,,,ヤナギコウギョウ,0
119,1030001144313,新規,0,2021-09-13,2021-09-13,株式会社彩志園,,株式会社,埼玉県,春日部市,豊町４丁目６番地７,,11,214,3440066,,,,,,,2021-09-13,1,,,,,サイシエン,0
124,1030003017938,新規,0,2021-09-13,2021-09-13,Ｈ．ｃｏｍｐａｎｙ合同会社,,合同会社,埼玉県,さいたま市浦和区,上木崎２丁目１６番１８－２号,,11,107,3300071,,,,,,,2021-09-13,1,,,,,エイチカンパニー,0
125,1030003017946,新規,0,2021-09-13,2021-09-13,合同会社マーズ,,合同会社,埼玉県,新座市,菅沢２丁目８番２５号,,11,230,3520017,,,,,,,2021-09-13,1,,,,,マーズ,0
137,1040001120098,新規,0,2021-09-13,2021-09-13,株式会社ＹＵＲＩＮＯ,,株式会社,千葉県,旭市,三川４４２８番地６,,12,215,2892714,,,,,,,2021-09-13,1,,,,,ユリノ,0
146,1040003018472,新規,0,2021-09-13,2021-09-13,合同会社ＨＩＺＡＳＨＩ　ＩＮＴＥＲＮＡＴＩＯＮＡＬ,,合同会社,千葉県,八千代市,米本１０９９番地１,,12,221,2760015,,,,,,,2021-09-13,1,,,,,ヒザシインターナショナル,0
164,1080101022769,新規,0,2021-09-13,2021-09-13,株式会社コートラボ,,株式会社,静岡県,三島市,谷田１３６１番地の３,,22,206,4110801,,,,,,,2021-09-13,1,,,,,コートラボ,0
169,1100001034597,新規,0,2021-09-13,2021-09-13,株式会社アールズデザイン,,株式会社,長野県,長野市,戸隠３４１８番地,,20,201,3814101,,,,,,,2021-09-13,1,,,,,アールズデザイン,0
170,1100001034606,新規,0,2021-09-13,2021-09-13,株式会社ウェルネスライフ研究所,,株式会社,長野県,長野市,西和田１丁目４番１４号,,20,201,3810037,,,,,,,2021-09-13,1,,,,,ウェルネスライフケンキュウジョ,0
175,1110001036031,新規,0,2021-09-13,2021-09-13,株式会社エム・アイ,,株式会社,新潟県,新潟市秋葉区,こがね町８番２４号,,15,105,9560016,,,,,,,2021-09-13,1,,,,,,0
181,1120001240359,新規,0,2021-09-13,2021-09-13,株式会社ＬＩＡＸ,,株式会社,大阪府,大阪市中央区,久太郎町１丁目５番３１号リアライズ堺筋本町ビル２０３,,27,128,5410056,,,,,,,2021-09-13,1,,,,,リアーク,0
182,1120001240367,新規,0,2021-09-13,2021-09-13,株式会社レプカ,,株式会社,大阪府,大阪市都島区,善源寺町１丁目５番３７号,,27,102,5340015,,,,,,,2021-09-13,1,,,,,レプカ,0
189,1120003020214,新規,0,2021-09-13,2021-09-13,合同会社ＤａｉｓｙＢｌｏｏｍ,,合同会社,大阪府,大阪市東住吉区,東田辺３丁目２５番４号,,27,121,5460032,,,,,,,2021-09-13,1,,,,,デイジーブルーム,0
211,1140001122992,新規,0,2021-09-13,2021-09-13,ワンダーオール株式会社,,株式会社,兵庫県,神戸市灘区,八幡町３丁目５－２０コンフォート六甲００１,,28,102,6570051,,,,,,,2021-09-13,1,,,,,ワンダーオール,0
212,1140001123009,新規,0,2021-09-13,2021-09-13,株式会社ｍｙｓｉｇ,,株式会社,兵庫県,たつの市,龍野町川原町１５１番地１,,28,229,6794166,,,,,,,2021-09-13,1,,,,,ミューシグ,0
221,1160001023628,新規,0,2021-09-13,2021-09-13,株式会社ＨＡＦＵＲＩ,,株式会社,滋賀県,大津市,野郷原１丁目１７番６５号,,25,201,5202133,,,,,,,2021-09-13,1,,,,,ハフリ,0
224,1160005010977,新規,0,2021-09-13,2021-09-13,行政書士法人杉本行政事務所,,その他の設立登記法人,滋賀県,彦根市,船町１－１５Ｊｃｏｕｒｔビル１Ｆ,,25,202,5220072,,,,,,,2021-09-13,1,,,,,スギモトギョウセイジムショ,0
236,1180005019422,新規,0,2021-09-13,2021-09-13,税理士法人アイフロント,,その他の設立登記法人,愛知県,名古屋市北区,金城２丁目７番１０号,,23,103,4620847,,,,,,,2021-09-13,1,,,,,アイフロント,0
237,1180005019430,新規,0,2021-09-13,2021-09-13,一般社団法人環境放射線サポートセンター,,その他の設立登記法人,愛知県,名古屋市北区,落合町４８番地３,,23,103,4620017,,,,,,,2021-09-13,1,,,,,カンキョウホウシャセンサポートセンター,0
240,1180301035370,新規,0,2021-09-13,2021-09-13,エイムス株式会社,,株式会社,愛知県,岡崎市,美合町字生田２２５番地,,23,202,4440804,,,,,,,2021-09-13,1,,,,,エイムス,0
242,1190005011618,新規,0,2021-09-13,2021-09-13,一般社団法人ナチュラル,,その他の設立登記法人,三重県,津市,白山町川口４１９１番地,,24,201,5152603,,,,,,,2021-09-13,1,,,,,ナチュラル,0
246,1200001039124,新規,0,2021-09-13,2021-09-13,株式会社ＯＳＫ,,株式会社,岐阜県,多治見市,音羽町１丁目２０１番地,,21,204,5070037,,,,,,,2021-09-13,1,,,,,オーエスケイ,0
247,1200001039132,新規,0,2021-09-13,2021-09-13,オールスターズ岐阜株式会社,,株式会社,岐阜県,岐阜市,長良竜東町５丁目２番地１,,21,201,5020061,,,,,,,2021-09-13,1,,,,,オールスターズギフ,0
248,1200003005306,新規,0,2021-09-13,2021-09-13,岐阜経理サービス合同会社,,合同会社,岐阜県,加茂郡富加町,滝田２８２番地５,,21,502,5013305,,,,,,,2021-09-13,1,,,,,ギフケイリサービス,0
256,1240001058599,新規,0,2021-09-13,2021-09-13,株式会社Ｋ’Ｓ　ＣＲＥＡＴＥ,,株式会社,広島県,広島市安佐北区,落合南５丁目１３１４番地７,,34,106,7391732,,,,,,,2021-09-13,1,,,,,ケーズクリエイト,0
262,1270001008353,新規,0,2021-09-13,2021-09-13,株式会社はるうた,,株式会社,鳥取県,鳥取市,良田６０番地９,,31,201,6801441,,,,,,,2021-09-13,1,,,,,ハルウタ,0
264,1290001094607,新規,0,2021-09-13,2021-09-13,株式会社ＢＲ　ＪＡＰＡＮ,,株式会社,福岡県,福岡市博多区,諸岡１丁目２０番１５－９０２号,,40,132,8120894,,,,,,,2021-09-13,1,,,,,ビーアールジャパン,0
265,1290001094615,新規,0,2021-09-13,2021-09-13,株式会社オブノート,,株式会社,福岡県,糸島市,高田２丁目１２番１２号,,40,230,8191102,,,,,,,2021-09-13,1,,,,,オブノート,0
272,1320001018603,新規,0,2021-09-13,2021-09-13,株式会社藤安コーポレーション,,株式会社,大分県,大分市,新貝７番４号,,44,201,8700911,,,,,,,2021-09-13,1,,,,,フジヤスコーポレーション,0
276,1340003003543,新規,0,2021-09-13,2021-09-13,翔龍合同会社,,合同会社,鹿児島県,鹿児島市,宇宿１丁目１番１号バーシティ宇宿１０５号,,46,201,8900073,,,,,,,2021-09-13,1,,,,,ショウリュウ,0
277,1340003003551,新規,0,2021-09-13,2021-09-13,合同会社Ｈ．Ｃ．Ｆ,,合同会社,鹿児島県,霧島市,国分新町１０１８番地１,,46,218,8994351,,,,,,,2021-09-13,1,,,,,エイチドットシードットエフ,0
282,1360001029349,新規,0,2021-09-13,2021-09-13,株式会社スマイル,,株式会社,沖縄県,那覇市,東町２２－８－５０５,,47,201,9000034,,,,,,,2021-09-13,1,,,,,スマイル,0
289,1380003005016,新規,0,2021-09-13,2021-09-13,合同会社アングーラ,,合同会社,福島県,郡山市,片平町字新蟻塚１４２番地の１３メリディオミキ１０１号,,07,203,9630211,,,,,,,2021-09-13,1,,,,,アングーラ,0
296,1430001084948,新規,0,2021-09-13,2021-09-13,株式会社ＳＷＩＳＨ,,株式会社,北海道,札幌市厚別区,大谷地東２丁目５番６０号,,01,108,0040041,,,,,,,2021-09-13,1,,,,,スウィッシュ,0
297,1430001084964,新規,0,2021-09-13,2021-09-13,株式会社絆ライフ,,株式会社,北海道,苫小牧市,拓勇東町２丁目１番４号,,01,213,0591303,,,,,,,2021-09-13,1,,,,,キズナライフ,0
298,1430003013137,新規,0,2021-09-13,2021-09-13,合同会社ふんどし,,合同会社,北海道,札幌市中央区,南十三条西５丁目１番１２－３０２号,,01,101,0640913,,,,,,,2021-09-13,1,,,,,フンドシ,0
302,1450001013475,新規,0,2021-09-13,2021-09-13,株式会社ａ－ｎｉｎｅ,,株式会社,北海道,旭川市,三条通１丁目１６４０－２７－２０７,,01,204,0700033,,,,,,,2021-09-13,1,,,,,エーナイン,0
310,2010001221105,新規,0,2021-09-13,2021-09-13,株式会社スノーラビット,,株式会社,東京都,中央区,銀座１丁目２２番１１号銀座大竹ビジデンス２階,,13,102,1040061,,,,,,,2021-09-13,1,,,,,スノーラビット,0
311,2010001221138,新規,0,2021-09-13,2021-09-13,ウォレットコンサルティング株式会社,,株式会社,東京都,中央区,銀座１丁目１２番４号Ｎ＆Ｅ．ＢＬＤ．７階,,13,102,1040061,,,,,,,2021-09-13,1,,,,,ウォレットコンサルティング,0
312,2010003035759,新規,0,2021-09-13,2021-09-13,合同会社八重洲一丁目開発,,合同会社,東京都,千代田区,丸の内３丁目１番１号東京共同会計事務所内,,13,101,1000005,,,,,,,2021-09-13,1,,,,,ヤエスイッチョウメカイハツ,0
313,2010003035767,新規,0,2021-09-13,2021-09-13,ＪＵ企画合同会社,,合同会社,東京都,千代田区,内神田３丁目１３番４号東陽ビル３階,,13,101,1010047,,,,,,,2021-09-13,1,,,,,ジェイユーキカク,0
314,2010005033950,新規,0,2021-09-13,2021-09-13,医療法人社団光創会,,その他の設立登記法人,東京都,千代田区,鍛冶町２丁目８番６号メディカルプライム神田６階,,13,101,1010044,,,,,,,2021-09-13,1,,,,,コウソウカイ,0
321,2010401162634,新規,0,2021-09-13,2021-09-13,ＳＬＭ　Ｓｏｌｕｔｉｏｎｓ　Ｊａｐａｎ株式会社,,株式会社,東京都,港区,六本木３丁目６番９号小見山公認会計士事務所内,,13,103,1060032,,,,,,,2021-09-13,1,,,,,エスエルエムソリューションズジャパン,0
341,2011001142687,新規,0,2021-09-13,2021-09-13,Ｈｅｕｒｅｕｘ建設株式会社,,株式会社,東京都,渋谷区,代々木１丁目３７番８号,,13,113,1510053,,,,,,,2021-09-13,1,,,,,ウールーケンセツ,0
342,2011001142729,新規,0,2021-09-13,2021-09-13,株式会社Ｆｌｉｎｔ,,株式会社,東京都,渋谷区,恵比寿西２丁目２０－８代官山パーフェクトルーム６０６,,13,113,1500021,,,,,,,2021-09-13,1,,,,,フリント,0
343,2011001142761,新規,0,2021-09-13,2021-09-13,株式会社Ｎｅｗ　ｌｉｆｅ住宅ローン,,株式会社,東京都,渋谷区,恵比寿南２丁目６番１６号早瀬ビル３０３,,13,113,1500022,,,,,,,2021-09-13,1,,,,,ニューライフジュウタクローン,0
344,2011003013325,新規,0,2021-09-13,2021-09-13,ＨＮＹ合同会社,,合同会社,東京都,目黒区,五本木１丁目８番５号,,13,110,1530053,,,,,,,2021-09-13,1,,,,,エイチエヌワイ,0
345,2011003013333,新規,0,2021-09-13,2021-09-13,アカラ・ウイングス合同会社,,合同会社,東京都,目黒区,下目黒２丁目２３番２８－３０５号トウールロワイヤルエルモア目黒,,13,110,1530064,,,,,,,2021-09-13,1,,,,,アカラアウイングス,0
349,2011101096255,新規,0,2021-09-13,2021-09-13,株式会社ｍａｍａｋａｎｎ,,株式会社,東京都,新宿区,西新宿７丁目１－７新宿ダイカンプラザＡ１０１８,,13,104,1600023,,,,,,,2021-09-13,1,,,,,ママカン,0
354,2011303004172,新規,0,2021-09-13,2021-09-13,合同会社オルゴール,,合同会社,東京都,杉並区,高円寺南１丁目２５－１８グラナート２０１,,13,115,1660003,,,,,,,2021-09-13,1,,,,,オルゴール,0
355,2011501027306,新規,0,2021-09-13,2021-09-13,ＮＥＰＡＬ　ＭＡＲＴ株式会社,,株式会社,東京都,北区,田端新町２丁目２０－６島宗ビル１０１号,,13,117,1140012,,,,,,,2021-09-13,1,,,,,ネパールマート,0
360,2011705001692,新規,0,2021-09-13,2021-09-13,医療法人社団船堀ガーデン,,その他の設立登記法人,東京都,江戸川区,船堀３丁目１６番５号プラウドシティ船堀１階,,13,123,1340091,,,,,,,2021-09-13,1,,,,,フナボリガーデン,0
361,2011801039694,新規,0,2021-09-13,2021-09-13,株式会社ｐｏｕｒ　ｔｏｉ,,株式会社,東京都,足立区,千住橋戸町５番地３ヴュドフェリス３０１,,13,121,1200038,,,,,,,2021-09-13,1,,,,,プルトワ,0
367,2012703002311,新規,0,2021-09-13,2021-09-13,合同会社リショールハウス,,合同会社,東京都,東村山市,秋津町４丁目１０番地６２,,13,213,1890001,,,,,,,2021-09-13,1,,,,,リショールハウス,0
381,2020001142911,新規,0,2021-09-13,2021-09-13,株式会社Ｍｏｎｏｔｅｘ,,株式会社,神奈川県,川崎市多摩区,西生田４丁目２５番３号ＷＩＬＬシェア読売ランド１０２,,14,135,2140037,,,,,,,2021-09-13,1,,,,,モノテックス,0
403,2030001144295,新規,0,2021-09-13,2021-09-13,株式会社環境サミット,,株式会社,埼玉県,さいたま市緑区,大間木３丁目３５番地２,,11,109,3360923,,,,,,,2021-09-13,1,,,,,カンキョウサミット,0
404,2030001144304,新規,0,2021-09-13,2021-09-13,ＺＥＭＳ　ＬＩＮＫ株式会社,,株式会社,埼玉県,さいたま市岩槻区,大字真福寺５２５番地,,11,110,3390044,,,,,,,2021-09-13,1,,,,,ゼムスリンク,0
405,2030001144312,新規,0,2021-09-13,2021-09-13,株式会社野和,,株式会社,埼玉県,川口市,仲町１８番１１－３１２号グリーンパーク西川口スカイハイツ,,11,203,3320022,,,,,,,2021-09-13,1,,,,,ノワ,0
408,2030003017945,新規,0,2021-09-13,2021-09-13,ＨＡＮＡＢＩ　ＳＴＵＤＩＯ合同会社,,合同会社,埼玉県,川越市,大字天沼新田２６９番地６,,11,201,3500806,,,,,,,2021-09-13,1,,,,,ハナビスタジオ,0
409,2030005020518,新規,0,2021-09-13,2021-09-13,司法書士法人大貫事務所,,その他の設立登記法人,埼玉県,志木市,柏町４丁目１番５号,,11,228,3530007,,,,,,,2021-09-13,1,,,,,オオヌキジムショ,0
414,2040003018496,新規,0,2021-09-13,2021-09-13,合同会社丸号,,合同会社,千葉県,市川市,真間２丁目２番８号,,12,203,2720826,,,,,,,2021-09-13,1,,,,,マルゴウ,0
415,2040003018513,新規,0,2021-09-13,2021-09-13,合同会社ＹＳＰ,,合同会社,千葉県,千葉市美浜区,高洲１丁目１７－１－１０５,,12,106,2610004,,,,,,,2021-09-13,1,,,,,ワイエスピー,0
430,2060003003802,新規,0,2021-09-13,2021-09-13,合同会社ｃｏｔａ,,合同会社,栃木県,宇都宮市,山本１丁目３８番１８号,,09,201,3200012,,,,,,,2021-09-13,1,,,,,コタ,0
442,2080001024435,新規,0,2021-09-13,2021-09-13,株式会社Ｂｏｎｎｅ　ｎｏｕｖｅｌｌｅ,,株式会社,静岡県,藤枝市,高岡１丁目１１番２６号,,22,214,4260062,,,,,,,2021-09-13,1,,,,,ボンヌヌーベル,0
443,2080003002637,新規,0,2021-09-13,2021-09-13,合同会社アウトパフォーム,,合同会社,静岡県,静岡市葵区,本通３丁目１２番－９０５号,,22,101,4200064,,,,,,,2021-09-13,1,,,,,アウトパフォーム,0
448,2080401025339,新規,0,2021-09-13,2021-09-13,株式会社新吉,,株式会社,静岡県,袋井市,浅名８１６番地,,22,216,4371102,,,,,,,2021-09-13,1,,,,,シンキチ,0
462,2110001036039,新規,0,2021-09-13,2021-09-13,株式会社エマリー,,株式会社,新潟県,五泉市,五泉２４８７番地６,,15,218,9591851,,,,,,,2021-09-13,1,,,,,エマリー,0
465,2110003004571,新規,0,2021-09-13,2021-09-13,合同会社ヒューマンサポート,,合同会社,新潟県,長岡市,蓮潟３丁目５－１３,,15,202,9402023,,,,,,,2021-09-13,1,,,,,ヒューマンサポート,0
472,2120001240366,新規,0,2021-09-13,2021-09-13,株式会社プランシェイプ,,株式会社,大阪府,大阪市東淀川区,大桐２丁目１３番１８－４０７号,,27,114,5330011,,,,,,,2021-09-13,1,,,,,プランシェイプ,0
482,2120003020213,新規,0,2021-09-13,2021-09-13,合同会社ＭＤ,,合同会社,大阪府,大阪市中央区,島之内２丁目１５番２６号ＡＸＩＳシャトー東心斎橋２０２,,27,128,5420082,,,,,,,2021-09-13,1,,,,,エムディー,0
486,2120101064302,新規,0,2021-09-13,2021-09-13,株式会社七福土地,,株式会社,大阪府,富田林市,大字彼方２４２番地３,,27,214,5840058,,,,,,,2021-09-13,1,,,,,シチフクトチ,0
491,2122003002174,新規,0,2021-09-13,2021-09-13,ＬｉｓＤｉｖｅｒｓ合同会社,,合同会社,大阪府,八尾市,山本町南１丁目４－１スズヤビル２０３号室,,27,212,5810013,,,,,,,2021-09-13,1,,,,,リスダイバーズ,0
507,2140001123008,新規,0,2021-09-13,2021-09-13,株式会社Ａｃｒｏｘｅｅｄ,,株式会社,兵庫県,神戸市北区,鈴蘭台北町６丁目１２－１ブエナビスタ神戸ノース２０９,,28,109,6511111,,,,,,,2021-09-13,1,,,,,アクロシード,0
508,2140001123016,新規,0,2021-09-13,2021-09-13,株式会社Ｎｅｗ　Ｌｉｆｅ　Ｎｅｔｗｏｒｋ,,株式会社,兵庫県,宝塚市,千種１丁目８番２４号,,28,214,6650072,,,,,,,2021-09-13,1,,,,,ニューライフネットワーク,0
523,2180001147812,新規,0,2021-09-13,2021-09-13,株式会社Ｖａｒｉａｎｔｕｒｅｓ,,株式会社,愛知県,名古屋市中区,金山２丁目１－２２プロシード金山Ⅱ１００２号,00124219,23,106,4600022,,,,,,,2021-09-13,1,,,,,バリアンチャー,0
526,2180003022947,新規,0,2021-09-13,2021-09-13,Ｔ１合同会社,,合同会社,愛知県,名古屋市西区,枇杷島１丁目１２－１２,,23,104,4510053,,,,,,,2021-09-13,1,,,,,ティーワン,0
530,2190001028680,新規,0,2021-09-13,2021-09-13,株式会社オフィストリオ,,株式会社,三重県,津市,野田２１番地８５９,,24,201,5140826,,,,,,,2021-09-13,1,,,,,オフィストリオ,0
531,2190005011617,新規,0,2021-09-13,2021-09-13,一般社団法人喜び,,その他の設立登記法人,三重県,度会郡南伊勢町,田曽浦３８４４番地１,,24,472,5160222,,,,,,,2021-09-13,1,,,,,ヨロコビ,0
534,2200001039123,新規,0,2021-09-13,2021-09-13,縁側スペースｎｅｉｒｏ株式会社,,株式会社,岐阜県,瑞穂市,稲里４２５番地,,21,216,5010224,,,,,,,2021-09-13,1,,,,,エンガワスペースネイロ,0
535,2200001039131,新規,0,2021-09-13,2021-09-13,株式会社ＫＨラボ,,株式会社,岐阜県,岐阜市,黒野１８４番地,,21,201,5011131,,,,,,,2021-09-13,1,,,,,ケイエイチラボ,0
538,2200003005313,新規,0,2021-09-13,2021-09-13,パラザ合同会社,,合同会社,岐阜県,岐阜市,領下１丁目１０番地１（レジデンス領下Ｂ４号室）,,21,201,5008241,,,,,,,2021-09-13,1,,,,,パラザ,0
558,2260001035959,新規,0,2021-09-13,2021-09-13,株式会社ルピナス,,株式会社,岡山県,岡山市北区,表町３丁目１８番５２号吉本ビル５階,,33,101,7000822,,,,,,,2021-09-13,1,,,,,ルピナス,0
561,2290001094424,新規,0,2021-09-13,2021-09-13,株式会社Ｌ,,株式会社,福岡県,飯塚市,幸袋５７６番地１４トライバレーセンターＢ３０６,,40,205,8200066,,,,,,,2021-09-13,1,,,,,エル,0
564,2290003011600,新規,0,2021-09-13,2021-09-13,合同会社實プレミアム,,合同会社,福岡県,福岡市早良区,有田１丁目３５番８号,,40,137,8140033,,,,,,,2021-09-13,1,,,,,ミノリプレミアム,0
565,2290801027780,新規,0,2021-09-13,2021-09-13,株式会社ＴＲＵＳＴ－Ｋ,,株式会社,福岡県,宮若市,本城７０６番地,,40,226,8230003,,,,,,,2021-09-13,1,,,,,トラストケー,0
568,2320001018602,新規,0,2021-09-13,2021-09-13,メイズエンジンワークス株式会社,,株式会社,大分県,大分市,大字上判田５５００番地の９,,44,201,8701111,,,,,,,2021-09-13,1,,,,,,0
572,2340003003550,新規,0,2021-09-13,2021-09-13,Ｍ－ｐｒｏｄｕｃｔｉｏｎ合同会社,,合同会社,鹿児島県,南さつま市,金峰町白川２９７０番地,,46,220,8993513,,,,,,,2021-09-13,1,,,,,エムプロダクション,0
575,2360001029315,新規,0,2021-09-13,2021-09-13,株式会社スイートレンタカー,,株式会社,沖縄県,豊見城市,字名嘉地１２１番地,,47,212,9010235,,,,,,,2021-09-13,1,,,,,スイートレンタカー,0
585,2400001015599,新規,0,2021-09-13,2021-09-13,株式会社細岳,,株式会社,岩手県,盛岡市,上堂２丁目２番３５号,,03,201,0200125,,,,,,,2021-09-13,1,,,,,ホソタケ,0
586,2410001012959,新規,0,2021-09-13,2021-09-13,株式会社Ｎｅｘｔ　Ｓｅｖｅｎ　Ｇｅｎｅｒａｔｉｏｎ,,株式会社,秋田県,秋田市,大平台１丁目１２番地１４,,05,201,0101428,,,,,,,2021-09-13,1,,,,,ネクストセブンジェネレーション,0
590,2430001084922,新規,0,2021-09-13,2021-09-13,株式会社ＬＥＧＡＲＥ,,株式会社,北海道,札幌市中央区,南一条西１３丁目４番４０号ＳＡＫＵＲＡ－Ｗ１３　３Ｆ,,01,101,0600061,,,,,,,2021-09-13,1,,,,,レガーレ,0
591,2430001084939,新規,0,2021-09-13,2021-09-13,株式会社ペンタクル・エステート,,株式会社,北海道,岩見沢市,栗沢町北本町２００番地１,,01,210,0680121,,,,,,,2021-09-13,1,,,,,ペンタクルエステート,0
592,2430001084947,新規,0,2021-09-13,2021-09-13,株式会社ＲＯＭＵＲＯＭＵ,,株式会社,北海道,札幌市中央区,南九条西６丁目２番１８－２０３号,,01,101,0640809,,,,,,,2021-09-13,1,,,,,ロムロム,0
597,2450001013474,新規,0,2021-09-13,2021-09-13,株式会社ルームクラフト,,株式会社,北海道,旭川市,末広五条１１丁目５番２３号,,01,204,0718135,,,,,,,2021-09-13,1,,,,,ルームクラフト,0
605,2500003002692,新規,0,2021-09-13,2021-09-13,合同会社ｉｆ,,合同会社,愛媛県,松山市,萱町５丁目８番地４,,38,201,7900813,,,,,,,2021-09-13,1,,,,,イフ,0
610,3010001221046,新規,0,2021-09-13,2021-09-13,株式会社Ｃｈｅｗｉｎｇ　Ｎｅｗｓ,,株式会社,東京都,千代田区,麹町１丁目４番４号,,13,101,1020083,,,,,,,2021-09-13,1,,,,,チューイングニュース,0
611,3010001221087,新規,0,2021-09-13,2021-09-13,株式会社Ｒｏｓｙ,,株式会社,東京都,中央区,晴海３丁目１３番１号ＤｅｕｘＴｏｕｒｓＥａｓｔＴｏｗｅｒ５１０７,,13,102,1040053,,,,,,,2021-09-13,1,,,,,ロジー,0
612,3010001221095,新規,0,2021-09-13,2021-09-13,株式会社ゐろて,,株式会社,東京都,中央区,銀座１丁目１２番４号Ｎ＆ＥＢＬＤ．７階,,13,102,1040061,,,,,,,2021-09-13,1,,,,,イロテ,0
613,3010001221104,新規,0,2021-09-13,2021-09-13,株式会社ＮＴＷ,,株式会社,東京都,文京区,本郷３丁目２４番９号,,13,105,1130033,,,,,,,2021-09-13,1,,,,,エヌティーダブリュー,0
614,3010001221129,新規,0,2021-09-13,2021-09-13,丸の内アセット株式会社,,株式会社,東京都,千代田区,丸の内２丁目６番１号,,13,101,1000005,,,,,,,2021-09-13,1,,,,,マルノウチアセット,0
615,3010001221145,新規,0,2021-09-13,2021-09-13,株式会社ＳＨＩＮコーポレーション,,株式会社,東京都,千代田区,神田須田町２丁目９番地,,13,101,1010041,,,,,,,2021-09-13,1,,,,,シンコーポレーション,0
617,3010003035782,新規,0,2021-09-13,2021-09-13,ＭＭＫ合同会社,,合同会社,東京都,中央区,晴海２丁目３番２－１３０４号,,13,102,1040053,,,,,,,2021-09-13,1,,,,,エムエムケイ,0
618,3010005033925,新規,0,2021-09-13,2021-09-13,一般社団法人家族の絆,,その他の設立登記法人,東京都,中央区,京橋２丁目２番１号京橋エドグラン２６階,,13,102,1040031,,,,,,,2021-09-13,1,,,,,カゾクノキズナ,0
620,3010101014853,新規,0,2021-09-13,2021-09-13,株式会社ＵＫ社,,株式会社,東京都,八王子市,別所１丁目４６番地ライオンズ南大沢ヒルズ１０８号,,13,201,1920363,,,,,,,2021-09-13,1,,,,,ユーケーシャ,0
628,3010401162641,新規,0,2021-09-13,2021-09-13,株式会社ノーション,,株式会社,東京都,港区,六本木６丁目６番３号,,13,103,1060032,,,,,,,2021-09-13,1,,,,,ノーション,0
629,3010401162658,新規,0,2021-09-13,2021-09-13,ゼログラビティ株式会社,,株式会社,東京都,港区,東新橋２丁目１０－１０東新橋ビル２Ｆ,,13,103,1050021,,,,,,,2021-09-13,1,,,,,ゼログラビティ,0
648,3010603009137,新規,0,2021-09-13,2021-09-13,合同会社Ｔ＆ＲＡ,,合同会社,東京都,江東区,亀戸５丁目５番１３号,,13,108,1360071,,,,,,,2021-09-13,1,,,,,ティーアンドアールエー,0
655,3011001142637,新規,0,2021-09-13,2021-09-13,株式会社ＳＫＣ,,株式会社,東京都,渋谷区,神南１丁目７番７号渋谷公園通りＮＮビル,,13,113,1500041,,,,,,,2021-09-13,1,,,,,エスケーシー,0
656,3011001142645,新規,0,2021-09-13,2021-09-13,株式会社システム・リサーチ,,株式会社,東京都,渋谷区,神宮前６丁目２３－４桑野ビル２階,,13,113,1500001,,,,,,,2021-09-13,1,,,,,システムリサーチ,0
657,3011001142694,新規,0,2021-09-13,2021-09-13,株式会社エイプシット,,株式会社,東京都,渋谷区,渋谷３丁目１番９号Ｙａｚａｗａビル４階,,13,113,1500002,,,,,,,2021-09-13,1,,,,,エイプシット,0
658,3011001142736,新規,0,2021-09-13,2021-09-13,株式会社ＹＴＪ,,株式会社,東京都,目黒区,祐天寺２丁目１４番１号フィオーレ祐天寺１０４,,13,110,1530052,,,,,,,2021-09-13,1,,,,,ワイティージェイ,0
659,3011001142760,新規,0,2021-09-13,2021-09-13,株式会社ＣＵＥ,,株式会社,東京都,渋谷区,渋谷２丁目１９番１５号宮益坂ビルディング６０９,,13,113,1500002,,,,,,,2021-09-13,1,,,,,キュー,0
660,3011001142769,新規,0,2021-09-13,2021-09-13,株式会社Ｒｅｌｉｃホールディングス,,株式会社,東京都,渋谷区,恵比寿４丁目２０番３号恵比寿ガーデンプレイスタワー８階,,13,113,1500013,,,,,,,2021-09-13,1,,,,,レリックホールディングス,0
661,3011003013332,新規,0,2021-09-13,2021-09-13,合同会社Ｍｏｎｏｌｉｔｈ　Ｅｎｔｅｒｔａｉｎｍｅｎｔ,,合同会社,東京都,渋谷区,神宮前６丁目２３番４号桑野ビル２階,,13,113,1500001,,,,,,,2021-09-13,1,,,,,モノリスエンタテインメント,0
662,3011003013340,新規,0,2021-09-13,2021-09-13,イーストキャピタル合同会社,,合同会社,東京都,渋谷区,渋谷１丁目１９番１８－１４０３号,,13,113,1500002,,,,,,,2021-09-13,1,,,,,イーストキャピタル,0
663,3011003013349,新規,0,2021-09-13,2021-09-13,合同会社斉藤企画,,合同会社,東京都,渋谷区,松濤１丁目３番１２号,,13,113,1500046,,,,,,,2021-09-13,1,,,,,サイトウキカク,0
666,3011105009963,新規,0,2021-09-13,2021-09-13,一般社団法人日本次世代ネットワーク整備機構,,その他の設立登記法人,東京都,新宿区,舟町１２番地,,13,104,1600006,,,,,,,2021-09-13,1,,,,,ニホンジセダイネットワークセイビキコウ,0
669,3011501027305,新規,0,2021-09-13,2021-09-13,東水堂株式会社,,株式会社,東京都,北区,上十条１丁目１１番１０号,,13,117,1140034,,,,,,,2021-09-13,1,,,,,トウスイドウ,0
673,3011601025398,新規,0,2021-09-13,2021-09-13,白星株式会社,,株式会社,東京都,練馬区,南大泉１丁目１６番１１号,,13,120,1780064,,,,,,,2021-09-13,1,,,,,シロボシ,0
685,3012801021071,新規,0,2021-09-13,2021-09-13,株式会社Ｇｒｏｗｔｈ　Ｈｅａｒｔ　Ｄｅｃｉｄｅ,,株式会社,東京都,日野市,多摩平３丁目１９番地の１それにあぱあとめんつ２０１,,13,212,1910062,,,,,,,2021-09-13,1,,,,,グロウスハートデサイド,0
696,3020003020478,新規,0,2021-09-13,2021-09-13,合同会社スクラッチ,,合同会社,神奈川県,横浜市中区,妙香寺台１０番地,,14,104,2310841,,,,,,,2021-09-13,1,,,,,スクラッチ,0
701,3021001073880,新規,0,2021-09-13,2021-09-13,株式会社ＮｉＣＯＦＵＬＬ,,株式会社,神奈川県,相模原市中央区,横山台１丁目４５番２号,,14,152,2520241,,,,,,,2021-09-13,1,,,,,ニコフル,0
715,3030001144311,新規,0,2021-09-13,2021-09-13,株式会社スカイコンサルティング,,株式会社,埼玉県,さいたま市見沼区,東大宮４丁目４番１号,,11,104,3370051,,,,,,,2021-09-13,1,,,,,スカイコンサルティング,0
723,3030003017928,新規,0,2021-09-13,2021-09-13,合同会社美建,,合同会社,埼玉県,戸田市,本町１丁目４番１３号,,11,224,3350023,,,,,,,2021-09-13,1,,,,,ビケン,0
726,3040001119675,新規,0,2021-09-13,2021-09-13,株式会社柏斎苑,,株式会社,千葉県,柏市,名戸ケ谷１丁目６番１９号,,12,217,2770032,,,,,,,2021-09-13,1,,,,,カシワサイエン,0
728,3040001120179,新規,0,2021-09-13,2021-09-13,株式会社Ｇａｍａｎａ,,株式会社,千葉県,浦安市,美浜４丁目１４番１号,,12,227,2790011,,,,,,,2021-09-13,1,,,,,ガマナ,0
732,3040003018512,新規,0,2021-09-13,2021-09-13,合同会社スラッシュ,,合同会社,千葉県,市川市,南行徳２丁目２２－１１リヴェールＪ２１０号室,,12,203,2720138,,,,,,,2021-09-13,1,,,,,スラッシュ,0
743,3080401025338,新規,0,2021-09-13,2021-09-13,株式会社Ａｃｔｉｖｌｅ,,株式会社,静岡県,浜松市南区,楊子町１３３番地の１,,22,134,4300855,,,,,,,2021-09-13,1,,,,,アクティブル,0
763,3120001240126,新規,0,2021-09-13,2021-09-13,株式会社Ｔｅａｍ－Ｋ,,株式会社,大阪府,大阪市西区,江戸堀１丁目２０番２２－５０１号,,27,106,5500002,,,,,,,2021-09-13,1,,,,,チームケー,0
764,3120001240340,新規,0,2021-09-13,2021-09-13,株式会社ＷＩＮＧＤ,,株式会社,大阪府,大阪市浪速区,難波中３丁目７番１７－１００６号,,27,111,5560011,,,,,,,2021-09-13,1,,,,,ウィングディー,0
791,3140001122982,新規,0,2021-09-13,2021-09-13,株式会社リーフホーム,,株式会社,兵庫県,伊丹市,山田５丁目８番２１号,,28,207,6640874,,,,,,,2021-09-13,1,,,,,リーフホーム,0
802,3170001016777,新規,0,2021-09-13,2021-09-13,口熊野観光株式会社,,株式会社,和歌山県,西牟婁郡上富田町,市ノ瀬２５０４番地の５０,,30,404,6492107,,,,,,,2021-09-13,1,,,,,クチクマノカンコウ,0
811,3180001147811,新規,0,2021-09-13,2021-09-13,株式会社ナナハチ,,株式会社,愛知県,名古屋市東区,代官町３４－１２,,23,102,4610002,,,,,,,2021-09-13,1,,,,,ナナハチ,0
820,3180301035360,新規,0,2021-09-13,2021-09-13,株式会社ソルロジ,,株式会社,愛知県,豊田市,曙町５丁目３９番地,,23,211,4710835,,,,,,,2021-09-13,1,,,,,ソルロジ,0
837,3250003002899,新規,0,2021-09-13,2021-09-13,合同会社千万開発,,合同会社,山口県,宇部市,寺の前町１番１１号サンリキハイツＡ棟２０５号,,35,202,7550078,,,,,,,2021-09-13,1,,,,,チヨロズカイハツ,0
843,3260003003673,新規,0,2021-09-13,2021-09-13,フライングピーナッツ合同会社,,合同会社,岡山県,津山市,上之町３８８番地１０２号,,33,203,7080831,,,,,,,2021-09-13,1,,,,,フライングピーナッツ,0
850,3290001094547,新規,0,2021-09-13,2021-09-13,株式会社ＲＡＮ,,株式会社,福岡県,福岡市中央区,大手門３丁目１４－２７ラフォーレ大濠パークアベニュー６０４,,40,133,8100074,,,,,,,2021-09-13,1,,,,,ラン,0
851,3290001094646,新規,0,2021-09-13,2021-09-13,株式会社ＳＥＮ企画,,株式会社,福岡県,福岡市東区,松島３丁目１８番１号,,40,131,8130062,,,,,,,2021-09-13,1,,,,,センキカク,0
852,3290003011616,新規,0,2021-09-13,2021-09-13,Ｏａｓｉｓ合同会社,,合同会社,福岡県,福岡市早良区,百道３丁目１３番９－１号,,40,137,8140006,,,,,,,2021-09-13,1,,,,,オアシス,0
854,3290005018329,新規,0,2021-09-13,2021-09-13,一般社団法人Ｔｈｅ　Ｉｎｔｅｒｎａｔｉｏｎａｌ　Ｐｌａｓｍａｌｏｇｅｎ　Ｓｏｃｉｅｔｙ,,その他の設立登記法人,福岡県,糟屋郡久山町,大字久原２２４１番地の１,,40,348,8112501,,,,,,,2021-09-13,1,,,,,ザインターナショナルプラズマローゲンソサイエティ,0
855,3290005018353,新規,0,2021-09-13,2021-09-13,一般社団法人リエートス,,その他の設立登記法人,福岡県,福岡市中央区,大名１丁目３番地７サウスステージⅠ、３階,00124211,40,133,8100041,,,,,,,2021-09-13,1,,,,,リエートス,0
858,3290801027788,新規,0,2021-09-13,2021-09-13,株式会社ニシコウ,,株式会社,福岡県,北九州市小倉南区,湯川新町２丁目３０－１３,,40,107,8000256,,,,,,,2021-09-13,1,,,,,ニシコウ,0
872,3360001029371,新規,0,2021-09-13,2021-09-13,株式会社ロングステイネットワーク,,株式会社,沖縄県,那覇市,久茂地２丁目２番２号タイムスビル７階,,47,201,9000015,,,,,,,2021-09-13,1,,,,,ロングステイネットワーク,0
888,3430001084946,新規,0,2021-09-13,2021-09-13,株式会社Ｐａｗｆｅｃｔ　Ｓｔｕｄｉｏ,,株式会社,北海道,札幌市中央区,南八条西７丁目１０３６番１－１０２号,,01,101,0640808,,,,,,,2021-09-13,1,,,,,パウフェクトスタジオ,0
890,3430003013127,新規,0,2021-09-13,2021-09-13,合同会社エーシーズ,,合同会社,北海道,札幌市北区,新川西二条３丁目６番２２号ＯＡＫ２３－１０２号,,01,102,0010932,,,,,,,2021-09-13,1,,,,,エーシーズ,0
891,3430003013135,新規,0,2021-09-13,2021-09-13,合同会社Ｃｏｅｕｒ,,合同会社,北海道,札幌市中央区,北二条西２丁目３３番地２マーシャルビル２階,,01,101,0600002,,,,,,,2021-09-13,1,,,,,クー,0
892,3450001013473,新規,0,2021-09-13,2021-09-13,株式会社アドクス,,株式会社,北海道,旭川市,六条通１８丁目８９－７－２０１,,01,204,0788216,,,,,,,2021-09-13,1,,,,,アドクス,0
893,3460001005593,新規,0,2021-09-13,2021-09-13,株式会社ベイシック,,株式会社,北海道,釧路市,緑ケ岡２丁目１６番１９号,,01,206,0850814,,,,,,,2021-09-13,1,,,,,ベイシック,0
900,4010001221078,新規,0,2021-09-13,2021-09-13,株式会社ＨＯＦ,,株式会社,東京都,文京区,小石川５丁目３０番４号グランアクス小石川３０１,,13,105,1120002,,,,,,,2021-09-13,1,,,,,エイチオーエフ,0
912,4010405020217,新規,0,2021-09-13,2021-09-13,新御堂筋マネジメント特定目的会社,,その他の設立登記法人,東京都,港区,六本木１丁目６番１号泉ガーデンタワー,,13,103,1060032,,,,,,,2021-09-13,1,,,,,ミドウスジマネジメント,0
917,4010603009144,新規,0,2021-09-13,2021-09-13,合同会社ＲＩＢＳ,,合同会社,東京都,江東区,大島５丁目３８番９号ハイツリバーランド３０３号室,,13,108,1360072,,,,,,,2021-09-13,1,,,,,リブズ,0
941,4011001142677,新規,0,2021-09-13,2021-09-13,株式会社Ｂｏｌｄｉｅｓ,,株式会社,東京都,渋谷区,道玄坂１丁目１２番１号,,13,113,1500043,,,,,,,2021-09-13,1,,,,,ボルディーズ,0
942,4011001142719,新規,0,2021-09-13,2021-09-13,株式会社ＢｕｚｚＨｅｒｏ,,株式会社,東京都,渋谷区,神宮前６丁目２３－４－２Ｆ,,13,113,1500001,,,,,,,2021-09-13,1,,,,,バズヒーロー,0
943,4011001142751,新規,0,2021-09-13,2021-09-13,ＴｅｃｈＳｕｉｔｅ株式会社,,株式会社,東京都,渋谷区,神宮前６丁目２３番４号桑野ビル２階,,13,113,1500001,,,,,,,2021-09-13,1,,,,,テックスイート,0
944,4011001142792,新規,0,2021-09-13,2021-09-13,株式会社Ｋｏｏｂ,,株式会社,東京都,渋谷区,渋谷２丁目１０番６号,,13,113,1500002,,,,,,,2021-09-13,1,,,,,クーブ,0
946,4011003013331,新規,0,2021-09-13,2021-09-13,ＫＭＳコンサルティング合同会社,,合同会社,東京都,目黒区,八雲４丁目１４番１４号,,13,110,1520023,,,,,,,2021-09-13,1,,,,,ケイエムエスコンサルティング,0
949,4011103011004,新規,0,2021-09-13,2021-09-13,合同会社金瑞商事,,合同会社,東京都,新宿区,百人町１丁目１６番１４号マキバビル４０２,,13,104,1690073,,,,,,,2021-09-13,1,,,,,キンズイショウジ,0
951,4011105009970,新規,0,2021-09-13,2021-09-13,特定目的会社ジェイ・ヴイ・ゼッド,,その他の設立登記法人,東京都,新宿区,下宮比町１番４号,,13,104,1620822,,,,,,,2021-09-13,1,,,,,ジェイヴイゼッド,0
955,4011403003436,新規,0,2021-09-13,2021-09-13,合同会社ａｎｅｔ,,合同会社,東京都,板橋区,南常盤台１丁目１１－６レフア南常盤台１０１,,13,119,1740072,,,,,,,2021-09-13,1,,,,,アネット,0
957,4011503004887,新規,0,2021-09-13,2021-09-13,合同会社スローライン,,合同会社,東京都,荒川区,荒川５丁目３７番１１号,,13,118,1160002,,,,,,,2021-09-13,1,,,,,スローライン,0
966,4011703002939,新規,0,2021-09-13,2021-09-13,Ｙｕｂｉｋｉｒｉ合同会社,,合同会社,東京都,江戸川区,西小岩４丁目１３－１９－１０１,,13,123,1330057,,,,,,,2021-09-13,1,,,,,ユビキリ,0
974,4013303005818,新規,0,2021-09-13,2021-09-13,合同会社レオ,,合同会社,東京都,豊島区,目白４丁目３１番２２号ユイエン２Ｈ号,,13,116,1710031,,,,,,,2021-09-13,1,,,,,レオ,0
983,4020001142983,新規,0,2021-09-13,2021-09-13,株式会社ジェイ・ストア,,株式会社,神奈川県,横浜市鶴見区,市場大和町１０－１４,,14,101,2300025,,,,,,,2021-09-13,1,,,,,ジェイストア,0
988,4020003020477,新規,0,2021-09-13,2021-09-13,ａｍａｇａｋｅ合同会社,,合同会社,神奈川県,横浜市戸塚区,南舞岡４丁目３８番９号,,14,110,2440814,,,,,,,2021-09-13,1,,,,,アマガケ,0
1005,4030001144310,新規,0,2021-09-13,2021-09-13,ＳＡＡＤ　ＡＵＴＯ株式会社,,株式会社,埼玉県,加須市,砂原１３２１番地１,,11,210,3491155,,,,,,,2021-09-13,1,,,,,サードオート,0
1011,4030003017943,新規,0,2021-09-13,2021-09-13,合同会社ＳＯＳｉｎｔｅｒｎａｔｉｏｎａｌ,,合同会社,埼玉県,川越市,かし野台２丁目１８－９－２０２,,11,201,3501179,,,,,,,2021-09-13,1,,,,,エスオーエスインターナショナル,0
1020,4040001120137,新規,0,2021-09-13,2021-09-13,株式会社Ｓｏｌｉｓ,,株式会社,千葉県,八街市,東吉田６０４－１０,,12,230,2891114,,,,,,,2021-09-13,1,,,,,ソリス,0
1021,4040001120153,新規,0,2021-09-13,2021-09-13,株式会社ＤＯＮＯＭＩ,,株式会社,千葉県,八千代市,大和田３０９番地８９,,12,221,2760045,,,,,,,2021-09-13,1,,,,,ドノミ,0
1022,4040001120178,新規,0,2021-09-13,2021-09-13,株式会社ＴＳＵＢＡＳＡ,,株式会社,千葉県,市原市,古市場１８９番地７,,12,219,2900008,,,,,,,2021-09-13,1,,,,,ツバサ,0
1033,4060001034054,新規,0,2021-09-13,2021-09-13,株式会社彦ファーム,,株式会社,栃木県,足利市,伊勢町１丁目３番地１,,09,202,3260053,,,,,,,2021-09-13,1,,,,,ヒコファーム,0
1043,4080101022774,新規,0,2021-09-13,2021-09-13,エイト株式会社,,株式会社,静岡県,伊東市,宇佐美１５４１番地の１４市村アパート２０３,,22,208,4140001,,,,,,,2021-09-13,1,,,,,エイト,0
1070,4120001240356,新規,0,2021-09-13,2021-09-13,エンカーリッジ株式会社,,株式会社,大阪府,大阪市福島区,福島７丁目２０番１８号,,27,103,5530003,,,,,,,2021-09-13,1,,,,,エンカーリッジ,0
1073,4120003020203,新規,0,2021-09-13,2021-09-13,合同会社ソリッド,,合同会社,大阪府,枚方市,岡本町７番１号枚方ビオルネ５階,,27,210,5730031,,,,,,,2021-09-13,1,,,,,ソリッド,0
1074,4120003020211,新規,0,2021-09-13,2021-09-13,合同会社Ｌｅａｆ　Ｃｏｎｓｕｌｔｉｎｇ,,合同会社,大阪府,大阪市中央区,内久宝寺町２丁目２番２２－１３０６号,,27,128,5400013,,,,,,,2021-09-13,1,,,,,リーフコンサルティング,0
1088,4140003016686,新規,0,2021-09-13,2021-09-13,合同会社グッドライフ,,合同会社,兵庫県,赤穂市,本水尾町２－６４,,28,212,6780217,,,,,,,2021-09-13,1,,,,,グッドライフ,0
1092,4170001016776,新規,0,2021-09-13,2021-09-13,株式会社つなぐ,,株式会社,和歌山県,和歌山市,中之島３５６番地７,,30,201,6408392,,,,,,,2021-09-13,1,,,,,ツナグ,0
1097,4180001147653,新規,0,2021-09-13,2021-09-13,株式会社ＶＳＵＮ　ＶＮＴ,,株式会社,愛知県,弥富市,平島町小具足巳５番地１０,,23,235,4980031,,,,,,,2021-09-13,1,,,,,ブイサンブイエヌティ,0
1098,4180001147785,新規,0,2021-09-13,2021-09-13,株式会社コルドバ商会,,株式会社,愛知県,日進市,浅田町上納１０番地４９,,23,230,4700124,,,,,,,2021-09-13,1,,,,,コルドバショウカイ,0
1107,4180301035368,新規,0,2021-09-13,2021-09-13,株式会社リコテクスケア,,株式会社,愛知県,豊田市,西細田町東神田１１８番地７,,23,211,4700526,,,,,,,2021-09-13,1,,,,,リコテクスケア,0
1119,4220003003115,新規,0,2021-09-13,2021-09-13,合同会社太陽軒,,合同会社,石川県,金沢市,片町１丁目５番１５号,,17,201,9200981,,,,,,,2021-09-13,1,,,,,タイヨウケン,0
1120,4230001018980,新規,0,2021-09-13,2021-09-13,株式会社８ｍｅｖｉｕｓ,,株式会社,富山県,小矢部市,八和町１番３号,,16,209,9320048,,,,,,,2021-09-13,1,,,,,エイトメビウス,0
1121,4230005009167,新規,0,2021-09-13,2021-09-13,特定非営利活動法人アレッセ高岡,,その他の設立登記法人,富山県,高岡市,守山町３５番地,,16,202,9330928,,,,,,,2021-09-13,1,,,,,,0
1126,4240001058596,新規,0,2021-09-13,2021-09-13,株式会社粋生,,株式会社,広島県,広島市中区,八丁堀１２番５号,,34,101,7300013,,,,,,,2021-09-13,1,,,,,スイ,0
1128,4240003005274,新規,0,2021-09-13,2021-09-13,合同会社ＣＣＴ,,合同会社,広島県,広島市西区,横川町１丁目５番２６－１号,,34,104,7330011,,,,,,,2021-09-13,1,,,,,シーシーティー,0
1138,4260001035957,新規,0,2021-09-13,2021-09-13,株式会社ＯＴＨ,,株式会社,岡山県,岡山市北区,津島新野１丁目１番１号福森ビル２Ｆ,,33,101,7000083,,,,,,,2021-09-13,1,,,,,オーティーエイチ,0
1149,4290003011598,新規,0,2021-09-13,2021-09-13,合同会社ココン,,合同会社,福岡県,福岡市中央区,今泉１丁目１９番１０－２０２号,,40,133,8100021,,,,,,,2021-09-13,1,,,,,ココン,0
1150,4290801027787,新規,0,2021-09-13,2021-09-13,株式会社ＨＴ,,株式会社,福岡県,北九州市小倉北区,竪町２丁目４－１５－１４０１,,40,106,8030818,,,,,,,2021-09-13,1,,,,,エイチティー,0
1159,4320001018591,新規,0,2021-09-13,2021-09-13,株式会社アンジュ,,株式会社,大分県,大分市,西春日町５番２９号,,44,201,8700038,,,,,,,2021-09-13,1,,,,,アンジュ,0
1161,4340001024076,新規,0,2021-09-13,2021-09-13,株式会社ＭＢＣグッドコミュニケーションズ,,株式会社,鹿児島県,鹿児島市,高麗町５番２５号,,46,201,8900051,,,,,,,2021-09-13,1,,,,,エムビーシーグッドコミュニケーションズ,0
1162,4340003003549,新規,0,2021-09-13,2021-09-13,徳進合同会社,,合同会社,鹿児島県,大島郡伊仙町,大字面縄５２６番地,,46,532,8918114,,,,,,,2021-09-13,1,,,,,トクシン,0
1168,4360001029370,新規,0,2021-09-13,2021-09-13,株式会社安里屋,,株式会社,沖縄県,那覇市,三原２丁目２９番１８号シーニック三原１０１号,,47,201,9020063,,,,,,,2021-09-13,1,,,,,アサトヤ,0
1171,4360003011434,新規,0,2021-09-13,2021-09-13,Ｅｎｏｂｉ　Ｄｅｖｅｌｏｐｍｅｎｔ合同会社,,合同会社,沖縄県,沖縄市,知花６丁目３９番１１号,,47,211,9042143,,,,,,,2021-09-13,1,,,,,エノビデベロップメント,0
1178,4380001032199,新規,0,2021-09-13,2021-09-13,株式会社Ｂｉｚｍｏｍ,,株式会社,福島県,郡山市,若葉町８－８－２０４,,07,203,9638011,,,,,,,2021-09-13,1,,,,,,0
1180,4400001015597,新規,0,2021-09-13,2021-09-13,株式会社木業魅,,株式会社,岩手県,盛岡市,上堂３丁目２１番９号,,03,201,0200125,,,,,,,2021-09-13,1,,,,,キワミ,0
1189,4430003013126,新規,0,2021-09-13,2021-09-13,ブリッジグローバル合同会社,,合同会社,北海道,札幌市中央区,南五条西９丁目１００８－４リーガルコート南５条５０２号,,01,101,0640805,,,,,,,2021-09-13,1,,,,,ブリッジグローバル,0
1190,4430003013134,新規,0,2021-09-13,2021-09-13,Ｆａｍｅ．Ｔｅｃｈ合同会社,,合同会社,北海道,札幌市中央区,南一条西１６丁目１番地３２３春野ビル３Ｆ,,01,101,0600061,,,,,,,2021-09-13,1,,,,,ファムテック,0
1199,4490001009987,新規,0,2021-09-13,2021-09-13,株式会社ＭＯＲＩＴＡ家,,株式会社,高知県,土佐市,新居６８７番地１,,39,205,7811154,,,,,,,2021-09-13,1,,,,,モリタケ,0
1201,4500001023680,新規,0,2021-09-13,2021-09-13,株式会社ウェンディ,,株式会社,愛媛県,松山市,喜与町２丁目５番地４,,38,201,7900802,,,,,,,2021-09-13,1,,,,,ウェンディ,0
1222,5010001221077,新規,0,2021-09-13,2021-09-13,株式会社ＳＵＣＣＹＥＬＬ,,株式会社,東京都,千代田区,飯田橋２丁目１１－１０総合経営ビル６階,,13,101,1020072,,,,,,,2021-09-13,1,,,,,サクシール,0
1233,5010403026108,新規,0,2021-09-13,2021-09-13,一宮木曽川ＰＪ２合同会社,,合同会社,東京都,港区,六本木１丁目６番１号泉ガーデンタワー,,13,103,1060032,,,,,,,2021-09-13,1,,,,,イチノミヤキソガワピージェイツー,0
1235,5010405020216,新規,0,2021-09-13,2021-09-13,一宮木曽川ＰＪ一般社団法人,,その他の設立登記法人,東京都,港区,六本木１丁目６番１号泉ガーデンタワー,,13,103,1060032,,,,,,,2021-09-13,1,,,,,イチノミヤキソガワピージェイ,0
1241,5010603009143,新規,0,2021-09-13,2021-09-13,合同会社ＮｏｒｄＣｉｂｏ,,合同会社,東京都,墨田区,立川３丁目１２番９－５０５号,,13,107,1300023,,,,,,,2021-09-13,1,,,,,ノルドチーボ,0
1244,5010705003267,新規,0,2021-09-13,2021-09-13,医療法人社団ＯＵＲＳ,,その他の設立登記法人,東京都,品川区,西五反田１丁目２番８号ＦＰＧｌｉｎｋｓＧＯＴＡＮＤＡ１０階,,13,109,1410031,,,,,,,2021-09-13,1,,,,,アワーズ,0
1249,5010901049428,新規,0,2021-09-13,2021-09-13,株式会社ＩＲＯＨＡ,,株式会社,東京都,世田谷区,深沢６丁目２番４号１階,,13,112,1580081,,,,,,,2021-09-13,1,,,,,イロハ,0
1251,5010903006798,新規,0,2021-09-13,2021-09-13,合同会社Ａｒｌｅｓ,,合同会社,東京都,世田谷区,経堂４丁目２２番１１号チトフナアパートメント１０１,,13,112,1560052,,,,,,,2021-09-13,1,,,,,,0
1255,5011001142718,新規,0,2021-09-13,2021-09-13,株式会社プラウドエクシア,,株式会社,東京都,渋谷区,渋谷３丁目１３－５,,13,113,1500002,,,,,,,2021-09-13,1,,,,,プラウドエクシア,0
1256,5011001142767,新規,0,2021-09-13,2021-09-13,株式会社３５８プロジェクト,,株式会社,東京都,渋谷区,神宮前３丁目１番２４号,,13,113,1500001,,,,,,,2021-09-13,1,,,,,サンゴウハチプロジェクト,0
1257,5011001142775,新規,0,2021-09-13,2021-09-13,株式会社Ｄｏｕｂｌｅ　ｓａｌｔ,,株式会社,東京都,目黒区,上目黒２丁目２４番３号,,13,110,1530051,,,,,,,2021-09-13,1,,,,,ダブルソルト,0
1264,5011003013322,新規,0,2021-09-13,2021-09-13,合同会社輪牛,,合同会社,東京都,目黒区,鷹番２丁目９番８号,,13,110,1520004,,,,,,,2021-09-13,1,,,,,ワギュウ,0
1265,5011003013330,新規,0,2021-09-13,2021-09-13,ｆｌｏｗ合同会社,,合同会社,東京都,渋谷区,神南１丁目９番４号ＮＣビル７Ｂ,,13,113,1500041,,,,,,,2021-09-13,1,,,,,フロー,0
1276,5011501027294,新規,0,2021-09-13,2021-09-13,株式会社マネーセーバートラスト,,株式会社,東京都,荒川区,荒川２丁目３２番１号,,13,118,1160002,,,,,,,2021-09-13,1,,,,,マネーセーバートラスト,0
1282,5011703002938,新規,0,2021-09-13,2021-09-13,合同会社Ｉｎｓｉｄｅｒｉｖｅｒ,,合同会社,東京都,江戸川区,南葛西６丁目３４番１２－７０１,,13,123,1340085,,,,,,,2021-09-13,1,,,,,インサイドリヴァー,0
1287,5012701016657,新規,0,2021-09-13,2021-09-13,Ｅａｒｔｈ　Ｐａｒｔｎｅｒｓ株式会社,,株式会社,東京都,清瀬市,中清戸３丁目４５４番地７７,,13,221,2040012,,,,,,,2021-09-13,1,,,,,アースパートナーズ,0
1296,5020001142958,新規,0,2021-09-13,2021-09-13,株式会社ＬＩＦＩＸ,,株式会社,神奈川県,川崎市川崎区,川中島１丁目２２番９号エステートピア柏２０２,,14,131,2100803,,,,,,,2021-09-13,1,,,,,リフィックス,0
1297,5020001142982,新規,0,2021-09-13,2021-09-13,株式会社キューホーム,,株式会社,神奈川県,横浜市中区,伊勢佐木町７丁目１５１－４－１Ｆ,,14,104,2310045,,,,,,,2021-09-13,1,,,,,キューホーム,0
1303,5020003020476,新規,0,2021-09-13,2021-09-13,合同会社ＳＡＭＳＨＡ　ＩＮＴＥＲＮＡＴＩＯＮＡＬ,,合同会社,神奈川県,横浜市西区,南幸２丁目７番１２号石辺ビル６階,,14,103,2200005,,,,,,,2021-09-13,1,,,,,サムシャインターナショナル,0
1309,5021001073879,新規,0,2021-09-13,2021-09-13,株式会社ＳＫｃｏｍｐａｎｙ,,株式会社,神奈川県,相模原市中央区,上溝４３５番地サンコーポ１０１,,14,152,2520243,,,,,,,2021-09-13,1,,,,,エスケーカンパニー,0
1315,5021005012296,新規,0,2021-09-13,2021-09-13,一般社団法人エステートリョーマ,,その他の設立登記法人,神奈川県,横須賀市,東浦賀１丁目８番７号,,14,201,2390821,,,,,,,2021-09-13,1,,,,,エステートリョーマ,0
1332,5040001120177,新規,0,2021-09-13,2021-09-13,株式会社万力,,株式会社,千葉県,千葉市緑区,大椎町１１９９番地２３３,,12,105,2670065,,,,,,,2021-09-13,1,,,,,マンリキ,0
1337,5050001049829,新規,0,2021-09-13,2021-09-13,株式会社近江屋,,株式会社,茨城県,結城市,大字結城８５３番５,,08,207,3070001,,,,,,,2021-09-13,1,,,,,オウミヤ,0
1341,5060001034078,新規,0,2021-09-13,2021-09-13,株式会社このはな,,株式会社,栃木県,那須塩原市,住吉町５番地３２号,,09,213,3250062,,,,,,,2021-09-13,1,,,,,コノハナ,0
1342,5060001034086,新規,0,2021-09-13,2021-09-13,株式会社エスアールコーポレーション,,株式会社,栃木県,小山市,駅東通り２丁目３０番１号マルギンビル２階,,09,208,3230022,,,,,,,2021-09-13,1,,,,,エスアールコーポレーション,0
1353,5080001024440,新規,0,2021-09-13,2021-09-13,株式会社オートレーベン,,株式会社,静岡県,静岡市清水区,横砂中町２８－２２,,22,103,4240034,,,,,,,2021-09-13,1,,,,,オートレーベン,0
1356,5080101022765,新規,0,2021-09-13,2021-09-13,株式会社テンポサポート,,株式会社,静岡県,伊東市,湯川４丁目１１番８号１Ｆ,,22,208,4140002,,,,,,,2021-09-13,1,,,,,テンポサポート,0
1367,5110001036036,新規,0,2021-09-13,2021-09-13,株式会社ＣＵＢＢＹ　ＨＯＵＳＥ　ＰＲＯＪＥＣＴＳ,,株式会社,新潟県,新潟市西区,青山１丁目２番１６号,,15,107,9502002,,,,,,,2021-09-13,1,,,,,カビーハウスプロジェクツ,0
1384,5120001240347,新規,0,2021-09-13,2021-09-13,喜望株式会社,,株式会社,大阪府,大阪市住之江区,西住之江３丁目９番１４号,,27,125,5590005,,,,,,,2021-09-13,1,,,,,キボウ,0
1403,5130003007470,新規,0,2021-09-13,2021-09-13,合同会社メンメイズ,,合同会社,京都府,京都市左京区,大菊町１２０番地６,,26,103,6068376,,,,,,,2021-09-13,1,,,,,メンメイズ,0
1427,5180005019419,新規,0,2021-09-13,2021-09-13,一般社団法人地域部活童振興会名古屋,,その他の設立登記法人,愛知県,北名古屋市,石橋大日１１０番地（メゾンはなよし２０１号）,,23,234,4810046,,,,,,,2021-09-13,1,,,,,チイキブカツドウシンコウカイナゴヤシシャ,0
1433,5180301035367,新規,0,2021-09-13,2021-09-13,株式会社フカヤ,,株式会社,愛知県,刈谷市,高津波町４丁目６１１番地,,23,210,4480047,,,,,,,2021-09-13,1,,,,,フカヤ,0
1444,5220003003114,新規,0,2021-09-13,2021-09-13,合同会社アンド・ミミ,,合同会社,石川県,河北郡内灘町,白帆台２丁目４３２番地,,17,365,9200269,,,,,,,2021-09-13,1,,,,,アンドミミ,0
1449,5240001058604,新規,0,2021-09-13,2021-09-13,株式会社友進工業,,株式会社,広島県,呉市,川尻町西２丁目８番１９号１０１号室,,34,202,7372603,,,,,,,2021-09-13,1,,,,,ユウシンコウギョウ,0
1453,5240003005273,新規,0,2021-09-13,2021-09-13,白島オフショアウィンドファーム合同会社,,合同会社,広島県,広島市中区,十日市町２丁目１番１５号,,34,101,7300805,,,,,,,2021-09-13,1,,,,,シラシマオフショアウィンドファーム,0
1454,5240005015270,新規,0,2021-09-13,2021-09-13,医療法人ぎおんクリニック,,その他の設立登記法人,広島県,広島市安佐南区,祇園５丁目２番４５－２０２号,,34,105,7310138,,,,,,,2021-09-13,1,,,,,ギオンクリニック,0
1461,5260001035956,新規,0,2021-09-13,2021-09-13,株式会社明進興業,,株式会社,岡山県,岡山市東区,西大寺川口２８２番地１,,33,103,7048125,,,,,,,2021-09-13,1,,,,,メイシンコウギョウ,0
1473,5290001094603,新規,0,2021-09-13,2021-09-13,株式会社ステラボ,,株式会社,福岡県,福岡市南区,若久６丁目６５番６号,,40,134,8150042,,,,,,,2021-09-13,1,,,,,ステラボ,0
1474,5290001094660,新規,0,2021-09-13,2021-09-13,株式会社コンサルティングファーム,,株式会社,福岡県,福岡市南区,那の川１丁目１５番１４号,,40,134,8150081,,,,,,,2021-09-13,1,,,,,コンサルティングファーム,0
1476,5290003011622,新規,0,2021-09-13,2021-09-13,合同会社ＧｒｏＷｔｈ,,合同会社,福岡県,福岡市中央区,舞鶴３丁目７番２５号舞鶴ジーエルビル４階,,40,133,8100073,,,,,,,2021-09-13,1,,,,,グロース,0
1477,5290801027786,新規,0,2021-09-13,2021-09-13,株式会社ＭＳＫ,,株式会社,福岡県,直方市,大字感田１６４６－７０,,40,204,8220001,,,,,,,2021-09-13,1,,,,,エムエスケー,0
1485,5320001018590,新規,0,2021-09-13,2021-09-13,株式会社ＡＳＴＥＰ．,,株式会社,大分県,杵築市,大字宮司６７６番地１グリーンコート宮司２、２０２号,,44,210,8730004,,,,,,,2021-09-13,1,,,,,アステップ,0
1493,5360001029353,新規,0,2021-09-13,2021-09-13,株式会社レイラニ,,株式会社,沖縄県,うるま市,字具志川２９０７番地１,,47,213,9042223,,,,,,,2021-09-13,1,,,,,レイラニ,0
1495,5360005006506,新規,0,2021-09-13,2021-09-13,一般社団法人くだか島建て会,,その他の設立登記法人,沖縄県,南城市,知念字久高２３１番地２,,47,215,9011501,,,,,,,2021-09-13,1,,,,,シマダテカイ,0
1511,5430001084944,新規,0,2021-09-13,2021-09-13,株式会社ＬＧＭ．ＪＰ,,株式会社,北海道,札幌市中央区,北四条東２丁目８番地６－３０５,,01,101,0600034,,,,,,,2021-09-13,1,,,,,エルジーエムドットジェーピー,0
1518,5490003001586,新規,0,2021-09-13,2021-09-13,合同会社パルム,,合同会社,高知県,高知市,朝倉己７５９番地７,,39,201,7808066,,,,,,,2021-09-13,1,,,,,パルム,0
1528,6010001221101,新規,0,2021-09-13,2021-09-13,株式会社９８７不動産,,株式会社,東京都,文京区,白山２丁目１６番地１号ガーデン文京白山５０３,,13,105,1120001,,,,,,,2021-09-13,1,,,,,キュウハチナナフドウサン,0
1529,6010003035838,新規,0,2021-09-13,2021-09-13,合同会社Ｑｕｅｓｔ,,合同会社,東京都,中央区,日本橋蛎殻町１丁目４番７号辻井ビル２０１,,13,102,1030014,,,,,,,2021-09-13,1,,,,,クエスト,0
1533,6010005033947,新規,0,2021-09-13,2021-09-13,医療法人社団ＦＡＭ,,その他の設立登記法人,東京都,千代田区,平河町１丁目４番５号平和第１ビル地下１階,,13,101,1020093,,,,,,,2021-09-13,1,,,,,ファム,0
1544,6010403026107,新規,0,2021-09-13,2021-09-13,一宮木曽川ＰＪ１合同会社,,合同会社,東京都,港区,六本木１丁目６番１号泉ガーデンタワー,,13,103,1060032,,,,,,,2021-09-13,1,,,,,イチノミヤキソガワピージェイワン,0
1545,6010501047830,新規,0,2021-09-13,2021-09-13,株式会社Ｌｉｅｎ,,株式会社,東京都,台東区,寿３丁目２０－７－１０１,,13,106,1110042,,,,,,,2021-09-13,1,,,,,リアン,0
1555,6010701041492,新規,0,2021-09-13,2021-09-13,レナトゥス株式会社,,株式会社,東京都,品川区,西五反田１丁目３３番１０号西五反田サインタワー９Ｆ,,13,109,1410031,,,,,,,2021-09-13,1,,,,,レナトゥス,0
1563,6011001142709,新規,0,2021-09-13,2021-09-13,株式会社ｅｍｐａｔｈｙ,,株式会社,東京都,渋谷区,代々木２丁目３０－４,,13,113,1510053,,,,,,,2021-09-13,1,,,,,エンパシー,0
1564,6011001142717,新規,0,2021-09-13,2021-09-13,株式会社ＨｉｇｈｔＲａｔｅ,,株式会社,東京都,渋谷区,神宮前６丁目２３番４号桑野ビル２Ｆ,,13,113,1500001,,,,,,,2021-09-13,1,,,,,ハイレート,0
1565,6011001142733,新規,0,2021-09-13,2021-09-13,株式会社ＮＯＢＵ　ＣＲＥＡＴＥ,,株式会社,東京都,渋谷区,南平台町２０番６号,,13,113,1500036,,,,,,,2021-09-13,1,,,,,ノブクリエイト,0
1566,6011001142790,新規,0,2021-09-13,2021-09-13,株式会社Ｎｅｐｌａｃｅ,,株式会社,東京都,渋谷区,渋谷３丁目６番２号エクラート渋谷５Ｆ,,13,113,1500002,,,,,,,2021-09-13,1,,,,,ネプレイス,0
1567,6011003013321,新規,0,2021-09-13,2021-09-13,合同会社ヤクハ,,合同会社,東京都,目黒区,緑が丘２丁目５番１号,,13,110,1520034,,,,,,,2021-09-13,1,,,,,ヤクハ,0
1568,6011003013354,新規,0,2021-09-13,2021-09-13,ＫＡＫＥＲＵアドバイザリー合同会社,,合同会社,東京都,渋谷区,神宮前６丁目２３番４号,,13,113,1500001,,,,,,,2021-09-13,1,,,,,カケルアドバイザリー,0
1569,6011003013379,新規,0,2021-09-13,2021-09-13,合同会社ハンズワークス,,合同会社,東京都,渋谷区,幡ヶ谷３丁目３９番１２号渋谷ウェストビル１階,,13,113,1510072,,,,,,,2021-09-13,1,,,,,ハンズワークス,0
1572,6011103010994,新規,0,2021-09-13,2021-09-13,合同会社Ｔａｍａｒｕ,,合同会社,東京都,新宿区,歌舞伎町２丁目９－１８ライオンズプラザ新宿７０８号,,13,104,1600021,,,,,,,2021-09-13,1,,,,,タマル,0
1574,6011501027302,新規,0,2021-09-13,2021-09-13,ＴＲＵＳＴ　ＭＡＤＥ株式会社,,株式会社,東京都,北区,東十条２丁目１５番１７－９０１号,,13,117,1140001,,,,,,,2021-09-13,1,,,,,トラストメイド,0
1581,6012403005024,新規,0,2021-09-13,2021-09-13,合同会社紙輝,,合同会社,東京都,府中市,四谷６丁目６番地の１６,,13,206,1830035,,,,,,,2021-09-13,1,,,,,シキ,0
1589,6013301047975,新規,0,2021-09-13,2021-09-13,株式会社Ｓｔｙｌｅ,,株式会社,東京都,豊島区,池袋２丁目５５番１３号合田ビル４階,,13,116,1710014,,,,,,,2021-09-13,1,,,,,スタイル,0
1596,6020001142981,新規,0,2021-09-13,2021-09-13,アースベリーズ・キャピタル株式会社,,株式会社,神奈川県,横浜市旭区,西川島町７番地８,,14,112,2410012,,,,,,,2021-09-13,1,,,,,アースベリーズキャピタル,0
1607,6021003010879,新規,0,2021-09-13,2021-09-13,ＬＩｗｏｒｌｄ合同会社,,合同会社,神奈川県,横須賀市,阿部倉２９番１号,,14,201,2380033,,,,,,,2021-09-13,1,,,,,,0
1617,6030001144283,新規,0,2021-09-13,2021-09-13,株式会社トランクロード,,株式会社,埼玉県,坂戸市,大字石井２３３９番地１,,11,239,3500212,,,,,,,2021-09-13,1,,,,,トランクロード,0
1618,6030001144300,新規,0,2021-09-13,2021-09-13,ＵＮＩＴＹ株式会社,,株式会社,埼玉県,児玉郡上里町,大字八町河原２６９８番地,,11,385,3690304,,,,,,,2021-09-13,1,,,,,ユニティ,0
1619,6030001144309,新規,0,2021-09-13,2021-09-13,エレデネ株式会社,,株式会社,埼玉県,上尾市,上町１丁目２番２６号Ｄ－２Ｆ第３ビル,,11,219,3620037,,,,,,,2021-09-13,1,,,,,エレデネ,0
1629,6030003017941,新規,0,2021-09-13,2021-09-13,ＡＲトレーディング合同会社,,合同会社,埼玉県,幸手市,大字幸手３４４７番地４,,11,240,3400113,,,,,,,2021-09-13,1,,,,,エーアールトレーディング,0
1640,6040001120176,新規,0,2021-09-13,2021-09-13,株式会社愛甲工業,,株式会社,千葉県,市原市,飯沼６９３番地７フォードアーズＡ棟,,12,219,2900037,,,,,,,2021-09-13,1,,,,,アイコウコウギョウ,0
1644,6050001049844,新規,0,2021-09-13,2021-09-13,フォローアカウンティング株式会社,,株式会社,茨城県,神栖市,平泉１０７８番地１２セゾンＢ,,08,232,3140146,,,,,,,2021-09-13,1,,,,,フォローアカウンティング,0
1666,6110001036035,新規,0,2021-09-13,2021-09-13,株式会社白根福祉の輪,,株式会社,新潟県,新潟市南区,味方１１３６－１３ガーデンアイリス１０３,,15,106,9501261,,,,,,,2021-09-13,1,,,,,シロネフクシノワ,0
1674,6120001240346,新規,0,2021-09-13,2021-09-13,株式会社ｃｏｎｎｅｃｔｒｉｃｏ,,株式会社,大阪府,大阪市西区,新町１丁目１４番２１－１５０９号,,27,106,5500013,,,,,,,2021-09-13,1,,,,,コネクトリコ,0
1675,6120001240362,新規,0,2021-09-13,2021-09-13,Ｂ．Ｂ．Ｌｉｆｅ株式会社,,株式会社,大阪府,大阪市北区,大淀南２丁目２番９－２５１０号,,27,127,5310075,,,,,,,2021-09-13,1,,,,,ビービーライフ,0
1681,6120101064281,新規,0,2021-09-13,2021-09-13,谷口ポンプ工業株式会社,,株式会社,大阪府,貝塚市,三ツ松１６７０－１,,27,208,5970105,,,,,,,2021-09-13,1,,,,,タニグチポンプコウギョウ,0
1687,6122001035164,新規,0,2021-09-13,2021-09-13,株式会社大貴,,株式会社,大阪府,四條畷市,清滝新町２０番１４号,,27,229,5750062,,,,,,,2021-09-13,1,,,,,ダイキ,0
1689,6130001070098,新規,0,2021-09-13,2021-09-13,株式会社ＴｅｃｈｎｅＦＩＴ,,株式会社,京都府,京都市左京区,一乗寺花ノ木町１３番地１－１Ｆ,,26,103,6068151,,,,,,,2021-09-13,1,,,,,テクネフィット,0
1698,6140001123012,新規,0,2021-09-13,2021-09-13,株式会社ＡＫＩ　Ｆｉｔ,,株式会社,兵庫県,神戸市中央区,中山手通５丁目２番２２号メゾントミー２階,,28,110,6500004,,,,,,,2021-09-13,1,,,,,アキフィット,0
1699,6140001123020,新規,0,2021-09-13,2021-09-13,株式会社Ｆａｓｔ,,株式会社,兵庫県,三木市,加佐９８８番地の１００,,28,215,6730402,,,,,,,2021-09-13,1,,,,,ファスト,0
1704,6150001024894,新規,0,2021-09-13,2021-09-13,ＨＩＭＡＷＡＲＩ　ＪＡＰＡＮ株式会社,,株式会社,奈良県,大和高田市,大字市場７７９番地１,,29,202,6350074,,,,,,,2021-09-13,1,,,,,ヒマワリジャパン,0
1707,6160001023623,新規,0,2021-09-13,2021-09-13,Ｌｏｖｅ＆Ｐｅａｃｅ　Ｇｒｏｕｐ株式会社,,株式会社,滋賀県,栗東市,上鈎４５９番地７,,25,208,5203022,,,,,,,2021-09-13,1,,,,,ラブアンドピースグループ,0
1718,6180301035366,新規,0,2021-09-13,2021-09-13,株式会社ティースペック,,株式会社,愛知県,豊川市,諏訪１丁目７０番地,,23,207,4420068,,,,,,,2021-09-13,1,,,,,ティースペック,0
1720,6200001039128,新規,0,2021-09-13,2021-09-13,株式会社高野商店,,株式会社,岐阜県,多治見市,幸町５丁目２８番地,,21,204,5070077,,,,,,,2021-09-13,1,,,,,タカノショウテン,0
1747,6290001094610,新規,0,2021-09-13,2021-09-13,石井工業株式会社,,株式会社,福岡県,福岡市西区,野方７丁目８２５番１,,40,135,8190043,,,,,,,2021-09-13,1,,,,,イシイコウギョウ,0
1749,6290003011588,新規,0,2021-09-13,2021-09-13,合同会社Ｃａｌｍｅ,,合同会社,福岡県,福岡市博多区,吉塚２丁目１６番１３号,,40,132,8120041,,,,,,,2021-09-13,1,,,,,カルム,0
1750,6290801027785,新規,0,2021-09-13,2021-09-13,ＳＴＡＢＬＥ　ＨＯＬＤＩＮＧＳ株式会社,,株式会社,福岡県,北九州市小倉北区,須賀町１３番２０号,,40,106,8020034,,,,,,,2021-09-13,1,,,,,ステイブルホールディングス,0
1754,6320001018598,新規,0,2021-09-13,2021-09-13,株式会社ＦｉｒｓｔＳｔｅｐ,,株式会社,大分県,別府市,大字鶴見２２２３番地の１０,,44,202,8740840,,,,,,,2021-09-13,1,,,,,ファーストステップ,0
1762,6360001029352,新規,0,2021-09-13,2021-09-13,株式会社山城,,株式会社,沖縄県,宜野湾市,赤道１丁目１３番９号Ｂ－２０２号,,47,205,9012205,,,,,,,2021-09-13,1,,,,,ヤマシロ,0
1763,6360001029360,新規,0,2021-09-13,2021-09-13,株式会社ＮＡＳＩＲＩ　ＢＲＯＴＨＥＲＳ,,株式会社,沖縄県,中頭郡中城村,字南上原６８４番地７,,47,328,9012424,,,,,,,2021-09-13,1,,,,,ナシリブラザーズ,0
1767,6370001047568,新規,0,2021-09-13,2021-09-13,鈴木組株式会社,,株式会社,宮城県,気仙沼市,東八幡前１５６番地４,,04,205,9880811,,,,,,,2021-09-13,1,,,,,スズキグミ,0
1778,6400001015595,新規,0,2021-09-13,2021-09-13,株式会社昴生工業,,株式会社,岩手県,陸前高田市,米崎町字川西２１番地３３,,03,210,0292206,,,,,,,2021-09-13,1,,,,,コウセイコウギョウ,0
1787,6430001084951,新規,0,2021-09-13,2021-09-13,株式会社アビレ,,株式会社,北海道,札幌市中央区,北六条西２４丁目２番１２－１２０７号,,01,101,0600006,,,,,,,2021-09-13,1,,,,,アビレ,0
1790,6430003013140,新規,0,2021-09-13,2021-09-13,合同会社Ｏｎｅ’ｓＣＯＣＯ,,合同会社,北海道,札幌市西区,発寒五条６丁目２番３９号Ｓ・ＴハウスⅡ－Ａ号,00124216,01,107,0630825,,,,,,,2021-09-13,1,,,,,ワンズココ,0
1791,6430005014269,新規,0,2021-09-13,2021-09-13,医療法人道樹会札幌ことにメンタルクリニック,,その他の設立登記法人,北海道,札幌市西区,琴似一条４丁目４番２０号第１笹川ビル３階,,01,107,0630811,,,,,,,2021-09-13,1,,,,,ドウジュカイサッポロコトニメンタルクリニック,0
1798,6480001011488,新規,0,2021-09-13,2021-09-13,株式会社２ｎｄ　Ｂｌｏｏｍ,,株式会社,徳島県,徳島市,南末広町６番１８－７０３号ヒューマンスペースⅡ,00124220,36,201,7700865,,,,,,,2021-09-13,1,,,,,セカンドブルーム,0
1801,6500001023679,新規,0,2021-09-13,2021-09-13,株式会社ウルソー,,株式会社,愛媛県,松山市,保免西２丁目３番１７号,,38,201,7900043,,,,,,,2021-09-13,1,,,,,ウルソー,0
1806,7010001221091,新規,0,2021-09-13,2021-09-13,株式会社ヴァンヌーヴォ,,株式会社,東京都,中央区,銀座６丁目１３番１６号銀座ＷａｌｌビルＵＣＦ５階,,13,102,1040061,,,,,,,2021-09-13,1,,,,,ヴァンヌーヴォ,0
1807,7010001221133,新規,0,2021-09-13,2021-09-13,株式会社ギャラリータカ,,株式会社,東京都,文京区,小日向１丁目５番２２号メゾン５・１０１号室,,13,105,1120006,,,,,,,2021-09-13,1,,,,,ギャラリータカ,0
1809,7010003035779,新規,0,2021-09-13,2021-09-13,合同会社ラピス,,合同会社,東京都,千代田区,霞が関３丁目２番５号,,13,101,1000013,,,,,,,2021-09-13,1,,,,,,0
1810,7010003035787,新規,0,2021-09-13,2021-09-13,合同会社所沢山口,,合同会社,東京都,中央区,日本橋１丁目４番１号日本橋一丁目ビルディング,,13,102,1030027,,,,,,,2021-09-13,1,,,,,トコロザワヤマグチ,0
1811,7010003035829,新規,0,2021-09-13,2021-09-13,重宝商事合同会社,,合同会社,東京都,文京区,湯島３丁目２０番６－５１０号,,13,105,1130034,,,,,,,2021-09-13,1,,,,,チョウホウショウジ,0
1812,7010003035837,新規,0,2021-09-13,2021-09-13,合同会社ａｒｔｉｆｉｃｅ,,合同会社,東京都,中央区,銀座３丁目１３番６号,,13,102,1040061,,,,,,,2021-09-13,1,,,,,アーティフィス,0
1819,7010401162654,新規,0,2021-09-13,2021-09-13,ＷＯＫＥ株式会社,,株式会社,東京都,港区,北青山３丁目１－６,,13,103,1070061,,,,,,,2021-09-13,1,,,,,ウォーク,0
1822,7010403026097,新規,0,2021-09-13,2021-09-13,ＭＭＳＫ合同会社,,合同会社,東京都,港区,浜松町２丁目２番１５号浜松町ダイヤビル２Ｆ,,13,103,1050013,,,,,,,2021-09-13,1,,,,,エムエムエスケー,0
1823,7010403026106,新規,0,2021-09-13,2021-09-13,ＧＬＰ　Ｊａｐａｎ　Ｄｅｖｅｌｏｐｍｅｎｔ４合同会社,,合同会社,東京都,港区,東新橋１丁目５番２号汐留シティセンター,,13,103,1050021,,,,,,,2021-09-13,1,,,,,ジーエルピージャパンデベロップメントフォー,0
1824,7010403026114,新規,0,2021-09-13,2021-09-13,ＤＩＭＡＡＧ－ＡＩ，ＪＡＰＡＮ合同会社,,合同会社,東京都,港区,南青山１丁目１番１号新青山ビル西館７階,,13,103,1070062,,,,,,,2021-09-13,1,,,,,ディマーグエーアイジャパン,0
1828,7010405020222,新規,0,2021-09-13,2021-09-13,一般社団法人全日本電気乗物協会,,その他の設立登記法人,東京都,港区,芝４丁目６番１６号,,13,103,1080014,,,,,,,2021-09-13,1,,,,,ゼンニホンデンキノリモノキョウカイ,0
1834,7010503006354,新規,0,2021-09-13,2021-09-13,リンカム合同会社,,合同会社,東京都,台東区,浅草橋５丁目２－３鈴和ビル２Ｆ,,13,106,1110053,,,,,,,2021-09-13,1,,,,,リンカム,0
1844,7010901049426,新規,0,2021-09-13,2021-09-13,株式会社オーヴァル,,株式会社,東京都,世田谷区,上祖師谷１丁目２３番８号,,13,112,1570065,,,,,,,2021-09-13,1,,,,,オーヴァル,0
1849,7011001142674,新規,0,2021-09-13,2021-09-13,インフルエンサーＺ株式会社,,株式会社,東京都,渋谷区,渋谷１丁目１２－２クロスオフィス渋谷８階,,13,113,1500002,,,,,,,2021-09-13,1,,,,,インフルエンサーゼット,0
1850,7011001142682,新規,0,2021-09-13,2021-09-13,株式会社ソライロ,,株式会社,東京都,渋谷区,神宮前６丁目２３番４号桑野ビル２階,,13,113,1500001,,,,,,,2021-09-13,1,,,,,ソライロ,0
1851,7011001142690,新規,0,2021-09-13,2021-09-13,株式会社バチバチ,,株式会社,東京都,渋谷区,代々木１丁目２５番１号,,13,113,1510053,,,,,,,2021-09-13,1,,,,,バチバチ,0
1852,7011001142749,新規,0,2021-09-13,2021-09-13,株式会社フェリチタ,,株式会社,東京都,渋谷区,恵比寿南３丁目１番１号恵比寿グリーングラス６階,,13,113,1500022,,,,,,,2021-09-13,1,,,,,フェリチタ,0
1853,7011003013345,新規,0,2021-09-13,2021-09-13,ＤＥＴＯＲ合同会社,,合同会社,東京都,目黒区,上目黒２丁目１５番１－７０２号,,13,110,1530051,,,,,,,2021-09-13,1,,,,,デトア,0
1854,7011003013361,新規,0,2021-09-13,2021-09-13,合同会社ＥＶａｌｕｅ　Ｃａｐｉｔａｌ,,合同会社,東京都,目黒区,下目黒２丁目２１－２０,,13,110,1530064,,,,,,,2021-09-13,1,,,,,イーバリューキャピタル,0
1870,7012801021076,新規,0,2021-09-13,2021-09-13,株式会社Ｍ＆Ｗホールディングス,,株式会社,東京都,日野市,南平２丁目３６－２２,,13,212,1910041,,,,,,,2021-09-13,1,,,,,エムアンドダブリューホールディングス,0
1887,7020003020458,新規,0,2021-09-13,2021-09-13,合同会社せいとう,,合同会社,神奈川県,横浜市港北区,日吉本町１丁目３番１０号Ｋプラザ３０１,,14,109,2230062,,,,,,,2021-09-13,1,,,,,セイトウ,0
1888,7020003020474,新規,0,2021-09-13,2021-09-13,合同会社Ｂｌｕｅ　Ｓｈｉｎｅ,,合同会社,神奈川県,川崎市高津区,新作４丁目１５番２－２号,,14,134,2130014,,,,,,,2021-09-13,1,,,,,ブルーシャイン,0
1898,7030001144290,新規,0,2021-09-13,2021-09-13,株式会社ピスタ,,株式会社,埼玉県,さいたま市大宮区,桜木町１丁目３６６－９オープンオフィス大宮西口ビル,,11,103,3300854,,,,,,,2021-09-13,1,,,,,ピスタ,0
1913,7040003018500,新規,0,2021-09-13,2021-09-13,合同会社ｅｓｐｏｉｒ,,合同会社,千葉県,長生郡長南町,佐坪１１３１ＫＩＺＵＮＡＨＯＭＥ１２４,,12,427,2970145,,,,,,,2021-09-13,1,,,,,エスポワール,0
1925,7060001034043,新規,0,2021-09-13,2021-09-13,黒澤不動産株式会社,,株式会社,栃木県,小山市,駅東通り２丁目１９番２号,,09,208,3230022,,,,,,,2021-09-13,1,,,,,クロサワフドウサン,0
1930,7080003002640,新規,0,2021-09-13,2021-09-13,合同会社山幸園,,合同会社,静岡県,牧之原市,静波２３００番地９シーサイド松下２０７,,22,226,4210422,,,,,,,2021-09-13,1,,,,,サンコウエン,0
1931,7080101022771,新規,0,2021-09-13,2021-09-13,株式会社ＭＴＲ,,株式会社,静岡県,沼津市,下香貫木ノ宮８７９番地の８,,22,203,4100822,,,,,,,2021-09-13,1,,,,,エムティーアール,0
1936,7110001036034,新規,0,2021-09-13,2021-09-13,阿賀テックキレナーレ株式会社,,株式会社,新潟県,新潟市中央区,天神１丁目１プラーカ３・２Ｆ　ＨＵＢ　ＳＴＡＴＩＯＮ　ＫＥＮＴＯ内,,15,103,9500917,,,,,,,2021-09-13,1,,,,,アガテックキレナーレ,0
1955,7120001240361,新規,0,2021-09-13,2021-09-13,株式会社Ｍ．Ｋ．Ｃ,,株式会社,大阪府,大阪市住吉区,我孫子東２丁目５番２－５０４号,,27,120,5580013,,,,,,,2021-09-13,1,,,,,エムケーシー,0
1956,7120001240403,新規,0,2021-09-13,2021-09-13,株式会社ナリヤ,,株式会社,大阪府,大阪市平野区,加美北８丁目２１番３号,,27,126,5470001,,,,,,,2021-09-13,1,,,,,ナリヤ,0
1965,7120003020225,新規,0,2021-09-13,2021-09-13,合同会社北廣建設,,合同会社,大阪府,大阪市西成区,岸里２丁目１番１号１０１,,27,122,5570041,,,,,,,2021-09-13,1,,,,,ホッコウケンセツ,0
1977,7122003002178,新規,0,2021-09-13,2021-09-13,合同会社魁斗,,合同会社,大阪府,東大阪市,高井田西１丁目４番１０号,,27,227,5770067,,,,,,,2021-09-13,1,,,,,カイト,0
1981,7130001070097,新規,0,2021-09-13,2021-09-13,株式会社モリシオ,,株式会社,京都府,舞鶴市,行永東町１１番地１１,,26,202,6250051,,,,,,,2021-09-13,1,,,,,モリシオ,0
1983,7130003007444,新規,0,2021-09-13,2021-09-13,合同会社スターフラワー,,合同会社,京都府,舞鶴市,字伊佐津３９３番地３,,26,202,6240816,,,,,,,2021-09-13,1,,,,,スターフラワー,0
1984,7130003007477,新規,0,2021-09-13,2021-09-13,合同会社Ｏｋａｇｅｓａｎ,,合同会社,京都府,長岡京市,開田３丁目１０番３号,,26,209,6170826,,,,,,,2021-09-13,1,,,,,オカゲサン,0
2010,7180001147774,新規,0,2021-09-13,2021-09-13,株式会社竹田工業,,株式会社,愛知県,春日井市,上田楽町２８９４番地４,,23,206,4860801,,,,,,,2021-09-13,1,,,,,タケダコウギョウ,0
2011,7180001147799,新規,0,2021-09-13,2021-09-13,株式会社コート,,株式会社,愛知県,名古屋市中区,錦２丁目６番１６号ドミール長者町４０７,,23,106,4600003,,,,,,,2021-09-13,1,,,,,コート,0
2021,7180005019433,新規,0,2021-09-13,2021-09-13,一般社団法人特殊物件再生協会,,その他の設立登記法人,愛知県,名古屋市中区,大須２丁目９番３３号アスター開発ビル６階,,23,106,4600011,,,,,,,2021-09-13,1,,,,,トクシュブッケンサイセイキョウカイ,0
2024,7180301035365,新規,0,2021-09-13,2021-09-13,ｆｕｔａｂａ不動産株式会社,,株式会社,愛知県,岡崎市,上里２丁目４番地２９,,23,202,4442136,,,,,,,2021-09-13,1,,,,,フタバフドウサン,0
2025,7180301035373,新規,0,2021-09-13,2021-09-13,ＭＡＳＴ‐ＵＣＤ株式会社,,株式会社,愛知県,豊田市,御立町１０丁目４３番地,,23,211,4710811,,,,,,,2021-09-13,1,,,,,マストユーシーディー,0
2027,7190001028676,新規,0,2021-09-13,2021-09-13,株式会社ＨＫレバレンス,,株式会社,三重県,名張市,桔梗が丘５番町二街区６番地,,24,208,5180625,,,,,,,2021-09-13,1,,,,,エイチケイレバレンス,0
2032,7200001039127,新規,0,2021-09-13,2021-09-13,株式会社レジデンス,,株式会社,岐阜県,関市,鋳物師屋３丁目１番１４号,,21,205,5013914,,,,,,,2021-09-13,1,,,,,レジデンス,0
2035,7200003005309,新規,0,2021-09-13,2021-09-13,ＳＡＫＵＲＡサポート合同会社,,合同会社,岐阜県,岐阜市,岩地１丁目３番３０号リアリノ岩地ビル１０１,,21,201,5008225,,,,,,,2021-09-13,1,,,,,サクラサポート,0
2037,7220001024424,新規,0,2021-09-13,2021-09-13,株式会社ティ企画,,株式会社,石川県,金沢市,片町２丁目２番１５号,,17,201,9200981,,,,,,,2021-09-13,1,,,,,ティキカク,0
2041,7240001058585,新規,0,2021-09-13,2021-09-13,株式会社ＳＭＩＬＥエクササイズ,,株式会社,広島県,東広島市,河内町戸野４７５番地２,,34,212,7392205,,,,,,,2021-09-13,1,,,,,スマイルエクササイズ,0
2042,7240001058593,新規,0,2021-09-13,2021-09-13,株式会社ユニティストック,,株式会社,広島県,広島市中区,舟入幸町２３番７号,,34,101,7300844,,,,,,,2021-09-13,1,,,,,ユニティストック,0
2043,7240001058602,新規,0,2021-09-13,2021-09-13,株式会社望紙工,,株式会社,広島県,府中市,篠根町３１３－１,,34,208,7260027,,,,,,,2021-09-13,1,,,,,ノゾミシコウ,0
2049,7260001035954,新規,0,2021-09-13,2021-09-13,ＹＭクラフト株式会社,,株式会社,岡山県,勝田郡勝央町,東吉田１５１番地,,33,622,7094314,,,,,,,2021-09-13,1,,,,,ワイエムクラフト,0
2052,7290001094642,新規,0,2021-09-13,2021-09-13,株式会社ＡＵＦデザインラボ,,株式会社,福岡県,福岡市中央区,大名２丁目４番３８号,,40,133,8100041,,,,,,,2021-09-13,1,,,,,アウフデザインラボ,0
2054,7290003011612,新規,0,2021-09-13,2021-09-13,東京コーポレーション合同会社,,合同会社,福岡県,古賀市,筵内１－４０,,40,223,8113121,,,,,,,2021-09-13,1,,,,,トウキョウコーポレーション,0
2061,7320001018597,新規,0,2021-09-13,2021-09-13,株式会社高橋工業,00124212,株式会社,大分県,竹田市,荻町恵良原１９８３番地２,,44,208,8796113,,,,,,,2021-09-13,1,,,,,タカハシコウギョウ,0
2066,7340001024098,新規,0,2021-09-13,2021-09-13,ＴＨ不動産株式会社,,株式会社,鹿児島県,鹿児島市,西伊敷２丁目４番１３号２階,,46,201,8900002,,,,,,,2021-09-13,1,,,,,ティーエイチフドウサン,0
2084,7380001032188,新規,0,2021-09-13,2021-09-13,株式会社ＮＩＮＥ９Ｃｏｍｐａｎｙ,,株式会社,福島県,郡山市,富久山町福原字五斗蒔田５番地の１ユニティータウン福原２０３号,,07,203,9638061,,,,,,,2021-09-13,1,,,,,ナインキュウカンパニー,0
2088,7390001016594,新規,0,2021-09-13,2021-09-13,株式会社クラシアル,,株式会社,山形県,山形市,東原町４丁目１２番地２２号庄司ビル２Ｆ,,06,201,9900034,,,,,,,2021-09-13,1,,,,,クラシアル,0
2090,7390003001867,新規,0,2021-09-13,2021-09-13,合同会社Ｂｅｅ　ＮｅＴ,,合同会社,山形県,酒田市,上安町２丁目１９番地の９,,06,204,9980011,,,,,,,2021-09-13,1,,,,,ビーネット,0
2096,7430001084942,新規,0,2021-09-13,2021-09-13,株式会社北海ホーム販売,,株式会社,北海道,札幌市中央区,大通西２８丁目１番２号円山公園ビル３階,,01,101,0640820,,,,,,,2021-09-13,1,,,,,ホッカイホームハンバイ,0
2097,7430001084950,新規,0,2021-09-13,2021-09-13,株式会社ＭＨＣ,,株式会社,北海道,札幌市清田区,北野二条３丁目１０番７号,,01,110,0040862,,,,,,,2021-09-13,1,,,,,エムエイチシー,0
2101,7470003002031,新規,0,2021-09-13,2021-09-13,合同会社一休,,合同会社,香川県,丸亀市,柞原町１１０８,,37,202,7630073,,,,,,,2021-09-13,1,,,,,イッキュウ,0
2109,8010001221099,新規,0,2021-09-13,2021-09-13,株式会社ＫＳＰカラー,,株式会社,東京都,中央区,銀座３丁目９番１８－３０６号,,13,102,1040061,,,,,,,2021-09-13,1,,,,,ケーエスピーカラー,0
2110,8010001221149,新規,0,2021-09-13,2021-09-13,株式会社ＮＥＸＴ　ＩＮＮＯＶＡＴＩＯＮ,,株式会社,東京都,中央区,銀座４丁目１４番１５号サントル銀座四丁目８０３号室,,13,102,1040061,,,,,,,2021-09-13,1,,,,,ネクストイノベーション,0
2112,8010003035778,新規,0,2021-09-13,2021-09-13,Ｍａｒｔｉｓ合同会社,,合同会社,東京都,中央区,京橋１丁目６番１３号,,13,102,1040031,,,,,,,2021-09-13,1,,,,,マチス,0
2113,8010003035836,新規,0,2021-09-13,2021-09-13,合同会社Ｓｕｎｋｉｓｓ,,合同会社,東京都,中央区,八丁堀２丁目１１番１号メゾンドコート八丁堀４０１号,,13,102,1040032,,,,,,,2021-09-13,1,,,,,サンキス,0
2114,8010003035844,新規,0,2021-09-13,2021-09-13,合同会社マッキーコーポレーション,,合同会社,東京都,中央区,銀座１丁目２２番１１号銀座大竹ビジデンス２階,,13,102,1040061,,,,,,,2021-09-13,1,,,,,マッキーコーポレーション,0
2115,8010005033937,新規,0,2021-09-13,2021-09-13,一般社団法人ターコイズ,,その他の設立登記法人,東京都,千代田区,霞が関３丁目２番５号,,13,101,1000013,,,,,,,2021-09-13,1,,,,,ターコイズ,0
2116,8010005033953,新規,0,2021-09-13,2021-09-13,一般社団法人おとのは,,その他の設立登記法人,東京都,文京区,音羽２丁目５番３号,,13,105,1120013,,,,,,,2021-09-13,1,,,,,オトノハ,0
2125,8010403026113,新規,0,2021-09-13,2021-09-13,合同会社ＮＲＥ－４７インベストメント,,合同会社,東京都,港区,虎ノ門２丁目１０番４号オークラプレステージタワー,,13,103,1050001,,,,,,,2021-09-13,1,,,,,エヌアールイーヨンジュウナナインベストメント,0
2135,8010901049441,新規,0,2021-09-13,2021-09-13,株式会社ｄｅａ,,株式会社,東京都,世田谷区,弦巻５丁目３６番７－６０７号,,13,112,1540016,,,,,,,2021-09-13,1,,,,,デア,0
2145,8011001142673,新規,0,2021-09-13,2021-09-13,株式会社ビレッジネクスト,,株式会社,東京都,渋谷区,桜丘町２６番１号セルリアンタワー１５階,,13,113,1500031,,,,,,,2021-09-13,1,,,,,ビレッジネクスト,0
2146,8011001142698,新規,0,2021-09-13,2021-09-13,株式会社村治企画,,株式会社,東京都,目黒区,自由が丘２丁目１４－１５館山ビル１Ｆ,,13,110,1520035,,,,,,,2021-09-13,1,,,,,ムラジキカク,0
2147,8011001142707,新規,0,2021-09-13,2021-09-13,株式会社ＵＰ‐ＳＴＲＥＡＭ,,株式会社,東京都,渋谷区,代々木１丁目３０－１４天翔オフィス代々木ＡＮＮＥＸ３０８,,13,113,1510053,,,,,,,2021-09-13,1,,,,,アップストリーム,0
2148,8011001142715,新規,0,2021-09-13,2021-09-13,株式会社奥原準備中,,株式会社,東京都,渋谷区,千駄ヶ谷１丁目１１－４佐光ビル２０２,,13,113,1510051,,,,,,,2021-09-13,1,,,,,オクハラジュンビチュウ,0
2149,8011001142731,新規,0,2021-09-13,2021-09-13,株式会社ＣＡＲＴＡ　ＡＧＥ,,株式会社,東京都,渋谷区,道玄坂１丁目２１番１号渋谷ソラスタ１５階,,13,113,1500043,,,,,,,2021-09-13,1,,,,,カルタエイジ,0
2150,8011001142748,新規,0,2021-09-13,2021-09-13,株式会社ＭＯＮＫＥＹ　ＴＥＣＨ,,株式会社,東京都,渋谷区,道玄坂１丁目２０番８号寿パークビル４Ｆ,,13,113,1500043,,,,,,,2021-09-13,1,,,,,モンキーテック,0
2151,8011001142756,新規,0,2021-09-13,2021-09-13,株式会社ＳＥＣＯＮＤ　ＴＨＩＲＤ,,株式会社,東京都,渋谷区,円山町５番５号,,13,113,1500044,,,,,,,2021-09-13,1,,,,,セカンドサード,0
2152,8011001142780,新規,0,2021-09-13,2021-09-13,株式会社レップ,,株式会社,東京都,渋谷区,神宮前６丁目２３番４号桑野ビル２階,,13,113,1500001,,,,,,,2021-09-13,1,,,,,レップ,0
2155,8011003013328,新規,0,2021-09-13,2021-09-13,合同会社谷戸丘陵エステート,,合同会社,東京都,渋谷区,渋谷２丁目１９番１５号宮益坂ビルディング６０９,,13,113,1500002,,,,,,,2021-09-13,1,,,,,ヤトキュウリョウエステート,0
2156,8011003013344,新規,0,2021-09-13,2021-09-13,合同会社Ａｇｉｔａｔｉｏｎ　Ｆｒｅｅ,,合同会社,東京都,目黒区,上目黒２丁目１６番１１号宮川ハウジング１０２,,13,110,1530051,,,,,,,2021-09-13,1,,,,,アジテーションフリー,0
2157,8011003013352,新規,0,2021-09-13,2021-09-13,合同会社えびすグループ,,合同会社,東京都,渋谷区,神宮前６丁目２３番４号桑野ビル２階,,13,113,1500001,,,,,,,2021-09-13,1,,,,,エビスグループ,0
2158,8011003013377,新規,0,2021-09-13,2021-09-13,合同会社ＳＴＲＦ壱号,,合同会社,東京都,目黒区,目黒２丁目１０番８号第２アトモスフィア青山ビル６階,,13,110,1530063,,,,,,,2021-09-13,1,,,,,エスティアールエフイチゴウ,0
2159,8011003013385,新規,0,2021-09-13,2021-09-13,Ｋｙｏｋａ合同会社,,合同会社,東京都,渋谷区,恵比寿南２丁目４－１７グリーンアベニュー５０１,,13,113,1500022,,,,,,,2021-09-13,1,,,,,キョウカ,0
2160,8011005009209,新規,0,2021-09-13,2021-09-13,特定非営利活動法人あい・えーる,,その他の設立登記法人,東京都,目黒区,鷹番３丁目２１番１４号第一菊地マンション１０５,,13,110,1520004,,,,,,,2021-09-13,1,,,,,アイエール,0
2162,8011101096200,新規,0,2021-09-13,2021-09-13,日幸ホールディングス株式会社,,株式会社,東京都,新宿区,西新宿８丁目１番１号アゼリアビル６階,,13,104,1600023,,,,,,,2021-09-13,1,,,,,ニッコウホールディングス,0
2163,8011103011000,新規,0,2021-09-13,2021-09-13,合同会社Ｌｉｆｏｕｎｄ,,合同会社,東京都,新宿区,新宿２丁目４－１第２２宮廷マンション７０３,,13,104,1600022,,,,,,,2021-09-13,1,,,,,リファンド,0
2169,8011303004159,新規,0,2021-09-13,2021-09-13,合同会社Ｄｅｅｐ　Ｗｅｌｌ,,合同会社,東京都,杉並区,大宮２丁目４－７,,13,115,1680061,,,,,,,2021-09-13,1,,,,,ディープウェル,0
2178,8011701024700,新規,0,2021-09-13,2021-09-13,株式会社ＮＯＹＯＮ,,株式会社,東京都,江戸川区,上一色３丁目８番５－１０１号,,13,123,1330041,,,,,,,2021-09-13,1,,,,,ノヨン,0
2192,8020001142988,新規,0,2021-09-13,2021-09-13,株式会社朝日健康システム,,株式会社,神奈川県,横浜市青葉区,藤が丘２丁目３７番地２グリーンヒル藤が丘Ｂ－４０２,,14,117,2270043,,,,,,,2021-09-13,1,,,,,アサヒケンコウシステム,0
2196,8020003020408,新規,0,2021-09-13,2021-09-13,合同会社Ａ－ｉｓｌａｎｄ,,合同会社,神奈川県,川崎市中原区,中丸子１３番地１０リエトコート武蔵小杉ザ・クラッシィタワー１４１２,,14,133,2110012,,,,,,,2021-09-13,1,,,,,エーアイランド,0
2226,8040001120100,新規,0,2021-09-13,2021-09-13,株式会社あさい農園,,株式会社,千葉県,成田市,松子６００番地１,,12,211,2870234,,,,,,,2021-09-13,1,,,,,アサイノウエン,0
2237,8040003018499,新規,0,2021-09-13,2021-09-13,合同会社長谷川コンサルタント,,合同会社,千葉県,習志野市,津田沼３丁目１１番１３－１１０３号,,12,216,2750016,,,,,,,2021-09-13,1,,,,,ハセガワコンサルタント,0
2241,8060001034075,新規,0,2021-09-13,2021-09-13,株式会社クロス,,株式会社,栃木県,佐野市,黒袴町８４２,,09,204,3270813,,,,,,,2021-09-13,1,,,,,,0
2242,8060001034083,新規,0,2021-09-13,2021-09-13,株式会社ＨＡＮＯＢＩ,,株式会社,栃木県,宇都宮市,滝の原１丁目３番１８号,,09,201,3200846,,,,,,,2021-09-13,1,,,,,ハノビ,0
2281,8120001240344,新規,0,2021-09-13,2021-09-13,株式会社キャッチデザイン,,株式会社,大阪府,大阪市福島区,福島２丁目１０番１９号メガロコープ福島１１１７号室,,27,103,5530003,,,,,,,2021-09-13,1,,,,,キャッチデザイン,0
2304,8130001070096,新規,0,2021-09-13,2021-09-13,株式会社プレスト,,株式会社,京都府,京都市中京区,壬生桧町６番地エスティハウス西院,,26,104,6040000,,,,,,,2021-09-13,1,,,,,プレスト,0
2305,8130003007476,新規,0,2021-09-13,2021-09-13,合同会社ＧＧ　Ｃａｐｉｔａｌ＆Ｍａｎａｇｅｍｅｎｔ,,合同会社,京都府,長岡京市,開田３丁目１０番３号,,26,209,6170826,,,,,,,2021-09-13,1,,,,,ジージーキャピタルアンドマネジメント,0
2309,8140001123010,新規,0,2021-09-13,2021-09-13,株式会社Ａｌｉｅｎ　Ｌａｂ,,株式会社,兵庫県,川辺郡猪名川町,若葉２丁目５０番地パークハウスＢ－８０４,,28,301,6660251,,,,,,,2021-09-13,1,,,,,エイリアンラボ,0
2312,8140003016716,新規,0,2021-09-13,2021-09-13,アジアンホワイトスキンジャパン合同会社,,合同会社,兵庫県,神戸市中央区,山本通２丁目２－７,,28,110,6500003,,,,,,,2021-09-13,1,,,,,アジアンホワイトスキンジャパン,0
2316,8150001024918,新規,0,2021-09-13,2021-09-13,株式会社洪陽商事,,株式会社,奈良県,大和高田市,大字野口６０３番地１,,29,202,6350075,,,,,,,2021-09-13,1,,,,,コウヨウショウジ,0
2321,8160005010979,新規,0,2021-09-13,2021-09-13,一般社団法人Ｓｍｉｌｅｓ,,その他の設立登記法人,滋賀県,大津市,和邇春日３丁目８５７番地１６,,25,201,5200529,,,,,,,2021-09-13,1,,,,,スマイルズ,0
2323,8170001016772,新規,0,2021-09-13,2021-09-13,株式会社和歌山技工,,株式会社,和歌山県,紀の川市,貴志川町国主２８番地,,30,208,6400414,,,,,,,2021-09-13,1,,,,,ワカヤマギコウ,0
2334,8180003022909,新規,0,2021-09-13,2021-09-13,合同会社ＴＷＥＬＶＥ　ＧＴ　ＪＡＰＡＮ,,合同会社,愛知県,西春日井郡豊山町,大字豊場字諏訪１４１番,,23,342,4800202,,,,,,,2021-09-13,1,,,,,トゥウェルブジーティージャパン,0
2343,8190003003759,新規,0,2021-09-13,2021-09-13,ＴＡＫＥ商事合同会社,,合同会社,三重県,鈴鹿市,大池１丁目１４番４５号,,24,207,5130827,,,,,,,2021-09-13,1,,,,,タケショウジ,0
2346,8200001039134,新規,0,2021-09-13,2021-09-13,株式会社ＦＡＢＵＬＯＵＳ,,株式会社,岐阜県,多治見市,幸町４丁目２８番地の１１,,21,204,5070077,,,,,,,2021-09-13,1,,,,,ファビュラス,0
2347,8220001024423,新規,0,2021-09-13,2021-09-13,株式会社ＫＡＴＡＫＡＴＡ．,,株式会社,石川県,金沢市,出雲町イ２３０番地２・１０５,,17,201,9200056,,,,,,,2021-09-13,1,,,,,カタカタドット,0
2348,8230003001725,新規,0,2021-09-13,2021-09-13,合同会社電通サカイ,,合同会社,富山県,砺波市,鷹栖２０２０番地,,16,208,9391335,,,,,,,2021-09-13,1,,,,,デンツウサカイ,0
2353,8240001058584,新規,0,2021-09-13,2021-09-13,株式会社ユニバーサルパートナー,,株式会社,広島県,安芸郡坂町,横浜中央２丁目７番２号,,34,309,7314323,,,,,,,2021-09-13,1,,,,,ユニバーサルパートナー,0
2354,8240001058601,新規,0,2021-09-13,2021-09-13,ＣＡＲＰＬＵＳ株式会社,,株式会社,広島県,広島市佐伯区,五日市町石内３６６４番地１,,34,108,7315100,,,,,,,2021-09-13,1,,,,,カープラス,0
2365,8290001094609,新規,0,2021-09-13,2021-09-13,株式会社Ｍｉｎｏｒｉ　Ｐｒｏｊｅｃｔ,,株式会社,福岡県,太宰府市,国分５丁目３２番１８号,,40,221,8180132,,,,,,,2021-09-13,1,,,,,ミノリプロジェクト,0
2367,8290005018357,新規,0,2021-09-13,2021-09-13,一般社団法人ＧＯＯＤ　ＣＯＭＰＡＮＹ,,その他の設立登記法人,福岡県,朝倉市,甘木１０５８番地ギャラリーかめや２Ｆ,,40,228,8380068,,,,,,,2021-09-13,1,,,,,グッドカンパニー,0
2370,8290801027783,新規,0,2021-09-13,2021-09-13,株式会社ＭＢサービス,,株式会社,福岡県,北九州市小倉南区,北方３丁目５３番１３号ＭＯＲＩＸ６号室,,40,107,8020841,,,,,,,2021-09-13,1,,,,,エムビーサービス,0
2390,8360001029359,新規,0,2021-09-13,2021-09-13,株式会社Ｊａｈｅｄ　Ｔｒａｄｉｎｇ,,株式会社,沖縄県,中頭郡中城村,字南上原６８４番地７,,47,328,9012424,,,,,,,2021-09-13,1,,,,,ジャヘッドトレイディング,0
2394,8370005010347,新規,0,2021-09-13,2021-09-13,一般社団法人石巻震災伝承の会,,その他の設立登記法人,宮城県,石巻市,築山１丁目９番１９号,,04,202,9860857,,,,,,,2021-09-13,1,,,,,イシノマキシンサイデンショウノカイ,0
2414,8430001084909,新規,0,2021-09-13,2021-09-13,株式会社アキナイ,,株式会社,北海道,室蘭市,知利別町１丁目９番９号,,01,205,0500076,,,,,,,2021-09-13,1,,,,,アキナイ,0
2416,8430003013139,新規,0,2021-09-13,2021-09-13,合同会社Ａｍｂｅｒ,,合同会社,北海道,札幌市中央区,宮の森四条１２丁目２番４３号,,01,101,0640954,,,,,,,2021-09-13,1,,,,,アンバー,0
2417,8430005014267,新規,0,2021-09-13,2021-09-13,一般社団法人生活保護住居支援センター,,その他の設立登記法人,北海道,札幌市中央区,南十条西６丁目６番２１号,,01,101,0640810,,,,,,,2021-09-13,1,,,,,セイカツホゴジュウキョシエンセンター,0
2436,9010001220810,新規,0,2021-09-13,2021-09-13,株式会社Ｃｈｉｅｒｉｃｏ,,株式会社,東京都,千代田区,六番町４番２号,,13,101,1020085,,,,,,,2021-09-13,1,,,,,チエリコ,0
2437,9010001221123,新規,0,2021-09-13,2021-09-13,株式会社Ｇｌｏｂａｌ　Ｒｕｎｗａｙ,,株式会社,東京都,中央区,日本橋２丁目１番１７号,,13,102,1030027,,,,,,,2021-09-13,1,,,,,グローバルランウェイ,0
2440,9010003035777,新規,0,2021-09-13,2021-09-13,Ｔｅｒｒａ合同会社,,合同会社,東京都,中央区,京橋１丁目６番１３号,,13,102,1040031,,,,,,,2021-09-13,1,,,,,テラ,0
2441,9010003035793,新規,0,2021-09-13,2021-09-13,Ａｑｕａ　Ｍｅｄｉｃａｌ　Ｒｅｓｅａｒｃｈ合同会社,,合同会社,東京都,文京区,小石川４丁目１６番１３－４０１号,,13,105,1120002,,,,,,,2021-09-13,1,,,,,アクアメディカルリサーチ,0
2451,9010403026112,新規,0,2021-09-13,2021-09-13,はやぶさアセットマネジメント合同会社,,合同会社,東京都,港区,虎ノ門２丁目１０番４号オークラプレステージタワー,,13,103,1050001,,,,,,,2021-09-13,1,,,,,ハヤブサアセットマネジメント,0
2464,9010901049440,新規,0,2021-09-13,2021-09-13,ピース株式会社,,株式会社,東京都,世田谷区,代田２丁目３６番１５号ＢＯＮＵＳ・ＴＲＡＣＫ・ＬＯＵＮＧＥ,,13,112,1550033,,,,,,,2021-09-13,1,,,,,ピース,0
2469,9011001142689,新規,0,2021-09-13,2021-09-13,株式会社ＧＯ　Ｂｅｙｏｎｄ　Ｇｌｏｂａｌ,,株式会社,東京都,渋谷区,神宮前６丁目２３番４号桑野ビル２階,,13,113,1500001,,,,,,,2021-09-13,1,,,,,ゴービヨンドグローバル,0
2470,9011001142706,新規,0,2021-09-13,2021-09-13,株式会社ＥＥラーニング,,株式会社,東京都,渋谷区,代々木３丁目１番３号代々木木村ビル２階,,13,113,1510053,,,,,,,2021-09-13,1,,,,,イーイーラーニング,0
2472,9011003013335,新規,0,2021-09-13,2021-09-13,合同会社じゅりあん,,合同会社,東京都,渋谷区,神宮前６丁目２３番４号桑野ビル２階,,13,113,1500001,,,,,,,2021-09-13,1,,,,,ジュリアン,0
2473,9011003013343,新規,0,2021-09-13,2021-09-13,セリス合同会社,,合同会社,東京都,渋谷区,神宮前６丁目２３番４号桑野ビル２階,,13,113,1500001,,,,,,,2021-09-13,1,,,,,セリス,0
2474,9011005009224,新規,0,2021-09-13,2021-09-13,一般社団法人ＳＴＲＦ基金,,その他の設立登記法人,東京都,目黒区,目黒２丁目１０番８号第２アトモスフィア青山ビル６階,,13,110,1530063,,,,,,,2021-09-13,1,,,,,エスティアールエフキキン,0
2478,9011105009966,新規,0,2021-09-13,2021-09-13,医療法人社団中西会,,その他の設立登記法人,東京都,新宿区,新宿６丁目１０番１号ＮＩＳＳＥＩＳＨＩＮＪＵＫＵＢｌｄｇ．２階,,13,104,1600022,,,,,,,2021-09-13,1,,,,,ナカニシカイ,0
2484,9011801039688,新規,0,2021-09-13,2021-09-13,ＣｉｒｃｕｌａｒＭｅｄｉｃａｌＳｙｓｔｅｍｓ株式会社,,株式会社,東京都,足立区,扇２丁目２２番１５号,,13,121,1230873,,,,,,,2021-09-13,1,,,,,サーキュラーメディカルシステムス,0
2485,9011801039696,新規,0,2021-09-13,2021-09-13,株式会社ｅＳＴＲＥＬＬａ,,株式会社,東京都,葛飾区,宝町１丁目１番５号,,13,122,1240005,,,,,,,2021-09-13,1,,,,,エストレア,0
2493,9013301047997,新規,0,2021-09-13,2021-09-13,株式会社ＯｍｎｉＧｒｉｄ,,株式会社,東京都,豊島区,西池袋１丁目４番１０号,,13,116,1710021,,,,,,,2021-09-13,1,,,,,オムニグリッド,0
2502,9020003020480,新規,0,2021-09-13,2021-09-13,合同会社スタートアウト,,合同会社,神奈川県,横浜市都筑区,北山田３丁目１２－５－２０４,,14,118,2240021,,,,,,,2021-09-13,1,,,,,スタートアウト,0
2510,9021001073875,新規,0,2021-09-13,2021-09-13,Ｓｓｂアニメ企画株式会社,,株式会社,神奈川県,鎌倉市,七里ガ浜東３丁目１７－１１,,14,204,2480025,,,,,,,2021-09-13,1,,,,,エスエスビーアニメキカク,0
2511,9021001073925,新規,0,2021-09-13,2021-09-13,ＫｅｅＬ株式会社,,株式会社,神奈川県,横須賀市,長沢６丁目４３番２８号,,14,201,2390842,,,,,,,2021-09-13,1,,,,,キール,0
2521,9030001144306,新規,0,2021-09-13,2021-09-13,株式会社たにふじ,,株式会社,埼玉県,坂戸市,大字片柳３９９番地４,,11,239,3500219,,,,,,,2021-09-13,1,,,,,タニフジ,0
2522,9030005020511,新規,0,2021-09-13,2021-09-13,ＮＰＯ法人Ｂｒｅｍｅｎ,,その他の設立登記法人,埼玉県,越谷市,東越谷９丁目４番６,,11,222,3430023,,,,,,,2021-09-13,1,,,,,ブレーメン,0
2528,9040001120207,新規,0,2021-09-13,2021-09-13,ｆｈｅｍｐｒｅｅ株式会社,,株式会社,千葉県,千葉市美浜区,打瀬１丁目９番地,,12,106,2610013,,,,,,,2021-09-13,1,,,,,フェンプリー,0
2535,9040003018507,新規,0,2021-09-13,2021-09-13,ＲＳ　ＥＮＴＥＲＰＲＩＳＥ合同会社,,合同会社,千葉県,山武郡芝山町,小池２４５５番地３,,12,409,2891624,,,,,,,2021-09-13,1,,,,,アールエスエンタープライズ,0
2537,9040005021351,新規,0,2021-09-13,2021-09-13,一般社団法人キッチンカーちば,,その他の設立登記法人,千葉県,松戸市,大谷口３５３番地の３クロシェットＡ棟１０１号,,12,207,2700005,,,,,,,2021-09-13,1,,,,,キッチンカーチバ,0
2552,9100001034607,新規,0,2021-09-13,2021-09-13,株式会社ＢＯＮＤＲＹ,,株式会社,長野県,長野市,大字鶴賀権堂町２２０１番地２３,,20,201,3800833,,,,,,,2021-09-13,1,,,,,ボンドリー,0
2558,9110003004573,新規,0,2021-09-13,2021-09-13,合同会社真有,,合同会社,新潟県,新潟市中央区,神道寺１丁目７番２号神道寺ハイツ２号棟４２０号,,15,103,9500983,,,,,,,2021-09-13,1,,,,,シンユウ,0
2566,9120001240376,新規,0,2021-09-13,2021-09-13,株式会社Ｃ．Ａ．Ｔ,,株式会社,大阪府,大阪市北区,中津６丁目８番３５号プレアール北梅田１号室,,27,127,5310071,,,,,,,2021-09-13,1,,,,,シーエーティー,0
2588,9140001123001,新規,0,2021-09-13,2021-09-13,株式会社クラフトリゾート,,株式会社,兵庫県,神戸市北区,山田町小部字妙賀１１－１,,28,109,6511101,,,,,,,2021-09-13,1,,,,,クラフトリゾート,0
2602,9180001147789,新規,0,2021-09-13,2021-09-13,株式会社Ｂｅｇｉｎホールディングス,,株式会社,愛知県,名古屋市緑区,鶴が沢２丁目１４０５番地,,23,114,4580814,,,,,,,2021-09-13,1,,,,,ビギンホールディングス,0
2603,9180001147806,新規,0,2021-09-13,2021-09-13,株式会社名和技研,,株式会社,愛知県,名古屋市南区,中割町３丁目４１,,23,112,4570826,,,,,,,2021-09-13,1,,,,,メイワギケン,0
2617,9200001039125,新規,0,2021-09-13,2021-09-13,株式会社Ｌｅａｐ,,株式会社,岐阜県,可児市,室原８１８番地１,,21,214,5090253,,,,,,,2021-09-13,1,,,,,リープ,0
2618,9200001039133,新規,0,2021-09-13,2021-09-13,株式会社井ノ口,,株式会社,岐阜県,岐阜市,今町３丁目２番地,,21,201,5008023,,,,,,,2021-09-13,1,,,,,イノクチ,0
2633,9240005015267,新規,0,2021-09-13,2021-09-13,一般社団法人ＭＡＮＹＳＩＤＥ,,その他の設立登記法人,広島県,呉市,吉浦新町１丁目６番１２号,,34,202,7370845,,,,,,,2021-09-13,1,,,,,メニサイド,0
2634,9250001019122,新規,0,2021-09-13,2021-09-13,株式会社ニシカン,,株式会社,山口県,下関市,小月南町６番１６号,,35,201,7501137,,,,,,,2021-09-13,1,,,,,ニシカン,0
2635,9260001035952,新規,0,2021-09-13,2021-09-13,アタッチメントギルド株式会社,,株式会社,岡山県,岡山市東区,西大寺中野８７０番地１Ｎｅｗア・ラ・モードメゾンⅠ‐２０３,00124218,33,103,7048191,,,,,,,2021-09-13,1,,,,,アタッチメントギルド,0
2636,9260001035960,新規,0,2021-09-13,2021-09-13,いえいろは株式会社,,株式会社,岡山県,岡山市南区,浦安南町５７９番地,,33,104,7028024,,,,,,,2021-09-13,1,,,,,イエイロハ,0
2644,9290001094574,新規,0,2021-09-13,2021-09-13,株式会社ムツミ工業,,株式会社,福岡県,大牟田市,大字倉永４９０番地１,,40,202,8370906,,,,,,,2021-09-13,1,,,,,ムツミコウギョウ,0
2649,9300001012625,新規,0,2021-09-13,2021-09-13,ＡＳ警備株式会社,,株式会社,佐賀県,佐賀市,大和町久留間３３６８－７,,41,201,8490000,,,,,,,2021-09-13,1,,,,,エイエスケイビ,0
2653,9320001018595,新規,0,2021-09-13,2021-09-13,ＭＤＲ株式会社,,株式会社,大分県,大分市,金池町４丁目５番１７号２０３,,44,201,8700026,,,,,,,2021-09-13,1,,,,,エムディーアール,0
2657,9340001024096,新規,0,2021-09-13,2021-09-13,株式会社セントラルメディック,,株式会社,鹿児島県,鹿児島市,武２丁目１４番２７－１４０１号,,46,201,8900045,,,,,,,2021-09-13,1,,,,,セントラルメディック,0
2658,9340003003552,新規,0,2021-09-13,2021-09-13,合同会社ファーム・イノベーション上木原,,合同会社,鹿児島県,霧島市,溝辺町麓３３３４番地８,,46,218,8996404,,,,,,,2021-09-13,1,,,,,ファームイノベーションカミキハラ,0
2676,9390001016592,新規,0,2021-09-13,2021-09-13,株式会社四季南陽,,株式会社,山形県,南陽市,上野１８５５番地の１０,,06,213,9992233,,,,,,,2021-09-13,1,,,,,シキナンヨウ,0
2681,9410001012960,新規,0,2021-09-13,2021-09-13,ＩＫ株式会社,,株式会社,秋田県,秋田市,大町５丁目６番３０号,,05,201,0100921,,,,,,,2021-09-13,1,,,,,アイケー,0
2689,9430005014274,新規,0,2021-09-13,2021-09-13,一般社団法人スペサポ,,その他の設立登記法人,北海道,札幌市中央区,大通西１５丁目３番地２パークホームズ大通公園コンフォートプレミア１１０１号,,01,101,0600042,,,,,,,2021-09-13,1,,,,,スペサポ,0
2693,9480003001724,新規,0,2021-09-13,2021-09-13,合同会社ＯＤＯＲＯＫＩ,,合同会社,徳島県,徳島市,昭和町６丁目２５番地モデルナマンション３Ａ・ｃｈａｌｌｅｎｇｙｍ,,36,201,7700942,,,,,,,2021-09-13,1,,,,,オドロキ,0
