sequenceNumber,corporateNumber,process,correct,updateDate,changeDate,name,nameImageId,kind,prefectureName,cityName,streetNumber,addressImageId,prefectureCode,cityCode,postCode,addressOutside,addressOutsideImageId,closeDate,closeCause,successorCorporateNumber,changeCause,assignmentDate,latest,enName,enPrefectureName,enCityName,enAddressOutside,furigana,hihyoji
17,1010401033019,登記記録の閉鎖等,0,2024-03-22,2024-03-15,ニューソフトジャパン株式会社,,株式会社,東京都,港区,新橋６丁目２１番３号,,13,103,1050004,,,2024-03-15,清算の結了等,,,2015-10-05,1,,,,,ニューソフトジャパン,0
28,1010403022705,登記記録の閉鎖等,0,2024-03-22,2024-03-15,グランツ合同会社,,合同会社,東京都,港区,芝１丁目２番１－８０６号,,13,103,1050014,,,2024-03-15,清算の結了等,,,2020-03-26,1,,,,,グランツ,0
35,1010602031300,登記記録の閉鎖等,0,2024-03-22,2024-03-14,有限会社キャリアクラスター,,有限会社,東京都,江東区,森下３丁目１番７号,,13,108,1350004,,,2024-03-14,清算の結了等,,,2015-10-05,1,,,,,キャリアクラスター,0
42,1010902006506,登記記録の閉鎖等,0,2024-03-22,2024-03-19,有限会社三共堂,,有限会社,東京都,世田谷区,中町５丁目３１番１５号,,13,112,1580091,,,2024-03-19,清算の結了等,,,2015-10-05,1,,,,,サンキョウドウ,0
107,1030001024523,登記記録の閉鎖等,0,2024-03-22,2024-03-18,株式会社タップ,,株式会社,埼玉県,所沢市,大字南永井字南壱本木８６６番３,,11,208,3590011,,,2024-03-18,清算の結了等,,,2015-10-05,1,,,,,タップ,0
122,1030002121971,登記記録の閉鎖等,0,2024-03-22,2024-03-12,有限会社田＿新聞店,00018123,有限会社,埼玉県,秩父郡小鹿野町,小鹿野９６４番地の１,,11,365,3680105,,,2024-03-12,清算の結了等,,,2015-10-05,1,,,,,タジマシンブンテン,0
131,1040003008944,登記記録の閉鎖等,0,2024-03-22,2024-03-21,合同会社グランペール,,合同会社,千葉県,千葉市美浜区,磯辺１丁目４１番８号,,12,106,2610012,,,2024-03-21,清算の結了等,,,2016-08-17,1,,,,,グランペール,0
160,1100001012999,登記記録の閉鎖等,0,2024-03-22,2024-03-15,協同冷蔵株式会社,,株式会社,長野県,松本市,大手１丁目３番２５号,,20,202,3900874,,,2024-03-15,清算の結了等,,,2015-10-05,1,,,,,キョウドウレイゾウ,0
164,1110001002999,登記記録の閉鎖等,0,2024-03-22,2024-03-19,第四コンピユーターサービス株式会社,,株式会社,新潟県,新潟市中央区,鐙１丁目１番１７号,,15,103,9500913,,,2024-03-19,清算の結了等,,,2015-10-05,1,,,,,ダイシコンピューターサービス,0
208,1140001093227,登記記録の閉鎖等,0,2024-03-22,2024-02-01,株式会社Ｓｅａ－Ｓｕｎ,,株式会社,兵庫県,姫路市,保城６６６番地９,,28,201,6700804,,,2024-02-01,合併による解散等,3140001066123,令和６年２月１日兵庫県姫路市城北新町二丁目１７番７号株式会社きたなか（3140001066123）に合併し解散,2015-10-05,1,,,,,,0
243,1240003003768,登記記録の閉鎖等,0,2024-03-22,2024-03-19,カルペウィアム合同会社,,合同会社,広島県,福山市,鞆町後地６８０,,34,207,7200202,,,2024-03-19,清算の結了等,,,2018-01-09,1,,,,,カルペウィアム,0
268,1330002031208,登記記録の閉鎖等,0,2024-03-22,2024-03-18,有限会社東海設計,,有限会社,熊本県,人吉市,城本町５３１番地３３,,43,203,8680016,,,2024-03-18,清算の結了等,,,2015-10-05,1,,,,,トウカイセッケイ,0
293,1420002002406,登記記録の閉鎖等,0,2024-03-22,2024-03-18,有限会社ビービーシー,,有限会社,青森県,青森市,合浦１丁目１２番１７号,,02,201,0300902,,,2024-03-18,清算の結了等,,,2015-10-05,1,,,,,ビービーシー,0
305,1470001016170,登記記録の閉鎖等,0,2024-03-22,2024-03-21,株式会社千流,,株式会社,香川県,坂出市,駒止町１丁目３番４号,,37,203,7620032,,,2024-03-21,清算の結了等,,,2017-03-08,1,,,,,センリュウ,0
306,1470002013662,登記記録の閉鎖等,0,2024-03-22,2024-03-21,有限会社オーカコーポレーション,,有限会社,香川県,仲多度郡まんのう町,吉野下２１９番地１,,37,406,7660022,,,2024-03-21,清算の結了等,,,2015-10-05,1,,,,,オーカコーポレーション,0
307,1480003001558,登記記録の閉鎖等,0,2024-03-22,2024-03-19,合同会社あゆむ製作所,,合同会社,徳島県,美馬郡つるぎ町,半田字田井６５番地１,,36,468,7794402,,,2024-03-19,清算の結了等,,,2020-10-06,1,,,,,アユムセイサクショ,0
312,2010001122880,登記記録の閉鎖等,0,2024-03-22,2024-03-15,株式会社ジェイ・システムズ,,株式会社,東京都,文京区,春日２丁目１番６－３０１号,,13,105,1120003,,,2024-03-15,清算の結了等,,,2015-10-05,1,,,,,ジェイシステムズ,0
324,2010401161941,登記記録の閉鎖等,0,2024-03-22,2024-03-15,ダニー砂田プロダクション株式会社,,株式会社,東京都,港区,高輪３丁目２５番２７号アベニュー高輪９０３,,13,103,1080074,,,2024-03-15,清算の結了等,,,2021-08-12,1,,,,,ダニースナダプロダクション,0
356,2011101009340,登記記録の閉鎖等,0,2024-03-22,2024-03-18,株式会社エス・バレー,,株式会社,東京都,新宿区,市谷柳町４１番地,,13,104,1620061,,,2024-03-18,清算の結了等,,,2015-10-05,1,,,,,エスバレー,0
382,2012701001546,登記記録の閉鎖等,0,2024-03-22,2024-03-18,株式会社ダイワ電機製作所,,株式会社,東京都,東村山市,栄町１丁目１４番地１２,,13,213,1890013,,,2024-03-18,清算の結了等,,,2015-10-05,1,,,,,ダイワデンキセイサクジョ,0
397,2020003017228,登記記録の閉鎖等,0,2024-03-22,2024-03-15,合同会社佐藤企画,,合同会社,神奈川県,横浜市青葉区,新石川４丁目２９番地４、Ｂ－５０３,,14,117,2250003,,,2024-03-15,清算の結了等,,,2020-01-17,1,,,,,サトウキカク,0
407,2021002052521,登記記録の閉鎖等,0,2024-03-22,2024-03-15,有限会社露木硝子電気商店,,有限会社,神奈川県,小田原市,扇町１丁目４４番１号,,14,206,2500001,,,2024-03-15,清算の結了等,,,2015-10-05,1,,,,,ツユキガラスデンキショウテン,0
454,2090002001671,登記記録の閉鎖等,0,2024-03-22,2024-03-21,有限会社ジュネダイヤモンド,,有限会社,山梨県,甲府市,湯田１丁目９番１号,,19,201,4000864,,,2024-03-21,清算の結了等,,,2015-10-05,1,,,,,ジュネダイヤモンド,0
459,2110001024943,登記記録の閉鎖等,0,2024-03-22,2024-03-19,酒菊繊維株式会社,,株式会社,新潟県,見附市,本町２丁目９番１９号,,15,211,9540053,,,2024-03-19,清算の結了等,,,2015-10-05,1,,,,,サカキクセンイ,0
476,2120102004133,登記記録の閉鎖等,0,2024-03-22,2024-03-21,有限会社富士空調,,有限会社,大阪府,堺市北区,金岡町２５５３番地５,,27,146,5918022,,,2024-03-21,清算の結了等,,,2015-10-05,1,,,,,フジクウチョウ,0
486,2130005014682,登記記録の閉鎖等,0,2024-03-22,2024-03-21,一般社団法人生徒の理科研究所,,その他の設立登記法人,京都府,綾部市,金河内町奥地２２番地,,26,203,6230342,,,2024-03-21,清算の結了等,,,2016-08-24,1,,,,,セイトノリカケンキュウショ,0
510,2190001001150,登記記録の閉鎖等,0,2024-03-22,2024-03-15,ミドリ安全津株式会社,,株式会社,三重県,津市,藤方１６３２番地の４,,24,201,5140815,,,2024-03-15,清算の結了等,,,2015-10-05,1,,,,,ミドリアンゼンツ,0
511,2190001009177,登記記録の閉鎖等,0,2024-03-22,2024-03-15,株式会社伊賀瓦センター,,株式会社,三重県,伊賀市,印代１１６番地,,24,216,5180008,,,2024-03-15,清算の結了等,,,2015-10-05,1,,,,,イガカワラセンター,0
517,2230001003489,登記記録の閉鎖等,0,2024-03-22,2024-03-18,吉川産業株式会社,00078812,株式会社,富山県,富山市,新庄北町２０番２１号,,16,201,9300997,,,2024-03-18,清算の結了等,,,2015-10-05,1,,,,,ヨシカワサンギョウ,0
518,2230003001672,登記記録の閉鎖等,0,2024-03-22,2024-03-18,合同会社合掌,,合同会社,富山県,富山市,八尾町水谷２０４０番地,,16,201,9392364,,,2024-03-18,清算の結了等,,,2021-05-26,1,,,,,ガッショウ,0
539,2320001016655,登記記録の閉鎖等,0,2024-03-22,2024-03-19,株式会社クレオ,,株式会社,大分県,大分市,大字永興９９２番地１０,,44,201,8700883,,,2024-03-19,清算の結了等,,,2018-10-15,1,,,,,クレオ,0
545,2340001011679,登記記録の閉鎖等,0,2024-03-22,2024-03-22,株式会社かごしま自然ガイド,,株式会社,鹿児島県,鹿児島市,油須木町８８８番地,,46,201,8911104,,,2024-03-22,清算の結了等,,,2015-10-05,1,,,,,カゴシマシゼンガイド,0
576,2440002009852,登記記録の閉鎖等,0,2024-03-22,2024-03-18,有限会社山口建設,,有限会社,北海道,爾志郡乙部町,字館浦２１番地の１,,01,364,0430104,,,2024-03-18,清算の結了等,,,2015-10-05,1,,,,,ヤマグチケンセツ,0
609,3010403024311,登記記録の閉鎖等,0,2024-03-22,2024-03-11,合同会社ＪＭネットワークス,,合同会社,東京都,港区,南青山２丁目２番１５号ウィン青山９４２,,13,103,1070062,,,2024-03-11,清算の結了等,,,2020-12-14,1,,,,,ジェーエムネットワークス,0
632,3011303001557,登記記録の閉鎖等,0,2024-03-22,2024-03-19,合同会社ＳＩＧＮ　ＳＯＵＮＤ,,合同会社,東京都,中野区,中央１丁目３５番６号レッチフィールド中野坂上８Ｆ,,13,114,1640011,,,2024-03-19,清算の結了等,,,2015-10-05,1,,,,,サインサウンド,0
633,3011601000046,登記記録の閉鎖等,0,2024-03-22,2024-03-18,アサヒビジネスサプライ株式会社,,株式会社,東京都,練馬区,南大泉４丁目３番１２号,,13,120,1780064,,,2024-03-18,清算の結了等,,,2015-10-05,1,,,,,アサヒビジネスサプライ,0
638,3011802012559,登記記録の閉鎖等,0,2024-03-22,2024-03-18,有限会社金剛林,,有限会社,東京都,足立区,綾瀬４丁目６番３０号,,13,121,1200005,,,2024-03-18,清算の結了等,,,2015-10-05,1,,,,,コンゴウリン,0
645,3020001062175,登記記録の閉鎖等,0,2024-03-22,2024-03-15,株式会社キョーエイサプライ,,株式会社,神奈川県,横浜市神奈川区,西神奈川１丁目３番地６,,14,102,2210822,,,2024-03-15,清算の結了等,,,2015-10-05,1,,,,,キョーエイサプライ,0
652,3020002039206,登記記録の閉鎖等,0,2024-03-22,2024-03-15,有限会社電化センタータムラ,,有限会社,神奈川県,横浜市鶴見区,馬場３丁目１番１１号,,14,101,2300076,,,2024-03-15,清算の結了等,,,2015-10-05,1,,,,,デンカセンタータムラ,0
654,3020003023332,登記記録の閉鎖等,0,2024-03-22,2024-03-15,Ａｒｏｍｙｘ　Ａｓｉａ　Ｐａｃｉｆｉｃ合同会社,,合同会社,神奈川県,横浜市西区,浅間町１丁目４番３号ウィザードビル４０２,,14,103,2200072,,,2024-03-15,清算の結了等,,,2023-02-15,1,,,,,アロミクスアジアパシフィック,0
664,3030001033027,登記記録の閉鎖等,0,2024-03-22,2024-03-18,株式会社Ｊｙｏｊｉ　Ｗｅｒｋｓ,,株式会社,埼玉県,加須市,中種足１３１５番地３,,11,210,3470114,,,2024-03-18,清算の結了等,,,2015-10-05,1,,,,,ジョウジワークス,0
694,3040002096476,登記記録の閉鎖等,0,2024-03-22,2024-03-14,有限会社フリービー,,有限会社,千葉県,八千代市,大和田新田１０５４番地２００,,12,221,2760046,,,2024-03-14,清算の結了等,,,2015-10-05,1,,,,,フリービー,0
710,3070002003537,登記記録の閉鎖等,0,2024-03-22,2024-03-15,有限会社田村塗装工業,,有限会社,群馬県,前橋市,下細井町１７４番地６,,10,201,3710054,,,2024-03-15,清算の結了等,,,2015-10-05,1,,,,,タムラトソウコウギョウ,0
718,3100001032681,登記記録の閉鎖等,0,2024-03-22,2024-03-14,株式会社葵,,株式会社,長野県,諏訪郡原村,２３１６番地３,,20,363,3910100,,,2024-03-14,清算の結了等,,,2019-11-08,1,,,,,アオイ,0
735,3120901026054,登記記録の閉鎖等,0,2024-03-22,2024-03-14,株式会社ユーキ建設,,株式会社,大阪府,豊中市,庄内幸町３丁目３０番１４号,,27,203,5610833,,,2024-03-14,清算の結了等,,,2015-10-05,1,,,,,ユーキケンセツ,0
749,3140002036488,登記記録の閉鎖等,0,2024-03-22,2024-03-15,有限会社ハリマ自動車工業所,,有限会社,兵庫県,加古川市,加古川町粟津６０７番地の１,,28,210,6750039,,,2024-03-15,清算の結了等,,,2015-10-05,1,,,,,ハリマジドウシャコウギョウショ,0
803,3290803002418,登記記録の閉鎖等,0,2024-03-22,2024-03-18,合同会社はち,,合同会社,福岡県,北九州市八幡東区,茶屋町１－３,,40,108,8050014,,,2024-03-18,清算の結了等,,,2015-10-05,1,,,,,ハチ,0
811,3330001014343,登記記録の閉鎖等,0,2024-03-22,2024-03-04,株式会社田中設備,,株式会社,熊本県,水俣市,丸島町２丁目７番２１号,,43,205,8670058,,,2024-03-04,清算の結了等,,,2015-10-05,1,,,,,タナカセツビ,0
833,3380002000445,登記記録の閉鎖等,0,2024-03-22,2024-03-15,有限会社イワタ,,有限会社,福島県,福島市,大町１番８号,,07,201,9608041,,,2024-03-15,清算の結了等,,,2015-10-05,1,,,,,イワタ,0
857,3470002001822,登記記録の閉鎖等,0,2024-03-22,2024-03-21,有限会社香川テクノ産業,,有限会社,香川県,高松市,牟礼町原１４１０番地,,37,201,7610123,,,2024-03-21,清算の結了等,,,2015-10-05,1,,,,,カガワテクノサンギョウ,0
858,3500002019984,登記記録の閉鎖等,0,2024-03-22,2024-03-21,有限会社エイチ・ツー・ワイ,,有限会社,愛媛県,今治市,東村４丁目５番４５号,,38,202,7991506,,,2024-03-21,清算の結了等,,,2015-10-05,1,,,,,エイチツーワイ,0
861,4010001138520,登記記録の閉鎖等,0,2024-03-22,2024-03-15,株式会社ケーアンドエス,,株式会社,東京都,千代田区,九段南１丁目５番６号りそな九段ビル,,13,101,1020074,,,2024-03-15,清算の結了等,,,2015-10-05,1,,,,,ケーアンドエス,0
871,4010005027686,登記記録の閉鎖等,0,2024-03-22,2024-03-19,一般社団法人日本紳士服採寸士協会,,その他の設立登記法人,東京都,中央区,銀座７丁目１３番６号サガミビル２階,,13,102,1040061,,,2024-03-19,清算の結了等,,,2017-11-06,1,,,,,ニホンシンシフクサイスンシキョウカイ,0
872,4010005033156,登記記録の閉鎖等,0,2024-03-22,2024-03-18,一般社団法人千代田つなぐ協会,,その他の設立登記法人,東京都,千代田区,九段南１丁目５番６号,,13,101,1020074,,,2024-03-18,清算の結了等,,,2021-04-09,1,,,,,,0
891,4010901039826,登記記録の閉鎖等,0,2024-03-22,2024-03-19,株式会社ローブ,,株式会社,東京都,世田谷区,成城７丁目２４番５号,,13,112,1570066,,,2024-03-19,清算の結了等,,,2017-04-03,1,,,,,ローブ,0
904,4011101018166,登記記録の閉鎖等,0,2024-03-22,2024-03-18,株式会社アビリティ・フロント・グループ,,株式会社,東京都,新宿区,四谷三栄町３番１４号,,13,104,1600008,,,2024-03-18,清算の結了等,,,2015-10-05,1,,,,,アビリティフロントグループ,0
908,4011105003081,登記記録の閉鎖等,0,2024-03-22,2024-03-15,特定非営利活動法人日本プラセンタ協会,,その他の設立登記法人,東京都,新宿区,百人町１丁目１９番１７号ＦＬＡＴＳ－Ｔ２Ｆ,,13,104,1690073,,,2024-03-15,清算の結了等,,,2015-10-05,1,,,,,ニホンプラセンタキョウカイ,0
914,4011501017445,登記記録の閉鎖等,0,2024-03-22,2024-03-18,株式会社デフィー,,株式会社,東京都,足立区,扇３丁目１３番１９－２０１号,,13,121,1230873,,,2024-03-18,清算の結了等,,,2015-10-05,1,,,,,デフィー,0
915,4011601017915,登記記録の閉鎖等,0,2024-03-22,2024-03-18,ＩＴ－パートナー株式会社,,株式会社,東京都,練馬区,関町南４丁目２２番６－３０１号,,13,120,1770053,,,2024-03-18,清算の結了等,,,2015-10-05,1,,,,,アイティーパートナー,0
924,4011802025551,登記記録の閉鎖等,0,2024-03-22,2024-03-18,有限会社飯住,,有限会社,東京都,葛飾区,東金町１丁目２２番６号,,13,122,1250041,,,2024-03-18,清算の結了等,,,2015-10-05,1,,,,,,0
938,4020001138461,登記記録の閉鎖等,0,2024-03-22,2024-03-18,ＤＢセールス＆コンサルティング株式会社,,株式会社,神奈川県,川崎市高津区,末長３丁目２８番２－３０４号エクセレントシティ武蔵新城アクトラージュ,,14,134,2130013,,,2024-03-18,合併による解散等,1012802001586,令和６年３月１日東京都国立市北一丁目３番の１１国立デュープレックスＩ－１００１電子ブロック株式会社（1012802001586）に合併し解散,2020-11-05,1,,,,,ディービーセールスアンドコンサルティング,0
949,4030001122200,登記記録の閉鎖等,0,2024-03-22,2024-03-18,株式会社Ｂｒａｖｅ,,株式会社,埼玉県,上尾市,上町２丁目１０番１－２号,,11,219,3620037,,,2024-03-18,清算の結了等,,,2017-09-19,1,,,,,ブレイブ,0
962,4030002040780,登記記録の閉鎖等,0,2024-03-22,2024-03-19,有限会社グリーンライフ久喜,,有限会社,埼玉県,久喜市,本町２丁目１３番２５号,,11,232,3460005,,,2024-03-19,清算の結了等,,,2015-10-05,1,,,,,グリーンライフクキ,0
973,4050001017687,登記記録の閉鎖等,0,2024-03-22,2024-03-18,株式会社インプレス,,株式会社,茨城県,つくば市,二の宮１丁目２番地２,,08,220,3050051,,,2024-03-18,清算の結了等,,,2015-10-05,1,,,,,インプレス,0
975,4050001026424,登記記録の閉鎖等,0,2024-03-22,2024-03-18,株式会社システムネットワークエンジニアリング,,株式会社,茨城県,龍ケ崎市,小通幸谷１７６－１３,,08,208,3010000,,,2024-03-18,清算の結了等,,,2015-10-05,1,,,,,システムネットワークエンジニアリング,0
995,4100001029371,登記記録の閉鎖等,0,2024-03-22,2024-03-14,株式会社日本ファインケミカル,,株式会社,長野県,松本市,梓川梓１０４３番地５,,20,202,3901702,,,2024-03-14,清算の結了等,,,2016-05-25,1,,,,,ニホンファインケミカル,0
998,4110001034635,登記記録の閉鎖等,0,2024-03-22,2024-03-18,株式会社グローアップ,,株式会社,新潟県,新潟市秋葉区,柄目木３６６番地,,15,105,9560852,,,2024-03-18,清算の結了等,,,2020-02-05,1,,,,,グローアップ,0
999,4110003004355,登記記録の閉鎖等,0,2024-03-22,2024-03-19,合同会社国際挑戦学園協學館,,合同会社,新潟県,新潟市西区,松海が丘１丁目３番２９号,,15,107,9502075,,,2024-03-19,清算の結了等,,,2021-01-04,1,,,,,コクサイチョウセンガクエンキョウガクカン,0
1024,4122001037121,登記記録の閉鎖等,0,2024-03-22,2024-03-18,株式会社富貴商会,,株式会社,大阪府,八尾市,龍華町１丁目４番２－２４１０号,,27,212,5810069,,,2024-03-18,清算の結了等,,,2023-06-30,1,,,,,フキショウカイ,0
1033,4140001060042,登記記録の閉鎖等,0,2024-03-22,2024-03-19,株式会社竹善,,株式会社,兵庫県,姫路市,北条９５３番地,,28,201,6700947,,,2024-03-19,清算の結了等,,,2015-10-05,1,,,,,チクゼン,0
1044,4140003017362,登記記録の閉鎖等,0,2024-03-22,2024-03-06,合同会社ハナサイエンス,,合同会社,兵庫県,西宮市,松原町７－８,,28,204,6620912,,,2024-03-06,清算の結了等,,,2022-02-21,1,,,,,ハナサイエンス,0
1051,4170001012569,登記記録の閉鎖等,0,2024-03-22,2024-03-21,株式会社真砂運送,,株式会社,和歌山県,田辺市,中辺路町栗栖川２３０番地,,30,206,6461421,,,2024-03-21,清算の結了等,,,2015-10-05,1,,,,,マナゴウンソウ,0
1067,4210001019122,登記記録の閉鎖等,0,2024-03-22,2024-03-19,株式会社マネプロ,,株式会社,福井県,鯖江市,東鯖江２丁目６－５－２,,18,207,9160041,,,2024-03-19,清算の結了等,,,2022-10-13,1,,,,,マネプロ,0
1073,4240005015437,登記記録の閉鎖等,0,2024-03-22,2024-03-15,一般社団法人日本芸術文化発芽塾,,その他の設立登記法人,広島県,広島市東区,光町１丁目１１番５－１１０６号チサンマンション,,34,102,7320052,,,2024-03-15,清算の結了等,,,2022-08-17,1,,,,,ニッポンゲイジュツブンカハツガジュク,0
1093,4330002004722,登記記録の閉鎖等,0,2024-03-22,2024-03-18,有限会社澤村建築構造事務所,,有限会社,熊本県,熊本市東区,尾ノ上１丁目４４番１６号,,43,102,8620913,,,2024-03-18,清算の結了等,,,2015-10-05,1,,,,,,0
1094,4330003005059,登記記録の閉鎖等,0,2024-03-22,2024-03-15,合同会社愛,,合同会社,熊本県,熊本市北区,飛田４丁目５番２７号,,43,105,8615514,,,2024-03-15,合併による解散等,5330003004539,令和６年３月１５日熊本市北区飛田四丁目５番２７号合同会社縁（5330003004539）に合併し解散,2015-10-05,1,,,,,アイ,0
1098,4340001013533,登記記録の閉鎖等,0,2024-03-22,2024-03-21,ＡＧソリューション株式会社,,株式会社,鹿児島県,鹿児島市,千年１丁目４６番１２号,,46,201,8900001,,,2024-03-21,清算の結了等,,,2015-10-05,1,,,,,エイジイソリューション,0
1121,4430003008927,登記記録の閉鎖等,0,2024-03-22,2024-03-15,ＢＥＮＥ合同会社,,合同会社,北海道,小樽市,入船５丁目５番２１号,,01,203,0470021,,,2024-03-15,清算の結了等,,,2017-12-11,1,,,,,ビーン,0
1128,4490002005589,登記記録の閉鎖等,0,2024-03-22,2024-03-18,有限会社理恵,,有限会社,高知県,高知市,瀬戸東町２丁目９番地,,39,201,7810252,,,2024-03-18,清算の結了等,,,2015-10-05,1,,,,,リエ,0
1132,5010001120287,登記記録の閉鎖等,0,2024-03-22,2024-03-18,株式会社亀鶴,,株式会社,神奈川県,厚木市,中町４丁目４番１３号浅岡ビル４階,,14,212,2430018,,,2024-03-18,清算の結了等,,,2015-10-05,1,,,,,キカク,0
1133,5010001183276,登記記録の閉鎖等,0,2024-03-22,2024-03-19,株式会社ＦＯＬＯ,,株式会社,東京都,新宿区,高田馬場４丁目２８－２０,,13,104,1690075,,,2024-03-19,清算の結了等,,,2017-05-02,1,,,,,フォロ,0
1142,5010005022001,登記記録の閉鎖等,0,2024-03-22,2024-03-21,ＭＭ２１－４６特定目的会社,,その他の設立登記法人,東京都,千代田区,神田神保町１丁目１１番地さくら綜合事務所内,,13,101,1010051,,,2024-03-21,清算の結了等,,,2015-10-05,1,,,,,エムエムニジュウイチノヨンジュウロク,0
1160,5010801017476,登記記録の閉鎖等,0,2024-03-22,2024-03-18,株式会社セブン・アイ,,株式会社,東京都,大田区,東雪谷１丁目１２番３号,,13,111,1450065,,,2024-03-18,清算の結了等,,,2015-10-05,1,,,,,セブンアイ,0
1189,5011401017800,登記記録の閉鎖等,0,2024-03-22,2024-03-14,株式会社ハロハロ,,株式会社,東京都,多摩市,桜ヶ丘３丁目５番１４,,13,224,2060013,,,2024-03-14,清算の結了等,,,2015-10-05,1,,,,,ハロハロ,0
1201,5011602010777,登記記録の閉鎖等,0,2024-03-22,2024-03-18,有限会社蘭星商事,,有限会社,東京都,練馬区,関町南４丁目１５番５－１０６号,,13,120,1770053,,,2024-03-18,清算の結了等,,,2015-10-05,1,,,,,,0
1208,5012401008269,登記記録の閉鎖等,0,2024-03-22,2024-03-15,株式会社東京現像所,,株式会社,東京都,調布市,富士見町２丁目１３番地,,13,208,1820033,,,2024-03-15,合併による解散等,3010001008708,令和６年３月１日東京都千代田区有楽町一丁目２番２号東宝株式会社（3010001008708）に合併し解散,2015-10-05,1,,,,,トウキョウゲンゾウショ,0
1215,5013201016503,登記記録の閉鎖等,0,2024-03-22,2024-03-18,株式会社シーシービー,,株式会社,東京都,大田区,南千束１丁目２番２２号ステージ南千束１０２,,13,111,1450063,,,2024-03-18,清算の結了等,,,2015-10-05,1,,,,,シーシービー,0
1223,5021001010774,登記記録の閉鎖等,0,2024-03-22,2024-03-19,株式会社エディション,,株式会社,神奈川県,鎌倉市,常盤３５番地４,,14,204,2480022,,,2024-03-19,清算の結了等,,,2015-10-05,1,,,,,エディション,0
1227,5021001052049,登記記録の閉鎖等,0,2024-03-22,2024-03-15,株式会社カラーズ,,株式会社,神奈川県,小田原市,城山２丁目２番３０号,,14,206,2500045,,,2024-03-15,清算の結了等,,,2015-10-05,1,,,,,カラーズ,0
1233,5021002031654,登記記録の閉鎖等,0,2024-03-22,2024-03-18,有限会社五兵衛本店,,有限会社,神奈川県,厚木市,王子２丁目１番２２号,,14,212,2430817,,,2024-03-18,清算の結了等,,,2015-10-05,1,,,,,ゴヘエホンテン,0
1234,5021002058251,登記記録の閉鎖等,0,2024-03-22,2024-03-18,有限会社ジヨイ,,有限会社,神奈川県,平塚市,豊原町４番１８号,,14,203,2540051,,,2024-03-18,清算の結了等,,,2015-10-05,1,,,,,ジョイ,0
1269,5090002014761,登記記録の閉鎖等,0,2024-03-22,2024-03-19,有限会社伊藤倉庫,,有限会社,山梨県,西八代郡市川三郷町,楠甫３０番地,,19,346,4093245,,,2024-03-19,清算の結了等,,,2015-10-05,1,,,,,イトウソウコ,0
1272,5100001022078,登記記録の閉鎖等,0,2024-03-22,2024-03-15,株式会社ビー・エルシステム,,株式会社,長野県,駒ヶ根市,東伊那６５４７番地,,20,210,3994321,,,2024-03-15,清算の結了等,,,2015-10-05,1,,,,,ビーエルシステム,0
1289,5120001194114,登記記録の閉鎖等,0,2024-03-22,2024-03-18,株式会社ミモザ,,株式会社,大阪府,大阪市中央区,大手前１丁目７番３１号,,27,128,5400008,,,2024-03-18,清算の結了等,,,2015-10-29,1,,,,,ミモザ,0
1304,5120103003263,登記記録の閉鎖等,0,2024-03-22,2024-03-21,合同会社プレミア,,合同会社,大阪府,堺市堺区,一条通１１番１６号,,27,141,5900048,,,2024-03-21,清算の結了等,,,2019-02-22,1,,,,,プレミア,0
1309,5122002010935,登記記録の閉鎖等,0,2024-03-22,2024-03-13,有限会社旭電機工業所,,有限会社,大阪府,大東市,寺川１丁目１番２０号,,27,218,5740014,,,2024-03-13,清算の結了等,,,2015-10-05,1,,,,,アサヒデンキコウギョウショ,0
1315,5130005008368,登記記録の閉鎖等,0,2024-03-22,2024-03-21,木津町商工共通商品券協同組合,,その他の設立登記法人,京都府,木津川市,木津南垣外１１０－９,,26,214,6190214,,,2024-03-21,清算の結了等,,,2015-10-05,1,,,,,キヅチョウショウコウキョウツウショウヒンケン,0
1317,5140001074074,登記記録の閉鎖等,0,2024-03-22,2024-03-18,株式会社ニュー・ウェイブ,,株式会社,兵庫県,西宮市,中屋町６番１９号,,28,204,6620868,,,2024-03-18,清算の結了等,,,2015-10-05,1,,,,,ニューウェイブ,0
1359,5260005001723,登記記録の閉鎖等,0,2024-03-22,2024-03-18,医療法人わくた胃腸科外科医院,,その他の設立登記法人,岡山県,岡山市南区,新保１３２５番地の２,,33,104,7000945,,,2024-03-18,清算の結了等,,,2015-10-05,1,,,,,ワクタイチョウカゲカイイン,0
1360,5270001008093,登記記録の閉鎖等,0,2024-03-22,2024-03-21,株式会社ＴＲＡＹ,,株式会社,鳥取県,米子市,西福原５丁目６番２１号,,31,202,6830805,,,2024-03-21,清算の結了等,,,2020-09-08,1,,,,,トレイ,0
1382,5340002002278,登記記録の閉鎖等,0,2024-03-22,2024-03-21,有限会社おしゃれ館,,有限会社,鹿児島県,鹿児島市,呉服町５番６号,,46,201,8920826,,,2024-03-21,清算の結了等,,,2015-10-05,1,,,,,オシャレカン,0
1383,5340002014182,登記記録の閉鎖等,0,2024-03-22,2024-03-21,有限会社マクール・エンタープライズ,,有限会社,鹿児島県,霧島市,国分府中町１－５３－１,,46,218,8994346,,,2024-03-21,清算の結了等,,,2015-10-05,1,,,,,,0
1401,5380001000700,登記記録の閉鎖等,0,2024-03-22,2024-03-19,菅沼タイプライター福島販売株式会社,,株式会社,福島県,福島市,渡利字大久保７８番地の１,,07,201,9608141,,,2024-03-19,清算の結了等,,,2015-10-05,1,,,,,スガヌマタイプライターフクシマハンバイ,0
1420,5440002009643,登記記録の閉鎖等,0,2024-03-22,2024-03-18,有限会社三和電気工業,,有限会社,北海道,檜山郡江差町,字豊川町１５１番地の４,,01,361,0430033,,,2024-03-18,清算の結了等,,,2015-10-05,1,,,,,サンワデンキコウギョウ,0
1432,6010001188803,登記記録の閉鎖等,0,2024-03-22,2024-03-15,株式会社ＭＴＧメディサービス,,株式会社,東京都,千代田区,丸の内１丁目１１番１号パシフィックセンチュリープレイス丸の内２６階,,13,101,1000005,,,2024-03-15,清算の結了等,,,2018-01-11,1,,,,,エムティージーメディサービス,0
1444,6010003039566,登記記録の閉鎖等,0,2024-03-22,2024-03-15,合同会社百道浜開発,,合同会社,東京都,千代田区,丸の内３丁目１番１号東京共同会計事務所内,,13,101,1000005,,,2024-03-15,清算の結了等,,,2023-01-17,1,,,,,モモチハマカイハツ,0
1447,6010102003299,登記記録の閉鎖等,0,2024-03-22,2024-03-14,有限会社篠商店,,有限会社,東京都,八王子市,大和田町３丁目１８番１８号,,13,201,1920045,,,2024-03-14,清算の結了等,,,2015-10-05,1,,,,,シノショウテン,0
1452,6010401086689,登記記録の閉鎖等,0,2024-03-22,2024-03-15,エム・エム・プロパティ・ファンディング株式会社,,株式会社,東京都,港区,芝５丁目３３番１号,,13,103,1080014,,,2024-03-15,清算の結了等,,,2015-10-05,1,,,,,エムエムプロパティファンディング,0
1462,6010403026189,登記記録の閉鎖等,0,2024-03-22,2024-03-15,南青山プロパティー１合同会社,,合同会社,東京都,港区,六本木１丁目６番１号泉ガーデンタワー,,13,103,1060032,,,2024-03-15,清算の結了等,,,2021-09-27,1,,,,,ミナミアオヤマプロパティーワン,0
1467,6010501032799,登記記録の閉鎖等,0,2024-03-22,2024-03-19,株式会社タクシーアシスト,,株式会社,東京都,台東区,台東３丁目１６番５号,,13,106,1100016,,,2024-03-19,清算の結了等,,,2015-10-05,1,,,,,タクシーアシスト,0
1479,6010801020074,登記記録の閉鎖等,0,2024-03-22,2024-03-18,株式会社ジー・スペース,,株式会社,東京都,大田区,仲六郷４丁目９番１７号,,13,111,1440055,,,2024-03-18,清算の結了等,,,2015-10-05,1,,,,,,0
1541,6020002033040,登記記録の閉鎖等,0,2024-03-22,2024-03-15,有限会社カーセンター伊東,,有限会社,神奈川県,横浜市港北区,篠原町１４７６番地,,14,109,2220026,,,2024-03-15,清算の結了等,,,2015-10-05,1,,,,,カーセンターイトウ,0
1546,6021001030383,登記記録の閉鎖等,0,2024-03-22,2024-03-18,株式会社北欧トーキョー,,株式会社,神奈川県,海老名市,めぐみ町２番２号,,14,215,2430438,,,2024-03-18,清算の結了等,,,2015-10-05,1,,,,,ホクオウトーキョー,0
1559,6030003000889,登記記録の閉鎖等,0,2024-03-22,2024-03-18,合同会社朴の木,,合同会社,埼玉県,さいたま市見沼区,大字風渡野４３０番地４６ヤマトハイツ１階,,11,104,3370017,,,2024-03-18,清算の結了等,,,2015-10-05,1,,,,,ホウノキ,0
1581,6060003003798,登記記録の閉鎖等,0,2024-03-22,2024-03-01,里山デベロップメント合同会社,,合同会社,栃木県,那須烏山市,向田１３６９番１,,09,215,3210635,,,2024-03-01,合併による解散等,1060003003423,令和６年２月２５日栃木県宇都宮市東宿郷１－７－２アジマコーポ１０３号ＡＧＲＩＸ合同会社（1060003003423）に合併し解散,2021-09-14,1,,,,,サトヤマデベロップメント,0
1582,6070001000400,登記記録の閉鎖等,0,2024-03-22,2024-03-18,株式会社エイム総合計画事務所,,株式会社,群馬県,前橋市,江木町９０８番地の４,,10,201,3710002,,,2024-03-18,清算の結了等,,,2015-10-05,1,,,,,エイムソウゴウケイカクジムショ,0
1590,6080401002870,登記記録の閉鎖等,0,2024-03-22,2024-03-21,大協土地株式会社,,株式会社,静岡県,浜松市中央区,砂山町３５３番地の３,,22,138,4300926,,,2024-03-21,清算の結了等,,,2015-10-05,1,,,,,ダイキョウトチ,0
1595,6100001003804,登記記録の閉鎖等,0,2024-03-22,2024-03-14,株式会社レンタルシステム,,株式会社,長野県,長野市,広田９８番地,,20,201,3812213,,,2024-03-14,清算の結了等,,,2015-10-05,1,,,,,レンタルシステム,0
1596,6100001032654,登記記録の閉鎖等,0,2024-03-22,2024-03-15,アルプスドローン空輸株式会社,,株式会社,長野県,木曽郡王滝村,崩越１０３６番地９,,20,429,3970201,,,2024-03-15,清算の結了等,,,2019-10-30,1,,,,,アルプスドローンクウユ,0
1609,6120001248447,登記記録の閉鎖等,0,2024-03-22,2024-03-18,福祉住宅株式会社,,株式会社,福岡県,北九州市八幡西区,楠橋下方１丁目７番３１号,,40,109,8071146,,,2024-03-18,合併による解散等,1120901043027,令和６年３月１日大阪府吹田市豊津町１番１８号株式会社アイリスホーム（1120901043027）に合併し解散,2022-08-29,1,,,,,フクシジュウタク,0
1642,6130003003130,登記記録の閉鎖等,0,2024-03-22,2024-03-21,合同会社Ｋｏｌｌｅｇｉｕｍ　Ｋｙｏｔｏ,,合同会社,京都府,京都市上京区,塔之段通今出川上る二丁目上塔之段町４８５番地,,26,102,6020000,,,2024-03-21,清算の結了等,,,2015-10-05,1,,,,,コレギウムキョウト,0
1655,6150001017213,登記記録の閉鎖等,0,2024-03-22,2024-03-21,フォレストサービス株式会社,,株式会社,奈良県,奈良市,内侍原町６番地の１,,29,201,6308253,,,2024-03-21,清算の結了等,,,2015-10-05,1,,,,,フォレストサービス,0
1674,6180301021655,登記記録の閉鎖等,0,2024-03-22,2024-03-18,株式会社アンジュ,,株式会社,愛知県,豊田市,大林町１丁目４番地１,,23,211,4730902,,,2024-03-18,清算の結了等,,,2015-10-05,1,,,,,,0
1683,6200002017974,登記記録の閉鎖等,0,2024-03-22,2024-03-19,有限会社ユーテック,,有限会社,岐阜県,可児郡御嵩町,古屋敷７４３番地２,,21,521,5050123,,,2024-03-19,清算の結了等,,,2015-10-05,1,,,,,ユーテック,0
1694,6250001017079,登記記録の閉鎖等,0,2024-03-22,2024-03-19,株式会社ｗｉｔｈＰＬＵＳ,,株式会社,山口県,山口市,佐山９４５番地４１,,35,203,7540894,,,2024-03-19,清算の結了等,,,2018-04-06,1,,,,,,0
1722,6360001022935,登記記録の閉鎖等,0,2024-03-22,2024-03-19,株式会社山一設備工業,,株式会社,沖縄県,中頭郡読谷村,字瀬名波１０４７番地２,,47,324,9040325,,,2024-03-19,清算の結了等,,,2017-09-15,1,,,,,ヤマイチセツビコウギョウ,0
1755,6470001012834,登記記録の閉鎖等,0,2024-03-22,2024-02-22,株式会社そら,,株式会社,香川県,丸亀市,川西町北２１０２番地１,,37,202,7630091,,,2024-02-22,清算の結了等,,,2015-10-05,1,,,,,ソラ,0
1761,6500001010982,登記記録の閉鎖等,0,2024-03-22,2024-03-21,四国エム・イー株式会社,,株式会社,愛媛県,伊予郡松前町,大字徳丸６１７番地５,,38,401,7913163,,,2024-03-21,清算の結了等,,,2015-10-05,1,,,,,シコクエムイー,0
1765,7010001138591,登記記録の閉鎖等,0,2024-03-22,2024-03-19,東海東京アカデミー株式会社,,株式会社,東京都,江東区,東陽２丁目４番１８号,,13,108,1350016,,,2024-03-19,合併による解散等,9010001074983,令和６年３月１日名古屋市東区葵一丁目１９番３０号株式会社東海東京インテリジェンス・ラボ（9010001074983）に合併し解散,2015-10-05,1,,,,,トウカイトウキョウアカデミー,0
1789,7010403026188,登記記録の閉鎖等,0,2024-03-22,2024-03-15,南青山プロパティー２合同会社,,合同会社,東京都,港区,六本木１丁目６番１号泉ガーデンタワー,,13,103,1060032,,,2024-03-15,清算の結了等,,,2021-09-27,1,,,,,ミナミアオヤマプロパティーツー,0
1799,7010601005142,登記記録の閉鎖等,0,2024-03-22,2024-03-18,株式会社ハウスウェア・ハウス,,株式会社,東京都,江東区,亀戸６丁目３２番８号,,13,108,1360071,,,2024-03-18,清算の結了等,,,2015-10-05,1,,,,,ハウスウェアハウス,0
1807,7010802010313,登記記録の閉鎖等,0,2024-03-22,2024-03-18,有限会社塗師多,,有限会社,東京都,大田区,羽田３丁目８番３号,,13,111,1440043,,,2024-03-18,清算の結了等,,,2015-10-05,1,,,,,ヌシタ,0
1844,7011601012384,登記記録の閉鎖等,0,2024-03-22,2024-03-18,國松株式会社,,株式会社,東京都,練馬区,練馬３丁目２３番４号,,13,120,1760001,,,2024-03-18,清算の結了等,,,2015-10-05,1,,,,,クニマツ,0
1911,7080401026290,登記記録の閉鎖等,0,2024-03-22,2024-03-13,スマイルライフパートナーズ株式会社,,株式会社,静岡県,浜松市中央区,高林４丁目４番１１号,,22,138,4300907,,,2024-03-13,合併による解散等,1080401018475,令和６年３月６日静岡県浜松市中央区板屋町１１１番地の２浜松アクトタワー１４階スマイスホーム株式会社（1080401018475）に合併し解散,2023-02-02,1,,,,,スマイルライフパートナーズ,0
1924,7120001025548,登記記録の閉鎖等,0,2024-03-22,2024-03-15,明光舎情報システム株式会社,,株式会社,大阪府,大阪市天王寺区,清水谷町７番１２号,,27,109,5430011,,,2024-03-15,合併による解散等,5120001025566,令和６年３月１５日大阪市天王寺区上本町一丁目２番４号株式会社明光舎印刷所（5120001025566）に合併し解散,2015-10-05,1,,,,,メイコウシャジョウホウシステム,0
1937,7120002000954,登記記録の閉鎖等,0,2024-03-22,2024-03-21,有限会社太田商會,,有限会社,奈良県,生駒市,壱分町６０７－４７,,29,209,6300222,,,2024-03-21,清算の結了等,,,2015-10-05,1,,,,,オオタショウカイ,0
1966,7150001020141,登記記録の閉鎖等,0,2024-03-22,2024-03-21,株式会社Ｙ’ｓ企画,,株式会社,奈良県,奈良市,学園北２丁目５－１アネックスミタカ１０５,,29,201,6310036,,,2024-03-21,清算の結了等,,,2015-10-05,1,,,,,ワイズキカク,0
1970,7180001024115,登記記録の閉鎖等,0,2024-03-22,2024-03-18,日本ベターリビング株式会社,,株式会社,愛知県,名古屋市南区,元柴田東町４丁目２０番地,,23,112,4570816,,,2024-03-18,清算の結了等,,,2015-10-05,1,,,,,ニホンベターリビング,0
1996,7200001027552,登記記録の閉鎖等,0,2024-03-22,2024-03-18,株式会社パテントアプリ,,株式会社,岐阜県,岐阜市,北山１丁目８番１１号,,21,201,5013113,,,2024-03-18,清算の結了等,,,2015-10-05,1,,,,,パテントアプリ,0
2001,7200003004748,登記記録の閉鎖等,0,2024-03-22,2024-03-22,うちひとＰＷ合同会社,,合同会社,岐阜県,可児市,土田３４９０－１メゾンド・リオＥ棟１階,,21,214,5090206,,,2024-03-22,清算の結了等,,,2020-03-24,1,,,,,ウチヒトピーダブリュ,0
2037,7350002014238,登記記録の閉鎖等,0,2024-03-22,2024-03-12,有限会社シード宮崎,,有限会社,宮崎県,宮崎市,霧島３丁目５７番地２,,45,201,8800032,,,2024-03-12,合併による解散等,5350001001387,令和６年３月１日宮崎市霧島三丁目５７番地２株式会社ハツトリー（5350001001387）に合併し解散,2015-10-05,1,,,,,シードミヤザキ,0
2041,7370001016456,登記記録の閉鎖等,0,2024-03-22,2024-03-19,株式会社Ｓｗｅｅｔｓ　Ｏｎｅ,,株式会社,宮城県,仙台市青葉区,中山６丁目２０番１号カーサベルデ中山Ａ棟３１０,,04,101,9810952,,,2024-03-19,清算の結了等,,,2015-10-05,1,,,,,,0
2054,7400502001457,登記記録の閉鎖等,0,2024-03-22,2024-03-15,有限会社フタバ鉄工所,,有限会社,岩手県,一関市,川崎町門崎字高畑１６番地３,,03,209,0290201,,,2024-03-15,清算の結了等,,,2015-10-05,1,,,,,フタバテッコウショ,0
2057,7420001018422,登記記録の閉鎖等,0,2024-03-22,2024-03-15,株式会社工藤久吉商店,,株式会社,青森県,弘前市,大字紙漉町２番地の１３号,,02,202,0368221,,,2024-03-15,清算の結了等,,,2023-10-02,1,,,,,クドウキュウキチショウテン,0
2091,8010005036997,登記記録の閉鎖等,0,2024-03-22,2024-03-18,ＦＡＬ　Ｎｏ．３ＴＭＫ特定目的会社,,その他の設立登記法人,東京都,千代田区,丸の内２丁目３番２号郵船ビルアルタードムス・ジャパン株式会社内,,13,101,1000005,,,2024-03-18,清算の結了等,,,2023-07-28,1,,,,,エフエーエルナンバースリーティーエムケー,0
2092,8010101002003,登記記録の閉鎖等,0,2024-03-22,2024-03-14,株式会社セレモア八王子本社,,株式会社,東京都,八王子市,大横町１３番２０号,,13,201,1920062,,,2024-03-14,合併による解散等,8012801009302,令和６年３月１日東京都立川市柏町一丁目２６番地の４株式会社セレモア（8012801009302）に合併し解散,2015-10-05,1,,,,,セレモアハチオウジホンシャ,0
2108,8010405020254,登記記録の閉鎖等,0,2024-03-22,2024-03-15,南青山プロパティー特定目的会社,,その他の設立登記法人,東京都,港区,六本木１丁目６番１号泉ガーデンタワー,,13,103,1060032,,,2024-03-15,清算の結了等,,,2021-09-28,1,,,,,ミナミアオヤマプロパティー,0
2113,8010601046516,登記記録の閉鎖等,0,2024-03-22,2024-03-18,株式会社ヴァンドゥ,,株式会社,東京都,江東区,豊洲５丁目５番１－２６０３号,,13,108,1350061,,,2024-03-18,清算の結了等,,,2015-10-05,1,,,,,ヴァンドゥ,0
2123,8010902025763,登記記録の閉鎖等,0,2024-03-22,2024-03-19,有限会社風巻不動産鑑定事務所,,有限会社,東京都,世田谷区,千歳台６丁目１４番１９号,,13,112,1570071,,,2024-03-19,清算の結了等,,,2015-10-05,1,,,,,カザマキフドウサンカンテイジムショ,0
2156,8012302005412,登記記録の閉鎖等,0,2024-03-22,2024-03-18,有限会社インフィニティー,,有限会社,東京都,町田市,つくし野１丁目３１番地４０,,13,209,1940001,,,2024-03-18,清算の結了等,,,2015-10-05,1,,,,,インフィニティー,0
2165,8020001090048,登記記録の閉鎖等,0,2024-03-22,2024-03-14,スリーディコンサルティング株式会社,,株式会社,神奈川県,横浜市青葉区,大場町３８５番地１９,,14,117,2250023,,,2024-03-14,清算の結了等,,,2015-10-05,1,,,,,スリーディコンサルティング,0
2168,8020002005054,登記記録の閉鎖等,0,2024-03-22,2024-03-15,有限会社宮根,,有限会社,神奈川県,横浜市緑区,三保町２０５２番地１,,14,113,2260015,,,2024-03-15,清算の結了等,,,2015-10-05,1,,,,,ミヤネ,0
2172,8021001036271,登記記録の閉鎖等,0,2024-03-22,2024-03-18,株式会社大野商事,,株式会社,神奈川県,平塚市,徳延２０３番地１,,14,203,2540902,,,2024-03-18,清算の結了等,,,2015-10-05,1,,,,,,0
2190,8030002013155,登記記録の閉鎖等,0,2024-03-22,2024-03-05,有限会社美和銘木店,,有限会社,埼玉県,さいたま市南区,四谷２丁目２番１号,,11,108,3360032,,,2024-03-05,清算の結了等,,,2015-10-05,1,,,,,ミワメイモクテン,0
2212,8060001015488,登記記録の閉鎖等,0,2024-03-22,2024-03-15,株式会社アートライフ不動産,,株式会社,栃木県,小山市,大字羽川１４８番地２１,,09,208,3230012,,,2024-03-15,清算の結了等,,,2015-10-05,1,,,,,アートライフフドウサン,0
2228,8080402003478,登記記録の閉鎖等,0,2024-03-22,2024-03-13,伸栄建装株式会社,,株式会社,静岡県,浜松市中央区,早出町１２１２番地の２２,,22,138,4350054,,,2024-03-13,合併による解散等,1080401018475,令和６年３月６日静岡県浜松市中央区板屋町１１１番地の２浜松アクトタワー１４階スマイスホーム株式会社（1080401018475）に合併し解散,2015-10-05,1,,,,,シンエイケンソウ,0
2245,8120001242308,登記記録の閉鎖等,0,2024-03-22,2024-03-19,クオバ国際光学株式会社,,株式会社,大阪府,大阪市東成区,東小橋１丁目１７－３１グランドハイツ東小橋２０２号室,,27,115,5370024,,,2024-03-19,清算の結了等,,,2021-12-08,1,,,,,クオバコクサイコウガク,0
2256,8120105005577,登記記録の閉鎖等,0,2024-03-22,2024-03-21,ＮＰＯ法人はぴえる,,その他の設立登記法人,大阪府,河内長野市,南貴望ケ丘１５番１０号,,27,216,5860092,,,2024-03-21,清算の結了等,,,2015-10-05,1,,,,,ハピエル,0
2260,8120902018327,登記記録の閉鎖等,0,2024-03-22,2024-03-21,有限会社甲南工業,,有限会社,大阪府,豊中市,原田南２丁目４番２３号,,27,203,5610805,,,2024-03-21,清算の結了等,,,2015-10-05,1,,,,,コウナンコウギョウ,0
2275,8140002046623,登記記録の閉鎖等,0,2024-03-22,2024-03-18,有限会社北近畿水産,,有限会社,兵庫県,美方郡香美町,香住区若松７４７番地,,28,585,6696543,,,2024-03-18,清算の結了等,,,2015-10-05,1,,,,,キタキンキスイサン,0
2278,8140003008135,登記記録の閉鎖等,0,2024-03-22,2024-03-15,並河産業合同会社,,合同会社,兵庫県,川西市,中央町１６番２号,,28,217,6660016,,,2024-03-15,清算の結了等,,,2015-10-05,1,,,,,ナミカワサンギョウ,0
2279,8140005012705,登記記録の閉鎖等,0,2024-03-22,2024-03-15,特定非営利活動法人アシスト,,その他の設立登記法人,兵庫県,豊岡市,下陰３９９番地の１７,,28,209,6680012,,,2024-03-15,清算の結了等,,,2015-10-05,1,,,,,アシスト,0
2299,8180005003691,登記記録の閉鎖等,0,2024-03-22,2024-03-11,名古屋市住宅建設協同組合,,その他の設立登記法人,愛知県,名古屋市守山区,天子田３丁目５１９番地の２,,23,113,4630037,,,2024-03-11,清算の結了等,,,2015-10-05,1,,,,,ナゴヤシジュウタクケンセツ,0
2327,8290801026199,登記記録の閉鎖等,0,2024-03-22,2024-03-18,株式会社九州総合企画,,株式会社,福岡県,北九州市八幡西区,別当町２４番１０号,,40,109,8060062,,,2024-03-18,清算の結了等,,,2020-01-15,1,,,,,キュウシュウソウゴウキカク,0
2335,8330005004229,登記記録の閉鎖等,0,2024-03-22,2024-03-14,一般財団法人荒尾産炭地域振興センター,,その他の設立登記法人,熊本県,荒尾市,宮内出目３９０番地,,43,204,8640003,,,2024-03-14,清算の結了等,,,2015-10-05,1,,,,,アラオサンタンチイキシンコウセンター,0
2355,8380002000507,登記記録の閉鎖等,0,2024-03-22,2024-03-19,有限会社エース通信,,有限会社,福島県,福島市,宮代字田中前９番地の１,,07,201,9600116,,,2024-03-19,清算の結了等,,,2015-10-05,1,,,,,エースツウシン,0
2362,8420001009065,登記記録の閉鎖等,0,2024-03-22,2024-03-15,株式会社坂本建築設計,,株式会社,青森県,弘前市,大字青樹町８番地５,,02,202,0368246,,,2024-03-15,清算の結了等,,,2015-10-05,1,,,,,サカモトケンチクセッケイ,0
2394,9010001165832,登記記録の閉鎖等,0,2024-03-22,2024-03-08,株式会社トリプルアクセル,,株式会社,東京都,中央区,日本橋３丁目２番１４号新槙町ビル別館第一２Ｆ,,13,102,1030027,,,2024-03-08,清算の結了等,,,2015-10-05,1,,,,,トリプルアクセル,0
2397,9010001203550,登記記録の閉鎖等,0,2024-03-22,2024-03-14,株式会社ルネサンスパートナーズ,,株式会社,東京都,中央区,日本橋小網町十一丁目５番リードシー日本橋小網町ビル８階,,13,102,1030016,,,2024-03-14,清算の結了等,,,2019-08-28,1,,,,,ルネサンスパートナーズ,0
2403,9010003037666,登記記録の閉鎖等,0,2024-03-22,2024-03-15,合同会社Ｓｔｕｄｉｏ　Ｆｏｃｕｓ,,合同会社,東京都,中央区,晴海２丁目３番２－１０１３号,,13,102,1040053,,,2024-03-15,清算の結了等,,,2022-05-17,1,,,,,スタジオフォーカス,0
2416,9010403018282,登記記録の閉鎖等,0,2024-03-22,2024-03-14,合同会社ランドマークキャピタル,,合同会社,東京都,港区,六本木６丁目１０番１号六本木ヒルズ森タワー,,13,103,1060032,,,2024-03-14,清算の結了等,,,2018-03-15,1,,,,,ランドマークキャピタル,0
2419,9010405020253,登記記録の閉鎖等,0,2024-03-22,2024-03-15,南青山プロパティー一般社団法人,,その他の設立登記法人,東京都,港区,六本木１丁目６番１号泉ガーデンタワー,,13,103,1060032,,,2024-03-15,清算の結了等,,,2021-09-28,1,,,,,ミナミアオヤマプロパティー,0
2432,9010901051000,登記記録の閉鎖等,0,2024-03-22,2024-03-18,株式会社ＰＯＭｎｅｔ,,株式会社,東京都,世田谷区,用賀３丁目１１番１０号,,13,112,1580097,,,2024-03-18,清算の結了等,,,2022-06-14,1,,,,,ポムネット,0
2468,9011103012807,登記記録の閉鎖等,0,2024-03-22,2024-03-18,合同会社山本,,合同会社,東京都,新宿区,西新宿３丁目５番１２号トーカン新宿第二キャステール３１０号室,,13,104,1600023,,,2024-03-18,清算の結了等,,,2023-03-16,1,,,,,ヤマモト,0
2535,9040001087917,登記記録の閉鎖等,0,2024-03-22,2024-03-18,ケーアンドエム株式会社,,株式会社,東京都,江東区,有明１丁目４番２０,,13,108,1350063,,,2024-03-18,清算の結了等,,,2015-10-05,1,,,,,,0
2548,9050001045816,登記記録の閉鎖等,0,2024-03-22,2024-03-18,株式会社ＳＲフードサービス,,株式会社,茨城県,龍ケ崎市,馴馬町１２７４番地,,08,208,3010004,,,2024-03-18,清算の結了等,,,2019-04-09,1,,,,,エスアールフードサービス,0
2583,9120002047283,登記記録の閉鎖等,0,2024-03-22,2024-03-14,有限会社シーアイパクト,,有限会社,大阪府,大阪市北区,本庄西１丁目２番２号,,27,127,5310073,,,2024-03-14,清算の結了等,,,2015-10-05,1,,,,,シーアイパクト,0
2599,9130005012135,登記記録の閉鎖等,0,2024-03-22,2024-03-15,特定非営利活動法人依存学推進協議会,,その他の設立登記法人,京都府,京都市上京区,寺町通今出川上る二丁目西入北横町３４８番,,26,102,6020000,,,2024-03-15,清算の結了等,,,2015-10-05,1,,,,,イゾンガクスイシンキョウギカイ,0
2611,9140003010965,登記記録の閉鎖等,0,2024-03-22,2024-03-18,合同会社トロイメライ,,合同会社,兵庫県,神戸市東灘区,岡本５丁目２番２１－３０３,,28,101,6580072,,,2024-03-18,清算の結了等,,,2015-10-15,1,,,,,トロイメライ,0
2626,9190002009681,登記記録の閉鎖等,0,2024-03-22,2024-03-18,有限会社まつきや,,有限会社,三重県,伊勢市,岡本３丁目２０番１号,,24,203,5160036,,,2024-03-18,清算の結了等,,,2015-10-05,1,,,,,マツキヤ,0
2628,9200005003886,登記記録の閉鎖等,0,2024-03-22,2024-03-13,協同組合日華異業種・産業システム,,その他の設立登記法人,岐阜県,羽島市,正木町森１０丁目１２９番地,,21,209,5016221,,,2024-03-13,清算の結了等,,,2015-10-05,1,,,,,ニッカイギョウシュサンギョウシステム,0
2636,9240001048436,登記記録の閉鎖等,0,2024-03-22,2024-03-18,サンフロント株式会社,,株式会社,広島県,尾道市,高須町４７９１番地５アーバンシックスＡ－２０２,,34,205,7290141,,,2024-03-18,清算の結了等,,,2015-11-06,1,,,,,サンフロント,0
2657,9340002004758,登記記録の閉鎖等,0,2024-03-22,2024-03-21,有限会社自然工房,,有限会社,鹿児島県,いちき串木野市,元町１１０,,46,219,8960014,,,2024-03-21,清算の結了等,,,2015-10-05,1,,,,,シゼンコウボウ,0
2661,9350002016562,登記記録の閉鎖等,0,2024-03-22,2024-03-15,有限会社建南技術開発事務所,,有限会社,宮崎県,日南市,大字星倉１８８４番地１,,45,204,8892533,,,2024-03-15,清算の結了等,,,2015-10-05,1,,,,,ケンナンギジュツカイハツジムショ,0
2676,9410001009288,登記記録の閉鎖等,0,2024-03-22,2024-03-14,株式会社間宮工務店,,株式会社,秋田県,横手市,幸町２番１８号,,05,203,0130005,,,2024-03-14,清算の結了等,,,2015-10-05,1,,,,,マミヤコウムテン,0
