sequenceNumber,corporateNumber,process,correct,updateDate,changeDate,name,nameImageId,kind,prefectureName,cityName,streetNumber,addressImageId,prefectureCode,cityCode,postCode,addressOutside,addressOutsideImageId,closeDate,closeCause,successorCorporateNumber,changeCause,assignmentDate,latest,enName,enPrefectureName,enCityName,enAddressOutside,furigana,hihyoji
13,1010405015574,登記記録の閉鎖等,0,2023-04-04,2023-03-29,一般社団法人ＴＳＭ１４２,,その他の設立登記法人,東京都,千代田区,紀尾井町４番１号ニューオータニガーデンコート,,13,101,1020094,,,2023-03-29,清算の結了等,,,2017-03-10,1,,,,,ティーエスエムヒャクヨンジュウニ,0
30,1011601016936,登記記録の閉鎖等,0,2023-04-04,2023-03-28,ゼットプレイス株式会社,,株式会社,東京都,練馬区,大泉学園町７丁目１１番２４号,,13,120,1780061,,,2023-03-28,清算の結了等,,,2015-10-05,1,,,,,ゼットプレイス,0
34,1011802010548,登記記録の閉鎖等,0,2023-04-04,2023-03-31,有限会社エムアンドケイ,,有限会社,東京都,足立区,足立２丁目２８番８号,,13,121,1200015,,,2023-03-31,清算の結了等,,,2015-10-05,1,,,,,エムアンドケイ,0
36,1012801008657,登記記録の閉鎖等,0,2023-04-04,2023-03-29,メディポート株式会社,,株式会社,東京都,立川市,富士見町２丁目３２番７号,,13,202,1900013,,,2023-03-29,清算の結了等,,,2015-10-05,1,,,,,メディポート,0
42,1021001009507,登記記録の閉鎖等,0,2023-04-04,2023-04-03,株式会社豊光開発,,株式会社,神奈川県,鎌倉市,材木座５丁目１５番４４号,,14,204,2480013,,,2023-04-03,登記官による閉鎖,,,2015-10-05,1,,,,,,0
54,1030001048035,登記記録の閉鎖等,0,2023-04-04,2023-03-29,ニチンドティク株式会社,,株式会社,埼玉県,新座市,栗原５丁目１７番２３号,,11,230,3520035,,,2023-03-29,清算の結了等,,,2015-10-05,1,,,,,ニチンドティク,0
55,1030001076531,登記記録の閉鎖等,0,2023-04-04,2023-03-30,株式会社日本綜合食品,,株式会社,埼玉県,川口市,大字峯９０１番地,,11,203,3340056,,,2023-03-30,清算の結了等,,,2015-10-05,1,,,,,ニホンソウゴウショクヒン,0
69,1050002035336,登記記録の閉鎖等,0,2023-04-04,2023-03-29,有限会社オオタカガーデン,,有限会社,茨城県,常陸太田市,三才町１６４番地の３,,08,212,3130012,,,2023-03-29,清算の結了等,,,2015-10-05,1,,,,,オオタカガーデン,0
74,1070002005320,登記記録の閉鎖等,0,2023-04-04,2023-03-31,有限会社三輪工業,,有限会社,群馬県,前橋市,亀里町２５５番地１,,10,201,3792147,,,2023-03-31,清算の結了等,,,2015-10-05,1,,,,,ミワコウギョウ,0
111,1140002048213,登記記録の閉鎖等,0,2023-04-04,2023-03-30,有限会社衣,,有限会社,兵庫県,姫路市,広畑区東新町１丁目３２番地米田ビル１Ｆ,,28,201,6711121,,,2023-03-30,清算の結了等,,,2015-10-05,1,,,,,キヌ,0
122,1170002001953,登記記録の閉鎖等,0,2023-04-04,2023-04-03,有限会社松洋産業,,有限会社,和歌山県,和歌山市,松江中１丁目１０番５号,,30,201,6408423,,,2023-04-03,清算の結了等,,,2015-10-05,1,,,,,ショウヨウサンギョウ,0
167,1360002009143,登記記録の閉鎖等,0,2023-04-04,2023-03-22,有限会社翔陽,,有限会社,沖縄県,那覇市,辻２丁目３番３号,00101580,47,201,9000037,,,2023-03-22,清算の結了等,,,2015-10-05,1,,,,,ショウヨウ,0
168,1360003010918,登記記録の閉鎖等,0,2023-04-04,2023-03-28,合同会社ＤＯ－ＥＲＡ,,合同会社,沖縄県,那覇市,東町２０番７号ＴＢＣビル２０６,,47,201,9000034,,,2023-03-28,清算の結了等,,,2021-02-12,1,,,,,ドゥエラ,0
169,1370001015281,登記記録の閉鎖等,0,2023-04-04,2023-03-31,株式会社ライフファーマ,,株式会社,宮城県,仙台市青葉区,大町２丁目４番１２号,,04,101,9800804,,,2023-03-31,清算の結了等,,,2015-10-05,1,,,,,ライフファーマ,0
227,2011202005453,登記記録の閉鎖等,0,2023-04-04,2023-03-31,有限会社豊和,,有限会社,東京都,中野区,上高田３丁目３９番２号,,13,114,1640002,,,2023-03-31,清算の結了等,,,2015-10-05,1,,,,,ホウワ,0
233,2011802002271,登記記録の閉鎖等,0,2023-04-04,2023-03-31,恊栄商事有限会社,,有限会社,東京都,葛飾区,東金町４丁目７番６号,,13,122,1250041,,,2023-03-31,清算の結了等,,,2015-10-05,1,,,,,キョウエイショウジ,0
251,2020002046269,登記記録の閉鎖等,0,2023-04-04,2023-03-29,有限会社永井オプチカルセンター,,有限会社,神奈川県,横浜市栄区,本郷台３丁目１番３号,,14,115,2470008,,,2023-03-29,清算の結了等,,,2015-10-05,1,,,,,ナガイオプチカルセンター,0
279,2070001039070,登記記録の閉鎖等,0,2023-04-04,2023-03-27,株式会社あゆかわ,,株式会社,群馬県,藤岡市,上栗須６９番地２,,10,209,3750016,,,2023-03-27,清算の結了等,,,2022-03-22,1,,,,,アユカワ,0
300,2120003017713,登記記録の閉鎖等,0,2023-04-04,2023-03-31,ＧＤサードコンサルティング合同会社,,合同会社,大阪府,東大阪市,山手町２０１７番地３龍光寺会館内,,27,227,5798022,,,2023-03-31,清算の結了等,,,2020-07-09,1,,,,,ジーディーサードコンサルティング,0
316,2180001008857,登記記録の閉鎖等,0,2023-04-04,2023-03-31,株式会社土井電響商会,,株式会社,愛知県,名古屋市昭和区,出口町１丁目７番地,,23,107,4660041,,,2023-03-31,清算の結了等,,,2015-10-05,1,,,,,ドイデンキョウショウカイ,0
328,2180003007824,登記記録の閉鎖等,0,2023-04-04,2023-03-30,合同会社大政ビル,,合同会社,愛知県,名古屋市東区,東桜１丁目１０番３８号,,23,102,4610005,,,2023-03-30,清算の結了等,,,2015-10-05,1,,,,,オオマサビル,0
380,2430005008968,登記記録の閉鎖等,0,2023-04-04,2023-03-31,胆振水産加工業協同組合,,その他の設立登記法人,北海道,白老郡白老町,字虎杖浜５６番地７,,01,578,0590641,,,2023-03-31,清算の結了等,,,2015-10-05,1,,,,,イブリスイサンカコウギョウ,0
384,2450002009158,登記記録の閉鎖等,0,2023-04-04,2023-04-03,有限会社双葉農園,,有限会社,北海道,上川郡美瑛町,字美瑛原野５線,,01,459,0710239,,,2023-04-03,清算の結了等,,,2015-10-05,1,,,,,フタバノウエン,0
387,2470001000578,登記記録の閉鎖等,0,2023-04-04,2023-03-31,株式会社井本製作所,,株式会社,香川県,高松市,由良町６６１番地３,,37,201,7610441,,,2023-03-31,清算の結了等,,,2015-10-05,1,,,,,イモトセイサクショ,0
403,3010001124892,登記記録の閉鎖等,0,2023-04-04,2023-04-03,オークラヤビルディング株式会社,,株式会社,東京都,中央区,日本橋本石町３丁目３番５号,,13,102,1030021,,,2023-04-03,合併による解散等,4011101003779,令和５年４月１日東京都千代田区麹町四丁目５番地２２オークラヤ住宅株式会社（4011101003779）に合併し解散,2015-10-05,1,,,,,オークラヤビルディング,0
404,3010001157298,登記記録の閉鎖等,0,2023-04-04,2023-03-28,株式会社ＤＢＩＢＪ,,株式会社,東京都,渋谷区,富ヶ谷１丁目４１番７号３００１,,13,113,1510063,,,2023-03-28,清算の結了等,,,2015-10-05,1,,,,,ディービーアイビージェー,0
411,3010005015320,登記記録の閉鎖等,0,2023-04-04,2023-03-29,特定非営利活動法人建築マイスターネット,,その他の設立登記法人,東京都,中央区,日本橋蛎殻町１丁目３３番地４号グランディール日本橋９階,,13,102,1030014,,,2023-03-29,清算の結了等,,,2015-10-05,1,,,,,ケンチクマイスターネット,0
418,3010401167260,登記記録の閉鎖等,0,2023-04-04,2023-03-23,株式会社パフ,,株式会社,東京都,港区,芝浦４丁目２０番２号芝浦アイランドブルームタワー３８２０,,13,103,1080023,,,2023-03-23,清算の結了等,,,2022-05-10,1,,,,,パフ,0
422,3010405019301,登記記録の閉鎖等,0,2023-04-04,2023-03-24,一般社団法人ＣＥＷ,,その他の設立登記法人,東京都,港区,南青山５丁目１１番９号レキシントン青山３階,,13,103,1070062,,,2023-03-24,清算の結了等,,,2020-12-01,1,,,,,シーイーダブリュー,0
430,3010602023502,登記記録の閉鎖等,0,2023-04-04,2023-03-29,有限会社佐藤鉄工製作所,,有限会社,東京都,江東区,森下５丁目１７番６号,,13,108,1350004,,,2023-03-29,清算の結了等,,,2015-10-05,1,,,,,サトウテッコウセイサクショ,0
437,3011001123190,登記記録の閉鎖等,0,2023-04-04,2023-03-29,株式会社Ｓｔａｎｄ　ｏｎ　ｔｈｅ　ｔｏｐ,,株式会社,東京都,目黒区,中目黒４丁目８番４号スカイコートルーベンス中目黒３０３号,,13,110,1530061,,,2023-03-29,清算の結了等,,,2018-07-13,1,,,,,スタンドオンザトップ,0
441,3011003008613,登記記録の閉鎖等,0,2023-04-04,2023-03-23,ＭａｇｉｃＡｎｔ合同会社,,合同会社,東京都,港区,虎ノ門４丁目３番１号城山トラストタワー東京赤坂法律事務所内,,13,103,1050001,,,2023-03-23,清算の結了等,,,2018-03-26,1,,,,,マジカント,0
445,3011101056051,登記記録の閉鎖等,0,2023-04-04,2023-04-03,エスエーエフ株式会社,,株式会社,東京都,千代田区,麹町４丁目５番地２２,,13,101,1020083,,,2023-04-03,合併による解散等,4011101003779,令和５年４月１日東京都千代田区麹町四丁目５番地２２オークラヤ住宅株式会社（4011101003779）に合併し解散,2015-10-05,1,,,,,エスエーエフ,0
452,3011103005618,登記記録の閉鎖等,0,2023-04-04,2023-03-31,合同会社大阪福島レジデンシャル・インベスターズ,,合同会社,東京都,新宿区,西新宿８丁目５番１号,,13,104,1600023,,,2023-03-31,清算の結了等,,,2015-10-05,1,,,,,オオサカフクシマレジデンシャルインベスターズ,0
463,3021001029255,登記記録の閉鎖等,0,2023-04-04,2023-03-28,リファイン・ウォーター株式会社,,株式会社,神奈川県,綾瀬市,深谷中４丁目２１番６号,,14,218,2521107,,,2023-03-28,清算の結了等,,,2015-10-05,1,,,,,リファインウォーター,0
466,3021002045482,登記記録の閉鎖等,0,2023-04-04,2023-03-10,有限会社浜田設備,,有限会社,神奈川県,海老名市,国分北２丁目８番２９号,,14,215,2430406,,,2023-03-10,清算の結了等,,,2015-10-05,1,,,,,ハマダセツビ,0
478,3040002047272,登記記録の閉鎖等,0,2023-04-04,2023-03-29,有限会社テイエルシー,,有限会社,千葉県,松戸市,横須賀１丁目２２番地の１８,,12,207,2700031,,,2023-03-29,清算の結了等,,,2015-10-05,1,,,,,テイエルシー,0
483,3070005003154,登記記録の閉鎖等,0,2023-04-04,2023-03-28,一般社団法人碓氷教育会,,その他の設立登記法人,群馬県,安中市,安中１丁目２４番３３号,,10,211,3790116,,,2023-03-28,清算の結了等,,,2015-10-05,1,,,,,ウスイキョウイクカイ,0
484,3080101021942,登記記録の閉鎖等,0,2023-04-04,2023-03-30,株式会社中部ハチスバ,,株式会社,静岡県,駿東郡長泉町,下土狩７０２番地の１,,22,342,4110943,,,2023-03-30,清算の結了等,,,2020-08-07,1,,,,,チュウブハチスバ,0
486,3080402003466,登記記録の閉鎖等,0,2023-04-04,2023-03-31,ジエイアンドケイトラスト有限会社,,有限会社,静岡県,浜松市中区,旭町６番地の１,,22,131,4300927,,,2023-03-31,合併による解散等,3080401006172,令和５年３月３１日浜松市中区旭町６番地の１株式会社ビーケーマルチサービス（3080401006172）に合併し解散,2015-10-05,1,,,,,ジエイアンドケイトラスト,0
512,3122002000608,登記記録の閉鎖等,0,2023-04-04,2023-04-03,有限会社ウエダ自動車,,有限会社,大阪府,東大阪市,中石切町６丁目２番６９号,,27,227,5798014,,,2023-04-03,清算の結了等,,,2015-10-05,1,,,,,ウエダジドウシャ,0
515,3140001106812,登記記録の閉鎖等,0,2023-04-04,2023-03-28,株式会社ＰＯＪＩ,,株式会社,兵庫県,三木市,吉川町西奥１１７３番地,,28,215,6731122,,,2023-03-28,合併による解散等,1140001047117,令和５年２月１日兵庫県三木市吉川町西奥１１７３番地株式会社ＭＯＧＵ（1140001047117）に合併し解散,2017-07-10,1,,,,,ポジ,0
524,3180001118052,登記記録の閉鎖等,0,2023-04-04,2023-03-31,株式会社オーキッドプラス,,株式会社,愛知県,名古屋市瑞穂区,白羽根町１丁目７９番地の２,,23,108,4670014,,,2023-03-31,清算の結了等,,,2015-10-05,1,,,,,オーキッドプラス,0
529,3180002091975,登記記録の閉鎖等,0,2023-04-04,2023-03-30,有限会社川囗地所,,有限会社,愛知県,海部郡大治町,大字長牧字前田７２番地,,23,424,4901131,,,2023-03-30,清算の結了等,,,2015-10-05,1,,,,,カワグチジショ,0
538,3210001011377,登記記録の閉鎖等,0,2023-04-04,2023-03-28,グリーンエアサービス株式会社,,株式会社,福井県,三方上中郡若狭町,日笠第７２号１２番地,,18,501,9191545,,,2023-03-28,清算の結了等,,,2015-10-05,1,,,,,グリーンエアサービス,0
552,3260005001733,登記記録の閉鎖等,0,2023-04-04,2023-03-31,医療法人養寿会,,その他の設立登記法人,岡山県,岡山市北区,本町６番３６号,,33,101,7000901,,,2023-03-31,清算の結了等,,,2015-10-05,1,,,,,ヨウジュカイ,0
588,3420001015407,登記記録の閉鎖等,0,2023-04-04,2023-03-31,株式会社ニイオカ発電所,,株式会社,青森県,青森市,中央２丁目１番１７号,,02,201,0300822,,,2023-03-31,清算の結了等,,,2016-09-16,1,,,,,ニイオカハツデンショ,0
636,4011001126201,登記記録の閉鎖等,0,2023-04-04,2023-03-30,株式会社フロンティア,,株式会社,東京都,渋谷区,代々木１丁目４７番１１号ヴィラセゾン元沢２０３,,13,113,1510053,,,2023-03-30,清算の結了等,,,2019-01-22,1,,,,,フロンティア,0
645,4011201017786,登記記録の閉鎖等,0,2023-04-04,2023-03-31,ツカサホールディングス株式会社,,株式会社,東京都,中野区,中央５丁目１２番１－１００５号,,13,114,1640011,,,2023-03-31,合併による解散等,7011201003362,令和５年３月３１日東京都中野区中央五丁目４番２２号ツカサ電工株式会社（7011201003362）に合併し解散,2015-10-05,1,,,,,ツカサホールディングス,0
647,4011305002239,登記記録の閉鎖等,0,2023-04-04,2023-03-24,一般社団法人知的人材連携センター,,その他の設立登記法人,東京都,杉並区,阿佐谷北１丁目４６番１３号,,13,115,1660001,,,2023-03-24,清算の結了等,,,2015-10-05,1,,,,,チテキジンザイレンケイセンター,0
686,4030003013521,登記記録の閉鎖等,0,2023-04-04,2023-03-30,合同会社英照,,合同会社,埼玉県,東松山市,大字松山２１７８番地２,,11,212,3550005,,,2023-03-30,清算の結了等,,,2019-05-15,1,,,,,エイショウ,0
690,4050002004098,登記記録の閉鎖等,0,2023-04-04,2023-03-28,石塚駅前タクシー有限会社,00022602,有限会社,茨城県,東茨城郡城里町,大字石塚１１７６番地の２,,08,310,3114303,,,2023-03-28,清算の結了等,,,2015-10-05,1,,,,,イシツカエキマエタクシー,0
714,4120901023678,登記記録の閉鎖等,0,2023-04-04,2023-03-31,上津島工業株式会社,,株式会社,大阪府,豊中市,上津島２丁目４番１３号,,27,203,5610843,,,2023-03-31,清算の結了等,,,2015-10-05,1,,,,,コウヅシマコウギョウ,0
734,4180001090911,登記記録の閉鎖等,0,2023-04-04,2023-03-31,株式会社ダッシュ,,株式会社,愛知県,東海市,名和町一番割上５番地２,,23,222,4760002,,,2023-03-31,清算の結了等,,,2015-10-05,1,,,,,ダッシュ,0
741,4180002019298,登記記録の閉鎖等,0,2023-04-04,2023-03-31,有限会社ほしの,,有限会社,愛知県,春日井市,中野町２丁目２４番地２１,,23,206,4860957,,,2023-03-31,清算の結了等,,,2015-10-05,1,,,,,ホシノ,0
743,4180005004297,登記記録の閉鎖等,0,2023-04-04,2023-03-31,名古屋市土地開発公社,,その他の設立登記法人,愛知県,名古屋市中区,三の丸３丁目１番１号,,23,106,4600001,,,2023-03-31,清算の結了等,,,2015-10-05,1,,,,,ナゴヤシ,0
759,4240001009970,登記記録の閉鎖等,0,2023-04-04,2023-04-03,ひろぎんカードサービス株式会社,,株式会社,広島県,広島市中区,紙屋町１丁目３番８号,,34,101,7300031,,,2023-04-03,合併による解散等,8240001012806,令和５年４月１日広島市中区紙屋町一丁目３番８号ひろぎんクレジットサービス株式会社（8240001012806）に合併し解散,2015-10-05,1,,,,,ヒロギンカードサービス,0
777,4310001007447,登記記録の閉鎖等,0,2023-04-04,2023-03-31,西肥石油株式会社,,株式会社,長崎県,佐世保市,万津町８番１号,,42,202,8570877,,,2023-03-31,清算の結了等,,,2015-10-05,1,,,,,サイヒセキユ,0
791,4380002016093,登記記録の閉鎖等,0,2023-04-04,2023-03-28,有限会社アイテック,,有限会社,福島県,二本松市,大壇１１７番地１９,,07,210,9640891,,,2023-03-28,清算の結了等,,,2015-10-05,1,,,,,アイテック,0
797,4430002000736,登記記録の閉鎖等,0,2023-04-04,2023-03-30,有限会社アスタリア,,有限会社,北海道,札幌市西区,八軒一条東４丁目１番１０－３０１号,,01,107,0630861,,,2023-03-30,清算の結了等,,,2015-10-05,1,,,,,アスタリア,0
823,5010405018053,登記記録の閉鎖等,0,2023-04-04,2023-03-24,一般社団法人Ｉｌｅｘ１,,その他の設立登記法人,東京都,港区,虎ノ門３丁目１８番１２－５０２号株式会社虎ノ門会計神谷町分室内,,13,103,1050001,,,2023-03-24,清算の結了等,,,2019-09-06,1,,,,,アイレックスワン,0
833,5010902012946,登記記録の閉鎖等,0,2023-04-04,2023-03-30,有限会社ファニー,,有限会社,東京都,世田谷区,太子堂３丁目１０番５号,,13,112,1540004,,,2023-03-30,清算の結了等,,,2015-10-05,1,,,,,ファニー,0
851,5011401013709,登記記録の閉鎖等,0,2023-04-04,2023-03-31,亜細亜不動産株式会社,,株式会社,東京都,板橋区,常盤台１丁目５９番３号,,13,119,1740071,,,2023-03-31,清算の結了等,,,2015-10-05,1,,,,,アジアフドウサン,0
856,5011801001247,登記記録の閉鎖等,0,2023-04-04,2023-03-31,株式会社孔雀堂,,株式会社,東京都,葛飾区,堀切４丁目５３番１１号,,13,122,1240006,,,2023-03-31,清算の結了等,,,2015-10-05,1,,,,,クジャクドウ,0
857,5011802008150,登記記録の閉鎖等,0,2023-04-04,2023-03-31,有限会社山久ゴム製作所,,有限会社,東京都,葛飾区,堀切１丁目１１番１２号,,13,122,1240006,,,2023-03-31,清算の結了等,,,2015-10-05,1,,,,,ヤマキュウゴムセイサクショ,0
858,5011802027183,登記記録の閉鎖等,0,2023-04-04,2023-03-31,有限会社三成印刷,,有限会社,東京都,足立区,千住２丁目１２番地,,13,121,1200034,,,2023-03-31,清算の結了等,,,2015-10-05,1,,,,,サンセイインサツ,0
860,5012402004614,登記記録の閉鎖等,0,2023-04-04,2023-03-31,有限会社五十嵐ランドリー,,有限会社,東京都,小金井市,緑町２丁目１番２３号,,13,210,1840003,,,2023-03-31,清算の結了等,,,2015-10-05,1,,,,,イガラシランドリー,0
863,5013303005783,登記記録の閉鎖等,0,2023-04-04,2023-03-28,合同会社ＤＩＥＵ,,合同会社,東京都,豊島区,西池袋１丁目４１番２号池袋東通ビル２Ｆ,,13,116,1710021,,,2023-03-28,清算の結了等,,,2021-08-19,1,,,,,デュー,0
868,5020001122836,登記記録の閉鎖等,0,2023-04-04,2023-03-31,株式会社角田労務研究所,,株式会社,神奈川県,横浜市神奈川区,栄町１番地１,,14,102,2210052,,,2023-03-31,清算の結了等,,,2017-09-01,1,,,,,,0
871,5021001017266,登記記録の閉鎖等,0,2023-04-04,2023-03-27,株式会社ツリーフォーライフ,,株式会社,神奈川県,相模原市緑区,町屋１丁目２６番３４号,,14,151,2520101,,,2023-03-27,清算の結了等,,,2015-10-05,1,,,,,ツリーフォーライフ,0
880,5030001130953,登記記録の閉鎖等,0,2023-04-04,2023-04-03,株式会社Ｂｉ‐Ｃｏｌｏｒ,,株式会社,東京都,新宿区,西新宿７丁目１７番５号西新宿ＮＴビル２階Ｂ室,,13,104,1600023,,,2023-04-03,清算の結了等,,,2019-05-20,1,,,,,バイカラー,0
883,5030002061223,登記記録の閉鎖等,0,2023-04-04,2023-03-30,有限会社梶原金型製作所,,有限会社,埼玉県,新座市,馬場２丁目６番３号,,11,230,3520016,,,2023-03-30,清算の結了等,,,2015-10-05,1,,,,,カジワラカナガタセイサクジョ,0
913,5120102021324,登記記録の閉鎖等,0,2023-04-04,2023-03-31,たけなか倉庫株式会社,,株式会社,大阪府,岸和田市,荒木町１丁目２７番２５号,,27,202,5960004,,,2023-03-31,合併による解散等,7120102021306,令和５年３月３１日大阪府岸和田市宮前町８番１４号たけなか運送倉庫株式会社（7120102021306）に合併し解散,2015-10-05,1,,,,,タケナカソウコ,0
921,5130001018404,登記記録の閉鎖等,0,2023-04-04,2023-04-03,日通京都運輸株式会社,,株式会社,京都府,京都市下京区,大宮通木津屋橋下る上中之町２番地,,26,106,6008248,,,2023-04-03,清算の結了等,,,2015-10-05,1,,,,,ニッツウキョウトウンユ,0
925,5130002021794,登記記録の閉鎖等,0,2023-04-04,2023-03-31,有限会社礎建設,,有限会社,京都府,京都市西京区,大原野上里北ノ町５６９番地３９,,26,111,6101121,,,2023-03-31,清算の結了等,,,2015-10-05,1,,,,,イシズエケンセツ,0
934,5180001011817,登記記録の閉鎖等,0,2023-04-04,2023-03-30,株式会社オガワコーヒー商会,,株式会社,愛知県,名古屋市北区,大我麻町１４３番地,,23,103,4620064,,,2023-03-30,清算の結了等,,,2015-10-05,1,,,,,オガワコーヒーショウカイ,0
937,5180002056134,登記記録の閉鎖等,0,2023-04-04,2023-03-30,有限会社アクティブライン,,有限会社,愛知県,名古屋市中区,富士見町５番１５号,,23,106,4600014,,,2023-03-30,清算の結了等,,,2015-10-05,1,,,,,アクティブライン,0
939,5180002089191,登記記録の閉鎖等,0,2023-04-04,2023-03-31,有限会社加藤薬局,,有限会社,愛知県,津島市,橋詰町１丁目１５番地,,23,208,4960825,,,2023-03-31,清算の結了等,,,2015-10-05,1,,,,,カトウヤッキョク,0
943,5190001014975,登記記録の閉鎖等,0,2023-04-04,2023-03-30,株式会社佐々木商店,,株式会社,三重県,四日市市,九の城町９番１７号,,24,202,5100072,,,2023-03-30,清算の結了等,,,2015-10-05,1,,,,,ササキショウテン,0
951,5200002025854,登記記録の閉鎖等,0,2023-04-04,2023-04-03,有限会社ひだ薬局,,有限会社,岐阜県,高山市,名田町３丁目８１番地,,21,203,5060021,,,2023-04-03,合併による解散等,4200001020808,令和５年４月１日岐阜県多治見市高根町四丁目２９番地中部薬品株式会社（4200001020808）に合併し解散,2015-10-05,1,,,,,ヒダヤッキョク,0
956,5230001009855,登記記録の閉鎖等,0,2023-04-04,2023-03-31,株式会社金栄,,株式会社,富山県,高岡市,問屋町１９７番地,,16,202,9330804,,,2023-03-31,清算の結了等,,,2015-10-05,1,,,,,カナエイ,0
984,5310003001620,登記記録の閉鎖等,0,2023-04-04,2023-03-31,合資会社土取鉄工所,,合資会社,長崎県,諫早市,長田町２５６２番地,,42,204,8590301,,,2023-03-31,清算の結了等,,,2015-10-05,1,,,,,ツチトリテッコウショ,0
993,5340001009729,登記記録の閉鎖等,0,2023-04-04,2023-04-03,久永建設株式会社,,株式会社,鹿児島県,西之表市,西之表７４７０番地１,,46,213,8913101,,,2023-04-03,清算の結了等,,,2015-10-05,1,,,,,,0
1015,5430001003227,登記記録の閉鎖等,0,2023-04-04,2023-03-29,株式会社お米の井上,,株式会社,北海道,札幌市中央区,旭ケ丘１丁目１８９０番地８７,,01,101,0640941,,,2023-03-29,清算の結了等,,,2015-10-05,1,,,,,オコメノイノウエ,0
1017,5430002014256,登記記録の閉鎖等,0,2023-04-04,2023-03-30,有限会社ナオ企画,,有限会社,北海道,札幌市豊平区,平岸二条１２丁目３番２２号,,01,105,0620932,,,2023-03-30,清算の結了等,,,2015-10-05,1,,,,,ナオキカク,0
1026,5450001008059,登記記録の閉鎖等,0,2023-04-04,2023-03-31,鏡商事株式会社,,株式会社,北海道,稚内市,末広３丁目７番７号,,01,214,0970001,,,2023-03-31,清算の結了等,,,2015-10-05,1,,,,,カガミショウジ,0
1027,5470001008899,登記記録の閉鎖等,0,2023-04-04,2023-03-31,株式会社カヤノ,,株式会社,香川県,坂出市,元町２丁目３番５号,,37,203,7620045,,,2023-03-31,清算の結了等,,,2015-10-05,1,,,,,カヤノ,0
1036,6010005030449,登記記録の閉鎖等,0,2023-04-04,2023-03-29,Ｄｒａｇｏｎ２特定目的会社,,その他の設立登記法人,東京都,中央区,八丁堀４丁目２番１０号ＡＯＪ税理士法人内,,13,102,1040032,,,2023-03-29,清算の結了等,,,2019-07-12,1,,,,,ドラゴンツー,0
1041,6010401148695,登記記録の閉鎖等,0,2023-04-04,2023-03-29,株式会社ＡＭＵＳＥ　ＱＵＥＳＴ,,株式会社,東京都,渋谷区,桜丘町２０番１号,,13,113,1500031,,,2023-03-29,清算の結了等,,,2019-10-16,1,,,,,アミューズクエスト,0
1047,6010701016800,登記記録の閉鎖等,0,2023-04-04,2023-03-30,ヤマキウ運輸株式会社,,株式会社,東京都,品川区,西五反田８丁目１番１４号,,13,109,1410031,,,2023-03-30,清算の結了等,,,2015-10-05,1,,,,,ヤマキウウンユ,0
1053,6011001071791,登記記録の閉鎖等,0,2023-04-04,2023-03-29,株式会社マイクロソリューション,,株式会社,東京都,渋谷区,桜丘町２６番１号セルリアンタワー１５階,,13,113,1500031,,,2023-03-29,清算の結了等,,,2015-10-05,1,,,,,マイクロソリューション,0
1084,6020001111029,登記記録の閉鎖等,0,2023-04-04,2023-03-31,クラウドジャンプ株式会社,,株式会社,神奈川県,横浜市中区,尾上町４丁目５７番横浜尾上町ビルディング８Ｆ,,14,104,2310015,,,2023-03-31,清算の結了等,,,2015-10-05,1,,,,,クラウドジャンプ,0
1100,6030002054325,登記記録の閉鎖等,0,2023-04-04,2023-03-29,有限会社玉川食品,,有限会社,埼玉県,上尾市,大字小敷谷２０１番地,,11,219,3620064,,,2023-03-29,清算の結了等,,,2015-10-05,1,,,,,タマガワショクヒン,0
1136,6140002012882,登記記録の閉鎖等,0,2023-04-04,2023-04-03,有限会社イズントイット,,有限会社,兵庫県,神戸市中央区,下山手通２丁目１１番２９号,,28,110,6500011,,,2023-04-03,合併による解散等,4140001014304,令和５年４月１日神戸市中央区下山手通二丁目１１番２９号株式会社ミナックス（4140001014304）に合併し解散,2015-10-05,1,,,,,イズントイット,0
1149,6180002044798,登記記録の閉鎖等,0,2023-04-04,2023-03-31,有限会社新美住設,,有限会社,愛知県,名古屋市南区,鳴浜町１丁目５３番地,,23,112,4570806,,,2023-03-31,清算の結了等,,,2015-10-05,1,,,,,ニイミジュウセツ,0
1192,6390001006670,登記記録の閉鎖等,0,2023-04-04,2023-03-29,株式会社レックス・コーポレーション,,株式会社,山形県,酒田市,新橋２丁目１８番２２号,,06,204,9980864,,,2023-03-29,清算の結了等,,,2015-10-05,1,,,,,レックスコーポレーション,0
1199,6420003002499,登記記録の閉鎖等,0,2023-04-04,2023-03-30,合同会社ＣＥＹＬＯＮ,,合同会社,青森県,南津軽郡藤崎町,大字中野目字早稲田東７３番地１,,02,361,0383831,,,2023-03-30,清算の結了等,,,2022-04-14,1,,,,,セイロン,0
1212,6500001005702,登記記録の閉鎖等,0,2023-04-04,2023-03-31,株式会社プロデュース四国,,株式会社,愛媛県,松山市,星岡１丁目２３番２０号,,38,201,7900922,,,2023-03-31,清算の結了等,,,2015-10-05,1,,,,,プロデュースシコク,0
1214,6500002006328,登記記録の閉鎖等,0,2023-04-04,2023-03-31,松一観光有限会社,,有限会社,愛媛県,松山市,立花１丁目９番１０号,,38,201,7900966,,,2023-03-31,清算の結了等,,,2015-10-05,1,,,,,マツイチカンコウ,0
1221,7010001152535,登記記録の閉鎖等,0,2023-04-04,2023-03-31,株式会社ブッサンストアー,,株式会社,東京都,新島村,本村１丁目７番１号,,13,363,1000402,,,2023-03-31,合併による解散等,6010001131366,令和５年３月３１日東京都新島村本村一丁目７番１号新島物産株式会社（6010001131366）に合併し解散,2015-10-05,1,,,,,ブッサンストアー,0
1229,7010401162679,登記記録の閉鎖等,0,2023-04-04,2023-03-23,マイルスミラー株式会社,,株式会社,東京都,港区,南麻布２丁目５番１６グランドメゾン６０４号,,13,103,1060047,,,2023-03-23,清算の結了等,,,2021-09-14,1,,,,,マイルスミラー,0
1230,7010401166399,登記記録の閉鎖等,0,2023-04-04,2023-03-23,株式会社シトロン,,株式会社,東京都,港区,芝浦４丁目２０番２号芝浦アイランドブルームタワー３８２０,,13,103,1080023,,,2023-03-23,清算の結了等,,,2022-03-28,1,,,,,シトロン,0
1247,7011002026587,登記記録の閉鎖等,0,2023-04-04,2023-03-29,有限会社シェイプス・デザインネットワーク,,有限会社,東京都,渋谷区,恵比寿３丁目２番５号,,13,113,1500013,,,2023-03-29,清算の結了等,,,2015-10-05,1,,,,,シェイプスデザインネットワーク,0
1251,7011101020292,登記記録の閉鎖等,0,2023-04-04,2023-03-29,丸善建設株式会社,,株式会社,東京都,新宿区,西新宿６丁目１６番１３号,,13,104,1600023,,,2023-03-29,清算の結了等,,,2016-12-13,1,,,,,,0
1263,7011402019372,登記記録の閉鎖等,0,2023-04-04,2023-03-31,有限会社テンカラット,,有限会社,東京都,板橋区,板橋２丁目７番１号,,13,119,1730004,,,2023-03-31,清算の結了等,,,2015-10-05,1,,,,,,0
1268,7011801000486,登記記録の閉鎖等,0,2023-04-04,2023-03-30,株式会社ウイズ,,株式会社,東京都,葛飾区,東堀切１丁目２０番１２号,,13,122,1240004,,,2023-03-30,清算の結了等,,,2015-10-05,1,,,,,ウイズ,0
1278,7020001031151,登記記録の閉鎖等,0,2023-04-04,2023-03-30,株式会社ワイイーエス,,株式会社,神奈川県,横浜市港北区,新横浜２丁目１８番地１３,,14,109,2220033,,,2023-03-30,清算の結了等,,,2015-10-05,1,,,,,ワイイーエス,0
1293,7021003011538,登記記録の閉鎖等,0,2023-04-04,2023-03-28,ＳＳＣ合同会社,,合同会社,神奈川県,藤沢市,宮前５２７番地,,14,205,2510014,,,2023-03-28,清算の結了等,,,2022-04-04,1,,,,,エスエスシー,0
1314,7070005000643,登記記録の閉鎖等,0,2023-04-04,2023-03-30,協同組合群馬建築修復活用センター,,その他の設立登記法人,群馬県,高崎市,片岡町３丁目２１番１３号,,10,202,3700862,,,2023-03-30,清算の結了等,,,2015-10-05,1,,,,,グンマケンチクシュウフクカツヨウセンター,0
1321,7080105003181,登記記録の閉鎖等,0,2023-04-04,2023-03-31,特定非営利活動法人望月学園,,その他の設立登記法人,静岡県,富士市,松岡１１６９番地の１,,22,210,4160909,,,2023-03-31,清算の結了等,,,2015-10-05,1,,,,,モチヅキガクエン,0
1352,7140001009961,登記記録の閉鎖等,0,2023-04-04,2023-04-03,日精興産株式会社,,株式会社,大阪府,大阪市中央区,備後町２丁目４番９号,,27,128,5410051,,,2023-04-03,合併による解散等,3120001086767,令和５年４月１日大阪市中央区備後町二丁目４番９号日精バイリス株式会社（3120001086767）に合併し解散,2015-10-05,1,,,,,ニッセイコウサン,0
1358,7170001014827,登記記録の閉鎖等,0,2023-04-04,2023-04-03,株式会社マキノ,,株式会社,和歌山県,和歌山市,西庄１０５６番地７０,,30,201,6400112,,,2023-04-03,清算の結了等,,,2017-07-05,1,,,,,マキノ,0
1369,7180002058459,登記記録の閉鎖等,0,2023-04-04,2023-03-30,有限会社丹羽環境・設計技術士事務所,,有限会社,愛知県,名古屋市昭和区,八事本町４３番地,,23,107,4660825,,,2023-03-30,清算の結了等,,,2015-10-05,1,,,,,ニワカンキョウセッケイギジュツシジムショ,0
1372,7180003018008,登記記録の閉鎖等,0,2023-04-04,2023-03-31,合同会社池田技建,,合同会社,愛知県,名古屋市守山区,幸心３丁目７０２番地,,23,113,4630079,,,2023-03-31,清算の結了等,,,2017-06-06,1,,,,,イケダギケン,0
1374,7180301029755,登記記録の閉鎖等,0,2023-04-04,2023-03-29,株式会社エスティー・クリエイト,,株式会社,愛知県,碧南市,港本町４番地４１,,23,209,4470844,,,2023-03-29,清算の結了等,,,2016-11-09,1,,,,,エスティークリエイト,0
1416,7340002001807,登記記録の閉鎖等,0,2023-04-04,2023-04-03,有限会社江口鈑金塗装,,有限会社,鹿児島県,鹿児島市,上福元町３７００番地３,,46,201,8910116,,,2023-04-03,清算の結了等,,,2015-10-05,1,,,,,エグチバンキントソウ,0
1421,7370001001029,登記記録の閉鎖等,0,2023-04-04,2023-03-31,株式会社ニューテクノ,,株式会社,宮城県,仙台市青葉区,錦町１丁目４番５号－１００４,,04,101,9800012,,,2023-03-31,清算の結了等,,,2015-10-05,1,,,,,ニューテクノ,0
1445,7700150086869,登記記録の閉鎖等,0,2023-04-04,2022-12-14,武豊梨子ノ木第二土地区画整理組合,,その他,愛知県,知多郡武豊町,字長尾山２番地,,23,447,4702346,,,2022-12-14,その他の清算の結了等,,,2017-12-27,1,,,,,タケトヨナシノキダイニトチクカクセイリクミアイ,0
1457,8010005030785,登記記録の閉鎖等,0,2023-04-04,2023-03-30,一般社団法人トラストワン,,その他の設立登記法人,東京都,千代田区,内神田２丁目２番６号５階あすな会計事務所内,,13,101,1010047,,,2023-03-30,清算の結了等,,,2019-09-19,1,,,,,トラストワン,0
1480,8011101067085,登記記録の閉鎖等,0,2023-04-04,2023-03-31,株式会社クロース,,株式会社,東京都,新宿区,筑土八幡町２番２２号,,13,104,1620815,,,2023-03-31,清算の結了等,,,2015-10-05,1,,,,,クロース,0
1497,8020001114533,登記記録の閉鎖等,0,2023-04-04,2023-03-31,株式会社クラウドイノベーションズ,,株式会社,神奈川県,横浜市中区,竹之丸８８番地９,,14,104,2310847,,,2023-03-31,清算の結了等,,,2016-01-22,1,,,,,クラウドイノベーションズ,0
1501,8020003019937,登記記録の閉鎖等,0,2023-04-04,2023-04-03,合同会社Ｇｏｌｄ　ｗｅｌｌ,,合同会社,神奈川県,横浜市港北区,小机町４４５－４０１号,,14,109,2220036,,,2023-04-03,清算の結了等,,,2021-06-04,1,,,,,ゴールドウェル,0
1507,8021002072456,登記記録の閉鎖等,0,2023-04-04,2023-03-29,有限会社グループエムジー,,有限会社,神奈川県,中郡二宮町,富士見が丘１丁目７番６号,,14,342,2590122,,,2023-03-29,清算の結了等,,,2015-10-05,1,,,,,グループエムジー,0
1516,8030002035042,登記記録の閉鎖等,0,2023-04-04,2023-03-28,有限会社加藤工務店,,有限会社,埼玉県,入間市,春日町１丁目１０番１６号,,11,225,3580006,,,2023-03-28,清算の結了等,,,2015-10-05,1,,,,,カトウコウムテン,0
1536,8110001016778,登記記録の閉鎖等,0,2023-04-04,2023-03-30,株式会社アルファウエーブ,,株式会社,新潟県,南蒲原郡田上町,大字湯川１４０７番地,,15,361,9591501,,,2023-03-30,清算の結了等,,,2015-10-05,1,,,,,アルファウエーブ,0
1550,8120901000120,登記記録の閉鎖等,0,2023-04-04,2023-03-31,アルファデータサービス株式会社,,株式会社,大阪府,高槻市,奈佐原４丁目１８番３号,,27,207,5691041,,,2023-03-31,清算の結了等,,,2015-10-05,1,,,,,アルファデータサービス,0
1572,8160001008928,登記記録の閉鎖等,0,2023-04-04,2023-03-31,株式会社中曽根,,株式会社,滋賀県,彦根市,西今町７４９番地１９,,25,202,5220054,,,2023-03-31,清算の結了等,,,2015-10-05,1,,,,,ナカソネ,0
1581,8180002020335,登記記録の閉鎖等,0,2023-04-04,2023-03-31,有限会社サムテック,,有限会社,愛知県,名古屋市熱田区,白鳥３丁目４番１１号,,23,109,4560035,,,2023-03-31,清算の結了等,,,2015-10-05,1,,,,,サムテック,0
1586,8180005014078,登記記録の閉鎖等,0,2023-04-04,2023-03-31,特定非営利活動法人さわやか絵手紙の会,,その他の設立登記法人,愛知県,名古屋市緑区,鎌倉台２丁目９２８番地,,23,114,4580829,,,2023-03-31,清算の結了等,,,2015-10-05,1,,,,,サワヤカエテガミノカイ,0
1596,8230002009934,登記記録の閉鎖等,0,2023-04-04,2023-03-31,有限会社あさぎ設計,,有限会社,富山県,小矢部市,岡２３０番地の３,,16,209,9320031,,,2023-03-31,清算の結了等,,,2015-10-05,1,,,,,アサギセッケイ,0
1599,8240002025402,登記記録の閉鎖等,0,2023-04-04,2023-04-03,有限会社水野ライティング,,有限会社,広島県,広島市東区,戸坂中町２番２２号,,34,102,7320003,,,2023-04-03,清算の結了等,,,2015-10-05,1,,,,,ミズノライティング,0
1602,8250002020187,登記記録の閉鎖等,0,2023-04-04,2023-03-31,有限会社宮崎鉄工所,,有限会社,山口県,熊毛郡田布施町,大字下田布施３０４１番地の５,,35,343,7421511,,,2023-03-31,清算の結了等,,,2015-10-05,1,,,,,ミヤザキテッコウショ,0
1604,8260001029939,登記記録の閉鎖等,0,2023-04-04,2023-03-23,Ｊａｐａｎ　Ａｒｔ　Ｗｏｒｋ株式会社,,株式会社,岡山県,岡山市北区,本町６－３６第一セントラルビル４Ｆ,,33,101,7000901,,,2023-03-23,清算の結了等,,,2016-09-01,1,,,,,ジャパンアートワーク,0
1626,8310002000141,登記記録の閉鎖等,0,2023-04-04,2023-03-31,有限会社彰建設,,有限会社,長崎県,長崎市,油木町３５番５９号,,42,201,8528035,,,2023-03-31,清算の結了等,,,2015-10-05,1,,,,,アキラケンセツ,0
1642,8370005009414,登記記録の閉鎖等,0,2023-04-04,2023-03-31,特定非営利活動法人フォリクラッセ宮城,,その他の設立登記法人,宮城県,仙台市太白区,御堂平１１番１３号,,04,104,9820806,,,2023-03-31,清算の結了等,,,2018-02-26,1,,,,,フォリクラッセミヤギ,0
1650,8420001015278,登記記録の閉鎖等,0,2023-04-04,2023-03-31,株式会社栗原瀬峰,,株式会社,青森県,青森市,中央２丁目２番１２号,,02,201,0300822,,,2023-03-31,清算の結了等,,,2016-06-17,1,,,,,クリハラセミネ,0
1651,8420001015451,登記記録の閉鎖等,0,2023-04-04,2023-03-31,株式会社オケタニ発電所,,株式会社,青森県,青森市,中央２丁目１番１７号,,02,201,0300822,,,2023-03-31,清算の結了等,,,2016-10-21,1,,,,,オケタニハツデンショ,0
1661,8470002015248,登記記録の閉鎖等,0,2023-04-04,2023-03-30,有限会社馬場商会,,有限会社,香川県,坂出市,京町１丁目１番８号,,37,203,7620001,,,2023-03-30,清算の結了等,,,2015-10-05,1,,,,,ババショウカイ,0
1668,8700150045691,登記記録の閉鎖等,0,2023-04-04,2022-04-01,大久保振興会,,その他,静岡県,藤枝市,瀬戸ノ谷１１０２１,,22,214,4260131,,,2022-04-01,その他の清算の結了等,,,2015-10-09,1,,,,,オオクボシンコウカイ,0
1679,9010402016551,登記記録の閉鎖等,0,2023-04-04,2023-03-20,有限会社キートンルーム,,有限会社,東京都,港区,赤坂９丁目６番２７号カーム乃木坂８０３号,,13,103,1070052,,,2023-03-20,清算の結了等,,,2015-10-05,1,,,,,キートンルーム,0
1680,9010405015278,登記記録の閉鎖等,0,2023-04-04,2023-03-24,一般社団法人千歳,,その他の設立登記法人,東京都,港区,虎ノ門３丁目２２番１０－２０１号,,13,103,1050001,,,2023-03-24,清算の結了等,,,2016-11-21,1,,,,,チトセ,0
1685,9010701012573,登記記録の閉鎖等,0,2023-04-04,2023-03-29,日本マーキュリーコンピュータシステムズ株式会社,,株式会社,東京都,杉並区,天沼２丁目５番１号サンライズ荻窪３０７,,13,115,1670032,,,2023-03-29,清算の結了等,,,2015-10-05,1,,,,,ニホンマーキュリーコンピュータシステムズ,0
1691,9011001136699,登記記録の閉鎖等,0,2023-04-04,2023-03-27,ブランドマネジメント株式会社,,株式会社,東京都,渋谷区,松濤１丁目２８－２ＷＯＲＫＣＯＵＲＴ渋谷松濤,,13,113,1500046,,,2023-03-27,清算の結了等,,,2020-11-02,1,,,,,ブランドマネジメント,0
1717,9020001011523,登記記録の閉鎖等,0,2023-04-04,2023-03-29,株式会社シーティーエス,,株式会社,神奈川県,横浜市青葉区,柿の木台１８番地１５,,14,117,2270048,,,2023-03-29,清算の結了等,,,2015-10-05,1,,,,,シーティーエス,0
1721,9020002070196,登記記録の閉鎖等,0,2023-04-04,2023-03-30,有限会社直心製作所,,有限会社,神奈川県,横浜市都筑区,勝田町７４１番地１,,14,118,2240034,,,2023-03-30,清算の結了等,,,2015-10-05,1,,,,,チョクシンセイサクショ,0
1722,9020003019440,登記記録の閉鎖等,0,2023-04-04,2023-03-29,合同会社ｒｈｙｔｈｍ　ｏｆ　ｊａｐａｎ,,合同会社,神奈川県,横浜市神奈川区,栄町５－１横浜クリエーションスクエア１４Ｆ,,14,102,2210052,,,2023-03-29,清算の結了等,,,2021-03-18,1,,,,,リズムオブジャパン,0
1733,9040003009638,登記記録の閉鎖等,0,2023-04-04,2023-03-29,合同会社ＭＩＣ　ＪＡＰＡＮ,,合同会社,千葉県,佐倉市,山王２丁目３４－８,,12,212,2850807,,,2023-03-29,清算の結了等,,,2017-02-20,1,,,,,ミックジャパン,0
1736,9050005010741,登記記録の閉鎖等,0,2023-04-04,2023-03-27,特定非営利活動法人透析回避をめざす腎生会,,その他の設立登記法人,茨城県,取手市,中央町２番２５号,,08,217,3020014,,,2023-03-27,清算の結了等,,,2015-10-05,1,,,,,トウセキカイヒヲメザスジンセイカイ,0
1810,9250005004780,登記記録の閉鎖等,0,2023-04-04,2023-03-29,俵山農産物加工センター企業組合,,その他の設立登記法人,山口県,長門市,俵山４４９７番地,,35,211,7594211,,,2023-03-29,清算の結了等,,,2015-10-05,1,,,,,タワラヤマノウサンブツカコウセンター,0
1829,9300001007328,登記記録の閉鎖等,0,2023-04-04,2023-03-28,株式会社唐津不動産情報センター,,株式会社,佐賀県,唐津市,西寺町５００番地第１,,41,202,8470815,,,2023-03-28,清算の結了等,,,2015-10-05,1,,,,,カラツフドウサンジョウホウセンター,0
1855,9460301004100,登記記録の閉鎖等,0,2023-04-04,2023-03-31,三星ファーム株式会社,,株式会社,北海道,網走郡美幌町,字東二条北１丁目１２番地,,01,543,0920052,,,2023-03-31,清算の結了等,,,2015-10-05,1,,,,,サンセイファーム,0
1859,9470002004935,登記記録の閉鎖等,0,2023-04-04,2023-03-31,有限会社富岡建築研究所,,有限会社,香川県,高松市,天神前３番１号,,37,201,7600018,,,2023-03-31,清算の結了等,,,2015-10-05,1,,,,,トミオカケンチクケンキュウショ,0
1866,9700150015462,登記記録の閉鎖等,0,2023-04-04,2022-12-22,流山市土地改良区,,その他,千葉県,流山市,大字中野久木４３９番地,,12,220,2700116,,,2022-12-22,その他の清算の結了等,,,2015-10-09,1,,,,,ナガレヤマシトチカイリヨウク,0
1867,9700150019488,登記記録の閉鎖等,0,2023-04-04,2021-02-01,レストハウスしもつけ管理組合,,その他,栃木県,下野市,国分寺９９４－８,,09,216,3290417,,,2021-02-01,その他の清算の結了等,,,2015-10-09,1,,,,,レストハウスシモツケカンリクミアイ,0
