sequenceNumber,corporateNumber,process,correct,updateDate,changeDate,name,nameImageId,kind,prefectureName,cityName,streetNumber,addressImageId,prefectureCode,cityCode,postCode,addressOutside,addressOutsideImageId,closeDate,closeCause,successorCorporateNumber,changeCause,assignmentDate,latest,enName,enPrefectureName,enCityName,enAddressOutside,furigana,hihyoji
8,1010005023531,登記記録の閉鎖等,0,2022-10-31,2022-10-28,一般社団法人飯能水と緑の連携推進機構,,その他の設立登記法人,東京都,千代田区,丸の内３丁目１番１号東京共同会計事務所内,,13,101,1000005,,,2022-10-28,清算の結了等,,,2015-10-05,1,,,,,ハンノウミズトミドリノレンケイスイシンキコウ,0
14,1010402013176,登記記録の閉鎖等,0,2022-10-31,2022-10-12,有限会社山盛,,有限会社,東京都,港区,北青山３丁目１０番１３号,,13,103,1070061,,,2022-10-12,清算の結了等,,,2015-10-05,1,,,,,ヤマセイ,0
18,1010405016259,登記記録の閉鎖等,0,2022-10-31,2022-10-13,一般社団法人ＳＵＮ,,その他の設立登記法人,東京都,港区,赤坂２丁目１１番７号ＡＴＴ新館１１階,,13,103,1070052,,,2022-10-13,清算の結了等,,,2017-11-27,1,,,,,サン,0
40,1011003005819,登記記録の閉鎖等,0,2022-10-31,2022-10-17,湘南リアルティ合同会社,,合同会社,東京都,渋谷区,鉢山町１０番１２号,,13,113,1500035,,,2022-10-17,合併による解散等,8011003005886,令和４年１０月１０日東京都渋谷区鉢山町１０番１２号高千穂キャピタル合同会社（8011003005886）に合併し解散,2015-10-05,1,,,,,ショウナンリアルティ,0
46,1011103007913,登記記録の閉鎖等,0,2022-10-31,2022-10-26,ｅ－ｓｈｕｕ合同会社,,合同会社,東京都,練馬区,土支田２丁目４番１４号オークヴィラ３０７,,13,120,1790076,,,2022-10-26,清算の結了等,,,2018-05-17,1,,,,,イーシュー,0
67,1012402000278,登記記録の閉鎖等,0,2022-10-31,2022-10-26,有限会社泉商事,,有限会社,東京都,府中市,矢崎町４丁目１番地,,13,206,1830025,,,2022-10-26,清算の結了等,,,2015-10-05,1,,,,,イズミショウジ,0
71,1013301031406,登記記録の閉鎖等,0,2022-10-31,2022-10-24,株式会社ＫＥＩＳ,,株式会社,茨城県,那珂郡東海村,大字村松１４０番地８,,08,341,3191112,,,2022-10-24,清算の結了等,,,2015-10-05,1,,,,,,0
76,1020001140255,登記記録の閉鎖等,0,2022-10-31,2022-10-24,株式会社ブリエ,,株式会社,神奈川県,横浜市瀬谷区,五貫目町１０番地６８,,14,114,2460008,,,2022-10-24,清算の結了等,,,2021-03-08,1,,,,,ブリエ,0
92,1021002020388,登記記録の閉鎖等,0,2022-10-31,2022-10-25,有限会社相模安田,,有限会社,神奈川県,相模原市中央区,氷川町１３番８号佐藤ビルＢ,,14,152,2520215,,,2022-10-25,清算の結了等,,,2015-10-05,1,,,,,サガミヤスダ,0
96,1030001092719,登記記録の閉鎖等,0,2022-10-31,2022-10-20,株式会社ハタナカ,,株式会社,埼玉県,所沢市,東所沢３丁目５番地１５,,11,208,3590021,,,2022-10-20,清算の結了等,,,2015-10-05,1,,,,,ハタナカ,0
113,1040001102410,登記記録の閉鎖等,0,2022-10-31,2022-10-24,株式会社恵比寿,,株式会社,千葉県,柏市,戸張１０５９番地８,,12,217,2770008,,,2022-10-24,清算の結了等,,,2017-11-08,1,,,,,,0
118,1040002052423,登記記録の閉鎖等,0,2022-10-31,2022-10-24,有限会社ミヤコ運転代行社,,有限会社,千葉県,流山市,名都借９９３番地の８,,12,220,2700145,,,2022-10-24,清算の結了等,,,2015-10-05,1,,,,,ミヤコウンテンダイコウシャ,0
134,1070002028800,登記記録の閉鎖等,0,2022-10-31,2022-10-19,有限会社金成自動車,,有限会社,群馬県,邑楽郡千代田町,大字福島４５６番地の４,,10,523,3700501,,,2022-10-19,清算の結了等,,,2015-10-05,1,,,,,カナリジドウシャ,0
139,1100001027980,登記記録の閉鎖等,0,2022-10-31,2022-10-26,農業法人株式会社ＪＡ塩尻ファーム,,株式会社,長野県,塩尻市,大字広丘郷原１８１１番地１,,20,215,3990704,,,2022-10-26,清算の結了等,,,2015-10-05,1,,,,,ノウギョウホウジンジェイエイシオジリファーム,0
140,1110001026750,登記記録の閉鎖等,0,2022-10-31,2022-10-26,株式会社日生電気,,株式会社,新潟県,魚沼市,中原１５８番地３,,15,225,9460024,,,2022-10-26,清算の結了等,,,2015-10-05,1,,,,,ニッセイデンキ,0
142,1110001028334,登記記録の閉鎖等,0,2022-10-31,2022-10-27,株式会社グラーツィエ,,株式会社,新潟県,長岡市,関原町２丁目３７０番地,,15,202,9402035,,,2022-10-27,清算の結了等,,,2015-10-05,1,,,,,グラーツィエ,0
144,1120001055872,登記記録の閉鎖等,0,2022-10-31,2022-10-27,ジャパンハイテック株式会社,,株式会社,大阪府,大阪市西区,立売堀２丁目３番２号,,27,106,5500012,,,2022-10-27,合併による解散等,7122001012022,令和４年１０月１日大阪府東大阪市長田三丁目９番２１号南大阪フジキン株式会社（7122001012022）に合併し解散,2015-10-05,1,,,,,ジャパンハイテック,0
166,1130001020330,登記記録の閉鎖等,0,2022-10-31,2022-10-24,カラコルム株式会社,,株式会社,京都府,京都市中京区,二条通東洞院西入仁王門町２２番地,,26,104,6040854,,,2022-10-24,清算の結了等,,,2015-10-05,1,,,,,カラコルム,0
174,1140002005552,登記記録の閉鎖等,0,2022-10-31,2022-10-27,有限会社アイワ不動産,,有限会社,兵庫県,神戸市垂水区,小束山２丁目２０番地の９,,28,108,6550002,,,2022-10-27,清算の結了等,,,2015-10-05,1,,,,,アイワフドウサン,0
191,1180002033797,登記記録の閉鎖等,0,2022-10-31,2022-10-25,今井商事有限会社,,有限会社,愛知県,名古屋市熱田区,二番２丁目６番８号,,23,109,4560052,,,2022-10-25,清算の結了等,,,2015-10-05,1,,,,,イマイショウジ,0
192,1180002037708,登記記録の閉鎖等,0,2022-10-31,2022-10-26,有限会社天満堂,,有限会社,愛知県,名古屋市千種区,天満通１丁目４３番地の１,,23,101,4640095,,,2022-10-26,清算の結了等,,,2015-10-05,1,,,,,テンマンドウ,0
209,1260001033253,登記記録の閉鎖等,0,2022-10-31,2022-10-26,株式会社Ｍ・Ａメディカル,,株式会社,岡山県,津山市,椿高下１３１番地３,,33,203,7080051,,,2022-10-26,清算の結了等,,,2019-06-17,1,,,,,エムエイ,0
221,1290005015757,登記記録の閉鎖等,0,2022-10-31,2022-10-24,特定非営利活動法人サークル・オーキッド,,その他の設立登記法人,福岡県,糸島市,南風台１丁目１０番１０号,,40,230,8191137,,,2022-10-24,清算の結了等,,,2016-01-15,1,,,,,サークルオーキッド,0
230,1350002005093,登記記録の閉鎖等,0,2022-10-31,2022-10-27,有限会社湯淺酒店,,有限会社,宮崎県,宮崎市,船塚２丁目７８番地,,45,201,8800031,,,2022-10-27,清算の結了等,,,2015-10-05,1,,,,,ユアササケテン,0
239,1390002009768,登記記録の閉鎖等,0,2022-10-31,2022-10-26,有限会社松浦鮮魚店,,有限会社,山形県,鶴岡市,末広町１２番１１号,,06,203,9970015,,,2022-10-26,清算の結了等,,,2015-10-05,1,,,,,マツウラセンギョテン,0
246,1430002057291,登記記録の閉鎖等,0,2022-10-31,2022-10-21,有限会社アライ企画,,有限会社,北海道,虻田郡倶知安町,北三条東２丁目５番地,,01,400,0440003,,,2022-10-21,清算の結了等,,,2015-10-05,1,,,,,アライキカク,0
266,2010005029189,登記記録の閉鎖等,0,2022-10-31,2022-10-28,一般社団法人みょうほう,,その他の設立登記法人,東京都,千代田区,霞が関３丁目２番５号,,13,101,1000013,,,2022-10-28,清算の結了等,,,2018-10-15,1,,,,,ミョウホウ,0
273,2010403020550,登記記録の閉鎖等,0,2022-10-31,2022-10-11,大阪インベストメンツ２合同会社,,合同会社,東京都,港区,六本木１丁目６番１号泉ガーデンタワー,,13,103,1060032,,,2022-10-11,清算の結了等,,,2019-04-10,1,,,,,オオサカインベストメンツツー,0
274,2010403024262,登記記録の閉鎖等,0,2022-10-31,2022-10-12,合同会社Ａ．Ｐ．１６,,合同会社,東京都,港区,元赤坂１丁目１番８号赤坂コミュニティビル４階,,13,103,1070051,,,2022-10-12,清算の結了等,,,2020-12-03,1,,,,,エーピーシックスティーン,0
329,2020001058703,登記記録の閉鎖等,0,2022-10-31,2022-10-25,光システムサービス株式会社,,株式会社,神奈川県,横浜市神奈川区,六角橋６丁目２５番２９号,,14,102,2210802,,,2022-10-25,清算の結了等,,,2015-10-05,1,,,,,ヒカリシステムサービス,0
337,2020002087453,登記記録の閉鎖等,0,2022-10-31,2022-10-24,有限会社双葉寿司,,有限会社,神奈川県,川崎市宮前区,菅生３丁目１番４号,,14,136,2160015,,,2022-10-24,清算の結了等,,,2015-10-05,1,,,,,フタバズシ,0
358,2030003017276,登記記録の閉鎖等,0,2022-10-31,2022-10-20,ＳＥＨ合同会社,,合同会社,埼玉県,草加市,谷塚１丁目２１番１号メルヘンシャトー草加７１８,,11,221,3400028,,,2022-10-20,清算の結了等,,,2021-05-26,1,,,,,エスイーエイチ,0
359,2030005008950,登記記録の閉鎖等,0,2022-10-31,2022-10-14,ＮＰＯ法人成年後見川越サポートセンター,,その他の設立登記法人,埼玉県,川越市,大字笠幡６１番地２３,,11,201,3501175,,,2022-10-14,清算の結了等,,,2015-10-05,1,,,,,セイネンコウケンカワゴエサポートセンター,0
368,2050001006337,登記記録の閉鎖等,0,2022-10-31,2022-10-24,株式会社ベジタブル,,株式会社,茨城県,那珂市,鴻巣２０９９番地１,,08,226,3110133,,,2022-10-24,清算の結了等,,,2015-10-05,1,,,,,ベジタブル,0
370,2050002041234,登記記録の閉鎖等,0,2022-10-31,2022-10-21,有限会社オーエヌ企画,,有限会社,茨城県,常総市,左平太新田９５５番地１,,08,211,3002735,,,2022-10-21,清算の結了等,,,2015-10-05,1,,,,,オーエヌキカク,0
373,2060002005221,登記記録の閉鎖等,0,2022-10-31,2022-10-25,有限会社清南電気,,有限会社,栃木県,宇都宮市,東刑部町８７０番地,,09,201,3210915,,,2022-10-25,清算の結了等,,,2015-10-05,1,,,,,セイナンデンキ,0
381,2080001000568,登記記録の閉鎖等,0,2022-10-31,2022-10-28,株式会社漆畑会計センター,,株式会社,静岡県,静岡市葵区,鷹匠２丁目７番２－４０３号,,22,101,4200839,,,2022-10-28,清算の結了等,,,2015-10-05,1,,,,,ウルシバタカイケイセンター,0
388,2110001005530,登記記録の閉鎖等,0,2022-10-31,2022-10-27,株式会社リーミックス,,株式会社,新潟県,新潟市東区,大山１丁目８番２０号,,15,102,9500067,,,2022-10-27,清算の結了等,,,2015-10-05,1,,,,,リーミックス,0
391,2120001024595,登記記録の閉鎖等,0,2022-10-31,2022-10-27,上町ホーム株式会社,,株式会社,大阪府,大阪市北区,天神橋１丁目１９番６号,,27,127,5300041,,,2022-10-27,清算の結了等,,,2015-10-05,1,,,,,ウエマチホーム,0
429,2140001055886,登記記録の閉鎖等,0,2022-10-31,2022-10-28,株式会社キタムラ,,株式会社,兵庫県,豊岡市,野田字河原田１５番地,,28,209,6680014,,,2022-10-28,清算の結了等,,,2015-10-05,1,,,,,キタムラ,0
438,2160001021119,登記記録の閉鎖等,0,2022-10-31,2022-10-28,Ｔａｂｉｂｉｔｏ株式会社,,株式会社,滋賀県,野洲市,西河原２２５４番地１,,25,210,5202423,,,2022-10-28,清算の結了等,,,2018-08-10,1,,,,,タビビト,0
439,2170001003371,登記記録の閉鎖等,0,2022-10-31,2022-10-28,株式会社山紀商店,,株式会社,和歌山県,和歌山市,湊御殿２丁目６番地の２４,,30,201,6408286,,,2022-10-28,清算の結了等,,,2015-10-05,1,,,,,ヤマキショウテン,0
444,2180001046626,登記記録の閉鎖等,0,2022-10-31,2022-10-26,アイチサービス株式会社,,株式会社,愛知県,名古屋市東区,筒井３丁目２７番２５号,,23,102,4610003,,,2022-10-26,清算の結了等,,,2015-10-05,1,,,,,アイチサービス,0
458,2180002054124,登記記録の閉鎖等,0,2022-10-31,2022-10-24,有限会社丸千,,有限会社,愛知県,名古屋市中村区,名駅４丁目１３番３号,,23,105,4500002,,,2022-10-24,清算の結了等,,,2015-10-05,1,,,,,マルセン,0
467,2240001012209,登記記録の閉鎖等,0,2022-10-31,2022-10-28,横川工業株式会社,,株式会社,広島県,広島市佐伯区,藤の木２丁目２７番１号,,34,108,7315103,,,2022-10-28,清算の結了等,,,2015-10-05,1,,,,,ヨコガワコウギョウ,0
483,2320001001137,登記記録の閉鎖等,0,2022-10-31,2022-10-28,株式会社ことぶきや仏壇店,,株式会社,大分県,大分市,大道町３丁目２番２０号,,44,201,8700822,,,2022-10-28,清算の結了等,,,2015-10-05,1,,,,,コトブキヤブツダンテン,0
497,2420001011571,登記記録の閉鎖等,0,2022-10-31,2022-10-25,ニコクホーム株式会社,,株式会社,青森県,上北郡おいらせ町,二川目３丁目５７番地３,,02,412,0392201,,,2022-10-25,清算の結了等,,,2015-10-05,1,,,,,ニコクホーム,0
498,2430001040396,登記記録の閉鎖等,0,2022-10-31,2022-10-18,株式会社連多流堂,,株式会社,北海道,札幌市東区,北三十五条東１４丁目１番１号,,01,103,0070835,,,2022-10-18,清算の結了等,,,2015-10-05,1,,,,,レンタルドウ,0
526,3010401049459,登記記録の閉鎖等,0,2022-10-31,2022-10-13,バッテリーシステムサービス株式会社,,株式会社,東京都,港区,浜松町２丁目２番１５号,,13,103,1050013,,,2022-10-13,清算の結了等,,,2015-10-05,1,,,,,バッテリーシステムサービス,0
546,3010901045998,登記記録の閉鎖等,0,2022-10-31,2022-10-27,株式会社Ａ．Ｚ．Ｒ,,株式会社,東京都,渋谷区,神宮前４丁目３２－１２ニューウェイブ原宿２Ｆ,,13,113,1500001,,,2022-10-27,合併による解散等,1020003014176,令和４年１０月１日東京都世田谷区北沢二丁目５番２号株式会社ｙｕｔｏｒｉ（1020003014176）に合併し解散,2020-04-01,1,,,,,エーゼットアール,0
557,3011003011253,登記記録の閉鎖等,0,2022-10-31,2022-10-20,ディライト合同会社,,合同会社,東京都,目黒区,中目黒１丁目７番１１－３０５号,,13,110,1530061,,,2022-10-20,清算の結了等,,,2020-06-09,1,,,,,ディライト,0
569,3011303003859,登記記録の閉鎖等,0,2022-10-31,2022-10-06,Ｗｕ－Ｒｉｇｈｔ合同会社,,合同会社,東京都,杉並区,阿佐谷南３丁目１７－６パークハイツＢ１０６,,13,115,1660004,,,2022-10-06,清算の結了等,,,2021-02-04,1,,,,,ウーライト,0
593,3012402005028,登記記録の閉鎖等,0,2022-10-31,2022-10-31,有限会社シェルバック,,有限会社,東京都,小金井市,貫井北町１丁目１８番５号,,13,210,1840015,,,2022-10-31,清算の結了等,,,2015-10-05,1,,,,,シェルバック,0
656,3040003014065,登記記録の閉鎖等,0,2022-10-31,2022-10-24,サージマネジメント合同会社,,合同会社,千葉県,千葉市若葉区,若松台３丁目２８－５,,12,104,2640027,,,2022-10-24,清算の結了等,,,2019-09-27,1,,,,,サージマネジメント,0
664,3050002018669,登記記録の閉鎖等,0,2022-10-31,2022-10-25,有限会社ヤオゼン,,有限会社,茨城県,猿島郡境町,１６１５番地,,08,546,3060433,,,2022-10-25,清算の結了等,,,2015-10-05,1,,,,,ヤオゼン,0
667,3060001028552,登記記録の閉鎖等,0,2022-10-31,2022-10-25,株式会社フリースタイル,,株式会社,栃木県,栃木市,大平町西野田４０９番３シャトル１０１号,,09,203,3294421,,,2022-10-25,清算の結了等,,,2016-08-17,1,,,,,フリースタイル,0
686,3110002028224,登記記録の閉鎖等,0,2022-10-31,2022-10-27,有限会社高勝,,有限会社,新潟県,長岡市,新町１丁目１番１１号,,15,202,9400023,,,2022-10-27,清算の結了等,,,2015-10-05,1,,,,,タカショウ,0
709,3140001110509,登記記録の閉鎖等,0,2022-10-31,2022-10-25,株式会社笑福屋,,株式会社,兵庫県,神戸市垂水区,東舞子町６番１６－５１１,,28,108,6550047,,,2022-10-25,清算の結了等,,,2018-06-28,1,,,,,ショウフクヤ,0
716,3170002007949,登記記録の閉鎖等,0,2022-10-31,2022-10-28,有限会社マルイチ物流サービス,,有限会社,和歌山県,岩出市,山５９番地の６,,30,209,6496258,,,2022-10-28,清算の結了等,,,2015-10-05,1,,,,,,0
763,3290001052281,登記記録の閉鎖等,0,2022-10-31,2022-10-26,株式会社翔和,,株式会社,福岡県,福岡市南区,南大橋２丁目１番１９－１０１号,,40,134,8150034,,,2022-10-26,清算の結了等,,,2015-10-05,1,,,,,ショウワ,0
779,3310001017554,登記記録の閉鎖等,0,2022-10-31,2022-10-27,九州志賀商事株式会社,,株式会社,長崎県,佐世保市,愛宕町１９７番地１シガハイツ２０３号,,42,202,8580917,,,2022-10-27,清算の結了等,,,2021-11-04,1,,,,,キュウシュウシガショウジ,0
780,3330001009574,登記記録の閉鎖等,0,2022-10-31,2022-10-28,株式会社葵国際観光ホテル,,株式会社,熊本県,菊池市,隈府１１０４番地,,43,210,8611331,,,2022-10-28,清算の結了等,,,2015-10-05,1,,,,,,0
805,3420002006792,登記記録の閉鎖等,0,2022-10-31,2022-10-25,株式会社蔵前,,株式会社,青森県,八戸市,大字市川町字上大谷地１３番地２,,02,203,0392241,,,2022-10-25,清算の結了等,,,2015-10-05,1,,,,,クラマエ,0
808,3430001041105,登記記録の閉鎖等,0,2022-10-31,2022-10-24,株式会社ファルス,,株式会社,北海道,札幌市白石区,本郷通８丁目北７番８－９０２号,,01,104,0030025,,,2022-10-24,清算の結了等,,,2015-10-05,1,,,,,ファルス,0
906,4020001055954,登記記録の閉鎖等,0,2022-10-31,2022-10-25,株式会社東京ビジネスサポート,,株式会社,神奈川県,横浜市都筑区,茅ケ崎東４丁目２番１号４０２,,14,118,2240033,,,2022-10-25,清算の結了等,,,2015-10-05,1,,,,,トウキョウビジネスサポート,0
908,4020001064716,登記記録の閉鎖等,0,2022-10-31,2022-10-25,株式会社星川美装,,株式会社,神奈川県,川崎市多摩区,菅１丁目１４番１０号,,14,135,2140001,,,2022-10-25,清算の結了等,,,2015-10-05,1,,,,,ホシカワビソウ,0
915,4020003015452,登記記録の閉鎖等,0,2022-10-31,2022-10-25,ＧＯＯＤＩＥＳ合同会社,,合同会社,神奈川県,川崎市多摩区,生田１丁目３番２５－１号,,14,135,2140038,,,2022-10-25,清算の結了等,,,2019-01-17,1,,,,,グッディーズ,0
929,4030002007094,登記記録の閉鎖等,0,2022-10-31,2022-10-21,有限会社十字堂,,有限会社,埼玉県,さいたま市大宮区,上小町９３０番地の２,,11,103,3300855,,,2022-10-21,清算の結了等,,,2015-10-05,1,,,,,,0
946,4050002007456,登記記録の閉鎖等,0,2022-10-31,2022-10-24,有限会社ハウスクリーン常陸,,有限会社,茨城県,那珂市,福田２３９番地,,08,226,3110118,,,2022-10-24,清算の結了等,,,2015-10-05,1,,,,,ハウスクリーンヒタチ,0
958,4110001022796,登記記録の閉鎖等,0,2022-10-31,2022-10-26,株式会社高木商会,,株式会社,新潟県,長岡市,千手３丁目２番２５号,,15,202,9400087,,,2022-10-26,清算の結了等,,,2015-10-05,1,,,,,タカギショウカイ,0
970,4120901010429,登記記録の閉鎖等,0,2022-10-31,2022-10-26,株式会社インフオテック,,株式会社,大阪府,高槻市,富田町１丁目１３番２５－２０３号,,27,207,5690814,,,2022-10-26,清算の結了等,,,2015-10-05,1,,,,,インフオテック,0
976,4130003006531,登記記録の閉鎖等,0,2022-10-31,2022-10-24,合同会社ＢＢＣｏｎｓｕｌｔｉｎｇ,,合同会社,京都府,京都市右京区,御室岡ノ裾町１７番地４６,,26,108,6168096,,,2022-10-24,清算の結了等,,,2020-05-19,1,,,,,ビービーコンサルティング,0
995,4180303002639,登記記録の閉鎖等,0,2022-10-31,2022-10-26,合同会社あかみ,,合同会社,愛知県,豊田市,竹生町４丁目６２番地,,23,211,4710077,,,2022-10-26,清算の結了等,,,2015-10-05,1,,,,,アカミ,0
1000,4240001025308,登記記録の閉鎖等,0,2022-10-31,2022-10-26,アイズエンジニアリング株式会社,,株式会社,大阪府,大阪市中央区,南本町１丁目６番７－３５０１号,,27,128,5410054,,,2022-10-26,清算の結了等,,,2015-10-05,1,,,,,アイズエンジニアリング,0
1006,4250002010200,登記記録の閉鎖等,0,2022-10-31,2022-10-27,有限会社中川商店,,有限会社,山口県,下関市,唐戸町５番２号,,35,201,7500005,,,2022-10-27,清算の結了等,,,2015-10-05,1,,,,,ナカガワショウテン,0
1012,4260005006104,登記記録の閉鎖等,0,2022-10-31,2022-10-28,高梁市土地開発公社,,その他の設立登記法人,岡山県,高梁市,松原通２０４３番地,,33,209,7160036,,,2022-10-28,清算の結了等,,,2015-10-05,1,,,,,タカハシシ,0
1016,4290001055622,登記記録の閉鎖等,0,2022-10-31,2022-10-26,株式会社アクティブアカデミー,,株式会社,福岡県,福岡市博多区,綱場町６番１３号,,40,132,8120024,,,2022-10-26,清算の結了等,,,2015-10-05,1,,,,,アクティブアカデミー,0
1082,5010002003441,登記記録の閉鎖等,0,2022-10-31,2022-10-20,有限会社千商,,有限会社,東京都,文京区,向丘１丁目１０番２－７０１号,,13,105,1130023,,,2022-10-20,清算の結了等,,,2015-10-05,1,,,,,センショウ,0
1119,5011003007464,登記記録の閉鎖等,0,2022-10-31,2022-10-17,西武キャピタル合同会社,,合同会社,東京都,渋谷区,恵比寿西２丁目１９番９号,,13,113,1500021,,,2022-10-17,合併による解散等,8011003005886,令和４年１０月１０日東京都渋谷区鉢山町１０番１２号高千穂キャピタル合同会社（8011003005886）に合併し解散,2017-02-20,1,,,,,セイブキャピタル,0
1123,5011102008603,登記記録の閉鎖等,0,2022-10-31,2022-10-27,有限会社デザインファーム,,有限会社,東京都,新宿区,矢来町７５番地,,13,104,1620805,,,2022-10-27,清算の結了等,,,2015-10-05,1,,,,,デザインファーム,0
1150,5012801020856,登記記録の閉鎖等,0,2022-10-31,2022-10-20,ＫＴＳ株式会社,,株式会社,東京都,立川市,錦町３丁目１番２１号熊ビル２階２０２号室,,13,202,1900022,,,2022-10-20,清算の結了等,,,2021-05-25,1,,,,,ケーティーエス,0
1164,5020001018407,登記記録の閉鎖等,0,2022-10-31,2022-10-20,日本技検株式会社,,株式会社,神奈川県,横浜市鶴見区,駒岡２丁目１０番３８号,,14,101,2300071,,,2022-10-20,合併による解散等,2020001018186,令和４年１０月１日横浜市鶴見区江ケ崎町１１番３４号東邦酸素工業株式会社（2020001018186）に合併し解散,2015-10-05,1,,,,,ニホンギケン,0
1188,5040002095501,登記記録の閉鎖等,0,2022-10-31,2022-10-24,有限会社大倉塗装工業,,有限会社,千葉県,柏市,高柳１９２５番地８,,12,217,2770941,,,2022-10-24,清算の結了等,,,2015-10-05,1,,,,,オオクラトソウコウギョウ,0
1189,5040003006119,登記記録の閉鎖等,0,2022-10-31,2022-10-24,合同会社レイ工業,,合同会社,千葉県,市原市,青柳６２７番地,,12,219,2990102,,,2022-10-24,清算の結了等,,,2015-10-05,1,,,,,レイコウギョウ,0
1193,5050001009139,登記記録の閉鎖等,0,2022-10-31,2022-10-25,サンコー株式会社,,株式会社,茨城県,つくば市,二の宮１丁目２４－８パルシャスつくばＩ１０１号室,,08,220,3050051,,,2022-10-25,清算の結了等,,,2015-10-05,1,,,,,サンコー,0
1202,5080002002164,登記記録の閉鎖等,0,2022-10-31,2022-10-27,有限会社サインテック静岡,,有限会社,静岡県,静岡市駿河区,向敷地３９７番地の４,,22,102,4210101,,,2022-10-27,清算の結了等,,,2015-10-05,1,,,,,サインテックシズオカ,0
1203,5080002005489,登記記録の閉鎖等,0,2022-10-31,2022-10-28,マルイ稲垣塗装有限会社,,有限会社,静岡県,静岡市駿河区,西島７９５番地の１,,22,102,4228045,,,2022-10-28,清算の結了等,,,2015-10-05,1,,,,,マルイイナガキトソウ,0
1207,5080402008884,登記記録の閉鎖等,0,2022-10-31,2022-10-28,有限会社楽有堂,,有限会社,静岡県,浜松市中区,東伊場１丁目２７番１３号,,22,131,4328036,,,2022-10-28,清算の結了等,,,2015-10-05,1,,,,,ラクユウドウ,0
1208,5090005004982,登記記録の閉鎖等,0,2022-10-31,2022-10-21,一般社団法人いずみそば組合,,その他の設立登記法人,山梨県,北杜市,大泉町谷戸２８１５番地,,19,209,4091502,,,2022-10-21,清算の結了等,,,2015-10-05,1,,,,,イズミソバクミアイ,0
1212,5110001034972,登記記録の閉鎖等,0,2022-10-31,2022-10-20,株式会社クラウドクラフト,,株式会社,新潟県,新潟市中央区,天神１丁目１番地プラーカ３,,15,103,9500917,,,2022-10-20,清算の結了等,,,2020-07-07,1,,,,,クラウドクラフト,0
1213,5120001020253,登記記録の閉鎖等,0,2022-10-31,2022-10-26,株式会社サノセンイ,,株式会社,大阪府,大阪市平野区,喜連５丁目３番６号,,27,126,5470027,,,2022-10-26,清算の結了等,,,2015-10-05,1,,,,,サノセンイ,0
1256,5180001053603,登記記録の閉鎖等,0,2022-10-31,2022-10-24,株式会社ダイサンテック,,株式会社,愛知県,名古屋市北区,下飯田町１丁目３０番地,,23,103,4620865,,,2022-10-24,清算の結了等,,,2015-10-05,1,,,,,ダイサンテック,0
1267,5180002058691,登記記録の閉鎖等,0,2022-10-31,2022-10-24,有限会社東海ジオリサーチ,,有限会社,愛知県,名古屋市名東区,社台３丁目２１２番地の１,,23,115,4650092,,,2022-10-24,清算の結了等,,,2015-10-05,1,,,,,トウカイジオリサーチ,0
1269,5180003011402,登記記録の閉鎖等,0,2022-10-31,2022-10-25,宏進毛織合資会社,,合資会社,愛知県,一宮市,萩原町萩原３０２９番地の１,,23,203,4910353,,,2022-10-25,清算の結了等,,,2015-10-05,1,,,,,コウシンケオリ,0
1270,5180003022110,登記記録の閉鎖等,0,2022-10-31,2022-10-25,合同会社ブルーノ,,合同会社,愛知県,知多郡東浦町,大字生路字折戸２８番地の１０,,23,442,4702104,,,2022-10-25,清算の結了等,,,2021-02-08,1,,,,,ブルーノ,0
1284,5260002032969,登記記録の閉鎖等,0,2022-10-31,2022-10-28,有限会社田辺設計事務所,,有限会社,岡山県,玉野市,玉原２丁目３番２８号,,33,204,7060014,,,2022-10-28,清算の結了等,,,2015-10-05,1,,,,,タナベセッケイジムショ,0
1286,5280002004529,登記記録の閉鎖等,0,2022-10-31,2022-10-27,有限会社足立建築工務店,,有限会社,島根県,安来市,西赤江町５００番地,,32,206,6920003,,,2022-10-27,清算の結了等,,,2015-10-05,1,,,,,アダチケンチクコウムテン,0
1312,5400601000007,登記記録の閉鎖等,0,2022-10-31,2022-10-26,株式会社アスカ・コンサルティング,,株式会社,岩手県,奥州市,水沢袋町７番１４号,,03,215,0230814,,,2022-10-26,清算の結了等,,,2015-10-05,1,,,,,アスカコンサルティング,0
1325,5490005000248,登記記録の閉鎖等,0,2022-10-31,2022-10-24,一般財団法人宮内女学院,,その他の設立登記法人,高知県,高知市,はりまや町１丁目４番１８号,,39,201,7800822,,,2022-10-24,清算の結了等,,,2015-10-05,1,,,,,ミヤウチジョガクイン,0
1339,6010003013281,登記記録の閉鎖等,0,2022-10-31,2022-10-25,合同会社オフィスＤ＆Ｄ,,合同会社,東京都,千代田区,神田小川町３丁目６番地８,,13,101,1010052,,,2022-10-25,清算の結了等,,,2015-10-05,1,,,,,オフィスディーアンドディー,0
1343,6010005032016,登記記録の閉鎖等,0,2022-10-31,2022-10-28,リニューアブルインフラホールディングス一般社団法人,,その他の設立登記法人,東京都,千代田区,九段南３丁目７番７号成和綜合会計事務所内,,13,101,1020074,,,2022-10-28,清算の結了等,,,2020-07-10,1,,,,,リニューアブルインフラホールディングス,0
1355,6010801025222,登記記録の閉鎖等,0,2022-10-31,2022-10-20,株式会社光進,,株式会社,東京都,大田区,中央３丁目３２番１０号,,13,111,1430024,,,2022-10-20,清算の結了等,,,2015-10-05,1,,,,,コウシン,0
1362,6011001047841,登記記録の閉鎖等,0,2022-10-31,2022-10-12,株式会社プライムエクシード,,株式会社,東京都,港区,白金台３丁目１９番５号,,13,103,1080071,,,2022-10-12,清算の結了等,,,2015-10-05,1,,,,,プライムエクシード,0
1409,6013301020668,登記記録の閉鎖等,0,2022-10-31,2022-10-24,株式会社タカラレーベン東北,,株式会社,宮城県,仙台市青葉区,中央２丁目２番１０号,,04,101,9800021,,,2022-10-24,合併による解散等,3500001002165,令和４年１０月１日東京都千代田区丸の内一丁目８番２号株式会社タカラレーベン（3500001002165）に合併し解散,2015-10-05,1,,,,,,0
1413,6020002045762,登記記録の閉鎖等,0,2022-10-31,2022-10-25,有限会社ユニオン建築設計事務所,,有限会社,神奈川県,横浜市金沢区,並木２丁目３番１－７０５号,,14,108,2360005,,,2022-10-25,清算の結了等,,,2015-10-05,1,,,,,ユニオンケンチクセッケイジムショ,0
1415,6021002061056,登記記録の閉鎖等,0,2022-10-31,2022-10-26,有限会社モトイ工業,,有限会社,神奈川県,平塚市,出縄４７３番地の１７,,14,203,2540915,,,2022-10-26,清算の結了等,,,2015-10-05,1,,,,,,0
1420,6030001083250,登記記録の閉鎖等,0,2022-10-31,2022-10-20,株式会社エスジージャパン,,株式会社,埼玉県,川口市,坂下町１丁目８番１６号,,11,203,3340003,,,2022-10-20,清算の結了等,,,2015-10-05,1,,,,,エスジージャパン,0
1447,6080005006599,登記記録の閉鎖等,0,2022-10-31,2022-10-20,特定非営利活動法人静岡県環境経済研究機構,,その他の設立登記法人,静岡県,静岡市葵区,紺屋町１１－１浮月ビル５階,,22,101,4200852,,,2022-10-20,清算の結了等,,,2015-10-05,1,,,,,シズオカケンカンキョウケイザイケンキュウキコウ,0
1461,6120003020325,登記記録の閉鎖等,0,2022-10-31,2022-10-26,合同会社かっぱ光房,,合同会社,大阪府,大阪市東淀川区,下新庄６丁目１３－２３生島コーポ３０６号,,27,114,5330021,,,2022-10-26,清算の結了等,,,2021-09-30,1,,,,,カッパコウボウ,0
1475,6130003006174,登記記録の閉鎖等,0,2022-10-31,2022-10-25,合同会社ＨＳ足立,,合同会社,京都府,福知山市,三和町芦渕１０６５番地の１１,00117630,26,201,6201444,,,2022-10-25,清算の結了等,,,2019-09-06,1,,,,,エイチエスアダチ,0
1504,6200001000246,登記記録の閉鎖等,0,2022-10-31,2022-10-12,アパートセンター株式会社,,株式会社,岐阜県,岐阜市,金宝町３丁目１番地,,21,201,5008847,,,2022-10-12,合併による解散等,7010001095222,令和４年１０月１日東京都千代田区丸の内一丁目８番１号丸の内トラストタワーＮ館Ａｐａｍａｎ　Ｐｒｏｐｅｒｔｙ株式会社（7010001095222）に合併し解散,2015-10-05,1,,,,,アパートセンター,0
1508,6220001020985,登記記録の閉鎖等,0,2022-10-31,2022-10-27,干元鉄筋工業株式会社,,株式会社,石川県,河北郡内灘町,字ハマナス２丁目１５８番地,,17,365,9200268,,,2022-10-27,清算の結了等,,,2016-05-10,1,,,,,ホシモトテッキンコウギョウ,0
1533,6350001013670,登記記録の閉鎖等,0,2022-10-31,2022-10-25,株式会社千祥,,株式会社,宮崎県,西都市,大字下三財２７３３番地１,,45,208,8810113,,,2022-10-25,清算の結了等,,,2015-10-05,1,,,,,センショウ,0
1538,6370002020160,登記記録の閉鎖等,0,2022-10-31,2022-10-24,有限会社大成測量設計,,有限会社,宮城県,黒川郡大和町,落合桧和田字中屋敷二番５３番地,,04,421,9813403,,,2022-10-24,清算の結了等,,,2015-10-05,1,,,,,タイセイソクリョウセッケイ,0
1543,6420002019668,登記記録の閉鎖等,0,2022-10-31,2022-10-24,有限会社鈴木林業,,有限会社,青森県,むつ市,大字関根字北関根ノ内休場３４６番地２８,,02,208,0350022,,,2022-10-24,清算の結了等,,,2015-10-05,1,,,,,スズキリンギョウ,0
1547,6430002008876,登記記録の閉鎖等,0,2022-10-31,2022-10-20,有限会社澤口プランニング,,有限会社,北海道,札幌市東区,北五十条東１５丁目３番１８号,,01,103,0070850,,,2022-10-20,清算の結了等,,,2015-10-05,1,,,,,サワグチ,0
1560,7010001109915,登記記録の閉鎖等,0,2022-10-31,2022-10-21,株式会社トータルプロジェクト・オフィス,,株式会社,千葉県,大網白里市,季美の森南２丁目２０番５号,,12,239,2993241,,,2022-10-21,清算の結了等,,,2015-10-05,1,,,,,トータルプロジェクトオフィス,0
1568,7010005021034,登記記録の閉鎖等,0,2022-10-31,2022-10-26,保険薬局事業協同組合,,その他の設立登記法人,東京都,千代田区,平河町２丁目１６番６号,,13,101,1020093,,,2022-10-26,清算の結了等,,,2015-10-05,1,,,,,ホケンヤッキョク,0
1576,7010403010349,登記記録の閉鎖等,0,2022-10-31,2022-10-13,合同会社ＯＢＣホールディングス,,合同会社,東京都,港区,西新橋１丁目７番１３号,,13,103,1050003,,,2022-10-13,清算の結了等,,,2015-10-05,1,,,,,,0
1577,7010405018027,登記記録の閉鎖等,0,2022-10-31,2022-10-11,大阪キャピタル３一般社団法人,,その他の設立登記法人,東京都,港区,六本木１丁目６番１号泉ガーデンタワー,,13,103,1060032,,,2022-10-11,清算の結了等,,,2019-09-03,1,,,,,オオサカキャピタルスリー,0
1594,7011001121091,登記記録の閉鎖等,0,2022-10-31,2022-10-18,株式会社Ｓｐｅｃｔｒａ,,株式会社,東京都,渋谷区,道玄坂２丁目１０番地１２号新大宗ビル３号館７３１,,13,113,1500043,,,2022-10-18,清算の結了等,,,2018-03-09,1,,,,,スペクトラ,0
1598,7011002017347,登記記録の閉鎖等,0,2022-10-31,2022-10-20,有限会社キルク城南,,有限会社,東京都,渋谷区,上原１丁目１５番７号,,13,113,1510064,,,2022-10-20,清算の結了等,,,2015-10-05,1,,,,,キルクジョウナン,0
1601,7011101017090,登記記録の閉鎖等,0,2022-10-31,2022-10-19,株式会社バウ計画設計,,株式会社,東京都,渋谷区,恵比寿南２丁目２６番１－７０２号,,13,113,1500022,,,2022-10-19,清算の結了等,,,2015-10-05,1,,,,,バウケイカクセッケイ,0
1620,7012705001653,登記記録の閉鎖等,0,2022-10-31,2022-10-25,一般社団法人日本歯科矯正専門医学会,,その他の設立登記法人,栃木県,真岡市,荒町２０９４番地１３,,09,209,3214305,,,2022-10-25,合併による解散等,8010005015877,令和４年１０月１日東京都港区新橋六丁目７番９号新橋アイランドビル公益総研内一般社団法人日本矯正歯科協会（8010005015877）に合併し解散,2015-10-05,1,,,,,ニホンシカキョウセイセンモンイガッカイ,0
1623,7013202004793,登記記録の閉鎖等,0,2022-10-31,2022-10-21,日星産業株式会社,,株式会社,東京都,目黒区,柿の木坂１丁目１７番３号,,13,110,1520022,,,2022-10-21,清算の結了等,,,2015-10-05,1,,,,,ニッセイサンギョウ,0
1655,7030005012725,登記記録の閉鎖等,0,2022-10-31,2022-10-21,医療法人社団恵慈会,,その他の設立登記法人,埼玉県,川口市,栄町１丁目１２番２１号シティデュオタワー川口２０９,,11,203,3320017,,,2022-10-21,清算の結了等,,,2015-10-05,1,,,,,ケイジカイ,0
1667,7040002006159,登記記録の閉鎖等,0,2022-10-31,2022-10-24,有限会社スリーアイ,,有限会社,千葉県,千葉市花見川区,花園２丁目１４番４号,,12,102,2620025,,,2022-10-24,清算の結了等,,,2015-10-05,1,,,,,スリーアイ,0
1676,7050001009814,登記記録の閉鎖等,0,2022-10-31,2022-10-24,株式会社モナ,,株式会社,茨城県,土浦市,有明町２番３０号,,08,203,3000035,,,2022-10-24,清算の結了等,,,2015-10-05,1,,,,,モナ,0
1678,7050001043714,登記記録の閉鎖等,0,2022-10-31,2022-10-24,株式会社Ｎｅｗｔｅｃｈ,,株式会社,茨城県,古河市,水海２２５４番地５,,08,204,3060215,,,2022-10-24,清算の結了等,,,2017-12-06,1,,,,,ニューテック,0
1689,7080102019040,登記記録の閉鎖等,0,2022-10-31,2022-10-27,有限会社ディオクレス,,有限会社,静岡県,熱海市,桜町５番２号,,22,205,4130028,,,2022-10-27,清算の結了等,,,2015-10-05,1,,,,,ディオクレス,0
1690,7080401002325,登記記録の閉鎖等,0,2022-10-31,2022-10-27,株式会社秀幸工設,,株式会社,静岡県,浜松市東区,植松町７０番地の５,,22,132,4300803,,,2022-10-27,清算の結了等,,,2015-10-05,1,,,,,シュウコウコウセツ,0
1694,7110005009928,登記記録の閉鎖等,0,2022-10-31,2022-10-27,医療法人社団塚田医院,,その他の設立登記法人,新潟県,妙高市,柳井田町２丁目８番１６号,,15,217,9440008,,,2022-10-27,清算の結了等,,,2015-10-05,1,,,,,ツカダイイン,0
1712,7120901017611,登記記録の閉鎖等,0,2022-10-31,2022-10-27,宏佑アセット株式会社,,株式会社,大阪府,吹田市,円山町５番２５号,,27,205,5640061,,,2022-10-27,清算の結了等,,,2015-10-05,1,,,,,コウユウアセット,0
1713,7122001005926,登記記録の閉鎖等,0,2022-10-31,2022-10-26,株式会社橋詰運送,,株式会社,大阪府,東大阪市,若江西新町２丁目７番８号,,27,227,5780944,,,2022-10-26,清算の結了等,,,2015-10-05,1,,,,,ハシヅメウンソウ,0
1737,7180002073631,登記記録の閉鎖等,0,2022-10-31,2022-10-26,有限会社アサヒ設備設計,,有限会社,愛知県,尾張旭市,東山町２丁目１１番地６,,23,226,4880825,,,2022-10-26,清算の結了等,,,2015-10-05,1,,,,,アサヒセツビセッケイ,0
1741,7180301013107,登記記録の閉鎖等,0,2022-10-31,2022-10-27,天神観光株式会社,,株式会社,大阪府,大阪市北区,天神橋１丁目１９番６号,,27,127,5300041,,,2022-10-27,清算の結了等,,,2015-10-05,1,,,,,テンジンカンコウ,0
1745,7220002003625,登記記録の閉鎖等,0,2022-10-31,2022-10-26,有限会社高田知幸商店,,有限会社,石川県,金沢市,長土塀２丁目１０番５号,,17,201,9200867,,,2022-10-26,清算の結了等,,,2015-10-05,1,,,,,タカタトモユキショウテン,0
1749,7240001044189,登記記録の閉鎖等,0,2022-10-31,2022-10-28,株式会社小林フードサービス,,株式会社,広島県,安芸郡府中町,浜田３丁目８番２０号,,34,302,7350013,,,2022-10-28,清算の結了等,,,2015-10-05,1,,,,,コバヤシフードサービス,0
1755,7290001052303,登記記録の閉鎖等,0,2022-10-31,2022-10-26,株式会社人財は宝,,株式会社,福岡県,糸島市,前原東３丁目１６番１２号,,40,230,8191119,,,2022-10-26,清算の結了等,,,2015-10-05,1,,,,,ジンザイハタカラ,0
1774,7360002021118,登記記録の閉鎖等,0,2022-10-31,2022-10-24,有限会社川武建設,,有限会社,沖縄県,石垣市,字平得７４９番地の９２,,47,207,9070003,,,2022-10-24,清算の結了等,,,2015-10-05,1,,,,,カワタケケンセツ,0
1779,7370602003324,登記記録の閉鎖等,0,2022-10-31,2022-10-21,有限会社武田工業,,有限会社,宮城県,多賀城市,山王字山王一区１番地,,04,209,9850852,,,2022-10-21,清算の結了等,,,2015-10-05,1,,,,,タケダコウギョウ,0
1780,7370802000674,登記記録の閉鎖等,0,2022-10-31,2022-10-20,有限会社安田観光,,有限会社,宮城県,名取市,増田７丁目７番７号,,04,207,9811224,,,2022-10-20,清算の結了等,,,2015-10-05,1,,,,,ヤスダカンコウ,0
1802,7500005005706,登記記録の閉鎖等,0,2022-10-31,2022-10-27,医療法人加地医院,,その他の設立登記法人,愛媛県,四国中央市,三島中央３丁目１１番６号,,38,213,7990405,,,2022-10-27,清算の結了等,,,2015-10-05,1,,,,,カジイイン,0
1826,8010005031429,登記記録の閉鎖等,0,2022-10-31,2022-10-28,一般社団法人ＤＨＲＦ大濠,,その他の設立登記法人,東京都,千代田区,霞が関３丁目２番５号,,13,101,1000013,,,2022-10-28,清算の結了等,,,2020-02-12,1,,,,,ディーエイチアールエフオオホリ,0
1834,8010403011924,登記記録の閉鎖等,0,2022-10-31,2022-10-13,パシフィコ・エナジーいわき合同会社,,合同会社,東京都,港区,六本木６丁目１０番１号六本木ヒルズ森タワー,,13,103,1060032,,,2022-10-13,清算の結了等,,,2015-10-05,1,,,,,パシフィコエナジーイワキ,0
1839,8010602017235,登記記録の閉鎖等,0,2022-10-31,2022-10-25,有限会社田口商会,,有限会社,東京都,江東区,新大橋３丁目２番３号,,13,108,1350007,,,2022-10-25,清算の結了等,,,2015-10-05,1,,,,,タグチショウカイ,0
1841,8010805002587,登記記録の閉鎖等,0,2022-10-31,2022-10-20,医療法人社団武広会,,その他の設立登記法人,東京都,大田区,大森北６丁目１７番１５号サンクレスト大森１Ａ,,13,111,1430016,,,2022-10-20,清算の結了等,,,2018-08-29,1,,,,,ブコウカイ,0
1845,8010902010121,登記記録の閉鎖等,0,2022-10-31,2022-10-26,有限会社ティームスポーツプロズ,,有限会社,東京都,世田谷区,深沢１丁目１２番２１号,,13,112,1580081,,,2022-10-26,清算の結了等,,,2015-10-05,1,,,,,ティームスポーツプロズ,0
1881,8011801011953,登記記録の閉鎖等,0,2022-10-31,2022-10-26,マインド株式会社,,株式会社,東京都,足立区,椿２丁目１０番８号,,13,121,1230871,,,2022-10-26,清算の結了等,,,2015-10-05,1,,,,,マインド,0
1882,8011801023668,登記記録の閉鎖等,0,2022-10-31,2022-10-26,株式会社城北空調,,株式会社,東京都,足立区,南花畑３丁目６番５－３０３号,,13,121,1210062,,,2022-10-26,清算の結了等,,,2015-10-05,1,,,,,ジョウホククウチョウ,0
1912,8021002064387,登記記録の閉鎖等,0,2022-10-31,2022-10-25,有限会社山晃工務店,,有限会社,神奈川県,横須賀市,小矢部１丁目９番１１号,,14,201,2380026,,,2022-10-25,清算の結了等,,,2015-10-05,1,,,,,サンコウコウムテン,0
1917,8021005003334,登記記録の閉鎖等,0,2022-10-31,2022-10-26,特定非営利活動法人日本健康運動スポーツ協会,,その他の設立登記法人,神奈川県,相模原市南区,西大沼５丁目１１番２５号ファミール中里２０３,,14,153,2520332,,,2022-10-26,清算の結了等,,,2015-10-05,1,,,,,ニホンケンコウウンドウスポーツキョウカイ,0
1921,8030001029755,登記記録の閉鎖等,0,2022-10-31,2022-10-12,株式会社レーヴポルト,,株式会社,埼玉県,狭山市,大字北入曽１７３番地の５,,11,215,3501315,,,2022-10-12,清算の結了等,,,2015-10-05,1,,,,,レーヴポルト,0
1934,8030005019042,登記記録の閉鎖等,0,2022-10-31,2022-10-03,税理士法人くすのき,,その他の設立登記法人,埼玉県,桶川市,東１丁目３番２８号桶川イースト１－１Ｆ,,11,231,3630013,,,2022-10-03,合併による解散等,3030005002218,令和４年１０月３日埼玉県さいたま市浦和区針ヶ谷二丁目１０番４号税理士法人レッドサポート（3030005002218）に合併し解散,2018-06-06,1,,,,,クスノキ,0
1935,8040001103872,登記記録の閉鎖等,0,2022-10-31,2022-10-06,尚林塑膠貿易株式会社,,株式会社,千葉県,千葉市若葉区,中野町２６７７－１,,12,104,2650051,,,2022-10-06,清算の結了等,,,2018-03-14,1,,,,,ショウリンソツコウボウエキ,0
1942,8050001024969,登記記録の閉鎖等,0,2022-10-31,2022-10-21,株式会社ＫＯＭＡＩ,,株式会社,茨城県,稲敷郡阿見町,うずら野１丁目１７番地３サンクレイドル１０８,,08,443,3000341,,,2022-10-21,清算の結了等,,,2015-10-05,1,,,,,,0
1947,8050002027731,登記記録の閉鎖等,0,2022-10-31,2022-10-25,有限会社シエラ,,有限会社,茨城県,神栖市,矢田部１２７８５番地,,08,232,3140341,,,2022-10-25,清算の結了等,,,2015-10-05,1,,,,,シエラ,0
1978,8120902016272,登記記録の閉鎖等,0,2022-10-31,2022-10-27,有限会社敷津庵,,有限会社,大阪府,箕面市,稲６丁目５番１７号,,27,220,5620015,,,2022-10-27,清算の結了等,,,2015-10-05,1,,,,,シキツアン,0
1979,8122002015808,登記記録の閉鎖等,0,2022-10-31,2022-10-27,山村電設工業有限会社,,有限会社,大阪府,八尾市,太田８丁目２２番地の５,,27,212,5810037,,,2022-10-27,清算の結了等,,,2015-10-05,1,,,,,ヤマムラデンセツコウギョウ,0
1983,8130002033135,登記記録の閉鎖等,0,2022-10-31,2022-10-24,有限会社ツインアップル,,有限会社,京都府,福知山市,字今安１２７６番地,,26,201,6200953,,,2022-10-24,清算の結了等,,,2015-10-05,1,,,,,,0
1985,8140001110909,登記記録の閉鎖等,0,2022-10-31,2022-10-25,元町ミート食品株式会社,,株式会社,兵庫県,神戸市兵庫区,御崎本町１丁目１番６－１３０８号,,28,105,6520852,,,2022-10-25,清算の結了等,,,2018-08-10,1,,,,,モトマチミートショクヒン,0
1993,8160001020081,登記記録の閉鎖等,0,2022-10-31,2022-10-28,アクア工業株式会社,,株式会社,滋賀県,守山市,守山２丁目１４番３５号２Ｆ,,25,207,5240022,,,2022-10-28,清算の結了等,,,2017-03-09,1,,,,,アクアコウギョウ,0
2002,8180001077814,登記記録の閉鎖等,0,2022-10-31,2022-10-25,株式会社山尚,,株式会社,愛知県,春日井市,瑞穂通２丁目６２番地,,23,206,4860845,,,2022-10-25,清算の結了等,,,2015-10-05,1,,,,,ヤマショウ,0
2015,8180002029905,登記記録の閉鎖等,0,2022-10-31,2022-10-27,有限会社アイデアベイス,,有限会社,愛知県,刈谷市,若松町３丁目９番地,,23,210,4480858,,,2022-10-27,清算の結了等,,,2015-10-05,1,,,,,アイデアベイス,0
2016,8180003003710,登記記録の閉鎖等,0,2022-10-31,2022-10-26,合同会社清水培雄商店,,合同会社,愛知県,名古屋市西区,那古野１丁目４番２０号,,23,104,4510042,,,2022-10-26,清算の結了等,,,2015-10-05,1,,,,,シミズマスオショウテン,0
2024,8200001005879,登記記録の閉鎖等,0,2022-10-31,2022-10-28,連合不動産株式会社,,株式会社,岐阜県,岐阜市,花園町２０番地１,,21,201,5008854,,,2022-10-28,清算の結了等,,,2015-10-05,1,,,,,レンゴウフドウサン,0
2043,8290001048622,登記記録の閉鎖等,0,2022-10-31,2022-10-26,九州小川帆布株式会社,,株式会社,福岡県,久留米市,宮ノ陣４丁目７番５－１５０５号,,40,203,8390801,,,2022-10-26,清算の結了等,,,2015-10-05,1,,,,,キュウシュウオガワハンプ,0
2065,8360001025275,登記記録の閉鎖等,0,2022-10-31,2022-10-25,株式会社シナジービジネスサポート,,株式会社,沖縄県,中頭郡中城村,字南上原１００７番地,,47,328,9012424,,,2022-10-25,清算の結了等,,,2019-02-21,1,,,,,シナジービジネスサポート,0
2089,8490005000682,登記記録の閉鎖等,0,2022-10-31,2022-10-24,医療法人はるな会,,その他の設立登記法人,高知県,高知市,潮新町１丁目１６番１０号,,39,201,7808008,,,2022-10-24,清算の結了等,,,2015-10-05,1,,,,,ハルナカイ,0
2104,9010005012857,登記記録の閉鎖等,0,2022-10-31,2022-10-28,特定非営利活動法人日本文化を輸出する会,,その他の設立登記法人,東京都,中央区,東日本橋２丁目１６－７ＡＮＮＩ東日本橋ビル７Ｆ,,13,102,1030004,,,2022-10-28,清算の結了等,,,2015-10-05,1,,,,,ニホンブンカヲユシュツスルカイ,0
2107,9010103001134,登記記録の閉鎖等,0,2022-10-31,2022-10-27,合同会社ａｘｉｓ,,合同会社,東京都,八王子市,三崎町５番４号三崎町Ｕポートビル２１、４階,,13,201,1920084,,,2022-10-27,清算の結了等,,,2017-05-31,1,,,,,,0
2114,9010401109240,登記記録の閉鎖等,0,2022-10-31,2022-10-18,Ｖａｌｕｅ　Ａｓｉａ　Ｊａｐａｎ株式会社,,株式会社,東京都,港区,元麻布３丁目１１番１０号,,13,103,1060046,,,2022-10-18,清算の結了等,,,2015-10-05,1,,,,,バリューアジアジャパン,0
2115,9010401144601,登記記録の閉鎖等,0,2022-10-31,2022-10-11,マネータップ株式会社,,株式会社,東京都,港区,六本木１丁目６番１号,,13,103,1060032,,,2022-10-11,合併による解散等,9010401089532,令和４年９月３０日東京都港区六本木一丁目６番１号ＳＢＩレミット株式会社（9010401089532）に合併し解散,2019-03-26,1,,,,,マネータップ,0
2120,9010403021352,登記記録の閉鎖等,0,2022-10-31,2022-10-11,大阪インベストメンツ３合同会社,,合同会社,東京都,港区,六本木１丁目６番１号泉ガーデンタワー,,13,103,1060032,,,2022-10-11,清算の結了等,,,2019-08-29,1,,,,,オオサカインベストメンツスリー,0
2122,9010405017638,登記記録の閉鎖等,0,2022-10-31,2022-10-11,大阪インベストメンツ特定目的会社,,その他の設立登記法人,東京都,港区,六本木１丁目６番１号泉ガーデンタワー,,13,103,1060032,,,2022-10-11,清算の結了等,,,2019-04-18,1,,,,,オオサカインベストメンツ,0
2173,9020001043905,登記記録の閉鎖等,0,2022-10-31,2022-10-25,株式会社アベル,,株式会社,神奈川県,横浜市栄区,元大橋１丁目７番６号,,14,115,2470011,,,2022-10-25,清算の結了等,,,2015-10-05,1,,,,,アベル,0
2186,9021001041171,登記記録の閉鎖等,0,2022-10-31,2022-10-26,株式会社源工業所,,株式会社,神奈川県,横須賀市,西浦賀２丁目２０番１１号,,14,201,2390824,,,2022-10-26,清算の結了等,,,2015-10-05,1,,,,,ミナモトコウギョウショ,0
2189,9021002038811,登記記録の閉鎖等,0,2022-10-31,2022-10-26,有限会社弥生,,有限会社,神奈川県,秦野市,渋沢２丁目６番３号,,14,211,2591322,,,2022-10-26,清算の結了等,,,2015-10-05,1,,,,,ヤヨイ,0
2269,9130001045246,登記記録の閉鎖等,0,2022-10-31,2022-10-24,株式会社フェイス,,株式会社,京都府,京都市中京区,西ノ京池ノ内町１９番地９井上ビル２階,,26,104,6048375,,,2022-10-24,清算の結了等,,,2015-10-05,1,,,,,,0
2277,9130003006790,登記記録の閉鎖等,0,2022-10-31,2022-10-25,合同会社Ｓｅｒｅｎｄｉｐｉｔｙ,,合同会社,京都府,京都市中京区,壬生朱雀町３７番地９,,26,104,6048871,,,2022-10-25,清算の結了等,,,2020-10-05,1,,,,,セレンディピティ,0
2282,9140001119957,登記記録の閉鎖等,0,2022-10-31,2022-10-26,株式会社アクト・ラボ,,株式会社,兵庫県,尼崎市,昭和通２丁目６番６８号尼崎市中小企業センター３階,,28,202,6600881,,,2022-10-26,清算の結了等,,,2021-01-05,1,,,,,アクトラボ,0
2286,9140002046523,登記記録の閉鎖等,0,2022-10-31,2022-10-26,とり若食品有限会社,,有限会社,兵庫県,豊岡市,出石町町分１０６番地の１０,,28,209,6680221,,,2022-10-26,清算の結了等,,,2015-10-05,1,,,,,トリワカショクヒン,0
2288,9140003012508,登記記録の閉鎖等,0,2022-10-31,2022-10-28,合同会社ＡＹＡ,,合同会社,兵庫県,神戸市中央区,雲井通６丁目１番１５号,,28,110,6510096,,,2022-10-28,清算の結了等,,,2017-10-13,1,,,,,,0
2290,9140005013157,登記記録の閉鎖等,0,2022-10-31,2022-10-26,一般財団法人姫路市学校給食会,,その他の設立登記法人,兵庫県,姫路市,延末２９５番地（姫路市中央卸売市場内）,,28,201,6700966,,,2022-10-26,清算の結了等,,,2015-10-05,1,,,,,ヒメジシガッコウキュウショクカイ,0
2308,9180003020291,登記記録の閉鎖等,0,2022-10-31,2022-10-25,ＳＡＭＥＴ合同会社,,合同会社,愛知県,あま市,七宝町伊福河原８０番地３リーブルファイン七宝町ＩＩＩ１０２,00125467,23,237,4970005,,,2022-10-25,清算の結了等,,,2019-08-27,1,,,,,サメット,0
2316,9230001010487,登記記録の閉鎖等,0,2022-10-31,2022-10-27,株式会社燕昇司,,株式会社,富山県,高岡市,問屋町２５番地,,16,202,9330804,,,2022-10-27,清算の結了等,,,2015-10-05,1,,,,,エンショウジ,0
2324,9290005011154,登記記録の閉鎖等,0,2022-10-31,2022-10-19,医療法人津末医院,,その他の設立登記法人,福岡県,柳川市,三橋町久末８０９番地１,,40,207,8320816,,,2022-10-19,清算の結了等,,,2015-10-05,1,,,,,ツノスエイイン,0
2330,9310002013217,登記記録の閉鎖等,0,2022-10-31,2022-10-28,有限会社久地浦商店,,有限会社,長崎県,佐世保市,吉井町大渡４１番地,,42,202,8596325,,,2022-10-28,清算の結了等,,,2015-10-05,1,,,,,クチウラショウテン,0
2333,9330001005262,登記記録の閉鎖等,0,2022-10-31,2022-10-28,株式会社三角エンタープライズ,,株式会社,熊本県,熊本市中央区,保田窪１丁目２番１号,,43,101,8620926,,,2022-10-28,清算の結了等,,,2015-10-05,1,,,,,ミスミエンタープライズ,0
2349,9380005011343,登記記録の閉鎖等,0,2022-10-31,2022-10-26,アセアンアパレル協同組合,,その他の設立登記法人,福島県,郡山市,田村町守山字彌明２１番地,,07,203,9631155,,,2022-10-26,清算の結了等,,,2015-10-05,1,,,,,アセアンアパレル,0
2350,9390002003821,登記記録の閉鎖等,0,2022-10-31,2022-10-26,有限会社東北空調設備,,有限会社,山形県,東村山郡山辺町,大字山辺９４９番地,,06,301,9900301,,,2022-10-26,清算の結了等,,,2015-10-05,1,,,,,トウホククウチョウセツビ,0
2356,9430002054950,登記記録の閉鎖等,0,2022-10-31,2022-10-20,有限会社日本サニタリーコンサルタント,,有限会社,北海道,小樽市,花園２丁目１２番１３号,,01,203,0470024,,,2022-10-20,清算の結了等,,,2015-10-05,1,,,,,ニホンサニタリーコンサルタント,0
2362,9480002009090,登記記録の閉鎖等,0,2022-10-31,2022-10-25,有限会社黒田屋,,有限会社,徳島県,吉野川市,鴨島町鴨島５９４番地,,36,205,7760010,,,2022-10-25,清算の結了等,,,2015-10-05,1,,,,,クロダヤ,0
2369,9500005002296,登記記録の閉鎖等,0,2022-10-31,2022-10-28,東温市土地開発公社,,その他の設立登記法人,愛媛県,東温市,見奈良５３０番地１,,38,215,7910211,,,2022-10-28,清算の結了等,,,2015-10-05,1,,,,,トウオンシ,0
