sequenceNumber,corporateNumber,process,correct,updateDate,changeDate,name,nameImageId,kind,prefectureName,cityName,streetNumber,addressImageId,prefectureCode,cityCode,postCode,addressOutside,addressOutsideImageId,closeDate,closeCause,successorCorporateNumber,changeCause,assignmentDate,latest,enName,enPrefectureName,enCityName,enAddressOutside,furigana,hihyoji
12,1010002009673,登記記録の閉鎖等,0,2024-04-30,2024-04-15,有限会社壽電機会田商会,,有限会社,東京都,千代田区,外神田１丁目１４番３号,,13,101,1010021,,,2024-04-15,清算の結了等,,,2015-10-05,1,,,,,,0
14,1010003025190,登記記録の閉鎖等,0,2024-04-30,2024-04-15,合同会社グリーンインベストメント,,合同会社,東京都,千代田区,霞が関３丁目２番５号,,13,101,1000013,,,2024-04-15,清算の結了等,,,2017-04-19,1,,,,,グリーンインベストメント,0
43,1011001096273,登記記録の閉鎖等,0,2024-04-30,2024-04-18,株式会社東京建物管理,,株式会社,東京都,新宿区,新宿２丁目１６番９号,,13,104,1600022,,,2024-04-18,清算の結了等,,,2015-10-05,1,,,,,トウキョウタテモノカンリ,0
54,1011003012105,登記記録の閉鎖等,0,2024-04-30,2024-04-11,合同会社ネクタル,,合同会社,東京都,渋谷区,神宮前６丁目２３番４号桑野ビル２階,,13,113,1500001,,,2024-04-11,清算の結了等,,,2021-01-14,1,,,,,ネクタル,0
55,1011101032079,登記記録の閉鎖等,0,2024-04-30,2024-04-17,株式会社キネシオ,,株式会社,東京都,新宿区,坂町２５番１号,,13,104,1600000,,,2024-04-17,清算の結了等,,,2023-11-22,1,,,,,,1
63,1011601001797,登記記録の閉鎖等,0,2024-04-30,2024-04-23,株式会社行田商店,,株式会社,東京都,練馬区,田柄２丁目１４番８号,,13,120,1790073,,,2024-04-23,清算の結了等,,,2015-10-05,1,,,,,コウダショウテン,0
70,1012301007341,登記記録の閉鎖等,0,2024-04-30,2024-04-23,株式会社インターセクション,,株式会社,東京都,町田市,旭町１丁目５番１５号,,13,209,1940023,,,2024-04-23,合併による解散等,9011101093964,令和６年４月１日東京都千代田区神田三崎町二丁目４番１号ＡＩＱＶＥ　ＯＮＥ株式会社（9011101093964）に合併し解散,2015-10-05,1,,,,,インターセクション,0
80,1012802000381,登記記録の閉鎖等,0,2024-04-30,2024-04-11,有限会社エヌジェイホーム,,有限会社,東京都,立川市,一番町１丁目８番地の５,,13,202,1900033,,,2024-04-11,清算の結了等,,,2015-10-05,1,,,,,エヌジェイホーム,0
81,1013202001202,登記記録の閉鎖等,0,2024-04-30,2024-04-11,有限会社エッグ・カンパニー,,有限会社,東京都,目黒区,青葉台４丁目５番５号,,13,110,1530042,,,2024-04-11,清算の結了等,,,2015-10-05,1,,,,,エッグカンパニー,0
82,1013205000184,登記記録の閉鎖等,0,2024-04-30,2024-04-09,学校法人ドルトン東京学園,,その他の設立登記法人,東京都,調布市,入間町２丁目２８番２０号,,13,208,1820004,,,2024-04-09,合併による解散等,6180005002167,令和６年４月１日名古屋市千種区今池二丁目１番１０号学校法人河合塾学園（6180005002167）に合併し解散,2015-10-05,1,,,,,ドルトントウキョウガクエン,0
94,1020001050529,登記記録の閉鎖等,0,2024-04-30,2024-04-18,株式会社クレアナ,,株式会社,神奈川県,横浜市鶴見区,東寺尾東台１４番３２号,,14,101,2300018,,,2024-04-18,清算の結了等,,,2015-10-05,1,,,,,クレアナ,0
95,1020001080014,登記記録の閉鎖等,0,2024-04-30,2024-04-19,株式会社Ｅ．Ｎインターナショナル,,株式会社,神奈川県,川崎市中原区,丸子通２丁目６８２番地シルクガーデン３０２,,14,133,2110006,,,2024-04-19,清算の結了等,,,2015-10-05,1,,,,,,0
110,1021001030685,登記記録の閉鎖等,0,2024-04-30,2024-04-25,株式会社セルテック,,株式会社,神奈川県,大和市,中央林間５丁目９番２号,,14,213,2420007,,,2024-04-25,清算の結了等,,,2015-10-05,1,,,,,セルテック,0
112,1021005010246,登記記録の閉鎖等,0,2024-04-30,2024-04-26,特定非営利活動法人ツナガル,,その他の設立登記法人,神奈川県,藤沢市,鵠沼海岸２丁目７番６号,00014376,14,205,2510037,,,2024-04-26,清算の結了等,,,2015-10-05,1,,,,,ツナガル,0
122,1040001046467,登記記録の閉鎖等,0,2024-04-30,2024-04-17,株式会社桐生,,株式会社,千葉県,成田市,大袋２５５番地２０（サンパーク成田壱番館３０３号）,,12,211,2860043,,,2024-04-17,清算の結了等,,,2015-10-05,1,,,,,キリュウ,0
123,1040001062349,登記記録の閉鎖等,0,2024-04-30,2024-04-17,東和ハウジング株式会社,,株式会社,千葉県,銚子市,桜井町３４４番地１,,12,202,2880876,,,2024-04-17,清算の結了等,,,2015-10-05,1,,,,,トウワハウジング,0
139,1050005011615,登記記録の閉鎖等,0,2024-04-30,2024-04-16,ハピネス事業協同組合,,その他の設立登記法人,茨城県,神栖市,波崎７３０６番地７,,08,232,3140408,,,2024-04-16,清算の結了等,,,2015-10-05,1,,,,,,0
145,1070001016211,登記記録の閉鎖等,0,2024-04-30,2024-04-24,株式会社ダイキン,,株式会社,群馬県,桐生市,三吉町２丁目４番３８号,,10,203,3760005,,,2024-04-24,清算の結了等,,,2015-10-05,1,,,,,,0
162,1110001034737,登記記録の閉鎖等,0,2024-04-30,2024-04-24,株式会社Ａｎｉｍｏ,,株式会社,新潟県,新潟市中央区,笹口２丁目１０番１３号ＫＥＹＡＫＩ－ＢＯＸ２０１,,15,103,9500911,,,2024-04-24,清算の結了等,,,2020-03-24,1,,,,,アニモ,0
167,1120001076175,登記記録の閉鎖等,0,2024-04-30,2024-04-25,太田商事株式会社,,株式会社,大阪府,大阪市中央区,内久宝寺町３丁目４番９号,,27,128,5400013,,,2024-04-25,清算の結了等,,,2015-10-05,1,,,,,オオタショウジ,0
169,1120001188433,登記記録の閉鎖等,0,2024-04-30,2024-04-18,株式会社エタニティリンクプロパティ,,株式会社,大阪府,大阪市西区,立売堀１丁目４番１０号,,27,106,5500012,,,2024-04-18,清算の結了等,,,2015-10-05,1,,,,,,0
172,1120001237198,登記記録の閉鎖等,0,2024-04-30,2024-04-25,株式会社Ｍａｈａｌｏ,,株式会社,大阪府,豊中市,服部寿町２丁目１番１０号,,27,203,5610857,,,2024-04-25,清算の結了等,,,2021-05-14,1,,,,,マハロ,0
179,1120002032144,登記記録の閉鎖等,0,2024-04-30,2024-04-16,有限会社ノックスデザイン事務所,,有限会社,大阪府,大阪市北区,南森町１丁目３番２９号,,27,127,5300054,,,2024-04-16,清算の結了等,,,2015-10-05,1,,,,,ノックスデザインジムショ,0
182,1120101035270,登記記録の閉鎖等,0,2024-04-30,2024-04-22,天王寺コーポレーション株式会社,,株式会社,大阪府,大阪市阿倍野区,天王寺町南２丁目２５－１５,,27,119,5450002,,,2024-04-22,清算の結了等,,,2015-10-05,1,,,,,テンノウジコーポレーション,0
185,1120102016237,登記記録の閉鎖等,0,2024-04-30,2024-04-22,有限会社ツカイ製作所,,有限会社,大阪府,大阪狭山市,東池尻２丁目１２５１番地,,27,231,5890004,,,2024-04-22,清算の結了等,,,2015-10-05,1,,,,,ツカイセイサクショ,0
193,1130001013862,登記記録の閉鎖等,0,2024-04-30,2024-04-25,株式会社イノウエ,,株式会社,京都府,京都市伏見区,下鳥羽北円面田町９１番地,,26,109,6128497,,,2024-04-25,清算の結了等,,,2015-10-05,1,,,,,イノウエ,0
208,1180001083356,登記記録の閉鎖等,0,2024-04-30,2024-04-17,日印センター株式会社,,株式会社,愛知県,一宮市,あずら２丁目２０番２号,,23,203,4910835,,,2024-04-17,清算の結了等,,,2015-10-05,1,,,,,ニチインセンター,0
209,1180001089089,登記記録の閉鎖等,0,2024-04-30,2024-04-03,株式会社スマイルリンク鯱,00115896,株式会社,愛知県,名古屋市南区,滝春町１番８０,,23,112,4570819,,,2024-04-03,合併による解散等,6180001128544,令和６年４月１日名古屋市南区滝春町１番８０株式会社オルカレストランシステム（6180001128544）に合併し解散,2015-10-05,1,,,,,スマイルリンクシャチ,0
218,1180003013385,登記記録の閉鎖等,0,2024-04-30,2024-04-16,合同会社マークル,,合同会社,愛知県,大府市,横根町山ノ後３９番地の１,,23,223,4740011,,,2024-04-16,清算の結了等,,,2015-10-05,1,,,,,マークル,0
220,1180301011933,登記記録の閉鎖等,0,2024-04-30,2024-04-23,株式会社日本樹脂,,株式会社,愛知県,蒲郡市,清田町前田１０番地,,23,214,4430002,,,2024-04-23,清算の結了等,,,2015-10-05,1,,,,,ニホンジュシ,0
222,1180301032467,登記記録の閉鎖等,0,2024-04-30,2024-04-19,株式会社ウィルド,,株式会社,愛知県,刈谷市,住吉町３丁目８番地コスモビル住吉,,23,210,4480852,,,2024-04-19,清算の結了等,,,2019-04-08,1,,,,,ウィルド,0
226,1180303005306,登記記録の閉鎖等,0,2024-04-30,2024-04-22,バンベール豊田寿管理組合合同会社,,合同会社,愛知県,豊田市,寿町４丁目３６番地,,23,211,4710834,,,2024-04-22,清算の結了等,,,2022-04-19,1,,,,,バンベールトヨタコトブキカンリクミアイ,0
248,1290801022576,登記記録の閉鎖等,0,2024-04-30,2024-04-25,株式会社たくみ,,株式会社,福岡県,遠賀郡水巻町,緑ケ丘２丁目８番２号,,40,382,8070011,,,2024-04-25,清算の結了等,,,2016-05-25,1,,,,,タクミ,0
256,1330001016837,登記記録の閉鎖等,0,2024-04-30,2024-04-23,株式会社ネイチャー,,株式会社,熊本県,熊本市西区,中原町４７８番地,,43,103,8615271,,,2024-04-23,清算の結了等,,,2015-10-05,1,,,,,ネイチャー,0
268,1370002003905,登記記録の閉鎖等,0,2024-04-30,2024-04-22,有限会社丸徳工務店,,有限会社,宮城県,名取市,高柳字下西５１番地の４,,04,207,9811211,,,2024-04-22,清算の結了等,,,2015-10-05,1,,,,,マルトクコウムテン,0
270,1380002001305,登記記録の閉鎖等,0,2024-04-30,2024-04-18,有限会社今野建築板金塗装,,有限会社,福島県,福島市,飯坂町平野字小三郎内４３番地の４,,07,201,9600231,,,2024-04-18,清算の結了等,,,2015-10-05,1,,,,,コンノケンチクバンキントソウ,0
281,1420002018575,登記記録の閉鎖等,0,2024-04-30,2024-04-15,有限会社上北商事,,有限会社,青森県,上北郡野辺地町,字笹舘３０番地６,,02,401,0393100,,,2024-04-15,清算の結了等,,,2024-03-05,1,,,,,,0
290,1430002028243,登記記録の閉鎖等,0,2024-04-30,2024-04-22,道央ファーム有限会社,,有限会社,北海道,札幌市手稲区,前田十条１５丁目６番２５号,,01,109,0060820,,,2024-04-22,清算の結了等,,,2015-10-05,1,,,,,ドウオウファーム,0
297,1470002018587,登記記録の閉鎖等,0,2024-04-30,2024-04-22,引田燃料有限会社,,有限会社,香川県,東かがわ市,引田７８４番地１,,37,207,7692901,,,2024-04-22,清算の結了等,,,2015-10-05,1,,,,,ヒケタネンリョウ,0
301,1500005004168,登記記録の閉鎖等,0,2024-04-30,2024-04-12,天理教壬生川分教会,,その他の設立登記法人,愛媛県,西条市,丹原町池田７７９番地,,38,206,7910508,,,2024-04-12,合併による解散等,4500005004207,令和６年４月１２日愛媛県西条市桑村３１０番地１天理教桑村分教会（4500005004207）に合併し解散,2015-10-05,1,,,,,テンリキョウニュウガワブンキョウカイ,0
314,2010001196784,登記記録の閉鎖等,0,2024-04-30,2024-04-11,ＨＩＴＯＷＡホールディングス株式会社,,株式会社,東京都,港区,港南２丁目１５番３号,,13,103,1080075,,,2024-04-11,合併による解散等,8010003032214,令和６年４月１日東京都千代田区永田町二丁目１０番３号ＭＢＫＰ　Ｌｉｖｉｎｇ株式会社（8010003032214）に合併し解散,2018-12-03,1,,,,,ヒトワホールディングス,0
325,2010401149474,登記記録の閉鎖等,0,2024-04-30,2024-04-10,株式会社ＲｉＢＬＡ,,株式会社,東京都,港区,三田１丁目４番１号,,13,103,1080073,,,2024-04-10,合併による解散等,3010401033883,令和６年４月１日東京都港区三田一丁目４番１号エイベックス・エンタテインメント株式会社（3010401033883）に合併し解散,2019-12-02,1,,,,,リブラ,0
330,2010403022720,登記記録の閉鎖等,0,2024-04-30,2024-04-11,ＳＹＡＬ　ＥＮＴＥＲＴＡＩＮＭＥＮＴ合同会社,,合同会社,東京都,港区,虎ノ門５丁目１３番１号虎ノ門４０ＭＴビル,,13,103,1050001,,,2024-04-11,清算の結了等,,,2020-03-26,1,,,,,サイアルエンターテインメント,0
364,2011201005388,登記記録の閉鎖等,0,2024-04-30,2024-04-24,株式会社武藤工業,,株式会社,東京都,中野区,上高田５丁目１０番２号,,13,114,1640002,,,2024-04-24,清算の結了等,,,2015-10-05,1,,,,,ムトウコウギョウ,0
387,2020001035248,登記記録の閉鎖等,0,2024-04-30,2024-04-19,株式会社アレックス,,株式会社,神奈川県,横浜市鶴見区,向井町４丁目８４番地８,,14,101,2300037,,,2024-04-19,清算の結了等,,,2015-10-05,1,,,,,アレックス,0
390,2020001129396,登記記録の閉鎖等,0,2024-04-30,2024-04-17,株式会社えむあむ,,株式会社,神奈川県,横浜市西区,浅間町１丁目４番３号ウィザードビル４０２,,14,103,2200072,,,2024-04-17,清算の結了等,,,2019-01-08,1,,,,,エムアム,0
402,2020002021635,登記記録の閉鎖等,0,2024-04-30,2024-04-16,有限会社昭和,,有限会社,神奈川県,横浜市旭区,上川井町５７１番地,,14,112,2410802,,,2024-04-16,清算の結了等,,,2015-10-05,1,,,,,ショウワ,0
403,2020002026907,登記記録の閉鎖等,0,2024-04-30,2024-04-19,有限会社白幡テント商会,,有限会社,神奈川県,横浜市神奈川区,入江１丁目２９番１７号,,14,102,2210014,,,2024-04-19,清算の結了等,,,2015-10-05,1,,,,,シラハタテントショウカイ,0
411,2020002105355,登記記録の閉鎖等,0,2024-04-30,2024-04-22,有限会社テクノ・ユースフル,,有限会社,神奈川県,川崎市川崎区,大島１丁目２８番１５号,,14,131,2100834,,,2024-04-22,清算の結了等,,,2015-10-05,1,,,,,テクノユースフル,0
427,2030002100388,登記記録の閉鎖等,0,2024-04-30,2024-04-22,石橋サービス有限会社,,有限会社,埼玉県,川口市,大字安行慈林１３７番地の１,,11,203,3340071,,,2024-04-22,清算の結了等,,,2015-10-05,1,,,,,イシバシサービス,0
428,2030003015775,登記記録の閉鎖等,0,2024-04-30,2024-04-22,合同会社ＩＲＩＥ,,合同会社,埼玉県,さいたま市桜区,西堀７丁目２２－１,,11,106,3380832,,,2024-04-22,清算の結了等,,,2020-08-26,1,,,,,アイリー,0
447,2070001016961,登記記録の閉鎖等,0,2024-04-30,2024-04-23,株式会社ハイ・テクノロジー・フロンティア,,株式会社,群馬県,桐生市,境野町７丁目１２０番地の１２,,10,203,3760002,,,2024-04-23,清算の結了等,,,2015-10-05,1,,,,,ハイテクノロジーフロンティア,0
455,2100002007758,登記記録の閉鎖等,0,2024-04-30,2024-04-11,有限会社アルファ測量設計,,有限会社,長野県,長野市,豊野町豊野４８２番地５６,,20,201,3891105,,,2024-04-11,清算の結了等,,,2015-10-05,1,,,,,アルファソクリョウセッケイ,0
456,2100002009440,登記記録の閉鎖等,0,2024-04-30,2024-04-11,有限会社高野板金加工所,00069445,有限会社,長野県,千曲市,大字稲荷山６５３番地１,,20,218,3870021,,,2024-04-11,清算の結了等,,,2015-10-05,1,,,,,タカノバンキンカコウショ,0
465,2110005003704,登記記録の閉鎖等,0,2024-04-30,2024-04-01,安田商工会,,その他の設立登記法人,新潟県,阿賀野市,保田３７２６番地７,,15,223,9592221,,,2024-04-01,合併による解散等,6110005017072,令和６年４月１日新潟県阿賀野市姥ケ橋６６０番地５京ヶ瀬商工会（7110005003708）と新潟県阿賀野市中央町二丁目１２番５号水原商工会（5110005003701）と新潟県阿賀野市山崎３７９番地笹神商工会（9110005003706）と合併して新潟県阿賀野市中央町二丁目１２番５号阿賀野市商工会（6110005017072）を設立し解散,2015-10-05,1,,,,,ヤスダ,0
466,2120001047976,登記記録の閉鎖等,0,2024-04-30,2024-04-18,森本工機株式会社,,株式会社,大阪府,大阪市西区,新町４丁目１３番１８号,,27,106,5500013,,,2024-04-18,清算の結了等,,,2015-10-05,1,,,,,モリモトコウキ,0
475,2120002002740,登記記録の閉鎖等,0,2024-04-30,2024-04-09,有限会社入江ビル,,有限会社,大阪府,大阪市阿倍野区,王子町１丁目１番２３号,,27,119,5450023,,,2024-04-09,合併による解散等,9120101032938,令和６年４月１日大阪府藤井寺市小山五丁目２番８号豊国バルブ製作株式会社（9120101032938）に合併し解散,2015-10-05,1,,,,,イリエビル,0
489,2140001002979,登記記録の閉鎖等,0,2024-04-30,2024-04-23,株式会社アダージョ,,株式会社,兵庫県,神戸市兵庫区,天王町１丁目２３４－３,,28,105,6520021,,,2024-04-23,清算の結了等,,,2015-10-05,1,,,,,アダージョ,0
524,2240001056890,登記記録の閉鎖等,0,2024-04-30,2024-04-25,株式会社良和美建,,株式会社,広島県,広島市佐伯区,屋代２丁目８番５号,,34,108,7315146,,,2024-04-25,清算の結了等,,,2020-11-13,1,,,,,リョウワビケン,0
525,2240002041025,登記記録の閉鎖等,0,2024-04-30,2024-04-25,有限会社システムプロオフィス,,有限会社,広島県,福山市,南蔵王町３丁目９番１８号藤井ビル３０３号,,34,207,7210973,,,2024-04-25,清算の結了等,,,2015-10-05,1,,,,,システムプロオフィス,0
551,2370305000755,登記記録の閉鎖等,0,2024-04-30,2024-04-17,医療法人社団みやぎ東部循環器科,,その他の設立登記法人,宮城県,東松島市,赤井字八反谷地９６番地１,,04,214,9810501,,,2024-04-17,清算の結了等,,,2015-10-05,1,,,,,ミヤギトウブジュンカンキカ,0
554,2390001009000,登記記録の閉鎖等,0,2024-04-30,2024-04-17,株式会社ＰＳＥ,,株式会社,山形県,新庄市,大字本合海字福宮１９番地３,,06,205,9960112,,,2024-04-17,清算の結了等,,,2015-10-05,1,,,,,,0
569,2430005011303,登記記録の閉鎖等,0,2024-04-30,2024-04-17,医療法人社団博佑会,,その他の設立登記法人,北海道,札幌市豊平区,平岸一条８丁目８番２０号,,01,105,0620931,,,2024-04-17,清算の結了等,,,2015-10-05,1,,,,,ハクユウカイ,0
574,2500002022865,登記記録の閉鎖等,0,2024-04-30,2024-04-25,有限会社田村写眞舘,,有限会社,愛媛県,宇和島市,中央町２丁目３番３２号,,38,203,7980040,,,2024-04-25,清算の結了等,,,2015-10-05,1,,,,,タムラシャシンカン,0
575,2500005007087,登記記録の閉鎖等,0,2024-04-30,2024-04-22,特定非営利活動法人市民後見サポートセンターえひめ,,その他の設立登記法人,愛媛県,松山市,一番町４丁目１番１６号むらかみビル３階,,38,201,7900001,,,2024-04-22,清算の結了等,,,2015-10-05,1,,,,,シミンコウケンサポートセンターエヒメ,0
593,3010005036903,登記記録の閉鎖等,0,2024-04-30,2024-04-25,エスティキョウト一般社団法人,,その他の設立登記法人,東京都,千代田区,丸の内３丁目１番１号東京共同会計事務所内,,13,101,1000005,,,2024-04-25,清算の結了等,,,2023-07-07,1,,,,,エスティキョウト,0
613,3010701023353,登記記録の閉鎖等,0,2024-04-30,2024-04-12,株式会社Ｓ．Ｋ．Ｉ．ビジネスパートナーズ,,株式会社,東京都,品川区,戸越６丁目２１番２号,,13,109,1420041,,,2024-04-12,清算の結了等,,,2015-10-05,1,,,,,エスケーアイビジネスパートナーズ,0
615,3010802000482,登記記録の閉鎖等,0,2024-04-30,2024-04-19,有限会社アサカ,,有限会社,東京都,大田区,大森西５丁目１６番１１号,,13,111,1430015,,,2024-04-19,清算の結了等,,,2015-10-05,1,,,,,アサカ,0
624,3010902015686,登記記録の閉鎖等,0,2024-04-30,2024-04-15,有限会社ヤマミツ,,有限会社,東京都,世田谷区,三軒茶屋１丁目３４番１４号,,13,112,1540024,,,2024-04-15,合併による解散等,2010901028186,令和６年３月１日東京都世田谷区三軒茶屋一丁目３４番１４号株式会社ケイコーポレーション（2010901028186）に合併し解散,2015-10-05,1,,,,,ヤマミツ,0
655,3012305000200,登記記録の閉鎖等,0,2024-04-30,2024-04-11,社会福祉法人蘭会,,その他の設立登記法人,東京都,町田市,木曽東４丁目１３番７号,,13,209,1940036,,,2024-04-11,合併による解散等,5012305000223,東京都町田市小山町９５４番地社会福祉法人蓮倫会（5012305000223）に合併し解散,2015-10-05,1,,,,,アララギカイ,0
656,3012401001647,登記記録の閉鎖等,0,2024-04-30,2024-04-23,美多摩塗料株式会社,,株式会社,東京都,府中市,西府町４丁目１２番地１２,,13,206,1830031,,,2024-04-23,清算の結了等,,,2015-10-05,1,,,,,ミタマトリョウ,0
658,3012402013030,登記記録の閉鎖等,0,2024-04-30,2024-04-12,第一電材ファクトリー株式会社,,株式会社,東京都,調布市,小島町３丁目６６番地９,,13,208,1820026,,,2024-04-12,合併による解散等,3410001012891,令和６年４月１日秋田県秋田市河辺戸島字七曲台１２０番地１０２第一電材エレクトロニクス株式会社（3410001012891）に合併し解散,2015-10-05,1,,,,,ダイイチデンザイファクトリー,0
659,3012701012716,登記記録の閉鎖等,0,2024-04-30,2024-04-22,株式会社ジャスティ,,株式会社,東京都,小平市,上水南町３丁目１０番２３－６号,,13,211,1870021,,,2024-04-22,清算の結了等,,,2015-10-05,1,,,,,ジャスティ,0
662,3020001011561,登記記録の閉鎖等,0,2024-04-30,2024-04-17,株式会社スリーアイ,,株式会社,神奈川県,横浜市鶴見区,豊岡町３番１７号,,14,101,2300062,,,2024-04-17,清算の結了等,,,2015-10-05,1,,,,,スリーアイ,0
664,3020001058776,登記記録の閉鎖等,0,2024-04-30,2024-04-17,株式会社ＭＩＮＤ,,株式会社,神奈川県,横浜市鶴見区,大黒ふ頭１５番地１,,14,101,2300054,,,2024-04-17,清算の結了等,,,2015-10-05,1,,,,,マインド,0
671,3020002047571,登記記録の閉鎖等,0,2024-04-30,2024-04-22,有限会社小林舞台照明,,有限会社,神奈川県,横浜市戸塚区,俣野町１４０３番地ドリームハイツ５－４１０,,14,110,2450066,,,2024-04-22,清算の結了等,,,2015-10-05,1,,,,,コバヤシブタイショウメイ,0
703,3040002092186,登記記録の閉鎖等,0,2024-04-30,2024-04-16,有限会社若柴自動車,,有限会社,千葉県,柏市,柏の葉５丁目８番地１６,,12,217,2770882,,,2024-04-16,清算の結了等,,,2015-10-05,1,,,,,ワカシバジドウシャ,0
711,3100002033241,登記記録の閉鎖等,0,2024-04-30,2024-04-11,有限会社プラスワン長野,,有限会社,長野県,伊那市,西春近８７０番地,,20,209,3994431,,,2024-04-11,清算の結了等,,,2015-10-05,1,,,,,プラスワンナガノ,0
717,3120001075687,登記記録の閉鎖等,0,2024-04-30,2024-04-22,株式会社エヌ・アイ・シー,,株式会社,大阪府,大阪市中央区,北浜２丁目３番６号,,27,128,5410041,,,2024-04-22,清算の結了等,,,2015-10-05,1,,,,,エヌアイシー,0
719,3120001201631,登記記録の閉鎖等,0,2024-04-30,2024-04-19,株式会社エフ・シー・エム,,株式会社,大阪府,大阪市西区,靱本町１丁目６番６号,,27,106,5500004,,,2024-04-19,清算の結了等,,,2016-10-31,1,,,,,エフシーエム,0
730,3120901038702,登記記録の閉鎖等,0,2024-04-30,2024-04-22,株式会社ａｉｎａ,,株式会社,大阪府,大阪市中央区,東心斎橋１丁目８番１１号７０６号室,,27,128,5420083,,,2024-04-22,清算の結了等,,,2017-07-18,1,,,,,アイナ,0
742,3140001077475,登記記録の閉鎖等,0,2024-04-30,2024-04-24,株式会社ドットコム,,株式会社,兵庫県,加西市,若井町２４７９番地の１,,28,220,6752456,,,2024-04-24,清算の結了等,,,2015-10-05,1,,,,,,0
753,3140002051347,登記記録の閉鎖等,0,2024-04-30,2024-04-23,有限会社薬局くすりのベセル,,有限会社,兵庫県,姫路市,北条永良町４３番地１,,28,201,6700946,,,2024-04-23,清算の結了等,,,2015-10-05,1,,,,,ヤッキョククスリノベセル,0
759,3180001077629,登記記録の閉鎖等,0,2024-04-30,2024-04-16,株式会社杉崎,,株式会社,愛知県,春日井市,東野町５丁目２７番地の９,,23,206,4860817,,,2024-04-16,清算の結了等,,,2015-10-05,1,,,,,スギザキ,0
766,3180003000571,登記記録の閉鎖等,0,2024-04-30,2024-04-15,合資会社港鉄工所,00073692,合資会社,愛知県,名古屋市港区,木場町３番地,,23,111,4550021,,,2024-04-15,清算の結了等,,,2015-10-05,1,,,,,ミナトテッコウショ,0
787,3240001034714,登記記録の閉鎖等,0,2024-04-30,2024-04-25,株式会社カルージュ,,株式会社,広島県,福山市,駅家町大字万能倉３１５番地,,34,207,7201131,,,2024-04-25,清算の結了等,,,2015-10-05,1,,,,,カルージュ,0
805,3310001009477,登記記録の閉鎖等,0,2024-04-30,2024-04-25,九州電気開発株式会社,,株式会社,長崎県,諫早市,飯盛町野中９３９番地６,,42,204,8541101,,,2024-04-25,清算の結了等,,,2015-10-05,1,,,,,キュウシュウデンキカイハツ,0
822,3370001047364,登記記録の閉鎖等,0,2024-04-30,2024-04-18,仙台金時株式会社,,株式会社,宮城県,仙台市太白区,青山１丁目１２－２１パレスＭシード１０５号室,,04,104,9820834,,,2024-04-18,清算の結了等,,,2021-07-21,1,,,,,センダイキントキ,0
827,3370201002177,登記記録の閉鎖等,0,2024-04-30,2024-04-24,株式会社成文,,株式会社,宮城県,遠田郡涌谷町,字新町２２番地１,,04,501,9870115,,,2024-04-24,合併による解散等,4460101000213,令和６年４月１日北海道帯広市東四条南十丁目２番地株式会社オカモト（4460101000213）に合併し解散,2015-10-05,1,,,,,ナリブン,0
840,3420001012593,登記記録の閉鎖等,0,2024-04-30,2024-04-17,宮野製パン株式会社,,株式会社,青森県,下北郡大間町,大字大間字大間８６番地,,02,423,0394601,,,2024-04-17,清算の結了等,,,2015-10-05,1,,,,,,0
869,4010002040477,登記記録の閉鎖等,0,2024-04-30,2024-04-16,有限会社エルム,,有限会社,東京都,文京区,湯島３丁目２１番５号,,13,105,1130034,,,2024-04-16,清算の結了等,,,2015-10-05,1,,,,,エルム,0
877,4010401004751,登記記録の閉鎖等,0,2024-04-30,2024-04-11,株式会社エンターティメント,,株式会社,東京都,港区,芝公園１丁目２番１０号,,13,103,1050011,,,2024-04-11,清算の結了等,,,2015-10-05,1,,,,,エンターティメント,0
885,4010403011878,登記記録の閉鎖等,0,2024-04-30,2024-04-11,合同会社タウラス,,合同会社,東京都,港区,南青山２丁目２番１５号ウィン青山９４２,,13,103,1070062,,,2024-04-11,清算の結了等,,,2015-10-05,1,,,,,タウラス,0
900,4010901008087,登記記録の閉鎖等,0,2024-04-30,2024-04-19,東京木ヒール株式会社,,株式会社,東京都,世田谷区,上野毛１丁目２４番１３号,,13,112,1580093,,,2024-04-19,清算の結了等,,,2015-10-05,1,,,,,トウキョウモクヒール,0
944,4020002015494,登記記録の閉鎖等,0,2024-04-30,2024-04-18,株式会社緑協和サービス,,株式会社,神奈川県,横浜市青葉区,桜台１３番地２２,,14,117,2270061,,,2024-04-18,清算の結了等,,,2015-10-05,1,,,,,ミドリキョウワサービス,0
959,4030001022417,登記記録の閉鎖等,0,2024-04-30,2024-04-18,株式会社三青社,,株式会社,埼玉県,戸田市,喜沢２丁目８番地の１２（パークサイドハイム１０６号室）,,11,224,3350013,,,2024-04-18,清算の結了等,,,2015-10-05,1,,,,,サンセイシャ,0
963,4030001088160,登記記録の閉鎖等,0,2024-04-30,2024-04-22,鎌塚自動車株式会社,,株式会社,埼玉県,熊谷市,樋春１１５番地,00015526,11,202,3600112,,,2024-04-22,清算の結了等,,,2015-10-05,1,,,,,カマツカジドウシャ,0
984,4040002006376,登記記録の閉鎖等,0,2024-04-30,2024-04-17,有限会社せんとり,,有限会社,千葉県,千葉市稲毛区,天台５丁目８番５号,,12,103,2630016,,,2024-04-17,清算の結了等,,,2015-10-05,1,,,,,セントリ,0
989,4050002012670,登記記録の閉鎖等,0,2024-04-30,2024-04-19,サカエ設計企画有限会社,,有限会社,茨城県,稲敷郡阿見町,中央５丁目２２番７号,,08,443,3000332,,,2024-04-19,清算の結了等,,,2015-10-05,1,,,,,,0
999,4080005006964,登記記録の閉鎖等,0,2024-04-30,2024-04-19,静岡産業人材支援協同組合,,その他の設立登記法人,静岡県,藤枝市,横内２２５０番地,,22,214,4260002,,,2024-04-19,清算の結了等,,,2017-04-18,1,,,,,シズオカサンギョウジンザイシエン,0
1035,4140002062310,登記記録の閉鎖等,0,2024-04-30,2024-04-24,有限会社共和建設,,有限会社,兵庫県,加西市,若井町２４７９番地の１,,28,220,6752456,,,2024-04-24,清算の結了等,,,2015-10-05,1,,,,,,0
1039,4150002000616,登記記録の閉鎖等,0,2024-04-30,2024-04-18,有限会社ケイ・ツー・プラン,,有限会社,奈良県,奈良市,鳥見町１丁目４番地の２７,,29,201,6310065,,,2024-04-18,清算の結了等,,,2015-10-05,1,,,,,ケイツープラン,0
1063,4220001021449,登記記録の閉鎖等,0,2024-04-30,2024-04-15,株式会社大樹,,株式会社,石川県,小松市,園町ニ６３－１フルハウスＩＩ２０１,00122008,17,203,9230801,,,2024-04-15,清算の結了等,,,2017-01-30,1,,,,,,0
1090,4350001016329,登記記録の閉鎖等,0,2024-04-30,2024-04-22,株式会社あるく,,株式会社,宮崎県,日向市,大字幸脇５４３番地１５０,,45,206,8891112,,,2024-04-22,清算の結了等,,,2020-04-03,1,,,,,アルク,0
1094,4370001010024,登記記録の閉鎖等,0,2024-04-30,2024-04-18,株式会社福屋,,株式会社,宮城県,仙台市青葉区,国分町３丁目１番３号,,04,101,9800803,,,2024-04-18,清算の結了等,,,2015-10-05,1,,,,,,0
1097,4370202001029,登記記録の閉鎖等,0,2024-04-30,2024-04-17,有限会社ベストガレージ千葉,,有限会社,宮城県,大崎市,三本木新沼字中谷地１４３番地１,,04,215,9896315,,,2024-04-17,清算の結了等,,,2015-10-05,1,,,,,ベストガレージチバ,0
1100,4390002010772,登記記録の閉鎖等,0,2024-04-30,2024-04-17,有限会社オルガン,,有限会社,山形県,新庄市,桧町１６番６号,,06,205,9960088,,,2024-04-17,清算の結了等,,,2015-10-05,1,,,,,オルガン,0
1102,4410005000545,登記記録の閉鎖等,0,2024-04-30,2024-04-17,医療法人石鼎会,,その他の設立登記法人,秋田県,秋田市,東通観音前８番５号,,05,201,0100004,,,2024-04-17,清算の結了等,,,2015-10-05,1,,,,,セキテイカイ,0
1112,4430005013900,登記記録の閉鎖等,0,2024-04-30,2024-04-24,ＮＰＯ法人Ｃａｍｐ’ｎ　Ｔｒａｖｅｌ　Ｈｏｋｋａｉｄｏ,,その他の設立登記法人,北海道,札幌市豊平区,西岡五条１４丁目２６番２２号,,01,105,0620035,,,2024-04-24,清算の結了等,,,2020-04-08,1,,,,,キャンピントラベルホッカイドウ,0
1115,4480005000423,登記記録の閉鎖等,0,2024-04-30,2024-04-25,医療法人湯浅歯科医院,,その他の設立登記法人,徳島県,徳島市,国府町井戸字前野４０番地,,36,201,7793118,,,2024-04-25,清算の結了等,,,2015-10-05,1,,,,,ユアサシカイイン,0
1117,4500001023508,登記記録の閉鎖等,0,2024-04-30,2024-04-12,地域プロモ株式会社,,株式会社,愛媛県,松山市,三番町２丁目１０番地９第３クリーンビル３Ｆ,,38,201,7900003,,,2024-04-12,清算の結了等,,,2021-06-17,1,,,,,チイキプロモ,0
1131,5010001181164,登記記録の閉鎖等,0,2024-04-30,2024-04-15,株式会社ＢＩＧ　ＢＩＲＤ,,株式会社,東京都,千代田区,神田佐久間河岸５５朝風染常共同ビル２階２０３号,,13,101,1010026,,,2024-04-15,清算の結了等,,,2017-02-01,1,,,,,,0
1147,5010401168835,登記記録の閉鎖等,0,2024-04-30,2024-04-16,Ｌｉｅｂｅ　Ｃｏｒａ株式会社,,株式会社,東京都,中央区,銀座６丁目５番１３号ＣＳＳビルディングＩＩＩ３階,00128465,13,102,1040061,,,2024-04-16,清算の結了等,,,2022-08-03,1,,,,,リーベコーラ,0
1160,5010901004341,登記記録の閉鎖等,0,2024-04-30,2024-04-19,株式会社コルム,,株式会社,東京都,世田谷区,松原２丁目４２番１４号,,13,112,1560043,,,2024-04-19,清算の結了等,,,2015-10-05,1,,,,,,0
1205,5013102001934,登記記録の閉鎖等,0,2024-04-30,2024-04-22,有限会社コウハチ,,有限会社,東京都,府中市,日鋼町１番１Ｊタワービル１Ｆ,,13,206,1830044,,,2024-04-22,清算の結了等,,,2015-10-05,1,,,,,コウハチ,0
1215,5020001114981,登記記録の閉鎖等,0,2024-04-30,2024-04-12,Ｃマーケティング株式会社,,株式会社,神奈川県,横浜市西区,みなとみらい３丁目６番３号,,14,103,2200012,,,2024-04-12,合併による解散等,6020001092442,令和６年４月１日神奈川県横浜市西区みなとみらい三丁目６番３号Ｆｏｏｎｚ株式会社（6020001092442）に合併し解散,2016-02-25,1,,,,,シーマーケティング,0
1244,5040001012168,登記記録の閉鎖等,0,2024-04-30,2024-04-18,株式会社ディ・プラン,,株式会社,千葉県,千葉市美浜区,打瀬１丁目９番地９,,12,106,2610013,,,2024-04-18,清算の結了等,,,2015-10-05,1,,,,,ディプラン,0
1251,5050002004469,登記記録の閉鎖等,0,2024-04-30,2024-04-23,有限会社トラベルオフィス水戸,,有限会社,茨城県,水戸市,千波町４１７番地の５,,08,201,3100851,,,2024-04-23,清算の結了等,,,2015-10-05,1,,,,,トラベルオフィスミト,0
1275,5110005003701,登記記録の閉鎖等,0,2024-04-30,2024-04-01,水原商工会,,その他の設立登記法人,新潟県,阿賀野市,中央町２丁目１２番５号,,15,223,9592021,,,2024-04-01,合併による解散等,6110005017072,令和６年４月１日新潟県阿賀野市保田３７２６番地７安田商工会（2110005003704）と新潟県阿賀野市姥ケ橋６６０番地５京ヶ瀬商工会（7110005003708）と新潟県阿賀野市山崎３７９番地笹神商工会（9110005003706）と合併して新潟県阿賀野市中央町二丁目１２番５号阿賀野市商工会（6110005017072）を設立して解散,2015-10-05,1,,,,,スイバラ,0
1280,5120001170701,登記記録の閉鎖等,0,2024-04-30,2024-04-18,株式会社セラハウジング,,株式会社,大阪府,大阪市住吉区,南住吉１丁目１５番１５号,,27,120,5580041,,,2024-04-18,清算の結了等,,,2015-10-05,1,,,,,セラハウジング,0
1281,5120001189519,登記記録の閉鎖等,0,2024-04-30,2024-04-22,株式会社Ｑｒｅａｔｅ,,株式会社,大阪府,大阪市中央区,安土町２丁目２番１５号３階,,27,128,5410052,,,2024-04-22,清算の結了等,,,2015-10-05,1,,,,,クリエイト,0
1303,5120101035829,登記記録の閉鎖等,0,2024-04-30,2024-04-23,株式会社ＬＵＣＫ,,株式会社,大阪府,河内長野市,西之山町１８番１２号,,27,216,5860024,,,2024-04-23,清算の結了等,,,2015-10-05,1,,,,,ラック,0
1318,5150002007940,登記記録の閉鎖等,0,2024-04-30,2024-04-25,ダイドレ物流有限会社,,有限会社,奈良県,磯城郡田原本町,大字千代５８０番地の１,,29,363,6360246,,,2024-04-25,合併による解散等,4120001018141,令和６年４月１日大阪市西区阿波座一丁目１３番１５号ダイドレ株式会社（4120001018141）に合併し解散,2015-10-05,1,,,,,ダイドレブツリュウ,0
1356,5330005005997,登記記録の閉鎖等,0,2024-04-30,2024-04-24,医療法人社団明保会,,その他の設立登記法人,熊本県,八代市,永碇町１３２３番地３,,43,202,8660885,,,2024-04-24,清算の結了等,,,2015-10-05,1,,,,,メイホカイ,0
1371,5430001046886,登記記録の閉鎖等,0,2024-04-30,2024-04-24,北海道日油株式会社,,株式会社,北海道,美唄市,光珠内５４９番地,,01,215,0790167,,,2024-04-24,合併による解散等,9010401022427,令和６年４月１日東京都港区西新橋二丁目３６番１号日本工機株式会社（9010401022427）に合併し解散,2015-10-05,1,,,,,ホッカイドウニチユ,0
1373,5430001066232,登記記録の閉鎖等,0,2024-04-30,2024-04-25,株式会社ホクウン,,株式会社,北海道,札幌市西区,福井２丁目１３番９号,,01,107,0630012,,,2024-04-25,清算の結了等,,,2015-10-05,1,,,,,ホクウン,0
1386,6010001053156,登記記録の閉鎖等,0,2024-04-30,2024-04-11,株式会社日経首都圏印刷,,株式会社,東京都,中央区,日本橋茅場町１丁目７番５号,,13,102,1030025,,,2024-04-11,合併による解散等,9010601030576,令和６年４月１日東京都江東区東雲一丁目１０番５号株式会社日経東京製作センター（9010601030576）に合併し解散,2015-10-05,1,,,,,ニッケイシュトケンインサツ,0
1404,6010003035532,登記記録の閉鎖等,0,2024-04-30,2024-04-15,合同会社東京レジデンシャル７,,合同会社,東京都,中央区,日本橋１丁目４番１号,,13,102,1030027,,,2024-04-15,清算の結了等,,,2021-08-10,1,,,,,トウキョウレジデンシャルセブン,0
1408,6010005032981,登記記録の閉鎖等,0,2024-04-30,2024-04-26,関西１プロパティー特定目的会社,,その他の設立登記法人,東京都,千代田区,丸の内１丁目１１番１号,,13,101,1000005,,,2024-04-26,清算の結了等,,,2021-02-25,1,,,,,カンサイワンプロパティー,0
1409,6010005033402,登記記録の閉鎖等,0,2024-04-30,2024-04-26,一般社団法人日本綜合医学会,,その他の設立登記法人,高知県,高知市,新屋敷２丁目１８番２３号,,39,201,7800911,,,2024-04-26,清算の結了等,,,2021-05-27,1,,,,,ニホンソウゴウイガクカイ,0
1412,6010401116462,登記記録の閉鎖等,0,2024-04-30,2024-04-10,ＩｏＴＢＡＳＥ株式会社,,株式会社,東京都,港区,赤坂１丁目１２－３２,,13,103,1070052,,,2024-04-10,清算の結了等,,,2015-10-05,1,,,,,アイオーティーベース,0
1427,6010701038357,登記記録の閉鎖等,0,2024-04-30,2024-04-09,株式会社Ｑ,,株式会社,東京都,品川区,西五反田２丁目１２－３第一誠実ビル,,13,109,1410031,,,2024-04-09,合併による解散等,1010701004248,令和６年３月３１日東京都品川区西五反田二丁目１２番３号株式会社シー・エス・エス（1010701004248）に合併し解散,2019-10-25,1,,,,,キュー,0
1435,6011001043725,登記記録の閉鎖等,0,2024-04-30,2024-04-24,ハラケー・エム・エス株式会社,,株式会社,神奈川県,伊勢原市,田中９００番地,,14,214,2591142,,,2024-04-24,清算の結了等,,,2015-10-05,1,,,,,ハラケーエムエス,0
1448,6011101045745,登記記録の閉鎖等,0,2024-04-30,2024-04-11,株式会社コアエステート,,株式会社,東京都,新宿区,高田馬場４丁目８番４号,,13,104,1690075,,,2024-04-11,合併による解散等,9011101079988,令和６年４月１日東京都新宿区高田馬場四丁目８番４号株式会社マイケル（9011101079988）に合併し解散,2015-10-05,1,,,,,コアエステート,0
1468,6011603003886,登記記録の閉鎖等,0,2024-04-30,2024-04-25,合同会社ＡＬＬＮＥＷＰＯＲＴＳ,,合同会社,東京都,練馬区,関町東１丁目２５番３号,,13,120,1770052,,,2024-04-25,清算の結了等,,,2023-04-10,1,,,,,オールニューポーツ,0
1469,6011801037397,登記記録の閉鎖等,0,2024-04-30,2024-04-22,丸富久ジョイント株式会社,,株式会社,東京都,足立区,花畑６丁目３４番２号,,13,121,1210061,,,2024-04-22,清算の結了等,,,2020-03-12,1,,,,,マルフクジョイント,0
1483,6020001035888,登記記録の閉鎖等,0,2024-04-30,2024-04-17,株式会社アーキテクノ,,株式会社,神奈川県,横浜市港北区,篠原台町３番地２５－２０５,,14,109,2220024,,,2024-04-17,清算の結了等,,,2015-10-05,1,,,,,アーキテクノ,0
1485,6020001042273,登記記録の閉鎖等,0,2024-04-30,2024-04-19,株式会社六面堂,,株式会社,神奈川県,横浜市中区,尾上町６丁目８６番地１関内マークビル９階,,14,104,2310015,,,2024-04-19,清算の結了等,,,2015-10-05,1,,,,,ロクメンドウ,0
1486,6020001097078,登記記録の閉鎖等,0,2024-04-30,2024-04-18,株式会社ビー・エフ・イー,,株式会社,神奈川県,横浜市瀬谷区,橋戸１丁目３９番地１,,14,114,2460037,,,2024-04-18,清算の結了等,,,2015-10-05,1,,,,,ビーエフイー,0
1494,6020001133444,登記記録の閉鎖等,0,2024-04-30,2024-04-12,インターネットコンサルティング株式会社,,株式会社,神奈川県,横浜市西区,みなとみらい３丁目６番３号ＭＭパークビル１１階,,14,103,2200012,,,2024-04-12,合併による解散等,6020001092442,令和６年４月１日神奈川県横浜市西区みなとみらい三丁目６番３号Ｆｏｏｎｚ株式会社（6020001092442）に合併し解散,2019-11-01,1,,,,,インターネットコンサルティング,0
1541,6080001002123,登記記録の閉鎖等,0,2024-04-30,2024-04-15,昭和興業株式会社,,株式会社,静岡県,静岡市駿河区,寺田７番地,,22,102,4210137,,,2024-04-15,合併による解散等,7010001059565,令和６年４月１日東京都中央区日本橋本町二丁目２番２号ヤマト科学株式会社（7010001059565）に合併し解散,2015-10-05,1,,,,,ショウワコウギョウ,0
1543,6080002006379,登記記録の閉鎖等,0,2024-04-30,2024-04-18,有限会社ワダチエンジニアリング,,有限会社,静岡県,静岡市葵区,南沼上２丁目４番３号,,22,101,4200905,,,2024-04-18,清算の結了等,,,2015-10-05,1,,,,,ワダチエンジニアリング,0
1544,6080002013012,登記記録の閉鎖等,0,2024-04-30,2024-04-18,有限会社佐藤新聞店,,有限会社,静岡県,静岡市清水区,蒲原中５４８番地の２,,22,103,4213213,,,2024-04-18,清算の結了等,,,2015-10-05,1,,,,,,0
1556,6110001030830,登記記録の閉鎖等,0,2024-04-30,2024-04-24,株式会社浜浦倶楽部,,株式会社,新潟県,新潟市中央区,浜浦町２丁目４７番地２,,15,103,9518151,,,2024-04-24,清算の結了等,,,2015-10-05,1,,,,,ハマウラクラブ,0
1583,6130005013251,登記記録の閉鎖等,0,2024-04-30,2024-04-25,特定非営利活動法人国土利用再編研究所,,その他の設立登記法人,京都府,京都市左京区,一乗寺南大丸町５８番地３一乗寺ビル２Ｆ,,26,103,6068186,,,2024-04-25,清算の結了等,,,2015-10-05,1,,,,,,0
1592,6150001020968,登記記録の閉鎖等,0,2024-04-30,2024-04-26,株式会社アイベック,,株式会社,奈良県,大和高田市,曙町１１番５号,,29,202,6350012,,,2024-04-26,清算の結了等,,,2016-09-13,1,,,,,アイベック,0
1605,6180301033056,登記記録の閉鎖等,0,2024-04-30,2024-04-19,株式会社ＬＥＶＥＬＹ,,株式会社,愛知県,岡崎市,大門３丁目７番地３・２Ｆ,,23,202,4442135,,,2024-04-19,清算の結了等,,,2019-10-23,1,,,,,レヴェリー,0
1607,6180302006911,登記記録の閉鎖等,0,2024-04-30,2024-04-17,有限会社オンテックサービス,,有限会社,愛知県,豊橋市,一色町字天獏１３番地の２,,23,201,4418148,,,2024-04-17,清算の結了等,,,2015-10-05,1,,,,,オンテックサービス,0
1610,6190001009693,登記記録の閉鎖等,0,2024-04-30,2024-04-24,株式会社ネクサス,,株式会社,三重県,名張市,八幡１２４７番地１,,24,208,5180605,,,2024-04-24,清算の結了等,,,2015-10-05,1,,,,,ネクサス,0
1621,6220001008519,登記記録の閉鎖等,0,2024-04-30,2024-04-15,エフエムジー株式会社,,株式会社,石川県,金沢市,新神田２丁目１３番６号,,17,201,9218013,,,2024-04-15,清算の結了等,,,2015-10-05,1,,,,,,0
1641,6290801016268,登記記録の閉鎖等,0,2024-04-30,2024-04-19,株式会社アイエムプランニング,,株式会社,福岡県,田川市,桜町２番１９号,,40,206,8260021,,,2024-04-19,清算の結了等,,,2015-10-05,1,,,,,アイエムプランニング,0
1660,6350002002615,登記記録の閉鎖等,0,2024-04-30,2024-04-24,有限会社大光電設,,有限会社,宮崎県,宮崎市,大字柏原２１１番地１,,45,201,8802111,,,2024-04-24,清算の結了等,,,2015-10-05,1,,,,,ダイコウデンセツ,0
1665,6370003004237,登記記録の閉鎖等,0,2024-04-30,2024-04-19,合同会社毬コーポレーション,,合同会社,宮城県,仙台市青葉区,春日町７番１号ＭＦＰＲコート晩翠通り地下１階,,04,101,9800821,,,2024-04-19,清算の結了等,,,2018-08-30,1,,,,,マリコーポレーション,0
1666,6370302001728,登記記録の閉鎖等,0,2024-04-30,2024-04-18,有限会社百々工務店,,有限会社,宮城県,石巻市,須江字沢尻８番地,,04,202,9871221,,,2024-04-18,清算の結了等,,,2015-10-05,1,,,,,ドドコウムテン,0
1680,6430001033479,登記記録の閉鎖等,0,2024-04-30,2024-04-19,株式会社札幌三井,,株式会社,北海道,北広島市,仁別２４３番地９,,01,234,0611267,,,2024-04-19,清算の結了等,,,2015-10-05,1,,,,,サッポロミツイ,0
1686,6430002019469,登記記録の閉鎖等,0,2024-04-30,2024-04-23,有限会社箕田,,有限会社,北海道,札幌市南区,藤野三条２丁目１番２０号,,01,106,0612283,,,2024-04-23,清算の結了等,,,2015-10-05,1,,,,,ミノダ,0
1687,6430003005105,登記記録の閉鎖等,0,2024-04-30,2024-04-25,合同会社フューチャードリーム,,合同会社,北海道,札幌市北区,北二十八条西８丁目２番１号,,01,102,0010028,,,2024-04-25,清算の結了等,,,2015-10-05,1,,,,,フューチャードリーム,0
1691,6470002000037,登記記録の閉鎖等,0,2024-04-30,2024-04-19,有限会社田中組,,有限会社,香川県,香川郡直島町,４０５１番地,,37,364,7613110,,,2024-04-19,清算の結了等,,,2015-10-05,1,,,,,タナカグミ,0
1700,6490002004754,登記記録の閉鎖等,0,2024-04-30,2024-04-11,有限会社前田金物,,有限会社,高知県,高知市,塩屋崎町１丁目４番７号,,39,201,7808014,,,2024-04-11,清算の結了等,,,2015-10-05,1,,,,,マエダカナモノ,0
1711,7010001195988,登記記録の閉鎖等,0,2024-04-30,2024-04-15,株式会社アンドライフ,,株式会社,東京都,中央区,晴海３丁目１０番１号,,13,102,1040053,,,2024-04-15,清算の結了等,,,2018-11-01,1,,,,,アンドライフ,0
1716,7010002025327,登記記録の閉鎖等,0,2024-04-30,2024-04-15,有限会社マルミヤ薬局,,有限会社,東京都,中央区,日本橋小伝馬町３番７号,,13,102,1030001,,,2024-04-15,清算の結了等,,,2015-10-05,1,,,,,マルミヤヤッキョク,0
1718,7010002043394,登記記録の閉鎖等,0,2024-04-30,2024-04-16,有限会社システムエスアイ,,有限会社,東京都,文京区,本駒込５丁目５８番７号,,13,105,1130021,,,2024-04-16,清算の結了等,,,2015-10-05,1,,,,,システムエスアイ,0
1723,7010401040190,登記記録の閉鎖等,0,2024-04-30,2024-04-16,株式会社ドリームキッズ・ネットワーク,,株式会社,東京都,港区,南青山２丁目９番２３号,,13,103,1070062,,,2024-04-16,合併による解散等,6011101063318,令和６年４月１日東京都中央区日本橋３－１２－２朝日ビルヂング４Ｆ－Ａ、ＳＯＵキッズケア株式会社（6011101063318）に合併し解散,2015-10-05,1,,,,,ドリームキッズネットワーク,0
1771,7011803002695,登記記録の閉鎖等,0,2024-04-30,2024-04-18,ｓｏｋｏｍｏ合同会社,,合同会社,東京都,葛飾区,堀切７丁目２５番１５号,,13,122,1240006,,,2024-04-18,清算の結了等,,,2016-12-06,1,,,,,ソコモ,0
1773,7012801004477,登記記録の閉鎖等,0,2024-04-30,2024-04-12,エイチディーエス株式会社,,株式会社,東京都,西多摩郡瑞穂町,大字殿ケ谷８０９番地１,,13,303,1901212,,,2024-04-12,合併による解散等,8012801003073,令和６年４月１日東京都昭島市美堀町四丁目３番１号つばさモビリティ株式会社（8012801003073）に合併し解散,2015-10-05,1,,,,,エイチディーエス,0
1786,7020001102596,登記記録の閉鎖等,0,2024-04-30,2024-04-19,株式会社玉川企画,,株式会社,神奈川県,横浜市金沢区,釜利谷東３丁目１４番５号,,14,108,2360042,,,2024-04-19,清算の結了等,,,2015-10-05,1,,,,,タマガワキカク,0
1787,7020001113949,登記記録の閉鎖等,0,2024-04-30,2024-04-18,株式会社エイト,,株式会社,神奈川県,横浜市港北区,篠原東２丁目１６番１１号,,14,109,2220022,,,2024-04-18,清算の結了等,,,2015-12-11,1,,,,,エイト,0
1791,7020002031729,登記記録の閉鎖等,0,2024-04-30,2024-04-18,有限会社睦産業,,有限会社,神奈川県,横浜市南区,睦町１丁目５番地の３,,14,105,2320041,,,2024-04-18,清算の結了等,,,2015-10-05,1,,,,,ムツミサンギョウ,0
1809,7040002018880,登記記録の閉鎖等,0,2024-04-30,2024-04-16,有限会社美術同人社,,有限会社,千葉県,習志野市,秋津３丁目２番１－４号,,12,216,2750025,,,2024-04-16,清算の結了等,,,2015-10-05,1,,,,,ビジュツドウジンシャ,0
1810,7040002045017,登記記録の閉鎖等,0,2024-04-30,2024-04-16,笠原発条有限会社,,有限会社,千葉県,松戸市,大橋１１０５番地,,12,207,2702224,,,2024-04-16,清算の結了等,,,2015-10-05,1,,,,,カサハラハツジョウ,0
1813,7040005016824,登記記録の閉鎖等,0,2024-04-30,2024-04-15,公益財団法人習志野文化ホール,,その他の設立登記法人,千葉県,習志野市,谷津１丁目１６番１号,,12,216,2750026,,,2024-04-15,合併による解散等,3040005016844,令和６年４月１日千葉県習志野市袖ケ浦五丁目１番１号公益財団法人習志野市スポーツ振興協会（3040005016844）に合併し解散,2015-10-05,1,,,,,ナラシノブンカホール,0
1822,7060005005189,登記記録の閉鎖等,0,2024-04-30,2024-04-19,特定非営利活動法人ワーカーズ・コレクティブたすけあい大地,,その他の設立登記法人,栃木県,小山市,八幡町２丁目３番１５号,,09,208,3230031,,,2024-04-19,清算の結了等,,,2015-10-05,1,,,,,ワーカーズコレクティブタスケアイダイチ,0
1823,7060005007301,登記記録の閉鎖等,0,2024-04-30,2024-04-22,栃木県インターロッキングブロック協同組合,,その他の設立登記法人,栃木県,宇都宮市,平出工業団地４５番地２,,09,201,3210905,,,2024-04-22,清算の結了等,,,2015-10-05,1,,,,,トチギケンインターロッキングブロック,0
1824,7070001009498,登記記録の閉鎖等,0,2024-04-30,2024-04-23,東京音響株式会社,,株式会社,群馬県,高崎市,菅谷町２０番地６５５,,10,202,3703522,,,2024-04-23,清算の結了等,,,2015-10-05,1,,,,,トウキョウオンキョウ,0
1831,7100002001376,登記記録の閉鎖等,0,2024-04-30,2024-04-11,有限会社キャドデン,,有限会社,長野県,長野市,大字南長池６８７番地５,,20,201,3810024,,,2024-04-11,清算の結了等,,,2015-10-05,1,,,,,キャドデン,0
1832,7100002031729,登記記録の閉鎖等,0,2024-04-30,2024-04-11,有限会社プラスワンビジネス,,有限会社,長野県,岡谷市,天竜町１丁目１番１号野村ビル,,20,204,3940035,,,2024-04-11,清算の結了等,,,2015-10-05,1,,,,,プラスワンビジネス,0
1837,7110005003708,登記記録の閉鎖等,0,2024-04-30,2024-04-01,京ヶ瀬商工会,,その他の設立登記法人,新潟県,阿賀野市,姥ヶ橋６６０番地５,,15,223,9592123,,,2024-04-01,合併による解散等,6110005017072,令和６年４月１日新潟県阿賀野市保田３７２６番地７安田商工会（2110005003704）と新潟県阿賀野市中央町二丁目１２番５号水原商工会（5110005003701）と新潟県阿賀野市山崎３７９番地笹神商工会（9110005003706）と合併して新潟県阿賀野市中央町二丁目１２番５号阿賀野市商工会（6110005017072）を設立し解散,2015-10-05,1,,,,,キョウガセ,0
1845,7120003024936,登記記録の閉鎖等,0,2024-04-30,2024-04-09,合同会社ＵＮＩＵＮＩ,,合同会社,大阪府,大阪市都島区,友渕町１丁目７ベルパークシティＡ棟１３０４号,,27,102,5340016,,,2024-04-09,清算の結了等,,,2023-09-14,1,,,,,ウニウニ,0
1853,7122001020784,登記記録の閉鎖等,0,2024-04-30,2024-04-25,株式会社ヴェルデ,,株式会社,大阪府,柏原市,大正３丁目４番７号,,27,221,5820009,,,2024-04-25,合併による解散等,7120001142285,令和６年４月１日大阪市住吉区苅田七丁目１１番１０号平元ハイツ１Ｆ株式会社厚生（7120001142285）に合併し解散,2015-10-05,1,,,,,ヴェルデ,0
1857,7140001026404,登記記録の閉鎖等,0,2024-04-30,2024-04-23,トリニティフェニックス株式会社,,株式会社,兵庫県,姫路市,御国野町国分寺２０８番地１,,28,201,6710234,,,2024-04-23,清算の結了等,,,2015-10-05,1,,,,,トリニティフェニックス,0
1868,7150003000744,登記記録の閉鎖等,0,2024-04-30,2024-04-19,合同会社渡邉富男商事,,合同会社,大阪府,大阪市東住吉区,照ケ丘矢田３丁目９－２２－２０６号,,27,121,5460021,,,2024-04-19,清算の結了等,,,2015-10-05,1,,,,,ワタナベトミオショウジ,0
1874,7170001012112,登記記録の閉鎖等,0,2024-04-30,2024-04-26,株式会社生駒管工,,株式会社,和歌山県,和歌山市,松江１５５６番地５８,,30,201,6408421,,,2024-04-26,清算の結了等,,,2015-10-05,1,,,,,イコマカンコウ,0
1883,7180002085783,登記記録の閉鎖等,0,2024-04-30,2024-04-16,有限会社快生薬局,,有限会社,愛知県,知多郡美浜町,大字河和字南屋敷６７番地,,23,446,4702408,,,2024-04-16,清算の結了等,,,2015-10-05,1,,,,,カイセイヤッキョク,0
1887,7180301004898,登記記録の閉鎖等,0,2024-04-30,2024-04-17,株式会社アイム,,株式会社,愛知県,豊橋市,神野新田町字ハノ割３３番地１０,,23,201,4418077,,,2024-04-17,清算の結了等,,,2015-10-05,1,,,,,アイム,0
1898,7190002010113,登記記録の閉鎖等,0,2024-04-30,2024-04-22,有限会社セントラル厨房,,有限会社,三重県,度会郡玉城町,佐田１８１７番地,,24,461,5190414,,,2024-04-22,清算の結了等,,,2015-10-05,1,,,,,セントラルチュウボウ,0
1901,7190005008823,登記記録の閉鎖等,0,2024-04-30,2024-04-22,四日市商工共済協同組合,,その他の設立登記法人,三重県,四日市市,諏訪町２番５号四日市商工会議所内,,24,202,5100085,,,2024-04-22,清算の結了等,,,2023-10-23,1,,,,,,0
1919,7300005005577,登記記録の閉鎖等,0,2024-04-30,2024-04-25,医療法人もりながクリニック,,その他の設立登記法人,佐賀県,唐津市,浜玉町浜崎６１１番地２,,41,202,8495131,,,2024-04-25,清算の結了等,,,2015-10-05,1,,,,,モリナガクリニック,0
1920,7310002016741,登記記録の閉鎖等,0,2024-04-30,2024-04-25,株式会社ミクト,,株式会社,長崎県,諫早市,小船越町５６１番１,,42,204,8540062,,,2024-04-25,清算の結了等,,,2015-10-05,1,,,,,ミクト,0
1927,7350001010287,登記記録の閉鎖等,0,2024-04-30,2024-04-23,株式会社啓吉工務店,,株式会社,宮崎県,宮崎市,田野町甲４３１８番地１,,45,201,8891701,,,2024-04-23,清算の結了等,,,2015-10-05,1,,,,,ヒロヨシコウムテン,0
1928,7370001000848,登記記録の閉鎖等,0,2024-04-30,2024-04-19,株式会社センシン技術,,株式会社,宮城県,仙台市青葉区,荒巻中央１５番２７－１０７号,,04,101,9810964,,,2024-04-19,清算の結了等,,,2015-10-05,1,,,,,センシンギジュツ,0
1930,7370801000188,登記記録の閉鎖等,0,2024-04-30,2024-04-22,東北通信サービス株式会社,,株式会社,宮城県,名取市,増田５丁目１８番８号,,04,207,9811224,,,2024-04-22,清算の結了等,,,2015-10-05,1,,,,,トウホクツウシンサービス,0
1934,7380002008393,登記記録の閉鎖等,0,2024-04-30,2024-04-22,有限会社大伴,,有限会社,福島県,郡山市,虎丸町２０番１０号,,07,203,9638014,,,2024-04-22,清算の結了等,,,2015-10-05,1,,,,,オオトモ,0
1937,7390002005266,登記記録の閉鎖等,0,2024-04-30,2024-04-17,有限会社梅津自動車,,有限会社,山形県,天童市,東長岡４丁目１番１７号,,06,210,9940063,,,2024-04-17,清算の結了等,,,2015-10-05,1,,,,,,0
1943,7430001036506,登記記録の閉鎖等,0,2024-04-30,2024-04-18,株式会社ノース東武,,株式会社,北海道,札幌市東区,東雁来七条１丁目１３番２５号,,01,103,0070827,,,2024-04-18,清算の結了等,,,2015-10-05,1,,,,,ノーストウブ,0
1955,7470002005175,登記記録の閉鎖等,0,2024-04-30,2024-04-18,日本健康産業有限会社,,有限会社,香川県,高松市,西内町４番６号,,37,201,7600022,,,2024-04-18,清算の結了等,,,2015-10-05,1,,,,,ニホンケンコウサンギョウ,0
1977,8010003034929,登記記録の閉鎖等,0,2024-04-30,2024-04-15,合同会社ＮＲＴグロース１７,,合同会社,東京都,中央区,八丁堀４丁目２番１０号ＡＯＪ税理士法人内,,13,102,1040032,,,2024-04-15,清算の結了等,,,2021-06-07,1,,,,,エヌアールティーグロースセブンティーン,0
1978,8010003035407,登記記録の閉鎖等,0,2024-04-30,2024-04-15,シカゴプロパティー合同会社,,合同会社,東京都,千代田区,丸の内１丁目１１番１号,,13,101,1000005,,,2024-04-15,清算の結了等,,,2021-07-27,1,,,,,シカゴプロパティー,0
1980,8010101002300,登記記録の閉鎖等,0,2024-04-30,2024-04-24,田口石油株式会社,,株式会社,東京都,あきる野市,油平１９３番地１,,13,228,1970827,,,2024-04-24,合併による解散等,4460101000213,令和６年４月１日北海道帯広市東四条南十丁目２番地株式会社オカモト（4460101000213）に合併し解散,2015-10-05,1,,,,,タグチセキユ,0
2013,8011101096134,登記記録の閉鎖等,0,2024-04-30,2024-04-16,ＧＣマネジメント株式会社,,株式会社,東京都,新宿区,下落合３丁目２２番１８号,,13,104,1610033,,,2024-04-16,清算の結了等,,,2021-09-01,1,,,,,ジーシーマネジメント,0
2058,8021002058281,登記記録の閉鎖等,0,2024-04-30,2024-04-25,有限会社ショウサン,,有限会社,神奈川県,平塚市,田村４丁目９番１１号,,14,203,2540013,,,2024-04-25,清算の結了等,,,2015-10-05,1,,,,,ショウサン,0
2075,8030005009992,登記記録の閉鎖等,0,2024-04-30,2024-04-18,特定非営利活動法人生活サポートわかば,,その他の設立登記法人,埼玉県,鴻巣市,吹上本町４丁目８番１４号,,11,217,3690115,,,2024-04-18,清算の結了等,,,2015-10-05,1,,,,,セイカツサポートワカバ,0
2076,8040001098758,登記記録の閉鎖等,0,2024-04-30,2024-04-17,株式会社シルク,,株式会社,千葉県,千葉市美浜区,真砂３丁目１２番６棟２０５号,,12,106,2610011,,,2024-04-17,清算の結了等,,,2017-02-07,1,,,,,シルク,0
2087,8070001035452,登記記録の閉鎖等,0,2024-04-30,2024-04-24,設楽印刷株式会社,,株式会社,群馬県,伊勢崎市,宮子町３２９９番地１,,10,204,3720801,,,2024-04-24,清算の結了等,,,2019-02-05,1,,,,,シタラインサツ,0
2093,8080102009882,登記記録の閉鎖等,0,2024-04-30,2024-04-12,有限会社片岡建設,,有限会社,静岡県,駿東郡長泉町,下長窪１１５２番地の４,,22,342,4110934,,,2024-04-12,合併による解散等,4080101016339,令和６年４月１日静岡県沼津市東椎路１２番地株式会社サンウッド（4080101016339）に合併し解散,2015-10-05,1,,,,,カタオカケンセツ,0
2097,8100001036736,登記記録の閉鎖等,0,2024-04-30,2024-04-11,株式会社ｃｏ‐ｃｒｅａｔｉｏｎ　ｉｉｄａ,,株式会社,長野県,飯田市,嶋３１０番地１,,20,205,3992566,,,2024-04-11,清算の結了等,,,2023-09-06,1,,,,,コークリエイションイイダ,0
2100,8120001003767,登記記録の閉鎖等,0,2024-04-30,2024-04-23,大和ケース株式会社,,株式会社,大阪府,大阪市西成区,橘１丁目４番２１号,,27,122,5570051,,,2024-04-23,清算の結了等,,,2015-10-05,1,,,,,ダイワケース,0
2124,8130001041808,登記記録の閉鎖等,0,2024-04-30,2024-04-25,株式会社トーヨーコーポレーション,,株式会社,京都府,綾部市,栗町花貝１番地,,26,203,6230222,,,2024-04-25,合併による解散等,1120001026618,令和６年４月１日大阪市西淀川区福町三丁目１－５３株式会社トーヨーシューズ（1120001026618）に合併し解散,2015-10-05,1,,,,,トーヨーコーポレーション,0
2141,8180001007440,登記記録の閉鎖等,0,2024-04-30,2024-04-16,丸長自動車陸送株式会社,,株式会社,愛知県,名古屋市港区,当知２丁目１５０６番地,,23,111,4550804,,,2024-04-16,清算の結了等,,,2024-03-26,1,,,,,マルチョウジドウシャリクソウ,0
2143,8180001064135,登記記録の閉鎖等,0,2024-04-30,2024-04-15,株式会社アシスト,,株式会社,愛知県,名古屋市南区,六条町４丁目１１７番地,,23,112,4570853,,,2024-04-15,清算の結了等,,,2015-10-05,1,,,,,アシスト,0
2144,8180001104428,登記記録の閉鎖等,0,2024-04-30,2024-04-16,株式会社ＫＵＵ・ＫＡＮ,,株式会社,愛知県,名古屋市守山区,翠松園２丁目２４０９番地,,23,113,4630010,,,2024-04-16,清算の結了等,,,2015-10-05,1,,,,,クウカン,0
2153,8180003023072,登記記録の閉鎖等,0,2024-04-30,2024-04-17,合同会社ＮＡＺＡＲＥ商店,,合同会社,愛知県,名古屋市名東区,貴船３丁目３０５番地１０１,,23,115,4650058,,,2024-04-17,清算の結了等,,,2021-10-08,1,,,,,ナザレショウテン,0
2156,8180302015365,登記記録の閉鎖等,0,2024-04-30,2024-04-18,有限会社クラフト,,有限会社,愛知県,蒲郡市,西浦町赤冗１０番地の１,00075046,23,214,4430105,,,2024-04-18,清算の結了等,,,2015-10-05,1,,,,,クラフト,0
2159,8180303005175,登記記録の閉鎖等,0,2024-04-30,2024-04-23,ｐｌｕｇ＆ｗｏｒｋハタヤ合同会社,,合同会社,愛知県,みよし市,黒笹いずみ３丁目１３番地８,,23,236,4700232,,,2024-04-23,清算の結了等,,,2021-11-19,1,,,,,,0
2162,8190002014699,登記記録の閉鎖等,0,2024-04-30,2024-04-24,有限会社ワープ,,有限会社,三重県,松阪市,小黒田町５４２番地の９,,24,204,5150062,,,2024-04-24,清算の結了等,,,2015-10-05,1,,,,,ワープ,0
2167,8200005012335,登記記録の閉鎖等,0,2024-04-30,2024-04-25,一般社団法人やひろもったいない研究所,,その他の設立登記法人,岐阜県,美濃加茂市,森山町１丁目８番１１号,,21,211,5050021,,,2024-04-25,清算の結了等,,,2015-10-05,1,,,,,ヤヒロモッタイナイケンキュウショ,0
2168,8210001008773,登記記録の閉鎖等,0,2024-04-30,2024-04-24,株式会社ＭＡＥＤＡ企画,,株式会社,福井県,福井市,月見４丁目４番１５号,,18,201,9188011,,,2024-04-24,清算の結了等,,,2015-10-05,1,,,,,マエダキカク,0
2169,8220002000183,登記記録の閉鎖等,0,2024-04-30,2024-04-19,有限会社ナコ,,有限会社,石川県,白山市,鶴来下東町カ７８番地,,17,210,9202128,,,2024-04-19,清算の結了等,,,2015-10-05,1,,,,,ナコ,0
2172,8240001046507,登記記録の閉鎖等,0,2024-04-30,2024-04-25,株式会社藤本組,,株式会社,広島県,広島市南区,的場町２丁目６番７号,,34,103,7320824,,,2024-04-25,清算の結了等,,,2015-10-05,1,,,,,フジモトグミ,0
2181,8280002007735,登記記録の閉鎖等,0,2024-04-30,2024-04-24,有限会社仁万屋,,有限会社,島根県,大田市,大田町大田ハ１８７番地,,32,205,6940064,,,2024-04-24,清算の結了等,,,2015-10-05,1,,,,,ニマヤ,0
2189,8290802003429,登記記録の閉鎖等,0,2024-04-30,2024-04-25,有限会社スコーレ,,有限会社,福岡県,北九州市小倉北区,井堀３丁目２番１号,,40,106,8030835,,,2024-04-25,清算の結了等,,,2015-10-05,1,,,,,スコーレ,0
2203,8350002010905,登記記録の閉鎖等,0,2024-04-30,2024-04-18,有限会社日向マイカーセンター,,有限会社,宮崎県,日向市,鶴町３丁目２７番地,,45,206,8830052,,,2024-04-18,清算の結了等,,,2015-10-05,1,,,,,ヒュウガマイカーセンター,0
2221,8402702000023,登記記録の閉鎖等,0,2024-04-30,2024-04-11,有限会社石川ガス,,有限会社,岩手県,大船渡市,盛町字二本枠２３番地４,,03,203,0220003,,,2024-04-11,合併による解散等,6370001012745,令和６年４月１日仙台市青葉区国分町三丁目６番１号仙台パークビル、ミライフ東日本株式会社（6370001012745）に合併し解散,2015-10-05,1,,,,,イシカワガス,0
2222,8410001009198,登記記録の閉鎖等,0,2024-04-30,2024-04-01,株式会社田園,,株式会社,秋田県,横手市,雄物川町東里字東里北８番地,,05,203,0130203,,,2024-04-01,合併による解散等,7410001009083,令和６年４月１日秋田県横手市平鹿町下鍋倉字下六ツ段１３２番地１株式会社菅与（7410001009083）に合併し解散,2015-10-05,1,,,,,デンエン,0
2225,8430001048426,登記記録の閉鎖等,0,2024-04-30,2024-04-23,大一高速運輸株式会社,,株式会社,北海道,滝川市,流通団地２丁目３番２８号,,01,225,0730025,,,2024-04-23,清算の結了等,,,2015-10-05,1,,,,,ダイイチコウソクウンユ,0
2241,8460402000189,登記記録の閉鎖等,0,2024-04-30,2024-04-25,有限会社隅田漁業,,有限会社,北海道,根室市,定基町２丁目４番地,,01,223,0870047,,,2024-04-25,清算の結了等,,,2015-10-05,1,,,,,スミタギョギョウ,0
2263,9010002016761,登記記録の閉鎖等,0,2024-04-30,2024-04-15,有限会社一居商店,,有限会社,東京都,中央区,日本橋人形町３丁目２番１０号,,13,102,1030013,,,2024-04-15,清算の結了等,,,2015-10-05,1,,,,,イチイショウテン,0
2279,9010501045897,登記記録の閉鎖等,0,2024-04-30,2024-04-19,ミックスピース株式会社,,株式会社,東京都,台東区,小島２丁目２１－１６足立総業ビル２階,,13,106,1110056,,,2024-04-19,清算の結了等,,,2020-06-29,1,,,,,ミックスピース,0
2286,9010801003695,登記記録の閉鎖等,0,2024-04-30,2024-04-18,光永産業株式会社,,株式会社,東京都,大田区,矢口３丁目８番２５号,,13,111,1460093,,,2024-04-18,清算の結了等,,,2015-10-05,1,,,,,ミツナガサンギョウ,0
2290,9010901041901,登記記録の閉鎖等,0,2024-04-30,2024-04-22,株式会社Ｍａｈａｒｏｔｙ’ｓ＆Ｍ,,株式会社,東京都,世田谷区,深沢１丁目１１番８号ラヴィーニュ深沢Ｂ１,,13,112,1580081,,,2024-04-22,清算の結了等,,,2018-04-17,1,,,,,マハロティーズアンドエム,0
2313,9011602007266,登記記録の閉鎖等,0,2024-04-30,2024-04-22,有限会社徳丸屋,00056270,有限会社,東京都,練馬区,桜台４丁目１１番１５号,,13,120,1760002,,,2024-04-22,清算の結了等,,,2015-10-05,1,,,,,トクマルヤ,0
2316,9012401002152,登記記録の閉鎖等,0,2024-04-30,2024-04-12,株式会社サンエンジニアリング,,株式会社,東京都,調布市,小島町３丁目６６番地９,,13,208,1820026,,,2024-04-12,合併による解散等,3410001012891,令和６年４月１日秋田県秋田市河辺戸島字七曲台１２０番地１０２第一電材エレクトロニクス株式会社（3410001012891）に合併し解散,2015-10-05,1,,,,,サンエンジニアリング,0
2342,9020002018699,登記記録の閉鎖等,0,2024-04-30,2024-04-19,有限会社コスモス,,有限会社,神奈川県,横浜市泉区,和泉中央北３丁目６番－１号,,14,116,2450024,,,2024-04-19,清算の結了等,,,2015-10-05,1,,,,,コスモス,0
2343,9020002019268,登記記録の閉鎖等,0,2024-04-30,2024-04-22,有限会社タンタン,,有限会社,神奈川県,横浜市港南区,上大岡西１丁目１９番１３号,,14,111,2330002,,,2024-04-22,清算の結了等,,,2015-10-05,1,,,,,タンタン,0
2344,9020002029515,登記記録の閉鎖等,0,2024-04-30,2024-04-22,有限会社鎌倉苑,,有限会社,神奈川県,横浜市南区,井土ケ谷上町２９番９号,,14,105,2320051,,,2024-04-22,清算の結了等,,,2015-10-05,1,,,,,カマクラエン,0
2347,9020002094996,登記記録の閉鎖等,0,2024-04-30,2024-04-22,有限会社ボーイミュージック,,有限会社,神奈川県,川崎市麻生区,上麻生４丁目２３番５号,,14,137,2150021,,,2024-04-22,清算の結了等,,,2015-10-05,1,,,,,ボーイミュージック,0
2360,9030002008170,登記記録の閉鎖等,0,2024-04-30,2024-04-22,有限会社肉のたかはし,,有限会社,埼玉県,さいたま市浦和区,常盤３丁目６番７－５０１号,,11,107,3300061,,,2024-04-22,清算の結了等,,,2015-10-05,1,,,,,ニクノタカハシ,0
2384,9060002030155,登記記録の閉鎖等,0,2024-04-30,2024-04-22,有限会社なかだ,,有限会社,栃木県,小山市,犬塚２丁目１番地１２,,09,208,3230811,,,2024-04-22,清算の結了等,,,2015-10-05,1,,,,,ナカダ,0
2386,9070001017490,登記記録の閉鎖等,0,2024-04-30,2024-04-25,株式会社石田内装工事,,株式会社,群馬県,渋川市,半田１５０６番地の１,,10,208,3770004,,,2024-04-25,清算の結了等,,,2015-10-05,1,,,,,イシダナイソウコウジ,0
2391,9080001009000,登記記録の閉鎖等,0,2024-04-30,2024-04-18,富士橋梁株式会社,,株式会社,静岡県,静岡市清水区,八坂東２丁目１２番３３号,,22,103,4240024,,,2024-04-18,清算の結了等,,,2015-10-05,1,,,,,フジキョウリョウ,0
2394,9100003005548,登記記録の閉鎖等,0,2024-04-30,2024-04-23,ライザーベース合同会社,,合同会社,神奈川県,小田原市,栄町２丁目１２番３号サングレイス小田原,,14,206,2500011,,,2024-04-23,清算の結了等,,,2020-01-20,1,,,,,ライザーベース,0
2395,9110005003706,登記記録の閉鎖等,0,2024-04-30,2024-04-01,笹神商工会,,その他の設立登記法人,新潟県,阿賀野市,山崎３７９番地,,15,223,9591919,,,2024-04-01,合併による解散等,6110005017072,令和６年４月１日新潟県阿賀野市保田３７２６番地７安田商工会（2110005003704）と新潟県阿賀野市姥ケ橋６６０番地５京ヶ瀬商工会（7110005003708）と新潟県阿賀野市中央町二丁目１２番５号水原商工会（5110005003701）と合併して新潟県阿賀野市中央町二丁目１２番５号阿賀野市商工会（6110005017072）を設立して解散,2015-10-05,1,,,,,ササカミ,0
2399,9120001027204,登記記録の閉鎖等,0,2024-04-30,2024-04-18,株式会社越智工務店,,株式会社,大阪府,大阪市大正区,泉尾１丁目３３番１６号,,27,108,5510031,,,2024-04-18,清算の結了等,,,2015-10-05,1,,,,,オチコウムテン,0
2402,9120001156119,登記記録の閉鎖等,0,2024-04-30,2024-04-22,株式会社フジフード,,株式会社,大阪府,守口市,八雲中町２丁目７番８号,,27,209,5700005,,,2024-04-22,清算の結了等,,,2015-10-05,1,,,,,フジフード,0
2405,9120001233834,登記記録の閉鎖等,0,2024-04-30,2024-04-22,ＤＡＹＳＰＲＩＮＧ株式会社,,株式会社,大阪府,大阪市西区,江戸堀２丁目１番１号江戸堀センタービルＢ１階,,27,106,5500002,,,2024-04-22,清算の結了等,,,2020-12-21,1,,,,,デイスプリング,0
2431,9180001018511,登記記録の閉鎖等,0,2024-04-30,2024-04-17,株式会社ペンシルポートカンパニー,,株式会社,愛知県,名古屋市東区,矢田１丁目２６番６８号,,23,102,4610040,,,2024-04-17,清算の結了等,,,2015-10-05,1,,,,,ペンシルポートカンパニー,0
2443,9180302020001,登記記録の閉鎖等,0,2024-04-30,2024-04-19,有限会社コスモエージェンシー,,有限会社,愛知県,碧南市,植出町５丁目１番地,,23,209,4470047,,,2024-04-19,清算の結了等,,,2015-10-05,1,,,,,コスモエージェンシー,0
2448,9190003004178,登記記録の閉鎖等,0,2024-04-30,2024-04-23,合同会社北村配送サービス,,合同会社,三重県,津市,戸木町４１５２―３０５,,24,201,5141138,,,2024-04-23,清算の結了等,,,2022-12-22,1,,,,,キタムラハイソウサービス,0
2452,9220001007006,登記記録の閉鎖等,0,2024-04-30,2024-04-15,株式会社村本建設,,株式会社,石川県,金沢市,上荒屋５丁目４４１番地,,17,201,9218065,,,2024-04-15,清算の結了等,,,2015-10-05,1,,,,,,0
2454,9230001011213,登記記録の閉鎖等,0,2024-04-30,2024-04-23,株式会社エイワ,,株式会社,富山県,高岡市,福岡町大滝１６０番地,,16,202,9390132,,,2024-04-23,合併による解散等,7110001001021,令和６年４月２１日新潟市北区濁川１００２番地２株式会社カンエツ（7110001001021）に合併し解散,2015-10-05,1,,,,,エイワ,0
2461,9260002032197,登記記録の閉鎖等,0,2024-04-30,2024-04-26,有限会社丹豊,,有限会社,岡山県,備前市,西片上１９００番地の１１,,33,211,7050021,,,2024-04-26,清算の結了等,,,2015-10-05,1,,,,,タンポウ,0
2463,9280002000549,登記記録の閉鎖等,0,2024-04-30,2024-04-26,有限会社加藤精肉店,,有限会社,島根県,松江市,殿町３８９番地,,32,201,6900887,,,2024-04-26,清算の結了等,,,2015-10-05,1,,,,,カトウセイニクテン,0
2468,9290001104077,登記記録の閉鎖等,0,2024-04-30,2024-04-03,株式会社玄海,,株式会社,福岡県,福津市,津屋崎３丁目１５番１５号,,40,224,8113304,,,2024-04-03,清算の結了等,,,2023-12-15,1,,,,,ゲンカイ,0
2488,9350002004055,登記記録の閉鎖等,0,2024-04-30,2024-04-18,有限会社ふたみ建築設計事務所,,有限会社,宮崎県,宮崎市,大塚町権現昔８１６番地１,,45,201,8800951,,,2024-04-18,清算の結了等,,,2015-10-05,1,,,,,フタミケンチクセッケイジムショ,0
2511,9470002000430,登記記録の閉鎖等,0,2024-04-30,2024-04-19,有限会社丸寿石材,,有限会社,香川県,高松市,牟礼町牟礼３７２０番地３４８,,37,201,7610121,,,2024-04-19,清算の結了等,,,2015-10-05,1,,,,,マルジュセキザイ,0
2512,9470002002204,登記記録の閉鎖等,0,2024-04-30,2024-04-19,有限会社キングウッドハウス,,有限会社,香川県,高松市,御厩町５０４番地の１,00005248,37,201,7618042,,,2024-04-19,清算の結了等,,,2015-10-05,1,,,,,キングウッドハウス,0
