sequenceNumber,corporateNumber,process,correct,updateDate,changeDate,name,nameImageId,kind,prefectureName,cityName,streetNumber,addressImageId,prefectureCode,cityCode,postCode,addressOutside,addressOutsideImageId,closeDate,closeCause,successorCorporateNumber,changeCause,assignmentDate,latest,enName,enPrefectureName,enCityName,enAddressOutside,furigana,hihyoji
3,1010001026348,登記記録の閉鎖等,0,2023-08-02,2023-07-24,株式会社花与,,株式会社,東京都,千代田区,神田多町２丁目７番地１,,13,101,1010046,,,2023-07-24,清算の結了等,,,2015-10-05,1,,,,,,0
5,1010001131742,登記記録の閉鎖等,0,2023-08-02,2023-07-24,アジアコネクト株式会社,,株式会社,東京都,千代田区,九段南２丁目１番１６‐８０５号,,13,101,1020074,,,2023-07-24,清算の結了等,,,2015-10-05,1,,,,,アジアコネクト,0
15,1010001207328,登記記録の閉鎖等,0,2023-08-02,2023-07-24,株式会社トータルヘルスフィット,,株式会社,東京都,中央区,銀座１丁目２２番１１号,,13,102,1040061,,,2023-07-24,清算の結了等,,,2020-02-07,1,,,,,トータルヘルスフィット,0
69,1011701016233,登記記録の閉鎖等,0,2023-08-02,2023-07-28,株式会社ＤＣプロジェクト,,株式会社,東京都,江戸川区,西葛西６丁目１０番１２号,,13,123,1340088,,,2023-07-28,清算の結了等,,,2015-10-05,1,,,,,デーシープロジェクト,0
73,1012802001438,登記記録の閉鎖等,0,2023-08-02,2023-07-26,有限会社高橋商店,00059213,有限会社,東京都,立川市,栄町４丁目１８番地の９,,13,202,1900003,,,2023-07-26,清算の結了等,,,2015-10-05,1,,,,,タカハシショウテン,0
80,1013302006729,登記記録の閉鎖等,0,2023-08-02,2023-07-21,有限会社釣巻デザイン室,,有限会社,静岡県,熱海市,西熱海町１丁目５番２３号ロイヤルヴィラ熱海Ｅ－１０１０,,22,205,4130038,,,2023-07-21,清算の結了等,,,2015-10-05,1,,,,,ツリマキデザインシツ,0
82,1020001046733,登記記録の閉鎖等,0,2023-08-02,2023-07-20,大海建設株式会社,,株式会社,神奈川県,横浜市鶴見区,下野谷町４丁目１６６番地７,,14,101,2300047,,,2023-07-20,清算の結了等,,,2015-10-05,1,,,,,オオミケンセツ,0
84,1020001062004,登記記録の閉鎖等,0,2023-08-02,2023-07-20,弘喜工業株式会社,,株式会社,神奈川県,横浜市港南区,東芹が谷１３番５－５１２号,,14,111,2330005,,,2023-07-20,清算の結了等,,,2015-10-05,1,,,,,ヒロキコウギョウ,0
87,1020002037517,登記記録の閉鎖等,0,2023-08-02,2023-07-19,有限会社大竹工業,,有限会社,神奈川県,横浜市鶴見区,東寺尾２丁目２２番１８号,,14,101,2300077,,,2023-07-19,清算の結了等,,,2015-10-05,1,,,,,オオタケコウギョウ,0
89,1020003017641,登記記録の閉鎖等,0,2023-08-02,2023-07-24,合同会社バーンフリート・インモビリエン,,合同会社,神奈川県,横浜市港北区,綱島西２丁目１６番２１－７０５号,,14,109,2230053,,,2023-07-24,清算の結了等,,,2020-04-01,1,,,,,バーンフリートインモビリエン,0
98,1021005000107,登記記録の閉鎖等,0,2023-08-02,2023-07-28,湘南昭石プロパンガス協同組合,,その他の設立登記法人,神奈川県,藤沢市,大庭字持瀬８２２１番地,,14,205,2510861,,,2023-07-28,清算の結了等,,,2015-10-05,1,,,,,ショウナンショウセキプロパンガス,0
105,1030002120635,登記記録の閉鎖等,0,2023-08-02,2023-07-10,有限会社コウ設計工房,,有限会社,埼玉県,飯能市,美杉台２丁目２０番地３コスモハイツ美杉台１００,,11,209,3570041,,,2023-07-10,清算の結了等,,,2015-10-05,1,,,,,コウセッケイコウボウ,0
114,1040002092287,登記記録の閉鎖等,0,2023-08-02,2023-07-11,有限会社アニマル・プラネット,,有限会社,千葉県,我孫子市,布佐２７６５番地,,12,222,2701101,,,2023-07-11,清算の結了等,,,2015-10-05,1,,,,,アニマルプラネット,0
131,1090001014948,登記記録の閉鎖等,0,2023-08-02,2023-07-31,ＶＥＲＳＵＳ株式会社,,株式会社,山梨県,笛吹市,一宮町国分７１７番地,,19,211,4050074,,,2023-07-31,清算の結了等,,,2017-01-24,1,,,,,,0
132,1100002031354,登記記録の閉鎖等,0,2023-08-02,2023-07-27,有限会社下山シーリング,,有限会社,長野県,岡谷市,赤羽３丁目９番１２号,,20,204,3940002,,,2023-07-27,清算の結了等,,,2015-10-05,1,,,,,シモヤマシーリング,0
137,1120001091372,登記記録の閉鎖等,0,2023-08-02,2023-07-31,株式会社山之内商会,,株式会社,大阪府,大阪市中央区,南船場２丁目８番７号,,27,128,5420081,,,2023-07-31,清算の結了等,,,2015-10-05,1,,,,,ヤマノウチショウカイ,0
150,1120901001967,登記記録の閉鎖等,0,2023-08-02,2023-07-26,株式会社北伸,,株式会社,大阪府,茨木市,横江１丁目１５番４３号,,27,211,5670865,,,2023-07-26,清算の結了等,,,2015-10-05,1,,,,,ホクシン,0
152,1120902005298,登記記録の閉鎖等,0,2023-08-02,2023-07-26,有限会社岩村設備工業,,有限会社,大阪府,豊中市,庄内西町３丁目１７番２２号１０４号,,27,203,5610832,,,2023-07-26,清算の結了等,,,2015-10-05,1,,,,,イワムラセツビコウギョウ,0
161,1160002010030,登記記録の閉鎖等,0,2023-08-02,2023-07-31,有限会社サポート,,有限会社,滋賀県,東近江市,八日市東浜町４番２４－２号,,25,213,5270021,,,2023-07-31,清算の結了等,,,2015-10-05,1,,,,,サポート,0
165,1180001145214,登記記録の閉鎖等,0,2023-08-02,2023-07-31,株式会社Ｋ２Ｓ　Ｐａｒｔｎｅｒｓ,,株式会社,愛知県,名古屋市西区,那古野１丁目１７番２４号,,23,104,4510042,,,2023-07-31,清算の結了等,,,2021-03-22,1,,,,,ケーツーエスパートナーズ,0
173,1180002064611,登記記録の閉鎖等,0,2023-08-02,2023-07-28,有限会社マルハ,,有限会社,愛知県,豊明市,栄町大根１番地２１７,,23,229,4701166,,,2023-07-28,清算の結了等,,,2015-10-05,1,,,,,マルハ,0
175,1180002086696,登記記録の閉鎖等,0,2023-08-02,2023-07-31,有限会社東和技研,,有限会社,愛知県,半田市,瑞穂町３丁目１０番地の１８,,23,205,4750828,,,2023-07-31,清算の結了等,,,2015-10-05,1,,,,,トウワギケン,0
176,1180003006091,登記記録の閉鎖等,0,2023-08-02,2023-07-31,合資会社ロミーランドリー,,合資会社,愛知県,名古屋市中区,大須３丁目７番２２号,,23,106,4600011,,,2023-07-31,清算の結了等,,,2015-10-05,1,,,,,ロミーランドリー,0
183,1200001025223,登記記録の閉鎖等,0,2023-08-02,2023-07-27,南測量設計株式会社,,株式会社,岐阜県,高山市,石浦町７丁目２６番地,,21,203,5060825,,,2023-07-27,清算の結了等,,,2015-10-05,1,,,,,ミナミソクリョウセッケイ,0
187,1220001013944,登記記録の閉鎖等,0,2023-08-02,2023-07-28,株式会社酒の石川屋,,株式会社,石川県,加賀市,松が丘１丁目２０番地の１５,,17,206,9220436,,,2023-07-28,清算の結了等,,,2015-10-05,1,,,,,サケノイシカワヤ,0
188,1220002009553,登記記録の閉鎖等,0,2023-08-02,2023-07-28,渡辺エステート有限会社,,有限会社,石川県,白山市,茶屋１丁目２２０番地,,17,210,9240867,,,2023-07-28,清算の結了等,,,2015-10-05,1,,,,,ワタナベエステート,0
192,1250002020020,登記記録の閉鎖等,0,2023-08-02,2023-07-18,有限会社中津産業,,有限会社,山口県,熊毛郡平生町,大字大野北３番地,,35,344,7421105,,,2023-07-18,清算の結了等,,,2015-10-05,1,,,,,ナカツサンギョウ,0
197,1270001007446,登記記録の閉鎖等,0,2023-08-02,2023-07-21,株式会社ヨシダ住設,,株式会社,鳥取県,鳥取市,国府町新通り３丁目３８２番地９,,31,201,6808066,,,2023-07-21,清算の結了等,,,2018-01-24,1,,,,,,0
215,1330001028386,登記記録の閉鎖等,0,2023-08-02,2023-07-18,株式会社ＳＴＵＤＩＯ　ＰＡＮＣＨＩ,,株式会社,熊本県,熊本市中央区,黒髪２丁目１６番７号,,43,101,8600862,,,2023-07-18,清算の結了等,,,2021-03-12,1,,,,,スタジオパンチ,0
231,1400001000065,登記記録の閉鎖等,0,2023-08-02,2023-07-18,株式会社アスコット企画,,株式会社,岩手県,盛岡市,西松園１丁目１１番１３号,,03,201,0200103,,,2023-07-18,清算の結了等,,,2015-10-05,1,,,,,アスコットキカク,0
235,1430002049784,登記記録の閉鎖等,0,2023-08-02,2023-07-12,有限会社丸い石塚呉服店,,有限会社,北海道,岩見沢市,一条西３丁目４番地,,01,210,0680021,,,2023-07-12,清算の結了等,,,2015-10-05,1,,,,,,0
262,2010401030634,登記記録の閉鎖等,0,2023-08-02,2023-07-10,株式会社吉田デザインコーナー,,株式会社,東京都,港区,南青山５丁目１２番１５－１０４号,,13,103,1070062,,,2023-07-10,清算の結了等,,,2015-10-05,1,,,,,ヨシダデザインコーナー,0
264,2010401093078,登記記録の閉鎖等,0,2023-08-02,2023-07-31,株式会社メディシンラトル,,株式会社,神奈川県,鎌倉市,七里ガ浜２丁目８番１０号,,14,204,2480026,,,2023-07-31,清算の結了等,,,2015-10-05,1,,,,,メディシンラトル,0
265,2010401115864,登記記録の閉鎖等,0,2023-08-02,2023-07-27,インター株式会社,,株式会社,東京都,港区,北青山２丁目７－１３,,13,103,1070061,,,2023-07-27,合併による解散等,5140001020672,令和５年７月２０日神戸市長田区三番町五丁目５番地株式会社インターカルチャー（5140001020672）に合併し解散,2015-10-05,1,,,,,インター,0
283,2010605003469,登記記録の閉鎖等,0,2023-08-02,2023-07-28,ジーナイン・ジャパン・ファイブ特定目的会社,,その他の設立登記法人,東京都,江東区,亀戸６丁目５６番１５号,,13,108,1360071,,,2023-07-28,清算の結了等,,,2017-11-22,1,,,,,ジーナインジャパンファイブ,0
293,2011001007964,登記記録の閉鎖等,0,2023-08-02,2023-07-26,互光商事株式会社,,株式会社,東京都,渋谷区,本町１丁目３０番４号,,13,113,1510071,,,2023-07-26,清算の結了等,,,2015-10-05,1,,,,,ゴコウショウジ,0
294,2011001019027,登記記録の閉鎖等,0,2023-08-02,2023-07-24,株式会社ハローハロー,,株式会社,東京都,中央区,京橋２丁目８番１号,,13,102,1040031,,,2023-07-24,清算の結了等,,,2015-10-05,1,,,,,ハローハロー,0
299,2011001140261,登記記録の閉鎖等,0,2023-08-02,2023-07-31,Ｗｈｙ株式会社,,株式会社,東京都,渋谷区,松濤１丁目２８－２,,13,113,1500046,,,2023-07-31,合併による解散等,7010401100770,令和５年７月１日東京都品川区大崎一丁目２番２号フリー株式会社（7010401100770）に合併し解散,2021-05-18,1,,,,,ワイ,0
309,2011103005627,登記記録の閉鎖等,0,2023-08-02,2023-07-31,宇都宮西川田合同会社,,合同会社,東京都,新宿区,四谷４丁目３２番８号ＹＫＢサニービル６階,,13,104,1600004,,,2023-07-31,清算の結了等,,,2015-10-05,1,,,,,ウツノミヤニシカワタ,0
331,2020002058306,登記記録の閉鎖等,0,2023-08-02,2023-07-20,有限会社モロメイト,,有限会社,神奈川県,横浜市磯子区,杉田６丁目２８番６号,,14,107,2350033,,,2023-07-20,清算の結了等,,,2015-10-05,1,,,,,モロメイト,0
332,2020002099085,登記記録の閉鎖等,0,2023-08-02,2023-07-20,有限会社ホール・セントラル,,有限会社,神奈川県,川崎市川崎区,宮前町１番１－８０５号,,14,131,2100012,,,2023-07-20,清算の結了等,,,2015-10-05,1,,,,,ホールセントラル,0
335,2020003017640,登記記録の閉鎖等,0,2023-08-02,2023-07-24,合同会社バーンフリート・フェアメーゲン,,合同会社,神奈川県,横浜市港北区,綱島西２丁目１６番２１－７０５号,,14,109,2230053,,,2023-07-24,清算の結了等,,,2020-04-01,1,,,,,バーンフリートフェアメーゲン,0
337,2021001000786,登記記録の閉鎖等,0,2023-08-02,2023-07-27,相模金属商工株式会社,,株式会社,神奈川県,藤沢市,村岡東１丁目８番５号,,14,205,2510012,,,2023-07-27,清算の結了等,,,2015-10-05,1,,,,,サガミキンゾクショウコウ,0
338,2021001027549,登記記録の閉鎖等,0,2023-08-02,2023-07-31,株式会社西山工業,,株式会社,神奈川県,綾瀬市,上土棚南２丁目７番４５号,,14,218,2521114,,,2023-07-31,清算の結了等,,,2015-10-05,1,,,,,ニシヤマコウギョウ,0
343,2021005010402,登記記録の閉鎖等,0,2023-08-02,2023-07-28,特定非営利活動法人ブーケの会,,その他の設立登記法人,神奈川県,鎌倉市,雪ノ下４丁目５番３号,,14,204,2480005,,,2023-07-28,清算の結了等,,,2015-10-05,1,,,,,ブーケノカイ,0
354,2030003012211,登記記録の閉鎖等,0,2023-08-02,2023-07-10,合同会社アイエルエス,,合同会社,埼玉県,川口市,鳩ヶ谷本町３丁目２番４号,,11,203,3340002,,,2023-07-10,清算の結了等,,,2018-07-20,1,,,,,アイエルエス,0
358,2040001020578,登記記録の閉鎖等,0,2023-08-02,2023-07-11,株式会社小澤商事,,株式会社,千葉県,八千代市,八千代台東１丁目８番９号,,12,221,2760032,,,2023-07-11,清算の結了等,,,2015-10-05,1,,,,,オザワショウジ,0
379,2070001017299,登記記録の閉鎖等,0,2023-08-02,2023-07-28,株式会社メディカルクローバー,,株式会社,群馬県,みどり市,笠懸町阿左美２５８５番地１８,,10,212,3792311,,,2023-07-28,清算の結了等,,,2015-10-05,1,,,,,メディカルクローバー,0
394,2110002030858,登記記録の閉鎖等,0,2023-08-02,2023-07-25,有限会社姉崎整経,,有限会社,新潟県,長岡市,栃尾大野町４丁目３番４０号,,15,202,9400236,,,2023-07-25,清算の結了等,,,2015-10-05,1,,,,,アネザキセイケイ,0
406,2120003007623,登記記録の閉鎖等,0,2023-08-02,2023-07-28,合資会社岩井鉄工所,,合資会社,大阪府,大阪市西成区,長橋３丁目４番２０号,,27,122,5570025,,,2023-07-28,清算の結了等,,,2015-10-05,1,,,,,イワイテッコウショ,0
425,2130002033297,登記記録の閉鎖等,0,2023-08-02,2023-07-14,有限会社からくり工房,,有限会社,京都府,綾部市,上延町前田１番地の４,,26,203,6230043,,,2023-07-14,清算の結了等,,,2015-10-05,1,,,,,カラクリコウボウ,0
426,2130003002193,登記記録の閉鎖等,0,2023-08-02,2023-07-21,株式会社大藤ミロク貿易,,株式会社,東京都,中央区,築地６丁目１７－１,,13,102,1040045,,,2023-07-21,合併による解散等,6010001184769,令和５年７月１８日東京都中央区築地六丁目７番１１号株式会社丸や（6010001184769）に合併し解散,2015-10-05,1,,,,,ダイトウミロクボウエキ,0
432,2140001123742,登記記録の閉鎖等,0,2023-08-02,2023-07-28,株式会社ＫＯＡＴＯＡ,,株式会社,兵庫県,神戸市西区,狩場台２丁目１６番地の４,,28,111,6512272,,,2023-07-28,清算の結了等,,,2021-11-02,1,,,,,コアトア,0
453,2180005018539,登記記録の閉鎖等,0,2023-08-02,2023-07-31,一般社団法人日本ＩＯＢアライナー矯正歯科学会,,その他の設立登記法人,愛知県,名古屋市名東区,明が丘１２４番地の１,,23,115,4650033,,,2023-07-31,清算の結了等,,,2019-11-27,1,,,,,ニホンアイオウビイアライナーキョウセイシカガッカイ,0
454,2180301017987,登記記録の閉鎖等,0,2023-08-02,2023-07-26,オーシヤン工業株式会社,,株式会社,愛知県,豊田市,高岡町上ノ山４番地２,,23,211,4730933,,,2023-07-26,清算の結了等,,,2015-10-05,1,,,,,オーシャンコウギョウ,0
458,2190002014779,登記記録の閉鎖等,0,2023-08-02,2023-07-21,有限会社東洋電気工事,,有限会社,三重県,松阪市,嬉野須賀町１１０７番地の７５,,24,204,5152322,,,2023-07-21,清算の結了等,,,2015-10-05,1,,,,,トウヨウデンキコウジ,0
459,2200001005802,登記記録の閉鎖等,0,2023-08-02,2023-07-31,株式会社ララ,,株式会社,岐阜県,岐阜市,福光南町９番１２号,,21,201,5020815,,,2023-07-31,清算の結了等,,,2015-10-05,1,,,,,ララ,0
461,2210005006705,登記記録の閉鎖等,0,2023-08-02,2023-07-21,武生生産森林組合,,その他の設立登記法人,福井県,三方上中郡若狭町,武生第７号１番地（武生集会所）,,18,501,9191555,,,2023-07-21,清算の結了等,,,2015-10-05,1,,,,,ムシュウ,0
504,2380001007079,登記記録の閉鎖等,0,2023-08-02,2023-07-28,アルファキュービック株式会社,,株式会社,福島県,郡山市,愛宕町１０番１３号,,07,203,9638873,,,2023-07-28,清算の結了等,,,2015-10-05,1,,,,,アルファキュービック,0
523,2430005014677,登記記録の閉鎖等,0,2023-08-02,2023-07-26,忍路郡漁業會,,その他の設立登記法人,北海道,小樽市,（北海道忍路郡塩谷村大字塩谷村１０５番地）,,01,203,0470000,,,2023-07-26,清算の結了等,,,2023-04-05,1,,,,,オシヨログンギョギョウカイ,0
550,3010003036401,登記記録の閉鎖等,0,2023-08-02,2023-07-24,シェルワークス合同会社,,合同会社,東京都,中央区,日本橋浜町２丁目３４番４号桜ヒルズ日本橋浜町４０２号室,,13,102,1030007,,,2023-07-24,清算の結了等,,,2021-11-30,1,,,,,シェルワークス,0
571,3010602021935,登記記録の閉鎖等,0,2023-08-02,2023-07-28,有限会社桐山,,有限会社,東京都,墨田区,業平１丁目７番２０号,,13,107,1300002,,,2023-07-28,清算の結了等,,,2015-10-05,1,,,,,キリヤマ,0
577,3010705003005,登記記録の閉鎖等,0,2023-08-02,2023-07-31,一般財団法人東京アートアクセラレーション,,その他の設立登記法人,東京都,品川区,上大崎２丁目１３番３０号,,13,109,1410021,,,2023-07-31,清算の結了等,,,2019-12-03,1,,,,,トウキョウアートアクセラレーション,0
584,3010901050354,登記記録の閉鎖等,0,2023-08-02,2023-07-13,株式会社Ｅｆｔｒａ,,株式会社,東京都,世田谷区,玉川田園調布１丁目５番１２号アリシアガーデン１０２,,13,112,1580085,,,2023-07-13,清算の結了等,,,2022-02-15,1,,,,,エフトラ,0
611,3011801016271,登記記録の閉鎖等,0,2023-08-02,2023-07-31,Ａ－ＯＮＥ　ＴＥＣＨ株式会社,,株式会社,東京都,葛飾区,柴又３丁目１１番５号,,13,122,1250052,,,2023-07-31,清算の結了等,,,2015-10-05,1,,,,,エーワンテック,0
618,3013301004665,登記記録の閉鎖等,0,2023-08-02,2023-07-24,株式会社山岡商事,,株式会社,東京都,豊島区,東池袋４丁目８番４ラクシア東池袋５０１号室,,13,116,1700013,,,2023-07-24,清算の結了等,,,2015-10-05,1,,,,,ヤマオカショウジ,0
622,3020001048158,登記記録の閉鎖等,0,2023-08-02,2023-07-20,株式会社マツシタ,,株式会社,神奈川県,横浜市緑区,中山４丁目２６番１４－７０５号,,14,113,2260019,,,2023-07-20,清算の結了等,,,2015-10-05,1,,,,,マツシタ,0
628,3021001071810,登記記録の閉鎖等,0,2023-08-02,2023-07-31,株式会社テンペストカンパニー,,株式会社,神奈川県,藤沢市,鵠沼石上１丁目４番２号藤沢Ｄビル３－Ａ,,14,205,2510025,,,2023-07-31,清算の結了等,,,2021-01-15,1,,,,,テンペストカンパニー,0
646,3040001038339,登記記録の閉鎖等,0,2023-08-02,2023-07-07,株式会社ハイテック,,株式会社,千葉県,流山市,南流山７丁目１４番地の１５,,12,220,2700163,,,2023-07-07,清算の結了等,,,2015-10-05,1,,,,,ハイテック,0
663,3070001008636,登記記録の閉鎖等,0,2023-08-02,2023-07-31,山喜電設工業株式会社,,株式会社,群馬県,高崎市,新保町１４０４番地,,10,202,3700018,,,2023-07-31,清算の結了等,,,2015-10-05,1,,,,,ヤマキデンセツコウギョウ,0
667,3080101019870,登記記録の閉鎖等,0,2023-08-02,2023-07-31,株式会社ＴＭＥプランニング,,株式会社,静岡県,富士市,吉原４丁目１５番２１号,,22,210,4170051,,,2023-07-31,清算の結了等,,,2017-06-12,1,,,,,ティーエムイープランニング,0
672,3080405004239,登記記録の閉鎖等,0,2023-08-02,2023-07-31,特定非営利活動法人店舗活性化支援ネットワーク,,その他の設立登記法人,静岡県,浜松市西区,舘山寺町６３８番地,,22,133,4311209,,,2023-07-31,清算の結了等,,,2015-10-05,1,,,,,テンポカッセイカシエンネットワーク,0
683,3120001168862,登記記録の閉鎖等,0,2023-08-02,2023-08-01,株式会社トランジット,,株式会社,大阪府,大阪市中央区,船越町２丁目３－１,,27,128,5400036,,,2023-08-01,清算の結了等,,,2015-10-05,1,,,,,トランジット,0
700,3122001028757,登記記録の閉鎖等,0,2023-08-02,2023-08-01,株式会社安田税務会計事務所,,株式会社,大阪府,東大阪市,源氏ケ丘３番９号,,27,227,5770822,,,2023-08-01,清算の結了等,,,2015-10-05,1,,,,,ヤスダゼイムカイケイジムショ,0
706,3140002033015,登記記録の閉鎖等,0,2023-08-02,2023-07-21,有限会社竹内組,,有限会社,兵庫県,佐用郡佐用町,櫛田１２９６番地,00040909,28,501,6795651,,,2023-07-21,清算の結了等,,,2015-10-05,1,,,,,タケウチグミ,0
718,3180002040536,登記記録の閉鎖等,0,2023-08-02,2023-07-31,有限会社成田屋センター,,有限会社,愛知県,清須市,須ケ口２２２２番地,,23,233,4520905,,,2023-07-31,清算の結了等,,,2015-10-05,1,,,,,ナリタヤセンター,0
719,3180002090498,登記記録の閉鎖等,0,2023-08-02,2023-07-31,有限会社ライフケアー,,有限会社,愛知県,愛西市,勝幡町塩畑２４９４番地,,23,232,4968001,,,2023-07-31,清算の結了等,,,2015-10-05,1,,,,,ライフケアー,0
725,3180005013183,登記記録の閉鎖等,0,2023-08-02,2023-07-28,大慶寺,,その他の設立登記法人,愛知県,名古屋市守山区,青葉台２１８番地１,,23,113,4630815,,,2023-07-28,清算の結了等,,,2015-10-05,1,,,,,ダイケイジ,0
729,3180301027358,登記記録の閉鎖等,0,2023-08-02,2023-07-24,株式会社ＳＳサポート,,株式会社,愛知県,豊橋市,三ノ輪町３丁目８９番地の２,,23,201,4400838,,,2023-07-24,清算の結了等,,,2015-10-05,1,,,,,エスエスサポート,0
732,3190001027483,登記記録の閉鎖等,0,2023-08-02,2023-07-21,株式会社松井商店,,株式会社,三重県,多気郡明和町,大字蓑村４７２番地１１５,,24,442,5150315,,,2023-07-21,清算の結了等,,,2020-07-08,1,,,,,マツイショウテン,0
740,3240001006176,登記記録の閉鎖等,0,2023-08-02,2023-07-26,株式会社高木千代吉商店,,株式会社,広島県,広島市西区,上天満町３番２号,,34,104,7330021,,,2023-07-26,清算の結了等,,,2015-10-05,1,,,,,タカギチヨキチショウテン,0
745,3250002010531,登記記録の閉鎖等,0,2023-08-02,2023-07-14,有限会社舶栄,,有限会社,山口県,下関市,彦島老町２丁目１１番１０号,,35,201,7500072,,,2023-07-14,清算の結了等,,,2015-10-05,1,,,,,,0
749,3270002008086,登記記録の閉鎖等,0,2023-08-02,2023-07-21,有限会社工藤和幸商店,,有限会社,鳥取県,米子市,糀町２丁目６８番地,,31,202,6830054,,,2023-07-21,清算の結了等,,,2015-10-05,1,,,,,,0
763,3310002019657,登記記録の閉鎖等,0,2023-08-02,2023-07-31,有限会社アート香川,,有限会社,長崎県,松浦市,志佐町浦免１６５５番地１,,42,208,8594501,,,2023-07-31,清算の結了等,,,2015-10-05,1,,,,,アートカガワ,0
765,3320005002337,登記記録の閉鎖等,0,2023-08-02,2023-07-27,特定非営利活動法人まちづくりサポート隊,,その他の設立登記法人,大分県,大分市,錦町２丁目４番２１号,,44,201,8700024,,,2023-07-27,清算の結了等,,,2015-10-05,1,,,,,マチヅクリサポートタイ,0
797,3460301000600,登記記録の閉鎖等,0,2023-08-02,2023-08-01,株式会社だんけん,,株式会社,北海道,北見市,春光町７丁目１番４８号,,01,208,0900801,,,2023-08-01,清算の結了等,,,2015-10-05,1,,,,,ダンケン,0
810,4010001001620,登記記録の閉鎖等,0,2023-08-02,2023-07-31,株式会社オフイスダイナマイト,,株式会社,東京都,練馬区,豊玉上１丁目１９番７号,,13,120,1760011,,,2023-07-31,清算の結了等,,,2015-10-05,1,,,,,オフィスダイナマイト,0
814,4010002013821,登記記録の閉鎖等,0,2023-08-02,2023-07-31,有限会社広野計算センター,,有限会社,東京都,新宿区,若松町９番１４－１５０１号,,13,104,1620056,,,2023-07-31,清算の結了等,,,2015-10-05,1,,,,,ヒロノケイサンセンター,0
827,4010601010310,登記記録の閉鎖等,0,2023-08-02,2023-07-28,大橋ニツト株式会社,,株式会社,東京都,墨田区,石原３丁目２８番９号,,13,107,1300011,,,2023-07-28,清算の結了等,,,2015-10-05,1,,,,,,0
837,4010702007643,登記記録の閉鎖等,0,2023-08-02,2023-07-27,有限会社まき村,,有限会社,東京都,品川区,南大井３丁目１１番５号,,13,109,1400013,,,2023-07-27,清算の結了等,,,2015-10-05,1,,,,,マキムラ,0
850,4011101078334,登記記録の閉鎖等,0,2023-08-02,2023-08-01,株式会社千翔,,株式会社,東京都,新宿区,神楽坂５丁目３７番地,,13,104,1620825,,,2023-08-01,合併による解散等,3011101080555,令和５年８月１日東京都新宿区神楽坂五丁目３７番地株式会社一龍三虎堂（3011101080555）に合併し解散,2016-09-29,1,,,,,センショウ,0
852,4011302012117,登記記録の閉鎖等,0,2023-08-02,2023-07-26,有限会社フォー・ディー,,有限会社,東京都,杉並区,松庵１丁目１８番５号,,13,115,1670054,,,2023-07-26,清算の結了等,,,2015-10-05,1,,,,,フォーディー,0
877,4020003016830,登記記録の閉鎖等,0,2023-08-02,2023-07-20,Ｏｎｅプラス合同会社,,合同会社,神奈川県,川崎市多摩区,菅１丁目２番３１－４０３号,,14,135,2140001,,,2023-07-20,清算の結了等,,,2019-10-25,1,,,,,ワンプラス,0
899,4040001120335,登記記録の閉鎖等,0,2023-08-02,2023-07-21,株式会社ネット集客研究所,,株式会社,千葉県,船橋市,海神町西１丁目１１９３番地１西船橋ファミリーマンション５０８号,,12,204,2730027,,,2023-07-21,清算の結了等,,,2021-09-30,1,,,,,ネットシュウキャクケンキュウジョ,0
902,4040002047932,登記記録の閉鎖等,0,2023-08-02,2023-07-07,有限会社白栄舍,,有限会社,千葉県,松戸市,日暮２丁目１番地の２,,12,207,2702253,,,2023-07-07,清算の結了等,,,2015-10-05,1,,,,,,0
908,4050001001567,登記記録の閉鎖等,0,2023-08-02,2023-07-26,田井木材工業株式会社,,株式会社,茨城県,水戸市,三の丸３丁目１５番２号,,08,201,3100011,,,2023-07-26,清算の結了等,,,2015-10-05,1,,,,,タイモクザイコウギョウ,0
913,4060002014922,登記記録の閉鎖等,0,2023-08-02,2023-07-18,有限会社根内製作所,,有限会社,栃木県,日光市,今市１２８５番地１,,09,206,3211261,,,2023-07-18,清算の結了等,,,2015-10-05,1,,,,,コンナイセイサクショ,0
919,4080001009153,登記記録の閉鎖等,0,2023-08-02,2023-08-01,株式会社牧田米穀店,,株式会社,静岡県,静岡市清水区,入江１丁目１９番９号,,22,103,4240831,,,2023-08-01,清算の結了等,,,2015-10-05,1,,,,,マキタベイコクテン,0
920,4080001016983,登記記録の閉鎖等,0,2023-08-02,2023-07-31,東海総合衛生プランニング株式会社,,株式会社,静岡県,藤枝市,岡部町内谷１６４７番地の１３,,22,214,4211131,,,2023-07-31,清算の結了等,,,2015-10-05,1,,,,,トウカイソウゴウエイセイプランニング,0
931,4080402017473,登記記録の閉鎖等,0,2023-08-02,2023-07-28,有限会社そねめん,,有限会社,静岡県,掛川市,掛川７４番地,,22,213,4360079,,,2023-07-28,清算の結了等,,,2015-10-05,1,,,,,ソネメン,0
932,4080403002689,登記記録の閉鎖等,0,2023-08-02,2023-07-31,合同会社チャットダラー,,合同会社,静岡県,周智郡森町,中川６７８番地の４,,22,461,4370223,,,2023-07-31,清算の結了等,,,2015-10-05,1,,,,,チャットダラー,0
934,4090002013896,登記記録の閉鎖等,0,2023-08-02,2023-07-28,有限会社松乃湯,,有限会社,山梨県,韮崎市,本町１丁目７番１８号,,19,207,4070024,,,2023-07-28,清算の結了等,,,2015-10-05,1,,,,,マツノユ,0
958,4120901018918,登記記録の閉鎖等,0,2023-08-02,2023-07-25,株式会社サンメディア,,株式会社,大阪府,吹田市,垂水町３丁目１５番１４号,,27,205,5640062,,,2023-07-25,清算の結了等,,,2015-10-05,1,,,,,サンメディア,0
966,4130003006119,登記記録の閉鎖等,0,2023-08-02,2023-07-14,オネット合同会社,,合同会社,京都府,京都市南区,八条内田町８９－１,,26,107,6018475,,,2023-07-14,清算の結了等,,,2019-07-25,1,,,,,オネット,0
977,4180001132853,登記記録の閉鎖等,0,2023-08-02,2023-07-24,株式会社ナカヨシ工務店,,株式会社,三重県,三重郡川越町,大字当新田３６３番地１,,24,344,5108111,,,2023-07-24,清算の結了等,,,2018-07-02,1,,,,,ナカヨシコウムテン,0
992,4190002009810,登記記録の閉鎖等,0,2023-08-02,2023-07-20,有限会社みどり商事,,有限会社,三重県,伊勢市,曽祢１丁目１４番１５号,,24,203,5160078,,,2023-07-20,清算の結了等,,,2015-10-05,1,,,,,ミドリショウジ,0
997,4200005013221,登記記録の閉鎖等,0,2023-08-02,2023-07-21,特定非営利活動法人あさひ・愛の手援護の会,,その他の設立登記法人,岐阜県,岐阜市,六条福寿町７番７,,21,201,5008354,,,2023-07-21,清算の結了等,,,2021-07-20,1,,,,,アサヒアイノテエンゴノカイ,0
999,4210002004924,登記記録の閉鎖等,0,2023-08-02,2023-07-27,有限会社藤川工業,,有限会社,福井県,福井市,江端町第１２号２１番地の６,,18,201,9188016,,,2023-07-27,清算の結了等,,,2015-10-05,1,,,,,フジカワコウギョウ,0
1004,4230002001878,登記記録の閉鎖等,0,2023-08-02,2023-07-31,大恒産業有限会社,,有限会社,富山県,富山市,大島１丁目８８番地,,16,201,9398025,,,2023-07-31,清算の結了等,,,2015-10-05,1,,,,,ダイコウサンギョウ,0
1006,4240001034259,登記記録の閉鎖等,0,2023-08-02,2023-07-27,株式会社サラダアート,,株式会社,広島県,府中市,鵜飼町２３番地の６,,34,208,7260002,,,2023-07-27,清算の結了等,,,2015-10-05,1,,,,,サラダアート,0
1009,4240002039595,登記記録の閉鎖等,0,2023-08-02,2023-07-28,有限会社エクステリア双葉,,有限会社,広島県,福山市,神辺町大字下竹田３６番地の１,,34,207,7202115,,,2023-07-28,清算の結了等,,,2015-10-05,1,,,,,,0
1038,4310002008378,登記記録の閉鎖等,0,2023-08-02,2023-08-01,有限会社本田商事,,有限会社,長崎県,西彼杵郡長与町,嬉里郷１１８２番地３,,42,307,8512128,,,2023-08-01,清算の結了等,,,2015-10-05,1,,,,,,0
1061,4380005007560,登記記録の閉鎖等,0,2023-08-02,2023-07-25,上葛尾牧野利用農業協同組合,,その他の設立登記法人,福島県,双葉郡葛尾村,大字葛尾字梨木平９０番地,,07,548,9791601,,,2023-07-25,清算の結了等,,,2015-10-05,1,,,,,カミカツラオボクヤリヨウ,0
1084,4490002003799,登記記録の閉鎖等,0,2023-08-02,2023-08-01,長野電業有限会社,,有限会社,高知県,高知市,福井町１７８４番地７,,39,201,7800965,,,2023-08-01,清算の結了等,,,2015-10-05,1,,,,,ナガノデンギョウ,0
1090,5010001035213,登記記録の閉鎖等,0,2023-08-02,2023-07-24,アイアンドエム株式会社,,株式会社,東京都,中央区,銀座１丁目１６番５号銀座三田ビル,,13,102,1040061,,,2023-07-24,清算の結了等,,,2015-10-05,1,,,,,アイアンドエム,0
1096,5010001212571,登記記録の閉鎖等,0,2023-08-02,2023-07-21,株式会社ＨＯＷＡＲＩ,,株式会社,東京都,千代田区,九段南１丁目５番６号りそな九段ビル５ＦＫＳフロア,,13,101,1020074,,,2023-07-21,清算の結了等,,,2020-10-02,1,,,,,ホワリ,0
1101,5010005032710,登記記録の閉鎖等,0,2023-08-02,2023-07-26,一般社団法人東京レジデンシャル３,,その他の設立登記法人,東京都,中央区,日本橋１丁目４番１号,,13,102,1030027,,,2023-07-26,清算の結了等,,,2020-12-21,1,,,,,トウキョウレジデンシャルスリー,0
1111,5010403026644,登記記録の閉鎖等,0,2023-08-02,2023-07-07,合同会社マグナインベストメント,,合同会社,東京都,港区,浜松町２丁目２番１５号浜松町ダイヤビル２Ｆ,,13,103,1050013,,,2023-07-07,清算の結了等,,,2021-12-07,1,,,,,マグナインベストメント,0
1116,5010601057895,登記記録の閉鎖等,0,2023-08-02,2023-07-31,コネクトオン株式会社,,株式会社,東京都,墨田区,東向島４丁目５－１０加瀬ビル１４９,,13,107,1310032,,,2023-07-31,清算の結了等,,,2020-09-04,1,,,,,コネクトオン,0
1117,5010701007544,登記記録の閉鎖等,0,2023-08-02,2023-07-31,日新工事株式会社,,株式会社,東京都,品川区,南品川５丁目１３番１５号,,13,109,1400004,,,2023-07-31,清算の結了等,,,2015-10-05,1,,,,,ニッシンコウギョウ,0
1122,5010703003847,登記記録の閉鎖等,0,2023-08-02,2023-07-27,合同会社ＷＦＴ,,合同会社,東京都,墨田区,東駒形４丁目１５番１０－８０５号,,13,107,1300005,,,2023-07-27,清算の結了等,,,2017-09-27,1,,,,,ダブリューエフティー,0
1135,5011003008603,登記記録の閉鎖等,0,2023-08-02,2023-07-26,Ｄ３ｌａｂｏ合同会社,,合同会社,東京都,渋谷区,東２丁目２０番１３号,,13,113,1500011,,,2023-07-26,清算の結了等,,,2018-03-22,1,,,,,ディースリーラボ,0
1136,5011101078333,登記記録の閉鎖等,0,2023-08-02,2023-08-01,株式会社ＡＷＡＴＯＹＯ,,株式会社,東京都,新宿区,神楽坂５丁目３７番地,,13,104,1620825,,,2023-08-01,合併による解散等,3011101080555,令和５年８月１日東京都新宿区神楽坂五丁目３７番地株式会社一龍三虎堂（3011101080555）に合併し解散,2016-09-29,1,,,,,アワトヨ,0
1150,5011802019387,登記記録の閉鎖等,0,2023-08-02,2023-07-31,有限会社村井工務店,,有限会社,東京都,足立区,佐野２丁目４１番３号,,13,121,1210053,,,2023-07-31,清算の結了等,,,2015-10-05,1,,,,,ムライコウムテン,0
1156,5013401000645,登記記録の閉鎖等,0,2023-08-02,2023-07-28,株式会社ビクトリー,,株式会社,東京都,日野市,神明４丁目８番地の５,,13,212,1910016,,,2023-07-28,清算の結了等,,,2015-10-05,1,,,,,,0
1158,5020001133172,登記記録の閉鎖等,0,2023-08-02,2023-07-20,株式会社いずみ企画,,株式会社,神奈川県,横浜市青葉区,新石川３丁目１４番地１ドレッセたまプラーザ５０１,,14,117,2250003,,,2023-07-20,清算の結了等,,,2019-10-09,1,,,,,イズミキカク,0
1170,5030001065522,登記記録の閉鎖等,0,2023-08-02,2023-07-07,共和ステンレス工業株式会社,,株式会社,埼玉県,越谷市,大字大泊９６１番地４４,,11,222,3430044,,,2023-07-07,清算の結了等,,,2015-10-05,1,,,,,キョウワステンレスコウギョウ,0
1178,5030002017209,登記記録の閉鎖等,0,2023-08-02,2023-07-07,有限会社ＡＴＫ．ＳＨＩＮＯ,,有限会社,埼玉県,さいたま市南区,松本２丁目１９番５号３０３,,11,108,3360035,,,2023-07-07,清算の結了等,,,2015-10-05,1,,,,,エーティーケイシノ,0
1190,5050001027982,登記記録の閉鎖等,0,2023-08-02,2023-07-26,株式会社インテリアマック,,株式会社,茨城県,牛久市,田宮２丁目１３番地９,,08,219,3001237,,,2023-07-26,清算の結了等,,,2015-10-05,1,,,,,インテリアマック,0
1203,5080102015108,登記記録の閉鎖等,0,2023-08-02,2023-07-31,有限会社マルト工業,,有限会社,静岡県,富士市,神戸５６３番地の８１,,22,210,4170807,,,2023-07-31,清算の結了等,,,2015-10-05,1,,,,,マルトコウギョウ,0
1227,5120002078051,登記記録の閉鎖等,0,2023-08-02,2023-07-31,有限会社栄光製作所,,有限会社,大阪府,守口市,藤田町４丁目３１番６号,,27,209,5700014,,,2023-07-31,清算の結了等,,,2015-10-05,1,,,,,エイコウセイサクショ,0
1236,5122001019837,登記記録の閉鎖等,0,2023-08-02,2023-07-26,株式会社ビバ服飾,,株式会社,大阪府,八尾市,北本町１丁目２－２９,,27,212,5810802,,,2023-07-26,清算の結了等,,,2015-10-05,1,,,,,ビバフクショク,0
1255,5160005005008,登記記録の閉鎖等,0,2023-08-02,2023-07-27,彦根市竹ヶ鼻農住組合,,その他の設立登記法人,滋賀県,彦根市,竹ケ鼻町６８８,,25,202,5220044,,,2023-07-27,清算の結了等,,,2015-10-05,1,,,,,ヒコネシタケガハナ,0
1257,5180001045071,登記記録の閉鎖等,0,2023-08-02,2023-07-31,株式会社ステイトエックスエス,,株式会社,愛知県,名古屋市東区,東桜２丁目９－３４成田ビル１Ｆ,,23,102,4610005,,,2023-07-31,清算の結了等,,,2015-10-05,1,,,,,ステイトエックスエス,0
1260,5180001094291,登記記録の閉鎖等,0,2023-08-02,2023-07-27,小嶋メヂカルサービス株式会社,,株式会社,愛知県,東海市,大田町後田１０２番地の１,,23,222,4770031,,,2023-07-27,清算の結了等,,,2015-10-05,1,,,,,コジマメヂカルサービス,0
1268,5180002027762,登記記録の閉鎖等,0,2023-08-02,2023-07-27,有限会社三桂興業社,,有限会社,愛知県,名古屋市中村区,松原町３丁目５番地,,23,105,4530021,,,2023-07-27,清算の結了等,,,2015-10-05,1,,,,,サンケイコウギョウシャ,0
1269,5180002076306,登記記録の閉鎖等,0,2023-08-02,2023-07-31,有限会社コーポ八幡,,有限会社,愛知県,名古屋市南区,内田橋１丁目８番２２号,,23,112,4570862,,,2023-07-31,清算の結了等,,,2015-10-05,1,,,,,コーポハチマン,0
1270,5180003012615,登記記録の閉鎖等,0,2023-08-02,2023-07-28,株式会社エクストラライフ,,株式会社,愛知県,名古屋市中村区,則武本通１丁目４２番地,,23,105,4530017,,,2023-07-28,清算の結了等,,,2015-10-05,1,,,,,エクストラライフ,0
1283,5230002001720,登記記録の閉鎖等,0,2023-08-02,2023-07-20,有限会社スコットシステム,,有限会社,富山県,富山市,新屋３番地の１,,16,201,9300822,,,2023-07-20,合併による解散等,9230001003383,令和５年６月１日富山市新屋３番地の１山森建設株式会社（9230001003383）に合併し解散,2015-10-05,1,,,,,スコットシステム,0
1311,5310002007957,登記記録の閉鎖等,0,2023-08-02,2023-07-31,有限会社アッスル,,有限会社,長崎県,長崎市,田中町１１０２番地東長崎七福マンション１０３,,42,201,8510134,,,2023-07-31,清算の結了等,,,2015-10-05,1,,,,,アッスル,0
1312,5310005002187,登記記録の閉鎖等,0,2023-08-02,2023-07-26,特定非営利活動法人長崎人材センター,,その他の設立登記法人,長崎県,長崎市,出島町５番２号,,42,201,8500862,,,2023-07-26,清算の結了等,,,2015-10-05,1,,,,,ナガサキジンザイセンター,0
1315,5340002004976,登記記録の閉鎖等,0,2023-08-02,2023-07-31,有限会社庄司,,有限会社,鹿児島県,鹿児島市,真砂本町５４番１９号,,46,201,8900067,,,2023-07-31,清算の結了等,,,2015-10-05,1,,,,,ショウジ,0
1317,5360002015253,登記記録の閉鎖等,0,2023-08-02,2023-07-28,有限会社沖縄メディカルサービス,,有限会社,沖縄県,浦添市,城間１丁目３７番１１号,,47,208,9012133,,,2023-07-28,清算の結了等,,,2015-10-05,1,,,,,オキナワメディカルサービス,0
1326,5380003000574,登記記録の閉鎖等,0,2023-08-02,2023-07-28,合資会社サトー,,合資会社,福島県,郡山市,長者２丁目１９番２０号,,07,203,9638017,,,2023-07-28,清算の結了等,,,2015-10-05,1,,,,,サトー,0
1344,5450002005906,登記記録の閉鎖等,0,2023-08-02,2023-07-27,有限会社山田設備設計事務所,,有限会社,北海道,旭川市,東光五条１０丁目４番４号,,01,204,0788345,,,2023-07-27,清算の結了等,,,2015-10-05,1,,,,,,0
1345,5450002011012,登記記録の閉鎖等,0,2023-08-02,2023-07-28,有限会社高柴造船鉄工所,,有限会社,北海道,稚内市,恵比須４丁目５１７番地１,,01,214,0970025,,,2023-07-28,清算の結了等,,,2015-10-05,1,,,,,タカシバゾウセンテッコウショ,0
1348,5460102006282,登記記録の閉鎖等,0,2023-08-02,2023-07-31,有限会社吉川自動車商会,,有限会社,北海道,足寄郡足寄町,北二条２丁目１０番地,,01,647,0893702,,,2023-07-31,清算の結了等,,,2015-10-05,1,,,,,ヨシカワジドウシャショウカイ,0
1349,5460302000168,登記記録の閉鎖等,0,2023-08-02,2023-08-01,有限会社市村測量,,有限会社,北海道,北見市,緑ケ丘２丁目１９番１１号,,01,208,0900067,,,2023-08-01,清算の結了等,,,2015-10-05,1,,,,,イチムラソクリョウ,0
1354,5500002016864,登記記録の閉鎖等,0,2023-08-02,2023-07-31,有限会社長井呉服店,,有限会社,愛媛県,新居浜市,坂井町２丁目５番２４号,,38,205,7920812,,,2023-07-31,清算の結了等,,,2015-10-05,1,,,,,ナガイゴフクテン,0
1380,6010801017962,登記記録の閉鎖等,0,2023-08-02,2023-07-31,スペースアーク株式会社,,株式会社,東京都,大田区,山王２丁目１７番４号ベルメゾン山王３０６,,13,111,1430023,,,2023-07-31,清算の結了等,,,2015-10-05,1,,,,,スペースアーク,0
1401,6011102009492,登記記録の閉鎖等,0,2023-08-02,2023-07-31,有限会社流川商会,,有限会社,東京都,新宿区,西早稲田３丁目２３番８－２０３号,,13,104,1690051,,,2023-07-31,清算の結了等,,,2015-10-05,1,,,,,ナガレカワショウカイ,0
1412,6011602010314,登記記録の閉鎖等,0,2023-08-02,2023-07-31,有限会社山本産業,,有限会社,東京都,練馬区,関町東２丁目１４番８号,,13,120,1770052,,,2023-07-31,清算の結了等,,,2015-10-05,1,,,,,ヤマモトサンギョウ,0
1418,6011803005121,登記記録の閉鎖等,0,2023-08-02,2023-07-13,合同会社アメリ,,合同会社,東京都,足立区,西伊興４丁目８番２０号２階,,13,121,1210824,,,2023-07-13,清算の結了等,,,2022-06-10,1,,,,,アメリ,0
1443,6021001020442,登記記録の閉鎖等,0,2023-08-02,2023-07-28,株式会社フロンティアコーポレーション,,株式会社,神奈川県,厚木市,鳶尾５丁目２１番２１号,,14,212,2430204,,,2023-07-28,清算の結了等,,,2015-10-05,1,,,,,フロンティアコーポレーション,0
1458,6040001071766,登記記録の閉鎖等,0,2023-08-02,2023-07-24,株式会社サトーコーポレーション,,株式会社,東京都,中央区,新川２丁目３番４号,,13,102,1040033,,,2023-07-24,清算の結了等,,,2015-10-05,1,,,,,サトーコーポレーション,0
1467,6040003011720,登記記録の閉鎖等,0,2023-08-02,2023-07-07,合同会社渡嘉敷組,,合同会社,千葉県,千葉市中央区,都町１丁目１１番１号第三植草ビル４０１号,,12,101,2600001,,,2023-07-07,清算の結了等,,,2018-05-31,1,,,,,トカシキグミ,0
1475,6070001012321,登記記録の閉鎖等,0,2023-08-02,2023-07-31,株式会社アサヒコンサルタント,,株式会社,群馬県,藤岡市,中栗須３７６番地１８,,10,209,3750015,,,2023-07-31,清算の結了等,,,2015-10-05,1,,,,,アサヒコンサルタント,0
1482,6080402009031,登記記録の閉鎖等,0,2023-08-02,2023-07-31,有限会社緑新園商事,,有限会社,静岡県,浜松市中区,向宿３丁目６番１５号,,22,131,4300851,,,2023-07-31,清算の結了等,,,2015-10-05,1,,,,,リョクシンエンショウジ,0
1483,6090001000084,登記記録の閉鎖等,0,2023-08-02,2023-07-28,株式会社朝日ハウス,,株式会社,山梨県,甲斐市,竜王９４１番地３,,19,210,4000118,,,2023-07-28,清算の結了等,,,2015-10-05,1,,,,,アサヒハウス,0
1526,6140001127236,登記記録の閉鎖等,0,2023-08-02,2023-07-25,株式会社ＰＢＳ,,株式会社,兵庫県,神戸市東灘区,森南町２丁目２－１６－４０１,,28,101,6580011,,,2023-07-25,清算の結了等,,,2022-08-31,1,,,,,ピービーエス,0
1528,6140002009755,登記記録の閉鎖等,0,2023-08-02,2023-07-28,有限会社大西造園,,有限会社,兵庫県,神戸市北区,幸陽町３丁目１７番地の１１,,28,109,6511203,,,2023-07-28,清算の結了等,,,2015-10-05,1,,,,,オオニシゾウエン,0
1536,6160002000530,登記記録の閉鎖等,0,2023-08-02,2023-07-31,有限会社かも川おしぼり,,有限会社,滋賀県,大津市,際川３丁目２０番６号,,25,201,5200002,,,2023-07-31,清算の結了等,,,2015-10-05,1,,,,,カモガワオシボリ,0
1559,6240001020364,登記記録の閉鎖等,0,2023-08-02,2023-07-28,株式会社ナゴシ,,株式会社,広島県,広島市西区,南観音３丁目１０番２３号,,34,104,7330035,,,2023-07-28,清算の結了等,,,2015-10-05,1,,,,,ナゴシ,0
1582,6310002004532,登記記録の閉鎖等,0,2023-08-02,2023-07-31,有限会社光興産,,有限会社,長崎県,長崎市,高丘２丁目４番６９号,,42,201,8500941,,,2023-07-31,清算の結了等,,,2015-10-05,1,,,,,ヒカリコウサン,0
1586,6330002018605,登記記録の閉鎖等,0,2023-08-02,2023-07-10,有限会社多久石油,,有限会社,熊本県,山鹿市,菊鹿町宮原２３５－１,,43,208,8610422,,,2023-07-10,清算の結了等,,,2015-10-05,1,,,,,タクセキユ,0
1588,6330005001260,登記記録の閉鎖等,0,2023-08-02,2023-07-13,医療法人社団清礼会,,その他の設立登記法人,熊本県,熊本市西区,春日７丁目１６番８号,,43,103,8600047,,,2023-07-13,清算の結了等,,,2015-10-05,1,,,,,,0
1599,6380002007768,登記記録の閉鎖等,0,2023-08-02,2023-07-25,有限会社生田石材,,有限会社,福島県,郡山市,大槻町字北ノ林４番地の１１,,07,203,9630201,,,2023-07-25,清算の結了等,,,2015-10-05,1,,,,,イクタセキザイ,0
1600,6380002015259,登記記録の閉鎖等,0,2023-08-02,2023-07-25,有限会社テクノライフ,,有限会社,福島県,田村市,船引町遠山沢字反田８５番地,,07,211,9634205,,,2023-07-25,清算の結了等,,,2015-10-05,1,,,,,テクノライフ,0
1604,6390002015836,登記記録の閉鎖等,0,2023-08-02,2023-07-25,有限会社横山板金,,有限会社,山形県,寒河江市,大字高松８３番地,,06,206,9900524,,,2023-07-25,清算の結了等,,,2015-10-05,1,,,,,ヨコヤマバンキン,0
1614,6460101001606,登記記録の閉鎖等,0,2023-08-02,2023-07-31,北海道警備保障株式会社,,株式会社,北海道,帯広市,白樺十六条西１８丁目２０番地,,01,207,0800051,,,2023-07-31,清算の結了等,,,2015-10-05,1,,,,,ホッカイドウケイビホショウ,0
1615,6480002005043,登記記録の閉鎖等,0,2023-08-02,2023-08-01,ヤマモメディカルサービス有限会社,,有限会社,徳島県,徳島市,津田本町４丁目５５５番地の１,,36,201,7708003,,,2023-08-01,清算の結了等,,,2015-10-05,1,,,,,ヤマモメディカルサービス,0
1618,6490002013334,登記記録の閉鎖等,0,2023-08-02,2023-07-27,有限会社森不動産,,有限会社,高知県,吾川郡いの町,駅前町６番地,,39,386,7812107,,,2023-07-27,清算の結了等,,,2015-10-05,1,,,,,モリフドウサン,0
1619,6490005003472,登記記録の閉鎖等,0,2023-08-02,2023-07-31,医療法人福成会,,その他の設立登記法人,高知県,土佐市,高岡町丙４６番地１,,39,205,7811103,,,2023-07-31,清算の結了等,,,2015-10-05,1,,,,,フクセイカイ,0
1636,7010001212033,登記記録の閉鎖等,0,2023-08-02,2023-07-24,Ｍｉｔ－ＰＦＮ　Ｅｎｅｒｇｙ株式会社,,株式会社,東京都,千代田区,大手町１丁目２番１号,,13,101,1000004,,,2023-07-24,清算の結了等,,,2020-09-03,1,,,,,ミットピーエフエヌエナジー,0
1663,7010901036837,登記記録の閉鎖等,0,2023-08-02,2023-07-28,株式会社柳進茂商会,,株式会社,東京都,世田谷区,船橋３丁目２３番８－６０１号,,13,112,1560055,,,2023-07-28,清算の結了等,,,2015-10-05,1,,,,,ヤナギシンモショウカイ,0
1668,7011001094247,登記記録の閉鎖等,0,2023-08-02,2023-07-27,東京架け橋株式会社,,株式会社,東京都,渋谷区,神宮前６丁目５番６号,,13,113,1500001,,,2023-07-27,清算の結了等,,,2015-10-05,1,,,,,トウキョウカケハシ,0
1678,7011301023871,登記記録の閉鎖等,0,2023-08-02,2023-07-26,株式会社Ｔ５ＰＧ,,株式会社,東京都,杉並区,浜田山４丁目３３番３－１０８号,,13,115,1680065,,,2023-07-26,清算の結了等,,,2018-02-07,1,,,,,ティーファイブピージー,0
1713,7030002006325,登記記録の閉鎖等,0,2023-08-02,2023-07-10,有限会社シーンクラフト,,有限会社,埼玉県,さいたま市南区,内谷１丁目１２番１号２０７,,11,108,3360034,,,2023-07-10,清算の結了等,,,2015-10-05,1,,,,,シーンクラフト,0
1716,7030002083760,登記記録の閉鎖等,0,2023-08-02,2023-07-10,有限会社大久保薬局,,有限会社,埼玉県,鴻巣市,筑波２丁目１番２号,,11,217,3690114,,,2023-07-10,清算の結了等,,,2015-10-05,1,,,,,,0
1722,7040001011077,登記記録の閉鎖等,0,2023-08-02,2023-07-10,株式会社内外リスクコンサルタント,,株式会社,千葉県,千葉市若葉区,みつわ台５丁目５番４号,,12,104,2640032,,,2023-07-10,清算の結了等,,,2015-10-05,1,,,,,ナイガイリスクコンサルタント,0
1740,7060002036815,登記記録の閉鎖等,0,2023-08-02,2023-07-18,有限会社トウザイ商事,,有限会社,栃木県,足利市,八椚町２９９番地の１,,09,202,3260015,,,2023-07-18,清算の結了等,,,2015-10-05,1,,,,,トウザイショウジ,0
1744,7080002011626,登記記録の閉鎖等,0,2023-08-02,2023-07-31,有限会社立研地販,,有限会社,静岡県,静岡市清水区,下野北１０番３０号,,22,103,4240021,,,2023-07-31,清算の結了等,,,2015-10-05,1,,,,,リッケンチハン,0
1745,7080005003141,登記記録の閉鎖等,0,2023-08-02,2023-07-31,清水銀座商店街振興組合,,その他の設立登記法人,静岡県,静岡市清水区,銀座１３番３５号,,22,103,4240817,,,2023-07-31,清算の結了等,,,2015-10-05,1,,,,,シミズギンザ,0
1746,7080101017400,登記記録の閉鎖等,0,2023-08-02,2023-07-31,株式会社Ｚ会ＣＡ,,株式会社,静岡県,三島市,文教町１丁目９番１１号,,22,206,4110033,,,2023-07-31,清算の結了等,,,2015-10-05,1,,,,,ゼットカイシーエー,0
1752,7100001021879,登記記録の閉鎖等,0,2023-08-02,2023-07-27,シセイ工業株式会社,,株式会社,長野県,駒ヶ根市,赤穂６４３０番地,,20,210,3994117,,,2023-07-27,清算の結了等,,,2015-10-05,1,,,,,シセイコウギョウ,0
1773,7120002065741,登記記録の閉鎖等,0,2023-08-02,2023-08-01,有限会社カプリス,,有限会社,大阪府,八尾市,若林町３丁目２番４０３号,,27,212,5810038,,,2023-08-01,清算の結了等,,,2015-10-05,1,,,,,カプリス,0
1794,7180001061546,登記記録の閉鎖等,0,2023-08-02,2023-07-31,株式会社よしむら,,株式会社,愛知県,名古屋市昭和区,円上町１９番１６号,,23,107,4660054,,,2023-07-31,清算の結了等,,,2015-10-05,1,,,,,ヨシムラ,0
1795,7180001106350,登記記録の閉鎖等,0,2023-08-02,2023-07-31,株式会社カルテネット,,株式会社,愛知県,名古屋市緑区,大高町字下塩田１８番地,,23,114,4598001,,,2023-07-31,清算の結了等,,,2015-10-05,1,,,,,カルテネット,0
1796,7180001150530,登記記録の閉鎖等,0,2023-08-02,2023-07-31,エース物流株式会社,,株式会社,愛知県,名古屋市中川区,服部２丁目１００２番地,,23,110,4540976,,,2023-07-31,清算の結了等,,,2022-03-28,1,,,,,エースブツリュウ,0
1813,7200002025514,登記記録の閉鎖等,0,2023-08-02,2023-07-27,有限会社旅創庫ひだネットワーク,,有限会社,岐阜県,高山市,若達町１丁目６５番地の１,,21,203,5060854,,,2023-07-27,清算の結了等,,,2015-10-05,1,,,,,タビソウコヒダネットワーク,0
1814,7200003004599,登記記録の閉鎖等,0,2023-08-02,2023-07-28,合同会社伍壱屋,,合同会社,岐阜県,中津川市,加子母３６５０番地１,,21,206,5080421,,,2023-07-28,清算の結了等,,,2019-09-26,1,,,,,ゴイチヤ,0
1833,7260002020864,登記記録の閉鎖等,0,2023-08-02,2023-07-28,有限会社藤沢クレーン,,有限会社,岡山県,倉敷市,黒石２６８番地の３,,33,202,7100035,,,2023-07-28,清算の結了等,,,2015-10-05,1,,,,,フジサワクレーン,0
1836,7280002002142,登記記録の閉鎖等,0,2023-08-02,2023-07-25,有限会社松江配膳センター,,有限会社,島根県,安来市,切川町３５８－１,,32,206,6920051,,,2023-07-25,清算の結了等,,,2015-10-05,1,,,,,マツエハイゼンセンター,0
1856,7320002016204,登記記録の閉鎖等,0,2023-08-02,2023-07-31,有限会社梅日和,,有限会社,大分県,国東市,国見町伊美２５３２番地の２,,44,214,8721401,,,2023-07-31,清算の結了等,,,2015-10-05,1,,,,,ウメビヨリ,0
1865,7370002009112,登記記録の閉鎖等,0,2023-08-02,2023-07-25,有限会社宮城福祉事業振興会,,有限会社,宮城県,富谷市,あけの平３丁目２３番地２,,04,216,9813361,,,2023-07-25,清算の結了等,,,2015-10-05,1,,,,,ミヤギフクシジギョウシンコウカイ,0
1874,7390002012147,登記記録の閉鎖等,0,2023-08-02,2023-07-28,有限会社オオヒロ工業,,有限会社,山形県,東根市,温泉町１丁目２１番１８号,,06,211,9993702,,,2023-07-28,清算の結了等,,,2015-10-05,1,,,,,オオヒロコウギョウ,0
1878,7430001025748,登記記録の閉鎖等,0,2023-08-02,2023-07-27,株式会社モーリスフランク・ジャパン,,株式会社,北海道,札幌市中央区,南二条東１丁目１番地フラーテ札幌１階,,01,101,0600052,,,2023-07-27,清算の結了等,,,2015-10-05,1,,,,,モーリスフランクジャパン,0
1904,8010001102068,登記記録の閉鎖等,0,2023-08-02,2023-07-11,株式会社Ｔａｋａｓｈｉ　Ｋａｗａｃｈｉ　Ｏｆｆｉｃｅ,,株式会社,千葉県,千葉市花見川区,花園町２４７２番地３７,,12,102,2620021,,,2023-07-11,清算の結了等,,,2015-10-05,1,,,,,タカシカワチオフィス,0
1915,8010003022958,登記記録の閉鎖等,0,2023-08-02,2023-07-21,ＭＣＤ小平アセット合同会社,,合同会社,東京都,千代田区,大手町１丁目５番１号,,13,101,1000004,,,2023-07-21,清算の結了等,,,2016-01-22,1,,,,,エムシーディーコダイラアセット,0
1936,8010605000741,登記記録の閉鎖等,0,2023-08-02,2023-07-31,東京箔押協同組合,,その他の設立登記法人,東京都,台東区,松が谷３丁目８番１２号吉田箔押美装株式会社内,,13,106,1110036,,,2023-07-31,清算の結了等,,,2015-10-05,1,,,,,トウキョウハクオシ,0
1943,8010803001970,登記記録の閉鎖等,0,2023-08-02,2023-07-31,合同会社塚本管理,,合同会社,東京都,大田区,大森北３丁目３０番１３－７０１号,,13,111,1430016,,,2023-07-31,清算の結了等,,,2015-11-04,1,,,,,,0
1953,8011003007841,登記記録の閉鎖等,0,2023-08-02,2023-07-24,日本トレースブルー合同会社,,合同会社,東京都,渋谷区,桜丘町２９番３３号渋谷三信マンション５０５号室,,13,113,1500031,,,2023-07-24,清算の結了等,,,2017-07-06,1,,,,,ニホントレースブルー,0
1962,8011401015801,登記記録の閉鎖等,0,2023-08-02,2023-07-31,株式会社グローバルヒューマンネットワークス,,株式会社,東京都,板橋区,成増１丁目３４番５号,,13,119,1750094,,,2023-07-31,清算の結了等,,,2015-10-05,1,,,,,グローバルヒューマンネットワークス,0
1982,8020001139514,登記記録の閉鎖等,0,2023-08-02,2023-07-14,株式会社ｏｄａｉｂａ,,株式会社,神奈川県,川崎市麻生区,王禅寺西６丁目１０番３０号日光台ハイツＡ棟１０２号室,,14,137,2150017,,,2023-07-14,清算の結了等,,,2021-01-18,1,,,,,オダイバ,0
1986,8020003017643,登記記録の閉鎖等,0,2023-08-02,2023-07-24,合同会社ワルトラウテ・インモビリエン,,合同会社,神奈川県,横浜市港北区,綱島西２丁目１６番２１－７０５号,,14,109,2230053,,,2023-07-24,清算の結了等,,,2020-04-01,1,,,,,ワルトラウテインモビリエン,0
1992,8021005010917,登記記録の閉鎖等,0,2023-08-02,2023-07-24,医療法人社団三湘会,,その他の設立登記法人,神奈川県,平塚市,八重咲町１９番２３号ココス八重咲１階,,14,203,2540811,,,2023-07-24,清算の結了等,,,2017-03-29,1,,,,,サンショウカイ,0
1994,8030001085385,登記記録の閉鎖等,0,2023-08-02,2023-07-10,エビス産業株式会社,,株式会社,埼玉県,熊谷市,江波２７番地３,,11,202,3600212,,,2023-07-10,清算の結了等,,,2015-10-05,1,,,,,エビスサンギョウ,0
2005,8050001013807,登記記録の閉鎖等,0,2023-08-02,2023-07-25,株式会社諏訪製作所,,株式会社,茨城県,結城郡八千代町,大字平塚１９９５番地の１,,08,521,3003561,,,2023-07-25,清算の結了等,,,2015-10-05,1,,,,,スワセイサクジョ,0
2012,8070001002758,登記記録の閉鎖等,0,2023-08-02,2023-07-28,文京不動産株式会社,,株式会社,群馬県,前橋市,文京町３丁目１４番１号,,10,201,3710801,,,2023-07-28,清算の結了等,,,2015-10-05,1,,,,,ブンキョウフドウサン,0
2016,8080001007723,登記記録の閉鎖等,0,2023-08-02,2023-07-31,エルネット静岡株式会社,,株式会社,静岡県,静岡市清水区,鳥坂５３１番地,,22,103,4240067,,,2023-07-31,清算の結了等,,,2015-10-05,1,,,,,エルネットシズオカ,0
2033,8120001076219,登記記録の閉鎖等,0,2023-08-02,2023-08-01,大西建設株式会社,,株式会社,大阪府,大阪市中央区,平野町１丁目４番１号,,27,128,5410046,,,2023-08-01,清算の結了等,,,2015-10-05,1,,,,,オオニシケンセツ,0
2034,8120001146855,登記記録の閉鎖等,0,2023-08-02,2023-07-31,アオキ産業株式会社,,株式会社,大阪府,交野市,星田１丁目２８番５号,,27,230,5760016,,,2023-07-31,清算の結了等,,,2015-10-05,1,,,,,アオキサンギョウ,0
2051,8120102017435,登記記録の閉鎖等,0,2023-08-02,2023-07-31,有限会社ワイエスエム,,有限会社,大阪府,富田林市,中野町東２丁目４番４６号,,27,214,5840022,,,2023-07-31,清算の結了等,,,2015-10-05,1,,,,,ワイエスエム,0
2067,8140002041517,登記記録の閉鎖等,0,2023-08-02,2023-07-27,有限会社太陽プレス工業所,,有限会社,兵庫県,尼崎市,次屋２丁目１番５２号,,28,202,6610965,,,2023-07-27,清算の結了等,,,2015-10-05,1,,,,,タイヨウプレスコウギョウショ,0
2068,8140002050402,登記記録の閉鎖等,0,2023-08-02,2023-07-28,有限会社ひかり不動産,,有限会社,兵庫県,姫路市,広畑区城山町１番地の１２,,28,201,6711108,,,2023-07-28,清算の結了等,,,2015-10-05,1,,,,,ヒカリフドウサン,0
2078,8180001116877,登記記録の閉鎖等,0,2023-08-02,2023-07-31,株式会社ドリームブライト,,株式会社,愛知県,名古屋市北区,中丸町１丁目１８番地の２,,23,103,4620056,,,2023-07-31,清算の結了等,,,2015-10-05,1,,,,,ドリームブライト,0
2082,8180002087589,登記記録の閉鎖等,0,2023-08-02,2023-07-28,有限会社オカテク,,有限会社,愛知県,東海市,名和町西垣内１７番地,,23,222,4760002,,,2023-07-28,清算の結了等,,,2015-10-05,1,,,,,オカテク,0
2094,8210002007907,登記記録の閉鎖等,0,2023-08-02,2023-07-28,有限会社白山建具センター,,有限会社,福井県,坂井市,丸岡町北横地第３号２番地,,18,210,9100374,,,2023-07-28,清算の結了等,,,2015-10-05,1,,,,,ハクサンタテグセンター,0
2098,8220003003359,登記記録の閉鎖等,0,2023-08-02,2023-07-27,合同会社ナンバーズ,,合同会社,石川県,河北郡津幡町,字能瀬井１番地４７,,17,361,9290319,,,2023-07-27,清算の結了等,,,2022-09-14,1,,,,,ナンバーズ,0
2108,8240005013313,登記記録の閉鎖等,0,2023-08-02,2023-07-25,一般社団法人地域包括支援センターみよし,,その他の設立登記法人,広島県,三次市,十日市東３丁目１４番１号,,34,209,7280013,,,2023-07-25,清算の結了等,,,2015-10-05,1,,,,,チイキホウカツシエンセンターミヨシ,0
2131,8340002018726,登記記録の閉鎖等,0,2023-08-02,2023-07-31,有限会社南興産商,,有限会社,鹿児島県,指宿市,十町１３７５番地,,46,210,8910402,,,2023-07-31,清算の結了等,,,2015-10-05,1,,,,,,0
2134,8370001046469,登記記録の閉鎖等,0,2023-08-02,2023-07-26,リスタート株式会社,,株式会社,宮城県,石巻市,須江字瓦山２３８番地１,,04,202,9871221,,,2023-07-26,清算の結了等,,,2020-12-09,1,,,,,リスタート,0
2143,8390001014085,登記記録の閉鎖等,0,2023-08-02,2023-07-27,株式会社きや,,株式会社,山形県,酒田市,鶴田字寺の越３６番地,,06,204,9998168,,,2023-07-27,清算の結了等,,,2015-10-05,1,,,,,キヤ,0
2146,8420001005205,登記記録の閉鎖等,0,2023-08-02,2023-07-20,株式会社ディ・システム,,株式会社,青森県,青森市,小柳６丁目２４番２２号,,02,201,0300915,,,2023-07-20,清算の結了等,,,2015-10-05,1,,,,,ディシステム,0
2180,9010003031594,登記記録の閉鎖等,0,2023-08-02,2023-07-21,合同会社ＡＬＥＲＯ５３,,合同会社,東京都,千代田区,神田錦町１丁目２１番１号,,13,101,1010054,,,2023-07-21,清算の結了等,,,2020-02-07,1,,,,,アレーロフィフティースリー,0
2186,9010402020636,登記記録の閉鎖等,0,2023-08-02,2023-07-20,有限会社エス・アンド・エスクリエイティブ,,有限会社,神奈川県,横浜市港北区,日吉本町４丁目８番５７－１０７号,,14,109,2230062,,,2023-07-20,清算の結了等,,,2015-10-05,1,,,,,エスアンドエスクリエイティブ,0
2189,9010501012542,登記記録の閉鎖等,0,2023-08-02,2023-07-31,株式会社東京サーパス,,株式会社,東京都,台東区,浅草橋５丁目１８番５号,,13,106,1110053,,,2023-07-31,清算の結了等,,,2015-10-05,1,,,,,トウキョウサーパス,0
2190,9010502020916,登記記録の閉鎖等,0,2023-08-02,2023-07-31,有限会社ナカジマトレーディング,,有限会社,東京都,台東区,蔵前２丁目１２－４,,13,106,1110051,,,2023-07-31,清算の結了等,,,2015-10-05,1,,,,,,0
2192,9010601042217,登記記録の閉鎖等,0,2023-08-02,2023-07-31,小林金属株式会社,,株式会社,東京都,江東区,森下２丁目７番１号,,13,108,1350004,,,2023-07-31,清算の結了等,,,2015-10-05,1,,,,,コバヤシキンゾク,0
2213,9011101051212,登記記録の閉鎖等,0,2023-08-02,2023-07-20,ＡＷＲ　Ｊａｐａｎ株式会社,,株式会社,神奈川県,横浜市港北区,新横浜２丁目１００－４５新横浜中央ビル,,14,109,2220033,,,2023-07-20,清算の結了等,,,2015-10-05,1,,,,,エーダブリューアールジャパン,0
2218,9011301000753,登記記録の閉鎖等,0,2023-08-02,2023-07-26,株式会社稲松商事,,株式会社,東京都,杉並区,桃井１丁目２９番８号,,13,115,1670034,,,2023-07-26,清算の結了等,,,2015-10-05,1,,,,,イナマツショウジ,0
2221,9011402005800,登記記録の閉鎖等,0,2023-08-02,2023-07-31,有限会社田中屋,,有限会社,東京都,板橋区,大山町２４番１号,,13,119,1730023,,,2023-07-31,清算の結了等,,,2015-10-05,1,,,,,タナカヤ,0
2222,9011402006336,登記記録の閉鎖等,0,2023-08-02,2023-07-31,当祐商事有限会社,,有限会社,東京都,板橋区,赤塚２丁目３６番１８号,00066172,13,119,1750092,,,2023-07-31,清算の結了等,,,2015-10-05,1,,,,,トウユウショウジ,0
2229,9011802010012,登記記録の閉鎖等,0,2023-08-02,2023-07-31,有限会社植木タイル,,有限会社,東京都,足立区,大谷田４丁目１６番１６号,,13,121,1200001,,,2023-07-31,清算の結了等,,,2015-10-05,1,,,,,ウエキタイル,0
2259,9020003017642,登記記録の閉鎖等,0,2023-08-02,2023-07-24,合同会社ヴィルヘルミーナ・インモビリエン,,合同会社,神奈川県,横浜市港北区,綱島西２丁目１６番２１－７０５号,,14,109,2230053,,,2023-07-24,清算の結了等,,,2020-04-01,1,,,,,ヴィルヘルミーナインモビリエン,0
2288,9060001002592,登記記録の閉鎖等,0,2023-08-02,2023-07-27,大東機工株式会社,,株式会社,栃木県,宇都宮市,川田町７５１番地,,09,201,3210111,,,2023-07-27,合併による解散等,4030001026748,令和５年７月１日埼玉県入間市新久１３７番地１株式会社東リース（4030001026748）に合併し解散,2015-10-05,1,,,,,ダイトウキコウ,0
2295,9070001039543,登記記録の閉鎖等,0,2023-08-02,2023-07-31,株式会社ｄＰ,,株式会社,群馬県,邑楽郡邑楽町,大字中野４９２３番地２,,10,525,3700603,,,2023-07-31,清算の結了等,,,2022-08-18,1,,,,,,0
2298,9070003002838,登記記録の閉鎖等,0,2023-08-02,2023-07-31,よしこ三輝合同会社,,合同会社,群馬県,高崎市,上小鳥町３７６番地５,,10,202,3700078,,,2023-07-31,清算の結了等,,,2017-02-21,1,,,,,ヨシコサンキ,0
2305,9080005001218,登記記録の閉鎖等,0,2023-08-02,2023-07-31,医療法人社団広和会広瀬整形外科,,その他の設立登記法人,静岡県,静岡市葵区,西千代田町１０番３２号,,22,101,4200847,,,2023-07-31,清算の結了等,,,2015-10-05,1,,,,,コウワカイヒロセセイケイゲカ,0
2307,9080102005154,登記記録の閉鎖等,0,2023-08-02,2023-08-01,有限会社するが茶房,,有限会社,静岡県,沼津市,井出７７２番地の２,,22,203,4100319,,,2023-08-01,清算の結了等,,,2015-10-05,1,,,,,スルガサボウ,0
2322,9120001019647,登記記録の閉鎖等,0,2023-08-02,2023-08-01,株式会社エイチケイ,,株式会社,大阪府,大阪市平野区,瓜破２丁目１番４０号,,27,126,5470024,,,2023-08-01,合併による解散等,9120001218760,令和５年８月１日大阪市平野区瓜破二丁目１番４０号株式会社ＨＫ（9120001218760）に合併し解散,2015-10-05,1,,,,,エイチケイ,0
2338,9120002018326,登記記録の閉鎖等,0,2023-08-02,2023-07-31,有限会社浅野家具製作所,,有限会社,大阪府,大阪市福島区,大開２丁目２番３１号,,27,103,5530007,,,2023-07-31,清算の結了等,,,2015-10-05,1,,,,,アサノカグセイサクショ,0
2345,9120105003803,登記記録の閉鎖等,0,2023-08-02,2023-07-31,近畿トヨタ自動車販売事業協同組合,,その他の設立登記法人,大阪府,堺市西区,浜寺諏訪森町西１丁７番地,,27,144,5928347,,,2023-07-31,清算の結了等,,,2015-10-05,1,,,,,キンキトヨタジドウシャハンバイ,0
2354,9140001048636,登記記録の閉鎖等,0,2023-08-02,2023-08-01,株式会社ファインネット,,株式会社,大阪府,大阪市北区,大淀中３丁目４番３号,,27,127,5310076,,,2023-08-01,清算の結了等,,,2015-10-05,1,,,,,ファインネット,0
2370,9180001035597,登記記録の閉鎖等,0,2023-08-02,2023-08-01,株式会社クルー,,株式会社,愛知県,名古屋市千種区,朝岡町３丁目１９番地,,23,101,4640811,,,2023-08-01,清算の結了等,,,2015-10-05,1,,,,,クルー,0
2371,9180001078308,登記記録の閉鎖等,0,2023-08-02,2023-07-31,株式会社ケイアシスト,,株式会社,愛知県,春日井市,花長町２丁目２７番地８,,23,206,4860951,,,2023-07-31,清算の結了等,,,2015-10-05,1,,,,,ケイアシスト,0
2372,9180001094429,登記記録の閉鎖等,0,2023-08-02,2023-07-27,東海メヂカルサービス株式会社,,株式会社,愛知県,東海市,大田町後田１０２番地の１,,23,222,4770031,,,2023-07-27,清算の結了等,,,2015-10-05,1,,,,,トウカイメヂカルサービス,0
2379,9180301000524,登記記録の閉鎖等,0,2023-08-02,2023-07-26,株式会社オーエスケイ,,株式会社,愛知県,岡崎市,柱町字下荒子５８番地１７,,23,202,4440834,,,2023-07-26,清算の結了等,,,2015-10-05,1,,,,,オーエスケイ,0
2381,9180303003764,登記記録の閉鎖等,0,2023-08-02,2023-07-26,合同会社健然農,,合同会社,愛知県,岡崎市,牧平町字大崎６２番地３３,,23,202,4443624,,,2023-07-26,清算の結了等,,,2017-01-18,1,,,,,ケンゼンノウ,0
2383,9190002000178,登記記録の閉鎖等,0,2023-08-02,2023-07-21,有限会社伊庭食品,,有限会社,三重県,津市,下弁財町津興８３０番地,,24,201,5140805,,,2023-07-21,清算の結了等,,,2015-10-05,1,,,,,イバショクヒン,0
2387,9220001024117,登記記録の閉鎖等,0,2023-08-02,2023-07-27,Ｔ－トラスト株式会社,,株式会社,石川県,金沢市,諸江町中丁３３１番地１,,17,201,9200016,,,2023-07-27,清算の結了等,,,2021-04-12,1,,,,,ティートラスト,0
2390,9240001058492,登記記録の閉鎖等,0,2023-08-02,2023-07-28,株式会社Ｓ・Ｃ・Ｗ,,株式会社,広島県,広島市中区,堀川町４番２０号,,34,101,7300033,,,2023-07-28,清算の結了等,,,2021-08-27,1,,,,,,0
2409,9290001035116,登記記録の閉鎖等,0,2023-08-02,2023-07-19,株式会社大安総建,,株式会社,福岡県,福岡市南区,野多目４丁目９番３号,,40,134,8111347,,,2023-07-19,清算の結了等,,,2015-10-05,1,,,,,タイアンソウケン,0
2412,9290002006537,登記記録の閉鎖等,0,2023-08-02,2023-07-20,有限会社エムアンドエムコンサルティング,,有限会社,福岡県,福岡市早良区,西新４丁目１番１－３６０１号,,40,137,8140002,,,2023-07-20,清算の結了等,,,2015-10-05,1,,,,,エムアンドエムコンサルティング,0
2429,9370505000482,登記記録の閉鎖等,0,2023-08-02,2023-07-25,気仙沼さかなの駅協同組合,,その他の設立登記法人,宮城県,気仙沼市,田中前２丁目１２番地３,,04,205,9880053,,,2023-07-25,清算の結了等,,,2015-10-05,1,,,,,ケセンヌマサカナノエキ,0
2448,9440001007149,登記記録の閉鎖等,0,2023-08-02,2023-07-31,株式会社Ｍａｘ３４５,,株式会社,北海道,函館市,美原３丁目５８番１４号,,01,202,0410806,,,2023-07-31,清算の結了等,,,2015-10-05,1,,,,,マックスサンヨンゴ,0
