sequenceNumber,corporateNumber,process,correct,updateDate,changeDate,name,nameImageId,kind,prefectureName,cityName,streetNumber,addressImageId,prefectureCode,cityCode,postCode,addressOutside,addressOutsideImageId,closeDate,closeCause,successorCorporateNumber,changeCause,assignmentDate,latest,enName,enPrefectureName,enCityName,enAddressOutside,furigana,hihyoji
7,1010001261283,新規,0,2025-12-19,2025-12-19,株式会社Ｍａｒｅｖｉａ,,株式会社,東京都,中央区,銀座１丁目２２番１１号銀座大竹ビジデンス２Ｆ,,13,102,1040061,,,,,,,2025-12-19,1,,,,,マレヴィア,0
8,1010001261317,新規,0,2025-12-19,2025-12-19,ＥＮＥＲＡ株式会社,,株式会社,東京都,中央区,月島２丁目１５番１３号,,13,102,1040052,,,,,,,2025-12-19,1,,,,,エネラ,0
13,1010003049751,新規,0,2025-12-19,2025-12-19,合同会社ＬＹＮＱ　ＤＥＳＩＧＮ,,合同会社,東京都,中央区,銀座１丁目２２番１１号銀座大竹ビジデンス２Ｆ,,13,102,1040061,,,,,,,2025-12-19,1,,,,,,0
14,1010005041054,新規,0,2025-12-19,2025-12-19,一般社団法人甲源,,その他の設立登記法人,東京都,中央区,銀座７丁目１３番２０号銀座ＴＨビル９階,,13,102,1040061,,,,,,,2025-12-19,1,,,,,コウゲン,0
15,1010005041095,新規,0,2025-12-19,2025-12-19,目白三丁目プロジェクト特定目的会社,,その他の設立登記法人,東京都,千代田区,丸の内１丁目４番１号東京共同会計事務所内,,13,101,1000005,,,,,,,2025-12-19,1,,,,,メジロサンチョウメプロジェクト,0
25,1010401195008,新規,0,2025-12-19,2025-12-19,株式会社ＡＬＬＵＬＩＡ,,株式会社,東京都,港区,北青山３丁目１０番２５号ケン表参道ビル３ＦｒｏｏｍＡ,,13,103,1070061,,,,,,,2025-12-19,1,,,,,アルーリア,0
26,1010401195214,新規,0,2025-12-19,2025-12-19,株式会社シャンティ,,株式会社,東京都,港区,虎ノ門３丁目１４番１号,,13,103,1050001,,,,,,,2025-12-19,1,,,,,シャンティ,0
27,1010401195230,新規,0,2025-12-19,2025-12-19,株式会社ＥＳＳＥＮＣＩＡ　Ｐａｒｔｎｅｒｓ　Ｉｎｃ,,株式会社,東京都,港区,南麻布２丁目３番１１号パークホームズ南麻布ザレジデンス４２０,,13,103,1060047,,,,,,,2025-12-19,1,,,,,エッセンシアパートナーズ,0
28,1010401195255,新規,0,2025-12-19,2025-12-19,株式会社ＯＲＭＩＲＡ＆ＣＯ．,,株式会社,東京都,港区,南麻布４丁目５番４８号フォーサイト南麻布４階,,13,103,1060047,,,,,,,2025-12-19,1,,,,,オルミラアンドカンパニー,0
29,1010401195271,新規,0,2025-12-19,2025-12-19,ｆｒｅｎ株式会社,,株式会社,東京都,港区,南青山３丁目１番３６号青山丸竹ビル６Ｆ,,13,103,1070062,,,,,,,2025-12-19,1,,,,,フレン,0
30,1010401195305,新規,0,2025-12-19,2025-12-19,ｄｅｐｌｏ株式会社,,株式会社,東京都,港区,南青山２丁目２番１５号ウィン青山ＵＣＦ６階,,13,103,1070062,,,,,,,2025-12-19,1,,,,,デプロ,0
47,1010801036892,新規,0,2025-12-19,2025-12-19,碧リフォーム株式会社,,株式会社,東京都,大田区,大森東２丁目１１番８号,,13,111,1430012,,,,,,,2025-12-19,1,,,,,アオイリフォーム,0
48,1010803005623,新規,0,2025-12-19,2025-12-19,合同会社ＡＬＯ,,合同会社,東京都,大田区,大森西３丁目６－８センチュリーフォレスト３０５,,13,111,1430015,,,,,,,2025-12-19,1,,,,,アロ,0
49,1010803005648,新規,0,2025-12-19,2025-12-19,７ＳＴＡＲＳ　ＣＯＭＰＡＮＹ合同会社,,合同会社,東京都,大田区,中馬込３丁目６番１０号馬込コーポビアネーズ１１１,,13,111,1430027,,,,,,,2025-12-19,1,,,,,セブンスターズカンパニー,0
59,1011001174509,新規,0,2025-12-19,2025-12-19,ロケバコ株式会社,,株式会社,東京都,目黒区,平町１丁目２１番９－９０１号ミラドール都立大,,13,110,1520032,,,,,,,2025-12-19,1,,,,,ロケバコ,0
60,1011001174541,新規,0,2025-12-19,2025-12-19,株式会社スコンプラス,,株式会社,東京都,目黒区,緑が丘２丁目３番１号,,13,110,1520034,,,,,,,2025-12-19,1,,,,,スコンプラス,0
62,1011005011294,新規,0,2025-12-19,2025-12-19,一般社団法人熱中症総合研究所,,その他の設立登記法人,東京都,渋谷区,恵比寿１丁目６番６号斎藤ビル３階,,13,113,1500013,,,,,,,2025-12-19,1,,,,,ネッチュウショウソウゴウケンキュウジョ,0
78,1011801047186,新規,0,2025-12-19,2025-12-19,株式会社ＫＵ‐ＫＡＮ,,株式会社,東京都,足立区,六月２丁目１番１号リナス竹ノ塚３０４,00141951,13,121,1210814,,,,,,,2025-12-19,1,,,,,クウカン,0
79,1011801047211,新規,0,2025-12-19,2025-12-19,Ｄｉｓｈｃｏｖｅｒ株式会社,,株式会社,東京都,足立区,千住中居町１７番２０号,,13,121,1200035,,,,,,,2025-12-19,1,,,,,ディシュカバー,0
80,1012403007520,新規,0,2025-12-19,2025-12-19,合同会社ｙｓｅ,,合同会社,東京都,府中市,宮西町３丁目８－１セザールプラザ府中８１６,,13,206,1830022,,,,,,,2025-12-19,1,,,,,ワイエスイー,0
88,1013301055495,新規,0,2025-12-19,2025-12-19,株式会社Ｌｏｆｔｙ　Ｍｅｄｉｃａｌ,,株式会社,東京都,豊島区,上池袋３丁目３５番１５号パレロワイヤル５０１号室,,13,116,1700012,,,,,,,2025-12-19,1,,,,,ロフティメディカル,0
90,1013303008006,新規,0,2025-12-19,2025-12-19,合同会社パン・パシフィック資産顧問,,合同会社,東京都,豊島区,池袋２丁目６０番１１号,,13,116,1710014,,,,,,,2025-12-19,1,,,,,パンパシフィックシサンコモン,0
96,1020001166333,新規,0,2025-12-19,2025-12-19,株式会社ワンストップリノベーション,,株式会社,神奈川県,横浜市港南区,上大岡二丁目１２番２号,,14,111,2330000,,,,,,,2025-12-19,1,,,,,ワンストップリノベーション,0
97,1020001166358,新規,0,2025-12-19,2025-12-19,株式会社リガルストーン,,株式会社,神奈川県,川崎市高津区,久地３丁目３番４１号,,14,134,2130032,,,,,,,2025-12-19,1,,,,,リガルストーン,0
98,1020001166374,新規,0,2025-12-19,2025-12-19,株式会社エルレ総業,,株式会社,神奈川県,横浜市金沢区,高舟台１丁目１９番２０号,,14,108,2360044,,,,,,,2025-12-19,1,,,,,エルレソウギョウ,0
99,1020001166390,新規,0,2025-12-19,2025-12-19,Ａｎｄ　Ｇｏ株式会社,,株式会社,神奈川県,横浜市港南区,日限山１丁目４－７,,14,111,2330015,,,,,,,2025-12-19,1,,,,,アンドゴー,0
103,1020003030017,新規,0,2025-12-19,2025-12-19,ＴＫＧエステート合同会社,,合同会社,神奈川県,横浜市青葉区,大場町３６０番地６３,,14,117,2250023,,,,,,,2025-12-19,1,,,,,ティーケージーエステート,0
114,1030001170219,新規,0,2025-12-19,2025-12-19,科創研株式会社,,株式会社,埼玉県,狭山市,祇園１７番２０号,,11,215,3501307,,,,,,,2025-12-19,1,,,,,カソウケン,0
121,1030003028324,新規,0,2025-12-19,2025-12-19,合同会社たすけあい,,合同会社,埼玉県,さいたま市桜区,田島２丁目６－８リブリＳｔｕｄｉｏＡ２０６,,11,106,3380837,,,,,,,2025-12-19,1,,,,,タスケアイ,0
125,1040001141755,新規,0,2025-12-19,2025-12-19,株式会社ＨｏｕｓｅＶｉｓｔａ,,株式会社,千葉県,千葉市中央区,浜野町２９２番地３,,12,101,2600824,,,,,,,2025-12-19,1,,,,,ハウスヴィスタ,0
126,1040001141796,新規,0,2025-12-19,2025-12-19,ＺｅｎｏｖａＪａｐａｎ株式会社,,株式会社,千葉県,習志野市,花咲２丁目１０番２３号,,12,216,2750013,,,,,,,2025-12-19,1,,,,,ゼノバジャパン,0
127,1040001141838,新規,0,2025-12-19,2025-12-19,株式会社ＰＲＯＪＥＣＴ　ＯＮＥ,,株式会社,千葉県,八千代市,下市場２丁目２―４３,,12,221,2760026,,,,,,,2025-12-19,1,,,,,プロジェクトワン,0
135,1040003029189,新規,0,2025-12-19,2025-12-19,Ｔ‐ＳＡＳ合同会社,,合同会社,千葉県,柏市,酒井根６５７番地１１,,12,217,2770053,,,,,,,2025-12-19,1,,,,,ティーサス,0
136,1050001057752,新規,0,2025-12-19,2025-12-19,株式会社ＧＸＰ,,株式会社,茨城県,龍ケ崎市,藤ケ丘７丁目７番地１４,,08,208,3010855,,,,,,,2025-12-19,1,,,,,ジーエックスピー,0
137,1050001057760,新規,0,2025-12-19,2025-12-19,ＥＬＡ　ＪＡＰＡＮ株式会社,,株式会社,茨城県,日立市,鮎川町４丁目１番８号,,08,202,3160036,,,,,,,2025-12-19,1,,,,,エラジャパン,0
141,1060001038859,新規,0,2025-12-19,2025-12-19,株式会社三六九,,株式会社,栃木県,宇都宮市,五代３丁目１０番７号,,09,201,3210135,,,,,,,2025-12-19,1,,,,,ミロク,0
142,1060001038867,新規,0,2025-12-19,2025-12-19,株式会社ＧｏｏｄＦｉｌｌ　Ｊａｐａｎ,,株式会社,栃木県,那須郡那須町,大字高久乙３３７５番地７７３,,09,407,3250303,,,,,,,2025-12-19,1,,,,,グッドフィルジャパン,0
151,1080403005414,新規,0,2025-12-19,2025-12-19,合同会社テスラ．,,合同会社,静岡県,浜松市中央区,大山町４０番地の３,,22,138,4311102,,,,,,,2025-12-19,1,,,,,テスラ,0
152,1090001019658,新規,0,2025-12-19,2025-12-19,株式会社グリーングラス,,株式会社,山梨県,南アルプス市,藤田２１１４－３,,19,208,4000334,,,,,,,2025-12-19,1,,,,,グリーングラス,0
168,1120001282822,新規,0,2025-12-19,2025-12-19,株式会社Ｕａ,,株式会社,大阪府,大阪市中央区,平野町２丁目２番８号イシモトビル９階,,27,128,5410046,,,,,,,2025-12-19,1,,,,,ウア,0
169,1120001282839,新規,0,2025-12-19,2025-12-19,株式会社ＨＩＲＡＱ,,株式会社,大阪府,大阪市中央区,西心斎橋１丁目１２－２０ｂ．ＮＩＳＨＩＳＨＩＮＳＡＩＢＡＳＨＩ４Ｆ,,27,128,5420086,,,,,,,2025-12-19,1,,,,,ヒラク,0
170,1120001282896,新規,0,2025-12-19,2025-12-19,シイヨウソ株式会社,,株式会社,大阪府,大阪市西成区,橘１丁目７－１,,27,122,5570051,,,,,,,2025-12-19,1,,,,,シイヨウソ,0
181,1130001081257,新規,0,2025-12-19,2025-12-19,株式会社アース・テック・ラボ,,株式会社,京都府,京都市下京区,仏光寺通室町東入釘隠町２５５番地小川京都ビル,,26,106,6008423,,,,,,,2025-12-19,1,,,,,アーステックラボ,0
188,1140001141118,新規,0,2025-12-19,2025-12-19,株式会社アルファプラスジャパン,,株式会社,兵庫県,加東市,新定字流尾２０６３番地３,,28,228,6731324,,,,,,,2025-12-19,1,,,,,アルファプラスジャパン,0
189,1140001141159,新規,0,2025-12-19,2025-12-19,株式会社ＣＲＥＯ,,株式会社,兵庫県,小野市,樫山町４０５番地の１,,28,218,6751325,,,,,,,2025-12-19,1,,,,,クレオ,0
198,1180001169931,新規,0,2025-12-19,2025-12-19,株式会社ＴＯＫＩＴＯＴＩ,,株式会社,愛知県,名古屋市天白区,土原３丁目２１２番地,,23,116,4680026,,,,,,,2025-12-19,1,,,,,トキトチ,0
199,1180001169964,新規,0,2025-12-19,2025-12-19,Ｍａｉｓｏｎ　ｄｅ　Ｌｕｎａ株式会社,,株式会社,愛知県,名古屋市中区,錦３丁目１９番３０号第三錦ビル４階,,23,106,4600003,,,,,,,2025-12-19,1,,,,,メゾンドルーナ,0
200,1180001169972,新規,0,2025-12-19,2025-12-19,株式会社ＨｕｍａＬｉｎｋ　Ｎｅｘｔ,,株式会社,愛知県,名古屋市中村区,名駅３丁目４番１０号アルティメイト名駅１ｓｔ２階,,23,105,4500002,,,,,,,2025-12-19,1,,,,,ヒューマリンクネクスト,0
201,1180001169997,新規,0,2025-12-19,2025-12-19,株式会社Ｇｅｎｏｍｅ　Ｆａｃｔｏｒｙ,,株式会社,愛知県,名古屋市中区,大須２丁目３番５号,,23,106,4600011,,,,,,,2025-12-19,1,,,,,ゲノムファクトリー,0
209,1200001044537,新規,0,2025-12-19,2025-12-19,株式会社豊田機械エンジニアリング,,株式会社,岐阜県,中津川市,蛭川５１３２番地１,,21,206,5098301,,,,,,,2025-12-19,1,,,,,トヨダキカイエンジニアリング,0
216,1260001040836,新規,0,2025-12-19,2025-12-19,株式会社ＳＨＩＭＡ,,株式会社,岡山県,岡山市南区,南輝３丁目２－２７－１,,33,104,7028023,,,,,,,2025-12-19,1,,,,,シマ,0
217,1270003001819,新規,0,2025-12-19,2025-12-19,合同会社Ｓ２,,合同会社,鳥取県,米子市,朝日町２５番地５（３Ｆ）,,31,202,6830813,,,,,,,2025-12-19,1,,,,,エスツー,0
222,1290001112574,新規,0,2025-12-19,2025-12-19,九州プロレス株式会社,,株式会社,福岡県,福岡市東区,多の津５丁目２０番１号,,40,131,8130034,,,,,,,2025-12-19,1,,,,,キュウシュウプロレス,0
224,1290803005232,新規,0,2025-12-19,2025-12-19,合同会社アルフライラ,,合同会社,福岡県,北九州市小倉南区,葛原東２丁目１２番３１号,,40,107,8000206,,,,,,,2025-12-19,1,,,,,アルフライラ,0
225,1290805009891,新規,0,2025-12-19,2025-12-19,医療法人くらとみ歯科クリニック,,その他の設立登記法人,福岡県,北九州市小倉南区,沼緑町１丁目２０番１５号,,40,107,8000207,,,,,,,2025-12-19,1,,,,,クラトミシカクリニック,0
226,1300001014447,新規,0,2025-12-19,2025-12-19,株式会社ＫＩＤ,,株式会社,佐賀県,神埼市,千代田町境原３７０番地,,41,210,8420056,,,,,,,2025-12-19,1,,,,,ケーアイディー,0
227,1300003002391,新規,0,2025-12-19,2025-12-19,ワイスリーアドバンス合同会社,,合同会社,佐賀県,鳥栖市,宿町１３９４番地８,,41,203,8410052,,,,,,,2025-12-19,1,,,,,ワイスリーアドバンス,0
231,1340001027858,新規,0,2025-12-19,2025-12-19,ファルマシアホールディングス株式会社,,株式会社,鹿児島県,鹿児島市,武岡４丁目２３番８号,,46,201,8900031,,,,,,,2025-12-19,1,,,,,ファルマシアホールディングス,0
232,1340005009927,新規,0,2025-12-19,2025-12-19,一般社団法人鹿児島国際文化交流協会,,その他の設立登記法人,鹿児島県,鹿児島市,光山２丁目７番３０号,,46,201,8910151,,,,,,,2025-12-19,1,,,,,カゴシマコクサイブンカコウリュウキョウカイ,0
234,1350001019854,新規,0,2025-12-19,2025-12-19,株式会社１９５,,株式会社,宮崎県,西臼杵郡五ヶ瀬町,大字三ヶ所８１０２番地,,45,443,8821203,,,,,,,2025-12-19,1,,,,,イチキュウゴ,0
239,1360003015495,新規,0,2025-12-19,2025-12-19,Ｕｒｂａｎ　Ｐｅａｋ　Ｃｏｒｐｏｒａｔｉｏｎ合同会社,,合同会社,沖縄県,宜野湾市,我如古３丁目５番２６号,,47,205,9012214,,,,,,,2025-12-19,1,,,,,アーバンピークコーポレーション,0
240,1360005007334,新規,0,2025-12-19,2025-12-19,一般社団法人Ｎｅｓｔｌｉｎｇ　Ｃｈｉｌｄ　Ｃａｒｅ,,その他の設立登記法人,沖縄県,中頭郡北谷町,字美浜１５番地２３,,47,326,9040115,,,,,,,2025-12-19,1,,,,,ネスリングチャイルドケア,0
242,1370001053331,新規,0,2025-12-19,2025-12-19,株式会社ＳＨＩＫＩ,,株式会社,宮城県,黒川郡大和町,吉岡字天皇寺１６－１グランドハイツ吉岡１０２,,04,421,9813621,,,,,,,2025-12-19,1,,,,,シキ,0
246,1380001035758,新規,0,2025-12-19,2025-12-19,株式会社丸市商会,,株式会社,福島県,郡山市,田村町桜ケ丘１丁目５６番地,,07,203,9630723,,,,,,,2025-12-19,1,,,,,マルイチショウカイ,0
248,1380003006212,新規,0,2025-12-19,2025-12-19,合同会社Ｋプランニング,,合同会社,福島県,いわき市,平北白土字西ノ内２番地,,07,204,9708024,,,,,,,2025-12-19,1,,,,,ケープランニング,0
249,1390001018191,新規,0,2025-12-19,2025-12-19,株式会社Ｍ．Ｔ．ｗｏｒｋｓ,,株式会社,山形県,東村山郡中山町,大字長崎３０６８番地の４,,06,302,9900401,,,,,,,2025-12-19,1,,,,,エムティーワークス,0
250,1390005009146,新規,0,2025-12-19,2025-12-19,一般社団法人モンテディオ山形スポーツクラブ,,その他の設立登記法人,山形県,山形市,本町１丁目５番１９号やまがたクリエイティブシティセンターＱ１、３－Ａ,,06,201,9900043,,,,,,,2025-12-19,1,,,,,,0
261,1430001095904,新規,0,2025-12-19,2025-12-19,株式会社Ｐ．Ｖ．Ａ,,株式会社,北海道,札幌市南区,石山東２丁目９－１３,,01,106,0050850,,,,,,,2025-12-19,1,,,,,ピーブイエー,0
265,1430003018441,新規,0,2025-12-19,2025-12-19,合同会社Ｓｔｏｃｋ,,合同会社,北海道,札幌市中央区,南四条西８丁目６－３ビックパレス南４条５０２,,01,101,0640804,,,,,,,2025-12-19,1,,,,,ストック,0
271,1480005007116,新規,0,2025-12-19,2025-12-19,一般社団法人徳島スポーツクライミングクラブ,,その他の設立登記法人,徳島県,板野郡藍住町,奥野字矢上前９５番地２,,36,403,7711203,,,,,,,2025-12-19,1,,,,,トクシマスポーツクライミングクラブ,0
272,1490001011244,新規,0,2025-12-19,2025-12-19,ＨＡＹＬＥＲ　ＧＬＯＢＡＬ　ＨＯＬＤＩＮＧＳ株式会社,,株式会社,高知県,土佐郡土佐町,田井１２３５番地５,,39,363,7813521,,,,,,,2025-12-19,1,,,,,ヘイラーグローバルホールディングス,0
274,1490003002076,新規,0,2025-12-19,2025-12-19,協栄合同会社,,合同会社,高知県,高知市,追手筋１丁目３番１号ベルエポックビル８Ｆ,,39,201,7800842,,,,,,,2025-12-19,1,,,,,キョウエイ,0
290,2010001261233,新規,0,2025-12-19,2025-12-19,株式会社ＦＩＮＤ　ＴＨＥ　ＷＡＹ,,株式会社,東京都,千代田区,神田須田町１丁目２４番地２１加瀬ビル１７３,,13,101,1010041,,,,,,,2025-12-19,1,,,,,ファインドザウェイ,0
291,2010001261340,新規,0,2025-12-19,2025-12-19,ＩＲＯＮＩＷＡ株式会社,,株式会社,東京都,中央区,銀座１丁目１２－４Ｎ＆ＥＢＬＤ．７階,,13,102,1040061,,,,,,,2025-12-19,1,,,,,イロニワ,0
292,2010001261349,新規,0,2025-12-19,2025-12-19,ニュースペース・リサーチ・アンド・テクノロジーズ株式会社,,株式会社,東京都,千代田区,丸の内１丁目８番２号鉄鋼ビルディング４階,,13,101,1000005,,,,,,,2025-12-19,1,,,,,ニュースペースリサーチアンドテクノロジーズ,0
296,2010003049800,新規,0,2025-12-19,2025-12-19,ダントー・アルプス系統用蓄電所Ｈ合同会社,,合同会社,東京都,中央区,銀座１丁目８番１６号３階,,13,102,1040061,,,,,,,2025-12-19,1,,,,,ダントーアルプスケイトウヨウチクデンショエイチ,0
302,2010401194990,新規,0,2025-12-19,2025-12-19,株式会社ＶＥＮＵＥＬＩＦＴ,,株式会社,東京都,港区,南青山７丁目１－５＆ＣＡＬＭｍｉｎａｍｉａｏｙａｍａ４０４,,13,103,1070062,,,,,,,2025-12-19,1,,,,,ベニューリフト,0
303,2010401195188,新規,0,2025-12-19,2025-12-19,株式会社アソートＨＤ,,株式会社,東京都,港区,新橋３丁目２番５号,,13,103,1050004,,,,,,,2025-12-19,1,,,,,アソートエイチディー,0
304,2010401195238,新規,0,2025-12-19,2025-12-19,株式会社ＦＵＱＵＡ,,株式会社,東京都,港区,南麻布５丁目１４番４－３０１号,,13,103,1060047,,,,,,,2025-12-19,1,,,,,フカ,0
305,2010401195254,新規,0,2025-12-19,2025-12-19,株式会社Ｃｌｅａｎ　Ｃｒａｆｔ,,株式会社,東京都,港区,赤坂１丁目７－１９キャピタル赤坂ビル３階,,13,103,1070052,,,,,,,2025-12-19,1,,,,,クリーンクラフト,0
306,2010401195270,新規,0,2025-12-19,2025-12-19,株式会社ＲＧＳ,,株式会社,東京都,港区,南青山２丁目２番１５号ＷｉｎＡｏｙａｍａビルＵＣＦ６３５,,13,103,1070062,,,,,,,2025-12-19,1,,,,,アールジーエス,0
307,2010401195295,新規,0,2025-12-19,2025-12-19,Ｑｅｄｍａ　Ｑｕａｎｔｕｍ　Ｃｏｍｐｕｔｉｎｇ　Ｊａｐａｎ株式会社,,株式会社,東京都,港区,赤坂１丁目１１番４４号赤坂インターシティ５階Ｆｏｒｖｉｓ・Ｍａｚａｒｓ・Ｊａｐａｎ株式会社内,,13,103,1070052,,,,,,,2025-12-19,1,,,,,ケドマクアンタムコンピューティングジャパン,0
308,2010401195304,新規,0,2025-12-19,2025-12-19,株式会社ａｎｋａ．,,株式会社,東京都,港区,芝３丁目２番１８号ＩＣＯＮＰＬＡＣＥＳＨＩＢＡＫＯＥＮ１Ｆ,,13,103,1050014,,,,,,,2025-12-19,1,,,,,アンカ,0
309,2010401195312,新規,0,2025-12-19,2025-12-19,ＳＤＢグループ株式会社,,株式会社,東京都,港区,虎ノ門２丁目６番１号虎ノ門ヒルズステーションタワー１９階,,13,103,1050001,,,,,,,2025-12-19,1,,,,,エスディービーグループ,0
322,2010701048797,新規,0,2025-12-19,2025-12-19,株式会社ジャストワン,,株式会社,東京都,品川区,豊町４丁目３－１８・３０３,,13,109,1420042,,,,,,,2025-12-19,1,,,,,ジャストワン,0
323,2010701048806,新規,0,2025-12-19,2025-12-19,まどい不動産株式会社,,株式会社,東京都,品川区,西五反田５丁目６番１７号,,13,109,1410031,,,,,,,2025-12-19,1,,,,,マドイフドウサン,0
324,2010703008031,新規,0,2025-12-19,2025-12-19,ＰｕｎｏｎｇＰｕｎｏ合同会社,,合同会社,東京都,品川区,荏原６丁目１４番２号ＭＡＩＳＯＮＨＩＲＯ３０１,,13,109,1420063,,,,,,,2025-12-19,1,,,,,プノンプノ,0
325,2010703008048,新規,0,2025-12-19,2025-12-19,合同会社ＴＴＲ,,合同会社,東京都,品川区,東五反田５丁目２８番１０号五反田第二花谷ビル２Ｆ,,13,109,1410022,,,,,,,2025-12-19,1,,,,,ティーティーアール,0
335,2011001174251,新規,0,2025-12-19,2025-12-19,株式会社タマイエ,,株式会社,東京都,渋谷区,恵比寿西２丁目２０－８－７１０,,13,113,1500021,,,,,,,2025-12-19,1,,,,,タマイエ,0
336,2011001174549,新規,0,2025-12-19,2025-12-19,株式会社ＡＶＩ,,株式会社,東京都,渋谷区,猿楽町２番１号アベニューサイド代官山ＩＩ２Ｆ,00141947,13,113,1500033,,,,,,,2025-12-19,1,,,,,アヴィ,0
337,2011003023142,新規,0,2025-12-19,2025-12-19,合同会社Ｏｃｔａ　Ｂｏｎｄ,,合同会社,東京都,渋谷区,東１丁目２－２４菱和パレス青山南４０６,,13,113,1500011,,,,,,,2025-12-19,1,,,,,オクターボンド,0
346,2011101114248,新規,0,2025-12-19,2025-12-19,株式会社Ｓｔａｔｅｒａ,,株式会社,東京都,新宿区,西新宿８丁目１４番２７－２６０３号,,13,104,1600023,,,,,,,2025-12-19,1,,,,,スタテーラ,0
347,2011101114396,新規,0,2025-12-19,2025-12-19,Ｆｌｕｘｃｏｒｅ株式会社,,株式会社,東京都,新宿区,西新宿３丁目３番１３号西新宿水間ビル２Ｆ,,13,104,1600023,,,,,,,2025-12-19,1,,,,,フラックスコア,0
348,2011101114405,新規,0,2025-12-19,2025-12-19,Ｋｓｔａｙ株式会社,,株式会社,東京都,新宿区,西新宿３丁目３番１３号西新宿水間ビル２Ｆ,,13,104,1600023,,,,,,,2025-12-19,1,,,,,ケイステイ,0
352,2011503006811,新規,0,2025-12-19,2025-12-19,合同会社華営支,,合同会社,東京都,北区,西ケ原３丁目６５番１２－５０１号コモド駒込ハイツ,,13,117,1140024,,,,,,,2025-12-19,1,,,,,カエイシ,0
369,2020001166365,新規,0,2025-12-19,2025-12-19,株式会社ＷＥＬＬＮＥＳＴ　ＨＯＭＥ　ＫＡＮＡＧＡＷＡ,,株式会社,神奈川県,横浜市金沢区,瀬戸１６番２０号,,14,108,2360027,,,,,,,2025-12-19,1,,,,,ウェルネストホームカナガワ,0
373,2020003030016,新規,0,2025-12-19,2025-12-19,合同会社ＰｒｉｍｅＧａｔｅ,,合同会社,神奈川県,横浜市栄区,上郷町２６２番地３２－１号館２１４号,,14,115,2470013,,,,,,,2025-12-19,1,,,,,プライムゲート,0
375,2021001087015,新規,0,2025-12-19,2025-12-19,株式会社ＳＴＵＤＩＯ．Ｎ,,株式会社,神奈川県,厚木市,林４丁目８番９号成瀬マンション３０１号室,,14,212,2430816,,,,,,,2025-12-19,1,,,,,スタジオエヌ,0
377,2021005013495,新規,0,2025-12-19,2025-12-19,医療法人溪秋会,,その他の設立登記法人,神奈川県,小田原市,栄町１丁目１４番９号ＮＴビル１＿３Ｆ－Ｂ号室,,14,206,2500011,,,,,,,2025-12-19,1,,,,,ケイシュウカイ,0
398,2040001141762,新規,0,2025-12-19,2025-12-19,株式会社竜コーポレーション,,株式会社,千葉県,白井市,冨士１５１番地の２白井ロジュマン１３１８号,,12,232,2701432,,,,,,,2025-12-19,1,,,,,タツコーポレーション,0
399,2040001141804,新規,0,2025-12-19,2025-12-19,株式会社アグロアフィット,,株式会社,千葉県,船橋市,飯山満町２丁目８７１番地,,12,204,2740822,,,,,,,2025-12-19,1,,,,,アグロアフィット,0
400,2040001141845,新規,0,2025-12-19,2025-12-19,ナム・アン・ジャパン株式会社,,株式会社,千葉県,柏市,柏３丁目１１番２６－１０６号,,12,217,2770005,,,,,,,2025-12-19,1,,,,,ナムアンジャパン,0
401,2040001141853,新規,0,2025-12-19,2025-12-19,株式会社カウルケアワークス,,株式会社,千葉県,流山市,大字東深井７２４番地の６２,,12,220,2700101,,,,,,,2025-12-19,1,,,,,カウルケアワークス,0
404,2040003029155,新規,0,2025-12-19,2025-12-19,合同会社天翔,,合同会社,千葉県,柏市,大井２３７２‐１３,,12,217,2770902,,,,,,,2025-12-19,1,,,,,テンショウ,0
405,2050001057710,新規,0,2025-12-19,2025-12-19,株式会社ブリッジポート,,株式会社,茨城県,坂東市,弓田３３４５番地１６,,08,228,3060607,,,,,,,2025-12-19,1,,,,,ブリッジポート,0
409,2060005010400,新規,0,2025-12-19,2025-12-19,一般社団法人益子笠間観光センター,,その他の設立登記法人,栃木県,芳賀郡益子町,大字益子７０６番地２－２,,09,342,3214217,,,,,,,2025-12-19,1,,,,,マシコカサマカンコウセンター,0
413,2090001019665,新規,0,2025-12-19,2025-12-19,株式会社ＭＵＧＥＮ　Ｓｔｕｄｉｏ,,株式会社,山梨県,甲州市,塩山小屋敷１３７－１、１Ｆ,,19,213,4040053,,,,,,,2025-12-19,1,,,,,ムゲンスタジオ,0
428,2120001282862,新規,0,2025-12-19,2025-12-19,株式会社ｔｏｍｏｎｉ,,株式会社,大阪府,大阪市北区,梅田３丁目２番１２３号,,27,127,5300001,,,,,,,2025-12-19,1,,,,,トモニ,0
429,2120001282904,新規,0,2025-12-19,2025-12-19,株式会社ＦＵＪＩ　ＮＥＸＵＳ,,株式会社,大阪府,大阪市中央区,南本町４丁目３番１６号ブランズタワー御堂筋本町１７０５,,27,128,5410054,,,,,,,2025-12-19,1,,,,,フジネクサス,0
443,2120901051986,新規,0,2025-12-19,2025-12-19,株式会社コアラグローバル,,株式会社,大阪府,豊中市,庄内西町３丁目１番５号,,27,203,5610832,,,,,,,2025-12-19,1,,,,,コアラグローバル,0
445,2122001040011,新規,0,2025-12-19,2025-12-19,株式会社肉澤,,株式会社,大阪府,東大阪市,下六万寺町１丁目４番２９号,,27,227,5798066,,,,,,,2025-12-19,1,,,,,ニクサワ,0
449,2130001081181,新規,0,2025-12-19,2025-12-19,株式会社ゼロ,,株式会社,京都府,京都市伏見区,向島清水町４７番地１向島市営住宅１１－６棟７１２号,,26,109,6128134,,,,,,,2025-12-19,1,,,,,ゼロ,0
456,2140001141117,新規,0,2025-12-19,2025-12-19,上田溶工株式会社,,株式会社,兵庫県,尼崎市,浜３丁目１３番３０号,,28,202,6610967,,,,,,,2025-12-19,1,,,,,,0
458,2140005027733,新規,0,2025-12-19,2025-12-19,一般社団法人姫吉,,その他の設立登記法人,兵庫県,姫路市,飾磨区今在家３丁目５３番地ラポール・セタ１０３号室,,28,201,6728079,,,,,,,2025-12-19,1,,,,,ヒメヨシ,0
460,2150003003784,新規,0,2025-12-19,2025-12-19,合同会社富雄カンパニー,,合同会社,奈良県,大和郡山市,新町８７６番地８,,29,203,6391054,,,,,,,2025-12-19,1,,,,,トミオカンパニー,0
463,2160001027306,新規,0,2025-12-19,2025-12-19,株式会社アーバンループ,,株式会社,滋賀県,大津市,坂本７丁目３０番７７号,,25,201,5200113,,,,,,,2025-12-19,1,,,,,アーバンループ,0
469,2180001169922,新規,0,2025-12-19,2025-12-19,ＥＶＥＲＬＯＦＴ株式会社,,株式会社,愛知県,あま市,森６丁目２９番地１,,23,237,4901107,,,,,,,2025-12-19,1,,,,,エバーロフト,0
470,2180001169971,新規,0,2025-12-19,2025-12-19,株式会社アップムーン,,株式会社,愛知県,名古屋市名東区,猪子石原２丁目９１１番地,,23,115,4650008,,,,,,,2025-12-19,1,,,,,アップムーン,0
471,2180001169988,新規,0,2025-12-19,2025-12-19,株式会社ＯＣＰＳ,,株式会社,愛知県,名古屋市中区,大須１丁目７番１４号パークＩＭビル２Ｆ,,23,106,4600011,,,,,,,2025-12-19,1,,,,,オクパス,0
473,2180003029521,新規,0,2025-12-19,2025-12-19,はびりわーく合同会社,,合同会社,愛知県,東海市,加木屋町２丁目２１５番地（Ｆ棟）,,23,222,4770032,,,,,,,2025-12-19,1,,,,,ハビリワーク,0
477,2180301040519,新規,0,2025-12-19,2025-12-19,株式会社Ｓ・Ｅ　ＷＯＲＫＳ,,株式会社,愛知県,豊田市,浄水町伊保原１番４８,,23,211,4700343,,,,,,,2025-12-19,1,,,,,エスイーワークス,0
498,2260001040835,新規,0,2025-12-19,2025-12-19,株式会社ＡＰＯＬＬＯ,,株式会社,岡山県,岡山市中区,旭東町１丁目４番８号,,33,102,7038286,,,,,,,2025-12-19,1,,,,,アポロ,0
509,2290001112573,新規,0,2025-12-19,2025-12-19,ＴＦＫ株式会社,,株式会社,福岡県,福岡市早良区,城西３丁目７番２０号,,40,137,8140003,,,,,,,2025-12-19,1,,,,,ティーエフケー,0
510,2290003017853,新規,0,2025-12-19,2025-12-19,合同会社サントリーニ,,合同会社,福岡県,福岡市早良区,西新２丁目２１番４５－４０２号,,40,137,8140002,,,,,,,2025-12-19,1,,,,,サントリーニ,0
511,2290003017861,新規,0,2025-12-19,2025-12-19,合同会社ＭＯＭＯＫＯ,,合同会社,福岡県,福岡市博多区,博多駅南３丁目８－８,,40,132,8120016,,,,,,,2025-12-19,1,,,,,モモコ,0
514,2290801032112,新規,0,2025-12-19,2025-12-19,株式会社アイ空調設備,,株式会社,福岡県,中間市,岩瀬西町３４番２９号,,40,215,8090041,,,,,,,2025-12-19,1,,,,,アイクウチョウセツビ,0
515,2290803005231,新規,0,2025-12-19,2025-12-19,合同会社逢飛夢,,合同会社,福岡県,行橋市,西宮市４丁目２９番２号,,40,213,8240031,,,,,,,2025-12-19,1,,,,,アトム,0
518,2300001014446,新規,0,2025-12-19,2025-12-19,株式会社ＡＳＡＮＯコーポレート,,株式会社,佐賀県,唐津市,町田４丁目８番３号,,41,202,8470821,,,,,,,2025-12-19,1,,,,,アサノコーポレート,0
521,2340003005051,新規,0,2025-12-19,2025-12-19,合同会社ＹＵ,,合同会社,鹿児島県,鹿児島市,本名町６０５番地６,,46,201,8911304,,,,,,,2025-12-19,1,,,,,ユウ,0
522,2350001019853,新規,0,2025-12-19,2025-12-19,株式会社ＢｌｕｅＭｏｒｐｈｏ．Ｐｊ,,株式会社,宮崎県,宮崎市,福島町亀ノ甲２７９７番地３,,45,201,8800945,,,,,,,2025-12-19,1,,,,,ブルーモルフォドットピージェイ,0
524,2360001036162,新規,0,2025-12-19,2025-12-19,株式会社ソダチエル,,株式会社,沖縄県,沖縄市,登川２丁目６番６号,,47,211,9042142,,,,,,,2025-12-19,1,,,,,ソダチエル,0
537,2430001095903,新規,0,2025-12-19,2025-12-19,株式会社ＷＳ,,株式会社,北海道,小樽市,堺町２番１２号,,01,203,0470027,,,,,,,2025-12-19,1,,,,,ダブルエス,0
541,2480005007115,新規,0,2025-12-19,2025-12-19,一般財団法人とくしまコミュニティ財団,,その他の設立登記法人,徳島県,徳島市,仲之町２丁目１３番地テラッセンハイツ１０２号室,,36,201,7700932,,,,,,,2025-12-19,1,,,,,トクシマコミュニティザイダン,0
545,2700150133626,新規,0,2025-12-19,2025-12-19,ベイカレント健康保険組合,,その他,東京都,渋谷区,千駄ヶ谷５丁目２３番５号,,13,113,1510051,,,,,,,2025-12-19,1,,,,,ベイカレントケンコウホケンクミアイ,0
563,3010003049774,新規,0,2025-12-19,2025-12-19,合同会社ＦＵＪＩＸＩＡ,,合同会社,東京都,中央区,勝どき５丁目１０番１０－９１５号,,13,102,1040054,,,,,,,2025-12-19,1,,,,,フジシア,0
577,3010401195187,新規,0,2025-12-19,2025-12-19,株式会社ＣＲＹＬ,,株式会社,東京都,港区,西新橋３丁目１３番３号ＢＩＺＣＯＲＥ西新橋１３階,,13,103,1050003,,,,,,,2025-12-19,1,,,,,クリル,0
578,3010401195253,新規,0,2025-12-19,2025-12-19,Ｊａｐａｎ　ＥＳＧ　Ｃｏｒｐｏｒａｔｉｏｎ株式会社,,株式会社,東京都,港区,六本木１丁目４番５号１６Ｆ,,13,103,1060032,,,,,,,2025-12-19,1,,,,,ジャパンイーエスジーコーポレーション,0
579,3010401195278,新規,0,2025-12-19,2025-12-19,ＮＴＴモビリティ株式会社,,株式会社,東京都,港区,赤坂３丁目１７番３号,,13,103,1070052,,,,,,,2025-12-19,1,,,,,エヌティティモビリティ,0
580,3010401195294,新規,0,2025-12-19,2025-12-19,株式会社グラナリー,,株式会社,東京都,港区,高輪４丁目２３番６号ハイホーム高輪７０８,,13,103,1080074,,,,,,,2025-12-19,1,,,,,グラナリー,0
581,3010401195311,新規,0,2025-12-19,2025-12-19,株式会社Ｇａｒｄｅｎ,,株式会社,東京都,港区,虎ノ門２丁目６番１号虎ノ門ヒルズステーションタワー１９階,,13,103,1050001,,,,,,,2025-12-19,1,,,,,ガーデン,0
584,3010403036827,新規,0,2025-12-19,2025-12-19,合同会社ＣＬＥＭＡＮ,,合同会社,東京都,港区,北青山１丁目３番１号,,13,103,1070061,,,,,,,2025-12-19,1,,,,,,0
585,3010403036835,新規,0,2025-12-19,2025-12-19,合同会社イクスタム,,合同会社,東京都,港区,六本木１丁目９番１８－３０１号,,13,103,1060032,,,,,,,2025-12-19,1,,,,,イクスタム,0
593,3010601068457,新規,0,2025-12-19,2025-12-19,ｕｎｌｅａｓｈ株式会社,,株式会社,東京都,江東区,住吉１丁目１４番１２号ソフィアガーデン住吉３０３号室,,13,108,1350002,,,,,,,2025-12-19,1,,,,,アンリーシュ,0
597,3010801036890,新規,0,2025-12-19,2025-12-19,株式会社アンバージョイン,,株式会社,東京都,大田区,山王２丁目１－８－５２０,,13,111,1430023,,,,,,,2025-12-19,1,,,,,アンバージョイン,0
598,3010803005646,新規,0,2025-12-19,2025-12-19,合同会社ｚａｎｓｉｎ,,合同会社,東京都,大田区,北千束２丁目９－８,,13,111,1450062,,,,,,,2025-12-19,1,,,,,ザンシン,0
605,3011001174366,新規,0,2025-12-19,2025-12-19,ＪＰＩＮ株式会社,,株式会社,東京都,渋谷区,渋谷１丁目１番３号－３Ｆ,,13,113,1500002,,,,,,,2025-12-19,1,,,,,ジェイピーアイエヌ,0
607,3011003023182,新規,0,2025-12-19,2025-12-19,Ａｂｕｎｄｉａアドバイザリー合同会社,,合同会社,東京都,渋谷区,道玄坂１丁目１６番６号二葉ビル８ｂ,,13,113,1500043,,,,,,,2025-12-19,1,,,,,アバンディアアドバイザリー,0
608,3011003023208,新規,0,2025-12-19,2025-12-19,Ｊ・Ｔｅｃｈｎｏｌｏｇｙ・Ｐａｒｔｎｅｒｓ合同会社,,合同会社,東京都,渋谷区,恵比寿西２丁目４番８号ウィンド恵比寿ビル８Ｆ,,13,113,1500021,,,,,,,2025-12-19,1,,,,,ジェイテクノロジーパートナーズ,0
614,3011101114214,新規,0,2025-12-19,2025-12-19,株式会社Ｎｅｗ　Ｏｒｄｅｒ,,株式会社,東京都,新宿区,西新宿２丁目１番１号新宿三井ビルディング３６Ｆ,,13,104,1600023,,,,,,,2025-12-19,1,,,,,ニューオーダー,0
615,3011101114461,新規,0,2025-12-19,2025-12-19,株式会社ＯＲＩ　Ｓｔｕｄｉｏ,,株式会社,東京都,新宿区,四谷４丁目２９‐３クラッシィタワー新宿御苑２５０６,,13,104,1600004,,,,,,,2025-12-19,1,,,,,オリスタジオ,0
618,3011401027677,新規,0,2025-12-19,2025-12-19,株式会社ＮＩＮＥ　ＯＰＥＲＡＴＩＯＮＳ,,株式会社,東京都,板橋区,新河岸２丁目８－１,,13,119,1750081,,,,,,,2025-12-19,1,,,,,ナインオペレーションズ,0
621,3011503006810,新規,0,2025-12-19,2025-12-19,ｌａｎｗａｌｌ　ｉｎｔｅｒｎｅｔｎａｔｉｏｎａｌ　ｔｒａｄｅ合同会社,,合同会社,東京都,荒川区,南千住３丁目２７－２浅草ビル,,13,118,1160003,,,,,,,2025-12-19,1,,,,,ランウォールインターナショナルトレード,0
627,3012403007527,新規,0,2025-12-19,2025-12-19,ＭＩＲＡＩエステート合同会社,,合同会社,東京都,調布市,飛田給１丁目４２番地５レネットメルル飛田給ＩＩ１０２号室,00141961,13,208,1820036,,,,,,,2025-12-19,1,,,,,ミライエステート,0
628,3012703003432,新規,0,2025-12-19,2025-12-19,合同会社ＫＤＳ,,合同会社,東京都,小平市,仲町５０‐７,,13,211,1870042,,,,,,,2025-12-19,1,,,,,ケーディーエス,0
629,3013301055469,新規,0,2025-12-19,2025-12-19,さくらライフジェネレーション株式会社,,株式会社,東京都,豊島区,西池袋１丁目４番１０号,,13,116,1710021,,,,,,,2025-12-19,1,,,,,サクラライフジェネレーション,0
630,3013301055477,新規,0,2025-12-19,2025-12-19,エバーグリッド株式会社,,株式会社,東京都,豊島区,東池袋３丁目１番１号サンシャイン６０・１２Ｆ,,13,116,1700013,,,,,,,2025-12-19,1,,,,,エバーグリッド,0
638,3020001166356,新規,0,2025-12-19,2025-12-19,株式会社矢部防水,,株式会社,神奈川県,横浜市泉区,上飯田町１２５５番地１１,,14,116,2450018,,,,,,,2025-12-19,1,,,,,ヤベボウスイ,0
639,3020001166414,新規,0,2025-12-19,2025-12-19,海新創益株式会社,,株式会社,神奈川県,横浜市中区,山田町７番１２エステハイム横浜５０１号室,,14,104,2310036,,,,,,,2025-12-19,1,,,,,カイシンソウエキ,0
650,3021005013486,新規,0,2025-12-19,2025-12-19,医療法人社団ていくあい,,その他の設立登記法人,神奈川県,藤沢市,下土棚４６７番地１０Ｓ・Ｍ・Ｃメディカルビル１階,,14,205,2520807,,,,,,,2025-12-19,1,,,,,テイクアイ,0
660,3030001170200,新規,0,2025-12-19,2025-12-19,ハジメインターナショナル株式会社,,株式会社,埼玉県,さいたま市南区,別所５丁目１５－２,,11,108,3360021,,,,,,,2025-12-19,1,,,,,ハジメインターナショナル,0
666,3030003028306,新規,0,2025-12-19,2025-12-19,合同会社ＢｕＬＬ,,合同会社,埼玉県,川口市,大字里１３１２番地の５,,11,203,3340005,,,,,,,2025-12-19,1,,,,,ブル,0
671,3040003029187,新規,0,2025-12-19,2025-12-19,合同会社ＥＶＯＸ,,合同会社,千葉県,千葉市緑区,あすみが丘東５丁目１８番地７,,12,105,2670067,,,,,,,2025-12-19,1,,,,,エヴォックス,0
672,3040003029204,新規,0,2025-12-19,2025-12-19,Ｇｌｏｂａｌ　Ｎｅｘｕｓ　Ｊａｐａｎ合同会社,,合同会社,千葉県,印西市,牧の原４丁目１９番地２２７,,12,231,2701331,,,,,,,2025-12-19,1,,,,,グローバルネクサスジャパン,0
675,3050003009816,新規,0,2025-12-19,2025-12-19,合同会社アキカク,,合同会社,茨城県,守谷市,薬師台７丁目７－１９,,08,224,3020105,,,,,,,2025-12-19,1,,,,,アキカク,0
676,3050003009824,新規,0,2025-12-19,2025-12-19,合同会社パッチワークス,,合同会社,茨城県,つくばみらい市,陽光台３丁目２７－１ラ・ポールＡ２０１,,08,235,3002358,,,,,,,2025-12-19,1,,,,,パッチワークス,0
678,3060005010399,新規,0,2025-12-19,2025-12-19,社会福祉法人だるま福祉会,,その他の設立登記法人,栃木県,さくら市,氏家２５６０番地２,,09,214,3291311,,,,,,,2025-12-19,1,,,,,ダルマフクシカイ,0
683,3080403005412,新規,0,2025-12-19,2025-12-19,合同会社Ｙ’ｚＧｒｏｕｐ,,合同会社,静岡県,浜松市中央区,春日町１９４番地の７,,22,138,4328046,,,,,,,2025-12-19,1,,,,,ワイズグループ,0
684,3100001039207,新規,0,2025-12-19,2025-12-19,株式会社レオクリード,,株式会社,長野県,松本市,大字島立３０３番地１松本ヤマトビル５階,,20,202,3900852,,,,,,,2025-12-19,1,,,,,レオクリード,0
685,3110003006006,新規,0,2025-12-19,2025-12-19,ＢＬＡＮＫ合同会社,,合同会社,新潟県,妙高市,大字上中村新田４８２―２,,15,217,9492233,,,,,,,2025-12-19,1,,,,,ブランク,0
696,3120001282770,新規,0,2025-12-19,2025-12-19,株式会社Ｋ‐ｕｎｉｔ,,株式会社,大阪府,枚方市,招提大谷２丁目４０番１１号,,27,210,5731153,,,,,,,2025-12-19,1,,,,,ケーユニット,0
697,3120001282886,新規,0,2025-12-19,2025-12-19,株式会社ＮＳＰＧ,,株式会社,大阪府,大阪市淀川区,西宮原２丁目１番３号ＳＯＲＡ新大阪２１－１４Ｆ,,27,123,5320004,,,,,,,2025-12-19,1,,,,,エヌエスピージー,0
698,3120001282911,新規,0,2025-12-19,2025-12-19,ＣＲＥＡＳＯＬ株式会社,,株式会社,大阪府,大阪市天王寺区,東上町８－３トラスティコート２０２,,27,109,5430026,,,,,,,2025-12-19,1,,,,,クレアソル,0
699,3120001282928,新規,0,2025-12-19,2025-12-19,株式会社Ｑｕａｄｒａ,,株式会社,大阪府,大阪市淀川区,木川東２丁目５番地４セントラルハイツ１０５号室,,27,123,5320012,,,,,,,2025-12-19,1,,,,,クアドラ,0
700,3120001282952,新規,0,2025-12-19,2025-12-19,株式会社ＬｕｃｋｙＷｏｒｋｓ,,株式会社,大阪府,寝屋川市,早子町１８－１－２Ｆ,,27,215,5720837,,,,,,,2025-12-19,1,,,,,ラッキーワークス,0
706,3120003031481,新規,0,2025-12-19,2025-12-19,合同会社プラマ,,合同会社,大阪府,大阪市淀川区,三国本町３丁目１１－１２－２Ｆ,,27,123,5320005,,,,,,,2025-12-19,1,,,,,プラマ,0
707,3120003031507,新規,0,2025-12-19,2025-12-19,合同会社銀兎弥,,合同会社,大阪府,大阪市北区,梅田１丁目２番２号大阪駅前第２ビル１２－１２,,27,127,5300001,,,,,,,2025-12-19,1,,,,,ギントヤ,0
708,3120003031515,新規,0,2025-12-19,2025-12-19,ＰＥＭＢＲＩＤＧＥ　ＴＡＬＥＮＴ合同会社,,合同会社,大阪府,大阪市東淀川区,大桐２丁目５番８号３階,,27,114,5330011,,,,,,,2025-12-19,1,,,,,ペンブリッジタレント,0
709,3120005025309,新規,0,2025-12-19,2025-12-19,一般社団法人アカンパニング・アンド・ソリューション,,その他の設立登記法人,大阪府,大阪市生野区,桃谷３丁目５番１８号,,27,116,5440034,,,,,,,2025-12-19,1,,,,,アカンパニングアンドソリューション,0
719,3120901051993,新規,0,2025-12-19,2025-12-19,株式会社Ａ‐Ｗｏｒｋｓ,,株式会社,大阪府,豊中市,庄内栄町３丁目４番２号,,27,203,5610834,,,,,,,2025-12-19,1,,,,,エーワークス,0
720,3120901052001,新規,0,2025-12-19,2025-12-19,日順通商株式会社,,株式会社,大阪府,吹田市,南正雀２丁目１０番１９号,,27,205,5640012,,,,,,,2025-12-19,1,,,,,ニチジュンツウショウ,0
724,3122001040010,新規,0,2025-12-19,2025-12-19,株式会社Ｎｅｘｙ,,株式会社,大阪府,八尾市,山本町北７丁目７－８,,27,212,5810831,,,,,,,2025-12-19,1,,,,,,0
734,3140001141099,新規,0,2025-12-19,2025-12-19,地研株式会社,,株式会社,兵庫県,三木市,平田１２０番地の１,,28,215,6730405,,,,,,,2025-12-19,1,,,,,チケン,0
738,3140003022990,新規,0,2025-12-19,2025-12-19,合同会社ＹＵＭＡ,,合同会社,兵庫県,丹波篠山市,池上２４４ー１,,28,221,6692436,,,,,,,2025-12-19,1,,,,,ユーマ,0
743,3180001169905,新規,0,2025-12-19,2025-12-19,一宮番匠株式会社,,株式会社,愛知県,名古屋市中村区,名駅３丁目４－１０アルティメイト名駅１ｓｔ２階,,23,105,4500002,,,,,,,2025-12-19,1,,,,,イチノミヤバンショウ,0
744,3180001169962,新規,0,2025-12-19,2025-12-19,株式会社滝沢電設,,株式会社,愛知県,清須市,春日さくら３丁目５０番地,,23,233,4520964,,,,,,,2025-12-19,1,,,,,タキザワデンセツ,0
745,3180001169995,新規,0,2025-12-19,2025-12-19,株式会社ＫＯＫＯ,,株式会社,愛知県,名古屋市守山区,白沢町１３１番地,,23,113,4630092,,,,,,,2025-12-19,1,,,,,ココ,0
750,3180305009749,新規,0,2025-12-19,2025-12-19,一般社団法人アートサポートラボ,,その他の設立登記法人,愛知県,安城市,池浦町丸田１９５番地１,,23,212,4460066,,,,,,,2025-12-19,1,,,,,,0
751,3190001032764,新規,0,2025-12-19,2025-12-19,ＡＭＷＬ株式会社,,株式会社,三重県,四日市市,東坂部町１７２３番地４,,24,202,5120904,,,,,,,2025-12-19,1,,,,,アムール,0
752,3190003005306,新規,0,2025-12-19,2025-12-19,合同会社Ａｉｓｃｏｍ,,合同会社,三重県,津市,柳山津興４２１番地マリンスクエア１階,,24,201,5140803,,,,,,,2025-12-19,1,,,,,アイスコム,0
757,3200001044535,新規,0,2025-12-19,2025-12-19,株式会社ａｅｒｕ,,株式会社,岐阜県,各務原市,那加石山町１丁目１３７番地２,,21,213,5040044,,,,,,,2025-12-19,1,,,,,アエル,0
775,3290001112548,新規,0,2025-12-19,2025-12-19,株式会社ＮｏＥｎｄｓ,,株式会社,福岡県,筑後市,大字前津９２６番地１４,,40,211,8330002,,,,,,,2025-12-19,1,,,,,ノーエンズ,0
776,3290001112564,新規,0,2025-12-19,2025-12-19,株式会社ＯＮＥＶＥＸ,,株式会社,福岡県,福岡市東区,箱崎ふ頭３丁目３番１９号レクサスガーデン箱崎タワーズＷＥＳＴ１００３号,,40,131,8120051,,,,,,,2025-12-19,1,,,,,ワンヴェックス,0
777,3290001112580,新規,0,2025-12-19,2025-12-19,株式会社ＩＢＥ,,株式会社,福岡県,福岡市中央区,大名１丁目１番１６－６０１号宮田ビル,,40,133,8100041,,,,,,,2025-12-19,1,,,,,アイビー,0
778,3290003017852,新規,0,2025-12-19,2025-12-19,合同会社海上三段,,合同会社,福岡県,福岡市城南区,別府７丁目１２番３０号,,40,136,8140104,,,,,,,2025-12-19,1,,,,,カイジョウサンダン,0
782,3310001019889,新規,0,2025-12-19,2025-12-19,シナノ株式会社,,株式会社,長崎県,佐世保市,川下町６８番地４,,42,202,8580914,,,,,,,2025-12-19,1,,,,,シナノ,0
783,3330003011363,新規,0,2025-12-19,2025-12-19,合同会社Ｔｓｕｋｕｙｏｍｉ,,合同会社,熊本県,合志市,上生９２１番地１,,43,216,8611105,,,,,,,2025-12-19,1,,,,,ツクヨミ,0
784,3340001027848,新規,0,2025-12-19,2025-12-19,ＬＦＧ株式会社,,株式会社,鹿児島県,鹿児島市,下福元町８３７５番地２,,46,201,8910144,,,,,,,2025-12-19,1,,,,,エルエフジー,0
791,3380003006210,新規,0,2025-12-19,2025-12-19,合同会社Ｐ＆Ｓ,,合同会社,福島県,郡山市,菜根５丁目１８番１７号菜根アルザス６０１号,,07,203,9638862,,,,,,,2025-12-19,1,,,,,ピーアンドエス,0
795,3460301005327,新規,0,2025-12-19,2025-12-19,清里まちづくり株式会社,,株式会社,北海道,斜里郡清里町,羽衣町１３番地,,01,546,0994405,,,,,,,2025-12-19,1,,,,,キヨサトマチヅクリ,0
797,3490001011242,新規,0,2025-12-19,2025-12-19,ジェントルレイン株式会社,,株式会社,高知県,高知市,朝倉己１１５２番地９９,,39,201,7808066,,,,,,,2025-12-19,1,,,,,ジェントルレイン,0
799,3490003002074,新規,0,2025-12-19,2025-12-19,合同会社ＧＥＭＳＴＯＮＥ,,合同会社,高知県,高知市,一宮東町２丁目２７－１３,,39,201,7818132,,,,,,,2025-12-19,1,,,,,ジェムストーン,0
803,3700150133625,新規,0,2025-12-19,2025-12-19,ムーンスター健康保険組合,,その他,福岡県,久留米市,白山町６０番地,,40,203,8300041,,,,,,,2025-12-19,1,,,,,ムーンスターケンコウホケンクミアイ,0
804,4010001040346,新規,0,2025-12-19,2025-12-19,鹿沼ビルディング株式会社,,株式会社,東京都,千代田区,内神田３丁目２番１１号,,13,101,1010047,,,,,,,2025-12-19,1,,,,,カヌマビルディング,0
811,4010001261248,新規,0,2025-12-19,2025-12-19,ＫＡＺＵ株式会社,,株式会社,東京都,中央区,日本橋小伝馬町１６－９ａＬＡＴＯ日本橋小伝馬町,,13,102,1030001,,,,,,,2025-12-19,1,,,,,カズ,0
812,4010001261306,新規,0,2025-12-19,2025-12-19,株式会社ちとせホールディングス,,株式会社,東京都,千代田区,四番町５番地４サンビューハイツ四番町３０５号,,13,101,1020081,,,,,,,2025-12-19,1,,,,,チトセホールディングス,0
813,4010001261314,新規,0,2025-12-19,2025-12-19,株式会社Ｐｒｕｎｏ,,株式会社,東京都,中央区,銀座１丁目１２－４Ｎ＆ＥＢＬＤ．７階,,13,102,1040061,,,,,,,2025-12-19,1,,,,,プルーノ,0
832,4010401195269,新規,0,2025-12-19,2025-12-19,株式会社ＲｅＥｓｓｅｎｃｅ,,株式会社,東京都,港区,虎ノ門５丁目９番１号,,13,103,1050001,,,,,,,2025-12-19,1,,,,,リエッセンス,0
833,4010401195285,新規,0,2025-12-19,2025-12-19,株式会社ｕｋｉｕｋｉ,,株式会社,東京都,港区,南麻布２丁目５番１６－３０２号,,13,103,1060047,,,,,,,2025-12-19,1,,,,,ウキウキ,0
834,4010401195293,新規,0,2025-12-19,2025-12-19,株式会社ファーサイド,,株式会社,東京都,港区,港南１丁目２番７０号,,13,103,1080075,,,,,,,2025-12-19,1,,,,,ファーサイド,0
839,4010403036867,新規,0,2025-12-19,2025-12-19,ＡＹＨＤ合同会社,,合同会社,東京都,港区,虎ノ門５丁目１番４号,,13,103,1050001,,,,,,,2025-12-19,1,,,,,エーワイエイチディー,0
845,4010503008122,新規,0,2025-12-19,2025-12-19,合同会社ＧＰＴ,,合同会社,東京都,台東区,上野２丁目１２－１８－２Ｆ,,13,106,1100005,,,,,,,2025-12-19,1,,,,,ジーピーティー,0
847,4010701048804,新規,0,2025-12-19,2025-12-19,エターナルソイル株式会社,,株式会社,東京都,品川区,戸越５丁目３番１４号ＥＤＩＴ品川戸越３０２,,13,109,1420041,,,,,,,2025-12-19,1,,,,,エターナルソイル,0
853,4011001174266,新規,0,2025-12-19,2025-12-19,株式会社ＩＧＮＡＲＡ,,株式会社,東京都,渋谷区,道玄坂１丁目１６－６二葉ビル８ｂ,,13,113,1500043,,,,,,,2025-12-19,1,,,,,イグナーラ,0
854,4011001174588,新規,0,2025-12-19,2025-12-19,株式会社オリマ２,,株式会社,東京都,渋谷区,上原３丁目２２番１３号,,13,113,1510064,,,,,,,2025-12-19,1,,,,,オリマツー,0
855,4011003023090,新規,0,2025-12-19,2025-12-19,合同会社ＮＳ,,合同会社,東京都,渋谷区,神南１丁目１１－４ＦＰＧリンクス神南５階,,13,113,1500041,,,,,,,2025-12-19,1,,,,,,0
856,4011003023124,新規,0,2025-12-19,2025-12-19,合同会社ｐｒａｙｅｒ,,合同会社,東京都,目黒区,緑が丘２丁目２３番１１号,,13,110,1520034,,,,,,,2025-12-19,1,,,,,プレイヤー,0
860,4011301031134,新規,0,2025-12-19,2025-12-19,株式会社ｐｈｏｔｏｎ,,株式会社,東京都,杉並区,永福３丁目３番１２号ウエスト１２－３０３,,13,115,1680064,,,,,,,2025-12-19,1,,,,,フォトン,0
865,4011701029042,新規,0,2025-12-19,2025-12-19,江戸川電力株式会社,,株式会社,東京都,江戸川区,西葛西７丁目２０番１０号,,13,123,1340088,,,,,,,2025-12-19,1,,,,,エドガワデンリョク,0
869,4011803007235,新規,0,2025-12-19,2025-12-19,ＲｏｕＢｏｘ合同会社,,合同会社,東京都,葛飾区,西亀有２丁目１０番１９号,,13,122,1240002,,,,,,,2025-12-19,1,,,,,ロウボックス,0
873,4013303008003,新規,0,2025-12-19,2025-12-19,合同会社ＡＳＴＥＲ,,合同会社,東京都,豊島区,東池袋１丁目３４－５いちご東池袋ビル６階,,13,116,1700013,,,,,,,2025-12-19,1,,,,,アスター,0
881,4020001166165,新規,0,2025-12-19,2025-12-19,ＣＬＯＶＥ　Ｂｅ　ｗａｔｅｒ株式会社,,株式会社,神奈川県,川崎市麻生区,万福寺４丁目１０‐７グレイス新百合山手１０１,,14,137,2150004,,,,,,,2025-12-19,1,,,,,クローブビーウォーター,0
882,4020001166405,新規,0,2025-12-19,2025-12-19,株式会社Ｂｅ　ａｓ　ＯＮＥ,,株式会社,神奈川県,横浜市南区,三春台６３－１１グランドベイヒルズ横浜８１１号,,14,105,2320002,,,,,,,2025-12-19,1,,,,,ビーアズワン,0
883,4020001166421,新規,0,2025-12-19,2025-12-19,株式会社武,,株式会社,神奈川県,横浜市磯子区,丸山１丁目２番２１－２号,,14,107,2350011,,,,,,,2025-12-19,1,,,,,,0
886,4020003029989,新規,0,2025-12-19,2025-12-19,合同会社システムソリューションズ,,合同会社,神奈川県,横浜市神奈川区,金港町５―１４クアドリフォリオ８階,,14,102,2210056,,,,,,,2025-12-19,1,,,,,システムソリューションズ,0
887,4020005017091,新規,0,2025-12-19,2025-12-19,一般社団法人上菅田まちづくり協議会,,その他の設立登記法人,神奈川県,横浜市保土ケ谷区,上菅田町７０８番地,,14,106,2400051,,,,,,,2025-12-19,1,,,,,カミスゲタマチヅクリキョウギカイ,0
903,4021005013485,新規,0,2025-12-19,2025-12-19,一般社団法人日本産後ケアホテル協会,,その他の設立登記法人,神奈川県,横須賀市,湘南国際村１丁目４番３号,,14,201,2400107,,,,,,,2025-12-19,1,,,,,ニホンサンゴケアホテルキョウカイ,0
918,4030001170190,新規,0,2025-12-19,2025-12-19,サンメーホールディングス株式会社,,株式会社,埼玉県,比企郡嵐山町,花見台１０番地３（サンメーケミカル株式会社内）,,11,342,3550204,,,,,,,2025-12-19,1,,,,,サンメーホールディングス,0
919,4030001170232,新規,0,2025-12-19,2025-12-19,株式会社大村製作所,,株式会社,埼玉県,新座市,野火止８丁目６番１５号,,11,230,3520011,,,,,,,2025-12-19,1,,,,,オオムラセイサクショ,0
929,4030005022371,新規,0,2025-12-19,2025-12-19,一般社団法人障害者アーティスト評議会,,その他の設立登記法人,埼玉県,飯能市,東町３番１０号２Ｆ,,11,209,3570034,,,,,,,2025-12-19,1,,,,,ショウガイシャアーティストヒョウギカイ,0
932,4040001141835,新規,0,2025-12-19,2025-12-19,Ｎｅｏ　ｓｔｙｌｅ株式会社,,株式会社,千葉県,柏市,藤ケ谷１８６３番地５,,12,217,2770931,,,,,,,2025-12-19,1,,,,,ネオスタイル,0
933,4040001141851,新規,0,2025-12-19,2025-12-19,株式会社ＭＳＴ,,株式会社,千葉県,船橋市,本町６丁目１８番１９号第３山中ビル４０１号室,,12,204,2730005,,,,,,,2025-12-19,1,,,,,エムエスティー,0
934,4040001141876,新規,0,2025-12-19,2025-12-19,株式会社Ｌｅｏｎｅ,,株式会社,千葉県,千葉市中央区,本町２丁目１番１６号,,12,101,2600012,,,,,,,2025-12-19,1,,,,,レオーネ,0
937,4050001057741,新規,0,2025-12-19,2025-12-19,株式会社矢野商店,,株式会社,茨城県,稲敷郡阿見町,大字阿見４３７３番地５,,08,443,3000331,,,,,,,2025-12-19,1,,,,,ヤノショウテン,0
938,4050001057758,新規,0,2025-12-19,2025-12-19,株式会社小林商店,,株式会社,茨城県,つくば市,西大井１７３４番地１,,08,220,3001260,,,,,,,2025-12-19,1,,,,,コバヤシショウテン,0
940,4050003009815,新規,0,2025-12-19,2025-12-19,合同会社ＮＩＣＯ,,合同会社,茨城県,守谷市,松前台１丁目１番地３,,08,224,3020102,,,,,,,2025-12-19,1,,,,,ニコ,0
941,4050005013740,新規,0,2025-12-19,2025-12-19,一般社団法人Ｂｅｓｈａ茨城上条,,その他の設立登記法人,茨城県,稲敷郡阿見町,大字上条１４８６番地,,08,443,3000325,,,,,,,2025-12-19,1,,,,,ビーシャイバラキジョウジョウ,0
951,4080403005411,新規,0,2025-12-19,2025-12-19,心星合同会社,,合同会社,静岡県,湖西市,鷲津２６６２,,22,221,4310431,,,,,,,2025-12-19,1,,,,,シンボシ,0
955,4100001039189,新規,0,2025-12-19,2025-12-19,株式会社内川設備工業,,株式会社,長野県,諏訪市,大字湖南１０７６番地６,,20,206,3920131,,,,,,,2025-12-19,1,,,,,ウチカワセツビコウギョウ,0
956,4100001039206,新規,0,2025-12-19,2025-12-19,四つ葉株式会社,,株式会社,長野県,塩尻市,大字大門５６番地４スカイハウス信州３０３,,20,215,3990744,,,,,,,2025-12-19,1,,,,,ヨツバ,0
959,4100003008522,新規,0,2025-12-19,2025-12-19,合同会社ｅファクトリー,,合同会社,長野県,上伊那郡南箕輪村,１９１１番地１,,20,385,3994511,,,,,,,2025-12-19,1,,,,,イーファクトリー,0
976,4120001282778,新規,0,2025-12-19,2025-12-19,株式会社栄翔建設,,株式会社,大阪府,大阪市中央区,常盤町２丁目２番１０号ブランクレール谷町２０２,,27,128,5400028,,,,,,,2025-12-19,1,,,,,エイショウケンセツ,0
977,4120001282836,新規,0,2025-12-19,2025-12-19,株式会社Ｋエクセル,,株式会社,大阪府,大阪市天王寺区,大道２丁目２番１５号,,27,109,5430052,,,,,,,2025-12-19,1,,,,,ケイエクセル,0
978,4120001282885,新規,0,2025-12-19,2025-12-19,株式会社ケアフロンティア,,株式会社,大阪府,大阪市大正区,鶴町３丁目１５番１０号,,27,108,5510023,,,,,,,2025-12-19,1,,,,,ケアフロンティア,0
979,4120001282902,新規,0,2025-12-19,2025-12-19,ＯＫＵＭＯ株式会社,,株式会社,大阪府,大阪市住之江区,南港北１丁目２９－１－１５１５,,27,125,5590034,,,,,,,2025-12-19,1,,,,,オクモ,0
983,4120003031480,新規,0,2025-12-19,2025-12-19,合同会社トライフィックス,,合同会社,大阪府,大阪市北区,野崎町６－８－８０５,,27,127,5300055,,,,,,,2025-12-19,1,,,,,トライフィックス,0
984,4120003031522,新規,0,2025-12-19,2025-12-19,合同会社白鳩ホスピタリティ,,合同会社,大阪府,大阪市北区,浮田２丁目５番２７号,,27,127,5300021,,,,,,,2025-12-19,1,,,,,シロハトホスピタリティ,0
987,4120901051984,新規,0,2025-12-19,2025-12-19,株式会社東和クリーン,,株式会社,大阪府,池田市,中川原町３４０番地の２,,27,204,5630013,,,,,,,2025-12-19,1,,,,,トウワクリーン,0
991,4130001081238,新規,0,2025-12-19,2025-12-19,株式会社Ｑｕｂｉｔ,,株式会社,京都府,京都市右京区,西京極北大入町６６番地,,26,108,6150881,,,,,,,2025-12-19,1,,,,,キュビット,0
994,4130003010995,新規,0,2025-12-19,2025-12-19,合同会社ビッグワイ,,合同会社,京都府,京都市右京区,西院西矢掛町１８番地,,26,108,6150025,,,,,,,2025-12-19,1,,,,,ビッグワイ,0
997,4140001141115,新規,0,2025-12-19,2025-12-19,明和不動産株式会社,,株式会社,兵庫県,洲本市,上物部２丁目４番３５号,,28,205,6560053,,,,,,,2025-12-19,1,,,,,,0
1000,4150001028609,新規,0,2025-12-19,2025-12-19,エールケア株式会社,,株式会社,奈良県,大和高田市,大中東町３－２８,,29,202,6350091,,,,,,,2025-12-19,1,,,,,エールケア,0
1011,4180001169953,新規,0,2025-12-19,2025-12-19,株式会社東海エアーサービス,,株式会社,愛知県,名古屋市緑区,桶狭間巻山７０８番地,,23,114,4580920,,,,,,,2025-12-19,1,,,,,トウカイエアーサービス,0
1012,4180001169961,新規,0,2025-12-19,2025-12-19,株式会社ＧＡＲＰ,,株式会社,愛知県,名古屋市中村区,名駅４丁目２４番５号第２森ビル４０１,,23,105,4500002,,,,,,,2025-12-19,1,,,,,ガープ,0
1013,4180001170003,新規,0,2025-12-19,2025-12-19,Ｇｌｏｂａｌ　Ｃｒｅａｔｅ株式会社,,株式会社,愛知県,名古屋市北区,中切町字石原７１８番地の２０,,23,103,4620051,,,,,,,2025-12-19,1,,,,,グローバルクリエイト,0
1019,4180003029528,新規,0,2025-12-19,2025-12-19,合同会社ＴＲＩＥＳ,,合同会社,愛知県,知多市,南粕谷３丁目１４９番地,,23,224,4780024,,,,,,,2025-12-19,1,,,,,トライズ,0
1021,4180005021350,新規,0,2025-12-19,2025-12-19,一般社団法人ＡＩＷＡホールディングス,,その他の設立登記法人,愛知県,一宮市,八幡２丁目７番３号,,23,203,4910903,,,,,,,2025-12-19,1,,,,,アイワホールディングス,0
1022,4180301040509,新規,0,2025-12-19,2025-12-19,株式会社Ｇｌａｄ,,株式会社,愛知県,豊橋市,神野新田町字カノ割５５番地２,,23,201,4418077,,,,,,,2025-12-19,1,,,,,グラッド,0
1023,4180301040525,新規,0,2025-12-19,2025-12-19,ＵＬＣ株式会社,,株式会社,愛知県,額田郡幸田町,大字荻字東中１６番地,,23,501,4440115,,,,,,,2025-12-19,1,,,,,,0
1026,4180303006854,新規,0,2025-12-19,2025-12-19,ＲＹ．ＷＯＲＫＳ合同会社,,合同会社,愛知県,豊橋市,下地町字若宮１１－５,,23,201,4400083,,,,,,,2025-12-19,1,,,,,,0
1028,4190001032771,新規,0,2025-12-19,2025-12-19,ＩｎｆｉｎｉＣａｒｅ８株式会社,,株式会社,三重県,名張市,桔梗が丘２番町３‐１０,,24,208,5180622,,,,,,,2025-12-19,1,,,,,インフィニケア,0
1029,4190003005305,新規,0,2025-12-19,2025-12-19,合同会社ルミナス,,合同会社,三重県,四日市市,西町１３番１２号レオパレスプチフォレ２０３,,24,202,5100089,,,,,,,2025-12-19,1,,,,,ルミナス,0
1031,4200001044542,新規,0,2025-12-19,2025-12-19,株式会社プラスワン,,株式会社,岐阜県,美濃加茂市,本郷町８丁目９番７７号,,21,211,5050027,,,,,,,2025-12-19,1,,,,,プラスワン,0
1032,4210003001986,新規,0,2025-12-19,2025-12-19,アークスグループ合同会社,,合同会社,福井県,福井市,明里町１１番１０号,,18,201,9188052,,,,,,,2025-12-19,1,,,,,アークスグループ,0
1037,4240003007527,新規,0,2025-12-19,2025-12-19,合同会社ＡＧＥ,,合同会社,広島県,廿日市市,桜尾１丁目１１番３１号,,34,213,7380004,,,,,,,2025-12-19,1,,,,,エイジ,0
1046,4290001112547,新規,0,2025-12-19,2025-12-19,アドバンスグリーン株式会社,,株式会社,福岡県,久留米市,大善寺町夜明１１４４番地７,,40,203,8300074,,,,,,,2025-12-19,1,,,,,アドバンスグリーン,0
1047,4290001112563,新規,0,2025-12-19,2025-12-19,株式会社マーベル,,株式会社,福岡県,福岡市城南区,田島１丁目２番５５－１０１号,,40,136,8140113,,,,,,,2025-12-19,1,,,,,マーベル,0
1051,4290003017851,新規,0,2025-12-19,2025-12-19,合同会社予感,,合同会社,福岡県,福岡市南区,多賀１丁目４番２５号２階,,40,134,8150072,,,,,,,2025-12-19,1,,,,,ヨカン,0
1052,4290005019920,新規,0,2025-12-19,2025-12-19,一般社団法人徳優会,,その他の設立登記法人,福岡県,福岡市東区,香住ヶ丘２丁目３２番６－１０１号,,40,131,8130003,,,,,,,2025-12-19,1,,,,,トクユウカイ,0
1059,4290805009889,新規,0,2025-12-19,2025-12-19,医療法人あかさき歯科,,その他の設立登記法人,福岡県,遠賀郡遠賀町,松の本１丁目１－１ゆめタウン遠賀２Ｆ,,40,384,8114305,,,,,,,2025-12-19,1,,,,,アカサキシカ,0
1060,4320001021496,新規,0,2025-12-19,2025-12-19,株式会社ＧＲＡＮＤＴＲＯＮＣ,,株式会社,大分県,大分市,大字津留六本松１９１６番地３,,44,201,8700930,,,,,,,2025-12-19,1,,,,,グラントロン,0
1065,4360003015484,新規,0,2025-12-19,2025-12-19,合同会社Ｌａｙｌａ,,合同会社,沖縄県,宮古島市,下地字川満１６８８番地１７メゾン宮古ブルー４０１号室,,47,214,9060301,,,,,,,2025-12-19,1,,,,,レイラ,0
1066,4360003015492,新規,0,2025-12-19,2025-12-19,合同会社ＣＯＣＯＨＯＳ,,合同会社,沖縄県,那覇市,樋川２丁目２－５ナナマンビルＩＩ１０５号室,00141945,47,201,9000022,,,,,,,2025-12-19,1,,,,,ココホス,0
1071,4370005011051,新規,0,2025-12-19,2025-12-19,医療法人琉愛会,,その他の設立登記法人,宮城県,仙台市宮城野区,名掛丁２０１－２Ｓ．ＦＲＯＮＴ４階,,04,102,9830864,,,,,,,2025-12-19,1,,,,,リュウアイカイ,0
1077,4380001035755,新規,0,2025-12-19,2025-12-19,株式会社一将興業,,株式会社,福島県,いわき市,小名浜玉川町西３１番地の７,,07,204,9718127,,,,,,,2025-12-19,1,,,,,カズショウコウギョウ,0
1080,4390001018189,新規,0,2025-12-19,2025-12-19,株式会社ＫｖｉｓｉｏｎＨＤ,,株式会社,山形県,寒河江市,中央１丁目１３番３６号,,06,206,9910021,,,,,,,2025-12-19,1,,,,,ケーヴィジョンホールディングス,0
1084,4430001095851,新規,0,2025-12-19,2025-12-19,株式会社Ａｇｅホールディングス,,株式会社,北海道,札幌市北区,北六条西６丁目２番地２４,,01,102,0600806,,,,,,,2025-12-19,1,,,,,エージホールディングス,0
1085,4430001095901,新規,0,2025-12-19,2025-12-19,株式会社玄,,株式会社,北海道,札幌市白石区,北郷五条３丁目９番１７号ワコービル１階,,01,104,0030835,,,,,,,2025-12-19,1,,,,,ゲン,0
1086,4430003018439,新規,0,2025-12-19,2025-12-19,合同会社まりすけ,,合同会社,北海道,札幌市豊平区,豊平八条９丁目１番４７号２階,,01,105,0620908,,,,,,,2025-12-19,1,,,,,マリスケ,0
1092,4700150133624,新規,0,2025-12-19,2025-12-19,パイロット健康保険組合,,その他,東京都,中央区,京橋２丁目６番２１号,,13,102,1040031,,,,,,,2025-12-19,1,,,,,パイロットケンコウホケンクミアイ,0
1097,5010001261296,新規,0,2025-12-19,2025-12-19,ＹＹアセットマネジメント株式会社,,株式会社,東京都,中央区,佃２丁目１１番６－８０７号,,13,102,1040051,,,,,,,2025-12-19,1,,,,,,0
1098,5010001261305,新規,0,2025-12-19,2025-12-19,Ｎｅｘｕｓ　Ｇｒｏｕｐ株式会社,,株式会社,東京都,千代田区,神田須田町１丁目７番地８ＶＯＲＴ秋葉原ＩＶ２Ｆ,00141959,13,101,1010041,,,,,,,2025-12-19,1,,,,,ネクサスグループ,0
1099,5010001261321,新規,0,2025-12-19,2025-12-19,ＲＣＴ東京０２株式会社,,株式会社,東京都,千代田区,内神田１丁目２番１号ＩＳＭＯｔｅｍａｃｈｉ４階,,13,101,1010047,,,,,,,2025-12-19,1,,,,,アールシーティートウキョウゼロツー,0
1102,5010003049277,新規,0,2025-12-19,2025-12-19,丸尾総合ＰＲ合同会社,,合同会社,東京都,中央区,日本橋室町１丁目１１番１２号日本橋水野ビル７階,,13,102,1030022,,,,,,,2025-12-19,1,,,,,マルオソウゴウピーアール,0
1103,5010005041100,新規,0,2025-12-19,2025-12-19,一般社団法人佳純会,,その他の設立登記法人,東京都,千代田区,永田町２丁目９－６十全ビル３０４,,13,101,1000014,,,,,,,2025-12-19,1,,,,,カスミカイ,0
1113,5010401195210,新規,0,2025-12-19,2025-12-19,Ｌｕｆｆ　Ｄｅｓｉｇｎ株式会社,,株式会社,東京都,港区,北青山１丁目３－３三橋ビル３階,,13,103,1070061,,,,,,,2025-12-19,1,,,,,ラフデザイン,0
1114,5010401195268,新規,0,2025-12-19,2025-12-19,株式会社ＰＲＳみんなラボ,,株式会社,東京都,港区,虎ノ門５丁目９番１号,,13,103,1050001,,,,,,,2025-12-19,1,,,,,ピーアールエスミンナラボ,0
1115,5010401195276,新規,0,2025-12-19,2025-12-19,株式会社Ａｌａｎ,,株式会社,東京都,港区,南青山３丁目１番３６号青山丸竹ビル６Ｆ,,13,103,1070062,,,,,,,2025-12-19,1,,,,,アラン,0
1116,5010401195292,新規,0,2025-12-19,2025-12-19,株式会社オプティムス,,株式会社,東京都,港区,赤坂６丁目７番１４－１０１号,,13,103,1070052,,,,,,,2025-12-19,1,,,,,オプティムス,0
1117,5010401195359,新規,0,2025-12-19,2025-12-19,株式会社ＮＡＲＩＫＵＭ,,株式会社,東京都,港区,南青山６丁目８－３南青山セピアコート７０１,,13,103,1070062,,,,,,,2025-12-19,1,,,,,ナリクム,0
1122,5010403036866,新規,0,2025-12-19,2025-12-19,ＡＹ３合同会社,,合同会社,東京都,港区,虎ノ門５丁目１番４号,,13,103,1050001,,,,,,,2025-12-19,1,,,,,エーワイスリー,0
1127,5010701048803,新規,0,2025-12-19,2025-12-19,株式会社つむぐ,,株式会社,東京都,品川区,西五反田２丁目１３－１,,13,109,1410031,,,,,,,2025-12-19,1,,,,,ツムグ,0
1132,5010903010511,新規,0,2025-12-19,2025-12-19,ＮＩビル開発・ＴＮ３合同会社,,合同会社,東京都,世田谷区,奥沢２丁目３１番４号,,13,112,1580083,,,,,,,2025-12-19,1,,,,,エヌアイビルカイハツティーエヌスリー,0
1137,5011001174439,新規,0,2025-12-19,2025-12-19,株式会社バズエンス,,株式会社,東京都,渋谷区,道玄坂１丁目１０番８号渋谷道玄坂東急ビル２Ｆ‐Ｃ,,13,113,1500043,,,,,,,2025-12-19,1,,,,,バズエンス,0
1140,5011003023098,新規,0,2025-12-19,2025-12-19,合同会社凪,,合同会社,東京都,目黒区,自由が丘２丁目２番４号パルゼ自由が丘３０１,,13,110,1520035,,,,,,,2025-12-19,1,,,,,ナギ,0
1147,5011301031133,新規,0,2025-12-19,2025-12-19,グラフテック岩通計測株式会社,,株式会社,東京都,杉並区,久我山１丁目７番４１号,,13,115,1680082,,,,,,,2025-12-19,1,,,,,グラフテックイワツウケイソク,0
1148,5011403004978,新規,0,2025-12-19,2025-12-19,合同会社アットホーム,,合同会社,東京都,板橋区,徳丸１丁目１番１４徳丸店舗二階,,13,119,1750083,,,,,,,2025-12-19,1,,,,,アットホーム,0
1149,5011501032914,新規,0,2025-12-19,2025-12-19,株式会社ＭＩＫＡＴＡ,,株式会社,東京都,北区,神谷３丁目４２番１１号,,13,117,1150043,,,,,,,2025-12-19,1,,,,,ミカタ,0
1150,5011501032922,新規,0,2025-12-19,2025-12-19,昌興株式会社,,株式会社,東京都,北区,志茂５丁目１１－１７,,13,117,1150042,,,,,,,2025-12-19,1,,,,,ショウコウ,0
1154,5011701029041,新規,0,2025-12-19,2025-12-19,株式会社ＤＡＷＮ,,株式会社,東京都,江戸川区,東葛西７丁目１番３－１００５号,,13,123,1340084,,,,,,,2025-12-19,1,,,,,ドーン,0
1165,5013301055475,新規,0,2025-12-19,2025-12-19,株式会社生命の光,,株式会社,東京都,豊島区,駒込３丁目１４－１２,,13,116,1700003,,,,,,,2025-12-19,1,,,,,セイメイノヒカリ,0
1166,5013303008002,新規,0,2025-12-19,2025-12-19,合同会社１Ｌ,,合同会社,東京都,豊島区,池袋３丁目６０番２号池袋ウエストガーデン７０２号,,13,116,1710014,,,,,,,2025-12-19,1,,,,,ワンエル,0
1167,5013303008010,新規,0,2025-12-19,2025-12-19,合同会社ＲｅｅｌＲｅａｃｈ,,合同会社,東京都,豊島区,雑司が谷３丁目３－１１小松ハウス２０１,,13,116,1710032,,,,,,,2025-12-19,1,,,,,リールリーチ,0
1172,5020001166255,新規,0,2025-12-19,2025-12-19,Ｉｄｅａｌ‐ｃａｒｅｅｒｂｒｉｄｇｅ　ｓｅｒｖｉｃｅ　Ｊａｐａｎ株式会社,,株式会社,神奈川県,横浜市中区,山下町９８ＧＳハイム山下町４階４０３号室,,14,104,2310023,,,,,,,2025-12-19,1,,,,,アイデアルキャリアブリッジサービスジャパン,0
1173,5020001166271,新規,0,2025-12-19,2025-12-19,株式会社ＡＰＥＸ,,株式会社,神奈川県,横浜市中区,石川町１丁目５１番地１８,,14,104,2310868,,,,,,,2025-12-19,1,,,,,エイペックス,0
1185,5021001086955,新規,0,2025-12-19,2025-12-19,株式会社ちくわ,,株式会社,神奈川県,相模原市南区,旭町８－２２,,14,153,2520304,,,,,,,2025-12-19,1,,,,,チクワ,0
1191,5030001170215,新規,0,2025-12-19,2025-12-19,株式会社ノード,,株式会社,埼玉県,越谷市,レイクタウン７丁目２４番地９,,11,222,3430828,,,,,,,2025-12-19,1,,,,,ノード,0
1192,5030001170223,新規,0,2025-12-19,2025-12-19,株式会社ＴＫ,,株式会社,埼玉県,さいたま市岩槻区,並木１丁目２７番２７－２号,,11,110,3390068,,,,,,,2025-12-19,1,,,,,ティーケー,0
1193,5030001170264,新規,0,2025-12-19,2025-12-19,ＧＥＮ　ＧＥＮ株式会社,,株式会社,埼玉県,所沢市,三ケ島１丁目７５８番地の１,,11,208,3591164,,,,,,,2025-12-19,1,,,,,ゲンゲン,0
1206,5050001057749,新規,0,2025-12-19,2025-12-19,株式会社茨城トラックセンター,,株式会社,茨城県,つくば市,長高野１６９１番地３,,08,220,3003265,,,,,,,2025-12-19,1,,,,,イバラキトラックセンター,0
1207,5050001057757,新規,0,2025-12-19,2025-12-19,株式会社石戸工業,,株式会社,茨城県,筑西市,玉戸１３３６番地１３９,,08,227,3080847,,,,,,,2025-12-19,1,,,,,イシトコウギョウ,0
1210,5050003009814,新規,0,2025-12-19,2025-12-19,合同会社ル・サリエ,,合同会社,茨城県,東茨城郡大洗町,大貫町２５８５,,08,309,3111311,,,,,,,2025-12-19,1,,,,,ルサリエ,0
1211,5050003009822,新規,0,2025-12-19,2025-12-19,合同会社Ｗｅｌｌｎｅｓｓ　Ｌａｂ,,合同会社,茨城県,つくば市,竹園１丁目３番地８ＬＥＢＥＮＴＨＥＴＳＵＫＵＢＡ６２２号,,08,220,3050032,,,,,,,2025-12-19,1,,,,,ウェルネスラボ,0
1213,5060005010397,新規,0,2025-12-19,2025-12-19,学校法人博愛会,,その他の設立登記法人,栃木県,那須塩原市,前弥六５４番地１,,09,213,3293135,,,,,,,2025-12-19,1,,,,,ハクアイカイ,0
1222,5090001019662,新規,0,2025-12-19,2025-12-19,株式会社Ｖｅｈｉｃｌｅ　Ｗｏｒｋ,,株式会社,山梨県,中央市,臼井阿原２０４２番地２６,,19,214,4093844,,,,,,,2025-12-19,1,,,,,ビークルワーク,0
1223,5090005007754,新規,0,2025-12-19,2025-12-19,一般社団法人Ｉｌｏｉｎｅｎ　Ｋｕｋｋａ,,その他の設立登記法人,山梨県,南都留郡富士河口湖町,船津１６１４番地１２,,19,430,4010301,,,,,,,2025-12-19,1,,,,,イロイネンクッカ,0
1241,5120001282793,新規,0,2025-12-19,2025-12-19,平野屋株式会社,,株式会社,大阪府,大阪市中央区,道修町３丁目４番７号,,27,128,5410045,,,,,,,2025-12-19,1,,,,,ヒラノヤ,0
1242,5120001282901,新規,0,2025-12-19,2025-12-19,株式会社Ｔｉｄｕｓ,,株式会社,大阪府,大阪市浪速区,大国２丁目１２番２２号,,27,111,5560014,,,,,,,2025-12-19,1,,,,,ティーダ,0
1246,5120003031513,新規,0,2025-12-19,2025-12-19,合同会社Ｒ,,合同会社,大阪府,寝屋川市,葛原１丁目２３番３４号,,27,215,5720075,,,,,,,2025-12-19,1,,,,,アール,0
1247,5120003031521,新規,0,2025-12-19,2025-12-19,晴天猫猫合同会社,,合同会社,大阪府,大阪市生野区,生野西４丁目１４番１０号,,27,116,5440024,,,,,,,2025-12-19,1,,,,,セイテンマウマウ,0
1251,5120101072979,新規,0,2025-12-19,2025-12-19,株式会社山敏,,株式会社,大阪府,和泉市,内田町３丁目２番６号,,27,219,5941156,,,,,,,2025-12-19,1,,,,,ヤマトシ,0
1252,5120103006902,新規,0,2025-12-19,2025-12-19,らくえ合同会社,,合同会社,大阪府,堺市南区,晴美台２丁３６番８号,,27,145,5900113,,,,,,,2025-12-19,1,,,,,ラクエ,0
1254,5120901051983,新規,0,2025-12-19,2025-12-19,株式会社Ｔｏｔａｌ　Ｐｌａｎｎｉｎｇ　Ｓｅｒｖｉｃｅ,,株式会社,大阪府,豊中市,服部本町２丁目７番１３－２０４号,,27,203,5610852,,,,,,,2025-12-19,1,,,,,トータルプランニングサービス,0
1257,5130001010344,新規,0,2025-12-19,2025-12-19,株式会社キャブラ,,株式会社,京都府,京都市南区,上鳥羽北村山町６３番地,,26,107,6018187,,,,,,,2025-12-19,1,,,,,キャブラ,0
1258,5130001081237,新規,0,2025-12-19,2025-12-19,株式会社宮本左官工業,,株式会社,京都府,京田辺市,三山木谷ノ上２２番地,,26,211,6100313,,,,,,,2025-12-19,1,,,,,ミヤモトサカンコウギョウ,0
1266,5140005027730,新規,0,2025-12-19,2025-12-19,一般社団法人大神会,,その他の設立登記法人,兵庫県,伊丹市,中野北２丁目１１－２９,,28,207,6640029,,,,,,,2025-12-19,1,,,,,ダイシンカイ,0
1268,5150001028599,新規,0,2025-12-19,2025-12-19,幸福商店株式会社,,株式会社,奈良県,奈良市,柴屋町１５５番地の１,,29,201,6308433,,,,,,,2025-12-19,1,,,,,コウフクショウテン,0
1271,5160001027303,新規,0,2025-12-19,2025-12-19,株式会社誠進堂ネクスト,,株式会社,滋賀県,大津市,馬場２丁目７－２２西柳川ビル３０１号,,25,201,5200802,,,,,,,2025-12-19,1,,,,,セイシンドウネクスト,0
1283,5180001169936,新規,0,2025-12-19,2025-12-19,株式会社ふく猫,,株式会社,愛知県,あま市,甚目寺山王２０－３－７０１,,23,237,4901111,,,,,,,2025-12-19,1,,,,,フクネコ,0
1284,5180001169952,新規,0,2025-12-19,2025-12-19,株式会社一真,,株式会社,愛知県,名古屋市瑞穂区,河岸町３丁目６番地の２,,23,108,4670844,,,,,,,2025-12-19,1,,,,,イッシン,0
1285,5180001169960,新規,0,2025-12-19,2025-12-19,株式会社ｍｏｕｎｔａｉｎ,,株式会社,愛知県,名古屋市西区,香呑町３丁目９２番地,,23,104,4510015,,,,,,,2025-12-19,1,,,,,マウンテン,0
1286,5180001169969,新規,0,2025-12-19,2025-12-19,株式会社ＣＲＥＯＮ,,株式会社,愛知県,名古屋市中区,平和１丁目４番４号,,23,106,4600021,,,,,,,2025-12-19,1,,,,,クレオン,0
1292,5180003029527,新規,0,2025-12-19,2025-12-19,合同会社Ｔ・Ｏｆｆｉｃｅ,,合同会社,愛知県,名古屋市中村区,名駅３丁目４－１０アルティメイト名駅１ｓｔ２階,,23,105,4500002,,,,,,,2025-12-19,1,,,,,ティードットオフィス,0
1302,5210001020426,新規,0,2025-12-19,2025-12-19,株式会社ＮＥＸＴＩＡ,,株式会社,福井県,越前市,北町第４１号２５番地,,18,209,9150004,,,,,,,2025-12-19,1,,,,,ネクスティア,0
1305,5220003004194,新規,0,2025-12-19,2025-12-19,合同会社米博商事,,合同会社,石川県,金沢市,太陽が丘３丁目３０番地,,17,201,9201154,,,,,,,2025-12-19,1,,,,,コメハクショウジ,0
1319,5290001112546,新規,0,2025-12-19,2025-12-19,株式会社リカクユナイティッド,,株式会社,福岡県,久留米市,江戸屋敷１丁目５番２０号,,40,203,8300059,,,,,,,2025-12-19,1,,,,,リカクユナイティッド,0
1320,5290001112562,新規,0,2025-12-19,2025-12-19,株式会社キャメルクラッチ,,株式会社,福岡県,朝倉郡筑前町,下高場６１１番地２,00141946,40,447,8380211,,,,,,,2025-12-19,1,,,,,キャメルクラッチ,0
1321,5290001112570,新規,0,2025-12-19,2025-12-19,株式会社ｆｏｒｔｕｎａ,,株式会社,福岡県,筑紫野市,湯町３丁目１番１号東峰マンション１３１０号,,40,217,8180058,,,,,,,2025-12-19,1,,,,,フォルトゥナ,0
1322,5290001112612,新規,0,2025-12-19,2025-12-19,株式会社Ｌｕｍｉｎａ　Ｌｅａｆ,,株式会社,福岡県,福岡市中央区,今川２丁目９番２４号,,40,133,8100054,,,,,,,2025-12-19,1,,,,,ルミナリーフ,0
1324,5290003017850,新規,0,2025-12-19,2025-12-19,合同会社ＨＫＭ,,合同会社,福岡県,福岡市博多区,上川端町３－６－３０２,,40,132,8120026,,,,,,,2025-12-19,1,,,,,エイチケーエム,0
1334,5330005011005,新規,0,2025-12-19,2025-12-19,医療法人敬天会,,その他の設立登記法人,熊本県,熊本市東区,長嶺南４丁目６－１２,,43,102,8618039,,,,,,,2025-12-19,1,,,,,ケイテンカイ,0
1336,5340003005049,新規,0,2025-12-19,2025-12-19,Ｋ４合同会社,,合同会社,鹿児島県,鹿児島市,上之園町２４番地８甲南ビル４０１,,46,201,8900052,,,,,,,2025-12-19,1,,,,,ケイフォー,0
1340,5370003007422,新規,0,2025-12-19,2025-12-19,合同会社未来図,,合同会社,宮城県,栗原市,築館字荒田沢３１番地２,,04,213,9872245,,,,,,,2025-12-19,1,,,,,ミライズ,0
1342,5380001035754,新規,0,2025-12-19,2025-12-19,株式会社未来財託,,株式会社,福島県,郡山市,菜根３丁目２２番１２号コンチネンタルハイツ６０４号室,,07,203,9638862,,,,,,,2025-12-19,1,,,,,ミライザイタク,0
1348,5430001095891,新規,0,2025-12-19,2025-12-19,株式会社武田ガラスリペア,,株式会社,北海道,札幌市中央区,南五条東３丁目１１番地１,,01,101,0600055,,,,,,,2025-12-19,1,,,,,ガラスリペア,0
1352,5430003018438,新規,0,2025-12-19,2025-12-19,合同会社ＬＯＮＴＡＧＯ,,合同会社,北海道,札幌市中央区,南十条西６丁目６番２１号２階Ａ号,,01,101,0640810,,,,,,,2025-12-19,1,,,,,ロンターゴ,0
1358,5700150133615,新規,0,2025-12-19,2025-12-19,ＣＩＴＹ　ＡＵＴＯ　ＭＡＲＴ,,外国会社等,神奈川県,愛甲郡愛川町,中津１５７０－９Ｂ,,14,401,2430303,スリランカ民主社会主義共和国エビリヤゴダ、サラガハムラ３１２番,,,,,,2025-12-19,1,,,,,シテイオートマート,0
1359,5700150133623,新規,0,2025-12-19,2025-12-19,日曹健康保険組合,,その他,東京都,千代田区,丸の内２丁目７番２号,,13,101,1000005,,,,,,,2025-12-19,1,,,,,ニッソウケンコウホケンクミアイ,0
1367,6010001261287,新規,0,2025-12-19,2025-12-19,株式会社Ｂ＆Ｇ,,株式会社,東京都,中央区,銀座８丁目７番８号,,13,102,1040061,,,,,,,2025-12-19,1,,,,,ビーアンドジー,0
1368,6010001261345,新規,0,2025-12-19,2025-12-19,株式会社ボルテックス・フィナンシャル・パートナーズ,,株式会社,東京都,千代田区,富士見２丁目１０番２号,,13,101,1020071,,,,,,,2025-12-19,1,,,,,ボルテックスフィナンシャルパートナーズ,0
1370,6010003049697,新規,0,2025-12-19,2025-12-19,林資産管理合同会社,,合同会社,東京都,文京区,湯島４丁目１２番１２－３０７号,,13,105,1130034,,,,,,,2025-12-19,1,,,,,ハヤシシサンカンリ,0
1371,6010003049739,新規,0,2025-12-19,2025-12-19,Ｈ２Ｈメディカルカンパニー合同会社,,合同会社,東京都,千代田区,一番町１４番地－８０４号,,13,101,1020082,,,,,,,2025-12-19,1,,,,,エイチツーエイチメディカルカンパニー,0
1372,6010003049755,新規,0,2025-12-19,2025-12-19,合同会社ＹＵＥ,,合同会社,東京都,千代田区,神田佐久間町２丁目１８番地１秋葉原ＳＴＮフロント１０階,,13,101,1010025,,,,,,,2025-12-19,1,,,,,ユエ,0
1373,6010005041099,新規,0,2025-12-19,2025-12-19,一般社団法人ＬＰＭ‐１,,その他の設立登記法人,東京都,中央区,日本橋１丁目４番１号日本橋一丁目ビルディング,,13,102,1030027,,,,,,,2025-12-19,1,,,,,エルピーエムワン,0
1376,6010401195201,新規,0,2025-12-19,2025-12-19,ＡＭＩ　Ｊａｐａｎ株式会社,,株式会社,東京都,港区,元麻布３丁目１番６号,,13,103,1060046,,,,,,,2025-12-19,1,,,,,エーエムアイジャパン,0
1377,6010401195242,新規,0,2025-12-19,2025-12-19,株式会社不動産投資アナリティクス,,株式会社,東京都,港区,六本木３丁目１６番１２号六本木ＫＳビル５Ｆ,,13,103,1060032,,,,,,,2025-12-19,1,,,,,フドウサントウシアナリティクス,0
1378,6010401195267,新規,0,2025-12-19,2025-12-19,株式会社ふるさとパートナーズ,,株式会社,東京都,港区,西新橋１丁目２番９号,,13,103,1050003,,,,,,,2025-12-19,1,,,,,フルサトパートナーズ,0
1379,6010401195291,新規,0,2025-12-19,2025-12-19,株式会社ＦａｎｄａｙＬａｂ,,株式会社,東京都,港区,赤坂５丁目２－３３－４Ｆ,,13,103,1070052,,,,,,,2025-12-19,1,,,,,ファンデイラボ,0
1382,6010403036824,新規,0,2025-12-19,2025-12-19,ＳＩＬＫＲＡ合同会社,,合同会社,東京都,港区,六本木３丁目１６番１２号六本木ＫＳビル５Ｆ,,13,103,1060032,,,,,,,2025-12-19,1,,,,,シルクラ,0
1383,6010403036865,新規,0,2025-12-19,2025-12-19,ＡＹ２合同会社,,合同会社,東京都,港区,虎ノ門５丁目１番４号,,13,103,1050001,,,,,,,2025-12-19,1,,,,,エーワイツー,0
1391,6010703008052,新規,0,2025-12-19,2025-12-19,合同会社アルゴリズム研究所,,合同会社,東京都,品川区,北品川５丁目１４番２号,,13,109,1410001,,,,,,,2025-12-19,1,,,,,アルゴリズムケンキュウジョ,0
1393,6010801036896,新規,0,2025-12-19,2025-12-19,ＣＹＵ企画株式会社,,株式会社,東京都,大田区,北嶺町６番２号,,13,111,1450073,,,,,,,2025-12-19,1,,,,,シーユーキカク,0
1394,6010801036905,新規,0,2025-12-19,2025-12-19,Ｒｅｌｕｘｅ株式会社,,株式会社,東京都,大田区,東雪谷４丁目２１番１６－５０９号,,13,111,1450065,,,,,,,2025-12-19,1,,,,,リラックス,0
1402,6010903010510,新規,0,2025-12-19,2025-12-19,ＮＩビル開発・ＴＤ２合同会社,,合同会社,東京都,世田谷区,奥沢２丁目３１番４号,,13,112,1580083,,,,,,,2025-12-19,1,,,,,エヌアイビルカイハツティーディーツー,0
1409,6011001174322,新規,0,2025-12-19,2025-12-19,アロマスタンド株式会社,,株式会社,東京都,渋谷区,道玄坂１丁目１０番８号・渋谷道玄坂東急ビル２Ｆ－Ｃ,,13,113,1500043,,,,,,,2025-12-19,1,,,,,アロマスタンド,0
1410,6011001174363,新規,0,2025-12-19,2025-12-19,株式会社シードライン,,株式会社,東京都,渋谷区,恵比寿西２丁目８番４号ＥＸ恵比寿西ビル５階,,13,113,1500021,,,,,,,2025-12-19,1,,,,,シードライン,0
1411,6011001174438,新規,0,2025-12-19,2025-12-19,株式会社ＭＡＲＢＬＵＥ,,株式会社,東京都,目黒区,目黒２丁目１１番３号印刷工場１階ＩｍｐａｃｔＨＵＢＴｏｋｙｏ内,,13,110,1530063,,,,,,,2025-12-19,1,,,,,マーブルー,0
1412,6011001174454,新規,0,2025-12-19,2025-12-19,株式会社ＹＳＣ,,株式会社,東京都,目黒区,下目黒１丁目１番１４号コノトラビル７階,,13,110,1530064,,,,,,,2025-12-19,1,,,,,ワイエスシー,0
1413,6011001174487,新規,0,2025-12-19,2025-12-19,株式会社ＳＣ不動産,,株式会社,東京都,渋谷区,神宮前１丁目１９番１９号,,13,113,1500001,,,,,,,2025-12-19,1,,,,,エスシーフドウサン,0
1415,6011003023188,新規,0,2025-12-19,2025-12-19,合同会社ルクス,,合同会社,東京都,渋谷区,広尾１丁目２番地１号ヒカリビル４階,,13,113,1500012,,,,,,,2025-12-19,1,,,,,ルクス,0
1420,6011101114145,新規,0,2025-12-19,2025-12-19,株式会社知財アナリティクス,,株式会社,東京都,新宿区,西新宿３丁目３番１３号西新宿水間ビル６階,,13,104,1600023,,,,,,,2025-12-19,1,,,,,チザイアナリティクス,0
1426,6011401027666,新規,0,2025-12-19,2025-12-19,三雄商事株式会社,,株式会社,東京都,板橋区,徳丸４丁目４番４－２０１号室,,13,119,1750083,,,,,,,2025-12-19,1,,,,,サンユウショウジ,0
1428,6011501032913,新規,0,2025-12-19,2025-12-19,株式会社アドン,,株式会社,東京都,荒川区,町屋５丁目１７番２０号,,13,118,1160001,,,,,,,2025-12-19,1,,,,,アドン,0
1430,6011701029040,新規,0,2025-12-19,2025-12-19,株式会社ｔａｕｐｅ,,株式会社,東京都,江戸川区,中葛西７丁目８番１０－４０４号,,13,123,1340083,,,,,,,2025-12-19,1,,,,,トープ,0
1431,6011703004487,新規,0,2025-12-19,2025-12-19,合同会社Ｇｏｏｄ　Ｅｎｏｕｇｈ,,合同会社,東京都,江戸川区,南葛西２丁目１番１６号ファミリオン南葛西６０１,,13,123,1340085,,,,,,,2025-12-19,1,,,,,グッドイナフ,0
1439,6013301055400,新規,0,2025-12-19,2025-12-19,ＧＺＡＹ株式会社,,株式会社,東京都,豊島区,長崎６丁目１３番９号,,13,116,1710051,,,,,,,2025-12-19,1,,,,,ジザイ,0
1440,6013301055499,新規,0,2025-12-19,2025-12-19,Ａｃｃｅｌｐｏｒｔ株式会社,,株式会社,東京都,豊島区,東池袋３丁目１－１サンシャイン６０，１２Ｆ,,13,116,1700013,,,,,,,2025-12-19,1,,,,,アクセルポート,0
1444,6020001166353,新規,0,2025-12-19,2025-12-19,株式会社ＫＥＮＳＨＩＮ,,株式会社,神奈川県,横浜市神奈川区,六角橋６丁目２５番３号,,14,102,2210802,,,,,,,2025-12-19,1,,,,,ケンシン,0
1449,6020003029657,新規,0,2025-12-19,2025-12-19,Ｔｅａｂｅｒｓ国際貿易合同会社,,合同会社,神奈川県,横浜市中区,松影町２丁目５－９アークＫビル４０３号室,,14,104,2310025,,,,,,,2025-12-19,1,,,,,ティベルスコクサイボウエキ,0
1450,6020003030020,新規,0,2025-12-19,2025-12-19,合同会社ＦｏｏｄＲｅａｃｈ,,合同会社,神奈川県,横浜市鶴見区,矢向３丁目２８番３号Ｂｏｎｈｅｕｒ３０１,,14,101,2300001,,,,,,,2025-12-19,1,,,,,フードリーチ,0
1455,6021001087093,新規,0,2025-12-19,2025-12-19,株式会社犬小屋,,株式会社,神奈川県,鎌倉市,岡本１５００番地１鎌倉グランマークス１０８号,,14,204,2470072,,,,,,,2025-12-19,1,,,,,イヌゴヤ,0
1456,6021001087119,新規,0,2025-12-19,2025-12-19,株式会社クリート,,株式会社,神奈川県,厚木市,上依知１４１９,,14,212,2430801,,,,,,,2025-12-19,1,,,,,クリート,0
1457,6021005013483,新規,0,2025-12-19,2025-12-19,税理士法人ＡＳＣＯＰＥ,,その他の設立登記法人,神奈川県,鎌倉市,御成町５－１６御成ふくろ小路Ｌｉｎｋ－Ａ３号室,,14,204,2480012,,,,,,,2025-12-19,1,,,,,アスコープ,0
1463,6030001170172,新規,0,2025-12-19,2025-12-19,株式会社Ｌｉｎｏ’ａ,,株式会社,埼玉県,さいたま市浦和区,常盤１０丁目１２番７－２号,,11,107,3300061,,,,,,,2025-12-19,1,,,,,リノア,0
1471,6030003028303,新規,0,2025-12-19,2025-12-19,小池合同会社,,合同会社,埼玉県,蕨市,中央１丁目１７－４８ベルハイツ第一蕨１１４号室,,11,223,3350004,,,,,,,2025-12-19,1,,,,,コイケ,0
1474,6040001141858,新規,0,2025-12-19,2025-12-19,ＡＰＯＬＬＯ　ＭＡＣＨＩＮＥＲＹ　ＳＥＲＶＩＣＥ株式会社,,株式会社,千葉県,四街道市,鷹の台２丁目１７番２号,,12,228,2840033,,,,,,,2025-12-19,1,,,,,アポロマシナリーサービス,0
1475,6040003029135,新規,0,2025-12-19,2025-12-19,合同会社ＴＹＪＰ,,合同会社,千葉県,千葉市稲毛区,天台２丁目３－４６－２－１０２,,12,103,2630016,,,,,,,2025-12-19,1,,,,,ティーワイジェーピ,0
1476,6040003029168,新規,0,2025-12-19,2025-12-19,ポジティブグリーン合同会社,,合同会社,千葉県,長生郡一宮町,東野２９番地１４,,12,421,2994306,,,,,,,2025-12-19,1,,,,,ポジティブグリーン,0
1478,6050001057748,新規,0,2025-12-19,2025-12-19,株式会社ＴＨＡＴ　ＨＯＵＳＥ,,株式会社,茨城県,鹿嶋市,大字中２６８８番地６６,,08,222,3112213,,,,,,,2025-12-19,1,,,,,ザットハウス,0
1480,6050005013739,新規,0,2025-12-19,2025-12-19,一般社団法人茨城県央社交飲食事業組合,,その他の設立登記法人,茨城県,水戸市,南町１丁目２番２７号水戸スタービル１Ｆ,,08,201,3100021,,,,,,,2025-12-19,1,,,,,イバラキケンオウシャコウインショクジギョウクミアイ,0
1494,6090005007753,新規,0,2025-12-19,2025-12-19,ＮＰＯ法人スポーツ基本動作育成会,,その他の設立登記法人,山梨県,甲斐市,長塚６０１番地タウニィ静Ｂ１０１,,19,210,4000125,,,,,,,2025-12-19,1,,,,,スポーツキホンドウサイクセイカイ,0
1497,6100005013428,新規,0,2025-12-19,2025-12-19,一般社団法人縁側えべさ,,その他の設立登記法人,長野県,須坂市,大字日滝３７９番地１,,20,207,3820902,,,,,,,2025-12-19,1,,,,,エンガワエベサ,0
1510,6120001282850,新規,0,2025-12-19,2025-12-19,ＶＩＴＡ　ＲＩＣＣＡ株式会社,,株式会社,大阪府,大阪市福島区,野田６丁目４番２２号,,27,103,5530005,,,,,,,2025-12-19,1,,,,,ヴィータリッカ,0
1511,6120001282966,新規,0,2025-12-19,2025-12-19,タンクバンキング株式会社,,株式会社,大阪府,大阪市西区,安治川２丁目３番２号安治川コールワーフビル４階,,27,106,5500026,,,,,,,2025-12-19,1,,,,,タンクバンキング,0
1514,6120003031537,新規,0,2025-12-19,2025-12-19,Ｄ‐ＴＥＲＲＡＣＥ合同会社,,合同会社,大阪府,大阪市淀川区,新高１丁目１３番２４号新高レックスマンション５０４,,27,123,5320033,,,,,,,2025-12-19,1,,,,,ディーテラス,0
1515,6120005025306,新規,0,2025-12-19,2025-12-19,特定非営利活動法人センターベース,,その他の設立登記法人,大阪府,大阪市中央区,難波千日前１１番２５号,,27,128,5420075,,,,,,,2025-12-19,1,,,,,センターベース,0
1521,6130001081269,新規,0,2025-12-19,2025-12-19,株式会社ヴィーナス・ラグーン,,株式会社,京都府,京都市中京区,西ノ京春日町１６番地１京都円町ＧＲＡＮＤＰＬＡＣＥ３０２,,26,104,6048453,,,,,,,2025-12-19,1,,,,,ヴィーナスラグーン,0
1522,6130005017541,新規,0,2025-12-19,2025-12-19,一般社団法人関西地震観測研究協議会,,その他の設立登記法人,京都府,京都市左京区,吉田本町京都大学吉田キャンパス内国際科学イノベーション棟４階,,26,103,6068317,,,,,,,2025-12-19,1,,,,,カンサイジシンカンソクケンキュウキョウギカイ,0
1531,6160001027302,新規,0,2025-12-19,2025-12-19,株式会社ＭＡ‐ＷＯＲＫＳ,,株式会社,滋賀県,蒲生郡日野町,大字小井口５１０番地８,,25,383,5291605,,,,,,,2025-12-19,1,,,,,エムエーワークス,0
1540,6180001169943,新規,0,2025-12-19,2025-12-19,株式会社峰雅,,株式会社,愛知県,名古屋市南区,七条町２丁目２番地の３イーグル８－３０５号,,23,112,4570854,,,,,,,2025-12-19,1,,,,,ホウガ,0
1541,6180001169951,新規,0,2025-12-19,2025-12-19,株式会社ＨＤＬ,,株式会社,愛知県,名古屋市千種区,南ケ丘１丁目１０番６２号,,23,101,4640042,,,,,,,2025-12-19,1,,,,,エイチディーエル,0
1542,6180001169976,新規,0,2025-12-19,2025-12-19,株式会社七彩,,株式会社,愛知県,日進市,赤池町箕ノ手２番地１０５セカンドプレイス赤池２Ｃ,,23,230,4700126,,,,,,,2025-12-19,1,,,,,ナナイロ,0
1544,6180301040515,新規,0,2025-12-19,2025-12-19,株式会社稲田商会,,株式会社,愛知県,安城市,美園町２丁目４番地２３,,23,212,4460076,,,,,,,2025-12-19,1,,,,,イナダショウカイ,0
1550,6220005009026,新規,0,2025-12-19,2025-12-19,一般社団法人南石川スポーツ＆ヘルスツーリズム推進協議会,,その他の設立登記法人,石川県,能美市,緑が丘３丁目８番地,,17,211,9231226,,,,,,,2025-12-19,1,,,,,ミナミイシカワスポーツアンドヘルスツーリズムスイシンキョウギカイ,0
1556,6240003007525,新規,0,2025-12-19,2025-12-19,合同会社ギズモクリエイト,,合同会社,広島県,広島市南区,宇品西２丁目１５－４６－５０５,,34,103,7340014,,,,,,,2025-12-19,1,,,,,ギズモクリエイト,0
1563,6290001112322,新規,0,2025-12-19,2025-12-19,日本久源堂株式会社,,株式会社,福岡県,福岡市中央区,天神２丁目２番１２号７階,,40,133,8100001,,,,,,,2025-12-19,1,,,,,ニホンキュウゲンドウ,0
1564,6290001112561,新規,0,2025-12-19,2025-12-19,株式会社ＢＩＡＮＳＡ,,株式会社,福岡県,福岡市早良区,梅林７丁目１６番６１号,,40,137,8140172,,,,,,,2025-12-19,1,,,,,ビアンサ,0
1565,6290801032117,新規,0,2025-12-19,2025-12-19,ＮａｎａＣｏｎｎｅｃｔ株式会社,,株式会社,福岡県,北九州市小倉北区,金鶏町９番３１号,,40,106,8030843,,,,,,,2025-12-19,1,,,,,ナナコネクト,0
1578,6360001036167,新規,0,2025-12-19,2025-12-19,沖縄ウェルスマネジメントサポート株式会社,,株式会社,沖縄県,沖縄市,宮里４丁目２番１号アレアル宮里１４０１号室,,47,211,9042165,,,,,,,2025-12-19,1,,,,,オキナワウェルスマネジメントサポート,0
1587,6380005013045,新規,0,2025-12-19,2025-12-19,行政書士法人アジュール法務事務所,,その他の設立登記法人,福島県,相馬郡新地町,谷地小屋字樋掛田５８番地１,,07,561,9792702,,,,,,,2025-12-19,1,,,,,アジュールホウムジムショ,0
1590,6420001019371,新規,0,2025-12-19,2025-12-19,株式会社Ａｐｐｌｅ　ｂｅｌｌ＆ａｎｔ,,株式会社,青森県,弘前市,大字百石町１８番地,,02,202,0368035,,,,,,,2025-12-19,1,,,,,アップルベルアント,0
1594,6430001095908,新規,0,2025-12-19,2025-12-19,ＬＰ・ＭＳコンサルティング株式会社,,株式会社,北海道,札幌市中央区,南二条西３丁目１２‐５,,01,101,0600062,,,,,,,2025-12-19,1,,,,,エルピーエムエスコンサルティング,0
1595,6430005015374,新規,0,2025-12-19,2025-12-19,一般社団法人Ａｓｉａ健康養老促進協会,,その他の設立登記法人,北海道,札幌市中央区,北五条西１１丁目１５番４号,,01,101,0600005,,,,,,,2025-12-19,1,,,,,アジアケンコウヨウロウソクシンキョウカイ,0
1598,6450003002752,新規,0,2025-12-19,2025-12-19,合同会社インパルス,,合同会社,北海道,上川郡当麻町,五条東３丁目８－１,,01,454,0781315,,,,,,,2025-12-19,1,,,,,インパルス,0
1600,6500003003646,新規,0,2025-12-19,2025-12-19,合同会社ショウＮＥＴ,,合同会社,愛媛県,松山市,小坂２丁目５－２８フォルテ小坂１２０２号室,,38,201,7900963,,,,,,,2025-12-19,1,,,,,ショウネット,0
1602,6700150133614,新規,0,2025-12-19,2025-12-19,ＶＥＲＴＥＸ　ＧＬＯＢＡＬ　ＴＲＡＤＩＮＧ　ＰＶＴ　ＬＴＤ,,外国会社等,京都府,綾部市,睦寄町湯ノ口１２－２－１０１,,26,203,6231131,スリランカ民主社会主義共和国、ＮＯ．７９／８、ミリガマロード、ネゴンボ,,,,,,2025-12-19,1,,,,,ベルテツクスグローバルトレーデイングプライベツトリミテツド,0
1603,6700150133622,新規,0,2025-12-19,2025-12-19,高知銀行健康保険組合,,その他,高知県,高知市,堺町２番２４号,,39,201,7800834,,,,,,,2025-12-19,1,,,,,コウチギンコウケンコウホケンクミアイ,0
1614,7010001261311,新規,0,2025-12-19,2025-12-19,株式会社クラシーク,,株式会社,東京都,千代田区,神田佐久間町３丁目２１番地谷田部ビル,,13,101,1010025,,,,,,,2025-12-19,1,,,,,クラシーク,0
1617,7010003049754,新規,0,2025-12-19,2025-12-19,合同会社ＡＵＮＥ,,合同会社,東京都,中央区,銀座７丁目１３番６号サガミビル２階,,13,102,1040061,,,,,,,2025-12-19,1,,,,,アウネ,0
1620,7010005041107,新規,0,2025-12-19,2025-12-19,一般社団法人ＢＲＡＮＺ開発１号,,その他の設立登記法人,東京都,千代田区,平河町１丁目６番１５号シルスフィア会計事務所内,,13,101,1020093,,,,,,,2025-12-19,1,,,,,ブランズカイハツイチゴウ,0
1630,7010401195002,新規,0,2025-12-19,2025-12-19,李奧國際株式会社,,株式会社,東京都,港区,赤坂２丁目８番１４－５０４号,,13,103,1070052,,,,,,,2025-12-19,1,,,,,リオウコクサイ,0
1631,7010401195258,新規,0,2025-12-19,2025-12-19,株式会社Ｌｕｒｅ,,株式会社,東京都,港区,麻布十番３丁目３－１０ラニビルＩＩ２階,00141958,13,103,1060045,,,,,,,2025-12-19,1,,,,,ルアー,0
1632,7010401195290,新規,0,2025-12-19,2025-12-19,株式会社Ｓ．Ａプロダクション,,株式会社,東京都,港区,浜松町２丁目２番１５号浜松町ダイヤビル２Ｆ,,13,103,1050013,,,,,,,2025-12-19,1,,,,,エスエープロダクション,0
1633,7010401195299,新規,0,2025-12-19,2025-12-19,株式会社ＷＯＲＬＤ　ＴＩＧＨＴ,,株式会社,東京都,港区,海岸３丁目９番４０－１９０４号,,13,103,1080022,,,,,,,2025-12-19,1,,,,,ワールドタイト,0
1644,7010701048784,新規,0,2025-12-19,2025-12-19,株式会社Ｅａｔｒｅｎｄ　ｇｌｏｂａｌ,,株式会社,東京都,品川区,東品川４丁目１２番８号,,13,109,1400002,,,,,,,2025-12-19,1,,,,,イートレンドグローバル,0
1645,7010703008051,新規,0,2025-12-19,2025-12-19,スリースターズＳＮＳ合同会社,,合同会社,東京都,品川区,東五反田４丁目１番２７－２－３１４号,,13,109,1410022,,,,,,,2025-12-19,1,,,,,スリースターズエスエヌエス,0
1647,7010803005650,新規,0,2025-12-19,2025-12-19,合同会社Ｇｌｏｃａｌ　Ｓｐｏｋｅｓ,,合同会社,東京都,大田区,南馬込１丁目４３番２３－１０４号,,13,111,1430025,,,,,,,2025-12-19,1,,,,,グローカルスポークス,0
1657,7011001174148,新規,0,2025-12-19,2025-12-19,平和商事株式会社,,株式会社,東京都,渋谷区,東２丁目１４－２２アルバフラッツ１０１号室,,13,113,1500011,,,,,,,2025-12-19,1,,,,,,0
1658,7011001174172,新規,0,2025-12-19,2025-12-19,株式会社ＧＯＡＴ,,株式会社,東京都,渋谷区,渋谷２丁目１２番１２－７０１号三貴ビル,,13,113,1500002,,,,,,,2025-12-19,1,,,,,ゴート,0
1659,7011001174338,新規,0,2025-12-19,2025-12-19,株式会社コラボラ,,株式会社,東京都,渋谷区,円山町５番５号Ｎａｖｉ渋谷Ｖ３階,,13,113,1500044,,,,,,,2025-12-19,1,,,,,コラボラ,0
1660,7011001174354,新規,0,2025-12-19,2025-12-19,株式会社ＮＭＢ,,株式会社,東京都,目黒区,中町２丁目３番２１号,,13,110,1530065,,,,,,,2025-12-19,1,,,,,エヌエムビー,0
1661,7011001174552,新規,0,2025-12-19,2025-12-19,ＥＣＨＯ　ＮＵＳＡＮＴＡＲＡ株式会社,,株式会社,東京都,渋谷区,神南１丁目１１番４号ＦＰＧリンクス神南５階,,13,113,1500041,,,,,,,2025-12-19,1,,,,,エコーヌサンタラ,0
1666,7011003023088,新規,0,2025-12-19,2025-12-19,ｖａｎ　ｄｅ　Ｗｏｕｗ合同会社,,合同会社,東京都,目黒区,祐天寺２丁目１６番１１号ソレイユ１０１,,13,110,1530052,,,,,,,2025-12-19,1,,,,,ヴァンデワウ,0
1667,7011003023138,新規,0,2025-12-19,2025-12-19,合同会社リモワークス,,合同会社,東京都,渋谷区,円山町５番３号ＭＩＥＵＸ渋谷ビル８階,,13,113,1500044,,,,,,,2025-12-19,1,,,,,,0
1668,7011005011297,新規,0,2025-12-19,2025-12-19,一般社団法人奏美会,,その他の設立登記法人,東京都,渋谷区,恵比寿西１丁目２１番５号ＷＥＳＴ２１、４階,,13,113,1500021,,,,,,,2025-12-19,1,,,,,ソウビカイ,0
1681,7011403004976,新規,0,2025-12-19,2025-12-19,合同会社ＥＶＯ,,合同会社,東京都,板橋区,泉町１８―１,,13,119,1740055,,,,,,,2025-12-19,1,,,,,エヴォ,0
1684,7011501032929,新規,0,2025-12-19,2025-12-19,株式会社リバーズエッジ,,株式会社,東京都,北区,赤羽１丁目７－９赤羽第一葉山ビル４Ｆ,,13,117,1150045,,,,,,,2025-12-19,1,,,,,リバーズエッジ,0
1685,7011703004486,新規,0,2025-12-19,2025-12-19,合同会社メディカルサポート,,合同会社,東京都,江戸川区,西葛西３丁目７番２１－１０１号,,13,123,1340088,,,,,,,2025-12-19,1,,,,,メディカルサポート,0
1686,7011801047206,新規,0,2025-12-19,2025-12-19,永営国際株式会社,,株式会社,東京都,足立区,辰沼１丁目１番１５－２０２号,,13,121,1210054,,,,,,,2025-12-19,1,,,,,エイエイコクサイ,0
1690,7013103001510,新規,0,2025-12-19,2025-12-19,合同会社Ｓｕｃａｔ,,合同会社,東京都,青梅市,藤橋２丁目１６０番地の１４,,13,205,1980022,,,,,,,2025-12-19,1,,,,,スーキャット,0
1691,7013301055465,新規,0,2025-12-19,2025-12-19,株式会社桜虎,,株式会社,東京都,豊島区,北大塚２丁目５番５号サンユー栄ビル５Ｆ,,13,116,1700004,,,,,,,2025-12-19,1,,,,,ヨルドラ,0
1692,7013303008009,新規,0,2025-12-19,2025-12-19,合同会社まるみ,,合同会社,東京都,豊島区,千川２丁目３７番３号メゾン・ラポール１０２号,,13,116,1710041,,,,,,,2025-12-19,1,,,,,マルミ,0
1694,7013305003809,新規,0,2025-12-19,2025-12-19,一般社団法人東アジア口腔医学交流協会,,その他の設立登記法人,東京都,豊島区,池袋２丁目５２－３ルミナリータワー池袋２２０３号室,,13,116,1710014,,,,,,,2025-12-19,1,,,,,ヒガシアジアコウコウイガクコウリュウキョウカイ,0
1707,7020001166336,新規,0,2025-12-19,2025-12-19,株式会社Ｔａｋｅｄａ　Ｆａｍｉｌｙ　Ｏｆｆｉｃｅ,,株式会社,神奈川県,川崎市中原区,小杉町３丁目６００番地Ｋ３Ａザ・レジデンス１５１４,,14,133,2110063,,,,,,,2025-12-19,1,,,,,タケダファミリーオフィス,0
1708,7020001166385,新規,0,2025-12-19,2025-12-19,株式会社レアル,,株式会社,神奈川県,横浜市中区,若葉町１丁目１番地細川ビル２階,,14,104,2310056,,,,,,,2025-12-19,1,,,,,レアル,0
1709,7020001166410,新規,0,2025-12-19,2025-12-19,信誠トレーディング株式会社,,株式会社,神奈川県,横浜市中区,弥生町２丁目１５－１ストークタワー大通り公園ＩＩＩ６０４Ｂ室,00141960,14,104,2310058,,,,,,,2025-12-19,1,,,,,シンセイトレーディング,0
1731,7030003028302,新規,0,2025-12-19,2025-12-19,合同会社ＫＩＫＹＯ,,合同会社,埼玉県,深谷市,上野台２００－１上野台リンデンＢ,,11,218,3660801,,,,,,,2025-12-19,1,,,,,キキョウ,0
1736,7040001141808,新規,0,2025-12-19,2025-12-19,オリエンタルライフ株式会社,,株式会社,千葉県,船橋市,前原東３丁目３番１３－１１７号,,12,204,2740824,,,,,,,2025-12-19,1,,,,,オリエンタルライフ,0
1737,7040001141857,新規,0,2025-12-19,2025-12-19,株式会社Ｂｌｕｅ　Ｏｎｅ　Ｃａｐｉｔａｌ,,株式会社,千葉県,千葉市美浜区,中瀬１丁目６番地,,12,106,2610023,,,,,,,2025-12-19,1,,,,,ブルーワンキャピタル,0
1738,7040001141865,新規,0,2025-12-19,2025-12-19,株式会社セカンド,,株式会社,千葉県,千葉市緑区,越智町７０５番地２３６,,12,105,2670055,,,,,,,2025-12-19,1,,,,,セカンド,0
1739,7040001141881,新規,0,2025-12-19,2025-12-19,株式会社建築板金巴,,株式会社,千葉県,市川市,新井１丁目２３番１９号,,12,203,2720144,,,,,,,2025-12-19,1,,,,,ケンチクバンキントモエ,0
1740,7040005022979,新規,0,2025-12-19,2025-12-19,一般社団法人農業自衛隊推進機構,,その他の設立登記法人,千葉県,香取郡多古町,牛尾２９１番地１,,12,347,2892245,,,,,,,2025-12-19,1,,,,,ノウギョウジエイタイスイシンキコウ,0
1743,7050001057739,新規,0,2025-12-19,2025-12-19,株式会社ＡＤユニバーサル,,株式会社,茨城県,稲敷郡河内町,布鎌３１５番地,,08,447,3001316,,,,,,,2025-12-19,1,,,,,アディユニバーサル,0
1744,7050001057755,新規,0,2025-12-19,2025-12-19,株式会社関根組,,株式会社,茨城県,日立市,田尻町２丁目３２番１号,,08,202,3191416,,,,,,,2025-12-19,1,,,,,セキネグミ,0
1745,7050001057763,新規,0,2025-12-19,2025-12-19,株式会社ネクストステージ,,株式会社,茨城県,那珂市,横堀１７８９番地２５,,08,226,3110103,,,,,,,2025-12-19,1,,,,,ネクストステージ,0
1749,7050003009820,新規,0,2025-12-19,2025-12-19,合同会社シュアブレーン,,合同会社,茨城県,牛久市,南７丁目３番地１０,,08,219,3001222,,,,,,,2025-12-19,1,,,,,シュアブレーン,0
1758,7100003008511,新規,0,2025-12-19,2025-12-19,合同会社南信テクニカルサービス,,合同会社,長野県,伊那市,西町３８７３番地４,,20,209,3960026,,,,,,,2025-12-19,1,,,,,ナンシンテクニカルサービス,0
1762,7110005017303,新規,0,2025-12-19,2025-12-19,一般社団法人なないろの空,,その他の設立登記法人,新潟県,新潟市東区,一日市１８３６番地１,,15,102,9500802,,,,,,,2025-12-19,1,,,,,ナナイロノソラ,0
1782,7120001282651,新規,0,2025-12-19,2025-12-19,ＵＺＯＲＩ　ＴＥＸ株式会社,,株式会社,大阪府,大阪市西淀川区,野里２丁目１４番１３号ＧＣオフィス西淀川１０７室,,27,113,5550024,,,,,,,2025-12-19,1,,,,,ウゾリテックス,0
1783,7120001282800,新規,0,2025-12-19,2025-12-19,Ａｔｒａｎｓｅｎ　Ｔｅｃｈｎｏｌｏｇｉｅｓ株式会社,,株式会社,大阪府,大阪市北区,中之島４丁目３番５１号,,27,127,5300005,,,,,,,2025-12-19,1,,,,,アトランセンテクノロジーズ,0
1784,7120001282890,新規,0,2025-12-19,2025-12-19,株式会社大阪ぱんが,,株式会社,大阪府,大阪市中央区,心斎橋筋２丁目３番３１号三寺ビル,,27,128,5420085,,,,,,,2025-12-19,1,,,,,オオサカパンガ,0
1785,7120001282932,新規,0,2025-12-19,2025-12-19,オフィスみゅう株式会社,,株式会社,大阪府,大阪市阿倍野区,丸山通１丁目３番２９号,,27,119,5450042,,,,,,,2025-12-19,1,,,,,オフィスミュウ,0
1794,7120005025305,新規,0,2025-12-19,2025-12-19,行政書士法人つむぐ,,その他の設立登記法人,大阪府,大阪市福島区,吉野１丁目２０－３０阪神野田駅前ビル６階,,27,103,5530006,,,,,,,2025-12-19,1,,,,,ツムグ,0
1799,7120103006909,新規,0,2025-12-19,2025-12-19,Ｅｉｓｈｉｎ合同会社,,合同会社,大阪府,堺市堺区,山本町５丁１０１番地１２５,,27,141,5900983,,,,,,,2025-12-19,1,,,,,エイシン,0
1800,7122001040015,新規,0,2025-12-19,2025-12-19,株式会社タナハシ製作所,,株式会社,大阪府,東大阪市,大蓮東３丁目８番１９号,00141942,27,227,5770824,,,,,,,2025-12-19,1,,,,,タナハシセイサクショ,0
1801,7122003003424,新規,0,2025-12-19,2025-12-19,合同会社きさく,,合同会社,大阪府,八尾市,安中町５丁目５－３７,,27,212,5810085,,,,,,,2025-12-19,1,,,,,キサク,0
1805,7130001081193,新規,0,2025-12-19,2025-12-19,ＡＮＤ　Ｆｏｏｄ株式会社,,株式会社,京都府,京都市下京区,御影町４５５ルーシア四条烏丸１０７号室,,26,106,6008447,,,,,,,2025-12-19,1,,,,,アンドフード,0
1810,7140001141120,新規,0,2025-12-19,2025-12-19,株式会社Ｂｒｉｄｇｅ,,株式会社,兵庫県,三田市,あかしあ台５丁目１２番地４,,28,219,6691323,,,,,,,2025-12-19,1,,,,,ブリッジ,0
1814,7150001028606,新規,0,2025-12-19,2025-12-19,株式会社プロクリティス,,株式会社,奈良県,奈良市,南肘塚町４９番地の３,,29,201,6308304,,,,,,,2025-12-19,1,,,,,プロクリティス,0
1821,7180001169942,新規,0,2025-12-19,2025-12-19,ララ株式会社,,株式会社,愛知県,名古屋市緑区,赤松５１３番地の１,,23,114,4580837,,,,,,,2025-12-19,1,,,,,ララ,0
1822,7180001169950,新規,0,2025-12-19,2025-12-19,株式会社ＬＩＦＥＰＬＵＳ,,株式会社,愛知県,日進市,岩崎町西ノ平２４,,23,230,4700131,,,,,,,2025-12-19,1,,,,,ライフプラス,0
1823,7180001169959,新規,0,2025-12-19,2025-12-19,ｍｏｖｕ　Ｊａｐａｎ株式会社,,株式会社,愛知県,小牧市,大字大草字年上坂５８２３番地,,23,219,4850802,,,,,,,2025-12-19,1,,,,,モビュージャパン,0
1824,7180001169975,新規,0,2025-12-19,2025-12-19,株式会社ファンライフ,,株式会社,愛知県,瀬戸市,神川町５９番地,,23,204,4890933,,,,,,,2025-12-19,1,,,,,ファンライフ,0
1832,7180301040514,新規,0,2025-12-19,2025-12-19,株式会社ＶｅｔｓＴ＆Ａ,,株式会社,愛知県,豊橋市,高師町字北新切１１６番地２６,,23,201,4418156,,,,,,,2025-12-19,1,,,,,ヴェッツティーアンドエー,0
1833,7180301040522,新規,0,2025-12-19,2025-12-19,株式会社Ａｍ,,株式会社,愛知県,豊橋市,東田町１４７番地２Ｖｉｌｌａ市電通２０２,,23,201,4400048,,,,,,,2025-12-19,1,,,,,,0
1836,7180303006851,新規,0,2025-12-19,2025-12-19,Ｓｔｏｉｃひとサポ合同会社,,合同会社,愛知県,岡崎市,大西町字南ケ原５番地２０,,23,202,4440812,,,,,,,2025-12-19,1,,,,,,0
1838,7200001044548,新規,0,2025-12-19,2025-12-19,株式会社富士新流通,,株式会社,岐阜県,岐阜市,茜部大川１丁目２９番地１,,21,201,5008282,,,,,,,2025-12-19,1,,,,,フジシンリュウツウ,0
1840,7200003007180,新規,0,2025-12-19,2025-12-19,ＭＩＤＤＡＮＧＥＡＲＤ合同会社,,合同会社,岐阜県,岐阜市,西改田松の木２１番地１（シャトルＭ＆Ｈ　Ｂ棟１０８号室）,,21,201,5011159,,,,,,,2025-12-19,1,,,,,ミッダンシャード,0
1844,7220005009025,新規,0,2025-12-19,2025-12-19,一般社団法人そら,,その他の設立登記法人,石川県,金沢市,富樫２丁目５番４２－１号,,17,201,9218171,,,,,,,2025-12-19,1,,,,,ソラ,0
1846,7230001021214,新規,0,2025-12-19,2025-12-19,株式会社ビーラインホールディングス,,株式会社,富山県,富山市,掛尾町５００番地,,16,201,9398212,,,,,,,2025-12-19,1,,,,,ビーラインホールディングス,0
1855,7280003002018,新規,0,2025-12-19,2025-12-19,合同会社ひとのわ,,合同会社,島根県,大田市,大森町ハ５１番地６オフィス林家,,32,205,6940305,,,,,,,2025-12-19,1,,,,,ヒトノワ,0
1859,7290001112247,新規,0,2025-12-19,2025-12-19,株式会社ｂｉｚｓｕｒｅ,,株式会社,福岡県,福岡市城南区,田島２丁目４－２４－１０３,,40,136,8140113,,,,,,,2025-12-19,1,,,,,ビズシュア,0
1860,7290001112536,新規,0,2025-12-19,2025-12-19,株式会社ＳＡＣＭＯＴｓ,,株式会社,福岡県,福岡市西区,九大新町５番５いとＬａｂ＋２０５号室,,40,135,8190388,,,,,,,2025-12-19,1,,,,,サクモツ,0
1861,7290001112569,新規,0,2025-12-19,2025-12-19,株式会社ＧｒａｎｄｙＣ,,株式会社,福岡県,福岡市中央区,高砂１丁目１４番１号カクタス天神６０２号,,40,133,8100011,,,,,,,2025-12-19,1,,,,,グランディーシー,0
1862,7290001112610,新規,0,2025-12-19,2025-12-19,株式会社ＢＥＧＵ,,株式会社,福岡県,福岡市中央区,天神４丁目６－２８いちご天神ノースビル７階,,40,133,8100001,,,,,,,2025-12-19,1,,,,,ベグ,0
1865,7290803005227,新規,0,2025-12-19,2025-12-19,合同会社ＧＥＡ,,合同会社,福岡県,北九州市小倉北区,黄金２丁目５番３号山内ピュアシティ黄金２０５号室,,40,106,8020071,,,,,,,2025-12-19,1,,,,,ジーイーエー,0
1871,7340001027844,新規,0,2025-12-19,2025-12-19,株式会社ＧＥＮＴＥＮ,,株式会社,鹿児島県,薩摩川内市,西向田町１０番２０号ダンディービル１０２号室,,46,215,8950027,,,,,,,2025-12-19,1,,,,,ゲンテン,0
1872,7340001027852,新規,0,2025-12-19,2025-12-19,エネテック南九州株式会社,,株式会社,鹿児島県,鹿児島市,上荒田町１７番２７号,,46,201,8900055,,,,,,,2025-12-19,1,,,,,エネテックミナミキュウシュウ,0
1873,7340003005047,新規,0,2025-12-19,2025-12-19,合同会社イル・ソーレ,,合同会社,鹿児島県,鹿児島市,上谷口町７７７番地８,,46,201,8992703,,,,,,,2025-12-19,1,,,,,イルソーレ,0
1883,7370003007420,新規,0,2025-12-19,2025-12-19,合同会社アリジ,,合同会社,宮城県,栗原市,志波姫刈敷田中２３番地３,,04,213,9895601,,,,,,,2025-12-19,1,,,,,アリジ,0
1891,7430003018436,新規,0,2025-12-19,2025-12-19,合同会社ＭＯＦエステート,,合同会社,北海道,札幌市中央区,宮の森三条２丁目２番９号,,01,101,0640953,,,,,,,2025-12-19,1,,,,,モフエステート,0
1898,7490005007019,新規,0,2025-12-19,2025-12-19,一般社団法人国際人材支援機構,,その他の設立登記法人,高知県,高知市,梅ノ辻２番４号,,39,201,7808011,,,,,,,2025-12-19,1,,,,,コクサイジンザイシエンキコウ,0
1899,7700150133621,新規,0,2025-12-19,2025-12-19,ＣｈａｎｇＳｈａＹｕａｎＦｅｉＤｉａｎＺｉＳｈａｎｇＷｕＹｏｕＸｉａｎＧｏｎｇＳｉ,,外国会社等,,,,,,,,Ｘｉａｎｇｊｉａｎｇ　Ｎｅｗ　Ｄｉｓｔ．，Ｘｉａｎｊｉａｈｕ　Ｓｔ．Ｎｏ．９Ｇｕｆｅｎｇ　Ｓｏｕｔｈ　Ｒｄ．，２０６，Ｂｕｉｌｄｉｎｇ１，２，Ｇａｏｘｉｎ　Ｓｕｎｆｌｏｗｅｒ　Ｇａｒｄｅｎ　Ｃｈａｎｇｓｈａ　Ｈｕｎａｎ　４１０２０５　ＣＮ,,,,,,2025-12-19,1,,,,,ジャンシャーユエンフェイディエンズーシャンウーヨウシエンゴンスー,0
1904,8010001261153,新規,0,2025-12-19,2025-12-19,株式会社ＯＮＬＩＥＳＴ,,株式会社,東京都,千代田区,神田神保町３丁目１１番６号神保町ビル１０階,,13,101,1010051,,,,,,,2025-12-19,1,,,,,オンリエスト,0
1905,8010001261236,新規,0,2025-12-19,2025-12-19,株式会社Ｇｒｉｄ　Ｓｅａｒｃｈ　Ｐａｒｔｎｅｒｓ,,株式会社,東京都,中央区,銀座１丁目２７番１０号ザ・アソシエイトビル４階,,13,102,1040061,,,,,,,2025-12-19,1,,,,,グリッドサーチパートナーズ,0
1906,8010001261310,新規,0,2025-12-19,2025-12-19,ＶｅｔＰｌｕｓ株式会社,,株式会社,東京都,千代田区,五番町１２番地７－２０４３,,13,101,1020076,,,,,,,2025-12-19,1,,,,,ベットプラス,0
1907,8010001261319,新規,0,2025-12-19,2025-12-19,株式会社Ｗｏｒｋ　Ｂｅ,,株式会社,東京都,中央区,日本橋室町１丁目１１番１２号日本橋水野ビル７階,,13,102,1030022,,,,,,,2025-12-19,1,,,,,ワークビー,0
1909,8010003049745,新規,0,2025-12-19,2025-12-19,Ｌ　ｇａｒｄｅｎｓｃａｐｅ　ｄｅｓｉｇｎ合同会社,,合同会社,東京都,中央区,日本橋中洲１番９号,,13,102,1030008,,,,,,,2025-12-19,1,,,,,,0
1910,8010003049753,新規,0,2025-12-19,2025-12-19,合同会社つむぎや,,合同会社,東京都,中央区,日本橋３丁目２番１４号新槇町ビル別館第一１階,,13,102,1030027,,,,,,,2025-12-19,1,,,,,ツムギヤ,0
1926,8010401194952,新規,0,2025-12-19,2025-12-19,株式会社スタンドバイミー,,株式会社,東京都,港区,北青山３丁目６番７号パラシオタワー１１階,,13,103,1070061,,,,,,,2025-12-19,1,,,,,スタンドバイミー,0
1927,8010401195273,新規,0,2025-12-19,2025-12-19,株式会社Ｖｅｒｂｉｑｕｅ,,株式会社,東京都,港区,芝３丁目２番１８号ＩＣＯＮ・ＰＬＡＣＥ・ＳＨＩＢＡＫＯＥＮ・１Ｆ２７,,13,103,1050014,,,,,,,2025-12-19,1,,,,,ヴェルビーク,0
1928,8010401195281,新規,0,2025-12-19,2025-12-19,株式会社トラディショナルウェザーウェアジャパン,,株式会社,東京都,港区,六本木１丁目８番７号,,13,103,1060032,,,,,,,2025-12-19,1,,,,,トラディショナルウェザーウェアジャパン,0
1932,8010403036797,新規,0,2025-12-19,2025-12-19,ｊｏｔｔａ合同会社,,合同会社,東京都,港区,浜松町２丁目２番１５号浜松町ダイヤビル２Ｆ,,13,103,1050013,,,,,,,2025-12-19,1,,,,,ヨッタ,0
1933,8010403036847,新規,0,2025-12-19,2025-12-19,Ｅｍｂｒａｃｅ合同会社,,合同会社,東京都,港区,南青山３丁目１番３６号青山丸竹ビル６Ｆ,,13,103,1070062,,,,,,,2025-12-19,1,,,,,エンブレイス,0
1934,8010403036855,新規,0,2025-12-19,2025-12-19,Ｎｏｖａ　Ｗｏｒｋｓ合同会社,,合同会社,東京都,港区,南青山３丁目１番３６号青山丸竹ビル６Ｆ,,13,103,1070062,,,,,,,2025-12-19,1,,,,,ノヴァワークス,0
1943,8010701048767,新規,0,2025-12-19,2025-12-19,株式会社ＡＲｅＸ,,株式会社,東京都,品川区,北品川３丁目１１番１３号タワーコート北品川２４０８号,,13,109,1400001,,,,,,,2025-12-19,1,,,,,アレックス,0
1945,8011001174329,新規,0,2025-12-19,2025-12-19,エッジコネクト株式会社,,株式会社,東京都,渋谷区,神南１丁目１１－４ＦＰＧリンクス神南５階,,13,113,1500041,,,,,,,2025-12-19,1,,,,,エッジコネクト,0
1946,8011001174361,新規,0,2025-12-19,2025-12-19,株式会社リトア,,株式会社,東京都,渋谷区,恵比寿西２丁目１番８号,,13,113,1500021,,,,,,,2025-12-19,1,,,,,リトア,0
1955,8011501032928,新規,0,2025-12-19,2025-12-19,株式会社ｈ　ｐｌｕｓ,,株式会社,東京都,荒川区,荒川４丁目３２番４号,,13,118,1160002,,,,,,,2025-12-19,1,,,,,エイチプラス,0
1964,8013301055489,新規,0,2025-12-19,2025-12-19,株式会社ＥＮＮＯＡ,,株式会社,東京都,豊島区,池袋２丁目２４番１１号,,13,116,1710014,,,,,,,2025-12-19,1,,,,,エンノア,0
1968,8020001166343,新規,0,2025-12-19,2025-12-19,株式会社ＪＣ,,株式会社,神奈川県,横浜市中区,山下町２８－２－７１１,,14,104,2310023,,,,,,,2025-12-19,1,,,,,ジェイシー,0
1969,8020001166351,新規,0,2025-12-19,2025-12-19,株式会社ＰＨＹ,,株式会社,神奈川県,川崎市多摩区,中野島５丁目５番１４号,,14,135,2140012,,,,,,,2025-12-19,1,,,,,ピーエッチワイ,0
1977,8021003016858,新規,0,2025-12-19,2025-12-19,和光アセット合同会社,,合同会社,神奈川県,相模原市中央区,千代田７丁目８番２号,,14,152,2520237,,,,,,,2025-12-19,1,,,,,,0
1988,8030003028301,新規,0,2025-12-19,2025-12-19,合同会社Ｍ．Ｔｃｏｒｐｏｒａｔｉｏｎ,,合同会社,埼玉県,川口市,朝日１丁目１７番３２号,,11,203,3320001,,,,,,,2025-12-19,1,,,,,エムティーコーポレーション,0
1995,8040003029190,新規,0,2025-12-19,2025-12-19,合同会社大町蓄電所,,合同会社,千葉県,木更津市,かずさ鎌足１丁目８番地１,,12,206,2920818,,,,,,,2025-12-19,1,,,,,オオマチチクデンショ,0
1996,8040005022978,新規,0,2025-12-19,2025-12-19,一般社団法人Ｓｅｌａｈ,,その他の設立登記法人,千葉県,船橋市,行田１丁目４８番６号森田ビル２０２号室,,12,204,2730044,,,,,,,2025-12-19,1,,,,,セラ,0
2000,8050001057738,新規,0,2025-12-19,2025-12-19,株式会社ラポーム,,株式会社,茨城県,つくば市,谷田部２３７２番地２（陣場Ｅ４８街区１０）,,08,220,3050861,,,,,,,2025-12-19,1,,,,,ラポーム,0
2001,8050001057746,新規,0,2025-12-19,2025-12-19,株式会社さんさんきゅう,,株式会社,茨城県,水戸市,千波町１１５６番地３Ｆ,,08,201,3100851,,,,,,,2025-12-19,1,,,,,サンサンキュウ,0
2002,8050001057762,新規,0,2025-12-19,2025-12-19,株式会社Ｔａｋｅ,,株式会社,茨城県,稲敷郡阿見町,中央３丁目３番１号セレッソ中央Ｅ棟,,08,443,3000332,,,,,,,2025-12-19,1,,,,,タケ,0
2006,8050003009803,新規,0,2025-12-19,2025-12-19,合同会社アグリプロ,,合同会社,茨城県,石岡市,大谷津４番１４号,,08,205,3150036,,,,,,,2025-12-19,1,,,,,アグリプロ,0
2007,8060001038828,新規,0,2025-12-19,2025-12-19,株式会社ＲＡＨＥＭ　ＴＲＡＤＩＮＧ,,株式会社,栃木県,小山市,駅南町５丁目１５番１号小峰アパート１号,,09,208,3230822,,,,,,,2025-12-19,1,,,,,ラヒームトレーディング,0
2011,8080001027341,新規,0,2025-12-19,2025-12-19,株式会社万記,,株式会社,静岡県,静岡市清水区,鳥坂５４９番地の８,,22,103,4240067,,,,,,,2025-12-19,1,,,,,マキ,0
2014,8080401028328,新規,0,2025-12-19,2025-12-19,ＥＬ　ｔｈｉｎｋ株式会社,,株式会社,静岡県,浜松市中央区,利町３０５番地の１,,22,138,4300937,,,,,,,2025-12-19,1,,,,,エルシンク,0
2019,8100003008519,新規,0,2025-12-19,2025-12-19,合同会社ヴィナテイスト,,合同会社,長野県,上田市,大手２丁目３番５号柳澤ビル１階Ｂ,,20,203,3860024,,,,,,,2025-12-19,1,,,,,ヴィナテイスト,0
2031,8120001282923,新規,0,2025-12-19,2025-12-19,株式会社スリーウインド,,株式会社,大阪府,大阪市大正区,小林西２丁目２２番１０号,,27,108,5510013,,,,,,,2025-12-19,1,,,,,スリーウインド,0
2032,8120001282931,新規,0,2025-12-19,2025-12-19,株式会社オッドリーチ,,株式会社,大阪府,大阪市生野区,田島１丁目９－４－３０３,,27,116,5440011,,,,,,,2025-12-19,1,,,,,オッドリーチ,0
2033,8120001282964,新規,0,2025-12-19,2025-12-19,株式会社ＳＯＲＡ‐ＮＥＸＴＡＩ,,株式会社,大阪府,大阪市平野区,長吉長原１丁目２番４７号ハイツコーセー３０２号,,27,126,5470016,,,,,,,2025-12-19,1,,,,,ソラネクストエーアイ,0
2038,8120003031477,新規,0,2025-12-19,2025-12-19,合同会社ハウオリ,,合同会社,大阪府,大阪市西区,新町１丁目１４番２１－１９０５号,,27,106,5500013,,,,,,,2025-12-19,1,,,,,ハウオリ,0
2039,8120003031519,新規,0,2025-12-19,2025-12-19,合同会社ＨＵＬＭ,,合同会社,大阪府,大阪市生野区,勝山北２丁目１１番３号,,27,116,5440033,,,,,,,2025-12-19,1,,,,,フルム,0
2042,8120101072976,新規,0,2025-12-19,2025-12-19,株式会社ハイスタイル,,株式会社,大阪府,河内長野市,木戸３丁目５番１０―１０４号,,27,216,5860001,,,,,,,2025-12-19,1,,,,,ハイスタイル,0
2048,8130001081192,新規,0,2025-12-19,2025-12-19,ＡＮＤ　Ｔｅｃｈ株式会社,,株式会社,京都府,京都市下京区,御影町４５５ルーシア四条烏丸１０７号室,,26,106,6008447,,,,,,,2025-12-19,1,,,,,アンドテック,0
2049,8130001081234,新規,0,2025-12-19,2025-12-19,株式会社ドリームブリッジ,,株式会社,京都府,京都市東山区,大和大路通松原下る弓矢町３８番地１０１号,,26,105,6050817,,,,,,,2025-12-19,1,,,,,ドリームブリッジ,0
2050,8130001081242,新規,0,2025-12-19,2025-12-19,Ｂｅｓｐｏｋｅ　Ｊａｐａｎ株式会社,,株式会社,京都府,京都市下京区,七条通油小路東入大黒町２２７番地第２キョートビル４０２,,26,106,6008223,,,,,,,2025-12-19,1,,,,,ビスポークジャパン,0
2051,8130001081250,新規,0,2025-12-19,2025-12-19,株式会社Ｃｏｅｒｕ,,株式会社,京都府,京都市山科区,東野門口町４４番地の７,,26,110,6078154,,,,,,,2025-12-19,1,,,,,コエル,0
2052,8130001081259,新規,0,2025-12-19,2025-12-19,株式会社和所設備,,株式会社,京都府,城陽市,平川大将軍６７番地３０,,26,207,6100101,,,,,,,2025-12-19,1,,,,,ワショセツビ,0
2056,8130003011016,新規,0,2025-12-19,2025-12-19,合同会社ＹＳ,,合同会社,京都府,京都市南区,吉祥院観音堂町３８番地サニーハイツ塔南２１２号,,26,107,6018348,,,,,,,2025-12-19,1,,,,,ワイエス,0
2057,8130003011024,新規,0,2025-12-19,2025-12-19,オールアップ合同会社,,合同会社,京都府,京都市下京区,玉津島町２９４,,26,106,6008427,,,,,,,2025-12-19,1,,,,,オールアップ,0
2074,8160001027300,新規,0,2025-12-19,2025-12-19,株式会社森田工業,,株式会社,滋賀県,犬上郡豊郷町,大字杉１８番地１９,,25,441,5291167,,,,,,,2025-12-19,1,,,,,モリタコウギョウ,0
2079,8180001169958,新規,0,2025-12-19,2025-12-19,Ａｑｕｍｅｎ　　Ｃａｐｉｔａｌ株式会社,,株式会社,愛知県,小牧市,大字大草字年上坂５８２３番地,,23,219,4850802,,,,,,,2025-12-19,1,,,,,アキュメンキャピタル,0
2080,8180001169966,新規,0,2025-12-19,2025-12-19,株式会社沢建,,株式会社,愛知県,小牧市,大字三ツ渕２０２９番地１,,23,219,4850075,,,,,,,2025-12-19,1,,,,,サワケン,0
2081,8180001169990,新規,0,2025-12-19,2025-12-19,株式会社ＫＲＭ,,株式会社,愛知県,海部郡大治町,大字鎌須賀字山廻５４番地の２,,23,424,4901135,,,,,,,2025-12-19,1,,,,,ケイアールエム,0
2082,8180001170008,新規,0,2025-12-19,2025-12-19,株式会社ＪＵＢＩＬＥＥ,,株式会社,愛知県,名古屋市瑞穂区,新開町６－２２,,23,108,4670856,,,,,,,2025-12-19,1,,,,,ジュビリー,0
2083,8180003029516,新規,0,2025-12-19,2025-12-19,合同会社マツカゼ,,合同会社,愛知県,小牧市,大字小牧原新田１８２４番地４,,23,219,4850012,,,,,,,2025-12-19,1,,,,,マツカゼ,0
2085,8180301040521,新規,0,2025-12-19,2025-12-19,株式会社Ｓｆｉｄａ,,株式会社,愛知県,西尾市,上道目記町池田１２番地２,,23,213,4450882,,,,,,,2025-12-19,1,,,,,,0
2089,8200001044539,新規,0,2025-12-19,2025-12-19,株式会社ＰＯＬ,,株式会社,岐阜県,土岐市,下石町１２０５番地の１,,21,212,5095202,,,,,,,2025-12-19,1,,,,,ポル,0
2093,8230001021213,新規,0,2025-12-19,2025-12-19,カドル株式会社,,株式会社,富山県,富山市,新根塚町２丁目１６－１４グリーンタウン布瀬２０１号,,16,201,9398205,,,,,,,2025-12-19,1,,,,,カドル,0
2102,8280003002017,新規,0,2025-12-19,2025-12-19,合同会社ＥＮＪＯＹ　ＦＯＯＤ,,合同会社,島根県,松江市,浜乃木１丁目５番４５号,,32,201,6900044,,,,,,,2025-12-19,1,,,,,エンジョイフード,0
2106,8290003017848,新規,0,2025-12-19,2025-12-19,合同会社ａｓｔｅｒｉ,,合同会社,福岡県,福岡市城南区,神松寺１丁目５－２４アップルフラット２号室,,40,136,8140121,,,,,,,2025-12-19,1,,,,,アステリ,0
2109,8290803005234,新規,0,2025-12-19,2025-12-19,Ｃａｎｖａｓ　Ｗｏｒｋｓ合同会社,,合同会社,福岡県,北九州市小倉南区,重住１丁目３番１０号,,40,107,8020811,,,,,,,2025-12-19,1,,,,,キャンバスワークス,0
2110,8290805009885,新規,0,2025-12-19,2025-12-19,特定非営利活動法人グローブの中の未来,,その他の設立登記法人,福岡県,北九州市戸畑区,小芝２丁目４番３１号,,40,105,8040092,,,,,,,2025-12-19,1,,,,,グローブノナカノミライ,0
2111,8300001014449,新規,0,2025-12-19,2025-12-19,株式会社スイスコテージ,,株式会社,佐賀県,佐賀市,赤松町３番３０号,,41,201,8400042,,,,,,,2025-12-19,1,,,,,スイスコテージ,0
2112,8320003004859,新規,0,2025-12-19,2025-12-19,合同会社翔永緑化,,合同会社,大分県,大分市,大字下原１５０６番地,,44,201,8701213,,,,,,,2025-12-19,1,,,,,ショウエイリョッカ,0
2114,8330003011367,新規,0,2025-12-19,2025-12-19,豊万プライムアセット九州合同会社,,合同会社,熊本県,合志市,須屋２８５６番地８,,43,216,8611102,,,,,,,2025-12-19,1,,,,,トヨマンプライムアセットキュウシュウ,0
2117,8350001019856,新規,0,2025-12-19,2025-12-19,株式会社大巧興業,,株式会社,宮崎県,延岡市,平原町１丁目２７６番地１,,45,203,8820866,,,,,,,2025-12-19,1,,,,,ダイコウコウギョウ,0
2118,8360001036165,新規,0,2025-12-19,2025-12-19,株式会社ＢＯＴＡＮ,,株式会社,沖縄県,那覇市,首里石嶺町４丁目４４６番地７９号,,47,201,9030804,,,,,,,2025-12-19,1,,,,,ボタン,0
2123,8370003007428,新規,0,2025-12-19,2025-12-19,矩權合同会社,,合同会社,宮城県,仙台市若林区,五橋３丁目１番３－１０１５号,,04,103,9840022,,,,,,,2025-12-19,1,,,,,カネゴン,0
2124,8370005011048,新規,0,2025-12-19,2025-12-19,一般社団法人日本防災認定機構,,その他の設立登記法人,宮城県,仙台市青葉区,本町１丁目５番２８号カーニープレイス仙台駅前通６０３号室,,04,101,9800014,,,,,,,2025-12-19,1,,,,,ニホンボウサイニンテイキコウ,0
2131,8380003006214,新規,0,2025-12-19,2025-12-19,合同会社ＡＩＡＳＵＫＯＡ,,合同会社,福島県,郡山市,久留米６丁目１６０番地の９,,07,203,9638846,,,,,,,2025-12-19,1,,,,,アイアスコア,0
2132,8390001018169,新規,0,2025-12-19,2025-12-19,伊藤電子工業株式会社,,株式会社,山形県,寒河江市,中央工業団地１５８番地の１５,,06,206,9910061,,,,,,,2025-12-19,1,,,,,イトウデンシコウギョウ,0
2144,8490005007018,新規,0,2025-12-19,2025-12-19,蛇王神社,,その他の設立登記法人,高知県,四万十市,名鹿４４９番地５０,,39,210,7870163,,,,,,,2025-12-19,1,,,,,ジャオウジンジャ,0
2146,8700150066498,新規,0,2025-12-19,2015-10-09,沖縄市老人クラブ連合会,,その他,沖縄県,沖縄市,知花６丁目３６－１７,,47,211,9042143,,,,,,,2015-10-09,1,,,,,オキナワシロウジンクラブレンゴウカイ,0
2147,8700150133620,新規,0,2025-12-19,2025-12-19,ＶｏｙａｇｅｒＸ，Ｉｎｃ．,,外国会社等,,,,,,,,大韓民国ソウル特別市瑞草区瑞草大路３８ギル１２，９階,,,,,,2025-12-19,1,,,,,ボイジヤーエツクス,0
2154,9010001260889,新規,0,2025-12-19,2025-12-19,株式会社福来,,株式会社,東京都,中央区,日本橋３丁目２番１４号,,13,102,1030027,,,,,,,2025-12-19,1,,,,,フクライ,0
2155,9010001261359,新規,0,2025-12-19,2025-12-19,株式会社インテグリス,,株式会社,東京都,中央区,日本橋３丁目２番１４号新槇町シンマキチョウビル別館第一２階,,13,102,1030027,,,,,,,2025-12-19,1,,,,,インテグリス,0
2156,9010003049752,新規,0,2025-12-19,2025-12-19,合同会社はこのわ,,合同会社,東京都,千代田区,神田佐久間町２丁目１８番地１秋葉原ＳＴＮフロント１０階,,13,101,1010025,,,,,,,2025-12-19,1,,,,,ハコノワ,0
2157,9010003049777,新規,0,2025-12-19,2025-12-19,インチャージ合同会社,,合同会社,東京都,中央区,銀座１丁目１２番４号Ｎ＆ＥＢＬＤ．６Ｆ,,13,102,1040061,,,,,,,2025-12-19,1,,,,,インチャージ,0
2160,9010401195223,新規,0,2025-12-19,2025-12-19,株式会社ステージング・ビジョン,,株式会社,東京都,港区,高輪２丁目２１番４１号高輪第一ビル３階,,13,103,1080074,,,,,,,2025-12-19,1,,,,,ステージングビジョン,0
2161,9010401195339,新規,0,2025-12-19,2025-12-19,株式会社ホワイト,,株式会社,東京都,港区,六本木４丁目３番１１号六本木ユニハウス２２３,,13,103,1060032,,,,,,,2025-12-19,1,,,,,ホワイト,0
2163,9010403036813,新規,0,2025-12-19,2025-12-19,ＭＯＢＩＵＳ合同会社,,合同会社,東京都,港区,北青山１丁目３番３号三橋ビル３階,,13,103,1070061,,,,,,,2025-12-19,1,,,,,メビウス,0
2164,9010403036821,新規,0,2025-12-19,2025-12-19,合同会社ＡＵＮＯ,,合同会社,東京都,港区,浜松町２丁目２番１５号浜松町ダイヤビル２Ｆ,,13,103,1050013,,,,,,,2025-12-19,1,,,,,アウノ,0
2186,9010801036885,新規,0,2025-12-19,2025-12-19,株式会社地道,,株式会社,東京都,大田区,北千束３丁目２０－８,,13,111,1450062,,,,,,,2025-12-19,1,,,,,ジミチ,0
2187,9010801036893,新規,0,2025-12-19,2025-12-19,ＮＥＸＴ　ＩＮＮＯＶＡＩＴＩＯＮ株式会社,,株式会社,東京都,大田区,南久が原１丁目１７番３号,,13,111,1460084,,,,,,,2025-12-19,1,,,,,ネクストイノベーション,0
2188,9010803005649,新規,0,2025-12-19,2025-12-19,合同会社第３惑星,,合同会社,東京都,大田区,大森西６丁目１７番１７号,,13,111,1430015,,,,,,,2025-12-19,1,,,,,ダイサンワクセイ,0
2199,9011001174410,新規,0,2025-12-19,2025-12-19,株式会社ｅｙｅｇｌａｄ,,株式会社,東京都,渋谷区,代官山町９番１号Ｇａｌｌｅｒｙ１０１,,13,113,1500034,,,,,,,2025-12-19,1,,,,,アイグラッド,0
2200,9011001174484,新規,0,2025-12-19,2025-12-19,株式会社ＦＳＫ,,株式会社,東京都,渋谷区,恵比寿２丁目２７番２４－１０１号,,13,113,1500013,,,,,,,2025-12-19,1,,,,,エフエスケー,0
2201,9011003023111,新規,0,2025-12-19,2025-12-19,黒目造園合同会社,,合同会社,東京都,目黒区,下目黒２丁目１６－９小林ビル１Ｆ,,13,110,1530064,,,,,,,2025-12-19,1,,,,,クロメゾウエン,0
2211,9011103016873,新規,0,2025-12-19,2025-12-19,ｍｏｎｏｂｏｘ合同会社,,合同会社,東京都,新宿区,西新宿４丁目３７－１７エクセレントビラ２０３号室,,13,104,1600023,,,,,,,2025-12-19,1,,,,,モノボックス,0
2215,9011801047212,新規,0,2025-12-19,2025-12-19,アンジェラ株式会社,,株式会社,東京都,足立区,東綾瀬１丁目２５番９号,,13,121,1200004,,,,,,,2025-12-19,1,,,,,アンジェラ,0
2222,9012801024424,新規,0,2025-12-19,2025-12-19,株式会社Ｔｕｒｎｉｎｇ　Ｐｏｉｎｔ,,株式会社,東京都,国分寺市,本多３丁目８番１１号メゾン奏１０１,,13,214,1850011,,,,,,,2025-12-19,1,,,,,ターニングポイント,0
2225,9013301055471,新規,0,2025-12-19,2025-12-19,東京種苗株式会社,,株式会社,東京都,豊島区,西巣鴨３丁目１９番２号,,13,116,1700001,,,,,,,2025-12-19,1,,,,,トウキョウシュビョウ,0
2226,9013301055488,新規,0,2025-12-19,2025-12-19,株式会社グローバルビジョン,,株式会社,東京都,豊島区,東池袋５丁目３５番１号,,13,116,1700013,,,,,,,2025-12-19,1,,,,,グローバルビジョン,0
2236,9020001166350,新規,0,2025-12-19,2025-12-19,株式会社相和不動産,,株式会社,神奈川県,横浜市緑区,中山４丁目３番３３号,,14,113,2260019,,,,,,,2025-12-19,1,,,,,アイワフドウサン,0
2237,9020001166359,新規,0,2025-12-19,2025-12-19,株式会社ワイワイワーク,,株式会社,神奈川県,横浜市都筑区,仲町台３丁目１２番４号,,14,118,2240041,,,,,,,2025-12-19,1,,,,,ワイワイワーク,0
2238,9020001166400,新規,0,2025-12-19,2025-12-19,株式会社ＺＥＲＯＯＮＥ,,株式会社,神奈川県,横浜市中区,野毛町２丁目６８番地１野毛産業ビル３Ｆ,,14,104,2310064,,,,,,,2025-12-19,1,,,,,ゼロワン,0
2239,9020001166409,新規,0,2025-12-19,2025-12-19,株式会社ＵＬＵ　ＤＯＰＥ,,株式会社,神奈川県,川崎市幸区,小向西町４丁目６５－２－１Ｆ,,14,132,2120004,,,,,,,2025-12-19,1,,,,,ウルドープ,0
2244,9020005017095,新規,0,2025-12-19,2025-12-19,医療法人川崎悠愛会,,その他の設立登記法人,神奈川県,川崎市川崎区,渡田向町１５番２号シャルム川崎１０１,,14,131,2100841,,,,,,,2025-12-19,1,,,,,カワサキユウアイカイ,0
2248,9021003016840,新規,0,2025-12-19,2025-12-19,合同会社Ａｒｉｅ,,合同会社,神奈川県,相模原市南区,相武台１丁目１番４－１０２号,,14,153,2520324,,,,,,,2025-12-19,1,,,,,アリエ,0
2254,9030001170236,新規,0,2025-12-19,2025-12-19,株式会社ＲＥＡＬＭ,,株式会社,埼玉県,八潮市,茜町１丁目８番地９－２階,,11,234,3400826,,,,,,,2025-12-19,1,,,,,レルム,0
2257,9030003028309,新規,0,2025-12-19,2025-12-19,辰光アセットマネジメント合同会社,,合同会社,埼玉県,越谷市,レイクタウン６丁目３５番地５０,,11,222,3430828,,,,,,,2025-12-19,1,,,,,シンコウアセットマネジメント,0
2263,9040001141756,新規,0,2025-12-19,2025-12-19,株式会社ディノビット,,株式会社,千葉県,八千代市,下市場１丁目２番１１号,,12,221,2760026,,,,,,,2025-12-19,1,,,,,ディノビット,0
2264,9040001141814,新規,0,2025-12-19,2025-12-19,株式会社ボウ・アンド・アローズ,,株式会社,千葉県,松戸市,竹ケ花４５番地の２２松戸インペリアル７０６,,12,207,2710072,,,,,,,2025-12-19,1,,,,,ボウアンドアローズ,0
2265,9040001141830,新規,0,2025-12-19,2025-12-19,Ｅａｔ＆Ｌｉｆｅ株式会社,,株式会社,千葉県,銚子市,芦崎町９２８番地１,,12,202,2880861,,,,,,,2025-12-19,1,,,,,イートアンドライフ,0
2269,9040003029108,新規,0,2025-12-19,2025-12-19,合同会社スタート,,合同会社,千葉県,市原市,能満１９２４－１４０,,12,219,2900011,,,,,,,2025-12-19,1,,,,,スタート,0
2272,9050001057753,新規,0,2025-12-19,2025-12-19,株式会社神成,,株式会社,茨城県,つくばみらい市,中原４９番地１１,,08,235,3002403,,,,,,,2025-12-19,1,,,,,カンナリ,0
2273,9050001057761,新規,0,2025-12-19,2025-12-19,ＯＨＯＲＡホールディングス株式会社,,株式会社,茨城県,鹿嶋市,大字角折１３９４番地１,,08,222,3112212,,,,,,,2025-12-19,1,,,,,,0
2277,9050003009819,新規,0,2025-12-19,2025-12-19,ＪＬトレーディング合同会社,,合同会社,茨城県,つくば市,上郷７０６９番地７,,08,220,3002645,,,,,,,2025-12-19,1,,,,,ジェイエルトレーディング,0
2293,9090003002951,新規,0,2025-12-19,2025-12-19,サンカクスケール合同会社,,合同会社,山梨県,南巨摩郡富士川町,十谷４６５,,19,368,4000606,,,,,,,2025-12-19,1,,,,,サンカクスケール,0
2296,9100003008526,新規,0,2025-12-19,2025-12-19,合同会社植松,,合同会社,長野県,松本市,筑摩１丁目４番８－Ｃ２０１号,,20,202,3900821,,,,,,,2025-12-19,1,,,,,ウエマツ,0
2307,9120001282930,新規,0,2025-12-19,2025-12-19,民泊支援株式会社,,株式会社,大阪府,大阪市中央区,南本町２丁目３－１２,,27,128,5410054,,,,,,,2025-12-19,1,,,,,ミンパクシエン,0
2312,9120003031526,新規,0,2025-12-19,2025-12-19,合同会社ＶＩＭＰＡＣＴ,,合同会社,大阪府,大阪市北区,梅田１丁目１‐３大阪駅前第３ビル２９階１‐１‐１号室,,27,127,5300001,,,,,,,2025-12-19,1,,,,,ヴィンパクト,0
2316,9120101072967,新規,0,2025-12-19,2025-12-19,株式会社かつら,,株式会社,大阪府,堺市堺区,戎之町東１丁１番６－２０１号,,27,141,5900945,,,,,,,2025-12-19,1,,,,,カツラ,0
2317,9120101072983,新規,0,2025-12-19,2025-12-19,リッチマウント株式会社,,株式会社,大阪府,河内長野市,上田町３０番地の２,,27,216,5860034,,,,,,,2025-12-19,1,,,,,リッチマウント,0
2319,9122001040013,新規,0,2025-12-19,2025-12-19,株式会社Ｍ２電設,,株式会社,大阪府,東大阪市,大蓮東４丁目１３番７号,00141952,27,227,5770824,,,,,,,2025-12-19,1,,,,,エムツーデンセツ,0
2323,9130001081258,新規,0,2025-12-19,2025-12-19,株式会社Ｋ’ｓ　Ｃｒａｆｔ,,株式会社,京都府,京都市中京区,三条通堀川西入橋西町６６９番地１,,26,104,6048332,,,,,,,2025-12-19,1,,,,,ケーズクラフト,0
2342,9180001169932,新規,0,2025-12-19,2025-12-19,ＰＡＢＦ株式会社,,株式会社,愛知県,愛知郡東郷町,春木台３丁目５番地７,,23,302,4700161,,,,,,,2025-12-19,1,,,,,パフ,0
2343,9180001169957,新規,0,2025-12-19,2025-12-19,株式会社後藤オート,,株式会社,愛知県,稲沢市,陸田宮前１丁目３番地１２,,23,220,4928044,,,,,,,2025-12-19,1,,,,,ゴトウオート,0
2344,9180001169998,新規,0,2025-12-19,2025-12-19,株式会社狛犬プロダクション,,株式会社,愛知県,名古屋市中区,大須２丁目３番５号,,23,106,4600011,,,,,,,2025-12-19,1,,,,,コマイヌプロダクション,0
2348,9180005021354,新規,0,2025-12-19,2025-12-19,一般社団法人みらい,,その他の設立登記法人,愛知県,東海市,名和町東中嶺１１番地４２,,23,222,4760002,,,,,,,2025-12-19,1,,,,,ミライ,0
2350,9180301040520,新規,0,2025-12-19,2025-12-19,株式会社ＴＮＰ,,株式会社,愛知県,豊橋市,前田南町１丁目１６番地３－２Ｆ,,23,201,4400851,,,,,,,2025-12-19,1,,,,,ティーエヌピー,0
2352,9200001044538,新規,0,2025-12-19,2025-12-19,ＩＮＴＲＡ株式会社,,株式会社,岐阜県,海津市,海津町駒ケ江４３０番地,,21,221,5030613,,,,,,,2025-12-19,1,,,,,イントレ,0
2354,9210001020422,新規,0,2025-12-19,2025-12-19,株式会社ＡＫＩＺ,,株式会社,福井県,小浜市,相生第５１号２１番地１,,18,204,9170037,,,,,,,2025-12-19,1,,,,,アキズ,0
2358,9240001065951,新規,0,2025-12-19,2025-12-19,株式会社リキャンパス,,株式会社,広島県,福山市,内海町イ１４２７番地,,34,207,7222631,,,,,,,2025-12-19,1,,,,,リキャンパス,0
2359,9250003003867,新規,0,2025-12-19,2025-12-19,合同会社高嶋社中,00141948,合同会社,山口県,山口市,下竪小路７９番地森脇ビル３０５号,,35,203,7530034,,,,,,,2025-12-19,1,,,,,,0
2369,9290001112567,新規,0,2025-12-19,2025-12-19,Ｌｅｘｉｏｎ株式会社,,株式会社,福岡県,飯塚市,秋松２６５番地,,40,205,8200083,,,,,,,2025-12-19,1,,,,,レクシオン,0
2370,9290001112575,新規,0,2025-12-19,2025-12-19,株式会社九州プライム,,株式会社,福岡県,福岡市南区,的場１丁目２７番８号,,40,134,8111314,,,,,,,2025-12-19,1,,,,,キュウシュウプライム,0
2371,9290003017847,新規,0,2025-12-19,2025-12-19,Ｒｅｓｅａｒｃｈ　Ｐｕｂｌｉｃａｔｉｏｎ合同会社,,合同会社,福岡県,久留米市,津福本町９４８－５,,40,203,8300047,,,,,,,2025-12-19,1,,,,,リサーチパブリケーション,0
2374,9300001014448,新規,0,2025-12-19,2025-12-19,株式会社小園企画,,株式会社,佐賀県,多久市,多久町２３２７番地２,,41,204,8460031,,,,,,,2025-12-19,1,,,,,コゾノキカク,0
2379,9340001027859,新規,0,2025-12-19,2025-12-19,株式会社ぎゅっとサポート,,株式会社,鹿児島県,鹿児島市,吉野町２４３０番地１２０,,46,201,8920871,,,,,,,2025-12-19,1,,,,,ギュットサポート,0
2383,9370001053316,新規,0,2025-12-19,2025-12-19,株式会社Ｓｌｏｔｈ　Ｔｒａｄｅ,,株式会社,宮城県,仙台市青葉区,中央２丁目１１番１９号仙南ビル４階－Ａ,,04,101,9800021,,,,,,,2025-12-19,1,,,,,スローストレード,0
2384,9370001053332,新規,0,2025-12-19,2025-12-19,オオヤマ開発株式会社,,株式会社,宮城県,柴田郡柴田町,大字上名生字明神堂１９－２,,04,323,9891611,,,,,,,2025-12-19,1,,,,,オオヤマカイハツ,0
2393,9430001095896,新規,0,2025-12-19,2025-12-19,株式会社解心,,株式会社,北海道,札幌市清田区,真栄二条１丁目１３番１０号,,01,110,0040832,,,,,,,2025-12-19,1,,,,,カイシン,0
