sequenceNumber,corporateNumber,process,correct,updateDate,changeDate,name,nameImageId,kind,prefectureName,cityName,streetNumber,addressImageId,prefectureCode,cityCode,postCode,addressOutside,addressOutsideImageId,closeDate,closeCause,successorCorporateNumber,changeCause,assignmentDate,latest,enName,enPrefectureName,enCityName,enAddressOutside,furigana,hihyoji
4,1010001174650,登記記録の閉鎖等,0,2022-10-25,2022-10-20,ピーエヌエイチ株式会社,,株式会社,東京都,新宿区,住吉町６番５号岡本ビル５階,,13,104,1620065,,,2022-10-20,清算の結了等,,,2016-04-05,1,,,,,ピーエヌエイチ,0
15,1010401129766,登記記録の閉鎖等,0,2022-10-25,2022-10-05,株式会社ｍｏｎｏ,,株式会社,東京都,港区,元赤坂１丁目２番７号赤坂Ｋタワー４Ｆ,,13,103,1070051,,,2022-10-05,清算の結了等,,,2017-02-20,1,,,,,モノ,0
16,1010401137612,登記記録の閉鎖等,0,2022-10-25,2022-10-18,ＭＨＩヴェスタスオフショアウィンドジャパン株式会社,,株式会社,東京都,千代田区,丸の内３丁目２番３号,,13,101,1000005,,,2022-10-18,合併による解散等,3010701021092,令和４年９月１５日東京都港区虎ノ門五丁目１番５号メトロシティ神谷町８階ベスタス・ジャパン株式会社（3010701021092）に合併し解散,2018-04-05,1,,,,,エムエイチアイヴェスタスオフショアウィンドジャパン,0
23,1010403021830,登記記録の閉鎖等,0,2022-10-25,2022-10-05,とんぼう合同会社,,合同会社,東京都,港区,芝浦３丁目１４番６号,,13,103,1080023,,,2022-10-05,合併による解散等,7010001095783,令和４年１０月１日東京都港区高輪二丁目１４番１７号シンプライン株式会社（7010001095783）に合併し解散,2019-11-20,1,,,,,トンボウ,0
32,1010901020581,登記記録の閉鎖等,0,2022-10-25,2022-10-17,株式会社国際ビジネスブレイン,,株式会社,東京都,世田谷区,下馬５丁目３１番１３号,,13,112,1540002,,,2022-10-17,清算の結了等,,,2015-10-05,1,,,,,コクサイビジネスブレイン,0
49,1011101086595,登記記録の閉鎖等,0,2022-10-25,2022-10-21,株式会社ティーエーエフ,,株式会社,東京都,新宿区,西新宿７丁目５番２５号,,13,104,1600023,,,2022-10-21,清算の結了等,,,2019-01-21,1,,,,,ティーエーエフ,0
63,1020001107353,登記記録の閉鎖等,0,2022-10-25,2022-10-18,株式会社友鶴,,株式会社,神奈川県,川崎市宮前区,平４丁目１５番５号,,14,136,2160022,,,2022-10-18,清算の結了等,,,2015-10-05,1,,,,,ユウヅル,0
67,1020003006603,登記記録の閉鎖等,0,2022-10-25,2022-10-19,合同会社Ｒｏｏｓｔｅｒ,,合同会社,東京都,三鷹市,牟礼６丁目２５番７号,,13,204,1810002,,,2022-10-19,清算の結了等,,,2015-10-05,1,,,,,ルースター,0
68,1020003015125,登記記録の閉鎖等,0,2022-10-25,2022-10-17,株式会社横溝組,,株式会社,神奈川県,横浜市緑区,鴨居７丁目１２番１３号旭ハイツＡ棟１０１号室,,14,113,2260003,,,2022-10-17,清算の結了等,,,2018-10-30,1,,,,,ヨコミゾグミ,0
75,1021001031857,登記記録の閉鎖等,0,2022-10-25,2022-10-19,本多空調株式会社,,株式会社,神奈川県,相模原市南区,麻溝台３１５３番地４,,14,153,2520328,,,2022-10-19,清算の結了等,,,2015-10-05,1,,,,,,0
101,1040001009481,登記記録の閉鎖等,0,2022-10-25,2022-10-17,株式会社ジオ東京,,株式会社,千葉県,千葉市中央区,都町１丁目２番４号,,12,101,2600001,,,2022-10-17,清算の結了等,,,2015-10-05,1,,,,,ジオトウキョウ,0
103,1040001078403,登記記録の閉鎖等,0,2022-10-25,2022-10-17,株式会社タリカ,,株式会社,千葉県,市川市,新田４丁目１５番２４号,,12,203,2720035,,,2022-10-17,清算の結了等,,,2015-10-05,1,,,,,タリカ,0
111,1050002035955,登記記録の閉鎖等,0,2022-10-25,2022-10-17,有限会社サイトウ,,有限会社,茨城県,久慈郡大子町,大字川山７６６番地,,08,364,3193556,,,2022-10-17,清算の結了等,,,2015-10-05,1,,,,,サイトウ,0
121,1110001025934,登記記録の閉鎖等,0,2022-10-25,2022-10-20,株式会社ココ園,,株式会社,新潟県,見附市,今町５丁目１１番１６号,,15,211,9540111,,,2022-10-20,清算の結了等,,,2015-10-05,1,,,,,ココエン,0
122,1110001030752,登記記録の閉鎖等,0,2022-10-25,2022-10-24,株式会社原価率研究所,,株式会社,新潟県,新潟市中央区,南万代町１４番２０号,,15,103,9500902,,,2022-10-24,清算の結了等,,,2015-10-05,1,,,,,,0
124,1110002016288,登記記録の閉鎖等,0,2022-10-25,2022-10-21,有限会社マルケン商事,,有限会社,新潟県,新潟市東区,はなみずき２丁目１０番３５号,,15,102,9500893,,,2022-10-21,清算の結了等,,,2015-10-05,1,,,,,マルケンショウジ,0
132,1120001140872,登記記録の閉鎖等,0,2022-10-25,2022-10-21,株式会社インフィニット,,株式会社,大阪府,大阪市淀川区,新北野３丁目１０－２１－６０３号,,27,123,5320025,,,2022-10-21,清算の結了等,,,2015-10-05,1,,,,,インフィニット,0
133,1120001159500,登記記録の閉鎖等,0,2022-10-25,2022-10-24,株式会社みや,,株式会社,大阪府,守口市,金下町１丁目１番８号,,27,209,5700079,,,2022-10-24,清算の結了等,,,2015-10-05,1,,,,,ミヤ,0
144,1120005013439,登記記録の閉鎖等,0,2022-10-25,2022-10-21,特定非営利活動法人メビウス,,その他の設立登記法人,大阪府,寝屋川市,北大利町１７番１号,,27,215,5720032,,,2022-10-21,清算の結了等,,,2015-10-05,1,,,,,メビウス,0
168,1170001013504,登記記録の閉鎖等,0,2022-10-25,2022-10-21,株式会社砂貴,,株式会社,和歌山県,伊都郡かつらぎ町,大字中飯降字嵯峨山２０５７番１,,30,341,6497112,,,2022-10-21,清算の結了等,,,2015-10-05,1,,,,,,0
172,1180001103238,登記記録の閉鎖等,0,2022-10-25,2022-10-20,トヨナカ岩手株式会社,,株式会社,愛知県,名古屋市南区,内田橋２丁目１８番１１号,,23,112,4570862,,,2022-10-20,清算の結了等,,,2015-10-05,1,,,,,トヨナカイワテ,0
204,1320005000664,登記記録の閉鎖等,0,2022-10-25,2022-10-21,福相寺,,その他の設立登記法人,大分県,大分市,大字久原６２０番地,,44,201,8700304,,,2022-10-21,清算の結了等,,,2015-10-05,1,,,,,フクソウジ,0
208,1340005006404,登記記録の閉鎖等,0,2022-10-25,2022-10-20,農事組合法人トカラ畜産組合,,その他の設立登記法人,鹿児島県,鹿児島市,泉町１４番１５号（十島村役場内）,,46,201,8920822,,,2022-10-20,清算の結了等,,,2015-10-05,1,,,,,トカラチクサンクミアイ,0
224,1410002001978,登記記録の閉鎖等,0,2022-10-25,2022-10-20,有限会社柴野工業,,有限会社,秋田県,秋田市,飯島長野上町１番３号,,05,201,0110928,,,2022-10-20,清算の結了等,,,2015-10-05,1,,,,,シバノコウギョウ,0
230,1460001003541,登記記録の閉鎖等,0,2022-10-25,2022-10-20,株式会社オレンジ企画,,株式会社,北海道,釧路市,星が浦大通２丁目２番６号,,01,206,0840912,,,2022-10-20,清算の結了等,,,2015-10-05,1,,,,,オレンジキカク,0
244,2010001185597,登記記録の閉鎖等,0,2022-10-25,2022-10-19,帆風エデュケーション株式会社,,株式会社,東京都,文京区,後楽１丁目４番１１－２１０３号,,13,105,1120004,,,2022-10-19,合併による解散等,1011101019654,令和４年１０月１日東京都新宿区下宮比町２番２９号株式会社帆風（1011101019654）に合併し解散,2017-08-15,1,,,,,,0
246,2010001204729,登記記録の閉鎖等,0,2022-10-25,2022-10-18,株式会社アリーヤ・Ｙ＆Ｂ・インターナショナル,,株式会社,東京都,千代田区,九段南１丁目５番６号りそな九段ビル５Ｆ,,13,101,1020074,,,2022-10-18,清算の結了等,,,2019-10-17,1,,,,,アリーヤワイアンドビーインターナショナル,0
261,2010102010613,登記記録の閉鎖等,0,2022-10-25,2022-10-19,有限会社ＫＵＲＯＤＡ興産,,有限会社,東京都,武蔵野市,吉祥寺本町１丁目２５番２号水上ビル地下１階,,13,203,1800004,,,2022-10-19,合併による解散等,9011202007798,令和４年１０月１日川崎市川崎区駅前本町３番地３ムラタヤビル５階株式会社藏人（9011202007798）に合併し解散,2015-10-05,1,,,,,クロダコウサン,0
263,2010401060540,登記記録の閉鎖等,0,2022-10-25,2022-10-20,株式会社インターネットレボリューション,,株式会社,東京都,中央区,銀座１丁目１１番１号,,13,102,1040061,,,2022-10-20,合併による解散等,6010401061171,令和４年１０月１日東京都中央区銀座一丁目１１番１号株式会社コナミデジタルエンタテインメント（6010401061171）に合併し解散,2015-10-05,1,,,,,インターネットレボリューション,0
270,2010405013107,登記記録の閉鎖等,0,2022-10-25,2022-10-05,一般社団法人ＬＣリテールファンド１号,,その他の設立登記法人,東京都,港区,虎ノ門５丁目３番２０号株式会社アカウンティング・マネジメント・サービス内,,13,103,1050001,,,2022-10-05,清算の結了等,,,2015-10-05,1,,,,,エルシーリテールファンドイチゴウ,0
271,2010501012796,登記記録の閉鎖等,0,2022-10-25,2022-10-24,株式会社ボン・マーシュ白金堂,,株式会社,東京都,台東区,浅草１丁目２０番１２号,,13,106,1110032,,,2022-10-24,清算の結了等,,,2015-10-05,1,,,,,ボンマーシュハッキンドウ,0
282,2010901023253,登記記録の閉鎖等,0,2022-10-25,2022-10-20,株式会社シー・ティー・ティー,,株式会社,東京都,世田谷区,等々力５丁目１９－２,,13,112,1580082,,,2022-10-20,清算の結了等,,,2015-10-05,1,,,,,シーティーティー,0
297,2011005000107,登記記録の閉鎖等,0,2022-10-25,2022-10-13,一般社団法人日本経済青年協議会,,その他の設立登記法人,東京都,渋谷区,代々木神園町３番１号,,13,113,1510052,,,2022-10-13,清算の結了等,,,2015-10-05,1,,,,,ニホンケイザイセイネンキョウギカイ,0
298,2011005003266,登記記録の閉鎖等,0,2022-10-25,2022-10-19,ＤＥＣ事業協同組合,,その他の設立登記法人,東京都,渋谷区,桜丘町２０番１号,,13,113,1500031,,,2022-10-19,清算の結了等,,,2015-10-05,1,,,,,デーイーシー,0
309,2011603002553,登記記録の閉鎖等,0,2022-10-25,2022-10-19,大泉グローカルサービス合同会社,,合同会社,東京都,練馬区,東大泉１丁目３５番１４号貫井ビルディング９０３号,,13,120,1780063,,,2022-10-19,清算の結了等,,,2019-02-15,1,,,,,オオイズミグローカルサービス,0
315,2012402000070,登記記録の閉鎖等,0,2022-10-25,2022-10-19,有限会社アート・ギミックス,,有限会社,東京都,府中市,宮西町４丁目４番地宮西コープ２０１号室,,13,206,1830022,,,2022-10-19,清算の結了等,,,2015-10-05,1,,,,,アートギミックス,0
330,2020002083007,登記記録の閉鎖等,0,2022-10-25,2022-10-18,クリサン商事有限会社,,有限会社,神奈川県,川崎市中原区,木月３丁目１０番１４号,,14,133,2110025,,,2022-10-18,清算の結了等,,,2015-10-05,1,,,,,クリサンショウジ,0
331,2020003012170,登記記録の閉鎖等,0,2022-10-25,2022-10-20,合同会社パレハ,,合同会社,東京都,江戸川区,船堀７丁目１９番１３号,,13,123,1340091,,,2022-10-20,清算の結了等,,,2016-12-27,1,,,,,パレハ,0
343,2021002046457,登記記録の閉鎖等,0,2022-10-25,2022-10-20,有限会社湘南ユニオン,,有限会社,神奈川県,大和市,福田２３４２番地１日神パレステージ桜ヶ丘９０９号,,14,213,2420024,,,2022-10-20,清算の結了等,,,2015-10-05,1,,,,,ショウナンユニオン,0
351,2030001117474,登記記録の閉鎖等,0,2022-10-25,2022-10-05,Ａｌｐｈａ　Ｐａｙｍｅｎｔ株式会社,,株式会社,東京都,港区,六本木１丁目６番１号泉ガーデンタワー,,13,103,1060032,,,2022-10-05,清算の結了等,,,2016-12-02,1,,,,,アルファペイメント,0
359,2040001101948,登記記録の閉鎖等,0,2022-10-25,2022-10-17,株式会社ピンポイント,,株式会社,千葉県,八千代市,八千代台南１丁目５番地１４,,12,221,2760033,,,2022-10-17,清算の結了等,,,2017-09-27,1,,,,,ピンポイント,0
360,2040001111170,登記記録の閉鎖等,0,2022-10-25,2022-10-07,株式会社Ｏｒｃａ,,株式会社,千葉県,市川市,大洲４丁目４番１４号パレス市川２０３号室,,12,203,2720032,,,2022-10-07,清算の結了等,,,2019-10-18,1,,,,,オルカ,0
364,2040002078789,登記記録の閉鎖等,0,2022-10-25,2022-10-14,有限会社オフィスワン,,有限会社,千葉県,東金市,田間１丁目１５番地２３,,12,213,2830005,,,2022-10-14,清算の結了等,,,2015-10-05,1,,,,,オフィスワン,0
365,2040003012020,登記記録の閉鎖等,0,2022-10-25,2022-10-14,白井交易合同会社,,合同会社,千葉県,白井市,堀込１丁目２－９－Ｂ－５,,12,232,2701424,,,2022-10-14,清算の結了等,,,2018-08-15,1,,,,,シロイコウエキ,0
371,2050002013571,登記記録の閉鎖等,0,2022-10-25,2022-10-18,有限会社エヌエムアールデービテック,,有限会社,茨城県,土浦市,乙戸南１丁目２７番７号,,08,203,3000845,,,2022-10-18,清算の結了等,,,2015-10-05,1,,,,,エヌエムアールデービテック,0
389,2120001039726,登記記録の閉鎖等,0,2022-10-25,2022-10-20,株式会社ふ梅,,株式会社,大阪府,大阪市浪速区,敷津東２丁目２番８号,,27,111,5560012,,,2022-10-20,清算の結了等,,,2015-10-05,1,,,,,フウメ,0
401,2120002008845,登記記録の閉鎖等,0,2022-10-25,2022-10-21,有限会社みき北谷,,有限会社,大阪府,大阪市城東区,成育２丁目５番３号,,27,118,5360007,,,2022-10-21,清算の結了等,,,2015-10-05,1,,,,,ミキキタタニ,0
418,2130001013861,登記記録の閉鎖等,0,2022-10-25,2022-10-13,株式会社稲荷名産舘,,株式会社,京都府,京都市伏見区,深草開土町２番地,,26,109,6120806,,,2022-10-13,清算の結了等,,,2015-10-05,1,,,,,イナリメイサンカン,0
423,2130003005709,登記記録の閉鎖等,0,2022-10-25,2022-10-17,合同会社ＧＯＬＤ,,合同会社,京都府,京都市右京区,梅津南広町８１番地の１梅津グランドハイツ１１７号,,26,108,6150901,,,2022-10-17,清算の結了等,,,2018-10-26,1,,,,,ゴールド,0
427,2140002063509,登記記録の閉鎖等,0,2022-10-25,2022-10-21,有限会社寿建築,,有限会社,兵庫県,伊丹市,荻野６丁目１３番地の１,,28,207,6640002,,,2022-10-21,清算の結了等,,,2015-10-05,1,,,,,,0
437,2180001022040,登記記録の閉鎖等,0,2022-10-25,2022-10-20,スズキ工業株式会社,,株式会社,愛知県,名古屋市熱田区,千年１丁目２４番１０号,,23,109,4560054,,,2022-10-20,清算の結了等,,,2015-10-05,1,,,,,スズキコウギョウ,0
445,2180301022500,登記記録の閉鎖等,0,2022-10-25,2022-10-18,新栄興業株式会社,,株式会社,愛知県,西尾市,西浅井町郷西田２３番地,,23,213,4450004,,,2022-10-18,清算の結了等,,,2015-10-05,1,,,,,シンエイコウギョウ,0
454,2270002007824,登記記録の閉鎖等,0,2022-10-25,2022-10-21,有限会社高梨商店,,有限会社,鳥取県,境港市,外江町２９９１番地２,,31,204,6840071,,,2022-10-21,清算の結了等,,,2015-10-05,1,,,,,,0
467,2330002000005,登記記録の閉鎖等,0,2022-10-25,2022-10-20,アイ・エイチ・カンパニー有限会社,,有限会社,熊本県,熊本市中央区,坪井５丁目１４番１５号,,43,101,8600863,,,2022-10-20,清算の結了等,,,2015-10-05,1,,,,,アイエイチカンパニー,0
511,2500001014731,登記記録の閉鎖等,0,2022-10-25,2022-10-21,株式会社東予理研,,株式会社,愛媛県,四国中央市,川之江町余木２３８番地１１,,38,213,7990103,,,2022-10-21,清算の結了等,,,2015-10-05,1,,,,,トウヨリケン,0
518,3010001200025,登記記録の閉鎖等,0,2022-10-25,2022-10-05,フカイリアルティ投資顧問株式会社,,株式会社,東京都,港区,六本木１丁目７番１０－２００１号,,13,103,1060032,,,2022-10-05,清算の結了等,,,2019-04-12,1,,,,,フカイリアルティトウシコモン,0
528,3010405014269,登記記録の閉鎖等,0,2022-10-25,2022-10-24,一般社団法人これからの介護医療経営塾,,その他の設立登記法人,東京都,千代田区,永田町２丁目１７番１７－３０２号,,13,101,1000014,,,2022-10-24,清算の結了等,,,2015-10-26,1,,,,,コレカラノカイゴイリョウケイエイジュク,0
555,3012701001891,登記記録の閉鎖等,0,2022-10-25,2022-10-20,株式会社峯連合設計事務所,,株式会社,東京都,東村山市,萩山町１丁目３１番地５,,13,213,1890012,,,2022-10-20,清算の結了等,,,2015-10-05,1,,,,,ミネレンゴウセッケイジムショ,0
557,3012703000140,登記記録の閉鎖等,0,2022-10-25,2022-10-21,合資会社アイティサポートシステム,,合資会社,東京都,東久留米市,滝山７丁目２番７号,,13,222,2030033,,,2022-10-21,清算の結了等,,,2015-10-05,1,,,,,,0
564,3013301038218,登記記録の閉鎖等,0,2022-10-25,2022-10-20,株式会社ゲオコンテンツサービス,,株式会社,愛知県,名古屋市中区,富士見町８番８号,,23,106,4600014,,,2022-10-20,清算の結了等,,,2016-01-20,1,,,,,ゲオコンテンツサービス,0
583,3020002063668,登記記録の閉鎖等,0,2022-10-25,2022-10-17,有限会社シオン,,有限会社,神奈川県,横浜市港南区,下永谷３丁目５６番６号,,14,111,2330016,,,2022-10-17,清算の結了等,,,2015-10-05,1,,,,,シオン,0
603,3050002007861,登記記録の閉鎖等,0,2022-10-25,2022-10-18,有限会社ひがしのプラン,,有限会社,茨城県,那珂郡東海村,白方中央１丁目２３番１６号,,08,341,3191109,,,2022-10-18,清算の結了等,,,2015-10-05,1,,,,,ヒガシノプラン,0
614,3110001018267,登記記録の閉鎖等,0,2022-10-25,2022-10-24,村上特産株式会社,,株式会社,新潟県,村上市,羽黒町１番１１－２２号,,15,212,9580851,,,2022-10-24,清算の結了等,,,2015-10-05,1,,,,,ムラカミトクサン,0
620,3120001085257,登記記録の閉鎖等,0,2022-10-25,2022-10-19,東海技研工業株式会社,,株式会社,大阪府,大阪市中央区,南久宝寺町４丁目３番４号,,27,128,5410058,,,2022-10-19,清算の結了等,,,2015-10-05,1,,,,,トウカイギケンコウギョウ,0
634,3120001202349,登記記録の閉鎖等,0,2022-10-25,2022-10-24,ＴＭＫグラフィック株式会社,,株式会社,大阪府,堺市美原区,大饗６０番地３,,27,147,5870063,,,2022-10-24,清算の結了等,,,2016-12-13,1,,,,,ティーエムケーグラフィック,0
647,3120005010351,登記記録の閉鎖等,0,2022-10-25,2022-10-03,特定非営利活動法人木造耐震システム研究機構,,その他の設立登記法人,大阪府,大阪市西区,阿波座１丁目１５番１５号,,27,106,5500011,,,2022-10-03,清算の結了等,,,2015-10-05,1,,,,,モクゾウタイシンシステムケンキュウキコウ,0
667,3130002017811,登記記録の閉鎖等,0,2022-10-25,2022-10-12,有限会社アカウント,,有限会社,京都府,京都市中京区,蛸薬師通高倉東入雁金町３８１番地ハイランドコート蛸薬師１Ｆ,,26,104,6048115,,,2022-10-12,清算の結了等,,,2015-10-05,1,,,,,アカウント,0
675,3150001013289,登記記録の閉鎖等,0,2022-10-25,2022-10-20,株式会社はまもと薬局,,株式会社,奈良県,北葛城郡王寺町,王寺２丁目７番２０号,,29,425,6360002,,,2022-10-20,清算の結了等,,,2015-10-05,1,,,,,ハマモトヤッキョク,0
690,3180303004693,登記記録の閉鎖等,0,2022-10-25,2022-10-18,合同会社Ｌｉｆｅ　ａｎｄ　Ｍｅ．,,合同会社,愛知県,豊川市,東上町東京寺１３番地８,,23,207,4411201,,,2022-10-18,清算の結了等,,,2020-07-21,1,,,,,ライフアンドミー,0
697,3260001028177,登記記録の閉鎖等,0,2022-10-25,2022-10-24,株式会社ウエディ,,株式会社,岡山県,津山市,押入１１３６番地１６,,33,203,7081126,,,2022-10-24,清算の結了等,,,2015-10-05,1,,,,,ウエディ,0
707,3330001019086,登記記録の閉鎖等,0,2022-10-25,2022-10-20,株式会社スズイ,,株式会社,熊本県,上天草市,大矢野町中６３３番地,,43,212,8693603,,,2022-10-20,清算の結了等,,,2015-10-05,1,,,,,スズイ,0
710,3350001006842,登記記録の閉鎖等,0,2022-10-25,2022-10-20,泰誠工業株式会社,,株式会社,宮崎県,延岡市,川原崎町１７７番地,,45,203,8820033,,,2022-10-20,清算の結了等,,,2015-10-05,1,,,,,タイセイコウギョウ,0
724,3400002013320,登記記録の閉鎖等,0,2022-10-25,2022-10-12,有限会社遠藤商店,,有限会社,岩手県,九戸郡野田村,大字野田第１１地割２３番地１,,03,503,0288201,,,2022-10-12,清算の結了等,,,2015-10-05,1,,,,,エンドウショウテン,0
753,4010002005034,登記記録の閉鎖等,0,2022-10-25,2022-10-19,有限会社ヒロインダストリー,,有限会社,東京都,文京区,後楽１丁目１番１０号,,13,105,1120004,,,2022-10-19,合併による解散等,2130001052827,令和４年１０月１日京都市山科区西野山中鳥井町６３番地１明星観光バス株式会社（2130001052827）に合併し解散,2015-10-05,1,,,,,,0
772,4010601034508,登記記録の閉鎖等,0,2022-10-25,2022-10-12,株式会社マハラバ文庫,,株式会社,山梨県,中央市,大鳥居３６４４番地４,,19,214,4001513,,,2022-10-12,清算の結了等,,,2015-10-05,1,,,,,,0
781,4011003013760,登記記録の閉鎖等,0,2022-10-25,2022-10-13,合同会社ＳＨＣ天戸台,,合同会社,東京都,目黒区,洗足２丁目１６番１９号,,13,110,1520012,,,2022-10-13,清算の結了等,,,2021-12-02,1,,,,,エスエイチシーアマドダイ,0
788,4011201002400,登記記録の閉鎖等,0,2022-10-25,2022-10-19,株式会社キャリアサポート,,株式会社,東京都,中野区,中野５丁目１５番２号,,13,114,1640001,,,2022-10-19,清算の結了等,,,2015-10-05,1,,,,,キャリアサポート,0
790,4011201022225,登記記録の閉鎖等,0,2022-10-25,2022-10-20,株式会社ｉＤ,,株式会社,東京都,中野区,江古田４丁目２８番５号グリーンヴィラ江古田Ｂ２０５,,13,114,1650022,,,2022-10-20,清算の結了等,,,2020-06-24,1,,,,,アイディ,0
792,4011301007233,登記記録の閉鎖等,0,2022-10-25,2022-10-12,山下商事株式会社,,株式会社,東京都,杉並区,高円寺北１丁目８番１９号,,13,115,1660002,,,2022-10-12,清算の結了等,,,2015-10-05,1,,,,,ヤマシタショウジ,0
813,4020001070945,登記記録の閉鎖等,0,2022-10-25,2022-10-18,山建設備工業株式会社,,株式会社,神奈川県,川崎市幸区,戸手１丁目７番１号,,14,132,2120005,,,2022-10-18,清算の結了等,,,2015-10-05,1,,,,,ヤマケンセツビコウギョウ,0
817,4020001098739,登記記録の閉鎖等,0,2022-10-25,2022-10-18,株式会社ケンプラス,,株式会社,神奈川県,横浜市中区,麦田町１丁目３２番地山手パークハイツ２０２号室,,14,104,2310849,,,2022-10-18,清算の結了等,,,2015-10-05,1,,,,,ケンプラス,0
818,4020001118884,登記記録の閉鎖等,0,2022-10-25,2022-10-17,株式会社鈴木塗装,,株式会社,神奈川県,川崎市川崎区,鋼管通４丁目１０番１０－２０３号,,14,131,2100852,,,2022-10-17,清算の結了等,,,2016-12-01,1,,,,,,0
822,4020002035451,登記記録の閉鎖等,0,2022-10-25,2022-10-12,有限会社日吉ラス工業,,有限会社,神奈川県,横浜市港北区,綱島西５丁目１６番１２号,,14,109,2230053,,,2022-10-12,清算の結了等,,,2015-10-05,1,,,,,ヒヨシラスコウギョウ,0
824,4020002080720,登記記録の閉鎖等,0,2022-10-25,2022-10-17,有限会社伽都羅,00011395,有限会社,神奈川県,川崎市幸区,古市場２丁目７９番地２０,,14,132,2120052,,,2022-10-17,清算の結了等,,,2015-10-05,1,,,,,カヅラ,0
841,4030003008265,登記記録の閉鎖等,0,2022-10-25,2022-10-14,合同会社福岡マーチ,,合同会社,埼玉県,ふじみ野市,池上２番２号,,11,245,3560019,,,2022-10-14,清算の結了等,,,2016-01-05,1,,,,,フクオカマーチ,0
848,4040002019980,登記記録の閉鎖等,0,2022-10-25,2022-10-17,エミーコーポレーション有限会社,,有限会社,千葉県,千葉市花見川区,作新台７丁目１７番４７号,,12,102,2620045,,,2022-10-17,清算の結了等,,,2015-10-05,1,,,,,エミーコーポレーション,0
851,4040002066684,登記記録の閉鎖等,0,2022-10-25,2022-10-17,三協商事有限会社,,有限会社,千葉県,木更津市,矢那１４２１番地の２,,12,206,2920812,,,2022-10-17,清算の結了等,,,2015-10-05,1,,,,,サンキョウショウジ,0
853,4040002092103,登記記録の閉鎖等,0,2022-10-25,2022-10-07,有限会社ラン・コーポレーション,,有限会社,千葉県,柏市,若柴２番地１２６,,12,217,2770871,,,2022-10-07,清算の結了等,,,2015-10-05,1,,,,,ランコーポレーション,0
854,4040003009312,登記記録の閉鎖等,0,2022-10-25,2022-10-18,合同会社Ｇａｒｃｈ,,合同会社,千葉県,いすみ市,岬町中滝２３７番地８,,12,238,2994623,,,2022-10-18,清算の結了等,,,2016-11-14,1,,,,,ガーチ,0
897,4140001081550,登記記録の閉鎖等,0,2022-10-25,2022-10-18,株式会社サンルート,,株式会社,兵庫県,宝塚市,美座２丁目１５番１５号,,28,214,6650834,,,2022-10-18,清算の結了等,,,2015-10-05,1,,,,,サンルート,0
901,4140002034235,登記記録の閉鎖等,0,2022-10-25,2022-09-09,有限会社大原産業,,有限会社,兵庫県,赤穂市,加里屋中洲２丁目２９番地,,28,212,6780233,,,2022-09-09,清算の結了等,,,2015-10-05,1,,,,,オオハラサンギョウ,0
907,4180001117937,登記記録の閉鎖等,0,2022-10-25,2022-10-08,株式会社ドリフ,,株式会社,東京都,千代田区,神田駿河台３丁目５番地１,,13,101,1010062,,,2022-10-08,合併による解散等,1180001120282,令和４年１０月１日名古屋市名東区本郷二丁目２１８番地株式会社ヒトトコＬａｂｏ（1180001120282）に合併し解散,2015-10-05,1,,,,,ドリフ,0
916,4180305002455,登記記録の閉鎖等,0,2022-10-25,2022-10-19,農事組合法人日出施設園芸組合,,その他の設立登記法人,愛知県,田原市,日出町浜辺汐除７７８番地,,23,231,4413623,,,2022-10-19,清算の結了等,,,2015-10-05,1,,,,,ヒイシセツエンゲイクミアイ,0
960,4500002018614,登記記録の閉鎖等,0,2022-10-25,2022-10-21,有限会社タカハシ,,有限会社,愛媛県,今治市,八町東１丁目４番２号,,38,202,7940831,,,2022-10-21,清算の結了等,,,2015-10-05,1,,,,,タカハシ,0
967,5010001206796,登記記録の閉鎖等,0,2022-10-25,2022-10-18,ＬＭＣ　Ａｕｔｏｍｏｔｉｖｅ　Ｊａｐａｎ株式会社,,株式会社,東京都,中央区,新川１丁目２７番８号新川大原ビル８階,,13,102,1040033,,,2022-10-18,清算の結了等,,,2020-01-20,1,,,,,エルエムシーオートモーティブジャパン,0
973,5010003030410,登記記録の閉鎖等,0,2022-10-25,2022-10-19,合同会社Ｂｉｓｏｎ　Ｖｅｎｕｓ,,合同会社,東京都,中央区,日本橋茅場町２丁目７－６晴花ビル６Ｆ,,13,102,1030025,,,2022-10-19,清算の結了等,,,2019-08-13,1,,,,,バイソンヴィーナス,0
980,5010401152145,登記記録の閉鎖等,0,2022-10-25,2022-10-06,株式会社Ｃｏｌｏｒｆｕｌ　Ｔａｉｌｓ,,株式会社,東京都,港区,赤坂４丁目１５番１号,,13,103,1070052,,,2022-10-06,清算の結了等,,,2020-04-07,1,,,,,カラフルテイルズ,0
984,5010403011786,登記記録の閉鎖等,0,2022-10-25,2022-09-29,ブギス合同会社,,合同会社,東京都,港区,赤坂１丁目５番１３号,,13,103,1070052,,,2022-09-29,清算の結了等,,,2015-10-05,1,,,,,ブギス,0
986,5010405008748,登記記録の閉鎖等,0,2022-10-25,2022-10-03,一般社団法人薩摩士魂の会,00051067,その他の設立登記法人,東京都,港区,南青山１丁目１５番１４号新乃木坂ビル株式会社豊建築事務所内,,13,103,1070062,,,2022-10-03,清算の結了等,,,2015-10-05,1,,,,,サツマシコンノカイ,0
988,5010903006419,登記記録の閉鎖等,0,2022-10-25,2022-10-24,合同会社大井映像制作,,合同会社,東京都,世田谷区,北沢１丁目２７番１３号,,13,112,1550031,,,2022-10-24,清算の結了等,,,2021-04-05,1,,,,,オオイエイゾウセイサク,0
995,5011302003726,登記記録の閉鎖等,0,2022-10-25,2022-10-13,有限会社小林管理計算センター,,有限会社,東京都,杉並区,高円寺北２丁目１４番２６号,,13,115,1660002,,,2022-10-13,清算の結了等,,,2015-10-05,1,,,,,コバヤシカンリケイサンセンター,0
1001,5011702004398,登記記録の閉鎖等,0,2022-10-25,2022-10-21,有限会社小林丸筒製作所,,有限会社,東京都,江戸川区,輿宮町２番２－９０９号,,13,123,1320000,,,2022-10-21,清算の結了等,,,2015-10-05,1,,,,,コバヤシマルヅツセイサクショ,0
1013,5012402008425,登記記録の閉鎖等,0,2022-10-25,2022-10-14,有限会社ヨシフーズ,,有限会社,千葉県,柏市,柏２丁目１０番２－５０８号,,12,217,2770005,,,2022-10-14,清算の結了等,,,2015-10-05,1,,,,,ヨシフーズ,0
1017,5013201018978,登記記録の閉鎖等,0,2022-10-25,2022-10-05,ＫＫＴＬ株式会社,,株式会社,東京都,港区,六本木１丁目６番１号泉ガ－デンタワー,,13,103,1060032,,,2022-10-05,清算の結了等,,,2015-10-05,1,,,,,ケイケイティーエル,0
1020,5020001051977,登記記録の閉鎖等,0,2022-10-25,2022-10-17,株式会社ア・ライズ,,株式会社,神奈川県,川崎市川崎区,殿町１丁目２０番１７－１０９号,,14,131,2100821,,,2022-10-17,清算の結了等,,,2015-10-05,1,,,,,アライズ,0
1021,5020001098473,登記記録の閉鎖等,0,2022-10-25,2022-10-13,株式会社川崎トラベル,,株式会社,神奈川県,川崎市麻生区,細山３丁目３－７番地,,14,137,2150001,,,2022-10-13,清算の結了等,,,2015-10-05,1,,,,,カワサキトラベル,0
1051,5040001021061,登記記録の閉鎖等,0,2022-10-25,2022-10-14,株式会社京葉土地開発,,株式会社,千葉県,八千代市,八千代台北５丁目３番地１５－３０２号,,12,221,2760031,,,2022-10-14,清算の結了等,,,2015-10-05,1,,,,,ケイヨウトチカイハツ,0
1091,5100002021285,登記記録の閉鎖等,0,2022-10-25,2022-10-20,有限会社福岡印刷所,,有限会社,長野県,松本市,野溝東１丁目１８番８号,,20,202,3990034,,,2022-10-20,清算の結了等,,,2015-10-05,1,,,,,フクオカインサツジョ,0
1094,5110002030426,登記記録の閉鎖等,0,2022-10-25,2022-10-21,有限会社厨房まつ,,有限会社,新潟県,長岡市,宮本町３丁目甲２７７９番地,,15,202,9402042,,,2022-10-21,清算の結了等,,,2015-10-05,1,,,,,,0
1095,5110002031829,登記記録の閉鎖等,0,2022-10-25,2022-10-20,有限会社丸岡商店,,有限会社,新潟県,見附市,本所１丁目１３番５５号,,15,211,9540051,,,2022-10-20,清算の結了等,,,2015-10-05,1,,,,,マルオカショウテン,0
1121,5130001050836,登記記録の閉鎖等,0,2022-10-25,2022-10-14,株式会社イーピーファクトリー,,株式会社,京都府,京都市伏見区,醍醐槇ノ内町８番地２,,26,109,6011337,,,2022-10-14,清算の結了等,,,2015-10-05,1,,,,,イーピーファクトリー,0
1138,5180002041169,登記記録の閉鎖等,0,2022-10-25,2022-10-17,有限会社ヤマトク,,有限会社,愛知県,北名古屋市,九之坪竹田１６５番地,,23,234,4810041,,,2022-10-17,清算の結了等,,,2015-10-05,1,,,,,ヤマトク,0
1153,5240002023301,登記記録の閉鎖等,0,2022-10-25,2022-10-21,有限会社アドバンス・フォー,,有限会社,広島県,広島市安佐北区,口田３丁目４番３号,,34,106,7391734,,,2022-10-21,清算の結了等,,,2015-10-05,1,,,,,アドバンスフォー,0
1180,5370102002349,登記記録の閉鎖等,0,2022-10-25,2022-10-14,有限会社ココロ,,有限会社,宮城県,白石市,福岡蔵本字下り川一番５番地１７,,04,206,9890231,,,2022-10-14,清算の結了等,,,2015-10-05,1,,,,,ココロ,0
1184,5390002008444,登記記録の閉鎖等,0,2022-10-25,2022-10-14,有限会社荒木園芸,,有限会社,山形県,東田川郡庄内町,赤渕新田字藤原台４１番地,,06,428,9997724,,,2022-10-14,清算の結了等,,,2015-10-05,1,,,,,アラキエンゲイ,0
1187,5410001006000,登記記録の閉鎖等,0,2022-10-25,2022-10-19,県北ガス販売株式会社,,株式会社,秋田県,大館市,御成町１丁目１８番１号,,05,204,0170044,,,2022-10-19,清算の結了等,,,2015-10-05,1,,,,,ケンポクガスハンバイ,0
1188,5410002001173,登記記録の閉鎖等,0,2022-10-25,2022-10-20,有限会社河辺不動産鑑定所,,有限会社,秋田県,秋田市,山王６丁目１８番２４号,,05,201,0100951,,,2022-10-20,清算の結了等,,,2015-10-05,1,,,,,カワベフドウサンカンテイジョ,0
1227,6010005030845,登記記録の閉鎖等,0,2022-10-25,2022-10-24,監査法人ＲＥＧＬＳ,,その他の設立登記法人,東京都,千代田区,神田三崎町２丁目１４番５号,,13,101,1010061,,,2022-10-24,清算の結了等,,,2019-10-03,1,,,,,レグルス,0
1240,6010501040488,登記記録の閉鎖等,0,2022-10-25,2022-10-18,株式会社ＲＵＫＩ,,株式会社,東京都,江東区,大島２丁目２３番１５号３０１,,13,108,1360072,,,2022-10-18,清算の結了等,,,2017-01-18,1,,,,,ルキ,0
1246,6010803002970,登記記録の閉鎖等,0,2022-10-25,2022-10-14,合同会社城南アーク,,合同会社,東京都,大田区,西蒲田５丁目１１番１５号,,13,111,1440051,,,2022-10-14,清算の結了等,,,2019-04-03,1,,,,,ジョウナンアーク,0
1274,6011501018739,登記記録の閉鎖等,0,2022-10-25,2022-10-21,株式会社Ｏａｓｉｓ,,株式会社,東京都,豊島区,東池袋２丁目５６番２号時習堂ビル２階,,13,116,1700013,,,2022-10-21,合併による解散等,9010401162082,令和４年１０月１日東京都港区虎ノ門三丁目７番１０号ランディック虎ノ門ビル９階株式会社Ｏａｓｉｓ　Ｇａｒｄｅｎ（9010401162082）に合併し解散,2015-10-05,1,,,,,,0
1292,6020002078176,登記記録の閉鎖等,0,2022-10-25,2022-10-18,有限会社ダイナミックス,,有限会社,神奈川県,横浜市港北区,小机町８１０番地２,,14,109,2220036,,,2022-10-18,清算の結了等,,,2015-10-05,1,,,,,ダイナミックス,0
1302,6021002004683,登記記録の閉鎖等,0,2022-10-25,2022-10-19,有限会社丸石,,有限会社,神奈川県,藤沢市,善行１丁目５番地の２,,14,205,2510871,,,2022-10-19,清算の結了等,,,2015-10-05,1,,,,,,0
1310,6030001136074,登記記録の閉鎖等,0,2022-10-25,2022-10-14,優真流通株式会社,,株式会社,埼玉県,草加市,青柳３丁目５番１８号,,11,221,3400002,,,2022-10-14,清算の結了等,,,2020-04-13,1,,,,,ユウマリュウツウ,0
1334,6050005010736,登記記録の閉鎖等,0,2022-10-25,2022-10-07,特定非営利活動法人ＳＭＳＣ,,その他の設立登記法人,茨城県,稲敷市,曲渕３－１,,08,229,3000743,,,2022-10-07,清算の結了等,,,2015-10-05,1,,,,,エスエムエスシー,0
1376,6130001017413,登記記録の閉鎖等,0,2022-10-25,2022-10-11,株式会社サン・クレイン,,株式会社,京都府,京都市下京区,御幸町通五条上る安土町６２３番地の３,,26,106,6008040,,,2022-10-11,清算の結了等,,,2015-10-05,1,,,,,サンクレイン,0
1399,6180305005076,登記記録の閉鎖等,0,2022-10-25,2022-10-19,ハーベストバレー商店街振興組合,,その他の設立登記法人,愛知県,刈谷市,高倉町５丁目２０１番地,,23,210,4480037,,,2022-10-19,清算の結了等,,,2015-10-05,1,,,,,ハーベストバレー,0
1401,6200001017983,登記記録の閉鎖等,0,2022-10-25,2022-10-24,株式会社ヤマ文,,株式会社,岐阜県,可児市,大森１７５２番地の５５,,21,214,5090238,,,2022-10-24,清算の結了等,,,2015-10-05,1,,,,,,0
1407,6230001017659,登記記録の閉鎖等,0,2022-10-25,2022-10-21,株式会社ＩＭＭＵＡＢＩＬＩＴＥ,,株式会社,富山県,南砺市,立野原東９１４番地１,,16,210,9391835,,,2022-10-21,清算の結了等,,,2018-11-13,1,,,,,イミュアビリテ,0
1469,6460001005244,登記記録の閉鎖等,0,2022-10-25,2022-10-20,株式会社ＣＲＯＷ,,株式会社,北海道,釧路市,星が浦南１丁目３－２０,,01,206,0840913,,,2022-10-20,清算の結了等,,,2018-04-04,1,,,,,クロウ,0
1470,6500001019883,登記記録の閉鎖等,0,2022-10-25,2022-10-24,株式会社協心工業,,株式会社,愛媛県,大洲市,徳森２７１５番地,,38,207,7950061,,,2022-10-24,清算の結了等,,,2016-06-08,1,,,,,,0
1471,6500002001353,登記記録の閉鎖等,0,2022-10-25,2022-10-24,有限会社愛媛谷村電設工業,,有限会社,愛媛県,松山市,井門町１番地１号,,38,201,7911114,,,2022-10-24,清算の結了等,,,2015-10-05,1,,,,,エヒメタニムラデンセツコウギョウ,0
1500,7010401140940,登記記録の閉鎖等,0,2022-10-25,2022-10-05,ＳＥＲＥＳ　ＪＡＰＡＮ株式会社,,株式会社,東京都,港区,六本木１丁目６番１号泉ガーデンタワー,,13,103,1060032,,,2022-10-05,清算の結了等,,,2018-09-20,1,,,,,セレスジャパン,0
1515,7010801020973,登記記録の閉鎖等,0,2022-10-25,2022-10-18,ソーラー・エレクトロ・パワー株式会社,,株式会社,東京都,中央区,日本橋本町４丁目８番１４号,,13,102,1030023,,,2022-10-18,清算の結了等,,,2015-10-05,1,,,,,ソーラーエレクトロパワー,0
1547,7020001088092,登記記録の閉鎖等,0,2022-10-25,2022-10-17,株式会社ガイダンス,,株式会社,神奈川県,横浜市青葉区,大場町１５５番１６,,14,117,2250023,,,2022-10-17,清算の結了等,,,2015-10-05,1,,,,,ガイダンス,0
1554,7021001022652,登記記録の閉鎖等,0,2022-10-25,2022-10-20,株式会社田中工務所,,株式会社,神奈川県,秦野市,寿町１番２２号,,14,211,2570042,,,2022-10-20,清算の結了等,,,2015-10-05,1,,,,,タナカコウムショ,0
1559,7021002057193,登記記録の閉鎖等,0,2022-10-25,2022-10-20,有限会社小笠原,,有限会社,神奈川県,平塚市,宝町６番２号,,14,203,2540034,,,2022-10-20,清算の結了等,,,2015-10-05,1,,,,,オガサワラ,0
1565,7030002114350,登記記録の閉鎖等,0,2022-10-25,2022-10-14,有限会社矢奈以,,有限会社,埼玉県,熊谷市,箱田４丁目１１番８号,,11,202,3600014,,,2022-10-14,清算の結了等,,,2015-10-05,1,,,,,ヤナイ,0
1568,7040001020813,登記記録の閉鎖等,0,2022-10-25,2022-10-19,株式会社シェフォーレ,,株式会社,千葉県,八千代市,上高野１３５５番地３１,,12,221,2760022,,,2022-10-19,合併による解散等,6010401046825,令和４年１０月１日東京都千代田区神田小川町三丁目３番地株式会社フリジポート（6010401046825）に合併し解散,2015-10-05,1,,,,,シェフォーレ,0
1572,7040002033277,登記記録の閉鎖等,0,2022-10-25,2022-10-17,有限会社リバーホーム,,有限会社,千葉県,鎌ケ谷市,南初富３丁目４番１０号３０２号室,,12,224,2730123,,,2022-10-17,清算の結了等,,,2015-10-05,1,,,,,リバーホーム,0
1579,7050001040059,登記記録の閉鎖等,0,2022-10-25,2022-10-17,プラスアーキテクト株式会社,,株式会社,茨城県,水戸市,小吹町１９９０番地１,,08,201,3100914,,,2022-10-17,清算の結了等,,,2015-11-06,1,,,,,プラスアーキテクト,0
1585,7060002013673,登記記録の閉鎖等,0,2022-10-25,2022-10-18,有限会社栄和商事,,有限会社,栃木県,宇都宮市,飯田町３４６番地３,,09,201,3210347,,,2022-10-18,清算の結了等,,,2015-10-05,1,,,,,エイワショウジ,0
1588,7070002006379,登記記録の閉鎖等,0,2022-10-25,2022-10-19,有限会社青木精工,,有限会社,群馬県,前橋市,上大島町４８２番地２,,10,201,3792153,,,2022-10-19,清算の結了等,,,2015-10-05,1,,,,,アオキセイコウ,0
1592,7080102011757,登記記録の閉鎖等,0,2022-10-25,2022-10-21,有限会社ＭＩＷＡ,,有限会社,静岡県,駿東郡清水町,伏見７９２番地の２,,22,341,4110907,,,2022-10-21,清算の結了等,,,2015-10-05,1,,,,,ミワ,0
1604,7110001026373,登記記録の閉鎖等,0,2022-10-25,2022-10-21,株式会社センシン,,株式会社,新潟県,南魚沼市,上野１００番地１０,,15,226,9496373,,,2022-10-21,清算の結了等,,,2015-10-05,1,,,,,センシン,0
1628,7130001026636,登記記録の閉鎖等,0,2022-10-25,2022-10-19,株式会社京都生コン,,株式会社,京都府,京都市伏見区,桃山町大島２８２番地,,26,109,6128006,,,2022-10-19,清算の結了等,,,2015-10-05,1,,,,,キョウトナマコン,0
1631,7130002012627,登記記録の閉鎖等,0,2022-10-25,2022-10-18,有限会社野村重機,,有限会社,京都府,京都市山科区,大塚中溝５４番地の１６,,26,110,6078133,,,2022-10-18,清算の結了等,,,2015-10-05,1,,,,,ノムラジュウキ,0
1639,7140002048810,登記記録の閉鎖等,0,2022-10-25,2022-10-20,有限会社サンレモ,,有限会社,兵庫県,姫路市,勝原区大谷３７１番地の１,,28,201,6711205,,,2022-10-20,清算の結了等,,,2015-10-05,1,,,,,サンレモ,0
1644,7150001007948,登記記録の閉鎖等,0,2022-10-25,2022-10-19,株式会社ふじや靴下,,株式会社,奈良県,天理市,田部町５３３番地,,29,204,6320017,,,2022-10-19,清算の結了等,,,2015-10-05,1,,,,,フジヤクツシタ,0
1645,7150001015125,登記記録の閉鎖等,0,2022-10-25,2022-10-20,株式会社ワコー設計事務所,,株式会社,奈良県,北葛城郡河合町,泉台２丁目３０番１号,,29,427,6360091,,,2022-10-20,清算の結了等,,,2015-10-05,1,,,,,ワコーセッケイジムショ,0
1653,7180301036479,登記記録の閉鎖等,0,2022-10-25,2022-10-17,株式会社新名古屋技術社,,株式会社,愛知県,刈谷市,司町８丁目１５番地,,23,210,4480834,,,2022-10-17,清算の結了等,,,2022-08-03,1,,,,,シンナゴヤギジュツシャ,0
1655,7180302012025,登記記録の閉鎖等,0,2022-10-25,2022-10-12,有限会社カトウ,,有限会社,愛知県,豊橋市,栄町３１番地の１,,23,201,4400042,,,2022-10-12,清算の結了等,,,2015-10-05,1,,,,,,0
1660,7200002022387,登記記録の閉鎖等,0,2022-10-25,2022-10-21,有限会社マル茂陶料,,有限会社,岐阜県,多治見市,笠原町３１４０番地の１,,21,204,5070901,,,2022-10-21,清算の結了等,,,2015-10-05,1,,,,,マルモトウリョウ,0
1668,7240001033150,登記記録の閉鎖等,0,2022-10-25,2022-10-17,株式会社アイ・ティ・エージェント,,株式会社,広島県,福山市,東深津町３丁目９番５号,,34,207,7210974,,,2022-10-17,清算の結了等,,,2015-10-05,1,,,,,アイティエージェント,0
1674,7250005004163,登記記録の閉鎖等,0,2022-10-25,2022-10-14,山口県うに協同組合,,その他の設立登記法人,山口県,下関市,幸町６番８号,,35,201,7500001,,,2022-10-14,清算の結了等,,,2015-10-05,1,,,,,ヤマグチケンウニ,0
1675,7260001028479,登記記録の閉鎖等,0,2022-10-25,2022-10-24,株式会社ＭＧＫ　ｃｏｒｐｏｒａｔｉｏｎ,,株式会社,岡山県,岡山市北区,立田７７４番地２,,33,101,7011333,,,2022-10-24,清算の結了等,,,2015-10-05,1,,,,,エムジーケーコーポレーション,0
1691,7290802024954,登記記録の閉鎖等,0,2022-10-25,2022-10-21,有限会社木屋,,有限会社,福岡県,田川郡福智町,弁城２３３８番地の７,,40,610,8221212,,,2022-10-21,清算の結了等,,,2015-10-05,1,,,,,キヤ,0
1693,7320002016988,登記記録の閉鎖等,0,2022-10-25,2022-10-20,有限会社塚原楽器サービス,,有限会社,大分県,佐伯市,船頭町１番１０号,,44,205,8760832,,,2022-10-20,清算の結了等,,,2015-10-05,1,,,,,ツカハラガッキサービス,0
1701,7370202000234,登記記録の閉鎖等,0,2022-10-25,2022-10-13,有限会社加藤耳目堂,,有限会社,宮城県,大崎市,古川十日町９番３２号,,04,215,9896165,,,2022-10-13,清算の結了等,,,2015-10-05,1,,,,,カトウジモクドウ,0
1712,7430002015905,登記記録の閉鎖等,0,2022-10-25,2022-10-14,有限会社八條印刷,,有限会社,北海道,札幌市東区,北二十六条東５丁目１番１４号,,01,103,0650026,,,2022-10-14,清算の結了等,,,2015-10-05,1,,,,,ハチジョウインサツ,0
1713,7430002040408,登記記録の閉鎖等,0,2022-10-25,2022-10-14,有限会社コバルト電光,,有限会社,北海道,札幌市西区,発寒七条１４丁目６番２０号,,01,107,0630827,,,2022-10-14,清算の結了等,,,2015-10-05,1,,,,,コバルトデンコウ,0
1720,7490002002484,登記記録の閉鎖等,0,2022-10-25,2022-10-18,有限会社城山石油,,有限会社,高知県,高知市,城山町６１番地,,39,201,7808037,,,2022-10-18,清算の結了等,,,2015-10-05,1,,,,,ジョウヤマセキユ,0
1736,8010401076903,登記記録の閉鎖等,0,2022-10-25,2022-10-05,アクテック株式会社,,株式会社,東京都,港区,新橋４丁目３０番４号,,13,103,1050004,,,2022-10-05,清算の結了等,,,2015-10-05,1,,,,,アクテック,0
1744,8010502004671,登記記録の閉鎖等,0,2022-10-25,2022-10-21,有限会社坂根商店,,有限会社,東京都,台東区,浅草橋３丁目８番４号,,13,106,1110053,,,2022-10-21,清算の結了等,,,2015-10-05,1,,,,,サカネショウテン,0
1767,8012301002773,登記記録の閉鎖等,0,2022-10-25,2022-10-19,株式会社若林工務店,,株式会社,東京都,町田市,根岸２丁目１６番地１３,,13,209,1940038,,,2022-10-19,清算の結了等,,,2015-10-05,1,,,,,ワカバヤシコウムテン,0
1785,8020002086235,登記記録の閉鎖等,0,2022-10-25,2022-10-17,有限会社恵久,,有限会社,神奈川県,川崎市宮前区,五所塚２丁目１６番地６,,14,136,2160021,,,2022-10-17,清算の結了等,,,2015-10-05,1,,,,,ケイキュウ,0
1789,8021001018674,登記記録の閉鎖等,0,2022-10-25,2022-10-19,株式会社ブルーム,,株式会社,神奈川県,相模原市中央区,小山３丁目２３番６号,,14,152,2520205,,,2022-10-19,清算の結了等,,,2015-10-05,1,,,,,ブルーム,0
1807,8040001042518,登記記録の閉鎖等,0,2022-10-25,2022-10-17,株式会社インタースペースタイム,,株式会社,千葉県,浦安市,富岡４丁目７番７号,,12,227,2790021,,,2022-10-17,清算の結了等,,,2015-10-05,1,,,,,インタースペースタイム,0
1829,8070002002773,登記記録の閉鎖等,0,2022-10-25,2022-10-18,有限会社島田鈑金塗装工業所,,有限会社,群馬県,前橋市,国領町２丁目２３番９号,,10,201,3710033,,,2022-10-18,清算の結了等,,,2015-10-05,1,,,,,シマダバンキントソウコウギョウショ,0
1847,8120001043920,登記記録の閉鎖等,0,2022-10-25,2022-10-17,株式会社昭和シヤーリング工場,,株式会社,大阪府,大阪市西区,境川２丁目１番１３号,,27,106,5500024,,,2022-10-17,清算の結了等,,,2015-10-05,1,,,,,ショウワシヤーリング,0
1879,8180002034228,登記記録の閉鎖等,0,2022-10-25,2022-10-20,有限会社志の島茶屋,,有限会社,愛知県,名古屋市北区,辻町７丁目３７番地の１,00073091,23,103,4620032,,,2022-10-20,清算の結了等,,,2015-10-05,1,,,,,シノジマチャヤ,0
1891,8240005009889,登記記録の閉鎖等,0,2022-10-25,2022-10-20,ＭＣＧ協同組合,,その他の設立登記法人,広島県,福山市,新市町大字下安井７０番地１,,34,207,7293105,,,2022-10-20,清算の結了等,,,2015-10-05,1,,,,,エムシージー,0
1896,8290001056633,登記記録の閉鎖等,0,2022-10-25,2022-10-17,株式会社八千代ダーメン,,株式会社,福岡県,福岡市博多区,築港本町１０番１１,,40,132,8120021,,,2022-10-17,清算の結了等,,,2015-10-05,1,,,,,ヤチヨダーメン,0
1911,8330002029567,登記記録の閉鎖等,0,2022-10-25,2022-10-14,有限会社地研天草,,有限会社,熊本県,天草市,本渡町広瀬１９１７番地９,,43,215,8630001,,,2022-10-14,清算の結了等,,,2015-10-05,1,,,,,チケンアマクサ,0
1915,8350002014393,登記記録の閉鎖等,0,2022-10-25,2022-10-19,有限会社高千穂燃料,,有限会社,宮崎県,都城市,一万城町２８号６番地,,45,202,8850041,,,2022-10-19,清算の結了等,,,2015-10-05,1,,,,,タカチホネンリョウ,0
1916,8360001014154,登記記録の閉鎖等,0,2022-10-25,2022-10-17,株式会社伊良部土建,,株式会社,沖縄県,宮古島市,平良字西仲宗根８５７番地３,,47,214,9060006,,,2022-10-17,清算の結了等,,,2015-10-05,1,,,,,イラブドケン,0
1928,8420002016523,登記記録の閉鎖等,0,2022-10-25,2022-10-19,有限会社鎌田建設,,有限会社,青森県,十和田市,東五番町８番６－１１号,,02,206,0340033,,,2022-10-19,清算の結了等,,,2015-10-05,1,,,,,カマタケンセツ,0
1950,8460102001033,登記記録の閉鎖等,0,2022-10-25,2022-10-21,有限会社慶愛地所,,有限会社,北海道,帯広市,東九条南８丁目１番地２２,,01,207,0800809,,,2022-10-21,清算の結了等,,,2015-10-05,1,,,,,ケイアイジショ,0
1951,8470002009316,登記記録の閉鎖等,0,2022-10-25,2022-10-21,有限会社浅野総業,,有限会社,香川県,高松市,香川町浅野５４４番地１,,37,201,7611703,,,2022-10-21,清算の結了等,,,2015-10-05,1,,,,,アサノソウギョウ,0
1992,9010601055961,登記記録の閉鎖等,0,2022-10-25,2022-10-18,輝株式会社,,株式会社,東京都,江東区,大島７丁目２番１７,,13,108,1360072,,,2022-10-18,清算の結了等,,,2019-08-13,1,,,,,カガヤキ,0
2025,9011802001655,登記記録の閉鎖等,0,2022-10-25,2022-10-21,有限会社小野沢工業,,有限会社,東京都,葛飾区,青戸４丁目４番６号,,13,122,1250062,,,2022-10-21,清算の結了等,,,2015-10-05,1,,,,,オノザワコウギョウ,0
2034,9020001026901,登記記録の閉鎖等,0,2022-10-25,2022-10-18,株式会社ジャックラビット,,株式会社,神奈川県,横浜市中区,本牧町２丁目４３６番地１２,,14,104,2310806,,,2022-10-18,清算の結了等,,,2015-10-05,1,,,,,ジャックラビット,0
2035,9020001053714,登記記録の閉鎖等,0,2022-10-25,2022-10-12,株式会社あったか看護,,株式会社,神奈川県,横浜市港南区,港南台８丁目１０番２０号,,14,111,2340054,,,2022-10-12,清算の結了等,,,2015-10-05,1,,,,,アッタカカンゴ,0
2047,9020001142351,登記記録の閉鎖等,0,2022-10-25,2022-10-06,ＤＯＲＦＬＩ株式会社,,株式会社,神奈川県,横浜市金沢区,寺前１丁目１７番８号,,14,108,2360014,,,2022-10-06,清算の結了等,,,2021-08-04,1,,,,,ドーフリ,0
2069,9030001028327,登記記録の閉鎖等,0,2022-10-25,2022-10-24,株式会社プレシャス．エム,,株式会社,東京都,台東区,東上野６丁目２４番１号喜山堂ビル２Ｆ,,13,106,1100015,,,2022-10-24,清算の結了等,,,2015-10-05,1,,,,,プレシャスエム,0
2085,9050001042648,登記記録の閉鎖等,0,2022-10-25,2022-10-17,株式会社常勝,,株式会社,茨城県,土浦市,並木１丁目２番２５号皆川第二ビル３０１,,08,203,3000061,,,2022-10-17,清算の結了等,,,2017-04-20,1,,,,,ジョウショウ,0
2095,9080401004757,登記記録の閉鎖等,0,2022-10-25,2022-10-20,株式会社ブルックスタジオ,,株式会社,静岡県,浜松市中区,上島３丁目９番７号,,22,131,4338122,,,2022-10-20,清算の結了等,,,2015-10-05,1,,,,,ブルックスタジオ,0
2108,9120002020926,登記記録の閉鎖等,0,2022-10-25,2022-10-19,有限会社青山製作所,,有限会社,大阪府,大阪市西区,本田３丁目５番３１号,,27,106,5500022,,,2022-10-19,清算の結了等,,,2015-10-05,1,,,,,アオヤマセイサクショ,0
2131,9140002041342,登記記録の閉鎖等,0,2022-10-25,2022-10-20,有限会社清風モータープール,,有限会社,兵庫県,尼崎市,東難波町４丁目１０番２７号,,28,202,6600892,,,2022-10-20,清算の結了等,,,2015-10-05,1,,,,,セイフウモータープール,0
2133,9150003000750,登記記録の閉鎖等,0,2022-10-25,2022-10-20,合名会社Ｒ＆Ｓ,,合名会社,奈良県,葛城市,中戸２９４番地２,,29,211,6392146,,,2022-10-20,清算の結了等,,,2015-10-05,1,,,,,,0
2152,9210002004011,登記記録の閉鎖等,0,2022-10-25,2022-10-21,有限会社三谷食品販売,,有限会社,福井県,福井市,高木北１丁目８０６番地,,18,201,9100807,,,2022-10-21,清算の結了等,,,2015-10-05,1,,,,,ミタニショクヒンハンバイ,0
2153,9220001016064,登記記録の閉鎖等,0,2022-10-25,2022-10-21,中央生コン株式会社,,株式会社,石川県,鹿島郡中能登町,能登部下七１番地,,17,407,9291604,,,2022-10-21,清算の結了等,,,2015-10-05,1,,,,,チュウオウナマコン,0
2158,9250001001807,登記記録の閉鎖等,0,2022-10-25,2022-10-19,ウルソンマネジメントサービス株式会社,,株式会社,山口県,防府市,佐波２丁目８番２０－６０７号,,35,206,7470044,,,2022-10-19,清算の結了等,,,2015-10-05,1,,,,,ウルソンマネジメントサービス,0
2162,9250002017926,登記記録の閉鎖等,0,2022-10-25,2022-10-20,有限会社貴船瓦店,,有限会社,山口県,岩国市,麻里布町７丁目５番１０号,,35,208,7400018,,,2022-10-20,清算の結了等,,,2015-10-05,1,,,,,キフネカワラテン,0
2192,9430002045355,登記記録の閉鎖等,0,2022-10-25,2022-10-14,有限会社内田保温工業,,有限会社,北海道,江別市,萌えぎ野中央５番地の８,,01,217,0670058,,,2022-10-14,清算の結了等,,,2015-10-05,1,,,,,ウチダホオンコウギョウ,0
2195,9430003001142,登記記録の閉鎖等,0,2022-10-25,2022-10-12,合資会社ＨＢＦ,,合資会社,北海道,札幌市中央区,北一条東２丁目５番８号,,01,101,0600031,,,2022-10-12,清算の結了等,,,2015-10-05,1,,,,,エイチビーエフ,0
2198,9450002004210,登記記録の閉鎖等,0,2022-10-25,2022-10-21,有限会社ノースビジョン,,有限会社,北海道,旭川市,豊岡十条８丁目４番４号,,01,204,0788240,,,2022-10-21,清算の結了等,,,2015-10-05,1,,,,,ノースビジョン,0
