sequenceNumber,corporateNumber,process,correct,updateDate,changeDate,name,nameImageId,kind,prefectureName,cityName,streetNumber,addressImageId,prefectureCode,cityCode,postCode,addressOutside,addressOutsideImageId,closeDate,closeCause,successorCorporateNumber,changeCause,assignmentDate,latest,enName,enPrefectureName,enCityName,enAddressOutside,furigana,hihyoji
5,1010001234215,新規,0,2023-04-06,2023-04-06,株式会社アクトナレッジ,,株式会社,東京都,千代田区,内幸町１丁目３番１号幸ビルディング９階,,13,101,1000011,,,,,,,2023-04-06,1,,,,,アクトナレッジ,0
6,1010001234256,新規,0,2023-04-06,2023-04-06,株式会社ｍｏｄｅｓｔ,,株式会社,東京都,中央区,日本橋横山町５－８,,13,102,1030003,,,,,,,2023-04-06,1,,,,,モデスト,0
7,1010005036442,新規,0,2023-04-06,2023-04-06,特定非営利活動法人さとのば,,その他の設立登記法人,東京都,千代田区,神田錦町３丁目２１番地,,13,101,1010054,,,,,,,2023-04-06,1,,,,,サトノバ,0
19,1010401173509,新規,0,2023-04-06,2023-04-06,ＭＡＳＡＮＯＢＵ　ＩＮＶＥＳＴＭＥＮＴ　ＣＡＰＩＴＡＬ株式会社,,株式会社,東京都,港区,三田１丁目１１番３８－２０１号,,13,103,1080073,,,,,,,2023-04-06,1,,,,,マサノブインベストメントキャピタル,0
22,1010403029840,新規,0,2023-04-06,2023-04-06,アーバンエナジーソーラー合同会社,,合同会社,東京都,港区,虎ノ門１丁目２番６号,,13,103,1050001,,,,,,,2023-04-06,1,,,,,アーバンエナジーソーラー,0
23,1010403029857,新規,0,2023-04-06,2023-04-06,リターンビー合同会社,,合同会社,東京都,港区,赤坂４丁目１０‐７,,13,103,1070052,,,,,,,2023-04-06,1,,,,,リターンビー,0
24,1010403029873,新規,0,2023-04-06,2023-04-06,合同会社ｍｉａｂｅ,,合同会社,東京都,港区,南青山２丁目２番１５号,,13,103,1070062,,,,,,,2023-04-06,1,,,,,ミアビ,0
26,1010501050236,新規,0,2023-04-06,2023-04-06,サムライプランニング株式会社,,株式会社,東京都,台東区,浅草１丁目１３番７号,,13,106,1110032,,,,,,,2023-04-06,1,,,,,サムライプランニング,0
28,1010601062866,新規,0,2023-04-06,2023-04-06,株式会社ｐｅｇ,,株式会社,東京都,江東区,豊洲５丁目５－３６－３０４,,13,108,1350061,,,,,,,2023-04-06,1,,,,,ペグ,0
33,1010701044070,新規,0,2023-04-06,2023-04-06,ロジカルグリーン株式会社,,株式会社,東京都,品川区,戸越４丁目５－２０,,13,109,1420041,,,,,,,2023-04-06,1,,,,,ロジカルグリーン,0
34,1010801033840,新規,0,2023-04-06,2023-04-06,株式会社バグースプロジェクト,,株式会社,東京都,大田区,南馬込３丁目１２番７号,,13,111,1430025,,,,,,,2023-04-06,1,,,,,バグースプロジェクト,0
35,1010901052815,新規,0,2023-04-06,2023-04-06,ＭＯＳＴＯ‐ＶＥＲＤＥ　ＴＯＫＹＯ株式会社,,株式会社,東京都,世田谷区,世田谷２丁目２５番１６－４０１号,,13,112,1540017,,,,,,,2023-04-06,1,,,,,モストベルデトーキョウ,0
39,1011001153512,新規,0,2023-04-06,2023-04-06,東邦製薬株式会社,,株式会社,東京都,目黒区,大橋１丁目１０番１－７０６号プリズムタワー,,13,110,1530044,,,,,,,2023-04-06,1,,,,,トウホウセイヤク,0
40,1011001153537,新規,0,2023-04-06,2023-04-06,株式会社ｍｏｄｏ,,株式会社,東京都,渋谷区,神宮前６丁目２３番４号桑野ビル２階,,13,113,1500001,,,,,,,2023-04-06,1,,,,,モド,0
41,1011001153545,新規,0,2023-04-06,2023-04-06,株式会社Ｇｅｖｅｎｔ,,株式会社,東京都,渋谷区,渋谷２丁目１９番１５号宮益坂ビルディング６０９,,13,113,1500002,,,,,,,2023-04-06,1,,,,,ジーイベント,0
42,1011001153578,新規,0,2023-04-06,2023-04-06,株式会社オ・ソレイユナチュールヨガ,,株式会社,東京都,目黒区,鷹番１丁目１０番３号Ｔ’ｓＡｎｎｅｘ－１０２,,13,110,1520004,,,,,,,2023-04-06,1,,,,,オソレイユナチュールヨガ,0
43,1011001153586,新規,0,2023-04-06,2023-04-06,株式会社クリエイティブアトマテック,,株式会社,東京都,渋谷区,代々木４丁目２３番５号,,13,113,1510053,,,,,,,2023-04-06,1,,,,,クリエイティブアトマテック,0
47,1011101102402,新規,0,2023-04-06,2023-04-06,株式会社全国治療家アシスト協会,,株式会社,東京都,新宿区,西新宿２丁目７番地１小田急第一生命ビル２５階,,13,104,1600023,,,,,,,2023-04-06,1,,,,,ゼンコクチリョウカアシストキョウカイ,0
48,1011101102410,新規,0,2023-04-06,2023-04-06,パーソナルカラー診断おすすめナビ株式会社,,株式会社,東京都,新宿区,西新宿３丁目３番１３号西新宿水間ビル２Ｆ,,13,104,1600023,,,,,,,2023-04-06,1,,,,,パーソナルカラーシンダンオススメナビ,0
49,1011101102419,新規,0,2023-04-06,2023-04-06,ｉｎｎｏｖＡＩｔｉｏｎｓ株式会社,,株式会社,東京都,新宿区,西新宿３丁目３番１３号西新宿水間ビル６階,,13,104,1600023,,,,,,,2023-04-06,1,,,,,イノベイションズ,0
50,1011101102427,新規,0,2023-04-06,2023-04-06,株式会社ＭＡＣＨＩＤＡ,,株式会社,東京都,新宿区,新宿７丁目１２番１１－５０３号,,13,104,1600022,,,,,,,2023-04-06,1,,,,,マチダ,0
54,1011401025022,新規,0,2023-04-06,2023-04-06,千葉リサイクル株式会社,,株式会社,東京都,板橋区,蓮沼町１２番２号,,13,119,1740052,,,,,,,2023-04-06,1,,,,,チバリサイクル,0
58,1011603003882,新規,0,2023-04-06,2023-04-06,合同会社ＯＯＴＤＧｅｎｉｅ,,合同会社,東京都,練馬区,北町２丁目２９－１０－６０１,,13,120,1790081,,,,,,,2023-04-06,1,,,,,アウトフィットジーニー,0
61,1012403005920,新規,0,2023-04-06,2023-04-06,Ｇ＆Ａｓｓｏｃｉａｔｅｓ　Ｃｏｕｓｕｌｔｉｎｇ合同会社,,合同会社,東京都,調布市,若葉町２丁目２４番地２８,,13,208,1820003,,,,,,,2023-04-06,1,,,,,ジーアンドアソシエイツコンサルティング,0
64,1012701017568,新規,0,2023-04-06,2023-04-06,株式会社建築ランド,,株式会社,東京都,西東京市,芝久保町３丁目２２番１４号,,13,229,1880014,,,,,,,2023-04-06,1,,,,,ケンチクランド,0
67,1012801022237,新規,0,2023-04-06,2023-04-06,イースト株式会社,,株式会社,東京都,国分寺市,本町２丁目２番１号シティタワー国分寺ザ・ツイン・イースト・Ｅ１８０４,,13,214,1850012,,,,,,,2023-04-06,1,,,,,イースト,0
73,1020001150964,新規,0,2023-04-06,2023-04-06,株式会社ＡＦＳＡ,,株式会社,神奈川県,横浜市西区,宮ケ谷１番地１０,,14,103,2200006,,,,,,,2023-04-06,1,,,,,エーエフエスエー,0
74,1020001150989,新規,0,2023-04-06,2023-04-06,株式会社日本巨＿,00129968,株式会社,神奈川県,横浜市西区,みなとみらい４丁目４番２号横浜ブルーアベニュー１２階,,14,103,2200012,,,,,,,2023-04-06,1,,,,,ニホンキョチョウ,0
75,1020001151013,新規,0,2023-04-06,2023-04-06,株式会社ＳＥＡＢＡＳＳ,,株式会社,神奈川県,横浜市旭区,本宿町３２番地６ベルフラッツＩＩ２０２,00129961,14,112,2410023,,,,,,,2023-04-06,1,,,,,シーバス,0
79,1020003023664,新規,0,2023-04-06,2023-04-06,ＢｉｃｋｉＢｉｓｃｈ　Ｊａｐａｎ合同会社,,合同会社,神奈川県,川崎市麻生区,百合丘２丁目９番地２０－Ｃ－１,,14,137,2150011,,,,,,,2023-04-06,1,,,,,ビッキービッシュジャパン,0
80,1020005015924,新規,0,2023-04-06,2023-04-06,医療法人健和会,,その他の設立登記法人,神奈川県,横浜市港北区,綱島西２丁目５番３０号きくむらビル２Ｆ,,14,109,2230053,,,,,,,2023-04-06,1,,,,,ケンワカイ,0
82,1021001078592,新規,0,2023-04-06,2023-04-06,株式会社Ｏｌｄ　Ｓｔｙｌｅ,,株式会社,神奈川県,座間市,西栗原１丁目５番１３号,,14,216,2520016,,,,,,,2023-04-06,1,,,,,,0
83,1021001078618,新規,0,2023-04-06,2023-04-06,株式会社Ｔ‐ＲＥＥＦ,,株式会社,神奈川県,藤沢市,片瀬１丁目５番３号,,14,205,2510032,,,,,,,2023-04-06,1,,,,,ティーリーフ,0
84,1021001078642,新規,0,2023-04-06,2023-04-06,株式会社Ｃｌａｒｏ　Ｈｏｍｅ,,株式会社,神奈川県,綾瀬市,大上４丁目９番３－４号,,14,218,2521104,,,,,,,2023-04-06,1,,,,,クラロホーム,0
85,1021001078650,新規,0,2023-04-06,2023-04-06,株式会社希樹,,株式会社,神奈川県,大和市,福田２３７８番地２６,,14,213,2420024,,,,,,,2023-04-06,1,,,,,キジュ,0
86,1021001078667,新規,0,2023-04-06,2023-04-06,株式会社ＲｅａｌＩｍａｇｅ,,株式会社,神奈川県,藤沢市,本鵠沼２丁目１７番７号,,14,205,2510028,,,,,,,2023-04-06,1,,,,,リアルイメージ,0
90,1021003012921,新規,0,2023-04-06,2023-04-06,リンケージ合同会社,,合同会社,神奈川県,藤沢市,南藤沢２１－９とのおかビル３Ｆ,,14,205,2510055,,,,,,,2023-04-06,1,,,,,リンケージ,0
91,1021003012938,新規,0,2023-04-06,2023-04-06,合同会社アーキテック,,合同会社,神奈川県,中郡大磯町,国府本郷３１２番地７,,14,341,2590111,,,,,,,2023-04-06,1,,,,,アーキテック,0
92,1021003012946,新規,0,2023-04-06,2023-04-06,合同会社潤生園,,合同会社,神奈川県,小田原市,久野１７番地の２サンライズマンション２０５,,14,206,2500055,,,,,,,2023-04-06,1,,,,,ジュンセイエン,0
93,1021003012954,新規,0,2023-04-06,2023-04-06,合同会社ＰＬＵＳ　ＵＬＴＲＬＡ,,合同会社,神奈川県,藤沢市,辻堂新町１丁目１番２号クロスポイント湘南５Ｆ,,14,205,2510042,,,,,,,2023-04-06,1,,,,,プルスウルトラ,0
95,1030001153108,新規,0,2023-04-06,2023-04-06,株式会社ユアリソース,,株式会社,埼玉県,熊谷市,桜木町１丁目１２２,,11,202,3600036,,,,,,,2023-04-06,1,,,,,ユアリソース,0
96,1030001153116,新規,0,2023-04-06,2023-04-06,株式会社ＪＹＳ,,株式会社,埼玉県,加須市,水深１１９４番地８,,11,210,3470022,,,,,,,2023-04-06,1,,,,,ジェイワイエス,0
97,1030001153140,新規,0,2023-04-06,2023-04-06,株式会社ｂｒｉｄｇｅ,,株式会社,埼玉県,川口市,大字安行北谷６１６番地の１グランドキャッスル２０１号,,11,203,3340054,,,,,,,2023-04-06,1,,,,,ブリッジ,0
98,1030001153173,新規,0,2023-04-06,2023-04-06,株式会社ランズビュー,,株式会社,埼玉県,和光市,南２丁目３番１３号和光理研インキュベーションプラザ４０５,,11,229,3510104,,,,,,,2023-04-06,1,,,,,ランズビュー,0
99,1030003021485,新規,0,2023-04-06,2023-04-06,ＫＩＭ　ＢＡＯ合同会社,,合同会社,埼玉県,鶴ヶ島市,共栄町５番地８コーポヨシヤマ２０２号,,11,241,3502212,,,,,,,2023-04-06,1,,,,,キムバオ,0
103,1040001127770,新規,0,2023-04-06,2023-04-06,株式会社インフィニティ,,株式会社,千葉県,八千代市,大和田新田１３９番地７,,12,221,2760046,,,,,,,2023-04-06,1,,,,,インフィニティ,0
104,1040001127779,新規,0,2023-04-06,2023-04-06,株式会社鳶齊藤,,株式会社,千葉県,船橋市,飯山満町２丁目４８９番地１５８,,12,204,2740822,,,,,,,2023-04-06,1,,,,,トビサイトウ,0
105,1040001127829,新規,0,2023-04-06,2023-04-06,匝瑳みらい株式会社,,株式会社,千葉県,匝瑳市,飯塚１０３７番地１,,12,235,2892106,,,,,,,2023-04-06,1,,,,,ソウサミライ,0
107,1040003022334,新規,0,2023-04-06,2023-04-06,Ｆｏｕｎｄａｔｉｏｎ合同会社,,合同会社,千葉県,八千代市,上高野１０８６番地４,,12,221,2760022,,,,,,,2023-04-06,1,,,,,ファウンデーション,0
108,1040003022350,新規,0,2023-04-06,2023-04-06,山田企画合同会社,,合同会社,千葉県,柏市,大津ケ丘４丁目４―１,,12,217,2770921,,,,,,,2023-04-06,1,,,,,ヤマダキカク,0
109,1050001052605,新規,0,2023-04-06,2023-04-06,株式会社ＳｏｒａＣｌａｓｓｉｃＡｒｔｓ,,株式会社,茨城県,つくば市,大井４２９番地３,,08,220,3001243,,,,,,,2023-04-06,1,,,,,ソラクラシックアーツ,0
110,1050001052638,新規,0,2023-04-06,2023-04-06,株式会社ＢＲＥＥＤ,,株式会社,茨城県,つくば市,栗原３２４８番地１,,08,220,3050001,,,,,,,2023-04-06,1,,,,,ブリード,0
111,1050003007367,新規,0,2023-04-06,2023-04-06,ＨＡＹＡＴ　ＩＮＴＥＲＮＡＴＩＯＮＡＬ合同会社,,合同会社,茨城県,常総市,豊岡町乙１５３番地８,,08,211,3030041,,,,,,,2023-04-06,1,,,,,ハヤトインターナショナル,0
112,1050003007383,新規,0,2023-04-06,2023-04-06,合同会社来夢,,合同会社,茨城県,つくば市,今鹿島１７７６番地２,,08,220,3002641,,,,,,,2023-04-06,1,,,,,ライム,0
114,1070001040293,新規,0,2023-04-06,2023-04-06,株式会社ｅＬｅｃｙ,,株式会社,群馬県,高崎市,北双葉町８番５号,,10,202,3700842,,,,,,,2023-04-06,1,,,,,エレシー,0
116,1070003004890,新規,0,2023-04-06,2023-04-06,合同会社パステルトレイ,,合同会社,群馬県,前橋市,高花台１丁目８番地３３,,10,201,3710123,,,,,,,2023-04-06,1,,,,,パステルトレイ,0
123,1090001018049,新規,0,2023-04-06,2023-04-06,株式会社ファーストＤＨ,,株式会社,山梨県,南都留郡富士河口湖町,浅川８３番地,,19,430,4010303,,,,,,,2023-04-06,1,,,,,ファーストディーエイチ,0
124,1090001018057,新規,0,2023-04-06,2023-04-06,シャイニング株式会社,,株式会社,山梨県,甲州市,勝沼町勝沼１１３３番地１,,19,213,4091316,,,,,,,2023-04-06,1,,,,,シャイニング,0
130,1100001036296,新規,0,2023-04-06,2023-04-06,ＨＡＲＡ　ＣＯＬＬＥＣＴＩＯＮ株式会社,,株式会社,長野県,松本市,大字惣社１００２番地,,20,202,3900305,,,,,,,2023-04-06,1,,,,,ハラコレクション,0
137,1120001253699,新規,0,2023-04-06,2023-04-06,ＭＵ　ＣＯＮＮＥＣＴ株式会社,,株式会社,大阪府,大阪市住吉区,我孫子西２丁目６番９号,,27,120,5580015,,,,,,,2023-04-06,1,,,,,ムーコネクト,0
138,1120001253708,新規,0,2023-04-06,2023-04-06,株式会社ＬＩＭ　ＷＯＲＫＳ,,株式会社,大阪府,大阪市北区,梅田２丁目２番２号ヒルトンプラザウエストオフィスタワー１９階,,27,127,5300001,,,,,,,2023-04-06,1,,,,,リムワークス,0
139,1120001253716,新規,0,2023-04-06,2023-04-06,株式会社ＲＩＫＥ,,株式会社,大阪府,大阪市旭区,新森４丁目２３番３号,,27,117,5350022,,,,,,,2023-04-06,1,,,,,リケ,0
140,1120001253781,新規,0,2023-04-06,2023-04-06,株式会社キョウドウマーケティング,,株式会社,大阪府,大阪市中央区,南船場２丁目４番８号,,27,128,5420081,,,,,,,2023-04-06,1,,,,,キョウドウマーケティング,0
141,1120001253807,新規,0,2023-04-06,2023-04-06,千赫株式会社,,株式会社,大阪府,大阪市西成区,玉出東１丁目１０番１２号,,27,122,5570043,,,,,,,2023-04-06,1,,,,,センカガヤク,0
142,1120001253815,新規,0,2023-04-06,2023-04-06,ＴＨＡＮＨ　ＴＡＭ株式会社,,株式会社,大阪府,大阪市浪速区,敷津西２丁目７番２７号カーム敷津４０２号,,27,111,5560015,,,,,,,2023-04-06,1,,,,,タンタム,0
146,1120005023545,新規,0,2023-04-06,2023-04-06,一般社団法人日本教育研究会,,その他の設立登記法人,大阪府,大阪市住吉区,長居東４丁目１６番８号,,27,120,5580004,,,,,,,2023-04-06,1,,,,,ニホンキョウイクケンキュウカイ,0
150,1120101067231,新規,0,2023-04-06,2023-04-06,株式会社Ｋ・Ｇ　ＣＯＭＰＡＮＹ,,株式会社,大阪府,河内長野市,木戸３丁目１１番１－２０７号,,27,216,5860001,,,,,,,2023-04-06,1,,,,,ケージーカンパニー,0
151,1120101067248,新規,0,2023-04-06,2023-04-06,３６９株式会社,,株式会社,大阪府,泉大津市,若宮町１０－７,,27,206,5950065,,,,,,,2023-04-06,1,,,,,ミロク,0
152,1120101067256,新規,0,2023-04-06,2023-04-06,株式会社ｋ‐ｅｘｃｅｌ,,株式会社,大阪府,堺市堺区,甲斐町西２丁２番１６号,,27,141,5900950,,,,,,,2023-04-06,1,,,,,ケーエクセル,0
153,1120101067264,新規,0,2023-04-06,2023-04-06,株式会社三好工業,,株式会社,大阪府,藤井寺市,小山６丁目３番６号,,27,226,5830033,,,,,,,2023-04-06,1,,,,,ミヨシコウギョウ,0
160,1130001073989,新規,0,2023-04-06,2023-04-06,ＳＯＵＫＥＩ株式会社,,株式会社,京都府,京都市下京区,新町通松原下る富永町１０７番地１,,26,106,6008449,,,,,,,2023-04-06,1,,,,,ソウケイ,0
161,1130001074038,新規,0,2023-04-06,2023-04-06,株式会社ＤＮＥＸＴ,,株式会社,京都府,京都市東山区,祇園町北側２９１番地双葉祇園ビル２階,,26,105,6050073,,,,,,,2023-04-06,1,,,,,ディーネクスト,0
164,1140001129633,新規,0,2023-04-06,2023-04-06,株式会社ＳＯＹＡＮＡ,,株式会社,兵庫県,神戸市中央区,海岸通３丁目１－１ＫＣＣビル４Ｆ,,28,110,6500024,,,,,,,2023-04-06,1,,,,,ソヤナ,0
165,1140001129724,新規,0,2023-04-06,2023-04-06,株式会社エムズカンパニー,,株式会社,兵庫県,芦屋市,呉川町１７番９－４０１号,,28,206,6590051,,,,,,,2023-04-06,1,,,,,エムズカンパニー,0
167,1140005026562,新規,0,2023-04-06,2023-04-06,一般社団法人８０億ＲＩＴＡプロジェクト,,その他の設立登記法人,兵庫県,神戸市中央区,小野柄通６丁目１番２２号プチメゾン小川７０３号,,28,110,6510088,,,,,,,2023-04-06,1,,,,,ハチジュウオクリタプロジェクト,0
170,1160001024948,新規,0,2023-04-06,2023-04-06,株式会社海遊,,株式会社,滋賀県,守山市,小島町１７４７番地１０,,25,207,5240002,,,,,,,2023-04-06,1,,,,,カイユウ,0
180,1180001155618,新規,0,2023-04-06,2023-04-06,グロスレンジ株式会社,,株式会社,愛知県,名古屋市中村区,並木２丁目７番地（スワンハイツ並木１０８号）,,23,105,4530856,,,,,,,2023-04-06,1,,,,,グロスレンジ,0
181,1180001155659,新規,0,2023-04-06,2023-04-06,新美電気商会株式会社,,株式会社,愛知県,知多郡阿久比町,大字植大字築地１６番地１,,23,441,4702216,,,,,,,2023-04-06,1,,,,,ニイミデンキショウカイ,0
182,1180001155683,新規,0,2023-04-06,2023-04-06,株式会社美水,,株式会社,愛知県,名古屋市東区,泉２丁目１番４号ランドハウス泉１００２号,,23,102,4610001,,,,,,,2023-04-06,1,,,,,ビスイ,0
183,1180001155700,新規,0,2023-04-06,2023-04-06,株式会社Ｄ＆Ｗ,,株式会社,愛知県,名古屋市守山区,鳥羽見３丁目１５番２９号,,23,113,4630076,,,,,,,2023-04-06,1,,,,,ディーアンドダブリュー,0
184,1180001155717,新規,0,2023-04-06,2023-04-06,株式会社ミコマルム,,株式会社,愛知県,常滑市,金山字深谷７２番地１,,23,216,4790003,,,,,,,2023-04-06,1,,,,,ミコマルム,0
185,1180003025059,新規,0,2023-04-06,2023-04-06,オフィスＧＯＺＥＮ合同会社,,合同会社,愛知県,江南市,五明町高砂２８―１,,23,217,4838244,,,,,,,2023-04-06,1,,,,,オフィスゴゼン,0
188,1180301037243,新規,0,2023-04-06,2023-04-06,株式会社ｈａｐｐｙ＆ｇａｒｄｅｎ,,株式会社,愛知県,岡崎市,細川町字上大針４７番地３１,,23,202,4442149,,,,,,,2023-04-06,1,,,,,ハッピーアンドガーデン,0
189,1180303005669,新規,0,2023-04-06,2023-04-06,合同会社フュージョン,,合同会社,愛知県,知立市,西丘町西丘９３番地知立パビリオン１０１号,,23,225,4720027,,,,,,,2023-04-06,1,,,,,,0
190,1190001030290,新規,0,2023-04-06,2023-04-06,栄友グループ株式会社,,株式会社,三重県,桑名市,野田２丁目７番地１８,,24,205,5110904,,,,,,,2023-04-06,1,,,,,エイユウグループ,0
191,1190001030299,新規,0,2023-04-06,2023-04-06,株式会社地域ケアメソッド,,株式会社,三重県,伊賀市,沖１５２１番地,,24,216,5180103,,,,,,,2023-04-06,1,,,,,チイキケアメソッド,0
197,1230001019775,新規,0,2023-04-06,2023-04-06,株式会社フェイス・シマダ,,株式会社,富山県,高岡市,問屋町４９番地,,16,202,9330804,,,,,,,2023-04-06,1,,,,,フェイスシマダ,0
202,1240001061306,新規,0,2023-04-06,2023-04-06,株式会社リフィックス,,株式会社,広島県,府中市,本山町１０５３０番地２６８,,34,208,7260001,,,,,,,2023-04-06,1,,,,,リフィックス,0
208,1240003006085,新規,0,2023-04-06,2023-04-06,合同会社清水内装,,合同会社,広島県,呉市,山手１丁目１０番１４号,,34,202,7370814,,,,,,,2023-04-06,1,,,,,シミズナイソウ,0
216,1260003004269,新規,0,2023-04-06,2023-04-06,合同会社メネクシェ,,合同会社,岡山県,岡山市北区,中撫川４７２番地６,,33,101,7010163,,,,,,,2023-04-06,1,,,,,メネクシェ,0
219,1290001101123,新規,0,2023-04-06,2023-04-06,株式会社田中トソー,,株式会社,福岡県,福岡市南区,花畑２丁目３５－２３セントラルビル１０２,,40,134,8111356,,,,,,,2023-04-06,1,,,,,タナカトソー,0
221,1290003013738,新規,0,2023-04-06,2023-04-06,合同会社ＫＨＹ,,合同会社,福岡県,福岡市東区,奈多２丁目７番１号,,40,131,8110204,,,,,,,2023-04-06,1,,,,,ケイエイチワイ,0
222,1290003013746,新規,0,2023-04-06,2023-04-06,合同会社ＡＮＮＯ,,合同会社,福岡県,福岡市東区,和白３丁目１７番２４号,,40,131,8110202,,,,,,,2023-04-06,1,,,,,アンノウ,0
224,1290801029431,新規,0,2023-04-06,2023-04-06,メイショウ株式会社,,株式会社,福岡県,直方市,大字感田６５番地１,,40,204,8220001,,,,,,,2023-04-06,1,,,,,メイショウ,0
236,1340001025465,新規,0,2023-04-06,2023-04-06,Ｂｏｎｅｌ株式会社,,株式会社,鹿児島県,南九州市,知覧町郡６３３２番地,,46,223,8970302,,,,,,,2023-04-06,1,,,,,ボンエル,0
237,1340001025473,新規,0,2023-04-06,2023-04-06,株式会社ティンバーワークス,,株式会社,鹿児島県,姶良市,平松１１２４番地１,,46,225,8995652,,,,,,,2023-04-06,1,,,,,ティンバーワークス,0
238,1340001025481,新規,0,2023-04-06,2023-04-06,株式会社山下板金,,株式会社,鹿児島県,出水市,高尾野町下水流２６２８番地３,,46,208,8990405,,,,,,,2023-04-06,1,,,,,ヤマシタバンキン,0
239,1340003004095,新規,0,2023-04-06,2023-04-06,合同会社Ｓａｂｏ＆Ｃｏ．,,合同会社,鹿児島県,曽於市,末吉町深川６３２４‐４,,46,217,8998606,,,,,,,2023-04-06,1,,,,,サボアンドコー,0
242,1350001018261,新規,0,2023-04-06,2023-04-06,株式会社まんまる,,株式会社,宮崎県,都城市,下川東３丁目２号２番地・シャルフ１Ｆ－Ａ,,45,202,8850011,,,,,,,2023-04-06,1,,,,,マンマル,0
243,1350003004334,新規,0,2023-04-06,2023-04-06,合同会社吉峯創新,,合同会社,宮崎県,都城市,梅北町１５６１番地,,45,202,8850063,,,,,,,2023-04-06,1,,,,,ヨシミネソウシン,0
245,1360001031783,新規,0,2023-04-06,2023-04-06,Ｅｘｔｒｅｍｅ　Ｅ‐Ｊｅｔ株式会社,,株式会社,沖縄県,宮古島市,平良字西仲宗根７４２番地６,,47,214,9060006,,,,,,,2023-04-06,1,,,,,イクストリームイージェット,0
246,1360001031791,新規,0,2023-04-06,2023-04-06,株式会社アイランドヘブン,,株式会社,沖縄県,中頭郡北谷町,字美浜５１番２,,47,326,9040115,,,,,,,2023-04-06,1,,,,,アイランドヘブン,0
247,1360001031817,新規,0,2023-04-06,2023-04-06,株式会社平成システム工業,,株式会社,沖縄県,浦添市,西原５丁目４５番２０号,,47,208,9012101,,,,,,,2023-04-06,1,,,,,ヘイセイシステムコウギョウ,0
248,1360003012848,新規,0,2023-04-06,2023-04-06,合同会社徳吉,,合同会社,沖縄県,中頭郡読谷村,字高志保１３９０番地,,47,324,9040323,,,,,,,2023-04-06,1,,,,,トクヨシ,0
249,1360003012856,新規,0,2023-04-06,2023-04-06,合同会社ちぇんじ,,合同会社,沖縄県,豊見城市,字豊見城９２－３　２階,,47,212,9010241,,,,,,,2023-04-06,1,,,,,チェンジ,0
250,1360005006815,新規,0,2023-04-06,2023-04-06,特定非営利活動法人Ｅｖｅｒｙｏｎｅ．Ｅｎｇｉｎｅｅｒ,,その他の設立登記法人,沖縄県,うるま市,字州崎１４番１７号,,47,213,9042234,,,,,,,2023-04-06,1,,,,,エブリワンエンジニア,0
258,1380001033588,新規,0,2023-04-06,2023-04-06,株式会社ＫＣＣ,,株式会社,福島県,いわき市,小名浜南君ケ塚町１０番地の２５,,07,204,9718169,,,,,,,2023-04-06,1,,,,,ケーシーシー,0
266,1410001013438,新規,0,2023-04-06,2023-04-06,杜人プロテクト株式会社,,株式会社,秋田県,由利本荘市,船岡字永田下１４番地,,05,210,0150046,,,,,,,2023-04-06,1,,,,,モリトプロテクト,0
268,1420003002693,新規,0,2023-04-06,2023-04-06,合同会社青森愛あーる,,合同会社,青森県,青森市,中央３丁目２番９号,,02,201,0300822,,,,,,,2023-04-06,1,,,,,,0
269,1430001088750,新規,0,2023-04-06,2023-04-06,難陀株式会社,,株式会社,北海道,札幌市中央区,南五条西２丁目２番地,,01,101,0640805,,,,,,,2023-04-06,1,,,,,ナンダ,0
270,1430001088767,新規,0,2023-04-06,2023-04-06,株式会社Ｎ・アドバンス,,株式会社,北海道,札幌市白石区,中央二条１丁目３番１５－８０２号,,01,104,0030012,,,,,,,2023-04-06,1,,,,,エヌアドバンス,0
271,1430001088783,新規,0,2023-04-06,2023-04-06,株式会社玲北,,株式会社,北海道,札幌市東区,北丘珠三条２丁目４－２７,,01,103,0070883,,,,,,,2023-04-06,1,,,,,レイホク,0
272,1430003014894,新規,0,2023-04-06,2023-04-06,合同会社Ｗａｎｎａ　Ｄｒｉｖｅ　Ｃａｒｓ,,合同会社,北海道,石狩郡当別町,スウェーデンヒルズ２８８９番地３０８,,01,303,0613777,,,,,,,2023-04-06,1,,,,,ワナドライブカーズ,0
273,1430003014903,新規,0,2023-04-06,2023-04-06,合同会社中央技研,,合同会社,北海道,札幌市北区,屯田九条１１丁目５番８号,,01,102,0020859,,,,,,,2023-04-06,1,,,,,チュウオウギケン,0
285,2010001234263,新規,0,2023-04-06,2023-04-06,さくら野総合研究所株式会社,,株式会社,東京都,千代田区,丸の内１丁目１１番１号パシフィックセンチュリープレイスセンター１３Ｆ,,13,101,1000005,,,,,,,2023-04-06,1,,,,,サクラノソウゴウケンキュウショ,0
293,2010401173490,新規,0,2023-04-06,2023-04-06,株式会社テンエイティ,,株式会社,東京都,港区,北青山２丁目１０－２４,,13,103,1070061,,,,,,,2023-04-06,1,,,,,テンエイティ,0
294,2010401173524,新規,0,2023-04-06,2023-04-06,ホンダ・イノベーションズ株式会社,,株式会社,東京都,港区,南青山２丁目１番１号,,13,103,1070062,,,,,,,2023-04-06,1,,,,,ホンダイノベーションズ,0
295,2010401173540,新規,0,2023-04-06,2023-04-06,ＳａｙＣｏ株式会社,,株式会社,東京都,港区,赤坂２丁目５番８号ヒューリックＪＰ赤坂ビル３階,,13,103,1070052,,,,,,,2023-04-06,1,,,,,セイコー,0
297,2010403029872,新規,0,2023-04-06,2023-04-06,東麻布エステート合同会社,,合同会社,東京都,港区,東麻布１丁目１７番４号メゾンドヌール東麻布１０２,,13,103,1060044,,,,,,,2023-04-06,1,,,,,ヒガシアザブエステート,0
298,2010601062857,新規,0,2023-04-06,2023-04-06,株式会社Ｇｌｏｒｙ,,株式会社,東京都,江東区,亀戸１丁目２１番５号ＹＳビル地下１階,,13,108,1360071,,,,,,,2023-04-06,1,,,,,グローリー,0
299,2010601062865,新規,0,2023-04-06,2023-04-06,株式会社Ａ．Ｒ．Ｓ,,株式会社,東京都,江東区,青海２丁目４番２４号青海フロンティアビル,,13,108,1350064,,,,,,,2023-04-06,1,,,,,エーアールエス,0
304,2010701044078,新規,0,2023-04-06,2023-04-06,株式会社ＳＺ　Ｍｅｄｉａ,,株式会社,東京都,品川区,上大崎３丁目１番１号,,13,109,1410021,,,,,,,2023-04-06,1,,,,,エスズィーメディア,0
305,2010701044086,新規,0,2023-04-06,2023-04-06,目のトレーニング株式会社,,株式会社,東京都,品川区,東五反田１丁目９番１０号ガーラプレシャス高輪台６０１,,13,109,1410022,,,,,,,2023-04-06,1,,,,,メノトレーニング,0
311,2010901052814,新規,0,2023-04-06,2023-04-06,株式会社７ｃｏｌｏｒｓ,,株式会社,東京都,世田谷区,池尻２丁目２８－１０池尻アサカコーポ２０３,,13,112,1540001,,,,,,,2023-04-06,1,,,,,セブンカラーズ,0
312,2010903008062,新規,0,2023-04-06,2023-04-06,合同会社ジャストフェア,,合同会社,東京都,世田谷区,北沢１丁目３０－１,,13,112,1550031,,,,,,,2023-04-06,1,,,,,ジャストフェア,0
313,2010903008070,新規,0,2023-04-06,2023-04-06,合同会社ＳＴＲＡＴＡ,,合同会社,東京都,世田谷区,羽根木１丁目９番１４－１００１号,,13,112,1560042,,,,,,,2023-04-06,1,,,,,ストレイタ,0
318,2011001153536,新規,0,2023-04-06,2023-04-06,ワークスグループ株式会社,,株式会社,東京都,渋谷区,桜丘町２０番１号,,13,113,1500031,,,,,,,2023-04-06,1,,,,,ワークスグループ,0
319,2011001153560,新規,0,2023-04-06,2023-04-06,ＳＨＯＷ　ＴｉＭＥ株式会社,,株式会社,東京都,渋谷区,神宮前１丁目１０番３４号,,13,113,1500001,,,,,,,2023-04-06,1,,,,,ショウタイム,0
320,2011001153577,新規,0,2023-04-06,2023-04-06,株式会社Ｊａｋｅ　Ｍｙ　Ｓｕｎ,,株式会社,東京都,渋谷区,神宮前３丁目１７番３号ａｌｔｏｐｉａｎｏ１０１,,13,113,1500001,,,,,,,2023-04-06,1,,,,,ジェイクマイサン,0
321,2011003016575,新規,0,2023-04-06,2023-04-06,ＦＯＲＰＡＸ合同会社,,合同会社,東京都,渋谷区,神宮前６丁目２３番４号桑野ビル２階,,13,113,1500001,,,,,,,2023-04-06,1,,,,,フォーパックス,0
323,2011101102418,新規,0,2023-04-06,2023-04-06,株式会社Ａｓｓｅｔ　Ｔｏｋｙｏ,,株式会社,東京都,新宿区,新宿５丁目１４番１２号天翔オフィス新宿三丁目６０１,,13,104,1600022,,,,,,,2023-04-06,1,,,,,アセットトウキョウ,0
324,2011103012895,新規,0,2023-04-06,2023-04-06,合同会社カスターリエン,,合同会社,東京都,新宿区,西新宿３丁目３番１３号西新宿水間ビル２階,,13,104,1600023,,,,,,,2023-04-06,1,,,,,カスターリエン,0
325,2011201024545,新規,0,2023-04-06,2023-04-06,ＳＡＫＡＹＡ　ＰＲＯＪＥＣＴ株式会社,,株式会社,東京都,中野区,本町６丁目２０番１２号,,13,114,1640012,,,,,,,2023-04-06,1,,,,,サカヤプロジェクト,0
326,2011201024553,新規,0,2023-04-06,2023-04-06,ＩＰＯ商事株式会社,,株式会社,東京都,中野区,鷺宮６丁目２１番９号,,13,114,1650032,,,,,,,2023-04-06,1,,,,,アイピーオーショウジ,0
330,2011501029120,新規,0,2023-04-06,2023-04-06,豆森株式会社,,株式会社,東京都,北区,東十条５丁目２番９号豊田ビル１Ｆ,,13,117,1140001,,,,,,,2023-04-06,1,,,,,マメモリ,0
331,2011503005549,新規,0,2023-04-06,2023-04-06,芳澤貿易合同会社,,合同会社,東京都,北区,浮間３丁目６－１３クレストガーデンレジデンス４１１室,,13,117,1150051,,,,,,,2023-04-06,1,,,,,ヨシザワボウエキ,0
332,2011601026711,新規,0,2023-04-06,2023-04-06,株式会社オーバーリバー,,株式会社,東京都,練馬区,平和台３丁目２３番５－３０３号,,13,120,1790083,,,,,,,2023-04-06,1,,,,,オーバーリバー,0
333,2011603003873,新規,0,2023-04-06,2023-04-06,合同会社コツコツ,,合同会社,東京都,練馬区,立野町１０番１号早川ビル１階,,13,120,1770054,,,,,,,2023-04-06,1,,,,,コツコツ,0
334,2011701026124,新規,0,2023-04-06,2023-04-06,株式会社ＷＩＮ　ＭＡＮＡＧＥＭＥＮＴ,,株式会社,東京都,江戸川区,船堀４丁目８番１号,,13,123,1340091,,,,,,,2023-04-06,1,,,,,ウィンマネージメント,0
335,2011801042178,新規,0,2023-04-06,2023-04-06,株式会社ＴＭエンジニアリング,,株式会社,東京都,葛飾区,お花茶屋１丁目７番１２号,,13,122,1240003,,,,,,,2023-04-06,1,,,,,ティーエムエンジニアリング,0
346,2012803003052,新規,0,2023-04-06,2023-04-06,合同会社大判社,,合同会社,東京都,日野市,平山６丁目４３番地の７,,13,212,1910043,,,,,,,2023-04-06,1,,,,,,0
353,2020001150922,新規,0,2023-04-06,2023-04-06,雅美電工株式会社,,株式会社,神奈川県,横浜市保土ケ谷区,上菅田町７９番地１－３０９号,,14,106,2400051,,,,,,,2023-04-06,1,,,,,マサミデンコウ,0
354,2020001150947,新規,0,2023-04-06,2023-04-06,株式会社ジャパンドローンスクール,,株式会社,神奈川県,横浜市西区,北幸２丁目１０番２８号むつみビル３Ｆ,,14,103,2200004,,,,,,,2023-04-06,1,,,,,,0
355,2020001150955,新規,0,2023-04-06,2023-04-06,田辺商事株式会社,,株式会社,神奈川県,川崎市幸区,戸手１丁目７番１７－１号,,14,132,2120005,,,,,,,2023-04-06,1,,,,,タナベショウジ,0
356,2020001150971,新規,0,2023-04-06,2023-04-06,株式会社Ｂｕｎｃｈ,,株式会社,神奈川県,横浜市西区,北幸２丁目１０番２８号,,14,103,2200004,,,,,,,2023-04-06,1,,,,,バンチ,0
357,2020001150988,新規,0,2023-04-06,2023-04-06,株式会社Ｈａｐｐｉｔｕｓ,,株式会社,神奈川県,川崎市多摩区,生田８丁目１番３号,,14,135,2140038,,,,,,,2023-04-06,1,,,,,ハピトュス,0
358,2020001150996,新規,0,2023-04-06,2023-04-06,株式会社ＣＮＳｕｐｐｏｒｔ,,株式会社,神奈川県,横浜市西区,高島２丁目１１番２号スカイメナー横浜５１９,,14,103,2200011,,,,,,,2023-04-06,1,,,,,シーエヌサポート,0
359,2020001151029,新規,0,2023-04-06,2023-04-06,株式会社Ｌｉｆｅ　ｃｈａｎｇｅｓ,,株式会社,神奈川県,川崎市幸区,南幸町２丁目８番１号オーベル川崎１０３号室,,14,132,2120016,,,,,,,2023-04-06,1,,,,,ライフチェンジズ,0
363,2020003023671,新規,0,2023-04-06,2023-04-06,合同会社マインド・ゼロ,,合同会社,神奈川県,川崎市川崎区,東田町４番地１４ラピス川崎３Ｆ,,14,131,2100005,,,,,,,2023-04-06,1,,,,,マインドゼロ,0
367,2021001078575,新規,0,2023-04-06,2023-04-06,株式会社ＮＳＣＳ,,株式会社,神奈川県,横須賀市,日の出町２丁目７－１６,,14,201,2380006,,,,,,,2023-04-06,1,,,,,ニスコス,0
368,2021001078591,新規,0,2023-04-06,2023-04-06,株式会社Ｔｈｒｅｅ　Ｗａｙ　Ｓａｔｉｓｆａｃｔｉｏｎ,,株式会社,神奈川県,鎌倉市,扇ガ谷１丁目１３番２号,,14,204,2480011,,,,,,,2023-04-06,1,,,,,スリーウェイサティスファクション,0
369,2021001078617,新規,0,2023-04-06,2023-04-06,羽楽株式会社,,株式会社,神奈川県,厚木市,毛利台３丁目３１番３号,,14,212,2430037,,,,,,,2023-04-06,1,,,,,ハラク,0
370,2021001078625,新規,0,2023-04-06,2023-04-06,株式会社Ｆａｉ‐ｍｅａｌ,,株式会社,神奈川県,相模原市中央区,共和４丁目１番４号シミズビル１Ｆ,,14,152,2520234,,,,,,,2023-04-06,1,,,,,ファイミール,0
371,2021001078666,新規,0,2023-04-06,2023-04-06,星野企画株式会社,,株式会社,神奈川県,相模原市南区,鵜野森２丁目１７番９号,,14,153,2520301,,,,,,,2023-04-06,1,,,,,ホシノキカク,0
372,2021001078674,新規,0,2023-04-06,2023-04-06,達建設株式会社,,株式会社,神奈川県,藤沢市,辻堂元町２丁目５番地１８号～７,,14,205,2510043,,,,,,,2023-04-06,1,,,,,タツケンセツ,0
373,2021003012937,新規,0,2023-04-06,2023-04-06,Ｉｎｍｕｎｅ合同会社,,合同会社,神奈川県,大和市,南林間７丁目１２番２０－１０１号,,14,213,2420006,,,,,,,2023-04-06,1,,,,,インムネ,0
374,2021005012778,新規,0,2023-04-06,2023-04-06,一般社団法人葉山町スポーツ協会,,その他の設立登記法人,神奈川県,三浦郡葉山町,堀内８８７番地,,14,301,2400112,,,,,,,2023-04-06,1,,,,,ハヤママチスポーツキョウカイ,0
376,2030001153115,新規,0,2023-04-06,2023-04-06,株式会社アクシス,,株式会社,埼玉県,東松山市,大字下青鳥１１４番地１,,11,212,3550075,,,,,,,2023-04-06,1,,,,,アクシス,0
377,2030001153206,新規,0,2023-04-06,2023-04-06,株式会社ＤＡＩＧＯ工業,,株式会社,埼玉県,川越市,大字中福２０番地２９,,11,201,3501156,,,,,,,2023-04-06,1,,,,,ダイゴコウギョウ,0
378,2030001153214,新規,0,2023-04-06,2023-04-06,株式会社新光プロウダー,,株式会社,埼玉県,越谷市,大字増森１５４４番地１９,,11,222,3430012,,,,,,,2023-04-06,1,,,,,シンコウプロウダー,0
379,2030005021152,新規,0,2023-04-06,2023-04-06,一般社団法人勝友会,,その他の設立登記法人,埼玉県,入間郡三芳町,大字藤久保２０１番地１１,,11,324,3540041,,,,,,,2023-04-06,1,,,,,ショウユウカイ,0
380,2030005021202,新規,0,2023-04-06,2023-04-06,一般社団法人埼玉県産婦人科医会,,その他の設立登記法人,埼玉県,さいたま市浦和区,仲町２丁目５番１号ロイヤルパインズホテル浦和地下１階Ｍｉｏ浦和,,11,107,3300062,,,,,,,2023-04-06,1,,,,,サイタマケンサンフジンカイカイ,0
383,2040001127778,新規,0,2023-04-06,2023-04-06,Ｍ＆Ｙ株式会社,,株式会社,千葉県,野田市,堤根８２番地の１２７,,12,208,2780021,,,,,,,2023-04-06,1,,,,,エムアンドワイ,0
384,2040001127786,新規,0,2023-04-06,2023-04-06,株式会社島崎興業,00129966,株式会社,千葉県,市原市,古市場３３番地９,,12,219,2900008,,,,,,,2023-04-06,1,,,,,シマザキコウギョウ,0
385,2040001127828,新規,0,2023-04-06,2023-04-06,株式会社８４８,,株式会社,千葉県,千葉市若葉区,大草町５３５番地,,12,104,2640011,,,,,,,2023-04-06,1,,,,,ハチヨンハチ,0
386,2040001127836,新規,0,2023-04-06,2023-04-06,ａｎｃｈｏｒ株式会社,,株式会社,千葉県,流山市,西初石３丁目３５１－１３,,12,220,2700121,,,,,,,2023-04-06,1,,,,,アンカー,0
388,2050001052612,新規,0,2023-04-06,2023-04-06,株式会社ピッグランドＴＡＴＥＮＯ,,株式会社,茨城県,古河市,東牛谷３１４番地,,08,204,3060232,,,,,,,2023-04-06,1,,,,,ピッグランドタテノ,0
389,2050001052620,新規,0,2023-04-06,2023-04-06,株式会社エムリンクス,,株式会社,茨城県,水戸市,見川２丁目６７番地の７９,,08,201,3100912,,,,,,,2023-04-06,1,,,,,エムリンクス,0
395,2070001040284,新規,0,2023-04-06,2023-04-06,株式会社ｈａｉｒ　ｌｏｖｅ　ｏｎｅ,,株式会社,群馬県,太田市,世良田町３１３７番地３,,10,205,3700426,,,,,,,2023-04-06,1,,,,,ヘアーラブワン,0
405,2090001018048,新規,0,2023-04-06,2023-04-06,株式会社タクテム,,株式会社,山梨県,南アルプス市,上今井３３４番地８,,19,208,4000303,,,,,,,2023-04-06,1,,,,,タクテム,0
406,2100001036270,新規,0,2023-04-06,2023-04-06,馬曲温泉株式会社,,株式会社,長野県,下高井郡木島平村,大字往郷５５６７番地１,,20,562,3892302,,,,,,,2023-04-06,1,,,,,マグセオンセン,0
408,2110001037400,新規,0,2023-04-06,2023-04-06,株式会社Ａｓ　Ｈｏｕｓｅ,,株式会社,新潟県,新潟市西蒲区,三ツ門５５３番地,,15,108,9501343,,,,,,,2023-04-06,1,,,,,エーエスハウス,0
409,2110001037409,新規,0,2023-04-06,2023-04-06,株式会社ＬＩＴＯＭ,,株式会社,新潟県,南魚沼市,四十日２９３７番地１バーリ２０５号,,15,226,9497145,,,,,,,2023-04-06,1,,,,,リトム,0
410,2110005016920,新規,0,2023-04-06,2023-04-06,一般社団法人新潟県卓球連盟,,その他の設立登記法人,新潟県,新潟市中央区,上所３丁目６番２０号５ロイヤルステージＩ１０３号室,00129963,15,103,9500994,,,,,,,2023-04-06,1,,,,,ニイガタケンタッキュウレンメイ,0
422,2120001253673,新規,0,2023-04-06,2023-04-06,株式会社Ｌｕｍｉｎａｒｙ　Ｔｒａｄｉｎｇ,,株式会社,大阪府,大阪市東住吉区,東田辺３丁目１１番１２号,,27,121,5460032,,,,,,,2023-04-06,1,,,,,ルミナリートレーディング,0
423,2120001253698,新規,0,2023-04-06,2023-04-06,株式会社ＫＩＣプランニング,,株式会社,大阪府,大阪市西淀川区,歌島１丁目３番３号,,27,113,5550021,,,,,,,2023-04-06,1,,,,,ケイアイシープランニング,0
424,2120001253780,新規,0,2023-04-06,2023-04-06,株式会社ぜん,,株式会社,大阪府,大阪市北区,梅田１丁目１番３号大阪駅前第３ビル２階１１号室,,27,127,5300001,,,,,,,2023-04-06,1,,,,,ゼン,0
425,2120001253806,新規,0,2023-04-06,2023-04-06,株式会社御崎シビルエンジニアリング,,株式会社,大阪府,大阪市西成区,玉出中２丁目３番４号,,27,122,5570044,,,,,,,2023-04-06,1,,,,,ミサキシビルエンジニアリング,0
426,2120003023752,新規,0,2023-04-06,2023-04-06,コンティニュー合同会社,,合同会社,大阪府,大阪市北区,西天満３丁目３番７号２階,,27,127,5300047,,,,,,,2023-04-06,1,,,,,コンティニュー,0
427,2120003023777,新規,0,2023-04-06,2023-04-06,ヴィルタス合同会社,,合同会社,大阪府,大阪市西区,南堀江２丁目６番２号道頓堀プラザ５Ａ,,27,106,5500015,,,,,,,2023-04-06,1,,,,,ヴィルタス,0
435,2120105009708,新規,0,2023-04-06,2023-04-06,一般社団法人日本古物鑑定士認定協会,,その他の設立登記法人,大阪府,和泉市,和田町２０１－１,,27,219,5941102,,,,,,,2023-04-06,1,,,,,ニホンコブツカンテイシキョウカイ,0
437,2120901047357,新規,0,2023-04-06,2023-04-06,株式会社Ｔ３コーポレーション,,株式会社,大阪府,吹田市,豊津町９番１５号,,27,205,5640051,,,,,,,2023-04-06,1,,,,,ティースリーコーポレーション,0
447,2140001129608,新規,0,2023-04-06,2023-04-06,株式会社坂田総合造園,,株式会社,兵庫県,加古川市,八幡町下村８６７番地の２,,28,210,6751203,,,,,,,2023-04-06,1,,,,,サカタソウゴウゾウエン,0
452,2140005026561,新規,0,2023-04-06,2023-04-06,一般社団法人南あわじアスレティックスポーツクラブ,,その他の設立登記法人,兵庫県,南あわじ市,松帆古津路７８１番地,,28,224,6560304,,,,,,,2023-04-06,1,,,,,ミナミアワジアスレティックスポーツクラブ,0
453,2160001024947,新規,0,2023-04-06,2023-04-06,株式会社ＯｄｄＥＹＥ,,株式会社,滋賀県,大津市,日吉台１丁目１９番１４号,,25,201,5200112,,,,,,,2023-04-06,1,,,,,オッドアイ,0
460,2180001155617,新規,0,2023-04-06,2023-04-06,株式会社ＣｏｃｏＲＥＲＡ,,株式会社,愛知県,名古屋市千種区,日岡町３丁目１５番地２０２号,,23,101,4640834,,,,,,,2023-04-06,1,,,,,ココレラ,0
461,2180001155625,新規,0,2023-04-06,2023-04-06,株式会社リリフル,,株式会社,愛知県,名古屋市東区,代官町３４番１９号,,23,102,4610002,,,,,,,2023-04-06,1,,,,,リリフル,0
462,2180001155682,新規,0,2023-04-06,2023-04-06,三露名古屋株式会社,,株式会社,愛知県,名古屋市西区,五才美町１４０番地,,23,104,4520806,,,,,,,2023-04-06,1,,,,,ミツユナゴヤ,0
466,2180301037250,新規,0,2023-04-06,2023-04-06,株式会社Ｔ‐ｂｅａｒ’ｓ,,株式会社,愛知県,西尾市,矢曽根町籾山２０番地,,23,213,4450872,,,,,,,2023-04-06,1,,,,,ティーベアーズ,0
467,2180301037275,新規,0,2023-04-06,2023-04-06,株式会社ＧＩＮＧＡ,,株式会社,愛知県,西尾市,川口町中切６番地１,,23,213,4450873,,,,,,,2023-04-06,1,,,,,ギンガ,0
468,2180303005643,新規,0,2023-04-06,2023-04-06,くろねこラボ合同会社,,合同会社,愛知県,豊橋市,寺沢町字睦美６０８,,23,201,4413124,,,,,,,2023-04-06,1,,,,,クロネコラボ,0
470,2180305009460,新規,0,2023-04-06,2023-04-06,一般社団法人愛知県樹木診断協会,,その他の設立登記法人,愛知県,西尾市,上羽角町中道１番地３,,23,213,4450011,,,,,,,2023-04-06,1,,,,,アイチケンジュモクシンダンキョウカイ,0
472,2190003004291,新規,0,2023-04-06,2023-04-06,合同会社アステラス,,合同会社,三重県,桑名市,大字矢田１２９番地１（６０街区７－２）,,24,205,5110821,,,,,,,2023-04-06,1,,,,,アステラス,0
475,2210002014438,新規,0,2023-04-06,2023-04-06,田中合繊織物有限会社,,有限会社,福井県,福井市,小路町第９号２３番地,,18,201,9102166,,,,,,,2023-04-06,1,,,,,タナカゴウセンオリモノ,0
482,2230001019774,新規,0,2023-04-06,2023-04-06,株式会社ファーストバンク・キャピタルパートナーズ,,株式会社,富山県,富山市,西町５番１号,,16,201,9300062,,,,,,,2023-04-06,1,,,,,ファーストバンクキャピタルパートナーズ,0
483,2230003001994,新規,0,2023-04-06,2023-04-06,合同会社ＴＷＳ,,合同会社,富山県,滑川市,田林１０２番地,,16,206,9360826,,,,,,,2023-04-06,1,,,,,ティーダブリューエス,0
487,2240001061288,新規,0,2023-04-06,2023-04-06,三次ジビエ工房株式会社,,株式会社,広島県,三次市,三和町下板木７２５番地１,,34,209,7296612,,,,,,,2023-04-06,1,,,,,ミヨシジビエコウボウ,0
490,2240003006084,新規,0,2023-04-06,2023-04-06,Ｈ＆Ｈ合同会社,,合同会社,広島県,広島市佐伯区,五日市７丁目１３番３１－３号,,34,108,7315127,,,,,,,2023-04-06,1,,,,,エイチアンドエイチ,0
491,2250001020037,新規,0,2023-04-06,2023-04-06,株式会社飯尾工業,,株式会社,山口県,山陽小野田市,大字有帆５９４番地,,35,216,7560038,,,,,,,2023-04-06,1,,,,,イイオコウギョウ,0
495,2260001037807,新規,0,2023-04-06,2023-04-06,株式会社フジテクノサービス,,株式会社,岡山県,笠岡市,生江浜７１０番地１,,33,205,7140055,,,,,,,2023-04-06,1,,,,,フジテクノサービス,0
499,2260005011213,新規,0,2023-04-06,2023-04-06,近畿中国油脂事業協同組合,,その他の設立登記法人,岡山県,倉敷市,真備町服部１１２５番地８,,33,202,7101302,,,,,,,2023-04-06,1,,,,,キンキチュウゴクユシ,0
505,2290001101064,新規,0,2023-04-06,2023-04-06,株式会社Ｖｉｔａ・Ｐｌｕｓ,,株式会社,福岡県,久留米市,津福今町２７５番地４－Ｂ,,40,203,8300061,,,,,,,2023-04-06,1,,,,,ヴィータプラス,0
506,2290001101072,新規,0,2023-04-06,2023-04-06,ライベックス株式会社,,株式会社,福岡県,福岡市博多区,山王１丁目１５番１５号,,40,132,8120015,,,,,,,2023-04-06,1,,,,,ライベックス,0
507,2290001101114,新規,0,2023-04-06,2023-04-06,川原防水株式会社,,株式会社,福岡県,三井郡大刀洗町,大字今５６７番地４,,40,503,8301223,,,,,,,2023-04-06,1,,,,,カワハラボウスイ,0
511,2290801029430,新規,0,2023-04-06,2023-04-06,株式会社ＡＯＹＡＧＩ,,株式会社,福岡県,直方市,大字下新入９７番地４,,40,204,8220032,,,,,,,2023-04-06,1,,,,,アオヤギ,0
513,2290803004381,新規,0,2023-04-06,2023-04-06,ＺＥＰＨＹＲ合同会社,,合同会社,福岡県,行橋市,大字中津熊２６２‐１６９,,40,213,8240063,,,,,,,2023-04-06,1,,,,,ゼファー,0
514,2310001018339,新規,0,2023-04-06,2023-04-06,株式会社通興業,,株式会社,長崎県,佐世保市,広田３丁目１９番３号ロイヤルヴィレッジ六番館１０６号,,42,202,8593223,,,,,,,2023-04-06,1,,,,,トウルコウギョウ,0
517,2330001030738,新規,0,2023-04-06,2023-04-06,株式会社ＨＢＩ,,株式会社,熊本県,熊本市中央区,水前寺６丁目５－２３フォーチュンパレス水前寺５０１号,,43,101,8620950,,,,,,,2023-04-06,1,,,,,エイチビーアイ,0
528,2350001018260,新規,0,2023-04-06,2023-04-06,ロイヤルテラー株式会社,,株式会社,宮崎県,都城市,郡元町２６８７番地８カサノヴァＬ棟,,45,202,8850013,,,,,,,2023-04-06,1,,,,,ロイヤルテラー,0
529,2350001018269,新規,0,2023-04-06,2023-04-06,株式会社ソラサポ８,,株式会社,宮崎県,宮崎市,田野町乙９４６３番地２,,45,201,8891702,,,,,,,2023-04-06,1,,,,,ソラサポエイト,0
530,2350003004333,新規,0,2023-04-06,2023-04-06,Ｗ．ＳＳ．プラント合同会社,,合同会社,宮崎県,日向市,大字財光寺５５１８番地１０,,45,206,8830021,,,,,,,2023-04-06,1,,,,,ダブリューエスエスプラント,0
532,2360001031808,新規,0,2023-04-06,2023-04-06,株式会社ＭＫ２,,株式会社,沖縄県,中頭郡西原町,字翁長５９２番地伸ビル４－Ａ,,47,329,9030117,,,,,,,2023-04-06,1,,,,,エムケイツー,0
533,2360003012855,新規,0,2023-04-06,2023-04-06,合同会社イチ,,合同会社,沖縄県,島尻郡与那原町,字与那原２４番地の４,,47,348,9011303,,,,,,,2023-04-06,1,,,,,イチ,0
534,2360003012863,新規,0,2023-04-06,2023-04-06,ブレッツアンド琉球合同会社,,合同会社,沖縄県,名護市,字豊原２１７番地３０インプレスト豊原２－Ｂ,,47,209,9052172,,,,,,,2023-04-06,1,,,,,ブレッツアンドリュウキュウ,0
535,2360005006822,新規,0,2023-04-06,2023-04-06,医療法人アイランドリゾート,,その他の設立登記法人,沖縄県,中頭郡読谷村,字大湾３５６番地,,47,324,9040313,,,,,,,2023-04-06,1,,,,,アイランドリゾート,0
538,2380001033587,新規,0,2023-04-06,2023-04-06,いわきインスペクション株式会社,,株式会社,福島県,いわき市,泉もえぎ台３丁目２５番地の４,,07,204,9718188,,,,,,,2023-04-06,1,,,,,イワキインスペクション,0
541,2430001088790,新規,0,2023-04-06,2023-04-06,株式会社エークレスト,,株式会社,北海道,札幌市中央区,南四条西９丁目１００６番地８パワービル南４条３０１号,,01,101,0640804,,,,,,,2023-04-06,1,,,,,エークレスト,0
546,2450003002319,新規,0,2023-04-06,2023-04-06,合同会社Ｍｉｙａｍｏｔｏ　Ｍａｎａｇｅｍｅｎｔ,,合同会社,北海道,旭川市,春光台五条３丁目８番６号,,01,204,0718145,,,,,,,2023-04-06,1,,,,,ミヤモトマネージメント,0
551,2470005006497,新規,0,2023-04-06,2023-04-06,一般社団法人ｓｅｔｏｕｃｈｉとのしょう,,その他の設立登記法人,香川県,小豆郡土庄町,甲５１６５番地２０１,,37,322,7614101,,,,,,,2023-04-06,1,,,,,セトウチトノショウ,0
558,2500005008597,新規,0,2023-04-06,2023-04-06,特定非営利活動法人小田川自然ミュージアム,,その他の設立登記法人,愛媛県,喜多郡内子町,内子１００１番地,,38,422,7913301,,,,,,,2023-04-06,1,,,,,オダガワシゼンミュージアム,0
564,3010001234130,新規,0,2023-04-06,2023-04-06,ミングル株式会社,,株式会社,東京都,中央区,銀座１丁目１２番４号Ｎ＆ＥＢＬＤ．７階,,13,102,1040061,,,,,,,2023-04-06,1,,,,,ミングル,0
565,3010001234188,新規,0,2023-04-06,2023-04-06,株式会社神速,,株式会社,東京都,千代田区,内神田１丁目１５番１６号,,13,101,1010047,,,,,,,2023-04-06,1,,,,,シンソク,0
567,3010003040188,新規,0,2023-04-06,2023-04-06,合同会社ＳＫＩＰ　Ｌａｂ,,合同会社,東京都,千代田区,二番町１２－１３セブネスビル,,13,101,1020084,,,,,,,2023-04-06,1,,,,,スキップラボ,0
576,3010401173481,新規,0,2023-04-06,2023-04-06,株式会社ＮＮアセットマネジメント,,株式会社,東京都,港区,六本木１丁目３番３９－Ｅ１６０８号,,13,103,1060032,,,,,,,2023-04-06,1,,,,,エヌエヌアセットマネジメント,0
577,3010401173498,新規,0,2023-04-06,2023-04-06,株式会社ＫＯＫＯ,,株式会社,東京都,港区,麻布十番３丁目４－６阪妻ビル,,13,103,1060045,,,,,,,2023-04-06,1,,,,,ココ,0
578,3010401173556,新規,0,2023-04-06,2023-04-06,株式会社ＮｏｔＥＸｉｓｔ,,株式会社,東京都,港区,港南４丁目１－１０リバージュ品川８０４,,13,103,1080075,,,,,,,2023-04-06,1,,,,,ノットイグジスト,0
579,3010405022008,新規,0,2023-04-06,2023-04-06,一般社団法人日本ロボットシステムインテグレータ協会,,その他の設立登記法人,東京都,港区,芝公園３丁目５番８号,,13,103,1050011,,,,,,,2023-04-06,1,,,,,ニホンロボットシステムインテグレータキョウカイ,0
581,3010601062856,新規,0,2023-04-06,2023-04-06,株式会社ｎａｍｉｋｅｎ,,株式会社,東京都,江東区,豊洲５丁目５番１,,13,108,1350061,,,,,,,2023-04-06,1,,,,,ナミケン,0
587,3010701044060,新規,0,2023-04-06,2023-04-06,株式会社Ｇｒｅｅｎ,,株式会社,東京都,品川区,東五反田２丁目９－１プラウドタワー東五反田２０２号,,13,109,1410022,,,,,,,2023-04-06,1,,,,,グリーン,0
588,3010701044069,新規,0,2023-04-06,2023-04-06,森工業株式会社,,株式会社,東京都,品川区,上大崎３丁目１０番４９号ノット花房山４０４,,13,109,1410021,,,,,,,2023-04-06,1,,,,,モリコウギョウ,0
589,3010703006645,新規,0,2023-04-06,2023-04-06,合同会社ＴＨＫサポート,,合同会社,東京都,品川区,小山４丁目７番８号,,13,109,1420062,,,,,,,2023-04-06,1,,,,,ティエイチケイサポート,0
591,3010901052813,新規,0,2023-04-06,2023-04-06,ＡＱＵＡ　ＣＰＣ株式会社,,株式会社,東京都,世田谷区,松原３丁目４０番８号,,13,112,1560043,,,,,,,2023-04-06,1,,,,,アクアシーピーシー,0
592,3010901052821,新規,0,2023-04-06,2023-04-06,株式会社ラヴィベール,,株式会社,東京都,世田谷区,成城３丁目８番１７号,,13,112,1570066,,,,,,,2023-04-06,1,,,,,ラヴィベール,0
599,3011001153510,新規,0,2023-04-06,2023-04-06,株式会社オールイン,,株式会社,東京都,渋谷区,道玄坂１丁目１６番６号二葉ビル８ｂ,,13,113,1500043,,,,,,,2023-04-06,1,,,,,オールイン,0
600,3011001153535,新規,0,2023-04-06,2023-04-06,株式会社エスタイル・テック,,株式会社,東京都,渋谷区,神宮前３丁目２５番１４号エスラ原宿ビル８Ｆ,,13,113,1500001,,,,,,,2023-04-06,1,,,,,エスタイルテック,0
601,3011001153543,新規,0,2023-04-06,2023-04-06,株式会社プラスデザイン,,株式会社,東京都,渋谷区,本町１丁目１５番１１号,,13,113,1510071,,,,,,,2023-04-06,1,,,,,プラスデザイン,0
602,3011001153551,新規,0,2023-04-06,2023-04-06,株式会社ＴＥＮＴ,,株式会社,東京都,目黒区,五本木１丁目２９番５号,,13,110,1530053,,,,,,,2023-04-06,1,,,,,テント,0
603,3011001153576,新規,0,2023-04-06,2023-04-06,株式会社Ｈｉ‐Ｌｏ,,株式会社,東京都,渋谷区,神宮前３丁目１７番３号ａｌｔｏｐｉａｎｏ１０１,,13,113,1500001,,,,,,,2023-04-06,1,,,,,ハイロ,0
604,3011001153634,新規,0,2023-04-06,2023-04-06,メディアジーン株式交換準備株式会社,,株式会社,東京都,渋谷区,円山町２３番２号,,13,113,1500044,,,,,,,2023-04-06,1,,,,,メディアジーンカブシキコウカンジュンビ,0
605,3011003016574,新規,0,2023-04-06,2023-04-06,マークリバー合同会社,,合同会社,東京都,渋谷区,渋谷１丁目１１番３号正栄ビル７階,,13,113,1500002,,,,,,,2023-04-06,1,,,,,マークリバー,0
606,3011003016582,新規,0,2023-04-06,2023-04-06,Ｗｈａｔｎｅｖｅｒｓ合同会社,,合同会社,東京都,目黒区,緑が丘１丁目６番１０号,,13,110,1520034,,,,,,,2023-04-06,1,,,,,ワットネバーズ,0
610,3011101102400,新規,0,2023-04-06,2023-04-06,株式会社Ｇｌａｎｚ,,株式会社,東京都,新宿区,西新宿３丁目３番１３号西新宿水間ビル６階,,13,104,1600023,,,,,,,2023-04-06,1,,,,,グランツ,0
611,3011101102409,新規,0,2023-04-06,2023-04-06,ＣＣＣ株式会社,,株式会社,東京都,新宿区,高田馬場１丁目３４番５号大輝ビル２階,,13,104,1690075,,,,,,,2023-04-06,1,,,,,シーシーシー,0
612,3011101102425,新規,0,2023-04-06,2023-04-06,株式会社ＰＭＲ,,株式会社,東京都,新宿区,西新宿３丁目３番１３号,,13,104,1600023,,,,,,,2023-04-06,1,,,,,ピーエムアール,0
613,3011103012894,新規,0,2023-04-06,2023-04-06,合同会社ＭＡＦ,,合同会社,東京都,新宿区,南元町４番地１５日神パレステージ信濃町６０４,,13,104,1600012,,,,,,,2023-04-06,1,,,,,マフ,0
614,3011103012903,新規,0,2023-04-06,2023-04-06,合同会社エフアール,,合同会社,東京都,新宿区,西新宿３丁目３番１３号西新宿水間ビル６階,,13,104,1600023,,,,,,,2023-04-06,1,,,,,エフアール,0
615,3011105010616,新規,0,2023-04-06,2023-04-06,特定非営利活動法人チャプチョアアカデミー,,その他の設立登記法人,東京都,新宿区,戸山２丁目１０番１１０３号,,13,104,1620052,,,,,,,2023-04-06,1,,,,,チャプチョアアカデミー,0
616,3011201024552,新規,0,2023-04-06,2023-04-06,株式会社ＵＬＴ,,株式会社,東京都,中野区,東中野５丁目２７－１０－８０２,,13,114,1640003,,,,,,,2023-04-06,1,,,,,ウルト,0
618,3011301028602,新規,0,2023-04-06,2023-04-06,ＯＷＥＮＳ３６５株式会社,,株式会社,東京都,杉並区,善福寺２丁目３６番１５号,,13,115,1670041,,,,,,,2023-04-06,1,,,,,オーエンズサンロクゴ,0
619,3011303004709,新規,0,2023-04-06,2023-04-06,合同会社Ｓ＆Ｃｏ,,合同会社,東京都,杉並区,高円寺南３丁目５８番１７号,,13,115,1660003,,,,,,,2023-04-06,1,,,,,エスアンドコー,0
622,3011403003957,新規,0,2023-04-06,2023-04-06,合同会社シバンス,,合同会社,東京都,板橋区,東山町４番３－３０３号,,13,119,1740073,,,,,,,2023-04-06,1,,,,,シバンス,0
625,3011501029128,新規,0,2023-04-06,2023-04-06,株式会社ＴＡＫＥ,,株式会社,東京都,荒川区,西尾久３丁目１６番７号,,13,118,1160011,,,,,,,2023-04-06,1,,,,,タケ,0
627,3011601026702,新規,0,2023-04-06,2023-04-06,株式会社ジャストプロジェクト,,株式会社,東京都,練馬区,石神井町５丁目２０番２０号,,13,120,1770041,,,,,,,2023-04-06,1,,,,,ジャストプロジェクト,0
628,3011603003872,新規,0,2023-04-06,2023-04-06,合同会社ケイパビリティサポート,,合同会社,東京都,練馬区,中村北３丁目３番１８号,,13,120,1760023,,,,,,,2023-04-06,1,,,,,ケイパビリティサポート,0
632,3011801042177,新規,0,2023-04-06,2023-04-06,株式会社ファンマネジメント,,株式会社,東京都,葛飾区,新宿６丁目６番１－４０８号,,13,122,1250051,,,,,,,2023-04-06,1,,,,,ファンマネジメント,0
633,3011801042193,新規,0,2023-04-06,2023-04-06,株式会社ＣＵＯＲＥ,,株式会社,東京都,葛飾区,南水元４丁目４番８号,,13,122,1250035,,,,,,,2023-04-06,1,,,,,クオーレ,0
639,3012701017574,新規,0,2023-04-06,2023-04-06,株式会社ＪＭＡＸ,,株式会社,東京都,清瀬市,中清戸５丁目８３番地３５５号,,13,221,2040012,,,,,,,2023-04-06,1,,,,,ジェイマックス,0
643,3012803003051,新規,0,2023-04-06,2023-04-06,合同会社コナライフ,,合同会社,東京都,東大和市,南街１丁目９番地４,,13,220,2070014,,,,,,,2023-04-06,1,,,,,コナライフ,0
644,3013105001826,新規,0,2023-04-06,2023-04-06,学校法人如意輪学園,,その他の設立登記法人,東京都,西多摩郡瑞穂町,大字箱根ケ崎１３７番地,,13,303,1901221,,,,,,,2023-04-06,1,,,,,,0
645,3013301010127,新規,0,2023-04-06,2023-04-06,株式会社ハニー,,株式会社,東京都,豊島区,南池袋２丁目１９番４号,,13,116,1710022,,,,,,,2023-04-06,1,,,,,ハニー,0
648,3020001150979,新規,0,2023-04-06,2023-04-06,株式会社ＥＧＡＫＵ,,株式会社,神奈川県,川崎市高津区,諏訪３丁目１８番１３号エールブランシェ１０２,,14,134,2130004,,,,,,,2023-04-06,1,,,,,エガク,0
652,3020003023670,新規,0,2023-04-06,2023-04-06,合同会社Ｔｈｅ　Ｆｕｎｎｙ’ｓ,,合同会社,神奈川県,横浜市保土ケ谷区,初音ケ丘１４－１７初音ヶ丘ヒルサイド２０５,,14,106,2400016,,,,,,,2023-04-06,1,,,,,ザファニーズ,0
660,3021001078582,新規,0,2023-04-06,2023-04-06,株式会社つばさ,,株式会社,神奈川県,平塚市,片岡１２０８番地の９,,14,203,2591213,,,,,,,2023-04-06,1,,,,,ツバサ,0
661,3021001078599,新規,0,2023-04-06,2023-04-06,株式会社ＳＮコンサルティング,,株式会社,神奈川県,相模原市中央区,陽光台１丁目１番１－７１３号,,14,152,2520226,,,,,,,2023-04-06,1,,,,,エスエヌコンサルティング,0
662,3021001078665,新規,0,2023-04-06,2023-04-06,株式会社高橋建築設計室,,株式会社,神奈川県,小田原市,前川３９０番地の６,,14,206,2560813,,,,,,,2023-04-06,1,,,,,タカハシケンチクセッケイシツ,0
663,3021001078673,新規,0,2023-04-06,2023-04-06,株式会社サンホシスコ,,株式会社,神奈川県,茅ヶ崎市,共恵１丁目１番５Ｂ．Ｌ．ＤＮａｇａｓｈｉｍａ３０１,,14,207,2530056,,,,,,,2023-04-06,1,,,,,サンホシスコ,0
665,3021003012936,新規,0,2023-04-06,2023-04-06,オーエス・ディベロ合同会社,,合同会社,神奈川県,中郡大磯町,国府本郷２７０－３新興ビル３０２,,14,341,2590111,,,,,,,2023-04-06,1,,,,,オーエスディベロ,0
666,3021003012944,新規,0,2023-04-06,2023-04-06,合同会社かがやき,,合同会社,神奈川県,厚木市,小野２２７５番地３,,14,212,2430125,,,,,,,2023-04-06,1,,,,,カガヤキ,0
671,3030001153114,新規,0,2023-04-06,2023-04-06,株式会社石川工業,,株式会社,埼玉県,鴻巣市,すみれ野１番地１ゼファー北鴻巣オレンジステージ６１２,,11,217,3650067,,,,,,,2023-04-06,1,,,,,イシカワコウギョウ,0
672,3030001153139,新規,0,2023-04-06,2023-04-06,株式会社ボルケーノ,,株式会社,埼玉県,さいたま市見沼区,堀崎町３７５番地４－１Ｂ,,11,104,3370052,,,,,,,2023-04-06,1,,,,,ボルケーノ,0
673,3030001153213,新規,0,2023-04-06,2023-04-06,株式会社Ｌｅ　Ｌｉｅｎ,,株式会社,埼玉県,春日部市,谷原新田２１６８番地５,,11,214,3440035,,,,,,,2023-04-06,1,,,,,リアン,0
676,3040001127769,新規,0,2023-04-06,2023-04-06,株式会社つなぐ,,株式会社,千葉県,船橋市,宮本６丁目３番１－１１９号,,12,204,2730003,,,,,,,2023-04-06,1,,,,,ツナグ,0
677,3040001127777,新規,0,2023-04-06,2023-04-06,株式会社Ｌｅ　ＣＡＲｅＬＡ．,,株式会社,千葉県,浦安市,当代島１丁目３０－４ブランシエスタ浦安７１４号室,,12,227,2790001,,,,,,,2023-04-06,1,,,,,ルカレラ,0
678,3040001127785,新規,0,2023-04-06,2023-04-06,株式会社Ｋ’ｓ,,株式会社,千葉県,千葉市緑区,おゆみ野中央５丁目４番地２４－２０５,,12,105,2660032,,,,,,,2023-04-06,1,,,,,ケーズ,0
679,3040001127793,新規,0,2023-04-06,2023-04-06,株式会社のどか和,,株式会社,千葉県,千葉市中央区,中央３丁目１７番１－３９０２号,,12,101,2600013,,,,,,,2023-04-06,1,,,,,ノドカ,0
680,3040001127835,新規,0,2023-04-06,2023-04-06,株式会社山賀スチール,,株式会社,千葉県,香取市,下小野３６７番地,,12,236,2870021,,,,,,,2023-04-06,1,,,,,ヤマガスチール,0
681,3040001127851,新規,0,2023-04-06,2023-04-06,Ａｓａｍ　ｔｒａｄｉｎｇ株式会社,,株式会社,千葉県,船橋市,湊町２丁目８番２号,,12,204,2730011,,,,,,,2023-04-06,1,,,,,アサムトレーディング,0
683,3050001052611,新規,0,2023-04-06,2023-04-06,株式会社ＥＬＢＡ,,株式会社,茨城県,日立市,川尻町４丁目９番１４号,,08,202,3191411,,,,,,,2023-04-06,1,,,,,エルバ,0
687,3070001040267,新規,0,2023-04-06,2023-04-06,株式会社リフィックス,,株式会社,群馬県,伊勢崎市,韮塚町１２０６番地１６,,10,204,3720813,,,,,,,2023-04-06,1,,,,,リフィックス,0
688,3070001040283,新規,0,2023-04-06,2023-04-06,株式会社赤城アグリファーム,,株式会社,群馬県,前橋市,上長磯町６８番地８,,10,201,3792165,,,,,,,2023-04-06,1,,,,,アカギアグリファーム,0
690,3070005010101,新規,0,2023-04-06,2023-04-06,特定非営利活動法人虹色のかさ,,その他の設立登記法人,群馬県,北群馬郡吉岡町,大字南下８０８番地,,10,345,3703604,,,,,,,2023-04-06,1,,,,,ニジイロノカサ,0
692,3080001025548,新規,0,2023-04-06,2023-04-06,田中肥料株式会社,,株式会社,静岡県,島田市,井口１０８４番地の１,,22,209,4270104,,,,,,,2023-04-06,1,,,,,タナカヒリョウ,0
699,3090001018047,新規,0,2023-04-06,2023-04-06,株式会社ストラーダ,,株式会社,山梨県,大月市,大月２丁目２０番２５号,,19,206,4010013,,,,,,,2023-04-06,1,,,,,ストラーダ,0
700,3090001018055,新規,0,2023-04-06,2023-04-06,株式会社Ｋ‐ｔｒｕｓｔ,,株式会社,山梨県,富士吉田市,中曽根４丁目３番２７号,,19,202,4030007,,,,,,,2023-04-06,1,,,,,ケートラスト,0
701,3090003002288,新規,0,2023-04-06,2023-04-06,合同会社真志,,合同会社,山梨県,南アルプス市,上今井２５３－１５,,19,208,4000303,,,,,,,2023-04-06,1,,,,,マゴコロ,0
703,3100001036278,新規,0,2023-04-06,2023-04-06,レイヴン株式会社,,株式会社,長野県,安曇野市,豊科南穂高３３７番地,,20,220,3998201,,,,,,,2023-04-06,1,,,,,レイヴン,0
714,3120001253672,新規,0,2023-04-06,2023-04-06,株式会社榎製作所,,株式会社,大阪府,大阪市此花区,梅香１丁目１４番９号,,27,104,5540013,,,,,,,2023-04-06,1,,,,,エノキセイサクショ,0
715,3120001253697,新規,0,2023-04-06,2023-04-06,株式会社真徳建総,,株式会社,大阪府,門真市,朝日町１１番３号,,27,223,5710061,,,,,,,2023-04-06,1,,,,,シントクケンソウ,0
716,3120001253755,新規,0,2023-04-06,2023-04-06,株式会社昇栄建設,,株式会社,大阪府,門真市,四宮６丁目６番２７号,,27,223,5710017,,,,,,,2023-04-06,1,,,,,ショウエイケンセツ,0
717,3120005023535,新規,0,2023-04-06,2023-04-06,税理士法人中原会計事務所,,その他の設立登記法人,大阪府,大阪市中央区,大手前２丁目１番７号大阪赤十字会館９階,,27,128,5400008,,,,,,,2023-04-06,1,,,,,ナカハラカイケイジムショ,0
718,3120005023551,新規,0,2023-04-06,2023-04-06,一般社団法人車載データ解析協会,,その他の設立登記法人,大阪府,大阪市淀川区,加島３丁目１６番１２７号,,27,123,5320031,,,,,,,2023-04-06,1,,,,,シャサイデータカイセキキョウカイ,0
720,3120101067246,新規,0,2023-04-06,2023-04-06,株式会社グリーンファクトリー,,株式会社,大阪府,泉佐野市,上之郷２８４７番地の１,,27,213,5980024,,,,,,,2023-04-06,1,,,,,グリーンファクトリー,0
722,3120105009707,新規,0,2023-04-06,2023-04-06,特定非営利活動法人富田林ほっこり会,,その他の設立登記法人,大阪府,富田林市,南旭ケ丘町１６番６号,,27,214,5840007,,,,,,,2023-04-06,1,,,,,トンダバヤシホッコリカイ,0
724,3120901047364,新規,0,2023-04-06,2023-04-06,株式会社リオルフ,,株式会社,大阪府,豊中市,南桜塚４丁目１３番８－１０６号,,27,203,5610882,,,,,,,2023-04-06,1,,,,,リオルフ,0
728,3122001036859,新規,0,2023-04-06,2023-04-06,株式会社ＫＭＧ,,株式会社,大阪府,東大阪市,吉原２丁目８番１７号,,27,227,5780904,,,,,,,2023-04-06,1,,,,,ケイエムジー,0
741,3140001129680,新規,0,2023-04-06,2023-04-06,株式会社上高興業,,株式会社,兵庫県,神戸市長田区,二番町２丁目２番地の３６香山ビル３０１,,28,106,6530012,,,,,,,2023-04-06,1,,,,,ウエタカコウギョウ,0
742,3140001129697,新規,0,2023-04-06,2023-04-06,株式会社ファインセンス,,株式会社,兵庫県,尼崎市,上坂部３丁目９番２０号,,28,202,6610979,,,,,,,2023-04-06,1,,,,,ファインセンス,0
748,3150003002926,新規,0,2023-04-06,2023-04-06,合同会社むしめがね,,合同会社,奈良県,奈良市,小川町１４－１グランテール３階,,29,201,6308233,,,,,,,2023-04-06,1,,,,,ムシメガネ,0
750,3160001024954,新規,0,2023-04-06,2023-04-06,株式会社瑞雪,,株式会社,滋賀県,彦根市,松原町３６３５－１４エスポワール彦根１０２,,25,202,5220002,,,,,,,2023-04-06,1,,,,,ズイセツ,0
759,3180001155590,新規,0,2023-04-06,2023-04-06,株式会社ＫＡＩＳＥＩ,,株式会社,愛知県,名古屋市中区,栄４丁目１７番地２９フジアーバンハイツ８０４,,23,106,4600008,,,,,,,2023-04-06,1,,,,,カイセイ,0
760,3180001155624,新規,0,2023-04-06,2023-04-06,ｓａｉ株式会社,,株式会社,愛知県,名古屋市中区,栄２丁目１１番３０号,,23,106,4600008,,,,,,,2023-04-06,1,,,,,セイ,0
761,3180001155673,新規,0,2023-04-06,2023-04-06,ＪＫＬ株式会社,,株式会社,愛知県,日進市,赤池３丁目２１０２番地プラウド赤池９０１,,23,230,4700125,,,,,,,2023-04-06,1,,,,,ジェイケイエル,0
762,3180001155698,新規,0,2023-04-06,2023-04-06,株式会社Ｙ＆Ｓ,,株式会社,愛知県,名古屋市西区,城西２丁目１６番１８号豊鶴院ビル１Ｆ西,,23,104,4510031,,,,,,,2023-04-06,1,,,,,ワイアンドエス,0
767,3180301037282,新規,0,2023-04-06,2023-04-06,株式会社南康生家守舎,,株式会社,愛知県,岡崎市,康生通南３丁目４３番地,,23,202,4440044,,,,,,,2023-04-06,1,,,,,ミナミコウセイヤモリシャ,0
769,3190003004290,新規,0,2023-04-06,2023-04-06,合同会社ＡＣＴ,,合同会社,三重県,四日市市,野田２丁目１４番３０号,,24,202,5100815,,,,,,,2023-04-06,1,,,,,アクト,0
770,3190005011806,新規,0,2023-04-06,2023-04-06,社会保険労務士法人フェイルノート,,その他の設立登記法人,三重県,四日市市,生桑町９１９番地１ＳＯＨＯビル２Ｆ,,24,202,5120911,,,,,,,2023-04-06,1,,,,,フェイルノート,0
772,3210001011848,新規,0,2023-04-06,2023-04-06,株式会社日栄建設,,株式会社,福井県,越前市,今宿町第２７号３番地の２,,18,209,9150861,,,,,,,2023-04-06,1,,,,,ニチエイケンセツ,0
773,3210001019271,新規,0,2023-04-06,2023-04-06,Ｔ＆Ｉ３Ｄ株式会社,,株式会社,福井県,吉田郡永平寺町,荒谷第１７号３４番地１,,18,322,9101227,,,,,,,2023-04-06,1,,,,,ティーアンドアイスリーディー,0
779,3230001019773,新規,0,2023-04-06,2023-04-06,中越工業株式会社,,株式会社,富山県,富山市,山室荒屋８番地２,,16,201,9398022,,,,,,,2023-04-06,1,,,,,チュウエツコウギョウ,0
784,3240001061304,新規,0,2023-04-06,2023-04-06,株式会社山崎Ｓａｋｕｒａ,,株式会社,広島県,東広島市,西条町助実１６８８番地１６,,34,212,7390021,,,,,,,2023-04-06,1,,,,,ヤマザキサクラ,0
785,3240001061312,新規,0,2023-04-06,2023-04-06,株式会社ラシクル,,株式会社,広島県,広島市東区,二葉の里３丁目５番７号ＧＲＡＮＯＤＥ広島３Ｆ,,34,102,7320057,,,,,,,2023-04-06,1,,,,,ラシクル,0
791,3260001037797,新規,0,2023-04-06,2023-04-06,株式会社匠伸住設,,株式会社,岡山県,岡山市南区,洲崎３丁目１４番２８－５号,,33,104,7028042,,,,,,,2023-04-06,1,,,,,タクシンジュウセツ,0
794,3290001101055,新規,0,2023-04-06,2023-04-06,ＰｉｘｅｌＮｏｔｅｓ株式会社,,株式会社,福岡県,福岡市博多区,博多駅前１丁目２３番１号ＰａｒｋＦｒｏｎｔ博多駅前一丁目５Ｆ－Ｂ,,40,132,8120011,,,,,,,2023-04-06,1,,,,,ピクセルノーツ,0
795,3290001101071,新規,0,2023-04-06,2023-04-06,株式会社スマートプランニング,,株式会社,福岡県,糟屋郡志免町,別府西３丁目１４番１－７１４号,,40,343,8112232,,,,,,,2023-04-06,1,,,,,スマートプランニング,0
796,3290001101088,新規,0,2023-04-06,2023-04-06,株式会社平松冷熱,,株式会社,福岡県,糟屋郡志免町,南里３丁目７番３７号ハイツみなみ１０２号,,40,343,8112207,,,,,,,2023-04-06,1,,,,,ヒラマツレイネツ,0
797,3290001101105,新規,0,2023-04-06,2023-04-06,株式会社ＳＨＩＰ,,株式会社,福岡県,福岡市博多区,中洲３丁目４－１０中洲Ｕビル５階,,40,132,8100801,,,,,,,2023-04-06,1,,,,,シップ,0
798,3290001101113,新規,0,2023-04-06,2023-04-06,株式会社四季造園,,株式会社,福岡県,小郡市,津古１２９２番地,,40,216,8380102,,,,,,,2023-04-06,1,,,,,シキゾウエン,0
799,3290003013752,新規,0,2023-04-06,2023-04-06,合同会社Ｋｉｉｔｏｓ　ｐａｌｊｏｎ,,合同会社,福岡県,筑紫野市,大字山家５２６５－２,,40,217,8180003,,,,,,,2023-04-06,1,,,,,キートスパルヨン,0
809,3330001030729,新規,0,2023-04-06,2023-04-06,オークロード熊本株式会社,,株式会社,熊本県,熊本市東区,中江町１番２６号,,43,102,8618015,,,,,,,2023-04-06,1,,,,,オークロードクマモト,0
817,3360003012854,新規,0,2023-04-06,2023-04-06,合同会社三智,,合同会社,沖縄県,那覇市,字国場３７３番地２階,,47,201,9020075,,,,,,,2023-04-06,1,,,,,サンチ,0
819,3370001049807,新規,0,2023-04-06,2023-04-06,株式会社照榮興産,,株式会社,宮城県,宮城郡利府町,神谷沢字塚元１９番地４メゾン・ウィスタリア利府Ｂ１０２,,04,406,9810121,,,,,,,2023-04-06,1,,,,,ショウエイコウサン,0
826,3420001018211,新規,0,2023-04-06,2023-04-06,株式会社ウェイハック,,株式会社,青森県,青森市,大字浜田字玉川１４０番地２７,,02,201,0300843,,,,,,,2023-04-06,1,,,,,ウェイハック,0
827,3430003014884,新規,0,2023-04-06,2023-04-06,合同会社葉向,,合同会社,北海道,札幌市豊平区,月寒東二条１９丁目２０－４１フロンティア２１９－２０３,,01,105,0620052,,,,,,,2023-04-06,1,,,,,ヨウコウ,0
828,3430003014901,新規,0,2023-04-06,2023-04-06,モンスターツリーワークス合同会社,,合同会社,北海道,札幌市手稲区,富丘三条７丁目３番２６号,,01,109,0060013,,,,,,,2023-04-06,1,,,,,モンスターツリーワークス,0
837,3450001013944,新規,0,2023-04-06,2023-04-06,株式会社Ｄｓ　ｃｏｍｐａｎｙ,,株式会社,北海道,旭川市,東鷹栖二条４丁目６３８－２４１,,01,204,0718102,,,,,,,2023-04-06,1,,,,,ディーズカンパニー,0
838,3450003002318,新規,0,2023-04-06,2023-04-06,合同会社ミルフィーユ福祉会,,合同会社,北海道,旭川市,豊岡十四条５丁目５番２１号,,01,204,0788244,,,,,,,2023-04-06,1,,,,,ミルフィーユフクシカイ,0
839,3460101007366,新規,0,2023-04-06,2023-04-06,株式会社ワイドライフ,,株式会社,北海道,広尾郡大樹町,一条通２８番地,,01,641,0892141,,,,,,,2023-04-06,1,,,,,ワイドライフ,0
843,3470001019551,新規,0,2023-04-06,2023-04-06,瀬戸内エアータクシー株式会社,,株式会社,香川県,高松市,錦町２丁目２番１９－１２０５号,,37,201,7600020,,,,,,,2023-04-06,1,,,,,セトウチエアータクシー,0
846,3490001010442,新規,0,2023-04-06,2023-04-06,株式会社ＹＭ地質コンサルタント,,株式会社,高知県,高知市,円行寺２５番地,,39,201,7800974,,,,,,,2023-04-06,1,,,,,ワイエムチシツコンサルタント,0
854,4010001234154,新規,0,2023-04-06,2023-04-06,ＡＭＣＧ株式会社,,株式会社,東京都,中央区,勝どき６丁目３番２号,,13,102,1040054,,,,,,,2023-04-06,1,,,,,エーエムシージー,0
855,4010001234220,新規,0,2023-04-06,2023-04-06,トライズキー株式会社,,株式会社,東京都,千代田区,外神田２丁目２番１９号,,13,101,1010021,,,,,,,2023-04-06,1,,,,,トライズキー,0
856,4010001234229,新規,0,2023-04-06,2023-04-06,ＣＨＡＭＰＳ株式会社,,株式会社,東京都,中央区,築地１丁目９番２号イセツネビル８階,,13,102,1040045,,,,,,,2023-04-06,1,,,,,チャンプス,0
859,4010003040195,新規,0,2023-04-06,2023-04-06,合同会社オルタナ２３,,合同会社,東京都,千代田区,丸の内３丁目１番１号東京共同会計事務所内,,13,101,1000005,,,,,,,2023-04-06,1,,,,,オルタナトゥウェンティスリー,0
860,4010003040212,新規,0,2023-04-06,2023-04-06,デロイトトーマツスペースアンドセキュリティ合同会社,,合同会社,東京都,千代田区,丸の内３丁目２番３号丸の内二重橋ビルディング,,13,101,1000005,,,,,,,2023-04-06,1,,,,,デロイトトーマツスペースアンドセキュリティ,0
861,4010003040220,新規,0,2023-04-06,2023-04-06,合同会社トリブロ,,合同会社,東京都,中央区,銀座１丁目２２番１１号銀座大竹ビジデンス２Ｆ,,13,102,1040061,,,,,,,2023-04-06,1,,,,,トリブロ,0
862,4010003040245,新規,0,2023-04-06,2023-04-06,合同会社テングステン,,合同会社,東京都,千代田区,神田佐久間町１丁目１４番地,,13,101,1010025,,,,,,,2023-04-06,1,,,,,テングステン,0
865,4010101015578,新規,0,2023-04-06,2023-04-06,龍城商事株式会社,,株式会社,東京都,八王子市,東町１０－３－１０１,,13,201,1920082,,,,,,,2023-04-06,1,,,,,リュウジョウショウジ,0
874,4010401173381,新規,0,2023-04-06,2023-04-06,みかた株式会社,,株式会社,東京都,港区,高輪４丁目１０番３１号,,13,103,1080074,,,,,,,2023-04-06,1,,,,,ミカタ,0
875,4010401173547,新規,0,2023-04-06,2023-04-06,株式会社ぽん,,株式会社,東京都,港区,六本木３丁目１６番１３－７１３号アンバサダー六本木,,13,103,1060032,,,,,,,2023-04-06,1,,,,,ポン,0
876,4010401173555,新規,0,2023-04-06,2023-04-06,赤坂紫月株式会社,,株式会社,東京都,港区,赤坂７丁目８番１号,,13,103,1070052,,,,,,,2023-04-06,1,,,,,アカサカシズキ,0
877,4010403029581,新規,0,2023-04-06,2023-04-06,合同会社アルゴリズム,,合同会社,東京都,港区,港南４丁目６番４―２９０６号,,13,103,1080075,,,,,,,2023-04-06,1,,,,,アルゴリズム,0
878,4010403029846,新規,0,2023-04-06,2023-04-06,合同会社Ｊａｔｅｃｈ　Ｊａｐａｎ,,合同会社,東京都,港区,南青山４丁目９番３０号三惠ビル４Ｆ,,13,103,1070062,,,,,,,2023-04-06,1,,,,,ジェイテックジャパン,0
879,4010403029854,新規,0,2023-04-06,2023-04-06,合同会社伊良部島ホテル開発,,合同会社,東京都,港区,元赤坂１丁目１番７－１００６号,,13,103,1070051,,,,,,,2023-04-06,1,,,,,イラブジマホテルカイハツ,0
883,4010601062855,新規,0,2023-04-06,2023-04-06,株式会社ｔｒｉｏ,,株式会社,東京都,江東区,東陽５丁目３０番６号,,13,108,1350016,,,,,,,2023-04-06,1,,,,,トリオ,0
886,4010701044068,新規,0,2023-04-06,2023-04-06,株式会社ティーエヌシー,,株式会社,東京都,品川区,豊町３丁目４番６号,,13,109,1420042,,,,,,,2023-04-06,1,,,,,ティーエヌシー,0
887,4010701044076,新規,0,2023-04-06,2023-04-06,株式会社ロジグルーヴ,,株式会社,東京都,品川区,東品川１丁目３番１５号ＴｈｅＰａｒｋＲｅｘＴＥＮＮＯＺｔｈｅＤＯＣＫ,,13,109,1400002,,,,,,,2023-04-06,1,,,,,ロジグルーヴ,0
888,4010701044084,新規,0,2023-04-06,2023-04-06,株式会社こまーるエンタープライズ,,株式会社,東京都,品川区,北品川１丁目１番１０－９０２号,,13,109,1400001,,,,,,,2023-04-06,1,,,,,コマールエンタープライズ,0
889,4010801033838,新規,0,2023-04-06,2023-04-06,株式会社信,,株式会社,東京都,大田区,大森北３丁目５番２号,,13,111,1430016,,,,,,,2023-04-06,1,,,,,シン,0
892,4010901052820,新規,0,2023-04-06,2023-04-06,株式会社松竹梅,,株式会社,東京都,世田谷区,上北沢１丁目１８番３号,,13,112,1560057,,,,,,,2023-04-06,1,,,,,ショウチクバイ,0
899,4011001153534,新規,0,2023-04-06,2023-04-06,株式会社ｃｌａｓｓ．,,株式会社,東京都,渋谷区,神宮前４丁目１５番１３号１Ａ,,13,113,1500001,,,,,,,2023-04-06,1,,,,,クラス,0
903,4011101102416,新規,0,2023-04-06,2023-04-06,ファウンダーズ・アンド・トレーダーズ株式会社,,株式会社,東京都,新宿区,新宿７丁目２６番７号ビクセル新宿１Ｆ,,13,104,1600022,,,,,,,2023-04-06,1,,,,,ファウンダーズアンドトレーダーズ,0
905,4011103012902,新規,0,2023-04-06,2023-04-06,一華合同会社,,合同会社,東京都,新宿区,高田馬場４丁目８－４ＯＲＡＧＡビル１Ｆ,,13,104,1690075,,,,,,,2023-04-06,1,,,,,イチカ,0
906,4011201024543,新規,0,2023-04-06,2023-04-06,株式会社ふわり,,株式会社,東京都,中野区,弥生町２丁目１５－１２ｐｉｓｏ１,,13,114,1640013,,,,,,,2023-04-06,1,,,,,フワリ,0
909,4011301028592,新規,0,2023-04-06,2023-04-06,株式会社ＮＡＨ,,株式会社,東京都,杉並区,高円寺北３丁目２１番１９－５０６号ライオンズプラザ高円寺,,13,115,1660002,,,,,,,2023-04-06,1,,,,,エヌエーエイチ,0
910,4011301028601,新規,0,2023-04-06,2023-04-06,株式会社修和,,株式会社,東京都,杉並区,南荻窪４丁目３番２号,,13,115,1670052,,,,,,,2023-04-06,1,,,,,シュウワ,0
912,4011401025028,新規,0,2023-04-06,2023-04-06,株式会社感性クリエイティブ研究所,,株式会社,東京都,板橋区,仲町１６番１３号,,13,119,1730022,,,,,,,2023-04-06,1,,,,,カンセイクリエイティブケンキュウジョ,0
913,4011403003956,新規,0,2023-04-06,2023-04-06,合同会社ゼロ磁場まひとつ屋,,合同会社,東京都,板橋区,仲宿４７番１７－６１１号,,13,119,1730005,,,,,,,2023-04-06,1,,,,,ゼロジバマヒトツヤ,0
914,4011503005555,新規,0,2023-04-06,2023-04-06,合同会社ＳＡＭＲＡＴ,,合同会社,東京都,北区,東十条３丁目４番３－３０１号昭和マンション,,13,117,1140001,,,,,,,2023-04-06,1,,,,,サムラット,0
916,4011601026701,新規,0,2023-04-06,2023-04-06,株式会社共進工業,,株式会社,東京都,練馬区,羽沢２丁目３番５－４０８号,,13,120,1760003,,,,,,,2023-04-06,1,,,,,キョウシンコウギョウ,0
920,4012701017573,新規,0,2023-04-06,2023-04-06,株式会社ｋｎｏｙ,,株式会社,東京都,東村山市,萩山町２丁目２１番地２５,,13,213,1890012,,,,,,,2023-04-06,1,,,,,ノイ,0
926,4020001150953,新規,0,2023-04-06,2023-04-06,スクエア株式会社,,株式会社,神奈川県,横浜市神奈川区,三ツ沢東町８番１４号,,14,102,2210853,,,,,,,2023-04-06,1,,,,,スクエア,0
927,4020001150978,新規,0,2023-04-06,2023-04-06,株式会社ＦＩ,,株式会社,神奈川県,川崎市中原区,新城５丁目２番２１号,,14,133,2110044,,,,,,,2023-04-06,1,,,,,エフアイ,0
931,4020003023661,新規,0,2023-04-06,2023-04-06,合同会社ＧＯＴＯ,,合同会社,神奈川県,横浜市金沢区,釜利谷西５丁目１５番１７号,,14,108,2360046,,,,,,,2023-04-06,1,,,,,ゴトー,0
932,4020003023678,新規,0,2023-04-06,2023-04-06,合同会社リリー・オブザバレー,,合同会社,神奈川県,横浜市南区,大岡３丁目１番２５号,,14,105,2320061,,,,,,,2023-04-06,1,,,,,リリーオブザバレー,0
933,4020003023686,新規,0,2023-04-06,2023-04-06,ｂｌｕｅａｓｔｒａ合同会社,,合同会社,神奈川県,横浜市緑区,長津田５丁目２‐５５‐１０５,,14,113,2260027,,,,,,,2023-04-06,1,,,,,ブルーアストラー,0
936,4021001078607,新規,0,2023-04-06,2023-04-06,ＳＡＬＴ　ＡＮＤ株式会社,,株式会社,神奈川県,三浦郡葉山町,下山口７４９番地の４,,14,301,2400116,,,,,,,2023-04-06,1,,,,,ソルトアンド,0
937,4021001078615,新規,0,2023-04-06,2023-04-06,ＭＪＲコンサルタント株式会社,,株式会社,神奈川県,鎌倉市,鎌倉山１丁目６番２９号,,14,204,2480031,,,,,,,2023-04-06,1,,,,,エムジェイアールコンサルタント,0
938,4021001078623,新規,0,2023-04-06,2023-04-06,ベイサイド株式会社,,株式会社,神奈川県,茅ヶ崎市,富士見町３番８‐３０２号,,14,207,2530031,,,,,,,2023-04-06,1,,,,,ベイサイド,0
939,4021001078680,新規,0,2023-04-06,2023-04-06,株式会社ＢｉｚＩｎｖｏｋｅ,,株式会社,神奈川県,鎌倉市,大船６丁目１２－１５,,14,204,2470056,,,,,,,2023-04-06,1,,,,,ビズインヴォーク,0
942,4021003012935,新規,0,2023-04-06,2023-04-06,合同会社Ｋ＆Ｋ,,合同会社,神奈川県,鎌倉市,稲村ガ崎３丁目１３番１８号,,14,204,2480024,,,,,,,2023-04-06,1,,,,,ケイアンドケイ,0
949,4030001153096,新規,0,2023-04-06,2023-04-06,龍輝株式会社,,株式会社,埼玉県,さいたま市北区,大成町４丁目６２１番地ダイアパレス大宮大成２０６,,11,102,3310815,,,,,,,2023-04-06,1,,,,,リュウキ,0
950,4030001153113,新規,0,2023-04-06,2023-04-06,株式会社オータム,,株式会社,埼玉県,桶川市,下日出谷西３丁目３番地の８,,11,231,3630028,,,,,,,2023-04-06,1,,,,,オータム,0
951,4030001153121,新規,0,2023-04-06,2023-04-06,株式会社Ｒｉａｎ,,株式会社,埼玉県,ふじみ野市,池上２番３１号,,11,245,3560019,,,,,,,2023-04-06,1,,,,,リアン,0
952,4030001153154,新規,0,2023-04-06,2023-04-06,株式会社Ｙ’ｓ,,株式会社,埼玉県,川口市,大字里１３６５番地の２アムールガーデン１０４号,,11,203,3340005,,,,,,,2023-04-06,1,,,,,ワイズ,0
953,4030001153179,新規,0,2023-04-06,2023-04-06,株式会社エリア・パブリック・コンサルティング,,株式会社,埼玉県,志木市,本町５丁目２３－２４第３本吉ビル４階４３６号,,11,228,3530004,,,,,,,2023-04-06,1,,,,,エリアパブリックコンサルティング,0
962,4040001127776,新規,0,2023-04-06,2023-04-06,株式会社醍醐林業,,株式会社,千葉県,我孫子市,布佐１丁目３１－３６,,12,222,2701101,,,,,,,2023-04-06,1,,,,,ダイゴリンギョウ,0
963,4040001127792,新規,0,2023-04-06,2023-04-06,株式会社Ｒｅｒｉｓｅ,,株式会社,千葉県,君津市,北子安５丁目１２－３３,,12,225,2991161,,,,,,,2023-04-06,1,,,,,リライズ,0
964,4040001127826,新規,0,2023-04-06,2023-04-06,ロアロジスティクス株式会社,,株式会社,千葉県,千葉市美浜区,真砂２丁目１番２４号,,12,106,2610011,,,,,,,2023-04-06,1,,,,,ロアロジスティクス,0
965,4040001127842,新規,0,2023-04-06,2023-04-06,株式会社トンタイ,,株式会社,千葉県,成田市,名古屋１１７４番地３３,,12,211,2890116,,,,,,,2023-04-06,1,,,,,トンタイ,0
966,4040003022348,新規,0,2023-04-06,2023-04-06,合同会社ＭＣＫＣＯＭＰＡＮＹ,,合同会社,千葉県,八千代市,八千代台南３丁目５番４－６号,,12,221,2760033,,,,,,,2023-04-06,1,,,,,エムシーケーカンパニー,0
972,4070003004888,新規,0,2023-04-06,2023-04-06,合同会社プログレス,,合同会社,群馬県,高崎市,上小鳥町３９９番地６,,10,202,3700078,,,,,,,2023-04-06,1,,,,,プログレス,0
973,4070003004896,新規,0,2023-04-06,2023-04-06,フセイン合同会社,,合同会社,群馬県,伊勢崎市,平和町１８番１６号ヴィラコーポ・ヤナイ１０３号室,,10,204,3720041,,,,,,,2023-04-06,1,,,,,フセイン,0
977,4080403004768,新規,0,2023-04-06,2023-04-06,合同会社こもれび,,合同会社,静岡県,菊川市,土橋９１－１,,22,224,4390025,,,,,,,2023-04-06,1,,,,,コモレビ,0
978,4090001018062,新規,0,2023-04-06,2023-04-06,株式会社シャムス,,株式会社,山梨県,南都留郡鳴沢村,１０４４５番地２４,,19,429,4010320,,,,,,,2023-04-06,1,,,,,シャムス,0
979,4100001036277,新規,0,2023-04-06,2023-04-06,ＡＲＢ株式会社,,株式会社,長野県,松本市,会田８９番地,,20,202,3997402,,,,,,,2023-04-06,1,,,,,エーアールビー,0
982,4110001037407,新規,0,2023-04-06,2023-04-06,西潟運送株式会社,,株式会社,新潟県,三条市,東三条１丁目２０番１８号,,15,204,9550047,,,,,,,2023-04-06,1,,,,,ニシガタウンソウ,0
983,4110003005015,新規,0,2023-04-06,2023-04-06,合同会社ピーターパン,,合同会社,新潟県,新潟市中央区,古町通８番町１４３０番地新潟シティーホテル地下１Ｆ,,15,103,9518063,,,,,,,2023-04-06,1,,,,,ピーターパン,0
993,4120001253655,新規,0,2023-04-06,2023-04-06,株式会社Ｙ＆Ｓｅｉｙａ,,株式会社,大阪府,大阪市中央区,難波３丁目３番７号,,27,128,5420076,,,,,,,2023-04-06,1,,,,,ワイアンドセイヤ,0
994,4120001253671,新規,0,2023-04-06,2023-04-06,株式会社アースフレンド,,株式会社,大阪府,大阪市中央区,本町１丁目５番６号,,27,128,5410053,,,,,,,2023-04-06,1,,,,,アースフレンド,0
996,4120003023734,新規,0,2023-04-06,2023-04-06,合同会社Ａｓｓｉｓｔ　ｐｌｕｓ,,合同会社,大阪府,大阪市城東区,東中浜９丁目１２番１号Ｆ・なにわ１０３,,27,118,5360023,,,,,,,2023-04-06,1,,,,,アシストプラス,0
997,4120003023759,新規,0,2023-04-06,2023-04-06,リミズ合同会社,,合同会社,大阪府,大阪市北区,堂島２丁目１番５－１２０２号,,27,127,5300003,,,,,,,2023-04-06,1,,,,,リミズ,0
999,4120005023559,新規,0,2023-04-06,2023-04-06,一般社団法人メディカルファインメイク協会,,その他の設立登記法人,大阪府,大阪市浪速区,難波中３丁目１３番２８号,,27,111,5560011,,,,,,,2023-04-06,1,,,,,メディカルファインメイクキョウカイ,0
1001,4120101067229,新規,0,2023-04-06,2023-04-06,恒信国際株式会社,,株式会社,大阪府,貝塚市,澤３５７番地３１,,27,208,5970062,,,,,,,2023-04-06,1,,,,,コウシンコクサイ,0
1002,4120101067278,新規,0,2023-04-06,2023-04-06,ミストラルフーズ関西株式会社,,株式会社,大阪府,松原市,高見の里２丁目６１番地１,,27,217,5800021,,,,,,,2023-04-06,1,,,,,ミストラルフーズカンサイ,0
1007,4120105009706,新規,0,2023-04-06,2023-04-06,一般社団法人華うさぎ,,その他の設立登記法人,大阪府,南河内郡河南町,大宝３丁目１番２２号,,27,382,5850005,,,,,,,2023-04-06,1,,,,,ハナウサギ,0
1009,4120901047347,新規,0,2023-04-06,2023-04-06,株式会社ＴＥＮＱＳＴＡＲ,,株式会社,大阪府,豊中市,長興寺南１丁目４番１４－２０１号,,27,203,5610874,,,,,,,2023-04-06,1,,,,,テンクスター,0
1010,4120901047355,新規,0,2023-04-06,2023-04-06,株式会社ＨＩＫＡＲＩ,,株式会社,大阪府,高槻市,南平台３丁目２７番２８－３０２号,,27,207,5691042,,,,,,,2023-04-06,1,,,,,ヒカリ,0
1020,4140001129614,新規,0,2023-04-06,2023-04-06,株式会社ＣＣ,,株式会社,兵庫県,加古川市,野口町坂元北５丁目１６番地,,28,210,6750010,,,,,,,2023-04-06,1,,,,,シーシー,0
1021,4140001129696,新規,0,2023-04-06,2023-04-06,ホライズンインダストリー株式会社,,株式会社,兵庫県,神戸市東灘区,岡本１丁目６番１４号,,28,101,6580072,,,,,,,2023-04-06,1,,,,,ホライズンインダストリー,0
1032,4160001024945,新規,0,2023-04-06,2023-04-06,株式会社アロングサイド,,株式会社,滋賀県,草津市,草津町１４９６番地２－４０５エルシティ草津２番館,,25,206,5250036,,,,,,,2023-04-06,1,,,,,アロングサイド,0
1033,4160001024953,新規,0,2023-04-06,2023-04-06,株式会社Ｇ．Ｄ,,株式会社,滋賀県,大津市,大江２丁目４番５号,,25,201,5202141,,,,,,,2023-04-06,1,,,,,ジーディー,0
1042,4180001155672,新規,0,2023-04-06,2023-04-06,みどりエステート株式会社,,株式会社,愛知県,名古屋市緑区,池上台１丁目１９番地,,23,114,4580044,,,,,,,2023-04-06,1,,,,,ミドリエステート,0
1043,4180001155730,新規,0,2023-04-06,2023-04-06,株式会社Ｒｅｓｔａ,,株式会社,愛知県,名古屋市中区,錦３丁目１３番５号,,23,106,4600003,,,,,,,2023-04-06,1,,,,,リスタ,0
1046,4180003025048,新規,0,2023-04-06,2023-04-06,合同会社エフォート,,合同会社,愛知県,海部郡大治町,大字堀之内字中切６４７番地の４,,23,424,4901137,,,,,,,2023-04-06,1,,,,,エフォート,0
1047,4180003025064,新規,0,2023-04-06,2023-04-06,合同会社マザーフッド,,合同会社,愛知県,名古屋市中区,栄４丁目１４番１９号富田ビル３階,,23,106,4600008,,,,,,,2023-04-06,1,,,,,マザーフッド,0
1048,4180005020162,新規,0,2023-04-06,2023-04-06,一般社団法人リンクウィッグ,,その他の設立登記法人,愛知県,名古屋市北区,御成通２丁目１８番地クレド御成通５０１,,23,103,4620807,,,,,,,2023-04-06,1,,,,,リンクウィッグ,0
1049,4180301037249,新規,0,2023-04-06,2023-04-06,株式会社Ａｓｓｅｔ　Ｃｒｏｓｓ,,株式会社,愛知県,豊橋市,大岩町字北山４０１番地４号,,23,201,4413141,,,,,,,2023-04-06,1,,,,,アセットクロス,0
1051,4180305009459,新規,0,2023-04-06,2023-04-06,行政書士法人マークス,,その他の設立登記法人,愛知県,岡崎市,細川町字岩御堂５５番地１,,23,202,4442149,,,,,,,2023-04-06,1,,,,,マークス,0
1053,4190001030305,新規,0,2023-04-06,2023-04-06,株式会社ＧＯＬＤ　ＴＲＵＳＴ,,株式会社,三重県,四日市市,末永町２２番１１号ＭＭビル２０１,,24,202,5100807,,,,,,,2023-04-06,1,,,,,ゴールドトラスト,0
1056,4200001041127,新規,0,2023-04-06,2023-04-06,ＲＯＫＵＩＣＨＩ株式会社,,株式会社,岐阜県,瑞穂市,生津内宮町１丁目２１番地,,21,216,5010213,,,,,,,2023-04-06,1,,,,,ロクイチ,0
1061,4220001025334,新規,0,2023-04-06,2023-04-06,株式会社ＭＢ,,株式会社,石川県,白山市,石同新町２４５番地１,,17,210,9240806,,,,,,,2023-04-06,1,,,,,エムビー,0
1072,4260001037796,新規,0,2023-04-06,2023-04-06,株式会社タカケン,,株式会社,岡山県,倉敷市,新田２５８０番地１０シャルマン笹沖Ａ１０２号室,,33,202,7100038,,,,,,,2023-04-06,1,,,,,タカケン,0
1073,4260001037813,新規,0,2023-04-06,2023-04-06,株式会社オカモトビルカンパニー,,株式会社,岡山県,倉敷市,中島２０１番地,,33,202,7100803,,,,,,,2023-04-06,1,,,,,オカモトビルカンパニー,0
1074,4260005011211,新規,0,2023-04-06,2023-04-06,一般社団法人晴れの国岡山住まいのお困りごと相談センター,,その他の設立登記法人,岡山県,岡山市北区,葵町２番１０,,33,101,7000045,,,,,,,2023-04-06,1,,,,,ハレノクニオカヤマスマイノオコマリゴトソウダンセンター,0
1081,4290001101070,新規,0,2023-04-06,2023-04-06,広建株式会社,,株式会社,福岡県,古賀市,今の庄３丁目１番１７号,,40,223,8113117,,,,,,,2023-04-06,1,,,,,コウケン,0
1082,4290001101104,新規,0,2023-04-06,2023-04-06,株式会社ＷＩＳＨ,,株式会社,福岡県,福岡市南区,中尾３丁目４８－３－２０１,,40,134,8111364,,,,,,,2023-04-06,1,,,,,ウイッシュ,0
1083,4290001101112,新規,0,2023-04-06,2023-04-06,株式会社ＲＩＳＯＲＡ,,株式会社,福岡県,久留米市,諏訪野町２３５２番地７ダイアパレス諏訪野２０５号,,40,203,8300037,,,,,,,2023-04-06,1,,,,,リソラ,0
1084,4290003013743,新規,0,2023-04-06,2023-04-06,合同会社ＡＫＩＮＡＧＡ,,合同会社,福岡県,糟屋郡宇美町,宇美中央１丁目１０番１２号,,40,341,8112128,,,,,,,2023-04-06,1,,,,,アキナガ,0
1086,4290801029420,新規,0,2023-04-06,2023-04-06,株式会社Ｓｉｎ,,株式会社,福岡県,北九州市小倉南区,貫弥生が丘２丁目２３番１８号,,40,107,8000234,,,,,,,2023-04-06,1,,,,,シン,0
1088,4290801029437,新規,0,2023-04-06,2023-04-06,田崎建築事務所株式会社,,株式会社,福岡県,北九州市八幡西区,森下町１９‐２,,40,109,8060046,,,,,,,2023-04-06,1,,,,,タサキケンチクジムショ,0
1091,4290805009641,新規,0,2023-04-06,2023-04-06,一般社団法人中間市スポーツ協会,,その他の設立登記法人,福岡県,中間市,蓮花寺３丁目１番５号,00129972,40,215,8090014,,,,,,,2023-04-06,1,,,,,ナカマシスポーツキョウカイ,0
1095,4310003004541,新規,0,2023-04-06,2023-04-06,合同会社一走一会,,合同会社,長崎県,長崎市,さくらの里１丁目８番１９号,,42,201,8512207,,,,,,,2023-04-06,1,,,,,イッソウイチエ,0
1096,4320001019664,新規,0,2023-04-06,2023-04-06,株式会社Ｕｃａ,,株式会社,大分県,大分市,大字光吉１１３４番地の３,,44,201,8701132,,,,,,,2023-04-06,1,,,,,ユーシーエー,0
1097,4320005010066,新規,0,2023-04-06,2023-04-06,一般社団法人大分県病院薬剤師会,,その他の設立登記法人,大分県,佐伯市,鶴岡西町２丁目２６６番地,,44,205,8760047,,,,,,,2023-04-06,1,,,,,オオイタケンビョウインヤクザイシカイ,0
1098,4330001030736,新規,0,2023-04-06,2023-04-06,株式会社Ｃｏｒｅ,,株式会社,熊本県,熊本市南区,平田１丁目１４番１９号,,43,104,8600826,,,,,,,2023-04-06,1,,,,,コア,0
1100,4340001025479,新規,0,2023-04-06,2023-04-06,株式会社栗生の暮らし,,株式会社,鹿児島県,熊毛郡屋久島町,栗生１２８４,,46,505,8914409,,,,,,,2023-04-06,1,,,,,クリオノクラシ,0
1102,4350001018259,新規,0,2023-04-06,2023-04-06,株式会社ＡＯＮＯ　ＦＡＲＭ,,株式会社,宮崎県,日南市,南郷町南町５番地８,,45,204,8893206,,,,,,,2023-04-06,1,,,,,アオノファーム,0
1106,4360003012837,新規,0,2023-04-06,2023-04-06,合同会社ＫＡＮＩＹＡ,,合同会社,沖縄県,国頭郡今帰仁村,字天底５１－２,,47,306,9050411,,,,,,,2023-04-06,1,,,,,カニヤ,0
1111,4370001049806,新規,0,2023-04-06,2023-04-06,株式会社シーズン,,株式会社,宮城県,仙台市太白区,富田字八幡中４０番地の１,,04,104,9820033,,,,,,,2023-04-06,1,,,,,シーズン,0
1114,4390003002075,新規,0,2023-04-06,2023-04-06,合同会社ハンダギケン,,合同会社,山形県,山形市,大字前明石７９４,,06,201,9902352,,,,,,,2023-04-06,1,,,,,ハンダギケン,0
1115,4410003003772,新規,0,2023-04-06,2023-04-06,合同会社早山建築設計室,,合同会社,秋田県,横手市,八幡字八幡１４８番地,,05,203,0130071,,,,,,,2023-04-06,1,,,,,ハヤヤマケンチクセッケイシツ,0
1117,4430001088764,新規,0,2023-04-06,2023-04-06,株式会社ジェイクジャパン,,株式会社,北海道,三笠市,桂沢９４番地,,01,222,0682101,,,,,,,2023-04-06,1,,,,,ジェイクジャパン,0
1118,4430001088772,新規,0,2023-04-06,2023-04-06,株式会社＿家不動産,00129965,株式会社,北海道,札幌市中央区,北三条西７丁目１－１緑苑ビル５０８号室,,01,101,0600003,,,,,,,2023-04-06,1,,,,,シンカフドウサン,0
1119,4430003014891,新規,0,2023-04-06,2023-04-06,合同会社アンクル,,合同会社,北海道,札幌市北区,新琴似六条１７丁目１番５－７０１号,,01,102,0010906,,,,,,,2023-04-06,1,,,,,アンクル,0
1121,4440001009240,新規,0,2023-04-06,2023-04-06,株式会社ベリサーブ函館,,株式会社,北海道,函館市,梁川町五丁目８番地,,01,202,0400015,,,,,,,2023-04-06,1,,,,,ベリサーブハコダテ,0
1122,4450001013943,新規,0,2023-04-06,2023-04-06,Ｍｉｒｅｉ株式会社,,株式会社,北海道,旭川市,東光十五条３丁目３番１号,,01,204,0788355,,,,,,,2023-04-06,1,,,,,ミレイ,0
1124,4450003002317,新規,0,2023-04-06,2023-04-06,合同会社大塚大動物臨床検査センター,,合同会社,北海道,枝幸郡浜頓別町,緑ケ丘２丁目５８番地,,01,512,0985738,,,,,,,2023-04-06,1,,,,,オオツカダイドウブツリンショウケンサセンター,0
1130,4500005008595,新規,0,2023-04-06,2023-04-06,一般社団法人媛華,,その他の設立登記法人,愛媛県,松山市,山越１丁目７番３２号南海ハイツ,,38,201,7918013,,,,,,,2023-04-06,1,,,,,ヒメカ,0
1133,5010001234112,新規,0,2023-04-06,2023-04-06,株式会社プライム,,株式会社,東京都,中央区,日本橋室町１丁目１１番１２号日本橋水野ビル７階,,13,102,1030022,,,,,,,2023-04-06,1,,,,,プライム,0
1134,5010001234153,新規,0,2023-04-06,2023-04-06,ＭＡＩＳＯＮ　ＩＬＡＫＡ株式会社,,株式会社,東京都,千代田区,神田錦町２丁目４番６号,,13,101,1010054,,,,,,,2023-04-06,1,,,,,メゾンイラカ,0
1135,5010001234178,新規,0,2023-04-06,2023-04-06,ＭＳアドバイザーズ株式会社,,株式会社,東京都,千代田区,神田富山町７－３１１,,13,101,1010043,,,,,,,2023-04-06,1,,,,,エムエスアドバイザーズ,0
1136,5010001234228,新規,0,2023-04-06,2023-04-06,株式会社ミンカブソリューションサービシーズ,,株式会社,東京都,千代田区,九段北１丁目８番１０号,,13,101,1020073,,,,,,,2023-04-06,1,,,,,ミンカブソリューションサービシーズ,0
1137,5010003040228,新規,0,2023-04-06,2023-04-06,坂東蓄電所１号合同会社,,合同会社,東京都,中央区,八丁堀４丁目２番１０号ＡＯＪ税理士法人内,,13,102,1040032,,,,,,,2023-04-06,1,,,,,バンドウチクデンショイチゴウ,0
1140,5010005036447,新規,0,2023-04-06,2023-04-06,一般社団法人全日本学生テニス連盟,,その他の設立登記法人,東京都,千代田区,神田小川町３丁目６番地９,,13,101,1010052,,,,,,,2023-04-06,1,,,,,ゼンニホンガクセイテニスレンメイ,0
1148,5010401173505,新規,0,2023-04-06,2023-04-06,株式会社ＳＲＭ,,株式会社,東京都,港区,西麻布１丁目２－１３デュオ・スカーラ西麻布タワーＣＥＮＴＲＡＬ２０１号室,,13,103,1060031,,,,,,,2023-04-06,1,,,,,エスアールエム,0
1149,5010401173521,新規,0,2023-04-06,2023-04-06,株式会社ロイヤルオーク,,株式会社,東京都,港区,赤坂２丁目１７番１２号,,13,103,1070052,,,,,,,2023-04-06,1,,,,,ロイヤルオーク,0
1150,5010401173538,新規,0,2023-04-06,2023-04-06,株式会社ＳＨＡＨＭ,,株式会社,東京都,港区,白金６丁目１６番２５－８１０号,,13,103,1080072,,,,,,,2023-04-06,1,,,,,シャーム,0
1151,5010401173554,新規,0,2023-04-06,2023-04-06,株式会社共創デザインコンサルティング,,株式会社,東京都,港区,新橋２丁目１６番１号ニュー新橋ビル７０４Ａ－２,,13,103,1050004,,,,,,,2023-04-06,1,,,,,キョウソウデザインコンサルティング,0
1153,5010503006934,新規,0,2023-04-06,2023-04-06,合同会社Ｐｌｅａｔｕｒｅ・プリーチャ,,合同会社,東京都,台東区,上野５丁目１８－２美達ビル,,13,106,1100005,,,,,,,2023-04-06,1,,,,,プリーチャプリーチャ,0
1159,5010701044067,新規,0,2023-04-06,2023-04-06,株式会社ミライト,,株式会社,東京都,品川区,大崎２丁目１番１号ＴｈｉｎｋＰａｒｋＴｏｗｅｒ,,13,109,1410032,,,,,,,2023-04-06,1,,,,,ミライト,0
1160,5010701044075,新規,0,2023-04-06,2023-04-06,株式会社ＩＭＰ,,株式会社,東京都,品川区,小山３丁目１５番２－１７１０号,,13,109,1420062,,,,,,,2023-04-06,1,,,,,アイエムピー,0
1161,5010701044083,新規,0,2023-04-06,2023-04-06,株式会社ファイブゼロ,,株式会社,東京都,品川区,東大井２丁目１７－１４－Ａ５０２,,13,109,1400011,,,,,,,2023-04-06,1,,,,,ファイブゼロ,0
1162,5010705003498,新規,0,2023-04-06,2023-04-06,一般社団法人キャリアモデル開発センター品川,,その他の設立登記法人,東京都,品川区,北品川２丁目２９番６－７０２号,,13,109,1400001,,,,,,,2023-04-06,1,,,,,キャリアモデルカイハツセンターシナガワ,0
1163,5010901052811,新規,0,2023-04-06,2023-04-06,ＴＳＵＲＵ‐ＳＯＵホールディングス株式会社,,株式会社,東京都,世田谷区,宮坂２丁目１６番３号,,13,112,1560051,,,,,,,2023-04-06,1,,,,,ツルソウホールディングス,0
1164,5010901052828,新規,0,2023-04-06,2023-04-06,ＴＴＰＣ株式会社,,株式会社,東京都,世田谷区,深沢３丁目２１番６号,,13,112,1580081,,,,,,,2023-04-06,1,,,,,ティーティーピーシー,0
1171,5011001153525,新規,0,2023-04-06,2023-04-06,株式会社ＮＯＵＭＩＮ,,株式会社,東京都,渋谷区,桜丘町１４番６号黒松ビル４０２,,13,113,1500031,,,,,,,2023-04-06,1,,,,,ノウミン,0
1172,5011001153541,新規,0,2023-04-06,2023-04-06,Ｃａｓｌｅｙ　Ｄｅｅｐ　Ｉｎｎｏｖａｔｉｏｎｓ株式会社,,株式会社,東京都,渋谷区,恵比寿４丁目２０番３号,,13,113,1500013,,,,,,,2023-04-06,1,,,,,キャスレーディープイノベーションズ,0
1173,5011001153566,新規,0,2023-04-06,2023-04-06,株式会社東京産業医オフィス,,株式会社,東京都,渋谷区,恵比寿南１丁目１番１号,,13,113,1500022,,,,,,,2023-04-06,1,,,,,トウキョウサンギョウイオフィス,0
1174,5011001153590,新規,0,2023-04-06,2023-04-06,鳥屋花株式会社,,株式会社,東京都,渋谷区,笹塚１丁目２８番７号,,13,113,1510073,,,,,,,2023-04-06,1,,,,,トリヤハナ,0
1175,5011003016580,新規,0,2023-04-06,2023-04-06,アポロインテリジェンス合同会社,,合同会社,東京都,渋谷区,道玄坂１丁目１０番８号渋谷道玄坂東急ビル２Ｆ－Ｃ,,13,113,1500043,,,,,,,2023-04-06,1,,,,,アポロインテリジェンス,0
1176,5011003016606,新規,0,2023-04-06,2023-04-06,折る畳む合同会社,,合同会社,東京都,渋谷区,神宮前６丁目２３番４号桑野ビル２階,,13,113,1500001,,,,,,,2023-04-06,1,,,,,オルタタム,0
1177,5011101102398,新規,0,2023-04-06,2023-04-06,株式会社ａｄｖａｎｃｅ,,株式会社,東京都,新宿区,西新宿３丁目３番１３号西新宿水間ビル６階,,13,104,1600023,,,,,,,2023-04-06,1,,,,,アドバンス,0
1178,5011101102407,新規,0,2023-04-06,2023-04-06,Ｅａｓｔｌａｎｄ株式会社,,株式会社,東京都,新宿区,西新宿１丁目４番１１号全研プラザ,,13,104,1600023,,,,,,,2023-04-06,1,,,,,イーストランド,0
1179,5011101102415,新規,0,2023-04-06,2023-04-06,ＲＹＡＮＥＳ　ＨＯＬＤＩＮＧＳ株式会社,,株式会社,東京都,新宿区,西新宿３丁目３番１３号西新宿水間ビル２Ｆ,,13,104,1600023,,,,,,,2023-04-06,1,,,,,ライアネスホールディングス,0
1180,5011101102431,新規,0,2023-04-06,2023-04-06,株式会社ライフビジョン,,株式会社,東京都,新宿区,大久保２丁目６番１７号シルバープラザ新宿第二４０２,,13,104,1690072,,,,,,,2023-04-06,1,,,,,ライフビジョン,0
1182,5011103012892,新規,0,2023-04-06,2023-04-06,合同会社ファインクルー,,合同会社,東京都,新宿区,西新宿３丁目３番１３号２Ｆ,,13,104,1600023,,,,,,,2023-04-06,1,,,,,ファインクルー,0
1183,5011103012901,新規,0,2023-04-06,2023-04-06,合同会社ミリパティ,,合同会社,東京都,新宿区,下落合１丁目５番９－７０９号,,13,104,1610033,,,,,,,2023-04-06,1,,,,,ミリパティ,0
1185,5011105010614,新規,0,2023-04-06,2023-04-06,弁護士法人四谷見附法律事務所,,その他の設立登記法人,東京都,新宿区,四谷三栄町４番１２号第２森初ビル４階,,13,104,1600008,,,,,,,2023-04-06,1,,,,,ヨツヤミツケホウリツジムショ,0
1187,5011201024550,新規,0,2023-04-06,2023-04-06,株式会社才起堂,,株式会社,東京都,中野区,中野２丁目１９－２・３Ｆ,,13,114,1640001,,,,,,,2023-04-06,1,,,,,サイキドウ,0
1188,5011301028591,新規,0,2023-04-06,2023-04-06,株式会社八剱,,株式会社,東京都,杉並区,天沼３丁目８番２号,,13,115,1670032,,,,,,,2023-04-06,1,,,,,ヤツルギ,0
1189,5011401025027,新規,0,2023-04-06,2023-04-06,ＳＩＣＫ株式会社,,株式会社,東京都,板橋区,向原１丁目２４番１５号,,13,119,1730036,,,,,,,2023-04-06,1,,,,,シック,0
1192,5011503005546,新規,0,2023-04-06,2023-04-06,合同会社ＰＷ,,合同会社,東京都,荒川区,西日暮里２丁目１８番１２－３０４号室,,13,118,1160013,,,,,,,2023-04-06,1,,,,,ピーダブリュー,0
1196,5012301013377,新規,0,2023-04-06,2023-04-06,ＡＹＳコンサルティング株式会社,,株式会社,東京都,町田市,小野路町１７５７番地２,,13,209,1950064,,,,,,,2023-04-06,1,,,,,アイズコンサルティング,0
1199,5012401040354,新規,0,2023-04-06,2023-04-06,インフィールド株式会社,,株式会社,東京都,小金井市,中町４丁目１８番１１号（１４）,,13,210,1840012,,,,,,,2023-04-06,1,,,,,インフィールド,0
1201,5012403005917,新規,0,2023-04-06,2023-04-06,東京協和合同会社,,合同会社,東京都,調布市,染地１丁目２９番地２８,,13,208,1820023,,,,,,,2023-04-06,1,,,,,トウキョウキョウワ,0
1204,5012701017572,新規,0,2023-04-06,2023-04-06,株式会社ヤザキプランニング,,株式会社,東京都,東久留米市,南沢３丁目７番１８号,,13,222,2030023,,,,,,,2023-04-06,1,,,,,ヤザキプランニング,0
1207,5012703002671,新規,0,2023-04-06,2023-04-06,合同会社メイブラウン,,合同会社,東京都,東久留米市,前沢３丁目９番８号,,13,222,2030032,,,,,,,2023-04-06,1,,,,,メイブラウン,0
1216,5020001150952,新規,0,2023-04-06,2023-04-06,株式会社ブロンドサンズ,,株式会社,神奈川県,横浜市港南区,港南台９丁目２４番１６号,,14,111,2340054,,,,,,,2023-04-06,1,,,,,ブロンドサンズ,0
1217,5020001150969,新規,0,2023-04-06,2023-04-06,株式会社ミライ・コミュニケーション,,株式会社,神奈川県,横浜市港北区,新横浜３丁目２番６号,,14,109,2220033,,,,,,,2023-04-06,1,,,,,ミライコミュニケーション,0
1218,5020001150993,新規,0,2023-04-06,2023-04-06,株式会社インプリメントジャパン,,株式会社,神奈川県,横浜市緑区,長津田町３０１６－１－１７１１,,14,113,2260026,,,,,,,2023-04-06,1,,,,,インプリメントジャパン,0
1222,5020003023652,新規,0,2023-04-06,2023-04-06,合同会社Ｔプルーフ,,合同会社,神奈川県,川崎市中原区,上平間１４０２番地５５,,14,133,2110013,,,,,,,2023-04-06,1,,,,,,0
1223,5020003023660,新規,0,2023-04-06,2023-04-06,合同会社ＳＴ　ＣＯＮＮＥＣＴ,,合同会社,神奈川県,横浜市磯子区,中原４丁目１６番３７号,,14,107,2350036,,,,,,,2023-04-06,1,,,,,エスティーコネクト,0
1226,5021001078589,新規,0,2023-04-06,2023-04-06,株式会社ＯＲＧＥ,,株式会社,神奈川県,厚木市,金田７６６－１サンシャトル２０６,,14,212,2430807,,,,,,,2023-04-06,1,,,,,オーガ,0
1227,5021001078597,新規,0,2023-04-06,2023-04-06,株式会社リビル,,株式会社,神奈川県,高座郡寒川町,一之宮９丁目５番１９－２号,,14,321,2530111,,,,,,,2023-04-06,1,,,,,リビル,0
1228,5021001078606,新規,0,2023-04-06,2023-04-06,株式会社スモールスイッチ,,株式会社,神奈川県,鎌倉市,二階堂１１５番地,,14,204,2480002,,,,,,,2023-04-06,1,,,,,スモールスイッチ,0
1229,5021001078614,新規,0,2023-04-06,2023-04-06,株式会社ワイズ,,株式会社,神奈川県,綾瀬市,深谷中１丁目２１番１９号,,14,218,2521107,,,,,,,2023-04-06,1,,,,,ワイズ,0
1230,5021001078639,新規,0,2023-04-06,2023-04-06,株式会社千年彫刻,,株式会社,神奈川県,鎌倉市,二階堂２４７番地１６,,14,204,2480002,,,,,,,2023-04-06,1,,,,,センネンチョウコク,0
1231,5021001078663,新規,0,2023-04-06,2023-04-06,株式会社ＲＩＺＩＮＧ,,株式会社,神奈川県,足柄上郡開成町,吉田島５８３番地１アークヒルズ佐須２０１,,14,366,2580021,,,,,,,2023-04-06,1,,,,,ライジング,0
1235,5021003012950,新規,0,2023-04-06,2023-04-06,合同会社ＲＫ,,合同会社,神奈川県,横須賀市,東浦賀２丁目２２番３６号,,14,201,2390821,,,,,,,2023-04-06,1,,,,,アルケイ,0
1236,5021005012775,新規,0,2023-04-06,2023-04-06,一般社団法人寒川建設業協会,,その他の設立登記法人,神奈川県,高座郡寒川町,宮山１４１番地１,,14,321,2530106,,,,,,,2023-04-06,1,,,,,サムカワケンセツギョウキョウカイ,0
1238,5030001153112,新規,0,2023-04-06,2023-04-06,株式会社Ａ‐ＫＩＴＥＣ,,株式会社,埼玉県,南埼玉郡宮代町,東姫宮２丁目１０番４号,,11,442,3450813,,,,,,,2023-04-06,1,,,,,アーキテック,0
1239,5030001153120,新規,0,2023-04-06,2023-04-06,株式会社いのしし,,株式会社,埼玉県,川口市,元郷２丁目１番１－１０１号,,11,203,3320011,,,,,,,2023-04-06,1,,,,,イノシシ,0
1240,5030001153129,新規,0,2023-04-06,2023-04-06,株式会社ケンプロ,,株式会社,埼玉県,越谷市,大字平方２４９３番地８,,11,222,3430002,,,,,,,2023-04-06,1,,,,,ケンプロ,0
1241,5030001153145,新規,0,2023-04-06,2023-04-06,株式会社Ｈｏｐｅｓ,,株式会社,埼玉県,白岡市,新白岡４丁目１４番地５ルネ・アイン９０８,,11,246,3490212,,,,,,,2023-04-06,1,,,,,ホープス,0
1242,5030005021199,新規,0,2023-04-06,2023-04-06,医療法人社団英修会,,その他の設立登記法人,埼玉県,三郷市,早稲田５丁目７番地７,,11,237,3410018,,,,,,,2023-04-06,1,,,,,エイシュウカイ,0
1243,5040001127791,新規,0,2023-04-06,2023-04-06,Ｃｌｉｍｂパートナーズ株式会社,,株式会社,千葉県,鎌ケ谷市,東中沢２丁目３番２１号,,12,224,2730112,,,,,,,2023-04-06,1,,,,,クラブパートナーズ,0
1244,5040001127817,新規,0,2023-04-06,2023-04-06,株式会社スタジオタイムＥＩＫＥＮ,,株式会社,千葉県,千葉市稲毛区,園生町９０２番地１ビラ園生１０１,,12,103,2630051,,,,,,,2023-04-06,1,,,,,スタジオタイムエイケン,0
1245,5040001127841,新規,0,2023-04-06,2023-04-06,ｓａｌｔｂｒｉｄｇｅ株式会社,,株式会社,千葉県,流山市,南流山６丁目２０番地の１３,,12,220,2700163,,,,,,,2023-04-06,1,,,,,ソルトブリッジ,0
1248,5040003022330,新規,0,2023-04-06,2023-04-06,合同会社ＡＮトレーダー,,合同会社,千葉県,船橋市,車方町２０３番地１,,12,204,2740051,,,,,,,2023-04-06,1,,,,,エイエヌトレーダー,0
1252,5050001052626,新規,0,2023-04-06,2023-04-06,株式会社ＣＲＥＡＳ,,株式会社,茨城県,ひたちなか市,大字東石川２５７７番地５１,,08,221,3120052,,,,,,,2023-04-06,1,,,,,クレアス,0
1254,5070001040273,新規,0,2023-04-06,2023-04-06,株式会社ようざんホールディングス,,株式会社,群馬県,藤岡市,上戸塚４０５番地２,,10,209,3750013,,,,,,,2023-04-06,1,,,,,ヨウザンホールディングス,0
1259,5080405007537,新規,0,2023-04-06,2023-04-06,医療法人志庵,,その他の設立登記法人,静岡県,浜松市西区,雄踏１丁目１２番１３号,,22,133,4310103,,,,,,,2023-04-06,1,,,,,シアン,0
1260,5090001018061,新規,0,2023-04-06,2023-04-06,株式会社ｍｅｓｏ,,株式会社,山梨県,中巨摩郡昭和町,西条５１２３番地,,19,384,4093866,,,,,,,2023-04-06,1,,,,,メソ,0
1266,5110003005014,新規,0,2023-04-06,2023-04-06,合同会社アイル,,合同会社,新潟県,上越市,安江１丁目３番１号２Ｆ,,15,222,9420041,,,,,,,2023-04-06,1,,,,,アイル,0
1273,5120001253654,新規,0,2023-04-06,2023-04-06,株式会社Ｙ＆Ｓａｔｏｈ,,株式会社,大阪府,大阪市北区,曾根崎２丁目７番１２号,,27,127,5300057,,,,,,,2023-04-06,1,,,,,ワイアンドサトウ,0
1274,5120001253662,新規,0,2023-04-06,2023-04-06,株式会社ＦＵＲＦＵＲＡＬ,,株式会社,大阪府,大阪市阿倍野区,昭和町２丁目１番１３号,,27,119,5450011,,,,,,,2023-04-06,1,,,,,フルフラール,0
1275,5120001253679,新規,0,2023-04-06,2023-04-06,株式会社Ｎハウス,,株式会社,大阪府,大阪市東成区,深江南３丁目２０番１７号,,27,115,5370002,,,,,,,2023-04-06,1,,,,,エヌハウス,0
1277,5120003023774,新規,0,2023-04-06,2023-04-06,合同会社えびす,,合同会社,大阪府,大阪市住吉区,清水丘２丁目４番１３号４０１号室,,27,120,5580033,,,,,,,2023-04-06,1,,,,,エビス,0
1281,5120101067260,新規,0,2023-04-06,2023-04-06,株式会社Ｓｔｅｌｌａ　Ｗｏｒｋｓ,,株式会社,大阪府,堺市南区,大庭寺９４６番地１泉北相互５号,,27,145,5900153,,,,,,,2023-04-06,1,,,,,ステラワークス,0
1283,5120905006447,新規,0,2023-04-06,2023-04-06,一般社団法人Ａｔｔｉｐｅｃｔ,,その他の設立登記法人,大阪府,吹田市,江坂町１丁目２３番１０１号大同生命江坂ビル１３階,,27,205,5640063,,,,,,,2023-04-06,1,,,,,アティペクト,0
1286,5122001036865,新規,0,2023-04-06,2023-04-06,Ｂａｔｈｔｅｃ株式会社,,株式会社,大阪府,大東市,新田東本町８番５４号,,27,218,5740054,,,,,,,2023-04-06,1,,,,,バステック,0
1290,5130001074026,新規,0,2023-04-06,2023-04-06,株式会社京都社会人囲碁会,,株式会社,京都府,京都市左京区,上高野畑ケ田町２０番地の４,,26,103,6060082,,,,,,,2023-04-06,1,,,,,キョウトシャカイジンイゴカイ,0
1295,5140001129613,新規,0,2023-04-06,2023-04-06,株式会社Ｒ,,株式会社,兵庫県,神戸市垂水区,舞子坂２丁目４番４２－３０１号,,28,108,6550044,,,,,,,2023-04-06,1,,,,,アール,0
1296,5140001129621,新規,0,2023-04-06,2023-04-06,株式会社ＥＦＦＯＲＴ,,株式会社,兵庫県,尼崎市,南武庫之荘９丁目１８番２２号,,28,202,6610033,,,,,,,2023-04-06,1,,,,,エフォート,0
1299,5140003018921,新規,0,2023-04-06,2023-04-06,ＧＯＯＤ　ＤＡＹ合同会社,,合同会社,兵庫県,神戸市北区,鈴蘭台東町９丁目９番９号,,28,109,6511112,,,,,,,2023-04-06,1,,,,,グッドデイ,0
1310,5180001155663,新規,0,2023-04-06,2023-04-06,株式会社みやび住建,,株式会社,愛知県,津島市,神守町字一丁田３５番地,,23,208,4960005,,,,,,,2023-04-06,1,,,,,ミヤビジュウケン,0
1311,5180001155696,新規,0,2023-04-06,2023-04-06,士輝工業株式会社,,株式会社,愛知県,名古屋市緑区,大高町字西丸根５３番地ファミール緑Ｃ棟２０３号,,23,114,4598001,,,,,,,2023-04-06,1,,,,,シキコウギョウ,0
1312,5180001155721,新規,0,2023-04-06,2023-04-06,ｔ．ｍ．ｃ　ｐｌａｎｎｉｎｇ株式会社,,株式会社,愛知県,名古屋市中区,新栄２丁目１番９号,,23,106,4600007,,,,,,,2023-04-06,1,,,,,ティーエムシープランニング,0
1315,5180005020161,新規,0,2023-04-06,2023-04-06,アリア税理士法人,,その他の設立登記法人,愛知県,大府市,中央町１丁目２００番地,,23,223,4740025,,,,,,,2023-04-06,1,,,,,アリア,0
1316,5180301037248,新規,0,2023-04-06,2023-04-06,株式会社あまの接骨院,,株式会社,愛知県,岡崎市,美合町字つむぎ南１番１,,23,202,4440802,,,,,,,2023-04-06,1,,,,,アマノセッコツイン,0
1319,5190001030304,新規,0,2023-04-06,2023-04-06,株式会社ＴＯＫＩＷＡホールディングス,,株式会社,三重県,四日市市,末広町１８番４号,,24,202,5100052,,,,,,,2023-04-06,1,,,,,トキワホールディングス,0
1320,5190003004289,新規,0,2023-04-06,2023-04-06,神谷興業合同会社,,合同会社,三重県,四日市市,西村町３１７番地４,,24,202,5121305,,,,,,,2023-04-06,1,,,,,カミヤコウギョウ,0
1330,5230001019771,新規,0,2023-04-06,2023-04-06,ＩＮＡＭＩ　ｂａｓｅ株式会社,,株式会社,富山県,南砺市,北川１７５７番地１,,16,210,9320226,,,,,,,2023-04-06,1,,,,,イナミベース,0
1333,5240001061302,新規,0,2023-04-06,2023-04-06,株式会社沼南ファーム,,株式会社,広島県,三原市,沼田東町両名４９５番地,,34,204,7230141,,,,,,,2023-04-06,1,,,,,ショウナンファーム,0
1334,5240001061310,新規,0,2023-04-06,2023-04-06,株式会社聖輝,,株式会社,広島県,呉市,押込５丁目４番３号,,34,202,7370915,,,,,,,2023-04-06,1,,,,,セイキ,0
1348,5290001101045,新規,0,2023-04-06,2023-04-06,株式会社ウォースターハンズ,,株式会社,福岡県,久留米市,櫛原町６４番地９,00129960,40,203,8300013,,,,,,,2023-04-06,1,,,,,ウォースターハンズ,0
1349,5290003013726,新規,0,2023-04-06,2023-04-06,合同会社Ｃａｒｒｙ　Ｂｅｅ,,合同会社,福岡県,糟屋郡志免町,片峰１丁目１番１０号,,40,343,8112245,,,,,,,2023-04-06,1,,,,,キャリービー,0
1350,5290003013742,新規,0,2023-04-06,2023-04-06,合同会社ファストリアルティ,,合同会社,福岡県,福岡市中央区,天神４丁目６番２８号天神ファーストビル７階,,40,133,8100001,,,,,,,2023-04-06,1,,,,,ファストリアルティ,0
1351,5290005018995,新規,0,2023-04-06,2023-04-06,一般社団法人九州半導体・デジタルイノベーション協議会,,その他の設立登記法人,福岡県,福岡市博多区,博多駅東２丁目１５番１９号ＫＳ・Ｔ駅東ビル３０２号,,40,132,8120013,,,,,,,2023-04-06,1,,,,,キュウシュウハンドウタイデジタルイノベージョンキョウギカイ,0
1357,5290803004379,新規,0,2023-04-06,2023-04-06,林商店合同会社,,合同会社,福岡県,北九州市小倉南区,企救丘６丁目２番２９号,,40,107,8020981,,,,,,,2023-04-06,1,,,,,ハヤシショウテン,0
1360,5320001019663,新規,0,2023-04-06,2023-04-06,森と水エナジー株式会社,,株式会社,大分県,宇佐市,院内町小稲２８５番地の２,,44,211,8720325,,,,,,,2023-04-06,1,,,,,モリトミズエナジー,0
1363,5330001030743,新規,0,2023-04-06,2023-04-06,株式会社ほけんのソムリエ,,株式会社,熊本県,熊本市中央区,水道町７番１６号,,43,101,8600844,,,,,,,2023-04-06,1,,,,,ホケンノソムリエ,0
1366,5340001025478,新規,0,2023-04-06,2023-04-06,株式会社ＡＴＡ,,株式会社,鹿児島県,大島郡徳之島町,諸田５３２番地１,,46,530,8917112,,,,,,,2023-04-06,1,,,,,エイティエイ,0
1376,5350001018266,新規,0,2023-04-06,2023-04-06,株式会社日高ホールディングス,00129969,株式会社,宮崎県,児湯郡川南町,大字川南２２６７６番地１,,45,405,8891301,,,,,,,2023-04-06,1,,,,,ヒダカホールディングス,0
1379,5360003012852,新規,0,2023-04-06,2023-04-06,合同会社トレス,,合同会社,沖縄県,浦添市,勢理客１丁目８番６号,,47,208,9012122,,,,,,,2023-04-06,1,,,,,トレス,0
1389,5380001033584,新規,0,2023-04-06,2023-04-06,株式会社立花空調,,株式会社,福島県,郡山市,富田町字舘南２０番地の２,,07,203,9638041,,,,,,,2023-04-06,1,,,,,タチバナクウチョウ,0
1392,5380005012700,新規,0,2023-04-06,2023-04-06,特定非営利活動法人大戸まちづくり協議会,,その他の設立登記法人,福島県,会津若松市,大戸町大字芦牧２４０番地の１,00129971,07,202,9695147,,,,,,,2023-04-06,1,,,,,オオトマチヅクリキョウギカイ,0
1393,5400005008316,新規,0,2023-04-06,2023-04-06,農事組合法人結楽々,,その他の設立登記法人,岩手県,奥州市,水沢字小中３４番地,,03,215,0230018,,,,,,,2023-04-06,1,,,,,ユララ,0
1395,5410001013450,新規,0,2023-04-06,2023-04-06,株式会社珈幸舎,,株式会社,秋田県,秋田市,川元山下町２番１号,,05,201,0100931,,,,,,,2023-04-06,1,,,,,コウコウシャ,0
1397,5430001088755,新規,0,2023-04-06,2023-04-06,エイチティープラス株式会社,,株式会社,北海道,札幌市中央区,南三条東４丁目３番地ＴＯＭＴＯＭビル２Ｆ,,01,101,0600053,,,,,,,2023-04-06,1,,,,,エイチティープラス,0
1398,5430001088763,新規,0,2023-04-06,2023-04-06,株式会社豊受海里,,株式会社,北海道,札幌市西区,発寒十五条２丁目６番３２号,,01,107,0630835,,,,,,,2023-04-06,1,,,,,トヨウケカイリ,0
1399,5430001088821,新規,0,2023-04-06,2023-04-06,株式会社長谷工業,,株式会社,北海道,札幌市北区,北三十九条西６丁目２番７号,,01,102,0010039,,,,,,,2023-04-06,1,,,,,ハセコウギョウ,0
1400,5430003014890,新規,0,2023-04-06,2023-04-06,合同会社レイニーフォレスト,,合同会社,北海道,札幌市中央区,南十八条西７丁目２番２５－９０１号,,01,101,0640918,,,,,,,2023-04-06,1,,,,,レイニーフォレスト,0
1402,5450001013942,新規,0,2023-04-06,2023-04-06,株式会社あぐりてーる,,株式会社,北海道,富良野市,西町２番１０号,,01,229,0760037,,,,,,,2023-04-06,1,,,,,アグリテール,0
1403,5450001013950,新規,0,2023-04-06,2023-04-06,株式会社花田組,,株式会社,北海道,旭川市,春光六条８丁目９番３７号,,01,204,0700876,,,,,,,2023-04-06,1,,,,,ハナダグミ,0
1408,5480001012058,新規,0,2023-04-06,2023-04-06,株式会社徳島揚重工翔賢,,株式会社,徳島県,徳島市,秋田町１丁目１８番地１,,36,201,7700934,,,,,,,2023-04-06,1,,,,,トクシマヨウジュウコウショウケン,0
1411,5480005006948,新規,0,2023-04-06,2023-04-06,一般社団法人三好林業イノベーションセンター,,その他の設立登記法人,徳島県,三好市,池田町マチ２５５１番地１,,36,208,7780002,,,,,,,2023-04-06,1,,,,,ミヨシリンギョウイノベーションセンター,0
1421,6010001234169,新規,0,2023-04-06,2023-04-06,株式会社ＰＨＢ,,株式会社,東京都,中央区,入船３丁目１番４号,,13,102,1040042,,,,,,,2023-04-06,1,,,,,ピィーエイチビィー,0
1422,6010001234193,新規,0,2023-04-06,2023-04-06,みずほイノベーション・フロンティア株式会社,,株式会社,東京都,千代田区,大手町１丁目５番５号,,13,101,1000004,,,,,,,2023-04-06,1,,,,,ミズホイノベーションフロンティア,0
1423,6010001234227,新規,0,2023-04-06,2023-04-06,株式会社Ｓｔａｎｄｏｕｔｓ,,株式会社,東京都,千代田区,神田須田町１丁目１８番アーバンスクエア神田ビル４階,,13,101,1010041,,,,,,,2023-04-06,1,,,,,スタンダウツ,0
1424,6010001234243,新規,0,2023-04-06,2023-04-06,エイドレット株式会社,,株式会社,東京都,文京区,小石川３丁目３４－７,,13,105,1120002,,,,,,,2023-04-06,1,,,,,エイドレット,0
1427,6010003040227,新規,0,2023-04-06,2023-04-06,アグリソーラー・ファーム合同会社,,合同会社,東京都,千代田区,神田練塀町３番地,,13,101,1010022,,,,,,,2023-04-06,1,,,,,アグリソーラーファーム,0
1434,6010401173504,新規,0,2023-04-06,2023-04-06,クオンタムリープ・グロース・イニシアティブ株式会社,,株式会社,東京都,港区,赤坂９丁目５番１２号パークサイドシックス５０２号,,13,103,1070052,,,,,,,2023-04-06,1,,,,,クオンタムリープグロースイニシアティブ,0
1435,6010401173512,新規,0,2023-04-06,2023-04-06,株式会社Ｔｓｕｍｕｇｕ,,株式会社,東京都,港区,浜松町２丁目２番１５号浜松町ダイヤビル２Ｆ,,13,103,1050013,,,,,,,2023-04-06,1,,,,,ツムグ,0
1438,6010403029860,新規,0,2023-04-06,2023-04-06,ＲＢソーラーバジル合同会社,,合同会社,東京都,港区,虎ノ門３丁目２２番１０－２０１号,,13,103,1050001,,,,,,,2023-04-06,1,,,,,アールビーソーラーバジル,0
1442,6010405021931,新規,0,2023-04-06,2023-04-06,一般社団法人障がい者生涯支援機構,,その他の設立登記法人,東京都,港区,芝４丁目６番１６号,,13,103,1080014,,,,,,,2023-04-06,1,,,,,ショウガイシャショウガイシエンキコウ,0
1443,6010405022021,新規,0,2023-04-06,2023-04-06,川奈特定目的会社,,その他の設立登記法人,東京都,港区,新橋５丁目５番１号,,13,103,1050004,,,,,,,2023-04-06,1,,,,,カワナ,0
1447,6010601062853,新規,0,2023-04-06,2023-04-06,ＴＯＵＴＯエンジニアリング株式会社,,株式会社,東京都,江東区,森下４丁目１０番８号,,13,108,1350004,,,,,,,2023-04-06,1,,,,,トウトエンジニアリング,0
1449,6010701044082,新規,0,2023-04-06,2023-04-06,リードテックケミカル株式会社,,株式会社,東京都,品川区,東大井１丁目１４番２４号,,13,109,1400011,,,,,,,2023-04-06,1,,,,,リードテックケミカル,0
1450,6010703006642,新規,0,2023-04-06,2023-04-06,ＨＫ　Ｗｏｒｋｓ合同会社,,合同会社,東京都,品川区,大崎５丁目９番９－２６０２号,,13,109,1410032,,,,,,,2023-04-06,1,,,,,エイチケーワークス,0
1451,6010703006650,新規,0,2023-04-06,2023-04-06,合同会社Ｖｅｒｉｔａｒｇｏ,,合同会社,東京都,品川区,東品川４丁目１２番１１－９０６号,,13,109,1400002,,,,,,,2023-04-06,1,,,,,ベリタルゴ,0
1452,6010705003497,新規,0,2023-04-06,2023-04-06,一般社団法人ダンデライオン,,その他の設立登記法人,東京都,品川区,南大井２丁目１０番６－１４０２号,,13,109,1400013,,,,,,,2023-04-06,1,,,,,ダンデライオン,0
1457,6010901052810,新規,0,2023-04-06,2023-04-06,株式会社Ａｎｄ‐Ｆｏｒ‐Ｍｏｒｅ,,株式会社,東京都,世田谷区,玉川３丁目１番１８－１００６号,,13,112,1580094,,,,,,,2023-04-06,1,,,,,アンドフォーモア,0
1458,6010901052835,新規,0,2023-04-06,2023-04-06,株式会社ブラックストーンズ,,株式会社,東京都,世田谷区,上用賀３丁目７番９号－８,,13,112,1580098,,,,,,,2023-04-06,1,,,,,ブラックストーンズ,0
1465,6011001153441,新規,0,2023-04-06,2023-04-06,株式会社天行健,,株式会社,東京都,目黒区,平町１丁目２０番７号マルベリー・平町１,,13,110,1520032,,,,,,,2023-04-06,1,,,,,テンコウケン,0
1466,6011001153508,新規,0,2023-04-06,2023-04-06,株式会社ＴＡＫＥＯホールディングス,,株式会社,東京都,渋谷区,代々木４丁目２６番１号,,13,113,1510053,,,,,,,2023-04-06,1,,,,,タケオホールディングス,0
1467,6011001153540,新規,0,2023-04-06,2023-04-06,株式会社オールドバレー,,株式会社,東京都,渋谷区,広尾５丁目１番２４号ＦｏｒｔＨｉｒｏｏ２０２,,13,113,1500012,,,,,,,2023-04-06,1,,,,,オールドバレー,0
1468,6011001153573,新規,0,2023-04-06,2023-04-06,株式会社グラウシェーレ,,株式会社,東京都,渋谷区,神宮前６丁目３３番１４号神宮ハイツ４０２,,13,113,1500001,,,,,,,2023-04-06,1,,,,,グラウシェーレ,0
1472,6011101102414,新規,0,2023-04-06,2023-04-06,株式会社ヒューマンシェアリングジャパン,,株式会社,東京都,新宿区,四谷３丁目７番地かつ新ビル４階Ａ号室,,13,104,1600004,,,,,,,2023-04-06,1,,,,,ヒューマンシェアリングジャパン,0
1473,6011103012891,新規,0,2023-04-06,2023-04-06,ブリッジソリューションズ合同会社,,合同会社,東京都,新宿区,西新宿３丁目５番１２－７０３号,,13,104,1600023,,,,,,,2023-04-06,1,,,,,ブリッジソリューションズ,0
1474,6011103012900,新規,0,2023-04-06,2023-04-06,クリスタルパートナーズ合同会社,,合同会社,東京都,新宿区,新小川町６番１８号,,13,104,1620814,,,,,,,2023-04-06,1,,,,,クリスタルパートナーズ,0
1479,6011405002244,新規,0,2023-04-06,2023-04-06,医療法人社団俊晃会,,その他の設立登記法人,東京都,板橋区,常盤台４丁目３６番１号丸山ビル１階,,13,119,1740071,,,,,,,2023-04-06,1,,,,,シュンコウカイ,0
1480,6011501029133,新規,0,2023-04-06,2023-04-06,ＳＫコンサルティング株式会社,,株式会社,東京都,荒川区,荒川５丁目１番１５号奥澤ビル２階,,13,118,1160002,,,,,,,2023-04-06,1,,,,,エスケーコンサルティング,0
1481,6011503005545,新規,0,2023-04-06,2023-04-06,合同会社初発,,合同会社,東京都,荒川区,西日暮里６丁目２９番１１号エル・アルカサル西日暮里２１１,,13,118,1160013,,,,,,,2023-04-06,1,,,,,ショハツ,0
1482,6011503005553,新規,0,2023-04-06,2023-04-06,伊藤塗装合同会社,,合同会社,東京都,北区,滝野川１丁目８番１０号,,13,117,1140023,,,,,,,2023-04-06,1,,,,,イトウトソウ,0
1484,6011601026699,新規,0,2023-04-06,2023-04-06,株式会社シエロ,,株式会社,東京都,練馬区,南大泉５丁目６番１３号,,13,120,1780064,,,,,,,2023-04-06,1,,,,,シエロ,0
1485,6011601026708,新規,0,2023-04-06,2023-04-06,株式会社陽,,株式会社,東京都,練馬区,練馬１丁目２０番９号,,13,120,1760001,,,,,,,2023-04-06,1,,,,,ハル,0
1487,6011603003878,新規,0,2023-04-06,2023-04-06,合同会社此方,,合同会社,東京都,練馬区,桜台３丁目３２番１０号メゾンドベルマーレ１０１,,13,120,1760002,,,,,,,2023-04-06,1,,,,,コナタ,0
1491,6012701017571,新規,0,2023-04-06,2023-04-06,株式会社前田測建,,株式会社,東京都,東久留米市,中央町１丁目６番５号,,13,222,2030054,,,,,,,2023-04-06,1,,,,,マエダソッケン,0
1492,6012703002670,新規,0,2023-04-06,2023-04-06,合同会社Ｒｏｕｔｅ,,合同会社,東京都,西東京市,中町２丁目３－４コーポむさしの４０２,,13,229,2020013,,,,,,,2023-04-06,1,,,,,ルート,0
1500,6020001150976,新規,0,2023-04-06,2023-04-06,株式会社ブルーメ,,株式会社,神奈川県,川崎市中原区,宮内３丁目１３番２０号,,14,133,2110051,,,,,,,2023-04-06,1,,,,,ブルーメ,0
1504,6020005015928,新規,0,2023-04-06,2023-04-06,医療法人さなだ医院,,その他の設立登記法人,神奈川県,横浜市鶴見区,鶴見中央４丁目２番３号,,14,101,2300051,,,,,,,2023-04-06,1,,,,,サナダイイン,0
1509,6021001078588,新規,0,2023-04-06,2023-04-06,株式会社ＭＧロジスティクス,,株式会社,神奈川県,平塚市,大神２０９１番地葉月ハイツＡ－２０１,,14,203,2540012,,,,,,,2023-04-06,1,,,,,エムジーロジスティクス,0
1510,6021001078596,新規,0,2023-04-06,2023-04-06,スクリーン印刷株式会社,,株式会社,神奈川県,秦野市,今泉台３丁目１０番地の１５,,14,211,2570018,,,,,,,2023-04-06,1,,,,,スクリーンインサツ,0
1511,6021001078605,新規,0,2023-04-06,2023-04-06,ＥｎｖｉｒｏＱｕｅｓｔ株式会社,,株式会社,神奈川県,相模原市南区,上鶴間６丁目１５番１７号,,14,153,2520302,,,,,,,2023-04-06,1,,,,,エンバイロクエスト,0
1512,6021001078621,新規,0,2023-04-06,2023-04-06,単気筒株式会社,,株式会社,神奈川県,藤沢市,鵠沼石上２丁目５番１号湘南鵠沼ＢＬＤ３Ｆ－Ｃ,,14,205,2510025,,,,,,,2023-04-06,1,,,,,タンキトウ,0
1513,6021001078638,新規,0,2023-04-06,2023-04-06,株式会社ＮＳ‐ＳＥＥＤ,,株式会社,神奈川県,相模原市南区,上鶴間７丁目１０番１２号,,14,153,2520302,,,,,,,2023-04-06,1,,,,,エヌエスシード,0
1515,6030001153128,新規,0,2023-04-06,2023-04-06,株式会社ＴＯＤＯＲＯＫＩ,,株式会社,埼玉県,朝霞市,大字溝沼１０４８番地の１３,,11,227,3510023,,,,,,,2023-04-06,1,,,,,トドロキ,0
1516,6030003021522,新規,0,2023-04-06,2023-04-06,合同会社Ｌ．Ｋ．Ｙｅｍｉｎｉ　Ｉｎｔｅｒｎａｔｉｏｎａｌ,,合同会社,埼玉県,狭山市,大字東三ツ木９３番地４,,11,215,3501302,,,,,,,2023-04-06,1,,,,,エルケーイェミニインターナショナル,0
1519,6040001127774,新規,0,2023-04-06,2023-04-06,株式会社ＳＯＬＩＤＵＳ,,株式会社,千葉県,市川市,原木２丁目１０番１号,,12,203,2720004,,,,,,,2023-04-06,1,,,,,ソリダス,0
1520,6040001127782,新規,0,2023-04-06,2023-04-06,ＡＩＣマネージメント株式会社,,株式会社,千葉県,市原市,五井西６丁目１番地１－１０１号,,12,219,2900038,,,,,,,2023-04-06,1,,,,,エーアイシーマネージメント,0
1521,6040001127799,新規,0,2023-04-06,2023-04-06,株式会社山田工業,,株式会社,千葉県,市原市,千種２丁目３番地１１,,12,219,2990109,,,,,,,2023-04-06,1,,,,,ヤマダコウギョウ,0
1522,6040001127849,新規,0,2023-04-06,2023-04-06,株式会社ＷｅｌｆａｒｅＣｏｏｒｄｉ,,株式会社,千葉県,佐倉市,弥勒町１１８番地,,12,212,2850038,,,,,,,2023-04-06,1,,,,,ウェルフェアコーディ,0
1523,6040003022354,新規,0,2023-04-06,2023-04-06,ラポレール合同会社,,合同会社,千葉県,市川市,新田４丁目６―７ハシモトビル３階,,12,203,2720035,,,,,,,2023-04-06,1,,,,,ラポレール,0
1525,6050001052591,新規,0,2023-04-06,2023-04-06,株式会社心結工業,,株式会社,茨城県,石岡市,国府４丁目５番６号,,08,205,3150014,,,,,,,2023-04-06,1,,,,,シンユウコウギョウ,0
1526,6050001052609,新規,0,2023-04-06,2023-04-06,株式会社粂原電気,,株式会社,茨城県,日立市,東金沢町２丁目２２番５号,,08,202,3160014,,,,,,,2023-04-06,1,,,,,クメハラデンキ,0
1527,6050001052625,新規,0,2023-04-06,2023-04-06,株式会社ベジ・ドリーム,,株式会社,茨城県,結城郡八千代町,大字塩本３１３番地１３,,08,521,3003501,,,,,,,2023-04-06,1,,,,,ベジドリーム,0
1528,6050005013243,新規,0,2023-04-06,2023-04-06,医療法人社団祥顕会,,その他の設立登記法人,茨城県,那珂郡東海村,大字舟石川９４４番地,,08,341,3191111,,,,,,,2023-04-06,1,,,,,ショウケンカイ,0
1537,6070001040280,新規,0,2023-04-06,2023-04-06,株式会社コー電気,,株式会社,群馬県,伊勢崎市,平井町１１８９番地３,,10,204,3792233,,,,,,,2023-04-06,1,,,,,コーデンキ,0
1538,6070001040289,新規,0,2023-04-06,2023-04-06,株式会社想育,,株式会社,群馬県,伊勢崎市,新栄町４０５９番地７,,10,204,3720038,,,,,,,2023-04-06,1,,,,,ソウイク,0
1539,6070003004886,新規,0,2023-04-06,2023-04-06,ＨＭＺ　ＪＡＰＡＮ合同会社,,合同会社,群馬県,館林市,緑町２丁目１８番３号沢浦マンション１０２号室,,10,207,3740025,,,,,,,2023-04-06,1,,,,,エイチエムゼッドジャパン,0
1543,6080001025553,新規,0,2023-04-06,2023-04-06,モクサンプレカット株式会社,,株式会社,静岡県,静岡市清水区,長崎１０００番地,,22,103,4240065,,,,,,,2023-04-06,1,,,,,モクサンプレカット,0
1546,6080101023894,新規,0,2023-04-06,2023-04-06,株式会社マキノ電気設備,,株式会社,静岡県,沼津市,五月町１０番３号ファミール櫛梨３０２号,00129967,22,203,4100044,,,,,,,2023-04-06,1,,,,,マキノデンキセツビ,0
1549,6080401026416,新規,0,2023-04-06,2023-04-06,株式会社トット建築,,株式会社,静岡県,浜松市中区,住吉１丁目４０番１１号２階,,22,131,4300906,,,,,,,2023-04-06,1,,,,,トットケンチク,0
1550,6080403004766,新規,0,2023-04-06,2023-04-06,小田電気合同会社,,合同会社,静岡県,浜松市浜北区,小松１１６２番地の１,,22,136,4340042,,,,,,,2023-04-06,1,,,,,オダデンキ,0
1553,6100001036300,新規,0,2023-04-06,2023-04-06,あずみ野ライスファーム株式会社,,株式会社,長野県,安曇野市,三郷明盛６３４番地３,,20,220,3998101,,,,,,,2023-04-06,1,,,,,アズミノライスファーム,0
1555,6100003006953,新規,0,2023-04-06,2023-04-06,ＤＧＩ合同会社,,合同会社,長野県,上伊那郡南箕輪村,１５５２番地６,,20,385,3994511,,,,,,,2023-04-06,1,,,,,ドリームグラブインターナショナル,0
1556,6110001037405,新規,0,2023-04-06,2023-04-06,株式会社横山製作所,,株式会社,新潟県,燕市,松橋１４１番地,,15,213,9591202,,,,,,,2023-04-06,1,,,,,ヨコヤマセイサクショ,0
1563,6120001253645,新規,0,2023-04-06,2023-04-06,株式会社ＤＥＬＡＹ,,株式会社,大阪府,大阪市西区,江戸堀１丁目２４番１２号ＴＡＴ江戸堀ビル１１Ｆ,,27,106,5500002,,,,,,,2023-04-06,1,,,,,ディレイ,0
1564,6120001253653,新規,0,2023-04-06,2023-04-06,株式会社Ｙ＆Ｙｕｂａ,,株式会社,大阪府,大阪市北区,曾根崎２丁目１６番２２号,,27,127,5300057,,,,,,,2023-04-06,1,,,,,ワイアンドユバ,0
1565,6120001253678,新規,0,2023-04-06,2023-04-06,株式会社天本工務店,,株式会社,大阪府,大阪市東成区,深江南３丁目２０番１７号,,27,115,5370002,,,,,,,2023-04-06,1,,,,,アマモトコウムテン,0
1566,6120001253694,新規,0,2023-04-06,2023-04-06,株式会社レーヴ,,株式会社,大阪府,門真市,常称寺町１７番１０号,,27,223,5710063,,,,,,,2023-04-06,1,,,,,レーヴ,0
1567,6120001253760,新規,0,2023-04-06,2023-04-06,株式会社ＳＨガード,,株式会社,大阪府,守口市,東町２丁目８番３号,,27,209,5700013,,,,,,,2023-04-06,1,,,,,エスエイチガード,0
1568,6120001253777,新規,0,2023-04-06,2023-04-06,保険ソクラテス株式会社,,株式会社,大阪府,大阪市中央区,博労町３丁目６番７号,,27,128,5410059,,,,,,,2023-04-06,1,,,,,ホケンソクラテス,0
1569,6120001253785,新規,0,2023-04-06,2023-04-06,株式会社嘉善性,,株式会社,大阪府,大阪市中央区,農人橋１丁目４番２８－４０２号,,27,128,5400011,,,,,,,2023-04-06,1,,,,,カゼンウジ,0
1571,6120003023732,新規,0,2023-04-06,2023-04-06,クリアノーブル合同会社,,合同会社,大阪府,大阪市北区,西天満４丁目１１番４号ビエラ老松５０３号,,27,127,5300047,,,,,,,2023-04-06,1,,,,,クリアノーブル,0
1572,6120003023773,新規,0,2023-04-06,2023-04-06,合同会社響,,合同会社,大阪府,大阪市西成区,天下茶屋２丁目１２番１０－１０１号,,27,122,5570014,,,,,,,2023-04-06,1,,,,,ヒビキ,0
1573,6120003023781,新規,0,2023-04-06,2023-04-06,はあとな合同会社,,合同会社,大阪府,大阪市住吉区,長居東３丁目１５番３５号,,27,120,5580004,,,,,,,2023-04-06,1,,,,,ハアトナ,0
1575,6120101067268,新規,0,2023-04-06,2023-04-06,オーギュエンスデザイン株式会社,,株式会社,大阪府,富田林市,若松町２丁目１番１０号（２０３）,,27,214,5840024,,,,,,,2023-04-06,1,,,,,オーギュエンスデザイン,0
1576,6120103005151,新規,0,2023-04-06,2023-04-06,合同会社ブレーン,,合同会社,大阪府,岸和田市,岡山町１７８番地の８岡山ハイツ２０２号,,27,202,5960814,,,,,,,2023-04-06,1,,,,,ブレーン,0
1578,6120901047337,新規,0,2023-04-06,2023-04-06,株式会社三枝通信設備,,株式会社,大阪府,吹田市,原町１丁目１番２０号,,27,205,5640004,,,,,,,2023-04-06,1,,,,,サエグサツウシンセツビ,0
1579,6120901047361,新規,0,2023-04-06,2023-04-06,株式会社リオンマネジメント,,株式会社,大阪府,池田市,石橋１丁目１３－３－３Ｆ,,27,204,5630032,,,,,,,2023-04-06,1,,,,,リオンマネジメント,0
1588,6130005016733,新規,0,2023-04-06,2023-04-06,医療法人社団松水会,,その他の設立登記法人,京都府,京都市右京区,梅津上田町５１番地１,,26,108,6150932,,,,,,,2023-04-06,1,,,,,ショウスイカイ,0
1593,6140001129620,新規,0,2023-04-06,2023-04-06,株式会社ＥＭＩ,,株式会社,兵庫県,尼崎市,瓦宮１丁目６番８号,,28,202,6610971,,,,,,,2023-04-06,1,,,,,エミ,0
1594,6140001129629,新規,0,2023-04-06,2023-04-06,日本管財ホールディングス株式会社,,株式会社,兵庫県,西宮市,六湛寺町９番１６号,,28,204,6620918,,,,,,,2023-04-06,1,,,,,ニホンカンザイホールディングス,0
1595,6140001129703,新規,0,2023-04-06,2023-04-06,株式会社Ｃａｌｌｉｇｒａｐｈｉａ　Ｊａｐａｎ,,株式会社,兵庫県,尼崎市,食満５丁目２２番３１－２号,,28,202,6610982,,,,,,,2023-04-06,1,,,,,カリグラフィアジャパン,0
1607,6180001155654,新規,0,2023-04-06,2023-04-06,株式会社Ｒｉｎａ　Ｃｏｒｐｏｒａｔｉｏｎ,,株式会社,愛知県,名古屋市熱田区,二番２丁目２０番４号,,23,109,4560052,,,,,,,2023-04-06,1,,,,,リーナコーポレーション,0
1608,6180001155662,新規,0,2023-04-06,2023-04-06,ＹＯＲＩＣＯＭ株式会社,,株式会社,愛知県,小牧市,大字岩崎２８０８番地,,23,219,4850011,,,,,,,2023-04-06,1,,,,,ヨリコム,0
1609,6180001155720,新規,0,2023-04-06,2023-04-06,株式会社日比野造園,,株式会社,愛知県,尾張旭市,吉岡町２丁目４番地７メルベーユ２０１号室,,23,226,4880827,,,,,,,2023-04-06,1,,,,,ヒビノゾウエン,0
1612,6180003024907,新規,0,2023-04-06,2023-04-06,合同会社ＳｐｅｓＴｅｃｈ,,合同会社,愛知県,名古屋市昭和区,御器所町字木市２９番,,23,107,4660061,,,,,,,2023-04-06,1,,,,,スペステック,0
1613,6180003025054,新規,0,2023-04-06,2023-04-06,ＩＴ’Ｓ　ＳＨＯＷＴＩＭＥ合同会社,,合同会社,愛知県,名古屋市中村区,名駅４丁目２４‐５第２森ビル４Ｆ,,23,105,4500002,,,,,,,2023-04-06,1,,,,,イッツショウタイム,0
1614,6180003025070,新規,0,2023-04-06,2023-04-06,西部会計サポート合同会社,,合同会社,愛知県,一宮市,平和２丁目９番１号,,23,203,4910905,,,,,,,2023-04-06,1,,,,,ニシブカイケイサポート,0
1616,6180301037230,新規,0,2023-04-06,2023-04-06,株式会社自由探検,,株式会社,愛知県,岡崎市,真伝吉祥２丁目２６番地１４,,23,202,4443176,,,,,,,2023-04-06,1,,,,,ジユウタンケン,0
1617,6180301037247,新規,0,2023-04-06,2023-04-06,株式会社ＣＲＡＹＯＮ　ＴＯＷＮ,,株式会社,愛知県,豊橋市,西高師町字白山２８番地４,,23,201,4418154,,,,,,,2023-04-06,1,,,,,クレヨンタウン,0
1618,6180301037263,新規,0,2023-04-06,2023-04-06,株式会社コア電機,,株式会社,愛知県,安城市,三河安城南町１丁目９番地７,,23,212,4460058,,,,,,,2023-04-06,1,,,,,コアデンキ,0
1619,6180303005672,新規,0,2023-04-06,2023-04-06,合同会社レオプス,,合同会社,愛知県,碧南市,栄町１丁目２６番地ＪｏｕｅｒＶｉｌｌａＣｏｃｏ　Ｂ号室,,23,209,4470877,,,,,,,2023-04-06,1,,,,,レオプス,0
1620,6190001030303,新規,0,2023-04-06,2023-04-06,株式会社松原,,株式会社,三重県,鈴鹿市,三日市２丁目１１番１４号,,24,207,5130807,,,,,,,2023-04-06,1,,,,,マツバラ,0
1628,6220005008738,新規,0,2023-04-06,2023-04-06,一般社団法人よりそう,,その他の設立登記法人,石川県,金沢市,四十万４丁目１０３番地,,17,201,9218135,,,,,,,2023-04-06,1,,,,,ヨリソウ,0
1629,6230001019770,新規,0,2023-04-06,2023-04-06,佐伯加工株式会社,,株式会社,富山県,富山市,東老田５３９番地２号,,16,201,9300161,,,,,,,2023-04-06,1,,,,,サエキカコウ,0
1634,6240001061292,新規,0,2023-04-06,2023-04-06,株式会社Ｒ’ｓ,,株式会社,広島県,広島市中区,胡町３－６ジュエル胡館５階,,34,101,7300021,,,,,,,2023-04-06,1,,,,,アールズ,0
1640,6260001037803,新規,0,2023-04-06,2023-04-06,株式会社グリーンフィールドワークス,,株式会社,岡山県,勝田郡勝央町,小矢田２５７番地,,33,622,7094313,,,,,,,2023-04-06,1,,,,,グリーンフィールドワークス,0
1641,6260001037811,新規,0,2023-04-06,2023-04-06,馬場農園株式会社,,株式会社,岡山県,瀬戸内市,牛窓町長浜６８７３番地８７,,33,212,7014301,,,,,,,2023-04-06,1,,,,,ババノウエン,0
1649,6290001101028,新規,0,2023-04-06,2023-04-06,株式会社ＴＨＰインターナショナル,,株式会社,福岡県,福岡市中央区,薬院４丁目１４番１－２００３号,,40,133,8100022,,,,,,,2023-04-06,1,,,,,ティーエイチピーインターナショナル,0
1650,6290001101036,新規,0,2023-04-06,2023-04-06,矢部鉄筋工業株式会社,,株式会社,福岡県,柳川市,吉富町７３６番地８,,40,207,8320055,,,,,,,2023-04-06,1,,,,,ヤベテッキンコウギョウ,0
1651,6290001101069,新規,0,2023-04-06,2023-04-06,株式会社Ｎ空調,,株式会社,福岡県,福岡市東区,唐原２丁目１０番１３号,,40,131,8130001,,,,,,,2023-04-06,1,,,,,エヌクウチョウ,0
1652,6290001101085,新規,0,2023-04-06,2023-04-06,株式会社ＴＹＲ,,株式会社,福岡県,福岡市博多区,中洲５丁目３番２０－１３０１号,,40,132,8100801,,,,,,,2023-04-06,1,,,,,ティーワイアール,0
1653,6290001101093,新規,0,2023-04-06,2023-04-06,株式会社ルクス,,株式会社,福岡県,福岡市中央区,高砂２丁目６番２号,,40,133,8100011,,,,,,,2023-04-06,1,,,,,ルクス,0
1654,6290001101102,新規,0,2023-04-06,2023-04-06,株式会社末安商会,,株式会社,福岡県,朝倉市,堤１７２０番地６,,40,228,8380062,,,,,,,2023-04-06,1,,,,,スエヤスショウカイ,0
1655,6290001101119,新規,0,2023-04-06,2023-04-06,株式会社ライフ・クリーンサービス,,株式会社,福岡県,福岡市中央区,平尾３丁目２５番１号,,40,133,8100014,,,,,,,2023-04-06,1,,,,,ライフクリーンサービス,0
1656,6290001101135,新規,0,2023-04-06,2023-04-06,株式会社タカコーポレーション,,株式会社,福岡県,福岡市東区,松島４丁目２番２５－７１０号,,40,131,8130062,,,,,,,2023-04-06,1,,,,,タカコーポレーション,0
1660,6290801029419,新規,0,2023-04-06,2023-04-06,株式会社入口工業,,株式会社,福岡県,北九州市小倉北区,熊谷１丁目２９番３４号,,40,106,8030864,,,,,,,2023-04-06,1,,,,,イリグチコウギョウ,0
1661,6290801029427,新規,0,2023-04-06,2023-04-06,株式会社ＭＡＴＳＵＹＡＭＡ,,株式会社,福岡県,北九州市小倉南区,企救丘３丁目４番９号,,40,107,8020981,,,,,,,2023-04-06,1,,,,,マツヤマ,0
1668,6320005010064,新規,0,2023-04-06,2023-04-06,一般社団法人おおいたＳＴＥＡＭ教育研究会,,その他の設立登記法人,大分県,大分市,敷戸台２丁目９番１０号,,44,201,8701106,,,,,,,2023-04-06,1,,,,,オオイタスチームキョウイクケンキュウカイ,0
1671,6330003009792,新規,0,2023-04-06,2023-04-06,合同会社ベルモア,,合同会社,熊本県,八代市,大村町８００番地８ＲＯＯＴＳビル２０１,,43,202,8660895,,,,,,,2023-04-06,1,,,,,ベルモア,0
1677,6340005009583,新規,0,2023-04-06,2023-04-06,一般社団法人ミライテラス．,,その他の設立登記法人,鹿児島県,鹿児島市,明和１丁目２５番１号,,46,201,8900024,,,,,,,2023-04-06,1,,,,,ミライテラス,0
1682,6360001031804,新規,0,2023-04-06,2023-04-06,ミライエ株式会社,,株式会社,沖縄県,宜野湾市,長田３丁目２５番１０－１０３号トミーハウス,,47,205,9012212,,,,,,,2023-04-06,1,,,,,ミライエ,0
1696,6380005012699,新規,0,2023-04-06,2023-04-06,社会保険労務士法人いわき労働協会,,その他の設立登記法人,福島県,いわき市,小名浜玉川町南７番地の１,,07,204,9718127,,,,,,,2023-04-06,1,,,,,イワキロウドウキョウカイ,0
1698,6390003002065,新規,0,2023-04-06,2023-04-06,合同会社ＡＭＢＥＲ,,合同会社,山形県,山形市,新開２丁目８－１２,,06,201,9902164,,,,,,,2023-04-06,1,,,,,アンバー,0
1701,6400001016189,新規,0,2023-04-06,2023-04-06,株式会社ＰＬＵＳ　ＬＩＮＫ,,株式会社,岩手県,盛岡市,大通２丁目６番８号セントラルガーデンスクエア４０４,,03,201,0200022,,,,,,,2023-04-06,1,,,,,プラスリンク,0
1702,6400003003053,新規,0,2023-04-06,2023-04-06,アソビット合同会社,,合同会社,岩手県,盛岡市,西松園４丁目３１番３号,,03,201,0200103,,,,,,,2023-04-06,1,,,,,,0
1707,6430001088762,新規,0,2023-04-06,2023-04-06,インフィニティサイエンス株式会社,,株式会社,北海道,札幌市白石区,南郷通８丁目北２番２８号,,01,104,0030023,,,,,,,2023-04-06,1,,,,,インフィニティサイエンス,0
1708,6430001088770,新規,0,2023-04-06,2023-04-06,株式会社エムツーケイ,,株式会社,北海道,札幌市東区,北三十四条東１８丁目１番２０号,,01,103,0070834,,,,,,,2023-04-06,1,,,,,エムツーケイ,0
1709,6430003014898,新規,0,2023-04-06,2023-04-06,ＩＤＥＡＬ合同会社,,合同会社,北海道,札幌市北区,百合が原６丁目２番２５－６０８号,,01,102,0028081,,,,,,,2023-04-06,1,,,,,アイディアル,0
1715,6470003002387,新規,0,2023-04-06,2023-04-06,合同会社柴田調査測量事務所,,合同会社,香川県,高松市,藤塚町１丁目７番２１号,,37,201,7600071,,,,,,,2023-04-06,1,,,,,シバタチョウサソクリョウジムショ,0
1726,7010001234168,新規,0,2023-04-06,2023-04-06,株式会社ｆｉｎａｌ,,株式会社,東京都,千代田区,岩本町２丁目４番５号,,13,101,1010032,,,,,,,2023-04-06,1,,,,,ファイナル,0
1727,7010001234184,新規,0,2023-04-06,2023-04-06,株式会社ＡＧＳ　ＦＡＳ,,株式会社,東京都,千代田区,大手町１丁目９番５号大手町フィナンシャルシティノースタワー,,13,101,1000004,,,,,,,2023-04-06,1,,,,,エイジーエスファス,0
1732,7010005036445,新規,0,2023-04-06,2023-04-06,監査法人みさご,,その他の設立登記法人,東京都,千代田区,神田須田町１番地１６ＲＡＸＡ神田須田町４階,,13,101,1000000,,,,,,,2023-04-06,1,,,,,ミサゴ,0
1733,7010005036453,新規,0,2023-04-06,2023-04-06,特定非営利活動法人こどもプログラミング普及委員会,,その他の設立登記法人,東京都,千代田区,平河町１丁目６番１５号ＵＳビル８Ｆ,,13,101,1020093,,,,,,,2023-04-06,1,,,,,コドモプログラミングフキュウイインカイ,0
1738,7010401173486,新規,0,2023-04-06,2023-04-06,株式会社ＦＯＲ　ＪＡＰＡＮ,,株式会社,東京都,港区,南青山２丁目２６番３７号Ｖｏｒｔ外苑前Ｉ７Ｆ,00129964,13,103,1070062,,,,,,,2023-04-06,1,,,,,フォージャパン,0
1739,7010403029843,新規,0,2023-04-06,2023-04-06,ＬｅＡｐ合同会社,,合同会社,東京都,港区,浜松町２丁目２番１５号浜松町ダイヤビル２Ｆ,,13,103,1050013,,,,,,,2023-04-06,1,,,,,リープ,0
1741,7010405022012,新規,0,2023-04-06,2023-04-06,ＲＢソーラーバジルホールディングス一般社団法人,,その他の設立登記法人,東京都,港区,虎ノ門３丁目２２番１０－２０１号,,13,103,1050001,,,,,,,2023-04-06,1,,,,,アールビーソーラーバジルホールディングス,0
1745,7010601062852,新規,0,2023-04-06,2023-04-06,株式会社マン・ワークス,,株式会社,東京都,江東区,新大橋２丁目１１番５号ＳＳＣビル１Ｆ,,13,108,1350007,,,,,,,2023-04-06,1,,,,,マンワークス,0
1748,7010701044073,新規,0,2023-04-06,2023-04-06,株式会社ＵＮＩＴ,,株式会社,東京都,品川区,西五反田１丁目２６番２号五反田サンハイツ９１１,,13,109,1410031,,,,,,,2023-04-06,1,,,,,ユニット,0
1749,7010701044081,新規,0,2023-04-06,2023-04-06,株式会社ウィルコンダクター,,株式会社,東京都,品川区,西五反田３丁目１１番２号,,13,109,1410031,,,,,,,2023-04-06,1,,,,,ウィルコンダクター,0
1756,7011001153507,新規,0,2023-04-06,2023-04-06,株式会社グランビア,,株式会社,東京都,目黒区,目黒１丁目３番１６－９０４号,,13,110,1530063,,,,,,,2023-04-06,1,,,,,グランビア,0
1757,7011001153531,新規,0,2023-04-06,2023-04-06,株式会社ＲＩＣＯＬ,,株式会社,東京都,渋谷区,渋谷２丁目１９番１５号宮益坂ビルディング６０９,,13,113,1500002,,,,,,,2023-04-06,1,,,,,リコル,0
1758,7011001153556,新規,0,2023-04-06,2023-04-06,株式会社ＡＮＴＥ,,株式会社,東京都,渋谷区,上原２丁目１９番１９号,,13,113,1510064,,,,,,,2023-04-06,1,,,,,アンテ,0
1759,7011001153564,新規,0,2023-04-06,2023-04-06,Ｎｉｒｖａｎａ株式会社,,株式会社,東京都,渋谷区,神宮前６丁目２５番８号神宮前コーポラス４０２号室,,13,113,1500001,,,,,,,2023-04-06,1,,,,,ニルバーナ,0
1762,7011003016562,新規,0,2023-04-06,2023-04-06,合同会社ｋｉｔｓｕｎｅ,,合同会社,東京都,目黒区,大橋１丁目５番１－１２２０号,,13,110,1530044,,,,,,,2023-04-06,1,,,,,キツネ,0
1768,7011101102413,新規,0,2023-04-06,2023-04-06,ＳＧトランスポート株式会社,,株式会社,東京都,新宿区,大久保３丁目９－５－１００４,,13,104,1690072,,,,,,,2023-04-06,1,,,,,エスジートランスポート,0
1769,7011101102421,新規,0,2023-04-06,2023-04-06,株式会社Ｐｅｎｇｕｉｎｓｏｕｎｄｓ,,株式会社,東京都,新宿区,西新宿３丁目３番１３号西新宿水間ビル６階,,13,104,1600023,,,,,,,2023-04-06,1,,,,,ペンギンサウンズ,0
1772,7011103012890,新規,0,2023-04-06,2023-04-06,合同会社リクリエイトプラン,,合同会社,東京都,新宿区,西新宿３丁目３番１３号西新宿水間ビル２Ｆ,,13,104,1600023,,,,,,,2023-04-06,1,,,,,リクリエイトプラン,0
1774,7011105010612,新規,0,2023-04-06,2023-04-06,一般社団法人日本プラスチック機械工業会,,その他の設立登記法人,東京都,新宿区,四谷２丁目１１番１５号ＪＬＢグランエクリュ四谷６Ｆ,,13,104,1600004,,,,,,,2023-04-06,1,,,,,ニホンプラスチックキカイコウギョウカイ,0
1776,7011201024540,新規,0,2023-04-06,2023-04-06,株式会社ＢＬＯＯＭ,,株式会社,東京都,中野区,中野５丁目６７番７号プラザ中野８０１,,13,114,1640001,,,,,,,2023-04-06,1,,,,,ブルーム,0
1780,7011501029124,新規,0,2023-04-06,2023-04-06,城北研磨サービス株式会社,,株式会社,東京都,北区,東十条３丁目１０番３－４０５号,,13,117,1140001,,,,,,,2023-04-06,1,,,,,ジョウホクケンマサービス,0
1781,7011503005544,新規,0,2023-04-06,2023-04-06,合同会社コントロール,,合同会社,東京都,北区,赤羽南１丁目５番７号,,13,117,1150044,,,,,,,2023-04-06,1,,,,,コントロール,0
1789,7012701017570,新規,0,2023-04-06,2023-04-06,株式会社ＷｅｓｔＷｉｎｇ,,株式会社,東京都,東村山市,青葉町１丁目２６番地２９,,13,213,1890002,,,,,,,2023-04-06,1,,,,,ウエストウイング,0
1790,7012803003048,新規,0,2023-04-06,2023-04-06,合同会社東企画,,合同会社,東京都,国分寺市,西元町１丁目１番３２号国分寺ゼルクハウス４１８,,13,214,1850023,,,,,,,2023-04-06,1,,,,,アズマキカク,0
1792,7013301050540,新規,0,2023-04-06,2023-04-06,株式会社Ｓｔａｒｌｉｇｈｔ,,株式会社,東京都,豊島区,池袋２丁目４０番地１３号,,13,116,1710014,,,,,,,2023-04-06,1,,,,,スターライト,0
1795,7020001150926,新規,0,2023-04-06,2023-04-06,株式会社つなぎや商店,,株式会社,神奈川県,横浜市西区,平沼２丁目９番１１－２０３号,,14,103,2200023,,,,,,,2023-04-06,1,,,,,ツナギヤショウテン,0
1796,7020001150983,新規,0,2023-04-06,2023-04-06,株式会社エイト,,株式会社,神奈川県,横浜市南区,平楽１１７番地２１,,14,105,2320035,,,,,,,2023-04-06,1,,,,,エイト,0
1797,7020001151024,新規,0,2023-04-06,2023-04-06,株式会社ジェイリンク,,株式会社,神奈川県,横浜市西区,北幸１丁目１１番１号水信ビル７階,,14,103,2200004,,,,,,,2023-04-06,1,,,,,ジェイリンク,0
1799,7020003023634,新規,0,2023-04-06,2023-04-06,合同会社シンク,,合同会社,神奈川県,横浜市戸塚区,矢部町９４４番地８,,14,110,2440002,,,,,,,2023-04-06,1,,,,,シンク,0
1800,7020003023650,新規,0,2023-04-06,2023-04-06,合同会社横浜企画,,合同会社,神奈川県,横浜市中区,扇町１丁目１番２５号キンガビル,,14,104,2310027,,,,,,,2023-04-06,1,,,,,ヨコハマキカク,0
1803,7021001078579,新規,0,2023-04-06,2023-04-06,明商社株式会社,,株式会社,神奈川県,藤沢市,長後７２１鈴木荘２階,,14,205,2520801,,,,,,,2023-04-06,1,,,,,アキラショウシャ,0
1804,7021001078587,新規,0,2023-04-06,2023-04-06,株式会社Ｎｏａ,,株式会社,神奈川県,相模原市中央区,淵野辺１丁目２番３８号タケモトビル１０１号室,,14,152,2520206,,,,,,,2023-04-06,1,,,,,ノア,0
1805,7021001078604,新規,0,2023-04-06,2023-04-06,株式会社イーリオ,,株式会社,神奈川県,茅ヶ崎市,緑が浜７番５８号,,14,207,2530034,,,,,,,2023-04-06,1,,,,,イーリオ,0
1806,7021001078612,新規,0,2023-04-06,2023-04-06,フレアーナガオホールディングス株式会社,,株式会社,神奈川県,厚木市,上依知１２７５,,14,212,2430801,,,,,,,2023-04-06,1,,,,,フレアーナガオホールディングス,0
1807,7021001078645,新規,0,2023-04-06,2023-04-06,株式会社アヴィステラ,,株式会社,神奈川県,茅ヶ崎市,松が丘１丁目１－７７－４０７,,14,207,2530025,,,,,,,2023-04-06,1,,,,,アヴィステラ,0
1810,7021003012940,新規,0,2023-04-06,2023-04-06,合同会社泰平,,合同会社,神奈川県,海老名市,本郷１２８０番地,,14,215,2430417,,,,,,,2023-04-06,1,,,,,タイヘイ,0
1811,7021003012949,新規,0,2023-04-06,2023-04-06,Ｇ＆Ｃ合同会社,,合同会社,神奈川県,大和市,中央７丁目１番２６号,,14,213,2420021,,,,,,,2023-04-06,1,,,,,ジーアンドシー,0
1812,7021005012773,新規,0,2023-04-06,2023-04-06,医療法人しろた歯科,,その他の設立登記法人,神奈川県,鎌倉市,台３丁目９番２９号トムグレース鎌倉１階,,14,204,2470061,,,,,,,2023-04-06,1,,,,,シロタシカ,0
1813,7021005012781,新規,0,2023-04-06,2023-04-06,一般社団法人ＭＩＵＲＡ・ＭＩＲＡＩ,,その他の設立登記法人,神奈川県,三浦市,海外町１５番１４号,,14,210,2380245,,,,,,,2023-04-06,1,,,,,ミウラミライ,0
1816,7030001153151,新規,0,2023-04-06,2023-04-06,株式会社エンキュー,,株式会社,埼玉県,蓮田市,関山１丁目１番１０号,,11,238,3490121,,,,,,,2023-04-06,1,,,,,エンキュー,0
1821,7030003021496,新規,0,2023-04-06,2023-04-06,テトラピーク合同会社,,合同会社,埼玉県,所沢市,日吉町６番７号,,11,208,3591123,,,,,,,2023-04-06,1,,,,,テトラピーク,0
1822,7030003021521,新規,0,2023-04-06,2023-04-06,合同会社２１６,,合同会社,埼玉県,さいたま市北区,大成町４丁目３３３番地２０１,,11,102,3310815,,,,,,,2023-04-06,1,,,,,ツトム,0
1828,7040001127716,新規,0,2023-04-06,2023-04-06,隆拓株式会社,,株式会社,千葉県,木更津市,清川２丁目３番６号Ｂ室,,12,206,2920051,,,,,,,2023-04-06,1,,,,,リュウタク,0
1829,7040001127848,新規,0,2023-04-06,2023-04-06,株式会社ＩＮＮＥＲ　ＭＯＡＴ,,株式会社,千葉県,柏市,戸張１０２１番地６,,12,217,2770008,,,,,,,2023-04-06,1,,,,,インナーモート,0
1833,7070001040288,新規,0,2023-04-06,2023-04-06,株式会社四分六,,株式会社,群馬県,前橋市,石倉町３丁目１３番地３前橋マンション８０２,,10,201,3710841,,,,,,,2023-04-06,1,,,,,シブロク,0
1834,7070003004893,新規,0,2023-04-06,2023-04-06,合同会社東設備,,合同会社,群馬県,伊勢崎市,連取元町３６番地７,,10,204,3720818,,,,,,,2023-04-06,1,,,,,ヒガシセツビ,0
1836,7080003002954,新規,0,2023-04-06,2023-04-06,Ｒ‐ｏｎｅ商店合同会社,,合同会社,静岡県,牧之原市,地頭方４１５番地７サン２０１,,22,226,4210532,,,,,,,2023-04-06,1,,,,,アールワンショウテン,0
1841,7080105006325,新規,0,2023-04-06,2023-04-06,一般社団法人白浜ＯＣＥＡＮ管理機構,,その他の設立登記法人,静岡県,下田市,白浜２７４５番地の１,,22,219,4150012,,,,,,,2023-04-06,1,,,,,シラハマオーシャンカンリキコウ,0
1844,7090001018051,新規,0,2023-04-06,2023-04-06,株式会社ＺＯＵ,,株式会社,山梨県,富士吉田市,富士見２丁目１番８－１号,,19,202,4030009,,,,,,,2023-04-06,1,,,,,ゾウ,0
1845,7100001036290,新規,0,2023-04-06,2023-04-06,株式会社プレゼント,,株式会社,長野県,松本市,大字島内４２７２番地３７,,20,202,3900851,,,,,,,2023-04-06,1,,,,,プレゼント,0
1850,7110003005012,新規,0,2023-04-06,2023-04-06,合同会社アトリエ住まいる,,合同会社,新潟県,上越市,藤新田２丁目４番１８号,,15,222,9430816,,,,,,,2023-04-06,1,,,,,アトリエスマイル,0
1859,7120001253636,新規,0,2023-04-06,2023-04-06,ＡＸＩＳＩＡ株式会社,,株式会社,大阪府,大阪市淀川区,西中島５丁目１番８号日研ビル６０３号室,,27,123,5320011,,,,,,,2023-04-06,1,,,,,アクシーア,0
1860,7120001253644,新規,0,2023-04-06,2023-04-06,株式会社美貴建設,,株式会社,大阪府,寝屋川市,対馬江東町１１番１８－２０２号,,27,215,5720064,,,,,,,2023-04-06,1,,,,,ミタカケンセツ,0
1861,7120001253710,新規,0,2023-04-06,2023-04-06,株式会社はちわれ,,株式会社,大阪府,枚方市,津田西町３丁目１６番１０号,,27,210,5730126,,,,,,,2023-04-06,1,,,,,ハチワレ,0
1862,7120001253751,新規,0,2023-04-06,2023-04-06,株式会社ＮＮ,,株式会社,大阪府,大阪市西淀川区,姫島５丁目４番２１号,,27,113,5550033,,,,,,,2023-04-06,1,,,,,エヌエヌ,0
1863,7120001253768,新規,0,2023-04-06,2023-04-06,ＪＦ保証株式会社,,株式会社,大阪府,大阪市北区,鶴野町１番３号,,27,127,5300014,,,,,,,2023-04-06,1,,,,,ジェイエフホショウ,0
1864,7120001253776,新規,0,2023-04-06,2023-04-06,株式会社ユウヒ鐵工所,,株式会社,大阪府,大阪市住之江区,北加賀屋４丁目４番１０号,,27,125,5590011,,,,,,,2023-04-06,1,,,,,ユウヒテッコウショ,0
1865,7120001253784,新規,0,2023-04-06,2023-04-06,ＰＲＯＶＥＲＢ株式会社,,株式会社,大阪府,大阪市北区,中津２丁目９番４８号ユニハイム梅田ノルテ９０５,,27,127,5310071,,,,,,,2023-04-06,1,,,,,プラヴァー,0
1866,7120001253801,新規,0,2023-04-06,2023-04-06,株式会社原状回復パートナーズ,,株式会社,大阪府,大阪市北区,西天満４丁目３番１１号,,27,127,5300047,,,,,,,2023-04-06,1,,,,,ゲンジョウカイフクパートナーズ,0
1869,7120003023756,新規,0,2023-04-06,2023-04-06,合同会社Ｏｎｅ　ｆｏｒ　Ａｌｌ,,合同会社,大阪府,門真市,打越町２番１０号,,27,223,5710029,,,,,,,2023-04-06,1,,,,,ワンフォーオール,0
1870,7120003023780,新規,0,2023-04-06,2023-04-06,合同会社ウェブアドプランニング,,合同会社,大阪府,大阪市北区,梅田１丁目２番２号大阪駅前第２ビル１２－１２,,27,127,5300001,,,,,,,2023-04-06,1,,,,,ウェブアドプランニング,0
1875,7120101067275,新規,0,2023-04-06,2023-04-06,株式会社さくらコーポレーション,,株式会社,大阪府,堺市中区,平井１２９番地１,,27,142,5998251,,,,,,,2023-04-06,1,,,,,サクラコーポレーション,0
1876,7120101067283,新規,0,2023-04-06,2023-04-06,株式会社山本電設,,株式会社,大阪府,河内長野市,楠ケ丘３９番２９号,,27,216,5860039,,,,,,,2023-04-06,1,,,,,ヤマモトデンセツ,0
1879,7120901047344,新規,0,2023-04-06,2023-04-06,小林総合株式会社,,株式会社,大阪府,豊中市,庄内西町３丁目２番９号,,27,203,5610832,,,,,,,2023-04-06,1,,,,,コバヤシソウゴウ,0
1883,7122001036863,新規,0,2023-04-06,2023-04-06,株式会社鵜瀬鉄工所,,株式会社,大阪府,八尾市,竹渕１丁目２３２番地,,27,212,5810052,,,,,,,2023-04-06,1,,,,,ウセテッコウショ,0
1885,7130001073991,新規,0,2023-04-06,2023-04-06,株式会社神足制御設計,,株式会社,京都府,長岡京市,神足１丁目１８番８号,,26,209,6170833,,,,,,,2023-04-06,1,,,,,コウタリセイギョセッケイ,0
1886,7130001074016,新規,0,2023-04-06,2023-04-06,オムロンエキスパートエンジニアリング株式会社,,株式会社,京都府,京都市下京区,烏丸通七条下る東塩小路町７３５番地５,,26,106,6008216,,,,,,,2023-04-06,1,,,,,オムロンエキスパートエンジニアリング,0
1888,7130005016732,新規,0,2023-04-06,2023-04-06,医療法人ＳＹＯＥＩ会,,その他の設立登記法人,京都府,京都市左京区,下鴨西本町２８番２,,26,103,6060826,,,,,,,2023-04-06,1,,,,,ショウエイカイ,0
1892,7140001129611,新規,0,2023-04-06,2023-04-06,ＲＥＰＲＥＳＥＮＴ株式会社,,株式会社,兵庫県,高砂市,神爪１丁目１番１８号１０号室,,28,216,6760808,,,,,,,2023-04-06,1,,,,,レプリゼント,0
1893,7140001129628,新規,0,2023-04-06,2023-04-06,有吉不動産株式会社,,株式会社,兵庫県,赤穂市,磯浜町１９０,,28,212,6780250,,,,,,,2023-04-06,1,,,,,アリヨシフドウサン,0
1894,7140001129702,新規,0,2023-04-06,2023-04-06,ＴＹＳ株式会社,,株式会社,兵庫県,神戸市中央区,海岸通９番２号,,28,110,6500024,,,,,,,2023-04-06,1,,,,,ティーワイエス,0
1899,7160001024959,新規,0,2023-04-06,2023-04-06,株式会社晴慶,,株式会社,滋賀県,大津市,栄町８番３０号イングビル１０２号室,,25,201,5200855,,,,,,,2023-04-06,1,,,,,ハルヨシ,0
1903,7170003001856,新規,0,2023-04-06,2023-04-06,合同会社ダイハツモビリティ和歌山,,合同会社,和歌山県,田辺市,東山１丁目１９番２０号,,30,206,6460022,,,,,,,2023-04-06,1,,,,,ダイハツモビリティワカヤマ,0
1913,7180001155612,新規,0,2023-04-06,2023-04-06,株式会社ＮＯ．１７,,株式会社,愛知県,名古屋市中区,栄３丁目２３－１２ハイライク栄７０２号,,23,106,4600008,,,,,,,2023-04-06,1,,,,,ナンバーセブンティーン,0
1918,7180003025078,新規,0,2023-04-06,2023-04-06,合同会社ＣＨＩＢＡ,,合同会社,愛知県,名古屋市西区,花の木２丁目５番９号,,23,104,4510062,,,,,,,2023-04-06,1,,,,,チバ,0
1919,7180005020176,新規,0,2023-04-06,2023-04-06,一般社団法人名住協地域型ブランド化住宅推進協議会,,その他の設立登記法人,愛知県,名古屋市東区,矢田１丁目９番２９号,,23,102,4610040,,,,,,,2023-04-06,1,,,,,メイジュウキョウチイキガタブランドカジュウタクスイシンキョウギカイ,0
1920,7180303005671,新規,0,2023-04-06,2023-04-06,合同会社フローリッシュ,,合同会社,愛知県,刈谷市,桜町１丁目５０－４,,23,210,4480028,,,,,,,2023-04-06,1,,,,,フローリッシュ,0
1921,7190001030302,新規,0,2023-04-06,2023-04-06,株式会社ＭＴ　Ｒａｎｋ,,株式会社,三重県,名張市,すずらん台西４番町１１５番地,,24,208,5180409,,,,,,,2023-04-06,1,,,,,エムティランク,0
1936,7240001061309,新規,0,2023-04-06,2023-04-06,株式会社Ｒｅｖ０,,株式会社,広島県,安芸高田市,高宮町原田１６７９番地,,34,214,7391805,,,,,,,2023-04-06,1,,,,,レボ,0
1937,7240003006088,新規,0,2023-04-06,2023-04-06,合同会社ケイショウ,,合同会社,広島県,広島市西区,小河内町２丁目７－２４,,34,104,7330025,,,,,,,2023-04-06,1,,,,,ケイショウ,0
1938,7250001020040,新規,0,2023-04-06,2023-04-06,株式会社ＫＨサポート,,株式会社,山口県,周南市,大字久米１４１２番地の３２,,35,215,7450801,,,,,,,2023-04-06,1,,,,,ケイエイチサポート,0
1942,7260001037793,新規,0,2023-04-06,2023-04-06,株式会社Ｔｏｒｉｄｅ,,株式会社,岡山県,岡山市北区,京橋町９番７号清水ビル３０２号,,33,101,7000831,,,,,,,2023-04-06,1,,,,,トリデ,0
1943,7260001037819,新規,0,2023-04-06,2023-04-06,株式会社伸東工業,,株式会社,岡山県,玉野市,東紅陽台２丁目１９番地１６４,,33,204,7060131,,,,,,,2023-04-06,1,,,,,シントウコウギョウ,0
1944,7260001037827,新規,0,2023-04-06,2023-04-06,株式会社Ｋ‐ｓｕｐｐｏｒｔ,,株式会社,岡山県,岡山市北区,撫川１２５５番地７,,33,101,7010164,,,,,,,2023-04-06,1,,,,,ケイサポート,0
1951,7290001101043,新規,0,2023-04-06,2023-04-06,Ｊａｐａｎ　Ｐｒｅｍｉｅｒ　Ｓｅｌｅｃｔｉｏｎ株式会社,,株式会社,福岡県,福岡市博多区,下川端町９番１５号溝口ビル行の町テラス２０４,,40,132,8120027,,,,,,,2023-04-06,1,,,,,ジャパンプレミアセレクション,0
1952,7290001101068,新規,0,2023-04-06,2023-04-06,松田電設株式会社,,株式会社,福岡県,福岡市博多区,住吉５丁目２８番７号,,40,132,8120018,,,,,,,2023-04-06,1,,,,,マツダデンセツ,0
1953,7290001101092,新規,0,2023-04-06,2023-04-06,株式会社上村電設,,株式会社,福岡県,大牟田市,大字宮崎１８１０番地１４,,40,202,8370903,,,,,,,2023-04-06,1,,,,,ウエムラデンセツ,0
1957,7290801029434,新規,0,2023-04-06,2023-04-06,株式会社Ｃ＆Ｃ,,株式会社,福岡県,北九州市八幡東区,川淵町８番２７号大神ビル４階,,40,108,8050012,,,,,,,2023-04-06,1,,,,,シーアンドシー,0
1959,7310001018342,新規,0,2023-04-06,2023-04-06,グリーンス・パーク田中株式会社,,株式会社,長崎県,佐世保市,吉岡町１９４４番地,,42,202,8570143,,,,,,,2023-04-06,1,,,,,グリーンスパークタナカ,0
1962,7320005010063,新規,0,2023-04-06,2023-04-06,特定非営利活動法人ＮｅｘｔＤｅｓｉｇｎ,,その他の設立登記法人,大分県,大分市,大字光吉１７８５番地の１６４,,44,201,8701132,,,,,,,2023-04-06,1,,,,,ネクストデザイン,0
1973,7340005009582,新規,0,2023-04-06,2023-04-06,一般社団法人鹿児島県溶接協会,,その他の設立登記法人,鹿児島県,鹿児島市,宇宿２丁目９番３号,,46,201,8900073,,,,,,,2023-04-06,1,,,,,カゴシマケンヨウセツキョウカイ,0
1974,7350001018264,新規,0,2023-04-06,2023-04-06,株式会社ＯＳＳ,,株式会社,宮崎県,児湯郡川南町,大字川南２０２２２番地１,,45,405,8891301,,,,,,,2023-04-06,1,,,,,オーエスエス,0
1975,7350001018272,新規,0,2023-04-06,2023-04-06,株式会社タナカ,,株式会社,宮崎県,宮崎市,霧島３丁目６９番地,,45,201,8800032,,,,,,,2023-04-06,1,,,,,タナカ,0
1977,7360001031803,新規,0,2023-04-06,2023-04-06,ＢＵＤＤＩＮＧ株式会社,,株式会社,沖縄県,豊見城市,字上田２４７番地,,47,212,9010243,,,,,,,2023-04-06,1,,,,,バディング,0
1985,7380001033582,新規,0,2023-04-06,2023-04-06,矢留工業株式会社,,株式会社,福島県,南相馬市,原町区旭町３丁目５９番地の１７,,07,212,9750004,,,,,,,2023-04-06,1,,,,,ヤドメコウギョウ,0
1990,7420001018216,新規,0,2023-04-06,2023-04-06,株式会社ビワノコーヒー,,株式会社,青森県,上北郡野辺地町,字枇杷野３３番地９５,,02,401,0393156,,,,,,,2023-04-06,1,,,,,ビワノコーヒー,0
1992,7430001088753,新規,0,2023-04-06,2023-04-06,株式会社ラコルト,,株式会社,北海道,勇払郡安平町,早来栄町１７３番地５とまこまい広域農業協同組合早来支所内,,01,585,0591505,,,,,,,2023-04-06,1,,,,,ラコルト,0
1993,7430001088761,新規,0,2023-04-06,2023-04-06,株式会社ＧＡファシリティーズ,,株式会社,北海道,札幌市中央区,南二条西７丁目９番地６,,01,101,0600062,,,,,,,2023-04-06,1,,,,,ジーエーファシリティーズ,0
1994,7430003014889,新規,0,2023-04-06,2023-04-06,ミューテソリューション合同会社,,合同会社,北海道,札幌市豊平区,月寒東五条７丁目２番１６－１０２号,,01,105,0620055,,,,,,,2023-04-06,1,,,,,ミューテソリューション,0
1995,7430003014930,新規,0,2023-04-06,2023-04-06,ＲｅＭｏｔｉｖｅ合同会社,,合同会社,北海道,札幌市北区,北十条西３丁目２３番地１,,01,102,0010010,,,,,,,2023-04-06,1,,,,,リモティブ,0
2006,7460303000792,新規,0,2023-04-06,2023-04-06,水管テクノ合同会社,,合同会社,北海道,北見市,留辺蘂町大富１１５番地３,,01,208,0910031,,,,,,,2023-04-06,1,,,,,スイカンテクノ,0
2023,8010401173460,新規,0,2023-04-06,2023-04-06,株式会社ゼンシン,,株式会社,東京都,港区,白金台４丁目１６番１２号,,13,103,1080071,,,,,,,2023-04-06,1,,,,,ゼンシン,0
2024,8010401173502,新規,0,2023-04-06,2023-04-06,東洋シップファンド０１号株式会社,,株式会社,東京都,港区,新橋４丁目３０番６号京急中はらビル５Ｆ,,13,103,1050004,,,,,,,2023-04-06,1,,,,,トウヨウシップファンドゼロイチゴウ,0
2031,8010601062843,新規,0,2023-04-06,2023-04-06,永新興業株式会社,,株式会社,東京都,江東区,新木場４丁目５番１０号,,13,108,1360082,,,,,,,2023-04-06,1,,,,,エイシンコウギョウ,0
2037,8010701044064,新規,0,2023-04-06,2023-04-06,株式会社ＴＰＩＣ,,株式会社,東京都,品川区,西五反田１丁目２３番７号,,13,109,1410031,,,,,,,2023-04-06,1,,,,,ティピィアイシー,0
2038,8010701044080,新規,0,2023-04-06,2023-04-06,株式会社ススムクラフト,,株式会社,東京都,品川区,東品川３丁目１４番３４－８０６号,,13,109,1400002,,,,,,,2023-04-06,1,,,,,ススムクラフト,0
2040,8010703006649,新規,0,2023-04-06,2023-04-06,合同会社Ａｅｇｉｓ３,,合同会社,東京都,品川区,旗の台４丁目１３－２４,,13,109,1420064,,,,,,,2023-04-06,1,,,,,イージスリー,0
2043,8010803004494,新規,0,2023-04-06,2023-04-06,合同会社ｃｕｒｕｎ訪問看護ステーション,,合同会社,東京都,大田区,田園調布５丁目５５番２号,,13,111,1450071,,,,,,,2023-04-06,1,,,,,クルンホウモンカンゴステーション,0
2044,8010901052800,新規,0,2023-04-06,2023-04-06,株式会社Ｇｕｋｕｒｕ,,株式会社,東京都,世田谷区,祖師谷１丁目２９番１１号グランエッグス祖師ケ谷大蔵０２,,13,112,1570072,,,,,,,2023-04-06,1,,,,,グクル,0
2045,8010901052809,新規,0,2023-04-06,2023-04-06,株式会社Ｎｅｗ　Ｌｙｌａ　Ｃｉｔｙ,,株式会社,東京都,世田谷区,北沢２丁目１２番４号新第２マツヤビル４階,,13,112,1550031,,,,,,,2023-04-06,1,,,,,ニューライラシティー,0
2046,8010901052817,新規,0,2023-04-06,2023-04-06,株式会社マルティプライ,,株式会社,東京都,世田谷区,三軒茶屋１丁目３２番１７号３０６号室,,13,112,1540024,,,,,,,2023-04-06,1,,,,,マルティプライ,0
2050,8011001153547,新規,0,2023-04-06,2023-04-06,ｍｅｗ　ｍｕｓｅ株式会社,,株式会社,東京都,渋谷区,神宮前２丁目１８番１９号４Ａ,,13,113,1500001,,,,,,,2023-04-06,1,,,,,ミューミューズ,0
2051,8011001153588,新規,0,2023-04-06,2023-04-06,株式会社ＨＡＲＩＢＩＮ,,株式会社,東京都,渋谷区,恵比寿南１丁目１番１号,,13,113,1500022,,,,,,,2023-04-06,1,,,,,ハリビン,0
2054,8011003016561,新規,0,2023-04-06,2023-04-06,合同会社ＣＣＰ,,合同会社,東京都,渋谷区,神宮前６丁目２３番４号桑野ビル２階,,13,113,1500001,,,,,,,2023-04-06,1,,,,,シーシーピー,0
2055,8011003016586,新規,0,2023-04-06,2023-04-06,Ｎａｓ　Ｋｅｅ合同会社,,合同会社,東京都,渋谷区,神山町２５番１９号,,13,113,1500047,,,,,,,2023-04-06,1,,,,,ナスキー,0
2061,8011101102404,新規,0,2023-04-06,2023-04-06,ナノインプリントソリューションズ株式会社,,株式会社,東京都,新宿区,市谷加賀町１丁目１番１号,,13,104,1620062,,,,,,,2023-04-06,1,,,,,ナノインプリントソリューションズ,0
2062,8011101102420,新規,0,2023-04-06,2023-04-06,株式会社ＳＫＧジャパン,,株式会社,東京都,新宿区,四谷２丁目１番１号,,13,104,1600004,,,,,,,2023-04-06,1,,,,,エスケイジージャパン,0
2065,8011301028597,新規,0,2023-04-06,2023-04-06,株式会社ＣＲＡＣＫＳ,,株式会社,東京都,杉並区,成田西２丁目１２番２０－１１３号,,13,115,1660016,,,,,,,2023-04-06,1,,,,,クラックス,0
2068,8011503005543,新規,0,2023-04-06,2023-04-06,ｓｈａＢｅｌｌｍａｎ合同会社,,合同会社,東京都,北区,田端新町１丁目１６－５,,13,117,1140012,,,,,,,2023-04-06,1,,,,,シャベルマン,0
2069,8011601026706,新規,0,2023-04-06,2023-04-06,株式会社ＮｉＫＡ,,株式会社,東京都,練馬区,高野台１丁目８番２号ＮＦラ・ヴェーラ１Ｆ,,13,120,1770033,,,,,,,2023-04-06,1,,,,,ニカ,0
2074,8012703002669,新規,0,2023-04-06,2023-04-06,合同会社従豊,,合同会社,東京都,東村山市,廻田町２丁目７番地３１,,13,213,1890025,,,,,,,2023-04-06,1,,,,,ジュウホウ,0
2075,8012801022239,新規,0,2023-04-06,2023-04-06,株式会社ＬＩＮＸ,,株式会社,東京都,立川市,錦町１丁目４番４号サニービル２Ｆ,,13,202,1900022,,,,,,,2023-04-06,1,,,,,リンクス,0
2076,8012801022247,新規,0,2023-04-06,2023-04-06,株式会社ＴｏｍｙＴｒｕｓｔ,,株式会社,東京都,国分寺市,新町２丁目３番地５７,,13,214,1850004,,,,,,,2023-04-06,1,,,,,トミートラスト,0
2084,8020005015926,新規,0,2023-04-06,2023-04-06,医療法人社団鴻志会,,その他の設立登記法人,神奈川県,横浜市中区,尾上町５丁目６９番地ＫＩＴ関内ビル６階,,14,104,2310015,,,,,,,2023-04-06,1,,,,,コウシカイ,0
2086,8021001078603,新規,0,2023-04-06,2023-04-06,デイトン東邦株式会社,,株式会社,神奈川県,平塚市,宮の前３番８号,,14,203,2540035,,,,,,,2023-04-06,1,,,,,デイトントウホウ,0
2093,8021003012931,新規,0,2023-04-06,2023-04-06,合同会社ＬＵＣＫＹ　ＦＩＥＬＤ,,合同会社,神奈川県,茅ヶ崎市,菱沼海岸８番３号,,14,207,2530037,,,,,,,2023-04-06,1,,,,,ラッキーフィールド,0
2094,8021003012948,新規,0,2023-04-06,2023-04-06,ＭＹＲ合同会社,,合同会社,神奈川県,藤沢市,辻堂東海岸１丁目５番１２号,,14,205,2510045,,,,,,,2023-04-06,1,,,,,エムワイアール,0
2095,8021005012772,新規,0,2023-04-06,2023-04-06,一般社団法人バスケットボールヒーロー,,その他の設立登記法人,神奈川県,座間市,相武台１丁目４１－５３フィオーレ１０３,,14,216,2520011,,,,,,,2023-04-06,1,,,,,バスケットボールヒーロー,0
2100,8030001153134,新規,0,2023-04-06,2023-04-06,株式会社山本工業,,株式会社,埼玉県,八潮市,大字八條２８０７番地３７,,11,234,3400801,,,,,,,2023-04-06,1,,,,,ヤマモトコウギョウ,0
2104,8040001127780,新規,0,2023-04-06,2023-04-06,株式会社ＬＩＢＥＲＯ,,株式会社,千葉県,四街道市,大日１００５番地９,,12,228,2840001,,,,,,,2023-04-06,1,,,,,リベロ,0
2105,8040001127839,新規,0,2023-04-06,2023-04-06,株式会社ＤＯＡＨ,,株式会社,千葉県,千葉市花見川区,幕張町５丁目４１７番地３８２プリモクラッセ幕張４０２号,,12,102,2620032,,,,,,,2023-04-06,1,,,,,ドア,0
2106,8040003022328,新規,0,2023-04-06,2023-04-06,Ｎａｂｅｓｓｏ合同会社,,合同会社,千葉県,鎌ケ谷市,富岡２丁目１０番２９号,,12,224,2730101,,,,,,,2023-04-06,1,,,,,ナベッソ,0
2108,8050003007393,新規,0,2023-04-06,2023-04-06,合同会社サイ商社,,合同会社,茨城県,古河市,駒羽根１１５３－２０,,08,204,3060221,,,,,,,2023-04-06,1,,,,,サイショウシャ,0
2112,8070001040287,新規,0,2023-04-06,2023-04-06,株式会社Ｍｓフードサービス,,株式会社,群馬県,太田市,高林南町６９１番地２,,10,205,3730827,,,,,,,2023-04-06,1,,,,,エムズフードサービス,0
2113,8070001040295,新規,0,2023-04-06,2023-04-06,株式会社嬬恋村共同輸送所,,株式会社,群馬県,吾妻郡嬬恋村,大字大前７６７番地２,,10,425,3771612,,,,,,,2023-04-06,1,,,,,ツマゴイムラキョウドウユソウジョ,0
2114,8080101023884,新規,0,2023-04-06,2023-04-06,Ｓ＆Ｃ株式会社,,株式会社,静岡県,御殿場市,川島田２６８番地の６,,22,215,4120045,,,,,,,2023-04-06,1,,,,,エスアンドシー,0
2115,8080101023892,新規,0,2023-04-06,2023-04-06,株式会社ｓｐｅａＫ,,株式会社,静岡県,富士市,厚原２０９０番地の３７,,22,210,4190201,,,,,,,2023-04-06,1,,,,,スピーク,0
2118,8090001018059,新規,0,2023-04-06,2023-04-06,株式会社ＮＳポリエチレン,,株式会社,山梨県,甲州市,塩山上萩原４６１番地,,19,213,4040022,,,,,,,2023-04-06,1,,,,,エヌエスポリエチレン,0
2120,8100001036273,新規,0,2023-04-06,2023-04-06,軽井沢Ｂｌｕｅ株式会社,,株式会社,長野県,北佐久郡御代田町,大字御代田１８５５番地１,,20,323,3890206,,,,,,,2023-04-06,1,,,,,カルイザワブルー,0
2121,8100001036298,新規,0,2023-04-06,2023-04-06,株式会社鳥屋花,,株式会社,長野県,大町市,常盤４８３５番地１,,20,212,3980004,,,,,,,2023-04-06,1,,,,,トリヤハナ,0
2123,8110001037411,新規,0,2023-04-06,2023-04-06,株式会社ＡＣＲ,,株式会社,新潟県,燕市,八王寺２４８２番地,,15,213,9591264,,,,,,,2023-04-06,1,,,,,エイシーアール,0
2132,8120001253635,新規,0,2023-04-06,2023-04-06,ＡＬＬ　ＴＩＭＥ　ＧＲＯＵＮＤ　ＳＥＲＶＩＣＥ株式会社,,株式会社,大阪府,大阪市淀川区,西中島５丁目１番８号日研ビル６０８号室,,27,123,5320011,,,,,,,2023-04-06,1,,,,,オールタイムグランドサービス,0
2133,8120001253643,新規,0,2023-04-06,2023-04-06,株式会社ＩＮ‐ＴＡＮＫ　ｒｅｖ．,,株式会社,大阪府,大阪市淀川区,西宮原３丁目３番１－６２２号,,27,123,5320004,,,,,,,2023-04-06,1,,,,,インタンクレボリューション,0
2134,8120001253684,新規,0,2023-04-06,2023-04-06,株式会社ＫＡＲＩＲＵ,,株式会社,大阪府,大阪市城東区,関目６丁目６番６－３０２号,,27,118,5360008,,,,,,,2023-04-06,1,,,,,カリル,0
2135,8120001253734,新規,0,2023-04-06,2023-04-06,考鐵株式会社,,株式会社,大阪府,大阪市西成区,南津守２丁目３番２８号,,27,122,5570063,,,,,,,2023-04-06,1,,,,,コウテツ,0
2136,8120001253783,新規,0,2023-04-06,2023-04-06,株式会社ＬＡＦＯＲＭＥ,,株式会社,大阪府,大阪市北区,野崎町１番３０－４０１号,,27,127,5300055,,,,,,,2023-04-06,1,,,,,ラフォルム,0
2137,8120001253817,新規,0,2023-04-06,2023-04-06,株式会社雅寳,,株式会社,大阪府,大阪市北区,西天満４丁目１番１号,,27,127,5300047,,,,,,,2023-04-06,1,,,,,ガベル,0
2141,8120101067241,新規,0,2023-04-06,2023-04-06,株式会社日根総設業,,株式会社,大阪府,泉南郡田尻町,嘉祥寺９３６－３,,27,362,5980091,,,,,,,2023-04-06,1,,,,,ヒネソウセツギョウ,0
2142,8120101067274,新規,0,2023-04-06,2023-04-06,株式会社コートク電気,,株式会社,大阪府,和泉市,池上町２丁目１３番５５号,,27,219,5940083,,,,,,,2023-04-06,1,,,,,コートクデンキ,0
2143,8120105009710,新規,0,2023-04-06,2023-04-06,特定非営利活動法人さくらんぼ,,その他の設立登記法人,大阪府,堺市南区,泉田中１１３番地８,,27,145,5900126,,,,,,,2023-04-06,1,,,,,サクランボ,0
2144,8120901047343,新規,0,2023-04-06,2023-04-06,株式会社ＴＨＧ,,株式会社,大阪府,豊中市,本町８丁目１番２６号,,27,203,5600021,,,,,,,2023-04-06,1,,,,,ティーエイチジー,0
2145,8120903004573,新規,0,2023-04-06,2023-04-06,ｉ．ｄ．ｉ合同会社,,合同会社,大阪府,茨木市,東中条町１番１４号赤松ビル３階Ｂ号,,27,211,5670885,,,,,,,2023-04-06,1,,,,,アイディアイ,0
2151,8140001129627,新規,0,2023-04-06,2023-04-06,株式会社神戸三田不動産,,株式会社,兵庫県,三田市,下井沢１５３番地１５,,28,219,6691315,,,,,,,2023-04-06,1,,,,,コウベサンダフドウサン,0
2155,8140005026564,新規,0,2023-04-06,2023-04-06,医療法人社団ＧＯＫやまなみ会,,その他の設立登記法人,兵庫県,神戸市中央区,三宮町２丁目５番地１三宮ハートビル５階,,28,110,6500021,,,,,,,2023-04-06,1,,,,,ジーオーケイヤマナミカイ,0
2158,8170003001855,新規,0,2023-04-06,2023-04-06,合同会社ａｃｃｏ,,合同会社,和歌山県,和歌山市,加納２３番地５,,30,201,6408391,,,,,,,2023-04-06,1,,,,,アッコ,0
2162,8180001155611,新規,0,2023-04-06,2023-04-06,株式会社ピュア・ワールド,,株式会社,愛知県,名古屋市中区,錦２丁目１６－４,,23,106,4600003,,,,,,,2023-04-06,1,,,,,ピュアワールド,0
2163,8180001155628,新規,0,2023-04-06,2023-04-06,株式会社アール,,株式会社,愛知県,名古屋市名東区,高針原２丁目６０６番地グランドゥール高針原３０３号,,23,115,4650073,,,,,,,2023-04-06,1,,,,,アール,0
2164,8180001155719,新規,0,2023-04-06,2023-04-06,株式会社オート,,株式会社,愛知県,名古屋市西区,名駅３丁目７番９号サン名駅三丁目ビル７０１号,,23,104,4510045,,,,,,,2023-04-06,1,,,,,オート,0
2169,8180005020167,新規,0,2023-04-06,2023-04-06,社会保険労務士法人ＭＡＲＫコンサルタンツ,,その他の設立登記法人,愛知県,名古屋市中区,栄４丁目１４番３１号栄オークリッジ４階,,23,106,4600008,,,,,,,2023-04-06,1,,,,,マークコンサルタンツ,0
2173,8210001019267,新規,0,2023-04-06,2023-04-06,株式会社ＮＥＸＴ　ＥＲＡ,,株式会社,福井県,あわら市,花乃杜３丁目３１番３号,,18,208,9190633,,,,,,,2023-04-06,1,,,,,ネクストエラ,0
2174,8210001019275,新規,0,2023-04-06,2023-04-06,株式会社ＮＥＸＴ　ＣＯＲＥ,,株式会社,福井県,福井市,上北野２丁目１１番２１号,,18,201,9188203,,,,,,,2023-04-06,1,,,,,ネクストコア,0
2176,8210003001628,新規,0,2023-04-06,2023-04-06,池田石油合同会社,,合同会社,福井県,今立郡池田町,安善寺第２３号１番地３,,18,382,9102504,,,,,,,2023-04-06,1,,,,,イケダセキユ,0
2183,8230001019769,新規,0,2023-04-06,2023-04-06,株式会社アレンジスタイル,,株式会社,富山県,富山市,八尾町黒田１０番地１,,16,201,9392304,,,,,,,2023-04-06,1,,,,,アレンジスタイル,0
2184,8240001061299,新規,0,2023-04-06,2023-04-06,株式会社原井隆建築設計事務所,,株式会社,広島県,三次市,十日市東３丁目７番３１号,,34,209,7280013,,,,,,,2023-04-06,1,,,,,ハライタカシケンチクセッケイジムショ,0
2185,8240001061308,新規,0,2023-04-06,2023-04-06,株式会社メディアクロス,,株式会社,広島県,広島市中区,土橋町７番１号,,34,101,7300854,,,,,,,2023-04-06,1,,,,,メディアクロス,0
2186,8240001061316,新規,0,2023-04-06,2023-04-06,株式会社興祈設備,,株式会社,広島県,広島市西区,古江東町２番２７－２０６号,,34,104,7330872,,,,,,,2023-04-06,1,,,,,コウキセツビ,0
2190,8260001037784,新規,0,2023-04-06,2023-04-06,株式会社エフテック空調,,株式会社,岡山県,津山市,山方１２３９番地３,,33,203,7080813,,,,,,,2023-04-06,1,,,,,エフテッククウチョウ,0
2194,8260003004270,新規,0,2023-04-06,2023-04-06,マルク創森合同会社,,合同会社,岡山県,津山市,阿波５９６番地,,33,203,7093951,,,,,,,2023-04-06,1,,,,,マルクソウシン,0
2195,8280001008908,新規,0,2023-04-06,2023-04-06,株式会社Ｋ・Ｍハウジング,,株式会社,島根県,松江市,馬潟町１７番地２,,32,201,6900024,,,,,,,2023-04-06,1,,,,,ケイエムハウジング,0
2199,8290001101067,新規,0,2023-04-06,2023-04-06,ＪＲ九州保険コンサルティング株式会社,,株式会社,福岡県,福岡市博多区,博多駅前３丁目２５番２１号,,40,132,8120011,,,,,,,2023-04-06,1,,,,,ジェイアールキュウシュウホケンコンサルティング,0
2200,8290001101109,新規,0,2023-04-06,2023-04-06,株式会社ＳＯＬＥＩＬ,,株式会社,福岡県,糟屋郡新宮町,緑ケ浜４丁目１０番１０－４０１号,,40,345,8110119,,,,,,,2023-04-06,1,,,,,ソレイル,0
2201,8290001101125,新規,0,2023-04-06,2023-04-06,株式会社ＰＲＭ,,株式会社,福岡県,福岡市博多区,博多駅前４丁目３３番７号ロマネスク博多駅前７１０号,,40,132,8120011,,,,,,,2023-04-06,1,,,,,ピーアールエム,0
2202,8290003013723,新規,0,2023-04-06,2023-04-06,ハナ合同会社,,合同会社,福岡県,飯塚市,綱分１３２４番地５,,40,205,8200101,,,,,,,2023-04-06,1,,,,,ハナ,0
2203,8290801029433,新規,0,2023-04-06,2023-04-06,あおいはる株式会社,,株式会社,福岡県,北九州市八幡西区,浅川台３丁目１４番２８号,,40,109,8070875,,,,,,,2023-04-06,1,,,,,アオイハル,0
2208,8320001019669,新規,0,2023-04-06,2023-04-06,株式会社Ｇｒｏｗｂｕｄｄｙ,,株式会社,大分県,別府市,千代町３番１号プレステージ秋葉１００１号,,44,202,8740942,,,,,,,2023-04-06,1,,,,,グロウバディ,0
2209,8330001030716,新規,0,2023-04-06,2023-04-06,株式会社ＭＥＬ,,株式会社,熊本県,熊本市南区,江越２丁目７番８号,,43,104,8600834,,,,,,,2023-04-06,1,,,,,メル,0
2210,8330001030732,新規,0,2023-04-06,2023-04-06,株式会社エネモア,,株式会社,熊本県,熊本市東区,上南部３丁目２７番６５号,,43,102,8618010,,,,,,,2023-04-06,1,,,,,エネモア,0
2211,8350001018263,新規,0,2023-04-06,2023-04-06,株式会社戸松工業,,株式会社,宮崎県,延岡市,妙見町３９６９番地１３,,45,203,8890515,,,,,,,2023-04-06,1,,,,,トマツコウギョウ,0
2212,8350003004336,新規,0,2023-04-06,2023-04-06,ＪＡＰＡＮ’Ｓ　ＦＩＮＥＳＴ合同会社,,合同会社,宮崎県,都城市,高城町穂満坊５１１番地,,45,202,8851202,,,,,,,2023-04-06,1,,,,,ジャパンファイニスト,0
2213,8360001031802,新規,0,2023-04-06,2023-04-06,株式会社翔建設,,株式会社,沖縄県,沖縄市,知花４丁目４番９号Ｈ１２,,47,211,9042143,,,,,,,2023-04-06,1,,,,,ショウケンセツ,0
2215,8360003012866,新規,0,2023-04-06,2023-04-06,合同会社星くら,,合同会社,沖縄県,島尻郡粟国村,字東１８８３番地,,47,355,9013702,,,,,,,2023-04-06,1,,,,,ホシクラ,0
2218,8370001049785,新規,0,2023-04-06,2023-04-06,ＮＯＣＳ株式会社,,株式会社,宮城県,仙台市青葉区,国分町３丁目６番１１号３,,04,101,9800803,,,,,,,2023-04-06,1,,,,,ノークス,0
2219,8370001049793,新規,0,2023-04-06,2023-04-06,株式会社赤間産業,,株式会社,宮城県,富谷市,上桜木１丁目３６番地１０,,04,216,9813328,,,,,,,2023-04-06,1,,,,,アカマサンギョウ,0
2221,8370003006066,新規,0,2023-04-06,2023-04-06,アルフロ合同会社,,合同会社,宮城県,仙台市青葉区,木町通２丁目１番５６－１２０３号,,04,101,9800801,,,,,,,2023-04-06,1,,,,,アルフロ,0
2226,8380001033598,新規,0,2023-04-06,2023-04-06,株式会社阿部建築,,株式会社,福島県,伊達市,保原町富沢字姥ケ作１番地,,07,213,9600682,,,,,,,2023-04-06,1,,,,,アベケンチク,0
2229,8380003005430,新規,0,2023-04-06,2023-04-06,合同会社トネリコ,,合同会社,福島県,西白河郡西郷村,大字小田倉字大平１番地６３１,,07,461,9618061,,,,,,,2023-04-06,1,,,,,トネリコ,0
2234,8400005008321,新規,0,2023-04-06,2023-04-06,土地家屋調査士法人山影事務所,,その他の設立登記法人,岩手県,花巻市,大迫町大迫第１１地割７番地２１,,03,205,0283203,,,,,,,2023-04-06,1,,,,,ヤマカゲジムショ,0
2236,8430001088769,新規,0,2023-04-06,2023-04-06,株式会社Ａｘｅ,,株式会社,北海道,札幌市中央区,南九条西１２丁目１番３０－１０２号,,01,101,0640809,,,,,,,2023-04-06,1,,,,,アックス,0
2237,8430001088810,新規,0,2023-04-06,2023-04-06,株式会社ＢＫＤ,,株式会社,北海道,札幌市中央区,南十条西１２丁目２番３２号,,01,101,0640810,,,,,,,2023-04-06,1,,,,,ビーケーディー,0
2240,8450001013948,新規,0,2023-04-06,2023-04-06,株式会社三栄シャッター,,株式会社,北海道,旭川市,永山七条１丁目１番２３号,,01,204,0798417,,,,,,,2023-04-06,1,,,,,サンエイシャッター,0
2255,9010001234133,新規,0,2023-04-06,2023-04-06,株式会社ブレインシェアリング,,株式会社,東京都,中央区,築地６丁目２番１２号アトラス築地３１６号,,13,102,1040045,,,,,,,2023-04-06,1,,,,,ブレインシェアリング,0
2256,9010003040190,新規,0,2023-04-06,2023-04-06,合同会社ｆｅｌｅｓ,,合同会社,東京都,中央区,銀座１丁目２２－１１銀座大竹ビジデンス２階,,13,102,1040061,,,,,,,2023-04-06,1,,,,,フェレス,0
2259,9010005036476,新規,0,2023-04-06,2023-04-06,一般社団法人日本造園組合連合会東京都支部,,その他の設立登記法人,東京都,千代田区,神田小川町３丁目３－２マツシタビル７階,,13,101,1010052,,,,,,,2023-04-06,1,,,,,ニホンゾウエンクミアイレンゴウカイトウキョウトシブ,0
2272,9010401173468,新規,0,2023-04-06,2023-04-06,Ｒｕａｌａｂ株式会社,,株式会社,東京都,港区,六本木７丁目１２番２号Ｒ７ビルディング５０４号,,13,103,1060032,,,,,,,2023-04-06,1,,,,,ルアラボ,0
2273,9010401173550,新規,0,2023-04-06,2023-04-06,アースウィンド株式会社,,株式会社,東京都,港区,西新橋２丁目４番３号プロス西新橋ビル７階１２号,,13,103,1050003,,,,,,,2023-04-06,1,,,,,アースウィンド,0
2280,9010601062867,新規,0,2023-04-06,2023-04-06,スリーウィン株式会社,,株式会社,東京都,江東区,亀戸９丁目３４番１号,,13,108,1360071,,,,,,,2023-04-06,1,,,,,スリーウィン,0
2284,9010703006648,新規,0,2023-04-06,2023-04-06,マヤルガ合同会社,,合同会社,東京都,品川区,中延３丁目９番７号１０１,,13,109,1420053,,,,,,,2023-04-06,1,,,,,マヤルガ,0
2286,9010801033833,新規,0,2023-04-06,2023-04-06,株式会社ＢＬＵＥＩＣＥ,,株式会社,東京都,大田区,本羽田２丁目７番７－４０４号,,13,111,1440044,,,,,,,2023-04-06,1,,,,,ブルーアイス,0
2289,9010901052832,新規,0,2023-04-06,2023-04-06,株式会社Ｈｏｌｙ　Ｒａｃｉｎｇ,,株式会社,東京都,世田谷区,弦巻１丁目２８番１３号,,13,112,1540016,,,,,,,2023-04-06,1,,,,,ホーリーレーシング,0
2292,9011001153538,新規,0,2023-04-06,2023-04-06,株式会社サウンド・ラボ,,株式会社,東京都,渋谷区,円山町５番５号Ｎａｖｉ渋谷Ｖ３階,,13,113,1500044,,,,,,,2023-04-06,1,,,,,サウンドラボ,0
2293,9011001153546,新規,0,2023-04-06,2023-04-06,株式会社Ｂａｙｒｏｃｋ,,株式会社,東京都,渋谷区,道玄坂２丁目１９番１１号ファブリック渋谷３階,,13,113,1500043,,,,,,,2023-04-06,1,,,,,ベイロック,0
2294,9011003016585,新規,0,2023-04-06,2023-04-06,ライクス合同会社,,合同会社,東京都,渋谷区,恵比寿南１丁目１７－５－２０１,,13,113,1500022,,,,,,,2023-04-06,1,,,,,ライクス,0
2295,9011003016593,新規,0,2023-04-06,2023-04-06,ＡＴＬＡＳＹ　ＳＴＡＲＳ合同会社,,合同会社,東京都,渋谷区,恵比寿２丁目３０番１号フリーディオ広尾南１０７,,13,113,1500013,,,,,,,2023-04-06,1,,,,,アトラセスターズ,0
2298,9011101102411,新規,0,2023-04-06,2023-04-06,株式会社ＫＵＴＳＵＲＯＧＩ,,株式会社,東京都,新宿区,西新宿３丁目３－１３西新宿水間ビル６階,,13,104,1600023,,,,,,,2023-04-06,1,,,,,クツロギ,0
2304,9011601026705,新規,0,2023-04-06,2023-04-06,仮想計算株式会社,,株式会社,東京都,練馬区,西大泉５丁目２９番２３－１２０４号,,13,120,1780065,,,,,,,2023-04-06,1,,,,,カソウケイサン,0
2307,9012803003054,新規,0,2023-04-06,2023-04-06,Ｉ．Ｃ．Ｃ．ｕｎｉｔｅ合同会社,,合同会社,東京都,立川市,柴崎町３丁目４番１７号花伝ビル３階,,13,202,1900023,,,,,,,2023-04-06,1,,,,,アイシーシーユナイト,0
2311,9020001150916,新規,0,2023-04-06,2023-04-06,株式会社ＴＴＣ,,株式会社,神奈川県,横浜市中区,桜木町１丁目１番地７ヒューリックみなとみらい１０階,,14,104,2310062,,,,,,,2023-04-06,1,,,,,ティーティーシー,0
2312,9020001150973,新規,0,2023-04-06,2023-04-06,株式会社秋本農園,,株式会社,神奈川県,横浜市港北区,新羽町２５６９番地,,14,109,2230057,,,,,,,2023-04-06,1,,,,,アキモトノウエン,0
2313,9020001150981,新規,0,2023-04-06,2023-04-06,株式会社ＬＡＮＤ　ＢＥＡＴ,,株式会社,神奈川県,川崎市宮前区,東有馬５丁目３９番３９号,,14,136,2160002,,,,,,,2023-04-06,1,,,,,ランドビート,0
2315,9021001078585,新規,0,2023-04-06,2023-04-06,一彦エンジニアリング株式会社,,株式会社,神奈川県,厚木市,温水西１丁目１６番１４号,,14,212,2430039,,,,,,,2023-04-06,1,,,,,カズヒコエンジニアリング,0
2316,9021001078593,新規,0,2023-04-06,2023-04-06,株式会社オダワラバルク,,株式会社,神奈川県,小田原市,栄町２丁目１１－５カクヨー栄町ビル２Ｆ,,14,206,2500011,,,,,,,2023-04-06,1,,,,,オダワラバルク,0
2317,9021001078619,新規,0,2023-04-06,2023-04-06,株式会社炎相,,株式会社,神奈川県,相模原市中央区,上矢部１丁目１８番１０号,,14,152,2520201,,,,,,,2023-04-06,1,,,,,エンソウ,0
2318,9021001078635,新規,0,2023-04-06,2023-04-06,株式会社こだわり専家,,株式会社,神奈川県,藤沢市,石川１丁目３番地の３－５０３号室,,14,205,2520815,,,,,,,2023-04-06,1,,,,,コダワリセンカ,0
2322,9021003012939,新規,0,2023-04-06,2023-04-06,合同会社ＴＭプロジェクト,,合同会社,神奈川県,秦野市,戸川４７０－７,,14,211,2591306,,,,,,,2023-04-06,1,,,,,ティーエムプロジェクト,0
2323,9021003012947,新規,0,2023-04-06,2023-04-06,合同会社エアジー,,合同会社,神奈川県,大和市,下鶴間２丁目６番１７号,,14,213,2420001,,,,,,,2023-04-06,1,,,,,エアジー,0
2331,9030001153133,新規,0,2023-04-06,2023-04-06,ＳＫＴ株式会社,,株式会社,埼玉県,白岡市,西１０丁目２番１６－１０２,,11,246,3490205,,,,,,,2023-04-06,1,,,,,エスケーティー,0
2333,9030003021511,新規,0,2023-04-06,2023-04-06,合同会社ＢＡＳＨ,,合同会社,埼玉県,三郷市,戸ケ崎１丁目６２７番地４,,11,237,3410044,,,,,,,2023-04-06,1,,,,,バッシュ,0
2334,9040001127788,新規,0,2023-04-06,2023-04-06,株式会社裕建,,株式会社,千葉県,佐倉市,井野１０６７番地７８,,12,212,2850855,,,,,,,2023-04-06,1,,,,,ユウケン,0
2335,9040001127813,新規,0,2023-04-06,2023-04-06,株式会社ＮＳサービス,,株式会社,千葉県,袖ケ浦市,のぞみ野６０番地１,,12,229,2990251,,,,,,,2023-04-06,1,,,,,エヌエスサービス,0
2336,9040001127838,新規,0,2023-04-06,2023-04-06,日勝貿易株式会社,,株式会社,千葉県,四街道市,旭ケ丘５丁目１３番３号,,12,228,2840024,,,,,,,2023-04-06,1,,,,,,0
2337,9040001127846,新規,0,2023-04-06,2023-04-06,株式会社スーパースクーバ・フィズ,,株式会社,千葉県,松戸市,松戸１１５６番地後藤ビル１Ｆ,,12,207,2710092,,,,,,,2023-04-06,1,,,,,スーパースクーバフィズ,0
2340,9050001052606,新規,0,2023-04-06,2023-04-06,株式会社シナプス・コード,,株式会社,茨城県,つくば市,みどりの南９４番地４,,08,220,3050884,,,,,,,2023-04-06,1,,,,,シナプスコード,0
2341,9050001052614,新規,0,2023-04-06,2023-04-06,ＰｒｏＢｉｏエンジニアリング株式会社,,株式会社,茨城県,つくば市,吾妻１丁目５番地７ダイワロイネットホテルつくばビル２階,,08,220,3050031,,,,,,,2023-04-06,1,,,,,プロバイオエンジニアリング,0
2342,9050001052622,新規,0,2023-04-06,2023-04-06,小室塗総株式会社,,株式会社,茨城県,日立市,森山町１丁目３２番１９－２０１号,,08,202,3160025,,,,,,,2023-04-06,1,,,,,コムロトソウ,0
2343,9050003007384,新規,0,2023-04-06,2023-04-06,キテンドオ合同会社,,合同会社,茨城県,常総市,長助町１８,,08,211,3030015,,,,,,,2023-04-06,1,,,,,キテンドオ,0
2347,9080105006323,新規,0,2023-04-06,2023-04-06,医療法人社団静和,,その他の設立登記法人,静岡県,駿東郡清水町,柿田八丁田１８１番地９,,22,341,4110904,,,,,,,2023-04-06,1,,,,,セイワ,0
2348,9080401026413,新規,0,2023-04-06,2023-04-06,株式会社Ｍｉｌｉｍｉｌｉ,,株式会社,静岡県,磐田市,一言１２９９番地１,,22,211,4380811,,,,,,,2023-04-06,1,,,,,ミリミリ,0
2352,9100001036289,新規,0,2023-04-06,2023-04-06,株式会社若狭塗装,,株式会社,長野県,伊那市,西春近９３３９番地,,20,209,3994431,,,,,,,2023-04-06,1,,,,,ワカサトソウ,0
2356,9110001037402,新規,0,2023-04-06,2023-04-06,株式会社アルミ外構ＧＲＯＸ,,株式会社,新潟県,三条市,西本成寺１丁目３３番２３号,,15,204,9550845,,,,,,,2023-04-06,1,,,,,アルミガイコウグロックス,0
2369,9120001253650,新規,0,2023-04-06,2023-04-06,株式会社ユーシン,,株式会社,大阪府,大阪市平野区,瓜破西１丁目７番３０号,,27,126,5470025,,,,,,,2023-04-06,1,,,,,ユーシン,0
2370,9120001253667,新規,0,2023-04-06,2023-04-06,アスクホールディングス株式会社,,株式会社,大阪府,枚方市,津田山手２丁目１８番１号,,27,210,5730128,,,,,,,2023-04-06,1,,,,,アスクホールディングス,0
2371,9120001253675,新規,0,2023-04-06,2023-04-06,レスター株式会社,,株式会社,大阪府,大阪市中央区,本町４丁目２番１２号,,27,128,5410053,,,,,,,2023-04-06,1,,,,,レスター,0
2372,9120001253758,新規,0,2023-04-06,2023-04-06,株式会社エスギャロップ,,株式会社,大阪府,大阪市北区,西天満３丁目６番２１号ＡＸＩＳ東梅田ビル１０階,,27,127,5300047,,,,,,,2023-04-06,1,,,,,エスギャロップ,0
2373,9120001253766,新規,0,2023-04-06,2023-04-06,Ｊフィナンシャルサービス株式会社,,株式会社,大阪府,大阪市北区,鶴野町１番３号,,27,127,5300014,,,,,,,2023-04-06,1,,,,,ジェイフィナンシャルサービス,0
2374,9120001253782,新規,0,2023-04-06,2023-04-06,株式会社ヴィンキー,,株式会社,大阪府,大阪市北区,長柄中２丁目５番４３号,,27,127,5310062,,,,,,,2023-04-06,1,,,,,ヴィンキー,0
2375,9120001253799,新規,0,2023-04-06,2023-04-06,株式会社ＤＥＥＰ,,株式会社,大阪府,大阪市北区,堂島浜２丁目２番２８号堂島アクシスビル３階,,27,127,5300004,,,,,,,2023-04-06,1,,,,,ディープ,0
2376,9120003023779,新規,0,2023-04-06,2023-04-06,エンバイロ・ガード合同会社,,合同会社,大阪府,大阪市北区,梅田２丁目２－２ヒルトンプラザウエストオフィスタワー１９階,,27,127,5300001,,,,,,,2023-04-06,1,,,,,エンバイロガード,0
2378,9120005023554,新規,0,2023-04-06,2023-04-06,一般社団法人未來,,その他の設立登記法人,大阪府,大阪市旭区,新森２丁目１番２６号,,27,117,5350022,,,,,,,2023-04-06,1,,,,,ミクル,0
2381,9120101067265,新規,0,2023-04-06,2023-04-06,株式会社福田工務店,,株式会社,大阪府,堺市西区,北条町１丁８番６号,,27,144,5938302,,,,,,,2023-04-06,1,,,,,フクダコウムテン,0
2382,9120101067281,新規,0,2023-04-06,2023-04-06,株式会社あゆみのｆａｃｔｏｒｙ,,株式会社,大阪府,和泉市,あゆみ野２丁目３番５号,,27,219,5941157,,,,,,,2023-04-06,1,,,,,アユミノファクトリー,0
2383,9120101067298,新規,0,2023-04-06,2023-04-06,株式会社和楽,,株式会社,大阪府,泉佐野市,市場西３丁目４番１－８０９号,,27,213,5980006,,,,,,,2023-04-06,1,,,,,ワラク,0
2386,9120901047342,新規,0,2023-04-06,2023-04-06,株式会社ダブルエイト,,株式会社,大阪府,池田市,宇保町１２番２－１号,,27,204,5630042,,,,,,,2023-04-06,1,,,,,ダブルエイト,0
2387,9120901047359,新規,0,2023-04-06,2023-04-06,ｌｉｍｉｔ株式会社,,株式会社,大阪府,茨木市,北春日丘１丁目１１番８号,,27,211,5670048,,,,,,,2023-04-06,1,,,,,リミット,0
2388,9120901047367,新規,0,2023-04-06,2023-04-06,株式会社ＣＬＥＡＮ　ＣＯＲＰＯＲＡＴＩＯＮ,,株式会社,大阪府,吹田市,広芝町７－２６,,27,205,5640052,,,,,,,2023-04-06,1,,,,,クリーンコーポレーション,0
2400,9140003018926,新規,0,2023-04-06,2023-04-06,合同会社ＴＫＭ,,合同会社,兵庫県,神戸市須磨区,白川台２丁目４５番地－２白川台住宅１２号棟５０１室,,28,107,6540103,,,,,,,2023-04-06,1,,,,,ティケイエム,0
2401,9140003018934,新規,0,2023-04-06,2023-04-06,長藤商事合同会社,,合同会社,兵庫県,姫路市,福中町３９番地福中第一ビル３階,,28,201,6700017,,,,,,,2023-04-06,1,,,,,チョウトウショウジ,0
2402,9140005026555,新規,0,2023-04-06,2023-04-06,社会保険労務士法人三宅事務所,,その他の設立登記法人,兵庫県,たつの市,揖保町西構２６１番地,,28,229,6794154,,,,,,,2023-04-06,1,,,,,ミヤケジムショ,0
2404,9150005009468,新規,0,2023-04-06,2023-04-06,一般社団法人ベース,,その他の設立登記法人,奈良県,奈良市,東九条町８１３番地の２１,,29,201,6308144,,,,,,,2023-04-06,1,,,,,ベース,0
2409,9160001024949,新規,0,2023-04-06,2023-04-06,株式会社ネクストファーム,,株式会社,滋賀県,犬上郡多賀町,大字多賀７２２番地５３,,25,443,5220341,,,,,,,2023-04-06,1,,,,,ネクストファーム,0
2413,9170001017539,新規,0,2023-04-06,2023-04-06,株式会社はなぶさ,,株式会社,和歌山県,和歌山市,栗栖２２４番地２,,30,201,6408305,,,,,,,2023-04-06,1,,,,,ハナブサ,0
2420,9180001155610,新規,0,2023-04-06,2023-04-06,豊和株式会社,,株式会社,愛知県,名古屋市千種区,井上町３８星ヶ丘第一ビル６Ｂ,,23,101,4640026,,,,,,,2023-04-06,1,,,,,ホウワ,0
2421,9180001155627,新規,0,2023-04-06,2023-04-06,株式会社ソウソウ,,株式会社,愛知県,名古屋市北区,上飯田北町３丁目２番地の１家田第２ビル３０３号,,23,103,4620802,,,,,,,2023-04-06,1,,,,,ソウソウ,0
2422,9180001155635,新規,0,2023-04-06,2023-04-06,株式会社ＧＹエステート,,株式会社,愛知県,名古屋市中区,栄１丁目２３番２９号伏見ポイントビル３階,,23,106,4600008,,,,,,,2023-04-06,1,,,,,ジーワイエステート,0
2423,9180001155692,新規,0,2023-04-06,2023-04-06,株式会社ＨＩＴＯＴＡＳＵ,,株式会社,愛知県,名古屋市中村区,名駅３丁目４－１０アルティメイト名駅１ｓｔ２階,,23,105,4500002,,,,,,,2023-04-06,1,,,,,ヒトタス,0
2427,9180003025076,新規,0,2023-04-06,2023-04-06,松本建築合同会社,,合同会社,愛知県,一宮市,赤見３丁目６番２号,,23,203,4910023,,,,,,,2023-04-06,1,,,,,マツモトケンチク,0
2428,9180301037244,新規,0,2023-04-06,2023-04-06,株式会社ＭＧＫ,,株式会社,愛知県,刈谷市,桜町５丁目１１番地１マリンハイツ２Ｆ,,23,210,4480028,,,,,,,2023-04-06,1,,,,,エムジーケー,0
2429,9190001030300,新規,0,2023-04-06,2023-04-06,株式会社エマグリーン,,株式会社,三重県,伊勢市,小木町１３７番地,,24,203,5160007,,,,,,,2023-04-06,1,,,,,エマグリーン,0
2432,9200001041130,新規,0,2023-04-06,2023-04-06,株式会社ＣＯＣＯ’Ｓ　ＨＯＭＥ,,株式会社,岐阜県,美濃加茂市,太田町２９１０番地１４,,21,211,5050041,,,,,,,2023-04-06,1,,,,,ココスホーム,0
2434,9210003001627,新規,0,2023-04-06,2023-04-06,合同会社ＷＩＬＤ　ＲＯＡＤ,,合同会社,福井県,福井市,豊島１丁目９－６,,18,201,9100857,,,,,,,2023-04-06,1,,,,,ワイルドロード,0
2435,9230001019768,新規,0,2023-04-06,2023-04-06,株式会社Ｋ’ｓ　ｗｏｒｋｓ,,株式会社,富山県,射水市,松木２９７番地,,16,211,9340052,,,,,,,2023-04-06,1,,,,,ケーズワークス,0
2436,9230001019776,新規,0,2023-04-06,2023-04-06,株式会社彩創建,,株式会社,富山県,射水市,藤巻１００番地,,16,211,9390405,,,,,,,2023-04-06,1,,,,,イロドリソウケン,0
2437,9240001061298,新規,0,2023-04-06,2023-04-06,株式会社ＤＥＬＴＡ　ｉｎ　Ｍｏｔｉｏｎ,,株式会社,広島県,福山市,幕山台５丁目６番２３号,,34,207,7210913,,,,,,,2023-04-06,1,,,,,デルタインモーション,0
2438,9240003006086,新規,0,2023-04-06,2023-04-06,合同会社グラン会計,,合同会社,広島県,広島市南区,松原町３番２号,,34,103,7320822,,,,,,,2023-04-06,1,,,,,グランカイケイ,0
2443,9260003004261,新規,0,2023-04-06,2023-04-06,Ａｖｅｃ　ｔｏｉ合同会社,,合同会社,岡山県,岡山市東区,西大寺中２丁目１番３６号,,33,103,7048116,,,,,,,2023-04-06,1,,,,,アヴェックトア,0
2448,9290001101099,新規,0,2023-04-06,2023-04-06,株式会社ミクニ開発,,株式会社,福岡県,大牟田市,通町１丁目１番地,,40,202,8360805,,,,,,,2023-04-06,1,,,,,ミクニカイハツ,0
2449,9290001101108,新規,0,2023-04-06,2023-04-06,株式会社ＯＴＡ不動産,,株式会社,福岡県,福岡市博多区,吉塚５丁目２番１０号１Ａ,,40,132,8120041,,,,,,,2023-04-06,1,,,,,オオタフドウサン,0
2450,9290001101124,新規,0,2023-04-06,2023-04-06,株式会社中尾労働衛生コンサルタント事務所ワーク＆ヘルス,,株式会社,福岡県,福岡市中央区,赤坂１丁目７番５号ロマネスク赤坂第２・２０５号,,40,133,8100042,,,,,,,2023-04-06,1,,,,,ナカオロウドウエイセイコンサルタントジムショワークアンドヘルス,0
2452,9290003013739,新規,0,2023-04-06,2023-04-06,合同会社こたくま,,合同会社,福岡県,福岡市博多区,美野島４丁目１番１－９１２号,,40,132,8120017,,,,,,,2023-04-06,1,,,,,コタクマ,0
2455,9290801029424,新規,0,2023-04-06,2023-04-06,ＡｒｉｎａｇａＰｈｏｔｏＷｏｒｋｓ株式会社,,株式会社,福岡県,行橋市,西宮市１丁目１４番１５号,,40,213,8240031,,,,,,,2023-04-06,1,,,,,アリナガフォトワークス,0
2460,9290803004383,新規,0,2023-04-06,2023-04-06,合同会社日明急送,,合同会社,福岡県,北九州市小倉北区,日明３丁目６番１‐４０３号,,40,106,8030831,,,,,,,2023-04-06,1,,,,,ヒアガリキュウソウ,0
2462,9310001018340,新規,0,2023-04-06,2023-04-06,輝工房株式会社,,株式会社,長崎県,佐世保市,木場田町９番１６号中村ビル１階,,42,202,8570041,,,,,,,2023-04-06,1,,,,,テルコウボウ,0
2463,9310001018349,新規,0,2023-04-06,2023-04-06,株式会社赤目,,株式会社,長崎県,長崎市,岩川町１５－１７,,42,201,8528106,,,,,,,2023-04-06,1,,,,,アカメ,0
2474,9340005009580,新規,0,2023-04-06,2023-04-06,一般社団法人南九州市観光協会,,その他の設立登記法人,鹿児島県,南九州市,知覧町郡１７８８０番地,,46,223,8970302,,,,,,,2023-04-06,1,,,,,ミナミキュウシュウシカンコウキョウカイ,0
2475,9350001018270,新規,0,2023-04-06,2023-04-06,株式会社甲斐林業,,株式会社,宮崎県,延岡市,富美山町４３７０番地１０,,45,203,8820051,,,,,,,2023-04-06,1,,,,,カイリンギョウ,0
2477,9360001031751,新規,0,2023-04-06,2023-04-06,株式会社ＤｒｅａｍＧａｔｈｅｒＳ,,株式会社,沖縄県,沖縄市,知花４丁目４７－１５,,47,211,9042143,,,,,,,2023-04-06,1,,,,,ドリームギャザーエス,0
2478,9360001031792,新規,0,2023-04-06,2023-04-06,株式会社丸沖つりぐ,,株式会社,沖縄県,那覇市,曙３丁目１６番１－３０５号,,47,201,9000002,,,,,,,2023-04-06,1,,,,,マルオキツリグ,0
2480,9360005006808,新規,0,2023-04-06,2023-04-06,沖縄命草生産協同組合,,その他の設立登記法人,沖縄県,石垣市,字登野城２１７番地,,47,207,9070004,,,,,,,2023-04-06,1,,,,,オキナワヌチグサセイサン,0
2481,9360005006816,新規,0,2023-04-06,2023-04-06,一般社団法人公営企業会計支援センター,,その他の設立登記法人,沖縄県,うるま市,字高江洲８７０番地１２,,47,213,9042242,,,,,,,2023-04-06,1,,,,,コウエイキギョウカイケイシエンセンター,0
2491,9370003006065,新規,0,2023-04-06,2023-04-06,橋本電機設備合同会社,,合同会社,宮城県,仙台市若林区,沖野３丁目１５番５２号,,04,103,9840831,,,,,,,2023-04-06,1,,,,,ハシモトデンキセツビ,0
2496,9410001013439,新規,0,2023-04-06,2023-04-06,株式会社三太郎おじさん,,株式会社,秋田県,大仙市,東川字前田表２７番地,,05,212,0140032,,,,,,,2023-04-06,1,,,,,サンタロウオジサン,0
2498,9420001018214,新規,0,2023-04-06,2023-04-06,株式会社タウンコート,,株式会社,青森県,上北郡東北町,大字上野字山添８番１,,02,408,0392401,,,,,,,2023-04-06,1,,,,,タウンコート,0
2500,9430003014887,新規,0,2023-04-06,2023-04-06,合同会社なぶら,,合同会社,北海道,札幌市中央区,南七条西４丁目２番地五條ビルＤＥＵＸ１階,,01,101,0640807,,,,,,,2023-04-06,1,,,,,ナブラ,0
2506,9440001009236,新規,0,2023-04-06,2023-04-06,株式会社福栄水産,,株式会社,北海道,函館市,志海苔町２１５番地,,01,202,0420923,,,,,,,2023-04-06,1,,,,,フクエイスイサン,0
2508,9450001013947,新規,0,2023-04-06,2023-04-06,株式会社リプロアルカ,,株式会社,北海道,上川郡下川町,緑町２６０番地,,01,468,0981202,,,,,,,2023-04-06,1,,,,,リプロアルカ,0
2509,9460001005786,新規,0,2023-04-06,2023-04-06,株式会社エスワクリエイト,,株式会社,北海道,釧路市,星が浦南１丁目３番２０号,,01,206,0840913,,,,,,,2023-04-06,1,,,,,エスワクリエイト,0
2511,9460303000790,新規,0,2023-04-06,2023-04-06,合同会社丸幸人,,合同会社,北海道,斜里郡斜里町,光陽町３９番地１８,,01,545,0994115,,,,,,,2023-04-06,1,,,,,マルコウジン,0
2516,9490001010445,新規,0,2023-04-06,2023-04-06,株式会社友建,,株式会社,高知県,高知市,西久万３５１番地１,,39,201,7800984,,,,,,,2023-04-06,1,,,,,ユウケン,0
