sequenceNumber,corporateNumber,process,correct,updateDate,changeDate,name,nameImageId,kind,prefectureName,cityName,streetNumber,addressImageId,prefectureCode,cityCode,postCode,addressOutside,addressOutsideImageId,closeDate,closeCause,successorCorporateNumber,changeCause,assignmentDate,latest,enName,enPrefectureName,enCityName,enAddressOutside,furigana,hihyoji
8,1010001251474,新規,0,2025-01-20,2025-01-20,株式会社ｊＢ　ａｓｓｅｔ,,株式会社,東京都,中央区,日本橋本町２丁目２番２号日本橋本町ＹＳビル７階株式会社ニトロプラス方,,13,102,1030023,,,,,,,2025-01-20,1,,,,,ジェイビーアセット,0
9,1010001251532,新規,0,2025-01-20,2025-01-20,Ｃｕｓｔｏｄｉａｅ株式会社,,株式会社,東京都,千代田区,神田錦町３丁目７番２号東京堂錦町ビルディング９階,,13,101,1010054,,,,,,,2025-01-20,1,,,,,カストディア,0
10,1010001251549,新規,0,2025-01-20,2025-01-20,株式会社ＳｋｉｌｌＳｈｉｆｔ　Ｐａｒｔｎｅｒｓ,,株式会社,東京都,千代田区,四番町２番地１,,13,101,1020081,,,,,,,2025-01-20,1,,,,,スキルシフトパートナーズ,0
15,1010401187368,新規,0,2025-01-20,2025-01-20,ＪＤＴプロジェクトホールディングス株式会社,,株式会社,東京都,港区,赤坂３丁目１１番１５号ＶＯＲＴ赤坂見附４階,,13,103,1070052,,,,,,,2025-01-20,1,,,,,ジェイディーティープロジェクトホールディングス,0
16,1010401187665,新規,0,2025-01-20,2025-01-20,ＵＭコンサルティング株式会社,,株式会社,東京都,港区,六本木６丁目１０番１号六本木ヒルズ森タワー１６階,,13,103,1060032,,,,,,,2025-01-20,1,,,,,ユーエムコンサルティング,0
21,1010901056650,新規,0,2025-01-20,2025-01-20,株式会社ＦＬＯＷ,,株式会社,東京都,世田谷区,三軒茶屋２丁目４９番２２号世田谷グリーンハイツ３Ｒ,,13,112,1540024,,,,,,,2025-01-20,1,,,,,フロー,0
22,1010901056675,新規,0,2025-01-20,2025-01-20,株式会社テラライズ,,株式会社,東京都,世田谷区,北沢４丁目１番５号,,13,112,1550031,,,,,,,2025-01-20,1,,,,,テラライズ,0
25,1011001166984,新規,0,2025-01-20,2025-01-20,エンテック株式会社,,株式会社,東京都,渋谷区,恵比寿西２丁目８番４号ＥＸ恵比寿西ビル５階,,13,113,1500021,,,,,,,2025-01-20,1,,,,,エンテック,0
26,1011001167009,新規,0,2025-01-20,2025-01-20,ＡＺＹＵ株式会社,,株式会社,東京都,渋谷区,神泉町７－６芦沢ビル２階,,13,113,1500045,,,,,,,2025-01-20,1,,,,,アジュー,0
27,1011001167058,新規,0,2025-01-20,2025-01-20,株式会社ＴＡＡＢＯ,,株式会社,東京都,渋谷区,恵比寿南１丁目２番１２号,,13,113,1500022,,,,,,,2025-01-20,1,,,,,ターボ,0
34,1011101110256,新規,0,2025-01-20,2025-01-20,ＷＶＩＳＩＯ株式会社,,株式会社,東京都,新宿区,市ヶ谷田町３－１４市ヶ谷ガーデンテラス６Ｆ,,13,104,1600000,,,,,,,2025-01-20,1,,,,,ウィシオ,0
35,1011101110289,新規,0,2025-01-20,2025-01-20,株式会社Ａｎｉｍａｌ　ｗｉｔｈ,,株式会社,東京都,新宿区,北新宿４丁目１８番９号メゾンシエル４０１,,13,104,1690074,,,,,,,2025-01-20,1,,,,,アニマルウィズ,0
36,1011103015404,新規,0,2025-01-20,2025-01-20,合同会社ＥＭＯ　ＬＡＢ,,合同会社,東京都,新宿区,西新宿３丁目３番１３号６Ｆ,,13,104,1600023,,,,,,,2025-01-20,1,,,,,エモラボ,0
37,1011103015429,新規,0,2025-01-20,2025-01-20,合同会社Ａ‐２,,合同会社,東京都,新宿区,新宿６丁目２８番１０号,,13,104,1600022,,,,,,,2025-01-20,1,,,,,エーツー,0
47,1011603004583,新規,0,2025-01-20,2025-01-20,合同会社ＡＭ　ＩＭＰＡＣＴ,,合同会社,東京都,練馬区,北町６丁目３２番２８号グランディール平和台２０２,,13,120,1790081,,,,,,,2025-01-20,1,,,,,エーエムインパクト,0
49,1012801023697,新規,0,2025-01-20,2025-01-20,ピライン・ツツジ株式会社,,株式会社,東京都,昭島市,武蔵野３丁目３番４－７１８号,,13,207,1960021,,,,,,,2025-01-20,1,,,,,ピラインツツジ,0
54,1013301053648,新規,0,2025-01-20,2025-01-20,株式会社Ａｒｃｈｉｖｅ,,株式会社,東京都,豊島区,東池袋３丁目９番１２号ニットービル１Ｆ,,13,116,1700013,,,,,,,2025-01-20,1,,,,,アーカイブ,0
55,1013301053664,新規,0,2025-01-20,2025-01-20,錦陽国際株式会社,,株式会社,東京都,豊島区,池袋本町３丁目３０－１２池袋ＳＹマンション２０２号室,,13,116,1700011,,,,,,,2025-01-20,1,,,,,キンヨウコクサイ,0
57,1013303007494,新規,0,2025-01-20,2025-01-20,合同会社Ｂｒａｉｎ　ＳＵＧＥＲ,,合同会社,東京都,豊島区,池袋２丁目６１番２池袋アバックビル９階,,13,116,1710014,,,,,,,2025-01-20,1,,,,,ブレインシュガー,0
62,1020001160906,新規,0,2025-01-20,2025-01-20,株式会社アノマロＲ＆Ｄ,,株式会社,神奈川県,横浜市港南区,日限山３丁目２４番５号,,14,111,2330015,,,,,,,2025-01-20,1,,,,,アノマロアールアンドディー,0
63,1020001161037,新規,0,2025-01-20,2025-01-20,株式会社ＴＨＥＭＩＳＹＳ,,株式会社,神奈川県,横浜市西区,みなとみらい２丁目２－１横浜ランドマークタワー,,14,103,2200012,,,,,,,2025-01-20,1,,,,,テミシス,0
64,1020001161045,新規,0,2025-01-20,2025-01-20,株式会社Ａｌｐｓ,,株式会社,神奈川県,横浜市西区,北幸２丁目１０番４８号むつみビル３階,,14,103,2200004,,,,,,,2025-01-20,1,,,,,アルプス,0
69,1021001084269,新規,0,2025-01-20,2025-01-20,株式会社平良工業,,株式会社,神奈川県,綾瀬市,早川１６０２番地４,,14,218,2521123,,,,,,,2025-01-20,1,,,,,タイラコウギョウ,0
81,1030001164435,新規,0,2025-01-20,2025-01-20,Ｅｄｇｅ　Ｗｏｒｋｓ株式会社,,株式会社,埼玉県,川口市,大字安行原１３６３番地の１４,,11,203,3340057,,,,,,,2025-01-20,1,,,,,エッジワークス,0
87,1040001137068,新規,0,2025-01-20,2025-01-20,株式会社ＪＩＮ,,株式会社,千葉県,木更津市,ほたる野２丁目４４番地１ソフィアコート壱番館２０５,,12,206,2920038,,,,,,,2025-01-20,1,,,,,ジン,0
93,1040003026632,新規,0,2025-01-20,2025-01-20,ＨＥＭＣＯ　ＧＲＯＵＰ合同会社,,合同会社,千葉県,野田市,木間ケ瀬２７２０－４,,12,208,2700222,,,,,,,2025-01-20,1,,,,,ヘムコグループ,0
94,1040003026649,新規,0,2025-01-20,2025-01-20,合同会社ヴァイス,,合同会社,千葉県,千葉市中央区,富士見２丁目２１－９しんなかビル７Ｆ,,12,101,2600015,,,,,,,2025-01-20,1,,,,,ヴァイス,0
98,1050001056028,新規,0,2025-01-20,2025-01-20,株式会社ＴＯＫＩＮＯＭＡ,,株式会社,茨城県,水戸市,泉町２丁目２番３３号水戸泉町ビル,,08,201,3100026,,,,,,,2025-01-20,1,,,,,トキノマ,0
100,1050003008943,新規,0,2025-01-20,2025-01-20,合同会社アシスト,,合同会社,茨城県,取手市,山王３４９番地,,08,217,3001544,,,,,,,2025-01-20,1,,,,,アシスト,0
101,1060001037836,新規,0,2025-01-20,2025-01-20,株式会社ＳＵＮＫＯ,,株式会社,栃木県,小山市,西城南１丁目１６番地４４,,09,208,3230820,,,,,,,2025-01-20,1,,,,,サンコー,0
106,1070001042554,新規,0,2025-01-20,2025-01-20,株式会社あやこ看板,,株式会社,群馬県,桐生市,東６丁目６番６４号,,10,203,3760034,,,,,,,2025-01-20,1,,,,,アヤコカンバン,0
109,1080105006479,新規,0,2025-01-20,2025-01-20,一般社団法人ＦＵＧＡ,,その他の設立登記法人,静岡県,裾野市,佐野２０３番地の１ソシアハイツ２０５,,22,220,4101118,,,,,,,2025-01-20,1,,,,,フーガ,0
111,1080403005182,新規,0,2025-01-20,2025-01-20,合同会社ｏｒｏ建築アシスト,,合同会社,静岡県,浜松市中央区,鴨江１丁目７番１９号,,22,138,4328023,,,,,,,2025-01-20,1,,,,,オロケンチクアシスト,0
113,1090005007675,新規,0,2025-01-20,2025-01-20,一般社団法人Ｓｅｃｏｎｄ　Ｌｉｆｅ　Ｓａｎｃｔｕａｒｙ,,その他の設立登記法人,山梨県,南巨摩郡富士川町,平林１７０２番地,,19,368,4000514,,,,,,,2025-01-20,1,,,,,セカンドライフサンクチュアリ,0
117,1120001271890,新規,0,2025-01-20,2025-01-20,株式会社ＨＡＳＨＩＲＡ　ＳＵＰＰＯＲＴ,,株式会社,大阪府,大阪市中央区,内本町１丁目２番１５号谷四スクエアビル５Ｆ－１３号室,,27,128,5400026,,,,,,,2025-01-20,1,,,,,ハシラサポート,0
118,1120001271949,新規,0,2025-01-20,2025-01-20,３Ｑ娯楽株式会社,,株式会社,大阪府,大阪市中央区,東心斎橋２丁目３番３０号八幡筋ギャラクシービルＶ号館３階,00137704,27,128,5420083,,,,,,,2025-01-20,1,,,,,サンキューゴラク,0
119,1120001272047,新規,0,2025-01-20,2025-01-20,株式会社ＴＲＥＮＤ　ＮＯＷ,,株式会社,大阪府,大阪市平野区,喜連西３丁目１番２２－５１４号,,27,126,5470026,,,,,,,2025-01-20,1,,,,,トレンドナウ,0
124,1120003028389,新規,0,2025-01-20,2025-01-20,アイイダ合同会社,,合同会社,大阪府,大阪市東淀川区,東中島４丁目１番１１－５１３号,,27,114,5330033,,,,,,,2025-01-20,1,,,,,アイイダ,0
125,1120003028397,新規,0,2025-01-20,2025-01-20,東文合同会社,,合同会社,大阪府,大阪市生野区,新今里５丁目７番６－４０４号,,27,116,5440001,,,,,,,2025-01-20,1,,,,,トウブン,0
126,1120003028406,新規,0,2025-01-20,2025-01-20,Ｂｅｔｃｈａ合同会社,,合同会社,大阪府,大阪市北区,同心１丁目１番２２－４０４号,,27,127,5300035,,,,,,,2025-01-20,1,,,,,ベッチャ,0
127,1120003028414,新規,0,2025-01-20,2025-01-20,合同会社あゆみかた,,合同会社,大阪府,大阪市港区,磯路２丁目１番１４号,,27,107,5520003,,,,,,,2025-01-20,1,,,,,アユミカタ,0
128,1120005024725,新規,0,2025-01-20,2025-01-20,医療法人永成会,,その他の設立登記法人,大阪府,大阪市中央区,南船場３丁目１２番２５号ＺＡＩ心斎橋ビル４階,,27,128,5420081,,,,,,,2025-01-20,1,,,,,エイセイカイ,0
131,1120103006237,新規,0,2025-01-20,2025-01-20,合同会社谷口商店,,合同会社,大阪府,貝塚市,地藏堂５３番地１９,,27,208,5970053,,,,,,,2025-01-20,1,,,,,タニグチショウテン,0
132,1120105009956,新規,0,2025-01-20,2025-01-20,医療法人守香会,,その他の設立登記法人,大阪府,羽曳野市,高鷲４丁目５番２号ラポール１階,,27,222,5830882,,,,,,,2025-01-20,1,,,,,シュコウカイ,0
140,1130001078823,新規,0,2025-01-20,2025-01-20,株式会社Ｔｅｒｒａ　Ｃｏｒｅ,,株式会社,京都府,京都市伏見区,深草新門丈町１２１番地の２,,26,109,6128436,,,,,,,2025-01-20,1,,,,,テラコア,0
153,1140001137116,新規,0,2025-01-20,2025-01-20,株式会社ＳＩＮＫＯＵ．,,株式会社,兵庫県,神戸市西区,神出町紫合５４７番地の７,,28,111,6512334,,,,,,,2025-01-20,1,,,,,シンコウ,0
185,1180001165014,新規,0,2025-01-20,2025-01-20,株式会社ランドフォースリンク,,株式会社,愛知県,名古屋市中村区,二瀬町１６８番地（ラレーヌＩＩ３０２号）,00137703,23,105,4530837,,,,,,,2025-01-20,1,,,,,ランドフォースリンク,0
186,1180001165022,新規,0,2025-01-20,2025-01-20,慧営商事株式会社,,株式会社,愛知県,名古屋市緑区,作の山町１２６番地１０３号室,,23,114,4580038,,,,,,,2025-01-20,1,,,,,ケイエイショウジ,0
190,1180003027872,新規,0,2025-01-20,2025-01-20,ブルーマリン合同会社,,合同会社,愛知県,名古屋市東区,橦木町３丁目５９番地,,23,102,4610014,,,,,,,2025-01-20,1,,,,,ブルーマリン,0
191,1180303006428,新規,0,2025-01-20,2025-01-20,合同会社ＳＤ,,合同会社,愛知県,岡崎市,大門３丁目４番地２セジュール大佳Ｂ２０２,,23,202,4442135,,,,,,,2025-01-20,1,,,,,エスディー,0
208,1240001064408,新規,0,2025-01-20,2025-01-20,株式会社アイス,,株式会社,広島県,廿日市市,梅原２丁目１番２３号,,34,213,7390442,,,,,,,2025-01-20,1,,,,,アイス,0
210,1250003003635,新規,0,2025-01-20,2025-01-20,ラッカス合同会社,,合同会社,山口県,防府市,大字新田５７７番地の５,,35,206,7470825,,,,,,,2025-01-20,1,,,,,ラッカス,0
212,1260001039829,新規,0,2025-01-20,2025-01-20,佐野不動産管理株式会社,,株式会社,岡山県,総社市,井尻野１２２３番地２,,33,208,7191154,,,,,,,2025-01-20,1,,,,,サノフドウサンカンリ,0
218,1290003016303,新規,0,2025-01-20,2025-01-20,合同会社竹田津バッテリープレイス,,合同会社,福岡県,福岡市南区,大楠１丁目４番２２号,,40,134,8150082,,,,,,,2025-01-20,1,,,,,タケタヅバッテリープレイス,0
219,1290005019626,新規,0,2025-01-20,2025-01-20,医療法人たてあきクリニック,,その他の設立登記法人,福岡県,太宰府市,大佐野６丁目２番２号,,40,221,8180134,,,,,,,2025-01-20,1,,,,,タテアキクリニック,0
232,1330003010730,新規,0,2025-01-20,2025-01-20,合同会社ホワイトスノー,,合同会社,熊本県,熊本市東区,三郎２丁目２２－４,,43,102,8620922,,,,,,,2025-01-20,1,,,,,ホワイトスノー,0
235,1350001019375,新規,0,2025-01-20,2025-01-20,株式会社アグリバティ,,株式会社,宮崎県,串間市,大字秋山６８６番地,,45,207,8880006,,,,,,,2025-01-20,1,,,,,アグリバティ,0
237,1360001034670,新規,0,2025-01-20,2025-01-20,億盛國際株式会社,,株式会社,沖縄県,沖縄市,比屋根６丁目６番６号,,47,211,9042173,,,,,,,2025-01-20,1,,,,,オクセイコクサイ,0
242,1390003002342,新規,0,2025-01-20,2025-01-20,あざす合同会社,,合同会社,山形県,山形市,大字船町１０６９番地,,06,201,9900894,,,,,,,2025-01-20,1,,,,,アザス,0
244,1430001093486,新規,0,2025-01-20,2025-01-20,ＥＲＦＯＬＧ株式会社,,株式会社,北海道,札幌市白石区,川北一条２丁目１８番１８号,,01,104,0030851,,,,,,,2025-01-20,1,,,,,エアフォルク,0
245,1430001093494,新規,0,2025-01-20,2025-01-20,株式会社ＣＳＢ　ＰＬＵＳ,,株式会社,北海道,札幌市中央区,南二条西２丁目１２番地４,,01,101,0600062,,,,,,,2025-01-20,1,,,,,シーエスビープラス,0
246,1430003017187,新規,0,2025-01-20,2025-01-20,農業合同会社,,合同会社,北海道,札幌市北区,北七条西４丁目１番地１,,01,102,0600807,,,,,,,2025-01-20,1,,,,,ノウギョウ,0
247,1450001014498,新規,0,2025-01-20,2025-01-20,株式会社ＮｅｗＬｉｆｅ,,株式会社,北海道,旭川市,秋月二条２丁目１１番１４号,,01,204,0798402,,,,,,,2025-01-20,1,,,,,ニューライフ,0
249,1460101007657,新規,0,2025-01-20,2025-01-20,トライカラーマネジメント株式会社,,株式会社,北海道,上川郡新得町,栄町１２３番地４１,,01,635,0810006,,,,,,,2025-01-20,1,,,,,トライカラーマネジメント,0
258,1700150128817,新規,0,2025-01-20,2025-01-20,ＭＩＲＡＩ　ＴＥＣＨＮＯＬＯＧＹ　ＰＲＩＶＡＴＥ　ＬＩＭＩＴＥＤ,,外国会社等,,,,,,,,Ｐ　ＮＯ．１５０，ＪＡＩ　ＢＨＩＭ　Ｇ　Ｎ，ＳＯＣＹＣＨＡＮＤＲＡＭＡＮＩ　ＮＡＧＡＲ，ＮＡＧＰＵＲ，Ｎａｇｐｕｒ，Ｍａｈａｒａｓｈｔｒａ，Ｉｎｄｉａ，４４００２７,,,,,,2025-01-20,1,,,,,ミライテクノロジープライベートリミテツド,0
266,2010001250145,新規,0,2025-01-20,2025-01-20,株式会社ルートイノベーション,,株式会社,東京都,文京区,千駄木２丁目１１番８－４０５号,,13,105,1130022,,,,,,,2025-01-20,1,,,,,ルートイノベーション,0
267,2010001251275,新規,0,2025-01-20,2025-01-20,Ｋｒｏｌｌ　Ｂｏｎｄ　Ｒａｔｉｎｇ　Ａｇｅｎｃｙ　Ｊａｐａｎ株式会社,,株式会社,東京都,中央区,日本橋室町４丁目３番９号,,13,102,1030022,,,,,,,2025-01-20,1,,,,,クロールボンドレイティングエージェンシージャパン,0
268,2010001251572,新規,0,2025-01-20,2025-01-20,株式会社ＪｎＣ　Ｂｉｚ,,株式会社,東京都,中央区,銀座１丁目２２番１１号銀座大竹ビジデンス２Ｆ,,13,102,1040061,,,,,,,2025-01-20,1,,,,,ジェイエヌシービズ,0
269,2010001251580,新規,0,2025-01-20,2025-01-20,株式会社アローズベース,,株式会社,東京都,千代田区,富士見１丁目３番１１号富士見デュープレックスＢ’ｓ４階,,13,101,1020071,,,,,,,2025-01-20,1,,,,,アローズベース,0
271,2010003046021,新規,0,2025-01-20,2025-01-20,ＴＴＤ合同会社,,合同会社,東京都,文京区,湯島３丁目３６番５号,,13,105,1130034,,,,,,,2025-01-20,1,,,,,ティーティーディー,0
272,2010003046112,新規,0,2025-01-20,2025-01-20,合同会社ナイン・ツー,,合同会社,東京都,文京区,大塚２丁目９番７－９０４号,,13,105,1120012,,,,,,,2025-01-20,1,,,,,ナインツー,0
273,2010003046120,新規,0,2025-01-20,2025-01-20,ＭＡＬＩＢＵ合同会社,,合同会社,東京都,中央区,銀座１丁目２２番１１号銀座大竹ビジデンス２Ｆ,,13,102,1040061,,,,,,,2025-01-20,1,,,,,マリブ,0
284,2010401187549,新規,0,2025-01-20,2025-01-20,株式会社Ｒｉｃｈ,,株式会社,東京都,港区,南青山５丁目１２番２７号Ｗｉｓｅ５１２ビル５０１,,13,103,1070062,,,,,,,2025-01-20,1,,,,,リッチ,0
289,2010501053493,新規,0,2025-01-20,2025-01-20,株式会社ｎａｔｓｕｋｏ．ｅｔｅ,,株式会社,東京都,台東区,上野３丁目５番２号,,13,106,1100005,,,,,,,2025-01-20,1,,,,,ナツコドットエテ,0
290,2010603011333,新規,0,2025-01-20,2025-01-20,睿羽合同会社,,合同会社,東京都,墨田区,向島４丁目３番８号グレイス向島２０１－Ｂ号室,,13,107,1310033,,,,,,,2025-01-20,1,,,,,エイウ,0
303,2010903009622,新規,0,2025-01-20,2025-01-20,Ｎ２ＴＯＫＹＯ合同会社,,合同会社,東京都,世田谷区,北沢３丁目２－１１レガーロ東北沢２Ｆ－３,,13,112,1550031,,,,,,,2025-01-20,1,,,,,エヌツートーキョー,0
304,2010903009647,新規,0,2025-01-20,2025-01-20,Ｔｈｅ　Ａｒｔ　Ｆａｒｍ合同会社,,合同会社,東京都,世田谷区,経堂５丁目１１番５号,,13,112,1560052,,,,,,,2025-01-20,1,,,,,ジアートファーム,0
309,2011001166876,新規,0,2025-01-20,2025-01-20,株式会社Ｏｍｎｉｂｕｓ,,株式会社,東京都,渋谷区,神宮前４丁目８番８号,,13,113,1500001,,,,,,,2025-01-20,1,,,,,オムニバス,0
310,2011001167008,新規,0,2025-01-20,2025-01-20,株式会社Ｂｕｄｄｙ　Ｌｉｎｋｓ,,株式会社,東京都,渋谷区,道玄坂１丁目１０番８号渋谷道玄坂東急ビル２Ｆ－Ｃ,,13,113,1500043,,,,,,,2025-01-20,1,,,,,バディーリンクス,0
311,2011001167049,新規,0,2025-01-20,2025-01-20,株式会社ＷＡＳＡＢＩ,,株式会社,東京都,渋谷区,道玄坂１丁目１０番８号渋谷道玄坂東急ビル２Ｆ－Ｃ,,13,113,1500043,,,,,,,2025-01-20,1,,,,,ワサビ,0
312,2011001167107,新規,0,2025-01-20,2025-01-20,株式会社イーズイノベーション,,株式会社,東京都,目黒区,青葉台３丁目５番９－６０２号ノーツ目黒青葉台,,13,110,1530042,,,,,,,2025-01-20,1,,,,,イーズイノベーション,0
315,2011101110255,新規,0,2025-01-20,2025-01-20,株式会社ｎｅｘｔ,,株式会社,東京都,新宿区,西新宿３丁目３番１３号西新宿水間ビル２Ｆ,,13,104,1600023,,,,,,,2025-01-20,1,,,,,ネクスト,0
316,2011101110296,新規,0,2025-01-20,2025-01-20,株式会社フラン・フランチャイジー,,株式会社,東京都,新宿区,新宿２丁目１２－１３新宿アントレサロンビル２階,,13,104,1600022,,,,,,,2025-01-20,1,,,,,フランフランチャイジー,0
320,2011201026046,新規,0,2025-01-20,2025-01-20,株式会社クレセント,,株式会社,東京都,中野区,若宮１丁目３８－１２野方カンタービレ１０２号室,,13,114,1650033,,,,,,,2025-01-20,1,,,,,クレセント,0
321,2011201026062,新規,0,2025-01-20,2025-01-20,株式会社ＭＨＳ,,株式会社,東京都,中野区,弥生町１丁目４５番４号,,13,114,1640013,,,,,,,2025-01-20,1,,,,,エムエイチエス,0
326,2011401026713,新規,0,2025-01-20,2025-01-20,扶桑商店株式会社,,株式会社,東京都,板橋区,常盤台１丁目３１番１０号,,13,119,1740071,,,,,,,2025-01-20,1,,,,,フソウショウテン,0
327,2011401026762,新規,0,2025-01-20,2025-01-20,パラレルアシスト株式会社,,株式会社,東京都,板橋区,加賀２丁目３－１－９２５,,13,119,1730003,,,,,,,2025-01-20,1,,,,,パラレルアシスト,0
340,2011603004582,新規,0,2025-01-20,2025-01-20,合同会社縁ｅｎ,,合同会社,東京都,練馬区,貫井１丁目１番２号加瀬ビル２２３－Ｂ００１号室,,13,120,1760021,,,,,,,2025-01-20,1,,,,,エン,0
343,2011701027989,新規,0,2025-01-20,2025-01-20,鑠金文化科技株式会社,,株式会社,東京都,江戸川区,江戸川６丁目４０番１４－２０６号,,13,123,1340013,,,,,,,2025-01-20,1,,,,,ラキンブンカカギ,0
352,2012403006918,新規,0,2025-01-20,2025-01-20,合同会社ホライゾン商会,,合同会社,東京都,武蔵野市,緑町２丁目６番５－５０４号,,13,203,1800012,,,,,,,2025-01-20,1,,,,,ホライゾンショウカイ,0
353,2012701018656,新規,0,2025-01-20,2025-01-20,株式会社シン,,株式会社,東京都,東村山市,恩多町１丁目５７番地２３,,13,213,1890011,,,,,,,2025-01-20,1,,,,,シン,0
354,2012805003307,新規,0,2025-01-20,2025-01-20,一般社団法人穏和会,,その他の設立登記法人,東京都,昭島市,朝日町３丁目６－７コスモアージュ４階４０１,,13,207,1960025,,,,,,,2025-01-20,1,,,,,オンワカイ,0
357,2013303007493,新規,0,2025-01-20,2025-01-20,合同会社ＴＣＴ,,合同会社,東京都,豊島区,上池袋１丁目３７番２２号レジディアタワー（タワー棟）５１４,,13,116,1700012,,,,,,,2025-01-20,1,,,,,ティーシーティー,0
362,2020001161036,新規,0,2025-01-20,2025-01-20,上水株式会社,,株式会社,神奈川県,横浜市中区,末吉町３丁目５６－７日興パレス伊勢佐木町北８０３号室,,14,104,2310055,,,,,,,2025-01-20,1,,,,,ジョウスイ,0
366,2020003027672,新規,0,2025-01-20,2025-01-20,合同会社グラシア,,合同会社,神奈川県,横浜市南区,山王町４丁目２５番地７,,14,105,2320013,,,,,,,2025-01-20,1,,,,,グラシア,0
370,2021001084235,新規,0,2025-01-20,2025-01-20,日日佳株式会社,,株式会社,神奈川県,秦野市,南矢名２２２３番地の４東海ビル２０４Ａ,,14,211,2570003,,,,,,,2025-01-20,1,,,,,ヒビカ,0
371,2021001084251,新規,0,2025-01-20,2025-01-20,Ｉ．Ｍ．Ｒトレーディング株式会社,,株式会社,神奈川県,愛甲郡愛川町,中津３４６６番地の１８,,14,401,2430303,,,,,,,2025-01-20,1,,,,,アイエムアールトレーディング,0
374,2021003015469,新規,0,2025-01-20,2025-01-20,金三商事合同会社,,合同会社,神奈川県,藤沢市,片瀬海岸３丁目１９番１４号,,14,205,2510035,,,,,,,2025-01-20,1,,,,,キンサンショウジ,0
378,2030001164450,新規,0,2025-01-20,2025-01-20,株式会社大久保興業,,株式会社,埼玉県,白岡市,野牛７１２番地２,,11,246,3490211,,,,,,,2025-01-20,1,,,,,オオクボコウギョウ,0
379,2030003025898,新規,0,2025-01-20,2025-01-20,合同会社Ｒｕｄａｎ,,合同会社,埼玉県,春日部市,備後東２丁目２０番１号,,11,214,3440032,,,,,,,2025-01-20,1,,,,,ルダン,0
384,2040001137001,新規,0,2025-01-20,2025-01-20,株式会社ほっとライフ,,株式会社,千葉県,柏市,藤心３丁目３－１４,,12,217,2770034,,,,,,,2025-01-20,1,,,,,ホットライフ,0
385,2040001137026,新規,0,2025-01-20,2025-01-20,株式会社共楽,,株式会社,千葉県,千葉市中央区,浜野町４２０番地４,,12,101,2600824,,,,,,,2025-01-20,1,,,,,キョウラク,0
389,2040003026648,新規,0,2025-01-20,2025-01-20,合同会社後藤工業,,合同会社,千葉県,市原市,島野２０３４－３,,12,219,2900034,,,,,,,2025-01-20,1,,,,,ゴトウコウギョウ,0
395,2050001056027,新規,0,2025-01-20,2025-01-20,株式会社ジョウヨウ,,株式会社,茨城県,水戸市,堀町２０９０番地の２,,08,201,3100903,,,,,,,2025-01-20,1,,,,,ジョウヨウ,0
397,2050003008942,新規,0,2025-01-20,2025-01-20,合同会社綿引工業,,合同会社,茨城県,水戸市,堀町１３５４番地の１,,08,201,3100903,,,,,,,2025-01-20,1,,,,,ワタヒキコウギョウ,0
399,2060001037835,新規,0,2025-01-20,2025-01-20,ＣＡＯ　ＮＧＡＮ株式会社,,株式会社,栃木県,塩谷郡高根沢町,大字上柏崎６００番地１,,09,386,3291212,,,,,,,2025-01-20,1,,,,,カオガン,0
405,2070003005756,新規,0,2025-01-20,2025-01-20,合同会社倫艸,,合同会社,群馬県,高崎市,倉賀野町２３４４番１－１－５０２号,,10,202,3701201,,,,,,,2025-01-20,1,,,,,ミチクサ,0
407,2080001026720,新規,0,2025-01-20,2025-01-20,株式会社和笑楽,,株式会社,静岡県,焼津市,上小杉１３６６番地の２,,22,212,4210201,,,,,,,2025-01-20,1,,,,,ワラク,0
411,2080403005181,新規,0,2025-01-20,2025-01-20,合同会社Ｃｏｖｅｒ,,合同会社,静岡県,菊川市,加茂２１８３番地の１,,22,224,4390031,,,,,,,2025-01-20,1,,,,,カバー,0
430,2120001271931,新規,0,2025-01-20,2025-01-20,ＫＭＫ株式会社,,株式会社,大阪府,大阪市中央区,淡路町２丁目１番１０－１００３号,,27,128,5410047,,,,,,,2025-01-20,1,,,,,ケーエムケー,0
431,2120001271956,新規,0,2025-01-20,2025-01-20,株式会社大胸筋,,株式会社,大阪府,大阪市中央区,東心斎橋１丁目１７番３号,,27,128,5420083,,,,,,,2025-01-20,1,,,,,ダイキョウキン,0
432,2120001271989,新規,0,2025-01-20,2025-01-20,ＢＡＲＳＯＵＬ株式会社,,株式会社,大阪府,大阪市中央区,今橋１丁目１番３号９０９号室,,27,128,5410042,,,,,,,2025-01-20,1,,,,,バーソウル,0
433,2120001271997,新規,0,2025-01-20,2025-01-20,株式会社コネクト,,株式会社,大阪府,大阪市生野区,中川４丁目１７番２３号,,27,116,5440005,,,,,,,2025-01-20,1,,,,,コネクト,0
434,2120005024708,新規,0,2025-01-20,2025-01-20,医療法人彩啓会,,その他の設立登記法人,大阪府,大阪市城東区,関目１丁目１８番１５号,,27,118,5360008,,,,,,,2025-01-20,1,,,,,サイケイカイ,0
436,2120105009955,新規,0,2025-01-20,2025-01-20,社会保険労務士法人山ノ内事務所,,その他の設立登記法人,大阪府,堺市西区,浜寺船尾町西４丁５２３番地６６,,27,144,5928342,,,,,,,2025-01-20,1,,,,,ヤマノウチジムショ,0
440,2120901050311,新規,0,2025-01-20,2025-01-20,南十字星・ファーム株式会社,,株式会社,大阪府,吹田市,朝日町１３番２号,,27,205,5640027,,,,,,,2025-01-20,1,,,,,ミナミジュウジセイファーム,0
449,2130003010139,新規,0,2025-01-20,2025-01-20,合同会社岡本商店,,合同会社,京都府,京都市下京区,朱雀宝蔵町４４番地協栄ビル２階京都朱雀スタジオ,,26,106,6008846,,,,,,,2025-01-20,1,,,,,オカモトショウテン,0
471,2140001137107,新規,0,2025-01-20,2025-01-20,株式会社Ｔｉｌｄａ　Ｊａｐａｎ,,株式会社,兵庫県,神戸市中央区,磯上通４丁目１番１４号三宮スカイビル８階,,28,110,6510086,,,,,,,2025-01-20,1,,,,,ティルダジャパン,0
472,2140001137123,新規,0,2025-01-20,2025-01-20,株式会社リーフ環境企画,,株式会社,兵庫県,明石市,松が丘５丁目２０番１号,,28,203,6730862,,,,,,,2025-01-20,1,,,,,リーフカンキョウキカク,0
484,2140003021556,新規,0,2025-01-20,2025-01-20,オーズ・アンツ合同会社,,合同会社,兵庫県,西宮市,甲子園口３丁目１０－１・１Ｆ,,28,204,6638113,,,,,,,2025-01-20,1,,,,,オーズアンツ,0
502,2180001165013,新規,0,2025-01-20,2025-01-20,トータルパートナーズ株式会社,,株式会社,愛知県,名古屋市中区,丸の内２丁目９番２４号Ｆａｃｅ日銀前６０２号,,23,106,4600002,,,,,,,2025-01-20,1,,,,,トータルパートナーズ,0
503,2180001165054,新規,0,2025-01-20,2025-01-20,株式会社怜,,株式会社,愛知県,一宮市,時之島字八剱宮前２７番地１,,23,203,4910002,,,,,,,2025-01-20,1,,,,,レイ,0
512,2190001031949,新規,0,2025-01-20,2025-01-20,名古屋部品工業株式会社,,株式会社,三重県,三重郡菰野町,大字千草４９９２番地６,,24,341,5101251,,,,,,,2025-01-20,1,,,,,ナゴヤブヒンコウギョウ,0
525,2290001108670,新規,0,2025-01-20,2025-01-20,福星株式会社,,株式会社,福岡県,福岡市西区,愛宕３丁目４番１２号,,40,135,8190015,,,,,,,2025-01-20,1,,,,,フクセイ,0
526,2290801031213,新規,0,2025-01-20,2025-01-20,ＰｉｎｋｉｅＴｅｃｈ株式会社,,株式会社,福岡県,北九州市八幡西区,塔野１丁目１４‐２２,,40,109,8070085,,,,,,,2025-01-20,1,,,,,ピンキーテック,0
529,2320001020896,新規,0,2025-01-20,2025-01-20,株式会社ＧＯＫＯ,,株式会社,大分県,中津市,大字大塚３５７番地７,,44,203,8710008,,,,,,,2025-01-20,1,,,,,ゴコー,0
542,2340001027064,新規,0,2025-01-20,2025-01-20,株式会社ミライサンズ,,株式会社,鹿児島県,鹿児島市,薬師２丁目２５番２０号,,46,201,8900042,,,,,,,2025-01-20,1,,,,,ミライサンズ,0
556,2400003003379,新規,0,2025-01-20,2025-01-20,拓殖三次産業合同会社,,合同会社,岩手県,一関市,東山町長坂小野３５番地７－Ａ,,03,209,0290302,,,,,,,2025-01-20,1,,,,,タクショクサンジサンギョウ,0
559,2430001093485,新規,0,2025-01-20,2025-01-20,株式会社ＡＬＬ　ＩＮ,,株式会社,北海道,石狩市,緑苑台東三条１丁目１０２番地,,01,235,0613223,,,,,,,2025-01-20,1,,,,,オールイン,0
560,2430003017186,新規,0,2025-01-20,2025-01-20,合同会社マルゴ,,合同会社,北海道,札幌市白石区,北郷三条１丁目６番２８－２０５号,,01,104,0030833,,,,,,,2025-01-20,1,,,,,マルゴ,0
561,2430005015139,新規,0,2025-01-20,2025-01-20,税理士法人ｎｏｔｔｅ,,その他の設立登記法人,北海道,札幌市中央区,南二条東２丁目１６番地,,01,101,0600052,,,,,,,2025-01-20,1,,,,,ノッテ,0
567,2490003001969,新規,0,2025-01-20,2025-01-20,合同会社グレースコーラル,,合同会社,高知県,宿毛市,松田町８番２６－１号,,39,208,7880007,,,,,,,2025-01-20,1,,,,,,0
573,3010001251522,新規,0,2025-01-20,2025-01-20,株式会社グローバルメゾン,,株式会社,東京都,中央区,日本橋人形町１丁目４番１０号,,13,102,1030013,,,,,,,2025-01-20,1,,,,,グローバルメゾン,0
574,3010001251547,新規,0,2025-01-20,2025-01-20,株式会社ｌｏｏｋｍｅ,,株式会社,東京都,中央区,銀座７丁目１３番６号サガミビル２階,,13,102,1040061,,,,,,,2025-01-20,1,,,,,ルックミー,0
576,3010003046045,新規,0,2025-01-20,2025-01-20,合同会社Ｍｏｎｅｔ,,合同会社,東京都,中央区,佃２丁目５－７－１００３,,13,102,1040051,,,,,,,2025-01-20,1,,,,,モネ,0
581,3010401187548,新規,0,2025-01-20,2025-01-20,株式会社ＩＲＯＤＯＲＩ,,株式会社,東京都,港区,港南４丁目６番４－３３０２号,,13,103,1080075,,,,,,,2025-01-20,1,,,,,イロドリ,0
582,3010401187622,新規,0,2025-01-20,2025-01-20,株式会社Ｓｔａｙ　Ｄｅｓｉｇｎ　Ａｄｖｉｓｏｒｓ,,株式会社,東京都,港区,芝１丁目５番１２号,,13,103,1050014,,,,,,,2025-01-20,1,,,,,ステイデザインアドバイザーズ,0
583,3010401187647,新規,0,2025-01-20,2025-01-20,ＢＭＳＴ　ＪＰＮ株式会社,,株式会社,東京都,港区,元麻布３丁目１番６号,,13,103,1060046,,,,,,,2025-01-20,1,,,,,ビーエムエスティージェイピーエヌ,0
584,3010401187671,新規,0,2025-01-20,2025-01-20,株式会社アテニクス,,株式会社,東京都,港区,高輪２丁目１７番１２号カスタリア高輪９０８,,13,103,1080074,,,,,,,2025-01-20,1,,,,,アテニクス,0
590,3010405023988,新規,0,2025-01-20,2025-01-20,佳生監査法人,,その他の設立登記法人,東京都,港区,赤坂５丁目２番３３ＩｓａＩＡｋａｓａｋＡ７０１号,,13,103,1070052,,,,,,,2025-01-20,1,,,,,カオ,0
594,3010701047121,新規,0,2025-01-20,2025-01-20,株式会社エスロジー,,株式会社,東京都,品川区,東五反田４丁目１０番９号シャトレー五反田１階Ｃ,,13,109,1410022,,,,,,,2025-01-20,1,,,,,エスロジー,0
595,3010801035760,新規,0,2025-01-20,2025-01-20,株式会社ＧＲＩＴ,,株式会社,東京都,大田区,下丸子３丁目１７番１号,,13,111,1460092,,,,,,,2025-01-20,1,,,,,グリット,0
599,3010901056657,新規,0,2025-01-20,2025-01-20,株式会社ＹＬＣソリューションズ,,株式会社,東京都,世田谷区,経堂２丁目３１番２０号ライオンズマンション経堂第５－２０２,,13,112,1560052,,,,,,,2025-01-20,1,,,,,ワイエルシーソリューションズ,0
600,3010901056665,新規,0,2025-01-20,2025-01-20,株式会社Ｃｙｂｅｒｎｅｕｒａ,,株式会社,東京都,世田谷区,上北沢３丁目３４番１１号,,13,112,1560057,,,,,,,2025-01-20,1,,,,,サイバーニューラ,0
601,3010901056673,新規,0,2025-01-20,2025-01-20,Ｍｅｄｅｉａｌｉｎｋ株式会社,,株式会社,東京都,世田谷区,上北沢４丁目１８番５号,,13,112,1560057,,,,,,,2025-01-20,1,,,,,メディアリンク,0
604,3011001166990,新規,0,2025-01-20,2025-01-20,株式会社アトリエリンガ,,株式会社,東京都,渋谷区,富ヶ谷２丁目２番１７号ＤＳマンション１０５,,13,113,1510063,,,,,,,2025-01-20,1,,,,,,0
605,3011001167089,新規,0,2025-01-20,2025-01-20,ＱＯＬＩＮＫ株式会社,,株式会社,東京都,渋谷区,恵比寿４丁目２０－３恵比寿ガーデンプレイスタワー１８階,,13,113,1500013,,,,,,,2025-01-20,1,,,,,キュオリンク,0
609,3011201026061,新規,0,2025-01-20,2025-01-20,ＨＲＥオフィス株式会社,,株式会社,東京都,中野区,本町３丁目１９番１５号,,13,114,1640012,,,,,,,2025-01-20,1,,,,,エイチアールイーオフィス,0
610,3011305003023,新規,0,2025-01-20,2025-01-20,特定非営利活動法人ジャパンスノーボードサポートグループ,,その他の設立登記法人,東京都,杉並区,阿佐谷北１丁目４１番１８号,,13,115,1660001,,,,,,,2025-01-20,1,,,,,ジャパンスノーボードサポートグループ,0
613,3011601028368,新規,0,2025-01-20,2025-01-20,株式会社新聖,,株式会社,東京都,練馬区,石神井町２丁目３５番２号アートパレス石神井公園ＮＯ１－１０３,,13,120,1770041,,,,,,,2025-01-20,1,,,,,シンセイ,0
628,3020003027630,新規,0,2025-01-20,2025-01-20,アイティーチャー合同会社,,合同会社,神奈川県,横浜市港北区,箕輪町３丁目２３－１０エクセレントハイツ箕輪２０２号室,,14,109,2230051,,,,,,,2025-01-20,1,,,,,アイティチャー,0
629,3020003027663,新規,0,2025-01-20,2025-01-20,合同会社モカ,,合同会社,神奈川県,横浜市港北区,大倉山５丁目１０番,,14,109,2220037,,,,,,,2025-01-20,1,,,,,モカ,0
630,3020005016680,新規,0,2025-01-20,2025-01-20,南幸町税理士法人,,その他の設立登記法人,神奈川県,川崎市幸区,南幸町２丁目１０番地シノザキビル３０３号,,14,132,2120016,,,,,,,2025-01-20,1,,,,,ミナミサイワイチョウ,0
634,3021001084234,新規,0,2025-01-20,2025-01-20,知行人生株式会社,,株式会社,神奈川県,秦野市,南矢名２２２３番地の４東海ビル１１４Ｂ,,14,211,2570003,,,,,,,2025-01-20,1,,,,,チコウジンセイ,0
635,3021001084242,新規,0,2025-01-20,2025-01-20,株式会社ＧｏＲｉｎ,,株式会社,神奈川県,藤沢市,片瀬２丁目４番２７号,,14,205,2510032,,,,,,,2025-01-20,1,,,,,ゴリン,0
636,3021001084250,新規,0,2025-01-20,2025-01-20,ＧＬＯＢＡＬ　ＴＲＡＤＩＮＧ株式会社,,株式会社,神奈川県,相模原市南区,下溝１６６１番地１,,14,153,2520335,,,,,,,2025-01-20,1,,,,,グローバルトレーディング,0
648,3030001164425,新規,0,2025-01-20,2025-01-20,株式会社フクミヤ,,株式会社,埼玉県,さいたま市大宮区,三橋１丁目１０８４,,11,103,3300856,,,,,,,2025-01-20,1,,,,,フクミヤ,0
653,3030003025831,新規,0,2025-01-20,2025-01-20,合同会社ｆｏｒ　Ｗｅｌｌ‐ｂｅｉｎｇ,,合同会社,埼玉県,入間市,大字上藤沢５２０番地１０,,11,225,3580013,,,,,,,2025-01-20,1,,,,,フォーウェルビーイング,0
657,3040001137058,新規,0,2025-01-20,2025-01-20,株式会社アテ,,株式会社,千葉県,印西市,平賀学園台２丁目２６番８号,,12,231,2701606,,,,,,,2025-01-20,1,,,,,アテ,0
660,3050001056026,新規,0,2025-01-20,2025-01-20,株式会社トラックトーマス,,株式会社,茨城県,坂東市,菅谷６３９番地３,,08,228,3060505,,,,,,,2025-01-20,1,,,,,トラックトーマス,0
661,3050001056034,新規,0,2025-01-20,2025-01-20,株式会社ｂｒｉｎｇ　ｐｌｕｓ,,株式会社,茨城県,つくば市,学園の森１丁目１０番地１１,,08,220,3050816,,,,,,,2025-01-20,1,,,,,ブリングプラス,0
674,3080401027689,新規,0,2025-01-20,2025-01-20,ＢｉｚＨａｉｒ株式会社,,株式会社,静岡県,浜松市中央区,高林１丁目８番３８号,,22,138,4300907,,,,,,,2025-01-20,1,,,,,ビズヘアー,0
675,3080403005180,新規,0,2025-01-20,2025-01-20,Ｐａｃｉｎｇ合同会社,,合同会社,静岡県,磐田市,岩井３２０９－２,,22,211,4380016,,,,,,,2025-01-20,1,,,,,ペイシング,0
677,3100001038200,新規,0,2025-01-20,2025-01-20,株式会社ＧＩＮＡ,,株式会社,長野県,北佐久郡軽井沢町,軽井沢東１１番地２２,,20,321,3890104,,,,,,,2025-01-20,1,,,,,ジーナ,0
685,3110005017174,新規,0,2025-01-20,2025-01-20,一般社団法人あすあが,,その他の設立登記法人,新潟県,東蒲原郡阿賀町,津川５８８,,15,385,9594402,,,,,,,2025-01-20,1,,,,,アスアガ,0
691,3120001271880,新規,0,2025-01-20,2025-01-20,株式会社スピニング,,株式会社,大阪府,枚方市,大峰東町１８番１０号,,27,210,5730142,,,,,,,2025-01-20,1,,,,,スピニング,0
692,3120001271971,新規,0,2025-01-20,2025-01-20,北原準備株式会社,,株式会社,大阪府,大阪市中央区,南久宝寺町２丁目６番２号,,27,128,5410058,,,,,,,2025-01-20,1,,,,,キタハラジュンビ,0
693,3120001271996,新規,0,2025-01-20,2025-01-20,ＣＺＧ　ＴＲＡＤＩＮＧ株式会社,,株式会社,大阪府,大阪市都島区,東野田町１丁目１８番６号シャトーハイツ５０１号室,,27,102,5340024,,,,,,,2025-01-20,1,,,,,シーゼットジートレーディング,0
694,3120001272029,新規,0,2025-01-20,2025-01-20,新世界国際貿易株式会社,,株式会社,大阪府,大阪市阿倍野区,橋本町９番１０号,,27,119,5450031,,,,,,,2025-01-20,1,,,,,シンセカイコクサイボウエキ,0
695,3120001272061,新規,0,2025-01-20,2025-01-20,恩恵株式会社,,株式会社,大阪府,大阪市住吉区,墨江３丁目１８番２１号,,27,120,5580043,,,,,,,2025-01-20,1,,,,,オンケイ,0
700,3120103006243,新規,0,2025-01-20,2025-01-20,合同会社カコラボ,,合同会社,大阪府,堺市中区,深井北町５２番地１２,,27,142,5998271,,,,,,,2025-01-20,1,,,,,カコラボ,0
701,3120105009954,新規,0,2025-01-20,2025-01-20,医療法人ミッション,,その他の設立登記法人,大阪府,泉大津市,助松団地３番１１号,,27,206,5950007,,,,,,,2025-01-20,1,,,,,ミッション,0
708,3130001078796,新規,0,2025-01-20,2025-01-20,株式会社Ａｔｅｌｉｅｒ　ＴＯＯｆｕ,,株式会社,京都府,京都市中京区,壬生相合町６７番地１ＵＮ２０３号,,26,104,6048812,,,,,,,2025-01-20,1,,,,,アトリエトーフ,0
731,3140001137106,新規,0,2025-01-20,2025-01-20,株式会社ＩＮＡ,,株式会社,兵庫県,川西市,火打２丁目８－１８センターヒルズ１０１,,28,217,6660017,,,,,,,2025-01-20,1,,,,,アイエヌエー,0
746,3140003021547,新規,0,2025-01-20,2025-01-20,合同会社グイート,,合同会社,兵庫県,西宮市,生瀬高台２７番８号,,28,204,6691111,,,,,,,2025-01-20,1,,,,,グイート,0
752,3150001027826,新規,0,2025-01-20,2025-01-20,株式会社ａｐｐｌｅ,,株式会社,奈良県,葛城市,北花内２９９番地５,,29,211,6392113,,,,,,,2025-01-20,1,,,,,アップル,0
754,3160001026496,新規,0,2025-01-20,2025-01-20,株式会社ＭＡＴＳＵＩＹＡ,,株式会社,滋賀県,大津市,竜が丘７‐１１,,25,201,5200803,,,,,,,2025-01-20,1,,,,,マツイヤ,0
760,3180003027887,新規,0,2025-01-20,2025-01-20,合同会社アクトブルー,,合同会社,愛知県,春日井市,乙輪町２丁目８７番地,,23,206,4860832,,,,,,,2025-01-20,1,,,,,アクトブルー,0
762,3190001031948,新規,0,2025-01-20,2025-01-20,株式会社ユウトザヒロキ,,株式会社,三重県,松阪市,高町６７２番地,,24,204,5150011,,,,,,,2025-01-20,1,,,,,ユウトザヒロキ,0
766,3190003004910,新規,0,2025-01-20,2025-01-20,ゼブラ・イノベイト合同会社,,合同会社,三重県,津市,栗真町屋町１５７７地域イノベーション研究開発拠点Ａ棟２２０室,,24,201,5140102,,,,,,,2025-01-20,1,,,,,ゼブライノベイト,0
770,3200003006665,新規,0,2025-01-20,2025-01-20,合同会社バリューコネクト,,合同会社,岐阜県,多治見市,宝町５丁目４０番地１,,21,204,5070054,,,,,,,2025-01-20,1,,,,,バリューコネクト,0
773,3240001064397,新規,0,2025-01-20,2025-01-20,株式会社せと建Ｔｏｔａｌ　Ｓｕｐｐｏｒｔ,,株式会社,広島県,府中市,栗柄町３０７９番地８,,34,208,7260023,,,,,,,2025-01-20,1,,,,,セトケントータルサポート,0
777,3260001039827,新規,0,2025-01-20,2025-01-20,株式会社ＡＫパートナーズ,,株式会社,岡山県,岡山市中区,福泊２３７番地３４,,33,102,7038262,,,,,,,2025-01-20,1,,,,,エーケーパートナーズ,0
779,3270001009127,新規,0,2025-01-20,2025-01-20,株式会社Ｓｔｕｄｉｏ８８,,株式会社,鳥取県,鳥取市,末広温泉町３５５番地レインボープラザ鳥取１０２,,31,201,6800833,,,,,,,2025-01-20,1,,,,,スタジオハチハチ,0
785,3290001108620,新規,0,2025-01-20,2025-01-20,株式会社ＳＥＣＯＮＤ,,株式会社,福岡県,福岡市中央区,大名１丁目２番２０－２Ｂ,,40,133,8100041,,,,,,,2025-01-20,1,,,,,セカンド,0
788,3290003016276,新規,0,2025-01-20,2025-01-20,合同会社ｃｈａｒｂｏｎ,,合同会社,福岡県,福岡市博多区,住吉３丁目１０－２５第１５川崎ビル１Ｆ,,40,132,8120018,,,,,,,2025-01-20,1,,,,,シャルボン,0
789,3290005019624,新規,0,2025-01-20,2025-01-20,医療法人みなと内科クリニック,,その他の設立登記法人,福岡県,福岡市中央区,長浜３丁目１１番３号鮮魚市場会館２０１号室,,40,133,8100072,,,,,,,2025-01-20,1,,,,,ミナトナイカクリニック,0
791,3320001020895,新規,0,2025-01-20,2025-01-20,太翔工業株式会社,,株式会社,大分県,速見郡日出町,大字豊岡１１５５番地,,44,341,8791507,,,,,,,2025-01-20,1,,,,,タイショウコウギョウ,0
803,3330001032816,新規,0,2025-01-20,2025-01-20,株式会社濱崎,00137699,株式会社,熊本県,荒尾市,荒尾３９９８番地６,,43,204,8640041,,,,,,,2025-01-20,1,,,,,ハマサキ,0
807,3330003010737,新規,0,2025-01-20,2025-01-20,合同会社亀栄商店,,合同会社,熊本県,熊本市中央区,神水１丁目３８番３５号鎌田ビル１０３号,,43,101,8620954,,,,,,,2025-01-20,1,,,,,カメエショウテン,0
811,3340003004713,新規,0,2025-01-20,2025-01-20,Ｋ‐ＴＯＵＲ合同会社,,合同会社,鹿児島県,鹿児島市,小山田町７０９２番地３,,46,201,8911231,,,,,,,2025-01-20,1,,,,,ケイツアー,0
812,3340003004721,新規,0,2025-01-20,2025-01-20,合同会社Ｓｙｎｅｒｇｙ,,合同会社,鹿児島県,鹿児島市,西陵６丁目６番１６号,,46,201,8900032,,,,,,,2025-01-20,1,,,,,シナジー,0
813,3350001019373,新規,0,2025-01-20,2025-01-20,クラモトファーム株式会社,,株式会社,宮崎県,北諸県郡三股町,大字樺山３１１４番地１,,45,341,8891901,,,,,,,2025-01-20,1,,,,,クラモトファーム,0
817,3360003014611,新規,0,2025-01-20,2025-01-20,合同会社桃の木,,合同会社,沖縄県,沖縄市,八重島２丁目６番７号,,47,211,9040006,,,,,,,2025-01-20,1,,,,,モモノキ,0
819,3370001052001,新規,0,2025-01-20,2025-01-20,株式会社ＭＣＣ,,株式会社,宮城県,名取市,杜せきのした５丁目２２番地の２,,04,207,9811227,,,,,,,2025-01-20,1,,,,,エムシーシー,0
825,3400003003378,新規,0,2025-01-20,2025-01-20,合同会社Ｔａｃｈｙｏｎ,,合同会社,岩手県,一関市,東山町長坂小野３５番地７－１Ｆ,,03,209,0290302,,,,,,,2025-01-20,1,,,,,タキオン,0
826,3410001014038,新規,0,2025-01-20,2025-01-20,株式会社Ｎｅｋｏｙａｓｉｋｉ,,株式会社,秋田県,秋田市,雄和椿川字前椿岱４４番地２２,,05,201,0101211,,,,,,,2025-01-20,1,,,,,,0
831,3430001093484,新規,0,2025-01-20,2025-01-20,株式会社ＨＭＳ,,株式会社,北海道,札幌市中央区,南九条西１３丁目２番３４号ブランカッセ南９条５０１号室,,01,101,0640809,,,,,,,2025-01-20,1,,,,,エイチエムエス,0
832,3430003017185,新規,0,2025-01-20,2025-01-20,合同会社Ｓｋ‐Ｅｚｏ‐Ｌａｂ．,,合同会社,北海道,札幌市豊平区,平岸四条１２丁目１２‐１３ブレェザＩＩＩ‐ｂ,00137696,01,105,0620934,,,,,,,2025-01-20,1,,,,,エスケーエゾラボ,0
836,3470003002794,新規,0,2025-01-20,2025-01-20,合同会社ＵＲＵ,,合同会社,香川県,高松市,屋島西町１９５３番地１サンハイツ屋島１０２,,37,201,7610113,,,,,,,2025-01-20,1,,,,,,0
838,3480001012712,新規,0,2025-01-20,2025-01-20,ＳＡＮＧＭＥＤＩＣＡ株式会社,,株式会社,徳島県,徳島市,八万町上福万９番地４３,,36,201,7708073,,,,,,,2025-01-20,1,,,,,サングメディカ,0
856,4010001251554,新規,0,2025-01-20,2025-01-20,株式会社ＥＳＥ．Ｓ,,株式会社,東京都,千代田区,外神田４丁目４番９号松井ビル５Ｆ,,13,101,1010021,,,,,,,2025-01-20,1,,,,,イーエスイードットエス,0
863,4010401187547,新規,0,2025-01-20,2025-01-20,株式会社Ｐｉｘｘｘｙ,,株式会社,東京都,港区,赤坂３丁目２１－１５東都赤坂ビルＢ３号室,,13,103,1070052,,,,,,,2025-01-20,1,,,,,ピクシー,0
864,4010401187621,新規,0,2025-01-20,2025-01-20,株式会社Ｗａｄｏｄｅｎ,,株式会社,東京都,港区,新橋２丁目１６番１号ニュー新橋ビル１０階,,13,103,1050004,,,,,,,2025-01-20,1,,,,,ワドデン,0
865,4010401187646,新規,0,2025-01-20,2025-01-20,株式会社ＡＰ８２ホールディングス,,株式会社,東京都,港区,虎ノ門４丁目１番２８号虎ノ門タワーズオフィス１７階,,13,103,1050001,,,,,,,2025-01-20,1,,,,,エーピーハチジュウニホールディングス,0
866,4010401187670,新規,0,2025-01-20,2025-01-20,株式会社アイソルネット,,株式会社,東京都,港区,赤坂４丁目１３－５赤坂オフィスハイツ１２８号,,13,103,1070052,,,,,,,2025-01-20,1,,,,,アイソルネット,0
868,4010403034185,新規,0,2025-01-20,2025-01-20,ＪＳｑｕａｒｅｄ　Ｃａｐｉｔａｌ合同会社,,合同会社,東京都,港区,芝浦４丁目１５番１－１１０５号,,13,103,1080023,,,,,,,2025-01-20,1,,,,,ジェースクエアードキャピタル,0
871,4010501053491,新規,0,2025-01-20,2025-01-20,萬景株式会社,,株式会社,東京都,台東区,台東３丁目１７番１号ダイアパレス御徒町Ｖ１０３号室,,13,106,1100016,,,,,,,2025-01-20,1,,,,,マンケイ,0
875,4010601066501,新規,0,2025-01-20,2025-01-20,株式会社あぱつ不動産,,株式会社,東京都,江東区,豊洲３丁目６番８‐４００７号,,13,108,1350061,,,,,,,2025-01-20,1,,,,,アパツフドウサン,0
876,4010603011331,新規,0,2025-01-20,2025-01-20,合同会社ＲＭＳ,,合同会社,東京都,墨田区,緑３丁目１９番３号,,13,107,1300021,,,,,,,2025-01-20,1,,,,,アールエムエス,0
881,4010701047120,新規,0,2025-01-20,2025-01-20,株式会社ＣＨＭ,,株式会社,東京都,品川区,上大崎３丁目１番２－２３０５号,,13,109,1410021,,,,,,,2025-01-20,1,,,,,シーエイチエム,0
886,4010901056656,新規,0,2025-01-20,2025-01-20,株式会社ＰｕｒｅＣｏｒｅ,,株式会社,東京都,世田谷区,上北沢１丁目２２－２４－５０３,,13,112,1560057,,,,,,,2025-01-20,1,,,,,ピュアコア,0
887,4010903009645,新規,0,2025-01-20,2025-01-20,合同会社ｙ’ｓ,,合同会社,東京都,世田谷区,奥沢１丁目３７番１０号２Ｆ,,13,112,1580083,,,,,,,2025-01-20,1,,,,,ワイズ,0
888,4011001167030,新規,0,2025-01-20,2025-01-20,株式会社ＬＥＡＦ,,株式会社,東京都,渋谷区,上原１丁目３２－３ＣＡＢＯＵｅｈａｒａ１０５,,13,113,1510064,,,,,,,2025-01-20,1,,,,,リーフ,0
889,4011001167039,新規,0,2025-01-20,2025-01-20,Ｐｒｏｊｅｃｔ．Ｌ株式会社,,株式会社,東京都,渋谷区,渋谷２丁目１９－１５宮益坂ビルディング６０９,,13,113,1500002,,,,,,,2025-01-20,1,,,,,プロジェクトエル,0
890,4011001167121,新規,0,2025-01-20,2025-01-20,株式会社Ｌｉｎｋ,,株式会社,東京都,渋谷区,恵比寿西２丁目８番４号ＥＸ恵比寿西ビル５階,,13,113,1500021,,,,,,,2025-01-20,1,,,,,リンク,0
891,4011001167237,新規,0,2025-01-20,2025-01-20,Ｙａｍａ＆Ｃｏｍｐａｎｙ株式会社,,株式会社,東京都,目黒区,大橋２丁目２３番２１－３０４号,,13,110,1530044,,,,,,,2025-01-20,1,,,,,ヤマアンドカンパニー,0
892,4011003020749,新規,0,2025-01-20,2025-01-20,合同会社Ｍ．Ｂ．Ｐ．,,合同会社,東京都,渋谷区,道玄坂２丁目１７－３－３ｆ,,13,113,1500043,,,,,,,2025-01-20,1,,,,,エムビーピー,0
896,4011101110195,新規,0,2025-01-20,2025-01-20,株式会社ＺＥＮ,,株式会社,東京都,新宿区,西新宿８丁目１６番１号,,13,104,1600023,,,,,,,2025-01-20,1,,,,,ゼン,0
899,4011301030292,新規,0,2025-01-20,2025-01-20,株式会社Ｂｌｉｓｓ,,株式会社,東京都,杉並区,高円寺北３丁目４２番７－１０３号,,13,115,1660002,,,,,,,2025-01-20,1,,,,,ブリス,0
900,4011301030301,新規,0,2025-01-20,2025-01-20,株式会社Ｄｏ‐Ｃｒｅａｔｅ,,株式会社,東京都,杉並区,久我山５丁目１５番１８号,,13,115,1680082,,,,,,,2025-01-20,1,,,,,ドゥークリエイト,0
903,4011401026744,新規,0,2025-01-20,2025-01-20,株式会社スポザニア,,株式会社,東京都,板橋区,加賀１丁目１５番６号,,13,119,1730003,,,,,,,2025-01-20,1,,,,,スポザニア,0
914,4011603004580,新規,0,2025-01-20,2025-01-20,田中合同会社,,合同会社,東京都,練馬区,大泉学園町２丁目３番３号,,13,120,1780061,,,,,,,2025-01-20,1,,,,,タナカ,0
915,4011701027979,新規,0,2025-01-20,2025-01-20,株式会社歩来一,,株式会社,東京都,江戸川区,南小岩６丁目１６番１５号,,13,123,1330056,,,,,,,2025-01-20,1,,,,,フクイチ,0
916,4011701027987,新規,0,2025-01-20,2025-01-20,株式会社ｔｏｍ’ｓ　ｓｔｕｄｉｏ,,株式会社,東京都,江戸川区,南葛西５丁目９番１５号,,13,123,1340085,,,,,,,2025-01-20,1,,,,,トムズスタジオ,0
928,4012803003604,新規,0,2025-01-20,2025-01-20,合同会社Ｔ．Ｏ．,,合同会社,東京都,立川市,羽衣町１丁目２４番１１－１０１４号,,13,202,1900021,,,,,,,2025-01-20,1,,,,,ティーオー,0
932,4013301053645,新規,0,2025-01-20,2025-01-20,ゴーエッジ株式会社,,株式会社,東京都,豊島区,千早１丁目１９番１２－６０６号,,13,116,1710044,,,,,,,2025-01-20,1,,,,,ゴーエッジ,0
933,4013303007491,新規,0,2025-01-20,2025-01-20,４Ｔｅｃｈ合同会社,,合同会社,東京都,豊島区,西池袋４丁目１２番９－４０３号,,13,116,1710021,,,,,,,2025-01-20,1,,,,,フォーテック,0
936,4020001161034,新規,0,2025-01-20,2025-01-20,株式会社Ｐｒｏｇｒｅｓｓ,,株式会社,神奈川県,横浜市南区,中村町４丁目２７４番地１０－４０６号,,14,105,2320033,,,,,,,2025-01-20,1,,,,,プログレス,0
939,4020003027679,新規,0,2025-01-20,2025-01-20,合同会社ストラテジックコーポレーション,,合同会社,神奈川県,横浜市泉区,中田北１丁目１－３４－３０１,,14,116,2450012,,,,,,,2025-01-20,1,,,,,ストラテジックコーポレーション,0
943,4021001084258,新規,0,2025-01-20,2025-01-20,株式会社石塚電気,,株式会社,神奈川県,平塚市,寺田縄９７８番地の１,,14,203,2591215,,,,,,,2025-01-20,1,,,,,イシヅカデンキ,0
944,4021001084266,新規,0,2025-01-20,2025-01-20,株式会社ライトハウス,,株式会社,神奈川県,横須賀市,追浜東町２丁目３－１ザ・パークハウス追浜Ｃ－６０８,,14,201,2370063,,,,,,,2025-01-20,1,,,,,ライトハウス,0
948,4021003015483,新規,0,2025-01-20,2025-01-20,合同会社モバイル楽,,合同会社,神奈川県,厚木市,温水西１丁目３９―７,,14,212,2430039,,,,,,,2025-01-20,1,,,,,モバイルラク,0
954,4030001164267,新規,0,2025-01-20,2025-01-20,鴻運株式会社,,株式会社,埼玉県,川口市,西川口１丁目３０－２０－２１５,,11,203,3320021,,,,,,,2025-01-20,1,,,,,コウウン,0
955,4030001164432,新規,0,2025-01-20,2025-01-20,パヤタイインターナショナル株式会社,,株式会社,埼玉県,川口市,本町４丁目６番１０号,,11,203,3320012,,,,,,,2025-01-20,1,,,,,パヤタイインターナショナル,0
956,4030001164440,新規,0,2025-01-20,2025-01-20,ＳｔａｒＨｏｍｅｓ株式会社,,株式会社,埼玉県,川口市,並木１丁目２－２１－７０１,,11,203,3320034,,,,,,,2025-01-20,1,,,,,スターホームズ,0
957,4030001164449,新規,0,2025-01-20,2025-01-20,株式会社平井気象予報士事務所,,株式会社,埼玉県,春日部市,緑町６丁目１１番２９号,,11,214,3440063,,,,,,,2025-01-20,1,,,,,ヒライキショウヨホウシジムショ,0
968,4040001137057,新規,0,2025-01-20,2025-01-20,株式会社ＮＡＭＡＳＴＥ　ＣＯＲＰＯＲＡＴＩＯＮ,,株式会社,千葉県,船橋市,東中山２丁目１５－２０－３０２,,12,204,2730036,,,,,,,2025-01-20,1,,,,,ナマステコーポレーション,0
972,4040003026605,新規,0,2025-01-20,2025-01-20,合同会社ｍｏｎｔ‐ｃｈａｍｐｓ,,合同会社,千葉県,市原市,ちはら台南５丁目１８－５,,12,219,2900142,,,,,,,2025-01-20,1,,,,,モンシャン,0
973,4040003026613,新規,0,2025-01-20,2025-01-20,ＳＨＩＰ．合同会社,,合同会社,千葉県,浦安市,美浜１丁目１番４１２号,,12,227,2790011,,,,,,,2025-01-20,1,,,,,シップドット,0
982,4060001037841,新規,0,2025-01-20,2025-01-20,株式会社ｕｎｉｑｕｅ,,株式会社,栃木県,宇都宮市,細谷町５６９番地２９,,09,201,3200074,,,,,,,2025-01-20,1,,,,,ユニーク,0
986,4070003005754,新規,0,2025-01-20,2025-01-20,合同会社ＨＯＯＰ,,合同会社,群馬県,前橋市,本町１丁目１１―６,,10,201,3710023,,,,,,,2025-01-20,1,,,,,フープ,0
988,4080101025257,新規,0,2025-01-20,2025-01-20,株式会社鈴隆,,株式会社,静岡県,御殿場市,杉名沢６１－７,,22,215,4120044,,,,,,,2025-01-20,1,,,,,,0
989,4080101025265,新規,0,2025-01-20,2025-01-20,株式会社太陽,,株式会社,静岡県,三島市,加屋町１番１２号,,22,206,4110845,,,,,,,2025-01-20,1,,,,,テヤン,0
1002,4120001271871,新規,0,2025-01-20,2025-01-20,ＣｏｒｅＶｉｓｔａ‐Ｊａｐａｎ株式会社,,株式会社,大阪府,大阪市住吉区,南住吉１丁目２番２１号ラプティメゾン長居４０５号,,27,120,5580041,,,,,,,2025-01-20,1,,,,,コアビスタジャパン,0
1003,4120001271962,新規,0,2025-01-20,2025-01-20,株式会社ノウ,,株式会社,大阪府,大阪市北区,梅田１丁目２番２号大阪駅前第２ビル１２－１２,,27,127,5300001,,,,,,,2025-01-20,1,,,,,ノウ,0
1004,4120001271970,新規,0,2025-01-20,2025-01-20,株式会社善,,株式会社,大阪府,大阪市鶴見区,横堤４丁目２番１２号プリモアネッソ６０５号室,,27,124,5380052,,,,,,,2025-01-20,1,,,,,ゼン,0
1005,4120001271979,新規,0,2025-01-20,2025-01-20,ＣＲ４株式会社,,株式会社,大阪府,守口市,寺方錦通１丁目１番１５号,,27,209,5700042,,,,,,,2025-01-20,1,,,,,シーアールフォー,0
1006,4120001272028,新規,0,2025-01-20,2025-01-20,恒＿祥株式会社,00137705,株式会社,大阪府,大阪市大正区,三軒家西３丁目４番１６号中山ビル１０２８,,27,108,5510001,,,,,,,2025-01-20,1,,,,,コウリュウショウ,0
1007,4120001272093,新規,0,2025-01-20,2025-01-20,株式会社ＡＹＯ,,株式会社,大阪府,大阪市東淀川区,上新庄３丁目１番３－４０３号,,27,114,5330006,,,,,,,2025-01-20,1,,,,,エーワイオー,0
1011,4120003028386,新規,0,2025-01-20,2025-01-20,合同会社Ａｓｕｍｏ,,合同会社,大阪府,大阪市東淀川区,瑞光１丁目４番１－３０５号,,27,114,5330005,,,,,,,2025-01-20,1,,,,,アスモ,0
1012,4120003028403,新規,0,2025-01-20,2025-01-20,合同会社ひかり会計,,合同会社,大阪府,大阪市天王寺区,上本町８丁目２番８－７０３号,,27,109,5430001,,,,,,,2025-01-20,1,,,,,ヒカリカイケイ,0
1013,4120003028411,新規,0,2025-01-20,2025-01-20,アイシー合同会社,,合同会社,大阪府,大阪市鶴見区,鶴見３丁目１２番１０－２４０４号,,27,124,5380053,,,,,,,2025-01-20,1,,,,,アイシー,0
1018,4120101070884,新規,0,2025-01-20,2025-01-20,株式会社フリーダムモト,,株式会社,大阪府,羽曳野市,向野２丁目６番１５号,,27,222,5830883,,,,,,,2025-01-20,1,,,,,フリーダムモト,0
1021,4120105009953,新規,0,2025-01-20,2025-01-20,医療法人和桜会,,その他の設立登記法人,大阪府,堺市東区,北野田１０８４番地ベルヒル北野田２Ｆ２０８,,27,143,5998123,,,,,,,2025-01-20,1,,,,,ワオウカイ,0
1023,4120901050318,新規,0,2025-01-20,2025-01-20,株式会社Ｏ’ｓＷＡＶＥ,,株式会社,大阪府,高槻市,成合中の町１２番１８号,,27,207,5691015,,,,,,,2025-01-20,1,,,,,オースウェーブ,0
1033,4130003010145,新規,0,2025-01-20,2025-01-20,合同会社ドリームコード,,合同会社,京都府,京都市下京区,五条通油小路西入ル北側小泉町１１３番地１－４０６,,26,106,6000000,,,,,,,2025-01-20,1,,,,,ドリームコード,0
1034,4130003010153,新規,0,2025-01-20,2025-01-20,ＫＡＩＳＥＮ合同会社,,合同会社,京都府,京都市伏見区,桃山町大島３８－１２７,,26,109,6128006,,,,,,,2025-01-20,1,,,,,カイセン,0
1066,4140003021554,新規,0,2025-01-20,2025-01-20,合同会社３ｆ,,合同会社,兵庫県,神戸市中央区,脇浜町３丁目５番１９－１００４号,,28,110,6510072,,,,,,,2025-01-20,1,,,,,スリーエフ,0
1071,4160003003369,新規,0,2025-01-20,2025-01-20,ＡＧＬ滋賀合同会社,,合同会社,滋賀県,東近江市,青野町４６００番地,,25,213,5270232,,,,,,,2025-01-20,1,,,,,エージーエルシガ,0
1079,4180001165028,新規,0,2025-01-20,2025-01-20,中部警備株式会社,,株式会社,愛知県,名古屋市天白区,鴻の巣２丁目２１０１番地,,23,116,4680003,,,,,,,2025-01-20,1,,,,,チュウブケイビ,0
1080,4180001165060,新規,0,2025-01-20,2025-01-20,株式会社ＴＳＵＮＥ,,株式会社,愛知県,名古屋市中区,丸の内３丁目２３番６号丸の内セントラルハイツ７０３,,23,106,4600002,,,,,,,2025-01-20,1,,,,,ツネ,0
1087,4180003027861,新規,0,2025-01-20,2025-01-20,合同会社パインズ,,合同会社,愛知県,名古屋市名東区,大針２丁目４１－７,,23,115,4650064,,,,,,,2025-01-20,1,,,,,パインズ,0
1090,4190001031947,新規,0,2025-01-20,2025-01-20,株式会社鳥羽小浜荘,,株式会社,三重県,鳥羽市,小浜町２８９番地,,24,211,5170015,,,,,,,2025-01-20,1,,,,,トバオハマソウ,0
1099,4200001043338,新規,0,2025-01-20,2025-01-20,株式会社湧盛,,株式会社,岐阜県,岐阜市,芥見東山３番１号,,21,201,5013112,,,,,,,2025-01-20,1,,,,,ユウセイ,0
1100,4200001043346,新規,0,2025-01-20,2025-01-20,株式会社ＴＭＫ,,株式会社,岐阜県,岐阜市,南鶉２丁目９０番地,,21,201,5008285,,,,,,,2025-01-20,1,,,,,ティーエムケー,0
1116,4260001039826,新規,0,2025-01-20,2025-01-20,株式会社Ｄｅｆｙ,,株式会社,岡山県,倉敷市,山地１７０番地３,,33,202,7010104,,,,,,,2025-01-20,1,,,,,ディファイ,0
1122,4290001108446,新規,0,2025-01-20,2025-01-20,株式会社国分硝子店,,株式会社,福岡県,筑紫野市,大字杉塚４番地の１３,,40,217,8180054,,,,,,,2025-01-20,1,,,,,コクブガラステン,0
1124,4290001108677,新規,0,2025-01-20,2025-01-20,株式会社プリズム,,株式会社,福岡県,福岡市中央区,草香江２丁目１６番３３号,,40,133,8100045,,,,,,,2025-01-20,1,,,,,プリズム,0
1131,4310001019418,新規,0,2025-01-20,2025-01-20,株式会社プランニングシンカ,,株式会社,長崎県,佐世保市,崎岡町３１８４番地３,,42,202,8593226,,,,,,,2025-01-20,1,,,,,プランニングシンカ,0
1138,4330001032815,新規,0,2025-01-20,2025-01-20,株式会社バーグプラニング,,株式会社,熊本県,菊池郡菊陽町,大字津久礼９１番地１,,43,404,8691101,,,,,,,2025-01-20,1,,,,,バーグプランニング,0
1148,4350001019372,新規,0,2025-01-20,2025-01-20,株式会社まるおかホールディングス,,株式会社,宮崎県,都城市,志比田町７３１４番地,,45,202,8850093,,,,,,,2025-01-20,1,,,,,マルオカホールディングス,0
1152,4350003004827,新規,0,2025-01-20,2025-01-20,デジテック宮崎合同会社,,合同会社,宮崎県,宮崎市,阿波岐原町江田原１７０１番地８,,45,201,8800835,,,,,,,2025-01-20,1,,,,,デジテックミヤザキ,0
1163,4430001093483,新規,0,2025-01-20,2025-01-20,株式会社にこ,,株式会社,北海道,札幌市白石区,北郷七条７丁目１番３号,,01,104,0030837,,,,,,,2025-01-20,1,,,,,ニコ,0
1164,4430001093491,新規,0,2025-01-20,2025-01-20,東日本気密部材株式会社,,株式会社,北海道,札幌市清田区,北野六条４丁目７番１６号,,01,110,0040866,,,,,,,2025-01-20,1,,,,,ヒガシニホンキミツブザイ,0
1166,4430003017135,新規,0,2025-01-20,2025-01-20,合同会社Ｅ　ＷＯＲＫＳ,,合同会社,北海道,千歳市,信濃３丁目３０番１２号,,01,224,0660038,,,,,,,2025-01-20,1,,,,,イーワークス,0
1167,4430003017184,新規,0,2025-01-20,2025-01-20,合同会社ライフ,,合同会社,北海道,札幌市厚別区,厚別西三条１丁目１番１６号,,01,108,0040063,,,,,,,2025-01-20,1,,,,,ライフ,0
1172,4460401001266,新規,0,2025-01-20,2025-01-20,株式会社ツムギ,,株式会社,北海道,根室市,定基町１丁目１９番地,,01,223,0870047,,,,,,,2025-01-20,1,,,,,ツムギ,0
1175,4700150128822,新規,0,2025-01-20,2025-01-20,Ｌ．Ｌ．Ｓ　ＴＲＡＤＩＮＧ　ＬＡＮＫＡ　ＰＶＴ　ＬＴＤ,,外国会社等,千葉県,山武市,白幡２７３６番地３オフィスＤ,,12,237,2891306,スリランカ民主社会主義共和国、キャンディ、アンバテンナ、ムッレガマ、Ｎｏ．２４６／Ｂ／３,,,,,,2025-01-20,1,,,,,エルエルエストレーデイングランカプライベートリミテツド,0
1195,5010001251207,新規,0,2025-01-20,2025-01-20,ルミナス株式会社,,株式会社,東京都,文京区,本郷６丁目５番８号,,13,105,1130033,,,,,,,2025-01-20,1,,,,,ルミナス,0
1197,5010003046126,新規,0,2025-01-20,2025-01-20,合同会社ａｓｕｒａ,,合同会社,東京都,中央区,銀座１丁目１２番４号Ｎ＆ＥＢＬＤ．６Ｆ,,13,102,1040061,,,,,,,2025-01-20,1,,,,,アシュラ,0
1200,5010005039391,新規,0,2025-01-20,2025-01-20,一般社団法人リエネ自然ファーム,,その他の設立登記法人,東京都,中央区,京橋２丁目１２番６号ＡＯＪ税理士法人内,,13,102,1040031,,,,,,,2025-01-20,1,,,,,リエネシゼンファーム,0
1213,5010401187645,新規,0,2025-01-20,2025-01-20,株式会社ＡＰ８２,,株式会社,東京都,港区,虎ノ門４丁目１番２８号虎ノ門タワーズオフィス１７階,,13,103,1050001,,,,,,,2025-01-20,1,,,,,エーピーハチジュウニ,0
1214,5010401187661,新規,0,2025-01-20,2025-01-20,ＳＤＬＧ日本株式会社,,株式会社,東京都,港区,芝２丁目３番９号,,13,103,1050014,,,,,,,2025-01-20,1,,,,,エスディーエルジーニホン,0
1218,5010603011322,新規,0,2025-01-20,2025-01-20,Ｍａｋａｚｕ合同会社,,合同会社,東京都,江東区,豊洲６丁目２番３１－１９１７号,,13,108,1350061,,,,,,,2025-01-20,1,,,,,マカズ,0
1221,5010701047128,新規,0,2025-01-20,2025-01-20,株式会社Ａｋａｔｓｕｋｉ　Ｔｈｅｒａｐｅｕｔｉｃｓ,,株式会社,東京都,品川区,東五反田５丁目２２番３３号,,13,109,1410022,,,,,,,2025-01-20,1,,,,,アカツキセラピューティクス,0
1228,5010901056655,新規,0,2025-01-20,2025-01-20,株式会社音の事務所,,株式会社,東京都,世田谷区,南烏山２丁目１番２０－１０３号,,13,112,1570062,,,,,,,2025-01-20,1,,,,,オトノジムショ,0
1229,5010901056663,新規,0,2025-01-20,2025-01-20,株式会社Ｍａｘ　Ｇｒｏｕｐ,,株式会社,東京都,世田谷区,経堂１丁目３０番１０号プランドール経堂１０１,,13,112,1560052,,,,,,,2025-01-20,1,,,,,マックスグループ,0
1233,5011001167054,新規,0,2025-01-20,2025-01-20,株式会社ＷＥＡＲ　ＶＥＲＳＥ,,株式会社,東京都,渋谷区,神南１丁目１１－４ＦＰＧリンクス神南５階,,13,113,1500041,,,,,,,2025-01-20,1,,,,,ウェアヴァース,0
1234,5011001167228,新規,0,2025-01-20,2025-01-20,株式会社ＳｉＳＭＯ,,株式会社,東京都,渋谷区,恵比寿西２丁目４番８号ウィンド恵比寿ビル８Ｆ,,13,113,1500021,,,,,,,2025-01-20,1,,,,,シスモ,0
1235,5011001167236,新規,0,2025-01-20,2025-01-20,株式会社Ｗｅａｌｔｈｙ,,株式会社,東京都,渋谷区,東３丁目２５番３号,,13,113,1500011,,,,,,,2025-01-20,1,,,,,ウェルシィ,0
1239,5011103015425,新規,0,2025-01-20,2025-01-20,合同会社ＣＨＲＯＮ,,合同会社,東京都,新宿区,西新宿３丁目１４番地２号１階,,13,104,1600023,,,,,,,2025-01-20,1,,,,,クロン,0
1242,5011301030300,新規,0,2025-01-20,2025-01-20,株式会社ＭＯＣＣＯ,,株式会社,東京都,杉並区,阿佐谷南１丁目９番２号グッド４－Ａ号室,,13,115,1660004,,,,,,,2025-01-20,1,,,,,モッコ,0
1248,5011601028374,新規,0,2025-01-20,2025-01-20,エクイティ・コンサルティング・グループ株式会社,,株式会社,東京都,練馬区,土支田２丁目２－２２ＬＵＦＴＨＥＩＭ１－Ａ,,13,120,1790076,,,,,,,2025-01-20,1,,,,,エクイティコンサルティンググループ,0
1260,5013303007499,新規,0,2025-01-20,2025-01-20,合同会社Ｃ’ｚ＆Ｍｅ,,合同会社,東京都,豊島区,池袋２丁目３３番２０号ラ・ヴォワール１０１号,,13,116,1710014,,,,,,,2025-01-20,1,,,,,シーズアンドミー,0
1263,5020001160811,新規,0,2025-01-20,2025-01-20,株式会社ジニーク,,株式会社,神奈川県,横浜市中区,曙町３丁目３２番地,,14,104,2310057,,,,,,,2025-01-20,1,,,,,ジニーク,0
1264,5020001161041,新規,0,2025-01-20,2025-01-20,株式会社ＳＡ,,株式会社,神奈川県,横浜市鶴見区,平安町１丁目２９番地１プラウド横浜鶴見市場５２０号室,,14,101,2300031,,,,,,,2025-01-20,1,,,,,エスエー,0
1267,5021001084240,新規,0,2025-01-20,2025-01-20,四葉工業株式会社,,株式会社,神奈川県,横須賀市,長井１丁目７番９号,,14,201,2380316,,,,,,,2025-01-20,1,,,,,ヨツバコウギョウ,0
1269,5021003015466,新規,0,2025-01-20,2025-01-20,ＪＫプランニング合同会社,,合同会社,神奈川県,茅ヶ崎市,東海岸南３丁目２番７号,,14,207,2530054,,,,,,,2025-01-20,1,,,,,ジェイケイプランニング,0
1270,5021003015482,新規,0,2025-01-20,2025-01-20,合同会社ＲＩＯＨカンパニー,,合同会社,神奈川県,座間市,相模が丘２丁目４４－４,,14,216,2520001,,,,,,,2025-01-20,1,,,,,リオウカンパニー,0
1291,5050001002151,新規,0,2025-01-20,2025-01-20,株式会社ファジイ・システム研究所,,株式会社,茨城県,水戸市,備前町２番３－１０６号,,08,201,3100024,,,,,,,2025-01-20,1,,,,,ファジイシステムケンキュウショ,0
1295,5050003008948,新規,0,2025-01-20,2025-01-20,サービス茨城合同会社,,合同会社,茨城県,つくば市,梅園２丁目１番地１５スプリングテックつくばビル４０１,,08,220,3050045,,,,,,,2025-01-20,1,,,,,サービスイバラキ,0
1302,5060001037840,新規,0,2025-01-20,2025-01-20,株式会社アームズ,,株式会社,栃木県,宇都宮市,若草４丁目２１番２号,,09,201,3200072,,,,,,,2025-01-20,1,,,,,アームズ,0
1312,5080403005179,新規,0,2025-01-20,2025-01-20,ＡＬＳＩＡ浜松合同会社,,合同会社,静岡県,浜松市中央区,野口町１２６番地２Ｆ,,22,138,4300919,,,,,,,2025-01-20,1,,,,,アルシアハママツ,0
1316,5090001019101,新規,0,2025-01-20,2025-01-20,株式会社ハートステーション,,株式会社,山梨県,中央市,山之神２２番地５０,,19,214,4093845,,,,,,,2025-01-20,1,,,,,ハートステーション,0
1327,5120001271697,新規,0,2025-01-20,2025-01-20,宝琉株式会社,,株式会社,大阪府,大阪市東淀川区,東中島１丁目２０番１２－９１９,,27,114,5330033,,,,,,,2025-01-20,1,,,,,,0
1328,5120001272010,新規,0,2025-01-20,2025-01-20,株式会社Ｈ２Ｎ,,株式会社,大阪府,大阪市北区,東天満１丁目１１番７号,,27,127,5300044,,,,,,,2025-01-20,1,,,,,エイチツーエヌ,0
1329,5120001272027,新規,0,2025-01-20,2025-01-20,金大福株式会社,,株式会社,大阪府,大阪市城東区,関目５丁目１９番９号関目花博公館６０９Ｂ,,27,118,5360008,,,,,,,2025-01-20,1,,,,,キンダイフク,0
1330,5120001272043,新規,0,2025-01-20,2025-01-20,映日向陽株式会社,,株式会社,大阪府,寝屋川市,堀溝１丁目２７番１０号,,27,215,5720814,,,,,,,2025-01-20,1,,,,,エイジツコウヨウ,0
1331,5120001272051,新規,0,2025-01-20,2025-01-20,株式会社デジタルアーツ,,株式会社,大阪府,大阪市西成区,天下茶屋東２丁目１番１４号ベレッツァ松田町１０３,,27,122,5570011,,,,,,,2025-01-20,1,,,,,デジタルアーツ,0
1332,5120001272084,新規,0,2025-01-20,2025-01-20,ＥＬｏｏｐ株式会社,,株式会社,大阪府,大阪市北区,大淀南２丁目２番９－２３０１号,,27,127,5310075,,,,,,,2025-01-20,1,,,,,イーループ,0
1334,5120003028410,新規,0,2025-01-20,2025-01-20,まつてる合同会社,,合同会社,大阪府,大阪市中央区,日本橋２丁目８番１５号,,27,128,5420073,,,,,,,2025-01-20,1,,,,,マツテル,0
1338,5120101070909,新規,0,2025-01-20,2025-01-20,株式会社ＶＩ,,株式会社,大阪府,松原市,三宅中６丁目１４番３３号,,27,217,5800046,,,,,,,2025-01-20,1,,,,,ブイアイ,0
1341,5120105009952,新規,0,2025-01-20,2025-01-20,医療法人奏香会,,その他の設立登記法人,大阪府,富田林市,向陽台２丁目１番１１号,,27,214,5840082,,,,,,,2025-01-20,1,,,,,ソウコウカイ,0
1342,5120901050325,新規,0,2025-01-20,2025-01-20,アイルコンサルティング株式会社,,株式会社,大阪府,箕面市,今宮３丁目１７番６４号,,27,220,5620033,,,,,,,2025-01-20,1,,,,,アイルコンサルティング,0
1350,5130003010144,新規,0,2025-01-20,2025-01-20,合同会社Ｓａｉ・彩,,合同会社,京都府,宇治市,大久保町北ノ山１０１番地の１３星野ビル３階,,26,204,6110033,,,,,,,2025-01-20,1,,,,,サイサイ,0
1374,5140001137112,新規,0,2025-01-20,2025-01-20,株式会社ＳＧ工業,,株式会社,兵庫県,加古郡稲美町,下草谷３７８番地の１１１,,28,381,6751101,,,,,,,2025-01-20,1,,,,,エスジーコウギョウ,0
1375,5140001137161,新規,0,2025-01-20,2025-01-20,株式会社ＦＭパートナーズ,,株式会社,兵庫県,神戸市東灘区,住吉宮町３丁目１番２８号,,28,101,6580053,,,,,,,2025-01-20,1,,,,,エフエムパートナーズ,0
1386,5140003021545,新規,0,2025-01-20,2025-01-20,合同会社ＳｅｖｅｎＧ,,合同会社,兵庫県,三木市,久留美１１１８番地２,,28,215,6730411,,,,,,,2025-01-20,1,,,,,セブンジー,0
1392,5140005027350,新規,0,2025-01-20,2025-01-20,特定非営利活動法人エコール・ド・パスカル,,その他の設立登記法人,兵庫県,宝塚市,逆瀬川１丁目１－４６なみきビル２階,,28,214,6650035,,,,,,,2025-01-20,1,,,,,エコールドパスカル,0
1393,5150001027824,新規,0,2025-01-20,2025-01-20,株式会社ＣＬＡＰ,,株式会社,奈良県,奈良市,白毫寺町７番地の２パレス・ウィーン高畑２０２号,,29,201,6308302,,,,,,,2025-01-20,1,,,,,クラップ,0
1404,5180001165076,新規,0,2025-01-20,2025-01-20,株式会社Ｍｏｍｏ,,株式会社,愛知県,名古屋市中区,栄５丁目２６番３９号ＧＳ栄ビル３Ｆ,,23,106,4600008,,,,,,,2025-01-20,1,,,,,モモ,0
1411,5180003027869,新規,0,2025-01-20,2025-01-20,合同会社Ｃｈａｎｇｅ,,合同会社,愛知県,名古屋市港区,川西通４丁目９番地の２ＡＳＵＫＡビル２Ｆ,,23,111,4550073,,,,,,,2025-01-20,1,,,,,チェンジ,0
1425,5230003002362,新規,0,2025-01-20,2025-01-20,合同会社ＪＩＮＮＹｋａｔｅ,,合同会社,富山県,富山市,大泉町２丁目５番７号,,16,201,9398087,,,,,,,2025-01-20,1,,,,,ジニーケイト,0
1427,5240001064412,新規,0,2025-01-20,2025-01-20,株式会社テクニカル和奨,,株式会社,広島県,広島市西区,観音本町１丁目１３－３,,34,104,7330033,,,,,,,2025-01-20,1,,,,,テクニカルワショウ,0
1432,5260001039825,新規,0,2025-01-20,2025-01-20,株式会社三友,,株式会社,岡山県,倉敷市,福井２４８－３,,33,202,7100844,,,,,,,2025-01-20,1,,,,,サンユウ,0
1433,5260003005032,新規,0,2025-01-20,2025-01-20,葉山オート合同会社,,合同会社,岡山県,岡山市北区,南方４丁目８－２１－１メリーコーポ２０１,,33,101,7000807,,,,,,,2025-01-20,1,,,,,ハヤマオート,0
1437,5290001108528,新規,0,2025-01-20,2025-01-20,株式会社ラストリー,,株式会社,福岡県,福岡市中央区,高砂１丁目１７番８－６０３号ＬＩＢＴＨ薬院ｅａｓｔ,,40,133,8100011,,,,,,,2025-01-20,1,,,,,ラストリー,0
1438,5290001108668,新規,0,2025-01-20,2025-01-20,株式会社Ａｎｄ　Ｙｏｕ,,株式会社,福岡県,朝倉郡筑前町,松延７３４番地２３,,40,447,8380224,,,,,,,2025-01-20,1,,,,,アンドユー,0
1444,5290005019622,新規,0,2025-01-20,2025-01-20,医療法人ＣＡ会,,その他の設立登記法人,福岡県,福岡市博多区,博多駅中央街５番１５号２Ｆ,,40,132,8120012,,,,,,,2025-01-20,1,,,,,シイエイカイ,0
1445,5290801031202,新規,0,2025-01-20,2025-01-20,株式会社ＥＮｔｒａｄａ,,株式会社,福岡県,北九州市小倉北区,赤坂２丁目９番２５号,,40,106,8020032,,,,,,,2025-01-20,1,,,,,エントラーダ,0
1447,5310001019417,新規,0,2025-01-20,2025-01-20,株式会社秀島総建,,株式会社,長崎県,諫早市,久山台５４番地１,,42,204,8540067,,,,,,,2025-01-20,1,,,,,ヒデシマソウケン,0
1470,5360001034675,新規,0,2025-01-20,2025-01-20,沖縄ビルクリーンサービス株式会社,,株式会社,沖縄県,那覇市,松尾１丁目１０番２４号ホークシティ那覇ビル１Ｆ,,47,201,9000014,,,,,,,2025-01-20,1,,,,,オキナワビルクリーンサービス,0
1480,5380001035036,新規,0,2025-01-20,2025-01-20,株式会社サンタフェ,,株式会社,福島県,郡山市,桑野２丁目２０－１０－１０２,,07,203,9638025,,,,,,,2025-01-20,1,,,,,サンタフェ,0
1504,5700150128821,新規,0,2025-01-20,2025-01-20,ＭＡＤＡＷＡＲＡ　ＡＵＴＯ　ＴＲＡＤＩＮＧ　ＰＶＴ　ＬＴＤ,,外国会社等,千葉県,山武市,白幡２７３６番地３オフィスＣ,,12,237,2891306,スリランカ民主社会主義共和国、キャンディ、マダワラバザール、ワッテガマロード、Ｎｏ．１０,,,,,,2025-01-20,1,,,,,マダワラオートトレーデイングプライベートリミテツド,0
1509,6010001251461,新規,0,2025-01-20,2025-01-20,株式会社ＤＳＮ,,株式会社,東京都,中央区,日本橋大伝馬町３番３号日本橋大伝馬町ビル５階,,13,102,1030011,,,,,,,2025-01-20,1,,,,,ディーエスエヌ,0
1510,6010001251544,新規,0,2025-01-20,2025-01-20,ソラナリンク株式会社,,株式会社,東京都,文京区,本駒込４丁目３９番４－３０２号,,13,105,1130021,,,,,,,2025-01-20,1,,,,,ソラナリンク,0
1511,6010001251577,新規,0,2025-01-20,2025-01-20,株式会社Ｇｅｎｏｍｙｌ,,株式会社,東京都,千代田区,富士見１丁目３番１１号富士見デュープレックスＢ’ｓ４階,,13,101,1020071,,,,,,,2025-01-20,1,,,,,ジェノミル,0
1512,6010005039424,新規,0,2025-01-20,2025-01-20,一般社団法人１５,,その他の設立登記法人,東京都,千代田区,丸の内１丁目４番１号東京共同会計事務所内,,13,101,1000005,,,,,,,2025-01-20,1,,,,,ジュウゴ,0
1517,6010401187636,新規,0,2025-01-20,2025-01-20,株式会社ＦＡＲＤＡ,,株式会社,東京都,港区,東麻布２丁目３３番２号,,13,103,1060044,,,,,,,2025-01-20,1,,,,,ファルダ,0
1519,6010403034167,新規,0,2025-01-20,2025-01-20,Ｔｏｋｙｏ　ｍｏｖｅｍｅｎｔ合同会社,,合同会社,東京都,港区,麻布十番１丁目２番７号ラフィネ麻布十番７０１号室,,13,103,1060045,,,,,,,2025-01-20,1,,,,,トウキョウムーブメント,0
1520,6010405023928,新規,0,2025-01-20,2025-01-20,一般社団法人独立研究所,,その他の設立登記法人,東京都,港区,新橋４丁目１４－１新橋ＡＵＮビル４Ｆ,,13,103,1050004,,,,,,,2025-01-20,1,,,,,ドクリツケンキュウショ,0
1525,6010705003720,新規,0,2025-01-20,2025-01-20,一般社団法人ボイスＩＤ協会,,その他の設立登記法人,東京都,品川区,北品川６丁目６番３３号プライムメゾン御殿山ＥＡＳＴ３０５,,13,109,1410001,,,,,,,2025-01-20,1,,,,,ボイスアイディーキョウカイ,0
1526,6010901056596,新規,0,2025-01-20,2025-01-20,株式会社ＡｎｄＹｏｕ,,株式会社,東京都,世田谷区,上祖師谷４丁目１１番６号,,13,112,1570065,,,,,,,2025-01-20,1,,,,,アンドユー,0
1527,6010901056662,新規,0,2025-01-20,2025-01-20,株式会社グッドアイズ,,株式会社,東京都,世田谷区,太子堂４丁目１８番１５号マガザン三軒茶屋２－３Ｆ－３,,13,112,1540004,,,,,,,2025-01-20,1,,,,,グッドアイズ,0
1528,6010901056670,新規,0,2025-01-20,2025-01-20,株式会社ＤＤＡＴ,,株式会社,東京都,世田谷区,大蔵６丁目１０－１３,,13,112,1570074,,,,,,,2025-01-20,1,,,,,ディディエーティ,0
1530,6010903009635,新規,0,2025-01-20,2025-01-20,ＧｒｏｗＳｔｒａｔｅｇｙ合同会社,,合同会社,東京都,世田谷区,喜多見５丁目１８―５,,13,112,1570067,,,,,,,2025-01-20,1,,,,,グローストラテジー,0
1531,6011001166831,新規,0,2025-01-20,2025-01-20,株式会社ペットイノベーション,,株式会社,東京都,渋谷区,神南１丁目１１番４号ＦＰＧリンクス神南５階,,13,113,1500041,,,,,,,2025-01-20,1,,,,,ペットイノベーション,0
1532,6011001166988,新規,0,2025-01-20,2025-01-20,株式会社ＲＥＴＲＵＳ,,株式会社,東京都,渋谷区,神南１丁目２３番１４号リージャス渋谷公園通りビル,,13,113,1500041,,,,,,,2025-01-20,1,,,,,リトラス,0
1533,6011001167053,新規,0,2025-01-20,2025-01-20,株式会社Ｂｉｚサポート,,株式会社,東京都,目黒区,碑文谷５丁目２７番３号,,13,110,1520003,,,,,,,2025-01-20,1,,,,,ビズサポート,0
1534,6011001167193,新規,0,2025-01-20,2025-01-20,株式会社Ｖｉｖａ　Ｌ’Ａｒｔｅ,,株式会社,東京都,渋谷区,渋谷２丁目１９－１５宮益坂ビルディング６０９,,13,113,1500002,,,,,,,2025-01-20,1,,,,,ビバラルテ,0
1540,6011103015424,新規,0,2025-01-20,2025-01-20,合同会社ＩＳＧ,,合同会社,東京都,新宿区,西早稲田３丁目８番１４－６０２号,,13,104,1690051,,,,,,,2025-01-20,1,,,,,アイエスジー,0
1542,6011201025944,新規,0,2025-01-20,2025-01-20,株式会社ＨＡＲＥ,,株式会社,東京都,中野区,新井３丁目１６番１号ＴＯＲＳＯ２０１,,13,114,1650026,,,,,,,2025-01-20,1,,,,,ハレ,0
1558,6012301014226,新規,0,2025-01-20,2025-01-20,株式会社エスリンク,,株式会社,東京都,町田市,南町田２丁目２４－１５,,13,209,1940005,,,,,,,2025-01-20,1,,,,,エスリンク,0
1563,6012803003602,新規,0,2025-01-20,2025-01-20,ａｎｄ．ｂ合同会社,,合同会社,東京都,国立市,東３丁目１８－１３,,13,215,1860002,,,,,,,2025-01-20,1,,,,,アンドビー,0
1575,6021005013260,新規,0,2025-01-20,2025-01-20,特定非営利活動法人Ｇａｔｔｓｕ,,その他の設立登記法人,神奈川県,秦野市,堀山下５５９番地８番,,14,211,2591304,,,,,,,2025-01-20,1,,,,,ガッツ,0
1586,6030001164439,新規,0,2025-01-20,2025-01-20,株式会社ディヤル,,株式会社,埼玉県,川口市,柳崎４丁目２５番４号,,11,203,3330861,,,,,,,2025-01-20,1,,,,,ディヤル,0
1590,6030003025894,新規,0,2025-01-20,2025-01-20,ＣＣ合同会社,,合同会社,埼玉県,飯能市,本町１９番２号ＫＩＶ－Ｗｅｌｆａｒｅ会館飯能５号室,,11,209,3570032,,,,,,,2025-01-20,1,,,,,シーシー,0
1595,6040001137047,新規,0,2025-01-20,2025-01-20,株式会社ＷｉｎＬｏｇｉｃ,,株式会社,千葉県,船橋市,前原西２丁目１４番２号・津田沼駅前安田ビル別館２階,,12,204,2740825,,,,,,,2025-01-20,1,,,,,ウィンロジック,0
1596,6040001137055,新規,0,2025-01-20,2025-01-20,株式会社宗十,,株式会社,千葉県,千葉市中央区,富士見２丁目１８番１１号三広ビル４階,,12,101,2600015,,,,,,,2025-01-20,1,,,,,ソウトオ,0
1597,6040001137063,新規,0,2025-01-20,2025-01-20,株式会社ＬｉＦＴ,,株式会社,千葉県,流山市,野々下３丁目８１０－１,,12,220,2700135,,,,,,,2025-01-20,1,,,,,リフト,0
1599,6040005022625,新規,0,2025-01-20,2025-01-20,一般社団法人千葉市国際コーヒーの日推進協会,,その他の設立登記法人,千葉県,千葉市花見川区,柏井４丁目４７番２号,,12,102,2620048,,,,,,,2025-01-20,1,,,,,チバシコクサイコーヒーノヒスイシンキョウカイ,0
1606,6050003008947,新規,0,2025-01-20,2025-01-20,合同会社１０‐０４,,合同会社,茨城県,つくば市,梅園２丁目３３番地２５,,08,220,3050045,,,,,,,2025-01-20,1,,,,,テンシ,0
1614,6070003005760,新規,0,2025-01-20,2025-01-20,合同会社エターズ,,合同会社,群馬県,佐波郡玉村町,大字箱石６００番地グロウステイトＳ２０２,,10,464,3701113,,,,,,,2025-01-20,1,,,,,エターズ,0
1617,6080105006482,新規,0,2025-01-20,2025-01-20,特定非営利活動法人ピースオブマインド,,その他の設立登記法人,静岡県,御殿場市,川島田７３０番地の１ハイム富士見Ｂ２０２,,22,215,4120045,,,,,,,2025-01-20,1,,,,,ピースオブマインド,0
1635,6120001271985,新規,0,2025-01-20,2025-01-20,新鋒株式会社,,株式会社,大阪府,大阪市住之江区,御崎１丁目１１番１９－３０３号,,27,125,5590013,,,,,,,2025-01-20,1,,,,,シンホウ,0
1636,6120001272050,新規,0,2025-01-20,2025-01-20,株式会社大正,,株式会社,大阪府,大阪市北区,天満２丁目９－１７－３０４,,27,127,5300043,,,,,,,2025-01-20,1,,,,,タイショウ,0
1638,6120003028384,新規,0,2025-01-20,2025-01-20,合同会社なにわ維新,,合同会社,大阪府,大阪市北区,西天満６丁目９番２号,,27,127,5300047,,,,,,,2025-01-20,1,,,,,ナニワイシン,0
1639,6120005024712,新規,0,2025-01-20,2025-01-20,一般社団法人ウィズトランスフォーメーションラボ,,その他の設立登記法人,大阪府,大阪市北区,梅田１丁目２番２号大阪駅前第２ビル１２－１２,,27,127,5300001,,,,,,,2025-01-20,1,,,,,ウィズトランスフォーメーションラボ,0
1640,6120005024729,新規,0,2025-01-20,2025-01-20,医療法人輝翔会,,その他の設立登記法人,大阪府,大阪市北区,中津１丁目１６番２５号ヴァンドーム梅田北１階店舗１号室,,27,127,5310071,,,,,,,2025-01-20,1,,,,,キショウカイ,0
1646,6120101070924,新規,0,2025-01-20,2025-01-20,株式会社２ｎｄ　ｇｅｎｅｒａｔｉｏｎ,,株式会社,大阪府,岸和田市,尾生町６丁目１０番１０号,,27,202,5960816,,,,,,,2025-01-20,1,,,,,セカンドジェネレーション,0
1651,6120905006677,新規,0,2025-01-20,2025-01-20,医療法人翔光会,,その他の設立登記法人,大阪府,吹田市,佐井寺４丁目４３番７号,,27,205,5650836,,,,,,,2025-01-20,1,,,,,ショウコウカイ,0
1652,6122001038778,新規,0,2025-01-20,2025-01-20,株式会社大恩商事,,株式会社,大阪府,八尾市,恩智南町２丁目７番地,,27,212,5810884,,,,,,,2025-01-20,1,,,,,ダイオンショウジ,0
1684,6150001027823,新規,0,2025-01-20,2025-01-20,関西グレイン株式会社,,株式会社,奈良県,磯城郡田原本町,大字秦庄３８６番地の７,,29,363,6360343,,,,,,,2025-01-20,1,,,,,カンサイグレイン,0
1685,6160005011368,新規,0,2025-01-20,2025-01-20,一般社団法人ぽかぽか,,その他の設立登記法人,滋賀県,彦根市,長曽根南町４８５－３,,25,202,5220052,,,,,,,2025-01-20,1,,,,,ポカポカ,0
1699,6180001165018,新規,0,2025-01-20,2025-01-20,金盛株式会社,,株式会社,愛知県,犬山市,大字五郎丸字新田組１３番地５コーポラ・ペッシュ１０３号室,,23,215,4840066,,,,,,,2025-01-20,1,,,,,キンセイ,0
1700,6180001165050,新規,0,2025-01-20,2025-01-20,株式会社ＨＣＭ,,株式会社,愛知県,小牧市,城山１丁目５番地１サンハイツ中央台Ｃ棟２０２号,,23,219,4850812,,,,,,,2025-01-20,1,,,,,エイチシーエム,0
1701,6180001165075,新規,0,2025-01-20,2025-01-20,株式会社優,,株式会社,愛知県,東海市,富貴ノ台２丁目６８番地,,23,222,4760014,,,,,,,2025-01-20,1,,,,,ユウ,0
1705,6180003027884,新規,0,2025-01-20,2025-01-20,梅太郎合同会社,,合同会社,愛知県,名古屋市南区,中江２丁目４－２４,,23,112,4570004,,,,,,,2025-01-20,1,,,,,ウメタロウ,0
1725,6240001064403,新規,0,2025-01-20,2025-01-20,株式会社エイチアールケイ,,株式会社,広島県,広島市安佐北区,安佐町久地１０１７０番地１,,34,106,7391700,,,,,,,2025-01-20,1,,,,,エイチアールケイ,0
1726,6240001064411,新規,0,2025-01-20,2025-01-20,エナブル株式会社,,株式会社,広島県,広島市中区,東千田町１丁目１番５５－４９０８号,,34,101,7300053,,,,,,,2025-01-20,1,,,,,エナブル,0
1729,6240005015880,新規,0,2025-01-20,2025-01-20,一般社団法人セルプネット,,その他の設立登記法人,広島県,広島市安芸区,上瀬野南１丁目３００－１９,,34,107,7390303,,,,,,,2025-01-20,1,,,,,セルプネット,0
1734,6260001039816,新規,0,2025-01-20,2025-01-20,ももたろう電機株式会社,,株式会社,岡山県,岡山市南区,浦安南町４９５番地３４８,,33,104,7028024,,,,,,,2025-01-20,1,,,,,モモタロウデンキ,0
1735,6260003005031,新規,0,2025-01-20,2025-01-20,合同会社アプライズ,,合同会社,岡山県,倉敷市,東塚６丁目１１番５号,,33,202,7128044,,,,,,,2025-01-20,1,,,,,アプライズ,0
1736,6270003001707,新規,0,2025-01-20,2025-01-20,合同会社巳起,,合同会社,鳥取県,鳥取市,正蓮寺２４５番地２０７,00137695,31,201,6800854,,,,,,,2025-01-20,1,,,,,シキ,0
1739,6290005019621,新規,0,2025-01-20,2025-01-20,医療法人悠心会,,その他の設立登記法人,福岡県,小郡市,祇園１丁目１５番地６,,40,216,8380144,,,,,,,2025-01-20,1,,,,,ユウシンカイ,0
1741,6290803004948,新規,0,2025-01-20,2025-01-20,ａｎｄ合同会社,,合同会社,福岡県,北九州市小倉南区,重住２丁目６‐５８,,40,107,8020811,,,,,,,2025-01-20,1,,,,,アンド,0
1743,6310001019416,新規,0,2025-01-20,2025-01-20,ＲＯＮＳＴＡＲ株式会社,,株式会社,長崎県,対馬市,厳原町田渕８１６番地３,,42,209,8170023,,,,,,,2025-01-20,1,,,,,ロンスター,0
1768,6370001052147,新規,0,2025-01-20,2025-01-20,株式会社新高砂学校給食サービス,,株式会社,宮城県,仙台市青葉区,本町１丁目１番８号第一日本オフィスビル２階４号室,,04,101,9800014,,,,,,,2025-01-20,1,,,,,シンタカサゴガッコウキュウショクサービス,0
1769,6380001035035,新規,0,2025-01-20,2025-01-20,株式会社結野建,,株式会社,福島県,いわき市,小名浜大原字新堀３１番地の２０,,07,204,9718111,,,,,,,2025-01-20,1,,,,,ユノケン,0
1775,6430001093481,新規,0,2025-01-20,2025-01-20,株式会社アイプロジェクト,,株式会社,北海道,札幌市中央区,南九条西６丁目２番３０－８０９,,01,101,0640809,,,,,,,2025-01-20,1,,,,,アイプロジェクト,0
1776,6430001093498,新規,0,2025-01-20,2025-01-20,株式会社コリンズ,,株式会社,北海道,札幌市豊平区,平岸四条１２丁目１２番２６－２０３号,,01,105,0620934,,,,,,,2025-01-20,1,,,,,コリンズ,0
1781,6440003001656,新規,0,2025-01-20,2025-01-20,合同会社ナンバー,,合同会社,北海道,茅部郡森町,字砂原東３丁目５４番地１,,01,345,0492223,,,,,,,2025-01-20,1,,,,,ナンバー,0
1788,6500001026087,新規,0,2025-01-20,2025-01-20,Ｎ＆Ｋファーマーズ株式会社,,株式会社,愛媛県,松山市,土居田町６９１番地３セジュール和泉Ａ－Ａ１０１号,,38,201,7900056,,,,,,,2025-01-20,1,,,,,エヌアンドケイファーマーズ,0
1791,6700150128820,新規,0,2025-01-20,2025-01-20,Ｄｙｎａｍ　Ａｖｉａｔｉｏｎ　Ｉｒｅｌａｎｄ　Ｌｉｍｉｔｅｄ,,外国会社等,東京都,荒川区,西日暮里２丁目２７番５号,,13,118,1160013,アイルランド、ダブリン２区、モールスワース・ストリート３２,,,,,,2025-01-20,1,,,,,ダイナムアビエイシヨンアイルランドリミテツド,0
1797,7010001251403,新規,0,2025-01-20,2025-01-20,株式会社樹苺,,株式会社,東京都,千代田区,内神田２丁目４番２号一広グローバルビル１００１号,,13,101,1010047,,,,,,,2025-01-20,1,,,,,キイチゴ,0
1798,7010001251428,新規,0,2025-01-20,2025-01-20,榮願株式会社,,株式会社,東京都,千代田区,神田錦町３丁目１５番地錦精社ビル５階本間・田中会計事務所内,,13,101,1010054,,,,,,,2025-01-20,1,,,,,エイガン,0
1799,7010001251493,新規,0,2025-01-20,2025-01-20,株式会社ＧＲＡＮＤＥＡＬ,,株式会社,東京都,千代田区,神田佐久間町１丁目１４番第２東ビル３０３,,13,101,1010025,,,,,,,2025-01-20,1,,,,,グランディール,0
1800,7010001251543,新規,0,2025-01-20,2025-01-20,株式会社おき,,株式会社,東京都,千代田区,神田須田町１丁目７番８号ＶＯＲＴ秋葉原ＩＶ２Ｆ,00137697,13,101,1010041,,,,,,,2025-01-20,1,,,,,オキ,0
1801,7010001251592,新規,0,2025-01-20,2025-01-20,彦株式会社,,株式会社,東京都,中央区,銀座１丁目１２－４Ｎ＆ＥＢＬＤ．７階,,13,102,1040061,,,,,,,2025-01-20,1,,,,,ヒコ,0
1805,7010003046124,新規,0,2025-01-20,2025-01-20,白橋屋合同会社,,合同会社,東京都,文京区,音羽１丁目２３番１２号第一晃和堂ビル４０７号室,,13,105,1120013,,,,,,,2025-01-20,1,,,,,シラハシヤ,0
1807,7010005039423,新規,0,2025-01-20,2025-01-20,サンライズＧＰ一般社団法人,,その他の設立登記法人,東京都,千代田区,丸の内１丁目４番１号東京共同会計事務所内,,13,101,1000005,,,,,,,2025-01-20,1,,,,,サンライズジーピー,0
1817,7010403034199,新規,0,2025-01-20,2025-01-20,Ｅｎｄｅａｖｏｒ　Ｄａｔａ合同会社,,合同会社,東京都,港区,元麻布３丁目１番６号,,13,103,1060046,,,,,,,2025-01-20,1,,,,,エンデバーデータ,0
1818,7010405024017,新規,0,2025-01-20,2025-01-20,一般社団法人ＰＣ１,,その他の設立登記法人,東京都,港区,元赤坂１丁目１番８号株式会社赤坂国際会計内,,13,103,1070051,,,,,,,2025-01-20,1,,,,,ピーシーワン,0
1823,7010703007524,新規,0,2025-01-20,2025-01-20,合同会社ＷＩＬＬ　ＩＮＴＥＲＮＡＴＩＯＮＡＬ,,合同会社,東京都,品川区,東五反田１丁目２５番１９号,,13,109,1410022,,,,,,,2025-01-20,1,,,,,ウィルインターナショナル,0
1824,7010801035740,新規,0,2025-01-20,2025-01-20,ループス株式会社,,株式会社,東京都,大田区,大森西３丁目２９番９－２０４,,13,111,1430015,,,,,,,2025-01-20,1,,,,,ループス,0
1827,7010901056579,新規,0,2025-01-20,2025-01-20,株式会社ＴＳＲ,,株式会社,東京都,世田谷区,太子堂２丁目１７番１０号,,13,112,1540004,,,,,,,2025-01-20,1,,,,,ティーエスアール,0
1829,7010903009650,新規,0,2025-01-20,2025-01-20,合同会社中村允俊事務所,,合同会社,東京都,世田谷区,深沢６丁目７番９号グランド駒沢公園６０４,,13,112,1580081,,,,,,,2025-01-20,1,,,,,ナカムラマサトシジムショ,0
1843,7011101110291,新規,0,2025-01-20,2025-01-20,株式会社Ｓａｌｖａｇｅ,,株式会社,東京都,新宿区,新宿７丁目２６－４０－１０５,,13,104,1600022,,,,,,,2025-01-20,1,,,,,サルベージ,0
1844,7011101110300,新規,0,2025-01-20,2025-01-20,株式会社ＡＮロジカル,,株式会社,東京都,新宿区,四谷３丁目１３番地ＳＥＡＢＩＲＤビル２階,,13,104,1600004,,,,,,,2025-01-20,1,,,,,アンロジカル,0
1845,7011101110317,新規,0,2025-01-20,2025-01-20,株式会社リリー,,株式会社,東京都,新宿区,新宿１丁目３６番２号,,13,104,1600022,,,,,,,2025-01-20,1,,,,,リリー,0
1855,7011603004586,新規,0,2025-01-20,2025-01-20,合同会社横一,,合同会社,東京都,練馬区,高野台３丁目６番１７号,,13,120,1770033,,,,,,,2025-01-20,1,,,,,ヨコイチ,0
1870,7013303007489,新規,0,2025-01-20,2025-01-20,合同会社玄人ギルド,,合同会社,東京都,豊島区,西池袋５丁目８番９－４０３号,,13,116,1710021,,,,,,,2025-01-20,1,,,,,クロウトギルド,0
1874,7020001161064,新規,0,2025-01-20,2025-01-20,株式会社Ｆａｉｒ　ＨＤ,,株式会社,神奈川県,横浜市中区,海岸通５丁目２５番地２－１４１５号,,14,104,2310002,,,,,,,2025-01-20,1,,,,,フェアエイチディー,0
1875,7020005016702,新規,0,2025-01-20,2025-01-20,一般社団法人市場の学校,,その他の設立登記法人,神奈川県,横浜市西区,北幸２丁目１０番４８号むつみビル３階,,14,103,2200004,,,,,,,2025-01-20,1,,,,,イチバノガッコウ,0
1876,7021001084107,新規,0,2025-01-20,2025-01-20,株式会社グリーンレイズ輻射空調エンジニアリング,,株式会社,神奈川県,鎌倉市,腰越３丁目２１番２号,,14,204,2480033,,,,,,,2025-01-20,1,,,,,グリーンレイズフクシャクウチョウエンジニアリング,0
1877,7021001084247,新規,0,2025-01-20,2025-01-20,株式会社フォーバイトゥー,,株式会社,神奈川県,厚木市,長沼４２１番地,,14,212,2430024,,,,,,,2025-01-20,1,,,,,フォーバイトゥー,0
1878,7021001084271,新規,0,2025-01-20,2025-01-20,株式会社ＵＫＹＯＵ,,株式会社,神奈川県,藤沢市,羽鳥４丁目７番５号グランバリエ１０１,,14,205,2510056,,,,,,,2025-01-20,1,,,,,ウキョウ,0
1882,7030001164446,新規,0,2025-01-20,2025-01-20,株式会社浅見クラン,,株式会社,埼玉県,吉川市,平沼１丁目２４番地５,,11,243,3420056,,,,,,,2025-01-20,1,,,,,アサミクラン,0
1883,7030001164454,新規,0,2025-01-20,2025-01-20,株式会社ｂｒｉｇｈｔ,,株式会社,埼玉県,さいたま市南区,四谷２丁目１０番５－１０１号,,11,108,3360032,,,,,,,2025-01-20,1,,,,,ブライト,0
1886,7030003025893,新規,0,2025-01-20,2025-01-20,合同会社ＴＨＡＮＨ　ＤＯ,,合同会社,埼玉県,入間市,豊岡１丁目３番２５号半田ビル２階ＫＩＶオフィス入間Ｇ号室,,11,225,3580003,,,,,,,2025-01-20,1,,,,,タンド,0
1894,7040003026651,新規,0,2025-01-20,2025-01-20,ＨＱＬ合同会社,,合同会社,千葉県,白井市,根６６番地の１５,,12,232,2701431,,,,,,,2025-01-20,1,,,,,エイチキュウエル,0
1895,7040005022632,新規,0,2025-01-20,2025-01-20,医療法人社団寧貴会,,その他の設立登記法人,千葉県,松戸市,新松戸３丁目２７０番地サンハイム光洋１号室,,12,207,2700034,,,,,,,2025-01-20,1,,,,,,0
1898,7050001056030,新規,0,2025-01-20,2025-01-20,作真興業株式会社,,株式会社,茨城県,土浦市,おおつ野８丁目３番６号,,08,203,3000028,,,,,,,2025-01-20,1,,,,,サクシンコウギョウ,0
1900,7050003008938,新規,0,2025-01-20,2025-01-20,合同会社Ｒｅ‐Ｓｔａｒｔ,,合同会社,茨城県,つくば市,神郡３６３番地７,,08,220,3004212,,,,,,,2025-01-20,1,,,,,リスタート,0
1901,7050003008954,新規,0,2025-01-20,2025-01-20,合同会社ソメシン,,合同会社,茨城県,取手市,井野５６６－１９,,08,217,3020011,,,,,,,2025-01-20,1,,,,,ソメシン,0
1911,7080105006481,新規,0,2025-01-20,2025-01-20,一般社団法人Ｂｌｕｅ　Ｓｉｔｅ,,その他の設立登記法人,静岡県,熱海市,下多賀４番地の１,,22,205,4130102,,,,,,,2025-01-20,1,,,,,ブルーサイト,0
1912,7080401027693,新規,0,2025-01-20,2025-01-20,株式会社インクリー,,株式会社,静岡県,浜松市中央区,幸４丁目１９番５号四ツ池マンション３０３,,22,138,4338123,,,,,,,2025-01-20,1,,,,,インクリー,0
1923,7120001271794,新規,0,2025-01-20,2025-01-20,暦新商貿株式会社,,株式会社,大阪府,大阪市北区,南扇町７番２－８０１号,,27,127,5300052,,,,,,,2025-01-20,1,,,,,レキシンショウボウ,0
1924,7120001271828,新規,0,2025-01-20,2025-01-20,株式会社英進,,株式会社,大阪府,大阪市中央区,東心斎橋２丁目６番５号エイトワンビル７階,,27,128,5420083,,,,,,,2025-01-20,1,,,,,エイシン,0
1925,7120001271860,新規,0,2025-01-20,2025-01-20,株式会社Ｌｉｂｅｒｔｙ,,株式会社,大阪府,大阪市北区,梅田１丁目２番２号大阪駅前第２ビル１２－１２,,27,127,5300001,,,,,,,2025-01-20,1,,,,,リバティ,0
1926,7120001271976,新規,0,2025-01-20,2025-01-20,株式会社ＩＭＵＡ,,株式会社,大阪府,大阪市西区,北堀江１丁目１６番２２号,,27,106,5500014,,,,,,,2025-01-20,1,,,,,イムア,0
1927,7120001271984,新規,0,2025-01-20,2025-01-20,株式会社ｉｔｔｏ,,株式会社,大阪府,大阪市生野区,林寺５丁目５番２６号,,27,116,5440023,,,,,,,2025-01-20,1,,,,,イット,0
1928,7120001272017,新規,0,2025-01-20,2025-01-20,株式会社弄花香,,株式会社,大阪府,大阪市阿倍野区,文の里４丁目１３番９－１０２号,,27,119,5450004,,,,,,,2025-01-20,1,,,,,ロウカコウ,0
1929,7120001272074,新規,0,2025-01-20,2025-01-20,株式会社ネフェル,,株式会社,大阪府,大阪市中央区,農人橋２丁目４番１８号ネイリングセンタービル７階７０１号,,27,128,5400011,,,,,,,2025-01-20,1,,,,,ネフェル,0
1930,7120001272108,新規,0,2025-01-20,2025-01-20,石橋サンテ株式会社,,株式会社,大阪府,大阪市中央区,道頓堀１丁目東３番２１号,,27,128,5420071,,,,,,,2025-01-20,1,,,,,イシバシサンテ,0
1933,7120003028391,新規,0,2025-01-20,2025-01-20,Ａｒｉｏｎ　Ｊａｐａｎ合同会社,,合同会社,大阪府,大阪市天王寺区,上本町７丁目１番２４号,,27,109,5430001,,,,,,,2025-01-20,1,,,,,アリオンジャパン,0
1934,7120003028400,新規,0,2025-01-20,2025-01-20,合同会社鹿鳴寿,,合同会社,大阪府,大阪市淀川区,三国本町１丁目１４－３９－５０４,,27,123,5320005,,,,,,,2025-01-20,1,,,,,ロクメイジュ,0
1941,7120101070915,新規,0,2025-01-20,2025-01-20,ＶＩＬＬＡ　ＮＯＶＡ　ＫＹＵＨＯＪＩ株式会社,,株式会社,大阪府,大阪狭山市,大野台６丁目２０番１８号,,27,231,5890023,,,,,,,2025-01-20,1,,,,,ヴィラノバキュウホウジ,0
1944,7120901050307,新規,0,2025-01-20,2025-01-20,ＫＮＡＣＥ株式会社,,株式会社,大阪府,高槻市,日向町５番１０号,,27,207,5690024,,,,,,,2025-01-20,1,,,,,ケーエヌエース,0
1946,7122003003077,新規,0,2025-01-20,2025-01-20,合同会社ｍａｒｂｌｅ,,合同会社,大阪府,東大阪市,新池島町２丁目１８番３０号,,27,227,5798065,,,,,,,2025-01-20,1,,,,,マーブル,0
1947,7122005003802,新規,0,2025-01-20,2025-01-20,医療法人あかつき会,,その他の設立登記法人,大阪府,大東市,南津の辺町７番３５号,,27,218,5740016,,,,,,,2025-01-20,1,,,,,アカツキカイ,0
1969,7140001137093,新規,0,2025-01-20,2025-01-20,株式会社一心,,株式会社,兵庫県,神戸市兵庫区,会下山町３丁目１０番７号,,28,105,6520043,,,,,,,2025-01-20,1,,,,,イッシン,0
1970,7140001137168,新規,0,2025-01-20,2025-01-20,岸田商事株式会社,,株式会社,兵庫県,神戸市灘区,大石北町７番２０号,,28,102,6570843,,,,,,,2025-01-20,1,,,,,キシダショウジ,0
1981,7140003021568,新規,0,2025-01-20,2025-01-20,合同会社永田ビジネスサービス,,合同会社,兵庫県,神戸市東灘区,御影中町３丁目１番１１－５０６号,,28,101,6580054,,,,,,,2025-01-20,1,,,,,ナガタビジネスサービス,0
1987,7160001026492,新規,0,2025-01-20,2025-01-20,株式会社ｍｉｉｎＡＩ,,株式会社,滋賀県,大津市,木戸１２６０番地の３,,25,201,5200514,,,,,,,2025-01-20,1,,,,,ミーナイ,0
1988,7160003003382,新規,0,2025-01-20,2025-01-20,合同会社コミュニティサクセション,,合同会社,滋賀県,長浜市,西浅井町庄１０３２番地１,,25,203,5290722,,,,,,,2025-01-20,1,,,,,コミュニティサクセション,0
1990,7170001018456,新規,0,2025-01-20,2025-01-20,ＧＩＣ株式会社,,株式会社,和歌山県,和歌山市,太田４丁目１０番１３号,,30,201,6408323,,,,,,,2025-01-20,1,,,,,ジーアイシー,0
1999,7180001165025,新規,0,2025-01-20,2025-01-20,株式会社ＧｒａｎｔｔｉＸ,,株式会社,愛知県,名古屋市中区,錦１丁目１７番１３号メイコウビル２Ｆ,,23,106,4600003,,,,,,,2025-01-20,1,,,,,グランティックス,0
2000,7180001165041,新規,0,2025-01-20,2025-01-20,株式会社Ｄｒａｇｏｎ　Ｂｒｅｗｉｎｇ,,株式会社,愛知県,名古屋市中区,栄３丁目１８番１号ナゴヤイノベータズガレージ内,,23,106,4600008,,,,,,,2025-01-20,1,,,,,ドラゴンブリューイング,0
2009,7180003027883,新規,0,2025-01-20,2025-01-20,ＡＰＥＸ　ＩＮＴＥＲＮＡＴＩＯＮＡＬ合同会社,,合同会社,愛知県,名古屋市中村区,烏森町１丁目１０４番地,,23,105,4530855,,,,,,,2025-01-20,1,,,,,アペックスインターナショナル,0
2028,7260001039823,新規,0,2025-01-20,2025-01-20,株式会社三竿農産,,株式会社,岡山県,岡山市南区,彦崎１８９番地,,33,104,7091213,,,,,,,2025-01-20,1,,,,,ミサオノウサン,0
2030,7280005007642,新規,0,2025-01-20,2025-01-20,一般社団法人わっこ,,その他の設立登記法人,島根県,隠岐郡隠岐の島町,布施５７８番地１,,32,528,6850412,,,,,,,2025-01-20,1,,,,,ワッコ,0
2035,7290801031200,新規,0,2025-01-20,2025-01-20,株式会社ゼロカラード,,株式会社,福岡県,北九州市小倉北区,浅野１丁目１番１号ビエラ小倉１Ｆ　ＤＩＳＣＯＶＥＲＹ－１４８号,,40,106,8020001,,,,,,,2025-01-20,1,,,,,ゼロカラード,0
2042,7310003004927,新規,0,2025-01-20,2025-01-20,合同会社ｎａｒｕ企画編集室,,合同会社,長崎県,壱岐市,芦辺町芦辺浦６６,00137706,42,210,8115301,,,,,,,2025-01-20,1,,,,,ナルキカクヘンシュウシツ,0
2058,7390001017840,新規,0,2025-01-20,2025-01-20,八十八１号株式会社,,株式会社,山形県,尾花沢市,新町２丁目４番６５号,,06,212,9994224,,,,,,,2025-01-20,1,,,,,ヤソヤイチゴウ,0
2059,7400005008462,新規,0,2025-01-20,2025-01-20,一般社団法人岩手イーハトーブ水泳協会,,その他の設立登記法人,岩手県,盛岡市,本宮５丁目１番１１号,,03,201,0200866,,,,,,,2025-01-20,1,,,,,イワテイーハトーブスイエイキョウカイ,0
2062,7420001018983,新規,0,2025-01-20,2025-01-20,株式会社Ｇｌｏｗｉｎ,,株式会社,青森県,八戸市,東白山台３丁目２２番２３号,,02,203,0391111,,,,,,,2025-01-20,1,,,,,グローウィン,0
2067,7440003001655,新規,0,2025-01-20,2025-01-20,合同会社おまめの配達,,合同会社,北海道,茅部郡森町,字森川町１４５番地,,01,345,0492313,,,,,,,2025-01-20,1,,,,,オマメノハイタツ,0
2069,7470001020539,新規,0,2025-01-20,2025-01-20,株式会社西岡顕心,,株式会社,香川県,三豊市,高瀬町佐股甲３３０１番地１９,,37,208,7670021,,,,,,,2025-01-20,1,,,,,ニシオカケンシン,0
2070,7480001012709,新規,0,2025-01-20,2025-01-20,株式会社ｆｒｅｕｄｅ,,株式会社,徳島県,鳴門市,大麻町桧字中山田１３番地１１７,,36,202,7790225,,,,,,,2025-01-20,1,,,,,フロイデ,0
2076,8010001251162,新規,0,2025-01-20,2025-01-20,株式会社メディカルアプリ,,株式会社,東京都,千代田区,岩本町３丁目１１番８号イワモトチョービル,,13,101,1010032,,,,,,,2025-01-20,1,,,,,メディカルアプリ,0
2077,8010001251501,新規,0,2025-01-20,2025-01-20,株式会社Ｉｎｎｏｖａｔｉｖｅ　Ｒｅｓｅａｒｃｈ　Ｌａｂｏｒａｔｏｒｙ,,株式会社,東京都,中央区,日本橋兜町１１番３号４Ｆ,,13,102,1030026,,,,,,,2025-01-20,1,,,,,イノヴェイティブリサーチラボラトリー,0
2078,8010001251542,新規,0,2025-01-20,2025-01-20,ＳＥ．ＭＡＤＥ株式会社,,株式会社,東京都,中央区,銀座５丁目１１番１２号日総第２６ビル９階,,13,102,1040061,,,,,,,2025-01-20,1,,,,,エスイーメイド,0
2079,8010001251550,新規,0,2025-01-20,2025-01-20,株式会社ＷＡＫＵＭＩＮＤ,,株式会社,東京都,中央区,銀座１丁目２２番１１号銀座大竹ビジデンス２Ｆ,,13,102,1040061,,,,,,,2025-01-20,1,,,,,ワクマインド,0
2089,8010401187097,新規,0,2025-01-20,2025-01-20,恒金商事株式会社,,株式会社,東京都,港区,北青山１丁目４－１－４１０,,13,103,1070061,,,,,,,2025-01-20,1,,,,,コウキンショウジ,0
2090,8010401187543,新規,0,2025-01-20,2025-01-20,株式会社ＥＳＳＥＮＣＩＡ　ＪＡＰＡＮ,,株式会社,東京都,港区,南青山５丁目１１－１０南青山５１１ビルＢ１ＦＱ区画,,13,103,1070062,,,,,,,2025-01-20,1,,,,,エッセンシアジャパン,0
2091,8010401187576,新規,0,2025-01-20,2025-01-20,株式会社雲雲雲,,株式会社,東京都,港区,北青山１丁目３番１号アールキューブ青山３階,,13,103,1070061,,,,,,,2025-01-20,1,,,,,クモクモクモ,0
2098,8010403034215,新規,0,2025-01-20,2025-01-20,苫小牧パワーストレージ合同会社,,合同会社,東京都,港区,海岸１丁目５番２０号,,13,103,1050022,,,,,,,2025-01-20,1,,,,,トマコマイパワーストレージ,0
2099,8010503007707,新規,0,2025-01-20,2025-01-20,ブレインインテグラル合同会社,,合同会社,東京都,台東区,東上野５丁目１７－８－中銀第２東上野マンション１００６,,13,106,1100015,,,,,,,2025-01-20,1,,,,,ブレインインテグラル,0
2100,8010701047100,新規,0,2025-01-20,2025-01-20,株式会社グリーンラボ,,株式会社,東京都,品川区,小山２丁目５番３号,,13,109,1420062,,,,,,,2025-01-20,1,,,,,グリーンラボ,0
2117,8011001166994,新規,0,2025-01-20,2025-01-20,株式会社ＡＩ　ｅｎｇｉｎｅｅｒ,,株式会社,東京都,渋谷区,広尾５丁目２５－５－３Ｆ,,13,113,1500012,,,,,,,2025-01-20,1,,,,,エーアイエンジニア,0
2118,8011001167002,新規,0,2025-01-20,2025-01-20,株式会社ミサキ,,株式会社,東京都,渋谷区,代々木４丁目３７番５－６０３,,13,113,1510053,,,,,,,2025-01-20,1,,,,,ミサキ,0
2119,8011001167035,新規,0,2025-01-20,2025-01-20,４Ｘ株式会社,,株式会社,東京都,渋谷区,円山町５番５号Ｎａｖｉ渋谷Ｖ３階,,13,113,1500044,,,,,,,2025-01-20,1,,,,,フォーエックス,0
2120,8011001167051,新規,0,2025-01-20,2025-01-20,ＮＯＲＭＮ株式会社,,株式会社,東京都,渋谷区,道玄坂１丁目１０番８号渋谷道玄坂東急ビル２Ｆ－Ｃ,,13,113,1500043,,,,,,,2025-01-20,1,,,,,ノーム,0
2124,8011103015422,新規,0,2025-01-20,2025-01-20,合同会社ＡＰＯＬＬＯＮ,,合同会社,東京都,新宿区,左門町９番地４四谷ステーションレジデンス,,13,104,1600017,,,,,,,2025-01-20,1,,,,,アポロン,0
2131,8011403004595,新規,0,2025-01-20,2025-01-20,プラド合同会社,,合同会社,東京都,板橋区,板橋１丁目４４－１４－１０２号,,13,119,1730004,,,,,,,2025-01-20,1,,,,,プラド,0
2139,8011701027967,新規,0,2025-01-20,2025-01-20,株式会社光栄工業,,株式会社,東京都,江戸川区,江戸川２丁目３０番２３号,,13,123,1320013,,,,,,,2025-01-20,1,,,,,コウエイコウギョウ,0
2150,8013301053658,新規,0,2025-01-20,2025-01-20,宇光株式会社,,株式会社,東京都,豊島区,西池袋１丁目３１－５白井ビル３－３号室,,13,116,1710021,,,,,,,2025-01-20,1,,,,,ウコウ,0
2152,8020001160882,新規,0,2025-01-20,2025-01-20,株式会社ＮＡＮＭＯＮＯ,,株式会社,神奈川県,横浜市西区,北幸２丁目１０番地４８むつみビル３階,,14,103,2200004,,,,,,,2025-01-20,1,,,,,ナンモノ,0
2153,8020001161047,新規,0,2025-01-20,2025-01-20,株式会社タムズ,,株式会社,神奈川県,横浜市戸塚区,上品濃２番３号,,14,110,2440806,,,,,,,2025-01-20,1,,,,,タムズ,0
2154,8021001084246,新規,0,2025-01-20,2025-01-20,株式会社Ｇｒｅａｔ　Ｌｕｃｋ,,株式会社,神奈川県,座間市,緑ケ丘３丁目３４番１３号１０６号室,,14,216,2520021,,,,,,,2025-01-20,1,,,,,グレイトラック,0
2156,8021003015488,新規,0,2025-01-20,2025-01-20,合同会社自在創研,,合同会社,神奈川県,藤沢市,藤が岡１丁目１３－１－８０９,,14,205,2510004,,,,,,,2025-01-20,1,,,,,ジザイソウケン,0
2165,8030001164429,新規,0,2025-01-20,2025-01-20,株式会社ＬＢホールディングス,,株式会社,埼玉県,ふじみ野市,ふじみ野１丁目１番３９号,,11,245,3560050,,,,,,,2025-01-20,1,,,,,エルビーホールディングス,0
2166,8030001164437,新規,0,2025-01-20,2025-01-20,株式会社Ｒｏｃｋｓ,,株式会社,埼玉県,所沢市,松が丘２丁目１２番地の１,,11,208,3591132,,,,,,,2025-01-20,1,,,,,ロックス,0
2167,8030001164461,新規,0,2025-01-20,2025-01-20,株式会社ＣＡＬＭＩ,,株式会社,埼玉県,さいたま市浦和区,東高砂町６番３号ＵＲＡＷＡＢＯＸ３階,,11,107,3300055,,,,,,,2025-01-20,1,,,,,カルミ,0
2171,8030003025901,新規,0,2025-01-20,2025-01-20,Ｂｏｒｉｎｇ　Ｃｏｎｓｕｌｔｉｎｇ合同会社,,合同会社,埼玉県,さいたま市岩槻区,大字徳力７６９番地１,,11,110,3390004,,,,,,,2025-01-20,1,,,,,ボーリングコンサルティング,0
2176,8040001137053,新規,0,2025-01-20,2025-01-20,株式会社ｉｔｏｍａＡＩ,,株式会社,千葉県,柏市,若柴２７６番地４中央１６２街区２エクセレントシティ柏の葉キャンパス２０２,,12,217,2770871,,,,,,,2025-01-20,1,,,,,イトマエーアイ,0
2178,8050001056038,新規,0,2025-01-20,2025-01-20,茨城貿易株式会社,,株式会社,茨城県,筑西市,舟生１１０番地６,,08,227,3080111,,,,,,,2025-01-20,1,,,,,イバラキボウエキ,0
2180,8050003008937,新規,0,2025-01-20,2025-01-20,合同会社澤山,,合同会社,茨城県,鹿嶋市,大字浜津賀５４６番地８０,,08,222,3112203,,,,,,,2025-01-20,1,,,,,サワヤマ,0
2181,8050003008945,新規,0,2025-01-20,2025-01-20,合同会社ＥｎｖｉｓｉｏＮ,,合同会社,茨城県,稲敷郡阿見町,大字実穀寺子１６７６番地３０６,,08,443,3001153,,,,,,,2025-01-20,1,,,,,エンビジョン,0
2185,8070001042548,新規,0,2025-01-20,2025-01-20,株式会社矢島商店,,株式会社,群馬県,太田市,鳥山町５９４番地,,10,205,3730053,,,,,,,2025-01-20,1,,,,,ヤジマショウテン,0
2193,8080401027692,新規,0,2025-01-20,2025-01-20,株式会社Ｓｔａｒｔｓクリーンカンパニー,,株式会社,静岡県,浜松市中央区,常盤町１３３番地の１２,,22,138,4300917,,,,,,,2025-01-20,1,,,,,スターツクリーンカンパニー,0
2207,8120001271918,新規,0,2025-01-20,2025-01-20,株式会社ＷＡＧＯ,,株式会社,大阪府,大阪市西区,北堀江１丁目６番２号サンワールドビル,,27,106,5500014,,,,,,,2025-01-20,1,,,,,ワゴ,0
2208,8120001271991,新規,0,2025-01-20,2025-01-20,安然株式会社,,株式会社,大阪府,大阪市西成区,松１丁目２番８－４０３室,,27,122,5570034,,,,,,,2025-01-20,1,,,,,アンゼン,0
2209,8120001272049,新規,0,2025-01-20,2025-01-20,ＱＩＮ　ＹＥ株式会社,,株式会社,大阪府,大阪市西区,江戸堀１丁目２３－１３肥後橋ビル３号館１２０１－Ｆ,,27,106,5500002,,,,,,,2025-01-20,1,,,,,チンイェ,0
2211,8120003028440,新規,0,2025-01-20,2025-01-20,合同会社ＬＡＵＨＰ,,合同会社,大阪府,大阪市城東区,関目５丁目１７番７号３階,,27,118,5360008,,,,,,,2025-01-20,1,,,,,ラウプ,0
2212,8120005024710,新規,0,2025-01-20,2025-01-20,医療法人れいファミリー歯科・矯正歯科,,その他の設立登記法人,大阪府,大阪市城東区,古市３丁目２４番１号ボナールエコンフォールフルイチ２階,,27,118,5360001,,,,,,,2025-01-20,1,,,,,レイファミリーシカキョウセイシカ,0
2214,8120101070906,新規,0,2025-01-20,2025-01-20,株式会社ＭＲ２,,株式会社,大阪府,堺市西区,菱木２丁２１１３番地１７,,27,144,5938315,,,,,,,2025-01-20,1,,,,,エムアールツー,0
2215,8120101070914,新規,0,2025-01-20,2025-01-20,天翔株式会社,,株式会社,大阪府,堺市堺区,南安井町４丁１番７号,,27,141,5900064,,,,,,,2025-01-20,1,,,,,テンショウ,0
2216,8120103006239,新規,0,2025-01-20,2025-01-20,合同会社萬家,,合同会社,大阪府,泉大津市,板原町３丁目１７番７号,,27,206,5950033,,,,,,,2025-01-20,1,,,,,マンヤ,0
2221,8120905006675,新規,0,2025-01-20,2025-01-20,医療法人バンビ,,その他の設立登記法人,大阪府,豊中市,少路１丁目２番７号リッツサントノーレ２階,,27,203,5600004,,,,,,,2025-01-20,1,,,,,バンビ,0
2228,8130001078817,新規,0,2025-01-20,2025-01-20,株式会社フルアーマー,,株式会社,京都府,向日市,上植野町妙峠１番地の５ソレイユ妙峠１０６,,26,208,6170006,,,,,,,2025-01-20,1,,,,,フルアーマー,0
2263,8160003003381,新規,0,2025-01-20,2025-01-20,縁合同会社,,合同会社,滋賀県,湖南市,北山台４丁目１６番地１,,25,211,5203241,,,,,,,2025-01-20,1,,,,,エン,0
2269,8180001165040,新規,0,2025-01-20,2025-01-20,株式会社ＣＡＰＳＴＯＮＥ,,株式会社,愛知県,一宮市,浅野字大島１８番地１,,23,203,4910871,,,,,,,2025-01-20,1,,,,,キャップストーン,0
2270,8180001165057,新規,0,2025-01-20,2025-01-20,ＺｅｔａＬｉｎｋ株式会社,,株式会社,愛知県,名古屋市中区,丸の内３丁目７－２６ＡＣＡビル５階,,23,106,4600002,,,,,,,2025-01-20,1,,,,,ゼータリンク,0
2278,8190003004914,新規,0,2025-01-20,2025-01-20,合同会社ワイズコンサルティング,,合同会社,三重県,志摩市,浜島町浜島１２４５‐３０,,24,215,5170404,,,,,,,2025-01-20,1,,,,,ワイズコンサルティング,0
2282,8200003006652,新規,0,2025-01-20,2025-01-20,合同会社ベスティサポート,,合同会社,岐阜県,多治見市,高田町１１丁目５番地の１３１,,21,204,5070018,,,,,,,2025-01-20,1,,,,,ベスティサポート,0
2285,8210001020035,新規,0,2025-01-20,2025-01-20,株式会社エイチ・ツー・シーデザイン,,株式会社,福井県,鯖江市,神中町２丁目６０４番１２,,18,207,9160016,,,,,,,2025-01-20,1,,,,,エイチツーシーデザイン,0
2298,8260001039822,新規,0,2025-01-20,2025-01-20,株式会社ＩＴＢＫ,,株式会社,岡山県,岡山市中区,円山１１８番地サンライズビル１０２号室,,33,102,7038271,,,,,,,2025-01-20,1,,,,,アイティービーケー,0
2299,8260001039830,新規,0,2025-01-20,2025-01-20,株式会社Ｓ‐ＴＥＣ,,株式会社,岡山県,瀬戸内市,邑久町北島１４８０番地４,,33,212,7014232,,,,,,,2025-01-20,1,,,,,エステック,0
2303,8270001009130,新規,0,2025-01-20,2025-01-20,株式会社岡田農園,,株式会社,鳥取県,西伯郡大山町,野田６６番地３,,31,386,6893307,,,,,,,2025-01-20,1,,,,,,0
2304,8280001009336,新規,0,2025-01-20,2025-01-20,ＭＤホールディングス株式会社,,株式会社,島根県,松江市,学園南２丁目３番５号,,32,201,6900826,,,,,,,2025-01-20,1,,,,,エムディーホールディングス,0
2313,8320003004561,新規,0,2025-01-20,2025-01-20,エンパワーキャピタル合同会社,,合同会社,大分県,大分市,上田町１丁目１２番２６号,,44,201,8700886,,,,,,,2025-01-20,1,,,,,エンパワーキャピタル,0
2325,8340001027067,新規,0,2025-01-20,2025-01-20,Ｔ＆Ｙ　ＡＧＥＮＣＹ．株式会社,,株式会社,鹿児島県,いちき串木野市,浅山３６２２番地４,,46,219,8960084,,,,,,,2025-01-20,1,,,,,ティーアンドワイエージェンシー,0
2336,8380001035033,新規,0,2025-01-20,2025-01-20,株式会社Ｎｅｘｔ　Ｅｒａ,,株式会社,福島県,郡山市,久留米６丁目２番５号二瓶マンション２階,,07,203,9638846,,,,,,,2025-01-20,1,,,,,ネクストエラ,0
2346,8430001093488,新規,0,2025-01-20,2025-01-20,株式会社システム,,株式会社,北海道,小樽市,見晴町９番１６号,,01,203,0470263,,,,,,,2025-01-20,1,,,,,システム,0
2348,8430003017189,新規,0,2025-01-20,2025-01-20,合同会社ＵＳＧ,,合同会社,北海道,札幌市北区,北七条西５丁目６番地１ストークマンション札幌１００１号,,01,102,0600807,,,,,,,2025-01-20,1,,,,,ユーエスジー,0
2357,8700150128819,新規,0,2025-01-20,2025-01-20,ＴＲＡＮＳ　ＣＩＲＣＬＥ　ＰＶＴ　ＬＴＤ,,外国会社等,千葉県,山武郡横芝光町,木戸６５４７番地３７－Ｂ,,12,410,2891726,スリランカ民主社会主義共和国、ニンタビュール２、マワディロード、Ｎｏ．１７６／Ａ,,,,,,2025-01-20,1,,,,,トランスサークルプライベートリミテツド,0
2373,9010001251517,新規,0,2025-01-20,2025-01-20,株式会社価値共創Ｘ,,株式会社,東京都,中央区,銀座１丁目１２－４Ｎ＆Ｅ・ＢＬＤ．７階,,13,102,1040061,,,,,,,2025-01-20,1,,,,,カチキョウソウエックス,0
2374,9010001251582,新規,0,2025-01-20,2025-01-20,興和株式会社,,株式会社,東京都,文京区,本郷２丁目９－８本郷朝風ビル２Ｆ,,13,105,1130033,,,,,,,2025-01-20,1,,,,,コウワ,0
2376,9010003046106,新規,0,2025-01-20,2025-01-20,日光Ｐｌｕｓ２３ホールディング合同会社,,合同会社,東京都,千代田区,丸の内１丁目４番１号東京共同会計事務所内,,13,101,1000005,,,,,,,2025-01-20,1,,,,,ニッコウプラスニジュウサンホールディング,0
2377,9010003046122,新規,0,2025-01-20,2025-01-20,ウォーターリリー合同会社,,合同会社,東京都,千代田区,神田須田町１丁目７番地８ＶＯＲＴ秋葉原ＩＶ２Ｆ,00137694,13,101,1010041,,,,,,,2025-01-20,1,,,,,ウォーターリリー,0
2378,9010005039421,新規,0,2025-01-20,2025-01-20,ハーモニー一般社団法人,,その他の設立登記法人,東京都,千代田区,霞が関３丁目２番５号,,13,101,1000013,,,,,,,2025-01-20,1,,,,,ハーモニー,0
2384,9010401187666,新規,0,2025-01-20,2025-01-20,株式会社Ｄｅｘｕｓ,,株式会社,東京都,港区,南青山３丁目１－３６青山丸竹ビル６Ｆ,,13,103,1070062,,,,,,,2025-01-20,1,,,,,デクサス,0
2385,9010401187674,新規,0,2025-01-20,2025-01-20,欣大田株式会社,,株式会社,東京都,港区,芝浦２丁目１７－１３保坂興産ビル３Ｆ－Ｂ,,13,103,1080023,,,,,,,2025-01-20,1,,,,,キンダイデン,0
2387,9010403034164,新規,0,2025-01-20,2025-01-20,Ａｔ　Ｙｏｕｒ　Ｓｅｒｖｉｃｅ合同会社,,合同会社,東京都,港区,赤坂２丁目２１番４号－５０６Ｂ,,13,103,1070052,,,,,,,2025-01-20,1,,,,,アットユアサービス,0
2388,9010403034180,新規,0,2025-01-20,2025-01-20,合同会社ＵＩＳエネルギーサービス,,合同会社,東京都,港区,三田２丁目１４番７号ローレル三田６０５号室,,13,103,1080073,,,,,,,2025-01-20,1,,,,,ユーアイエスエネルギーサービス,0
2389,9010403034197,新規,0,2025-01-20,2025-01-20,Ｈ　ｆｕｎｄマスターファンド合同会社,,合同会社,東京都,港区,虎ノ門２丁目６番１号虎ノ門ヒルズステーションタワー１６階,,13,103,1050001,,,,,,,2025-01-20,1,,,,,エイチファンドマスターファンド,0
2394,9010601066604,新規,0,2025-01-20,2025-01-20,株式会社ＳｉｌｖｅｒＥｄｇｅ,,株式会社,東京都,墨田区,文花２丁目１４番８号,,13,107,1310044,,,,,,,2025-01-20,1,,,,,シルバーエッジ,0
2395,9010601066612,新規,0,2025-01-20,2025-01-20,株式会社ＧＲＡＣＥＣＯＬＯＲ,,株式会社,東京都,江東区,亀戸５丁目１０－１亀戸ロイヤルビル３０２号室,,13,108,1360071,,,,,,,2025-01-20,1,,,,,グレイスカラー,0
2396,9010603011310,新規,0,2025-01-20,2025-01-20,Ｂｏｌｄ　ａｓ合同会社,,合同会社,東京都,墨田区,江東橋５丁目１６番１２号東京ビジネスビル４Ｆ,,13,107,1300022,,,,,,,2025-01-20,1,,,,,ボールドアズ,0
2399,9010803005244,新規,0,2025-01-20,2025-01-20,合同会社ＳＫＹ,,合同会社,東京都,大田区,大森北６丁目２９番１０号第３ＴＡＣ平和島駅前ビル４階,,13,111,1430016,,,,,,,2025-01-20,1,,,,,スカイ,0
2404,9010903009649,新規,0,2025-01-20,2025-01-20,凱風快晴．合同会社,,合同会社,東京都,世田谷区,八幡山２丁目１９番１０号,,13,112,1560056,,,,,,,2025-01-20,1,,,,,ガイフウカイセイ,0
2421,9011805003426,新規,0,2025-01-20,2025-01-20,一般社団法人日本ジェネラル・アビエーション地域振興協会,,その他の設立登記法人,東京都,足立区,入谷７丁目７番１４号,,13,121,1210836,,,,,,,2025-01-20,1,,,,,ニホンジェネラルアビエーションチイキシンコウキョウカイ,0
2428,9012801023698,新規,0,2025-01-20,2025-01-20,株式会社ＥＮＩＥＮ,,株式会社,東京都,立川市,高松町２丁目１番２１号金子ビル２Ｆ,,13,202,1900011,,,,,,,2025-01-20,1,,,,,エニエン,0
2433,9013301053649,新規,0,2025-01-20,2025-01-20,株式会社延単,,株式会社,東京都,豊島区,東池袋１丁目２３番７号ルネッサンスビル４階,,13,116,1700013,,,,,,,2025-01-20,1,,,,,ノベタン,0
2434,9013301053665,新規,0,2025-01-20,2025-01-20,株式会社ケンテックジャパン,,株式会社,東京都,豊島区,東池袋１丁目３４番５号いちご東池袋ビル６階,,13,116,1700013,,,,,,,2025-01-20,1,,,,,ケンテックジャパン,0
2435,9013303007487,新規,0,2025-01-20,2025-01-20,ＳｏｕｎｄＳ　ＧｏｏＤ合同会社,,合同会社,東京都,豊島区,池袋２丁目５２－３ルミナリータワー池袋２３０４,,13,116,1710014,,,,,,,2025-01-20,1,,,,,サウンズグッド,0
2441,9020003027625,新規,0,2025-01-20,2025-01-20,合同会社ＤＥＥＰ　ＳＭＡＲＴ,,合同会社,神奈川県,横浜市神奈川区,金港町５‐１４クアドリフォリオ８階,,14,102,2210056,,,,,,,2025-01-20,1,,,,,ディープスマート,0
2442,9020003027633,新規,0,2025-01-20,2025-01-20,合同会社ひらめき,,合同会社,神奈川県,川崎市高津区,二子３丁目１２番２１号マーシャンコーポ二子２０２,,14,134,2130002,,,,,,,2025-01-20,1,,,,,ヒラメキ,0
2444,9020005016667,新規,0,2025-01-20,2025-01-20,税理士法人ＲＥＬＹ＆Ｐａｒｔｎｅｒｓ,,その他の設立登記法人,神奈川県,川崎市高津区,末長２丁目３８番４７号,,14,134,2130013,,,,,,,2025-01-20,1,,,,,リライアンドパートナーズ,0
2447,9021001084278,新規,0,2025-01-20,2025-01-20,株式会社県央住宅エージェント,,株式会社,神奈川県,大和市,福田１丁目９－４ライオンズマンション桜ヶ丘駅前１階,,14,213,2420024,,,,,,,2025-01-20,1,,,,,ケンオウジュウタクエージェント,0
2449,9021003015446,新規,0,2025-01-20,2025-01-20,合同会社ＢＯＡ,,合同会社,神奈川県,相模原市南区,南台５丁目１１－１９ステーションスカイタワー２３０１,,14,153,2520314,,,,,,,2025-01-20,1,,,,,ボア,0
2450,9021003015479,新規,0,2025-01-20,2025-01-20,ＡＩＫＯ　ＪＹＵＫＩ合同会社,,合同会社,神奈川県,愛甲郡愛川町,三増８３１－１－Ｂ,,14,401,2430308,,,,,,,2025-01-20,1,,,,,アイコージュウキ,0
2458,9030001164246,新規,0,2025-01-20,2025-01-20,株式会社ＡＳＧ住宅サポート,,株式会社,埼玉県,さいたま市岩槻区,大字黒谷２２３０－１,,11,110,3390033,,,,,,,2025-01-20,1,,,,,エーエスジージュウタクサポート,0
2464,9040001136599,新規,0,2025-01-20,2025-01-20,株式会社トラント,,株式会社,千葉県,市原市,郡本１丁目４１３番地３,,12,219,2900013,,,,,,,2025-01-20,1,,,,,トラント,0
2465,9040001137085,新規,0,2025-01-20,2025-01-20,株式会社ｍａｄｅ　ｉｎ　Ｙ,,株式会社,千葉県,市川市,宝２丁目６番２４号,,12,203,2720122,,,,,,,2025-01-20,1,,,,,メイドインワイ,0
2469,9040003026526,新規,0,2025-01-20,2025-01-20,ＳＢＴ合同会社,,合同会社,千葉県,木更津市,大久保５５６番地２,,12,206,2920815,,,,,,,2025-01-20,1,,,,,エスビーティー,0
2470,9040003026625,新規,0,2025-01-20,2025-01-20,合同会社インザドリーム,,合同会社,千葉県,成田市,橋賀台２丁目５番地１,,12,211,2860037,,,,,,,2025-01-20,1,,,,,インザドリーム,0
2480,9060003005395,新規,0,2025-01-20,2025-01-20,合同会社ＪＳ　ＩＮＴＥＲＮＡＴＩＯＮＡＬ,,合同会社,栃木県,小山市,大字土塔２６５－１３ピュア１０１号室,,09,208,3230812,,,,,,,2025-01-20,1,,,,,ジェイエスインターナショナル,0
2486,9070001042547,新規,0,2025-01-20,2025-01-20,株式会社Ａｒｔ　ｍｉｘ,,株式会社,群馬県,藤岡市,藤岡３２２番地１,,10,209,3750024,,,,,,,2025-01-20,1,,,,,アートミックス,0
2487,9070001042555,新規,0,2025-01-20,2025-01-20,株式会社ビオベジ,,株式会社,群馬県,太田市,鳥山上町２３６８番地１,,10,205,3730061,,,,,,,2025-01-20,1,,,,,ビオベジ,0
2507,9120001271867,新規,0,2025-01-20,2025-01-20,株式会社ワイズコーポレーション,,株式会社,大阪府,大阪市淀川区,塚本２丁目８番１４－４０３号,,27,123,5320026,,,,,,,2025-01-20,1,,,,,ワイズコーポレーション,0
2508,9120001271990,新規,0,2025-01-20,2025-01-20,佳美株式会社,,株式会社,大阪府,大阪市住吉区,山之内３丁目１２－１３－２２室,,27,120,5580023,,,,,,,2025-01-20,1,,,,,カミ,0
2509,9120001272072,新規,0,2025-01-20,2025-01-20,株式会社シナジーワークス,,株式会社,大阪府,大阪市東成区,東小橋３丁目９番１３号,,27,115,5370024,,,,,,,2025-01-20,1,,,,,シナジーワークス,0
2510,9120001272097,新規,0,2025-01-20,2025-01-20,株式会社いちとろく,,株式会社,大阪府,大阪市天王寺区,南河堀町９番９号是空天王寺３０２号室,,27,109,5430054,,,,,,,2025-01-20,1,,,,,イチトロク,0
2516,9120101070905,新規,0,2025-01-20,2025-01-20,株式会社堀内清掃,,株式会社,大阪府,堺市北区,北花田町４丁９２番地５,,27,146,5918002,,,,,,,2025-01-20,1,,,,,ホリウチセイソウ,0
2517,9120101070921,新規,0,2025-01-20,2025-01-20,株式会社Ｒ＆Ｐ,,株式会社,大阪府,羽曳野市,島泉６丁目５番２号,,27,222,5830881,,,,,,,2025-01-20,1,,,,,アールアンドピー,0
2518,9120901050305,新規,0,2025-01-20,2025-01-20,株式会社ＰｅａｃｅＦｌｙ,,株式会社,大阪府,吹田市,五月が丘南１番６号,,27,205,5650832,,,,,,,2025-01-20,1,,,,,ピースフライ,0
2523,9130001078808,新規,0,2025-01-20,2025-01-20,Ｔ＆Ｍインベストメント・コーポレーション株式会社,,株式会社,京都府,京都市中京区,油小路通四条上る藤本町５４０番地フィエストーレ四条１００１号室,,26,104,6048233,,,,,,,2025-01-20,1,,,,,ティーアンドエムインベストメントコーポレーション,0
2525,9130003010149,新規,0,2025-01-20,2025-01-20,合同会社国邦,,合同会社,京都府,京都市山科区,御陵封ジ山町７－４６－２１１,,26,110,6078422,,,,,,,2025-01-20,1,,,,,コクホウ,0
2552,9140001137133,新規,0,2025-01-20,2025-01-20,株式会社ＧＲＯＯＶＥ　ＣＡＰＩＴＡＬ,,株式会社,兵庫県,神戸市中央区,磯辺通３丁目２－１１－６Ｆ,,28,110,6510084,,,,,,,2025-01-20,1,,,,,グルーヴキャピタル,0
2570,9140005027355,新規,0,2025-01-20,2025-01-20,一般社団法人日本医療福祉人財支援協会,,その他の設立登記法人,兵庫県,神戸市北区,鈴蘭台西町３丁目１１－１,,28,109,6511114,,,,,,,2025-01-20,1,,,,,ニホンイリョウフクシジンザイシエンキョウカイ,0
2572,9150001027829,新規,0,2025-01-20,2025-01-20,株式会社ミユキ,,株式会社,奈良県,奈良市,針ヶ別所町２１４番地の８８,,29,201,6320112,,,,,,,2025-01-20,1,,,,,ミユキ,0
2573,9170001018454,新規,0,2025-01-20,2025-01-20,株式会社和歌山香醸,,株式会社,和歌山県,有田市,下中島３５－１,,30,204,6490301,,,,,,,2025-01-20,1,,,,,ワカヤマコウジョウ,0
2580,9180001164900,新規,0,2025-01-20,2025-01-20,ＷＥグループホールディングス株式会社,,株式会社,愛知県,大府市,中央町７丁目３３６番地,,23,223,4740025,,,,,,,2025-01-20,1,,,,,ウィーグループホールディングス,0
2581,9180001164999,新規,0,2025-01-20,2025-01-20,株式会社ＨＯＫＵＬＡＮＩ,,株式会社,愛知県,名古屋市中村区,亀島１丁目１２番１６号,,23,105,4530013,,,,,,,2025-01-20,1,,,,,ホクラニ,0
2582,9180001165031,新規,0,2025-01-20,2025-01-20,株式会社ナレッジクロス,,株式会社,愛知県,名古屋市名東区,猪高台２丁目８０１番地の１１,,23,115,4650028,,,,,,,2025-01-20,1,,,,,ナレッジクロス,0
2583,9180001165048,新規,0,2025-01-20,2025-01-20,Ｃｅｔｒａ　Ｊａｐａｎ株式会社,,株式会社,愛知県,名古屋市中村区,名駅４丁目２４番５号第２森ビル４０１,,23,105,4500002,,,,,,,2025-01-20,1,,,,,セトラジャパン,0
2587,9180003027865,新規,0,2025-01-20,2025-01-20,合同会社ＣＡＲＰＥ,,合同会社,愛知県,名古屋市西区,庄内通３丁目３６番地の１サントピア庄内通５Ｃ,,23,104,4510016,,,,,,,2025-01-20,1,,,,,カルペ,0
2588,9180003027881,新規,0,2025-01-20,2025-01-20,合同会社エムエスエムワイ,,合同会社,愛知県,名古屋市瑞穂区,釜塚町２丁目５５番地の１,,23,108,4670051,,,,,,,2025-01-20,1,,,,,エムエスエムワイ,0
2590,9180303006412,新規,0,2025-01-20,2025-01-20,合同会社マエダプロダクション,,合同会社,愛知県,豊田市,本地町４丁目３５番地３１,,23,211,4710848,,,,,,,2025-01-20,1,,,,,マエダプロダクション,0
2598,9210003001874,新規,0,2025-01-20,2025-01-20,合同会社もみじ,,合同会社,福井県,福井市,四十谷町第１７号７番地,,18,201,9100043,,,,,,,2025-01-20,1,,,,,モミジ,0
2601,9240001064409,新規,0,2025-01-20,2025-01-20,株式会社ＮｉｌＣｒａｆｔ,,株式会社,広島県,広島市西区,南観音４丁目８－８,,34,104,7330035,,,,,,,2025-01-20,1,,,,,ニルクラフト,0
2606,9280001009335,新規,0,2025-01-20,2025-01-20,株式会社トーワホールディングス,,株式会社,島根県,出雲市,荻杼町４２０番地１,,32,203,6930013,,,,,,,2025-01-20,1,,,,,トーワホールディングス,0
2612,9290003016304,新規,0,2025-01-20,2025-01-20,合同会社北宇佐バッテリープレイス,,合同会社,福岡県,福岡市南区,大楠１丁目４番２２号,,40,134,8150082,,,,,,,2025-01-20,1,,,,,キタウサバッテリープレイス,0
2613,9290003016312,新規,0,2025-01-20,2025-01-20,合同会社ＳｔａｒｔＬｉｎｅ,,合同会社,福岡県,福岡市中央区,小笹３丁目２１番５２―５０８号小笹ハウシーズ,,40,133,8100033,,,,,,,2025-01-20,1,,,,,スタートライン,0
2614,9290005019619,新規,0,2025-01-20,2025-01-20,一般社団法人アニマルウェルフェア福岡,,その他の設立登記法人,福岡県,糟屋郡須惠町,須恵９７３－１,,40,344,8112100,,,,,,,2025-01-20,1,,,,,アニマルウェルフェアフクオカ,0
2618,9290805009802,新規,0,2025-01-20,2025-01-20,医療法人ＳＤＣ,,その他の設立登記法人,福岡県,北九州市小倉北区,京町１丁目２‐７‐２階,,40,106,8020002,,,,,,,2025-01-20,1,,,,,エスディーシー,0
2639,9370001052152,新規,0,2025-01-20,2025-01-20,株式会社ＡＣＥ,,株式会社,宮城県,石巻市,小船越字大縄場７０番地,,04,202,9860132,,,,,,,2025-01-20,1,,,,,エース,0
2640,9370001052160,新規,0,2025-01-20,2025-01-20,株式会社エステート沖野,,株式会社,宮城県,仙台市若林区,沖野７丁目４１番２５号,,04,103,9840831,,,,,,,2025-01-20,1,,,,,エステートオキノ,0
2642,9370003006899,新規,0,2025-01-20,2025-01-20,ＰＡＹ’ｓ合同会社,,合同会社,宮城県,仙台市太白区,郡山７丁目３‐３４エクセルジオ郡山２０３号室,,04,104,9820003,,,,,,,2025-01-20,1,,,,,ペイズ,0
2645,9390001017839,新規,0,2025-01-20,2025-01-20,八十八株式会社,,株式会社,山形県,尾花沢市,新町２丁目４番６５号,,06,212,9994224,,,,,,,2025-01-20,1,,,,,ヤソヤ,0
2650,9430001093487,新規,0,2025-01-20,2025-01-20,ＮＥＸＴＳＵＭ株式会社,,株式会社,北海道,札幌市西区,二十四軒四条６丁目４番１－１０３号,,01,107,0630804,,,,,,,2025-01-20,1,,,,,ネクサム,0
2651,9450003002592,新規,0,2025-01-20,2025-01-20,合同会社美整社,,合同会社,北海道,紋別市,花園町４丁目６番７号,,01,219,0940015,,,,,,,2025-01-20,1,,,,,ビセイシャ,0
2660,9700150128818,新規,0,2025-01-20,2025-01-20,ＭＩＨＩＮ　ＩＮＴＥＲＮＡＴＩＯＮＡＬ,,外国会社等,神奈川県,厚木市,下荻野１３５３－５－２０２,,14,212,2430203,スリランカ民主社会主義共和国、ラーガマ、ウェリサラ、シェルトンジャヤシンガマーワタＮＯ．０８,,,,,,2025-01-20,1,,,,,ミヒンインターナシヨナル,0
