sequenceNumber,corporateNumber,process,correct,updateDate,changeDate,name,nameImageId,kind,prefectureName,cityName,streetNumber,addressImageId,prefectureCode,cityCode,postCode,addressOutside,addressOutsideImageId,closeDate,closeCause,successorCorporateNumber,changeCause,assignmentDate,latest,enName,enPrefectureName,enCityName,enAddressOutside,furigana,hihyoji
9,1010001252547,新規,0,2025-02-26,2025-02-26,マーキュリー・イノベーション・パートナーズ株式会社,,株式会社,東京都,千代田区,一番町６番地相模屋本社ビル７Ｆ,,13,101,1020082,,,,,,,2025-02-26,1,,,,,マーキュリーイノベーションパートナーズ,0
21,1010405024121,新規,0,2025-02-26,2025-02-26,空木岳特定目的会社,,その他の設立登記法人,東京都,港区,六本木１丁目６番１号泉ガーデンタワーＫＰＭＧ税理士法人内,,13,103,1060032,,,,,,,2025-02-26,1,,,,,ウツギダケ,0
25,1010601066801,新規,0,2025-02-26,2025-02-26,株式会社Ｓａｎｈｏｍａｎｓｉｏｎ,,株式会社,東京都,江東区,塩浜２丁目５番１－４１８号,,13,108,1350043,,,,,,,2025-02-26,1,,,,,サンホマンション,0
26,1010601066834,新規,0,2025-02-26,2025-02-26,株式会社Ｔｒｅｓ　ｂｏｎ,,株式会社,東京都,江東区,深川２丁目６番１号アワーズビル１Ｆ,,13,108,1350033,,,,,,,2025-02-26,1,,,,,トレボン,0
39,1011001167818,新規,0,2025-02-26,2025-02-26,株式会社Ｊｏｙｎａｒｙ,,株式会社,東京都,渋谷区,渋谷２丁目１９－１５宮益坂ビルディング６０９,,13,113,1500002,,,,,,,2025-02-26,1,,,,,ジョイナリー,0
40,1011001168048,新規,0,2025-02-26,2025-02-26,株式会社Ｃ‐ＬｉｎＣ,,株式会社,東京都,渋谷区,渋谷２丁目１９‐１５宮益坂ビルディング６０９,,13,113,1500002,,,,,,,2025-02-26,1,,,,,シーリンク,0
41,1011003021056,新規,0,2025-02-26,2025-02-26,合同会社オブセッション,,合同会社,東京都,渋谷区,神宮前６丁目２３番４号桑野ビル２Ｆ,,13,113,1500001,,,,,,,2025-02-26,1,,,,,オブセッション,0
42,1011003021064,新規,0,2025-02-26,2025-02-26,アーブ合同会社,,合同会社,東京都,渋谷区,神泉町１０番１５号アネックス神泉３０１,,13,113,1500045,,,,,,,2025-02-26,1,,,,,アーブ,0
45,1011201026154,新規,0,2025-02-26,2025-02-26,大賀アセットマネジメント株式会社,,株式会社,東京都,中野区,本町１丁目１３番１８号,,13,114,1640012,,,,,,,2025-02-26,1,,,,,オオガアセットマネジメント,0
47,1011301030378,新規,0,2025-02-26,2025-02-26,株式会社ペル,,株式会社,東京都,杉並区,和田２丁目２番２号,,13,115,1660012,,,,,,,2025-02-26,1,,,,,ペル,0
50,1011403004635,新規,0,2025-02-26,2025-02-26,合同会社ＳＮＣＩ,,合同会社,東京都,板橋区,赤塚新町３丁目３２番地５－４０５号,,13,119,1750093,,,,,,,2025-02-26,1,,,,,エスエヌシーアイ,0
52,1011501031754,新規,0,2025-02-26,2025-02-26,株式会社枝川ＤＵＣＴ,,株式会社,東京都,荒川区,町屋５丁目１番１１号,,13,118,1160001,,,,,,,2025-02-26,1,,,,,エダガワダクト,0
54,1011601028452,新規,0,2025-02-26,2025-02-26,ＥＬＦ株式会社,,株式会社,東京都,練馬区,関町北１丁目２６番１１号,,13,120,1770051,,,,,,,2025-02-26,1,,,,,エルフ,0
59,1011803006702,新規,0,2025-02-26,2025-02-26,ＫｉＶＯ　Ｊａｐａｎ合同会社,,合同会社,東京都,足立区,南花畑２丁目３９番１０号,,13,121,1210062,,,,,,,2025-02-26,1,,,,,キヴォジャパン,0
62,1012801023763,新規,0,2025-02-26,2025-02-26,トリプルエイト株式会社,,株式会社,東京都,立川市,曙町２丁目１５番２２号,00138124,13,202,1900012,,,,,,,2025-02-26,1,,,,,トリプルエイト,0
67,1013301053821,新規,0,2025-02-26,2025-02-26,株式会社ＹＯＵ＆ＤＲＥＡＭ,,株式会社,東京都,豊島区,雑司が谷１丁目１４番３号,,13,116,1710032,,,,,,,2025-02-26,1,,,,,ユーアンドドリーム,0
77,1020001161516,新規,0,2025-02-26,2025-02-26,樂奏株式会社,,株式会社,神奈川県,横浜市泉区,緑園３丁目３７番地３４,,14,116,2450002,,,,,,,2025-02-26,1,,,,,ガクソウ,0
81,1021001084525,新規,0,2025-02-26,2025-02-26,カタヤマＨＤ株式会社,,株式会社,神奈川県,大和市,南林間１丁目８番１３号,,14,213,2420006,,,,,,,2025-02-26,1,,,,,カタヤマホールディングス,0
82,1021001084533,新規,0,2025-02-26,2025-02-26,株式会社アシストジャパン,,株式会社,神奈川県,相模原市南区,東林間３丁目１番１６号,,14,153,2520311,,,,,,,2025-02-26,1,,,,,アシストジャパン,0
85,1021003015619,新規,0,2025-02-26,2025-02-26,合同会社中野建築,,合同会社,神奈川県,厚木市,水引２丁目１０番１８－１０１号,,14,212,2430004,,,,,,,2025-02-26,1,,,,,ナカノケンチク,0
90,1030001164939,新規,0,2025-02-26,2025-02-26,株式会社アクティブシナジー,,株式会社,埼玉県,鶴ヶ島市,大字鶴ヶ丘８７－２鶴ヶ島宝マンション１０８号室,,11,241,3502204,,,,,,,2025-02-26,1,,,,,アクティブシナジー,0
96,1040001137514,新規,0,2025-02-26,2025-02-26,株式会社ＢｅｅＨａｐｐｙ,,株式会社,千葉県,佐倉市,西志津８丁目１７番１号,,12,212,2850845,,,,,,,2025-02-26,1,,,,,ビーハッピー,0
97,1040001137539,新規,0,2025-02-26,2025-02-26,山久株式会社,,株式会社,千葉県,千葉市花見川区,大日町１３４９番地１－Ｂ,,12,102,2620004,,,,,,,2025-02-26,1,,,,,ヤマヒサ,0
99,1040003026946,新規,0,2025-02-26,2025-02-26,合同会社あのあの,,合同会社,千葉県,鎌ケ谷市,新鎌ケ谷１丁目１０番２９号エムケイ新鎌,,12,224,2730107,,,,,,,2025-02-26,1,,,,,アノアノ,0
100,1040003026954,新規,0,2025-02-26,2025-02-26,合同会社ＴＡＮＡＫＡ,,合同会社,千葉県,柏市,塚崎５９２番地１５,,12,217,2770923,,,,,,,2025-02-26,1,,,,,タナカ,0
101,1040003026962,新規,0,2025-02-26,2025-02-26,合同会社デジタルパレット,,合同会社,千葉県,千葉市中央区,富士見２丁目９番１３号ＷＴＣ千葉富士見ビル４Ｆ,,12,101,2600015,,,,,,,2025-02-26,1,,,,,デジタルパレット,0
105,1060001037943,新規,0,2025-02-26,2025-02-26,株式会社ＳＵＮＡＣＥ,,株式会社,栃木県,小山市,大字南小林１４８番地１７,,09,208,3230057,,,,,,,2025-02-26,1,,,,,サンエース,0
106,1060001037951,新規,0,2025-02-26,2025-02-26,新世代技研工業株式会社,,株式会社,栃木県,宇都宮市,東梁瀬一丁目４０番８号,,09,201,3210000,,,,,,,2025-02-26,1,,,,,シンセダイギケンコウギョウ,0
114,1080105006487,新規,0,2025-02-26,2025-02-26,一般社団法人日中経貿支援機構,,その他の設立登記法人,静岡県,伊豆の国市,浮橋１５９９番地の４９,,22,225,4102311,,,,,,,2025-02-26,1,,,,,ニッチュウケイボウシエンキコウ,0
117,1080405007714,新規,0,2025-02-26,2025-02-26,一般社団法人桜和会,,その他の設立登記法人,静岡県,磐田市,中泉３０００番地１,,22,211,4380078,,,,,,,2025-02-26,1,,,,,オウワカイ,0
120,1100001038326,新規,0,2025-02-26,2025-02-26,ＰｅａｋＢＧＭ株式会社,,株式会社,長野県,上高井郡高山村,大字中山５０４８番地１,,20,543,3820800,,,,,,,2025-02-26,1,,,,,ピークビージーエム,0
131,1110005017192,新規,0,2025-02-26,2025-02-26,一般社団法人新保事業区,,その他の設立登記法人,新潟県,佐渡市,金井新保乙７６４番地１,,15,224,9521208,,,,,,,2025-02-26,1,,,,,シンボジギョウク,0
142,1120001273136,新規,0,2025-02-26,2025-02-26,嘉典株式会社,,株式会社,大阪府,大阪市鶴見区,今津南１丁目２番３８号３０１室,,27,124,5380043,,,,,,,2025-02-26,1,,,,,カテン,0
143,1120001273202,新規,0,2025-02-26,2025-02-26,株式会社フォーエイム,,株式会社,大阪府,大阪市中央区,南船場２丁目２番１３－２００５号,,27,128,5420081,,,,,,,2025-02-26,1,,,,,フォーエイム,0
144,1120001273210,新規,0,2025-02-26,2025-02-26,株式会社言の葉,,株式会社,大阪府,大阪市中央区,南船場２丁目１１番９－３０１号,,27,128,5420081,,,,,,,2025-02-26,1,,,,,コトノハ,0
145,1120001273227,新規,0,2025-02-26,2025-02-26,株式会社メイー,,株式会社,大阪府,大阪市北区,西天満１丁目２番２３－４０３号,,27,127,5300047,,,,,,,2025-02-26,1,,,,,メイー,0
146,1120001273235,新規,0,2025-02-26,2025-02-26,Ｇｌｏｂａｌ　Ｈｏｓｐｉｔａｌｉｔｙ　Ｇｒｏｕｐ　Ｒｅｔａｉｌ株式会社,,株式会社,大阪府,大阪市港区,田中２丁目１１番５号,,27,107,5520005,,,,,,,2025-02-26,1,,,,,グローバルホスピタリティグループリテール,0
149,1120003028637,新規,0,2025-02-26,2025-02-26,Ｍ’ＣＡＥＬＵ合同会社,,合同会社,大阪府,大阪市北区,梅田１丁目２番２号大阪駅前第２ビル１２－１２,,27,127,5300001,,,,,,,2025-02-26,1,,,,,ミカエル,0
154,1120101071134,新規,0,2025-02-26,2025-02-26,岡崎工業株式会社,,株式会社,大阪府,堺市堺区,宿院町東４丁２番６－７１０号,,27,141,5900955,,,,,,,2025-02-26,1,,,,,オカザキコウギョウ,0
155,1122001038923,新規,0,2025-02-26,2025-02-26,銘揚株式会社,,株式会社,大阪府,東大阪市,菱屋東１丁目２番３８－４０１号,,27,227,5780948,,,,,,,2025-02-26,1,,,,,メイヨウ,0
157,1130001079061,新規,0,2025-02-26,2025-02-26,博淵堂株式会社,,株式会社,京都府,京都市中京区,西ノ京御輿岡町３番地３７,,26,104,6048451,,,,,,,2025-02-26,1,,,,,ハクエンドウ,0
159,1130003010230,新規,0,2025-02-26,2025-02-26,合同会社ブラン,,合同会社,京都府,京都市中京区,蛸薬師町２８７ＩＤＯ２Ｆ,,26,104,6040021,,,,,,,2025-02-26,1,,,,,ブラン,0
164,1140001137504,新規,0,2025-02-26,2025-02-26,ＪＮＶ　Ｇｌｏｂａｌ株式会社,,株式会社,兵庫県,神戸市北区,有野町唐櫃４０２９番３－３１１号室,,28,109,6511331,,,,,,,2025-02-26,1,,,,,ジェイエヌブイグローバル,0
165,1140001137512,新規,0,2025-02-26,2025-02-26,神戸岡本ホールディングス株式会社,,株式会社,兵庫県,豊岡市,泉町７番１号,,28,209,6680021,,,,,,,2025-02-26,1,,,,,コウベオカモトホールディングス,0
171,1160001026556,新規,0,2025-02-26,2025-02-26,株式会社ＭＡＱＥＩ,,株式会社,滋賀県,栗東市,六地蔵７０９番地３,,25,208,5203017,,,,,,,2025-02-26,1,,,,,マーキー,0
177,1180001165468,新規,0,2025-02-26,2025-02-26,株式会社ＳＴホールディングス,,株式会社,愛知県,大府市,共栄町９丁目２番地の７,,23,223,4740074,,,,,,,2025-02-26,1,,,,,エスティーホールディングス,0
178,1180001165567,新規,0,2025-02-26,2025-02-26,株式会社Ｉ・Ｇ・Ｔ,,株式会社,愛知県,日進市,岩崎町石兼５６番地８１８,,23,230,4700131,,,,,,,2025-02-26,1,,,,,アイジーティー,0
179,1180001165600,新規,0,2025-02-26,2025-02-26,株式会社Ｓｍｉｌｅ　Ｓｐａｒｋ,,株式会社,愛知県,清須市,新清洲４丁目１番地５,,23,233,4520943,,,,,,,2025-02-26,1,,,,,スマイルスパーク,0
180,1180001165609,新規,0,2025-02-26,2025-02-26,株式会社Ｒｉｚｚ,,株式会社,愛知県,名古屋市中区,丸の内１丁目１４番２４号ライオンズビル第二丸の内３Ｆ,,23,106,4600002,,,,,,,2025-02-26,1,,,,,リズ,0
185,1180301039545,新規,0,2025-02-26,2025-02-26,株式会社ＩＭ,,株式会社,愛知県,豊橋市,森岡町２０番地の３６,,23,201,4411114,,,,,,,2025-02-26,1,,,,,イム,0
190,1190001032023,新規,0,2025-02-26,2025-02-26,株式会社ＨＩＲＯ,,株式会社,三重県,尾鷲市,三木里町２８３番地２,,24,209,5193811,,,,,,,2025-02-26,1,,,,,ヒロ,0
201,1220001026509,新規,0,2025-02-26,2025-02-26,株式会社晴耕雨読,,株式会社,石川県,能美市,粟生町南５１番地,,17,211,9231101,,,,,,,2025-02-26,1,,,,,セイコウウドク,0
207,1240001064564,新規,0,2025-02-26,2025-02-26,松藤工業株式会社,,株式会社,広島県,福山市,新涯町２丁目４番２９号種本ビル１階,,34,207,7210955,,,,,,,2025-02-26,1,,,,,マツフジコウギョウ,0
208,1240001064572,新規,0,2025-02-26,2025-02-26,株式会社ＡＭＮ,,株式会社,広島県,広島市安佐南区,西原１丁目２４番３８－３０２号,,34,105,7310113,,,,,,,2025-02-26,1,,,,,エイエムエヌ,0
212,1260001039936,新規,0,2025-02-26,2025-02-26,株式会社カープレイヤーズ,,株式会社,岡山県,浅口市,鴨方町小坂西４６４１番地,,33,216,7190231,,,,,,,2025-02-26,1,,,,,カープレイヤーズ,0
218,1290001109075,新規,0,2025-02-26,2025-02-26,株式会社ＷｅｌｌＳｐｈｅｒｅ,,株式会社,福岡県,福岡市博多区,博多駅前１丁目２３番２号ＰａｒｋＦｒｏｎｔ博多駅前一丁目５Ｆ－Ｂ,,40,132,8120011,,,,,,,2025-02-26,1,,,,,ウェルスフィア,0
221,1290003016451,新規,0,2025-02-26,2025-02-26,合同会社猫と向日葵,,合同会社,福岡県,福岡市東区,東浜１丁目２－３４,,40,131,8120055,,,,,,,2025-02-26,1,,,,,ネコトヒマワリ,0
226,1330001032909,新規,0,2025-02-26,2025-02-26,株式会社エムズシステム,,株式会社,熊本県,熊本市北区,清水万石５丁目２番５３号,,43,105,8618068,,,,,,,2025-02-26,1,,,,,エムズシステム,0
227,1330001032917,新規,0,2025-02-26,2025-02-26,株式会社向日葵,,株式会社,熊本県,熊本市中央区,本荘３丁目４番１－９０１号シティマンション代継橋,,43,101,8600811,,,,,,,2025-02-26,1,,,,,ヒマワリ,0
230,1330003010862,新規,0,2025-02-26,2025-02-26,合同会社ＳＭＫＹ,,合同会社,熊本県,阿蘇郡高森町,大字高森２３５０番地１,,43,428,8691602,,,,,,,2025-02-26,1,,,,,エスエムケイワイ,0
236,1370003006948,新規,0,2025-02-26,2025-02-26,合同会社整体藤田,,合同会社,宮城県,栗原市,築館源光２番１号,,04,213,9872211,,,,,,,2025-02-26,1,,,,,セイタイフジタ,0
241,1400001016945,新規,0,2025-02-26,2025-02-26,株式会社ＬＩＢＥＮ,,株式会社,岩手県,盛岡市,門字真立１４７番地,,03,201,0200823,,,,,,,2025-02-26,1,,,,,リーベン,0
242,1400003003396,新規,0,2025-02-26,2025-02-26,合同会社畠山工業,,合同会社,岩手県,北上市,北鬼柳１６地割１６４番地ソレイユＤ,,03,206,0240072,,,,,,,2025-02-26,1,,,,,ハタケヤマコウギョウ,0
246,1420003003072,新規,0,2025-02-26,2025-02-26,合同会社みずあい工房,,合同会社,青森県,三戸郡階上町,大字田代字鳶ケ沢６番地３号,,02,446,0391206,,,,,,,2025-02-26,1,,,,,,0
249,1430001093742,新規,0,2025-02-26,2025-02-26,ＯＫハイヤー株式会社,,株式会社,北海道,札幌市東区,北四十六条東７丁目２番２１号,,01,103,0070846,,,,,,,2025-02-26,1,,,,,オーケーハイヤー,0
256,1700150129278,新規,0,2025-02-26,2025-02-26,ｎｉｎｇ　ｂｏ　ｓｈｕａｉ　ｊｉａ　ｍａｏ　ｙｉ　ｙｏｕ　ｘｉａｎ　ｇｏｎｇ　ｓｉ,,外国会社等,,,,,,,,ｚｈｅ　ｊｉａｎｇ　ｓｈｅｎｇ　ｎｉｎｇ　ｂｏ　ｇａｏ　ｘｉｎ　ｑｕ　ｈｕｉ　ｈａｉ　ｌｕ　８　ｈａｏ　９－１（ｆａｎｇ　ｊｉａｎ　ｈａｏ　ｗｅｉ　９０２）,,,,,,2025-02-26,1,,,,,ニンボスァイジャマオイユウゲンコウシ,0
263,2010001252570,新規,0,2025-02-26,2025-02-26,株式会社ぽんず不動産,,株式会社,東京都,中央区,晴海５丁目６－６晴海フラッグパークビレッジＦ棟２１０,,13,102,1040053,,,,,,,2025-02-26,1,,,,,ポンズフドウサン,0
264,2010001252587,新規,0,2025-02-26,2025-02-26,ＡＶＧ　Ｔｒａｖｅｌｓ　Ｊａｐａｎ株式会社,,株式会社,東京都,中央区,新川１丁目７－１天翔ビル２０１号,,13,102,1040033,,,,,,,2025-02-26,1,,,,,エーブイジートラベルジャパン,0
270,2010005039618,新規,0,2025-02-26,2025-02-26,一般社団法人Ｒｅａｃｈｉｎｇ　Ｚｅｒｏ‐Ｄｏｓｅ　Ｃｈｉｌｄｒｅｎ,,その他の設立登記法人,東京都,中央区,日本橋茅場町２丁目８－１ＢＲＩＣＫＧＡＴＥ茅場町,,13,102,1030025,,,,,,,2025-02-26,1,,,,,リーチングゼロドーズチルドレン,0
274,2010401188489,新規,0,2025-02-26,2025-02-26,株式会社シェアでんきアセットマネジメント,,株式会社,東京都,港区,新橋４丁目１１番１号,,13,103,1050004,,,,,,,2025-02-26,1,,,,,シェアデンキアセットマネジメント,0
279,2010403034451,新規,0,2025-02-26,2025-02-26,合同会社ももぽん,,合同会社,東京都,港区,芝４丁目５番１５号クレール芝４０１号室,,13,103,1080014,,,,,,,2025-02-26,1,,,,,モモポン,0
284,2010601066841,新規,0,2025-02-26,2025-02-26,株式会社Ｏｐｅｎ　Ｓｔｙｌｅ,,株式会社,東京都,江東区,北砂６丁目２２－７,,13,108,1360073,,,,,,,2025-02-26,1,,,,,オープンスタイル,0
292,2010701047295,新規,0,2025-02-26,2025-02-26,株式会社ＭＡアーキテクト,,株式会社,東京都,品川区,東五反田３丁目３番６－２０２号,,13,109,1410022,,,,,,,2025-02-26,1,,,,,エムエーアーキテクト,0
295,2010901056880,新規,0,2025-02-26,2025-02-26,株式会社ＳＷＡＮ,,株式会社,東京都,世田谷区,瀬田２丁目２７番３号ストーンハイツ１０６,,13,112,1580095,,,,,,,2025-02-26,1,,,,,スワン,0
303,2011001167800,新規,0,2025-02-26,2025-02-26,株式会社ｃｈｏｉｃｙ,,株式会社,東京都,渋谷区,渋谷２丁目１９番１９号ワコー宮益坂ビル５階,,13,113,1500002,,,,,,,2025-02-26,1,,,,,チョイシー,0
304,2011001167841,新規,0,2025-02-26,2025-02-26,株式会社日本美容医療総合研究所,,株式会社,東京都,渋谷区,恵比寿西２丁目４番８号ウィンド恵比寿ビル８Ｆ,,13,113,1500021,,,,,,,2025-02-26,1,,,,,,0
305,2011001167957,新規,0,2025-02-26,2025-02-26,株式会社ＶｉｖｉＥｒａ,,株式会社,東京都,渋谷区,道玄坂１丁目１０番８号渋谷道玄坂東急ビル２Ｆ－Ｃ,,13,113,1500043,,,,,,,2025-02-26,1,,,,,ビビエラ,0
306,2011001167965,新規,0,2025-02-26,2025-02-26,株式会社ｔｏ　Ｚ　Ｍａｎａｇｅｍｅｎｔ,,株式会社,東京都,渋谷区,神南１丁目１１－４ＦＰＧリンクス神南５階,,13,113,1500041,,,,,,,2025-02-26,1,,,,,トゥーズィーマネジメント,0
308,2011003021022,新規,0,2025-02-26,2025-02-26,オフィス積み木合同会社,,合同会社,東京都,渋谷区,道玄坂１丁目１０番８号渋谷道玄坂東急ビル２Ｆ－Ｃ,,13,113,1500043,,,,,,,2025-02-26,1,,,,,オフィスツミキ,0
309,2011003021055,新規,0,2025-02-26,2025-02-26,合同会社Ｇｌｏｂａｌ　Ｖｉｓｔａ,,合同会社,東京都,目黒区,目黒本町４丁目２５－２８－４０５,,13,110,1520002,,,,,,,2025-02-26,1,,,,,グローバルビスタ,0
312,2011105011350,新規,0,2025-02-26,2025-02-26,一般社団法人日中青年人才発展協会,,その他の設立登記法人,東京都,新宿区,百人町２丁目４番５号及川ビル５Ｆ,,13,104,1690073,,,,,,,2025-02-26,1,,,,,ニッチュウセイネンジンザイハッテンキョウカイ,0
319,2011701028079,新規,0,2025-02-26,2025-02-26,株式会社システムリバースホールディングス,,株式会社,東京都,江戸川区,東葛西６丁目１４番１０号,,13,123,1340084,,,,,,,2025-02-26,1,,,,,システムリバースホールディングス,0
322,2011801045684,新規,0,2025-02-26,2025-02-26,株式会社ｃａｍｏｓ,,株式会社,東京都,足立区,東和３丁目１４－１２,,13,121,1200003,,,,,,,2025-02-26,1,,,,,カモス,0
334,2013301053820,新規,0,2025-02-26,2025-02-26,株式会社川夢,,株式会社,東京都,豊島区,北大塚２丁目１２番８号大星ビル３０３号室,,13,116,1700004,,,,,,,2025-02-26,1,,,,,カワム,0
343,2020001161614,新規,0,2025-02-26,2025-02-26,株式会社オーケイトレード,,株式会社,神奈川県,横浜市西区,高島２丁目１９－１２横浜スカイビル２０Ｆ,,14,103,2200011,,,,,,,2025-02-26,1,,,,,オーケイトレード,0
346,2020003027904,新規,0,2025-02-26,2025-02-26,合同会社Ｙ．,,合同会社,神奈川県,横浜市中区,寿町１丁目３番地８－１Ｆ,,14,104,2310026,,,,,,,2025-02-26,1,,,,,ワイドット,0
347,2020003027929,新規,0,2025-02-26,2025-02-26,合同会社ｓｏｎａ,,合同会社,神奈川県,川崎市高津区,上作延５丁目３４番８－３２１号フロール梶が谷,,14,134,2130034,,,,,,,2025-02-26,1,,,,,ソナ,0
349,2021001084524,新規,0,2025-02-26,2025-02-26,東京エルエスＨＤ株式会社,,株式会社,神奈川県,足柄下郡湯河原町,吉浜４１９番地の１,,14,384,2590312,,,,,,,2025-02-26,1,,,,,トウキョウエルエスエイチディ,0
365,2030003026194,新規,0,2025-02-26,2025-02-26,Ｇｅｏ合同会社,,合同会社,埼玉県,越谷市,大字南荻島５２２番地１,,11,222,3430804,,,,,,,2025-02-26,1,,,,,ジーイーオー,0
370,2040001137513,新規,0,2025-02-26,2025-02-26,Ｎｏｒｗｅｇｉａｎ　Ｓｉｌｖｅｒ　Ｊａｐａｎ株式会社,,株式会社,千葉県,成田市,花崎町８２１飯田ビル２階,,12,211,2860033,,,,,,,2025-02-26,1,,,,,ノルウェイジアンシルバージャパン,0
371,2040003026929,新規,0,2025-02-26,2025-02-26,合同会社かびん,,合同会社,千葉県,柏市,豊四季台３丁目１番１８－１０７号,,12,217,2770845,,,,,,,2025-02-26,1,,,,,カビン,0
372,2040003026953,新規,0,2025-02-26,2025-02-26,合同会社ＤＫアセットマネジメント,,合同会社,千葉県,我孫子市,つくし野１丁目５番２０号,,12,222,2701164,,,,,,,2025-02-26,1,,,,,ディーケーアセットマネジメント,0
374,2050001056191,新規,0,2025-02-26,2025-02-26,株式会社Ｓｕｎｃｏ,,株式会社,茨城県,水戸市,桜川２丁目１－２あむねすみと５０２,,08,201,3100801,,,,,,,2025-02-26,1,,,,,サンコー,0
376,2060001037950,新規,0,2025-02-26,2025-02-26,株式会社ケイズ・ネクスト,,株式会社,栃木県,宇都宮市,宝木本町１１６６番地２,,09,201,3200075,,,,,,,2025-02-26,1,,,,,ケイズネクスト,0
382,2070005010358,新規,0,2025-02-26,2025-02-26,一般社団法人ベルツスポーツクラブ,,その他の設立登記法人,群馬県,高崎市,金古町１２３５番地１,,10,202,3703511,,,,,,,2025-02-26,1,,,,,ベルツスポーツクラブ,0
387,2100001038325,新規,0,2025-02-26,2025-02-26,株式会社エコスミカ,,株式会社,長野県,伊那市,西箕輪３３１４番地２,,20,209,3960041,,,,,,,2025-02-26,1,,,,,エコスミカ,0
390,2100003008004,新規,0,2025-02-26,2025-02-26,ＳＯＳＨＩＪＩ‐縁合同会社,,合同会社,長野県,長野市,宮沖３１６６番地１,,20,201,3800952,,,,,,,2025-02-26,1,,,,,ソシジーエン,0
405,2120001272905,新規,0,2025-02-26,2025-02-26,ＡＣＴ　Ｖｅｎｔｕｒｅｓ株式会社,,株式会社,大阪府,大阪市東成区,大今里南６丁目１４番１３－２０２号,,27,115,5370013,,,,,,,2025-02-26,1,,,,,エーシーティベンチャーズ,0
406,2120001272979,新規,0,2025-02-26,2025-02-26,株式会社吾徳四海,,株式会社,大阪府,大阪市中央区,船場中央１丁目４番３－１２２号,,27,128,5410055,,,,,,,2025-02-26,1,,,,,ゴトクシカイ,0
407,2120001273085,新規,0,2025-02-26,2025-02-26,ＡＳ株式会社,,株式会社,大阪府,大阪市都島区,東野田町１丁目１８－６シャトーハイツ５０２号室,,27,102,5340024,,,,,,,2025-02-26,1,,,,,エイエス,0
408,2120001273135,新規,0,2025-02-26,2025-02-26,株式会社朱印船海外開拓,,株式会社,大阪府,大阪市住之江区,御崎１丁目１１－１９－３０５,,27,125,5590013,,,,,,,2025-02-26,1,,,,,シュインセンカイガイカイタク,0
409,2120001273168,新規,0,2025-02-26,2025-02-26,奥村電気空調株式会社,,株式会社,大阪府,寝屋川市,成田東町４０番１６号,,27,215,5720001,,,,,,,2025-02-26,1,,,,,オクムラデンキクウチョウ,0
410,2120001273176,新規,0,2025-02-26,2025-02-26,株式会社飛燕,,株式会社,大阪府,大阪市中央区,淡路町１丁目６－９－８Ｆ,,27,128,5410047,,,,,,,2025-02-26,1,,,,,ヒエン,0
411,2120001273201,新規,0,2025-02-26,2025-02-26,嘉泰逸群株式会社,,株式会社,大阪府,大阪市北区,天神橋２丁目２番２１号２Ｆ,,27,127,5300041,,,,,,,2025-02-26,1,,,,,カタイイツグン,0
412,2120001273234,新規,0,2025-02-26,2025-02-26,欣栄株式会社,,株式会社,大阪府,大阪市都島区,中野町２丁目６－１６グランディール京橋３０３,,27,102,5340027,,,,,,,2025-02-26,1,,,,,キンエイ,0
413,2120001273250,新規,0,2025-02-26,2025-02-26,株式会社ｋｉｗｉｐｈｏｎｅ,,株式会社,大阪府,大阪市都島区,都島南通１丁目１９番１０－３０２号,,27,102,5340023,,,,,,,2025-02-26,1,,,,,キーウィフォン,0
416,2120003028710,新規,0,2025-02-26,2025-02-26,合同会社Ｆｉｎｄｉｎｇ　Ｄｒｅａｍ,,合同会社,大阪府,大阪市西区,南堀江２丁目１３－２ドエル南堀江１番館７０３,,27,106,5500015,,,,,,,2025-02-26,1,,,,,ファインディングドリーム,0
419,2120101071125,新規,0,2025-02-26,2025-02-26,株式会社古川庭樹園,,株式会社,大阪府,南河内郡河南町,大字中９２８番地,,27,382,5850031,,,,,,,2025-02-26,1,,,,,フルカワテイジュエン,0
422,2120901050492,新規,0,2025-02-26,2025-02-26,株式会社ラヴィックス,,株式会社,大阪府,箕面市,彩都粟生南７丁目６番４号,,27,220,5620028,,,,,,,2025-02-26,1,,,,,ラヴィックス,0
423,2120903005552,新規,0,2025-02-26,2025-02-26,合同会社ＫＲＮ,,合同会社,大阪府,豊中市,本町３丁目３番２４号ラトーレ豊中２０２,,27,203,5600021,,,,,,,2025-02-26,1,,,,,ケーアールエヌ,0
424,2122001038930,新規,0,2025-02-26,2025-02-26,株式会社和光ＮＥＸＴ,,株式会社,大阪府,八尾市,太田新町１丁目３３番地,,27,212,5810039,,,,,,,2025-02-26,1,,,,,ワコウネクスト,0
432,2130001079052,新規,0,2025-02-26,2025-02-26,誠虫百貨株式会社,,株式会社,京都府,京都市伏見区,深草西浦町２丁目８１番地メゾン・ド・プラトー４０５,,26,109,6120029,,,,,,,2025-02-26,1,,,,,セイチュウヒャッカ,0
439,2140001137429,新規,0,2025-02-26,2025-02-26,株式会社米畜産,,株式会社,兵庫県,加古郡稲美町,国岡３丁目６番地の１０,,28,381,6751115,,,,,,,2025-02-26,1,,,,,ヨネチクサン,0
440,2140001137478,新規,0,2025-02-26,2025-02-26,株式会社ＵＣＡＰ幸学,,株式会社,兵庫県,神戸市中央区,八幡通３丁目２番８－１５０１号,,28,110,6510085,,,,,,,2025-02-26,1,,,,,ユーシーエーピーコウガク,0
441,2140001137494,新規,0,2025-02-26,2025-02-26,株式会社イルミエ,,株式会社,兵庫県,姫路市,香寺町中寺２５９番地４６,,28,201,6792164,,,,,,,2025-02-26,1,,,,,イルミエ,0
442,2140001137503,新規,0,2025-02-26,2025-02-26,ＳＲコネクト株式会社,,株式会社,兵庫県,神戸市垂水区,千代が丘２丁目４番２３－１０５号,,28,108,6550018,,,,,,,2025-02-26,1,,,,,エスアールコネクト,0
443,2140001137528,新規,0,2025-02-26,2025-02-26,株式会社ＣＳＫ,,株式会社,兵庫県,神戸市兵庫区,中道通６丁目３番７号,,28,105,6520801,,,,,,,2025-02-26,1,,,,,シーエスケー,0
444,2140003021696,新規,0,2025-02-26,2025-02-26,沢鯤合同会社,,合同会社,兵庫県,神戸市兵庫区,本町１丁目３番１５－１１０２号,,28,105,6520834,,,,,,,2025-02-26,1,,,,,タクコン,0
445,2140003021705,新規,0,2025-02-26,2025-02-26,合同会社Ｋ‐ＩＮＮＯＶＡＴＩＯＮ,,合同会社,兵庫県,神戸市中央区,中山手通１丁目９番２号ＭＯＺＡＮビル４０２号室,,28,110,6500004,,,,,,,2025-02-26,1,,,,,ケイイノベーション,0
446,2150001027901,新規,0,2025-02-26,2025-02-26,株式会社ｍｕｔ,,株式会社,奈良県,御所市,大字東松本７１番地の９,,29,208,6392302,,,,,,,2025-02-26,1,,,,,ムート,0
447,2150003003512,新規,0,2025-02-26,2025-02-26,合同会社Ｂｉｔ　Ｂｌｅｎｄ,,合同会社,奈良県,奈良市,学園北１丁目１５番４－３０３号,,29,201,6310036,,,,,,,2025-02-26,1,,,,,ビットブレンド,0
455,2180001165558,新規,0,2025-02-26,2025-02-26,名工株式会社,,株式会社,愛知県,名古屋市中村区,名駅５丁目１０－７花車ビル中館７０１号室Ｂ,,23,105,4500002,,,,,,,2025-02-26,1,,,,,メイコウ,0
456,2180001165574,新規,0,2025-02-26,2025-02-26,株式会社ＧＲレンタリース,,株式会社,愛知県,名古屋市南区,要町４丁目５番地,,23,112,4570802,,,,,,,2025-02-26,1,,,,,ジーアールレンタリース,0
457,2180001165582,新規,0,2025-02-26,2025-02-26,ＩＭＡＩ株式会社,,株式会社,愛知県,春日井市,鳥居松町６丁目１番地１マストスクエア春日井鳥居松５０１号室,,23,206,4860844,,,,,,,2025-02-26,1,,,,,アイエムエーアイ,0
458,2180001165608,新規,0,2025-02-26,2025-02-26,株式会社ＴＨＥＲＩＮＯＲＡ,,株式会社,愛知県,名古屋市中村区,名駅３丁目４－１０アルティメイト名駅１ｓｔ２階,,23,105,4500002,,,,,,,2025-02-26,1,,,,,テリノラ,0
459,2180001165616,新規,0,2025-02-26,2025-02-26,株式会社Ｓｅｅｄｎｅｒ,,株式会社,愛知県,名古屋市中区,丸の内３丁目１－３４－２階Ｂ,,23,106,4600002,,,,,,,2025-02-26,1,,,,,シードナー,0
464,2180003028044,新規,0,2025-02-26,2025-02-26,合同会社ＫＹＯＫＥＩ,,合同会社,愛知県,東海市,富木島町道才２４番地２,,23,222,4760011,,,,,,,2025-02-26,1,,,,,キョウケイ,0
465,2180005020949,新規,0,2025-02-26,2025-02-26,社会保険労務士法人中日ＰＡＲＴＮＥＲＳ,,その他の設立登記法人,愛知県,名古屋市中村区,名駅５丁目４番１４号花車ビル北館１階,,23,105,4500002,,,,,,,2025-02-26,1,,,,,チュウニチパートナーズ,0
483,2220001026508,新規,0,2025-02-26,2025-02-26,株式会社サワダ管工,,株式会社,石川県,金沢市,朝霧台１丁目１３８番地１,,17,201,9201158,,,,,,,2025-02-26,1,,,,,サワダカンコウ,0
497,2260001039935,新規,0,2025-02-26,2025-02-26,前嶋ホールディングス株式会社,,株式会社,岡山県,備前市,伊部２７２３番地の３,,33,211,7050001,,,,,,,2025-02-26,1,,,,,マエジマホールディングス,0
499,2260003005068,新規,0,2025-02-26,2025-02-26,Ｋ’ｓ‐Ｓｔｙｌｅ合同会社,,合同会社,岡山県,倉敷市,阿知２丁目１７番４号えびす通商店街,,33,202,7100055,,,,,,,2025-02-26,1,,,,,ケーズスタイル,0
500,2280001009358,新規,0,2025-02-26,2025-02-26,株式会社進誠,,株式会社,島根県,出雲市,西園町２６０４番地１,,32,203,6930041,,,,,,,2025-02-26,1,,,,,シンセイ,0
505,2290001109090,新規,0,2025-02-26,2025-02-26,福盛株式会社,,株式会社,福岡県,福岡市東区,香住ヶ丘２丁目８－１２ドムール香住ヶ丘３０５号室,,40,131,8130003,,,,,,,2025-02-26,1,,,,,フクモリ,0
534,2400001016952,新規,0,2025-02-26,2025-02-26,株式会社ＦＩＸ　ＰＬＵＳ,,株式会社,岩手県,盛岡市,南大通２丁目５番１５号,,03,201,0200874,,,,,,,2025-02-26,1,,,,,フィックスプラス,0
535,2420001019029,新規,0,2025-02-26,2025-02-26,株式会社ＨＯＵＳＥ　ＥＮ,,株式会社,青森県,八戸市,湊高台６丁目１５番９－３号,,02,203,0310823,,,,,,,2025-02-26,1,,,,,ハウスエン,0
539,2430001093758,新規,0,2025-02-26,2025-02-26,株式会社優光,,株式会社,北海道,札幌市白石区,本通１０丁目南５番１９号,,01,104,0030026,,,,,,,2025-02-26,1,,,,,ユウコウ,0
544,2500001026157,新規,0,2025-02-26,2025-02-26,株式会社とものぶ,,株式会社,愛媛県,新居浜市,松原町８番４４号,,38,205,7920828,,,,,,,2025-02-26,1,,,,,トモノブ,0
547,2500003003443,新規,0,2025-02-26,2025-02-26,合同会社やまねこ舎,,合同会社,愛媛県,西予市,野村町高瀬２３６７番地,,38,214,7971215,,,,,,,2025-02-26,1,,,,,ヤマネコシャ,0
558,3010001252462,新規,0,2025-02-26,2025-02-26,株式会社ａｍｅｔｈｙｓｔ,,株式会社,東京都,中央区,京橋１丁目６番１３号,,13,102,1040031,,,,,,,2025-02-26,1,,,,,アメジスト,0
559,3010001252529,新規,0,2025-02-26,2025-02-26,株式会社Ｂｉｏｔｅｃｈ　Ｅｑｕｉｐｍｅｎｔ,,株式会社,東京都,文京区,本郷３丁目２４番９号,,13,105,1130033,,,,,,,2025-02-26,1,,,,,バイオテックイクイプメント,0
560,3010001252553,新規,0,2025-02-26,2025-02-26,株式会社ティーオーエム,,株式会社,東京都,文京区,大塚４丁目１１番１０－６０３号,,13,105,1120012,,,,,,,2025-02-26,1,,,,,ティーオーエム,0
561,3010001252594,新規,0,2025-02-26,2025-02-26,又造株式会社,,株式会社,東京都,千代田区,丸の内２丁目７番２号,,13,101,1000005,,,,,,,2025-02-26,1,,,,,マタゾウ,0
564,3010005039600,新規,0,2025-02-26,2025-02-26,一般社団法人日本サーチファンド協会,,その他の設立登記法人,東京都,文京区,本駒込６丁目１３番１９－４０３号,,13,105,1130021,,,,,,,2025-02-26,1,,,,,ニホンサーチファンドキョウカイ,0
565,3010105002326,新規,0,2025-02-26,2025-02-26,一般社団法人焼鳥大学校,,その他の設立登記法人,東京都,八王子市,横山町２番９－１１０８号,,13,201,1920081,,,,,,,2025-02-26,1,,,,,ヤキトリダイガッコウ,0
575,3010401188397,新規,0,2025-02-26,2025-02-26,株式会社バロックワークス,,株式会社,東京都,港区,浜松町２丁目２番１５号浜松町ダイヤビル２Ｆ,,13,103,1050013,,,,,,,2025-02-26,1,,,,,バロックワークス,0
576,3010401188430,新規,0,2025-02-26,2025-02-26,株式会社ＮＥホールディングス,,株式会社,東京都,港区,赤坂９丁目７番１号,,13,103,1070052,,,,,,,2025-02-26,1,,,,,エヌイーホールディングス,0
577,3010401188496,新規,0,2025-02-26,2025-02-26,株式会社ＴＳＫ,,株式会社,東京都,港区,六本木３丁目８番９号ソシエ六本木３０１,,13,103,1060032,,,,,,,2025-02-26,1,,,,,ティーエスケー,0
578,3010501053699,新規,0,2025-02-26,2025-02-26,株式会社小家,,株式会社,東京都,台東区,上野１丁目１２番６号,,13,106,1100005,,,,,,,2025-02-26,1,,,,,コカ,0
585,3010701047303,新規,0,2025-02-26,2025-02-26,株式会社シェルシステム,,株式会社,東京都,品川区,北品川５丁目５番１５号,,13,109,1410001,,,,,,,2025-02-26,1,,,,,シェルシステム,0
587,3010703007585,新規,0,2025-02-26,2025-02-26,合同会社ＧＦＭＡ,,合同会社,東京都,品川区,東品川３丁目２０番１－１０６号,,13,109,1400002,,,,,,,2025-02-26,1,,,,,ジーエフエムエー,0
589,3010901056871,新規,0,2025-02-26,2025-02-26,株式会社ｏｓａｔｏ,,株式会社,東京都,世田谷区,羽根木２丁目３９番１８号とまり木Ａ,,13,112,1560042,,,,,,,2025-02-26,1,,,,,オーサト,0
593,3011001168013,新規,0,2025-02-26,2025-02-26,株式会社Ｓ．Ｉ．Ｄ,,株式会社,東京都,目黒区,中根１丁目８番１９号,,13,110,1520031,,,,,,,2025-02-26,1,,,,,エスアイディ,0
595,3011003021038,新規,0,2025-02-26,2025-02-26,Ａｖｉａｔｏｒ　Ｔｅｃｈｎｏｌｏｇｉｅｓ　Ｊａｐａｎ合同会社,,合同会社,東京都,渋谷区,東１丁目２９番３号渋谷ブリッジＢ棟,,13,113,1500011,,,,,,,2025-02-26,1,,,,,アビエイターテクノロジーズジャパン,0
596,3011003021062,新規,0,2025-02-26,2025-02-26,合同会社ＡＴＰ,,合同会社,東京都,渋谷区,道玄坂１丁目１０番８号渋谷道玄坂東急ビル２Ｆ－Ｃ,,13,113,1500043,,,,,,,2025-02-26,1,,,,,エーティーピー,0
598,3011101110312,新規,0,2025-02-26,2025-02-26,株式会社アーバンエステート,,株式会社,東京都,新宿区,西新宿６丁目１０番１号日土地西新宿ビル８階,,13,104,1600023,,,,,,,2025-02-26,1,,,,,アーバンエステート,0
600,3011203004619,新規,0,2025-02-26,2025-02-26,合同会社ＦＯＴＥＣ,,合同会社,東京都,中野区,上鷺宮２丁目１８番３５号,,13,114,1650031,,,,,,,2025-02-26,1,,,,,フォテック,0
603,3011501031752,新規,0,2025-02-26,2025-02-26,株式会社コネクト,,株式会社,東京都,北区,王子本町２丁目１番５号,,13,117,1140022,,,,,,,2025-02-26,1,,,,,コネクト,0
608,3011801045683,新規,0,2025-02-26,2025-02-26,株式会社Ａ．Ｓ．Ｉ,,株式会社,東京都,足立区,伊興３丁目１８番１３号都民住宅レークヒル竹ノ塚５０２,,13,121,1210823,,,,,,,2025-02-26,1,,,,,エーエスアイ,0
623,3013303007550,新規,0,2025-02-26,2025-02-26,合同会社ねこねこちゃんす,,合同会社,東京都,豊島区,東池袋１丁目３４番５号いちご東池袋ビル６階,,13,116,1700013,,,,,,,2025-02-26,1,,,,,ネコネコチャンス,0
639,3020001161588,新規,0,2025-02-26,2025-02-26,株式会社まえでん,,株式会社,神奈川県,横浜市鶴見区,鶴見中央４丁目３６番３０－５０２号,,14,101,2300051,,,,,,,2025-02-26,1,,,,,マエデン,0
644,3021001084548,新規,0,2025-02-26,2025-02-26,株式会社シア・トランスポート,,株式会社,神奈川県,横須賀市,芦名１丁目３０番８号,,14,201,2400104,,,,,,,2025-02-26,1,,,,,シアトランスポート,0
645,3021003015625,新規,0,2025-02-26,2025-02-26,ＭＯＬＡ　ＴＲＡＤＩＮＧ合同会社,,合同会社,神奈川県,座間市,座間１丁目３１８７番地の３宝アパート６号,,14,216,2520027,,,,,,,2025-02-26,1,,,,,モーラトレーディング,0
646,3021003015633,新規,0,2025-02-26,2025-02-26,合同会社エス・エム・ケー,,合同会社,神奈川県,伊勢原市,高森６丁目１６２４番地,,14,214,2591114,,,,,,,2025-02-26,1,,,,,エスエムケー,0
650,3030001165027,新規,0,2025-02-26,2025-02-26,株式会社ＧＬＤ,,株式会社,埼玉県,さいたま市大宮区,仲町１丁目１番地１大宮タウンビル地下１階,,11,103,3300845,,,,,,,2025-02-26,1,,,,,ジーエルディー,0
653,3030003026177,新規,0,2025-02-26,2025-02-26,合同会社ペラート,,合同会社,埼玉県,さいたま市大宮区,櫛引町１丁目３２２番地リファレンス大宮２０５,,11,103,3300851,,,,,,,2025-02-26,1,,,,,ペラート,0
658,3040001137520,新規,0,2025-02-26,2025-02-26,株式会社フォーマット,,株式会社,千葉県,柏市,明原１丁目９番４号,,12,217,2770843,,,,,,,2025-02-26,1,,,,,フォーマット,0
662,3040003026952,新規,0,2025-02-26,2025-02-26,ＡＴＬ　ＢＲＯＴＨＥＲＳ　ＴＲＡＤＩＮＧ合同会社,,合同会社,千葉県,野田市,木間ケ瀬字上羽貫６８８番地５,,12,208,2700222,,,,,,,2025-02-26,1,,,,,エーティーエルブラザーズトレーディング,0
668,3090005007681,新規,0,2025-02-26,2025-02-26,一般社団法人潜龍の杜,,その他の設立登記法人,山梨県,富士吉田市,新倉２５８８番地の１０,,19,202,4030011,,,,,,,2025-02-26,1,,,,,センリュウノモリ,0
686,3120001273101,新規,0,2025-02-26,2025-02-26,株式会社Ｃｒｏｗｄ,,株式会社,大阪府,大阪市平野区,喜連５丁目１－５５－２０１,,27,126,5470027,,,,,,,2025-02-26,1,,,,,クラウド,0
687,3120001273183,新規,0,2025-02-26,2025-02-26,株式会社ＨＳＫ,,株式会社,大阪府,大阪市住吉区,我孫子２丁目７番２３号茶平ビル１階,,27,120,5580014,,,,,,,2025-02-26,1,,,,,エッチエスケー,0
688,3120001273191,新規,0,2025-02-26,2025-02-26,株式会社Ｍｏｎｏ,,株式会社,大阪府,大阪市東住吉区,南田辺５丁目２４番２０号,,27,121,5460033,,,,,,,2025-02-26,1,,,,,モノ,0
689,3120001273200,新規,0,2025-02-26,2025-02-26,株式会社はやぶさ,,株式会社,大阪府,大阪市都島区,善源寺町２丁目２番８－３４０５号,,27,102,5340015,,,,,,,2025-02-26,1,,,,,ハヤブサ,0
690,3120001273233,新規,0,2025-02-26,2025-02-26,海仕株式会社,,株式会社,大阪府,大阪市都島区,都島北通２丁目１５番６号,,27,102,5340014,,,,,,,2025-02-26,1,,,,,カイシ,0
695,3120901050491,新規,0,2025-02-26,2025-02-26,株式会社ピースツリー,,株式会社,大阪府,豊中市,庄内幸町３丁目９番１２号,,27,203,5610833,,,,,,,2025-02-26,1,,,,,ピースツリー,0
698,3122003003130,新規,0,2025-02-26,2025-02-26,Ｆｕｎｉｑｕｅ合同会社,,合同会社,大阪府,八尾市,太子堂２丁目３番８号,,27,212,5810063,,,,,,,2025-02-26,1,,,,,ファニーク,0
701,3140001137502,新規,0,2025-02-26,2025-02-26,株式会社開明町,,株式会社,兵庫県,尼崎市,御園町２１ＭＧビル２０３,,28,202,6600861,,,,,,,2025-02-26,1,,,,,カイメイチョウ,0
702,3140001137510,新規,0,2025-02-26,2025-02-26,株式会社エバーフローサービス,,株式会社,兵庫県,豊岡市,日高町国分寺１０９番地の１,,28,209,6695341,,,,,,,2025-02-26,1,,,,,エバーフローサービス,0
703,3140003021704,新規,0,2025-02-26,2025-02-26,ｓａｉｌ合同会社,,合同会社,兵庫県,姫路市,香寺町中仁野３１２番地１,,28,201,6792143,,,,,,,2025-02-26,1,,,,,セイル,0
708,3180001165598,新規,0,2025-02-26,2025-02-26,彩宏株式会社,,株式会社,愛知県,名古屋市中区,栄５丁目１０番１４号ルイ栄２０２,,23,106,4600008,,,,,,,2025-02-26,1,,,,,サイコウ,0
709,3180001165607,新規,0,2025-02-26,2025-02-26,あいち健康の森株式会社,,株式会社,愛知県,大府市,中央町６丁目１１７番地共栄ビル１階,,23,223,4740025,,,,,,,2025-02-26,1,,,,,アイチケンコウノモリ,0
712,3190003004943,新規,0,2025-02-26,2025-02-26,合同会社ＴＯＨＧ,,合同会社,三重県,三重郡菰野町,大字千草７０４５番地７５５,,24,341,5101251,,,,,,,2025-02-26,1,,,,,トーグ,0
721,3210001020072,新規,0,2025-02-26,2025-02-26,株式会社ｉｍａｇｉｎｅ,,株式会社,福井県,福井市,上野本町１丁目２２１１,,18,201,9100134,,,,,,,2025-02-26,1,,,,,イマジン,0
727,3220001026507,新規,0,2025-02-26,2025-02-26,株式会社ビフェイト,,株式会社,石川県,野々市市,扇が丘２３番３１－３号,,17,212,9218812,,,,,,,2025-02-26,1,,,,,ビフェイト,0
728,3220003003958,新規,0,2025-02-26,2025-02-26,合同会社オルトス,,合同会社,石川県,金沢市,小立野２丁目７番１７号,,17,201,9200942,,,,,,,2025-02-26,1,,,,,オルトス,0
730,3230001020764,新規,0,2025-02-26,2025-02-26,株式会社スガデン,,株式会社,富山県,富山市,山室荒屋新町８５番地,,16,201,9398026,,,,,,,2025-02-26,1,,,,,スガデン,0
732,3230005009440,新規,0,2025-02-26,2025-02-26,農事組合法人太田育苗,,その他の設立登記法人,富山県,砺波市,太田９８３番地,,16,208,9391315,,,,,,,2025-02-26,1,,,,,オオタイクビョウ,0
751,3330001032915,新規,0,2025-02-26,2025-02-26,株式会社フォース鉄筋工業,,株式会社,熊本県,八代市,古閑中町１３７５番地３,,43,202,8660898,,,,,,,2025-02-26,1,,,,,フォーステッキンコウギョウ,0
757,3360003014719,新規,0,2025-02-26,2025-02-26,たくし農園ちゅらふる合同会社,,合同会社,沖縄県,国頭郡今帰仁村,字湧川２２７１－１４,,47,306,9050412,,,,,,,2025-02-26,1,,,,,タクシノウエンチュラフル,0
760,3370001052281,新規,0,2025-02-26,2025-02-26,トレーラーハウスミライ株式会社,,株式会社,宮城県,登米市,南方町一ノ曲６２０番地１,,04,212,9870431,,,,,,,2025-02-26,1,,,,,トレーラーハウスミライ,0
765,3400001016951,新規,0,2025-02-26,2025-02-26,株式会社ＯＴＨ,,株式会社,岩手県,盛岡市,永井１９地割１２番地,,03,201,0200834,,,,,,,2025-02-26,1,,,,,オーティーエイチ,0
768,3420003003070,新規,0,2025-02-26,2025-02-26,合同会社クリップクロップ,,合同会社,青森県,八戸市,類家５丁目１７番２１号,,02,203,0310001,,,,,,,2025-02-26,1,,,,,クリップクロップ,0
780,3700150129276,新規,0,2025-02-26,2025-02-26,Ｔｅｒｖｅｙｓ　Ｔｅｃｈｎｏｌｏｇｙ　Ｓｏｌｕｔｉｏｎｓ　Ｐｒｉｖａｔｅ　Ｌｉｍｉｔｅｄ,,外国会社等,東京都,千代田区,大手町１丁目５－１　大手町ファーストスクエアイーストタワー４階,,13,101,1000004,インド国ケララ州６９５５８７トリヴァンドラム市チェンコトゥコナム、スワミヤマドムロード、アークサイトアリーナ１０番,,,,,,2025-02-26,1,,,,,ターベイステクノロジーソリユーシヨンズプライベートリミテツド,0
787,4010001252577,新規,0,2025-02-26,2025-02-26,株式会社ＳＡＷＡＥ,,株式会社,東京都,中央区,銀座１丁目１３番９号テラス銀座５０１号,,13,102,1040061,,,,,,,2025-02-26,1,,,,,サワエ,0
792,4010003046523,新規,0,2025-02-26,2025-02-26,電茶森合同会社,,合同会社,東京都,中央区,新川１丁目７番１号天翔日本橋茅場町ビル５階５０７号室,,13,102,1040033,,,,,,,2025-02-26,1,,,,,デンチャモリ,0
793,4010003046580,新規,0,2025-02-26,2025-02-26,合同会社ケア＆キャピタル・プログラム,,合同会社,東京都,中央区,銀座１丁目２２番１１号銀座大竹ビジデンス２階,,13,102,1040061,,,,,,,2025-02-26,1,,,,,ケアアンドキャピタルプログラム,0
801,4010401188454,新規,0,2025-02-26,2025-02-26,株式会社ＡＵＲＯ　ＰＡＩＮＴ,,株式会社,東京都,港区,北青山１丁目２番３号青山ビル６階,,13,103,1070061,,,,,,,2025-02-26,1,,,,,アウロペイント,0
802,4010401188462,新規,0,2025-02-26,2025-02-26,株式会社プラナライズ,,株式会社,東京都,港区,南青山３丁目１番３６号青山丸竹ビル６Ｆ,,13,103,1070062,,,,,,,2025-02-26,1,,,,,プラナライズ,0
805,4010403034433,新規,0,2025-02-26,2025-02-26,キャビン合同会社,,合同会社,東京都,港区,高輪１丁目２－６－１２０１,,13,103,1080074,,,,,,,2025-02-26,1,,,,,キャビン,0
806,4010403034474,新規,0,2025-02-26,2025-02-26,ＳＥＩＲＥＮ合同会社,,合同会社,東京都,港区,南青山３丁目１番３６号青山丸竹ビル６Ｆ,,13,103,1070062,,,,,,,2025-02-26,1,,,,,セイレン,0
807,4010403034508,新規,0,2025-02-26,2025-02-26,ペンスキー合同会社,,合同会社,東京都,港区,浜松町２丁目２番１５号浜松町ダイヤビル２Ｆ,,13,103,1050013,,,,,,,2025-02-26,1,,,,,ペンスキー,0
808,4010405024127,新規,0,2025-02-26,2025-02-26,笠ヶ岳特定目的会社,,その他の設立登記法人,東京都,港区,六本木１丁目６番１号泉ガーデンタワーＫＰＭＧ税理士法人内,,13,103,1060032,,,,,,,2025-02-26,1,,,,,カサガタケ,0
812,4010601066823,新規,0,2025-02-26,2025-02-26,長谷国際株式会社,,株式会社,東京都,江東区,豊洲６丁目２番３１－１９１７号,,13,108,1350061,,,,,,,2025-02-26,1,,,,,ハセコクサイ,0
817,4010903009736,新規,0,2025-02-26,2025-02-26,Ｂｌｕｅ　Ｗｈａｌｅ合同会社,,合同会社,東京都,世田谷区,太子堂４丁目２７－２,,13,112,1540004,,,,,,,2025-02-26,1,,,,,ブルーホエール,0
820,4011001167880,新規,0,2025-02-26,2025-02-26,株式会社ＦＬＥＵＲ,,株式会社,東京都,渋谷区,恵比寿西２丁目８番４号ＥＸ恵比寿西ビル５階,,13,113,1500021,,,,,,,2025-02-26,1,,,,,フルール,0
823,4011003021029,新規,0,2025-02-26,2025-02-26,合同会社ｋａｏｒｉｙａ,,合同会社,東京都,渋谷区,円山町５番５号Ｎａｖｉ渋谷Ｖ３階,,13,113,1500044,,,,,,,2025-02-26,1,,,,,カオリヤ,0
824,4011003021078,新規,0,2025-02-26,2025-02-26,合同会社ａｄｅｓｓｏ　ｃａｐｒｉ,,合同会社,東京都,目黒区,下目黒２丁目５番４－１０７号,,13,110,1530064,,,,,,,2025-02-26,1,,,,,アデッソカプリ,0
825,4011003021086,新規,0,2025-02-26,2025-02-26,合同会社ｍｕ,,合同会社,東京都,渋谷区,神宮前５丁目２７番８号,,13,113,1500001,,,,,,,2025-02-26,1,,,,,ムー,0
830,4011301030383,新規,0,2025-02-26,2025-02-26,株式会社響興業,,株式会社,東京都,杉並区,下井草１丁目２３番６号,,13,115,1670022,,,,,,,2025-02-26,1,,,,,ヒビキコウギョウ,0
831,4011401026810,新規,0,2025-02-26,2025-02-26,株式会社未来,,株式会社,東京都,板橋区,常盤台４丁目３２－３上板橋蔵本ビル４Ｆ,,13,119,1740071,,,,,,,2025-02-26,1,,,,,ミライ,0
836,4011703004134,新規,0,2025-02-26,2025-02-26,ＤＩＰＡＳＨ合同会社,,合同会社,東京都,江戸川区,西小岩１丁目５番５号上一色ハイツ１０１,,13,123,1330057,,,,,,,2025-02-26,1,,,,,ディパス,0
838,4012801023769,新規,0,2025-02-26,2025-02-26,ヤーマン建設株式会社,,株式会社,東京都,東大和市,清水４丁目１１０８番地の１０－４０１,,13,220,2070004,,,,,,,2025-02-26,1,,,,,ヤーマンケンセツ,0
841,4013301053793,新規,0,2025-02-26,2025-02-26,株式会社Ｄｕｌｃｅｔｓ,,株式会社,東京都,豊島区,駒込３丁目１－３エコプレイス駒込Ａ－２１６号室,,13,116,1700003,,,,,,,2025-02-26,1,,,,,ダルセッツ,0
854,4021001084530,新規,0,2025-02-26,2025-02-26,株式会社スペースキャット,,株式会社,神奈川県,三浦市,初声町下宮田６１６－６,,14,210,2380111,,,,,,,2025-02-26,1,,,,,スペースキャット,0
855,4021001084539,新規,0,2025-02-26,2025-02-26,株式会社田中鐵工,,株式会社,神奈川県,座間市,ひばりが丘３丁目９番３９号,,14,216,2520003,,,,,,,2025-02-26,1,,,,,タナカテッコウ,0
856,4021001084547,新規,0,2025-02-26,2025-02-26,株式会社松原興業,,株式会社,神奈川県,大和市,中央２丁目１４番１２－６１５号,,14,213,2420021,,,,,,,2025-02-26,1,,,,,マツバラコウギョウ,0
857,4021003015624,新規,0,2025-02-26,2025-02-26,潤元合同会社,,合同会社,神奈川県,藤沢市,亀井野１４３１番地の２９,,14,205,2520813,,,,,,,2025-02-26,1,,,,,ジュンゲン,0
858,4021003015632,新規,0,2025-02-26,2025-02-26,ＤＯＩＸ合同会社,,合同会社,神奈川県,足柄下郡真鶴町,真鶴１００６－２,,14,383,2590201,,,,,,,2025-02-26,1,,,,,ドイックス,0
870,4040001137528,新規,0,2025-02-26,2025-02-26,株式会社イエプラス,,株式会社,千葉県,千葉市中央区,椿森１丁目２番１４号ＣＡＳＡＭＩＡ１０５号,,12,101,2600042,,,,,,,2025-02-26,1,,,,,イエプラス,0
871,4040001137536,新規,0,2025-02-26,2025-02-26,株式会社Ａｕｔｏ　Ｃｏｎｎｅｃｔ,,株式会社,千葉県,市川市,大野町２丁目６９８－７,,12,203,2720805,,,,,,,2025-02-26,1,,,,,オートコネクト,0
875,4040003026869,新規,0,2025-02-26,2025-02-26,合同会社ＴＯＭＡＳ,,合同会社,千葉県,八千代市,上高野１２０７－１ライネスハイム勝田台４１１号,,12,221,2760022,,,,,,,2025-02-26,1,,,,,トーマス,0
889,4080103003260,新規,0,2025-02-26,2025-02-26,生きとし生けるもの合同会社,,合同会社,静岡県,富士宮市,宮原８６０番地クリスタルパレスＩＩ２０２,00138133,22,207,4180005,,,,,,,2025-02-26,1,,,,,,0
899,4100001038331,新規,0,2025-02-26,2025-02-26,Ｊａｐａｎ　Ｃｙｇｎｕｓ　Ｈｙｄｒｏｐｏｗｅｒ株式会社,,株式会社,長野県,安曇野市,穂高柏原２８７２番地２２,,20,220,3998304,,,,,,,2025-02-26,1,,,,,ジャパンシグナスハイドロパワー,0
901,4100003008002,新規,0,2025-02-26,2025-02-26,合同会社シーユー,,合同会社,長野県,北佐久郡立科町,大字芦田八ケ野４１０番地１５,,20,324,3842309,,,,,,,2025-02-26,1,,,,,シーユー,0
902,4100003008010,新規,0,2025-02-26,2025-02-26,合同会社ＹＳパートナーズ,,合同会社,長野県,松本市,本庄１丁目１３番９号,,20,202,3900814,,,,,,,2025-02-26,1,,,,,ワイエスパートナーズ,0
904,4110001039064,新規,0,2025-02-26,2025-02-26,柏崎環境テクノロジー株式会社,,株式会社,新潟県,柏崎市,駅前１丁目５番４５号,,15,205,9450055,,,,,,,2025-02-26,1,,,,,カシワザキカンキョウテクノロジー,0
913,4120001273158,新規,0,2025-02-26,2025-02-26,株式会社ＶｉＴｒｕｓｔ,,株式会社,大阪府,大阪市西区,江之子島２丁目１番３７－２８１０号,,27,106,5500006,,,,,,,2025-02-26,1,,,,,ビートラスト,0
914,4120001273182,新規,0,2025-02-26,2025-02-26,株式会社かわち技研,,株式会社,大阪府,寝屋川市,点野４丁目２番１３号,,27,215,5720077,,,,,,,2025-02-26,1,,,,,カワチギケン,0
915,4120001273190,新規,0,2025-02-26,2025-02-26,株式会社ＭＤＤ,,株式会社,大阪府,大阪市中央区,南船場４丁目１０－２１－３０５,,27,128,5420081,,,,,,,2025-02-26,1,,,,,エムディーディー,0
916,4120001273199,新規,0,2025-02-26,2025-02-26,株式会社さとり,,株式会社,大阪府,大阪市中央区,難波千日前４番１７号ＮＳレジール２階,,27,128,5420075,,,,,,,2025-02-26,1,,,,,サトリ,0
917,4120001273240,新規,0,2025-02-26,2025-02-26,ＮＩＬＯ株式会社,,株式会社,大阪府,大阪市中央区,内本町２丁目３番８号ダイアパレスビル本町４０６,,27,128,5400026,,,,,,,2025-02-26,1,,,,,エヌアイエルオウ,0
920,4120003028709,新規,0,2025-02-26,2025-02-26,合同会社ＫＦアセットマネジメント,,合同会社,大阪府,大阪市北区,梅田１丁目２番２号大阪駅前第２ビル１２－１２,,27,127,5300001,,,,,,,2025-02-26,1,,,,,ケーエフアセットマネジメント,0
921,4120101071123,新規,0,2025-02-26,2025-02-26,株式会社桜扇,,株式会社,大阪府,羽曳野市,羽曳が丘７丁目１番６号,,27,222,5830864,,,,,,,2025-02-26,1,,,,,オウセン,0
927,4120901050490,新規,0,2025-02-26,2025-02-26,株式会社Ｃｅｎｔｅｒ,,株式会社,大阪府,吹田市,南吹田１丁目１１番１号,,27,205,5640043,,,,,,,2025-02-26,1,,,,,センター,0
934,4140003021703,新規,0,2025-02-26,2025-02-26,オルタナティブ合同会社,,合同会社,兵庫県,神戸市中央区,山本通３丁目１８番７号,,28,110,6500003,,,,,,,2025-02-26,1,,,,,,0
935,4140003021711,新規,0,2025-02-26,2025-02-26,合同会社住まいアシスト,,合同会社,兵庫県,三木市,別所町高木１７４番地１号,,28,215,6730435,,,,,,,2025-02-26,1,,,,,スマイアシスト,0
946,4180001165580,新規,0,2025-02-26,2025-02-26,株式会社ビーフリー企画,,株式会社,愛知県,名古屋市中区,栄４丁目２１番２３号,,23,106,4600008,,,,,,,2025-02-26,1,,,,,ビーフリーキカク,0
947,4180001165597,新規,0,2025-02-26,2025-02-26,株式会社さくらサクセス,,株式会社,愛知県,名古屋市瑞穂区,北原町２丁目２２番地の２,,23,108,4670811,,,,,,,2025-02-26,1,,,,,サクラサクセス,0
948,4180001165606,新規,0,2025-02-26,2025-02-26,株式会社ＫＩＷＡＭＩ,,株式会社,愛知県,清須市,清洲１０３２番地,,23,233,4520942,,,,,,,2025-02-26,1,,,,,キワミ,0
951,4180003028050,新規,0,2025-02-26,2025-02-26,順和合同会社,,合同会社,愛知県,名古屋市中区,金山２丁目２番１号,,23,106,4600022,,,,,,,2025-02-26,1,,,,,ジュンワ,0
962,4190001032020,新規,0,2025-02-26,2025-02-26,ＩＫテクノホールディングス株式会社,,株式会社,三重県,尾鷲市,中川１番１７号,,24,209,5193639,,,,,,,2025-02-26,1,,,,,アイケイテクノホールディングス,0
980,4250001021017,新規,0,2025-02-26,2025-02-26,ファインコンタクトレンズ株式会社,,株式会社,山口県,宇部市,大字東岐波２１２９番地１,,35,202,7550241,,,,,,,2025-02-26,1,,,,,ファインコンタクトレンズ,0
985,4280003001922,新規,0,2025-02-26,2025-02-26,合同会社ＧｒａｎｄＬｉｆｅ,,合同会社,島根県,浜田市,朝日町１４８１番地,,32,202,6970033,,,,,,,2025-02-26,1,,,,,グランライフ,0
993,4290001109064,新規,0,2025-02-26,2025-02-26,株式会社ＯＳＬ　ＬＩＧＨＴＩＮＧ,,株式会社,福岡県,福岡市中央区,那の津２丁目６番４号九州産業東ビル３Ｆ,,40,133,8100071,,,,,,,2025-02-26,1,,,,,オーエスエルライティング,0
994,4290001109097,新規,0,2025-02-26,2025-02-26,エイトオクロック株式会社,,株式会社,福岡県,福岡市中央区,赤坂３丁目７番１５号,,40,133,8100042,,,,,,,2025-02-26,1,,,,,エイトオクロック,0
995,4300001014089,新規,0,2025-02-26,2025-02-26,株式会社中山ファーム,,株式会社,佐賀県,東松浦郡玄海町,大字石田１７８番地２２,,41,387,8471423,,,,,,,2025-02-26,1,,,,,ナカヤマファーム,0
996,4310001019467,新規,0,2025-02-26,2025-02-26,株式会社リージョン・クエスト,,株式会社,長崎県,五島市,吉久木町７８３－３　Ｆ棟,,42,211,8530031,,,,,,,2025-02-26,1,,,,,リージョンクエスト,0
998,4310003004954,新規,0,2025-02-26,2025-02-26,合同会社オレンジブルー,,合同会社,長崎県,大村市,桜馬場２丁目４５９番地８号,,42,205,8560812,,,,,,,2025-02-26,1,,,,,オレンジブルー,0
1005,4360001034809,新規,0,2025-02-26,2025-02-26,株式会社ＳＵＮＡＢＥ,,株式会社,沖縄県,中頭郡北谷町,字浜川２４０番地３,,47,326,9040112,,,,,,,2025-02-26,1,,,,,スナベ,0
1006,4360003014718,新規,0,2025-02-26,2025-02-26,合同会社具志興業,,合同会社,沖縄県,うるま市,字栄野比１０４６番地１,,47,213,9042205,,,,,,,2025-02-26,1,,,,,グシコウギョウ,0
1012,4400001016942,新規,0,2025-02-26,2025-02-26,新光ホールディングス株式会社,,株式会社,岩手県,釜石市,大字平田第３地割６１番地２２,,03,211,0260001,,,,,,,2025-02-26,1,,,,,シンコウホールディングス,0
1018,4450003002606,新規,0,2025-02-26,2025-02-26,アイラーセン・ジャパン合同会社,,合同会社,北海道,旭川市,神楽岡十条３丁目３番２１号ガーデンハウスＡ,,01,204,0788320,,,,,,,2025-02-26,1,,,,,アイラーセンジャパン,0
1021,4470003002819,新規,0,2025-02-26,2025-02-26,合同会社リカサ,,合同会社,香川県,高松市,多肥下町１５４４番地３,,37,201,7618075,,,,,,,2025-02-26,1,,,,,リカサ,0
1028,4700150129275,新規,0,2025-02-26,2025-02-26,ＡＣＰ　ＪＰ　Ｇｒｏｕｐ　Ｌｉｍｉｔｅｄ,,外国会社等,東京都,港区,赤坂２丁目１４－５　Ｄａｉｗａ赤坂ビル４階,,13,103,1070052,ケイマン諸島ＫＹ１－１２０５グランド・ケイマン、カマナ・ベイ、ネクサス・ウェイ８９番地,,,,,,2025-02-26,1,,,,,エーシーピージエイピーグループリミテツド,0
1041,5010001252543,新規,0,2025-02-26,2025-02-26,株式会社ＯＭＯＲＯ　Ｔｏｕｒｉｓｍ,,株式会社,東京都,中央区,銀座６丁目６番１号銀座風月堂ビル５階,,13,102,1040061,,,,,,,2025-02-26,1,,,,,オモロツーリズム,0
1042,5010003046539,新規,0,2025-02-26,2025-02-26,浅草合同会社,,合同会社,東京都,千代田区,神田小川町３丁目２６番８号神田小川町三丁目ビル６階,,13,101,1010052,,,,,,,2025-02-26,1,,,,,アサクサ,0
1043,5010003046547,新規,0,2025-02-26,2025-02-26,合同会社堂島浜,,合同会社,東京都,中央区,日本橋１丁目４番１号,,13,102,1030027,,,,,,,2025-02-26,1,,,,,ドウジマハマ,0
1045,5010005039623,新規,0,2025-02-26,2025-02-26,ＤＣ５一般社団法人,,その他の設立登記法人,東京都,中央区,新富１丁目１５番３号ジパングアウトソーシングサービス株式会社内,,13,102,1040041,,,,,,,2025-02-26,1,,,,,ディーシーファイブ,0
1046,5010101016534,新規,0,2025-02-26,2025-02-26,株式会社ＴＢＳ,,株式会社,東京都,八王子市,中野山王２丁目２６番１８号リバービレッジ１ーＡ,,13,201,1920042,,,,,,,2025-02-26,1,,,,,ティービーエス,0
1051,5010401188429,新規,0,2025-02-26,2025-02-26,ドッテ・オリジン株式会社,,株式会社,東京都,港区,北青山３丁目６番７号青山パラシオタワー１１階,,13,103,1070061,,,,,,,2025-02-26,1,,,,,ドッテオリジン,0
1052,5010401188453,新規,0,2025-02-26,2025-02-26,株式会社ＡＵＲＯ　ＪＡＰＡＮ,,株式会社,東京都,港区,北青山１丁目２番３号青山ビル６階,,13,103,1070061,,,,,,,2025-02-26,1,,,,,アウロジャパン,0
1053,5010401188478,新規,0,2025-02-26,2025-02-26,エル・オー・エル株式会社,,株式会社,東京都,港区,西新橋１丁目１－１,,13,103,1050003,,,,,,,2025-02-26,1,,,,,エルオーエル,0
1054,5010501053689,新規,0,2025-02-26,2025-02-26,株式会社ＳＩＮＤＯ,,株式会社,東京都,台東区,根岸１丁目６番１１号ラミアール鶯谷駅前マンション７０３,,13,106,1100003,,,,,,,2025-02-26,1,,,,,シンドー,0
1057,5010601066839,新規,0,2025-02-26,2025-02-26,茂井株式会社,,株式会社,東京都,墨田区,向島４丁目１番１－２０３号,,13,107,1310033,,,,,,,2025-02-26,1,,,,,シゲイ,0
1061,5010701047301,新規,0,2025-02-26,2025-02-26,ポートフィールド・マネジメント株式会社,,株式会社,東京都,品川区,荏原４丁目４番１２－１２０３号,,13,109,1420063,,,,,,,2025-02-26,1,,,,,ポートフィールドマネジメント,0
1075,5011001167748,新規,0,2025-02-26,2025-02-26,株式会社クレッシェンド,,株式会社,東京都,目黒区,下目黒１丁目１番１４号コノトラビル７Ｆ,,13,110,1530064,,,,,,,2025-02-26,1,,,,,クレッシェンド,0
1076,5011001167946,新規,0,2025-02-26,2025-02-26,株式会社ＢＯＸ,,株式会社,東京都,目黒区,五本木１丁目８番３号,,13,110,1530053,,,,,,,2025-02-26,1,,,,,ボックス,0
1077,5011003021077,新規,0,2025-02-26,2025-02-26,合同会社ビーズ,,合同会社,東京都,渋谷区,神宮前６丁目２３番４号桑野ビル２階,,13,113,1500001,,,,,,,2025-02-26,1,,,,,ビーズ,0
1082,5011103015573,新規,0,2025-02-26,2025-02-26,ＷｅＬｉｎｋ　Ｅｎｔｒｙ合同会社,,合同会社,東京都,新宿区,四谷４丁目２３番１５号第一富士川ビル６０５,,13,104,1600004,,,,,,,2025-02-26,1,,,,,ウィーリンクエントリー,0
1083,5011105011348,新規,0,2025-02-26,2025-02-26,一般社団法人日中教育連合会,,その他の設立登記法人,東京都,新宿区,北新宿１丁目８－１７ヒジカタビルディング６Ｆ,,13,104,1690074,,,,,,,2025-02-26,1,,,,,ニッチュウキョウイクレンゴウカイ,0
1085,5011203004617,新規,0,2025-02-26,2025-02-26,合同会社デジタルクレスト,,合同会社,東京都,中野区,野方６丁目４１番地２号１０２号室,,13,114,1650027,,,,,,,2025-02-26,1,,,,,デジタルクレスト,0
1086,5011401026850,新規,0,2025-02-26,2025-02-26,株式会社ＫＮＯＣＫ　ＫＮＯＣＫ．,,株式会社,東京都,板橋区,徳丸５丁目１０番６号,,13,119,1750083,,,,,,,2025-02-26,1,,,,,ノックノック,0
1092,5011701028101,新規,0,2025-02-26,2025-02-26,蘇萱株式会社,,株式会社,東京都,江戸川区,平井５丁目４４番６号ＣＷＨ平井ビルディング３０８号,,13,123,1320035,,,,,,,2025-02-26,1,,,,,ソゲン,0
1095,5011801045681,新規,0,2025-02-26,2025-02-26,ｂｂ‐ｌｉｎｋ株式会社,,株式会社,東京都,足立区,栗原１丁目１０番１０号,,13,121,1230842,,,,,,,2025-02-26,1,,,,,ビービーリンク,0
1099,5012403006989,新規,0,2025-02-26,2025-02-26,合同会社フォグテクノ,,合同会社,東京都,調布市,国領町４丁目４８番１１号,,13,208,1820022,,,,,,,2025-02-26,1,,,,,フォグテクノ,0
1102,5013103001405,新規,0,2025-02-26,2025-02-26,合同会社ＣＨＥＲＩ,,合同会社,東京都,あきる野市,三内１６８番地,,13,228,1900162,,,,,,,2025-02-26,1,,,,,シェリ,0
1104,5013301053818,新規,0,2025-02-26,2025-02-26,株式会社ＷＡＫＡＬＡＢＯ,,株式会社,東京都,豊島区,東池袋３丁目１番１号サンシャイン６０・４５階,,13,116,1700013,,,,,,,2025-02-26,1,,,,,ワカラボ,0
1105,5020001161330,新規,0,2025-02-26,2025-02-26,Ｌｏｔｕｓ株式会社,,株式会社,神奈川県,川崎市多摩区,寺尾台１丁目２０番１４号コーポウエスト２０１号,,14,135,2140005,,,,,,,2025-02-26,1,,,,,ロータス,0
1106,5020001161504,新規,0,2025-02-26,2025-02-26,ＳＡＬＴ　ＣＲＥＡＴＯＲＳ株式会社,,株式会社,神奈川県,横浜市西区,浅間町１丁目４番３号ウィザードビル４０２,,14,103,2200072,,,,,,,2025-02-26,1,,,,,ソルトクリエイターズ,0
1111,5021001084546,新規,0,2025-02-26,2025-02-26,株式会社１００ＳＴＯＲＩＥＳ,,株式会社,神奈川県,大和市,中央林間３丁目１５番１７号ミッテルハイム１０１,,14,213,2420007,,,,,,,2025-02-26,1,,,,,ワンハンドレッドストーリーズ,0
1112,5021001084554,新規,0,2025-02-26,2025-02-26,オールラウンドサポート株式会社,,株式会社,神奈川県,藤沢市,藤沢５３０－１７サンキビル４階,,14,205,2510052,,,,,,,2025-02-26,1,,,,,オールラウンドサポート,0
1120,5030001165000,新規,0,2025-02-26,2025-02-26,寶邸株式会社,,株式会社,埼玉県,加須市,大門町７番８号,,11,210,3470068,,,,,,,2025-02-26,1,,,,,ホウテイ,0
1126,5030005022057,新規,0,2025-02-26,2025-02-26,特定非営利活動法人熊谷クールシティラボ,,その他の設立登記法人,埼玉県,熊谷市,村岡２２８８番地,,11,202,3600162,,,,,,,2025-02-26,1,,,,,クマガヤクールシティラボ,0
1136,5040001137519,新規,0,2025-02-26,2025-02-26,株式会社アルファプランニング,,株式会社,千葉県,木更津市,千束台１丁目２３番地６,,12,206,2920808,,,,,,,2025-02-26,1,,,,,アルファプランニング,0
1137,5040003026950,新規,0,2025-02-26,2025-02-26,合同会社ＶＩＳＯＲＡ日本,,合同会社,千葉県,千葉市若葉区,金親町１７６番地１、２号区画,,12,104,2640001,,,,,,,2025-02-26,1,,,,,ビソーラニホン,0
1156,5120001273082,新規,0,2025-02-26,2025-02-26,株式会社ＴＨＲＥＥ　ＡＲＲＯＷＳ,,株式会社,大阪府,大阪市北区,梅田１丁目２番２号大阪駅前第２ビル１２－１２,,27,127,5300001,,,,,,,2025-02-26,1,,,,,スリーアローズ,0
1157,5120001273165,新規,0,2025-02-26,2025-02-26,大洋凍品物聯网株式会社,,株式会社,大阪府,大阪市中央区,瓦町１丁目６番１号２３０５室,,27,128,5410048,,,,,,,2025-02-26,1,,,,,ダイヨウトウヒンブツレンモウ,0
1158,5120001273181,新規,0,2025-02-26,2025-02-26,潤捷株式会社,,株式会社,大阪府,大阪市生野区,生野西３丁目６番１７号,,27,116,5440024,,,,,,,2025-02-26,1,,,,,ジュンケツ,0
1159,5120001273198,新規,0,2025-02-26,2025-02-26,株式会社ＳＵＧＩ　ＳＨＩＮＥ,,株式会社,大阪府,大阪市北区,野崎町１番３０－２５０５号,,27,127,5300055,,,,,,,2025-02-26,1,,,,,スギシン,0
1160,5120001273207,新規,0,2025-02-26,2025-02-26,株式会社ＲｅｌｉｂｅｒｔＡ,,株式会社,大阪府,大阪市天王寺区,空清町５番１８号ＭＲＴビル１階,,27,109,5430018,,,,,,,2025-02-26,1,,,,,リリベルタ,0
1161,5120001273223,新規,0,2025-02-26,2025-02-26,株式会社ポラリス,,株式会社,大阪府,大阪市此花区,四貫島１丁目４番２２号,,27,104,5540014,,,,,,,2025-02-26,1,,,,,ポラリス,0
1165,5120003028708,新規,0,2025-02-26,2025-02-26,合同会社ＴＭ　ＪＡＰＡＮ,,合同会社,大阪府,大阪市浪速区,元町３丁目１番１６－２０１号,,27,111,5560016,,,,,,,2025-02-26,1,,,,,ティーエムジャパン,0
1167,5120101071122,新規,0,2025-02-26,2025-02-26,株式会社Ａｓｓｉｓｔ,,株式会社,大阪府,堺市美原区,真福寺１６７番地１３,,27,147,5870013,,,,,,,2025-02-26,1,,,,,アシスト,0
1168,5120101071147,新規,0,2025-02-26,2025-02-26,株式会社ＩＣＨＩＫＡＢＡＣＨＩＫＡ,,株式会社,大阪府,堺市南区,和田東９１８－５,,27,145,5900102,,,,,,,2025-02-26,1,,,,,イチカバチカ,0
1172,5130003010219,新規,0,2025-02-26,2025-02-26,合同会社こたつちゃん,,合同会社,京都府,京都市右京区,嵯峨広沢南下馬野町１９番地１サンプラザ３０２号室,,26,108,6168303,,,,,,,2025-02-26,1,,,,,コタツチャン,0
1180,5140001137509,新規,0,2025-02-26,2025-02-26,株式会社手温,,株式会社,兵庫県,豊岡市,日高町国分寺１０９番地の１,,28,209,6695341,,,,,,,2025-02-26,1,,,,,テオン,0
1181,5140001137541,新規,0,2025-02-26,2025-02-26,株式会社Ｃｈｅｓｔｙ,,株式会社,兵庫県,神戸市中央区,江戸町９８－１,,28,110,6500033,,,,,,,2025-02-26,1,,,,,チェスティ,0
1183,5140003021710,新規,0,2025-02-26,2025-02-26,合同会社ＡＳメンテナンス,,合同会社,兵庫県,宝塚市,中山台２丁目８番６号,,28,214,6650876,,,,,,,2025-02-26,1,,,,,エーエスメンテナンス,0
1186,5170001018508,新規,0,2025-02-26,2025-02-26,株式会社山里舎,,株式会社,和歌山県,田辺市,本宮町伏拝２７３番地,,30,206,6471743,,,,,,,2025-02-26,1,,,,,ヤマザトシャ,0
1188,5180001165596,新規,0,2025-02-26,2025-02-26,ＴＫＲ株式会社,,株式会社,愛知県,大府市,北崎町城畑７５番地の１,,23,223,4740001,,,,,,,2025-02-26,1,,,,,ティーケーアール,0
1189,5180001165605,新規,0,2025-02-26,2025-02-26,前田観光株式会社,,株式会社,愛知県,名古屋市緑区,桶狭間南３１３番地,,23,114,4580927,,,,,,,2025-02-26,1,,,,,マエダカンコウ,0
1190,5180001165613,新規,0,2025-02-26,2025-02-26,株式会社バズライフ,,株式会社,愛知県,知多市,南粕谷３丁目１７２番地,,23,224,4780024,,,,,,,2025-02-26,1,,,,,バズライフ,0
1195,5180003028017,新規,0,2025-02-26,2025-02-26,合同会社アネックス商事,,合同会社,愛知県,海部郡大治町,大字堀之内字中切６４９番地の２グランドゥール４０２号,,23,424,4901137,,,,,,,2025-02-26,1,,,,,アネックスショウジ,0
1210,5220001026505,新規,0,2025-02-26,2025-02-26,株式会社Ｂｒｉｌｌｉａｎｔ,,株式会社,石川県,金沢市,三池町１０５番地２（М．М３６・３０７号）,,17,201,9200802,,,,,,,2025-02-26,1,,,,,ブリリアント,0
1213,5220005008929,新規,0,2025-02-26,2025-02-26,一般社団法人ＪＡＰＡＮキャンパーズコネクト,,その他の設立登記法人,石川県,珠洲市,野々江町ヒ部４－１,,17,205,9271213,,,,,,,2025-02-26,1,,,,,ジャパンキャンパーズコネクト,0
1224,5260003005073,新規,0,2025-02-26,2025-02-26,合同会社ｅｎｂｌｉｓｓ,,合同会社,岡山県,岡山市東区,城東台東２丁目２番５号,,33,103,7090622,,,,,,,2025-02-26,1,,,,,エンブリス,0
1228,5290001109071,新規,0,2025-02-26,2025-02-26,株式会社日本トラスト,,株式会社,福岡県,福岡市博多区,博多駅中央街５番１１号第１３泰平ビル４Ｆ,,40,132,8120012,,,,,,,2025-02-26,1,,,,,ニホントラスト,0
1229,5290001109088,新規,0,2025-02-26,2025-02-26,株式会社だんごあん,,株式会社,福岡県,朝倉市,秋月野鳥１９６番地２,,40,228,8380011,,,,,,,2025-02-26,1,,,,,ダンゴアン,0
1235,5300001014088,新規,0,2025-02-26,2025-02-26,ＫＳＫファーム株式会社,,株式会社,佐賀県,唐津市,中原２５７７番地１,,41,202,8470034,,,,,,,2025-02-26,1,,,,,ケイエスケイファーム,0
1238,5310003004953,新規,0,2025-02-26,2025-02-26,合同会社かのん訪問介護・看護ステーション,,合同会社,長崎県,佐世保市,江迎町猪調１６９３番地,,42,202,8596133,,,,,,,2025-02-26,1,,,,,,0
1241,5330003010859,新規,0,2025-02-26,2025-02-26,合同会社藤本農園,,合同会社,熊本県,八代市,郡築二番町１３４番地２,,43,202,8660023,,,,,,,2025-02-26,1,,,,,フジモトノウエン,0
1243,5340001027136,新規,0,2025-02-26,2025-02-26,株式会社兼羽,,株式会社,鹿児島県,枕崎市,旭町７２番地,,46,204,8980008,,,,,,,2025-02-26,1,,,,,カネハ,0
1261,5470003002818,新規,0,2025-02-26,2025-02-26,ＤＯＵＮＩＹＡ合同会社,,合同会社,香川県,高松市,中新町２番１２号平井ビル１階,,37,201,7600056,,,,,,,2025-02-26,1,,,,,ドゥニヤ,0
1264,5480003002239,新規,0,2025-02-26,2025-02-26,Ａｘｉａ　Ｎｅｘｕｓ合同会社,,合同会社,徳島県,吉野川市,鴨島町鴨島６３３番地６,,36,205,7760010,,,,,,,2025-02-26,1,,,,,アクシアネクサス,0
1267,5700150129274,新規,0,2025-02-26,2025-02-26,ＡＫＵＲＡＮＡ　ＭＯＴＯＲＳ,,外国会社等,千葉県,山武市,木原１４００番地オフィス７,,12,237,2891212,スリランカ民主社会主義共和国、キャンディ、アクラナ、ブルゴハテンナ、Ｎｏ．５５／５,,,,,,2025-02-26,1,,,,,アクラナモータース,0
1268,5700150129282,新規,0,2025-02-26,2025-02-26,Ｓｈｅｎｚｈｅｎｓｈｉ　ｂｅｉｂｅｉ　ｄｉａｎ　ｚｉ　ｓｈａｎｇｗｕ　ｙｏｕｘｉａｎ　ｇｏｎｇｓｉ,,外国会社等,,,,,,,,Ｌｏｎｇｈｕａ　Ｄｉｓｔｒｉｃｔ　Ｒｏｏｍ　１２０８，Ｂｕｉｌｄｉｎｇ　２３２　Ｍｉｎｚｈｉ　Ｓｔｒｅｅｔ，Ｃｈｕａｎｇｙｅ　Ｇａｒｄｅｎ　Ｌｏｎｇｈｕａ　Ｄｉｓｔｒｉｃｔ　Ｓｈｅｎｚｈｅｎｓｈｉ,,,,,,2025-02-26,1,,,,,シンセンシベイベイデンシショウムユウゲンコウシ,0
1285,6010001252575,新規,0,2025-02-26,2025-02-26,神田電気株式会社,,株式会社,東京都,中央区,銀座１丁目２２番１１号銀座大竹ビジデンス２Ｆ,,13,102,1040061,,,,,,,2025-02-26,1,,,,,カンダデンキ,0
1286,6010001252583,新規,0,2025-02-26,2025-02-26,株式会社日本エネ開発,,株式会社,東京都,中央区,銀座７丁目１３番２１号銀座ｓｉｎｒｏｋｕｓｙｕビル２階,,13,102,1040061,,,,,,,2025-02-26,1,,,,,ニホンエネカイハツ,0
1287,6010001252600,新規,0,2025-02-26,2025-02-26,株式会社Ｓｏｌａｒｉｖｅａ,,株式会社,東京都,中央区,銀座６丁目６番１号銀座風月堂ビル５Ｆ,,13,102,1040061,,,,,,,2025-02-26,1,,,,,ソラリヴェア,0
1290,6010003046579,新規,0,2025-02-26,2025-02-26,合同会社日本エコプランニングサービス,,合同会社,東京都,千代田区,外神田５丁目５番５号,,13,101,1010021,,,,,,,2025-02-26,1,,,,,ニホンエコプランニングサービス,0
1292,6010005039630,新規,0,2025-02-26,2025-02-26,一般社団法人口コミ対策センター,,その他の設立登記法人,東京都,中央区,晴海３丁目１６番１号,,13,102,1040053,,,,,,,2025-02-26,1,,,,,クチコミタイサクセンター,0
1296,6010401188122,新規,0,2025-02-26,2025-02-26,ＶＡＧＵＥ株式会社,,株式会社,東京都,港区,港南２丁目１２－２８品川タワーフェイス４０４,,13,103,1080075,,,,,,,2025-02-26,1,,,,,ヴァーグ,0
1297,6010401188329,新規,0,2025-02-26,2025-02-26,きっずプレゼン株式会社,,株式会社,東京都,港区,港南２丁目１６－１品川イーストワンタワー４階,,13,103,1080075,,,,,,,2025-02-26,1,,,,,キッズプレゼン,0
1298,6010401188394,新規,0,2025-02-26,2025-02-26,株式会社ＫＯＡ,,株式会社,東京都,港区,赤坂６丁目１３番１１号ＫＤＸレジデンス赤坂１００３,,13,103,1070052,,,,,,,2025-02-26,1,,,,,コア,0
1299,6010401188502,新規,0,2025-02-26,2025-02-26,ＩＱＭ　Ｊａｐａｎ株式会社,,株式会社,東京都,港区,元麻布３丁目１番６号,,13,103,1060046,,,,,,,2025-02-26,1,,,,,アイキューエムジャパン,0
1304,6010601066697,新規,0,2025-02-26,2025-02-26,株式会社ジュピター水素販売,,株式会社,東京都,江東区,東陽４丁目８－２１－４０２号,,13,108,1350016,,,,,,,2025-02-26,1,,,,,ジュピタースイソハンバイ,0
1305,6010601066821,新規,0,2025-02-26,2025-02-26,結アーバー株式会社,,株式会社,東京都,墨田区,東向島２丁目４９番１２号松岡ビル２０２号室,,13,107,1310032,,,,,,,2025-02-26,1,,,,,ムスビアーバー,0
1306,6010701047291,新規,0,2025-02-26,2025-02-26,株式会社ＲＭ,,株式会社,東京都,品川区,戸越５丁目５番６号,,13,109,1420041,,,,,,,2025-02-26,1,,,,,アールエム,0
1307,6010701047300,新規,0,2025-02-26,2025-02-26,株式会社Ｚ‐クリエーション,,株式会社,東京都,品川区,東五反田４丁目１０番２２号パークアクシス池田山５３２,,13,109,1410022,,,,,,,2025-02-26,1,,,,,ゼットクリエーション,0
1308,6010703007590,新規,0,2025-02-26,2025-02-26,合同会社ＧＵＩＤＥＰＯＳＴ,,合同会社,東京都,品川区,南大井３丁目２９番８号勝又ビル３０２,,13,109,1400013,,,,,,,2025-02-26,1,,,,,ガイドポスト,0
1309,6011001167879,新規,0,2025-02-26,2025-02-26,株式会社ＭＯＴＥＫＩ,,株式会社,東京都,渋谷区,渋谷２丁目１９－１５宮益坂ビルディング６０９,,13,113,1500002,,,,,,,2025-02-26,1,,,,,モテキ,0
1310,6011001167895,新規,0,2025-02-26,2025-02-26,株式会社ＮａｒｉＣｏｎ,,株式会社,東京都,渋谷区,道玄坂１丁目１６－６二葉ビル８ｂ,,13,113,1500043,,,,,,,2025-02-26,1,,,,,ナリコン,0
1311,6011001167912,新規,0,2025-02-26,2025-02-26,株式会社ＧＲＯＷ＆ＰＥＡＣＥ,,株式会社,東京都,渋谷区,恵比寿西２丁目４番８号ウィンド恵比寿ビル８Ｆ,,13,113,1500021,,,,,,,2025-02-26,1,,,,,グローアンドピース,0
1312,6011001167945,新規,0,2025-02-26,2025-02-26,株式会社フィルミネイト,,株式会社,東京都,渋谷区,代々木１丁目３１番８号シティハウス代々木７０７,,13,113,1510053,,,,,,,2025-02-26,1,,,,,フィルミネイト,0
1313,6011001167961,新規,0,2025-02-26,2025-02-26,ＬＯＴＵＳ　Ｓｙｓｔｅｍｓ株式会社,,株式会社,東京都,渋谷区,渋谷２丁目１９－１５宮益坂ビルディング６０９,,13,113,1500002,,,,,,,2025-02-26,1,,,,,ロータスシステムズ,0
1314,6011001168019,新規,0,2025-02-26,2025-02-26,株式会社ＡＲＩＮＯＭＡＭＡ,,株式会社,東京都,渋谷区,神南１丁目１１番４号ＦＰＧリンクス神南５階,,13,113,1500041,,,,,,,2025-02-26,1,,,,,アリノママ,0
1315,6011001168068,新規,0,2025-02-26,2025-02-26,株式会社ダイダ,,株式会社,東京都,目黒区,中目黒３丁目３‐３‐２０２,,13,110,1530061,,,,,,,2025-02-26,1,,,,,ダイダ,0
1316,6011005010911,新規,0,2025-02-26,2025-02-26,一般社団法人エグゼクティブリーダーシップ・コーチング・アジア・パシフィック連盟,,その他の設立登記法人,東京都,渋谷区,神宮前１丁目１０番９号オンデンフラット２Ｆ,,13,113,1500001,,,,,,,2025-02-26,1,,,,,エグゼクティブリーダーシップコーチングアジアパシフィックレンメイ,0
1321,6011301030381,新規,0,2025-02-26,2025-02-26,サイバーステップベンチャーズ株式会社,,株式会社,東京都,杉並区,和泉１丁目２２番１９号,,13,115,1680063,,,,,,,2025-02-26,1,,,,,サイバーステップベンチャーズ,0
1325,6011305003029,新規,0,2025-02-26,2025-02-26,一般社団法人しらかば,,その他の設立登記法人,東京都,杉並区,荻窪３丁目７番２号,,13,115,1670051,,,,,,,2025-02-26,1,,,,,シラカバ,0
1327,6011605002630,新規,0,2025-02-26,2025-02-26,一般社団法人東日本ブラジリアン柔術連盟,,その他の設立登記法人,東京都,練馬区,豊玉上２丁目１７番１４号ブロケード練馬３０４,,13,120,1760011,,,,,,,2025-02-26,1,,,,,ヒガシニホンブラジリアンジュウジュツレンメイ,0
1331,6011801045689,新規,0,2025-02-26,2025-02-26,株式会社Ｂｌａｎｃ,,株式会社,東京都,足立区,千住東２丁目１９番１６号Ｍｓハウス１階,,13,121,1200025,,,,,,,2025-02-26,1,,,,,ブラン,0
1337,6012701018719,新規,0,2025-02-26,2025-02-26,株式会社部屋なびｐｌｕｓ,,株式会社,東京都,清瀬市,松山１丁目２番２６号中村ビル１階,,13,221,2040022,,,,,,,2025-02-26,1,,,,,ヘヤナビプラス,0
1338,6013103001404,新規,0,2025-02-26,2025-02-26,合同会社オフィスキング,,合同会社,東京都,福生市,大字熊川１４１２番地６１マイキャッスル拝島１０２号室,,13,218,1970003,,,,,,,2025-02-26,1,,,,,オフィスキング,0
1341,6013301053817,新規,0,2025-02-26,2025-02-26,株式会社ｂｅＭＨ,,株式会社,東京都,豊島区,東池袋４丁目２１番１－３８０８号,,13,116,1700013,,,,,,,2025-02-26,1,,,,,ビーエムエイチ,0
1348,6020001161387,新規,0,2025-02-26,2025-02-26,株式会社森松エンジニアリング,,株式会社,神奈川県,横浜市鶴見区,弁天町１４番地,,14,101,2300044,,,,,,,2025-02-26,1,,,,,モリマツエンジニアリング,0
1349,6020001161511,新規,0,2025-02-26,2025-02-26,神奈川軽貨物サービス株式会社,,株式会社,神奈川県,横浜市都筑区,東山田町１６８５番地３,,14,118,2240024,,,,,,,2025-02-26,1,,,,,カナガワケイカモツサービス,0
1353,6020003027900,新規,0,2025-02-26,2025-02-26,合同会社Ｓｍａｒｔ　Ｔｈｒｏｗｅｒｓ,,合同会社,神奈川県,横浜市青葉区,荏田西３丁目１－１セントラルデュオ市が尾６０５,,14,117,2250014,,,,,,,2025-02-26,1,,,,,スマートスロワーズ,0
1357,6021003015630,新規,0,2025-02-26,2025-02-26,合同会社Ａｕｒｏｒａ,,合同会社,神奈川県,茅ヶ崎市,出口町１１番３５号トラッド茅ヶ崎Ｂ２０１,,14,207,2530028,,,,,,,2025-02-26,1,,,,,オーロラ,0
1364,6030001165057,新規,0,2025-02-26,2025-02-26,株式会社ＲｅＭ,,株式会社,埼玉県,八潮市,大字八條１１８３番地１,,11,234,3400801,,,,,,,2025-02-26,1,,,,,レム,0
1370,6030003026208,新規,0,2025-02-26,2025-02-26,合同会社ＡＬＴＥＲＡ,,合同会社,埼玉県,戸田市,新曽南１丁目１０―１８―３０１,,11,224,3350026,,,,,,,2025-02-26,1,,,,,アルテラ,0
1379,6040001137427,新規,0,2025-02-26,2025-02-26,Ｂｒｉｌｌｉａ株式会社,,株式会社,千葉県,松戸市,西馬橋３丁目２１番地の１０,,12,207,2710044,,,,,,,2025-02-26,1,,,,,ブリリア,0
1380,6040001137518,新規,0,2025-02-26,2025-02-26,株式会社ナカアーク,,株式会社,千葉県,市川市,二俣１丁目１２番１号石元ビル１階,,12,203,2720001,,,,,,,2025-02-26,1,,,,,ナカアーク,0
1381,6040001137526,新規,0,2025-02-26,2025-02-26,株式会社ＡＲＫＨＩＶＥ,,株式会社,千葉県,船橋市,上山町２丁目４４３番地１フォレストロード１０１号,,12,204,2730046,,,,,,,2025-02-26,1,,,,,アークハイブ,0
1382,6040001137534,新規,0,2025-02-26,2025-02-26,株式会社ＭＩＺＵＴＡＮＩ　ＳＰＩＮＥ　ＳＥＲＶＩＣＥ,,株式会社,千葉県,八千代市,緑が丘西１丁目１６番１－３０１号,,12,221,2760040,,,,,,,2025-02-26,1,,,,,ミズタニスパインサービス,0
1385,6040003026941,新規,0,2025-02-26,2025-02-26,合同会社ＬＭＤ,,合同会社,千葉県,君津市,久保３丁目９－５プリオールＢ１０２,,12,225,2991152,,,,,,,2025-02-26,1,,,,,エルエムディー,0
1395,6080103003259,新規,0,2025-02-26,2025-02-26,合同会社ＫＡＳＨＯ,,合同会社,静岡県,三島市,広小路町１１番２７号,,22,206,4110856,,,,,,,2025-02-26,1,,,,,カショー,0
1399,6100003008000,新規,0,2025-02-26,2025-02-26,欣雪合同会社,,合同会社,長野県,北安曇郡白馬村,大字北城３０２０番地１１１５,,20,485,3999301,,,,,,,2025-02-26,1,,,,,キンセツ,0
1400,6100003008009,新規,0,2025-02-26,2025-02-26,Ｔｈｅ　Ｎｏｏｋ合同会社,,合同会社,長野県,北安曇郡小谷村,大字千国乙４３５２番地１,,20,486,3999422,,,,,,,2025-02-26,1,,,,,ザヌック,0
1402,6110003005665,新規,0,2025-02-26,2025-02-26,上原ＡＣＳ合同会社,,合同会社,新潟県,十日町市,上山己２１４３番地,,15,210,9498401,,,,,,,2025-02-26,1,,,,,ウエハラエーシーエス,0
1414,6120001273107,新規,0,2025-02-26,2025-02-26,株式会社大誠建設,,株式会社,大阪府,大阪市中央区,常盤町２丁目３番１７－１６０４号,,27,128,5400028,,,,,,,2025-02-26,1,,,,,タイセイケンセツ,0
1415,6120001273148,新規,0,2025-02-26,2025-02-26,株式会社人間編集舎,,株式会社,大阪府,大阪市西区,京町堀１丁目１２－１１愛晃ビル４Ｆ,,27,106,5500003,,,,,,,2025-02-26,1,,,,,ニンゲンヘンシュウシャ,0
1416,6120001273164,新規,0,2025-02-26,2025-02-26,碧璽国際集団日本株式会社,,株式会社,大阪府,大阪市生野区,小路東６丁目８番１７号昭和エクセルビュー東大阪１０３－Ｇ２２,,27,116,5440003,,,,,,,2025-02-26,1,,,,,ヘキジコクサイシュウダンニホン,0
1417,6120001273180,新規,0,2025-02-26,2025-02-26,ＳＰＲＡ株式会社,,株式会社,大阪府,大阪市城東区,諏訪４丁目２４番２７号１階,,27,118,5360021,,,,,,,2025-02-26,1,,,,,スパリア,0
1418,6120001273197,新規,0,2025-02-26,2025-02-26,株式会社ＰｒｏＧｒｅｓｓ,,株式会社,大阪府,大阪市北区,梅田１丁目１番３号大阪駅前第３ビル２９階１－１－１号室,,27,127,5300001,,,,,,,2025-02-26,1,,,,,プログレス,0
1419,6120001273214,新規,0,2025-02-26,2025-02-26,ｌｏｎｇ　ｆｏｒｅｓｔ　ｒｅｓｉｄｅｎｃｅ株式会社,,株式会社,大阪府,大阪市淀川区,西宮原２丁目６番２０－３０４号,,27,123,5320004,,,,,,,2025-02-26,1,,,,,ロングフォレストレジデンス,0
1427,6120003028707,新規,0,2025-02-26,2025-02-26,合同会社ＥＸ運送,,合同会社,大阪府,大阪市大正区,千島１丁目４番４号,,27,108,5510003,,,,,,,2025-02-26,1,,,,,イーエックスウンソウ,0
1444,6140003021701,新規,0,2025-02-26,2025-02-26,合同会社もりの里,,合同会社,兵庫県,多可郡多可町,加美区豊部１８３０番地,,28,365,6791201,,,,,,,2025-02-26,1,,,,,モリノサト,0
1450,6180001165554,新規,0,2025-02-26,2025-02-26,株式会社ＪＢＨＲ名古屋,,株式会社,愛知県,名古屋市北区,三軒町１８２番地第三協和ハイツ３階,,23,103,4620004,,,,,,,2025-02-26,1,,,,,ジェービーエイチアールナゴヤ,0
1451,6180001165570,新規,0,2025-02-26,2025-02-26,ＫＴ株式会社,,株式会社,愛知県,名古屋市昭和区,広路通６丁目１４番地,,23,107,4660854,,,,,,,2025-02-26,1,,,,,ケイティー,0
1452,6180001165587,新規,0,2025-02-26,2025-02-26,株式会社ＭＪＫ,,株式会社,愛知県,名古屋市中区,栄３丁目１番１８号,,23,106,4600008,,,,,,,2025-02-26,1,,,,,エムジェイケイ,0
1456,6180301039532,新規,0,2025-02-26,2025-02-26,豊商住建株式会社,,株式会社,愛知県,豊田市,陣中町２丁目１８番地１８,,23,211,4710079,,,,,,,2025-02-26,1,,,,,ホウショウジュウケン,0
1457,6180303006464,新規,0,2025-02-26,2025-02-26,合同会社ハッピーメイト,,合同会社,愛知県,安城市,住吉町３丁目１１番３２号Ｋ＆Ｋハイツ２０２,,23,212,4460072,,,,,,,2025-02-26,1,,,,,ハッピーメイト,0
1473,6220001026504,新規,0,2025-02-26,2025-02-26,株式会社シーフォース,,株式会社,石川県,小松市,千木野町３丁目２５番地,,17,203,9230834,,,,,,,2025-02-26,1,,,,,シーフォース,0
1478,6250001021015,新規,0,2025-02-26,2025-02-26,株式会社ＳＰＯＲＴＳ　ＬＩＫＥ,,株式会社,山口県,下関市,菊川町大字田部５８１番地７,,35,201,7500313,,,,,,,2025-02-26,1,,,,,スポーツライク,0
1493,6290001109104,新規,0,2025-02-26,2025-02-26,株式会社ＡＮＵＲＡＧＩ,,株式会社,福岡県,筑後市,大字一条１３２９番地８,,40,211,8330001,,,,,,,2025-02-26,1,,,,,アヌラジ,0
1495,6290002057822,新規,0,2025-02-26,2025-02-26,有限会社柔道道場柔心館,,有限会社,福岡県,朝倉市,杷木寒水９１番地,,40,228,8381512,,,,,,,2025-02-26,1,,,,,,0
1505,6330003010791,新規,0,2025-02-26,2025-02-26,合同会社パークコーポレーション,,合同会社,熊本県,八代市,緑町１２－１,,43,202,8660841,,,,,,,2025-02-26,1,,,,,パークコーポレーション,0
1506,6350001019412,新規,0,2025-02-26,2025-02-26,株式会社ＨＡＬ,,株式会社,宮崎県,都城市,上東町１９街区１０号,,45,202,8850053,,,,,,,2025-02-26,1,,,,,ハル,0
1508,6360001034823,新規,0,2025-02-26,2025-02-26,株式会社ＬＴＶ,,株式会社,沖縄県,国頭郡金武町,字金武５４１７番地２Ｅａｓｔ有ＩＶ２０１,00138127,47,314,9041201,,,,,,,2025-02-26,1,,,,,エルティーブイ,0
1509,6360003014690,新規,0,2025-02-26,2025-02-26,Ｎｅｒｉｎｅ２７合同会社,,合同会社,沖縄県,宮古島市,平良字東仲宗根７９８番地２４ソレイル東仲宗根ＩＩ２０２号室,00138126,47,214,9060007,,,,,,,2025-02-26,1,,,,,ネリネトゥエンティセブン,0
1510,6360003014716,新規,0,2025-02-26,2025-02-26,合同会社Ｇｏｌｄｅｎ　Ｔｏｕｃｈ,,合同会社,沖縄県,石垣市,字真栄里２０４－５５コーラルタウン３０１,,47,207,9070002,,,,,,,2025-02-26,1,,,,,ゴールデンタッチ,0
1511,6360003014724,新規,0,2025-02-26,2025-02-26,合同会社ＫＵ,,合同会社,沖縄県,島尻郡八重瀬町,字高良１８７番地２,,47,362,9010404,,,,,,,2025-02-26,1,,,,,ケーユー,0
1534,6460103001686,新規,0,2025-02-26,2025-02-26,合同会社本間電工社,,合同会社,北海道,帯広市,西二十五条南３丁目４２番地１８,,01,207,0802475,,,,,,,2025-02-26,1,,,,,ホンマデンコウシャ,0
1538,6700150129273,新規,0,2025-02-26,2025-02-26,ＷＨＥＥＬＳ　ＴＲＡＤＩＮＧ,,外国会社等,千葉県,山武市,木原１４００番地オフィス６,,12,237,2891212,スリランカ民主社会主義共和国、マタレ、ウクウェラ、ライタラウェラ、Ｎｏ．３８／４,,,,,,2025-02-26,1,,,,,ウイールストレーデイング,0
1539,6700150129281,新規,0,2025-02-26,2025-02-26,Ｇｕａｎｇｄｏｎｇ　Ｚｈａｎｗｅｉ　Ｅｌｅｃｔｒｏｎｉｃ　Ｔｅｃｈｎｏｌｏｇｙ　Ｃｏ．，Ｌｔｄ,,外国会社等,,,,,,,,Ｒｏｏｍ　１０１，Ｎｏ．９，Ｊｉｎｓｈａｇａｎｇ　２ｎｄ　Ｒｏａｄ，Ｄａｌａｎｇ　Ｔｏｗｎ，Ｄｏｎｇｇｕａｎ　Ｃｉｔｙ，Ｇｕａｎｇｄｏｎｇ　Ｐｒｏｖｉｎｃｅ,,,,,,2025-02-26,1,,,,,カントンザンウェイイレクトゥロニックテクノロジーカンパニーリミテッド,0
1550,7010003046578,新規,0,2025-02-26,2025-02-26,合同会社サードエージェント,,合同会社,東京都,中央区,銀座１丁目１２－４Ｎ＆ＥＢＬＤ．７階,,13,102,1040061,,,,,,,2025-02-26,1,,,,,サードエージェント,0
1556,7010401187775,新規,0,2025-02-26,2025-02-26,Ｐｏａｉ．株式会社,,株式会社,東京都,港区,六本木７丁目１２－２Ｒ７ビルディング,,13,103,1060032,,,,,,,2025-02-26,1,,,,,ポーアイ,0
1557,7010401188427,新規,0,2025-02-26,2025-02-26,Ｋａｒｄｅｘ　Ｊａｐａｎ株式会社,,株式会社,東京都,港区,六本木７丁目７番７号トライセブンロッポンギ８階,,13,103,1060032,,,,,,,2025-02-26,1,,,,,カーデックスジャパン,0
1558,7010401188476,新規,0,2025-02-26,2025-02-26,株式会社フルーク・ジャパン,,株式会社,東京都,港区,港南２丁目１５番２号,,13,103,1080075,,,,,,,2025-02-26,1,,,,,フルークジャパン,0
1561,7010405024116,新規,0,2025-02-26,2025-02-26,一般社団法人リパワリング研究所,,その他の設立登記法人,東京都,港区,虎ノ門３丁目２２番１０－２０１号,,13,103,1050001,,,,,,,2025-02-26,1,,,,,リパワリングケンキュウジョ,0
1565,7010503007740,新規,0,2025-02-26,2025-02-26,かきぬま．とうきょう合同会社,,合同会社,東京都,台東区,浅草３丁目２１－９,,13,106,1110032,,,,,,,2025-02-26,1,,,,,カキヌマトウキョウ,0
1566,7010601066829,新規,0,2025-02-26,2025-02-26,株式会社サクセス,,株式会社,東京都,江東区,塩浜２丁目１０番３－３０７号,,13,108,1350043,,,,,,,2025-02-26,1,,,,,サクセス,0
1567,7010603011403,新規,0,2025-02-26,2025-02-26,合同会社Ｊａｐａｎ　Ｍｅｄｉｃａｌ　Ｆｒｏｎｔｉｅｒ　Ｔｏｋｙｏ,,合同会社,東京都,江東区,東雲２丁目２番１４－３１０７号,,13,108,1350062,,,,,,,2025-02-26,1,,,,,ジャパンメディカルフロンティアトウキョウ,0
1568,7010701047290,新規,0,2025-02-26,2025-02-26,セレンディップ株式会社,,株式会社,東京都,品川区,東五反田２丁目１０番１号,,13,109,1410022,,,,,,,2025-02-26,1,,,,,セレンディップ,0
1570,7010801035872,新規,0,2025-02-26,2025-02-26,株式会社ＫＵＭＡ,,株式会社,東京都,大田区,矢口３丁目１７番３号ヴォーガコルテ多摩川Ｖ３０１,00138128,13,111,1460093,,,,,,,2025-02-26,1,,,,,クマ,0
1574,7010901056884,新規,0,2025-02-26,2025-02-26,株式会社数寄堂,,株式会社,東京都,世田谷区,北沢１丁目４５－３８北沢セントラルハイツ３０３,,13,112,1550031,,,,,,,2025-02-26,1,,,,,スキドウ,0
1575,7010905004740,新規,0,2025-02-26,2025-02-26,一般社団法人レイブン,,その他の設立登記法人,東京都,世田谷区,弦巻４丁目１８番１４号,,13,112,1540016,,,,,,,2025-02-26,1,,,,,レイブン,0
1579,7011001167746,新規,0,2025-02-26,2025-02-26,ｆｏｕＲｗｏｒｋｓ株式会社,,株式会社,東京都,渋谷区,鶯谷町１２番３号フローラ代官山３０２,,13,113,1500032,,,,,,,2025-02-26,1,,,,,フォーワークス,0
1580,7011001167969,新規,0,2025-02-26,2025-02-26,株式会社カナデ,,株式会社,東京都,渋谷区,恵比寿西２丁目８番４号ＥＸ恵比寿西ビル５階,,13,113,1500021,,,,,,,2025-02-26,1,,,,,カナデ,0
1581,7011001168034,新規,0,2025-02-26,2025-02-26,株式会社グリッドライン,,株式会社,東京都,目黒区,駒場４丁目４番９号,,13,110,1530041,,,,,,,2025-02-26,1,,,,,グリッドライン,0
1582,7011001168067,新規,0,2025-02-26,2025-02-26,株式会社ＡＬＨＩＡ,,株式会社,東京都,渋谷区,道玄坂１丁目１０番８号渋谷道玄坂東急ビル２Ｆ‐Ｃ,,13,113,1500043,,,,,,,2025-02-26,1,,,,,オルヒア,0
1586,7011003021026,新規,0,2025-02-26,2025-02-26,合同会社Ｒｅｄｅ,,合同会社,東京都,渋谷区,恵比寿西２丁目８番４号ＥＸ恵比寿西ビル５階,,13,113,1500021,,,,,,,2025-02-26,1,,,,,ヘジ,0
1587,7011201026149,新規,0,2025-02-26,2025-02-26,株式会社漫画文化普及協会,,株式会社,東京都,中野区,新井２丁目７－１３南国ビル２Ｆ,,13,114,1650026,,,,,,,2025-02-26,1,,,,,マンガブンカフキュウキョウカイ,0
1589,7011301030380,新規,0,2025-02-26,2025-02-26,エムズビルシステム株式会社,,株式会社,東京都,杉並区,井草１丁目３３番２号２０５,,13,115,1670021,,,,,,,2025-02-26,1,,,,,エムズビルシステム,0
1597,7011601028455,新規,0,2025-02-26,2025-02-26,株式会社シンプリシティ,,株式会社,東京都,練馬区,上石神井３丁目１９番３－７０８号,,13,120,1770044,,,,,,,2025-02-26,1,,,,,シンプリシティ,0
1598,7011701028099,新規,0,2025-02-26,2025-02-26,株式会社くぅホールディングス,,株式会社,東京都,江戸川区,南篠崎町４丁目１０番３号,,13,123,1330065,,,,,,,2025-02-26,1,,,,,クゥホールディングス,0
1602,7011801045671,新規,0,2025-02-26,2025-02-26,株式会社ゼロプレイス,,株式会社,東京都,足立区,新田３丁目１０番１号ＬＥＯ－ＨＯＵＳＥ３０２号室,,13,121,1230865,,,,,,,2025-02-26,1,,,,,ゼロプレイス,0
1603,7011801045705,新規,0,2025-02-26,2025-02-26,株式会社山下建装,,株式会社,東京都,足立区,皿沼３丁目２０番４号,,13,121,1230862,,,,,,,2025-02-26,1,,,,,ヤマシタケンソウ,0
1615,7020001161502,新規,0,2025-02-26,2025-02-26,株式会社ｉｎｓｉｇｈｔ　ｓｔｕｄｉｏ,,株式会社,神奈川県,横浜市青葉区,藤が丘１丁目３８－４,,14,117,2270043,,,,,,,2025-02-26,1,,,,,インサイトスタジオ,0
1620,7021001084536,新規,0,2025-02-26,2025-02-26,株式会社Ｃａｒｅｅｒ‐Ｎｏｗ５５,,株式会社,神奈川県,相模原市緑区,西橋本５丁目４番目２１号,,14,151,2520131,,,,,,,2025-02-26,1,,,,,キャリアナウゴーゴー,0
1625,7030001165023,新規,0,2025-02-26,2025-02-26,株式会社ＨＡＲＥＴＯＫＥ,,株式会社,埼玉県,さいたま市大宮区,宮町１丁目７８番地１,,11,103,3300802,,,,,,,2025-02-26,1,,,,,ハレトケ,0
1631,7040001137450,新規,0,2025-02-26,2025-02-26,株式会社ＢＬＵＥ　ＳＥＥＤ　ＳＴＵＤＩＯ,,株式会社,千葉県,千葉市美浜区,幕張西１丁目１６番１６－１号,,12,106,2610026,,,,,,,2025-02-26,1,,,,,ブルーシードスタジオ,0
1632,7040001137509,新規,0,2025-02-26,2025-02-26,株式会社Ｃｕｒｒｅｎｔ　Ｄｅｓｉｇｎ,,株式会社,千葉県,八千代市,高津東２丁目２番地１１,,12,221,2760037,,,,,,,2025-02-26,1,,,,,カレントデザイン,0
1633,7040001137525,新規,0,2025-02-26,2025-02-26,株式会社ＢＲＡ,,株式会社,千葉県,船橋市,二和西２丁目２１番４５号,,12,204,2740806,,,,,,,2025-02-26,1,,,,,ビーアールエー,0
1634,7040001137533,新規,0,2025-02-26,2025-02-26,株式会社ＦＬＭ　ＢＡＳＥ,,株式会社,千葉県,市川市,南八幡５丁目１４番２２号エクセルコートＫ１０３,,12,203,2720023,,,,,,,2025-02-26,1,,,,,フルムベース,0
1635,7040001137558,新規,0,2025-02-26,2025-02-26,株式会社ネクサス,,株式会社,千葉県,千葉市若葉区,貝塚町２８９番地,,12,104,2640023,,,,,,,2025-02-26,1,,,,,ネクサス,0
1639,7040003026908,新規,0,2025-02-26,2025-02-26,合同会社Ｋｏｎｐｅｉｔｏ,,合同会社,千葉県,松戸市,五香４丁目２４番地１４,,12,207,2702213,,,,,,,2025-02-26,1,,,,,コンペイトウ,0
1640,7040003026940,新規,0,2025-02-26,2025-02-26,合同会社ミライカンパニー,,合同会社,千葉県,成田市,新妻１３６番地,,12,211,2860837,,,,,,,2025-02-26,1,,,,,ミライカンパニー,0
1642,7050001056229,新規,0,2025-02-26,2025-02-26,ＳＡＩＴＯホールディングス株式会社,,株式会社,茨城県,行方市,次木字武蔵野１０２６番４,,08,233,3111722,,,,,,,2025-02-26,1,,,,,サイトウホールディングス,0
1644,7050003009052,新規,0,2025-02-26,2025-02-26,合同会社ミマレ,,合同会社,茨城県,鹿嶋市,大字平井１３３８番地５小岩井団地７,,08,222,3140012,,,,,,,2025-02-26,1,,,,,ミマレ,0
1652,7090003002755,新規,0,2025-02-26,2025-02-26,ＶＸ合同会社,,合同会社,山梨県,南アルプス市,十五所２８３－１,,19,208,4000305,,,,,,,2025-02-26,1,,,,,ヴィックス,0
1655,7100001038329,新規,0,2025-02-26,2025-02-26,株式会社皐月,,株式会社,長野県,伊那市,山寺３１６３番地１,,20,209,3960023,,,,,,,2025-02-26,1,,,,,サツキ,0
1659,7100003007991,新規,0,2025-02-26,2025-02-26,トーズカンパニーズ合同会社,,合同会社,長野県,小諸市,大字和田１５４－１０,,20,208,3840093,,,,,,,2025-02-26,1,,,,,トーズカンパニーズ,0
1672,7120001273130,新規,0,2025-02-26,2025-02-26,株式会社アーキテクト,,株式会社,大阪府,大阪市中央区,島之内１丁目３番１１－４０３号,,27,128,5420082,,,,,,,2025-02-26,1,,,,,アーキテクト,0
1673,7120001273188,新規,0,2025-02-26,2025-02-26,辰興商事株式会社,,株式会社,大阪府,大阪市西成区,天下茶屋北１丁目１番２－１０１号,,27,122,5570003,,,,,,,2025-02-26,1,,,,,タツオキショウジ,0
1674,7120001273196,新規,0,2025-02-26,2025-02-26,株式会社Ｂ‐Ｆａｌｔｅｔ,,株式会社,大阪府,大阪市浪速区,日本橋東２丁目７番２６－２０５号,,27,111,5560006,,,,,,,2025-02-26,1,,,,,ビーファルテット,0
1675,7120001273205,新規,0,2025-02-26,2025-02-26,株式会社Ｃｒａｆｔ　ＦＡＳ,,株式会社,大阪府,大阪市北区,梅田１丁目１－３大阪駅前第３ビル２３０７,,27,127,5300001,,,,,,,2025-02-26,1,,,,,クラフトファス,0
1697,7180001165611,新規,0,2025-02-26,2025-02-26,株式会社ＣＳファシリティーズ,,株式会社,愛知県,名古屋市名東区,梅森坂３丁目３０２番地の２,,23,115,4650065,,,,,,,2025-02-26,1,,,,,シーエスファシリティーズ,0
1719,7250001021014,新規,0,2025-02-26,2025-02-26,藤津建設株式会社,,株式会社,山口県,山口市,小郡上郷１１３２９番地２,,35,203,7540001,,,,,,,2025-02-26,1,,,,,フジツケンセツ,0
1729,7290001109103,新規,0,2025-02-26,2025-02-26,株式会社ＲＥＡＬＡＮＤ,,株式会社,福岡県,福岡市西区,西の丘２丁目５番１０号,,40,135,8190046,,,,,,,2025-02-26,1,,,,,リアランド,0
1736,7330001032911,新規,0,2025-02-26,2025-02-26,株式会社山寿産業,,株式会社,熊本県,天草市,天草町高浜南５８８番地,,43,215,8632804,,,,,,,2025-02-26,1,,,,,ヤマジュサンギョウ,0
1740,7340001027134,新規,0,2025-02-26,2025-02-26,株式会社幸和工建,,株式会社,鹿児島県,出水市,米ノ津町２２番３２号Ｄ－メゾン米ノ津２０２号,,46,208,8990121,,,,,,,2025-02-26,1,,,,,コウワコウケン,0
1750,7370001052294,新規,0,2025-02-26,2025-02-26,株式会社髪戀,,株式会社,宮城県,仙台市青葉区,中央４丁目２番４６号マスカットビル４Ｆ,,04,101,9800021,,,,,,,2025-02-26,1,,,,,ハツコイ,0
1757,7420001019032,新規,0,2025-02-26,2025-02-26,株式会社水紋社,,株式会社,青森県,青森市,大字三内字沢部４２４番地９,,02,201,0380031,,,,,,,2025-02-26,1,,,,,スイモンシャ,0
1761,7470003002816,新規,0,2025-02-26,2025-02-26,合同会社味蘭,,合同会社,香川県,木田郡三木町,大字鹿伏１９８番地６,,37,341,7610703,,,,,,,2025-02-26,1,,,,,,0
1762,7490001010975,新規,0,2025-02-26,2025-02-26,エスアールホールディングス株式会社,,株式会社,高知県,高知市,高見町３２５番地６,,39,201,7808027,,,,,,,2025-02-26,1,,,,,エスアールホールディングス,0
1763,7700150129272,新規,0,2025-02-26,2025-02-26,ＶＩＣＴＯＲＩＹＡ　ＥＮＴＥＲＰＲＩＳＥＳ,,外国会社等,千葉県,山武市,木原１４００番地オフィス２,,12,237,2891212,スリランカ民主社会主義共和国、キャンディ、アンバテンナ、マタレロード、Ｎｏ．１９／Ａ,,,,,,2025-02-26,1,,,,,ビクトリヤエンタープライズ,0
1764,7700150129280,新規,0,2025-02-26,2025-02-26,Ｓｈｅｎｚｈｅｎ　ｓｈｉ　ａｉｂｏ　Ｔｅｃｈｎｏｌｏｇｙ　ＬＴＤ,,外国会社等,,,,,,,,ｂａｏ’ａｎ　ｑｕ，ｘｉｘｉａｎｇ　ｊｉｅｄａｏ，ｇｕｓｈｕ　ｓｈｅｑｕ，ｂａｏ’ａｎ　ｄａｄａｏ　４１９７ｈａｏ，ｒｕｎｆｅｎｇ　ｇｏｎｇｙｅｙｕａｎ，Ａ　ｄｏｎｇ　３０１，Ｓｈｅｎｚｈｅｎ　Ｃｈｉｎａ,,,,,,2025-02-26,1,,,,,シンセンシアイボテクノロジーリミテッド,0
1765,7700150129297,新規,0,2025-02-26,2025-02-26,ＣＨＡＭＡＫＩ　ＬＬＣ,,外国会社等,,,,,,,,６４２１　ＬＡＧＵＮＡ　ＳＥＣＡ　ＬＮ　ＧＩＬＲＯＹ　ＣＡ　９５０２０,,,,,,2025-02-26,1,,,,,チャマキエルエルシー,0
1771,8010001252540,新規,0,2025-02-26,2025-02-26,株式会社ＢＩ　Ｔｅｃｈ,,株式会社,東京都,文京区,千石４丁目２６番２号ＳＡＮＳＡＮ千石ビル３０１号室,,13,105,1120011,,,,,,,2025-02-26,1,,,,,ビーテック,0
1772,8010001252581,新規,0,2025-02-26,2025-02-26,Ｓｔａｒｔｉｎｇ　Ｍａｎａｇｅｍｅｎｔ株式会社,,株式会社,東京都,中央区,日本橋馬喰町１丁目１２番７号,,13,102,1030002,,,,,,,2025-02-26,1,,,,,スターティングマネジメント,0
1781,8010401188384,新規,0,2025-02-26,2025-02-26,株式会社ネットプライスキャピタル,,株式会社,東京都,港区,新橋２丁目１６番１号ニュー新橋ビル９階,,13,103,1050004,,,,,,,2025-02-26,1,,,,,ネットプライスキャピタル,0
1782,8010401188467,新規,0,2025-02-26,2025-02-26,株式会社Ａｌｔａｓｓ　Ｊｒ．,,株式会社,東京都,港区,赤坂２丁目１１番１５号ＭＹ赤坂ビル,,13,103,1070052,,,,,,,2025-02-26,1,,,,,アルタスジュニア,0
1784,8010403034462,新規,0,2025-02-26,2025-02-26,合同会社インテリジェントエナジー,,合同会社,東京都,港区,虎ノ門３丁目２２番１０－２０１号,,13,103,1050001,,,,,,,2025-02-26,1,,,,,インテリジェントエナジー,0
1785,8010403034470,新規,0,2025-02-26,2025-02-26,１Ｅｎｅｒｇｙ合同会社,,合同会社,東京都,港区,西新橋１丁目２番９号日比谷セントラルビル１４階,,13,103,1050003,,,,,,,2025-02-26,1,,,,,ワンエナジー,0
1790,8010601066836,新規,0,2025-02-26,2025-02-26,Ｙｏｎａｔａ　Ｅｌｅｃｔｒｏｎｉｃｓ株式会社,,株式会社,東京都,江東区,有明３丁目７番１８号,,13,108,1350063,,,,,,,2025-02-26,1,,,,,ヨナタエレクトロニクス,0
1791,8010603011393,新規,0,2025-02-26,2025-02-26,ＡＮ＆ＥＬ合同会社,,合同会社,東京都,江東区,東陽５丁目１７番４号ＶＩＳＨＵビル１Ｆ,,13,108,1350016,,,,,,,2025-02-26,1,,,,,アネール,0
1792,8010603011402,新規,0,2025-02-26,2025-02-26,ｆａｃｉａｌ　ｎｏｒｉｃｏ合同会社,,合同会社,東京都,墨田区,本所４丁目１１番７－８０１号,,13,107,1300004,,,,,,,2025-02-26,1,,,,,フェイシャルノリコ,0
1799,8010703007589,新規,0,2025-02-26,2025-02-26,合同会社ライジングサン,,合同会社,東京都,品川区,西五反田２丁目１３番１－５０７号,,13,109,1410031,,,,,,,2025-02-26,1,,,,,ライジングサン,0
1811,8011001167902,新規,0,2025-02-26,2025-02-26,株式会社くるる,,株式会社,東京都,渋谷区,渋谷２丁目１９番１５号宮益坂ビルディング６０９,,13,113,1500002,,,,,,,2025-02-26,1,,,,,クルル,0
1812,8011001167919,新規,0,2025-02-26,2025-02-26,株式会社ｃｏｍａｃｏ,,株式会社,東京都,渋谷区,代々木５丁目３４番２２号,,13,113,1510053,,,,,,,2025-02-26,1,,,,,コマコ,0
1813,8011001167935,新規,0,2025-02-26,2025-02-26,スタートビジョンエステート株式会社,,株式会社,東京都,目黒区,上目黒２丁目２３番１１号,,13,110,1530051,,,,,,,2025-02-26,1,,,,,スタートビジョンエステート,0
1814,8011001167968,新規,0,2025-02-26,2025-02-26,デザインワークス株式会社,,株式会社,東京都,目黒区,下目黒１丁目１番１４号コノトラビル７Ｆ,,13,110,1530064,,,,,,,2025-02-26,1,,,,,デザインワークス,0
1815,8011001168025,新規,0,2025-02-26,2025-02-26,鴻宇株式会社,,株式会社,東京都,渋谷区,恵比寿西１丁目３６番２－７０１号,,13,113,1500021,,,,,,,2025-02-26,1,,,,,コウウ,0
1822,8011301030371,新規,0,2025-02-26,2025-02-26,大董株式会社,,株式会社,東京都,杉並区,高円寺南４丁目２７－１７－４０４,,13,115,1660003,,,,,,,2025-02-26,1,,,,,ダイトウ,0
1827,8011505002679,新規,0,2025-02-26,2025-02-26,一般社団法人日本農薬学会,,その他の設立登記法人,東京都,北区,中里２丁目２８－１０,,13,117,1140015,,,,,,,2025-02-26,1,,,,,ニホンノウヤクガッカイ,0
1832,8011801045670,新規,0,2025-02-26,2025-02-26,株式会社ミリアット,,株式会社,東京都,足立区,大谷田４丁目２番１４－５１４号,,13,121,1200001,,,,,,,2025-02-26,1,,,,,ミリアット,0
1833,8011801045679,新規,0,2025-02-26,2025-02-26,ガッツコーポレーション株式会社,,株式会社,東京都,葛飾区,新小岩２丁目１番地９号シティテラス新小岩１０１７,,13,122,1240024,,,,,,,2025-02-26,1,,,,,ガッツコーポレーション,0
1834,8011801045687,新規,0,2025-02-26,2025-02-26,株式会社Ｒｏｙａｌ　Ｓｗｅｅｔｓ,,株式会社,東京都,足立区,竹の塚５丁目３６番１０－５０６号,,13,121,1210813,,,,,,,2025-02-26,1,,,,,ロイヤルスイーツ,0
1844,8020001161154,新規,0,2025-02-26,2025-02-26,株式会社リペアフラット,,株式会社,神奈川県,横浜市中区,元町４丁目１１４,,14,104,2310861,,,,,,,2025-02-26,1,,,,,リペアフラット,0
1847,8020003027881,新規,0,2025-02-26,2025-02-26,合同会社ミュージアム・プロジェクト・プランニング,,合同会社,神奈川県,横浜市保土ケ谷区,常盤台６８番６号,,14,106,2400067,,,,,,,2025-02-26,1,,,,,ミュージアムプロジェクトプランニング,0
1849,8021001084535,新規,0,2025-02-26,2025-02-26,株式会社アルタス,,株式会社,神奈川県,相模原市南区,下溝２０９７－１７,,14,153,2520335,,,,,,,2025-02-26,1,,,,,アルタス,0
1851,8021003015637,新規,0,2025-02-26,2025-02-26,ＮＩ　ＴＲＡＤＩＮＧ合同会社,,合同会社,神奈川県,厚木市,中依知５１１,,14,212,2430805,,,,,,,2025-02-26,1,,,,,エヌアイトレーディング,0
1860,8030001165039,新規,0,2025-02-26,2025-02-26,株式会社ｎｏｃｈｎｏｌｉｆｅ,,株式会社,埼玉県,戸田市,下戸田２丁目２５番９－４０７号,,11,224,3350011,,,,,,,2025-02-26,1,,,,,ノクノライフ,0
1869,8040001137508,新規,0,2025-02-26,2025-02-26,株式会社ＩＮＣＬＯＶＡ,,株式会社,千葉県,松戸市,古ケ崎１９２―６,,12,207,2710068,,,,,,,2025-02-26,1,,,,,インクローヴァ,0
1870,8040003026948,新規,0,2025-02-26,2025-02-26,合同会社ＣｏＴｏＮｏＷａ,,合同会社,千葉県,千葉市中央区,星久喜町９４６番地１,,12,101,2600808,,,,,,,2025-02-26,1,,,,,コトノワ,0
1871,8040003026956,新規,0,2025-02-26,2025-02-26,合同会社Ｌｏｇｏｓ,,合同会社,千葉県,流山市,南流山２丁目２２番地の８興和流通商事ビル３０３,,12,220,2700163,,,,,,,2025-02-26,1,,,,,ロゴス,0
1879,8090001019156,新規,0,2025-02-26,2025-02-26,伸栄警備保障株式会社,,株式会社,山梨県,甲府市,千塚５丁目１４番１７号パークサイド千塚２０５号室,,19,201,4000074,,,,,,,2025-02-26,1,,,,,シンエイケイビホショウ,0
1880,8090003002746,新規,0,2025-02-26,2025-02-26,合同会社ＦｕｊｉＲｅｕｐ,,合同会社,山梨県,富士吉田市,下吉田３丁目２７０番１号,,19,202,4030004,,,,,,,2025-02-26,1,,,,,フジリアップ,0
1881,8090003002754,新規,0,2025-02-26,2025-02-26,Ｂｅｎ　Ｃａｓｅｙ合同会社,,合同会社,山梨県,甲府市,下飯田２丁目１番２２号,,19,201,4000064,,,,,,,2025-02-26,1,,,,,ベンケーシー,0
1893,8120001273187,新規,0,2025-02-26,2025-02-26,星洲国際株式会社,,株式会社,大阪府,大阪市中央区,北久宝寺町２丁目１番３号,,27,128,5410057,,,,,,,2025-02-26,1,,,,,セイシュウコクサイ,0
1894,8120001273195,新規,0,2025-02-26,2025-02-26,株式会社ＬＯＯＰ,,株式会社,大阪府,大阪市北区,天満２丁目７番１０号８階,,27,127,5300043,,,,,,,2025-02-26,1,,,,,ループ,0
1895,8120001273204,新規,0,2025-02-26,2025-02-26,セラーバンク株式会社,,株式会社,大阪府,大阪市東淀川区,東淡路４丁目２１番２号Ｆ－ＣｒｅｓｔＨｉｇａｓｈｉａｗａｊｉ３０２号,,27,114,5330023,,,,,,,2025-02-26,1,,,,,セラーバンク,0
1898,8120003028671,新規,0,2025-02-26,2025-02-26,合同会社ラララ産業,,合同会社,大阪府,大阪市平野区,平野元町６番１０－２０１号,,27,126,5470047,,,,,,,2025-02-26,1,,,,,ラララサンギョウ,0
1903,8120901050495,新規,0,2025-02-26,2025-02-26,株式会社かがやき,,株式会社,大阪府,摂津市,千里丘東３丁目６番１１号,,27,224,5660011,,,,,,,2025-02-26,1,,,,,カガヤキ,0
1911,8140001137530,新規,0,2025-02-26,2025-02-26,株式会社こめきち,,株式会社,兵庫県,姫路市,勝原区丁９９－５,,28,201,6711203,,,,,,,2025-02-26,1,,,,,コメキチ,0
1913,8140003021690,新規,0,2025-02-26,2025-02-26,合同会社暁プロダクション,,合同会社,兵庫県,伊丹市,西野１丁目５１－１愛晃ハイツ３０２,,28,207,6640028,,,,,,,2025-02-26,1,,,,,アカツキプロダクション,0
1917,8170001018505,新規,0,2025-02-26,2025-02-26,株式会社瀬分ジャパン,,株式会社,和歌山県,和歌山市,六十谷１２４７－１６,,30,201,6408482,,,,,,,2025-02-26,1,,,,,セワケジャパン,0
1919,8180001165478,新規,0,2025-02-26,2025-02-26,株式会社ささみちゃんねる,,株式会社,愛知県,名古屋市中区,東桜２丁目２２番１８号日興ビルヂング５階２Ａ,,23,106,4600005,,,,,,,2025-02-26,1,,,,,ササミチャンネル,0
1920,8180001165577,新規,0,2025-02-26,2025-02-26,株式会社堀部ホールディングス,,株式会社,愛知県,春日井市,小野町１丁目５８番地,,23,206,4860926,,,,,,,2025-02-26,1,,,,,ホリベホールディングス,0
1921,8180001165585,新規,0,2025-02-26,2025-02-26,株式会社エコラボ,,株式会社,愛知県,名古屋市東区,泉１丁目１８－３泉ステイトリービル８０１,,23,102,4610001,,,,,,,2025-02-26,1,,,,,エコラボ,0
1922,8180001165593,新規,0,2025-02-26,2025-02-26,株式会社堀川電気,,株式会社,愛知県,稲沢市,奥田馬場町７４番地,,23,220,4928237,,,,,,,2025-02-26,1,,,,,ホリカワデンキ,0
1923,8180001165610,新規,0,2025-02-26,2025-02-26,株式会社ＯＺ,,株式会社,愛知県,名古屋市中区,丸の内１丁目１４番２４号ライオンズビル第二丸の内３Ｆ,,23,106,4600002,,,,,,,2025-02-26,1,,,,,オズ,0
1941,8240001064574,新規,0,2025-02-26,2025-02-26,株式会社長門鉄工,,株式会社,広島県,呉市,川尻町西１丁目５番４号,,34,202,7372603,,,,,,,2025-02-26,1,,,,,ナガトテッコウ,0
1946,8260001039938,新規,0,2025-02-26,2025-02-26,株式会社サンキューメンテナンス,,株式会社,岡山県,倉敷市,中島１７７番地５,,33,202,7100803,,,,,,,2025-02-26,1,,,,,サンキューメンテナンス,0
1948,8290001109102,新規,0,2025-02-26,2025-02-26,ヤマエグローバル株式会社,,株式会社,福岡県,福岡市博多区,博多駅東２丁目１３番３４号,,40,132,8120013,,,,,,,2025-02-26,1,,,,,ヤマエグローバル,0
1949,8290003016437,新規,0,2025-02-26,2025-02-26,合同会社ＧＯＯＧＯＬＰＬＥＸ,,合同会社,福岡県,福岡市西区,横浜２丁目２２番１６号,,40,135,8190166,,,,,,,2025-02-26,1,,,,,グーゴルプレックス,0
1950,8300003002229,新規,0,2025-02-26,2025-02-26,長寿の森合同会社,,合同会社,佐賀県,佐賀市,光３丁目１１番１－１号,,41,201,8400033,,,,,,,2025-02-26,1,,,,,チョウジュノモリ,0
1952,8310001019463,新規,0,2025-02-26,2025-02-26,株式会社西川映像企画,,株式会社,長崎県,佐世保市,小佐々町黒石１６９番地３０,,42,202,8570401,,,,,,,2025-02-26,1,,,,,ニシカワエイゾウキカク,0
1953,8310001019471,新規,0,2025-02-26,2025-02-26,株式会社ＭＩＯＬ,,株式会社,長崎県,諫早市,福田町４３番３１号,,42,204,8540001,,,,,,,2025-02-26,1,,,,,ミオル,0
1962,8330001032910,新規,0,2025-02-26,2025-02-26,株式会社Ｒｅｓｕｌｔ,,株式会社,熊本県,熊本市東区,秋津２丁目４番３７号,,43,102,8612104,,,,,,,2025-02-26,1,,,,,リザルト,0
1966,8360003014672,新規,0,2025-02-26,2025-02-26,合同会社ＭＡＮＵＥＬ　ＪＡＰＡＮ,,合同会社,沖縄県,名護市,城１丁目１７与儀ビル１Ｆ,,47,209,9050013,,,,,,,2025-02-26,1,,,,,マニュエルジャパン,0
1967,8360003014722,新規,0,2025-02-26,2025-02-26,合同会社Ｌｕｃｋｙ＆Ｌｕｃｋｙ,,合同会社,沖縄県,沖縄市,照屋５丁目２１番７号メゾン涼３０１,,47,211,9040011,,,,,,,2025-02-26,1,,,,,ラッキーアンドラッキー,0
1976,8420003003074,新規,0,2025-02-26,2025-02-26,合同会社青い森まちづくり観光研究所,,合同会社,青森県,青森市,青柳１丁目１０番１０号,,02,201,0300811,,,,,,,2025-02-26,1,,,,,アオイモリマチヅクリカンコウケンキュウショ,0
1986,8430003017313,新規,0,2025-02-26,2025-02-26,合同会社ＦＵＲＵＣＲＩ　Ｆａｒｍ,,合同会社,北海道,小樽市,蘭島１丁目１２番１０号,,01,203,0482562,,,,,,,2025-02-26,1,,,,,フルクリファーム,0
1988,8470003002815,新規,0,2025-02-26,2025-02-26,アイズ財経合同会社,,合同会社,香川県,東かがわ市,引田５３８番地７,,37,207,7692901,,,,,,,2025-02-26,1,,,,,アイズザイケイ,0
1989,8470005006608,新規,0,2025-02-26,2025-02-26,医療法人社団かたぎり歯科クリニック,,その他の設立登記法人,香川県,高松市,三名町字大下７２３番地１,,37,201,7618083,,,,,,,2025-02-26,1,,,,,,0
1991,8700150129271,新規,0,2025-02-26,2025-02-26,Ｓ．Ｔ．Ｎ．ＭＯＴＯＲＳ,,外国会社等,千葉県,山武市,木原１４００番地オフィス１,,12,237,2891212,スリランカ民主社会主義共和国、キャンディ、アクラナ、マタレロード、Ｎｏ．２４４,,,,,,2025-02-26,1,,,,,エステイエヌモータース,0
1992,8700150129296,新規,0,2025-02-26,2025-02-26,富沢土地改良区,,その他,岩手県,一関市,弥栄字茄子沢２３６－１,,03,209,0290211,,,,,,,2025-02-26,1,,,,,トミザワトチカイリヨウク,0
2005,9010001252589,新規,0,2025-02-26,2025-02-26,株式会社ソトコト,,株式会社,東京都,中央区,新川２丁目２２－６ＳＪＩビル６階,,13,102,1040033,,,,,,,2025-02-26,1,,,,,ソトコト,0
2009,9010103002520,新規,0,2025-02-26,2025-02-26,合同会社セツビ４０４,,合同会社,東京都,八王子市,北野町１４１－３,,13,201,1920906,,,,,,,2025-02-26,1,,,,,セツビヨンマルヨン,0
2012,9010401188409,新規,0,2025-02-26,2025-02-26,株式会社ＨｉｇｈＥｎｅｒｇｙ,,株式会社,東京都,港区,虎ノ門１丁目３番１号,,13,103,1050001,,,,,,,2025-02-26,1,,,,,ハイエナジー,0
2013,9010401188458,新規,0,2025-02-26,2025-02-26,株式会社トータルティーアップ,,株式会社,東京都,港区,新橋４丁目１４番１新橋ＡＵＮＢＬＤＧ４階,,13,103,1050004,,,,,,,2025-02-26,1,,,,,トータルティーアップ,0
2014,9010401188474,新規,0,2025-02-26,2025-02-26,名和エンジニアリング株式会社,,株式会社,東京都,港区,虎ノ門１丁目１５番１０号,,13,103,1050001,,,,,,,2025-02-26,1,,,,,メイワエンジニアリング,0
2015,9010403034453,新規,0,2025-02-26,2025-02-26,Ｃｈｉｌｄａｙｓ合同会社,,合同会社,東京都,港区,南麻布１丁目２０番地９号,,13,103,1060047,,,,,,,2025-02-26,1,,,,,チャイルデイズ,0
2016,9010403034486,新規,0,2025-02-26,2025-02-26,Ｇａｒｅｎａ　Ｊａｐａｎ合同会社,,合同会社,東京都,港区,六本木６丁目２番３１号,,13,103,1060032,,,,,,,2025-02-26,1,,,,,ガレナジャパン,0
2017,9010405024114,新規,0,2025-02-26,2025-02-26,富岳特定目的会社,,その他の設立登記法人,東京都,港区,六本木１丁目６番１号泉ガーデンタワーＫＰＭＧ税理士法人内,,13,103,1060032,,,,,,,2025-02-26,1,,,,,フガク,0
2019,9010601066835,新規,0,2025-02-26,2025-02-26,希績株式会社,,株式会社,東京都,江東区,千田２３番１４号,,13,108,1350013,,,,,,,2025-02-26,1,,,,,キセキ,0
2023,9010803005293,新規,0,2025-02-26,2025-02-26,Ｓｕｍｉｒｉｓｅ合同会社,,合同会社,東京都,大田区,山王１丁目２２番１５－１０５号,,13,111,1430023,,,,,,,2025-02-26,1,,,,,スミライズ,0
2025,9010901056874,新規,0,2025-02-26,2025-02-26,インプレスビジョン株式会社,,株式会社,東京都,世田谷区,太子堂４丁目１８番１５号マガザン三軒茶屋２－３階－３,,13,112,1540004,,,,,,,2025-02-26,1,,,,,インプレスビジョン,0
2035,9011001167918,新規,0,2025-02-26,2025-02-26,株式会社ワンダーフォーサイト,,株式会社,東京都,渋谷区,道玄坂１丁目１０番８号渋谷道玄坂東急ビル２Ｆ－Ｃ,,13,113,1500043,,,,,,,2025-02-26,1,,,,,ワンダーフォーサイト,0
2036,9011001167967,新規,0,2025-02-26,2025-02-26,株式会社Ｍｅ,,株式会社,東京都,目黒区,下目黒１丁目１番１４号コノトラビル７Ｆ,,13,110,1530064,,,,,,,2025-02-26,1,,,,,ミー,0
2037,9011001168008,新規,0,2025-02-26,2025-02-26,ＴＯＭ株式会社,,株式会社,東京都,目黒区,下目黒２丁目２番２－６１４号,,13,110,1530064,,,,,,,2025-02-26,1,,,,,ティーオーエム,0
2038,9011001168032,新規,0,2025-02-26,2025-02-26,株式会社ＭＩＫＡＴＡ,,株式会社,東京都,渋谷区,神泉町２０番２１号クロスシー渋谷神泉ビル,,13,113,1500045,,,,,,,2025-02-26,1,,,,,ミカタ,0
2039,9011001168057,新規,0,2025-02-26,2025-02-26,株式会社ＭＹＵＵＵ,,株式会社,東京都,渋谷区,道玄坂１丁目１０番８号渋谷道玄坂東急ビル２Ｆ－Ｃ,,13,113,1500043,,,,,,,2025-02-26,1,,,,,ミュー,0
2040,9011003021024,新規,0,2025-02-26,2025-02-26,ＢＬＵＥＳ　ａｒｔ　ｓｔｕｄｉｏ合同会社,,合同会社,東京都,渋谷区,元代々木町４９－６－３０６,,13,113,1510062,,,,,,,2025-02-26,1,,,,,ブルースアートスタジオ,0
2042,9011101110521,新規,0,2025-02-26,2025-02-26,株式会社ＣＡＴＡＬＹＳＴ,,株式会社,東京都,新宿区,北新宿２丁目５－２８ノースヒル新宿ウエスト１０６,,13,104,1690074,,,,,,,2025-02-26,1,,,,,カタリスト,0
2054,9011601028453,新規,0,2025-02-26,2025-02-26,株式会社オフィスワイカン,,株式会社,東京都,練馬区,小竹町１丁目１１番２－５０３号,,13,120,1760004,,,,,,,2025-02-26,1,,,,,オフィスワイカン,0
2055,9011701028089,新規,0,2025-02-26,2025-02-26,株式会社桐歌,,株式会社,東京都,江戸川区,平井３丁目１３－１４ハイム中園１０１号室,,13,123,1320035,,,,,,,2025-02-26,1,,,,,キリカ,0
2057,9011801045678,新規,0,2025-02-26,2025-02-26,金山株式会社,,株式会社,東京都,葛飾区,水元２丁目１０番７号エリービル１２０２,,13,122,1250032,,,,,,,2025-02-26,1,,,,,カネヤマ,0
2060,9013301053822,新規,0,2025-02-26,2025-02-26,Ｔ．Ｔ．Ｃｈｉｔ株式会社,,株式会社,東京都,豊島区,駒込３丁目２３番１４号,,13,116,1700003,,,,,,,2025-02-26,1,,,,,ティティチェツ,0
2070,9020001161491,新規,0,2025-02-26,2025-02-26,株式会社エー・アール・シー計画研究所,,株式会社,神奈川県,横浜市保土ケ谷区,宮田町２丁目１７８－２０９,,14,106,2400002,,,,,,,2025-02-26,1,,,,,エーアールシーケイカクケンキュウジョ,0
2071,9020001161517,新規,0,2025-02-26,2025-02-26,株式会社ＳＵＩ,,株式会社,神奈川県,横浜市緑区,三保町２６７３番地１４５,,14,113,2260015,,,,,,,2025-02-26,1,,,,,スイ,0
2072,9020001161590,新規,0,2025-02-26,2025-02-26,株式会社在音,,株式会社,神奈川県,横浜市泉区,緑園２丁目４２番地,,14,116,2450002,,,,,,,2025-02-26,1,,,,,ザイオン,0
2073,9020001161616,新規,0,2025-02-26,2025-02-26,株式会社Ｎｏｎｅ,,株式会社,神奈川県,横浜市戸塚区,汲沢８丁目５番２７号,,14,110,2450061,,,,,,,2025-02-26,1,,,,,ノン,0
2074,9020003027930,新規,0,2025-02-26,2025-02-26,合同会社ＦＲＥＥＡＴＥ,,合同会社,神奈川県,横浜市中区,寿町１丁目１－８－２０１,,14,104,2310026,,,,,,,2025-02-26,1,,,,,フリーエイト,0
2078,9021001084526,新規,0,2025-02-26,2025-02-26,山叶株式会社,,株式会社,神奈川県,伊勢原市,歌川１丁目１番１１号,,14,214,2591128,,,,,,,2025-02-26,1,,,,,サンキョウ,0
2079,9021001084534,新規,0,2025-02-26,2025-02-26,株式会社助友鋼業,,株式会社,神奈川県,相模原市南区,下溝１９９６番地１４,,14,153,2520335,,,,,,,2025-02-26,1,,,,,スケトモコウギョウ,0
2080,9021001084542,新規,0,2025-02-26,2025-02-26,ＴＫエンジニアリング株式会社,,株式会社,神奈川県,大和市,つきみ野１丁目１番地１９,,14,213,2420002,,,,,,,2025-02-26,1,,,,,ティーケーエンジニアリング,0
2081,9021001084550,新規,0,2025-02-26,2025-02-26,株式会社Ｍａｒｇｅ　Ｏｎｅ,,株式会社,神奈川県,横須賀市,池田町６丁目９番１７号,,14,201,2390806,,,,,,,2025-02-26,1,,,,,マージワン,0
2088,9030001164972,新規,0,2025-02-26,2025-02-26,ＮＩＣＥ　ＣＡＲ中古車販売株式会社,,株式会社,埼玉県,南埼玉郡宮代町,字中島４５９番地１,,11,442,3450802,,,,,,,2025-02-26,1,,,,,ナイスカーチュウコシャハンバイ,0
2089,9030001165013,新規,0,2025-02-26,2025-02-26,大谷興業株式会社,,株式会社,埼玉県,川口市,元郷５丁目１０番７号第３つくしマンション１０２号,,11,203,3320011,,,,,,,2025-02-26,1,,,,,オオタニコウギョウ,0
2090,9030001165054,新規,0,2025-02-26,2025-02-26,株式会社盛海,,株式会社,埼玉県,蕨市,南町１丁目３３番３２号,,11,223,3350003,,,,,,,2025-02-26,1,,,,,モリカイ,0
2096,9040001137424,新規,0,2025-02-26,2025-02-26,株式会社Ｆｅｍｍｅ　Ｃｒｅａｔｉｖｅｓ,,株式会社,千葉県,印西市,牧の原３丁目４－８５,,12,231,2701331,,,,,,,2025-02-26,1,,,,,ファムクリエイティブス,0
2097,9040001137507,新規,0,2025-02-26,2025-02-26,大多喜熱開発株式会社,,株式会社,千葉県,夷隅郡大多喜町,弥喜用４５４,,12,441,2980245,,,,,,,2025-02-26,1,,,,,オオタキネツカイハツ,0
2098,9040001137515,新規,0,2025-02-26,2025-02-26,株式会社ＳＴＡＲ　ＳＥＡＬｓ,,株式会社,千葉県,船橋市,藤原２丁目２５番１５－２０３号,,12,204,2730047,,,,,,,2025-02-26,1,,,,,スターシールズ,0
2099,9040003026947,新規,0,2025-02-26,2025-02-26,合同会社Ｓ＆Ｓ,,合同会社,千葉県,船橋市,西船７丁目１１番１７号メゾン・ド・ナシモ２０５号,,12,204,2730031,,,,,,,2025-02-26,1,,,,,エスアンドエス,0
2100,9050001056219,新規,0,2025-02-26,2025-02-26,小田部住設株式会社,,株式会社,茨城県,小美玉市,部室１１９６番地３６,,08,236,3190132,,,,,,,2025-02-26,1,,,,,コタベジュウセツ,0
2114,9090001019155,新規,0,2025-02-26,2025-02-26,株式会社ＨＩＧＨＥＳＴ,,株式会社,山梨県,甲府市,中央１丁目１６番６号ＦＬ３ビル４Ｆ４０１,,19,201,4000032,,,,,,,2025-02-26,1,,,,,ハイエスト,0
2120,9100001038327,新規,0,2025-02-26,2025-02-26,コラボワークス株式会社,,株式会社,長野県,茅野市,塚原２丁目１１番１７号,,20,214,3910002,,,,,,,2025-02-26,1,,,,,コラボワークス,0
2130,9120001273095,新規,0,2025-02-26,2025-02-26,天使華孚商事株式会社,,株式会社,大阪府,大阪市東成区,深江南２丁目８番８号メゾンホワイティ５０３号室,,27,115,5370002,,,,,,,2025-02-26,1,,,,,テンシカフショウジ,0
2131,9120001273145,新規,0,2025-02-26,2025-02-26,株式会社Ｋｕｍａｌｙ,,株式会社,大阪府,大阪市中央区,南本町２丁目５番１３号,,27,128,5410054,,,,,,,2025-02-26,1,,,,,クマリ,0
2132,9120001273186,新規,0,2025-02-26,2025-02-26,ジーエスシーホールディングス株式会社,,株式会社,大阪府,大阪市中央区,北久宝寺町４丁目３番５号,,27,128,5410057,,,,,,,2025-02-26,1,,,,,ジーエスシーホールディングス,0
2133,9120001273203,新規,0,2025-02-26,2025-02-26,ショウレイ株式会社,,株式会社,大阪府,大阪市中央区,北久宝寺町１丁目５番６号３１５号室,,27,128,5410057,,,,,,,2025-02-26,1,,,,,ショウレイ,0
2134,9120001273211,新規,0,2025-02-26,2025-02-26,ＳＡＸＳＩＡ株式会社,,株式会社,大阪府,大阪市城東区,関目６丁目４－１１,,27,118,5360008,,,,,,,2025-02-26,1,,,,,サクシア,0
2135,9120001273269,新規,0,2025-02-26,2025-02-26,株式会社ウルトラチエ,,株式会社,大阪府,大阪市東住吉区,駒川３丁目７番１５号,,27,121,5460043,,,,,,,2025-02-26,1,,,,,ウルトラチエ,0
2137,9120101071110,新規,0,2025-02-26,2025-02-26,井上建築株式会社,,株式会社,大阪府,岸和田市,内畑町３０５－３,,27,202,5960105,,,,,,,2025-02-26,1,,,,,イノウエケンチク,0
2138,9120101071119,新規,0,2025-02-26,2025-02-26,株式会社ＡＴＳ,,株式会社,大阪府,泉南郡熊取町,七山南４３１番地１１,,27,361,5900426,,,,,,,2025-02-26,1,,,,,エーティーエス,0
2139,9120101071127,新規,0,2025-02-26,2025-02-26,和の食株式会社,,株式会社,大阪府,堺市南区,高尾３丁３２８７番地の２,,27,145,5900157,,,,,,,2025-02-26,1,,,,,ワノショク,0
2142,9120901050494,新規,0,2025-02-26,2025-02-26,株式会社ＳＡＮ‐ＣＯＮ,,株式会社,大阪府,吹田市,青山台３丁目１５番８号,,27,205,5650875,,,,,,,2025-02-26,1,,,,,サンコン,0
2143,9120901050503,新規,0,2025-02-26,2025-02-26,株式会社リクア,,株式会社,大阪府,摂津市,千里丘東１丁目２番２５号,,27,224,5660011,,,,,,,2025-02-26,1,,,,,リクア,0
2148,9130001079054,新規,0,2025-02-26,2025-02-26,株式会社雅ｌｉｎｋ’ｚ,,株式会社,京都府,京都市左京区,一乗寺西杉ノ宮町３８番地１２,,26,103,6068112,,,,,,,2025-02-26,1,,,,,ミヤビリンクズ,0
2154,9140001137505,新規,0,2025-02-26,2025-02-26,株式会社海翔,,株式会社,兵庫県,神戸市垂水区,西舞子４丁目２５番１－４０９号,,28,108,6550048,,,,,,,2025-02-26,1,,,,,カイト,0
2155,9140001137513,新規,0,2025-02-26,2025-02-26,株式会社ＢＬＡＣＫ,,株式会社,兵庫県,尼崎市,塚口町１丁目３２－５,,28,202,6610002,,,,,,,2025-02-26,1,,,,,ブラック,0
2156,9140001137521,新規,0,2025-02-26,2025-02-26,株式会社颯,,株式会社,兵庫県,神戸市灘区,灘南通６丁目１番２号,,28,102,6570841,,,,,,,2025-02-26,1,,,,,ソウ,0
2170,9180001165097,新規,0,2025-02-26,2025-02-26,株式会社ＹＯＬＯＯ,,株式会社,愛知県,名古屋市中区,丸の内３丁目２３－６丸の内セントラルハイツ５０５号室,,23,106,4600002,,,,,,,2025-02-26,1,,,,,ヨロ,0
2184,9220001026492,新規,0,2025-02-26,2025-02-26,株式会社ゼッスリー石川,,株式会社,石川県,金沢市,八日市２丁目６０１番地（Ｌａｃｈｉｃ・２０３号）,,17,201,9218064,,,,,,,2025-02-26,1,,,,,ゼッスリーイシカワ,0
2185,9220001026501,新規,0,2025-02-26,2025-02-26,株式会社ｚｕｉｋｋａ,,株式会社,石川県,金沢市,堀川新町５番１号アリマビル３Ｆ,,17,201,9200849,,,,,,,2025-02-26,1,,,,,ジッカ,0
2187,9230001020759,新規,0,2025-02-26,2025-02-26,株式会社ベルヴィー,,株式会社,富山県,高岡市,野村１３８５番地１ヒカルサ高岡野村サウス１棟２０１号,,16,202,9330014,,,,,,,2025-02-26,1,,,,,ベルヴィー,0
2194,9240001064565,新規,0,2025-02-26,2025-02-26,未辰ホールディングス株式会社,,株式会社,広島県,尾道市,因島土生町１７６２番地３８,,34,205,7222323,,,,,,,2025-02-26,1,,,,,ビシンホールディングス,0
2199,9240003007084,新規,0,2025-02-26,2025-02-26,ｆｏｎｓ合同会社,,合同会社,広島県,広島市中区,本通４番２３号－２階,,34,101,7300035,,,,,,,2025-02-26,1,,,,,フォンス,0
2201,9250001021012,新規,0,2025-02-26,2025-02-26,株式会社きらら製作所,,株式会社,山口県,山口市,阿知須４９８４番地８,,35,203,7541277,,,,,,,2025-02-26,1,,,,,キララセイサクショ,0
2203,9260003005078,新規,0,2025-02-26,2025-02-26,合同会社そうじゃバード,,合同会社,岡山県,総社市,中央４丁目１－１０５・２階東側,,33,208,7191131,,,,,,,2025-02-26,1,,,,,ソウジャバード,0
2209,9290001109092,新規,0,2025-02-26,2025-02-26,株式会社日創,,株式会社,福岡県,福岡市中央区,福浜１丁目４番２３－２０８号,,40,133,8100066,,,,,,,2025-02-26,1,,,,,,0
2212,9290003016452,新規,0,2025-02-26,2025-02-26,合同会社ｙｍｔ,,合同会社,福岡県,福岡市博多区,博多駅前１丁目２３番２号ＰａｒｋＦｒｏｎｔ博多駅前１丁目５Ｆ－Ｂ,,40,132,8120011,,,,,,,2025-02-26,1,,,,,ワイエムティー,0
2214,9300001014092,新規,0,2025-02-26,2025-02-26,株式会社ＴＲＩＢＥ　ＳＡＧＡ,,株式会社,佐賀県,佐賀市,鍋島町大字森田２２４番地１,,41,201,8490936,,,,,,,2025-02-26,1,,,,,,0
2215,9310001019462,新規,0,2025-02-26,2025-02-26,株式会社はら農園,,株式会社,長崎県,南島原市,加津佐町乙９１５８番地,,42,214,8592605,,,,,,,2025-02-26,1,,,,,ハラノウエン,0
2218,9310005008825,新規,0,2025-02-26,2025-02-26,新上五島町地域づくり事業協同組合,,その他の設立登記法人,長崎県,南松浦郡新上五島町,青方郷１１４４番地４０,,42,411,8574404,,,,,,,2025-02-26,1,,,,,シンカミゴトウチョウチイキヅクリジギョウ,0
2221,9330001032918,新規,0,2025-02-26,2025-02-26,株式会社ｏｆｆｉｃｅ　ｂｕｉｌｄ　ｕｐ,,株式会社,熊本県,熊本市中央区,新市街１－２８ＴＨＥＰＬＡＣＥ花畑ビル６Ｆ,,43,101,8600803,,,,,,,2025-02-26,1,,,,,オフィスビルドアップ,0
2222,9330003010863,新規,0,2025-02-26,2025-02-26,巽エステイト合同会社,,合同会社,熊本県,熊本市東区,長嶺東１丁目４番３０号,,43,102,8618038,,,,,,,2025-02-26,1,,,,,タツミエステイト,0
2223,9340001027132,新規,0,2025-02-26,2025-02-26,株式会社オーエム空調設備,,株式会社,鹿児島県,鹿屋市,旭原町２６４４番地５,,46,203,8930022,,,,,,,2025-02-26,1,,,,,オーエムクウチョウセツビ,0
2225,9340005009820,新規,0,2025-02-26,2025-02-26,一般社団法人ＫＤＳマネジメント,,その他の設立登記法人,鹿児島県,鹿児島市,七ツ島１丁目４番地１６,,46,201,8910132,,,,,,,2025-02-26,1,,,,,ケイディーエスマネジメント,0
2226,9360001034820,新規,0,2025-02-26,2025-02-26,株式会社ＲＥＤＥＲ,,株式会社,沖縄県,浦添市,前田４丁目５番３号,,47,208,9012102,,,,,,,2025-02-26,1,,,,,リダー,0
2236,9420001019030,新規,0,2025-02-26,2025-02-26,株式会社住宅修理青森,,株式会社,青森県,弘前市,大字茂森新町２丁目１番地６,,02,202,0368261,,,,,,,2025-02-26,1,,,,,ジュウタクシュウリアオモリ,0
2240,9430001093693,新規,0,2025-02-26,2025-02-26,株式会社ｔｅｓｏｒｏ,,株式会社,北海道,札幌市豊平区,美園九条４丁目１番１０号（１０３号）,,01,105,0620009,,,,,,,2025-02-26,1,,,,,テゾーロ,0
2244,9700150129279,新規,0,2025-02-26,2025-02-26,ｒｕｉａｎｈａｎｈａｉｗａｎｇｌｕｏｋｅｊｉｙｏｕｘｉａｎｇｏｎｇｓｉ,,外国会社等,,,,,,,,ｚｈｅｊｉａｎｇｓｈｅｎｇｗｅｎｚｈｏｕｓｈｉｒｕｉａｎｓｈｉｇａｏｌｏｕｚｈｅｎｓｈａｎｇｌｏｎｇｃｕｎｌｏｎｇｔｅｎｇｎａｎｌｕ２２５ｈａｏ,,,,,,2025-02-26,1,,,,,ルイアンハンハイワンロウカギユウゲンコウシ,0
