sequenceNumber,corporateNumber,process,correct,updateDate,changeDate,name,nameImageId,kind,prefectureName,cityName,streetNumber,addressImageId,prefectureCode,cityCode,postCode,addressOutside,addressOutsideImageId,closeDate,closeCause,successorCorporateNumber,changeCause,assignmentDate,latest,enName,enPrefectureName,enCityName,enAddressOutside,furigana,hihyoji
2,1010001018411,登記記録の閉鎖等,0,2021-09-02,2021-08-30,株式会社新作法清紫会,,株式会社,東京都,千代田区,九段南３丁目９番１１－４０３号,,13,101,1020074,,,2021-08-30,清算の結了等,,,2015-10-05,1,,,,,シンサホウセイシカイ,0
37,1011102019463,登記記録の閉鎖等,0,2021-09-02,2021-08-23,空間プランニング有限会社,,有限会社,東京都,新宿区,西早稲田３丁目１７番２２－４０１号,,13,104,1690051,,,2021-08-23,清算の結了等,,,2015-10-05,1,,,,,スペースプランニング,0
40,1011301011543,登記記録の閉鎖等,0,2021-09-02,2021-08-24,株式会社日本ファミリー協会,,株式会社,東京都,杉並区,高円寺北２丁目１８番７号,,13,115,1660002,,,2021-08-24,清算の結了等,,,2015-10-05,1,,,,,ニホンファミリーキョウカイ,0
45,1011702007768,登記記録の閉鎖等,0,2021-09-02,2021-08-30,有限会社デンキのさとう,,有限会社,東京都,江戸川区,鹿骨１丁目１０番１４号,,13,123,1330073,,,2021-08-30,清算の結了等,,,2015-10-05,1,,,,,デンキノサトウ,0
63,1020002097429,登記記録の閉鎖等,0,2021-09-02,2021-08-31,有限会社新月庵,,有限会社,神奈川県,川崎市川崎区,小田５丁目２０番１３号,,14,131,2100846,,,2021-08-31,清算の結了等,,,2015-10-05,1,,,,,シンゲツアン,0
73,1030001054339,登記記録の閉鎖等,0,2021-09-02,2021-08-25,株式会社出水建設,,株式会社,埼玉県,川越市,的場北１丁目６番地３２,,11,201,3501102,,,2021-08-25,清算の結了等,,,2015-10-05,1,,,,,イズミケンセツ,0
76,1030001089013,登記記録の閉鎖等,0,2021-09-02,2021-08-24,株式会社山﨑工業,00015544,株式会社,埼玉県,行田市,持田４丁目２１番１９号,,11,206,3610056,,,2021-08-24,清算の結了等,,,2015-10-05,1,,,,,ヤマサキコウギョウ,0
81,1030002009911,登記記録の閉鎖等,0,2021-09-02,2021-08-26,有限会社中新商事,,有限会社,埼玉県,さいたま市桜区,南元宿１丁目４番１号,,11,106,3380831,,,2021-08-26,清算の結了等,,,2015-10-05,1,,,,,ナカシンショウジ,0
82,1030002107509,登記記録の閉鎖等,0,2021-09-02,2021-08-25,有限会社宮内工業,,有限会社,埼玉県,川口市,大字赤山１０７６番地の１０,,11,203,3330825,,,2021-08-25,清算の結了等,,,2015-10-05,1,,,,,ミヤウチコウギョウ,0
83,1030002112797,登記記録の閉鎖等,0,2021-09-02,2021-08-23,有限会社三ルート彩ン,,有限会社,埼玉県,熊谷市,大原４丁目１１番１号,,11,202,3600812,,,2021-08-23,清算の結了等,,,2015-10-05,1,,,,,サンルートサイン,0
114,1100005002889,登記記録の閉鎖等,0,2021-09-02,2021-08-31,一般社団法人佐久広域食肉公社,,その他の設立登記法人,長野県,佐久市,長土呂１番地１,,20,217,3850021,,,2021-08-31,清算の結了等,,,2015-10-05,1,,,,,サクコウイキショクニクコウシャ,0
115,1100005011493,登記記録の閉鎖等,0,2021-09-02,2021-09-01,特定非営利活動法人まちづくりネットちくま社中,,その他の設立登記法人,長野県,千曲市,大字寂蒔９２５番地１,,20,218,3870016,,,2021-09-01,清算の結了等,,,2015-10-05,1,,,,,マチヅクリネットチクマシャチュウ,0
120,1110002029851,登記記録の閉鎖等,0,2021-09-02,2021-08-30,有限会社エヌエートレーディング,,有限会社,新潟県,長岡市,与板町江西２丁目５番１０号,,15,202,9402406,,,2021-08-30,清算の結了等,,,2015-10-05,1,,,,,エヌエートレーディング,0
128,1120001235929,登記記録の閉鎖等,0,2021-09-02,2021-08-24,日本カード株買取目的株式会社,,株式会社,大阪府,大阪市都島区,片町２丁目２番４０号大発ビルディング８階,,27,102,5340025,,,2021-08-24,合併による解散等,1120001048661,令和３年８月１日大阪市都島区片町二丁目２番４０号大発ビルディング８階日本カード株式会社（1120001048661）に合併し解散,2021-03-15,1,,,,,ニホンカードカブカイトリモクテキ,0
140,1120101001826,登記記録の閉鎖等,0,2021-09-02,2021-08-31,旭陽建設株式会社,,株式会社,大阪府,堺市中区,深井清水町３１９７番地,,27,142,5998273,,,2021-08-31,清算の結了等,,,2015-10-05,1,,,,,キョクヨウケンセツ,0
142,1120101061589,登記記録の閉鎖等,0,2021-09-02,2021-09-01,ウォータープルーフ工事株式会社,,株式会社,大阪府,堺市堺区,戎島町２丁５３番地１キッコービル,,27,141,5900985,,,2021-09-01,清算の結了等,,,2020-04-20,1,,,,,ウォータープルーフコウジ,0
155,1140001046028,登記記録の閉鎖等,0,2021-09-02,2021-08-30,株式会社コロンビア,,株式会社,兵庫県,加古川市,尾上町安田２３２番地１,,28,210,6750021,,,2021-08-30,清算の結了等,,,2015-10-05,1,,,,,コロンビア,0
202,1230002011285,登記記録の閉鎖等,0,2021-09-02,2021-08-30,有限会社翔,,有限会社,富山県,高岡市,下麻生伸町８５９番地の９２,,16,202,9391271,,,2021-08-30,清算の結了等,,,2015-10-05,1,,,,,ショウ,0
249,1340002005508,登記記録の閉鎖等,0,2021-09-02,2021-08-27,有限会社草牟田マンション,,有限会社,鹿児島県,鹿児島市,草牟田１丁目２３番３６号,,46,201,8900014,,,2021-08-27,清算の結了等,,,2015-10-05,1,,,,,ソウムタマンション,0
271,1400002007373,登記記録の閉鎖等,0,2021-09-02,2021-08-31,有限会社東光商店,,有限会社,岩手県,盛岡市,湯沢西２丁目２番８号,,03,201,0200843,,,2021-08-31,清算の結了等,,,2015-10-05,1,,,,,トウコウショウテン,0
289,1470002017894,登記記録の閉鎖等,0,2021-09-02,2021-09-01,有限会社四国ねじ製作所,,有限会社,香川県,さぬき市,鴨部１１７０番地１,,37,206,7692104,,,2021-09-01,清算の結了等,,,2015-10-05,1,,,,,シコクネジセイサクショ,0
290,1470003001121,登記記録の閉鎖等,0,2021-09-02,2021-08-31,合同会社ステップ,,合同会社,香川県,高松市,木太町５００９番地４,,37,201,7600080,,,2021-08-31,清算の結了等,,,2016-07-26,1,,,,,ステップ,0
303,2010003032319,登記記録の閉鎖等,0,2021-09-02,2021-08-26,リアルブルーソーラー４合同会社,,合同会社,東京都,千代田区,九段南３丁目７番７号成和綜合会計事務所内,,13,101,1020074,,,2021-08-26,清算の結了等,,,2020-06-04,1,,,,,リアルブルーソーラーフォー,0
305,2010005002170,登記記録の閉鎖等,0,2021-09-02,2021-08-30,特殊更紙工業組合,,その他の設立登記法人,東京都,中央区,銀座３丁目９番１１号紙パルプ会館内,,13,102,1040061,,,2021-08-30,清算の結了等,,,2015-10-05,1,,,,,トクシュザラガミコウギョウ,0
318,2010501033561,登記記録の閉鎖等,0,2021-09-02,2021-08-30,株式会社宝島２１,,株式会社,東京都,台東区,雷門２丁目６番３号,,13,106,1110034,,,2021-08-30,清算の結了等,,,2015-10-05,1,,,,,タカラジマニジュウイチ,0
334,2011301005560,登記記録の閉鎖等,0,2021-09-02,2021-08-27,株式会社日通自動車学校,,株式会社,東京都,杉並区,宮前５丁目１５番１号,,13,115,1680081,,,2021-08-27,清算の結了等,,,2015-10-05,1,,,,,ニッツウジドウシャガッコウ,0
337,2011401003803,登記記録の閉鎖等,0,2021-09-02,2021-08-31,大日運送株式会社,,株式会社,東京都,板橋区,西台２丁目２１番５号,,13,119,1750045,,,2021-08-31,清算の結了等,,,2015-10-05,1,,,,,ダイニチウンソウ,0
345,2011801017972,登記記録の閉鎖等,0,2021-09-02,2021-08-31,太陽国際株式会社,,株式会社,東京都,足立区,東綾瀬１丁目２２番６号１Ｆ,,13,121,1200004,,,2021-08-31,清算の結了等,,,2015-10-05,1,,,,,,0
349,2012301009428,登記記録の閉鎖等,0,2021-09-02,2021-08-20,株式会社モアランド・コーポレーション,,株式会社,東京都,町田市,木曽西２丁目１７番地７,,13,209,1940037,,,2021-08-20,清算の結了等,,,2015-10-05,1,,,,,モアランドコーポレーション,0
355,2020001091101,登記記録の閉鎖等,0,2021-09-02,2021-08-31,株式会社ワークス横浜,,株式会社,神奈川県,横浜市青葉区,市ケ尾町１１５４番地２,,14,117,2250024,,,2021-08-31,清算の結了等,,,2015-10-05,1,,,,,ワークスヨコハマ,0
367,2020003017558,登記記録の閉鎖等,0,2021-09-02,2021-08-30,合同会社Ｒｉｓｅ　Ｃｒｅａｔｉｏｎ,,合同会社,神奈川県,横浜市青葉区,荏田西２丁目１番地１３,,14,117,2250014,,,2021-08-30,清算の結了等,,,2020-03-18,1,,,,,ライズクリエーション,0
371,2021002004051,登記記録の閉鎖等,0,2021-09-02,2021-08-30,有限会社ピー・アンド・ピー・クリエイツ,,有限会社,神奈川県,足柄上郡大井町,上大井３１６,,14,362,2580016,,,2021-08-30,清算の結了等,,,2015-10-05,1,,,,,ピーアンドピークリエイツ,0
372,2021002020924,登記記録の閉鎖等,0,2021-09-02,2021-07-19,有限会社シーエルケー,,有限会社,神奈川県,相模原市緑区,西橋本１丁目１７番２－１９号,,14,151,2520131,,,2021-07-19,清算の結了等,,,2015-10-05,1,,,,,シーエルケー,0
374,2021002047216,登記記録の閉鎖等,0,2021-09-02,2021-08-30,有限会社ミユキ電設,,有限会社,神奈川県,海老名市,柏ケ谷６１６番地４,,14,215,2430402,,,2021-08-30,清算の結了等,,,2015-10-05,1,,,,,ミユキデンセツ,0
384,2030002088285,登記記録の閉鎖等,0,2021-09-02,2021-08-23,有限会社望月建業,,有限会社,埼玉県,越谷市,神明町２丁目３３４番地６,,11,222,3430805,,,2021-08-23,清算の結了等,,,2015-10-05,1,,,,,モチヅキケンギョウ,0
406,2080401013896,登記記録の閉鎖等,0,2021-09-02,2021-08-31,地域カウンセリングスクール株式会社,,株式会社,静岡県,浜松市浜北区,沼７１番地の３,,22,136,4340037,,,2021-08-31,清算の結了等,,,2015-10-05,1,,,,,チイキカウンセリングスクール,0
422,2120001219807,登記記録の閉鎖等,0,2021-09-02,2021-08-26,株式会社ＡＺ,,株式会社,大阪府,大阪市西区,川口２丁目２－１７,,27,106,5500021,,,2021-08-26,清算の結了等,,,2019-03-25,1,,,,,エーゼット,0
427,2120002037588,登記記録の閉鎖等,0,2021-09-02,2021-08-31,有限会社なわて,,有限会社,大阪府,大阪市中央区,釣鐘町１丁目６番６－３０５号,,27,128,5400035,,,2021-08-31,清算の結了等,,,2015-10-05,1,,,,,ナワテ,0
453,2140002006450,登記記録の閉鎖等,0,2021-09-02,2021-08-31,有限会社浜田ダイカスト工業,,有限会社,兵庫県,神戸市垂水区,福田３丁目３番１５号,,28,108,6550013,,,2021-08-31,清算の結了等,,,2015-10-05,1,,,,,ハマタダイカストコウギョウ,0
468,2180301033687,登記記録の閉鎖等,0,2021-09-02,2021-08-27,株式会社ＳＥＡ　ＣＡＰ,,株式会社,愛知県,蒲郡市,形原町春日浦２９番５,,23,214,4430106,,,2021-08-27,清算の結了等,,,2020-05-08,1,,,,,シーキャップ,0
471,2190001000326,登記記録の閉鎖等,0,2021-09-02,2021-09-01,株式会社コトブキ,,株式会社,三重県,津市,安濃町今徳字川原１３４９番地,,24,201,5142313,,,2021-09-01,合併による解散等,1190001000327,令和３年９月１日三重県津市安濃町今徳字川原１３４９番地壽印刷工業株式会社（1190001000327）に合併し解散,2015-10-05,1,,,,,コトブキ,0
473,2190003002931,登記記録の閉鎖等,0,2021-09-02,2021-08-30,ＭｏＬｉｎｋ合同会社,,合同会社,三重県,鈴鹿市,郡山町２０７４番地の７,,24,207,5100263,,,2021-08-30,清算の結了等,,,2018-06-08,1,,,,,モリンク,0
479,2210001000389,登記記録の閉鎖等,0,2021-09-02,2021-08-31,株式会社トリプルエース,,株式会社,福井県,福井市,花堂中２丁目３０番１８号,,18,201,9188014,,,2021-08-31,清算の結了等,,,2015-10-05,1,,,,,トリプルエース,0
480,2210001004415,登記記録の閉鎖等,0,2021-09-02,2021-08-31,株式会社ヨーナ,,株式会社,福井県,福井市,文京１丁目１２番２３号,,18,201,9100017,,,2021-08-31,清算の結了等,,,2015-10-05,1,,,,,ヨーナ,0
524,2290002047835,登記記録の閉鎖等,0,2021-09-02,2021-08-12,有限会社ミレコーポレーション,,有限会社,福岡県,八女市,立花町山崎８５番地,,40,210,8340081,,,2021-08-12,清算の結了等,,,2015-10-05,1,,,,,ミレコーポレーション,0
555,2370505000563,登記記録の閉鎖等,0,2021-09-02,2021-08-24,一般社団法人気仙沼市住みよさ創造機構,,その他の設立登記法人,宮城県,気仙沼市,八日町１丁目４番１２号,,04,205,9880084,,,2021-08-24,清算の結了等,,,2015-10-05,1,,,,,ケセンヌマシスミヨサソウゾウキコウ,0
580,2500001014038,登記記録の閉鎖等,0,2021-09-02,2021-09-01,株式会社ブラウニー中国四国,,株式会社,愛媛県,松山市,畑寺４丁目１３番１４号,,38,201,7900913,,,2021-09-01,清算の結了等,,,2015-10-05,1,,,,,ブラウニーチュウゴクシコク,0
583,3010001012552,登記記録の閉鎖等,0,2021-09-02,2021-08-30,株式会社エムヴィーアール,,株式会社,東京都,千代田区,神田駿河台１丁目５番６号,,13,101,1010062,,,2021-08-30,清算の結了等,,,2015-10-05,1,,,,,エムヴィーアール,0
595,3010003032318,登記記録の閉鎖等,0,2021-09-02,2021-08-26,リアルブルーソーラー３合同会社,,合同会社,東京都,千代田区,九段南３丁目７番７号成和綜合会計事務所内,,13,101,1020074,,,2021-08-26,清算の結了等,,,2020-06-04,1,,,,,リアルブルーソーラースリー,0
609,3010801003263,登記記録の閉鎖等,0,2021-09-02,2021-08-25,株式会社久保田興業,,株式会社,東京都,大田区,大森南１丁目２２番１７号,,13,111,1430013,,,2021-08-25,清算の結了等,,,2015-10-05,1,,,,,クボタコウギョウ,0
634,3011801030768,登記記録の閉鎖等,0,2021-09-02,2021-08-31,関東産業株式会社,,株式会社,東京都,練馬区,上石神井４丁目１１番１５号,,13,120,1770044,,,2021-08-31,清算の結了等,,,2015-10-05,1,,,,,カントウサンギョウ,0
635,3011801033374,登記記録の閉鎖等,0,2021-09-02,2021-08-30,テラコーポレーション株式会社,,株式会社,東京都,中央区,入船２丁目８番８号林田ビル３Ｆ,,13,102,1040042,,,2021-08-30,清算の結了等,,,2017-05-24,1,,,,,テラコーポレーション,0
655,3030001088120,登記記録の閉鎖等,0,2021-09-02,2021-08-25,株式会社手嶋工務店,,株式会社,埼玉県,熊谷市,上之２０７５番地１５,,11,202,3600012,,,2021-08-25,清算の結了等,,,2015-10-05,1,,,,,テシマコウムテン,0
662,3030005019550,登記記録の閉鎖等,0,2021-09-02,2021-08-24,特定非営利活動法人親子メンタル運営事務局,,その他の設立登記法人,埼玉県,さいたま市見沼区,春野３丁目１８番４－６０１号,,11,104,3370002,,,2021-08-24,清算の結了等,,,2019-08-05,1,,,,,オヤコメンタルウンエイジムキョク,0
669,3040002082492,登記記録の閉鎖等,0,2021-09-02,2021-08-27,有限会社関根,,有限会社,千葉県,長生郡一宮町,一宮２９２２番地,,12,421,2994301,,,2021-08-27,清算の結了等,,,2015-10-05,1,,,,,セキネ,0
682,3080001012166,登記記録の閉鎖等,0,2021-09-02,2021-08-27,株式会社ノーベル静岡センター,,株式会社,静岡県,静岡市駿河区,東新田４丁目１５番１２号,,22,102,4210112,,,2021-08-27,清算の結了等,,,2015-10-05,1,,,,,ノーベルシズオカセンター,0
690,3100002035881,登記記録の閉鎖等,0,2021-09-02,2021-08-31,有限会社牛山工務店,,有限会社,長野県,飯田市,竹佐７０３番地,,20,205,3950242,,,2021-08-31,清算の結了等,,,2015-10-05,1,,,,,ウシヤマコウムテン,0
692,3100005004818,登記記録の閉鎖等,0,2021-09-02,2021-08-31,特定非営利活動法人子どもサポート上田,,その他の設立登記法人,長野県,上田市,常田２丁目２６番１５号,,20,203,3860018,,,2021-08-31,清算の結了等,,,2015-10-05,1,,,,,コドモサポートウエダ,0
711,3130001028710,登記記録の閉鎖等,0,2021-09-02,2021-08-30,株式会社ひじり,,株式会社,京都府,京都市西京区,山田猫塚町８番地５,,26,111,6158251,,,2021-08-30,清算の結了等,,,2015-10-05,1,,,,,ヒジリ,0
718,3140001036885,登記記録の閉鎖等,0,2021-09-02,2021-08-31,株式会社スター,,株式会社,兵庫県,三木市,志染町中自由が丘１丁目３８９番地,,28,215,6730552,,,2021-08-31,清算の結了等,,,2015-10-05,1,,,,,スター,0
723,3140002042833,登記記録の閉鎖等,0,2021-09-02,2021-08-30,有限会社メイコウテック,,有限会社,兵庫県,尼崎市,常光寺１丁目１１番５号,,28,202,6600811,,,2021-08-30,清算の結了等,,,2015-10-05,1,,,,,メイコウテック,0
734,3180001088477,登記記録の閉鎖等,0,2021-09-02,2021-08-30,シーサートラベル尾北株式会社,,株式会社,愛知県,一宮市,春明字東張渕３６番地２,,23,203,4910003,,,2021-08-30,清算の結了等,,,2015-10-05,1,,,,,シーサートラベルビホク,0
738,3180002067331,登記記録の閉鎖等,0,2021-09-02,2021-08-30,有限会社松野電機,,有限会社,愛知県,春日井市,味美町１丁目１３番地の４,,23,206,4860968,,,2021-08-30,清算の結了等,,,2015-10-05,1,,,,,マツノデンキ,0
743,3190001024068,登記記録の閉鎖等,0,2021-09-02,2021-09-01,株式会社本楽深全捨,,株式会社,大阪府,堺市西区,平岡町２８０番地１２,,27,144,5938307,,,2021-09-01,清算の結了等,,,2016-10-21,1,,,,,ホンラクシンゼンシャ,0
757,3240001001004,登記記録の閉鎖等,0,2021-09-02,2021-08-27,株式会社いわはし,,株式会社,広島県,広島市中区,中町１番６号,,34,101,7300037,,,2021-08-27,清算の結了等,,,2015-10-05,1,,,,,,0
792,3300002008355,登記記録の閉鎖等,0,2021-09-02,2021-08-27,有限会社こむ,,有限会社,佐賀県,西松浦郡有田町,原明乙１１１番地,,41,401,8494176,,,2021-08-27,清算の結了等,,,2015-10-05,1,,,,,コム,0
804,3350001004672,登記記録の閉鎖等,0,2021-09-02,2021-08-30,株式会社新城技研,,株式会社,宮崎県,宮崎市,新別府町江田原４８番地１,,45,201,8800834,,,2021-08-30,清算の結了等,,,2015-10-05,1,,,,,シンジョウギケン,0
820,3400502000611,登記記録の閉鎖等,0,2021-09-02,2021-08-31,有限会社豊隆会舘,00085748,有限会社,岩手県,一関市,字樋渡４７番地,,03,209,0210812,,,2021-08-31,清算の結了等,,,2015-10-05,1,,,,,ホウリョウカイカン,0
828,3470002015095,登記記録の閉鎖等,0,2021-09-02,2021-08-31,田所電工有限会社,,有限会社,香川県,坂出市,林田町１６３９番地８,,37,203,7620012,,,2021-08-31,清算の結了等,,,2015-10-05,1,,,,,タドコロデンコウ,0
845,4010003031764,登記記録の閉鎖等,0,2021-09-02,2021-08-31,合同会社センス,,合同会社,東京都,千代田区,丸の内３丁目１番１号東京共同会計事務所内,,13,101,1000005,,,2021-08-31,清算の結了等,,,2020-03-05,1,,,,,センス,0
855,4010402011499,登記記録の閉鎖等,0,2021-09-02,2021-08-24,有限会社プロト・ビー,,有限会社,東京都,港区,赤坂２丁目２０番７号第２成光ビル地下１階,,13,103,1070052,,,2021-08-24,清算の結了等,,,2015-10-05,1,,,,,,0
857,4010405019614,登記記録の閉鎖等,0,2021-09-02,2021-08-23,Ｊａｐａｎ　Ｍｅｄｉｃａｌ　Ｉｎｖｅｓｔｍｅｎｔｓ　Ｉ一般社団法人,,その他の設立登記法人,東京都,港区,赤坂７丁目６番１５号,,13,103,1070052,,,2021-08-23,清算の結了等,,,2021-03-16,1,,,,,ジャパンメディカルインベストメンツワン,0
877,4011003008595,登記記録の閉鎖等,0,2021-09-02,2021-08-18,ＣＰＤロジスティクス合同会社,,合同会社,東京都,渋谷区,元代々木町２番４号,,13,113,1510062,,,2021-08-18,清算の結了等,,,2018-03-16,1,,,,,シーピーディーロジスティクス,0
882,4011103005633,登記記録の閉鎖等,0,2021-09-02,2021-08-25,合同会社クラムボン,,合同会社,東京都,新宿区,高田馬場４丁目４１番９号クルーセ小滝橋２０２,,13,104,1690075,,,2021-08-25,清算の結了等,,,2015-10-05,1,,,,,,0
887,4011301021309,登記記録の閉鎖等,0,2021-09-02,2021-08-30,株式会社ｉｆｒｅｅｔ,,株式会社,東京都,杉並区,堀ノ内３丁目４９番５号ベルコート東高円寺４０２,,13,115,1660013,,,2021-08-30,清算の結了等,,,2015-10-05,1,,,,,イフリート,0
890,4011401017454,登記記録の閉鎖等,0,2021-09-02,2021-08-31,株式会社フォレスト,,株式会社,東京都,板橋区,大山西町５５番３号,,13,119,1730033,,,2021-08-31,清算の結了等,,,2015-10-05,1,,,,,フォレスト,0
894,4011501012867,登記記録の閉鎖等,0,2021-09-02,2021-08-30,株式会社ファンツアー・カンパニー,,株式会社,東京都,北区,西ケ原２丁目４３番２号,,13,117,1140024,,,2021-08-30,清算の結了等,,,2015-10-05,1,,,,,ファンツアーカンパニー,0
914,4013301039000,登記記録の閉鎖等,0,2021-09-02,2021-08-30,株式会社ＫＹＯ,,株式会社,東京都,豊島区,東池袋１丁目３６番３号池袋陽光ハイツ７０２,,13,116,1700013,,,2021-08-30,清算の結了等,,,2016-06-20,1,,,,,,0
921,4020001120782,登記記録の閉鎖等,0,2021-09-02,2021-08-31,株式会社イノベートバリュー,,株式会社,神奈川県,川崎市高津区,下作延１丁目１番７号,,14,134,2130033,,,2021-08-31,合併による解散等,8020001081328,令和３年８月３１日神奈川県川崎市高津区溝口一丁目１４番８号株式会社エヌアセット（8020001081328）に合併し解散,2017-04-11,1,,,,,イノベートバリュー,0
926,4021001040558,登記記録の閉鎖等,0,2021-09-02,2021-08-30,湘南リース株式会社,,株式会社,神奈川県,横須賀市,大滝町２丁目３番地,,14,201,2380008,,,2021-08-30,清算の結了等,,,2015-10-05,1,,,,,ショウナンリース,0
928,4021002009172,登記記録の閉鎖等,0,2021-09-02,2021-09-01,須貝工業有限会社,,有限会社,東京都,足立区,竹の塚７丁目４番１－４０５号,,13,121,1210813,,,2021-09-01,清算の結了等,,,2015-10-05,1,,,,,スガイコウギョウ,0
929,4021002010741,登記記録の閉鎖等,0,2021-09-02,2021-08-27,有限会社ケイアンドケイ,,有限会社,神奈川県,茅ヶ崎市,円蔵１丁目２１番３７号,,14,207,2530084,,,2021-08-27,清算の結了等,,,2015-10-05,1,,,,,,0
947,4050001018124,登記記録の閉鎖等,0,2021-09-02,2021-08-27,ＩＴソリューションズ株式会社,,株式会社,茨城県,土浦市,中央２丁目１５番５号セントラルハイツ１０３,,08,203,3000043,,,2021-08-27,清算の結了等,,,2015-10-05,1,,,,,アイティソリューションズ,0
949,4050001026507,登記記録の閉鎖等,0,2021-09-02,2021-08-30,株式会社割烹寿々木,,株式会社,茨城県,常陸太田市,山下町１４２７番地の３,,08,212,3130013,,,2021-08-30,清算の結了等,,,2015-10-05,1,,,,,カッポウスズキ,0
953,4060001014915,登記記録の閉鎖等,0,2021-09-02,2021-08-24,株式会社情報電子,,株式会社,栃木県,下野市,石橋４２３番地２,,09,216,3290511,,,2021-08-24,清算の結了等,,,2015-10-05,1,,,,,ジョウホウデンシ,0
963,4080002009400,登記記録の閉鎖等,0,2021-09-02,2021-08-31,有限会社エヌケー商事,,有限会社,静岡県,静岡市清水区,草薙１丁目１３番６号,,22,103,4240886,,,2021-08-31,清算の結了等,,,2015-10-05,1,,,,,エヌケーショウジ,0
965,4080401014918,登記記録の閉鎖等,0,2021-09-02,2021-08-31,株式会社田中鋳造所,,株式会社,静岡県,菊川市,堀之内１８１番地,,22,224,4390006,,,2021-08-31,清算の結了等,,,2015-10-05,1,,,,,タナカチュウゾウジョ,0
993,4120102014502,登記記録の閉鎖等,0,2021-09-02,2021-08-31,有限会社ファイバーラインズ,,有限会社,大阪府,松原市,三宅中８丁目２番１７号,,27,217,5800046,,,2021-08-31,清算の結了等,,,2015-10-05,1,,,,,ファイバーラインズ,0
1002,4130001056909,登記記録の閉鎖等,0,2021-09-02,2021-08-30,平安ビル株式会社,,株式会社,京都府,京都市西京区,上桂御正町３番地５,,26,111,6158222,,,2021-08-30,合併による解散等,3130001008662,令和３年８月３０日京都市西京区上桂御正町３番地１株式会社平安ハウジング（3130001008662）に合併し解散,2016-02-23,1,,,,,ヘイアンビル,0
1076,4370505000280,登記記録の閉鎖等,0,2021-09-02,2021-08-26,特定非営利活動法人気仙沼・南三陸住宅改善二十一,,その他の設立登記法人,宮城県,気仙沼市,本郷２１番地１,,04,205,9880042,,,2021-08-26,清算の結了等,,,2015-10-05,1,,,,,ケセンヌマミナミサンリクジュウタクカイゼンニジュウイチ,0
1089,4420001009861,登記記録の閉鎖等,0,2021-09-02,2021-08-19,株式会社観光ホテル壽実麗,,株式会社,東京都,新宿区,新宿１丁目８番５号,,13,104,1600022,,,2021-08-19,清算の結了等,,,2015-10-05,1,,,,,カンコウホテルスミレ,0
1102,4490001004815,登記記録の閉鎖等,0,2021-09-02,2021-08-31,株式会社市村商店,,株式会社,高知県,四万十市,右山元町３丁目５番２３号,,39,210,7870011,,,2021-08-31,清算の結了等,,,2015-10-05,1,,,,,イチムラショウテン,0
1110,5010001136102,登記記録の閉鎖等,0,2021-09-02,2021-08-04,株式会社ｍｙ日本,,株式会社,東京都,千代田区,飯田橋３丁目２－４,,13,101,1020072,,,2021-08-04,清算の結了等,,,2015-10-05,1,,,,,マイニホン,0
1117,5010005027446,登記記録の閉鎖等,0,2021-09-02,2021-08-23,Ａ３ＪＰ堂島浜特定目的会社,,その他の設立登記法人,東京都,港区,赤坂２丁目１５番１６号赤坂ふく源ビル４階,,13,103,1070052,,,2021-08-23,清算の結了等,,,2017-09-12,1,,,,,エースリージェーピードウジマハマ,0
1130,5010403021926,登記記録の閉鎖等,0,2021-09-02,2021-08-24,合同会社アイリスＢ号,,合同会社,東京都,港区,北青山１丁目２番３号,,13,103,1070061,,,2021-08-24,清算の結了等,,,2019-11-29,1,,,,,アイリスビーゴウ,0
1150,5011101020451,登記記録の閉鎖等,0,2021-09-02,2021-08-24,株式会社三国商会,,株式会社,東京都,新宿区,高田馬場１丁目６番６号,,13,104,1690075,,,2021-08-24,清算の結了等,,,2015-10-05,1,,,,,ミクニショウカイ,0
1153,5011102022083,登記記録の閉鎖等,0,2021-09-02,2021-08-24,有限会社町田事務所,,有限会社,東京都,新宿区,水道町１番２１号,,13,104,1620811,,,2021-08-24,清算の結了等,,,2015-10-05,1,,,,,マチダジムショ,0
1161,5011501012602,登記記録の閉鎖等,0,2021-09-02,2021-08-27,大洋工業株式会社,,株式会社,東京都,荒川区,西日暮里２丁目３２番１１号,,13,118,1160013,,,2021-08-27,清算の結了等,,,2015-10-05,1,,,,,タイヨウコウギョウ,0
1163,5011501018483,登記記録の閉鎖等,0,2021-09-02,2021-08-23,株式会社然,,株式会社,東京都,港区,南青山３丁目８番７号,,13,103,1070062,,,2021-08-23,清算の結了等,,,2015-10-05,1,,,,,ゼン,0
1168,5012302008748,登記記録の閉鎖等,0,2021-09-02,2021-08-23,有限会社芝浦テック,,有限会社,東京都,町田市,小川３丁目１１番地２０,,13,209,1940003,,,2021-08-23,清算の結了等,,,2015-10-05,1,,,,,シバウラテック,0
1193,5021002040250,登記記録の閉鎖等,0,2021-09-02,2021-08-30,有限会社エヌ・アール・イー・シー,,有限会社,神奈川県,大和市,深見西１丁目５番２号株式会社ＡＰＪ内,,14,213,2420018,,,2021-08-30,清算の結了等,,,2015-10-05,1,,,,,エヌアールイーシー,0
1202,5030001117868,登記記録の閉鎖等,0,2021-09-02,2021-08-24,ドリームライン株式会社,,株式会社,埼玉県,上尾市,大字大谷本郷７６８番地４,,11,219,3620044,,,2021-08-24,清算の結了等,,,2017-01-04,1,,,,,ドリームライン,0
1218,5040001089966,登記記録の閉鎖等,0,2021-09-02,2021-08-27,株式会社しらい,,株式会社,千葉県,市原市,五井中央南１丁目３０番地１０,,12,219,2900082,,,2021-08-27,清算の結了等,,,2015-10-05,1,,,,,シライ,0
1226,5040002032173,登記記録の閉鎖等,0,2021-09-02,2021-08-25,有限会社アシカワ,,有限会社,千葉県,市川市,日之出２０番１６号,,12,203,2720135,,,2021-08-25,清算の結了等,,,2015-10-05,1,,,,,アシカワ,0
1231,5050002003685,登記記録の閉鎖等,0,2021-09-02,2021-08-30,有限会社オーミ開発,,有限会社,茨城県,東茨城郡茨城町,大字長岡５２２番地,,08,302,3113116,,,2021-08-30,清算の結了等,,,2015-10-05,1,,,,,オーミカイハツ,0
1236,5060005006858,登記記録の閉鎖等,0,2021-09-02,2021-08-24,医療法人社団いわかみ,,その他の設立登記法人,栃木県,佐野市,相生町１８８番地,,09,204,3270023,,,2021-08-24,清算の結了等,,,2015-10-05,1,,,,,イワカミ,0
1241,5080401016062,登記記録の閉鎖等,0,2021-09-02,2021-08-31,竜泉土地開発株式会社,,株式会社,静岡県,磐田市,寺谷新田３１番地,,22,211,4380007,,,2021-08-31,清算の結了等,,,2015-10-05,1,,,,,リュウセントチカイハツ,0
1244,5080402014362,登記記録の閉鎖等,0,2021-09-02,2021-08-31,有限会社菅本建材,,有限会社,静岡県,湖西市,鷲津１２１１番地の１,,22,221,4310431,,,2021-08-31,清算の結了等,,,2015-10-05,1,,,,,スガモトケンザイ,0
1248,5100005002885,登記記録の閉鎖等,0,2021-09-02,2021-08-31,佐久酪農業協同組合,,その他の設立登記法人,長野県,佐久市,中込２３５７番地,,20,217,3850051,,,2021-08-31,清算の結了等,,,2015-10-05,1,,,,,サクラク,0
1256,5120001131471,登記記録の閉鎖等,0,2021-09-02,2021-09-01,株式会社雷,,株式会社,大阪府,大阪市浪速区,難波中１丁目１６番１１－２０３号,,27,111,5560011,,,2021-09-01,合併による解散等,7122002010966,令和３年９月１日大阪市浪速区難波中一丁目１６番１１－２０３号雷株式会社（7122002010966）に合併し解散,2015-10-05,1,,,,,イカズチ,0
1288,5130002004411,登記記録の閉鎖等,0,2021-09-02,2021-08-31,有限会社宮井設計,,有限会社,京都府,京都市北区,紫野門前町４４番地,,26,101,6038216,,,2021-08-31,清算の結了等,,,2015-10-05,1,,,,,ミヤイセッケイ,0
1308,5150002002396,登記記録の閉鎖等,0,2021-09-02,2021-08-27,有限会社リッツコーポレーション,,有限会社,奈良県,奈良市,西大寺栄町３番１５号,,29,201,6310822,,,2021-08-27,合併による解散等,1150001011435,令和３年８月１日奈良市西大寺栄町３－１５梅守第二ビル３Ｆ株式会社ピュア（1150001011435）に合併し解散,2015-10-05,1,,,,,リッツコーポレーション,0
1317,5180301012944,登記記録の閉鎖等,0,2021-09-02,2021-08-31,株式会社省電エンジニアリング,,株式会社,愛知県,安城市,城ケ入町山新田３３番地,,23,212,4441206,,,2021-08-31,清算の結了等,,,2015-10-05,1,,,,,ショウデンエンジニアリング,0
1327,5210001009741,登記記録の閉鎖等,0,2021-09-02,2021-08-30,大野電子工業株式会社,,株式会社,福井県,大野市,下据３０字１番１,,18,205,9120431,,,2021-08-30,清算の結了等,,,2015-10-05,1,,,,,オオノデンシコウギョウ,0
1330,5220001020607,登記記録の閉鎖等,0,2021-09-02,2021-08-23,住本クリーニング株式会社,,株式会社,石川県,かほく市,高松乙１番地１８,,17,209,9291215,,,2021-08-23,清算の結了等,,,2015-10-13,1,,,,,スミモトクリーニング,0
1338,5240002051343,登記記録の閉鎖等,0,2021-09-02,2021-08-26,有限会社フモト印房,,有限会社,広島県,尾道市,土堂１丁目２番１号,,34,205,7220035,,,2021-08-26,清算の結了等,,,2015-10-05,1,,,,,フモトインボウ,0
1357,5290002049135,登記記録の閉鎖等,0,2021-09-02,2021-08-12,有限会社スズキ自販久留米,,有限会社,福岡県,久留米市,山川野口町１３番３号,,40,203,8390816,,,2021-08-12,清算の結了等,,,2015-10-05,1,,,,,スズキジハンクルメ,0
1367,5290801018950,登記記録の閉鎖等,0,2021-09-02,2021-08-25,株式会社エヌ企画,,株式会社,福岡県,北九州市門司区,東本町１丁目４番１５号,,40,101,8010851,,,2021-08-25,清算の結了等,,,2015-10-05,1,,,,,エヌキカク,0
1376,5330005009593,登記記録の閉鎖等,0,2021-09-02,2021-08-31,一般社団法人安全医療システム研究所,,その他の設立登記法人,熊本県,熊本市西区,春日２丁目３番１号牧野ビル２階,,43,103,8600047,,,2021-08-31,清算の結了等,,,2017-01-19,1,,,,,アンゼンイリョウシステムケンキュウジョ,0
1377,5340001001719,登記記録の閉鎖等,0,2021-09-02,2021-08-30,株式会社コマキ,,株式会社,鹿児島県,鹿児島市,郡元１丁目１番２号,,46,201,8900065,,,2021-08-30,清算の結了等,,,2015-10-05,1,,,,,コマキ,0
1379,5340002009785,登記記録の閉鎖等,0,2021-09-02,2021-08-31,有限会社森信建設,,有限会社,鹿児島県,鹿児島市,東谷山２丁目５４番７号,,46,201,8910113,,,2021-08-31,清算の結了等,,,2015-10-05,1,,,,,モリシンケンセツ,0
1385,5370001015014,登記記録の閉鎖等,0,2021-09-02,2021-08-26,株式会社ＭＬ東北,,株式会社,宮城県,仙台市宮城野区,東仙台１丁目６番１８号,,04,102,9830833,,,2021-08-26,清算の結了等,,,2015-10-05,1,,,,,エムエルトウホク,0
1393,5380001031729,登記記録の閉鎖等,0,2021-09-02,2021-08-20,株式会社青砥電気管理事務所,,株式会社,福島県,東白川郡塙町,大字伊香字箒戸８４番地１,,07,483,9635342,,,2021-08-20,清算の結了等,,,2021-04-02,1,,,,,アオトデンキカンリジムショ,0
1398,5390005002519,登記記録の閉鎖等,0,2021-09-02,2021-08-31,権現堂生産森林組合,,その他の設立登記法人,山形県,上山市,権現堂字地蔵堂７４番地,,06,207,9993111,,,2021-08-31,清算の結了等,,,2015-10-05,1,,,,,ゴンゲンドウ,0
1405,5420005002300,登記記録の閉鎖等,0,2021-09-02,2021-08-30,特定非営利活動法人青森編集会議,,その他の設立登記法人,青森県,青森市,新田１丁目１１番５号,,02,201,0380001,,,2021-08-30,清算の結了等,,,2015-10-05,1,,,,,アオモリヘンシュウカイギ,0
1407,5430001001610,登記記録の閉鎖等,0,2021-09-02,2021-08-24,株式会社ウッディプラン,,株式会社,北海道,江別市,工栄町２２番地の１,,01,217,0670051,,,2021-08-24,合併による解散等,1430001041404,令和３年８月２１日札幌市清田区里塚三条一丁目８番５号株式会社イチムラ（1430001041404）に合併し解散,2015-10-05,1,,,,,ウッディプラン,0
1410,5430005004659,登記記録の閉鎖等,0,2021-09-02,2021-08-24,医療法人社団くわじま小児科,,その他の設立登記法人,北海道,石狩市,花川南一条６丁目１６７番地,,01,235,0613201,,,2021-08-24,清算の結了等,,,2015-10-05,1,,,,,クワジマショウニカ,0
1414,5450003000930,登記記録の閉鎖等,0,2021-09-02,2021-09-01,合同会社はるはな,,合同会社,北海道,旭川市,神楽岡九条３丁目１番１７号,,01,204,0788319,,,2021-09-01,清算の結了等,,,2015-10-05,1,,,,,ハルハナ,0
1426,6010001184389,登記記録の閉鎖等,0,2021-09-02,2021-08-27,リアライズ株式会社,,株式会社,東京都,中央区,日本橋３丁目４番１５号八重洲通ビル４階,,13,102,1030027,,,2021-08-27,清算の結了等,,,2017-06-21,1,,,,,リアライズ,0
1430,6010001213701,登記記録の閉鎖等,0,2021-09-02,2021-08-30,エムエイチシー株式会社,,株式会社,東京都,千代田区,丸の内１丁目５番１号,,13,101,1000005,,,2021-08-30,清算の結了等,,,2020-11-13,1,,,,,エムエイチシー,0
1438,6010003024808,登記記録の閉鎖等,0,2021-09-02,2021-08-30,エーエフサーティーン合同会社,,合同会社,東京都,千代田区,神田神保町３丁目５番地,,13,101,1010051,,,2021-08-30,清算の結了等,,,2017-02-08,1,,,,,エーエフサーティーン,0
1441,6010401025226,登記記録の閉鎖等,0,2021-09-02,2021-08-23,株式会社ひばり亭,,株式会社,東京都,港区,赤坂９丁目６番２３号,,13,103,1070052,,,2021-08-23,清算の結了等,,,2015-10-05,1,,,,,ヒバリテイ,0
1443,6010401098321,登記記録の閉鎖等,0,2021-09-02,2021-08-30,株式会社コーポレート・ソフトウェア,,株式会社,東京都,千代田区,霞が関３丁目２番５号霞が関ビルディング３３階,,13,101,1000013,,,2021-08-30,清算の結了等,,,2015-10-05,1,,,,,コーポレートソフトウェア,0
1446,6010401144001,登記記録の閉鎖等,0,2021-09-02,2021-08-25,株式会社サイインターナショナル,,株式会社,東京都,港区,南青山２丁目２９番６号,,13,103,1070062,,,2021-08-25,清算の結了等,,,2019-02-26,1,,,,,サイインターナショナル,0
1460,6010802008523,登記記録の閉鎖等,0,2021-09-02,2021-08-25,有限会社第二オオタクリーンサービス,,有限会社,東京都,大田区,羽田４丁目１３番１４－２０９号,,13,111,1440043,,,2021-08-25,清算の結了等,,,2015-10-05,1,,,,,ダイニオオタクリーンサービス,0
1467,6010902011022,登記記録の閉鎖等,0,2021-09-02,2021-08-30,有限会社長尾商店,,有限会社,東京都,世田谷区,上馬１丁目１１番１２号,,13,112,1540011,,,2021-08-30,清算の結了等,,,2015-10-05,1,,,,,ナガオショウテン,0
1470,6011001024626,登記記録の閉鎖等,0,2021-09-02,2021-08-17,株式会社ラテラ,,株式会社,東京都,渋谷区,神宮前３丁目４２番８号,,13,113,1500001,,,2021-08-17,清算の結了等,,,2015-10-05,1,,,,,ラテラ,0
1471,6011001041258,登記記録の閉鎖等,0,2021-09-02,2021-08-17,株式会社藤間オフィス,,株式会社,東京都,渋谷区,松濤２丁目６番２号,,13,113,1500046,,,2021-08-17,清算の結了等,,,2015-10-05,1,,,,,フジマオフィス,0
1472,6011001046199,登記記録の閉鎖等,0,2021-09-02,2021-08-17,株式会社トーマスプレゼンツ,,株式会社,東京都,渋谷区,桜丘町８番１７号,,13,113,1500031,,,2021-08-17,清算の結了等,,,2015-10-05,1,,,,,トーマスプレゼンツ,0
1477,6011002004098,登記記録の閉鎖等,0,2021-09-02,2021-08-25,有限会社コンプリート,,有限会社,東京都,渋谷区,広尾５丁目２４番３号,,13,113,1500012,,,2021-08-25,清算の結了等,,,2015-10-05,1,,,,,コンプリート,0
1479,6011005006406,登記記録の閉鎖等,0,2021-09-02,2021-08-17,一般社団法人アジアヒューマンサポートセンター,,その他の設立登記法人,東京都,渋谷区,千駄ヶ谷４丁目３番１１号,,13,113,1510051,,,2021-08-17,清算の結了等,,,2015-10-05,1,,,,,アジアヒューマンサポートセンター,0
1480,6011101071741,登記記録の閉鎖等,0,2021-09-02,2021-08-24,株式会社幹建,,株式会社,東京都,新宿区,高田馬場４丁目１０番５号,,13,104,1690075,,,2021-08-24,清算の結了等,,,2015-10-05,1,,,,,,0
1527,6030002057253,登記記録の閉鎖等,0,2021-09-02,2021-08-24,有限会社光彩,,有限会社,埼玉県,上尾市,中妻３丁目２１番地３２,,11,219,3620072,,,2021-08-24,清算の結了等,,,2015-10-05,1,,,,,コウサイ,0
1528,6030002058004,登記記録の閉鎖等,0,2021-09-02,2021-08-24,有限会社宏洋企画,,有限会社,埼玉県,八潮市,緑町２丁目１８番地１７,,11,234,3400808,,,2021-08-24,清算の結了等,,,2015-10-05,1,,,,,コウヨウキカク,0
1544,6040002090237,登記記録の閉鎖等,0,2021-09-02,2021-08-25,有限会社鈴木塗装店,,有限会社,千葉県,柏市,花野井９９８番地４,,12,217,2770812,,,2021-08-25,清算の結了等,,,2015-10-05,1,,,,,スズキトソウテン,0
1545,6040003008329,登記記録の閉鎖等,0,2021-09-02,2021-08-26,桜サク合同会社,,合同会社,千葉県,浦安市,高洲７丁目１番１－１１９号,,12,227,2790023,,,2021-08-26,清算の結了等,,,2016-03-09,1,,,,,サクラサク,0
1552,6050002002182,登記記録の閉鎖等,0,2021-09-02,2021-08-31,有限会社椿商事,,有限会社,茨城県,水戸市,金町２丁目１番５４号,,08,201,3100066,,,2021-08-31,清算の結了等,,,2015-10-05,1,,,,,ツバキショウジ,0
1560,6080402009691,登記記録の閉鎖等,0,2021-09-02,2021-09-01,有限会社トーカイサンケイ,,有限会社,静岡県,湖西市,新居町新居３４４４番地の５６,,22,221,4310302,,,2021-09-01,清算の結了等,,,2015-10-05,1,,,,,トーカイサンケイ,0
1574,6120002039077,登記記録の閉鎖等,0,2021-09-02,2021-08-30,有限会社大和屋,,有限会社,大阪府,大阪市天王寺区,筆ケ崎町５番３９－３５０１号,,27,109,5430027,,,2021-08-30,清算の結了等,,,2015-10-05,1,,,,,ヤマトヤ,0
1591,6140001028657,登記記録の閉鎖等,0,2021-09-02,2021-08-30,株式会社エバックス,,株式会社,兵庫県,芦屋市,緑町１番９－４０１号,,28,206,6590042,,,2021-08-30,清算の結了等,,,2015-10-05,1,,,,,エバックス,0
1600,6160002006800,登記記録の閉鎖等,0,2021-09-02,2021-08-31,有限会社長浜公益社,,有限会社,滋賀県,長浜市,新庄寺町２４６の１番地,,25,203,5260013,,,2021-08-31,清算の結了等,,,2015-10-05,1,,,,,ナガハマコウエキシャ,0
1603,6170001001719,登記記録の閉鎖等,0,2021-09-02,2021-09-01,スペースインターネット株式会社,,株式会社,和歌山県,和歌山市,駕町４０番地ハロービル,,30,201,6408293,,,2021-09-01,清算の結了等,,,2015-10-05,1,,,,,スペースインターネット,0
1622,6180302020409,登記記録の閉鎖等,0,2021-09-02,2021-08-31,有限会社オットシステム,,有限会社,愛知県,高浜市,碧海町３丁目７番地３０,,23,227,4441324,,,2021-08-31,清算の結了等,,,2015-10-05,1,,,,,オットシステム,0
1632,6200002012265,登記記録の閉鎖等,0,2021-09-02,2021-08-30,アヤノゴルフ有限会社,,有限会社,岐阜県,大垣市,綾野６丁目２７番地,,21,202,5030984,,,2021-08-30,清算の結了等,,,2015-10-05,1,,,,,アヤノゴルフ,0
1633,6200003002364,登記記録の閉鎖等,0,2021-09-02,2021-08-31,合資会社新山鐡工所,,合資会社,岐阜県,瑞浪市,寺河戸町１１１０番地,,21,208,5096121,,,2021-08-31,清算の結了等,,,2015-10-05,1,,,,,ニイヤマテッコウショ,0
1692,6360005005507,登記記録の閉鎖等,0,2021-09-02,2021-08-24,一般社団法人浦添市スポーツ協会,,その他の設立登記法人,沖縄県,浦添市,仲間１丁目１３番１号,,47,208,9012103,,,2021-08-24,清算の結了等,,,2017-01-27,1,,,,,ウラソエシスポーツキョウカイ,0
1695,6370001039945,登記記録の閉鎖等,0,2021-09-02,2021-08-27,株式会社宮城野フーズシステム,,株式会社,宮城県,仙台市宮城野区,小田原弓ノ町１０１番地の２,,04,102,9830812,,,2021-08-27,清算の結了等,,,2016-07-11,1,,,,,ミヤギノフーズシステム,0
1698,6370002015796,登記記録の閉鎖等,0,2021-09-02,2021-08-27,有限会社イースト設計,,有限会社,宮城県,仙台市宮城野区,鶴ケ谷東１丁目９番１７号,,04,102,9830826,,,2021-08-27,清算の結了等,,,2015-10-05,1,,,,,イーストセッケイ,0
1701,6370003000293,登記記録の閉鎖等,0,2021-09-02,2021-08-26,昭和陶業合同会社,,合同会社,宮城県,仙台市青葉区,大町２丁目１４番８号,,04,101,9800804,,,2021-08-26,清算の結了等,,,2015-10-05,1,,,,,ショウワトウギョウ,0
1714,6420001007649,登記記録の閉鎖等,0,2021-09-02,2021-08-30,株式会社和光ライフ,,株式会社,青森県,三戸郡三戸町,大字川守田字冷水６７番地１,,02,441,0390141,,,2021-08-30,清算の結了等,,,2015-10-05,1,,,,,ワコウライフ,0
1718,6430001061001,登記記録の閉鎖等,0,2021-09-02,2021-08-24,ステラコンストラクト株式会社,,株式会社,北海道,札幌市中央区,南一条西７丁目１２番地６,,01,101,0600061,,,2021-08-24,清算の結了等,,,2015-10-05,1,,,,,ステラコンストラクト,0
1737,7010001037661,登記記録の閉鎖等,0,2021-09-02,2021-08-30,株式会社ヴェントゥーノ,,株式会社,東京都,中央区,八丁堀４丁目５番１２号,,13,102,1040032,,,2021-08-30,清算の結了等,,,2015-10-05,1,,,,,ヴェントゥーノ,0
1746,7010003029780,登記記録の閉鎖等,0,2021-09-02,2021-08-26,合同会社小石川,,合同会社,東京都,文京区,小石川３丁目３２番１１号,,13,105,1120002,,,2021-08-26,清算の結了等,,,2019-05-13,1,,,,,コイシカワ,0
1753,7010401159089,登記記録の閉鎖等,0,2021-09-02,2021-08-25,株式会社ＲＡＹＦＯＸ,,株式会社,東京都,港区,赤坂２丁目２１番４号天翔赤坂ＡＮＮＥＸ４１２号室,,13,103,1070052,,,2021-08-25,清算の結了等,,,2021-03-29,1,,,,,レイフォックス,0
1758,7010403006652,登記記録の閉鎖等,0,2021-09-02,2021-08-24,合同会社ワグナリウム,,合同会社,東京都,港区,赤坂３丁目２番６号赤坂中央ビルアクタスマネジメントサービス株式会社内,,13,103,1070052,,,2021-08-24,清算の結了等,,,2015-10-05,1,,,,,ワグナリウム,0
1762,7010702009199,登記記録の閉鎖等,0,2021-09-02,2021-09-01,有限会社品川工具研磨工業所,,有限会社,東京都,品川区,南大井１丁目６番１２号,,13,109,1400013,,,2021-09-01,清算の結了等,,,2015-10-05,1,,,,,シナガワコウグケンマコウギョウショ,0
1776,7011101073010,登記記録の閉鎖等,0,2021-09-02,2021-08-20,株式会社ハウステック,,株式会社,東京都,新宿区,市谷仲之町３番１４－２０５号,,13,104,1620064,,,2021-08-20,清算の結了等,,,2015-10-05,1,,,,,ハウステック,0
1794,7012302002609,登記記録の閉鎖等,0,2021-09-02,2021-08-23,有限会社末広商事,,有限会社,東京都,町田市,鶴川４丁目４番地２６,,13,209,1950061,,,2021-08-23,清算の結了等,,,2015-10-05,1,,,,,,0
1795,7012302007665,登記記録の閉鎖等,0,2021-09-02,2021-08-18,有限会社ｗｅｅｄ,,有限会社,東京都,町田市,南町田５丁目４－７,,13,209,1940005,,,2021-08-18,清算の結了等,,,2015-10-05,1,,,,,ウィード,0
1819,7020005013253,登記記録の閉鎖等,0,2021-09-02,2021-08-19,一般社団法人シルクレール,,その他の設立登記法人,東京都,町田市,原町田６丁目１０番１５号新光町田ビル５階,,13,209,1940013,,,2021-08-19,清算の結了等,,,2017-08-16,1,,,,,シルクレール,0
1826,7021002054356,登記記録の閉鎖等,0,2021-09-02,2021-08-30,有限会社あねすと湘南,,有限会社,神奈川県,小田原市,西酒匂１丁目３番８号,,14,206,2560817,,,2021-08-30,清算の結了等,,,2015-10-05,1,,,,,アネストショウナン,0
1842,7050001034663,登記記録の閉鎖等,0,2021-09-02,2021-08-27,株式会社渡辺機工,,株式会社,茨城県,下妻市,平方２５８番地１,,08,210,3040001,,,2021-08-27,清算の結了等,,,2015-10-05,1,,,,,ワタナベキコウ,0
1868,7120001199994,登記記録の閉鎖等,0,2021-09-02,2021-08-26,株式会社タウンメッセンジャー,,株式会社,大阪府,大阪市福島区,福島６丁目２４番１９号,,27,103,5530003,,,2021-08-26,清算の結了等,,,2016-08-05,1,,,,,タウンメッセンジャー,0
1932,7230001014746,登記記録の閉鎖等,0,2021-09-02,2021-08-26,株式会社黎明,,株式会社,富山県,魚津市,三ケ２２７番地７３,,16,204,9370857,,,2021-08-26,合併による解散等,8230001006998,令和３年８月１日富山県魚津市三ケ２２７番地７３魚津海陸運輸倉庫株式会社（8230001006998）に合併し解散,2015-10-05,1,,,,,レイメイ,0
1934,7230005007639,登記記録の閉鎖等,0,2021-09-02,2021-08-30,一般社団法人太閤山カントリークラブ,,その他の設立登記法人,富山県,射水市,平野１番地,,16,211,9390323,,,2021-08-30,清算の結了等,,,2015-10-05,1,,,,,タイコウヤマカントリークラブ,0
1937,7240002004571,登記記録の閉鎖等,0,2021-09-02,2021-08-30,有限会社銀の糸,,有限会社,広島県,広島市西区,中広町３丁目８番１２－２号,,34,104,7330012,,,2021-08-30,清算の結了等,,,2015-10-05,1,,,,,ギンノイト,0
1938,7240002013696,登記記録の閉鎖等,0,2021-09-02,2021-08-27,有限会社ひしひら,,有限会社,広島県,広島市西区,観音町８番３号,,34,104,7330031,,,2021-08-27,清算の結了等,,,2015-10-05,1,,,,,ヒシヒラ,0
1960,7290805009226,登記記録の閉鎖等,0,2021-09-02,2021-08-23,特定非営利活動法人福岡県遺品整理・終活・家のサポートセンター,,その他の設立登記法人,福岡県,北九州市八幡西区,大字楠橋４４８２番地２,,40,109,8071151,,,2021-08-23,清算の結了等,,,2019-07-04,1,,,,,フクオカケンイヒンセイリシュウカツイエノサポートセンター,0
1981,7370605000046,登記記録の閉鎖等,0,2021-09-02,2021-08-24,医療法人社団岩井内科クリニック,,その他の設立登記法人,宮城県,多賀城市,中央３丁目１１番３３号,,04,209,9850873,,,2021-08-24,清算の結了等,,,2015-10-05,1,,,,,イワイナイカクリニック,0
2004,7500001007152,登記記録の閉鎖等,0,2021-09-02,2021-08-25,株式会社東温土木,,株式会社,愛媛県,東温市,下林５１９番地４,,38,215,7910222,,,2021-08-25,清算の結了等,,,2015-10-05,1,,,,,トウオンドボク,0
2017,8010001203849,登記記録の閉鎖等,0,2021-09-02,2021-08-30,ＭＥＣ・ＭＣ空港運営株式会社,,株式会社,東京都,千代田区,大手町１丁目１番１号,,13,101,1000004,,,2021-08-30,清算の結了等,,,2019-09-10,1,,,,,メックエムシークウコウウンエイ,0
2025,8010005021355,登記記録の閉鎖等,0,2021-09-02,2021-08-27,一般社団法人日本建築塗装職人の会,,その他の設立登記法人,東京都,千代田区,内神田３丁目２番１号,,13,101,1010047,,,2021-08-27,清算の結了等,,,2015-10-05,1,,,,,ニホンケンチクトソウショクニンノカイ,0
2028,8010101006887,登記記録の閉鎖等,0,2021-09-02,2021-08-31,株式会社青果・内田,,株式会社,東京都,八王子市,田町４番１４号,,13,201,1920064,,,2021-08-31,清算の結了等,,,2015-10-05,1,,,,,セイカウチダ,0
2033,8010403024934,登記記録の閉鎖等,0,2021-09-02,2021-08-23,Ｎｉｐｐｏｎ　Ｈｅａｌｔｈｃａｒｅ　Ｐｒｏｐｅｒｔｉｅｓ　Ｉ合同会社,,合同会社,東京都,港区,赤坂７丁目６番１５号,,13,103,1070052,,,2021-08-23,清算の結了等,,,2021-03-31,1,,,,,ニッポンヘルスケアプロパティーズワン,0
2050,8011001023650,登記記録の閉鎖等,0,2021-09-02,2021-08-23,山手綜合地所株式会社,,株式会社,東京都,渋谷区,渋谷３丁目２７番１５号,,13,113,1500002,,,2021-08-23,清算の結了等,,,2018-04-06,1,,,,,ヤマテソウゴウチショ,0
2054,8011105004200,登記記録の閉鎖等,0,2021-09-02,2021-06-29,弁護士法人山田法律事務所,,その他の設立登記法人,東京都,新宿区,新宿２丁目２番１０号サニープラザ新宿御苑３０５,,13,104,1600022,,,2021-06-29,清算の結了等,,,2015-10-05,1,,,,,ヤマダホウリツジムショ,0
2064,8011701013281,登記記録の閉鎖等,0,2021-09-02,2021-08-30,株式会社新興,,株式会社,東京都,江戸川区,西一之江４丁目１４番１４号,,13,123,1320023,,,2021-08-30,清算の結了等,,,2015-10-05,1,,,,,シンコウ,0
2067,8011801002878,登記記録の閉鎖等,0,2021-09-02,2021-08-31,田中運送株式会社,,株式会社,東京都,葛飾区,新宿１丁目７番３号,,13,122,1250051,,,2021-08-31,清算の結了等,,,2015-10-05,1,,,,,タナカウンソウ,0
2071,8011801031885,登記記録の閉鎖等,0,2021-09-02,2021-08-31,ＭＭ株式会社,,株式会社,東京都,足立区,千住宮元町１９番１０号,,13,121,1200043,,,2021-08-31,清算の結了等,,,2016-05-31,1,,,,,エムエム,0
2085,8021001034135,登記記録の閉鎖等,0,2021-09-02,2021-08-30,ときわ建設株式会社,,株式会社,神奈川県,足柄上郡開成町,吉田島４３０２番地９,,14,366,2580021,,,2021-08-30,清算の結了等,,,2015-10-05,1,,,,,トキワケンセツ,0
2091,8021002057085,登記記録の閉鎖等,0,2021-09-02,2021-08-30,有限会社大関フーズ,,有限会社,神奈川県,平塚市,明石町１番２３号,,14,203,2540042,,,2021-08-30,清算の結了等,,,2015-10-05,1,,,,,オオゼキフーズ,0
2093,8021003003014,登記記録の閉鎖等,0,2021-09-02,2021-08-30,合資会社高砂,00014092,合資会社,神奈川県,逗子市,逗子７丁目１番５３号,,14,208,2490006,,,2021-08-30,清算の結了等,,,2015-10-05,1,,,,,,0
2114,8030002041098,登記記録の閉鎖等,0,2021-09-02,2021-08-24,有限会社小林登商店,,有限会社,埼玉県,加須市,大門町１９番２５号,,11,210,3470068,,,2021-08-24,清算の結了等,,,2015-10-05,1,,,,,コバヤシノボルショウテン,0
2166,8120002045494,登記記録の閉鎖等,0,2021-09-02,2021-08-26,有限会社ミッデル,,有限会社,大阪府,大阪市淀川区,三国本町２丁目１７番３号,,27,123,5320005,,,2021-08-26,清算の結了等,,,2015-10-05,1,,,,,ミッデル,0
2174,8120102017286,登記記録の閉鎖等,0,2021-09-02,2021-08-31,有限会社三栄,,有限会社,大阪府,南河内郡太子町,大字山田２６７３番地,,27,381,5830992,,,2021-08-31,清算の結了等,,,2015-10-05,1,,,,,サンエイ,0
2210,8180301017288,登記記録の閉鎖等,0,2021-09-02,2021-08-31,株式会社葬奏,,株式会社,愛知県,刈谷市,熊野町２丁目４番地１４,,23,210,4480831,,,2021-08-31,清算の結了等,,,2015-10-05,1,,,,,ソウソウ,0
2239,8240002044617,登記記録の閉鎖等,0,2021-09-02,2021-08-27,有限会社アレックスジャパン,,有限会社,広島県,福山市,本庄町中１丁目２８番１９号城北マンション３０７号,,34,207,7200076,,,2021-08-27,清算の結了等,,,2015-10-05,1,,,,,アレックスジャパン,0
2261,8290802023889,登記記録の閉鎖等,0,2021-09-02,2021-08-23,有限会社毎輸,,有限会社,福岡県,京都郡苅田町,大字苅田３７８７番地７３,,40,621,8000365,,,2021-08-23,清算の結了等,,,2015-10-05,1,,,,,マイユ,0
2262,8300002004556,登記記録の閉鎖等,0,2021-09-02,2021-08-27,有限会社佐賀美建,,有限会社,佐賀県,小城市,三日月町久米２２５６番地,,41,208,8450022,,,2021-08-27,清算の結了等,,,2015-10-05,1,,,,,サガビケン,0
2285,8370502000131,登記記録の閉鎖等,0,2021-09-02,2021-08-26,有限会社オガタ,,有限会社,宮城県,気仙沼市,神山１２番地の６,,04,205,9880044,,,2021-08-26,清算の結了等,,,2015-10-05,1,,,,,オガタ,0
2294,8430001051173,登記記録の閉鎖等,0,2021-09-02,2021-09-01,株式会社ホクブテック,,株式会社,北海道,小樽市,銭函３丁目５１４番地２,,01,203,0470261,,,2021-09-01,清算の結了等,,,2015-10-05,1,,,,,ホクブテック,0
2335,9010405016235,登記記録の閉鎖等,0,2021-09-02,2021-08-19,一般社団法人国際パートナーズ支援協会,,その他の設立登記法人,東京都,港区,虎ノ門１丁目１６番６号虎ノ門ＲＡＰＯ－ＴＯビルＶＣＦ７０３,,13,103,1050001,,,2021-08-19,清算の結了等,,,2017-11-24,1,,,,,コクサイパートナーズシエンキョウカイ,0
2337,9010501037317,登記記録の閉鎖等,0,2021-09-02,2021-08-31,株式会社Ｇｒａｎｄ　Ｂｒｉｄｇｅ,,株式会社,東京都,足立区,大谷田１丁目８番４号,,13,121,1200001,,,2021-08-31,清算の結了等,,,2015-10-05,1,,,,,グランドブリッジ,0
2350,9011001063415,登記記録の閉鎖等,0,2021-09-02,2021-08-25,株式会社シロクロ,,株式会社,東京都,目黒区,駒場４丁目５－７駒場四丁目テラス２Ｆ,,13,110,1530041,,,2021-08-25,清算の結了等,,,2015-10-05,1,,,,,,0
2359,9011105001436,登記記録の閉鎖等,0,2021-09-02,2021-08-20,丸全青果事業協同組合,,その他の設立登記法人,東京都,新宿区,北新宿４丁目２番１号,,13,104,1690074,,,2021-08-20,清算の結了等,,,2015-10-05,1,,,,,マルゼンセイカ,0
2362,9011202004663,登記記録の閉鎖等,0,2021-09-02,2021-08-27,有限会社根岸商店,,有限会社,東京都,中野区,東中野１丁目２７番４号,,13,114,1640003,,,2021-08-27,清算の結了等,,,2015-10-05,1,,,,,ネギシショウテン,0
2364,9011601024568,登記記録の閉鎖等,0,2021-09-02,2021-08-24,株式会社チャームジャパン,,株式会社,東京都,新宿区,新宿３丁目１２番４号新宿Ｎタウンプラザ３０９号,,13,104,1600022,,,2021-08-24,清算の結了等,,,2020-10-13,1,,,,,チャームジャパン,0
2391,9030001035232,登記記録の閉鎖等,0,2021-09-02,2021-08-25,高山特機販売株式会社,,株式会社,埼玉県,草加市,高砂２丁目１７番１１号,,11,221,3400015,,,2021-08-25,清算の結了等,,,2015-10-05,1,,,,,タカヤマトッキハンバイ,0
2406,9040003008128,登記記録の閉鎖等,0,2021-09-02,2021-08-26,合同会社ＭＡＹＡ企画,,合同会社,千葉県,茂原市,高師町３丁目２番地１０,,12,210,2970021,,,2021-08-26,清算の結了等,,,2016-01-20,1,,,,,マヤキカク,0
2414,9050002017450,登記記録の閉鎖等,0,2021-09-02,2021-08-30,有限会社古橋陶器瓦店,,有限会社,茨城県,結城郡八千代町,大字新地８１９番地,,08,521,3003541,,,2021-08-30,清算の結了等,,,2015-10-05,1,,,,,フルハシトウキカワラテン,0
2429,9120001057787,登記記録の閉鎖等,0,2021-09-02,2021-08-26,株式会社パーマサロンいこい,,株式会社,大阪府,大阪市淀川区,東三国１丁目１９番３０号,,27,123,5320002,,,2021-08-26,清算の結了等,,,2015-10-05,1,,,,,パーマサロンイコイ,0
2433,9120001198532,登記記録の閉鎖等,0,2021-09-02,2021-08-26,Ｍ．Ｍ．Ｃ　Ｉｎｔｅｒｎａｔｉｏｎａｌ株式会社,,株式会社,大阪府,大阪市西区,北堀江２丁目４－１１サンライズビル１０Ｆ－３０号室,,27,106,5500014,,,2021-08-26,清算の結了等,,,2016-05-31,1,,,,,エムエムシーインターナショナル,0
2434,9120001210916,登記記録の閉鎖等,0,2021-09-02,2021-08-31,株式会社メイクレットリヨン,,株式会社,大阪府,大阪市中央区,安土町３丁目３番５号,,27,128,5410052,,,2021-08-31,清算の結了等,,,2018-01-25,1,,,,,メイクレットリヨン,0
2440,9120002024621,登記記録の閉鎖等,0,2021-09-02,2021-08-27,有限会社ウィングス,,有限会社,大阪府,大阪市東淀川区,淡路２丁目５番１１号,,27,114,5330032,,,2021-08-27,清算の結了等,,,2015-10-05,1,,,,,ウィングス,0
2454,9140001059138,登記記録の閉鎖等,0,2021-09-02,2021-08-24,株式会社サンホーム,,株式会社,兵庫県,姫路市,船丘町２９８番地日新ビル,,28,201,6700034,,,2021-08-24,清算の結了等,,,2015-10-05,1,,,,,サンホーム,0
2475,9180002071526,登記記録の閉鎖等,0,2021-09-02,2021-08-31,有限会社エリカ洋菓子店,,有限会社,愛知県,瀬戸市,京町２丁目１０番地,,23,204,4890804,,,2021-08-31,清算の結了等,,,2015-10-05,1,,,,,エリカヨウガシテン,0
2480,9180302017294,登記記録の閉鎖等,0,2021-09-02,2021-08-31,有限会社三浦商店,,有限会社,愛知県,安城市,小川町的場１０１番地７,,23,212,4441162,,,2021-08-31,清算の結了等,,,2015-10-05,1,,,,,ミウラショウテン,0
2496,9220002002369,登記記録の閉鎖等,0,2021-09-02,2021-08-31,黒田商事有限会社,,有限会社,石川県,金沢市,菊川２丁目９番２６号,,17,201,9200967,,,2021-08-31,清算の結了等,,,2015-10-05,1,,,,,クロダショウジ,0
2497,9230001005231,登記記録の閉鎖等,0,2021-09-02,2021-08-30,株式会社上田工務店,,株式会社,富山県,富山市,田畠１７６０番地,,16,201,9301331,,,2021-08-30,清算の結了等,,,2015-10-05,1,,,,,ウエダコウムテン,0
2499,9240001023315,登記記録の閉鎖等,0,2021-09-02,2021-08-27,藤原鍛工株式会社,,株式会社,広島県,東広島市,安芸津町風早字新開３１４２番地,,34,212,7392403,,,2021-08-27,清算の結了等,,,2015-10-05,1,,,,,,0
2503,9240001023983,登記記録の閉鎖等,0,2021-09-02,2021-08-27,大朝観光開発株式会社,,株式会社,広島県,山県郡北広島町,大朝２４６１番地,,34,369,7312104,,,2021-08-27,清算の結了等,,,2015-10-05,1,,,,,,0
2510,9240002053344,登記記録の閉鎖等,0,2021-09-02,2021-08-27,有限会社竜三工業,,有限会社,広島県,三原市,須波ハイツ３丁目１９番２６号,,34,204,7230035,,,2021-08-27,清算の結了等,,,2015-10-05,1,,,,,タツミコウギョウ,0
2511,9240005002851,登記記録の閉鎖等,0,2021-09-02,2021-08-20,特定非営利活動法人まごころ,,その他の設立登記法人,広島県,広島市西区,己斐本町１丁目１３番７号２０２,,34,104,7330812,,,2021-08-20,清算の結了等,,,2015-10-05,1,,,,,マゴコロ,0
2517,9260002010145,登記記録の閉鎖等,0,2021-09-02,2021-09-01,有限会社八木タンス店,,有限会社,岡山県,岡山市中区,小橋町２丁目４番３９号,,33,102,7038293,,,2021-09-01,清算の結了等,,,2015-10-05,1,,,,,ヤギタンステン,0
2521,9290001067241,登記記録の閉鎖等,0,2021-09-02,2021-08-12,株式会社キャストアイアン・リンク,,株式会社,福岡県,福岡市博多区,中洲３丁目４番７号,,40,132,8100801,,,2021-08-12,清算の結了等,,,2015-10-05,1,,,,,キャストアイアンリンク,0
2532,9330001022530,登記記録の閉鎖等,0,2021-09-02,2021-09-01,株式会社コムテックス,,株式会社,熊本県,熊本市中央区,安政町１番２号,,43,101,8600801,,,2021-09-01,合併による解散等,5330001005877,令和３年９月１日熊本市中央区安政町１番２号株式会社カリーノファシリティーズ（5330001005877）に合併し解散,2016-02-22,1,,,,,コムテックス,0
2533,9340002008528,登記記録の閉鎖等,0,2021-09-02,2021-08-30,有限会社フラワー産業,,有限会社,鹿児島県,鹿児島市,西千石町２番３５号,,46,201,8920847,,,2021-08-30,清算の結了等,,,2015-10-05,1,,,,,フラワーサンギョウ,0
2548,9400502000192,登記記録の閉鎖等,0,2021-09-02,2021-08-30,有限会社阿部工務店,,有限会社,岩手県,一関市,宮前町１６番１３号,,03,209,0210012,,,2021-08-30,清算の結了等,,,2015-10-05,1,,,,,アベコウムテン,0
