sequenceNumber,corporateNumber,process,correct,updateDate,changeDate,name,nameImageId,kind,prefectureName,cityName,streetNumber,addressImageId,prefectureCode,cityCode,postCode,addressOutside,addressOutsideImageId,closeDate,closeCause,successorCorporateNumber,changeCause,assignmentDate,latest,enName,enPrefectureName,enCityName,enAddressOutside,furigana,hihyoji
7,1010102011216,登記記録の閉鎖等,0,2024-04-09,2024-04-05,有限会社リーべ,,有限会社,東京都,あきる野市,秋川４丁目２番地５,,13,228,1970804,,,2024-04-05,清算の結了等,,,2015-10-05,1,,,,,リーベ,0
17,1010501049542,登記記録の閉鎖等,0,2024-04-09,2024-04-01,株式会社プラス,,株式会社,東京都,台東区,上野６丁目８番１９号,,13,106,1100005,,,2024-04-01,清算の結了等,,,2022-10-25,1,,,,,プラス,0
26,1010902023922,登記記録の閉鎖等,0,2024-04-09,2024-04-03,有限会社Ｋダッシュ,,有限会社,東京都,世田谷区,等々力６丁目１１番１５号等々力ビューハイツ８０４号,,13,112,1580082,,,2024-04-03,清算の結了等,,,2015-10-05,1,,,,,,0
27,1011001033854,登記記録の閉鎖等,0,2024-04-09,2024-04-01,株式会社秀朋,,株式会社,東京都,新宿区,西新宿６丁目２３番１号,,13,104,1600023,,,2024-04-01,清算の結了等,,,2015-10-05,1,,,,,シュウホウ,0
38,1011105002664,登記記録の閉鎖等,0,2024-04-09,2024-04-01,一般社団法人３３０－Ａ地区支援会,,その他の設立登記法人,東京都,新宿区,北新宿１丁目３６番６号ダイナシティ西新宿１階,,13,104,1690074,,,2024-04-01,清算の結了等,,,2015-10-05,1,,,,,サンサンマルエーチクシエンカイ,0
56,1011802008030,登記記録の閉鎖等,0,2024-04-09,2024-04-03,有限会社山岸,,有限会社,東京都,葛飾区,立石７丁目１番９号,,13,122,1240012,,,2024-04-03,清算の結了等,,,2015-10-05,1,,,,,ヤマギシ,0
71,1020002000499,登記記録の閉鎖等,0,2024-04-09,2024-04-04,大日工業有限会社,,有限会社,神奈川県,横浜市栄区,犬山町３０番７号,,14,115,2470026,,,2024-04-04,清算の結了等,,,2015-10-05,1,,,,,ダイニチコウギョウ,0
88,1021002016023,登記記録の閉鎖等,0,2024-04-09,2024-04-03,有限会社ときわ,,有限会社,神奈川県,鎌倉市,常盤仲ノ坂９４６番地３,,14,204,2480022,,,2024-04-03,清算の結了等,,,2015-10-05,1,,,,,トキワ,0
90,1021003009447,登記記録の閉鎖等,0,2024-04-09,2024-04-03,合同会社デリスター,,合同会社,神奈川県,横須賀市,舟倉１丁目１０番２４号双葉ハウス５号,,14,201,2390805,,,2024-04-03,清算の結了等,,,2020-06-23,1,,,,,デリスター,0
93,1030001128373,登記記録の閉鎖等,0,2024-04-09,2024-04-03,株式会社ＫＳＯカンパニー,,株式会社,埼玉県,越谷市,谷中町２丁目２２１番地１,,11,222,3430856,,,2024-04-03,清算の結了等,,,2018-11-27,1,,,,,ケーエスオーカンパニー,0
100,1030002079260,登記記録の閉鎖等,0,2024-04-09,2024-04-02,関東古川電装有限会社,,有限会社,埼玉県,川越市,大字砂新田４０７番地３２,,11,201,3501137,,,2024-04-02,清算の結了等,,,2015-10-05,1,,,,,カントウフルカワデンソウ,0
101,1030002101503,登記記録の閉鎖等,0,2024-04-09,2024-04-03,有限会社川口庭苑,,有限会社,埼玉県,川口市,大字木曽呂１０番地の４,,11,203,3330831,,,2024-04-03,清算の結了等,,,2015-10-05,1,,,,,カワグチテイエン,0
102,1030002105470,登記記録の閉鎖等,0,2024-04-09,2024-04-03,有限会社はやし,,有限会社,埼玉県,川口市,幸町２丁目７番３６号,,11,203,3320016,,,2024-04-03,清算の結了等,,,2015-10-05,1,,,,,ハヤシ,0
139,1090005001208,登記記録の閉鎖等,0,2024-04-09,2024-04-01,一般財団法人甲南健康福祉協会,,その他の設立登記法人,山梨県,甲斐市,玉川２５１番地４,,19,210,4000116,,,2024-04-01,合併による解散等,5090005000107,令和６年４月１日山梨県甲府市宝一丁目４番１６号公益財団法人山梨県健康管理事業団（5090005000107）に合併し解散,2015-10-05,1,,,,,コウナンケンコウフクシキョウカイ,0
141,1110002012089,登記記録の閉鎖等,0,2024-04-09,2024-04-01,有限会社愛和,,有限会社,新潟県,新潟市江南区,俵柳１７６番地,,15,104,9501143,,,2024-04-01,合併による解散等,3110001006156,令和６年４月１日新潟市中央区下大川前通四ノ町２１８６番地株式会社はあとふるあたご（3110001006156）に合併し解散,2015-10-05,1,,,,,アイワ,0
167,1120101068618,登記記録の閉鎖等,0,2024-04-09,2024-04-01,カンタツホールディングス株式会社,,株式会社,大阪府,堺市堺区,匠町１番地,,27,141,5900908,,,2024-04-01,清算の結了等,,,2023-12-04,1,,,,,カンタツホールディングス,0
184,1140001006824,登記記録の閉鎖等,0,2024-04-09,2024-04-03,香川鉄工株式会社,,株式会社,兵庫県,神戸市中央区,橘通４丁目１番４号,,28,110,6500016,,,2024-04-03,清算の結了等,,,2015-10-05,1,,,,,カガワテッコウ,0
193,1160001009890,登記記録の閉鎖等,0,2024-04-09,2024-04-03,株式会社コザワ,,株式会社,滋賀県,東近江市,八日市上之町７番３９号,,25,213,5270022,,,2024-04-03,清算の結了等,,,2015-10-05,1,,,,,コザワ,0
197,1180001075337,登記記録の閉鎖等,0,2024-04-09,2024-04-01,東洋電機ファシリティーサービス株式会社,,株式会社,愛知県,春日井市,味美町２丁目１５６番地,,23,206,4860968,,,2024-04-01,合併による解散等,2180001074585,令和６年４月１日愛知県春日井市味美町二丁目１５６番地東洋電機株式会社（2180001074585）に合併し解散,2015-10-05,1,,,,,トウヨウデンキファシリティーサービス,0
216,1200001016156,登記記録の閉鎖等,0,2024-04-09,2024-04-02,株式会社アサヒヤ,,株式会社,岐阜県,揖斐郡池田町,池野２４２番地,,21,404,5032424,,,2024-04-02,清算の結了等,,,2015-10-05,1,,,,,,0
222,1220005005236,登記記録の閉鎖等,0,2024-04-09,2024-04-01,七尾かもめ商業協同組合,,その他の設立登記法人,石川県,七尾市,三島町７０番地１,,17,202,9260802,,,2024-04-01,清算の結了等,,,2015-10-05,1,,,,,ナナオカモメショウギョウ,0
226,1230001017119,登記記録の閉鎖等,0,2024-04-09,2024-04-03,株式会社リベルダージ,,株式会社,富山県,富山市,総曲輪１丁目８番３号,,16,201,9300083,,,2024-04-03,清算の結了等,,,2017-09-06,1,,,,,リベルダージ,0
237,1290001050824,登記記録の閉鎖等,0,2024-04-09,2024-04-03,ライゴーエキスプレス株式会社,,株式会社,福岡県,久留米市,御井旗崎４丁目６番５０号,,40,203,8390841,,,2024-04-03,合併による解散等,7330001001065,令和６年４月１日熊本市東区小山町１９２２番地５九州栄孝エキスプレス株式会社（7330001001065）に合併し解散,2015-10-05,1,,,,,ライゴーエキスプレス,0
247,1300005004452,登記記録の閉鎖等,0,2024-04-09,2024-04-05,特定非営利活動法人有田町どっとこむ,,その他の設立登記法人,佐賀県,西松浦郡有田町,本町丙９７２番地３２,,41,401,8440018,,,2024-04-05,清算の結了等,,,2015-10-05,1,,,,,アリタチョウドットコム,0
270,1370201000125,登記記録の閉鎖等,0,2024-04-09,2024-04-04,株式会社共同システムサービス,,株式会社,宮城県,大崎市,古川沢田字新原際１０５番地,,04,215,9896232,,,2024-04-04,合併による解散等,8110001001714,令和６年４月１日新潟市中央区上大川前通六番町１２１４番地２株式会社キャリアステーション（8110001001714）に合併し解散,2015-10-05,1,,,,,キョウドウシステムサービス,0
276,1420001006432,登記記録の閉鎖等,0,2024-04-09,2024-04-01,熊さん第三工場株式会社,,株式会社,青森県,八戸市,城下４丁目１０番４０号,,02,203,0310072,,,2024-04-01,合併による解散等,6420001005801,令和６年４月１日青森県八戸市大字常海町１６番地熊さん株式会社（6420001005801）に合併し解散,2015-10-05,1,,,,,クマサンダイサンコウジョウ,0
277,1420001012736,登記記録の閉鎖等,0,2024-04-09,2024-04-01,株式会社大輝フーズ,,株式会社,青森県,むつ市,大畑町鳥谷場１７８番地２,,02,208,0394401,,,2024-04-01,清算の結了等,,,2015-10-05,1,,,,,タイキフーズ,0
288,1430002032625,登記記録の閉鎖等,0,2024-04-09,2024-04-02,有限会社テレシステム,,有限会社,北海道,札幌市中央区,南九条西６丁目１番２５－２０１号,,01,101,0640809,,,2024-04-02,清算の結了等,,,2015-10-05,1,,,,,テレシステム,0
292,1460002002848,登記記録の閉鎖等,0,2024-04-09,2024-04-08,有限会社マリヤ,,有限会社,北海道,釧路市,共栄大通１丁目３番２号,,01,206,0850035,,,2024-04-08,清算の結了等,,,2015-10-05,1,,,,,マリヤ,0
304,2010001009244,登記記録の閉鎖等,0,2024-04-09,2024-04-01,株式会社麻屋三英社,,株式会社,埼玉県,川口市,中青木２丁目２２番２号,,11,203,3320032,,,2024-04-01,清算の結了等,,,2015-10-05,1,,,,,アサヤサンエイシャ,0
334,2010401150341,登記記録の閉鎖等,0,2024-04-09,2024-04-01,株式会社コモド,,株式会社,東京都,港区,赤坂２丁目５番２７号,,13,103,1070052,,,2024-04-01,合併による解散等,3010401052025,令和６年４月１日東京都港区西新橋二丁目１３番１０号株式会社エス・ケー・アイ（3010401052025）に合併し解散,2020-01-14,1,,,,,コモド,0
343,2010601038254,登記記録の閉鎖等,0,2024-04-09,2024-04-02,オルガノエコテクノ株式会社,,株式会社,東京都,江東区,新砂１丁目２番８号,,13,108,1360075,,,2024-04-02,合併による解散等,3010601025111,令和６年４月１日東京都江東区新砂一丁目２番８号オルガノ株式会社（3010601025111）に合併し解散,2015-10-05,1,,,,,オルガノエコテクノ,0
344,2010701022793,登記記録の閉鎖等,0,2024-04-09,2024-03-28,株式会社エコフレンド,,株式会社,東京都,品川区,南大井３丁目２３番１５号,,13,109,1400013,,,2024-03-28,清算の結了等,,,2015-10-05,1,,,,,エコフレンド,0
348,2010901011720,登記記録の閉鎖等,0,2024-04-09,2024-04-01,株式会社蓑原計画事務所,,株式会社,東京都,中央区,築地６丁目１８番４－９０５号,,13,102,1040045,,,2024-04-01,清算の結了等,,,2015-10-05,1,,,,,ミノハラケイカクジムショ,0
358,2011001142209,登記記録の閉鎖等,0,2024-04-09,2024-04-02,株式会社ｓｔｕｄｉｏｈｕａ,,株式会社,東京都,渋谷区,神宮前６丁目２９番４号原宿ｋｏｍｉｙａビル６階,,13,113,1500001,,,2024-04-02,清算の結了等,,,2021-08-20,1,,,,,スタジオフア,0
363,2011103011641,登記記録の閉鎖等,0,2024-04-09,2024-04-01,合同会社ＡＲＫ　Ｐｒｏｄｕｃｔｉｏｎ,,合同会社,東京都,新宿区,北新宿１丁目２７－１２グランドステータス北新宿３階,,13,104,1690074,,,2024-04-01,清算の結了等,,,2022-04-06,1,,,,,アークプロダクション,0
373,2011802022030,登記記録の閉鎖等,0,2024-04-09,2024-04-04,有限会社美幸,,有限会社,東京都,足立区,東伊興３丁目２０番９号,,13,121,1210801,,,2024-04-04,合併による解散等,6010901003581,令和６年４月１日東京都世田谷区成城七丁目８番１８号株式会社グラム（6010901003581）に合併し解散,2015-10-05,1,,,,,ミユキ,0
407,2030001045659,登記記録の閉鎖等,0,2024-04-09,2024-04-02,三栄電機産業株式会社,,株式会社,埼玉県,新座市,栗原３丁目２番１１号,,11,230,3520035,,,2024-04-02,清算の結了等,,,2015-10-05,1,,,,,サンエイデンキサンギョウ,0
409,2030001061400,登記記録の閉鎖等,0,2024-04-09,2024-04-01,ブライト・キャリアリサーチ株式会社,,株式会社,埼玉県,本庄市,駅南２丁目９番４号,,11,211,3670041,,,2024-04-01,清算の結了等,,,2015-10-05,1,,,,,ブライトキャリアリサーチ,0
417,2030002121764,登記記録の閉鎖等,0,2024-04-09,2024-04-02,有限会社マートやました,,有限会社,埼玉県,秩父市,上町１丁目１０番４号,,11,207,3680035,,,2024-04-02,清算の結了等,,,2015-10-05,1,,,,,マートヤマシタ,0
443,2080002012067,登記記録の閉鎖等,0,2024-04-09,2024-04-01,有限会社グロース,,有限会社,静岡県,静岡市葵区,紺屋町１３番地の４,,22,101,4200852,,,2024-04-01,清算の結了等,,,2015-10-05,1,,,,,グロース,0
448,2090002009401,登記記録の閉鎖等,0,2024-04-09,2024-04-03,有限会社鈴木製作所,,有限会社,山梨県,大月市,七保町下和田１０９０番地９５,,19,206,4090622,,,2024-04-03,清算の結了等,,,2015-10-05,1,,,,,スズキセイサクジョ,0
452,2110002009943,登記記録の閉鎖等,0,2024-04-09,2024-04-01,有限会社ウイング,,有限会社,新潟県,新潟市秋葉区,新栄町１１番２７号,,15,105,9560033,,,2024-04-01,合併による解散等,3110001027895,令和６年４月１日新潟市秋葉区新栄町１１番２７号株式会社レボリューション（3110001027895）に合併し解散,2015-10-05,1,,,,,ウイング,0
455,2120001059336,登記記録の閉鎖等,0,2024-04-09,2024-04-01,日本架線金物株式会社,,株式会社,大阪府,大阪市淀川区,田川北２丁目５番５６号,,27,123,5320021,,,2024-04-01,合併による解散等,3120001045525,令和６年４月１日大阪市港区波除六丁目１番３５号テンクモ株式会社（3120001045525）に合併し解散,2015-10-05,1,,,,,ニホンカセンカナモノ,0
518,2180301011305,登記記録の閉鎖等,0,2024-04-09,2024-04-03,株式会社ジェイテクトコラムシステム東海,,株式会社,愛知県,蒲郡市,浜町２６番地,,23,214,4430036,,,2024-04-03,合併による解散等,5080401006071,令和６年４月１日静岡県湖西市鷲津２０２８番地株式会社ジェイテクトコラムシステム（5080401006071）に合併し解散,2015-10-05,1,,,,,ジェイテクトコラムシステムトウカイ,0
521,2190001004491,登記記録の閉鎖等,0,2024-04-09,2024-04-01,海山建材株式会社,,株式会社,三重県,北牟婁郡紀北町,船津２４３６番地,,24,543,5193405,,,2024-04-01,合併による解散等,5190001004480,令和６年３月３１日三重県北牟婁郡紀北町相賀２９９番地の１株式会社塩谷組（5190001004480）に合併し解散,2015-10-05,1,,,,,ミヤマケンザイ,0
523,2190002022823,登記記録の閉鎖等,0,2024-04-09,2024-04-02,有限会社リバティ,,有限会社,三重県,四日市市,野田２丁目１３番２１号,,24,202,5100815,,,2024-04-02,清算の結了等,,,2015-10-05,1,,,,,リバティ,0
542,2240002032627,登記記録の閉鎖等,0,2024-04-09,2024-04-03,有限会社倉本商店,,有限会社,広島県,呉市,光町１１番１５号１号棟,,34,202,7370831,,,2024-04-03,清算の結了等,,,2015-10-05,1,,,,,クラモトショウテン,0
543,2240003002703,登記記録の閉鎖等,0,2024-04-09,2024-04-03,合同会社赤羽,,合同会社,広島県,広島市佐伯区,三宅５丁目３０２番地,,34,108,7315143,,,2024-04-03,清算の結了等,,,2015-10-05,1,,,,,アカバネ,0
548,2270003001280,登記記録の閉鎖等,0,2024-04-09,2024-04-03,ＦＢＯＸ合同会社,,合同会社,鳥取県,鳥取市,江津１３０１番地,,31,201,6800901,,,2024-04-03,清算の結了等,,,2021-02-01,1,,,,,エフボックス,0
578,2380002005957,登記記録の閉鎖等,0,2024-04-09,2024-04-01,有限会社葛西工業,,有限会社,福島県,福島市,田沢字壇ノ前１２番地７,,07,201,9608156,,,2024-04-01,清算の結了等,,,2015-10-05,1,,,,,カサイコウギョウ,0
596,2480005000895,登記記録の閉鎖等,0,2024-04-09,2024-03-27,秋葉神社,,その他の設立登記法人,徳島県,徳島市,西二軒屋町１丁目４２番地の４,,36,201,7708061,,,2024-03-27,合併による解散等,6480005001444,令和６年３月２７日徳島県徳島市新浜本町二丁目３番６１号徳島県神社庁（6480005001444）に合併し解散,2015-10-05,1,,,,,アキバジンジャ,0
618,3010401019131,登記記録の閉鎖等,0,2024-04-09,2024-04-04,株式会社東機システムサービス,,株式会社,東京都,港区,三田３丁目１１番３６号,,13,103,1080073,,,2024-04-04,合併による解散等,9010401020496,令和６年４月１日東京都港区三田三丁目１１番３６号株式会社東京機械製作所（9010401020496）に合併し解散,2015-10-05,1,,,,,トウキシステムサービス,0
621,3010401054558,登記記録の閉鎖等,0,2024-04-09,2024-04-01,東京レアガス株式会社,,株式会社,東京都,港区,芝公園２丁目４番１号,,13,103,1050011,,,2024-04-01,合併による解散等,7010401054488,令和６年４月１日東京都港区芝公園二丁目４番１号東京ガスケミカル株式会社（7010401054488）に合併し解散,2015-10-05,1,,,,,トウキョウレアガス,0
633,3010601063268,登記記録の閉鎖等,0,2024-04-09,2024-04-01,Ｃａｓｈｍａｌｌｏｗ　Ｊａｐａｎ株式会社,,株式会社,神奈川県,横浜市西区,みなとみらい３丁目７番１号オーシャンゲートみなとみらい９Ｆ,,14,103,2200012,,,2024-04-01,清算の結了等,,,2023-06-14,1,,,,,キャシュマロジャパン,0
634,3010602005244,登記記録の閉鎖等,0,2024-04-09,2024-04-04,有限会社牡丹屋商会,,有限会社,東京都,葛飾区,東立石１丁目９番１号,,13,122,1240013,,,2024-04-04,合併による解散等,2010601006649,令和６年３月１日東京都江東区新大橋三丁目９番１号株式会社牡丹屋（2010601006649）に合併し解散,2015-10-05,1,,,,,,0
640,3011001128652,登記記録の閉鎖等,0,2024-04-09,2024-04-05,株式会社セカンド・ストライク,,株式会社,東京都,目黒区,東山３丁目２２番１６－２１１号,,13,110,1530043,,,2024-04-05,合併による解散等,3040001097979,令和６年２月２９日千葉県八街市滝台１５７４番１株式会社プロテック（3040001097979）に合併し解散,2019-06-25,1,,,,,セカンドストライク,0
645,3011101024735,登記記録の閉鎖等,0,2024-04-09,2024-04-01,株式会社ヒューマックスコミュニケーションズ,,株式会社,東京都,新宿区,西新宿３丁目２０番２号,,13,104,1600023,,,2024-04-01,合併による解散等,3011101018175,令和６年４月１日東京都新宿区西新宿三丁目２０番２号株式会社ヒューマックスエンタテインメント（3011101018175）に合併し解散,2015-10-05,1,,,,,ヒューマックスコミュニケーションズ,0
650,3011101096816,登記記録の閉鎖等,0,2024-04-09,2024-04-01,シンヨウ株式会社,,株式会社,東京都,新宿区,津久戸町１番８号,,13,104,1620821,,,2024-04-01,合併による解散等,4011101095073,令和６年４月１日東京都新宿区津久戸町１番８号ＥＰＳホールディングス株式会社（4011101095073）に合併し解散,2021-11-17,1,,,,,シンヨウ,0
664,3011703002270,登記記録の閉鎖等,0,2024-04-09,2024-04-02,ＳＧＮ合同会社,,合同会社,東京都,江戸川区,西葛西６丁目２１番１４号,,13,123,1340088,,,2024-04-02,清算の結了等,,,2019-05-24,1,,,,,エスジーエヌ,0
670,3012402015844,登記記録の閉鎖等,0,2024-04-09,2024-04-01,有限会社ハックインターナショナル,,有限会社,東京都,調布市,下石原３丁目４９番２号,,13,208,1820034,,,2024-04-01,清算の結了等,,,2015-10-05,1,,,,,ハックインターナショナル,0
690,3021001000397,登記記録の閉鎖等,0,2024-04-09,2024-04-03,株式会社オシキリエンジニアリング,,株式会社,神奈川県,藤沢市,桐原町４番地,,14,205,2520811,,,2024-04-03,合併による解散等,7021001004460,令和６年４月１日神奈川県藤沢市桐原町４番地株式会社オシキリ（7021001004460）に合併し解散,2015-10-05,1,,,,,オシキリエンジニアリング,0
701,3030001041748,登記記録の閉鎖等,0,2024-04-09,2024-04-03,株式会社山新上尾,,株式会社,埼玉県,深谷市,国済寺４２４番地６,,11,218,3660033,,,2024-04-03,清算の結了等,,,2015-10-05,1,,,,,ヤマシンアゲオ,0
703,3030001056713,登記記録の閉鎖等,0,2024-04-09,2024-04-02,日本クラフト株式会社,,株式会社,埼玉県,入間郡三芳町,大字上富３０番地３０号,,11,324,3540045,,,2024-04-02,清算の結了等,,,2015-10-05,1,,,,,ニホンクラフト,0
743,3080102020547,登記記録の閉鎖等,0,2024-04-09,2024-04-04,有限会社ユアーズイソカワ,,有限会社,静岡県,伊東市,湯川１丁目１１番１６号,,22,208,4140002,,,2024-04-04,清算の結了等,,,2015-10-05,1,,,,,ユアーズイソカワ,0
744,3080401023639,登記記録の閉鎖等,0,2024-04-09,2024-04-03,プレアス株式会社,,株式会社,愛知県,豊橋市,藤沢町３３番地,,23,201,4418061,,,2024-04-03,合併による解散等,6080401019238,令和６年３月６日静岡県浜松市中央区板屋町１１１番地の２浜松アクトタワー１４階ＦＳＣ株式会社（6080401019238）に合併し解散,2019-05-22,1,,,,,プレアス,0
767,3120001259224,登記記録の閉鎖等,0,2024-04-09,2024-04-01,株式会社ＡＫ企画,,株式会社,大阪府,大阪市浪速区,元町１丁目５番７号,,27,111,5560016,,,2024-04-01,合併による解散等,5120001107703,令和６年４月１日大阪市浪速区元町一丁目５番７号株式会社浪速商事（5120001107703）に合併し解散,2023-10-26,1,,,,,エーケーキカク,0
776,3120005009360,登記記録の閉鎖等,0,2024-04-09,2024-04-01,一般社団法人大阪府南部朝日会,,その他の設立登記法人,大阪府,大阪市北区,西天満１丁目１０番８号西天満第１１松屋ビル５０１号,,27,127,5300047,,,2024-04-01,合併による解散等,7120005009357,令和６年４月１日大阪市北区西天満一丁目１０番８号西天満第１１松屋ビル５０１号一般社団法人大阪府朝日会（7120005009357）に合併し解散,2015-10-05,1,,,,,オオサカフナンブアサヒカイ,0
789,3130002033494,登記記録の閉鎖等,0,2024-04-09,2024-04-03,有限会社水谷電気,,有限会社,京都府,綾部市,新町４４番地,,26,203,6230023,,,2024-04-03,清算の結了等,,,2015-10-05,1,,,,,ミズタニデンキ,0
791,3140001026705,登記記録の閉鎖等,0,2024-04-09,2024-04-01,株式会社ＷＩＮＧＳ,,株式会社,兵庫県,神戸市北区,筑紫が丘５丁目１０番地の７,,28,109,6511212,,,2024-04-01,清算の結了等,,,2015-10-05,1,,,,,ウィングス,0
798,3150001018024,登記記録の閉鎖等,0,2024-04-09,2024-04-01,株式会社コンサルーション,,株式会社,大阪府,大阪市天王寺区,東高津町１番２３号小橋ビル４０１,,27,109,5430021,,,2024-04-01,清算の結了等,,,2015-10-05,1,,,,,コンサルーション,0
808,3180001046170,登記記録の閉鎖等,0,2024-04-09,2024-03-29,株式会社カタノ工房,,株式会社,愛知県,名古屋市西区,中小田井４丁目１５０番地,,23,104,4520822,,,2024-03-29,清算の結了等,,,2015-10-05,1,,,,,,0
819,3180301015965,登記記録の閉鎖等,0,2024-04-09,2024-04-01,秀和工業株式会社,,株式会社,愛知県,碧南市,神田町５丁目７１番地,,23,209,4470016,,,2024-04-01,清算の結了等,,,2015-10-05,1,,,,,シュウワコウギョウ,0
838,3290001037282,登記記録の閉鎖等,0,2024-04-09,2024-03-25,大信油化工業株式会社,,株式会社,福岡県,糟屋郡新宮町,下府３丁目１１番２５号,,40,345,8110112,,,2024-03-25,清算の結了等,,,2015-10-05,1,,,,,ダイシンユカコウギョウ,0
843,3290003011574,登記記録の閉鎖等,0,2024-04-09,2024-03-25,合同会社ユニオンプロキシ,,合同会社,福岡県,福岡市中央区,天神２丁目３番１０号天神パインクレスト７１９号,,40,133,8100001,,,2024-03-25,清算の結了等,,,2021-09-07,1,,,,,ユニオンプロキシ,0
853,3330005003144,登記記録の閉鎖等,0,2024-04-09,2024-04-04,農事組合法人ケイシン,,その他の設立登記法人,熊本県,菊池市,旭志伊坂２８２番地,,43,210,8691206,,,2024-04-04,清算の結了等,,,2015-10-05,1,,,,,ケイシン,0
857,3340001018979,登記記録の閉鎖等,0,2024-04-09,2024-04-03,株式会社ＳＨＩＦＴ,,株式会社,鹿児島県,鹿児島市,樋之口町１０番３２号日宝ファッションハイツ６０３号,,46,201,8920845,,,2024-04-03,清算の結了等,,,2015-12-25,1,,,,,シフト,0
864,3380002012374,登記記録の閉鎖等,0,2024-04-09,2024-04-01,有限会社丸善工機,,有限会社,福島県,郡山市,安積荒井本町４５９番地,,07,203,9630116,,,2024-04-01,清算の結了等,,,2015-10-05,1,,,,,マルゼンコウキ,0
881,3440003000792,登記記録の閉鎖等,0,2024-04-09,2024-04-04,合同会社アキサービス,,合同会社,北海道,函館市,桔梗１丁目２４番３３号,,01,202,0410808,,,2024-04-04,清算の結了等,,,2015-10-05,1,,,,,アキサービス,0
897,4010001140971,登記記録の閉鎖等,0,2024-04-09,2024-04-04,株式会社ＡＲＳ,,株式会社,東京都,台東区,上野７丁目６番５号,,13,106,1100005,,,2024-04-04,合併による解散等,9010001180360,令和６年４月１日東京都千代田区平河町二丁目１４番１２号株式会社イエノナカカンパニー（9010001180360）に合併し解散,2015-10-05,1,,,,,エーアールエス,0
926,4010601050892,登記記録の閉鎖等,0,2024-04-09,2024-04-01,株式会社信,,株式会社,東京都,墨田区,向島３丁目３３番１３号リョービビル６０１,,13,107,1310033,,,2024-04-01,清算の結了等,,,2016-12-26,1,,,,,シン,0
930,4010701030902,登記記録の閉鎖等,0,2024-04-09,2024-03-29,株式会社品川商事,,株式会社,東京都,品川区,小山台１丁目２０番２０号,,13,109,1420061,,,2024-03-29,清算の結了等,,,2015-10-05,1,,,,,シナガワショウジ,0
946,4011101042125,登記記録の閉鎖等,0,2024-04-09,2024-04-01,株式会社バンテック,,株式会社,東京都,新宿区,若葉１丁目５番地１５,,13,104,1600011,,,2024-04-01,合併による解散等,8011101012438,令和６年４月１日東京都新宿区若葉一丁目５番地１５株式会社竹村コーポレーション（8011101012438）に合併し解散,2015-10-05,1,,,,,バンテック,0
947,4011101051902,登記記録の閉鎖等,0,2024-04-09,2024-04-01,株式会社ヒューマックスエンタテイメント,,株式会社,東京都,新宿区,西新宿３丁目２０番２号,,13,104,1600023,,,2024-04-01,合併による解散等,3011101018175,令和６年４月１日東京都新宿区西新宿三丁目２０番２号株式会社ヒューマックスエンタテインメント（3011101018175）に合併し解散,2015-10-05,1,,,,,ヒューマックスエンタテイメント,0
1002,4030002043750,登記記録の閉鎖等,0,2024-04-09,2024-04-01,有限会社加藤産業,,有限会社,埼玉県,草加市,栄町２丁目１番３５号,,11,221,3400011,,,2024-04-01,清算の結了等,,,2015-10-05,1,,,,,カトウサンギョウ,0
1003,4030002116234,登記記録の閉鎖等,0,2024-04-09,2024-04-04,有限会社こいけ鉄工所,,有限会社,埼玉県,深谷市,武蔵野１５２８番地５,,11,218,3691241,,,2024-04-04,清算の結了等,,,2015-10-05,1,,,,,コイケテッコウショ,0
1005,4030003002202,登記記録の閉鎖等,0,2024-04-09,2024-04-02,合同会社ファミリー,,合同会社,埼玉県,北足立郡伊奈町,西小針４丁目６５番地,,11,301,3620811,,,2024-04-02,清算の結了等,,,2015-10-05,1,,,,,ファミリー,0
1011,4040001071545,登記記録の閉鎖等,0,2024-04-09,2024-04-01,株式会社アマダウエルドテック,,株式会社,神奈川県,伊勢原市,石田２００番地,,14,214,2591116,,,2024-04-01,合併による解散等,7021001020895,令和６年４月１日神奈川県伊勢原市石田２００番地株式会社アマダ（7021001020895）に合併し解散,2015-10-05,1,,,,,アマダウエルドテック,0
1012,4040001085850,登記記録の閉鎖等,0,2024-04-09,2024-03-27,株式会社サカエ興業,,株式会社,千葉県,市原市,潤井戸１９５４番地２３,,12,219,2900171,,,2024-03-27,清算の結了等,,,2015-10-05,1,,,,,サカエコウギョウ,0
1022,4050001045382,登記記録の閉鎖等,0,2024-04-09,2024-04-01,株式会社ＺＯＲＡ,,株式会社,東京都,世田谷区,池尻３丁目１９番１号ＩＯビル６Ｆ,,13,112,1540001,,,2024-04-01,合併による解散等,1180001134373,令和６年４月１日東京都世田谷区太子堂五丁目２番地５号ダイエイビル２Ｆ株式会社ドラゴンエンピツ（1180001134373）に合併し解散,2018-12-26,1,,,,,ゾーラ,0
1041,4100002011023,登記記録の閉鎖等,0,2024-04-09,2024-03-29,有限会社大正屋,,有限会社,長野県,佐久市,臼田６７２番地,,20,217,3840301,,,2024-03-29,清算の結了等,,,2015-10-05,1,,,,,タイショウヤ,0
1048,4120001031540,登記記録の閉鎖等,0,2024-04-09,2024-04-01,日立造船プラント技術サービス株式会社,,株式会社,大阪府,大阪市西区,江戸堀２丁目６番３３号,,27,106,5500002,,,2024-04-01,合併による解散等,3120001031541,令和６年４月１日大阪市住之江区南港北一丁目７番８９号日立造船株式会社（3120001031541）に合併し解散,2015-10-05,1,,,,,ヒタヒゾウセンプラントギジュツサービス,0
1082,4130005014318,登記記録の閉鎖等,0,2024-04-09,2024-04-03,一般社団法人クリーク,,その他の設立登記法人,京都府,長岡京市,野添１丁目１０番１３号,,26,209,6170821,,,2024-04-03,清算の結了等,,,2015-10-05,1,,,,,,0
1090,4160001001374,登記記録の閉鎖等,0,2024-04-09,2024-04-05,株式会社セイコーエレクトリック,,株式会社,滋賀県,栗東市,伊勢落６３３番地７,,25,208,5203044,,,2024-04-05,合併による解散等,7160001013821,令和６年３月３１日京都市南区上鳥羽馬廻町５８番地株式会社清弘エンジニアリング（7160001013821）に合併し解散,2015-10-05,1,,,,,セイコーエレクトリック,0
1096,4180001010984,登記記録の閉鎖等,0,2024-04-09,2024-04-01,二葉整備株式会社,,株式会社,愛知県,名古屋市瑞穂区,亀城町６丁目７番地,,23,108,4670876,,,2024-04-01,合併による解散等,5180001015446,令和６年４月１日名古屋市南区大磯通五丁目３番地の１二葉タクシー株式会社（5180001015446）に合併し解散,2015-10-05,1,,,,,フタバセイビ,0
1100,4180001087098,登記記録の閉鎖等,0,2024-04-09,2024-04-01,株式会社プラス・ワン,,株式会社,愛知県,稲沢市,重本１丁目１５２番地,,23,220,4928261,,,2024-04-01,清算の結了等,,,2015-10-05,1,,,,,,0
1118,4190005011466,登記記録の閉鎖等,0,2024-04-09,2024-04-02,税理士法人野崎塚本会計,00120276,その他の設立登記法人,三重県,四日市市,小杉町１４７６番地１８,,24,202,5120902,,,2024-04-02,清算の結了等,,,2020-07-15,1,,,,,ノザキツカモトカイケイ,0
1120,4200002028024,登記記録の閉鎖等,0,2024-04-09,2024-04-01,有限会社大和ストアー,,有限会社,岐阜県,郡上市,大和町徳永２６８番地,,21,219,5014607,,,2024-04-01,合併による解散等,8200001031520,令和６年４月１日岐阜県多治見市大針町６６１番地の１株式会社バロー（8200001031520）に合併し解散,2015-10-05,1,,,,,ヤマトストアー,0
1122,4200003002028,登記記録の閉鎖等,0,2024-04-09,2024-04-01,株式会社ロングセンター,,株式会社,岐阜県,美濃加茂市,川合町４丁目７番４０号,,21,211,5050022,,,2024-04-01,合併による解散等,6200001017224,令和６年４月１日岐阜県美濃加茂市川合町四丁目１番４１号株式会社長井産業（6200001017224）に合併し解散,2015-10-05,1,,,,,ロングセンター,0
1124,4200003005906,登記記録の閉鎖等,0,2024-04-09,2024-04-02,シークレットサービス合同会社,,合同会社,岐阜県,揖斐郡池田町,白鳥５７８番地,,21,404,5032413,,,2024-04-02,清算の結了等,,,2023-03-24,1,,,,,,0
1127,4210001000098,登記記録の閉鎖等,0,2024-04-09,2024-04-01,株式会社アスワ村田製作所,,株式会社,福井県,福井市,江守中２丁目１３２１番地,,18,201,9188025,,,2024-04-01,合併による解散等,6210001011936,令和６年４月１日福井県越前市岡本町１３号１番地株式会社福井村田製作所（6210001011936）に合併し解散,2015-10-05,1,,,,,アスワムラタセイサクショ,0
1134,4240001034911,登記記録の閉鎖等,0,2024-04-09,2024-04-02,株式会社文進堂,,株式会社,広島県,福山市,卸町１１番２号,,34,207,7210954,,,2024-04-02,清算の結了等,,,2015-10-05,1,,,,,ブンシンドウ,0
1135,4240001041354,登記記録の閉鎖等,0,2024-04-09,2024-04-03,株式会社ブリッジコンサル,,株式会社,広島県,庄原市,上原町２６６６番地３,,34,210,7270022,,,2024-04-03,清算の結了等,,,2015-10-05,1,,,,,ブリッジコンサル,0
1139,4250001002644,登記記録の閉鎖等,0,2024-04-09,2024-04-03,株式会社新山口カンツリー倶楽部,,株式会社,兵庫県,姫路市,楠町９９番地５,,28,201,6700826,,,2024-04-03,合併による解散等,7140001100654,令和６年４月１日兵庫県姫路市楠町９９番地５株式会社バンリューゴルフ（7140001100654）に合併し解散,2015-10-05,1,,,,,シンヤマグチカンツリークラブ,0
1144,4270001002592,登記記録の閉鎖等,0,2024-04-09,2024-04-01,株式会社マルテＳＦ,,株式会社,鳥取県,鳥取市,南安長２丁目６３３番地１,,31,201,6800914,,,2024-04-01,合併による解散等,4270001003293,令和６年４月１日鳥取県米子市旗ヶ崎２１４７番地株式会社さんれいフーズ（4270001003293）に合併し解散,2015-10-05,1,,,,,マルテエスエフ,0
1149,4280002009454,登記記録の閉鎖等,0,2024-04-09,2024-04-04,有限会社マルナガファーム,,有限会社,島根県,江津市,敬川町２３０２番地２,,32,207,6993162,,,2024-04-04,合併による解散等,8140001078956,令和６年４月１日兵庫県三田市川除１５０－１丸永株式会社（8140001078956）に合併し解散,2015-10-05,1,,,,,マルナガファーム,0
1160,4330003006362,登記記録の閉鎖等,0,2024-04-09,2024-04-01,合同会社倉永養蜂園,,合同会社,熊本県,熊本市東区,沼山津４丁目１番１４号,,43,102,8612102,,,2024-04-01,清算の結了等,,,2015-10-05,1,,,,,,0
1169,4380001001484,登記記録の閉鎖等,0,2024-04-09,2024-04-01,株式会社福島テクノサービス,,株式会社,福島県,福島市,新町４番１９号山口ビル２Ｆ,,07,201,9608036,,,2024-04-01,合併による解散等,6380001001268,令和６年４月１日福島市新町７番２２号株式会社福島県中央計算センター（6380001001268）に合併し解散,2015-10-05,1,,,,,フクシマテクノサービス,0
1183,4430001050204,登記記録の閉鎖等,0,2024-04-09,2024-04-01,中央バスビジネスサービス株式会社,,株式会社,北海道,小樽市,色内１丁目１番１２号,,01,203,0470031,,,2024-04-01,合併による解散等,4430001050451,令和６年４月１日北海道小樽市色内一丁目８番６号北海道中央バス株式会社（4430001050451）に合併し解散,2015-10-05,1,,,,,チュウオウバスビジネスサービス,0
1216,5010001100297,登記記録の閉鎖等,0,2024-04-09,2024-04-01,ペッツベスト少額短期保険株式会社,,株式会社,東京都,千代田区,一ツ橋１丁目１番１号,,13,101,1000003,,,2024-04-01,清算の結了等,,,2015-10-05,1,,,,,ペッツベストショウガクタンキホケン,0
1223,5010001196385,登記記録の閉鎖等,0,2024-04-09,2024-04-01,株式会社エナジーネットワーク,,株式会社,東京都,千代田区,岩本町２丁目７番８号ダイヤモンドレジデンス岩本町４０２,,13,101,1010032,,,2024-04-01,清算の結了等,,,2018-11-15,1,,,,,エナジーネットワーク,0
1236,5010403025407,登記記録の閉鎖等,0,2024-04-09,2024-04-01,ＩＲＥ　ＩＯＪ合同会社,,合同会社,東京都,港区,六本木６丁目１０番１号,,13,103,1060032,,,2024-04-01,清算の結了等,,,2021-05-28,1,,,,,アイアールイーアイオージェー,0
1237,5010403025497,登記記録の閉鎖等,0,2024-04-09,2024-04-01,ＩＲＥ　ＩＯＪ　ＧＰ合同会社,,合同会社,東京都,港区,六本木６丁目１０番１号,,13,103,1060032,,,2024-04-01,清算の結了等,,,2021-06-14,1,,,,,アイアールイーアイオージェージーピー,0
1244,5010505001891,登記記録の閉鎖等,0,2024-04-09,2024-04-01,一般社団法人日本健康水泳協会,,その他の設立登記法人,東京都,台東区,雷門２丁目３番１１号,,13,106,1110034,,,2024-04-01,清算の結了等,,,2015-10-05,1,,,,,ニッポンケンコウスイエイキョウカイ,0
1253,5010801007873,登記記録の閉鎖等,0,2024-04-09,2024-04-01,株式会社東京ニユーオート,,株式会社,東京都,大田区,蒲田４丁目４３番４号,,13,111,1440052,,,2024-04-01,清算の結了等,,,2015-10-05,1,,,,,トウキョウニューオート,0
1259,5011101094850,登記記録の閉鎖等,0,2024-04-09,2024-04-05,チャットボックス株式会社,,株式会社,東京都,新宿区,高田馬場１丁目２９番９号,,13,104,1690075,,,2024-04-05,合併による解散等,8011101021323,令和６年４月１日東京都新宿区高田馬場一丁目２９番９号ワイムシェアリング株式会社（8011101021323）に合併し解散,2021-04-20,1,,,,,チャットボックス,0
1270,5011801015247,登記記録の閉鎖等,0,2024-04-09,2024-04-01,株式会社メディカル青果物研究所,,株式会社,東京都,足立区,六町４丁目１２番１２号,,13,121,1210073,,,2024-04-01,合併による解散等,5180001090167,令和６年４月１日東京都足立区六町四丁目１２番１２号デザイナーフーズ株式会社（5180001090167）に合併し解散,2015-10-05,1,,,,,メディカルセイカブツケンキュウジョ,0
1273,5012401012808,登記記録の閉鎖等,0,2024-04-09,2024-04-01,東都工業株式会社,,株式会社,東京都,三鷹市,大沢６丁目１２番１号,,13,204,1810015,,,2024-04-01,清算の結了等,,,2015-10-05,1,,,,,トウトコウギョウ,0
1278,5012405004553,登記記録の閉鎖等,0,2024-04-09,2024-04-04,一般社団法人襷,,その他の設立登記法人,東京都,武蔵野市,吉祥寺南町５丁目１４番３号,,13,203,1800003,,,2024-04-04,清算の結了等,,,2021-02-17,1,,,,,タスキ,0
1293,5020005014922,登記記録の閉鎖等,0,2024-04-09,2024-04-02,一般社団法人在日外国人生活支援協会,,その他の設立登記法人,神奈川県,横浜市神奈川区,台町１２番地１グリーンテラス横浜１Ａ－ａ,,14,102,2210834,,,2024-04-02,清算の結了等,,,2021-01-12,1,,,,,ザイニチガイコクジンセイカツシエンキョウカイ,0
1308,5030001079530,登記記録の閉鎖等,0,2024-04-09,2024-04-02,株式会社ＹＤＫ,,株式会社,埼玉県,さいたま市見沼区,大字中川４４２番地１６,,11,104,3370043,,,2024-04-02,清算の結了等,,,2015-10-05,1,,,,,ワイディーケー,0
1309,5030001105641,登記記録の閉鎖等,0,2024-04-09,2024-04-02,ＫＩＺＺ株式会社,,株式会社,埼玉県,さいたま市北区,宮原町３丁目５８７番地,,11,102,3310812,,,2024-04-02,合併による解散等,5030001114816,令和６年４月１日埼玉県さいたま市緑区道祖土一丁目１９－１３サイドガーデン西館１０２株式会社ＡＬＴＡ（5030001114816）に合併し解散,2015-10-05,1,,,,,キッズ,0
1316,5030002040986,登記記録の閉鎖等,0,2024-04-09,2024-04-02,有限会社大島保険事務所,,有限会社,埼玉県,加須市,不動岡１丁目３番３０号,,11,210,3470054,,,2024-04-02,清算の結了等,,,2015-10-05,1,,,,,オオシマホケンジムショ,0
1332,5040003005483,登記記録の閉鎖等,0,2024-04-09,2024-04-01,市原ソーラー合同会社,,合同会社,千葉県,長生郡長南町,美原台１番地１４,,12,427,2970143,,,2024-04-01,清算の結了等,,,2015-10-05,1,,,,,イチハラソーラー,0
1338,5060002015671,登記記録の閉鎖等,0,2024-04-09,2024-04-02,有限会社佐藤物産商会,,有限会社,栃木県,日光市,和泉７７９番地,,09,206,3211425,,,2024-04-02,清算の結了等,,,2015-10-05,1,,,,,サトウブッサンショウカイ,0
1348,5080401014256,登記記録の閉鎖等,0,2024-04-09,2024-04-02,株式会社羯磨,,株式会社,静岡県,掛川市,上西郷８８１番地の１,,22,213,4360342,,,2024-04-02,清算の結了等,,,2015-10-05,1,,,,,カツマ,0
1349,5080401017878,登記記録の閉鎖等,0,2024-04-09,2024-04-03,株式会社夢さぽーと,,株式会社,静岡県,周智郡森町,円田１４２９番地の１７,,22,461,4370221,,,2024-04-03,清算の結了等,,,2015-10-05,1,,,,,ユメサポート,0
1359,5110005014954,登記記録の閉鎖等,0,2024-04-09,2024-04-01,一般財団法人新潟健康増進財団,,その他の設立登記法人,新潟県,燕市,吉田下中野７３５番地１,,15,213,9590215,,,2024-04-01,合併による解散等,9110005000109,令和６年４月１日新潟市中央区川岸町一丁目３９番地の５一般社団法人新潟県労働衛生医学協会（9110005000109）に合併し解散,2015-10-05,1,,,,,ニイガタケンコウゾウシンザイダン,0
1361,5120001106696,登記記録の閉鎖等,0,2024-04-09,2024-04-01,関電プロパティーズ株式会社,,株式会社,大阪府,大阪市中央区,城見２丁目１番６１号,,27,128,5400001,,,2024-04-01,合併による解散等,8120001126535,令和６年４月１日大阪市中央区城見一丁目３番７号関電ファシリティーズ株式会社（8120001126535）に合併し解散,2015-10-05,1,,,,,カンデンプロパティーズ,0
1374,5120002007134,登記記録の閉鎖等,0,2024-04-09,2024-04-01,有限会社ナカノ,,有限会社,大阪府,大阪市東成区,中道１丁目２番１５号,,27,115,5370025,,,2024-04-01,合併による解散等,1120001012923,令和６年４月１日大阪市東成区中道三丁目２番１２号玉堀市場株式会社（1120001012923）に合併し解散,2015-10-05,1,,,,,ナカノ,0
1377,5120005009359,登記記録の閉鎖等,0,2024-04-09,2024-04-01,一般社団法人大阪府中部朝日会,,その他の設立登記法人,大阪府,大阪市北区,西天満１丁目１０番８号西天満第１１松屋ビル５０１号,,27,127,5300047,,,2024-04-01,合併による解散等,7120005009357,令和６年４月１日大阪市北区西天満一丁目１０番８号西天満第１１松屋ビル５０１号一般社団法人大阪府朝日会（7120005009357）に合併し解散,2015-10-05,1,,,,,オオサカフチュウブアサヒカイ,0
1417,5170001000564,登記記録の閉鎖等,0,2024-04-09,2024-04-02,株式会社大山,,株式会社,和歌山県,和歌山市,橋向丁１７番地の１,,30,201,6408327,,,2024-04-02,清算の結了等,,,2015-10-05,1,,,,,オオヤマ,0
1420,5180001104307,登記記録の閉鎖等,0,2024-04-09,2024-04-01,東洋板金製造株式会社,,株式会社,愛知県,春日井市,神屋町字引沢１番３９,,23,206,4800304,,,2024-04-01,合併による解散等,2180001074585,令和６年４月１日愛知県春日井市味美町二丁目１５６番地東洋電機株式会社（2180001074585）に合併し解散,2015-10-05,1,,,,,トウヨウバンキンセイゾウ,0
1429,5180003022845,登記記録の閉鎖等,0,2024-04-09,2024-03-21,合同会社ｓｗｏｒｋｓ,,合同会社,愛知県,名古屋市中区,栄５丁目２６－３９ＧＳ栄ビル３Ｆ,,23,106,4600008,,,2024-03-21,清算の結了等,,,2021-08-11,1,,,,,エスワークス,0
1435,5200002009320,登記記録の閉鎖等,0,2024-04-09,2024-04-04,有限会社ウオモ・コンピェレ,,有限会社,岐阜県,本巣郡北方町,高屋白木２丁目４７番地,,21,421,5010454,,,2024-04-04,清算の結了等,,,2015-10-05,1,,,,,ウオモコンピェレ,0
1445,5240001040173,登記記録の閉鎖等,0,2024-04-09,2024-04-02,サークルテック株式会社,,株式会社,広島県,三原市,青葉台１６番１７号,,34,204,7230047,,,2024-04-02,清算の結了等,,,2015-10-05,1,,,,,サークルテック,0
1488,5390005006668,登記記録の閉鎖等,0,2024-04-09,2024-04-02,農事組合法人産直農園クロップ,,その他の設立登記法人,山形県,南陽市,漆山１８５３番地,,06,213,9920474,,,2024-04-02,清算の結了等,,,2015-10-05,1,,,,,サンチョクノウエンクロップ,0
1510,5500005000824,登記記録の閉鎖等,0,2024-04-09,2024-04-02,医療法人芳村小児科医院,,その他の設立登記法人,愛媛県,松山市,保免西１丁目２番１号,,38,201,7900043,,,2024-04-02,清算の結了等,,,2015-10-05,1,,,,,ヨシムラショウニカイイン,0
1552,6010901005727,登記記録の閉鎖等,0,2024-04-09,2024-04-02,株式会社秀美,,株式会社,東京都,世田谷区,下馬１丁目２４番８号,,13,112,1540002,,,2024-04-02,清算の結了等,,,2015-10-05,1,,,,,シュウビ,0
1553,6010901034858,登記記録の閉鎖等,0,2024-04-09,2024-04-04,シマダリファインパートナーズ株式会社,,株式会社,東京都,世田谷区,南烏山４丁目１２番５号,,13,112,1570062,,,2024-04-04,合併による解散等,3012401007875,令和６年４月１日東京都調布市仙川町二丁目１７番地２６シマダハウス株式会社（3012401007875）に合併し解散,2015-10-05,1,,,,,シマダリファインパートナーズ,0
1559,6011001069605,登記記録の閉鎖等,0,2024-04-09,2024-04-01,株式会社ＷＯＮＤＥＲ　ＳＴＹＬＥ,,株式会社,東京都,渋谷区,恵比寿南１丁目１６番１１号,,13,113,1500022,,,2024-04-01,合併による解散等,6011001011789,令和６年４月１日東京都渋谷区恵比寿南一丁目１５番１号株式会社ＳＴＡＲＤＵＳＴ　ＨＤ．（6011001011789）に合併し解散,2015-10-05,1,,,,,ワンダースタイル,0
1563,6011001099973,登記記録の閉鎖等,0,2024-04-09,2024-04-03,株式会社Ｃｒａｆｔ　Ｅｇｇ,,株式会社,東京都,渋谷区,宇田川町４０番１号,,13,113,1500042,,,2024-04-03,合併による解散等,4011001034156,令和６年４月１日東京都渋谷区宇田川町４０番１号株式会社サイバーエージェント（4011001034156）に合併し解散,2015-10-05,1,,,,,クラフトエッグ,0
1566,6011101081022,登記記録の閉鎖等,0,2024-04-09,2024-04-05,ワイムオート企画株式会社,,株式会社,東京都,新宿区,高田馬場１丁目２９番９号,,13,104,1690075,,,2024-04-05,合併による解散等,8011101021323,令和６年４月１日東京都新宿区高田馬場一丁目２９番９号ワイムシェアリング株式会社（8011101021323）に合併し解散,2017-07-12,1,,,,,ワイムオートキカク,0
1568,6011101095022,登記記録の閉鎖等,0,2024-04-09,2024-04-01,くらしストア株式会社,,株式会社,東京都,新宿区,西新宿８丁目１４番２４号,,13,104,1600023,,,2024-04-01,合併による解散等,2011001130287,令和６年４月１日東京都新宿区西新宿八丁目１４番２４号株式会社三ッ輪ビジネスソリューションズ（2011001130287）に合併し解散,2021-05-14,1,,,,,クラシストア,0
1571,6011103007495,登記記録の閉鎖等,0,2024-04-09,2024-04-05,チームマイウェイ合同会社,,合同会社,東京都,中野区,本町４丁目４４番１３号西京城西ビル２Ｆ－２８,,13,114,1640012,,,2024-04-05,清算の結了等,,,2017-11-28,1,,,,,チームマイウェイ,0
1593,6020001074201,登記記録の閉鎖等,0,2024-04-09,2024-04-03,株式会社早川製作所,,株式会社,神奈川県,川崎市川崎区,浅野町１番１１号,,14,131,2100854,,,2024-04-03,清算の結了等,,,2015-10-05,1,,,,,ハヤカワセイサクジョ,0
1631,6050002002777,登記記録の閉鎖等,0,2024-04-09,2024-04-05,文化産業有限会社,,有限会社,茨城県,水戸市,西原３丁目３番４７号,,08,201,3100044,,,2024-04-05,清算の結了等,,,2015-10-05,1,,,,,ブンカサンギョウ,0
1638,6080001017534,登記記録の閉鎖等,0,2024-04-09,2024-04-04,株式会社藤工業,,株式会社,静岡県,焼津市,道原１２６１番地の１,,22,212,4250055,,,2024-04-04,清算の結了等,,,2015-10-05,1,,,,,,0
1642,6080002014027,登記記録の閉鎖等,0,2024-04-09,2024-04-01,有限会社和商運,,有限会社,静岡県,島田市,金谷東２丁目１７番地の１６,,22,209,4280013,,,2024-04-01,清算の結了等,,,2015-10-05,1,,,,,,0
1654,6100002001807,登記記録の閉鎖等,0,2024-04-09,2024-03-29,有限会社駒沢器械店,,有限会社,長野県,長野市,大字安茂里小柴見３６２番地６,,20,201,3800941,,,2024-03-29,清算の結了等,,,2015-10-05,1,,,,,コマザワキカイテン,0
1655,6110001020757,登記記録の閉鎖等,0,2024-04-09,2024-04-02,株式会社飯吉デンキ,,株式会社,新潟県,妙高市,大字葎生５３３番地１４,,15,217,9492232,,,2024-04-02,清算の結了等,,,2015-10-05,1,,,,,イイヨシデンキ,0
1659,6120001085717,登記記録の閉鎖等,0,2024-04-09,2024-04-01,吉富薬品株式会社,,株式会社,大阪府,大阪市中央区,道修町３丁目２番１０号,,27,128,5410045,,,2024-04-01,合併による解散等,9120001077463,令和６年４月１日大阪市中央区道修町三丁目２番１０号田辺三菱製薬株式会社（9120001077463）に合併し解散,2015-10-05,1,,,,,ヨシトミヤクヒン,0
1674,6120005009358,登記記録の閉鎖等,0,2024-04-09,2024-04-01,一般社団法人大阪府北部朝日会,,その他の設立登記法人,大阪府,大阪市北区,西天満１丁目１０番８号西天満第１１松屋ビル５０１号,,27,127,5300047,,,2024-04-01,合併による解散等,7120005009357,令和６年４月１日大阪市北区西天満一丁目１０番８号西天満第１１松屋ビル５０１号一般社団法人大阪府朝日会（7120005009357）に合併し解散,2015-10-05,1,,,,,オオサカフホクブアサヒカイ,0
1676,6120101042568,登記記録の閉鎖等,0,2024-04-09,2024-04-01,日羊毛織株式会社,,株式会社,大阪府,泉大津市,式内町１０番４号,,27,206,5950035,,,2024-04-01,合併による解散等,5120101032388,令和６年４月１日大阪府泉大津市式内町１０番４号阪南織物株式会社（5120101032388）に合併し解散,2015-10-05,1,,,,,ニチヨウケオリ,0
1691,6170001007930,登記記録の閉鎖等,0,2024-04-09,2024-04-01,株式会社桃山食品,,株式会社,和歌山県,紀の川市,桃山町調月９８０番地,,30,208,6496112,,,2024-04-01,合併による解散等,2170001005459,令和６年４月１日和歌山県海南市日方新浜１２９４番地株式会社海南食品（2170001005459）に合併し解散,2015-10-05,1,,,,,モモヤマショクヒン,0
1699,6180001110782,登記記録の閉鎖等,0,2024-04-09,2024-03-29,株式会社Ｒｉｃｈ　ｉｎｎｏｖａｔｉｏｎ,,株式会社,愛知県,尾張旭市,向町２丁目１番地１,,23,226,4880818,,,2024-03-29,清算の結了等,,,2015-10-05,1,,,,,,0
1701,6180001118999,登記記録の閉鎖等,0,2024-04-09,2024-03-28,株式会社康守,,株式会社,東京都,品川区,上大崎３丁目１番１号目黒セントラルスクエア１５階,,13,109,1410021,,,2024-03-28,合併による解散等,6010703007005,令和６年３月２８日東京都品川区上大崎三丁目１番１号目黒セントラルスクエア１５階エムエス合同会社（6010703007005）に合併し解散,2015-10-05,1,,,,,ヤスカミ,0
1712,6200003000343,登記記録の閉鎖等,0,2024-04-09,2024-04-05,合資会社喜美恵旅館,,合資会社,岐阜県,岐阜市,住田町１丁目３４番地,,21,201,5008843,,,2024-04-05,清算の結了等,,,2015-10-05,1,,,,,キミエリョカン,0
1728,6270002001006,登記記録の閉鎖等,0,2024-04-09,2024-04-03,有限会社竹内製作所,,有限会社,鳥取県,鳥取市,東町３丁目２５５番地,,31,201,6800011,,,2024-04-03,清算の結了等,,,2015-10-05,1,,,,,タケウチセイサクショ,0
1747,6340001020940,登記記録の閉鎖等,0,2024-04-09,2024-04-03,株式会社ＭＡＴＲＩＸ,,株式会社,鹿児島県,鹿児島市,樋之口町１０番３２号日宝ファッションハイツ６０３号,,46,201,8920845,,,2024-04-03,清算の結了等,,,2018-02-02,1,,,,,マトリックス,0
1761,6400001006231,登記記録の閉鎖等,0,2024-04-09,2024-04-01,株式会社北栄機工,,株式会社,岩手県,北上市,相去町平林２１番地３３,,03,206,0240051,,,2024-04-01,合併による解散等,5400001001159,令和６年４月１日岩手県盛岡市上厨川字横長根５２番地３６図南総業株式会社（5400001001159）に合併し解散,2015-10-05,1,,,,,ホクエイキコウ,0
1765,6430001046398,登記記録の閉鎖等,0,2024-04-09,2024-04-01,株式会社河口屋,,株式会社,北海道,岩見沢市,七条東１２丁目２１番地４３,,01,210,0680007,,,2024-04-01,清算の結了等,,,2015-10-05,1,,,,,,0
1797,7010001109329,登記記録の閉鎖等,0,2024-04-09,2024-04-01,株式会社ＦｒｅｅＧａｔｅｓ,,株式会社,東京都,中央区,八丁堀４丁目２－８月村マンションＮｏ．２７－７０１,,13,102,1040032,,,2024-04-01,清算の結了等,,,2015-10-05,1,,,,,フリゲート,0
1824,7010701023151,登記記録の閉鎖等,0,2024-04-09,2024-03-28,サンドプレイス株式会社,,株式会社,東京都,品川区,西五反田７丁目２２番１７号,,13,109,1410031,,,2024-03-28,清算の結了等,,,2015-10-05,1,,,,,,0
1827,7010901037190,登記記録の閉鎖等,0,2024-04-09,2024-04-02,株式会社Ｔｏｈ－ｋｏｈ　Ａｒｔｓ　Ｄｅｓｉｇｎ,,株式会社,埼玉県,蓮田市,関山３丁目１３番９号,,11,238,3490121,,,2024-04-02,清算の結了等,,,2015-12-04,1,,,,,トーコーアーツデザイン,0
1830,7010902025822,登記記録の閉鎖等,0,2024-04-09,2024-04-03,有限会社ウォーゼル,,有限会社,東京都,世田谷区,南烏山２丁目２２番５号,,13,112,1570062,,,2024-04-03,清算の結了等,,,2015-10-05,1,,,,,ウォーゼル,0
1842,7011101040737,登記記録の閉鎖等,0,2024-04-09,2024-03-29,株式会社ＳＩＣ,,株式会社,東京都,板橋区,清水町３６番１号,,13,119,1740053,,,2024-03-29,合併による解散等,2011401001699,令和６年３月２９日東京都板橋区清水町３６番１号共立印刷株式会社（2011401001699）に合併し解散,2015-10-05,1,,,,,エスアイシー,0
1862,7011801028775,登記記録の閉鎖等,0,2024-04-09,2024-04-02,株式会社ライフケア・イノベーション,,株式会社,東京都,足立区,鹿浜２丁目４番１４号,,13,121,1230864,,,2024-04-02,清算の結了等,,,2015-10-05,1,,,,,ライフケアイノベーション,0
1908,7040001009781,登記記録の閉鎖等,0,2024-04-09,2024-04-04,ケメット・ジャパン株式会社,,株式会社,千葉県,千葉市花見川区,犢橋町１６１４番２７号,,12,102,2620013,,,2024-04-04,合併による解散等,3110001022582,令和６年４月１日新潟県長岡市南陽二丁目９５１番地６北川グレステック株式会社（3110001022582）に合併し解散,2015-10-05,1,,,,,ケメットジャパン,0
1923,7050002032187,登記記録の閉鎖等,0,2024-04-09,2024-04-04,有限会社ノガミ住設,,有限会社,茨城県,高萩市,高浜町３丁目１３９番地の３,,08,214,3180013,,,2024-04-04,清算の結了等,,,2015-10-05,1,,,,,ノガミジュウセツ,0
1939,7080402007554,登記記録の閉鎖等,0,2024-04-09,2024-04-03,有限会社松菱劇場,,有限会社,静岡県,浜松市中央区,肴町３１７番地の４,,22,138,4300932,,,2024-04-03,清算の結了等,,,2015-10-05,1,,,,,マツビシゲキジョウ,0
1942,7100002009989,登記記録の閉鎖等,0,2024-04-09,2024-03-29,有限会社マイウエイ,,有限会社,長野県,千曲市,上山田温泉２丁目２６番７号,,20,218,3890821,,,2024-03-29,清算の結了等,,,2015-10-05,1,,,,,マイウェイ,0
1943,7100002016267,登記記録の閉鎖等,0,2024-04-09,2024-03-29,有限会社滝沢ガラス建窓,,有限会社,長野県,上田市,中丸子１２０３番地１,,20,203,3860405,,,2024-03-29,清算の結了等,,,2015-10-05,1,,,,,タキザワガラスケンソウ,0
1944,7110001007068,登記記録の閉鎖等,0,2024-04-09,2024-04-05,阿部木材工業株式会社,,株式会社,新潟県,新潟市東区,竹尾４丁目１０番１０号,,15,102,9500862,,,2024-04-05,合併による解散等,1230001010627,令和６年４月１日富山県高岡市能町７５０番地南陽吉久株式会社（1230001010627）に合併し解散,2015-10-05,1,,,,,アベモクザイコウギョウ,0
1945,7110001020252,登記記録の閉鎖等,0,2024-04-09,2024-04-05,株式会社セイコースミダ,,株式会社,新潟県,妙高市,東陽町２番２号,,15,217,9440009,,,2024-04-05,合併による解散等,7160001013821,令和６年３月３１日京都市南区上鳥羽馬廻町５８番地株式会社清弘エンジニアリング（7160001013821）に合併し解散,2015-10-05,1,,,,,セイコースミダ,0
1951,7120001118673,登記記録の閉鎖等,0,2024-04-09,2024-04-01,株式会社日本アウトソーシング,,株式会社,兵庫県,宝塚市,南口２丁目１４番３号,,28,214,6650011,,,2024-04-01,清算の結了等,,,2015-10-05,1,,,,,ニホンアウトソーシング,0
1979,7140001038044,登記記録の閉鎖等,0,2024-04-09,2024-04-01,ＢｏＸｅＲ　Ｓｏｌｕｔｉｏｎｓ株式会社,,株式会社,大阪府,大阪市北区,天神西町５番１８号中川ビル５階,,27,127,5300045,,,2024-04-01,清算の結了等,,,2015-10-05,1,,,,,ボクサーソリューションズ,0
1988,7140005022093,登記記録の閉鎖等,0,2024-04-09,2024-04-03,特定非営利活動法人おとのは,,その他の設立登記法人,兵庫県,川西市,火打２丁目７番１８号,,28,217,6660017,,,2024-04-03,清算の結了等,,,2015-10-05,1,,,,,オトノハ,0
1991,7150002009167,登記記録の閉鎖等,0,2024-04-09,2024-04-01,有限会社テクノ・ウェアー・ライフ・サービス,,有限会社,奈良県,北葛城郡河合町,泉台２丁目２６番２号,,29,427,6360091,,,2024-04-01,清算の結了等,,,2015-10-05,1,,,,,テクノウェアーライフサービス,0
2007,7180003024154,登記記録の閉鎖等,0,2024-04-09,2024-03-28,合同会社８０８,,合同会社,愛知県,名古屋市北区,上飯田西町２丁目４６番地の１ＡｒｓａＮＥＸＴ４０１号,,23,103,4620809,,,2024-03-28,清算の結了等,,,2022-08-16,1,,,,,エイトオーエイト,0
2009,7180301022314,登記記録の閉鎖等,0,2024-04-09,2024-04-01,イナテツ技研株式会社,,株式会社,愛知県,西尾市,吉良町瀬戸長坂１番地,,23,213,4440532,,,2024-04-01,合併による解散等,1180301017773,令和６年４月１日愛知県豊田市高丘新町天王１番地アイシン高丘株式会社（1180301017773）に合併し解散,2015-10-05,1,,,,,イナテツギケン,0
2024,7250001009273,登記記録の閉鎖等,0,2024-04-09,2024-04-01,株式会社前田硝子店,,株式会社,山口県,周南市,大字徳山６６３３番地の１７,,35,215,7450851,,,2024-04-01,合併による解散等,4250001006430,令和６年４月１日山口県下関市卸新町１２番地の１宮崎硝子株式会社（4250001006430）に合併し解散,2015-10-05,1,,,,,マエダガラステン,0
2026,7250002003085,登記記録の閉鎖等,0,2024-04-09,2024-04-01,有限会社シブヤ薬局,,有限会社,山口県,防府市,八王子２丁目６番１５号,,35,206,7470037,,,2024-04-01,合併による解散等,3250001008675,令和６年４月１日山口県周南市孝田町１０番３号株式会社石丸一正商店（3250001008675）に合併し解散,2015-10-05,1,,,,,シブヤヤッキョク,0
2031,7290001024871,登記記録の閉鎖等,0,2024-04-09,2024-04-05,株式会社ＬＩＮＫＳｎｅｔ,,株式会社,福岡県,福岡市博多区,堅粕５丁目４番２０号,,40,132,8120043,,,2024-04-05,清算の結了等,,,2015-10-05,1,,,,,リンクスネット,0
2051,7330002014925,登記記録の閉鎖等,0,2024-04-09,2024-04-01,有限会社マリソンホーム,,有限会社,熊本県,熊本市東区,戸島西２丁目３番８８号,,43,102,8618043,,,2024-04-01,清算の結了等,,,2015-10-05,1,,,,,,0
2066,7380002002322,登記記録の閉鎖等,0,2024-04-09,2024-04-02,有限会社手塚印刷,,有限会社,福島県,福島市,八木田字中島１１３番地の４,,07,201,9608164,,,2024-04-02,清算の結了等,,,2015-10-05,1,,,,,テツカインサツ,0
2077,7430003011564,登記記録の閉鎖等,0,2024-04-09,2024-04-01,ＨＬ　Ｆｏｒｗａｒｄ合同会社,,合同会社,北海道,虻田郡ニセコ町,字富川３３番地３,,01,395,0481554,,,2024-04-01,清算の結了等,,,2020-05-14,1,,,,,エイチエルフォーワード,0
2084,7460303000660,登記記録の閉鎖等,0,2024-04-09,2024-04-05,合同会社ＷＳ網走バイオマス発電所１号,,合同会社,北海道,網走市,能取港町４丁目２番３号,,01,211,0930131,,,2024-04-05,合併による解散等,2010001119241,令和６年４月１日東京都江東区白河三丁目２番８号株式会社ＷＩＮＤ－ＳＭＩＬＥ（2010001119241）に合併し解散,2019-05-22,1,,,,,ダブリューエスアバシリバイオマスハツデンショイチゴウ,0
2087,7470001009152,登記記録の閉鎖等,0,2024-04-09,2024-04-01,林田石油株式会社,,株式会社,香川県,坂出市,入船町１丁目３番１２号,,37,203,7620002,,,2024-04-01,合併による解散等,8470001009151,令和６年４月１日香川県坂出市林田町３５５２番地林田塩産株式会社（8470001009151）に合併し解散,2015-10-05,1,,,,,ハヤシダセキユ,0
2120,8010401164666,登記記録の閉鎖等,0,2024-04-09,2024-04-01,株式会社クローバー,,株式会社,東京都,港区,南青山２丁目２番１５号,,13,103,1070062,,,2024-04-01,合併による解散等,6010401173553,令和６年４月１日東京都港区南青山三丁目１番３６号６階株式会社Ｅｓｓｅｎｃｅ　Ｇｒｏｕｐ（6010401173553）に合併し解散,2021-12-27,1,,,,,クローバー,0
2127,8010601024554,登記記録の閉鎖等,0,2024-04-09,2024-04-03,株式会社越路ランドリー,,株式会社,東京都,墨田区,八広４丁目５１番４号,,13,107,1310041,,,2024-04-03,清算の結了等,,,2015-10-05,1,,,,,コシジランドリー,0
2151,8011102014078,登記記録の閉鎖等,0,2024-04-09,2024-04-01,有限会社リフレイン,,有限会社,東京都,新宿区,新宿３丁目９番１号新宿土地建物第１０ビル３階,,13,104,1600022,,,2024-04-01,合併による解散等,7011101022462,令和６年４月１日東京都新宿区新宿三丁目９番１号新宿土地建物第１０ビル３階株式会社ワルツ（7011101022462）に合併し解散,2015-10-05,1,,,,,リフレイン,0
2153,8011203002056,登記記録の閉鎖等,0,2024-04-09,2024-04-05,株式会社ドライバー求人企画,,株式会社,東京都,中野区,新井４丁目２２番２号,,13,114,1650026,,,2024-04-05,清算の結了等,,,2015-10-05,1,,,,,ドライバーキュウジンキカク,0
2166,8012405002125,登記記録の閉鎖等,0,2024-04-09,2024-04-04,特定非営利活動法人多摩市民法務支援センター,,その他の設立登記法人,東京都,府中市,寿町３丁目３番地の２、１階,,13,206,1830056,,,2024-04-04,清算の結了等,,,2015-10-05,1,,,,,タマシミンホウムシエンセンター,0
2172,8020001016226,登記記録の閉鎖等,0,2024-04-09,2024-04-02,豊計器建設株式会社,,株式会社,神奈川県,横浜市西区,高島１丁目４番１２号,,14,103,2200011,,,2024-04-02,清算の結了等,,,2015-10-05,1,,,,,ユタカケイキケンセツ,0
2181,8021001005359,登記記録の閉鎖等,0,2024-04-09,2024-04-01,湘南ラインサービス株式会社,,株式会社,神奈川県,藤沢市,西俣野４５３番地の１,,14,205,2520812,,,2024-04-01,合併による解散等,7021001048499,令和６年４月１日神奈川県藤沢市西俣野４５３番地の１株式会社ＴＰＳ湘南（7021001048499）に合併し解散,2015-10-05,1,,,,,ショウナンラインサービス,0
2204,8030002087629,登記記録の閉鎖等,0,2024-04-09,2024-04-04,有限会社ひかり薬局,,有限会社,埼玉県,越谷市,南越谷１丁目６番６２号コーポ南越谷,,11,222,3430845,,,2024-04-04,合併による解散等,6010901003581,令和６年４月１日東京都世田谷区成城七丁目８番１８号株式会社グラム（6010901003581）に合併し解散,2015-10-05,1,,,,,ヒカリヤッキョク,0
2222,8050001028359,登記記録の閉鎖等,0,2024-04-09,2024-04-01,株式会社技販,,株式会社,千葉県,流山市,野々下４丁目８３０番地の２６,,12,220,2700135,,,2024-04-01,合併による解散等,3040001101245,令和６年４月１日千葉県流山市野々下四丁目８３０番地の２６株式会社ナリタエネルギーサービス（3040001101245）に合併し解散,2015-10-05,1,,,,,ギハン,0
2256,8120001250376,登記記録の閉鎖等,0,2024-04-09,2024-04-02,ＧＭＥ株式会社,,株式会社,大阪府,大阪市中央区,和泉町２丁目１番７号,,27,128,5400019,,,2024-04-02,清算の結了等,,,2022-11-15,1,,,,,ジーエムイー,0
2265,8120005022821,登記記録の閉鎖等,0,2024-04-09,2024-04-05,一般社団法人日本飲食業経営審議会,,その他の設立登記法人,大阪府,大阪市淀川区,西中島５丁目１２番８号,,27,123,5320011,,,2024-04-05,合併による解散等,1010405020541,令和６年４月１日東京都千代田区有楽町一丁目１番２号日比谷三井タワー１１階株式会社ぐるなび一般社団法人日本飲食団体連合会（1010405020541）に合併し解散,2022-03-03,1,,,,,ニホンインショクギョウケイエイシンギカイ,0
2278,8120102005919,登記記録の閉鎖等,0,2024-04-09,2024-04-01,エムツープランニング株式会社,,株式会社,大阪府,大阪市中央区,本町１丁目５番６号,,27,128,5410053,,,2024-04-01,合併による解散等,5120001078572,令和６年４月１日大阪市中央区本町一丁目５番６号クリエイトインターナショナル株式会社（5120001078572）に合併し解散,2015-10-05,1,,,,,エムツープランニング,0
2280,8120901026891,登記記録の閉鎖等,0,2024-04-09,2024-04-02,日本ユニコム株式会社,,株式会社,大阪府,豊中市,旭丘１０－１１４,,27,203,5610865,,,2024-04-02,清算の結了等,,,2015-10-05,1,,,,,ニホンユニコム,0
2290,8130001031313,登記記録の閉鎖等,0,2024-04-09,2024-04-04,株式会社ＮＳオートエクスポート,,株式会社,京都府,京都市西京区,山田中吉見町６番地メルヴェーユ桂３０７号室,,26,111,6158237,,,2024-04-04,清算の結了等,,,2015-10-05,1,,,,,エヌエスオートエクスポート,0
2312,8180001033387,登記記録の閉鎖等,0,2024-04-09,2024-03-29,ライフデザイン株式会社,,株式会社,愛知県,名古屋市中村区,則武２丁目１９番８号,,23,105,4530014,,,2024-03-29,清算の結了等,,,2015-10-05,1,,,,,ライフデザイン,0
2317,8180001138310,登記記録の閉鎖等,0,2024-04-09,2024-03-29,株式会社Ｈ,,株式会社,愛知県,尾張旭市,向町２丁目１番地１,,23,226,4880818,,,2024-03-29,清算の結了等,,,2019-10-08,1,,,,,,0
2327,8180302001076,登記記録の閉鎖等,0,2024-04-09,2024-04-01,有限会社畔柳建築,,有限会社,愛知県,岡崎市,桑谷町字石丸５１番第１地,,23,202,4443515,,,2024-04-01,清算の結了等,,,2015-10-05,1,,,,,クロヤナギケンチク,0
2328,8180302023054,登記記録の閉鎖等,0,2024-04-09,2024-03-29,有限会社日東ビル,,有限会社,愛知県,豊田市,元城町１丁目６１番地,,23,211,4710024,,,2024-03-29,清算の結了等,,,2015-10-05,1,,,,,ニットウビル,0
2331,8190001018511,登記記録の閉鎖等,0,2024-04-09,2024-04-01,株式会社トレジャー,,株式会社,三重県,四日市市,広永町９１４番地７６,,24,202,5128061,,,2024-04-01,清算の結了等,,,2015-10-05,1,,,,,トレジャー,0
2332,8190001026159,登記記録の閉鎖等,0,2024-04-09,2024-04-01,株式会社ＩＧＡ,,株式会社,三重県,伊賀市,西湯舟２３３９番地の１,,24,216,5181301,,,2024-04-01,清算の結了等,,,2019-01-24,1,,,,,アイジーエー,0
2349,8240001052736,登記記録の閉鎖等,0,2024-04-09,2024-04-03,株式会社ナチュライズ,,株式会社,広島県,福山市,松永町４丁目１６番４２－１１号,,34,207,7290104,,,2024-04-03,清算の結了等,,,2018-05-01,1,,,,,ナチュライズ,0
2353,8250001015840,登記記録の閉鎖等,0,2024-04-09,2024-04-03,株式会社ＭＯＴホールディングス,,株式会社,山口県,山口市,吉田１６７７番地１,,35,203,7530841,,,2024-04-03,合併による解散等,2240001043377,令和６年４月１日広島市中区大手町二丁目１１番２号ＣＰＣエナジー株式会社（2240001043377）に合併し解散,2016-03-14,1,,,,,エムオーティーホールディングス,0
2369,8330001011550,登記記録の閉鎖等,0,2024-04-09,2024-04-01,岩下屋根工業株式会社,,株式会社,熊本県,玉名市,岱明町野口２２２番地,,43,206,8690222,,,2024-04-01,清算の結了等,,,2015-10-05,1,,,,,イワシタヤネコウギョウ,0
2376,8350002018725,登記記録の閉鎖等,0,2024-04-09,2024-04-01,有限会社溝口工務店,,有限会社,宮崎県,えびの市,大字原田１４０３番地４１４,,45,209,8894301,,,2024-04-01,清算の結了等,,,2015-10-05,1,,,,,ミゾグチコウムテン,0
2386,8370602002366,登記記録の閉鎖等,0,2024-04-09,2024-03-29,有限会社美生,,有限会社,宮城県,塩竈市,宮町８番８号,,04,203,9850051,,,2024-03-29,清算の結了等,,,2015-10-05,1,,,,,ビウ,0
2387,8370801000963,登記記録の閉鎖等,0,2024-04-09,2024-04-05,株式会社エヌピー,,株式会社,宮城県,仙台市太白区,柳生１丁目１１番地８,,04,104,9811106,,,2024-04-05,合併による解散等,4260001000622,令和６年４月１日岡山市北区島田本町二丁目５番３５号株式会社ウエスコ（4260001000622）に合併し解散,2015-10-05,1,,,,,エヌピー,0
2414,8460005001527,登記記録の閉鎖等,0,2024-04-09,2024-04-02,公益財団法人ジオパワー学園設立準備財団,,その他の設立登記法人,北海道,白糠郡白糠町,大楽毛３４番地４,,01,668,0880561,,,2024-04-02,清算の結了等,,,2020-07-20,1,,,,,ジオパワーガクエンセツリツジュンビザイダン,0
2418,8490001003524,登記記録の閉鎖等,0,2024-04-09,2024-04-01,入交住環境株式会社,,株式会社,高知県,高知市,仁井田４５６３番地１,,39,201,7810112,,,2024-04-01,合併による解散等,3490001001020,令和６年４月１日高知市知寄町三丁目２２９番地株式会社高販（3490001001020）に合併し解散,2015-10-05,1,,,,,イリマジリジュウカンキョウ,0
2468,9011101091786,登記記録の閉鎖等,0,2024-04-09,2024-04-05,ワイムシェアリング企画株式会社,,株式会社,東京都,新宿区,高田馬場１丁目２９番９号,,13,104,1690075,,,2024-04-05,合併による解散等,8011101021323,令和６年４月１日東京都新宿区高田馬場一丁目２９番９号ワイムシェアリング株式会社（8011101021323）に合併し解散,2020-07-13,1,,,,,ワイムシェアリングキカク,0
2469,9011102003435,登記記録の閉鎖等,0,2024-04-09,2024-04-02,有限会社菊栄産業,,有限会社,東京都,新宿区,下落合３丁目１２番２８－１２０１号,,13,104,1610033,,,2024-04-02,清算の結了等,,,2015-10-05,1,,,,,キクエイサンギョウ,0
2479,9011702017181,登記記録の閉鎖等,0,2024-04-09,2024-03-29,有限会社フラワーフーズ,,有限会社,東京都,江戸川区,中央１丁目２番１０号レヴィール江戸川中央６０１,,13,123,1320021,,,2024-03-29,清算の結了等,,,2015-10-05,1,,,,,フラワーフーズ,0
2502,9021001060147,登記記録の閉鎖等,0,2024-04-09,2024-04-04,株式会社大正浪漫,,株式会社,神奈川県,小田原市,栄町１丁目１９番１４号,,14,206,2500011,,,2024-04-04,清算の結了等,,,2016-08-26,1,,,,,タイショウロマン,0
2517,9030002083206,登記記録の閉鎖等,0,2024-04-09,2024-04-02,有限会社片山石油販売所,,有限会社,埼玉県,北本市,本宿２丁目１２３番地,,11,233,3640005,,,2024-04-02,清算の結了等,,,2015-10-05,1,,,,,カタヤマセキユハンバイジョ,0
2548,9070002024916,登記記録の閉鎖等,0,2024-04-09,2024-04-03,村岩土地住宅有限会社,,有限会社,群馬県,桐生市,新宿１丁目５番９号,,10,203,3760006,,,2024-04-03,清算の結了等,,,2015-10-05,1,,,,,ムライワトチジュウタク,0
2549,9080001023125,登記記録の閉鎖等,0,2024-04-09,2024-04-04,エヌ．ワークス株式会社,,株式会社,静岡県,静岡市清水区,横砂東町３６番３号,,22,103,4240032,,,2024-04-04,清算の結了等,,,2019-10-04,1,,,,,エヌワークス,0
2552,9080105002099,登記記録の閉鎖等,0,2024-04-09,2024-04-02,神理教日月五星教会,,その他の設立登記法人,静岡県,三島市,緑町１５番４号,,22,206,4110848,,,2024-04-02,清算の結了等,,,2015-10-05,1,,,,,シンリキョウニチゲツゴセイキョウカイ,0
2555,9080402015365,登記記録の閉鎖等,0,2024-04-09,2024-04-03,有限会社ハートフルキブネ,,有限会社,静岡県,浜松市浜名区,小松６０６番地の１,,22,139,4340042,,,2024-04-03,清算の結了等,,,2015-10-05,1,,,,,ハートフルキブネ,0
2580,9120002071770,登記記録の閉鎖等,0,2024-04-09,2024-04-01,有限会社松本商事,,有限会社,大阪府,交野市,南星台３丁目２３番２１号,,27,230,5760013,,,2024-04-01,清算の結了等,,,2015-10-05,1,,,,,マツモトショウジ,0
2590,9120902009969,登記記録の閉鎖等,0,2024-04-09,2024-04-02,岸田産業有限会社,,有限会社,大阪府,高槻市,塚原５丁目６番１号,,27,207,5691046,,,2024-04-02,清算の結了等,,,2015-10-05,1,,,,,キシダサンギョウ,0
2611,9150002007697,登記記録の閉鎖等,0,2024-04-09,2024-04-03,有限会社富士住宅販売,,有限会社,奈良県,橿原市,東坊城町２１５番地,,29,205,6340835,,,2024-04-03,清算の結了等,,,2015-10-05,1,,,,,フジジュウタクハンバイ,0
2612,9160001023364,登記記録の閉鎖等,0,2024-04-09,2024-04-01,株式会社Ｌ＆Ａ,,株式会社,滋賀県,大津市,下阪本３丁目２１番５号,,25,201,5200105,,,2024-04-01,清算の結了等,,,2021-05-31,1,,,,,エルアンドエー,0
2614,9160002008579,登記記録の閉鎖等,0,2024-04-09,2024-04-01,有限会社ホープひこね,,有限会社,滋賀県,彦根市,甘呂町７０６番地２,,25,202,5220046,,,2024-04-01,合併による解散等,7160002007814,令和６年４月１日滋賀県彦根市川瀬馬場町９２２番地１株式会社ＪＡ東びわこアグリサービス（7160002007814）に合併し解散,2015-10-05,1,,,,,ホープヒコネ,0
2627,9200002003451,登記記録の閉鎖等,0,2024-04-09,2024-04-02,有限会社並河新聞舗,,有限会社,岐阜県,岐阜市,北島１丁目１番８号,,21,201,5020911,,,2024-04-02,清算の結了等,,,2015-10-05,1,,,,,,0
2636,9240001027241,登記記録の閉鎖等,0,2024-04-09,2024-04-02,株式会社県民の浜蒲刈,,株式会社,広島県,呉市,蒲刈町大浦字前沖浦７６０５番地,,34,202,7370402,,,2024-04-02,清算の結了等,,,2015-10-05,1,,,,,ケンミンノハマカマガリ,0
2637,9240001034015,登記記録の閉鎖等,0,2024-04-09,2024-04-02,株式会社ヒラガシステム,,株式会社,広島県,福山市,神辺町大字川南字８の丁１０９４番地の１,,34,207,7202124,,,2024-04-02,合併による解散等,3240001029516,令和６年４月１日広島県福山市神辺町字湯野１３０２番地平賀建設株式会社（3240001029516）に合併し解散,2015-10-05,1,,,,,ヒラガシステム,0
2654,9300002000851,登記記録の閉鎖等,0,2024-04-09,2024-04-03,有限会社ダイヤカセイ,,有限会社,佐賀県,佐賀市,赤松町７番１３号エスペランサ赤松５０３号,,41,201,8400042,,,2024-04-03,清算の結了等,,,2015-10-05,1,,,,,ダイヤカセイ,0
2659,9330001025921,登記記録の閉鎖等,0,2024-04-09,2024-04-01,九州産交カード株式会社,,株式会社,熊本県,熊本市中央区,桜町３番１０号,,43,101,8600805,,,2024-04-01,合併による解散等,7330001006725,令和６年４月１日熊本市中央区桜町３番１０号九州産交ランドマーク株式会社（7330001006725）に合併し解散,2018-12-04,1,,,,,キュウシュウサンコウカード,0
2688,9460002003401,登記記録の閉鎖等,0,2024-04-09,2024-04-08,有限会社龍生館,,有限会社,北海道,釧路市,若松町１番１号,,01,206,0850033,,,2024-04-08,清算の結了等,,,2015-10-05,1,,,,,リュウセイカン,0
2694,9470001002007,登記記録の閉鎖等,0,2024-04-09,2024-04-01,四国理水株式会社,,株式会社,香川県,高松市,新北町１１番１号,,37,201,7600001,,,2024-04-01,合併による解散等,8470001009151,令和６年４月１日香川県坂出市林田町３５５２番地林田塩産株式会社（8470001009151）に合併し解散,2015-10-05,1,,,,,シコクリスイ,0
2697,9470002004919,登記記録の閉鎖等,0,2024-04-09,2024-04-01,有限会社豚太郎香川県本部,,有限会社,香川県,高松市,飯田町１３９５番地１,,37,201,7618033,,,2024-04-01,合併による解散等,6470001001093,令和６年４月１日香川県高松市飯田町１３９５番地１勝番食品株式会社（6470001001093）に合併し解散,2015-10-05,1,,,,,トンタロウカガワケンホンブ,0
2702,9500002000526,登記記録の閉鎖等,0,2024-04-09,2024-04-02,有限会社アイ・ビー・カンパニー,,有限会社,愛媛県,松山市,東長戸２丁目１１番２４号,,38,201,7918005,,,2024-04-02,清算の結了等,,,2015-10-05,1,,,,,,0
2703,9500002014170,登記記録の閉鎖等,0,2024-04-09,2024-04-01,西條重機運送有限会社,,有限会社,愛媛県,西条市,明屋敷５６５番地の３,,38,206,7930023,,,2024-04-01,清算の結了等,,,2015-10-05,1,,,,,サイジョウジュウキ,0
