sequenceNumber,corporateNumber,process,correct,updateDate,changeDate,name,nameImageId,kind,prefectureName,cityName,streetNumber,addressImageId,prefectureCode,cityCode,postCode,addressOutside,addressOutsideImageId,closeDate,closeCause,successorCorporateNumber,changeCause,assignmentDate,latest,enName,enPrefectureName,enCityName,enAddressOutside,furigana,hihyoji
3,1010001133887,登記記録の閉鎖等,0,2025-06-02,2025-05-13,株式会社Ｋ－Ｓｏｕｎｄ,,株式会社,東京都,中央区,銀座１丁目３番３号Ｇ１ビル７Ｆ１９２号,,13,102,1040061,,,2025-05-13,清算の結了等,,,2015-10-05,1,,,,,ケーサウンド,0
73,1012301007688,登記記録の閉鎖等,0,2025-06-02,2025-05-29,ＲＲＡトラベル株式会社,,株式会社,東京都,新宿区,新宿２丁目９番２２－２２０号,,13,104,1600022,,,2025-05-29,清算の結了等,,,2015-10-05,1,,,,,アールアールエイトラベル,0
109,1040001034711,登記記録の閉鎖等,0,2025-06-02,2025-05-15,アーバンホーム株式会社,,株式会社,千葉県,松戸市,根本５番地１,,12,207,2710077,,,2025-05-15,清算の結了等,,,2015-10-05,1,,,,,アーバンホーム,0
133,1120001085886,登記記録の閉鎖等,0,2025-06-02,2025-05-28,株式会社ア・テール・テテ,,株式会社,兵庫県,尼崎市,塚口町３丁目２５－１８－２０３,,28,202,6610002,,,2025-05-28,清算の結了等,,,2015-10-05,1,,,,,アテールテテ,0
143,1120105001145,登記記録の閉鎖等,0,2025-06-02,2025-05-29,黒住教堺中教会所,,その他の設立登記法人,大阪府,堺市中区,新家町５６９番地９,,27,142,5998232,,,2025-05-29,清算の結了等,,,2015-10-05,1,,,,,クロズミキョウサカイナカキョウカイショ,0
153,1130002008085,登記記録の閉鎖等,0,2025-06-02,2025-05-29,有限会社山三商店,,有限会社,京都府,京都市下京区,朱雀分木町市有地京都中央卸売市場内水産物部２５７号,,26,106,6008847,,,2025-05-29,清算の結了等,,,2015-10-05,1,,,,,,0
162,1180001137681,登記記録の閉鎖等,0,2025-06-02,2025-05-29,株式会社ＡＫＥＭＩ　ＰＲＯＪＥＣＴ,,株式会社,愛知県,弥富市,平島町甲新田６２番地１,,23,235,4980031,,,2025-05-29,清算の結了等,,,2019-08-07,1,,,,,アケミプロジェクト,0
171,1220001016484,登記記録の閉鎖等,0,2025-06-02,2025-05-30,株式会社駅長さんも太鼓判,,株式会社,石川県,輪島市,河井町１部９４番地,,17,204,9280001,,,2025-05-30,清算の結了等,,,2015-10-05,1,,,,,,0
172,1220002003993,登記記録の閉鎖等,0,2025-06-02,2025-05-29,有限会社デジックシステム,,有限会社,石川県,金沢市,みどり３丁目２１番地９,,17,201,9200373,,,2025-05-29,清算の結了等,,,2015-10-05,1,,,,,デジックシステム,0
173,1220003000767,登記記録の閉鎖等,0,2025-06-02,2025-05-30,Ｔ．Ｋファクトリー合同会社,,合同会社,石川県,金沢市,長田１丁目５番５１号,,17,201,9200043,,,2025-05-30,清算の結了等,,,2015-10-05,1,,,,,,0
226,1430001087777,登記記録の閉鎖等,0,2025-06-02,2025-05-27,ＯＴＴＯ８株式会社,,株式会社,北海道,札幌市中央区,南七条西４丁目４２４番地１２すすきのプラザビル５０２,,01,101,0640807,,,2025-05-27,清算の結了等,,,2022-11-11,1,,,,,オットーエイト,0
255,2010403029278,登記記録の閉鎖等,0,2025-06-02,2025-05-01,ジー・ジェイ・レジデンス・セブン合同会社,,合同会社,東京都,港区,六本木１丁目９番１０号アークヒルズ仙石山森タワー４０階,,13,103,1060032,,,2025-05-01,清算の結了等,,,2023-01-10,1,,,,,ジージェイレジデンスセブン,0
266,2011001066234,登記記録の閉鎖等,0,2025-06-02,2025-05-01,株式会社ディオスタ,,株式会社,東京都,渋谷区,上原２丁目３０番１号,,13,113,1510064,,,2025-05-01,合併による解散等,9013201018173,令和７年５月１日東京都渋谷区上原二丁目３０番１号株式会社ハイスピードボーイ（9013201018173）に合併し解散,2015-10-05,1,,,,,ディオスタ,0
270,2011001152273,登記記録の閉鎖等,0,2025-06-02,2025-04-14,株式会社ジェネシス,,株式会社,東京都,渋谷区,代々木１丁目３０番１５号天翔代々木ビル１０５,,13,113,1510053,,,2025-04-14,清算の結了等,,,2023-01-31,1,,,,,ジェネシス,0
286,2011301029667,登記記録の閉鎖等,0,2025-06-02,2025-05-27,株式会社ブームプロジェクト,,株式会社,東京都,杉並区,和田３丁目５３番１０号,,13,115,1660012,,,2025-05-27,清算の結了等,,,2024-05-22,1,,,,,ブームプロジェクト,0
313,2020002012956,登記記録の閉鎖等,0,2025-06-02,2025-05-28,有限会社三津本建設,,有限会社,神奈川県,横浜市戸塚区,深谷町１６４７番地１４１,,14,110,2450067,,,2025-05-28,清算の結了等,,,2015-10-05,1,,,,,ミツモトケンセツ,0
328,2030001026196,登記記録の閉鎖等,0,2025-06-02,2025-05-28,荻原興産株式会社,,株式会社,埼玉県,狭山市,大字水野９６８番地の５,,11,215,3501317,,,2025-05-28,清算の結了等,,,2015-10-05,1,,,,,オギワラコウサン,0
333,2030002041277,登記記録の閉鎖等,0,2025-06-02,2025-05-27,有限会社つるや,,有限会社,埼玉県,加須市,土手１丁目１２番１０号,,11,210,3470056,,,2025-05-27,清算の結了等,,,2015-10-05,1,,,,,ツルヤ,0
334,2030003007062,登記記録の閉鎖等,0,2025-06-02,2025-05-12,合同会社アセアン・ジャパン・アグリゲート・プロジェクト,,合同会社,東京都,新宿区,西新宿３丁目２０番２号,,13,104,1600023,,,2025-05-12,合併による解散等,3010501030797,令和７年４月３０日東京都新宿区西新宿三丁目２０番２号株式会社ＷｅＡｇｒｉ（3010501030797）に合併し解散,2015-10-05,1,,,,,アセアンジャパンアグリゲートプロジェクト,0
344,2050002021616,登記記録の閉鎖等,0,2025-06-02,2025-05-27,有限会社滝本電気工事,,有限会社,茨城県,つくば市,大砂１２７１番地４,,08,220,3002612,,,2025-05-27,清算の結了等,,,2015-10-05,1,,,,,タキモトデンキコウジ,0
350,2080001011482,登記記録の閉鎖等,0,2025-06-02,2025-05-28,株式会社スルガ産業,,株式会社,静岡県,静岡市清水区,迎山町１２番３号,,22,103,4240913,,,2025-05-28,清算の結了等,,,2015-10-05,1,,,,,スルガサンギョウ,0
352,2080402013854,登記記録の閉鎖等,0,2025-06-02,2025-05-29,有限会社小野田自動車,,有限会社,静岡県,浜松市中央区,中郡町１６６番地の１,,22,138,4313111,,,2025-05-29,清算の結了等,,,2015-10-05,1,,,,,オノダジドウシャ,0
379,2180001080864,登記記録の閉鎖等,0,2025-06-02,2025-05-29,丹羽建設株式会社,,株式会社,愛知県,犬山市,大字塔野地字清水１番地１,,23,215,4840094,,,2025-05-29,清算の結了等,,,2015-10-05,1,,,,,ニワケンセツ,0
380,2180001083504,登記記録の閉鎖等,0,2025-06-02,2025-05-28,萩原タクシー株式会社,,株式会社,愛知県,一宮市,萩原町串作字荒神田面１３９５番地の１５,,23,203,4910376,,,2025-05-28,清算の結了等,,,2015-10-05,1,,,,,ハギワラタクシー,0
385,2180003024101,登記記録の閉鎖等,0,2025-06-02,2025-05-27,合同会社ＷＯＲＴＨ　ＭＡＮＮＥＲＳ,,合同会社,愛知県,名古屋市港区,港栄４丁目８番２２号,,23,111,4550015,,,2025-05-27,清算の結了等,,,2022-08-02,1,,,,,ワースマナー,0
392,2190001020340,登記記録の閉鎖等,0,2025-06-02,2025-05-28,株式会社スタディー,,株式会社,三重県,四日市市,安島１丁目２番１８号,,24,202,5100075,,,2025-05-28,清算の結了等,,,2015-10-05,1,,,,,スタディー,0
435,2360001005687,登記記録の閉鎖等,0,2025-06-02,2025-05-19,株式会社ココスアイランドオキナワ,,株式会社,沖縄県,那覇市,古島１丁目１番地１４－１階,,47,201,9020061,,,2025-05-19,清算の結了等,,,2015-10-05,1,,,,,ココスアイランドオキナワ,0
440,2410002008436,登記記録の閉鎖等,0,2025-06-02,2025-05-27,有限会社片山不動産,,有限会社,秋田県,大館市,片山字八坂１６番地２,,05,204,0170871,,,2025-05-27,清算の結了等,,,2015-10-05,1,,,,,カタヤマフドウサン,0
443,2430001044918,登記記録の閉鎖等,0,2025-06-02,2025-05-27,株式会社Ｍ・ＫＡ企画,,株式会社,北海道,札幌市白石区,栄通１０丁目３番１８号,,01,104,0030021,,,2025-05-27,清算の結了等,,,2015-10-05,1,,,,,エムカキカク,0
444,2430001072893,登記記録の閉鎖等,0,2025-06-02,2025-05-30,株式会社ビドーブ,,株式会社,北海道,札幌市中央区,大通西１丁目１４番地２,,01,101,0600042,,,2025-05-30,清算の結了等,,,2016-12-13,1,,,,,ビドーブ,0
466,3010003028712,登記記録の閉鎖等,0,2025-06-02,2025-05-14,Ｇａｍｍａ　Ｉｎｖｅｓｔｍｅｎｔ　Ｊａｐａｎ合同会社,,合同会社,東京都,千代田区,丸の内１丁目４番１号東京共同会計事務所内,,13,101,1000005,,,2025-05-14,清算の結了等,,,2018-11-16,1,,,,,ガンマインベストメントジャパン,0
467,3010003041277,登記記録の閉鎖等,0,2025-06-02,2025-05-14,アーキテクト・アドバタイズ合同会社,,合同会社,東京都,千代田区,神田和泉町１番地６－１６ヤマトビル４０５,,13,101,1010024,,,2025-05-14,清算の結了等,,,2023-08-04,1,,,,,アーキテクトアドバタイズ,0
483,3010501051141,登記記録の閉鎖等,0,2025-06-02,2025-05-22,ＺＵＯ株式会社,,株式会社,東京都,台東区,台東１丁目２４番９号ブライト秋葉原Ｂ１Ｆ,,13,106,1100016,,,2025-05-22,清算の結了等,,,2023-10-02,1,,,,,ズオ,0
511,3011602024028,登記記録の閉鎖等,0,2025-06-02,2025-05-27,有限会社エムピーシーリサーチ,,有限会社,東京都,練馬区,南大泉６丁目２０番２８－４０１号,,13,120,1780064,,,2025-05-27,清算の結了等,,,2015-10-05,1,,,,,エムピーシーリサーチ,0
512,3011603001975,登記記録の閉鎖等,0,2025-06-02,2025-05-27,和広合同会社,,合同会社,東京都,練馬区,中村３丁目２番６号ヴェルドミール中幸４０３,,13,120,1760024,,,2025-05-27,清算の結了等,,,2016-12-09,1,,,,,ワコウ,0
513,3011605002138,登記記録の閉鎖等,0,2025-06-02,2025-05-26,一般社団法人ＴＮＫファミリー,,その他の設立登記法人,東京都,杉並区,荻窪３丁目３２番１３号,,13,115,1670051,,,2025-05-26,清算の結了等,,,2017-12-19,1,,,,,ティーエヌケーファミリー,0
525,3013202003337,登記記録の閉鎖等,0,2025-06-02,2025-04-14,有限会社湘南通信,,有限会社,東京都,目黒区,洗足１丁目５番９号,,13,110,1520012,,,2025-04-14,清算の結了等,,,2015-10-05,1,,,,,ショウナンツウシン,0
526,3013303000530,登記記録の閉鎖等,0,2025-06-02,2025-05-22,合資会社鳥宮川,,合資会社,東京都,豊島区,南大塚２丁目４０番８号,,13,116,1700005,,,2025-05-22,清算の結了等,,,2015-10-05,1,,,,,トリミヤカワ,0
545,3030001122333,登記記録の閉鎖等,0,2025-06-02,2025-05-28,株式会社齊藤会計,,株式会社,埼玉県,草加市,住吉２丁目１１番３７号２階,,11,221,3400014,,,2025-05-28,清算の結了等,,,2017-09-27,1,,,,,サイトウカイケイ,0
550,3030002049773,登記記録の閉鎖等,0,2025-06-02,2025-05-28,有限会社北産重車輌,,有限会社,埼玉県,三郷市,戸ケ崎３丁目３７１番地,,11,237,3410044,,,2025-05-28,清算の結了等,,,2015-10-05,1,,,,,ホクサンジュウシャリョウ,0
556,3040002014140,登記記録の閉鎖等,0,2025-06-02,2025-05-12,有限会社ケーレックスカンパニー,,有限会社,千葉県,千葉市中央区,港町２０番５号,,12,101,2600831,,,2025-05-12,清算の結了等,,,2015-10-05,1,,,,,ケーレックスカンパニー,0
557,3050001016335,登記記録の閉鎖等,0,2025-06-02,2025-05-28,株式会社ウィザード,,株式会社,茨城県,つくば市,松代２丁目２番地１,,08,220,3050035,,,2025-05-28,清算の結了等,,,2015-10-05,1,,,,,ウィザード,0
567,3090005000397,登記記録の閉鎖等,0,2025-06-02,2025-05-27,心靈界教団上田教会,,その他の設立登記法人,山梨県,甲府市,穴切町３０２番地,,19,201,4000000,,,2025-05-27,清算の結了等,,,2015-10-05,1,,,,,シンレイカイキョウダンウエダキョウカイ,0
582,3120005005946,登記記録の閉鎖等,0,2025-06-02,2025-05-29,新日本紡績協同組合,,その他の設立登記法人,大阪府,大阪市中央区,久太郎町１丁目６番１５号特繊会館内,,27,128,5410056,,,2025-05-29,清算の結了等,,,2015-10-05,1,,,,,シンニホンボウセキ,0
601,3140001130382,登記記録の閉鎖等,0,2025-06-02,2025-05-26,メモリーワン株式会社,,株式会社,兵庫県,三田市,南が丘２丁目３番２３号,,28,219,6691535,,,2025-05-26,清算の結了等,,,2023-06-08,1,,,,,メモリーワン,0
602,3140001132172,登記記録の閉鎖等,0,2025-06-02,2025-05-26,株式会社Ｄｒ．メッドテックコーポレーション,,株式会社,兵庫県,神戸市北区,柏尾台１４番地の４,,28,109,6511255,,,2025-05-26,清算の結了等,,,2023-10-31,1,,,,,ドクターメッドテックコーポレーション,0
608,3160001020532,登記記録の閉鎖等,0,2025-06-02,2025-05-29,ＮＥＷ　ＮＥＴ　ＷＯＲＫ株式会社,,株式会社,滋賀県,近江八幡市,若宮町６６３番地１伊藤ビル２０３号,,25,204,5230034,,,2025-05-29,清算の結了等,,,2017-10-23,1,,,,,ニュウネットワーク,0
610,3180001057969,登記記録の閉鎖等,0,2025-06-02,2025-05-29,株式会社ホットハートスタッフィング,,株式会社,愛知県,名古屋市中村区,名駅南２丁目１０番２２号,,23,105,4500003,,,2025-05-29,清算の結了等,,,2015-10-05,1,,,,,ホットハートスタッフィング,0
629,3250002015563,登記記録の閉鎖等,0,2025-06-02,2025-05-28,有限会社井上工務事務所,,有限会社,山口県,下松市,栄町１丁目５番１５号,,35,207,7440013,,,2025-05-28,清算の結了等,,,2015-10-05,1,,,,,イノウエコウムジムショ,0
659,3360003000611,登記記録の閉鎖等,0,2025-06-02,2025-05-19,合資会社島商会,,合資会社,沖縄県,那覇市,牧志３丁目６番４１号,,47,201,9000013,,,2025-05-19,清算の結了等,,,2015-10-05,1,,,,,シマショウカイ,0
669,3390005008245,登記記録の閉鎖等,0,2025-06-02,2025-05-26,特定非営利活動法人世代サポート,,その他の設立登記法人,山形県,西置賜郡白鷹町,大字荒砥甲７８８番地の２５,,06,402,9920831,,,2025-05-26,清算の結了等,,,2015-10-05,1,,,,,,0
670,3410002010829,登記記録の閉鎖等,0,2025-06-02,2025-05-28,有限会社カマタ工業,,有限会社,秋田県,山本郡三種町,鹿渡字深馬内川端１４８番地１,,05,348,0182104,,,2025-05-28,清算の結了等,,,2015-10-05,1,,,,,カマタコウギョウ,0
676,3500002021387,登記記録の閉鎖等,0,2025-06-02,2025-05-29,有限会社ユッセ,,有限会社,愛媛県,四国中央市,中曽根町２５３６番地２,,38,213,7990413,,,2025-05-29,清算の結了等,,,2015-10-05,1,,,,,ユッセ,0
699,4010403025531,登記記録の閉鎖等,0,2025-06-02,2025-05-01,サスケ合同会社,,合同会社,東京都,港区,高輪４丁目２３番６号ハイホーム高輪７０８,,13,103,1080074,,,2025-05-01,清算の結了等,,,2021-06-17,1,,,,,サスケ,0
702,4010601064216,登記記録の閉鎖等,0,2025-06-02,2025-05-27,Ｅｘｔｅｒｎａｌ株式会社,,株式会社,東京都,江東区,佐賀１丁目１６番３号２０１－５号室,,13,108,1350031,,,2025-05-27,清算の結了等,,,2023-11-28,1,,,,,エクスターナル,0
707,4010901018895,登記記録の閉鎖等,0,2025-06-02,2025-05-02,株式会社暮旅,,株式会社,東京都,港区,南青山４丁目１７－３３グランカーサ南青山２階,,13,103,1070062,,,2025-05-02,清算の結了等,,,2015-10-05,1,,,,,クラタビ,0
715,4011103011334,登記記録の閉鎖等,0,2025-06-02,2025-05-07,合同会社Ｆｕｇａ,,合同会社,東京都,新宿区,西新宿３丁目３番１３号,,13,104,1600023,,,2025-05-07,清算の結了等,,,2022-01-06,1,,,,,フーガ,0
718,4011203002893,登記記録の閉鎖等,0,2025-06-02,2025-05-29,オーチモ合同会社,,合同会社,東京都,多摩市,落合３丁目２番地１２－３０１,,13,224,2060033,,,2025-05-29,清算の結了等,,,2018-11-07,1,,,,,オーチモ,0
776,4080102003848,登記記録の閉鎖等,0,2025-06-02,2025-05-29,有限会社若葉製本,,有限会社,静岡県,沼津市,大塚１６３番地の５,,22,203,4100306,,,2025-05-29,清算の結了等,,,2015-10-05,1,,,,,ワカバセイホン,0
782,4100001012988,登記記録の閉鎖等,0,2025-06-02,2025-05-28,肝つ玉食品株式会社,,株式会社,長野県,松本市,渚４丁目２番１０号,,20,202,3900841,,,2025-05-28,清算の結了等,,,2015-10-05,1,,,,,キモツタマショクヒン,0
787,4110002004777,登記記録の閉鎖等,0,2025-06-02,2025-05-22,有限会社新潟広告,,有限会社,新潟県,新潟市中央区,幸西１丁目４番２５号,,15,103,9500908,,,2025-05-22,清算の結了等,,,2015-10-05,1,,,,,ニイガタコウコク,0
801,4120905006571,登記記録の閉鎖等,0,2025-06-02,2025-05-29,一般社団法人ＭＡＢＡＤＩＬＩＫＯ,,その他の設立登記法人,京都府,京都市下京区,朱雀宝蔵町４４番地協栄ビル２階京都朱雀スタジオ,,26,106,6008846,,,2025-05-29,清算の結了等,,,2024-03-01,1,,,,,マバディリコ,0
820,4160001023146,登記記録の閉鎖等,0,2025-06-02,2025-05-28,ＶＰＡＫ株式会社,,株式会社,滋賀県,長浜市,南田附町３７７番地４,,25,203,5260844,,,2025-05-28,清算の結了等,,,2021-03-05,1,,,,,ブイパック,0
821,4160001024144,登記記録の閉鎖等,0,2025-06-02,2025-05-29,株式会社ファーストグラフ,,株式会社,愛知県,名古屋市名東区,藤森２丁目２８６,,23,115,4650026,,,2025-05-29,清算の結了等,,,2022-04-26,1,,,,,ファーストグラフ,0
825,4180001066226,登記記録の閉鎖等,0,2025-06-02,2025-05-29,株式会社ＰＮＳ,,株式会社,愛知県,名古屋市中村区,名駅南２丁目１０番２２号,,23,105,4500003,,,2025-05-29,清算の結了等,,,2015-10-05,1,,,,,ピーエヌエス,0
831,4180002065409,登記記録の閉鎖等,0,2025-06-02,2025-05-29,有限会社大手土建,,有限会社,愛知県,春日井市,大手町１６２５番地,,23,206,4860807,,,2025-05-29,清算の結了等,,,2015-10-05,1,,,,,オオテドケン,0
842,4200002024709,登記記録の閉鎖等,0,2025-06-02,2025-05-26,有限会社大黒屋,,有限会社,岐阜県,中津川市,馬籠４２５５番地１,,21,206,5080502,,,2025-05-26,清算の結了等,,,2015-10-05,1,,,,,ダイコクヤ,0
846,4210001018041,登記記録の閉鎖等,0,2025-06-02,2025-05-28,株式会社セカンド,,株式会社,福井県,福井市,川合鷲塚町第１７号１６番地,,18,201,9100102,,,2025-05-28,清算の結了等,,,2020-06-24,1,,,,,セカンド,0
867,4290005016620,登記記録の閉鎖等,0,2025-06-02,2025-05-26,一般社団法人グローバルカルチャークラブ,,その他の設立登記法人,福岡県,福岡市中央区,大名２丁目６番３１号,,40,133,8100041,,,2025-05-26,清算の結了等,,,2017-11-01,1,,,,,グローバルカルチャークラブ,0
881,4350003002681,登記記録の閉鎖等,0,2025-06-02,2025-05-26,合同会社Ｔ’ｓカンパニー,,合同会社,宮崎県,都城市,花繰町１４－３－２,,45,202,8850037,,,2025-05-26,清算の結了等,,,2016-04-07,1,,,,,ティーズカンパニー,0
897,4480003001415,登記記録の閉鎖等,0,2025-06-02,2025-05-29,合同会社ＡｃｔｉｖｅＨｅａｒｔｓ,,合同会社,徳島県,小松島市,金磯町１２番８０号,,36,203,7730007,,,2025-05-29,清算の結了等,,,2019-10-18,1,,,,,アクティブハーツ,0
899,4500001014606,登記記録の閉鎖等,0,2025-06-02,2025-05-26,春日紙工株式会社,,株式会社,愛媛県,四国中央市,金生町下分１５８２番地,,38,213,7990111,,,2025-05-26,清算の結了等,,,2015-10-05,1,,,,,カスガシコウ,0
900,4500001018887,登記記録の閉鎖等,0,2025-06-02,2025-05-29,株式会社Ｋ’ｓカーゴ,,株式会社,愛媛県,松山市,花園町４番地１１吉田ビル３階東,,38,201,7900005,,,2025-05-29,清算の結了等,,,2015-10-05,1,,,,,ケーズカーゴ,0
924,5010401122387,登記記録の閉鎖等,0,2025-06-02,2025-05-14,株式会社ＢＲＥＥＤ,,株式会社,東京都,中央区,日本橋兜町２２番３号,,13,102,1030026,,,2025-05-14,清算の結了等,,,2016-01-05,1,,,,,ブリード,0
968,5012401030388,登記記録の閉鎖等,0,2025-06-02,2025-05-28,株式会社プレキシー,,株式会社,東京都,小金井市,緑町５丁目２番１８－３１１号コート武蔵小金井マンション,,13,210,1840003,,,2025-05-28,清算の結了等,,,2015-10-05,1,,,,,プレキシー,0
1018,5060002018633,登記記録の閉鎖等,0,2025-06-02,2025-05-28,株式会社田野辺,,株式会社,栃木県,芳賀郡芳賀町,大字祖母井１０４９番地,,09,345,3213304,,,2025-05-28,清算の結了等,,,2015-10-05,1,,,,,タノベ,0
1022,5070002008856,登記記録の閉鎖等,0,2025-06-02,2025-05-20,有限会社魚清大増,,有限会社,群馬県,高崎市,砂賀町９２番地,,10,202,3700832,,,2025-05-20,清算の結了等,,,2015-10-05,1,,,,,ウオセイダイマス,0
1026,5090003001569,登記記録の閉鎖等,0,2025-06-02,2025-05-02,合同会社Ｔｒａｄｅｌｙ,,合同会社,東京都,港区,南青山２丁目２番１５号,,13,103,1070062,,,2025-05-02,清算の結了等,,,2019-09-30,1,,,,,トレードリィ,0
1029,5110002020724,登記記録の閉鎖等,0,2025-06-02,2025-05-28,有限会社たまきや,,有限会社,新潟県,三島郡出雲崎町,大字尼瀬１８３番地４,,15,405,9494308,,,2025-05-28,清算の結了等,,,2015-10-05,1,,,,,タマキヤ,0
1057,5130002018089,登記記録の閉鎖等,0,2025-06-02,2025-05-23,有限会社和,,有限会社,京都府,京都市左京区,鹿ケ谷上宮ノ前町２１番地,,26,103,6068447,,,2025-05-23,清算の結了等,,,2015-10-05,1,,,,,カズ,0
1058,5130005016049,登記記録の閉鎖等,0,2025-06-02,2025-05-29,一般社団法人日本トータルプロデュース協会,,その他の設立登記法人,京都府,京都市中京区,三条町３４９番地の２,,26,104,6048205,,,2025-05-29,清算の結了等,,,2020-12-17,1,,,,,ニホントータルプロデュースキョウカイ,0
1068,5180001013227,登記記録の閉鎖等,0,2025-06-02,2025-05-29,株式会社林積算,,株式会社,愛知県,名古屋市中区,栄５丁目２６番３９号,,23,106,4600008,,,2025-05-29,清算の結了等,,,2015-10-05,1,,,,,ハヤシセキサン,0
1103,5290002045605,登記記録の閉鎖等,0,2025-06-02,2025-05-26,有限会社シンテン薬局,,有限会社,福岡県,飯塚市,本町８番９号,,40,205,8200042,,,2025-05-26,清算の結了等,,,2015-10-05,1,,,,,シンテンヤッキョク,0
1119,5370202003750,登記記録の閉鎖等,0,2025-06-02,2025-05-26,有限会社高橋鉄筋工業,,有限会社,宮城県,加美郡加美町,字小瀬下原東３番地の１,,04,445,9814362,,,2025-05-26,清算の結了等,,,2015-10-05,1,,,,,タカハシテッキンコウギョウ,0
1126,5440001008415,登記記録の閉鎖等,0,2025-06-02,2025-05-27,株式会社ＭＳフード企画,,株式会社,北海道,函館市,昭和２丁目３７番１５号,,01,202,0410812,,,2025-05-27,清算の結了等,,,2018-11-02,1,,,,,エムエスフードキカク,0
1134,6010001157493,登記記録の閉鎖等,0,2025-06-02,2025-05-15,メディックス株式会社,,株式会社,東京都,中央区,日本橋本町１丁目１番８号ＫＤＸ新日本橋ビル１０階,,13,102,1030023,,,2025-05-15,清算の結了等,,,2015-10-05,1,,,,,メディックス,0
1152,6010403015398,登記記録の閉鎖等,0,2025-06-02,2025-05-29,合同会社エヌ・ワイ・ランド,,合同会社,東京都,港区,南青山３丁目１０番４１号ジュエル青山ビル２階,,13,103,1070062,,,2025-05-29,合併による解散等,6120001095071,令和７年５月１２日東京都千代田区丸の内一丁目５番１号地主株式会社（6120001095071）に合併し解散,2016-09-26,1,,,,,エヌワイランド,0
1154,6010501002389,登記記録の閉鎖等,0,2025-06-02,2025-05-22,株式会社川瀬商店,,株式会社,東京都,台東区,花川戸１丁目１２番８－２０２号,,13,106,1110033,,,2025-05-22,清算の結了等,,,2015-10-05,1,,,,,カワセショウテン,0
1157,6010601047490,登記記録の閉鎖等,0,2025-06-02,2025-05-29,株式会社ボタニカ,,株式会社,東京都,墨田区,亀沢１丁目１０番７モナド両国１階,,13,107,1300014,,,2025-05-29,清算の結了等,,,2015-10-05,1,,,,,,0
1158,6010601053266,登記記録の閉鎖等,0,2025-06-02,2025-05-29,株式会社Ｇｌｏｂｅｅ　Ｉｎｔｅｒｎａｔｉｏｎａｌ,,株式会社,東京都,江東区,豊洲６丁目２番２９号,,13,108,1350061,,,2025-05-29,清算の結了等,,,2018-05-07,1,,,,,グロービーインターナショナル,0
1188,6011601000035,登記記録の閉鎖等,0,2025-06-02,2025-05-27,株式会社アサヒ電気研究所,,株式会社,東京都,練馬区,関町東１丁目８番３０号,,13,120,1770052,,,2025-05-27,清算の結了等,,,2015-10-05,1,,,,,アサヒデンキケンキュウジョ,0
1190,6011702016847,登記記録の閉鎖等,0,2025-06-02,2025-05-26,有限会社ハウス．ＪＰ,,有限会社,東京都,江戸川区,小松川１丁目４番１－３号,,13,123,1320034,,,2025-05-26,清算の結了等,,,2015-10-05,1,,,,,ハウスジェーピー,0
1197,6012702008784,登記記録の閉鎖等,0,2025-06-02,2025-05-29,有限会社プラテ,,有限会社,東京都,東村山市,栄町２丁目７番地８,,13,213,1890013,,,2025-05-29,清算の結了等,,,2015-10-05,1,,,,,プラテ,0
1203,6013302001378,登記記録の閉鎖等,0,2025-06-02,2025-05-22,有限会社ウィシュボーン,,有限会社,東京都,豊島区,高田１丁目３６番１３－８０４号,,13,116,1710033,,,2025-05-22,清算の結了等,,,2015-10-05,1,,,,,ウィシュボーン,0
1217,6030001090486,登記記録の閉鎖等,0,2025-06-02,2025-05-27,株式会社Ｌｕｘｙ　Ｑｕｅｅｎ,,株式会社,埼玉県,日高市,大字楡木２７８番地,,11,242,3501235,,,2025-05-27,清算の結了等,,,2015-10-05,1,,,,,ラクシークイーン,0
1245,6120001196786,登記記録の閉鎖等,0,2025-06-02,2025-05-19,ワールドＪＰ株式会社,,株式会社,大阪府,大阪市東淀川区,東中島１丁目１８－４－５０５,,27,114,5330033,,,2025-05-19,清算の結了等,,,2016-03-08,1,,,,,ワールドジェイピー,0
1260,6130001056270,登記記録の閉鎖等,0,2025-06-02,2025-05-29,株式会社松風庵,,株式会社,京都府,京都市右京区,龍安寺西ノ川町２１番地の５０,,26,108,6168016,,,2025-05-29,清算の結了等,,,2015-10-29,1,,,,,,0
1280,6180002024791,登記記録の閉鎖等,0,2025-06-02,2025-05-30,有限会社ミツワ砥石商会,,有限会社,愛知県,名古屋市西区,則武新町３丁目１番１４０号,,23,104,4510051,,,2025-05-30,清算の結了等,,,2015-10-05,1,,,,,ミツワトイシショウカイ,0
1282,6180003025161,登記記録の閉鎖等,0,2025-06-02,2025-05-28,＿寧合同会社,00130301,合同会社,愛知県,名古屋市中区,栄４丁目２１番５号北岡ビル２階２０１号,,23,106,4600008,,,2025-05-28,清算の結了等,,,2023-04-28,1,,,,,シンネイ,0
1290,6220001003668,登記記録の閉鎖等,0,2025-06-02,2025-05-30,せきど金物株式会社,,株式会社,石川県,金沢市,新保本５丁目１３６番地,,17,201,9218062,,,2025-05-30,清算の結了等,,,2015-10-05,1,,,,,セキドカナモノ,0
1291,6240001063058,登記記録の閉鎖等,0,2025-06-02,2025-05-26,株式会社ヤマシタコーポレーション,,株式会社,広島県,広島市安佐南区,大町西３丁目２１番１９号,,34,105,7310125,,,2025-05-26,清算の結了等,,,2024-04-08,1,,,,,ヤマシタコーポレーション,0
1296,6290001053194,登記記録の閉鎖等,0,2025-06-02,2025-05-26,冨士建設工業株式会社,,株式会社,福岡県,柳川市,東蒲池２９６番地の１,,40,207,8320006,,,2025-05-26,清算の結了等,,,2015-10-05,1,,,,,フジケンセツコウギョウ,0
1299,6290001094313,登記記録の閉鎖等,0,2025-06-02,2025-05-23,株式会社アフタースクール,,株式会社,福岡県,福岡市中央区,大手門３丁目１４番２７－６０４号ラフォーレ大濠パークアベニュー,,40,133,8100074,,,2025-05-23,清算の結了等,,,2021-08-23,1,,,,,アフタースクール,0
1306,6290005002206,登記記録の閉鎖等,0,2025-06-02,2025-05-28,日本経済新聞西部専売店協同組合,,その他の設立登記法人,福岡県,福岡市博多区,博多駅東２丁目１６番１号,,40,132,8120013,,,2025-05-28,清算の結了等,,,2015-10-05,1,,,,,ニホンケイザイシンブンセイブセンバイテン,0
1331,6480003002130,登記記録の閉鎖等,0,2025-06-02,2025-05-29,アルファベスト合同会社,,合同会社,徳島県,徳島市,八万町橋本７８番地パルティーレ八万町１０１号室,,36,201,7708078,,,2025-05-29,清算の結了等,,,2024-05-22,1,,,,,アルファベスト,0
1333,6490002003888,登記記録の閉鎖等,0,2025-06-02,2025-05-08,株式会社ホテル・南水,,株式会社,東京都,品川区,豊町１丁目１１番４号２０４号室,,13,109,1420042,,,2025-05-08,清算の結了等,,,2015-10-05,1,,,,,ホテルナンスイ,0
1365,7010403017591,登記記録の閉鎖等,0,2025-06-02,2025-05-08,合同会社綿津見八海,,合同会社,東京都,港区,麻布十番１丁目２番７号ラフィネ麻布十番７０１号室,,13,103,1060045,,,2025-05-08,合併による解散等,7010403018367,令和７年５月８日東京都港区六本木四丁目３番１１号六本木ユニハウス２２３号合同会社ひきつぼし（7010403018367）に合併し解散,2017-11-14,1,,,,,ワタツミハッカイ,0
1373,7010601065459,登記記録の閉鎖等,0,2025-06-02,2025-05-27,新鳴一株式会社,,株式会社,東京都,墨田区,向島４丁目１－１、２０８号室,,13,107,1310033,,,2025-05-27,清算の結了等,,,2024-07-02,1,,,,,シンメイイチ,0
1382,7011001117750,登記記録の閉鎖等,0,2025-06-02,2025-05-30,シンビオシス株式会社,,株式会社,東京都,世田谷区,太子堂４丁目２６番１０号,,13,112,1540004,,,2025-05-30,清算の結了等,,,2017-08-09,1,,,,,シンビオシス,0
1390,7011101057624,登記記録の閉鎖等,0,2025-06-02,2025-05-09,ＦＭトレーディング株式会社,,株式会社,東京都,新宿区,大京町１２番地,,13,104,1600015,,,2025-05-09,清算の結了等,,,2015-10-05,1,,,,,エフエムトレーディング,0
1411,7020002004536,登記記録の閉鎖等,0,2025-06-02,2025-05-28,有限会社田中風呂店,,有限会社,神奈川県,横浜市緑区,十日市場町８５６番地１,,14,113,2260025,,,2025-05-28,清算の結了等,,,2015-10-05,1,,,,,タナカフロテン,0
1446,7080001011759,登記記録の閉鎖等,0,2025-06-02,2025-05-28,株式会社フリースタイル,,株式会社,静岡県,静岡市駿河区,敷地１丁目１９番１７号,,22,102,4228036,,,2025-05-28,清算の結了等,,,2015-10-05,1,,,,,フリースタイル,0
1447,7080002005776,登記記録の閉鎖等,0,2025-06-02,2025-05-28,有限会社ＭＩＷＡ－ＴＲＵＳＴ,,有限会社,静岡県,静岡市葵区,北安東５丁目２４番３５号,,22,101,4200881,,,2025-05-28,清算の結了等,,,2015-10-05,1,,,,,ミワトラスト,0
1455,7110002010962,登記記録の閉鎖等,0,2025-06-02,2025-05-22,有限会社マルユ建機,,有限会社,新潟県,新潟市北区,柳原３丁目６番７号,,15,101,9503326,,,2025-05-22,清算の結了等,,,2015-10-05,1,,,,,マルユケンキ,0
1464,7120001252613,登記記録の閉鎖等,0,2025-06-02,2025-04-11,株式会社ＳＰＩＣＥ　ＳＴＯＣＫ,,株式会社,大阪府,大阪市北区,梅田１丁目１－３大阪駅前第３ビル２９階１－１－１号室,,27,127,5300001,,,2025-04-11,清算の結了等,,,2023-02-17,1,,,,,スパイスストック,0
1474,7120101034449,登記記録の閉鎖等,0,2025-06-02,2025-05-26,株式会社アドールミキ,,株式会社,大阪府,藤井寺市,沢田２丁目７番２９号,,27,226,5830011,,,2025-05-26,清算の結了等,,,2015-10-05,1,,,,,アドールミキ,0
1494,7140002022559,登記記録の閉鎖等,0,2025-06-02,2025-05-27,有限会社ケー・エム・コーポレーション,,有限会社,兵庫県,神戸市垂水区,下畑町字鷲ケ尾３０３番地の２２,,28,108,6550861,,,2025-05-27,清算の結了等,,,2015-10-05,1,,,,,ケーエムコーポレーション,0
1509,7180002007060,登記記録の閉鎖等,0,2025-06-02,2025-05-28,有限会社ホーワ,,有限会社,愛知県,名古屋市港区,明正２丁目３８番地の４,,23,111,4550806,,,2025-05-28,清算の結了等,,,2015-10-05,1,,,,,ホーワ,0
1510,7180002041134,登記記録の閉鎖等,0,2025-06-02,2025-05-30,有限会社丸万,,有限会社,愛知県,北名古屋市,鍜治ケ一色村内西５５番地,,23,234,4810037,,,2025-05-30,清算の結了等,,,2015-10-05,1,,,,,マルマン,0
1520,7230005008752,登記記録の閉鎖等,0,2025-06-02,2025-05-26,一般社団法人ＭＡＹムーヴメント,,その他の設立登記法人,富山県,富山市,一番町４番２７号,,16,201,9300061,,,2025-05-26,清算の結了等,,,2017-01-31,1,,,,,エムエーワイムーヴメント,0
1529,7260002019709,登記記録の閉鎖等,0,2025-06-02,2025-05-27,つばさ自動車有限会社,,有限会社,岡山県,倉敷市,老松町３丁目１４番２７号,,33,202,7100826,,,2025-05-27,清算の結了等,,,2015-10-05,1,,,,,ツバサジドウシャ,0
1530,7270002004049,登記記録の閉鎖等,0,2025-06-02,2025-05-29,有限会社殿縫製,,有限会社,鳥取県,鳥取市,気高町殿３９５番地,,31,201,6890342,,,2025-05-29,清算の結了等,,,2015-10-05,1,,,,,トノホウセイ,0
1557,7370002018006,登記記録の閉鎖等,0,2025-06-02,2025-05-26,有限会社トライ,,有限会社,宮城県,仙台市宮城野区,燕沢東１丁目６番３３号,,04,102,9830822,,,2025-05-26,清算の結了等,,,2015-10-05,1,,,,,トライ,0
1558,7370003001035,登記記録の閉鎖等,0,2025-06-02,2025-05-26,合資会社ダイセン,,合資会社,宮城県,仙台市宮城野区,安養寺２丁目３４番８号,,04,102,9830832,,,2025-05-26,清算の結了等,,,2015-10-05,1,,,,,ダイセン,0
1561,7400002011080,登記記録の閉鎖等,0,2025-06-02,2025-05-19,有限会社Ｓ・Ｙプランニング,,有限会社,岩手県,下閉伊郡岩泉町,大川字舞の子６７番地１,,03,483,0282232,,,2025-05-19,清算の結了等,,,2015-10-05,1,,,,,エスワイプランニング,0
1567,7430002002291,登記記録の閉鎖等,0,2025-06-02,2025-05-28,有限会社入山組,,有限会社,北海道,札幌市東区,北二十六条東１９丁目６番１２号,,01,103,0650026,,,2025-05-28,清算の結了等,,,2015-10-05,1,,,,,イリヤマグミ,0
1570,7470002009597,登記記録の閉鎖等,0,2025-06-02,2025-05-30,有限会社山本工芸,,有限会社,香川県,高松市,香川町川東上６３６番地１２７,,37,201,7611706,,,2025-05-30,清算の結了等,,,2015-10-05,1,,,,,ヤマモトコウゲイ,0
1575,7700150087999,削除,,2025-06-02,,,,,,,,,,,,,,,,,,,,,,,,,
1599,8010401152852,登記記録の閉鎖等,0,2025-06-02,2025-05-01,コーラス株式会社,,株式会社,東京都,港区,虎ノ門２丁目３番１７号,,13,103,1050001,,,2025-05-01,合併による解散等,6010401066617,令和７年５月１日東京都港区虎ノ門四丁目１番２８号プラス株式会社（6010401066617）に合併し解散,2020-05-21,1,,,,,コーラス,0
1601,8010401165383,登記記録の閉鎖等,0,2025-06-02,2025-05-02,株式会社ｍｅｄｉｉｉ,,株式会社,東京都,港区,海岸３丁目１８番２１号,,13,103,1080022,,,2025-05-02,合併による解散等,9010501041970,令和７年５月１日東京都港区海岸三丁目１８番２１号株式会社ｔｏｔｏｎｏｕ（9010501041970）に合併し解散,2022-02-04,1,,,,,メディー,0
1630,8011103013789,登記記録の閉鎖等,0,2025-06-02,2025-05-12,全＿合同会社,00132842,合同会社,東京都,新宿区,下落合３丁目１番１１号,,13,104,1610033,,,2025-05-12,清算の結了等,,,2023-12-01,1,,,,,ゼンユウ,0
1634,8011301001728,登記記録の閉鎖等,0,2025-06-02,2025-04-24,河北ゴム工業株式会社,,株式会社,東京都,杉並区,荻窪１丁目１番６号,,13,115,1670051,,,2025-04-24,清算の結了等,,,2015-10-05,1,,,,,カワキタゴムコウギョウ,0
1639,8011602021342,登記記録の閉鎖等,0,2025-06-02,2025-05-29,有限会社桜自然舎,,有限会社,神奈川県,横浜市南区,平楽８３番地４,,14,105,2320035,,,2025-05-29,清算の結了等,,,2015-10-05,1,,,,,サクラシゼンシャ,0
1642,8012401033669,登記記録の閉鎖等,0,2025-06-02,2025-05-21,株式会社新井研究所,,株式会社,東京都,台東区,上野３丁目１１番５号,,13,106,1100005,,,2025-05-21,清算の結了等,,,2018-02-22,1,,,,,,0
1665,8021002010886,登記記録の閉鎖等,0,2025-06-02,2025-05-19,有限会社システムエンジニアリングタカシマ,,有限会社,神奈川県,茅ヶ崎市,浜竹４丁目２番４５号,,14,207,2530021,,,2025-05-19,清算の結了等,,,2015-10-05,1,,,,,システムエンジニアリングタカシマ,0
1689,8040002049751,登記記録の閉鎖等,0,2025-06-02,2025-05-15,有限会社わたなべ,,有限会社,千葉県,松戸市,樋野口５２０番地,,12,207,2710067,,,2025-05-15,清算の結了等,,,2015-10-05,1,,,,,ワタナベ,0
1694,8050001010671,登記記録の閉鎖等,0,2025-06-02,2025-05-26,株式会社プロセス・テクノロジー開発,,株式会社,茨城県,稲敷郡阿見町,大字君島１３２６番地,,08,443,3000322,,,2025-05-26,清算の結了等,,,2015-10-05,1,,,,,プロセステクノロジーカイハツ,0
1712,8100001015946,登記記録の閉鎖等,0,2025-06-02,2025-05-29,株式会社Ｓｉｔｉ,,株式会社,長野県,松本市,大字島立９００－３穂上ビル３階,,20,202,3900852,,,2025-05-29,清算の結了等,,,2015-10-05,1,,,,,シティ,0
1714,8110001015929,登記記録の閉鎖等,0,2025-06-02,2025-05-21,株式会社タイヘイ,,株式会社,新潟県,燕市,吉田鴻巣１０２番地２,,15,213,9590261,,,2025-05-21,清算の結了等,,,2015-10-05,1,,,,,タイヘイ,0
1718,8120001206221,登記記録の閉鎖等,0,2025-06-02,2025-05-28,株式会社ＵＭＥＲＭ,,株式会社,大阪府,大阪市中央区,淡路町３丁目２－１０ステラ淀屋橋ビル９０１,,27,128,5410047,,,2025-05-28,合併による解散等,1011001043432,令和７年４月２５日東京都渋谷区恵比寿南一丁目１番１号ヒューマックス恵比寿ビル３Ｆ株式会社ヴァリエンテバルコ（1011001043432）に合併し解散,2017-06-08,1,,,,,ウメルム,0
1731,8120105005742,登記記録の閉鎖等,0,2025-06-02,2025-05-29,医療法人快生会,,その他の設立登記法人,大阪府,大阪市淀川区,西中島５丁目１２番８号,,27,123,5320011,,,2025-05-29,清算の結了等,,,2015-10-05,1,,,,,カイセイカイ,0
1771,8220001021668,登記記録の閉鎖等,0,2025-06-02,2025-05-30,イージィーコネクト株式会社,,株式会社,石川県,金沢市,大豆田本町甲２３６番地８,,17,201,9200047,,,2025-05-30,清算の結了等,,,2017-05-30,1,,,,,,0
1772,8220002017194,登記記録の閉鎖等,0,2025-06-02,2025-05-29,有限会社オカモト,,有限会社,石川県,かほく市,宇野気チ１３番地６,,17,209,9291125,,,2025-05-29,清算の結了等,,,2015-10-05,1,,,,,オカモト,0
1793,8290801007661,登記記録の閉鎖等,0,2025-06-02,2025-05-30,株式会社イムカ,,株式会社,福岡県,北九州市小倉北区,赤坂４丁目２２番５号,,40,106,8020032,,,2025-05-30,清算の結了等,,,2015-10-05,1,,,,,イムカ,0
1796,8310001012286,登記記録の閉鎖等,0,2025-06-02,2025-05-29,株式会社増田企画,,株式会社,長崎県,長崎市,葉山１丁目８番１－５０６号,,42,201,8528053,,,2025-05-29,清算の結了等,,,2015-10-05,1,,,,,マスダキカク,0
1806,8360002000145,登記記録の閉鎖等,0,2025-06-02,2025-05-21,有限会社粟国創建,,有限会社,沖縄県,島尻郡粟国村,字東１８８５番地,,47,355,9013702,,,2025-05-21,清算の結了等,,,2015-10-05,1,,,,,アグニソウケン,0
1814,8410001005981,登記記録の閉鎖等,0,2025-06-02,2025-05-27,株式会社片山建設,,株式会社,秋田県,大館市,片山字八坂１６番地２,,05,204,0170871,,,2025-05-27,清算の結了等,,,2015-10-05,1,,,,,カタヤマケンセツ,0
1816,8430001075098,登記記録の閉鎖等,0,2025-06-02,2025-05-30,株式会社ゴジョウ・ウェイズ,,株式会社,北海道,札幌市中央区,北四条西４丁目１番地１,,01,101,0600004,,,2025-05-30,清算の結了等,,,2017-10-11,1,,,,,ゴジョウウェイズ,0
1821,8440001006366,登記記録の閉鎖等,0,2025-06-02,2025-05-27,株式会社井原農園,,株式会社,北海道,久遠郡せたな町,北檜山区徳島９４９番地,,01,371,0494512,,,2025-05-27,清算の結了等,,,2015-10-05,1,,,,,イハラノウエン,0
1834,9010003037682,登記記録の閉鎖等,0,2025-06-02,2025-05-13,六本木リアルティ・スリー合同会社,,合同会社,東京都,中央区,日本橋１丁目４番１号,,13,102,1030027,,,2025-05-13,清算の結了等,,,2022-05-18,1,,,,,ロッポンギリアルティスリー,0
1846,9010502006691,登記記録の閉鎖等,0,2025-06-02,2025-05-21,有限会社大五屋,,有限会社,東京都,台東区,東浅草２丁目１０番１３号,,13,106,1110025,,,2025-05-21,清算の結了等,,,2015-10-05,1,,,,,ダイゴヤ,0
1858,9011001143282,登記記録の閉鎖等,0,2025-06-02,2025-05-01,株式会社ＫＢＴ,,株式会社,東京都,港区,南青山３丁目１番３６号青山丸竹ビル６Ｆ,,13,103,1070062,,,2025-05-01,合併による解散等,3010401139961,令和７年５月１日東京都港区南青山三丁目１番３６号青山丸竹ビル６Ｆ株式会社カーム（3010401139961）に合併し解散,2021-10-08,1,,,,,ケービーティー,0
1889,9013201017266,登記記録の閉鎖等,0,2025-06-02,2025-05-01,株式会社ゴールドガールズ,,株式会社,東京都,渋谷区,上原２丁目３０番１号,,13,113,1510064,,,2025-05-01,合併による解散等,9013201018173,令和７年５月１日東京都渋谷区上原二丁目３０番１号株式会社ハイスピードボーイ（9013201018173）に合併し解散,2015-10-05,1,,,,,ゴールドガールズ,0
1891,9020001003181,登記記録の閉鎖等,0,2025-06-02,2025-05-28,株式会社日本シンソー,,株式会社,神奈川県,横浜市磯子区,杉田２丁目１８番２４号,,14,107,2350033,,,2025-05-28,清算の結了等,,,2015-10-05,1,,,,,ニホンシンソー,0
1904,9030002080582,登記記録の閉鎖等,0,2025-06-02,2025-05-27,群馬農業有限会社,,有限会社,埼玉県,本庄市,小島南２丁目６番２８号,,11,211,3670062,,,2025-05-27,清算の結了等,,,2015-10-05,1,,,,,グンマノウギョウ,0
1918,9050001054734,登記記録の閉鎖等,0,2025-06-02,2025-05-19,株式会社Ｃｈｒｏｍ,,株式会社,茨城県,鉾田市,汲上４３７７－２,,08,234,3112103,,,2025-05-19,清算の結了等,,,2024-05-29,1,,,,,クロム,0
1924,9070002023298,登記記録の閉鎖等,0,2025-06-02,2025-05-27,有限会社グレース,,有限会社,群馬県,桐生市,境野町７丁目１８１３番地１３,,10,203,3760002,,,2025-05-27,清算の結了等,,,2015-10-05,1,,,,,グレース,0
1928,9100001017314,登記記録の閉鎖等,0,2025-06-02,2025-05-29,株式会社大北設備,,株式会社,長野県,北安曇郡白馬村,大字神城１１４９０番地,,20,485,3999211,,,2025-05-29,清算の結了等,,,2015-10-05,1,,,,,ダイホクセツビ,0
1940,9120101032046,登記記録の閉鎖等,0,2025-06-02,2025-05-29,グロリア株式会社,,株式会社,大阪府,羽曳野市,誉田５丁目７番７号,,27,222,5830857,,,2025-05-29,合併による解散等,8120101032047,令和７年５月２９日大阪府羽曳野市誉田五丁目７番７号株式会社グロリア魔法瓶製作所（8120101032047）に合併し解散,2015-10-05,1,,,,,グロリア,0
1944,9120103005272,登記記録の閉鎖等,0,2025-06-02,2025-05-27,プレイス合同会社,,合同会社,大阪府,堺市西区,上野芝向ヶ丘町２丁２番１４号,,27,144,5938303,,,2025-05-27,清算の結了等,,,2023-06-14,1,,,,,プレイス,0
1955,9180002045141,登記記録の閉鎖等,0,2025-06-02,2025-05-29,有限会社ガッテン,,有限会社,愛知県,名古屋市中川区,吉津１丁目２０５番地,,23,110,4540981,,,2025-05-29,清算の結了等,,,2015-10-05,1,,,,,ガッテン,0
1961,9200001042070,登記記録の閉鎖等,0,2025-06-02,2025-05-26,欣睿株式会社,,株式会社,岐阜県,大垣市,北方町１丁目１４９８－２児玉清ビル２階Ｅ（中）号,,21,202,5030019,,,2025-05-26,清算の結了等,,,2024-01-15,1,,,,,キンエイ,0
1965,9200002017732,登記記録の閉鎖等,0,2025-06-02,2025-05-26,有限会社石橋工業,,有限会社,岐阜県,可児市,今９０６番地の２,,21,214,5090246,,,2025-05-26,清算の結了等,,,2015-10-05,1,,,,,イシバシコウギョウ,0
1968,9220001019331,登記記録の閉鎖等,0,2025-06-02,2025-05-30,株式会社ＤＡＲＵＭＡ,,株式会社,石川県,野々市市,清金３丁目１３０番地,,17,212,9218837,,,2025-05-30,清算の結了等,,,2015-10-05,1,,,,,,0
1971,9250002019162,登記記録の閉鎖等,0,2025-06-02,2025-05-28,共立産業有限会社,,有限会社,山口県,岩国市,玖珂町５６１番地の５,,35,208,7420344,,,2025-05-28,清算の結了等,,,2015-10-05,1,,,,,キョウリツサンギョウ,0
1994,9290002018078,登記記録の閉鎖等,0,2025-06-02,2025-05-26,有限会社よしおか,,有限会社,福岡県,福岡市中央区,平尾４丁目１番３１－２１１号,,40,133,8100014,,,2025-05-26,清算の結了等,,,2015-10-05,1,,,,,ヨシオカ,0
1998,9290801020135,登記記録の閉鎖等,0,2025-06-02,2025-05-21,株式会社川崎アグリ,,株式会社,福岡県,田川郡川崎町,大字田原７８９番地の２,,40,605,8270004,,,2025-05-21,清算の結了等,,,2015-10-05,1,,,,,カワサキアグリ,0
2013,9360002005878,登記記録の閉鎖等,0,2025-06-02,2025-05-23,有限会社アイズクリエイト,,有限会社,沖縄県,那覇市,港町３丁目７番５０号りゅうせき港町ビル３階,,47,201,9000001,,,2025-05-23,清算の結了等,,,2015-10-05,1,,,,,アイズクリエイト,0
2021,9410002006540,登記記録の閉鎖等,0,2025-06-02,2025-05-19,有限会社伊藤電気商会,,有限会社,秋田県,由利本荘市,大門５５番地,,05,210,0150808,,,2025-05-19,清算の結了等,,,2015-10-05,1,,,,,イトウデンキショウカイ,0
