sequenceNumber,corporateNumber,process,correct,updateDate,changeDate,name,nameImageId,kind,prefectureName,cityName,streetNumber,addressImageId,prefectureCode,cityCode,postCode,addressOutside,addressOutsideImageId,closeDate,closeCause,successorCorporateNumber,changeCause,assignmentDate,latest,enName,enPrefectureName,enCityName,enAddressOutside,furigana,hihyoji
13,1010601005998,登記記録の閉鎖等,0,2024-09-25,2024-09-24,株式会社フォロ,,株式会社,東京都,江東区,平野４丁目４番１１－３０４号,,13,108,1350023,,,2024-09-24,清算の結了等,,,2015-10-05,1,,,,,フォロ,0
15,1010602007688,登記記録の閉鎖等,0,2024-09-25,2024-09-20,有限会社目黒設備,,有限会社,東京都,江東区,南砂４丁目１０番８号,,13,108,1360076,,,2024-09-20,清算の結了等,,,2015-10-05,1,,,,,メグロセツビ,0
28,1011102029000,登記記録の閉鎖等,0,2024-09-25,2024-09-18,有限会社ＬＵ．ＩＲＥ,,有限会社,東京都,町田市,三輪緑山１丁目７番地２０,,13,209,1950055,,,2024-09-18,清算の結了等,,,2015-10-05,1,,,,,ルイール,0
33,1011402008109,登記記録の閉鎖等,0,2024-09-25,2024-09-18,有限会社マーヴェル,,有限会社,栃木県,小山市,大字喜沢１４７５番地おやまゆうえんハーヴェストウォークヨークベニマル棟２階,,09,208,3230014,,,2024-09-18,清算の結了等,,,2015-10-05,1,,,,,マーヴェル,0
39,1012401036868,登記記録の閉鎖等,0,2024-09-25,2024-09-24,ココロコ株式会社,,株式会社,東京都,稲城市,東長沼２１０８番地の２川島荘１０２号室,,13,225,2060802,,,2024-09-24,清算の結了等,,,2020-08-20,1,,,,,ココロコ,0
42,1012402015920,登記記録の閉鎖等,0,2024-09-25,2024-09-20,有限会社コモリツルカメデータ,,有限会社,東京都,小金井市,中町３丁目１５番２３号,,13,210,1840012,,,2024-09-20,清算の結了等,,,2015-10-05,1,,,,,コモリツルカメデータ,0
57,1030001091844,登記記録の閉鎖等,0,2024-09-25,2024-09-13,株式会社エネプラス,,株式会社,埼玉県,川口市,末広３丁目５番１６トーカンマンション川口五番館６０１号室,,11,203,3320006,,,2024-09-13,清算の結了等,,,2015-10-05,1,,,,,エネプラス,0
78,1050002035154,登記記録の閉鎖等,0,2024-09-25,2024-09-13,有限会社沼田運輸,,有限会社,茨城県,常陸太田市,山下町４１７２番地２,,08,212,3130013,,,2024-09-13,清算の結了等,,,2015-10-05,1,,,,,ヌマタウンユ,0
88,1080102015243,登記記録の閉鎖等,0,2024-09-25,2024-09-18,有限会社モトロニクス,,有限会社,静岡県,富士市,富士岡４４番地,,22,210,4170841,,,2024-09-18,清算の結了等,,,2015-10-05,1,,,,,モトロニクス,0
89,1080402002189,登記記録の閉鎖等,0,2024-09-25,2024-09-11,有限会社釜新商店,,有限会社,静岡県,浜松市中央区,幸４丁目２番２２号,,22,138,4338123,,,2024-09-11,清算の結了等,,,2015-10-05,1,,,,,カマシンショウテン,0
94,1100002035421,登記記録の閉鎖等,0,2024-09-25,2024-09-11,有限会社ユニテック精密設計,,有限会社,長野県,上伊那郡辰野町,大字平出１３５０番地１,,20,382,3990422,,,2024-09-11,清算の結了等,,,2015-10-05,1,,,,,ユニテックセイミツセッケイ,0
140,1200001029620,登記記録の閉鎖等,0,2024-09-25,2024-09-12,株式会社ａｃｃｈｉ’ｓ,,株式会社,岐阜県,恵那市,大井町１９６１番地６ピーフルＤ棟１０１号室,,21,210,5097201,,,2024-09-12,清算の結了等,,,2015-10-05,1,,,,,アチス,0
152,1260002016109,登記記録の閉鎖等,0,2024-09-25,2024-09-18,有限会社会津工業所,,有限会社,岡山県,倉敷市,北畝１丁目２０番６号,,33,202,7128032,,,2024-09-18,清算の結了等,,,2015-10-05,1,,,,,アイヅコウギョウショ,0
159,1320001005361,登記記録の閉鎖等,0,2024-09-25,2024-09-24,Ｓｐａｒｋｌｉｎｇ　Ｌｉｂｅｒｔｙ株式会社,,株式会社,大分県,大分市,萩原４丁目１３番２３号,,44,201,8700921,,,2024-09-24,清算の結了等,,,2015-10-05,1,,,,,スパークリングリバティ,0
168,1370001017955,登記記録の閉鎖等,0,2024-09-25,2024-09-06,株式会社サンエイ測地,,株式会社,宮城県,富谷市,東向陽台１丁目１７番１１号,,04,216,9813331,,,2024-09-06,清算の結了等,,,2015-10-05,1,,,,,サンエイソクチ,0
169,1370002007575,登記記録の閉鎖等,0,2024-09-25,2024-09-10,有限会社三友自動車,,有限会社,宮城県,仙台市宮城野区,鶴巻２丁目３番６８号,,04,102,9830024,,,2024-09-10,清算の結了等,,,2015-10-05,1,,,,,サンユウジドウシャ,0
190,2010001166440,登記記録の閉鎖等,0,2024-09-25,2024-09-09,株式会社彩,,株式会社,東京都,中央区,銀座７丁目１７番５号銀座永谷タウンプラザ６０２,,13,102,1040061,,,2024-09-09,清算の結了等,,,2015-10-05,1,,,,,サイ,0
215,2010801002134,登記記録の閉鎖等,0,2024-09-25,2024-09-18,大田冷熱株式会社,,株式会社,東京都,大田区,鵜の木３丁目２番２４号,,13,111,1460091,,,2024-09-18,清算の結了等,,,2015-10-05,1,,,,,オオタレイネツ,0
219,2010902010960,登記記録の閉鎖等,0,2024-09-25,2024-09-13,都立運送有限会社,,有限会社,東京都,世田谷区,太子堂１丁目１２番３２号,,13,112,1540004,,,2024-09-13,清算の結了等,,,2015-10-05,1,,,,,,0
241,2011702000466,登記記録の閉鎖等,0,2024-09-25,2024-09-12,有限会社東自動車部品商会,,有限会社,東京都,江戸川区,北葛西３丁目７番２号,,13,123,1340081,,,2024-09-12,清算の結了等,,,2015-10-05,1,,,,,,0
245,2012301012035,登記記録の閉鎖等,0,2024-09-25,2024-09-19,愛和想建株式会社,,株式会社,東京都,町田市,下小山田町２７３４番地６,,13,209,1940202,,,2024-09-19,清算の結了等,,,2020-03-09,1,,,,,アイワソウケン,0
246,2012405002023,登記記録の閉鎖等,0,2024-09-25,2024-09-20,特定非営利活動法人日本教育工学研究所,,その他の設立登記法人,東京都,武蔵野市,吉祥寺南町１丁目１８番７号,,13,203,1800003,,,2024-09-20,清算の結了等,,,2015-10-05,1,,,,,ニホンキョウイクコウガクケンキュウジョ,0
248,2012802004076,登記記録の閉鎖等,0,2024-09-25,2024-09-17,有限会社阿部タイル工業,,有限会社,東京都,武蔵村山市,岸５丁目８番地の１５,,13,223,2080031,,,2024-09-17,清算の結了等,,,2015-10-05,1,,,,,アベタイルコウギョウ,0
258,2020002096272,登記記録の閉鎖等,0,2024-09-25,2024-09-10,有限会社金沢食堂,,有限会社,神奈川県,川崎市川崎区,渡田向町２１番１４号,,14,131,2100841,,,2024-09-10,清算の結了等,,,2015-10-05,1,,,,,カナザワショクドウ,0
272,2030002069806,登記記録の閉鎖等,0,2024-09-25,2024-09-13,平仲運輸有限会社,,有限会社,埼玉県,南埼玉郡宮代町,字西原３４２番地３,,11,442,3450817,,,2024-09-13,清算の結了等,,,2015-10-05,1,,,,,ヒラナカウンユ,0
277,2040001027755,登記記録の閉鎖等,0,2024-09-25,2024-09-20,株式会社ＭＯＲＩＨＩＲＯ,,株式会社,千葉県,市川市,堀之内３丁目２１番地１号,,12,203,2720837,,,2024-09-20,清算の結了等,,,2015-10-05,1,,,,,モリヒロ,0
314,2120102026706,登記記録の閉鎖等,0,2024-09-25,2024-09-18,有限会社森住研,,有限会社,大阪府,和泉市,はつが野３丁目４４番８号,,27,219,5941106,,,2024-09-18,清算の結了等,,,2015-10-05,1,,,,,モリジュウケン,0
324,2140001103001,登記記録の閉鎖等,0,2024-09-25,2024-09-20,ハリマ給食株式会社,,株式会社,兵庫県,高砂市,高砂町浜田町１丁目３番１０号,,28,216,6760022,,,2024-09-20,清算の結了等,,,2016-08-23,1,,,,,ハリマキュウショク,0
328,2160001004775,登記記録の閉鎖等,0,2024-09-25,2024-09-20,石部公共サービス株式会社,,株式会社,滋賀県,湖南市,石部中央１丁目２番３号,,25,211,5203106,,,2024-09-20,清算の結了等,,,2015-10-05,1,,,,,イシベコウキョウサービス,0
336,2180001084634,登記記録の閉鎖等,0,2024-09-25,2024-09-24,八木金株式会社,,株式会社,愛知県,一宮市,木曽川町玉ノ井字高畑２３番地,,23,203,4930004,,,2024-09-24,清算の結了等,,,2015-10-05,1,,,,,ヤギキン,0
355,2230003002150,登記記録の閉鎖等,0,2024-09-25,2024-09-20,合同会社ＳＴクリーン,,合同会社,富山県,高岡市,佐野１１６９,,16,202,9330826,,,2024-09-20,清算の結了等,,,2024-02-07,1,,,,,エスティクリーン,0
356,2240001017034,登記記録の閉鎖等,0,2024-09-25,2024-09-20,株式会社ケンセイ,,株式会社,広島県,広島市西区,小河内町２丁目１２番１１号,,34,104,7330025,,,2024-09-20,清算の結了等,,,2015-10-05,1,,,,,ケンセイ,0
368,2290002025865,登記記録の閉鎖等,0,2024-09-25,2024-09-05,有限会社ウィーブ,,有限会社,福岡県,福岡市中央区,平尾４丁目１１番１６号,,40,133,8100014,,,2024-09-05,清算の結了等,,,2015-10-05,1,,,,,ウィーブ,0
369,2300001008522,登記記録の閉鎖等,0,2024-09-25,2024-09-20,株式会社ＭＲＥ,,株式会社,佐賀県,西松浦郡有田町,本町丙１０７４番地１,,41,401,8440018,,,2024-09-20,清算の結了等,,,2015-10-05,1,,,,,エムアールイー,0
374,2330002016034,登記記録の閉鎖等,0,2024-09-25,2024-09-17,有限会社小栗商店,,有限会社,熊本県,阿蘇郡西原村,大字小森１番地,,43,432,8612402,,,2024-09-17,清算の結了等,,,2015-10-05,1,,,,,オグリショウテン,0
388,2380001031624,登記記録の閉鎖等,0,2024-09-25,2024-09-17,株式会社Ｍ・Ｖ・Ｌ,,株式会社,福島県,須賀川市,千日堂１１４番地１,,07,207,9620835,,,2024-09-17,清算の結了等,,,2021-03-04,1,,,,,,0
411,2480001007787,登記記録の閉鎖等,0,2024-09-25,2024-09-20,ＯＭＧ株式会社,,株式会社,徳島県,三好市,池田町西山乳ノ木道北９１３番地４,,36,208,7780032,,,2024-09-20,清算の結了等,,,2015-10-05,1,,,,,オーエムジー,0
413,2500001011448,登記記録の閉鎖等,0,2024-09-25,2024-09-18,株式会社きほう,,株式会社,愛媛県,今治市,波止浜１１番地１３３,,38,202,7992118,,,2024-09-18,清算の結了等,,,2015-10-05,1,,,,,キホウ,0
431,3010601051256,登記記録の閉鎖等,0,2024-09-25,2024-09-20,株式会社クラフトウラタ,,株式会社,東京都,墨田区,八広４丁目４０番１２号,,13,107,1310041,,,2024-09-20,清算の結了等,,,2017-03-13,1,,,,,クラフトウラタ,0
438,3010901015340,登記記録の閉鎖等,0,2024-09-25,2024-09-20,株式会社フジ・インターナショナル・コーポレーション,,株式会社,東京都,世田谷区,新町２丁目３８番２３号,,13,112,1540014,,,2024-09-20,清算の結了等,,,2015-10-05,1,,,,,フジインターナショナルコーポレーション,0
442,3011001104265,登記記録の閉鎖等,0,2024-09-25,2024-09-24,株式会社エス・エイチ・インベストメント,,株式会社,東京都,中野区,南台４丁目５９番１０号,,13,114,1640014,,,2024-09-24,清算の結了等,,,2015-10-05,1,,,,,エスエイチインベストメント,0
457,3011305002280,登記記録の閉鎖等,0,2024-09-25,2024-09-19,一般社団法人オケヤラボラトリー,,その他の設立登記法人,東京都,中央区,銀座１丁目３番３号Ｇ１ビル７階,,13,102,1040061,,,2024-09-19,清算の結了等,,,2016-01-18,1,,,,,オケヤラボラトリー,0
466,3012702001965,登記記録の閉鎖等,0,2024-09-25,2024-09-13,有限会社裕建築,,有限会社,東京都,小平市,回田町５８番地の３５,,13,211,1870013,,,2024-09-13,清算の結了等,,,2015-10-05,1,,,,,ユウケンチク,0
468,3012801019009,登記記録の閉鎖等,0,2024-09-25,2024-09-13,株式会社ＹＣ武蔵村山西部,,株式会社,東京都,武蔵村山市,三ツ藤２丁目４５番地の７,,13,223,2080021,,,2024-09-13,清算の結了等,,,2018-09-26,1,,,,,ワイシームサシムラヤマセイブ,0
469,3012802010379,登記記録の閉鎖等,0,2024-09-25,2024-09-11,有限会社村上設備,,有限会社,東京都,立川市,柴崎町３丁目１１番１０号木崎ビル３０１,,13,202,1900023,,,2024-09-11,清算の結了等,,,2015-10-05,1,,,,,ムラカミセツビ,0
481,3020003006262,登記記録の閉鎖等,0,2024-09-25,2024-09-19,かえでＩＲアドバイザリー株式会社,,株式会社,東京都,千代田区,丸の内３丁目２番２号丸の内二重橋ビル４階,,13,101,1000005,,,2024-09-19,合併による解散等,2011001096280,令和６年９月１日東京都渋谷区神宮前５－５２－２青山オーバルビル１３Ｆログミー株式会社（2011001096280）に合併し解散,2015-10-05,1,,,,,カエデアイアールアドバイザリー,0
518,3080002001564,登記記録の閉鎖等,0,2024-09-25,2024-09-13,有限会社川端塗料,,有限会社,静岡県,静岡市駿河区,東新田１丁目５番４８号,,22,102,4210112,,,2024-09-13,清算の結了等,,,2015-10-05,1,,,,,カワバタトリョウ,0
536,3120001262368,登記記録の閉鎖等,0,2024-09-25,2024-09-19,三徳パートナーズ株式会社,,株式会社,大阪府,大阪市港区,磯路３丁目２６番９号,,27,107,5520003,,,2024-09-19,清算の結了等,,,2024-02-14,1,,,,,サントクパートナーズ,0
545,3120105005210,登記記録の閉鎖等,0,2024-09-25,2024-09-24,医療法人松谷整形外科クリニック,,その他の設立登記法人,大阪府,羽曳野市,羽曳が丘４丁目１４番１７号,,27,222,5830864,,,2024-09-24,清算の結了等,,,2015-10-05,1,,,,,マツタニセイケイゲカクリニック,0
548,3120905002844,登記記録の閉鎖等,0,2024-09-25,2024-09-17,ＮＰＯ法人吹田みどりの会,,その他の設立登記法人,大阪府,吹田市,山田西３丁目２１番Ａ３２１号,,27,205,5650824,,,2024-09-17,清算の結了等,,,2015-10-05,1,,,,,スイタミドリノカイ,0
549,3130001058526,登記記録の閉鎖等,0,2024-09-25,2024-09-20,株式会社アミタドライブ,,株式会社,京都府,京都市伏見区,向島中島町７７－３５,,26,109,6128113,,,2024-09-20,清算の結了等,,,2016-10-25,1,,,,,アミタドライブ,0
555,3140001088019,登記記録の閉鎖等,0,2024-09-25,2024-09-18,株式会社ヨロズ・フォト,,株式会社,兵庫県,西宮市,甲陽園本庄町７番３３号,,28,204,6620015,,,2024-09-18,清算の結了等,,,2015-10-05,1,,,,,ヨロズフォト,0
563,3160002004534,登記記録の閉鎖等,0,2024-09-25,2024-09-20,有限会社Ｅ・Ｃ・Ｓ,,有限会社,滋賀県,大津市,馬場３丁目１番２０号,,25,201,5200802,,,2024-09-20,清算の結了等,,,2015-10-05,1,,,,,イーシーエス,0
564,3170002001010,登記記録の閉鎖等,0,2024-09-25,2024-09-24,有限会社関西ロイヤルサービス,,有限会社,和歌山県,和歌山市,井ノ口３８４番地の１,,30,201,6496323,,,2024-09-24,清算の結了等,,,2015-10-05,1,,,,,カンサイロイヤルサービス,0
583,3210001016244,登記記録の閉鎖等,0,2024-09-25,2024-09-18,株式会社アイセック・福井,,株式会社,福井県,小浜市,千種１丁目１２番２４号,,18,204,9170072,,,2024-09-18,合併による解散等,5360001008233,令和６年８月３１日沖縄県うるま市字川崎４６８番地いちゅい具志川じんぶん館１Ｆ株式会社アイセック・ジャパン（5360001008233）に合併し解散,2016-02-24,1,,,,,アイセックフクイ,0
584,3210002010205,登記記録の閉鎖等,0,2024-09-25,2024-09-12,有限会社川崎工業,,有限会社,福井県,敦賀市,杉箸１０６号１１番地の１,00077891,18,202,9140314,,,2024-09-12,清算の結了等,,,2015-10-05,1,,,,,カワサキコウギョウ,0
589,3240001036520,登記記録の閉鎖等,0,2024-09-25,2024-09-20,株式会社中浜鉄工,,株式会社,広島県,安芸郡府中町,青崎東８番１４号,,34,302,7350015,,,2024-09-20,清算の結了等,,,2015-10-05,1,,,,,ナカハマテッコウ,0
628,3390003000641,登記記録の閉鎖等,0,2024-09-25,2024-09-12,合資会社小関商店,,合資会社,山形県,新庄市,本町４番３８号,,06,205,9960027,,,2024-09-12,清算の結了等,,,2015-10-05,1,,,,,コセキショウテン,0
630,3430001025033,登記記録の閉鎖等,0,2024-09-25,2024-09-18,札幌サンシート株式会社,,株式会社,北海道,札幌市白石区,北郷七条４丁目８番８号,,01,104,0030837,,,2024-09-18,清算の結了等,,,2015-10-05,1,,,,,サッポロサンシート,0
635,3430002065879,登記記録の閉鎖等,0,2024-09-25,2024-09-17,世紀海洋有限会社,,有限会社,北海道,室蘭市,増市町１丁目１４番８号,,01,205,0510034,,,2024-09-17,清算の結了等,,,2015-10-05,1,,,,,セイキカイヨウ,0
636,3440002000257,登記記録の閉鎖等,0,2024-09-25,2024-09-18,有限会社石金石橋仕出し店,,有限会社,北海道,函館市,大縄町２０番７号,,01,202,0400062,,,2024-09-18,清算の結了等,,,2015-10-05,1,,,,,イシキンイシバシシダシテン,0
639,3470001000395,登記記録の閉鎖等,0,2024-09-25,2024-09-18,株式会社リアン,,株式会社,香川県,高松市,多肥下町１５７８番地１８,,37,201,7618075,,,2024-09-18,清算の結了等,,,2015-10-05,1,,,,,リアン,0
654,4010005027950,登記記録の閉鎖等,0,2024-09-25,2024-09-20,ＮＰＯ法人水力開発研究所,,その他の設立登記法人,東京都,中央区,日本橋２丁目１番１７号丹生ビル２階,,13,102,1030027,,,2024-09-20,清算の結了等,,,2018-01-12,1,,,,,スイリョクカイハツケンキュウジョ,0
695,4011701015942,登記記録の閉鎖等,0,2024-09-25,2024-09-12,ＴＯＳＨＩ＆ＰＩＣＯ　ＳＫＹＢＩＲＤ株式会社,,株式会社,東京都,江戸川区,東小岩４丁目２１番５号,,13,123,1330052,,,2024-09-12,清算の結了等,,,2015-10-05,1,,,,,トシアンドピコスカイバード,0
702,4012402023020,登記記録の閉鎖等,0,2024-09-25,2024-09-24,有限会社加賀谷興業,,有限会社,東京都,狛江市,猪方３丁目９番５号,,13,219,2010015,,,2024-09-24,清算の結了等,,,2015-10-05,1,,,,,カガヤコウギョウ,0
705,4012802010989,登記記録の閉鎖等,0,2024-09-25,2024-09-12,有限会社アキラスタジオ,,有限会社,東京都,立川市,一番町３丁目２９番地の１０,,13,202,1900033,,,2024-09-12,清算の結了等,,,2015-10-05,1,,,,,アキラスタジオ,0
708,4013401000324,登記記録の閉鎖等,0,2024-09-25,2024-09-17,株式会社新成住宅,,株式会社,東京都,日野市,日野本町３丁目１２番３号,,13,212,1910011,,,2024-09-17,清算の結了等,,,2015-10-05,1,,,,,シンセイジュウタク,0
714,4021002030772,登記記録の閉鎖等,0,2024-09-25,2024-09-19,有限会社イシワタ,,有限会社,神奈川県,厚木市,愛甲１丁目１５番１８号,,14,212,2430035,,,2024-09-19,清算の結了等,,,2015-10-05,1,,,,,イシワタ,0
715,4021005011588,登記記録の閉鎖等,0,2024-09-25,2024-09-17,ＮＰＯ法人こどもの未来応援ラボ,,その他の設立登記法人,神奈川県,横須賀市,小矢部１丁目１９番１５号,,14,201,2380026,,,2024-09-17,清算の結了等,,,2019-04-23,1,,,,,コドモノミライオウエンラボ,0
722,4030002033330,登記記録の閉鎖等,0,2024-09-25,2024-09-13,有限会社エクステリア・プラン西販売,,有限会社,埼玉県,狭山市,大字水野１０９１番地２４,,11,215,3501317,,,2024-09-13,清算の結了等,,,2015-10-05,1,,,,,エクステリアプランニシハンバイ,0
732,4060002001400,登記記録の閉鎖等,0,2024-09-25,2024-09-18,有限会社今井左官工業,,有限会社,栃木県,宇都宮市,越戸４丁目６番１５号,,09,201,3210951,,,2024-09-18,清算の結了等,,,2015-10-05,1,,,,,イマイサカンコウギョウ,0
754,4120001000504,登記記録の閉鎖等,0,2024-09-25,2024-09-13,三興電気工事株式会社,,株式会社,大阪府,大阪市旭区,高殿４丁目１１番１９号,,27,117,5350031,,,2024-09-13,清算の結了等,,,2015-10-05,1,,,,,サンコウデンキコウジ,0
804,4180301026103,登記記録の閉鎖等,0,2024-09-25,2024-09-13,株式会社イトウ,,株式会社,愛知県,岡崎市,中島東町１丁目３番地５,,23,202,4440223,,,2024-09-13,清算の結了等,,,2015-10-05,1,,,,,イトウ,0
834,4320002002090,登記記録の閉鎖等,0,2024-09-25,2024-09-24,有限会社九州畳工業所,,有限会社,大分県,大分市,大字津守８１２番地,,44,201,8700945,,,2024-09-24,清算の結了等,,,2015-10-05,1,,,,,キュウシュウタタミコウギョウショ,0
836,4340001021585,登記記録の閉鎖等,0,2024-09-25,2024-09-18,大企建設株式会社,,株式会社,鹿児島県,出水市,高尾野町上水流９２番地１２,,46,208,8990406,,,2024-09-18,清算の結了等,,,2018-11-06,1,,,,,タイキケンセツ,0
837,4340005002945,登記記録の閉鎖等,0,2024-09-25,2024-09-20,医療法人前田皮膚科,,その他の設立登記法人,鹿児島県,姶良市,西餅田５６０番地３,00100081,46,225,8995431,,,2024-09-20,清算の結了等,,,2015-10-05,1,,,,,マエダヒフカ,0
848,4380001010675,登記記録の閉鎖等,0,2024-09-25,2024-09-10,県南建設株式会社,,株式会社,福島県,東白川郡矢祭町,大字下関河内字上古宿４０番地,,07,482,9635113,,,2024-09-10,清算の結了等,,,2015-10-05,1,,,,,ケンナンケンセツ,0
849,4380002035622,登記記録の閉鎖等,0,2024-09-25,2024-09-12,有限会社星忠工業所,,有限会社,福島県,南会津郡下郷町,大字中妻字大百刈１０４番地１,,07,362,9695332,,,2024-09-12,清算の結了等,,,2015-10-05,1,,,,,ホシチュウコウギョウショ,0
853,4410002004862,登記記録の閉鎖等,0,2024-09-25,2024-09-19,有限会社マージメディアシステム,,有限会社,秋田県,秋田市,牛島東６丁目５番４号,,05,201,0100062,,,2024-09-19,清算の結了等,,,2015-10-05,1,,,,,マージメディアシステム,0
854,4410002008995,登記記録の閉鎖等,0,2024-09-25,2024-09-19,有限会社秋測,,有限会社,秋田県,大館市,比内町扇田字白砂４１番地,,05,204,0185701,,,2024-09-19,清算の結了等,,,2015-10-05,1,,,,,シュウソク,0
855,4420002019380,登記記録の閉鎖等,0,2024-09-25,2024-09-17,有限会社長谷川漁業,,有限会社,青森県,むつ市,大畑町伊勢堂１６番地２４,,02,208,0394401,,,2024-09-17,清算の結了等,,,2015-10-05,1,,,,,ハセガワギョギョウ,0
856,4430001011255,登記記録の閉鎖等,0,2024-09-25,2024-09-18,道綱資材株式会社,,株式会社,北海道,札幌市白石区,平和通１丁目南３番,,01,104,0030028,,,2024-09-18,清算の結了等,,,2015-10-05,1,,,,,ドウコウシザイ,0
861,4430001082957,登記記録の閉鎖等,0,2024-09-25,2024-09-19,札幌美装株式会社,,株式会社,北海道,札幌市手稲区,前田七条８丁目３番１４号,,01,109,0060817,,,2024-09-19,清算の結了等,,,2020-12-16,1,,,,,サッポロビソウ,0
867,4450001006674,登記記録の閉鎖等,0,2024-09-25,2024-09-17,株式会社日本交易,,株式会社,北海道,札幌市中央区,北二条西２丁目３１番地,,01,101,0600002,,,2024-09-17,清算の結了等,,,2015-10-05,1,,,,,ニホンコウエキ,0
871,4470001014320,登記記録の閉鎖等,0,2024-09-25,2024-09-18,株式会社クレバ,,株式会社,兵庫県,神戸市中央区,東雲通４丁目２－６,,28,110,6510079,,,2024-09-18,清算の結了等,,,2015-10-05,1,,,,,クレバ,0
873,4470003000285,登記記録の閉鎖等,0,2024-09-25,2024-09-19,合同会社西池,,合同会社,香川県,高松市,三谷町７８４番地２,,37,201,7610450,,,2024-09-19,清算の結了等,,,2015-10-05,1,,,,,,0
876,4500002014258,登記記録の閉鎖等,0,2024-09-25,2024-09-18,有限会社セイケ印刷,,有限会社,愛媛県,西条市,神拝甲２７６番地,,38,206,7930041,,,2024-09-18,清算の結了等,,,2015-10-05,1,,,,,セイケインサツ,0
912,5010903007879,登記記録の閉鎖等,0,2024-09-25,2024-09-18,合同会社バルト,,合同会社,東京都,世田谷区,三軒茶屋１丁目４０－１０－３０８,,13,112,1540024,,,2024-09-18,清算の結了等,,,2023-01-11,1,,,,,バルト,0
919,5011003011986,登記記録の閉鎖等,0,2024-09-25,2024-09-02,神宮キャピタル合同会社,,合同会社,東京都,渋谷区,神宮前１丁目１番５号,,13,113,1500001,,,2024-09-02,清算の結了等,,,2020-12-23,1,,,,,ジングウキャピタル,0
929,5011301002027,登記記録の閉鎖等,0,2024-09-25,2024-09-06,株式会社クム,,株式会社,東京都,杉並区,阿佐谷北１丁目６番２７号,,13,115,1660001,,,2024-09-06,清算の結了等,,,2015-10-05,1,,,,,クム,0
930,5011302002406,登記記録の閉鎖等,0,2024-09-25,2024-09-04,有限会社オリンポス,,有限会社,東京都,杉並区,高円寺南１丁目８番６号,,13,115,1660003,,,2024-09-04,清算の結了等,,,2015-10-05,1,,,,,オリンポス,0
938,5011802000578,登記記録の閉鎖等,0,2024-09-25,2024-09-18,有限会社石井鍍金工業所,,有限会社,東京都,葛飾区,西新小岩５丁目７番１５号,,13,122,1240025,,,2024-09-18,清算の結了等,,,2015-10-05,1,,,,,イシイトキンコウギョウジョ,0
948,5020001081082,登記記録の閉鎖等,0,2024-09-25,2024-09-09,タクマー商事株式会社,,株式会社,神奈川県,川崎市幸区,神明町１丁目８０番地１－１０１０,,14,132,2120022,,,2024-09-09,清算の結了等,,,2015-10-05,1,,,,,タクマーショウジ,0
968,5030001035938,登記記録の閉鎖等,0,2024-09-25,2024-09-13,株式会社北川工務店,,株式会社,埼玉県,八潮市,緑町１丁目７番地２１,,11,234,3400808,,,2024-09-13,清算の結了等,,,2015-10-05,1,,,,,キタガワコウムテン,0
973,5030002075264,登記記録の閉鎖等,0,2024-09-25,2024-09-13,有限会社宮下薬品,,有限会社,埼玉県,川越市,南大塚１丁目２５番地２３,,11,201,3501162,,,2024-09-13,清算の結了等,,,2015-10-05,1,,,,,ミヤシタヤクヒン,0
975,5030002084521,登記記録の閉鎖等,0,2024-09-25,2024-09-12,イーオーサービス有限会社,,有限会社,埼玉県,鴻巣市,吹上８３１番地９,,11,217,3690136,,,2024-09-12,清算の結了等,,,2015-10-05,1,,,,,イーオーサービス,0
976,5030003003653,登記記録の閉鎖等,0,2024-09-25,2024-09-17,合同会社ＧＩＬＥＴ,,合同会社,埼玉県,東松山市,松葉町１丁目４番６号,,11,212,3550017,,,2024-09-17,清算の結了等,,,2015-10-05,1,,,,,ジレ,0
1008,5080102015974,登記記録の閉鎖等,0,2024-09-25,2024-09-18,有限会社ウイング,,有限会社,静岡県,富士市,比奈１６４８番地の１,,22,210,4170847,,,2024-09-18,清算の結了等,,,2015-10-05,1,,,,,ウイング,0
1018,5110001017861,登記記録の閉鎖等,0,2024-09-25,2024-09-17,株式会社ストーク設計,,株式会社,新潟県,柏崎市,西山町池浦５６４番地,,15,205,9494123,,,2024-09-17,清算の結了等,,,2015-10-05,1,,,,,ストークセッケイ,0
1021,5120001188917,登記記録の閉鎖等,0,2024-09-25,2024-09-20,株式会社トゥエンティワン,,株式会社,大阪府,大阪市浪速区,敷津西２丁目１４番２３号,,27,111,5560015,,,2024-09-20,清算の結了等,,,2015-10-05,1,,,,,トゥエンティワン,0
1024,5120001257721,登記記録の閉鎖等,0,2024-09-25,2024-09-17,株式会社ゴマ,,株式会社,大阪府,大阪市住吉区,東粉浜３丁目１番７－１０２号,,27,120,5580051,,,2024-09-17,清算の結了等,,,2023-08-31,1,,,,,ゴマ,0
1043,5122001025570,登記記録の閉鎖等,0,2024-09-25,2024-09-11,株式会社大和,,株式会社,大阪府,東大阪市,弥生町３番８－６０４号,,27,227,5798026,,,2024-09-11,清算の結了等,,,2015-10-05,1,,,,,ヤマト,0
1045,5140002007157,登記記録の閉鎖等,0,2024-09-25,2024-09-20,有限会社河本組,,有限会社,兵庫県,神戸市須磨区,大田町２丁目３番５－３０１号,,28,107,6540024,,,2024-09-20,清算の結了等,,,2015-10-05,1,,,,,,0
1059,5180003002079,登記記録の閉鎖等,0,2024-09-25,2024-09-10,合資会社宮田洋家具製作所,,合資会社,愛知県,名古屋市南区,道徳通１丁目１８番地,,23,112,4570846,,,2024-09-10,清算の結了等,,,2015-10-05,1,,,,,ミヤタヨウカグセイサクショ,0
1079,5230005009166,登記記録の閉鎖等,0,2024-09-25,2024-09-18,藤岡行政書士法人,,その他の設立登記法人,富山県,富山市,星井町２丁目３番１号,,16,201,9300065,,,2024-09-18,清算の結了等,,,2021-09-03,1,,,,,フジオカ,0
1080,5240001041023,登記記録の閉鎖等,0,2024-09-25,2024-09-19,共同開発株式会社,,株式会社,広島県,三次市,三良坂町長田１３９４番地２,,34,209,7294305,,,2024-09-19,清算の結了等,,,2015-10-05,1,,,,,キョウドウカイハツ,0
1084,5240002049619,登記記録の閉鎖等,0,2024-09-25,2024-09-19,有限会社前谷工業,,有限会社,広島県,竹原市,吉名町４８３５番地１,,34,203,7250013,,,2024-09-19,清算の結了等,,,2015-10-05,1,,,,,,0
1094,5310001005870,登記記録の閉鎖等,0,2024-09-25,2024-09-13,株式会社二宮機工,,株式会社,長崎県,佐世保市,俵町２４番４５号,,42,202,8570016,,,2024-09-13,清算の結了等,,,2015-10-05,1,,,,,ニノミヤキコウ,0
1098,5330001021858,登記記録の閉鎖等,0,2024-09-25,2024-09-17,エムプロジェクト株式会社,,株式会社,熊本県,熊本市中央区,本荘４丁目１０番１４号タカラヤビル２－Ａ,,43,101,8600811,,,2024-09-17,清算の結了等,,,2015-10-05,1,,,,,エムプロジェクト,0
1099,5330001025090,登記記録の閉鎖等,0,2024-09-25,2024-09-17,株式会社ホーリークロス,,株式会社,熊本県,熊本市中央区,壺川１丁目５番３号,,43,101,8600076,,,2024-09-17,清算の結了等,,,2018-03-07,1,,,,,ホーリークロス,0
1103,5330003002600,登記記録の閉鎖等,0,2024-09-25,2024-09-13,合名会社鷲津商店,,合名会社,熊本県,阿蘇市,黒川１５０９番地,,43,214,8692225,,,2024-09-13,清算の結了等,,,2015-10-05,1,,,,,ワシズショウテン,0
1108,5370001047503,登記記録の閉鎖等,0,2024-09-25,2024-09-11,株式会社コントレイル,,株式会社,宮城県,富谷市,あけの平２丁目９番地３,,04,216,9813361,,,2024-09-11,清算の結了等,,,2021-08-25,1,,,,,コントレイル,0
1116,5380001025986,登記記録の閉鎖等,0,2024-09-25,2024-09-11,エス・クオリティー株式会社,,株式会社,福島県,郡山市,富田町字久根下７番地の１０,,07,203,9638041,,,2024-09-11,清算の結了等,,,2015-10-05,1,,,,,エスクオリティー,0
1119,5420001008648,登記記録の閉鎖等,0,2024-09-25,2024-09-18,株式会社インフィールド,,株式会社,青森県,五所川原市,脇元赤川１５７番地,,02,205,0370405,,,2024-09-18,清算の結了等,,,2015-10-05,1,,,,,インフィールド,0
1128,5430002046555,登記記録の閉鎖等,0,2024-09-25,2024-09-19,有限会社南農産,,有限会社,北海道,石狩郡新篠津村,第３６線南４７番地,,01,304,0681100,,,2024-09-19,清算の結了等,,,2015-10-05,1,,,,,ミナミノウサン,0
1136,5460305000215,登記記録の閉鎖等,0,2024-09-25,2024-09-24,北見二番街商店街振興組合,,その他の設立登記法人,北海道,北見市,北二条西２丁目１２番地２,,01,208,0900042,,,2024-09-24,清算の結了等,,,2015-10-05,1,,,,,キタミニバンガイ,0
1159,6010601036238,登記記録の閉鎖等,0,2024-09-25,2024-09-20,株式会社一建社,,株式会社,東京都,江東区,東陽５丁目２６番１５－２階,,13,108,1350016,,,2024-09-20,清算の結了等,,,2015-10-05,1,,,,,イチケンシャ,0
1165,6011001131406,登記記録の閉鎖等,0,2024-09-25,2024-08-30,大森エステート株式会社,,株式会社,東京都,渋谷区,西原３丁目４０番１２号,,13,113,1510066,,,2024-08-30,合併による解散等,9011001135734,令和６年８月１日東京都渋谷区西原三丁目４０番１２号大森トラスト株式会社（9011001135734）に合併し解散,2019-12-18,1,,,,,オオモリエステート,0
1177,6011102002324,登記記録の閉鎖等,0,2024-09-25,2024-09-10,有限会社エルグ・オクト,,有限会社,東京都,新宿区,市谷薬王寺町５８番地,,13,104,1620063,,,2024-09-10,清算の結了等,,,2015-10-05,1,,,,,エルグオクト,0
1178,6011202007280,登記記録の閉鎖等,0,2024-09-25,2024-09-19,有限会社アンジュ,,有限会社,東京都,中野区,弥生町３丁目５番３号,,13,114,1640013,,,2024-09-19,清算の結了等,,,2015-10-05,1,,,,,アンジュ,0
1208,6030001157343,登記記録の閉鎖等,0,2024-09-25,2024-09-13,株式会社ワイズ,,株式会社,埼玉県,川口市,坂下町３丁目２６番６号,,11,203,3340003,,,2024-09-13,清算の結了等,,,2023-11-27,1,,,,,ワイズ,0
1223,6060002036980,登記記録の閉鎖等,0,2024-09-25,2024-09-18,有限会社西川電機製作所,,有限会社,栃木県,足利市,西新井町３４５５番地,,09,202,3260837,,,2024-09-18,清算の結了等,,,2015-10-05,1,,,,,ニシカワデンキセイサクショ,0
1234,6100002002524,登記記録の閉鎖等,0,2024-09-25,2024-09-11,有限会社ジン・レディモード,,有限会社,長野県,長野市,川中島町御厨１９６６番地５,,20,201,3812221,,,2024-09-11,清算の結了等,,,2015-10-05,1,,,,,ジンレディモード,0
1236,6110001034030,登記記録の閉鎖等,0,2024-09-25,2024-09-17,雪国バイオマス発電株式会社,,株式会社,新潟県,南魚沼市,塩沢２９番地７,,15,226,9496408,,,2024-09-17,合併による解散等,9011502000882,令和６年７月１７日新潟県南魚沼市塩沢２９番地７株式会社ＳＫホールディングス（9011502000882）に合併し解散,2019-05-15,1,,,,,ユキグニバイオマスハツデン,0
1241,6120002080717,登記記録の閉鎖等,0,2024-09-25,2024-09-12,有限会社ファーコン,,有限会社,大阪府,守口市,大枝北町６番１４号,,27,209,5700037,,,2024-09-12,清算の結了等,,,2015-10-05,1,,,,,ファーコン,0
1249,6120902009848,登記記録の閉鎖等,0,2024-09-25,2024-09-09,有限会社オクムラ,,有限会社,大阪府,高槻市,大塚町２丁目５２番２２号,,27,207,5690034,,,2024-09-09,清算の結了等,,,2015-10-05,1,,,,,オクムラ,0
1252,6122003000397,登記記録の閉鎖等,0,2024-09-25,2024-09-13,合資会社オフィス・ベル,,合資会社,大阪府,東大阪市,南鴻池町２丁目１１番１４号,,27,227,5780961,,,2024-09-13,清算の結了等,,,2015-10-05,1,,,,,オフィスベル,0
1273,6180003026977,登記記録の閉鎖等,0,2024-09-25,2024-09-13,合同会社ＹＵＪＩ１号,,合同会社,愛知県,名古屋市北区,辻本通１丁目５３番地,00135453,23,103,4620861,,,2024-09-13,清算の結了等,,,2024-07-03,1,,,,,ユージイチゴウ,0
1281,6210001011903,登記記録の閉鎖等,0,2024-09-25,2024-09-24,株式会社藤谷商店,,株式会社,福井県,越前市,小野谷町第４号３番地の４,,18,209,9150054,,,2024-09-24,清算の結了等,,,2015-10-05,1,,,,,フジヤショウテン,0
1290,6250001013490,登記記録の閉鎖等,0,2024-09-25,2024-09-19,株式会社ＣＡＲＴＯＡ,,株式会社,山口県,下関市,大字綾羅木５７６－４,,35,201,7510866,,,2024-09-19,清算の結了等,,,2015-10-05,1,,,,,,0
1300,6290005008038,登記記録の閉鎖等,0,2024-09-25,2024-08-01,医療法人阿部歯科医院,,その他の設立登記法人,福岡県,飯塚市,天道１０１番地,,40,205,8200075,,,2024-08-01,清算の結了等,,,2015-10-05,1,,,,,アベシカイイン,0
1302,6290801026052,登記記録の閉鎖等,0,2024-09-25,2024-09-12,会通日本株式会社,,株式会社,東京都,豊島区,南池袋１丁目８番９号,,13,116,1710022,,,2024-09-12,清算の結了等,,,2019-11-19,1,,,,,カイツウニホン,0
1303,6290802021738,登記記録の閉鎖等,0,2024-09-25,2024-09-20,有限会社卵の里・まこと,,有限会社,福岡県,豊前市,大字下河内２４５３番地の６,,40,214,8280074,,,2024-09-20,清算の結了等,,,2015-10-05,1,,,,,タマゴノサトマコト,0
1315,6360002012844,登記記録の閉鎖等,0,2024-09-25,2024-09-17,有限会社介護ショップふく木,,有限会社,沖縄県,うるま市,字赤道１６番地２丸朝アパート１０２号,,47,213,9042245,,,2024-09-17,清算の結了等,,,2015-10-05,1,,,,,カイショップフクキ,0
1331,6430001017498,登記記録の閉鎖等,0,2024-09-25,2024-09-19,株式会社山二大鎌商店,00088331,株式会社,北海道,札幌市中央区,北十二条西２３丁目２番７号,,01,101,0600012,,,2024-09-19,清算の結了等,,,2015-10-05,1,,,,,ヤマニオオカマショウテン,0
1332,6430001020907,登記記録の閉鎖等,0,2024-09-25,2024-09-18,日本シーコン株式会社,,株式会社,北海道,札幌市清田区,北野七条５丁目８番３９号,,01,110,0040867,,,2024-09-18,清算の結了等,,,2015-10-05,1,,,,,ニホンシーコン,0
1336,6430002004702,登記記録の閉鎖等,0,2024-09-25,2024-09-18,有限会社環境緑化,,有限会社,北海道,札幌市清田区,平岡五条４丁目２番５号,,01,110,0040875,,,2024-09-18,清算の結了等,,,2015-10-05,1,,,,,カンキョウリョクカ,0
1342,6460305000214,登記記録の閉鎖等,0,2024-09-25,2024-09-24,北見一番街商店街振興組合,,その他の設立登記法人,北海道,北見市,北二条西２丁目１２番地２,,01,208,0900042,,,2024-09-24,清算の結了等,,,2015-10-05,1,,,,,キタミイチバンガイ,0
1353,7010001174629,登記記録の閉鎖等,0,2024-09-25,2024-09-06,株式会社ｉ－Ｌａｕｎｄｒｙ,,株式会社,東京都,中央区,八丁堀２丁目１０番７号日本瓦斯八丁堀ビル,,13,102,1040032,,,2024-09-06,合併による解散等,8010001170197,令和６年８月３０日東京都中央区八丁堀二丁目１０番７号日本瓦斯八丁堀ビルセカイエ株式会社（8010001170197）に合併し解散,2016-04-05,1,,,,,アイランドリー,0
1355,7010001194726,登記記録の閉鎖等,0,2024-09-25,2024-09-06,セカイエＤＥＬ株式会社,,株式会社,東京都,中央区,八丁堀２丁目１０番７号日本瓦斯八丁堀ビル,,13,102,1040032,,,2024-09-06,合併による解散等,8010001170197,令和６年８月３０日東京都中央区八丁堀二丁目１０番７号日本瓦斯八丁堀ビルセカイエ株式会社（8010001170197）に合併し解散,2018-09-10,1,,,,,セカイエデル,0
1361,7010101003869,登記記録の閉鎖等,0,2024-09-25,2024-09-18,みらい建設株式会社,,株式会社,東京都,八王子市,中野山王２丁目２４番１３号,,13,201,1920042,,,2024-09-18,清算の結了等,,,2015-10-05,1,,,,,ミライケンセツ,0
1362,7010102000205,登記記録の閉鎖等,0,2024-09-25,2024-09-19,有限会社秋篠商事,,有限会社,東京都,八王子市,大塚１７０７番地の９,,13,201,1920352,,,2024-09-19,清算の結了等,,,2015-10-05,1,,,,,アキシノショウジ,0
1369,7010601031080,登記記録の閉鎖等,0,2024-09-25,2024-09-20,株式会社ジュリアンコーポレーション,,株式会社,東京都,江東区,亀戸２丁目３７番８号,,13,108,1360071,,,2024-09-20,清算の結了等,,,2015-10-05,1,,,,,ジュリアンコーポレーション,0
1396,7011801029138,登記記録の閉鎖等,0,2024-09-25,2024-09-20,株式会社ＫＡＩ,,株式会社,東京都,足立区,梅島３丁目３５番２号,,13,121,1210816,,,2024-09-20,清算の結了等,,,2015-10-05,1,,,,,,0
1403,7012402007482,登記記録の閉鎖等,0,2024-09-25,2024-09-24,有限会社マルチインターフェイス,,有限会社,東京都,府中市,片町３丁目１２番地の４,,13,206,1830021,,,2024-09-24,清算の結了等,,,2015-10-05,1,,,,,,0
1410,7012802005474,登記記録の閉鎖等,0,2024-09-25,2024-09-12,有限会社押元製畳所,,有限会社,東京都,東大和市,高木２丁目１１０番地の１,,13,220,2070005,,,2024-09-12,清算の結了等,,,2015-10-05,1,,,,,オシモトセイジョウショ,0
1412,7013301027051,登記記録の閉鎖等,0,2024-09-25,2024-09-17,株式会社ダイマッカン,,株式会社,東京都,杉並区,成田西１丁目１６番３３号,,13,115,1660016,,,2024-09-17,清算の結了等,,,2015-10-05,1,,,,,ダイマッカン,0
1420,7020001115755,登記記録の閉鎖等,0,2024-09-25,2024-09-10,エルドル・オートモティブ・ジャパン株式会社,,株式会社,神奈川県,横浜市港北区,新横浜２丁目５番１４号ＷＩＳＥＮＥＸＴ新横浜３０４号室,,14,109,2220033,,,2024-09-10,清算の結了等,,,2016-04-13,1,,,,,エルドルオートモティブジャパン,0
1437,7030001121645,登記記録の閉鎖等,0,2024-09-25,2024-09-13,株式会社マイペース,,株式会社,埼玉県,川口市,大字東内野５６５番地の７,,11,203,3330821,,,2024-09-13,清算の結了等,,,2017-08-09,1,,,,,マイペース,0
1447,7040001002646,登記記録の閉鎖等,0,2024-09-25,2024-09-18,株式会社坂本自動車工業,,株式会社,千葉県,千葉市中央区,末広４丁目１０番１号,,12,101,2600843,,,2024-09-18,清算の結了等,,,2015-10-05,1,,,,,サカモトジドウシャコウギョウ,0
1457,7060002036550,登記記録の閉鎖等,0,2024-09-25,2024-09-18,有限会社関口薬品,,有限会社,栃木県,足利市,小俣町５５４番地の２,,09,202,3260141,,,2024-09-18,清算の結了等,,,2015-10-05,1,,,,,セキグチヤクヒン,0
1462,7100001009148,登記記録の閉鎖等,0,2024-09-25,2024-09-10,株式会社ユマニテコンサルティング,,株式会社,長野県,北佐久郡軽井沢町,大字長倉２６２５番地３２,,20,321,3890111,,,2024-09-10,清算の結了等,,,2015-10-05,1,,,,,ユマニテコンサルティング,0
1471,7120001158190,登記記録の閉鎖等,0,2024-09-25,2024-09-24,株式会社マルイチ煙火製造所,,株式会社,大阪府,門真市,下馬伏町２２番２１号,,27,223,5710009,,,2024-09-24,清算の結了等,,,2015-10-05,1,,,,,マルイチエンカセイゾウショ,0
1518,7190003002241,登記記録の閉鎖等,0,2024-09-25,2024-09-24,タカ合同会社,,合同会社,三重県,津市,新家町８７９番地３,,24,201,5141116,,,2024-09-24,清算の結了等,,,2015-10-05,1,,,,,タカ,0
1527,7240002008746,登記記録の閉鎖等,0,2024-09-25,2024-09-24,有限会社西洋美術,,有限会社,広島県,広島市佐伯区,美鈴が丘東４丁目１３番１２号,,34,108,7315111,,,2024-09-24,清算の結了等,,,2015-10-05,1,,,,,セイヨウビジュツ,0
1528,7240002028050,登記記録の閉鎖等,0,2024-09-25,2024-09-20,有限会社戸倉運送,,有限会社,広島県,東広島市,黒瀬町宗近柳国３９６番地の９８,,34,212,7392504,,,2024-09-20,清算の結了等,,,2015-10-05,1,,,,,トクラウンソウ,0
1547,7300002004383,登記記録の閉鎖等,0,2024-09-25,2024-09-19,有限会社丸忠商事,,有限会社,佐賀県,小城市,小城町池上２７８１番地３,,41,208,8450012,,,2024-09-19,清算の結了等,,,2015-10-05,1,,,,,マルチュウショウジ,0
1549,7330002011336,登記記録の閉鎖等,0,2024-09-25,2024-09-20,有限会社来夢建築設計事務所,,有限会社,熊本県,熊本市中央区,神水２丁目１９番２３号,,43,101,8620954,,,2024-09-20,清算の結了等,,,2015-10-05,1,,,,,ライムケンチクセッケイジムショ,0
1550,7330002016161,登記記録の閉鎖等,0,2024-09-25,2024-09-17,有限会社斉藤金物,,有限会社,熊本県,菊池郡大津町,大字大津１３０６番地４,,43,403,8691233,,,2024-09-17,清算の結了等,,,2015-10-05,1,,,,,サイトウカナモノ,0
1555,7360001028270,登記記録の閉鎖等,0,2024-09-25,2024-09-19,キセキノ株式会社,,株式会社,沖縄県,那覇市,安謝１丁目３番５号３０３号室,,47,201,9000003,,,2024-09-19,合併による解散等,7010001194726,令和６年８月３０日東京都中央区八丁堀二丁目１０番７号日本瓦斯八丁堀ビルセカイエＤＥＬ株式会社（7010001194726）に合併し解散,2021-02-02,1,,,,,キセキノ,0
1558,7370002002546,登記記録の閉鎖等,0,2024-09-25,2024-09-11,有限会社尾形印刷,,有限会社,宮城県,仙台市太白区,郡山８丁目１５番２０号,,04,104,9820003,,,2024-09-11,清算の結了等,,,2015-10-05,1,,,,,オガタインサツ,0
1564,7430001011649,登記記録の閉鎖等,0,2024-09-25,2024-09-17,道有興業株式会社,,株式会社,北海道,札幌市西区,発寒十四条２丁目９番９号,,01,107,0630834,,,2024-09-17,清算の結了等,,,2015-10-05,1,,,,,ドウユウコウギョウ,0
1565,7430001015906,登記記録の閉鎖等,0,2024-09-25,2024-09-19,株式会社ホルスタイン・マガジン社,,株式会社,北海道,札幌市豊平区,平岸三条９丁目１番２５号,,01,105,0620933,,,2024-09-19,清算の結了等,,,2015-10-05,1,,,,,ホルスタインマガジンシャ,0
1575,7470001007890,登記記録の閉鎖等,0,2024-09-25,2024-09-17,白方被服株式会社,,株式会社,香川県,仲多度郡多度津町,大字西白方２２３番地の１,,37,404,7640037,,,2024-09-17,清算の結了等,,,2015-10-05,1,,,,,シラカタヒフク,0
1579,7490002010132,登記記録の閉鎖等,0,2024-09-25,2024-09-20,丸豊西森自動車有限会社,,有限会社,高知県,吾川郡仁淀川町,森２６９６番地１,,39,387,7811801,,,2024-09-20,清算の結了等,,,2015-10-05,1,,,,,マルトヨニシモリジドウシャ,0
1582,7500002023677,登記記録の閉鎖等,0,2024-09-25,2024-09-18,有限会社吉福林業,,有限会社,愛媛県,北宇和郡松野町,大字目黒２４５番地,,38,484,7982106,,,2024-09-18,清算の結了等,,,2015-10-05,1,,,,,ヨシフクリンギョウ,0
1595,8010102010293,登記記録の閉鎖等,0,2024-09-25,2024-09-20,有限会社ＮＩＳ,,有限会社,東京都,八王子市,大塚１８０１番地１,,13,201,1920352,,,2024-09-20,清算の結了等,,,2015-10-05,1,,,,,エヌアイエス,0
1597,8010401014672,登記記録の閉鎖等,0,2024-09-25,2024-09-12,株式会社新橋コンタクトレンズセンター,,株式会社,埼玉県,さいたま市中央区,大字下落合１０２４番地,,11,105,3380002,,,2024-09-12,清算の結了等,,,2015-10-05,1,,,,,シンバシコンタクトレンズセンター,0
1598,8010401141186,登記記録の閉鎖等,0,2024-09-25,2024-09-02,株式会社Ｙｕｍｉ　Ｃｏｒｅ　Ｂｏｄｙ,,株式会社,東京都,港区,六本木４丁目１２番８号第６ＤＭＪビル７Ｆ,,13,103,1060032,,,2024-09-02,合併による解散等,2010401179414,令和６年９月１日東京都港区六本木四丁目１２番８号第６ＤＭＪビル７Ｆ株式会社Ｙｕｍｉ　Ｃｏｒｅ　Ｂｏｄｙ（2010401179414）に合併し解散,2018-10-04,1,,,,,ユミコアボディ,0
1636,8011101079584,登記記録の閉鎖等,0,2024-09-25,2024-09-10,Ｋｉｎｚｏｋｕｙａｍａ　Ｓｈｏｓｈａ株式会社,,株式会社,東京都,新宿区,左門町９番地３０１号,,13,104,1600017,,,2024-09-10,清算の結了等,,,2017-02-15,1,,,,,キンゾクヤマショウシャ,0
1677,8030005019736,登記記録の閉鎖等,0,2024-09-25,2024-09-12,一般社団法人祭でマチづくり秩父プロジェクト,,その他の設立登記法人,埼玉県,秩父市,番場町９番４号,,11,207,3680041,,,2024-09-12,清算の結了等,,,2019-12-09,1,,,,,マツリデマチヅクリチチブプロジェクト,0
1686,8060001020331,登記記録の閉鎖等,0,2024-09-25,2024-09-18,株式会社こさの,,株式会社,栃木県,佐野市,高砂町２８００番地２,,09,204,3270022,,,2024-09-18,清算の結了等,,,2015-10-05,1,,,,,コサノ,0
1694,8080105004518,登記記録の閉鎖等,0,2024-09-25,2024-09-19,医療法人社団満寿美会,,その他の設立登記法人,静岡県,賀茂郡南伊豆町,上賀茂３４６番地,,22,304,4150302,,,2024-09-19,清算の結了等,,,2015-10-05,1,,,,,マスミカイ,0
1719,8120005015429,登記記録の閉鎖等,0,2024-09-25,2024-09-20,一般社団法人中央公共嘱託登記司法書士協会,,その他の設立登記法人,大阪府,大阪市天王寺区,上汐３丁目８番２４号谷九山本ビル７階,,27,109,5430002,,,2024-09-20,清算の結了等,,,2015-10-05,1,,,,,チュウオウコウキョウショクタクトウキシホウショシキョウカイ,0
1720,8140001085226,登記記録の閉鎖等,0,2024-09-25,2024-09-18,株式会社ないかい,,株式会社,兵庫県,淡路市,江井３２７０番地３,,28,226,6561531,,,2024-09-18,清算の結了等,,,2015-10-05,1,,,,,ナイカイ,0
1740,8180302022205,登記記録の閉鎖等,0,2024-09-25,2024-09-17,有限会社三和精密,,有限会社,愛知県,豊田市,幸町大唐島１４番地３,,23,211,4701203,,,2024-09-17,清算の結了等,,,2015-10-05,1,,,,,サンワセイミツ,0
1743,8200001007693,登記記録の閉鎖等,0,2024-09-25,2024-09-18,株式会社オールテック,,株式会社,岐阜県,各務原市,川島小網町２１４６番地の１５６,,21,213,5016023,,,2024-09-18,清算の結了等,,,2015-10-05,1,,,,,オールテック,0
1749,8230002012649,登記記録の閉鎖等,0,2024-09-25,2024-09-19,有限会社いちばん,,有限会社,富山県,高岡市,北島２５８番地,,16,202,9330838,,,2024-09-19,清算の結了等,,,2015-10-05,1,,,,,イチバン,0
1763,8290002017989,登記記録の閉鎖等,0,2024-09-25,2024-08-22,有限会社矢野商店,,有限会社,福岡県,福岡市博多区,美野島１丁目１９番１０号,,40,132,8120017,,,2024-08-22,清算の結了等,,,2015-10-05,1,,,,,ヤノショウテン,0
1767,8300002010843,登記記録の閉鎖等,0,2024-09-25,2024-09-18,有限会社イワセ,,有限会社,佐賀県,唐津市,浜玉町横田上８５６番地,,41,202,8495121,,,2024-09-18,清算の結了等,,,2015-10-05,1,,,,,イワセ,0
1768,8310002008886,登記記録の閉鎖等,0,2024-09-25,2024-09-17,有限会社ワンツー企画,,有限会社,長崎県,西彼杵郡時津町,左底郷８６番地５,,42,308,8512106,,,2024-09-17,清算の結了等,,,2015-10-05,1,,,,,ワンツーキカク,0
1796,8430002046115,登記記録の閉鎖等,0,2024-09-25,2024-09-19,丸北堀本産業有限会社,,有限会社,北海道,江別市,八条８丁目３番地,,01,217,0670018,,,2024-09-19,清算の結了等,,,2015-10-05,1,,,,,マルキタホリモトサンギョウ,0
1801,8500001008959,登記記録の閉鎖等,0,2024-09-25,2024-09-18,合田部品株式会社,,株式会社,愛媛県,西条市,下島山甲１８３４番地,,38,206,7930006,,,2024-09-18,清算の結了等,,,2015-10-05,1,,,,,ゴウダブヒン,0
1816,9010005022749,登記記録の閉鎖等,0,2024-09-25,2024-09-19,一般社団法人日本元気ながいき倶楽部,,その他の設立登記法人,東京都,大島町,元町字野地６３６番地１,,13,361,1000101,,,2024-09-19,清算の結了等,,,2015-10-05,1,,,,,ニホンゲンキナガイキクラブ,0
1828,9010501041161,登記記録の閉鎖等,0,2024-09-25,2024-09-18,株式会社和田ビル,,株式会社,東京都,台東区,浅草２丁目１１番７号和田ビル,,13,106,1110032,,,2024-09-18,清算の結了等,,,2017-06-08,1,,,,,ワダビル,0
1829,9010602019726,登記記録の閉鎖等,0,2024-09-25,2024-09-19,有限会社ＥＭＥＲＩＣＯ,,有限会社,東京都,墨田区,千歳２丁目１番４号,,13,107,1300025,,,2024-09-19,清算の結了等,,,2015-10-05,1,,,,,エメリコ,0
1834,9010902008073,登記記録の閉鎖等,0,2024-09-25,2024-09-11,有限会社スギモト,,有限会社,東京都,世田谷区,粕谷３丁目２１番３号,,13,112,1570063,,,2024-09-11,清算の結了等,,,2015-10-05,1,,,,,,0
1835,9010902008461,登記記録の閉鎖等,0,2024-09-25,2024-09-20,有限会社セイコー技研,,有限会社,東京都,世田谷区,中町４丁目２９番１５号,,13,112,1580091,,,2024-09-20,清算の結了等,,,2015-10-05,1,,,,,セイコーギケン,0
1838,9011001134810,登記記録の閉鎖等,0,2024-09-25,2024-09-02,キュアレメディカルケア株式会社,,株式会社,東京都,渋谷区,渋谷１丁目１７番２号,,13,113,1500002,,,2024-09-02,清算の結了等,,,2020-07-15,1,,,,,キュアレメディカルケア,0
1847,9011005009934,登記記録の閉鎖等,0,2024-09-25,2024-09-10,ＫＩＺＡＳＨＩ社会保険労務士法人,,その他の設立登記法人,東京都,渋谷区,神泉町９番１号４Ｆ,,13,113,1500045,,,2024-09-10,清算の結了等,,,2023-02-02,1,,,,,キザシ,0
1859,9011301018515,登記記録の閉鎖等,0,2024-09-25,2024-09-17,株式会社ヤエス土地コンサルタント,,株式会社,東京都,杉並区,和泉２丁目４５番３３号,,13,115,1680063,,,2024-09-17,清算の結了等,,,2015-10-05,1,,,,,ヤエストチコンサルタント,0
1861,9011402019338,登記記録の閉鎖等,0,2024-09-25,2024-09-17,日本リサイクル研究所有限会社,,有限会社,東京都,板橋区,高島平９丁目２１番１号高島平ハイツ９１１,,13,119,1750082,,,2024-09-17,清算の結了等,,,2015-10-05,1,,,,,ニホンリサイクルケンキュウジョ,0
1878,9011801031851,登記記録の閉鎖等,0,2024-09-25,2024-09-19,株式会社エイ・アンド・ケイ,,株式会社,東京都,葛飾区,亀有５丁目４２番１－１４１０号,,13,122,1250061,,,2024-09-19,清算の結了等,,,2016-05-25,1,,,,,エイアンドケイ,0
1882,9012401013579,登記記録の閉鎖等,0,2024-09-25,2024-09-24,株式会社フロッグ商会,,株式会社,東京都,三鷹市,下連雀３丁目３８番４号,,13,204,1810013,,,2024-09-24,清算の結了等,,,2015-10-05,1,,,,,フロッグショウカイ,0
1895,9013303002744,登記記録の閉鎖等,0,2024-09-25,2024-09-17,錦城商事合同会社,,合同会社,千葉県,千葉市若葉区,若松町４２５番地２５８,,12,104,2640021,,,2024-09-17,清算の結了等,,,2015-10-05,1,,,,,キンジョウショウジ,0
1901,9020001135859,登記記録の閉鎖等,0,2024-09-25,2024-09-10,株式会社ＮＢ開発研究所,,株式会社,神奈川県,川崎市高津区,下野毛３丁目９番２号メイツ武蔵新城７０７号,,14,134,2130006,,,2024-09-10,清算の結了等,,,2020-04-30,1,,,,,エヌビーカイハツケンキュウジョ,0
1903,9020002025167,登記記録の閉鎖等,0,2024-09-25,2024-09-09,有限会社松岡,,有限会社,神奈川県,横浜市保土ケ谷区,権太坂１丁目９番５号,,14,106,2400026,,,2024-09-09,清算の結了等,,,2015-10-05,1,,,,,,0
1911,9021002051450,登記記録の閉鎖等,0,2024-09-25,2024-09-18,有限会社かどや酒店,,有限会社,神奈川県,小田原市,蓮正寺３３５番地,00013598,14,206,2500865,,,2024-09-18,清算の結了等,,,2015-10-05,1,,,,,カドヤサケテン,0
1912,9021002060014,登記記録の閉鎖等,0,2024-09-25,2024-09-20,山木機械土木有限会社,,有限会社,神奈川県,平塚市,入野３８４－３番地,,14,203,2591216,,,2024-09-20,清算の結了等,,,2015-10-05,1,,,,,,0
1916,9030001085995,登記記録の閉鎖等,0,2024-09-25,2024-09-13,株式会社寄居ガス,,株式会社,埼玉県,大里郡寄居町,大字寄居９０３番地,,11,408,3691203,,,2024-09-13,清算の結了等,,,2015-10-05,1,,,,,ヨリイガス,0
1921,9030002113846,登記記録の閉鎖等,0,2024-09-25,2024-09-13,有限会社トリニックス,,有限会社,埼玉県,熊谷市,上之３９２９番地,,11,202,3600012,,,2024-09-13,清算の結了等,,,2015-10-05,1,,,,,トリニックス,0
1932,9080101005386,登記記録の閉鎖等,0,2024-09-25,2024-09-18,株式会社エス・エイチ総合企画,,株式会社,静岡県,駿東郡清水町,徳倉２４４０番地,,22,341,4110917,,,2024-09-18,清算の結了等,,,2015-10-05,1,,,,,エスエイチソウゴウキカク,0
1946,9120002000291,登記記録の閉鎖等,0,2024-09-25,2024-09-24,有限会社コンタクトなかがわ,,有限会社,大阪府,大阪市旭区,大宮２丁目１７番２３号,,27,117,5350002,,,2024-09-24,清算の結了等,,,2015-10-05,1,,,,,コンタクトナカガワ,0
1951,9120101047556,登記記録の閉鎖等,0,2024-09-25,2024-09-18,株式会社愛和,,株式会社,兵庫県,神戸市東灘区,深江南町１丁目８番３１－４１４号,,28,101,6580022,,,2024-09-18,清算の結了等,,,2015-10-05,1,,,,,アイワ,0
1957,9130002034108,登記記録の閉鎖等,0,2024-09-25,2024-09-20,有限会社相瀬工作所,,有限会社,京都府,舞鶴市,字吉田無番地,,26,202,6240943,,,2024-09-20,清算の結了等,,,2015-10-05,1,,,,,アイセコウサクショ,0
1960,9140003005247,登記記録の閉鎖等,0,2024-09-25,2024-09-18,合同会社カルティベイティング,,合同会社,兵庫県,神戸市垂水区,霞ケ丘２丁目４番１号霞ケ丘マンション１０６号室,,28,108,6550039,,,2024-09-18,清算の結了等,,,2015-10-05,1,,,,,カルティベイティング,0
1969,9180001081930,登記記録の閉鎖等,0,2024-09-25,2024-09-13,愛知サービス株式会社,,株式会社,愛知県,一宮市,春明字東砂吹埋４３番地２,,23,203,4910003,,,2024-09-13,清算の結了等,,,2015-10-05,1,,,,,アイチサービス,0
1973,9180001151931,登記記録の閉鎖等,0,2024-09-25,2024-09-12,ライフサイクル株式会社,,株式会社,愛知県,春日井市,柏井町１丁目５０番地１,,23,206,4860927,,,2024-09-12,清算の結了等,,,2022-06-28,1,,,,,ライフサイクル,0
1975,9180002086367,登記記録の閉鎖等,0,2024-09-25,2024-09-17,有限会社山博建設,,有限会社,愛知県,常滑市,坂井字梅狭間２８番地,,23,216,4790809,,,2024-09-17,清算の結了等,,,2015-10-05,1,,,,,ヤマヒロケンセツ,0
1978,9180303001264,登記記録の閉鎖等,0,2024-09-25,2024-09-13,合資会社ツバメ屋楽器店,,合資会社,愛知県,豊橋市,萱町２５番地,,23,201,4400896,,,2024-09-13,清算の結了等,,,2015-10-05,1,,,,,ツバメヤガッキテン,0
1984,9220001016436,登記記録の閉鎖等,0,2024-09-25,2024-09-17,株式会社アドニスライフ,,株式会社,石川県,羽咋市,千路町に２９番地,,17,207,9250012,,,2024-09-17,清算の結了等,,,2015-10-05,1,,,,,,0
1990,9240002016235,登記記録の閉鎖等,0,2024-09-25,2024-09-18,有限会社緑商事,,有限会社,広島県,広島市西区,己斐上４丁目３１番７号,,34,104,7330815,,,2024-09-18,清算の結了等,,,2015-10-05,1,,,,,ミドリショウジ,0
2000,9310002019305,登記記録の閉鎖等,0,2024-09-25,2024-09-13,有限会社川口電器商会,,有限会社,長崎県,平戸市,前津吉町２７０番地,,42,207,8595523,,,2024-09-13,清算の結了等,,,2015-10-05,1,,,,,カワグチデンキショウカイ,0
2004,9320002004941,登記記録の閉鎖等,0,2024-09-25,2024-09-24,有限会社南海高速運輸,,有限会社,大分県,大分市,大字松岡６６５０番地の１,,44,201,8700125,,,2024-09-24,清算の結了等,,,2015-10-05,1,,,,,ナンカイコウソクウンユ,0
2006,9320005001291,登記記録の閉鎖等,0,2024-09-25,2024-09-24,協同組合大分県新友会,,その他の設立登記法人,大分県,大分市,中鶴崎１丁目８番２３号,,44,201,8700101,,,2024-09-24,清算の結了等,,,2015-10-05,1,,,,,,0
2033,9430001080980,登記記録の閉鎖等,0,2024-09-25,2024-09-18,株式会社フジミート販売,,株式会社,北海道,札幌市西区,発寒十七条４丁目１番３０号,,01,107,0630837,,,2024-09-18,清算の結了等,,,2020-03-05,1,,,,,フジミートハンバイ,0
2036,9430005007492,登記記録の閉鎖等,0,2024-09-25,2024-09-13,滝川銀座商店街振興組合,,その他の設立登記法人,北海道,滝川市,大町１丁目８番１号,,01,225,0730022,,,2024-09-13,清算の結了等,,,2015-10-05,1,,,,,タキカワギンザ,0
2041,9460102006592,登記記録の閉鎖等,0,2024-09-25,2024-09-18,有限会社大津建設工業,,有限会社,北海道,中川郡豊頃町,大津寿町１０４番地２,,01,645,0895463,,,2024-09-18,清算の結了等,,,2015-10-05,1,,,,,オオツケンセツコウギョウ,0
