sequenceNumber,corporateNumber,process,correct,updateDate,changeDate,name,nameImageId,kind,prefectureName,cityName,streetNumber,addressImageId,prefectureCode,cityCode,postCode,addressOutside,addressOutsideImageId,closeDate,closeCause,successorCorporateNumber,changeCause,assignmentDate,latest,enName,enPrefectureName,enCityName,enAddressOutside,furigana,hihyoji
13,1010003032765,登記記録の閉鎖等,0,2023-09-25,2023-09-14,７９ｔｈ　ＬＵＸＵＲＹ　ＬＩＶＩＮＧ　ＪＡＰＡＮ合同会社,,合同会社,東京都,千代田区,麹町３丁目５番２号ビュレックス麹町,,13,101,1020083,,,2023-09-14,清算の結了等,,,2020-08-05,1,,,,,セブンティナインスラグジュアリーリビングジャパン,0
33,1010801023222,登記記録の閉鎖等,0,2023-09-25,2023-09-20,キメントジャパン株式会社,,株式会社,東京都,大田区,仲池上２丁目１０番２３－１０４号,,13,111,1460081,,,2023-09-20,清算の結了等,,,2015-10-05,1,,,,,キメントジャパン,0
35,1010803000905,登記記録の閉鎖等,0,2023-09-25,2023-09-15,会社設立ナビゲーター合同会社,,合同会社,東京都,大田区,西蒲田８丁目１番１０号ＦＫ蒲田３階,,13,111,1440051,,,2023-09-15,清算の結了等,,,2015-10-05,1,,,,,,0
38,1010903006158,登記記録の閉鎖等,0,2023-09-25,2023-09-19,合同会社Ｓｕｂｔｌｅ,,合同会社,東京都,世田谷区,野毛１丁目１３番７号空音の森－森１０６,,13,112,1580092,,,2023-09-19,清算の結了等,,,2020-12-22,1,,,,,サトル,0
43,1011101062415,登記記録の閉鎖等,0,2023-09-25,2023-09-01,ワウテック株式会社,,株式会社,東京都,港区,芝５丁目２９番１１号,,13,103,1080014,,,2023-09-01,合併による解散等,7010401076763,令和５年９月１日東京都港区芝五丁目２９番１１号キングソフト株式会社（7010401076763）に合併し解散,2015-10-05,1,,,,,ワウテック,0
46,1011101099738,登記記録の閉鎖等,0,2023-09-25,2023-09-21,株式会社クロスパーク,,株式会社,東京都,新宿区,西新宿３丁目３番１３号,,13,104,1600023,,,2023-09-21,清算の結了等,,,2022-08-03,1,,,,,クロスパーク,0
58,1011501022415,登記記録の閉鎖等,0,2023-09-25,2023-09-21,株式会社ワイエム,,株式会社,東京都,荒川区,西日暮里２丁目２５番１号ステーションガーデンタワー１階,,13,118,1160013,,,2023-09-21,合併による解散等,6010002048080,令和５年９月１３日東京都中央区明石町５番２７号株式会社アライ（6010002048080）に合併し解散,2017-03-07,1,,,,,ワイエム,0
63,1011602008115,登記記録の閉鎖等,0,2023-09-25,2023-09-19,有限会社林屋興産,,有限会社,東京都,練馬区,豊玉上２丁目１４番４号,,13,120,1760011,,,2023-09-19,清算の結了等,,,2015-10-05,1,,,,,ハヤシヤコウサン,0
78,1020001006621,登記記録の閉鎖等,0,2023-09-25,2023-09-13,日興第一通信株式会社,,株式会社,神奈川県,横浜市金沢区,福浦２丁目１４番１１号,,14,108,2360004,,,2023-09-13,清算の結了等,,,2015-10-05,1,,,,,ニッコウダイイチツウシン,0
89,1020003006768,登記記録の閉鎖等,0,2023-09-25,2023-09-13,合同会社山根建物管理,,合同会社,神奈川県,川崎市川崎区,駅前本町１５番地１４,,14,131,2100007,,,2023-09-13,清算の結了等,,,2015-10-05,1,,,,,ヤマネタテモノカンリ,0
110,1030002119652,登記記録の閉鎖等,0,2023-09-25,2023-09-14,有限会社友山製作所,,有限会社,東京都,板橋区,上板橋１丁目１番２号ナイスビル３０１,,13,119,1740076,,,2023-09-14,合併による解散等,4030001058832,令和５年９月１３日東京都板橋区上板橋一丁目１番２号ナイスビル１０１株式会社ナイスエステート（4030001058832）に合併し解散,2015-10-05,1,,,,,トモヤマセイサクショ,0
123,1040003009645,登記記録の閉鎖等,0,2023-09-25,2023-09-07,合同会社グローバル,,合同会社,千葉県,我孫子市,つくし野６丁目２０番８号,,12,222,2701164,,,2023-09-07,清算の結了等,,,2017-02-06,1,,,,,グローバル,0
127,1050002031228,登記記録の閉鎖等,0,2023-09-25,2023-09-14,有限会社日立銘板所,,有限会社,茨城県,日立市,宮田町４丁目２番４号,,08,202,3170055,,,2023-09-14,清算の結了等,,,2015-10-05,1,,,,,ヒタチメイバンジョ,0
129,1060002035896,登記記録の閉鎖等,0,2023-09-25,2023-09-12,有限会社岸田屋商店,,有限会社,栃木県,足利市,今福町４０４番地,,09,202,3260842,,,2023-09-12,清算の結了等,,,2015-10-05,1,,,,,キシダヤショウテン,0
132,1080002007398,登記記録の閉鎖等,0,2023-09-25,2023-09-22,有限会社グッドガーデン,,有限会社,静岡県,静岡市葵区,田町２丁目１０６番地,,22,101,4200068,,,2023-09-22,清算の結了等,,,2015-10-05,1,,,,,グッドガーデン,0
133,1080101005328,登記記録の閉鎖等,0,2023-09-25,2023-09-21,イノウエ産業株式会社,,株式会社,静岡県,田方郡函南町,上沢９６１番地の１５,,22,325,4190122,,,2023-09-21,清算の結了等,,,2015-10-05,1,,,,,イノウエサンギョウ,0
138,1080402010241,登記記録の閉鎖等,0,2023-09-25,2023-09-22,有限会社宏放,,有限会社,静岡県,浜松市中区,成子町１８２番地,,22,131,4328035,,,2023-09-22,清算の結了等,,,2015-10-05,1,,,,,コウホウ,0
153,1120001032590,登記記録の閉鎖等,0,2023-09-25,2023-08-31,株式会社コスモハウジング,,株式会社,大阪府,大阪市住吉区,殿辻２丁目３番１２号,00028025,27,120,5580042,,,2023-08-31,清算の結了等,,,2015-10-05,1,,,,,コスモハウジング,0
172,1122002013264,登記記録の閉鎖等,0,2023-09-25,2023-09-20,有限会社エヌシー・サービス,,有限会社,大阪府,八尾市,東本町３丁目７番３１号,,27,212,5810004,,,2023-09-20,清算の結了等,,,2015-10-05,1,,,,,エヌシーサービス,0
183,1140001129609,登記記録の閉鎖等,0,2023-09-25,2023-09-15,株式会社日豊商事,,株式会社,兵庫県,姫路市,西夢前台２丁目１５番地,,28,201,6712214,,,2023-09-15,清算の結了等,,,2023-04-05,1,,,,,ニッポウショウジ,0
185,1140002049062,登記記録の閉鎖等,0,2023-09-25,2023-09-15,書写電器有限会社,,有限会社,兵庫県,姫路市,夢前町護持１２３６,,28,201,6712136,,,2023-09-15,清算の結了等,,,2015-10-05,1,,,,,ショシャデンキ,0
192,1150003002390,登記記録の閉鎖等,0,2023-09-25,2023-09-21,あおみくさ合同会社,,合同会社,奈良県,桜井市,大字巻野内４７５,,29,206,6330082,,,2023-09-21,清算の結了等,,,2021-05-26,1,,,,,アオミクサ,0
194,1180001047047,登記記録の閉鎖等,0,2023-09-25,2023-09-19,アセント株式会社,,株式会社,愛知県,名古屋市南区,薬師通２丁目２１番地,,23,112,4570041,,,2023-09-19,清算の結了等,,,2015-10-05,1,,,,,アセント,0
202,1190001030282,登記記録の閉鎖等,0,2023-09-25,2023-09-19,株式会社田中製作所,,株式会社,三重県,いなべ市,員弁町畑新田５１０番地,,24,214,5110203,,,2023-09-19,清算の結了等,,,2023-04-04,1,,,,,タナカセイサクジョ,0
211,1240001001055,登記記録の閉鎖等,0,2023-09-25,2023-09-19,株式会社ウエダ・コーポレーション,,株式会社,広島県,広島市佐伯区,屋代２丁目１２番１１号,,34,108,7315146,,,2023-09-19,清算の結了等,,,2015-10-05,1,,,,,ウエダコーポレーション,0
215,1240002026480,登記記録の閉鎖等,0,2023-09-25,2023-09-15,有限会社マッカムプランニング,,有限会社,広島県,広島市西区,井口台２丁目２３番４３－５０５号,,34,104,7330844,,,2023-09-15,清算の結了等,,,2015-10-05,1,,,,,マッカムプランニング,0
222,1270001007611,登記記録の閉鎖等,0,2023-09-25,2023-09-21,株式会社松原総合研究所,,株式会社,鳥取県,八頭郡八頭町,見槻中１５４番地２,,31,329,6800404,,,2023-09-21,清算の結了等,,,2018-10-10,1,,,,,マツバラソウゴウケンキュウショ,0
232,1290802003294,登記記録の閉鎖等,0,2023-09-25,2023-09-22,新曽根商事有限会社,,有限会社,福岡県,北九州市小倉南区,葛原東４丁目４番７号,,40,107,8000206,,,2023-09-22,清算の結了等,,,2015-10-05,1,,,,,シンソネショウジ,0
236,1320003002745,登記記録の閉鎖等,0,2023-09-25,2023-09-19,合同会社Ｍｉｅｓ,,合同会社,大分県,大分市,大字杉原６９９番地の２６９,,44,201,8797882,,,2023-09-19,清算の結了等,,,2018-02-20,1,,,,,ミース,0
249,1380002000777,登記記録の閉鎖等,0,2023-09-25,2023-09-15,有限会社御山電機製作所,,有限会社,福島県,福島市,御山字井戸上１７番地の７,,07,201,9608252,,,2023-09-15,清算の結了等,,,2015-10-05,1,,,,,オヤマデンキセイサクショ,0
253,1400001005493,登記記録の閉鎖等,0,2023-09-25,2023-09-15,株式会社丸仁商会,,株式会社,岩手県,花巻市,鍛治町２番３号,,03,205,0250086,,,2023-09-15,清算の結了等,,,2015-10-05,1,,,,,マルニショウカイ,0
255,1400002007448,登記記録の閉鎖等,0,2023-09-25,2023-09-14,有限会社田中工務所,,有限会社,岩手県,岩手郡岩手町,大字川口第８地割３番地２５,,03,303,0284211,,,2023-09-14,清算の結了等,,,2015-10-05,1,,,,,タナカコウムショ,0
258,1430003007519,登記記録の閉鎖等,0,2023-09-25,2023-09-15,合同会社Ｅ－Ｖｅｔｓ,,合同会社,北海道,江別市,野幌屯田町３７番２８,,01,217,0690803,,,2023-09-15,合併による解散等,1021002042787,令和５年９月１日神奈川県大和市桜森二丁目２２番１９号株式会社ライフメイト動物病院グループ（1021002042787）に合併し解散,2016-04-18,1,,,,,イーベッツ,0
267,1490005000375,登記記録の閉鎖等,0,2023-09-25,2023-09-21,旭町三丁目商店街振興組合,,その他の設立登記法人,高知県,高知市,旭町３丁目８０番地２,,39,201,7800935,,,2023-09-21,清算の結了等,,,2015-10-05,1,,,,,アサヒマチサンチョウメ,0
277,2010001219586,登記記録の閉鎖等,0,2023-09-25,2023-09-07,株式会社アドレーション,,株式会社,千葉県,佐倉市,王子台４丁目２８番地１４庄太郎第２ビル１階,,12,212,2850837,,,2023-09-07,清算の結了等,,,2021-07-09,1,,,,,アドレーション,0
280,2010002006686,登記記録の閉鎖等,0,2023-09-25,2023-09-15,有限会社レッドアイ,,有限会社,東京都,文京区,千駄木３丁目３３番１２号,,13,105,1130022,,,2023-09-15,清算の結了等,,,2015-10-05,1,,,,,レッドアイ,0
297,2010903003204,登記記録の閉鎖等,0,2023-09-25,2023-09-19,合同会社ライフデザイン研究所,,合同会社,東京都,世田谷区,南烏山２丁目３１番３１号,,13,112,1570062,,,2023-09-19,清算の結了等,,,2016-07-05,1,,,,,ライフデザインケンキュウジョ,0
300,2011001113036,登記記録の閉鎖等,0,2023-09-25,2023-09-21,株式会社ベンチャーバンクインフィット,,株式会社,東京都,中央区,銀座６丁目１０番１号,,13,102,1040061,,,2023-09-21,合併による解散等,5011001044633,令和５年９月１日東京都港区北青山一丁目２番３号株式会社ＬＡＶＡ　Ｉｎｔｅｒｎａｔｉｏｎａｌ（5011001044633）に合併し解散,2016-10-13,1,,,,,ベンチャーバンクインフィット,0
327,2012401039762,登記記録の閉鎖等,0,2023-09-25,2023-09-20,株式会社イージー,,株式会社,東京都,新宿区,天神町６８滝沢ビル８階,,13,104,1620808,,,2023-09-20,清算の結了等,,,2022-10-21,1,,,,,イージー,0
330,2012701011124,登記記録の閉鎖等,0,2023-09-25,2023-09-15,サイクルシステムジャパン株式会社,,株式会社,大阪府,大阪市住之江区,平林南１丁目５番１５号,,27,125,5590025,,,2023-09-15,合併による解散等,1120101024216,令和５年９月１５日大阪市住之江区平林南一丁目５番１５号株式会社オオトモ（1120101024216）に合併し解散,2015-10-05,1,,,,,サイクルシステムジャパン,0
331,2013101000139,登記記録の閉鎖等,0,2023-09-25,2023-09-21,株式会社三富,,株式会社,東京都,福生市,本町３８番地,,13,218,1970022,,,2023-09-21,清算の結了等,,,2015-10-05,1,,,,,ミツトミ,0
332,2013302005531,登記記録の閉鎖等,0,2023-09-25,2023-09-15,聖和医療設備有限会社,,有限会社,東京都,豊島区,西池袋３丁目１１番５号,,13,116,1710021,,,2023-09-15,清算の結了等,,,2015-10-05,1,,,,,セイワイリョウセツビ,0
354,2030002070350,登記記録の閉鎖等,0,2023-09-25,2023-08-29,有限会社ケイアイ企画,,有限会社,埼玉県,北葛飾郡杉戸町,大字鷲巣６１３番地２０,,11,464,3450002,,,2023-08-29,清算の結了等,,,2015-10-05,1,,,,,ケイアイキカク,0
359,2040001017814,登記記録の閉鎖等,0,2023-09-25,2023-09-07,株式会社グローヴガーデンデザイン,,株式会社,千葉県,八千代市,吉橋７４３番地,,12,221,2760047,,,2023-09-07,清算の結了等,,,2015-10-05,1,,,,,グローヴガーデンデザイン,0
366,2050001002708,登記記録の閉鎖等,0,2023-09-25,2023-09-19,株式会社ヤマト,,株式会社,茨城県,水戸市,千波町２３８７番地の３,,08,201,3100851,,,2023-09-19,清算の結了等,,,2015-10-05,1,,,,,ヤマト,0
380,2080101010839,登記記録の閉鎖等,0,2023-09-25,2023-09-20,株式会社ワイエーコーポレーション,,株式会社,静岡県,富士市,今泉４丁目２番１４号,,22,210,4170001,,,2023-09-20,清算の結了等,,,2015-10-05,1,,,,,ワイエーコーポレーション,0
389,2100001000879,登記記録の閉鎖等,0,2023-09-25,2023-09-12,株式会社クルミサワ,,株式会社,長野県,須坂市,大字米持１５６番地１,,20,207,3820000,,,2023-09-12,清算の結了等,,,2015-10-05,1,,,,,クルミサワ,0
395,2110002021056,登記記録の閉鎖等,0,2023-09-25,2023-09-20,有限会社諸橋牧場,,有限会社,新潟県,三島郡出雲崎町,大字滝谷１１０４番地,,15,405,9494316,,,2023-09-20,清算の結了等,,,2015-10-05,1,,,,,モロハシボクジョウ,0
424,2140001103827,登記記録の閉鎖等,0,2023-09-25,2023-09-19,ワイズ株式会社,,株式会社,兵庫県,神戸市垂水区,多聞台３丁目６番２５号,,28,108,6550007,,,2023-09-19,清算の結了等,,,2016-10-25,1,,,,,ワイズ,0
444,2180001112246,登記記録の閉鎖等,0,2023-09-25,2023-09-19,株式会社ゼンシン,,株式会社,愛知県,名古屋市西区,笠取町４丁目１０７番地,,23,104,4510072,,,2023-09-19,清算の結了等,,,2015-10-05,1,,,,,ゼンシン,0
450,2180002011934,登記記録の閉鎖等,0,2023-09-25,2023-09-20,有限会社田中製作所,,有限会社,愛知県,名古屋市北区,山田北町１丁目６０番地,,23,103,4620811,,,2023-09-20,清算の結了等,,,2015-10-05,1,,,,,タナカセイサクショ,0
454,2190001010143,登記記録の閉鎖等,0,2023-09-25,2023-09-14,株式会社岡田建材,,株式会社,三重県,松阪市,阿波曽町８７９番,,24,204,5192146,,,2023-09-14,清算の結了等,,,2015-10-05,1,,,,,オカダケンザイ,0
457,2200002012665,登記記録の閉鎖等,0,2023-09-25,2023-09-20,有限会社伸栄電工社,,有限会社,岐阜県,大垣市,室町１丁目５４番地,,21,202,5030906,,,2023-09-20,清算の結了等,,,2015-10-05,1,,,,,シンエイデンコウシャ,0
461,2220002010592,登記記録の閉鎖等,0,2023-09-25,2023-09-19,有限会社小松海産物,,有限会社,石川県,小松市,本江町ホ１番地,,17,203,9230841,,,2023-09-19,清算の結了等,,,2015-10-05,1,,,,,コマツカイサンブツ,0
485,2290002053445,登記記録の閉鎖等,0,2023-09-25,2023-09-06,有限会社白谷建設,,有限会社,福岡県,柳川市,大和町栄４９０番地の２,,40,207,8390252,,,2023-09-06,清算の結了等,,,2015-10-05,1,,,,,シラタニケンセツ,0
491,2330002030340,登記記録の閉鎖等,0,2023-09-25,2023-09-15,有限会社ドラツグストアーツツミ,,有限会社,熊本県,人吉市,土手町３５番地の１,,43,203,8680057,,,2023-09-15,清算の結了等,,,2015-10-05,1,,,,,ドラツグストアーツツミ,0
501,2370001014753,登記記録の閉鎖等,0,2023-09-25,2023-09-19,株式会社アクア,,株式会社,宮城県,仙台市青葉区,桜ケ丘２丁目１０番６号,,04,101,9810961,,,2023-09-19,清算の結了等,,,2015-10-05,1,,,,,アクア,0
505,2380002009990,登記記録の閉鎖等,0,2023-09-25,2023-09-19,有限会社渋谷本店,,有限会社,福島県,郡山市,大町１丁目６番１５号,,07,203,9638001,,,2023-09-19,清算の結了等,,,2015-10-05,1,,,,,シブヤホンテン,0
507,2390001013027,登記記録の閉鎖等,0,2023-09-25,2023-09-20,株式会社家づくり工房サイトウ,,株式会社,山形県,東田川郡庄内町,南野字南浦１２１番地,,06,428,9997727,,,2023-09-20,清算の結了等,,,2015-10-05,1,,,,,イエヅクリコウボウサイトウ,0
530,3010001139305,登記記録の閉鎖等,0,2023-09-25,2023-09-19,アグレェイ株式会社,,株式会社,東京都,品川区,北品川５丁目１２－４リードシー御殿山ビル６階,,13,109,1410001,,,2023-09-19,合併による解散等,3140001114798,令和５年９月１日兵庫県姫路市飾東町豊国２８９番地１株式会社城山（3140001114798）に合併し解散,2015-10-05,1,,,,,アグレェイ,0
537,3010003028290,登記記録の閉鎖等,0,2023-09-25,2023-09-15,ベータＭＬ合同会社,,合同会社,東京都,千代田区,丸の内３丁目１番１号東京共同会計事務所内,,13,101,1000005,,,2023-09-15,清算の結了等,,,2018-09-18,1,,,,,ベータエムエル,0
564,3010903005091,登記記録の閉鎖等,0,2023-09-25,2023-09-19,合同会社スクエアインベストメント,,合同会社,東京都,世田谷区,三軒茶屋１丁目８番１３－５０１号,,13,112,1540024,,,2023-09-19,清算の結了等,,,2019-07-09,1,,,,,スクエアインベストメント,0
586,3011603003154,登記記録の閉鎖等,0,2023-09-25,2023-09-20,合同会社流星群,,合同会社,東京都,練馬区,土支田１丁目３５番６号,,13,120,1790076,,,2023-09-20,清算の結了等,,,2020-12-08,1,,,,,リュウセイグン,0
592,3012403001389,登記記録の閉鎖等,0,2023-09-25,2023-09-14,合同会社２３度,,合同会社,東京都,国立市,中２丁目２２番地の７９,,13,215,1860004,,,2023-09-14,清算の結了等,,,2015-10-05,1,,,,,ニジュウサンド,0
594,3013102005631,登記記録の閉鎖等,0,2023-09-25,2023-09-21,有限会社油屋,,有限会社,東京都,青梅市,仲町３１２番地,,13,205,1980082,,,2023-09-21,清算の結了等,,,2015-10-05,1,,,,,アブラヤ,0
607,3020003016179,登記記録の閉鎖等,0,2023-09-25,2023-09-14,Ｒｅｎｔ　ａ　Ｃｌｏｕｄ合同会社,,合同会社,神奈川県,横浜市青葉区,すすき野３丁目６番地２・６－３号棟４０２号室,,14,117,2250021,,,2023-09-14,清算の結了等,,,2019-06-20,1,,,,,レントアクラウド,0
608,3020003020148,登記記録の閉鎖等,0,2023-09-25,2023-09-14,合同会社ＩＮＣ,,合同会社,神奈川県,川崎市多摩区,菅北浦５丁目７番１１号,,14,135,2140008,,,2023-09-14,清算の結了等,,,2021-07-12,1,,,,,アイエヌシー,0
611,3021001065647,登記記録の閉鎖等,0,2023-09-25,2023-09-14,株式会社エフエルシー,,株式会社,神奈川県,平塚市,徳延７５３番地の３ＩＶＹパーク２０１号,,14,203,2540902,,,2023-09-14,清算の結了等,,,2018-09-19,1,,,,,エフエルシー,0
635,3040001002781,登記記録の閉鎖等,0,2023-09-25,2023-09-07,株式会社智設計事務所,,株式会社,千葉県,千葉市中央区,都町２丁目５番１号,,12,101,2600001,,,2023-09-07,清算の結了等,,,2015-10-05,1,,,,,サトルセッケイジムショ,0
636,3040001031228,登記記録の閉鎖等,0,2023-09-25,2023-09-07,株式会社ソエダミクロシステム,,株式会社,千葉県,市川市,稲越２丁目１４番１３号,,12,203,2720831,,,2023-09-07,清算の結了等,,,2015-10-05,1,,,,,ソエダミクロシステム,0
642,3040002045012,登記記録の閉鎖等,0,2023-09-25,2023-09-07,有限会社カサクラ商事,,有限会社,千葉県,松戸市,本町１６番地の４藤和シティコープ松戸本町４０３号,,12,207,2710091,,,2023-09-07,清算の結了等,,,2015-10-05,1,,,,,カサクラショウジ,0
645,3040005018601,登記記録の閉鎖等,0,2023-09-25,2023-09-07,ＮＰＯ法人若草ＹＹ卓球振興会,,その他の設立登記法人,千葉県,柏市,酒井根２丁目３７番２号,,12,217,2770053,,,2023-09-07,清算の結了等,,,2015-10-05,1,,,,,ワカクサワイワイタッキュウシンコウカイ,0
662,3100001000829,登記記録の閉鎖等,0,2023-09-25,2023-09-13,株式会社クギヤ百貨店,,株式会社,長野県,長野市,大字長野桜枝町９２８番地の１,,20,201,3800862,,,2023-09-13,清算の結了等,,,2015-10-05,1,,,,,クギヤヒャッカテン,0
668,3110001021502,登記記録の閉鎖等,0,2023-09-25,2023-09-14,株式会社ハルカワ電機,,株式会社,新潟県,十日町市,稲荷町３丁目３番地９,,15,210,9480091,,,2023-09-14,清算の結了等,,,2015-10-05,1,,,,,ハルカワデンキ,0
691,3120902014405,登記記録の閉鎖等,0,2023-09-25,2023-09-15,共和商事有限会社,,有限会社,大阪府,池田市,石橋１丁目１７番７号,,27,204,5630032,,,2023-09-15,清算の結了等,,,2015-10-05,1,,,,,キョウワショウジ,0
697,3140001052437,登記記録の閉鎖等,0,2023-09-25,2023-09-19,株式会社武甲製作所,,株式会社,兵庫県,尼崎市,東難波町５丁目２６番６号,,28,202,6600892,,,2023-09-19,清算の結了等,,,2015-10-05,1,,,,,ブコウセイサクショ,0
698,3140001054441,登記記録の閉鎖等,0,2023-09-25,2023-09-15,株式会社ひ乃清,,株式会社,兵庫県,尼崎市,武庫之荘８丁目１８番１５号,,28,202,6610035,,,2023-09-15,清算の結了等,,,2015-10-05,1,,,,,ヒノセイ,0
704,3140001126736,登記記録の閉鎖等,0,2023-09-25,2023-09-14,ＤＲ株式会社,,株式会社,兵庫県,尼崎市,武庫之荘２丁目２番２－３０６号,,28,202,6610035,,,2023-09-14,清算の結了等,,,2022-07-14,1,,,,,ディーアール,0
708,3150001004825,登記記録の閉鎖等,0,2023-09-25,2023-09-20,株式会社クレスト,,株式会社,奈良県,生駒市,山崎町１番１－３０４号,,29,209,6300252,,,2023-09-20,清算の結了等,,,2015-10-05,1,,,,,,0
709,3150001008974,登記記録の閉鎖等,0,2023-09-25,2023-09-22,株式会社森初興産,,株式会社,奈良県,生駒市,生駒台北４４０番地１０,,29,209,6300203,,,2023-09-22,清算の結了等,,,2015-10-05,1,,,,,モリハツコウサン,0
716,3180001107724,登記記録の閉鎖等,0,2023-09-25,2023-09-15,株式会社ティーエム,,株式会社,愛知県,尾張旭市,北原山町鳴湫１７２６番地１,,23,226,4880064,,,2023-09-15,清算の結了等,,,2015-10-05,1,,,,,ティーエム,0
722,3180003007724,登記記録の閉鎖等,0,2023-09-25,2023-09-19,合資会社相生,,合資会社,愛知県,名古屋市東区,泉３丁目１番６号,,23,102,4610001,,,2023-09-19,清算の結了等,,,2015-10-05,1,,,,,アイオイ,0
725,3180301013201,登記記録の閉鎖等,0,2023-09-25,2023-09-12,日工設計株式会社,,株式会社,愛知県,安城市,安城町馬池１１６番地１１,,23,212,4460026,,,2023-09-12,清算の結了等,,,2015-10-05,1,,,,,ニッコウセッケイ,0
729,3190002013466,登記記録の閉鎖等,0,2023-09-25,2023-09-20,有限会社伊勢農場,,有限会社,三重県,伊賀市,諏訪字千谷２６００番地,,24,216,5180021,,,2023-09-20,合併による解散等,8370201002412,令和５年９月１日宮城県加美郡色麻町黒沢字切付７番地の１０イセファーム東北株式会社（8370201002412）に合併し解散,2015-10-05,1,,,,,イセノウジョウ,0
731,3200002020056,登記記録の閉鎖等,0,2023-09-25,2023-09-21,有限会社カジタベンディングサービス,,有限会社,岐阜県,多治見市,明和町３丁目１番地の２６５,,21,204,5070072,,,2023-09-21,清算の結了等,,,2015-10-05,1,,,,,カジタベンディングサービス,0
734,3210002013117,登記記録の閉鎖等,0,2023-09-25,2023-09-20,有限会社田野自動車,,有限会社,福井県,鯖江市,桜町２丁目２番１９号,,18,207,9160027,,,2023-09-20,清算の結了等,,,2015-10-05,1,,,,,タノジドウシャ,0
739,3250002007668,登記記録の閉鎖等,0,2023-09-25,2023-09-15,有限会社山口土地住宅,,有限会社,山口県,宇部市,床波２丁目２番１４号,,35,202,7550153,,,2023-09-15,清算の結了等,,,2015-10-05,1,,,,,ヤマグチトチジュウタク,0
753,3290001073063,登記記録の閉鎖等,0,2023-09-25,2023-09-11,株式会社ヨネクラ産業,,株式会社,福岡県,小郡市,赤川４０３番地,,40,216,8380135,,,2023-09-11,清算の結了等,,,2016-03-04,1,,,,,ヨネクラサンギョウ,0
773,3370001019710,登記記録の閉鎖等,0,2023-09-25,2023-09-14,株式会社ネッパス,,株式会社,宮城県,仙台市宮城野区,福室３丁目３７番２７号テイルオベロン２０１号室,,04,102,9830005,,,2023-09-14,清算の結了等,,,2015-10-05,1,,,,,ネッパス,0
785,3420001001365,登記記録の閉鎖等,0,2023-09-25,2023-09-15,株式会社中央測量設計社,,株式会社,青森県,青森市,大字大野字金沢３番地２９,,02,201,0300852,,,2023-09-15,清算の結了等,,,2015-10-05,1,,,,,チュウオウソクリョウセッケイシャ,0
797,3500005008142,登記記録の閉鎖等,0,2023-09-25,2023-09-21,一般社団法人ＧＯ縁塾,,その他の設立登記法人,愛媛県,松山市,朝生田町１丁目１５番１０号リューレント朝生田４１１号,,38,201,7900952,,,2023-09-21,清算の結了等,,,2020-01-24,1,,,,,ゴエンジュク,0
801,4010001144064,登記記録の閉鎖等,0,2023-09-25,2023-09-19,株式会社ワールドトラスト,,株式会社,東京都,千代田区,四番町４番地９,,13,101,1020081,,,2023-09-19,合併による解散等,1011401016351,令和５年９月１８日東京都千代田区四番町４番地９株式会社東京遊楽（1011401016351）に合併し解散,2015-10-05,1,,,,,ワールドトラスト,0
834,4010801020209,登記記録の閉鎖等,0,2023-09-25,2023-09-15,Ｔｏｎｙ　Ｐｏｍｍｅｌｌａ株式会社,,株式会社,東京都,大田区,千鳥１丁目２番２号,,13,111,1460083,,,2023-09-15,清算の結了等,,,2015-10-05,1,,,,,トニーポンメッラ,0
851,4011103010690,登記記録の閉鎖等,0,2023-09-25,2023-09-20,合同会社Ｏｌｉｖｅｉｒａ　Ｐｒｏｍｏｔｉｏｎｓ,,合同会社,東京都,新宿区,大京町１４番地大勝テラス１Ｆ,,13,104,1600015,,,2023-09-20,清算の結了等,,,2021-05-20,1,,,,,オリベイラプロモーションズ,0
857,4011801039809,登記記録の閉鎖等,0,2023-09-25,2023-09-19,株式会社バックブラシ,,株式会社,東京都,足立区,鹿浜４丁目２３番９号,,13,121,1230864,,,2023-09-19,清算の結了等,,,2021-10-12,1,,,,,バックブラシ,0
883,4020002081578,登記記録の閉鎖等,0,2023-09-25,2023-09-14,有限会社日水アクア,,有限会社,神奈川県,川崎市幸区,中幸町４丁目２６番地１,,14,132,2120012,,,2023-09-14,清算の結了等,,,2015-10-05,1,,,,,ニッスイアクア,0
908,4040002052750,登記記録の閉鎖等,0,2023-09-25,2023-09-07,有限会社郡司設計,,有限会社,千葉県,松戸市,馬橋２９３６番地,,12,207,2710051,,,2023-09-07,清算の結了等,,,2015-10-05,1,,,,,グンジセッケイ,0
928,4080002003824,登記記録の閉鎖等,0,2023-09-25,2023-09-22,有限会社中部パイピング,,有限会社,静岡県,静岡市葵区,上伝馬２０番２６号,,22,101,4200943,,,2023-09-22,清算の結了等,,,2015-10-05,1,,,,,,0
937,4110001017268,登記記録の閉鎖等,0,2023-09-25,2023-09-20,株式会社技研,,株式会社,新潟県,柏崎市,田塚３丁目１１番５５号,,15,205,9450032,,,2023-09-20,清算の結了等,,,2015-10-05,1,,,,,ギケン,0
959,4140001023123,登記記録の閉鎖等,0,2023-09-25,2023-09-19,あまがさき健康の森株式会社,,株式会社,兵庫県,神戸市兵庫区,和田崎町１丁目１番１号,,28,105,6520854,,,2023-09-19,清算の結了等,,,2015-10-05,1,,,,,アマガサキケンコウノモリ,0
960,4140001081179,登記記録の閉鎖等,0,2023-09-25,2023-09-19,株式会社アルマチュール研究所,,株式会社,兵庫県,川辺郡猪名川町,若葉２丁目１３４番地５０,,28,301,6660251,,,2023-09-19,清算の結了等,,,2015-10-05,1,,,,,アルマチュールケンキュウジョ,0
965,4140002047807,登記記録の閉鎖等,0,2023-09-25,2023-09-19,大塩屋工業有限会社,,有限会社,兵庫県,姫路市,白浜町乙３０８番地,,28,201,6728023,,,2023-09-19,清算の結了等,,,2015-10-05,1,,,,,オオシオヤコウギョウ,0
970,4160003000465,登記記録の閉鎖等,0,2023-09-25,2023-09-22,合同会社鹿深米販商店,,合同会社,滋賀県,甲賀市,甲賀町拝坂８３３番地１７,,25,209,5203436,,,2023-09-22,清算の結了等,,,2015-10-05,1,,,,,カフカベイハンショウテン,0
985,4180302012713,登記記録の閉鎖等,0,2023-09-25,2023-09-14,有限会社阿部鉄工所,,有限会社,愛知県,豊川市,萩町下林２５番地１,,23,207,4410201,,,2023-09-14,清算の結了等,,,2015-10-05,1,,,,,アベテッコウショ,0
990,4200001002616,登記記録の閉鎖等,0,2023-09-25,2023-09-20,株式会社昭和電機,,株式会社,岐阜県,岐阜市,昭和町１丁目１７番地,,21,201,5008865,,,2023-09-20,清算の結了等,,,2015-10-05,1,,,,,ショウワデンキ,0
1009,4290001091460,登記記録の閉鎖等,0,2023-09-25,2023-09-04,株式会社いぶし家本舗,,株式会社,福岡県,大野城市,牛頸４丁目１１番８号,,40,219,8160971,,,2023-09-04,清算の結了等,,,2021-01-04,1,,,,,イブシヤホンポ,0
1015,4290003006301,登記記録の閉鎖等,0,2023-09-25,2023-09-20,武蔵みかんソーラー合同会社,,合同会社,大分県,国東市,武蔵町糸原３９４２番地１,,44,214,8730421,,,2023-09-20,清算の結了等,,,2016-02-16,1,,,,,,0
1028,4340002011619,登記記録の閉鎖等,0,2023-09-25,2023-09-20,ソレイユサービス有限会社,,有限会社,鹿児島県,鹿児島市,卸本町１番,,46,201,8910123,,,2023-09-20,清算の結了等,,,2015-10-05,1,,,,,ソレイユサービス,0
1038,4400005002732,登記記録の閉鎖等,0,2023-09-25,2023-09-15,農事組合法人水堀地区ライスセンター利用組合,,その他の設立登記法人,岩手県,岩手郡岩手町,大字沼宮内第２１地割３３番地１３,,03,303,0284301,,,2023-09-15,清算の結了等,,,2015-10-05,1,,,,,ミズボリチクライスセンターリヨウクミアイ,0
1039,4420001015629,登記記録の閉鎖等,0,2023-09-25,2023-09-15,公盛テック株式会社,,株式会社,青森県,三沢市,中央町２丁目３番１３号,,02,207,0330001,,,2023-09-15,清算の結了等,,,2017-03-08,1,,,,,,0
1040,4420002011668,登記記録の閉鎖等,0,2023-09-25,2023-09-15,有限会社山形組,,有限会社,青森県,北津軽郡鶴田町,大字廻堰字上桂井２２番地５,,02,384,0383542,,,2023-09-15,清算の結了等,,,2015-10-05,1,,,,,ヤマガタグミ,0
1045,4480002011621,登記記録の閉鎖等,0,2023-09-25,2023-09-22,東條不動産有限会社,,有限会社,徳島県,板野郡藍住町,徳命字前須西１２９番地１,,36,403,7711212,,,2023-09-22,清算の結了等,,,2015-10-05,1,,,,,トウジョウフドウサン,0
1046,4490001000327,登記記録の閉鎖等,0,2023-09-25,2023-09-21,かもべダイイチ株式会社,,株式会社,高知県,高知市,鴨部１丁目２番１５号,,39,201,7808052,,,2023-09-21,清算の結了等,,,2015-10-05,1,,,,,カモベダイイチ,0
1053,5010001145945,登記記録の閉鎖等,0,2023-09-25,2023-09-15,株式会社企画２１世紀社,,株式会社,東京都,千代田区,二番町５番地２麹町駅プラザ９階,,13,101,1020084,,,2023-09-15,清算の結了等,,,2015-10-05,1,,,,,キカクニジュウイッセイキシャ,0
1060,5010101008449,登記記録の閉鎖等,0,2023-09-25,2023-09-19,株式会社ＨＥＡＶＥＮ－ＦＩＥＬＤ,,株式会社,東京都,八王子市,並木町５番１－４１９号,,13,201,1930831,,,2023-09-19,清算の結了等,,,2015-10-05,1,,,,,,0
1063,5010102006550,登記記録の閉鎖等,0,2023-09-25,2023-09-15,有限会社まるなかフード,,有限会社,東京都,八王子市,長房町１２９番地,,13,201,1930824,,,2023-09-15,清算の結了等,,,2015-10-05,1,,,,,マルナカフード,0
1071,5010501048350,登記記録の閉鎖等,0,2023-09-25,2023-09-19,久和株式会社,,株式会社,東京都,台東区,北上野２丁目２５番９号－２０６号室,,13,106,1100014,,,2023-09-19,清算の結了等,,,2022-01-26,1,,,,,キュウワ,0
1096,5011101082995,登記記録の閉鎖等,0,2023-09-25,2023-09-19,株式会社Ｄｏｕｂｌｅ　Ｈ　Ｊａｐａｎ,,株式会社,東京都,新宿区,余丁町１３番２３－３０６号室,,13,104,1620055,,,2023-09-19,清算の結了等,,,2018-01-26,1,,,,,ダブルエイチジャパン,0
1102,5011103011837,登記記録の閉鎖等,0,2023-09-25,2023-09-20,鴻巣プロパティーズ合同会社,,合同会社,東京都,新宿区,四谷２丁目９番地１５東京ユナイテッド綜合事務所内,,13,104,1600004,,,2023-09-20,清算の結了等,,,2022-06-10,1,,,,,コウノスプロパティーズ,0
1110,5011701015974,登記記録の閉鎖等,0,2023-09-25,2023-09-15,株式会社なでしこ,,株式会社,東京都,江戸川区,松江２丁目１番５号,,13,123,1320025,,,2023-09-15,清算の結了等,,,2015-10-05,1,,,,,ナデシコ,0
1130,5013402002780,登記記録の閉鎖等,0,2023-09-25,2023-09-21,有限会社原山総合研究所,,有限会社,東京都,多摩市,関戸１丁目１番地の５ザ・スクエアＢ－１４０８,,13,224,2060011,,,2023-09-21,清算の結了等,,,2015-10-05,1,,,,,ハラヤマソウゴウケンキュウジョ,0
1142,5030001082443,登記記録の閉鎖等,0,2023-09-25,2023-08-30,株式会社ハートフル,,株式会社,埼玉県,川口市,大字伊刈１１１２フレッシュロード２０９,,11,203,3330865,,,2023-08-30,清算の結了等,,,2015-10-05,1,,,,,ハートフル,0
1171,5080402015699,登記記録の閉鎖等,0,2023-09-25,2023-09-22,有限会社森重造園,,有限会社,静岡県,浜松市浜北区,中条７０３番地の１,,22,136,4340043,,,2023-09-22,清算の結了等,,,2015-10-05,1,,,,,モリシゲゾウエン,0
1179,5110001015527,登記記録の閉鎖等,0,2023-09-25,2023-09-21,株式会社足立建具店,,株式会社,新潟県,燕市,松橋１５９２番地,,15,213,9591202,,,2023-09-21,清算の結了等,,,2015-10-05,1,,,,,アダチタテグテン,0
1180,5110001022390,登記記録の閉鎖等,0,2023-09-25,2023-09-21,株式会社グッピー,,株式会社,新潟県,長岡市,城内町３丁目８番地１３,,15,202,9400061,,,2023-09-21,清算の結了等,,,2015-10-05,1,,,,,グッピー,0
1202,5120005009953,登記記録の閉鎖等,0,2023-09-25,2023-09-21,ＮＰＯ法人暴力防止情報スペース・ＡＰＩＳ,,その他の設立登記法人,大阪府,大阪市都島区,都島南通２丁目４番２１号,,27,102,5340023,,,2023-09-21,清算の結了等,,,2015-10-05,1,,,,,ボウリョクボウシジョウホウスペースアピス,0
1204,5120101030342,登記記録の閉鎖等,0,2023-09-25,2023-09-20,株式会社ティーアンドケー,,株式会社,大阪府,大阪狭山市,大野台２丁目６番２号,,27,231,5890023,,,2023-09-20,清算の結了等,,,2015-10-05,1,,,,,ティーアンドケー,0
1207,5122001006315,登記記録の閉鎖等,0,2023-09-25,2023-09-19,株式会社浜寺商運,,株式会社,大阪府,東大阪市,角田１丁目４番１１号,,27,227,5780912,,,2023-09-19,清算の結了等,,,2015-10-05,1,,,,,ハマデラショウウン,0
1230,5160001015126,登記記録の閉鎖等,0,2023-09-25,2023-09-22,株式会社シースリーク,,株式会社,滋賀県,彦根市,芹川町９６７番地１,,25,202,5220033,,,2023-09-22,清算の結了等,,,2015-10-05,1,,,,,シースリーク,0
1232,5160002000779,登記記録の閉鎖等,0,2023-09-25,2023-09-22,有限会社サンエイ薬局,,有限会社,滋賀県,大津市,中央３丁目５番９号西岡ビル１階２号室,,25,201,5200043,,,2023-09-22,清算の結了等,,,2015-10-05,1,,,,,サンエイヤッキョク,0
1241,5180002082048,登記記録の閉鎖等,0,2023-09-25,2023-09-20,津田サッシ工業有限会社,,有限会社,愛知県,江南市,勝佐町地光堂１５７番地,,23,217,4838037,,,2023-09-20,清算の結了等,,,2015-10-05,1,,,,,ツダサッシコウギョウ,0
1255,5200002008611,登記記録の閉鎖等,0,2023-09-25,2023-09-22,有限会社イーエム・テクノサイエンス,,有限会社,岐阜県,岐阜市,梅林１番地の１,,21,201,5008111,,,2023-09-22,清算の結了等,,,2015-10-05,1,,,,,イーエムテクノサイエンス,0
1290,5370002010501,登記記録の閉鎖等,0,2023-09-25,2023-09-14,ハウジングネット有限会社,,有限会社,宮城県,仙台市青葉区,柏木１丁目２番４０号,,04,101,9810933,,,2023-09-14,清算の結了等,,,2015-10-05,1,,,,,ハウジングネット,0
1291,5370005001547,登記記録の閉鎖等,0,2023-09-25,2023-09-13,宮城県喫茶飲食生活衛生同業組合,,その他の設立登記法人,宮城県,登米市,迫町佐沼字中江４丁目８番地７,,04,212,9870511,,,2023-09-13,清算の結了等,,,2015-10-05,1,,,,,ミヤギケンキッサインショクセイカツエイセイ,0
1304,5430002044344,登記記録の閉鎖等,0,2023-09-25,2023-09-07,三光重機土木有限会社,,有限会社,北海道,北広島市,大曲柏葉３丁目９番地１５,,01,234,0611273,,,2023-09-07,清算の結了等,,,2015-10-05,1,,,,,,0
1317,6010001148492,登記記録の閉鎖等,0,2023-09-25,2023-09-14,株式会社ブルーオーシャン,,株式会社,東京都,千代田区,飯田橋１丁目３番７号,,13,101,1020072,,,2023-09-14,清算の結了等,,,2015-10-05,1,,,,,ブルーオーシャン,0
1319,6010001220994,登記記録の閉鎖等,0,2023-09-25,2023-09-14,日本素和株式会社,,株式会社,東京都,中央区,日本橋蛎殻町１丁目３番５号共同ビル２階２３号,,13,102,1030014,,,2023-09-14,清算の結了等,,,2021-09-07,1,,,,,ニホンソワ,0
1359,6011003007307,登記記録の閉鎖等,0,2023-09-25,2023-09-19,合同会社ランコン,,合同会社,東京都,渋谷区,円山町６番７号渋谷アムフラット１階,,13,113,1500044,,,2023-09-19,清算の結了等,,,2016-12-15,1,,,,,ランコン,0
1367,6011402018524,登記記録の閉鎖等,0,2023-09-25,2023-09-20,有限会社ともに,,有限会社,東京都,板橋区,常盤台１丁目６５番７号いし本ビル１Ｆ,,13,119,1740071,,,2023-09-20,清算の結了等,,,2015-10-05,1,,,,,トモニ,0
1387,6020001068491,登記記録の閉鎖等,0,2023-09-25,2023-09-14,北部丸幸株式会社,,株式会社,神奈川県,川崎市宮前区,水沢１丁目１番１号,,14,136,2160012,,,2023-09-14,清算の結了等,,,2015-10-05,1,,,,,ホクブマルコウ,0
1402,6030001124343,登記記録の閉鎖等,0,2023-09-25,2023-09-19,愛其株式会社,,株式会社,東京都,台東区,松が谷２丁目１５番８号４Ｆ,,13,106,1110036,,,2023-09-19,清算の結了等,,,2018-02-20,1,,,,,アイキ,0
1414,6040002000872,登記記録の閉鎖等,0,2023-09-25,2023-09-07,有限会社石井建材,,有限会社,千葉県,千葉市若葉区,源町１８４番地の２,,12,104,2640037,,,2023-09-07,清算の結了等,,,2015-10-05,1,,,,,イシイケンザイ,0
1415,6040002044382,登記記録の閉鎖等,0,2023-09-25,2023-09-06,有限会社稲垣モータース,,有限会社,千葉県,松戸市,五香４丁目１９番地の３７,,12,207,2702213,,,2023-09-06,清算の結了等,,,2015-10-05,1,,,,,イナガキモータース,0
1417,6040002075444,登記記録の閉鎖等,0,2023-09-25,2023-09-07,有限会社安川建材,,有限会社,千葉県,市原市,小田部７４７番地１０,,12,219,2900176,,,2023-09-07,清算の結了等,,,2015-10-05,1,,,,,ヤスカワケンザイ,0
1431,6080402013925,登記記録の閉鎖等,0,2023-09-25,2023-09-22,有限会社オフィスＭＯＭＯ,,有限会社,静岡県,浜松市東区,笠井新田町６６番地,,22,132,4313105,,,2023-09-22,清算の結了等,,,2015-10-05,1,,,,,オフィスモモ,0
1434,6090002004126,登記記録の閉鎖等,0,2023-09-25,2023-09-21,有限会社羽中田園芸生花,,有限会社,山梨県,甲斐市,中下条１３５９番地,,19,210,4000124,,,2023-09-21,清算の結了等,,,2015-10-05,1,,,,,,0
1441,6110002012175,登記記録の閉鎖等,0,2023-09-25,2023-09-21,有限会社日本酒研究所,,有限会社,新潟県,新潟市中央区,関屋本村町２丁目３０５番地,,15,103,9518162,,,2023-09-21,清算の結了等,,,2015-10-05,1,,,,,ニホンシュケンキュウジョ,0
1442,6110002017455,登記記録の閉鎖等,0,2023-09-25,2023-09-21,有限会社新飯田屋,,有限会社,新潟県,三条市,東裏館３丁目１番１６号,,15,204,9550081,,,2023-09-21,清算の結了等,,,2015-10-05,1,,,,,ニイダヤ,0
1443,6120001069133,登記記録の閉鎖等,0,2023-09-25,2023-09-12,パル教育システム株式会社,,株式会社,大阪府,大阪市北区,天満１丁目７番１２号,,27,127,5300043,,,2023-09-12,清算の結了等,,,2015-10-05,1,,,,,パルキョウイクシステム,0
1460,6120102016538,登記記録の閉鎖等,0,2023-09-25,2023-09-15,有限会社ミツ輪,,有限会社,大阪府,大阪市住之江区,平林南１丁目５番１５号,,27,125,5590025,,,2023-09-15,合併による解散等,1120101024216,令和５年９月１５日大阪市住之江区平林南一丁目５番１５号株式会社オオトモ（1120101024216）に合併し解散,2015-10-05,1,,,,,ミツワ,0
1461,6120902016191,登記記録の閉鎖等,0,2023-09-25,2023-09-14,有限会社黒沢表具店,,有限会社,大阪府,池田市,荘園１丁目１番２４号,,27,204,5630038,,,2023-09-14,清算の結了等,,,2015-10-05,1,,,,,クロサワヒョウグテン,0
1464,6140001000161,登記記録の閉鎖等,0,2023-09-25,2023-09-19,株式会社インターパーツ,,株式会社,兵庫県,芦屋市,津知町１１番３－２０２号,,28,206,6590075,,,2023-09-19,清算の結了等,,,2015-10-05,1,,,,,インターパーツ,0
1476,6180001018448,登記記録の閉鎖等,0,2023-09-25,2023-09-20,明雄興業株式会社,,株式会社,愛知県,名古屋市千種区,御影町２丁目２４番地の１,,23,101,4640014,,,2023-09-20,清算の結了等,,,2015-10-05,1,,,,,メイユウコウギョウ,0
1477,6180001073212,登記記録の閉鎖等,0,2023-09-25,2023-09-19,株式会社片岡企画,,株式会社,愛知県,名古屋市東区,矢田南２丁目６番１５－４０５号,,23,102,4610048,,,2023-09-19,清算の結了等,,,2015-10-05,1,,,,,カタオカキカク,0
1486,6180003023215,登記記録の閉鎖等,0,2023-09-25,2023-09-19,合同会社モンテベルーナ,,合同会社,愛知県,名古屋市千種区,本山町４丁目２８番地,,23,101,4640036,,,2023-09-19,清算の結了等,,,2021-11-18,1,,,,,モンテベルーナ,0
1487,6180005002679,登記記録の閉鎖等,0,2023-09-25,2023-09-21,医療法人三橋会,,その他の設立登記法人,愛知県,名古屋市中川区,富田町大字千音寺字三角２４３番地,,23,110,4540971,,,2023-09-21,清算の結了等,,,2015-10-05,1,,,,,ミツハシカイ,0
1492,6180302020177,登記記録の閉鎖等,0,2023-09-25,2023-09-20,有限会社服部酒店,,有限会社,愛知県,碧南市,鷲塚町５丁目４８番地,,23,209,4470808,,,2023-09-20,清算の結了等,,,2015-10-05,1,,,,,ハットリサケテン,0
1499,6230002013525,登記記録の閉鎖等,0,2023-09-25,2023-09-22,有限会社ハウジング工房,,有限会社,富山県,高岡市,江尻３２５番地３,,16,202,9330062,,,2023-09-22,清算の結了等,,,2015-10-05,1,,,,,ハウジングコウボウ,0
1502,6240002021007,登記記録の閉鎖等,0,2023-09-25,2023-09-21,有限会社三誠,,有限会社,広島県,広島市安芸区,船越５丁目２１番１４号,,34,107,7360081,,,2023-09-21,清算の結了等,,,2015-10-05,1,,,,,サンセイ,0
1507,6260005002407,登記記録の閉鎖等,0,2023-09-25,2023-09-22,瀬戸内物流協同組合,,その他の設立登記法人,岡山県,岡山市南区,浦安南町５５３番地２,,33,104,7028024,,,2023-09-22,清算の結了等,,,2015-10-05,1,,,,,セトウチブツリュウ,0
1509,6290001011565,登記記録の閉鎖等,0,2023-09-25,2023-09-12,市川地下工業株式会社,,株式会社,福岡県,福岡市博多区,竹下１丁目１５番３６号,,40,132,8120895,,,2023-09-12,清算の結了等,,,2015-10-05,1,,,,,イチカワチカコウギョウ,0
1543,6430002042776,登記記録の閉鎖等,0,2023-09-25,2023-09-08,有限会社日東自動車,,有限会社,北海道,札幌市白石区,北郷四条１２丁目２０番３号,,01,104,0030834,,,2023-09-08,清算の結了等,,,2015-10-05,1,,,,,ニットウジドウシャ,0
1545,6430002051653,登記記録の閉鎖等,0,2023-09-25,2023-09-05,有限会社味のアカザワ,,有限会社,北海道,滝川市,本町１丁目１番１０号,,01,225,0730021,,,2023-09-05,清算の結了等,,,2015-10-05,1,,,,,アジノアカザワ,0
1547,6450002003529,登記記録の閉鎖等,0,2023-09-25,2023-09-22,有限会社多田鉄筋工業,,有限会社,北海道,旭川市,永山四条８丁目１番３４号,,01,204,0798414,,,2023-09-22,清算の結了等,,,2015-10-05,1,,,,,タダテッキンコウギョウ,0
1580,7010401151434,登記記録の閉鎖等,0,2023-09-25,2023-09-01,メディカルイノベーションシステム株式会社,,株式会社,東京都,港区,港南２丁目１６番１号,,13,103,1080075,,,2023-09-01,合併による解散等,8010401090235,令和５年９月１日東京都港区港南二丁目１６番１号株式会社アペックス・インターナショナル東京（8010401090235）に合併し解散,2020-03-05,1,,,,,メディカルイノベーションシステム,0
1581,7010401157118,登記記録の閉鎖等,0,2023-09-25,2023-09-01,株式会社村屋,,株式会社,東京都,港区,三田５丁目１４番２号,,13,103,1080073,,,2023-09-01,清算の結了等,,,2020-12-14,1,,,,,ムラヤ,0
1591,7010602014927,登記記録の閉鎖等,0,2023-09-25,2023-09-15,有限会社ホクセイ電機工業,,有限会社,東京都,墨田区,江東橋１丁目１０番５号,,13,107,1300022,,,2023-09-15,清算の結了等,,,2015-10-05,1,,,,,ホクセイデンキコウギョウ,0
1596,7010702011667,登記記録の閉鎖等,0,2023-09-25,2023-09-21,有限会社リフレッシュ,,有限会社,東京都,品川区,東五反田１丁目１１番１７号,,13,109,1410022,,,2023-09-21,合併による解散等,5010401000964,令和５年９月１日東京都港区白金一丁目２８番１７号アール・イー・エス株式会社（5010401000964）に合併し解散,2015-10-05,1,,,,,リフレッシュ,0
1600,7011001119697,登記記録の閉鎖等,0,2023-09-25,2023-09-19,株式会社ここはぐ,,株式会社,東京都,渋谷区,恵比寿４丁目２０番地３号恵比寿ガーデンプレイス２７階,,13,113,1500013,,,2023-09-19,清算の結了等,,,2017-12-13,1,,,,,ココハグ,0
1623,7011802005542,登記記録の閉鎖等,0,2023-09-25,2023-09-20,床井商事有限会社,,有限会社,東京都,葛飾区,高砂２丁目３９番２号,,13,122,1250054,,,2023-09-20,清算の結了等,,,2015-10-05,1,,,,,トコイショウジ,0
1643,7020003011036,登記記録の閉鎖等,0,2023-09-25,2023-09-13,タトロネット合同会社,,合同会社,神奈川県,横浜市栄区,飯島町１５２０番地２,,14,115,2440842,,,2023-09-13,清算の結了等,,,2016-03-08,1,,,,,タトロネット,0
1645,7020005008617,登記記録の閉鎖等,0,2023-09-25,2023-09-14,特定非営利活動法人防災・防犯ネットワーク,,その他の設立登記法人,神奈川県,川崎市高津区,二子５丁目１８番１号,,14,134,2130002,,,2023-09-14,清算の結了等,,,2015-10-05,1,,,,,ボウサイボウハンネットワーク,0
1657,7030002092233,登記記録の閉鎖等,0,2023-09-25,2023-08-29,有限会社カンダ,,有限会社,埼玉県,坂戸市,大字小沼８６９番地１,,11,239,3500202,,,2023-08-29,清算の結了等,,,2015-10-05,1,,,,,カンダ,0
1660,7030003013031,登記記録の閉鎖等,0,2023-09-25,2023-09-15,ＥＱラボ合同会社,,合同会社,東京都,千代田区,麹町４丁目５－２０ＫＳビル８階,,13,101,1020083,,,2023-09-15,清算の結了等,,,2019-02-05,1,,,,,イーキューラボ,0
1664,7030005016932,登記記録の閉鎖等,0,2023-09-25,2023-08-28,一般社団法人オリーブの会,,その他の設立登記法人,埼玉県,さいたま市緑区,大字三室１４３１番地,,11,109,3360911,,,2023-08-28,清算の結了等,,,2015-10-05,1,,,,,オリーブノカイ,0
1670,7040002040307,登記記録の閉鎖等,0,2023-09-25,2023-09-07,有限会社石信産業,,有限会社,千葉県,浦安市,堀江５丁目２番３８号,,12,227,2790041,,,2023-09-07,清算の結了等,,,2015-10-05,1,,,,,イシノブサンギョウ,0
1677,7070002030494,登記記録の閉鎖等,0,2023-09-25,2023-09-20,有限会社ハセイ薬局,,有限会社,群馬県,太田市,矢場新町１４９番地５,,10,205,3730802,,,2023-09-20,清算の結了等,,,2015-10-05,1,,,,,ハセイヤッキョク,0
1691,7110002007959,登記記録の閉鎖等,0,2023-09-25,2023-09-20,有限会社岩崎仏壇店,,有限会社,新潟県,新潟市江南区,亀田向陽１丁目１番１８号,,15,104,9500121,,,2023-09-20,清算の結了等,,,2015-10-05,1,,,,,イワサキブツダンテン,0
1710,7130002005597,登記記録の閉鎖等,0,2023-09-25,2023-09-08,有限会社袖岡工務店,,有限会社,京都府,京都市左京区,岩倉南桑原町２４番地,,26,103,6060031,,,2023-09-08,清算の結了等,,,2015-10-05,1,,,,,ソデオカコウムテン,0
1716,7140002069245,登記記録の閉鎖等,0,2023-09-25,2023-09-19,有限会社尾崎絵画教室,,有限会社,兵庫県,淡路市,生穂１７３１番地,,28,226,6562223,,,2023-09-19,清算の結了等,,,2015-10-05,1,,,,,オザキカイガキョウシツ,0
1727,7180002034682,登記記録の閉鎖等,0,2023-09-25,2023-09-19,有限会社トモ・データファイリング,,有限会社,愛知県,名古屋市瑞穂区,初日町１丁目２４番地の２パルシオ山崎川１０２号,,23,108,4670028,,,2023-09-19,清算の結了等,,,2015-10-05,1,,,,,トモデータファイリング,0
1731,7200003000722,登記記録の閉鎖等,0,2023-09-25,2023-09-21,合資会社松井政治郎商店,,合資会社,岐阜県,岐阜市,茜部中島２丁目４７番地,,21,201,5008269,,,2023-09-21,清算の結了等,,,2015-10-05,1,,,,,マツイマサジロウショウテン,0
1779,7370001023270,登記記録の閉鎖等,0,2023-09-25,2023-09-15,鈴木電設株式会社,,株式会社,宮城県,仙台市若林区,新寺３丁目１番４３号,,04,103,9840051,,,2023-09-15,清算の結了等,,,2015-10-05,1,,,,,スズキデンセツ,0
1784,7400602000763,登記記録の閉鎖等,0,2023-09-25,2023-09-14,有限会社ヤマセ工業,,有限会社,岩手県,奥州市,胆沢小山字森４３番地１９,,03,215,0230402,,,2023-09-14,清算の結了等,,,2015-10-05,1,,,,,ヤマセコウギョウ,0
1786,7420002007275,登記記録の閉鎖等,0,2023-09-25,2023-09-19,有限会社シライシ・インターテックス,,有限会社,青森県,八戸市,大字豊崎町字下七崎２９番地１３,,02,203,0391109,,,2023-09-19,清算の結了等,,,2015-10-05,1,,,,,シライシインターテックス,0
1791,7460001005152,登記記録の閉鎖等,0,2023-09-25,2023-09-21,株式会社運転代行ＹＯＵ,,株式会社,北海道,釧路市,芦野３丁目３４番２４６号,00110243,01,206,0850061,,,2023-09-21,清算の結了等,,,2017-05-19,1,,,,,ウンテンダイコウユー,0
1792,7490001009191,登記記録の閉鎖等,0,2023-09-25,2023-09-22,株式会社橋田クリーンエネルギー,,株式会社,高知県,高知市,中宝永町５番１８号,,39,201,7800817,,,2023-09-22,清算の結了等,,,2019-02-19,1,,,,,ハシダクリーンエネルギー,0
1811,8010101000659,登記記録の閉鎖等,0,2023-09-25,2023-09-20,株式会社大久保商店,,株式会社,東京都,八王子市,宮下町５２０番地の１,,13,201,1920005,,,2023-09-20,清算の結了等,,,2015-10-05,1,,,,,,0
1835,8010701037670,登記記録の閉鎖等,0,2023-09-25,2023-09-20,志茂アセットマネジメント株式会社,,株式会社,東京都,品川区,東五反田１丁目１０番１１号,,13,109,1410022,,,2023-09-20,清算の結了等,,,2019-06-04,1,,,,,シモアセットマネジメント,0
1838,8010901053187,登記記録の閉鎖等,0,2023-09-25,2023-09-05,ＴＡＬＯ　ｊａ　ｄｅｓｉｇｎ株式会社,,株式会社,東京都,世田谷区,三軒茶屋１丁目４０番３－２０１号,,13,112,1540024,,,2023-09-05,清算の結了等,,,2023-06-07,1,,,,,タロジャデザイン,0
1867,8011802001499,登記記録の閉鎖等,0,2023-09-25,2023-09-20,有限会社大山建設,,有限会社,東京都,葛飾区,堀切７丁目１２番３号,,13,122,1240006,,,2023-09-20,清算の結了等,,,2015-10-05,1,,,,,オオヤマケンセツ,0
1890,8021005001247,登記記録の閉鎖等,0,2023-09-25,2023-09-15,特定非営利活動法人つぁく,,その他の設立登記法人,神奈川県,藤沢市,鵠沼海岸５丁目１番３１号Ｂ,,14,205,2510037,,,2023-09-15,清算の結了等,,,2015-10-05,1,,,,,ツァク,0
1891,8030001020193,登記記録の閉鎖等,0,2023-09-25,2023-08-25,株式会社熊木節三商店,,株式会社,埼玉県,戸田市,新曽南２丁目１０番２３号,,11,224,3350026,,,2023-08-25,清算の結了等,,,2015-10-05,1,,,,,クマキセツゾウショウテン,0
1892,8030001046313,登記記録の閉鎖等,0,2023-09-25,2023-08-30,株式会社ユニック,,株式会社,埼玉県,新座市,野火止２丁目７番１６号,,11,230,3520011,,,2023-08-30,清算の結了等,,,2015-10-05,1,,,,,ユニック,0
1906,8030005019208,登記記録の閉鎖等,0,2023-09-25,2023-08-31,一般社団法人在日ベトナム人協会,,その他の設立登記法人,埼玉県,川口市,川口２丁目２番３号,,11,203,3320015,,,2023-08-31,清算の結了等,,,2018-10-31,1,,,,,ザイニチベトナムジンキョウカイ,0
1909,8040001111405,登記記録の閉鎖等,0,2023-09-25,2023-09-07,株式会社ＴＡＩＳＯＮ,,株式会社,千葉県,船橋市,本中山６丁目９番１２－５０２号,,12,204,2730035,,,2023-09-07,清算の結了等,,,2019-11-11,1,,,,,タイソン,0
1916,8040003002429,登記記録の閉鎖等,0,2023-09-25,2023-09-07,合資会社石田紅茶,,合資会社,千葉県,八街市,上砂４５２番地５８,,12,230,2891125,,,2023-09-07,清算の結了等,,,2015-10-05,1,,,,,イシダコウチャ,0
1935,8090002004090,登記記録の閉鎖等,0,2023-09-25,2023-09-22,有限会社敷島糧穀,,有限会社,山梨県,甲斐市,大下条１０７５番地,,19,210,4000126,,,2023-09-22,清算の結了等,,,2015-10-05,1,,,,,シキシマリョウコク,0
1943,8120001238917,登記記録の閉鎖等,0,2023-09-25,2023-09-21,株式会社Ａｐｏｔｅｃｈ,,株式会社,兵庫県,加古郡稲美町,蛸草３２３番地の１,00130777,28,381,6751116,,,2023-09-21,清算の結了等,,,2021-07-08,1,,,,,アポテック,0
1990,8180305004035,登記記録の閉鎖等,0,2023-09-25,2023-09-13,蒲郡炊事協同組合,,その他の設立登記法人,愛知県,蒲郡市,丸山町６番２７号,,23,214,4430032,,,2023-09-13,清算の結了等,,,2015-10-05,1,,,,,ガマゴオリスイジ,0
1991,8190001012869,登記記録の閉鎖等,0,2023-09-25,2023-09-21,株式会社アルゴ,,株式会社,三重県,員弁郡東員町,城山１丁目３４番の１,,24,324,5110233,,,2023-09-21,清算の結了等,,,2015-10-05,1,,,,,アルゴ,0
1994,8190003002843,登記記録の閉鎖等,0,2023-09-25,2023-09-19,ＡＯ　ＤＡＩ合同会社,,合同会社,三重県,桑名市,大字福島字矢田野９５４番地３,,24,205,5110002,,,2023-09-19,清算の結了等,,,2018-01-19,1,,,,,アオダイ,0
1998,8200002017097,登記記録の閉鎖等,0,2023-09-25,2023-09-20,有限会社曽我組,,有限会社,岐阜県,可児市,土田４２６７番地の２５,,21,214,5090206,,,2023-09-20,清算の結了等,,,2015-10-05,1,,,,,ソガグミ,0
2007,8240002010494,登記記録の閉鎖等,0,2023-09-25,2023-09-19,中国造林有限会社,,有限会社,広島県,広島市佐伯区,藤垂園５番１号,,34,108,7315131,,,2023-09-19,清算の結了等,,,2015-10-05,1,,,,,チュウゴクゾウリン,0
2022,8300001004945,登記記録の閉鎖等,0,2023-09-25,2023-09-20,株式会社谷川仏具,,株式会社,佐賀県,鹿島市,大字重ノ木甲３４３番地３,,41,207,8491313,,,2023-09-20,清算の結了等,,,2015-10-05,1,,,,,タニカワブツグ,0
2047,8390002006437,登記記録の閉鎖等,0,2023-09-25,2023-09-20,有限会社マルミ,,有限会社,山形県,東村山郡中山町,大字長崎８０７番地３,,06,302,9900401,,,2023-09-20,清算の結了等,,,2015-10-05,1,,,,,マルミ,0
2061,8470001019472,登記記録の閉鎖等,0,2023-09-25,2023-09-20,株式会社タキモト食品,,株式会社,香川県,三豊市,豊中町下高野１５８７番地,,37,208,7691508,,,2023-09-20,清算の結了等,,,2023-02-17,1,,,,,タキモトショクヒン,0
2067,8500002004610,登記記録の閉鎖等,0,2023-09-25,2023-09-15,デンタルバンガード有限会社,,有限会社,愛媛県,松山市,平井町甲３１５７番地３,,38,201,7910243,,,2023-09-15,清算の結了等,,,2015-10-05,1,,,,,デンタルバンガード,0
2087,9010601002237,登記記録の閉鎖等,0,2023-09-25,2023-09-19,株式会社コンパス,,株式会社,東京都,江東区,南砂１丁目３番１－４０４号,,13,108,1360076,,,2023-09-19,清算の結了等,,,2015-10-05,1,,,,,コンパス,0
2094,9010705002208,登記記録の閉鎖等,0,2023-09-25,2023-09-20,一般社団法人日本ＭＢＡケース大会,,その他の設立登記法人,東京都,品川区,北品川１丁目９番７号,,13,109,1400001,,,2023-09-20,清算の結了等,,,2015-10-05,1,,,,,ニホンエムビーエーケースタイカイ,0
2097,9010802007019,登記記録の閉鎖等,0,2023-09-25,2023-09-20,有限会社新保木型製作所,,有限会社,東京都,大田区,羽田３丁目２４番１５号,,13,111,1440043,,,2023-09-20,清算の結了等,,,2015-10-05,1,,,,,シンボキガタセイサクショ,0
2100,9010902017025,登記記録の閉鎖等,0,2023-09-25,2023-09-19,有限会社エヌ・ワイ・マーケテイング,,有限会社,東京都,世田谷区,下馬６丁目３５番１０号,,13,112,1540002,,,2023-09-19,清算の結了等,,,2015-10-05,1,,,,,,0
2120,9011303004281,登記記録の閉鎖等,0,2023-09-25,2023-09-19,合同会社ＯＰＴＥＣ,,合同会社,東京都,杉並区,高円寺南３丁目３６－８－Ａ２０５,,13,115,1660003,,,2023-09-19,清算の結了等,,,2022-01-18,1,,,,,オプテック,0
2125,9011501004488,登記記録の閉鎖等,0,2023-09-25,2023-09-13,三熊木材株式会社,,株式会社,東京都,北区,滝野川７丁目４８番１６号,,13,117,1140023,,,2023-09-13,清算の結了等,,,2015-10-05,1,,,,,ミクマモクザイ,0
2134,9011801034854,登記記録の閉鎖等,0,2023-09-25,2023-09-15,アイ・エージェンシー株式会社,,株式会社,東京都,千代田区,神田平河町１番地第３東ビル５Ｆ,,13,101,1010027,,,2023-09-15,清算の結了等,,,2018-06-15,1,,,,,アイエージェンシー,0
2146,9020001100268,登記記録の閉鎖等,0,2023-09-25,2023-09-13,クイーンアンハウス株式会社,,株式会社,神奈川県,横浜市神奈川区,西神奈川１丁目１７番５号,,14,102,2210822,,,2023-09-13,清算の結了等,,,2015-10-05,1,,,,,クイーンアンハウス,0
2150,9020002009087,登記記録の閉鎖等,0,2023-09-25,2023-09-14,有限会社山田軽合金鋳造所,,有限会社,神奈川県,横浜市金沢区,福浦１丁目３番地の１８,,14,108,2360004,,,2023-09-14,清算の結了等,,,2015-10-05,1,,,,,ヤマダケイゴウキンチュウゾウショ,0
2153,9020002030522,登記記録の閉鎖等,0,2023-09-25,2023-09-14,有限会社タイムリーサービス,,有限会社,神奈川県,横浜市南区,大岡３丁目９番３５号,,14,105,2320061,,,2023-09-14,清算の結了等,,,2015-10-05,1,,,,,タイムリーサービス,0
2154,9020002090228,登記記録の閉鎖等,0,2023-09-25,2023-09-14,有限会社プロパティーたなべ,,有限会社,神奈川県,川崎市宮前区,宮崎１丁目１１番地１５,,14,136,2160033,,,2023-09-14,清算の結了等,,,2015-10-05,1,,,,,プロパティータナベ,0
2156,9021001018681,登記記録の閉鎖等,0,2023-09-25,2023-09-14,株式会社アクティブライフ,,株式会社,神奈川県,横浜市緑区,台村町３０９番地１－３０５号室,,14,113,2260014,,,2023-09-14,清算の結了等,,,2015-10-05,1,,,,,アクティブライフ,0
2159,9030001042591,登記記録の閉鎖等,0,2023-09-25,2023-08-30,株式会社ラクショー,,株式会社,埼玉県,桶川市,下日出谷西３丁目１５番地の２０,,11,231,3630028,,,2023-08-30,清算の結了等,,,2015-10-05,1,,,,,ラクショー,0
2191,9070005008940,登記記録の閉鎖等,0,2023-09-25,2023-09-20,特定非営利活動法人北毛高齢期を考える会,,その他の設立登記法人,群馬県,渋川市,有馬２３７番地１,,10,208,3770005,,,2023-09-20,清算の結了等,,,2015-10-05,1,,,,,ホクモウコウレイキヲカンガエルカイ,0
2192,9080001010767,登記記録の閉鎖等,0,2023-09-25,2023-09-20,株式会社ヤマモトマシン,,株式会社,静岡県,静岡市清水区,辻３丁目１番３３号,00067310,22,103,4240806,,,2023-09-20,清算の結了等,,,2015-10-05,1,,,,,ヤマモトマシン,0
2208,9110001017593,登記記録の閉鎖等,0,2023-09-25,2023-09-20,株式会社マツウラ,,株式会社,新潟県,柏崎市,東本町１丁目１１番３９号,,15,205,9450051,,,2023-09-20,清算の結了等,,,2015-10-05,1,,,,,マツウラ,0
2210,9120001111809,登記記録の閉鎖等,0,2023-09-25,2023-09-12,スリーエムハウスリフォーム株式会社,,株式会社,大阪府,大阪市天王寺区,城南寺町８番２２号,,27,109,5430017,,,2023-09-12,清算の結了等,,,2015-10-05,1,,,,,スリーエムハウスリフォーム,0
2224,9120005015048,登記記録の閉鎖等,0,2023-09-25,2023-09-20,特定非営利活動法人関西技術経営コンサルタンツ,,その他の設立登記法人,大阪府,大阪市北区,西天満５丁目１－１５西天満パークビル２号館２階,,27,127,5300047,,,2023-09-20,清算の結了等,,,2015-10-05,1,,,,,カンサイギジュツケイエイコンサルタンツ,0
2235,9130001067166,登記記録の閉鎖等,0,2023-09-25,2023-09-22,株式会社尾崎商店,,株式会社,滋賀県,大津市,北比良１０３９－１１５,,25,201,5200503,,,2023-09-22,清算の結了等,,,2020-07-02,1,,,,,オザキショウテン,0
2237,9140001068015,登記記録の閉鎖等,0,2023-09-25,2023-09-19,株式会社ウオール・デコ,,株式会社,兵庫県,西宮市,樋之池町２番１５号,,28,204,6620084,,,2023-09-19,清算の結了等,,,2015-10-05,1,,,,,ウオールデコ,0
2248,9150002005313,登記記録の閉鎖等,0,2023-09-25,2023-09-21,有限会社山田酒店,,有限会社,奈良県,大和郡山市,美濃庄町７２４番地,,29,203,6391103,,,2023-09-21,清算の結了等,,,2015-10-05,1,,,,,,0
2249,9180001025846,登記記録の閉鎖等,0,2023-09-25,2023-09-20,株式会社鈴木至誠堂,,株式会社,愛知県,名古屋市西区,花の木２丁目１９番２５号,,23,104,4510062,,,2023-09-20,清算の結了等,,,2015-10-05,1,,,,,スズキシセイドウ,0
2251,9180001109442,登記記録の閉鎖等,0,2023-09-25,2023-09-19,株式会社ＩＯカンパニー,,株式会社,愛知県,名古屋市千種区,千種３丁目１９番７号,,23,101,4640858,,,2023-09-19,清算の結了等,,,2015-10-05,1,,,,,,0
2258,9180002077969,登記記録の閉鎖等,0,2023-09-25,2023-09-21,有限会社ラデック,,有限会社,愛知県,一宮市,今伊勢町本神戸字宮山４番地,,23,203,4910053,,,2023-09-21,清算の結了等,,,2015-10-05,1,,,,,ラデック,0
2268,9230002012978,登記記録の閉鎖等,0,2023-09-25,2023-09-21,有限会社タチ配管,,有限会社,富山県,氷見市,地蔵町９番４９号,,16,205,9350014,,,2023-09-21,清算の結了等,,,2015-10-05,1,,,,,タチハイカン,0
2273,9250001011368,登記記録の閉鎖等,0,2023-09-25,2023-09-07,株式会社佐川塗料商会,,株式会社,山口県,岩国市,山手町４丁目３番６号,,35,208,7400022,,,2023-09-07,清算の結了等,,,2015-10-05,1,,,,,サガワトリョウショウカイ,0
2284,9290002043596,登記記録の閉鎖等,0,2023-09-25,2023-09-11,新聞センター有限会社,,有限会社,福岡県,朝倉市,甘木１８４７番地の１恵比須ビル,,40,228,8380068,,,2023-09-11,清算の結了等,,,2015-10-05,1,,,,,シンブンセンター,0
2294,9350002015093,登記記録の閉鎖等,0,2023-09-25,2023-09-19,有限会社Ｄネット,,有限会社,兵庫県,姫路市,古二階町１０３番地,,28,201,6700936,,,2023-09-19,清算の結了等,,,2015-10-05,1,,,,,ディーネット,0
2311,9400005005111,登記記録の閉鎖等,0,2023-09-25,2023-09-15,特定非営利活動法人はまゆり,,その他の設立登記法人,岩手県,盛岡市,上堂３丁目１９番３４号,,03,201,0200125,,,2023-09-15,清算の結了等,,,2015-10-05,1,,,,,ハマユリ,0
2329,9490003000568,登記記録の閉鎖等,0,2023-09-25,2023-09-21,合同会社ハウス・マニー,,合同会社,高知県,高知市,河ノ瀬町１１２番地８,,39,201,7808035,,,2023-09-21,清算の結了等,,,2015-10-05,1,,,,,ハウスマニー,0
