sequenceNumber,corporateNumber,process,correct,updateDate,changeDate,name,nameImageId,kind,prefectureName,cityName,streetNumber,addressImageId,prefectureCode,cityCode,postCode,addressOutside,addressOutsideImageId,closeDate,closeCause,successorCorporateNumber,changeCause,assignmentDate,latest,enName,enPrefectureName,enCityName,enAddressOutside,furigana,hihyoji
13,1010001242275,新規,0,2024-02-26,2024-02-26,株式会社小学館ＬＸ,,株式会社,東京都,文京区,小石川２丁目３番２３号,,13,105,1120002,,,,,,,2024-02-26,1,,,,,ショウガクカンエルエックス,0
14,1010001242399,新規,0,2024-02-26,2024-02-26,Ｆｏｖｅａ　ＩＰ　Ｊａｐａｎ株式会社,,株式会社,東京都,千代田区,丸の内１丁目１１番１号パシフィックセンチュリープレイス丸の内８階,,13,101,1000005,,,,,,,2024-02-26,1,,,,,フォウヴィアアイピージャパン,0
15,1010001242515,新規,0,2024-02-26,2024-02-26,株式会社ＵＯＮ,,株式会社,東京都,中央区,日本橋富沢町３番１－３０５号,,13,102,1030006,,,,,,,2024-02-26,1,,,,,ウオン,0
16,1010001242523,新規,0,2024-02-26,2024-02-26,株式会社サードウェーブ・フィナンシャル,,株式会社,東京都,千代田区,外神田３丁目１２番８号,,13,101,1010021,,,,,,,2024-02-26,1,,,,,サードウェーブフィナンシャル,0
26,1010401180505,新規,0,2024-02-26,2024-02-26,株式会社ＳＫ‐１,,株式会社,東京都,港区,東新橋１丁目９番２号汐留住友ビル１６階,,13,103,1050021,,,,,,,2024-02-26,1,,,,,エスケーワン,0
27,1010401180604,新規,0,2024-02-26,2024-02-26,株式会社ＺＣホールディングス,,株式会社,東京都,港区,赤坂６丁目１６番１１号浜ビル２階Ａ号室,,13,103,1070052,,,,,,,2024-02-26,1,,,,,ゼットシーホールディングス,0
28,1010401180661,新規,0,2024-02-26,2024-02-26,株式会社ＭＹＵＭＹＵ,,株式会社,東京都,港区,北青山２丁目７番１３号プラセオ青山ビル３階,,13,103,1070061,,,,,,,2024-02-26,1,,,,,ミュウミュウ,0
29,1010403032051,新規,0,2024-02-26,2024-02-26,ｒｅｓｉｌｉｅｎｃｅ合同会社,,合同会社,東京都,港区,高輪２丁目１―６２、１Ａ,,13,103,1080074,,,,,,,2024-02-26,1,,,,,レジリエンス,0
31,1010501051837,新規,0,2024-02-26,2024-02-26,株式会社太和,,株式会社,東京都,台東区,根岸３丁目７番８号宮崎ビル１階,,13,106,1100003,,,,,,,2024-02-26,1,,,,,タイワ,0
34,1010603010666,新規,0,2024-02-26,2024-02-26,Ｋｉｎｇｓｍａｎ合同会社,,合同会社,東京都,墨田区,文花１丁目１１番１２－４０６号,,13,107,1310044,,,,,,,2024-02-26,1,,,,,キングスマン,0
36,1010701045606,新規,0,2024-02-26,2024-02-26,ＳＳアセットマネジメント株式会社,,株式会社,東京都,品川区,戸越３丁目７番２０号,,13,109,1420041,,,,,,,2024-02-26,1,,,,,エスエスアセットマネジメント,0
38,1010801034797,新規,0,2024-02-26,2024-02-26,ジーコム・リンケージ株式会社,,株式会社,東京都,大田区,大森北６丁目１番１７号,,13,111,1430016,,,,,,,2024-02-26,1,,,,,ジーコムリンケージ,0
41,1010901054761,新規,0,2024-02-26,2024-02-26,シェフィールド株式会社,,株式会社,東京都,世田谷区,深沢８丁目１３番１号,,13,112,1580081,,,,,,,2024-02-26,1,,,,,シェフィールド,0
46,1011001160211,新規,0,2024-02-26,2024-02-26,株式会社テックソリューションズ,,株式会社,東京都,渋谷区,渋谷２丁目１９番１５号宮益坂ビルディング６０９,,13,113,1500002,,,,,,,2024-02-26,1,,,,,テックソリューションズ,0
47,1011001160244,新規,0,2024-02-26,2024-02-26,株式会社オールスター,,株式会社,東京都,渋谷区,千駄ヶ谷４丁目１０番５号矢口ビル２Ｆ,,13,113,1510051,,,,,,,2024-02-26,1,,,,,オールスター,0
50,1011101106287,新規,0,2024-02-26,2024-02-26,国際健康促進機構株式会社,,株式会社,東京都,新宿区,西新宿６丁目１６番６号新宿タツミビル１００２,,13,104,1600023,,,,,,,2024-02-26,1,,,,,コクサイケンコウソクシンキコウ,0
51,1011103014091,新規,0,2024-02-26,2024-02-26,合同会社ミセス日本エージェンシー,,合同会社,東京都,新宿区,西新宿４丁目３２－６－１３０３,,13,104,1600023,,,,,,,2024-02-26,1,,,,,ミセスニッポンエージェンシー,0
52,1011103014133,新規,0,2024-02-26,2024-02-26,合同会社ＴｈｒｅｅＦｌａｇ,,合同会社,東京都,新宿区,西新宿３丁目３番１３号西新宿水間ビル６階,,13,104,1600023,,,,,,,2024-02-26,1,,,,,スリーフラッグ,0
58,1011601027545,新規,0,2024-02-26,2024-02-26,株式会社加藤工業,,株式会社,東京都,練馬区,西大泉３丁目３０番４号,,13,120,1780065,,,,,,,2024-02-26,1,,,,,カトウコウギョウ,0
67,1012405004945,新規,0,2024-02-26,2024-02-26,一般社団法人酒類政策研究所,,その他の設立登記法人,東京都,小金井市,本町１丁目９番７号,,13,210,1840004,,,,,,,2024-02-26,1,,,,,シュルイセイサクケンキュウジョ,0
70,1013101009354,新規,0,2024-02-26,2024-02-26,株式会社ＭＥＲＣＩ‐ＧＲＯＵＰ,,株式会社,東京都,羽村市,栄町１丁目１０番地９１ビューパーク栄２０２,,13,227,2050002,,,,,,,2024-02-26,1,,,,,,0
73,1013301052088,新規,0,2024-02-26,2024-02-26,大闊株式会社,,株式会社,東京都,豊島区,東池袋４丁目８番１号エイチエックスビルＢ１０５室,,13,116,1700013,,,,,,,2024-02-26,1,,,,,オオカツ,0
79,1020001155641,新規,0,2024-02-26,2024-02-26,林氏株式会社,,株式会社,神奈川県,横浜市青葉区,しらとり台５６－６ライオンズマンション青葉台第３－２１２号,,14,117,2270054,,,,,,,2024-02-26,1,,,,,リンシ,0
80,1020001155922,新規,0,2024-02-26,2024-02-26,ベルニカサービス株式会社,,株式会社,神奈川県,川崎市麻生区,栗平１丁目１番２０号,,14,137,2150031,,,,,,,2024-02-26,1,,,,,ベルニカサービス,0
81,1020001155930,新規,0,2024-02-26,2024-02-26,株式会社未来企画,,株式会社,神奈川県,横浜市港北区,綱島西１丁目６－１９綱島コア１５ビル１Ｆ,,14,109,2230053,,,,,,,2024-02-26,1,,,,,ミライキカク,0
86,1021005013026,新規,0,2024-02-26,2024-02-26,ＮＰＯ法人葉山子どものための人材バンク,,その他の設立登記法人,神奈川県,三浦郡葉山町,下山口１３９８番地の１６,,14,301,2400116,,,,,,,2024-02-26,1,,,,,ハヤマコドモノタメノジンザイバンク,0
95,1030001158800,新規,0,2024-02-26,2024-02-26,株式会社Ｓｋｙ　Ｇｒｅｅｎ,,株式会社,埼玉県,さいたま市西区,大字内野本郷９７６番地２３,,11,101,3310045,,,,,,,2024-02-26,1,,,,,スカイグリーン,0
96,1030001158825,新規,0,2024-02-26,2024-02-26,株式会社Ｃａｓｔｌｅ,,株式会社,埼玉県,さいたま市北区,吉野町１丁目４１０番地２１,,11,102,3310811,,,,,,,2024-02-26,1,,,,,キャッスル,0
97,1030001158841,新規,0,2024-02-26,2024-02-26,パワーホールディングス株式会社,,株式会社,埼玉県,入間郡毛呂山町,大字大類５２５番地１,,11,326,3500432,,,,,,,2024-02-26,1,,,,,パワーホールディングス,0
105,1040001132325,新規,0,2024-02-26,2024-02-26,キャリアス株式会社,,株式会社,千葉県,千葉市花見川区,検見川町２丁目５８５番地９,,12,102,2620023,,,,,,,2024-02-26,1,,,,,キャリアス,0
106,1040001132341,新規,0,2024-02-26,2024-02-26,株式会社ＬＩＮＥ‐ＵＰ,,株式会社,千葉県,成田市,新川３４０１番地８９,,12,211,2890126,,,,,,,2024-02-26,1,,,,,ラインアップ,0
109,1070001041432,新規,0,2024-02-26,2024-02-26,株式会社Ｖｍａ,,株式会社,群馬県,太田市,西本町５－１１－１Ｃ号,,10,205,3730033,,,,,,,2024-02-26,1,,,,,ブイマ,0
111,1070003005278,新規,0,2024-02-26,2024-02-26,合同会社Ｆａｉｚ,,合同会社,群馬県,太田市,飯田町７８３番地イエロートータスビル３０１,,10,205,3730851,,,,,,,2024-02-26,1,,,,,ファイズ,0
115,1080403004960,新規,0,2024-02-26,2024-02-26,ＳＭＳ合同会社,,合同会社,静岡県,磐田市,大原１４２５番地３,,22,211,4371211,,,,,,,2024-02-26,1,,,,,エスエムエス,0
122,1100005013119,新規,0,2024-02-26,2024-02-26,一般社団法人みおん,,その他の設立登記法人,長野県,上田市,上田原９６９番地１,,20,203,3861102,,,,,,,2024-02-26,1,,,,,ミオン,0
134,1120001262527,新規,0,2024-02-26,2024-02-26,株式会社ＪＯＡＴ,,株式会社,大阪府,大阪市中央区,南久宝寺町３丁目２番７号９Ｆ,,27,128,5410058,,,,,,,2024-02-26,1,,,,,ジェーオーエーティー,0
135,1120001262568,新規,0,2024-02-26,2024-02-26,日本建物サービス株式会社,,株式会社,大阪府,大阪市浪速区,元町１丁目４番２２号ロジアールなんば４０７号室,,27,111,5560016,,,,,,,2024-02-26,1,,,,,ニホンタテモノサービス,0
136,1120001262576,新規,0,2024-02-26,2024-02-26,ＪＰ　Ａｓｓｅｔ　Ｍａｎａｇｅｍｅｎｔ株式会社,,株式会社,大阪府,大阪市浪速区,難波中２丁目６番４－１００３号,,27,111,5560011,,,,,,,2024-02-26,1,,,,,ジェイピーアセットマネジメント,0
137,1120001262618,新規,0,2024-02-26,2024-02-26,ｉｋｓ株式会社,,株式会社,大阪府,大阪市旭区,今市１丁目１８番１５号,,27,117,5350011,,,,,,,2024-02-26,1,,,,,アイケーエス,0
138,1120001262659,新規,0,2024-02-26,2024-02-26,株式会社亀井内装,,株式会社,大阪府,大阪市西淀川区,歌島１丁目５－１４－Ａ号,,27,113,5550021,,,,,,,2024-02-26,1,,,,,カメイナイソウ,0
140,1120003026021,新規,0,2024-02-26,2024-02-26,合同会社ＹＭインターナショナル,,合同会社,大阪府,大阪市平野区,瓜破東２丁目７番２５－８０４号,,27,126,5470022,,,,,,,2024-02-26,1,,,,,ワイエムインターナショナル,0
141,1120101069087,新規,0,2024-02-26,2024-02-26,株式会社増田機設,,株式会社,大阪府,泉大津市,助松町３丁目１番３１－７１０号,,27,206,5950071,,,,,,,2024-02-26,1,,,,,マスダキセツ,0
142,1120101069104,新規,0,2024-02-26,2024-02-26,ＭＵＡ株式会社,,株式会社,大阪府,高石市,綾園２丁目５番１３号,,27,225,5920014,,,,,,,2024-02-26,1,,,,,ムア,0
143,1120101069112,新規,0,2024-02-26,2024-02-26,株式会社ＭＩＴＥＮＡ,,株式会社,大阪府,和泉市,葛の葉町２丁目１８番２２号,,27,219,5940081,,,,,,,2024-02-26,1,,,,,ミテナ,0
150,1122003002803,新規,0,2024-02-26,2024-02-26,ＵＮＩＱＵＥ　ＥＸＰＯ合同会社,,合同会社,大阪府,大東市,中垣内１丁目１１番１８号エステートよしみ２－１０１号,,27,218,5740013,,,,,,,2024-02-26,1,,,,,ユニークエキスポ,0
156,1140001133420,新規,0,2024-02-26,2024-02-26,未来図ファーム株式会社,,株式会社,兵庫県,たつの市,揖保川町新在家２０６番地３,,28,229,6711611,,,,,,,2024-02-26,1,,,,,ミライズファーム,0
157,1140001133437,新規,0,2024-02-26,2024-02-26,株式会社いと,,株式会社,兵庫県,宝塚市,武庫山２丁目１１番２１号,,28,214,6650005,,,,,,,2024-02-26,1,,,,,イト,0
158,1140001133445,新規,0,2024-02-26,2024-02-26,株式会社Ｔ‐ＯＮＥ,,株式会社,兵庫県,神戸市北区,八多町下小名田１１２７,,28,109,6511352,,,,,,,2024-02-26,1,,,,,ティーワン,0
160,1140003020195,新規,0,2024-02-26,2024-02-26,合同会社Ｊｉｍａ,,合同会社,兵庫県,神戸市中央区,磯辺通１丁目１番１８号カサベラ国際プラザビル７０７,,28,110,6510084,,,,,,,2024-02-26,1,,,,,ジマ,0
165,1160001025707,新規,0,2024-02-26,2024-02-26,株式会社つむぎ,,株式会社,滋賀県,大津市,皇子が丘３丁目９番地１３,,25,201,5200025,,,,,,,2024-02-26,1,,,,,ツムギ,0
169,1160005011273,新規,0,2024-02-26,2024-02-26,農事組合法人平川農場,,その他の設立登記法人,滋賀県,長浜市,高月町布施２５８番地,,25,203,5290204,,,,,,,2024-02-26,1,,,,,ヒラカワノウジョウ,0
170,1180001160238,新規,0,2024-02-26,2024-02-26,株式会社ゆう,,株式会社,愛知県,清須市,春日高札５２番地１,,23,233,4520962,,,,,,,2024-02-26,1,,,,,ユウ,0
171,1180001160279,新規,0,2024-02-26,2024-02-26,株式会社トップシード,,株式会社,愛知県,名古屋市千種区,上野３丁目１番１４号,,23,101,4640082,,,,,,,2024-02-26,1,,,,,トップシード,0
185,1240001062824,新規,0,2024-02-26,2024-02-26,株式会社Ｅｘｐｌｏｒｅｒ,,株式会社,広島県,廿日市市,地御前２丁目９番１３－２０１号,,34,213,7380042,,,,,,,2024-02-26,1,,,,,エクスプローラー,0
187,1240005015729,新規,0,2024-02-26,2024-02-26,一般社団法人心音,,その他の設立登記法人,広島県,広島市西区,草津南２丁目４番７号,,34,104,7330863,,,,,,,2024-02-26,1,,,,,ココロオト,0
190,1260001038780,新規,0,2024-02-26,2024-02-26,ＹＡＭＡＳＨＩＴＡ．ｓｉｄｅｌｉｎｅ．株式会社,,株式会社,岡山県,倉敷市,船穂町船穂７１６番地２,,33,202,7100261,,,,,,,2024-02-26,1,,,,,ヤマシタサイドライン,0
195,1290001104828,新規,0,2024-02-26,2024-02-26,エースプランニング株式会社,,株式会社,福岡県,福岡市博多区,比恵町１番１８－９１８号,,40,132,8120014,,,,,,,2024-02-26,1,,,,,エースプランニング,0
198,1290003014991,新規,0,2024-02-26,2024-02-26,合同会社コマスキ,,合同会社,福岡県,福岡市中央区,天神２丁目３番１０号天神パインクレスト７１９号,,40,133,8100001,,,,,,,2024-02-26,1,,,,,コマスキ,0
200,1310003004726,新規,0,2024-02-26,2024-02-26,合同会社ビズ,,合同会社,長崎県,諫早市,長田町２９８４番地１,,42,204,8590301,,,,,,,2024-02-26,1,,,,,ビズ,0
203,1340001026307,新規,0,2024-02-26,2024-02-26,株式会社ライフサポート,,株式会社,鹿児島県,鹿児島市,吉野１丁目２番３号,,46,201,8920877,,,,,,,2024-02-26,1,,,,,ライフサポート,0
208,1360001033243,新規,0,2024-02-26,2024-02-26,株式会社アトラスＫ,,株式会社,沖縄県,那覇市,壺屋１丁目２番６号,,47,201,9020065,,,,,,,2024-02-26,1,,,,,アトラスケイ,0
210,1360003013739,新規,0,2024-02-26,2024-02-26,石垣島・モバイル合同会社,,合同会社,沖縄県,石垣市,字登野城５１０番地１Ｆ,,47,207,9070004,,,,,,,2024-02-26,1,,,,,イシガキジマモバイル,0
212,1370001050956,新規,0,2024-02-26,2024-02-26,株式会社Ｂｅｌｉｅｆ,,株式会社,宮城県,仙台市宮城野区,原町１丁目１番６９号ｆｉｅｓｔａ原町Ｂ－３,,04,102,9830841,,,,,,,2024-02-26,1,,,,,ビリーフ,0
213,1370001050972,新規,0,2024-02-26,2024-02-26,株式会社ＫＡＷＡＭＵＲＡ,,株式会社,宮城県,名取市,増田７丁目３番地２３号マイタウン名取Ａ１１,,04,207,9811224,,,,,,,2024-02-26,1,,,,,カワムラ,0
217,1380003005692,新規,0,2024-02-26,2024-02-26,合同会社中山医研,,合同会社,福島県,いわき市,中之作字榎戸３１番地,,07,204,9700313,,,,,,,2024-02-26,1,,,,,ナカヤマイケン,0
222,1430001091135,新規,0,2024-02-26,2024-02-26,株式会社グロウビー,,株式会社,北海道,札幌市中央区,南二条西５丁目２６番地１７アイビル２・５　１００２号,,01,101,0600062,,,,,,,2024-02-26,1,,,,,グロウビー,0
223,1430001091151,新規,0,2024-02-26,2024-02-26,株式会社フッカルサービス,,株式会社,北海道,札幌市中央区,南六条西１１丁目１２８４－２７,,01,101,0640806,,,,,,,2024-02-26,1,,,,,フッカルサービス,0
224,1430003015983,新規,0,2024-02-26,2024-02-26,合同会社華叢‐はなむら,,合同会社,北海道,札幌市西区,西野十二条８丁目３番７号サンコーポＡ－１０１号,,01,107,0630042,,,,,,,2024-02-26,1,,,,,ハナムラハナムラ,0
225,1430005014901,新規,0,2024-02-26,2024-02-26,社会保険労務士法人ロームホーム,,その他の設立登記法人,北海道,札幌市厚別区,厚別中央一条７丁目１番４５号,,01,108,0040051,,,,,,,2024-02-26,1,,,,,ロームホーム,0
226,1460101007500,新規,0,2024-02-26,2024-02-26,株式会社山口牧場,,株式会社,北海道,中川郡豊頃町,幌岡２０番地,,01,645,0895247,,,,,,,2024-02-26,1,,,,,ヤマグチボクジョウ,0
231,1700150124163,新規,0,2024-02-26,2024-02-26,ＮＥＷ　ＰＨＡＳＥ－ＦＺＣＯ,,外国会社等,,,,,,,,Ｕｎｉｔ１０１　ＩＦＺＡ　Ｄｕｂａｉ　Ｂｕｉｌｄｉｎｇ　Ａ２　Ｄｕｂａｉ　Ｓｉｌｉｃｏｎ　Ｏａｓｉｓ，Ｄｕｂａｉ　ＵＡＥ,,,,,,2024-02-26,1,,,,,ニユーフエーズ,0
232,1700150124171,新規,0,2024-02-26,2024-02-26,ＧｕａｎｇＺｈｏｕ　ＸｉＹａ　ＦｕＳｈｉ　ＹｏｕＸｉａｎＧｏｎｇＳｉ,,外国会社等,,,,,,,,ＢａｉＹｕｎＱｕ　ＢａｉＹｕｎＨｕＪｉｅ　ＬｏｎｇＨｕＬｏｎｇＴａｎｇＬｕ　ＺｉＢｉａｎ７ｈａｏ　ＮｉｕＣｈａｎｇＧｏｎｇＹｅＹｕａｎＢｄｏｎｇ　ＳｉＬｏｕ４０３Ａ　ＧｕａｎｇＺｈｏｕ　ＧｕａｎｇＤｏｎｇ,,,,,,2024-02-26,1,,,,,コウシュウシヤフシユウゲンコウシ,0
245,2010001242522,新規,0,2024-02-26,2024-02-26,日本給食サービス株式会社,,株式会社,東京都,中央区,日本橋馬喰町２丁目４番５号２階,,13,102,1030002,,,,,,,2024-02-26,1,,,,,ニホンキュウショクサービス,0
258,2010401180504,新規,0,2024-02-26,2024-02-26,株式会社ＳＫ‐２,,株式会社,東京都,港区,東新橋１丁目９番２号汐留住友ビル１６階,,13,103,1050021,,,,,,,2024-02-26,1,,,,,エスケーツー,0
259,2010401180537,新規,0,2024-02-26,2024-02-26,株式会社クールウェイズ,,株式会社,東京都,港区,芝１丁目１０－８－１００１,,13,103,1050014,,,,,,,2024-02-26,1,,,,,クールウェイズ,0
260,2010401180594,新規,0,2024-02-26,2024-02-26,株式会社Ｒｉｏ　Ｆｉｅｌｄ,,株式会社,東京都,港区,港南２丁目１６番７－５０９号,,13,103,1080075,,,,,,,2024-02-26,1,,,,,リオフィールド,0
261,2010401180644,新規,0,2024-02-26,2024-02-26,株式会社Ｅ‐Ｂｉｋｅ　Ｔｏｋｙｏ,,株式会社,東京都,港区,新橋２丁目４番５号不二ビルディング新橋８階,,13,103,1050004,,,,,,,2024-02-26,1,,,,,イーバイクトウキョウ,0
277,2010801034805,新規,0,2024-02-26,2024-02-26,株式会社ユニバーサルリンクプラス,,株式会社,東京都,大田区,東矢口３丁目１８番６号,,13,111,1460094,,,,,,,2024-02-26,1,,,,,ユニバーサルリンクプラス,0
289,2011001160235,新規,0,2024-02-26,2024-02-26,ＧＴＰ株式会社,,株式会社,東京都,渋谷区,渋谷１丁目１番１－１００２号アマンＥ．Ｓ．Ｋ青山,,13,113,1500002,,,,,,,2024-02-26,1,,,,,ジーティーピー,0
295,2011101106278,新規,0,2024-02-26,2024-02-26,株式会社ＭＥＬＯＣＥＡＮ,,株式会社,東京都,新宿区,歌舞伎町２丁目２０番１１号第七本間ビル４階Ｅ号室,,13,104,1600021,,,,,,,2024-02-26,1,,,,,メローシャン,0
296,2011101106303,新規,0,2024-02-26,2024-02-26,デジタルスクーデリア株式会社,,株式会社,東京都,新宿区,西新宿３丁目３番１３号西新宿水間ビル６階,,13,104,1600023,,,,,,,2024-02-26,1,,,,,デジタルスクーデリア,0
306,2011701027056,新規,0,2024-02-26,2024-02-26,３９Ａ商事株式会社,,株式会社,東京都,江戸川区,松島３丁目１４番７－２０７号若林ビル,,13,123,1320031,,,,,,,2024-02-26,1,,,,,サンキュウエーショウジ,0
310,2012801022979,新規,0,2024-02-26,2024-02-26,株式会社Ｔｏｋｉ　Ｃｒｅａｔｉｖｅ,,株式会社,東京都,国分寺市,西恋ヶ窪４丁目２９－２,,13,214,1850013,,,,,,,2024-02-26,1,,,,,トキクリエイティブ,0
311,2012803003325,新規,0,2024-02-26,2024-02-26,合同会社ＬＩＢＥＲＴＹ,,合同会社,東京都,国立市,青柳２丁目８－５０－１０５,,13,215,1860013,,,,,,,2024-02-26,1,,,,,リバティ,0
316,2020001155863,新規,0,2024-02-26,2024-02-26,株式会社ＡＢＣ,,株式会社,神奈川県,川崎市川崎区,鋼管通１丁目２０番７号ハイツたくみ１０１,,14,131,2100852,,,,,,,2024-02-26,1,,,,,エービーシー,0
317,2020001155921,新規,0,2024-02-26,2024-02-26,株式会社ＡＯ,,株式会社,神奈川県,横浜市戸塚区,品濃町５３７番地２０中央街区Ａ棟２８０３号,,14,110,2440801,,,,,,,2024-02-26,1,,,,,アオ,0
318,2020001155938,新規,0,2024-02-26,2024-02-26,横浜基礎株式会社,,株式会社,神奈川県,横浜市戸塚区,矢部町１５３０番地１ルピナス戸塚３－５０５号,,14,110,2440002,,,,,,,2024-02-26,1,,,,,ヨコハマキソ,0
319,2020001155979,新規,0,2024-02-26,2024-02-26,株式会社レヴィル,,株式会社,神奈川県,横浜市緑区,森の台４１番Ｄ－８０１号,,14,113,2260029,,,,,,,2024-02-26,1,,,,,レヴィル,0
322,2020003025602,新規,0,2024-02-26,2024-02-26,合同会社ふぃーるけあ,,合同会社,神奈川県,川崎市中原区,井田１丁目１３番４８号青山コーポ１０２,,14,133,2110035,,,,,,,2024-02-26,1,,,,,フィールケア,0
323,2020003025610,新規,0,2024-02-26,2024-02-26,合同会社ＣＯＮＮＥＣＴ,,合同会社,神奈川県,横浜市鶴見区,上の宮２丁目２３番１９号,,14,101,2300075,,,,,,,2024-02-26,1,,,,,コネクト,0
328,2030001158799,新規,0,2024-02-26,2024-02-26,株式会社ＪＡＫＥ,,株式会社,埼玉県,和光市,南１丁目８－５２－１０２,,11,229,3510104,,,,,,,2024-02-26,1,,,,,ジェイク,0
329,2030001158816,新規,0,2024-02-26,2024-02-26,株式会社ＭＩＮＡＴＯ,,株式会社,埼玉県,行田市,大字南河原５２０番地９,,11,206,3610084,,,,,,,2024-02-26,1,,,,,ミナト,0
330,2030001158849,新規,0,2024-02-26,2024-02-26,株式会社ミライあしすと,,株式会社,埼玉県,川口市,芝高木２丁目１０番１４－４０９号,,11,203,3330868,,,,,,,2024-02-26,1,,,,,ミライアシスト,0
335,2030003023670,新規,0,2024-02-26,2024-02-26,ＭＯＥＲ合同会社,,合同会社,埼玉県,和光市,白子２丁目８番２０－１０６号,,11,229,3510101,,,,,,,2024-02-26,1,,,,,モーア,0
336,2030003023687,新規,0,2024-02-26,2024-02-26,ＴＸＯｐｅｒａｔｉｏｎ合同会社,,合同会社,埼玉県,さいたま市大宮区,桜木町２丁目３番地大宮マルイ７階,,11,103,3300854,,,,,,,2024-02-26,1,,,,,ティーエックスオペレーション,0
342,2040001132332,新規,0,2024-02-26,2024-02-26,３Ｓ株式会社,,株式会社,千葉県,船橋市,南三咲１丁目１２番１８号,,12,204,2740813,,,,,,,2024-02-26,1,,,,,スリーエス,0
344,2040003024395,新規,0,2024-02-26,2024-02-26,ＭＥ　ＴＩＭＥ合同会社,,合同会社,千葉県,市川市,行徳駅前４丁目１９番１１号１Ｆ,,12,203,2720133,,,,,,,2024-02-26,1,,,,,ミータイム,0
350,2050001054352,新規,0,2024-02-26,2024-02-26,株式会社ＣＮＳ,,株式会社,茨城県,ひたちなか市,西十三奉行１３２５７番地１,,08,221,3111206,,,,,,,2024-02-26,1,,,,,シーエヌエス,0
352,2060001036861,新規,0,2024-02-26,2024-02-26,株式会社常誠,,株式会社,栃木県,宇都宮市,簗瀬町１７８５番地２４,,09,201,3210933,,,,,,,2024-02-26,1,,,,,ジョウセイ,0
354,2060003004924,新規,0,2024-02-26,2024-02-26,合同会社ポーラ,,合同会社,栃木県,那須塩原市,南郷屋２丁目１５１番地２５サンローズＡ－１０２号,,09,213,3292705,,,,,,,2024-02-26,1,,,,,ポーラ,0
374,2120001262550,新規,0,2024-02-26,2024-02-26,株式会社Ｂｅｌｌ　ｆｉｅｌｄ,,株式会社,大阪府,大阪市住吉区,大領４丁目８番１５－４Ｄ,,27,120,5580001,,,,,,,2024-02-26,1,,,,,ベルフィールド,0
375,2120001262609,新規,0,2024-02-26,2024-02-26,株式会社Ｐｅｅｋ‐ａ‐Ｂｏｏ,,株式会社,大阪府,大阪市北区,樋之口町１番２０－１７０２号,,27,127,5300032,,,,,,,2024-02-26,1,,,,,ピーカーブー,0
379,2120003025955,新規,0,2024-02-26,2024-02-26,８６合同会社,,合同会社,大阪府,大阪市中央区,南船場１丁目１６番２３－１００７号,,27,128,5420081,,,,,,,2024-02-26,1,,,,,ハチロク,0
380,2120003025988,新規,0,2024-02-26,2024-02-26,合同会社言一,,合同会社,大阪府,大阪市中央区,東平２丁目２番１１号オリオンハイム上六２０５号室,,27,128,5420063,,,,,,,2024-02-26,1,,,,,ゲンイチ,0
383,2120101069111,新規,0,2024-02-26,2024-02-26,株式会社南大阪商事,,株式会社,大阪府,堺市西区,浜寺元町５丁５９４番地１－Ｆ号,,27,144,5928343,,,,,,,2024-02-26,1,,,,,ミナミオオサカショウジ,0
385,2120103005691,新規,0,2024-02-26,2024-02-26,合同会社七夕,,合同会社,大阪府,羽曳野市,羽曳が丘西６丁目１２番２２号,,27,222,5830865,,,,,,,2024-02-26,1,,,,,タナバタ,0
388,2120901048801,新規,0,2024-02-26,2024-02-26,株式会社トラスト企画,,株式会社,大阪府,茨木市,豊川２丁目９番２５号＆Ｓｐａｃｅ２号室,,27,211,5670057,,,,,,,2024-02-26,1,,,,,トラストキカク,0
393,2130001076413,新規,0,2024-02-26,2024-02-26,ＥＮＲＩＳＳＩＯＮ　ＩＮＤＩＡ　ＣＡＰＩＴＡＬ株式会社,,株式会社,京都府,京都市上京区,今出川通室町東入今出川町３２９番地１,,26,102,6020033,,,,,,,2024-02-26,1,,,,,エンリッションインディアキャピタル,0
394,2130001076421,新規,0,2024-02-26,2024-02-26,株式会社ＢＵＲＡＮ,,株式会社,京都府,京都市北区,大宮北箱ノ井町３３番地７セルリアンハイツ２０２号室,,26,101,6038475,,,,,,,2024-02-26,1,,,,,ブラン,0
400,2140001133444,新規,0,2024-02-26,2024-02-26,株式会社ＳＨＩＮ‐ＤＥＳＩＧＮ,,株式会社,兵庫県,神戸市灘区,篠原南町５丁目３番１１号,,28,102,6570059,,,,,,,2024-02-26,1,,,,,シンデザイン,0
401,2140003020194,新規,0,2024-02-26,2024-02-26,合同会社ＡＳＰＥＡＲ,,合同会社,兵庫県,姫路市,北条口４丁目３７番地ミストラル北条口ＩＩ８０２号,00133845,28,201,6700935,,,,,,,2024-02-26,1,,,,,アスピア,0
409,2180001160187,新規,0,2024-02-26,2024-02-26,嘉蘭国際株式会社,,株式会社,愛知県,名古屋市南区,六条町４丁目１１０番地,,23,112,4570853,,,,,,,2024-02-26,1,,,,,カランコクサイ,0
414,2200001042184,新規,0,2024-02-26,2024-02-26,株式会社ＡＲＡＲＡ．ＭＫ,,株式会社,岐阜県,美濃加茂市,森山町１丁目６番１６号ＰｌａｚａＥｎｓｈｕ１階,,21,211,5050021,,,,,,,2024-02-26,1,,,,,アララドットエムケー,0
420,2240001062831,新規,0,2024-02-26,2024-02-26,Ｄｅｃａｒｂｏ．株式会社,,株式会社,広島県,福山市,明神町１丁目３番４号,,34,207,7210961,,,,,,,2024-02-26,1,,,,,デカルボ,0
423,2240003006555,新規,0,2024-02-26,2024-02-26,合同会社Ｋ＆Ｃ,,合同会社,広島県,広島市佐伯区,利松２丁目１２－２,,34,108,7315106,,,,,,,2024-02-26,1,,,,,ケイアンドシー,0
424,2240005015728,新規,0,2024-02-26,2024-02-26,一般社団法人ＩＮＯ　Ｊａｐａｎ,,その他の設立登記法人,広島県,廿日市市,津田３５５１番地５,,34,213,7380222,,,,,,,2024-02-26,1,,,,,イノジャパン,0
425,2250003003444,新規,0,2024-02-26,2024-02-26,合同会社さくら,,合同会社,山口県,宇部市,大字際波１９４番地７８,,35,202,7590207,,,,,,,2024-02-26,1,,,,,サクラ,0
431,2290001104819,新規,0,2024-02-26,2024-02-26,Ａｍｅｎｏｍ株式会社,,株式会社,福岡県,福岡市東区,原田１丁目４２番３８号,,40,131,8120063,,,,,,,2024-02-26,1,,,,,アメノム,0
432,2290001104827,新規,0,2024-02-26,2024-02-26,株式会社ＥＡＳＴＥＹＥ,,株式会社,福岡県,福岡市博多区,祇園町１番２０号２Ａ,,40,132,8120038,,,,,,,2024-02-26,1,,,,,イーストアイ,0
433,2290801030347,新規,0,2024-02-26,2024-02-26,株式会社Ｆｉｒｓｔ　Ｃｈｏｉｃｅ,,株式会社,福岡県,北九州市小倉北区,浅野１丁目２番３９号７Ｆ,,40,106,8020001,,,,,,,2024-02-26,1,,,,,ファーストチョイス,0
439,2310003004733,新規,0,2024-02-26,2024-02-26,合同会社ＫＯＴＯＢＵＫＩ,,合同会社,長崎県,佐世保市,日野町１０３６番地,,42,202,8580923,,,,,,,2024-02-26,1,,,,,コトブキ,0
447,2350001018797,新規,0,2024-02-26,2024-02-26,株式会社ＳＡＫＯＭＡ,,株式会社,宮崎県,都城市,南鷹尾町１０街区４２号,,45,202,8850082,,,,,,,2024-02-26,1,,,,,サコマ,0
470,2420001018600,新規,0,2024-02-26,2024-02-26,八戸合庁ＰＦＩパートナーズ株式会社,,株式会社,青森県,青森市,長島４丁目２３番８号,,02,201,0300861,,,,,,,2024-02-26,1,,,,,ハチノヘゴウチョウピーエフアイパートナーズ,0
477,2430003015990,新規,0,2024-02-26,2024-02-26,合同会社スタジオウエルタ,,合同会社,北海道,江別市,篠津４４１番地,,01,217,0670055,,,,,,,2024-02-26,1,,,,,スタジオウエルタ,0
478,2430005014900,新規,0,2024-02-26,2024-02-26,特定非営利活動法人恩おくり,,その他の設立登記法人,北海道,江別市,大麻扇町３番地の１６,,01,217,0690843,,,,,,,2024-02-26,1,,,,,オンオクリ,0
479,2440003001577,新規,0,2024-02-26,2024-02-26,合同会社小倉,,合同会社,北海道,函館市,中道２丁目２５番７－１号,,01,202,0410853,,,,,,,2024-02-26,1,,,,,オグラ,0
485,2500001025472,新規,0,2024-02-26,2024-02-26,ＳＣＢホールディングス株式会社,,株式会社,愛媛県,松山市,東雲町１番地４,,38,201,7900803,,,,,,,2024-02-26,1,,,,,エスシービーホールディングス,0
486,2700150124170,新規,0,2024-02-26,2024-02-26,ＹｉＷｕ　ＷａｎＦｅｎｇ　ＤｉａｎＺｉＳｈａｎｇＷｕ　ＹｏｕＸｉａｎＧｏｎｇＳｉ,,外国会社等,,,,,,,,ＣｈｅｎｇＸｉＪｉｅＤａｏ　ＨｅＰａｎＳｈａｎＣｕｎ１ｚｈｕａｎｇ１ｄａｎＹｕａｎ１０１ｓｈｉ　Ｙｉｗｕ　Ｚｈｅｊｉａｎｇ,,,,,,2024-02-26,1,,,,,イウワンフェンデンシショウムユウゲンコウシ,0
501,3010001242521,新規,0,2024-02-26,2024-02-26,株式会社ＢＬＡＮＣ,,株式会社,東京都,中央区,銀座１丁目２２番１１号銀座大竹ビジデンス２階,,13,102,1040061,,,,,,,2024-02-26,1,,,,,ブラン,0
502,3010001242587,新規,0,2024-02-26,2024-02-26,東京グリーン株式会社,,株式会社,東京都,千代田区,神田三崎町２丁目１０番１１号Ｐｅｇビル７－１号室,,13,101,1010061,,,,,,,2024-02-26,1,,,,,トウキョウグリーン,0
507,3010005037934,新規,0,2024-02-26,2024-02-26,一般社団法人韓日美容医療連携推進協会,,その他の設立登記法人,東京都,中央区,新川２丁目１３番１１号内田ビル４階,,13,102,1040033,,,,,,,2024-02-26,1,,,,,カンニチビヨウイリョウレンケイスイシンキョウカイ,0
516,3010501051827,新規,0,2024-02-26,2024-02-26,株式会社江戸一工務店,,株式会社,東京都,台東区,浅草橋１丁目７番６号,,13,106,1110053,,,,,,,2024-02-26,1,,,,,エドイチコウムテン,0
519,3010601064712,新規,0,2024-02-26,2024-02-26,Ｔｅｌｌｕｓ‐Ｔｏｒｃｈ株式会社,,株式会社,東京都,江東区,猿江２丁目１２番３号,,13,108,1350003,,,,,,,2024-02-26,1,,,,,テルスートーチ,0
520,3010603010664,新規,0,2024-02-26,2024-02-26,合同会社ウェルビーイング,,合同会社,東京都,江東区,住吉２丁目２６番５号,,13,108,1350002,,,,,,,2024-02-26,1,,,,,ウェルビーイング,0
522,3010703007065,新規,0,2024-02-26,2024-02-26,未来ＮＥＴ合同会社,,合同会社,東京都,品川区,上大崎２丁目１０番３４号,,13,109,1410021,,,,,,,2024-02-26,1,,,,,ミライネット,0
527,3010903008796,新規,0,2024-02-26,2024-02-26,合同会社ｌａｗｎ,,合同会社,東京都,世田谷区,野沢４丁目９番１４号ストーンズ野沢３０１,,13,112,1540003,,,,,,,2024-02-26,1,,,,,ロウン,0
528,3010903008854,新規,0,2024-02-26,2024-02-26,ＳＴＵＤＩＯ　ＹＵＧＥＮ合同会社,,合同会社,東京都,世田谷区,赤堤５丁目３番６号,,13,112,1560044,,,,,,,2024-02-26,1,,,,,スタジオユーゲン,0
530,3011001160218,新規,0,2024-02-26,2024-02-26,株式会社ＦｏｒｔＳｔｕｄｉｏ,,株式会社,東京都,渋谷区,桜丘町２４番１号橋本ビル６階ＮｅｘｔＢａｓｅ内,,13,113,1500031,,,,,,,2024-02-26,1,,,,,フォートスタジオ,0
531,3011003018546,新規,0,2024-02-26,2024-02-26,ＸＪＰホールディングス合同会社,,合同会社,東京都,渋谷区,道玄坂１丁目１０番８号渋谷道玄坂東急ビル２Ｆ－Ｃ,,13,113,1500043,,,,,,,2024-02-26,1,,,,,エックスジェイピーホールディングス,0
532,3011003018554,新規,0,2024-02-26,2024-02-26,北斗星アドバイザリー合同会社,,合同会社,東京都,目黒区,下目黒１丁目１番１４号コノトラビル７Ｆ,,13,110,1530064,,,,,,,2024-02-26,1,,,,,ホクトセイアドバイザリー,0
533,3011101106260,新規,0,2024-02-26,2024-02-26,株式会社Ｏｎｅ　Ｈａｐｐｉｎｅｓｓ,,株式会社,東京都,新宿区,西新宿３丁目３番１３号西新宿水間ビル６階,,13,104,1600023,,,,,,,2024-02-26,1,,,,,ワンハピネス,0
538,3011301029435,新規,0,2024-02-26,2024-02-26,株式会社オネストウェイ,,株式会社,東京都,杉並区,松庵１丁目５番１３号,,13,115,1670054,,,,,,,2024-02-26,1,,,,,オネストウェイ,0
545,3011501030366,新規,0,2024-02-26,2024-02-26,株式会社山海,,株式会社,東京都,北区,昭和町２丁目６番６－３０１号,,13,117,1140011,,,,,,,2024-02-26,1,,,,,サンカイ,0
546,3011701027047,新規,0,2024-02-26,2024-02-26,株式会社ピチカート,,株式会社,東京都,江戸川区,西葛西２丁目９番１１－５０２号,,13,123,1340088,,,,,,,2024-02-26,1,,,,,ピチカート,0
547,3011701027055,新規,0,2024-02-26,2024-02-26,宇田川不動産株式会社,,株式会社,東京都,江戸川区,南葛西２丁目２９番２号,,13,123,1340085,,,,,,,2024-02-26,1,,,,,ウダガワフドウサン,0
548,3011703003756,新規,0,2024-02-26,2024-02-26,合同会社シンドリー,,合同会社,東京都,江戸川区,南葛西２丁目１４－１９－３０３レジデンスオークＩＩ,00133835,13,123,1340085,,,,,,,2024-02-26,1,,,,,シンドリー,0
553,3012401041569,新規,0,2024-02-26,2024-02-26,ＳＫＳ株式会社,,株式会社,東京都,調布市,西つつじケ丘４丁目２３番地神代団地１２－４０１,,13,208,1820006,,,,,,,2024-02-26,1,,,,,エスケーエス,0
556,3012801022986,新規,0,2024-02-26,2024-02-26,株式会社マイボード,,株式会社,東京都,立川市,砂川町３丁目２８番１７,,13,202,1900031,,,,,,,2024-02-26,1,,,,,マイボード,0
559,3013301052111,新規,0,2024-02-26,2024-02-26,株式会社ＣＲＯＷＮ,,株式会社,東京都,豊島区,東池袋１丁目７番７号鳥駒総本店ビルＢ２階,,13,116,1700013,,,,,,,2024-02-26,1,,,,,クラウン,0
568,3020001155937,新規,0,2024-02-26,2024-02-26,株式会社幸加,,株式会社,神奈川県,横浜市南区,六ツ川２丁目８７番地４６,,14,105,2320066,,,,,,,2024-02-26,1,,,,,コウカ,0
569,3020001155945,新規,0,2024-02-26,2024-02-26,財産調査評価株式会社,,株式会社,神奈川県,横浜市保土ケ谷区,川島町１４６５番地の３,,14,106,2400045,,,,,,,2024-02-26,1,,,,,ザイサンチョウサヒョウカ,0
573,3021001081537,新規,0,2024-02-26,2024-02-26,株式会社Ｇｒｉｆｆｉｎ　Ｇａｒｄｅｎ,,株式会社,神奈川県,横須賀市,秋谷１丁目２３番１６号マリーンＫ１０５,,14,201,2400105,,,,,,,2024-02-26,1,,,,,グリフィンガーデン,0
574,3021001081545,新規,0,2024-02-26,2024-02-26,株式会社ＬＥＫ　ＦＬＯＯＲ,,株式会社,神奈川県,大和市,柳橋１丁目３９０６番地１７,,14,213,2420022,,,,,,,2024-02-26,1,,,,,レックフロア,0
576,3021003014189,新規,0,2024-02-26,2024-02-26,合同会社ＮＡＯＳ,,合同会社,神奈川県,鎌倉市,腰越４丁目２７０番地１,,14,204,2480033,,,,,,,2024-02-26,1,,,,,ナオス,0
594,3030003023694,新規,0,2024-02-26,2024-02-26,エスアイラボ合同会社,,合同会社,埼玉県,蕨市,中央２丁目９－７－２０１,,11,223,3350004,,,,,,,2024-02-26,1,,,,,エスアイラボ,0
595,3030005021564,新規,0,2024-02-26,2024-02-26,一般社団法人ＡＩＡＩ２,,その他の設立登記法人,埼玉県,羽生市,大字中岩瀬５５９番地,,11,216,3480046,,,,,,,2024-02-26,1,,,,,アイアイツー,0
597,3040001132224,新規,0,2024-02-26,2024-02-26,イタヤ建設株式会社,,株式会社,千葉県,千葉市中央区,新宿１丁目５番８号,,12,101,2600021,,,,,,,2024-02-26,1,,,,,イタヤケンセツ,0
598,3040001132331,新規,0,2024-02-26,2024-02-26,株式会社溪廬,,株式会社,千葉県,千葉市花見川区,浪花町９４３－８ノーリーズン新検見川２０２号室,,12,102,2620024,,,,,,,2024-02-26,1,,,,,ケイロ,0
599,3040001132356,新規,0,2024-02-26,2024-02-26,株式会社Ｒｅ．ｂｕｄｄｙ,,株式会社,千葉県,市川市,大和田１丁目１５番２１号,,12,203,2720025,,,,,,,2024-02-26,1,,,,,リバディ,0
600,3040003024378,新規,0,2024-02-26,2024-02-26,Ｓｏｈａｉｂ　Ｔｒａｄｉｎｇ合同会社,,合同会社,千葉県,野田市,関宿台町６５４２番地３,,12,208,2700202,,,,,,,2024-02-26,1,,,,,ソハイブトレーディング,0
601,3040003024386,新規,0,2024-02-26,2024-02-26,合同会社Ｌｉｖｅ　Ｎｏｗ,,合同会社,千葉県,旭市,新町１４３３,,12,215,2892501,,,,,,,2024-02-26,1,,,,,リブナウ,0
602,3040003024394,新規,0,2024-02-26,2024-02-26,合同会社シュガーラッシュ,,合同会社,千葉県,千葉市緑区,おゆみ野南３丁目３０番地サンクレイドルおゆみ野ステーションウィズ３１０号,,12,105,2660033,,,,,,,2024-02-26,1,,,,,シュガーラッシュ,0
603,3060001036844,新規,0,2024-02-26,2024-02-26,ＺＳＹ株式会社,,株式会社,栃木県,那須烏山市,旭１丁目１５番１５号,,09,215,3210624,,,,,,,2024-02-26,1,,,,,ゼットエスワイ,0
604,3060001036852,新規,0,2024-02-26,2024-02-26,株式会社オーリスエステイト,,株式会社,栃木県,宇都宮市,川田町１５２０番地５,,09,201,3210111,,,,,,,2024-02-26,1,,,,,オーリスエステイト,0
605,3060001036860,新規,0,2024-02-26,2024-02-26,株式会社エイト,,株式会社,栃木県,宇都宮市,五代１丁目２３番４号,,09,201,3210135,,,,,,,2024-02-26,1,,,,,エイト,0
607,3060003004923,新規,0,2024-02-26,2024-02-26,アトムホームテック合同会社,,合同会社,栃木県,宇都宮市,竹林町４００番地２－２０２,,09,201,3210974,,,,,,,2024-02-26,1,,,,,アトムホームテック,0
608,3080001026141,新規,0,2024-02-26,2024-02-26,株式会社ＱＵＥＳＴ　ＵＰ,,株式会社,静岡県,静岡市駿河区,南八幡町２１番１１号,,22,102,4228074,,,,,,,2024-02-26,1,,,,,クエストアップ,0
612,3090003002503,新規,0,2024-02-26,2024-02-26,合同会社コスモクリエイション,,合同会社,山梨県,北杜市,高根町村山東割２２１０番地１スターガーデン八ヶ岳高原４０９,,19,209,4080019,,,,,,,2024-02-26,1,,,,,,0
618,3110003005305,新規,0,2024-02-26,2024-02-26,ＨＦＣ合同会社,,合同会社,新潟県,長岡市,妙見町４５１番地１,,15,202,9401134,,,,,,,2024-02-26,1,,,,,エイチエフシー,0
631,3120001262343,新規,0,2024-02-26,2024-02-26,株式会社ＰＥＲＩＯ,,株式会社,大阪府,大阪市中央区,北久宝寺町２丁目５番２－８０５号,,27,128,5410057,,,,,,,2024-02-26,1,,,,,ピリオ,0
632,3120001262574,新規,0,2024-02-26,2024-02-26,株式会社誰でもファクトリー,,株式会社,大阪府,大阪市福島区,福島５丁目６番１６号ラグザ大阪２Ｆ２０７,,27,103,5530003,,,,,,,2024-02-26,1,,,,,ダレデモファクトリー,0
633,3120001262608,新規,0,2024-02-26,2024-02-26,株式会社ＳＴＡＲ’ｓ,,株式会社,大阪府,大阪市中央区,島之内２丁目１４番２１－４０１号,,27,128,5420082,,,,,,,2024-02-26,1,,,,,スターズ,0
634,3120001262649,新規,0,2024-02-26,2024-02-26,株式会社Ｂａｍｂｏｏ　Ｖａｌｅ,,株式会社,大阪府,寝屋川市,打上高塚町１番１－８１３号,,27,215,5720850,,,,,,,2024-02-26,1,,,,,バンブーヴェイル,0
642,3120901048800,新規,0,2024-02-26,2024-02-26,株式会社スター,,株式会社,大阪府,池田市,満寿美町５番５号,,27,204,5630041,,,,,,,2024-02-26,1,,,,,スター,0
645,3130001076420,新規,0,2024-02-26,2024-02-26,株式会社四方ファミリーファーム,,株式会社,京都府,綾部市,栗町早田６０番地１,,26,203,6230222,,,,,,,2024-02-26,1,,,,,シカタファミリーファーム,0
646,3130001076429,新規,0,2024-02-26,2024-02-26,巖本商店株式会社,,株式会社,京都府,京都市南区,西九条東比永城町７５番地,,26,107,6018438,,,,,,,2024-02-26,1,,,,,イワモトショウテン,0
648,3140001133451,新規,0,2024-02-26,2024-02-26,株式会社藤原企画,,株式会社,兵庫県,朝来市,生野町口銀谷３６３番地２,,28,225,6793301,,,,,,,2024-02-26,1,,,,,フジワラキカク,0
649,3140003020193,新規,0,2024-02-26,2024-02-26,合資会社トリトミールヒロノ,,合資会社,兵庫県,三田市,中央町９番４２号トミールコートＨＩＲＯＮＯ７０１,,28,219,6691529,,,,,,,2024-02-26,1,,,,,トリトミールヒロノ,0
651,3150001027090,新規,0,2024-02-26,2024-02-26,株式会社文彦,,株式会社,奈良県,大和高田市,曽大根２丁目１２番３０号,,29,202,6350055,,,,,,,2024-02-26,1,,,,,フミヒコ,0
655,3180001160277,新規,0,2024-02-26,2024-02-26,Ｍｏｎｔｊｕｉｃ　Ｌｉｎｋ株式会社,,株式会社,愛知県,知多郡東浦町,大字森岡字中町２４番地の４,,23,442,4702101,,,,,,,2024-02-26,1,,,,,モンジュイックリンク,0
656,3180001160302,新規,0,2024-02-26,2024-02-26,株式会社ＹＺＫ,,株式会社,愛知県,名古屋市天白区,御幸山３１７番地,,23,116,4680075,,,,,,,2024-02-26,1,,,,,ワイゼットケー,0
659,3200003006244,新規,0,2024-02-26,2024-02-26,合同会社喫茶鳥屋部,,合同会社,岐阜県,海津市,平田町今尾２９３１番地３,,21,221,5030321,,,,,,,2024-02-26,1,,,,,キッサトヤベ,0
664,3240001062822,新規,0,2024-02-26,2024-02-26,株式会社ＨＡＳＨＩＫＥＮ,,株式会社,広島県,大竹市,立戸３丁目３番４号,,34,211,7390605,,,,,,,2024-02-26,1,,,,,ハシケン,0
665,3240001062830,新規,0,2024-02-26,2024-02-26,野村電業株式会社,,株式会社,広島県,東広島市,高屋高美が丘４丁目３４番５号,,34,212,7392115,,,,,,,2024-02-26,1,,,,,ノムラデンギョウ,0
667,3240003006554,新規,0,2024-02-26,2024-02-26,合同会社ＭＨアシスト,,合同会社,広島県,広島市西区,天満町１５番１０－３０２号,,34,104,7330022,,,,,,,2024-02-26,1,,,,,エムエイチアシスト,0
668,3240005015727,新規,0,2024-02-26,2024-02-26,医療法人すがはら小児科アレルギー科クリニック,,その他の設立登記法人,広島県,広島市安佐南区,西原８丁目１番１３号２Ｆ,,34,105,7310113,,,,,,,2024-02-26,1,,,,,スガハラショウニカアレルギーカクリニック,0
683,3330003010233,新規,0,2024-02-26,2024-02-26,合同会社鹿本ＲＣ,,合同会社,熊本県,山鹿市,鹿本町梶屋１１１３番地２,,43,208,8610312,,,,,,,2024-02-26,1,,,,,カモトアールシー,0
684,3340001026305,新規,0,2024-02-26,2024-02-26,株式会社ルシアスホーム,,株式会社,鹿児島県,霧島市,国分清水２丁目２３番３０号１０２号室,,46,218,8994304,,,,,,,2024-02-26,1,,,,,ルシアスホーム,0
685,3350001018796,新規,0,2024-02-26,2024-02-26,アレストホーム株式会社,,株式会社,宮崎県,都城市,都島町２０４番地１,,45,202,8850083,,,,,,,2024-02-26,1,,,,,アレストホーム,0
688,3360001033233,新規,0,2024-02-26,2024-02-26,株式会社Ｗｅｇ　ｃｏｍｐａｎｙ,,株式会社,沖縄県,那覇市,松山２丁目１６番１６号Ｋ１ビル１階,,47,201,9000032,,,,,,,2024-02-26,1,,,,,ヴェークカンパニー,0
689,3360001033241,新規,0,2024-02-26,2024-02-26,株式会社Ｍｓ，ｎａｉＬ,,株式会社,沖縄県,うるま市,字江洲４１４番地,,47,213,9042244,,,,,,,2024-02-26,1,,,,,ミスネイル,0
690,3360003013737,新規,0,2024-02-26,2024-02-26,合同会社知念建設,,合同会社,沖縄県,石垣市,字真栄里３４５番地２０,,47,207,9070002,,,,,,,2024-02-26,1,,,,,チネンケンセツ,0
691,3370001050954,新規,0,2024-02-26,2024-02-26,Ｐａｋ　Ｓａｋｕｒａ　Ｔｒａｄｉｎｇ株式会社,,株式会社,宮城県,仙台市青葉区,台原３丁目３３番１６号１号室,,04,101,9810911,,,,,,,2024-02-26,1,,,,,パクサクラトレーディング,0
693,3390001017530,新規,0,2024-02-26,2024-02-26,株式会社ＰｉＰｏｔａｌ,,株式会社,山形県,山形市,大字今塚字深田４５番３,,06,201,9900817,,,,,,,2024-02-26,1,,,,,ピポタル,0
696,3410003003897,新規,0,2024-02-26,2024-02-26,合同会社カントウ,,合同会社,秋田県,秋田市,川尻御休町５番５号山王センタービル,,05,201,0100943,,,,,,,2024-02-26,1,,,,,カントウ,0
700,3430001091125,新規,0,2024-02-26,2024-02-26,株式会社Ｈ２エナジー,,株式会社,北海道,札幌市中央区,北三条西２丁目１番地カミヤマビル３階,,01,101,0600003,,,,,,,2024-02-26,1,,,,,エイチツーエナジー,0
701,3430001091133,新規,0,2024-02-26,2024-02-26,株式会社くにまる,,株式会社,北海道,札幌市北区,北三十一条西１４丁目３番地,,01,102,0010031,,,,,,,2024-02-26,1,,,,,クニマル,0
707,3470001020039,新規,0,2024-02-26,2024-02-26,アファントレーディング株式会社,,株式会社,香川県,仲多度郡まんのう町,買田２－３仲多度オフィスビルＡ－１,,37,406,7690311,,,,,,,2024-02-26,1,,,,,アファントレーディング,0
710,3700150063269,新規,0,2024-02-26,2015-10-09,大分県医療ロボット・機器産業協議会,,その他,大分県,大分市,大手町３丁目１番１号（大分県商工観光労働部新産業振興室）,,44,201,8700022,,,,,,,2015-10-09,1,,,,,オオイタケンイリヨウロボツトキキサンギヨウキヨウギカイ,0
719,4010001242520,新規,0,2024-02-26,2024-02-26,株式会社ＮＮＣグループ,,株式会社,東京都,千代田区,神田松永町１０番地１,,13,101,1010023,,,,,,,2024-02-26,1,,,,,エヌエヌシーグループ,0
721,4010003043025,新規,0,2024-02-26,2024-02-26,合同会社ａｎｇｅ．,,合同会社,東京都,中央区,晴海２丁目２番４２－３２１１号,,13,102,1040053,,,,,,,2024-02-26,1,,,,,オンジュ,0
722,4010005037941,新規,0,2024-02-26,2024-02-26,一般社団法人アプリコット,,その他の設立登記法人,東京都,千代田区,丸の内３丁目１番１号東京共同会計事務所内,,13,101,1000005,,,,,,,2024-02-26,1,,,,,アプリコット,0
729,4010401180642,新規,0,2024-02-26,2024-02-26,株式会社ＳＴＡＫＳ,,株式会社,東京都,港区,芝５丁目２６番２４号ビジネスエアポート２階,,13,103,1080014,,,,,,,2024-02-26,1,,,,,スタックス,0
730,4010401180650,新規,0,2024-02-26,2024-02-26,株式会社アズールグロウ,,株式会社,東京都,港区,南青山２丁目９番６号,,13,103,1070062,,,,,,,2024-02-26,1,,,,,アズールグロウ,0
734,4010405022989,新規,0,2024-02-26,2024-02-26,ＭＦＴＪＰＮ１１特定目的会社,,その他の設立登記法人,東京都,港区,虎ノ門３丁目２２番１０－２０１号,,13,103,1050001,,,,,,,2024-02-26,1,,,,,エムエフティージェイピーエヌイレブン,0
736,4010601064661,新規,0,2024-02-26,2024-02-26,嘉禾加泰株式会社,,株式会社,東京都,江東区,亀戸２丁目７番２０号,,13,108,1360071,,,,,,,2024-02-26,1,,,,,カゴカタイ,0
740,4010901054767,新規,0,2024-02-26,2024-02-26,プロ・インターン株式会社,,株式会社,東京都,世田谷区,弦巻５丁目３６番７－８０２号,,13,112,1540016,,,,,,,2024-02-26,1,,,,,プロインターン,0
745,4011001160209,新規,0,2024-02-26,2024-02-26,ＭＯＬ　ＧＡＲＤＥＮ株式会社,,株式会社,東京都,渋谷区,代々木３丁目５７番８号,,13,113,1510053,,,,,,,2024-02-26,1,,,,,モルグローバル,0
746,4011001160217,新規,0,2024-02-26,2024-02-26,株式会社ｋｅｓｓａｋｕ,,株式会社,東京都,渋谷区,恵比寿西２丁目４番８号ウィンド恵比寿ビル８Ｆ,,13,113,1500021,,,,,,,2024-02-26,1,,,,,ケッサク,0
747,4011001160241,新規,0,2024-02-26,2024-02-26,株式会社ＣｏｌｏｒｆｕｌＢｏｓａｉＣｒｅａｔｉｏｎ,,株式会社,東京都,渋谷区,神宮前６丁目２３番４号桑野ビル２階,,13,113,1500001,,,,,,,2024-02-26,1,,,,,カラフルボウサイクリエイション,0
752,4011003018537,新規,0,2024-02-26,2024-02-26,Ｔｕｒｔｌｅ　Ｒｏｃｋ合同会社,,合同会社,東京都,目黒区,鷹番１丁目１５番４号,,13,110,1520004,,,,,,,2024-02-26,1,,,,,タートルロック,0
756,4011101106276,新規,0,2024-02-26,2024-02-26,Ｇｏｌｄ　Ｌｅａｆ株式会社,,株式会社,東京都,新宿区,市谷本村町３番２９号Ｅｐｏｎｏｑｕ市ヶ谷８０５号室,,13,104,1620845,,,,,,,2024-02-26,1,,,,,ゴールドリーフ,0
757,4011103014139,新規,0,2024-02-26,2024-02-26,東京音源合同会社,,合同会社,東京都,新宿区,弁天町２３番１号イグレックビル,,13,104,1620851,,,,,,,2024-02-26,1,,,,,トウキョウオンゲン,0
760,4011403004277,新規,0,2024-02-26,2024-02-26,佳順合同会社,,合同会社,東京都,板橋区,舟渡２丁目２３－７－１０１,,13,119,1740041,,,,,,,2024-02-26,1,,,,,カジュン,0
762,4011503005968,新規,0,2024-02-26,2024-02-26,龍涵合同会社,,合同会社,東京都,北区,岩淵町７番１０号,,13,117,1150041,,,,,,,2024-02-26,1,,,,,リュウカン,0
764,4011701027054,新規,0,2024-02-26,2024-02-26,グルク株式会社,,株式会社,東京都,江戸川区,江戸川１丁目３８番２－１階,,13,123,1320013,,,,,,,2024-02-26,1,,,,,グルク,0
766,4012301013790,新規,0,2024-02-26,2024-02-26,株式会社バイエフエル,,株式会社,東京都,町田市,中町１丁目２番５号ＳＨＥＬＬＭＩＹＡＫＯＶ３Ｆ,00133836,13,209,1940021,,,,,,,2024-02-26,1,,,,,バイエフエル,0
769,4012403006429,新規,0,2024-02-26,2024-02-26,ＬＩＦＥ‐Ｇ合同会社,,合同会社,東京都,武蔵野市,八幡町３丁目１番２１号,,13,203,1800011,,,,,,,2024-02-26,1,,,,,ライフジー,0
770,4012703002912,新規,0,2024-02-26,2024-02-26,合同会社デスティネ,,合同会社,東京都,西東京市,ひばりが丘１丁目１６番１５号,,13,229,2020001,,,,,,,2024-02-26,1,,,,,デスティネ,0
775,4013301052102,新規,0,2024-02-26,2024-02-26,ＩｎｎｏＨｙｖｅ株式会社,,株式会社,東京都,豊島区,巣鴨１丁目９番１号グランド東邦ビル１Ｆ,,13,116,1700002,,,,,,,2024-02-26,1,,,,,イノハイブ,0
776,4013303007013,新規,0,2024-02-26,2024-02-26,ニューライフ合同会社,,合同会社,東京都,豊島区,南大塚１丁目３７番８号,,13,116,1700005,,,,,,,2024-02-26,1,,,,,ニューライフ,0
784,4020001155944,新規,0,2024-02-26,2024-02-26,株式会社ＩＴ’Ｓ,,株式会社,神奈川県,横浜市保土ケ谷区,仏向町３１５番地,,14,106,2400044,,,,,,,2024-02-26,1,,,,,イッツ,0
788,4020003025609,新規,0,2024-02-26,2024-02-26,Ｔ．Ｍ．Ｃ．合同会社,,合同会社,神奈川県,川崎市幸区,小倉５丁目２４番２０－４号,,14,132,2120054,,,,,,,2024-02-26,1,,,,,ティーエムシー,0
789,4020005016291,新規,0,2024-02-26,2024-02-26,一般社団法人仲良く暮らす江戸のまち,,その他の設立登記法人,神奈川県,横浜市神奈川区,台町１３番地の１１,,14,102,2210834,,,,,,,2024-02-26,1,,,,,ナカヨククラスエドノマチ,0
793,4021001081536,新規,0,2024-02-26,2024-02-26,リッツホールディングス株式会社,,株式会社,神奈川県,藤沢市,鵠沼海岸７丁目１８番１４～８号,00133839,14,205,2510037,,,,,,,2024-02-26,1,,,,,リッツホールディングス,0
795,4021003014188,新規,0,2024-02-26,2024-02-26,合同会社ブルーレクト,,合同会社,神奈川県,鎌倉市,腰越３丁目３２番２８号,,14,204,2480033,,,,,,,2024-02-26,1,,,,,ブルーレクト,0
796,4021003014196,新規,0,2024-02-26,2024-02-26,ＡＹＡＡＮ　ＭＯＴＯＲＳ合同会社,,合同会社,神奈川県,愛甲郡清川村,煤ヶ谷３０６９番地の１,,14,402,2430112,,,,,,,2024-02-26,1,,,,,アヤーンモーターズ,0
804,4030001158789,新規,0,2024-02-26,2024-02-26,株式会社タマキ,,株式会社,埼玉県,草加市,弁天２丁目５番３４号コーポ恵３０５号室,,11,221,3400004,,,,,,,2024-02-26,1,,,,,タマキ,0
805,4030001158797,新規,0,2024-02-26,2024-02-26,株式会社ＦＬＥＸ,,株式会社,埼玉県,坂戸市,大字石井３４８番地４,,11,239,3500212,,,,,,,2024-02-26,1,,,,,フレックス,0
806,4030001158814,新規,0,2024-02-26,2024-02-26,株式会社田畑企画,,株式会社,埼玉県,所沢市,大字北秋津７７８番地６サンドリエ第６所沢１０５号,,11,208,3590038,,,,,,,2024-02-26,1,,,,,タバタキカク,0
807,4030001158822,新規,0,2024-02-26,2024-02-26,株式会社アシストホーム,,株式会社,埼玉県,鶴ヶ島市,大字高倉３０１番地,,11,241,3502223,,,,,,,2024-02-26,1,,,,,アシストホーム,0
808,4030001158830,新規,0,2024-02-26,2024-02-26,株式会社Ｒｅｓｉｌｉａ,,株式会社,埼玉県,三郷市,早稲田６丁目２８番地８,,11,237,3410018,,,,,,,2024-02-26,1,,,,,レジリア,0
809,4030001158839,新規,0,2024-02-26,2024-02-26,株式会社Ａ　ｓｔａｒ,,株式会社,埼玉県,川口市,戸塚２丁目２５番３１－６０２号,,11,203,3330811,,,,,,,2024-02-26,1,,,,,エースター,0
816,4030003023702,新規,0,2024-02-26,2024-02-26,ＰＵＮＪＡＢ　ＴＲＡＤＩＮＧ合同会社,,合同会社,埼玉県,加須市,花崎北１丁目１３番地１コーポ藤１－１０１号室,,11,210,3470016,,,,,,,2024-02-26,1,,,,,パンジャブトレーディング,0
817,4030003023719,新規,0,2024-02-26,2024-02-26,ＶＡ合同会社,,合同会社,埼玉県,川口市,並木４丁目２番１８－８１１号プロシード西川口,,11,203,3320034,,,,,,,2024-02-26,1,,,,,ブイエー,0
818,4030005021563,新規,0,2024-02-26,2024-02-26,一般財団法人和田財団,,その他の設立登記法人,埼玉県,さいたま市大宮区,上小町５３５番地,,11,103,3300855,,,,,,,2024-02-26,1,,,,,ワダザイダン,0
822,4040001132322,新規,0,2024-02-26,2024-02-26,株式会社ＩＴＴＯＵ,,株式会社,千葉県,市川市,妙典５丁目１３番３３号３Ｆ－１６号室,,12,203,2720111,,,,,,,2024-02-26,1,,,,,イットウ,0
823,4040001132330,新規,0,2024-02-26,2024-02-26,株式会社ラウ,,株式会社,千葉県,市川市,八幡２丁目９番１５号,,12,203,2720021,,,,,,,2024-02-26,1,,,,,ラウ,0
824,4040001132347,新規,0,2024-02-26,2024-02-26,株式会社ヤマダスリーディ,,株式会社,千葉県,船橋市,上山町３丁目５２５番地８４,,12,204,2730046,,,,,,,2024-02-26,1,,,,,ヤマダスリーディ,0
825,4040001132355,新規,0,2024-02-26,2024-02-26,株式会社バンブーグローブ,,株式会社,千葉県,千葉市若葉区,下泉町９４３番地１,,12,104,2650044,,,,,,,2024-02-26,1,,,,,バンブーグローブ,0
826,4040001132363,新規,0,2024-02-26,2024-02-26,株式会社ＥＭＫカンパニー,,株式会社,千葉県,富津市,大堀１８７６番地６,,12,226,2930001,,,,,,,2024-02-26,1,,,,,イーエムケーカンパニー,0
831,4040003024393,新規,0,2024-02-26,2024-02-26,合同会社留学ａｇｅｎｃｙ,,合同会社,千葉県,茂原市,萩原町３丁目８８番地５,,12,210,2970018,,,,,,,2024-02-26,1,,,,,リュウガクエージェンシー,0
832,4040003024402,新規,0,2024-02-26,2024-02-26,Ｆ．Ｋ．４ＲＥＡＬ合同会社,,合同会社,千葉県,柏市,南増尾５丁目８番９号,,12,217,2770054,,,,,,,2024-02-26,1,,,,,エフケーフォーリアル,0
833,4040005022296,新規,0,2024-02-26,2024-02-26,一般社団法人ワールドワイドハッピー,,その他の設立登記法人,千葉県,柏市,大島田６３８番地５,,12,217,2770922,,,,,,,2024-02-26,1,,,,,ワールドワイドハッピー,0
835,4050001054334,新規,0,2024-02-26,2024-02-26,株式会社花山,,株式会社,茨城県,石岡市,府中２丁目１番地３４,,08,205,3150013,,,,,,,2024-02-26,1,,,,,ハナヤマ,0
837,4070001004411,新規,0,2024-02-26,2024-02-26,株式会社吉野,,株式会社,群馬県,前橋市,千代田町２丁目７番１８号,,10,201,3710022,,,,,,,2024-02-26,1,,,,,ヨシノ,0
862,4120001262441,新規,0,2024-02-26,2024-02-26,スミスクラブ株式会社,,株式会社,大阪府,大阪市北区,梅田１丁目１２番１２号東京建物梅田ビル１２階,,27,127,5300001,,,,,,,2024-02-26,1,,,,,スミスクラブ,0
863,4120001262508,新規,0,2024-02-26,2024-02-26,株式会社ユナイテッド,,株式会社,大阪府,大阪市中央区,南船場３丁目２番２２号,,27,128,5420081,,,,,,,2024-02-26,1,,,,,ユナイテッド,0
864,4120001262540,新規,0,2024-02-26,2024-02-26,株式会社フェニックス,,株式会社,大阪府,大阪市住之江区,御崎６丁目９番９号－１Ｆ,,27,125,5590013,,,,,,,2024-02-26,1,,,,,フェニックス,0
865,4120001262549,新規,0,2024-02-26,2024-02-26,竹林投資株式会社,,株式会社,大阪府,大阪市北区,長柄中２丁目５番４４号,,27,127,5310062,,,,,,,2024-02-26,1,,,,,タケバヤシトウシ,0
866,4120001262573,新規,0,2024-02-26,2024-02-26,株式会社サジェスト,,株式会社,大阪府,大阪市中央区,平野町２丁目５番８号平野町センチュリービル２Ｆ２１９,,27,128,5410046,,,,,,,2024-02-26,1,,,,,サジェスト,0
867,4120001262581,新規,0,2024-02-26,2024-02-26,紀元株式会社,,株式会社,大阪府,大阪市淀川区,宮原２丁目１２番１４－７１４号,,27,123,5320003,,,,,,,2024-02-26,1,,,,,キゲン,0
871,4120003026019,新規,0,2024-02-26,2024-02-26,ＬＩＮＨ　ＴＲＡＮＧ合同会社,,合同会社,大阪府,大阪市西成区,南津守７丁目８番６号アクティー玉出３Ｂ号室,,27,122,5570063,,,,,,,2024-02-26,1,,,,,リンチャン,0
873,4120901048808,新規,0,2024-02-26,2024-02-26,株式会社Ｋ’ｓ,,株式会社,大阪府,吹田市,清水４番７－１１７号,,27,205,5650805,,,,,,,2024-02-26,1,,,,,ケーズ,0
882,4130001076353,新規,0,2024-02-26,2024-02-26,株式会社Ｌｉｆｅ　ｃｒｅａｔｉｏｎ,,株式会社,京都府,京都市伏見区,西大手町３０７－２９,,26,109,6128362,,,,,,,2024-02-26,1,,,,,ライフクリエイション,0
887,4140001133418,新規,0,2024-02-26,2024-02-26,株式会社ＫＴＸアーキラボ,,株式会社,兵庫県,姫路市,船丘町２９８番地２,,28,201,6700034,,,,,,,2024-02-26,1,,,,,ケーティーエックスアーキラボ,0
888,4140001133426,新規,0,2024-02-26,2024-02-26,株式会社Ｇｒｅｅｎ　Ｒ,,株式会社,兵庫県,神戸市長田区,寺池町３丁目２番２号,,28,106,6530804,,,,,,,2024-02-26,1,,,,,グリーンアール,0
889,4140001133434,新規,0,2024-02-26,2024-02-26,株式会社福永金属,,株式会社,兵庫県,姫路市,田寺東２丁目３３番１７号,,28,201,6700081,,,,,,,2024-02-26,1,,,,,フクナガキンゾク,0
890,4140001133442,新規,0,2024-02-26,2024-02-26,株式会社涼ライフサポート,,株式会社,兵庫県,明石市,魚住町清水５０番地の２,,28,203,6740074,,,,,,,2024-02-26,1,,,,,リョウライフサポート,0
891,4140001133450,新規,0,2024-02-26,2024-02-26,株式会社ＧＲＩＴ,,株式会社,兵庫県,神戸市兵庫区,水木通３丁目１番９号,,28,105,6520802,,,,,,,2024-02-26,1,,,,,グリット,0
894,4170001018021,新規,0,2024-02-26,2024-02-26,株式会社Ｍｉｌｏ,,株式会社,和歌山県,和歌山市,木枕１１２番地１１,,30,201,6400301,,,,,,,2024-02-26,1,,,,,マイロ,0
897,4180003026418,新規,0,2024-02-26,2024-02-26,合同会社亀井事務所,,合同会社,愛知県,名古屋市港区,千鳥２丁目１１番１５号,,23,111,4550031,,,,,,,2024-02-26,1,,,,,カメイジムショ,0
899,4180303006012,新規,0,2024-02-26,2024-02-26,合同会社ウエムラ,,合同会社,愛知県,岡崎市,城南町２丁目７番地１２,,23,202,4440835,,,,,,,2024-02-26,1,,,,,ウエムラ,0
905,4220003003684,新規,0,2024-02-26,2024-02-26,合同会社Ｒｅｃｏｒｄａｍｕ,,合同会社,石川県,金沢市,東山３丁目１１‐１０,,17,201,9200831,,,,,,,2024-02-26,1,,,,,レコードアム,0
908,4240003006553,新規,0,2024-02-26,2024-02-26,Ｂｏｎｄ合同会社,,合同会社,広島県,広島市安芸区,矢野南４丁目１５番１９号,,34,107,7360086,,,,,,,2024-02-26,1,,,,,ボンド,0
914,4260003004588,新規,0,2024-02-26,2024-02-26,合同会社ＡＮＯＮ,,合同会社,岡山県,岡山市中区,平井１１１６番地７,,33,102,7038282,,,,,,,2024-02-26,1,,,,,アノン,0
918,4290001104841,新規,0,2024-02-26,2024-02-26,株式会社コンタクトセンター・ラボ,,株式会社,福岡県,福岡市博多区,博多駅前３丁目２３番１２号博多光和ビル６階,,40,132,8120011,,,,,,,2024-02-26,1,,,,,コンタクトセンターラボ,0
925,4320001020309,新規,0,2024-02-26,2024-02-26,株式会社こはり,,株式会社,大分県,別府市,石垣東２丁目６番９号,,44,202,8740919,,,,,,,2024-02-26,1,,,,,コハリ,0
928,4330003010240,新規,0,2024-02-26,2024-02-26,合同会社三美神,,合同会社,熊本県,阿蘇郡西原村,大字小森４５９番地２,,43,432,8612402,,,,,,,2024-02-26,1,,,,,サンビシン,0
929,4340001026312,新規,0,2024-02-26,2024-02-26,株式会社ユタカ,,株式会社,鹿児島県,鹿児島市,中山町５１９０番地１,,46,201,8910105,,,,,,,2024-02-26,1,,,,,ユタカ,0
934,4360001033224,新規,0,2024-02-26,2024-02-26,株式会社ゼロワン,,株式会社,沖縄県,宜野湾市,大山４丁目３番１号,,47,205,9012223,,,,,,,2024-02-26,1,,,,,ゼロワン,0
935,4360001033232,新規,0,2024-02-26,2024-02-26,株式会社仲地建設,,株式会社,沖縄県,浦添市,西原４丁目６番６号,,47,208,9012101,,,,,,,2024-02-26,1,,,,,ナカチケンセツ,0
937,4370001050953,新規,0,2024-02-26,2024-02-26,ゼロポイントフィールド株式会社,,株式会社,宮城県,仙台市青葉区,水の森３丁目１７－２,,04,101,9810962,,,,,,,2024-02-26,1,,,,,ゼロポイントフィールド,0
949,4430003015980,新規,0,2024-02-26,2024-02-26,合同会社Ｋ’ｓ　Ｆｉｅｌｄ,,合同会社,北海道,札幌市西区,琴似四条６丁目５番２８－２０１号,,01,107,0630814,,,,,,,2024-02-26,1,,,,,ケーズフィールド,0
956,4470003002579,新規,0,2024-02-26,2024-02-26,くろか合同会社,,合同会社,香川県,三豊市,仁尾町仁尾丁１０３９番地７,,37,208,7691407,,,,,,,2024-02-26,1,,,,,クロカ,0
958,4700150123336,新規,0,2024-02-26,2024-01-16,原宿スクエア管理組合,,その他,東京都,渋谷区,神宮前６丁目３１番２１号,,13,113,1500001,,,,,,,2024-01-16,1,,,,,ハラジユクスクエアカンリクミアイ,0
959,4700150124169,新規,0,2024-02-26,2024-02-26,ＳＨＥＮＺＨＥＮ　ＧＯＬＤＳＴＡＲ　ＥＬＥＣＴＲＯＮＩＣＳ　ＣＯ．，ＬＴＤ,,外国会社等,,,,,,,,Ａ０９　Ｊｕｊｉ　Ｋｅｊｉ　ｄａｓｈａ　Ｙａｂｉａｎ　Ｘｕｅｚｉｗｅｉ　Ｂａｏａｎ　Ｄａｄａｏ　Ｂｉａｎ　Ｙａｂｉａｎ　Ｓｈｅｑｕ　Ｓｈａｊｉｎｇ　Ｓｔｒｅｅｔ　Ｂａｏａｎ　Ｓｈｅｎｚｈｅｎ，Ｇｕａｎｇｄｏｎｇ，Ｃｈｉｎａ,,,,,,2024-02-26,1,,,,,シンセンゴールドスターエレクトロニクスカンパニーリミテッド,0
960,4700150124177,新規,0,2024-02-26,2024-02-26,Ｓｈｅｎｚｈｅｎｓｈｉｄｏｎｇｓｈａｎｋｅｊｉｙｏｕｘｉａｎｚｅｒｅｎｇｏｎｇｓｉ,,外国会社等,,,,,,,,ｓｈｅｎｚｈｅｎｓｈｉｆｕｔｉａｎｑｕｈｕａｑｉａｎｇｂｅｉｊｉｅｄａｏｆｕｑｉａｎｇｓｈｅｑｕｈｕａｑｉａｎｇｂｅｉｌｕ１０７８ｈａｏｘｉａｎｄａｉｚｈｉｃｈｕａｎｇＡｚｕｏＢｚｕｏ３ｃｅｎｇ１ｈａｏ３ｃ０１,,,,,,2024-02-26,1,,,,,シンセンシドンサンカギユウゲンコウシ,0
972,5010001242585,新規,0,2024-02-26,2024-02-26,西＿印社出版社株式会社,00133847,株式会社,東京都,千代田区,平河町２丁目５番５号全国旅館会館３０２号室,,13,101,1020093,,,,,,,2024-02-26,1,,,,,セイレイインシャシュッパンシャ,0
975,5010005037940,新規,0,2024-02-26,2024-02-26,ＮＩＨＯＮＢＡＳＨＩ８一般社団法人,,その他の設立登記法人,東京都,千代田区,丸の内３丁目１番１号東京共同会計事務所内,,13,101,1000005,,,,,,,2024-02-26,1,,,,,ニホンバシエイト,0
981,5010401180534,新規,0,2024-02-26,2024-02-26,株式会社ｓｅｋｕｒａｂｅ,,株式会社,東京都,港区,南青山１丁目２４－３,,13,103,1070062,,,,,,,2024-02-26,1,,,,,セクラベ,0
988,5010405022988,新規,0,2024-02-26,2024-02-26,一般社団法人Ｓｏｎ‐Ｔｉｎｈ,,その他の設立登記法人,東京都,港区,虎ノ門１丁目１番１８号ヒューリック虎ノ門ビル９階Ｌ＆Ｐ司法書士法人内,,13,103,1050001,,,,,,,2024-02-26,1,,,,,ソンティン,0
991,5010501051841,新規,0,2024-02-26,2024-02-26,株式会社Ａ‐ＭＩＮＡ,,株式会社,東京都,台東区,根岸５丁目７－９協和２階,,13,106,1100003,,,,,,,2024-02-26,1,,,,,アミナ,0
997,5010601064710,新規,0,2024-02-26,2024-02-26,株式会社ｋｙ’ｓ,,株式会社,東京都,墨田区,緑１丁目２０番６号１Ｆ,,13,107,1300021,,,,,,,2024-02-26,1,,,,,ケイズ,0
999,5010603010670,新規,0,2024-02-26,2024-02-26,合同会社ＧｒｅｅｎＴｅｃｈ,,合同会社,東京都,墨田区,業平４丁目１番１４号,,13,107,1300002,,,,,,,2024-02-26,1,,,,,グリーンテック,0
1001,5010703007063,新規,0,2024-02-26,2024-02-26,合同会社ヒロタカ,,合同会社,東京都,品川区,西五反田２丁目１０番８－３０６号,,13,109,1410031,,,,,,,2024-02-26,1,,,,,ヒロタカ,0
1003,5010803004860,新規,0,2024-02-26,2024-02-26,合同会社ケアキー,,合同会社,東京都,大田区,大森北６丁目２０－４オークＩＴＯ１０３,,13,111,1430016,,,,,,,2024-02-26,1,,,,,ケアキー,0
1005,5010901054766,新規,0,2024-02-26,2024-02-26,株式会社ぽらりす,,株式会社,東京都,世田谷区,代田４丁目２８番１０号,,13,112,1550033,,,,,,,2024-02-26,1,,,,,ポラリス,0
1014,5011301029433,新規,0,2024-02-26,2024-02-26,株式会社くじめどう,,株式会社,東京都,杉並区,善福寺４丁目１３番５号,,13,115,1670041,,,,,,,2024-02-26,1,,,,,クジメドウ,0
1019,5011801043826,新規,0,2024-02-26,2024-02-26,パーキングドクター株式会社,,株式会社,東京都,葛飾区,青戸８丁目２番１１号１０１,,13,122,1250062,,,,,,,2024-02-26,1,,,,,パーキングドクター,0
1020,5011801043834,新規,0,2024-02-26,2024-02-26,エタニティライン株式会社,,株式会社,東京都,葛飾区,青戸７丁目３２番３－１９０５号,,13,122,1250062,,,,,,,2024-02-26,1,,,,,エタニティライン,0
1023,5012401041559,新規,0,2024-02-26,2024-02-26,株式会社将千,,株式会社,東京都,多摩市,永山３丁目２２番地の１ガーデンホーム多摩永山６０１,,13,224,2060025,,,,,,,2024-02-26,1,,,,,ショウセン,0
1026,5012701018100,新規,0,2024-02-26,2024-02-26,ＤＯ　Ｏｎｅ株式会社,,株式会社,東京都,東久留米市,本町１丁目１１番１号,,13,222,2030053,,,,,,,2024-02-26,1,,,,,ドゥワン,0
1027,5012803003322,新規,0,2024-02-26,2024-02-26,エスト合同会社,,合同会社,東京都,立川市,上砂町５丁目８番地の２－３０７号,,13,202,1900032,,,,,,,2024-02-26,1,,,,,エスト,0
1033,5020001155919,新規,0,2024-02-26,2024-02-26,株式会社ＨＡＣＬＯ,,株式会社,神奈川県,川崎市宮前区,鷺沼３丁目１２番地３８,,14,136,2160004,,,,,,,2024-02-26,1,,,,,ハクロ,0
1034,5020001155927,新規,0,2024-02-26,2024-02-26,ｈｕＭｅｄ株式会社,,株式会社,神奈川県,横浜市磯子区,洋光台３丁目４０番７号,,14,107,2350045,,,,,,,2024-02-26,1,,,,,ヒューメド,0
1035,5020001155935,新規,0,2024-02-26,2024-02-26,雲藝坊商事株式会社,,株式会社,神奈川県,横浜市神奈川区,神之木町二丁目４番３０５号,,14,102,2210015,,,,,,,2024-02-26,1,,,,,,0
1036,5020001155943,新規,0,2024-02-26,2024-02-26,株式会社ブリッジシールズ,,株式会社,神奈川県,横浜市西区,北幸１丁目１１番１５号横浜ＳＴビル１１階,,14,103,2200004,,,,,,,2024-02-26,1,,,,,ブリッジシールズ,0
1039,5020003025608,新規,0,2024-02-26,2024-02-26,Ｓａｆａｒｉ　Ｓｙｓｔｅｍｓ　Ｊａｐａｎ合同会社,,合同会社,神奈川県,横浜市青葉区,あざみ野２丁目８番地２６,,14,117,2250011,,,,,,,2024-02-26,1,,,,,サファリシステムズジャパン,0
1048,5030003023692,新規,0,2024-02-26,2024-02-26,ＡＧＬ合同会社,,合同会社,埼玉県,比企郡滑川町,大字羽尾３７００番地７,,11,341,3550811,,,,,,,2024-02-26,1,,,,,エージーエル,0
1050,5040001132296,新規,0,2024-02-26,2024-02-26,＿田株式会社,00133844,株式会社,千葉県,松戸市,古ケ崎２丁目３２５８番地の１,,12,207,2710068,,,,,,,2024-02-26,1,,,,,ゲタ,0
1051,5040001132370,新規,0,2024-02-26,2024-02-26,三研工業株式会社,,株式会社,千葉県,千葉市緑区,おゆみ野６丁目１９番地１ツインエステートＡ－１０２号,,12,105,2660031,,,,,,,2024-02-26,1,,,,,サンケンコウギョウ,0
1052,5040001132387,新規,0,2024-02-26,2024-02-26,株式会社ホテルサンモール,,株式会社,千葉県,旭市,二の２３６番地１,,12,215,2892500,,,,,,,2024-02-26,1,,,,,ホテルサンモール,0
1058,5050001054341,新規,0,2024-02-26,2024-02-26,株式会社グローバルシー磯崎,,株式会社,茨城県,土浦市,永国２８番地,,08,203,3000817,,,,,,,2024-02-26,1,,,,,グローバルシーイソザキ,0
1061,5060003004921,新規,0,2024-02-26,2024-02-26,ＮＩＰＰＯＮ　ＧＬＯＢＡＬ　ＴＲＡＤＩＮＧ合同会社,,合同会社,栃木県,足利市,大前町２４３－３ＭＩＫＩハウス天神前Ｃ１０２,,09,202,3260845,,,,,,,2024-02-26,1,,,,,ニッポングローバルトレーディング,0
1063,5070001041429,新規,0,2024-02-26,2024-02-26,株式会社Ｎａｒａ　Ａｃｃｏｕｎｔｉｎｇ　Ｏｆｆｉｃｅ,,株式会社,群馬県,前橋市,天川大島町１０８３番地３,,10,201,3792154,,,,,,,2024-02-26,1,,,,,ナラアカウティングオフィス,0
1069,5080401027027,新規,0,2024-02-26,2024-02-26,株式会社ＲＩＣＨ　ＡＬＬ,,株式会社,静岡県,浜松市浜名区,小林１５８１番地の７,,22,139,4340031,,,,,,,2024-02-26,1,,,,,リッチオール,0
1070,5090003002501,新規,0,2024-02-26,2024-02-26,合同会社Ｂａｎｄｅ　Ｂｒｅｗｉｎｇ,,合同会社,山梨県,南巨摩郡身延町,飯富３００－１０,,19,365,4093423,,,,,,,2024-02-26,1,,,,,バンデブリューイング,0
1074,5100001037233,新規,0,2024-02-26,2024-02-26,株式会社コネクト松本,,株式会社,長野県,下高井郡山ノ内町,大字夜間瀬１０６４４番地２,,20,561,3810405,,,,,,,2024-02-26,1,,,,,コネクトマツモト,0
1076,5110003005303,新規,0,2024-02-26,2024-02-26,アナハイムエンジニアリング合同会社,,合同会社,新潟県,新潟市西区,真砂２丁目２１番５３号,,15,107,9502074,,,,,,,2024-02-26,1,,,,,アナハイムエンジニアリング,0
1087,5120001262548,新規,0,2024-02-26,2024-02-26,百徳株式会社,00133848,株式会社,大阪府,大阪市都島区,都島北通１丁目１番４－３０４号,,27,102,5340014,,,,,,,2024-02-26,1,,,,,ヒャクトク,0
1088,5120001262556,新規,0,2024-02-26,2024-02-26,株式会社コンパス,,株式会社,大阪府,大阪市淀川区,西中島５丁目１－８日研ビル１００３号室,,27,123,5320011,,,,,,,2024-02-26,1,,,,,コンパス,0
1089,5120001262580,新規,0,2024-02-26,2024-02-26,株式会社ＪＯＹ　ＬＩＦＥ,,株式会社,大阪府,大阪市北区,曾根崎新地１丁目６番１３号ニューセントラルビル３Ｆ,,27,127,5300002,,,,,,,2024-02-26,1,,,,,ジョイライフ,0
1090,5120001262597,新規,0,2024-02-26,2024-02-26,株式会社９２Ｂ・Ｃ,,株式会社,大阪府,大阪市淀川区,三津屋北２丁目１０番２１－７０６号,,27,123,5320032,,,,,,,2024-02-26,1,,,,,キュウジュウニビードットシー,0
1091,5120001262622,新規,0,2024-02-26,2024-02-26,株式会社Ｊパートナーズ,,株式会社,大阪府,大阪市北区,梅田２丁目２番２号ヒルトンプラザウエストオフィスタワー１９階,,27,127,5300001,,,,,,,2024-02-26,1,,,,,ジェイパートナーズ,0
1093,5120003025754,新規,0,2024-02-26,2024-02-26,ｏｒｉｇｉＮ合同会社,,合同会社,大阪府,大阪市北区,中津１丁目１７番１２－６０１号,,27,127,5310071,,,,,,,2024-02-26,1,,,,,オリジン,0
1094,5120003026026,新規,0,2024-02-26,2024-02-26,合同会社Ｆｌｏｗｅｒ,,合同会社,大阪府,守口市,八雲東町２丁目２０番１１－２０２号,,27,209,5700021,,,,,,,2024-02-26,1,,,,,フラワー,0
1095,5120005024176,新規,0,2024-02-26,2024-02-26,弁理士法人桜フロンティア,,その他の設立登記法人,大阪府,大阪市中央区,北浜１丁目１番２７号,,27,128,5410041,,,,,,,2024-02-26,1,,,,,サクラフロンティア,0
1102,5120103005697,新規,0,2024-02-26,2024-02-26,ＫＭＣ　ＧＲＯＵＰ合同会社,,合同会社,大阪府,藤井寺市,林５丁目６番１６号,,27,226,5830007,,,,,,,2024-02-26,1,,,,,ケイエムシーグループ,0
1105,5120901048798,新規,0,2024-02-26,2024-02-26,株式会社三森,,株式会社,大阪府,茨木市,西福井４丁目３番１２号,,27,211,5670067,,,,,,,2024-02-26,1,,,,,ミツモリ,0
1111,5130003009319,新規,0,2024-02-26,2024-02-26,虹色工房合同会社,,合同会社,京都府,京都市東山区,竹村町１５２－１－４０１室,,26,105,6050845,,,,,,,2024-02-26,1,,,,,ニジイロコウボウ,0
1119,5140001133359,新規,0,2024-02-26,2024-02-26,神岡西営農株式会社,,株式会社,兵庫県,たつの市,神岡町大住寺６４５番地,,28,229,6794108,,,,,,,2024-02-26,1,,,,,カミオカニシエイノウ,0
1120,5140001133417,新規,0,2024-02-26,2024-02-26,株式会社メディエンス,,株式会社,兵庫県,西宮市,東山台２丁目３３番地１,,28,204,6691133,,,,,,,2024-02-26,1,,,,,メディエンス,0
1121,5140001133425,新規,0,2024-02-26,2024-02-26,株式会社Ｅａｒｔｈ　Ｆａｃｔｏｒ,,株式会社,兵庫県,神戸市北区,山田町下谷上字六地蔵８番地の２,,28,109,6511243,,,,,,,2024-02-26,1,,,,,アースファクター,0
1122,5140001133441,新規,0,2024-02-26,2024-02-26,株式会社ＡＰＯＧＥＥ,,株式会社,兵庫県,姫路市,飾磨区阿成１－１ＯＡＦＬＡＴ５０５,,28,201,6728037,,,,,,,2024-02-26,1,,,,,アポジェ,0
1123,5140003020191,新規,0,2024-02-26,2024-02-26,合同会社清空,,合同会社,兵庫県,西宮市,山口町下山口１丁目５番３５号,,28,204,6511412,,,,,,,2024-02-26,1,,,,,キヨタカ,0
1125,5150001027097,新規,0,2024-02-26,2024-02-26,ＰＷＲ企画株式会社,,株式会社,奈良県,北葛城郡上牧町,大字上牧３０４５番地１,,29,424,6390214,,,,,,,2024-02-26,1,,,,,パワーキカク,0
1129,5180001160192,新規,0,2024-02-26,2024-02-26,株式会社ノンフィクション,,株式会社,愛知県,一宮市,浅井町小日比野字大萩１０１３番地５,,23,203,4910104,,,,,,,2024-02-26,1,,,,,ノンフィクション,0
1131,5180003026400,新規,0,2024-02-26,2024-02-26,合同会社Ｌｖｎｄ,,合同会社,愛知県,名古屋市西区,坂井戸町１６６番地,,23,104,4520804,,,,,,,2024-02-26,1,,,,,ラヴァンダ,0
1134,5180301038345,新規,0,2024-02-26,2024-02-26,カラフルウォレット株式会社,,株式会社,愛知県,蒲郡市,丸山町２－１２,,23,214,4430032,,,,,,,2024-02-26,1,,,,,カラフルウォレット,0
1138,5190001031129,新規,0,2024-02-26,2024-02-26,株式会社ＭＥＢＵＫＵ,,株式会社,三重県,津市,柳山津興１４７４番地１,,24,201,5140803,,,,,,,2024-02-26,1,,,,,メブク,0
1142,5220003003683,新規,0,2024-02-26,2024-02-26,合同会社Ｋ,,合同会社,石川県,金沢市,増泉１丁目４１番２２号スマイルスプリーム・１０３号,,17,201,9218025,,,,,,,2024-02-26,1,,,,,ケイ,0
1143,5230001020226,新規,0,2024-02-26,2024-02-26,株式会社ピアフーズ,,株式会社,富山県,富山市,太郎丸西町２丁目６番地１２,,16,201,9398271,,,,,,,2024-02-26,1,,,,,ピアフーズ,0
1145,5230005009364,新規,0,2024-02-26,2024-02-26,一般社団法人富山県地域おこし協力隊ネットワーク,,その他の設立登記法人,富山県,富山市,鵯島１７４１番地１サーパス五福４０１,,16,201,9300885,,,,,,,2024-02-26,1,,,,,トヤマケンチイキオコシキョウリョクタイネットワーク,0
1150,5240001062820,新規,0,2024-02-26,2024-02-26,株式会社Ｆｉｒｓｔ,,株式会社,広島県,広島市安佐南区,伴東１丁目２８番１９号,,34,105,7313164,,,,,,,2024-02-26,1,,,,,ファースト,0
1163,5290001104832,新規,0,2024-02-26,2024-02-26,株式会社リブロング,,株式会社,福岡県,福岡市中央区,天神２丁目３番１０号天神パインクレスト７１９号,,40,133,8100001,,,,,,,2024-02-26,1,,,,,リブロング,0
1165,5290003014996,新規,0,2024-02-26,2024-02-26,合同会社ＬＵＣＫＹ　ＴＲＡＤＩＮＧ,,合同会社,福岡県,福岡市博多区,月隈２丁目２３番１号,,40,132,8120858,,,,,,,2024-02-26,1,,,,,ラッキートレーディング,0
1168,5290805009715,新規,0,2024-02-26,2024-02-26,一般社団法人Ｒｅｇｉｏｎａｌ　Ｃｏｍｍｏｎｓ,,その他の設立登記法人,福岡県,北九州市小倉北区,馬借１丁目５番２５号ホラヤビル４Ｆ,,40,106,8020077,,,,,,,2024-02-26,1,,,,,リージョナルコモンズ,0
1178,5330003010231,新規,0,2024-02-26,2024-02-26,合同会社熊本ホームテック,,合同会社,熊本県,上益城郡甲佐町,大字上揚３４３番地,,43,444,8614631,,,,,,,2024-02-26,1,,,,,クマモトホームテック,0
1181,5340001026311,新規,0,2024-02-26,2024-02-26,株式会社エスピーブレインズ,,株式会社,鹿児島県,鹿児島市,平之町５番１５号,,46,201,8920848,,,,,,,2024-02-26,1,,,,,エスピーブレインズ,0
1191,5420001018606,新規,0,2024-02-26,2024-02-26,株式会社ビスター,,株式会社,青森県,青森市,筒井４丁目８番１９号,,02,201,0300944,,,,,,,2024-02-26,1,,,,,ビスター,0
1194,5430001091131,新規,0,2024-02-26,2024-02-26,株式会社成実,,株式会社,北海道,札幌市中央区,南八条西４丁目４２２番地オリエンタルエミネンス５１２号室,,01,101,0640808,,,,,,,2024-02-26,1,,,,,ナリミ,0
1195,5430001091148,新規,0,2024-02-26,2024-02-26,株式会社ＶＩＡＵＲＡ,,株式会社,北海道,札幌市中央区,南五条西１丁目１－２３北一ビル４Ｆ,,01,101,0640805,,,,,,,2024-02-26,1,,,,,ヴィオーラ,0
1196,5430001091164,新規,0,2024-02-26,2024-02-26,株式会社三幸ホーム,,株式会社,北海道,札幌市豊平区,月寒東三条１５丁目５番４号,,01,105,0620053,,,,,,,2024-02-26,1,,,,,サンコウホーム,0
1201,5430003015988,新規,0,2024-02-26,2024-02-26,合同会社大象,,合同会社,北海道,札幌市西区,福井４丁目１７番８号,,01,107,0630012,,,,,,,2024-02-26,1,,,,,ダイショウ,0
1202,5430005014897,新規,0,2024-02-26,2024-02-26,一般社団法人ＦＰＰ,,その他の設立登記法人,北海道,札幌市中央区,南九条西１１丁目１番５号ｓｔｅｌｌａ９１１　３階,,01,101,0640809,,,,,,,2024-02-26,1,,,,,エフピーピー,0
1204,5462501000980,新規,0,2024-02-26,2024-02-26,中標津トラクターサービス株式会社,,株式会社,北海道,標津郡中標津町,川西２丁目２５番地３,,01,692,0861151,,,,,,,2024-02-26,1,,,,,ナカシベツトラクターサービス,0
1216,5700150124168,新規,0,2024-02-26,2024-02-26,ＤｏｎｇＧｕａｎＳｈｉＬｉｎＮａＭａｏＹｉＹｏｕＸｉａｎＧｏｎｇＳｉ,,外国会社等,,,,,,,,ＧｕａｎｇＤｏｎｇＳｈｅｎｇＤｏｎｇＧｕａｎＳｈｉＨｕＭｅｎＺｈｅｎＤｏｎｇＦｅｎｇＮａｎＳｈｅＬｕＹｉＸｉａｎｇ１１Ｈａｏ５０２Ｆａｎｇ,,,,,,2024-02-26,1,,,,,トウカンシリンナボウエキユウゲンコウシ,0
1217,5700150124176,新規,0,2024-02-26,2024-02-26,Ｆｏｓｈａｎｓｈｉ　Ｊｉａｆｅｉ　Ｊｉａｊｕ　Ｙｏｎｇｐｉｎ　ＣＯ．，ＬＴＤ,,外国会社等,,,,,,,,Ｎａｎｈａｉｑｕ　Ｄａｎｚａｏｚｈｅｎ　Ｈｕａｎａｎ　Ｗｕｊｉｎ　Ｃｈａｎｙｅ　Ｊｉｄｉ　Ｙｉｎｇｊｉｎ　Ｅｒｌｕ　３ｈａｏ　１　Ｄｏｎｇ　Ｂａｎｇｏｎｇｌｏｕ　Ｅｒｌｏｕ　１Ｓｈｉ　Ｆｏｓｈａｎ　ｃｉｔｙ,,,,,,2024-02-26,1,,,,,ブッザンシジアフェイジャジュヨンピンカンパニーリミテッド,0
1223,6010001242527,新規,0,2024-02-26,2024-02-26,株式会社旭龍商社,,株式会社,東京都,千代田区,神田神保町２丁目２１番地２パレステュディオ神田神保町３０３,,13,101,1010051,,,,,,,2024-02-26,1,,,,,アサリュウショウシャ,0
1224,6010001242543,新規,0,2024-02-26,2024-02-26,ＨＵＧ株式会社,,株式会社,東京都,文京区,千駄木３丁目４２番１５号,,13,105,1130022,,,,,,,2024-02-26,1,,,,,ハグ,0
1225,6010001242551,新規,0,2024-02-26,2024-02-26,株式会社ＡＴＭＹ,,株式会社,東京都,千代田区,九段南１丁目５番６号りそな九段ビル５階ＫＳフロア,,13,101,1020074,,,,,,,2024-02-26,1,,,,,アトミィ,0
1226,6010001242576,新規,0,2024-02-26,2024-02-26,株式会社パリィ,,株式会社,東京都,千代田区,神田司町２丁目６番地６号丸正ビル４０１号,,13,101,1010048,,,,,,,2024-02-26,1,,,,,パリィ,0
1231,6010003042999,新規,0,2024-02-26,2024-02-26,ＴＲＥＦＬＥ合同会社,,合同会社,東京都,千代田区,神田神保町３丁目１１番１号,,13,101,1010051,,,,,,,2024-02-26,1,,,,,トレーフル,0
1232,6010003043007,新規,0,2024-02-26,2024-02-26,ミュゼインターナショナル合同会社,,合同会社,東京都,中央区,銀座７丁目１６番２１号銀座木挽ビル４階,,13,102,1040061,,,,,,,2024-02-26,1,,,,,ミュゼインターナショナル,0
1243,6010401180632,新規,0,2024-02-26,2024-02-26,株式会社アイシー,,株式会社,東京都,港区,麻布十番１丁目３番９号ＴＢＣ麻布３０６号室,,13,103,1060045,,,,,,,2024-02-26,1,,,,,アイシー,0
1244,6010401180640,新規,0,2024-02-26,2024-02-26,株式会社Ｔｒｅａｓｕｒｅ,,株式会社,東京都,港区,浜松町２丁目２番１５号浜松町ダイヤビル２Ｆ,,13,103,1050013,,,,,,,2024-02-26,1,,,,,トレジャー,0
1245,6010403032014,新規,0,2024-02-26,2024-02-26,合同会社黒木コーポレーション,,合同会社,東京都,港区,白金１丁目２５番１１－１６０８号,,13,103,1080072,,,,,,,2024-02-26,1,,,,,クロキコーポレーション,0
1246,6010403032047,新規,0,2024-02-26,2024-02-26,Ｇｒｏｗ　ｕｐ合同会社,,合同会社,東京都,港区,六本木７丁目１８番５号,,13,103,1060032,,,,,,,2024-02-26,1,,,,,グローアップ,0
1257,6010901054781,新規,0,2024-02-26,2024-02-26,株式会社Ｆｒｅｅｅ　Ｓｔｙｌｅ,,株式会社,東京都,世田谷区,等々力６丁目５－４わびさびハウス自由ヶ丘ＳＥ４,,13,112,1580082,,,,,,,2024-02-26,1,,,,,フリースタイル,0
1265,6011001160231,新規,0,2024-02-26,2024-02-26,Ａｑｕａｐｏｎｉｃｓ　Ｄｅｓｉｇｎ株式会社,,株式会社,東京都,渋谷区,道玄坂１丁目１０番８号渋谷道玄坂東急ビル２Ｆ－Ｃ,,13,113,1500043,,,,,,,2024-02-26,1,,,,,アクアポニックスデザイン,0
1269,6011003018551,新規,0,2024-02-26,2024-02-26,合同会社ＭＳ　Ｃｒｅａｔｅｓ,,合同会社,東京都,渋谷区,道玄坂１丁目１０番８号,,13,113,1500043,,,,,,,2024-02-26,1,,,,,エムエスクリエイツ,0
1270,6011005010382,新規,0,2024-02-26,2024-02-26,一般社団法人英治出版をつなぐ会,,その他の設立登記法人,東京都,渋谷区,恵比寿南１丁目９番１２号ピトレスクビル４階,,13,113,1500022,,,,,,,2024-02-26,1,,,,,エイジシュッパンヲツナグカイ,0
1280,6012301013789,新規,0,2024-02-26,2024-02-26,株式会社誠品,,株式会社,東京都,町田市,原町田２丁目１－１４イニシア町田６０４,,13,209,1940013,,,,,,,2024-02-26,1,,,,,セイヒン,0
1285,6012801022983,新規,0,2024-02-26,2024-02-26,株式会社ＲＥ　ＰＲＯＤＵＣＴＳ　ＴＯＫＹＯ,,株式会社,東京都,国立市,西１丁目７番地の７６,,13,215,1860005,,,,,,,2024-02-26,1,,,,,リプロダクツトウキョウ,0
1288,6013303007011,新規,0,2024-02-26,2024-02-26,ＭＫＭＵＬＴＩＰＵＲＰＯＳＥＳ合同会社,,合同会社,東京都,豊島区,池袋４丁目１番１１号エージヤマダ４０１号,,13,116,1710014,,,,,,,2024-02-26,1,,,,,エムケーマルチパルポゼズ,0
1294,6020001155918,新規,0,2024-02-26,2024-02-26,株式会社匠甲斐,,株式会社,神奈川県,横浜市戸塚区,平戸２丁目１０番７号,,14,110,2440802,,,,,,,2024-02-26,1,,,,,タクミカイ,0
1295,6020001155934,新規,0,2024-02-26,2024-02-26,株式会社東亜興機,,株式会社,神奈川県,横浜市保土ケ谷区,仏向町１１４７番地７ビューテラス橘２０７号,,14,106,2400044,,,,,,,2024-02-26,1,,,,,,0
1296,6020001155942,新規,0,2024-02-26,2024-02-26,株式会社アイオネクト,,株式会社,神奈川県,横浜市港北区,新横浜１丁目２２－２－２０１,,14,109,2220033,,,,,,,2024-02-26,1,,,,,アイオネクト,0
1303,6021001081542,新規,0,2024-02-26,2024-02-26,ｙ‐ｔｅｃ株式会社,,株式会社,神奈川県,平塚市,平塚５丁目２３番７号１階,,14,203,2540052,,,,,,,2024-02-26,1,,,,,ワイテック,0
1304,6021001081550,新規,0,2024-02-26,2024-02-26,エスワイラボ株式会社,,株式会社,神奈川県,藤沢市,南藤沢７番２号沢滝ビル２Ｆ,,14,205,2510055,,,,,,,2024-02-26,1,,,,,エスワイラボ,0
1312,6030001158795,新規,0,2024-02-26,2024-02-26,株式会社ＧＲＡＴＥＦＵＬＤＡＹＳ,,株式会社,埼玉県,川口市,本町３丁目１０番１６－２号,,11,203,3320012,,,,,,,2024-02-26,1,,,,,グレイトフルデイズ,0
1313,6030001158804,新規,0,2024-02-26,2024-02-26,クラフル株式会社,,株式会社,埼玉県,吉川市,美南２丁目１３番２２号,,11,243,3420038,,,,,,,2024-02-26,1,,,,,クラフル,0
1314,6030001158820,新規,0,2024-02-26,2024-02-26,株式会社天翔屋,,株式会社,埼玉県,川口市,西川口１丁目３５番７－７０３号,,11,203,3320021,,,,,,,2024-02-26,1,,,,,テンショウヤ,0
1315,6030001158829,新規,0,2024-02-26,2024-02-26,マルフクエンターテインメント株式会社,,株式会社,埼玉県,草加市,弁天２丁目２１番７号,,11,221,3400004,,,,,,,2024-02-26,1,,,,,マルフクエンターテインメント,0
1316,6030001158837,新規,0,2024-02-26,2024-02-26,俊茗商事株式会社,,株式会社,埼玉県,川口市,中青木３丁目１０番３３－５号,,11,203,3320032,,,,,,,2024-02-26,1,,,,,シュンメイショウジ,0
1317,6030001158853,新規,0,2024-02-26,2024-02-26,福田株式会社,,株式会社,埼玉県,川口市,並木２丁目４番１７－６０３号コスモ川口並木町北公園,,11,203,3320034,,,,,,,2024-02-26,1,,,,,フクダ,0
1322,6030003023683,新規,0,2024-02-26,2024-02-26,合同会社Ｒｅｌａｔｉｏｎｓ,,合同会社,埼玉県,川越市,霞ケ関東１丁目１４－１３,,11,201,3501103,,,,,,,2024-02-26,1,,,,,リレーションズ,0
1323,6030005021561,新規,0,2024-02-26,2024-02-26,一般社団法人日本越境ＥＣ振興協会,,その他の設立登記法人,埼玉県,草加市,北谷２丁目１番３号,,11,221,3400046,,,,,,,2024-02-26,1,,,,,ニホンエッキョウイーシーシンコウキョウカイ,0
1326,6040001132320,新規,0,2024-02-26,2024-02-26,株式会社Ｆｅｒｖｏｒ,,株式会社,千葉県,船橋市,行田１丁目５０番２１号,,12,204,2730044,,,,,,,2024-02-26,1,,,,,ファーバー,0
1327,6040001132345,新規,0,2024-02-26,2024-02-26,Ｒｅｉ　Ｃａｐｉｔａｌ　Ｉｎｖｅｓｔｍｅｎｔ株式会社,,株式会社,千葉県,市川市,鬼高３丁目６番１７号１１３室,,12,203,2720015,,,,,,,2024-02-26,1,,,,,レイキャピタルインベストメント,0
1330,6050001054340,新規,0,2024-02-26,2024-02-26,株式会社弥生レッカー,,株式会社,茨城県,稲敷郡美浦村,大字土屋３１２７番地６３,,08,442,3000426,,,,,,,2024-02-26,1,,,,,ヤヨイレッカー,0
1331,6050001054349,新規,0,2024-02-26,2024-02-26,株式会社ユーアイ,,株式会社,茨城県,下妻市,高道祖４２１９－５０,,08,210,3040031,,,,,,,2024-02-26,1,,,,,ユーアイ,0
1332,6060003004920,新規,0,2024-02-26,2024-02-26,Ｉｎｆｉｎｉｔｙ　Ｍｏｔｏｒｓ合同会社,,合同会社,栃木県,足利市,鹿島町３２９番地２鶴貝ハイツ２－２０３,,09,202,3260844,,,,,,,2024-02-26,1,,,,,インフィニティモータース,0
1333,6060003004929,新規,0,2024-02-26,2024-02-26,ＨＳアライブ合同会社,,合同会社,栃木県,足利市,南大町１１５１－６,,09,202,3260836,,,,,,,2024-02-26,1,,,,,エイチエスアライブ,0
1334,6070001041436,新規,0,2024-02-26,2024-02-26,株式会社ＡＲＫ　ＺＯＯ,,株式会社,群馬県,高崎市,中紺屋町３７ＨＵＢｉｚＴＡＫＡＳＡＫＩ３Ｆ,,10,202,3700823,,,,,,,2024-02-26,1,,,,,アークズー,0
1338,6070003005281,新規,0,2024-02-26,2024-02-26,合同会社ＴＳ,,合同会社,群馬県,前橋市,千代田町４丁目１０番３号プランタン前橋２Ｆ,,10,201,3710022,,,,,,,2024-02-26,1,,,,,テイーエス,0
1340,6080101024554,新規,0,2024-02-26,2024-02-26,静英株式会社,,株式会社,静岡県,沼津市,平沼８３３番地の１,,22,203,4100318,,,,,,,2024-02-26,1,,,,,セイエイ,0
1347,6100001037240,新規,0,2024-02-26,2024-02-26,株式会社佐久リゾート不動産,,株式会社,長野県,佐久市,東立科１７３０番地うぐいすの森Ｂ－２７８,,20,217,3850063,,,,,,,2024-02-26,1,,,,,サクリゾートフドウサン,0
1349,6100003007415,新規,0,2024-02-26,2024-02-26,合同会社リクゼン,,合同会社,長野県,長野市,稲里町中氷鉋１０６１番地９,,20,201,3812215,,,,,,,2024-02-26,1,,,,,リクゼン,0
1350,6110005017056,新規,0,2024-02-26,2024-02-26,一般財団法人一正やまびこ財団,,その他の設立登記法人,新潟県,新潟市東区,津島屋７丁目７７番地,,15,102,9500801,,,,,,,2024-02-26,1,,,,,イチマサヤマビコザイダン,0
1357,6120001262415,新規,0,2024-02-26,2024-02-26,豊楽株式会社,,株式会社,大阪府,大阪市中央区,南船場３丁目７番３２号,,27,128,5420081,,,,,,,2024-02-26,1,,,,,ホウラク,0
1358,6120001262547,新規,0,2024-02-26,2024-02-26,信和株式会社,,株式会社,大阪府,大阪市浪速区,難波中２丁目８－７０－３Ｆ,,27,111,5560011,,,,,,,2024-02-26,1,,,,,シンワ,0
1359,6120001262563,新規,0,2024-02-26,2024-02-26,ＶＥＣＴＯＲ株式会社,,株式会社,大阪府,大阪市中央区,東心斎橋１丁目４番２０－６０３号ＨＦ東心斎橋レジデンス,,27,128,5420083,,,,,,,2024-02-26,1,,,,,ベクター,0
1360,6120001262596,新規,0,2024-02-26,2024-02-26,株式会社ＴＴＰ,,株式会社,大阪府,大阪市中央区,安堂寺町２丁目１－１５－２０２,,27,128,5420061,,,,,,,2024-02-26,1,,,,,ティーティーピー,0
1361,6120001262613,新規,0,2024-02-26,2024-02-26,ＤＲＥＩ株式会社,,株式会社,大阪府,枚方市,藤阪東町２丁目１２番１号Ｓ－ＢＡＳＥ長尾１０１,,27,210,5730153,,,,,,,2024-02-26,1,,,,,ドライ,0
1363,6120003025976,新規,0,2024-02-26,2024-02-26,合同会社本庄ＪＳＮ,,合同会社,大阪府,大阪市北区,本庄西３丁目４－９－９０２,,27,127,5310073,,,,,,,2024-02-26,1,,,,,ホンジョウジェイエスエヌ,0
1364,6120103005696,新規,0,2024-02-26,2024-02-26,合同会社パラレル,,合同会社,大阪府,藤井寺市,林５丁目８番２０－２０６号,,27,226,5830007,,,,,,,2024-02-26,1,,,,,パラレル,0
1369,6120901048806,新規,0,2024-02-26,2024-02-26,エイジアン・キャリア・サポート株式会社,,株式会社,大阪府,池田市,旭丘１丁目２番２５号,,27,204,5630022,,,,,,,2024-02-26,1,,,,,エイジアンキャリアサポート,0
1371,6120903005061,新規,0,2024-02-26,2024-02-26,Ｍ＆Ｍ合同会社,,合同会社,大阪府,豊中市,東豊中町６丁目１０番３２の１号,,27,203,5600003,,,,,,,2024-02-26,1,,,,,エムアンドエム,0
1379,6130001076418,新規,0,2024-02-26,2024-02-26,株式会社癒笑健明,,株式会社,京都府,八幡市,美濃山ヒル塚２５番地の６５,00133838,26,210,6148271,,,,,,,2024-02-26,1,,,,,イッショウケンメイ,0
1383,6140001133432,新規,0,2024-02-26,2024-02-26,セイナ技建株式会社,,株式会社,兵庫県,神戸市北区,君影町４丁目７番１６号,,28,109,6511122,,,,,,,2024-02-26,1,,,,,セイナギケン,0
1384,6140001133473,新規,0,2024-02-26,2024-02-26,くにうみ警備保障株式会社,,株式会社,兵庫県,淡路市,志筑１１８４番地１,,28,226,6562131,,,,,,,2024-02-26,1,,,,,クニウミケイビホショウ,0
1387,6140005026954,新規,0,2024-02-26,2024-02-26,一般社団法人マスタードシードクリスチャン教会‐神戸,,その他の設立登記法人,兵庫県,神戸市中央区,北長狭通３丁目２－３ニューグランドビル４Ｆ,,28,110,6500012,,,,,,,2024-02-26,1,,,,,マスタードシードクリスチャンキョウカイコウベ,0
1396,6180001160258,新規,0,2024-02-26,2024-02-26,ＡＲＲＯＷホールディングス株式会社,,株式会社,愛知県,小牧市,郷中１丁目１０２番地,,23,219,4850033,,,,,,,2024-02-26,1,,,,,アロウホールディングス,0
1397,6180001160274,新規,0,2024-02-26,2024-02-26,株式会社雅,,株式会社,愛知県,小牧市,大字西之島１００６番地５,,23,219,4850077,,,,,,,2024-02-26,1,,,,,ミヤビ,0
1399,6180003026390,新規,0,2024-02-26,2024-02-26,合同会社でち猫,,合同会社,愛知県,名古屋市西区,八筋町５９番地の１マンションＦＴＹ１０１号,,23,104,4520815,,,,,,,2024-02-26,1,,,,,デチネコ,0
1402,6180301038352,新規,0,2024-02-26,2024-02-26,株式会社ブルークリプト,,株式会社,愛知県,岡崎市,明大寺町字畔土７番地２フェリカーサ明大寺５０１,,23,202,4440864,,,,,,,2024-02-26,1,,,,,ブルークリプト,0
1405,6200001042197,新規,0,2024-02-26,2024-02-26,株式会社ＥＮＴＲＵＳＴ,,株式会社,岐阜県,岐阜市,東明見町１８番地,,21,201,5008436,,,,,,,2024-02-26,1,,,,,エントラスト,0
1407,6220003003682,新規,0,2024-02-26,2024-02-26,合同会社ＣＡＮＡＲＩＡ,,合同会社,石川県,金沢市,増泉１丁目４１番２２号スマイルスプリーム・１０３号,,17,201,9218025,,,,,,,2024-02-26,1,,,,,カナリア,0
1408,6230001020225,新規,0,2024-02-26,2024-02-26,株式会社フレックスホールディングス,,株式会社,富山県,富山市,中川原５－２,,16,201,9398015,,,,,,,2024-02-26,1,,,,,フレックスホールディングス,0
1410,6240001062836,新規,0,2024-02-26,2024-02-26,株式会社２．,,株式会社,広島県,広島市南区,南蟹屋２丁目３番２－１１０１号,,34,103,7320803,,,,,,,2024-02-26,1,,,,,ツー,0
1418,6290001104781,新規,0,2024-02-26,2024-02-26,株式会社ｏ．ｈ．ａ．ｃ．ｏ,,株式会社,福岡県,福岡市中央区,西中洲１－４－７Ｆ,,40,133,8100002,,,,,,,2024-02-26,1,,,,,オハコ,0
1425,6290803004626,新規,0,2024-02-26,2024-02-26,合同会社河内総合サービス,,合同会社,福岡県,中間市,通谷２丁目１７番１６号,,40,215,8090018,,,,,,,2024-02-26,1,,,,,コウチソウゴウサービス,0
1429,6320001020307,新規,0,2024-02-26,2024-02-26,株式会社ヒヨクド,,株式会社,大分県,竹田市,荻町馬場４６７番地８,,44,208,8796115,,,,,,,2024-02-26,1,,,,,ヒヨクド,0
1432,6350001018802,新規,0,2024-02-26,2024-02-26,株式会社Ｇａｒｄｅｎ　Ｆｉｅｌｄｓ,,株式会社,宮崎県,宮崎市,阿波岐原町前浜４２７６番地２８２,,45,201,8800835,,,,,,,2024-02-26,1,,,,,ガーデンフィールズ,0
1433,6350003004577,新規,0,2024-02-26,2024-02-26,合同会社阪口自動車,,合同会社,宮崎県,えびの市,大字向江７３１番地３,,45,209,8894151,,,,,,,2024-02-26,1,,,,,サカグチジドウシャ,0
1436,6360001033230,新規,0,2024-02-26,2024-02-26,イノベーションリーフ株式会社,,株式会社,沖縄県,宜野湾市,我如古２丁目６番１６－９０５号シャールレーク宜野湾,,47,205,9012214,,,,,,,2024-02-26,1,,,,,イノベーションリーフ,0
1440,6370003006489,新規,0,2024-02-26,2024-02-26,Ｋ＆Ａｍａｒｉｎｅｐｒｏｊｅｃｔ合同会社,,合同会社,宮城県,石巻市,渡波字沖六勺１番地１１１市営沖六勺東復興住宅２－４３号,,04,202,9862135,,,,,,,2024-02-26,1,,,,,ケーアンドエーマリンプロジェクト,0
1447,6430001026623,新規,0,2024-02-26,2024-02-26,株式会社札幌銀行,,株式会社,北海道,札幌市中央区,北二条西２丁目１番地,,01,101,0600002,,,,,,,2024-02-26,1,,,,,サッポロギンコウ,0
1450,6430001091130,新規,0,2024-02-26,2024-02-26,株式会社Ｍ＆Ｔ,,株式会社,北海道,札幌市豊平区,美園七条４丁目２番７号,,01,105,0620007,,,,,,,2024-02-26,1,,,,,エムアンドティー,0
1451,6430001091147,新規,0,2024-02-26,2024-02-26,株式会社ひら昌,,株式会社,北海道,札幌市白石区,北郷四条１１丁目６番１号,,01,104,0030834,,,,,,,2024-02-26,1,,,,,ヒラマサ,0
1452,6430001091155,新規,0,2024-02-26,2024-02-26,株式会社グッドライフ,,株式会社,北海道,札幌市北区,拓北一条４丁目７番２６号,,01,102,0028061,,,,,,,2024-02-26,1,,,,,グッドライフ,0
1455,6430003015987,新規,0,2024-02-26,2024-02-26,ｙ．ｎａｇｕｒａ合同会社,,合同会社,北海道,札幌市白石区,川下四条２丁目３番２９号,,01,104,0030864,,,,,,,2024-02-26,1,,,,,ワイナグラ,0
1456,6440001009387,新規,0,2024-02-26,2024-02-26,株式会社葉香園,,株式会社,北海道,函館市,滝沢町２６番地７,,01,202,0420957,,,,,,,2024-02-26,1,,,,,ヨウカエン,0
1460,6500001025477,新規,0,2024-02-26,2024-02-26,株式会社木藤庭園,,株式会社,愛媛県,西条市,大町７２２番地５,,38,206,7930030,,,,,,,2024-02-26,1,,,,,キドウテイエン,0
1463,6700150123961,新規,0,2024-02-26,2024-02-14,八千代ふるさと親子祭実行委員会,,その他,千葉県,八千代市,八千代台南１丁目１１－６八千代商工会議所,,12,221,2760033,,,,,,,2024-02-14,1,,,,,ヤチヨフルサトオヤコマツリジツコウイインカイ,0
1464,6700150124167,新規,0,2024-02-26,2024-02-26,Ｆｏｓｈａｎ　Ｑｉｎｇｊｉｎｓｈｉ　Ｎｅｔｗｏｒｋ　Ｔｅｃｈｎｏｌｏｇｙ　Ｃｏ．，Ｌｔｄ,,外国会社等,,,,,,,,Ｃ８０６４－２，Ｆｌｏｏｒ　８，Ｂｕｉｌｄｉｎｇ　Ｃ，Ｊｉａｂｏ　Ｃｉｔｙ，Ｎｏ．１８９，Ｆｏｓｈａｎ　Ａｖｅｎｕｅ，Ｓｈｉｗａｎ　Ｔｏｗｎ　Ｓｔｒｅｅｔ，Ｃｈａｎｃｈｅｎｇ　Ｄｉｓｔｒｉｃｔ，Ｆｏｓｈａｎ　Ｃｉｔｙ,,,,,,2024-02-26,1,,,,,フォサンチンジンシネットワークテクノロジーカンパニーリミテッド,0
1465,6700150124175,新規,0,2024-02-26,2024-02-26,ｇｕａｎｇｚｈｏｕｓｈｉｑｉｎｇｊｉｎｚｈｉｚｈｉｋｅｊｉｙｏｕｘｉａｎｇｏｎｇｓｉ,,外国会社等,,,,,,,,ｇｕａｎｇ　ｚｈｏｕ　ｓｈｉ　ｎａｎ　ｓｈａ　ｑｕ　ｆｅｎｇ　ｚｅ　ｄｏｎｇ　ｌｕ　１０６　ｈａｏ（ｚｉ　ｂｉａｎ　１　ｈａｏ　ｌｏｕ）Ｘ１３０１－Ｃ０１２２６２（ｊｉ　ｑｕｎ　ｚｈｕ　ｃｅ）（ＪＭ）,,,,,,2024-02-26,1,,,,,コウシュウシチンジンジジカギユウゲンコウシ,0
1481,7010001242369,新規,0,2024-02-26,2024-02-26,日虞株式会社,,株式会社,東京都,中央区,八重洲２丁目１－１ＹＡＮＭＡＲＴＯＫＹＯ１２階,,13,102,1040028,,,,,,,2024-02-26,1,,,,,ニチユウ,0
1482,7010001242518,新規,0,2024-02-26,2024-02-26,株式会社ＫＰ‐ＮＥＸＴ,,株式会社,東京都,中央区,銀座１丁目１２番４号Ｎ＆Ｅ・ＢＬＤ．６Ｆ,,13,102,1040061,,,,,,,2024-02-26,1,,,,,ケーピーネクスト,0
1483,7010001242550,新規,0,2024-02-26,2024-02-26,アプロスグループ株式会社,,株式会社,東京都,千代田区,外神田４丁目７番７号,,13,101,1010021,,,,,,,2024-02-26,1,,,,,アプロスグループ,0
1489,7010005037939,新規,0,2024-02-26,2024-02-26,Ｈｅｒａ一般社団法人,,その他の設立登記法人,東京都,千代田区,霞が関３丁目２番５号,,13,101,1000013,,,,,,,2024-02-26,1,,,,,ヘラ,0
1496,7010401180656,新規,0,2024-02-26,2024-02-26,デトブレイン株式会社,,株式会社,東京都,港区,南青山３丁目１番３６号青山丸竹ビル６階,,13,103,1070062,,,,,,,2024-02-26,1,,,,,デトブレイン,0
1499,7010403032038,新規,0,2024-02-26,2024-02-26,合同会社Ｒｉｌｅｙ,,合同会社,東京都,港区,虎ノ門１丁目１番１８号ヒューリック虎ノ門ビル９階Ｌ＆Ｐ司法書士法人内,,13,103,1050001,,,,,,,2024-02-26,1,,,,,ライリー,0
1500,7010405022986,新規,0,2024-02-26,2024-02-26,一般社団法人東京産業医学情報センター,,その他の設立登記法人,東京都,港区,南青山２丁目２番１５号ＷｉｎＡｏｙａｍａビルＵＣＦ６階,,13,103,1070062,,,,,,,2024-02-26,1,,,,,トウキョウサンギョウイガクジョウホウセンター,0
1504,7010603010669,新規,0,2024-02-26,2024-02-26,ＢＡＲＮＯ　Ｈ＆Ｓ合同会社,,合同会社,東京都,江東区,白河４丁目９番２５－７１２号,,13,108,1350021,,,,,,,2024-02-26,1,,,,,バルノエイチアンドエス,0
1514,7011001160247,新規,0,2024-02-26,2024-02-26,株式会社テクヌート,,株式会社,東京都,渋谷区,神宮前６丁目２３番４号桑野ビル２階,,13,113,1500001,,,,,,,2024-02-26,1,,,,,テクヌート,0
1521,7011503005965,新規,0,2024-02-26,2024-02-26,ＮＴＣ合同会社,,合同会社,東京都,荒川区,西日暮里２丁目２７番１号１階,,13,118,1160013,,,,,,,2024-02-26,1,,,,,エヌティーシー,0
1522,7011601027556,新規,0,2024-02-26,2024-02-26,株式会社リルゴーレム,,株式会社,東京都,練馬区,東大泉２丁目５番１,,13,120,1780063,,,,,,,2024-02-26,1,,,,,リルゴーレム,0
1529,7013101009357,新規,0,2024-02-26,2024-02-26,株式会社ｍｏｔｓｕｒｉｎｚ,,株式会社,東京都,西多摩郡日の出町,大字大久野１６５７,,13,305,1900181,,,,,,,2024-02-26,1,,,,,,0
1544,7020001155801,新規,0,2024-02-26,2024-02-26,株式会社ＡＮＯＳＳ,,株式会社,神奈川県,横浜市神奈川区,金港町５－１４クアドリフォリオ８階,,14,102,2210056,,,,,,,2024-02-26,1,,,,,エノス,0
1545,7020001155925,新規,0,2024-02-26,2024-02-26,ＬＢＰ株式会社,,株式会社,神奈川県,横浜市中区,本牧原３４番１５号,,14,104,2310821,,,,,,,2024-02-26,1,,,,,エルビーピー,0
1546,7020001155933,新規,0,2024-02-26,2024-02-26,スタンワークスタジオ株式会社,,株式会社,神奈川県,川崎市高津区,久地３丁目１２番９－５号,,14,134,2130032,,,,,,,2024-02-26,1,,,,,スタンワークスタジオ,0
1547,7020001155941,新規,0,2024-02-26,2024-02-26,Ｔ・Ｎコーポレーション株式会社,,株式会社,神奈川県,横浜市港北区,菊名３丁目４番５６号,,14,109,2220011,,,,,,,2024-02-26,1,,,,,ティーエヌコーポレーション,0
1550,7021001081541,新規,0,2024-02-26,2024-02-26,株式会社Ｈロンフィールド,,株式会社,神奈川県,大和市,南林間１丁目１９番１１号,,14,213,2420006,,,,,,,2024-02-26,1,,,,,アッシュロンフィールド,0
1551,7021001081558,新規,0,2024-02-26,2024-02-26,ハラパン株式会社,,株式会社,神奈川県,愛甲郡愛川町,半原２５６５番地の１,,14,401,2430307,,,,,,,2024-02-26,1,,,,,ハラパン,0
1556,7021003014185,新規,0,2024-02-26,2024-02-26,合同会社デンタルエクスプレス,,合同会社,神奈川県,藤沢市,鵠沼石上１丁目２番１０号ＫＥＮＥＤＩＸ藤沢２Ｆ,00133834,14,205,2510025,,,,,,,2024-02-26,1,,,,,デンタルエクスプレス,0
1566,7030001158720,新規,0,2024-02-26,2024-02-26,株式会社ヤマバ,,株式会社,埼玉県,日高市,高萩東１丁目２０番１１号,,11,242,3501215,,,,,,,2024-02-26,1,,,,,ヤマバ,0
1567,7030001158778,新規,0,2024-02-26,2024-02-26,株式会社安泰,,株式会社,埼玉県,草加市,瀬崎５丁目５番２８号,,11,221,3400022,,,,,,,2024-02-26,1,,,,,アンタイ,0
1568,7030001158828,新規,0,2024-02-26,2024-02-26,株式会社アルファ,,株式会社,埼玉県,白岡市,白岡１８９０番地５,,11,246,3490218,,,,,,,2024-02-26,1,,,,,アルファ,0
1574,7030003023658,新規,0,2024-02-26,2024-02-26,合同会社ＹＭアセット管理,,合同会社,埼玉県,比企郡ときがわ町,大字田黒６７３番地３,,11,349,3550341,,,,,,,2024-02-26,1,,,,,ワイエムアセットカンリ,0
1575,7030003023690,新規,0,2024-02-26,2024-02-26,合同会社ヒロセ,,合同会社,埼玉県,川越市,大字砂３６９番地１,,11,201,3501133,,,,,,,2024-02-26,1,,,,,ヒロセ,0
1582,7040001132286,新規,0,2024-02-26,2024-02-26,サステナデザイン株式会社,,株式会社,千葉県,千葉市若葉区,高品町１５８５番地１,,12,104,2640024,,,,,,,2024-02-26,1,,,,,サステナデザイン,0
1583,7040001132328,新規,0,2024-02-26,2024-02-26,株式会社一張,,株式会社,千葉県,千葉市花見川区,朝日ケ丘４丁目１８番５２－２号,,12,102,2620019,,,,,,,2024-02-26,1,,,,,イッチョウ,0
1584,7040001132344,新規,0,2024-02-26,2024-02-26,株式会社Ｓｈｏｏｔｉｎｇ　Ｓｔａｒ,,株式会社,千葉県,松戸市,北松戸２丁目１８番地４,,12,207,2710063,,,,,,,2024-02-26,1,,,,,シューティングスター,0
1585,7040001132369,新規,0,2024-02-26,2024-02-26,株式会社和テック,,株式会社,千葉県,長生郡白子町,浜宿２３４５番地３,,12,424,2994201,,,,,,,2024-02-26,1,,,,,カズテック,0
1587,7050005013390,新規,0,2024-02-26,2024-02-26,上河原崎Ｄ２５地区団地管理組合法人,,その他の設立登記法人,茨城県,つくば市,大字上河原崎下河原崎入会地番外４番地３３５（高山Ｄ２５街区１５０）,,08,220,3002661,,,,,,,2024-02-26,1,,,,,カミカワラザキディーニジュウゴチク,0
1588,7060001036849,新規,0,2024-02-26,2024-02-26,株式会社鈴木商会,,株式会社,栃木県,宇都宮市,田野町５９５番地６９,,09,201,3210344,,,,,,,2024-02-26,1,,,,,スズキショウカイ,0
1589,7060001036857,新規,0,2024-02-26,2024-02-26,株式会社Ｕｎｉｔｅ,,株式会社,栃木県,宇都宮市,竹林町１２２番地１－２０２,,09,201,3210974,,,,,,,2024-02-26,1,,,,,ユナイト,0
1599,7090005007612,新規,0,2024-02-26,2024-02-26,一般社団法人身延珠数土産品機構,,その他の設立登記法人,山梨県,南巨摩郡身延町,身延３７０３番地,,19,365,4092524,,,,,,,2024-02-26,1,,,,,ミノブジュズミヤゲヒンキコウ,0
1611,7120001262356,新規,0,2024-02-26,2024-02-26,吉友株式会社,,株式会社,大阪府,大阪市東住吉区,東田辺３丁目１－１－１Ｆ－Ｃ,,27,121,5460032,,,,,,,2024-02-26,1,,,,,ヨシトモ,0
1612,7120001262554,新規,0,2024-02-26,2024-02-26,株式会社ＩＮＣＲＥＭＥＮＴ,,株式会社,大阪府,大阪市中央区,西心斎橋２丁目９番３７号プライブ八幡ビル４Ｆ,,27,128,5420086,,,,,,,2024-02-26,1,,,,,インクレメント,0
1613,7120001262570,新規,0,2024-02-26,2024-02-26,秀明株式会社,,株式会社,大阪府,大阪市西成区,出城１丁目８番１９号,,27,122,5570024,,,,,,,2024-02-26,1,,,,,シュウメイ,0
1614,7120001262595,新規,0,2024-02-26,2024-02-26,株式会社グラッド,,株式会社,大阪府,枚方市,西禁野２丁目１６番２３号,,27,210,5731192,,,,,,,2024-02-26,1,,,,,グラッド,0
1615,7120001262620,新規,0,2024-02-26,2024-02-26,株式会社ｎａｏｙａ　ｃｏｒｐｏｒａｔｉｏｎ,,株式会社,大阪府,大阪市中央区,高津１丁目３番２２号,,27,128,5420072,,,,,,,2024-02-26,1,,,,,ナオヤコーポレーション,0
1616,7120001262629,新規,0,2024-02-26,2024-02-26,オーカンパニー株式会社,,株式会社,大阪府,寝屋川市,長栄寺町１２番１－１号,,27,215,5720061,,,,,,,2024-02-26,1,,,,,オーカンパニー,0
1617,7120001262653,新規,0,2024-02-26,2024-02-26,株式会社ウォッチワン,,株式会社,大阪府,大阪市中央区,淡路町３丁目４番１－２１１号,,27,128,5410047,,,,,,,2024-02-26,1,,,,,ウォッチワン,0
1622,7120003025926,新規,0,2024-02-26,2024-02-26,合同会社ＲＥＮＯＭＥ,,合同会社,大阪府,大阪市北区,黒崎町９番１１号長岡ビル,,27,127,5300023,,,,,,,2024-02-26,1,,,,,リノーム,0
1623,7120003025991,新規,0,2024-02-26,2024-02-26,合同会社ＱｕａＲｅａｔｉｏｎ,,合同会社,大阪府,大阪市福島区,福島７丁目１８番１２号アルデール・エスパシオ２０１号,,27,103,5530003,,,,,,,2024-02-26,1,,,,,クオリエイション,0
1624,7120003026024,新規,0,2024-02-26,2024-02-26,合同会社ＣＬＯＶＥＲ　ＭＨＩＬＥＳ,,合同会社,大阪府,大阪市中央区,谷町６丁目１７番２０－３０４号,,27,128,5420012,,,,,,,2024-02-26,1,,,,,クローバーマイル,0
1628,7120103005687,新規,0,2024-02-26,2024-02-26,ＤＬ貿易合同会社,,合同会社,大阪府,岸和田市,天神山町２丁目９－６－１０２室,,27,202,5960834,,,,,,,2024-02-26,1,,,,,ディーエルボウエキ,0
1629,7122001037837,新規,0,2024-02-26,2024-02-26,阪上ホールディングス株式会社,,株式会社,大阪府,八尾市,桂町６丁目１番地の１２,,27,212,5810823,,,,,,,2024-02-26,1,,,,,サカガミホールディングス,0
1633,7130001076417,新規,0,2024-02-26,2024-02-26,ＦＭＰコンサルティング株式会社,,株式会社,京都府,京都市西京区,川島莚田町９番地３ＳＨＡＲＥ・ＤＥＰＡＲＴＭＥＮＴ・Ｂ－３,,26,111,6158105,,,,,,,2024-02-26,1,,,,,エフエムピーコンサルティング,0
1637,7140001133415,新規,0,2024-02-26,2024-02-26,株式会社あっぷ,,株式会社,兵庫県,明石市,朝霧南町４丁目４番１７号,,28,203,6730870,,,,,,,2024-02-26,1,,,,,アップ,0
1646,7190001031127,新規,0,2024-02-26,2024-02-26,ＥＣＨＯ　ＰＬＵＳ　ＯＮＥ株式会社,,株式会社,三重県,松阪市,嬉野算所町６１３番地１６,,24,204,5152335,,,,,,,2024-02-26,1,,,,,エコープラスワン,0
1649,7200001042196,新規,0,2024-02-26,2024-02-26,立神工務店株式会社,,株式会社,岐阜県,本巣市,政田１６５２番地１,,21,218,5010471,,,,,,,2024-02-26,1,,,,,タテガミコウムテン,0
1654,7240001062827,新規,0,2024-02-26,2024-02-26,ｔｏｍｉ企画株式会社,,株式会社,広島県,安芸郡海田町,月見町３番１３－３０８号,,34,304,7360034,,,,,,,2024-02-26,1,,,,,トミキカク,0
1661,7260003004593,新規,0,2024-02-26,2024-02-26,合同会社啓揚,,合同会社,岡山県,岡山市北区,島田本町２丁目２番９号Ｖｉｅｌｉｂｒｅ４０２号,,33,101,7000033,,,,,,,2024-02-26,1,,,,,ケイヨウ,0
1669,7290003015002,新規,0,2024-02-26,2024-02-26,合同会社黒ねこ会,,合同会社,福岡県,大野城市,瑞穂町４丁目４番１２－６０４号,,40,219,8160933,,,,,,,2024-02-26,1,,,,,クロネコカイ,0
1672,7290801030334,新規,0,2024-02-26,2024-02-26,株式会社ＡｏＰｒｏ,,株式会社,福岡県,北九州市八幡西区,南八千代町３番１２‐６０４号,,40,109,8060024,,,,,,,2024-02-26,1,,,,,アオプロ,0
1683,7350003004576,新規,0,2024-02-26,2024-02-26,合同会社ウィズハートぎんが,,合同会社,宮崎県,宮崎市,大塚町横立１４０３番地６５,,45,201,8800951,,,,,,,2024-02-26,1,,,,,ウィズハートギンガ,0
1687,7360001033221,新規,0,2024-02-26,2024-02-26,株式会社１８ｐｒｏｊｅｃｔ,,株式会社,沖縄県,那覇市,松川１丁目１６番１６号,,47,201,9020062,,,,,,,2024-02-26,1,,,,,エイティーンプロジェクト,0
1688,7360001033238,新規,0,2024-02-26,2024-02-26,日邦株式会社,,株式会社,沖縄県,那覇市,久米１丁目２３番３号,,47,201,9000033,,,,,,,2024-02-26,1,,,,,ニッポウ,0
1689,7360003013733,新規,0,2024-02-26,2024-02-26,合同会社Ａ．ｂｉｒｔｈ,,合同会社,沖縄県,那覇市,牧志２丁目１７－２７－４０１,,47,201,9000013,,,,,,,2024-02-26,1,,,,,エーバース,0
1690,7360003013741,新規,0,2024-02-26,2024-02-26,合同会社トリップアシスト,,合同会社,沖縄県,石垣市,字登野城５１０番地１階,,47,207,9070004,,,,,,,2024-02-26,1,,,,,トリップアシスト,0
1693,7370001050967,新規,0,2024-02-26,2024-02-26,延久商事株式会社,,株式会社,宮城県,仙台市青葉区,荒巻本沢３丁目９番２号,,04,101,9810966,,,,,,,2024-02-26,1,,,,,エンキュウショウジ,0
1697,7380001034317,新規,0,2024-02-26,2024-02-26,ＫＰＰアグリソリューションズ株式会社,,株式会社,福島県,双葉郡浪江町,大字権現堂字町頭５番地２,,07,547,9791521,,,,,,,2024-02-26,1,,,,,ケーピーピーアグリソリューションズ,0
1703,7410001013738,新規,0,2024-02-26,2024-02-26,株式会社ＴＡＫＥ２,,株式会社,秋田県,秋田市,大町４丁目２番２１号ライオンビル２０７号,,05,201,0100921,,,,,,,2024-02-26,1,,,,,テイクツー,0
1705,7430001091154,新規,0,2024-02-26,2024-02-26,株式会社恩田ホールディングス,,株式会社,北海道,札幌市北区,拓北一条４丁目７番２６号,,01,102,0028061,,,,,,,2024-02-26,1,,,,,オンダホールディングス,0
1712,7500001025476,新規,0,2024-02-26,2024-02-26,ＫＴ開発株式会社,,株式会社,愛媛県,松山市,西垣生町２８８６番地２,,38,201,7918044,,,,,,,2024-02-26,1,,,,,ケイティカイハツ,0
1713,7700150123977,新規,0,2024-02-26,2024-02-15,西秀記後援会,,その他,青森県,青森市,新町２丁目８番２６号県火災あおもりビル３Ｆ,,02,201,0300801,,,,,,,2024-02-15,1,,,,,ニシヒデキコウエンカイ,0
1714,7700150124166,新規,0,2024-02-26,2024-02-26,Ｖｉｇｏｒ　Ｗｅｌｌｎｅｓｓ　Ｅｎｔｅｒｐｒｉｓｅ　Ｌｉｍｉｔｅｄ,,外国会社等,,,,,,,,ＦＬＡＴ／ＲＭ　１４０１，ＣＡＭＢＥＲＩＤＧＥ　ＨＯＵＳＥ，２６－２８　ＣＡＭＥＲＯＮ　ＲＯＡＤ，ＴＳＩＭＳＨＡＴＳＵＩ　ＫＬ　ＨＫ,,,,,,2024-02-26,1,,,,,ヴィゴーウェルネスエンタープライズリミテッド,0
1715,7700150124174,新規,0,2024-02-26,2024-02-26,ｓｈｅｎｚｈｅｎｓｈｉｌｉｈｕａｎｇｋｅｊｉ　ｙｏｕｘｉａｎｇｏｎｇｓｉ,,外国会社等,,,,,,,,ｐｉｎｇ　ｈｕ　ｊｉｅ　ｄａｏ　ｈｅ　ｈｕａ　ｓｈｅ　ｑｕ　ｈｕａ　ｎａｎ　ｄａ　ｄａｏ　ｙｉ　ｈａｏ　ｈｕａ　ｎａｎ　ｇｕｏ　ｊｉ　ｐｉ　ｇｅ　ｐｉ　ｊｕ　ｙｕａｎ　ｆｕ　ｌｉａｏ　ｗｕ　ｌｉｕ　ｑｕ　ｅｒ　ｑｉ　３Ｂ－０８７　ｓｈｅｎ　ｚｈｅｎ　ｓｈｉ　ｌｏｎｇ　ｇａｎｇ　ｑｕ,,,,,,2024-02-26,1,,,,,シンセンシリフワンカギユウゲンコウシ,0
1724,8010001242517,新規,0,2024-02-26,2024-02-26,Ｈ＆Ｙ株式会社,,株式会社,東京都,中央区,日本橋３丁目１番４号,,13,102,1030027,,,,,,,2024-02-26,1,,,,,エイチアンドワイ,0
1725,8010001242558,新規,0,2024-02-26,2024-02-26,株式会社ＧＩ,,株式会社,東京都,中央区,銀座７丁目４番７号,,13,102,1040061,,,,,,,2024-02-26,1,,,,,ジーアイ,0
1726,8010001242590,新規,0,2024-02-26,2024-02-26,株式会社ユニブリッジジャパン,,株式会社,東京都,千代田区,有楽町１丁目１３－２第一生命日比谷ファースト１２階,,13,101,1000006,,,,,,,2024-02-26,1,,,,,ユニブリッジジャパン,0
1727,8010001242632,新規,0,2024-02-26,2024-02-26,株式会社Ｎカンパニー,,株式会社,東京都,文京区,小日向３丁目１８番８号,,13,105,1120006,,,,,,,2024-02-26,1,,,,,エヌカンパニー,0
1729,8010003043005,新規,0,2024-02-26,2024-02-26,ＨＣ夙川合同会社,,合同会社,東京都,千代田区,内神田１丁目３番７号４０１あすな会計事務所内,,13,101,1010047,,,,,,,2024-02-26,1,,,,,エイチシーシュクガワ,0
1730,8010003043054,新規,0,2024-02-26,2024-02-26,ＧＩＮＺＡ８合同会社,,合同会社,東京都,千代田区,丸の内３丁目１番１号東京共同会計事務所内,,13,101,1000005,,,,,,,2024-02-26,1,,,,,ギンザエイト,0
1732,8010005037938,新規,0,2024-02-26,2024-02-26,Ａｍａｔｈｙｓｔ一般社団法人,,その他の設立登記法人,東京都,千代田区,霞が関３丁目２番５号,,13,101,1000013,,,,,,,2024-02-26,1,,,,,アマシスト,0
1736,8010403032045,新規,0,2024-02-26,2024-02-26,ウィール合同会社,,合同会社,東京都,港区,北青山１丁目３番１号アールキューブ青山３階,,13,103,1070061,,,,,,,2024-02-26,1,,,,,ウィール,0
1739,8010503007351,新規,0,2024-02-26,2024-02-26,合同会社崑崙山,,合同会社,東京都,台東区,三筋１丁目６番２号小林ビル３Ｆ,,13,106,1110055,,,,,,,2024-02-26,1,,,,,コンロンザン,0
1741,8010601064699,新規,0,2024-02-26,2024-02-26,株式会社おりの,,株式会社,東京都,江東区,石島２４－２,,13,108,1350014,,,,,,,2024-02-26,1,,,,,オリノ,0
1747,8010803004858,新規,0,2024-02-26,2024-02-26,ウィルビー合同会社,,合同会社,東京都,大田区,大森西４丁目６番６号,,13,111,1430015,,,,,,,2024-02-26,1,,,,,ウィルビー,0
1751,8010901054763,新規,0,2024-02-26,2024-02-26,ＢＡＭＫＥＮホールディングス株式会社,,株式会社,東京都,世田谷区,太子堂１丁目１２番２７号コンフォートテラス１００５,,13,112,1540004,,,,,,,2024-02-26,1,,,,,バンケンホールディングス,0
1762,8011001160196,新規,0,2024-02-26,2024-02-26,株式会社ＲＡＮＮ　Ｃｏｎｓｕｌｔｉｎｇ,,株式会社,東京都,渋谷区,渋谷２丁目１９番１５号宮益坂ビルディング６０９,,13,113,1500002,,,,,,,2024-02-26,1,,,,,ランコンサルティング,0
1769,8011101106280,新規,0,2024-02-26,2024-02-26,株式会社未来プラス,,株式会社,東京都,新宿区,荒木町１６番地エスペロビル４０１,,13,104,1600007,,,,,,,2024-02-26,1,,,,,ミキプラス,0
1770,8011101106289,新規,0,2024-02-26,2024-02-26,株式会社Ｇｒａｃｅ　Ｓｈｉｎｙ,,株式会社,東京都,新宿区,西新宿３丁目３番１３号西新宿水間ビル６階,,13,104,1600023,,,,,,,2024-02-26,1,,,,,グレイスシャイニー,0
1771,8011101106297,新規,0,2024-02-26,2024-02-26,株式会社ＫＭＰｈａｇｅ,,株式会社,東京都,新宿区,高田馬場１丁目３２番１０号,,13,104,1690075,,,,,,,2024-02-26,1,,,,,ケーエムファージ,0
1772,8011101106322,新規,0,2024-02-26,2024-02-26,株式会社Ｃｌｅｒｉｃａｌ＆Ｍｅｄｉｃａｌ,,株式会社,東京都,新宿区,西新宿３丁目３番１３号西新宿水間ビル６階,,13,104,1600023,,,,,,,2024-02-26,1,,,,,クレリカルアンドメディカル,0
1774,8011303005066,新規,0,2024-02-26,2024-02-26,合同会社みずなはる,,合同会社,東京都,杉並区,成田東４丁目７番８号,,13,115,1660015,,,,,,,2024-02-26,1,,,,,ミズナハル,0
1776,8011601027547,新規,0,2024-02-26,2024-02-26,株式会社フォレストリンク,,株式会社,東京都,練馬区,光が丘５丁目２番１－９０６号,,13,120,1790072,,,,,,,2024-02-26,1,,,,,フォレストリンク,0
1781,8011801043831,新規,0,2024-02-26,2024-02-26,匯通株式会社,,株式会社,東京都,葛飾区,東新小岩２丁目２８番１号,,13,122,1240023,,,,,,,2024-02-26,1,,,,,カイツウ,0
1784,8012701018097,新規,0,2024-02-26,2024-02-26,株式会社フェザード,,株式会社,東京都,東久留米市,神宝町１丁目７番１０号,,13,222,2030002,,,,,,,2024-02-26,1,,,,,フェザード,0
1794,8020001155916,新規,0,2024-02-26,2024-02-26,ワイドエステート株式会社,,株式会社,神奈川県,横浜市鶴見区,矢向４丁目３１番９号,,14,101,2300001,,,,,,,2024-02-26,1,,,,,ワイドエステート,0
1795,8020001155924,新規,0,2024-02-26,2024-02-26,株式会社Ｌ・Ｓ・Ｄ,,株式会社,神奈川県,横浜市緑区,長津田２丁目４３番７号コーポ松山Ａ１０３号室,,14,113,2260027,,,,,,,2024-02-26,1,,,,,エルエスディー,0
1802,8030001158793,新規,0,2024-02-26,2024-02-26,株式会社ＬＩＢ,,株式会社,埼玉県,三郷市,戸ケ崎１丁目４３５番地,,11,237,3410044,,,,,,,2024-02-26,1,,,,,リブ,0
1803,8030001158802,新規,0,2024-02-26,2024-02-26,株式会社神林工業,,株式会社,埼玉県,戸田市,中町１丁目１番地の１６,,11,224,3350012,,,,,,,2024-02-26,1,,,,,カンバヤシコウギョウ,0
1804,8030001158819,新規,0,2024-02-26,2024-02-26,Ｄａｚｚｌｅ株式会社,,株式会社,埼玉県,さいたま市浦和区,仲町２丁目６番２号Ｓｅｉｋｏ．Ｂ．Ｌ４階,,11,107,3300062,,,,,,,2024-02-26,1,,,,,ダズル,0
1808,8030003023681,新規,0,2024-02-26,2024-02-26,合同会社ＩＲＩＳ,,合同会社,埼玉県,春日部市,上蛭田２３４番地４,,11,214,3440046,,,,,,,2024-02-26,1,,,,,アイリス,0
1809,8030003023698,新規,0,2024-02-26,2024-02-26,合同会社スマイルファクトリー,,合同会社,埼玉県,さいたま市見沼区,春岡１丁目１２番地１プレジールシステム,,11,104,3370008,,,,,,,2024-02-26,1,,,,,スマイルファクトリー,0
1812,8040001132343,新規,0,2024-02-26,2024-02-26,株式会社増田構造設計,,株式会社,千葉県,松戸市,日暮３丁目２番地の３ペアズヒル八柱８０４号,,12,207,2702253,,,,,,,2024-02-26,1,,,,,マスダコウゾウセッケイ,0
1814,8050003008152,新規,0,2024-02-26,2024-02-26,芝山・大黒山風力発電合同会社,,合同会社,茨城県,日立市,幸町３丁目２番２号,,08,202,3170073,,,,,,,2024-02-26,1,,,,,シバヤマダイコクヤマフウリョクハツデン,0
1819,8080002018835,新規,0,2024-02-26,2024-02-26,有限会社ボルドー,,有限会社,静岡県,焼津市,焼津２丁目１２番２０号,,22,212,4250026,,,,,,,2024-02-26,1,,,,,ボルドー,0
1820,8080003003134,新規,0,2024-02-26,2024-02-26,アズフォレスト合同会社,,合同会社,静岡県,静岡市駿河区,敷地１丁目１‐３５仲屋ハイツ７０４,,22,102,4228036,,,,,,,2024-02-26,1,,,,,アズフォレスト,0
1821,8080101024544,新規,0,2024-02-26,2024-02-26,株式会社富士山スカイファーム,,株式会社,静岡県,富士宮市,人穴１３９番地の３８,,22,207,4180102,,,,,,,2024-02-26,1,,,,,フジサンスカイファーム,0
1823,8080401027024,新規,0,2024-02-26,2024-02-26,株式会社ＯＲＩＧＡＭＩＣＯＭＰＡＮＹ,,株式会社,静岡県,浜松市中央区,砂山町３４８―１２,,22,138,4300926,,,,,,,2024-02-26,1,,,,,オリガミカンパニー,0
1830,8120001262520,新規,0,2024-02-26,2024-02-26,株式会社Ｅａｓｔ　Ｍａｒｒｏｎ,,株式会社,大阪府,大阪市淀川区,西中島１丁目１０番１２号インフィニティ北川口３１１号,,27,123,5320011,,,,,,,2024-02-26,1,,,,,イーストマロン,0
1831,8120001262628,新規,0,2024-02-26,2024-02-26,株式会社Ｂｅｙｏｎｄ　Ｄｅｓｉｇｎ,,株式会社,大阪府,大阪市中央区,瓦屋町１丁目７番２２号１階,,27,128,5420066,,,,,,,2024-02-26,1,,,,,ビヨンドデザイン,0
1835,8120101069114,新規,0,2024-02-26,2024-02-26,株式会社キッカケヅクリ,,株式会社,大阪府,堺市北区,東浅香山町２丁７５－１９,,27,146,5918008,,,,,,,2024-02-26,1,,,,,キッカケヅクリ,0
1836,8120103005694,新規,0,2024-02-26,2024-02-26,合同会社ｅｖｅｒ　ｙｏｕｒｓ,,合同会社,大阪府,堺市中区,土師町５丁２６－１４,,27,142,5998238,,,,,,,2024-02-26,1,,,,,エバーユアーズ,0
1840,8120901048795,新規,0,2024-02-26,2024-02-26,株式会社エルプラス,,株式会社,大阪府,吹田市,江の木町１番３８号,,27,205,5640053,,,,,,,2024-02-26,1,,,,,エルプラス,0
1843,8130001076432,新規,0,2024-02-26,2024-02-26,株式会社ハイブリッジ,,株式会社,京都府,京都市山科区,西野山百々町２５８－１４,,26,110,6078301,,,,,,,2024-02-26,1,,,,,ハイブリッジ,0
1850,8140001133348,新規,0,2024-02-26,2024-02-26,ティアラリスクマネジメント株式会社,,株式会社,兵庫県,揖保郡太子町,鵤字小久保３９３番２,,28,464,6711561,,,,,,,2024-02-26,1,,,,,ティアラリスクマネジメント,0
1851,8140001133406,新規,0,2024-02-26,2024-02-26,Ｓｏｅａｓｙ　Ｊａｐａｎ株式会社,,株式会社,兵庫県,姫路市,東夢前台３丁目６２番地,,28,201,6700064,,,,,,,2024-02-26,1,,,,,ソーイージージャパン,0
1852,8140001133422,新規,0,2024-02-26,2024-02-26,ＤｏＨｏｐｅ株式会社,,株式会社,兵庫県,神戸市東灘区,向洋町中１丁目１７番地２９階,,28,101,6580032,,,,,,,2024-02-26,1,,,,,ドウホウポ,0
1853,8140001133430,新規,0,2024-02-26,2024-02-26,株式会社一,,株式会社,兵庫県,芦屋市,大桝町３番１６号１０２号室,,28,206,6590066,,,,,,,2024-02-26,1,,,,,ニノマエ,0
1857,8150001027094,新規,0,2024-02-26,2024-02-26,株式会社リルベース,,株式会社,奈良県,橿原市,内膳町３丁目８番５号ＢｉｚＷｏｒｋ２０２号,,29,205,6340804,,,,,,,2024-02-26,1,,,,,リルベース,0
1871,8210001019647,新規,0,2024-02-26,2024-02-26,栄盛株式会社,,株式会社,福井県,敦賀市,三島町１丁目１６番３６号,,18,202,9140058,,,,,,,2024-02-26,1,,,,,エイセイ,0
1879,8240001062826,新規,0,2024-02-26,2024-02-26,株式会社縁和,,株式会社,広島県,広島市南区,的場町２丁目６－３（３Ｆ）,,34,103,7320824,,,,,,,2024-02-26,1,,,,,エンナ,0
1880,8250005008898,新規,0,2024-02-26,2024-02-26,ラポール東山口協同組合,,その他の設立登記法人,山口県,周南市,築港町３番９号ＤＲＡＦＴビル２階,,35,215,7450025,,,,,,,2024-02-26,1,,,,,ラポールヒガシヤマグチ,0
1881,8260001038782,新規,0,2024-02-26,2024-02-26,ネクスプラン株式会社,,株式会社,岡山県,瀬戸内市,長船町東須恵９２０－１,,33,212,7014262,,,,,,,2024-02-26,1,,,,,ネクスプラン,0
1882,8260003004592,新規,0,2024-02-26,2024-02-26,ＰＯＷＥＲ合同会社,,合同会社,岡山県,岡山市北区,中山下２丁目３番５８号朝日プラザ岡山中山下７０５号,,33,101,7000821,,,,,,,2024-02-26,1,,,,,パワー,0
1894,8290803004624,新規,0,2024-02-26,2024-02-26,合同会社リットアンダクト,,合同会社,福岡県,北九州市小倉南区,湯川新町３丁目１１番２０号,,40,107,8000256,,,,,,,2024-02-26,1,,,,,リットアンダクト,0
1899,8310003004736,新規,0,2024-02-26,2024-02-26,合同会社Ｒｕｒａｌ　Ｃａｒｅ,,合同会社,長崎県,南松浦郡新上五島町,有川郷字大橋２７３５番地,,42,411,8574211,,,,,,,2024-02-26,1,,,,,ルーラルケア,0
1900,8320001020305,新規,0,2024-02-26,2024-02-26,株式会社美味礼讃,,株式会社,大分県,大分市,大字高瀬２６６番地の２,,44,201,8701142,,,,,,,2024-02-26,1,,,,,ビミライサン,0
1903,8330003010229,新規,0,2024-02-26,2024-02-26,合同会社ｅスマイル,,合同会社,熊本県,熊本市東区,東野３丁目２０番３号,,43,102,8612106,,,,,,,2024-02-26,1,,,,,イースマイル,0
1904,8330003010237,新規,0,2024-02-26,2024-02-26,合同会社ｅｎｎｅ,,合同会社,熊本県,熊本市北区,植木町山本１７６９,,43,105,8610101,,,,,,,2024-02-26,1,,,,,エンネ,0
1905,8330005010763,新規,0,2024-02-26,2024-02-26,一般社団法人ファンタジック,,その他の設立登記法人,熊本県,熊本市西区,八島２丁目１番７号,,43,103,8600054,,,,,,,2024-02-26,1,,,,,ファンタジック,0
1907,8350003004575,新規,0,2024-02-26,2024-02-26,合同会社ｃｏ．むぎ,,合同会社,宮崎県,えびの市,大字向江５９９番地７コーポあわじ１０５,,45,209,8894151,,,,,,,2024-02-26,1,,,,,コムギ,0
1910,8360003013732,新規,0,2024-02-26,2024-02-26,合同会社Ａ‐Ｌｉｎｋ,,合同会社,沖縄県,名護市,宇茂佐の森２丁目１７番地５かりゆしプランドール３０５,,47,209,9050009,,,,,,,2024-02-26,1,,,,,エーリンク,0
1921,8430001091129,新規,0,2024-02-26,2024-02-26,株式会社さちなび,,株式会社,北海道,札幌市中央区,北四条西４丁目１番地１６,,01,101,0600004,,,,,,,2024-02-26,1,,,,,サチナビ,0
1922,8430001091145,新規,0,2024-02-26,2024-02-26,魚鬼ＣＯＭＰＡＮＹ株式会社,,株式会社,北海道,札幌市北区,太平五条３丁目３番１２号,,01,102,0028005,,,,,,,2024-02-26,1,,,,,イトウカンパニー,0
1926,8430003015993,新規,0,2024-02-26,2024-02-26,ジョーネツアジャスト合同会社,,合同会社,北海道,札幌市南区,石山二条６丁目１２番２９号,,01,106,0050842,,,,,,,2024-02-26,1,,,,,ジョーネツアジャスト,0
1927,8430005014886,新規,0,2024-02-26,2024-02-26,行政書士法人アルド,,その他の設立登記法人,北海道,札幌市豊平区,平岸六条１４丁目２番９号タカダイストアービル２階,,01,105,0620936,,,,,,,2024-02-26,1,,,,,アルド,0
1929,8450001014236,新規,0,2024-02-26,2024-02-26,株式会社ＷｉｎＷｉｎ,,株式会社,北海道,空知郡上富良野町,大町２丁目１番１４号,,01,460,0710561,,,,,,,2024-02-26,1,,,,,ウィンウィン,0
1930,8460103001593,新規,0,2024-02-26,2024-02-26,合同会社ＣＦＰ,,合同会社,北海道,十勝郡浦幌町,字北町６番地５１,,01,649,0895621,,,,,,,2024-02-26,1,,,,,シーエフピー,0
1931,8470001020042,新規,0,2024-02-26,2024-02-26,株式会社ＫＯＹＯ,,株式会社,香川県,高松市,国分寺町国分１８８３番地９,,37,201,7690102,,,,,,,2024-02-26,1,,,,,コウヨウ,0
1935,8500001025475,新規,0,2024-02-26,2024-02-26,株式会社ハウジングドクター,,株式会社,愛媛県,松山市,森松町５１９番地２,,38,201,7911113,,,,,,,2024-02-26,1,,,,,ハウジングドクター,0
1936,8700150124165,新規,0,2024-02-26,2024-02-26,Ｐｕｎｉｎｇｓｈｉｌｉｎｇｊｉｎｇｄｉａｎｚｉｓｈａｎｇｗｕｙｏｕｘｉａｎｇｏｎｇｓｉ,,外国会社等,,,,,,,,７ｈａｏ，ｄｉ１１ｊｉｅ，Ｔａｎｇｃｈａｎｇｌｕ，Ｓｈｉｑｉａｏｔｏｕ　ｃｕｎ　Ｊｕｎｂｕｚｈｅｎ　Ｐｕｎｉｎｇｓｈｉ　Ｇｕａｎｇｄｏｎｇ　ＣＮ,,,,,,2024-02-26,1,,,,,プニンシリンジンデンシショウムユウゲンコウシ,0
1937,8700150124173,新規,0,2024-02-26,2024-02-26,ＧｕａｎｇＺｈｏｕ　ＱｉａｏＭｕ　ＤｉａｎＺｉ　ＳｈａｎｇＷｕ　ＹｏｕＸｉａｎ　ＧｏｎｇＳｉ,,外国会社等,,,,,,,,Ｇｕａｎｇｄｏｎｇｓｈｅｎｇｇｕａｎｇｚｈｏｕｓｈｉｔｉａｎｈｅｑｕｈｕａｑｉａｎｇｌｕ９ｈａｏ２１１０ｆａｎｇＣ２４２ｈａｏ,,,,,,2024-02-26,1,,,,,コウシュウチャオムデンシショウムユウゲンコウシ,0
1941,9010001242466,新規,0,2024-02-26,2024-02-26,ラビタス株式会社,,株式会社,東京都,中央区,銀座１丁目１２番４号Ｎ＆ＥＢＬＤ．６Ｆ,,13,102,1040061,,,,,,,2024-02-26,1,,,,,ラビタス,0
1945,9010003043053,新規,0,2024-02-26,2024-02-26,合同会社アザレア,,合同会社,東京都,千代田区,丸の内３丁目１番１号東京共同会計事務所内,,13,101,1000005,,,,,,,2024-02-26,1,,,,,アザレア,0
1946,9010005037937,新規,0,2024-02-26,2024-02-26,一般社団法人堀川,,その他の設立登記法人,東京都,千代田区,霞が関３丁目２番５号,,13,101,1000013,,,,,,,2024-02-26,1,,,,,ホリカワ,0
1947,9010101016019,新規,0,2024-02-26,2024-02-26,株式会社ネクスト,,株式会社,東京都,八王子市,美山町１６９８番地４,,13,201,1920152,,,,,,,2024-02-26,1,,,,,ネクスト,0
1957,9010401180605,新規,0,2024-02-26,2024-02-26,株式会社Ｔｈｒｅｅ,,株式会社,東京都,港区,赤坂３丁目１１番８号ザ・センチュリオンクラシック赤坂Ｂ１,,13,103,1070052,,,,,,,2024-02-26,1,,,,,スリー,0
1961,9010403032003,新規,0,2024-02-26,2024-02-26,ＤＥ　ＦＵＮＤ合同会社,,合同会社,東京都,港区,赤坂９丁目６番２８号,,13,103,1070052,,,,,,,2024-02-26,1,,,,,ディーイーファンド,0
1962,9010403032028,新規,0,2024-02-26,2024-02-26,Ｃｏｍｏ　Ｊａｐａｎ合同会社,,合同会社,東京都,港区,西新橋３丁目２４番８号山内ビル３階,,13,103,1050003,,,,,,,2024-02-26,1,,,,,コモジャパン,0
1974,9010901054762,新規,0,2024-02-26,2024-02-26,株式会社Ｈａｎａ　Ｐｌａｎ,,株式会社,東京都,世田谷区,代沢２丁目３３番２３号,,13,112,1550032,,,,,,,2024-02-26,1,,,,,ハナプラン,0
1976,9011001160220,新規,0,2024-02-26,2024-02-26,東輝商事株式会社,,株式会社,東京都,渋谷区,代々木２丁目２３番１号,,13,113,1510053,,,,,,,2024-02-26,1,,,,,トウキショウジ,0
1979,9011005010371,新規,0,2024-02-26,2024-02-26,一般社団法人火山防災推進研究所,,その他の設立登記法人,東京都,目黒区,五本木２丁目２６－５,,13,110,1530053,,,,,,,2024-02-26,1,,,,,カザンボウサイケンキュウスイシンジョ,0
1982,9011101106222,新規,0,2024-02-26,2024-02-26,ＦＵＫＵＴＡＭＡ株式会社,,株式会社,東京都,新宿区,西新宿６丁目２４番１号西新宿三井ビル５階,,13,104,1600023,,,,,,,2024-02-26,1,,,,,フクタマ,0
1983,9011101106271,新規,0,2024-02-26,2024-02-26,株式会社東京人事創研,,株式会社,東京都,新宿区,西新宿３丁目３番１３号西新宿水間ビル２Ｆ,,13,104,1600023,,,,,,,2024-02-26,1,,,,,トウキョウジンジソウケン,0
1984,9011101106296,新規,0,2024-02-26,2024-02-26,株式会社エフォール,,株式会社,東京都,新宿区,西新宿７丁目２２番３１号柏木ＭＵＲＡ１Ｆ,,13,104,1600023,,,,,,,2024-02-26,1,,,,,エフォール,0
1985,9011201025264,新規,0,2024-02-26,2024-02-26,株式会社パンダタワー,,株式会社,東京都,中野区,中野２丁目１９番２号リードシー中野ビル３Ｆ－１１号室,,13,114,1640001,,,,,,,2024-02-26,1,,,,,パンダタワー,0
1989,9011601027546,新規,0,2024-02-26,2024-02-26,株式会社まごころプラス,,株式会社,東京都,練馬区,北町１丁目１６番６号,,13,120,1790081,,,,,,,2024-02-26,1,,,,,マゴコロプラス,0
1990,9011701027058,新規,0,2024-02-26,2024-02-26,株式会社ＮＹＣ,,株式会社,東京都,江戸川区,平井５丁目１０－７サンセイハイツ１・Ｃ,,13,123,1320035,,,,,,,2024-02-26,1,,,,,エヌワイシー,0
1992,9012801022980,新規,0,2024-02-26,2024-02-26,株式会社ラディアンス,,株式会社,東京都,立川市,曙町２丁目２３番１号フタバソシアビルＢ１Ｆ,,13,202,1900012,,,,,,,2024-02-26,1,,,,,ラディアンス,0
1995,9013303007009,新規,0,2024-02-26,2024-02-26,愛昭合同会社,,合同会社,東京都,豊島区,池袋本町１丁目４０番１０号コープオリンピア１－３０４号室,,13,116,1700011,,,,,,,2024-02-26,1,,,,,アイショウ,0
1998,9020001155923,新規,0,2024-02-26,2024-02-26,株式会社日本ロジサポート,,株式会社,神奈川県,川崎市高津区,下作延６丁目１３番２７号,,14,134,2130033,,,,,,,2024-02-26,1,,,,,ニホンロジサポート,0
1999,9020001155931,新規,0,2024-02-26,2024-02-26,ｔｔ株式会社,,株式会社,神奈川県,横浜市港北区,新横浜１丁目１３番地６アイシスプラザＩＩＩ,00133837,14,109,2220033,,,,,,,2024-02-26,1,,,,,ティーティー,0
2000,9020001155948,新規,0,2024-02-26,2024-02-26,株式会社Ｐｉｘｅｌ　Ｊａｍ,,株式会社,神奈川県,横浜市中区,相生町３丁目６３－１－５１２,,14,104,2310012,,,,,,,2024-02-26,1,,,,,ピクセルジャム,0
2009,9030001158792,新規,0,2024-02-26,2024-02-26,株式会社武蔵野デザインワークス,,株式会社,埼玉県,所沢市,緑町１丁目２番５号フジビル３階,,11,208,3591111,,,,,,,2024-02-26,1,,,,,ムサシノデザインワークス,0
2010,9030001158850,新規,0,2024-02-26,2024-02-26,株式会社船舶精巧舎,,株式会社,埼玉県,さいたま市大宮区,桜木町２丁目３番地大宮マルイ７階,,11,103,3300854,,,,,,,2024-02-26,1,,,,,センパクセイコウシャ,0
2013,9040001132334,新規,0,2024-02-26,2024-02-26,株式会社ｙｍｓｔ,,株式会社,千葉県,船橋市,夏見４丁目２８番１３－２号,,12,204,2730865,,,,,,,2024-02-26,1,,,,,ワイエムエスティー,0
2014,9040001132375,新規,0,2024-02-26,2024-02-26,株式会社ＯＣＥＡＮ,,株式会社,千葉県,千葉市若葉区,千城台南１丁目６番１号,,12,104,2640003,,,,,,,2024-02-26,1,,,,,オーシャン,0
2015,9040003024364,新規,0,2024-02-26,2024-02-26,合同会社広和,,合同会社,千葉県,船橋市,小野田町１５３１番地１,,12,204,2740081,,,,,,,2024-02-26,1,,,,,コウワ,0
2016,9040003024372,新規,0,2024-02-26,2024-02-26,ハルノウタ合同会社,,合同会社,千葉県,八千代市,大和田新田１０７７番地１６４,,12,221,2760046,,,,,,,2024-02-26,1,,,,,ハルノウタ,0
2018,9050001054338,新規,0,2024-02-26,2024-02-26,株式会社光伸企画,,株式会社,茨城県,守谷市,松ケ丘３丁目１７番地１２,,08,224,3020127,,,,,,,2024-02-26,1,,,,,コウシンキカク,0
2022,9060001036855,新規,0,2024-02-26,2024-02-26,株式会社和牛牧場かくた,,株式会社,栃木県,那須郡那須町,大字高久甲１６４６番地３,,09,407,3250001,,,,,,,2024-02-26,1,,,,,ワギュウボクジョウカクタ,0
2025,9060003004926,新規,0,2024-02-26,2024-02-26,ＦＡＪＡＲ　ＴＲＡＤＩＮＧ合同会社,,合同会社,栃木県,小山市,城東３丁目１０番１６号クレマチス３０１号,,09,208,3230807,,,,,,,2024-02-26,1,,,,,ファジャールトレーディング,0
2026,9080101024551,新規,0,2024-02-26,2024-02-26,株式会社ＡＴＡＭＩ,,株式会社,静岡県,熱海市,熱海１７３９－３４熱海パサニアクラブ１３０１,,22,205,4130033,,,,,,,2024-02-26,1,,,,,アタミ,0
2029,9080401027023,新規,0,2024-02-26,2024-02-26,太竜電設株式会社,,株式会社,静岡県,浜松市浜名区,新都田３丁目１２番５号,,22,139,4312103,,,,,,,2024-02-26,1,,,,,ダイリュウデンセツ,0
2031,9090001018553,新規,0,2024-02-26,2024-02-26,株式会社ねこいち,,株式会社,山梨県,南巨摩郡富士川町,鰍沢１７３８－１,,19,368,4000601,,,,,,,2024-02-26,1,,,,,ネコイチ,0
2032,9090003002506,新規,0,2024-02-26,2024-02-26,合同会社リアライズ,,合同会社,山梨県,甲府市,中小河原１丁目３番２号シュエット光Ａ１０２,,19,201,4000855,,,,,,,2024-02-26,1,,,,,,0
2043,9120001262552,新規,0,2024-02-26,2024-02-26,株式会社夢の巡礼,,株式会社,大阪府,大阪市浪速区,恵美須東１丁目１１番４－８０２号,,27,111,5560002,,,,,,,2024-02-26,1,,,,,ユメノジュンレイ,0
2044,9120001262569,新規,0,2024-02-26,2024-02-26,株式会社熊元商事,,株式会社,大阪府,大阪市阿倍野区,美章園２丁目６番２４号２０１号室,,27,119,5450003,,,,,,,2024-02-26,1,,,,,クマモトショウジ,0
2045,9120001262585,新規,0,2024-02-26,2024-02-26,ＳＵＰＮＡＫＡ　ＪＡＰＡＮ株式会社,,株式会社,大阪府,大阪市西成区,鶴見橋２丁目３番１６号,,27,122,5570031,,,,,,,2024-02-26,1,,,,,サプナカジャパン,0
2046,9120001262627,新規,0,2024-02-26,2024-02-26,株式会社ビーライン,,株式会社,大阪府,大阪市住吉区,南住吉３丁目３番７号,,27,120,5580041,,,,,,,2024-02-26,1,,,,,ビーライン,0
2048,9120003025981,新規,0,2024-02-26,2024-02-26,Ｎｅｘｕｓ　Ｖｅｎｔｕｒｅｓ合同会社,,合同会社,大阪府,大阪市生野区,新今里７丁目２－１５－１０２,,27,116,5440001,,,,,,,2024-02-26,1,,,,,ネクサスベンチャーズ,0
2049,9120003026006,新規,0,2024-02-26,2024-02-26,合同会社らんの花,,合同会社,大阪府,大阪市阿倍野区,阪南町５丁目４番２８号,,27,119,5450021,,,,,,,2024-02-26,1,,,,,ランノハナ,0
2050,9120003026014,新規,0,2024-02-26,2024-02-26,ＡｌＡｃｒｏｓｓ合同会社,,合同会社,大阪府,大阪市東淀川区,淡路３丁目６番１９号,,27,114,5330032,,,,,,,2024-02-26,1,,,,,アルアクロス,0
2051,9120101069113,新規,0,2024-02-26,2024-02-26,株式会社ＬＨ,,株式会社,大阪府,河内長野市,原町５丁目３－８,,27,216,5860021,,,,,,,2024-02-26,1,,,,,エルエイチ,0
2055,9120901048794,新規,0,2024-02-26,2024-02-26,株式会社メタエステート,,株式会社,大阪府,豊中市,中桜塚３丁目１０番２３号,,27,203,5610881,,,,,,,2024-02-26,1,,,,,メタエステート,0
2060,9130001076423,新規,0,2024-02-26,2024-02-26,株式会社晋,,株式会社,京都府,京都市東山区,本町９丁目１２７番地１,,26,105,6050981,,,,,,,2024-02-26,1,,,,,シン,0
2063,9130005017019,新規,0,2024-02-26,2024-02-26,一般社団法人全国事業者認定協会,,その他の設立登記法人,京都府,京都市伏見区,清水町８８０番地,,26,109,6128325,,,,,,,2024-02-26,1,,,,,ゼンコクジギョウシャニンテイキョウカイ,0
2069,9150005009559,新規,0,2024-02-26,2024-02-26,一般社団法人ａｉ・ａｉ,,その他の設立登記法人,奈良県,生駒市,俵口町６９４－１,,29,209,6300243,,,,,,,2024-02-26,1,,,,,アイアイ,0
2073,9180001160239,新規,0,2024-02-26,2024-02-26,株式会社ホームクリエイト,,株式会社,愛知県,名古屋市中村区,名駅４丁目２４番５号第２森ビル４０１,,23,105,4500002,,,,,,,2024-02-26,1,,,,,ホームクリエイト,0
2079,9240001062825,新規,0,2024-02-26,2024-02-26,株式会社Ｓ‐ｃｒｅａｔｅ,,株式会社,広島県,広島市中区,三川町４番１０号プリンセス並木ビル６Ｆ,,34,101,7300029,,,,,,,2024-02-26,1,,,,,エスクリエイト,0
2080,9240001062833,新規,0,2024-02-26,2024-02-26,株式会社フジタコネクト,,株式会社,広島県,広島市中区,千田町３丁目４番２５号フォルム千田１００,,34,101,7300052,,,,,,,2024-02-26,1,,,,,フジタコネクト,0
2086,9260001038781,新規,0,2024-02-26,2024-02-26,株式会社Ｎ’ｓ,,株式会社,岡山県,岡山市北区,石関町１番地１１３,,33,101,7000813,,,,,,,2024-02-26,1,,,,,エヌズ,0
2090,9290005019305,新規,0,2024-02-26,2024-02-26,一般社団法人外国人材就労支援協会,,その他の設立登記法人,福岡県,筑紫野市,大字筑紫５０８－１,,40,217,8180025,,,,,,,2024-02-26,1,,,,,ガイコクジンザイシュウロウシエンキョウカイ,0
2092,9290801030349,新規,0,2024-02-26,2024-02-26,株式会社ＡｌｐｈａＧｒｏｕｐ,,株式会社,福岡県,北九州市八幡西区,山寺町１２番８号アメニス桜山寺４０２号室,,40,109,8060030,,,,,,,2024-02-26,1,,,,,アルファグループ,0
2094,9310001018877,新規,0,2024-02-26,2024-02-26,ＣＯＮＮＥＣＴ株式会社,,株式会社,長崎県,大村市,本町４４４番地,,42,205,8560832,,,,,,,2024-02-26,1,,,,,コネクト,0
2096,9310003004727,新規,0,2024-02-26,2024-02-26,合同会社シクセル,,合同会社,長崎県,長崎市,茂木町１－５９,,42,201,8510241,,,,,,,2024-02-26,1,,,,,,0
2097,9320003004296,新規,0,2024-02-26,2024-02-26,合同会社Ｃｈａｒｍｅ,,合同会社,大分県,大分市,都町２丁目５番２６号エンプレイス４Ｆ,,44,201,8700034,,,,,,,2024-02-26,1,,,,,シャルム,0
2098,9330001031779,新規,0,2024-02-26,2024-02-26,ＧＭ九州株式会社,,株式会社,熊本県,熊本市南区,城南町千町１７２２－３,,43,104,8614235,,,,,,,2024-02-26,1,,,,,ジーエムキュウシュウ,0
2105,9360001033228,新規,0,2024-02-26,2024-02-26,株式会社エターナルトリップ,,株式会社,沖縄県,那覇市,泉崎１丁目１７－１７－３０２,,47,201,9000021,,,,,,,2024-02-26,1,,,,,エターナルトリップ,0
2109,9370001050965,新規,0,2024-02-26,2024-02-26,大和オート商会株式会社,,株式会社,宮城県,東松島市,矢本字作田浦１９２番地２,,04,214,9810503,,,,,,,2024-02-26,1,,,,,ヤマトオートショウカイ,0
2117,9430003015984,新規,0,2024-02-26,2024-02-26,合同会社ＥｔｅｒｎａｌＢｌｏｏｍ,,合同会社,北海道,札幌市中央区,南十五条西９丁目１番１８－２０２号,,01,101,0640915,,,,,,,2024-02-26,1,,,,,エターナルブルーム,0
2118,9430005014902,新規,0,2024-02-26,2024-02-26,一般社団法人地域企業ネットワーク研究所,,その他の設立登記法人,北海道,札幌市中央区,北四条東２丁目８番地,,01,101,0600034,,,,,,,2024-02-26,1,,,,,チイキキギョウネットワークケンキュウジョ,0
2120,9700150124164,新規,0,2024-02-26,2024-02-26,Ｇｕａｎｇ　Ｚｈｏｕ　Ｈｅｎｇ　Ｈａｉ　Ｓｉ　Ｄａ　Ｍａｏ　Ｙｉ　Ｙｏｕ　Ｘｉａｎ　Ｇｏｎｇ　Ｓｉ,,外国会社等,,,,,,,,Ｇｕａｎｇ　Ｄｏｎｇ　Ｓｈｅｎｇ　Ｇｕａｎｇ　Ｚｈｏｕ　Ｓｈｉ　Ｈｕａｎｇ　Ｐｕ　Ｑｕ　Ｒｕｉ　Ｆｅｎｇ　Ｓａｎ　Ｊｉｅ　２　Ｈａｏ（ｚｉｂｉａｎ１＃）２１３０　Ｆａｎｇ,,,,,,2024-02-26,1,,,,,コウシュウヘンハイシダボウエキユウゲンコウシ,0
2121,9700150124172,新規,0,2024-02-26,2024-02-26,ｊｉｅｙａｎｇｓｈｉｊｉａｈｕａｉｋｅｊｉｙｏｕｘｉａｎｇｏｎｇｓｉ,,外国会社等,,,,,,,,Ｇｕａｎｇｄｏｎｇ　Ｊｉｅｘｉｘｉａｎ　Ｊｉｎｈｅｚｈｅｎ　Ｈｅｎａｎｃｕｎｗｅｉ　Ｊｉｎｈｅｄａｄａｏｊｉｅｈｏｎｇｑｉａｏｔｏｕ,,,,,,2024-02-26,1,,,,,ジエヤンシジャホウアカギユウゲンコウシ,0
