sequenceNumber,corporateNumber,process,correct,updateDate,changeDate,name,nameImageId,kind,prefectureName,cityName,streetNumber,addressImageId,prefectureCode,cityCode,postCode,addressOutside,addressOutsideImageId,closeDate,closeCause,successorCorporateNumber,changeCause,assignmentDate,latest,enName,enPrefectureName,enCityName,enAddressOutside,furigana,hihyoji
9,1010001216064,登記記録の閉鎖等,0,2023-03-07,2023-03-01,株式会社ＤｘＲ,,株式会社,東京都,中央区,日本橋２丁目１番３－１００１号,,13,102,1030027,,,2023-03-01,清算の結了等,,,2021-03-01,1,,,,,ディーバイアール,0
23,1010402036648,登記記録の閉鎖等,0,2023-03-07,2023-02-27,有限会社ディアマンテパートナーズ,,有限会社,東京都,港区,赤坂３丁目２番６号赤坂光映ビル,,13,103,1070052,,,2023-02-27,清算の結了等,,,2015-10-05,1,,,,,ディアマンテパートナーズ,0
28,1010501033546,登記記録の閉鎖等,0,2023-03-07,2023-03-01,株式会社泰成,,株式会社,神奈川県,横浜市都筑区,池辺町３２５３番地,,14,118,2240053,,,2023-03-01,清算の結了等,,,2015-10-05,1,,,,,タイセイ,0
82,1012803001387,登記記録の閉鎖等,0,2023-03-07,2023-03-01,合同会社Ｇ１Ｋ,,合同会社,東京都,港区,浜松町２丁目２番１５号,,13,103,1050013,,,2023-03-01,清算の結了等,,,2016-01-06,1,,,,,ジーワンケー,0
94,1020001061006,登記記録の閉鎖等,0,2023-03-07,2023-03-01,株式会社Ｔｏｙｏ,,株式会社,東京都,千代田区,二番町９番３号,,13,101,1020084,,,2023-03-01,合併による解散等,1010001099492,令和５年３月１日東京都千代田区二番町９番３号株式会社Ｒａｄｉａｎｔｉｐ（1010001099492）に合併し解散,2015-10-05,1,,,,,トーヨー,0
119,1021002061358,登記記録の閉鎖等,0,2023-03-07,2023-03-01,有限会社明招工業,,有限会社,神奈川県,平塚市,見附町４６番１６号,,14,203,2540045,,,2023-03-01,合併による解散等,4021001037471,令和５年２月１日神奈川県平塚市見附町４６番１６号明和管工株式会社（4021001037471）に合併し解散,2015-10-05,1,,,,,メイショウコウギョウ,0
121,1030001031486,登記記録の閉鎖等,0,2023-03-07,2023-03-01,東武化学株式会社,,株式会社,埼玉県,幸手市,大字幸手３８２６番地３,,11,240,3400113,,,2023-03-01,清算の結了等,,,2015-10-05,1,,,,,トウブカガク,0
135,1030002075689,登記記録の閉鎖等,0,2023-03-07,2023-03-02,有限会社レストランシャロン,,有限会社,埼玉県,川越市,大字南大塚１８６７番地３,,11,201,3501162,,,2023-03-02,清算の結了等,,,2015-10-05,1,,,,,レストランシャロン,0
147,1050002042828,登記記録の閉鎖等,0,2023-03-07,2023-03-01,有限会社嶺商事,,有限会社,茨城県,桜川市,真壁町下小幡８番地の１,,08,231,3004402,,,2023-03-01,清算の結了等,,,2015-10-05,1,,,,,ミネショウジ,0
159,1100001026058,登記記録の閉鎖等,0,2023-03-07,2023-03-01,株式会社三好,,株式会社,長野県,松本市,大字島立８２９番地１,,20,202,3900852,,,2023-03-01,清算の結了等,,,2015-10-05,1,,,,,サンコウ,0
176,1120001189753,登記記録の閉鎖等,0,2023-03-07,2023-03-01,リースバック株式会社,,株式会社,兵庫県,神戸市中央区,東町１２３番地の１,,28,110,6500031,,,2023-03-01,合併による解散等,9140001119412,令和５年３月１日神戸市中央区東町１２３番地の１神戸再生支援チーム株式会社（9140001119412）に合併し解散,2015-10-05,1,,,,,リースバック,0
188,1120002075234,登記記録の閉鎖等,0,2023-03-07,2023-03-02,有限会社武蔵,,有限会社,大阪府,枚方市,長尾宮前２丁目２２番２２号,,27,210,5730107,,,2023-03-02,清算の結了等,,,2015-10-05,1,,,,,,0
193,1120005020303,登記記録の閉鎖等,0,2023-03-07,2023-03-03,特定非営利活動法人西日本ハラル振興会,,その他の設立登記法人,大阪府,大阪市浪速区,元町２丁目１０番７号,,27,111,5560016,,,2023-03-03,清算の結了等,,,2018-07-17,1,,,,,ニシニホンハラルシンコウカイ,0
226,1160001006525,登記記録の閉鎖等,0,2023-03-07,2023-03-02,河藤株式会社,,株式会社,滋賀県,長浜市,口分田町５２３番地,,25,203,5260014,,,2023-03-02,清算の結了等,,,2015-10-05,1,,,,,カワトウ,0
243,1190001006968,登記記録の閉鎖等,0,2023-03-07,2023-03-01,フルノ関西販売株式会社,,株式会社,兵庫県,西宮市,芦原町９番５２号,,28,204,6620842,,,2023-03-01,合併による解散等,5140001070263,令和５年３月１日兵庫県西宮市芦原町９番５２号古野電気株式会社（5140001070263）に合併し解散,2015-10-05,1,,,,,フルノカンサイハンバイ,0
245,1190002016628,登記記録の閉鎖等,0,2023-03-07,2023-03-02,有限会社佐藤製作所,,有限会社,三重県,桑名市,大字西別所４２４番地,,24,205,5110851,,,2023-03-02,清算の結了等,,,2015-10-05,1,,,,,サトウセイサクショ,0
262,1240002012365,登記記録の閉鎖等,0,2023-03-07,2023-03-06,有限会社にのみや食品,,有限会社,広島県,広島市安佐北区,安佐町大字鈴張２９０８番地,,34,106,7311141,,,2023-03-06,清算の結了等,,,2015-10-05,1,,,,,ニノミヤショクヒン,0
269,1260002030340,登記記録の閉鎖等,0,2023-03-07,2023-03-01,株式会社ペットライフ,,株式会社,兵庫県,たつの市,新宮町香山１９５番地,,28,229,6794302,,,2023-03-01,清算の結了等,,,2015-10-05,1,,,,,ペットライフ,0
291,1350001010598,登記記録の閉鎖等,0,2023-03-07,2023-03-03,株式会社国富ガスセンター,,株式会社,宮崎県,東諸県郡国富町,大字田尻１７６５番６,,45,382,8801104,,,2023-03-03,清算の結了等,,,2015-10-05,1,,,,,クニトミガスセンター,0
301,1400002007200,登記記録の閉鎖等,0,2023-03-07,2023-03-02,有限会社吉田自動車塗装,,有限会社,岩手県,紫波郡紫波町,犬吠森字間木沢３２番地１,,03,321,0283312,,,2023-03-02,清算の結了等,,,2015-10-05,1,,,,,ヨシダジドウシャトソウ,0
307,1430001057672,登記記録の閉鎖等,0,2023-03-07,2023-02-28,ムーンライズ株式会社,,株式会社,北海道,虻田郡洞爺湖町,月浦４４番地６２６,,01,584,0495723,,,2023-02-28,清算の結了等,,,2015-10-05,1,,,,,ムーンライズ,0
308,1430001059875,登記記録の閉鎖等,0,2023-03-07,2023-03-06,北広米穀株式会社,,株式会社,北海道,北広島市,大曲工業団地５丁目３番地３,,01,234,0611274,,,2023-03-06,清算の結了等,,,2015-10-05,1,,,,,,0
316,1450001009894,登記記録の閉鎖等,0,2023-03-07,2023-03-03,株式会社砂原紙店,,株式会社,北海道,旭川市,旭町二条８丁目２５番地４９,,01,204,0700832,,,2023-03-03,合併による解散等,1430001004377,令和５年２月２１日札幌市東区北二十条東十六丁目５番２９号株式会社北川（1430001004377）に合併し解散,2015-10-05,1,,,,,スナハラカミテン,0
321,1470002010726,登記記録の閉鎖等,0,2023-03-07,2023-03-01,有限会社藤井畳店,,有限会社,香川県,木田郡三木町,大字氷上５７２番地３,,37,341,7610612,,,2023-03-01,清算の結了等,,,2015-10-05,1,,,,,フジイタタミテン,0
331,2010001066013,登記記録の閉鎖等,0,2023-03-07,2023-03-01,株式会社セネット,,株式会社,東京都,千代田区,神田佐久間町３丁目２１番地５ヒガシカンダビル３０７号,,13,101,1010025,,,2023-03-01,清算の結了等,,,2015-10-05,1,,,,,セネット,0
403,2013101000915,登記記録の閉鎖等,0,2023-03-07,2023-03-03,ガンサージャパン株式会社,,株式会社,東京都,あきる野市,舘谷１１７番地の５,,13,228,1900163,,,2023-03-03,清算の結了等,,,2015-10-05,1,,,,,ガンサージャパン,0
404,2013101008090,登記記録の閉鎖等,0,2023-03-07,2023-03-06,株式会社Ｐｕｒｐｌｅ　ｐｅａｎｕｔｓ,,株式会社,東京都,青梅市,梅郷６丁目１２２９番地１３,,13,205,1980063,,,2023-03-06,清算の結了等,,,2019-06-03,1,,,,,パープルピーナッツ,0
410,2013405000883,登記記録の閉鎖等,0,2023-03-07,2023-03-02,公益財団法人日野自動車グリーンファンド,,その他の設立登記法人,東京都,日野市,日野台３丁目１番地１,,13,212,1910003,,,2023-03-02,清算の結了等,,,2015-10-05,1,,,,,ヒノジドウシャグリーンファンド,0
426,2020002072653,登記記録の閉鎖等,0,2023-03-07,2023-03-02,有限会社ケーエム・カンパニー,,有限会社,神奈川県,横浜市中区,根岸旭台３４番地７,,14,104,2310854,,,2023-03-02,清算の結了等,,,2015-10-05,1,,,,,ケーエムカンパニー,0
428,2021001066266,登記記録の閉鎖等,0,2023-03-07,2023-03-01,株式会社キュートン,,株式会社,神奈川県,厚木市,中町４丁目２番３号ライズ中町ビル６階,,14,212,2430018,,,2023-03-01,清算の結了等,,,2018-12-26,1,,,,,キュートン,0
435,2030001012956,登記記録の閉鎖等,0,2023-03-07,2023-03-01,日新技術株式会社,,株式会社,埼玉県,さいたま市桜区,西堀２丁目２１番３号,,11,106,3380832,,,2023-03-01,清算の結了等,,,2015-10-05,1,,,,,ニッシンギジュツ,0
491,2120002043140,登記記録の閉鎖等,0,2023-03-07,2023-03-02,有限会社エスケイティ・アルゴ,,有限会社,大阪府,大阪市港区,田中２丁目１番１２号,,27,107,5520005,,,2023-03-02,清算の結了等,,,2015-10-05,1,,,,,エスケイティアルゴ,0
499,2120901043827,登記記録の閉鎖等,0,2023-03-07,2023-03-01,池田ゴルフ株式会社,,株式会社,東京都,台東区,東上野１丁目１４番７号,,13,106,1100015,,,2023-03-01,合併による解散等,1010401055285,令和５年３月１日東京都台東区東上野一丁目１４番７号ＰＧＭプロパティーズ株式会社（1010401055285）に合併し解散,2021-02-09,1,,,,,イケダゴルフ,0
517,2140002057691,登記記録の閉鎖等,0,2023-03-07,2023-03-01,有限会社福永電装サービス,,有限会社,兵庫県,西宮市,老松町１１番１４号,,28,204,6620085,,,2023-03-01,清算の結了等,,,2015-10-05,1,,,,,フクナガデンソウサービス,0
534,2180001142895,登記記録の閉鎖等,0,2023-03-07,2023-03-02,ＴＭＴアソシア株式会社,,株式会社,愛知県,春日井市,勝川町７丁目３７番地,,23,206,4860945,,,2023-03-02,清算の結了等,,,2020-09-24,1,,,,,ティエムティアソシア,0
547,2200001033695,登記記録の閉鎖等,0,2023-03-07,2023-03-06,株式会社林組,,株式会社,岐阜県,各務原市,尾崎北町２丁目１４番地,,21,213,5040002,,,2023-03-06,清算の結了等,,,2017-01-31,1,,,,,ハヤシグミ,0
561,2240002003470,登記記録の閉鎖等,0,2023-03-07,2023-03-06,有限会社小野,,有限会社,広島県,広島市中区,羽衣町１６番３５号,,34,101,7300814,,,2023-03-06,清算の結了等,,,2015-10-05,1,,,,,オノ,0
570,2280002002345,登記記録の閉鎖等,0,2023-03-07,2023-03-03,有限会社メディカルショップグローリア,,有限会社,島根県,松江市,新庄町１１７２番地,,32,201,6901103,,,2023-03-03,清算の結了等,,,2015-10-05,1,,,,,メディカルショップグローリア,0
580,2300002000148,登記記録の閉鎖等,0,2023-03-07,2023-03-02,有限会社梅田,,有限会社,佐賀県,佐賀市,兵庫南２丁目３番２７号,,41,201,8490918,,,2023-03-02,清算の結了等,,,2015-10-05,1,,,,,ウメダ,0
581,2310002020830,登記記録の閉鎖等,0,2023-03-07,2023-03-06,有限会社三十二電子,,有限会社,長崎県,長崎市,赤迫１丁目１番１２－１００２号,,42,201,8528156,,,2023-03-06,清算の結了等,,,2015-10-05,1,,,,,サンジュウニデンシ,0
604,2390001013464,登記記録の閉鎖等,0,2023-03-07,2023-03-01,株式会社メディカル・ファーマシー,,株式会社,山形県,最上郡大蔵村,大字清水２３４６番地２,,06,365,9960212,,,2023-03-01,清算の結了等,,,2015-10-05,1,,,,,メディカルファーマシー,0
633,3010001216021,登記記録の閉鎖等,0,2023-03-07,2023-02-28,双京通商株式会社,,株式会社,京都府,京都市下京区,中堂寺粟田町９１番地ＫＲＰ９号館５０３号室,,26,106,6008815,,,2023-02-28,清算の結了等,,,2021-02-22,1,,,,,ソウジンツウショウ,0
654,3010502021580,登記記録の閉鎖等,0,2023-03-07,2023-03-06,有限会社ＭＡＸＩＭ,,有限会社,東京都,台東区,寿３丁目９番５号,,13,106,1110042,,,2023-03-06,清算の結了等,,,2015-10-05,1,,,,,,0
658,3010601012638,登記記録の閉鎖等,0,2023-03-07,2023-03-03,墨田加工株式会社,,株式会社,東京都,墨田区,八広６丁目４１番６号,,13,107,1310041,,,2023-03-03,合併による解散等,2120001021304,令和５年３月１日大阪市平野区加美北六丁目１５番１４号ハシダ技研工業株式会社（2120001021304）に合併し解散,2015-10-05,1,,,,,スミダカコウ,0
659,3010601024055,登記記録の閉鎖等,0,2023-03-07,2023-03-03,ベルテックレーザ株式会社,,株式会社,東京都,墨田区,八広６丁目４１番６号,,13,107,1310041,,,2023-03-03,合併による解散等,2120001021304,令和５年３月１日大阪市平野区加美北六丁目１５番１４号ハシダ技研工業株式会社（2120001021304）に合併し解散,2015-10-05,1,,,,,ベルテックレーザ,0
661,3010602000261,登記記録の閉鎖等,0,2023-03-07,2023-02-28,有限会社伊東製作所,,有限会社,東京都,江東区,北砂３丁目５番２４号,,13,108,1360073,,,2023-02-28,清算の結了等,,,2015-10-05,1,,,,,イトウセイサクショ,0
671,3011001109578,登記記録の閉鎖等,0,2023-03-07,2023-03-01,株式会社Ｌ．ＢＥ,,株式会社,東京都,渋谷区,恵比寿１丁目１５番９号シルク恵比寿４０３,,13,113,1500013,,,2023-03-01,清算の結了等,,,2016-02-18,1,,,,,,0
685,3011503001935,登記記録の閉鎖等,0,2023-03-07,2023-02-27,合同会社メタトロンプロダクション,,合同会社,東京都,荒川区,東尾久３丁目９番１４－３０１号,,13,118,1160012,,,2023-02-27,清算の結了等,,,2015-10-05,1,,,,,メタトロンプロダクション,0
690,3011702008905,登記記録の閉鎖等,0,2023-03-07,2023-03-06,日照電気工事有限会社,,有限会社,東京都,江戸川区,瑞江１丁目２４番１３号,,13,123,1320011,,,2023-03-06,清算の結了等,,,2015-10-05,1,,,,,ニッショウデンキコウジ,0
722,3021001067916,登記記録の閉鎖等,0,2023-03-07,2023-03-01,富岡ゴルフ株式会社,,株式会社,東京都,台東区,東上野１丁目１４番７号,,13,106,1100015,,,2023-03-01,合併による解散等,1010401055285,令和５年３月１日東京都台東区東上野一丁目１４番７号ＰＧＭプロパティーズ株式会社（1010401055285）に合併し解散,2019-08-07,1,,,,,トミオカゴルフ,0
743,3060002019600,登記記録の閉鎖等,0,2023-03-07,2023-03-02,有限会社植野商事,,有限会社,栃木県,鹿沼市,茂呂２６８番地３,,09,205,3220026,,,2023-03-02,清算の結了等,,,2015-10-05,1,,,,,,0
753,3100001015513,登記記録の閉鎖等,0,2023-03-07,2023-03-01,株式会社あいおいしなのエージェント,,株式会社,長野県,松本市,小屋南２丁目１０番１４号,,20,202,3990038,,,2023-03-01,清算の結了等,,,2015-10-05,1,,,,,アイオイシナノエージェント,0
777,3120005022149,登記記録の閉鎖等,0,2023-03-07,2023-02-28,一般社団法人アクアマン,,その他の設立登記法人,愛知県,名古屋市西区,砂原町２２１番地の２,,23,104,4520811,,,2023-02-28,清算の結了等,,,2021-03-03,1,,,,,アクアマン,0
785,3130001014479,登記記録の閉鎖等,0,2023-03-07,2023-03-03,コーワ建設株式会社,,株式会社,京都府,京都市伏見区,新町１１丁目３３５番地２,,26,109,6128081,,,2023-03-03,清算の結了等,,,2015-10-05,1,,,,,コーワケンセツ,0
800,3140005011950,登記記録の閉鎖等,0,2023-03-07,2023-03-01,兵庫県鞄卸商業組合,00042290,その他の設立登記法人,兵庫県,豊岡市,大磯町１番７９号,,28,209,6680041,,,2023-03-01,清算の結了等,,,2015-10-05,1,,,,,ヒョウゴケンカバンオロシ,0
824,3180302000223,登記記録の閉鎖等,0,2023-03-07,2023-02-28,有限会社アルファ建設,,有限会社,愛知県,岡崎市,久後崎町字郷東１番地４,,23,202,4440851,,,2023-02-28,清算の結了等,,,2015-10-05,1,,,,,アルファケンセツ,0
825,3180302020411,登記記録の閉鎖等,0,2023-03-07,2023-03-01,有限会社神谷ゴム工業所,,有限会社,愛知県,高浜市,呉竹町６丁目６番地２１,,23,227,4441336,,,2023-03-01,清算の結了等,,,2015-10-05,1,,,,,カミヤゴムコウギョウショ,0
826,3190001006058,登記記録の閉鎖等,0,2023-03-07,2023-02-27,株式会社進裕商会,,株式会社,三重県,鈴鹿市,国府町７６５７番地の２,,24,207,5130836,,,2023-02-27,清算の結了等,,,2015-10-05,1,,,,,シンユウショウカイ,0
840,3240002013411,登記記録の閉鎖等,0,2023-03-07,2023-03-02,有限会社八星建設,,有限会社,広島県,広島市中区,広瀬北町３番２５号,,34,101,7300803,,,2023-03-02,清算の結了等,,,2015-10-05,1,,,,,ハッセイケンセツ,0
871,3340001011356,登記記録の閉鎖等,0,2023-03-07,2023-03-06,株式会社ダイセツ,,株式会社,鹿児島県,姶良市,加治木町木田１４３７番地２,,46,225,8995241,,,2023-03-06,清算の結了等,,,2015-10-05,1,,,,,ダイセツ,0
884,3380001014495,登記記録の閉鎖等,0,2023-03-07,2023-03-02,株式会社Ｎ．Ｔ．ネットワーク,,株式会社,福島県,いわき市,平上荒川字長尾１１５番地の３,,07,204,9708034,,,2023-03-02,清算の結了等,,,2015-10-05,1,,,,,エヌティネットワーク,0
887,3390001015773,登記記録の閉鎖等,0,2023-03-07,2023-03-01,アート新庄株式会社,,株式会社,山形県,新庄市,沼田町２番６号,,06,205,9960083,,,2023-03-01,清算の結了等,,,2019-07-23,1,,,,,アートシンジョウ,0
899,3430003011361,登記記録の閉鎖等,0,2023-03-07,2023-03-02,いしかり介護振興合同会社,,合同会社,北海道,札幌市手稲区,稲穂一条８丁目４番１０号,,01,109,0060031,,,2023-03-02,清算の結了等,,,2020-03-11,1,,,,,イシカリカイゴシンコウ,0
900,3430005010873,登記記録の閉鎖等,0,2023-03-07,2023-03-03,一般社団法人小樽銀行協会,00090262,その他の設立登記法人,北海道,小樽市,稲穂２丁目２番４号北洋銀行小樽中央支店２階,,01,203,0470032,,,2023-03-03,清算の結了等,,,2015-10-05,1,,,,,オタルギンコウキョウカイ,0
918,4010001062828,登記記録の閉鎖等,0,2023-03-07,2023-03-02,株式会社フェニックスプラザ,,株式会社,東京都,中央区,銀座３丁目９番１１号,,13,102,1040061,,,2023-03-02,合併による解散等,3010001040801,令和５年２月２８日東京都中央区銀座三丁目９番１１号株式会社紙パルプ会館（3010001040801）に合併し解散,2015-10-05,1,,,,,フェニックスプラザ,0
920,4010001147612,登記記録の閉鎖等,0,2023-03-07,2023-03-01,株式会社Ｔｕｌｓｉ　Ｔｒｅｅ,,株式会社,東京都,千代田区,一番町１８番地１一番町１８パークマンション４０３号,,13,101,1020082,,,2023-03-01,清算の結了等,,,2015-10-05,1,,,,,トゥルシーツリー,0
929,4010401051579,登記記録の閉鎖等,0,2023-03-07,2023-03-01,パーセプトロンアジアパシフィック株式会社,,株式会社,東京都,豊島区,池袋２丁目５４番１２号日宝池袋第一ビル４階,,13,116,1710014,,,2023-03-01,清算の結了等,,,2015-10-05,1,,,,,パーセプトロンアジアパシフィック,0
937,4010403021299,登記記録の閉鎖等,0,2023-03-07,2023-02-27,合同会社ＯＹＯ　ＭＹＰＲＥＦＥＲＲＥＤ　ＨＯＳＰＩＴＡＬＩＴＹ　ＪＡＰＡＮ,,合同会社,東京都,港区,新橋２丁目１６番１号ニュー新橋ビル９階,,13,103,1050004,,,2023-02-27,清算の結了等,,,2019-08-22,1,,,,,オヨマイプリファードホスピタリティジャパン,0
949,4010701038318,登記記録の閉鎖等,0,2023-03-07,2023-03-01,株式会社ザ・パーク,,株式会社,東京都,品川区,北品川５丁目５番２６号,,13,109,1410001,,,2023-03-01,合併による解散等,6010701005431,令和５年３月１日東京都品川区北品川五丁目５番２６号株式会社第一興商（6010701005431）に合併し解散,2019-10-08,1,,,,,ザパーク,0
951,4010801020745,登記記録の閉鎖等,0,2023-03-07,2023-03-01,株式会社海栄,,株式会社,東京都,大田区,西蒲田７丁目６０番１１号栄寿ビル,,13,111,1440051,,,2023-03-01,清算の結了等,,,2015-10-05,1,,,,,カイエイ,0
954,4010902001066,登記記録の閉鎖等,0,2023-03-07,2023-03-01,有限会社アルゴス企画,,有限会社,東京都,世田谷区,尾山台３丁目２８番２１号,,13,112,1580086,,,2023-03-01,清算の結了等,,,2015-10-05,1,,,,,アルゴスキカク,0
958,4011001144038,登記記録の閉鎖等,0,2023-03-07,2023-02-27,株式会社ＧＲ２,,株式会社,東京都,渋谷区,広尾１丁目１３番１号,,13,113,1500012,,,2023-02-27,合併による解散等,2011001141598,令和５年１月３１日東京都目黒区下目黒一丁目８番１号株式会社ＨＹＶ（2011001141598）に合併し解散,2021-11-18,1,,,,,ジーアールツー,0
963,4011003014148,登記記録の閉鎖等,0,2023-03-07,2023-02-24,合同会社オルター,,合同会社,東京都,渋谷区,神宮前６丁目２３番４号桑野ビル２階,,13,113,1500001,,,2023-02-24,清算の結了等,,,2022-02-07,1,,,,,オルター,0
977,4011802004274,登記記録の閉鎖等,0,2023-03-07,2023-03-02,有限会社青海商事,,有限会社,東京都,葛飾区,細田３丁目３３番９号,,13,122,1240021,,,2023-03-02,清算の結了等,,,2015-10-05,1,,,,,アオウミショウジ,0
985,4013301034208,登記記録の閉鎖等,0,2023-03-07,2023-03-03,株式会社ナガタコンサルティング,,株式会社,東京都,豊島区,西巣鴨３丁目２３番８－３０３号,,13,116,1700001,,,2023-03-03,清算の結了等,,,2015-10-05,1,,,,,ナガタコンサルティング,0
1004,4020002018332,登記記録の閉鎖等,0,2023-03-07,2023-03-02,有限会社オセアニア出版社,,有限会社,神奈川県,横浜市港南区,丸山台２丁目４１番３６号,,14,111,2330013,,,2023-03-02,清算の結了等,,,2015-10-05,1,,,,,オセアニアシュッパンシャ,0
1014,4030001008234,登記記録の閉鎖等,0,2023-03-07,2023-03-01,武蔵エンジニアリング株式会社,,株式会社,埼玉県,さいたま市浦和区,常盤９丁目１４番３号,,11,107,3300061,,,2023-03-01,清算の結了等,,,2015-10-05,1,,,,,ムサシエンジニアリング,0
1016,4030001089092,登記記録の閉鎖等,0,2023-03-07,2023-03-02,株式会社ＴＭＮ,,株式会社,埼玉県,深谷市,黒田３４０番地１,,11,218,3691244,,,2023-03-02,清算の結了等,,,2015-10-05,1,,,,,ティーエムエヌ,0
1022,4030002026482,登記記録の閉鎖等,0,2023-03-07,2023-03-01,有限会社ルカ,,有限会社,埼玉県,蕨市,中央４丁目１４番６号,,11,223,3350004,,,2023-03-01,合併による解散等,8030001020887,令和５年３月１日埼玉県蕨市中央四丁目１４番６号株式会社池田屋（8030001020887）に合併し解散,2015-10-05,1,,,,,ルカ,0
1061,4110002028256,登記記録の閉鎖等,0,2023-03-07,2023-02-28,有限会社タックス・ゼロ,,有限会社,新潟県,長岡市,住吉２丁目７番２７号,,15,202,9400044,,,2023-02-28,清算の結了等,,,2015-10-05,1,,,,,タックスゼロ,0
1065,4120001079480,登記記録の閉鎖等,0,2023-03-07,2023-03-01,株式会社セラベア,,株式会社,大阪府,大阪市中央区,安堂寺町１丁目１番１０号,,27,128,5420061,,,2023-03-01,合併による解散等,5120001079471,令和５年２月２８日大阪市中央区龍造寺町２番３号株式会社セラベア（5120001079471）に合併し解散,2015-10-05,1,,,,,セラベア,0
1066,4120001157113,登記記録の閉鎖等,0,2023-03-07,2023-02-28,株式会社イノベーション,,株式会社,大阪府,門真市,月出町３番３５号,,27,223,5710052,,,2023-02-28,清算の結了等,,,2015-10-05,1,,,,,イノベーション,0
1093,4130002015673,登記記録の閉鎖等,0,2023-03-07,2023-02-28,有限会社伊藤録染工,,有限会社,京都府,京都市上京区,中筋通浄福寺東入菱屋町２９１番地,,26,102,6028451,,,2023-02-28,清算の結了等,,,2015-10-05,1,,,,,イトウロクセンコウ,0
1104,4140003011266,登記記録の閉鎖等,0,2023-03-07,2023-03-03,カスミプランニング合資会社,,合資会社,兵庫県,神戸市垂水区,霞ケ丘７丁目２番１５号,,28,108,6550039,,,2023-03-03,合併による解散等,1230003001293,令和５年２月１９日富山市森住町１２番１２号株式会社フォレスト（1230003001293）に合併し解散,2016-03-08,1,,,,,カスミプランニング,0
1111,4170002008194,登記記録の閉鎖等,0,2023-03-07,2023-03-01,有限会社紀北西生コン,,有限会社,和歌山県,紀の川市,尾崎９２番地の１,,30,208,6496423,,,2023-03-01,合併による解散等,3170002008195,令和５年３月１日和歌山県紀の川市尾崎９２番地の１株式会社ＰＡＬレミコン（3170002008195）に合併し解散,2015-10-05,1,,,,,キホクニシナマコン,0
1134,4200002009767,登記記録の閉鎖等,0,2023-03-07,2023-03-06,有限会社細野建設,,有限会社,岐阜県,本巣市,根尾板所６２３番地の３,,21,218,5011524,,,2023-03-06,清算の結了等,,,2015-10-05,1,,,,,ホソノケンセツ,0
1140,4230003000771,登記記録の閉鎖等,0,2023-03-07,2023-03-06,合同会社健康未来,,合同会社,富山県,富山市,上赤江町２丁目４番３５号,,16,201,9300816,,,2023-03-06,清算の結了等,,,2015-10-05,1,,,,,ケンコウミライ,0
1141,4240001018030,登記記録の閉鎖等,0,2023-03-07,2023-03-06,株式会社エスティー・ワイズ,,株式会社,広島県,広島市東区,戸坂惣田１丁目１５番２１号,,34,102,7320001,,,2023-03-06,清算の結了等,,,2015-10-05,1,,,,,エスティーワイズ,0
1144,4250002019984,登記記録の閉鎖等,0,2023-03-07,2023-03-03,有限会社神戸屋,,有限会社,山口県,柳井市,中央３丁目２０番３号,,35,212,7420035,,,2023-03-03,清算の結了等,,,2015-10-05,1,,,,,コウベヤ,0
1156,4310003004302,登記記録の閉鎖等,0,2023-03-07,2023-03-02,合同会社コンテントメント,,合同会社,長崎県,長崎市,大黒町１０－１０ＫｏＫｏＲｏビル６ＥＷ号室,,42,201,8500057,,,2023-03-02,清算の結了等,,,2022-03-09,1,,,,,コンテントメント,0
1157,4320002018541,登記記録の閉鎖等,0,2023-03-07,2023-03-06,有限会社大野自動車整備工場,,有限会社,大分県,豊後大野市,大野町田中２４１番地２,,44,212,8796441,,,2023-03-06,清算の結了等,,,2015-10-05,1,,,,,オオノジドウシャセイビコウジョウ,0
1176,4390002007570,登記記録の閉鎖等,0,2023-03-07,2023-03-01,有限会社生活クラブ平田牧場,,有限会社,山形県,酒田市,本町１丁目５番１２号,,06,204,9980043,,,2023-03-01,清算の結了等,,,2015-10-05,1,,,,,セイカツクラブヒラタボクジョウ,0
1191,5010001056110,登記記録の閉鎖等,0,2023-03-07,2023-03-01,フタバ中国株式会社,,株式会社,東京都,中央区,日本橋２丁目９番９号,,13,102,1030027,,,2023-03-01,清算の結了等,,,2015-10-05,1,,,,,フタバチュウゴク,0
1216,5010501026983,登記記録の閉鎖等,0,2023-03-07,2023-02-28,株式会社ライズアドバンス,,株式会社,東京都,墨田区,墨田３丁目４３番５－２０２号,,13,107,1310031,,,2023-02-28,清算の結了等,,,2015-10-05,1,,,,,ライズアドバンス,0
1233,5011001100782,登記記録の閉鎖等,0,2023-03-07,2023-03-01,株式会社プレゼント,,株式会社,東京都,渋谷区,代官山町２番７号,,13,113,1500034,,,2023-03-01,清算の結了等,,,2015-10-05,1,,,,,プレゼント,0
1234,5011001126233,登記記録の閉鎖等,0,2023-03-07,2023-02-28,株式会社ａｉｌｃａ,,株式会社,東京都,渋谷区,渋谷３丁目１番９号ＹＡＺＡＷＡビルＵＧＦ３階,,13,113,1500002,,,2023-02-28,清算の結了等,,,2019-01-23,1,,,,,アイルカ,0
1271,5013303005998,登記記録の閉鎖等,0,2023-03-07,2023-03-01,合同会社ＴＨＲＥＥＥＤＧＥ,,合同会社,東京都,豊島区,池袋本町１丁目７－１池袋本町ビル３０２,,13,116,1700011,,,2023-03-01,清算の結了等,,,2022-01-21,1,,,,,スリーエッジ,0
1300,5030002093885,登記記録の閉鎖等,0,2023-03-07,2023-02-28,有限会社のとや成野書店,,有限会社,埼玉県,入間郡越生町,大字越生７８４番地,,11,327,3500416,,,2023-02-28,清算の結了等,,,2015-10-05,1,,,,,ノトヤナルノショテン,0
1310,5060001021662,登記記録の閉鎖等,0,2023-03-07,2023-03-02,株式会社ベストサポート社,,株式会社,栃木県,下野市,小金井１１９５番地７,,09,216,3290414,,,2023-03-02,清算の結了等,,,2015-10-05,1,,,,,ベストサポートシャ,0
1316,5080102014431,登記記録の閉鎖等,0,2023-03-07,2023-03-03,有限会社ちくえい,,有限会社,静岡県,富士市,南町７番５４号,,22,210,4170026,,,2023-03-03,清算の結了等,,,2015-10-05,1,,,,,チクエイ,0
1331,5120001188859,登記記録の閉鎖等,0,2023-03-07,2023-03-01,株式会社ウェルキン,,株式会社,兵庫県,神戸市中央区,東町１２３番地の１,,28,110,6500031,,,2023-03-01,合併による解散等,9140001119412,令和５年３月１日神戸市中央区東町１２３番地の１神戸再生支援チーム株式会社（9140001119412）に合併し解散,2015-10-05,1,,,,,ウェルキン,0
1343,5120105008211,登記記録の閉鎖等,0,2023-03-07,2023-03-01,一般社団法人寿福祉協会,,その他の設立登記法人,大阪府,富田林市,向陽台５丁目５番１５号,,27,214,5840082,,,2023-03-01,清算の結了等,,,2015-10-05,1,,,,,コトブキフクシキョウカイ,0
1344,5120903001771,登記記録の閉鎖等,0,2023-03-07,2023-03-02,ハッピープレイス合同会社,,合同会社,大阪府,茨木市,春日１丁目３番５－１１０３号,,27,211,5670031,,,2023-03-02,清算の結了等,,,2015-10-05,1,,,,,ハッピープレイス,0
1363,5140002053523,登記記録の閉鎖等,0,2023-03-07,2023-03-01,有限会社谷内,,有限会社,兵庫県,姫路市,飾東町山崎１２３３番地の１,,28,201,6710207,,,2023-03-01,清算の結了等,,,2015-10-05,1,,,,,タニウチ,0
1371,5180001108778,登記記録の閉鎖等,0,2023-03-07,2023-03-02,株式会社エイ・ティ・ケイ,,株式会社,愛知県,江南市,五明町青木４５番地,,23,217,4838241,,,2023-03-02,清算の結了等,,,2015-10-05,1,,,,,エイティケイ,0
1391,5240001004351,登記記録の閉鎖等,0,2023-03-07,2023-03-06,株式会社真央,,株式会社,広島県,広島市安佐南区,古市３丁目３番１号,,34,105,7310123,,,2023-03-06,清算の結了等,,,2015-10-05,1,,,,,マオ,0
1396,5250003002609,登記記録の閉鎖等,0,2023-03-07,2023-03-02,合同会社４Ｕ,,合同会社,山口県,山口市,湯田温泉３丁目１番２１号,,35,203,7530056,,,2023-03-02,清算の結了等,,,2020-04-07,1,,,,,フォーユー,0
1417,5330001017377,登記記録の閉鎖等,0,2023-03-07,2023-03-03,株式会社Ｍ．Ｉ．Ｏ．,,株式会社,熊本県,熊本市東区,戸島５丁目６番３号２階,,43,102,8618041,,,2023-03-03,清算の結了等,,,2015-10-05,1,,,,,,0
1418,5340001002345,登記記録の閉鎖等,0,2023-03-07,2023-03-06,株式会社山友,,株式会社,鹿児島県,鹿児島市,西陵１丁目２７番３１号,,46,201,8900032,,,2023-03-06,清算の結了等,,,2015-10-05,1,,,,,サンユウ,0
1436,5380001020137,登記記録の閉鎖等,0,2023-03-07,2023-03-01,株式会社ＪＡしらかわアグリ,,株式会社,福島県,西白河郡泉崎村,大字関和久字漆久保１０番地４,,07,464,9690102,,,2023-03-01,合併による解散等,6380001010236,令和５年３月１日福島県西白河郡泉崎村大字関和久字漆久保１０番地４株式会社白河フーズ（6380001010236）に合併し解散,2015-10-05,1,,,,,ジェイエィシラカワアグリ,0
1439,5380001028741,登記記録の閉鎖等,0,2023-03-07,2023-03-01,青木フルーツホールディングス株式会社,,株式会社,福島県,郡山市,八山田５丁目４０５番地,,07,203,9638052,,,2023-03-01,合併による解散等,2380002007326,令和５年３月１日福島県郡山市八山田五丁目４０５番地株式会社青木商店（2380002007326）に合併し解散,2018-01-11,1,,,,,アオキフルーツホールディングス,0
1443,5400502000675,登記記録の閉鎖等,0,2023-03-07,2023-03-02,有限会社銘木現金卸センター,,有限会社,岩手県,一関市,真柴字岩下７番地,,03,209,0210901,,,2023-03-02,清算の結了等,,,2015-10-05,1,,,,,メイボクゲンキンオロシセンター,0
1445,5420002019438,登記記録の閉鎖等,0,2023-03-07,2023-02-28,有限会社和光,,有限会社,青森県,むつ市,川内町板子塚２７番地１,,02,208,0395201,,,2023-02-28,清算の結了等,,,2015-10-05,1,,,,,ワコウ,0
1447,5430001045252,登記記録の閉鎖等,0,2023-03-07,2023-03-02,株式会社成林,,株式会社,北海道,札幌市白石区,北郷一条８丁目１２番５号,,01,104,0030831,,,2023-03-02,清算の結了等,,,2015-10-05,1,,,,,セイリン,0
1455,5460301003353,登記記録の閉鎖等,0,2023-03-07,2023-03-02,株式会社アリサワ,,株式会社,北海道,斜里郡斜里町,港町１６番地２４,,01,545,0994112,,,2023-03-02,清算の結了等,,,2015-10-05,1,,,,,アリサワ,0
1456,5480001005854,登記記録の閉鎖等,0,2023-03-07,2023-03-06,エステート徳島株式会社,,株式会社,徳島県,徳島市,東沖洲２丁目１６番３,,36,201,7700873,,,2023-03-06,清算の結了等,,,2015-10-05,1,,,,,エステートトクシマ,0
1464,6010001024058,登記記録の閉鎖等,0,2023-03-07,2023-03-01,ＰＧＭプロパティーズ５株式会社,,株式会社,東京都,台東区,東上野１丁目１４番７号,,13,106,1100015,,,2023-03-01,合併による解散等,1010401055285,令和５年３月１日東京都台東区東上野一丁目１４番７号ＰＧＭプロパティーズ株式会社（1010401055285）に合併し解散,2015-10-05,1,,,,,ピージーエムプロパティーズゴ,0
1466,6010001088326,登記記録の閉鎖等,0,2023-03-07,2023-03-01,後楽園不動産株式会社,,株式会社,東京都,文京区,後楽１丁目３番６１号,,13,105,1120004,,,2023-03-01,清算の結了等,,,2015-10-05,1,,,,,コウラクエンフドウサン,0
1475,6010005030036,登記記録の閉鎖等,0,2023-03-07,2023-03-03,Ｒｅｓｉｌｉｅｎｃｅ　ＩｎｖｅｓｔｍｅｎｔＩＩ特定目的会社,,その他の設立登記法人,東京都,千代田区,丸の内３丁目１番１号東京共同会計事務所内,,13,101,1000005,,,2023-03-03,清算の結了等,,,2019-04-11,1,,,,,レジリエンスインベストメントツー,0
1477,6010401009154,登記記録の閉鎖等,0,2023-03-07,2023-03-02,株式会社京急油壺マリンパーク,,株式会社,神奈川県,横浜市西区,高島１丁目２番８号,,14,103,2200011,,,2023-03-02,清算の結了等,,,2015-10-05,1,,,,,ケイキュウアブラツボマリンパーク,0
1497,6010701040180,登記記録の閉鎖等,0,2023-03-07,2023-03-01,ゴルフプロパティーズ２株式会社,,株式会社,東京都,台東区,東上野１丁目１４番７号,,13,106,1100015,,,2023-03-01,合併による解散等,1010401055285,令和５年３月１日東京都台東区東上野一丁目１４番７号ＰＧＭプロパティーズ株式会社（1010401055285）に合併し解散,2020-12-07,1,,,,,ゴルフプロパティーズニ,0
1518,6011301016827,登記記録の閉鎖等,0,2023-03-07,2023-03-01,プレイスファシリティーズ株式会社,,株式会社,東京都,渋谷区,道玄坂１丁目１５番３号,,13,113,1500043,,,2023-03-01,合併による解散等,1011001066945,令和５年３月１日東京都渋谷区道玄坂一丁目１５番３号プレイスキャピタル株式会社（1011001066945）に合併し解散,2015-10-05,1,,,,,プレイスファシリティーズ,0
1523,6011801030138,登記記録の閉鎖等,0,2023-03-07,2023-03-01,株式会社オーシャンケア,,株式会社,東京都,葛飾区,高砂８丁目２８番１０号,,13,122,1250054,,,2023-03-01,清算の結了等,,,2015-10-05,1,,,,,オーシャンケア,0
1529,6012402004282,登記記録の閉鎖等,0,2023-03-07,2023-02-28,有限会社三河屋鈴木酒店,,有限会社,東京都,国分寺市,南町１丁目３番３号,,13,214,1850021,,,2023-02-28,清算の結了等,,,2015-10-05,1,,,,,,0
1535,6020001076263,登記記録の閉鎖等,0,2023-03-07,2023-03-02,株式会社シンディー,,株式会社,神奈川県,川崎市宮前区,宮崎１丁目８番１０号,,14,136,2160033,,,2023-03-02,清算の結了等,,,2015-10-05,1,,,,,シンディ,0
1537,6020001088366,登記記録の閉鎖等,0,2023-03-07,2023-03-01,株式会社Ｂｅ　Ｗｅｌｌ　Ｈｏｌｄｉｎｇｓ,,株式会社,神奈川県,川崎市川崎区,大島上町２７番３－３０１号,,14,131,2100836,,,2023-03-01,合併による解散等,2020001072704,令和５年３月１日川崎市川崎区宮前町１１番２４号検査サービス株式会社（2020001072704）に合併し解散,2015-10-05,1,,,,,ビーウェルホールディングス,0
1538,6020001128634,登記記録の閉鎖等,0,2023-03-07,2023-03-01,株式会社ビーコムビー・ビー,,株式会社,神奈川県,横浜市中区,羽衣町１丁目１番地１,,14,104,2310047,,,2023-03-01,合併による解散等,4020001051136,令和５年３月１日横浜市中区羽衣町一丁目１番地１株式会社ウォンシクホールディングス（4020001051136）に合併し解散,2018-11-08,1,,,,,ビーコムビービー,0
1554,6030001024254,登記記録の閉鎖等,0,2023-03-07,2023-03-02,株式会社真広塗装,,株式会社,埼玉県,所沢市,大字久米２２５７番地,,11,208,3591131,,,2023-03-02,清算の結了等,,,2015-10-05,1,,,,,シンコウトソウ,0
1556,6030001036910,登記記録の閉鎖等,0,2023-03-07,2023-03-02,株式会社東京興業,,株式会社,埼玉県,三郷市,戸ケ崎２丁目３７２番地,,11,237,3410044,,,2023-03-02,清算の結了等,,,2015-10-05,1,,,,,,0
1557,6030001041464,登記記録の閉鎖等,0,2023-03-07,2023-03-02,株式会社コムロ,,株式会社,埼玉県,上尾市,大字原市１０７２番地,,11,219,3620021,,,2023-03-02,清算の結了等,,,2015-10-05,1,,,,,コムロ,0
1560,6030001085040,登記記録の閉鎖等,0,2023-03-07,2023-03-01,東群運送株式会社,,株式会社,埼玉県,熊谷市,佐谷田１６３１番地,,11,202,3600023,,,2023-03-01,合併による解散等,3030001084458,令和５年３月１日埼玉県熊谷市佐谷田１６３１番地株式会社井ノ瀬運送（3030001084458）に合併し解散,2015-10-05,1,,,,,トウグンウンソウ,0
1568,6030002040060,登記記録の閉鎖等,0,2023-03-07,2023-02-28,有限会社藪上工業,,有限会社,埼玉県,加須市,柳生２０６４番地５,,11,210,3491201,,,2023-02-28,清算の結了等,,,2015-10-05,1,,,,,ヤブカミコウギョウ,0
1571,6030002063805,登記記録の閉鎖等,0,2023-03-07,2023-03-02,有限会社モニタリングリサーチ,,有限会社,埼玉県,富士見市,羽沢１丁目６番２号,,11,235,3540033,,,2023-03-02,清算の結了等,,,2015-10-05,1,,,,,モニタリングリサーチ,0
1583,6050001024038,登記記録の閉鎖等,0,2023-03-07,2023-03-01,つくば工機株式会社,,株式会社,茨城県,高萩市,大字上手綱３３３３番地３,,08,214,3180004,,,2023-03-01,合併による解散等,2050001024009,令和５年３月１日茨城県高萩市上手綱３３３３番地３株式会社シンニッタン（2050001024009）に合併し解散,2015-10-05,1,,,,,ツクバコウキ,0
1585,6050001032197,登記記録の閉鎖等,0,2023-03-07,2023-03-02,森電気株式会社,,株式会社,茨城県,筑西市,東保末４９２番地,,08,227,3004536,,,2023-03-02,清算の結了等,,,2015-10-05,1,,,,,モリデンキ,0
1587,6050002004798,登記記録の閉鎖等,0,2023-03-07,2023-03-03,有限会社ながおか動物病院,,有限会社,茨城県,東茨城郡茨城町,大字前田１６８０番地２２０,,08,302,3113115,,,2023-03-03,清算の結了等,,,2015-10-05,1,,,,,ナガオカドウブツビョウイン,0
1588,6060001005598,登記記録の閉鎖等,0,2023-03-07,2023-03-01,株式会社ユーマックス,,株式会社,栃木県,宇都宮市,下栗町２９３６番地６,,09,201,3210923,,,2023-03-01,清算の結了等,,,2015-10-05,1,,,,,ユーマックス,0
1589,6060002005878,登記記録の閉鎖等,0,2023-03-07,2023-03-02,有限会社タップ,,有限会社,栃木県,宇都宮市,西２丁目２番４号,,09,201,3200861,,,2023-03-02,清算の結了等,,,2015-10-05,1,,,,,タップ,0
1598,6100001022795,登記記録の閉鎖等,0,2023-03-07,2023-03-02,宮島木材株式会社,,株式会社,長野県,下伊那郡根羽村,１４２９番地,,20,410,3950701,,,2023-03-02,清算の結了等,,,2015-10-05,1,,,,,ミヤジマモクザイ,0
1600,6110001002945,登記記録の閉鎖等,0,2023-03-07,2023-03-06,清水商事株式会社,,株式会社,新潟県,新潟市中央区,堀之内５５番地１,,15,103,9500981,,,2023-03-06,合併による解散等,2040001000456,令和５年３月１日千葉市美浜区中瀬一丁目５番地１イオンリテール株式会社（2040001000456）に合併し解散,2015-10-05,1,,,,,シミズショウジ,0
1607,6120001217641,登記記録の閉鎖等,0,2023-03-07,2023-02-28,株式会社日辰パートナーズ,,株式会社,大阪府,大阪市都島区,片町１丁目８番１８号５階,,27,102,5340025,,,2023-02-28,合併による解散等,9120001185191,令和５年２月２８日大阪市都島区片町一丁目８番１８号５階株式会社日辰（9120001185191）に合併し解散,2018-12-10,1,,,,,ヒタツパートナーズ,0
1631,6140001055916,登記記録の閉鎖等,0,2023-03-07,2023-02-28,株式会社コンゴープロダクツ,,株式会社,兵庫県,豊岡市,長谷９１５番地の１,,28,209,6680834,,,2023-02-28,清算の結了等,,,2015-10-05,1,,,,,コンゴープロダクツ,0
1647,6170001012864,登記記録の閉鎖等,0,2023-03-07,2023-03-03,株式会社エスアンドオーサービス,,株式会社,和歌山県,和歌山市,宇須４丁目４番５号,,30,201,6410043,,,2023-03-03,清算の結了等,,,2015-10-05,1,,,,,エスアンドオーサービス,0
1681,6240001050320,登記記録の閉鎖等,0,2023-03-07,2023-03-02,株式会社リ・ベルティ,,株式会社,広島県,東広島市,西条町助実７番地１４,,34,212,7390021,,,2023-03-02,清算の結了等,,,2016-12-09,1,,,,,リベルティ,0
1682,6240001055716,登記記録の閉鎖等,0,2023-03-07,2023-03-01,ｈｏｒｓｔａｒ株式会社,,株式会社,広島県,広島市中区,本通７－２９,,34,101,7300035,,,2023-03-01,清算の結了等,,,2020-02-26,1,,,,,ホースター,0
1757,7010101008851,登記記録の閉鎖等,0,2023-03-07,2023-02-27,ミヤ恒産株式会社,,株式会社,東京都,八王子市,絹ケ丘２丁目４４番地３,,13,201,1920912,,,2023-02-27,清算の結了等,,,2015-10-05,1,,,,,ミヤコウサン,0
1772,7010502007428,登記記録の閉鎖等,0,2023-03-07,2023-03-06,有限会社寺田建築設計事務所,,有限会社,東京都,台東区,東浅草１丁目１２番３号,,13,106,1110025,,,2023-03-06,清算の結了等,,,2015-10-05,1,,,,,,0
1794,7011001145982,登記記録の閉鎖等,0,2023-03-07,2023-02-27,株式会社Ｄｏｌｃｅ　Ｍｏｎｄｏ,,株式会社,東京都,渋谷区,広尾１丁目１３番１号,,13,113,1500012,,,2023-02-27,合併による解散等,2011001141598,令和５年１月３１日東京都目黒区下目黒一丁目８番１号株式会社ＨＹＶ（2011001141598）に合併し解散,2022-03-01,1,,,,,ドルチェモンド,0
1819,7011703000725,登記記録の閉鎖等,0,2023-03-07,2023-03-03,合同会社ドゥマン,,合同会社,東京都,江戸川区,東小岩３丁目７番１８号,,13,123,1330052,,,2023-03-03,清算の結了等,,,2015-10-05,1,,,,,ドゥマン,0
1844,7020002030210,登記記録の閉鎖等,0,2023-03-07,2023-03-01,有限会社信堂薬局,,有限会社,神奈川県,横浜市南区,宮元町３丁目５４番地,,14,105,2320016,,,2023-03-01,合併による解散等,3020002052357,令和５年３月１日横浜市南区宮元町二丁目３６番地株式会社まゆみ薬局（3020002052357）に合併し解散,2015-10-05,1,,,,,シンドウヤッキョク,0
1853,7030001046529,登記記録の閉鎖等,0,2023-03-07,2023-03-02,株式会社マスダ,,株式会社,埼玉県,富士見市,大字上南畑３２０５番地２,,11,235,3540002,,,2023-03-02,清算の結了等,,,2015-10-05,1,,,,,マスダ,0
1899,7120001179245,登記記録の閉鎖等,0,2023-03-07,2023-03-03,株式会社北浜,,株式会社,大阪府,大阪市中央区,平野町１丁目６番５号,,27,128,5410046,,,2023-03-03,清算の結了等,,,2015-10-05,1,,,,,,0
1901,7120001216782,登記記録の閉鎖等,0,2023-03-07,2023-03-03,Ｒｅａｌｌｏｃｋ　Ｍａｎａｇｅｍｅｎｔ株式会社,,株式会社,大阪府,大阪市中央区,久太郎町２丁目３番８－６０１号,,27,128,5410056,,,2023-03-03,清算の結了等,,,2018-10-26,1,,,,,リアルロックマネジメント,0
1910,7120102013682,登記記録の閉鎖等,0,2023-03-07,2023-03-06,有限会社ソノダ工業所,,有限会社,大阪府,堺市美原区,今井１０２番地２,,27,147,5870061,,,2023-03-06,清算の結了等,,,2015-10-05,1,,,,,,0
1918,7130002013435,登記記録の閉鎖等,0,2023-03-07,2023-03-02,有限会社大手ビル,,有限会社,京都府,京都市伏見区,西大手町３０７番地,,26,109,6128362,,,2023-03-02,清算の結了等,,,2015-10-05,1,,,,,オオテビル,0
1929,7140002038191,登記記録の閉鎖等,0,2023-03-07,2023-03-02,有限会社ツカサ設計事務所,,有限会社,兵庫県,加古川市,平岡町新在家２５４３番地の４,,28,210,6750101,,,2023-03-02,清算の結了等,,,2015-10-05,1,,,,,ツカサセッケイジムショ,0
1936,7150001016866,登記記録の閉鎖等,0,2023-03-07,2023-03-01,帝塚山ビジネスサポート株式会社,00043113,株式会社,奈良県,奈良市,学園南３丁目１番３号,,29,201,6310034,,,2023-03-01,清算の結了等,,,2015-10-05,1,,,,,テヅカヤマビジネスサポート,0
1944,7170001000538,登記記録の閉鎖等,0,2023-03-07,2023-02-24,オートライフ和歌山株式会社,,株式会社,和歌山県,和歌山市,手平１丁目５番３号,,30,201,6408319,,,2023-02-24,清算の結了等,,,2015-10-05,1,,,,,オートライフワカヤマ,0
1983,7230002001735,登記記録の閉鎖等,0,2023-03-07,2023-03-06,有限会社すき焼はやし,,有限会社,富山県,富山市,布瀬本町３番地の２,,16,201,9398207,,,2023-03-06,清算の結了等,,,2015-10-05,1,,,,,スキヤキハヤシ,0
1990,7240003005338,登記記録の閉鎖等,0,2023-03-07,2023-03-01,合同会社ｈ＆ｍ,,合同会社,広島県,広島市南区,松原町５－２シティタワー広島４７０５,,34,103,7320822,,,2023-03-01,清算の結了等,,,2021-10-29,1,,,,,エッチアンドエム,0
1997,7290001035976,登記記録の閉鎖等,0,2023-03-07,2023-02-28,エコベトンジャパン株式会社,,株式会社,東京都,千代田区,永田町２丁目１４番３号,,13,101,1000014,,,2023-02-28,清算の結了等,,,2015-10-05,1,,,,,エコベトンジャパン,0
1998,7290001062327,登記記録の閉鎖等,0,2023-03-07,2023-03-01,株式会社ライフイノベーション,,株式会社,福岡県,筑紫野市,針摺中央１丁目１５番４３号リッツ筑紫野１０２号,00092790,40,217,8180083,,,2023-03-01,合併による解散等,7290001030688,令和５年２月２８日福岡市中央区渡辺通四丁目４番１９号株式会社ユニアシスト（7290001030688）に合併し解散,2015-10-05,1,,,,,ライフイノベーション,0
2019,7380001006638,登記記録の閉鎖等,0,2023-03-07,2023-03-02,株式会社増朋設備,,株式会社,福島県,郡山市,富久山町福原字東内打５番地の１,,07,203,9638061,,,2023-03-02,合併による解散等,3380001006633,令和５年３月１日福島県郡山市富久山町福原字東内打５番地の１株式会社増子建築工業（3380001006633）に合併し解散,2015-10-05,1,,,,,マストモセツビ,0
2035,7430002004131,登記記録の閉鎖等,0,2023-03-07,2023-03-01,岡田ビル管理有限会社,,有限会社,北海道,札幌市中央区,南二条西１２丁目３２３番地,,01,101,0600062,,,2023-03-01,清算の結了等,,,2015-10-05,1,,,,,オカダビルカンリ,0
2061,8010001107430,登記記録の閉鎖等,0,2023-03-07,2023-02-27,カプラー株式会社,,株式会社,愛知県,名古屋市名東区,若葉台１１０１番地,,23,115,4650015,,,2023-02-27,清算の結了等,,,2015-10-05,1,,,,,カプラー,0
2063,8010001122594,登記記録の閉鎖等,0,2023-03-07,2023-03-03,ジャパンファシリティー株式会社,,株式会社,東京都,台東区,寿４丁目１３番８号,,13,106,1110042,,,2023-03-03,合併による解散等,3021001015387,令和５年３月１日東京都板橋区坂下一丁目２５番１６号２Ｆ株式会社ＡＰＯ－ＣＯＭＩ（3021001015387）に合併し解散,2015-10-05,1,,,,,ジャパンファシリティー,0
2083,8010402002726,登記記録の閉鎖等,0,2023-03-07,2023-03-02,有限会社太田徹也デザイン室,,有限会社,神奈川県,横浜市青葉区,田奈町１２番地４６,,14,117,2270064,,,2023-03-02,清算の結了等,,,2015-10-05,1,,,,,オオタテツヤデザインシツ,0
2084,8010403018250,登記記録の閉鎖等,0,2023-03-07,2023-02-28,合同会社Ｍｏｎｔｅｒｅｙ,,合同会社,東京都,港区,白金３丁目７番１６－４０２号,,13,103,1080072,,,2023-02-28,合併による解散等,6010903003456,令和５年２月２８日東京都港区白金三丁目７番１６－４０２号合同会社ＭｏｕｎｔａｉｎＶｉｅｗ（6010903003456）に合併し解散,2018-03-12,1,,,,,モントレー,0
2091,8010701040179,登記記録の閉鎖等,0,2023-03-07,2023-03-01,ゴルフプロパティーズ１株式会社,,株式会社,東京都,台東区,東上野１丁目１４番７号,,13,106,1100015,,,2023-03-01,合併による解散等,1010401055285,令和５年３月１日東京都台東区東上野一丁目１４番７号ＰＧＭプロパティーズ株式会社（1010401055285）に合併し解散,2020-12-04,1,,,,,ゴルフプロパティーズイチ,0
2119,8011105005082,登記記録の閉鎖等,0,2023-03-07,2023-03-02,一般社団法人ＡＵ　ＰＡＹＳ　ＤＥＳ　ＳＡＫＵＲＡＳ,,その他の設立登記法人,東京都,千代田区,飯田橋１丁目６番３号幸洋ビル２階,,13,101,1020072,,,2023-03-02,清算の結了等,,,2015-10-05,1,,,,,オーペイドサクラ,0
2126,8011305001699,登記記録の閉鎖等,0,2023-03-07,2023-03-02,全国大学生協共済生活協同組合連合会,,その他の設立登記法人,東京都,杉並区,和田３丁目３０番２２号,,13,115,1660012,,,2023-03-02,清算の結了等,,,2015-10-05,1,,,,,ゼンコクダイガクセイキョウキョウサイセイカツ,0
2131,8011703000781,登記記録の閉鎖等,0,2023-03-07,2023-03-03,合同会社ＶＴＦＡエンティーマ,,合同会社,東京都,江戸川区,東小岩３丁目７番１８号,,13,123,1330052,,,2023-03-03,清算の結了等,,,2015-10-05,1,,,,,ヴイティーエフエーエンティーマ,0
2136,8020001055034,登記記録の閉鎖等,0,2023-03-07,2023-03-01,株式会社三田,,株式会社,神奈川県,横浜市中区,羽衣町１丁目１番地１,,14,104,2310047,,,2023-03-01,合併による解散等,1020001034011,令和５年３月１日横浜市中区羽衣町一丁目１番地１株式会社三田ホールディングズ（1020001034011）に合併し解散,2015-10-05,1,,,,,ミタ,0
2150,8021002014425,登記記録の閉鎖等,0,2023-03-07,2023-03-01,有限会社キカプーアンドカンパニー,,有限会社,神奈川県,鎌倉市,扇ガ谷２丁目１３番２号,,14,204,2480011,,,2023-03-01,清算の結了等,,,2015-10-05,1,,,,,キカプーアンドカンパニー,0
2156,8030001052542,登記記録の閉鎖等,0,2023-03-07,2023-03-01,株式会社みどり石材,,株式会社,埼玉県,春日部市,大場３４番地１,,11,214,3440021,,,2023-03-01,合併による解散等,1030002070194,令和５年３月１日埼玉県春日部市永沼６８８番地２株式会社メモリアルプラン（1030002070194）に合併し解散,2015-10-05,1,,,,,ミドリセキザイ,0
2178,8050001045627,登記記録の閉鎖等,0,2023-03-07,2023-03-01,株式会社北海ファーム,,株式会社,茨城県,筑西市,小栗６３番地,,08,227,3091101,,,2023-03-01,清算の結了等,,,2019-03-01,1,,,,,ホッカイファーム,0
2190,8070002010256,登記記録の閉鎖等,0,2023-03-07,2023-03-03,有限会社信松庵,,有限会社,群馬県,高崎市,赤坂町６０番地,,10,202,3700818,,,2023-03-03,清算の結了等,,,2015-10-05,1,,,,,シンショウアン,0
2198,8080403002405,登記記録の閉鎖等,0,2023-03-07,2023-03-01,合名会社亀井商事,,合名会社,静岡県,掛川市,仁藤町２番地の１５,,22,213,4360075,,,2023-03-01,合併による解散等,3080401014530,令和５年３月１日静岡県掛川市仁藤町２番地の１５株式会社ユミヤ（3080401014530）に合併し解散,2015-10-05,1,,,,,カメイショウジ,0
2241,8140001056359,登記記録の閉鎖等,0,2023-03-07,2023-03-02,株式会社如来堂,,株式会社,兵庫県,美方郡香美町,香住区香住１２３５番地の９,,28,585,6696544,,,2023-03-02,清算の結了等,,,2015-10-05,1,,,,,,0
2256,8160001004290,登記記録の閉鎖等,0,2023-03-07,2023-03-01,ナカヤマ化成株式会社,,株式会社,滋賀県,大津市,唐崎４丁目４番３５号,,25,201,5200106,,,2023-03-01,清算の結了等,,,2015-10-05,1,,,,,ナカヤマカセイ,0
2259,8180001019428,登記記録の閉鎖等,0,2023-03-07,2023-03-02,山田合金加工株式会社,,株式会社,愛知県,名古屋市中川区,東起町１丁目７１番地の２,,23,110,4540935,,,2023-03-02,清算の結了等,,,2015-10-05,1,,,,,ヤマダゴウキンカコウ,0
2268,8180001137709,登記記録の閉鎖等,0,2023-03-07,2023-03-01,株式会社ＴＦＨ,,株式会社,愛知県,愛知郡東郷町,北山台３丁目２番地７,,23,302,4700152,,,2023-03-01,清算の結了等,,,2019-08-07,1,,,,,ティーエフエイチ,0
2274,8180002043179,登記記録の閉鎖等,0,2023-03-07,2023-03-01,有限会社トラスト,,有限会社,愛知県,名古屋市東区,東桜２丁目１２番１号東桜スカイハイツ２１１号,,23,102,4610005,,,2023-03-01,清算の結了等,,,2015-10-05,1,,,,,トラスト,0
2291,8220002013276,登記記録の閉鎖等,0,2023-03-07,2023-03-03,有限会社ティーケーシー,,有限会社,石川県,加賀市,大聖寺東町４丁目２１番地,,17,206,9220816,,,2023-03-03,清算の結了等,,,2015-10-05,1,,,,,ティーケーシー,0
2296,8240002021211,登記記録の閉鎖等,0,2023-03-07,2023-03-02,ゼネラルハウス有限会社,,有限会社,広島県,広島市安佐北区,三入東１丁目４６番２９号,,34,106,7310212,,,2023-03-02,清算の結了等,,,2015-10-05,1,,,,,ゼネラルハウス,0
2300,8280002008980,登記記録の閉鎖等,0,2023-03-07,2023-03-02,有限会社リサイクルショップシバタ,,有限会社,島根県,浜田市,相生町３９１４番地,,32,202,6970034,,,2023-03-02,清算の結了等,,,2015-10-05,1,,,,,リサイクルショップシバタ,0
2324,8350003000046,登記記録の閉鎖等,0,2023-03-07,2023-03-02,合資会社貴久屋,,合資会社,宮崎県,宮崎市,南花ケ島町２０４番地－２,,45,201,8800055,,,2023-03-02,清算の結了等,,,2015-10-05,1,,,,,,0
2334,8380001019738,登記記録の閉鎖等,0,2023-03-07,2023-03-02,新高玉鉱業株式会社,,株式会社,福島県,郡山市,熱海町高玉字田代１番地,,07,203,9631302,,,2023-03-02,清算の結了等,,,2015-10-05,1,,,,,シンタカダマコウギョウ,0
2356,8500002022364,登記記録の閉鎖等,0,2023-03-07,2023-03-03,有限会社加地縫製,,有限会社,愛媛県,四国中央市,土居町藤原２番耕地１５９番地１,,38,213,7990703,,,2023-03-03,清算の結了等,,,2015-10-05,1,,,,,カジホウセイ,0
2361,9010001030953,登記記録の閉鎖等,0,2023-03-07,2023-03-03,株式会社モリギン,,株式会社,東京都,千代田区,岩本町１丁目２番１０号,,13,101,1010032,,,2023-03-03,合併による解散等,3010601011400,令和５年３月１日東京都墨田区緑二丁目１４番１５号杉田エース株式会社（3010601011400）に合併し解散,2015-10-05,1,,,,,モリギン,0
2374,9010001206801,登記記録の閉鎖等,0,2023-03-07,2023-03-01,御殿場ゴルフ株式会社,,株式会社,東京都,台東区,東上野１丁目１４番７号,,13,106,1100015,,,2023-03-01,合併による解散等,1010401055285,令和５年３月１日東京都台東区東上野一丁目１４番７号ＰＧＭプロパティーズ株式会社（1010401055285）に合併し解散,2020-01-17,1,,,,,ゴテンバゴルフ,0
2382,9010401128455,登記記録の閉鎖等,0,2023-03-07,2023-03-02,株式会社クロスロード・ファクトリー,,株式会社,東京都,港区,麻布十番１丁目７番１２号麻布十番ＯＨＭＩＹＡビル地下１階,,13,103,1060045,,,2023-03-02,合併による解散等,7430002040804,令和５年２月２２日札幌市北区南あいの里三丁目６－１０株式会社ＩＳＭ（7430002040804）に合併し解散,2016-12-02,1,,,,,クロスロードファクトリー,0
2387,9010403025493,登記記録の閉鎖等,0,2023-03-07,2023-02-27,ＪＴＧ合同会社,,合同会社,東京都,港区,六本木７丁目２番２８－６０５号,,13,103,1060032,,,2023-02-27,清算の結了等,,,2021-06-11,1,,,,,ジェイティージー,0
2393,9010703003059,登記記録の閉鎖等,0,2023-03-07,2023-02-21,合同会社寿,,合同会社,東京都,港区,白金台５丁目１１番２号バルビゾン２０ビル５Ｆ,,13,103,1080071,,,2023-02-21,清算の結了等,,,2016-03-25,1,,,,,コトブキ,0
2408,9011002036287,登記記録の閉鎖等,0,2023-03-07,2023-03-01,有限会社オフィスケー,,有限会社,富山県,富山市,本郷町４１番地９,,16,201,9398045,,,2023-03-01,清算の結了等,,,2015-10-05,1,,,,,オフィスケー,0
2424,9011401017978,登記記録の閉鎖等,0,2023-03-07,2023-03-02,株式会社ジロッカ,,株式会社,東京都,板橋区,板橋３丁目１２番１号,,13,119,1730004,,,2023-03-02,清算の結了等,,,2015-10-05,1,,,,,ジロッカ,0
2428,9011503000725,登記記録の閉鎖等,0,2023-03-07,2023-02-27,合名会社八幡屋,,合名会社,東京都,北区,赤羽台３丁目１番１９号,,13,117,1150053,,,2023-02-27,清算の結了等,,,2015-10-05,1,,,,,ヤハタヤ,0
2444,9020001002860,登記記録の閉鎖等,0,2023-03-07,2023-03-01,国際交通株式会社,,株式会社,神奈川県,横浜市磯子区,岡村５丁目１９番２号,,14,107,2350021,,,2023-03-01,清算の結了等,,,2015-10-05,1,,,,,コクサイコウツウ,0
2446,9020001093207,登記記録の閉鎖等,0,2023-03-07,2023-03-01,株式会社ビーコムエー・エス,,株式会社,神奈川県,横浜市中区,羽衣町１丁目１番地１,,14,104,2310047,,,2023-03-01,合併による解散等,4020001051136,令和５年３月１日横浜市中区羽衣町一丁目１番地１株式会社ウォンシクホールディングス（4020001051136）に合併し解散,2015-10-05,1,,,,,ビーコムエーエス,0
2453,9020002072226,登記記録の閉鎖等,0,2023-03-07,2023-03-02,有限会社オー・エム・エンジニアリング,,有限会社,神奈川県,横浜市中区,本牧荒井１７０番地の５６,,14,104,2310826,,,2023-03-02,清算の結了等,,,2015-10-05,1,,,,,オーエムエンジニアリング,0
2464,9021002019290,登記記録の閉鎖等,0,2023-03-07,2023-03-01,有限会社川手商店,,有限会社,神奈川県,相模原市中央区,小山２丁目９番１号,,14,152,2520205,,,2023-03-01,清算の結了等,,,2015-10-05,1,,,,,カワテショウテン,0
2481,9040001063372,登記記録の閉鎖等,0,2023-03-07,2023-02-22,株式会社アップルベリー,,株式会社,千葉県,旭市,三川６６５２番地３,,12,215,2892714,,,2023-02-22,清算の結了等,,,2015-10-05,1,,,,,アップルベリー,0
2486,9040002007923,登記記録の閉鎖等,0,2023-03-07,2023-03-01,有限会社テクノ・エース,,有限会社,千葉県,千葉市稲毛区,稲毛２丁目７番４５号ハイマート稲毛２０１号,,12,103,2630034,,,2023-03-01,清算の結了等,,,2015-10-05,1,,,,,テクノエース,0
2493,9050002030809,登記記録の閉鎖等,0,2023-03-07,2023-03-02,有限会社関根製作所,,有限会社,茨城県,日立市,久慈町２丁目９番４０号,,08,202,3191222,,,2023-03-02,清算の結了等,,,2015-10-05,1,,,,,セキネセイサクジョ,0
2498,9070002018934,登記記録の閉鎖等,0,2023-03-07,2023-02-28,有限会社寿ハイツ,,有限会社,群馬県,伊勢崎市,寿町１９６番地,,10,204,3720052,,,2023-02-28,清算の結了等,,,2015-10-05,1,,,,,コトブキハイツ,0
2499,9070003002284,登記記録の閉鎖等,0,2023-03-07,2023-03-02,ｍａｔｃｈ合同会社,,合同会社,群馬県,吾妻郡中之条町,大字山田２２８６番地２,,10,421,3770434,,,2023-03-02,清算の結了等,,,2015-10-05,1,,,,,マッチ,0
2500,9080003002044,登記記録の閉鎖等,0,2023-03-07,2023-03-02,ケアプランおかの合同会社,,合同会社,静岡県,島田市,月坂２丁目３番地の９,,22,209,4270112,,,2023-03-02,清算の結了等,,,2017-11-08,1,,,,,ケアプランオカノ,0
2510,9120001012676,登記記録の閉鎖等,0,2023-03-07,2023-03-02,株式会社誠友貿易,,株式会社,大阪府,大阪市中央区,内本町１丁目２番１号大晋第３ビル４Ｆ,,27,128,5400026,,,2023-03-02,清算の結了等,,,2015-10-05,1,,,,,,0
2527,9120002065351,登記記録の閉鎖等,0,2023-03-07,2023-03-02,有限会社ワイズパナシーア,,有限会社,大阪府,大阪市北区,天満橋１丁目８番１５－２８０６号,,27,127,5300042,,,2023-03-02,清算の結了等,,,2015-10-05,1,,,,,ワイズパナシーア,0
2554,9180001027256,登記記録の閉鎖等,0,2023-03-07,2023-03-03,株式会社水谷クリーニング,,株式会社,愛知県,名古屋市西区,庄内通３丁目２７番地,,23,104,4510016,,,2023-03-03,清算の結了等,,,2015-10-05,1,,,,,ミズタニクリーニング,0
2577,9190005006115,登記記録の閉鎖等,0,2023-03-07,2023-03-01,青山建設業協会協同組合,,その他の設立登記法人,三重県,伊賀市,阿保５７０番地の１,,24,216,5180226,,,2023-03-01,清算の結了等,,,2015-10-05,1,,,,,アオヤマケンセツギョウキョウカイ,0
2582,9230001002055,登記記録の閉鎖等,0,2023-03-07,2023-03-06,株式会社ＣＢＦサービス,,株式会社,富山県,高岡市,福岡町加茂１２６７番地,,16,202,9390104,,,2023-03-06,清算の結了等,,,2015-10-05,1,,,,,シービーエフサービス,0
2602,9290802011232,登記記録の閉鎖等,0,2023-03-07,2023-03-03,有限会社風歩希商店,,有限会社,福岡県,北九州市戸畑区,東大谷３丁目１２番１１号,,40,105,8040031,,,2023-03-03,清算の結了等,,,2015-10-05,1,,,,,フブキショウテン,0
2606,9320001014231,登記記録の閉鎖等,0,2023-03-07,2023-03-06,株式会社夢サポート,,株式会社,大分県,大分市,大在浜１丁目４番３６号,,44,201,8700252,,,2023-03-06,清算の結了等,,,2015-10-05,1,,,,,ユメサポート,0
2628,9370303000206,登記記録の閉鎖等,0,2023-03-07,2023-03-03,合同会社田村防災設備,,合同会社,宮城県,塩竈市,千賀の台３丁目１３番７号,,04,203,9850086,,,2023-03-03,清算の結了等,,,2015-10-05,1,,,,,タムラボウサイセツビ,0
2635,9420002002547,登記記録の閉鎖等,0,2023-03-07,2023-03-03,有限会社平成物販,,有限会社,青森県,青森市,大字筒井字八ツ橋２９番地４,,02,201,0300944,,,2023-03-03,清算の結了等,,,2015-10-05,1,,,,,ヘイセイブツハン,0
2637,9430001081260,登記記録の閉鎖等,0,2023-03-07,2023-03-02,株式会社コムネクス,,株式会社,北海道,江別市,大麻泉町２番地１５,,01,217,0690864,,,2023-03-02,清算の結了等,,,2020-04-06,1,,,,,コムネクス,0
