sequenceNumber,corporateNumber,process,correct,updateDate,changeDate,name,nameImageId,kind,prefectureName,cityName,streetNumber,addressImageId,prefectureCode,cityCode,postCode,addressOutside,addressOutsideImageId,closeDate,closeCause,successorCorporateNumber,changeCause,assignmentDate,latest,enName,enPrefectureName,enCityName,enAddressOutside,furigana,hihyoji
22,1010001237192,新規,0,2023-07-31,2023-07-31,エイトリキュアジャパン株式会社,,株式会社,東京都,中央区,新富１丁目１５番３号新富ミハマビル４階ジパング,,13,102,1040041,,,,,,,2023-07-31,1,,,,,エイトリキュアジャパン,0
25,1010003041221,新規,0,2023-07-31,2023-07-31,ｓｕｍｅｂａ合同会社,,合同会社,東京都,中央区,日本橋横山町７－１９第３５イチオクビル３Ｆ３－２６号室,,13,102,1030003,,,,,,,2023-07-31,1,,,,,スメバ,0
28,1010101015746,新規,0,2023-07-31,2023-07-31,ヤマカンホーム株式会社,,株式会社,東京都,八王子市,横川町５３１番地１,,13,201,1930823,,,,,,,2023-07-31,1,,,,,ヤマカンホーム,0
32,1010401175975,新規,0,2023-07-31,2023-07-31,株式会社中東ビジネスコンサルティングジャパン,,株式会社,東京都,港区,赤坂２丁目１７番５０－６０８号,,13,103,1070052,,,,,,,2023-07-31,1,,,,,チュウトウビジネスコンサルティングジャパン,0
33,1010401176032,新規,0,2023-07-31,2023-07-31,クリューグル株式会社,,株式会社,東京都,港区,虎ノ門１丁目１７番１号虎ノ門ヒルズビジネスタワー１５階,,13,103,1050001,,,,,,,2023-07-31,1,,,,,クリューグル,0
34,1010403030567,新規,0,2023-07-31,2023-07-31,ＡＤＢＲＯ　ＪＰ合同会社,,合同会社,東京都,港区,赤坂２丁目１４番５号Ｄａｉｗａ赤坂ビル４階,,13,103,1070052,,,,,,,2023-07-31,1,,,,,アドブロジェーピー,0
35,1010403030583,新規,0,2023-07-31,2023-07-31,Ｍｕｓｅｒｋ　Ｊａｐａｎ合同会社,,合同会社,東京都,港区,元麻布３丁目１番６号ＢＬＩＮＫ,,13,103,1060046,,,,,,,2023-07-31,1,,,,,ミュザークジャパン,0
37,1010501050822,新規,0,2023-07-31,2023-07-31,述鄭斎株式会社,,株式会社,東京都,台東区,上野６丁目７－１６川久保ビル８０７号室,,13,106,1100005,,,,,,,2023-07-31,1,,,,,ジュツテイサイ,0
38,1010501050830,新規,0,2023-07-31,2023-07-31,Ｉ　Ｉ　Ｃｕｏｒｅイルクオーレ株式会社,,株式会社,東京都,台東区,入谷１丁目７番７号,,13,106,1100013,,,,,,,2023-07-31,1,,,,,イルクオーレイルクオーレ,0
41,1010602027050,新規,0,2023-07-31,2023-07-31,有限会社マック,,有限会社,東京都,江東区,東砂６丁目１９番３号,,13,108,1360074,,,,,,,2023-07-31,1,,,,,,0
47,1010901053516,新規,0,2023-07-31,2023-07-31,株式会社Ｗｉｎｄ,,株式会社,東京都,世田谷区,松原３丁目３０－１０,,13,112,1560043,,,,,,,2023-07-31,1,,,,,ウィンド,0
57,1011001155962,新規,0,2023-07-31,2023-07-31,フルスタックマーケティング株式会社,,株式会社,東京都,渋谷区,神宮前６丁目２３番４号桑野ビル２階,,13,113,1500001,,,,,,,2023-07-31,1,,,,,フルスタックマーケティング,0
62,1011101103813,新規,0,2023-07-31,2023-07-31,ＭｉＫホールディングス株式会社,,株式会社,東京都,新宿区,新宿５丁目１８番２０号新宿オミビル９階,,13,104,1600022,,,,,,,2023-07-31,1,,,,,ミックホールディングス,0
63,1011103013309,新規,0,2023-07-31,2023-07-31,Ａｗａｚｏコンサルティング合同会社,,合同会社,東京都,新宿区,西新宿３丁目３番１３号西新宿水間ビル２Ｆ,,13,104,1600023,,,,,,,2023-07-31,1,,,,,アワゾーコンサルティング,0
68,1011501029583,新規,0,2023-07-31,2023-07-31,エスモンド株式会社,,株式会社,東京都,北区,中里１丁目２１番２号中里ビル１Ｆ,,13,117,1140015,,,,,,,2023-07-31,1,,,,,エスモンド,0
71,1011603003998,新規,0,2023-07-31,2023-07-31,Ｅｘｔｅｎｔｉａｌ合同会社,,合同会社,東京都,練馬区,平和台３丁目７番２３号コニファーコート平和台フォリート５０１号室,,13,120,1790083,,,,,,,2023-07-31,1,,,,,エクステンシャル,0
74,1011801042807,新規,0,2023-07-31,2023-07-31,株式会社ｒｏｓｙ,,株式会社,東京都,足立区,西新井７丁目６番２－２０１号セザール西新井ガーデン,,13,121,1230841,,,,,,,2023-07-31,1,,,,,ロージー,0
79,1012701017766,新規,0,2023-07-31,2023-07-31,株式会社Ｂｅａｔｉｍ,,株式会社,東京都,東久留米市,滝山５丁目１９番１０号,,13,222,2030033,,,,,,,2023-07-31,1,,,,,ビーティム,0
84,1013301051115,新規,0,2023-07-31,2023-07-31,ＴｅｃｈＷｏｒｌｄ株式会社,,株式会社,東京都,豊島区,高田３丁目３２番３号メイスンビル,,13,116,1710033,,,,,,,2023-07-31,1,,,,,テックワールド,0
85,1013303006686,新規,0,2023-07-31,2023-07-31,合同会社ハギワラ,,合同会社,東京都,豊島区,千早３丁目７－１,,13,116,1710044,,,,,,,2023-07-31,1,,,,,ハギワラ,0
90,1020001152622,新規,0,2023-07-31,2023-07-31,株式会社エステック,,株式会社,神奈川県,横浜市青葉区,奈良４丁目１番地１ルクサージュあおば山の手台Ｅ－３０７号,,14,117,2270038,,,,,,,2023-07-31,1,,,,,エステック,0
91,1020001152671,新規,0,2023-07-31,2023-07-31,株式会社ミライセツビ,,株式会社,神奈川県,川崎市高津区,久末５１１番地１２７,,14,134,2130026,,,,,,,2023-07-31,1,,,,,ミライセツビ,0
92,1020001152721,新規,0,2023-07-31,2023-07-31,株式会社ＨＬＦｕｒｎｉｔｕｒｅ,,株式会社,神奈川県,横浜市中区,長者町９丁目１４７番地２・２階,,14,104,2310033,,,,,,,2023-07-31,1,,,,,エイチエルファニチャー,0
111,1030001155137,新規,0,2023-07-31,2023-07-31,株式会社山桜,,株式会社,埼玉県,秩父郡横瀬町,大字横瀬４１７０番地１,,11,361,3680072,,,,,,,2023-07-31,1,,,,,ヤマザクラ,0
113,1030003022153,新規,0,2023-07-31,2023-07-31,合同会社ＰＬＡ　ＳＴＵＤＩＯ,,合同会社,埼玉県,久喜市,久喜東６丁目２－２１－３０７,,11,232,3460016,,,,,,,2023-07-31,1,,,,,プラスタジオ,0
114,1030003022236,新規,0,2023-07-31,2023-07-31,合同会社Ｃｅｙ　Ｒａｎｇｅ　Ｉｎｔｅｒｎａｔｉｏｎａｌ,,合同会社,埼玉県,東松山市,大字毛塚７８９番地５,,11,212,3550064,,,,,,,2023-07-31,1,,,,,セイレンジインターナショナル,0
115,1030005021343,新規,0,2023-07-31,2023-07-31,社会福祉法人ゆきすみ福祉会,,その他の設立登記法人,埼玉県,春日部市,永沼字岡堀１２１４番２,,11,214,3440123,,,,,,,2023-07-31,1,,,,,ユキスミフクシカイ,0
119,1040001129437,新規,0,2023-07-31,2023-07-31,株式会社映友工房,,株式会社,千葉県,市川市,須和田２丁目３５－２３,,12,203,2720825,,,,,,,2023-07-31,1,,,,,エイユウコウボウ,0
124,1040003023035,新規,0,2023-07-31,2023-07-31,ＲＩＮＧＯ合同会社,,合同会社,千葉県,千葉市稲毛区,稲毛東６丁目４番３号第１稲毛マリオン１０２号,,12,103,2630031,,,,,,,2023-07-31,1,,,,,リンゴ,0
130,1070001040681,新規,0,2023-07-31,2023-07-31,株式会社デジタルスイッチ,,株式会社,群馬県,渋川市,半田３０６０番地１,,10,208,3770004,,,,,,,2023-07-31,1,,,,,デジタルスイッチ,0
132,1070005010152,新規,0,2023-07-31,2023-07-31,ＮＰＯ法人高崎スケートボード協会,,その他の設立登記法人,群馬県,高崎市,根小屋町２２３７番地３,,10,202,3701214,,,,,,,2023-07-31,1,,,,,タカサキスケートボードキョウカイ,0
142,1100001036627,新規,0,2023-07-31,2023-07-31,株式会社ＳＯＬＡＲＩＡ,,株式会社,長野県,岡谷市,銀座１丁目１番５号１Ｆ,,20,204,3940022,,,,,,,2023-07-31,1,,,,,ソラリア,0
143,1100002033474,新規,0,2023-07-31,2023-07-31,有限会社レース伊那,,有限会社,長野県,伊那市,手良中坪６１４番地４,,20,209,3960004,,,,,,,2023-07-31,1,,,,,レースイナ,0
150,1120001256818,新規,0,2023-07-31,2023-07-31,株式会社Ｌｅｇｅｎｄ,,株式会社,大阪府,大阪市東淀川区,東中島１丁目１７番５号ステュディオ新大阪８０６号,,27,114,5330033,,,,,,,2023-07-31,1,,,,,レジェンド,0
151,1120001256859,新規,0,2023-07-31,2023-07-31,ＪＸ商事株式会社,,株式会社,大阪府,大阪市浪速区,久保吉１丁目６番２０号,,27,111,5560028,,,,,,,2023-07-31,1,,,,,ジェーエックスショウジ,0
152,1120001256883,新規,0,2023-07-31,2023-07-31,株式会社フローライト,,株式会社,大阪府,大阪市西区,靱本町３丁目２番５号,,27,106,5500004,,,,,,,2023-07-31,1,,,,,フローライト,0
153,1120001256900,新規,0,2023-07-31,2023-07-31,株式会社Ｎｏｖａ　Ｎｅｘｕｓ,,株式会社,大阪府,大阪市東住吉区,北田辺４丁目１１番２４号,,27,121,5460044,,,,,,,2023-07-31,1,,,,,ノヴァネクサス,0
166,1120101067958,新規,0,2023-07-31,2023-07-31,楽活株式会社,,株式会社,大阪府,泉佐野市,松原３丁目１－３５,,27,213,5980045,,,,,,,2023-07-31,1,,,,,ラクカツ,0
168,1120901047853,新規,0,2023-07-31,2023-07-31,株式会社ＳＫコーポレーション,,株式会社,大阪府,茨木市,南目垣１丁目１３－１３,,27,211,5670837,,,,,,,2023-07-31,1,,,,,エスケーコーポレーション,0
178,1130001074665,新規,0,2023-07-31,2023-07-31,株式会社アヤナイコミュニティ,,株式会社,京都府,京都市左京区,八瀬近衛町４２３番地５,,26,103,6011253,,,,,,,2023-07-31,1,,,,,アヤナイコミュニティ,0
179,1130001074814,新規,0,2023-07-31,2023-07-31,株式会社あおい,,株式会社,京都府,宇治市,広野町寺山１７番地の４３１,,26,204,6110031,,,,,,,2023-07-31,1,,,,,アオイ,0
186,1140001131044,新規,0,2023-07-31,2023-07-31,ＩＳＡＭＩ株式会社,,株式会社,兵庫県,尼崎市,西難波五丁目２番３１号ＴＳ西難波３Ｆ,,28,202,6600000,,,,,,,2023-07-31,1,,,,,イサミ,0
187,1140001131052,新規,0,2023-07-31,2023-07-31,株式会社小倉第６看護師団,,株式会社,兵庫県,神戸市北区,北五葉４丁目１２番８号,,28,109,6511131,,,,,,,2023-07-31,1,,,,,オグラダイロクカンゴシダン,0
192,1150001026573,新規,0,2023-07-31,2023-07-31,みなみ電気株式会社,,株式会社,奈良県,奈良市,東九条町８３３－１７－２０２,,29,201,6308144,,,,,,,2023-07-31,1,,,,,ミナミデンキ,0
201,1190003004391,新規,0,2023-07-31,2023-07-31,合同会社ななつぼし,,合同会社,三重県,伊勢市,一之木５丁目９番１９号,,24,203,5160071,,,,,,,2023-07-31,1,,,,,ナナツボシ,0
203,1220001025519,新規,0,2023-07-31,2023-07-31,株式会社ハレソラ,,株式会社,石川県,金沢市,梅田町ロ２８番地３,,17,201,9203111,,,,,,,2023-07-31,1,,,,,ハレソラ,0
208,1240001061883,新規,0,2023-07-31,2023-07-31,ウエダハウジング株式会社,,株式会社,広島県,広島市中区,舟入南１丁目３番３号,,34,101,7300847,,,,,,,2023-07-31,1,,,,,,0
212,1240003006242,新規,0,2023-07-31,2023-07-31,合同会社アデライド,,合同会社,広島県,広島市佐伯区,五月が丘１丁目３３番２,,34,108,7315101,,,,,,,2023-07-31,1,,,,,アデライド,0
213,1240005015621,新規,0,2023-07-31,2023-07-31,一般社団法人まなびの杜,,その他の設立登記法人,広島県,広島市安佐北区,真亀５丁目２２－１,,34,106,7391741,,,,,,,2023-07-31,1,,,,,マナビノモリ,0
217,1280003001751,新規,0,2023-07-31,2023-07-31,合同会社ｓｉｔｏａ,,合同会社,島根県,浜田市,三隅町岡見６６１番地１,,32,202,6993226,,,,,,,2023-07-31,1,,,,,シトア,0
237,1360003013160,新規,0,2023-07-31,2023-07-31,ＭｙＯｆｆｉｃｅ合同会社,,合同会社,沖縄県,豊見城市,字真玉橋４９９番地１リバーサイドマンション３０１,,47,212,9010201,,,,,,,2023-07-31,1,,,,,エムワイオフィス,0
239,1370003006221,新規,0,2023-07-31,2023-07-31,合同会社オカダシール,,合同会社,宮城県,亘理郡亘理町,逢隈中泉字堂の前６番地２３,00131317,04,361,9892301,,,,,,,2023-07-31,1,,,,,オカダシール,0
243,1380001033877,新規,0,2023-07-31,2023-07-31,株式会社デンショーテクニカ,,株式会社,福島県,南相馬市,原町区栄町３丁目１２８番地,,07,212,9750003,,,,,,,2023-07-31,1,,,,,デンショーテクニカ,0
258,1430001089534,新規,0,2023-07-31,2023-07-31,株式会社ＢＧ’ｓカンパニー,,株式会社,北海道,札幌市手稲区,新発寒六条７丁目１０番３号,,01,109,0060806,,,,,,,2023-07-31,1,,,,,ビージーズカンパニー,0
259,1430001089567,新規,0,2023-07-31,2023-07-31,株式会社渡部,,株式会社,北海道,苫小牧市,字高丘８番地の２５,,01,213,0530035,,,,,,,2023-07-31,1,,,,,ワタベ,0
263,1490001010543,新規,0,2023-07-31,2023-07-31,株式会社ｂｏ・ｎｉ・ｔｏ,,株式会社,高知県,土佐市,宇佐町宇佐１７２９番地,,39,205,7811161,,,,,,,2023-07-31,1,,,,,ボニート,0
264,1700150117340,新規,0,2023-07-31,2023-06-14,高知アニメクリエイター聖地プロジェクト実行委員会,,その他,高知県,高知市,はりまや町２丁目４番４号,,39,201,7800822,,,,,,,2023-06-14,1,,,,,コウチアニメクリエイターセイチプロジエクトジツコウイインカイ,0
272,2010001237217,新規,0,2023-07-31,2023-07-31,インターナショナル富士株式会社,,株式会社,東京都,千代田区,神田須田町１丁目２８番１号カワイビル４Ｆ,,13,101,1010041,,,,,,,2023-07-31,1,,,,,インターナショナルフジ,0
273,2010001237241,新規,0,2023-07-31,2023-07-31,和イズム株式会社,,株式会社,東京都,中央区,日本橋人形町３丁目７－１３日本橋センチュリープラザ４０３,,13,102,1030013,,,,,,,2023-07-31,1,,,,,ワイズム,0
290,2010401176048,新規,0,2023-07-31,2023-07-31,東渡温泉資産管理株式会社,,株式会社,東京都,港区,虎ノ門４丁目３番１号城山トラストタワー１５階,,13,103,1050001,,,,,,,2023-07-31,1,,,,,トウトオンセンシサンカンリ,0
292,2010403030616,新規,0,2023-07-31,2023-07-31,ＭＬＯ合同会社,,合同会社,東京都,港区,浜松町２丁目２番１５号２階,,13,103,1050013,,,,,,,2023-07-31,1,,,,,エムエルオー,0
297,2010601063509,新規,0,2023-07-31,2023-07-31,東盛商事株式会社,,株式会社,東京都,江東区,亀戸７丁目３９番５－６０２号,,13,108,1360071,,,,,,,2023-07-31,1,,,,,トウセイショウジ,0
300,2010801034202,新規,0,2023-07-31,2023-07-31,株式会社アイブイホーム,,株式会社,東京都,大田区,西馬込２丁目３０番８号ランドフェニックス西馬込３０２,,13,111,1430026,,,,,,,2023-07-31,1,,,,,アイブイホーム,0
301,2010803004616,新規,0,2023-07-31,2023-07-31,合同会社ＩＮＴＥＧＲＩＴＹ,,合同会社,東京都,大田区,南馬込５丁目５番９号,,13,111,1430025,,,,,,,2023-07-31,1,,,,,インテグリティ,0
303,2010905004506,新規,0,2023-07-31,2023-07-31,一般社団法人食文化実践研究所,,その他の設立登記法人,東京都,世田谷区,上祖師谷５丁目２１番１４－１０６号,,13,112,1570065,,,,,,,2023-07-31,1,,,,,ショクブンカジッセンケンキュウジョ,0
308,2011001155961,新規,0,2023-07-31,2023-07-31,ＡＩ　Ｌｉｖｅ　ＧＰＴ株式会社,,株式会社,東京都,渋谷区,恵比寿南１丁目１番１号ヒューマックス恵比寿８階,,13,113,1500022,,,,,,,2023-07-31,1,,,,,エーアイライブジーピーティー,0
312,2011101103812,新規,0,2023-07-31,2023-07-31,株式会社ＵＢホールディングス,,株式会社,東京都,新宿区,新宿５丁目１８番２０号新宿オミビル９階,,13,104,1600022,,,,,,,2023-07-31,1,,,,,ユービーホールディングス,0
313,2011101103820,新規,0,2023-07-31,2023-07-31,穂車株式会社,,株式会社,東京都,新宿区,西新宿３丁目３番１３号西新宿水間ビル２Ｆ,,13,104,1600023,,,,,,,2023-07-31,1,,,,,ホシャ,0
317,2011301028891,新規,0,2023-07-31,2023-07-31,株式会社小波社,,株式会社,東京都,杉並区,堀ノ内２丁目１８番１５－５０７号,,13,115,1660013,,,,,,,2023-07-31,1,,,,,コナミシャ,0
319,2011501029590,新規,0,2023-07-31,2023-07-31,昌盛株式会社,,株式会社,東京都,北区,浮間１丁目１番１４号リムジンビル１２０,,13,117,1150051,,,,,,,2023-07-31,1,,,,,ショウセイ,0
321,2011603003997,新規,0,2023-07-31,2023-07-31,ＲＥＥＮＡＭ合同会社,,合同会社,東京都,練馬区,栄町２５－１３－１Ｆ,,13,120,1760006,,,,,,,2023-07-31,1,,,,,リーナム,0
324,2011801042806,新規,0,2023-07-31,2023-07-31,むら松株式会社,,株式会社,東京都,足立区,一ツ家３丁目９番３号,,13,121,1210075,,,,,,,2023-07-31,1,,,,,ムラマツ,0
327,2012701017765,新規,0,2023-07-31,2023-07-31,株式会社ＤＥＬＴＡＭＥＤＩＣＡＬ,,株式会社,東京都,東村山市,野口町１丁目２番地１０,,13,213,1890022,,,,,,,2023-07-31,1,,,,,デルタメディカル,0
331,2013301051106,新規,0,2023-07-31,2023-07-31,アサウ株式会社,,株式会社,東京都,豊島区,池袋４丁目１７番３－３０６号,,13,116,1710014,,,,,,,2023-07-31,1,,,,,アサウ,0
338,2020001152670,新規,0,2023-07-31,2023-07-31,株式会社クリエイト,,株式会社,神奈川県,横浜市西区,北幸２丁目１０番地２８むつみビル３Ｆ,,14,103,2200004,,,,,,,2023-07-31,1,,,,,クリエイト,0
339,2020001152729,新規,0,2023-07-31,2023-07-31,株式会社ｇｒｅｅｎ,,株式会社,神奈川県,横浜市港南区,上大岡東２丁目４２番１９号１Ｆ,,14,111,2330001,,,,,,,2023-07-31,1,,,,,グリーン,0
343,2020003024273,新規,0,2023-07-31,2023-07-31,合同会社ｅｄｕｃｏ,,合同会社,神奈川県,川崎市幸区,新小倉２番３－８０４号,,14,132,2120031,,,,,,,2023-07-31,1,,,,,エデュコ,0
344,2020003024307,新規,0,2023-07-31,2023-07-31,合同会社Ｎｕｄｇｅ,,合同会社,神奈川県,横浜市青葉区,みたけ台１６番地６,,14,117,2270047,,,,,,,2023-07-31,1,,,,,ナッジ,0
348,2030001155029,新規,0,2023-07-31,2023-07-31,株式会社ＰＳブランディング,,株式会社,埼玉県,川口市,飯塚１丁目１番４１－４０４号ケヤキグランデＩ,00131331,11,203,3320023,,,,,,,2023-07-31,1,,,,,ピーエスブランディング,0
349,2030001155136,新規,0,2023-07-31,2023-07-31,株式会社ＮＯＯＲ　ＳＡＩＤ　ＴＲＡＤＩＮＧ,,株式会社,埼玉県,羽生市,南８丁目６番地８木村４号棟,,11,216,3480053,,,,,,,2023-07-31,1,,,,,ノールサイドトレーディング,0
353,2030003022169,新規,0,2023-07-31,2023-07-31,恒瑞美業合同会社,,合同会社,埼玉県,川口市,西川口１丁目３－８－３Ｆ,,11,203,3320021,,,,,,,2023-07-31,1,,,,,ツネミズミギョウ,0
354,2030003022235,新規,0,2023-07-31,2023-07-31,合同会社ｓｅｍｅｒ,,合同会社,埼玉県,川口市,栄町３丁目４番４－５０５号,,11,203,3320017,,,,,,,2023-07-31,1,,,,,セメ,0
358,2040001129436,新規,0,2023-07-31,2023-07-31,華東株式会社,,株式会社,千葉県,松戸市,五香南１丁目１５番７百楽門ビル２０４号室,,12,207,2702212,,,,,,,2023-07-31,1,,,,,カトウ,0
359,2040001129444,新規,0,2023-07-31,2023-07-31,テクノエース株式会社,,株式会社,千葉県,白井市,根４２５番地,,12,232,2701431,,,,,,,2023-07-31,1,,,,,テクノエース,0
360,2040001129452,新規,0,2023-07-31,2023-07-31,株式会社ＡＭＯＮＥ,,株式会社,千葉県,印旛郡栄町,安食台４丁目２６番４号,,12,329,2701515,,,,,,,2023-07-31,1,,,,,アモン,0
368,2060001036192,新規,0,2023-07-31,2023-07-31,株式会社ブランデンブルク,,株式会社,栃木県,足利市,昌平町２３６４番地,,09,202,3260813,,,,,,,2023-07-31,1,,,,,ブランデンブルク,0
369,2060002041209,新規,0,2023-07-31,2023-07-31,有限会社つる島食堂,,有限会社,栃木県,日光市,安川町９番１８号,,09,206,3211432,,,,,,,2023-07-31,1,,,,,ツルシマショクドウ,0
376,2080401026626,新規,0,2023-07-31,2023-07-31,小川創建株式会社,,株式会社,静岡県,浜松市西区,入野町１９９５４番地の７４６,,22,133,4328061,,,,,,,2023-07-31,1,,,,,オガワソウケン,0
380,2100003007121,新規,0,2023-07-31,2023-07-31,ＢＬＵＥ　ＬＩＮＥ合同会社,,合同会社,長野県,北安曇郡小谷村,大字千国乙１２８６０番地８,,20,486,3999422,,,,,,,2023-07-31,1,,,,,ブルーライン,0
388,2120001256833,新規,0,2023-07-31,2023-07-31,柳仁商事株式会社,,株式会社,大阪府,大阪市西淀川区,野里２丁目２５番２３号レジュールアッシュ塚本９１５号,,27,113,5550024,,,,,,,2023-07-31,1,,,,,リュウジンショウジ,0
389,2120001256858,新規,0,2023-07-31,2023-07-31,ＩＤＥＡＬ株式会社,,株式会社,大阪府,大阪市生野区,生野西１丁目１０番２９号寺田町アパート１０１号室,,27,116,5440024,,,,,,,2023-07-31,1,,,,,アイディアル,0
390,2120001256866,新規,0,2023-07-31,2023-07-31,株式会社未来,,株式会社,大阪府,大阪市浪速区,芦原２丁目５番４３号,,27,111,5560029,,,,,,,2023-07-31,1,,,,,ミライ,0
395,2120101067957,新規,0,2023-07-31,2023-07-31,株式会社Ｍａｐｌｅ　Ｌｅａｆ　Ｈｏｍｅ,,株式会社,大阪府,松原市,高見の里１丁目３番２４号,,27,217,5800021,,,,,,,2023-07-31,1,,,,,メイプルリーフホーム,0
398,2120901022954,新規,0,2023-07-31,2023-07-31,株式会社エイト加工紙,,株式会社,大阪府,豊中市,庄内西町５丁目３番２号,,27,203,5610832,,,,,,,2023-07-31,1,,,,,エイトカコウシ,0
399,2120901047852,新規,0,2023-07-31,2023-07-31,株式会社ＡＣＳ,,株式会社,大阪府,豊能郡豊能町,新光風台４丁目１６番地の１５,,27,321,5630105,,,,,,,2023-07-31,1,,,,,アックス,0
400,2120903004760,新規,0,2023-07-31,2023-07-31,関西ソリューション合同会社,,合同会社,大阪府,吹田市,青山台３丁目５０番１０号,,27,205,5650875,,,,,,,2023-07-31,1,,,,,カンサイソリューション,0
403,2122001037197,新規,0,2023-07-31,2023-07-31,株式会社岡田建設,,株式会社,大阪府,大東市,三箇４丁目２番３１号,,27,218,5740077,,,,,,,2023-07-31,1,,,,,オカダケンセツ,0
407,2130001074821,新規,0,2023-07-31,2023-07-31,Ｓａｌｏ株式会社,,株式会社,京都府,京田辺市,同志社山手２丁目４番地１０６,,26,211,6100315,,,,,,,2023-07-31,1,,,,,サロ,0
408,2130001074838,新規,0,2023-07-31,2023-07-31,株式会社おがわペットクリニック,,株式会社,京都府,亀岡市,篠町野条井ホラ６－１２,,26,206,6210822,,,,,,,2023-07-31,1,,,,,オガワペットクリニック,0
424,2160001025210,新規,0,2023-07-31,2023-07-31,株式会社さわ田,,株式会社,滋賀県,大津市,仰木３丁目９番２６号,,25,201,5200247,,,,,,,2023-07-31,1,,,,,サワダ,0
425,2180001019284,新規,0,2023-07-31,2023-07-31,株式会社木下商会,,株式会社,愛知県,名古屋市中川区,島井町６１２番地,,23,110,4540974,,,,,,,2023-07-31,1,,,,,キノシタショウカイ,0
432,2180301037606,新規,0,2023-07-31,2023-07-31,株式会社エックスモンスター,,株式会社,愛知県,安城市,和泉町中根山２３番地３,,23,212,4441221,,,,,,,2023-07-31,1,,,,,エックスモンスター,0
433,2180301037614,新規,0,2023-07-31,2023-07-31,株式会社アイコク産業,,株式会社,愛知県,豊橋市,藤並町字藤並２６番地１,,23,201,4418114,,,,,,,2023-07-31,1,,,,,アイコクサンギョウ,0
440,2260001038144,新規,0,2023-07-31,2023-07-31,株式会社ＢＣＲ,,株式会社,岡山県,高梁市,有漢町有漢２４８５－４,,33,209,7161321,,,,,,,2023-07-31,1,,,,,ビーシーアール,0
441,2260001038152,新規,0,2023-07-31,2023-07-31,株式会社北村電気システム,,株式会社,岡山県,津山市,勝部２９３番地１０,,33,203,7080804,,,,,,,2023-07-31,1,,,,,キタムラデンキシステム,0
449,2290001102442,新規,0,2023-07-31,2023-07-31,Ｙ＆Ｃ株式会社,,株式会社,福岡県,福岡市中央区,港１丁目９番２６号,,40,133,8100075,,,,,,,2023-07-31,1,,,,,ワイアンドシー,0
454,2290801029736,新規,0,2023-07-31,2023-07-31,株式会社ＰＡＴＲＯＬ　ＭＡＳＴＥＲＳ　ＡＵＴＯＭＯＴＩＶＥ,,株式会社,福岡県,宮若市,水原９２５－１,,40,226,8220151,,,,,,,2023-07-31,1,,,,,パトロールマスターズオートモーティブ,0
461,2330001031091,新規,0,2023-07-31,2023-07-31,株式会社ｗｉｌｌｏｗ,,株式会社,熊本県,熊本市中央区,出水３丁目４番８－６０５号,,43,101,8620941,,,,,,,2023-07-31,1,,,,,ウィロウ,0
467,2340001025753,新規,0,2023-07-31,2023-07-31,株式会社才田林業,,株式会社,鹿児島県,鹿屋市,笠之原町１９４２番地フェニックス笠之原Ｂ棟１０２号,,46,203,8930023,,,,,,,2023-07-31,1,,,,,サイタリンギョウ,0
471,2360001032343,新規,0,2023-07-31,2023-07-31,株式会社ＴＨ・マイライフ,,株式会社,沖縄県,那覇市,久茂地２丁目１７番１９号１階,,47,201,9000015,,,,,,,2023-07-31,1,,,,,ティーエイチマイライフ,0
473,2370001050195,新規,0,2023-07-31,2023-07-31,株式会社フォースエステート,,株式会社,宮城県,石巻市,湊東２丁目１９番地８,,04,202,9860020,,,,,,,2023-07-31,1,,,,,フォースエステート,0
474,2370001050220,新規,0,2023-07-31,2023-07-31,株式会社ｉｍａｒｕ,,株式会社,宮城県,仙台市青葉区,旭ケ丘１丁目２９番３０－４０２号,,04,101,9810904,,,,,,,2023-07-31,1,,,,,イマル,0
477,2380001033876,新規,0,2023-07-31,2023-07-31,ＧＸラボ株式会社,,株式会社,福島県,双葉郡楢葉町,大字山田岡字堂ノ下６番地４,,07,542,9790513,,,,,,,2023-07-31,1,,,,,ジーエックスラボ,0
480,2380003005519,新規,0,2023-07-31,2023-07-31,合同会社Ｉｃｈｉ　ｔｏ,,合同会社,福島県,福島市,蓬莱町６丁目３番２号,00131319,07,201,9608157,,,,,,,2023-07-31,1,,,,,イチト,0
495,2430001089558,新規,0,2023-07-31,2023-07-31,株式会社ＦＲＤ総業,,株式会社,北海道,札幌市清田区,清田３３３－１９１,,01,110,0040859,,,,,,,2023-07-31,1,,,,,エフアールディーソウギョウ,0
496,2430001089566,新規,0,2023-07-31,2023-07-31,二七ラボ株式会社,,株式会社,北海道,虻田郡倶知安町,北三条東６丁目４番地１５,,01,400,0440003,,,,,,,2023-07-31,1,,,,,ニセラボ,0
499,2470005006514,新規,0,2023-07-31,2023-07-31,一般社団法人こころざす,,その他の設立登記法人,香川県,小豆郡土庄町,小馬越乙２２番地,,37,322,7614153,,,,,,,2023-07-31,1,,,,,ココロザス,0
513,3010001237281,新規,0,2023-07-31,2023-07-31,株式会社グローバル・サーモスタット・ジャパンＰＢＣ,,株式会社,東京都,千代田区,丸の内２丁目１番１号,,13,101,1000005,,,,,,,2023-07-31,1,,,,,グローバルサーモスタットジャパンピービーシー,0
515,3010003041186,新規,0,2023-07-31,2023-07-31,泓誠地熱エネルギー合同会社,,合同会社,東京都,中央区,日本橋２丁目６番１５号,,13,102,1030027,,,,,,,2023-07-31,1,,,,,コウセイチネツエネルギー,0
518,3010005036993,新規,0,2023-07-31,2023-07-31,一般社団法人ウェルネスチームクリエーション協会,,その他の設立登記法人,東京都,千代田区,平河町１丁目３番６号ＢＩＺＭＡＲＫＳ麹町２Ｆ,,13,101,1020093,,,,,,,2023-07-31,1,,,,,ウェルネスチームクリエーションキョウカイ,0
530,3010401175965,新規,0,2023-07-31,2023-07-31,ＺＥＡＬ株式会社,,株式会社,東京都,港区,南青山２丁目２番１５号ＷｉｎＡｏｙａｍａビルＵＣＦ６階,,13,103,1070062,,,,,,,2023-07-31,1,,,,,ジール,0
531,3010401176047,新規,0,2023-07-31,2023-07-31,株式会社Ｓｕｎｎｙｐｌｕｓ,,株式会社,東京都,港区,南青山３丁目１０番３０号３０１,,13,103,1070062,,,,,,,2023-07-31,1,,,,,サニープラス,0
533,3010403030565,新規,0,2023-07-31,2023-07-31,汐留合同会社,,合同会社,東京都,港区,東新橋１丁目１番２１号今朝ビル５階,,13,103,1050021,,,,,,,2023-07-31,1,,,,,シオドメ,0
534,3010403030573,新規,0,2023-07-31,2023-07-31,ＧＥＤ合同会社,,合同会社,東京都,港区,六本木３丁目７番１－１７２０号,,13,103,1060032,,,,,,,2023-07-31,1,,,,,ジーイーディー,0
543,3010603010276,新規,0,2023-07-31,2023-07-31,ＳｈｉｎｉｎｇＬｉｆｅ合同会社,,合同会社,東京都,墨田区,立花６丁目１２番１２号,,13,107,1310043,,,,,,,2023-07-31,1,,,,,シャイニングライフ,0
549,3010901053514,新規,0,2023-07-31,2023-07-31,株式会社玉木フーズ,,株式会社,東京都,世田谷区,八幡山３丁目２２番１８－１０２号,,13,112,1560056,,,,,,,2023-07-31,1,,,,,タマキフーズ,0
560,3011101103704,新規,0,2023-07-31,2023-07-31,Ｌｉｎｋ　Ｆｕｔｕｒｅ株式会社,,株式会社,東京都,新宿区,新宿２丁目１２番１３号新宿アントレサロンビル２階,,13,104,1600022,,,,,,,2023-07-31,1,,,,,リンクフューチャー,0
572,3011403004063,新規,0,2023-07-31,2023-07-31,合同会社Ｑ‐ｐｌｕｓ,,合同会社,東京都,板橋区,加賀２丁目１６番１－１００７号,,13,119,1730003,,,,,,,2023-07-31,1,,,,,キュープラス,0
576,3011703003541,新規,0,2023-07-31,2023-07-31,合同会社ピュア,,合同会社,東京都,江戸川区,東葛西８丁目１１番１３号,,13,123,1340084,,,,,,,2023-07-31,1,,,,,ピュア,0
577,3011801042796,新規,0,2023-07-31,2023-07-31,株式会社ＡＴＹ,,株式会社,東京都,足立区,青井１丁目１－４,,13,121,1200012,,,,,,,2023-07-31,1,,,,,エーティワイ,0
578,3011801042805,新規,0,2023-07-31,2023-07-31,株式会社Ｎ‐ＬｉＮＥ,,株式会社,東京都,足立区,栗原４丁目２４番５号,,13,121,1230842,,,,,,,2023-07-31,1,,,,,エヌライン,0
584,3013303006726,新規,0,2023-07-31,2023-07-31,合同会社毛利探偵事務所,,合同会社,東京都,豊島区,東池袋２丁目２４番９号アークプラザ東池袋４０５号,,13,116,1700013,,,,,,,2023-07-31,1,,,,,モウリタンテイジムショ,0
589,3020001152694,新規,0,2023-07-31,2023-07-31,株式会社ｖｏｌｏｎｔａ,,株式会社,神奈川県,横浜市栄区,飯島町５０１番地２、Ｗ－１１０６号室,,14,115,2440842,,,,,,,2023-07-31,1,,,,,ボロンタ,0
606,3030001154839,新規,0,2023-07-31,2023-07-31,株式会社炎ノ水,,株式会社,埼玉県,行田市,忍２丁目１７番１４号,,11,206,3610077,,,,,,,2023-07-31,1,,,,,ホノオノミズ,0
607,3030001155127,新規,0,2023-07-31,2023-07-31,株式会社Ｏｌｉｖｅ,,株式会社,埼玉県,久喜市,本町８丁目４番１号,,11,232,3460005,,,,,,,2023-07-31,1,,,,,オリーブ,0
613,3030003022168,新規,0,2023-07-31,2023-07-31,月音ミュージック合同会社,,合同会社,埼玉県,深谷市,本住町５－３６,,11,218,3660823,,,,,,,2023-07-31,1,,,,,ツキネミュージック,0
614,3030003022184,新規,0,2023-07-31,2023-07-31,彩芳堂合同会社,,合同会社,埼玉県,入間郡三芳町,大字竹間沢３３２番地１サンクレイドルみずほ台２１１号,,11,324,3540043,,,,,,,2023-07-31,1,,,,,サイホウドウ,0
615,3030003022226,新規,0,2023-07-31,2023-07-31,銘仕合同会社,,合同会社,埼玉県,川口市,西川口１丁目３０番２０号６Ｆ,,11,203,3320021,,,,,,,2023-07-31,1,,,,,メイシ,0
616,3030005021333,新規,0,2023-07-31,2023-07-31,特定非営利活動法人レインボーさいたまの会,,その他の設立登記法人,埼玉県,東松山市,大字柏崎５３４番５,,11,212,3550034,,,,,,,2023-07-31,1,,,,,レインボーサイタマノカイ,0
624,3040001129435,新規,0,2023-07-31,2023-07-31,株式会社Ｓ＆Ｓ,,株式会社,千葉県,松戸市,松飛台５５４－５,,12,207,2702214,,,,,,,2023-07-31,1,,,,,エスアンドエス,0
625,3040001129443,新規,0,2023-07-31,2023-07-31,日本ＷＩＮ刃物株式会社,,株式会社,千葉県,船橋市,高根台７丁目９－１５－２Ｆ,,12,204,2740065,,,,,,,2023-07-31,1,,,,,ニホンウィンハモノ,0
626,3040001129451,新規,0,2023-07-31,2023-07-31,株式会社誠進,,株式会社,千葉県,千葉市中央区,塩田町５６９番地１モデラート１０２号,,12,101,2600823,,,,,,,2023-07-31,1,,,,,セイシン,0
631,3040003023025,新規,0,2023-07-31,2023-07-31,合同会社味華,,合同会社,千葉県,袖ケ浦市,福王台３丁目１２番地７,,12,229,2990261,,,,,,,2023-07-31,1,,,,,ミカ,0
632,3040003023033,新規,0,2023-07-31,2023-07-31,Ｇｏｌｄｔｒｉａｓ合同会社,,合同会社,千葉県,千葉市若葉区,高根町９１４－１９,,12,104,2650061,,,,,,,2023-07-31,1,,,,,ゴールドトリアス,0
634,3050001053221,新規,0,2023-07-31,2023-07-31,株式会社シンコーシステム日立,,株式会社,茨城県,日立市,水木町１丁目３３番２５号,,08,202,3160024,,,,,,,2023-07-31,1,,,,,シンコーシステムヒタチ,0
643,3070003005045,新規,0,2023-07-31,2023-07-31,合同会社むちのち,,合同会社,群馬県,高崎市,白銀町９番地,,10,202,3700825,,,,,,,2023-07-31,1,,,,,ムチノチ,0
646,3080103002858,新規,0,2023-07-31,2023-07-31,合同会社Ａｍａｚｉｎｇｒｏａｄ,,合同会社,静岡県,三島市,芙蓉台２丁目４番地の１１,,22,206,4110046,,,,,,,2023-07-31,1,,,,,アメイジングロード,0
650,3080401026625,新規,0,2023-07-31,2023-07-31,株式会社杉本組,,株式会社,静岡県,菊川市,下内田３１６０番地の２０,,22,224,4390034,,,,,,,2023-07-31,1,,,,,スギモトグミ,0
652,3090003002354,新規,0,2023-07-31,2023-07-31,ストライン合同会社,,合同会社,山梨県,南都留郡忍野村,忍草７２,,19,424,4010511,,,,,,,2023-07-31,1,,,,,ストライン,0
653,3100001036600,新規,0,2023-07-31,2023-07-31,かもめでざいん株式会社,,株式会社,長野県,北安曇郡小谷村,大字千国乙４７４２－１,,20,486,3999422,,,,,,,2023-07-31,1,,,,,カモメデザイン,0
668,3120001256832,新規,0,2023-07-31,2023-07-31,株式会社ＦｌａｔｏＸ,,株式会社,大阪府,大阪市北区,梅田１丁目２番２号大阪駅前第２ビル１２－１２,,27,127,5300001,,,,,,,2023-07-31,1,,,,,フラトックス,0
669,3120001256857,新規,0,2023-07-31,2023-07-31,Ｒｅ３株式会社,,株式会社,大阪府,大阪市中央区,難波４丁目１番１５号近鉄難波ビル１階,,27,128,5420076,,,,,,,2023-07-31,1,,,,,リスリー,0
670,3120001256865,新規,0,2023-07-31,2023-07-31,株式会社関口商会,,株式会社,大阪府,大阪市西成区,北津守１丁目８番８８号,,27,122,5570061,,,,,,,2023-07-31,1,,,,,セキグチショウカイ,0
671,3120001256873,新規,0,2023-07-31,2023-07-31,株式会社ＣＲＡＺＹ,,株式会社,大阪府,大阪市西区,南堀江１丁目１８番１５号,,27,106,5500015,,,,,,,2023-07-31,1,,,,,クレイジー,0
672,3120001256881,新規,0,2023-07-31,2023-07-31,株式会社Ｂｌｕｅ　Ｂｅｅ,,株式会社,大阪府,大阪市中央区,東心斎橋２丁目１番１３号,,27,128,5420083,,,,,,,2023-07-31,1,,,,,ブルービー,0
679,3120003024601,新規,0,2023-07-31,2023-07-31,エート・アート合同会社,,合同会社,大阪府,大阪市北区,梅田１丁目２番２号大阪駅前第２ビル１２－１２,,27,127,5300001,,,,,,,2023-07-31,1,,,,,エートアート,0
684,3120103005352,新規,0,2023-07-31,2023-07-31,合同会社Ｊｉｒｏ‐ｃｈｏ,,合同会社,大阪府,河内長野市,加賀田１００９番地,,27,216,5860071,,,,,,,2023-07-31,1,,,,,ジロチョウ,0
689,3120901047843,新規,0,2023-07-31,2023-07-31,株式会社ＳＴＡＲＴＥＣＨ,,株式会社,大阪府,摂津市,新在家１丁目７番７号,,27,224,5660055,,,,,,,2023-07-31,1,,,,,スターテック,0
690,3120901047851,新規,0,2023-07-31,2023-07-31,株式会社武,,株式会社,大阪府,池田市,畑５丁目９番１６号,,27,204,5630021,,,,,,,2023-07-31,1,,,,,タケル,0
696,3130001074812,新規,0,2023-07-31,2023-07-31,株式会社みずほ不動産,,株式会社,京都府,京都市上京区,上立売通浄福寺西入上る真倉町７５２,,26,102,6028488,,,,,,,2023-07-31,1,,,,,ミズホフドウサン,0
697,3130001074829,新規,0,2023-07-31,2023-07-31,株式会社ＴＯＢＡ,,株式会社,京都府,京都市伏見区,下鳥羽中三町６０番地,,26,109,6128477,,,,,,,2023-07-31,1,,,,,トバ,0
699,3130003008875,新規,0,2023-07-31,2023-07-31,合同会社ｆｌｉｃｋ,,合同会社,京都府,京都市西京区,桂巽町１番地１１,00131318,26,111,6158075,,,,,,,2023-07-31,1,,,,,フリック,0
700,3130005016827,新規,0,2023-07-31,2023-07-31,行政書士法人鴨川事務所,,その他の設立登記法人,京都府,京都市中京区,烏丸通六角西入骨屋町１４３番地Ｇ＆Ｇビル２０１,,26,104,6040000,,,,,,,2023-07-31,1,,,,,カモガワジムショ,0
709,3140001131034,新規,0,2023-07-31,2023-07-31,株式会社ＲＹＯＭＡ,,株式会社,兵庫県,姫路市,白浜町宇佐崎北１丁目５５番地２,,28,201,6728013,,,,,,,2023-07-31,1,,,,,リョーマ,0
716,3180001157199,新規,0,2023-07-31,2023-07-31,北島毛織株式会社,,株式会社,愛知県,一宮市,萩原町萩原１３１１番地,,23,203,4910353,,,,,,,2023-07-31,1,,,,,キタジマケオリ,0
717,3180003025429,新規,0,2023-07-31,2023-07-31,合同会社ＧＬサービス,,合同会社,愛知県,名古屋市南区,元桜田町１丁目１２番地の４,,23,112,4570032,,,,,,,2023-07-31,1,,,,,ジーエルサービス,0
718,3180003025544,新規,0,2023-07-31,2023-07-31,合同会社フィネオ,,合同会社,愛知県,名古屋市瑞穂区,瑞穂通８丁目１７番地２プロシード新瑞橋４０２,,23,108,4670806,,,,,,,2023-07-31,1,,,,,フィネオ,0
723,3210003001673,新規,0,2023-07-31,2023-07-31,合同会社ＥＮ,,合同会社,福井県,鯖江市,横越町２０‐１３‐３,,18,207,9160036,,,,,,,2023-07-31,1,,,,,,0
730,3240001061873,新規,0,2023-07-31,2023-07-31,株式会社ｍａｐ,,株式会社,広島県,広島市中区,江波二本松２丁目９番３１－３０４号,,34,101,7300834,,,,,,,2023-07-31,1,,,,,マップ,0
761,3360003013159,新規,0,2023-07-31,2023-07-31,合同会社ＫＵＲ,,合同会社,沖縄県,浦添市,牧港２丁目３４－１８下地アパート１０２,,47,208,9012131,,,,,,,2023-07-31,1,,,,,クーア,0
764,3380001033875,新規,0,2023-07-31,2023-07-31,ｆｕｎ　ｔｈｅ　ｗａｙ株式会社,,株式会社,福島県,郡山市,駅前２丁目３－７エリート３０ビル２Ｆ／３Ｆ,,07,203,9638002,,,,,,,2023-07-31,1,,,,,ファンザウェイ,0
766,3400003003122,新規,0,2023-07-31,2023-07-31,合同会社星山屋,,合同会社,岩手県,紫波郡紫波町,星山字車１２番地,,03,321,0283313,,,,,,,2023-07-31,1,,,,,ホシヤマヤ,0
773,3430001089573,新規,0,2023-07-31,2023-07-31,株式会社アムニス,,株式会社,北海道,札幌市東区,東苗穂十五条１丁目１番１１号,,01,103,0070815,,,,,,,2023-07-31,1,,,,,アムニス,0
774,3430001089581,新規,0,2023-07-31,2023-07-31,株式会社北日本物産,,株式会社,北海道,札幌市西区,八軒六条東２丁目８番１０号,,01,107,0630866,,,,,,,2023-07-31,1,,,,,キタニホンブッサン,0
796,4010401175923,新規,0,2023-07-31,2023-07-31,株式会社Ｍａｎａｇｅｍｅｎｔ　Ｇｙｍ,,株式会社,東京都,港区,南青山３丁目１番３６号青山丸竹ビル６Ｆ,,13,103,1070062,,,,,,,2023-07-31,1,,,,,マネジメントジム,0
797,4010401176021,新規,0,2023-07-31,2023-07-31,株式会社クレア,,株式会社,東京都,港区,六本木４丁目３番１１号六本木ユニハウス２２３,,13,103,1060032,,,,,,,2023-07-31,1,,,,,クレア,0
801,4010601063507,新規,0,2023-07-31,2023-07-31,小田株式会社,,株式会社,東京都,江東区,亀戸７丁目５０番２号,,13,108,1360071,,,,,,,2023-07-31,1,,,,,オダ,0
808,4010801004483,新規,0,2023-07-31,2023-07-31,坂田建設株式会社,,株式会社,東京都,大田区,田園調布２丁目２０番１１号,,13,111,1450071,,,,,,,2023-07-31,1,,,,,,0
813,4010901053488,新規,0,2023-07-31,2023-07-31,株式会社ミヤモト,,株式会社,東京都,世田谷区,等々力６丁目１０番１０号,,13,112,1580082,,,,,,,2023-07-31,1,,,,,ミヤモト,0
821,4011001155943,新規,0,2023-07-31,2023-07-31,ＪＦＰアセットマネジメント株式会社,,株式会社,東京都,渋谷区,代々木２丁目１４番５号,,13,113,1510053,,,,,,,2023-07-31,1,,,,,ジェイエフピーアセットマネジメント,0
826,4011003017233,新規,0,2023-07-31,2023-07-31,日本交易合同会社,,合同会社,東京都,目黒区,八雲４丁目２０番１７号ホームズ３０１,,13,110,1520023,,,,,,,2023-07-31,1,,,,,ニホンコウエキ,0
827,4011003017258,新規,0,2023-07-31,2023-07-31,合同会社Ｆｌｏｗｅｒ　Ｅｌｅｐｈａｎｔ,,合同会社,東京都,渋谷区,道玄坂２丁目１９番３－８０１号,,13,113,1500043,,,,,,,2023-07-31,1,,,,,フラワーエレファント,0
828,4011003017266,新規,0,2023-07-31,2023-07-31,合同会社堺石原開発,,合同会社,東京都,渋谷区,千駄ヶ谷４丁目２５番２号株式会社フジタ内,,13,113,1510051,,,,,,,2023-07-31,1,,,,,サカイイシハラカイハツ,0
833,4011101103819,新規,0,2023-07-31,2023-07-31,株式会社西牧アンドカンパニー,,株式会社,東京都,新宿区,新宿２丁目１２番１３号,,13,104,1600022,,,,,,,2023-07-31,1,,,,,ニシマキアンドカンパニー,0
839,4011501029572,新規,0,2023-07-31,2023-07-31,株式会社Ｓｐｅｅｄ２,,株式会社,東京都,北区,浮間３丁目１番５－５１０号,,13,117,1150051,,,,,,,2023-07-31,1,,,,,スピードツー,0
840,4011501029589,新規,0,2023-07-31,2023-07-31,俊安堂株式会社,,株式会社,東京都,北区,東田端２丁目９番１７－２１５号,,13,117,1140013,,,,,,,2023-07-31,1,,,,,シュンアンドウ,0
843,4011803005759,新規,0,2023-07-31,2023-07-31,エスティートレード合同会社,,合同会社,東京都,足立区,綾瀬７丁目１番２３号アパガーデンコート綾瀬９０２,,13,121,1200005,,,,,,,2023-07-31,1,,,,,エスティートレード,0
850,4013303006725,新規,0,2023-07-31,2023-07-31,合同会社アポロ産業,,合同会社,東京都,豊島区,池袋２丁目３２番２０号池袋コーポラス１０１号室,,13,116,1710014,,,,,,,2023-07-31,1,,,,,アポロサンギョウ,0
856,4020001152669,新規,0,2023-07-31,2023-07-31,星耀国際株式会社,,株式会社,神奈川県,川崎市川崎区,小川町１６－１７ＭＦプラザ５０５号,,14,131,2100023,,,,,,,2023-07-31,1,,,,,セイヨウコクサイ,0
869,4030001154961,新規,0,2023-07-31,2023-07-31,株式会社ＦＡＲＳＥＬ　ＲＡＺＥ,,株式会社,埼玉県,川口市,大字小谷場３６９番地の１,,11,203,3330857,,,,,,,2023-07-31,1,,,,,ファルセルレイズ,0
870,4030001154994,新規,0,2023-07-31,2023-07-31,株式会社ｇｏｏｄｙａｒｄ,,株式会社,埼玉県,秩父郡横瀬町,大字横瀬６４６５番地７,,11,361,3680072,,,,,,,2023-07-31,1,,,,,グッドヤード,0
871,4030001155027,新規,0,2023-07-31,2023-07-31,ｓｅａ＆ｃａｌｍ株式会社,,株式会社,埼玉県,志木市,館２丁目１－８－１０３,,11,228,3530006,,,,,,,2023-07-31,1,,,,,シーアンドカーム,0
872,4030001155076,新規,0,2023-07-31,2023-07-31,半田工機株式会社,,株式会社,埼玉県,草加市,八幡町６６８番地２,,11,221,3400006,,,,,,,2023-07-31,1,,,,,ハンダコウキ,0
873,4030001155142,新規,0,2023-07-31,2023-07-31,輝天エンジニアリング株式会社,,株式会社,埼玉県,川口市,大字新堀１４番地の１,,11,203,3340061,,,,,,,2023-07-31,1,,,,,キテンエンジニアリング,0
874,4030001155159,新規,0,2023-07-31,2023-07-31,株式会社三友建設,,株式会社,埼玉県,草加市,長栄３丁目３６番地１７,,11,221,3400051,,,,,,,2023-07-31,1,,,,,ミトモケンセツ,0
882,4030003022175,新規,0,2023-07-31,2023-07-31,合同会社らいふ,,合同会社,埼玉県,春日部市,金崎９８７番地１２,,11,214,3440117,,,,,,,2023-07-31,1,,,,,ライフ,0
888,4040001129434,新規,0,2023-07-31,2023-07-31,株式会社三光,,株式会社,千葉県,浦安市,今川１丁目１２番１３号,,12,227,2790022,,,,,,,2023-07-31,1,,,,,サンコウ,0
889,4040001129442,新規,0,2023-07-31,2023-07-31,株式会社旅工房,,株式会社,千葉県,船橋市,宮本６丁目６番１１号,,12,204,2730003,,,,,,,2023-07-31,1,,,,,タビコウボウ,0
893,4040003022967,新規,0,2023-07-31,2023-07-31,合同会社ｙｕｎｏｓｕ,,合同会社,千葉県,茂原市,町保７番地１０４カネヨビル２階,,12,210,2970022,,,,,,,2023-07-31,1,,,,,ユノス,0
894,4040003023040,新規,0,2023-07-31,2023-07-31,合同会社八街企画,,合同会社,千葉県,八街市,八街ほ１０２９番地,,12,230,2891115,,,,,,,2023-07-31,1,,,,,ヤチマタキカク,0
897,4040005022081,新規,0,2023-07-31,2023-07-31,一般社団法人日本公正建築検査機構,,その他の設立登記法人,千葉県,千葉市若葉区,坂月町３３０番地１,,12,104,2640012,,,,,,,2023-07-31,1,,,,,ニホンコウセイケンチクケンサキコウ,0
899,4050001053220,新規,0,2023-07-31,2023-07-31,株式会社エクサ,,株式会社,茨城県,取手市,白山１丁目３番１２号,,08,217,3020023,,,,,,,2023-07-31,1,,,,,エクサ,0
900,4050003007678,新規,0,2023-07-31,2023-07-31,合同会社ＣｈａＰＰｙ,,合同会社,茨城県,つくば市,天久保２丁目１番地１筑波大学追越宿舎１７－１０７,,08,220,3050005,,,,,,,2023-07-31,1,,,,,チャッピー,0
905,4060003004658,新規,0,2023-07-31,2023-07-31,合同会社放課後デイとちぎ,,合同会社,栃木県,宇都宮市,兵庫塚３丁目２８番７号,00131320,09,201,3210138,,,,,,,2023-07-31,1,,,,,ホウカゴデイトチギ,0
907,4070001040679,新規,0,2023-07-31,2023-07-31,株式会社Ｍ３,,株式会社,群馬県,高崎市,北原町４２４番地２,,10,202,3703513,,,,,,,2023-07-31,1,,,,,エムスリー,0
908,4070003005044,新規,0,2023-07-31,2023-07-31,ＮｅｗＧｅｎｔ合同会社,,合同会社,群馬県,邑楽郡大泉町,中央２丁目１－９メゾンフォンテーヌ２０１,,10,524,3700516,,,,,,,2023-07-31,1,,,,,ニュージェント,0
915,4110001037720,新規,0,2023-07-31,2023-07-31,株式会社Ａｃｅａｒｔ,,株式会社,新潟県,燕市,八王寺２６３２番地,,15,213,9591264,,,,,,,2023-07-31,1,,,,,エースアート,0
923,4120001256781,新規,0,2023-07-31,2023-07-31,株式会社プレイアゲイン,,株式会社,大阪府,大阪市北区,梅田１丁目２番２号大阪駅前第２ビル１２－１２,,27,127,5300001,,,,,,,2023-07-31,1,,,,,プレイアゲイン,0
924,4120001256880,新規,0,2023-07-31,2023-07-31,株式会社第一歩,,株式会社,大阪府,大阪市中央区,北久宝寺町４丁目３番８号本町アーバンライフ１００１号室,,27,128,5410057,,,,,,,2023-07-31,1,,,,,ダイイッポ,0
928,4120101067880,新規,0,2023-07-31,2023-07-31,光陽フーズ株式会社,,株式会社,大阪府,和泉市,芦部町３０８番地の１,00131215,27,219,5940053,,,,,,,2023-07-31,1,,,,,コウヨウフーズ,0
929,4120101067955,新規,0,2023-07-31,2023-07-31,株式会社保坂建設,,株式会社,大阪府,泉大津市,式内町３－１０,,27,206,5950035,,,,,,,2023-07-31,1,,,,,ホサカケンセツ,0
930,4120901047850,新規,0,2023-07-31,2023-07-31,Ｇｏｕｒｄ株式会社,,株式会社,大阪府,豊中市,螢池中町４丁目４番１０号沢マンション２０１,,27,203,5600033,,,,,,,2023-07-31,1,,,,,ゴード,0
959,4180001157297,新規,0,2023-07-31,2023-07-31,株式会社Ｂｏｚ,,株式会社,愛知県,名古屋市昭和区,藤成通６丁目１１番の２,,23,107,4660845,,,,,,,2023-07-31,1,,,,,ボズ,0
971,4240001061872,新規,0,2023-07-31,2023-07-31,株式会社グリーンテック,,株式会社,広島県,福山市,新市町大字相方２６２５番地,,34,207,7293102,,,,,,,2023-07-31,1,,,,,グリーンテック,0
972,4240001061880,新規,0,2023-07-31,2023-07-31,株式会社ｌｅｅｎｄｅ,,株式会社,広島県,広島市東区,牛田新町４丁目１８番１０号,,34,102,7320068,,,,,,,2023-07-31,1,,,,,,0
997,4360003013158,新規,0,2023-07-31,2023-07-31,合同会社世界智脳教育同盟,,合同会社,沖縄県,糸満市,字真栄里２０１４－１サンリットスクエア５０２,,47,210,9010362,,,,,,,2023-07-31,1,,,,,セカイチノウキョウイクドウメイ,0
1010,4430003015304,新規,0,2023-07-31,2023-07-31,ＧＧ　Ｅｎｔｅｒｐｒｉｓｅｓ合同会社,,合同会社,北海道,虻田郡倶知安町,ニセコひらふ四条１丁目１番３４号,,01,400,0440087,,,,,,,2023-07-31,1,,,,,ジージーエンタープライズ,0
1011,4450001014066,新規,0,2023-07-31,2023-07-31,株式会社ＳＫＹ,,株式会社,北海道,士別市,多寄町三十一線東２号,,01,220,0980475,,,,,,,2023-07-31,1,,,,,,0
1016,4490001001498,新規,0,2023-07-31,2023-07-31,株式会社天王コーポレーション,,株式会社,高知県,高知市,北竹島町４２７番地３,,39,201,7808019,,,,,,,2023-07-31,1,,,,,,0
1019,4700150117560,新規,0,2023-07-31,2023-06-19,Ｄ－ＦＩＬＭＳ,,その他,東京都,新宿区,新宿５丁目１８－１１タナカビル４０６,,13,104,1600022,,,,,,,2023-06-19,1,,,,,デイーフイルムズ,0
1028,5010001237263,新規,0,2023-07-31,2023-07-31,株式会社住宅ローンサービス,,株式会社,東京都,千代田区,麹町５丁目４番地,,13,101,1020083,,,,,,,2023-07-31,1,,,,,ジュウタクローンサービス,0
1029,5010001237271,新規,0,2023-07-31,2023-07-31,株式会社ＭＥＤＪＯＯＬ,,株式会社,東京都,中央区,銀座１丁目１２番４号Ｎ＆ＥＢＬＤ．６Ｆ,,13,102,1040061,,,,,,,2023-07-31,1,,,,,メジョール,0
1031,5010003041234,新規,0,2023-07-31,2023-07-31,ＩＲＦ合同会社,,合同会社,東京都,文京区,千駄木２丁目４８番地６号吉野ビル２Ｆ,,13,105,1130022,,,,,,,2023-07-31,1,,,,,アイアールエフ,0
1037,5010005037008,新規,0,2023-07-31,2023-07-31,一般社団法人日中国際ゴルフ友好交流協会,,その他の設立登記法人,東京都,千代田区,神田佐久間町３丁目３８第５東ビル５Ｆ－１６号室,,13,101,1010025,,,,,,,2023-07-31,1,,,,,ニッチュウコクサイゴルフユウコウコウリュウキョウカイ,0
1046,5010401175476,新規,0,2023-07-31,2023-07-31,株式会社Ｏｃｅａｎ　Ｅｄｇｅ,,株式会社,東京都,港区,南青山２丁目２番１５号,,13,103,1070062,,,,,,,2023-07-31,1,,,,,オーシャンエッジ,0
1047,5010401175988,新規,0,2023-07-31,2023-07-31,株式会社カイエンタイ,,株式会社,東京都,港区,海岸１丁目２番２０号,,13,103,1050022,,,,,,,2023-07-31,1,,,,,カイエンタイ,0
1048,5010401176020,新規,0,2023-07-31,2023-07-31,株式会社Ｒｅｇａｌｉａ,,株式会社,東京都,港区,虎ノ門１丁目１０番５号,,13,103,1050001,,,,,,,2023-07-31,1,,,,,レガリア,0
1052,5010403030571,新規,0,2023-07-31,2023-07-31,合同会社Ｔｈｒｅｅ　Ｋｅｙｓ,,合同会社,東京都,港区,西麻布４丁目７番６号,,13,103,1060031,,,,,,,2023-07-31,1,,,,,スリーキーズ,0
1055,5010601063497,新規,0,2023-07-31,2023-07-31,美辰商事株式会社,,株式会社,東京都,江東区,富岡２丁目１番１０号４Ｆ,,13,108,1350047,,,,,,,2023-07-31,1,,,,,ビシンショウジ,0
1056,5010603010274,新規,0,2023-07-31,2023-07-31,合同会社ＳＴＡＲＴ　ＭＥ　ＵＰ,,合同会社,東京都,江東区,亀戸５丁目３４番１１号,,13,108,1360071,,,,,,,2023-07-31,1,,,,,スタートミーアップ,0
1063,5010901053487,新規,0,2023-07-31,2023-07-31,株式会社石井,,株式会社,東京都,世田谷区,千歳台２丁目２９番５号,,13,112,1570071,,,,,,,2023-07-31,1,,,,,イシイ,0
1064,5010901053520,新規,0,2023-07-31,2023-07-31,株式会社Ｏｆｆｉｃｅ　Ｋｕｒｏｄａ,,株式会社,東京都,世田谷区,駒沢１丁目２番２８－４０８号,,13,112,1540012,,,,,,,2023-07-31,1,,,,,オフィスクロダ,0
1065,5010901053529,新規,0,2023-07-31,2023-07-31,岩崎工業株式会社,,株式会社,東京都,世田谷区,奥沢５丁目１番１１号メゾン・ド・ジョワ２０２号,,13,112,1580083,,,,,,,2023-07-31,1,,,,,イワサキコウギョウ,0
1068,5011001155892,新規,0,2023-07-31,2023-07-31,ｂａｃｋｂｏｙｓ株式会社,,株式会社,東京都,渋谷区,神宮前６丁目２３番４号桑野ビル２階,,13,113,1500001,,,,,,,2023-07-31,1,,,,,バックボーイズ,0
1069,5011001155950,新規,0,2023-07-31,2023-07-31,株式会社Ｔｅｌｅｈｉｒｅ,,株式会社,東京都,渋谷区,道玄坂１丁目１６番６号,,13,113,1500043,,,,,,,2023-07-31,1,,,,,テレハイヤー,0
1070,5011001155983,新規,0,2023-07-31,2023-07-31,株式会社善慶,,株式会社,東京都,渋谷区,恵比寿西１丁目３２番２６－３０２号,,13,113,1500021,,,,,,,2023-07-31,1,,,,,ゼンケイ,0
1072,5011003017265,新規,0,2023-07-31,2023-07-31,合同会社クロスカット,,合同会社,東京都,渋谷区,神泉町１０番１５号,,13,113,1500045,,,,,,,2023-07-31,1,,,,,クロスカット,0
1076,5011101103818,新規,0,2023-07-31,2023-07-31,株式会社Ａｎｄ　Ｙｏｕ,,株式会社,東京都,新宿区,新宿５丁目２番２号新宿御苑荘１０１,,13,104,1600022,,,,,,,2023-07-31,1,,,,,アンドユー,0
1078,5011103013313,新規,0,2023-07-31,2023-07-31,コーヨー合同会社,,合同会社,東京都,新宿区,西早稲田１丁目１３番１２－４０４号,,13,104,1690051,,,,,,,2023-07-31,1,,,,,コーヨー,0
1080,5011105010738,新規,0,2023-07-31,2023-07-31,一般社団法人ＴＵ１５,,その他の設立登記法人,東京都,新宿区,四谷２丁目９番地１５東京ユナイテッド綜合事務所内,,13,104,1600004,,,,,,,2023-07-31,1,,,,,ティーユージュウゴ,0
1081,5011301028897,新規,0,2023-07-31,2023-07-31,株式会社海渡,,株式会社,東京都,杉並区,西荻南４丁目３１番１１－２１０号,,13,115,1670053,,,,,,,2023-07-31,1,,,,,カイト,0
1082,5011303004847,新規,0,2023-07-31,2023-07-31,武楽座合同会社,,合同会社,東京都,杉並区,阿佐谷南２丁目４番１３号－２０２,,13,115,1660004,,,,,,,2023-07-31,1,,,,,ブガクザ,0
1083,5011501029555,新規,0,2023-07-31,2023-07-31,Ｓ　ＣＬＡＲＡ株式会社,,株式会社,東京都,荒川区,町屋５丁目９番３－１３０７号,,13,118,1160001,,,,,,,2023-07-31,1,,,,,エスクララ,0
1095,5011801042794,新規,0,2023-07-31,2023-07-31,株式会社ＯＮＴ内装,,株式会社,東京都,葛飾区,西水元１丁目１０番１０号市原ハウス１０１,,13,122,1250031,,,,,,,2023-07-31,1,,,,,オーエヌティナイソウ,0
1096,5011803005758,新規,0,2023-07-31,2023-07-31,合同会社盛和,,合同会社,東京都,足立区,西新井３丁目１７番１－２１４号,,13,121,1230841,,,,,,,2023-07-31,1,,,,,セイワ,0
1097,5012401040791,新規,0,2023-07-31,2023-07-31,株式会社Ｓｐｉｎ　Ｗａｖｅ,,株式会社,東京都,府中市,幸町２丁目４０番地の１府中第４住宅３号棟３０２,,13,206,1830054,,,,,,,2023-07-31,1,,,,,スピンウェーブ,0
1101,5012703002754,新規,0,2023-07-31,2023-07-31,Ｔｈｉｒｄ　Ｐａｒｔｙ合同会社,,合同会社,東京都,西東京市,谷戸町３丁目２３－１－６０７,,13,229,1880001,,,,,,,2023-07-31,1,,,,,サードパーティー,0
1107,5013301051111,新規,0,2023-07-31,2023-07-31,キングフィッシャー・ジャパン株式会社,,株式会社,東京都,豊島区,西池袋１丁目１１－１メトロポリタンプラザビル１４階,,13,116,1710021,,,,,,,2023-07-31,1,,,,,キングフィッシャージャパン,0
1114,5021001079694,新規,0,2023-07-31,2023-07-31,株式会社パワーステップ,,株式会社,神奈川県,伊勢原市,上粕屋２３４６番地８,,14,214,2591141,,,,,,,2023-07-31,1,,,,,パワーステップ,0
1115,5021003013370,新規,0,2023-07-31,2023-07-31,合同会社ＫＩＭＩＮＩ,,合同会社,神奈川県,厚木市,森の里１丁目２９番４－４０５号,,14,212,2430122,,,,,,,2023-07-31,1,,,,,キミニ,0
1116,5021005012866,新規,0,2023-07-31,2023-07-31,一般社団法人ＳＧパートナーズ,,その他の設立登記法人,神奈川県,藤沢市,亀井野１０１５番地２５,,14,205,2520813,,,,,,,2023-07-31,1,,,,,エスジーパートナーズ,0
1125,5030001154977,新規,0,2023-07-31,2023-07-31,株式会社カタクラ電気工事,,株式会社,埼玉県,吉川市,高久２丁目６番地２５,,11,243,3420035,,,,,,,2023-07-31,1,,,,,カタクラデンキコウジ,0
1126,5030001154993,新規,0,2023-07-31,2023-07-31,Ｓｕｐｅｒ　ｒｈｙｔｈｍ株式会社,,株式会社,埼玉県,川口市,西川口１丁目３０番２０－６１１号,,11,203,3320021,,,,,,,2023-07-31,1,,,,,スーパーリズム,0
1133,5030003022133,新規,0,2023-07-31,2023-07-31,合同会社美星,,合同会社,埼玉県,草加市,柳島町５２２番地,,11,221,3400033,,,,,,,2023-07-31,1,,,,,ビセイ,0
1134,5030003022158,新規,0,2023-07-31,2023-07-31,合同会社Ｒｅａｓｏｎ,,合同会社,埼玉県,久喜市,北広島１２２５－３,,11,232,3491111,,,,,,,2023-07-31,1,,,,,リーズン,0
1135,5030003022174,新規,0,2023-07-31,2023-07-31,合同会社ＭＪＣ,,合同会社,埼玉県,久喜市,上川崎１９２番地８,,11,232,3400204,,,,,,,2023-07-31,1,,,,,エムジェーシー,0
1139,5040001129433,新規,0,2023-07-31,2023-07-31,株式会社ＳＨＹＩＨＩ建設,,株式会社,千葉県,流山市,大字東深井６５番地の３,,12,220,2700101,,,,,,,2023-07-31,1,,,,,シーヒーケンセツ,0
1140,5040001129441,新規,0,2023-07-31,2023-07-31,株式会社ＫＨＯＳ　ＴＲＡＤＥ,,株式会社,千葉県,千葉市中央区,都町３丁目７番３号第３内山ビル３０５号,,12,101,2600001,,,,,,,2023-07-31,1,,,,,ホストレイド,0
1146,5040005022080,新規,0,2023-07-31,2023-07-31,Ｄｒｅａｍ　Ｓｔｒｅｅｔ協同組合,,その他の設立登記法人,千葉県,山武市,横田１９１番地１,,12,237,2891226,,,,,,,2023-07-31,1,,,,,ドリームストリート,0
1148,5050003007660,新規,0,2023-07-31,2023-07-31,銀杏コンサルティング合同会社,,合同会社,茨城県,つくば市,天久保３丁目６－７Ｌｉｂｒｅ１０１,,08,220,3050005,,,,,,,2023-07-31,1,,,,,イチョウコンサルティング,0
1149,5050003007677,新規,0,2023-07-31,2023-07-31,合同会社Ｔｒｕｓｔ　Ｅｌｅｍｅｎｔｓ,,合同会社,茨城県,水戸市,宮町１丁目２－４ＭＹＭビル３Ｆ,,08,201,3100015,,,,,,,2023-07-31,1,,,,,トラストエレメンツ,0
1153,5070001040686,新規,0,2023-07-31,2023-07-31,ＡＫＯＧＡＲＥ不動産建設株式会社,,株式会社,群馬県,高崎市,連雀町２９番地日英同ビル１Ｆ,,10,202,3700826,,,,,,,2023-07-31,1,,,,,アコガレフドウサンケンセツ,0
1163,5080405007561,新規,0,2023-07-31,2023-07-31,特定非営利活動法人えくすこら,,その他の設立登記法人,静岡県,掛川市,上西郷５１６番５号,,22,213,4360342,,,,,,,2023-07-31,1,,,,,エクスコラ,0
1168,5100001036607,新規,0,2023-07-31,2023-07-31,株式会社調和Ｉｎｔｅｒｎａｔｉｏｎａｌ,,株式会社,長野県,下伊那郡喬木村,６６４０番地６,,20,415,3951100,,,,,,,2023-07-31,1,,,,,チョウワインターナショナル,0
1171,5100003007119,新規,0,2023-07-31,2023-07-31,Ｂｕｔｔｅｒ　Ｉｎｎ合同会社,,合同会社,長野県,北安曇郡小谷村,大字千国乙４３７９番地２,,20,486,3999422,,,,,,,2023-07-31,1,,,,,バターイン,0
1182,5120001256896,新規,0,2023-07-31,2023-07-31,株式会社スリーバント,,株式会社,大阪府,大阪市中央区,南久宝寺町４丁目６番６－３０３号,,27,128,5410058,,,,,,,2023-07-31,1,,,,,スリーバント,0
1183,5120001256905,新規,0,2023-07-31,2023-07-31,Ｎｏ３株式会社,,株式会社,大阪府,大阪市西区,京町堀２丁目３番４号,,27,106,5500003,,,,,,,2023-07-31,1,,,,,ノースリー,0
1185,5120003024509,新規,0,2023-07-31,2023-07-31,鴻＿商事合同会社,00131332,合同会社,大阪府,大阪市港区,市岡元町１丁目６－１１フレンドリー一番館５０２号室,,27,107,5520002,,,,,,,2023-07-31,1,,,,,コウキンショウジ,0
1189,5120901047841,新規,0,2023-07-31,2023-07-31,株式会社山下工建,,株式会社,大阪府,摂津市,香露園７番１４－３０３号,,27,224,5660034,,,,,,,2023-07-31,1,,,,,ヤマシタコウケン,0
1192,5122003002634,新規,0,2023-07-31,2023-07-31,合同会社アロットオブ,,合同会社,大阪府,大東市,大野１丁目３番２号ザ・レジデンス大阪住道１４０６号,,27,218,5740042,,,,,,,2023-07-31,1,,,,,アロットオブ,0
1195,5130001074827,新規,0,2023-07-31,2023-07-31,株式会社Ｒｕｕ,,株式会社,京都府,宇治市,木幡熊小路１９番地１５４,,26,204,6110002,,,,,,,2023-07-31,1,,,,,ルー,0
1197,5130005016841,新規,0,2023-07-31,2023-07-31,一般社団法人森林技術研究協議会,,その他の設立登記法人,京都府,京都市中京区,御池通東洞院東入笹屋町４３６永和御池ビル６０６号,,26,104,6048187,,,,,,,2023-07-31,1,,,,,シンリンギジュツケンキュウキョウギカイ,0
1207,5160001025216,新規,0,2023-07-31,2023-07-31,株式会社Ｉ．ｃｒａｆｔ,,株式会社,滋賀県,守山市,水保町字北川１０２２番,,25,207,5240102,,,,,,,2023-07-31,1,,,,,アイクラフト,0
1210,5170005007028,新規,0,2023-07-31,2023-07-31,特定非営利活動法人ｎｅａｒ,,その他の設立登記法人,和歌山県,新宮市,あけぼの５４７０番地７,,30,207,6470025,,,,,,,2023-07-31,1,,,,,ニアー,0
1211,5180001157321,新規,0,2023-07-31,2023-07-31,株式会社日本補助金士協会,,株式会社,愛知県,名古屋市中村区,名駅南２丁目８ー１（ＡＪＢＬＤＧ４０１）,,23,105,4500003,,,,,,,2023-07-31,1,,,,,ニホンホジョキンシキョウカイ,0
1212,5180001157338,新規,0,2023-07-31,2023-07-31,ＪＡＰＡＮ　ＭｅＲＩＳＥ　ＣＯＮＮＥＣＴ株式会社,,株式会社,愛知県,名古屋市中区,錦１丁目４番２７号ジェムストーン錦ビル６階,,23,106,4600003,,,,,,,2023-07-31,1,,,,,ジャパンミライズコネクト,0
1216,5180301037611,新規,0,2023-07-31,2023-07-31,株式会社ＯＮＥ＆ＯＮＥ,,株式会社,愛知県,高浜市,小池町６丁目９番地３０,,23,227,4441303,,,,,,,2023-07-31,1,,,,,ワンアンドワン,0
1220,5210001019402,新規,0,2023-07-31,2023-07-31,株式会社越山若水,,株式会社,福井県,福井市,西方２丁目２番１３号,,18,201,9100855,,,,,,,2023-07-31,1,,,,,エツザンジャクスイ,0
1222,5220001025523,新規,0,2023-07-31,2023-07-31,株式会社ＦｉｔＬｉｎＸ,,株式会社,石川県,金沢市,野町３丁目１１‐１金沢未来のまち創造館,,17,201,9218031,,,,,,,2023-07-31,1,,,,,フィットリンクス,0
1236,5270003001542,新規,0,2023-07-31,2023-07-31,合同会社テイルウインド,,合同会社,鳥取県,米子市,観音寺新町５丁目２番１２‐６０６号,,31,202,6830009,,,,,,,2023-07-31,1,,,,,テイルウインド,0
1243,5290001102407,新規,0,2023-07-31,2023-07-31,株式会社福岡コネクト不動産,,株式会社,福岡県,福岡市東区,香住ヶ丘２丁目１５番２１号－５０１号室,,40,131,8130003,,,,,,,2023-07-31,1,,,,,フクオカコネクトフドウサン,0
1244,5290001102431,新規,0,2023-07-31,2023-07-31,エーティーセキュリティー株式会社,,株式会社,福岡県,福岡市博多区,博多駅前３丁目１８番１６号博多テラス３０１,,40,132,8120011,,,,,,,2023-07-31,1,,,,,エーティーセキュリティー,0
1250,5300001013404,新規,0,2023-07-31,2023-07-31,株式会社ＨＯＰＥ,,株式会社,佐賀県,神埼郡吉野ヶ里町,田手１６７２番地,,41,327,8420035,,,,,,,2023-07-31,1,,,,,ホープ,0
1255,5320001019911,新規,0,2023-07-31,2023-07-31,Ｍａｌａｍａ＆Ｃｏ．株式会社,,株式会社,大分県,大分市,上田町１丁目３番１－３１８号ロフティ羽屋,,44,201,8700886,,,,,,,2023-07-31,1,,,,,マラマアンドコー,0
1256,5330003009918,新規,0,2023-07-31,2023-07-31,合同会社ひとはな,,合同会社,熊本県,葦北郡芦北町,大字花岡１３１５番地１,,43,482,8695442,,,,,,,2023-07-31,1,,,,,ヒトハナ,0
1287,5480001012157,新規,0,2023-07-31,2023-07-31,株式会社Ｊ‐プラン,,株式会社,徳島県,徳島市,川内町平石住吉３１９番地,,36,201,7710134,,,,,,,2023-07-31,1,,,,,ジェイプラン,0
1288,5480005006972,新規,0,2023-07-31,2023-07-31,一般社団法人はだしのひみつきち,,その他の設立登記法人,徳島県,板野郡北島町,中村字東開３－１,,36,402,7710203,,,,,,,2023-07-31,1,,,,,ハダシノヒミツキチ,0
1301,6010001237262,新規,0,2023-07-31,2023-07-31,スピリチュアルコミュニケーションズ株式会社,,株式会社,東京都,中央区,銀座６丁目６番１号,,13,102,1040061,,,,,,,2023-07-31,1,,,,,スピリチュアルコミュニケーションズ,0
1317,6010401176011,新規,0,2023-07-31,2023-07-31,株式会社ＭＯＡ,,株式会社,東京都,港区,麻布十番２丁目２１番６号アクシア麻布２３０３号,,13,103,1060045,,,,,,,2023-07-31,1,,,,,モア,0
1327,6010601063513,新規,0,2023-07-31,2023-07-31,日本希之文化株式会社,,株式会社,東京都,墨田区,東駒形２丁目２番１３－１０３号室,,13,107,1300005,,,,,,,2023-07-31,1,,,,,ニホンキノブンカ,0
1334,6011001155875,新規,0,2023-07-31,2023-07-31,株式会社ハルフィルムジャパン,,株式会社,東京都,渋谷区,代々木４丁目３１番４号,,13,113,1510053,,,,,,,2023-07-31,1,,,,,ハルフィルムジャパン,0
1335,6011001155958,新規,0,2023-07-31,2023-07-31,株式会社ｓｅａｆｉｎｅ,,株式会社,東京都,渋谷区,道玄坂１丁目２１番１号,,13,113,1500043,,,,,,,2023-07-31,1,,,,,シーファイン,0
1339,6011003017264,新規,0,2023-07-31,2023-07-31,合同会社レセプティビティ,,合同会社,東京都,渋谷区,本町３丁目４１番１４－８０１号ディームス渋谷本町,,13,113,1510071,,,,,,,2023-07-31,1,,,,,レセプティビティ,0
1340,6011101037008,新規,0,2023-07-31,2023-07-31,東邦信用開発株式会社,,株式会社,東京都,新宿区,西新宿７丁目５番１１号,,13,104,1600023,,,,,,,2023-07-31,1,,,,,トウホウシンヨウカイハツ,0
1347,6011103013320,新規,0,2023-07-31,2023-07-31,合同会社ｐｌａｙ,,合同会社,東京都,新宿区,赤城下町７８コンフォート神楽坂Ｃ２０１,,13,104,1620803,,,,,,,2023-07-31,1,,,,,プレイ,0
1349,6011301028896,新規,0,2023-07-31,2023-07-31,楽一株式会社,,株式会社,東京都,杉並区,梅里２丁目２５番１３号高円寺プラザ,,13,115,1660011,,,,,,,2023-07-31,1,,,,,ラクイチ,0
1350,6011305002914,新規,0,2023-07-31,2023-07-31,一般社団法人不動産再生機構,,その他の設立登記法人,東京都,杉並区,下高井戸２丁目１０番３号,,13,115,1680073,,,,,,,2023-07-31,1,,,,,フドウサンサイセイキコウ,0
1351,6011305002922,新規,0,2023-07-31,2023-07-31,特定非営利活動法人Ｆｏｒｕｍ２０５０,,その他の設立登記法人,東京都,杉並区,高円寺北４丁目９番６号,,13,115,1660002,,,,,,,2023-07-31,1,,,,,フォーラムトウエンティフィフティ,0
1355,6011501013120,新規,0,2023-07-31,2023-07-31,株式会社エンライトメント,,株式会社,東京都,北区,王子１丁目１４番８号明治堂ビル４階,,13,117,1140002,,,,,,,2023-07-31,1,,,,,,0
1356,6011501029579,新規,0,2023-07-31,2023-07-31,文葉株式会社,,株式会社,東京都,北区,浮間１丁目７－２３兆豊浮間ビル２０３号室,,13,117,1150051,,,,,,,2023-07-31,1,,,,,フミハ,0
1360,6011705001788,新規,0,2023-07-31,2023-07-31,一般社団法人日中交流促進会,,その他の設立登記法人,東京都,江戸川区,春江町２丁目３１番９－４０１号ニューキャネル須賀,,13,123,1320003,,,,,,,2023-07-31,1,,,,,ニッチュウコウリュウソクシンカイ,0
1361,6011801042802,新規,0,2023-07-31,2023-07-31,ＣｒｅａｔｅＶａｌｕｅ株式会社,,株式会社,東京都,足立区,千住旭町７－９Ａｒｉｅｔｔａ１０５,,13,121,1200026,,,,,,,2023-07-31,1,,,,,クリエイトバリュー,0
1362,6011803005757,新規,0,2023-07-31,2023-07-31,合同会社ＶＲ　Ｔｏｕｒｉｆｙ,,合同会社,東京都,葛飾区,堀切８丁目２番５号,,13,122,1240006,,,,,,,2023-07-31,1,,,,,ブイアールツーリファイ,0
1364,6012401040782,新規,0,2023-07-31,2023-07-31,ＲＡＷＡＣＯＮ株式会社,,株式会社,東京都,武蔵野市,吉祥寺南町３丁目１５番１２－２０３,,13,203,1800003,,,,,,,2023-07-31,1,,,,,ラワコン,0
1366,6012403006088,新規,0,2023-07-31,2023-07-31,ＣｒｏｓｓＤｏｔｓ合同会社,,合同会社,東京都,武蔵野市,境２丁目１０番１８号アドミス４０２,,13,203,1800022,,,,,,,2023-07-31,1,,,,,クロスドッツ,0
1390,6030001154927,新規,0,2023-07-31,2023-07-31,株式会社プルスＫ,,株式会社,埼玉県,蓮田市,見沼町１５番４号ＭＫサンアトラス３０１号,,11,238,3490127,,,,,,,2023-07-31,1,,,,,プルスケイ,0
1391,6030001154943,新規,0,2023-07-31,2023-07-31,株式会社カタヤママリ,,株式会社,埼玉県,さいたま市南区,大字太田窪２３０６－３０,,11,108,3360015,,,,,,,2023-07-31,1,,,,,カタヤママリ,0
1392,6030001154992,新規,0,2023-07-31,2023-07-31,株式会社北信商事,,株式会社,埼玉県,川口市,大字安行原８０１番地の１,,11,203,3340057,,,,,,,2023-07-31,1,,,,,ホクシンショウジ,0
1393,6030001155017,新規,0,2023-07-31,2023-07-31,株式会社ＷＩＮ１,,株式会社,埼玉県,志木市,幸町３丁目９番３５号,,11,228,3530005,,,,,,,2023-07-31,1,,,,,ウィンワン,0
1398,6030003022149,新規,0,2023-07-31,2023-07-31,ＶＥＮＴＵＲＥ　ＬＩＮＫ合同会社,,合同会社,埼玉県,本庄市,寿３丁目１０番３４号,,11,211,3670023,,,,,,,2023-07-31,1,,,,,ベンチャーリンク,0
1399,6030003022231,新規,0,2023-07-31,2023-07-31,ＹＮ　ＩＮＴＥＲＮＡＴＩＯＮＡＬ合同会社,,合同会社,埼玉県,羽生市,大字藤井上組６９４番１,,11,216,3480064,,,,,,,2023-07-31,1,,,,,ワイエヌインターナショナル,0
1410,6040003023030,新規,0,2023-07-31,2023-07-31,合同会社フロー,,合同会社,千葉県,千葉市中央区,矢作町９９０番地５,,12,101,2600851,,,,,,,2023-07-31,1,,,,,フロー,0
1414,6050003007676,新規,0,2023-07-31,2023-07-31,オールワン合同会社,,合同会社,茨城県,龍ケ崎市,平台１丁目６－９,,08,208,3010003,,,,,,,2023-07-31,1,,,,,オールワン,0
1420,6070001040685,新規,0,2023-07-31,2023-07-31,ＡＫＯＧＡＲＥホールディングス株式会社,,株式会社,群馬県,高崎市,連雀町２９番地日英同ビル１Ｆ,,10,202,3700826,,,,,,,2023-07-31,1,,,,,アコガレホールディングス,0
1421,6070001040693,新規,0,2023-07-31,2023-07-31,ｒｅｔｒｅａｔ　ａｇｅｎｔ株式会社,,株式会社,群馬県,吾妻郡嬬恋村,大字大前１３４－２,,10,425,3771612,,,,,,,2023-07-31,1,,,,,リトリートエージェント,0
1424,6080103002855,新規,0,2023-07-31,2023-07-31,合同会社Ｆｕｊｉ‐ＨＩＫＡＲＩ‐Ｃｏ．,,合同会社,静岡県,富士市,石坂６４３番地の８,,22,210,4170862,,,,,,,2023-07-31,1,,,,,フジヒカリカンパニー,0
1430,6090001018234,新規,0,2023-07-31,2023-07-31,株式会社ネクストアグリ,,株式会社,山梨県,北杜市,白州町白須１０５３７,,19,209,4080315,,,,,,,2023-07-31,1,,,,,ネクストアグリ,0
1439,6120001256813,新規,0,2023-07-31,2023-07-31,Ｌｅｌｉｅｎ株式会社,,株式会社,大阪府,大阪市北区,梅田１丁目１－３大阪駅前第３ビル２９階１－１－１号,,27,127,5300001,,,,,,,2023-07-31,1,,,,,ルリアン,0
1441,6120101067953,新規,0,2023-07-31,2023-07-31,株式会社瑞希総業,,株式会社,大阪府,堺市堺区,三国ヶ丘御幸通１０番地１三幸ビル５Ｆ,,27,141,5900028,,,,,,,2023-07-31,1,,,,,ミズキソウギョウ,0
1443,6120903004757,新規,0,2023-07-31,2023-07-31,合同会社窪田プロパティ,,合同会社,大阪府,豊中市,上新田１丁目２４番Ｅ－４０６号,,27,203,5600085,,,,,,,2023-07-31,1,,,,,クボタプロパティ,0
1449,6130001074826,新規,0,2023-07-31,2023-07-31,株式会社コロアイ,,株式会社,京都府,亀岡市,馬路町池尻５９番地,,26,206,6210008,,,,,,,2023-07-31,1,,,,,コロアイ,0
1450,6130001074842,新規,0,2023-07-31,2023-07-31,株式会社ｗｉｔｈ　ｓｔｙｌｅ,,株式会社,京都府,京都市上京区,塔之段通今出川上る二丁目上塔之段町４８０番地１,,26,102,6020000,,,,,,,2023-07-31,1,,,,,ウィズスタイル,0
1453,6130003008880,新規,0,2023-07-31,2023-07-31,合同会社梟杜,,合同会社,京都府,京都市左京区,吉田下阿達町４５,,26,103,6068304,,,,,,,2023-07-31,1,,,,,キョウト,0
1460,6140001131031,新規,0,2023-07-31,2023-07-31,Ｂ＆Ｊ株式会社,,株式会社,兵庫県,神戸市長田区,大塚町六丁目１番３－２号,00131324,28,106,6530000,,,,,,,2023-07-31,1,,,,,ビーアンドジェイ,0
1470,6170001017698,新規,0,2023-07-31,2023-07-31,未来株式会社,,株式会社,和歌山県,和歌山市,十番丁５６番地朝日プラザ十番丁７０６号,,30,201,6408152,,,,,,,2023-07-31,1,,,,,ミライ,0
1473,6180001157337,新規,0,2023-07-31,2023-07-31,ＫＭＹ株式会社,,株式会社,愛知県,名古屋市中村区,名駅４丁目２４番５号第２森ビル４０１号,,23,105,4500002,,,,,,,2023-07-31,1,,,,,ケーエムワイ,0
1491,6270002006888,新規,0,2023-07-31,2023-07-31,有限会社不二屋,,有限会社,鳥取県,米子市,四日市町７７番地,,31,202,6830061,,,,,,,2023-07-31,1,,,,,,0
1498,6290001102083,新規,0,2023-07-31,2023-07-31,はちひめかぐや株式会社,,株式会社,福岡県,八女市,岩崎１８８番地３,,40,210,8340062,,,,,,,2023-07-31,1,,,,,ハチヒメカグヤ,0
1499,6290001102439,新規,0,2023-07-31,2023-07-31,株式会社創縁,,株式会社,福岡県,糟屋郡粕屋町,大字阿惠４１６番地３,,40,349,8112306,,,,,,,2023-07-31,1,,,,,ソウエン,0
1522,6360001032348,新規,0,2023-07-31,2023-07-31,農業生産法人株式会社Ｊｉｖａ,,株式会社,沖縄県,中頭郡読谷村,字高志保６１２番地,,47,324,9040323,,,,,,,2023-07-31,1,,,,,ノウギョウセイサンホウジンジーヴァ,0
1524,6360003013164,新規,0,2023-07-31,2023-07-31,ＩｍｐａｃｔＸ合同会社,,合同会社,沖縄県,那覇市,牧志３丁目４番１４号新天地ビル１０３号,,47,201,9000013,,,,,,,2023-07-31,1,,,,,インパクトエックス,0
1525,6370005010662,新規,0,2023-07-31,2023-07-31,セントラルシャトル管理組合法人,,その他の設立登記法人,宮城県,仙台市宮城野区,小田原１丁目８番３３号,,04,102,9830803,,,,,,,2023-07-31,1,,,,,セントラルシャトル,0
1538,6430001089570,新規,0,2023-07-31,2023-07-31,株式会社アットジャパン,,株式会社,北海道,札幌市中央区,南一条西１０丁目４番地１５６大通ホワイトビル７階,,01,101,0600061,,,,,,,2023-07-31,1,,,,,アットジャパン,0
1539,6430003015277,新規,0,2023-07-31,2023-07-31,合同会社ライムズ,,合同会社,北海道,札幌市西区,発寒三条３丁目５番３８号,,01,107,0630823,,,,,,,2023-07-31,1,,,,,ライムズ,0
1540,6430003015302,新規,0,2023-07-31,2023-07-31,ＨＯＤＬ合同会社,,合同会社,北海道,虻田郡ニセコ町,字ニセコ３８７番地７１,,01,395,0481511,,,,,,,2023-07-31,1,,,,,ホドル,0
1541,6450001014064,新規,0,2023-07-31,2023-07-31,ＳＫＹ　ＡＲＴ株式会社,,株式会社,北海道,富良野市,字清水山,,01,229,0760048,,,,,,,2023-07-31,1,,,,,スカイアート,0
1542,6462502000426,新規,0,2023-07-31,2023-07-31,有限会社高桑商店,,有限会社,北海道,標津郡標津町,北一条西２丁目３番２号,,01,693,0861631,,,,,,,2023-07-31,1,,,,,タカクワショウテン,0
1543,6480003002007,新規,0,2023-07-31,2023-07-31,合同会社Ｋ＆Ｈ　ｍａｎａｇｅｍｅｎｔ,,合同会社,徳島県,徳島市,北沖洲１丁目７番５３号,,36,201,7700872,,,,,,,2023-07-31,1,,,,,ケーアンドエイチマネジメント,0
1561,7010101015749,新規,0,2023-07-31,2023-07-31,ＣＬＧ株式会社,,株式会社,東京都,八王子市,片倉町５６１番地１１７,,13,201,1920914,,,,,,,2023-07-31,1,,,,,シーエルジー,0
1571,7010401175994,新規,0,2023-07-31,2023-07-31,株式会社麻布ＴＧＭ,,株式会社,東京都,港区,麻布十番２丁目９番５号,,13,103,1060045,,,,,,,2023-07-31,1,,,,,アザブティージーエム,0
1572,7010401176010,新規,0,2023-07-31,2023-07-31,Ｍｅｍｒｉｓｅ株式会社,,株式会社,東京都,港区,南青山３丁目１５番９号ＭＩＮＯＷＡ表参道３Ｆ,,13,103,1070062,,,,,,,2023-07-31,1,,,,,メムライズ,0
1573,7010401176027,新規,0,2023-07-31,2023-07-31,株式会社デジタル・ファイリング・ラボ,,株式会社,東京都,港区,北青山２丁目１０番２９号,,13,103,1070061,,,,,,,2023-07-31,1,,,,,デジタルファイリングラボ,0
1581,7010601063512,新規,0,2023-07-31,2023-07-31,セキュリティープラス株式会社,,株式会社,東京都,墨田区,錦糸１丁目２番１号アルカセントラル１４Ｆ,,13,107,1300013,,,,,,,2023-07-31,1,,,,,セキュリティープラス,0
1583,7010701044635,新規,0,2023-07-31,2023-07-31,株式会社ＥＩＭ精工,,株式会社,東京都,品川区,平塚３丁目６番５号,,13,109,1420051,,,,,,,2023-07-31,1,,,,,エイムセイコウ,0
1584,7010801000471,新規,0,2023-07-31,2023-07-31,株式会社アゼル,,株式会社,東京都,大田区,西蒲田８丁目２３番１号,,13,111,1440051,,,,,,,2023-07-31,1,,,,,アゼル,0
1586,7010805003041,新規,0,2023-07-31,2023-07-31,一般社団法人日本食文化国際交流協会,,その他の設立登記法人,東京都,大田区,東嶺町４６番６号,,13,111,1450074,,,,,,,2023-07-31,1,,,,,ニホンショクブンカコクサイコウリュウキョウカイ,0
1588,7010903008347,新規,0,2023-07-31,2023-07-31,合同会社ｍｅｇｕｒｕ,,合同会社,東京都,世田谷区,太子堂１丁目１２番２７号コンフォートテラス１００５号,,13,112,1540004,,,,,,,2023-07-31,1,,,,,メグル,0
1595,7011001155916,新規,0,2023-07-31,2023-07-31,株式会社リバイタルエイジング,,株式会社,東京都,渋谷区,大山町３６番２４号,,13,113,1510065,,,,,,,2023-07-31,1,,,,,リバイタルエイジング,0
1597,7011003016884,新規,0,2023-07-31,2023-07-31,ｆｒｅｅｄｅｎ合同会社,,合同会社,東京都,目黒区,自由が丘２丁目１６－１２－ＲＪ３,,13,110,1520035,,,,,,,2023-07-31,1,,,,,フリーデン,0
1598,7011003017271,新規,0,2023-07-31,2023-07-31,合同会社ＢｅＵ,,合同会社,東京都,渋谷区,渋谷２丁目１９－１５宮益坂ビルディング６０９,,13,113,1500002,,,,,,,2023-07-31,1,,,,,ビーユー,0
1604,7011101103774,新規,0,2023-07-31,2023-07-31,株式会社Ｌｕｃｋｙｗｕ,,株式会社,東京都,新宿区,市谷薬王寺町４５番地ザ・ヒルズ市谷薬王寺１０４,,13,104,1620063,,,,,,,2023-07-31,1,,,,,ラッキーウ,0
1607,7011301028895,新規,0,2023-07-31,2023-07-31,安田精工株式会社,,株式会社,東京都,杉並区,天沼１丁目３２番６号,,13,115,1670032,,,,,,,2023-07-31,1,,,,,ヤスダセイコウ,0
1608,7011401025330,新規,0,2023-07-31,2023-07-31,神州四方日本株式会社,,株式会社,東京都,板橋区,成増３丁目４７－７グランデーム成増１０２号室,,13,119,1750094,,,,,,,2023-07-31,1,,,,,シンシュウシホウニホン,0
1610,7011501029578,新規,0,2023-07-31,2023-07-31,Ｈｉｐｐｏ希波国際集団株式会社,,株式会社,東京都,北区,西ケ原１丁目２７番３－１０１号,,13,117,1140024,,,,,,,2023-07-31,1,,,,,ヒッポキハコクサイシュウダン,0
1611,7011501029586,新規,0,2023-07-31,2023-07-31,Ｎｙｕｗａ株式会社,,株式会社,東京都,荒川区,町屋１丁目１５番１３号,,13,118,1160001,,,,,,,2023-07-31,1,,,,,ニュウワ,0
1613,7011703003546,新規,0,2023-07-31,2023-07-31,ＴｅｃｈＬｉｂｅｒｔｙ合同会社,,合同会社,東京都,江戸川区,東小岩５丁目１１番１３－２０２号,,13,123,1330052,,,,,,,2023-07-31,1,,,,,テックリバティ,0
1615,7011801042801,新規,0,2023-07-31,2023-07-31,株式会社ＮＡＫＡ‐Ｇ,,株式会社,東京都,葛飾区,細田４丁目４１番８－３０６号,,13,122,1240021,,,,,,,2023-07-31,1,,,,,ナカジー,0
1616,7011803005756,新規,0,2023-07-31,2023-07-31,春竹合同会社,,合同会社,東京都,葛飾区,東新小岩７丁目２７番１６－３０１号,,13,122,1240023,,,,,,,2023-07-31,1,,,,,ハルタケ,0
1619,7012801022529,新規,0,2023-07-31,2023-07-31,株式会社イングリッシュスクラム,,株式会社,東京都,国分寺市,南町２丁目１４番地６号フラッツ秦２０１,,13,214,1850021,,,,,,,2023-07-31,1,,,,,イングリッシュスクラム,0
1622,7013301005288,新規,0,2023-07-31,2023-07-31,辰泰産業株式会社,,株式会社,東京都,豊島区,東池袋１丁目３３番３号,,13,116,1700013,,,,,,,2023-07-31,1,,,,,シンタイサンギョウ,0
1625,7013303006722,新規,0,2023-07-31,2023-07-31,Ｄｏｍｉｎｏ合同会社,,合同会社,東京都,豊島区,南池袋１丁目９番１８号３４４号,,13,116,1710022,,,,,,,2023-07-31,1,,,,,ドミノ,0
1626,7013303006730,新規,0,2023-07-31,2023-07-31,ライズ合同会社,,合同会社,東京都,豊島区,千早３丁目１７番１０号,,13,116,1710044,,,,,,,2023-07-31,1,,,,,ライズ,0
1642,7020001152666,新規,0,2023-07-31,2023-07-31,アドスクワッド株式会社,,株式会社,神奈川県,横浜市戸塚区,秋葉町４８７番地１１８,,14,110,2450052,,,,,,,2023-07-31,1,,,,,アドスクワッド,0
1643,7020001152716,新規,0,2023-07-31,2023-07-31,株式会社ゴルカ・ワールドリンク,,株式会社,神奈川県,横浜市南区,高根町２丁目７番地１横浜公園通り壱番館２０４,,14,105,2320022,,,,,,,2023-07-31,1,,,,,ゴルカワールドリンク,0
1644,7020001152732,新規,0,2023-07-31,2023-07-31,株式会社ＡＲ．パートナー,,株式会社,神奈川県,横浜市中区,元町５丁目２０６番地４－２階,,14,104,2310861,,,,,,,2023-07-31,1,,,,,エーアールパートナー,0
1646,7020003024310,新規,0,2023-07-31,2023-07-31,合同会社アコアジア,,合同会社,神奈川県,横浜市中区,北仲通５丁目５７番地２・３３１０号室,,14,104,2310003,,,,,,,2023-07-31,1,,,,,アコアジア,0
1647,7020005016074,新規,0,2023-07-31,2023-07-31,一般社団法人労働関係支援センター,,その他の設立登記法人,神奈川県,横浜市西区,北幸２丁目１０番地２８むつみビル３階,,14,103,2200004,,,,,,,2023-07-31,1,,,,,ロウドウカンケイセンセンター,0
1649,7021001079734,新規,0,2023-07-31,2023-07-31,株式会社Ｌｉｖｉｎｇ　Ｌｉｆｅ,,株式会社,神奈川県,茅ヶ崎市,東海岸北４丁目１４番６８号湘南マハロコート１０２号室,,14,207,2530053,,,,,,,2023-07-31,1,,,,,リビングライフ,0
1661,7030001154975,新規,0,2023-07-31,2023-07-31,株式会社ＴＯＡ,,株式会社,埼玉県,川口市,大字安行原９３０－３４－７－２０１,,11,203,3340057,,,,,,,2023-07-31,1,,,,,ティーオーエー,0
1662,7030001155032,新規,0,2023-07-31,2023-07-31,ファッド商事株式会社,,株式会社,埼玉県,さいたま市大宮区,吉敷町１丁目９９番５ウェリス大宮４０２号,,11,103,3300843,,,,,,,2023-07-31,1,,,,,ファッドショウジ,0
1663,7030001155098,新規,0,2023-07-31,2023-07-31,株式会社ＴＯＦＵＫＵトレーディング,,株式会社,埼玉県,北葛飾郡杉戸町,大字木野川１３４番地５１,,11,464,3450003,,,,,,,2023-07-31,1,,,,,トーフクトレーディング,0
1664,7030001155107,新規,0,2023-07-31,2023-07-31,株式会社Ｐｉｇｕｉｎ,,株式会社,埼玉県,川口市,並木２丁目４０－１５ライオンズマンション川口並木二丁目４０５号,,11,203,3320034,,,,,,,2023-07-31,1,,,,,ピギン,0
1665,7030001155115,新規,0,2023-07-31,2023-07-31,株式会社Ｔ・Ａ・Ｃ,,株式会社,埼玉県,久喜市,南３丁目５番１４号,,11,232,3460004,,,,,,,2023-07-31,1,,,,,ティーエイシー,0
1666,7030001155123,新規,0,2023-07-31,2023-07-31,ｓｑｕａｒｅ　ｄｅｓｉｇｎ株式会社,,株式会社,埼玉県,さいたま市桜区,栄和２丁目１２番１２－３０３号,,11,106,3380823,,,,,,,2023-07-31,1,,,,,スクエアデザイン,0
1668,7030003022247,新規,0,2023-07-31,2023-07-31,合同会社ケアプランのぞみ,,合同会社,埼玉県,さいたま市中央区,下落合７丁目８番２２,,11,105,3380002,,,,,,,2023-07-31,1,,,,,ケアプランノゾミ,0
1672,7040001129431,新規,0,2023-07-31,2023-07-31,株式会社ＣＣＳ,,株式会社,千葉県,千葉市若葉区,中野町１７１１番地５１,,12,104,2650051,,,,,,,2023-07-31,1,,,,,シーシーエス,0
1678,7040003023038,新規,0,2023-07-31,2023-07-31,合同会社ファミリーコミュニケーションケアセンターＦＣＣ,,合同会社,千葉県,船橋市,北本町２丁目５４番５号,,12,204,2730864,,,,,,,2023-07-31,1,,,,,ファミリーコミュニケーションケアセンターエフシーシー,0
1680,7050003007675,新規,0,2023-07-31,2023-07-31,合同会社サイゴン,,合同会社,茨城県,下妻市,本城町２丁目１９番地,,08,210,3040064,,,,,,,2023-07-31,1,,,,,サイゴン,0
1681,7050005013300,新規,0,2023-07-31,2023-07-31,特定非営利活動法人スターリングテクノラリー技術会,,その他の設立登記法人,茨城県,土浦市,木田余西台９番３４号,,08,203,3000056,,,,,,,2023-07-31,1,,,,,スターリングテクノラリーギジュツカイ,0
1686,7070001040676,新規,0,2023-07-31,2023-07-31,Ｉ．Ｍ　Ｔｒａｄｉｎｇ株式会社,,株式会社,群馬県,邑楽郡邑楽町,大字赤堀４０３５番地,,10,525,3700614,,,,,,,2023-07-31,1,,,,,,0
1687,7080001025759,新規,0,2023-07-31,2023-07-31,株式会社ｊｕｌｉｏ,,株式会社,静岡県,藤枝市,駅前２丁目８－９メルール藤枝１Ｆ,,22,214,4260034,,,,,,,2023-07-31,1,,,,,フリオ,0
1693,7100003007125,新規,0,2023-07-31,2023-07-31,六十六番商事合同会社,,合同会社,長野県,中野市,大字片塩６６番地,,20,211,3830046,,,,,,,2023-07-31,1,,,,,ロクジュウロクバンショウジ,0
1708,7120001256837,新規,0,2023-07-31,2023-07-31,ＡＩ互聯株式会社,,株式会社,大阪府,大阪市生野区,生野西４丁目１２－３ハイツ西村２０３号室,,27,116,5440024,,,,,,,2023-07-31,1,,,,,エーアイゴレン,0
1709,7120001256861,新規,0,2023-07-31,2023-07-31,株式会社ＯＭＯＨＩＤＥ,,株式会社,大阪府,大阪市中央区,大手前１丁目３番６１号パレス大手前５０５,,27,128,5400008,,,,,,,2023-07-31,1,,,,,オモヒデ,0
1710,7120001256886,新規,0,2023-07-31,2023-07-31,株式会社オーシャン,,株式会社,大阪府,大阪市北区,曾根崎１丁目７－１３レイソル曽根崎７０３号室,,27,127,5300057,,,,,,,2023-07-31,1,,,,,オーシャン,0
1712,7120003024597,新規,0,2023-07-31,2023-07-31,合同会社ＷＡＳｌＯＮ,,合同会社,大阪府,大阪市北区,梅田１丁目２番２号大阪駅前第２ビル１２－１２,,27,127,5300001,,,,,,,2023-07-31,1,,,,,ワズオン,0
1718,7120901047848,新規,0,2023-07-31,2023-07-31,神田グリーン株式会社,,株式会社,大阪府,池田市,神田３丁目１７番１号,,27,204,5630043,,,,,,,2023-07-31,1,,,,,コウダグリーン,0
1719,7120905006503,新規,0,2023-07-31,2023-07-31,一般財団法人芙蓉,,その他の設立登記法人,大阪府,豊能郡能勢町,野間大原２１８番地,,27,322,5630131,,,,,,,2023-07-31,1,,,,,フヨウ,0
1734,7140001131006,新規,0,2023-07-31,2023-07-31,株式会社アトム電器神和台,,株式会社,兵庫県,神戸市垂水区,神和台１丁目９番地の５,,28,108,6550851,,,,,,,2023-07-31,1,,,,,アトムデンキシンワダイ,0
1735,7140001131047,新規,0,2023-07-31,2023-07-31,株式会社まごころ,,株式会社,兵庫県,川西市,久代２丁目９番３５号,,28,217,6660024,,,,,,,2023-07-31,1,,,,,マゴコロ,0
1748,7180001157311,新規,0,2023-07-31,2023-07-31,株式会社ミカドセイワ,,株式会社,愛知県,一宮市,大和町毛受字正寺３１番地,,23,203,4910932,,,,,,,2023-07-31,1,,,,,ミカドセイワ,0
1749,7180001157336,新規,0,2023-07-31,2023-07-31,株式会社キョウエイ,,株式会社,愛知県,名古屋市北区,如来町１５３番地,,23,103,4620008,,,,,,,2023-07-31,1,,,,,キョウエイ,0
1750,7180001157344,新規,0,2023-07-31,2023-07-31,株式会社博淑屋,,株式会社,愛知県,名古屋市熱田区,比々野町８番地,,23,109,4560074,,,,,,,2023-07-31,1,,,,,ハクシュクヤ,0
1753,7180005020309,新規,0,2023-07-31,2023-07-31,一般社団法人脳科学アカデミー,,その他の設立登記法人,愛知県,名古屋市中区,栄３丁目１５番３３号１３階,,23,106,4600008,,,,,,,2023-07-31,1,,,,,ノウカガクアカデミー,0
1756,7190001030616,新規,0,2023-07-31,2023-07-31,株式会社アイランドカーサービス,,株式会社,三重県,鈴鹿市,南玉垣町７１８３番地２,,24,207,5130816,,,,,,,2023-07-31,1,,,,,アイランドカーサービス,0
1768,7260001038156,新規,0,2023-07-31,2023-07-31,和風堂株式会社,,株式会社,岡山県,岡山市東区,西大寺門前４７－１,,33,103,7048123,,,,,,,2023-07-31,1,,,,,ワフウドウ,0
1778,7290005019100,新規,0,2023-07-31,2023-07-31,一般社団法人Ｊａｐａｎ　Ｎａｔｕｒａｌ　Ｌｕｇｅ　Ａｔｈｌｅｔｅ　Ｃｌｕｂ,,その他の設立登記法人,福岡県,福岡市中央区,荒戸３丁目１番１８－３Ｆ,,40,133,8100062,,,,,,,2023-07-31,1,,,,,ジャパンナチュラルリュージュアスリートクラブ,0
1787,7320005010096,新規,0,2023-07-31,2023-07-31,一般社団法人斉治社,,その他の設立登記法人,大分県,大分市,西鶴崎３丁目３番１６号,,44,201,8700105,,,,,,,2023-07-31,1,,,,,,0
1790,7360001032347,新規,0,2023-07-31,2023-07-31,株式会社ｉｒｏ,,株式会社,沖縄県,名護市,宮里５丁目１番１０号,,47,209,9050011,,,,,,,2023-07-31,1,,,,,イロ,0
1791,7360003013163,新規,0,2023-07-31,2023-07-31,合同会社秀商会,,合同会社,沖縄県,宜野湾市,野嵩１丁目５番１２号,,47,205,9012203,,,,,,,2023-07-31,1,,,,,ヒデショウカイ,0
1798,7380003005522,新規,0,2023-07-31,2023-07-31,合同会社わ印,,合同会社,福島県,郡山市,熱海町高玉字南梨子平８９番地,,07,203,9631302,,,,,,,2023-07-31,1,,,,,ワジルシ,0
1799,7390001017329,新規,0,2023-07-31,2023-07-31,株式会社ライトニング,,株式会社,山形県,山形市,幸町２番９号ダイワロイネットホテル山形駅前１Ｆ２Ｆ,,06,201,9900038,,,,,,,2023-07-31,1,,,,,ライトニング,0
1810,7430001089586,新規,0,2023-07-31,2023-07-31,株式会社Ｋ．ｗｏｒｋｓ,,株式会社,北海道,札幌市豊平区,中の島一条７丁目１０番２０号,,01,105,0620921,,,,,,,2023-07-31,1,,,,,ケーワークス,0
1812,7430003015276,新規,0,2023-07-31,2023-07-31,合同会社ＭＥＭ,,合同会社,北海道,札幌市豊平区,平岸四条７丁目１番１－１２０７号,,01,105,0620934,,,,,,,2023-07-31,1,,,,,メム,0
1816,7480003002006,新規,0,2023-07-31,2023-07-31,合同会社和ごころ,,合同会社,徳島県,徳島市,八万町夷山３０６番地の６,,36,201,7708077,,,,,,,2023-07-31,1,,,,,ワゴコロ,0
1817,7490003001799,新規,0,2023-07-31,2023-07-31,合同会社Ｖｅｒｄｕｒａｓ　ｄｅ　Ｋｏｃｈｉ,,合同会社,高知県,香南市,野市町西野２３７３番地１,,39,211,7815232,,,,,,,2023-07-31,1,,,,,ヴェルドゥラスドコウチ,0
1834,8010001237228,新規,0,2023-07-31,2023-07-31,株式会社ハローシート,,株式会社,東京都,千代田区,霞が関３丁目２番５号,,13,101,1000013,,,,,,,2023-07-31,1,,,,,ハローシート,0
1839,8010003041082,新規,0,2023-07-31,2023-07-31,ヒルトップ合同会社,,合同会社,東京都,千代田区,神田駿河台１丁目７番地４,,13,101,1010062,,,,,,,2023-07-31,1,,,,,ヒルトップ,0
1842,8010005037013,新規,0,2023-07-31,2023-07-31,一般社団法人なつかぜ,,その他の設立登記法人,東京都,千代田区,丸の内３丁目１番１号東京共同会計事務所内,,13,101,1000005,,,,,,,2023-07-31,1,,,,,ナツカゼ,0
1855,8010401176018,新規,0,2023-07-31,2023-07-31,ＴＩＢＨＡＲ　ＪＡＰＡＮ株式会社,,株式会社,東京都,港区,西新橋１丁目２番９号日比谷セントラルビル１４階,,13,103,1050003,,,,,,,2023-07-31,1,,,,,ティバージャパン,0
1856,8010401176034,新規,0,2023-07-31,2023-07-31,ビヨンドアーチパートナーズ株式会社,,株式会社,東京都,港区,麻布台１丁目７－２,,13,103,1060041,,,,,,,2023-07-31,1,,,,,ビヨンドアーチパートナーズ,0
1862,8010403030577,新規,0,2023-07-31,2023-07-31,合同会社橘不動産,,合同会社,東京都,港区,南麻布３丁目７番３号南麻布ＹＫマンション２０１,,13,103,1060047,,,,,,,2023-07-31,1,,,,,タチバナフドウサン,0
1870,8010901053492,新規,0,2023-07-31,2023-07-31,株式会社コーギーマニア,,株式会社,東京都,世田谷区,玉堤２丁目６番地２１号ベルメゾン３０６号室,,13,112,1580087,,,,,,,2023-07-31,1,,,,,コーギーマニア,0
1875,8011001155956,新規,0,2023-07-31,2023-07-31,株式会社利回りくん,,株式会社,東京都,渋谷区,広尾１丁目１番３９号,,13,113,1500012,,,,,,,2023-07-31,1,,,,,リマワリクン,0
1882,8011003017188,新規,0,2023-07-31,2023-07-31,合同会社Ｎｏｎｅ,,合同会社,東京都,渋谷区,道玄坂１丁目１０番８号渋谷道玄坂東急ビル２Ｆ－Ｃ,,13,113,1500043,,,,,,,2023-07-31,1,,,,,ナン,0
1884,8011005010158,新規,0,2023-07-31,2023-07-31,行政書士法人まつもと法務事務所,,その他の設立登記法人,東京都,渋谷区,千駄ヶ谷５丁目１６番１０号,,13,113,1510051,,,,,,,2023-07-31,1,,,,,マツモトホウムジムショ,0
1887,8011103013319,新規,0,2023-07-31,2023-07-31,合同会社ｅａｒｔｈ,,合同会社,東京都,新宿区,赤城下町７８コンフォート神楽坂Ｃ２０１,,13,104,1620803,,,,,,,2023-07-31,1,,,,,アース,0
1890,8011205002566,新規,0,2023-07-31,2023-07-31,一般社団法人インディア・オーシャン・パシフィック,,その他の設立登記法人,東京都,中野区,上高田２丁目１番１０号,,13,114,1640002,,,,,,,2023-07-31,1,,,,,インディアオーシャンパシフィック,0
1896,8011303004844,新規,0,2023-07-31,2023-07-31,合同会社マーレ,,合同会社,東京都,杉並区,上井草２丁目２６番９号,,13,115,1670023,,,,,,,2023-07-31,1,,,,,マーレ,0
1901,8011501029585,新規,0,2023-07-31,2023-07-31,株式会社ＫＩＮＫＡ,,株式会社,東京都,北区,赤羽西１丁目３０番１１－８０１号,,13,117,1150055,,,,,,,2023-07-31,1,,,,,キンカ,0
1902,8011503005691,新規,0,2023-07-31,2023-07-31,日和合同会社,,合同会社,東京都,荒川区,南千住７丁目８－１－１０１,,13,118,1160003,,,,,,,2023-07-31,1,,,,,ヒヨリ,0
1908,8011801042791,新規,0,2023-07-31,2023-07-31,島村スタンツア株式会社,,株式会社,東京都,葛飾区,西新小岩３丁目３９番２号,,13,122,1240025,,,,,,,2023-07-31,1,,,,,シマムラスタンツア,0
1909,8011801042800,新規,0,2023-07-31,2023-07-31,ＫＬプランニング株式会社,,株式会社,東京都,葛飾区,亀有２丁目２７番６号,,13,122,1250061,,,,,,,2023-07-31,1,,,,,ケイエルプランニング,0
1911,8012401040797,新規,0,2023-07-31,2023-07-31,株式会社カテリーナ・ミュージック,,株式会社,東京都,武蔵野市,吉祥寺本町１丁目４番１１号ライオンズステーションプラザ吉祥寺６１０号室,,13,203,1800004,,,,,,,2023-07-31,1,,,,,カテリーナミュージック,0
1914,8012801022536,新規,0,2023-07-31,2023-07-31,Ｈｏｎｅｓｔ株式会社,,株式会社,東京都,立川市,砂川町６丁目２５番地２２号,,13,202,1900031,,,,,,,2023-07-31,1,,,,,オーネスト,0
1915,8012803003138,新規,0,2023-07-31,2023-07-31,合同会社東創,,合同会社,東京都,立川市,富士見町３丁目７番１号－２０３,,13,202,1900013,,,,,,,2023-07-31,1,,,,,トーソー,0
1931,8020001152657,新規,0,2023-07-31,2023-07-31,Ｌｅｄｚ株式会社,,株式会社,神奈川県,横浜市中区,桜木町１丁目１０１番地１クロスゲート７階,,14,104,2310062,,,,,,,2023-07-31,1,,,,,レッズ,0
1938,8020005016073,新規,0,2023-07-31,2023-07-31,一般社団法人ウェルフェアラボ・かわさき,,その他の設立登記法人,神奈川県,川崎市宮前区,平２丁目１９番５３－４０９号,,14,136,2160022,,,,,,,2023-07-31,1,,,,,ウェルフェアラボカワサキ,0
1941,8021003013343,新規,0,2023-07-31,2023-07-31,ピュアライフ合同会社,,合同会社,神奈川県,横須賀市,佐野町２丁目３１番１０,,14,201,2380052,,,,,,,2023-07-31,1,,,,,ピュアライフ,0
1942,8021003013351,新規,0,2023-07-31,2023-07-31,合同会社シネマフランセ,,合同会社,神奈川県,横須賀市,平作６丁目９番８号,,14,201,2380032,,,,,,,2023-07-31,1,,,,,シネマフランセ,0
1952,8030001155015,新規,0,2023-07-31,2023-07-31,楔株式会社,,株式会社,埼玉県,さいたま市見沼区,大字新堤２０番地１３,,11,104,3370013,,,,,,,2023-07-31,1,,,,,クサビ,0
1953,8030001155080,新規,0,2023-07-31,2023-07-31,株式会社Ｒｕｎｎｅｒｓ,,株式会社,埼玉県,熊谷市,佐谷田字不動堂３７１番地１４,,11,202,3600023,,,,,,,2023-07-31,1,,,,,ランナーズ,0
1954,8030001155106,新規,0,2023-07-31,2023-07-31,ＬＩＦＥＳＰＡＮ　ＬＩＮＫ株式会社,,株式会社,埼玉県,新座市,道場１丁目９番１３－４０３号,,11,230,3520024,,,,,,,2023-07-31,1,,,,,ライフスパンリンク,0
1957,8030003022171,新規,0,2023-07-31,2023-07-31,合同会社スズセイ,,合同会社,埼玉県,所沢市,東新井町７番地の４,,11,208,3590034,,,,,,,2023-07-31,1,,,,,スズセイ,0
1964,8040001129430,新規,0,2023-07-31,2023-07-31,株式会社ａｎｄ．ｔｏ　ｂｅ,,株式会社,千葉県,市川市,平田４丁目１４番１３号,,12,203,2720031,,,,,,,2023-07-31,1,,,,,アンドトゥービー,0
1965,8040001129439,新規,0,2023-07-31,2023-07-31,株式会社ＴＥＮ,,株式会社,千葉県,柏市,松葉町２丁目１５番地２,,12,217,2770827,,,,,,,2023-07-31,1,,,,,テン,0
1968,8040003023037,新規,0,2023-07-31,2023-07-31,合同会社ファーマーズ企画,,合同会社,千葉県,木更津市,矢那４４８０番地１,00131321,12,206,2920812,,,,,,,2023-07-31,1,,,,,ファーマーズキカク,0
1976,8070001040683,新規,0,2023-07-31,2023-07-31,株式会社田代屋,,株式会社,群馬県,邑楽郡大泉町,坂田３丁目８番１１号,,10,524,3700532,,,,,,,2023-07-31,1,,,,,タシロヤ,0
1977,8070003005040,新規,0,2023-07-31,2023-07-31,ぷらすわん合同会社,,合同会社,群馬県,館林市,東美園町１７―３―２０５,,10,207,3740031,,,,,,,2023-07-31,1,,,,,プラスワン,0
1979,8080401026620,新規,0,2023-07-31,2023-07-31,株式会社ミヤマル,,株式会社,静岡県,浜松市西区,雄踏町山崎３７９５番地の１０ヴィラグレイス１０５,,22,133,4310101,,,,,,,2023-07-31,1,,,,,ミヤマル,0
1992,8120001256869,新規,0,2023-07-31,2023-07-31,株式会社エーアンド・シー,,株式会社,大阪府,寝屋川市,美井元町６番１４号５Ｆ,,27,215,5720006,,,,,,,2023-07-31,1,,,,,エーアンドシー,0
1993,8120001256885,新規,0,2023-07-31,2023-07-31,株式会社ＡＤｉｍｅｒ,,株式会社,大阪府,守口市,寺方錦通２丁目１１番２７号,,27,209,5700042,,,,,,,2023-07-31,1,,,,,エメ,0
1996,8120003024588,新規,0,2023-07-31,2023-07-31,合同会社ＲＡＳＨＩＫＵ,,合同会社,大阪府,枚方市,牧野阪２丁目１－６３－１０２,,27,210,5731146,,,,,,,2023-07-31,1,,,,,ラシク,0
1997,8120003024596,新規,0,2023-07-31,2023-07-31,合同会社ｔ＆ｓ,,合同会社,大阪府,大阪市中央区,北浜２丁目２番２１－１３０９号,,27,128,5410041,,,,,,,2023-07-31,1,,,,,ティーアンドエス,0
2001,8120901047839,新規,0,2023-07-31,2023-07-31,株式会社ＢＢホールディングス,,株式会社,大阪府,茨木市,下穂積２丁目１番２５号,,27,211,5670041,,,,,,,2023-07-31,1,,,,,ビービーホールディングス,0
2002,8120901047847,新規,0,2023-07-31,2023-07-31,株式会社森潜水工業,,株式会社,大阪府,箕面市,森町南２丁目３番２４号,,27,220,5630258,,,,,,,2023-07-31,1,,,,,モリセンスイコウギョウ,0
2003,8120901047855,新規,0,2023-07-31,2023-07-31,株式会社ＬＢＬ,,株式会社,大阪府,茨木市,蔵垣内３丁目１４番２７－２０５号,,27,211,5670878,,,,,,,2023-07-31,1,,,,,エルビーエル,0
2007,8130001074774,新規,0,2023-07-31,2023-07-31,自然製薬株式会社,,株式会社,京都府,京都市中京区,新町通錦小路下る小結棚町４３６フィエルテ四条烏丸シュッド９０２,,26,104,6048223,,,,,,,2023-07-31,1,,,,,シゼンセイヤク,0
2008,8130001074832,新規,0,2023-07-31,2023-07-31,ＳＥＥＤＯＯＲ株式会社,,株式会社,京都府,京都市右京区,太秦樋ノ内町１番地１９－３０８,,26,108,6168142,,,,,,,2023-07-31,1,,,,,シードア,0
2016,8140001131038,新規,0,2023-07-31,2023-07-31,株式会社ＢＥＸＥＲ,,株式会社,兵庫県,宝塚市,伊子志四丁目２番６８号アーバンライフ１０４,,28,214,6650000,,,,,,,2023-07-31,1,,,,,ベクサー,0
2022,8150001026575,新規,0,2023-07-31,2023-07-31,株式会社セブンティクリエイト,,株式会社,奈良県,大和高田市,大字市場８０８番地７ダイワ高田ビル３Ｆ,,29,202,6350074,,,,,,,2023-07-31,1,,,,,セブンティクリエイト,0
2023,8160002005791,新規,0,2023-07-31,2023-07-31,有限会社和伸会,,有限会社,滋賀県,甲賀市,信楽町勅旨岩倉１０番地,,25,209,5291804,,,,,,,2023-07-31,1,,,,,ワシンカイ,0
2037,8180001157310,新規,0,2023-07-31,2023-07-31,Ｄシャープ株式会社,,株式会社,愛知県,名古屋市守山区,四軒家１丁目１５７６番地,,23,113,4630034,,,,,,,2023-07-31,1,,,,,ディーシャープ,0
2040,8180005020308,新規,0,2023-07-31,2023-07-31,医療法人雄駿会,,その他の設立登記法人,愛知県,名古屋市瑞穂区,瑞穂通４丁目２６番地名洋ビル１階,,23,108,4670806,,,,,,,2023-07-31,1,,,,,ユウシュンカイ,0
2042,8180301037617,新規,0,2023-07-31,2023-07-31,株式会社共栄,,株式会社,愛知県,安城市,緑町１丁目１２番地８フラワーハイツ２０３,,23,212,4460055,,,,,,,2023-07-31,1,,,,,キョウエイ,0
2059,8240005015623,新規,0,2023-07-31,2023-07-31,一般社団法人ひろしまフィルム工房,,その他の設立登記法人,広島県,広島市南区,翠４丁目２番２６－１０２号,,34,103,7340005,,,,,,,2023-07-31,1,,,,,ヒロシマフィルムコウボウ,0
2066,8260005011257,新規,0,2023-07-31,2023-07-31,一般社団法人高専シンポジウム協議会,,その他の設立登記法人,岡山県,倉敷市,西阿知町１１２番地１９,,33,202,7100807,,,,,,,2023-07-31,1,,,,,コウセンシンポジウムキョウギカイ,0
2075,8290005019099,新規,0,2023-07-31,2023-07-31,一般社団法人九州コンシェルジュサービス,,その他の設立登記法人,福岡県,福岡市西区,愛宕４丁目２番２３号,,40,135,8190015,,,,,,,2023-07-31,1,,,,,キュウシュウコンシェルジュサービス,0
2082,8330003009923,新規,0,2023-07-31,2023-07-31,合同会社ＫＭＴサービス,,合同会社,熊本県,熊本市西区,花園３丁目２２番３４号メゾンドソフィア１０２,,43,103,8600072,,,,,,,2023-07-31,1,,,,,ケイエムティーサービス,0
2089,8350003004402,新規,0,2023-07-31,2023-07-31,合同会社鉄腕不動産,,合同会社,宮崎県,宮崎市,江南２丁目２２番地９号,,45,201,8800944,,,,,,,2023-07-31,1,,,,,テツワンフドウサン,0
2102,8390001017328,新規,0,2023-07-31,2023-07-31,株式会社ブライトネス,,株式会社,山形県,山形市,幸町２番９号ダイワロイネットホテル山形駅前１Ｆ２Ｆ,,06,201,9900038,,,,,,,2023-07-31,1,,,,,ブライトネス,0
2103,8410001013555,新規,0,2023-07-31,2023-07-31,ストックプラス株式会社,,株式会社,秋田県,秋田市,広面字二ツ屋２６番地１,,05,201,0100041,,,,,,,2023-07-31,1,,,,,ストックプラス,0
2107,8430001089569,新規,0,2023-07-31,2023-07-31,株式会社双葉,,株式会社,北海道,札幌市東区,北二十一条東８丁目４番１２号,,01,103,0650021,,,,,,,2023-07-31,1,,,,,フタバ,0
2110,8440001009294,新規,0,2023-07-31,2023-07-31,株式会社プロワーク,,株式会社,北海道,茅部郡森町,字砂原西４丁目２１７番地２,,01,345,0492221,,,,,,,2023-07-31,1,,,,,プロワーク,0
2113,8460401001254,新規,0,2023-07-31,2023-07-31,北海水産株式会社,,株式会社,北海道,根室市,本町３丁目４番地,,01,223,0870053,,,,,,,2023-07-31,1,,,,,,0
2119,8480001012154,新規,0,2023-07-31,2023-07-31,グローバルアグリイノベーション株式会社,,株式会社,徳島県,徳島市,国府町井戸字八斗地５６番地,,36,201,7793118,,,,,,,2023-07-31,1,,,,,グローバルアグリイノベーション,0
2128,9010001237202,新規,0,2023-07-31,2023-07-31,株式会社Ｏａｋｍｏｎｔ,,株式会社,東京都,中央区,東日本橋１丁目９番６－３０１号,,13,102,1030004,,,,,,,2023-07-31,1,,,,,オークモント,0
2129,9010001237268,新規,0,2023-07-31,2023-07-31,インフォコーバス株式会社,,株式会社,東京都,中央区,日本橋２丁目２番３号ＲＩＳＨＥビルＵＣＦ４階,,13,102,1030027,,,,,,,2023-07-31,1,,,,,インフォコーバス,0
2133,9010003041156,新規,0,2023-07-31,2023-07-31,明治地所合同会社,,合同会社,東京都,文京区,湯島２丁目２１番２４－７０３号,,13,105,1130034,,,,,,,2023-07-31,1,,,,,メイジジショ,0
2139,9010005037012,新規,0,2023-07-31,2023-07-31,一般社団法人国際アーユルヴェーダ協会,,その他の設立登記法人,東京都,千代田区,紀尾井町３番３３号プリンス通ビル２階,,13,101,1020094,,,,,,,2023-07-31,1,,,,,コクサイアーユルヴェーダキョウカイ,0
2149,9010401176000,新規,0,2023-07-31,2023-07-31,Ｋ＆Ｙパートナーズ株式会社,,株式会社,東京都,港区,南麻布４丁目１番１４号,,13,103,1060047,,,,,,,2023-07-31,1,,,,,ケーアンドワイパートナーズ,0
2150,9010401176009,新規,0,2023-07-31,2023-07-31,株式会社モノリス,,株式会社,東京都,港区,西麻布３丁目２４番８号,,13,103,1060031,,,,,,,2023-07-31,1,,,,,モノリス,0
2151,9010401176041,新規,0,2023-07-31,2023-07-31,株式会社イルミナ,,株式会社,東京都,港区,赤坂８丁目７番１８－１０３号,,13,103,1070052,,,,,,,2023-07-31,1,,,,,イルミナ,0
2155,9010501050831,新規,0,2023-07-31,2023-07-31,米佑盛株式会社,,株式会社,東京都,台東区,東上野３丁目２６番４号,,13,106,1100015,,,,,,,2023-07-31,1,,,,,マイユウセイ,0
2163,9010901053517,新規,0,2023-07-31,2023-07-31,フレクセキュア株式会社,,株式会社,東京都,世田谷区,砧４丁目２２番２号,,13,112,1570073,,,,,,,2023-07-31,1,,,,,フレクセキュア,0
2180,9011101103814,新規,0,2023-07-31,2023-07-31,株式会社ＧＳＹ,,株式会社,東京都,新宿区,新宿５丁目１８番２０号新宿オミビル９階,,13,104,1600022,,,,,,,2023-07-31,1,,,,,ジーエスワイ,0
2183,9011301028893,新規,0,2023-07-31,2023-07-31,株式会社Ｓｔｅｌｌａｐｓ,,株式会社,東京都,杉並区,天沼３丁目３０－３７,,13,115,1670032,,,,,,,2023-07-31,1,,,,,ステラプス,0
2184,9011303004851,新規,0,2023-07-31,2023-07-31,合同会社スカイベータ,,合同会社,東京都,杉並区,下高井戸２丁目１番８号三沢ビル,,13,115,1680073,,,,,,,2023-07-31,1,,,,,スカイベータ,0
2186,9011401025329,新規,0,2023-07-31,2023-07-31,株式会社土屋ＪＡＰＡＮ,,株式会社,東京都,板橋区,坂下１丁目３２番７－５１４号,,13,119,1740043,,,,,,,2023-07-31,1,,,,,ツチヤジャパン,0
2189,9011501029576,新規,0,2023-07-31,2023-07-31,バイオレット商事株式会社,,株式会社,東京都,北区,浮間１丁目１番１４－２１６号,,13,117,1150051,,,,,,,2023-07-31,1,,,,,バイオレットショウジ,0
2194,9011701026464,新規,0,2023-07-31,2023-07-31,株式会社青山マネジメント,,株式会社,東京都,江戸川区,北小岩２丁目１８番１７号青山ビル４Ｆ,,13,123,1330051,,,,,,,2023-07-31,1,,,,,アオヤママネジメント,0
2202,9013301051116,新規,0,2023-07-31,2023-07-31,株式会社ＯｎｅＰｌｕｓ,,株式会社,東京都,豊島区,東池袋２丁目２４番９号アークプラザ東池袋４０５号,,13,116,1700013,,,,,,,2023-07-31,1,,,,,ワンプラス,0
2203,9013301051140,新規,0,2023-07-31,2023-07-31,株式会社アイエフシフト,,株式会社,東京都,豊島区,西池袋１丁目４番１０号,,13,116,1710021,,,,,,,2023-07-31,1,,,,,アイエフシフト,0
2217,9020001152648,新規,0,2023-07-31,2023-07-31,株式会社星輝,,株式会社,神奈川県,川崎市川崎区,鋼管通３丁目１５番３号,,14,131,2100852,,,,,,,2023-07-31,1,,,,,ホシキ,0
2218,9020001152672,新規,0,2023-07-31,2023-07-31,株式会社誠建工務店,,株式会社,神奈川県,横浜市南区,白妙町３丁目３６番ガーデンプラザ横浜南１０１,,14,105,2320023,,,,,,,2023-07-31,1,,,,,セイケンコウムテン,0
2221,9021001079674,新規,0,2023-07-31,2023-07-31,株式会社ヘアスタジオウィスカ,,株式会社,神奈川県,藤沢市,片瀬海岸１丁目１３－８・２階,,14,205,2510035,,,,,,,2023-07-31,1,,,,,ヘアスタジオウィスカ,0
2222,9021002074105,新規,0,2023-07-31,2023-07-31,愛研工業有限会社,,有限会社,神奈川県,横須賀市,久里浜８丁目２８番１２号,,14,201,2390831,,,,,,,2023-07-31,1,,,,,,0
2226,9030001154998,新規,0,2023-07-31,2023-07-31,株式会社一誠商事,,株式会社,埼玉県,川口市,前川１丁目７番６号,,11,203,3330842,,,,,,,2023-07-31,1,,,,,イッセイショウジ,0
2227,9030001155014,新規,0,2023-07-31,2023-07-31,株式会社真成工業,,株式会社,埼玉県,羽生市,南羽生１丁目１３番地９,,11,216,3480071,,,,,,,2023-07-31,1,,,,,シンセイコウギョウ,0
2228,9030001155063,新規,0,2023-07-31,2023-07-31,株式会社エス,,株式会社,埼玉県,桶川市,南１丁目３番１９号高橋ビル５Ｆ,,11,231,3630015,,,,,,,2023-07-31,1,,,,,エス,0
2229,9030001155121,新規,0,2023-07-31,2023-07-31,株式会社ＭＯＲＫＳ,,株式会社,埼玉県,蕨市,錦町１丁目９番２０号アイリス錦町２０１号,,11,223,3350005,,,,,,,2023-07-31,1,,,,,モークス,0
2241,9030003022162,新規,0,2023-07-31,2023-07-31,合同会社ＲＥＶＥ,,合同会社,埼玉県,川口市,並木３丁目３４番１９－３０３号ガーラレジデンス川口並木,,11,203,3320034,,,,,,,2023-07-31,1,,,,,レイブ,0
2242,9030003022179,新規,0,2023-07-31,2023-07-31,ＢＥＳＴ　ＳＭＩＬＥ合同会社,,合同会社,埼玉県,さいたま市南区,内谷２丁目２番２－２０２アネックスＡ,,11,108,3360034,,,,,,,2023-07-31,1,,,,,ベストスマイル,0
2244,9030005021336,新規,0,2023-07-31,2023-07-31,特定非営利活動法人マネースマイル探究所,,その他の設立登記法人,埼玉県,新座市,東北２丁目３９番地の１０ドゥーセット壱番館６Ｆ,,11,230,3520001,,,,,,,2023-07-31,1,,,,,マネースマイルタンキュウジョ,0
2247,9040001129438,新規,0,2023-07-31,2023-07-31,株式会社ＩＴＯリビング,,株式会社,千葉県,市原市,青葉台４丁目２番地９,,12,219,2990117,,,,,,,2023-07-31,1,,,,,イトウリビング,0
2251,9040003023036,新規,0,2023-07-31,2023-07-31,合同会社島田土木,,合同会社,千葉県,四街道市,栗山７３８番地５,,12,228,2840027,,,,,,,2023-07-31,1,,,,,シマダドボク,0
2255,9050001053224,新規,0,2023-07-31,2023-07-31,株式会社サキハラ,,株式会社,茨城県,稲敷郡阿見町,中央５丁目１０番４号,,08,443,3000332,,,,,,,2023-07-31,1,,,,,サキハラ,0
2258,9050003007673,新規,0,2023-07-31,2023-07-31,合同会社ＬａＱＯＬ,,合同会社,茨城県,土浦市,小松２丁目１３番２９号,,08,203,3000823,,,,,,,2023-07-31,1,,,,,ラクオール,0
2259,9050003007681,新規,0,2023-07-31,2023-07-31,ナッツクラブ合同会社,,合同会社,茨城県,常陸太田市,真弓町３１１７番地１３,,08,212,3130022,,,,,,,2023-07-31,1,,,,,ナッツクラブ,0
2262,9070001040674,新規,0,2023-07-31,2023-07-31,恒輝株式会社,,株式会社,群馬県,伊勢崎市,大手町２２番８号,,10,204,3720048,,,,,,,2023-07-31,1,,,,,コウキ,0
2263,9070001040682,新規,0,2023-07-31,2023-07-31,株式会社六華,,株式会社,群馬県,高崎市,飯塚町１７４９番地２５,,10,202,3700069,,,,,,,2023-07-31,1,,,,,ロッカ,0
2265,9070003005048,新規,0,2023-07-31,2023-07-31,合同会社ｍｍｓ,,合同会社,群馬県,前橋市,亀泉町３１９番地４,,10,201,3710004,,,,,,,2023-07-31,1,,,,,エムエムエス,0
2270,9080401026628,新規,0,2023-07-31,2023-07-31,株式会社サンマーチン,,株式会社,静岡県,浜松市中区,高丘東１丁目１０番５６号,,22,131,4338117,,,,,,,2023-07-31,1,,,,,サンマーチン,0
2271,9110001013642,新規,0,2023-07-31,2023-07-31,株式会社モリケン,,株式会社,新潟県,北蒲原郡聖籠町,大字網代浜２５１２番地１,,15,307,9570103,,,,,,,2023-07-31,1,,,,,モリケン,0
2276,9120001017799,新規,0,2023-07-31,2023-07-31,瑞晃金属株式会社,,株式会社,大阪府,大阪市生野区,巽東４丁目９番１７号,00131208,27,116,5440014,,,,,,,2023-07-31,1,,,,,ズイコウキンゾク,0
2282,9120001256819,新規,0,2023-07-31,2023-07-31,株式会社Ａｎｃｈｏｒ,,株式会社,大阪府,大阪市北区,梅田１丁目１－３大阪駅前第３ビル２９階１－１－１号室,,27,127,5300001,,,,,,,2023-07-31,1,,,,,アンカー,0
2283,9120001256851,新規,0,2023-07-31,2023-07-31,株式会社フェニックス,,株式会社,大阪府,大阪市大正区,平尾５丁目１６番１１号,,27,108,5510012,,,,,,,2023-07-31,1,,,,,フェニックス,0
2284,9120001256868,新規,0,2023-07-31,2023-07-31,株式会社リベルタス,,株式会社,大阪府,枚方市,町楠葉２丁目１８番１－１号,,27,210,5731106,,,,,,,2023-07-31,1,,,,,リベルタス,0
2291,9120101067892,新規,0,2023-07-31,2023-07-31,株式会社Ｔ１８,,株式会社,大阪府,岸和田市,荒木町２１番５９－４０２号,,27,202,,,,,,,,2023-07-31,1,,,,,ティージュウハチ,0
2292,9120101067959,新規,0,2023-07-31,2023-07-31,株式会社グレース,,株式会社,大阪府,松原市,阿保６丁目１２－１７,,27,217,5800043,,,,,,,2023-07-31,1,,,,,グレース,0
2296,9120903004762,新規,0,2023-07-31,2023-07-31,合同会社庭織,,合同会社,大阪府,茨木市,北春日丘３丁目９番２７号,,27,211,5670048,,,,,,,2023-07-31,1,,,,,ニワオリ,0
2302,9130001074773,新規,0,2023-07-31,2023-07-31,Ｗｅｌｌｒｉｄｇｅ株式会社,,株式会社,京都府,京都市左京区,下鴨宮崎町１１９－１,,26,103,6060802,,,,,,,2023-07-31,1,,,,,ウェルリッジ,0
2303,9130001074807,新規,0,2023-07-31,2023-07-31,株式会社Ｌｉｎｋｓ,,株式会社,京都府,京都市左京区,高野泉町４０－６３,,26,103,6068111,,,,,,,2023-07-31,1,,,,,リンクス,0
2304,9130001074823,新規,0,2023-07-31,2023-07-31,株式会社あいりす,,株式会社,京都府,木津川市,兜台７丁目２番５号,,26,214,6190224,,,,,,,2023-07-31,1,,,,,アイリス,0
2306,9130003008886,新規,0,2023-07-31,2023-07-31,合同会社サポート小栗栖,,合同会社,京都府,京都市伏見区,小栗栖森本町２０番地２３５,,26,109,6011462,,,,,,,2023-07-31,1,,,,,サポートオグリス,0
2312,9140001131045,新規,0,2023-07-31,2023-07-31,株式会社渡辺,,株式会社,兵庫県,芦屋市,西山町１４番１５号,,28,206,6590083,,,,,,,2023-07-31,1,,,,,ワタナベ,0
2319,9180001157342,新規,0,2023-07-31,2023-07-31,株式会社風鈴草,,株式会社,愛知県,小牧市,大字小牧原新田１６４４番地１,,23,219,4850012,,,,,,,2023-07-31,1,,,,,フウリンソウ,0
2322,9180003025547,新規,0,2023-07-31,2023-07-31,合同会社Ｂｅｌｌｒｅｘ,,合同会社,愛知県,名古屋市千種区,富士見台１丁目２５番地（プライムメゾン富士見台１０６号）,,23,101,4640015,,,,,,,2023-07-31,1,,,,,ベルレックス,0
2324,9180005020307,新規,0,2023-07-31,2023-07-31,特定非営利活動法人ＴＥＡＭ　ＢＥＣＫ,,その他の設立登記法人,愛知県,名古屋市中村区,岩塚本通４丁目３８番地ホワイトキャッスル岩塚１５０１号,,23,105,4530861,,,,,,,2023-07-31,1,,,,,チームベック,0
2327,9190001030614,新規,0,2023-07-31,2023-07-31,株式会社ＨＡＮＥヘリテージ,,株式会社,三重県,鳥羽市,幸丘１０４０番地７,,24,211,5170046,,,,,,,2023-07-31,1,,,,,ハネヘリテージ,0
2339,9240003006235,新規,0,2023-07-31,2023-07-31,ＹＤＭ合同会社,,合同会社,広島県,尾道市,新高山３丁目１１７０－１７１,,34,205,7220055,,,,,,,2023-07-31,1,,,,,ワイディエム,0
2343,9250003003314,新規,0,2023-07-31,2023-07-31,合同会社こころライフサポート,,合同会社,山口県,下関市,武久町２丁目７０番１９号,,35,201,7510833,,,,,,,2023-07-31,1,,,,,ココロライフサポート,0
2345,9260001038154,新規,0,2023-07-31,2023-07-31,株式会社Ｎｅｂｕｌａｓ,,株式会社,岡山県,岡山市中区,米田２３番地３アルモニー東岡山１０１,,33,102,7038224,,,,,,,2023-07-31,1,,,,,ネブラス,0
2348,9260005011256,新規,0,2023-07-31,2023-07-31,一般社団法人リスタート,,その他の設立登記法人,岡山県,倉敷市,玉島２丁目１６－１６,,33,202,7138102,,,,,,,2023-07-31,1,,,,,リスタート,0
2357,9290001102436,新規,0,2023-07-31,2023-07-31,株式会社榮商会,,株式会社,福岡県,福岡市西区,今宿東１丁目１９番５号,,40,135,8190161,,,,,,,2023-07-31,1,,,,,サカエショウカイ,0
2367,9320001019908,新規,0,2023-07-31,2023-07-31,株式会社あけのアライアンス,,株式会社,大分県,別府市,石垣東１０丁目３番４０号,,44,202,8740919,,,,,,,2023-07-31,1,,,,,アケノアライアンス,0
2370,9330001031069,新規,0,2023-07-31,2023-07-31,株式会社ＴＥＦＦＴ,,株式会社,熊本県,八代市,大手町２丁目１０番１９号,,43,202,8660852,,,,,,,2023-07-31,1,,,,,,0
2371,9330001031093,新規,0,2023-07-31,2023-07-31,ＮＥＯＮ　ＧＲＥＥＮ株式会社,,株式会社,熊本県,熊本市中央区,安政町４番１４号,,43,101,8600801,,,,,,,2023-07-31,1,,,,,ネオングリーン,0
2375,9360001032345,新規,0,2023-07-31,2023-07-31,株式会社東海電設,,株式会社,沖縄県,石垣市,字白保２６８番地１２１,,47,207,9070242,,,,,,,2023-07-31,1,,,,,トウカイデンセツ,0
2388,9430001089527,新規,0,2023-07-31,2023-07-31,オグラ通商株式会社,,株式会社,北海道,札幌市中央区,大通東２丁目８番地５,,01,101,0600041,,,,,,,2023-07-31,1,,,,,オグラツウショウ,0
2389,9430001089551,新規,0,2023-07-31,2023-07-31,株式会社ｚａｉｍｙ,,株式会社,北海道,札幌市中央区,北五条西１１丁目１４番地,,01,101,0600005,,,,,,,2023-07-31,1,,,,,ザイミー,0
2390,9430001089576,新規,0,2023-07-31,2023-07-31,緑陽建機株式会社,,株式会社,北海道,北広島市,緑陽町１丁目４番地８,,01,234,0611137,,,,,,,2023-07-31,1,,,,,リョクヨウケンキ,0
