sequenceNumber,corporateNumber,process,correct,updateDate,changeDate,name,nameImageId,kind,prefectureName,cityName,streetNumber,addressImageId,prefectureCode,cityCode,postCode,addressOutside,addressOutsideImageId,closeDate,closeCause,successorCorporateNumber,changeCause,assignmentDate,latest,enName,enPrefectureName,enCityName,enAddressOutside,furigana,hihyoji
6,1010001256829,新規,0,2025-07-15,2025-07-15,日本エクソソーム株式会社,,株式会社,東京都,中央区,日本橋馬喰町１丁目１４－４バイファルビルディング日本橋５Ｆ,,13,102,1030002,,,,,,,2025-07-15,1,,,,,ニホンエクソソーム,0
7,1010001256837,新規,0,2025-07-15,2025-07-15,日本無印株式会社,,株式会社,東京都,中央区,銀座６丁目１３番１６号銀座ＷａｌｌビルＵＣＦ５０１,,13,102,1040061,,,,,,,2025-07-15,1,,,,,ニホンムイン,0
8,1010001256878,新規,0,2025-07-15,2025-07-15,株式会社チョコモナカ,,株式会社,東京都,千代田区,神田須田町１丁目７番８号ＶＯＲＴ秋葉原ＩＶ２Ｆ,00139919,13,101,1010041,,,,,,,2025-07-15,1,,,,,チョコモナカ,0
9,1010001256903,新規,0,2025-07-15,2025-07-15,株式会社Ｍｅｅｖｏ,,株式会社,東京都,千代田区,西神田２丁目７番５号,,13,101,1010065,,,,,,,2025-07-15,1,,,,,ミーボ,0
10,1010003047854,新規,0,2025-07-15,2025-07-15,合同会社ｏｒｉｏｌｅ,,合同会社,東京都,中央区,日本橋室町１丁目１１番１２号日本橋水野ビル７階,,13,102,1030022,,,,,,,2025-07-15,1,,,,,オリオール,0
11,1010003047887,新規,0,2025-07-15,2025-07-15,ＷＩＮグリッド１号合同会社,,合同会社,東京都,千代田区,外神田５丁目２番１号,,13,101,1010021,,,,,,,2025-07-15,1,,,,,ウィングリッドイチゴウ,0
12,1010003047920,新規,0,2025-07-15,2025-07-15,Ｌ．Ｐ．ＳＡＵＶＡＧＥ合同会社,,合同会社,東京都,千代田区,丸の内１丁目８番３号丸の内トラストタワー本館２０階,,13,101,1000005,,,,,,,2025-07-15,1,,,,,ラプァンセィソヴァージュ,0
13,1010003048027,新規,0,2025-07-15,2025-07-15,合同会社ＷａｖｅＬｉｎｋ,,合同会社,東京都,千代田区,神田和泉町１番地６－１６ヤマトビル４０５,,13,101,1010024,,,,,,,2025-07-15,1,,,,,ウェーブリンク,0
24,1010405024583,新規,0,2025-07-15,2025-07-15,一般社団法人Ｄｅｌｔａ,,その他の設立登記法人,東京都,港区,虎ノ門３丁目１８番１２－５０２号株式会社虎ノ門会計神谷町分室内,,13,103,1050001,,,,,,,2025-07-15,1,,,,,デルタ,0
31,1010603011672,新規,0,2025-07-15,2025-07-15,合同会社Ｐａｙ　ｆｏｒｗａｒｄ　ＪＡＰＡＮ,,合同会社,東京都,墨田区,両国３丁目５－１１アロハスイート１階,,13,107,1300026,,,,,,,2025-07-15,1,,,,,ペイフォワードジャパン,0
32,1010605004476,新規,0,2025-07-15,2025-07-15,一般社団法人建設業外国人支援協会,,その他の設立登記法人,東京都,江東区,木場２丁目７番２３号第一びる本館１Ｆ,,13,108,1350042,,,,,,,2025-07-15,1,,,,,ケンセツギョウガイコクジンシエンキョウカイ,0
33,1010701047998,新規,0,2025-07-15,2025-07-15,Ｓｏｌａｒ　Ｔｅｃｈ　Ｊａｐａｎ株式会社,,株式会社,東京都,品川区,東品川２丁目５番５号ハーバーワンビル６Ｆ,,13,109,1400002,,,,,,,2025-07-15,1,,,,,ソーラーテックジャパン,0
36,1010801036356,新規,0,2025-07-15,2025-07-15,マンダンジャパン株式会社,,株式会社,東京都,大田区,大森北３丁目１番２号ＫＫＳビル４Ｆ,,13,111,1430016,,,,,,,2025-07-15,1,,,,,マンダンジャパン,0
46,1010901057723,新規,0,2025-07-15,2025-07-15,株式会社ライトトップ,,株式会社,東京都,世田谷区,若林３丁目３５番６号,,13,112,1540023,,,,,,,2025-07-15,1,,,,,ライトトップ,0
50,1011001170796,新規,0,2025-07-15,2025-07-15,株式会社ＳａａＴｓｕＨＲ,,株式会社,東京都,目黒区,青葉台３丁目１８－３Ｔｈｅｗｏｒｋｓ５０８,,13,110,1530042,,,,,,,2025-07-15,1,,,,,サーツエイチアール,0
51,1011001170813,新規,0,2025-07-15,2025-07-15,株式会社棚プライベートバンク,,株式会社,東京都,目黒区,南２丁目７－１７,,13,110,1520013,,,,,,,2025-07-15,1,,,,,タナプライベートバンク,0
52,1011001170895,新規,0,2025-07-15,2025-07-15,株式会社Ｇｒｉｔ　Ｌｏｏｐ,,株式会社,東京都,渋谷区,恵比寿１丁目１５番９号日宝恵比寿ビル４０３,,13,113,1500013,,,,,,,2025-07-15,1,,,,,グリットループ,0
53,1011001171142,新規,0,2025-07-15,2025-07-15,株式会社ＭＡＲＳホールディングス,,株式会社,東京都,渋谷区,渋谷２丁目２１番１号渋谷ヒカリエ３３階,,13,113,1500002,,,,,,,2025-07-15,1,,,,,マーズホールディングス,0
65,1011105011509,新規,0,2025-07-15,2025-07-15,一般社団法人ダックス・ピーエー,,その他の設立登記法人,東京都,新宿区,中落合２丁目１６番１７号,,13,104,1610032,,,,,,,2025-07-15,1,,,,,ダックスピーエー,0
67,1011203004760,新規,0,2025-07-15,2025-07-15,Ｌｕｘｅ　Ｌｉｖｉｎｇ　Ｊａｐａｎ合同会社,,合同会社,東京都,中野区,東中野２丁目１９番１５号スペースワン２０１号室,,13,114,1640003,,,,,,,2025-07-15,1,,,,,リュクスリビングジャパン,0
74,1011603004765,新規,0,2025-07-15,2025-07-15,合同会社ＳＫ　Ｗｏｒｋｓ,,合同会社,東京都,練馬区,錦１丁目１９番１１号,,13,120,1790082,,,,,,,2025-07-15,1,,,,,エスケーワークス,0
77,1011803006966,新規,0,2025-07-15,2025-07-15,静雅合同会社,,合同会社,東京都,葛飾区,立石１丁目１番７号京成立石ビル２０５号室,,13,122,1240012,,,,,,,2025-07-15,1,,,,,セイカ,0
82,1013301054588,新規,0,2025-07-15,2025-07-15,株式会社丸藤,,株式会社,東京都,豊島区,要町３丁目１４番８号小倉ハウスＩ２０１号,,13,116,1710043,,,,,,,2025-07-15,1,,,,,マルフジ,0
90,1020001163925,新規,0,2025-07-15,2025-07-15,株式会社ライズ,,株式会社,神奈川県,川崎市高津区,久地２丁目９番１０－５０７号,,14,134,2130032,,,,,,,2025-07-15,1,,,,,ライズ,0
96,1021001085779,新規,0,2025-07-15,2025-07-15,株式会社Ｎ‐ＺＡＲＵ,,株式会社,神奈川県,小田原市,蓮正寺１９３番地の７,00139937,14,206,2500865,,,,,,,2025-07-15,1,,,,,エヌザル,0
97,1021001085804,新規,0,2025-07-15,2025-07-15,健営プラス株式会社,,株式会社,神奈川県,相模原市中央区,富士見６丁目１５番１－１０３号,,14,152,2520236,,,,,,,2025-07-15,1,,,,,ケンエイプラス,0
100,1021003016278,新規,0,2025-07-15,2025-07-15,合同会社翔隆,,合同会社,神奈川県,相模原市中央区,緑が丘１丁目１４番１２号レジデンス道上１０２,,14,152,2520225,,,,,,,2025-07-15,1,,,,,ショウリュウ,0
105,1030001167628,新規,0,2025-07-15,2025-07-15,広勝工装株式会社,,株式会社,埼玉県,さいたま市南区,辻１丁目９番８号１－４０６,00139928,11,108,3360026,,,,,,,2025-07-15,1,,,,,ヒロカツコウソウ,0
114,1040001139568,新規,0,2025-07-15,2025-07-15,ＮＯＢＡＲＹ株式会社,,株式会社,千葉県,船橋市,行田３丁目１０番４５号ルピアグランデ船橋行田公園６１７号室,,12,204,2730044,,,,,,,2025-07-15,1,,,,,ノバリー,0
115,1040001139618,新規,0,2025-07-15,2025-07-15,Ｔ．Ｃ国際株式会社,,株式会社,千葉県,市川市,北国分４丁目１４番２７号,,12,203,2720836,,,,,,,2025-07-15,1,,,,,ティシイコクサイ,0
116,1040001139650,新規,0,2025-07-15,2025-07-15,株式会社結城興業,,株式会社,千葉県,市原市,瀬又５９０番地３０,,12,219,2900151,,,,,,,2025-07-15,1,,,,,ユウキコウギョウ,0
129,1100003008285,新規,0,2025-07-15,2025-07-15,合同会社アポログリット,,合同会社,長野県,安曇野市,穂高５９３９番地３,,20,220,3998303,,,,,,,2025-07-15,1,,,,,アポログリット,0
130,1110001039439,新規,0,2025-07-15,2025-07-15,株式会社徳枝農園,,株式会社,新潟県,新潟市西区,新通２１１２番地,,15,107,9502035,,,,,,,2025-07-15,1,,,,,トクエノウエン,0
139,1120001277277,新規,0,2025-07-15,2025-07-15,株式会社小嶋,,株式会社,大阪府,大阪市港区,磯路３丁目１６番１７号,,27,107,5520003,,,,,,,2025-07-15,1,,,,,コジマ,0
140,1120001277731,新規,0,2025-07-15,2025-07-15,株式会社Ｑｕｅｅｎ‐Ｎ,,株式会社,大阪府,大阪市中央区,鎗屋町２丁目３番３号,,27,128,5400027,,,,,,,2025-07-15,1,,,,,クイーンエヌ,0
141,1120001277748,新規,0,2025-07-15,2025-07-15,アルゴノーツ株式会社,,株式会社,大阪府,大阪市東成区,神路３丁目７番８号,,27,115,5370003,,,,,,,2025-07-15,1,,,,,アルゴノーツ,0
142,1120001277780,新規,0,2025-07-15,2025-07-15,株式会社ａｌｅ,,株式会社,大阪府,大阪市北区,梅田１丁目２番２号大阪駅前第２ビル１２－１２,,27,127,5300001,,,,,,,2025-07-15,1,,,,,エール,0
143,1120001277797,新規,0,2025-07-15,2025-07-15,株式会社エイト,,株式会社,大阪府,大阪市阿倍野区,天王寺町北３丁目７番１６号コーポイン天王寺パートＩ５０１号,00139917,27,119,5450001,,,,,,,2025-07-15,1,,,,,エイト,0
144,1120001277822,新規,0,2025-07-15,2025-07-15,宗吾株式会社,,株式会社,大阪府,大阪市中央区,千日前１丁目５番１９寿楽ビル１００１号室,,27,128,5420074,,,,,,,2025-07-15,1,,,,,ソウゴ,0
145,1120001277871,新規,0,2025-07-15,2025-07-15,株式会社リアレスト,,株式会社,大阪府,大阪市都島区,片町２丁目７番２９号シティコーポのとや３０２,,27,102,5340025,,,,,,,2025-07-15,1,,,,,リアレスト,0
146,1120001277913,新規,0,2025-07-15,2025-07-15,中実業株式会社,,株式会社,大阪府,大阪市東住吉区,照ケ丘矢田２丁目６番７号,,27,121,5460021,,,,,,,2025-07-15,1,,,,,チュウジツギョウ,0
147,1120001277921,新規,0,2025-07-15,2025-07-15,新紀元株式会社,,株式会社,大阪府,大阪市西成区,萩之茶屋２丁目６番４号ニューかめや１８３号室,,27,122,5570004,,,,,,,2025-07-15,1,,,,,シンキゲン,0
148,1120003029791,新規,0,2025-07-15,2025-07-15,合同会社オーキニー,,合同会社,大阪府,大阪市天王寺区,上汐３丁目６‐１４末広ビル５０５Ａ,,27,109,5430002,,,,,,,2025-07-15,1,,,,,オーキニー,0
156,1130001080052,新規,0,2025-07-15,2025-07-15,山悦堂株式会社,,株式会社,京都府,南丹市,園部町小山西町大垣内１８番地,,26,213,6220043,,,,,,,2025-07-15,1,,,,,サンエツドウ,0
157,1130001080176,新規,0,2025-07-15,2025-07-15,華威株式会社,,株式会社,京都府,京都市伏見区,深草下川原町５０番地４未来ビル１０３号室,,26,109,6128401,,,,,,,2025-07-15,1,,,,,カイ,0
158,1130005017397,新規,0,2025-07-15,2025-07-15,一般社団法人さくらスポーツクラブ,,その他の設立登記法人,京都府,京都市伏見区,醍醐御陵東裏町４番地１２,,26,109,6011313,,,,,,,2025-07-15,1,,,,,サクラスポーツクラブ,0
161,1140001139244,新規,0,2025-07-15,2025-07-15,株式会社ＳＯＲＡ,,株式会社,兵庫県,神戸市中央区,港島１丁目１番地の９イトーピア神戸ポートアイランド１１０号,,28,110,6500045,,,,,,,2025-07-15,1,,,,,ソラ,0
162,1140001139260,新規,0,2025-07-15,2025-07-15,株式会社メゾン,,株式会社,兵庫県,尼崎市,西難波町１丁目９番１５号,,28,202,6600893,,,,,,,2025-07-15,1,,,,,,0
163,1140001139293,新規,0,2025-07-15,2025-07-15,Ｌｉｂｌｙ株式会社,,株式会社,兵庫県,西宮市,笠屋町３２－１４ライゼホビー３号,,28,204,6638136,,,,,,,2025-07-15,1,,,,,リブリー,0
166,1140003022308,新規,0,2025-07-15,2025-07-15,合同会社ｌｉｂ．,,合同会社,兵庫県,西宮市,甲子園七番町２２番３１－３０２号,,28,204,6638177,,,,,,,2025-07-15,1,,,,,リブ,0
167,1140003022316,新規,0,2025-07-15,2025-07-15,合同会社ｈａｎａ,,合同会社,兵庫県,宝塚市,山手台西４丁目２１番６号,,28,214,6650886,,,,,,,2025-07-15,1,,,,,ハナ,0
180,1180001167456,新規,0,2025-07-15,2025-07-15,株式会社ロンドベルケア・サポート,,株式会社,愛知県,名古屋市西区,那古野２丁目１４番１号,,23,104,4510042,,,,,,,2025-07-15,1,,,,,ロンドベルケアサポート,0
181,1180001167745,新規,0,2025-07-15,2025-07-15,コアスマート株式会社,,株式会社,愛知県,名古屋市中村区,名駅５丁目３１ー１０リンクス名駅ビル６Ｆ,,23,105,4500002,,,,,,,2025-07-15,1,,,,,コアスマート,0
186,1200003006915,新規,0,2025-07-15,2025-07-15,合同会社旅の宿,,合同会社,岐阜県,土岐市,泉町久尻１４３１番地の２０,,21,212,5095142,,,,,,,2025-07-15,1,,,,,タビノヤド,0
193,1240001065190,新規,0,2025-07-15,2025-07-15,ＭＩＫＫＥ　ＬＡＢＯ株式会社,,株式会社,広島県,広島市中区,上八丁堀４番１号,,34,101,7300012,,,,,,,2025-07-15,1,,,,,ミッケラボ,0
203,1280003001966,新規,0,2025-07-15,2025-07-15,合同会社Ｌａ　Ｖｉｅ　Ｃｌａｉｒ,,合同会社,島根県,松江市,伊勢宮町５３７‐８,,32,201,6900006,,,,,,,2025-07-15,1,,,,,ラヴィクレール,0
205,1290001110669,新規,0,2025-07-15,2025-07-15,株式会社Ｌａｂｂｉｔ,,株式会社,福岡県,福岡市南区,曰佐３丁目３４番７号,,40,134,8111313,,,,,,,2025-07-15,1,,,,,ラビット,0
206,1290001110702,新規,0,2025-07-15,2025-07-15,株式会社テバラ,,株式会社,福岡県,福岡市東区,多の津５丁目５５番１５号,,40,131,8130034,,,,,,,2025-07-15,1,,,,,テバラ,0
207,1290001110751,新規,0,2025-07-15,2025-07-15,株式会社ＧＡＬＡＸＹ,,株式会社,福岡県,福岡市博多区,博多駅南５丁目１０番１７－９０１号,,40,132,8120016,,,,,,,2025-07-15,1,,,,,ギャラクシー,0
208,1290003017103,新規,0,2025-07-15,2025-07-15,ネクストライフ合同会社,,合同会社,福岡県,糟屋郡篠栗町,大字乙犬６６３番地,,40,342,8112412,,,,,,,2025-07-15,1,,,,,ネクストライフ,0
221,1370001052812,新規,0,2025-07-15,2025-07-15,株式会社大丸,,株式会社,宮城県,仙台市青葉区,片平１丁目４番１７－３０２号,,04,101,9800812,,,,,,,2025-07-15,1,,,,,ダイマル,0
222,1370001052829,新規,0,2025-07-15,2025-07-15,株式会社ＲＩＰＵＨＡＮＯ,,株式会社,宮城県,白石市,福岡長袋字馬場３１番地３,,04,206,9890232,,,,,,,2025-07-15,1,,,,,リプハノ,0
223,1370001052837,新規,0,2025-07-15,2025-07-15,北日本ドライバーサービス株式会社,,株式会社,宮城県,仙台市太白区,茂庭台１丁目１０番２号,,04,104,9820252,,,,,,,2025-07-15,1,,,,,キタニホンドライバーサービス,0
224,1370001052845,新規,0,2025-07-15,2025-07-15,株式会社Ｇｒｏｗｌｕｋｅ,,株式会社,宮城県,仙台市太白区,富沢西２丁目１１番地の４,,04,104,9820037,,,,,,,2025-07-15,1,,,,,グロウルーク,0
225,1370003007194,新規,0,2025-07-15,2025-07-15,合同会社ＡＹＡＺ　ＴＲＡＤＩＮＧ,,合同会社,宮城県,遠田郡涌谷町,猪岡短台字大谷地１６番１２,,04,501,9870284,,,,,,,2025-07-15,1,,,,,アャズトレーディング,0
227,1380001035436,新規,0,2025-07-15,2025-07-15,株式会社東邦ＩＴヒューマンソリューションズ,,株式会社,福島県,福島市,飯坂町平野字桜田３番地４,,07,201,9600231,,,,,,,2025-07-15,1,,,,,トウホウアイティーヒューマンソリューションズ,0
230,1380005012992,新規,0,2025-07-15,2025-07-15,一般社団法人スポーツクラブＳＴＡＲＴ　ＬＩＮＥ,,その他の設立登記法人,福島県,福島市,東中央２丁目８７番地の８,,07,201,9608071,,,,,,,2025-07-15,1,,,,,スポーツクラブスタートライン,0
238,1430001094880,新規,0,2025-07-15,2025-07-15,株式会社ＪＡＣＯＭＯ,,株式会社,北海道,札幌市北区,新川四条１３丁目７－２６,,01,102,0010924,,,,,,,2025-07-15,1,,,,,ジャコモ,0
244,1700150131374,新規,0,2025-07-15,2025-07-15,ＫＡＮＤＹ　ＭＯＴＯＲＳ,,外国会社等,千葉県,東金市,二又３３６番地２オフィス６Ｂ,,12,213,2830004,スリランカ民主社会主義共和国、キャンディ、マハイヤワ、Ｎｏ．４３／Ｇ,,,,,,2025-07-15,1,,,,,キヤンデイモータース,0
245,1700150131382,新規,0,2025-07-15,2025-07-15,ＤＡＲＫ　ＬＩＮＥ　ＴＲＡＤＩＮＧ,,外国会社等,千葉県,長生郡長生村,水口１２４１番地３０オフィス９Ｂ号,,12,423,2994335,スリランカ民主社会主義共和国、ガルヒンナ、キャンディロード、Ｎｏ．２４５／Ａ,,,,,,2025-07-15,1,,,,,ダークライントレーデイング,0
246,1700150131390,新規,0,2025-07-15,2025-07-15,ＭＡＹＡＢＡ　ＭＯＴＯＲＳ,,外国会社等,千葉県,長生郡長生村,水口１２４１番地３０オフィス１０Ｂ,,12,423,2994335,スリランカ民主社会主義共和国、ウクウェラ、マタレロード、Ｎｏ．７６／Ｂ,,,,,,2025-07-15,1,,,,,マヤバモータース,0
251,2010001256803,新規,0,2025-07-15,2025-07-15,＿云株式会社,00139920,株式会社,東京都,千代田区,神田小川町３丁目２８番１３号ラフィネお茶の水８０７号,,13,101,1010052,,,,,,,2025-07-15,1,,,,,ケイウン,0
252,2010001256844,新規,0,2025-07-15,2025-07-15,株式会社モプラス,,株式会社,東京都,千代田区,外神田４丁目３番１１号クリハラビル１階,,13,101,1010021,,,,,,,2025-07-15,1,,,,,モプラス,0
253,2010001256869,新規,0,2025-07-15,2025-07-15,スマートベース株式会社,,株式会社,東京都,中央区,京橋２丁目２番１号京橋エドグラン２７階,,13,102,1040031,,,,,,,2025-07-15,1,,,,,スマートベース,0
254,2010001256877,新規,0,2025-07-15,2025-07-15,株式会社アニ通,,株式会社,東京都,千代田区,神田松永町１８－２ＡＫＩＨＡＢＡＲＡＮＯＲＴＨＣＯＵＲＴ３－Ｂ,,13,101,1010023,,,,,,,2025-07-15,1,,,,,アニツウ,0
255,2010001256902,新規,0,2025-07-15,2025-07-15,株式会社レイアクト設計,,株式会社,東京都,文京区,本郷１丁目２５番３号,,13,105,1130033,,,,,,,2025-07-15,1,,,,,レイアクトセッケイ,0
256,2010003047969,新規,0,2025-07-15,2025-07-15,合同会社ＴＧＬｉｎｋｓ,,合同会社,東京都,千代田区,内神田１丁目２番２号,,13,101,1010047,,,,,,,2025-07-15,1,,,,,ティージーリンクス,0
274,2010601067583,新規,0,2025-07-15,2025-07-15,株式会社ｔｅｒａｓｕ　ｄａｙ,,株式会社,東京都,江東区,有明３丁目７番１１号有明パークビル,,13,108,1350063,,,,,,,2025-07-15,1,,,,,テラスデイ,0
275,2010603011671,新規,0,2025-07-15,2025-07-15,ＤＲＥＡＭＩＮ’ＦＵＴＵＲＥＷＯＲＫＳ合同会社,,合同会社,東京都,墨田区,錦糸１丁目１７番１０－８２６号,,13,107,1300013,,,,,,,2025-07-15,1,,,,,ドリーミンフューチャーワークス,0
277,2010703007801,新規,0,2025-07-15,2025-07-15,合同会社ＩＰＧ,,合同会社,東京都,品川区,西五反田１丁目２６番２号五反田サンハイツ９１１,,13,109,1410031,,,,,,,2025-07-15,1,,,,,アイピージー,0
290,2010903010084,新規,0,2025-07-15,2025-07-15,合同会社アクセス,,合同会社,東京都,世田谷区,上北沢４丁目３３―２２スターハイツ八幡山２０２,,13,112,1560057,,,,,,,2025-07-15,1,,,,,アクセス,0
298,2011001170820,新規,0,2025-07-15,2025-07-15,株式会社Ｃｙｂｅｒ　Ｒｅｖｏｌｕｔｉｏｎ,,株式会社,東京都,渋谷区,渋谷２丁目２４番１２号渋谷スクランブルスクエア３９Ｆ,,13,113,1500002,,,,,,,2025-07-15,1,,,,,サイバーレボリューション,0
308,2011401027240,新規,0,2025-07-15,2025-07-15,株式会社ｅＮＥＣＴ,,株式会社,東京都,板橋区,板橋１丁目３６番１,,13,119,1730004,,,,,,,2025-07-15,1,,,,,イーネクト,0
309,2011403004758,新規,0,2025-07-15,2025-07-15,合同会社ＭｃＳｅｅｎ,,合同会社,東京都,板橋区,坂下１丁目２９－７－６１１,,13,119,1740043,,,,,,,2025-07-15,1,,,,,マクシーン,0
316,2011603004764,新規,0,2025-07-15,2025-07-15,合同会社Ａｔｅｌｉｅｒ　Ｔａｕｐｅ,,合同会社,東京都,練馬区,大泉学園町６丁目２６－２４,,13,120,1780061,,,,,,,2025-07-15,1,,,,,アトリエトープ,0
321,2011805003465,新規,0,2025-07-15,2025-07-15,特定非営利活動法人あかつき,,その他の設立登記法人,東京都,足立区,西保木間２丁目１２番９－７０９号,,13,121,1210812,,,,,,,2025-07-15,1,,,,,アカツキ,0
328,2013303007758,新規,0,2025-07-15,2025-07-15,合同会社Ｒｕｌｅ　Ｂｏｏｋ,,合同会社,東京都,豊島区,駒込７丁目１０番２号,,13,116,1700003,,,,,,,2025-07-15,1,,,,,ルールブック,0
335,2020001163833,新規,0,2025-07-15,2025-07-15,株式会社ＳＴホーム,,株式会社,神奈川県,横浜市神奈川区,菅田町２６１４番地１０,,14,102,2210864,,,,,,,2025-07-15,1,,,,,エスティーホーム,0
339,2020003028968,新規,0,2025-07-15,2025-07-15,合同会社野音,,合同会社,神奈川県,横浜市都筑区,中川３丁目１６番１９号,,14,118,2240001,,,,,,,2025-07-15,1,,,,,ヤオン,0
344,2021001085803,新規,0,2025-07-15,2025-07-15,結び株式会社,,株式会社,神奈川県,秦野市,並木町１番９号グリーンアベニュー渋沢１０１号,,14,211,2591317,,,,,,,2025-07-15,1,,,,,ムスビ,0
348,2021003016095,新規,0,2025-07-15,2025-07-15,合同会社Ｌｏｓ,,合同会社,神奈川県,中郡二宮町,山西１５５３番地の１４,,14,342,2590124,,,,,,,2025-07-15,1,,,,,ロス,0
349,2021003016186,新規,0,2025-07-15,2025-07-15,アニージャ湘南合同会社,,合同会社,神奈川県,鎌倉市,腰越３丁目２４－５コスモＡｏｉ腰越２０１,,14,204,2480033,,,,,,,2025-07-15,1,,,,,アニージャショウナン,0
357,2030001167610,新規,0,2025-07-15,2025-07-15,株式会社ケーエム施工,,株式会社,埼玉県,加須市,水深１３０９番地,,11,210,3470022,,,,,,,2025-07-15,1,,,,,ケーエムセコウ,0
358,2030001167668,新規,0,2025-07-15,2025-07-15,株式会社岩井建設,,株式会社,埼玉県,春日部市,中央３丁目３番地１０,,11,214,3440067,,,,,,,2025-07-15,1,,,,,イワイケンセツ,0
364,2030005022209,新規,0,2025-07-15,2025-07-15,特定非営利活動法人ハンドフット,,その他の設立登記法人,埼玉県,久喜市,久喜東４丁目１８番４５号,,11,232,3460016,,,,,,,2025-07-15,1,,,,,ハンドフット,0
367,2040001139617,新規,0,2025-07-15,2025-07-15,株式会社カネコインテリア,,株式会社,千葉県,浦安市,堀江５丁目１８番２５号,,12,227,2790041,,,,,,,2025-07-15,1,,,,,カネコインテリア,0
368,2040001139633,新規,0,2025-07-15,2025-07-15,梅郷技建株式会社,,株式会社,千葉県,野田市,山崎１８７６番地５,,12,208,2780022,,,,,,,2025-07-15,1,,,,,ウメサトギケン,0
373,2050001056935,新規,0,2025-07-15,2025-07-15,ＫＩＳＷＡＨ　ＴＲＡＤＩＮＧ株式会社,,株式会社,茨城県,東茨城郡茨城町,大字大戸３３３３番地２１,,08,302,3113114,,,,,,,2025-07-15,1,,,,,キスワトレーディング,0
374,2050001056943,新規,0,2025-07-15,2025-07-15,株式会社常真,,株式会社,茨城県,つくば市,稲岡５４６番地１,,08,220,3050071,,,,,,,2025-07-15,1,,,,,ジョウシン,0
386,2080401028028,新規,0,2025-07-15,2025-07-15,株式会社サリアグンジャパン,,株式会社,静岡県,浜松市中央区,松小池町４６７番地２,,22,138,4350008,,,,,,,2025-07-15,1,,,,,サリアグンジャパン,0
396,2110003005818,新規,0,2025-07-15,2025-07-15,合同会社ＰＰＥ,,合同会社,新潟県,上越市,北本町１丁目５番９号,,15,222,9430828,,,,,,,2025-07-15,1,,,,,ピーピーイー,0
401,2120001277796,新規,0,2025-07-15,2025-07-15,正恒株式会社,,株式会社,大阪府,大阪市東住吉区,北田辺５丁目２番４－７０１号,,27,121,5460044,,,,,,,2025-07-15,1,,,,,セイコウ,0
402,2120001277813,新規,0,2025-07-15,2025-07-15,ＦｉｒｓｔＳｔａｒ株式会社,,株式会社,大阪府,大阪市天王寺区,生玉町１１－２９－３１１,,27,109,5430071,,,,,,,2025-07-15,1,,,,,ファーストスター,0
403,2120001277870,新規,0,2025-07-15,2025-07-15,豪月株式会社,,株式会社,大阪府,大阪市淀川区,十八条２丁目１番６号,,27,123,5320001,,,,,,,2025-07-15,1,,,,,ゴゲツ,0
404,2120001277904,新規,0,2025-07-15,2025-07-15,株式会社Ｆ・Ｍデータ,,株式会社,大阪府,大阪市生野区,巽北１丁目２１番２９－７１９号,,27,116,5440004,,,,,,,2025-07-15,1,,,,,エフエムデータ,0
405,2120001277920,新規,0,2025-07-15,2025-07-15,株式会社龍斗,,株式会社,大阪府,大阪市生野区,田島２丁目６番１１号,,27,116,5440011,,,,,,,2025-07-15,1,,,,,タツト,0
407,2120003029972,新規,0,2025-07-15,2025-07-15,合同会社グリーンライト,,合同会社,大阪府,大阪市天王寺区,堀越町６番２号,,27,109,5430056,,,,,,,2025-07-15,1,,,,,グリーンライト,0
408,2120005025020,新規,0,2025-07-15,2025-07-15,医療法人社団麗会,,その他の設立登記法人,大阪府,大阪市北区,西天満６丁目２番１４号マッセ梅田ビル２号館２０２号室,,27,127,5300047,,,,,,,2025-07-15,1,,,,,ウララカイ,0
409,2120005025029,新規,0,2025-07-15,2025-07-15,行政書士法人縁,,その他の設立登記法人,大阪府,大阪市中央区,谷町１丁目６番８号城西ビル,,27,128,5400012,,,,,,,2025-07-15,1,,,,,エン,0
423,2130005017396,新規,0,2025-07-15,2025-07-15,社会保険労務士法人アプリシエイト,,その他の設立登記法人,京都府,京都市中京区,錦小路通烏丸西入占出山町３０８番地山忠ビル５Ｆ,,26,104,6048155,,,,,,,2025-07-15,1,,,,,アプリシエイト,0
427,2140001139227,新規,0,2025-07-15,2025-07-15,株式会社手塚,,株式会社,兵庫県,豊岡市,桜町１４番５号,,28,209,6680043,,,,,,,2025-07-15,1,,,,,テヅカ,0
428,2140001139243,新規,0,2025-07-15,2025-07-15,Ｍ・Ｉ電器株式会社,,株式会社,兵庫県,尼崎市,今福２丁目１９－１０,,28,202,6600812,,,,,,,2025-07-15,1,,,,,エムアイデンキ,0
429,2140001139284,新規,0,2025-07-15,2025-07-15,株式会社ミルジュ,,株式会社,兵庫県,芦屋市,松ノ内町１番２０号,,28,206,6590094,,,,,,,2025-07-15,1,,,,,ミルジュ,0
430,2140001139292,新規,0,2025-07-15,2025-07-15,株式会社ステラ,,株式会社,兵庫県,加古川市,米田町平津７３２－９４,,28,210,6750054,,,,,,,2025-07-15,1,,,,,,0
431,2140001139301,新規,0,2025-07-15,2025-07-15,株式会社ＹＳ技建,,株式会社,兵庫県,尼崎市,大庄中通１丁目６２番地５,,28,202,6600075,,,,,,,2025-07-15,1,,,,,ワイエスギケン,0
433,2140003022307,新規,0,2025-07-15,2025-07-15,合同会社Ｌｏｇｓｅａ,,合同会社,兵庫県,明石市,貴崎１丁目１０番１０－４０２号,,28,203,6730037,,,,,,,2025-07-15,1,,,,,ログシー,0
434,2140003022315,新規,0,2025-07-15,2025-07-15,合同会社杉山装飾,,合同会社,兵庫県,伊丹市,中野西１丁目１５６番地５,,28,207,6640023,,,,,,,2025-07-15,1,,,,,スギヤマソウショク,0
435,2160001026902,新規,0,2025-07-15,2025-07-15,雲川貿易株式会社,,株式会社,滋賀県,草津市,西草津１丁目６－９,,25,206,5250035,,,,,,,2025-07-15,1,,,,,クモカワボウエキ,0
444,2180001167752,新規,0,2025-07-15,2025-07-15,株式会社エイチワイ,,株式会社,愛知県,半田市,新池町１丁目２０３番地の１１,,23,205,4750078,,,,,,,2025-07-15,1,,,,,エイチワイ,0
445,2180001167777,新規,0,2025-07-15,2025-07-15,株式会社ＮＦＪ,,株式会社,愛知県,名古屋市中村区,則武２丁目３番２号サンオフィス名古屋３５９号,,23,105,4530014,,,,,,,2025-07-15,1,,,,,エヌエフジェイ,0
457,2190003005100,新規,0,2025-07-15,2025-07-15,合同会社ＭＯＯ　ＣＬＵＢ,,合同会社,三重県,四日市市,貝家町２４番地,,24,202,5100956,,,,,,,2025-07-15,1,,,,,エムオーオークラブ,0
458,2200001044024,新規,0,2025-07-15,2025-07-15,株式会社中島建築,,株式会社,岐阜県,加茂郡七宗町,神渕１２５７９番地,,21,504,5090511,,,,,,,2025-07-15,1,,,,,ナカシマケンチク,0
467,2240003007306,新規,0,2025-07-15,2025-07-15,合同会社ＢＬＵＭＥ,,合同会社,広島県,福山市,南本庄３丁目１１番１３号,,34,207,7200077,,,,,,,2025-07-15,1,,,,,ブルーメ,0
471,2260001040356,新規,0,2025-07-15,2025-07-15,株式会社ＢＯＬＤ,,株式会社,岡山県,津山市,伏見町２８番地１,,33,203,7080032,,,,,,,2025-07-15,1,,,,,ボールド,0
472,2260001040372,新規,0,2025-07-15,2025-07-15,ウッドファクトリーフジイ株式会社,,株式会社,岡山県,岡山市中区,桑野６６番地,,33,102,7028002,,,,,,,2025-07-15,1,,,,,ウッドファクトリーフジイ,0
474,2260003005258,新規,0,2025-07-15,2025-07-15,合同会社ＨｉＲＡＫＵ,,合同会社,岡山県,岡山市北区,野田屋町１丁目１１番１号２００１号,,33,101,7000815,,,,,,,2025-07-15,1,,,,,ヒラク,0
479,2290001110676,新規,0,2025-07-15,2025-07-15,クロスエステート株式会社,,株式会社,福岡県,福岡市中央区,白金１丁目１５番２０号,,40,133,8100012,,,,,,,2025-07-15,1,,,,,クロスエステート,0
480,2290001110692,新規,0,2025-07-15,2025-07-15,株式会社あさくら農機,,株式会社,福岡県,朝倉市,烏集院７２８番地１,,40,228,8381301,,,,,,,2025-07-15,1,,,,,アサクラノウキ,0
481,2290003017102,新規,0,2025-07-15,2025-07-15,ＢｉｔＣａｐｉｔａｌ合同会社,,合同会社,福岡県,福岡市南区,弥永１丁目９番９号,,40,134,8111323,,,,,,,2025-07-15,1,,,,,ビットキャピタル,0
482,2290003017110,新規,0,2025-07-15,2025-07-15,ＭＯＮＤ合同会社,,合同会社,福岡県,筑後市,大字前津５３７番地１ＳＫティアラ２０１号,,40,211,8330002,,,,,,,2025-07-15,1,,,,,モンド,0
486,2330001033402,新規,0,2025-07-15,2025-07-15,株式会社ＳＬＥ,,株式会社,熊本県,上益城郡御船町,大字小坂８１１番地３,,43,441,8613202,,,,,,,2025-07-15,1,,,,,エスエルイー,0
500,2360001035478,新規,0,2025-07-15,2025-07-15,株式会社さーさ給湯,,株式会社,沖縄県,沖縄市,高原５丁目１７番１３号シャロンコーポ２－Ｄ号室,,47,211,9042171,,,,,,,2025-07-15,1,,,,,サーサキュウトウ,0
502,2370001052844,新規,0,2025-07-15,2025-07-15,ミアゲル株式会社,,株式会社,宮城県,石巻市,立町２丁目５番５号,,04,202,9860824,,,,,,,2025-07-15,1,,,,,ミアゲル,0
510,2390001018050,新規,0,2025-07-15,2025-07-15,ＡｉｂｏＬｉｎｋ株式会社,,株式会社,山形県,米沢市,本町１丁目１－１５,,06,202,9920037,,,,,,,2025-07-15,1,,,,,,0
518,2430003017905,新規,0,2025-07-15,2025-07-15,合同会社ハートフルアウル,,合同会社,北海道,札幌市西区,二十四軒四条５丁目１０番１８号ライオンズステーションプラザ琴似１階Ｄ号室,,01,107,0630804,,,,,,,2025-07-15,1,,,,,ハートフルアウル,0
523,2490003002034,新規,0,2025-07-15,2025-07-15,合同会社Ｈｏｎｕ,,合同会社,高知県,高知市,青柳町５３番地３サーパス青柳町１１０６号,,39,201,7810813,,,,,,,2025-07-15,1,,,,,ホヌ,0
524,2500001026413,新規,0,2025-07-15,2025-07-15,株式会社Ｃｏｎｎｅｃｔ　Ｓｅｅｄ,,株式会社,愛媛県,松山市,鴨川１丁目２番８号,,38,201,7918004,,,,,,,2025-07-15,1,,,,,コネクトシード,0
525,2500003003550,新規,0,2025-07-15,2025-07-15,合同会社ＡＧＲＯＶＡ,,合同会社,愛媛県,宇和島市,吉田町立間尻甲４２８番地１,,38,203,7993710,,,,,,,2025-07-15,1,,,,,アグロヴァ,0
526,2700150131373,新規,0,2025-07-15,2025-07-15,Ｃ＆Ｄ　Ａｇｒｏ　Ｐｒｏｄｕｃｔｓ　Ｐｖｔ　Ｌｔｄ．,,外国会社等,埼玉県,本庄市,児玉町飯倉４７番地,,11,211,3670225,スリランカ民主社会主義共和国、アヌーラダプラ、ガレンビドゥヌウェワ、ミーゴダワワ、アモノコレ、１７７－１,,,,,,2025-07-15,1,,,,,シイアンドデイアグロプロダクツピイブイテイエルテイデイ,0
527,2700150131381,新規,0,2025-07-15,2025-07-15,ＥＵＲＯ　ＬＡＮＫＡ　ＴＲＡＤＩＮＧ,,外国会社等,千葉県,東金市,二又３３６番地２オフィス８Ｂ,,12,213,2830004,スリランカ民主社会主義共和国、バトゥゴダ、カサワッタ、Ｎｏ．４５３,,,,,,2025-07-15,1,,,,,ユーロランカトレーデイング,0
532,3010001256562,新規,0,2025-07-15,2025-07-15,株式会社クロサワホールディングス,,株式会社,東京都,中央区,銀座６丁目９番２号,,13,102,1040061,,,,,,,2025-07-15,1,,,,,クロサワホールディングス,0
533,3010001256901,新規,0,2025-07-15,2025-07-15,株式会社ドリーミアＸ３,,株式会社,東京都,文京区,千石４丁目１４番９号,,13,105,1120011,,,,,,,2025-07-15,1,,,,,ドリーミアエックススリー,0
534,3010003047976,新規,0,2025-07-15,2025-07-15,合同会社ミルザ・トレーディング,,合同会社,東京都,千代田区,外神田３丁目１６番１４号ダイサンビル１０１,,13,101,1010021,,,,,,,2025-07-15,1,,,,,ミルザトレーディング,0
535,3010003048033,新規,0,2025-07-15,2025-07-15,合同会社Ｂｒｉｇｈｔ　Ｅｎｅｒｇｙ,,合同会社,東京都,千代田区,飯田橋３丁目１番５号,,13,101,1020072,,,,,,,2025-07-15,1,,,,,ブライトエナジー,0
536,3010003048041,新規,0,2025-07-15,2025-07-15,合同会社Ｋ０６,,合同会社,東京都,中央区,銀座１丁目１２－４Ｎ＆ＥＢＬＤ．７階,,13,102,1040061,,,,,,,2025-07-15,1,,,,,ケーゼロロク,0
545,3010401191632,新規,0,2025-07-15,2025-07-15,株式会社Ｋ＆Ｅホールディングス,,株式会社,東京都,港区,浜松町２丁目３－８,,13,103,1050013,,,,,,,2025-07-15,1,,,,,ケーアンドイーホールディングス,0
547,3010403035589,新規,0,2025-07-15,2025-07-15,合同会社Ｄｅｌｔａ,,合同会社,東京都,港区,虎ノ門３丁目１８番１２－５０２号株式会社虎ノ門会計神谷町分室内,,13,103,1050001,,,,,,,2025-07-15,1,,,,,デルタ,0
561,3010701047996,新規,0,2025-07-15,2025-07-15,株式会社ＬＥＡＤ　ＧＲＯＷＴＨ,,株式会社,東京都,品川区,東五反田１丁目６番３号いちご東五反田ビル３階,,13,109,1410022,,,,,,,2025-07-15,1,,,,,リードグロース,0
570,3010903010091,新規,0,2025-07-15,2025-07-15,合同会社ＳＨＩＮＫＯＵ,,合同会社,東京都,世田谷区,奥沢６丁目３０番１－５０４号,,13,112,1580083,,,,,,,2025-07-15,1,,,,,シンコウ,0
578,3011001170687,新規,0,2025-07-15,2025-07-15,Ｃｅｌｅｓｔｉａ株式会社,,株式会社,東京都,渋谷区,神宮前５丁目４６番１６号５階,,13,113,1500001,,,,,,,2025-07-15,1,,,,,セレスティア,0
587,3011501032313,新規,0,2025-07-15,2025-07-15,株式会社ＫＯＳＭＯＳ,,株式会社,東京都,荒川区,西日暮里２丁目５４番８号シティ第２日暮里ビル６０１号室,,13,118,1160013,,,,,,,2025-07-15,1,,,,,コスモス,0
591,3011601028797,新規,0,2025-07-15,2025-07-15,盛景株式会社,,株式会社,東京都,練馬区,石神井町３丁目３０－２０ＴＫビル２階１号室,,13,120,1770041,,,,,,,2025-07-15,1,,,,,セイケイ,0
593,3011605002658,新規,0,2025-07-15,2025-07-15,一般社団法人スマイルＰＰバンド認定協会,,その他の設立登記法人,東京都,練馬区,練馬１丁目２０番８号日建練馬ビル２Ｆ,,13,120,1760001,,,,,,,2025-07-15,1,,,,,スマイルピーピーバンドニンテイキョウカイ,0
599,3012701018969,新規,0,2025-07-15,2025-07-15,康伸工業株式会社,,株式会社,東京都,東村山市,野口町２丁目２１番地１,,13,213,1890022,,,,,,,2025-07-15,1,,,,,コウシンコウギョウ,0
600,3012705002465,新規,0,2025-07-15,2025-07-15,一般社団法人日本親子共育推進機構,,その他の設立登記法人,東京都,西東京市,芝久保町２丁目１３番１９－１０８号,,13,229,1880014,,,,,,,2025-07-15,1,,,,,ニホンオヤコキョウイクスイシンキコウ,0
601,3013301054603,新規,0,2025-07-15,2025-07-15,株式会社バーデン家壮鳳,,株式会社,東京都,豊島区,西池袋２丁目４３番５－２０１号,,13,116,1710021,,,,,,,2025-07-15,1,,,,,バーデンヤソウホウ,0
611,3020001163857,新規,0,2025-07-15,2025-07-15,株式会社コンスト,,株式会社,神奈川県,川崎市高津区,上作延５丁目１９番１１号シャルム・ルポン１０３,,14,134,2130034,,,,,,,2025-07-15,1,,,,,コンスト,0
612,3020001163881,新規,0,2025-07-15,2025-07-15,株式会社トリオソフト,,株式会社,神奈川県,横浜市中区,元浜町３丁目２１－２ヘリオス関内ビル４階４１４号室,,14,104,2310004,,,,,,,2025-07-15,1,,,,,トリオソフト,0
618,3020003028950,新規,0,2025-07-15,2025-07-15,Ｂｉｅｎ　Ｆｒｅｓｈ　Ｊａｐｏｎ合同会社,,合同会社,神奈川県,横浜市南区,弘明寺町字北ノ前５１番地２,,14,105,2320067,,,,,,,2025-07-15,1,,,,,ビエンフレッシュハポン,0
625,3021001085744,新規,0,2025-07-15,2025-07-15,株式会社Ｚ‐ＢＵＬＬ,,株式会社,神奈川県,茅ヶ崎市,浜須賀１－５２－１２,,14,207,2530035,,,,,,,2025-07-15,1,,,,,ゼットブル,0
637,3030001167626,新規,0,2025-07-15,2025-07-15,阿昌内装株式会社,,株式会社,埼玉県,川口市,大字東内野金崎５９７－１６,,11,203,3330821,,,,,,,2025-07-15,1,,,,,アショウナイソウ,0
642,3030003027183,新規,0,2025-07-15,2025-07-15,合同会社Ｍａｈａｌｏ,,合同会社,埼玉県,さいたま市南区,別所２丁目３９番４－６号,,11,108,3360021,,,,,,,2025-07-15,1,,,,,マハロ,0
644,3040001139475,新規,0,2025-07-15,2025-07-15,株式会社カイジン,,株式会社,千葉県,八千代市,八千代台西３丁目５番地１ケイズ八千代台２０２号,,12,221,2760034,,,,,,,2025-07-15,1,,,,,カイジン,0
645,3040001139649,新規,0,2025-07-15,2025-07-15,株式会社ＳｅｅｄＮｅｓｔ,,株式会社,千葉県,成田市,幸町９１１番地１ＷｏｒｋＷｏｒｋ１Ｆ,,12,211,2860028,,,,,,,2025-07-15,1,,,,,シードネスト,0
646,3040002105451,新規,0,2025-07-15,2025-07-15,有限会社川嶋商店,,有限会社,千葉県,銚子市,明神町１丁目４６番地,,12,202,2880002,,,,,,,2025-07-15,1,,,,,,0
648,3040003028024,新規,0,2025-07-15,2025-07-15,安達合同会社,,合同会社,千葉県,松戸市,西馬橋蔵元町１８４番地の１シティーハイツＩＩ１０３号,00139924,12,207,2710046,,,,,,,2025-07-15,1,,,,,アンタツ,0
649,3040003028040,新規,0,2025-07-15,2025-07-15,合同会社まきばの灯り,,合同会社,千葉県,野田市,なみき２丁目２４番地１,,12,208,2700229,,,,,,,2025-07-15,1,,,,,マキバノアカリ,0
650,3040003028049,新規,0,2025-07-15,2025-07-15,合同会社ＰＡＣＵＰ,,合同会社,千葉県,八千代市,八千代台東６丁目６番４号ライフプラザ八千代台Ｃ－１０１号,,12,221,2760032,,,,,,,2025-07-15,1,,,,,パカップ,0
652,3050005013667,新規,0,2025-07-15,2025-07-15,一般社団法人Ｈｉｓｔａｒ’ｓＮｏｗ,,その他の設立登記法人,茨城県,つくば市,苅間１０６番地１,,08,220,3050822,,,,,,,2025-07-15,1,,,,,ヒスターズナウ,0
653,3060001038411,新規,0,2025-07-15,2025-07-15,株式会社リフト,,株式会社,栃木県,小山市,東城南４丁目１２番地３７,,09,208,3230829,,,,,,,2025-07-15,1,,,,,リフト,0
661,3110001039445,新規,0,2025-07-15,2025-07-15,株式会社ピアセレクション,,株式会社,新潟県,長岡市,新産２丁目３番地３,,15,202,9402127,,,,,,,2025-07-15,1,,,,,ピアセレクション,0
672,3120001277705,新規,0,2025-07-15,2025-07-15,ＢｅｓｔＷｏｎｄｅｒｓ株式会社,,株式会社,大阪府,大阪市中央区,千日前１丁目５－１９寿楽ビル９０３号,,27,128,5420074,,,,,,,2025-07-15,1,,,,,ベストワンダーズ,0
673,3120001277804,新規,0,2025-07-15,2025-07-15,株式会社Ｍｉｃｉｏ,,株式会社,大阪府,交野市,森南３丁目３３番１号,,27,230,5760031,,,,,,,2025-07-15,1,,,,,ミーチョ,0
674,3120001277903,新規,0,2025-07-15,2025-07-15,株式会社Ｎｅｗ　Ｂｕｉｌｄ　Ｇｒｏｕｐ,,株式会社,大阪府,大阪市北区,南森町１丁目３番２７号南森町丸井ビル７Ｆ,,27,127,5300054,,,,,,,2025-07-15,1,,,,,ニュービルドグループ,0
675,3120001277936,新規,0,2025-07-15,2025-07-15,株式会社永希,,株式会社,大阪府,大阪市中央区,島之内１丁目１４番２７－４０１号,,27,128,5420082,,,,,,,2025-07-15,1,,,,,エイキ,0
676,3120001277977,新規,0,2025-07-15,2025-07-15,株式会社わらべや,,株式会社,大阪府,大阪市北区,中之島３丁目５番１１－１３０１号,,27,127,5300005,,,,,,,2025-07-15,1,,,,,ワラベヤ,0
679,3120003029988,新規,0,2025-07-15,2025-07-15,合同会社えむず,,合同会社,大阪府,大阪市東成区,東小橋１丁目１番６号,,27,115,5370024,,,,,,,2025-07-15,1,,,,,エムズ,0
687,3122005003830,新規,0,2025-07-15,2025-07-15,一般社団法人日本モリンガ国際普及教育機構,,その他の設立登記法人,大阪府,八尾市,恩智中町３丁目１番地,,27,212,5810883,,,,,,,2025-07-15,1,,,,,ニホンモリンガコクサイフキュウキョウイクキコウ,0
690,3130001080075,新規,0,2025-07-15,2025-07-15,東雲堂神具店株式会社,,株式会社,京都府,京都市伏見区,深草藪之内町５８番地,,26,109,6120882,,,,,,,2025-07-15,1,,,,,シノノメドウシングテン,0
691,3130005017404,新規,0,2025-07-15,2025-07-15,医療法人クリスタルデントメソロジー,,その他の設立登記法人,京都府,長岡京市,友岡３丁目１１番１５号,,26,209,6170843,,,,,,,2025-07-15,1,,,,,クリスタルデントメソロジー,0
699,3140001139259,新規,0,2025-07-15,2025-07-15,株式会社ＴＩＭＥＬＹ　ＳＯＬＵＴＩＯＮ,,株式会社,兵庫県,神戸市中央区,磯辺通１丁目１番１８号カサベラ国際プラザビル７０７号室,,28,110,6510084,,,,,,,2025-07-15,1,,,,,タイムリーソリューション,0
700,3140001139283,新規,0,2025-07-15,2025-07-15,播磨合同協力株式会社,,株式会社,兵庫県,姫路市,飾磨区今在家１４０５番地１カーサ西飾磨２０２号,,28,201,6728079,,,,,,,2025-07-15,1,,,,,ハリマゴウドウキョウリョク,0
701,3140001139300,新規,0,2025-07-15,2025-07-15,株式会社福冨涼建築研究所,,株式会社,兵庫県,神戸市中央区,磯辺通２丁目１番２２号,,28,110,6510084,,,,,,,2025-07-15,1,,,,,フクトミリョウケンチクケンキュウショ,0
706,3140003022248,新規,0,2025-07-15,2025-07-15,合同会社ＡＮＮＳＯＲＡ,,合同会社,兵庫県,神戸市北区,小倉台１丁目１４－１５,,28,109,6511211,,,,,,,2025-07-15,1,,,,,アンソラ,0
707,3140003022314,新規,0,2025-07-15,2025-07-15,合同会社Ｙ＆Ｃカンパニー,,合同会社,兵庫県,伊丹市,中野西２丁目２１０番地３,,28,207,6640023,,,,,,,2025-07-15,1,,,,,ワイアンドシーカンパニー,0
709,3160001026892,新規,0,2025-07-15,2025-07-15,株式会社みちのめ,,株式会社,滋賀県,大津市,坂本８丁目２番３５号,,25,201,5200113,,,,,,,2025-07-15,1,,,,,ミチノメ,0
710,3160001026901,新規,0,2025-07-15,2025-07-15,株式会社ジベル,,株式会社,滋賀県,草津市,西渋川１丁目１－２６－９０６,,25,206,5250025,,,,,,,2025-07-15,1,,,,,ジベル,0
724,3180001167751,新規,0,2025-07-15,2025-07-15,株式会社Ｓｅｖｅｎ　Ｍｉｌｅ　Ｂｒｉｄｇｅ,,株式会社,愛知県,春日井市,若草通３丁目３０番地,,23,206,4860914,,,,,,,2025-07-15,1,,,,,セブンマイルブリッジ,0
745,3240001065230,新規,0,2025-07-15,2025-07-15,株式会社テクノクラーツホールディングス,,株式会社,広島県,広島市南区,的場町１丁目５番５号,,34,103,7320824,,,,,,,2025-07-15,1,,,,,テクノクラーツホールディングス,0
749,3250003003773,新規,0,2025-07-15,2025-07-15,合同会社月,,合同会社,山口県,萩市,大字下五間町７０番地,,35,204,7580043,,,,,,,2025-07-15,1,,,,,ツキ,0
751,3270003001767,新規,0,2025-07-15,2025-07-15,合同会社ループ,,合同会社,鳥取県,鳥取市,浜坂４丁目３番１０－１５号,,31,201,6800001,,,,,,,2025-07-15,1,,,,,ループ,0
758,3290001110691,新規,0,2025-07-15,2025-07-15,株式会社丸山事務所,,株式会社,福岡県,糟屋郡粕屋町,長者原東１丁目１１番３０号,,40,349,8112317,,,,,,,2025-07-15,1,,,,,マルヤマジムショ,0
759,3290001110700,新規,0,2025-07-15,2025-07-15,ディーラーズ株式会社,,株式会社,福岡県,福岡市博多区,住吉３丁目１７番３－２－１０１号,,40,132,8120018,,,,,,,2025-07-15,1,,,,,ディーラーズ,0
760,3290001110766,新規,0,2025-07-15,2025-07-15,セラヴィ・ワーキング・ジャパン株式会社,,株式会社,福岡県,福岡市西区,姪の浜６丁目６番２３号,,40,135,8190002,,,,,,,2025-07-15,1,,,,,セラヴィワーキングジャパン,0
762,3290801031708,新規,0,2025-07-15,2025-07-15,株式会社Ｌｉｎｋ,,株式会社,福岡県,北九州市八幡西区,三ケ森３丁目１０番２３号,,40,109,8070843,,,,,,,2025-07-15,1,,,,,リンク,0
763,3290801031716,新規,0,2025-07-15,2025-07-15,株式会社コウエイ,,株式会社,福岡県,北九州市小倉南区,横代南町１丁目５番２０号,,40,107,8020826,,,,,,,2025-07-15,1,,,,,コウエイ,0
770,3330001033401,新規,0,2025-07-15,2025-07-15,株式会社福田計装,,株式会社,熊本県,熊本市南区,城南町出水８６０番地３,,43,104,8614213,,,,,,,2025-07-15,1,,,,,フクダケイソウ,0
771,3330005010933,新規,0,2025-07-15,2025-07-15,一般社団法人くまもと学校部活動支援機構,,その他の設立登記法人,熊本県,熊本市東区,錦ケ丘３番１５号,,43,102,8620912,,,,,,,2025-07-15,1,,,,,クマモトガッコウブカツドウシエンキコウ,0
776,3370001052843,新規,0,2025-07-15,2025-07-15,株式会社フリージアデザイン・ラボ,,株式会社,宮城県,仙台市太白区,緑ケ丘４丁目１４番２号,,04,104,9820021,,,,,,,2025-07-15,1,,,,,フリージアデザインラボ,0
779,3380001035459,新規,0,2025-07-15,2025-07-15,ＴＲＦ株式会社,,株式会社,福島県,いわき市,平字北目町４１番地の５,,07,204,9708026,,,,,,,2025-07-15,1,,,,,ティーアールエフ,0
780,3380001035467,新規,0,2025-07-15,2025-07-15,輝続株式会社,,株式会社,福島県,伊達市,伏黒字上ケ戸６０番地５,,07,213,9600501,,,,,,,2025-07-15,1,,,,,キゾク,0
782,3380003006086,新規,0,2025-07-15,2025-07-15,合同会社片山設備,,合同会社,福島県,会津若松市,城東町１５番１号グランメゾン城東１０１,,07,202,9650807,,,,,,,2025-07-15,1,,,,,カタヤマセツビ,0
794,3430001094838,新規,0,2025-07-15,2025-07-15,株式会社建商,,株式会社,北海道,千歳市,幸町３丁目３番地の１モンレーヴＩＩ１０１号,00139922,01,224,0660063,,,,,,,2025-07-15,1,,,,,ケンショウ,0
795,3430001094854,新規,0,2025-07-15,2025-07-15,株式会社アヴェニール,,株式会社,北海道,札幌市東区,東苗穂六条３丁目５番５２号,,01,103,0070806,,,,,,,2025-07-15,1,,,,,アヴェニール,0
796,3430001094887,新規,0,2025-07-15,2025-07-15,株式会社悠馬ホールディングス,,株式会社,北海道,石狩郡当別町,太美町１４９８番地,,01,303,0613776,,,,,,,2025-07-15,1,,,,,ユウマホールディングス,0
802,3460003001062,新規,0,2025-07-15,2025-07-15,ＭＯＭＯＶＩＬＬＡＳＪＡＰＡＮ合同会社,,合同会社,北海道,釧路市,阿寒町阿寒湖温泉６丁目３－３７,,01,206,0850467,,,,,,,2025-07-15,1,,,,,モモヴィラズジャパン,0
811,3700150131372,新規,0,2025-07-15,2025-07-15,Ｃｏｎｔｒｏｌ　Ｂｉｏｎｉｃｓ　Ｌｉｍｉｔｅｄ,,外国会社等,東京都,港区,赤坂２丁目２３番１号アークヒルズ・フロントタワーＩｎＣｏｎｔｒｏｌ内,,13,103,1070052,オーストラリア連邦、ヴィクトリア州、カンバーウェル、バーク・ロード６９７，スイート５．０１，５階,,,,,,2025-07-15,1,,,,,コントロールバイオニクスリミテツド,0
812,3700150131380,新規,0,2025-07-15,2025-07-15,Ａ　Ｍ　ＡＵＴＯ　ＷＩＮＧＳ,,外国会社等,神奈川県,愛甲郡愛川町,半原１７２３番地１Ｓｕｎｓｈｉｎｙｍｉｗａ２０１,,14,401,2430307,スリランカ民主社会主義共和国、コロンボ１０、パンチカワッタロード、Ｎｏ．３１７,,,,,,2025-07-15,1,,,,,エーエムオートウイングス,0
814,4010001256520,新規,0,2025-07-15,2025-07-15,株式会社レップス,,株式会社,東京都,中央区,日本橋３丁目９番１号日本橋三丁目スクエア４階,,13,102,1030027,,,,,,,2025-07-15,1,,,,,レップス,0
815,4010001256818,新規,0,2025-07-15,2025-07-15,株式会社金瀧,,株式会社,東京都,中央区,銀座２丁目５番４号ファサード銀座８Ｆ,,13,102,1040061,,,,,,,2025-07-15,1,,,,,カネリュウ,0
816,4010001256875,新規,0,2025-07-15,2025-07-15,壱ソーラー株式会社,,株式会社,東京都,千代田区,神田神保町２丁目２番地３３神田神保町二丁目ビル５０１,,13,101,1010051,,,,,,,2025-07-15,1,,,,,イチソーラー,0
817,4010001256891,新規,0,2025-07-15,2025-07-15,株式会社７７７,,株式会社,東京都,中央区,銀座１丁目１２番４号Ｎ＆ＥＢＬＤ．６Ｆ,,13,102,1040061,,,,,,,2025-07-15,1,,,,,スリーセブン,0
818,4010001256900,新規,0,2025-07-15,2025-07-15,株式会社ＳＰＲＯＵＴＺ　Ｓｔｕｄｉｏ,,株式会社,東京都,文京区,根津１丁目２１－１１－１０６,,13,105,1130031,,,,,,,2025-07-15,1,,,,,スプラウツスタジオ,0
823,4010003047983,新規,0,2025-07-15,2025-07-15,合同会社ｋｉｓｅｋｉｎ,,合同会社,東京都,千代田区,神田和泉町１番地６－１６ヤマトビル４０５,,13,101,1010024,,,,,,,2025-07-15,1,,,,,キセキン,0
824,4010003048040,新規,0,2025-07-15,2025-07-15,合同会社和氷,,合同会社,東京都,文京区,千駄木４丁目７－１５朝日動坂マンション１０４,,13,105,1130022,,,,,,,2025-07-15,1,,,,,ワゴオリ,0
825,4010003048049,新規,0,2025-07-15,2025-07-15,ＴＲＹケーアールオー合同会社,,合同会社,東京都,中央区,日本橋１丁目４番１号,,13,102,1030027,,,,,,,2025-07-15,1,,,,,ティーアールワイケーアールオー,0
837,4010701047995,新規,0,2025-07-15,2025-07-15,株式会社人財ステップ,,株式会社,東京都,品川区,大崎３丁目５－２エステージ大崎ビル６Ｆ,,13,109,1410032,,,,,,,2025-07-15,1,,,,,ジンザイステップ,0
846,4011001170686,新規,0,2025-07-15,2025-07-15,Ｓｉｎｆｏｎｉａ株式会社,,株式会社,東京都,渋谷区,神宮前５丁目４６番１６号５階,,13,113,1500001,,,,,,,2025-07-15,1,,,,,シンフォニア,0
850,4011101112522,新規,0,2025-07-15,2025-07-15,株式会社Ｆｏｒｃｅ,,株式会社,東京都,新宿区,早稲田町８５－５ＢＥＣＫ神楽坂４０２,,13,104,1620042,,,,,,,2025-07-15,1,,,,,フォース,0
859,4011401027247,新規,0,2025-07-15,2025-07-15,株式会社５６９６,,株式会社,東京都,板橋区,前野町６丁目１２番２号,,13,119,1740063,,,,,,,2025-07-15,1,,,,,ゴロクロ,0
888,4020001163856,新規,0,2025-07-15,2025-07-15,株式会社イーデジナーレ,,株式会社,神奈川県,川崎市川崎区,小田３丁目１６番９号２０１,,14,131,2100846,,,,,,,2025-07-15,1,,,,,イーデジナーレ,0
889,4020001163897,新規,0,2025-07-15,2025-07-15,好運堂株式会社,,株式会社,神奈川県,川崎市高津区,子母口１０７番地２１,,14,134,2130023,,,,,,,2025-07-15,1,,,,,コウウントウ,0
909,4030001167641,新規,0,2025-07-15,2025-07-15,株式会社ＴＲＵＳ　ＴＥＣＨ,,株式会社,埼玉県,草加市,瀬崎７丁目２４－７－１Ｆ,,11,221,3400022,,,,,,,2025-07-15,1,,,,,トラステック,0
923,4040001139573,新規,0,2025-07-15,2025-07-15,株式会社みやび商事,,株式会社,千葉県,船橋市,前貝塚町５８８番地１アンビシャスヒル船橋８０８号,,12,204,2730042,,,,,,,2025-07-15,1,,,,,ミヤビショウジ,0
924,4040001139672,新規,0,2025-07-15,2025-07-15,沖建株式会社,,株式会社,千葉県,松戸市,小金原５丁目２４番地の２４,,12,207,2700021,,,,,,,2025-07-15,1,,,,,オキケン,0
938,4080103003376,新規,0,2025-07-15,2025-07-15,合同会社ＨＩＫＡＲＩ　ＥＸＰＯＲＴ,,合同会社,静岡県,富士宮市,杉田８０４番地の１,,22,207,4180021,,,,,,,2025-07-15,1,,,,,ヒカリエクスポート,0
944,4110003005816,新規,0,2025-07-15,2025-07-15,合同会社ＦＫ,,合同会社,新潟県,新潟市中央区,笹口１１番１４号,,15,103,9500911,,,,,,,2025-07-15,1,,,,,エフケー,0
949,4120001277786,新規,0,2025-07-15,2025-07-15,株式会社Ｂ．Ｄｅｖｅｌｏｐｍｅｎｔ,,株式会社,大阪府,大阪市中央区,難波千日前１５番１５号ＢＲＡＶＥ難波７Ｆ,,27,128,5420075,,,,,,,2025-07-15,1,,,,,ビーデベロップメント,0
950,4120001277794,新規,0,2025-07-15,2025-07-15,サンリンクケア株式会社,,株式会社,大阪府,枚方市,北中振３丁目２４番２６－１２０３号,,27,210,5730064,,,,,,,2025-07-15,1,,,,,サンリンクケア,0
951,4120001277869,新規,0,2025-07-15,2025-07-15,財禾株式会社,,株式会社,大阪府,大阪市西成区,松３丁目１１番２２－２０５号,,27,122,5570034,,,,,,,2025-07-15,1,,,,,ザイカ,0
952,4120001277902,新規,0,2025-07-15,2025-07-15,Ｈｏｐｅ＆ＳｐｏｒｔＬｉｎｋ　ＪＡＰＡＮ株式会社,,株式会社,大阪府,大阪市北区,太融寺町２－２１－１１０８Ａ,,27,127,5300051,,,,,,,2025-07-15,1,,,,,ホープアンドスポーツリンクジャパン,0
956,4120003029962,新規,0,2025-07-15,2025-07-15,ＳＨＵＪＡ　ＭＯＴＯＲＳ合同会社,,合同会社,大阪府,守口市,八雲東町２丁目５３－６ＪＰアパートメント守口ＩＩＩ３階３０２号室,00139921,27,209,5700021,,,,,,,2025-07-15,1,,,,,シュジャモーターズ,0
957,4120003029979,新規,0,2025-07-15,2025-07-15,ジーグリット合同会社,,合同会社,大阪府,大阪市中央区,天満橋京町１番１号京阪ビルディング西館４階,,27,128,5400032,,,,,,,2025-07-15,1,,,,,ジーグリット,0
958,4120003029995,新規,0,2025-07-15,2025-07-15,合同会社ＳｋｙＧｒａｆｆ,,合同会社,大阪府,大阪市住吉区,帝塚山中５丁目２－５ヴィラパシフィコ３０１,,27,120,5580053,,,,,,,2025-07-15,1,,,,,スカイグラフ,0
960,4120005025043,新規,0,2025-07-15,2025-07-15,医療法人健賛会,,その他の設立登記法人,大阪府,大阪市北区,天神橋７丁目１番２４号ジオタワー天六２階,,27,127,5310041,,,,,,,2025-07-15,1,,,,,ケンサンカイ,0
969,4122001039423,新規,0,2025-07-15,2025-07-15,株式会社Ｗｉｓｈｉｎｇ　Ｐｌｕｓ,,株式会社,大阪府,東大阪市,若江南町３丁目１番２５号２Ｆ,,27,227,5780943,,,,,,,2025-07-15,1,,,,,ウィッシングプラス,0
982,4140001139282,新規,0,2025-07-15,2025-07-15,株式会社ＹＡＬＵＣＡ,,株式会社,兵庫県,宝塚市,清荒神５丁目１３番１１号,,28,214,6650836,,,,,,,2025-07-15,1,,,,,ヤルカ,0
983,4140001139299,新規,0,2025-07-15,2025-07-15,株式会社ＣＯＭＰＡＳＳ,,株式会社,兵庫県,神戸市兵庫区,西橘通１丁目２番１１号,,28,105,6520034,,,,,,,2025-07-15,1,,,,,コンパス,0
986,4150003003659,新規,0,2025-07-15,2025-07-15,合同会社エマンス,,合同会社,奈良県,北葛城郡王寺町,太子１丁目１０番３７号,,29,425,6360023,,,,,,,2025-07-15,1,,,,,エマンス,0
987,4160001026900,新規,0,2025-07-15,2025-07-15,株式会社隆心,,株式会社,滋賀県,草津市,下笠町１０４７番地１,,25,206,5250029,,,,,,,2025-07-15,1,,,,,リュウシン,0
995,4180001167701,新規,0,2025-07-15,2025-07-15,株式会社柴田工業,,株式会社,愛知県,名古屋市西区,康生通２丁目２９番地サンハウス第二浄心１１Ｂ,,23,104,4510075,,,,,,,2025-07-15,1,,,,,シバタコウギョウ,0
996,4180001167767,新規,0,2025-07-15,2025-07-15,株式会社功昇,,株式会社,愛知県,名古屋市緑区,鳴海町字山ノ神６２番地３,,23,114,4580801,,,,,,,2025-07-15,1,,,,,コウショウ,0
1009,4200001044022,新規,0,2025-07-15,2025-07-15,株式会社ＤＩＶｅｒ,,株式会社,岐阜県,山県市,出戸１９３番地の２,,21,215,5012254,,,,,,,2025-07-15,1,,,,,ダイバー,0
1010,4200001044047,新規,0,2025-07-15,2025-07-15,オリオニス株式会社,,株式会社,岐阜県,羽島市,小熊町島３丁目２３,,21,209,5016264,,,,,,,2025-07-15,1,,,,,オリオニス,0
1016,4230003002462,新規,0,2025-07-15,2025-07-15,ＲＩＣＡＮ　ＦＬＡＶＥ合同会社,,合同会社,富山県,富山市,八木山４０３番地１０,,16,201,9392253,,,,,,,2025-07-15,1,,,,,リカンフレイブ,0
1019,4240003007295,新規,0,2025-07-15,2025-07-15,合同会社歩くような速さで,,合同会社,広島県,広島市中区,大手町１丁目１番２６号大手町一番ビル３０５,,34,101,7300051,,,,,,,2025-07-15,1,,,,,アルクヨウナハヤサデ,0
1021,4260001040354,新規,0,2025-07-15,2025-07-15,株式会社桃建,,株式会社,岡山県,岡山市北区,津高１５３３番地３３,,33,101,7011152,,,,,,,2025-07-15,1,,,,,トウケン,0
1022,4260001040370,新規,0,2025-07-15,2025-07-15,株式会社塗壁,,株式会社,岡山県,倉敷市,川西町１８番１０号ＤｅａｒｅｓｔＢ１０７,,33,202,7100821,,,,,,,2025-07-15,1,,,,,ヌリカベ,0
1032,4290001110690,新規,0,2025-07-15,2025-07-15,ｎｏｏ‐ｆａｂｒｉｃａ株式会社,,株式会社,福岡県,糟屋郡志免町,別府４丁目１６番５号,,40,343,8112205,,,,,,,2025-07-15,1,,,,,ヌーファブリカ,0
1033,4290001110708,新規,0,2025-07-15,2025-07-15,株式会社ｑｕａｒｔｅｒ,,株式会社,福岡県,福岡市中央区,舞鶴１丁目８番３０号,,40,133,8100073,,,,,,,2025-07-15,1,,,,,クウォーター,0
1034,4290001110716,新規,0,2025-07-15,2025-07-15,株式会社ＹＭ　Ｒｅｖｏｌｕｔｉｏｎ,,株式会社,福岡県,福岡市西区,西都２丁目２４番８号,,40,135,8190367,,,,,,,2025-07-15,1,,,,,ワイエムレボリューション,0
1035,4290001110732,新規,0,2025-07-15,2025-07-15,株式会社ＫＩＮＤ,,株式会社,福岡県,福岡市中央区,薬院３丁目１４－３真永薬院ビル２Ｆ,,40,133,8100022,,,,,,,2025-07-15,1,,,,,カインド,0
1036,4290001110749,新規,0,2025-07-15,2025-07-15,株式会社トムス,,株式会社,福岡県,福岡市中央区,小笹２丁目８番３０－２０３号,,40,133,8100033,,,,,,,2025-07-15,1,,,,,トムス,0
1037,4290001110773,新規,0,2025-07-15,2025-07-15,株式会社Ｓ　Ｇｒｏｕｐ,,株式会社,福岡県,福岡市中央区,天神２丁目２番１２号Ｔ＆Ｊビルディング７Ｆ,,40,133,8100001,,,,,,,2025-07-15,1,,,,,エスグループ,0
1039,4290803005106,新規,0,2025-07-15,2025-07-15,合同会社魁時,,合同会社,福岡県,北九州市門司区,上馬寄２丁目２番２６号,,40,101,8000042,,,,,,,2025-07-15,1,,,,,カイジ,0
1040,4300001014279,新規,0,2025-07-15,2025-07-15,株式会社ＤＥＥＰ　ＢＬＵＥ,,株式会社,佐賀県,唐津市,東城内３番２１－４０１号ファーネスト唐津東城内,,41,202,8470016,,,,,,,2025-07-15,1,,,,,ディープブルー,0
1041,4300003002315,新規,0,2025-07-15,2025-07-15,合同会社ＲＥＬＩＧＨＴ,,合同会社,佐賀県,佐賀市,兵庫町藤木１１１９－２０,,41,201,8490000,,,,,,,2025-07-15,1,,,,,,0
1050,4330003011107,新規,0,2025-07-15,2025-07-15,合同会社ＡＳＩＳＴ,,合同会社,熊本県,宇城市,小川町河江１１２０番地７,,43,213,8690606,,,,,,,2025-07-15,1,,,,,アシスト,0
1054,4360001035492,新規,0,2025-07-15,2025-07-15,株式会社シンキ,,株式会社,沖縄県,糸満市,西崎町４丁目１６番地２２,,47,210,9010306,,,,,,,2025-07-15,1,,,,,シンキ,0
1059,4370001052842,新規,0,2025-07-15,2025-07-15,株式会社ａｍｐ,,株式会社,宮城県,仙台市若林区,木ノ下１丁目１９番３０号,,04,103,9840047,,,,,,,2025-07-15,1,,,,,エーエムピー,0
1062,4380001035466,新規,0,2025-07-15,2025-07-15,株式会社レトリーヴ,,株式会社,福島県,南相馬市,原町区押釜字原７０番２,,07,212,9750064,,,,,,,2025-07-15,1,,,,,レトリーヴ,0
1075,4430001094770,新規,0,2025-07-15,2025-07-15,株式会社ＳＯＵＳＨＩＮホールディングス,,株式会社,北海道,札幌市豊平区,月寒東四条１８丁目２番６号,,01,105,0620054,,,,,,,2025-07-15,1,,,,,ソウシンホールディングス,0
1076,4430001094787,新規,0,2025-07-15,2025-07-15,株式会社Ｇｅｎｉｅｓ,,株式会社,北海道,札幌市白石区,平和通６丁目南８－１８,,01,104,0030028,,,,,,,2025-07-15,1,,,,,ジーニーズ,0
1077,4430001094853,新規,0,2025-07-15,2025-07-15,株式会社ア・ビット,,株式会社,北海道,札幌市北区,北三十条西１３丁目２番１号,,01,102,0010030,,,,,,,2025-07-15,1,,,,,アビット,0
1079,4460001006021,新規,0,2025-07-15,2025-07-15,株式会社リリーフ,,株式会社,北海道,釧路市,愛国西４丁目８番１０号,,01,206,0850057,,,,,,,2025-07-15,1,,,,,リリーフ,0
1081,4470001020797,新規,0,2025-07-15,2025-07-15,株式会社ＯｎｅＣｒｅａｔｅ,,株式会社,香川県,高松市,元山町６８１番地３アヴニール元山１０４,,37,201,7610311,,,,,,,2025-07-15,1,,,,,,0
1087,4490001011101,新規,0,2025-07-15,2025-07-15,株式会社オーディオ・ギアーズ・ジャパン,,株式会社,高知県,高知市,神田２１２８番地１ハイツＫＵＲＡ－Ｂ２０３,,39,201,7808040,,,,,,,2025-07-15,1,,,,,オーディオギアーズジャパン,0
1088,4490005006997,新規,0,2025-07-15,2025-07-15,一般社団法人しまんとＨＡＲＭＯＮＩＴＹ,,その他の設立登記法人,高知県,高岡郡四万十町,上岡７７番地,,39,412,7860305,,,,,,,2025-07-15,1,,,,,シマントハーモニティ,0
1090,4700150131371,新規,0,2025-07-15,2025-07-15,ＳＡＨＡＤ　ＣＯＲＰＯＲＡＴＩＯＮ,,外国会社等,千葉県,山武市,椎崎１００２－３－Ｂ,,12,237,2891205,スリランカ民主社会主義共和国、ＮＯ．２５／２、アヌラダプラロード、プッタラム,,,,,,2025-07-15,1,,,,,サハドコーポレーシヨン,0
1091,4700150131388,新規,0,2025-07-15,2025-07-15,ＰＲＥＭＩＵＭ　ＭＯＴＯＲＳ,,外国会社等,千葉県,長生郡長生村,水口１２４１番地３０オフィス１Ｂ号,,12,423,2994335,スリランカ民主社会主義共和国、アラワトゥゴダ、マワトゥポラ、Ｎｏ．８８／６,,,,,,2025-07-15,1,,,,,プレミアムモータース,0
1099,5010001256800,新規,0,2025-07-15,2025-07-15,株式会社作戦本部,,株式会社,東京都,千代田区,霞が関３丁目６番１５号,,13,101,1000013,,,,,,,2025-07-15,1,,,,,サクセンホンブ,0
1100,5010001256809,新規,0,2025-07-15,2025-07-15,株式会社Ｌａｎｅｓｐｉｒｅ,,株式会社,東京都,中央区,銀座１丁目１２番４号Ｎ＆ＥＢＬＤ．６Ｆ,,13,102,1040061,,,,,,,2025-07-15,1,,,,,レーンスパイア,0
1101,5010001256874,新規,0,2025-07-15,2025-07-15,株式会社Ｔｏｋｎｏｏｋ,,株式会社,東京都,中央区,銀座１丁目１２番４号Ｎ＆ＥＢＬＤ．６Ｆ,,13,102,1040061,,,,,,,2025-07-15,1,,,,,トックヌック,0
1102,5010001256899,新規,0,2025-07-15,2025-07-15,株式会社ＨＯＮＥＳＴ,,株式会社,東京都,中央区,日本橋蛎殻町１丁目１１番３－４０１号,,13,102,1030014,,,,,,,2025-07-15,1,,,,,オネスト,0
1125,5010601067622,新規,0,2025-07-15,2025-07-15,株式会社Ｈａｐｐｙ　Ｆｕｔｕｒｅ　Ｌｉｖｅ,,株式会社,東京都,墨田区,石原３丁目４番８号,,13,107,1300011,,,,,,,2025-07-15,1,,,,,ハッピーフューチャーリブ,0
1126,5010603011677,新規,0,2025-07-15,2025-07-15,合同会社Ｑ,,合同会社,東京都,墨田区,東向島２丁目２８番５号エルハイツ第一テラジマ３０１号室,,13,107,1310032,,,,,,,2025-07-15,1,,,,,キュー,0
1127,5010701048002,新規,0,2025-07-15,2025-07-15,株式会社池彦商店,,株式会社,東京都,品川区,西品川３丁目３－１ヴェルビュ大崎３０３,,13,109,1410033,,,,,,,2025-07-15,1,,,,,イケヒコショウテン,0
1138,5011001171048,新規,0,2025-07-15,2025-07-15,株式会社ＹａｍａＴｒｉｐｓ,,株式会社,東京都,渋谷区,円山町５番３号ＭＩＥＵＸ渋谷ビル８階,,13,113,1500044,,,,,,,2025-07-15,1,,,,,ヤマトリップス,0
1142,5011101112389,新規,0,2025-07-15,2025-07-15,株式会社ＲＥＡＣＴ,,株式会社,東京都,新宿区,西新宿４丁目８番１１号ＳＨＩＮＪＵＫＵＮＥＷＶＩＬＬＡ１０３,,13,104,1600023,,,,,,,2025-07-15,1,,,,,リアクト,0
1143,5011101112447,新規,0,2025-07-15,2025-07-15,友和株式会社,,株式会社,東京都,新宿区,百人町１丁目１８－８大久保カドビルＬｉｎｋＳｐａｃｅ百人町Ｂ０２,,13,104,1690073,,,,,,,2025-07-15,1,,,,,ユウワ,0
1145,5011401027246,新規,0,2025-07-15,2025-07-15,官倉株式会社,,株式会社,東京都,板橋区,大山東町５８－１０フラット大山３０３,,13,119,1730014,,,,,,,2025-07-15,1,,,,,カンソウ,0
1146,5011402008286,新規,0,2025-07-15,2025-07-15,有限会社松岡光学硝子加工所,,有限会社,東京都,板橋区,中丸町４８番１０号,,13,119,1730026,,,,,,,2025-07-15,1,,,,,マツオカコウガクガラスカコウジョ,0
1147,5011503006610,新規,0,2025-07-15,2025-07-15,合同会社タケ,,合同会社,東京都,北区,西が丘１丁目３３番１４号,,13,117,1150056,,,,,,,2025-07-15,1,,,,,タケ,0
1153,5012803003801,新規,0,2025-07-15,2025-07-15,合同会社ＮＯＥＳＩＳ,,合同会社,東京都,東大和市,桜が丘３丁目４４番地の１３桜が丘団地２２－３０４号,,13,220,2070022,,,,,,,2025-07-15,1,,,,,ノエシス,0
1154,5013103001470,新規,0,2025-07-15,2025-07-15,合同会社ＴＯＲＩＤＯＲＩ,,合同会社,東京都,青梅市,野上町３丁目４番地の３広瀬ビル１階,,13,205,1980032,,,,,,,2025-07-15,1,,,,,トリドリ,0
1165,5021001085651,新規,0,2025-07-15,2025-07-15,株式会社アドムス,,株式会社,神奈川県,厚木市,上荻野５６１３番地,,14,212,2430201,,,,,,,2025-07-15,1,,,,,アドムス,0
1166,5021001085759,新規,0,2025-07-15,2025-07-15,株式会社ｎｏｎ　ｖｅｒｂａｌ　ｃｏｍｍｕｎｉｃａｔｉｏｎ．,,株式会社,神奈川県,藤沢市,羽鳥５丁目８番２６号,,14,205,2510056,,,,,,,2025-07-15,1,,,,,ノンバーバルコミュニケーション,0
1167,5021001085775,新規,0,2025-07-15,2025-07-15,株式会社ポッシブル,,株式会社,神奈川県,相模原市緑区,下九沢２１２５番地１,,14,151,2520134,,,,,,,2025-07-15,1,,,,,ポッシブル,0
1168,5021001085791,新規,0,2025-07-15,2025-07-15,株式会社ＳＡＩＴＯ　ＫＯＧＹＯ,,株式会社,神奈川県,平塚市,東真土３丁目４番４－２号,,14,203,2540018,,,,,,,2025-07-15,1,,,,,サイトウコウギョウ,0
1170,5021003016258,新規,0,2025-07-15,2025-07-15,合同会社イマダケ,,合同会社,神奈川県,茅ヶ崎市,松浪２丁目１－１１,,14,207,2530022,,,,,,,2025-07-15,1,,,,,イマダケ,0
1171,5021005013402,新規,0,2025-07-15,2025-07-15,一般社団法人Ｒｅｌａｙ,,その他の設立登記法人,神奈川県,逗子市,桜山９丁目３－３８－８０２,,14,208,2490005,,,,,,,2025-07-15,1,,,,,リレイ,0
1184,5030005022214,新規,0,2025-07-15,2025-07-15,一般社団法人後藤アソシエイツ教育研究会,,その他の設立登記法人,埼玉県,鶴ヶ島市,脚折町３丁目２３番１号,,11,241,3502211,,,,,,,2025-07-15,1,,,,,ゴトウアソシエイツキョウイクケンキュウカイ,0
1186,5040001139597,新規,0,2025-07-15,2025-07-15,株式会社こものり,,株式会社,千葉県,浦安市,舞浜２丁目２１番９号,,12,227,2790031,,,,,,,2025-07-15,1,,,,,コモノリ,0
1187,5040001139639,新規,0,2025-07-15,2025-07-15,株式会社ＤＰＲ,,株式会社,千葉県,佐倉市,上座１１８７番地６コートヴィレッジ１０５,,12,212,2850854,,,,,,,2025-07-15,1,,,,,ディーピーアール,0
1188,5040001139671,新規,0,2025-07-15,2025-07-15,株式会社ＡＬＡＮ,,株式会社,千葉県,船橋市,前原西２丁目１４番５号榊原第二ビル５Ｆ,00139929,12,204,2740825,,,,,,,2025-07-15,1,,,,,アラン,0
1189,5040003028022,新規,0,2025-07-15,2025-07-15,合同会社Ｋ．Ｎ．Ｙ,,合同会社,千葉県,船橋市,夏見３丁目１９－２６,,12,204,2730865,,,,,,,2025-07-15,1,,,,,ケーエヌワイ,0
1190,5040003028030,新規,0,2025-07-15,2025-07-15,ロボリフォ合同会社,,合同会社,千葉県,船橋市,金杉４丁目２０番６号,,12,204,2730853,,,,,,,2025-07-15,1,,,,,ロボリフォ,0
1195,5050003009434,新規,0,2025-07-15,2025-07-15,合同会社ＰＡＮＪＴＡＮ　ＴＲＡＤＥＲ,,合同会社,茨城県,筑西市,女方１０２１番地３,,08,227,3080854,,,,,,,2025-07-15,1,,,,,パンジャタントレーダー,0
1196,5050005013665,新規,0,2025-07-15,2025-07-15,一般社団法人ひたちなかＢＡＳＥ,,その他の設立登記法人,茨城県,ひたちなか市,赤坂２４７３番地１,,08,221,3111241,,,,,,,2025-07-15,1,,,,,ヒタチナカベース,0
1202,5090001019373,新規,0,2025-07-15,2025-07-15,株式会社クリスタルキングダム,,株式会社,山梨県,甲斐市,龍地２７５３番地３,,19,210,4000104,,,,,,,2025-07-15,1,,,,,クリスタルキングダム,0
1217,5120001277703,新規,0,2025-07-15,2025-07-15,繁栄株式会社,,株式会社,大阪府,大阪市東淀川区,下新庄４丁目８－２１,,27,114,5330021,,,,,,,2025-07-15,1,,,,,ハンエイ,0
1218,5120001277711,新規,0,2025-07-15,2025-07-15,ＭＴ＆Ｄ株式会社,,株式会社,大阪府,大阪市淀川区,宮原２丁目１２番１４－７１４号,,27,123,5320003,,,,,,,2025-07-15,1,,,,,エムティーアンドディー,0
1219,5120001277760,新規,0,2025-07-15,2025-07-15,株式会社駐車場,,株式会社,大阪府,大阪市中央区,北新町３番１号,,27,128,5400023,,,,,,,2025-07-15,1,,,,,チュウシャジョウ,0
1220,5120001277802,新規,0,2025-07-15,2025-07-15,株式会社扇,,株式会社,大阪府,大阪市東成区,深江南２丁目９番１３号,,27,115,5370002,,,,,,,2025-07-15,1,,,,,オウギ,0
1221,5120001277819,新規,0,2025-07-15,2025-07-15,株式会社ＭＧ　ＣＯＤＥ,,株式会社,大阪府,大阪市中央区,西心斎橋２丁目９番３７号プライブ八幡ビル３Ｆ,,27,128,5420086,,,,,,,2025-07-15,1,,,,,エムジーコード,0
1222,5120001277827,新規,0,2025-07-15,2025-07-15,高強産業株式会社,,株式会社,大阪府,大阪市生野区,小路東５丁目３－８,,27,116,5440003,,,,,,,2025-07-15,1,,,,,コウキョウサンギョウ,0
1223,5120001277835,新規,0,2025-07-15,2025-07-15,株式会社誠和,,株式会社,大阪府,大阪市都島区,内代町３丁目９番３０－１４０３号,,27,102,5340013,,,,,,,2025-07-15,1,,,,,セイワ,0
1228,5120005025042,新規,0,2025-07-15,2025-07-15,医療法人紬幸会,,その他の設立登記法人,大阪府,大阪市天王寺区,上汐６丁目３番１１号山本ビル１階,,27,109,5430002,,,,,,,2025-07-15,1,,,,,ツユキカイ,0
1235,5120105010035,新規,0,2025-07-15,2025-07-15,医療法人ＷＤＣ,,その他の設立登記法人,大阪府,堺市北区,百舌鳥本町１丁１番４Ｓｉｇｎｅｔ百舌鳥１０１,,27,146,5918036,,,,,,,2025-07-15,1,,,,,ダブルディーシー,0
1248,5140001139174,新規,0,2025-07-15,2025-07-15,株式会社ＢＡＲＮＳ,,株式会社,兵庫県,淡路市,郡家１３３７番地,,28,226,6561511,,,,,,,2025-07-15,1,,,,,バーンズ,0
1249,5140001139257,新規,0,2025-07-15,2025-07-15,株式会社ＤＯＧＥＦＬＹ,,株式会社,兵庫県,神戸市長田区,長尾町２丁目１８－１５,,28,106,6530855,,,,,,,2025-07-15,1,,,,,ドージフライ,0
1250,5140001139281,新規,0,2025-07-15,2025-07-15,湯舟電機株式会社,,株式会社,兵庫県,尼崎市,尾浜町２丁目２１番３５号セレニティ塚口南６０１号室,,28,202,6610022,,,,,,,2025-07-15,1,,,,,ユフネデンキ,0
1251,5140001139307,新規,0,2025-07-15,2025-07-15,株式会社心興,,株式会社,兵庫県,明石市,松が丘３丁目８番２０号,,28,203,6730862,,,,,,,2025-07-15,1,,,,,シンコウ,0
1258,5150001028260,新規,0,2025-07-15,2025-07-15,株式会社ＹＦＡ,,株式会社,奈良県,大和郡山市,今国府町６０番地の１５,,29,203,6391031,,,,,,,2025-07-15,1,,,,,ワイエフエー,0
1262,5170001018714,新規,0,2025-07-15,2025-07-15,株式会社アセットマネジメント,,株式会社,和歌山県,橋本市,高野口町応其３２０番地の１,,30,203,6497201,,,,,,,2025-07-15,1,,,,,アセットマネジメント,0
1272,5180003028719,新規,0,2025-07-15,2025-07-15,フォレストレジデンス合同会社,,合同会社,愛知県,長久手市,山野田１６０１番地１０,,23,238,4801113,,,,,,,2025-07-15,1,,,,,フォレストレジデンス,0
1278,5190001032399,新規,0,2025-07-15,2025-07-15,株式会社エム・ラック,,株式会社,三重県,津市,垂水７４５番地２５,,24,201,5140821,,,,,,,2025-07-15,1,,,,,エムラック,0
1280,5200001044021,新規,0,2025-07-15,2025-07-15,株式会社フォアエンム,,株式会社,岐阜県,岐阜市,太郎丸新屋敷４８番地,,21,201,5012576,,,,,,,2025-07-15,1,,,,,フォアエンム,0
1288,5230001021001,新規,0,2025-07-15,2025-07-15,氷見スマートアクアテック株式会社,,株式会社,富山県,氷見市,小窪１３８３番地,,16,205,9350257,,,,,,,2025-07-15,1,,,,,ヒミスマートアクアテック,0
1294,5240005015964,新規,0,2025-07-15,2025-07-15,一般社団法人ＡＲＴ　ＬＩＮＫ,,その他の設立登記法人,広島県,廿日市市,阿品４丁目４７番６号阿品ビル３Ｆ,,34,213,7380054,,,,,,,2025-07-15,1,,,,,アートリンク,0
1299,5260001040361,新規,0,2025-07-15,2025-07-15,株式会社デスタン,,株式会社,岡山県,岡山市北区,野田２丁目２番３５号上杉第３ビル野田７０５,,33,101,7000971,,,,,,,2025-07-15,1,,,,,デスタン,0
1302,5260003005263,新規,0,2025-07-15,2025-07-15,ＲＪ　ＢＲＯＴＨＥＲＳ合同会社,,合同会社,岡山県,岡山市中区,浜１丁目６番１５号メゾン司Ｂ３０２,,33,102,7038256,,,,,,,2025-07-15,1,,,,,アールジェーブラザーズ,0
1303,5270001009232,新規,0,2025-07-15,2025-07-15,楓建設株式会社,,株式会社,鳥取県,米子市,両三柳３５７０番地,,31,202,6830853,,,,,,,2025-07-15,1,,,,,カエデケンセツ,0
1311,5290001110723,新規,0,2025-07-15,2025-07-15,株式会社西日本防災技研,,株式会社,福岡県,福岡市西区,愛宕２丁目１１－３４－１１１,,40,135,8190015,,,,,,,2025-07-15,1,,,,,ニシニホンボウサイギケン,0
1312,5290001110748,新規,0,2025-07-15,2025-07-15,石内株式会社,,株式会社,福岡県,福岡市東区,香椎照葉７丁目２番２３号,,40,131,8130017,,,,,,,2025-07-15,1,,,,,イシウチ,0
1313,5290001110756,新規,0,2025-07-15,2025-07-15,株式会社ＴＯＷＡＴＡ,,株式会社,福岡県,福岡市中央区,長浜３丁目１番１６－９０１号,,40,133,8100072,,,,,,,2025-07-15,1,,,,,トワタ,0
1315,5290801031714,新規,0,2025-07-15,2025-07-15,株式会社Ｓｈｉｂａ‐Ｈｏｍｅ,,株式会社,福岡県,直方市,大字感田２１５８番地６ダイワーズ感田ベースＩ１号室,00139923,40,204,8220001,,,,,,,2025-07-15,1,,,,,シバホーム,0
1319,5300001014278,新規,0,2025-07-15,2025-07-15,Ａ＆Ｈメディカルサポート株式会社,,株式会社,佐賀県,杵島郡江北町,大字佐留志２０３２番地２,,41,424,8490502,,,,,,,2025-07-15,1,,,,,エーアンドエイチメディカルサポート,0
1321,5300003002314,新規,0,2025-07-15,2025-07-15,合同会社ＫＨＦ,,合同会社,佐賀県,唐津市,相知町町切字野添８５３番地１,,41,202,8493216,,,,,,,2025-07-15,1,,,,,ケイエイチエフ,0
1323,5310001019706,新規,0,2025-07-15,2025-07-15,株式会社おくるかたち,,株式会社,長崎県,佐世保市,日野町９６１－２,,42,202,8580923,,,,,,,2025-07-15,1,,,,,オクルカタチ,0
1327,5330001033399,新規,0,2025-07-15,2025-07-15,株式会社鮨やまと,,株式会社,熊本県,熊本市南区,荒尾２丁目２番２０号,,43,104,8614136,,,,,,,2025-07-15,1,,,,,スシヤマト,0
1336,5350003004982,新規,0,2025-07-15,2025-07-15,合同会社ＴＥＮＫＩ,,合同会社,宮崎県,都城市,上川東４丁目５９７５番地１ＣＯＮＮＥＣＴ２Ｆ,,45,202,8850012,,,,,,,2025-07-15,1,,,,,テンキ,0
1342,5360003015087,新規,0,2025-07-15,2025-07-15,ＲＡＲＥ　ＰＬＡＮＴ　ＬＡＢ合同会社,,合同会社,沖縄県,豊見城市,字保栄茂１８１番地２,,47,212,9010214,,,,,,,2025-07-15,1,,,,,レアプラントラボ,0
1343,5360003015104,新規,0,2025-07-15,2025-07-15,ジェネリアム合同会社,,合同会社,沖縄県,那覇市,久茂地３丁目２６－３２ＹＳＣビル２０２,,47,201,9000015,,,,,,,2025-07-15,1,,,,,ジェネリアム,0
1347,5430001094852,新規,0,2025-07-15,2025-07-15,株式会社ＤｏｏｏｏｏＳ,,株式会社,北海道,札幌市北区,新琴似五条７丁目７番１６号,,01,102,0010905,,,,,,,2025-07-15,1,,,,,ドウズ,0
1350,5430003017844,新規,0,2025-07-15,2025-07-15,合同会社３ｒｄ,,合同会社,北海道,札幌市北区,新川８０１番１５４,,01,102,0010930,,,,,,,2025-07-15,1,,,,,サード,0
1354,5470003002925,新規,0,2025-07-15,2025-07-15,合同会社さぬきグッドデザインカンパニー,,合同会社,香川県,さぬき市,志度５００６番地５２,,37,206,7692101,,,,,,,2025-07-15,1,,,,,サヌキグッドデザインカンパニー,0
1355,5480001012891,新規,0,2025-07-15,2025-07-15,株式会社Ｆｏｒｇｅ０１,,株式会社,徳島県,徳島市,中常三島町３丁目１４番地の１ロイヤルガーデン中常三島弐番館８０２号室,,36,201,7700813,,,,,,,2025-07-15,1,,,,,フォージゼロイチ,0
1356,5480003002288,新規,0,2025-07-15,2025-07-15,合同会社ＢＩＧ　ＴＲＥＥ,,合同会社,徳島県,徳島市,国府町南岩延７９２番地１西陣ビル１Ｆ,,36,201,7793120,,,,,,,2025-07-15,1,,,,,ビッグツリー,0
1362,5700150131379,新規,0,2025-07-15,2025-07-15,ＭＡＤＩＮＡＨ　ＫＡＮＫＡ　ＰＲＩＶＡＴＥ　ＬＩＭＩＴＥＤ,,外国会社等,神奈川県,厚木市,関口１０１３－１コーポ一心３－１０５,,14,212,2430804,スリランカ民主社会主義共和国，トリンコマリー、ムトゥール、６４マイルポスト、ジャバルナガル,,,,,,2025-07-15,1,,,,,マデイナカンカプライベートリミテツド,0
1363,5700150131387,新規,0,2025-07-15,2025-07-15,ｈａｎｇｚｈｏｕｙｕｃｈｅｎｇｄｉａｎｚｉｓｈａｎｇｗｕｙｏｕｘｉａｎｇｏｎｇｓｉ,,外国会社等,,,,,,,,Ｒｏｏｍ　５２８－４１，Ｎｏ．３６－１　Ｈｕｚｈｏｕ　Ｓｔｒｅｅｔ　Ｇｏｎｇｓｈｕ　Ｄｉｓｔｒｉｃｔ，Ｈａｎｇｚｈｏｕ，Ｚｈｅｊｉａｎｇ，Ｃｈｉｎａ　３１１１００　ＣＮ,,,,,,2025-07-15,1,,,,,ハンジョウイーチョンディエンズーシャンウーヨウシエンゴンスー,0
1368,6010001256733,新規,0,2025-07-15,2025-07-15,株式会社ＯＢＬＩＶＩＯＮＤＥＳＩＲＥ,,株式会社,東京都,中央区,銀座１丁目２２番１１号銀座大竹ビジデンス２Ｆ,,13,102,1040061,,,,,,,2025-07-15,1,,,,,オブリビオンデザイア,0
1369,6010001256758,新規,0,2025-07-15,2025-07-15,株式会社Ａｓｓｅｔ‐Ａｇｅｎｃｙ,,株式会社,東京都,中央区,銀座１丁目１２番４号Ｎ＆Ｅ・ＢＬＤ．７階,,13,102,1040061,,,,,,,2025-07-15,1,,,,,アセットエージェンシー,0
1370,6010001256865,新規,0,2025-07-15,2025-07-15,信明電子株式会社,,株式会社,東京都,文京区,白山１丁目６番４号文京ＶｅｎｔｕｒｅＢａｓｅ２２３室,,13,105,1130001,,,,,,,2025-07-15,1,,,,,シンメイデンシ,0
1371,6010001256873,新規,0,2025-07-15,2025-07-15,株式会社ＳＫ,,株式会社,東京都,中央区,銀座１丁目１２番４号Ｎ＆ＥＢＬＤ．６Ｆ,,13,102,1040061,,,,,,,2025-07-15,1,,,,,エスケー,0
1372,6010001256898,新規,0,2025-07-15,2025-07-15,駿夢天空株式会社,,株式会社,東京都,中央区,日本橋兜町１７番１の３１１号室,,13,102,1030026,,,,,,,2025-07-15,1,,,,,シュンムテンクウ,0
1383,6010401191720,新規,0,2025-07-15,2025-07-15,ビー・エックス・ジェイ・イー・ツー・ホールディング株式会社,,株式会社,東京都,港区,虎ノ門５丁目１番４号,,13,103,1050001,,,,,,,2025-07-15,1,,,,,ビーエックスジェイイーツーホールディング,0
1391,6010603011676,新規,0,2025-07-15,2025-07-15,合同会社ＣＡＰＳＵＬＥ,,合同会社,東京都,墨田区,墨田４丁目３６番２号,,13,107,1310031,,,,,,,2025-07-15,1,,,,,カプセル,0
1398,6010901004992,新規,0,2025-07-15,2025-07-15,株式会社サンヨコ,,株式会社,東京都,世田谷区,赤堤１丁目３６番１５号,,13,112,1560044,,,,,,,2025-07-15,1,,,,,,0
1400,6010901057751,新規,0,2025-07-15,2025-07-15,株式会社ポジショニングラボ,,株式会社,東京都,世田谷区,下馬３丁目３１番２２－２０１号,,13,112,1540002,,,,,,,2025-07-15,1,,,,,ポジショニングラボ,0
1405,6011001170759,新規,0,2025-07-15,2025-07-15,株式会社ＩＲＩＳＥ,,株式会社,東京都,渋谷区,道玄坂１丁目１０－８、２Ｆ－Ｃ,,13,113,1500043,,,,,,,2025-07-15,1,,,,,イリゼ,0
1406,6011001170973,新規,0,2025-07-15,2025-07-15,株式会社ＣｏｃｏＳｍｉｌｅ,,株式会社,東京都,目黒区,緑が丘２丁目４番４号,,13,110,1520034,,,,,,,2025-07-15,1,,,,,ココスマイル,0
1407,6011001171105,新規,0,2025-07-15,2025-07-15,株式会社ｋｏｂｕｓｈｉ,,株式会社,東京都,渋谷区,道玄坂２丁目１５番１－２２５号,,13,113,1500043,,,,,,,2025-07-15,1,,,,,コブシ,0
1415,6011105011495,新規,0,2025-07-15,2025-07-15,税理士法人グレーシズ,,その他の設立登記法人,東京都,新宿区,下宮比町２番２６号,,13,104,1620822,,,,,,,2025-07-15,1,,,,,グレーシズ,0
1421,6011401027253,新規,0,2025-07-15,2025-07-15,ゼットファースト株式会社,,株式会社,東京都,板橋区,南町６０番３号,,13,119,1730027,,,,,,,2025-07-15,1,,,,,ゼットファースト,0
1425,6011701028513,新規,0,2025-07-15,2025-07-15,株式会社日本心待本舗,,株式会社,東京都,江戸川区,中央２丁目１５－１０関口ビル３０１,,13,123,1320021,,,,,,,2025-07-15,1,,,,,ニホンコマチホンポ,0
1429,6011801046448,新規,0,2025-07-15,2025-07-15,Ｖｅｒｄａｎｄｉ・ＧＦ株式会社,,株式会社,東京都,葛飾区,奥戸６丁目２０番１２号,,13,122,1240022,,,,,,,2025-07-15,1,,,,,ヴェルダンディジーエフ,0
1430,6011801046464,新規,0,2025-07-15,2025-07-15,株式会社Ｔｉｎｙ　Ａｄｖａｎｃｅ,,株式会社,東京都,足立区,古千谷本町２丁目２３番２６号シャンプラージュ１０３,,13,121,1210832,,,,,,,2025-07-15,1,,,,,タイニーアドバンス,0
1434,6012801024113,新規,0,2025-07-15,2025-07-15,株式会社Ｔ・Ｒ　ＥＮＴＥＲＰＲＩＳＥ,,株式会社,東京都,国分寺市,泉町３丁目３０番１号,,13,214,1850024,,,,,,,2025-07-15,1,,,,,ティーアールエンタープライズ,0
1436,6012805003352,新規,0,2025-07-15,2025-07-15,一般社団法人たまみらいラボ,,その他の設立登記法人,東京都,立川市,曙町２丁目３２番８号,,13,202,1900012,,,,,,,2025-07-15,1,,,,,,0
1437,6013301054600,新規,0,2025-07-15,2025-07-15,株式会社じゃり道カンパニ,,株式会社,東京都,豊島区,要町３丁目３８番７号,,13,116,1710043,,,,,,,2025-07-15,1,,,,,ジャリミチカンパニ,0
1444,6020001163821,新規,0,2025-07-15,2025-07-15,株式会社ＲＲＳ,,株式会社,神奈川県,横浜市都筑区,すみれが丘１７ー４９,,14,118,2240013,,,,,,,2025-07-15,1,,,,,アールアールエス,0
1447,6020003028709,新規,0,2025-07-15,2025-07-15,合同会社ソウゾウ,,合同会社,神奈川県,横浜市中区,石川町１丁目１３－２エネクル横浜元町テラスザハブ２０６,,14,104,2310868,,,,,,,2025-07-15,1,,,,,ソウゾウ,0
1450,6021001085774,新規,0,2025-07-15,2025-07-15,株式会社小坂左官工藝店,,株式会社,神奈川県,小田原市,曽我別所６４２番地,,14,206,2500205,,,,,,,2025-07-15,1,,,,,コサカサカンコウゲイテン,0
1459,6030001167631,新規,0,2025-07-15,2025-07-15,株式会社一福,,株式会社,埼玉県,新座市,新堀１丁目１５－５－４０４,,11,230,3520032,,,,,,,2025-07-15,1,,,,,イチフク,0
1464,6030003027197,新規,0,2025-07-15,2025-07-15,合同会社濱野運送,,合同会社,埼玉県,春日部市,椚４３７番地１,,11,214,3440133,,,,,,,2025-07-15,1,,,,,ハマノウンソウ,0
1470,6040001139646,新規,0,2025-07-15,2025-07-15,株式会社ｆｒｅｅ,,株式会社,千葉県,木更津市,祇園１丁目２４番９号アメニティ祇園２０２号室,,12,206,2920052,,,,,,,2025-07-15,1,,,,,フリー,0
1476,6050003009433,新規,0,2025-07-15,2025-07-15,アイロード合同会社,,合同会社,茨城県,那珂市,菅谷２３５６番地１丸金テナント,,08,226,3110105,,,,,,,2025-07-15,1,,,,,アイロード,0
1477,6050005013664,新規,0,2025-07-15,2025-07-15,フィールドワークス土地家屋調査士法人,,その他の設立登記法人,茨城県,筑西市,二木成１２６５番地,,08,227,3080841,,,,,,,2025-07-15,1,,,,,フィールドワークス,0
1487,6100003008289,新規,0,2025-07-15,2025-07-15,トゲルビズ合同会社,,合同会社,長野県,千曲市,大字寂蒔３３０番地５,,20,218,3870016,,,,,,,2025-07-15,1,,,,,トゲルビズ,0
1494,6120001277719,新規,0,2025-07-15,2025-07-15,株式会社ＡＵＲＡ,,株式会社,大阪府,大阪市北区,中津１丁目１８番６号冨士アネックス５０３号,,27,127,5310071,,,,,,,2025-07-15,1,,,,,オーラ,0
1495,6120001277801,新規,0,2025-07-15,2025-07-15,株式会社プラスツーシステム,,株式会社,大阪府,大阪市北区,梅田１丁目２番２号大阪駅前第２ビル１２－１２,,27,127,5300001,,,,,,,2025-07-15,1,,,,,プラスツーシステム,0
1496,6120001277818,新規,0,2025-07-15,2025-07-15,株式会社ＮＳＩＳ,,株式会社,大阪府,大阪市東淀川区,東淡路１丁目５番４,,27,114,5330023,,,,,,,2025-07-15,1,,,,,エヌエスアイエス,0
1497,6120001277834,新規,0,2025-07-15,2025-07-15,株式会社しろくま,,株式会社,大阪府,大阪市天王寺区,上汐３丁目１－６イオ上本町９０２,,27,109,5430002,,,,,,,2025-07-15,1,,,,,シロクマ,0
1498,6120001277867,新規,0,2025-07-15,2025-07-15,株式会社なおでん,,株式会社,大阪府,大阪市平野区,加美東４丁目２番２９号,,27,126,5470002,,,,,,,2025-07-15,1,,,,,ナオデン,0
1499,6120003030027,新規,0,2025-07-15,2025-07-15,ＨＴＴＣ合同会社,,合同会社,大阪府,大阪市西成区,千本南２丁目１１番１２号シティハイツ千本南Ｉ１０１号,00139927,27,122,5570055,,,,,,,2025-07-15,1,,,,,エイチティーティーシー,0
1506,6120103006570,新規,0,2025-07-15,2025-07-15,合同会社登龍,,合同会社,大阪府,大阪狭山市,池尻中１丁目７－９,,27,231,5890007,,,,,,,2025-07-15,1,,,,,トウリュウ,0
1519,6140001139223,新規,0,2025-07-15,2025-07-15,株式会社Ｍｉｌｌｅ,,株式会社,兵庫県,尼崎市,昭和南通４丁目４３番地,,28,202,6600882,,,,,,,2025-07-15,1,,,,,セン,0
1520,6140001139280,新規,0,2025-07-15,2025-07-15,大久保中央不動産株式会社,,株式会社,兵庫県,明石市,大久保町駅前１丁目１０番地の１７,,28,203,6740058,,,,,,,2025-07-15,1,,,,,オオクボチュウオウフドウサン,0
1521,6140001139289,新規,0,2025-07-15,2025-07-15,株式会社アイホールディングス,,株式会社,兵庫県,神戸市中央区,磯辺通２丁目２番２５号,,28,110,6510084,,,,,,,2025-07-15,1,,,,,アイホールディングス,0
1522,6140001139297,新規,0,2025-07-15,2025-07-15,関西ＫＲ　ＧＲＯＵＰ株式会社,,株式会社,兵庫県,加西市,繁昌町１５５０番地の２１４,,28,220,6752101,,,,,,,2025-07-15,1,,,,,カンサイケーアールグループ,0
1523,6140001139322,新規,0,2025-07-15,2025-07-15,株式会社ともよドリーム,,株式会社,兵庫県,宝塚市,南口１丁目１４番５号,,28,214,6650011,,,,,,,2025-07-15,1,,,,,トモヨドリーム,0
1526,6140003022303,新規,0,2025-07-15,2025-07-15,木漏れ日合同会社,,合同会社,兵庫県,西宮市,下大市西町３番１６－１０６号,,28,204,6638005,,,,,,,2025-07-15,1,,,,,コモレビ,0
1527,6140003022311,新規,0,2025-07-15,2025-07-15,合同会社ＪＴＮ,,合同会社,兵庫県,神戸市中央区,元町通６丁目２番地１０－１４０６号,,28,110,6500022,,,,,,,2025-07-15,1,,,,,ジェイティエヌ,0
1530,6140005027564,新規,0,2025-07-15,2025-07-15,一般社団法人Ｎａｏｅ　Ｍｕｓｉｑｕｅ,,その他の設立登記法人,兵庫県,芦屋市,東芦屋町７番５号,00139935,28,206,6590095,,,,,,,2025-07-15,1,,,,,ナオエミュジーク,0
1531,6150003003657,新規,0,2025-07-15,2025-07-15,Ｙ’ｚリアルエステート合同会社,,合同会社,奈良県,奈良市,二名２丁目２４９５番地の１ライオンズマンション富雄Ｂ－１００４,,29,201,6310072,,,,,,,2025-07-15,1,,,,,ワイズリアルエステート,0
1550,6180001167765,新規,0,2025-07-15,2025-07-15,株式会社ＳＵＮＮＹ,,株式会社,愛知県,稲沢市,井之口小番戸町４６番地,,23,220,4928162,,,,,,,2025-07-15,1,,,,,サニー,0
1552,6180003028750,新規,0,2025-07-15,2025-07-15,合同会社あおい,,合同会社,愛知県,一宮市,下沼町４丁目２６番地３,,23,203,4910032,,,,,,,2025-07-15,1,,,,,アオイ,0
1555,6200001044020,新規,0,2025-07-15,2025-07-15,株式会社カミノス,,株式会社,岐阜県,郡上市,明宝気良１７５３番地,,21,219,5014303,,,,,,,2025-07-15,1,,,,,カミノス,0
1558,6220001026792,新規,0,2025-07-15,2025-07-15,株式会社珠洲投資,,株式会社,石川県,珠洲市,上戸町南方エ字７２番地１,,17,205,9271217,,,,,,,2025-07-15,1,,,,,スズトウシ,0
1562,6240001065203,新規,0,2025-07-15,2025-07-15,株式会社Ｋ’ｓ　Ｊａｐａｎ,,株式会社,広島県,東広島市,入野中山台４丁目８番１９号,,34,212,7392209,,,,,,,2025-07-15,1,,,,,ケイズジャパン,0
1582,6290001110763,新規,0,2025-07-15,2025-07-15,株式会社スリーサイズヘルステック,,株式会社,福岡県,福岡市南区,平和２丁目１５番１５号,,40,134,8150071,,,,,,,2025-07-15,1,,,,,スリーサイズヘルステック,0
1588,6320001021214,新規,0,2025-07-15,2025-07-15,株式会社名護屋土木,,株式会社,大分県,佐伯市,蒲江大字森崎浦３７１番地１,,44,205,8762404,,,,,,,2025-07-15,1,,,,,ナゴヤドボク,0
1589,6320001021222,新規,0,2025-07-15,2025-07-15,株式会社イーアールエス,,株式会社,大分県,宇佐市,大字出光３４６番地の１,,44,211,8791131,,,,,,,2025-07-15,1,,,,,イーアールエス,0
1591,6330003011121,新規,0,2025-07-15,2025-07-15,合同会社ｎｏｎｏ,,合同会社,熊本県,熊本市北区,鶴羽田２丁目８番３号,,43,105,8615517,,,,,,,2025-07-15,1,,,,,ノノ,0
1592,6350003004973,新規,0,2025-07-15,2025-07-15,合同会社ｐｉｌｉｎａ,,合同会社,宮崎県,宮崎市,清武町船引５１番地,,45,201,8891604,,,,,,,2025-07-15,1,,,,,ピリナ,0
1597,6380001035464,新規,0,2025-07-15,2025-07-15,株式会社農研究所,,株式会社,福島県,田村郡三春町,大字込木字柳ケ作４９番地,,07,521,9637712,,,,,,,2025-07-15,1,,,,,ミノリケンキュウジョ,0
1601,6430001094810,新規,0,2025-07-15,2025-07-15,株式会社ＤＦＩＥＬＤ,,株式会社,北海道,札幌市西区,西野三条７丁目３番１４号,,01,107,0630033,,,,,,,2025-07-15,1,,,,,ディーフィールド,0
1602,6430001094851,新規,0,2025-07-15,2025-07-15,株式会社五十嵐サービス,,株式会社,北海道,札幌市東区,東苗穂一条１丁目１番３９号,,01,103,0070801,,,,,,,2025-07-15,1,,,,,イガラシサービス,0
1603,6430001094868,新規,0,2025-07-15,2025-07-15,株式会社マールテック,,株式会社,北海道,札幌市中央区,南十一条西２１丁目４番１０－２０３号,,01,101,0640811,,,,,,,2025-07-15,1,,,,,マールテック,0
1604,6430001094892,新規,0,2025-07-15,2025-07-15,株式会社ｅｆ,,株式会社,北海道,札幌市東区,東苗穂十二条３丁目２３番５号,,01,103,0070812,,,,,,,2025-07-15,1,,,,,イーエフ,0
1605,6430001094901,新規,0,2025-07-15,2025-07-15,株式会社あわひ,,株式会社,北海道,札幌市北区,北九条西３丁目１４番地グランリュクス１０００号室,,01,102,0600809,,,,,,,2025-07-15,1,,,,,アワヒ,0
1607,6430003017884,新規,0,2025-07-15,2025-07-15,合同会社Ｆｕｎｂａ,,合同会社,北海道,札幌市中央区,南二条西５丁目３１番地１ＲＭＢｌｄ．７０１,,01,101,0600062,,,,,,,2025-07-15,1,,,,,ファンバ,0
1616,6700150103195,新規,0,2025-07-15,2021-05-14,花房放課後児童クラブ運営委員会,,その他,福岡県,北九州市若松区,大字小竹２２２７番地,,40,103,8080108,,,,,,,2021-05-14,1,,,,,ハナブサホウカゴジドウクラブウンエイイインカイ,0
1617,6700150131378,新規,0,2025-07-15,2025-07-15,ＨＩＫＭＡ　ＭＯＴＯＲＳ　ＰＶＴ　ＬＴＤ,,外国会社等,神奈川県,厚木市,下依知２丁目１６番１３号セントジョージハウス１０１,,14,212,2430806,スリランカ民主社会主義共和国、キャンディ、アクラナ、ウッガラ、２０４／Ｂ,,,,,,2025-07-15,1,,,,,ヒクマモータースプライベートリミテツド,0
1618,6700150131386,新規,0,2025-07-15,2025-07-15,ＣＡＲ　ＭＡＲＴ　ＴＡＲＤＩＮＧ,,外国会社等,千葉県,長生郡長生村,水口１２４１番地３０オフィス２Ｂ号,,12,423,2994335,スリランカ民主社会主義共和国、アンバテンナ、マタレロード、Ｎｏ．４１／Ｂ,,,,,,2025-07-15,1,,,,,カーマートトレーデイング,0
1621,7010001256872,新規,0,2025-07-15,2025-07-15,株式会社ＣＬＩＯＳ,,株式会社,東京都,文京区,本郷３丁目５－１ハイライフホーム御茶ノ水ビル５Ｆ,,13,105,1130033,,,,,,,2025-07-15,1,,,,,クリオス,0
1628,7010403035478,新規,0,2025-07-15,2025-07-15,合同会社ＣＦＡＭ　ＭＩＮＥ,,合同会社,東京都,港区,北青山１丁目３番地３‐３Ｆ,,13,103,1070061,,,,,,,2025-07-15,1,,,,,シーファムマイン,0
1642,7010701048000,新規,0,2025-07-15,2025-07-15,株式会社ＡＲＵＲＡＤＯ,,株式会社,東京都,品川区,平塚１丁目３番１２号第３田野和レジデンス４０２,,13,109,1420051,,,,,,,2025-07-15,1,,,,,アルラド,0
1643,7010703007796,新規,0,2025-07-15,2025-07-15,合同会社アンテレ,,合同会社,東京都,品川区,上大崎３丁目１２番１－３０４号,,13,109,1410021,,,,,,,2025-07-15,1,,,,,アンテレ,0
1644,7010703007805,新規,0,2025-07-15,2025-07-15,嘉名アセット・マネジメント合同会社,,合同会社,東京都,品川区,大崎１丁目２番３号,,13,109,1410032,,,,,,,2025-07-15,1,,,,,カナアセットマネジメント,0
1650,7010901057742,新規,0,2025-07-15,2025-07-15,関商店株式会社,,株式会社,東京都,世田谷区,松原１丁目３７番１７号米沢ビル４０１,,13,112,1560043,,,,,,,2025-07-15,1,,,,,セキショウテン,0
1660,7011003022024,新規,0,2025-07-15,2025-07-15,合同会社ふうた,,合同会社,東京都,渋谷区,恵比寿１丁目８－１８恵比寿森ビル５階,,13,113,1500013,,,,,,,2025-07-15,1,,,,,フウタ,0
1665,7011101112288,新規,0,2025-07-15,2025-07-15,株式会社オールイン,,株式会社,東京都,新宿区,歌舞伎町２丁目４２番１６号第二大滝ビル５ＡＢ号室,,13,104,1600021,,,,,,,2025-07-15,1,,,,,オールイン,0
1668,7011301030728,新規,0,2025-07-15,2025-07-15,株式会社輝耀電設,,株式会社,東京都,杉並区,下高井戸４丁目３５番１５号,,13,115,1680073,,,,,,,2025-07-15,1,,,,,,0
1675,7011803006969,新規,0,2025-07-15,2025-07-15,ＢＩＮＡＹＡ合同会社,,合同会社,東京都,足立区,鹿浜８丁目２９番１０号コーポ・ミノール２０３,,13,121,1230864,,,,,,,2025-07-15,1,,,,,ビーネ,0
1676,7012401043306,新規,0,2025-07-15,2025-07-15,株式会社ｐａｒｔｉｅｒ,,株式会社,東京都,稲城市,平尾２丁目６２－８,,13,225,2060823,,,,,,,2025-07-15,1,,,,,パルティエ,0
1677,7012403007242,新規,0,2025-07-15,2025-07-15,メディアトーレ合同会社,,合同会社,東京都,三鷹市,新川３丁目１０－２須藤ハイツ２０１,,13,204,1810004,,,,,,,2025-07-15,1,,,,,メディアトーレ,0
1680,7012803003799,新規,0,2025-07-15,2025-07-15,合同会社ケンコンテンツ,,合同会社,東京都,東大和市,湖畔３丁目１１５８－９０,,13,220,2070002,,,,,,,2025-07-15,1,,,,,ケンコンテンツ,0
1681,7013103001469,新規,0,2025-07-15,2025-07-15,合同会社カーケア＆セキュリティ,,合同会社,東京都,あきる野市,伊奈１５０４番地１５,,13,228,1900142,,,,,,,2025-07-15,1,,,,,カーケアアンドセキュリティ,0
1683,7013301054590,新規,0,2025-07-15,2025-07-15,株式会社ＲＥＺＯ,,株式会社,東京都,豊島区,南池袋２丁目３５番４号ユニティ池袋３Ｆ,,13,116,1710022,,,,,,,2025-07-15,1,,,,,リーゾ,0
1687,7013303007761,新規,0,2025-07-15,2025-07-15,合同会社ルミナス,,合同会社,東京都,豊島区,池袋本町１丁目１番１号歯研ビルＢ１,,13,116,1700011,,,,,,,2025-07-15,1,,,,,ルミナス,0
1691,7020005016917,新規,0,2025-07-15,2025-07-15,イルミナス行政書士法人,,その他の設立登記法人,神奈川県,川崎市多摩区,生田７丁目９－３,,14,135,2140038,,,,,,,2025-07-15,1,,,,,イルミナス,0
1694,7021001085674,新規,0,2025-07-15,2025-07-15,株式会社Ｔｏｍｏ,,株式会社,神奈川県,相模原市中央区,田名６０５２番地５,,14,152,2520244,,,,,,,2025-07-15,1,,,,,トモ,0
1695,7021001085773,新規,0,2025-07-15,2025-07-15,株式会社Ｅｍｉｌｅ,,株式会社,神奈川県,海老名市,扇町１４番２号,,14,215,2430436,,,,,,,2025-07-15,1,,,,,エミル,0
1696,7021001085781,新規,0,2025-07-15,2025-07-15,Ｓｔｅｌｌａｔｉｕｍ株式会社,,株式会社,神奈川県,相模原市中央区,千代田２丁目２番１５号メイプル１９９０ビル６０１,,14,152,2520237,,,,,,,2025-07-15,1,,,,,ステラティウム,0
1698,7021003016280,新規,0,2025-07-15,2025-07-15,ＡＩＺＡ　ＴＲＡＤＩＮＧ合同会社,,合同会社,神奈川県,愛甲郡清川村,煤ヶ谷２２５８番地３－２０１号,,14,402,2430112,,,,,,,2025-07-15,1,,,,,アイザトレーディング,0
1707,7030003027196,新規,0,2025-07-15,2025-07-15,合同会社ＲＵＲＵ　ｃｏｒｐｏｒａｔｉｏｎ,,合同会社,埼玉県,川越市,大字砂新田３８１－４４アウレット１０１号室,,11,201,3501137,,,,,,,2025-07-15,1,,,,,ルルコーポレーション,0
1710,7040001139620,新規,0,2025-07-15,2025-07-15,ＣＯＲＥ＆ＣＯ株式会社,,株式会社,千葉県,千葉市花見川区,柏井町１１８２番１,,12,102,2620041,,,,,,,2025-07-15,1,,,,,コアアンドコー,0
1711,7040001139629,新規,0,2025-07-15,2025-07-15,株式会社ｋ．ｋａｏｒｉｏ,,株式会社,千葉県,千葉市美浜区,磯辺２丁目１６番３号,,12,106,2610012,,,,,,,2025-07-15,1,,,,,ケイカオリオ,0
1712,7040001139637,新規,0,2025-07-15,2025-07-15,タイズゲート株式会社,,株式会社,千葉県,松戸市,新松戸２丁目８７番地の１,,12,207,2700034,,,,,,,2025-07-15,1,,,,,タイズゲート,0
1713,7040001139645,新規,0,2025-07-15,2025-07-15,株式会社Ｔ‐ＣＯＮ,,株式会社,千葉県,木更津市,金田東５丁目５番地４,,12,206,2920009,,,,,,,2025-07-15,1,,,,,ティーコン,0
1714,7040001139678,新規,0,2025-07-15,2025-07-15,株式会社Ｒｉｖａｃｔ,,株式会社,千葉県,市川市,大洲２丁目１６－１４,,12,203,2720032,,,,,,,2025-07-15,1,,,,,リヴァクト,0
1715,7040001139686,新規,0,2025-07-15,2025-07-15,株式会社ＧＬ,,株式会社,千葉県,流山市,大字西深井１２８番地の１,,12,220,2700107,,,,,,,2025-07-15,1,,,,,ジーエル,0
1717,7040003028037,新規,0,2025-07-15,2025-07-15,合同会社ＨＮＧ,,合同会社,千葉県,千葉市稲毛区,小深町２６７番地３,,12,103,2630003,,,,,,,2025-07-15,1,,,,,エイチエヌジー,0
1719,7050001056947,新規,0,2025-07-15,2025-07-15,株式会社トミサワ総研,,株式会社,茨城県,ひたちなか市,十三奉行１２０２７番地４,,08,221,3111205,,,,,,,2025-07-15,1,,,,,トミサワソウケン,0
1720,7050001056955,新規,0,2025-07-15,2025-07-15,株式会社Ｈｉ,,株式会社,茨城県,結城市,大字結城６７７５番地３,,08,207,3070001,,,,,,,2025-07-15,1,,,,,エイチアイ,0
1722,7050003009424,新規,0,2025-07-15,2025-07-15,合同会社ＴＨＲＩＶＥ,,合同会社,茨城県,牛久市,柏田町８８－１,,08,219,3001211,,,,,,,2025-07-15,1,,,,,スライブ,0
1725,7060001038382,新規,0,2025-07-15,2025-07-15,株式会社ソシアルサンライズ,,株式会社,栃木県,大田原市,加治屋９４番地３６０,,09,210,3240046,,,,,,,2025-07-15,1,,,,,ソシアルサンライズ,0
1726,7060001038408,新規,0,2025-07-15,2025-07-15,ＩＲＡＴＡ　ＨＯＬＤＩＮＧＳ　ＪＡＰＡＮ株式会社,,株式会社,栃木県,足利市,寺岡町５６９番地２,,09,202,3294213,,,,,,,2025-07-15,1,,,,,イラタホールディングスジャパン,0
1728,7080001027029,新規,0,2025-07-15,2025-07-15,株式会社美桜希,,株式会社,静岡県,静岡市駿河区,手越原２１３番地の２,,22,102,4210131,,,,,,,2025-07-15,1,,,,,ミサキ,0
1745,7110003005821,新規,0,2025-07-15,2025-07-15,合同会社ＢｏｎｏＭｅｅ,,合同会社,新潟県,新潟市中央区,関屋本村町１丁目１４９番地２０,,15,103,9518162,,,,,,,2025-07-15,1,,,,,ボノミー,0
1752,7120001277742,新規,0,2025-07-15,2025-07-15,株式会社１０‐Ｆｕｔｕｒｅ,,株式会社,大阪府,大阪市天王寺区,上本町５丁目３番１７号,,27,109,5430001,,,,,,,2025-07-15,1,,,,,テンフューチャー,0
1753,7120001277783,新規,0,2025-07-15,2025-07-15,コバケンリース株式会社,,株式会社,大阪府,門真市,島頭３丁目１１－１８,,27,223,5710016,,,,,,,2025-07-15,1,,,,,コバケンリース,0
1754,7120001277791,新規,0,2025-07-15,2025-07-15,株式会社ＬＵＮＡ　ＢＬＡＮＣ,,株式会社,大阪府,大阪市淀川区,西宮原２丁目２番２－２Ｆ,,27,123,5320004,,,,,,,2025-07-15,1,,,,,ルナブラン,0
1755,7120001277800,新規,0,2025-07-15,2025-07-15,株式会社ええ感じ,,株式会社,大阪府,大阪市北区,堂山町８番１８号日宝堂山レジャービル２０５号,,27,127,5300027,,,,,,,2025-07-15,1,,,,,エエカンジ,0
1760,7120003029992,新規,0,2025-07-15,2025-07-15,シー・エル・エムグループホールディングス合同会社,,合同会社,大阪府,大阪市中央区,東心斎橋１丁目８番１１号アルグラッドザ・タワー心斎橋３Ｆ,,27,128,5420083,,,,,,,2025-07-15,1,,,,,シーエルエムグループホールディングス,0
1768,7122001039404,新規,0,2025-07-15,2025-07-15,株式会社パイロットサービス,,株式会社,大阪府,八尾市,弓削町南３丁目１８番地の５,,27,212,5810034,,,,,,,2025-07-15,1,,,,,パイロットサービス,0
1769,7122003003250,新規,0,2025-07-15,2025-07-15,合同会社ＹｏｕアンドＭｅ,,合同会社,大阪府,東大阪市,中石切町３丁目１２番３７号,,27,227,5798014,,,,,,,2025-07-15,1,,,,,ユーアンドミー,0
1771,7130001080088,新規,0,2025-07-15,2025-07-15,株式会社ＮｏｄｅＵＰ,,株式会社,京都府,京都市伏見区,向島二ノ丸町３３９番地１８,,26,109,6128141,,,,,,,2025-07-15,1,,,,,ノードアップ,0
1777,7140001139172,新規,0,2025-07-15,2025-07-15,福家株式会社,,株式会社,兵庫県,芦屋市,平田町８番６号,,28,206,6590074,,,,,,,2025-07-15,1,,,,,フクヤ,0
1778,7140001139247,新規,0,2025-07-15,2025-07-15,Ｍｙスタイル株式会社,,株式会社,兵庫県,西宮市,甲子園口３丁目１１番６－４０１号,,28,204,6638113,,,,,,,2025-07-15,1,,,,,マイスタイル,0
1779,7140001139305,新規,0,2025-07-15,2025-07-15,株式会社興正,,株式会社,兵庫県,姫路市,飾磨区妻鹿１４２０番地８,,28,201,6728031,,,,,,,2025-07-15,1,,,,,コウセイ,0
1783,7140003022310,新規,0,2025-07-15,2025-07-15,合同会社ＳＡＳ,,合同会社,兵庫県,神戸市兵庫区,中道通６丁目１番２９号兵庫中道ビル３０３号室,,28,105,6520801,,,,,,,2025-07-15,1,,,,,エスエーエス,0
1786,7140005027555,新規,0,2025-07-15,2025-07-15,一般社団法人プロゴルファーサポート機構,,その他の設立登記法人,兵庫県,神戸市中央区,磯上通８丁目１番２９号カサベラビルＣ＆Ｍ４０３号室,,28,110,6510086,,,,,,,2025-07-15,1,,,,,プロゴルファーサポートキコウ,0
1795,7180001167698,新規,0,2025-07-15,2025-07-15,Ｍｓ　Ｌａｂｏ株式会社,,株式会社,愛知県,名古屋市昭和区,滝川町７７番地,,23,107,4660826,,,,,,,2025-07-15,1,,,,,エムエスラボ,0
1796,7180001167764,新規,0,2025-07-15,2025-07-15,株式会社Ｃｅｎｔｕｒｉｓｅ,,株式会社,愛知県,名古屋市中区,丸の内３丁目６番３３号ザ・パークハウス久屋大通ローレルタワー２００３号室,,23,106,4600002,,,,,,,2025-07-15,1,,,,,センチュライズ,0
1809,7190001032389,新規,0,2025-07-15,2025-07-15,ＲｅＣＭ株式会社,,株式会社,三重県,四日市市,安島２丁目１１－８荒木ハイツ３０１,,24,202,5100075,,,,,,,2025-07-15,1,,,,,リコム,0
1810,7190001032397,新規,0,2025-07-15,2025-07-15,株式会社Ｔｓｕｍｕｒａ,,株式会社,三重県,尾鷲市,中川１１番１５号,,24,209,5193639,,,,,,,2025-07-15,1,,,,,ツムラ,0
1823,7240001065227,新規,0,2025-07-15,2025-07-15,株式会社松村工業,,株式会社,広島県,江田島市,江田島町宮ノ原３丁目１２番３１号,,34,215,7372124,,,,,,,2025-07-15,1,,,,,マツムラコウギョウ,0
1827,7240003007301,新規,0,2025-07-15,2025-07-15,合同会社のうしん,,合同会社,広島県,三原市,大和町福田１０８０番地,,34,204,7291404,,,,,,,2025-07-15,1,,,,,,0
1835,7290001110688,新規,0,2025-07-15,2025-07-15,株式会社アールエスティ,,株式会社,福岡県,福岡市中央区,薬院４丁目１３番６１－８０４号,,40,133,8100022,,,,,,,2025-07-15,1,,,,,アールエスティ,0
1836,7290001110705,新規,0,2025-07-15,2025-07-15,株式会社ＭＯＴイノベーションズ,,株式会社,福岡県,福岡市中央区,天神１丁目１１番１号,,40,133,8100001,,,,,,,2025-07-15,1,,,,,エムオーティーイノベーションズ,0
1837,7290001110738,新規,0,2025-07-15,2025-07-15,株式会社ＲＵＮｔｏワークス,,株式会社,福岡県,福岡市博多区,博多駅前３丁目６番１号,,40,132,8120011,,,,,,,2025-07-15,1,,,,,ラントワークス,0
1839,7290003017114,新規,0,2025-07-15,2025-07-15,合同会社ＦＰ総合事務所,,合同会社,福岡県,福岡市東区,香椎３丁目４０番２１号,,40,131,8130011,,,,,,,2025-07-15,1,,,,,エフピソウゴウジムショ,0
1841,7290801031712,新規,0,2025-07-15,2025-07-15,原田農林業株式会社,,株式会社,福岡県,田川郡添田町,大字津野３７７１番地の１,,40,602,8240411,,,,,,,2025-07-15,1,,,,,ハラダノウリンギョウ,0
1847,7310001019704,新規,0,2025-07-15,2025-07-15,株式会社ＬＩＮＫ,,株式会社,長崎県,長崎市,新戸町３丁目２７番１２－３０１号,,42,201,8500954,,,,,,,2025-07-15,1,,,,,リンク,0
1867,7380003006090,新規,0,2025-07-15,2025-07-15,ＦＵＴＡＢＡ　ＰＥＡＣＥ合同会社,,合同会社,福島県,双葉郡双葉町,大字下羽鳥字南迫１１－２,00139938,07,546,9791441,,,,,,,2025-07-15,1,,,,,フタバピース,0
1868,7400001017112,新規,0,2025-07-15,2025-07-15,株式会社ＥＩＺＯＵ,,株式会社,岩手県,釜石市,大町３丁目５番１５号,,03,211,0260024,,,,,,,2025-07-15,1,,,,,エイゾウ,0
1871,7430001094891,新規,0,2025-07-15,2025-07-15,株式会社エヌクリエイト,,株式会社,北海道,札幌市白石区,米里一条３丁目６番２５号,,01,104,0030871,,,,,,,2025-07-15,1,,,,,エヌクリエイト,0
1872,7430001094900,新規,0,2025-07-15,2025-07-15,株式会社タテラ,,株式会社,北海道,札幌市中央区,大通西２２丁目２番６号,,01,101,0640820,,,,,,,2025-07-15,1,,,,,タテラ,0
1875,7440001009650,新規,0,2025-07-15,2025-07-15,株式会社ＯＰＢ,,株式会社,北海道,函館市,松風町１１番２号３階,,01,202,0400035,,,,,,,2025-07-15,1,,,,,オーピービー,0
1878,7460303000875,新規,0,2025-07-15,2025-07-15,合同会社ＨＬ,,合同会社,北海道,北見市,西富町４丁目１番２５号,,01,208,0900831,,,,,,,2025-07-15,1,,,,,エイチエル,0
1881,7470003002931,新規,0,2025-07-15,2025-07-15,合同会社ネオエース,,合同会社,香川県,観音寺市,柞田町甲２１４３番地２,,37,205,7680040,,,,,,,2025-07-15,1,,,,,,0
1886,7500001026409,新規,0,2025-07-15,2025-07-15,株式会社剛国,,株式会社,愛媛県,今治市,喜田村５丁目１３番２７号,,38,202,7991502,,,,,,,2025-07-15,1,,,,,ゴウコク,0
1889,7700150131377,新規,0,2025-07-15,2025-07-15,ＳＩＧＩＲＩ　ＭＯＴＯＲＳ,,外国会社等,千葉県,東金市,二又３３６番地２オフィス７Ｂ,,12,213,2830004,スリランカ民主社会主義共和国、アンバテンナ、カハワッタ、Ｎｏ．４３／Ｇ,,,,,,2025-07-15,1,,,,,シギリモータース,0
1890,7700150131385,新規,0,2025-07-15,2025-07-15,ＣＡＲ　ＳＴＲＥＥＴ　ＰＶＴ　ＬＴＤ,,外国会社等,三重県,津市,白塚町４７８１番地,,24,201,5140101,スリランカ民主社会主義共和国カトゥガストタ、アヌルッダ・ラトワッテ・マワタ１０５／Ａ,,,,,,2025-07-15,1,,,,,カーストリートピーブイテイーエルテイーデイー,0
1894,8010001256392,新規,0,2025-07-15,2025-07-15,株式会社ｋｏｔｏｌｏｏｐ,,株式会社,東京都,千代田区,神田和泉町１番地６－１６ヤマトビル４０５,,13,101,1010024,,,,,,,2025-07-15,1,,,,,コトループ,0
1895,8010001256698,新規,0,2025-07-15,2025-07-15,株式会社ジャルコアセットマネジメント,,株式会社,東京都,中央区,日本橋２丁目１６番１１号,,13,102,1030027,,,,,,,2025-07-15,1,,,,,ジャルコアセットマネジメント,0
1896,8010001256839,新規,0,2025-07-15,2025-07-15,ＭＥＳＵＣＡ　ＪＡＰＡＮ株式会社,,株式会社,東京都,千代田区,神田小川町２丁目４番１７号大宮第１ビル３階,,13,101,1010052,,,,,,,2025-07-15,1,,,,,メスカジャパン,0
1913,8010601067594,新規,0,2025-07-15,2025-07-15,株式会社ケーアンドティ・サービス,,株式会社,東京都,江東区,東陽１丁目３７番１１号,,13,108,1350016,,,,,,,2025-07-15,1,,,,,ケーアンドティサービス,0
1918,8010701047950,新規,0,2025-07-15,2025-07-15,Ｇｅｎｏｖａ株式会社,,株式会社,東京都,品川区,南品川２丁目９－１１小島荘２０６,,13,109,1400004,,,,,,,2025-07-15,1,,,,,ジェノバ,0
1919,8010701047991,新規,0,2025-07-15,2025-07-15,株式会社ＲＵＫ,,株式会社,東京都,品川区,西五反田３丁目１０－１８シティータワー目黒２５０４,,13,109,1410031,,,,,,,2025-07-15,1,,,,,アールユーケー,0
1930,8011001171251,新規,0,2025-07-15,2025-07-15,株式会社エスケー,,株式会社,東京都,渋谷区,広尾５丁目１番１５－４０３号ザ・パークハウス広尾,,13,113,1500012,,,,,,,2025-07-15,1,,,,,エスケー,0
1937,8011101112337,新規,0,2025-07-15,2025-07-15,株式会社ＮＥ,,株式会社,東京都,新宿区,歌舞伎町２丁目３５－５ＬＩＺＯＮビル地下１階,,13,104,1600021,,,,,,,2025-07-15,1,,,,,エヌイー,0
1941,8011201026511,新規,0,2025-07-15,2025-07-15,株式会社アマゴロモ,,株式会社,東京都,中野区,弥生町１丁目１５－１４－２０７,,13,114,1640013,,,,,,,2025-07-15,1,,,,,アマゴロモ,0
1943,8011301030727,新規,0,2025-07-15,2025-07-15,株式会社ＮＢＧＮ,,株式会社,東京都,杉並区,井草５丁目９番１９号ＳＨＯＵＲＩＮＨＯＵＳＥ１０３,,13,115,1670021,,,,,,,2025-07-15,1,,,,,エヌビージーエヌ,0
1945,8011401027243,新規,0,2025-07-15,2025-07-15,ＬＵＸＶＩＩ株式会社,,株式会社,東京都,板橋区,板橋１丁目４４番１０－１３０４号,,13,119,1730004,,,,,,,2025-07-15,1,,,,,ルクスヴィ,0
1949,8011601028801,新規,0,2025-07-15,2025-07-15,株式会社路地裏書店,,株式会社,東京都,練馬区,練馬１丁目２０番８号日建練馬ビル２Ｆ,,13,120,1760001,,,,,,,2025-07-15,1,,,,,ロジウラショテン,0
1959,8013103001468,新規,0,2025-07-15,2025-07-15,合同会社吉永ブレイク工業,00139925,合同会社,東京都,青梅市,千ヶ瀬町６丁目７８８－１ハイホーム青梅１０７,,13,205,1980043,,,,,,,2025-07-15,1,,,,,ヨシナガブレイクコウギョウ,0
1972,8020001163910,新規,0,2025-07-15,2025-07-15,ｙ，ｓ　ｃｒａｆｔ株式会社,,株式会社,神奈川県,横浜市神奈川区,入江１丁目１１番１９号,,14,102,2210014,,,,,,,2025-07-15,1,,,,,ワイズクラフト,0
1976,8020005016924,新規,0,2025-07-15,2025-07-15,税理士法人三ツ星,,その他の設立登記法人,神奈川県,横浜市神奈川区,金港町５番地３６東興ビル７０２,,14,102,2210056,,,,,,,2025-07-15,1,,,,,ミツボシ,0
1982,8021001085789,新規,0,2025-07-15,2025-07-15,株式会社Ｎカンパニー,,株式会社,神奈川県,藤沢市,石川３丁目３１番地の１５,,14,205,2520815,,,,,,,2025-07-15,1,,,,,エヌカンパニー,0
1983,8021005013399,新規,0,2025-07-15,2025-07-15,一般社団法人こどもと家族の排泄サポート研究所,,その他の設立登記法人,神奈川県,足柄上郡山北町,岸１２８１番地４,,14,364,2580112,,,,,,,2025-07-15,1,,,,,コドモトカゾクノハイセツサポートケンキュウジョ,0
1991,8030003027195,新規,0,2025-07-15,2025-07-15,ＯＧＡＴＡ’Ｓ　ＣＯＮＦＥＣＣＩＯＮＥＳ合同会社,,合同会社,埼玉県,久喜市,菖蒲町三箇３３０－８,,11,232,3460104,,,,,,,2025-07-15,1,,,,,オガタズコンフェックショネス,0
1998,8040001139537,新規,0,2025-07-15,2025-07-15,株式会社ディアナホールディングス,,株式会社,千葉県,市川市,大野町３丁目１６００番地１,,12,203,2720805,,,,,,,2025-07-15,1,,,,,ディアナホールディングス,0
1999,8040001139611,新規,0,2025-07-15,2025-07-15,株式会社銀バラ,,株式会社,千葉県,松戸市,上矢切１６３８番地の７,,12,207,2710094,,,,,,,2025-07-15,1,,,,,ギンバラ,0
2002,8040003028044,新規,0,2025-07-15,2025-07-15,合同会社ハピネス,,合同会社,千葉県,館山市,洲宮７６７－２,,12,205,2940223,,,,,,,2025-07-15,1,,,,,ハピネス,0
2006,8050001056896,新規,0,2025-07-15,2025-07-15,株式会社ズンドコ商店,,株式会社,茨城県,ひたちなか市,田中後４０番地２,,08,221,3111235,,,,,,,2025-07-15,1,,,,,ズンドコショウテン,0
2007,8050001056954,新規,0,2025-07-15,2025-07-15,株式会社ｏｆｆｉｃｅ諭吉,,株式会社,茨城県,水戸市,南町３丁目４番２４－３０１号,,08,201,3100021,,,,,,,2025-07-15,1,,,,,オフィスユキチ,0
2008,8050003009431,新規,0,2025-07-15,2025-07-15,合同会社Ｐｌａｎ　Ｂ,,合同会社,茨城県,水戸市,小吹町６１１番地の１,,08,201,3100914,,,,,,,2025-07-15,1,,,,,プランビー,0
2010,8060001038398,新規,0,2025-07-15,2025-07-15,株式会社村井工業,,株式会社,栃木県,鹿沼市,上永野１２９４番地１,,09,205,3280211,,,,,,,2025-07-15,1,,,,,ムライコウギョウ,0
2011,8060005010361,新規,0,2025-07-15,2025-07-15,一般社団法人自立塾,,その他の設立登記法人,栃木県,佐野市,越名町２０５５番地２,,09,204,3270822,,,,,,,2025-07-15,1,,,,,ジリツジュク,0
2013,8070001043109,新規,0,2025-07-15,2025-07-15,株式会社Ｐｅｅｒｓ　Ｐｌｕｓ,,株式会社,群馬県,前橋市,紅雲町１丁目６番１５号,,10,201,3710025,,,,,,,2025-07-15,1,,,,,ピアズプラス,0
2019,8080101025658,新規,0,2025-07-15,2025-07-15,株式会社静岡キャリアエージェント,,株式会社,静岡県,三島市,大場２４１番地,,22,206,4110803,,,,,,,2025-07-15,1,,,,,シズオカキャリアエージェント,0
2021,8080401028030,新規,0,2025-07-15,2025-07-15,株式会社あとむ,,株式会社,静岡県,浜松市中央区,有玉北町１７６０番地の１０,,22,138,4313121,,,,,,,2025-07-15,1,,,,,アトム,0
2024,8090001019379,新規,0,2025-07-15,2025-07-15,株式会社飯野電気,,株式会社,山梨県,南アルプス市,曲輪田新田５６９番地３,,19,208,4000223,,,,,,,2025-07-15,1,,,,,イイノデンキ,0
2027,8100003008287,新規,0,2025-07-15,2025-07-15,富吉合同会社,,合同会社,長野県,北安曇郡白馬村,大字神城２２２００番地１０３,,20,485,3999211,,,,,,,2025-07-15,1,,,,,フジ,0
2039,8120001277799,新規,0,2025-07-15,2025-07-15,株式会社Ｆａｃｅ　ｃａｒｒｙ,,株式会社,大阪府,大阪市北区,梅田１丁目２番２号大阪駅前第２ビル１２－１２,,27,127,5300001,,,,,,,2025-07-15,1,,,,,フェイスキャリー,0
2040,8120001277857,新規,0,2025-07-15,2025-07-15,粋荷株式会社,,株式会社,大阪府,大阪市東成区,大今里３丁目１５番６号ＩｍａｚａｔｏＴｏｗｅｒ４０７Ｆ,,27,115,5370012,,,,,,,2025-07-15,1,,,,,スイカ,0
2041,8120001277881,新規,0,2025-07-15,2025-07-15,株式会社Ｚｅｒｏ　Ｇｒｉｄ,,株式会社,大阪府,大阪市中央区,南船場１丁目１１番９号長堀安田ビル３Ｆ,,27,128,5420081,,,,,,,2025-07-15,1,,,,,ゼログリッド,0
2042,8120001277898,新規,0,2025-07-15,2025-07-15,小岩株式会社,,株式会社,大阪府,大阪市中央区,船場中央２丁目２番５号船場センタービル５号館地下一階Ｂ１２９ＲＯＹＡＬＯＦＦＩＣＥ内,,27,128,5410055,,,,,,,2025-07-15,1,,,,,コイワ,0
2043,8120001277923,新規,0,2025-07-15,2025-07-15,株式会社うえすと,,株式会社,大阪府,大阪市浪速区,幸町１丁目３番１６－５０１号,,27,111,5560021,,,,,,,2025-07-15,1,,,,,ウエスト,0
2055,8122005003834,新規,0,2025-07-15,2025-07-15,一般社団法人マリア福祉会,,その他の設立登記法人,大阪府,東大阪市,永和３丁目１７番３０号,,27,227,5770809,,,,,,,2025-07-15,1,,,,,マリアフクシカイ,0
2063,8130001080070,新規,0,2025-07-15,2025-07-15,株式会社Ｋｙｒｉｅ,,株式会社,京都府,京都市山科区,音羽役出町１番地２７イーグルコート音羽４０３,,26,110,6078076,,,,,,,2025-07-15,1,,,,,キリエ,0
2064,8130001080095,新規,0,2025-07-15,2025-07-15,株式会社ａｔｔｒａｃｔ,,株式会社,京都府,京都市下京区,小稲荷町８５－２Ｇｒａｎｄ－Ｋ京都駅前ビル２０１,,26,106,6008208,,,,,,,2025-07-15,1,,,,,アトラクト,0
2073,8140001139238,新規,0,2025-07-15,2025-07-15,ＲＹＵＫＥＮ株式会社,,株式会社,兵庫県,赤穂市,塩屋２６５１番地２,,28,212,6780201,,,,,,,2025-07-15,1,,,,,リュウケン,0
2074,8140001139279,新規,0,2025-07-15,2025-07-15,株式会社浦山設備,,株式会社,兵庫県,川西市,久代６丁目１番８９－２１７号,,28,217,6660024,,,,,,,2025-07-15,1,,,,,ウラヤマセツビ,0
2075,8140001139295,新規,0,2025-07-15,2025-07-15,株式会社みどり建築企画,,株式会社,兵庫県,神戸市灘区,森後町３丁目３番７－９０１号,,28,102,6570028,,,,,,,2025-07-15,1,,,,,ミドリケンチクキカク,0
2076,8140001139304,新規,0,2025-07-15,2025-07-15,株式会社ＥＮＪＩＮ,,株式会社,兵庫県,伊丹市,中央２丁目１番１号２Ｆ,,28,207,6640851,,,,,,,2025-07-15,1,,,,,エンジン,0
2079,8160001026896,新規,0,2025-07-15,2025-07-15,株式会社ＷＩＬＬ,,株式会社,滋賀県,東近江市,佐野町３０４番地１７,,25,213,5211222,,,,,,,2025-07-15,1,,,,,ウィル,0
2092,8180001167763,新規,0,2025-07-15,2025-07-15,ククリコード株式会社,,株式会社,愛知県,名古屋市守山区,翠松園３丁目８０１番地の１,,23,113,4630010,,,,,,,2025-07-15,1,,,,,ククリコード,0
2093,8180001167771,新規,0,2025-07-15,2025-07-15,金龍株式会社,,株式会社,愛知県,北名古屋市,片場八瀬の木１９番地１樓,,23,234,4810002,,,,,,,2025-07-15,1,,,,,キンリュウ,0
2099,8180301040018,新規,0,2025-07-15,2025-07-15,株式会社ＹＳＭ,,株式会社,愛知県,岡崎市,能見町９１番地１０,,23,202,4440061,,,,,,,2025-07-15,1,,,,,ワイエスエム,0
2102,8200001044027,新規,0,2025-07-15,2025-07-15,株式会社ＴＲＹシブリングス,,株式会社,岐阜県,多治見市,金岡町２丁目７８番地の１,,21,204,5070016,,,,,,,2025-07-15,1,,,,,トライシブリングス,0
2112,8260003005244,新規,0,2025-07-15,2025-07-15,合同会社ホットスピリット,,合同会社,岡山県,倉敷市,上富井５２４番地１,,33,202,7100846,,,,,,,2025-07-15,1,,,,,ホットスピリット,0
2121,8290001110613,新規,0,2025-07-15,2025-07-15,大道印刷株式会社,,株式会社,福岡県,春日市,日の出町６丁目２２番地,,40,218,8160873,,,,,,,2025-07-15,1,,,,,ダイドウインサツ,0
2122,8290001110704,新規,0,2025-07-15,2025-07-15,株式会社鴨林工業,,株式会社,福岡県,糟屋郡須惠町,大字須惠４６１番地１,,40,344,8112113,,,,,,,2025-07-15,1,,,,,カモバヤシコウギョウ,0
2123,8290001110753,新規,0,2025-07-15,2025-07-15,株式会社Ｇ．Ｔ,,株式会社,福岡県,福岡市中央区,渡辺通５丁目２３番２－７０９号,,40,133,8100004,,,,,,,2025-07-15,1,,,,,ジーティー,0
2125,8290003017113,新規,0,2025-07-15,2025-07-15,ＤＦＸ合同会社,,合同会社,福岡県,福岡市中央区,天神４丁目６－２８いちご天神ノースビル７階,,40,133,8100001,,,,,,,2025-07-15,1,,,,,ディーエフエックス,0
2131,8320001021212,新規,0,2025-07-15,2025-07-15,株式会社さくら建設,,株式会社,大分県,中津市,大字蛎瀬３２５番地３,,44,203,8710007,,,,,,,2025-07-15,1,,,,,サクラケンセツ,0
2134,8330003011111,新規,0,2025-07-15,2025-07-15,合同会社ＤＳ,,合同会社,熊本県,熊本市北区,飛田３丁目３－２７,,43,105,8615514,,,,,,,2025-07-15,1,,,,,ディーエス,0
2138,8340005009887,新規,0,2025-07-15,2025-07-15,まくらざき地域づくり事業協同組合,,その他の設立登記法人,鹿児島県,枕崎市,岩戸町３７１番地,,46,204,8980058,,,,,,,2025-07-15,1,,,,,マクラザキチイキヅクリ,0
2145,8380001035462,新規,0,2025-07-15,2025-07-15,株式会社きらら,,株式会社,福島県,福島市,山口字雷６６番地の１,,07,201,9608202,,,,,,,2025-07-15,1,,,,,キララ,0
2154,8430001094817,新規,0,2025-07-15,2025-07-15,株式会社アルテミス北海道,,株式会社,北海道,札幌市中央区,大通西６丁目１０番地４,,01,101,0600042,,,,,,,2025-07-15,1,,,,,アルテミスホッカイドウ,0
2155,8430003017841,新規,0,2025-07-15,2025-07-15,合同会社ｔｇ,,合同会社,北海道,札幌市中央区,大通西１６丁目１－１８,,01,101,0600042,,,,,,,2025-07-15,1,,,,,ティージー,0
2156,8430003017858,新規,0,2025-07-15,2025-07-15,ＫＥエンジ合同会社,,合同会社,北海道,恵庭市,恵み野東２丁目１１－１２,,01,231,0611371,,,,,,,2025-07-15,1,,,,,ケーイーエンジ,0
2159,8450003002692,新規,0,2025-07-15,2025-07-15,合同会社秋桜サービス,,合同会社,北海道,旭川市,西神楽北二条１丁目１３３番地の１８,,01,204,0710174,,,,,,,2025-07-15,1,,,,,コスモスサービス,0
2168,8700150131376,新規,0,2025-07-15,2025-07-15,ＹＡＭＡＴＯ　ＭＯＴＯＲＳ,,外国会社等,千葉県,東金市,二又３３６番地２オフィス９Ｂ,,12,213,2830004,スリランカ民主社会主義共和国、クルネガラ、コロンボロード、Ｎｏ．２２３／Ａ,,,,,,2025-07-15,1,,,,,ヤマトモータース,0
2169,8700150131384,新規,0,2025-07-15,2025-07-15,ＣＡＲＭＯＢ　ＥＮＴＥＲＰＲＩＳＥＳ,,外国会社等,千葉県,山武市,大木６５０番地９オフィス６,,12,237,2891211,スリランカ民主社会主義共和国、ベヤンゴダ、コラワッタ、６ｔｈレーン、Ｎｏ．２０,,,,,,2025-07-15,1,,,,,セーモブエンタープライズ,0
2170,8700150131392,新規,0,2025-07-15,2025-07-15,ＳＨＡＲＫ　ＴＲＡＤＩＮＧ　ＰＶＴ　ＬＴＤ,,外国会社等,神奈川県,厚木市,下川入２８７－１－１０１号室,,14,212,2430206,スリランカ民主社会主義共和国、マーワネラ、ヘンマータガマロード、ＮＯ．１８８,,,,,,2025-07-15,1,,,,,シヤークトレーデイングプライベートリミテツド,0
2183,9010001256375,新規,0,2025-07-15,2025-07-15,株式会社スリープインサイト,,株式会社,東京都,文京区,本郷２丁目４番５－６０２号,,13,105,1130033,,,,,,,2025-07-15,1,,,,,スリープインサイト,0
2184,9010001256763,新規,0,2025-07-15,2025-07-15,株式会社赫,,株式会社,東京都,千代田区,岩本町２丁目１４番９号第二花輪ビル３階,,13,101,1010032,,,,,,,2025-07-15,1,,,,,ハク,0
2185,9010001256846,新規,0,2025-07-15,2025-07-15,株式会社Ｓｔｕｄｉｏｕｓ　Ｅｄｕｃａｔｉｏｎ,,株式会社,東京都,中央区,銀座１丁目１２－４Ｎ＆ＥＢＬＤ．７階,,13,102,1040061,,,,,,,2025-07-15,1,,,,,スタディオスエデュケーション,0
2186,9010001256854,新規,0,2025-07-15,2025-07-15,Ｃａｐｉｔａｌ　Ｃｏｍ　Ｓｅｃｕｒｉｔｉｅｓ　Ｊａｐａｎ株式会社,,株式会社,東京都,中央区,日本橋３丁目９番１号日本橋三丁目スクエア１１階,,13,102,1030027,,,,,,,2025-07-15,1,,,,,キャピタルコムセキュリティーズジャパン,0
2187,9010001256879,新規,0,2025-07-15,2025-07-15,株式会社リンクプラニティ,,株式会社,東京都,中央区,銀座１丁目１２番４号Ｎ＆ＥＢＬＤ．６Ｆ,,13,102,1040061,,,,,,,2025-07-15,1,,,,,リンクプラニティ,0
2188,9010001256887,新規,0,2025-07-15,2025-07-15,あすぞら株式会社,,株式会社,東京都,千代田区,内神田３丁目１０番９号,,13,101,1010047,,,,,,,2025-07-15,1,,,,,アスゾラ,0
2191,9010003047987,新規,0,2025-07-15,2025-07-15,ＡＸＩＳ合同会社,,合同会社,東京都,中央区,銀座１丁目１２－４Ｎ＆ＥＢＬＤ．７Ｆ,,13,102,1040061,,,,,,,2025-07-15,1,,,,,アクシス,0
2192,9010003048036,新規,0,2025-07-15,2025-07-15,ＦＷＥ合同会社,,合同会社,東京都,中央区,銀座１丁目２２番１１号銀座大竹ビジデンス２Ｆ,,13,102,1040061,,,,,,,2025-07-15,1,,,,,エフダブリューイー,0
2206,9010701047990,新規,0,2025-07-15,2025-07-15,ＢＯＦＵ株式会社,,株式会社,東京都,品川区,上大崎３丁目１番３０号１３１３号室,,13,109,1410021,,,,,,,2025-07-15,1,,,,,ボフ,0
2207,9010703007803,新規,0,2025-07-15,2025-07-15,ＳＴＡＢＬＥ合同会社,,合同会社,東京都,品川区,西品川１丁目２９－１２ＣＳＲ品川,,13,109,1410033,,,,,,,2025-07-15,1,,,,,ステーブル,0
2209,9010901057749,新規,0,2025-07-15,2025-07-15,株式会社Ｆｒｅｅ,,株式会社,東京都,世田谷区,瀬田１丁目２３番１４号,,13,112,1580095,,,,,,,2025-07-15,1,,,,,フリー,0
2224,9011203004761,新規,0,2025-07-15,2025-07-15,合同会社ＨＯＲＮＥＴ　ＪＡＰＡＮ,,合同会社,東京都,中野区,本町６丁目２１－１５アクセス新中野ＩＩ４Ｆ,00139926,13,114,1640012,,,,,,,2025-07-15,1,,,,,ホーネットジャパン,0
2227,9011503006607,新規,0,2025-07-15,2025-07-15,山根デジタル産業合同会社,,合同会社,東京都,北区,堀船３丁目４３番１号,,13,117,1140004,,,,,,,2025-07-15,1,,,,,ヤマネデジタルサンギョウ,0
2232,9011601028800,新規,0,2025-07-15,2025-07-15,株式会社ＡＮＩ,,株式会社,東京都,練馬区,谷原５丁目２１番１３号,,13,120,1770032,,,,,,,2025-07-15,1,,,,,エーエヌアイ,0
2233,9011603004766,新規,0,2025-07-15,2025-07-15,キーウェブ工房合同会社,,合同会社,東京都,練馬区,東大泉２丁目１番３５－３０７号,,13,120,1780063,,,,,,,2025-07-15,1,,,,,キーウェブコウボウ,0
2236,9011801046461,新規,0,2025-07-15,2025-07-15,晨星株式会社,,株式会社,東京都,足立区,舎人１丁目１７番１９号アビタシオンナカダ２０３,,13,121,1210831,,,,,,,2025-07-15,1,,,,,シンセイ,0
2239,9012301014454,新規,0,2025-07-15,2025-07-15,株式会社エーエスプランニング,,株式会社,東京都,町田市,相原町６５番地１シティハイム内藤２０３号室,,13,209,1940211,,,,,,,2025-07-15,1,,,,,エーエスプランニング,0
2241,9012401043361,新規,0,2025-07-15,2025-07-15,株式会社シラトン,,株式会社,東京都,狛江市,中和泉５丁目３番１０号,,13,219,2010012,,,,,,,2025-07-15,1,,,,,シラトン,0
2244,9013301054589,新規,0,2025-07-15,2025-07-15,株式会社アシスト,,株式会社,東京都,豊島区,南長崎２丁目２５番４号カーサ南長崎２０２号,,13,116,1710052,,,,,,,2025-07-15,1,,,,,アシスト,0
2251,9020001163612,新規,0,2025-07-15,2025-07-15,株式会社幸どり,,株式会社,神奈川県,横浜市戸塚区,矢部町６１０番地２藤和ライブタウン６０４号,,14,110,2440002,,,,,,,2025-07-15,1,,,,,ユキドリ,0
2252,9020001163851,新規,0,2025-07-15,2025-07-15,株式会社グランアレス,,株式会社,神奈川県,横浜市中区,長者町１丁目２番地１グランカーサ横濱石川町６１１号室,,14,104,2310033,,,,,,,2025-07-15,1,,,,,グランアレス,0
2263,9021001085813,新規,0,2025-07-15,2025-07-15,株式会社ディア美麗,,株式会社,神奈川県,小田原市,千代１３０番地の７,,14,206,2500215,,,,,,,2025-07-15,1,,,,,ディアビレイ,0
2266,9021003016238,新規,0,2025-07-15,2025-07-15,ＴＤ合同会社,,合同会社,神奈川県,大和市,林間１丁目３番５号,,14,213,2420003,,,,,,,2025-07-15,1,,,,,テイーデイー,0
2278,9030001167661,新規,0,2025-07-15,2025-07-15,ペットワークサポート株式会社,,株式会社,埼玉県,さいたま市北区,東大成町１丁目５番地７,,11,102,3310814,,,,,,,2025-07-15,1,,,,,ペットワークサポート,0
2280,9030003027194,新規,0,2025-07-15,2025-07-15,合同会社倍半倍,,合同会社,埼玉県,新座市,野火止６丁目１９番３号,,11,230,3520011,,,,,,,2025-07-15,1,,,,,バイハンバイ,0
2282,9040001139668,新規,0,2025-07-15,2025-07-15,株式会社ファミリアコーポレーション,,株式会社,千葉県,佐倉市,千成１丁目１５番１号,,12,212,2850034,,,,,,,2025-07-15,1,,,,,ファミリアコーポレーション,0
2284,9040003028035,新規,0,2025-07-15,2025-07-15,合同会社エイク,,合同会社,千葉県,柏市,柏７丁目１０番１号,,12,217,2770005,,,,,,,2025-07-15,1,,,,,エイク,0
2285,9040003028043,新規,0,2025-07-15,2025-07-15,ラッキーハッピースリーセブン合同会社,,合同会社,千葉県,市原市,出津６４番地１,,12,219,2900042,,,,,,,2025-07-15,1,,,,,ラッキーハッピースリーセブン,0
2286,9040003028051,新規,0,2025-07-15,2025-07-15,ウェブクラフト合同会社,,合同会社,千葉県,市川市,原木１丁目５番１９号（グラシューズ２０８号）,,12,203,2720004,,,,,,,2025-07-15,1,,,,,ウェブクラフト,0
2287,9040005022837,新規,0,2025-07-15,2025-07-15,一般社団法人アーバンレジェンズ,,その他の設立登記法人,千葉県,八街市,朝日４２８－１６,,12,230,2891101,,,,,,,2025-07-15,1,,,,,アーバンレジェンズ,0
2288,9050001056961,新規,0,2025-07-15,2025-07-15,株式会社ａｎｄＫ,,株式会社,茨城県,水戸市,元吉田町１８６番地の９,,08,201,3100836,,,,,,,2025-07-15,1,,,,,アンドケイ,0
2307,9090003002852,新規,0,2025-07-15,2025-07-15,ＹＭＨ合同会社,,合同会社,山梨県,韮崎市,穴山町３４５０,,19,207,4070263,,,,,,,2025-07-15,1,,,,,ワイエムエイチ,0
2309,9110001018014,新規,0,2025-07-15,2025-07-15,朝日建設株式会社,,株式会社,新潟県,村上市,檜原字大道上１８１９番地４,,15,212,9580215,,,,,,,2025-07-15,1,,,,,,0
2321,9120001277575,新規,0,2025-07-15,2025-07-15,株式会社ＭＥＩＳＥＩ,,株式会社,大阪府,大阪市東淀川区,東中島２丁目８番６号新大阪駅前ビル８０１号室,,27,114,5330033,,,,,,,2025-07-15,1,,,,,メイセイ,0
2322,9120001277781,新規,0,2025-07-15,2025-07-15,株式会社ＥＤＧＥ,,株式会社,大阪府,大阪市北区,大淀中１丁目１６番１０号,,27,127,5310076,,,,,,,2025-07-15,1,,,,,エッジ,0
2323,9120001277798,新規,0,2025-07-15,2025-07-15,株式会社ＮＥＯＤＡＮ７５,,株式会社,大阪府,大阪市中央区,平野町１丁目３番１０号１００４号室,,27,128,5410046,,,,,,,2025-07-15,1,,,,,ネオダンナナジュウゴ,0
2324,9120001277856,新規,0,2025-07-15,2025-07-15,株式会社ヴェリタスパートナーズ,,株式会社,大阪府,枚方市,楠葉花園町３番１２－２０１号,,27,210,5731121,,,,,,,2025-07-15,1,,,,,ヴェリタスパートナーズ,0
2325,9120001277922,新規,0,2025-07-15,2025-07-15,株式会社プライムグロウ,,株式会社,大阪府,大阪市中央区,南本町３丁目３番２２号,,27,128,5410054,,,,,,,2025-07-15,1,,,,,プライムグロウ,0
2326,9120003029999,新規,0,2025-07-15,2025-07-15,合同会社葵,,合同会社,大阪府,大阪市西成区,潮路２丁目１７番６号,,27,122,5570052,,,,,,,2025-07-15,1,,,,,アオイ,0
2327,9120005025047,新規,0,2025-07-15,2025-07-15,医療法人尊壽会,,その他の設立登記法人,大阪府,大阪市生野区,巽東２丁目１１番２３号,,27,116,5440014,,,,,,,2025-07-15,1,,,,,ソンジュカイ,0
2331,9120901005696,新規,0,2025-07-15,2025-07-15,株式会社栄信,,株式会社,大阪府,吹田市,元町１９番１３号,,27,205,5640031,,,,,,,2025-07-15,1,,,,,エイシン,0
2335,9122005003833,新規,0,2025-07-15,2025-07-15,一般社団法人とれいる,,その他の設立登記法人,大阪府,東大阪市,長田中１丁目１番５号,,27,227,5770013,,,,,,,2025-07-15,1,,,,,トレイル,0
2341,9140001139237,新規,0,2025-07-15,2025-07-15,株式会社美縫,00139918,株式会社,兵庫県,尼崎市,栗山町２丁目２番６号,,28,202,6610013,,,,,,,2025-07-15,1,,,,,ウツク,0
2342,9140001139245,新規,0,2025-07-15,2025-07-15,株式会社結設計,,株式会社,兵庫県,神戸市西区,玉津町高津橋１１４番地コトノハシレトロ３０４,,28,111,6512122,,,,,,,2025-07-15,1,,,,,ユイセッケイ,0
2343,9140001139294,新規,0,2025-07-15,2025-07-15,穂ノ花株式会社,,株式会社,兵庫県,姫路市,幸町６番地,,28,201,6700835,,,,,,,2025-07-15,1,,,,,ホノカ,0
2344,9140001139303,新規,0,2025-07-15,2025-07-15,株式会社グランスペース,,株式会社,兵庫県,神戸市兵庫区,烏原町ヌク谷１,,28,105,6520001,,,,,,,2025-07-15,1,,,,,グランスペース,0
2345,9140003022309,新規,0,2025-07-15,2025-07-15,ふく桜合同会社,,合同会社,兵庫県,西宮市,門戸東町２番２６－１０１号,,28,204,6620824,,,,,,,2025-07-15,1,,,,,フクサクラ,0
2348,9150001028265,新規,0,2025-07-15,2025-07-15,ｙｕｒｉｃａｄｅｓｉｇｎ一級建築士事務所株式会社,,株式会社,奈良県,桜井市,大字粟殿７４０,,29,206,6330062,,,,,,,2025-07-15,1,,,,,ユリカデザインイッキュウケンチクシジムショ,0
2350,9150003003654,新規,0,2025-07-15,2025-07-15,合同会社メアリー,,合同会社,奈良県,桜井市,大字東新堂３８４番地の１－３０１号,,29,206,6330068,,,,,,,2025-07-15,1,,,,,メアリー,0
2357,9180001167738,新規,0,2025-07-15,2025-07-15,株式会社Ｌｉｍ,,株式会社,愛知県,名古屋市昭和区,菊園町５丁目５番地１,,23,107,4660843,,,,,,,2025-07-15,1,,,,,リム,0
2365,9180301040017,新規,0,2025-07-15,2025-07-15,株式会社スフェーン,,株式会社,愛知県,刈谷市,板倉町２丁目２番地１５,,23,210,4480801,,,,,,,2025-07-15,1,,,,,スフェーン,0
2366,9180305009702,新規,0,2025-07-15,2025-07-15,一般社団法人ものづくりアベンジャーズ,,その他の設立登記法人,愛知県,豊田市,挙母町２丁目１－１,,23,211,4710023,,,,,,,2025-07-15,1,,,,,モノヅクリアベンジャーズ,0
2368,9190001032354,新規,0,2025-07-15,2025-07-15,株式会社おふくろさん弁当,,株式会社,三重県,鈴鹿市,阿古曽町１４番２８号,,24,207,5130828,,,,,,,2025-07-15,1,,,,,オフクロサンベントウ,0
2370,9200001044026,新規,0,2025-07-15,2025-07-15,株式会社Ｙ‐ＢＯＳＳ,,株式会社,岐阜県,多治見市,金岡町２丁目７８番地の１,,21,204,5070016,,,,,,,2025-07-15,1,,,,,ワイボス,0
2371,9200001044034,新規,0,2025-07-15,2025-07-15,株式会社ＦｏＬｅｃ,,株式会社,岐阜県,岐阜市,古市場２番地２３（コーポニシハタ２４号）,,21,201,5011121,,,,,,,2025-07-15,1,,,,,フォレック,0
2385,9260001040366,新規,0,2025-07-15,2025-07-15,株式会社祐信テクノ,,株式会社,岡山県,笠岡市,東大戸６３番地２,,33,205,7140071,,,,,,,2025-07-15,1,,,,,ユウシンテクノ,0
2387,9280001009459,新規,0,2025-07-15,2025-07-15,株式会社Ｏｒｇａ,,株式会社,島根県,松江市,北陵町１番地テクノアークしまね南館シェアードオフィスＮｏ．３,,32,201,6900816,,,,,,,2025-07-15,1,,,,,オルガ,0
2394,9290001110595,新規,0,2025-07-15,2025-07-15,億博株式会社,,株式会社,福岡県,福岡市早良区,昭代２丁目２番３０号１０３室,,40,137,8140012,,,,,,,2025-07-15,1,,,,,オクハク,0
2395,9290001110703,新規,0,2025-07-15,2025-07-15,株式会社ＢＬＵＥＣＯＮＣ,,株式会社,福岡県,福津市,光陽台４丁目１番地の１１,,40,224,8113223,,,,,,,2025-07-15,1,,,,,ブルーコンク,0
2396,9290001110752,新規,0,2025-07-15,2025-07-15,株式会社ＳＨＯＲＩ,,株式会社,福岡県,福岡市南区,寺塚１丁目２０番２３号,,40,134,8150074,,,,,,,2025-07-15,1,,,,,ショーリ,0
2400,9290801031710,新規,0,2025-07-15,2025-07-15,株式会社ＵＫｌｏｇｉ,,株式会社,福岡県,田川市,大字猪国１３０４番地１,,40,206,8260045,,,,,,,2025-07-15,1,,,,,ユーケーロジ,0
2404,9330001033404,新規,0,2025-07-15,2025-07-15,株式会社ムラテック,,株式会社,熊本県,熊本市東区,新南部４丁目１番５号２０３,,43,102,8618028,,,,,,,2025-07-15,1,,,,,ムラテック,0
2412,9370003007195,新規,0,2025-07-15,2025-07-15,くまさんサポート合同会社,,合同会社,宮城県,多賀城市,下馬４丁目１２番２２号,,04,209,9850835,,,,,,,2025-07-15,1,,,,,クマサンサポート,0
2432,9430001094808,新規,0,2025-07-15,2025-07-15,株式会社札幌明食ミート,,株式会社,北海道,札幌市白石区,北郷四条３丁目５番２５号,,01,104,0030834,,,,,,,2025-07-15,1,,,,,サッポロメイショクミート,0
2433,9430001094898,新規,0,2025-07-15,2025-07-15,株式会社ＴＥＣＭＡＨ,,株式会社,北海道,札幌市中央区,南二条西５丁目３１‐１ＲＭＢｌｄ．７０１,,01,101,0600062,,,,,,,2025-07-15,1,,,,,テクマ,0
2435,9450003002691,新規,0,2025-07-15,2025-07-15,合同会社ＭＥＩＳＡ,,合同会社,北海道,富良野市,若松町９番２２号,,01,229,0760032,,,,,,,2025-07-15,1,,,,,メイサ,0
2437,9700150131375,新規,0,2025-07-15,2025-07-15,Ｐ．Ｇ．ＩＮＴＥＲＮＡＴＩＯＮＡＬ　ＴＲＡＤＩＮＧ,,外国会社等,埼玉県,本庄市,児玉町飯倉４７番地Ｂ１,,11,211,3670225,スリランカ民主社会主義共和国、ジャーエラ、ニワンダナ、１３６－Ａ,,,,,,2025-07-15,1,,,,,ピージイインターナシヨナルトレイデイング,0
2438,9700150131383,新規,0,2025-07-15,2025-07-15,ＦＪ　ＭＯＴＯＲＥＳ,,外国会社等,神奈川県,厚木市,戸田１４１７－１５ベルメゾン１０２号室,,14,212,2430023,スリランカ民主社会主義共和国、マーワネラ、ハサンマーワタ、ＮＯ．３１Ｆ,,,,,,2025-07-15,1,,,,,エフジエモーターレス,0
2439,9700150131391,新規,0,2025-07-15,2025-07-15,Ｍｅｌａｎｉ　Ｔｒａｄｉｎｇ　Ｐｖｔ　Ｌｔｄ．,,外国会社等,埼玉県,本庄市,児玉町飯倉４７番地Ｂ２,,11,211,3670225,スリランカ民主社会主義共和国、ウーラガスマンハンディヤ、ポストバトゥカナッタ、エイトマイルス、ポラアサラ、３３－Ｂ,,,,,,2025-07-15,1,,,,,メラニトレイデイングピイブイテイエルテイデイ,0
