sequenceNumber,corporateNumber,process,correct,updateDate,changeDate,name,nameImageId,kind,prefectureName,cityName,streetNumber,addressImageId,prefectureCode,cityCode,postCode,addressOutside,addressOutsideImageId,closeDate,closeCause,successorCorporateNumber,changeCause,assignmentDate,latest,enName,enPrefectureName,enCityName,enAddressOutside,furigana,hihyoji
1,1010001055009,登記記録の閉鎖等,0,2023-01-04,2022-12-26,ビーエム商事株式会社,,株式会社,東京都,新宿区,新宿１丁目１７番１１号,,13,104,1600022,,,2022-12-26,清算の結了等,,,2015-10-05,1,,,,,ビーエムショウジ,0
12,1010401142075,登記記録の閉鎖等,0,2023-01-04,2022-12-15,ｕｓｅｄｇｅ株式会社,,株式会社,東京都,港区,南青山３丁目１番３１号ＫＤ南青山ビル７階,,13,103,1070062,,,2022-12-15,合併による解散等,4010401091880,令和４年１２月１日東京都港区南青山三丁目１番３１号ＫＤ南青山ビル７階株式会社ＡＤＤＩＸ（4010401091880）に合併し解散,2018-11-15,1,,,,,ユースエッジ,0
23,1010901050414,登記記録の閉鎖等,0,2023-01-04,2022-12-27,楽天あと株式会社,,株式会社,東京都,世田谷区,玉川１丁目１４番１号,,13,112,1580094,,,2022-12-27,清算の結了等,,,2022-03-01,1,,,,,ラクテンアト,0
39,1011702013659,登記記録の閉鎖等,0,2023-01-04,2022-12-26,有限会社豊章,,有限会社,東京都,江戸川区,興宮町１２番１７号,,13,123,1330042,,,2022-12-26,清算の結了等,,,2015-10-05,1,,,,,,0
55,1020001045834,登記記録の閉鎖等,0,2023-01-04,2022-12-26,横浜サイエンスサポート株式会社,,株式会社,神奈川県,横浜市西区,みなとみらい４丁目４番２号,,14,103,2200012,,,2022-12-26,清算の結了等,,,2015-10-05,1,,,,,ヨコハマサイエンスサポート,0
61,1020001124976,登記記録の閉鎖等,0,2023-01-04,2022-12-23,横浜化学開発株式会社,,株式会社,神奈川県,横浜市旭区,南希望が丘５２番地１８マンション百合２０４号,,14,112,2410824,,,2022-12-23,清算の結了等,,,2018-02-14,1,,,,,ヨコハマカガクカイハツ,0
73,1021002055491,登記記録の閉鎖等,0,2023-01-04,2022-12-23,有限会社双葉製作所,,有限会社,神奈川県,足柄上郡大井町,西大井３４２番地,,14,362,2580017,,,2022-12-23,清算の結了等,,,2015-10-05,1,,,,,フタバセイサクショ,0
86,1040005002516,登記記録の閉鎖等,0,2023-01-04,2022-12-23,医療法人社団幕張インター外科,,その他の設立登記法人,千葉県,習志野市,袖ケ浦５丁目１９番２号,,12,216,2750021,,,2022-12-23,清算の結了等,,,2015-10-05,1,,,,,マクハリインターゲカ,0
87,1040005005824,登記記録の閉鎖等,0,2023-01-04,2022-12-26,特定非営利活動法人みのり会,,その他の設立登記法人,千葉県,松戸市,三矢小台２丁目１３番地の１４,,12,207,2710087,,,2022-12-26,清算の結了等,,,2015-10-05,1,,,,,ミノリカイ,0
92,1070001005065,登記記録の閉鎖等,0,2023-01-04,2022-12-26,株式会社Ｅセブン,,株式会社,群馬県,前橋市,上細井町２０７９番地４,,10,201,3710051,,,2022-12-26,清算の結了等,,,2015-10-05,1,,,,,イーセブン,0
109,1110002029546,登記記録の閉鎖等,0,2023-01-04,2022-12-27,有限会社ヨシノ,,有限会社,新潟県,長岡市,笹崎１丁目５番地１４,,15,202,9400833,,,2022-12-27,清算の結了等,,,2015-10-05,1,,,,,ヨシノ,0
118,1120005003893,登記記録の閉鎖等,0,2023-01-04,2022-12-26,財団法人大阪住宅建設協会,,その他の設立登記法人,大阪府,大阪市旭区,清水３丁目２４番１７号,,27,117,5350021,,,2022-12-26,清算の結了等,,,2015-10-05,1,,,,,オオサカジュウタクケンセツキョウカイ,0
126,1130001002304,登記記録の閉鎖等,0,2023-01-04,2022-12-26,株式会社京都きものセンター,,株式会社,京都府,京都市中京区,新町通錦小路上る百足屋町３８６番地,,26,104,6048214,,,2022-12-26,清算の結了等,,,2015-10-05,1,,,,,キョウトキモノセンター,0
129,1130002002963,登記記録の閉鎖等,0,2023-01-04,2022-12-26,有限会社丸徳創業,,有限会社,京都府,京都市上京区,一条通松屋町西入鏡石町２番地,,26,102,6028203,,,2022-12-26,清算の結了等,,,2015-10-05,1,,,,,マルトクソウギョウ,0
135,1140001015412,登記記録の閉鎖等,0,2023-01-04,2022-12-23,北神電機株式会社,,株式会社,兵庫県,明石市,魚住町清水１３７番地の１１,,28,203,6740074,,,2022-12-23,清算の結了等,,,2015-10-05,1,,,,,ホクシンデンキ,0
160,1180301015703,登記記録の閉鎖等,0,2023-01-04,2022-12-21,梶浦精工株式会社,,株式会社,愛知県,高浜市,碧海町５丁目１番地９,,23,227,4441324,,,2022-12-21,清算の結了等,,,2015-10-05,1,,,,,カジウラセイコウ,0
167,1240002044029,登記記録の閉鎖等,0,2023-01-04,2022-12-27,有限会社ミノミ運輸,,有限会社,広島県,福山市,水呑町３１２２番地,,34,207,7200832,,,2022-12-27,清算の結了等,,,2015-10-05,1,,,,,ミノミウンユ,0
169,1260002025308,登記記録の閉鎖等,0,2023-01-04,2022-12-27,有限会社原田組,,有限会社,岡山県,笠岡市,七番町１番地の４５,,33,205,7140094,,,2022-12-27,清算の結了等,,,2015-10-05,1,,,,,ハラダグミ,0
178,1290802015570,登記記録の閉鎖等,0,2023-01-04,2022-12-28,山の田商事有限会社,,有限会社,福岡県,北九州市八幡西区,小嶺台１丁目１番１５号,,40,109,8070082,,,2022-12-28,清算の結了等,,,2015-10-05,1,,,,,ヤマノタショウジ,0
187,1340001023320,登記記録の閉鎖等,0,2023-01-04,2022-12-27,ＴＯＴＡＬ　ＤＥＳＩＧＮ　ＣＯＭＰＡＮＹ株式会社,,株式会社,鹿児島県,鹿児島市,東千石町１７番１金海堂ビル,,46,201,8920842,,,2022-12-27,清算の結了等,,,2020-12-14,1,,,,,トータルデザインカンパニー,0
196,1370001041757,登記記録の閉鎖等,0,2023-01-04,2022-12-26,ＫＭＲエンジニアリング株式会社,,株式会社,宮城県,仙台市宮城野区,扇町３丁目４－１０,,04,102,9830034,,,2022-12-26,清算の結了等,,,2017-07-12,1,,,,,ケイエムアールエンジニアリング,0
213,1430002057837,登記記録の閉鎖等,0,2023-01-04,2022-12-27,有限会社コスモフレンド,,有限会社,北海道,札幌市南区,石山一条２丁目８番８－４０１号,,01,106,0050841,,,2022-12-27,清算の結了等,,,2015-10-05,1,,,,,コスモフレンド,0
220,1470001017268,登記記録の閉鎖等,0,2023-01-04,2022-12-27,スターキン株式会社,,株式会社,香川県,高松市,東山崎町９７１番地１,,37,201,7610312,,,2022-12-27,清算の結了等,,,2019-02-05,1,,,,,スターキン,0
225,2010001100663,登記記録の閉鎖等,0,2023-01-04,2022-12-22,株式会社ロイヤルバリ,,株式会社,千葉県,我孫子市,我孫子１丁目８番１３号,,12,222,2701166,,,2022-12-22,清算の結了等,,,2015-10-05,1,,,,,ロイヤルバリ,0
226,2010001166993,登記記録の閉鎖等,0,2023-01-04,2022-12-22,株式会社まるる,,株式会社,東京都,文京区,大塚３丁目４３番３号小石川ハイツ星座１０１,,13,105,1120012,,,2022-12-22,清算の結了等,,,2015-10-05,1,,,,,マルル,0
237,2010003027896,登記記録の閉鎖等,0,2023-01-04,2022-12-22,合同会社開発６０号,,合同会社,東京都,千代田区,飯田橋１丁目３番２号曙杉館４階清和コンサルティング株式会社内,,13,101,1020072,,,2022-12-22,清算の結了等,,,2018-07-23,1,,,,,カイハツロクジュウゴウ,0
238,2010003030693,登記記録の閉鎖等,0,2023-01-04,2022-12-23,トラストワン合同会社,,合同会社,東京都,千代田区,内神田２丁目２番６号５階あすな会計事務所内,,13,101,1010047,,,2022-12-23,清算の結了等,,,2019-09-20,1,,,,,トラストワン,0
259,2010801031067,登記記録の閉鎖等,0,2023-01-04,2022-12-26,株式会社インスパイアスペース,,株式会社,東京都,大田区,蒲田４丁目２９番１号銭坪ＡＴビル３Ｆ,,13,111,1440052,,,2022-12-26,合併による解散等,6250001015751,令和４年１１月３０日山口県防府市平和町１６番１５号防長不動産ビル１０２株式会社インスパイア（6250001015751）に合併し解散,2020-07-27,1,,,,,インスパイアスペース,0
283,2011802013509,登記記録の閉鎖等,0,2023-01-04,2022-12-26,有限会社サンユ商会,,有限会社,東京都,葛飾区,西水元３丁目３６番２号,,13,122,1250031,,,2022-12-26,清算の結了等,,,2015-10-05,1,,,,,サンユショウカイ,0
284,2012301009675,登記記録の閉鎖等,0,2023-01-04,2022-12-26,南洋トレーディング株式会社,,株式会社,神奈川県,相模原市中央区,南橋本２丁目２番２号,,14,152,2520253,,,2022-12-26,清算の結了等,,,2015-10-05,1,,,,,ナンヨートレーディング,0
285,2012401003454,登記記録の閉鎖等,0,2023-01-04,2022-12-26,株式会社緑創,,株式会社,東京都,小金井市,貫井南町４丁目１８番２７号,,13,210,1840014,,,2022-12-26,清算の結了等,,,2015-10-05,1,,,,,リョクソウ,0
301,2020001120669,登記記録の閉鎖等,0,2023-01-04,2022-12-26,イブテーゼ株式会社,,株式会社,神奈川県,横浜市西区,平沼１丁目２番２０－１１０９号,,14,103,2200023,,,2022-12-26,清算の結了等,,,2017-04-07,1,,,,,イブテーゼ,0
323,2040002010685,登記記録の閉鎖等,0,2023-01-04,2022-12-26,有限会社マウンテン・サウザンド,,有限会社,千葉県,千葉市若葉区,西都賀３丁目１８番１号,,12,104,2640026,,,2022-12-26,清算の結了等,,,2015-10-05,1,,,,,マウンテンサウザンド,0
333,2080402019645,登記記録の閉鎖等,0,2023-01-04,2022-12-28,有限会社ジョイント,,有限会社,静岡県,磐田市,緑ケ丘３番５号,,22,211,4380081,,,2022-12-28,清算の結了等,,,2015-10-05,1,,,,,ジョイント,0
338,2120001031245,登記記録の閉鎖等,0,2023-01-04,2022-12-27,株式会社ドム設計,,株式会社,大阪府,大阪市住之江区,御崎４丁目１０番８－３０７号,,27,125,5590013,,,2022-12-27,清算の結了等,,,2015-10-05,1,,,,,ドムセッケイ,0
363,2130002006294,登記記録の閉鎖等,0,2023-01-04,2022-12-26,有限会社メディカム,,有限会社,京都府,京都市左京区,上高野三宅町１６番地の９,,26,103,6060035,,,2022-12-26,清算の結了等,,,2015-10-05,1,,,,,メディカム,0
376,2180001135767,登記記録の閉鎖等,0,2023-01-04,2022-12-27,株式会社ギブミーファイブ,,株式会社,愛知県,名古屋市中区,栄２丁目７番２３号,,23,106,4600008,,,2022-12-27,清算の結了等,,,2019-03-15,1,,,,,ギブミーファイブ,0
381,2180002066714,登記記録の閉鎖等,0,2023-01-04,2022-12-26,有限会社東郊商事,,有限会社,愛知県,春日井市,大手田酉町２丁目１番地の１５,,23,206,4860806,,,2022-12-26,清算の結了等,,,2015-10-05,1,,,,,トウコウショウジ,0
382,2180003002453,登記記録の閉鎖等,0,2023-01-04,2022-12-26,合資会社梅博運輸,,合資会社,愛知県,名古屋市中川区,福川町１丁目１番地の２０,,23,110,4540059,,,2022-12-26,清算の結了等,,,2015-10-05,1,,,,,ウメヒロウンユ,0
386,2200001008945,登記記録の閉鎖等,0,2023-01-04,2022-12-28,ＡＳＳＥＴ・ＵＰ株式会社,,株式会社,岐阜県,岐阜市,芥見南山２丁目８番２０号,,21,201,5013133,,,2022-12-28,清算の結了等,,,2015-10-05,1,,,,,アセットアップ,0
407,2260003003377,登記記録の閉鎖等,0,2023-01-04,2023-01-04,合同会社ピースフル３６９,,合同会社,岡山県,岡山市中区,倉田６６３番地４９,,33,102,7038265,,,2023-01-04,清算の結了等,,,2020-11-19,1,,,,,ピースフルミロク,0
416,2290003011625,登記記録の閉鎖等,0,2023-01-04,2022-12-26,合同会社花・かご,,合同会社,福岡県,糟屋郡宇美町,貴船２丁目１６番８号グランツシュティルＩＩＡ２０２号,00124272,40,341,8112131,,,2022-12-26,清算の結了等,,,2021-09-17,1,,,,,ハナカゴ,0
421,2290802001198,登記記録の閉鎖等,0,2023-01-04,2022-12-28,有限会社オレンジ住宅,,有限会社,福岡県,北九州市八幡西区,折尾２丁目１番１０号,,40,109,8070825,,,2022-12-28,清算の結了等,,,2015-10-05,1,,,,,オレンジジュウタク,0
428,2320002019475,登記記録の閉鎖等,0,2023-01-04,2022-12-26,有限会社水谷商店,,有限会社,大分県,日田市,刃連町１２番地の１,,44,204,8770039,,,2022-12-26,清算の結了等,,,2015-10-05,1,,,,,ミズタニショウテン,0
436,2350002007650,登記記録の閉鎖等,0,2023-01-04,2022-12-27,株式会社宮崎県葬祭自動車,,株式会社,宮崎県,宮崎市,佐土原町下那珂２０６５番地１,,45,201,8800212,,,2022-12-27,清算の結了等,,,2015-10-05,1,,,,,ミヤザキケンソウサイジドウシャ,0
437,2350002009977,登記記録の閉鎖等,0,2023-01-04,2022-12-23,有限会社丸須商事,,有限会社,宮崎県,児湯郡木城町,大字高城字東宮田５００番地１,,45,404,8840101,,,2022-12-23,清算の結了等,,,2015-10-05,1,,,,,マルスショウジ,0
441,2370801000218,登記記録の閉鎖等,0,2023-01-04,2022-12-22,株式会社長町製作所,,株式会社,宮城県,名取市,下余田字中荷７１２番地の１,,04,207,9811223,,,2022-12-22,清算の結了等,,,2015-10-05,1,,,,,ナガマチセイサクショ,0
447,2390003000329,登記記録の閉鎖等,0,2023-01-04,2022-12-13,合資会社井桁屋呉服店,,合資会社,山形県,天童市,三日町２丁目１番１０号,,06,210,9940033,,,2022-12-13,清算の結了等,,,2015-10-05,1,,,,,イゲタヤゴフクテン,0
459,2460101004950,登記記録の閉鎖等,0,2023-01-04,2022-12-21,株式会社メディファルマ,,株式会社,北海道,河東郡音更町,木野西通１５丁目１番地１３,,01,631,0800302,,,2022-12-21,合併による解散等,7460102007279,令和４年１２月２１日北海道河東郡士幌町字士幌西二線１６７番地株式会社士幌調剤薬局（7460102007279）に合併し解散,2015-10-05,1,,,,,メディファルマ,0
460,2460101005874,登記記録の閉鎖等,0,2023-01-04,2022-12-26,株式会社帯広通商,,株式会社,北海道,帯広市,清流西４丁目８番地７,,01,207,0800872,,,2022-12-26,清算の結了等,,,2016-02-10,1,,,,,オビヒロツウショウ,0
469,3010001075467,登記記録の閉鎖等,0,2023-01-04,2022-12-26,新日本パブリック・アフェアーズ株式会社,,株式会社,東京都,千代田区,有楽町１丁目１番２号,,13,101,1000006,,,2022-12-26,清算の結了等,,,2015-10-05,1,,,,,シンニホンパブリックアフェアーズ,0
477,3010005026540,登記記録の閉鎖等,0,2023-01-04,2022-12-26,事業協同組合城北みらい,,その他の設立登記法人,東京都,板橋区,小豆沢１丁目７番１号,,13,119,1740051,,,2022-12-26,清算の結了等,,,2017-03-10,1,,,,,ジョウホクミライ,0
479,3010401099438,登記記録の閉鎖等,0,2023-01-04,2022-12-22,株式会社ＢＣＧ是空,,株式会社,東京都,大田区,蒲田２丁目１６番１２号ボヌール蒲田２０２号室,,13,111,1440052,,,2022-12-22,清算の結了等,,,2015-10-05,1,,,,,,0
486,3010501035805,登記記録の閉鎖等,0,2023-01-04,2022-12-27,株式会社トランスワープ,,株式会社,東京都,台東区,浅草橋３丁目３番２号浅草橋アムフラットＩＩ１０１号室,00051221,13,106,1110053,,,2022-12-27,清算の結了等,,,2015-10-05,1,,,,,トランスワープ,0
490,3010605002949,登記記録の閉鎖等,0,2023-01-04,2022-12-20,特定非営利活動法人革のまちすみだ,,その他の設立登記法人,東京都,墨田区,緑１丁目２４番２号タカミビル１階,,13,107,1300021,,,2022-12-20,清算の結了等,,,2015-10-05,1,,,,,カワノマチスミダ,0
494,3010802002867,登記記録の閉鎖等,0,2023-01-04,2022-12-23,有限会社大田林芳,,有限会社,東京都,大田区,東海３丁目２番６号,,13,111,1430001,,,2022-12-23,合併による解散等,6010001027564,令和４年１２月２０日東京都千代田区外神田四丁目３番１１号飛翔物産株式会社（6010001027564）に合併し解散,2015-10-05,1,,,,,,0
524,3011803004225,登記記録の閉鎖等,0,2023-01-04,2022-12-26,合同会社乗蒼,,合同会社,東京都,中央区,銀座１丁目２２番１１号銀座大竹ビジデンス２階,,13,102,1040061,,,2022-12-26,清算の結了等,,,2020-07-29,1,,,,,ジョウソウ,0
536,3021002000355,登記記録の閉鎖等,0,2023-01-04,2022-12-26,アルス湘南有限会社,,有限会社,神奈川県,藤沢市,鵠沼橘１丁目８番６号,,14,205,2510024,,,2022-12-26,清算の結了等,,,2015-10-05,1,,,,,,0
559,3060002026695,登記記録の閉鎖等,0,2023-01-04,2022-12-26,明和設備企画有限会社,,有限会社,栃木県,大田原市,住吉町１丁目１０番１１号,,09,210,3240057,,,2022-12-26,清算の結了等,,,2015-10-05,1,,,,,メイワセツビキカク,0
562,3070001002589,登記記録の閉鎖等,0,2023-01-04,2022-12-27,長谷部紙工株式会社,,株式会社,群馬県,前橋市,西片貝町１丁目２２９番地,,10,201,3710013,,,2022-12-27,清算の結了等,,,2015-10-05,1,,,,,ハセベシコウ,0
567,3080402021872,登記記録の閉鎖等,0,2023-01-04,2022-12-28,有限会社有輝,,有限会社,静岡県,袋井市,泉町２丁目５番地の１０,,22,216,4370062,,,2022-12-28,清算の結了等,,,2015-10-05,1,,,,,ユウキ,0
574,3110001016270,登記記録の閉鎖等,0,2023-01-04,2022-12-26,株式会社楽而園,,株式会社,新潟県,新潟市中央区,弁天橋通１丁目４番１７号,,15,103,9500925,,,2022-12-26,清算の結了等,,,2015-10-05,1,,,,,ラクジエン,0
575,3110001019315,登記記録の閉鎖等,0,2023-01-04,2022-12-26,日通高田運輸株式会社,,株式会社,新潟県,上越市,大字黒井２６７６番地１,,15,222,9420013,,,2022-12-26,清算の結了等,,,2015-10-05,1,,,,,ニッツウタカダウンユ,0
580,3120001182780,登記記録の閉鎖等,0,2023-01-04,2022-12-27,株式会社日吉,,株式会社,大阪府,大阪市西区,立売堀４丁目３番１６号,,27,106,5500012,,,2022-12-27,清算の結了等,,,2015-10-05,1,,,,,ヒヨシ,0
595,3130001022399,登記記録の閉鎖等,0,2023-01-04,2022-12-26,株式会社プラネットスタジオ,,株式会社,京都府,京都市右京区,御室小松野町２９番地,,26,108,6168094,,,2022-12-26,清算の結了等,,,2015-10-05,1,,,,,プラネットスタジオ,0
597,3130003005328,登記記録の閉鎖等,0,2023-01-04,2022-12-21,Ｈｏｎｎｅ合同会社,,合同会社,京都府,京都市南区,久世殿城町２９０番地１６,,26,107,6018205,,,2022-12-21,清算の結了等,,,2017-12-27,1,,,,,ホンネ,0
612,3180002018573,登記記録の閉鎖等,0,2023-01-04,2022-12-27,有限会社田中鉱油店,,有限会社,愛知県,名古屋市中川区,高畑１丁目５４番地,,23,110,4540911,,,2022-12-27,清算の結了等,,,2015-10-05,1,,,,,タナカコウユテン,0
615,3180002072471,登記記録の閉鎖等,0,2023-01-04,2022-12-26,有限会社利広開発,,有限会社,愛知県,瀬戸市,幡野町２０番地,,23,204,4890874,,,2022-12-26,清算の結了等,,,2015-10-05,1,,,,,リコウカイハツ,0
622,3200002007540,登記記録の閉鎖等,0,2023-01-04,2022-12-28,有限会社ワークス山本,,有限会社,岐阜県,各務原市,各務おがせ町２丁目１８０番地の４,,21,213,5090104,,,2022-12-28,清算の結了等,,,2015-10-05,1,,,,,ワークスヤマモト,0
625,3210001008506,登記記録の閉鎖等,0,2023-01-04,2022-12-28,株式会社エコテックス,,株式会社,福井県,坂井市,丸岡町石上第２号５２番地１,,18,210,9100317,,,2022-12-28,清算の結了等,,,2015-10-05,1,,,,,エコテックス,0
628,3240001002241,登記記録の閉鎖等,0,2023-01-04,2022-12-28,株式会社角工務店,,株式会社,広島県,広島市安佐南区,安東５丁目３１番５号,,34,105,7310153,,,2022-12-28,清算の結了等,,,2015-10-05,1,,,,,スミコウムテン,0
633,3260001037475,登記記録の閉鎖等,0,2023-01-04,2022-12-28,株式会社大月商店,,株式会社,岡山県,倉敷市,児島味野２丁目６番９号,,33,202,7110913,,,2022-12-28,清算の結了等,,,2022-12-13,1,,,,,オオツキショウテン,0
636,3290001007120,登記記録の閉鎖等,0,2023-01-04,2022-12-26,共栄ロードサービス株式会社,,株式会社,福岡県,福岡市西区,姪の浜３丁目２番１５号,,40,135,8190002,,,2022-12-26,清算の結了等,,,2015-10-05,1,,,,,キョウエイロードサービス,0
654,3330003006727,登記記録の閉鎖等,0,2023-01-04,2022-12-28,合同会社ハナブサ企画,,合同会社,熊本県,上益城郡益城町,大字広崎７９７番地１,,43,443,8612236,,,2022-12-28,清算の結了等,,,2016-06-13,1,,,,,ハナブサキカク,0
671,3420002016949,登記記録の閉鎖等,0,2023-01-04,2022-12-27,有限会社はせがわ仕出し店,,有限会社,青森県,十和田市,大字三本木字野崎４０番地５９０,,02,206,0340001,,,2022-12-27,清算の結了等,,,2015-10-05,1,,,,,,0
678,3450001002682,登記記録の閉鎖等,0,2023-01-04,2022-12-27,北栄興業株式会社,,株式会社,北海道,上川郡当麻町,四条南３丁目４番３号,,01,454,0781324,,,2022-12-27,清算の結了等,,,2015-10-05,1,,,,,ホクエイコウギョウ,0
679,3450001007806,登記記録の閉鎖等,0,2023-01-04,2022-12-27,朝日林産工業株式会社,,株式会社,北海道,士別市,朝日町中央４０３２番地,,01,220,0950401,,,2022-12-27,清算の結了等,,,2015-10-05,1,,,,,アサヒリンサンコウギョウ,0
681,3450002010759,登記記録の閉鎖等,0,2023-01-04,2022-12-28,有限会社美深自工,,有限会社,北海道,中川郡美深町,字敷島１２７番地８,,01,469,0982214,,,2022-12-28,清算の結了等,,,2015-10-05,1,,,,,ビフカジコウ,0
736,4011701012931,登記記録の閉鎖等,0,2023-01-04,2022-12-21,株式会社ユー・ティー,,株式会社,東京都,江戸川区,南篠崎町２丁目３２番１号,,13,123,1330065,,,2022-12-21,清算の結了等,,,2015-10-05,1,,,,,ユーティー,0
738,4011703002253,登記記録の閉鎖等,0,2023-01-04,2022-12-26,ダブリュー・ｏｆｆｉｃｅ合同会社,,合同会社,東京都,江戸川区,清新町１丁目１番３－１４０２号,,13,123,1340087,,,2022-12-26,清算の結了等,,,2019-05-07,1,,,,,ダブリューオフィス,0
742,4011802013762,登記記録の閉鎖等,0,2023-01-04,2022-12-26,有限会社新生自動車整備工場,,有限会社,東京都,足立区,小台２丁目２３番１０号,,13,121,1200046,,,2022-12-26,清算の結了等,,,2015-10-05,1,,,,,シンセイジドウシャセイビコウジョウ,0
743,4012402018524,登記記録の閉鎖等,0,2023-01-04,2022-12-26,有限会社海藤塗装工業,,有限会社,東京都,三鷹市,大沢２丁目１８番３号,,13,204,1810015,,,2022-12-26,清算の結了等,,,2015-10-05,1,,,,,カイトウトソウコウギョウ,0
747,4013302005835,登記記録の閉鎖等,0,2023-01-04,2022-12-26,有限会社高嶋動物病院,,有限会社,東京都,豊島区,池袋本町４丁目１３番５号,,13,116,1700011,,,2022-12-26,清算の結了等,,,2015-10-05,1,,,,,タカシマドウブツビョウイン,0
748,4013302012856,登記記録の閉鎖等,0,2023-01-04,2022-12-26,有限会社梨花,,有限会社,東京都,豊島区,西巣鴨３丁目７番２号,,13,116,1700001,,,2022-12-26,清算の結了等,,,2015-10-05,1,,,,,リカ,0
750,4020001011569,登記記録の閉鎖等,0,2023-01-04,2022-12-26,スタジオーネ株式会社,,株式会社,神奈川県,横浜市青葉区,奈良１丁目９番地７,,14,117,2270038,,,2022-12-26,清算の結了等,,,2015-10-05,1,,,,,スタジオーネ,0
766,4030001149144,登記記録の閉鎖等,0,2023-01-04,2022-12-26,株式会社五十嵐工業,,株式会社,埼玉県,さいたま市北区,植竹町１丁目３４２番地－１０９号,,11,102,3310813,,,2022-12-26,清算の結了等,,,2022-07-13,1,,,,,イガラシコウギョウ,0
793,4080102008913,登記記録の閉鎖等,0,2023-01-04,2022-12-27,有限会社グリーン・コンタクト,,有限会社,静岡県,伊豆市,柏久保５０８番地の１,,22,222,4102407,,,2022-12-27,清算の結了等,,,2015-10-05,1,,,,,グリーンコンタクト,0
812,4120002001451,登記記録の閉鎖等,0,2023-01-04,2022-12-28,有限会社プレスエンジニア,,有限会社,大阪府,大阪市鶴見区,横堤１丁目１１番５５号,,27,124,5380052,,,2022-12-28,清算の結了等,,,2015-10-05,1,,,,,プレスエンジニア,0
813,4120002024741,登記記録の閉鎖等,0,2023-01-04,2022-12-26,有限会社奥,,有限会社,大阪府,大阪市東淀川区,東淡路１丁目５番２－４１７号,,27,114,5330023,,,2022-12-26,清算の結了等,,,2015-10-05,1,,,,,オク,0
814,4120003015517,登記記録の閉鎖等,0,2023-01-04,2022-12-27,合同会社Ａ－Ｆａｍｉｌｙ,,合同会社,大阪府,枚方市,南中振１丁目３５番１１号,,27,210,5730094,,,2022-12-27,清算の結了等,,,2019-04-01,1,,,,,エーファミリー,0
832,4140003007396,登記記録の閉鎖等,0,2023-01-04,2022-12-26,株式会社実る,,株式会社,兵庫県,高砂市,曽根町２５０９番地の９サニーキューブＮ２０１,,28,216,6760082,,,2022-12-26,清算の結了等,,,2015-10-05,1,,,,,,0
839,4180001087338,登記記録の閉鎖等,0,2023-01-04,2022-12-26,株式会社イチハラ,,株式会社,愛知県,江南市,古知野町本郷１３５番地,,23,217,4838273,,,2022-12-26,清算の結了等,,,2015-10-05,1,,,,,イチハラ,0
842,4180002034066,登記記録の閉鎖等,0,2023-01-04,2022-12-27,有限会社ロイヤル南陽,,有限会社,愛知県,名古屋市港区,知多２丁目２２１８番地,,23,111,4550883,,,2022-12-27,清算の結了等,,,2015-10-05,1,,,,,ロイヤルナンヨウ,0
845,4180301013051,登記記録の閉鎖等,0,2023-01-04,2022-12-22,株式会社高橋業務店,00074573,株式会社,愛知県,安城市,住吉町３丁目１０番５１号,,23,212,4460072,,,2022-12-22,清算の結了等,,,2015-10-05,1,,,,,タカハシギョウムテン,0
851,4200002000346,登記記録の閉鎖等,0,2023-01-04,2022-12-27,有限会社伊藤合金鋳造所,,有限会社,岐阜県,岐阜市,加納本石町１丁目８番地,,21,201,5008466,,,2022-12-27,清算の結了等,,,2015-10-05,1,,,,,イトウゴウキンチュウゾウジョ,0
855,4230001005343,登記記録の閉鎖等,0,2023-01-04,2022-12-27,株式会社パル,,株式会社,富山県,富山市,八尾町小長谷６３２５番地,,16,201,9392321,,,2022-12-27,清算の結了等,,,2015-10-05,1,,,,,パル,0
865,4260005004925,登記記録の閉鎖等,0,2023-01-04,2023-01-04,ＮＰＯ法人きびの国観光協会,,その他の設立登記法人,岡山県,倉敷市,玉島中央町１丁目６－１６,,33,202,7138122,,,2023-01-04,清算の結了等,,,2015-10-05,1,,,,,キビノクニカンコウキョウカイ,0
871,4290001080141,登記記録の閉鎖等,0,2023-01-04,2022-12-26,博多ホスピタリティ株式会社,,株式会社,福岡県,福岡市博多区,博多駅前２丁目１１番４号,,40,132,8120011,,,2022-12-26,清算の結了等,,,2018-01-12,1,,,,,ハカタホスピタリティ,0
910,4370001041060,登記記録の閉鎖等,0,2023-01-04,2022-12-26,さくらリペイント株式会社,,株式会社,宮城県,仙台市若林区,沖野４丁目１番１７号シャトル太田Ｂ棟２０１号,,04,103,9840831,,,2022-12-26,清算の結了等,,,2017-03-06,1,,,,,,0
912,4370002007928,登記記録の閉鎖等,0,2023-01-04,2022-12-26,有限会社曽根建設,,有限会社,宮城県,仙台市泉区,住吉台東４丁目２番地の２,,04,105,9813222,,,2022-12-26,清算の結了等,,,2015-10-05,1,,,,,ソネケンセツ,0
937,5010001073493,登記記録の閉鎖等,0,2023-01-04,2022-12-22,バリアンズ株式会社,,株式会社,千葉県,我孫子市,我孫子１丁目８番１３号,,12,222,2701166,,,2022-12-22,清算の結了等,,,2015-10-05,1,,,,,バリアンズ,0
938,5010001099489,登記記録の閉鎖等,0,2023-01-04,2022-12-22,株式会社ノニメイト,,株式会社,千葉県,我孫子市,我孫子１丁目８番１３号,,12,222,2701166,,,2022-12-22,清算の結了等,,,2015-10-05,1,,,,,ノニメイト,0
943,5010001213545,登記記録の閉鎖等,0,2023-01-04,2022-12-15,ピークス株式会社,,株式会社,東京都,港区,虎ノ門１丁目１７番１号虎ノ門ヒルズビジネスタワー１５階,,13,103,1050001,,,2022-12-15,合併による解散等,4010401091880,令和４年１２月１日東京都港区南青山三丁目１番３１号ＫＤ南青山ビル７階株式会社ＡＤＤＩＸ（4010401091880）に合併し解散,2020-11-11,1,,,,,ピークス,0
946,5010005014213,登記記録の閉鎖等,0,2023-01-04,2022-12-26,弁護士法人レヒト法律事務所,,その他の設立登記法人,東京都,千代田区,二番町１番地２番町ハイム３１５号,,13,101,1020084,,,2022-12-26,清算の結了等,,,2015-10-05,1,,,,,レヒトホウリツジムショ,0
959,5010502013626,登記記録の閉鎖等,0,2023-01-04,2022-12-27,有限会社レインボー,,有限会社,東京都,台東区,花川戸１丁目１５番７号,,13,106,1110033,,,2022-12-27,清算の結了等,,,2015-10-05,1,,,,,レインボー,0
964,5010701022155,登記記録の閉鎖等,0,2023-01-04,2022-12-23,株式会社アイビーシー,,株式会社,東京都,品川区,大井１丁目６番３号,,13,109,1400014,,,2022-12-23,清算の結了等,,,2015-10-05,1,,,,,アイビーシー,0
973,5011001142833,登記記録の閉鎖等,0,2023-01-04,2022-12-26,インサイト株式会社,,株式会社,東京都,新宿区,新宿２丁目１３番１０号エルハイム新宿６０２号室,,13,104,1600022,,,2022-12-26,清算の結了等,,,2021-09-22,1,,,,,インサイト,0
974,5011101062857,登記記録の閉鎖等,0,2023-01-04,2022-12-23,サイファーＩＴ株式会社,,株式会社,東京都,中央区,八丁堀４丁目４番４－３階,,13,102,1040032,,,2022-12-23,清算の結了等,,,2015-10-05,1,,,,,サイファーアイティー,0
979,5011105003956,登記記録の閉鎖等,0,2023-01-04,2022-12-26,特定非営利活動法人アジア現代経済研究所,,その他の設立登記法人,東京都,新宿区,西新宿１丁目８－１新宿ビル５階（ＩＴＣ内）,,13,104,1600023,,,2022-12-26,清算の結了等,,,2015-10-05,1,,,,,アジアゲンダイケイザイケンキュウジョ,0
995,5020002035491,登記記録の閉鎖等,0,2023-01-04,2022-12-26,有限会社平野興業,,有限会社,神奈川県,横浜市港北区,高田西３丁目９番２２号,,14,109,2230066,,,2022-12-26,清算の結了等,,,2015-10-05,1,,,,,ヒラノコウギョウ,0
1006,5030001121309,登記記録の閉鎖等,0,2023-01-04,2022-12-27,フロンバンク株式会社,,株式会社,埼玉県,桶川市,大字川田谷字泉野１９９４番１,,11,231,3630027,,,2022-12-27,清算の結了等,,,2017-07-19,1,,,,,フロンバンク,0
1016,5040002084842,登記記録の閉鎖等,0,2023-01-04,2022-12-23,有限会社ユニオンホックセンター,,有限会社,千葉県,旭市,見広１３９１番地,,12,215,2892616,,,2022-12-23,清算の結了等,,,2015-10-05,1,,,,,ユニオンホックセンター,0
1019,5050001018255,登記記録の閉鎖等,0,2023-01-04,2022-12-26,株式会社ペピラ,,株式会社,茨城県,つくば市,筑穂２丁目５番地６,,08,220,3003257,,,2022-12-26,清算の結了等,,,2015-10-05,1,,,,,ペピラ,0
1028,5080402001187,登記記録の閉鎖等,0,2023-01-04,2022-12-28,有限会社エイデン,,有限会社,静岡県,浜松市中区,住吉２丁目３５番２１号,,22,131,4300906,,,2022-12-28,清算の結了等,,,2015-10-05,1,,,,,エイデン,0
1032,5100002024461,登記記録の閉鎖等,0,2023-01-04,2022-12-26,有限会社コーテック,,有限会社,長野県,松本市,安曇２８１９番地５号,,20,202,3901520,,,2022-12-26,清算の結了等,,,2015-10-05,1,,,,,コーテック,0
1033,5100003000841,登記記録の閉鎖等,0,2023-01-04,2022-12-23,合資会社工藤商店,,合資会社,長野県,南佐久郡小海町,大字豊里２３７番地,,20,303,3841103,,,2022-12-23,清算の結了等,,,2015-10-05,1,,,,,クドウショウテン,0
1038,5110003001979,登記記録の閉鎖等,0,2023-01-04,2022-12-26,合資会社美濃屋支店,,合資会社,新潟県,長岡市,東坂之上町２丁目３番地７,,15,202,9400066,,,2022-12-26,清算の結了等,,,2015-10-05,1,,,,,,0
1039,5120001052585,登記記録の閉鎖等,0,2023-01-04,2022-12-27,株式会社西元建材,00028260,株式会社,大阪府,大阪市東淀川区,小松２丁目１３番１２号,,27,114,5330004,,,2022-12-27,清算の結了等,,,2015-10-05,1,,,,,ニシモトケンザイ,0
1069,5180001019488,登記記録の閉鎖等,0,2023-01-04,2022-12-26,株式会社サカエポンプ製作所,,株式会社,愛知県,名古屋市中川区,荒江町３３番１６号,,23,110,4540032,,,2022-12-26,清算の結了等,,,2015-10-05,1,,,,,サカエポンプセイサクジョ,0
1089,5180003024362,登記記録の閉鎖等,0,2023-01-04,2022-12-23,合同会社ウィル,,合同会社,愛知県,名古屋市中区,錦２丁目９番２０号,,23,106,4600003,,,2022-12-23,清算の結了等,,,2022-10-19,1,,,,,ウィル,0
1091,5190001028595,登記記録の閉鎖等,0,2023-01-04,2022-12-20,株式会社ＫｐｌｕｓＡ,,株式会社,愛知県,春日井市,天神町１番地２ライオンズガーデン勝川４１５号室,,23,206,4860948,,,2022-12-20,清算の結了等,,,2021-08-05,1,,,,,カプラスエー,0
1095,5210002002638,登記記録の閉鎖等,0,2023-01-04,2022-12-28,有限会社ナビツクハウスサービス,,有限会社,福井県,福井市,網戸瀬町１７字５６番地１,,18,201,9100104,,,2022-12-28,清算の結了等,,,2015-10-05,1,,,,,ナビックハウスサービス,0
1100,5240001010614,登記記録の閉鎖等,0,2023-01-04,2022-12-27,株式会社プルトップ,,株式会社,広島県,広島市西区,己斐上３丁目２９番１０号,,34,104,7330815,,,2022-12-27,清算の結了等,,,2015-10-05,1,,,,,プルトップ,0
1120,5330002026294,登記記録の閉鎖等,0,2023-01-04,2022-12-28,有限会社フィッシングセンターイルカ,,有限会社,熊本県,八代市,高下西町１８３６番地の１,00097916,43,202,8660072,,,2022-12-28,清算の結了等,,,2015-10-05,1,,,,,,0
1148,5460301003436,登記記録の閉鎖等,0,2023-01-04,2022-12-26,株式会社マルニ寺島薬局,,株式会社,北海道,斜里郡斜里町,本町３８番地１,,01,545,0994113,,,2022-12-26,清算の結了等,,,2015-10-05,1,,,,,マルニテラシマヤッキョク,0
1182,6011501013525,登記記録の閉鎖等,0,2023-01-04,2022-12-21,ソウル物産株式会社,,株式会社,東京都,荒川区,西尾久１丁目２６番７号,,13,118,1160011,,,2022-12-21,清算の結了等,,,2015-10-05,1,,,,,ソウルブッサン,0
1196,6021001041959,登記記録の閉鎖等,0,2023-01-04,2022-12-26,株式会社マンシーバー,,株式会社,神奈川県,逗子市,逗子６丁目６番６号,,14,208,2490006,,,2022-12-26,清算の結了等,,,2015-10-05,1,,,,,マンシーバー,0
1199,6021002050661,登記記録の閉鎖等,0,2023-01-04,2022-12-26,有限会社ミナミ商事,,有限会社,神奈川県,足柄下郡箱根町,湯本茶屋１７９番地,,14,382,2500312,,,2022-12-26,清算の結了等,,,2015-10-05,1,,,,,ミナミショウジ,0
1205,6030002103552,登記記録の閉鎖等,0,2023-01-04,2022-12-26,有限会社シノダ工具店,,有限会社,埼玉県,川口市,並木１丁目４番５号,,11,203,3320034,,,2022-12-26,清算の結了等,,,2015-10-05,1,,,,,シノダコウグテン,0
1210,6040002096473,登記記録の閉鎖等,0,2023-01-04,2022-12-22,有限会社ギ・イチ空間デザイン研究所,,有限会社,千葉県,柏市,藤心１丁目２５番１４号,,12,217,2770034,,,2022-12-22,清算の結了等,,,2015-10-05,1,,,,,ギイチクウカンデザインケンキュウジョ,0
1212,6060001027717,登記記録の閉鎖等,0,2023-01-04,2022-12-26,宇都宮ホスピタリティ株式会社,,株式会社,栃木県,宇都宮市,東宿郷２丁目３番３号,,09,201,3210953,,,2022-12-26,清算の結了等,,,2015-11-27,1,,,,,ウツノミヤホスピタリティ,0
1213,6060002027443,登記記録の閉鎖等,0,2023-01-04,2022-12-23,有限会社山下電気,,有限会社,栃木県,矢板市,中２０１２番地１８,,09,211,3292135,,,2022-12-23,清算の結了等,,,2015-10-05,1,,,,,ヤマシタデンキ,0
1214,6070002025165,登記記録の閉鎖等,0,2023-01-04,2022-12-26,有限会社渡辺鉄工所,,有限会社,群馬県,みどり市,笠懸町阿左美４８５番地,,10,212,3792311,,,2022-12-26,清算の結了等,,,2015-10-05,1,,,,,ワタナベテッコウジョ,0
1216,6080001025248,登記記録の閉鎖等,0,2023-01-04,2022-12-27,北脇商店株式会社,,株式会社,静岡県,静岡市清水区,北脇５８０番地の１０,,22,103,4240052,,,2022-12-27,清算の結了等,,,2022-10-17,1,,,,,キタワキショウテン,0
1219,6080401004529,登記記録の閉鎖等,0,2023-01-04,2022-12-28,株式会社日高屋,,株式会社,静岡県,浜松市東区,植松町５２番地の８,,22,132,4300803,,,2022-12-28,清算の結了等,,,2015-10-05,1,,,,,ヒダカヤ,0
1227,6120001009469,登記記録の閉鎖等,0,2023-01-04,2022-12-16,株式会社片山,,株式会社,大阪府,大阪市東住吉区,今林１丁目２番６８号大阪市中央卸売市場東部市場内,,27,121,5460001,,,2022-12-16,清算の結了等,,,2015-10-05,1,,,,,カタヤマ,0
1229,6120001013520,登記記録の閉鎖等,0,2023-01-04,2022-12-28,株式会社双葉ベンダー工業,,株式会社,大阪府,大阪市東成区,東小橋１丁目１４番１８号,,27,115,5370024,,,2022-12-28,清算の結了等,,,2015-10-05,1,,,,,フタバベンダーコウギョウ,0
1237,6120002037270,登記記録の閉鎖等,0,2023-01-04,2022-12-28,有限会社天繁,,有限会社,大阪府,大阪市中央区,島之内１丁目４番２３－３０１号,,27,128,5420082,,,2022-12-28,清算の結了等,,,2015-10-05,1,,,,,テンシゲ,0
1243,6120101031463,登記記録の閉鎖等,0,2023-01-04,2022-12-27,大阪通商株式会社,,株式会社,大阪府,南河内郡太子町,大字山田１７６５番地,,27,381,5830992,,,2022-12-27,清算の結了等,,,2015-10-05,1,,,,,オオサカツウショウ,0
1260,6140001062128,登記記録の閉鎖等,0,2023-01-04,2022-12-22,株式会社山根建設,,株式会社,兵庫県,姫路市,広畑区小松町３丁目８２番地,,28,201,6711152,,,2022-12-22,清算の結了等,,,2015-10-05,1,,,,,ヤマネケンセツ,0
1278,6180002072114,登記記録の閉鎖等,0,2023-01-04,2022-12-23,有限会社ハッピー工業所,,有限会社,愛知県,瀬戸市,高根町２丁目１３番地の２,,23,204,4890931,,,2022-12-23,清算の結了等,,,2015-10-05,1,,,,,ハッピーコウギョウショ,0
1279,6180002076890,登記記録の閉鎖等,0,2023-01-04,2022-12-23,有限会社ツカサ放電,,有限会社,愛知県,一宮市,森本２丁目２３番５号,,23,203,4910831,,,2022-12-23,清算の結了等,,,2015-10-05,1,,,,,ツカサホウデン,0
1282,6180005015929,登記記録の閉鎖等,0,2023-01-04,2022-12-27,特定非営利活動法人東海外国人生活サポートセンター,,その他の設立登記法人,愛知県,名古屋市中川区,五月通１丁目２２番地の２,,23,110,4540812,,,2022-12-27,清算の結了等,,,2015-10-05,1,,,,,トウカイガイコクジンセイカツサポートセンター,0
1285,6180302006102,登記記録の閉鎖等,0,2023-01-04,2022-12-22,有限会社愛豊,,有限会社,愛知県,豊橋市,神野新田町字イノ割２０１番地の３,,23,201,4418077,,,2022-12-22,清算の結了等,,,2015-10-05,1,,,,,アイホウ,0
1287,6190001022449,登記記録の閉鎖等,0,2023-01-04,2022-12-28,株式会社ＢＩＮＧＯ,,株式会社,三重県,津市,雲出本郷町５９５番地１,,24,201,5140304,,,2022-12-28,清算の結了等,,,2015-10-05,1,,,,,ビンゴ,0
1288,6190005008709,登記記録の閉鎖等,0,2023-01-04,2022-12-27,公益財団法人三重北勢地域地場産業振興センター,,その他の設立登記法人,三重県,四日市市,安島１丁目３番１８号,,24,202,5100075,,,2022-12-27,清算の結了等,,,2015-10-05,1,,,,,ミエホクセイチイキジバサンギョウシンコウセンター,0
1298,6230002009250,登記記録の閉鎖等,0,2023-01-04,2022-12-26,有限会社クリエーション,,有限会社,富山県,砺波市,木下１０７番地,,16,208,9391358,,,2022-12-26,清算の結了等,,,2015-10-05,1,,,,,クリエーション,0
1335,6410002001511,登記記録の閉鎖等,0,2023-01-04,2022-12-27,有限会社今設計,,有限会社,秋田県,秋田市,泉南１丁目９番７号,,05,201,0100918,,,2022-12-27,清算の結了等,,,2015-10-05,1,,,,,コンセッケイ,0
1341,6430001077328,登記記録の閉鎖等,0,2023-01-04,2022-12-27,株式会社エリオライフ,,株式会社,北海道,札幌市中央区,南一条西５丁目７番地１豊川南一条ビル６階,,01,101,0600061,,,2022-12-27,清算の結了等,,,2018-09-05,1,,,,,エリオライフ,0
1353,6500002021054,登記記録の閉鎖等,0,2023-01-04,2022-12-27,岡崎ジム有限会社,,有限会社,愛媛県,四国中央市,中曽根町２４９３番地,,38,213,7990413,,,2022-12-27,清算の結了等,,,2015-10-05,1,,,,,オカザキジム,0
1354,7010001072659,登記記録の閉鎖等,0,2023-01-04,2022-12-23,株式会社サイクス,,株式会社,東京都,中央区,銀座１丁目３番３号,,13,102,1040061,,,2022-12-23,清算の結了等,,,2015-10-05,1,,,,,サイクス,0
1362,7010002000230,登記記録の閉鎖等,0,2023-01-04,2022-12-23,有限会社浅井商店,,有限会社,東京都,文京区,大塚５丁目１６番１４号,,13,105,1120012,,,2022-12-23,清算の結了等,,,2015-10-05,1,,,,,アサイショウテン,0
1369,7010401091861,登記記録の閉鎖等,0,2023-01-04,2022-12-15,株式会社２．,,株式会社,東京都,港区,南青山３丁目１番３１号ＫＤ南青山ビル７階,,13,103,1070062,,,2022-12-15,合併による解散等,4010401091880,令和４年１２月１日東京都港区南青山三丁目１番３１号ＫＤ南青山ビル７階株式会社ＡＤＤＩＸ（4010401091880）に合併し解散,2015-10-05,1,,,,,ツードット,0
1371,7010401159832,登記記録の閉鎖等,0,2023-01-04,2022-12-26,株式会社ファンドルベンチャーズ,,株式会社,東京都,港区,南麻布２丁目５番２１号イデア南麻布７Ｆ,,13,103,1060047,,,2022-12-26,合併による解散等,2010001229503,令和４年１２月２１日東京都千代田区霞が関一丁目４番１号日土地ビル２ＦＦＵＮＤＬ　ＶＥＮＴＵＲＥＳ株式会社（2010001229503）に合併し解散,2021-04-26,1,,,,,ファンドルベンチャーズ,0
1405,7011501002188,登記記録の閉鎖等,0,2023-01-04,2022-12-26,住宅サービス株式会社,,株式会社,東京都,新宿区,岩戸町８番地,,13,104,1620832,,,2022-12-26,清算の結了等,,,2015-10-05,1,,,,,ジュウタクサービス,0
1416,7011805003080,登記記録の閉鎖等,0,2023-01-04,2022-12-27,一般社団法人メディア研,,その他の設立登記法人,東京都,足立区,千住旭町４１番１４号第一ビル６階,,13,121,1200026,,,2022-12-27,清算の結了等,,,2021-06-23,1,,,,,メディアケン,0
1417,7012401030188,登記記録の閉鎖等,0,2023-01-04,2022-12-16,シーエフホーム株式会社,,株式会社,東京都,豊島区,東池袋３丁目１５番１４号クレール東池袋４０８号,,13,116,1700013,,,2022-12-16,清算の結了等,,,2015-10-05,1,,,,,シーエフホーム,0
1425,7013202000041,登記記録の閉鎖等,0,2023-01-04,2022-12-26,有限会社オブジェクト,,有限会社,東京都,品川区,荏原６丁目５番３号,,13,109,1420063,,,2022-12-26,清算の結了等,,,2015-10-05,1,,,,,オブジェクト,0
1436,7021001050620,登記記録の閉鎖等,0,2023-01-04,2022-12-26,株式会社プロテック,,株式会社,神奈川県,厚木市,戸室１丁目２４番２０－２０５号,,14,212,2430031,,,2022-12-26,清算の結了等,,,2015-10-05,1,,,,,プロテック,0
1445,7021002052070,登記記録の閉鎖等,0,2023-01-04,2022-12-26,有限会社湘南霊柩自動車,,有限会社,神奈川県,小田原市,国府津２丁目３番２８号,,14,206,2560812,,,2022-12-26,清算の結了等,,,2015-10-05,1,,,,,ショウナンレイキュウジドウシャ,0
1470,7060005000933,登記記録の閉鎖等,0,2023-01-04,2022-12-01,医療法人社団晴澄会,,その他の設立登記法人,栃木県,宇都宮市,下荒針町３６１８番地,,09,201,3210346,,,2022-12-01,合併による解散等,9060005000948,令和４年１２月１日栃木県宇都宮市大通り一丁目３番１６号社会医療法人中山会（9060005000948）に合併し解散,2015-10-05,1,,,,,セイチョウカイ,0
1478,7100002030796,登記記録の閉鎖等,0,2023-01-04,2022-12-26,有限会社プラネット,,有限会社,長野県,諏訪郡原村,１７２１７番地１６１８,,20,363,3910100,,,2022-12-26,清算の結了等,,,2015-10-05,1,,,,,プラネット,0
1479,7110001006441,登記記録の閉鎖等,0,2023-01-04,2022-12-26,新潟クライスラー株式会社,,株式会社,新潟県,新潟市中央区,桜木町４番８号,,15,103,9500949,,,2022-12-26,清算の結了等,,,2015-10-05,1,,,,,ニイガタクライスラー,0
1495,7130001021926,登記記録の閉鎖等,0,2023-01-04,2022-12-23,株式会社中野染工,,株式会社,京都府,京都市中京区,西洞院通二条下る二条西洞院町６５３番地,,26,104,6040041,,,2022-12-23,清算の結了等,,,2015-10-05,1,,,,,ナカノセンコウ,0
1501,7130001067589,登記記録の閉鎖等,0,2023-01-04,2022-12-12,株式会社三角屋ホールディングス,,株式会社,京都府,京都市左京区,下鴨西本町２番地,,26,103,6060826,,,2022-12-12,合併による解散等,6130001006928,令和４年１２月１２日京都市左京区下鴨西本町２番地株式会社三角屋（6130001006928）に合併し解散,2020-09-10,1,,,,,サンカクヤホールディングス,0
1508,7140001085367,登記記録の閉鎖等,0,2023-01-04,2022-12-26,株式会社十一屋,,株式会社,兵庫県,淡路市,岩屋鵜崎台３０００番地の７９,,28,226,6562401,,,2022-12-26,清算の結了等,,,2015-10-05,1,,,,,トイチヤ,0
1515,7140002037400,登記記録の閉鎖等,0,2023-01-04,2022-12-23,有限会社メタルエイト,,有限会社,兵庫県,高砂市,高砂町横町１０３６番地の１,,28,216,6760051,,,2022-12-23,清算の結了等,,,2015-10-05,1,,,,,メタルエイト,0
1546,7290001084230,登記記録の閉鎖等,0,2023-01-04,2022-12-12,株式会社ＡＩオアシス,,株式会社,福岡県,福岡市城南区,七隈４丁目５番１号,,40,136,8140133,,,2022-12-12,清算の結了等,,,2019-02-14,1,,,,,エーアイオアシス,0
1549,7290002020069,登記記録の閉鎖等,0,2023-01-04,2022-12-26,有限会社エフケイ・エス,,有限会社,福岡県,福岡市早良区,干隈４丁目１８番２７号,,40,137,8140163,,,2022-12-26,清算の結了等,,,2015-10-05,1,,,,,エフケイエス,0
1559,7300001010531,登記記録の閉鎖等,0,2023-01-04,2022-12-27,株式会社冷風技研,,株式会社,福岡県,北九州市若松区,響町１丁目６２番地２６エコタウン内,,40,103,8080021,,,2022-12-27,清算の結了等,,,2016-10-26,1,,,,,レイフウギケン,0
1567,7340001004868,登記記録の閉鎖等,0,2023-01-04,2022-12-28,株式会社フルーレ,,株式会社,鹿児島県,鹿児島市,東開町２番地５,,46,201,8910115,,,2022-12-28,清算の結了等,,,2015-10-05,1,,,,,フルーレ,0
1587,7420005007297,登記記録の閉鎖等,0,2023-01-04,2022-12-26,医療法人整修会,,その他の設立登記法人,青森県,五所川原市,字弥生町１６番１,,02,205,0370051,,,2022-12-26,清算の結了等,,,2015-10-05,1,,,,,セイシュウカイ,0
1601,8010001152088,登記記録の閉鎖等,0,2023-01-04,2022-12-26,ユニサンジャパン株式会社,,株式会社,東京都,千代田区,内幸町１丁目３番１号幸ビルディング９階,,13,101,1000011,,,2022-12-26,清算の結了等,,,2015-10-05,1,,,,,ユニサンジャパン,0
1606,8010002019996,登記記録の閉鎖等,0,2023-01-04,2022-12-22,有限会社古津己,,有限会社,東京都,中央区,築地６丁目３番２号,,13,102,1040045,,,2022-12-22,清算の結了等,,,2022-11-22,1,,,,,コツコ,0
1647,8011501026302,登記記録の閉鎖等,0,2023-01-04,2022-12-12,ＳＥＶＥＮ　ＳＷＡＮ株式会社,,株式会社,東京都,北区,赤羽２丁目６９番２号,,13,117,1150045,,,2022-12-12,清算の結了等,,,2020-10-22,1,,,,,セヴンスワン,0
1648,8011802028550,登記記録の閉鎖等,0,2023-01-04,2022-12-26,有限会社アマン,,有限会社,東京都,足立区,新田２丁目３番１６－３１５号,,13,121,1230865,,,2022-12-26,清算の結了等,,,2015-10-05,1,,,,,アマン,0
1651,8012701016803,登記記録の閉鎖等,0,2023-01-04,2022-12-27,株式会社ＹＡＳＵＹＯＳＩ,,株式会社,東京都,東村山市,久米川町４丁目１７番地９,,13,213,1890003,,,2022-12-27,清算の結了等,,,2021-12-07,1,,,,,ヤスヨシ,0
1652,8013101007608,登記記録の閉鎖等,0,2023-01-04,2022-12-27,株式会社トラストホーム,,株式会社,東京都,あきる野市,草花１９０２番地４１,,13,228,1970802,,,2022-12-27,清算の結了等,,,2017-05-01,1,,,,,トラストホーム,0
1654,8013201004091,登記記録の閉鎖等,0,2023-01-04,2022-12-26,東邦工業株式会社,,株式会社,神奈川県,横浜市港北区,新羽町９５４番地,,14,109,2230057,,,2022-12-26,清算の結了等,,,2015-10-05,1,,,,,トウホウコウギョウ,0
1664,8020002000526,登記記録の閉鎖等,0,2023-01-04,2022-12-26,有限会社高田ガラス建材,,有限会社,神奈川県,横浜市栄区,桂町６９７番地,,14,115,2470005,,,2022-12-26,清算の結了等,,,2015-10-05,1,,,,,タカダガラスケンザイ,0
1667,8021001062136,登記記録の閉鎖等,0,2023-01-04,2022-12-23,株式会社テリトリー,,株式会社,神奈川県,愛甲郡愛川町,中津２１１６番地の１,,14,401,2430303,,,2022-12-23,清算の結了等,,,2017-05-18,1,,,,,テリトリー,0
1678,8040002028961,登記記録の閉鎖等,0,2023-01-04,2022-12-23,有限会社栗原建築,,有限会社,千葉県,八千代市,村上８８１番地１ライオンズマンシヨン勝田台６１０号,,12,221,2760028,,,2022-12-23,清算の結了等,,,2015-10-05,1,,,,,,0
1682,8040003006966,登記記録の閉鎖等,0,2023-01-04,2022-12-22,茂原発電所合同会社,,合同会社,東京都,千代田区,一番町９番地８ノザワビルディング６階税理士法人シリウス内,,13,101,1020082,,,2022-12-22,清算の結了等,,,2015-10-05,1,,,,,モバラハツデンショ,0
1706,8110001023700,登記記録の閉鎖等,0,2023-01-04,2022-12-20,株式会社渡辺製作所,,株式会社,新潟県,長岡市,東高見２丁目３番地１０,,15,202,9400006,,,2022-12-20,合併による解散等,3110001022913,令和４年１２月２０日新潟県長岡市東高見一丁目４番地３株式会社トーエイ（3110001022913）に合併し解散,2015-10-05,1,,,,,ワタナベセイサクショ,0
1722,8130002008599,登記記録の閉鎖等,0,2023-01-04,2022-12-23,有限会社カミヤマ・事務所,,有限会社,京都府,京都市西京区,川島有栖川町３３番地の２,,26,111,6158191,,,2022-12-23,清算の結了等,,,2015-10-05,1,,,,,カミヤマジムショ,0
1723,8130002012782,登記記録の閉鎖等,0,2023-01-04,2022-12-23,有限会社ボタン屋野田,,有限会社,京都府,京都市山科区,勧修寺柴山８番地の２５０,,26,110,6078242,,,2022-12-23,清算の結了等,,,2015-10-05,1,,,,,ボタンヤノダ,0
1732,8140005008042,登記記録の閉鎖等,0,2023-01-04,2022-12-26,中町商店街協同組合,,その他の設立登記法人,兵庫県,丹波市,氷上町成松３３７番地,,28,223,6693601,,,2022-12-26,清算の結了等,,,2015-10-05,1,,,,,ナカマチショウテンガイ,0
1737,8180001011054,登記記録の閉鎖等,0,2023-01-04,2022-12-26,丸美観光株式会社,,株式会社,愛知県,名古屋市中区,千代田１丁目４番１５号,,23,106,4600012,,,2022-12-26,清算の結了等,,,2015-10-05,1,,,,,マルミカンコウ,0
1747,8180305009100,登記記録の閉鎖等,0,2023-01-04,2022-12-23,一般社団法人愛知スポーツカイロプラクティック協会,,その他の設立登記法人,愛知県,豊田市,宮前町１丁目２９番地１,,23,211,4710819,,,2022-12-23,清算の結了等,,,2020-09-01,1,,,,,アイチスポーツカイロプラクティックキョウカイ,0
1767,8260001035152,登記記録の閉鎖等,0,2023-01-04,2022-12-28,タロー君代行株式会社,,株式会社,岡山県,倉敷市,中島２３６１番地７５,,33,202,7100803,,,2022-12-28,清算の結了等,,,2021-01-25,1,,,,,タロークンダイコウ,0
1776,8290001003569,登記記録の閉鎖等,0,2023-01-04,2022-12-26,東都住宅株式会社,,株式会社,福岡県,福岡市東区,馬出２丁目３番３０号東峰マンション県庁前,,40,131,8120054,,,2022-12-26,清算の結了等,,,2015-10-05,1,,,,,トウトジュウタク,0
1779,8290003010943,登記記録の閉鎖等,0,2023-01-04,2022-12-22,合同会社けやき,,合同会社,福岡県,福岡市中央区,天神１丁目９番１７号福岡天神フコク生命ビル１５階,,40,133,8100001,,,2022-12-22,清算の結了等,,,2021-03-02,1,,,,,ケヤキ,0
1783,8310002012038,登記記録の閉鎖等,0,2023-01-04,2022-12-27,有限会社陽幸産業,,有限会社,長崎県,佐世保市,黒髪町４８９９番地９８,,42,202,8571152,,,2022-12-27,清算の結了等,,,2015-10-05,1,,,,,ヨウコウサンギョウ,0
1795,8350001011284,登記記録の閉鎖等,0,2023-01-04,2022-12-26,株式会社中央物流,,株式会社,宮崎県,都城市,都北町７４４１番地１,,45,202,8850004,,,2022-12-26,合併による解散等,6340001024140,令和４年１１月１５日鹿児島県伊佐市大口下殿字池ノ山１０２３番地２７０株式会社九州ファーム物流（6340001024140）に合併し解散,2015-10-05,1,,,,,チュウオウブツリュウ,0
1799,8370001022759,登記記録の閉鎖等,0,2023-01-04,2022-12-26,Ｇｒｅｅｎ　Ｌａｂｅｌ株式会社,,株式会社,宮城県,仙台市青葉区,西花苑２丁目１６番２５号,,04,101,9820262,,,2022-12-26,清算の結了等,,,2015-10-05,1,,,,,,0
1803,8370003000837,登記記録の閉鎖等,0,2023-01-04,2022-12-26,合資会社菊安商店,,合資会社,宮城県,仙台市太白区,長町１丁目７番２５号,,04,104,9820011,,,2022-12-26,清算の結了等,,,2015-10-05,1,,,,,キクヤスショウテン,0
1814,8440001008684,登記記録の閉鎖等,0,2023-01-04,2022-12-22,株式会社ＭＥＧＵＬＡＳ,,株式会社,北海道,函館市,美原３丁目３４番１２号,,01,202,0410806,,,2022-12-22,清算の結了等,,,2020-04-06,1,,,,,メグラス,0
1831,9010003030282,登記記録の閉鎖等,0,2023-01-04,2022-12-22,合同会社運用１２号,,合同会社,東京都,千代田区,飯田橋１丁目３番２号曙杉館４階清和コンサルティング株式会社内,,13,101,1020072,,,2022-12-22,清算の結了等,,,2019-07-29,1,,,,,ウンヨウジュウニゴウ,0
1844,9010502013845,登記記録の閉鎖等,0,2023-01-04,2022-12-26,有限会社ケンセカンド,,有限会社,東京都,台東区,蔵前３丁目３番４号サンハイツ蔵前４０１,,13,106,1110051,,,2022-12-26,清算の結了等,,,2015-10-05,1,,,,,ケンセカンド,0
1864,9011801006399,登記記録の閉鎖等,0,2023-01-04,2022-12-27,株式会社遠田商店,,株式会社,東京都,足立区,中川３丁目１８番１０号,,13,121,1200002,,,2022-12-27,清算の結了等,,,2015-10-05,1,,,,,オンダショウテン,0
1868,9011801030952,登記記録の閉鎖等,0,2023-01-04,2022-12-26,株式会社ティ・アイ・ティ,,株式会社,東京都,足立区,西保木間１丁目１９番１８号,,13,121,1210812,,,2022-12-26,清算の結了等,,,2015-10-23,1,,,,,ティアイティ,0
1869,9011802001250,登記記録の閉鎖等,0,2023-01-04,2022-12-27,有限会社エム・アイ・ティ,,有限会社,東京都,葛飾区,白鳥２丁目１０番６号,,13,122,1250063,,,2022-12-27,清算の結了等,,,2015-10-05,1,,,,,エムアイティ,0
1871,9012402020442,登記記録の閉鎖等,0,2023-01-04,2022-12-26,ＩＴｓｄｅｍｏ株式会社,,株式会社,東京都,三鷹市,下連雀３丁目２６番１２号,,13,204,1810013,,,2022-12-26,清算の結了等,,,2015-10-05,1,,,,,イツデモ,0
1876,9013301045175,登記記録の閉鎖等,0,2023-01-04,2022-12-26,未来トレーディング株式会社,,株式会社,東京都,豊島区,南大塚２丁目１１番１０号ミモザビル３階,,13,116,1700005,,,2022-12-26,清算の結了等,,,2020-02-07,1,,,,,ミライトレーディング,0
1877,9020001070569,登記記録の閉鎖等,0,2023-01-04,2022-12-26,株式会社イシゲ・エムイー研,,株式会社,神奈川県,川崎市幸区,鹿島田３丁目１２番２４号,,14,132,2120058,,,2022-12-26,清算の結了等,,,2015-10-05,1,,,,,イシゲエムイーケン,0
1888,9021002063256,登記記録の閉鎖等,0,2023-01-04,2022-12-26,有限会社大川商店,,有限会社,神奈川県,横須賀市,久里浜４丁目６番４号,,14,201,2390831,,,2022-12-26,清算の結了等,,,2015-10-05,1,,,,,オオカワショウテン,0
1890,9030001035406,登記記録の閉鎖等,0,2023-01-04,2022-12-20,日光園芸株式会社,,株式会社,埼玉県,草加市,柿木町５３５番地,,11,221,3400001,,,2022-12-20,清算の結了等,,,2015-10-05,1,,,,,ニッコウエンゲイ,0
1891,9030001046097,登記記録の閉鎖等,0,2023-01-04,2022-12-27,株式会社平山建設,,株式会社,東京都,羽村市,小作台５丁目３２番地１３サンノーブル小作壱番館４０１,,13,227,2050001,,,2022-12-27,清算の結了等,,,2015-10-05,1,,,,,ヒラヤマケンセツ,0
1936,9140001073873,登記記録の閉鎖等,0,2023-01-04,2022-12-26,株式会社ノスコ,,株式会社,兵庫県,西宮市,上甲東園２丁目２番２号,,28,204,6620813,,,2022-12-26,清算の結了等,,,2015-10-05,1,,,,,ノスコ,0
1942,9140002036664,登記記録の閉鎖等,0,2023-01-04,2022-12-27,有限会社ホスコ,,有限会社,兵庫県,加古川市,野口町水足１番地の８,,28,210,6750019,,,2022-12-27,清算の結了等,,,2015-10-05,1,,,,,ホスコ,0
1943,9140002057487,登記記録の閉鎖等,0,2023-01-04,2022-12-26,有限会社バックボーン,,有限会社,兵庫県,西宮市,甲風園１丁目１２番１２号,,28,204,6620832,,,2022-12-26,清算の結了等,,,2015-10-05,1,,,,,バックボーン,0
1951,9180001021465,登記記録の閉鎖等,0,2023-01-04,2022-12-22,熱田運送株式会社,,株式会社,愛知県,名古屋市熱田区,千代田町１１番１５号,,23,109,4560073,,,2022-12-22,清算の結了等,,,2015-10-05,1,,,,,アツタウンソウ,0
1953,9180001125951,登記記録の閉鎖等,0,2023-01-04,2022-12-28,株式会社ＰＡＣＩＦＩＣ　ＣＡＲＥＥＲ　ＤＥＳＩＧＮ,,株式会社,愛知県,名古屋市東区,泉１丁目２３番３７号,,23,102,4610001,,,2022-12-28,清算の結了等,,,2016-12-19,1,,,,,パシフィックキャリアデザイン,0
1970,9220001020074,登記記録の閉鎖等,0,2023-01-04,2022-12-27,株式会社庄健,,株式会社,石川県,金沢市,神谷内町ハ５５神谷内ビル１０５号,,17,201,9200801,,,2022-12-27,清算の結了等,,,2015-10-05,1,,,,,ショウケン,0
1978,9240002012382,登記記録の閉鎖等,0,2023-01-04,2022-12-27,ニューマシン有限会社,,有限会社,広島県,広島市佐伯区,三宅５丁目２０９番地の１,,34,108,7315143,,,2022-12-27,清算の結了等,,,2015-10-05,1,,,,,ニューマシン,0
1984,9290001037384,登記記録の閉鎖等,0,2023-01-04,2022-12-26,株式会社明電工,,株式会社,福岡県,宗像市,朝町２１１８番地５,,40,220,8114161,,,2022-12-26,清算の結了等,,,2015-10-05,1,,,,,メイデンコウ,0
1992,9290003001925,登記記録の閉鎖等,0,2023-01-04,2022-12-26,噛み合わせ研究所合同会社,,合同会社,福岡県,春日市,春日７丁目７７番２号,,40,218,8160814,,,2022-12-26,清算の結了等,,,2015-10-05,1,,,,,カミアワセケンキュウショ,0
2005,9350002011547,登記記録の閉鎖等,0,2023-01-04,2022-12-27,新日東商事有限会社,,有限会社,宮崎県,日向市,亀崎東４丁目１番地,,45,206,8830067,,,2022-12-27,清算の結了等,,,2015-10-05,1,,,,,シンニットウショウジ,0
2012,9370205001351,登記記録の閉鎖等,0,2023-01-04,2022-12-26,特定非営利活動法人みやぎアイアイ鹿杜会,,その他の設立登記法人,宮城県,大崎市,鹿島台木間塚字築道３番地６,,04,215,9894102,,,2022-12-26,清算の結了等,,,2015-10-05,1,,,,,ミヤギアイアイロクトカイ,0
2021,9400001000594,登記記録の閉鎖等,0,2023-01-04,2022-12-28,株式会社ザイツ,,株式会社,岩手県,盛岡市,津志田４地割４９番地１,,03,201,0200835,,,2022-12-28,清算の結了等,,,2015-10-05,1,,,,,ザイツ,0
