sequenceNumber,corporateNumber,process,correct,updateDate,changeDate,name,nameImageId,kind,prefectureName,cityName,streetNumber,addressImageId,prefectureCode,cityCode,postCode,addressOutside,addressOutsideImageId,closeDate,closeCause,successorCorporateNumber,changeCause,assignmentDate,latest,enName,enPrefectureName,enCityName,enAddressOutside,furigana,hihyoji
15,1010001232103,新規,0,2023-01-17,2023-01-17,晴れの日株式会社,,株式会社,東京都,中央区,日本橋２丁目２番３号ＲＩＳＨＥビルＵＣＦ４階,,13,102,1030027,,,,,,,2023-01-17,1,,,,,ハレノヒ,0
16,1010001232152,新規,0,2023-01-17,2023-01-17,吉賀株式会社,,株式会社,東京都,中央区,日本橋人形町３丁目１１番７号山西ビル１Ｆ,,13,102,1030013,,,,,,,2023-01-17,1,,,,,ヨシガ,0
17,1010001232193,新規,0,2023-01-17,2023-01-17,株式会社Ａｓｗａｎ　Ｃａｐｉｔａｌ,,株式会社,東京都,中央区,銀座７丁目１４番１３号,,13,102,1040061,,,,,,,2023-01-17,1,,,,,アスワンキャピタル,0
18,1010001232210,新規,0,2023-01-17,2023-01-17,Ｓｔａｂｉｌｉｔｙ　ＡＩ　Ｊａｐａｎ株式会社,,株式会社,東京都,中央区,日本橋茅場町１丁目１３番１３号七宝ビルディング９階,,13,102,1030025,,,,,,,2023-01-17,1,,,,,スタビリティエーアイジャパン,0
19,1010001232235,新規,0,2023-01-17,2023-01-17,株式会社フューチュアー・センス,,株式会社,東京都,千代田区,九段南１丁目５番６号りそな九段ビル５階ＫＳフロア,,13,101,1020074,,,,,,,2023-01-17,1,,,,,フューチュアーセンス,0
21,1010003039570,新規,0,2023-01-17,2023-01-17,合同会社ｎｅｘｔｓｐｅｓ,,合同会社,東京都,中央区,銀座７丁目１５番１８号４Ｆ,,13,102,1040061,,,,,,,2023-01-17,1,,,,,ネクストスペース,0
22,1010003039579,新規,0,2023-01-17,2023-01-17,合同会社ｔｅｎ,,合同会社,東京都,中央区,銀座１丁目２２番１１号２Ｆ,,13,102,1040061,,,,,,,2023-01-17,1,,,,,テン,0
23,1010003039595,新規,0,2023-01-17,2023-01-17,合同会社Ｇｏｎｇ　Ｏｆ,,合同会社,東京都,中央区,銀座１丁目１２－４Ｎ＆Ｅ－ＢＬＤ．７階,,13,102,1040061,,,,,,,2023-01-17,1,,,,,ゴンゴフ,0
38,1010401171826,新規,0,2023-01-17,2023-01-17,ＭＣＰ１３株式会社,,株式会社,東京都,港区,元赤坂１丁目１番８号株式会社赤坂国際会計内,,13,103,1070051,,,,,,,2023-01-17,1,,,,,エムシーピーワンスリー,0
39,1010401171859,新規,0,2023-01-17,2023-01-17,株式会社Ｎｅｘｔ　ｉｎｎｏｖａｔｉｏｎ,,株式会社,東京都,港区,西麻布２丁目１０番２号五十嵐ビル２Ｆ,,13,103,1060031,,,,,,,2023-01-17,1,,,,,ネクストイノベーション,0
40,1010401171867,新規,0,2023-01-17,2023-01-17,ＭＡＨＯＬＯＢＡ株式会社,,株式会社,東京都,港区,南青山５丁目１７番２号,,13,103,1070062,,,,,,,2023-01-17,1,,,,,マホロバ,0
41,1010401171883,新規,0,2023-01-17,2023-01-17,株式会社オーバーラン,,株式会社,東京都,港区,南青山３丁目１番３６号青山丸竹ビル６Ｆ,,13,103,1070062,,,,,,,2023-01-17,1,,,,,オーバーラン,0
43,1010403029287,新規,0,2023-01-17,2023-01-17,合同会社東北十和田青葉会,,合同会社,東京都,港区,浜松町１丁目１８番１３号,,13,103,1050013,,,,,,,2023-01-17,1,,,,,トウホクトワダアオバカイ,0
44,1010403029304,新規,0,2023-01-17,2023-01-17,矢部紹介合同会社,,合同会社,東京都,港区,南青山２丁目２番１５号,,13,103,1070062,,,,,,,2023-01-17,1,,,,,ヤベショウカイ,0
46,1010501049880,新規,0,2023-01-17,2023-01-17,株式会社チンタオアイ,,株式会社,東京都,台東区,松が谷２丁目９番１－３０６号,,13,106,1110036,,,,,,,2023-01-17,1,,,,,チンタオアイ,0
47,1010601062437,新規,0,2023-01-17,2023-01-17,盛杭国際株式会社,,株式会社,東京都,江東区,佐賀１丁目１０番１５－１１０２号,,13,108,1350031,,,,,,,2023-01-17,1,,,,,セイコウコクサイ,0
52,1010701043725,新規,0,2023-01-17,2023-01-17,ＡＴＩ株式会社,,株式会社,東京都,品川区,東五反田２丁目３番５号五反田中央ビル７階,,13,109,1410022,,,,,,,2023-01-17,1,,,,,エーティーアイ,0
58,1010805002998,新規,0,2023-01-17,2023-01-17,一般社団法人プラスサイエンス協議会,,その他の設立登記法人,東京都,大田区,上池台５丁目１８－１,,13,111,1450064,,,,,,,2023-01-17,1,,,,,プラスサイエンスキョウギカイ,0
60,1010905004416,新規,0,2023-01-17,2023-01-17,税理士法人佐藤事務所,,その他の設立登記法人,東京都,世田谷区,等々力５丁目６番３号３Ｆ,,13,112,1580082,,,,,,,2023-01-17,1,,,,,サトウジムショ,0
69,1011001152043,新規,0,2023-01-17,2023-01-17,株式会社Ｔｅｃｈ　Ｇｒｅｅｄｙ,,株式会社,東京都,渋谷区,恵比寿西２丁目１４番７号パークアクシス代官山１００２,,13,113,1500021,,,,,,,2023-01-17,1,,,,,テックグリーディー,0
71,1011003016080,新規,0,2023-01-17,2023-01-17,ビューティーアップ合同会社,,合同会社,東京都,渋谷区,神宮前６丁目２３番４号桑野ビル２Ｆ,,13,113,1500001,,,,,,,2023-01-17,1,,,,,ビューティーアップ,0
72,1011003016114,新規,0,2023-01-17,2023-01-17,合同会社ＢＯ企画,,合同会社,東京都,渋谷区,東４丁目６番２１号,,13,113,1500011,,,,,,,2023-01-17,1,,,,,ビーオーキカク,0
75,1011005009900,新規,0,2023-01-17,2023-01-17,一般社団法人全日本児童音楽協会,,その他の設立登記法人,東京都,渋谷区,本町４丁目９番１号１階,,13,113,1510071,,,,,,,2023-01-17,1,,,,,ゼンニホンジドウオンガクキョウカイ,0
78,1011101101511,新規,0,2023-01-17,2023-01-17,代崎株式会社,,株式会社,東京都,新宿区,西新宿７丁目５番５号ＵＣＦ４０６,,13,104,1600023,,,,,,,2023-01-17,1,,,,,シロザキ,0
80,1011103012590,新規,0,2023-01-17,2023-01-17,ＣＧＭ　Ｊａｐａｎ合同会社,,合同会社,東京都,新宿区,新宿５丁目１４番１２号新宿三丁目オフィス７０６号,,13,104,1600022,,,,,,,2023-01-17,1,,,,,シージーエムジャパン,0
81,1011303004636,新規,0,2023-01-17,2023-01-17,合同会社ＶＯＬＯ,,合同会社,東京都,杉並区,和泉３丁目５２番４号,,13,115,1680063,,,,,,,2023-01-17,1,,,,,ウォロ,0
86,1011501028858,新規,0,2023-01-17,2023-01-17,株式会社ＴＫサーキュレーション,,株式会社,東京都,北区,赤羽１丁目７番９号,,13,117,1150045,,,,,,,2023-01-17,1,,,,,ティケイサーキュレーション,0
88,1011503005434,新規,0,2023-01-17,2023-01-17,さぽーとでんき合同会社,,合同会社,東京都,荒川区,町屋７丁目７番４号,,13,118,1160001,,,,,,,2023-01-17,1,,,,,サポートデンキ,0
89,1011601026506,新規,0,2023-01-17,2023-01-17,株式会社Ｐｏｎｔｅ　Ａｌｔｏ,,株式会社,東京都,練馬区,上石神井２丁目１２番１５号,,13,120,1770044,,,,,,,2023-01-17,1,,,,,ポンテアルト,0
116,1020001149866,新規,0,2023-01-17,2023-01-17,Ｐａｇｌａｇｏインベストメント株式会社,,株式会社,神奈川県,横浜市青葉区,あざみ野南２丁目１４番地８,,14,117,2250012,,,,,,,2023-01-17,1,,,,,パグラゴインベストメント,0
119,1021001077933,新規,0,2023-01-17,2023-01-17,株式会社ＯＣＴＡ,,株式会社,神奈川県,大和市,中央４丁目１－２３風の木ビル７Ｆ,,14,213,2420021,,,,,,,2023-01-17,1,,,,,オクタ,0
120,1021001077982,新規,0,2023-01-17,2023-01-17,株式会社パッショーネ,,株式会社,神奈川県,相模原市緑区,原宿南２丁目２６番地５,,14,151,2520103,,,,,,,2023-01-17,1,,,,,パッショーネ,0
122,1021003012608,新規,0,2023-01-17,2023-01-17,合同会社ルイーダ,,合同会社,神奈川県,小田原市,本町１丁目１０番２６－３０２号,,14,206,2500012,,,,,,,2023-01-17,1,,,,,ルイーダ,0
131,1030001151763,新規,0,2023-01-17,2023-01-17,株式会社長谷川青果,,株式会社,埼玉県,深谷市,折之口５６７番地,,11,218,3660812,,,,,,,2023-01-17,1,,,,,ハセガワセイカ,0
132,1030001151920,新規,0,2023-01-17,2023-01-17,株式会社アトラス,,株式会社,埼玉県,三郷市,三郷１丁目５番地７ベルメゾン三郷５０５号室,,11,237,3410024,,,,,,,2023-01-17,1,,,,,アトラス,0
133,1030001151953,新規,0,2023-01-17,2023-01-17,株式会社ＪａｙｒｏＴｒｅｅ,,株式会社,埼玉県,さいたま市大宮区,三橋１丁目７６２番地３,,11,103,3300856,,,,,,,2023-01-17,1,,,,,ジャイロツリー,0
134,1030001151994,新規,0,2023-01-17,2023-01-17,株式会社Ｆｕｎｔａｓｔｉｃ,,株式会社,埼玉県,富士見市,水谷東２丁目２９番２２号,,11,235,3540013,,,,,,,2023-01-17,1,,,,,ファンタスティック,0
139,1030003020883,新規,0,2023-01-17,2023-01-17,ハロ合同会社,,合同会社,埼玉県,狭山市,笹井２丁目２６番５号,,11,215,3501327,,,,,,,2023-01-17,1,,,,,ハロ,0
140,1030003020982,新規,0,2023-01-17,2023-01-17,合同会社ＡＯＢＡ　Ｐ＆Ｄ,,合同会社,埼玉県,新座市,東北２丁目３６－１１ＥＨ第４ビル４階,,11,230,3520001,,,,,,,2023-01-17,1,,,,,アオバピーアンドディー,0
144,1040001126681,新規,0,2023-01-17,2023-01-17,チカシタ株式会社,,株式会社,千葉県,柏市,塚崎３丁目８番地１６,,12,217,2770923,,,,,,,2023-01-17,1,,,,,チカシタ,0
147,1040003021699,新規,0,2023-01-17,2023-01-17,ＪＰオートワークス合同会社,,合同会社,千葉県,印西市,小林３９６０番地１トキワ荘１０２号,,12,231,2701318,,,,,,,2023-01-17,1,,,,,ジェイピーオートワークス,0
148,1040005021870,新規,0,2023-01-17,2023-01-17,社会保険労務士法人はるか社労士事務所,,その他の設立登記法人,千葉県,千葉市緑区,おゆみ野中央４丁目１９番地７サンハイツおゆみ野２０６号室,,12,105,2660032,,,,,,,2023-01-17,1,,,,,ハルカシャロウシジムショ,0
149,1050001052266,新規,0,2023-01-17,2023-01-17,株式会社ｆｏｒＲＡＳ,,株式会社,茨城県,つくばみらい市,富士見ヶ丘４丁目８番地５,,08,235,3002417,,,,,,,2023-01-17,1,,,,,フォーラス,0
153,1050003007136,新規,0,2023-01-17,2023-01-17,合同会社ＤＡＩ　ＮＧＵＹＥＮ,,合同会社,茨城県,神栖市,神栖３丁目２番１９号ロイヤルマンション３０３,,08,232,3140143,,,,,,,2023-01-17,1,,,,,ダイグエン,0
154,1050003007160,新規,0,2023-01-17,2023-01-17,ＴＥＯ合同会社,,合同会社,茨城県,牛久市,南２丁目２２―２０,,08,219,3001222,,,,,,,2023-01-17,1,,,,,テオ,0
167,1090001017926,新規,0,2023-01-17,2023-01-17,株式会社花匠,,株式会社,山梨県,甲府市,下石田２丁目１４番１１号Ｂ棟,,19,201,4000046,,,,,,,2023-01-17,1,,,,,ハナショウ,0
176,1120001251760,新規,0,2023-01-17,2023-01-17,株式会社カイゼンキャリア,,株式会社,大阪府,大阪市福島区,福島５丁目６番３１号,,27,103,5530003,,,,,,,2023-01-17,1,,,,,カイゼンキャリア,0
177,1120001251769,新規,0,2023-01-17,2023-01-17,株式会社ＪＵＳＴ　ＲＩＧＨＴ,,株式会社,大阪府,大阪市北区,池田町１７番１８号メッセージ天神橋池田町８０１号室,,27,127,5300033,,,,,,,2023-01-17,1,,,,,ジャストライト,0
178,1120001251777,新規,0,2023-01-17,2023-01-17,錦韻株式会社,,株式会社,大阪府,大阪市中央区,島之内２丁目３－１０メゾン・ド・シャルム４０１号,,27,128,5420082,,,,,,,2023-01-17,1,,,,,キンイン,0
179,1120001251810,新規,0,2023-01-17,2023-01-17,株式会社Ｂａｍｏｏｔ,,株式会社,大阪府,大阪市西区,江戸堀１丁目１６番２２号,,27,106,5500002,,,,,,,2023-01-17,1,,,,,バモート,0
186,1120901046995,新規,0,2023-01-17,2023-01-17,株式会社１１１Ｆｌｏｗｅｒｓ,,株式会社,大阪府,高槻市,大和２丁目７番１号の３,,27,207,5691047,,,,,,,2023-01-17,1,,,,,ワンスリーフラワーズ,0
205,1140001128767,新規,0,2023-01-17,2023-01-17,ＢＹＣＨＯＯＳＩＮＧ株式会社,,株式会社,兵庫県,神戸市中央区,中山手通６丁目７番１２－２０３号,,28,110,6500004,,,,,,,2023-01-17,1,,,,,バイチュージング,0
206,1140001128775,新規,0,2023-01-17,2023-01-17,兵庫耐圧試験センター株式会社,,株式会社,兵庫県,伊丹市,昆陽泉町２丁目６番地６,,28,207,6640885,,,,,,,2023-01-17,1,,,,,ヒョウゴタイアツシケンセンター,0
207,1140001128783,新規,0,2023-01-17,2023-01-17,株式会社シトラス,,株式会社,兵庫県,西宮市,寿町５番９－２０４号,,28,204,6620047,,,,,,,2023-01-17,1,,,,,シトラス,0
208,1140001128791,新規,0,2023-01-17,2023-01-17,株式会社フジテック,,株式会社,兵庫県,加東市,掎鹿谷３２１番地,,28,228,6731312,,,,,,,2023-01-17,1,,,,,フジテック,0
209,1140003018594,新規,0,2023-01-17,2023-01-17,合同会社ＣＭＥ,,合同会社,兵庫県,川西市,緑台５丁目１番地の５４,,28,217,6660129,,,,,,,2023-01-17,1,,,,,シーエムイー,0
210,1140005026455,新規,0,2023-01-17,2023-01-17,医療法人社団大雄会,,その他の設立登記法人,兵庫県,西宮市,名次町５番２４号,,28,204,6620024,,,,,,,2023-01-17,1,,,,,ダイユウカイ,0
211,1150001026094,新規,0,2023-01-17,2023-01-17,株式会社Ｗａｋａｎａ　ｓｔｙｌｅ,,株式会社,奈良県,奈良市,法蓮町１６３－１新大宮愛正寺ビル３０７,,29,201,6308113,,,,,,,2023-01-17,1,,,,,ワカナスタイル,0
212,1150001026103,新規,0,2023-01-17,2023-01-17,東日株式会社,,株式会社,奈良県,奈良市,横井３丁目１７５番地１０１号室,,29,201,6308422,,,,,,,2023-01-17,1,,,,,トウヒ,0
221,1180001154578,新規,0,2023-01-17,2023-01-17,上浦物流株式会社,,株式会社,愛知県,名古屋市熱田区,五番町２番３２号（６０４号）,,23,109,4560057,,,,,,,2023-01-17,1,,,,,カミウラブツリュウ,0
222,1180001154603,新規,0,2023-01-17,2023-01-17,株式会社ＰＢ,,株式会社,愛知県,名古屋市緑区,徳重４丁目１５０１番地,,23,114,4580815,,,,,,,2023-01-17,1,,,,,ピービー,0
226,1180301037004,新規,0,2023-01-17,2023-01-17,株式会社こもれびファーム知立,,株式会社,愛知県,知立市,西中町中長５０番地１,,23,225,4720016,,,,,,,2023-01-17,1,,,,,コモレビファームチリュウ,0
227,1180301037029,新規,0,2023-01-17,2023-01-17,株式会社ＫＡＩＴ,,株式会社,愛知県,岡崎市,竜美旭町１２番地１１,,23,202,4440877,,,,,,,2023-01-17,1,,,,,カイト,0
246,1240001060968,新規,0,2023-01-17,2023-01-17,株式会社上桐不動産,,株式会社,広島県,廿日市市,塩屋２丁目１４番６号,,34,213,7390445,,,,,,,2023-01-17,1,,,,,ウワギリフドウサン,0
249,1240003005979,新規,0,2023-01-17,2023-01-17,瀬戸内メディカル合同会社,,合同会社,広島県,広島市中区,大手町１丁目１－２０相生橋ビル７階Ａ号室,,34,101,7300051,,,,,,,2023-01-17,1,,,,,セトウチメディカル,0
259,1290001100240,新規,0,2023-01-17,2023-01-17,株式会社泰成,,株式会社,福岡県,春日市,白水ヶ丘２丁目１８１番地１,,40,218,8160845,,,,,,,2023-01-17,1,,,,,タイセイ,0
260,1290001100249,新規,0,2023-01-17,2023-01-17,株式会社落語ｄｅ九州,,株式会社,福岡県,福岡市博多区,博多駅前２丁目１９番１７号トーカン博多第５ビル３１２号室,,40,132,8120011,,,,,,,2023-01-17,1,,,,,ラクゴデキュウシュウ,0
261,1290003013424,新規,0,2023-01-17,2023-01-17,ＡＮＤＬＯＧＩＣ合同会社,,合同会社,福岡県,宗像市,王丸８６２番地１,,40,220,8113422,,,,,,,2023-01-17,1,,,,,アンドロジック,0
271,1320001019519,新規,0,2023-01-17,2023-01-17,株式会社ＲＧ,,株式会社,大分県,佐伯市,大字長谷７２８４番地２,,44,205,8760037,,,,,,,2023-01-17,1,,,,,アールジー,0
273,1330001030508,新規,0,2023-01-17,2023-01-17,Ａ‐ＯＮＥ株式会社,,株式会社,熊本県,熊本市西区,春日２丁目９番８－１４０１号,,43,103,8600047,,,,,,,2023-01-17,1,,,,,エーワン,0
281,1360001031445,新規,0,2023-01-17,2023-01-17,株式会社Ｐｏｎｏｐｏｎｏ．,,株式会社,沖縄県,島尻郡南風原町,字宮平７４５番地１５,,47,350,9011104,,,,,,,2023-01-17,1,,,,,ポノポノ,0
282,1360003012641,新規,0,2023-01-17,2023-01-17,合同会社ゼロカラ,,合同会社,沖縄県,中頭郡北谷町,字吉原３８１番地,,47,326,9040105,,,,,,,2023-01-17,1,,,,,ゼロカラ,0
288,1400005008294,新規,0,2023-01-17,2023-01-17,一般社団法人Ｐ．Ａ．Ｒ．Ｋ,,その他の設立登記法人,岩手県,岩手郡雫石町,万田渡７５番地３,,03,301,0200542,,,,,,,2023-01-17,1,,,,,パーク,0
293,1430001088239,新規,0,2023-01-17,2023-01-17,株式会社人材育成フォレスト,,株式会社,北海道,札幌市中央区,北二条東３丁目２番地２マルタビル札幌,,01,101,0600032,,,,,,,2023-01-17,1,,,,,ジンザイイクセイフォレスト,0
297,1460101007319,新規,0,2023-01-17,2023-01-17,株式会社ケイシステム,,株式会社,北海道,帯広市,東二条南１０丁目２番地ぜんりん第３ビル５－Ｅ,,01,207,0800802,,,,,,,2023-01-17,1,,,,,ケイシステム,0
303,1700150054914,新規,0,2023-01-17,2015-10-09,ＪＡ鳥取いなば農産物加工施設　野菜畑のシンデレラ利用組合,,その他,鳥取県,鳥取市,湖山町東５丁目２２８番地,,31,201,6800942,,,,,,,2015-10-09,1,,,,,ジエイエイトツトリイナバノウサンブツカコウシセツヤサイバタケノシンデレラリヨウクミアイ,0
305,1700150113125,新規,0,2023-01-17,2022-11-30,長唄吉祥会,,その他,東京都,中央区,銀座１丁目２５－１－６０８,,13,102,1040061,,,,,,,2022-11-30,1,,,,,ナガウタキツシヨウカイ,0
306,1700150113785,新規,0,2023-01-17,2023-01-17,ＦＥＲＴＩＬＩＴＹ　ＧＥＮＥＲＡＬ　ＴＲＡＤＩＮＧ　ＣＯＭＰＡＮＹ　ＬＩＭＩＴＥＤ,,外国会社等,,,,,,,,Ｘ６５３，ＲＯＯＭ　Ｂ，１４／Ｆ　ＷＡＨ　ＨＥＮ　ＣＯＭＭＥＲＣＩＡＬ　ＣＥＮＴＲＥ　ＮＯ．３８３，ＨＥＮＮＥＳＳＹ　ＲＯＡＤ　ＷＡＮＣＨＡＩ　ＨＯＮＧ　ＫＯＮＧ,,,,,,2023-01-17,1,,,,,フアーテリテイゼネラルトレーデイングカンパニーリミテツド,0
312,2010001232192,新規,0,2023-01-17,2023-01-17,株式会社スター・プラント,,株式会社,東京都,中央区,日本橋茅場町２丁目１７－６いづみハイツニュー茅場町８０４号,,13,102,1030025,,,,,,,2023-01-17,1,,,,,スタープラント,0
313,2010001232250,新規,0,2023-01-17,2023-01-17,ユニコーングローバル株式会社,,株式会社,東京都,千代田区,神田佐久間町３丁目３８番地第５東ビル５Ｆ,,13,101,1010025,,,,,,,2023-01-17,1,,,,,ユニコーングローバル,0
314,2010001232291,新規,0,2023-01-17,2023-01-17,美代株式会社,,株式会社,東京都,文京区,西片２丁目２１番３－２０２,,13,105,1130024,,,,,,,2023-01-17,1,,,,,ミヨ,0
315,2010001232300,新規,0,2023-01-17,2023-01-17,すしおまかせ株式会社,,株式会社,東京都,中央区,築地４丁目１２番２－８０４号,,13,102,1040045,,,,,,,2023-01-17,1,,,,,スシオマカセ,0
317,2010003039512,新規,0,2023-01-17,2023-01-17,Ｇｒｅｅｎ　Ｅｎｅｒｇｙ　Ｊａｐａｎ合同会社,,合同会社,東京都,千代田区,神田和泉町１番地６の１６ヤマトビル４０５,,13,101,1010024,,,,,,,2023-01-17,1,,,,,グリーンエナジージャパン,0
318,2010003039578,新規,0,2023-01-17,2023-01-17,Ｂｕｒｄｏｃｋ合同会社,,合同会社,東京都,千代田区,霞が関３丁目２番６号東京倶楽部ビルディング１１階,,13,101,1000013,,,,,,,2023-01-17,1,,,,,バードック,0
319,2010003039594,新規,0,2023-01-17,2023-01-17,アドミラルファンド３号合同会社,,合同会社,東京都,千代田区,内幸町１丁目３番３号,,13,101,1000011,,,,,,,2023-01-17,1,,,,,アドミラルファンドサンゴウ,0
320,2010101015480,新規,0,2023-01-17,2023-01-17,株式会社ＭＩＧ,,株式会社,東京都,八王子市,横山町２３番４－６０２号,,13,201,1920081,,,,,,,2023-01-17,1,,,,,エムアイジー,0
329,2010401171874,新規,0,2023-01-17,2023-01-17,株式会社Ｆｏｏｄｉｅ,,株式会社,東京都,港区,南青山１丁目４番１７号,,13,103,1070062,,,,,,,2023-01-17,1,,,,,フーディー,0
330,2010401171924,新規,0,2023-01-17,2023-01-17,Ｙａｗａｒａ　Ｃａｐｉｔａｌ株式会社,,株式会社,東京都,港区,六本木６丁目２番３１号六本木ヒルズノースタワー１７階,,13,103,1060032,,,,,,,2023-01-17,1,,,,,ヤワラキャピタル,0
331,2010401171932,新規,0,2023-01-17,2023-01-17,Ｔｅｇａ株式会社,,株式会社,東京都,港区,南青山４丁目１７番１３号２０４号室,,13,103,1070062,,,,,,,2023-01-17,1,,,,,ティーガ,0
333,2010403029303,新規,0,2023-01-17,2023-01-17,ジャパンインフラ３１号合同会社,,合同会社,東京都,港区,元赤坂１丁目１番７号,,13,103,1070051,,,,,,,2023-01-17,1,,,,,ジャパンインフラサンジュウイチゴウ,0
338,2010601062444,新規,0,2023-01-17,2023-01-17,株式会社綿鳥,,株式会社,東京都,墨田区,亀沢１丁目７番８号,,13,107,1300014,,,,,,,2023-01-17,1,,,,,ワタドリ,0
348,2010701043732,新規,0,2023-01-17,2023-01-17,株式会社Ｃｏｎｌａｘ,,株式会社,東京都,品川区,戸越３丁目６番７－２０１号,,13,109,1420041,,,,,,,2023-01-17,1,,,,,コンラックス,0
350,2010801033591,新規,0,2023-01-17,2023-01-17,株式会社アソウ・インドネシア,,株式会社,東京都,大田区,東馬込１丁目４－１－３０４,,13,111,1430022,,,,,,,2023-01-17,1,,,,,アソウインドネシア,0
351,2010801033600,新規,0,2023-01-17,2023-01-17,株式会社ＪＲ　Ｉｎｔｅｒｎａｔｉｏｎａｌ,,株式会社,東京都,大田区,蒲田５丁目２１番１３号ペガサスステーションプラザ蒲田Ｂ２Ｆ２９号室,,13,111,1440052,,,,,,,2023-01-17,1,,,,,ジェイアールインターナショナル,0
352,2010803004426,新規,0,2023-01-17,2023-01-17,エイ・スター合同会社,,合同会社,東京都,大田区,田園調布４丁目８番７号,,13,111,1450071,,,,,,,2023-01-17,1,,,,,エイスター,0
355,2010901052335,新規,0,2023-01-17,2023-01-17,株式会社ＤｅｓｉｇｎＴＵＮＥ,,株式会社,東京都,世田谷区,瀬田２丁目２７番地６号瀬田サンリツビル２階,,13,112,1580095,,,,,,,2023-01-17,1,,,,,デザインチューン,0
357,2010903007907,新規,0,2023-01-17,2023-01-17,リカージョン合同会社,,合同会社,東京都,世田谷区,等々力５丁目７番５号,,13,112,1580082,,,,,,,2023-01-17,1,,,,,リカージョン,0
362,2011001151473,新規,0,2023-01-17,2023-01-17,株式会社ＩＣＯＹ,,株式会社,東京都,渋谷区,上原３丁目２７番１１号メゾン・デ・ザール上原１０１,,13,113,1510064,,,,,,,2023-01-17,1,,,,,,0
363,2011001151936,新規,0,2023-01-17,2023-01-17,Ｎｏｖｓ株式会社,,株式会社,東京都,渋谷区,円山町５番５号Ｎａｖｉ渋谷Ｖ３階,,13,113,1500044,,,,,,,2023-01-17,1,,,,,ノウス,0
366,2011005009908,新規,0,2023-01-17,2023-01-17,一般社団法人アジリズムトレーニング協会,,その他の設立登記法人,東京都,渋谷区,神宮前２丁目３２番１１Ｊ－ｐｏｌｅｓｔａｒ３Ｆ,,13,113,1500001,,,,,,,2023-01-17,1,,,,,アジリズムトレーニングキョウカイ,0
369,2011101101502,新規,0,2023-01-17,2023-01-17,株式会社Ｃｅｌｅｂｒａｔｅ　ｔｈｅ　Ｓｗａｎ,,株式会社,東京都,新宿区,歌舞伎町２丁目３８番８号ヤシオ会館３Ｂ,,13,104,1600021,,,,,,,2023-01-17,1,,,,,セレブレイトザスワン,0
370,2011101101519,新規,0,2023-01-17,2023-01-17,株式会社ＡＶＥ,,株式会社,東京都,新宿区,西早稲田２丁目６番１－５１２号,,13,104,1690051,,,,,,,2023-01-17,1,,,,,アベ,0
371,2011101101527,新規,0,2023-01-17,2023-01-17,パラミー人材紹介株式会社,,株式会社,東京都,新宿区,新宿１丁目３６番５－７０３号ラフィネ新宿,,13,104,1600022,,,,,,,2023-01-17,1,,,,,パラミージンザイショウカイ,0
374,2011103012607,新規,0,2023-01-17,2023-01-17,合同会社渡辺商事ホールディングス,,合同会社,東京都,新宿区,下宮比町１番４号,,13,104,1620822,,,,,,,2023-01-17,1,,,,,ワタナベショウジホールディングス,0
379,2011401024824,新規,0,2023-01-17,2023-01-17,キリシマ産業株式会社,,株式会社,東京都,板橋区,大和町１３番２０号山崎ビル,,13,119,1730012,,,,,,,2023-01-17,1,,,,,キリシマサンギョウ,0
381,2011501028840,新規,0,2023-01-17,2023-01-17,株式会社ＭＡＳＡ３３,,株式会社,東京都,荒川区,町屋３丁目２番１号Ｂ１Ｆ,,13,118,1160001,,,,,,,2023-01-17,1,,,,,マササンサン,0
382,2011503005433,新規,0,2023-01-17,2023-01-17,合同会社Ｒｏｓａｎｓｈｉｎａ,,合同会社,東京都,荒川区,西尾久４丁目３番１１号コーポ小林３０２,,13,118,1160011,,,,,,,2023-01-17,1,,,,,ロサンシナ,0
389,2011801041766,新規,0,2023-01-17,2023-01-17,株式会社ＬＹＥＴ,,株式会社,東京都,葛飾区,奥戸７丁目２０番２６－１０６号グラン青砥カナーレ,,13,122,1240022,,,,,,,2023-01-17,1,,,,,ライエット,0
397,2013301050198,新規,0,2023-01-17,2023-01-17,株式会社ライズ,,株式会社,東京都,豊島区,池袋４丁目１番３－２０１号,,13,116,1710014,,,,,,,2023-01-17,1,,,,,ライズ,0
401,2020001149849,新規,0,2023-01-17,2023-01-17,株式会社Ａ・Ｒ・Ａ,,株式会社,神奈川県,横浜市神奈川区,三枚町５６３番地１－３１４号室,,14,102,2210862,,,,,,,2023-01-17,1,,,,,エーアールエー,0
402,2020001149857,新規,0,2023-01-17,2023-01-17,匯盛株式会社,,株式会社,神奈川県,横浜市西区,平沼２丁目１４－１３ライオンズマンション平沼第３の６０４号室,,14,103,2200023,,,,,,,2023-01-17,1,,,,,カイセイ,0
403,2020001149873,新規,0,2023-01-17,2023-01-17,ＰｌａｎＣａｓａ株式会社,,株式会社,神奈川県,川崎市中原区,宮内４丁目９番４３号プランヴェール等々力緑地２１３号,,14,133,2110051,,,,,,,2023-01-17,1,,,,,プランカーサ,0
407,2020003023127,新規,0,2023-01-17,2023-01-17,ナレッジ・ビジネス・ラボラトリー合同会社,,合同会社,神奈川県,横浜市神奈川区,松本町１丁目２番地９ヴェレーナ横浜反町駅前６０４号,,14,102,2210841,,,,,,,2023-01-17,1,,,,,ナレッジビジネスラボラトリー,0
409,2021001077949,新規,0,2023-01-17,2023-01-17,潤達株式会社,,株式会社,神奈川県,相模原市南区,東林間８丁目２番１号シエロ東林間２０１号室,,14,153,2520311,,,,,,,2023-01-17,1,,,,,ジュンタツ,0
410,2021001077973,新規,0,2023-01-17,2023-01-17,株式会社リーブル,,株式会社,神奈川県,藤沢市,湘南台２丁目６番地１ＮＫヒルズ３階,,14,205,2520804,,,,,,,2023-01-17,1,,,,,リーブル,0
411,2021001077981,新規,0,2023-01-17,2023-01-17,株式会社時間,,株式会社,神奈川県,茅ヶ崎市,矢畑１３１５番地３アピア茅ヶ崎１０２,,14,207,2530085,,,,,,,2023-01-17,1,,,,,ジカン,0
416,2021003012607,新規,0,2023-01-17,2023-01-17,合同会社Ｉｎｆｉｎｉｔｙ　Ｗｏｒｌｄ,,合同会社,神奈川県,中郡大磯町,石神台１丁目１５番６号,,14,341,2590113,,,,,,,2023-01-17,1,,,,,インフィニティワールド,0
417,2021003012623,新規,0,2023-01-17,2023-01-17,ＡＳＭＡ　ＭＯＴＯＲＳ合同会社,,合同会社,神奈川県,厚木市,下荻野８９７番１,,14,212,2430203,,,,,,,2023-01-17,1,,,,,アスマモータース,0
423,2030001151696,新規,0,2023-01-17,2023-01-17,株式会社日本大家不動産,,株式会社,埼玉県,和光市,白子３丁目３１番５－２０３号,,11,229,3510101,,,,,,,2023-01-17,1,,,,,ニホンオオヤフドウサン,0
424,2030001151985,新規,0,2023-01-17,2023-01-17,三松ジャパン株式会社,,株式会社,埼玉県,ふじみ野市,苗間５１番地９,,11,245,3560052,,,,,,,2023-01-17,1,,,,,サンマツジャパン,0
429,2040001126680,新規,0,2023-01-17,2023-01-17,株式会社類,,株式会社,千葉県,市原市,有秋台東３丁目５番地９６,,12,219,2990124,,,,,,,2023-01-17,1,,,,,ルイ,0
430,2040001126689,新規,0,2023-01-17,2023-01-17,株式会社厨房屋,,株式会社,千葉県,松戸市,八ケ崎１丁目９番地２,,12,207,2700023,,,,,,,2023-01-17,1,,,,,チュウボウヤ,0
432,2040003021681,新規,0,2023-01-17,2023-01-17,合同会社榛,,合同会社,千葉県,匝瑳市,飯倉台２－２１,,12,235,2892148,,,,,,,2023-01-17,1,,,,,シン,0
435,2050001052232,新規,0,2023-01-17,2023-01-17,株式会社ブルーハウス,,株式会社,茨城県,つくば市,大字上河原崎下河原崎入会地番外４番地２５２（高山Ｄ２６街区６）,,08,220,3002661,,,,,,,2023-01-17,1,,,,,ブルーハウス,0
438,2050003007151,新規,0,2023-01-17,2023-01-17,ＮＩＳＨＡＤＩ合同会社,,合同会社,茨城県,牛久市,岡見町２７３１番地３８－３号室,,08,219,3001204,,,,,,,2023-01-17,1,,,,,ニシャディ,0
444,2070001040029,新規,0,2023-01-17,2023-01-17,株式会社グッドツール,,株式会社,群馬県,太田市,飯田町１１１８番地,,10,205,3730851,,,,,,,2023-01-17,1,,,,,グッドツール,0
448,2090005007534,新規,0,2023-01-17,2023-01-17,特定非営利活動法人教室のセラピスト,,その他の設立登記法人,山梨県,南都留郡忍野村,忍草１３５５番地１,,19,424,4010511,,,,,,,2023-01-17,1,,,,,キョウシツノセラピスト,0
452,2120001251727,新規,0,2023-01-17,2023-01-17,合楽安株式会社,,株式会社,大阪府,大阪市生野区,小路東６丁目８番１７号昭和エクセルビュー東大阪１０３－Ｇ１５,,27,116,5440003,,,,,,,2023-01-17,1,,,,,ゴウラクアン,0
453,2120001251776,新規,0,2023-01-17,2023-01-17,Ｍ’ｓ　Ｊａｐａｎ株式会社,,株式会社,大阪府,大阪市東住吉区,公園南矢田３丁目１－９,,27,121,5460024,,,,,,,2023-01-17,1,,,,,エムズジャパン,0
454,2120001251784,新規,0,2023-01-17,2023-01-17,株式会社Ａｍａｒｏｎｉｘ,,株式会社,大阪府,大阪市中央区,南船場１丁目３番１５、１３０２号室,,27,128,5420081,,,,,,,2023-01-17,1,,,,,アマロニクス,0
456,2120003023249,新規,0,2023-01-17,2023-01-17,Ｅａｓｔｅｒｎ　Ｓｕｎ合同会社,,合同会社,大阪府,大阪市大正区,三軒家西３丁目４番３２号,,27,108,5510001,,,,,,,2023-01-17,1,,,,,イースタンサン,0
463,2120105009666,新規,0,2023-01-17,2023-01-17,一般社団法人勢至会,,その他の設立登記法人,大阪府,堺市北区,百舌鳥西之町１丁２７番地１、４－３０１号,,27,146,5918033,,,,,,,2023-01-17,1,,,,,セイシカイ,0
467,2122001036595,新規,0,2023-01-17,2023-01-17,株式会社Ｄｒｅａｍ　ｍａｒｋｅｔ大阪,,株式会社,大阪府,大東市,御領３丁目９番２７号,,27,218,5740064,,,,,,,2023-01-17,1,,,,,ドリームマーケットオオサカ,0
468,2122003002496,新規,0,2023-01-17,2023-01-17,合同会社カラーコード,,合同会社,大阪府,柏原市,古町３丁目６番１号,,27,221,5820008,,,,,,,2023-01-17,1,,,,,カラーコード,0
488,2130003008447,新規,0,2023-01-17,2023-01-17,合同会社織部,,合同会社,京都府,京都市南区,上鳥羽勧進橋町１３番地パデシオン新烏丸十条１１１号,,26,107,6018112,,,,,,,2023-01-17,1,,,,,オリベ,0
489,2140001128700,新規,0,2023-01-17,2023-01-17,株式会社ｇｏ‐ｔｏ不動産,,株式会社,兵庫県,明石市,野々上２丁目７番地の２,,28,203,6730017,,,,,,,2023-01-17,1,,,,,ゴートゥーフドウサン,0
490,2140001128709,新規,0,2023-01-17,2023-01-17,高原塗装店株式会社,,株式会社,兵庫県,姫路市,飾磨区恵美酒３４番地８,,28,201,6728057,,,,,,,2023-01-17,1,,,,,タカハラトソウテン,0
491,2140001128790,新規,0,2023-01-17,2023-01-17,神村建設株式会社,,株式会社,兵庫県,尼崎市,南塚口町８丁目７番１号,,28,202,6610012,,,,,,,2023-01-17,1,,,,,カミムラケンセツ,0
494,2140003018593,新規,0,2023-01-17,2023-01-17,Ａｌｉｎ　Ｊａｐａｎ合同会社,,合同会社,兵庫県,神戸市西区,富士見が丘１丁目１５番地の１２,,28,111,6512214,,,,,,,2023-01-17,1,,,,,アリンジャパン,0
495,2150001026102,新規,0,2023-01-17,2023-01-17,エルケア株式会社,,株式会社,奈良県,北葛城郡王寺町,久度４丁目４番２－１号,,29,425,6360003,,,,,,,2023-01-17,1,,,,,エルケア,0
501,2180001154552,新規,0,2023-01-17,2023-01-17,株式会社センショー,,株式会社,愛知県,海部郡大治町,大字北間島字屋敷６１番地,,23,424,4901132,,,,,,,2023-01-17,1,,,,,センショー,0
502,2180001154593,新規,0,2023-01-17,2023-01-17,富士商会株式会社,,株式会社,愛知県,名古屋市千種区,月見坂町１丁目１３番地１エクスランス月見坂２０１号室,,23,101,4640056,,,,,,,2023-01-17,1,,,,,フジショウカイ,0
510,2180301036979,新規,0,2023-01-17,2023-01-17,株式会社草楽,,株式会社,愛知県,豊橋市,往完町字往還東３９番地の２,,23,201,4418082,,,,,,,2023-01-17,1,,,,,ソウラク,0
511,2180301037003,新規,0,2023-01-17,2023-01-17,Ａｒｅｍｏ株式会社,,株式会社,愛知県,豊川市,塔ノ木町１丁目２番地の１,,23,207,4420881,,,,,,,2023-01-17,1,,,,,アレモ,0
518,2200001040873,新規,0,2023-01-17,2023-01-17,Ｆｏｒ　ｗａｒｄ株式会社,,株式会社,岐阜県,美濃加茂市,加茂野町稲辺９５番地１,,21,211,5050055,,,,,,,2023-01-17,1,,,,,フォーワード,0
519,2200003005809,新規,0,2023-01-17,2023-01-17,合同会社さらき,,合同会社,岐阜県,各務原市,那加西市場町３丁目９１番地,,21,213,5040018,,,,,,,2023-01-17,1,,,,,サラキ,0
532,2260001037583,新規,0,2023-01-17,2023-01-17,株式会社アン,,株式会社,岡山県,岡山市北区,菅野１３２８,,33,101,7011141,,,,,,,2023-01-17,1,,,,,アン,0
536,2270001008708,新規,0,2023-01-17,2023-01-17,たなか電器株式会社,,株式会社,鳥取県,八頭郡八頭町,郡家３１番地２,,31,329,6800461,,,,,,,2023-01-17,1,,,,,タナカデンキ,0
537,2270001008716,新規,0,2023-01-17,2023-01-17,株式会社モトサカオート,,株式会社,鳥取県,鳥取市,宮長５８番地２２,,31,201,6800872,,,,,,,2023-01-17,1,,,,,モトサカオート,0
545,2290001100248,新規,0,2023-01-17,2023-01-17,株式会社ａｌｉｇｎｍｅｎｔ,,株式会社,福岡県,福岡市博多区,博多駅前３丁目１８番８－４１１号,,40,132,8120011,,,,,,,2023-01-17,1,,,,,アライメント,0
547,2290003013423,新規,0,2023-01-17,2023-01-17,合同会社リバーヒル,,合同会社,福岡県,福岡市中央区,薬院２丁目１７番２３号グランドメゾン薬院レジデンス１５０３号,,40,133,8100022,,,,,,,2023-01-17,1,,,,,リバーヒル,0
555,2290805009627,新規,0,2023-01-17,2023-01-17,医療法人みち歯科,,その他の設立登記法人,福岡県,北九州市若松区,塩屋４丁目１番１４号,,40,103,8080131,,,,,,,2023-01-17,1,,,,,ミチシカ,0
556,2300005007124,新規,0,2023-01-17,2023-01-17,一般社団法人Ｇｅｎｉｏ　Ａｍｉｇｏ,,その他の設立登記法人,佐賀県,唐津市,橋本町９０６番地,,41,202,8470103,,,,,,,2023-01-17,1,,,,,ヘニオアミーゴ,0
568,2330003009680,新規,0,2023-01-17,2023-01-17,合同会社ＪＢコンサルティング,,合同会社,熊本県,熊本市中央区,桜町２－５エムケービル４０１,,43,101,8600805,,,,,,,2023-01-17,1,,,,,ジェイビーコンサルティング,0
572,2360003012632,新規,0,2023-01-17,2023-01-17,合同会社つくもらぼ,,合同会社,沖縄県,那覇市,天久２丁目９番１号２０１号室,,47,201,9000005,,,,,,,2023-01-17,1,,,,,ツクモラボ,0
573,2360005006772,新規,0,2023-01-17,2023-01-17,一般社団法人日本おなまえスペシャリスト協会,,その他の設立登記法人,沖縄県,中頭郡読谷村,字座喜味２７１７番地７０,,47,324,9040301,,,,,,,2023-01-17,1,,,,,ニホンオナマエスペシャリストキョウカイ,0
574,2370001049485,新規,0,2023-01-17,2023-01-17,株式会社Ｍｉｘｔ,,株式会社,宮城県,仙台市太白区,大野田４丁目４番地の１ペイサージュＣ１０２,,04,104,9820014,,,,,,,2023-01-17,1,,,,,ミクスト,0
575,2370003005949,新規,0,2023-01-17,2023-01-17,山海合同会社,,合同会社,宮城県,仙台市青葉区,立町１番１２－２０７号,,04,101,9800822,,,,,,,2023-01-17,1,,,,,サンカイ,0
587,2430001088238,新規,0,2023-01-17,2023-01-17,株式会社ＧＦ,,株式会社,北海道,札幌市中央区,大通西６丁目６番地９,,01,101,0600042,,,,,,,2023-01-17,1,,,,,ジーエフ,0
590,2430003014621,新規,0,2023-01-17,2023-01-17,合同会社石谷組,,合同会社,北海道,札幌市厚別区,上野幌三条２丁目１９番２号,,01,108,0040033,,,,,,,2023-01-17,1,,,,,イシヤグミ,0
591,2450001013887,新規,0,2023-01-17,2023-01-17,株式会社大雪企画,,株式会社,北海道,上川郡上川町,字菊水２１７８番地１,,01,457,0781721,,,,,,,2023-01-17,1,,,,,タイセツキカク,0
596,2500001024722,新規,0,2023-01-17,2023-01-17,株式会社ＭＡＴＥＲＡＳ,,株式会社,愛媛県,松山市,本町７丁目１番地１４グランドハイム本町１０１,,38,201,7900811,,,,,,,2023-01-17,1,,,,,マテラス,0
605,3010001232191,新規,0,2023-01-17,2023-01-17,株式会社セカイノ,,株式会社,東京都,中央区,銀座６丁目１３番１６号銀座ＷａｌｌビルＵＣＦ５０１,,13,102,1040061,,,,,,,2023-01-17,1,,,,,セカイノ,0
606,3010001232209,新規,0,2023-01-17,2023-01-17,プロアクト株式会社,,株式会社,東京都,中央区,銀座１丁目２２番１１号２階,,13,102,1040061,,,,,,,2023-01-17,1,,,,,プロアクト,0
607,3010001232217,新規,0,2023-01-17,2023-01-17,株式会社ｕｈｏｕｈｏ,,株式会社,東京都,中央区,銀座１丁目１２番４号Ｎ＆Ｅ－ＢＬＤ．６Ｆ,,13,102,1040061,,,,,,,2023-01-17,1,,,,,ウホウホ,0
610,3010003039577,新規,0,2023-01-17,2023-01-17,合同会社ビレッジプロダクション,,合同会社,東京都,千代田区,九段南１丁目５番６号りそな九段ビル５階ＫＳフロア,,13,101,1020074,,,,,,,2023-01-17,1,,,,,ビレッジプロダクション,0
611,3010003039585,新規,0,2023-01-17,2023-01-17,合同会社日本太陽光発電,,合同会社,東京都,千代田区,丸の内３丁目１番１号東京共同会計事務所内,,13,101,1000005,,,,,,,2023-01-17,1,,,,,ニホンタイヨウコウハツデン,0
612,3010003039602,新規,0,2023-01-17,2023-01-17,響水コスメド合同会社,,合同会社,東京都,中央区,銀座１丁目２２番１１号銀座大竹ビジデンス２Ｆ,,13,102,1040061,,,,,,,2023-01-17,1,,,,,ヒビキコスメド,0
613,3010005036110,新規,0,2023-01-17,2023-01-17,一般社団法人日本ビジネス才能開花協会,,その他の設立登記法人,東京都,中央区,銀座１丁目２２番１１号銀座大竹ビジデンス２Ｆ,,13,102,1040061,,,,,,,2023-01-17,1,,,,,ニホンビジネスサイノウカイカキョウカイ,0
614,3010005036119,新規,0,2023-01-17,2023-01-17,一般社団法人日本ＣＲＭ協会,,その他の設立登記法人,東京都,千代田区,四番町７新和ビル１階－Ｂ,,13,101,1020081,,,,,,,2023-01-17,1,,,,,ニホンシーアールエムキョウカイ,0
615,3010005036127,新規,0,2023-01-17,2023-01-17,一般社団法人オルタナ２２,,その他の設立登記法人,東京都,千代田区,丸の内３丁目１番１号東京共同会計事務所内,,13,101,1000005,,,,,,,2023-01-17,1,,,,,オルタナトゥウェンティツー,0
627,3010401171865,新規,0,2023-01-17,2023-01-17,６Ｃ６Ｄ株式会社,,株式会社,東京都,港区,赤坂３丁目１１番１５号ＶＯＲＴ赤坂見附４階,,13,103,1070052,,,,,,,2023-01-17,1,,,,,ロクシーロクディー,0
628,3010401171915,新規,0,2023-01-17,2023-01-17,株式会社Ｇａｌａｘｉａｓ,,株式会社,東京都,港区,南青山２丁目２番１５号ウィン青山１２１４号,,13,103,1070062,,,,,,,2023-01-17,1,,,,,ギャラクシアス,0
629,3010401171923,新規,0,2023-01-17,2023-01-17,株式会社リシェスワン,,株式会社,東京都,港区,北青山２丁目７番１３号プラセオ青山ビル３Ｆ,,13,103,1070061,,,,,,,2023-01-17,1,,,,,リシェスワン,0
630,3010401171931,新規,0,2023-01-17,2023-01-17,株式会社エスワイ,,株式会社,東京都,港区,南青山１丁目４番１７号美松ビル,,13,103,1070062,,,,,,,2023-01-17,1,,,,,エスワイ,0
632,3010403029285,新規,0,2023-01-17,2023-01-17,Ａｌｙｓｈａ合同会社,,合同会社,東京都,港区,南青山３丁目１番３６号青山丸竹ビル６Ｆ,,13,103,1070062,,,,,,,2023-01-17,1,,,,,アリーシャ,0
633,3010403029302,新規,0,2023-01-17,2023-01-17,ジャパンインフラ３０号合同会社,,合同会社,東京都,港区,元赤坂１丁目１番７号,,13,103,1070051,,,,,,,2023-01-17,1,,,,,ジャパンインフラサンジュウゴウ,0
634,3010403029310,新規,0,2023-01-17,2023-01-17,合同会社メディカルトラスト,,合同会社,東京都,港区,南麻布２丁目９番１５－１５０３号,,13,103,1060047,,,,,,,2023-01-17,1,,,,,メディカルトラスト,0
635,3010501049879,新規,0,2023-01-17,2023-01-17,Ａｒｃｔａｓ　Ｎｅｔｗｏｒｋ株式会社,,株式会社,東京都,台東区,松が谷２丁目９番１－４０１号,,13,106,1110036,,,,,,,2023-01-17,1,,,,,アークタスネットワーク,0
641,3010601062435,新規,0,2023-01-17,2023-01-17,株式会社東陽,,株式会社,東京都,江東区,東陽２丁目２番１４－８０８号,,13,108,1350016,,,,,,,2023-01-17,1,,,,,トウヨウ,0
644,3010701043723,新規,0,2023-01-17,2023-01-17,ｒｏｏｆ　ｌｏｔｕｓ株式会社,,株式会社,東京都,品川区,上大崎４丁目４番９号,,13,109,1410021,,,,,,,2023-01-17,1,,,,,ルーフロータス,0
645,3010701043731,新規,0,2023-01-17,2023-01-17,株式会社ＦＡＮＤＥＡＬ,,株式会社,東京都,品川区,大崎２丁目１１番２－２１０６号,,13,109,1410032,,,,,,,2023-01-17,1,,,,,ファンディアル,0
646,3010703006546,新規,0,2023-01-17,2023-01-17,ソラカナ合同会社,,合同会社,東京都,品川区,中延５丁目１１番２７－７０１号,,13,109,1420053,,,,,,,2023-01-17,1,,,,,ソラカナ,0
652,3011001150499,新規,0,2023-01-17,2023-01-17,株式会社スタジオドロップ,,株式会社,東京都,渋谷区,神宮前６丁目２３番４号桑野ビル２Ｆ,,13,113,1500001,,,,,,,2023-01-17,1,,,,,スタジオドロップ,0
653,3011001151943,新規,0,2023-01-17,2023-01-17,株式会社ＴＯＫＹＯバイオ製薬,,株式会社,東京都,渋谷区,渋谷３丁目６－２エクラー渋谷,,13,113,1500002,,,,,,,2023-01-17,1,,,,,トウキョウバイオセイヤク,0
656,3011003016079,新規,0,2023-01-17,2023-01-17,合同会社ＩＤＥＡ　ＩＮＳＴＩＴＵＴＥ　ＩＮＣ．,,合同会社,東京都,渋谷区,神宮前１丁目５番８号神宮前タワービルディング１４階,,13,113,1500001,,,,,,,2023-01-17,1,,,,,アイデアインスティチュートインク,0
657,3011003016104,新規,0,2023-01-17,2023-01-17,合同会社人生は一度きり,,合同会社,東京都,渋谷区,神泉町１０番１５号,,13,113,1500045,,,,,,,2023-01-17,1,,,,,ジンセイハイチドキリ,0
669,3011101101518,新規,0,2023-01-17,2023-01-17,株式会社ＳＮＳ,,株式会社,東京都,新宿区,早稲田鶴巻町５２１番地グリーンステージ早大通り３０２,,13,104,1620041,,,,,,,2023-01-17,1,,,,,エスエヌエス,0
671,3011103012606,新規,0,2023-01-17,2023-01-17,大源商事合同会社,,合同会社,東京都,新宿区,西新宿３丁目７番２６－３１０,,13,104,1600023,,,,,,,2023-01-17,1,,,,,ダイゲンショウジ,0
676,3011303004634,新規,0,2023-01-17,2023-01-17,オフィス赤尾合同会社,,合同会社,東京都,杉並区,荻窪２丁目２７番４号,,13,115,1670051,,,,,,,2023-01-17,1,,,,,オフィスアカオ,0
684,3011801041798,新規,0,2023-01-17,2023-01-17,みみや株式会社,,株式会社,東京都,足立区,保塚町１７－１９マドカヴィレッジ保塚３０５号,,13,121,1210072,,,,,,,2023-01-17,1,,,,,ミミヤ,0
685,3011803005470,新規,0,2023-01-17,2023-01-17,合同会社ＦＭＥ　Ｃｏｍｐａｎｙ,,合同会社,東京都,足立区,西伊興４丁目３番２３－１０１号,,13,121,1210824,,,,,,,2023-01-17,1,,,,,エフエムイーカンパニー,0
686,3011805003241,新規,0,2023-01-17,2023-01-17,一般社団法人日本堅持企業家倶楽部,,その他の設立登記法人,東京都,葛飾区,立石２丁目１３番３－１１０３号,,13,122,1240012,,,,,,,2023-01-17,1,,,,,ニホンケンジキギョウカクラブ,0
692,3013303006453,新規,0,2023-01-17,2023-01-17,アズウェルジャパン合同会社,,合同会社,東京都,豊島区,雑司が谷２丁目１３番１６号みろくハウス２０４号室,,13,116,1710032,,,,,,,2023-01-17,1,,,,,アズウェルジャパン,0
704,3020001149848,新規,0,2023-01-17,2023-01-17,株式会社ＡＸＥＬＥＩＴ,,株式会社,神奈川県,川崎市中原区,新丸子東３丁目１１００番地１２Ｍ６０１,,14,133,2110004,,,,,,,2023-01-17,1,,,,,アクセレイト,0
705,3020001149872,新規,0,2023-01-17,2023-01-17,株式会社ソルティエラ,,株式会社,神奈川県,川崎市中原区,小杉町３丁目４４５番地,,14,133,2110063,,,,,,,2023-01-17,1,,,,,ソルティエラ,0
707,3020003023092,新規,0,2023-01-17,2023-01-17,Ｒ合同会社,,合同会社,神奈川県,横浜市神奈川区,栗田谷２７－１－４１３,,14,102,2210804,,,,,,,2023-01-17,1,,,,,アール,0
709,3021001077948,新規,0,2023-01-17,2023-01-17,株式会社ＲＯＴＡＳＵ　ＬＡＮＫＡ　ＰＲＩＶＡＴＥ　ＬＩＭＩＴＥＤ,,株式会社,神奈川県,南足柄市,塚原４４８１番地,,14,217,2500117,,,,,,,2023-01-17,1,,,,,,0
710,3021001077980,新規,0,2023-01-17,2023-01-17,アザーサイド株式会社,,株式会社,神奈川県,茅ヶ崎市,柳島１丁目８－１４エクラージュ１０１,,14,207,2530064,,,,,,,2023-01-17,1,,,,,アザーサイド,0
711,3021003012606,新規,0,2023-01-17,2023-01-17,合同会社ＷＩＮＺＡ,,合同会社,神奈川県,藤沢市,石川３丁目１番地の１４ビッグヴァン湘南台参番館４０２号,,14,205,2520815,,,,,,,2023-01-17,1,,,,,,0
712,3021003012622,新規,0,2023-01-17,2023-01-17,合同会社神倉次世代承継,,合同会社,神奈川県,鎌倉市,小町１丁目９番３号島森ビル３階,,14,204,2480006,,,,,,,2023-01-17,1,,,,,カミクラジセダイショウケイ,0
716,3030001151828,新規,0,2023-01-17,2023-01-17,のうカフェ株式会社,,株式会社,埼玉県,熊谷市,下奈良３９１,,11,202,3600802,,,,,,,2023-01-17,1,,,,,ノウカフェ,0
721,3030005021119,新規,0,2023-01-17,2023-01-17,一般社団法人縁,,その他の設立登記法人,埼玉県,さいたま市浦和区,常盤１０丁目１１番１７－６０９号,,11,107,3300061,,,,,,,2023-01-17,1,,,,,エン,0
725,3040001126556,新規,0,2023-01-17,2023-01-17,株式会社笠良,,株式会社,千葉県,銚子市,川口町２丁目６２８３番地の１,,12,202,2880001,,,,,,,2023-01-17,1,,,,,カサヨシ,0
731,3040003021648,新規,0,2023-01-17,2023-01-17,合同会社１．Ｖａｒｓ,,合同会社,千葉県,松戸市,横須賀２丁目１３番地の３,,12,207,2700031,,,,,,,2023-01-17,1,,,,,アイバース,0
732,3040003021697,新規,0,2023-01-17,2023-01-17,合同会社雪月,,合同会社,千葉県,船橋市,上山町３丁目５２５番地２７,,12,204,2730046,,,,,,,2023-01-17,1,,,,,セツゲツ,0
735,3050003007150,新規,0,2023-01-17,2023-01-17,合同会社ベレオ・ルミエール,,合同会社,茨城県,水戸市,末広町１丁目１番１号,,08,201,3100053,,,,,,,2023-01-17,1,,,,,ベレオルミエール,0
736,3050003007159,新規,0,2023-01-17,2023-01-17,合同会社つどい,,合同会社,茨城県,神栖市,太田７０３番地８９藤コーポＫ棟,,08,232,3140254,,,,,,,2023-01-17,1,,,,,ツドイ,0
753,3070001040036,新規,0,2023-01-17,2023-01-17,株式会社光コーポレーションサービス,,株式会社,群馬県,桐生市,境野町４丁目６３８番地５,,10,203,3760002,,,,,,,2023-01-17,1,,,,,ヒカリコーポレーションサービス,0
761,3080401026253,新規,0,2023-01-17,2023-01-17,株式会社ＳＥＡＭＥＤＩＣＡＬ,,株式会社,静岡県,浜松市東区,大島町３４６番地,,22,132,4313112,,,,,,,2023-01-17,1,,,,,シーメディカル,0
762,3100001036039,新規,0,2023-01-17,2023-01-17,株式会社サ・プ・ネ,,株式会社,長野県,安曇野市,三郷明盛１６６３番地１,,20,220,3998101,,,,,,,2023-01-17,1,,,,,サプネ,0
778,3120001251750,新規,0,2023-01-17,2023-01-17,成言株式会社,,株式会社,大阪府,大阪市東住吉区,鷹合４丁目２１番１６号３Ｆ－Ｅ,,27,121,5460014,,,,,,,2023-01-17,1,,,,,セイゲン,0
779,3120001251759,新規,0,2023-01-17,2023-01-17,株式会社ウードット,,株式会社,大阪府,大阪市北区,中崎２丁目２番５号,,27,127,5300016,,,,,,,2023-01-17,1,,,,,ウードット,0
780,3120001251767,新規,0,2023-01-17,2023-01-17,株式会社ＹｏｕｒＴｕｒｎ,,株式会社,大阪府,大阪市天王寺区,上本町９丁目５番１４号,,27,109,5430001,,,,,,,2023-01-17,1,,,,,ユアターン,0
781,3120001251783,新規,0,2023-01-17,2023-01-17,日青商事株式会社,,株式会社,大阪府,大阪市中央区,高津３丁目１０－９サンビル２Ｂ,,27,128,5420072,,,,,,,2023-01-17,1,,,,,ニッセイショウジ,0
782,3120003023256,新規,0,2023-01-17,2023-01-17,Ｔｈｅ　Ｓｔａｒｓ合同会社,,合同会社,大阪府,枚方市,上野２丁目４番１－７１２号,,27,210,5731175,,,,,,,2023-01-17,1,,,,,ザスターズ,0
804,3130001073491,新規,0,2023-01-17,2023-01-17,株式会社けいあい,,株式会社,京都府,木津川市,相楽台９丁目６－７,,26,214,6190223,,,,,,,2023-01-17,1,,,,,ケイアイ,0
809,3130003008438,新規,0,2023-01-17,2023-01-17,合同会社ＡＣＴＵＡＬ,,合同会社,京都府,京都市中京区,壬生賀陽御所町２０番地２,,26,104,6048811,,,,,,,2023-01-17,1,,,,,アクチュアル,0
815,3140001128765,新規,0,2023-01-17,2023-01-17,株式会社ｖｅｒｎｏ,,株式会社,兵庫県,三田市,弥生が丘２丁目３番地５,,28,219,6691546,,,,,,,2023-01-17,1,,,,,ベルノ,0
818,3150001026101,新規,0,2023-01-17,2023-01-17,株式会社ＣＡＤＵＣＥＵＳ,,株式会社,奈良県,奈良市,南紀寺町２丁目３５７番地の３,,29,201,6308303,,,,,,,2023-01-17,1,,,,,カデュケウス,0
821,3160001024780,新規,0,2023-01-17,2023-01-17,株式会社パールホワイト,,株式会社,滋賀県,草津市,野路１丁目８－１８エルミナｅｅビルディング８１０,,25,206,5250059,,,,,,,2023-01-17,1,,,,,パールホワイト,0
827,3180001154403,新規,0,2023-01-17,2023-01-17,名星通商株式会社,,株式会社,愛知県,名古屋市守山区,大字小幡字北山２７６１番地の７６８,,23,113,4630011,,,,,,,2023-01-17,1,,,,,メイセイツウショウ,0
828,3180001154584,新規,0,2023-01-17,2023-01-17,株式会社Ｓｏｌｅｉｌ　Ｂｅｌｌｅ,,株式会社,愛知県,名古屋市港区,油屋町２丁目６番１ＧＩＭＵＣＯ－Ｂ棟２号,,23,111,4550815,,,,,,,2023-01-17,1,,,,,ソレイユベル,0
829,3180001154592,新規,0,2023-01-17,2023-01-17,株式会社Ｍｗｅｌｌ,,株式会社,愛知県,名古屋市北区,川中町５番６号,,23,103,4620022,,,,,,,2023-01-17,1,,,,,エムウェル,0
830,3180001154601,新規,0,2023-01-17,2023-01-17,株式会社ｅｖｅｒ　ｃｈａｎｇｅ,,株式会社,愛知県,江南市,大海道町中里７１番地,,23,217,4838186,,,,,,,2023-01-17,1,,,,,エバーチェンジ,0
836,3180301037010,新規,0,2023-01-17,2023-01-17,株式会社ＺＥＲＯ１,,株式会社,愛知県,蒲郡市,三谷町十舗７６番地１,,23,214,4430021,,,,,,,2023-01-17,1,,,,,ゼロワン,0
842,3200003005808,新規,0,2023-01-17,2023-01-17,合同会社ＦＪ,,合同会社,岐阜県,郡上市,白鳥町為真１８５番地３,,21,219,5015122,,,,,,,2023-01-17,1,,,,,エフジェイ,0
851,3280005007530,新規,0,2023-01-17,2023-01-17,医療法人社団えみ歯科クリニック,,その他の設立登記法人,島根県,松江市,大庭町１８１３番地５,,32,201,6900033,,,,,,,2023-01-17,1,,,,,エミシカクリニック,0
855,3290001100247,新規,0,2023-01-17,2023-01-17,株式会社シン電業,,株式会社,福岡県,糸島市,志摩馬場４０７番地３,,40,230,8191305,,,,,,,2023-01-17,1,,,,,シンデンギョウ,0
856,3290001100255,新規,0,2023-01-17,2023-01-17,株式会社Ｂｏｒｎ　ｔｏ　ｅａｔ,,株式会社,福岡県,福岡市中央区,平尾１丁目１３番８－１４０１号エスティメゾン薬院,,40,133,8100014,,,,,,,2023-01-17,1,,,,,ボーントゥーイート,0
857,3290001100263,新規,0,2023-01-17,2023-01-17,カーフィンテック株式会社,,株式会社,福岡県,福岡市東区,多の津４丁目１５番ＡＫＡＲＩ第２駐車場,,40,131,8130034,,,,,,,2023-01-17,1,,,,,カーフィンテック,0
863,3290003013422,新規,0,2023-01-17,2023-01-17,ヘキサコンサル合同会社,,合同会社,福岡県,久留米市,梅満町９２５－１　１０５号,,40,203,8300048,,,,,,,2023-01-17,1,,,,,ヘキサコンサル,0
885,3360005006771,新規,0,2023-01-17,2023-01-17,一般社団法人日本ＳＮＳコンサルタント協会,,その他の設立登記法人,沖縄県,石垣市,字新川３３番地,,47,207,9070024,,,,,,,2023-01-17,1,,,,,ニホンエスエヌエスコンサルタントキョウカイ,0
886,3370001049451,新規,0,2023-01-17,2023-01-17,株式会社ジェー・シー・アイカスタム＆モビリティー,,株式会社,宮城県,黒川郡大和町,松坂平２丁目５番２号,,04,421,9813408,,,,,,,2023-01-17,1,,,,,ジェーシーアイカスタムアンドモビリティー,0
887,3370001049492,新規,0,2023-01-17,2023-01-17,株式会社利大コーポレーション,,株式会社,宮城県,登米市,豊里町二ツ屋３２９番地４,,04,212,9870375,,,,,,,2023-01-17,1,,,,,リダイコーポレーション,0
888,3370001049501,新規,0,2023-01-17,2023-01-17,株式会社ＴＯＨ,,株式会社,宮城県,仙台市青葉区,本町２丁目１－７本町奥田３階,,04,101,9800014,,,,,,,2023-01-17,1,,,,,テイーオーエイチ,0
899,3420003002650,新規,0,2023-01-17,2023-01-17,合同会社ＦＥＬＩＸ,,合同会社,青森県,むつ市,金曲２丁目１４番３１号,,02,208,0350041,,,,,,,2023-01-17,1,,,,,フェリックス,0
909,3700150042124,新規,0,2023-01-17,2015-10-09,企業事務管理センター,,その他,愛知県,名古屋市西区,浄心２丁目４－２５,,23,104,4510061,,,,,,,2015-10-09,1,,,,,キギヨウジムカンリセンター,0
924,4010001232100,新規,0,2023-01-17,2023-01-17,株式会社ＶＡＵＬＴ,,株式会社,東京都,中央区,銀座１丁目１２番４号Ｎ＆ＥＢＬＤ．６Ｆ,,13,102,1040061,,,,,,,2023-01-17,1,,,,,ボルト,0
925,4010001232199,新規,0,2023-01-17,2023-01-17,１０ｓｉｚｅ株式会社,,株式会社,東京都,中央区,銀座１丁目２２番１１号銀座大竹ビジデンス２Ｆ,,13,102,1040061,,,,,,,2023-01-17,1,,,,,テンサイズ,0
926,4010001232208,新規,0,2023-01-17,2023-01-17,Ｂａｌｔ　Ｊａｐａｎ株式会社,,株式会社,東京都,中央区,日本橋室町４丁目３番９号,,13,102,1030022,,,,,,,2023-01-17,1,,,,,バルトジャパン,0
927,4010001232216,新規,0,2023-01-17,2023-01-17,デジタルヒューマンラボ株式会社,,株式会社,東京都,千代田区,九段南１丁目５番６号りそな九段ビル５階ＫＳフロア,,13,101,1020074,,,,,,,2023-01-17,1,,,,,デジタルヒューマンラボ,0
928,4010001232249,新規,0,2023-01-17,2023-01-17,ブルーリバーロジスティクス株式会社,,株式会社,東京都,中央区,日本橋浜町１丁目２番８号ＢＮＫビル５階,,13,102,1030007,,,,,,,2023-01-17,1,,,,,ブルーリバーロジスティクス,0
929,4010001232315,新規,0,2023-01-17,2023-01-17,ＳＲＫ株式会社,,株式会社,東京都,千代田区,有楽町１丁目１２番１号新有楽町ビル,,13,101,1000006,,,,,,,2023-01-17,1,,,,,エスアールケイ,0
932,4010003039535,新規,0,2023-01-17,2023-01-17,合同会社ほろねこ,,合同会社,東京都,中央区,八丁堀３丁目１１番１４号,,13,102,1040032,,,,,,,2023-01-17,1,,,,,ホロネコ,0
933,4010005036118,新規,0,2023-01-17,2023-01-17,一般社団法人日本インターネットポイント協議会,,その他の設立登記法人,東京都,千代田区,神田錦町２丁目２番地１,,13,101,1010054,,,,,,,2023-01-17,1,,,,,ニホンインターネットポイントキョウギカイ,0
934,4010005036126,新規,0,2023-01-17,2023-01-17,一般社団法人現代俳句協会,,その他の設立登記法人,東京都,千代田区,外神田６丁目５番４号,,13,101,1010021,,,,,,,2023-01-17,1,,,,,ゲンダイハイクキョウカイ,0
945,4010401171708,新規,0,2023-01-17,2023-01-17,ＨＡＲＩＢＯ　Ｊａｐａｎ株式会社,,株式会社,東京都,港区,西新橋１丁目２番９号日比谷セントラルビル１４階,,13,103,1050003,,,,,,,2023-01-17,1,,,,,ハリボージャパン,0
946,4010401171815,新規,0,2023-01-17,2023-01-17,株式会社ヴィヴィッドクローバー,,株式会社,東京都,港区,芝５丁目３６番４号札の辻スクエア９階,,13,103,1080014,,,,,,,2023-01-17,1,,,,,ヴィヴィッドクローバー,0
947,4010401171823,新規,0,2023-01-17,2023-01-17,株式会社ライジングライト,,株式会社,東京都,港区,浜松町１丁目１８番１３号,,13,103,1050013,,,,,,,2023-01-17,1,,,,,ライジングライト,0
948,4010401171897,新規,0,2023-01-17,2023-01-17,株式会社リーガルゲート,,株式会社,東京都,港区,赤坂４丁目８番１９号赤坂フロントタウン３階,,13,103,1070052,,,,,,,2023-01-17,1,,,,,リーガルゲート,0
949,4010401171906,新規,0,2023-01-17,2023-01-17,株式会社ＴＡＳ　ＨＯＬＤＩＮＧＳ,,株式会社,東京都,港区,虎ノ門１丁目１番２５号,,13,103,1050001,,,,,,,2023-01-17,1,,,,,タスホールディングス,0
950,4010401171922,新規,0,2023-01-17,2023-01-17,Ｎｅｘｓｔｒｅｅｔ株式会社,,株式会社,東京都,港区,南麻布２丁目２－２３－８０３,,13,103,1060047,,,,,,,2023-01-17,1,,,,,ネクストリート,0
951,4010403029301,新規,0,2023-01-17,2023-01-17,合同会社ププリエ,,合同会社,東京都,港区,赤坂６丁目１０番６－２１３号,,13,103,1070052,,,,,,,2023-01-17,1,,,,,ププリエ,0
952,4010405021735,新規,0,2023-01-17,2023-01-17,ジャパンインフラホールディングス３１号一般社団法人,,その他の設立登記法人,東京都,港区,元赤坂１丁目１番７号,,13,103,1070051,,,,,,,2023-01-17,1,,,,,ジャパンインフラホールディングスサンジュウイチゴウ,0
959,4010801033598,新規,0,2023-01-17,2023-01-17,株式会社ＡＫＡＳＡＫＡ,,株式会社,東京都,大田区,大森北３丁目２４番１７号,,13,111,1430016,,,,,,,2023-01-17,1,,,,,アカサカ,0
961,4010803004424,新規,0,2023-01-17,2023-01-17,合同会社アニー,,合同会社,東京都,大田区,多摩川１丁目２２番９号,,13,111,1460095,,,,,,,2023-01-17,1,,,,,アニー,0
966,4010901052259,新規,0,2023-01-17,2023-01-17,株式会社Ｓｅｒａｐｈ,,株式会社,東京都,世田谷区,野沢２丁目２９番２０号,,13,112,1540003,,,,,,,2023-01-17,1,,,,,セラフ,0
970,4011001152032,新規,0,2023-01-17,2023-01-17,コスモスジャパン株式会社,,株式会社,東京都,渋谷区,神南１丁目２３番１４号,,13,113,1500041,,,,,,,2023-01-17,1,,,,,コスモスジャパン,0
973,4011101101491,新規,0,2023-01-17,2023-01-17,株式会社エンフェイトヘルスケア,,株式会社,東京都,新宿区,須賀町３番地マリールイズビル１Ｆ,,13,104,1600018,,,,,,,2023-01-17,1,,,,,エンフェイトヘルスケア,0
974,4011101101525,新規,0,2023-01-17,2023-01-17,株式会社Ｌ＆Ｙ,,株式会社,東京都,新宿区,西新宿３丁目３番１３号西新宿水間ビル２Ｆ,,13,104,1600023,,,,,,,2023-01-17,1,,,,,エルアンドワイ,0
980,4011301028386,新規,0,2023-01-17,2023-01-17,株式会社グラン訪問看護ＴＯＫＹＯ,,株式会社,東京都,杉並区,桃井４丁目６番１９号,,13,115,1670034,,,,,,,2023-01-17,1,,,,,グランホウモンカンゴトーキョー,0
981,4011303004633,新規,0,2023-01-17,2023-01-17,合同会社ＨＡＲＶＥＳＴ,,合同会社,東京都,杉並区,堀ノ内３丁目３番２８号,,13,115,1660013,,,,,,,2023-01-17,1,,,,,ハーベスト,0
983,4011403003881,新規,0,2023-01-17,2023-01-17,合同会社エスエーエヌプランニング,,合同会社,東京都,板橋区,南町４９－３メゾンＵＳ１０３号,,13,119,1730027,,,,,,,2023-01-17,1,,,,,エスエーエヌプランニグ,0
986,4011703003359,新規,0,2023-01-17,2023-01-17,ＬＪトレーディング合同会社,,合同会社,東京都,江戸川区,鹿骨２丁目３４番１５号,,13,123,1330073,,,,,,,2023-01-17,1,,,,,エルジェイトレーディング,0
987,4011801041797,新規,0,2023-01-17,2023-01-17,株式会社ソレスト,,株式会社,東京都,葛飾区,細田４丁目３３番１６号,,13,122,1240021,,,,,,,2023-01-17,1,,,,,,0
993,4012801022052,新規,0,2023-01-17,2023-01-17,第２樋口倉庫株式会社,00129093,株式会社,東京都,国立市,青柳１丁目３０番地の２５,,13,215,1860013,,,,,,,2023-01-17,1,,,,,ダイニヒグチソウコ,0
994,4012803002977,新規,0,2023-01-17,2023-01-17,九博合同会社,,合同会社,東京都,日野市,日野本町３丁目１４－１８谷井ビル４Ｆ４０５室,,13,212,1910011,,,,,,,2023-01-17,1,,,,,キュウハク,0
1000,4013301050188,新規,0,2023-01-17,2023-01-17,株式会社さくらパートナー,,株式会社,東京都,豊島区,高松１丁目１１番１５号モリタビル西池袋５階,,13,116,1710042,,,,,,,2023-01-17,1,,,,,サクラパートナー,0
1001,4013303006452,新規,0,2023-01-17,2023-01-17,合同会社ＦＳ企画,,合同会社,東京都,豊島区,池袋１丁目２番７号メゾン田中６０２,,13,116,1700014,,,,,,,2023-01-17,1,,,,,エフエスキカク,0
1003,4020001149839,新規,0,2023-01-17,2023-01-17,株式会社永佳ホーム,,株式会社,神奈川県,横浜市瀬谷区,宮沢１丁目２７番地１３,,14,114,2460038,,,,,,,2023-01-17,1,,,,,エイカホーム,0
1004,4020001149847,新規,0,2023-01-17,2023-01-17,ＫＡＮＡＵ株式会社,,株式会社,神奈川県,川崎市多摩区,登戸２４３２番地の１ＢｌｕｅｗａｔｅｒＢｕｉｌｄｉｎｇ６Ｆ,,14,135,2140014,,,,,,,2023-01-17,1,,,,,カナウ,0
1007,4020003023100,新規,0,2023-01-17,2023-01-17,合同会社Ｇｉｓｈｉｎ,,合同会社,神奈川県,横浜市戸塚区,舞岡町６４３番地１エバーグリーン２０２号,,14,110,2440813,,,,,,,2023-01-17,1,,,,,ギシン,0
1008,4020003023109,新規,0,2023-01-17,2023-01-17,合同会社スタジオプラー,,合同会社,神奈川県,川崎市高津区,梶ケ谷２丁目１番地２,,14,134,2130015,,,,,,,2023-01-17,1,,,,,スタジオプラー,0
1009,4020003023133,新規,0,2023-01-17,2023-01-17,合同会社ＩＦＴＹ,,合同会社,神奈川県,横浜市西区,浅間町１丁目４番３号ウィザードビル４０２,,14,103,2200072,,,,,,,2023-01-17,1,,,,,イフティ,0
1012,4021001077963,新規,0,2023-01-17,2023-01-17,株式会社ＭＡＴＨＡＣＫ,,株式会社,神奈川県,海老名市,東柏ケ谷５丁目１８番１１－７０１号,,14,215,2430401,,,,,,,2023-01-17,1,,,,,マットハック,0
1013,4021001077971,新規,0,2023-01-17,2023-01-17,株式会社ＷＩＮＤＯＭ,,株式会社,神奈川県,南足柄市,狩野６番地９,,14,217,2500126,,,,,,,2023-01-17,1,,,,,ウィンダム,0
1015,4021003012605,新規,0,2023-01-17,2023-01-17,合同会社ＳｃｈＯＯＤＡ,,合同会社,神奈川県,藤沢市,用田６１７清田ビル２０２,,14,205,2520821,,,,,,,2023-01-17,1,,,,,スクーダ,0
1022,4030001151975,新規,0,2023-01-17,2023-01-17,株式会社昇陽,,株式会社,埼玉県,所沢市,大字山口８８４－７１ロイヤルガーデン所沢１０１号室,,11,208,3591145,,,,,,,2023-01-17,1,,,,,ショウヨウ,0
1029,4030005021118,新規,0,2023-01-17,2023-01-17,農事組合法人田部井ばら園,,その他の設立登記法人,埼玉県,加須市,上樋遣川３７５４番地,,11,210,3470003,,,,,,,2023-01-17,1,,,,,タベイバラエン,0
1034,4040001126662,新規,0,2023-01-17,2023-01-17,株式会社Ｋ’ｓ,,株式会社,千葉県,木更津市,金田東４丁目４番地２１,,12,206,2920009,,,,,,,2023-01-17,1,,,,,ケーズ,0
1035,4040001126670,新規,0,2023-01-17,2023-01-17,株式会社美松,,株式会社,千葉県,船橋市,松が丘３丁目４６番２３号,,12,204,2740064,,,,,,,2023-01-17,1,,,,,ヨシマツ,0
1036,4040001126679,新規,0,2023-01-17,2023-01-17,明治通商株式会社,,株式会社,千葉県,千葉市美浜区,幸町２丁目２４番１号,,12,106,2610001,,,,,,,2023-01-17,1,,,,,メイジツウショウ,0
1042,4040003021696,新規,0,2023-01-17,2023-01-17,ＰｌｅａｓｕｒｅＭａｐ合同会社,,合同会社,千葉県,千葉市花見川区,朝日ケ丘１丁目４番４号,,12,102,2620019,,,,,,,2023-01-17,1,,,,,プレジャーマップ,0
1044,4050001052239,新規,0,2023-01-17,2023-01-17,Ｓｅｉｋｏｕ　ｅｎｅｒｇｙ株式会社,,株式会社,茨城県,つくば市,並木４丁目１７番地６－２Ｆ,,08,220,3050044,,,,,,,2023-01-17,1,,,,,セイコウエネルギー,0
1067,4100003006848,新規,0,2023-01-17,2023-01-17,合同会社サンカク舎,,合同会社,長野県,下伊那郡阿智村,駒場６５９番地５,,20,407,3950303,,,,,,,2023-01-17,1,,,,,サンカクシャ,0
1077,4120001251485,新規,0,2023-01-17,2023-01-17,ｐｌａｎｊｅｔ株式会社,,株式会社,大阪府,大阪市中央区,伏見町３丁目１番１号,,27,128,5410044,,,,,,,2023-01-17,1,,,,,プランジェット,0
1078,4120001251717,新規,0,2023-01-17,2023-01-17,株式会社ｃｈｒｏｍｏｃｅｎｔｅｒ,,株式会社,大阪府,大阪市中央区,高麗橋４丁目６番１７号,,27,128,5410043,,,,,,,2023-01-17,1,,,,,クロモセンター,0
1079,4120001251758,新規,0,2023-01-17,2023-01-17,株式会社高城屋,00129095,株式会社,大阪府,大阪市北区,梅田１丁目２番２号大阪駅前第２ビル２階５－６号室,,27,127,5300001,,,,,,,2023-01-17,1,,,,,タカギヤ,0
1080,4120001251799,新規,0,2023-01-17,2023-01-17,株式会社シトラ,,株式会社,大阪府,大阪市淀川区,西宮原１丁目５番３３号新大阪飯田ビル１Ｆ,,27,123,5320004,,,,,,,2023-01-17,1,,,,,シトラ,0
1081,4120001251808,新規,0,2023-01-17,2023-01-17,株式会社ＲＭエステート,,株式会社,大阪府,大阪市淀川区,西中島４丁目７番３０号５Ｂ,,27,123,5320011,,,,,,,2023-01-17,1,,,,,アールエムエステート,0
1083,4120003023239,新規,0,2023-01-17,2023-01-17,合同会社ＮＩＳＨＩＮＯ,,合同会社,大阪府,大阪市中央区,東心斎橋２丁目２番１４－８０５号,,27,128,5420083,,,,,,,2023-01-17,1,,,,,ニシノ,0
1085,4120005023311,新規,0,2023-01-17,2023-01-17,一般社団法人架け橋の会,,その他の設立登記法人,大阪府,大阪市北区,豊崎３丁目１８番３－１１０４,,27,127,5310072,,,,,,,2023-01-17,1,,,,,,0
1087,4122001036552,新規,0,2023-01-17,2023-01-17,株式会社安藤工業,,株式会社,大阪府,八尾市,堤町１丁目１６番地の１２,,27,212,5810832,,,,,,,2023-01-17,1,,,,,アンドウコウギョウ,0
1088,4122001036593,新規,0,2023-01-17,2023-01-17,株式会社Ｇｌｏｗ　ｕｐ　Ｓｅｖｅｎ,,株式会社,大阪府,東大阪市,金岡２丁目５番１５号,,27,227,5770823,,,,,,,2023-01-17,1,,,,,グローアップセブン,0
1100,4130001073367,新規,0,2023-01-17,2023-01-17,奏ワークス株式会社,,株式会社,京都府,八幡市,岩田辻垣内２番地の１,00129112,26,210,6148261,,,,,,,2023-01-17,1,,,,,カナデワークス,0
1101,4130001073474,新規,0,2023-01-17,2023-01-17,株式会社ＡＳＴ,,株式会社,京都府,京都市伏見区,納所薬師堂１５番地１５,,26,109,6128276,,,,,,,2023-01-17,1,,,,,アスト,0
1102,4130001073490,新規,0,2023-01-17,2023-01-17,株式会社エムワイコーポレーション,,株式会社,京都府,京都市下京区,七条通間之町東入材木町４６８番地コスモＳＴ．河原町８１３号,,26,106,6008146,,,,,,,2023-01-17,1,,,,,エムワイコーポレーション,0
1113,4130003008445,新規,0,2023-01-17,2023-01-17,合同会社つむぎ,,合同会社,京都府,長岡京市,開田４丁目３３番１５号,,26,209,6170826,,,,,,,2023-01-17,1,,,,,ツムギ,0
1114,4130003008453,新規,0,2023-01-17,2023-01-17,合同会社ＫＡＭＯ,,合同会社,京都府,京都市下京区,七条通油小路東入大黒町２２７番地第２キョートビル４０２,,26,106,6008223,,,,,,,2023-01-17,1,,,,,カモ,0
1118,4130005016677,新規,0,2023-01-17,2023-01-17,特定非営利活動法人猫のご縁,,その他の設立登記法人,京都府,京都市山科区,西野山百々町２４２番地２１,,26,110,6078301,,,,,,,2023-01-17,1,,,,,ネコノゴエン,0
1122,4140001128772,新規,0,2023-01-17,2023-01-17,株式会社ワイズ,,株式会社,兵庫県,姫路市,御国野町深志野６７７番地５,,28,201,6710231,,,,,,,2023-01-17,1,,,,,ワイズ,0
1123,4140001128780,新規,0,2023-01-17,2023-01-17,株式会社円九不動産,,株式会社,兵庫県,姫路市,白国２丁目１１番１８号,,28,201,6700808,,,,,,,2023-01-17,1,,,,,マルクフドウサン,0
1125,4140003018591,新規,0,2023-01-17,2023-01-17,合同会社岡元梱包,,合同会社,兵庫県,明石市,二見町西二見２００１番地の１８,,28,203,6740094,,,,,,,2023-01-17,1,,,,,オカモトコンポウ,0
1126,4140005026452,新規,0,2023-01-17,2023-01-17,一般社団法人全国空調設備業協会,,その他の設立登記法人,兵庫県,神戸市中央区,中町通３丁目１番１６－５０２号,,28,110,6500027,,,,,,,2023-01-17,1,,,,,ゼンコククウチョウセツビギョウキョウカイ,0
1136,4170003001818,新規,0,2023-01-17,2023-01-17,合同会社果真運送,,合同会社,和歌山県,有田郡有田川町,大字久野原１１３２,,30,366,6430514,,,,,,,2023-01-17,1,,,,,カシンウンソウ,0
1140,4180001154609,新規,0,2023-01-17,2023-01-17,株式会社らふがき,,株式会社,愛知県,あま市,甚目寺桑丸８番地２甚目寺マンション７０３号,,23,237,4901111,,,,,,,2023-01-17,1,,,,,ラフガキ,0
1141,4180001154625,新規,0,2023-01-17,2023-01-17,モンシェルブルー株式会社,,株式会社,愛知県,名古屋市中村区,名駅３丁目２番２４号,,23,105,4500002,,,,,,,2023-01-17,1,,,,,モンシェルブルー,0
1142,4180003024669,新規,0,2023-01-17,2023-01-17,合同会社カンハヤシ,,合同会社,愛知県,名古屋市港区,千鳥１丁目１１番５号サンシャイン千鳥５０２号,,23,111,4550031,,,,,,,2023-01-17,1,,,,,カンハヤシ,0
1143,4180003024685,新規,0,2023-01-17,2023-01-17,合同会社ネクストプラン,,合同会社,愛知県,名古屋市中区,正木１丁目１１番１２号,,23,106,4600024,,,,,,,2023-01-17,1,,,,,ネクストプラン,0
1144,4180003024727,新規,0,2023-01-17,2023-01-17,合同会社Ｂａｎｄｉｅｒａ,,合同会社,愛知県,名古屋市西区,那古野２丁目８－１０丸一上畠ビル６０１,,23,104,4510042,,,,,,,2023-01-17,1,,,,,バンディエラ,0
1147,4180301036985,新規,0,2023-01-17,2023-01-17,株式会社都築ファーム,,株式会社,愛知県,安城市,根崎町東家下９４番地,,23,212,4441211,,,,,,,2023-01-17,1,,,,,ツヅキファーム,0
1148,4180301037026,新規,0,2023-01-17,2023-01-17,株式会社シュウテック,,株式会社,愛知県,豊田市,高岡町松葉１４７,,23,211,4730933,,,,,,,2023-01-17,1,,,,,シュウテック,0
1154,4190001030107,新規,0,2023-01-17,2023-01-17,株式会社マジェンタ,,株式会社,三重県,いなべ市,北勢町飯倉４３６番地,,24,214,5110416,,,,,,,2023-01-17,1,,,,,マジェンタ,0
1166,4250001019936,新規,0,2023-01-17,2023-01-17,広陽ＧＭ株式会社,,株式会社,山口県,岩国市,南岩国町１丁目１６番２５号,,35,208,7400034,,,,,,,2023-01-17,1,,,,,コウヨウジーエム,0
1174,4290001100205,新規,0,2023-01-17,2023-01-17,株式会社Ｏｎｅ．ｍｃ,,株式会社,福岡県,福岡市博多区,博多駅前４丁目１６番８－６０２号エスタシオン博多,,40,132,8120011,,,,,,,2023-01-17,1,,,,,ワンエムシー,0
1175,4290001100246,新規,0,2023-01-17,2023-01-17,株式会社ＫＳＴ,,株式会社,福岡県,糟屋郡粕屋町,花ヶ浦３丁目６番１－１０３号,,40,349,8112310,,,,,,,2023-01-17,1,,,,,ケイエスティ,0
1176,4290001100254,新規,0,2023-01-17,2023-01-17,Ａｓｈｉｐ株式会社,,株式会社,福岡県,福岡市博多区,博多駅前１丁目２３番１号ＰａｒｋＦｒｏｎｔ博多駅前一丁目５Ｆ－Ｂ,,40,132,8120011,,,,,,,2023-01-17,1,,,,,アシップ,0
1178,4290003013413,新規,0,2023-01-17,2023-01-17,合同会社オフィス・ハッカ,,合同会社,福岡県,福岡市早良区,高取２丁目１７－８－４０７号,,40,137,8140011,,,,,,,2023-01-17,1,,,,,オフィスハッカ,0
1185,4320001019524,新規,0,2023-01-17,2023-01-17,株式会社大分合同アグる,,株式会社,大分県,臼杵市,大字臼杵字祇園洲５５番地の３,,44,206,8750041,,,,,,,2023-01-17,1,,,,,オオイタゴウドウアグル,0
1188,4330005010602,新規,0,2023-01-17,2023-01-17,一般社団法人日本ベトナム親交協会,,その他の設立登記法人,熊本県,上益城郡山都町,浜町２５９番地２０,,43,447,8613518,,,,,,,2023-01-17,1,,,,,ニホンベトナムシンコウキョウカイ,0
1201,4430001088228,新規,0,2023-01-17,2023-01-17,株式会社グッドパートナー,,株式会社,北海道,札幌市中央区,北三条西４丁目１番１号日本生命札幌ビル１７階,,01,101,0600003,,,,,,,2023-01-17,1,,,,,グッドパートナー,0
1202,4430001088236,新規,0,2023-01-17,2023-01-17,伸和塗装株式会社,,株式会社,北海道,苫小牧市,永福町２丁目７番１８号,,01,213,0530815,,,,,,,2023-01-17,1,,,,,シンワトソウ,0
1204,4430003014660,新規,0,2023-01-17,2023-01-17,合同会社ＯＤＭ北海道,,合同会社,北海道,札幌市東区,北五十条東７丁目７番８号,,01,103,0070850,,,,,,,2023-01-17,1,,,,,オーディーエムホッカイドウ,0
1222,5010001232074,新規,0,2023-01-17,2023-01-17,Ａｚｕｒｅ　Ｏｎｅ株式会社,,株式会社,東京都,中央区,銀座１丁目１５番４号銀座１丁目ビル７Ｆ,,13,102,1040061,,,,,,,2023-01-17,1,,,,,アズールワン,0
1223,5010001232223,新規,0,2023-01-17,2023-01-17,株式会社ジェイ・ワン・アセット,,株式会社,東京都,中央区,日本橋馬喰町１丁目１４番４号,,13,102,1030002,,,,,,,2023-01-17,1,,,,,ジェイワンアセット,0
1224,5010001232256,新規,0,2023-01-17,2023-01-17,雷特株式会社,,株式会社,東京都,文京区,西片２丁目２１番３－３０１,,13,105,1130024,,,,,,,2023-01-17,1,,,,,ライトク,0
1225,5010001232264,新規,0,2023-01-17,2023-01-17,株式会社ウェルケアデザイン,,株式会社,東京都,中央区,新川２丁目２１番１５号ニューハイツ八丁堀２０３号,,13,102,1040033,,,,,,,2023-01-17,1,,,,,ウェルケアデザイン,0
1226,5010001232272,新規,0,2023-01-17,2023-01-17,ＥｘｔｒａＭ　Ｐａｒｔｎｅｒｓ株式会社,,株式会社,東京都,千代田区,大手町１丁目５番１号大手町ファーストスクエアイーストタワー４Ｆ,,13,101,1000004,,,,,,,2023-01-17,1,,,,,エクストラムパートナーズ,0
1227,5010001232297,新規,0,2023-01-17,2023-01-17,株式会社ｅｚＴｉｍｅｓ,,株式会社,東京都,文京区,関口１丁目１５番１１号,,13,105,1120014,,,,,,,2023-01-17,1,,,,,イージータイムズ,0
1238,5010403029283,新規,0,2023-01-17,2023-01-17,合同会社郡山産業医オフィス,,合同会社,東京都,港区,浜松町２丁目２番１５号浜松町ダイヤビル２Ｆ,,13,103,1050013,,,,,,,2023-01-17,1,,,,,コオリヤマサンギョウイオフィス,0
1239,5010403029300,新規,0,2023-01-17,2023-01-17,合同会社ＫＲＹ,,合同会社,東京都,港区,港南１丁目８番２３－１８１２号,,13,103,1080075,,,,,,,2023-01-17,1,,,,,ケイアールワイ,0
1240,5010403029309,新規,0,2023-01-17,2023-01-17,合同会社Ｌａｐｉｓｉｓ　Ｈｏｌｄｉｎｇｓ,,合同会社,東京都,港区,白金台２丁目６－１０－３０４,,13,103,1080071,,,,,,,2023-01-17,1,,,,,ラピシスホールディングス,0
1242,5010405021734,新規,0,2023-01-17,2023-01-17,ジャパンインフラホールディングス３０号一般社団法人,,その他の設立登記法人,東京都,港区,元赤坂１丁目１番７号,,13,103,1070051,,,,,,,2023-01-17,1,,,,,ジャパンインフラホールディングスサンジュウゴウ,0
1251,5010701043696,新規,0,2023-01-17,2023-01-17,株式会社イントワーズ,,株式会社,東京都,品川区,南品川３丁目４番１－４０４号,,13,109,1400004,,,,,,,2023-01-17,1,,,,,イントワーズ,0
1252,5010703006528,新規,0,2023-01-17,2023-01-17,ＨＦ合同会社,,合同会社,東京都,品川区,小山２丁目６番１４号２階,,13,109,1420062,,,,,,,2023-01-17,1,,,,,エイチエフ,0
1261,5010901052340,新規,0,2023-01-17,2023-01-17,株式会社ＭＭｕ＆Ｃｏ．,,株式会社,東京都,世田谷区,代田６丁目１２番１号,,13,112,1550033,,,,,,,2023-01-17,1,,,,,ムーアンドコー,0
1281,5011303004632,新規,0,2023-01-17,2023-01-17,合同会社アルカンジュ,,合同会社,東京都,杉並区,西荻南２丁目１０番４号,,13,115,1670053,,,,,,,2023-01-17,1,,,,,アルカンジュ,0
1282,5011303004640,新規,0,2023-01-17,2023-01-17,合同会社西荻北不動産,,合同会社,東京都,杉並区,桃井３丁目１０－１－４１９,,13,115,1670034,,,,,,,2023-01-17,1,,,,,ニシオギキタフドウサン,0
1285,5011501028838,新規,0,2023-01-17,2023-01-17,アジュバーレ株式会社,,株式会社,東京都,荒川区,東尾久２丁目４５番１２号,,13,118,1160012,,,,,,,2023-01-17,1,,,,,アジュバーレ,0
1296,5012703002622,新規,0,2023-01-17,2023-01-17,ＡＩＦＵＬＬ合同会社,,合同会社,東京都,小平市,小川町１丁目５０２番地の１１２,,13,211,1870032,,,,,,,2023-01-17,1,,,,,アイフル,0
1297,5012801022084,新規,0,2023-01-17,2023-01-17,グローイングアップ株式会社,,株式会社,東京都,日野市,南平１丁目２６番地の６Ｂ１１０号室,,13,212,1910041,,,,,,,2023-01-17,1,,,,,グローイングアップ,0
1301,5013301050187,新規,0,2023-01-17,2023-01-17,株式会社ｅＬｉｓｔ,,株式会社,東京都,豊島区,東池袋１丁目１７番１１号パークハイツ池袋１１０５号,,13,116,1700013,,,,,,,2023-01-17,1,,,,,イーリスト,0
1310,5021001077954,新規,0,2023-01-17,2023-01-17,株式会社ＲＥＡＣＨ,,株式会社,神奈川県,秦野市,鶴巻１８３１－１,,14,211,2570007,,,,,,,2023-01-17,1,,,,,リーチ,0
1311,5021001077970,新規,0,2023-01-17,2023-01-17,株式会社グランエンタテイメント,,株式会社,神奈川県,藤沢市,鵠沼海岸１丁目１番１５～１０１号,00129099,14,205,2510037,,,,,,,2023-01-17,1,,,,,グランエンタテインメント,0
1315,5030001151990,新規,0,2023-01-17,2023-01-17,株式会社エーエージェジャパン,,株式会社,埼玉県,川口市,本町１丁目６番１７号コーポエンドレス３０３号室,,11,203,3320012,,,,,,,2023-01-17,1,,,,,エーエージェジャパン,0
1319,5040001126661,新規,0,2023-01-17,2023-01-17,株式会社プロスペリティ,,株式会社,千葉県,松戸市,二十世紀が丘萩町７８番地ルミエール３０１号,,12,207,2710086,,,,,,,2023-01-17,1,,,,,プロスペリティ,0
1320,5040001126678,新規,0,2023-01-17,2023-01-17,伊藤建設耕業株式会社,,株式会社,千葉県,四街道市,千代田５丁目４５番２０号,,12,228,2840015,,,,,,,2023-01-17,1,,,,,イトウケンセツコウギョウ,0
1325,5040003021687,新規,0,2023-01-17,2023-01-17,ＪＡＹＡＮＴＨＩ　ＥＮＴＥＲＰＲＩＳＥＳ合同会社,,合同会社,千葉県,香取郡神崎町,郡１１２７－１リッチＩＩ１０２号,00129111,12,342,2890202,,,,,,,2023-01-17,1,,,,,ジャヤンティエンタープライズ,0
1326,5040005021867,新規,0,2023-01-17,2023-01-17,あおぞら税理士法人,,その他の設立登記法人,千葉県,鎌ケ谷市,東初富４丁目３６番５号,,12,224,2730122,,,,,,,2023-01-17,1,,,,,アオゾラ,0
1329,5050001052270,新規,0,2023-01-17,2023-01-17,共伸サービス株式会社,,株式会社,茨城県,土浦市,神立町３６１６番地３６,,08,203,3000013,,,,,,,2023-01-17,1,,,,,キョウシンサービス,0
1332,5050003007140,新規,0,2023-01-17,2023-01-17,合同会社上野自動車工業,,合同会社,茨城県,古河市,大山１０８６番地１,,08,204,3060052,,,,,,,2023-01-17,1,,,,,ウエノジドウシャコウギョウ,0
1343,5070001040026,新規,0,2023-01-17,2023-01-17,株式会社かなえーる,,株式会社,群馬県,高崎市,並榎町１４１番地１,,10,202,3700802,,,,,,,2023-01-17,1,,,,,カナエール,0
1344,5070001040042,新規,0,2023-01-17,2023-01-17,株式会社ＧＲＡＦＦ,,株式会社,群馬県,前橋市,南町３丁目８番地３,,10,201,3710805,,,,,,,2023-01-17,1,,,,,グラフ,0
1347,5070003004788,新規,0,2023-01-17,2023-01-17,合同会社アトリエ・キッズ,,合同会社,群馬県,高崎市,浜川町１２４１－１,,10,202,3700081,,,,,,,2023-01-17,1,,,,,アトリエキッズ,0
1351,5080401026219,新規,0,2023-01-17,2023-01-17,株式会社Ａ＆Ｍ,,株式会社,静岡県,浜松市天竜区,水窪町奥領家３４４６番地の３,,22,137,4314101,,,,,,,2023-01-17,1,,,,,エーアンドエム,0
1362,5120001251749,新規,0,2023-01-17,2023-01-17,日本リンバオ株式会社,,株式会社,大阪府,大阪市東住吉区,鷹合４丁目２１番１６号１Ｆ－Ｈ,,27,121,5460014,,,,,,,2023-01-17,1,,,,,ニホンリンバオ,0
1363,5120001251757,新規,0,2023-01-17,2023-01-17,株式会社ＦＵＬＬｘＡＬＬ,,株式会社,大阪府,大阪市北区,大深町３番１号グランフロント大阪北館８階,,27,127,5300011,,,,,,,2023-01-17,1,,,,,フルオール,0
1364,5120001251765,新規,0,2023-01-17,2023-01-17,株式会社小川企画,,株式会社,大阪府,大阪市中央区,備後町１丁目５番１５号５階,,27,128,5410051,,,,,,,2023-01-17,1,,,,,オガワキカク,0
1365,5120001251773,新規,0,2023-01-17,2023-01-17,株式会社Ｐａｃｕ,,株式会社,大阪府,大阪市浪速区,恵美須東１丁目５番１５号パークハイツ３０３,,27,111,5560002,,,,,,,2023-01-17,1,,,,,パク,0
1366,5120001251798,新規,0,2023-01-17,2023-01-17,株式会社木下商会,,株式会社,大阪府,大阪市北区,梅田１丁目２番２号大阪駅前第２ビル１２－１２,,27,127,5300001,,,,,,,2023-01-17,1,,,,,キノシタショウカイ,0
1372,5120003023262,新規,0,2023-01-17,2023-01-17,和夏合同会社,,合同会社,大阪府,大阪市平野区,平野市町１丁目１番９号１０３号室,,27,126,5470042,,,,,,,2023-01-17,1,,,,,ワナツ,0
1375,5120101066816,新規,0,2023-01-17,2023-01-17,株式会社ＬＯＮＧ　ＴＩＭＥ,,株式会社,大阪府,貝塚市,北町３８番２２号,,27,208,5970011,,,,,,,2023-01-17,1,,,,,ロングタイム,0
1390,5130001073507,新規,0,2023-01-17,2023-01-17,株式会社黒馬研究院,,株式会社,京都府,京都市伏見区,深草西浦町６丁目７９番地５、ＥＤＡアドバンスビル１０２,,26,109,6120029,,,,,,,2023-01-17,1,,,,,クロウマケンキュウイン,0
1396,5130003008428,新規,0,2023-01-17,2023-01-17,合同会社中喜多研究所,,合同会社,京都府,長岡京市,馬場１丁目１番２８号,,26,209,6170828,,,,,,,2023-01-17,1,,,,,ナカキタケンキュウショ,0
1397,5130003008452,新規,0,2023-01-17,2023-01-17,ＳＴＶ合同会社,,合同会社,京都府,京都市下京区,油小路町２９１ボックス七条１階１０７号室,,26,106,6000000,,,,,,,2023-01-17,1,,,,,エスティヴイ,0
1404,5140001128714,新規,0,2023-01-17,2023-01-17,ヤマショウ株式会社,,株式会社,兵庫県,伊丹市,南町４丁目５番２２号サウスタウン１０２号,,28,207,6640854,,,,,,,2023-01-17,1,,,,,ヤマショウ,0
1405,5140001128747,新規,0,2023-01-17,2023-01-17,株式会社優真設備,,株式会社,兵庫県,神戸市長田区,丸山町１丁目１番５号,,28,106,6530875,,,,,,,2023-01-17,1,,,,,ユウシンセツビ,0
1406,5140001128755,新規,0,2023-01-17,2023-01-17,三松株式会社,,株式会社,兵庫県,神戸市東灘区,住吉南町２丁目１２番２－８０２号,,28,101,6580041,,,,,,,2023-01-17,1,,,,,サンショウ,0
1407,5140001128771,新規,0,2023-01-17,2023-01-17,ＴＯＪＩ工事株式会社,,株式会社,兵庫県,姫路市,白浜町丙１４１番地７,,28,201,6728023,,,,,,,2023-01-17,1,,,,,トウジコウジ,0
1408,5140001128788,新規,0,2023-01-17,2023-01-17,株式会社ＭＯＤＳ,,株式会社,兵庫県,西宮市,大井手町１０番２９号,,28,204,6620036,,,,,,,2023-01-17,1,,,,,モッズ,0
1409,5140003018590,新規,0,2023-01-17,2023-01-17,ＪＬ　Ｃｏｒｐｏｒａｔｉｏｎ合同会社,,合同会社,兵庫県,西宮市,柏堂西町１３番２号,,28,204,6620098,,,,,,,2023-01-17,1,,,,,ジェイエルコーポレーション,0
1410,5140005026435,新規,0,2023-01-17,2023-01-17,医療法人ＬＩＧＨＴ,,その他の設立登記法人,兵庫県,神戸市中央区,加納町１丁目３－２コトノハコ神戸１階,,28,110,6500001,,,,,,,2023-01-17,1,,,,,ライト,0
1413,5150001026108,新規,0,2023-01-17,2023-01-17,コラボグループ株式会社,,株式会社,奈良県,生駒市,北新町２０番６７号,,29,209,6300245,,,,,,,2023-01-17,1,,,,,コラボグループ,0
1417,5180001154310,新規,0,2023-01-17,2023-01-17,カーマン株式会社,,株式会社,愛知県,名古屋市守山区,小幡２丁目８番２９号－１,,23,113,4630011,,,,,,,2023-01-17,1,,,,,カーマン,0
1418,5180001154599,新規,0,2023-01-17,2023-01-17,株式会社ＨＯＭＥＳＴ,,株式会社,愛知県,名古屋市中区,正木１丁目１番８号（リバーフロントレジデンス３０１号）,,23,106,4600024,,,,,,,2023-01-17,1,,,,,ホーメスト,0
1419,5180001154616,新規,0,2023-01-17,2023-01-17,ＷＥＢエイト株式会社,,株式会社,愛知県,常滑市,飛香台８丁目３番地の８,,23,216,4790868,,,,,,,2023-01-17,1,,,,,ウェブエイト,0
1424,5180003024701,新規,0,2023-01-17,2023-01-17,合同会社ＭＧシステム,,合同会社,愛知県,北名古屋市,石橋五反田１７番地パーチェ１０２号室,,23,234,4810046,,,,,,,2023-01-17,1,,,,,エムジーシステム,0
1425,5180003024734,新規,0,2023-01-17,2023-01-17,合同会社八陣,,合同会社,愛知県,半田市,東大矢知町３丁目８３－４,,23,205,4750003,,,,,,,2023-01-17,1,,,,,ハチジン,0
1433,5180301037000,新規,0,2023-01-17,2023-01-17,久保田総業株式会社,,株式会社,愛知県,豊橋市,東脇３丁目８番地２（３０２）,,23,201,4418083,,,,,,,2023-01-17,1,,,,,クボタソウギョウ,0
1434,5180301037009,新規,0,2023-01-17,2023-01-17,株式会社ＴＲＵＳＴ　ＬＥＡＤ,,株式会社,愛知県,刈谷市,高須町１丁目１２番地２,,23,210,4480812,,,,,,,2023-01-17,1,,,,,トラストリード,0
1443,5190001030106,新規,0,2023-01-17,2023-01-17,株式会社零,,株式会社,三重県,亀山市,阿野田町２１５０番地,,24,210,5190137,,,,,,,2023-01-17,1,,,,,レイ,0
1449,5210001019212,新規,0,2023-01-17,2023-01-17,株式会社コネクト,,株式会社,福井県,敦賀市,大比田１９号１４番地,,18,202,9140262,,,,,,,2023-01-17,1,,,,,コネクト,0
1460,5280005007529,新規,0,2023-01-17,2023-01-17,一般社団法人エジソンメディカルラボ,,その他の設立登記法人,島根県,出雲市,大社町杵築西２２４５番地,,32,203,6990751,,,,,,,2023-01-17,1,,,,,エジソンメディカルラボ,0
1467,5290001100237,新規,0,2023-01-17,2023-01-17,株式会社ＧＣ,,株式会社,福岡県,福岡市博多区,中洲４丁目１番１号,,40,132,8100801,,,,,,,2023-01-17,1,,,,,ジーシー,0
1468,5290001100253,新規,0,2023-01-17,2023-01-17,株式会社ｕｎｉｃｏ,,株式会社,福岡県,福岡市中央区,天神４丁目４番１１号,,40,133,8100001,,,,,,,2023-01-17,1,,,,,ユニコ,0
1469,5290001100261,新規,0,2023-01-17,2023-01-17,株式会社ＭｏｉｄｅＦｅｍｍｅ,,株式会社,福岡県,福岡市城南区,荒江１丁目１番１－２０１号,,40,136,8140101,,,,,,,2023-01-17,1,,,,,モイデフェム,0
1472,5290003013429,新規,0,2023-01-17,2023-01-17,合同会社モト,,合同会社,福岡県,福岡市東区,若宮５丁目１７番２－２０５号フォーサイト千早Ｒｅｎａｔｕｓ,,40,131,8130036,,,,,,,2023-01-17,1,,,,,モト,0
1483,5320001019523,新規,0,2023-01-17,2023-01-17,株式会社堺屋,,株式会社,大分県,豊後高田市,金谷町１１９３番地３,,44,209,8790623,,,,,,,2023-01-17,1,,,,,サカイヤ,0
1486,5330001030495,新規,0,2023-01-17,2023-01-17,株式会社ＷＯＭＯＩ　ａｎｄ,,株式会社,熊本県,熊本市中央区,出水７丁目９２－３２,,43,101,8620941,,,,,,,2023-01-17,1,,,,,ヲモイアンド,0
1488,5360001031433,新規,0,2023-01-17,2023-01-17,Ｆｕｌｌ　Ｂｌｏｏｍ株式会社,,株式会社,沖縄県,島尻郡南風原町,字照屋１６０番地レーヴ絣ロード４０２,,47,350,9011116,,,,,,,2023-01-17,1,,,,,フルブルーム,0
1489,5360003012654,新規,0,2023-01-17,2023-01-17,合同会社ＩＮＯＵＥ　ＷＯＲＫＳ,,合同会社,沖縄県,南城市,佐敷字新里２２３番地,,47,215,9011412,,,,,,,2023-01-17,1,,,,,イノウエワークス,0
1503,5430001088227,新規,0,2023-01-17,2023-01-17,株式会社リスタ,,株式会社,北海道,石狩市,花川南一条６丁目１０９番地,,01,235,0613201,,,,,,,2023-01-17,1,,,,,リスタ,0
1504,5430001088235,新規,0,2023-01-17,2023-01-17,ＢＩＴＯＳ株式会社,,株式会社,北海道,札幌市中央区,南七条西４丁目４２２,,01,101,0640807,,,,,,,2023-01-17,1,,,,,ビトス,0
1505,5430003014627,新規,0,2023-01-17,2023-01-17,合同会社Ｋｏｂａ住設,,合同会社,北海道,北広島市,新富町西４丁目４番地１７,,01,234,0611127,,,,,,,2023-01-17,1,,,,,コバジュウセツ,0
1506,5430003014635,新規,0,2023-01-17,2023-01-17,合同会社人と企業の成長,,合同会社,北海道,札幌市白石区,北郷二条４丁目６番３１号,,01,104,0030832,,,,,,,2023-01-17,1,,,,,ヒトトキギョウノセイチョウ,0
1514,5480003001918,新規,0,2023-01-17,2023-01-17,合同会社信頼,,合同会社,徳島県,徳島市,南末広町４番７５号１０５,,36,201,7700865,,,,,,,2023-01-17,1,,,,,シンライ,0
1520,5700150113501,新規,0,2023-01-17,2022-12-26,リグニン学会,,その他,北海道,札幌市白石区,東札幌二条５丁目７－１Ｍａｉｓｏｎ２５　２０３号,,01,104,0030002,,,,,,,2022-12-26,1,,,,,リグニンガツカイ,0
1539,6010001232197,新規,0,2023-01-17,2023-01-17,パンゲア株式会社,,株式会社,東京都,中央区,銀座１丁目２２番１１号銀座大竹ビジデンス２Ｆ,,13,102,1040061,,,,,,,2023-01-17,1,,,,,パンゲア,0
1540,6010001232214,新規,0,2023-01-17,2023-01-17,タイムリンク株式会社,,株式会社,東京都,中央区,日本橋人形町３丁目３番５号,,13,102,1030013,,,,,,,2023-01-17,1,,,,,タイムリンク,0
1541,6010001232247,新規,0,2023-01-17,2023-01-17,株式会社ＴＩ　ＣＯＲＰＯＲＡＴＩＯＮ,,株式会社,東京都,中央区,勝どき１丁目８番１号,,13,102,1040054,,,,,,,2023-01-17,1,,,,,ティアイコーポレーション,0
1542,6010001232255,新規,0,2023-01-17,2023-01-17,ＢＮＩ国際株式会社,,株式会社,東京都,千代田区,神田淡路町１丁目９－５天翔御茶ノ水ビル７１２号室,,13,101,1010063,,,,,,,2023-01-17,1,,,,,ビーエヌアイコクサイ,0
1546,6010003039566,新規,0,2023-01-17,2023-01-17,合同会社百道浜開発,,合同会社,東京都,千代田区,丸の内３丁目１番１号東京共同会計事務所内,,13,101,1000005,,,,,,,2023-01-17,1,,,,,モモチハマカイハツ,0
1547,6010003039590,新規,0,2023-01-17,2023-01-17,合同会社四次元,,合同会社,東京都,中央区,銀座１丁目１５番４号銀座一丁目ビル７階ｆａｂｂｉｔ銀座,,13,102,1040061,,,,,,,2023-01-17,1,,,,,ヨジゲン,0
1550,6010101015493,新規,0,2023-01-17,2023-01-17,株式会社アクシスツースリー,,株式会社,東京都,八王子市,片倉町９８２番地３３,,13,201,1920914,,,,,,,2023-01-17,1,,,,,アクシスツースリー,0
1558,6010401171870,新規,0,2023-01-17,2023-01-17,株式会社ＶｉｌｌｄｉｓＴＡ,,株式会社,東京都,港区,赤坂４丁目８－１９赤坂フロントタウン３階,,13,103,1070052,,,,,,,2023-01-17,1,,,,,ヴィルディスタ,0
1559,6010401171887,新規,0,2023-01-17,2023-01-17,株式会社ブルーオリジン,,株式会社,東京都,港区,六本木７丁目８番６号ＡＸＡＬＬ・ＲＯＰＰＯＮＧＩ７階,,13,103,1060032,,,,,,,2023-01-17,1,,,,,ブルーオリジン,0
1560,6010401171895,新規,0,2023-01-17,2023-01-17,ＬＳ‐ＳＨＩＰ第３９号株式会社,,株式会社,東京都,港区,六本木１丁目６番１号,,13,103,1060032,,,,,,,2023-01-17,1,,,,,エルエスシップダイサンジュウキュウゴウ,0
1568,6010601062432,新規,0,2023-01-17,2023-01-17,Ｅｓｃａｐｅ　Ｒａｂｂｉｔ株式会社,,株式会社,東京都,墨田区,千歳１丁目５番１号,,13,107,1300025,,,,,,,2023-01-17,1,,,,,エスケープラビット,0
1571,6010603009943,新規,0,2023-01-17,2023-01-17,ｇｒｉｔ合同会社,,合同会社,東京都,墨田区,押上１丁目２０番６号,,13,107,1310045,,,,,,,2023-01-17,1,,,,,グリット,0
1577,6010801033596,新規,0,2023-01-17,2023-01-17,株式会社ＡｒｃＣｈａｎｃｅ,,株式会社,東京都,大田区,南千束２丁目６番１６－４０３号,,13,111,1450063,,,,,,,2023-01-17,1,,,,,アークシャンス,0
1594,6011003016043,新規,0,2023-01-17,2023-01-17,グリンピーポー合同会社,,合同会社,東京都,渋谷区,道玄坂１丁目１０番８号渋谷道玄坂東急ビル２Ｆ－Ｃ,,13,113,1500043,,,,,,,2023-01-17,1,,,,,グリンピーポー,0
1595,6011003016084,新規,0,2023-01-17,2023-01-17,ＮＦＴｖ　Ｊａｐａｎ合同会社,,合同会社,東京都,渋谷区,千駄ヶ谷５丁目１３番１８号オフィスコート,,13,113,1510051,,,,,,,2023-01-17,1,,,,,エヌエフティーヴィージャパン,0
1596,6011005009904,新規,0,2023-01-17,2023-01-17,一般社団法人日本山岳医療協議会,,その他の設立登記法人,東京都,渋谷区,道玄坂１丁目１０番８号渋谷道玄坂東急ビル２Ｆ－Ｃ,,13,113,1500043,,,,,,,2023-01-17,1,,,,,ニホンサンガクイリョウキョウギカイ,0
1599,6011101101507,新規,0,2023-01-17,2023-01-17,ｉコネクト株式会社,,株式会社,東京都,新宿区,高田馬場４丁目４０番１１号,,13,104,1690075,,,,,,,2023-01-17,1,,,,,アイコネクト,0
1600,6011101101515,新規,0,2023-01-17,2023-01-17,株式会社スタジオアティック,,株式会社,東京都,新宿区,新宿５丁目１１番２２号中島ビル２階,,13,104,1600022,,,,,,,2023-01-17,1,,,,,スタジオアティック,0
1601,6011101101523,新規,0,2023-01-17,2023-01-17,株式会社ＶＩＩＩ,,株式会社,東京都,新宿区,高田馬場４丁目１３番１１号松島第一ビル３階,,13,104,1690075,,,,,,,2023-01-17,1,,,,,ブイスリー,0
1604,6011301028384,新規,0,2023-01-17,2023-01-17,株式会社ＤＩＪ,,株式会社,東京都,杉並区,高井戸東１丁目２９番６号,,13,115,1680072,,,,,,,2023-01-17,1,,,,,ディーアイジェイ,0
1614,6011601026484,新規,0,2023-01-17,2023-01-17,シンカイ株式会社,,株式会社,東京都,練馬区,関町東１丁目１９番１１号イーストパーク１０２,,13,120,1770052,,,,,,,2023-01-17,1,,,,,シンカイ,0
1618,6012705002339,新規,0,2023-01-17,2023-01-17,特定非営利活動法人小平リトルシニアリーグ野球協会,,その他の設立登記法人,東京都,小平市,学園東町１丁目１０番２１号,,13,211,1870043,,,,,,,2023-01-17,1,,,,,コダイラリトルシニアリーグヤキュウキョウカイ,0
1621,6013301050203,新規,0,2023-01-17,2023-01-17,株式会社Ｄｒｅａｍ　Ｃａｒｅｅｒ,,株式会社,東京都,豊島区,池袋２丁目１７－８天翔池袋西口ＡＮＮＥＸビル１階１０５号室,,13,116,1710014,,,,,,,2023-01-17,1,,,,,ドリームキャリア,0
1630,6020001149861,新規,0,2023-01-17,2023-01-17,株式会社ティーエスリフォーム,,株式会社,神奈川県,横浜市旭区,四季美台３３番地７サンテラスＣ,,14,112,2410025,,,,,,,2023-01-17,1,,,,,ティーエスリフォーム,0
1633,6020003023123,新規,0,2023-01-17,2023-01-17,合同会社ベアロードモータース,,合同会社,神奈川県,横浜市港南区,芹が谷１丁目１番６号ライフイン芹が谷１－Ａ,,14,111,2330006,,,,,,,2023-01-17,1,,,,,ベアロードモータース,0
1634,6020005015812,新規,0,2023-01-17,2023-01-17,一般社団法人日本みそ・発酵コンシェルジュ認定協会,,その他の設立登記法人,神奈川県,横浜市都筑区,茅ケ崎中央８番３３号,,14,118,2240032,,,,,,,2023-01-17,1,,,,,ニホンミソハッコウコンシェルジュニンテイキョウカイ,0
1643,6021001077961,新規,0,2023-01-17,2023-01-17,株式会社刻ノ葉,,株式会社,神奈川県,足柄下郡箱根町,強羅１３００番地５０１,,14,382,2500408,,,,,,,2023-01-17,1,,,,,トキノハ,0
1644,6021001077978,新規,0,2023-01-17,2023-01-17,株式会社マサズ,,株式会社,神奈川県,鎌倉市,大町１丁目２番１５号,,14,204,2480007,,,,,,,2023-01-17,1,,,,,マサズ,0
1645,6021001077986,新規,0,2023-01-17,2023-01-17,黒猫ＲＵＢＹ株式会社,,株式会社,神奈川県,逗子市,沼間１丁目１８番３号,,14,208,2490004,,,,,,,2023-01-17,1,,,,,クロネコルビー,0
1647,6021003012611,新規,0,2023-01-17,2023-01-17,Ｗｏｏｄ　Ｌａｂ合同会社,,合同会社,神奈川県,藤沢市,下土棚２６２－８,,14,205,2520807,,,,,,,2023-01-17,1,,,,,ウッドラボ,0
1648,6021003012628,新規,0,2023-01-17,2023-01-17,合同会社Ｔ８,,合同会社,神奈川県,藤沢市,亀井野２丁目１１－７ローズコーポ六会１０２,,14,205,2520813,,,,,,,2023-01-17,1,,,,,ティーエイト,0
1649,6021005012717,新規,0,2023-01-17,2023-01-17,特定非営利活動法人皆の衆,,その他の設立登記法人,神奈川県,横須賀市,武１丁目３０番１号,,14,201,2380313,,,,,,,2023-01-17,1,,,,,ミナノシュウ,0
1656,6030001151949,新規,0,2023-01-17,2023-01-17,株式会社ベストチャーター,,株式会社,埼玉県,八潮市,大字西袋１０３１番地８,,11,234,3400833,,,,,,,2023-01-17,1,,,,,ベストチャーター,0
1657,6030001151965,新規,0,2023-01-17,2023-01-17,株式会社藤森物産,,株式会社,埼玉県,さいたま市中央区,鈴谷３丁目９番１４号,,11,105,3380013,,,,,,,2023-01-17,1,,,,,フジモリブッサン,0
1658,6030001151998,新規,0,2023-01-17,2023-01-17,株式会社ＦＲＥＥ　ＲＩＤＥ,,株式会社,埼玉県,狭山市,中央３丁目６番Ｇ－５０５号,,11,215,3501308,,,,,,,2023-01-17,1,,,,,フリーライド,0
1659,6030001152006,新規,0,2023-01-17,2023-01-17,株式会社Ｓ・Ｔ企画,,株式会社,埼玉県,川越市,新富町１丁目２番地４ホンダ壱番館５階,,11,201,3500043,,,,,,,2023-01-17,1,,,,,エステーキカク,0
1665,6030003020937,新規,0,2023-01-17,2023-01-17,合同会社Ｊｏｙ‐Ｆｉｒｓｔ,,合同会社,埼玉県,さいたま市北区,東大成町２丁目２１４クレセントビル１０１,,11,102,3310814,,,,,,,2023-01-17,1,,,,,ジョイファースト,0
1671,6040003021703,新規,0,2023-01-17,2023-01-17,合同会社万＿,00129110,合同会社,千葉県,船橋市,本町５丁目１９－１－３１８号,,12,204,2730005,,,,,,,2023-01-17,1,,,,,マンキン,0
1679,6070001040025,新規,0,2023-01-17,2023-01-17,株式会社ｅｎｉｃｏ,,株式会社,群馬県,高崎市,上並榎町１４２番地２,,10,202,3700801,,,,,,,2023-01-17,1,,,,,エニコ,0
1680,6070001040033,新規,0,2023-01-17,2023-01-17,株式会社あさはな,,株式会社,群馬県,渋川市,伊香保町伊香保甲８番地,,10,208,3770102,,,,,,,2023-01-17,1,,,,,アサハナ,0
1682,6070003004787,新規,0,2023-01-17,2023-01-17,Ｋ．Ｋ　ＣＯＭＰＡＮＹ合同会社,,合同会社,群馬県,館林市,東美園町６番地の３ライブリー美園Ｂ－１０３,,10,207,3740031,,,,,,,2023-01-17,1,,,,,,0
1694,6120001251789,新規,0,2023-01-17,2023-01-17,株式会社ユーネット,,株式会社,大阪府,大阪市東淀川区,東中島１丁目１７番５号ステュディオ新大阪６１１号,,27,114,5330033,,,,,,,2023-01-17,1,,,,,ユーネット,0
1697,6120003023261,新規,0,2023-01-17,2023-01-17,ＳＡＮＷＡＹＤ合同会社,,合同会社,大阪府,大阪市北区,梅田１丁目２番２号大阪駅前第２ビル１２－１２,,27,127,5300001,,,,,,,2023-01-17,1,,,,,サンウェイド,0
1698,6120005023400,新規,0,2023-01-17,2023-01-17,一般社団法人くらわんか観光マネジメント,,その他の設立登記法人,大阪府,枚方市,藤阪東町４丁目１番５６号,,27,210,5730153,,,,,,,2023-01-17,1,,,,,クラワンカカンコウマネジメント,0
1728,6130003008451,新規,0,2023-01-17,2023-01-17,新生アキハ合同会社,,合同会社,京都府,京都市伏見区,淀際目町７番６,,26,109,6130915,,,,,,,2023-01-17,1,,,,,シンセイアキハ,0
1733,6140001128754,新規,0,2023-01-17,2023-01-17,株式会社コルデ,,株式会社,兵庫県,加古川市,野口町良野１０４０番地の７,,28,210,6750017,,,,,,,2023-01-17,1,,,,,コルデ,0
1734,6140001128770,新規,0,2023-01-17,2023-01-17,株式会社わだつみ,,株式会社,兵庫県,西宮市,高松町１７番２号,,28,204,6638204,,,,,,,2023-01-17,1,,,,,ワダツミ,0
1735,6140001128787,新規,0,2023-01-17,2023-01-17,株式会社Ｉ’ｌｌ,,株式会社,兵庫県,淡路市,江井２３７６番地２,,28,226,6561531,,,,,,,2023-01-17,1,,,,,アイル,0
1739,6140003018573,新規,0,2023-01-17,2023-01-17,合同会社コーラルデザイン,,合同会社,兵庫県,西宮市,下葭原町２番２７－１１２号,,28,204,6620956,,,,,,,2023-01-17,1,,,,,コーラルデザイン,0
1740,6140005026450,新規,0,2023-01-17,2023-01-17,特定非営利活動法人こどもサポートステーション・たねとしずく,,その他の設立登記法人,兵庫県,西宮市,弓場町６番３５－２０６号,,28,204,6620964,,,,,,,2023-01-17,1,,,,,コドモサポートステーションタネトシズク,0
1745,6160001024778,新規,0,2023-01-17,2023-01-17,株式会社ＴＩＮＧＧＡＬ,,株式会社,滋賀県,彦根市,中藪町６３４番２６号,,25,202,5220051,,,,,,,2023-01-17,1,,,,,ティンガル,0
1747,6170001017442,新規,0,2023-01-17,2023-01-17,株式会社フューチャー,,株式会社,和歌山県,東牟婁郡古座川町,小川１２６,,30,424,6494216,,,,,,,2023-01-17,1,,,,,フューチャー,0
1755,6180001154598,新規,0,2023-01-17,2023-01-17,株式会社ＺＥＮ,,株式会社,愛知県,名古屋市中川区,荒子２丁目２５番地,,23,110,4540869,,,,,,,2023-01-17,1,,,,,ゼン,0
1756,6180001154607,新規,0,2023-01-17,2023-01-17,株式会社ｎｉｃｏ,,株式会社,愛知県,一宮市,今伊勢町本神戸字和田東１３番地１,,23,203,4910053,,,,,,,2023-01-17,1,,,,,ニコ,0
1757,6180001154615,新規,0,2023-01-17,2023-01-17,株式会社Ｇｗｏｒｋｓ,,株式会社,愛知県,春日井市,瑞穂通８丁目３１－５,,23,206,4860845,,,,,,,2023-01-17,1,,,,,ジーワークス,0
1758,6180001154623,新規,0,2023-01-17,2023-01-17,株式会社縁ＴＥＲＴＡＩＮＭＥＮＴ,,株式会社,愛知県,名古屋市中川区,松重町４－４１グランアベニュー１１１０号室,,23,110,4540003,,,,,,,2023-01-17,1,,,,,エンターテイメント,0
1763,6180003024717,新規,0,2023-01-17,2023-01-17,合同会社ｍａｉｓｏｎ　Ｈ,,合同会社,愛知県,春日井市,町屋町１丁目９６番地,,23,206,4860809,,,,,,,2023-01-17,1,,,,,メゾンアッシュ,0
1764,6180003024725,新規,0,2023-01-17,2023-01-17,ササエル不動産合同会社,,合同会社,愛知県,春日井市,白山町５丁目２２番地１５,,23,206,4870034,,,,,,,2023-01-17,1,,,,,ササエルフドウサン,0
1773,6180301036983,新規,0,2023-01-17,2023-01-17,株式会社ゲートキーパー,,株式会社,愛知県,西尾市,羽塚町稲荷山６番地３６,,23,213,4440316,,,,,,,2023-01-17,1,,,,,ゲートキーパー,0
1774,6180301037008,新規,0,2023-01-17,2023-01-17,株式会社Ｄｏｌｆ,,株式会社,愛知県,豊橋市,萱町６０番地（１００２）,,23,201,4400896,,,,,,,2023-01-17,1,,,,,ドルフ,0
1780,6180303005573,新規,0,2023-01-17,2023-01-17,合同会社キャツポウ,,合同会社,愛知県,豊田市,花園町脇ノ田７番地１０,,23,211,4730924,,,,,,,2023-01-17,1,,,,,キャツポウ,0
1783,6190003004180,新規,0,2023-01-17,2023-01-17,三重催眠研究センター合同会社,,合同会社,三重県,四日市市,山城町１１０７－２,,24,202,5128048,,,,,,,2023-01-17,1,,,,,ミエサイミンケンキュウセンター,0
1787,6200001040878,新規,0,2023-01-17,2023-01-17,株式会社ハイタッチ岐阜,,株式会社,岐阜県,岐阜市,日ノ出町４丁目１６番地,,21,201,5008876,,,,,,,2023-01-17,1,,,,,ハイタッチギフ,0
1798,6250001019934,新規,0,2023-01-17,2023-01-17,創真テクニックス株式会社,,株式会社,山口県,周南市,築港町１２番５号周南マリンビル１Ｆ南,,35,215,7450025,,,,,,,2023-01-17,1,,,,,ソウシンテクニックス,0
1804,6290001099824,新規,0,2023-01-17,2023-01-17,新源株式会社,,株式会社,福岡県,福岡市中央区,大手門１丁目８番２０－４０２号,,40,133,8100074,,,,,,,2023-01-17,1,,,,,シンゲン,0
1805,6290001100186,新規,0,2023-01-17,2023-01-17,株式会社アドミン総合サービス,,株式会社,福岡県,福岡市東区,香椎２丁目１４番１１号,,40,131,8130011,,,,,,,2023-01-17,1,,,,,アドミンソウゴウサービス,0
1824,6320001019522,新規,0,2023-01-17,2023-01-17,株式会社針不動産管理,,株式会社,大分県,大分市,生石１丁目５番１５号,,44,201,8700003,,,,,,,2023-01-17,1,,,,,シンフドウサンカンリ,0
1830,6330005010609,新規,0,2023-01-17,2023-01-17,社会福祉法人敬和会,,その他の設立登記法人,熊本県,山鹿市,山鹿１０８０番地３,,43,208,8610501,,,,,,,2023-01-17,1,,,,,ケイワカイ,0
1833,6360001031432,新規,0,2023-01-17,2023-01-17,和Ｆａｃｔｏｒｙ株式会社,,株式会社,沖縄県,浦添市,字経塚４１９番地,,47,208,9012111,,,,,,,2023-01-17,1,,,,,ナゴミファクトリー,0
1840,6400001016131,新規,0,2023-01-17,2023-01-17,株式会社けいわ,,株式会社,岩手県,盛岡市,長橋町３番４７号,,03,201,0200146,,,,,,,2023-01-17,1,,,,,ケイワ,0
1846,6430001088234,新規,0,2023-01-17,2023-01-17,株式会社ＭＹ’Ｓ,,株式会社,北海道,札幌市厚別区,厚別西一条４丁目１番１７号,,01,108,0040061,,,,,,,2023-01-17,1,,,,,マイズ,0
1867,7010001232064,新規,0,2023-01-17,2023-01-17,エムズ株式会社,,株式会社,東京都,千代田区,東神田１丁目６番４－４０１号,,13,101,1010031,,,,,,,2023-01-17,1,,,,,エムズ,0
1868,7010001232188,新規,0,2023-01-17,2023-01-17,株式会社アルベナ,,株式会社,東京都,千代田区,有楽町１丁目２番２号９Ｆ,,13,101,1000006,,,,,,,2023-01-17,1,,,,,アルベナ,0
1869,7010001232213,新規,0,2023-01-17,2023-01-17,株式会社ＧＯＹＯ‐ＤＡ,,株式会社,東京都,千代田区,内神田３丁目１２－４第一岸ビル５Ｆ,,13,101,1010047,,,,,,,2023-01-17,1,,,,,ゴヨーダ,0
1870,7010001232221,新規,0,2023-01-17,2023-01-17,株式会社シーフードジャンキー,,株式会社,東京都,中央区,日本橋富沢町１１番１９号ＳＯＨＯ３０－４０４号,,13,102,1030006,,,,,,,2023-01-17,1,,,,,シーフードジャンキー,0
1871,7010001232254,新規,0,2023-01-17,2023-01-17,ａｕリニューアブルエナジー企画株式会社,,株式会社,東京都,千代田区,飯田橋３丁目１０番１０号,,13,101,1020072,,,,,,,2023-01-17,1,,,,,エーユーリニューアブルエナジーキカク,0
1879,7010003039565,新規,0,2023-01-17,2023-01-17,ＡＹＩＭ合同会社,,合同会社,東京都,中央区,銀座１丁目２２番１１号銀座大竹ビジデンス２Ｆ,,13,102,1040061,,,,,,,2023-01-17,1,,,,,エーワイアイエム,0
1880,7010003039581,新規,0,2023-01-17,2023-01-17,Ｎａｂｅｊａｎ合同会社,,合同会社,東京都,文京区,本郷４丁目１０番６－５０７号,,13,105,1130033,,,,,,,2023-01-17,1,,,,,ナベジャン,0
1884,7010005036115,新規,0,2023-01-17,2023-01-17,表参道特定目的会社,,その他の設立登記法人,東京都,千代田区,丸の内１丁目８番２号鉄鋼ビルディング４階,,13,101,1000005,,,,,,,2023-01-17,1,,,,,オモテサンドウ,0
1885,7010005036123,新規,0,2023-01-17,2023-01-17,一般社団法人日本太陽光発電,,その他の設立登記法人,東京都,千代田区,丸の内３丁目１番１号東京共同会計事務所内,,13,101,1000005,,,,,,,2023-01-17,1,,,,,ニホンタイヨウコウハツデン,0
1895,7010401171812,新規,0,2023-01-17,2023-01-17,株式会社ＫＡＷＡＩＩ　ＪＡＰＡＮ,,株式会社,東京都,港区,麻布十番１丁目５番２５号麻布十番ハイツ７０２号,,13,103,1060045,,,,,,,2023-01-17,1,,,,,カワイイジャパン,0
1896,7010401171861,新規,0,2023-01-17,2023-01-17,株式会社古美術点石斎,,株式会社,東京都,港区,白金２丁目３番１９号白金アネックス,,13,103,1080072,,,,,,,2023-01-17,1,,,,,コビジュツテンセキサイ,0
1897,7010401171894,新規,0,2023-01-17,2023-01-17,ＬＳ‐ＳＨＩＰ第３８号株式会社,,株式会社,東京都,港区,六本木１丁目６番１号,,13,103,1060032,,,,,,,2023-01-17,1,,,,,エルエスシップダイサンジュウハチゴウ,0
1902,7010403029273,新規,0,2023-01-17,2023-01-17,ＴＡＮＯＳＨＩＫＵ合同会社,,合同会社,東京都,港区,浜松町２丁目２番１５号浜松町ダイヤビル２Ｆ,,13,103,1050013,,,,,,,2023-01-17,1,,,,,タノシク,0
1903,7010403029307,新規,0,2023-01-17,2023-01-17,合同会社ＫａＬｉｎ,,合同会社,東京都,港区,元麻布２丁目３番４３号,,13,103,1060046,,,,,,,2023-01-17,1,,,,,カリン,0
1912,7010701043728,新規,0,2023-01-17,2023-01-17,ＳＳＳ株式会社,,株式会社,東京都,品川区,西五反田４丁目９番２５号Ｐｒｅｍｉｅｒ不動前１０５,,13,109,1410031,,,,,,,2023-01-17,1,,,,,サンス,0
1916,7010905004419,新規,0,2023-01-17,2023-01-17,ｓａｋｕ‐ＲＡ司法書士法人,,その他の設立登記法人,東京都,世田谷区,北沢２丁目１１番１５号ミカン下北Ａ街区４階,,13,112,1550031,,,,,,,2023-01-17,1,,,,,サクラ,0
1923,7011001151857,新規,0,2023-01-17,2023-01-17,Ｓｔａｒｔ株式会社,,株式会社,東京都,渋谷区,代々木１丁目５３－１ＭＹＴＯＷＥＲ１５０６,,13,113,1510053,,,,,,,2023-01-17,1,,,,,スタート,0
1924,7011001151873,新規,0,2023-01-17,2023-01-17,株式会社ｍｏ’ｂｅｔｔｅｒ,,株式会社,東京都,渋谷区,富ヶ谷２丁目１８番１６号メゾンカンダ２階,,13,113,1510063,,,,,,,2023-01-17,1,,,,,モーベター,0
1925,7011001151948,新規,0,2023-01-17,2023-01-17,株式会社ＵＬＴＩＭＯ,,株式会社,東京都,目黒区,中目黒１丁目９番１２号１０４号室,,13,110,1530061,,,,,,,2023-01-17,1,,,,,ウルティモ,0
1929,7011003015969,新規,0,2023-01-17,2023-01-17,合同会社ＬＩＶＥ　ＡＣＴＩＶＥ,,合同会社,東京都,渋谷区,恵比寿西２丁目９－９クリスタルスクエア代官山３Ｂ,,13,113,1500021,,,,,,,2023-01-17,1,,,,,ライブアクティブ,0
1932,7011101101472,新規,0,2023-01-17,2023-01-17,株式会社スマートファイナンス,,株式会社,東京都,新宿区,大久保２丁目７番１号大久保フジビル９０２号室,,13,104,1690072,,,,,,,2023-01-17,1,,,,,スマートファイナンス,0
1933,7011101101514,新規,0,2023-01-17,2023-01-17,株式会社フォーティーワン,,株式会社,東京都,新宿区,四谷２丁目１４番４号ミツヤ四谷ビル８０１号,,13,104,1600004,,,,,,,2023-01-17,1,,,,,フォーティーワン,0
1934,7011101101522,新規,0,2023-01-17,2023-01-17,ＴＯＬＦＡ株式会社,,株式会社,東京都,新宿区,西新宿６丁目１０－１新宿オークシティ日土地西新宿ビル８Ｆ,,13,104,1600023,,,,,,,2023-01-17,1,,,,,トルファ,0
1936,7011103012602,新規,0,2023-01-17,2023-01-17,合同会社Ｌｉｎｏ　ｐｌｕｓ,,合同会社,東京都,新宿区,歌舞伎町２丁目１０番６号,,13,104,1600021,,,,,,,2023-01-17,1,,,,,リノプラス,0
1939,7011201024350,新規,0,2023-01-17,2023-01-17,申軒株式会社,,株式会社,東京都,中野区,野方１丁目４６－６,,13,114,1650027,,,,,,,2023-01-17,1,,,,,シンケン,0
1940,7011301028383,新規,0,2023-01-17,2023-01-17,株式会社穴,,株式会社,東京都,杉並区,高円寺北３丁目１４番１４号ＭｉＣａｓａ１０３,,13,115,1660002,,,,,,,2023-01-17,1,,,,,アナ,0
1941,7011301028391,新規,0,2023-01-17,2023-01-17,株式会社エヴォルロア,,株式会社,東京都,杉並区,上荻２丁目３７番７号,,13,115,1670043,,,,,,,2023-01-17,1,,,,,エヴォルロア,0
1943,7011303004622,新規,0,2023-01-17,2023-01-17,合同会社Ｓｕｎｓｅｔ,,合同会社,東京都,杉並区,下井草３丁目２８番地１５号パルコートモトハシ１０２,,13,115,1670022,,,,,,,2023-01-17,1,,,,,サンセット,0
1953,7011701025947,新規,0,2023-01-17,2023-01-17,株式会社野島工業,,株式会社,東京都,江戸川区,江戸川２丁目８番１５号,,13,123,1320013,,,,,,,2023-01-17,1,,,,,ノジマコウギョウ,0
1954,7011701025955,新規,0,2023-01-17,2023-01-17,田嶋電設株式会社,,株式会社,東京都,江戸川区,北葛西２丁目２０番１９－２０７号,,13,123,1340081,,,,,,,2023-01-17,1,,,,,タジマデンセツ,0
1959,7011801041794,新規,0,2023-01-17,2023-01-17,株式会社ＯＣＴＯ　ＰＬＵＳ,,株式会社,東京都,足立区,西伊興１丁目５番２４号,,13,121,1210824,,,,,,,2023-01-17,1,,,,,オクトプラス,0
1962,7012705002338,新規,0,2023-01-17,2023-01-17,一般社団法人オムケア,,その他の設立登記法人,東京都,西東京市,中町５丁目１８－１６,,13,229,2020013,,,,,,,2023-01-17,1,,,,,オムケア,0
1974,7021001077960,新規,0,2023-01-17,2023-01-17,ベストビーイング株式会社,,株式会社,神奈川県,厚木市,金田１１４１番地３,,14,212,2430807,,,,,,,2023-01-17,1,,,,,ベストビーイング,0
1975,7021001077969,新規,0,2023-01-17,2023-01-17,ｍ．ｙｕ．ｄｉｎｉｎｇ株式会社,,株式会社,神奈川県,秦野市,下落合７番地の１４,,14,211,2570026,,,,,,,2023-01-17,1,,,,,エムユーダイニング,0
1976,7021001077977,新規,0,2023-01-17,2023-01-17,株式会社おてつだい．ｃｏｍ,,株式会社,神奈川県,厚木市,下依知２丁目１５番１２号,,14,212,2430806,,,,,,,2023-01-17,1,,,,,オテツダイドットコム,0
1978,7021005012716,新規,0,2023-01-17,2023-01-17,クリオ強羅壱番館管理組合法人,,その他の設立登記法人,神奈川県,足柄下郡箱根町,強羅１３００番地６０１,,14,382,2500408,,,,,,,2023-01-17,1,,,,,クリオゴウライチバンカン,0
1982,7030001151997,新規,0,2023-01-17,2023-01-17,株式会社リズアセット,,株式会社,埼玉県,富士見市,大字水子２５５１番地２,,11,235,3540011,,,,,,,2023-01-17,1,,,,,リズアセット,0
1983,7030003020977,新規,0,2023-01-17,2023-01-17,合同会社ＳａｋＳ,,合同会社,埼玉県,川口市,戸塚南５丁目２３番２４号,,11,203,3330817,,,,,,,2023-01-17,1,,,,,サックス,0
1989,7040001126651,新規,0,2023-01-17,2023-01-17,山房築株式会社,,株式会社,千葉県,印西市,東の原２丁目１９番地５,,12,231,2701336,,,,,,,2023-01-17,1,,,,,サンボウチク,0
1990,7040001126676,新規,0,2023-01-17,2023-01-17,株式会社ひなた,,株式会社,千葉県,長生郡長生村,岩沼１３８２番地２０,,12,423,2994336,,,,,,,2023-01-17,1,,,,,ヒナタ,0
1991,7040001126684,新規,0,2023-01-17,2023-01-17,株式会社東都テクニカ,,株式会社,千葉県,松戸市,古ケ崎３丁目３３６０番地の１,,12,207,2710068,,,,,,,2023-01-17,1,,,,,トウトテクニカ,0
1992,7040003021644,新規,0,2023-01-17,2023-01-17,合同会社彩響,,合同会社,千葉県,柏市,泉町９番１２号,,12,217,2770022,,,,,,,2023-01-17,1,,,,,サイキョウ,0
1993,7040003021702,新規,0,2023-01-17,2023-01-17,ＮＥＸ　ＷＯＲＬＤ合同会社,,合同会社,千葉県,山武市,埴谷６６４番地１５８,,12,237,2891223,,,,,,,2023-01-17,1,,,,,ネックスワールド,0
1997,7050001052228,新規,0,2023-01-17,2023-01-17,株式会社クマガイ設備,,株式会社,茨城県,龍ケ崎市,若柴町２２４０番地９６５,,08,208,3010041,,,,,,,2023-01-17,1,,,,,クマガイセツビ,0
1998,7050001052269,新規,0,2023-01-17,2023-01-17,株式会社ＮＫＡ,,株式会社,茨城県,つくば市,天久保３丁目１２番地２,,08,220,3050005,,,,,,,2023-01-17,1,,,,,エヌケーエー,0
2010,7070001040024,新規,0,2023-01-17,2023-01-17,株式会社ＮＥＷ　ＭＥＴＡＢＯＬＩＳＭ,,株式会社,群馬県,館林市,本町４丁目１番３０号,,10,207,3740024,,,,,,,2023-01-17,1,,,,,ニューメタボリズム,0
2011,7070001040032,新規,0,2023-01-17,2023-01-17,株式会社グローバルジャパントレーディング,,株式会社,群馬県,館林市,西美園町７４３番地の９２ダイワレジデンスＩＩ－２０１,00129109,10,207,3740038,,,,,,,2023-01-17,1,,,,,グローバルジャパントレーディング,0
2012,7070003004786,新規,0,2023-01-17,2023-01-17,合同会社ホットドッグ,,合同会社,群馬県,藤岡市,上落合字向山９番地,,10,209,3750057,,,,,,,2023-01-17,1,,,,,ホットドッグ,0
2013,7070005010072,新規,0,2023-01-17,2023-01-17,大泉町土地利用特定目的会社,,その他の設立登記法人,群馬県,太田市,飯田町１５４７番地ＯＴＡスクエアビル７Ｆ,,10,205,3730851,,,,,,,2023-01-17,1,,,,,オオイズミマチトチリヨウ,0
2016,7080403004699,新規,0,2023-01-17,2023-01-17,合同会社橋詰テクノ,,合同会社,静岡県,浜松市南区,米津町１９０１－７,,22,134,4328056,,,,,,,2023-01-17,1,,,,,ハシヅメテクノ,0
2017,7080405007519,新規,0,2023-01-17,2023-01-17,税理士法人Ｃｏｍｐａｔｈｙ,,その他の設立登記法人,静岡県,浜松市中区,曳馬１丁目７番１３号加藤第一ビル２階,,22,131,4300901,,,,,,,2023-01-17,1,,,,,コンパシー,0
2030,7120001251573,新規,0,2023-01-17,2023-01-17,株式会社ＳＴＡＲＴ‐ＦＲＥＥ,,株式会社,大阪府,大阪市平野区,平野東２丁目１番２２号,,27,126,5470043,,,,,,,2023-01-17,1,,,,,スタートフリー,0
2031,7120001251739,新規,0,2023-01-17,2023-01-17,株式会社ピアモント,,株式会社,大阪府,大阪市北区,太融寺町７－１１フジノビル４階,,27,127,5300051,,,,,,,2023-01-17,1,,,,,ピアモント,0
2032,7120001251747,新規,0,2023-01-17,2023-01-17,Ｅｌｅｍｅｎｔ株式会社,,株式会社,大阪府,大阪市中央区,淡路町３丁目５－１３創建御堂筋ビル２階,,27,128,5410047,,,,,,,2023-01-17,1,,,,,エレメント,0
2033,7120001251755,新規,0,2023-01-17,2023-01-17,株式会社ａｏｍａｈａｌｏ,,株式会社,大阪府,大阪市西淀川区,大和田１丁目３番５１号,,27,113,5550032,,,,,,,2023-01-17,1,,,,,アオマハロ,0
2034,7120001251763,新規,0,2023-01-17,2023-01-17,シュガーアートベーカリー株式会社,,株式会社,大阪府,大阪市西区,南堀江３丁目９番２１－４０３号,,27,106,5500015,,,,,,,2023-01-17,1,,,,,シュガーアートベーカリー,0
2035,7120001251788,新規,0,2023-01-17,2023-01-17,株式会社ＹＵＭＥ　ＦＩＴＮＥＳＳ,,株式会社,大阪府,大阪市北区,西天満４丁目１番１５号西天満内藤ビル１００１号室,,27,127,5300047,,,,,,,2023-01-17,1,,,,,ユメフィットネス,0
2036,7120001251813,新規,0,2023-01-17,2023-01-17,大樹株式会社,,株式会社,大阪府,大阪市東住吉区,桑津１丁目１４番１４号２０１室,,27,121,5460041,,,,,,,2023-01-17,1,,,,,ダイキ,0
2038,7120003023244,新規,0,2023-01-17,2023-01-17,Ｃｒｏｗｎ合同会社,,合同会社,大阪府,大阪市浪速区,元町１丁目４－２２－６１０号室,,27,111,5560016,,,,,,,2023-01-17,1,,,,,クラウン,0
2041,7120901046998,新規,0,2023-01-17,2023-01-17,株式会社エートレジャー,,株式会社,大阪府,高槻市,真上町１丁目１３番１５号,,27,207,5691121,,,,,,,2023-01-17,1,,,,,エートレジャー,0
2042,7120901047014,新規,0,2023-01-17,2023-01-17,株式会社Ｓ‐ＧＲＩＴ,,株式会社,大阪府,箕面市,半町３丁目１６番１８号,,27,220,5620044,,,,,,,2023-01-17,1,,,,,エスグリット,0
2044,7122001036590,新規,0,2023-01-17,2023-01-17,株式会社ＯＮ１ｄ,,株式会社,大阪府,東大阪市,昭和町３－３菊屋ビル４Ｆ,,27,227,5798046,,,,,,,2023-01-17,1,,,,,オンワンド,0
2053,7130001073488,新規,0,2023-01-17,2023-01-17,株式会社ＫＩＹＡＵ,,株式会社,京都府,京都市西京区,川島莚田町９－３ＳＨＡＲＥＤＥＰＡＲＴＭＥＮＴ・Ｒ－１０,,26,111,6158105,,,,,,,2023-01-17,1,,,,,キヤウ,0
2054,7130001073505,新規,0,2023-01-17,2023-01-17,株式会社ｚｕａｎ,,株式会社,京都府,京都市中京区,姉小路通東洞院西入車屋町２７１,,26,104,6048185,,,,,,,2023-01-17,1,,,,,ズアン,0
2067,7130003008450,新規,0,2023-01-17,2023-01-17,産直ドリーム合同会社,,合同会社,京都府,京都市右京区,西院西三蔵町２,,26,108,6150027,,,,,,,2023-01-17,1,,,,,サンチョクドリーム,0
2075,7140001128745,新規,0,2023-01-17,2023-01-17,株式会社Ｂ‐Ｌａｂ,,株式会社,兵庫県,神戸市東灘区,岡本８丁目９番１号甲南大学岡本キャンパス１２号館,,28,101,6580072,,,,,,,2023-01-17,1,,,,,ビーラボ,0
2076,7140001128761,新規,0,2023-01-17,2023-01-17,株式会社エスジェイパートナーズ,,株式会社,兵庫県,芦屋市,東芦屋町８番５号,00129101,28,206,6590095,,,,,,,2023-01-17,1,,,,,エスジェイパートナーズ,0
2077,7140001128778,新規,0,2023-01-17,2023-01-17,株式会社ハーバーワークス,,株式会社,兵庫県,伊丹市,御願塚３丁目１０番３４号,,28,207,6640855,,,,,,,2023-01-17,1,,,,,ハーバーワークス,0
2078,7140001128786,新規,0,2023-01-17,2023-01-17,株式会社伸栄,,株式会社,兵庫県,尼崎市,立花町３丁目４番３２号Ａ号地,,28,202,6610025,,,,,,,2023-01-17,1,,,,,シンエイ,0
2082,7140005026458,新規,0,2023-01-17,2023-01-17,医療法人ぼちぼち会,,その他の設立登記法人,兵庫県,神戸市垂水区,学が丘７丁目１－３０,,28,108,6550004,,,,,,,2023-01-17,1,,,,,ボチボチカイ,0
2091,7180001154597,新規,0,2023-01-17,2023-01-17,株式会社ｓｈｉｎｚａｔｏ,,株式会社,愛知県,名古屋市中区,栄１丁目２４番１１号,,23,106,4600008,,,,,,,2023-01-17,1,,,,,シンザト,0
2092,7180001154614,新規,0,2023-01-17,2023-01-17,株式会社ＹＣ,,株式会社,愛知県,名古屋市中村区,宿跡町１丁目４７番地,,23,105,4530067,,,,,,,2023-01-17,1,,,,,ワイシー,0
2095,7180003024732,新規,0,2023-01-17,2023-01-17,合同会社ピンクペッパー,,合同会社,愛知県,名古屋市中村区,名駅３丁目４番１０号アルティメイト名駅１ｓｔ２階,,23,105,4500002,,,,,,,2023-01-17,1,,,,,ピンクペッパー,0
2104,7220001025232,新規,0,2023-01-17,2023-01-17,株式会社テラ,,株式会社,石川県,加賀市,作見町ニ２１番地３,,17,206,9220423,,,,,,,2023-01-17,1,,,,,テラ,0
2110,7240003005973,新規,0,2023-01-17,2023-01-17,合同会社エースフィールド,,合同会社,広島県,東広島市,西条下見７丁目３番４５－１号,,34,212,7390047,,,,,,,2023-01-17,1,,,,,エースフィールド,0
2112,7250003003209,新規,0,2023-01-17,2023-01-17,ＰＨＮＯＭ　ＰＥＮＨ　ＭＡＲＴ合同会社,,合同会社,山口県,山口市,江良２丁目１９番８号,,35,203,7530017,,,,,,,2023-01-17,1,,,,,プノンペンマート,0
2114,7250005008791,新規,0,2023-01-17,2023-01-17,一般社団法人Ｍｉｎａｔｏ　ｄｅフォーラム,,その他の設立登記法人,山口県,下関市,三河町１５番２２号,,35,201,7510821,,,,,,,2023-01-17,1,,,,,ミナトデフォーラム,0
2121,7290001100243,新規,0,2023-01-17,2023-01-17,株式会社ルフランハウス,,株式会社,福岡県,福岡市早良区,原３丁目１５番２６－５０６号,,40,137,8140022,,,,,,,2023-01-17,1,,,,,ルフランハウス,0
2122,7290001100251,新規,0,2023-01-17,2023-01-17,株式会社ＦＭ２３,,株式会社,福岡県,糟屋郡志免町,別府北２丁目２番１－３０６号,,40,343,8112233,,,,,,,2023-01-17,1,,,,,エフエムツースリー,0
2137,7320003003993,新規,0,2023-01-17,2023-01-17,ＴＯＯＡ　ＤＲＥＡＭ合同会社,,合同会社,大分県,大分市,大字下判田５８０番地の３２５,,44,201,8701112,,,,,,,2023-01-17,1,,,,,トーアドリーム,0
2153,7360003012636,新規,0,2023-01-17,2023-01-17,コア・コーポレーション合同会社,,合同会社,沖縄県,那覇市,泊１丁目３番２号沖縄ゼネラルグループビル３０８号,,47,201,9000012,,,,,,,2023-01-17,1,,,,,コアコーポレーション,0
2156,7370001049497,新規,0,2023-01-17,2023-01-17,アグリとみた株式会社,,株式会社,宮城県,遠田郡涌谷町,上郡字玉崎山４８番地２,,04,501,9870171,,,,,,,2023-01-17,1,,,,,アグリトミタ,0
2165,7410005006498,新規,0,2023-01-17,2023-01-17,医療法人よこて矯正歯科,,その他の設立登記法人,秋田県,横手市,横手町字五ノ口３３番地６,,05,203,0130061,,,,,,,2023-01-17,1,,,,,ヨコテキョウセイシカ,0
2173,7430001088233,新規,0,2023-01-17,2023-01-17,株式会社ＣＬＡＰ,,株式会社,北海道,札幌市白石区,中央二条５丁目１５番２０号,,01,104,0030012,,,,,,,2023-01-17,1,,,,,クラップ,0
2176,7430003014658,新規,0,2023-01-17,2023-01-17,合同会社ＬＩＦＥ,,合同会社,北海道,札幌市北区,西茨戸四条２丁目２番１１号,,01,102,0028034,,,,,,,2023-01-17,1,,,,,ライフ,0
2181,7440003001507,新規,0,2023-01-17,2023-01-17,合同会社ソーシャルサポート,,合同会社,北海道,二海郡八雲町,立岩６０番地１３,,01,346,0493123,,,,,,,2023-01-17,1,,,,,ソーシャルサポート,0
2186,7700150110711,新規,0,2023-01-17,2022-07-05,上伊那農政対策委員会,,その他,長野県,伊那市,狐島４２９１,,20,209,3960014,,,,,,,2022-07-05,1,,,,,カミイナノウセイタイサクイインカイ,0
2193,8010001232047,新規,0,2023-01-17,2023-01-17,アミタ株式会社,,株式会社,東京都,千代田区,神田鍛冶町３丁目６番地７,,13,101,1010045,,,,,,,2023-01-17,1,,,,,アミタ,0
2194,8010001232187,新規,0,2023-01-17,2023-01-17,株式会社レインボーペット,,株式会社,東京都,千代田区,麹町１丁目４番地４－２階,,13,101,1020083,,,,,,,2023-01-17,1,,,,,レインボーペット,0
2195,8010001232195,新規,0,2023-01-17,2023-01-17,株式会社ＦｉｌＦＡＲＯ,,株式会社,東京都,中央区,銀座７丁目１３番６号サガミビル２階アントレサロン銀座,,13,102,1040061,,,,,,,2023-01-17,1,,,,,フィルファーロ,0
2196,8010001232220,新規,0,2023-01-17,2023-01-17,ＶｉＰｒｏＪａｐａｎ株式会社,,株式会社,東京都,中央区,銀座７丁目１３番２０号銀座ＴＨビル９階,,13,102,1040061,,,,,,,2023-01-17,1,,,,,ビープロジャパン,0
2197,8010001232253,新規,0,2023-01-17,2023-01-17,株式会社ＡＦＨＹ,,株式会社,東京都,中央区,銀座１丁目１２番４号Ｎ＆Ｅ・ＢＬＤ．６Ｆ,,13,102,1040061,,,,,,,2023-01-17,1,,,,,アフィー,0
2198,8010001232294,新規,0,2023-01-17,2023-01-17,クラウドワークス株式会社,,株式会社,東京都,中央区,新川１丁目３番２１号ＢＩＺＳＭＡＲＴ茅場町,,13,102,1040033,,,,,,,2023-01-17,1,,,,,クラウドワークス,0
2201,8010003039572,新規,0,2023-01-17,2023-01-17,合同会社ｈｅｓｍａ,,合同会社,東京都,千代田区,平河町１丁目６－１５・ＵＳビル８Ｆ,,13,101,1020093,,,,,,,2023-01-17,1,,,,,ヘスマ,0
2202,8010003039597,新規,0,2023-01-17,2023-01-17,合同会社オルタナ２２,,合同会社,東京都,千代田区,丸の内３丁目１番１号東京共同会計事務所内,,13,101,1000005,,,,,,,2023-01-17,1,,,,,オルタナトゥウェンティツー,0
2203,8010003039614,新規,0,2023-01-17,2023-01-17,合同会社ミナシンカ,,合同会社,東京都,文京区,湯島３丁目１９番７－３０１号,,13,105,1130034,,,,,,,2023-01-17,1,,,,,ミナシンカ,0
2210,8010401171828,新規,0,2023-01-17,2023-01-17,ＭＣＰ１２株式会社,,株式会社,東京都,港区,元赤坂１丁目１番８号株式会社赤坂国際会計内,,13,103,1070051,,,,,,,2023-01-17,1,,,,,エムシーピーワンツー,0
2211,8010401171893,新規,0,2023-01-17,2023-01-17,ＬＳ‐ＳＨＩＰ第３７号株式会社,,株式会社,東京都,港区,六本木１丁目６番１号,,13,103,1060032,,,,,,,2023-01-17,1,,,,,エルエスシップダイサンジュウナナゴウ,0
2212,8010401171927,新規,0,2023-01-17,2023-01-17,株式会社Ｒａｙｓ,,株式会社,東京都,港区,虎ノ門４丁目１番３４－１１０２号,,13,103,1050001,,,,,,,2023-01-17,1,,,,,レイズ,0
2213,8010401171943,新規,0,2023-01-17,2023-01-17,Ｓｋｙｂｏｒｎ　Ｒｅｎｅｗａｂｌｅｓ　Ｊａｐａｎ株式会社,,株式会社,東京都,港区,北青山２丁目１２番１３号青山ＫＹビル５階,,13,103,1070061,,,,,,,2023-01-17,1,,,,,スカイボーンリニューアブルジャパン,0
2216,8010403029289,新規,0,2023-01-17,2023-01-17,合同会社毛無山自然エネルギーパーク,,合同会社,東京都,港区,浜松町１丁目１８番１３号,,13,103,1050013,,,,,,,2023-01-17,1,,,,,ケナシヤマシゼンエネルギーパーク,0
2218,8010405021698,新規,0,2023-01-17,2023-01-17,弁理士法人西浦特許事務所,,その他の設立登記法人,東京都,港区,虎ノ門３丁目８番８号ＮＴＴ虎ノ門ビル８階,,13,103,1050001,,,,,,,2023-01-17,1,,,,,ニシウラトッキヨジムショ,0
2221,8010601062447,新規,0,2023-01-17,2023-01-17,株式会社チームテック,,株式会社,東京都,江東区,亀戸７丁目２８番１０号,,13,108,1360071,,,,,,,2023-01-17,1,,,,,チームテック,0
2226,8010801033594,新規,0,2023-01-17,2023-01-17,株式会社ｕｐｎｅｘｔ,,株式会社,東京都,大田区,久が原１丁目２１番１３号,,13,111,1460085,,,,,,,2023-01-17,1,,,,,アップネクスト,0
2233,8011001152029,新規,0,2023-01-17,2023-01-17,ＧＯＬＤＥＮ　ＥＧＧ　Ｖｅｎｔｕｒｅｓ株式会社,,株式会社,東京都,渋谷区,神南１丁目１８番２号フレーム神南坂４Ｆ,,13,113,1500041,,,,,,,2023-01-17,1,,,,,ゴールデンエッグベンチャーズ,0
2234,8011003016082,新規,0,2023-01-17,2023-01-17,ＬＯＨＡ合同会社,,合同会社,東京都,渋谷区,道玄坂１丁目１０番８号渋谷道玄坂東急ビル２Ｆ－Ｃ,,13,113,1500043,,,,,,,2023-01-17,1,,,,,ロハ,0
2235,8011003016090,新規,0,2023-01-17,2023-01-17,ハナモンワークス合同会社,,合同会社,東京都,渋谷区,代々木５丁目４７－６,,13,113,1510053,,,,,,,2023-01-17,1,,,,,ハナモンワークス,0
2236,8011005009910,新規,0,2023-01-17,2023-01-17,一般社団法人さとみ西新宿不動産,,その他の設立登記法人,東京都,渋谷区,松濤１丁目１３番１８号,,13,113,1500046,,,,,,,2023-01-17,1,,,,,サトミニシシンジュクフドウサン,0
2238,8011101101496,新規,0,2023-01-17,2023-01-17,ＴＯＧＯ株式会社,,株式会社,東京都,新宿区,西新宿３丁目３番１３号西新宿水間ビル２Ｆ,,13,104,1600023,,,,,,,2023-01-17,1,,,,,トーゴ,0
2240,8011103012551,新規,0,2023-01-17,2023-01-17,Ｃｏｎｃｏｒｄ　Ａｒｃｈｉｔｅｃｔｕｒａｌ　ａｎｄ　Ｍａｃｈｉｎｅｒｙ合同会社,,合同会社,東京都,新宿区,新宿２丁目５番３号ＡＭビル７階,,13,104,1600022,,,,,,,2023-01-17,1,,,,,コンコードアーキテクチュラルアンドマシナリー,0
2241,8011103012592,新規,0,2023-01-17,2023-01-17,合同会社ポータルエアー,,合同会社,東京都,新宿区,西新宿７丁目２２番４号ＪＬＢグランエクリュＩＩ２０３号室,00129094,13,104,1600023,,,,,,,2023-01-17,1,,,,,ポータルエアー,0
2242,8011103012601,新規,0,2023-01-17,2023-01-17,合同会社Ｇ．ｔｅｒａｋｏ,,合同会社,東京都,新宿区,西早稲田２丁目１７番１２－１０３号,,13,104,1690051,,,,,,,2023-01-17,1,,,,,ジーテラコ,0
2243,8011201024333,新規,0,2023-01-17,2023-01-17,株式会社ＯｎｅＴｈｒｅｅ,,株式会社,東京都,中野区,上高田３丁目３３番２号,,13,114,1640002,,,,,,,2023-01-17,1,,,,,,0
2246,8011301028390,新規,0,2023-01-17,2023-01-17,株式会社ＴＦＲＹＬ,,株式会社,東京都,杉並区,堀ノ内３丁目１番２４－４０５号,,13,115,1660013,,,,,,,2023-01-17,1,,,,,トフライル,0
2248,8011401024793,新規,0,2023-01-17,2023-01-17,株式会社Ｒａｘｉａ,,株式会社,東京都,板橋区,南町６１番５号ハイムクライスＩＩ３０１,00129100,13,119,1730027,,,,,,,2023-01-17,1,,,,,ラクシア,0
2249,8011401024835,新規,0,2023-01-17,2023-01-17,漢唐美術商事株式会社,,株式会社,東京都,板橋区,坂下２丁目２５番６－３０８号,,13,119,1740043,,,,,,,2023-01-17,1,,,,,カントウビジュツショウジ,0
2251,8011703003363,新規,0,2023-01-17,2023-01-17,合同会社ＳＵＫＨＡ,,合同会社,東京都,江戸川区,西葛西８丁目４番１３－１０１７号,,13,123,1340088,,,,,,,2023-01-17,1,,,,,スカー,0
2253,8011801041802,新規,0,2023-01-17,2023-01-17,株式会社河俣工務店,,株式会社,東京都,足立区,花畑１丁目２５番２１号,,13,121,1210061,,,,,,,2023-01-17,1,,,,,カワマタコウムテン,0
2255,8012403005781,新規,0,2023-01-17,2023-01-17,合同会社ｓｔｕｄｉｏ　ＴＲＵＥ,,合同会社,東京都,狛江市,元和泉１丁目１８番６号,,13,219,2010013,,,,,,,2023-01-17,1,,,,,スタジオトゥルー,0
2268,8020001149835,新規,0,2023-01-17,2023-01-17,株式会社Ｄｅｓｔｉｎｏ,,株式会社,神奈川県,横浜市港南区,日野南２丁目２０－１４－１０１,,14,111,2340055,,,,,,,2023-01-17,1,,,,,ディスティーノ,0
2272,8020003023096,新規,0,2023-01-17,2023-01-17,レイドバックプラス合同会社,,合同会社,神奈川県,横浜市都筑区,東山田３丁目２－１８レノス港北４０１,,14,118,2240023,,,,,,,2023-01-17,1,,,,,レイドバックプラス,0
2273,8020003023121,新規,0,2023-01-17,2023-01-17,ＭＲＺ合同会社,,合同会社,神奈川県,川崎市麻生区,千代ケ丘６丁目８－２６,,14,137,2150005,,,,,,,2023-01-17,1,,,,,エムアールゼット,0
2274,8020003023138,新規,0,2023-01-17,2023-01-17,合同会社クローネ,,合同会社,神奈川県,横浜市中区,長者町５丁目７１番地１コスモＡｏｉ伊勢佐木長者町６０２,,14,104,2310033,,,,,,,2023-01-17,1,,,,,クローネ,0
2275,8021001077951,新規,0,2023-01-17,2023-01-17,株式会社原工業,,株式会社,神奈川県,綾瀬市,寺尾西３丁目７番１３－５号,,14,218,2521136,,,,,,,2023-01-17,1,,,,,ハラコウギョウ,0
2276,8021001077968,新規,0,2023-01-17,2023-01-17,Ｒｅａｌｉｚｅ株式会社,,株式会社,神奈川県,平塚市,横内３７９０番地,,14,203,2540002,,,,,,,2023-01-17,1,,,,,リアライズ,0
2277,8021001077976,新規,0,2023-01-17,2023-01-17,ナイスパートナー株式会社,,株式会社,神奈川県,相模原市緑区,鳥屋１８７８番地１,,14,151,2520155,,,,,,,2023-01-17,1,,,,,ナイスパートナー,0
2288,8030001151880,新規,0,2023-01-17,2023-01-17,株式会社ＢｒｅｅｄＣｌｕｂ,,株式会社,埼玉県,戸田市,大字新曽１１３８番地,,11,224,3350021,,,,,,,2023-01-17,1,,,,,ブリードクラブ,0
2289,8030001151988,新規,0,2023-01-17,2023-01-17,株式会社ナラン,,株式会社,埼玉県,草加市,谷塚１丁目６番３７－２０２号,,11,221,3400028,,,,,,,2023-01-17,1,,,,,ナラン,0
2293,8030005021114,新規,0,2023-01-17,2023-01-17,一般社団法人ＩＧＢＯ　ＥＬＩＴＥ　ＣＬＵＢ　ＯＦ　ＪＡＰＡＮ,,その他の設立登記法人,埼玉県,川口市,南鳩ヶ谷８丁目１０番９号トーカイハイツ３０１号,,11,203,3340013,,,,,,,2023-01-17,1,,,,,イボエリートクラブオブジャパン,0
2297,8040001126675,新規,0,2023-01-17,2023-01-17,株式会社サクラ咲ク,,株式会社,千葉県,船橋市,行田１丁目４８番７号ドエル・ユー２０１,,12,204,2730044,,,,,,,2023-01-17,1,,,,,サクラサク,0
2298,8040001126683,新規,0,2023-01-17,2023-01-17,株式会社一心,,株式会社,千葉県,船橋市,金杉町８８３番地１,,12,204,2730854,,,,,,,2023-01-17,1,,,,,イッシン,0
2301,8040003021684,新規,0,2023-01-17,2023-01-17,リライズ合同会社,,合同会社,千葉県,君津市,君津台２丁目２番４号,,12,225,2991143,,,,,,,2023-01-17,1,,,,,リライズ,0
2302,8040003021701,新規,0,2023-01-17,2023-01-17,日本アセットパートナーズ合同会社,,合同会社,千葉県,市川市,田尻３丁目６番５号８０４,,12,203,2720014,,,,,,,2023-01-17,1,,,,,ニホンアセットパートナーズ,0
2303,8050001052268,新規,0,2023-01-17,2023-01-17,株式会社たまお,,株式会社,茨城県,つくばみらい市,小絹２３７番地１サン・クラールＢ－１０４,,08,235,3002445,,,,,,,2023-01-17,1,,,,,タマオ,0
2305,8050003007154,新規,0,2023-01-17,2023-01-17,ＶＩＪＩＴＨＡ　ＩＮＴＥＲＮＡＴＩＯＮＡＬ合同会社,,合同会社,茨城県,下妻市,大字長塚字藤ヶ前８６２番,,08,210,3040000,,,,,,,2023-01-17,1,,,,,ウィジッテインターナショナル,0
2313,8070001039981,新規,0,2023-01-17,2023-01-17,株式会社ＬＵＡＮＡ,,株式会社,群馬県,桐生市,広沢町２丁目３１１０番地の５,,10,203,3760013,,,,,,,2023-01-17,1,,,,,ルアナ,0
2314,8070001040023,新規,0,2023-01-17,2023-01-17,株式会社グリーズ,,株式会社,群馬県,高崎市,上中居町１８番地９－１,,10,202,3700851,,,,,,,2023-01-17,1,,,,,グリーズ,0
2315,8070001040031,新規,0,2023-01-17,2023-01-17,ＨＳ　ＴＲＡＤＩＮＧ株式会社,,株式会社,群馬県,伊勢崎市,宮前町１３２番地エムアイハイツ伊勢崎１０５,,10,204,3720026,,,,,,,2023-01-17,1,,,,,エイチエストレーディング,0
2318,8080001025411,新規,0,2023-01-17,2023-01-17,株式会社Ａ９１,,株式会社,静岡県,静岡市駿河区,中島８３３番地の４,,22,102,4228046,,,,,,,2023-01-17,1,,,,,エーキュウイチ,0
2323,8090003002226,新規,0,2023-01-17,2023-01-17,合同会社ＬＩＮＫＳ,,合同会社,山梨県,甲府市,富竹３丁目２－１３,,19,201,4000049,,,,,,,2023-01-17,1,,,,,リンクス,0
2332,8120001251688,新規,0,2023-01-17,2023-01-17,Ｎｅｘｔ　Ｖｅｒｔｅｘ株式会社,,株式会社,大阪府,大阪市北区,梅田１丁目２番２号大阪駅前第２ビル１２－１２,,27,127,5300001,,,,,,,2023-01-17,1,,,,,ネクストバーテックス,0
2333,8120001251746,新規,0,2023-01-17,2023-01-17,日本宝城株式会社,,株式会社,大阪府,大阪市東住吉区,鷹合４丁目２１番１６号３Ｆ－Ａ,,27,121,5460014,,,,,,,2023-01-17,1,,,,,ニホンホウジョウ,0
2334,8120001251754,新規,0,2023-01-17,2023-01-17,株式会社アストリンク,,株式会社,大阪府,寝屋川市,田井町４４番５－１号,,27,215,5720021,,,,,,,2023-01-17,1,,,,,アストリンク,0
2335,8120001251795,新規,0,2023-01-17,2023-01-17,株式会社ＩＴＯパートナーズ,,株式会社,大阪府,大阪市北区,東天満２丁目２番１７号東天満パークビル８階,,27,127,5300044,,,,,,,2023-01-17,1,,,,,アイティーオーパートナーズ,0
2336,8120001251804,新規,0,2023-01-17,2023-01-17,株式会社ベストケア寿,,株式会社,大阪府,大阪市旭区,生江１丁目１番１２号,,27,117,5350004,,,,,,,2023-01-17,1,,,,,ベストケアコトブキ,0
2337,8120001251812,新規,0,2023-01-17,2023-01-17,大有株式会社,,株式会社,大阪府,大阪市港区,池島３丁目１０－１１船田マンション５０２号室,,27,107,5520015,,,,,,,2023-01-17,1,,,,,ダイユウ,0
2347,8120101066813,新規,0,2023-01-17,2023-01-17,株式会社暴れ狸ＨＯＭＥＳ,,株式会社,大阪府,和泉市,三林町３９－３,,27,219,5941112,,,,,,,2023-01-17,1,,,,,アバレダヌキホームズ,0
2348,8120101066846,新規,0,2023-01-17,2023-01-17,ＴＯＰＺＯＮＥ　ＥＮＧＬＩＳＨ　ＡＣＡＤＥＭＹ株式会社,,株式会社,大阪府,河内長野市,高向９９９番地の１,,27,216,5860036,,,,,,,2023-01-17,1,,,,,トップゾーンイングリッシュアカデミー,0
2366,8130001073487,新規,0,2023-01-17,2023-01-17,ＪＴＭ株式会社,,株式会社,京都府,京都市西京区,大枝西新林町６丁目１３番地１３,,26,111,6101141,,,,,,,2023-01-17,1,,,,,ジェーティーエム,0
2378,8140001128752,新規,0,2023-01-17,2023-01-17,Ｇｎｏｍｅ機械貿易株式会社,,株式会社,兵庫県,神戸市長田区,神楽町２丁目２番２８号,,28,106,6530836,,,,,,,2023-01-17,1,,,,,ノームキカイボウエキ,0
2379,8140001128769,新規,0,2023-01-17,2023-01-17,株式会社クレール,,株式会社,兵庫県,芦屋市,六麓荘町６番１６号,,28,206,6590011,,,,,,,2023-01-17,1,,,,,クレール,0
2380,8140001128785,新規,0,2023-01-17,2023-01-17,株式会社ＴＳＬ,,株式会社,兵庫県,伊丹市,森本５丁目８８番地１,,28,207,6640842,,,,,,,2023-01-17,1,,,,,ティーエスエル,0
2385,8140003018596,新規,0,2023-01-17,2023-01-17,ＨＩＹＯＳＨＩ合同会社,,合同会社,兵庫県,尼崎市,武庫の里２丁目３番２号,,28,202,6610041,,,,,,,2023-01-17,1,,,,,ヒヨシ,0
2386,8150003002863,新規,0,2023-01-17,2023-01-17,Ｃｒｏｓｓ　Ｒｉｖｅｒ合同会社,,合同会社,奈良県,奈良市,中登美ヶ丘６丁目２０番５０号,,29,201,6310003,,,,,,,2023-01-17,1,,,,,クロスリバー,0
2390,8170001017440,新規,0,2023-01-17,2023-01-17,株式会社悠久,,株式会社,和歌山県,東牟婁郡那智勝浦町,大字井鹿２３９番地,,30,421,6495133,,,,,,,2023-01-17,1,,,,,ユウキュウ,0
2398,8180001154605,新規,0,2023-01-17,2023-01-17,株式会社月,,株式会社,愛知県,北名古屋市,鹿田西赤土１４番地５,,23,234,4810004,,,,,,,2023-01-17,1,,,,,ルナ,0
2403,8180003024731,新規,0,2023-01-17,2023-01-17,合同会社ハコビット,,合同会社,愛知県,豊明市,三崎町ゆたか台３５番地７,,23,229,4701127,,,,,,,2023-01-17,1,,,,,ハコビット,0
2411,8180301036965,新規,0,2023-01-17,2023-01-17,日本国際産業株式会社,,株式会社,愛知県,碧南市,二本木町１丁目５番地１,,23,209,4470029,,,,,,,2023-01-17,1,,,,,,0
2412,8180301036998,新規,0,2023-01-17,2023-01-17,レントマガジン株式会社,,株式会社,愛知県,知立市,八ツ田町１丁目８番地３ボニートロッサｃａｓａ１Ｆ,,23,225,4720012,,,,,,,2023-01-17,1,,,,,レントマガジン,0
2413,8180301037006,新規,0,2023-01-17,2023-01-17,株式会社あまてらす,,株式会社,愛知県,豊橋市,西幸町字古並１８番地,,23,201,4418113,,,,,,,2023-01-17,1,,,,,アマテラス,0
2414,8180301037014,新規,0,2023-01-17,2023-01-17,愛和リビンズ株式会社,,株式会社,愛知県,西尾市,米津町久手５１番地１,,23,213,4450802,,,,,,,2023-01-17,1,,,,,アイワリビンズ,0
2417,8180303005571,新規,0,2023-01-17,2023-01-17,合同会社ＡＸｉＳ,,合同会社,愛知県,岡崎市,法性寺町字郷前２番地１４,,23,202,4440206,,,,,,,2023-01-17,1,,,,,アクシス,0
2420,8200001040876,新規,0,2023-01-17,2023-01-17,株式会社大希建工,,株式会社,岐阜県,山県市,西深瀬７３７番地,,21,215,5012112,,,,,,,2023-01-17,1,,,,,タイキケンコウ,0
2424,8210003001603,新規,0,2023-01-17,2023-01-17,ＦｏｒＰａｓｓ合同会社,,合同会社,福井県,福井市,福２丁目９１１番地,,18,201,9188027,,,,,,,2023-01-17,1,,,,,フォーパス,0
2445,8290003013418,新規,0,2023-01-17,2023-01-17,合同会社アカムチ,,合同会社,福岡県,福岡市博多区,西春町３丁目７番１３号,,40,132,8120873,,,,,,,2023-01-17,1,,,,,アカムチ,0
2446,8290003013426,新規,0,2023-01-17,2023-01-17,合同会社ライフ,,合同会社,福岡県,福岡市博多区,銀天町３丁目６－２７－９０１,,40,132,8120879,,,,,,,2023-01-17,1,,,,,ライフ,0
2447,8290003013434,新規,0,2023-01-17,2023-01-17,合同会社博福社,,合同会社,福岡県,福岡市博多区,博多駅前４丁目１４－２０－７０６,,40,132,8120011,,,,,,,2023-01-17,1,,,,,ハクフクシャ,0
2453,8320001019520,新規,0,2023-01-17,2023-01-17,株式会社阿部エンタープライズ,,株式会社,大分県,大分市,明野西２丁目１２番６号,,44,201,8700164,,,,,,,2023-01-17,1,,,,,アベエンタープライズ,0
2454,8320003003992,新規,0,2023-01-17,2023-01-17,合同会社プラス大分,,合同会社,大分県,別府市,楠町７番２７号サンレスコ別府秋葉１００１号,,44,202,8740943,,,,,,,2023-01-17,1,,,,,プラスオオイタ,0
2455,8330001030492,新規,0,2023-01-17,2023-01-17,株式会社新日本クレスト,,株式会社,熊本県,菊池郡大津町,大字杉水７２３番地５,,43,403,8691236,,,,,,,2023-01-17,1,,,,,シンニホンクレスト,0
2462,8340003004023,新規,0,2023-01-17,2023-01-17,マッケンローアンドカンパニー合同会社,,合同会社,鹿児島県,鹿屋市,北田町１１番１２号,,46,203,8930007,,,,,,,2023-01-17,1,,,,,マッケンローアンドカンパニー,0
2472,8380005012664,新規,0,2023-01-17,2023-01-17,あさか税理士法人,,その他の設立登記法人,福島県,郡山市,富田町字五輪下８番地５,,07,203,9638041,,,,,,,2023-01-17,1,,,,,アサカ,0
2488,8480001011981,新規,0,2023-01-17,2023-01-17,株式会社常笑浪漫,,株式会社,徳島県,徳島市,南矢三町１丁目５番２５号,,36,201,7700005,,,,,,,2023-01-17,1,,,,,ジョウショウロマン,0
2489,8490003001724,新規,0,2023-01-17,2023-01-17,合同会社セドナ,,合同会社,高知県,土佐市,高岡町乙３１６４番地１１,,39,205,7811102,,,,,,,2023-01-17,1,,,,,セドナ,0
2493,8700150113787,新規,0,2023-01-17,2023-01-17,Ｓｕｐｅｒ　Ｃｒｅａｔｉｖｉｔｙ　Ｌｉｍｉｔｅｄ,,外国会社等,,,,,,,,Ｎｏｓ　１Ａ－１Ｌ　ＴＵＮＧ　ＣＨＯＩ　ＳＴ　ＲＭ　２１１２Ｃ　２１／Ｆ　ＷＩＴＴＹ　ＣＯＭＭ　ＢＬＤＧ　ＫＬＮ　Ｈｏｎｇ　Ｋｏｎｇ,,,,,,2023-01-17,1,,,,,スーパークレエーテイビテイリミテツド,0
2503,9010001232070,新規,0,2023-01-17,2023-01-17,株式会社Ｒａｐｉｄ　Ｔａｂｌｅ,,株式会社,東京都,中央区,銀座１丁目１２番４号Ｎ＆Ｅ＿ＢＬＤ．６Ｆ,,13,102,1040061,,,,,,,2023-01-17,1,,,,,ラピッドテーブル,0
2504,9010001232186,新規,0,2023-01-17,2023-01-17,ｍｏｕｋｅｔ株式会社,,株式会社,東京都,千代田区,有楽町１丁目１番２号日比谷三井タワー,,13,101,1000006,,,,,,,2023-01-17,1,,,,,モウケット,0
2505,9010001232203,新規,0,2023-01-17,2023-01-17,ソーシャルマーケティング株式会社,,株式会社,東京都,千代田区,平河町１丁目６番４号,,13,101,1020093,,,,,,,2023-01-17,1,,,,,ソーシャルマーケティング,0
2509,9010003039497,新規,0,2023-01-17,2023-01-17,ＹＯＫＯ合同会社,,合同会社,東京都,文京区,白山２丁目２番７号宮田ビル４０１,,13,105,1120001,,,,,,,2023-01-17,1,,,,,ヨコ,0
2510,9010003039571,新規,0,2023-01-17,2023-01-17,ビショントレード合同会社,,合同会社,東京都,千代田区,丸の内１丁目８番２号鉄鋼ビルディング４Ｆ,,13,101,1000005,,,,,,,2023-01-17,1,,,,,ビショントレード,0
2511,9010003039613,新規,0,2023-01-17,2023-01-17,合同会社ＡＣＣＯＴ,,合同会社,東京都,中央区,日本橋２丁目１０番３号エグゼトゥール日本橋８０１,,13,102,1030027,,,,,,,2023-01-17,1,,,,,アコット,0
2512,9010003039621,新規,0,2023-01-17,2023-01-17,Ｗｈｉｔｅ＆Ｃｏ．合同会社,,合同会社,東京都,中央区,銀座１丁目２２番１１号銀座大竹ビジデンス２Ｆ,,13,102,1040061,,,,,,,2023-01-17,1,,,,,ホワイトアンドカンパニー,0
2515,9010005036138,新規,0,2023-01-17,2023-01-17,一般社団法人強羅開発,,その他の設立登記法人,東京都,千代田区,霞が関３丁目２番５号,,13,101,1000013,,,,,,,2023-01-17,1,,,,,ゴウラカイハツ,0
2517,9010401171851,新規,0,2023-01-17,2023-01-17,エムエスプロパティーズマネジメント株式会社,,株式会社,東京都,港区,南青山５丁目１番１０－５１２号,,13,103,1070062,,,,,,,2023-01-17,1,,,,,エムエスプロパティーズマネジメント,0
2518,9010401171892,新規,0,2023-01-17,2023-01-17,エイドビューティー株式会社,,株式会社,東京都,港区,六本木５丁目１６番５０号デュープレックスエムズ４０９,,13,103,1060032,,,,,,,2023-01-17,1,,,,,エイドビューティー,0
2519,9010401171901,新規,0,2023-01-17,2023-01-17,株式会社ＴＯ　ＣＯＭＭＵＮＩＴＹ,,株式会社,東京都,港区,南青山４丁目１番１５号ベルテ南青山８０２,,13,103,1070062,,,,,,,2023-01-17,1,,,,,トゥコミュニティ,0
2520,9010403029288,新規,0,2023-01-17,2023-01-17,合同会社毛無山太陽光発電所,,合同会社,東京都,港区,浜松町１丁目１８番１３号,,13,103,1050013,,,,,,,2023-01-17,1,,,,,ケナシヤマタイヨウコウハツデンショ,0
2521,9010403029296,新規,0,2023-01-17,2023-01-17,アトリエセンソ合同会社,,合同会社,東京都,港区,六本木７丁目１７番１４号,,13,103,1060032,,,,,,,2023-01-17,1,,,,,アトリエセンソ,0
2522,9010403029305,新規,0,2023-01-17,2023-01-17,Ｐｏｗｅｒｌｅｄｇｅｒ合同会社,,合同会社,東京都,港区,虎ノ門４丁目３番１号,,13,103,1050001,,,,,,,2023-01-17,1,,,,,パワーレジャー,0
2524,9010501049857,新規,0,2023-01-17,2023-01-17,株式会社ＥＦＦＯＲＴ,,株式会社,東京都,台東区,東上野１丁目１９－７,,13,106,1100015,,,,,,,2023-01-17,1,,,,,エフォート,0
2526,9010601062446,新規,0,2023-01-17,2023-01-17,株式会社ＷＯＯＯ,,株式会社,東京都,江東区,有明３丁目７番１１号,,13,108,1350063,,,,,,,2023-01-17,1,,,,,ウー,0
2529,9010701043734,新規,0,2023-01-17,2023-01-17,株式会社トレスト東京,,株式会社,東京都,品川区,西五反田７丁目９番１０号金子ビル２０１,,13,109,1410031,,,,,,,2023-01-17,1,,,,,トレストトウキョウ,0
2530,9010801033593,新規,0,2023-01-17,2023-01-17,株式会社ネイバーズ,,株式会社,東京都,大田区,西蒲田７丁目４番３号,,13,111,1440051,,,,,,,2023-01-17,1,,,,,ネイバーズ,0
2533,9010903007891,新規,0,2023-01-17,2023-01-17,ドーサ合同会社,,合同会社,東京都,世田谷区,北沢４丁目２９番１号,,13,112,1550031,,,,,,,2023-01-17,1,,,,,ドーサ,0
2540,9011001151839,新規,0,2023-01-17,2023-01-17,株式会社ミントグリン,,株式会社,東京都,渋谷区,上原３丁目１５番６－１０２号,,13,113,1510064,,,,,,,2023-01-17,1,,,,,ミントグリン,0
2541,9011001151946,新規,0,2023-01-17,2023-01-17,アンパワージャパン株式会社,,株式会社,東京都,渋谷区,代々木１丁目５８番５号代々木吉野ビル３階,,13,113,1510053,,,,,,,2023-01-17,1,,,,,アンパワージャパン,0
2543,9011003016008,新規,0,2023-01-17,2023-01-17,ＦｏｏＤＸ合同会社,,合同会社,東京都,渋谷区,道玄坂１丁目１０番８号渋谷道玄坂東急ビル２Ｆ―Ｃ,,13,113,1500043,,,,,,,2023-01-17,1,,,,,フーディックス,0
2550,9011103012609,新規,0,2023-01-17,2023-01-17,ＤＤＤ合同会社,,合同会社,東京都,新宿区,北新宿２丁目２２番１号フラットＫ３０８,,13,104,1690074,,,,,,,2023-01-17,1,,,,,ディディディ,0
2552,9011301028381,新規,0,2023-01-17,2023-01-17,株式会社ＡＤＬａｂ,,株式会社,東京都,杉並区,阿佐谷南１丁目１４－５－２０１,,13,115,1660004,,,,,,,2023-01-17,1,,,,,エイディラボ,0
2556,9011501028859,新規,0,2023-01-17,2023-01-17,霊秉貿易株式会社,00129102,株式会社,東京都,北区,赤羽西６丁目２１番６号ＴＯＰ赤羽第２－５０５号室,,13,117,1150055,,,,,,,2023-01-17,1,,,,,リョウヘイボウエキ,0
2567,9011801041792,新規,0,2023-01-17,2023-01-17,ネクストドア株式会社,,株式会社,東京都,葛飾区,白鳥３丁目１５番１４号１Ｆ,,13,122,1250063,,,,,,,2023-01-17,1,,,,,ネクストドア,0
2568,9011801041801,新規,0,2023-01-17,2023-01-17,株式会社夢伝,,株式会社,東京都,足立区,鹿浜３丁目４番２２号,,13,121,1230864,,,,,,,2023-01-17,1,,,,,ムデン,0
2571,9012703002619,新規,0,2023-01-17,2023-01-17,合同会社Ｍ＆Ｍ,,合同会社,東京都,西東京市,向台町３丁目５番２７号,,13,229,1880013,,,,,,,2023-01-17,1,,,,,エムアンドエム,0
2580,9020001149875,新規,0,2023-01-17,2023-01-17,ドライブフロンティア株式会社,,株式会社,神奈川県,川崎市川崎区,浅野町３番１１号,,14,131,2100854,,,,,,,2023-01-17,1,,,,,ドライブフロンティア,0
2581,9020001149883,新規,0,2023-01-17,2023-01-17,株式会社ＩＧＬＣ,,株式会社,神奈川県,横浜市南区,花之木町２丁目３８番地レ・ジェイド横濱花之木１０１,,14,105,2320018,,,,,,,2023-01-17,1,,,,,アイジーエルシー,0
2584,9020003023079,新規,0,2023-01-17,2023-01-17,合同会社Ｆｌｅｘ　Ｇｌｏｂａｌ　Ｅｄｕｃａｔｉｏｎ,,合同会社,神奈川県,横浜市青葉区,あざみ野２丁目９番地２２あざみ野ゆうビル５０３,,14,117,2250011,,,,,,,2023-01-17,1,,,,,フレックスグローバルエデュケーション,0
2585,9020003023087,新規,0,2023-01-17,2023-01-17,合同会社吉田,,合同会社,神奈川県,横浜市中区,住吉町３丁目３６番地２Ｄｅｘ１９９２ビル６０２,,14,104,2310013,,,,,,,2023-01-17,1,,,,,ヨシダ,0
2586,9020005015801,新規,0,2023-01-17,2023-01-17,特定非営利活動法人体験活動サポート開港場,,その他の設立登記法人,神奈川県,横浜市中区,尾上町５丁目７１,,14,104,2310015,,,,,,,2023-01-17,1,,,,,タイケンカツドウサポートカイコウバ,0
2593,9021001077950,新規,0,2023-01-17,2023-01-17,斐然如初株式会社,,株式会社,神奈川県,相模原市南区,東林間８丁目２番１号シエロ東林間２０２号室,,14,153,2520311,,,,,,,2023-01-17,1,,,,,ヒゼンジョショ,0
2600,9021003012625,新規,0,2023-01-17,2023-01-17,アーツアンドヘブンズ合同会社,,合同会社,神奈川県,鎌倉市,山ノ内１０７５－５,,14,204,2470062,,,,,,,2023-01-17,1,,,,,アーツアンドヘブンズ,0
2609,9030001151748,新規,0,2023-01-17,2023-01-17,株式会社嶋根ゴム製作所,,株式会社,埼玉県,三郷市,彦江１丁目７番地１,,11,237,3410058,,,,,,,2023-01-17,1,,,,,シマネゴムセイサクショ,0
2610,9030001151995,新規,0,2023-01-17,2023-01-17,グラセス株式会社,,株式会社,埼玉県,熊谷市,大麻生９６４番地２,,11,202,3600835,,,,,,,2023-01-17,1,,,,,グラセス,0
2616,9030003020942,新規,0,2023-01-17,2023-01-17,合同会社共栄,,合同会社,埼玉県,大里郡寄居町,大字寄居１３４３番地１０Ｂ棟１０３,,11,408,3691203,,,,,,,2023-01-17,1,,,,,キョウエイ,0
2619,9040001126633,新規,0,2023-01-17,2023-01-17,ＦｕｌｌＭｏｏｎＨｏｍｅ株式会社,,株式会社,千葉県,野田市,山崎１７４６番地,,12,208,2780022,,,,,,,2023-01-17,1,,,,,フルムーンホーム,0
2620,9040001126641,新規,0,2023-01-17,2023-01-17,株式会社ブライトニングコミュニティ,,株式会社,千葉県,千葉市中央区,新宿２丁目３番２号エクセレントシティ千葉グランクラス６０８号,,12,101,2600021,,,,,,,2023-01-17,1,,,,,ブライトニングコミュニティ,0
2621,9040001126674,新規,0,2023-01-17,2023-01-17,株式会社凛,,株式会社,千葉県,市川市,原木１丁目４番９号,,12,203,2720004,,,,,,,2023-01-17,1,,,,,リン,0
2622,9040003021700,新規,0,2023-01-17,2023-01-17,Ａｗｏｏｏ　ＦＡＲＭ合同会社,,合同会社,千葉県,柏市,南逆井５丁目１８番１号,,12,217,2770043,,,,,,,2023-01-17,1,,,,,アウーファーム,0
2625,9040005021863,新規,0,2023-01-17,2023-01-17,農事組合法人南今泉,,その他の設立登記法人,千葉県,大網白里市,南今泉１５７８番地１,,12,239,2993202,,,,,,,2023-01-17,1,,,,,ミナミイマイズミ,0
2626,9040005021871,新規,0,2023-01-17,2023-01-17,一般社団法人ＳＰＡＣＥ,,その他の設立登記法人,千葉県,船橋市,習志野台４丁目１７－１－２０５,,12,204,2740063,,,,,,,2023-01-17,1,,,,,スペース,0
2628,9050003007161,新規,0,2023-01-17,2023-01-17,合同会社ＳＰＩＣＥ　ＫＩＮＧ,,合同会社,茨城県,龍ケ崎市,佐貫町５１４－５、１０１号室,,08,208,3010033,,,,,,,2023-01-17,1,,,,,スパイスキング,0
2631,9060001035601,新規,0,2023-01-17,2023-01-17,株式会社カサハラ鉄工,,株式会社,栃木県,佐野市,奈良渕町２５４番地５,,09,204,3270842,,,,,,,2023-01-17,1,,,,,カサハラテッコウ,0
2637,9070001040014,新規,0,2023-01-17,2023-01-17,株式会社ＵＮＩＳＯＮ,,株式会社,群馬県,佐波郡玉村町,大字上茂木４７２－３,,10,464,3701122,,,,,,,2023-01-17,1,,,,,,0
2643,9080401026256,新規,0,2023-01-17,2023-01-17,タダシー開発株式会社,,株式会社,静岡県,浜松市南区,寺脇町９９０番地,,22,134,4300841,,,,,,,2023-01-17,1,,,,,タダシーカイハツ,0
2645,9080405007517,新規,0,2023-01-17,2023-01-17,Ｅｌ　ｃａｍｐｏ　Ｆａｒｍ協同組合,,その他の設立登記法人,静岡県,浜松市南区,福島町６７６番地,,22,134,4300836,,,,,,,2023-01-17,1,,,,,エルカンポファーム,0
2646,9090001017919,新規,0,2023-01-17,2023-01-17,Ｔｒｅｎｄ　Ｍｏｂｉｌｉｔｙ’ｓ株式会社,,株式会社,山梨県,甲府市,徳行３丁目１５番３６号,,19,201,4000047,,,,,,,2023-01-17,1,,,,,トレンドモビリティーズ,0
2662,9120001251704,新規,0,2023-01-17,2023-01-17,株式会社熊谷,,株式会社,大阪府,大阪市北区,大淀中２丁目６－１９,,27,127,5310076,,,,,,,2023-01-17,1,,,,,クマガイ,0
2663,9120001251786,新規,0,2023-01-17,2023-01-17,株式会社ＭＡＸ,,株式会社,大阪府,大阪市北区,梅田１丁目２番２号大阪駅前第２ビル３階,,27,127,5300001,,,,,,,2023-01-17,1,,,,,マックス,0
2664,9120001251794,新規,0,2023-01-17,2023-01-17,株式会社ブランカ,,株式会社,大阪府,寝屋川市,大利町２１番７号,,27,215,5720048,,,,,,,2023-01-17,1,,,,,ブランカ,0
2665,9120001251811,新規,0,2023-01-17,2023-01-17,三沐株式会社,,株式会社,大阪府,大阪市港区,池島３丁目１０－１１船田マンション５０１号室,,27,107,5520015,,,,,,,2023-01-17,1,,,,,ミツモク,0
2666,9120003023184,新規,0,2023-01-17,2023-01-17,Ａｃｅｓ合同会社,,合同会社,大阪府,大阪市北区,梅田１丁目１－３大阪駅前第３ビル２９階１－１－１号室,,27,127,5300001,,,,,,,2023-01-17,1,,,,,エーシーズ,0
2675,9122003002481,新規,0,2023-01-17,2023-01-17,合同会社朝焼けいちばん,,合同会社,大阪府,八尾市,高安町南６丁目１番地の５号,,27,212,5810875,,,,,,,2023-01-17,1,,,,,アサヤケイチバン,0
2689,9130001073486,新規,0,2023-01-17,2023-01-17,株式会社一工,,株式会社,京都府,京都市西京区,上桂前田町３３番地１,,26,111,6158223,,,,,,,2023-01-17,1,,,,,カズコウ,0
2694,9130003008449,新規,0,2023-01-17,2023-01-17,合同会社１,,合同会社,京都府,京都市中京区,雁金町３７３みよいビル２０３,,26,104,6048115,,,,,,,2023-01-17,1,,,,,イチ,0
2701,9140001128768,新規,0,2023-01-17,2023-01-17,株式会社オーセイル,,株式会社,兵庫県,神戸市北区,惣山町５丁目３－１,,28,109,6511145,,,,,,,2023-01-17,1,,,,,オーセイル,0
2702,9140001128776,新規,0,2023-01-17,2023-01-17,株式会社ＢｉＢｉ,,株式会社,兵庫県,西宮市,南甲子園１丁目９番２－３２４号,,28,204,6638153,,,,,,,2023-01-17,1,,,,,ビビ,0
2703,9140001128784,新規,0,2023-01-17,2023-01-17,株式会社大垣工務店,,株式会社,兵庫県,西宮市,段上町５丁目１番２６号,,28,204,6638006,,,,,,,2023-01-17,1,,,,,オオガキコウムテン,0
2704,9140001128792,新規,0,2023-01-17,2023-01-17,株式会社ヒロトミ,,株式会社,兵庫県,加古川市,加古川町稲屋５０番地の３０,,28,210,6750034,,,,,,,2023-01-17,1,,,,,ヒロトミ,0
2709,9150003002862,新規,0,2023-01-17,2023-01-17,合同会社ミタス,,合同会社,奈良県,橿原市,小綱町１７番３８－３号,,29,205,6340811,,,,,,,2023-01-17,1,,,,,ミタス,0
2718,9180001154579,新規,0,2023-01-17,2023-01-17,株式会社金属王貿易,,株式会社,愛知県,弥富市,松名３丁目１６－３,,23,235,4980042,,,,,,,2023-01-17,1,,,,,キンゾクオウボウエキ,0
2719,9180001154604,新規,0,2023-01-17,2023-01-17,株式会社ＴＭＮ,,株式会社,愛知県,豊明市,西川町横井１番地１４,,23,229,4701121,,,,,,,2023-01-17,1,,,,,ティーエムエヌ,0
2721,9180003024722,新規,0,2023-01-17,2023-01-17,合同会社クールバンク,,合同会社,愛知県,名古屋市中川区,供米田３丁目３２０６番地,,23,110,4540984,,,,,,,2023-01-17,1,,,,,クールバンク,0
2724,9180301036997,新規,0,2023-01-17,2023-01-17,ミカロ株式会社,,株式会社,愛知県,豊田市,千石町５丁目１８番地,,23,211,4710016,,,,,,,2023-01-17,1,,,,,ミカロ,0
2725,9180301037005,新規,0,2023-01-17,2023-01-17,株式会社ＴａｃＴｅＱ,,株式会社,愛知県,岡崎市,伊賀町字６丁目４８番地１,,23,202,4440075,,,,,,,2023-01-17,1,,,,,タクテック,0
2728,9180303005570,新規,0,2023-01-17,2023-01-17,ミツナ合同会社,,合同会社,愛知県,豊田市,朝日ケ丘１丁目７番地３,,23,211,4710858,,,,,,,2023-01-17,1,,,,,ミツナ,0
2735,9210001019209,新規,0,2023-01-17,2023-01-17,株式会社ヴァース,,株式会社,福井県,敦賀市,平和町３４番２３－２０１号,,18,202,9140815,,,,,,,2023-01-17,1,,,,,ヴァース,0
2759,9330001030509,新規,0,2023-01-17,2023-01-17,株式会社熊本ＴＯＷＡ,,株式会社,熊本県,熊本市東区,長嶺南３丁目２番７４－５０７号,,43,102,8618039,,,,,,,2023-01-17,1,,,,,クマモトトーワ,0
2770,9360003012642,新規,0,2023-01-17,2023-01-17,合同会社Ｋ．Ｓｔｙｌｅ,,合同会社,沖縄県,那覇市,首里石嶺町２丁目１６６番地２３,,47,201,9030804,,,,,,,2023-01-17,1,,,,,ケースタイル,0
2793,9480003001922,新規,0,2023-01-17,2023-01-17,合同会社Ｈａｌｅｉｗａ,,合同会社,徳島県,徳島市,南田宮２丁目７番２４号,,36,201,7700004,,,,,,,2023-01-17,1,,,,,ハレイワ,0
2795,9700150035510,新規,0,2023-01-17,2015-10-09,宮城ＳＲ経営労務センタ－,,その他,宮城県,仙台市青葉区,本町１丁目９－５五城ビル４０５,,04,101,9800014,,,,,,,2015-10-09,1,,,,,ミヤギエスアールケイエイロウムセンター,0
2797,9700150113786,新規,0,2023-01-17,2023-01-17,ＳＵＰＥＲ　ＴＩＭＥＳ　ＣＯ．，　ＬＴＤ．,,外国会社等,,,,,,,,３４００　ＣＡＰＩＴＯＬ　ＢＬＶＤ　ＳＥ　ＳＵＩＴＥ　１０１　ＴＵＭＷＡＴＥＲ　ＷＡ　Ｕｎｉｔｅｄ　Ｓｔａｔｅｓ,,,,,,2023-01-17,1,,,,,スーパータイムズ,0
