sequenceNumber,corporateNumber,process,correct,updateDate,changeDate,name,nameImageId,kind,prefectureName,cityName,streetNumber,addressImageId,prefectureCode,cityCode,postCode,addressOutside,addressOutsideImageId,closeDate,closeCause,successorCorporateNumber,changeCause,assignmentDate,latest,enName,enPrefectureName,enCityName,enAddressOutside,furigana,hihyoji
12,1010001248677,新規,0,2024-10-02,2024-10-02,株式会社今なにしＴＥＬ,,株式会社,東京都,中央区,銀座１丁目１２番４号Ｎ＆ＥＢＬＤ．６Ｆ,,13,102,1040061,,,,,,,2024-10-02,1,,,,,イマナニシテル,0
13,1010001248702,新規,0,2024-10-02,2024-10-02,日本再興承継株式会社,,株式会社,東京都,中央区,日本橋兜町１７番２号兜町第６葉山ビル４Ｆ,,13,102,1030026,,,,,,,2024-10-02,1,,,,,ニホンサイコウショウケイ,0
20,1010403033495,新規,0,2024-10-02,2024-10-02,合同会社ヒロ,,合同会社,東京都,港区,浜松町２丁目２番１５号,,13,103,1050013,,,,,,,2024-10-02,1,,,,,ヒロ,0
21,1010403033512,新規,0,2024-10-02,2024-10-02,合同会社Ｔ＆Ｍ,,合同会社,東京都,港区,南青山６丁目１２番３－３０４号,,13,103,1070062,,,,,,,2024-10-02,1,,,,,ティーアンドエム,0
22,1010405023627,新規,0,2024-10-02,2024-10-02,弁護士法人山本法律事務所,,その他の設立登記法人,東京都,港区,新橋３丁目７番３号新橋フォディアビル８階,,13,103,1050004,,,,,,,2024-10-02,1,,,,,ヤマモトホウリツジムショ,0
26,1010803005111,新規,0,2024-10-02,2024-10-02,合同会社ＣＡＮＡＭＥ,,合同会社,東京都,大田区,東六郷３丁目２３番１２号,,13,111,1440046,,,,,,,2024-10-02,1,,,,,カナメ,0
27,1011001164947,新規,0,2024-10-02,2024-10-02,株式会社ＡＳＸＥＥＤ,,株式会社,東京都,渋谷区,渋谷２丁目１９番１５号宮益坂ビルディング６０９,,13,113,1500002,,,,,,,2024-10-02,1,,,,,アスシード,0
30,1011003020116,新規,0,2024-10-02,2024-10-02,合同会社オフィスアリマ,,合同会社,東京都,渋谷区,代々木２丁目３６番４号代々木プリンスマンション３０３,,13,113,1510053,,,,,,,2024-10-02,1,,,,,オフィスアリマ,0
31,1011005010692,新規,0,2024-10-02,2024-10-02,一般社団法人ＪＡＰＹＣＬＥ,,その他の設立登記法人,東京都,渋谷区,神宮前６丁目３４－１４,,13,113,1500001,,,,,,,2024-10-02,1,,,,,ジャピクル,0
35,1011101108936,新規,0,2024-10-02,2024-10-02,国風株式会社,,株式会社,東京都,新宿区,高田馬場４丁目１８－９ハイシテイ高田馬場２０１,,13,104,1690075,,,,,,,2024-10-02,1,,,,,コクフウ,0
36,1011103014991,新規,0,2024-10-02,2024-10-02,合同会社もぐもぐ,,合同会社,東京都,新宿区,新宿１丁目３６番２号新宿第七葉山ビル３Ｆ,,13,104,1600022,,,,,,,2024-10-02,1,,,,,モグモグ,0
39,1011501031201,新規,0,2024-10-02,2024-10-02,陽非株式会社,,株式会社,東京都,北区,浮間１丁目１－１４－２０８号室,,13,117,1150051,,,,,,,2024-10-02,1,,,,,ヨウヒ,0
57,1020001159320,新規,0,2024-10-02,2024-10-02,ユーエイト株式会社,,株式会社,神奈川県,横浜市瀬谷区,中屋敷１丁目３１番地３６,,14,114,2460004,,,,,,,2024-10-02,1,,,,,ユーエイト,0
68,1021001083378,新規,0,2024-10-02,2024-10-02,ＪＫバイオ株式会社,,株式会社,神奈川県,藤沢市,南藤沢２１番９号,,14,205,2510055,,,,,,,2024-10-02,1,,,,,ジェーケーバイオ,0
84,1030005021863,新規,0,2024-10-02,2024-10-02,特定非営利活動法人ゆたかけあ,,その他の設立登記法人,埼玉県,上尾市,富士見１丁目１７番４号富士見団地,,11,219,3620041,,,,,,,2024-10-02,1,,,,,ユタカケア,0
90,1040001135591,新規,0,2024-10-02,2024-10-02,株式会社５８クリエイト,,株式会社,千葉県,柏市,柏２丁目１０番２－１３０３号,,12,217,2770005,,,,,,,2024-10-02,1,,,,,ゴッパチクリエイト,0
93,1040003025898,新規,0,2024-10-02,2024-10-02,合同会社スター都市開発,,合同会社,千葉県,木更津市,祇園１丁目９－１１－２０２,,12,206,2920052,,,,,,,2024-10-02,1,,,,,スタートシカイハツ,0
94,1050001055450,新規,0,2024-10-02,2024-10-02,株式会社Ｍａｒｇｃｙ,,株式会社,茨城県,取手市,戸頭２４３０番地２,,08,217,3020034,,,,,,,2024-10-02,1,,,,,マーグシー,0
95,1050001055467,新規,0,2024-10-02,2024-10-02,株式会社梶間板金,,株式会社,茨城県,東茨城郡大洗町,磯浜町８２２７番地の２,,08,309,3111301,,,,,,,2024-10-02,1,,,,,カジマバンキン,0
106,1100001037889,新規,0,2024-10-02,2024-10-02,まるまる株式会社,,株式会社,長野県,塩尻市,大字峰原１８５番地５６,,20,215,3990728,,,,,,,2024-10-02,1,,,,,マルマル,0
124,1120001268887,新規,0,2024-10-02,2024-10-02,株式会社ユネイト,,株式会社,大阪府,大阪市旭区,中宮４丁目２番１８号,,27,117,5350003,,,,,,,2024-10-02,1,,,,,ユネイト,0
125,1120001268895,新規,0,2024-10-02,2024-10-02,恵琴株式会社,,株式会社,大阪府,大阪市都島区,内代町１丁目１番２６号１０１号室,,27,102,5340013,,,,,,,2024-10-02,1,,,,,ケイキン,0
126,1120001268912,新規,0,2024-10-02,2024-10-02,金太郎科技株式会社,,株式会社,大阪府,大阪市住吉区,南住吉１丁目６－２４－１Ｆ,,27,120,5580041,,,,,,,2024-10-02,1,,,,,キンタロウカギ,0
127,1120001268920,新規,0,2024-10-02,2024-10-02,株式会社大林不動産,,株式会社,大阪府,大阪市東住吉区,南田辺１丁目３番１６号,,27,121,5460033,,,,,,,2024-10-02,1,,,,,オオバヤシフドウサン,0
128,1120001268961,新規,0,2024-10-02,2024-10-02,愛佳株式会社,,株式会社,大阪府,大阪市阿倍野区,北畠３丁目１番１０号,,27,119,5450035,,,,,,,2024-10-02,1,,,,,アイカ,0
132,1120003027639,新規,0,2024-10-02,2024-10-02,ＫＣＭ　Ｉｎｔｅｒｎａｔｉｏｎａｌ合同会社,,合同会社,大阪府,大阪市西淀川区,柏里２丁目４番３２号,,27,113,5550022,,,,,,,2024-10-02,1,,,,,ケーシーエムインターナショナル,0
133,1120003027647,新規,0,2024-10-02,2024-10-02,Ｃｒｅｗｓアドバイザリー・アンド・コンサルティング合同会社,,合同会社,大阪府,大阪市中央区,平野町３丁目１番６号ＢｉｚＭｉｉＸＹｏｄｏｙａｂａｓｈｉ３０２号,,27,128,5410046,,,,,,,2024-10-02,1,,,,,クルーズアドバイザリーアンドコンサルティング,0
136,1120101070326,新規,0,2024-10-02,2024-10-02,Ｐｌｕｓ　Ｏｎｅ株式会社,,株式会社,大阪府,泉南市,信達岡中８７０番１,,27,228,5900523,,,,,,,2024-10-02,1,,,,,プラスワン,0
146,1130001078006,新規,0,2024-10-02,2024-10-02,株式会社メイパーク,,株式会社,京都府,八幡市,男山八望３－１男山団地Ｂ５２棟,,26,210,6148373,,,,,,,2024-10-02,1,,,,,メイパーク,0
151,1140001135937,新規,0,2024-10-02,2024-10-02,株式会社Ｒｉｖｅ　Ｐｉｌａｔｅｓ,,株式会社,兵庫県,尼崎市,浜田町２丁目８４番地堀吉ビル,,28,202,6600062,,,,,,,2024-10-02,1,,,,,リーヴピラティス,0
155,1150001027588,新規,0,2024-10-02,2024-10-02,Ｃｒｕｄｅ　Ｐｌａｎｔ株式会社,,株式会社,奈良県,大和高田市,大字根成柿５７４番地,,29,202,6350051,,,,,,,2024-10-02,1,,,,,クルードプラント,0
159,1160003003297,新規,0,2024-10-02,2024-10-02,合同会社キタムラ,,合同会社,滋賀県,大津市,坂本１丁目１９番６１号,,25,201,5200113,,,,,,,2024-10-02,1,,,,,キタムラ,0
163,1160005011348,新規,0,2024-10-02,2024-10-02,医療法人Ａ．Ｉ．Ｒ,,その他の設立登記法人,滋賀県,草津市,野路町６５２－３,,25,206,5250055,,,,,,,2024-10-02,1,,,,,エアー,0
168,1170003002109,新規,0,2024-10-02,2024-10-02,イワハシ工学合同会社,,合同会社,和歌山県,和歌山市,岡山丁５７,,30,201,6408145,,,,,,,2024-10-02,1,,,,,イワハシコウガク,0
179,1180001163447,新規,0,2024-10-02,2024-10-02,株式会社エソラ,,株式会社,愛知県,名古屋市中区,新栄２丁目５番１号イズミヤビル１階,,23,106,4600007,,,,,,,2024-10-02,1,,,,,エソラ,0
180,1180001163505,新規,0,2024-10-02,2024-10-02,株式会社八千代,,株式会社,愛知県,名古屋市中区,丸の内１丁目８番３９号,,23,106,4600002,,,,,,,2024-10-02,1,,,,,ヤチヨ,0
184,1180003027410,新規,0,2024-10-02,2024-10-02,合同会社ｗｏｏｄ,,合同会社,愛知県,名古屋市中区,大須１丁目１６番１０号エスリード大須観音プリモ３０２号,,23,106,4600011,,,,,,,2024-10-02,1,,,,,ウッド,0
185,1180003027419,新規,0,2024-10-02,2024-10-02,合同会社Ｍ．ａｍｕｓｅ,,合同会社,愛知県,名古屋市中区,栄４丁目３番７号（シエルブルー栄９０１号）,,23,106,4600008,,,,,,,2024-10-02,1,,,,,エムアミューズ,0
190,1190001031685,新規,0,2024-10-02,2024-10-02,山西電気株式会社,,株式会社,三重県,鈴鹿市,磯山２丁目１２番２５号,,24,207,5100256,,,,,,,2024-10-02,1,,,,,ヤマニシデンキ,0
191,1210001019926,新規,0,2024-10-02,2024-10-02,株式会社デフ,,株式会社,福井県,福井市,加茂緑苑町９１７番地,,18,201,9188058,,,,,,,2024-10-02,1,,,,,デフ,0
192,1230001020543,新規,0,2024-10-02,2024-10-02,ＣＰＣ株式会社,,株式会社,富山県,高岡市,福岡町赤丸６５７,,16,202,9390101,,,,,,,2024-10-02,1,,,,,シーピーシー,0
203,1280001009268,新規,0,2024-10-02,2024-10-02,株式会社ミングセンター中央,,株式会社,島根県,松江市,西津田４丁目５番４２号,,32,201,6900017,,,,,,,2024-10-02,1,,,,,ミングセンターチュウオウ,0
208,1290001107509,新規,0,2024-10-02,2024-10-02,株式会社Ｍ’Ｓ　ＣＬＥＡＮ,,株式会社,福岡県,那珂川市,五郎丸２丁目１８番地２,,40,231,8111252,,,,,,,2024-10-02,1,,,,,エムズクリーン,0
210,1290003015858,新規,0,2024-10-02,2024-10-02,合同会社ＮｅｗＢｉｇ,,合同会社,福岡県,糸島市,前原南１丁目８番２９号,,40,230,8191139,,,,,,,2024-10-02,1,,,,,ニュービッグ,0
213,1290801030918,新規,0,2024-10-02,2024-10-02,株式会社ミハラレーシング,,株式会社,福岡県,北九州市八幡西区,夕原町３番３号,,40,109,8070813,,,,,,,2024-10-02,1,,,,,ミハラレーシング,0
218,1320001020740,新規,0,2024-10-02,2024-10-02,株式会社Ｃａｆｕｎｅ,,株式会社,大分県,大分市,中央町３丁目２番２４号若草公園ビル２Ｆ,,44,201,8700035,,,,,,,2024-10-02,1,,,,,カフネ,0
222,1340001026819,新規,0,2024-10-02,2024-10-02,鹿児島ラボ硝子株式会社,,株式会社,鹿児島県,日置市,日吉町日置１５７６番地,,46,216,8993101,,,,,,,2024-10-02,1,,,,,カゴシマラボガラス,0
228,1360001034241,新規,0,2024-10-02,2024-10-02,株式会社商船やいま,,株式会社,沖縄県,石垣市,浜崎町１丁目１番地４,,47,207,9070013,,,,,,,2024-10-02,1,,,,,ショウセンヤイマ,0
229,1360001034258,新規,0,2024-10-02,2024-10-02,株式会社にしむら設備,,株式会社,沖縄県,糸満市,字座波１０５１番地の１、２階,,47,210,9010314,,,,,,,2024-10-02,1,,,,,ニシムラセツビ,0
230,1360003014340,新規,0,2024-10-02,2024-10-02,Ｌｏｇｏｓ　Ｃｏｎｓｕｌｔｉｎｇ合同会社,,合同会社,沖縄県,那覇市,久米２丁目３番１５号,,47,201,9000033,,,,,,,2024-10-02,1,,,,,ロゴスコンサルティング,0
232,1370001051780,新規,0,2024-10-02,2024-10-02,株式会社Ｋ’ｓ　ＬＡＢＯ,,株式会社,宮城県,石巻市,羽黒町１丁目１１番１１号,,04,202,9860831,,,,,,,2024-10-02,1,,,,,ケーズラボ,0
234,1380003005866,新規,0,2024-10-02,2024-10-02,合同会社ＡＩコンサル,,合同会社,福島県,相馬郡飯舘村,飯樋字前田１７８番地,00136448,07,564,9601721,,,,,,,2024-10-02,1,,,,,エーアイコンサル,0
235,1400001016805,新規,0,2024-10-02,2024-10-02,株式会社ヴィレッジスローカンパニー,,株式会社,岩手県,岩手郡雫石町,板橋３０番地１７７,,03,301,0200502,,,,,,,2024-10-02,1,,,,,ヴィレッジスローカンパニー,0
247,1430003016825,新規,0,2024-10-02,2024-10-02,合同会社ナンバー・ナイン,,合同会社,北海道,札幌市豊平区,豊平二条１丁目１－１１,,01,105,0620902,,,,,,,2024-10-02,1,,,,,ナンバーナイン,0
249,1440001009499,新規,0,2024-10-02,2024-10-02,株式会社ＬＩＢＥＲＡ,,株式会社,北海道,茅部郡森町,字森川町２７０番地２,,01,345,0492313,,,,,,,2024-10-02,1,,,,,リベラ,0
251,1470003002722,新規,0,2024-10-02,2024-10-02,合同会社ウエタ,,合同会社,香川県,東かがわ市,帰来２１４番地６,,37,207,7692704,,,,,,,2024-10-02,1,,,,,ウエタ,0
252,1480001012607,新規,0,2024-10-02,2024-10-02,株式会社キング工務店,,株式会社,徳島県,徳島市,八多町友広８５番地,,36,201,7714266,,,,,,,2024-10-02,1,,,,,キングコウムテン,0
258,1500003003337,新規,0,2024-10-02,2024-10-02,合同会社ＫＥＥＬ,,合同会社,愛媛県,松山市,東石井５丁目９番２８号,,38,201,7900932,,,,,,,2024-10-02,1,,,,,キール,0
260,1700150127389,新規,0,2024-10-02,2024-10-02,Ｂａｉ　Ｌｉｎｇ　Ｑｉ　Ｄｏｎｇ　Ｋｅ　Ｊｉ　Ｙｏｕ　Ｘｉａｎ　Ｇｏｎｇ　Ｓｉ,,外国会社等,,,,,,,,Ｙｕｅｑｉｎｇｊｉｎｇｊｉｋａｉｆａｑｕ　ｊｉｎｇｂａｌｕ３８７ｈａｏ　ｗｅｎｚｈｏｕ　ｙｕｅｑｉｎｇ　ｚｈｅｊｉａｎｇ　３２５６００　ＣＮ,,,,,,2024-10-02,1,,,,,ヒャクレイドカギユウゲンコウシ,0
266,2010001248701,新規,0,2024-10-02,2024-10-02,株式会社Ｗａｄａ　ＦｏｏｄＴｅｃｈ　Ｇｒｏｕｐ,,株式会社,東京都,千代田区,丸の内３丁目３番１号,,13,101,1000005,,,,,,,2024-10-02,1,,,,,ワダフードテックグループ,0
269,2010003045056,新規,0,2024-10-02,2024-10-02,合同会社Ｎｅｔ　Ｆｕｓｉｏｎ,,合同会社,東京都,千代田区,神田須田町１丁目７番８号ＶＯＲＴ秋葉原ＩＶ２Ｆ,00136449,13,101,1010041,,,,,,,2024-10-02,1,,,,,ネットフュージョン,0
270,2010003045072,新規,0,2024-10-02,2024-10-02,合同会社グランドジョブ,,合同会社,東京都,千代田区,神田須田町１丁目７番８号ＶＯＲＴ秋葉原ＩＶ２Ｆ,00136457,13,101,1010041,,,,,,,2024-10-02,1,,,,,グランドジョブ,0
273,2010005038891,新規,0,2024-10-02,2024-10-02,一般社団法人ＫＯＦ３,,その他の設立登記法人,東京都,中央区,日本橋１丁目４番１号日本橋一丁目ビルディング,,13,102,1030027,,,,,,,2024-10-02,1,,,,,ケイオーエフスリー,0
279,2010401185387,新規,0,2024-10-02,2024-10-02,株式会社Ｘｅｄｇｅ,,株式会社,東京都,港区,港南４丁目６番３－３４０１号,,13,103,1080075,,,,,,,2024-10-02,1,,,,,クロスエッジ,0
280,2010401185429,新規,0,2024-10-02,2024-10-02,株式会社Ｗｏｒｌｄ‐ＣｌｅａｎＡｉｒ,,株式会社,東京都,港区,高輪３丁目４番１３号第二高輪偕成ビル７階,,13,103,1080074,,,,,,,2024-10-02,1,,,,,ワールドクリーンエアー,0
281,2010401185437,新規,0,2024-10-02,2024-10-02,株式会社ＩＢＴ総合研究所,,株式会社,東京都,港区,南青山３丁目１番３号スプライン青山東急ビル３階,,13,103,1070062,,,,,,,2024-10-02,1,,,,,アイビーティーソウゴウケンキュウジョ,0
282,2010401185453,新規,0,2024-10-02,2024-10-02,株式会社Ｅｓｃｏｒｔ,,株式会社,東京都,港区,麻布台２丁目１番２号,,13,103,1060041,,,,,,,2024-10-02,1,,,,,エスコート,0
290,2010601066016,新規,0,2024-10-02,2024-10-02,株式会社ＴＩＳＨＩＫＩ,,株式会社,東京都,江東区,豊洲４丁目９番１３－３１３号,,13,108,1350061,,,,,,,2024-10-02,1,,,,,チシキ,0
291,2010703007371,新規,0,2024-10-02,2024-10-02,合同会社ＦＦＫＣ,,合同会社,東京都,品川区,大井１丁目２１番８－６０６号,,13,109,1400014,,,,,,,2024-10-02,1,,,,,エフエフケーシー,0
300,2011001164847,新規,0,2024-10-02,2024-10-02,ＳＩＶＡ　ＴＥＣＫ株式会社,,株式会社,東京都,渋谷区,幡ヶ谷３丁目５６番５号,,13,113,1510072,,,,,,,2024-10-02,1,,,,,シヴァテック,0
301,2011001164896,新規,0,2024-10-02,2024-10-02,株式会社アズーリソフト,,株式会社,東京都,渋谷区,渋谷２丁目１９－１５宮益坂ビルディング６０９,,13,113,1500002,,,,,,,2024-10-02,1,,,,,アズーリソフト,0
302,2011001164913,新規,0,2024-10-02,2024-10-02,株式会社新京心塾,,株式会社,東京都,渋谷区,神宮前５丁目４６番１６号イル・チェントロ・セレーノ５階,,13,113,1500001,,,,,,,2024-10-02,1,,,,,シンキョウシンジュク,0
303,2011001164921,新規,0,2024-10-02,2024-10-02,株式会社ＴｅｃｈＭｏｋｕ,,株式会社,東京都,渋谷区,道玄坂１丁目１０番８号渋谷道玄坂東急ビル２Ｆ－Ｃ,,13,113,1500043,,,,,,,2024-10-02,1,,,,,テクモク,0
304,2011001164946,新規,0,2024-10-02,2024-10-02,株式会社タリーバンク,,株式会社,東京都,目黒区,大橋１丁目５番１号,,13,110,1530044,,,,,,,2024-10-02,1,,,,,タリーバンク,0
305,2011003020131,新規,0,2024-10-02,2024-10-02,合同会社Ｔ．Ｐ．Ｏｘｙａ,,合同会社,東京都,目黒区,下目黒１丁目１番１４号,,13,110,1530064,,,,,,,2024-10-02,1,,,,,ティーピーオクシア,0
306,2011005010691,新規,0,2024-10-02,2024-10-02,一般社団法人シブタン,,その他の設立登記法人,東京都,渋谷区,千駄ヶ谷５丁目２番１５号サンパークハイツ６Ｆ,,13,113,1510051,,,,,,,2024-10-02,1,,,,,シブタン,0
309,2011101108951,新規,0,2024-10-02,2024-10-02,株式会社ネクスト,,株式会社,東京都,新宿区,新宿６丁目２８－１０－５０６号,,13,104,1600022,,,,,,,2024-10-02,1,,,,,ネクスト,0
314,2011501031200,新規,0,2024-10-02,2024-10-02,愛爾麗株式会社,,株式会社,東京都,北区,浮間１丁目７－２３兆豊浮間ビル５０２号室,,13,117,1150051,,,,,,,2024-10-02,1,,,,,アイジレイ,0
315,2011501031209,新規,0,2024-10-02,2024-10-02,株式会社ハシトシステム,,株式会社,東京都,荒川区,荒川２丁目４７番８号,,13,118,1160002,,,,,,,2024-10-02,1,,,,,ハシトシステム,0
317,2011503006241,新規,0,2024-10-02,2024-10-02,ＦＩＭＥＲＡ　ＶＩＳＩＯＮ合同会社,,合同会社,東京都,荒川区,町屋７丁目１３－６,,13,118,1160001,,,,,,,2024-10-02,1,,,,,フィメラビジョン,0
321,2011701027675,新規,0,2024-10-02,2024-10-02,Ｂｒｏａｄ　Ｉｎｔｅｒｎａｔｉｏｎａｌ　Ｈｏｌｄｉｎｇｓ株式会社,,株式会社,東京都,江戸川区,松島３丁目１４番７－３１１号若林ビル,,13,123,1320031,,,,,,,2024-10-02,1,,,,,ブロードインターナショナルホールディングス,0
326,2012403006769,新規,0,2024-10-02,2024-10-02,影山装飾合同会社,,合同会社,東京都,調布市,佐須町５丁目２３番地６,,13,208,1820016,,,,,,,2024-10-02,1,,,,,カゲヤマソウショク,0
327,2012405005050,新規,0,2024-10-02,2024-10-02,医療法人社団ＩＨＯＣ,,その他の設立登記法人,東京都,稲城市,平尾４丁目２４番１号平尾メディカルヴィレッジ１階,,13,225,2060823,,,,,,,2024-10-02,1,,,,,アイエイチオーシー,0
332,2020001159328,新規,0,2024-10-02,2024-10-02,株式会社天昇イノベーション,,株式会社,神奈川県,川崎市多摩区,寺尾台２丁目５番地１０,,14,135,2140005,,,,,,,2024-10-02,1,,,,,テンショウイノベーション,0
333,2020001159352,新規,0,2024-10-02,2024-10-02,株式会社Ｔｏｍｍｙ,,株式会社,神奈川県,川崎市宮前区,宮崎１４５番地７アゼリア宮崎台ＩＩ２０２,00136446,14,136,2160033,,,,,,,2024-10-02,1,,,,,トミー,0
334,2020001159369,新規,0,2024-10-02,2024-10-02,株式会社凪,,株式会社,神奈川県,横浜市緑区,いぶき野５７番地４－４０４,,14,113,2260028,,,,,,,2024-10-02,1,,,,,ナギ,0
339,2021001083377,新規,0,2024-10-02,2024-10-02,エニアーキテクツ株式会社,,株式会社,神奈川県,藤沢市,鵠沼藤が谷４丁目１７番５～２０５号,00136461,14,205,2510031,,,,,,,2024-10-02,1,,,,,エニアーキテクツ,0
340,2021001083393,新規,0,2024-10-02,2024-10-02,株式会社ＳＯＭＥＴＨＩＮＧ　ＷＯＲＫＳ,,株式会社,神奈川県,藤沢市,鵠沼石上１丁目５―９メガサンエスビル６階,,14,205,2510025,,,,,,,2024-10-02,1,,,,,サムシングワークス,0
341,2021001083402,新規,0,2024-10-02,2024-10-02,株式会社清水エンタープライズ,,株式会社,神奈川県,大和市,福田３丁目２番地２,,14,213,2420024,,,,,,,2024-10-02,1,,,,,シミズエンタープライズ,0
348,2021003015064,新規,0,2024-10-02,2024-10-02,みらいふくし合同会社,,合同会社,神奈川県,相模原市中央区,中央２丁目１１番１０号ニューセントラルビル４Ｆ,,14,152,2520239,,,,,,,2024-10-02,1,,,,,ミライフクシ,0
360,2040001135558,新規,0,2024-10-02,2024-10-02,株式会社ｅｋｏｌｕａｎａ,,株式会社,千葉県,東金市,田間３丁目３７番地１８,,12,213,2830005,,,,,,,2024-10-02,1,,,,,エコルアナ,0
361,2040001135590,新規,0,2024-10-02,2024-10-02,ＦｕｎＴｒａｖｅｌ株式会社,,株式会社,千葉県,松戸市,三矢小台５丁目８－１８,,12,207,2710087,,,,,,,2024-10-02,1,,,,,ファントラベル,0
362,2040001135608,新規,0,2024-10-02,2024-10-02,株式会社コルテックホールディングス,,株式会社,千葉県,八千代市,高津東２丁目５番地２８,,12,221,2760037,,,,,,,2024-10-02,1,,,,,コルテックホールディングス,0
363,2040001135616,新規,0,2024-10-02,2024-10-02,株式会社Ｍｏｌｅｆｉｎｅｃａｒｅ,,株式会社,千葉県,木更津市,木更津９６０－１－３０７,,12,206,2920056,,,,,,,2024-10-02,1,,,,,モルファインケア,0
367,2040003025897,新規,0,2024-10-02,2024-10-02,ペイネクサス合同会社,,合同会社,千葉県,千葉市稲毛区,長沼町１５０番地５８,,12,103,2630005,,,,,,,2024-10-02,1,,,,,ペイネクサス,0
368,2040003025906,新規,0,2024-10-02,2024-10-02,合同会社みつけアセット,,合同会社,千葉県,流山市,江戸川台西２丁目１４１番地ロータリービル２階,,12,220,2700115,,,,,,,2024-10-02,1,,,,,ミツケアセット,0
371,2050001055474,新規,0,2024-10-02,2024-10-02,株式会社サキガケ,,株式会社,茨城県,牛久市,牛久町２５１４番地の８,,08,219,3001221,,,,,,,2024-10-02,1,,,,,サキガケ,0
379,2080401027475,新規,0,2024-10-02,2024-10-02,株式会社Ｎフード,,株式会社,静岡県,浜松市中央区,大柳町１８１番地の３,,22,138,4300842,,,,,,,2024-10-02,1,,,,,エヌフード,0
380,2090001018923,新規,0,2024-10-02,2024-10-02,株式会社木花,,株式会社,山梨県,甲府市,山宮町３７１番地１ジュネスヤマミヤＡ棟１０１,,19,201,4000075,,,,,,,2024-10-02,1,,,,,コノハナ,0
383,2100005013225,新規,0,2024-10-02,2024-10-02,一般社団法人太陽光生活研究所,,その他の設立登記法人,長野県,下高井郡野沢温泉村,大字豊郷６４５６番地１,,20,563,3892502,,,,,,,2024-10-02,1,,,,,タイヨウコウセイカツケンキュウジョ,0
393,2120001268853,新規,0,2024-10-02,2024-10-02,Ｃｕｒｏｆｕｎｅ株式会社,,株式会社,大阪府,大阪市東淀川区,東中島３丁目２番６号１Ｆ,,27,114,5330033,,,,,,,2024-10-02,1,,,,,クロフネ,0
394,2120001268894,新規,0,2024-10-02,2024-10-02,金庭株式会社,,株式会社,大阪府,大阪市浪速区,浪速東１丁目２番３号１０２号,,27,111,5560025,,,,,,,2024-10-02,1,,,,,キンテイ,0
395,2120001268911,新規,0,2024-10-02,2024-10-02,株式会社Ｒ＆Ｄ　Ｉｎｔｅｒｎａｔｉｏｎａｌ　Ｈｏｌｄｉｎｇｓ,,株式会社,大阪府,大阪市城東区,野江３丁目２７番８号２０２号室,,27,118,5360006,,,,,,,2024-10-02,1,,,,,アールアンドディーインターナショナルホールデングス,0
396,2120001268928,新規,0,2024-10-02,2024-10-02,株式会社リクトウミ,,株式会社,大阪府,大阪市北区,角田町８－１大阪梅田ツインタワーズ・ノース１９Ｆ,,27,127,5300017,,,,,,,2024-10-02,1,,,,,リクトウミ,0
397,2120001268936,新規,0,2024-10-02,2024-10-02,株式会社ＴＧＣ,,株式会社,大阪府,大阪市港区,弁天３丁目１０番２０号１,,27,107,5520007,,,,,,,2024-10-02,1,,,,,ティージーシー,0
398,2120001268969,新規,0,2024-10-02,2024-10-02,ヤマト興産ホールディングス株式会社,,株式会社,大阪府,大阪市天王寺区,上汐６丁目３番１２号,,27,109,5430002,,,,,,,2024-10-02,1,,,,,ヤマトコウサンホールディングス,0
401,2120003027621,新規,0,2024-10-02,2024-10-02,合同会社ルフト一級建築士事務所,,合同会社,大阪府,大阪市中央区,久太郎町４丁目１番３号大阪センタービル６階３２４,,27,128,5410056,,,,,,,2024-10-02,1,,,,,ルフトイッキュウケンチクシジムショ,0
402,2120005024559,新規,0,2024-10-02,2024-10-02,ずし社会保険労務士法人,,その他の設立登記法人,大阪府,大阪市中央区,南新町２丁目３番７号塚本ビル７階税理士法人日根野会計事務所内,,27,128,5400024,,,,,,,2024-10-02,1,,,,,ズシシャカイホケン,0
404,2120101070358,新規,0,2024-10-02,2024-10-02,晨星株式会社,,株式会社,大阪府,泉佐野市,上町３丁目９－３４,,27,213,5980007,,,,,,,2024-10-02,1,,,,,シンセイ,0
405,2120101070366,新規,0,2024-10-02,2024-10-02,株式会社スマイルシード,,株式会社,大阪府,堺市中区,深井沢町３３４２番地プラザＯＭ１階,,27,142,5998236,,,,,,,2024-10-02,1,,,,,スマイルシード,0
420,2140001135936,新規,0,2024-10-02,2024-10-02,株式会社Ｈｅａｌ,,株式会社,兵庫県,明石市,大久保町大窪１５３５番地の７,,28,203,6740051,,,,,,,2024-10-02,1,,,,,ヒール,0
421,2140001135952,新規,0,2024-10-02,2024-10-02,ｍｉｃｏｍｉａ株式会社,,株式会社,兵庫県,神戸市中央区,磯辺通１丁目１番１８号カサベラ国際プラザビル７０７号室,,28,110,6510084,,,,,,,2024-10-02,1,,,,,ミコミア,0
428,2160001026258,新規,0,2024-10-02,2024-10-02,株式会社にゃんこのおうち,,株式会社,滋賀県,近江八幡市,桜宮町２１４番地１７,,25,204,5230893,,,,,,,2024-10-02,1,,,,,,0
431,2160005011347,新規,0,2024-10-02,2024-10-02,医療法人翠蓮会,,その他の設立登記法人,滋賀県,守山市,金森町６０３番地１,,25,207,5240045,,,,,,,2024-10-02,1,,,,,スイレンカイ,0
439,2180001163462,新規,0,2024-10-02,2024-10-02,株式会社Ｎワン,,株式会社,愛知県,一宮市,浅井町河田字寺屋敷３５９,,23,203,4910142,,,,,,,2024-10-02,1,,,,,エヌワン,0
440,2180001163479,新規,0,2024-10-02,2024-10-02,株式会社ミライ屋,,株式会社,愛知県,名古屋市中区,丸の内２丁目１５番１２号,,23,106,4600002,,,,,,,2024-10-02,1,,,,,ミライヤ,0
442,2180003027418,新規,0,2024-10-02,2024-10-02,合同会社ＧＯＬＤＥＮ　ＤＲＥＡＭ,,合同会社,愛知県,名古屋市中川区,山王１丁目４番２９号リヴェール山王３０２号,,23,110,4540011,,,,,,,2024-10-02,1,,,,,ゴールデンドリーム,0
446,2190001031676,新規,0,2024-10-02,2024-10-02,株式会社グラバス,,株式会社,三重県,桑名市,長島町西外面２２１１番地３,,24,205,5111143,,,,,,,2024-10-02,1,,,,,グラバス,0
447,2190003004812,新規,0,2024-10-02,2024-10-02,Ｓｅｖｅｎ　Ｐｌａｎｎｅｒ合同会社,,合同会社,三重県,津市,大門３３番５号,,24,201,5140027,,,,,,,2024-10-02,1,,,,,セブンプランナー,0
453,2220001026227,新規,0,2024-10-02,2024-10-02,株式会社Ｚｅｒｏ　Ｃｏｎｓｔｒｕｃｔｉｏｎ,,株式会社,石川県,鹿島郡中能登町,二宮ハ部１３８番地,,17,407,9291811,,,,,,,2024-10-02,1,,,,,,0
454,2220001026235,新規,0,2024-10-02,2024-10-02,株式会社道下工建,,株式会社,石川県,鳳珠郡能登町,字鵜川１８字１２５番１地,,17,463,9270302,,,,,,,2024-10-02,1,,,,,ミチシタコウケン,0
459,2230001020542,新規,0,2024-10-02,2024-10-02,キリイ電器株式会社,,株式会社,富山県,富山市,八尾町井田４９３２番地５,,16,201,9392306,,,,,,,2024-10-02,1,,,,,キリイデンキ,0
466,2260001039506,新規,0,2024-10-02,2024-10-02,株式会社Ｒｕｃｉａｓ,,株式会社,岡山県,倉敷市,児島下の町３丁目８番４号,,33,202,7110906,,,,,,,2024-10-02,1,,,,,ルシアス,0
468,2280001009267,新規,0,2024-10-02,2024-10-02,株式会社モカミ工業,,株式会社,島根県,安来市,荒島町２９８９番地３,,32,206,6920007,,,,,,,2024-10-02,1,,,,,モカミコウギョウ,0
473,2290003015840,新規,0,2024-10-02,2024-10-02,大吉合同会社,,合同会社,福岡県,福岡市中央区,西公園６－１プランタン西公園２０４室,,40,133,8100061,,,,,,,2024-10-02,1,,,,,ダイキチ,0
474,2290003015857,新規,0,2024-10-02,2024-10-02,合同会社ｏｌｉｖｅｒ,,合同会社,福岡県,福岡市西区,姪の浜５丁目７番１３－１０２号,,40,135,8190002,,,,,,,2024-10-02,1,,,,,オリバー,0
475,2290801030925,新規,0,2024-10-02,2024-10-02,株式会社Ｓ．Ｓ．Ｍ,,株式会社,福岡県,北九州市若松区,藤ノ木２丁目６番４５号,,40,103,8080074,,,,,,,2024-10-02,1,,,,,エスエスエム,0
476,2290805009775,新規,0,2024-10-02,2024-10-02,特定非営利活動法人ＲＥＡＬコンパス,,その他の設立登記法人,福岡県,直方市,大字頓野９７０番地,,40,204,8220002,,,,,,,2024-10-02,1,,,,,リアルコンパス,0
480,2330001032486,新規,0,2024-10-02,2024-10-02,ｃｌｅｓｓ株式会社,,株式会社,熊本県,熊本市西区,横手５丁目６番２１号,,43,103,8600046,,,,,,,2024-10-02,1,,,,,クレス,0
481,2330001032503,新規,0,2024-10-02,2024-10-02,ＪＥＳＭ株式会社,,株式会社,熊本県,熊本市中央区,神水本町１番９３－３０２号,,43,101,8620955,,,,,,,2024-10-02,1,,,,,ジェスム,0
482,2330001032511,新規,0,2024-10-02,2024-10-02,株式会社スクラム,,株式会社,熊本県,熊本市東区,水源１丁目１３番２６号,,43,102,8620907,,,,,,,2024-10-02,1,,,,,スクラム,0
483,2330003010580,新規,0,2024-10-02,2024-10-02,合同会社ｄｅｓｉｇｎ　ｍ,,合同会社,熊本県,八代市,西片町２０３９－１グランドメゾン２０２号室,,43,202,8660811,,,,,,,2024-10-02,1,,,,,デザインエム,0
491,2360003014323,新規,0,2024-10-02,2024-10-02,合同会社ロイポケＪ,,合同会社,沖縄県,那覇市,おもろまち４丁目１６番５号サンライズＧＩＮＯＺＡ３０３,,47,201,9000006,,,,,,,2024-10-02,1,,,,,ロイポケジェイ,0
495,2380003005865,新規,0,2024-10-02,2024-10-02,合同会社まごころ,,合同会社,福島県,郡山市,富田町字下西田５３－１２－Ｂ２０２,,07,203,9638041,,,,,,,2024-10-02,1,,,,,マゴコロ,0
496,2400001016795,新規,0,2024-10-02,2024-10-02,株式会社宙の里,,株式会社,岩手県,花巻市,太田４７地割２４９番地６,,03,205,0250037,,,,,,,2024-10-02,1,,,,,ソラノサト,0
502,2430001092768,新規,0,2024-10-02,2024-10-02,株式会社リシアン,,株式会社,北海道,札幌市北区,屯田四条４丁目２番２５号,,01,102,0020854,,,,,,,2024-10-02,1,,,,,リシアン,0
507,2480001012606,新規,0,2024-10-02,2024-10-02,株式会社Ｇ,,株式会社,徳島県,阿南市,羽ノ浦町宮倉日開元１９番地１ライトハウスビル２Ｆ－ｂ,,36,204,7791102,,,,,,,2024-10-02,1,,,,,ジー,0
513,2500001025910,新規,0,2024-10-02,2024-10-02,株式会社えみりや,,株式会社,愛媛県,今治市,常盤町８丁目３番８号,,38,202,7940015,,,,,,,2024-10-02,1,,,,,エミリヤ,0
514,2700150115599,新規,0,2024-10-02,2024-10-02,ＴＨＥ　ＬＥＶＥＬ　Ｓ．Ｒ．Ｌ．,,外国会社等,,,,,,,,ＭＩＬＡＮＯ（ＭＩ）ＰＩＡＺＺＡ　ＡＲＣＯＬＥ４　ＣＡＰ２０１４３　ＩＴＡＬＹ,,,,,,2024-10-02,1,,,,,ザレベルエスアールエル,0
515,2700150127388,新規,0,2024-10-02,2024-10-02,ＡＬＰＩＮＥ　ＴＥＣＨＮＯＬＯＧＹ　ＨＯＬＤＩＮＧＳ　ＬＩＭＩＴＥＤ,,外国会社等,,,,,,,,６６－８２　Ｃｈａｉ　Ｗａｎ　Ｋｏｋ　Ｓｔ．Ｒｏｏｍ　４０Ｇ，Ｂｌｋ　ＡＤ，１９／Ｆ，Ｇｏｌｄｅｎ　Ｂｅａｒ　Ｉｎｄ．Ｃｔｒ　Ｔｓｕｅｎ　Ｗａｎ　ＮＴ　ＨＫ,,,,,,2024-10-02,1,,,,,アルパインテクノロジーホールディングスリミテッド,0
526,3010001248568,新規,0,2024-10-02,2024-10-02,エーオンＰＡＭ株式会社,,株式会社,東京都,中央区,日本橋室町１丁目２番６号,,13,102,1030022,,,,,,,2024-10-02,1,,,,,エーオンパム,0
527,3010001248691,新規,0,2024-10-02,2024-10-02,株式会社Ｃｌａｓｓｒｏｏｍ　Ａｄｖｅｎｔｕｒｅ,,株式会社,東京都,中央区,新川１丁目７番２号,,13,102,1040033,,,,,,,2024-10-02,1,,,,,クラスルームアドベンチャー,0
528,3010001248741,新規,0,2024-10-02,2024-10-02,株式会社Ｌｅｍｏｎｅｄ,,株式会社,東京都,千代田区,神田松永町１７番３号８Ｆ,,13,101,1010023,,,,,,,2024-10-02,1,,,,,レモネード,0
532,3010003044858,新規,0,2024-10-02,2024-10-02,ＨＯＫＵＴＯ　ＥＮＴＥＲＰＲＩＳＥ合同会社,,合同会社,東京都,中央区,銀座１丁目１２番４号Ｎ＆ＥＢＬＤ．６Ｆ,,13,102,1040061,,,,,,,2024-10-02,1,,,,,ホクトエンタープライズ,0
533,3010005038882,新規,0,2024-10-02,2024-10-02,一般社団法人在宅医療ＱＯＬ向上推進協会,,その他の設立登記法人,東京都,中央区,築地４丁目１番１７号銀座大野ビル１階,,13,102,1040045,,,,,,,2024-10-02,1,,,,,ザイタクイリョウキューオーエルコウジョウスイシンキョウカイ,0
534,3010101016338,新規,0,2024-10-02,2024-10-02,株式会社ＮＡＫホールディングス,,株式会社,東京都,八王子市,東町１２番８号長澤ビル５Ｆ,,13,201,1920082,,,,,,,2024-10-02,1,,,,,ナックホールディングス,0
537,3010401185460,新規,0,2024-10-02,2024-10-02,株式会社ＬｉｆｔＢａｓｅ,,株式会社,東京都,港区,南青山３丁目１番３６号青山丸竹ビル６Ｆ,,13,103,1070062,,,,,,,2024-10-02,1,,,,,リフトベース,0
541,3010403033535,新規,0,2024-10-02,2024-10-02,Ｂｏｔｒｉｓｔａ合同会社,,合同会社,東京都,港区,元麻布３丁目１番６号,,13,103,1060046,,,,,,,2024-10-02,1,,,,,ボトリスタ,0
548,3010603011126,新規,0,2024-10-02,2024-10-02,翔紫閣コンサルティング合同会社,,合同会社,東京都,墨田区,横川３丁目６番７号２－Ｏ室,,13,107,1300003,,,,,,,2024-10-02,1,,,,,ショウシカクコンサルティング,0
549,3010701046610,新規,0,2024-10-02,2024-10-02,ＣＲＥＡＳＵ株式会社,,株式会社,東京都,品川区,東五反田５丁目２７番１０号野村ビル９階,,13,109,1410022,,,,,,,2024-10-02,1,,,,,クレアス,0
551,3010903009373,新規,0,2024-10-02,2024-10-02,合同会社ＲＭ企画,,合同会社,東京都,世田谷区,奥沢４丁目５番１－４０３号,,13,112,1580083,,,,,,,2024-10-02,1,,,,,アールエムキカク,0
556,3011001164912,新規,0,2024-10-02,2024-10-02,株式会社Ｌａ　Ｂｒｉｌｌｅｒ,,株式会社,東京都,渋谷区,広尾１丁目１５－８ユニーブル恵比寿１０１,,13,113,1500012,,,,,,,2024-10-02,1,,,,,ラブリエ,0
557,3011001164920,新規,0,2024-10-02,2024-10-02,ＡＲＣＨ株式会社,,株式会社,東京都,渋谷区,上原３丁目７－１３,,13,113,1510064,,,,,,,2024-10-02,1,,,,,アーチ,0
558,3011001164945,新規,0,2024-10-02,2024-10-02,株式会社クアトロ,,株式会社,東京都,渋谷区,神宮前６丁目２３－４桑野ビル２階,,13,113,1500001,,,,,,,2024-10-02,1,,,,,クアトロ,0
559,3011001164961,新規,0,2024-10-02,2024-10-02,株式会社ＳＦＫ,,株式会社,東京都,目黒区,鷹番２丁目１９番５号フローラルアーツビル４階,,13,110,1520004,,,,,,,2024-10-02,1,,,,,エスエフケイ,0
562,3011003020122,新規,0,2024-10-02,2024-10-02,むむむ合同会社,,合同会社,東京都,渋谷区,恵比寿西１丁目３番９号田中ビル２階,,13,113,1500021,,,,,,,2024-10-02,1,,,,,ムムム,0
568,3011101108926,新規,0,2024-10-02,2024-10-02,Ｇｒｅｅｎ　Ｃａｐｉｔｏｌ株式会社,,株式会社,東京都,新宿区,市谷田町３丁目８番市ヶ谷科学技術ビル２階,,13,104,1620843,,,,,,,2024-10-02,1,,,,,グリーンキャピトル,0
575,3011701027658,新規,0,2024-10-02,2024-10-02,株式会社Ｐｏｉｎｔ　Ｎｅｍｏ,,株式会社,東京都,江戸川区,本一色２丁目１８－２,,13,123,1330044,,,,,,,2024-10-02,1,,,,,ポイントネモ,0
581,3012403006768,新規,0,2024-10-02,2024-10-02,合同会社フォーエス,,合同会社,東京都,三鷹市,上連雀３丁目３番８号,,13,204,1810012,,,,,,,2024-10-02,1,,,,,フォーエス,0
582,3012801023472,新規,0,2024-10-02,2024-10-02,株式会社ｃｉｎｑ,,株式会社,東京都,日野市,多摩平２丁目５－１,,13,212,1910062,,,,,,,2024-10-02,1,,,,,サンク,0
587,3013103001373,新規,0,2024-10-02,2024-10-02,ＳＵＮＰＡＮ合同会社,,合同会社,東京都,福生市,大字福生８８７番地２山上ビル３０３号室,,13,218,1970011,,,,,,,2024-10-02,1,,,,,,0
601,3020001159319,新規,0,2024-10-02,2024-10-02,株式会社多喜蔵,,株式会社,神奈川県,横浜市神奈川区,金港町５－１４クアドリフォリオ８階,,14,102,2210056,,,,,,,2024-10-02,1,,,,,タキゾー,0
602,3020001159368,新規,0,2024-10-02,2024-10-02,邦栄興業株式会社,,株式会社,神奈川県,横浜市港南区,港南６丁目３４番９号,,14,111,2330003,,,,,,,2024-10-02,1,,,,,ホウエイコウギョウ,0
619,3030001162560,新規,0,2024-10-02,2024-10-02,金澤設備株式会社,,株式会社,埼玉県,さいたま市桜区,田島９丁目２４番８号,,11,106,3380837,,,,,,,2024-10-02,1,,,,,カナザワセツビ,0
624,3030003025220,新規,0,2024-10-02,2024-10-02,合同会社スタンドリバー,,合同会社,埼玉県,新座市,東北２丁目３４番２－１２０７号,,11,230,3520001,,,,,,,2024-10-02,1,,,,,スタンドリバー,0
625,3030005021861,新規,0,2024-10-02,2024-10-02,一般社団法人ママリス,,その他の設立登記法人,埼玉県,越谷市,越ヶ谷３丁目３－１６－２Ｆ,,11,222,3430813,,,,,,,2024-10-02,1,,,,,ママリス,0
629,3040001135557,新規,0,2024-10-02,2024-10-02,株式会社カズン,,株式会社,千葉県,富津市,竹岡１７３－９１,,12,226,2991621,,,,,,,2024-10-02,1,,,,,カズン,0
630,3040001135573,新規,0,2024-10-02,2024-10-02,株式会社エストレア,,株式会社,千葉県,松戸市,松戸１３０７番地の１松戸ビル１３Ｆ,,12,207,2710092,,,,,,,2024-10-02,1,,,,,エストレア,0
631,3040001135615,新規,0,2024-10-02,2024-10-02,株式会社Ｓ‐ＬＩＮＥ,,株式会社,千葉県,鎌ケ谷市,くぬぎ山１丁目９番１５号,,12,224,2730128,,,,,,,2024-10-02,1,,,,,エスライン,0
632,3040001135623,新規,0,2024-10-02,2024-10-02,株式会社ＳＵＮＡＱ,,株式会社,千葉県,市原市,八幡８２３番地３,,12,219,2900062,,,,,,,2024-10-02,1,,,,,サナック,0
633,3040001135631,新規,0,2024-10-02,2024-10-02,株式会社三石,,株式会社,千葉県,千葉市稲毛区,園生町５４８番地４１,,12,103,2630051,,,,,,,2024-10-02,1,,,,,ミツイシ,0
635,3050001055465,新規,0,2024-10-02,2024-10-02,株式会社Ｐｉｅｃｅ　ｏｆ　ＣＡＫＥ,,株式会社,茨城県,水戸市,笠原町６９０番地の９,,08,201,3100852,,,,,,,2024-10-02,1,,,,,ピースオブケイク,0
645,3080001026521,新規,0,2024-10-02,2024-10-02,レコードデスク株式会社,,株式会社,静岡県,静岡市葵区,あさはた２丁目１３―１,,22,101,4200968,,,,,,,2024-10-02,1,,,,,レコードデスク,0
646,3080003003295,新規,0,2024-10-02,2024-10-02,合同会社コロコロ,,合同会社,静岡県,静岡市駿河区,青木３０３番地の３,,22,102,4210134,,,,,,,2024-10-02,1,,,,,コロコロ,0
648,3080403005107,新規,0,2024-10-02,2024-10-02,合同会社ライサポ,,合同会社,静岡県,浜松市中央区,入野町１６４０７番地の９,,22,138,4328061,,,,,,,2024-10-02,1,,,,,ライサポ,0
654,3100003007797,新規,0,2024-10-02,2024-10-02,空き家ｒｅｕｓｅらぼ合同会社,,合同会社,長野県,塩尻市,大門七番町１４番１８号,,20,215,3990738,,,,,,,2024-10-02,1,,,,,アキヤリユースラボ,0
667,3120001268836,新規,0,2024-10-02,2024-10-02,夥伴株式会社,,株式会社,大阪府,大阪市平野区,長吉出戸２丁目４－３７号,,27,126,5470011,,,,,,,2024-10-02,1,,,,,カハン,0
668,3120001268869,新規,0,2024-10-02,2024-10-02,株式会社ＮＥＯ,,株式会社,大阪府,大阪市生野区,桃谷１丁目１０番４９号,,27,116,5440034,,,,,,,2024-10-02,1,,,,,ネオ,0
669,3120001268885,新規,0,2024-10-02,2024-10-02,芸境合創建築内装設計株式会社,,株式会社,大阪府,大阪市都島区,中野町４丁目３番６号Ｈ２Ｈ大阪桜之宮邸２Ｅ－２,,27,102,5340027,,,,,,,2024-10-02,1,,,,,ゲイキョウゴウソウケンチクナイソウセッケイ,0
670,3120001268893,新規,0,2024-10-02,2024-10-02,山泰食品株式会社,,株式会社,大阪府,大阪市西成区,橘１丁目１１番２８号オフィスポート橘５０７号室,,27,122,5570051,,,,,,,2024-10-02,1,,,,,サンタイショクヒン,0
671,3120001268902,新規,0,2024-10-02,2024-10-02,株式会社Ｒｅ　Ｌｉｇｈｔ,,株式会社,大阪府,大阪市北区,中崎１丁目３番１４－７０２号,,27,127,5300016,,,,,,,2024-10-02,1,,,,,リライト,0
672,3120001268992,新規,0,2024-10-02,2024-10-02,株式会社５０８レンタカー,,株式会社,大阪府,大阪市西区,南堀江４丁目４番２０－５０３号,,27,106,5500015,,,,,,,2024-10-02,1,,,,,ゴーマルハチレンタカー,0
675,3120003027604,新規,0,2024-10-02,2024-10-02,Ｃ＆Ｔ合同会社,,合同会社,大阪府,大阪市北区,梅田１丁目１３－１大阪梅田ツインタワーズサウス１５階,,27,127,5300001,,,,,,,2024-10-02,1,,,,,シーアンドティー,0
676,3120003027645,新規,0,2024-10-02,2024-10-02,合同会社大縁,,合同会社,大阪府,大阪市淀川区,十三本町１丁目１３－１８ｌｕｘｅ十三３０３,,27,123,5320024,,,,,,,2024-10-02,1,,,,,ダイエン,0
677,3120005024558,新規,0,2024-10-02,2024-10-02,一般社団法人池田泉州奨学基金,,その他の設立登記法人,大阪府,大阪市北区,茶屋町１８番１４号,,27,127,5300013,,,,,,,2024-10-02,1,,,,,イケダセンシュウショウガクキキン,0
678,3120101070340,新規,0,2024-10-02,2024-10-02,株式会社Ａ・ＫＩＴＳＵ,,株式会社,大阪府,堺市南区,豊田１２２４番地１,,27,145,5900106,,,,,,,2024-10-02,1,,,,,アキツ,0
679,3120901049807,新規,0,2024-10-02,2024-10-02,株式会社Ａｕｂｅ,,株式会社,大阪府,吹田市,津雲台４丁目２番５号,,27,205,5650862,,,,,,,2024-10-02,1,,,,,オーブ,0
686,3140001135935,新規,0,2024-10-02,2024-10-02,株式会社竹友水産,,株式会社,兵庫県,洲本市,由良町内田２３番地１,,28,205,6562542,,,,,,,2024-10-02,1,,,,,タケトモスイサン,0
687,3140001135943,新規,0,2024-10-02,2024-10-02,株式会社ムサシ,,株式会社,兵庫県,神戸市東灘区,本山中町２丁目１番１４号,,28,101,6580016,,,,,,,2024-10-02,1,,,,,ムサシ,0
689,3140005027220,新規,0,2024-10-02,2024-10-02,一般社団法人Ａｓｈｉｙａ　Ｓｐｏｒｔｓ　Ｆｏｒ　Ａｌｌ,,その他の設立登記法人,兵庫県,芦屋市,大桝町７番２号,,28,206,6590066,,,,,,,2024-10-02,1,,,,,アシヤスポーツフォーオール,0
690,3150001027586,新規,0,2024-10-02,2024-10-02,株式会社ｕｌｕ,,株式会社,奈良県,大和郡山市,小泉町１５８１番地７,,29,203,6391042,,,,,,,2024-10-02,1,,,,,ウル,0
692,3160001026249,新規,0,2024-10-02,2024-10-02,株式会社Ｍシステム,,株式会社,滋賀県,栗東市,下戸山１０９４番地４,,25,208,5203011,,,,,,,2024-10-02,1,,,,,エムシステム,0
697,3180001163461,新規,0,2024-10-02,2024-10-02,株式会社ふく,,株式会社,愛知県,名古屋市中村区,稲上町５丁目９１番地,,23,105,4530066,,,,,,,2024-10-02,1,,,,,フク,0
698,3180001163478,新規,0,2024-10-02,2024-10-02,株式会社シェノン,,株式会社,愛知県,名古屋市瑞穂区,玉水町２丁目２２番地２,,23,108,4670046,,,,,,,2024-10-02,1,,,,,シェノン,0
701,3180003027409,新規,0,2024-10-02,2024-10-02,合同会社メリウスパートナーズ,,合同会社,愛知県,名古屋市守山区,鼓が丘２丁目７０３番地,,23,113,4630807,,,,,,,2024-10-02,1,,,,,メリウスパートナーズ,0
702,3180003027417,新規,0,2024-10-02,2024-10-02,合同会社ｗｉｔｈ　ｙｏｕ,,合同会社,愛知県,一宮市,栄４丁目２番１号,,23,203,4910858,,,,,,,2024-10-02,1,,,,,ウィズユー,0
703,3180003027425,新規,0,2024-10-02,2024-10-02,合同会社ＳＡＭ,,合同会社,愛知県,名古屋市中村区,砂田町１丁目４０－１コーポしば１階,,23,105,4530056,,,,,,,2024-10-02,1,,,,,エスエーエム,0
706,3180303006269,新規,0,2024-10-02,2024-10-02,ここいの合同会社,,合同会社,愛知県,豊川市,東光町１丁目３５,,23,207,4420022,,,,,,,2024-10-02,1,,,,,ココイノ,0
714,3200001042976,新規,0,2024-10-02,2024-10-02,株式会社ＪＦＥＭ,,株式会社,岐阜県,各務原市,那加門前町２丁目４番地サウスパークＢ１・１Ｆ,,21,213,5040911,,,,,,,2024-10-02,1,,,,,ジェフェム,0
715,3200001042984,新規,0,2024-10-02,2024-10-02,株式会社ＡＭＵＳＥ,,株式会社,岐阜県,関市,下有知１９７番地２,,21,205,5013217,,,,,,,2024-10-02,1,,,,,アミューズ,0
718,3200003006525,新規,0,2024-10-02,2024-10-02,合同会社ＭＯＮ．ＣＯＬＯＲ,,合同会社,岐阜県,多治見市,御幸町２丁目６６番地,,21,204,5070834,,,,,,,2024-10-02,1,,,,,モンドットカラー,0
723,3210001019932,新規,0,2024-10-02,2024-10-02,株式会社ソラスエンジニアリング,,株式会社,福井県,福井市,大森町第２１号２１番地,,18,201,9103634,,,,,,,2024-10-02,1,,,,,ソラスエンジニアリング,0
731,3260001039513,新規,0,2024-10-02,2024-10-02,株式会社４４,,株式会社,岡山県,倉敷市,藤戸町藤戸１８４３番地２,,33,202,7100133,,,,,,,2024-10-02,1,,,,,ヨンヨン,0
732,3270003001676,新規,0,2024-10-02,2024-10-02,ＬＡＮＫａ合同会社,,合同会社,鳥取県,鳥取市,面影２丁目１４番３号,,31,201,6800855,,,,,,,2024-10-02,1,,,,,,0
739,3290001107333,新規,0,2024-10-02,2024-10-02,株式会社Ｉｓｓｈｉｎ,,株式会社,福岡県,那珂川市,大字西畑９０４－１,,40,231,8111246,,,,,,,2024-10-02,1,,,,,イッシン,0
740,3290001107374,新規,0,2024-10-02,2024-10-02,株式会社ＥＮＬＩＮＫ,,株式会社,福岡県,福岡市博多区,博多駅南４丁目１２番３－３０６号,,40,132,8120016,,,,,,,2024-10-02,1,,,,,エンリンク,0
741,3290003015872,新規,0,2024-10-02,2024-10-02,合同会社ルリアン,,合同会社,福岡県,糟屋郡志免町,御手洗２丁目３番１－４０２号,,40,343,8112206,,,,,,,2024-10-02,1,,,,,ルリアン,0
744,3310003004872,新規,0,2024-10-02,2024-10-02,合同会社松利,,合同会社,長崎県,南島原市,西有家町里坊１５３番地１,,42,214,8592211,,,,,,,2024-10-02,1,,,,,マツリ,0
747,3320003004483,新規,0,2024-10-02,2024-10-02,合同会社ＡＳＫ,,合同会社,大分県,大分市,羽屋新町２丁目３番６号,,44,201,8700853,,,,,,,2024-10-02,1,,,,,エーエスケイ,0
749,3330001032502,新規,0,2024-10-02,2024-10-02,株式会社杉本青果,,株式会社,熊本県,熊本市西区,上代８丁目２２－１８,,43,103,8600068,,,,,,,2024-10-02,1,,,,,スギモトセイカ,0
753,3340001026833,新規,0,2024-10-02,2024-10-02,株式会社フローリッシュ梶原,,株式会社,鹿児島県,鹿児島市,唐湊１丁目２８番１６号,,46,201,8900081,,,,,,,2024-10-02,1,,,,,フローリッシュカジハラ,0
754,3340003004622,新規,0,2024-10-02,2024-10-02,合同会社税優サポート,,合同会社,鹿児島県,鹿児島市,新町３番地７号小畑ビル４階,,46,201,8920832,,,,,,,2024-10-02,1,,,,,ゼイユウサポート,0
757,3360003014347,新規,0,2024-10-02,2024-10-02,合同会社ながた,,合同会社,沖縄県,那覇市,松尾２丁目１９番３９－５０７号グリーンハイツ那覇,,47,201,9000014,,,,,,,2024-10-02,1,,,,,ナガタ,0
762,3390001017753,新規,0,2024-10-02,2024-10-02,株式会社Ｇ’ｓ,,株式会社,山形県,新庄市,大字本合海１６３０番地の３,,06,205,9960112,,,,,,,2024-10-02,1,,,,,ジーズ,0
766,3430001092767,新規,0,2024-10-02,2024-10-02,輝凡実業株式会社,,株式会社,北海道,恵庭市,島松寿町１丁目１７番地８奥山ハイツ,,01,231,0611355,,,,,,,2024-10-02,1,,,,,キホジツギョウ,0
768,3450001014422,新規,0,2024-10-02,2024-10-02,株式会社Ｌｕｘｅｉ,,株式会社,北海道,旭川市,末広五条１０丁目５番１号,,01,204,0718135,,,,,,,2024-10-02,1,,,,,ルクシー,0
771,3470003002720,新規,0,2024-10-02,2024-10-02,合同会社ＭＩＫＬ,,合同会社,香川県,丸亀市,川西町北１６７番地１フォブール溝渕１０２号,,37,202,7630091,,,,,,,2024-10-02,1,,,,,ミクル,0
778,3700150127387,新規,0,2024-10-02,2024-10-02,ｇｕａｎｇｚｈｏｕｙｏｕｐｅｎｇｍａｏｙｉｙｏｕｘｉａｎｇｏｎｇｓｉ,,外国会社等,,,,,,,,Ｎｏ．７７６，Ｒｏｏｍ　２７１９，２７ｔｈ　Ｆｌｏｏｒ，Ｊｉｎｙｉｎｇ　Ｂｕｉｌｄｉｎｇ，３１６　Ｈｕａｎｓｈｉ　Ｍｉｄｄｌｅ　Ｒｏａｄ，Ｙｕｅｘｉｕ　Ｄｉｓｔｒｉｃｔ，Ｇｕａｎｇｚｈｏｕ　Ｃｉｔｙ,,,,,,2024-10-02,1,,,,,コウシュウユウペンマオイユウゲンコウシ,0
779,3700150127395,新規,0,2024-10-02,2024-10-02,ｚｈｅｊｉａｎｇｆａｎｙｕｎｙｏｕｓｈａｎｇｔｅｃｈｎｏｌｏｇｙｃｏｌｔｄ,,外国会社等,,,,,,,,Ｐｕｔｉａｎ　ｉｎｄｕｓｔｒｉａｌ　ｚｏｎｅ，Ｃｈｕｍｅｎ　ｔｏｗｎ，Ｙｕｈｕａｎ　ｃｉｔｙ，Ｚｈｅｊｉａｎｇ,,,,,,2024-10-02,1,,,,,ジョーァジアーンファンユインヨウシャーンコーァジーヨウシエンゴーンスー,0
786,4010001248583,新規,0,2024-10-02,2024-10-02,株式会社Ｋｕｌａｍ　Ｆｕｓｉｏｎ　Ｃｏｌｌｅｃｔｉｖｅ,,株式会社,東京都,千代田区,飯田橋１丁目１０番５号２階,,13,101,1020072,,,,,,,2024-10-02,1,,,,,クラムフュージョンコレクティブ,0
787,4010003045021,新規,0,2024-10-02,2024-10-02,合同会社Ｈｅａｌｔｈ＆Ａｇｉｎｇ　ｃａｒｅ,,合同会社,東京都,中央区,入船２丁目７番１－１００３号,,13,102,1040042,,,,,,,2024-10-02,1,,,,,ヘルスアンドエイジングケア,0
788,4010003045062,新規,0,2024-10-02,2024-10-02,ＷＡＢＩＳＡＢＩ合同会社,,合同会社,東京都,中央区,銀座２丁目１０番８号マニエラ銀座ビル４階,,13,102,1040061,,,,,,,2024-10-02,1,,,,,ワビサビ,0
792,4010401185443,新規,0,2024-10-02,2024-10-02,株式会社Ｂｉｇ５,,株式会社,東京都,港区,北青山２丁目７番９号,,13,103,1070061,,,,,,,2024-10-02,1,,,,,ビックファイブ,0
794,4010403033518,新規,0,2024-10-02,2024-10-02,ＢＥＮＳＯＮ合同会社,,合同会社,東京都,港区,芝浦２丁目１４－１８,,13,103,1080023,,,,,,,2024-10-02,1,,,,,ベンソン,0
795,4010403033550,新規,0,2024-10-02,2024-10-02,ｋｓａｎｉｋａ合同会社,,合同会社,東京都,港区,北青山１丁目３－１アールキューブ青山３階,,13,103,1070061,,,,,,,2024-10-02,1,,,,,クシャニカ,0
796,4010405023624,新規,0,2024-10-02,2024-10-02,ＥＳＲ３６・２一般社団法人,,その他の設立登記法人,東京都,港区,浜松町１丁目２０番１０号ライオネス浜松町５０６号室,,13,103,1050013,,,,,,,2024-10-02,1,,,,,イーエスアールサンジュウロクニ,0
805,4010803005117,新規,0,2024-10-02,2024-10-02,合同会社１９４,,合同会社,東京都,大田区,大森本町１丁目９番１号シーサイド下川６０５,,13,111,1430011,,,,,,,2024-10-02,1,,,,,イチキュウヨン,0
812,4011001164928,新規,0,2024-10-02,2024-10-02,株式会社コネクロ,,株式会社,東京都,渋谷区,渋谷２丁目１９－１５宮益坂ビルディング６０９,,13,113,1500002,,,,,,,2024-10-02,1,,,,,コネクロ,0
814,4011003020105,新規,0,2024-10-02,2024-10-02,合同会社ｈａｋｕｒｏｏｍ,,合同会社,東京都,渋谷区,富ヶ谷１丁目２７－１５岩田アパートＣ２０５,,13,113,1510063,,,,,,,2024-10-02,1,,,,,ハクルーム,0
824,4011401026463,新規,0,2024-10-02,2024-10-02,株式会社ＫＦ．Ｂａｃｃａｒａｔ,,株式会社,東京都,板橋区,小豆沢２丁目８番１１－５０６号,,13,119,1740051,,,,,,,2024-10-02,1,,,,,ケーエフバカラ,0
825,4011501031198,新規,0,2024-10-02,2024-10-02,株式会社ＮＥＸＴ‐ＳＴＥＰ,,株式会社,東京都,荒川区,東日暮里４丁目３３－１１サウスコーポ４０１,,13,118,1160014,,,,,,,2024-10-02,1,,,,,ネクストステップ,0
834,4012401042327,新規,0,2024-10-02,2024-10-02,株式会社ＡＭＡＮ,,株式会社,東京都,三鷹市,下連雀３丁目２２番９号,,13,204,1810013,,,,,,,2024-10-02,1,,,,,アマン,0
835,4012401042335,新規,0,2024-10-02,2024-10-02,株式会社Ｉｋａｄａ,,株式会社,東京都,稲城市,矢野口３７５０－１９アートフル矢野口駅前ビル地下１階,,13,225,2060812,,,,,,,2024-10-02,1,,,,,イカダ,0
837,4012403006775,新規,0,2024-10-02,2024-10-02,合同会社ちょいふるジョイフル,,合同会社,東京都,調布市,深大寺東町４丁目１３－６,,13,208,1820012,,,,,,,2024-10-02,1,,,,,チョイフルジョイフル,0
838,4013101009525,新規,0,2024-10-02,2024-10-02,株式会社スリー・エイチ,,株式会社,東京都,福生市,大字熊川８０３番地１３,,13,218,1970003,,,,,,,2024-10-02,1,,,,,スリーエイチ,0
843,4020001159169,新規,0,2024-10-02,2024-10-02,株式会社ビルコークリーンサービス,,株式会社,神奈川県,横浜市神奈川区,子安通３丁目３０７番地,,14,102,2210021,,,,,,,2024-10-02,1,,,,,ビルコークリーンサービス,0
844,4020001159326,新規,0,2024-10-02,2024-10-02,Ｙ　Ｃｒｕｉｓｅ株式会社,,株式会社,神奈川県,横浜市中区,海岸通１丁目１番地,,14,104,2310002,,,,,,,2024-10-02,1,,,,,ワイクルーズ,0
845,4020001159334,新規,0,2024-10-02,2024-10-02,株式会社ビルズ,,株式会社,神奈川県,横浜市保土ケ谷区,上菅田町１０８０番地３,,14,106,2400051,,,,,,,2024-10-02,1,,,,,ビルズ,0
846,4020001159367,新規,0,2024-10-02,2024-10-02,Ｈ２株式会社,,株式会社,神奈川県,横浜市神奈川区,栄町１０番地３５ザ・ヨコハマタワーズＳ４１０号,,14,102,2210052,,,,,,,2024-10-02,1,,,,,エイチツー,0
848,4020003026961,新規,0,2024-10-02,2024-10-02,Ｒｙｕｍｉ合同会社,,合同会社,神奈川県,横浜市港南区,笹下２丁目２１番３５号,,14,111,2340052,,,,,,,2024-10-02,1,,,,,リュウミ,0
860,4021003015062,新規,0,2024-10-02,2024-10-02,こまち合同会社,,合同会社,神奈川県,鎌倉市,由比ガ浜３丁目６番４６号,,14,204,2480014,,,,,,,2024-10-02,1,,,,,コマチ,0
878,4040001135556,新規,0,2024-10-02,2024-10-02,株式会社ＭＳメタル,,株式会社,千葉県,柏市,今谷上町６１－３ジョイア南柏２０５,,12,217,2770074,,,,,,,2024-10-02,1,,,,,エムエスメタル,0
879,4040001135639,新規,0,2024-10-02,2024-10-02,タノ電気株式会社,,株式会社,千葉県,千葉市若葉区,大宮町２３２２番地,,12,104,2640016,,,,,,,2024-10-02,1,,,,,タノデンキ,0
880,4040001135671,新規,0,2024-10-02,2024-10-02,株式会社ＳＯＲＡ,,株式会社,千葉県,市川市,南行徳３丁目２３番３－４１０号,,12,203,2720138,,,,,,,2024-10-02,1,,,,,ソラ,0
892,4050005013501,新規,0,2024-10-02,2024-10-02,一般社団法人北関東住宅調査協会,,その他の設立登記法人,茨城県,取手市,白山６丁目２１番６号,,08,217,3020023,,,,,,,2024-10-02,1,,,,,キタカントウジュウタクチョウサキョウカイ,0
900,4080401027473,新規,0,2024-10-02,2024-10-02,株式会社セーフティポイント,,株式会社,静岡県,掛川市,亀の甲２丁目２３番４号,,22,213,4360028,,,,,,,2024-10-02,1,,,,,セーフティポイント,0
901,4090003002659,新規,0,2024-10-02,2024-10-02,ゴールドライン合同会社,,合同会社,山梨県,都留市,大野５２番地１８,,19,204,4020023,,,,,,,2024-10-02,1,,,,,ゴールドライン,0
904,4110001038751,新規,0,2024-10-02,2024-10-02,株式会社フレルル,,株式会社,新潟県,新潟市東区,牡丹山１丁目３０‐１５,,15,102,9500872,,,,,,,2024-10-02,1,,,,,フレルル,0
912,4120001268835,新規,0,2024-10-02,2024-10-02,大化地所株式会社,,株式会社,大阪府,大阪市東淀川区,東中島１丁目１７番５号ステュディオ新大阪１０５１号室,,27,114,5330033,,,,,,,2024-10-02,1,,,,,タイカジショ,0
913,4120001268950,新規,0,2024-10-02,2024-10-02,Ｓｕｎｓｈｉｎｅ　Ｔｉｍｅ株式会社,,株式会社,大阪府,大阪市東淀川区,下新庄２丁目１６番１２号,,27,114,5330021,,,,,,,2024-10-02,1,,,,,サンシャインタイム,0
914,4120001268959,新規,0,2024-10-02,2024-10-02,時間次元株式会社,,株式会社,大阪府,大阪市平野区,瓜破７丁目３番９号,,27,126,5470024,,,,,,,2024-10-02,1,,,,,ジカンジゲン,0
917,4120003027628,新規,0,2024-10-02,2024-10-02,Ａｉｒａｌｉｒａ合同会社,,合同会社,大阪府,大阪市北区,梅田１丁目２番２号大阪駅前第２ビル１２－１２,,27,127,5300001,,,,,,,2024-10-02,1,,,,,アイラリラ,0
919,4120005024557,新規,0,2024-10-02,2024-10-02,一般社団法人Ａｖｅｎｉｒ,,その他の設立登記法人,大阪府,大阪市西成区,南津守３丁目９番２５号,,27,122,5570063,,,,,,,2024-10-02,1,,,,,アヴニール,0
921,4120101070364,新規,0,2024-10-02,2024-10-02,株式会社Ｓｍｉｌｅ３２,,株式会社,大阪府,羽曳野市,古市２丁目６－１７メゾンエインシェント２０１,,27,222,5830852,,,,,,,2024-10-02,1,,,,,スマイルサーティートゥー,0
923,4120103006077,新規,0,2024-10-02,2024-10-02,合同会社Ｄｅｎｔａｌ　ＯＧ,,合同会社,大阪府,泉北郡忠岡町,忠岡東２丁目１７番１２号,,27,341,5950805,,,,,,,2024-10-02,1,,,,,デンタルオージー,0
930,4122001038490,新規,0,2024-10-02,2024-10-02,株式会社スターファイブ,,株式会社,大阪府,東大阪市,北石切町１１番１１号,,27,227,5798015,,,,,,,2024-10-02,1,,,,,スターファイブ,0
932,4122003003006,新規,0,2024-10-02,2024-10-02,Ｐｈｏｎ合同会社,,合同会社,大阪府,東大阪市,太平寺１丁目７－８太平寺ビル２０１号室,,27,227,5770844,,,,,,,2024-10-02,1,,,,,フォン,0
943,4140001135926,新規,0,2024-10-02,2024-10-02,株式会社ＨＩＲＡ　ＭＵＬＴＩＮＡＴＩＯＮＡＬ,,株式会社,兵庫県,三田市,駅前町１１番１号,,28,219,6691528,,,,,,,2024-10-02,1,,,,,ヒラマルティナショナル,0
946,4140003021133,新規,0,2024-10-02,2024-10-02,合同会社ＭｉｍｏｓａＲｉｇｈｔｓ,,合同会社,兵庫県,西宮市,甲風園１丁目１０番１号サテライトビル２－４０２,,28,204,6620832,,,,,,,2024-10-02,1,,,,,ミモザライツ,0
952,4160001026256,新規,0,2024-10-02,2024-10-02,株式会社しがぎんキャピタルパートナーズ,,株式会社,滋賀県,大津市,浜町１番３８号,,25,201,5200041,,,,,,,2024-10-02,1,,,,,シガギンキャピタルパートナーズ,0
954,4160003003303,新規,0,2024-10-02,2024-10-02,合同会社つけものびと,,合同会社,滋賀県,長浜市,曽根町１１１１番地１,,25,203,5260103,,,,,,,2024-10-02,1,,,,,ツケモノビト,0
964,4180001163353,新規,0,2024-10-02,2024-10-02,大川澤株式会社,,株式会社,愛知県,名古屋市東区,東桜１丁目６番３号,,23,102,4610005,,,,,,,2024-10-02,1,,,,,オオカワサワ,0
965,4180001163460,新規,0,2024-10-02,2024-10-02,株式会社ストラーダ,,株式会社,愛知県,名古屋市熱田区,六番３丁目１８番４３号（ライオンズガーデン六番五番館３０２号）,,23,109,4560058,,,,,,,2024-10-02,1,,,,,ストラーダ,0
966,4180001163477,新規,0,2024-10-02,2024-10-02,株式会社Ｆｏｒ　ｔｈｅ　Ｆｕｔｕｒｅ,,株式会社,愛知県,名古屋市千種区,赤坂町２丁目２１ショッピ赤坂２０５,,23,101,4640094,,,,,,,2024-10-02,1,,,,,フォーザフューチャー,0
974,4180003027390,新規,0,2024-10-02,2024-10-02,ＡＴＴＡＣＫ合同会社,,合同会社,愛知県,名古屋市名東区,つつじが丘１０２番地,,23,115,4650017,,,,,,,2024-10-02,1,,,,,アタック,0
975,4180003027416,新規,0,2024-10-02,2024-10-02,エフェ工業合同会社,,合同会社,愛知県,あま市,下萱津江西４８番地,,23,237,4901114,,,,,,,2024-10-02,1,,,,,エフェコウギョウ,0
976,4180003027424,新規,0,2024-10-02,2024-10-02,合同会社タッチ,,合同会社,愛知県,江南市,松竹町東瀬古２２７番地４,,23,217,4838359,,,,,,,2024-10-02,1,,,,,タッチ,0
977,4180301039113,新規,0,2024-10-02,2024-10-02,株式会社ブンノペン,,株式会社,愛知県,豊橋市,忠興１丁目４－１７,,23,201,4400004,,,,,,,2024-10-02,1,,,,,ブンノペン,0
984,4200001042975,新規,0,2024-10-02,2024-10-02,株式会社ＯＺ,,株式会社,岐阜県,瑞穂市,生津外宮東町２丁目４３番地,,21,216,5010214,,,,,,,2024-10-02,1,,,,,オズ,0
989,4220005008888,新規,0,2024-10-02,2024-10-02,一般社団法人小松をつなげる３０人,,その他の設立登記法人,石川県,小松市,土居原町１３番地１８Ｋｏｍａｔｓｕ九ＣＯ‐ＷＯＲＫＩＮＧＡＲＥＡ,,17,203,9230921,,,,,,,2024-10-02,1,,,,,コマツヲツナゲルサンジュウニン,0
993,4260001039504,新規,0,2024-10-02,2024-10-02,株式会社ＫＡＮＡＵ,,株式会社,岡山県,岡山市南区,妹尾８３７,,33,104,7010205,,,,,,,2024-10-02,1,,,,,カナウ,0
994,4270003001675,新規,0,2024-10-02,2024-10-02,合同会社ＦＳコーポレーション,,合同会社,鳥取県,米子市,東倉吉町５５番地,,31,202,6830815,,,,,,,2024-10-02,1,,,,,エフエスコーポレーション,0
996,4290001107398,新規,0,2024-10-02,2024-10-02,株式会社ｍｅｒ　ｆｌｅｕｒ,,株式会社,福岡県,福岡市中央区,平尾３丁目１４番１７－３０３号,,40,133,8100014,,,,,,,2024-10-02,1,,,,,メルフルール,0
999,4290005019524,新規,0,2024-10-02,2024-10-02,一般社団法人肝再生医療研究会,,その他の設立登記法人,福岡県,福岡市中央区,天神２丁目３番１０号天神パインクレスト７１９号,,40,133,8100001,,,,,,,2024-10-02,1,,,,,カンサイセイイリョウケンキュウカイ,0
1002,4290801030907,新規,0,2024-10-02,2024-10-02,株式会社レモネード,,株式会社,福岡県,北九州市八幡西区,茶屋の原４丁目１８番２－２号,,40,109,8071134,,,,,,,2024-10-02,1,,,,,レモネード,0
1007,4310001019228,新規,0,2024-10-02,2024-10-02,株式会社ＬＳＭ,,株式会社,長崎県,長崎市,江戸町５番６号,,42,201,8500861,,,,,,,2024-10-02,1,,,,,エルエスエム,0
1008,4310001019244,新規,0,2024-10-02,2024-10-02,株式会社フジイ,,株式会社,長崎県,長崎市,若草町１８番１０－１３０２号,,42,201,8528023,,,,,,,2024-10-02,1,,,,,フジイ,0
1010,4310003004871,新規,0,2024-10-02,2024-10-02,合同会社ＤＡＲＲＩＥＵＳ,,合同会社,長崎県,南島原市,西有家町長野１７７６番地,,42,214,8592215,,,,,,,2024-10-02,1,,,,,ダリウス,0
1014,4330001032501,新規,0,2024-10-02,2024-10-02,株式会社Ｍサポート,,株式会社,熊本県,熊本市南区,田迎１丁目６番１００－７０７号,,43,104,8620962,,,,,,,2024-10-02,1,,,,,エムサポート,0
1016,4340001026832,新規,0,2024-10-02,2024-10-02,株式会社Ｎａｔｉｖｅ　Ａｇｒｉ,,株式会社,鹿児島県,薩摩郡さつま町,求名５１４２番地２,,46,392,8952201,,,,,,,2024-10-02,1,,,,,ネイティブアグリ,0
1017,4350001019216,新規,0,2024-10-02,2024-10-02,株式会社Ｃｒａｆｔｅｒｓ　Ｃａｆｅ　Ｃｏｒｐｏｒａｔｉｏｎ,,株式会社,宮崎県,都城市,上川東１丁目１０号１０番地上川東ハイツ２０２,,45,202,8850012,,,,,,,2024-10-02,1,,,,,クラフターズカフェコーポレーション,0
1020,4360001034247,新規,0,2024-10-02,2024-10-02,株式会社ＭＥＧＵ　Ｒｅ,,株式会社,沖縄県,宜野湾市,新城２丁目３９番２０－２０１号,,47,205,9012201,,,,,,,2024-10-02,1,,,,,メグリ,0
1027,4380003005863,新規,0,2024-10-02,2024-10-02,ＶＩＢＲＡＮＴ合同会社,,合同会社,福島県,南相馬市,原町区桜井町２丁目１１６番地の１０,,07,212,9750032,,,,,,,2024-10-02,1,,,,,ヴァイブラント,0
1029,4400001016810,新規,0,2024-10-02,2024-10-02,ＵＰ・８株式会社,,株式会社,岩手県,盛岡市,安倍館町１８－２８,,03,201,0200126,,,,,,,2024-10-02,1,,,,,アップエイト,0
1030,4400001016819,新規,0,2024-10-02,2024-10-02,株式会社岩手ミライホールディングス,,株式会社,岩手県,盛岡市,本町通１丁目１２番１４号,,03,201,0200015,,,,,,,2024-10-02,1,,,,,イワテミライホールディングス,0
1035,4430001092774,新規,0,2024-10-02,2024-10-02,株式会社零,,株式会社,北海道,札幌市白石区,本通３丁目南２番６号,,01,104,0030026,,,,,,,2024-10-02,1,,,,,ゼロ,0
1044,4500001025909,新規,0,2024-10-02,2024-10-02,株式会社ＭＫ興業,,株式会社,愛媛県,松山市,和泉南１丁目１１番４－３号,,38,201,7900941,,,,,,,2024-10-02,1,,,,,エムケイコウギョウ,0
1048,4700150127386,新規,0,2024-10-02,2024-10-02,Ｈｅｎａｎ　Ｗａｎｙａ　Ｎｅｔｗｏｒｋ　Ｔｅｃｈｎｏｌｏｇｙ　Ｃｏ．，Ｌｔｄ．,,外国会社等,,,,,,,,ｒｕｉｄａｌｕ６０ｈａｏ５ｚｈｕａｎｇｘｉ２ｄａｎｙｕａｎ７ｃｅｎｇ２８ｈａｏ　ｚｈｅｎｇｚｈｏｕｓｈｉ　ｈｅｎａｎｓｈｅｎｇ　ｇａｏｘｉｎｊｉｓｈｕｃｈａｎｙｅｋａｉｆａｑｕ　Ｃｈｉｎａ　４５００００,,,,,,2024-10-02,1,,,,,ホーナンワンヤーワンルオコージーヨウシエンゴンスー,0
1049,4700150127394,新規,0,2024-10-02,2024-10-02,ＡＤ－ＮＥＴ　ＴＥＣＨＮＯＬＯＧＹ　ＣＯ．，ＬＴＤ．,,外国会社等,,,,,,,,Ｎｏ．２１０，Ｇｕｏｈｕａ　Ｒｄ．，Ｍｉａｏｌｉ　Ｃｉｔｙ，Ｍｉａｏｌｉ　Ｃｏｕｎｔｙ　３６０，Ｔａｉｗａｎ（Ｒ．Ｏ．Ｃ．）,,,,,,2024-10-02,1,,,,,アドネットテクノロジーカンパニーリミテッド,0
1052,5010001248426,新規,0,2024-10-02,2024-10-02,富士山投資管理株式会社,,株式会社,東京都,中央区,日本橋箱崎町１０番２号３Ｆ,,13,102,1030015,,,,,,,2024-10-02,1,,,,,フジサントウシカンリ,0
1053,5010001248698,新規,0,2024-10-02,2024-10-02,株式会社Ｊａｐａｎ　Ｔｏｕｒｉｓｍ,,株式会社,東京都,中央区,月島３丁目１２番１０号,,13,102,1040052,,,,,,,2024-10-02,1,,,,,ジャパンツーリズム,0
1054,5010003045045,新規,0,2024-10-02,2024-10-02,合同会社蓄電所３号,,合同会社,東京都,中央区,日本橋茅場町３丁目４番２号ＫＤＸ茅場町ビル４Ｆ,,13,102,1030025,,,,,,,2024-10-02,1,,,,,チクデンショサンゴウ,0
1055,5010003045053,新規,0,2024-10-02,2024-10-02,Ｓ‐Ｐｏｗｅｒ東京２合同会社,,合同会社,東京都,中央区,日本橋１丁目４番１号,,13,102,1030027,,,,,,,2024-10-02,1,,,,,エスパワートウキョウニ,0
1058,5010101016344,新規,0,2024-10-02,2024-10-02,株式会社結城商事,,株式会社,東京都,八王子市,西寺方町２５番地４,,13,201,1920153,,,,,,,2024-10-02,1,,,,,ユウキショウジ,0
1061,5010403033517,新規,0,2024-10-02,2024-10-02,Ｋ＆Ｙ　Ｂｒｏｍａｎｃｅ　Ｇｌｏｂａｌ　Ｃｏｍｐａｎｙ合同会社,,合同会社,東京都,港区,浜松町２丁目７番１７号,,13,103,1050013,,,,,,,2024-10-02,1,,,,,ケイアンドワイブロマンスグローバルカンパニー,0
1063,5010405023549,新規,0,2024-10-02,2024-10-02,一般社団法人ぺんぎん奨学会,,その他の設立登記法人,東京都,港区,麻布台１丁目６番１３号ナビールコート麻布台１００２,,13,103,1060041,,,,,,,2024-10-02,1,,,,,ペンギンショウガクカイ,0
1066,5010601066021,新規,0,2024-10-02,2024-10-02,株式会社ＢＯＢＬＡＮＤ,,株式会社,東京都,江東区,亀戸８丁目２５番地５号コスモ亀戸水神９０１,,13,108,1360071,,,,,,,2024-10-02,1,,,,,ボブランド,0
1068,5010603011124,新規,0,2024-10-02,2024-10-02,ＪｐＥｘ　ＬＯＧＩＳＴＩＣＳ合同会社,,合同会社,東京都,江東区,大島８丁目２２番１６号,,13,108,1360072,,,,,,,2024-10-02,1,,,,,ジェイピエクスロジスティクス,0
1077,5011001164910,新規,0,2024-10-02,2024-10-02,株式会社ＧＦＥアセット,,株式会社,東京都,渋谷区,代々木５丁目１１番８－５０２号,,13,113,1510053,,,,,,,2024-10-02,1,,,,,ジーエフイーアセット,0
1078,5011001164943,新規,0,2024-10-02,2024-10-02,ＡＰＲＩＣＯＴ　ＪＭＬＵ株式会社,,株式会社,東京都,渋谷区,元代々木町１７番１３－２０６号ザ・パークハウス代々木上原,,13,113,1510062,,,,,,,2024-10-02,1,,,,,アプリコットジムル,0
1079,5011003020087,新規,0,2024-10-02,2024-10-02,ウェーブメディア合同会社,,合同会社,東京都,渋谷区,笹塚１丁目４３番４号サンフォーレストＭ１０５,,13,113,1510073,,,,,,,2024-10-02,1,,,,,ウェーブメディア,0
1080,5011003020112,新規,0,2024-10-02,2024-10-02,ｃｈｏｕ合同会社,,合同会社,東京都,渋谷区,恵比寿４丁目２０－３ガーデンプレイスタワー３９階,,13,113,1500013,,,,,,,2024-10-02,1,,,,,シュー,0
1085,5011101108924,新規,0,2024-10-02,2024-10-02,株式会社ＯＭＯＭＵＫＩ,,株式会社,東京都,新宿区,四谷３丁目１１番地１６号ＣＡＶＡＮＡ＋ＹＯＴＳＵＹＡ５０３,,13,104,1600004,,,,,,,2024-10-02,1,,,,,オモムキ,0
1086,5011101108932,新規,0,2024-10-02,2024-10-02,Ｌｏｇｉｃ　Ｑｕａｎｔｕｍ株式会社,,株式会社,東京都,新宿区,西新宿６丁目１０番１号日土地西新宿ビル８階,,13,104,1600023,,,,,,,2024-10-02,1,,,,,ロジッククァンタム,0
1091,5011201025821,新規,0,2024-10-02,2024-10-02,株式会社ｍｅｍｉｌ,,株式会社,東京都,中野区,中野５丁目６７番７号プラザ中野８０１,,13,114,1640001,,,,,,,2024-10-02,1,,,,,ミーミル,0
1092,5011203004492,新規,0,2024-10-02,2024-10-02,Ｔｏｌｌｙ合同会社,,合同会社,東京都,中野区,南台２丁目３０番１１号サザンテラス壱番館１０２号,,13,114,1640014,,,,,,,2024-10-02,1,,,,,トリー,0
1100,5011701027664,新規,0,2024-10-02,2024-10-02,株式会社Ｍｏｘｉｅ　Ｍｏｔｉｏｎ,,株式会社,東京都,江戸川区,松島３丁目１５番９－１００２号,,13,123,1320031,,,,,,,2024-10-02,1,,,,,モクシーモーション,0
1103,5011803006459,新規,0,2024-10-02,2024-10-02,日錦商事合同会社,,合同会社,東京都,足立区,千住２丁目３８番地,,13,121,1200034,,,,,,,2024-10-02,1,,,,,ニッキンショウジ,0
1109,5013301053099,新規,0,2024-10-02,2024-10-02,株式会社エンブレイド,,株式会社,東京都,豊島区,南大塚２丁目３２番１０号レヴリファイズマナ９０２号,,13,116,1700005,,,,,,,2024-10-02,1,,,,,エンブレイド,0
1115,5020001159300,新規,0,2024-10-02,2024-10-02,株式会社ｓｅｃｏｎｄ　ｂａｓｅ,,株式会社,神奈川県,横浜市鶴見区,北寺尾７丁目１４番－２９－４０４号,,14,101,2300074,,,,,,,2024-10-02,1,,,,,セカンドベース,0
1116,5020001159309,新規,0,2024-10-02,2024-10-02,横浜シーガルリサーチ株式会社,,株式会社,神奈川県,横浜市港北区,綱島上町１－１グリーンサラウンドシティ２番街１２９号,,14,109,2230055,,,,,,,2024-10-02,1,,,,,ヨコハマシーガルリサーチ,0
1117,5020001159333,新規,0,2024-10-02,2024-10-02,ラ・メール株式会社,,株式会社,神奈川県,横浜市中区,南仲通１丁目１３番地４０７,,14,104,2310006,,,,,,,2024-10-02,1,,,,,ラメール,0
1119,5020003026944,新規,0,2024-10-02,2024-10-02,合同会社慶オフィス,,合同会社,神奈川県,横浜市栄区,笠間２丁目７番８号,,14,115,2470006,,,,,,,2024-10-02,1,,,,,ケイオフィス,0
1124,5021001083374,新規,0,2024-10-02,2024-10-02,株式会社蒔,,株式会社,神奈川県,鎌倉市,西御門２丁目１番２１号,,14,204,2480004,,,,,,,2024-10-02,1,,,,,マキ,0
1130,5040001135571,新規,0,2024-10-02,2024-10-02,株式会社ロードマップ,,株式会社,千葉県,柏市,西原４丁目１６番地の１１第十パールメゾン蒲田１０２号,,12,217,2770885,,,,,,,2024-10-02,1,,,,,ロードマップ,0
1136,5040005022493,新規,0,2024-10-02,2024-10-02,一般社団法人日本狩猟協会,,その他の設立登記法人,千葉県,成田市,吉岡３６８番地９１,,12,211,2870225,,,,,,,2024-10-02,1,,,,,ニホンシュリョウキョウカイ,0
1147,5070001042220,新規,0,2024-10-02,2024-10-02,株式会社精和科学,,株式会社,群馬県,館林市,尾曳町２８番３３号,,10,207,3740019,,,,,,,2024-10-02,1,,,,,,0
1152,5080401027464,新規,0,2024-10-02,2024-10-02,株式会社ＴＡＯ,,株式会社,静岡県,浜松市浜名区,内野２５６７番地,,22,139,4340044,,,,,,,2024-10-02,1,,,,,ティーエーオー,0
1153,5080401027480,新規,0,2024-10-02,2024-10-02,株式会社バイタリティ,,株式会社,静岡県,浜松市中央区,三島町１３９８番地の１ル・グランみしま１Ｆ,,22,138,4300853,,,,,,,2024-10-02,1,,,,,バイタリティ,0
1172,5120001268826,新規,0,2024-10-02,2024-10-02,株式会社七乃葉,,株式会社,大阪府,枚方市,南楠葉１丁目３番４号,,27,210,5731105,,,,,,,2024-10-02,1,,,,,ナノハ,0
1173,5120001268958,新規,0,2024-10-02,2024-10-02,株式会社ウェリス,,株式会社,大阪府,大阪市生野区,田島３丁目２番１８号,,27,116,5440011,,,,,,,2024-10-02,1,,,,,ウェリス,0
1176,5120003027627,新規,0,2024-10-02,2024-10-02,合同会社スパーク,,合同会社,大阪府,大阪市淀川区,宮原４丁目１番４６号,,27,123,5320003,,,,,,,2024-10-02,1,,,,,スパーク,0
1180,5120901049846,新規,0,2024-10-02,2024-10-02,株式会社Ｏｎｅ’ｓ　Ｌｉｆｅ,,株式会社,大阪府,高槻市,安岡寺町５丁目４５番６号,,27,207,5691029,,,,,,,2024-10-02,1,,,,,ワンズライフ,0
1186,5130001078068,新規,0,2024-10-02,2024-10-02,日本道楽株式会社,,株式会社,京都府,京都市北区,西賀茂角社町１４４,,26,101,6038845,,,,,,,2024-10-02,1,,,,,ニホンドウラク,0
1194,5140001135933,新規,0,2024-10-02,2024-10-02,西門商事株式会社,,株式会社,兵庫県,神戸市中央区,旗塚通１丁目１番２０号,,28,110,6510068,,,,,,,2024-10-02,1,,,,,サイモンショウジ,0
1195,5140001135941,新規,0,2024-10-02,2024-10-02,Ａ＆Ｔエージェンシー株式会社,,株式会社,兵庫県,神戸市中央区,御幸通２丁目１番地６ジェイルミナ神戸三宮３Ｆ,,28,110,6510087,,,,,,,2024-10-02,1,,,,,エーアンドティーエージェンシー,0
1196,5140001135966,新規,0,2024-10-02,2024-10-02,株式会社エースセントラル,,株式会社,兵庫県,川西市,けやき坂３丁目３９番地の６,,28,217,6660145,,,,,,,2024-10-02,1,,,,,エースセントラル,0
1203,5150001027584,新規,0,2024-10-02,2024-10-02,株式会社Ｂ．Ｂ,,株式会社,奈良県,生駒郡平群町,大字信貴畑２３０,,29,342,6360922,,,,,,,2024-10-02,1,,,,,ビービー,0
1204,5150003003385,新規,0,2024-10-02,2024-10-02,合同会社Ｙｉｎ要,,合同会社,奈良県,奈良市,鳥見町２丁目２４番９号,,29,201,6310065,,,,,,,2024-10-02,1,,,,,インヨウ,0
1210,5170001018334,新規,0,2024-10-02,2024-10-02,株式会社パームスプランニング,,株式会社,和歌山県,和歌山市,北野２０１番地１２,,30,201,6496331,,,,,,,2024-10-02,1,,,,,パームスプランニング,0
1217,5180001163369,新規,0,2024-10-02,2024-10-02,トーテックエステート株式会社,,株式会社,愛知県,名古屋市中区,栄２丁目４２６番地１,,23,106,4600008,,,,,,,2024-10-02,1,,,,,トーテックエステート,0
1218,5180001163410,新規,0,2024-10-02,2024-10-02,株式会社日向,,株式会社,愛知県,尾張旭市,井田町３丁目７７番,,23,226,4880024,,,,,,,2024-10-02,1,,,,,ヒナタ,0
1219,5180001163451,新規,0,2024-10-02,2024-10-02,株式会社Ｃ‐ＱＵＡＴＴＲＯ,,株式会社,愛知県,名古屋市昭和区,滝川町４７番地の１,,23,107,4660826,,,,,,,2024-10-02,1,,,,,シークワトロ,0
1220,5180001163468,新規,0,2024-10-02,2024-10-02,株式会社なちゅらむ,,株式会社,愛知県,名古屋市東区,徳川２丁目３番２６号,,23,102,4610025,,,,,,,2024-10-02,1,,,,,ナチュラム,0
1221,5180003027415,新規,0,2024-10-02,2024-10-02,合同会社Ｃａｓｉｔａ．,,合同会社,愛知県,名古屋市北区,黒川本通２丁目１８番地サンコート黒川１４０７号,,23,103,4620841,,,,,,,2024-10-02,1,,,,,カシータ,0
1222,5180003027423,新規,0,2024-10-02,2024-10-02,合同会社テキサス,,合同会社,愛知県,名古屋市中村区,名駅５丁目３３番２１号アクアタウン納屋橋２６０８号,,23,105,4500002,,,,,,,2024-10-02,1,,,,,テキサス,0
1223,5190001031681,新規,0,2024-10-02,2024-10-02,株式会社樋上興業,,株式会社,三重県,津市,末広町２８番３３号セントレアＩＩ１号,00136460,24,201,5140012,,,,,,,2024-10-02,1,,,,,ヒノウエコウギョウ,0
1233,5240003006882,新規,0,2024-10-02,2024-10-02,合同会社Ｐ‐ＳＰＡＣＥ,,合同会社,広島県,庄原市,七塚町１３９０番地２,,34,210,7270023,,,,,,,2024-10-02,1,,,,,ピースペース,0
1234,5260001039511,新規,0,2024-10-02,2024-10-02,株式会社ＸＩＡＮＧ　ＷＵ,,株式会社,岡山県,岡山市北区,庭瀬８９４番地５,,33,101,7010153,,,,,,,2024-10-02,1,,,,,シャンウー,0
1236,5310001019235,新規,0,2024-10-02,2024-10-02,株式会社ひでちゃん,,株式会社,長崎県,五島市,玉之浦町玉之浦３８９番地,,42,211,8530411,,,,,,,2024-10-02,1,,,,,ヒデチャン,0
1239,5330001032491,新規,0,2024-10-02,2024-10-02,株式会社ａｌｏｒｉｓｅ,,株式会社,熊本県,熊本市東区,保田窪４丁目１０番６号,,43,102,8620926,,,,,,,2024-10-02,1,,,,,アロライズ,0
1241,5330003010578,新規,0,2024-10-02,2024-10-02,合同会社ベースメント,,合同会社,熊本県,熊本市北区,武蔵ケ丘５丁目１２－１ムサシプラザ１Ｆ,,43,105,8618001,,,,,,,2024-10-02,1,,,,,ベースメント,0
1242,5340001026831,新規,0,2024-10-02,2024-10-02,株式会社Ｍａｈｋｓ,,株式会社,鹿児島県,鹿児島市,下荒田３丁目１２番８号,,46,201,8900056,,,,,,,2024-10-02,1,,,,,マークス,0
1254,5380001034814,新規,0,2024-10-02,2024-10-02,株式会社Ｏｍｏｉ,,株式会社,福島県,双葉郡富岡町,大字本岡字王塚６４５－１,,07,543,9791151,,,,,,,2024-10-02,1,,,,,オモイ,0
1257,5410001013946,新規,0,2024-10-02,2024-10-02,株式会社ＮＥＸＴ　ＫＧ,,株式会社,秋田県,秋田市,大町５丁目４番２２号ＡＫＩＴＡ－ＡＳビル４階,,05,201,0100921,,,,,,,2024-10-02,1,,,,,ネクストケージー,0
1259,5420005007927,新規,0,2024-10-02,2024-10-02,一般社団法人あおぞら育成会,,その他の設立登記法人,青森県,八戸市,新井田西１丁目１０番２２号,,02,203,0310816,,,,,,,2024-10-02,1,,,,,アオゾライクセイカイ,0
1267,5450001014420,新規,0,2024-10-02,2024-10-02,株式会社碧,,株式会社,北海道,稚内市,緑４丁目６番１９号,,01,214,0970004,,,,,,,2024-10-02,1,,,,,アオ,0
1269,5460101007612,新規,0,2024-10-02,2024-10-02,株式会社こぐまカンパニー,,株式会社,北海道,帯広市,新町東１１丁目３９番地,,01,207,0800052,,,,,,,2024-10-02,1,,,,,コグマカンパニー,0
1271,5470003002719,新規,0,2024-10-02,2024-10-02,合同会社ベルク,,合同会社,香川県,高松市,天神前１０番５号高松セントラルスカイビルディング３Ｆｓｏｕｔｈ,,37,201,7600018,,,,,,,2024-10-02,1,,,,,,0
1275,5500001025908,新規,0,2024-10-02,2024-10-02,株式会社コトナレ,,株式会社,愛媛県,松山市,湊町４丁目１１番地４,,38,201,7900012,,,,,,,2024-10-02,1,,,,,コトナレ,0
1276,5500005008735,新規,0,2024-10-02,2024-10-02,全日本自治団体労働組合愛媛県本部,,その他の設立登記法人,愛媛県,松山市,宮田町１３２番地,,38,201,7900066,,,,,,,2024-10-02,1,,,,,ゼンニホンジチダンタイエヒメケンホンブ,0
1277,5700150127393,新規,0,2024-10-02,2024-10-02,ｗｕｈａｎｓｈｅｎｇｑｉｗａｎｇｌｕｏｋｅｊｉｙｏｕｘｉａｎｇｏｎｇｓｉ,,外国会社等,,,,,,,,ｚｈｏｎｇｎａｎｌｕｊｉｅｄａｏｗｕｃｈａｎｇｑｕｗｕｌｕｏｌｕ４４２ｈａｏｚｈｏｎｇｎａｎｇｕｏｊｉｃｈｅｎｇＢｚｕｏ１ｄａｎｙｕａｎ７ｃｅｎｇ４ｓｈｉ＊ｗｕｈａｎｓｈｉｗｕｃｈａｎｇｑｕｈｕｂｅｉｓｈｅｎｇ４３００６４ＣＮ,,,,,,2024-10-02,1,,,,,ウーハンションチーワンルオコージーヨウシエンゴンスー,0
1286,6010001248516,新規,0,2024-10-02,2024-10-02,株式会社ＤＥＮ‐Ｑ,,株式会社,東京都,中央区,銀座１丁目１２番４号Ｎ＆ＥＢＬＤ．６Ｆ,,13,102,1040061,,,,,,,2024-10-02,1,,,,,デンキュー,0
1287,6010001248672,新規,0,2024-10-02,2024-10-02,ＳＡＩＬＦＯＲ株式会社,,株式会社,東京都,中央区,日本橋２丁目１５番３号,,13,102,1030027,,,,,,,2024-10-02,1,,,,,セイルフォー,0
1291,6010003045044,新規,0,2024-10-02,2024-10-02,合同会社蓄電所２号,,合同会社,東京都,中央区,日本橋茅場町３丁目４番２号ＫＤＸ茅場町ビル４Ｆ,,13,102,1030025,,,,,,,2024-10-02,1,,,,,チクデンショニゴウ,0
1292,6010003045069,新規,0,2024-10-02,2024-10-02,ＴＴブラザーズ合同会社,,合同会社,東京都,千代田区,神田練塀町３番地,,13,101,1010022,,,,,,,2024-10-02,1,,,,,ティーティーブラザーズ,0
1302,6010403033549,新規,0,2024-10-02,2024-10-02,ＭＡＸ合同会社,,合同会社,東京都,港区,麻布十番１丁目７番１号ＭＧＢ麻布十番ビル７Ｆ,,13,103,1060045,,,,,,,2024-10-02,1,,,,,マックス,0
1305,6010601066012,新規,0,2024-10-02,2024-10-02,三吉コンサルティング株式会社,,株式会社,東京都,墨田区,石原２丁目１６番１０－４０３号,,13,107,1300011,,,,,,,2024-10-02,1,,,,,ミヨシコンサルティング,0
1309,6010801035428,新規,0,2024-10-02,2024-10-02,株式会社タナカ商店,,株式会社,東京都,大田区,東海３丁目２番６号,,13,111,1430001,,,,,,,2024-10-02,1,,,,,タナカショウテン,0
1319,6011001164892,新規,0,2024-10-02,2024-10-02,Ｈａｎｋ．株式会社,,株式会社,東京都,渋谷区,神宮前３丁目６番４号,,13,113,1500001,,,,,,,2024-10-02,1,,,,,ハンク,0
1320,6011001164901,新規,0,2024-10-02,2024-10-02,株式会社ＥＮ,,株式会社,東京都,渋谷区,神宮前４丁目２４番２４号,,13,113,1500001,,,,,,,2024-10-02,1,,,,,エン,0
1321,6011001164918,新規,0,2024-10-02,2024-10-02,株式会社ｃｌｅｖａｌｕｅ,,株式会社,東京都,渋谷区,東３丁目１６番１号ベルザ恵比寿４Ｆ,,13,113,1500011,,,,,,,2024-10-02,1,,,,,クレバリュー,0
1322,6011001164934,新規,0,2024-10-02,2024-10-02,株式会社Ｊａｐａｎ　Ｈｕｂ　Ｇｌｏｂａｌ,,株式会社,東京都,渋谷区,渋谷２丁目１９－１５宮益坂ビルディング６０９,,13,113,1500002,,,,,,,2024-10-02,1,,,,,ジャパンハブグローバル,0
1323,6011001164950,新規,0,2024-10-02,2024-10-02,Ｃｉｅｌ　Ｃｏｒｐｏｒａｔｉｏｎ株式会社,,株式会社,東京都,渋谷区,代々木１丁目５３番１号ＭＹＴＯＷＥＲＲＥＳＩＤＥＮＣＥ１７１２,,13,113,1510053,,,,,,,2024-10-02,1,,,,,シエルコーポレーション,0
1324,6011001164959,新規,0,2024-10-02,2024-10-02,株式会社ＭＩＮＥＴ,,株式会社,東京都,渋谷区,神泉町２２番３－９０３号,,13,113,1500045,,,,,,,2024-10-02,1,,,,,ミネット,0
1329,6011101108956,新規,0,2024-10-02,2024-10-02,２Ｍ株式会社,,株式会社,東京都,新宿区,北新宿４丁目１－１－２Ｆ,,13,104,1690074,,,,,,,2024-10-02,1,,,,,ニエム,0
1330,6011103015003,新規,0,2024-10-02,2024-10-02,ｐｉｃｈａｒｉ　ｓｔｕｄｉｏ合同会社,,合同会社,東京都,新宿区,西新宿３丁目３番１３号西新宿水間ビル６階,,13,104,1600023,,,,,,,2024-10-02,1,,,,,ピチャリスタジオ,0
1331,6011201025829,新規,0,2024-10-02,2024-10-02,株式会社Ｈｙｇｇｅ　Ｓｋｏｖ,,株式会社,東京都,中野区,中央２丁目９番１号,,13,114,1640011,,,,,,,2024-10-02,1,,,,,ヒュッゲスコブ,0
1332,6011205002634,新規,0,2024-10-02,2024-10-02,医療法人社団石井会,,その他の設立登記法人,東京都,中野区,江古田１丁目１番４号２階,,13,114,1650022,,,,,,,2024-10-02,1,,,,,イシイカイ,0
1337,6011701027663,新規,0,2024-10-02,2024-10-02,株式会社ＦｕｔｕｒｅｓＰｒｏｐｅｒｔｙ,,株式会社,東京都,江戸川区,中央３丁目１３番１５号,,13,123,1320021,,,,,,,2024-10-02,1,,,,,フューチャーズプロパティ,0
1338,6011703003976,新規,0,2024-10-02,2024-10-02,Ｒｅｉｎａ合同会社,,合同会社,東京都,江戸川区,本一色２丁目１８－２,,13,123,1330044,,,,,,,2024-10-02,1,,,,,レイナ,0
1343,6011803006482,新規,0,2024-10-02,2024-10-02,ＡｚｕｒｅＮｅｓｔ合同会社,,合同会社,東京都,葛飾区,四つ木３丁目８番１１－４０２号ＮＩＣアーバンハイム四ツ木第２,,13,122,1240011,,,,,,,2024-10-02,1,,,,,アジュールネスト,0
1344,6012401042333,新規,0,2024-10-02,2024-10-02,株式会社ユニフィット,,株式会社,東京都,調布市,深大寺東町１丁目２０番地２４,,13,208,1820012,,,,,,,2024-10-02,1,,,,,ユニフィット,0
1345,6012401042341,新規,0,2024-10-02,2024-10-02,株式会社イージーエース,,株式会社,東京都,調布市,小島町１丁目３４番地１エクレール調布３０７号,,13,208,1820026,,,,,,,2024-10-02,1,,,,,イージーエース,0
1346,6012403006773,新規,0,2024-10-02,2024-10-02,合同会社ＧＨＭ,,合同会社,東京都,狛江市,西野川４丁目３８番地２０号,,13,219,2010001,,,,,,,2024-10-02,1,,,,,ジーエッチエム,0
1355,6020003026943,新規,0,2024-10-02,2024-10-02,合同会社ブレインラボ,,合同会社,神奈川県,横浜市青葉区,あざみ野２丁目２８番地６メゾンあざみ野１０１,,14,117,2250011,,,,,,,2024-10-02,1,,,,,ブレインラボ,0
1357,6021001083340,新規,0,2024-10-02,2024-10-02,株式会社Ｘ＆Ｓ,,株式会社,神奈川県,厚木市,栄町１丁目１６番１５－４０２,,14,212,2430017,,,,,,,2024-10-02,1,,,,,エックスアンドエス,0
1358,6021001083365,新規,0,2024-10-02,2024-10-02,株式会社アストラスエナジー,,株式会社,神奈川県,茅ヶ崎市,茅ヶ崎１丁目２番４７号,,14,207,2530041,,,,,,,2024-10-02,1,,,,,アストラスエナジー,0
1359,6021001083373,新規,0,2024-10-02,2024-10-02,クラン株式会社,,株式会社,神奈川県,鎌倉市,西御門２丁目１番２１号,,14,204,2480004,,,,,,,2024-10-02,1,,,,,クラン,0
1378,6040001135595,新規,0,2024-10-02,2024-10-02,株式会社輝瑞,,株式会社,千葉県,四街道市,大日７４１番地２,,12,228,2840001,,,,,,,2024-10-02,1,,,,,キスイ,0
1380,6050001055462,新規,0,2024-10-02,2024-10-02,Ｍｅｄｉｃａｌ　Ｋ　Ｍｉｎｄ株式会社,,株式会社,茨城県,つくば市,学園の森１丁目３５－５,,08,220,3050816,,,,,,,2024-10-02,1,,,,,メディカルケーマインド,0
1390,6080403005112,新規,0,2024-10-02,2024-10-02,合名会社Ｓｕｎｒｉｓｅ・ＭＩＹＡ,,合名会社,静岡県,浜松市中央区,初生町９５６番地の６,,22,138,4338112,,,,,,,2024-10-02,1,,,,,サンライズミヤ,0
1391,6090003002657,新規,0,2024-10-02,2024-10-02,司商事合同会社,,合同会社,山梨県,中巨摩郡昭和町,西条２９３４－１,,19,384,4093866,,,,,,,2024-10-02,1,,,,,ツカサショウジ,0
1409,6120001268718,新規,0,2024-10-02,2024-10-02,門徳里株式会社,,株式会社,大阪府,大阪市中央区,島之内２丁目１０－１２－７Ｆ,,27,128,5420082,,,,,,,2024-10-02,1,,,,,モントクリ,0
1410,6120001268791,新規,0,2024-10-02,2024-10-02,森澤株式会社,,株式会社,大阪府,大阪市阿倍野区,阪南町１丁目２３－１９－５０２,,27,119,5450021,,,,,,,2024-10-02,1,,,,,モリザワ,0
1411,6120001268908,新規,0,2024-10-02,2024-10-02,株式会社ＨＯＰＥ,,株式会社,大阪府,大阪市東成区,深江南３丁目１９－２７,,27,115,5370002,,,,,,,2024-10-02,1,,,,,ホープ,0
1412,6120001268924,新規,0,2024-10-02,2024-10-02,株式会社ＳＥＣＯＮＤ　ＳＯＵＬ,,株式会社,大阪府,大阪市西区,南堀江３丁目１３番１１号,,27,106,5500015,,,,,,,2024-10-02,1,,,,,セカンドソウル,0
1413,6120001268932,新規,0,2024-10-02,2024-10-02,株式会社高橋企画,,株式会社,大阪府,大阪市旭区,高殿４丁目５番３２号,,27,117,5350031,,,,,,,2024-10-02,1,,,,,タカハシキカク,0
1414,6120001268940,新規,0,2024-10-02,2024-10-02,株式会社大和,,株式会社,大阪府,大阪市中央区,南船場３丁目２番２２号おおきに南船場ビル２０５,,27,128,5420081,,,,,,,2024-10-02,1,,,,,ヤマト,0
1415,6120001268949,新規,0,2024-10-02,2024-10-02,クロスキューブ株式会社,,株式会社,大阪府,大阪市北区,西天満３丁目６番２１号ＡＸＩＳ東梅田ビル３０２号,,27,127,5300047,,,,,,,2024-10-02,1,,,,,クロスキューブ,0
1416,6120001268965,新規,0,2024-10-02,2024-10-02,曄和株式会社,,株式会社,大阪府,大阪市住之江区,粉浜１丁目３番２５－３０５号,,27,125,5590001,,,,,,,2024-10-02,1,,,,,ヨウワ,0
1419,6120003027626,新規,0,2024-10-02,2024-10-02,昊吉合同会社,,合同会社,大阪府,大阪市生野区,新今里３丁目５番１８号ＳＥＩＫＡビル４０３号室,,27,116,5440001,,,,,,,2024-10-02,1,,,,,コウキチ,0
1425,6120901049829,新規,0,2024-10-02,2024-10-02,株式会社一葉ケミカルエンジ,,株式会社,大阪府,吹田市,山田北９番８－４０３号,,27,205,5650825,,,,,,,2024-10-02,1,,,,,イチヨウケミカルエンジ,0
1430,6122001038448,新規,0,2024-10-02,2024-10-02,株式会社福田,,株式会社,大阪府,八尾市,末広町４丁目６番４号,,27,212,5810001,,,,,,,2024-10-02,1,,,,,フクダ,0
1431,6122003003012,新規,0,2024-10-02,2024-10-02,Ｃ＆Ｄ合同会社,,合同会社,大阪府,東大阪市,荒川１丁目１５番６号,,27,227,5770843,,,,,,,2024-10-02,1,,,,,シーアンドディー,0
1447,6140001135940,新規,0,2024-10-02,2024-10-02,株式会社ＳＰＥＣＩＡＬＴＯＵＲ,,株式会社,兵庫県,尼崎市,武庫之荘１丁目１３番３号,,28,202,6610035,,,,,,,2024-10-02,1,,,,,スペシャルツアー,0
1448,6140001135949,新規,0,2024-10-02,2024-10-02,株式会社びあらば,,株式会社,兵庫県,尼崎市,南塚口町８丁目３４－９ベステック南塚口第２－１０２号室,,28,202,6610012,,,,,,,2024-10-02,1,,,,,ビアラバ,0
1449,6140001135965,新規,0,2024-10-02,2024-10-02,株式会社Ｔｅｎｔｅｔｔｏ,,株式会社,兵庫県,神戸市垂水区,舞子台７丁目３番１－１００３号,,28,108,6550046,,,,,,,2024-10-02,1,,,,,テンテット,0
1450,6140001135973,新規,0,2024-10-02,2024-10-02,株式会社ウミトネ,,株式会社,兵庫県,神戸市須磨区,潮見台町１丁目３番１３号,,28,107,6540075,,,,,,,2024-10-02,1,,,,,ウミトネ,0
1452,6140003021131,新規,0,2024-10-02,2024-10-02,合同会社ＧＯＯＤＰＬＡＮ,,合同会社,兵庫県,姫路市,南町６３ミツワビル１Ｆ,,28,201,6700912,,,,,,,2024-10-02,1,,,,,グッドプラン,0
1453,6150001027583,新規,0,2024-10-02,2024-10-02,株式会社Ｐａｒ‐ｐｌｅ,,株式会社,奈良県,天理市,丹波市町４４７番地パインリーフ天理２０５,,29,204,6320034,,,,,,,2024-10-02,1,,,,,パープル,0
1454,6150001027591,新規,0,2024-10-02,2024-10-02,社会課題解決支援株式会社,,株式会社,奈良県,奈良市,丸山２丁目４４９８番地の５０,,29,201,6310056,,,,,,,2024-10-02,1,,,,,シャカイカダイカイケツシエン,0
1459,6160003003301,新規,0,2024-10-02,2024-10-02,合同会社Ｐｏｌａｒｉｓ,,合同会社,滋賀県,草津市,草津町１８５３番地６,,25,206,5250036,,,,,,,2024-10-02,1,,,,,ポラリス,0
1464,6180001163392,新規,0,2024-10-02,2024-10-02,株式会社ＩＥＧ,,株式会社,愛知県,あま市,甚目寺飛殿８８番地の３,,23,237,4901111,,,,,,,2024-10-02,1,,,,,アイイージー,0
1465,6180001163426,新規,0,2024-10-02,2024-10-02,株式会社ベストスタイル,,株式会社,愛知県,名古屋市千種区,観月町１丁目６０番１号シェソワ観月Ｂ号室,,23,101,4640831,,,,,,,2024-10-02,1,,,,,ベストスタイル,0
1466,6180001163434,新規,0,2024-10-02,2024-10-02,ドルフィンスタージャパンスマートロボット株式会社,,株式会社,愛知県,海部郡飛島村,木場２丁目１２５番地の２,,23,427,4901444,,,,,,,2024-10-02,1,,,,,ドルフィンスタージャパンスマートロボット,0
1467,6180001163450,新規,0,2024-10-02,2024-10-02,株式会社ホリエ企画,,株式会社,愛知県,名古屋市中区,丸の内２丁目１７番６号丸の内ホリエビル,,23,106,4600002,,,,,,,2024-10-02,1,,,,,ホリエキカク,0
1468,6180001163459,新規,0,2024-10-02,2024-10-02,株式会社ビタリベラ,,株式会社,愛知県,日進市,浅田町笹原８番地１７ライオンズガーデン赤池１００３,,23,230,4700124,,,,,,,2024-10-02,1,,,,,ビタリベラ,0
1473,6180305009614,新規,0,2024-10-02,2024-10-02,一般社団法人みかわ相続支援協会,,その他の設立登記法人,愛知県,岡崎市,葵町１番地１０,,23,202,4440913,,,,,,,2024-10-02,1,,,,,ミカワソウゾクシエンキョウカイ,0
1478,6200001042998,新規,0,2024-10-02,2024-10-02,株式会社安藤マッサージ,,株式会社,岐阜県,岐阜市,長良南陽町３丁目１２番地２,,21,201,5020035,,,,,,,2024-10-02,1,,,,,アンドウマッサージ,0
1488,6260001039502,新規,0,2024-10-02,2024-10-02,株式会社栄和堂,,株式会社,岡山県,岡山市北区,田中５９１番地１２,,33,101,7000951,,,,,,,2024-10-02,1,,,,,エイワドウ,0
1489,6260001039510,新規,0,2024-10-02,2024-10-02,株式会社あけぼのマリタイム,,株式会社,岡山県,岡山市東区,宝伝３８１２番地,,33,103,7048152,,,,,,,2024-10-02,1,,,,,アケボノマリタイム,0
1490,6260001039519,新規,0,2024-10-02,2024-10-02,株式会社アソボウデ,,株式会社,岡山県,岡山市南区,福富中１丁目１５番２９号,,33,104,7028032,,,,,,,2024-10-02,1,,,,,アソボウデ,0
1495,6290001107454,新規,0,2024-10-02,2024-10-02,ガルニテック株式会社,,株式会社,福岡県,福岡市南区,和田１丁目１０番１２号,,40,134,8111343,,,,,,,2024-10-02,1,,,,,ガルニテック,0
1497,6290003015861,新規,0,2024-10-02,2024-10-02,合同会社Ａｚｕｒｅ,,合同会社,福岡県,久留米市,中央町１番地１ザ・ライオンズ久留米ウェリスタワー３０７号,,40,203,8300023,,,,,,,2024-10-02,1,,,,,アズール,0
1498,6290003015886,新規,0,2024-10-02,2024-10-02,合同会社海王,,合同会社,福岡県,嘉麻市,下山田１９３番地２,,40,227,8210011,,,,,,,2024-10-02,1,,,,,カイオウ,0
1500,6290801030921,新規,0,2024-10-02,2024-10-02,株式会社酒井創新,,株式会社,福岡県,北九州市小倉北区,宇佐町１丁目３番３０号,,40,106,8020016,,,,,,,2024-10-02,1,,,,,サカイソウシン,0
1501,6290803004849,新規,0,2024-10-02,2024-10-02,合同会社ＡＬＬ　ＣＯＮＮＥＣＴ,,合同会社,福岡県,直方市,大字下境３２５０番地１,,40,204,8220007,,,,,,,2024-10-02,1,,,,,オールコネクト,0
1503,6310001019218,新規,0,2024-10-02,2024-10-02,株式会社三陽対馬水産,,株式会社,長崎県,対馬市,美津島町鷄知玖須ヶ浜乙７５０番４,00136452,42,209,8170000,,,,,,,2024-10-02,1,,,,,サンヨウツシマスイサン,0
1504,6310001019234,新規,0,2024-10-02,2024-10-02,株式会社橙,,株式会社,長崎県,西海市,西海町七釜郷９０４番地５０,,42,212,8572223,,,,,,,2024-10-02,1,,,,,オレンジ,0
1507,6320001020736,新規,0,2024-10-02,2024-10-02,株式会社巧,,株式会社,大分県,大分市,大字葛木４４１番地の１２,,44,201,8700133,,,,,,,2024-10-02,1,,,,,タクミ,0
1509,6330001032499,新規,0,2024-10-02,2024-10-02,株式会社ＫＮアセット,,株式会社,熊本県,熊本市東区,錦ケ丘２６番１１号,,43,102,8620912,,,,,,,2024-10-02,1,,,,,ケイエヌアセット,0
1511,6340001026822,新規,0,2024-10-02,2024-10-02,株式会社ＭＡサポート,,株式会社,鹿児島県,鹿児島市,常盤２丁目６番３号パークビル１Ｆ,,46,201,8900047,,,,,,,2024-10-02,1,,,,,エムエイサポート,0
1516,6350001019197,新規,0,2024-10-02,2024-10-02,株式会社ＯＣＥＡＮ　ＣＹＣＬＥ,,株式会社,宮崎県,宮崎市,吾妻町７６番地３,,45,201,8800864,,,,,,,2024-10-02,1,,,,,オーシャンサイクル,0
1519,6360001034245,新規,0,2024-10-02,2024-10-02,株式会社Ｂｏｎｈｅｕｒ　Ｌｅｌｉｅｎ,,株式会社,沖縄県,浦添市,沢岻２丁目２１番９号２Ｆ,,47,208,9012112,,,,,,,2024-10-02,1,,,,,ボヌールルリアン,0
1522,6360003014352,新規,0,2024-10-02,2024-10-02,合同会社Ｕ・Ｉ企画ＯＫＩＮＡＷＡ,,合同会社,沖縄県,国頭郡本部町,字具志堅２８９番地２,,47,308,9050201,,,,,,,2024-10-02,1,,,,,ユーアイキカクオキナワ,0
1525,6370005010844,新規,0,2024-10-02,2024-10-02,一般社団法人ＮＴラボ,,その他の設立登記法人,宮城県,仙台市太白区,富沢４丁目５番１０－１０３号,,04,104,9820032,,,,,,,2024-10-02,1,,,,,エヌティーラボ,0
1528,6380001034813,新規,0,2024-10-02,2024-10-02,株式会社Ｓｕｎｌｉｇｈｔ　Ｊａｐａｎ　Ｍｏｔｏｒｓ,,株式会社,福島県,いわき市,東田町１丁目８番地の４メゾン・ヴェルファイアＶ２０３,00136458,07,204,9748212,,,,,,,2024-10-02,1,,,,,サンライトジャパンモータース,0
1535,6700150127392,新規,0,2024-10-02,2024-10-02,Ｓｈｅｎｚｈｅｎｓｈｉｄｉｎｇｆｕｙｕａｎｋｅｊｉｙｏｕｘｉａｎｇｏｎｇｓｉ,,外国会社等,,,,,,,,ｓｕｎｇａｎｇｊｉｅｄａｏｓｕｎｘｉｓｈｉｑｕｌｉｙｕａｎｌｕ８ｈａｏＨＡＬＯｇｕａｎｇｃｈａｎｇｙｉｑｉｌｉｕｃｅｎｇ６１６ｓｈｉｓｈｅｎｚｈｅｎｓｈｉｌｕｏｈｕｑｕｇｕａｎｇｄｏｎｇｓｈｅｎｇ５１８０００ＣＮ,,,,,,2024-10-02,1,,,,,シェンジェンシーディンフーユエンコージーヨウシエンゴンスー,0
1543,7010001248580,新規,0,2024-10-02,2024-10-02,Ｈｏｎｅｓｔ　Ｃａｒｅｅｒ　Ｒｅｃｒｕｉｔ株式会社,,株式会社,東京都,中央区,日本橋本石町４丁目５番１１号伊藤ビル２階,,13,102,1030021,,,,,,,2024-10-02,1,,,,,オネストキャリアリクルート,0
1544,7010001248597,新規,0,2024-10-02,2024-10-02,株式会社Ｍａｎａｇｅｍｅｎｔ,,株式会社,東京都,中央区,銀座１丁目８番７号,,13,102,1040061,,,,,,,2024-10-02,1,,,,,マネージメント,0
1545,7010001248696,新規,0,2024-10-02,2024-10-02,株式会社ミドルフォレスト,,株式会社,東京都,千代田区,神田富山町７,,13,101,1010043,,,,,,,2024-10-02,1,,,,,ミドルフォレスト,0
1546,7010001248705,新規,0,2024-10-02,2024-10-02,ヒャクバンチ株式会社,,株式会社,東京都,中央区,銀座１丁目２２番１１号銀座大竹ビジデンス２Ｆ,,13,102,1040061,,,,,,,2024-10-02,1,,,,,ヒャクバンチ,0
1547,7010003045051,新規,0,2024-10-02,2024-10-02,合同会社ライズ,,合同会社,東京都,中央区,晴海５丁目４－４－１６０４,,13,102,1040053,,,,,,,2024-10-02,1,,,,,ライズ,0
1548,7010003045068,新規,0,2024-10-02,2024-10-02,ＳｈｏＮｅｘｔ合同会社,,合同会社,東京都,中央区,銀座１丁目２－４，Ｎ＆ＥＢＬＤ．６Ｆ,,13,102,1040061,,,,,,,2024-10-02,1,,,,,ショーネクスト,0
1549,7010005038887,新規,0,2024-10-02,2024-10-02,一般社団法人イレブンケーエス,,その他の設立登記法人,東京都,千代田区,丸の内１丁目５番１号新丸の内ビルディング１０Ｆ,,13,101,1000005,,,,,,,2024-10-02,1,,,,,イレブンケーエス,0
1556,7010401185449,新規,0,2024-10-02,2024-10-02,株式会社ｍａｙｌｅ,,株式会社,東京都,港区,三田５丁目２－２２－６０７,,13,103,1080073,,,,,,,2024-10-02,1,,,,,マイレ,0
1559,7010601066011,新規,0,2024-10-02,2024-10-02,軼博株式会社,,株式会社,東京都,墨田区,石原２丁目１６番１０－４０４号,,13,107,1300011,,,,,,,2024-10-02,1,,,,,イツハク,0
1563,7010801035427,新規,0,2024-10-02,2024-10-02,ＷＡＴＡＭＩ　ＦＡＳＴ　ＦＯＯＤ株式会社,,株式会社,東京都,大田区,羽田１丁目１番３号,,13,111,1440043,,,,,,,2024-10-02,1,,,,,ワタミファーストフード,0
1569,7011001164900,新規,0,2024-10-02,2024-10-02,株式会社ＯＫ，ＯＫＡＹ,,株式会社,東京都,渋谷区,渋谷１丁目１５番１５号テラス渋谷美竹６１５,,13,113,1500002,,,,,,,2024-10-02,1,,,,,オーケーオーケイ,0
1570,7011001164917,新規,0,2024-10-02,2024-10-02,ＧｒｏｗｓＫ株式会社,,株式会社,東京都,目黒区,中町２丁目４５番８－１００３号Ｔｈｅ目黒桜レジデンス,,13,110,1530065,,,,,,,2024-10-02,1,,,,,グロースケイ,0
1571,7011001164933,新規,0,2024-10-02,2024-10-02,株式会社ＹＯＳＨＩＮＡＲＩ,,株式会社,東京都,渋谷区,道玄坂１丁目１０番８号渋谷道玄坂東急ビル２Ｆ－Ｃ,,13,113,1500043,,,,,,,2024-10-02,1,,,,,ヨシナリ,0
1577,7011101108914,新規,0,2024-10-02,2024-10-02,株式会社Ｙｎｏｖａ,,株式会社,東京都,新宿区,西新宿３丁目３番１３号西新宿水間ビル２Ｆ,,13,104,1600023,,,,,,,2024-10-02,1,,,,,ワイノバ,0
1578,7011101108947,新規,0,2024-10-02,2024-10-02,株式会社ＥＮＬＩＣＲ,,株式会社,東京都,新宿区,西新宿８丁目１１番１０号星野ビル３Ｆ,,13,104,1600023,,,,,,,2024-10-02,1,,,,,エンリクル,0
1581,7011103014978,新規,0,2024-10-02,2024-10-02,合同会社ｎｅｅｗ,,合同会社,東京都,新宿区,高田馬場２丁目１９番８号ダイヤモンドビル高田馬場,,13,104,1690075,,,,,,,2024-10-02,1,,,,,ニュー,0
1582,7011201025828,新規,0,2024-10-02,2024-10-02,株式会社エンプレシャス,,株式会社,東京都,中野区,南台２丁目４７番９－８０５号,,13,114,1640014,,,,,,,2024-10-02,1,,,,,エンプレシャス,0
1583,7011205002633,新規,0,2024-10-02,2024-10-02,特定非営利活動法人オメガプロジェクト,,その他の設立登記法人,東京都,中野区,若宮２丁目４番７号セレストハイム２０１号室,,13,114,1650033,,,,,,,2024-10-02,1,,,,,オメガプロジェクト,0
1592,7011701027654,新規,0,2024-10-02,2024-10-02,ＬＢＬアドバリュー株式会社,,株式会社,東京都,江戸川区,西葛西３丁目７番１５－７０２号,,13,123,1340088,,,,,,,2024-10-02,1,,,,,エルビーエルアドバリュー,0
1595,7012301014101,新規,0,2024-10-02,2024-10-02,株式会社侑技研,,株式会社,東京都,町田市,野津田町６２５番地１６,,13,209,1950063,,,,,,,2024-10-02,1,,,,,ユウギケン,0
1600,7012801023477,新規,0,2024-10-02,2024-10-02,株式会社アイム,,株式会社,東京都,日野市,豊田１丁目２５番地の１９,,13,212,1910053,,,,,,,2024-10-02,1,,,,,アイム,0
1607,7020001159307,新規,0,2024-10-02,2024-10-02,株式会社テクネライフ,,株式会社,神奈川県,横浜市西区,北幸１丁目１１番１号水信ビル７階,,14,103,2200004,,,,,,,2024-10-02,1,,,,,テクネライフ,0
1608,7020001159323,新規,0,2024-10-02,2024-10-02,株式会社紅憲コーポレーション,,株式会社,神奈川県,川崎市川崎区,殿町１丁目２０番２４号,,14,131,2100821,,,,,,,2024-10-02,1,,,,,コウケンコーポレーション,0
1609,7020001159331,新規,0,2024-10-02,2024-10-02,株式会社エスショット,,株式会社,神奈川県,横浜市中区,吉田町６４番地３ＬＡＺ桜木町ビルディング５０３,,14,104,2310041,,,,,,,2024-10-02,1,,,,,エスショット,0
1610,7020001159348,新規,0,2024-10-02,2024-10-02,強昇株式会社,,株式会社,神奈川県,横浜市鶴見区,市場東中町５番１９号,,14,101,2300022,,,,,,,2024-10-02,1,,,,,キョウショウ,0
1611,7020001159455,新規,0,2024-10-02,2024-10-02,ユニリモデル株式会社,,株式会社,神奈川県,横浜市神奈川区,反町３丁目２３－１２小笠原ビル１－Ａ,,14,102,2210825,,,,,,,2024-10-02,1,,,,,ユニリモデル,0
1614,7020003026950,新規,0,2024-10-02,2024-10-02,合同会社人権とデザイン,,合同会社,神奈川県,横浜市西区,浅間町１丁目４番３号ウィザードビル４０２,,14,103,2200072,,,,,,,2024-10-02,1,,,,,ジンケントデザイン,0
1615,7020005016561,新規,0,2024-10-02,2024-10-02,一般社団法人Ｈｅａｒｔ　Ｃａｒｅ　Ｓａｌｏｎ木洩れ日,,その他の設立登記法人,神奈川県,横浜市港北区,高田西１丁目１８番４－１号,,14,109,2230066,,,,,,,2024-10-02,1,,,,,ハートケアサロンコモレビ,0
1619,7021001083356,新規,0,2024-10-02,2024-10-02,株式会社ＧＲＡＶＩＴＹ,,株式会社,神奈川県,平塚市,桃浜町１１－１１－３,,14,203,2540815,,,,,,,2024-10-02,1,,,,,グラビティ,0
1620,7021001083372,新規,0,2024-10-02,2024-10-02,株式会社ＨＡＲＵＫＡ,,株式会社,神奈川県,藤沢市,藤沢９９１番地の１９,,14,205,2510052,,,,,,,2024-10-02,1,,,,,ハルカ,0
1621,7021005013193,新規,0,2024-10-02,2024-10-02,一般社団法人こども禅大学,,その他の設立登記法人,神奈川県,三浦市,南下浦町金田６３６番地２１,,14,210,2380103,,,,,,,2024-10-02,1,,,,,コドモゼンダイガク,0
1634,7030005021866,新規,0,2024-10-02,2024-10-02,医療法人社団紘誠会,,その他の設立登記法人,埼玉県,さいたま市大宮区,桜木町２丁目３番地大宮マルイ５階,,11,103,3300854,,,,,,,2024-10-02,1,,,,,コウセイカイ,0
1635,7040001135603,新規,0,2024-10-02,2024-10-02,株式会社ＴＡＩＹＯ,,株式会社,千葉県,千葉市稲毛区,小仲台８丁目２２番２棟２０４号,,12,103,2630043,,,,,,,2024-10-02,1,,,,,タイヨウ,0
1647,7060001037533,新規,0,2024-10-02,2024-10-02,株式会社ＳＣＵＤＥＲＩＡ　ＳＥＧＲＥＴＯ,,株式会社,栃木県,宇都宮市,若松原３丁目２１番１８号,,09,201,3210139,,,,,,,2024-10-02,1,,,,,スクーデリアセグレート,0
1649,7070001042219,新規,0,2024-10-02,2024-10-02,株式会社Ｌｉｇａｒｅ,,株式会社,群馬県,伊勢崎市,田部井町３丁目１９６９番地,,10,204,3792222,,,,,,,2024-10-02,1,,,,,リガーレ,0
1651,7080401027479,新規,0,2024-10-02,2024-10-02,株式会社ｓｅａ＆ｄ,,株式会社,静岡県,磐田市,今之浦４丁目２１番地４,,22,211,4380071,,,,,,,2024-10-02,1,,,,,シーアンドディー,0
1652,7080401027487,新規,0,2024-10-02,2024-10-02,興隆貿易株式会社,,株式会社,静岡県,掛川市,本郷１４１０番地の２３,,22,213,4360111,,,,,,,2024-10-02,1,,,,,コウリュウボウエキ,0
1653,7080403005111,新規,0,2024-10-02,2024-10-02,Ｋｌｅｅ合同会社,,合同会社,静岡県,浜松市中央区,中山町５３番地の２,,22,138,4328016,,,,,,,2024-10-02,1,,,,,クレー,0
1657,7110003005532,新規,0,2024-10-02,2024-10-02,合同会社ＣＬＡＳＳＹ,,合同会社,新潟県,南魚沼市,寺尾１４７４番地,,15,226,9497104,,,,,,,2024-10-02,1,,,,,クラッシー,0
1670,7120001268799,新規,0,2024-10-02,2024-10-02,Ｉｎｄｉｇｏ　Ｈｏｌｄｉｎｇｓ株式会社,,株式会社,大阪府,大阪市中央区,船場中央２丁目１番４号,,27,128,5410055,,,,,,,2024-10-02,1,,,,,インディゴホールディングス,0
1671,7120001268881,新規,0,2024-10-02,2024-10-02,株式会社ゆうあいハーモニー,,株式会社,大阪府,大阪市中央区,谷町９丁目２番１４号中田東海ビル５０３号室,,27,128,5420012,,,,,,,2024-10-02,1,,,,,ユウアイハーモニー,0
1672,7120001268898,新規,0,2024-10-02,2024-10-02,東葛株式会社,,株式会社,大阪府,大阪市西淀川区,柏里２丁目７－２６ラ・ピース塚本５０６号室,,27,113,5550022,,,,,,,2024-10-02,1,,,,,トウカツ,0
1673,7120001268931,新規,0,2024-10-02,2024-10-02,株式会社リタエステートワン,,株式会社,大阪府,大阪市鶴見区,横堤３丁目１０番１－９０５号,,27,124,5380052,,,,,,,2024-10-02,1,,,,,リタエステートワン,0
1674,7120001268956,新規,0,2024-10-02,2024-10-02,ＳＭＩＬＥ　ＮＥＷＳ　ＦＡＣＴＯＲＹ株式会社,,株式会社,大阪府,大阪市港区,築港３丁目１０番８号,,27,107,5520021,,,,,,,2024-10-02,1,,,,,スマイルニュースファクトリー,0
1676,7120003027617,新規,0,2024-10-02,2024-10-02,合同会社ビューサポ,,合同会社,大阪府,大阪市淀川区,三津屋北１丁目３６番１０－１３３４号,,27,123,5320032,,,,,,,2024-10-02,1,,,,,ビューサポ,0
1679,7120101070345,新規,0,2024-10-02,2024-10-02,株式会社ライクイット,,株式会社,大阪府,堺市堺区,並松町９番地４,,27,141,5900912,,,,,,,2024-10-02,1,,,,,ライクイット,0
1687,7130001078041,新規,0,2024-10-02,2024-10-02,株式会社ＰｏｌｙＥｎｔｈ,,株式会社,京都府,京都市伏見区,桃山町遠山９４番地６,,26,109,6128012,,,,,,,2024-10-02,1,,,,,ポリエンス,0
1691,7130003009903,新規,0,2024-10-02,2024-10-02,合同会社井上農園,,合同会社,京都府,福知山市,字宮７７番地,,26,201,6200833,,,,,,,2024-10-02,1,,,,,イノウエノウエン,0
1697,7140001135964,新規,0,2024-10-02,2024-10-02,株式会社ワイズスクエア,,株式会社,兵庫県,川西市,久代４丁目２－５６,,28,217,6660024,,,,,,,2024-10-02,1,,,,,ワイズスクエア,0
1701,7150001027582,新規,0,2024-10-02,2024-10-02,株式会社ＮＦａｃｔｏｒｙ,,株式会社,奈良県,五條市,野原東５丁目３番１９号,,29,207,6370038,,,,,,,2024-10-02,1,,,,,エヌファクトリー,0
1703,7160001026245,新規,0,2024-10-02,2024-10-02,ｓｕｃｃｕｌｅｎｔ　ａｒｔｉｓｔ　ａｍｔ株式会社,,株式会社,滋賀県,大津市,浜大津４丁目３－２７、９０１号室,,25,201,5200047,,,,,,,2024-10-02,1,,,,,サキュレントアーティストエイエムティ,0
1704,7160001026261,新規,0,2024-10-02,2024-10-02,Ｒ．ＰＯＭＩ株式会社,,株式会社,滋賀県,栗東市,小柿４丁目６番２０号,,25,208,5203024,,,,,,,2024-10-02,1,,,,,アールポミ,0
1705,7160003003300,新規,0,2024-10-02,2024-10-02,合同会社足立,,合同会社,滋賀県,守山市,石田町７０５番地１６,,25,207,5240014,,,,,,,2024-10-02,1,,,,,アダチ,0
1708,7180001163383,新規,0,2024-10-02,2024-10-02,株式会社ベストライド,,株式会社,愛知県,丹羽郡大口町,中小口２丁目４５３番地,,23,361,4800142,,,,,,,2024-10-02,1,,,,,ベストライド,0
1709,7180001163458,新規,0,2024-10-02,2024-10-02,ＮｏｖｅｍｂｅｒＨｉｎａｔａ株式会社,,株式会社,愛知県,名古屋市緑区,南大高１丁目１５２３番地,,23,114,4598016,,,,,,,2024-10-02,1,,,,,ノヴェンバーヒナタ,0
1710,7180001163466,新規,0,2024-10-02,2024-10-02,株式会社Ｃｏｃｏ　Ｓｍｉｌｅ,,株式会社,愛知県,名古屋市緑区,横吹町１００２番地グランヒルズ横吹Ａ１０１,,23,114,4580816,,,,,,,2024-10-02,1,,,,,ココスマイル,0
1711,7180001163474,新規,0,2024-10-02,2024-10-02,セレンディップＳＰＣ２号株式会社,,株式会社,愛知県,名古屋市中区,錦１丁目５番１１号,,23,106,4600003,,,,,,,2024-10-02,1,,,,,セレンディップエスピーシーニゴウ,0
1722,7200001042972,新規,0,2024-10-02,2024-10-02,株式会社ガストロノミーワークス,,株式会社,岐阜県,多治見市,赤坂町７丁目９７番地,,21,204,5070057,,,,,,,2024-10-02,1,,,,,ガストロノミーワークス,0
1729,7260001039501,新規,0,2024-10-02,2024-10-02,株式会社ＧＥＮホールディングス,,株式会社,岡山県,岡山市北区,京町１０番２号,,33,101,7000838,,,,,,,2024-10-02,1,,,,,ゲンホールディングス,0
1730,7260003004908,新規,0,2024-10-02,2024-10-02,合同会社菜々っ子農園,,合同会社,岡山県,岡山市東区,升田１３１番地,,33,103,7048163,,,,,,,2024-10-02,1,,,,,ナナッコノウエン,0
1731,7270001009065,新規,0,2024-10-02,2024-10-02,株式会社ＬＵＳＨ,,株式会社,鳥取県,鳥取市,湯所町２丁目１５９番地,,31,201,6800007,,,,,,,2024-10-02,1,,,,,ラッシュ,0
1735,7290001107370,新規,0,2024-10-02,2024-10-02,株式会社リバーエース,,株式会社,福岡県,福岡市博多区,千代５丁目３番３０号,,40,132,8120044,,,,,,,2024-10-02,1,,,,,リバーエース,0
1740,7290003015844,新規,0,2024-10-02,2024-10-02,合同会社ＴＲＹ‐Ａ,,合同会社,福岡県,福岡市早良区,次郎丸３丁目３０番８－１０３号,,40,137,8140165,,,,,,,2024-10-02,1,,,,,トライエース,0
1741,7290003015860,新規,0,2024-10-02,2024-10-02,合同会社おはまるん,,合同会社,福岡県,福岡市中央区,天神２丁目２番１２号Ｔ＆Ｊビルディング７Ｆ,,40,133,8100001,,,,,,,2024-10-02,1,,,,,オハマルン,0
1742,7290003015885,新規,0,2024-10-02,2024-10-02,合同会社きんりゅう,,合同会社,福岡県,嘉麻市,下山田１９３番地２,,40,227,8210011,,,,,,,2024-10-02,1,,,,,キンリュウ,0
1743,7290005019521,新規,0,2024-10-02,2024-10-02,一般社団法人トゥマンリンク,,その他の設立登記法人,福岡県,福岡市博多区,東比恵２丁目１番１号,,40,132,8120007,,,,,,,2024-10-02,1,,,,,トゥマンリンク,0
1745,7290801030912,新規,0,2024-10-02,2024-10-02,ＥＰＯＬＬ株式会社,,株式会社,福岡県,行橋市,大字今井３３０９番地２－Ｉ１０１号,,40,213,8240018,,,,,,,2024-10-02,1,,,,,エポル,0
1746,7290801030920,新規,0,2024-10-02,2024-10-02,株式会社ＹＯＵＴＨ,,株式会社,福岡県,北九州市小倉北区,魚町１丁目１番６－３０２号,,40,106,8020006,,,,,,,2024-10-02,1,,,,,ユース,0
1748,7310001019233,新規,0,2024-10-02,2024-10-02,株式会社Ｔ‐ｂａｓｅ,,株式会社,長崎県,佐世保市,江迎町飯良坂２９９番地１,,42,202,8596111,,,,,,,2024-10-02,1,,,,,ティーベイス,0
1749,7310001019241,新規,0,2024-10-02,2024-10-02,株式会社バックオフィス,,株式会社,長崎県,長崎市,小江原２丁目３５番３号,,42,201,8511132,,,,,,,2024-10-02,1,,,,,バックオフィス,0
1752,7320001020735,新規,0,2024-10-02,2024-10-02,株式会社Ｒａｄｉｏｍａｎ,,株式会社,大分県,別府市,大字鶴見４５４８番地の１５９,,44,202,8740840,,,,,,,2024-10-02,1,,,,,,0
1754,7330001032498,新規,0,2024-10-02,2024-10-02,株式会社ＫｏｂａｙａｓｈｉＣａｖａｌｒｙ,,株式会社,熊本県,熊本市南区,城南町坂野７７１番地,,43,104,8614201,,,,,,,2024-10-02,1,,,,,コバヤシキャバリー,0
1755,7330003010576,新規,0,2024-10-02,2024-10-02,合同会社ＢＬＩＣ,,合同会社,熊本県,熊本市東区,東町３丁目１１番５０－９０７号,,43,102,8620901,,,,,,,2024-10-02,1,,,,,ブリック,0
1756,7340001026838,新規,0,2024-10-02,2024-10-02,桜ヤマス株式会社,,株式会社,鹿児島県,鹿児島市,甲突町２番１２－３０３号,,46,201,8920837,,,,,,,2024-10-02,1,,,,,サクラヤマス,0
1758,7360001034269,新規,0,2024-10-02,2024-10-02,株式会社富名腰,,株式会社,沖縄県,糸満市,字糸満１５５８番地の１,,47,210,9010361,,,,,,,2024-10-02,1,,,,,フナコシ,0
1762,7360003014319,新規,0,2024-10-02,2024-10-02,ＪＡＰＡＣ合同会社,,合同会社,沖縄県,中頭郡読谷村,字座喜味２７１５－１０オアシス座喜味２０５,,47,324,9040301,,,,,,,2024-10-02,1,,,,,ジャパク,0
1763,7360003014335,新規,0,2024-10-02,2024-10-02,フルタ合同会社,,合同会社,沖縄県,うるま市,与那城饒辺１４１－２,,47,213,9042307,,,,,,,2024-10-02,1,,,,,フルタ,0
1776,7400001016799,新規,0,2024-10-02,2024-10-02,株式会社つなぎ大観,,株式会社,岩手県,盛岡市,繋字湯ノ舘３７番地の１,,03,201,0200055,,,,,,,2024-10-02,1,,,,,ツナギタイカン,0
1780,7420001018884,新規,0,2024-10-02,2024-10-02,株式会社Ｐｒｏｇｒｅｓｓ,,株式会社,青森県,青森市,緑２丁目９－２０Ｐａｃｈｉｒａ　ｐｉｌａｔｅｓ　ｓｔｕｄｉｏ,,02,201,0300845,,,,,,,2024-10-02,1,,,,,プログレス,0
1784,7420003003001,新規,0,2024-10-02,2024-10-02,エネプロ三沢合同会社,,合同会社,青森県,三沢市,大字三沢字淋代平２４６０,,02,207,0330022,,,,,,,2024-10-02,1,,,,,エネプロミサワ,0
1795,7500001025914,新規,0,2024-10-02,2024-10-02,株式会社じゅげ夢,,株式会社,愛媛県,松山市,祇園町１３番１７号,,38,201,7900965,,,,,,,2024-10-02,1,,,,,ジュゲム,0
1796,7700150127391,新規,0,2024-10-02,2024-10-02,Ｓｈａｎｇｈａｉｋｕｂｏｄｅｍａｏｙｉｙｏｕｘｉａｎｇｏｎｇｓｉ,,外国会社等,,,,,,,,ｌｉａｎｘｉｇｏｎｇｌｕ４８１５ｈａｏ１ｃｅｎｇＦｑｕ１４６ｓｈｉ　ｑｉｎｇｐｕｑｕｊｉｎｚｅｚｈｅｎ　ｓｈａｎｇｈａｉ　２１００００　ＣＮ,,,,,,2024-10-02,1,,,,,シャンハイコクトクボウエキユウゲンコウシ,0
1800,8010001248670,新規,0,2024-10-02,2024-10-02,ｉｎｔ　ｍａｒｔ　ｄｅｓｉｇｎ株式会社,,株式会社,東京都,中央区,日本橋２丁目１５番３号,,13,102,1030027,,,,,,,2024-10-02,1,,,,,イントマートデザイン,0
1801,8010001248679,新規,0,2024-10-02,2024-10-02,株式会社大楽之野,,株式会社,東京都,中央区,東日本橋３丁目９番２サンクビル,,13,102,1030004,,,,,,,2024-10-02,1,,,,,ダイラクノヤ,0
1802,8010001248720,新規,0,2024-10-02,2024-10-02,株式会社ペイフォワード,,株式会社,東京都,中央区,銀座２丁目１６番７号銀座２丁目松竹ビルＡＮＮＥＸ,,13,102,1040061,,,,,,,2024-10-02,1,,,,,ペイフォワード,0
1807,8010401185373,新規,0,2024-10-02,2024-10-02,株式会社ＰＳ　ＴＯＫＹＯ,,株式会社,東京都,港区,芝４丁目１６番１号カテリーナ三田Ｗ２７０６,,13,103,1080014,,,,,,,2024-10-02,1,,,,,ピーエストウキョウ,0
1808,8010401185415,新規,0,2024-10-02,2024-10-02,株式会社ＬＵＭＩＥ,,株式会社,東京都,港区,海岸１丁目１４番１７－１１０３号,,13,103,1050022,,,,,,,2024-10-02,1,,,,,ルミエ,0
1809,8010401185497,新規,0,2024-10-02,2024-10-02,株式会社ＡＭＡＮＥ,,株式会社,東京都,港区,南青山１丁目２０－２乃木坂ビジネスコート１１０号,,13,103,1070062,,,,,,,2024-10-02,1,,,,,アマネ,0
1817,8010403033555,新規,0,2024-10-02,2024-10-02,合同会社デコンストラクションアドバイザーズ,,合同会社,東京都,港区,北青山１丁目３番１号アールキューブ青山３階,,13,103,1070061,,,,,,,2024-10-02,1,,,,,デコンストラクションアドバイザーズ,0
1819,8010601066010,新規,0,2024-10-02,2024-10-02,朋悦株式会社,,株式会社,東京都,江東区,東陽１丁目１６－８ＭＥＬＤＩＡ東陽町ビル２０６室,,13,108,1350016,,,,,,,2024-10-02,1,,,,,トモエツ,0
1821,8010701046614,新規,0,2024-10-02,2024-10-02,株式会社ＫＰＧ,,株式会社,東京都,品川区,西大井５丁目６番５号品川富士見台グリーンハイツ５０１,,13,109,1400015,,,,,,,2024-10-02,1,,,,,ケーピージー,0
1827,8010903009385,新規,0,2024-10-02,2024-10-02,カンパニー合同会社,,合同会社,東京都,世田谷区,尾山台３丁目１３番３号,,13,112,1580086,,,,,,,2024-10-02,1,,,,,カンパニー,0
1828,8010903009393,新規,0,2024-10-02,2024-10-02,日暮地所合同会社,,合同会社,東京都,世田谷区,羽根木２丁目２８番２１号,,13,112,1560042,,,,,,,2024-10-02,1,,,,,ヒグラシジショ,0
1834,8011001164890,新規,0,2024-10-02,2024-10-02,ＡｓｔｒｏＭｅｄｉｃａｌ株式会社,,株式会社,東京都,渋谷区,神宮前５丁目４６番１６号イルチェントロセレーノ５０５号室,,13,113,1500001,,,,,,,2024-10-02,1,,,,,アストロメディカル,0
1835,8011003020101,新規,0,2024-10-02,2024-10-02,インテグリタス合同会社,,合同会社,東京都,渋谷区,道玄坂１丁目１０番８号渋谷道玄坂東急ビル２Ｆ－Ｃ,,13,113,1500043,,,,,,,2024-10-02,1,,,,,インテグリタス,0
1838,8011101108954,新規,0,2024-10-02,2024-10-02,ユートピアランドテック・ジャパン株式会社,,株式会社,東京都,新宿区,西新宿３丁目３番１３号西新宿水間ビル２Ｆ,,13,104,1600023,,,,,,,2024-10-02,1,,,,,ユートピアランドテックジャパン,0
1839,8011103014985,新規,0,2024-10-02,2024-10-02,合同会社順蓮土,,合同会社,東京都,新宿区,富久町３６番１７号,,13,104,1620067,,,,,,,2024-10-02,1,,,,,ジュンレンド,0
1840,8011103015001,新規,0,2024-10-02,2024-10-02,合同会社ｍｉｎａｍｏｔｏ,,合同会社,東京都,新宿区,西新宿３丁目３番１３号西新宿水間ビル２Ｆ,,13,104,1600023,,,,,,,2024-10-02,1,,,,,ミナモト,0
1841,8011105011171,新規,0,2024-10-02,2024-10-02,アイ・アドバイザリー税理士法人,,その他の設立登記法人,東京都,新宿区,天神町７番地１１,,13,104,1620808,,,,,,,2024-10-02,1,,,,,アイアドバイザリー,0
1843,8011501031203,新規,0,2024-10-02,2024-10-02,男前ＪＡＰＡＮ株式会社,,株式会社,東京都,北区,赤羽２丁目１９－８伊澤ビル１階,,13,117,1150045,,,,,,,2024-10-02,1,,,,,オトコマエジャパン,0
1846,8011701027653,新規,0,2024-10-02,2024-10-02,恵星株式会社,,株式会社,東京都,江戸川区,平井４丁目２０番１５号,,13,123,1320035,,,,,,,2024-10-02,1,,,,,ケイセイ,0
1861,8020001159322,新規,0,2024-10-02,2024-10-02,株式会社ＳｏｕｐＳｔｒｅａｍ,,株式会社,神奈川県,川崎市幸区,南幸町２丁目９番地,,14,132,2120016,,,,,,,2024-10-02,1,,,,,スープストリーム,0
1862,8020001159347,新規,0,2024-10-02,2024-10-02,株式会社エム＆エル,,株式会社,神奈川県,川崎市幸区,古川町１４０番地２１,,14,132,2120025,,,,,,,2024-10-02,1,,,,,エムアンドエル,0
1864,8020003027007,新規,0,2024-10-02,2024-10-02,合同会社３２,,合同会社,神奈川県,横浜市磯子区,栗木３丁目３３番１９号,,14,107,2350041,,,,,,,2024-10-02,1,,,,,サンニー,0
1871,8021001083371,新規,0,2024-10-02,2024-10-02,株式会社トラストデザイン・ホールディングス,,株式会社,神奈川県,藤沢市,藤沢５７５番地１,,14,205,2510052,,,,,,,2024-10-02,1,,,,,トラストデザインホールディングス,0
1872,8021001083388,新規,0,2024-10-02,2024-10-02,株式会社ドアーズ,,株式会社,神奈川県,横須賀市,舟倉２丁目２番７５号,,14,201,2390805,,,,,,,2024-10-02,1,,,,,ドアーズ,0
1873,8021001083396,新規,0,2024-10-02,2024-10-02,ヤチヨコンサルティング株式会社,,株式会社,神奈川県,大和市,柳橋４丁目４番１１号,,14,213,2420022,,,,,,,2024-10-02,1,,,,,ヤチヨコンサルティング,0
1874,8021001083405,新規,0,2024-10-02,2024-10-02,株式会社Ｅｎｄ　ｏｆ　ｔｈｅ　Ｔｒａｉｌ,,株式会社,神奈川県,鎌倉市,扇ガ谷１丁目１番１８号,,14,204,2480011,,,,,,,2024-10-02,1,,,,,エンドオブザトレイル,0
1880,8021005013192,新規,0,2024-10-02,2024-10-02,一般社団法人いせはら里山環境ＷＯＲＫＳ,,その他の設立登記法人,神奈川県,伊勢原市,日向１１１５番地の１２,,14,214,2591101,,,,,,,2024-10-02,1,,,,,イセハラサトヤマカンキョウワークス,0
1893,8030003025232,新規,0,2024-10-02,2024-10-02,ネクストフィールド合同会社,,合同会社,埼玉県,川口市,本町４丁目１２番１３－３１０号,,11,203,3320012,,,,,,,2024-10-02,1,,,,,ネクストフィールド,0
1901,8040003025883,新規,0,2024-10-02,2024-10-02,合同会社ＦＥＡＲＬＥＳＳ,,合同会社,千葉県,我孫子市,本町２丁目６番８－２０２号坪井マンション,,12,222,2701151,,,,,,,2024-10-02,1,,,,,フィアレス,0
1906,8050001055469,新規,0,2024-10-02,2024-10-02,株式会社ＫＩＮＡＳＥ,,株式会社,茨城県,那珂郡東海村,大字竹瓦７９６番地１,,08,341,3191103,,,,,,,2024-10-02,1,,,,,キナセ,0
1908,8050003008689,新規,0,2024-10-02,2024-10-02,合同会社戸島工業,,合同会社,茨城県,鉾田市,阿玉３４７番地,,08,234,3112118,,,,,,,2024-10-02,1,,,,,トジマコウギョウ,0
1916,8060001037532,新規,0,2024-10-02,2024-10-02,株式会社住まい専科,,株式会社,栃木県,宇都宮市,東峰町３０７６番地１０,,09,201,3210944,,,,,,,2024-10-02,1,,,,,スマイセンカ,0
1925,8080401027478,新規,0,2024-10-02,2024-10-02,Ｒｉｎｐｌｕｓ株式会社,,株式会社,静岡県,浜松市中央区,有玉南町１８６７番地の１,,22,138,4313122,,,,,,,2024-10-02,1,,,,,リンプラス,0
1927,8090001018926,新規,0,2024-10-02,2024-10-02,株式会社価値倶楽部,,株式会社,山梨県,中央市,上三條２４３－１３,,19,214,4093823,,,,,,,2024-10-02,1,,,,,カチクラブ,0
1928,8100001037874,新規,0,2024-10-02,2024-10-02,ＭＫファーム株式会社,,株式会社,長野県,下高井郡木島平村,大字上木島３２７８番地２１２,,20,562,3892303,,,,,,,2024-10-02,1,,,,,エムケイファーム,0
1943,8120001268815,新規,0,2024-10-02,2024-10-02,十三電工株式会社,,株式会社,大阪府,大阪市淀川区,三津屋南１丁目１９番２号,,27,123,5320035,,,,,,,2024-10-02,1,,,,,ジュウソウデンコウ,0
1944,8120001268856,新規,0,2024-10-02,2024-10-02,株式会社ＲｅＣｔｕｒｅ,,株式会社,大阪府,大阪市中央区,高麗橋２丁目１番８－８０２号,,27,128,5410043,,,,,,,2024-10-02,1,,,,,レクチャー,0
1945,8120001268889,新規,0,2024-10-02,2024-10-02,株式会社１７ｍａｇｉｃ,,株式会社,大阪府,大阪市北区,天神橋１丁目１８番２７号天神ビル４階,,27,127,5300041,,,,,,,2024-10-02,1,,,,,イチナナマジック,0
1946,8120001268897,新規,0,2024-10-02,2024-10-02,智超株式会社,,株式会社,大阪府,大阪市浪速区,浪速東１丁目２番３号１０３号,,27,111,5560025,,,,,,,2024-10-02,1,,,,,チチョウ,0
1947,8120001268906,新規,0,2024-10-02,2024-10-02,株式会社みの屋菓子事業部,,株式会社,大阪府,大阪市阿倍野区,天王寺町南１丁目３番２０号,,27,119,5450002,,,,,,,2024-10-02,1,,,,,ミノヤカシジギョウブ,0
1948,8120001268914,新規,0,2024-10-02,2024-10-02,株式会社ＲＴＪ,,株式会社,大阪府,大阪市中央区,東心斎橋２丁目４番４号,,27,128,5420083,,,,,,,2024-10-02,1,,,,,アールティージェイ,0
1949,8120001268939,新規,0,2024-10-02,2024-10-02,株式会社Ｇｒｏｕｎｄｂｒｅａｋ,,株式会社,大阪府,大阪市福島区,福島８丁目８番３－３０２号,,27,103,5530003,,,,,,,2024-10-02,1,,,,,グランドブレイク,0
1950,8120001268955,新規,0,2024-10-02,2024-10-02,株式会社西子,,株式会社,大阪府,大阪市東住吉区,北田辺５丁目９番３６号ルンルン桃ケ池３０３室,,27,121,5460044,,,,,,,2024-10-02,1,,,,,セイコ,0
1952,8120003027632,新規,0,2024-10-02,2024-10-02,合同会社日和,,合同会社,大阪府,大阪市西成区,長橋３丁目３番２０号,,27,122,5570025,,,,,,,2024-10-02,1,,,,,ヒヨリ,0
1953,8120003027649,新規,0,2024-10-02,2024-10-02,ひまわり合同会社,,合同会社,大阪府,大阪市西成区,梅南１丁目６番１５号シャトープラム４０２号室,,27,122,5570033,,,,,,,2024-10-02,1,,,,,ヒマワリ,0
1955,8120101070352,新規,0,2024-10-02,2024-10-02,株式会社パティスタ,,株式会社,大阪府,堺市中区,堀上町１０４番地,,27,142,5998261,,,,,,,2024-10-02,1,,,,,パティスタ,0
1956,8120101070369,新規,0,2024-10-02,2024-10-02,株式会社ベリーグッド麺,,株式会社,大阪府,堺市中区,新家町３４９番地１３,,27,142,5998232,,,,,,,2024-10-02,1,,,,,ベリーグッドメン,0
1959,8120901049827,新規,0,2024-10-02,2024-10-02,株式会社リヴァリー,,株式会社,大阪府,吹田市,山田東２丁目１０番－２０－１１０号,,27,205,5650821,,,,,,,2024-10-02,1,,,,,リヴァリー,0
1960,8120903005357,新規,0,2024-10-02,2024-10-02,合同会社ＫＳ,,合同会社,大阪府,摂津市,新在家１丁目３２番２号２Ｆ,,27,224,5660055,,,,,,,2024-10-02,1,,,,,ケーエス,0
1969,8130003009893,新規,0,2024-10-02,2024-10-02,合同会社平安メディカル,,合同会社,京都府,京都市右京区,龍安寺西ノ川町１５番地２３,,26,108,6168016,,,,,,,2024-10-02,1,,,,,ヘイアンメディカル,0
1970,8130005017201,新規,0,2024-10-02,2024-10-02,医療法人育象会,,その他の設立登記法人,京都府,京都市西京区,上桂森下町１番地１０６,,26,111,6158225,,,,,,,2024-10-02,1,,,,,イクショウカイ,0
1975,8140001135955,新規,0,2024-10-02,2024-10-02,ＳＡＩ商事株式会社,,株式会社,兵庫県,神戸市中央区,下山手通４丁目１２番３号,,28,110,6500011,,,,,,,2024-10-02,1,,,,,エスエイアイショウジ,0
1984,8180001163432,新規,0,2024-10-02,2024-10-02,ユー・エス・トレーディング株式会社,,株式会社,愛知県,弥富市,松名３丁目６番２,,23,235,4980042,,,,,,,2024-10-02,1,,,,,ユーエストレーディング,0
1985,8180001163457,新規,0,2024-10-02,2024-10-02,株式会社ｓｔｕｄｉｏ　ＮＨ,,株式会社,愛知県,名古屋市東区,泉１丁目４番１６号,,23,102,4610001,,,,,,,2024-10-02,1,,,,,スタジオエヌエイチ,0
1986,8180001163465,新規,0,2024-10-02,2024-10-02,株式会社Ｏｒａｎｇｅ,,株式会社,愛知県,名古屋市千種区,高見２丁目９番５号,,23,101,4640073,,,,,,,2024-10-02,1,,,,,オレンジ,0
1987,8180001163473,新規,0,2024-10-02,2024-10-02,セレンディップＳＰＣ１号株式会社,,株式会社,愛知県,名古屋市中区,錦１丁目５番１１号,,23,106,4600003,,,,,,,2024-10-02,1,,,,,セレンディップエスピーシーイチゴウ,0
1989,8180003027412,新規,0,2024-10-02,2024-10-02,合同会社ＧｅａｒｓＸｐｅｒｔ,,合同会社,愛知県,瀬戸市,弁天町２４番地の４,,23,204,4890945,,,,,,,2024-10-02,1,,,,,ギアーズエキスパート,0
1990,8180003027437,新規,0,2024-10-02,2024-10-02,ＭＯＤｅ合同会社,,合同会社,愛知県,一宮市,富塚字郷裏１６３８番地１,,23,203,4910123,,,,,,,2024-10-02,1,,,,,モード,0
1992,8190001031679,新規,0,2024-10-02,2024-10-02,株式会社Ｌｙｃｏｒｉｓ,,株式会社,三重県,鈴鹿市,白子駅前５番１６号白子駅前ビル１Ａ,,24,207,5100241,,,,,,,2024-10-02,1,,,,,リコリス,0
1995,8210003001842,新規,0,2024-10-02,2024-10-02,合同会社ナカムラ,,合同会社,福井県,福井市,北四ツ居２丁目７番１１号４０３,,18,201,9188205,,,,,,,2024-10-02,1,,,,,ナカムラ,0
2018,8290001107403,新規,0,2024-10-02,2024-10-02,株式会社カバー,,株式会社,福岡県,久留米市,南４丁目２７番２０－１００６号,,40,203,8300051,,,,,,,2024-10-02,1,,,,,カバー,0
2021,8320001020742,新規,0,2024-10-02,2024-10-02,株式会社ストライカー,,株式会社,大分県,速見郡日出町,大字豊岡６０６０番地２６,,44,341,8791507,,,,,,,2024-10-02,1,,,,,ストライカー,0
2023,8320005010186,新規,0,2024-10-02,2024-10-02,一般社団法人ときこえ紡ぎの郷８８,,その他の設立登記法人,大分県,日田市,天瀬町桜竹９２３番地３,,44,204,8794201,,,,,,,2024-10-02,1,,,,,トキコエツムギノサトダブルインフィニティ,0
2025,8340001026837,新規,0,2024-10-02,2024-10-02,株式会社川畑建築創作所,,株式会社,鹿児島県,鹿児島市,星ヶ峯２丁目３４番１２号,,46,201,8910102,,,,,,,2024-10-02,1,,,,,カワバタケンチクソウサクジョ,0
2028,8360001034227,新規,0,2024-10-02,2024-10-02,株式会社かりゆし産業,,株式会社,沖縄県,名護市,字宇茂佐１９６８番地５,,47,209,9050006,,,,,,,2024-10-02,1,,,,,カリユシサンギョウ,0
2040,8380001034811,新規,0,2024-10-02,2024-10-02,株式会社Ｐｉｇｎｅｔ,,株式会社,福島県,会津若松市,一箕町大字鶴賀字下居合１４５番地２,,07,202,9650006,,,,,,,2024-10-02,1,,,,,ピグネット,0
2044,8400001016815,新規,0,2024-10-02,2024-10-02,株式会社ＭＡホールディングス,,株式会社,岩手県,紫波郡矢巾町,流通センター南３丁目５番１２号,,03,322,0200891,,,,,,,2024-10-02,1,,,,,エムエイホールディングス,0
2048,8440001009501,新規,0,2024-10-02,2024-10-02,株式会社オムラ技建,,株式会社,北海道,函館市,陣川町８６番地８９,,01,202,0410833,,,,,,,2024-10-02,1,,,,,オムラギケン,0
2052,8700150127390,新規,0,2024-10-02,2024-10-02,ＳＰＥＥＤＩＡＮＣＥ　ＬＩＦＥ　ＴＥＣＨＮＯＬＯＧＹ（ＨＫ）ＣＯ．，ＬＩＭＩＴＥＤ,,外国会社等,,,,,,,,ＦＬＡＴ／ＲＭ　２０　ＢＬＫ　Ｂ３　０７／Ｆ　ＴＵＥＮ　ＭＵＮ　ＩＮＤＵＳＴＲＩＡＬ　ＣＥＮＴＲＥ　ＮＯ．２　ＳＡＮ　ＰＩＮＧ　ＣＩＲＣＵＩＴ　ＴＵＥＮ　ＭＵＮ　ＮＴ　Ｈｏｎｇ　Ｋｏｎｇ　９９９０７７,,,,,,2024-10-02,1,,,,,スピーディアンスライフテクノロジーホンコンカンパニーリミティッド,0
2064,9010001248653,新規,0,2024-10-02,2024-10-02,Ｗ株式会社,,株式会社,東京都,千代田区,内神田１丁目５番９号,,13,101,1010047,,,,,,,2024-10-02,1,,,,,ダブリュ,0
2065,9010001248678,新規,0,2024-10-02,2024-10-02,東海テクノロジー株式会社,,株式会社,東京都,千代田区,丸の内１丁目８番３号丸の内トラストタワー本館２０階,,13,101,1000005,,,,,,,2024-10-02,1,,,,,トウカイテクノロジー,0
2066,9010001248711,新規,0,2024-10-02,2024-10-02,縁株式会社,,株式会社,東京都,中央区,日本橋富沢町７－９人形町合田ビル２Ｆ,,13,102,1030006,,,,,,,2024-10-02,1,,,,,エニシ,0
2067,9010001248728,新規,0,2024-10-02,2024-10-02,株式会社田中貴金属グループ,,株式会社,東京都,中央区,日本橋茅場町２丁目６番６号,,13,102,1030025,,,,,,,2024-10-02,1,,,,,タナカキキンゾクグループ,0
2068,9010005038877,新規,0,2024-10-02,2024-10-02,バウハウス一般社団法人,,その他の設立登記法人,東京都,千代田区,霞が関３丁目２番５号,,13,101,1000013,,,,,,,2024-10-02,1,,,,,バウハウス,0
2075,9010405023603,新規,0,2024-10-02,2024-10-02,一般社団法人ＤＥＥＰ　ＤＩＶＥ,,その他の設立登記法人,東京都,港区,虎ノ門１丁目１６番６号虎ノ門ＲＡＰＯ－ＴＯビルＵＣＦ７階,,13,103,1050001,,,,,,,2024-10-02,1,,,,,ディープダイブ,0
2076,9010405023628,新規,0,2024-10-02,2024-10-02,一般社団法人ＨＤＧ４１,,その他の設立登記法人,東京都,港区,虎ノ門３丁目２２番１０－２０１号,,13,103,1050001,,,,,,,2024-10-02,1,,,,,エイチディージーフォーワン,0
2079,9010601066001,新規,0,2024-10-02,2024-10-02,東京好好文化産業株式会社,,株式会社,東京都,江東区,木場５丁目１番５号メイプルハイム木場Ｂ１１０室,,13,108,1350042,,,,,,,2024-10-02,1,,,,,トウキョウハオハオブンカサンギョウ,0
2081,9010701046605,新規,0,2024-10-02,2024-10-02,世浜貿易株式会社,,株式会社,東京都,品川区,東五反田１丁目１９番４号,,13,109,1410022,,,,,,,2024-10-02,1,,,,,,0
2083,9010703007373,新規,0,2024-10-02,2024-10-02,合同会社Ｌｕｘｃａｌ,,合同会社,東京都,品川区,小山台１丁目２９番１号,,13,109,1420061,,,,,,,2024-10-02,1,,,,,ラグカル,0
2091,9011001164626,新規,0,2024-10-02,2024-10-02,株式会社ＭＣＴ動画クリエイターズ,,株式会社,東京都,渋谷区,恵比寿西１丁目３３－６－１Ｆｃｏ－ｂａｅｂｉｓ,,13,113,1500021,,,,,,,2024-10-02,1,,,,,エムシーティードウガクリエイターズ,0
2092,9011001164907,新規,0,2024-10-02,2024-10-02,株式会社ホウルディア,,株式会社,東京都,渋谷区,千駄ヶ谷２丁目３８番８号１階,,13,113,1510051,,,,,,,2024-10-02,1,,,,,ホウルディア,0
2093,9011003020109,新規,0,2024-10-02,2024-10-02,合同会社ｓｍａｌｌ　ｗａｔｅｒ　ｍｏｂｉｌｉｔｙ,,合同会社,東京都,渋谷区,道玄坂１丁目１０番８号渋谷道玄坂東急ビル２Ｆ－Ｃ,,13,113,1500043,,,,,,,2024-10-02,1,,,,,スモールウォーターモビリティ,0
2094,9011003020117,新規,0,2024-10-02,2024-10-02,合同会社エヌプラニング,,合同会社,東京都,渋谷区,神泉町１０番１５号アネックス神泉３０１,,13,113,1500045,,,,,,,2024-10-02,1,,,,,エヌプラニング,0
2103,9011201025826,新規,0,2024-10-02,2024-10-02,株式会社ＳＴＡＲＫ　ＮＯＡ,,株式会社,東京都,中野区,中央２丁目２番１号ベル中野坂上,,13,114,1640011,,,,,,,2024-10-02,1,,,,,スタークノア,0
2106,9011601028081,新規,0,2024-10-02,2024-10-02,東京楽音富文化株式会社,,株式会社,東京都,練馬区,南田中５丁目１５－１１－１０２,,13,120,1770035,,,,,,,2024-10-02,1,,,,,トウキョウラクオンフブンカ,0
2116,9020001159354,新規,0,2024-10-02,2024-10-02,株式会社Ｌｉｃ,,株式会社,神奈川県,横浜市金沢区,大川７番６－５２４号,,14,108,2360043,,,,,,,2024-10-02,1,,,,,リック,0
2118,9020003026949,新規,0,2024-10-02,2024-10-02,合同会社オフィスＫＯＵ,,合同会社,神奈川県,川崎市中原区,市ノ坪６７５番地５グレース中新２０１,,14,133,2110016,,,,,,,2024-10-02,1,,,,,オフィスコウ,0
2122,9021001083379,新規,0,2024-10-02,2024-10-02,株式会社ＴＫ,,株式会社,神奈川県,平塚市,広川８０１番地の１,,14,203,2591219,,,,,,,2024-10-02,1,,,,,ティーケー,0
2127,9021005013191,新規,0,2024-10-02,2024-10-02,一般社団法人悠静会,,その他の設立登記法人,神奈川県,相模原市中央区,東淵野辺３丁目１２番２２号シェーンヴォーネン３０３,,14,152,2520203,,,,,,,2024-10-02,1,,,,,ユウセイカイ,0
2137,9030001162737,新規,0,2024-10-02,2024-10-02,株式会社エンドワン,,株式会社,埼玉県,和光市,南１丁目２９―４１コンフォート和光Ｂ１０２,,11,229,3510104,,,,,,,2024-10-02,1,,,,,エンドワン,0
2140,9030005021864,新規,0,2024-10-02,2024-10-02,一般財団法人グッドタイム,,その他の設立登記法人,埼玉県,入間郡三芳町,大字竹間沢５９０番地５,,11,324,3540043,,,,,,,2024-10-02,1,,,,,グッドタイム,0
2145,9040001135551,新規,0,2024-10-02,2024-10-02,ＳＯＲＩＫＡＥＮ株式会社,,株式会社,千葉県,流山市,南流山１丁目２４番地の６,,12,220,2700163,,,,,,,2024-10-02,1,,,,,ソリカエン,0
2146,9040001135592,新規,0,2024-10-02,2024-10-02,金川株式会社,,株式会社,千葉県,千葉市中央区,都町２丁目１６番１号中央ビル３階,,12,101,2600001,,,,,,,2024-10-02,1,,,,,カナガワ,0
2149,9040003025874,新規,0,2024-10-02,2024-10-02,合同会社クレア,,合同会社,千葉県,八千代市,八千代台東２丁目８－２４,,12,221,2760032,,,,,,,2024-10-02,1,,,,,クレア,0
2153,9050001055476,新規,0,2024-10-02,2024-10-02,株式会社リクシア,,株式会社,茨城県,北茨城市,中郷町松井１２２－１５,,08,215,3191557,,,,,,,2024-10-02,1,,,,,,0
2168,9080401027477,新規,0,2024-10-02,2024-10-02,株式会社ＣＡＭＵＰ,,株式会社,静岡県,浜松市中央区,高丘西２丁目１９番２３号,,22,138,4338118,,,,,,,2024-10-02,1,,,,,カムアップ,0
2172,9100003007800,新規,0,2024-10-02,2024-10-02,合同会社Ｂｅ＆Ｂｙ,,合同会社,長野県,長野市,吉田５丁目３１－３７－４,,20,201,3810043,,,,,,,2024-10-02,1,,,,,ビーアンドバイ,0
2193,9120001268855,新規,0,2024-10-02,2024-10-02,株式会社Ｌｕｖｅｒｅ,,株式会社,大阪府,大阪市西成区,花園南２丁目４番１０号辰巳ハイツ６０２号,,27,122,5570015,,,,,,,2024-10-02,1,,,,,ルベレ,0
2194,9120001268871,新規,0,2024-10-02,2024-10-02,株式会社Ｈａｒｂｏｒ　Ｍｅｒｃｈａｎｔ　Ｇｒｏｕｐ,,株式会社,大阪府,大阪市福島区,海老江１丁目２番１６号,,27,103,5530001,,,,,,,2024-10-02,1,,,,,ハーバーマーチャントグループ,0
2195,9120001268913,新規,0,2024-10-02,2024-10-02,紡城株式会社,,株式会社,大阪府,大阪市中央区,北久宝寺町１丁目５番６号堺筋本町アーバンライフ６１３号室,,27,128,5410057,,,,,,,2024-10-02,1,,,,,ホウジョウ,0
2196,9120001268938,新規,0,2024-10-02,2024-10-02,誠楽株式会社,,株式会社,大阪府,大阪市住吉区,南住吉２丁目２番２６号ハイム南住吉２０２号室,,27,120,5580041,,,,,,,2024-10-02,1,,,,,セイラク,0
2197,9120001268970,新規,0,2024-10-02,2024-10-02,株式会社ＭＴＴＢ,,株式会社,大阪府,大阪市西区,江之子島１丁目６番５号エアフォルク阿波座１０階,,27,106,5500006,,,,,,,2024-10-02,1,,,,,エムティーティービー,0
2199,9120101070343,新規,0,2024-10-02,2024-10-02,株式会社新化装建,,株式会社,大阪府,泉南市,信達市場２６６１番地の１４５,,27,228,5900504,,,,,,,2024-10-02,1,,,,,シンカソウケン,0
2200,9120103006080,新規,0,2024-10-02,2024-10-02,合同会社リラックス,,合同会社,大阪府,堺市北区,金岡町２２１１番地,,27,146,5918022,,,,,,,2024-10-02,1,,,,,リラックス,0
2201,9120105009916,新規,0,2024-10-02,2024-10-02,一般社団法人アンダンテ,,その他の設立登記法人,大阪府,堺市北区,百舌鳥赤畑町５丁６６１,,27,146,5918037,,,,,,,2024-10-02,1,,,,,アンダンテ,0
2204,9120901049834,新規,0,2024-10-02,2024-10-02,株式会社スタースペース,,株式会社,大阪府,箕面市,箕面２丁目１１番５３号６０２号室,,27,220,5620001,,,,,,,2024-10-02,1,,,,,スタースペース,0
2209,9130001078072,新規,0,2024-10-02,2024-10-02,Ｐｈｒａｇｍｉｔｅｓ　ｃａｐｉｔａｌ株式会社,,株式会社,京都府,京都市下京区,芦刈山町１１７番地１グラシオーズ芦刈山１０１,00136459,26,106,6008473,,,,,,,2024-10-02,1,,,,,フラグミテスキャピタル,0
2225,9160003003298,新規,0,2024-10-02,2024-10-02,合同会社ユニット,,合同会社,滋賀県,近江八幡市,十王町７８８番地３,,25,204,5230063,,,,,,,2024-10-02,1,,,,,ユニット,0
2232,9180001163373,新規,0,2024-10-02,2024-10-02,株式会社キーズ,,株式会社,愛知県,江南市,上奈良町旭４１番地,,23,217,4838259,,,,,,,2024-10-02,1,,,,,キーズ,0
2236,9180003027428,新規,0,2024-10-02,2024-10-02,合同会社ＦＭ・Ｆｕｔｕｒｅ,,合同会社,愛知県,名古屋市中区,千代田３丁目３３－２０Ｓ－ＦＯＲＴ鶴舞ａｒｔｓ１３０１号,,23,106,4600012,,,,,,,2024-10-02,1,,,,,エフエムフューチャー,0
2239,9180301039091,新規,0,2024-10-02,2024-10-02,ＳＵＮＬＩＮＥ株式会社,,株式会社,愛知県,豊川市,小桜町７３番地,,23,207,4420021,,,,,,,2024-10-02,1,,,,,サンライン,0
2244,9200001042987,新規,0,2024-10-02,2024-10-02,ＡＧＵテック株式会社,,株式会社,岐阜県,岐阜市,長森本町１丁目１６番１１号コーポ岩崎２０３,,21,201,5008228,,,,,,,2024-10-02,1,,,,,エージーユーテック,0
2246,9210001019927,新規,0,2024-10-02,2024-10-02,株式会社モストグループ,,株式会社,福井県,福井市,高柳２丁目６０３番地,,18,201,9100837,,,,,,,2024-10-02,1,,,,,モストグループ,0
2257,9260001039508,新規,0,2024-10-02,2024-10-02,株式会社ロブストソリューション,,株式会社,岡山県,岡山市中区,浜２丁目８番５－２号,,33,102,7038256,,,,,,,2024-10-02,1,,,,,ロブストソリューション,0
2258,9260001039516,新規,0,2024-10-02,2024-10-02,株式会社喰々,,株式会社,岡山県,岡山市北区,本町２番１６号小林本町ビル４階,,33,101,7000901,,,,,,,2024-10-02,1,,,,,グウグウ,0
2260,9270001009063,新規,0,2024-10-02,2024-10-02,株式会社みろくや,,株式会社,鳥取県,鳥取市,田島６７４番地,,31,201,6800804,,,,,,,2024-10-02,1,,,,,ミロクヤ,0
2261,9280001009269,新規,0,2024-10-02,2024-10-02,鎌田板金株式会社,,株式会社,島根県,出雲市,荻杼町３６９番地,,32,203,6930013,,,,,,,2024-10-02,1,,,,,カマダバンキン,0
2265,9290003015867,新規,0,2024-10-02,2024-10-02,合同会社真羽,,合同会社,福岡県,筑紫野市,二日市中央３丁目８番１４号行徳ビル２Ｆ,,40,217,8180072,,,,,,,2024-10-02,1,,,,,シンバ,0
2270,9320001020741,新規,0,2024-10-02,2024-10-02,株式会社湯と癒し,,株式会社,大分県,別府市,照波園町４番２３号,,44,202,8740031,,,,,,,2024-10-02,1,,,,,ユトイヤシ,0
2276,9330001032496,新規,0,2024-10-02,2024-10-02,株式会社Ｓｔｅｌｌａ８８,,株式会社,熊本県,熊本市北区,下硯川２丁目１番２７号,,43,105,8615526,,,,,,,2024-10-02,1,,,,,ステラエイティエイト,0
2280,9340003004625,新規,0,2024-10-02,2024-10-02,ヤギーズランド合同会社,,合同会社,鹿児島県,日置市,東市来町長里２２１－１,,46,216,8992202,,,,,,,2024-10-02,1,,,,,ヤギーズランド,0
2282,9350001019203,新規,0,2024-10-02,2024-10-02,株式会社オフィス高木,00136447,株式会社,宮崎県,宮崎市,学園木花台南２丁目２番地１,,45,201,8892153,,,,,,,2024-10-02,1,,,,,オフィスタカギ,0
2287,9360001034242,新規,0,2024-10-02,2024-10-02,株式会社オダスポ,,株式会社,沖縄県,那覇市,若狭２丁目４番１号６０３,,47,201,9000031,,,,,,,2024-10-02,1,,,,,オダスポ,0
2288,9360001034250,新規,0,2024-10-02,2024-10-02,株式会社ＨＯＬＬＹ,,株式会社,沖縄県,豊見城市,字翁長８５４－１ＭＥＧＡドン・キホーテ内６Ｆ,,47,212,9010223,,,,,,,2024-10-02,1,,,,,ホーリー,0
2289,9360001034259,新規,0,2024-10-02,2024-10-02,株式会社ゆいレールサービス,,株式会社,沖縄県,那覇市,字安次嶺３７７番地２,,47,201,9010143,,,,,,,2024-10-02,1,,,,,ユイレールサービス,0
2295,9370005010841,新規,0,2024-10-02,2024-10-02,ＦｅＬＬｏｗ事業協同組合,,その他の設立登記法人,宮城県,亘理郡亘理町,字東郷１５７番地１,,04,361,9892351,,,,,,,2024-10-02,1,,,,,フェロー,0
2302,9400001016814,新規,0,2024-10-02,2024-10-02,株式会社フジワラ,,株式会社,岩手県,紫波郡紫波町,日詰西１丁目５番地４,,03,321,0283306,,,,,,,2024-10-02,1,,,,,フジワラ,0
2306,9430003016842,新規,0,2024-10-02,2024-10-02,合同会社スキャフォールディング,,合同会社,北海道,札幌市中央区,北四条西２８丁目１番１２‐６０３号,,01,101,0640824,,,,,,,2024-10-02,1,,,,,スキャフォールディング,0
2308,9440001009500,新規,0,2024-10-02,2024-10-02,ＨＯＰＥ株式会社,,株式会社,北海道,函館市,元町１０－２,,01,202,0400054,,,,,,,2024-10-02,1,,,,,ホープ,0
